<?xml version="1.0" encoding="UTF-8"?>
<osm version="0.6" generator="osmapis">
	<node id="31217111" lat="60.0604931" lon="11.3924997" version="12" timestamp="2022-02-01T07:28:18Z" changeset="116853439" uid="3497659" user="NKA">
		<tag k="junction" v="yes" />
		<tag k="name" v="Munkerudteiet" />
		<tag k="ssr:stedsnr" v="102075" />
	</node>
	<node id="31361917" lat="60.1270727" lon="11.449539" version="5" timestamp="2022-02-01T07:28:18Z" changeset="116853439" uid="3497659" user="NKA">
		<tag k="junction" v="yes" />
		<tag k="name" v="Rotnes" />
		<tag k="ssr:stedsnr" v="951950" />
	</node>
	<node id="31362019" lat="60.098669" lon="11.366752" version="5" timestamp="2022-02-01T07:28:18Z" changeset="116853439" uid="3497659" user="NKA">
		<tag k="junction" v="yes" />
		<tag k="name" v="Hvamsmoen" />
		<tag k="ssr:stedsnr" v="769540" />
	</node>
	<node id="247673462" lat="60.21994" lon="11.39276" version="4" timestamp="2022-02-01T07:28:18Z" changeset="116853439" uid="3497659" user="NKA">
		<tag k="junction" v="yes" />
		<tag k="name" v="Heimvard" />
		<tag k="ssr:stedsnr" v="845121" />
	</node>
	<node id="247674256" lat="60.2274722" lon="11.3845195" version="4" timestamp="2022-02-01T07:28:18Z" changeset="116853439" uid="3497659" user="NKA">
		<tag k="junction" v="yes" />
		<tag k="name" v="Grinder" />
		<tag k="ssr:stedsnr" v="238130" />
	</node>
	<node id="247784041" lat="60.1329984" lon="11.48495" version="4" timestamp="2022-02-01T07:28:18Z" changeset="116853439" uid="3497659" user="NKA">
		<tag k="junction" v="yes" />
		<tag k="name" v="Runniteiet" />
		<tag k="ssr:stedsnr" v="162195" />
	</node>
	<node id="253685796" lat="60.2295121" lon="11.5660277" version="4" timestamp="2022-02-01T07:28:18Z" changeset="116853439" uid="3497659" user="NKA">
		<tag k="junction" v="yes" />
		<tag k="name" v="Togstad" />
		<tag k="ssr:stedsnr" v="662078" />
	</node>
	<node id="386934122" lat="60.1945" lon="11.504093" version="5" timestamp="2022-02-01T07:28:18Z" changeset="116853439" uid="3497659" user="NKA">
		<tag k="junction" v="yes" />
		<tag k="name" v="Skarningsteiet" />
		<tag k="ssr:stedsnr" v="662898" />
	</node>
	<node id="3712462940" lat="60.0434568" lon="11.727851" version="3" timestamp="2022-02-01T07:28:18Z" changeset="116853439" uid="3497659" user="NKA">
		<tag k="junction" v="yes" />
		<tag k="name" v="Vegskilla" />
		<tag k="ssr:stedsnr" v="102245" />
	</node>
	<node id="7205675175" lat="60.235429" lon="11.371072" version="3" timestamp="2022-02-01T07:28:18Z" changeset="116853439" uid="3497659" user="NKA">
		<tag k="junction" v="yes" />
		<tag k="name" v="Rolstad" />
		<tag k="ssr:stedsnr" v="784994" />
	</node>
	<node id="7952372854" lat="60.033921" lon="11.3292084" version="2" timestamp="2022-02-01T07:28:18Z" changeset="116853439" uid="3497659" user="NKA">
		<tag k="junction" v="yes" />
		<tag k="name" v="Neslerud" />
		<tag k="ssr:stedsnr" v="768311" />
	</node>
	<node id="9465227404" lat="60.1316158" lon="11.354151" version="1" timestamp="2022-02-01T07:28:18Z" changeset="116853439" uid="3497659" user="NKA">
		<tag k="junction" v="yes" />
		<tag k="name" v="Delerud" />
		<tag k="ssr:stedsnr" v="662765" />
	</node>
	<node id="9465227411" lat="60.19301" lon="11.5647903" version="1" timestamp="2022-02-01T07:28:18Z" changeset="116853439" uid="3497659" user="NKA">
		<tag k="alt_name" v="Bjerkerud" />
		<tag k="junction" v="yes" />
		<tag k="name" v="BjÃ¸rkerud" />
		<tag k="ssr:stedsnr" v="601798" />
	</node>
</osm>
