<?xml version="1.0" encoding="UTF-8"?>
<osm generator="osmapis" version="0.6">
	<node id="-506046" lat="61.1231388844" lon="5.33936388716">
		<tag k="alt_name" v="Bøfjord" />
		<tag k="name" v="Bøfjord lykt" />
		<tag k="ssr:date" v="2016-05-11" />
		<tag k="ssr:gruppe" v="navigasjon" />
		<tag k="ssr:hovedgruppe" v="infrastruktur" />
		<tag k="ssr:stedsnr" v="798496" />
		<tag k="ssr:type" v="fyrlykt" />
	</node>
	<node id="-505173" lat="61.1704055595" lon="5.29621388288">
		<tag k="name" v="Hyllestad kommune" />
		<tag k="ssr:date" v="2016-05-10" />
		<tag k="ssr:gruppe" v="administrativeIndelinger" />
		<tag k="ssr:hovedgruppe" v="offentligAdministrasjon" />
		<tag k="ssr:stedsnr" v="85044" />
		<tag k="ssr:type" v="kommune" />
	</node>
	<node id="-506195" lat="61.1452805593" lon="5.19692500239">
		<tag k="name" v="Listrømmen, Østsiden" />
		<tag k="ssr:date" v="2016-05-11" />
		<tag k="ssr:gruppe" v="navigasjon" />
		<tag k="ssr:hovedgruppe" v="infrastruktur" />
		<tag k="ssr:stedsnr" v="951365" />
		<tag k="ssr:type" v="lanterne" />
	</node>
	<node id="-506066" lat="61.1303472219" lon="5.34135555496">
		<tag k="name" v="Epleholmbåen lanterne" />
		<tag k="ssr:date" v="2016-05-11" />
		<tag k="ssr:gruppe" v="navigasjon" />
		<tag k="ssr:hovedgruppe" v="infrastruktur" />
		<tag k="ssr:stedsnr" v="830378" />
		<tag k="ssr:type" v="lanterne" />
	</node>
	<node id="-506161" lat="61.1694555516" lon="5.07417499295">
		<tag k="alt_name" v="Storakersund" />
		<tag k="name" v="Storakersund lykt" />
		<tag k="old_name" v="Storakersundet" />
		<tag k="ssr:date" v="2016-05-11" />
		<tag k="ssr:gruppe" v="navigasjon" />
		<tag k="ssr:hovedgruppe" v="infrastruktur" />
		<tag k="ssr:stedsnr" v="919014" />
		<tag k="ssr:type" v="fyrlykt" />
	</node>
	<node id="-505263" lat="61.1444249975" lon="5.19596943562">
		<tag k="name" v="Listrømmen, Vestsiden" />
		<tag k="ssr:date" v="2016-05-10" />
		<tag k="ssr:gruppe" v="navigasjon" />
		<tag k="ssr:hovedgruppe" v="infrastruktur" />
		<tag k="ssr:stedsnr" v="162383" />
		<tag k="ssr:type" v="lanterne" />
	</node>
	<node id="-504942" lat="61.1358138918" lon="5.34269166757">
		<tag k="name" v="Øikjanes" />
		<tag k="ssr:date" v="2016-05-10" />
		<tag k="ssr:gruppe" v="navigasjon" />
		<tag k="ssr:hovedgruppe" v="infrastruktur" />
		<tag k="ssr:stedsnr" v="405494" />
		<tag k="ssr:type" v="lanterne" />
	</node>
	<node id="-506251" lat="60.8816104596" lon="6.30047518531">
		<tag k="name" v="Vestlandet" />
		<tag k="ssr:date" v="2019-01-06" />
		<tag k="ssr:gruppe" v="administrativeIndelinger" />
		<tag k="ssr:hovedgruppe" v="offentligAdministrasjon" />
		<tag k="ssr:stedsnr" v="974777" />
		<tag k="ssr:type" v="annenAdministrativInndeling" />
	</node>
	<node id="-506250" lat="61.1425576205" lon="5.35772871433">
		<tag k="name" v="Ås" />
		<tag k="ssr:date" v="2019-05-31" />
		<tag k="ssr:gruppe" v="veg" />
		<tag k="ssr:hovedgruppe" v="infrastruktur" />
		<tag k="ssr:stedsnr" v="973462" />
		<tag k="ssr:type" v="adressenavn" />
	</node>
	<node id="-506249" lat="61.1459624777" lon="5.17609485996">
		<tag k="name" v="Risnesøyna" />
		<tag k="ssr:date" v="2019-05-31" />
		<tag k="ssr:gruppe" v="veg" />
		<tag k="ssr:hovedgruppe" v="infrastruktur" />
		<tag k="ssr:stedsnr" v="973460" />
		<tag k="ssr:type" v="adressenavn" />
	</node>
	<node id="-506248" lat="61.187174358" lon="5.08989275214">
		<tag k="name" v="Storakersundet" />
		<tag k="ssr:date" v="2019-05-31" />
		<tag k="ssr:gruppe" v="veg" />
		<tag k="ssr:hovedgruppe" v="infrastruktur" />
		<tag k="ssr:stedsnr" v="973459" />
		<tag k="ssr:type" v="adressenavn" />
	</node>
	<node id="-506247" lat="61.0726608241" lon="5.38910125505">
		<tag k="name" v="Hellebøstranda" />
		<tag k="ssr:date" v="2019-05-31" />
		<tag k="ssr:gruppe" v="veg" />
		<tag k="ssr:hovedgruppe" v="infrastruktur" />
		<tag k="ssr:stedsnr" v="973450" />
		<tag k="ssr:type" v="adressenavn" />
	</node>
	<node id="-506182" lat="61.2384194401" lon="5.02566666501">
		<tag k="alt_name" v="Skifjorden" />
		<tag k="name" v="Skifjorden lykt" />
		<tag k="ssr:date" v="2016-05-11" />
		<tag k="ssr:gruppe" v="navigasjon" />
		<tag k="ssr:hovedgruppe" v="infrastruktur" />
		<tag k="ssr:stedsnr" v="919888" />
		<tag k="ssr:type" v="fyrlykt" />
	</node>
	<node id="-505093" lat="61.134705558" lon="5.19777223044">
		<tag k="name" v="Svartnes" />
		<tag k="ssr:date" v="2016-05-10" />
		<tag k="ssr:gruppe" v="navigasjon" />
		<tag k="ssr:hovedgruppe" v="infrastruktur" />
		<tag k="ssr:stedsnr" v="41381" />
		<tag k="ssr:type" v="lanterne" />
	</node>
	<node id="-505091" lat="61.2133527746" lon="5.22023887997">
		<tag k="alt_name" v="Smilden" />
		<tag k="name" v="Smilla lykt" />
		<tag k="old_name" v="Smildefyret" />
		<tag k="ssr:date" v="2016-05-10" />
		<tag k="ssr:gruppe" v="navigasjon" />
		<tag k="ssr:hovedgruppe" v="infrastruktur" />
		<tag k="ssr:stedsnr" v="39219" />
		<tag k="ssr:type" v="fyrlykt" />
	</node>
	<node id="-505089" lat="61.2253027798" lon="4.95449721902">
		<tag k="alt_name" v="Sakrisskjær;Sakrisskjær lykt" />
		<tag k="name" v="Sakrisskjeret lykt" />
		<tag k="ssr:date" v="2016-05-10" />
		<tag k="ssr:gruppe" v="navigasjon" />
		<tag k="ssr:hovedgruppe" v="infrastruktur" />
		<tag k="ssr:stedsnr" v="9889" />
		<tag k="ssr:type" v="fyrlykt" />
	</node>
</osm>
