<?xml version="1.0" encoding="UTF-8"?>
<osm generator="osmapis" version="0.6">
	<node id="-54472" lat="59.7433981324" lon="8.70925976384">
		<tag k="name" v="Lomtjønn" />
		<tag k="ssr:date" v="2019-12-27" />
		<tag k="ssr:gruppe" v="veg" />
		<tag k="ssr:hovedgruppe" v="infrastruktur" />
		<tag k="ssr:stedsnr" v="1049427" />
		<tag k="ssr:type" v="adressenavn" />
	</node>
	<node id="-54043" lat="59.6207888905" lon="8.93129444266">
		<tag k="name" v="Hjartdal kommune" />
		<tag k="ssr:date" v="2019-12-27" />
		<tag k="ssr:gruppe" v="administrativeIndelinger" />
		<tag k="ssr:hovedgruppe" v="offentligAdministrasjon" />
		<tag k="ssr:stedsnr" v="570454" />
		<tag k="ssr:type" v="kommune" />
	</node>
	<node id="-55736" lat="59.2161476784" lon="9.61110301692">
		<tag k="name" v="Vestfold og Telemark fylke" />
		<tag k="ssr:date" v="2020-01-13" />
		<tag k="ssr:gruppe" v="administrativeIndelinger" />
		<tag k="ssr:hovedgruppe" v="offentligAdministrasjon" />
		<tag k="ssr:stedsnr" v="1073927" />
		<tag k="ssr:type" v="fylke" />
	</node>
	<node id="-55735" lat="59.7784133958" lon="8.76497493822">
		<tag k="name" v="Fivreldvegen" />
		<tag k="ssr:date" v="2019-12-27" />
		<tag k="ssr:gruppe" v="veg" />
		<tag k="ssr:hovedgruppe" v="infrastruktur" />
		<tag k="ssr:stedsnr" v="1049279" />
		<tag k="ssr:type" v="adressenavn" />
	</node>
	<node id="-55734" lat="59.6600880915" lon="8.66284762449">
		<tag k="name" v="Løyning" />
		<tag k="ssr:date" v="2019-12-27" />
		<tag k="ssr:gruppe" v="veg" />
		<tag k="ssr:hovedgruppe" v="infrastruktur" />
		<tag k="ssr:stedsnr" v="1049107" />
		<tag k="ssr:type" v="adressenavn" />
	</node>
	<node id="-55733" lat="59.6277556551" lon="8.7023028978">
		<tag k="name" v="Fjellstadfjellet" />
		<tag k="ssr:date" v="2019-12-27" />
		<tag k="ssr:gruppe" v="veg" />
		<tag k="ssr:hovedgruppe" v="infrastruktur" />
		<tag k="ssr:stedsnr" v="1048941" />
		<tag k="ssr:type" v="adressenavn" />
	</node>
	<node id="-55732" lat="59.6376779377" lon="8.53015848584">
		<tag k="name" v="Ståldalen" />
		<tag k="ssr:date" v="2019-12-27" />
		<tag k="ssr:gruppe" v="veg" />
		<tag k="ssr:hovedgruppe" v="infrastruktur" />
		<tag k="ssr:stedsnr" v="1048936" />
		<tag k="ssr:type" v="adressenavn" />
	</node>
	<node id="-55731" lat="59.6885542933" lon="8.55291243217">
		<tag k="name" v="Fyribøen" />
		<tag k="ssr:date" v="2019-12-27" />
		<tag k="ssr:gruppe" v="veg" />
		<tag k="ssr:hovedgruppe" v="infrastruktur" />
		<tag k="ssr:stedsnr" v="1048930" />
		<tag k="ssr:type" v="adressenavn" />
	</node>
	<node id="-55730" lat="59.7577661166" lon="8.59102921645">
		<tag k="name" v="Risbua" />
		<tag k="ssr:date" v="2019-12-27" />
		<tag k="ssr:gruppe" v="veg" />
		<tag k="ssr:hovedgruppe" v="infrastruktur" />
		<tag k="ssr:stedsnr" v="1048923" />
		<tag k="ssr:type" v="adressenavn" />
	</node>
	<node id="-55729" lat="59.727804329" lon="8.6778274887">
		<tag k="name" v="Kovvatn" />
		<tag k="ssr:date" v="2019-12-27" />
		<tag k="ssr:gruppe" v="veg" />
		<tag k="ssr:hovedgruppe" v="infrastruktur" />
		<tag k="ssr:stedsnr" v="1048920" />
		<tag k="ssr:type" v="adressenavn" />
	</node>
	<node id="-55728" lat="59.770212367" lon="8.5157940378">
		<tag k="name" v="Vindsjåen" />
		<tag k="ssr:date" v="2019-12-27" />
		<tag k="ssr:gruppe" v="veg" />
		<tag k="ssr:hovedgruppe" v="infrastruktur" />
		<tag k="ssr:stedsnr" v="1048917" />
		<tag k="ssr:type" v="adressenavn" />
	</node>
	<node id="-55727" lat="59.7178951066" lon="8.51793321616">
		<tag k="name" v="Nåpåtjønn" />
		<tag k="ssr:date" v="2019-12-27" />
		<tag k="ssr:gruppe" v="veg" />
		<tag k="ssr:hovedgruppe" v="infrastruktur" />
		<tag k="ssr:stedsnr" v="1048914" />
		<tag k="ssr:type" v="adressenavn" />
	</node>
	<node id="-55726" lat="59.8168376607" lon="8.54601929745">
		<tag k="name" v="Reinstjønn" />
		<tag k="ssr:date" v="2019-12-27" />
		<tag k="ssr:gruppe" v="veg" />
		<tag k="ssr:hovedgruppe" v="infrastruktur" />
		<tag k="ssr:stedsnr" v="1048912" />
		<tag k="ssr:type" v="adressenavn" />
	</node>
	<node id="-55725" lat="59.7918580748" lon="8.79998974329">
		<tag k="name" v="Heddersfjell" />
		<tag k="ssr:date" v="2019-12-27" />
		<tag k="ssr:gruppe" v="veg" />
		<tag k="ssr:hovedgruppe" v="infrastruktur" />
		<tag k="ssr:stedsnr" v="1048906" />
		<tag k="ssr:type" v="adressenavn" />
	</node>
	<node id="-55724" lat="59.8203053644" lon="8.60887788279">
		<tag k="name" v="Heddevatn" />
		<tag k="ssr:date" v="2019-12-27" />
		<tag k="ssr:gruppe" v="veg" />
		<tag k="ssr:hovedgruppe" v="infrastruktur" />
		<tag k="ssr:stedsnr" v="1048902" />
		<tag k="ssr:type" v="adressenavn" />
	</node>
	<node id="-55723" lat="59.7902901945" lon="8.88085435104">
		<tag k="name" v="Sjåvatn" />
		<tag k="ssr:date" v="2019-12-27" />
		<tag k="ssr:gruppe" v="veg" />
		<tag k="ssr:hovedgruppe" v="infrastruktur" />
		<tag k="ssr:stedsnr" v="1048897" />
		<tag k="ssr:type" v="adressenavn" />
	</node>
	<node id="-55722" lat="59.7654231708" lon="8.55403953866">
		<tag k="name" v="Bjønntjønn" />
		<tag k="ssr:date" v="2019-12-27" />
		<tag k="ssr:gruppe" v="veg" />
		<tag k="ssr:hovedgruppe" v="infrastruktur" />
		<tag k="ssr:stedsnr" v="1048883" />
		<tag k="ssr:type" v="adressenavn" />
	</node>
	<node id="-55112" lat="59.7887527774" lon="8.66377777538">
		<tag k="name" v="Blesåbrekke" />
		<tag k="ssr:date" v="2019-12-27" />
		<tag k="ssr:gruppe" v="veg" />
		<tag k="ssr:hovedgruppe" v="infrastruktur" />
		<tag k="ssr:stedsnr" v="409152" />
		<tag k="ssr:type" v="vegstrekning" />
	</node>
	<node id="-54182" lat="59.7864444405" lon="8.66801388651">
		<tag k="name" v="Reisjåsvingen" />
		<tag k="ssr:date" v="2019-12-27" />
		<tag k="ssr:gruppe" v="veg" />
		<tag k="ssr:hovedgruppe" v="infrastruktur" />
		<tag k="ssr:stedsnr" v="651137" />
		<tag k="ssr:type" v="vegstrekning" />
	</node>
	<node id="-53782" lat="59.6179861097" lon="8.60727778031">
		<tag k="name" v="Fjellvegen" />
		<tag k="ssr:date" v="2019-12-27" />
		<tag k="ssr:gruppe" v="veg" />
		<tag k="ssr:hovedgruppe" v="infrastruktur" />
		<tag k="ssr:stedsnr" v="470384" />
		<tag k="ssr:type" v="vegstrekning" />
	</node>
	<node id="-55666" lat="59.6720055527" lon="8.86993611415">
		<tag k="name" v="Prestesvingen" />
		<tag k="ssr:date" v="2019-12-27" />
		<tag k="ssr:gruppe" v="veg" />
		<tag k="ssr:hovedgruppe" v="infrastruktur" />
		<tag k="ssr:stedsnr" v="954977" />
		<tag k="ssr:type" v="vegstrekning" />
	</node>
</osm>
