<?xml version="1.0" encoding="UTF-8"?>
<osm generator="osmapis" version="0.6">
	<node changeset="66172792" id="6196327680" lat="59.669025" lon="10.3664667" timestamp="2019-01-09T19:17:02Z" uid="3497659" user="NKA" version="1">
		<tag k="name" v="Havnevik" />
		<tag k="place" v="farm" />
		<tag k="ssr:stedsnr" v="574169" />
		<tag k="ssr:type" v="bruk" />
	</node>
	<node changeset="66172792" id="5806073351" lat="59.5660309" lon="10.4047119" timestamp="2019-01-09T19:17:09Z" uid="3497659" user="NKA" version="2">
		<tag k="name" v="Krokåsen" />
		<tag k="place" v="quarter" />
		<tag k="ssr:stedsnr" v="488709" />
		<tag k="ssr:type" v="hyttefelt" />
	</node>
	<node changeset="66172792" id="412083720" lat="59.6815167" lon="10.3593056" timestamp="2019-01-09T19:17:09Z" uid="3497659" user="NKA" version="2">
		<tag k="name" v="Tangen" />
		<tag k="place" v="quarter" />
		<tag k="ssr:stedsnr" v="141964" />
		<tag k="ssr:type" v="grend" />
	</node>
	<node changeset="66172792" id="6196327682" lat="59.6542417" lon="10.3843528" timestamp="2019-01-09T19:17:03Z" uid="3497659" user="NKA" version="1">
		<tag k="name" v="Engeland" />
		<tag k="place" v="farm" />
		<tag k="ssr:stedsnr" v="392322" />
		<tag k="ssr:type" v="bruk" />
	</node>
	<node changeset="66172792" id="323126805" lat="59.6189814" lon="10.4020704" timestamp="2019-01-09T19:17:08Z" uid="3497659" user="NKA" version="2" />
	<node changeset="66172792" id="323126806" lat="59.6183975" lon="10.400601" timestamp="2019-01-09T19:17:08Z" uid="3497659" user="NKA" version="2" />
	<node changeset="66172792" id="412079876" lat="59.6550379" lon="10.3858995" timestamp="2019-01-09T19:17:09Z" uid="3497659" user="NKA" version="2">
		<tag k="name" v="Hella" />
		<tag k="place" v="hamlet" />
		<tag k="ssr:stedsnr" v="505960" />
		<tag k="ssr:type" v="tettbebyggelse" />
	</node>
	<node changeset="66172792" id="323126818" lat="59.6188379" lon="10.3999168" timestamp="2019-01-09T19:17:08Z" uid="3497659" user="NKA" version="2" />
	<node changeset="66172792" id="323126821" lat="59.6194218" lon="10.4013862" timestamp="2019-01-09T19:17:08Z" uid="3497659" user="NKA" version="2" />
	<node changeset="14675311" id="2114441799" lat="59.6803765" lon="10.310867" timestamp="2013-01-16T17:53:05Z" uid="52224" user="BjørnN" version="1" />
	<node changeset="66172792" id="4401110623" lat="59.5448629" lon="10.3807984" timestamp="2019-01-09T19:17:09Z" uid="3497659" user="NKA" version="4">
		<tag k="name" v="Berger" />
		<tag k="place" v="village" />
		<tag k="population" v="1131" />
		<tag k="population:date" v="2017-01-01" />
		<tag k="ssr:stedsnr" v="813727" />
		<tag k="ssr:type" v="bygdelagBygd" />
	</node>
	<node changeset="66172792" id="412083817" lat="59.6908028" lon="10.3285861" timestamp="2019-01-09T19:17:09Z" uid="3497659" user="NKA" version="2">
		<tag k="name" v="Tørkopp" />
		<tag k="place" v="isolated_dwelling" />
		<tag k="ssr:stedsnr" v="488185" />
		<tag k="ssr:type" v="eneboligMindreBoligbygg" />
	</node>
	<node changeset="66172792" id="6196329927" lat="59.6876861" lon="10.3286056" timestamp="2019-01-09T19:17:06Z" uid="3497659" user="NKA" version="1">
		<tag k="name" v="Skogly" />
		<tag k="place" v="farm" />
		<tag k="ssr:stedsnr" v="695389" />
		<tag k="ssr:type" v="bruk" />
	</node>
	<node changeset="52536134" id="5141141737" lat="59.6814919" lon="10.3117096" timestamp="2017-10-01T13:02:44Z" uid="1685202" user="Heis" version="1" />
	<node changeset="52536134" id="5141141738" lat="59.6814012" lon="10.3117579" timestamp="2017-10-01T13:02:44Z" uid="1685202" user="Heis" version="1" />
	<node changeset="52536134" id="5141141739" lat="59.6813023" lon="10.3119376" timestamp="2017-10-01T13:02:44Z" uid="1685202" user="Heis" version="1" />
	<node changeset="66172792" id="6196327662" lat="59.5385652" lon="10.3823795" timestamp="2019-01-09T19:17:01Z" uid="3497659" user="NKA" version="1">
		<tag k="name" v="Blindsand" />
		<tag k="place" v="quarter" />
		<tag k="ssr:stedsnr" v="505965" />
		<tag k="ssr:type" v="tettbebyggelse" />
	</node>
	<node changeset="66172792" id="6196327663" lat="59.6601139" lon="10.3761583" timestamp="2019-01-09T19:17:01Z" uid="3497659" user="NKA" version="1">
		<tag k="name" v="Øst Næss" />
		<tag k="place" v="farm" />
		<tag k="ssr:stedsnr" v="513133" />
		<tag k="ssr:type" v="bruk" />
	</node>
	<node changeset="66172792" id="6196327664" lat="59.5633722" lon="10.4016639" timestamp="2019-01-09T19:17:01Z" uid="3497659" user="NKA" version="1">
		<tag k="name" v="Krok" />
		<tag k="place" v="farm" />
		<tag k="ssr:stedsnr" v="878388" />
		<tag k="ssr:type" v="bruk" />
	</node>
	<node changeset="66172792" id="6196327665" lat="59.6757917" lon="10.3670111" timestamp="2019-01-09T19:17:01Z" uid="3497659" user="NKA" version="1">
		<tag k="name" v="Havnevik store" />
		<tag k="place" v="farm" />
		<tag k="ssr:stedsnr" v="513158" />
		<tag k="ssr:type" v="bruk" />
	</node>
	<node changeset="66172792" id="6196327666" lat="59.6564833" lon="10.3872194" timestamp="2019-01-09T19:17:01Z" uid="3497659" user="NKA" version="1">
		<tag k="name" v="Saltbuvollen" />
		<tag k="place" v="isolated_dwelling" />
		<tag k="ssr:stedsnr" v="878328" />
		<tag k="ssr:type" v="fritidsbolig" />
	</node>
	<node changeset="66172792" id="6196327667" lat="59.6795694" lon="10.3611389" timestamp="2019-01-09T19:17:02Z" uid="3497659" user="NKA" version="1">
		<tag k="name" v="Skjønvik" />
		<tag k="place" v="farm" />
		<tag k="ssr:stedsnr" v="513151" />
		<tag k="ssr:type" v="bruk" />
	</node>
	<node changeset="66172792" id="6196327668" lat="59.5997306" lon="10.3968361" timestamp="2019-01-09T19:17:02Z" uid="3497659" user="NKA" version="1">
		<tag k="name" v="Knem" />
		<tag k="place" v="farm" />
		<tag k="ssr:stedsnr" v="367594" />
		<tag k="ssr:type" v="bruk" />
	</node>
	<node changeset="66172792" id="6196327669" lat="59.6071278" lon="10.3983805" timestamp="2019-01-09T19:17:02Z" uid="3497659" user="NKA" version="1">
		<tag k="name" v="Tømmerås" />
		<tag k="place" v="farm" />
		<tag k="ssr:stedsnr" v="513389" />
		<tag k="ssr:type" v="bruk" />
	</node>
	<node changeset="66172792" id="6196327670" lat="59.6156778" lon="10.386225" timestamp="2019-01-09T19:17:02Z" uid="3497659" user="NKA" version="1">
		<tag k="name" v="Ebbestad" />
		<tag k="place" v="farm" />
		<tag k="ssr:stedsnr" v="367631" />
		<tag k="ssr:type" v="bruk" />
	</node>
	<node changeset="66172792" id="6196327671" lat="59.6874667" lon="10.3353333" timestamp="2019-01-09T19:17:02Z" uid="3497659" user="NKA" version="1">
		<tag k="name" v="Nøsterudbråten" />
		<tag k="place" v="farm" />
		<tag k="ssr:stedsnr" v="513405" />
		<tag k="ssr:type" v="bruk" />
	</node>
	<node changeset="66172792" id="6196327672" lat="59.5437833" lon="10.3699806" timestamp="2019-01-09T19:17:02Z" uid="3497659" user="NKA" version="1">
		<tag k="name" v="Berger" />
		<tag k="place" v="farm" />
		<tag k="ssr:stedsnr" v="392029" />
		<tag k="ssr:type" v="bruk" />
	</node>
	<node changeset="66172792" id="6196327673" lat="59.5689444" lon="10.3921833" timestamp="2019-01-09T19:17:02Z" uid="3497659" user="NKA" version="1">
		<tag k="name" v="Høyen nordre" />
		<tag k="place" v="farm" />
		<tag k="ssr:stedsnr" v="913700" />
		<tag k="ssr:type" v="bruk" />
	</node>
	<node changeset="66172792" id="6196327674" lat="59.6631639" lon="10.3785167" timestamp="2019-01-09T19:17:02Z" uid="3497659" user="NKA" version="1">
		<tag k="name" v="Sagbukta" />
		<tag k="place" v="neighbourhood" />
		<tag k="ssr:stedsnr" v="908899" />
		<tag k="ssr:type" v="boligfelt" />
	</node>
	<node changeset="66172792" id="6196327675" lat="59.6215472" lon="10.3920917" timestamp="2019-01-09T19:17:02Z" uid="3497659" user="NKA" version="1">
		<tag k="name" v="Mariås" />
		<tag k="place" v="quarter" />
		<tag k="ssr:stedsnr" v="384952" />
		<tag k="ssr:type" v="boligfelt" />
	</node>
	<node changeset="66172792" id="6196327676" lat="59.6866556" lon="10.3494444" timestamp="2019-01-09T19:17:02Z" uid="3497659" user="NKA" version="1">
		<tag k="name" v="Grønli" />
		<tag k="place" v="neighbourhood" />
		<tag k="ssr:stedsnr" v="513401" />
		<tag k="ssr:type" v="boligfelt" />
	</node>
	<node changeset="66172792" id="6196327677" lat="59.6715528" lon="10.3514611" timestamp="2019-01-09T19:17:02Z" uid="3497659" user="NKA" version="1">
		<tag k="name" v="Vestby" />
		<tag k="place" v="farm" />
		<tag k="ssr:stedsnr" v="549851" />
		<tag k="ssr:type" v="bruk" />
	</node>
	<node changeset="66172792" id="6196327678" lat="59.6156806" lon="10.3862278" timestamp="2019-01-09T19:17:02Z" uid="3497659" user="NKA" version="1">
		<tag k="name" v="Ebbestad nordre" />
		<tag k="place" v="farm" />
		<tag k="ssr:stedsnr" v="570505" />
		<tag k="ssr:type" v="bruk" />
	</node>
	<node changeset="66172792" id="6196327679" lat="59.5729444" lon="10.3869667" timestamp="2019-01-09T19:17:02Z" uid="3497659" user="NKA" version="1">
		<tag k="name" v="Ådne" />
		<tag k="place" v="farm" />
		<tag k="ssr:stedsnr" v="392363" />
		<tag k="ssr:type" v="bruk" />
	</node>
	<node changeset="3928728" id="347307776" lat="59.6784762" lon="10.3136477" timestamp="2010-02-20T23:08:42Z" uid="160202" user="Vedeler" version="2" />
	<node changeset="66172792" id="6196327681" lat="59.6174806" lon="10.3800472" timestamp="2019-01-09T19:17:02Z" uid="3497659" user="NKA" version="1">
		<tag k="name" v="Eiklund" />
		<tag k="place" v="isolated_dwelling" />
		<tag k="ssr:stedsnr" v="938346" />
		<tag k="ssr:type" v="fritidsbolig" />
	</node>
	<node changeset="3928728" id="347307778" lat="59.6784654" lon="10.3131541" timestamp="2010-02-20T23:08:42Z" uid="160202" user="Vedeler" version="2" />
	<node changeset="66172792" id="6196327683" lat="59.6576667" lon="10.3800333" timestamp="2019-01-09T19:17:03Z" uid="3497659" user="NKA" version="1">
		<tag k="name" v="Nes nedre" />
		<tag k="place" v="farm" />
		<tag k="ssr:stedsnr" v="938294" />
		<tag k="ssr:type" v="bruk" />
	</node>
	<node changeset="66172792" id="6196327684" lat="59.6172389" lon="10.3985444" timestamp="2019-01-09T19:17:03Z" uid="3497659" user="NKA" version="1">
		<tag k="name" v="Ødegårdsgrenda" />
		<tag k="place" v="quarter" />
		<tag k="ssr:stedsnr" v="392372" />
		<tag k="ssr:type" v="boligfelt" />
	</node>
	<node changeset="3928728" id="347307782" lat="59.6782379" lon="10.3120598" timestamp="2010-02-20T23:08:42Z" uid="160202" user="Vedeler" version="2" />
	<node changeset="3928728" id="347307784" lat="59.6777721" lon="10.3115234" timestamp="2010-02-20T23:08:42Z" uid="160202" user="Vedeler" version="2" />
	<node changeset="3928728" id="347307787" lat="59.6776529" lon="10.3107938" timestamp="2010-02-20T23:08:42Z" uid="160202" user="Vedeler" version="2" />
	<node changeset="3928728" id="347307789" lat="59.6774471" lon="10.3103646" timestamp="2010-02-20T23:08:42Z" uid="160202" user="Vedeler" version="2" />
	<node changeset="3928728" id="347307790" lat="59.6778046" lon="10.3100213" timestamp="2010-02-20T23:08:42Z" uid="160202" user="Vedeler" version="2" />
	<node changeset="14675311" id="347307791" lat="59.6783438" lon="10.3099057" timestamp="2013-01-16T17:53:06Z" uid="52224" user="BjørnN" version="3" />
	<node changeset="544939" id="347307792" lat="59.6795" lon="10.31025" timestamp="2009-02-18T14:44:24Z" uid="71960" user="qwem" version="1" />
	<node changeset="3928728" id="347307793" lat="59.6800253" lon="10.3127894" timestamp="2010-02-20T23:08:43Z" uid="160202" user="Vedeler" version="2" />
	<node changeset="52536134" id="347307802" lat="59.6812182" lon="10.3123736" timestamp="2017-10-01T13:02:46Z" uid="1685202" user="Heis" version="3" />
	<node changeset="3928728" id="347307803" lat="59.6805236" lon="10.3115234" timestamp="2010-02-20T23:08:45Z" uid="160202" user="Vedeler" version="2" />
	<node changeset="3928728" id="347307804" lat="59.6799991" lon="10.3095364" timestamp="2010-02-20T23:08:45Z" uid="160202" user="Vedeler" version="2" />
	<node changeset="3928728" id="347307805" lat="59.6802491" lon="10.3092864" timestamp="2010-02-20T23:08:45Z" uid="160202" user="Vedeler" version="2" />
	<node changeset="52536134" id="347307806" lat="59.6814782" lon="10.3114147" timestamp="2017-10-01T13:02:46Z" uid="1685202" user="Heis" version="4" />
	<node changeset="66172792" id="6196329948" lat="59.6560417" lon="10.3837611" timestamp="2019-01-09T19:17:07Z" uid="3497659" user="NKA" version="1">
		<tag k="name" v="Håkenstad" />
		<tag k="place" v="farm" />
		<tag k="ssr:stedsnr" v="449773" />
		<tag k="ssr:type" v="bruk" />
	</node>
	<node changeset="3928728" id="648610653" lat="59.6784221" lon="10.3095922" timestamp="2010-02-20T23:08:42Z" uid="160202" user="Vedeler" version="1" />
	<node changeset="3928728" id="648610654" lat="59.6787904" lon="10.3095922" timestamp="2010-02-20T23:08:42Z" uid="160202" user="Vedeler" version="1" />
	<node changeset="3928728" id="648610655" lat="59.6790287" lon="10.3102574" timestamp="2010-02-20T23:08:42Z" uid="160202" user="Vedeler" version="1" />
	<node changeset="3928728" id="648610656" lat="59.6794404" lon="10.3116306" timestamp="2010-02-20T23:08:43Z" uid="160202" user="Vedeler" version="1" />
	<node changeset="14675311" id="648610657" lat="59.6796015" lon="10.3128454" timestamp="2013-01-16T17:53:06Z" uid="52224" user="BjørnN" version="2" />
	<node changeset="3928728" id="648610658" lat="59.6797653" lon="10.3140554" timestamp="2010-02-20T23:08:43Z" uid="160202" user="Vedeler" version="1" />
	<node changeset="14675311" id="648610659" lat="59.6804675" lon="10.3119892" timestamp="2013-01-16T17:53:06Z" uid="52224" user="BjørnN" version="2" />
	<node changeset="3928728" id="648610660" lat="59.6798628" lon="10.3107938" timestamp="2010-02-20T23:08:45Z" uid="160202" user="Vedeler" version="1" />
	<node changeset="66172792" id="411858297" lat="59.5975104" lon="10.4019654" timestamp="2019-01-09T19:17:08Z" uid="3497659" user="NKA" version="4">
		<tag k="name" v="Skjønheim" />
		<tag k="place" v="hamlet" />
		<tag k="ssr:stedsnr" v="527923" />
		<tag k="ssr:type" v="boligfelt" />
	</node>
	<node changeset="66172792" id="411858299" lat="59.6077453" lon="10.3927123" timestamp="2019-01-09T19:17:08Z" uid="3497659" user="NKA" version="2">
		<tag k="name" v="Hellum" />
		<tag k="place" v="hamlet" />
		<tag k="ssr:stedsnr" v="671643" />
		<tag k="ssr:type" v="bruk" />
	</node>
	<node changeset="14675311" id="2114441604" lat="59.6804621" lon="10.3093113" timestamp="2013-01-16T17:53:04Z" uid="52224" user="BjørnN" version="1" />
	<node changeset="3928728" id="347307772" lat="59.6788662" lon="10.3134975" timestamp="2010-02-20T23:08:41Z" uid="160202" user="Vedeler" version="2" />
	<node changeset="66172792" id="411858312" lat="59.6046566" lon="10.4096692" timestamp="2019-01-09T19:17:08Z" uid="3497659" user="NKA" version="2">
		<tag k="name" v="Grunden" />
		<tag k="place" v="suburb" />
		<tag k="ssr:stedsnr" v="756350" />
		<tag k="ssr:type" v="boligfelt" />
	</node>
	<node changeset="66172792" id="31264148" lat="59.6135205" lon="10.4091066" timestamp="2019-01-09T19:17:08Z" uid="3497659" user="NKA" version="7">
		<tag k="is_in" v="Vestfold, Norway" />
		<tag k="name" v="Svelvik" />
		<tag k="name:ru" v="Свелвик" />
		<tag k="place" v="town" />
		<tag k="population" v="3955" />
		<tag k="population:date" v="2017-01-01" />
		<tag k="source" v="earth-info.nga.mil" />
		<tag k="ssr:stedsnr" v="124591" />
		<tag k="ssr:type" v="by" />
	</node>
	<node changeset="66172792" id="411858326" lat="59.6148334" lon="10.3979694" timestamp="2019-01-09T19:17:08Z" uid="3497659" user="NKA" version="2">
		<tag k="name" v="Sverstad" />
		<tag k="place" v="suburb" />
		<tag k="ssr:stedsnr" v="648942" />
		<tag k="ssr:type" v="boligfelt" />
	</node>
	<node changeset="66172792" id="6196329885" lat="59.5908139" lon="10.3927639" timestamp="2019-01-09T19:17:03Z" uid="3497659" user="NKA" version="1">
		<tag k="name" v="Knem" />
		<tag k="place" v="farm" />
		<tag k="ssr:stedsnr" v="574373" />
		<tag k="ssr:type" v="bruk" />
	</node>
	<node changeset="66172792" id="6196329886" lat="59.6879528" lon="10.3263083" timestamp="2019-01-09T19:17:03Z" uid="3497659" user="NKA" version="1">
		<tag k="name" v="Sagkleiva" />
		<tag k="place" v="farm" />
		<tag k="ssr:stedsnr" v="3208" />
		<tag k="ssr:type" v="bruk" />
	</node>
	<node changeset="66172792" id="6196329887" lat="59.68485" lon="10.321425" timestamp="2019-01-09T19:17:03Z" uid="3497659" user="NKA" version="1">
		<tag k="alt_name" v="Bråthen;Dambråten" />
		<tag k="name" v="Dambråtan" />
		<tag k="place" v="farm" />
		<tag k="ssr:stedsnr" v="3210" />
		<tag k="ssr:type" v="bruk" />
	</node>
	<node changeset="66172792" id="6196329888" lat="59.5649056" lon="10.3935917" timestamp="2019-01-09T19:17:03Z" uid="3497659" user="NKA" version="1">
		<tag k="name" v="Høyen mellom" />
		<tag k="place" v="farm" />
		<tag k="ssr:stedsnr" v="574370" />
		<tag k="ssr:type" v="bruk" />
	</node>
	<node changeset="14675311" id="2114441633" lat="59.6811218" lon="10.3123251" timestamp="2013-01-16T17:53:04Z" uid="52224" user="BjørnN" version="1" />
	<node changeset="66172792" id="6196329890" lat="59.6802639" lon="10.3574417" timestamp="2019-01-09T19:17:03Z" uid="3497659" user="NKA" version="1">
		<tag k="name" v="Sletten" />
		<tag k="place" v="farm" />
		<tag k="ssr:stedsnr" v="28159" />
		<tag k="ssr:type" v="bruk" />
	</node>
	<node changeset="66172792" id="6196329891" lat="59.6367639" lon="10.3475778" timestamp="2019-01-09T19:17:03Z" uid="3497659" user="NKA" version="1">
		<tag k="alt_name" v="Røde-Kors hytta" />
		<tag k="name" v="Røde kors-hytta" />
		<tag k="place" v="isolated_dwelling" />
		<tag k="ssr:stedsnr" v="3640" />
		<tag k="ssr:type" v="fritidsbolig" />
	</node>
	<node changeset="66172792" id="6196329892" lat="59.5988139" lon="10.405" timestamp="2019-01-09T19:17:03Z" uid="3497659" user="NKA" version="1">
		<tag k="name" v="Homansberget" />
		<tag k="place" v="neighbourhood" />
		<tag k="ssr:stedsnr" v="609587" />
		<tag k="ssr:type" v="hyttefelt" />
	</node>
	<node changeset="66172792" id="6196329893" lat="59.5823056" lon="10.387775" timestamp="2019-01-09T19:17:03Z" uid="3497659" user="NKA" version="1">
		<tag k="name" v="Kinn" />
		<tag k="place" v="farm" />
		<tag k="ssr:stedsnr" v="3697" />
		<tag k="ssr:type" v="bruk" />
	</node>
	<node changeset="66172792" id="6196329894" lat="59.5901694" lon="10.388775" timestamp="2019-01-09T19:17:03Z" uid="3497659" user="NKA" version="1">
		<tag k="name" v="Myre" />
		<tag k="place" v="farm" />
		<tag k="ssr:stedsnr" v="306711" />
		<tag k="ssr:type" v="bruk" />
	</node>
	<node changeset="66172792" id="6196329895" lat="59.6812222" lon="10.3369583" timestamp="2019-01-09T19:17:03Z" uid="3497659" user="NKA" version="1">
		<tag k="name" v="Helgerud" />
		<tag k="place" v="farm" />
		<tag k="ssr:stedsnr" v="28383" />
		<tag k="ssr:type" v="bruk" />
	</node>
	<node changeset="66172792" id="6196329896" lat="59.6721056" lon="10.3761306" timestamp="2019-01-09T19:17:03Z" uid="3497659" user="NKA" version="1">
		<tag k="alt_name" v="Kuflekken" />
		<tag k="name" v="Koflekken" />
		<tag k="place" v="isolated_dwelling" />
		<tag k="ssr:stedsnr" v="610882" />
		<tag k="ssr:type" v="fritidsbolig" />
	</node>
	<node changeset="66172792" id="6196329897" lat="59.6036583" lon="10.3325167" timestamp="2019-01-09T19:17:04Z" uid="3497659" user="NKA" version="1">
		<tag k="name" v="Sandohytta" />
		<tag k="place" v="isolated_dwelling" />
		<tag k="ssr:stedsnr" v="610119" />
		<tag k="ssr:type" v="fritidsbolig" />
	</node>
	<node changeset="66172792" id="6196329898" lat="59.5949222" lon="10.338075" timestamp="2019-01-09T19:17:04Z" uid="3497659" user="NKA" version="1">
		<tag k="name" v="Lysverkhytta" />
		<tag k="place" v="isolated_dwelling" />
		<tag k="ssr:stedsnr" v="306034" />
		<tag k="ssr:type" v="fritidsbolig" />
	</node>
	<node changeset="66172792" id="6196329899" lat="59.6834" lon="10.34085" timestamp="2019-01-09T19:17:04Z" uid="3497659" user="NKA" version="1">
		<tag k="name" v="Helgerud" />
		<tag k="place" v="farm" />
		<tag k="ssr:stedsnr" v="306219" />
		<tag k="ssr:type" v="bruk" />
	</node>
	<node changeset="66172792" id="6196329900" lat="59.6809" lon="10.3572917" timestamp="2019-01-09T19:17:04Z" uid="3497659" user="NKA" version="1">
		<tag k="name" v="Steinbråten" />
		<tag k="place" v="farm" />
		<tag k="ssr:stedsnr" v="327658" />
		<tag k="ssr:type" v="bruk" />
	</node>
	<node changeset="66172792" id="6196329901" lat="59.6505222" lon="10.3876139" timestamp="2019-01-09T19:17:04Z" uid="3497659" user="NKA" version="1">
		<tag k="name" v="Landet" />
		<tag k="place" v="isolated_dwelling" />
		<tag k="ssr:stedsnr" v="327747" />
		<tag k="ssr:type" v="fritidsbolig" />
	</node>
	<node changeset="66172792" id="6196329902" lat="59.5713944" lon="10.386775" timestamp="2019-01-09T19:17:04Z" uid="3497659" user="NKA" version="1">
		<tag k="name" v="Ådne" />
		<tag k="place" v="farm" />
		<tag k="ssr:stedsnr" v="64728" />
		<tag k="ssr:type" v="bruk" />
	</node>
	<node changeset="66172792" id="6196329903" lat="59.5927833" lon="10.393825" timestamp="2019-01-09T19:17:04Z" uid="3497659" user="NKA" version="1">
		<tag k="name" v="Knem" />
		<tag k="place" v="farm" />
		<tag k="ssr:stedsnr" v="307639" />
		<tag k="ssr:type" v="bruk" />
	</node>
	<node changeset="66172792" id="6196329904" lat="59.6866556" lon="10.3494611" timestamp="2019-01-09T19:17:04Z" uid="3497659" user="NKA" version="1">
		<tag k="name" v="Grønlia" />
		<tag k="place" v="neighbourhood" />
		<tag k="ssr:stedsnr" v="626987" />
		<tag k="ssr:type" v="boligfelt" />
	</node>
	<node changeset="66172792" id="6196329905" lat="59.5638194" lon="10.4006889" timestamp="2019-01-09T19:17:04Z" uid="3497659" user="NKA" version="1">
		<tag k="name" v="Krokshaga" />
		<tag k="place" v="farm" />
		<tag k="ssr:stedsnr" v="331347" />
		<tag k="ssr:type" v="bruk" />
	</node>
	<node changeset="66172792" id="6196329906" lat="59.6787889" lon="10.3545444" timestamp="2019-01-09T19:17:04Z" uid="3497659" user="NKA" version="1">
		<tag k="name" v="Sletta" />
		<tag k="place" v="farm" />
		<tag k="ssr:stedsnr" v="85655" />
		<tag k="ssr:type" v="bruk" />
	</node>
	<node changeset="66172792" id="6196329907" lat="59.5963139" lon="10.3763278" timestamp="2019-01-09T19:17:04Z" uid="3497659" user="NKA" version="1">
		<tag k="name" v="Kirkestuvollen" />
		<tag k="place" v="locality" />
		<tag k="ssr:stedsnr" v="331162" />
		<tag k="ssr:type" v="gammelBosettingsplass" />
	</node>
	<node changeset="66172792" id="6196329908" lat="59.6851" lon="10.3537583" timestamp="2019-01-09T19:17:04Z" uid="3497659" user="NKA" version="1">
		<tag k="name" v="Bakken" />
		<tag k="place" v="isolated_dwelling" />
		<tag k="ssr:stedsnr" v="331365" />
		<tag k="ssr:type" v="eneboligMindreBoligbygg" />
	</node>
	<node changeset="66172792" id="6196329909" lat="59.6881056" lon="10.3456278" timestamp="2019-01-09T19:17:04Z" uid="3497659" user="NKA" version="1">
		<tag k="name" v="Nordli" />
		<tag k="place" v="isolated_dwelling" />
		<tag k="ssr:stedsnr" v="634390" />
		<tag k="ssr:type" v="eneboligMindreBoligbygg" />
	</node>
	<node changeset="66172792" id="6196329910" lat="59.5955" lon="10.3973889" timestamp="2019-01-09T19:17:04Z" uid="3497659" user="NKA" version="1">
		<tag k="name" v="Knem" />
		<tag k="place" v="farm" />
		<tag k="ssr:stedsnr" v="634379" />
		<tag k="ssr:type" v="bruk" />
	</node>
	<node changeset="66172792" id="6196329911" lat="59.6024528" lon="10.3910639" timestamp="2019-01-09T19:17:04Z" uid="3497659" user="NKA" version="1">
		<tag k="name" v="Knem" />
		<tag k="place" v="farm" />
		<tag k="ssr:stedsnr" v="89382" />
		<tag k="ssr:type" v="bruk" />
	</node>
	<node changeset="66172792" id="6196329912" lat="59.6901361" lon="10.3340444" timestamp="2019-01-09T19:17:04Z" uid="3497659" user="NKA" version="1">
		<tag k="name" v="Bråten" />
		<tag k="place" v="farm" />
		<tag k="ssr:stedsnr" v="331369" />
		<tag k="ssr:type" v="bruk" />
	</node>
	<node changeset="66172792" id="6196329913" lat="59.5468889" lon="10.3795056" timestamp="2019-01-09T19:17:05Z" uid="3497659" user="NKA" version="1">
		<tag k="alt_name" v="Berger gård" />
		<tag k="name" v="Berger" />
		<tag k="place" v="farm" />
		<tag k="ssr:stedsnr" v="124495" />
		<tag k="ssr:type" v="bruk" />
	</node>
	<node changeset="66172792" id="6196329914" lat="59.6158028" lon="10.3962805" timestamp="2019-01-09T19:17:05Z" uid="3497659" user="NKA" version="1">
		<tag k="name" v="Sverstad" />
		<tag k="place" v="farm" />
		<tag k="ssr:stedsnr" v="124589" />
		<tag k="ssr:type" v="bruk" />
	</node>
	<node changeset="66172792" id="6196329915" lat="59.612725" lon="10.3876278" timestamp="2019-01-09T19:17:05Z" uid="3497659" user="NKA" version="1">
		<tag k="name" v="Eik" />
		<tag k="place" v="farm" />
		<tag k="ssr:stedsnr" v="670635" />
		<tag k="ssr:type" v="bruk" />
	</node>
	<node changeset="66172792" id="6196329916" lat="59.6573806" lon="10.3769306" timestamp="2019-01-09T19:17:05Z" uid="3497659" user="NKA" version="1">
		<tag k="name" v="Nes" />
		<tag k="place" v="farm" />
		<tag k="ssr:stedsnr" v="141965" />
		<tag k="ssr:type" v="bruk" />
	</node>
	<node changeset="66172792" id="6196329917" lat="59.5511861" lon="10.3731889" timestamp="2019-01-09T19:17:05Z" uid="3497659" user="NKA" version="1">
		<tag k="name" v="Brekke" />
		<tag k="place" v="farm" />
		<tag k="ssr:stedsnr" v="670514" />
		<tag k="ssr:type" v="bruk" />
	</node>
	<node changeset="66172792" id="6196329918" lat="59.5853222" lon="10.3902306" timestamp="2019-01-09T19:17:05Z" uid="3497659" user="NKA" version="1">
		<tag k="name" v="Myre" />
		<tag k="place" v="farm" />
		<tag k="ssr:stedsnr" v="149334" />
		<tag k="ssr:type" v="bruk" />
	</node>
	<node changeset="66172792" id="6196329919" lat="59.644975" lon="10.38935" timestamp="2019-01-09T19:17:05Z" uid="3497659" user="NKA" version="1">
		<tag k="name" v="Leirvik" />
		<tag k="place" v="farm" />
		<tag k="ssr:stedsnr" v="671839" />
		<tag k="ssr:type" v="bruk" />
	</node>
	<node changeset="66172792" id="6196329920" lat="59.6540306" lon="10.3757583" timestamp="2019-01-09T19:17:05Z" uid="3497659" user="NKA" version="1">
		<tag k="alt_name" v="Girud" />
		<tag k="name" v="Gjerrud" />
		<tag k="place" v="farm" />
		<tag k="ssr:stedsnr" v="149362" />
		<tag k="ssr:type" v="bruk" />
	</node>
	<node changeset="66172792" id="6196329921" lat="59.6021528" lon="10.404075" timestamp="2019-01-09T19:17:05Z" uid="3497659" user="NKA" version="1">
		<tag k="name" v="Knem" />
		<tag k="place" v="farm" />
		<tag k="ssr:stedsnr" v="149354" />
		<tag k="ssr:type" v="bruk" />
	</node>
	<node changeset="66172792" id="6196329922" lat="59.670875" lon="10.3704528" timestamp="2019-01-09T19:17:05Z" uid="3497659" user="NKA" version="1">
		<tag k="name" v="Havnevik" />
		<tag k="place" v="farm" />
		<tag k="ssr:stedsnr" v="671865" />
		<tag k="ssr:type" v="bruk" />
	</node>
	<node changeset="66172792" id="6196329923" lat="59.5505194" lon="10.3892472" timestamp="2019-01-09T19:17:05Z" uid="3497659" user="NKA" version="1">
		<tag k="name" v="Bergeråsen" />
		<tag k="place" v="quarter" />
		<tag k="ssr:stedsnr" v="180861" />
		<tag k="ssr:type" v="boligfelt" />
	</node>
	<node changeset="66172792" id="6196329924" lat="59.6235861" lon="10.4029194" timestamp="2019-01-09T19:17:05Z" uid="3497659" user="NKA" version="1">
		<tag k="name" v="Juveåsen" />
		<tag k="place" v="quarter" />
		<tag k="ssr:stedsnr" v="163926" />
		<tag k="ssr:type" v="boligfelt" />
	</node>
	<node changeset="66172792" id="6196329925" lat="59.629375" lon="10.4061722" timestamp="2019-01-09T19:17:05Z" uid="3497659" user="NKA" version="1">
		<tag k="name" v="Rørvik" />
		<tag k="place" v="isolated_dwelling" />
		<tag k="ssr:stedsnr" v="185639" />
		<tag k="ssr:type" v="fritidsbolig" />
	</node>
	<node changeset="66172792" id="6196329926" lat="59.6828694" lon="10.349625" timestamp="2019-01-09T19:17:06Z" uid="3497659" user="NKA" version="1">
		<tag k="name" v="Stomperud" />
		<tag k="place" v="farm" />
		<tag k="ssr:stedsnr" v="185749" />
		<tag k="ssr:type" v="bruk" />
	</node>
	<node changeset="66172792" id="6196329889" lat="59.6858917" lon="10.3345444" timestamp="2019-01-09T19:17:03Z" uid="3497659" user="NKA" version="1">
		<tag k="name" v="Bjerkely" />
		<tag k="place" v="farm" />
		<tag k="ssr:stedsnr" v="271422" />
		<tag k="ssr:type" v="bruk" />
	</node>
	<node changeset="66172792" id="6196329928" lat="59.57595" lon="10.3864694" timestamp="2019-01-09T19:17:06Z" uid="3497659" user="NKA" version="1">
		<tag k="name" v="Solberg" />
		<tag k="place" v="farm" />
		<tag k="ssr:stedsnr" v="731719" />
		<tag k="ssr:type" v="bruk" />
	</node>
	<node changeset="66172792" id="6196329929" lat="59.6530028" lon="10.3854583" timestamp="2019-01-09T19:17:06Z" uid="3497659" user="NKA" version="1">
		<tag k="name" v="Sønsteby" />
		<tag k="place" v="farm" />
		<tag k="ssr:stedsnr" v="732824" />
		<tag k="ssr:type" v="bruk" />
	</node>
	<node changeset="66172792" id="6196329930" lat="59.6824194" lon="10.334675" timestamp="2019-01-09T19:17:06Z" uid="3497659" user="NKA" version="1">
		<tag k="name" v="Nøsterud" />
		<tag k="place" v="farm" />
		<tag k="ssr:stedsnr" v="210386" />
		<tag k="ssr:type" v="bruk" />
	</node>
	<node changeset="66172792" id="6196329931" lat="59.6839194" lon="10.3579472" timestamp="2019-01-09T19:17:06Z" uid="3497659" user="NKA" version="1">
		<tag k="name" v="Tangenhavna" />
		<tag k="place" v="neighbourhood" />
		<tag k="ssr:stedsnr" v="210398" />
		<tag k="ssr:type" v="boligfelt" />
	</node>
	<node changeset="66172792" id="6196329932" lat="59.6847917" lon="10.3385972" timestamp="2019-01-09T19:17:06Z" uid="3497659" user="NKA" version="1">
		<tag k="name" v="Nøsterud" />
		<tag k="place" v="farm" />
		<tag k="ssr:stedsnr" v="246234" />
		<tag k="ssr:type" v="bruk" />
	</node>
	<node changeset="66172792" id="6196329933" lat="59.5448639" lon="10.3718056" timestamp="2019-01-09T19:17:06Z" uid="3497659" user="NKA" version="1">
		<tag k="name" v="Torbjørnhaugen" />
		<tag k="place" v="neighbourhood" />
		<tag k="ssr:stedsnr" v="240873" />
		<tag k="ssr:type" v="boligfelt" />
	</node>
	<node changeset="66172792" id="6196329934" lat="59.6857389" lon="10.3417333" timestamp="2019-01-09T19:17:06Z" uid="3497659" user="NKA" version="1">
		<tag k="name" v="Labråten" />
		<tag k="place" v="quarter" />
		<tag k="ssr:stedsnr" v="240880" />
		<tag k="ssr:type" v="boligfelt" />
	</node>
	<node changeset="66172792" id="6196329935" lat="59.6049333" lon="10.4039111" timestamp="2019-01-09T19:17:06Z" uid="3497659" user="NKA" version="1">
		<tag k="name" v="Elvernøy" />
		<tag k="place" v="farm" />
		<tag k="ssr:stedsnr" v="756348" />
		<tag k="ssr:type" v="bruk" />
	</node>
	<node changeset="66172792" id="6196329936" lat="59.5577528" lon="10.3938472" timestamp="2019-01-09T19:17:06Z" uid="3497659" user="NKA" version="1">
		<tag k="name" v="Kjelleråsen" />
		<tag k="place" v="neighbourhood" />
		<tag k="ssr:stedsnr" v="786874" />
		<tag k="ssr:type" v="hyttefelt" />
	</node>
	<node changeset="66172792" id="6196329937" lat="59.5994444" lon="10.3911667" timestamp="2019-01-09T19:17:07Z" uid="3497659" user="NKA" version="1">
		<tag k="name" v="Glena" />
		<tag k="place" v="isolated_dwelling" />
		<tag k="ssr:stedsnr" v="756353" />
		<tag k="ssr:type" v="fritidsbolig" />
	</node>
	<node changeset="66172792" id="6196329938" lat="59.5618556" lon="10.3931472" timestamp="2019-01-09T19:17:07Z" uid="3497659" user="NKA" version="1">
		<tag k="name" v="Høyen søndre" />
		<tag k="place" v="farm" />
		<tag k="ssr:stedsnr" v="246665" />
		<tag k="ssr:type" v="bruk" />
	</node>
	<node changeset="66172792" id="6196329939" lat="59.6575528" lon="10.3767083" timestamp="2019-01-09T19:17:07Z" uid="3497659" user="NKA" version="1">
		<tag k="name" v="Ø. Nes" />
		<tag k="place" v="farm" />
		<tag k="ssr:stedsnr" v="756362" />
		<tag k="ssr:type" v="bruk" />
	</node>
	<node changeset="66172792" id="6196329940" lat="59.5428196" lon="10.3725415" timestamp="2019-01-09T19:17:07Z" uid="3497659" user="NKA" version="1">
		<tag k="name" v="Dyrdal" />
		<tag k="place" v="quarter" />
		<tag k="ssr:stedsnr" v="817041" />
		<tag k="ssr:type" v="bruk" />
	</node>
	<node changeset="66172792" id="6196329941" lat="59.6219944" lon="10.3773361" timestamp="2019-01-09T19:17:07Z" uid="3497659" user="NKA" version="1">
		<tag k="alt_name" v="Eikemo" />
		<tag k="name" v="Eikmo" />
		<tag k="place" v="farm" />
		<tag k="ssr:stedsnr" v="792641" />
		<tag k="ssr:type" v="bruk" />
	</node>
	<node changeset="66172792" id="6196329942" lat="59.6587861" lon="10.3718361" timestamp="2019-01-09T19:17:07Z" uid="3497659" user="NKA" version="1">
		<tag k="alt_name" v="Furru" />
		<tag k="name" v="Furu" />
		<tag k="place" v="farm" />
		<tag k="ssr:stedsnr" v="247859" />
		<tag k="ssr:type" v="bruk" />
	</node>
	<node changeset="66172792" id="6196329943" lat="59.5655472" lon="10.3770889" timestamp="2019-01-09T19:17:07Z" uid="3497659" user="NKA" version="1">
		<tag k="historic" v="shieling" />
		<tag k="name" v="Høyensetra" />
		<tag k="place" v="farm" />
		<tag k="ssr:stedsnr" v="792698" />
		<tag k="ssr:type" v="bruk" />
	</node>
	<node changeset="66172792" id="6196329944" lat="59.68035" lon="10.3416639" timestamp="2019-01-09T19:17:07Z" uid="3497659" user="NKA" version="1">
		<tag k="name" v="Helgerud" />
		<tag k="place" v="farm" />
		<tag k="ssr:stedsnr" v="817167" />
		<tag k="ssr:type" v="bruk" />
	</node>
	<node changeset="66172792" id="6196329945" lat="59.58435" lon="10.384725" timestamp="2019-01-09T19:17:07Z" uid="3497659" user="NKA" version="1">
		<tag k="name" v="Auke" />
		<tag k="place" v="farm" />
		<tag k="ssr:stedsnr" v="428721" />
		<tag k="ssr:type" v="bruk" />
	</node>
	<node changeset="66172792" id="6196329946" lat="59.6318306" lon="10.3954083" timestamp="2019-01-09T19:17:07Z" uid="3497659" user="NKA" version="1">
		<tag k="name" v="Juve" />
		<tag k="place" v="farm" />
		<tag k="ssr:stedsnr" v="428658" />
		<tag k="ssr:type" v="bruk" />
	</node>
	<node changeset="66172792" id="6196329947" lat="59.6805028" lon="10.3538139" timestamp="2019-01-09T19:17:07Z" uid="3497659" user="NKA" version="1">
		<tag k="name" v="Solstad" />
		<tag k="place" v="farm" />
		<tag k="ssr:stedsnr" v="817166" />
		<tag k="ssr:type" v="bruk" />
	</node>
	<node changeset="14675311" id="2114441692" lat="59.6806208" lon="10.3099379" timestamp="2013-01-16T17:53:05Z" uid="52224" user="BjørnN" version="1" />
	<node changeset="66172792" id="6196329949" lat="59.6864056" lon="10.3525028" timestamp="2019-01-09T19:17:07Z" uid="3497659" user="NKA" version="1">
		<tag k="alt_name" v="Syvertsvollen" />
		<tag k="name" v="Syversvollen" />
		<tag k="place" v="isolated_dwelling" />
		<tag k="ssr:stedsnr" v="428755" />
		<tag k="ssr:type" v="eneboligMindreBoligbygg" />
	</node>
	<node changeset="66172792" id="6196329950" lat="59.5572444" lon="10.3860667" timestamp="2019-01-09T19:17:07Z" uid="3497659" user="NKA" version="1">
		<tag k="name" v="Lærum" />
		<tag k="place" v="farm" />
		<tag k="ssr:stedsnr" v="453349" />
		<tag k="ssr:type" v="bruk" />
	</node>
	<node changeset="66172792" id="6196329951" lat="59.6042306" lon="10.4017389" timestamp="2019-01-09T19:17:07Z" uid="3497659" user="NKA" version="1">
		<tag k="name" v="Knem" />
		<tag k="place" v="farm" />
		<tag k="ssr:stedsnr" v="817367" />
		<tag k="ssr:type" v="bruk" />
	</node>
	<node changeset="66172792" id="6196329952" lat="59.6659889" lon="10.3707639" timestamp="2019-01-09T19:17:08Z" uid="3497659" user="NKA" version="1">
		<tag k="name" v="Nordby" />
		<tag k="place" v="farm" />
		<tag k="ssr:stedsnr" v="853867" />
		<tag k="ssr:type" v="bruk" />
	</node>
	<node changeset="66172792" id="6196329953" lat="59.5436278" lon="10.3885389" timestamp="2019-01-09T19:17:08Z" uid="3497659" user="NKA" version="1">
		<tag k="name" v="Bryggeåsen" />
		<tag k="place" v="neighbourhood" />
		<tag k="ssr:stedsnr" v="483894" />
		<tag k="ssr:type" v="boligfelt" />
	</node>
	<node changeset="66172792" id="6196329954" lat="59.690525" lon="10.337975" timestamp="2019-01-09T19:17:08Z" uid="3497659" user="NKA" version="1">
		<tag k="name" v="Støa" />
		<tag k="place" v="farm" />
		<tag k="ssr:stedsnr" v="488184" />
		<tag k="ssr:type" v="bruk" />
	</node>
	<node changeset="66172792" id="6196329955" lat="59.6573968" lon="10.3757672" timestamp="2019-01-09T19:17:08Z" uid="3497659" user="NKA" version="1">
		<tag k="name" v="Nesbygda" />
		<tag k="place" v="hamlet" />
		<tag k="ssr:stedsnr" v="874828" />
		<tag k="ssr:type" v="bygdelagBygd" />
	</node>
	<node changeset="14675311" id="2114441702" lat="59.6796226" lon="10.3105119" timestamp="2013-01-16T17:53:05Z" uid="52224" user="BjørnN" version="1" />
	<node changeset="14675311" id="2114441705" lat="59.6811624" lon="10.3114839" timestamp="2013-01-16T17:53:05Z" uid="52224" user="BjørnN" version="1" />
	<node changeset="14675311" id="2114441708" lat="59.680861" lon="10.3103909" timestamp="2013-01-16T17:53:05Z" uid="52224" user="BjørnN" version="1" />
	<node changeset="3928728" id="347307774" lat="59.6785846" lon="10.3135404" timestamp="2010-02-20T23:08:42Z" uid="160202" user="Vedeler" version="2" />
	<way changeset="58620907" id="31237192" timestamp="2018-05-02T17:08:55Z" uid="3497659" user="NKA" version="5">
		<tag k="alt_name" v="Mellomdam" />
		<tag k="name" v="Mellomdammen" />
		<tag k="natural" v="water" />
		<tag k="source" v="Yahoo" />
		<tag k="source:name" v="Kartverket" />
		<tag k="ssr:stedsnr" v="367175" />
		<tag k="water" v="lake" />
		<nd ref="347307772" />
		<nd ref="347307774" />
		<nd ref="347307776" />
		<nd ref="347307778" />
		<nd ref="347307782" />
		<nd ref="347307784" />
		<nd ref="347307787" />
		<nd ref="347307789" />
		<nd ref="347307790" />
		<nd ref="347307791" />
		<nd ref="648610653" />
		<nd ref="648610654" />
		<nd ref="648610655" />
		<nd ref="347307792" />
		<nd ref="2114441702" />
		<nd ref="648610656" />
		<nd ref="648610657" />
		<nd ref="347307793" />
		<nd ref="648610658" />
		<nd ref="347307772" />
	</way>
	<way changeset="58620907" id="31237194" timestamp="2018-05-02T17:08:55Z" uid="3497659" user="NKA" version="6">
		<tag k="alt_name" v="Nedre dam" />
		<tag k="name" v="Nerdammen" />
		<tag k="natural" v="water" />
		<tag k="source" v="Yahoo" />
		<tag k="source:name" v="Kartverket" />
		<tag k="ssr:stedsnr" v="246223" />
		<tag k="water" v="lake" />
		<nd ref="347307802" />
		<nd ref="2114441633" />
		<nd ref="648610659" />
		<nd ref="347307803" />
		<nd ref="2114441799" />
		<nd ref="648610660" />
		<nd ref="347307804" />
		<nd ref="347307805" />
		<nd ref="2114441604" />
		<nd ref="2114441692" />
		<nd ref="2114441708" />
		<nd ref="2114441705" />
		<nd ref="347307806" />
		<nd ref="5141141737" />
		<nd ref="5141141738" />
		<nd ref="5141141739" />
		<nd ref="347307802" />
	</way>
	<way changeset="66172792" id="29375919" timestamp="2019-01-09T19:17:09Z" uid="3497659" user="NKA" version="4">
		<tag k="leisure" v="pitch" />
		<tag k="name" v="Solbakken idrettsplass" />
		<tag k="sport" v="soccer" />
		<tag k="ssr:stedsnr" v="89365" />
		<tag k="ssr:type" v="idrettsanlegg" />
		<nd ref="323126805" />
		<nd ref="323126806" />
		<nd ref="323126818" />
		<nd ref="323126821" />
		<nd ref="323126805" />
	</way>
</osm>
