<?xml version="1.0" encoding="UTF-8"?>
<osm version="0.6" generator="osmapis">
	<node lat="67.83318888527376" lon="12.822072210669788" id="-22100">
		<tag k="highway" v="path" />
		<tag k="name" v="Sandstien" />
		<tag k="ssr:stedsnr" v="232682" />
	</node>
	<node lat="68.00966666638749" lon="12.996641657923876" id="-22137">
		<tag k="ford" v="yes" />
		<tag k="name" v="Vaet" />
		<tag k="place" v="locality" />
		<tag k="ssr:stedsnr" v="171076" />
	</node>
	<node lat="67.97139166694863" lon="13.10830277221798" id="-22216">
		<tag k="highway" v="path" />
		<tag k="name" v="Stia" />
		<tag k="ssr:stedsnr" v="414411" />
	</node>
	<node lat="67.8806511877234" lon="12.97854696363789" id="-22265">
		<tag k="layer" v="-1" />
		<tag k="name" v="Å" />
		<tag k="ssr:stedsnr" v="529621" />
		<tag k="tunnel" v="yes" />
	</node>
	<node lat="67.88769166319263" lon="12.953063878494328" id="-22427">
		<tag k="highway" v="path" />
		<tag k="name" v="Ner-Hundstien" />
		<tag k="ssr:stedsnr" v="111243" />
	</node>
	<node lat="67.8889027812884" lon="12.953072221406089" id="-22448">
		<tag k="highway" v="path" />
		<tag k="name" v="Øver-Hundstien" />
		<tag k="ssr:stedsnr" v="171225" />
	</node>
	<node lat="67.90652737104622" lon="13.048285825396047" id="-22575">
		<tag k="layer" v="-1" />
		<tag k="name" v="Seljeli" />
		<tag k="ssr:stedsnr" v="590751" />
		<tag k="tunnel" v="yes" />
	</node>
	<node lat="67.92214847830085" lon="13.078106964925992" id="-22615">
		<tag k="layer" v="-1" />
		<tag k="name" v="Ramsvik" />
		<tag k="ssr:stedsnr" v="712341" />
		<tag k="tunnel" v="yes" />
	</node>
</osm>
