<?xml version="1.0" encoding="UTF-8"?>
<<<<<<< HEAD
<osm version="0.6" generator="osmapis">
	<node lat="67.93009166370777" lon="13.072008325403566" id="-10652">
		<tag k="name" v="Sessen" />
		<tag k="natural" v="ridge" />
		<tag k="place" v="locality" />
		<tag k="ssr:stedsnr" v="231450" />
	</node>
	<node lat="67.9322888874777" lon="13.071349995031294" id="-10653">
		<tag k="name" v="Vassheia" />
		<tag k="natural" v="hill" />
		<tag k="place" v="locality" />
		<tag k="ssr:stedsnr" v="231452" />
	</node>
	<node lat="67.97282778049895" lon="12.997905563476996" id="-10655">
		<tag k="name" v="Kjelen" />
		<tag k="natural" v="valley" />
		<tag k="place" v="locality" />
		<tag k="ssr:stedsnr" v="232051" />
	</node>
	<node lat="67.97459167060916" lon="12.989552769242438" id="-10656">
		<tag k="name" v="Strupan" />
		<tag k="natural" v="slope" />
		<tag k="place" v="locality" />
		<tag k="ssr:stedsnr" v="232052" />
	</node>
	<node lat="67.97012777548083" lon="12.97166389714689" id="-10657">
		<tag k="name" v="Moan" />
		<tag k="place" v="locality" />
		<tag k="ssr:stedsnr" v="232056" />
	</node>
	<node lat="67.97583610833617" lon="12.953113887250407" id="-10658">
		<tag k="name" v="Studalen" />
		<tag k="natural" v="valley" />
		<tag k="place" v="locality" />
		<tag k="ssr:stedsnr" v="232068" />
	</node>
	<node lat="67.97811388857679" lon="13.08196943312833" id="-10661">
		<tag k="name" v="Vestervassdalen" />
		<tag k="natural" v="valley" />
		<tag k="place" v="locality" />
		<tag k="ssr:stedsnr" v="232373" />
	</node>
	<node lat="67.87062221799994" lon="12.922300003158643" id="-10662">
		<tag k="name" v="Tindsfjellet" />
		<tag k="natural" v="cliff" />
		<tag k="ssr:stedsnr" v="232583" />
	</node>
	<node lat="67.85173611208064" lon="12.866708326650173" id="-10664">
		<tag k="name" v="Ånstadheia" />
		<tag k="natural" v="hill" />
		<tag k="place" v="locality" />
		<tag k="ssr:stedsnr" v="232696" />
	</node>
	<node lat="67.88611389322233" lon="12.939436115330837" id="-10665">
		<tag k="name" v="Torshaugen" />
		<tag k="natural" v="hill" />
		<tag k="place" v="locality" />
		<tag k="ssr:stedsnr" v="16368" />
	</node>
	<node lat="67.90536388702647" lon="12.98229166948019" id="-10667">
		<tag k="name" v="Øverstøvla" />
		<tag k="natural" v="hill" />
		<tag k="place" v="locality" />
		<tag k="ssr:stedsnr" v="50301" />
	</node>
	<node lat="67.95258888857504" lon="13.084413892809483" id="-10671">
		<tag k="name" v="Lamlia" />
		<tag k="natural" v="slope" />
		<tag k="place" v="locality" />
		<tag k="ssr:stedsnr" v="50412" />
	</node>
	<node lat="67.95948610877922" lon="13.07759443988679" id="-10672">
		<tag k="name" v="Sølvpengdalen" />
		<tag k="natural" v="valley" />
		<tag k="place" v="locality" />
		<tag k="ssr:stedsnr" v="50418" />
	</node>
	<node lat="67.89057500269743" lon="12.975416661531403" id="-10676">
		<tag k="fixme" v="consider natural=peak for the most distinct mountains in the district" />
		<tag k="name" v="Tinddalstinden" />
		<tag k="natural" v="hill" />
		<tag k="place" v="locality" />
		<tag k="ssr:stedsnr" v="78399" />
	</node>
	<node lat="67.83692777371625" lon="12.814947223752403" id="-10680">
		<tag k="name" v="Gongskardet" />
		<tag k="natural" v="valley" />
		<tag k="place" v="locality" />
		<tag k="ssr:stedsnr" v="138102" />
	</node>
	<node lat="67.92576111109895" lon="13.002255565068324" id="-10684">
		<tag k="name" v="Lamheia" />
		<tag k="natural" v="hill" />
		<tag k="place" v="locality" />
		<tag k="ssr:stedsnr" v="138493" />
	</node>
	<node lat="67.89380278158316" lon="12.94476944707276" id="-10690">
		<tag k="fixme" v="consider natural=peak for the most distinct mountains in the district" />
		<tag k="name" v="Småtindan" />
		<tag k="natural" v="hill" />
		<tag k="place" v="locality" />
		<tag k="ssr:stedsnr" v="259394" />
	</node>
	<node lat="67.88290555922238" lon="12.875094439660698" id="-10692">
		<tag k="fixme" v="consider natural=peak for the most distinct mountains in the district" />
		<tag k="name" v="Gjerdtindan" />
		<tag k="natural" v="hill" />
		<tag k="place" v="locality" />
		<tag k="ssr:stedsnr" v="259401" />
	</node>
	<node lat="67.9364722251643" lon="13.06762777063192" id="-10693">
		<tag k="fixme" v="consider natural=peak for the most distinct mountains in the district" />
		<tag k="name" v="Hammarskaftet" />
		<tag k="natural" v="hill" />
		<tag k="place" v="locality" />
		<tag k="ssr:stedsnr" v="259476" />
	</node>
	<node lat="67.97496389062847" lon="12.986783339906143" id="-10697">
		<tag k="name" v="Brunaksla" />
		<tag k="place" v="locality" />
		<tag k="ssr:stedsnr" v="260481" />
	</node>
	<node lat="67.95543055861066" lon="12.948266657215498" id="-10698">
		<tag k="name" v="Stæpet" />
		<tag k="natural" v="valley" />
		<tag k="place" v="locality" />
		<tag k="ssr:stedsnr" v="171071" />
	</node>
	<node lat="67.95274166641052" lon="12.976599998847922" id="-10699">
		<tag k="name" v="Rognlihammaren" />
		<tag k="natural" v="cliff" />
		<tag k="ssr:stedsnr" v="171072" />
	</node>
	<node lat="67.95642777641584" lon="12.908874996071292" id="-10702">
		<tag k="name" v="Sandhågen" />
		<tag k="natural" v="hill" />
		<tag k="place" v="locality" />
		<tag k="ssr:stedsnr" v="171417" />
	</node>
	<node lat="67.88756944705104" lon="13.002963884172413" id="-10703">
		<tag k="name" v="Nordbergan" />
		<tag k="natural" v="cliff" />
		<tag k="ssr:stedsnr" v="171358" />
	</node>
	<node lat="67.95319722289844" lon="12.97220834140246" id="-10722">
		<tag k="fixme" v="multiple name tags, choose one and add the other to alt_name; consider natural=peak for the most distinct mountains in the district" />
		<tag k="name" v="Rabbtinden;Trollhaue" />
		<tag k="natural" v="hill" />
		<tag k="place" v="locality" />
		<tag k="ssr:stedsnr" v="260499" />
	</node>
	<node lat="67.89527222664003" lon="12.996583327908747" id="-10727">
		<tag k="name" v="Åsen" />
		<tag k="natural" v="hill" />
		<tag k="place" v="locality" />
		<tag k="ssr:stedsnr" v="293410" />
	</node>
	<node lat="67.87472778136923" lon="12.886530557722518" id="-10730">
		<tag k="fixme" v="consider natural=peak for the most distinct mountains in the district" />
		<tag k="name" v="Mannen" />
		<tag k="natural" v="hill" />
		<tag k="place" v="locality" />
		<tag k="ssr:stedsnr" v="319402" />
	</node>
	<node lat="67.83711388996305" lon="12.866750002602696" id="-10733">
		<tag k="name" v="Kalvhagen" />
=======
<osm generator="osmapis" version="0.6">
	<node id="-208892" lat="67.8369277737" lon="12.8149472238">
		<tag k="name" v="Gongskardet" />
>>>>>>> e1d4bc35ff8a6074a6f2e91616a996b547c36f15
		<tag k="natural" v="valley" />
		<tag k="place" v="locality" />
		<tag k="ssr:stedsnr" v="320073" />
	</node>
<<<<<<< HEAD
	<node lat="67.9095222193174" lon="12.89876945493897" id="-10735">
		<tag k="fixme" v="consider natural=peak for the most distinct mountains in the district" />
		<tag k="name" v="Smallidalstindan" />
		<tag k="natural" v="hill" />
=======
	<node id="-208881" lat="67.9611888876" lon="12.9896166678">
		<tag k="name" v="Aksla" />
		<tag k="natural" v="ridge" />
>>>>>>> e1d4bc35ff8a6074a6f2e91616a996b547c36f15
		<tag k="place" v="locality" />
		<tag k="ssr:stedsnr" v="320387" />
	</node>
<<<<<<< HEAD
	<node lat="67.99500833337449" lon="13.048577788591949" id="-10740">
		<tag k="fixme" v="multiple name tags, choose one and add the other to alt_name; consider natural=peak for the most distinct mountains in the district" />
		<tag k="name" v="Målheia;Segeltinden" />
		<tag k="natural" v="hill" />
=======
	<node id="-208877" lat="68.0077166709" lon="13.0136416767">
		<tag k="name" v="Vomma" />
		<tag k="natural" v="ridge" />
>>>>>>> e1d4bc35ff8a6074a6f2e91616a996b547c36f15
		<tag k="place" v="locality" />
		<tag k="ssr:stedsnr" v="320435" />
	</node>
<<<<<<< HEAD
	<node lat="67.98105555335225" lon="12.981461107865238" id="-10741">
		<tag k="fixme" v="consider natural=peak for the most distinct mountains in the district" />
		<tag k="name" v="Helvetestinden" />
		<tag k="natural" v="hill" />
=======
	<node id="-208876" lat="67.9530749997" lon="13.125694433">
		<tag k="name" v="Festhellhula" />
>>>>>>> e1d4bc35ff8a6074a6f2e91616a996b547c36f15
		<tag k="place" v="locality" />
		<tag k="ssr:stedsnr" v="320439" />
	</node>
<<<<<<< HEAD
	<node lat="67.9670722185344" lon="12.918930557073857" id="-10742">
=======
	<node id="-208869" lat="67.9786222199" lon="12.9871250025">
>>>>>>> e1d4bc35ff8a6074a6f2e91616a996b547c36f15
		<tag k="fixme" v="consider natural=peak for the most distinct mountains in the district" />
		<tag k="name" v="Stuvdalstinden" />
		<tag k="natural" v="hill" />
		<tag k="place" v="locality" />
		<tag k="ssr:stedsnr" v="320447" />
	</node>
<<<<<<< HEAD
	<node lat="67.96222500264037" lon="12.97074166879587" id="-10743">
=======
	<node id="-208866" lat="67.8905750027" lon="12.9754166615">
>>>>>>> e1d4bc35ff8a6074a6f2e91616a996b547c36f15
		<tag k="fixme" v="consider natural=peak for the most distinct mountains in the district" />
		<tag k="name" v="Bisplua" />
		<tag k="natural" v="hill" />
		<tag k="place" v="locality" />
		<tag k="ssr:stedsnr" v="320454" />
	</node>
<<<<<<< HEAD
	<node lat="67.96886666592492" lon="13.159241666883588" id="-10744">
=======
	<node id="-208865" lat="67.8490722185" lon="12.8693527797">
>>>>>>> e1d4bc35ff8a6074a6f2e91616a996b547c36f15
		<tag k="fixme" v="consider natural=peak for the most distinct mountains in the district" />
		<tag k="name" v="Akkarviktinden" />
		<tag k="natural" v="hill" />
		<tag k="place" v="locality" />
		<tag k="ssr:stedsnr" v="320458" />
	</node>
<<<<<<< HEAD
	<node lat="67.95415555532549" lon="13.13218055468294" id="-10746">
		<tag k="alt_name" v="Festhelltinden" />
=======
	<node id="-208864" lat="67.8351416639" lon="12.8551583308">
>>>>>>> e1d4bc35ff8a6074a6f2e91616a996b547c36f15
		<tag k="fixme" v="consider natural=peak for the most distinct mountains in the district" />
		<tag k="name" v="Festhæltinden" />
		<tag k="natural" v="hill" />
		<tag k="place" v="locality" />
		<tag k="ssr:stedsnr" v="320466" />
	</node>
<<<<<<< HEAD
	<node lat="68.03880000419518" lon="13.006072215432427" id="-10747">
=======
	<node id="-208860" lat="67.9176722241" lon="12.9653694387">
>>>>>>> e1d4bc35ff8a6074a6f2e91616a996b547c36f15
		<tag k="fixme" v="consider natural=peak for the most distinct mountains in the district" />
		<tag k="name" v="Ytre Brasråstindan" />
		<tag k="natural" v="hill" />
		<tag k="place" v="locality" />
		<tag k="ssr:stedsnr" v="471856" />
	</node>
<<<<<<< HEAD
	<node lat="67.92313611293669" lon="13.074055557480227" id="-10748">
		<tag k="name" v="Ramsvikdalen" />
		<tag k="natural" v="valley" />
=======
	<node id="-208859" lat="67.8373666714" lon="12.8109833239">
		<tag k="name" v="Hjella" />
		<tag k="natural" v="slope" />
>>>>>>> e1d4bc35ff8a6074a6f2e91616a996b547c36f15
		<tag k="place" v="locality" />
		<tag k="ssr:stedsnr" v="473433" />
	</node>
<<<<<<< HEAD
	<node lat="67.9746694479425" lon="13.133797220629578" id="-10754">
		<tag k="name" v="Lilandsdalen" />
		<tag k="natural" v="valley" />
=======
	<node id="-208858" lat="67.8396611092" lon="12.8207722227">
		<tag k="name" v="Rundfjellet" />
		<tag k="natural" v="hill" />
>>>>>>> e1d4bc35ff8a6074a6f2e91616a996b547c36f15
		<tag k="place" v="locality" />
		<tag k="ssr:stedsnr" v="353420" />
	</node>
<<<<<<< HEAD
	<node lat="67.95976944256857" lon="12.926255565890242" id="-10757">
		<tag k="name" v="Bjørnbakkan" />
		<tag k="natural" v="slope" />
		<tag k="place" v="locality" />
		<tag k="ssr:stedsnr" v="475083" />
	</node>
	<node lat="67.93004999829563" lon="13.055822227540599" id="-10760">
		<tag k="name" v="Kista" />
		<tag k="natural" v="valley" />
=======
	<node id="-208851" lat="67.8837388913" lon="12.9313861186">
		<tag k="name" v="Storhaugen" />
		<tag k="natural" v="hill" />
>>>>>>> e1d4bc35ff8a6074a6f2e91616a996b547c36f15
		<tag k="place" v="locality" />
		<tag k="ssr:stedsnr" v="475290" />
	</node>
<<<<<<< HEAD
	<node lat="67.9389833330125" lon="13.060358328387645" id="-10761">
		<tag k="name" v="Elselia" />
		<tag k="natural" v="slope" />
=======
	<node id="-208846" lat="67.9500055556" lon="12.9228472189">
		<tag k="fixme" v="multiple name tags, choose one and add the other to alt_name; consider natural=peak for the most distinct mountains in the district" />
		<tag k="name" v="Middagstinden;Saubergtinden;Sauhågtinden" />
		<tag k="natural" v="hill" />
>>>>>>> e1d4bc35ff8a6074a6f2e91616a996b547c36f15
		<tag k="place" v="locality" />
		<tag k="ssr:stedsnr" v="475292" />
	</node>
<<<<<<< HEAD
	<node lat="67.90150555433992" lon="13.049572216175164" id="-10763">
		<tag k="name" v="Kirkhaugen" />
=======
	<node id="-208845" lat="67.9713972198" lon="13.003783327">
		<tag k="fixme" v="consider natural=peak for the most distinct mountains in the district" />
		<tag k="name" v="Olatinden" />
>>>>>>> e1d4bc35ff8a6074a6f2e91616a996b547c36f15
		<tag k="natural" v="hill" />
		<tag k="place" v="locality" />
		<tag k="ssr:stedsnr" v="475379" />
	</node>
<<<<<<< HEAD
	<node lat="67.85080555261504" lon="12.855458322080256" id="-10766">
		<tag k="name" v="Ånstadlia" />
		<tag k="natural" v="slope" />
		<tag k="place" v="locality" />
		<tag k="ssr:stedsnr" v="475736" />
	</node>
	<node lat="67.91611388843134" lon="13.022786121204799" id="-10767">
=======
	<node id="-208844" lat="67.8522805569" lon="12.8818833246">
		<tag k="name" v="Kudalen" />
		<tag k="natural" v="valley" />
		<tag k="place" v="locality" />
		<tag k="ssr:stedsnr" v="17457" />
	</node>
	<node id="-208839" lat="68.013083335" lon="13.0186749932">
>>>>>>> e1d4bc35ff8a6074a6f2e91616a996b547c36f15
		<tag k="fixme" v="consider natural=peak for the most distinct mountains in the district" />
		<tag k="name" v="Merraflestinden" />
		<tag k="natural" v="hill" />
		<tag k="place" v="locality" />
		<tag k="ssr:stedsnr" v="380403" />
	</node>
<<<<<<< HEAD
	<node lat="67.855261113746" lon="12.85996943804226" id="-10772">
		<tag k="alt_name" v="Tortenbakkheia" />
		<tag k="name" v="Turtnbakkheia" />
		<tag k="natural" v="hill" />
		<tag k="place" v="locality" />
		<tag k="ssr:stedsnr" v="380460" />
	</node>
	<node lat="67.89698888603468" lon="13.031763878471255" id="-10774">
		<tag k="alt_name" v="Breidlandet" />
		<tag k="name" v="Breilandet" />
=======
	<node id="-208834" lat="67.8861138932" lon="12.9394361153">
		<tag k="name" v="Torshaugen" />
		<tag k="natural" v="hill" />
>>>>>>> e1d4bc35ff8a6074a6f2e91616a996b547c36f15
		<tag k="place" v="locality" />
		<tag k="ssr:stedsnr" v="381404" />
	</node>
<<<<<<< HEAD
	<node lat="67.9139916677014" lon="13.0570305532344" id="-10777">
		<tag k="name" v="Storhågen" />
		<tag k="natural" v="ridge" />
=======
	<node id="-208833" lat="67.850452776" lon="12.8461999992">
		<tag k="name" v="Slettan" />
>>>>>>> e1d4bc35ff8a6074a6f2e91616a996b547c36f15
		<tag k="place" v="locality" />
		<tag k="ssr:stedsnr" v="414290" />
	</node>
<<<<<<< HEAD
	<node lat="67.97628888520381" lon="13.128869449756362" id="-10778">
=======
	<node id="-208831" lat="67.9786416682" lon="13.0940305602">
>>>>>>> e1d4bc35ff8a6074a6f2e91616a996b547c36f15
		<tag k="fixme" v="consider natural=peak for the most distinct mountains in the district" />
		<tag k="name" v="Lilandstindan" />
		<tag k="natural" v="hill" />
		<tag k="place" v="locality" />
		<tag k="ssr:stedsnr" v="414408" />
	</node>
<<<<<<< HEAD
	<node lat="67.93814167033243" lon="13.043600012506742" id="-10782">
		<tag k="fixme" v="consider natural=peak for the most distinct mountains in the district" />
		<tag k="name" v="Navaren" />
		<tag k="natural" v="hill" />
		<tag k="place" v="locality" />
		<tag k="ssr:stedsnr" v="441487" />
	</node>
	<node lat="67.90205833596755" lon="12.86836667651583" id="-10783">
		<tag k="alt_name" v="Smallidalen" />
		<tag k="name" v="Smålidalen" />
=======
	<node id="-208830" lat="67.884869446" lon="13.0229777745">
		<tag k="name" v="Pålhola" />
>>>>>>> e1d4bc35ff8a6074a6f2e91616a996b547c36f15
		<tag k="natural" v="valley" />
		<tag k="place" v="locality" />
		<tag k="ssr:stedsnr" v="441389" />
	</node>
<<<<<<< HEAD
	<node lat="67.83398333447482" lon="12.826336122295034" id="-10784">
		<tag k="name" v="Slåttlia" />
		<tag k="natural" v="slope" />
		<tag k="place" v="locality" />
		<tag k="ssr:stedsnr" v="442102" />
	</node>
	<node lat="67.97779444873827" lon="12.929266665045013" id="-10788">
		<tag k="fixme" v="consider natural=peak for the most distinct mountains in the district" />
		<tag k="name" v="Kalkonestinden" />
=======
	<node id="-209141" lat="67.9026361115" lon="12.9684861214">
		<tag k="name" v="Himmelheia" />
		<tag k="natural" v="hill" />
		<tag k="place" v="locality" />
		<tag k="ssr:stedsnr" v="839315" />
	</node>
	<node id="-208828" lat="67.9223000022" lon="13.0542805521">
		<tag k="name" v="Rundlia" />
		<tag k="natural" v="slope" />
		<tag k="place" v="locality" />
		<tag k="ssr:stedsnr" v="960276" />
	</node>
	<node id="-208827" lat="67.8912638902" lon="12.9291250017">
		<tag k="name" v="Markushamran" />
		<tag k="natural" v="cliff" />
		<tag k="ssr:stedsnr" v="960261" />
	</node>
	<node id="-208826" lat="67.9369055525" lon="12.9631999961">
		<tag k="name" v="Lamheia" />
>>>>>>> e1d4bc35ff8a6074a6f2e91616a996b547c36f15
		<tag k="natural" v="hill" />
		<tag k="place" v="locality" />
		<tag k="ssr:stedsnr" v="442435" />
	</node>
<<<<<<< HEAD
	<node lat="67.94845833023281" lon="12.937588878369432" id="-10790">
		<tag k="fixme" v="consider natural=peak for the most distinct mountains in the district" />
		<tag k="name" v="Klokkaåttetinden" />
		<tag k="natural" v="hill" />
		<tag k="place" v="locality" />
		<tag k="ssr:stedsnr" v="442487" />
	</node>
	<node lat="67.89519444787857" lon="12.87068610479144" id="-10793">
		<tag k="name" v="Vollen" />
=======
	<node id="-208825" lat="67.9762749957" lon="13.1528277819">
		<tag k="name" v="Bukkskinnet" />
		<tag k="natural" v="cliff" />
		<tag k="ssr:stedsnr" v="900412" />
	</node>
	<node id="-208824" lat="67.8960305577" lon="13.0072639004">
		<tag k="name" v="Studalsbrekka" />
>>>>>>> e1d4bc35ff8a6074a6f2e91616a996b547c36f15
		<tag k="natural" v="slope" />
		<tag k="place" v="locality" />
		<tag k="ssr:stedsnr" v="475315" />
	</node>
<<<<<<< HEAD
	<node lat="67.87443610934034" lon="12.956188896767117" id="-10795">
		<tag k="fixme" v="consider natural=peak for the most distinct mountains in the district" />
		<tag k="name" v="Alpiggen" />
=======
	<node id="-208823" lat="67.8980250039" lon="13.0490499944">
		<tag k="name" v="Tjeldhaugen" />
>>>>>>> e1d4bc35ff8a6074a6f2e91616a996b547c36f15
		<tag k="natural" v="hill" />
		<tag k="place" v="locality" />
		<tag k="ssr:stedsnr" v="475359" />
	</node>
<<<<<<< HEAD
	<node lat="67.8452222246756" lon="12.833361114446966" id="-10796">
		<tag k="name" v="Banjordhaugen" />
		<tag k="natural" v="hill" />
=======
	<node id="-208819" lat="67.9259388931" lon="13.0601416743">
		<tag k="name" v="Helvete" />
>>>>>>> e1d4bc35ff8a6074a6f2e91616a996b547c36f15
		<tag k="place" v="locality" />
		<tag k="ssr:stedsnr" v="475725" />
	</node>
<<<<<<< HEAD
	<node lat="67.91258055658014" lon="12.96721944414757" id="-10807">
=======
	<node id="-208817" lat="67.9438888852" lon="12.9676722292">
>>>>>>> e1d4bc35ff8a6074a6f2e91616a996b547c36f15
		<tag k="fixme" v="consider natural=peak for the most distinct mountains in the district" />
		<tag k="name" v="Støvla" />
		<tag k="natural" v="hill" />
		<tag k="place" v="locality" />
		<tag k="ssr:stedsnr" v="502386" />
	</node>
<<<<<<< HEAD
	<node lat="67.95845555383607" lon="12.972194442584069" id="-10809">
		<tag k="alt_name" v="Håtindan" />
=======
	<node id="-208810" lat="67.9174138882" lon="12.9129388997">
>>>>>>> e1d4bc35ff8a6074a6f2e91616a996b547c36f15
		<tag k="fixme" v="consider natural=peak for the most distinct mountains in the district" />
		<tag k="name" v="Håtinden" />
		<tag k="natural" v="hill" />
		<tag k="place" v="locality" />
		<tag k="ssr:stedsnr" v="502474" />
	</node>
<<<<<<< HEAD
	<node lat="67.93618611331317" lon="13.020219442773334" id="-10810">
=======
	<node id="-208809" lat="67.9227833364" lon="13.0127638973">
>>>>>>> e1d4bc35ff8a6074a6f2e91616a996b547c36f15
		<tag k="fixme" v="consider natural=peak for the most distinct mountains in the district" />
		<tag k="name" v="Veinestinden" />
		<tag k="natural" v="hill" />
		<tag k="place" v="locality" />
<<<<<<< HEAD
		<tag k="ssr:stedsnr" v="502486" />
	</node>
	<node lat="67.82856944796487" lon="12.848447212342228" id="-10811">
		<tag k="fixme" v="consider natural=peak for the most distinct mountains in the district" />
		<tag k="name" v="Ørnpliggen" />
=======
		<tag k="ssr:stedsnr" v="927395" />
	</node>
	<node id="-208808" lat="67.8368361109" lon="12.8231166736">
		<tag k="fixme" v="multiple name tags, choose one and add the other to alt_name" />
		<tag k="name" v="Bjørnskardet;Hellsreva" />
		<tag k="natural" v="valley" />
		<tag k="place" v="locality" />
		<tag k="ssr:stedsnr" v="927099" />
	</node>
	<node id="-208806" lat="67.831158331" lon="12.8438555546">
		<tag k="name" v="Stormarka" />
		<tag k="place" v="locality" />
		<tag k="ssr:stedsnr" v="927083" />
	</node>
	<node id="-208803" lat="67.8796944476" lon="12.9727944452">
		<tag k="name" v="Litlandstabben" />
>>>>>>> e1d4bc35ff8a6074a6f2e91616a996b547c36f15
		<tag k="natural" v="hill" />
		<tag k="place" v="locality" />
		<tag k="ssr:stedsnr" v="684064" />
	</node>
<<<<<<< HEAD
	<node lat="67.84011389134263" lon="12.858727789045856" id="-10815">
		<tag k="name" v="Tuvdalen" />
		<tag k="natural" v="valley" />
=======
	<node id="-209136" lat="67.8909694475" lon="12.9506916773">
		<tag k="name" v="Langliflotan" />
		<tag k="natural" v="slope" />
		<tag k="place" v="locality" />
		<tag k="ssr:stedsnr" v="839252" />
	</node>
	<node id="-208797" lat="67.8769249964" lon="12.9478333216">
		<tag k="fixme" v="multiple name tags, choose one and add the other to alt_name; consider natural=peak for the most distinct mountains in the district" />
		<tag k="name" v="Andstabben;Stor-Andstabben" />
		<tag k="natural" v="hill" />
>>>>>>> e1d4bc35ff8a6074a6f2e91616a996b547c36f15
		<tag k="place" v="locality" />
		<tag k="ssr:stedsnr" v="684080" />
	</node>
<<<<<<< HEAD
	<node lat="67.99552499889337" lon="13.037324994699956" id="-10818">
		<tag k="alt_name" v="Austredalen" />
		<tag k="name" v="Austerdalen" />
		<tag k="natural" v="valley" />
=======
	<node id="-208796" lat="67.9564277754" lon="13.0767999895">
		<tag k="fixme" v="consider natural=peak for the most distinct mountains in the district" />
		<tag k="name" v="Olstinden" />
		<tag k="natural" v="hill" />
>>>>>>> e1d4bc35ff8a6074a6f2e91616a996b547c36f15
		<tag k="place" v="locality" />
		<tag k="ssr:stedsnr" v="684297" />
	</node>
<<<<<<< HEAD
	<node lat="67.91170277823504" lon="13.055994440159132" id="-10819">
=======
	<node id="-208795" lat="67.8889416637" lon="12.9907916717">
>>>>>>> e1d4bc35ff8a6074a6f2e91616a996b547c36f15
		<tag k="fixme" v="consider natural=peak for the most distinct mountains in the district" />
		<tag k="name" v="Steffennakken" />
		<tag k="natural" v="hill" />
		<tag k="place" v="locality" />
		<tag k="ssr:stedsnr" v="684381" />
	</node>
<<<<<<< HEAD
	<node lat="67.88991666779447" lon="13.007416673113156" id="-10830">
		<tag k="name" v="Storhaugen" />
=======
	<node id="-208793" lat="67.9115722213" lon="13.0192305487">
		<tag k="fixme" v="consider natural=peak for the most distinct mountains in the district" />
		<tag k="name" v="Kjølen" />
>>>>>>> e1d4bc35ff8a6074a6f2e91616a996b547c36f15
		<tag k="natural" v="hill" />
		<tag k="place" v="locality" />
		<tag k="ssr:stedsnr" v="535374" />
	</node>
<<<<<<< HEAD
	<node lat="67.89463888552864" lon="12.920608331906791" id="-10831">
		<tag k="name" v="Mengedalsheia" />
=======
	<node id="-208792" lat="67.9225472266" lon="12.9711194465">
		<tag k="alt_name" v="Molltinden" />
		<tag k="fixme" v="consider natural=peak for the most distinct mountains in the district" />
		<tag k="name" v="Moldtinden" />
>>>>>>> e1d4bc35ff8a6074a6f2e91616a996b547c36f15
		<tag k="natural" v="hill" />
		<tag k="place" v="locality" />
		<tag k="ssr:stedsnr" v="535276" />
	</node>
<<<<<<< HEAD
	<node lat="67.92177222211377" lon="13.022491662296744" id="-10832">
		<tag k="name" v="Vesterdalen" />
		<tag k="natural" v="valley" />
		<tag k="place" v="locality" />
		<tag k="ssr:stedsnr" v="535283" />
	</node>
	<node lat="67.97351111210709" lon="13.145408326795382" id="-10833">
		<tag k="name" v="Vassdalen" />
=======
	<node id="-208788" lat="67.964113892" lon="12.9729000116">
		<tag k="name" v="Elendalen" />
		<tag k="natural" v="valley" />
		<tag k="place" v="locality" />
		<tag k="ssr:stedsnr" v="900422" />
	</node>
	<node id="-208787" lat="67.9743944473" lon="13.0736083297">
		<tag k="name" v="Kanonen" />
		<tag k="place" v="locality" />
		<tag k="ssr:stedsnr" v="900418" />
	</node>
	<node id="-208783" lat="67.8896777788" lon="12.8912361095">
		<tag k="name" v="Øverdalen" />
>>>>>>> e1d4bc35ff8a6074a6f2e91616a996b547c36f15
		<tag k="natural" v="valley" />
		<tag k="place" v="locality" />
		<tag k="ssr:stedsnr" v="535419" />
	</node>
<<<<<<< HEAD
	<node lat="67.97335277741526" lon="13.014955555000771" id="-10834">
		<tag k="name" v="Nabblian" />
		<tag k="natural" v="slope" />
		<tag k="place" v="locality" />
		<tag k="ssr:stedsnr" v="536077" />
	</node>
	<node lat="67.96835555270248" lon="12.956497230705015" id="-10835">
		<tag k="name" v="Reklidalen" />
		<tag k="natural" v="valley" />
=======
	<node id="-208779" lat="67.9231305592" lon="12.9345166573">
		<tag k="fixme" v="consider natural=peak for the most distinct mountains in the district" />
		<tag k="name" v="Grustinden" />
		<tag k="natural" v="hill" />
		<tag k="place" v="locality" />
		<tag k="ssr:stedsnr" v="897294" />
	</node>
	<node id="-208777" lat="67.9830861101" lon="13.1145527739">
		<tag k="fixme" v="consider natural=peak for the most distinct mountains in the district" />
		<tag k="name" v="Austervasstinden" />
		<tag k="natural" v="hill" />
		<tag k="ssr:stedsnr" v="717420" />
	</node>
	<node id="-208773" lat="67.8989222259" lon="13.0182361016">
		<tag k="name" v="Øverheia" />
		<tag k="natural" v="hill" />
>>>>>>> e1d4bc35ff8a6074a6f2e91616a996b547c36f15
		<tag k="place" v="locality" />
		<tag k="ssr:stedsnr" v="536082" />
	</node>
<<<<<<< HEAD
	<node lat="68.04472222385655" lon="13.001569440529591" id="-10836">
		<tag k="name" v="Hjellberget" />
		<tag k="natural" v="cliff" />
		<tag k="ssr:stedsnr" v="596107" />
	</node>
	<node lat="67.95922500180548" lon="12.938697219058563" id="-10837">
		<tag k="name" v="Lian" />
		<tag k="natural" v="slope" />
=======
	<node id="-208772" lat="67.9020972219" lon="13.0332111149">
		<tag k="name" v="Bruddet" />
		<tag k="place" v="locality" />
		<tag k="ssr:stedsnr" v="717362" />
	</node>
	<node id="-208771" lat="67.8849055548" lon="12.9761499979">
		<tag k="name" v="Nakkvikhaugen" />
		<tag k="natural" v="ridge" />
>>>>>>> e1d4bc35ff8a6074a6f2e91616a996b547c36f15
		<tag k="place" v="locality" />
		<tag k="ssr:stedsnr" v="596069" />
	</node>
<<<<<<< HEAD
	<node lat="67.88966666957631" lon="12.97096111812093" id="-10838">
		<tag k="name" v="Breiflotan" />
=======
	<node id="-208770" lat="67.940305558" lon="13.0835805628">
		<tag k="name" v="Preikstolen" />
>>>>>>> e1d4bc35ff8a6074a6f2e91616a996b547c36f15
		<tag k="natural" v="hill" />
		<tag k="place" v="locality" />
		<tag k="ssr:stedsnr" v="596257" />
	</node>
	<node lat="67.87948888538611" lon="12.906944441284212" id="-10843">
		<tag k="name" v="Ågdalen" />
		<tag k="natural" v="valley" />
		<tag k="place" v="locality" />
		<tag k="ssr:stedsnr" v="623412" />
	</node>
<<<<<<< HEAD
	<node lat="67.9311749998838" lon="13.020288896698997" id="-10848">
		<tag k="alt_name" v="Munkan" />
=======
	<node id="-208759" lat="67.960947219" lon="13.0669388963">
>>>>>>> e1d4bc35ff8a6074a6f2e91616a996b547c36f15
		<tag k="fixme" v="consider natural=peak for the most distinct mountains in the district" />
		<tag k="name" v="Munken" />
		<tag k="natural" v="hill" />
		<tag k="place" v="locality" />
		<tag k="ssr:stedsnr" v="623514" />
	</node>
<<<<<<< HEAD
	<node lat="68.02408333407554" lon="12.965311099690705" id="-10851">
		<tag k="name" v="Mullian" />
		<tag k="natural" v="slope" />
=======
	<node id="-208758" lat="67.8810138897" lon="12.8555555525">
		<tag k="name" v="Gjerdnakken" />
		<tag k="natural" v="ridge" />
>>>>>>> e1d4bc35ff8a6074a6f2e91616a996b547c36f15
		<tag k="place" v="locality" />
		<tag k="ssr:stedsnr" v="657082" />
	</node>
<<<<<<< HEAD
	<node lat="68.03073055549781" lon="13.01166389459709" id="-10852">
		<tag k="name" v="Trolldalen" />
=======
	<node id="-208757" lat="67.8863250037" lon="12.905583345">
		<tag k="name" v="Ågskaret" />
>>>>>>> e1d4bc35ff8a6074a6f2e91616a996b547c36f15
		<tag k="natural" v="valley" />
		<tag k="place" v="locality" />
		<tag k="ssr:stedsnr" v="657083" />
	</node>
<<<<<<< HEAD
	<node lat="67.93371944456447" lon="13.042036116020913" id="-10854">
		<tag k="name" v="Austerdalsfjellet" />
=======
	<node id="-208755" lat="67.8634083347" lon="12.8701611096">
		<tag k="fixme" v="consider natural=peak for the most distinct mountains in the district" />
		<tag k="name" v="Gjerdtinden" />
>>>>>>> e1d4bc35ff8a6074a6f2e91616a996b547c36f15
		<tag k="natural" v="hill" />
		<tag k="place" v="locality" />
		<tag k="ssr:stedsnr" v="657300" />
	</node>
<<<<<<< HEAD
	<node lat="67.95446944725605" lon="13.092111099857393" id="-10855">
		<tag k="name" v="Trollholet" />
=======
	<node id="-208754" lat="67.8619277778" lon="12.8826111122">
		<tag k="name" v="Svultendalen" />
>>>>>>> e1d4bc35ff8a6074a6f2e91616a996b547c36f15
		<tag k="natural" v="valley" />
		<tag k="place" v="locality" />
		<tag k="ssr:stedsnr" v="657439" />
	</node>
<<<<<<< HEAD
	<node lat="67.8863250037483" lon="12.905583345000423" id="-10856">
		<tag k="name" v="Ågskaret" />
=======
	<node id="-208751" lat="67.8794888854" lon="12.9069444413">
		<tag k="name" v="Ågdalen" />
>>>>>>> e1d4bc35ff8a6074a6f2e91616a996b547c36f15
		<tag k="natural" v="valley" />
		<tag k="place" v="locality" />
		<tag k="ssr:stedsnr" v="657311" />
	</node>
<<<<<<< HEAD
	<node lat="67.88101388969274" lon="12.855555552522056" id="-10857">
		<tag k="name" v="Gjerdnakken" />
		<tag k="natural" v="ridge" />
=======
	<node id="-208748" lat="67.9989916677" lon="12.9979388941">
		<tag k="name" v="Einangen" />
		<tag k="natural" v="valley" />
>>>>>>> e1d4bc35ff8a6074a6f2e91616a996b547c36f15
		<tag k="place" v="locality" />
		<tag k="ssr:stedsnr" v="657314" />
	</node>
<<<<<<< HEAD
	<node lat="68.00276944248219" lon="13.014713898314897" id="-10858">
		<tag k="alt_name" v="Maslitinden" />
		<tag k="fixme" v="consider natural=peak for the most distinct mountains in the district" />
		<tag k="name" v="Marklitinden" />
		<tag k="natural" v="hill" />
=======
	<node id="-208746" lat="67.9763416623" lon="12.9383694496">
		<tag k="name" v="Kvanndalen" />
		<tag k="natural" v="valley" />
>>>>>>> e1d4bc35ff8a6074a6f2e91616a996b547c36f15
		<tag k="place" v="locality" />
		<tag k="ssr:stedsnr" v="684052" />
	</node>
<<<<<<< HEAD
	<node lat="67.9231305591747" lon="12.93451665725764" id="-10863">
		<tag k="fixme" v="consider natural=peak for the most distinct mountains in the district" />
		<tag k="name" v="Grustinden" />
		<tag k="natural" v="hill" />
=======
	<node id="-208744" lat="67.9430194471" lon="12.9737694371">
		<tag k="name" v="Grisbakkan" />
		<tag k="natural" v="slope" />
>>>>>>> e1d4bc35ff8a6074a6f2e91616a996b547c36f15
		<tag k="place" v="locality" />
		<tag k="ssr:stedsnr" v="897294" />
	</node>
<<<<<<< HEAD
	<node lat="67.94030555796563" lon="13.08358056277653" id="-10865">
		<tag k="name" v="Preikstolen" />
=======
	<node id="-208742" lat="67.8775944445" lon="12.940383324">
		<tag k="fixme" v="consider natural=peak for the most distinct mountains in the district" />
		<tag k="name" v="Bjørnen" />
>>>>>>> e1d4bc35ff8a6074a6f2e91616a996b547c36f15
		<tag k="natural" v="hill" />
		<tag k="place" v="locality" />
		<tag k="ssr:stedsnr" v="716423" />
	</node>
<<<<<<< HEAD
	<node lat="67.88770833762989" lon="12.969052776294673" id="-10866">
=======
	<node id="-208741" lat="67.8877083376" lon="12.9690527763">
>>>>>>> e1d4bc35ff8a6074a6f2e91616a996b547c36f15
		<tag k="name" v="Djuplia" />
		<tag k="natural" v="slope" />
		<tag k="place" v="locality" />
		<tag k="ssr:stedsnr" v="717252" />
	</node>
<<<<<<< HEAD
	<node lat="67.89802500391205" lon="13.049049994403537" id="-10873">
		<tag k="name" v="Tjeldhaugen" />
=======
	<node id="-208736" lat="67.8899166678" lon="13.0074166731">
		<tag k="name" v="Storhaugen" />
>>>>>>> e1d4bc35ff8a6074a6f2e91616a996b547c36f15
		<tag k="natural" v="hill" />
		<tag k="place" v="locality" />
		<tag k="ssr:stedsnr" v="900365" />
	</node>
<<<<<<< HEAD
	<node lat="67.89603055769305" lon="13.007263900398138" id="-10874">
		<tag k="name" v="Studalsbrekka" />
		<tag k="natural" v="slope" />
=======
	<node id="-208734" lat="67.8919611129" lon="12.9218111099">
		<tag k="name" v="Mengedalen" />
		<tag k="natural" v="valley" />
>>>>>>> e1d4bc35ff8a6074a6f2e91616a996b547c36f15
		<tag k="place" v="locality" />
		<tag k="ssr:stedsnr" v="900373" />
	</node>
<<<<<<< HEAD
	<node lat="68.0013774116376" lon="13.023941027178822" id="-10879">
		<tag k="alt_name" v="Krokhammartindan" />
=======
	<node id="-208725" lat="67.9117027782" lon="13.0559944402">
>>>>>>> e1d4bc35ff8a6074a6f2e91616a996b547c36f15
		<tag k="fixme" v="consider natural=peak for the most distinct mountains in the district" />
		<tag k="name" v="Kråkhammartinden" />
		<tag k="natural" v="hill" />
		<tag k="place" v="locality" />
<<<<<<< HEAD
		<tag k="ssr:stedsnr" v="745079" />
	</node>
	<node lat="67.83276944855108" lon="12.832988892135022" id="-10880">
		<tag k="name" v="Munkan" />
		<tag k="natural" v="hill" />
=======
		<tag k="ssr:stedsnr" v="684381" />
	</node>
	<node id="-208724" lat="67.9955249989" lon="13.0373249947">
		<tag k="alt_name" v="Austredalen" />
		<tag k="name" v="Austerdalen" />
		<tag k="natural" v="valley" />
		<tag k="place" v="locality" />
		<tag k="ssr:stedsnr" v="684297" />
	</node>
	<node id="-208721" lat="67.8401138913" lon="12.858727789">
		<tag k="name" v="Tuvdalen" />
		<tag k="natural" v="valley" />
>>>>>>> e1d4bc35ff8a6074a6f2e91616a996b547c36f15
		<tag k="place" v="locality" />
		<tag k="ssr:stedsnr" v="745094" />
	</node>
<<<<<<< HEAD
	<node lat="67.92254722664606" lon="12.971119446520923" id="-10882">
		<tag k="alt_name" v="Molltinden" />
=======
	<node id="-208719" lat="67.828569448" lon="12.8484472123">
>>>>>>> e1d4bc35ff8a6074a6f2e91616a996b547c36f15
		<tag k="fixme" v="consider natural=peak for the most distinct mountains in the district" />
		<tag k="name" v="Moldtinden" />
		<tag k="natural" v="hill" />
		<tag k="place" v="locality" />
		<tag k="ssr:stedsnr" v="745406" />
	</node>
<<<<<<< HEAD
	<node lat="67.91157222134778" lon="13.01923054874874" id="-10883">
=======
	<node id="-208718" lat="68.0027694425" lon="13.0147138983">
		<tag k="alt_name" v="Maslitinden" />
>>>>>>> e1d4bc35ff8a6074a6f2e91616a996b547c36f15
		<tag k="fixme" v="consider natural=peak for the most distinct mountains in the district" />
		<tag k="name" v="Kjølen" />
		<tag k="natural" v="hill" />
		<tag k="place" v="locality" />
		<tag k="ssr:stedsnr" v="745413" />
	</node>
<<<<<<< HEAD
	<node lat="67.9586583300022" lon="12.987708336298892" id="-10891">
		<tag k="name" v="Skarsloka" />
		<tag k="natural" v="valley" />
=======
	<node id="-208714" lat="67.8812583291" lon="12.9781166722">
		<tag k="name" v="Nonshaugen" />
		<tag k="natural" v="hill" />
>>>>>>> e1d4bc35ff8a6074a6f2e91616a996b547c36f15
		<tag k="place" v="locality" />
		<tag k="ssr:stedsnr" v="778418" />
	</node>
<<<<<<< HEAD
	<node lat="67.87692499635652" lon="12.947833321583532" id="-10893">
		<tag k="fixme" v="multiple name tags, choose one and add the other to alt_name; consider natural=peak for the most distinct mountains in the district" />
		<tag k="name" v="Andstabben;Stor-Andstabben" />
		<tag k="natural" v="hill" />
=======
	<node id="-208713" lat="67.9573722261" lon="13.0897083355">
		<tag k="name" v="Snebakkan" />
		<tag k="natural" v="slope" />
>>>>>>> e1d4bc35ff8a6074a6f2e91616a996b547c36f15
		<tag k="place" v="locality" />
		<tag k="ssr:stedsnr" v="916440" />
	</node>
<<<<<<< HEAD
	<node lat="67.94013055349846" lon="13.079694433987717" id="-10900">
		<tag k="name" v="Valen" />
		<tag k="natural" v="ridge" />
=======
	<node id="-208712" lat="67.9544694473" lon="13.0921110999">
		<tag k="name" v="Trollholet" />
		<tag k="natural" v="valley" />
>>>>>>> e1d4bc35ff8a6074a6f2e91616a996b547c36f15
		<tag k="place" v="locality" />
		<tag k="ssr:stedsnr" v="838430" />
	</node>
<<<<<<< HEAD
	<node lat="67.9361805559511" lon="12.907122212379884" id="-10901">
=======
	<node id="-208711" lat="67.9741833292" lon="13.1032249963">
>>>>>>> e1d4bc35ff8a6074a6f2e91616a996b547c36f15
		<tag k="fixme" v="consider natural=peak for the most distinct mountains in the district" />
		<tag k="name" v="Ertenhellåsen" />
		<tag k="natural" v="hill" />
		<tag k="place" v="locality" />
		<tag k="ssr:stedsnr" v="839303" />
	</node>
<<<<<<< HEAD
	<node lat="67.90263611153857" lon="12.968486121394985" id="-10902">
		<tag k="name" v="Himmelheia" />
		<tag k="natural" v="hill" />
=======
	<node id="-208710" lat="67.9830361085" lon="13.1077666598">
		<tag k="name" v="Vorfjordskaret" />
		<tag k="natural" v="valley" />
>>>>>>> e1d4bc35ff8a6074a6f2e91616a996b547c36f15
		<tag k="place" v="locality" />
		<tag k="ssr:stedsnr" v="839315" />
	</node>
<<<<<<< HEAD
	<node lat="67.89464999688299" lon="13.00775278129958" id="-10903">
		<tag k="name" v="Kvitbergan" />
		<tag k="natural" v="ridge" />
=======
	<node id="-208709" lat="67.8954722237" lon="13.0265750016">
		<tag k="name" v="Rostaddalen" />
		<tag k="natural" v="valley" />
>>>>>>> e1d4bc35ff8a6074a6f2e91616a996b547c36f15
		<tag k="place" v="locality" />
		<tag k="ssr:stedsnr" v="839377" />
	</node>
<<<<<<< HEAD
	<node lat="67.85726110923939" lon="12.867336121303266" id="-10905">
		<tag k="name" v="Nordheia" />
=======
	<node id="-208707" lat="67.9337194446" lon="13.042036116">
		<tag k="name" v="Austerdalsfjellet" />
>>>>>>> e1d4bc35ff8a6074a6f2e91616a996b547c36f15
		<tag k="natural" v="hill" />
		<tag k="place" v="locality" />
		<tag k="ssr:stedsnr" v="839678" />
	</node>
<<<<<<< HEAD
	<node lat="67.8796944475795" lon="12.972794445201137" id="-10909">
		<tag k="name" v="Litlandstabben" />
		<tag k="natural" v="hill" />
=======
	<node id="-208705" lat="68.0307305555" lon="13.0116638946">
		<tag k="name" v="Trolldalen" />
		<tag k="natural" v="valley" />
>>>>>>> e1d4bc35ff8a6074a6f2e91616a996b547c36f15
		<tag k="place" v="locality" />
		<tag k="ssr:stedsnr" v="926389" />
	</node>
<<<<<<< HEAD
	<node lat="67.92278333642338" lon="13.012763897345247" id="-10911">
		<tag k="fixme" v="consider natural=peak for the most distinct mountains in the district" />
		<tag k="name" v="Djupfjordheia" />
		<tag k="natural" v="hill" />
=======
	<node id="-208704" lat="68.0240833341" lon="12.9653110997">
		<tag k="name" v="Mullian" />
		<tag k="natural" v="slope" />
>>>>>>> e1d4bc35ff8a6074a6f2e91616a996b547c36f15
		<tag k="place" v="locality" />
		<tag k="ssr:stedsnr" v="927395" />
	</node>
<<<<<<< HEAD
	<node lat="67.83115833103852" lon="12.843855554613349" id="-10912">
		<tag k="name" v="Stormarka" />
=======
	<node id="-208703" lat="67.9989111117" lon="12.9678138884">
		<tag k="name" v="Skjelvan" />
		<tag k="natural" v="slope" />
>>>>>>> e1d4bc35ff8a6074a6f2e91616a996b547c36f15
		<tag k="place" v="locality" />
		<tag k="ssr:stedsnr" v="927083" />
	</node>
<<<<<<< HEAD
	<node lat="67.8368361109261" lon="12.82311667362135" id="-10914">
		<tag k="fixme" v="multiple name tags, choose one and add the other to alt_name" />
		<tag k="name" v="Bjørnskardet;Hellsreva" />
		<tag k="natural" v="valley" />
		<tag k="place" v="locality" />
		<tag k="ssr:stedsnr" v="927099" />
	</node>
	<node lat="67.91741388822525" lon="12.912938899707118" id="-10916">
=======
	<node id="-208698" lat="67.9019611095" lon="13.0190888943">
		<tag k="alt_name" v="Kolfjellet" />
>>>>>>> e1d4bc35ff8a6074a6f2e91616a996b547c36f15
		<tag k="fixme" v="consider natural=peak for the most distinct mountains in the district" />
		<tag k="name" v="Trolldalstinden" />
		<tag k="natural" v="hill" />
		<tag k="place" v="locality" />
		<tag k="ssr:stedsnr" v="927397" />
	</node>
<<<<<<< HEAD
	<node lat="67.94388888518463" lon="12.967672229237714" id="-10919">
=======
	<node id="-208696" lat="67.9125805566" lon="12.9672194441">
>>>>>>> e1d4bc35ff8a6074a6f2e91616a996b547c36f15
		<tag k="fixme" v="consider natural=peak for the most distinct mountains in the district" />
		<tag k="name" v="Kringeldalstind" />
		<tag k="natural" v="hill" />
		<tag k="place" v="locality" />
		<tag k="ssr:stedsnr" v="927489" />
	</node>
<<<<<<< HEAD
	<node lat="67.92593889310987" lon="13.060141674250685" id="-10921">
		<tag k="name" v="Helvete" />
=======
	<node id="-208694" lat="67.9361861133" lon="13.0202194428">
		<tag k="fixme" v="consider natural=peak for the most distinct mountains in the district" />
		<tag k="name" v="Veinestinden" />
		<tag k="natural" v="hill" />
>>>>>>> e1d4bc35ff8a6074a6f2e91616a996b547c36f15
		<tag k="place" v="locality" />
		<tag k="ssr:stedsnr" v="927501" />
	</node>
<<<<<<< HEAD
	<node lat="67.8896777788431" lon="12.891236109547306" id="-10923">
		<tag k="name" v="Øverdalen" />
		<tag k="natural" v="valley" />
=======
	<node id="-208693" lat="67.9584555538" lon="12.9721944426">
		<tag k="alt_name" v="Håtindan" />
		<tag k="fixme" v="consider natural=peak for the most distinct mountains in the district" />
		<tag k="name" v="Håtinden" />
		<tag k="natural" v="hill" />
>>>>>>> e1d4bc35ff8a6074a6f2e91616a996b547c36f15
		<tag k="place" v="locality" />
		<tag k="ssr:stedsnr" v="900316" />
	</node>
<<<<<<< HEAD
	<node lat="67.97627499569127" lon="13.152827781881369" id="-10924">
		<tag k="name" v="Bukkskinnet" />
		<tag k="natural" v="cliff" />
		<tag k="ssr:stedsnr" v="900412" />
	</node>
	<node lat="67.97439444733419" lon="13.073608329720797" id="-10925">
		<tag k="name" v="Kanonen" />
=======
	<node id="-208692" lat="67.9672861084" lon="13.0622277887">
		<tag k="fixme" v="consider natural=peak for the most distinct mountains in the district" />
		<tag k="name" v="Rostadtindan" />
		<tag k="natural" v="hill" />
		<tag k="place" v="locality" />
		<tag k="ssr:stedsnr" v="502471" />
	</node>
	<node id="-208691" lat="67.9701027814" lon="12.9614916667">
		<tag k="name" v="Trolldalen" />
		<tag k="natural" v="valley" />
>>>>>>> e1d4bc35ff8a6074a6f2e91616a996b547c36f15
		<tag k="place" v="locality" />
		<tag k="ssr:stedsnr" v="900418" />
	</node>
<<<<<<< HEAD
	<node lat="67.96411389199066" lon="12.97290001161367" id="-10926">
		<tag k="name" v="Elendalen" />
=======
	<node id="-208690" lat="67.959891666" lon="12.9613472217">
		<tag k="name" v="Hermannsdalslia" />
>>>>>>> e1d4bc35ff8a6074a6f2e91616a996b547c36f15
		<tag k="natural" v="valley" />
		<tag k="place" v="locality" />
		<tag k="ssr:stedsnr" v="900422" />
	</node>
<<<<<<< HEAD
	<node lat="67.93690555253133" lon="12.963199996147496" id="-10928">
		<tag k="name" v="Lamheia" />
		<tag k="natural" v="hill" />
=======
	<node id="-209117" lat="67.9871194477" lon="13.036352779">
		<tag k="name" v="Durmålsdalen" />
		<tag k="natural" v="valley" />
		<tag k="place" v="locality" />
		<tag k="ssr:stedsnr" v="806303" />
	</node>
	<node id="-208680" lat="67.8508055526" lon="12.8554583221">
		<tag k="name" v="Ånstadlia" />
		<tag k="natural" v="slope" />
>>>>>>> e1d4bc35ff8a6074a6f2e91616a996b547c36f15
		<tag k="place" v="locality" />
		<tag k="ssr:stedsnr" v="900460" />
	</node>
<<<<<<< HEAD
	<node lat="67.92230000216237" lon="13.05428055205752" id="-10935">
		<tag k="name" v="Rundlia" />
		<tag k="natural" v="slope" />
=======
	<node id="-208679" lat="67.8452222247" lon="12.8333611144">
		<tag k="name" v="Banjordhaugen" />
		<tag k="natural" v="hill" />
>>>>>>> e1d4bc35ff8a6074a6f2e91616a996b547c36f15
		<tag k="place" v="locality" />
		<tag k="ssr:stedsnr" v="960276" />
	</node>
<<<<<<< HEAD
	<node lat="67.97864166819451" lon="13.09403056015195" id="-10936">
		<tag k="fixme" v="consider natural=peak for the most distinct mountains in the district" />
		<tag k="name" v="Festhælvasstinden" />
=======
	<node id="-208674" lat="67.9015055543" lon="13.0495722162">
		<tag k="name" v="Kirkhaugen" />
>>>>>>> e1d4bc35ff8a6074a6f2e91616a996b547c36f15
		<tag k="natural" v="hill" />
		<tag k="place" v="locality" />
		<tag k="ssr:stedsnr" v="960405" />
	</node>
<<<<<<< HEAD
	<node lat="68.01308333498639" lon="13.01867499317287" id="-10946">
		<tag k="fixme" v="consider natural=peak for the most distinct mountains in the district" />
		<tag k="name" v="Markan" />
		<tag k="natural" v="hill" />
		<tag k="place" v="locality" />
		<tag k="ssr:stedsnr" v="17039" />
	</node>
	<node lat="67.85228055687955" lon="12.881883324649843" id="-10951">
		<tag k="name" v="Kudalen" />
		<tag k="natural" v="valley" />
=======
	<node id="-209185" lat="67.9844772293" lon="13.1203043667">
		<tag k="alt_name" v="Målhøgtinden" />
		<tag k="fixme" v="consider natural=peak for the most distinct mountains in the district" />
		<tag k="name" v="Molhøgtinden" />
		<tag k="natural" v="hill" />
		<tag k="place" v="locality" />
		<tag k="ssr:stedsnr" v="806428" />
	</node>
	<node id="-208672" lat="67.8951944479" lon="12.8706861048">
		<tag k="name" v="Vollen" />
		<tag k="natural" v="slope" />
>>>>>>> e1d4bc35ff8a6074a6f2e91616a996b547c36f15
		<tag k="place" v="locality" />
		<tag k="ssr:stedsnr" v="17457" />
	</node>
<<<<<<< HEAD
	<node lat="67.971397219784" lon="13.003783326991137" id="-10952">
		<tag k="fixme" v="consider natural=peak for the most distinct mountains in the district" />
		<tag k="name" v="Olatinden" />
		<tag k="natural" v="hill" />
=======
	<node id="-208670" lat="67.938983333" lon="13.0603583284">
		<tag k="name" v="Elselia" />
		<tag k="natural" v="slope" />
>>>>>>> e1d4bc35ff8a6074a6f2e91616a996b547c36f15
		<tag k="place" v="locality" />
		<tag k="ssr:stedsnr" v="17475" />
	</node>
<<<<<<< HEAD
	<node lat="67.95000555558623" lon="12.922847218893537" id="-10953">
		<tag k="fixme" v="multiple name tags, choose one and add the other to alt_name; consider natural=peak for the most distinct mountains in the district" />
		<tag k="name" v="Sauhågtinden;Saubergtinden;Middagstinden" />
		<tag k="natural" v="hill" />
=======
	<node id="-208669" lat="67.9300499983" lon="13.0558222275">
		<tag k="name" v="Kista" />
		<tag k="natural" v="valley" />
>>>>>>> e1d4bc35ff8a6074a6f2e91616a996b547c36f15
		<tag k="place" v="locality" />
		<tag k="ssr:stedsnr" v="17487" />
	</node>
<<<<<<< HEAD
	<node lat="67.88373889133108" lon="12.931386118611504" id="-10961">
		<tag k="name" v="Storhaugen" />
=======
	<node id="-208667" lat="67.9095222193" lon="12.8987694549">
		<tag k="fixme" v="consider natural=peak for the most distinct mountains in the district" />
		<tag k="name" v="Smallidalstindan" />
>>>>>>> e1d4bc35ff8a6074a6f2e91616a996b547c36f15
		<tag k="natural" v="hill" />
		<tag k="place" v="locality" />
		<tag k="ssr:stedsnr" v="50332" />
	</node>
<<<<<<< HEAD
	<node lat="67.89936111537531" lon="13.049041675102558" id="-10964">
		<tag k="name" v="Moskeneshaugen" />
		<tag k="natural" v="hill" />
=======
	<node id="-209113" lat="67.925683332" lon="12.9186583269">
		<tag k="alt_name" v="Ertnhelltinden" />
		<tag k="fixme" v="consider natural=peak for the most distinct mountains in the district" />
		<tag k="name" v="Ertenhelltinden" />
		<tag k="natural" v="hill" />
		<tag k="place" v="locality" />
		<tag k="ssr:stedsnr" v="805505" />
	</node>
	<node id="-208659" lat="67.9597694426" lon="12.9262555659">
		<tag k="name" v="Bjørnbakkan" />
		<tag k="natural" v="slope" />
>>>>>>> e1d4bc35ff8a6074a6f2e91616a996b547c36f15
		<tag k="place" v="locality" />
		<tag k="ssr:stedsnr" v="50351" />
	</node>
<<<<<<< HEAD
	<node lat="67.83966110919155" lon="12.820772222678393" id="-10967">
		<tag k="name" v="Rundfjellet" />
		<tag k="natural" v="hill" />
=======
	<node id="-208658" lat="67.9231361129" lon="13.0740555575">
		<tag k="name" v="Ramsvikdalen" />
		<tag k="natural" v="valley" />
>>>>>>> e1d4bc35ff8a6074a6f2e91616a996b547c36f15
		<tag k="place" v="locality" />
		<tag k="ssr:stedsnr" v="50680" />
	</node>
<<<<<<< HEAD
	<node lat="67.83736667136282" lon="12.810983323941837" id="-10968">
		<tag k="name" v="Hjella" />
		<tag k="natural" v="slope" />
		<tag k="place" v="locality" />
		<tag k="ssr:stedsnr" v="50682" />
	</node>
	<node lat="67.97862221994868" lon="12.987125002462417" id="-10970">
=======
	<node id="-208656" lat="68.0388000042" lon="13.0060722154">
>>>>>>> e1d4bc35ff8a6074a6f2e91616a996b547c36f15
		<tag k="fixme" v="consider natural=peak for the most distinct mountains in the district" />
		<tag k="name" v="Brunakseltinden" />
		<tag k="natural" v="hill" />
		<tag k="place" v="locality" />
		<tag k="ssr:stedsnr" v="78442" />
	</node>
<<<<<<< HEAD
	<node lat="67.91767222408635" lon="12.965369438674964" id="-10972">
		<tag k="fixme" v="consider natural=peak for the most distinct mountains in the district" />
		<tag k="name" v="Snaufjellet" />
		<tag k="natural" v="hill" />
=======
	<node id="-209112" lat="67.9339972217" lon="12.9138999884">
		<tag k="alt_name" v="Breidtinden" />
		<tag k="fixme" v="consider natural=peak for the most distinct mountains in the district" />
		<tag k="name" v="Breitinden" />
		<tag k="natural" v="hill" />
		<tag k="place" v="locality" />
		<tag k="ssr:stedsnr" v="805498" />
	</node>
	<node id="-209166" lat="67.9834305572" lon="12.9695138865">
		<tag k="name" v="Studøra" />
>>>>>>> e1d4bc35ff8a6074a6f2e91616a996b547c36f15
		<tag k="place" v="locality" />
		<tag k="ssr:stedsnr" v="77392" />
	</node>
<<<<<<< HEAD
	<node lat="67.83514166386983" lon="12.855158330766603" id="-10974">
		<tag k="fixme" v="consider natural=peak for the most distinct mountains in the district" />
		<tag k="name" v="Hellsegga" />
=======
	<node id="-208652" lat="67.9046333353" lon="12.9713000029">
		<tag k="fixme" v="consider natural=peak for the most distinct mountains in the district" />
		<tag k="name" v="Vestertinden" />
		<tag k="natural" v="hill" />
		<tag k="place" v="locality" />
		<tag k="ssr:stedsnr" v="290462" />
	</node>
	<node id="-209163" lat="67.9311388928" lon="13.0903333368">
		<tag k="name" v="Dorithaugen" />
>>>>>>> e1d4bc35ff8a6074a6f2e91616a996b547c36f15
		<tag k="natural" v="hill" />
		<tag k="place" v="locality" />
		<tag k="ssr:stedsnr" v="78081" />
	</node>
<<<<<<< HEAD
	<node lat="67.84907221851826" lon="12.86935277974094" id="-10975">
		<tag k="fixme" v="consider natural=peak for the most distinct mountains in the district" />
		<tag k="name" v="Stortinden" />
=======
	<node id="-209159" lat="67.9673638862" lon="13.0137111045">
		<tag k="fixme" v="multiple name tags, choose one and add the other to alt_name; consider natural=peak for the most distinct mountains in the district" />
		<tag k="name" v="Hanstinden;Pantaliantinden" />
>>>>>>> e1d4bc35ff8a6074a6f2e91616a996b547c36f15
		<tag k="natural" v="hill" />
		<tag k="place" v="locality" />
		<tag k="ssr:stedsnr" v="78086" />
	</node>
<<<<<<< HEAD
	<node lat="67.95307499970855" lon="13.125694433024604" id="-10982">
		<tag k="name" v="Festhellhula" />
		<tag k="place" v="locality" />
		<tag k="ssr:stedsnr" v="110446" />
	</node>
	<node lat="68.00771667094924" lon="13.013641676662795" id="-10983">
		<tag k="name" v="Vomma" />
		<tag k="natural" v="ridge" />
		<tag k="place" v="locality" />
		<tag k="ssr:stedsnr" v="111099" />
	</node>
	<node lat="67.96118888760408" lon="12.989616667763867" id="-10984">
		<tag k="name" v="Aksla" />
		<tag k="natural" v="ridge" />
=======
	<node id="-208645" lat="67.9758361083" lon="12.9531138873">
		<tag k="name" v="Studalen" />
		<tag k="natural" v="valley" />
		<tag k="place" v="locality" />
		<tag k="ssr:stedsnr" v="232068" />
	</node>
	<node id="-208644" lat="67.9701277755" lon="12.9716638971">
		<tag k="name" v="Moan" />
		<tag k="place" v="locality" />
		<tag k="ssr:stedsnr" v="232056" />
	</node>
	<node id="-208643" lat="67.9745916706" lon="12.9895527692">
		<tag k="name" v="Strupan" />
		<tag k="natural" v="slope" />
>>>>>>> e1d4bc35ff8a6074a6f2e91616a996b547c36f15
		<tag k="place" v="locality" />
		<tag k="ssr:stedsnr" v="111398" />
	</node>
<<<<<<< HEAD
	<node lat="67.88798333790206" lon="12.985469438728499" id="-10985">
		<tag k="name" v="Støttlikollen" />
=======
	<node id="-208642" lat="67.9322888875" lon="13.071349995">
		<tag k="name" v="Vassheia" />
>>>>>>> e1d4bc35ff8a6074a6f2e91616a996b547c36f15
		<tag k="natural" v="hill" />
		<tag k="place" v="locality" />
		<tag k="ssr:stedsnr" v="111239" />
	</node>
<<<<<<< HEAD
	<node lat="67.88305000026828" lon="12.977977767708454" id="-10990">
		<tag k="name" v="Høgnakken" />
		<tag k="natural" v="ridge" />
=======
	<node id="-208640" lat="67.9484583302" lon="12.9375888784">
		<tag k="fixme" v="consider natural=peak for the most distinct mountains in the district" />
		<tag k="name" v="Klokkaåttetinden" />
		<tag k="natural" v="hill" />
		<tag k="place" v="locality" />
		<tag k="ssr:stedsnr" v="442487" />
	</node>
	<node id="-209151" lat="67.9123499995" lon="13.0390111126">
		<tag k="fixme" v="consider natural=peak for the most distinct mountains in the district" />
		<tag k="name" v="Gylttinden" />
		<tag k="natural" v="hill" />
>>>>>>> e1d4bc35ff8a6074a6f2e91616a996b547c36f15
		<tag k="place" v="locality" />
		<tag k="ssr:stedsnr" v="111629" />
	</node>
<<<<<<< HEAD
	<node lat="67.96474722521606" lon="13.016702777461237" id="-10998">
=======
	<node id="-209150" lat="67.991413888" lon="12.9732166617">
>>>>>>> e1d4bc35ff8a6074a6f2e91616a996b547c36f15
		<tag k="fixme" v="consider natural=peak for the most distinct mountains in the district" />
		<tag k="name" v="Floan" />
		<tag k="natural" v="hill" />
		<tag k="place" v="locality" />
		<tag k="ssr:stedsnr" v="138464" />
	</node>
<<<<<<< HEAD
	<node lat="67.86421944527622" lon="12.85286944254522" id="-11004">
		<tag k="name" v="Vedersteinsberget" />
=======
	<node id="-208637" lat="67.9647166625" lon="12.9524083254">
		<tag k="fixme" v="consider natural=peak for the most distinct mountains in the district" />
		<tag k="name" v="Spisstinden" />
>>>>>>> e1d4bc35ff8a6074a6f2e91616a996b547c36f15
		<tag k="natural" v="hill" />
		<tag k="place" v="locality" />
		<tag k="ssr:stedsnr" v="168693" />
	</node>
	<node lat="67.98164444230927" lon="12.974097213767966" id="-11006">
		<tag k="name" v="Oterlia" />
		<tag k="natural" v="slope" />
		<tag k="place" v="locality" />
		<tag k="ssr:stedsnr" v="171080" />
	</node>
	<node lat="67.88836944810659" lon="12.915216665556258" id="-11008">
		<tag k="name" v="Morsjedalen" />
		<tag k="natural" v="valley" />
		<tag k="place" v="locality" />
		<tag k="ssr:stedsnr" v="171329" />
	</node>
<<<<<<< HEAD
	<node lat="67.91822500014365" lon="13.076541666636341" id="-11011">
=======
	<node id="-208636" lat="67.97207778" lon="12.9353888907">
>>>>>>> e1d4bc35ff8a6074a6f2e91616a996b547c36f15
		<tag k="fixme" v="consider natural=peak for the most distinct mountains in the district" />
		<tag k="name" v="Storkåken" />
		<tag k="natural" v="hill" />
		<tag k="place" v="locality" />
		<tag k="ssr:stedsnr" v="171385" />
	</node>
<<<<<<< HEAD
	<node lat="67.92734721903052" lon="13.091738891119713" id="-11012">
		<tag k="name" v="Jakobhola" />
		<tag k="natural" v="valley" />
		<tag k="place" v="locality" />
		<tag k="ssr:stedsnr" v="171387" />
	</node>
	<node lat="67.8681000014769" lon="12.895547214756707" id="-11013">
		<tag k="name" v="Betlidalen" />
		<tag k="natural" v="valley" />
		<tag k="place" v="locality" />
		<tag k="ssr:stedsnr" v="198391" />
	</node>
	<node lat="67.83993610759845" lon="12.813577777801521" id="-11014">
		<tag k="alt_name" v="Kolfjellet" />
		<tag k="name" v="Kollfjellet" />
		<tag k="natural" v="hill" />
		<tag k="place" v="locality" />
		<tag k="ssr:stedsnr" v="199117" />
	</node>
	<node lat="67.83039166467456" lon="12.828552777894835" id="-11015">
=======
	<node id="-208634" lat="67.9777944487" lon="12.929266665">
>>>>>>> e1d4bc35ff8a6074a6f2e91616a996b547c36f15
		<tag k="fixme" v="consider natural=peak for the most distinct mountains in the district" />
		<tag k="name" v="Geittinden" />
		<tag k="natural" v="hill" />
		<tag k="place" v="locality" />
		<tag k="ssr:stedsnr" v="199099" />
	</node>
<<<<<<< HEAD
	<node lat="67.96456388830133" lon="12.929127789171902" id="-11024">
		<tag k="name" v="Stuvdalen" />
		<tag k="natural" v="valley" />
=======
	<node id="-209143" lat="67.9406361146" lon="13.044297216">
		<tag k="name" v="Kamtinden" />
		<tag k="natural" v="ridge" />
>>>>>>> e1d4bc35ff8a6074a6f2e91616a996b547c36f15
		<tag k="place" v="locality" />
		<tag k="ssr:stedsnr" v="199443" />
	</node>
<<<<<<< HEAD
	<node lat="67.9602472196774" lon="12.984874988124252" id="-11025">
		<tag k="fixme" v="consider natural=peak for the most distinct mountains in the district" />
		<tag k="name" v="Pøylhammaren" />
		<tag k="natural" v="hill" />
		<tag k="place" v="locality" />
		<tag k="ssr:stedsnr" v="199445" />
	</node>
	<node lat="67.9046333352502" lon="12.971300002900973" id="-11026">
		<tag k="fixme" v="consider natural=peak for the most distinct mountains in the district" />
		<tag k="name" v="Vestertinden" />
		<tag k="natural" v="hill" />
=======
	<node id="-208629" lat="67.8339833345" lon="12.8263361223">
		<tag k="name" v="Slåttlia" />
		<tag k="natural" v="slope" />
		<tag k="place" v="locality" />
		<tag k="ssr:stedsnr" v="442102" />
	</node>
	<node id="-208628" lat="67.9381416703" lon="13.0436000125">
		<tag k="fixme" v="consider natural=peak for the most distinct mountains in the district" />
		<tag k="name" v="Navaren" />
		<tag k="natural" v="hill" />
		<tag k="place" v="locality" />
		<tag k="ssr:stedsnr" v="441487" />
	</node>
	<node id="-209139" lat="67.8946499969" lon="13.0077527813">
		<tag k="name" v="Kvitbergan" />
		<tag k="natural" v="ridge" />
>>>>>>> e1d4bc35ff8a6074a6f2e91616a996b547c36f15
		<tag k="place" v="locality" />
		<tag k="ssr:stedsnr" v="290462" />
	</node>
<<<<<<< HEAD
	<node lat="67.95095000304453" lon="12.978002786637218" id="-11029">
		<tag k="name" v="Klaveisdalen" />
		<tag k="natural" v="valley" />
=======
	<node id="-209138" lat="67.889174897" lon="13.0387875684">
		<tag k="name" v="Fløystanga" />
>>>>>>> e1d4bc35ff8a6074a6f2e91616a996b547c36f15
		<tag k="place" v="locality" />
		<tag k="ssr:stedsnr" v="293095" />
	</node>
<<<<<<< HEAD
	<node lat="67.89391388849059" lon="12.888222214252153" id="-11031">
		<tag k="name" v="Storbakkan" />
		<tag k="natural" v="slope" />
		<tag k="place" v="locality" />
		<tag k="ssr:stedsnr" v="293360" />
	</node>
	<node lat="67.96926944196629" lon="13.112969435460752" id="-11034">
		<tag k="name" v="Austerdalen" />
		<tag k="natural" v="valley" />
		<tag k="place" v="locality" />
		<tag k="ssr:stedsnr" v="293465" />
	</node>
	<node lat="68.01705555492688" lon="12.976919453395185" id="-11037">
=======
	<node id="-208625" lat="67.902058336" lon="12.8683666765">
		<tag k="alt_name" v="Smallidalen" />
		<tag k="name" v="Smålidalen" />
		<tag k="natural" v="valley" />
		<tag k="place" v="locality" />
		<tag k="ssr:stedsnr" v="441389" />
	</node>
	<node id="-208624" lat="67.9260972264" lon="13.0753222147">
		<tag k="fixme" v="consider natural=peak for the most distinct mountains in the district" />
		<tag k="name" v="Reinebringen" />
		<tag k="natural" v="hill" />
		<tag k="place" v="locality" />
		<tag k="ssr:stedsnr" v="441378" />
	</node>
	<node id="-209135" lat="67.936180556" lon="12.9071222124">
>>>>>>> e1d4bc35ff8a6074a6f2e91616a996b547c36f15
		<tag k="fixme" v="consider natural=peak for the most distinct mountains in the district" />
		<tag k="name" v="Kamman" />
		<tag k="natural" v="hill" />
		<tag k="place" v="locality" />
		<tag k="ssr:stedsnr" v="320041" />
	</node>
<<<<<<< HEAD
	<node lat="67.93824722683036" lon="13.068472215489324" id="-11045">
		<tag k="name" v="Bollhaugen" />
=======
	<node id="-208622" lat="67.969269442" lon="13.1129694355">
		<tag k="name" v="Austerdalen" />
		<tag k="natural" v="valley" />
		<tag k="place" v="locality" />
		<tag k="ssr:stedsnr" v="293465" />
	</node>
	<node id="-209133" lat="67.9401305535" lon="13.079694434">
		<tag k="name" v="Valen" />
>>>>>>> e1d4bc35ff8a6074a6f2e91616a996b547c36f15
		<tag k="natural" v="ridge" />
		<tag k="place" v="locality" />
		<tag k="ssr:stedsnr" v="352393" />
	</node>
<<<<<<< HEAD
	<node lat="67.91817499857846" lon="13.013850008836878" id="-11046">
		<tag k="name" v="Klokkafemskaret" />
		<tag k="natural" v="valley" />
=======
	<node id="-208619" lat="67.8399361076" lon="12.8135777778">
		<tag k="alt_name" v="Kolfjellet" />
		<tag k="name" v="Kollfjellet" />
		<tag k="natural" v="hill" />
>>>>>>> e1d4bc35ff8a6074a6f2e91616a996b547c36f15
		<tag k="place" v="locality" />
		<tag k="ssr:stedsnr" v="353309" />
	</node>
<<<<<<< HEAD
	<node lat="67.89218889231222" lon="12.86528056012199" id="-11047">
		<tag k="name" v="Brekka" />
		<tag k="natural" v="slope" />
=======
	<node id="-208617" lat="67.8952722266" lon="12.9965833279">
		<tag k="name" v="Åsen" />
		<tag k="natural" v="hill" />
>>>>>>> e1d4bc35ff8a6074a6f2e91616a996b547c36f15
		<tag k="place" v="locality" />
		<tag k="ssr:stedsnr" v="353326" />
	</node>
<<<<<<< HEAD
	<node lat="67.98972222600527" lon="13.02056944902237" id="-11048">
		<tag k="name" v="Svaet" />
		<tag k="natural" v="cliff" />
		<tag k="ssr:stedsnr" v="353100" />
	</node>
	<node lat="67.92016944544349" lon="13.065208338808432" id="-11054">
		<tag k="name" v="Langteigan" />
=======
	<node id="-208616" lat="67.8939138885" lon="12.8882222143">
		<tag k="name" v="Storbakkan" />
>>>>>>> e1d4bc35ff8a6074a6f2e91616a996b547c36f15
		<tag k="natural" v="slope" />
		<tag k="place" v="locality" />
		<tag k="ssr:stedsnr" v="353399" />
	</node>
<<<<<<< HEAD
	<node lat="67.95194444748957" lon="13.076494449288939" id="-11057">
		<tag k="name" v="Lamlibenken" />
		<tag k="natural" v="ridge" />
=======
	<node id="-209125" lat="67.9657972201" lon="12.9690805442">
		<tag k="fixme" v="consider natural=peak for the most distinct mountains in the district" />
		<tag k="name" v="Trollhovudet" />
		<tag k="natural" v="hill" />
>>>>>>> e1d4bc35ff8a6074a6f2e91616a996b547c36f15
		<tag k="place" v="locality" />
		<tag k="ssr:stedsnr" v="353440" />
	</node>
<<<<<<< HEAD
	<node lat="67.83870555240013" lon="12.801033329570352" id="-11058">
		<tag k="name" v="Skarphaugen" />
		<tag k="natural" v="hill" />
=======
	<node id="-208612" lat="67.950950003" lon="12.9780027866">
		<tag k="name" v="Klaveisdalen" />
		<tag k="natural" v="valley" />
>>>>>>> e1d4bc35ff8a6074a6f2e91616a996b547c36f15
		<tag k="place" v="locality" />
		<tag k="ssr:stedsnr" v="353733" />
	</node>
<<<<<<< HEAD
	<node lat="67.9871166660505" lon="13.033219449327976" id="-11069">
=======
	<node id="-209123" lat="67.9667805555" lon="12.94012778">
>>>>>>> e1d4bc35ff8a6074a6f2e91616a996b547c36f15
		<tag k="fixme" v="consider natural=peak for the most distinct mountains in the district" />
		<tag k="name" v="Litltinden" />
		<tag k="natural" v="hill" />
		<tag k="place" v="locality" />
<<<<<<< HEAD
		<tag k="ssr:stedsnr" v="381440" />
	</node>
	<node lat="67.98243611078588" lon="13.086436120964132" id="-11070">
		<tag k="fixme" v="consider natural=peak for the most distinct mountains in the district" />
		<tag k="name" v="Klokktinden" />
		<tag k="natural" v="hill" />
		<tag k="place" v="locality" />
		<tag k="ssr:stedsnr" v="381450" />
	</node>
	<node lat="67.97824444360171" lon="13.149769451573022" id="-11071">
		<tag k="fixme" v="consider natural=peak for the most distinct mountains in the district" />
		<tag k="name" v="Ølkontinden" />
		<tag k="natural" v="hill" />
=======
		<tag k="ssr:stedsnr" v="806440" />
	</node>
	<node id="-209122" lat="67.9730111096" lon="12.9773027698">
		<tag k="name" v="Einangen" />
		<tag k="natural" v="valley" />
		<tag k="place" v="locality" />
		<tag k="ssr:stedsnr" v="806438" />
	</node>
	<node id="-208609" lat="67.8879833379" lon="12.9854694387">
		<tag k="name" v="Støttlikollen" />
		<tag k="natural" v="hill" />
		<tag k="place" v="locality" />
		<tag k="ssr:stedsnr" v="111239" />
	</node>
	<node id="-209120" lat="67.9860472212" lon="12.9940499901">
		<tag k="alt_name" v="Vestredalen" />
		<tag k="name" v="Vesterdalen" />
		<tag k="natural" v="valley" />
>>>>>>> e1d4bc35ff8a6074a6f2e91616a996b547c36f15
		<tag k="place" v="locality" />
		<tag k="ssr:stedsnr" v="381453" />
	</node>
<<<<<<< HEAD
	<node lat="67.96720000133489" lon="13.13091110592672" id="-11073">
=======
	<node id="-209119" lat="67.9992444457" lon="13.0343666755">
>>>>>>> e1d4bc35ff8a6074a6f2e91616a996b547c36f15
		<tag k="fixme" v="consider natural=peak for the most distinct mountains in the district" />
		<tag k="name" v="Lilandstinden" />
		<tag k="natural" v="hill" />
		<tag k="place" v="locality" />
		<tag k="ssr:stedsnr" v="381463" />
	</node>
<<<<<<< HEAD
	<node lat="67.96781944025832" lon="12.998933334525628" id="-11078">
		<tag k="name" v="Bissevåglia" />
		<tag k="natural" v="slope" />
		<tag k="place" v="locality" />
		<tag k="ssr:stedsnr" v="414055" />
	</node>
	<node lat="67.99046666523324" lon="12.968622217094177" id="-11080">
		<tag k="name" v="Karitinden" />
		<tag k="natural" v="ridge" />
		<tag k="place" v="locality" />
		<tag k="ssr:stedsnr" v="414081" />
	</node>
	<node lat="67.89947500360803" lon="12.852572221750902" id="-11081">
		<tag k="name" v="Mulfjellet" />
		<tag k="natural" v="cliff" />
		<tag k="ssr:stedsnr" v="414302" />
	</node>
	<node lat="67.94821666359226" lon="13.011433334537442" id="-11082">
		<tag k="name" v="Torshaugen" />
=======
	<node id="-208606" lat="67.9531972229" lon="12.9722083414">
		<tag k="fixme" v="multiple name tags, choose one and add the other to alt_name; consider natural=peak for the most distinct mountains in the district" />
		<tag k="name" v="Rabbtinden;Trollhaue" />
		<tag k="natural" v="hill" />
		<tag k="place" v="locality" />
		<tag k="ssr:stedsnr" v="260499" />
	</node>
	<node id="-208605" lat="67.9749638906" lon="12.9867833399">
		<tag k="name" v="Brunaksla" />
		<tag k="place" v="locality" />
		<tag k="ssr:stedsnr" v="260481" />
	</node>
	<node id="-208603" lat="67.9805277796" lon="13.0757333314">
		<tag k="fixme" v="consider natural=peak for the most distinct mountains in the district" />
		<tag k="name" v="Litlklokktinden" />
>>>>>>> e1d4bc35ff8a6074a6f2e91616a996b547c36f15
		<tag k="natural" v="hill" />
		<tag k="place" v="locality" />
		<tag k="ssr:stedsnr" v="414451" />
	</node>
	<node lat="67.89244722518544" lon="12.995538881178108" id="-11085">
		<tag k="name" v="Kalvrevva" />
		<tag k="natural" v="valley" />
		<tag k="place" v="locality" />
		<tag k="ssr:stedsnr" v="414367" />
	</node>
<<<<<<< HEAD
	<node lat="67.84396389244856" lon="12.839652775598307" id="-11087">
		<tag k="fixme" v="consider natural=peak for the most distinct mountains in the district" />
		<tag k="name" v="Silsandneshaugen" />
		<tag k="natural" v="hill" />
		<tag k="place" v="locality" />
		<tag k="ssr:stedsnr" v="414721" />
	</node>
	<node lat="67.92609722637448" lon="13.075322214734099" id="-11089">
=======
	<node id="-208601" lat="67.9364722252" lon="13.0676277706">
		<tag k="fixme" v="consider natural=peak for the most distinct mountains in the district" />
		<tag k="name" v="Hammarskaftet" />
		<tag k="natural" v="hill" />
		<tag k="place" v="locality" />
		<tag k="ssr:stedsnr" v="259476" />
	</node>
	<node id="-208600" lat="67.8829055592" lon="12.8750944397">
>>>>>>> e1d4bc35ff8a6074a6f2e91616a996b547c36f15
		<tag k="fixme" v="consider natural=peak for the most distinct mountains in the district" />
		<tag k="name" v="Reinebringen" />
		<tag k="natural" v="hill" />
		<tag k="place" v="locality" />
		<tag k="ssr:stedsnr" v="441378" />
	</node>
<<<<<<< HEAD
	<node lat="67.97207777998466" lon="12.935388890716588" id="-11091">
=======
	<node id="-209111" lat="67.9416111114" lon="13.011827773">
		<tag k="alt_name" v="Ternnestinden" />
>>>>>>> e1d4bc35ff8a6074a6f2e91616a996b547c36f15
		<tag k="fixme" v="consider natural=peak for the most distinct mountains in the district" />
		<tag k="name" v="Storskiva" />
		<tag k="natural" v="hill" />
		<tag k="place" v="locality" />
		<tag k="ssr:stedsnr" v="442456" />
	</node>
<<<<<<< HEAD
	<node lat="67.96471666251874" lon="12.952408325381043" id="-11092">
=======
	<node id="-208598" lat="67.8938027816" lon="12.9447694471">
>>>>>>> e1d4bc35ff8a6074a6f2e91616a996b547c36f15
		<tag k="fixme" v="consider natural=peak for the most distinct mountains in the district" />
		<tag k="name" v="Spisstinden" />
		<tag k="natural" v="hill" />
		<tag k="place" v="locality" />
		<tag k="ssr:stedsnr" v="442469" />
	</node>
<<<<<<< HEAD
	<node lat="67.9019611095311" lon="13.019088894325561" id="-11098">
		<tag k="alt_name" v="Kolfjellet" />
		<tag k="fixme" v="consider natural=peak for the most distinct mountains in the district" />
		<tag k="name" v="Kollfjellet" />
		<tag k="natural" v="hill" />
		<tag k="place" v="locality" />
		<tag k="ssr:stedsnr" v="502398" />
	</node>
	<node lat="67.95989166597374" lon="12.96134722166443" id="-11102">
		<tag k="name" v="Hermannsdalslia" />
		<tag k="natural" v="valley" />
		<tag k="place" v="locality" />
		<tag k="ssr:stedsnr" v="502463" />
	</node>
	<node lat="67.97010278141603" lon="12.961491666657276" id="-11103">
		<tag k="name" v="Trolldalen" />
=======
	<node id="-209102" lat="67.9024944475" lon="13.0286833306">
		<tag k="name" v="Sauhella" />
		<tag k="natural" v="slope" />
		<tag k="place" v="locality" />
		<tag k="ssr:stedsnr" v="778347" />
	</node>
	<node id="-209146" lat="67.8572611092" lon="12.8673361213">
		<tag k="name" v="Nordheia" />
		<tag k="natural" v="hill" />
		<tag k="place" v="locality" />
		<tag k="ssr:stedsnr" v="839678" />
	</node>
	<node id="-209105" lat="67.95865833" lon="12.9877083363">
		<tag k="name" v="Skarsloka" />
>>>>>>> e1d4bc35ff8a6074a6f2e91616a996b547c36f15
		<tag k="natural" v="valley" />
		<tag k="place" v="locality" />
		<tag k="ssr:stedsnr" v="502465" />
	</node>
<<<<<<< HEAD
	<node lat="67.96728610842094" lon="13.062227788724847" id="-11104">
		<tag k="fixme" v="consider natural=peak for the most distinct mountains in the district" />
		<tag k="name" v="Rostadtindan" />
		<tag k="natural" v="hill" />
=======
	<node id="-209104" lat="67.9184555553" lon="13.074180548">
		<tag k="name" v="Bjønnskaret" />
		<tag k="natural" v="valley" />
>>>>>>> e1d4bc35ff8a6074a6f2e91616a996b547c36f15
		<tag k="place" v="locality" />
		<tag k="ssr:stedsnr" v="502471" />
	</node>
<<<<<<< HEAD
	<node lat="67.89196111291484" lon="12.921811109890486" id="-11107">
		<tag k="name" v="Mengedalen" />
		<tag k="natural" v="valley" />
		<tag k="place" v="locality" />
		<tag k="ssr:stedsnr" v="535357" />
	</node>
	<node lat="67.85685555125704" lon="12.863016673302248" id="-11111">
		<tag k="name" v="Tortenbakkskaret" />
		<tag k="natural" v="valley" />
=======
	<node id="-208590" lat="67.9594861088" lon="13.0775944399">
		<tag k="name" v="Sølvpengdalen" />
		<tag k="natural" v="valley" />
		<tag k="place" v="locality" />
		<tag k="ssr:stedsnr" v="50418" />
	</node>
	<node id="-208589" lat="67.9525888886" lon="13.0844138928">
		<tag k="name" v="Lamlia" />
		<tag k="natural" v="slope" />
		<tag k="place" v="locality" />
		<tag k="ssr:stedsnr" v="50412" />
	</node>
	<node id="-209100" lat="67.8876722192" lon="12.925436107">
		<tag k="name" v="Røyrhallet" />
		<tag k="natural" v="slope" />
>>>>>>> e1d4bc35ff8a6074a6f2e91616a996b547c36f15
		<tag k="place" v="locality" />
		<tag k="ssr:stedsnr" v="535660" />
	</node>
<<<<<<< HEAD
	<node lat="68.0083138933487" lon="12.97944444255227" id="-11113">
		<tag k="fixme" v="consider natural=peak for the most distinct mountains in the district" />
		<tag k="name" v="Breiflogtinden" />
		<tag k="natural" v="hill" />
		<tag k="place" v="locality" />
		<tag k="ssr:stedsnr" v="562033" />
	</node>
	<node lat="68.02259999972516" lon="12.973172219209587" id="-11114">
		<tag k="fixme" v="multiple name tags, choose one and add the other to alt_name; consider natural=peak for the most distinct mountains in the district" />
		<tag k="name" v="Smeden;Smetinden" />
=======
	<node id="-208586" lat="67.8993611154" lon="13.0490416751">
		<tag k="name" v="Moskeneshaugen" />
		<tag k="natural" v="hill" />
		<tag k="place" v="locality" />
		<tag k="ssr:stedsnr" v="50351" />
	</node>
	<node id="-209096" lat="67.9803388927" lon="12.9705972234">
		<tag k="name" v="Likhola" />
		<tag k="place" v="locality" />
		<tag k="ssr:stedsnr" v="778093" />
	</node>
	<node id="-208583" lat="67.905363887" lon="12.9822916695">
		<tag k="name" v="Øverstøvla" />
>>>>>>> e1d4bc35ff8a6074a6f2e91616a996b547c36f15
		<tag k="natural" v="hill" />
		<tag k="place" v="locality" />
		<tag k="ssr:stedsnr" v="562037" />
	</node>
<<<<<<< HEAD
	<node lat="67.991447224476" lon="12.996927786710364" id="-11117">
		<tag k="fixme" v="multiple name tags, choose one and add the other to alt_name; consider natural=peak for the most distinct mountains in the district" />
		<tag k="name" v="Merraflestinden;Merrastitinden" />
		<tag k="natural" v="hill" />
		<tag k="place" v="locality" />
		<tag k="ssr:stedsnr" v="562275" />
	</node>
	<node lat="67.89915555132814" lon="12.9165000055712" id="-11119">
		<tag k="fixme" v="consider natural=peak for the most distinct mountains in the district" />
		<tag k="name" v="Mengelsdalstinden" />
		<tag k="natural" v="hill" />
		<tag k="place" v="locality" />
		<tag k="ssr:stedsnr" v="562380" />
	</node>
	<node lat="67.92647777675857" lon="13.091408335365372" id="-11123">
		<tag k="alt_name" v="Munkhaugen" />
=======
	<node id="-208673" lat="67.8744361093" lon="12.9561888968">
		<tag k="fixme" v="consider natural=peak for the most distinct mountains in the district" />
		<tag k="name" v="Alpiggen" />
		<tag k="natural" v="hill" />
		<tag k="ssr:stedsnr" v="475359" />
	</node>
	<node id="-209092" lat="67.9335527821" lon="13.0932055481">
		<tag k="name" v="Jekthaugen" />
		<tag k="natural" v="hill" />
		<tag k="place" v="locality" />
		<tag k="ssr:stedsnr" v="777372" />
	</node>
	<node id="-208579" lat="67.870622218" lon="12.9223000032">
		<tag k="name" v="Tindsfjellet" />
		<tag k="natural" v="cliff" />
		<tag k="ssr:stedsnr" v="232583" />
	</node>
	<node id="-209088" lat="67.9498861085" lon="12.9669666654">
		<tag k="alt_name" v="Brynliskardtinden" />
>>>>>>> e1d4bc35ff8a6074a6f2e91616a996b547c36f15
		<tag k="fixme" v="consider natural=peak for the most distinct mountains in the district" />
		<tag k="name" v="Munkhauan" />
		<tag k="natural" v="hill" />
		<tag k="place" v="locality" />
		<tag k="ssr:stedsnr" v="562365" />
	</node>
<<<<<<< HEAD
	<node lat="67.98561388455552" lon="13.042444445724632" id="-11127">
		<tag k="alt_name" v="Seiltinden" />
=======
	<node id="-209087" lat="68.0387111128" lon="13.0058416766">
		<tag k="alt_name" v="Indre Brasråstindan;Brasråsen" />
>>>>>>> e1d4bc35ff8a6074a6f2e91616a996b547c36f15
		<tag k="fixme" v="consider natural=peak for the most distinct mountains in the district" />
		<tag k="name" v="Segltinden" />
		<tag k="natural" v="hill" />
		<tag k="place" v="locality" />
		<tag k="ssr:stedsnr" v="563428" />
	</node>
<<<<<<< HEAD
	<node lat="67.95850277623074" lon="12.926691668361759" id="-11130">
		<tag k="name" v="Hermannsdalen" />
		<tag k="natural" v="valley" />
=======
	<node id="-209086" lat="67.8327694486" lon="12.8329888921">
		<tag k="name" v="Munkan" />
		<tag k="natural" v="hill" />
>>>>>>> e1d4bc35ff8a6074a6f2e91616a996b547c36f15
		<tag k="place" v="locality" />
		<tag k="ssr:stedsnr" v="563452" />
	</node>
<<<<<<< HEAD
	<node lat="67.93633889182105" lon="13.089827766789934" id="-11134">
		<tag k="name" v="Skjånakken" />
		<tag k="natural" v="hill" />
		<tag k="place" v="locality" />
		<tag k="ssr:stedsnr" v="595362" />
	</node>
	<node lat="67.97651944888857" lon="13.159158324820696" id="-11135">
		<tag k="name" v="Ølkondalen" />
=======
	<node id="-208573" lat="67.9781138886" lon="13.0819694331">
		<tag k="name" v="Vestervassdalen" />
		<tag k="natural" v="valley" />
		<tag k="place" v="locality" />
		<tag k="ssr:stedsnr" v="232373" />
	</node>
	<node id="-208571" lat="67.9728277805" lon="12.9979055635">
		<tag k="name" v="Kjelen" />
>>>>>>> e1d4bc35ff8a6074a6f2e91616a996b547c36f15
		<tag k="natural" v="valley" />
		<tag k="place" v="locality" />
		<tag k="ssr:stedsnr" v="596385" />
	</node>
<<<<<<< HEAD
	<node lat="68.00362499932726" lon="12.98990833248847" id="-11137">
		<tag k="name" v="Kråkdalen" />
		<tag k="natural" v="valley" />
=======
	<node id="-208568" lat="67.9300916637" lon="13.0720083254">
		<tag k="name" v="Sessen" />
		<tag k="natural" v="ridge" />
>>>>>>> e1d4bc35ff8a6074a6f2e91616a996b547c36f15
		<tag k="place" v="locality" />
		<tag k="ssr:stedsnr" v="596089" />
	</node>
<<<<<<< HEAD
	<node lat="68.02311110699843" lon="13.01990555559953" id="-11139">
		<tag k="alt_name" v="Brandtuva" />
=======
	<node id="-209079" lat="67.9311749999" lon="13.0202888967">
		<tag k="alt_name" v="Munkan" />
>>>>>>> e1d4bc35ff8a6074a6f2e91616a996b547c36f15
		<tag k="fixme" v="consider natural=peak for the most distinct mountains in the district" />
		<tag k="name" v="Branntuva" />
		<tag k="natural" v="hill" />
		<tag k="place" v="locality" />
		<tag k="ssr:stedsnr" v="623022" />
	</node>
	<node lat="67.82792777523635" lon="12.817994445954861" id="-11141">
		<tag k="fixme" v="multiple name tags, choose one and add the other to alt_name" />
		<tag k="name" v="Reidtinden;Stor-Reitinden" />
		<tag k="natural" v="hill" />
		<tag k="place" v="locality" />
		<tag k="ssr:stedsnr" v="623101" />
	</node>
<<<<<<< HEAD
	<node lat="67.94200833523671" lon="12.938019432817763" id="-11144">
=======
	<node id="-209074" lat="67.9420083352" lon="12.9380194328">
>>>>>>> e1d4bc35ff8a6074a6f2e91616a996b547c36f15
		<tag k="alt_name" v="Hermansdalstinden" />
		<tag k="fixme" v="consider natural=peak for the most distinct mountains in the district" />
		<tag k="name" v="Hermannsdalstinden" />
		<tag k="natural" v="hill" />
		<tag k="place" v="locality" />
		<tag k="ssr:stedsnr" v="623494" />
	</node>
<<<<<<< HEAD
	<node lat="67.89711666691448" lon="12.86336666518217" id="-11149">
=======
	<node id="-209069" lat="67.8568138868" lon="12.8328360997">
		<tag k="name" v="Steinberget" />
		<tag k="natural" v="hill" />
		<tag k="place" v="locality" />
		<tag k="ssr:stedsnr" v="623446" />
	</node>
	<node id="-209067" lat="67.8971166669" lon="12.8633666652">
>>>>>>> e1d4bc35ff8a6074a6f2e91616a996b547c36f15
		<tag k="fixme" v="consider natural=peak for the most distinct mountains in the district" />
		<tag k="name" v="Smallidalsmulen" />
		<tag k="natural" v="hill" />
		<tag k="place" v="locality" />
		<tag k="ssr:stedsnr" v="623400" />
	</node>
<<<<<<< HEAD
	<node lat="67.86192777775778" lon="12.882611112213134" id="-11152">
		<tag k="name" v="Svultendalen" />
		<tag k="natural" v="valley" />
=======
	<node id="-209095" lat="68.0212777755" lon="12.983363892">
		<tag k="name" v="Jofjellet" />
		<tag k="natural" v="cliff" />
		<tag k="ssr:stedsnr" v="778086" />
	</node>
	<node id="-209063" lat="67.8279277752" lon="12.817994446">
		<tag k="fixme" v="multiple name tags, choose one and add the other to alt_name" />
		<tag k="name" v="Reidtinden;Stor-Reitinden" />
		<tag k="natural" v="hill" />
>>>>>>> e1d4bc35ff8a6074a6f2e91616a996b547c36f15
		<tag k="place" v="locality" />
		<tag k="ssr:stedsnr" v="623431" />
	</node>
<<<<<<< HEAD
	<node lat="67.86340833471559" lon="12.870161109588379" id="-11153">
=======
	<node id="-209061" lat="68.023111107" lon="13.0199055556">
		<tag k="alt_name" v="Brandtuva" />
>>>>>>> e1d4bc35ff8a6074a6f2e91616a996b547c36f15
		<tag k="fixme" v="consider natural=peak for the most distinct mountains in the district" />
		<tag k="name" v="Gjerdtinden" />
		<tag k="natural" v="hill" />
		<tag k="place" v="locality" />
		<tag k="ssr:stedsnr" v="623432" />
	</node>
<<<<<<< HEAD
	<node lat="67.85681388683273" lon="12.832836099709883" id="-11155">
		<tag k="name" v="Steinberget" />
		<tag k="natural" v="hill" />
		<tag k="place" v="locality" />
		<tag k="ssr:stedsnr" v="623446" />
	</node>
	<node lat="67.9989111116602" lon="12.96781388841782" id="-11160">
		<tag k="name" v="Skjelvan" />
		<tag k="natural" v="slope" />
=======
	<node id="-208940" lat="67.83711389" lon="12.8667500026">
		<tag k="name" v="Kalvhagen" />
		<tag k="natural" v="valley" />
		<tag k="place" v="locality" />
		<tag k="ssr:stedsnr" v="320073" />
	</node>
	<node id="-209057" lat="67.9765194489" lon="13.1591583248">
		<tag k="name" v="Ølkondalen" />
		<tag k="natural" v="valley" />
>>>>>>> e1d4bc35ff8a6074a6f2e91616a996b547c36f15
		<tag k="place" v="locality" />
		<tag k="ssr:stedsnr" v="657076" />
	</node>
<<<<<<< HEAD
	<node lat="67.95737222609607" lon="13.089708335478754" id="-11162">
		<tag k="name" v="Snebakkan" />
		<tag k="natural" v="slope" />
		<tag k="place" v="locality" />
		<tag k="ssr:stedsnr" v="657451" />
	</node>
	<node lat="67.96094721899712" lon="13.066938896338643" id="-11163">
		<tag k="fixme" v="consider natural=peak for the most distinct mountains in the district" />
		<tag k="name" v="Rostadtinden" />
=======
	<node id="-209056" lat="67.8896666696" lon="12.9709611181">
		<tag k="name" v="Breiflotan" />
>>>>>>> e1d4bc35ff8a6074a6f2e91616a996b547c36f15
		<tag k="natural" v="hill" />
		<tag k="place" v="locality" />
		<tag k="ssr:stedsnr" v="657454" />
	</node>
<<<<<<< HEAD
	<node lat="67.89547222372701" lon="13.026575001626243" id="-11166">
		<tag k="name" v="Rostaddalen" />
		<tag k="natural" v="valley" />
		<tag k="place" v="locality" />
		<tag k="ssr:stedsnr" v="657384" />
	</node>
	<node lat="67.98303610847515" lon="13.107766659840415" id="-11167">
		<tag k="name" v="Vorfjordskaret" />
=======
	<node id="-209055" lat="68.0447222239" lon="13.0015694405">
		<tag k="name" v="Hjellberget" />
		<tag k="natural" v="cliff" />
		<tag k="ssr:stedsnr" v="596107" />
	</node>
	<node id="-209054" lat="68.0036249993" lon="12.9899083325">
		<tag k="name" v="Kråkdalen" />
>>>>>>> e1d4bc35ff8a6074a6f2e91616a996b547c36f15
		<tag k="natural" v="valley" />
		<tag k="place" v="locality" />
		<tag k="ssr:stedsnr" v="657419" />
	</node>
<<<<<<< HEAD
	<node lat="67.97418332918923" lon="13.103224996333553" id="-11168">
		<tag k="fixme" v="consider natural=peak for the most distinct mountains in the district" />
		<tag k="name" v="Åsen" />
		<tag k="natural" v="hill" />
=======
	<node id="-208581" lat="67.8517361121" lon="12.8667083267">
		<tag k="name" v="Ånstadheia" />
		<tag k="natural" v="hill" />
		<tag k="place" v="locality" />
		<tag k="ssr:stedsnr" v="232696" />
	</node>
	<node id="-209052" lat="67.9592250018" lon="12.9386972191">
		<tag k="name" v="Lian" />
		<tag k="natural" v="slope" />
>>>>>>> e1d4bc35ff8a6074a6f2e91616a996b547c36f15
		<tag k="place" v="locality" />
		<tag k="ssr:stedsnr" v="657425" />
	</node>
<<<<<<< HEAD
	<node lat="67.88125832905416" lon="12.97811667215188" id="-11169">
		<tag k="name" v="Nonshaugen" />
=======
	<node id="-209051" lat="67.9363388918" lon="13.0898277668">
		<tag k="name" v="Skjånakken" />
>>>>>>> e1d4bc35ff8a6074a6f2e91616a996b547c36f15
		<tag k="natural" v="hill" />
		<tag k="place" v="locality" />
		<tag k="ssr:stedsnr" v="657637" />
	</node>
<<<<<<< HEAD
	<node lat="67.87759444449117" lon="12.940383324029872" id="-11174">
		<tag k="fixme" v="consider natural=peak for the most distinct mountains in the district" />
		<tag k="name" v="Bjørnen" />
		<tag k="natural" v="hill" />
		<tag k="place" v="locality" />
		<tag k="ssr:stedsnr" v="717344" />
	</node>
	<node lat="67.88490555480499" lon="12.976149997868193" id="-11176">
		<tag k="name" v="Nakkvikhaugen" />
		<tag k="natural" v="ridge" />
=======
	<node id="-209047" lat="67.9585027762" lon="12.9266916684">
		<tag k="name" v="Hermannsdalen" />
		<tag k="natural" v="valley" />
>>>>>>> e1d4bc35ff8a6074a6f2e91616a996b547c36f15
		<tag k="place" v="locality" />
		<tag k="ssr:stedsnr" v="717354" />
	</node>
<<<<<<< HEAD
	<node lat="67.90209722191845" lon="13.033211114906273" id="-11177">
		<tag k="name" v="Bruddet" />
		<tag k="place" v="locality" />
		<tag k="ssr:stedsnr" v="717362" />
	</node>
	<node lat="67.89892222585775" lon="13.018236101598944" id="-11178">
		<tag k="name" v="Øverheia" />
		<tag k="natural" v="hill" />
		<tag k="place" v="locality" />
		<tag k="ssr:stedsnr" v="717364" />
	</node>
	<node lat="67.98308611006114" lon="13.114552773877053" id="-11180">
=======
	<node id="-209044" lat="67.9856138846" lon="13.0424444457">
		<tag k="alt_name" v="Seiltinden" />
>>>>>>> e1d4bc35ff8a6074a6f2e91616a996b547c36f15
		<tag k="fixme" v="consider natural=peak for the most distinct mountains in the district" />
		<tag k="name" v="Austervasstinden" />
		<tag k="natural" v="hill" />
		<tag k="place" v="locality" />
		<tag k="ssr:stedsnr" v="717420" />
	</node>
<<<<<<< HEAD
	<node lat="67.94301944706969" lon="12.973769437104858" id="-11181">
		<tag k="name" v="Grisbakkan" />
		<tag k="natural" v="slope" />
		<tag k="place" v="locality" />
		<tag k="ssr:stedsnr" v="717483" />
	</node>
	<node lat="67.97634166232332" lon="12.938369449560632" id="-11183">
		<tag k="name" v="Kvanndalen" />
		<tag k="natural" v="valley" />
		<tag k="place" v="locality" />
		<tag k="ssr:stedsnr" v="718079" />
	</node>
	<node lat="67.99899166772138" lon="12.99793889412141" id="-11185">
		<tag k="name" v="Einangen" />
		<tag k="natural" v="valley" />
		<tag k="place" v="locality" />
		<tag k="ssr:stedsnr" v="718095" />
	</node>
	<node lat="68.03871111281313" lon="13.00584167660904" id="-11187">
		<tag k="alt_name" v="Indre Brasråstindan;Brasråsen" />
=======
	<node id="-209039" lat="67.8991555513" lon="12.9165000056">
>>>>>>> e1d4bc35ff8a6074a6f2e91616a996b547c36f15
		<tag k="fixme" v="consider natural=peak for the most distinct mountains in the district" />
		<tag k="name" v="Brasråstindan" />
		<tag k="natural" v="hill" />
		<tag k="place" v="locality" />
		<tag k="ssr:stedsnr" v="745046" />
	</node>
<<<<<<< HEAD
	<node lat="67.88894166373552" lon="12.990791671652568" id="-11188">
		<tag k="fixme" v="consider natural=peak for the most distinct mountains in the district" />
		<tag k="name" v="Tindstinden" />
		<tag k="natural" v="hill" />
		<tag k="place" v="locality" />
		<tag k="ssr:stedsnr" v="745420" />
	</node>
	<node lat="67.95642777539042" lon="13.076799989519706" id="-11189">
=======
	<node id="-209037" lat="67.9264777768" lon="13.0914083354">
		<tag k="alt_name" v="Munkhaugen" />
>>>>>>> e1d4bc35ff8a6074a6f2e91616a996b547c36f15
		<tag k="fixme" v="consider natural=peak for the most distinct mountains in the district" />
		<tag k="name" v="Olstinden" />
		<tag k="natural" v="hill" />
		<tag k="place" v="locality" />
		<tag k="ssr:stedsnr" v="745464" />
	</node>
<<<<<<< HEAD
	<node lat="67.94988610849892" lon="12.966966665432224" id="-11190">
		<tag k="alt_name" v="Brynliskardtinden" />
		<tag k="fixme" v="consider natural=peak for the most distinct mountains in the district" />
		<tag k="name" v="Brynliskartinden" />
=======
	<node id="-209036" lat="67.9914472245" lon="12.9969277867">
		<tag k="fixme" v="multiple name tags, choose one and add the other to alt_name; consider natural=peak for the most distinct mountains in the district" />
		<tag k="name" v="Merraflestinden;Merrastitinden" />
>>>>>>> e1d4bc35ff8a6074a6f2e91616a996b547c36f15
		<tag k="natural" v="hill" />
		<tag k="place" v="locality" />
		<tag k="ssr:stedsnr" v="745469" />
	</node>
<<<<<<< HEAD
	<node lat="67.93355278205117" lon="13.093205548102597" id="-11192">
		<tag k="name" v="Jekthaugen" />
=======
	<node id="-209033" lat="68.0225999997" lon="12.9731722192">
		<tag k="fixme" v="multiple name tags, choose one and add the other to alt_name; consider natural=peak for the most distinct mountains in the district" />
		<tag k="name" v="Smeden;Smetinden" />
>>>>>>> e1d4bc35ff8a6074a6f2e91616a996b547c36f15
		<tag k="natural" v="hill" />
		<tag k="place" v="locality" />
		<tag k="ssr:stedsnr" v="777372" />
	</node>
<<<<<<< HEAD
	<node lat="68.02127777545937" lon="12.983363892039245" id="-11195">
		<tag k="name" v="Jofjellet" />
		<tag k="natural" v="cliff" />
		<tag k="ssr:stedsnr" v="778086" />
	</node>
	<node lat="67.98033889273985" lon="12.970597223441402" id="-11196">
		<tag k="name" v="Likhola" />
=======
	<node id="-209032" lat="68.0083138933" lon="12.9794444426">
		<tag k="fixme" v="consider natural=peak for the most distinct mountains in the district" />
		<tag k="name" v="Breiflogtinden" />
		<tag k="natural" v="hill" />
>>>>>>> e1d4bc35ff8a6074a6f2e91616a996b547c36f15
		<tag k="place" v="locality" />
		<tag k="ssr:stedsnr" v="778093" />
	</node>
<<<<<<< HEAD
	<node lat="67.9184555552649" lon="13.074180547999905" id="-11197">
		<tag k="name" v="Bjønnskaret" />
=======
	<node id="-208922" lat="67.8681000015" lon="12.8955472148">
		<tag k="name" v="Betlidalen" />
		<tag k="natural" v="valley" />
		<tag k="place" v="locality" />
		<tag k="ssr:stedsnr" v="198391" />
	</node>
	<node id="-209030" lat="67.9683555527" lon="12.9564972307">
		<tag k="name" v="Reklidalen" />
>>>>>>> e1d4bc35ff8a6074a6f2e91616a996b547c36f15
		<tag k="natural" v="valley" />
		<tag k="place" v="locality" />
		<tag k="ssr:stedsnr" v="778381" />
	</node>
<<<<<<< HEAD
	<node lat="67.8876722192146" lon="12.925436106988005" id="-11200">
		<tag k="name" v="Røyrhallet" />
=======
	<node id="-209029" lat="67.9733527774" lon="13.014955555">
		<tag k="name" v="Nabblian" />
>>>>>>> e1d4bc35ff8a6074a6f2e91616a996b547c36f15
		<tag k="natural" v="slope" />
		<tag k="place" v="locality" />
		<tag k="ssr:stedsnr" v="778340" />
	</node>
<<<<<<< HEAD
	<node lat="67.9024944475343" lon="13.028683330558717" id="-11202">
		<tag k="name" v="Sauhella" />
		<tag k="natural" v="slope" />
=======
	<node id="-209028" lat="67.8568555513" lon="12.8630166733">
		<tag k="name" v="Tortenbakkskaret" />
		<tag k="natural" v="valley" />
>>>>>>> e1d4bc35ff8a6074a6f2e91616a996b547c36f15
		<tag k="place" v="locality" />
		<tag k="ssr:stedsnr" v="778347" />
	</node>
<<<<<<< HEAD
	<node lat="67.94161111142286" lon="13.011827773023342" id="-11206">
		<tag k="alt_name" v="Ternnestinden" />
		<tag k="fixme" v="consider natural=peak for the most distinct mountains in the district" />
		<tag k="name" v="Tennestinden" />
		<tag k="natural" v="hill" />
		<tag k="place" v="locality" />
		<tag k="ssr:stedsnr" v="805497" />
	</node>
	<node lat="67.93399722165042" lon="12.913899988382942" id="-11207">
		<tag k="alt_name" v="Breidtinden" />
		<tag k="fixme" v="consider natural=peak for the most distinct mountains in the district" />
		<tag k="name" v="Breitinden" />
		<tag k="natural" v="hill" />
		<tag k="place" v="locality" />
		<tag k="ssr:stedsnr" v="805498" />
	</node>
	<node lat="67.92568333197441" lon="12.918658326903692" id="-11211">
		<tag k="alt_name" v="Ertnhelltinden" />
		<tag k="fixme" v="consider natural=peak for the most distinct mountains in the district" />
		<tag k="name" v="Ertenhelltinden" />
		<tag k="natural" v="hill" />
		<tag k="place" v="locality" />
		<tag k="ssr:stedsnr" v="805505" />
	</node>
	<node lat="67.98711944771398" lon="13.036352778975687" id="-11212">
		<tag k="name" v="Durmålsdalen" />
=======
	<node id="-209025" lat="67.9217722221" lon="13.0224916623">
		<tag k="name" v="Vesterdalen" />
>>>>>>> e1d4bc35ff8a6074a6f2e91616a996b547c36f15
		<tag k="natural" v="valley" />
		<tag k="place" v="locality" />
		<tag k="ssr:stedsnr" v="806303" />
	</node>
<<<<<<< HEAD
	<node lat="67.99609722189179" lon="12.982302781437406" id="-11213">
		<tag k="fixme" v="multiple name tags, choose one and add the other to alt_name; consider natural=peak for the most distinct mountains in the district" />
		<tag k="name" v="Moltbærtinden;Skjelvtinden" />
=======
	<node id="-209024" lat="67.8946388855" lon="12.9206083319">
		<tag k="name" v="Mengedalsheia" />
>>>>>>> e1d4bc35ff8a6074a6f2e91616a996b547c36f15
		<tag k="natural" v="hill" />
		<tag k="place" v="locality" />
		<tag k="ssr:stedsnr" v="806305" />
	</node>
<<<<<<< HEAD
	<node lat="67.99924444568259" lon="13.034366675492013" id="-11214">
		<tag k="fixme" v="consider natural=peak for the most distinct mountains in the district" />
		<tag k="name" v="Manntinden" />
		<tag k="natural" v="hill" />
		<tag k="place" v="locality" />
		<tag k="ssr:stedsnr" v="806307" />
	</node>
	<node lat="67.9860472211599" lon="12.994049990052783" id="-11216">
		<tag k="alt_name" v="Vestredalen" />
		<tag k="name" v="Vesterdalen" />
=======
	<node id="-209023" lat="67.9735111121" lon="13.1454083268">
		<tag k="name" v="Vassdalen" />
>>>>>>> e1d4bc35ff8a6074a6f2e91616a996b547c36f15
		<tag k="natural" v="valley" />
		<tag k="place" v="locality" />
		<tag k="ssr:stedsnr" v="806425" />
	</node>
<<<<<<< HEAD
	<node lat="67.98447722934205" lon="13.120304366724943" id="-11217">
		<tag k="alt_name" v="Målhøgtinden" />
=======
	<node id="-209018" lat="67.8439638924" lon="12.8396527756">
>>>>>>> e1d4bc35ff8a6074a6f2e91616a996b547c36f15
		<tag k="fixme" v="consider natural=peak for the most distinct mountains in the district" />
		<tag k="name" v="Molhøgtinden" />
		<tag k="natural" v="hill" />
		<tag k="place" v="locality" />
		<tag k="ssr:stedsnr" v="806428" />
	</node>
<<<<<<< HEAD
	<node lat="67.97338888434118" lon="13.004655560661165" id="-11218">
		<tag k="fixme" v="consider natural=peak for the most distinct mountains in the district" />
		<tag k="name" v="Kammen" />
=======
	<node id="-209017" lat="67.9482166636" lon="13.0114333345">
		<tag k="name" v="Torshaugen" />
>>>>>>> e1d4bc35ff8a6074a6f2e91616a996b547c36f15
		<tag k="natural" v="hill" />
		<tag k="place" v="locality" />
		<tag k="ssr:stedsnr" v="806435" />
	</node>
	<node lat="67.97301110961334" lon="12.977302769772612" id="-11219">
		<tag k="name" v="Einangen" />
		<tag k="natural" v="valley" />
		<tag k="place" v="locality" />
		<tag k="ssr:stedsnr" v="806438" />
	</node>
<<<<<<< HEAD
	<node lat="67.96678055554023" lon="12.940127780031009" id="-11220">
=======
	<node id="-209015" lat="67.9762888852" lon="13.1288694498">
>>>>>>> e1d4bc35ff8a6074a6f2e91616a996b547c36f15
		<tag k="fixme" v="consider natural=peak for the most distinct mountains in the district" />
		<tag k="name" v="Litlskiva" />
		<tag k="natural" v="hill" />
		<tag k="place" v="locality" />
		<tag k="ssr:stedsnr" v="806440" />
	</node>
<<<<<<< HEAD
	<node lat="67.96579722006106" lon="12.969080544233043" id="-11224">
		<tag k="fixme" v="consider natural=peak for the most distinct mountains in the district" />
		<tag k="name" v="Trollhovudet" />
		<tag k="natural" v="hill" />
		<tag k="place" v="locality" />
		<tag k="ssr:stedsnr" v="806448" />
	</node>
	<node lat="67.89096944746632" lon="12.950691677279343" id="-11228">
		<tag k="name" v="Langliflotan" />
		<tag k="natural" v="slope" />
=======
	<node id="-209013" lat="67.8924472252" lon="12.9955388812">
		<tag k="name" v="Kalvrevva" />
		<tag k="natural" v="valley" />
>>>>>>> e1d4bc35ff8a6074a6f2e91616a996b547c36f15
		<tag k="place" v="locality" />
		<tag k="ssr:stedsnr" v="839252" />
	</node>
<<<<<<< HEAD
	<node lat="67.88917489695356" lon="13.038787568367251" id="-11231">
		<tag k="name" v="Fløystanga" />
		<tag k="place" v="locality" />
		<tag k="ssr:stedsnr" v="839369" />
	</node>
	<node lat="67.91800555773014" lon="13.080591661364142" id="-11233">
		<tag k="name" v="Litlkåken" />
=======
	<node id="-209009" lat="67.8994750036" lon="12.8525722218">
		<tag k="name" v="Mulfjellet" />
		<tag k="natural" v="cliff" />
		<tag k="ssr:stedsnr" v="414302" />
	</node>
	<node id="-209008" lat="67.9139916677" lon="13.0570305532">
		<tag k="name" v="Storhågen" />
>>>>>>> e1d4bc35ff8a6074a6f2e91616a996b547c36f15
		<tag k="natural" v="ridge" />
		<tag k="place" v="locality" />
		<tag k="ssr:stedsnr" v="839397" />
	</node>
<<<<<<< HEAD
	<node lat="67.94063611461158" lon="13.044297216043102" id="-11234">
		<tag k="name" v="Kamtinden" />
=======
	<node id="-209007" lat="67.9904666652" lon="12.9686222171">
		<tag k="name" v="Karitinden" />
>>>>>>> e1d4bc35ff8a6074a6f2e91616a996b547c36f15
		<tag k="natural" v="ridge" />
		<tag k="place" v="locality" />
		<tag k="ssr:stedsnr" v="839470" />
	</node>
<<<<<<< HEAD
	<node lat="67.91234999954838" lon="13.039011112638535" id="-11237">
		<tag k="fixme" v="consider natural=peak for the most distinct mountains in the district" />
		<tag k="name" v="Gylttinden" />
		<tag k="natural" v="hill" />
		<tag k="place" v="locality" />
		<tag k="ssr:stedsnr" v="866359" />
	</node>
	<node lat="67.99141388795107" lon="12.973216661659027" id="-11239">
		<tag k="fixme" v="consider natural=peak for the most distinct mountains in the district" />
		<tag k="name" v="Stamprevtinden" />
		<tag k="natural" v="hill" />
		<tag k="place" v="locality" />
		<tag k="ssr:stedsnr" v="866271" />
	</node>
	<node lat="67.86780555439046" lon="12.878824992426333" id="-11242">
		<tag k="name" v="Gjerdskardet" />
		<tag k="natural" v="valley" />
		<tag k="place" v="locality" />
		<tag k="ssr:stedsnr" v="866405" />
	</node>
	<node lat="67.96478889283436" lon="12.976180560270894" id="-11243">
		<tag k="name" v="Reklidalshåa" />
		<tag k="natural" v="valley" />
		<tag k="place" v="locality" />
		<tag k="ssr:stedsnr" v="867474" />
	</node>
	<node lat="67.9673638862216" lon="13.01371110454984" id="-11246">
		<tag k="fixme" v="multiple name tags, choose one and add the other to alt_name; consider natural=peak for the most distinct mountains in the district" />
		<tag k="name" v="Pantaliantinden;Hanstinden" />
=======
	<node id="-209085" lat="68.0013774116" lon="13.0239410272">
		<tag k="alt_name" v="Krokhammartindan" />
		<tag k="fixme" v="consider natural=peak for the most distinct mountains in the district" />
		<tag k="name" v="Kråkhammartinden" />
		<tag k="natural" v="hill" />
		<tag k="place" v="locality" />
		<tag k="ssr:stedsnr" v="745079" />
	</node>
	<node id="-208999" lat="67.9672000013" lon="13.1309111059">
		<tag k="fixme" v="consider natural=peak for the most distinct mountains in the district" />
		<tag k="name" v="Lilandstinden" />
		<tag k="natural" v="hill" />
		<tag k="place" v="locality" />
		<tag k="ssr:stedsnr" v="381463" />
	</node>
	<node id="-209118" lat="67.9960972219" lon="12.9823027814">
		<tag k="fixme" v="multiple name tags, choose one and add the other to alt_name; consider natural=peak for the most distinct mountains in the district" />
		<tag k="name" v="Moltbærtinden;Skjelvtinden" />
		<tag k="natural" v="hill" />
		<tag k="place" v="locality" />
		<tag k="ssr:stedsnr" v="806305" />
	</node>
	<node id="-208996" lat="67.9824361108" lon="13.086436121">
		<tag k="fixme" v="consider natural=peak for the most distinct mountains in the district" />
		<tag k="name" v="Klokktinden" />
>>>>>>> e1d4bc35ff8a6074a6f2e91616a996b547c36f15
		<tag k="natural" v="hill" />
		<tag k="place" v="locality" />
		<tag k="ssr:stedsnr" v="867483" />
	</node>
<<<<<<< HEAD
	<node lat="67.93113889279155" lon="13.090333336849904" id="-11248">
		<tag k="name" v="Dorithaugen" />
=======
	<node id="-208995" lat="67.9871166661" lon="13.0332194493">
		<tag k="fixme" v="consider natural=peak for the most distinct mountains in the district" />
		<tag k="name" v="Litltinden" />
>>>>>>> e1d4bc35ff8a6074a6f2e91616a996b547c36f15
		<tag k="natural" v="hill" />
		<tag k="place" v="locality" />
		<tag k="ssr:stedsnr" v="959364" />
	</node>
	<node lat="67.98343055724256" lon="12.969513886537303" id="-11251">
		<tag k="name" v="Studøra" />
		<tag k="place" v="locality" />
		<tag k="ssr:stedsnr" v="960082" />
	</node>
	<node lat="67.89126389018122" lon="12.929125001673293" id="-11253">
		<tag k="name" v="Markushamran" />
		<tag k="natural" v="cliff" />
		<tag k="ssr:stedsnr" v="960261" />
	</node>
<<<<<<< HEAD
	<node lat="67.88486944595289" lon="13.022977774463078" id="-11255">
		<tag k="name" v="Pålhola" />
		<tag k="natural" v="valley" />
=======
	<node id="-208993" lat="67.896988886" lon="13.0317638785">
		<tag k="name" v="Breidlandet" />
>>>>>>> e1d4bc35ff8a6074a6f2e91616a996b547c36f15
		<tag k="place" v="locality" />
		<tag k="ssr:stedsnr" v="960323" />
	</node>
	<node lat="67.88604444242198" lon="12.97092778319465" id="-11257">
		<tag k="name" v="Greislia" />
		<tag k="natural" v="slope" />
		<tag k="place" v="locality" />
		<tag k="ssr:stedsnr" v="960326" />
	</node>
	<node lat="67.85045277598626" lon="12.84619999916907" id="-11260">
		<tag k="name" v="Slettan" />
		<tag k="place" v="locality" />
		<tag k="ssr:stedsnr" v="960725" />
	</node>
	<node id="-209168" lat="67.8860444424" lon="12.9709277832">
		<tag k="name" v="Greislia" />
		<tag k="natural" v="slope" />
		<tag k="place" v="locality" />
		<tag k="ssr:stedsnr" v="960326" />
	</node>
	<node id="-208997" lat="67.9782444436" lon="13.1497694516">
		<tag k="fixme" v="consider natural=peak for the most distinct mountains in the district" />
		<tag k="name" v="Ølkontinden" />
		<tag k="natural" v="hill" />
		<tag k="place" v="locality" />
		<tag k="ssr:stedsnr" v="381453" />
	</node>
	<node id="-208984" lat="67.8552611137" lon="12.859969438">
		<tag k="alt_name" v="Tortenbakkheia" />
		<tag k="name" v="Turtnbakkheia" />
		<tag k="natural" v="hill" />
		<tag k="place" v="locality" />
		<tag k="ssr:stedsnr" v="380460" />
	</node>
	<node id="-208979" lat="67.9161138884" lon="13.0227861212">
		<tag k="fixme" v="consider natural=peak for the most distinct mountains in the district" />
		<tag k="name" v="Merraflestinden" />
		<tag k="natural" v="hill" />
		<tag k="place" v="locality" />
		<tag k="ssr:stedsnr" v="380403" />
	</node>
	<node id="-208975" lat="67.8387055524" lon="12.8010333296">
		<tag k="name" v="Skarphaugen" />
		<tag k="natural" v="hill" />
		<tag k="place" v="locality" />
		<tag k="ssr:stedsnr" v="353733" />
	</node>
	<node id="-208972" lat="67.9519444475" lon="13.0764944493">
		<tag k="name" v="Lamlibenken" />
		<tag k="natural" v="ridge" />
		<tag k="place" v="locality" />
		<tag k="ssr:stedsnr" v="353440" />
	</node>
	<node id="-208970" lat="67.9746694479" lon="13.1337972206">
		<tag k="name" v="Lilandsdalen" />
		<tag k="natural" v="valley" />
		<tag k="place" v="locality" />
		<tag k="ssr:stedsnr" v="353420" />
	</node>
	<node id="-208968" lat="67.9201694454" lon="13.0652083388">
		<tag k="name" v="Langteigan" />
		<tag k="natural" v="slope" />
		<tag k="place" v="locality" />
		<tag k="ssr:stedsnr" v="353399" />
	</node>
	<node id="-209005" lat="67.9678194403" lon="12.9989333345">
		<tag k="name" v="Bissevåglia" />
		<tag k="natural" v="slope" />
		<tag k="place" v="locality" />
		<tag k="ssr:stedsnr" v="414055" />
	</node>
	<node id="-208962" lat="67.8921888923" lon="12.8652805601">
		<tag k="name" v="Brekka" />
		<tag k="natural" v="slope" />
		<tag k="place" v="locality" />
		<tag k="ssr:stedsnr" v="353326" />
	</node>
	<node id="-208961" lat="67.9181749986" lon="13.0138500088">
		<tag k="name" v="Klokkafemskaret" />
		<tag k="natural" v="valley" />
		<tag k="place" v="locality" />
		<tag k="ssr:stedsnr" v="353309" />
	</node>
	<node id="-208960" lat="67.989722226" lon="13.020569449">
		<tag k="name" v="Svaet" />
		<tag k="natural" v="cliff" />
		<tag k="ssr:stedsnr" v="353100" />
	</node>
	<node id="-208958" lat="67.9382472268" lon="13.0684722155">
		<tag k="name" v="Bollhaugen" />
		<tag k="natural" v="ridge" />
		<tag k="place" v="locality" />
		<tag k="ssr:stedsnr" v="352393" />
	</node>
	<node id="-208952" lat="67.9541555553" lon="13.1321805547">
		<tag k="alt_name" v="Festhelltinden" />
		<tag k="fixme" v="consider natural=peak for the most distinct mountains in the district" />
		<tag k="name" v="Festhæltinden" />
		<tag k="natural" v="hill" />
		<tag k="place" v="locality" />
		<tag k="ssr:stedsnr" v="320466" />
	</node>
	<node id="-208950" lat="67.9688666659" lon="13.1592416669">
		<tag k="fixme" v="consider natural=peak for the most distinct mountains in the district" />
		<tag k="name" v="Akkarviktinden" />
		<tag k="natural" v="hill" />
		<tag k="place" v="locality" />
		<tag k="ssr:stedsnr" v="320458" />
	</node>
	<node id="-208949" lat="67.9622250026" lon="12.9707416688">
		<tag k="fixme" v="consider natural=peak for the most distinct mountains in the district" />
		<tag k="name" v="Bisplua" />
		<tag k="natural" v="hill" />
		<tag k="place" v="locality" />
		<tag k="ssr:stedsnr" v="320454" />
	</node>
	<node id="-208948" lat="67.9670722185" lon="12.9189305571">
		<tag k="fixme" v="consider natural=peak for the most distinct mountains in the district" />
		<tag k="name" v="Stuvdalstinden" />
		<tag k="natural" v="hill" />
		<tag k="place" v="locality" />
		<tag k="ssr:stedsnr" v="320447" />
	</node>
	<node id="-208947" lat="67.9810555534" lon="12.9814611079">
		<tag k="fixme" v="consider natural=peak for the most distinct mountains in the district" />
		<tag k="name" v="Helvetestinden" />
		<tag k="natural" v="hill" />
		<tag k="place" v="locality" />
		<tag k="ssr:stedsnr" v="320439" />
	</node>
	<node id="-208946" lat="67.9950083334" lon="13.0485777886">
		<tag k="fixme" v="multiple name tags, choose one and add the other to alt_name; consider natural=peak for the most distinct mountains in the district" />
		<tag k="name" v="Målheia;Segeltinden" />
		<tag k="natural" v="hill" />
		<tag k="place" v="locality" />
		<tag k="ssr:stedsnr" v="320435" />
	</node>
	<node id="-209121" lat="67.9733888843" lon="13.0046555607">
		<tag k="fixme" v="consider natural=peak for the most distinct mountains in the district" />
		<tag k="name" v="Kammen" />
		<tag k="natural" v="hill" />
		<tag k="place" v="locality" />
		<tag k="ssr:stedsnr" v="806435" />
	</node>
	<node id="-208938" lat="68.0170555549" lon="12.9769194534">
		<tag k="fixme" v="consider natural=peak for the most distinct mountains in the district" />
		<tag k="name" v="Kamman" />
		<tag k="natural" v="hill" />
		<tag k="place" v="locality" />
		<tag k="ssr:stedsnr" v="320041" />
	</node>
	<node id="-208936" lat="67.8747277814" lon="12.8865305577">
		<tag k="fixme" v="consider natural=peak for the most distinct mountains in the district" />
		<tag k="name" v="Mannen" />
		<tag k="natural" v="hill" />
		<tag k="place" v="locality" />
		<tag k="ssr:stedsnr" v="319402" />
	</node>
	<node id="-208928" lat="67.9602472197" lon="12.9848749881">
		<tag k="fixme" v="consider natural=peak for the most distinct mountains in the district" />
		<tag k="name" v="Pøylhammaren" />
		<tag k="natural" v="hill" />
		<tag k="place" v="locality" />
		<tag k="ssr:stedsnr" v="199445" />
	</node>
	<node id="-208927" lat="67.9645638883" lon="12.9291277892">
		<tag k="name" v="Stuvdalen" />
		<tag k="natural" v="valley" />
		<tag k="place" v="locality" />
		<tag k="ssr:stedsnr" v="199443" />
	</node>
	<node id="-208924" lat="67.8303916647" lon="12.8285527779">
		<tag k="fixme" v="consider natural=peak for the most distinct mountains in the district" />
		<tag k="name" v="Geittinden" />
		<tag k="natural" v="hill" />
		<tag k="place" v="locality" />
		<tag k="ssr:stedsnr" v="199099" />
	</node>
	<node id="-209140" lat="67.9180055577" lon="13.0805916614">
		<tag k="name" v="Litlkåken" />
		<tag k="natural" v="ridge" />
		<tag k="place" v="locality" />
		<tag k="ssr:stedsnr" v="839397" />
	</node>
	<node id="-209156" lat="67.9647888928" lon="12.9761805603">
		<tag k="name" v="Reklidalshåa" />
		<tag k="natural" v="valley" />
		<tag k="place" v="locality" />
		<tag k="ssr:stedsnr" v="867474" />
	</node>
	<node id="-208918" lat="67.9564277764" lon="12.9088749961">
		<tag k="name" v="Sandhågen" />
		<tag k="natural" v="hill" />
		<tag k="place" v="locality" />
		<tag k="ssr:stedsnr" v="171417" />
	</node>
	<node id="-208917" lat="67.927347219" lon="13.0917388911">
		<tag k="name" v="Jakobhola" />
		<tag k="natural" v="valley" />
		<tag k="place" v="locality" />
		<tag k="ssr:stedsnr" v="171387" />
	</node>
	<node id="-208916" lat="67.9182250001" lon="13.0765416666">
		<tag k="fixme" v="consider natural=peak for the most distinct mountains in the district" />
		<tag k="name" v="Storkåken" />
		<tag k="natural" v="hill" />
		<tag k="place" v="locality" />
		<tag k="ssr:stedsnr" v="171385" />
	</node>
	<node id="-208915" lat="67.8875694471" lon="13.0029638842">
		<tag k="name" v="Nordbergan" />
		<tag k="natural" v="cliff" />
		<tag k="ssr:stedsnr" v="171358" />
	</node>
	<node id="-209155" lat="67.8678055544" lon="12.8788249924">
		<tag k="name" v="Gjerdskardet" />
		<tag k="natural" v="valley" />
		<tag k="place" v="locality" />
		<tag k="ssr:stedsnr" v="866405" />
	</node>
	<node id="-208912" lat="67.8883694481" lon="12.9152166656">
		<tag k="name" v="Morsjedalen" />
		<tag k="natural" v="valley" />
		<tag k="place" v="locality" />
		<tag k="ssr:stedsnr" v="171329" />
	</node>
	<node id="-208909" lat="67.9816444423" lon="12.9740972138">
		<tag k="name" v="Oterlia" />
		<tag k="natural" v="slope" />
		<tag k="place" v="locality" />
		<tag k="ssr:stedsnr" v="171080" />
	</node>
	<node id="-208611" lat="67.8830500003" lon="12.9779777677">
		<tag k="name" v="Høgnakken" />
		<tag k="natural" v="ridge" />
		<tag k="place" v="locality" />
		<tag k="ssr:stedsnr" v="111629" />
	</node>
	<node id="-208907" lat="67.9527416664" lon="12.9765999988">
		<tag k="name" v="Rognlihammaren" />
		<tag k="natural" v="cliff" />
		<tag k="ssr:stedsnr" v="171072" />
	</node>
	<node id="-208906" lat="67.9554305586" lon="12.9482666572">
		<tag k="name" v="Stæpet" />
		<tag k="natural" v="valley" />
		<tag k="place" v="locality" />
		<tag k="ssr:stedsnr" v="171071" />
	</node>
	<node id="-208905" lat="67.8642194453" lon="12.8528694425">
		<tag k="name" v="Vedersteinsberget" />
		<tag k="natural" v="hill" />
		<tag k="place" v="locality" />
		<tag k="ssr:stedsnr" v="168693" />
	</node>
	<node id="-208903" lat="67.9257611111" lon="13.0022555651">
		<tag k="name" v="Lamheia" />
		<tag k="natural" v="hill" />
		<tag k="place" v="locality" />
		<tag k="ssr:stedsnr" v="138493" />
	</node>
	<node id="-208899" lat="67.9647472252" lon="13.0167027775">
		<tag k="fixme" v="consider natural=peak for the most distinct mountains in the district" />
		<tag k="name" v="Floan" />
		<tag k="natural" v="hill" />
		<tag k="place" v="locality" />
		<tag k="ssr:stedsnr" v="138464" />
	</node>
</osm>
