<?xml version="1.0" encoding="UTF-8"?>
<osm generator="osmapis" version="0.6">
	<node id="-721408" lat="67.8406861109" lon="12.8812861058">
		<tag k="name" v="Indretuven" />
		<tag k="place" v="farm" />
		<tag k="ssr:stedsnr" v="623099" />
	</node>
	<node id="-721395" lat="67.952669447" lon="13.1194194465">
		<tag k="alt_name" v="Festhelen" />
		<tag k="name" v="Festhælen" />
		<tag k="place" v="farm" />
		<tag k="ssr:stedsnr" v="563467" />
	</node>
	<node id="-721390" lat="67.9699555558" lon="12.9821499956">
		<tag k="name" v="Bunesfjorden" />
		<tag k="place" v="isolated_dwelling" />
		<tag k="ssr:stedsnr" v="563438" />
	</node>
	<node id="-721517" lat="67.942411113" lon="13.0952305512">
		<tag k="name" v="Myran" />
		<tag k="place" v="quarter" />
		<tag k="ssr:stedsnr" v="777385" />
	</node>
	<node id="-721513" lat="67.9357055559" lon="13.0738694537">
		<tag k="name" v="Solbakken" />
		<tag k="place" v="farm" />
		<tag k="ssr:stedsnr" v="768356" />
	</node>
	<node id="-721510" lat="67.8795944448" lon="12.983958341">
		<tag k="alt_name" v="Å i Lofoten" />
		<tag k="name" v="Å" />
		<tag k="place" v="village" />
		<tag k="ssr:stedsnr" v="744377" />
	</node>
	<node id="-721249" lat="67.8811361134" lon="12.9805194386">
		<tag k="name" v="Å-gården" />
		<tag k="place" v="farm" />
		<tag k="ssr:stedsnr" v="171677" />
	</node>
	<node id="-721240" lat="67.9204638883" lon="13.0464527821">
		<tag k="name" v="Neset" />
		<tag k="place" v="locality" />
		<tag k="ssr:stedsnr" v="171263" />
	</node>
	<node id="-721362" lat="67.9333611136" lon="13.0736583264">
		<tag k="loc_name" v="Marka" />
		<tag k="name" v="Marken V" />
		<tag k="place" v="hamlet" />
		<tag k="ssr:stedsnr" v="534401" />
	</node>
	<node id="-721487" lat="67.885041665" lon="12.9961583424">
		<tag k="name" v="Tindsgården" />
		<tag k="place" v="farm" />
		<tag k="ssr:stedsnr" v="717352" />
	</node>
	<node id="-721479" lat="67.9324111143" lon="13.0887416736">
		<tag k="name" v="Reine" />
		<tag k="place" v="village" />
		<tag k="ssr:stedsnr" v="684485" />
	</node>
	<node id="-721478" lat="67.9458416678" lon="13.1330444418">
		<tag k="fixme" v="consider place=suburb, village or hamlet" />
		<tag k="name" v="Hamnøya" />
		<tag k="place" v="quarter" />
		<tag k="ssr:stedsnr" v="684478" />
	</node>
	<node id="-721475" lat="67.9587305565" lon="13.0037749921">
		<tag k="name" v="Vindstad" />
		<tag k="place" v="hamlet" />
		<tag k="ssr:stedsnr" v="684466" />
	</node>
	<node id="-721465" lat="67.8445333327" lon="12.8857333245">
		<tag k="name" v="Tuv" />
		<tag k="place" v="locality" />
		<tag k="ssr:stedsnr" v="684086" />
	</node>
	<node id="-721336" lat="67.884125003" lon="12.9967750087">
		<tag k="fixme" v="consider place=suburb, village or hamlet" />
		<tag k="name" v="Tind" />
		<tag k="place" v="quarter" />
		<tag k="ssr:stedsnr" v="501380" />
	</node>
	<node id="-721585" lat="67.9621972249" lon="13.0463361159">
		<tag k="name" v="Rostad" />
		<tag k="place" v="hamlet" />
		<tag k="ssr:stedsnr" v="867481" />
	</node>
	<node id="-721453" lat="67.944658332" lon="12.991141672">
		<tag k="name" v="Hoffstad" />
		<tag k="place" v="locality" />
		<tag k="ssr:stedsnr" v="657474" />
	</node>
	<node id="-721063" lat="67.8533527743" lon="12.8988999973">
		<tag k="name" v="Ånstad" />
		<tag k="place" v="locality" />
		<tag k="ssr:stedsnr" v="320429" />
	</node>
	<node id="-721061" lat="67.9192027807" lon="13.0403638982">
		<tag k="name" v="Djupfjorden" />
		<tag k="place" v="isolated_dwelling" />
		<tag k="ssr:stedsnr" v="320389" />
	</node>
	<node id="-721054" lat="67.8303972222" lon="12.8218944366">
		<tag k="name" v="Helle" />
		<tag k="place" v="locality" />
		<tag k="ssr:stedsnr" v="320085" />
	</node>
	<node id="-721437" lat="67.9512694401" lon="13.1321444536">
		<tag k="name" v="Hella" />
		<tag k="place" v="farm" />
		<tag k="ssr:stedsnr" v="655403" />
	</node>
	<node id="-721563" lat="67.9597138861" lon="12.915299999">
		<tag k="name" v="Hermannsdal" />
		<tag k="place" v="locality" />
		<tag k="ssr:stedsnr" v="839063" />
	</node>
	<node id="-721303" lat="68.0279833369" lon="12.9957194456">
		<tag k="name" v="Horseid" />
		<tag k="place" v="locality" />
		<tag k="ssr:stedsnr" v="260031" />
	</node>
	<node id="-721039" lat="67.9164555576" lon="13.0388833378">
		<tag k="name" v="Oliannaplassen" />
		<tag k="place" v="locality" />
		<tag k="ssr:stedsnr" v="293339" />
	</node>
	<node id="-721197" lat="67.9274944484" lon="13.0026444373">
		<tag k="fixme" v="consider tourism=alpine_hut or tourism=chalet" />
		<tag k="name" v="Munkebu" />
		<tag k="ssr:stedsnr" v="85467" />
		<tag k="tourism" v="wilderness_hut" />
	</node>
	<node id="-721036" lat="67.9370388911" lon="13.0712055556">
		<tag k="loc_name" v="Marka" />
		<tag k="name" v="Marken Ø" />
		<tag k="place" v="hamlet" />
		<tag k="ssr:stedsnr" v="292379" />
	</node>
	<node id="-721545" lat="67.889680556" lon="13.0164027724">
		<tag k="name" v="Sørvågen" />
		<tag k="place" v="village" />
		<tag k="ssr:stedsnr" v="806389" />
	</node>
	<node id="-721156" lat="67.9925055574" lon="13.0130166728">
		<tag k="alt_name" v="Kirkefjord" />
		<tag k="name" v="Kjerkfjorden" />
		<tag k="place" v="hamlet" />
		<tag k="ssr:stedsnr" v="17335" />
	</node>
	<node id="-721411" lat="67.9023194435" lon="13.0415916573">
		<tag k="name" v="Moskenes" />
		<tag k="place" v="village" />
		<tag k="ssr:stedsnr" v="623395" />
	</node>
	<node id="-721281" lat="67.8868861066" lon="13.0370944464">
		<tag k="barrier" v="fence" />
		<tag k="name" v="Svingjerdet" />
		<tag k="ssr:stedsnr" v="232339" />
	</node>
</osm>
