<?xml version="1.0" encoding="UTF-8"?>
<<<<<<< HEAD
<osm version="0.6" generator="osmapis">
	<node lat="67.82468055560726" lon="12.828497230307633" id="-10650">
		<tag k="name" v="Seiflua" />
		<tag k="natural" v="shoal" />
		<tag k="place" v="locality" />
		<tag k="ssr:stedsnr" v="229748" />
	</node>
	<node lat="67.93005555824921" lon="13.081972213807209" id="-10651">
		<tag k="name" v="Hesthaugen" />
		<tag k="natural" v="cape" />
		<tag k="ssr:stedsnr" v="231448" />
	</node>
	<node lat="67.96302778016432" lon="13.166163897400239" id="-10654">
		<tag k="name" v="Akkarvikodden" />
		<tag k="natural" v="cape" />
		<tag k="ssr:stedsnr" v="231420" />
	</node>
	<node lat="67.91546388914759" lon="13.050302784371349" id="-10659">
		<tag k="name" v="Vedvika" />
		<tag k="natural" v="bay" />
		<tag k="ssr:stedsnr" v="232277" />
	</node>
	<node lat="67.94481666911837" lon="13.124963897310021" id="-10666">
		<tag k="name" v="Toppøya" />
		<tag k="place" v="islet" />
		<tag k="ssr:stedsnr" v="17499" />
	</node>
	<node lat="67.88640278133813" lon="13.015491664186404" id="-10668">
		<tag k="name" v="Stoltenbergodden" />
		<tag k="natural" v="cape" />
		<tag k="ssr:stedsnr" v="50319" />
	</node>
	<node lat="67.88460555232525" lon="13.013413880316405" id="-10669">
		<tag k="name" v="Ytterbogen" />
		<tag k="natural" v="cape" />
		<tag k="ssr:stedsnr" v="50322" />
	</node>
	<node lat="67.96213610745231" lon="13.007391662960325" id="-10670">
		<tag k="name" v="Hansneset" />
		<tag k="natural" v="cape" />
		<tag k="ssr:stedsnr" v="50408" />
	</node>
	<node lat="67.92523333243054" lon="12.720455557529109" id="-10673">
		<tag k="name" v="Nyklakken" />
		<tag k="natural" v="shoal" />
		<tag k="place" v="locality" />
		<tag k="ssr:stedsnr" v="77507" />
	</node>
	<node lat="67.93441666705516" lon="12.887827771979042" id="-10674">
		<tag k="alt_name" v="Ertnhella" />
		<tag k="name" v="Ertenhella" />
		<tag k="natural" v="cape" />
		<tag k="ssr:stedsnr" v="77500" />
	</node>
	<node lat="67.85900000272409" lon="12.967311108792465" id="-10675">
		<tag k="name" v="Ågskallan" />
		<tag k="natural" v="shoal" />
		<tag k="place" v="locality" />
		<tag k="ssr:stedsnr" v="78426" />
	</node>
	<node lat="67.94621666687455" lon="13.13328054941571" id="-10677">
		<tag k="name" v="Hamnøya" />
		<tag k="natural" v="cape" />
		<tag k="ssr:stedsnr" v="120916" />
	</node>
	<node lat="67.82657777524945" lon="12.785600001392403" id="-10678">
		<tag k="name" v="Skallen" />
		<tag k="natural" v="shoal" />
		<tag k="place" v="locality" />
		<tag k="ssr:stedsnr" v="138092" />
	</node>
	<node lat="67.84158055939689" lon="12.825561103556064" id="-10679">
		<tag k="alt_name" v="Kolhellarsanden" />
		<tag k="name" v="Kollhellarsanden" />
		<tag k="natural" v="beach" />
		<tag k="ssr:stedsnr" v="138097" />
	</node>
	<node lat="67.91128055327391" lon="12.866988889170962" id="-10681">
		<tag k="name" v="Oterneset" />
		<tag k="natural" v="cape" />
		<tag k="ssr:stedsnr" v="138402" />
	</node>
	<node lat="67.90601666428117" lon="12.736302771166402" id="-10682">
		<tag k="name" v="Finningen" />
		<tag k="natural" v="shoal" />
		<tag k="place" v="locality" />
		<tag k="ssr:stedsnr" v="138403" />
	</node>
	<node lat="67.94365278192538" lon="13.137483344311725" id="-10683">
		<tag k="fixme" v="consider seamark:type=rock or natural=shoal" />
		<tag k="name" v="Skarven" />
		<tag k="place" v="islet" />
		<tag k="ssr:stedsnr" v="138490" />
	</node>
	<node lat="67.92633889044662" lon="13.086308323601274" id="-10685">
		<tag k="name" v="Ramsvika" />
		<tag k="natural" v="bay" />
		<tag k="ssr:stedsnr" v="138396" />
	</node>
	<node lat="68.0114027749027" lon="12.856108328314054" id="-10686">
		<tag k="name" v="Småskallan" />
		<tag k="natural" v="shoal" />
		<tag k="place" v="locality" />
		<tag k="ssr:stedsnr" v="259031" />
	</node>
	<node lat="67.92760277618112" lon="13.107386115735483" id="-10687">
		<tag k="fixme" v="multiple name tags, choose one and add the other to alt_name" />
		<tag k="name" v="Lamholmen;Kuforet" />
		<tag k="place" v="islet" />
		<tag k="ssr:stedsnr" v="259370" />
	</node>
	<node lat="67.90252222037887" lon="12.800822214196144" id="-10689">
		<tag k="fixme" v="consider seamark:type=rock or natural=shoal" />
		<tag k="name" v="Stokkvikflesa" />
		<tag k="place" v="islet" />
		<tag k="ssr:stedsnr" v="259391" />
	</node>
	<node lat="67.89345555261399" lon="12.820997212755069" id="-10691">
		<tag k="name" v="Grasholmflua" />
		<tag k="natural" v="shoal" />
		<tag k="place" v="locality" />
		<tag k="ssr:stedsnr" v="259398" />
	</node>
	<node lat="67.97735277672265" lon="13.015063886826583" id="-10696">
		<tag k="fixme" v="multiple name tags, choose one and add the other to alt_name" />
		<tag k="name" v="Nabblisvadet;Finnhamnneset" />
		<tag k="natural" v="cape" />
		<tag k="ssr:stedsnr" v="260474" />
	</node>
	<node lat="67.88181110657395" lon="12.9886250048603" id="-10704">
		<tag k="fixme" v="consider seamark:type=rock or natural=shoal" />
		<tag k="name" v="Skarvskjeret" />
		<tag k="place" v="islet" />
		<tag k="ssr:stedsnr" v="171671" />
	</node>
	<node lat="67.8655500032172" lon="12.85019721688873" id="-10707">
		<tag k="name" v="Turtnbakkmulen" />
		<tag k="natural" v="cape" />
		<tag k="ssr:stedsnr" v="198405" />
	</node>
	<node lat="68.02432499757067" lon="12.98390556640817" id="-10708">
		<tag k="name" v="Horseidvika" />
		<tag k="natural" v="bay" />
		<tag k="ssr:stedsnr" v="199024" />
	</node>
	<node lat="67.88572778166609" lon="13.00017500815022" id="-10710">
		<tag k="name" v="Tindshamna" />
		<tag k="natural" v="bay" />
		<tag k="ssr:stedsnr" v="232336" />
	</node>
	<node lat="68.0074805528279" lon="12.95418056414897" id="-10713">
		<tag k="name" v="Skjelvodden" />
		<tag k="natural" v="cape" />
		<tag k="ssr:stedsnr" v="232081" />
	</node>
	<node lat="68.03098610829622" lon="12.987572215386859" id="-10714">
		<tag k="name" v="Skarverodden" />
		<tag k="natural" v="cape" />
		<tag k="ssr:stedsnr" v="232084" />
	</node>
	<node lat="67.83021944004643" lon="12.785855561501885" id="-10715">
		<tag k="name" v="Djupbåen" />
		<tag k="natural" v="shoal" />
		<tag k="place" v="locality" />
		<tag k="ssr:stedsnr" v="259064" />
	</node>
	<node lat="67.82758888719304" lon="12.807022230028606" id="-10716">
		<tag k="name" v="Hella" />
		<tag k="place" v="islet" />
		<tag k="ssr:stedsnr" v="259065" />
	</node>
	<node lat="67.83071110791197" lon="12.810044450403009" id="-10717">
		<tag k="alt_name" v="Kjiholmen" />
		<tag k="name" v="Kjeholmen" />
		<tag k="place" v="islet" />
		<tag k="ssr:stedsnr" v="259066" />
	</node>
	<node lat="67.84914166960526" lon="12.899738894059462" id="-10718">
		<tag k="name" v="Svadodden" />
		<tag k="natural" v="cape" />
		<tag k="ssr:stedsnr" v="259073" />
	</node>
	<node lat="67.9960777809593" lon="12.786025009569684" id="-10719">
		<tag k="name" v="Dyrbåen" />
		<tag k="natural" v="shoal" />
		<tag k="place" v="locality" />
		<tag k="ssr:stedsnr" v="259280" />
	</node>
	<node lat="67.86995277372037" lon="12.939641674535736" id="-10720">
		<tag k="name" v="Tindsvika" />
		<tag k="natural" v="bay" />
		<tag k="ssr:stedsnr" v="259412" />
	</node>
	<node lat="67.86838333429284" lon="12.996763885977394" id="-10721">
		<tag k="name" v="Gjerdtindsskallen" />
		<tag k="natural" v="shoal" />
		<tag k="place" v="locality" />
		<tag k="ssr:stedsnr" v="259415" />
	</node>
	<node lat="67.95389166720113" lon="13.141988889132191" id="-10724">
		<tag k="name" v="Lilandsholmen" />
		<tag k="place" v="islet" />
		<tag k="ssr:stedsnr" v="260507" />
	</node>
	<node lat="67.9399027787488" lon="13.073302780820265" id="-10725">
		<tag k="name" v="Vestervalen" />
		<tag k="natural" v="cape" />
		<tag k="ssr:stedsnr" v="292376" />
	</node>
	<node lat="67.86076110924141" lon="12.81463334250172" id="-10731">
		<tag k="name" v="Steinen" />
=======
<osm generator="osmapis" version="0.6">
	<node id="-208896" lat="67.9112805533" lon="12.8669888892">
		<tag k="name" v="Oterneset" />
		<tag k="natural" v="cape" />
		<tag k="ssr:stedsnr" v="138402" />
	</node>
	<node id="-208895" lat="67.9263388904" lon="13.0863083236">
		<tag k="name" v="Ramsvika" />
		<tag k="natural" v="bay" />
		<tag k="ssr:stedsnr" v="138396" />
	</node>
	<node id="-208894" lat="67.9993027783" lon="12.8999249893">
		<tag k="name" v="Beiteskiskallen" />
>>>>>>> e1d4bc35ff8a6074a6f2e91616a996b547c36f15
		<tag k="natural" v="shoal" />
		<tag k="place" v="locality" />
		<tag k="ssr:stedsnr" v="319408" />
	</node>
<<<<<<< HEAD
	<node lat="67.83503055435807" lon="12.844541656672124" id="-10732">
		<tag k="name" v="Lofotodden" />
		<tag k="natural" v="cape" />
		<tag k="ssr:stedsnr" v="320068" />
	</node>
	<node lat="67.9896861099491" lon="12.90680832426134" id="-10737">
		<tag k="name" v="Bergskallen" />
=======
	<node id="-208981" lat="67.8685638896" lon="12.7619527684">
		<tag k="name" v="Stampen" />
		<tag k="natural" v="shoal" />
		<tag k="place" v="locality" />
		<tag k="ssr:stedsnr" v="380436" />
	</node>
	<node id="-208891" lat="67.8415805594" lon="12.8255611036">
		<tag k="alt_name" v="Kolhellarsanden" />
		<tag k="name" v="Kollhellarsanden" />
		<tag k="natural" v="beach" />
		<tag k="place" v="locality" />
		<tag k="ssr:stedsnr" v="138097" />
	</node>
	<node id="-208890" lat="67.8265777752" lon="12.7856000014">
		<tag k="name" v="Skallen" />
>>>>>>> e1d4bc35ff8a6074a6f2e91616a996b547c36f15
		<tag k="natural" v="shoal" />
		<tag k="place" v="locality" />
		<tag k="ssr:stedsnr" v="320295" />
	</node>
<<<<<<< HEAD
	<node lat="67.99412499585969" lon="12.931319433045754" id="-10738">
		<tag k="name" v="Kariskallen" />
=======
	<node id="-208889" lat="67.8311777806" lon="12.8761361027">
		<tag k="name" v="Kvalbakken" />
>>>>>>> e1d4bc35ff8a6074a6f2e91616a996b547c36f15
		<tag k="natural" v="shoal" />
		<tag k="place" v="locality" />
		<tag k="ssr:stedsnr" v="320296" />
	</node>
<<<<<<< HEAD
	<node lat="67.93519166615661" lon="13.092100007534043" id="-10749">
		<tag k="name" v="Storstubergan" />
		<tag k="natural" v="cape" />
		<tag k="ssr:stedsnr" v="473407" />
	</node>
	<node lat="67.93512500259467" lon="13.09744166108304" id="-10751">
		<tag k="name" v="Steinleia" />
=======
	<node id="-208888" lat="67.8327777752" lon="12.8783527869">
		<tag k="name" v="Skata" />
>>>>>>> e1d4bc35ff8a6074a6f2e91616a996b547c36f15
		<tag k="natural" v="shoal" />
		<tag k="place" v="locality" />
		<tag k="ssr:stedsnr" v="352369" />
	</node>
<<<<<<< HEAD
	<node lat="67.9361027763165" lon="13.111266665360276" id="-10752">
		<tag k="name" v="Fyrodden" />
		<tag k="natural" v="cape" />
		<tag k="ssr:stedsnr" v="352371" />
	</node>
	<node lat="67.95550555876748" lon="12.996786111918475" id="-10762">
		<tag k="name" v="Hamnen" />
		<tag k="natural" v="cape" />
		<tag k="ssr:stedsnr" v="475423" />
	</node>
	<node lat="67.95907499911588" lon="13.113638885014115" id="-10765">
		<tag k="name" v="Duken" />
		<tag k="natural" v="cape" />
		<tag k="ssr:stedsnr" v="475443" />
	</node>
	<node lat="67.88308888760666" lon="12.828283340245198" id="-10768">
		<tag k="name" v="Krykkjeholmflua" />
=======
	<node id="-208887" lat="67.8282083357" lon="12.8231527718">
		<tag k="alt_name" v="Reivika" />
		<tag k="name" v="Reidvika" />
		<tag k="natural" v="bay" />
		<tag k="ssr:stedsnr" v="138086" />
	</node>
	<node id="-208886" lat="68.0025555526" lon="12.8949638939">
		<tag k="name" v="Beitskjelskallen" />
		<tag k="natural" v="shoal" />
		<tag k="place" v="locality" />
		<tag k="ssr:stedsnr" v="138066" />
	</node>
	<node id="-208885" lat="68.0358944451" lon="12.8471666581">
		<tag k="name" v="Hammarskaftskallen" />
>>>>>>> e1d4bc35ff8a6074a6f2e91616a996b547c36f15
		<tag k="natural" v="shoal" />
		<tag k="place" v="locality" />
		<tag k="ssr:stedsnr" v="380428" />
	</node>
<<<<<<< HEAD
	<node lat="67.94109166608249" lon="13.110636119519182" id="-10769">
		<tag k="name" v="Sakrisøya" />
		<tag k="place" v="islet" />
		<tag k="ssr:stedsnr" v="380511" />
	</node>
	<node lat="68.09318889316594" lon="13.100097218799524" id="-10770">
		<tag k="alt_name" v="Moskenesøy" />
		<tag k="name" v="Moskenesøya" />
		<tag k="place" v="island" />
		<tag k="ssr:stedsnr" v="380514" />
	</node>
	<node lat="67.99631389098096" lon="12.956897224258915" id="-10773">
		<tag k="loc_name" v="Karisteinen" />
		<tag k="name" v="Skjelvsteinen" />
=======
	<node id="-208884" lat="68.0273611138" lon="12.9635749947">
		<tag k="name" v="Horseidmulen" />
>>>>>>> e1d4bc35ff8a6074a6f2e91616a996b547c36f15
		<tag k="natural" v="cape" />
		<tag k="ssr:stedsnr" v="381312" />
	</node>
<<<<<<< HEAD
	<node lat="67.95904999938708" lon="13.146841666963613" id="-10776">
		<tag k="name" v="Lilandsvika" />
=======
	<node id="-208883" lat="67.8607638899" lon="12.848597224">
		<tag k="name" v="Turtnbakkvika" />
>>>>>>> e1d4bc35ff8a6074a6f2e91616a996b547c36f15
		<tag k="natural" v="bay" />
		<tag k="ssr:stedsnr" v="413405" />
	</node>
<<<<<<< HEAD
	<node lat="67.8743333377718" lon="13.003313892135107" id="-10781">
		<tag k="name" v="Nipingen" />
		<tag k="place" v="islet" />
		<tag k="ssr:stedsnr" v="441415" />
	</node>
	<node lat="67.83717499828116" lon="12.782111105807672" id="-10785">
		<tag k="name" v="Sørholmen" />
		<tag k="place" v="island" />
		<tag k="ssr:stedsnr" v="442111" />
	</node>
	<node lat="67.89911388892388" lon="13.03742499548893" id="-10786">
		<tag k="name" v="Moskenesvågen" />
		<tag k="natural" v="bay" />
		<tag k="ssr:stedsnr" v="442394" />
	</node>
	<node lat="67.89081111299178" lon="12.846555547495527" id="-10787">
		<tag k="name" v="Måsnakken" />
=======
	<node id="-208882" lat="67.9462166669" lon="13.1332805494">
		<tag k="name" v="Hamnøya" />
>>>>>>> e1d4bc35ff8a6074a6f2e91616a996b547c36f15
		<tag k="natural" v="cape" />
		<tag k="ssr:stedsnr" v="442408" />
	</node>
	<node lat="67.8587583302306" lon="12.8245361118573" id="-10791">
		<tag k="fixme" v="multiple name tags, choose one and add the other to alt_name" />
		<tag k="name" v="Avløysa;Ytter-Avløysa" />
		<tag k="place" v="islet" />
		<tag k="ssr:stedsnr" v="673448" />
	</node>
<<<<<<< HEAD
	<node lat="67.90717500060391" lon="12.863977778332771" id="-10792">
=======
	<node id="-208879" lat="67.899925001" lon="13.0332750036">
>>>>>>> e1d4bc35ff8a6074a6f2e91616a996b547c36f15
		<tag k="fixme" v="consider seamark:type=rock or natural=shoal" />
		<tag k="name" v="Bukkhammarskjeran" />
		<tag k="place" v="islet" />
		<tag k="ssr:stedsnr" v="475312" />
	</node>
<<<<<<< HEAD
	<node lat="67.86600278153696" lon="12.80203332552703" id="-10797">
		<tag k="alt_name" v="Smellbåen, øvre" />
		<tag k="name" v="Øvre Smellbåen" />
=======
	<node id="-208875" lat="67.9387000039" lon="13.1262944417">
		<tag k="name" v="Einsteinflua" />
>>>>>>> e1d4bc35ff8a6074a6f2e91616a996b547c36f15
		<tag k="natural" v="shoal" />
		<tag k="place" v="locality" />
		<tag k="ssr:stedsnr" v="501402" />
	</node>
<<<<<<< HEAD
	<node lat="67.8877138908104" lon="13.041247212842205" id="-10798">
		<tag k="name" v="Tarnesodden" />
		<tag k="place" v="islet" />
		<tag k="ssr:stedsnr" v="501392" />
	</node>
	<node lat="67.87083889326328" lon="12.781380555497622" id="-10799">
		<tag k="alt_name" v="Smellbåan, yt" />
		<tag k="name" v="Ytre Smellbåan" />
=======
	<node id="-208874" lat="67.8289888901" lon="12.8707333435">
		<tag k="name" v="Yttertuven" />
		<tag k="natural" v="cape" />
		<tag k="ssr:stedsnr" v="108744" />
	</node>
	<node id="-208871" lat="67.9473333379" lon="12.803838879">
		<tag k="name" v="Lønnfallet" />
>>>>>>> e1d4bc35ff8a6074a6f2e91616a996b547c36f15
		<tag k="natural" v="shoal" />
		<tag k="place" v="locality" />
		<tag k="ssr:stedsnr" v="501395" />
	</node>
<<<<<<< HEAD
	<node lat="67.8088249985406" lon="12.876466661288369" id="-10801">
		<tag k="name" v="Herjeskallen" />
=======
	<node id="-208870" lat="67.9586833329" lon="13.1720555581">
		<tag k="alt_name" v="Skaksåldan" />
		<tag k="name" v="Skaksåldene" />
>>>>>>> e1d4bc35ff8a6074a6f2e91616a996b547c36f15
		<tag k="natural" v="shoal" />
		<tag k="place" v="locality" />
		<tag k="ssr:stedsnr" v="502074" />
	</node>
<<<<<<< HEAD
	<node lat="67.82458888639736" lon="12.817805561546264" id="-10802">
		<tag k="name" v="Rødøya" />
		<tag k="place" v="islet" />
		<tag k="ssr:stedsnr" v="502080" />
	</node>
	<node lat="67.89307778047414" lon="12.854722221341502" id="-10804">
		<tag k="name" v="Stokkvika" />
		<tag k="natural" v="bay" />
		<tag k="ssr:stedsnr" v="502408" />
	</node>
	<node lat="67.92557777842286" lon="13.100686105778864" id="-10805">
		<tag k="name" v="Purka" />
		<tag k="place" v="islet" />
		<tag k="ssr:stedsnr" v="502374" />
	</node>
	<node lat="67.8989527811112" lon="13.056991665990234" id="-10808">
		<tag k="name" v="Grautdallen" />
=======
	<node id="-208867" lat="67.8590000027" lon="12.9673111088">
		<tag k="name" v="Ågskallan" />
>>>>>>> e1d4bc35ff8a6074a6f2e91616a996b547c36f15
		<tag k="natural" v="shoal" />
		<tag k="place" v="locality" />
		<tag k="ssr:stedsnr" v="502394" />
	</node>
<<<<<<< HEAD
	<node lat="67.82399166792615" lon="12.84421389703871" id="-10812">
		<tag k="name" v="Djupbåen" />
=======
	<node id="-208863" lat="67.8227638863" lon="12.7947055462">
		<tag k="name" v="Sørfallet" />
>>>>>>> e1d4bc35ff8a6074a6f2e91616a996b547c36f15
		<tag k="natural" v="shoal" />
		<tag k="place" v="locality" />
		<tag k="ssr:stedsnr" v="684065" />
	</node>
<<<<<<< HEAD
	<node lat="67.88054722135169" lon="12.843213899146466" id="-10813">
		<tag k="name" v="Draugvikskjeran" />
		<tag k="natural" v="shoal" />
		<tag k="place" v="locality" />
		<tag k="ssr:stedsnr" v="683380" />
	</node>
	<node lat="68.0074666660088" lon="12.947466676543357" id="-10814">
		<tag k="name" v="Skjelvsteinen" />
		<tag k="place" v="islet" />
		<tag k="ssr:stedsnr" v="684030" />
	</node>
	<node lat="67.96067499749377" lon="13.021847225584889" id="-10823">
		<tag k="name" v="Engelsneset" />
=======
	<node id="-208862" lat="67.9252333324" lon="12.7204555575">
		<tag k="name" v="Nyklakken" />
		<tag k="natural" v="shoal" />
		<tag k="place" v="locality" />
		<tag k="ssr:stedsnr" v="77507" />
	</node>
	<node id="-208861" lat="67.9344166671" lon="12.887827772">
		<tag k="alt_name" v="Ertnhella" />
		<tag k="name" v="Ertenhella" />
		<tag k="natural" v="cape" />
		<tag k="ssr:stedsnr" v="77500" />
	</node>
	<node id="-208857" lat="67.9135583374" lon="13.0707555639">
		<tag k="name" v="Båtvika" />
		<tag k="natural" v="bay" />
		<tag k="ssr:stedsnr" v="50393" />
	</node>
	<node id="-208856" lat="67.9702833324" lon="12.9913888867">
		<tag k="name" v="Båtvika" />
		<tag k="natural" v="bay" />
		<tag k="ssr:stedsnr" v="50053" />
	</node>
	<node id="-208855" lat="67.930952774" lon="13.0837805604">
		<tag k="name" v="Gravdalsbukta" />
		<tag k="natural" v="bay" />
		<tag k="ssr:stedsnr" v="49447" />
	</node>
	<node id="-208854" lat="67.9615388935" lon="13.1609416626">
		<tag k="name" v="Vest-Akkarvikodden" />
>>>>>>> e1d4bc35ff8a6074a6f2e91616a996b547c36f15
		<tag k="natural" v="cape" />
		<tag k="ssr:stedsnr" v="684467" />
	</node>
<<<<<<< HEAD
	<node lat="67.9408722258737" lon="12.780194441403548" id="-10824">
		<tag k="name" v="Nordbåen" />
		<tag k="natural" v="shoal" />
		<tag k="place" v="locality" />
		<tag k="ssr:stedsnr" v="684469" />
	</node>
	<node lat="67.94053055823879" lon="13.125116670403761" id="-10827">
		<tag k="fixme" v="consider seamark:type=rock or natural=shoal" />
		<tag k="name" v="Einsteinen" />
		<tag k="place" v="islet" />
		<tag k="ssr:stedsnr" v="684486" />
	</node>
	<node lat="67.94516944702175" lon="13.129852771872736" id="-10828">
		<tag k="name" v="Breisundet" />
		<tag k="natural" v="strait" />
		<tag k="ssr:stedsnr" v="534377" />
	</node>
	<node lat="67.94466110832018" lon="13.134411105038728" id="-10829">
		<tag k="name" v="Sørøya" />
=======
	<node id="-209145" lat="67.8529055562" lon="12.836274993">
		<tag k="name" v="Oterhaugneset" />
		<tag k="natural" v="cape" />
		<tag k="ssr:stedsnr" v="839676" />
	</node>
	<node id="-208848" lat="67.9448166691" lon="13.1249638973">
		<tag k="name" v="Toppøya" />
		<tag k="place" v="islet" />
		<tag k="ssr:stedsnr" v="17499" />
	</node>
	<node id="-209144" lat="67.967786107" lon="13.1087499928">
		<tag k="name" v="Bjørnvika" />
		<tag k="natural" v="bay" />
		<tag k="ssr:stedsnr" v="839446" />
	</node>
	<node id="-208843" lat="67.8473333305" lon="12.8043972157">
		<tag k="name" v="Kjerksteinen" />
		<tag k="place" v="locality" />
		<tag k="seamark:type" v="rock" />
		<tag k="ssr:stedsnr" v="17453" />
	</node>
	<node id="-208841" lat="67.8350472254" lon="12.8003888823">
		<tag k="fixme" v="multiple name tags, choose one and add the other to alt_name" />
		<tag k="name" v="Buvågnakken;Buvågvarden" />
>>>>>>> e1d4bc35ff8a6074a6f2e91616a996b547c36f15
		<tag k="natural" v="cape" />
		<tag k="ssr:stedsnr" v="534382" />
	</node>
<<<<<<< HEAD
	<node lat="67.88221060260904" lon="12.98660110742844" id="-10839">
		<tag k="fixme" v="consider seamark:type=rock or natural=shoal" />
		<tag k="name" v="Skarvskjeran" />
=======
	<node id="-208840" lat="67.8290388921" lon="12.8082416685">
		<tag k="alt_name" v="Løngholmen" />
		<tag k="name" v="Lyngholmen" />
>>>>>>> e1d4bc35ff8a6074a6f2e91616a996b547c36f15
		<tag k="place" v="islet" />
		<tag k="ssr:stedsnr" v="596615" />
	</node>
<<<<<<< HEAD
	<node lat="67.8351055551563" lon="12.821113885145648" id="-10840">
		<tag k="name" v="Hellsanden" />
		<tag k="natural" v="beach" />
		<tag k="ssr:stedsnr" v="596702" />
	</node>
	<node lat="67.83321944794116" lon="12.816411112574812" id="-10841">
		<tag k="name" v="Buvågen" />
		<tag k="natural" v="bay" />
		<tag k="ssr:stedsnr" v="623108" />
	</node>
	<node lat="67.8832305593998" lon="12.75504999261588" id="-10844">
		<tag k="name" v="Storskallen" />
		<tag k="natural" v="shoal" />
		<tag k="place" v="locality" />
		<tag k="ssr:stedsnr" v="623418" />
	</node>
	<node lat="67.96566666258461" lon="12.754813889773859" id="-10845">
		<tag k="name" v="Hjellbergskallan" />
=======
	<node id="-208838" lat="67.8610611101" lon="12.7506916635">
		<tag k="name" v="Hellarskallen" />
		<tag k="natural" v="shoal" />
		<tag k="place" v="locality" />
		<tag k="ssr:stedsnr" v="16393" />
	</node>
	<node id="-208837" lat="67.863144441" lon="12.9028777751">
		<tag k="alt_name" v="Ånnstadvika;Åndstadvika" />
		<tag k="name" v="Ånstadvika" />
		<tag k="natural" v="bay" />
		<tag k="ssr:stedsnr" v="16388" />
	</node>
	<node id="-208836" lat="67.8786361065" lon="13.0228166753">
		<tag k="name" v="Husmannsskallen" />
		<tag k="natural" v="shoal" />
		<tag k="place" v="locality" />
		<tag k="ssr:stedsnr" v="16381" />
	</node>
	<node id="-208835" lat="67.8801749984" lon="13.0153805664">
		<tag k="name" v="Guriskjeret" />
		<tag k="natural" v="shoal" />
		<tag k="place" v="locality" />
		<tag k="ssr:stedsnr" v="16380" />
	</node>
	<node id="-208832" lat="67.8544194474" lon="12.8396472301">
		<tag k="name" v="Bakfjæra" />
		<tag k="natural" v="beach" />
		<tag k="place" v="locality" />
		<tag k="ssr:stedsnr" v="960659" />
	</node>
	<node id="-208820" lat="67.8722249978" lon="12.9707083241">
		<tag k="name" v="Andstabbflua" />
		<tag k="natural" v="shoal" />
		<tag k="place" v="locality" />
		<tag k="ssr:stedsnr" v="805426" />
	</node>
	<node id="-208818" lat="67.9472999958" lon="13.0392833334">
		<tag k="alt_name" v="Veineset" />
		<tag k="name" v="Veines" />
		<tag k="natural" v="cape" />
		<tag k="ssr:stedsnr" v="927492" />
	</node>
	<node id="-208815" lat="67.9814999993" lon="12.9242916771">
		<tag k="alt_name" v="Kalkoneset;Kalkunneset" />
		<tag k="name" v="Kalkonneset" />
		<tag k="natural" v="cape" />
		<tag k="ssr:stedsnr" v="927448" />
	</node>
	<node id="-208814" lat="67.8478777787" lon="12.7630166567">
		<tag k="name" v="Seiskallen" />
>>>>>>> e1d4bc35ff8a6074a6f2e91616a996b547c36f15
		<tag k="natural" v="shoal" />
		<tag k="place" v="locality" />
		<tag k="ssr:stedsnr" v="623470" />
	</node>
<<<<<<< HEAD
	<node lat="67.94238888846927" lon="13.1269777694941" id="-10846">
		<tag k="fixme" v="consider seamark:type=rock or natural=shoal" />
		<tag k="name" v="Flatskjeret" />
		<tag k="place" v="islet" />
		<tag k="ssr:stedsnr" v="623509" />
	</node>
	<node lat="67.85305833669658" lon="12.918511112502012" id="-10849">
		<tag k="name" v="Båan" />
=======
	<node id="-208813" lat="67.8891166696" lon="13.0359111099">
		<tag k="alt_name" v="Besselvåg" />
		<tag k="name" v="Besselvågen" />
		<tag k="natural" v="bay" />
		<tag k="ssr:stedsnr" v="927423" />
	</node>
	<node id="-208812" lat="67.8910222264" lon="12.7482250005">
		<tag k="name" v="Elvskallan" />
		<tag k="natural" v="shoal" />
>>>>>>> e1d4bc35ff8a6074a6f2e91616a996b547c36f15
		<tag k="place" v="locality" />
		<tag k="seamark:type" v="rock" />
		<tag k="ssr:stedsnr" v="654695" />
	</node>
<<<<<<< HEAD
	<node lat="67.87834444196424" lon="12.966183330401392" id="-10859">
		<tag k="name" v="Andstabbvika" />
=======
	<node id="-208805" lat="67.8726472247" lon="12.8520722151">
		<tag k="name" v="Gjerdvika" />
>>>>>>> e1d4bc35ff8a6074a6f2e91616a996b547c36f15
		<tag k="natural" v="bay" />
		<tag k="ssr:stedsnr" v="684414" />
	</node>
<<<<<<< HEAD
	<node lat="67.85055000367912" lon="12.821722221165997" id="-10860">
		<tag k="name" v="Steinflesa" />
		<tag k="place" v="islet" />
		<tag k="ssr:stedsnr" v="684422" />
	</node>
	<node lat="67.84113889315934" lon="12.79688611840224" id="-10861">
		<tag k="name" v="Kjellsneset" />
		<tag k="natural" v="cape" />
		<tag k="ssr:stedsnr" v="684423" />
	</node>
	<node lat="67.85619722381335" lon="12.800338885544425" id="-10862">
		<tag k="name" v="Langflesa" />
=======
	<node id="-208804" lat="67.8851694453" lon="13.0088027789">
		<tag k="name" v="Bogen" />
		<tag k="natural" v="bay" />
		<tag k="ssr:stedsnr" v="926390" />
	</node>
	<node id="-208801" lat="67.6406666625" lon="12.9191972312">
		<tag k="name" v="Vestfjorden" />
		<tag k="place" v="sea" />
		<tag k="ssr:stedsnr" v="926139" />
	</node>
	<node id="-208800" lat="67.8828055536" lon="12.9932555511">
		<tag k="fixme" v="consider seamark:type=rock or natural=shoal" />
		<tag k="name" v="Olaskjeret" />
>>>>>>> e1d4bc35ff8a6074a6f2e91616a996b547c36f15
		<tag k="place" v="islet" />
		<tag k="ssr:stedsnr" v="684424" />
	</node>
<<<<<<< HEAD
	<node lat="67.98972222574487" lon="13.017688898189602" id="-10864">
		<tag k="name" v="Steinflua" />
=======
	<node id="-208798" lat="67.8612416659" lon="12.9749944556">
		<tag k="name" v="Øvre Grunnskallen" />
>>>>>>> e1d4bc35ff8a6074a6f2e91616a996b547c36f15
		<tag k="natural" v="shoal" />
		<tag k="place" v="locality" />
		<tag k="ssr:stedsnr" v="714504" />
	</node>
<<<<<<< HEAD
	<node lat="67.92445277915944" lon="13.092922228497205" id="-10868">
		<tag k="fixme" v="consider seamark:type=rock or natural=shoal" />
		<tag k="name" v="Munkskjeret" />
=======
	<node id="-208794" lat="67.8973222234" lon="12.8473694421">
		<tag k="name" v="Stokkvikholmen" />
>>>>>>> e1d4bc35ff8a6074a6f2e91616a996b547c36f15
		<tag k="place" v="islet" />
		<tag k="ssr:stedsnr" v="717406" />
	</node>
<<<<<<< HEAD
	<node lat="67.95923889002329" lon="13.152402768669964" id="-10870">
		<tag k="name" v="Vassdalsvika" />
		<tag k="natural" v="bay" />
		<tag k="ssr:stedsnr" v="899395" />
	</node>
	<node lat="67.95510277799474" lon="13.14358334076409" id="-10871">
		<tag k="name" v="Lilandsodden" />
=======
	<node id="-208789" lat="67.8324138901" lon="12.8023805663">
		<tag k="name" v="Løktnakken" />
>>>>>>> e1d4bc35ff8a6074a6f2e91616a996b547c36f15
		<tag k="natural" v="cape" />
		<tag k="ssr:stedsnr" v="899397" />
	</node>
<<<<<<< HEAD
	<node lat="67.88450000282019" lon="13.001113890116107" id="-10876">
=======
	<node id="-208785" lat="67.8845000028" lon="13.0011138901">
>>>>>>> e1d4bc35ff8a6074a6f2e91616a996b547c36f15
		<tag k="name" v="Roseberget" />
		<tag k="natural" v="cape" />
		<tag k="ssr:stedsnr" v="900379" />
	</node>
<<<<<<< HEAD
	<node lat="67.83241389012699" lon="12.80238056634274" id="-10877">
		<tag k="name" v="Løktnakken" />
=======
	<node id="-208782" lat="67.955102778" lon="13.1435833408">
		<tag k="name" v="Lilandsodden" />
>>>>>>> e1d4bc35ff8a6074a6f2e91616a996b547c36f15
		<tag k="natural" v="cape" />
		<tag k="ssr:stedsnr" v="900730" />
	</node>
<<<<<<< HEAD
	<node lat="67.89732222344878" lon="12.847369442129427" id="-10884">
		<tag k="name" v="Stokkvikholmen" />
		<tag k="place" v="islet" />
		<tag k="ssr:stedsnr" v="745419" />
	</node>
	<node lat="67.94111666771184" lon="13.090588897177675" id="-10885">
		<tag k="name" v="Andøya" />
		<tag k="place" v="island" />
		<tag k="ssr:stedsnr" v="745474" />
	</node>
	<node lat="67.94205833763898" lon="13.100647223009712" id="-10886">
		<tag k="name" v="Kvalvika" />
=======
	<node id="-208781" lat="67.95923889" lon="13.1524027687">
		<tag k="name" v="Vassdalsvika" />
>>>>>>> e1d4bc35ff8a6074a6f2e91616a996b547c36f15
		<tag k="natural" v="bay" />
		<tag k="ssr:stedsnr" v="745483" />
	</node>
<<<<<<< HEAD
	<node lat="67.86124166589876" lon="12.974994455638754" id="-10888">
		<tag k="name" v="Øvre Grunnskallen" />
		<tag k="natural" v="shoal" />
		<tag k="place" v="locality" />
		<tag k="ssr:stedsnr" v="775707" />
	</node>
	<node lat="67.88468332901427" lon="13.003586110376684" id="-10889">
		<tag k="fixme" v="consider seamark:type=rock or natural=shoal" />
		<tag k="name" v="Hjelleskjeret" />
		<tag k="place" v="islet" />
		<tag k="ssr:stedsnr" v="778329" />
	</node>
	<node lat="67.88321944092279" lon="13.023847215132527" id="-10892">
		<tag k="name" v="Storvika" />
		<tag k="natural" v="bay" />
		<tag k="ssr:stedsnr" v="778673" />
	</node>
	<node lat="67.88824722227763" lon="13.006399989994899" id="-10894">
		<tag k="name" v="Vedvika" />
=======
	<node id="-208780" lat="67.8424305536" lon="12.7955166774">
		<tag k="fixme" v="multiple name tags, choose one and add the other to alt_name" />
		<tag k="name" v="Kjellsnesskjeran;Nesskjeran" />
		<tag k="natural" v="cape" />
		<tag k="ssr:stedsnr" v="897706" />
	</node>
	<node id="-208776" lat="67.9244527792" lon="13.0929222285">
		<tag k="fixme" v="consider seamark:type=rock or natural=shoal" />
		<tag k="name" v="Munkskjeret" />
		<tag k="place" v="islet" />
		<tag k="ssr:stedsnr" v="717406" />
	</node>
	<node id="-209132" lat="67.9339444453" lon="13.0795638951">
		<tag k="fixme" v="consider seamark:type=rock or natural=shoal" />
		<tag k="name" v="Kobbskjeret" />
		<tag k="place" v="islet" />
		<tag k="ssr:stedsnr" v="838429" />
	</node>
	<node id="-208769" lat="67.8561972238" lon="12.8003388855">
		<tag k="name" v="Langflesa" />
		<tag k="place" v="islet" />
		<tag k="ssr:stedsnr" v="684424" />
	</node>
	<node id="-208768" lat="67.8411388932" lon="12.7968861184">
		<tag k="name" v="Kjellsneset" />
		<tag k="natural" v="cape" />
		<tag k="ssr:stedsnr" v="684423" />
	</node>
	<node id="-208767" lat="67.8505500037" lon="12.8217222212">
		<tag k="name" v="Steinflesa" />
		<tag k="place" v="islet" />
		<tag k="ssr:stedsnr" v="684422" />
	</node>
	<node id="-208766" lat="67.878344442" lon="12.9661833304">
		<tag k="name" v="Andstabbvika" />
>>>>>>> e1d4bc35ff8a6074a6f2e91616a996b547c36f15
		<tag k="natural" v="bay" />
		<tag k="ssr:stedsnr" v="836704" />
	</node>
<<<<<<< HEAD
	<node lat="67.87239166574017" lon="12.998777784829647" id="-10895">
		<tag k="name" v="Kobbskallen" />
=======
	<node id="-208765" lat="67.8805472214" lon="12.8432138991">
		<tag k="name" v="Draugvikskjeran" />
>>>>>>> e1d4bc35ff8a6074a6f2e91616a996b547c36f15
		<tag k="natural" v="shoal" />
		<tag k="place" v="locality" />
		<tag k="ssr:stedsnr" v="836678" />
	</node>
<<<<<<< HEAD
	<node lat="67.86155555554716" lon="12.978652785661497" id="-10896">
		<tag k="name" v="Dåvskallen" />
		<tag k="natural" v="shoal" />
		<tag k="place" v="locality" />
		<tag k="ssr:stedsnr" v="836679" />
	</node>
	<node lat="67.9352972199201" lon="13.076433334156864" id="-10898">
		<tag k="name" v="Skjeret" />
		<tag k="place" v="islet" />
		<tag k="ssr:stedsnr" v="838428" />
	</node>
	<node lat="67.93394444531543" lon="13.079563895090223" id="-10899">
=======
	<node id="-208764" lat="67.8830111119" lon="13.0007222168">
		<tag k="name" v="Tindsleia" />
		<tag k="natural" v="strait" />
		<tag k="ssr:stedsnr" v="657662" />
	</node>
	<node id="-208763" lat="67.8818000029" lon="13.0274749933">
>>>>>>> e1d4bc35ff8a6074a6f2e91616a996b547c36f15
		<tag k="fixme" v="consider seamark:type=rock or natural=shoal" />
		<tag k="name" v="Kobbskjeret" />
		<tag k="place" v="islet" />
		<tag k="ssr:stedsnr" v="838429" />
	</node>
<<<<<<< HEAD
	<node lat="67.85290555622191" lon="12.836274992991719" id="-10904">
		<tag k="name" v="Oterhaugneset" />
=======
	<node id="-208762" lat="67.8823777733" lon="13.0310861138">
		<tag k="name" v="Kråkhammeren" />
>>>>>>> e1d4bc35ff8a6074a6f2e91616a996b547c36f15
		<tag k="natural" v="cape" />
		<tag k="ssr:stedsnr" v="839676" />
	</node>
<<<<<<< HEAD
	<node lat="67.88418888616741" lon="13.00192500345225" id="-10906">
		<tag k="name" v="Tindsvågen" />
		<tag k="natural" v="strait" />
		<tag k="ssr:stedsnr" v="839690" />
	</node>
	<node lat="67.6406666625269" lon="12.919197231179043" id="-10907">
		<tag k="name" v="Vestfjorden" />
		<tag k="place" v="sea" />
		<tag k="ssr:stedsnr" v="926139" />
	</node>
	<node lat="67.88516944528493" lon="13.008802778883894" id="-10910">
		<tag k="name" v="Bogen" />
		<tag k="natural" v="bay" />
		<tag k="ssr:stedsnr" v="926390" />
	</node>
	<node lat="67.88911666958168" lon="13.035911109854332" id="-10915">
		<tag k="alt_name" v="Besselvåg" />
		<tag k="name" v="Besselvågen" />
		<tag k="natural" v="bay" />
		<tag k="ssr:stedsnr" v="927423" />
	</node>
	<node lat="67.84787777871296" lon="12.763016656721376" id="-10917">
		<tag k="name" v="Seiskallen" />
		<tag k="natural" v="shoal" />
		<tag k="place" v="locality" />
		<tag k="ssr:stedsnr" v="927439" />
	</node>
	<node lat="67.98149999926342" lon="12.924291677124586" id="-10918">
		<tag k="alt_name" v="Kalkoneset;Kalkunneset" />
		<tag k="name" v="Kalkonneset" />
		<tag k="natural" v="cape" />
		<tag k="ssr:stedsnr" v="927448" />
	</node>
	<node lat="67.94729999582906" lon="13.039283333383914" id="-10920">
		<tag k="alt_name" v="Veineset" />
		<tag k="name" v="Veines" />
=======
	<node id="-208756" lat="67.8546472261" lon="12.7989666587">
		<tag k="name" v="Rundflesa" />
		<tag k="place" v="islet" />
		<tag k="ssr:stedsnr" v="623441" />
	</node>
	<node id="-208753" lat="67.874227777" lon="12.9765500025">
		<tag k="alt_name" v="Amundholmen" />
		<tag k="name" v="Amundsholmen" />
		<tag k="place" v="islet" />
		<tag k="ssr:stedsnr" v="623423" />
	</node>
	<node id="-208752" lat="67.8832305594" lon="12.7550499926">
		<tag k="name" v="Storskallen" />
		<tag k="natural" v="shoal" />
		<tag k="place" v="locality" />
		<tag k="ssr:stedsnr" v="623418" />
	</node>
	<node id="-208957" lat="67.9361027763" lon="13.1112666654">
		<tag k="name" v="Fyrodden" />
		<tag k="natural" v="cape" />
		<tag k="ssr:stedsnr" v="352371" />
	</node>
	<node id="-208747" lat="67.9815916642" lon="13.0146416551">
		<tag k="fixme" v="consider seamark:type=rock or natural=shoal" />
		<tag k="name" v="Kobbsteinen" />
		<tag k="place" v="islet" />
		<tag k="ssr:stedsnr" v="718094" />
	</node>
	<node id="-208740" lat="67.9418000006" lon="13.1150555454">
		<tag k="name" v="Rundkulten" />
>>>>>>> e1d4bc35ff8a6074a6f2e91616a996b547c36f15
		<tag k="natural" v="cape" />
		<tag k="ssr:stedsnr" v="927492" />
	</node>
<<<<<<< HEAD
	<node lat="67.84243055359097" lon="12.795516677397094" id="-10922">
		<tag k="fixme" v="multiple name tags, choose one and add the other to alt_name" />
		<tag k="name" v="Kjellsnesskjeran;Nesskjeran" />
		<tag k="natural" v="cape" />
		<tag k="ssr:stedsnr" v="897706" />
	</node>
	<node lat="67.87264722469219" lon="12.852072215075566" id="-10929">
		<tag k="name" v="Gjerdvika" />
		<tag k="natural" v="bay" />
		<tag k="ssr:stedsnr" v="926403" />
	</node>
	<node lat="67.89102222635898" lon="12.748225000477095" id="-10931">
		<tag k="name" v="Elvskallan" />
=======
	<node id="-208739" lat="67.9897222257" lon="13.0176888982">
		<tag k="name" v="Steinflua" />
		<tag k="natural" v="shoal" />
		<tag k="place" v="locality" />
		<tag k="ssr:stedsnr" v="714504" />
	</node>
	<node id="-208738" lat="67.857294442" lon="12.7628944383">
		<tag k="name" v="Truskallen" />
>>>>>>> e1d4bc35ff8a6074a6f2e91616a996b547c36f15
		<tag k="natural" v="shoal" />
		<tag k="place" v="locality" />
		<tag k="ssr:stedsnr" v="927414" />
	</node>
<<<<<<< HEAD
	<node lat="67.85912500266194" lon="12.967208331085143" id="-10933">
		<tag k="name" v="Øvre Rødliskallen" />
		<tag k="natural" v="shoal" />
		<tag k="place" v="locality" />
		<tag k="ssr:stedsnr" v="957721" />
	</node>
	<node lat="67.85940555479064" lon="12.975272211821775" id="-10934">
		<tag k="name" v="Indre Grunnskallen" />
=======
	<node id="-208737" lat="67.8784555541" lon="13.0668388908">
		<tag k="name" v="Ufsskallen" />
		<tag k="natural" v="shoal" />
		<tag k="place" v="locality" />
		<tag k="ssr:stedsnr" v="562418" />
	</node>
	<node id="-208735" lat="67.8994111113" lon="13.0289472284">
		<tag k="name" v="Finnhamna" />
		<tag k="natural" v="bay" />
		<tag k="ssr:stedsnr" v="535363" />
	</node>
	<node id="-208733" lat="67.9405305582" lon="13.1251166704">
		<tag k="fixme" v="consider seamark:type=rock or natural=shoal" />
		<tag k="name" v="Einsteinen" />
		<tag k="place" v="islet" />
		<tag k="ssr:stedsnr" v="684486" />
	</node>
	<node id="-208730" lat="67.9408722259" lon="12.7801944414">
		<tag k="name" v="Nordbåen" />
>>>>>>> e1d4bc35ff8a6074a6f2e91616a996b547c36f15
		<tag k="natural" v="shoal" />
		<tag k="place" v="locality" />
		<tag k="ssr:stedsnr" v="957723" />
	</node>
<<<<<<< HEAD
	<node lat="67.95503332952525" lon="13.117047224396897" id="-10937">
		<tag k="name" v="Skjåneset" />
=======
	<node id="-208729" lat="67.9606749975" lon="13.0218472256">
		<tag k="name" v="Engelsneset" />
>>>>>>> e1d4bc35ff8a6074a6f2e91616a996b547c36f15
		<tag k="natural" v="cape" />
		<tag k="ssr:stedsnr" v="960443" />
	</node>
<<<<<<< HEAD
	<node lat="67.88017499840225" lon="13.015380566399292" id="-10938">
		<tag k="name" v="Guriskjeret" />
		<tag k="natural" v="shoal" />
		<tag k="place" v="locality" />
		<tag k="ssr:stedsnr" v="16380" />
	</node>
	<node lat="67.87863610652147" lon="13.022816675257065" id="-10939">
		<tag k="name" v="Husmannsskallen" />
=======
	<node id="-208720" lat="67.8239916679" lon="12.844213897">
		<tag k="name" v="Djupbåen" />
>>>>>>> e1d4bc35ff8a6074a6f2e91616a996b547c36f15
		<tag k="natural" v="shoal" />
		<tag k="place" v="locality" />
		<tag k="ssr:stedsnr" v="16381" />
	</node>
<<<<<<< HEAD
	<node lat="67.86314444103498" lon="12.902877775137105" id="-10940">
		<tag k="alt_name" v="Ånnstadvika;Åndstadvika" />
		<tag k="name" v="Ånstadvika" />
		<tag k="natural" v="bay" />
		<tag k="ssr:stedsnr" v="16388" />
	</node>
	<node lat="67.86106111009451" lon="12.750691663512756" id="-10941">
		<tag k="name" v="Hellarskallen" />
		<tag k="natural" v="shoal" />
		<tag k="place" v="locality" />
		<tag k="ssr:stedsnr" v="16393" />
	</node>
	<node lat="67.82903889207864" lon="12.808241668516917" id="-10942">
		<tag k="alt_name" v="Løngholmen" />
		<tag k="name" v="Lyngholmen" />
=======
	<node id="-208717" lat="68.007466666" lon="12.9474666765">
		<tag k="name" v="Skjelvsteinen" />
		<tag k="place" v="islet" />
		<tag k="ssr:stedsnr" v="684030" />
	</node>
	<node id="-208716" lat="67.8088249985" lon="12.8764666613">
		<tag k="name" v="Herjeskallen" />
		<tag k="natural" v="shoal" />
		<tag k="place" v="locality" />
		<tag k="ssr:stedsnr" v="502074" />
	</node>
	<node id="-208715" lat="67.8587583302" lon="12.8245361119">
		<tag k="fixme" v="multiple name tags, choose one and add the other to alt_name" />
		<tag k="name" v="Avløysa;Ytter-Avløysa" />
		<tag k="place" v="islet" />
		<tag k="ssr:stedsnr" v="673448" />
	</node>
	<node id="-208708" lat="67.8903916624" lon="13.0372333241">
		<tag k="fixme" v="consider seamark:type=rock or natural=shoal" />
		<tag k="name" v="Vedskjeret" />
>>>>>>> e1d4bc35ff8a6074a6f2e91616a996b547c36f15
		<tag k="place" v="islet" />
		<tag k="ssr:stedsnr" v="17091" />
	</node>
<<<<<<< HEAD
	<node lat="67.83504722543758" lon="12.80038888226236" id="-10943">
		<tag k="fixme" v="multiple name tags, choose one and add the other to alt_name" />
		<tag k="name" v="Buvågnakken;Buvågvarden" />
=======
	<node id="-208702" lat="67.9807138932" lon="12.9526305632">
		<tag k="fixme" v="multiple name tags, choose one and add the other to alt_name" />
		<tag k="name" v="Ausa;Ausodden" />
		<tag k="natural" v="cape" />
		<tag k="ssr:stedsnr" v="502441" />
	</node>
	<node id="-208701" lat="67.8930777805" lon="12.8547222213">
		<tag k="name" v="Stokkvika" />
		<tag k="natural" v="bay" />
		<tag k="ssr:stedsnr" v="502408" />
	</node>
	<node id="-208699" lat="67.9006194409" lon="12.845863892">
		<tag k="name" v="Stokkvikmulen" />
>>>>>>> e1d4bc35ff8a6074a6f2e91616a996b547c36f15
		<tag k="natural" v="cape" />
		<tag k="ssr:stedsnr" v="17096" />
	</node>
<<<<<<< HEAD
	<node lat="67.84733333046438" lon="12.804397215703636" id="-10945">
		<tag k="name" v="Kjerksteinen" />
=======
	<node id="-208697" lat="67.8989527811" lon="13.056991666">
		<tag k="name" v="Grautdallen" />
		<tag k="natural" v="shoal" />
>>>>>>> e1d4bc35ff8a6074a6f2e91616a996b547c36f15
		<tag k="place" v="locality" />
		<tag k="seamark:type" v="rock" />
		<tag k="ssr:stedsnr" v="17453" />
	</node>
<<<<<<< HEAD
	<node lat="67.90358055125144" lon="12.847522232667085" id="-10948">
		<tag k="fixme" v="consider seamark:type=rock or natural=shoal" />
		<tag k="name" v="Smalskjeret" />
		<tag k="place" v="islet" />
		<tag k="ssr:stedsnr" v="17420" />
	</node>
	<node lat="67.8969277774571" lon="13.048811117840017" id="-10949">
		<tag k="name" v="Tjeldskjeret" />
=======
	<node id="-208689" lat="67.9255777784" lon="13.1006861058">
		<tag k="name" v="Purka" />
>>>>>>> e1d4bc35ff8a6074a6f2e91616a996b547c36f15
		<tag k="place" v="islet" />
		<tag k="ssr:stedsnr" v="17422" />
	</node>
<<<<<<< HEAD
	<node lat="67.89294722370545" lon="12.838919446892236" id="-10950">
		<tag k="name" v="Grasholmen" />
		<tag k="place" v="islet" />
		<tag k="ssr:stedsnr" v="17426" />
	</node>
	<node lat="67.92471389087743" lon="13.108625008216286" id="-10956">
		<tag k="name" v="Gautbåen" />
=======
	<node id="-208688" lat="67.9156111086" lon="12.8712583374">
		<tag k="alt_name" v="Oternesbåan" />
		<tag k="name" v="Oternesbøan" />
>>>>>>> e1d4bc35ff8a6074a6f2e91616a996b547c36f15
		<tag k="natural" v="shoal" />
		<tag k="place" v="locality" />
		<tag k="ssr:stedsnr" v="47536" />
	</node>
<<<<<<< HEAD
	<node lat="67.9615388935203" lon="13.160941662633732" id="-10957">
		<tag k="name" v="Vest-Akkarvikodden" />
		<tag k="natural" v="cape" />
		<tag k="ssr:stedsnr" v="49429" />
	</node>
	<node lat="67.93095277397914" lon="13.083780560434578" id="-10958">
		<tag k="name" v="Gravdalsbukta" />
		<tag k="natural" v="bay" />
		<tag k="ssr:stedsnr" v="49447" />
	</node>
	<node lat="67.97028333242447" lon="12.991388886705217" id="-10959">
		<tag k="name" v="Båtvika" />
		<tag k="natural" v="bay" />
		<tag k="ssr:stedsnr" v="50053" />
	</node>
	<node lat="67.88843611321592" lon="13.022088888241274" id="-10965">
		<tag k="name" v="Svertelvika" />
		<tag k="natural" v="bay" />
		<tag k="ssr:stedsnr" v="50353" />
	</node>
	<node lat="67.9135583374043" lon="13.070755563908026" id="-10966">
		<tag k="name" v="Båtvika" />
		<tag k="natural" v="bay" />
		<tag k="ssr:stedsnr" v="50393" />
	</node>
	<node lat="67.95868333294433" lon="13.172055558090076" id="-10971">
		<tag k="alt_name" v="Skaksåldan" />
		<tag k="name" v="Skaksåldene" />
=======
	<node id="-208686" lat="67.8245888864" lon="12.8178055615">
		<tag k="name" v="Rødøya" />
		<tag k="place" v="islet" />
		<tag k="ssr:stedsnr" v="502080" />
	</node>
	<node id="-208685" lat="67.8660027815" lon="12.8020333255">
		<tag k="alt_name" v="Smellbåen, øvre" />
		<tag k="name" v="Øvre Smellbåen" />
>>>>>>> e1d4bc35ff8a6074a6f2e91616a996b547c36f15
		<tag k="natural" v="shoal" />
		<tag k="place" v="locality" />
		<tag k="ssr:stedsnr" v="78476" />
	</node>
<<<<<<< HEAD
	<node lat="67.8227638863053" lon="12.794705546224376" id="-10973">
		<tag k="name" v="Sørfallet" />
=======
	<node id="-208684" lat="67.8708388933" lon="12.7813805555">
		<tag k="alt_name" v="Smellbåan, yt" />
		<tag k="name" v="Ytre Smellbåan" />
>>>>>>> e1d4bc35ff8a6074a6f2e91616a996b547c36f15
		<tag k="natural" v="shoal" />
		<tag k="place" v="locality" />
		<tag k="ssr:stedsnr" v="78076" />
	</node>
<<<<<<< HEAD
	<node lat="67.94733333786519" lon="12.80383887903044" id="-10976">
		<tag k="name" v="Lønnfallet" />
		<tag k="natural" v="shoal" />
		<tag k="place" v="locality" />
		<tag k="ssr:stedsnr" v="78477" />
	</node>
	<node lat="67.93870000388425" lon="13.126294441670305" id="-10980">
		<tag k="name" v="Einsteinflua" />
		<tag k="natural" v="shoal" />
		<tag k="place" v="locality" />
		<tag k="ssr:stedsnr" v="108560" />
	</node>
	<node lat="67.82898889013771" lon="12.870733343536495" id="-10981">
		<tag k="name" v="Yttertuven" />
=======
	<node id="-208683" lat="67.8877138908" lon="13.0412472128">
		<tag k="name" v="Tarnesodden" />
		<tag k="place" v="islet" />
		<tag k="ssr:stedsnr" v="501392" />
	</node>
	<node id="-208678" lat="67.9590749991" lon="13.113638885">
		<tag k="name" v="Duken" />
		<tag k="natural" v="cape" />
		<tag k="ssr:stedsnr" v="475443" />
	</node>
	<node id="-208677" lat="67.9555055588" lon="12.9967861119">
		<tag k="name" v="Hamnen" />
>>>>>>> e1d4bc35ff8a6074a6f2e91616a996b547c36f15
		<tag k="natural" v="cape" />
		<tag k="ssr:stedsnr" v="108744" />
	</node>
<<<<<<< HEAD
	<node lat="67.89992500101022" lon="13.033275003647981" id="-10988">
=======
	<node id="-208901" lat="67.9367250029" lon="13.0806583458">
		<tag k="name" v="Reinevågen" />
		<tag k="natural" v="bay" />
		<tag k="ssr:stedsnr" v="138486" />
	</node>
	<node id="-208671" lat="67.9071750006" lon="12.8639777783">
>>>>>>> e1d4bc35ff8a6074a6f2e91616a996b547c36f15
		<tag k="fixme" v="consider seamark:type=rock or natural=shoal" />
		<tag k="name" v="Oksbåsskjeran" />
		<tag k="place" v="islet" />
		<tag k="ssr:stedsnr" v="111359" />
	</node>
<<<<<<< HEAD
	<node lat="67.8607638899026" lon="12.848597224004262" id="-10991">
		<tag k="name" v="Turtnbakkvika" />
		<tag k="natural" v="bay" />
		<tag k="ssr:stedsnr" v="137411" />
	</node>
	<node lat="68.02736111376467" lon="12.963574994732639" id="-10992">
		<tag k="name" v="Horseidmulen" />
		<tag k="natural" v="cape" />
		<tag k="old_name" v="Hornseidmulen" />
		<tag k="ssr:stedsnr" v="138026" />
	</node>
	<node lat="68.03589444506073" lon="12.84716665814416" id="-10993">
		<tag k="name" v="Hammarskaftskallen" />
		<tag k="natural" v="shoal" />
		<tag k="place" v="locality" />
		<tag k="ssr:stedsnr" v="138040" />
	</node>
	<node lat="68.00255555264229" lon="12.894963893929619" id="-10994">
		<tag k="name" v="Beitskjelskallen" />
		<tag k="natural" v="shoal" />
		<tag k="place" v="locality" />
		<tag k="ssr:stedsnr" v="138066" />
	</node>
	<node lat="67.82820833566552" lon="12.82315277176841" id="-10995">
		<tag k="alt_name" v="Reivika" />
		<tag k="name" v="Reidvika" />
		<tag k="natural" v="bay" />
		<tag k="ssr:stedsnr" v="138086" />
	</node>
	<node lat="67.83277777521172" lon="12.878352786891433" id="-10996">
		<tag k="name" v="Skata" />
		<tag k="natural" v="shoal" />
		<tag k="place" v="locality" />
		<tag k="ssr:stedsnr" v="138088" />
	</node>
	<node lat="67.83117778055906" lon="12.876136102741414" id="-10997">
		<tag k="name" v="Kvalbakken" />
		<tag k="natural" v="shoal" />
		<tag k="place" v="locality" />
		<tag k="ssr:stedsnr" v="138089" />
	</node>
	<node lat="67.95623610891782" lon="12.832536106217702" id="-10999">
		<tag k="name" v="Småskallan" />
=======
	<node id="-208943" lat="67.9896861099" lon="12.9068083243">
		<tag k="name" v="Bergskallen" />
		<tag k="natural" v="shoal" />
		<tag k="place" v="locality" />
		<tag k="ssr:stedsnr" v="320295" />
	</node>
	<node id="-208664" lat="67.9338194405" lon="13.1170249995">
		<tag k="fixme" v="consider seamark:type=rock or natural=shoal" />
		<tag k="name" v="Langskjeret" />
		<tag k="place" v="islet" />
		<tag k="ssr:stedsnr" v="320375" />
	</node>
	<node id="-208662" lat="67.8910944469" lon="12.8016750044">
		<tag k="name" v="Trollskallan" />
		<tag k="natural" v="shoal" />
		<tag k="place" v="locality" />
		<tag k="ssr:stedsnr" v="320405" />
	</node>
	<node id="-209171" lat="67.9550333295" lon="13.1170472244">
		<tag k="name" v="Skjåneset" />
		<tag k="natural" v="cape" />
		<tag k="ssr:stedsnr" v="960443" />
	</node>
	<node id="-209170" lat="67.9579416662" lon="13.0240194427">
		<tag k="name" v="Engelsnesodden" />
		<tag k="natural" v="cape" />
		<tag k="ssr:stedsnr" v="960421" />
	</node>
	<node id="-208657" lat="67.9351916662" lon="13.0921000075">
		<tag k="name" v="Storstubergan" />
		<tag k="natural" v="cape" />
		<tag k="ssr:stedsnr" v="473407" />
	</node>
	<node id="-208654" lat="67.9399027787" lon="13.0733027808">
		<tag k="name" v="Vestervalen" />
		<tag k="natural" v="cape" />
		<tag k="ssr:stedsnr" v="292376" />
	</node>
	<node id="-208653" lat="67.9430388868" lon="13.1201055552">
		<tag k="name" v="Litl-Toppøya" />
		<tag k="place" v="islet" />
		<tag k="ssr:stedsnr" v="292352" />
	</node>
	<node id="-209164" lat="68.0179583318" lon="12.9703555651">
		<tag k="name" v="Mulvika" />
		<tag k="natural" v="bay" />
		<tag k="ssr:stedsnr" v="960076" />
	</node>
	<node id="-208651" lat="67.8683833343" lon="12.996763886">
		<tag k="name" v="Gjerdtindsskallen" />
>>>>>>> e1d4bc35ff8a6074a6f2e91616a996b547c36f15
		<tag k="natural" v="shoal" />
		<tag k="place" v="locality" />
		<tag k="ssr:stedsnr" v="138469" />
	</node>
<<<<<<< HEAD
	<node lat="67.93672500291855" lon="13.080658345757211" id="-11000">
		<tag k="name" v="Reinevågen" />
=======
	<node id="-208650" lat="67.8699527737" lon="12.9396416745">
		<tag k="name" v="Tindsvika" />
>>>>>>> e1d4bc35ff8a6074a6f2e91616a996b547c36f15
		<tag k="natural" v="bay" />
		<tag k="ssr:stedsnr" v="138486" />
	</node>
<<<<<<< HEAD
	<node lat="67.99930277826735" lon="12.899924989264388" id="-11002">
		<tag k="name" v="Beiteskiskallen" />
		<tag k="natural" v="shoal" />
		<tag k="place" v="locality" />
		<tag k="ssr:stedsnr" v="138323" />
	</node>
	<node lat="67.89617221954005" lon="13.045197221070236" id="-11003">
		<tag k="name" v="Holmen" />
=======
	<node id="-208649" lat="67.8491416696" lon="12.8997388941">
		<tag k="name" v="Svadodden" />
		<tag k="natural" v="cape" />
		<tag k="ssr:stedsnr" v="259073" />
	</node>
	<node id="-208648" lat="67.8307111079" lon="12.8100444504">
		<tag k="alt_name" v="Kjiholmen" />
		<tag k="name" v="Kjeholmen" />
		<tag k="place" v="islet" />
		<tag k="ssr:stedsnr" v="259066" />
	</node>
	<node id="-208647" lat="67.8275888872" lon="12.80702223">
		<tag k="name" v="Hella" />
>>>>>>> e1d4bc35ff8a6074a6f2e91616a996b547c36f15
		<tag k="place" v="islet" />
		<tag k="ssr:stedsnr" v="138408" />
	</node>
<<<<<<< HEAD
	<node lat="67.89329305772397" lon="13.036838036720077" id="-11009">
		<tag k="name" v="Oddan" />
		<tag k="natural" v="cape" />
		<tag k="ssr:stedsnr" v="171332" />
	</node>
	<node lat="67.88636944694167" lon="13.010019443325776" id="-11010">
		<tag k="name" v="Flathaugholmen" />
=======
	<node id="-208646" lat="67.83021944" lon="12.7858555615">
		<tag k="name" v="Djupbåen" />
		<tag k="natural" v="shoal" />
		<tag k="place" v="locality" />
		<tag k="ssr:stedsnr" v="259064" />
	</node>
	<node id="-209154" lat="67.8762444456" lon="12.8352111168">
		<tag k="name" v="Krykkjeholmen" />
>>>>>>> e1d4bc35ff8a6074a6f2e91616a996b547c36f15
		<tag k="place" v="islet" />
		<tag k="ssr:stedsnr" v="171349" />
	</node>
	<node lat="67.95147222506189" lon="13.207447211782847" id="-11016">
		<tag k="bay" v="fjord" />
		<tag k="name" v="Kåsa" />
		<tag k="natural" v="bay" />
		<tag k="ssr:stedsnr" v="199180" />
	</node>
<<<<<<< HEAD
	<node lat="67.9283833360052" lon="13.085833326425517" id="-11017">
		<tag k="name" v="Reinehalsen" />
		<tag k="place" v="locality" />
		<tag k="ssr:stedsnr" v="199384" />
	</node>
	<node lat="67.90599167004592" lon="12.867544444869218" id="-11018">
		<tag k="name" v="Bukkhammaren" />
=======
	<node id="-208641" lat="67.9630277802" lon="13.1661638974">
		<tag k="name" v="Akkarvikodden" />
>>>>>>> e1d4bc35ff8a6074a6f2e91616a996b547c36f15
		<tag k="natural" v="cape" />
		<tag k="ssr:stedsnr" v="199394" />
	</node>
	<node lat="67.94629444298" lon="13.138527768121705" id="-11019">
		<tag k="name" v="Rundkulten" />
		<tag k="place" v="island" />
		<tag k="ssr:stedsnr" v="199473" />
	</node>
<<<<<<< HEAD
	<node lat="67.9447499963447" lon="13.11807500043053" id="-11020">
=======
	<node id="-208639" lat="67.9678694437" lon="12.9891749969">
>>>>>>> e1d4bc35ff8a6074a6f2e91616a996b547c36f15
		<tag k="bay" v="fjord" />
		<tag k="name" v="Reinefjorden" />
		<tag k="natural" v="bay" />
<<<<<<< HEAD
		<tag k="ssr:stedsnr" v="199474" />
	</node>
	<node lat="67.946044442365" lon="13.163755548490869" id="-11021">
		<tag k="name" v="Kortskallen" />
=======
		<tag k="ssr:stedsnr" v="442472" />
	</node>
	<node id="-209149" lat="67.8389138908" lon="12.7800361072">
		<tag k="name" v="Holmsundet" />
		<tag k="natural" v="strait" />
		<tag k="ssr:stedsnr" v="866058" />
	</node>
	<node id="-209148" lat="67.8271555529" lon="12.7916138994">
		<tag k="name" v="Tørrfallet" />
>>>>>>> e1d4bc35ff8a6074a6f2e91616a996b547c36f15
		<tag k="natural" v="shoal" />
		<tag k="place" v="locality" />
		<tag k="ssr:stedsnr" v="199479" />
	</node>
<<<<<<< HEAD
	<node lat="67.94303888681775" lon="13.120105555157206" id="-11027">
		<tag k="name" v="Litl-Toppøya" />
		<tag k="place" v="islet" />
		<tag k="ssr:stedsnr" v="292352" />
	</node>
	<node lat="67.91420278227874" lon="13.079280556890145" id="-11032">
		<tag k="name" v="Djupfjordodden" />
		<tag k="natural" v="cape" />
		<tag k="ssr:stedsnr" v="293436" />
	</node>
	<node lat="67.95907221793271" lon="13.01018888624773" id="-11033">
		<tag k="name" v="Straumsholmen" />
		<tag k="place" v="islet" />
		<tag k="ssr:stedsnr" v="293453" />
	</node>
	<node lat="67.89109444690281" lon="12.801675004376994" id="-11036">
		<tag k="name" v="Trollskallan" />
		<tag k="natural" v="shoal" />
		<tag k="place" v="locality" />
		<tag k="ssr:stedsnr" v="320405" />
	</node>
	<node lat="67.82513333664649" lon="12.811450010975973" id="-11038">
		<tag k="name" v="Reidsundet" />
		<tag k="natural" v="strait" />
		<tag k="ssr:stedsnr" v="320082" />
	</node>
	<node lat="67.93852499840631" lon="13.114377785891131" id="-11039">
		<tag k="alt_name" v="Olnilsøya" />
		<tag k="name" v="Olenilsøya" />
=======
	<node id="-209147" lat="67.8841888862" lon="13.0019250035">
		<tag k="name" v="Tindsvågen" />
		<tag k="natural" v="strait" />
		<tag k="ssr:stedsnr" v="839690" />
	</node>
	<node id="-208633" lat="67.84451944" lon="12.7773722287">
		<tag k="fixme" v="multiple name tags, choose one and add the other to alt_name" />
		<tag k="name" v="Avløysa;Nordholmsavløysa" />
		<tag k="place" v="island" />
		<tag k="ssr:stedsnr" v="442428" />
	</node>
	<node id="-208632" lat="67.890811113" lon="12.8465555475">
		<tag k="name" v="Måsnakken" />
		<tag k="natural" v="cape" />
		<tag k="ssr:stedsnr" v="442408" />
	</node>
	<node id="-208631" lat="67.8991138889" lon="13.0374249955">
		<tag k="name" v="Moskenesvågen" />
		<tag k="natural" v="bay" />
		<tag k="ssr:stedsnr" v="442394" />
	</node>
	<node id="-208630" lat="67.8371749983" lon="12.7821111058">
		<tag k="name" v="Sørholmen" />
>>>>>>> e1d4bc35ff8a6074a6f2e91616a996b547c36f15
		<tag k="place" v="island" />
		<tag k="ssr:stedsnr" v="320480" />
	</node>
<<<<<<< HEAD
	<node lat="67.93381944051353" lon="13.117024999510125" id="-11040">
=======
	<node id="-208627" lat="67.9493972253" lon="13.1196249995">
>>>>>>> e1d4bc35ff8a6074a6f2e91616a996b547c36f15
		<tag k="fixme" v="consider seamark:type=rock or natural=shoal" />
		<tag k="name" v="Langskjeret" />
		<tag k="place" v="islet" />
		<tag k="ssr:stedsnr" v="320375" />
	</node>
<<<<<<< HEAD
	<node lat="67.85717221906415" lon="12.968924988836049" id="-11044">
		<tag k="name" v="Indre Rødliskallen" />
		<tag k="natural" v="shoal" />
		<tag k="place" v="locality" />
		<tag k="ssr:stedsnr" v="350697" />
	</node>
	<node lat="67.88729444368357" lon="13.041849996009097" id="-11051">
		<tag k="fixme" v="consider seamark:type=rock or natural=shoal" />
		<tag k="name" v="Fyrskjeran" />
		<tag k="place" v="islet" />
		<tag k="ssr:stedsnr" v="353369" />
	</node>
	<node lat="67.89414444826019" lon="13.035180546480666" id="-11053">
		<tag k="name" v="Langnesbukta" />
		<tag k="natural" v="bay" />
		<tag k="ssr:stedsnr" v="353375" />
	</node>
	<node lat="67.9094138878535" lon="13.070616674051614" id="-11055">
		<tag k="name" v="Steffennakken" />
=======
	<node id="-208626" lat="67.8743333378" lon="13.0033138921">
		<tag k="name" v="Nipingen" />
		<tag k="place" v="islet" />
		<tag k="ssr:stedsnr" v="441415" />
	</node>
	<node id="-208621" lat="67.9590722179" lon="13.0101888862">
		<tag k="name" v="Straumsholmen" />
		<tag k="place" v="islet" />
		<tag k="ssr:stedsnr" v="293453" />
	</node>
	<node id="-208620" lat="67.9142027823" lon="13.0792805569">
		<tag k="name" v="Djupfjordodden" />
>>>>>>> e1d4bc35ff8a6074a6f2e91616a996b547c36f15
		<tag k="natural" v="cape" />
		<tag k="ssr:stedsnr" v="353400" />
	</node>
<<<<<<< HEAD
	<node lat="67.96425833292683" lon="12.998061112824825" id="-11056">
		<tag k="name" v="Bonen" />
		<tag k="natural" v="cape" />
		<tag k="ssr:stedsnr" v="353427" />
	</node>
	<node lat="67.92324721856666" lon="12.896213887122862" id="-11060">
		<tag k="alt_name" v="Ertnhellvika" />
		<tag k="name" v="Ertenhellvika" />
		<tag k="natural" v="bay" />
		<tag k="ssr:stedsnr" v="380389" />
	</node>
	<node lat="67.86856388960432" lon="12.761952768374872" id="-11062">
		<tag k="name" v="Stampen" />
=======
	<node id="-209131" lat="67.9352972199" lon="13.0764333342">
		<tag k="name" v="Skjeret" />
		<tag k="place" v="islet" />
		<tag k="ssr:stedsnr" v="838428" />
	</node>
	<node id="-209130" lat="67.8882472223" lon="13.00639999">
		<tag k="name" v="Vedvika" />
		<tag k="natural" v="bay" />
		<tag k="ssr:stedsnr" v="836704" />
	</node>
	<node id="-209129" lat="67.8615555555" lon="12.9786527857">
		<tag k="name" v="Dåvskallen" />
		<tag k="natural" v="shoal" />
		<tag k="place" v="locality" />
		<tag k="ssr:stedsnr" v="836679" />
	</node>
	<node id="-209128" lat="67.8723916657" lon="12.9987777848">
		<tag k="name" v="Kobbskallen" />
>>>>>>> e1d4bc35ff8a6074a6f2e91616a996b547c36f15
		<tag k="natural" v="shoal" />
		<tag k="place" v="locality" />
		<tag k="ssr:stedsnr" v="380436" />
	</node>
<<<<<<< HEAD
	<node lat="67.86519999770532" lon="12.977994444258378" id="-11063">
		<tag k="alt_name" v="Håndskardskallen" />
		<tag k="name" v="Hornskardskallen" />
		<tag k="natural" v="shoal" />
		<tag k="place" v="locality" />
		<tag k="ssr:stedsnr" v="380443" />
	</node>
	<node lat="67.86422500232614" lon="12.924949992566399" id="-11064">
		<tag k="name" v="Nupen" />
=======
	<node id="-209127" lat="67.9207138912" lon="13.1016055656">
		<tag k="name" v="Purkskallen" />
		<tag k="natural" v="shoal" />
		<tag k="place" v="locality" />
		<tag k="ssr:stedsnr" v="836500" />
	</node>
	<node id="-209126" lat="67.9628027739" lon="13.1633333433">
		<tag k="name" v="Akkarvika" />
		<tag k="natural" v="bay" />
		<tag k="ssr:stedsnr" v="806452" />
	</node>
	<node id="-208608" lat="67.9538916672" lon="13.1419888891">
		<tag k="name" v="Lilandsholmen" />
		<tag k="place" v="islet" />
		<tag k="ssr:stedsnr" v="260507" />
	</node>
	<node id="-208604" lat="67.9773527767" lon="13.0150638868">
		<tag k="fixme" v="multiple name tags, choose one and add the other to alt_name" />
		<tag k="name" v="Finnhamnneset;Nabblisvadet" />
>>>>>>> e1d4bc35ff8a6074a6f2e91616a996b547c36f15
		<tag k="natural" v="cape" />
		<tag k="ssr:stedsnr" v="380444" />
	</node>
<<<<<<< HEAD
	<node lat="67.82346388881601" lon="12.821355544732079" id="-11065">
		<tag k="name" v="Moklakkan" />
=======
	<node id="-209115" lat="67.8925027741" lon="13.0428166765">
		<tag k="name" v="Kråka" />
>>>>>>> e1d4bc35ff8a6074a6f2e91616a996b547c36f15
		<tag k="place" v="islet" />
		<tag k="ssr:stedsnr" v="381095" />
	</node>
<<<<<<< HEAD
	<node lat="67.91814166614904" lon="13.053619433020328" id="-11066">
		<tag k="bay" v="fjord" />
		<tag k="name" v="Djupfjorden" />
		<tag k="natural" v="bay" />
		<tag k="ssr:stedsnr" v="381184" />
	</node>
	<node lat="68.03412777739737" lon="12.985027787909884" id="-11067">
		<tag k="name" v="Tjeldsneset" />
		<tag k="natural" v="cape" />
		<tag k="ssr:stedsnr" v="381037" />
	</node>
	<node lat="67.91315000415877" lon="13.077500010680572" id="-11068">
		<tag k="alt_name" v="Djupfjordbåen" />
		<tag k="name" v="Djupfjordbøan" />
		<tag k="natural" v="shoal" />
		<tag k="place" v="locality" />
		<tag k="ssr:stedsnr" v="381393" />
	</node>
	<node lat="67.9762333361254" lon="13.024527786123182" id="-11072">
		<tag k="alt_name" v="Kirkefjorden" />
		<tag k="bay" v="fjord" />
		<tag k="name" v="Kjerkfjorden" />
=======
	<node id="-209114" lat="67.8416388886" lon="12.8925833229">
		<tag k="name" v="Ståkja" />
		<tag k="natural" v="shoal" />
		<tag k="place" v="locality" />
		<tag k="ssr:stedsnr" v="806077" />
	</node>
	<node id="-208599" lat="67.8934555526" lon="12.8209972128">
		<tag k="name" v="Grasholmflua" />
		<tag k="natural" v="shoal" />
		<tag k="place" v="locality" />
		<tag k="ssr:stedsnr" v="259398" />
	</node>
	<node id="-209110" lat="67.8649777801" lon="12.9904860998">
		<tag k="name" v="Kalvskinnskallen" />
		<tag k="natural" v="shoal" />
		<tag k="place" v="locality" />
		<tag k="ssr:stedsnr" v="805435" />
	</node>
	<node id="-208597" lat="67.9025222204" lon="12.8008222142">
		<tag k="fixme" v="consider seamark:type=rock or natural=shoal" />
		<tag k="name" v="Stokkvikflesa" />
		<tag k="place" v="islet" />
		<tag k="ssr:stedsnr" v="259391" />
	</node>
	<node id="-209108" lat="67.8832194409" lon="13.0238472151">
		<tag k="name" v="Storvika" />
>>>>>>> e1d4bc35ff8a6074a6f2e91616a996b547c36f15
		<tag k="natural" v="bay" />
		<tag k="ssr:stedsnr" v="381455" />
	</node>
<<<<<<< HEAD
	<node lat="67.95775277595213" lon="12.894130544740072" id="-11074">
		<tag k="name" v="Hermannsdalsflesa" />
=======
	<node id="-208595" lat="67.9276027762" lon="13.1073861157">
		<tag k="fixme" v="multiple name tags, choose one and add the other to alt_name" />
		<tag k="name" v="Kuforet;Lamholmen" />
>>>>>>> e1d4bc35ff8a6074a6f2e91616a996b547c36f15
		<tag k="place" v="islet" />
		<tag k="ssr:stedsnr" v="381466" />
	</node>
<<<<<<< HEAD
	<node lat="67.89525277856457" lon="13.052202776273045" id="-11076">
		<tag k="name" v="Skjortbaken" />
=======
	<node id="-208593" lat="68.0114027749" lon="12.8561083283">
		<tag k="name" v="Småskallan" />
>>>>>>> e1d4bc35ff8a6074a6f2e91616a996b547c36f15
		<tag k="natural" v="shoal" />
		<tag k="place" v="locality" />
		<tag k="ssr:stedsnr" v="411698" />
	</node>
<<<<<<< HEAD
	<node lat="67.8417666649955" lon="12.77893611435021" id="-11077">
		<tag k="name" v="Nordholmen" />
		<tag k="place" v="islet" />
		<tag k="ssr:stedsnr" v="411729" />
	</node>
	<node lat="67.88924166428049" lon="13.02686666090439" id="-11083">
		<tag k="name" v="Sørvågen" />
		<tag k="natural" v="bay" />
		<tag k="ssr:stedsnr" v="414352" />
	</node>
	<node lat="67.88756944485122" lon="13.00874721706169" id="-11086">
		<tag k="name" v="Lortvika" />
		<tag k="natural" v="bay" />
		<tag k="ssr:stedsnr" v="414369" />
	</node>
	<node lat="67.94939722529611" lon="13.119624999500763" id="-11090">
		<tag k="fixme" v="consider seamark:type=rock or natural=shoal" />
		<tag k="name" v="Kobbskjeret" />
		<tag k="place" v="islet" />
		<tag k="ssr:stedsnr" v="441481" />
	</node>
	<node lat="67.96786944365256" lon="12.989174996921411" id="-11094">
		<tag k="bay" v="fjord" />
		<tag k="name" v="Bunesfjorden" />
		<tag k="natural" v="bay" />
		<tag k="ssr:stedsnr" v="442472" />
	</node>
	<node lat="67.8445194400356" lon="12.777372228749643" id="-11095">
		<tag k="fixme" v="multiple name tags, choose one and add the other to alt_name" />
		<tag k="name" v="Avløysa;Nordholmsavløysa" />
		<tag k="place" v="island" />
		<tag k="ssr:stedsnr" v="442428" />
	</node>
	<node lat="67.90061944090901" lon="12.845863892031417" id="-11099">
		<tag k="name" v="Stokkvikmulen" />
		<tag k="natural" v="cape" />
		<tag k="ssr:stedsnr" v="502400" />
	</node>
	<node lat="67.91561110859809" lon="12.871258337373632" id="-11100">
		<tag k="alt_name" v="Oternesbåan" />
		<tag k="name" v="Oternesbøan" />
		<tag k="natural" v="shoal" />
		<tag k="place" v="locality" />
		<tag k="ssr:stedsnr" v="502369" />
	</node>
	<node lat="67.9807138931834" lon="12.952630563221039" id="-11101">
		<tag k="fixme" v="multiple name tags, choose one and add the other to alt_name" />
		<tag k="name" v="Ausodden;Ausa" />
		<tag k="natural" v="cape" />
		<tag k="ssr:stedsnr" v="502441" />
	</node>
	<node lat="67.89941111132366" lon="13.028947228369287" id="-11108">
		<tag k="name" v="Finnhamna" />
=======
	<node id="-208592" lat="67.996077781" lon="12.7860250096">
		<tag k="name" v="Dyrbåen" />
		<tag k="natural" v="shoal" />
		<tag k="place" v="locality" />
		<tag k="ssr:stedsnr" v="259280" />
	</node>
	<node id="-209101" lat="67.8956194448" lon="13.0385472123">
		<tag k="name" v="Løktodden" />
		<tag k="natural" v="cape" />
		<tag k="ssr:stedsnr" v="778342" />
	</node>
	<node id="-208588" lat="67.9621361075" lon="13.007391663">
		<tag k="name" v="Hansneset" />
		<tag k="natural" v="cape" />
		<tag k="ssr:stedsnr" v="50408" />
	</node>
	<node id="-208587" lat="67.8884361132" lon="13.0220888882">
		<tag k="name" v="Svertelvika" />
		<tag k="natural" v="bay" />
		<tag k="ssr:stedsnr" v="50353" />
	</node>
	<node id="-208585" lat="67.8846055523" lon="13.0134138803">
		<tag k="name" v="Ytterbogen" />
		<tag k="natural" v="cape" />
		<tag k="ssr:stedsnr" v="50322" />
	</node>
	<node id="-208584" lat="67.8864027813" lon="13.0154916642">
		<tag k="name" v="Stoltenbergodden" />
		<tag k="natural" v="cape" />
		<tag k="ssr:stedsnr" v="50319" />
	</node>
	<node id="-208582" lat="67.9247138909" lon="13.1086250082">
		<tag k="name" v="Gautbåen" />
		<tag k="natural" v="shoal" />
		<tag k="place" v="locality" />
		<tag k="ssr:stedsnr" v="47536" />
	</node>
	<node id="-209090" lat="67.9420583376" lon="13.100647223">
		<tag k="name" v="Kvalvika" />
		<tag k="natural" v="bay" />
		<tag k="ssr:stedsnr" v="745483" />
	</node>
	<node id="-209099" lat="67.884683329" lon="13.0035861104">
		<tag k="fixme" v="consider seamark:type=rock or natural=shoal" />
		<tag k="name" v="Hjelleskjeret" />
		<tag k="place" v="islet" />
		<tag k="ssr:stedsnr" v="778329" />
	</node>
	<node id="-208575" lat="67.8857277817" lon="13.0001750082">
		<tag k="name" v="Tindshamna" />
>>>>>>> e1d4bc35ff8a6074a6f2e91616a996b547c36f15
		<tag k="natural" v="bay" />
		<tag k="ssr:stedsnr" v="535363" />
	</node>
<<<<<<< HEAD
	<node lat="68.01108332940521" lon="12.789008336392504" id="-11112">
		<tag k="name" v="Floskallan" />
		<tag k="natural" v="shoal" />
		<tag k="place" v="locality" />
		<tag k="ssr:stedsnr" v="562027" />
	</node>
	<node lat="67.84792454415641" lon="12.843000324275868" id="-11115">
		<tag k="alt_name" v="Revsvika" />
		<tag k="name" v="Refsvika" />
=======
	<node id="-208572" lat="67.9154638891" lon="13.0503027844">
		<tag k="name" v="Vedvika" />
>>>>>>> e1d4bc35ff8a6074a6f2e91616a996b547c36f15
		<tag k="natural" v="bay" />
		<tag k="ssr:stedsnr" v="562065" />
	</node>
<<<<<<< HEAD
	<node lat="67.83385277366767" lon="12.789133328367809" id="-11116">
=======
	<node id="-209083" lat="67.9364277766" lon="13.1022277681">
>>>>>>> e1d4bc35ff8a6074a6f2e91616a996b547c36f15
		<tag k="fixme" v="consider seamark:type=rock or natural=shoal" />
		<tag k="name" v="Skiten" />
		<tag k="place" v="islet" />
		<tag k="ssr:stedsnr" v="562066" />
	</node>
<<<<<<< HEAD
	<node lat="67.90547499685191" lon="13.05580556160467" id="-11118">
		<tag k="name" v="Seljevika" />
		<tag k="natural" v="bay" />
		<tag k="ssr:stedsnr" v="562378" />
	</node>
	<node lat="67.88154444267592" lon="13.003091672609683" id="-11120">
		<tag k="name" v="Lamholmen" />
		<tag k="place" v="islet" />
		<tag k="ssr:stedsnr" v="562394" />
	</node>
	<node lat="67.88467499752645" lon="12.739383344057183" id="-11121">
		<tag k="name" v="Sandvoksterskallan" />
		<tag k="natural" v="shoal" />
		<tag k="place" v="locality" />
		<tag k="ssr:stedsnr" v="562398" />
	</node>
	<node lat="67.8784555541053" lon="13.066838890821222" id="-11122">
		<tag k="name" v="Ufsskallen" />
		<tag k="natural" v="shoal" />
		<tag k="place" v="locality" />
		<tag k="ssr:stedsnr" v="562418" />
	</node>
	<node lat="67.85729444204037" lon="12.762894438287985" id="-11124">
		<tag k="name" v="Truskallen" />
=======
	<node id="-208570" lat="68.0309861083" lon="12.9875722154">
		<tag k="name" v="Skarverodden" />
		<tag k="natural" v="cape" />
		<tag k="ssr:stedsnr" v="232084" />
	</node>
	<node id="-208569" lat="68.0074805528" lon="12.9541805641">
		<tag k="name" v="Skjelvodden" />
		<tag k="natural" v="cape" />
		<tag k="ssr:stedsnr" v="232081" />
	</node>
	<node id="-209080" lat="67.9836555553" lon="12.9181000003">
		<tag k="name" v="Kalkunnesbåen" />
		<tag k="natural" v="shoal" />
		<tag k="place" v="locality" />
		<tag k="ssr:stedsnr" v="653556" />
	</node>
	<node id="-208567" lat="67.9300555582" lon="13.0819722138">
		<tag k="name" v="Hesthaugen" />
		<tag k="natural" v="cape" />
		<tag k="ssr:stedsnr" v="231448" />
	</node>
	<node id="-208566" lat="67.8246805556" lon="12.8284972303">
		<tag k="name" v="Seiflua" />
>>>>>>> e1d4bc35ff8a6074a6f2e91616a996b547c36f15
		<tag k="natural" v="shoal" />
		<tag k="place" v="locality" />
		<tag k="ssr:stedsnr" v="562426" />
	</node>
<<<<<<< HEAD
	<node lat="67.94758611398692" lon="13.15291389444631" id="-11125">
		<tag k="name" v="Korten" />
		<tag k="place" v="islet" />
		<tag k="ssr:stedsnr" v="562484" />
	</node>
	<node lat="67.81015277439035" lon="12.777550003104482" id="-11126">
		<tag k="bay" v="fjord" />
		<tag k="name" v="Moskstraumen" />
		<tag k="natural" v="bay" />
		<tag k="ssr:stedsnr" v="563083" />
	</node>
	<node lat="67.97169999605659" lon="12.911386104609944" id="-11129">
		<tag k="name" v="Skarvsteinen" />
		<tag k="natural" v="cape" />
		<tag k="ssr:stedsnr" v="563441" />
	</node>
	<node lat="67.95877221940685" lon="13.103497230474138" id="-11131">
		<tag k="bay" v="fjord" />
		<tag k="name" v="Vorfjorden" />
		<tag k="natural" v="bay" />
		<tag k="ssr:stedsnr" v="563458" />
	</node>
	<node lat="67.95053610764187" lon="13.070555561790439" id="-11132">
		<tag k="alt_name" v="Olstindodden" />
		<tag k="name" v="Olstindneset" />
		<tag k="natural" v="cape" />
		<tag k="ssr:stedsnr" v="563465" />
	</node>
	<node lat="67.88515832942299" lon="12.849502765314313" id="-11138">
		<tag k="alt_name" v="Drågvika" />
		<tag k="name" v="Draugvika" />
=======
	<node id="-208565" lat="67.8929472237" lon="12.8389194469">
		<tag k="name" v="Grasholmen" />
		<tag k="place" v="islet" />
		<tag k="ssr:stedsnr" v="17426" />
	</node>
	<node id="-208564" lat="67.8969277775" lon="13.0488111178">
		<tag k="name" v="Tjeldskjeret" />
		<tag k="place" v="islet" />
		<tag k="ssr:stedsnr" v="17422" />
	</node>
	<node id="-208563" lat="67.9035805513" lon="12.8475222327">
		<tag k="fixme" v="consider seamark:type=rock or natural=shoal" />
		<tag k="name" v="Smalskjeret" />
		<tag k="place" v="islet" />
		<tag k="ssr:stedsnr" v="17420" />
	</node>
	<node id="-209073" lat="67.945391669" lon="12.9148611117">
		<tag k="name" v="Saubukta" />
>>>>>>> e1d4bc35ff8a6074a6f2e91616a996b547c36f15
		<tag k="natural" v="bay" />
		<tag k="ssr:stedsnr" v="622398" />
	</node>
<<<<<<< HEAD
	<node lat="67.9607250016237" lon="13.170205555183488" id="-11142">
=======
	<node id="-209072" lat="67.9607250016" lon="13.1702055552">
>>>>>>> e1d4bc35ff8a6074a6f2e91616a996b547c36f15
		<tag k="alt_name" v="Nakkmedan" />
		<tag k="name" v="Nakkmean" />
		<tag k="natural" v="shoal" />
		<tag k="place" v="locality" />
		<tag k="ssr:stedsnr" v="623490" />
	</node>
<<<<<<< HEAD
	<node lat="67.94539166899905" lon="12.91486111166077" id="-11143">
		<tag k="name" v="Saubukta" />
		<tag k="natural" v="bay" />
		<tag k="ssr:stedsnr" v="623491" />
	</node>
	<node lat="67.94839167020298" lon="13.001388885521406" id="-11145">
		<tag k="alt_name" v="Ternneset" />
		<tag k="name" v="Tennes" />
		<tag k="natural" v="cape" />
		<tag k="ssr:stedsnr" v="623497" />
	</node>
	<node lat="67.94109999922415" lon="12.979752774198783" id="-11146">
		<tag k="bay" v="fjord" />
		<tag k="name" v="Forsfjorden" />
		<tag k="natural" v="bay" />
		<tag k="ssr:stedsnr" v="623498" />
	</node>
	<node lat="67.89913333568718" lon="12.835980556519834" id="-11150">
=======
	<node id="-209071" lat="67.9656666626" lon="12.7548138898">
		<tag k="name" v="Hjellbergskallan" />
		<tag k="natural" v="shoal" />
		<tag k="place" v="locality" />
		<tag k="ssr:stedsnr" v="623470" />
	</node>
	<node id="-209070" lat="67.972208336" lon="12.7337638883">
		<tag k="name" v="Høgtindskallan" />
		<tag k="natural" v="shoal" />
		<tag k="place" v="locality" />
		<tag k="ssr:stedsnr" v="623457" />
	</node>
	<node id="-209068" lat="67.8991333357" lon="12.8359805565">
>>>>>>> e1d4bc35ff8a6074a6f2e91616a996b547c36f15
		<tag k="fixme" v="multiple name tags, choose one and add the other to alt_name" />
		<tag k="name" v="Flesa;Vedskjeret" />
		<tag k="place" v="islet" />
		<tag k="ssr:stedsnr" v="623402" />
	</node>
<<<<<<< HEAD
	<node lat="67.8742277769991" lon="12.976550002463354" id="-11151">
		<tag k="alt_name" v="Amundholmen" />
		<tag k="name" v="Amundsholmen" />
		<tag k="place" v="islet" />
		<tag k="ssr:stedsnr" v="623423" />
	</node>
	<node lat="67.85464722605006" lon="12.798966658684918" id="-11154">
		<tag k="name" v="Rundflesa" />
		<tag k="place" v="islet" />
		<tag k="ssr:stedsnr" v="623441" />
	</node>
	<node lat="67.97220833603889" lon="12.733763888294819" id="-11156">
		<tag k="name" v="Høgtindskallan" />
		<tag k="natural" v="shoal" />
		<tag k="place" v="locality" />
		<tag k="ssr:stedsnr" v="623457" />
	</node>
	<node lat="67.98365555532475" lon="12.918100000349009" id="-11157">
		<tag k="name" v="Kalkunnesbåen" />
		<tag k="natural" v="shoal" />
=======
	<node id="-209064" lat="67.8332194479" lon="12.8164111126">
		<tag k="name" v="Buvågen" />
		<tag k="natural" v="bay" />
		<tag k="ssr:stedsnr" v="623108" />
	</node>
	<node id="-209060" lat="67.8851583294" lon="12.8495027653">
		<tag k="alt_name" v="Drågvika" />
		<tag k="name" v="Draugvika" />
		<tag k="natural" v="bay" />
		<tag k="ssr:stedsnr" v="622398" />
	</node>
	<node id="-209059" lat="67.8351055552" lon="12.8211138851">
		<tag k="name" v="Hellsanden" />
		<tag k="natural" v="beach" />
>>>>>>> e1d4bc35ff8a6074a6f2e91616a996b547c36f15
		<tag k="place" v="locality" />
		<tag k="ssr:stedsnr" v="653556" />
	</node>
	<node lat="67.9384611099798" lon="13.109991657534728" id="-11158">
		<tag k="name" v="Øyodden" />
		<tag k="natural" v="cape" />
		<tag k="ssr:stedsnr" v="655372" />
	</node>
<<<<<<< HEAD
	<node lat="67.9364277766015" lon="13.102227768093568" id="-11159">
=======
	<node id="-209058" lat="67.8822106026" lon="12.9866011074">
>>>>>>> e1d4bc35ff8a6074a6f2e91616a996b547c36f15
		<tag k="fixme" v="consider seamark:type=rock or natural=shoal" />
		<tag k="name" v="Fiskarskjeret" />
		<tag k="place" v="islet" />
<<<<<<< HEAD
		<tag k="ssr:stedsnr" v="655373" />
	</node>
	<node lat="67.89039166244486" lon="13.03723332406495" id="-11161">
		<tag k="fixme" v="consider seamark:type=rock or natural=shoal" />
		<tag k="name" v="Vedskjeret" />
		<tag k="place" v="islet" />
		<tag k="ssr:stedsnr" v="657373" />
	</node>
	<node lat="67.88237777332873" lon="13.031086113807435" id="-11170">
		<tag k="name" v="Kråkhammeren" />
		<tag k="natural" v="cape" />
		<tag k="ssr:stedsnr" v="657657" />
	</node>
	<node lat="67.88180000290933" lon="13.027474993301233" id="-11171">
		<tag k="fixme" v="consider seamark:type=rock or natural=shoal" />
		<tag k="name" v="Skarvskuta" />
=======
		<tag k="ssr:stedsnr" v="596615" />
	</node>
	<node id="-209049" lat="67.9505361076" lon="13.0705555618">
		<tag k="alt_name" v="Olstindodden" />
		<tag k="name" v="Olstindneset" />
		<tag k="natural" v="cape" />
		<tag k="ssr:stedsnr" v="563465" />
	</node>
	<node id="-209048" lat="67.9587722194" lon="13.1034972305">
		<tag k="bay" v="fjord" />
		<tag k="name" v="Vorfjorden" />
		<tag k="natural" v="bay" />
		<tag k="ssr:stedsnr" v="563458" />
	</node>
	<node id="-209046" lat="67.9716999961" lon="12.9113861046">
		<tag k="name" v="Skarvsteinen" />
		<tag k="natural" v="cape" />
		<tag k="ssr:stedsnr" v="563441" />
	</node>
	<node id="-209043" lat="67.8101527744" lon="12.7775500031">
		<tag k="bay" v="fjord" />
		<tag k="name" v="Moskstraumen" />
		<tag k="natural" v="bay" />
		<tag k="ssr:stedsnr" v="563083" />
	</node>
	<node id="-209042" lat="67.947586114" lon="13.1529138944">
		<tag k="name" v="Korten" />
>>>>>>> e1d4bc35ff8a6074a6f2e91616a996b547c36f15
		<tag k="place" v="islet" />
		<tag k="ssr:stedsnr" v="657658" />
	</node>
<<<<<<< HEAD
	<node lat="67.88301111187825" lon="13.000722216771285" id="-11172">
		<tag k="name" v="Tindsleia" />
		<tag k="natural" v="strait" />
		<tag k="ssr:stedsnr" v="657662" />
	</node>
	<node lat="67.9418000005907" lon="13.11505554542441" id="-11173">
		<tag k="name" v="Rundkulten" />
		<tag k="natural" v="cape" />
		<tag k="ssr:stedsnr" v="716398" />
	</node>
	<node lat="67.9815916641579" lon="13.014641655122235" id="-11184">
		<tag k="fixme" v="consider seamark:type=rock or natural=shoal" />
		<tag k="name" v="Kobbsteinen" />
=======
	<node id="-209041" lat="67.8846749975" lon="12.7393833441">
		<tag k="name" v="Sandvoksterskallan" />
		<tag k="natural" v="shoal" />
		<tag k="place" v="locality" />
		<tag k="ssr:stedsnr" v="562398" />
	</node>
	<node id="-209040" lat="67.8815444427" lon="13.0030916726">
		<tag k="name" v="Lamholmen" />
>>>>>>> e1d4bc35ff8a6074a6f2e91616a996b547c36f15
		<tag k="place" v="islet" />
		<tag k="ssr:stedsnr" v="718094" />
	</node>
<<<<<<< HEAD
	<node lat="67.94839999950847" lon="13.136522227493455" id="-11194">
		<tag k="name" v="Skagen" />
		<tag k="natural" v="cape" />
		<tag k="ssr:stedsnr" v="777420" />
	</node>
	<node lat="67.89561944481372" lon="13.038547212287552" id="-11201">
		<tag k="name" v="Løktodden" />
		<tag k="natural" v="cape" />
		<tag k="ssr:stedsnr" v="778342" />
	</node>
	<node lat="67.88280555360139" lon="12.993255551085797" id="-11203">
=======
	<node id="-209038" lat="67.9054749969" lon="13.0558055616">
		<tag k="name" v="Seljevika" />
		<tag k="natural" v="bay" />
		<tag k="ssr:stedsnr" v="562378" />
	</node>
	<node id="-209035" lat="67.8338527737" lon="12.7891333284">
>>>>>>> e1d4bc35ff8a6074a6f2e91616a996b547c36f15
		<tag k="fixme" v="consider seamark:type=rock or natural=shoal" />
		<tag k="name" v="Olaskjeret" />
		<tag k="place" v="islet" />
		<tag k="ssr:stedsnr" v="778628" />
	</node>
<<<<<<< HEAD
	<node lat="67.87222499784649" lon="12.970708324097664" id="-11209">
		<tag k="name" v="Andstabbflua" />
		<tag k="natural" v="shoal" />
		<tag k="place" v="locality" />
		<tag k="ssr:stedsnr" v="805426" />
	</node>
	<node lat="67.86497778013441" lon="12.990486099798146" id="-11210">
		<tag k="name" v="Kalvskinnskallen" />
=======
	<node id="-209034" lat="67.8479245442" lon="12.8430003243">
		<tag k="alt_name" v="Revsvika" />
		<tag k="name" v="Refsvika" />
		<tag k="natural" v="bay" />
		<tag k="ssr:stedsnr" v="562065" />
	</node>
	<node id="-208919" lat="67.8818111066" lon="12.9886250049">
		<tag k="fixme" v="consider seamark:type=rock or natural=shoal" />
		<tag k="name" v="Skarvskjeret" />
		<tag k="place" v="islet" />
		<tag k="ssr:stedsnr" v="171671" />
	</node>
	<node id="-209031" lat="68.0110833294" lon="12.7890083364">
		<tag k="name" v="Floskallan" />
>>>>>>> e1d4bc35ff8a6074a6f2e91616a996b547c36f15
		<tag k="natural" v="shoal" />
		<tag k="place" v="locality" />
		<tag k="ssr:stedsnr" v="805435" />
	</node>
<<<<<<< HEAD
	<node lat="67.84163888862227" lon="12.892583322888735" id="-11215">
		<tag k="name" v="Ståkja" />
		<tag k="natural" v="shoal" />
		<tag k="place" v="locality" />
		<tag k="ssr:stedsnr" v="806077" />
	</node>
	<node lat="67.89250277405111" lon="13.042816676538282" id="-11222">
		<tag k="name" v="Kråka" />
		<tag k="place" v="islet" />
		<tag k="ssr:stedsnr" v="806387" />
	</node>
	<node lat="67.96280277387827" lon="13.16333334328514" id="-11225">
		<tag k="name" v="Akkarvika" />
		<tag k="natural" v="bay" />
		<tag k="ssr:stedsnr" v="806452" />
	</node>
	<node lat="67.92071389121374" lon="13.101605565579506" id="-11226">
		<tag k="name" v="Purkskallen" />
		<tag k="natural" v="shoal" />
		<tag k="place" v="locality" />
		<tag k="ssr:stedsnr" v="836500" />
	</node>
	<node lat="67.9677861070223" lon="13.10874999283794" id="-11232">
		<tag k="name" v="Bjørnvika" />
=======
	<node id="-209089" lat="67.9411166677" lon="13.0905888972">
		<tag k="name" v="Andøya" />
		<tag k="place" v="island" />
		<tag k="ssr:stedsnr" v="745474" />
	</node>
	<node id="-209021" lat="67.9446611083" lon="13.134411105">
		<tag k="name" v="Sørøya" />
		<tag k="natural" v="cape" />
		<tag k="ssr:stedsnr" v="534382" />
	</node>
	<node id="-209020" lat="67.945169447" lon="13.1298527719">
		<tag k="name" v="Breisundet" />
		<tag k="natural" v="strait" />
		<tag k="ssr:stedsnr" v="534377" />
	</node>
	<node id="-209014" lat="67.8875694449" lon="13.0087472171">
		<tag k="name" v="Lortvika" />
>>>>>>> e1d4bc35ff8a6074a6f2e91616a996b547c36f15
		<tag k="natural" v="bay" />
		<tag k="ssr:stedsnr" v="839446" />
	</node>
<<<<<<< HEAD
	<node lat="67.82715555291571" lon="12.791613899433727" id="-11235">
		<tag k="name" v="Tørrfallet" />
		<tag k="natural" v="shoal" />
		<tag k="place" v="locality" />
		<tag k="ssr:stedsnr" v="866052" />
	</node>
	<node lat="67.83891389084926" lon="12.78003610723404" id="-11236">
		<tag k="name" v="Holmsundet" />
		<tag k="natural" v="strait" />
		<tag k="ssr:stedsnr" v="866058" />
	</node>
	<node lat="67.87644166669092" lon="13.003058337988579" id="-11240">
		<tag k="name" v="Grunnflaget" />
		<tag k="natural" v="shoal" />
		<tag k="place" v="locality" />
		<tag k="ssr:stedsnr" v="866391" />
	</node>
	<node lat="67.87624444559553" lon="12.8352111168089" id="-11241">
		<tag k="name" v="Krykkjeholmen" />
=======
	<node id="-209011" lat="67.8892416643" lon="13.0268666609">
		<tag k="name" v="Sørvågen" />
		<tag k="natural" v="bay" />
		<tag k="ssr:stedsnr" v="414352" />
	</node>
	<node id="-209004" lat="67.9590499994" lon="13.146841667">
		<tag k="name" v="Lilandsvika" />
		<tag k="natural" v="bay" />
		<tag k="ssr:stedsnr" v="413405" />
	</node>
	<node id="-209003" lat="67.841766665" lon="12.7789361144">
		<tag k="name" v="Nordholmen" />
>>>>>>> e1d4bc35ff8a6074a6f2e91616a996b547c36f15
		<tag k="place" v="islet" />
		<tag k="ssr:stedsnr" v="866394" />
	</node>
<<<<<<< HEAD
	<node lat="67.951097220238" lon="12.733397231065949" id="-11247">
		<tag k="name" v="Långeskallen" />
		<tag k="natural" v="shoal" />
		<tag k="place" v="locality" />
		<tag k="ssr:stedsnr" v="957537" />
	</node>
	<node lat="68.01795833177202" lon="12.970355565110417" id="-11249">
		<tag k="name" v="Mulvika" />
=======
	<node id="-209002" lat="67.8952527786" lon="13.0522027763">
		<tag k="name" v="Skjortbaken" />
		<tag k="natural" v="shoal" />
		<tag k="place" v="locality" />
		<tag k="ssr:stedsnr" v="411698" />
	</node>
	<node id="-209000" lat="67.957752776" lon="12.8941305447">
		<tag k="name" v="Hermannsdalsflesa" />
		<tag k="place" v="islet" />
		<tag k="ssr:stedsnr" v="381466" />
	</node>
	<node id="-208614" lat="67.8655500032" lon="12.8501972169">
		<tag k="name" v="Turtnbakkmulen" />
		<tag k="natural" v="cape" />
		<tag k="ssr:stedsnr" v="198405" />
	</node>
	<node id="-209169" lat="67.9154250005" lon="13.0746277822">
		<tag k="name" v="Naustvika" />
		<tag k="natural" v="bay" />
		<tag k="ssr:stedsnr" v="960388" />
	</node>
	<node id="-208998" lat="67.9762333361" lon="13.0245277861">
		<tag k="alt_name" v="Kirkefjorden" />
		<tag k="bay" v="fjord" />
		<tag k="name" v="Kjerkfjorden" />
>>>>>>> e1d4bc35ff8a6074a6f2e91616a996b547c36f15
		<tag k="natural" v="bay" />
		<tag k="ssr:stedsnr" v="960076" />
	</node>
<<<<<<< HEAD
	<node lat="68.02841388603466" lon="12.989061106803687" id="-11250">
		<tag k="name" v="Øya" />
		<tag k="natural" v="cape" />
		<tag k="ssr:stedsnr" v="960081" />
	</node>
	<node lat="67.85441944740644" lon="12.839647230087936" id="-11252">
		<tag k="name" v="Bakfjæra" />
		<tag k="natural" v="beach" />
		<tag k="ssr:stedsnr" v="960659" />
	</node>
	<node lat="67.91542500046539" lon="13.074627782223086" id="-11258">
		<tag k="name" v="Naustvika" />
		<tag k="natural" v="bay" />
		<tag k="ssr:stedsnr" v="960388" />
	</node>
	<node lat="67.9579416662284" lon="13.024019442671937" id="-11259">
		<tag k="name" v="Engelsnesodden" />
		<tag k="natural" v="cape" />
		<tag k="ssr:stedsnr" v="960421" />
=======
	<node id="-208992" lat="67.9131500042" lon="13.0775000107">
		<tag k="alt_name" v="Djupfjordbåen" />
		<tag k="name" v="Djupfjordbøan" />
		<tag k="natural" v="shoal" />
		<tag k="place" v="locality" />
		<tag k="ssr:stedsnr" v="381393" />
	</node>
	<node id="-208991" lat="67.996313891" lon="12.9568972243">
		<tag k="loc_name" v="Karisteinen" />
		<tag k="name" v="Skjelvsteinen" />
		<tag k="natural" v="cape" />
		<tag k="ssr:stedsnr" v="381312" />
	</node>
	<node id="-208990" lat="67.9181416661" lon="13.053619433">
		<tag k="bay" v="fjord" />
		<tag k="name" v="Djupfjorden" />
		<tag k="natural" v="bay" />
		<tag k="ssr:stedsnr" v="381184" />
	</node>
	<node id="-208989" lat="67.8234638888" lon="12.8213555447">
		<tag k="name" v="Moklakkan" />
		<tag k="place" v="islet" />
		<tag k="ssr:stedsnr" v="381095" />
	</node>
	<node id="-208988" lat="68.0341277774" lon="12.9850277879">
		<tag k="name" v="Tjeldsneset" />
		<tag k="natural" v="cape" />
		<tag k="ssr:stedsnr" v="381037" />
	</node>
	<node id="-209082" lat="67.93846111" lon="13.1099916575">
		<tag k="name" v="Øyodden" />
		<tag k="natural" v="cape" />
		<tag k="ssr:stedsnr" v="655372" />
	</node>
	<node id="-208986" lat="68.0931888932" lon="13.1000972188">
		<tag k="alt_name" v="Moskenesøy" />
		<tag k="name" v="Moskenesøya" />
		<tag k="place" v="island" />
		<tag k="ssr:stedsnr" v="380514" />
	</node>
	<node id="-208985" lat="67.9410916661" lon="13.1106361195">
		<tag k="name" v="Sakrisøya" />
		<tag k="place" v="islet" />
		<tag k="ssr:stedsnr" v="380511" />
	</node>
	<node id="-208983" lat="67.8642250023" lon="12.9249499926">
		<tag k="name" v="Nupen" />
		<tag k="natural" v="cape" />
		<tag k="ssr:stedsnr" v="380444" />
	</node>
	<node id="-208982" lat="67.8651999977" lon="12.9779944443">
		<tag k="alt_name" v="Håndskardskallen" />
		<tag k="name" v="Hornskardskallen" />
		<tag k="natural" v="shoal" />
		<tag k="place" v="locality" />
		<tag k="ssr:stedsnr" v="380443" />
	</node>
	<node id="-209081" lat="67.8530583367" lon="12.9185111125">
		<tag k="name" v="Båan" />
		<tag k="place" v="locality" />
		<tag k="seamark:type" v="rock" />
		<tag k="ssr:stedsnr" v="654695" />
	</node>
	<node id="-208980" lat="67.8830888876" lon="12.8282833402">
		<tag k="name" v="Krykkjeholmflua" />
		<tag k="natural" v="shoal" />
		<tag k="place" v="locality" />
		<tag k="ssr:stedsnr" v="380428" />
	</node>
	<node id="-208977" lat="67.9232472186" lon="12.8962138871">
		<tag k="alt_name" v="Ertnhellvika" />
		<tag k="name" v="Ertenhellvika" />
		<tag k="natural" v="bay" />
		<tag k="ssr:stedsnr" v="380389" />
	</node>
	<node id="-209165" lat="68.028413886" lon="12.9890611068">
		<tag k="name" v="Øya" />
		<tag k="natural" v="cape" />
		<tag k="ssr:stedsnr" v="960081" />
	</node>
	<node id="-208971" lat="67.9642583329" lon="12.9980611128">
		<tag k="name" v="Bonen" />
		<tag k="natural" v="cape" />
		<tag k="ssr:stedsnr" v="353427" />
	</node>
	<node id="-208969" lat="67.9094138879" lon="13.0706166741">
		<tag k="name" v="Steffennakken" />
		<tag k="natural" v="cape" />
		<tag k="ssr:stedsnr" v="353400" />
	</node>
	<node id="-208967" lat="67.8941444483" lon="13.0351805465">
		<tag k="name" v="Langnesbukta" />
		<tag k="natural" v="bay" />
		<tag k="ssr:stedsnr" v="353375" />
	</node>
	<node id="-208965" lat="67.8872944437" lon="13.041849996">
		<tag k="fixme" v="consider seamark:type=rock or natural=shoal" />
		<tag k="name" v="Fyrskjeran" />
		<tag k="place" v="islet" />
		<tag k="ssr:stedsnr" v="353369" />
	</node>
	<node id="-209077" lat="67.9423888885" lon="13.1269777695">
		<tag k="fixme" v="consider seamark:type=rock or natural=shoal" />
		<tag k="name" v="Flatskjeret" />
		<tag k="place" v="islet" />
		<tag k="ssr:stedsnr" v="623509" />
	</node>
	<node id="-208956" lat="67.9351250026" lon="13.0974416611">
		<tag k="name" v="Steinleia" />
		<tag k="natural" v="shoal" />
		<tag k="place" v="locality" />
		<tag k="ssr:stedsnr" v="352369" />
	</node>
	<node id="-209162" lat="67.8594055548" lon="12.9752722118">
		<tag k="name" v="Indre Grunnskallen" />
		<tag k="natural" v="shoal" />
		<tag k="place" v="locality" />
		<tag k="ssr:stedsnr" v="957723" />
	</node>
	<node id="-208954" lat="67.8571722191" lon="12.9689249888">
		<tag k="name" v="Indre Rødliskallen" />
		<tag k="natural" v="shoal" />
		<tag k="place" v="locality" />
		<tag k="ssr:stedsnr" v="350697" />
	</node>
	<node id="-208953" lat="67.9385249984" lon="13.1143777859">
		<tag k="alt_name" v="Olnilsøya" />
		<tag k="name" v="Olenilsøya" />
		<tag k="place" v="island" />
		<tag k="ssr:stedsnr" v="320480" />
	</node>
	<node id="-209076" lat="67.9410999992" lon="12.9797527742">
		<tag k="bay" v="fjord" />
		<tag k="name" v="Forsfjorden" />
		<tag k="natural" v="bay" />
		<tag k="ssr:stedsnr" v="623498" />
	</node>
	<node id="-209161" lat="67.8591250027" lon="12.9672083311">
		<tag k="name" v="Øvre Rødliskallen" />
		<tag k="natural" v="shoal" />
		<tag k="place" v="locality" />
		<tag k="ssr:stedsnr" v="957721" />
	</node>
	<node id="-209075" lat="67.9483916702" lon="13.0013888855">
		<tag k="alt_name" v="Ternneset" />
		<tag k="name" v="Tennes" />
		<tag k="natural" v="cape" />
		<tag k="ssr:stedsnr" v="623497" />
	</node>
	<node id="-208944" lat="67.9941249959" lon="12.931319433">
		<tag k="name" v="Kariskallen" />
		<tag k="natural" v="shoal" />
		<tag k="place" v="locality" />
		<tag k="ssr:stedsnr" v="320296" />
	</node>
	<node id="-209160" lat="67.9510972202" lon="12.7333972311">
		<tag k="name" v="Långeskallen" />
		<tag k="natural" v="shoal" />
		<tag k="place" v="locality" />
		<tag k="ssr:stedsnr" v="957537" />
	</node>
	<node id="-208941" lat="67.8251333366" lon="12.811450011">
		<tag k="name" v="Reidsundet" />
		<tag k="natural" v="strait" />
		<tag k="ssr:stedsnr" v="320082" />
	</node>
	<node id="-208939" lat="67.8350305544" lon="12.8445416567">
		<tag k="name" v="Lofotodden" />
		<tag k="natural" v="cape" />
		<tag k="ssr:stedsnr" v="320068" />
	</node>
	<node id="-208937" lat="67.8607611092" lon="12.8146333425">
		<tag k="name" v="Steinen" />
		<tag k="natural" v="shoal" />
		<tag k="place" v="locality" />
		<tag k="ssr:stedsnr" v="319408" />
	</node>
	<node id="-208934" lat="67.90599167" lon="12.8675444449">
		<tag k="name" v="Bukkhammaren" />
		<tag k="natural" v="cape" />
		<tag k="ssr:stedsnr" v="199394" />
	</node>
	<node id="-208931" lat="67.9460444424" lon="13.1637555485">
		<tag k="name" v="Kortskallen" />
		<tag k="natural" v="shoal" />
		<tag k="place" v="locality" />
		<tag k="ssr:stedsnr" v="199479" />
	</node>
	<node id="-208930" lat="67.9447499963" lon="13.1180750004">
		<tag k="bay" v="fjord" />
		<tag k="name" v="Reinefjorden" />
		<tag k="natural" v="bay" />
		<tag k="ssr:stedsnr" v="199474" />
	</node>
	<node id="-208929" lat="67.946294443" lon="13.1385277681">
		<tag k="name" v="Rundkulten" />
		<tag k="place" v="island" />
		<tag k="ssr:stedsnr" v="199473" />
	</node>
	<node id="-208926" lat="67.928383336" lon="13.0858333264">
		<tag k="name" v="Reinehalsen" />
		<tag k="place" v="locality" />
		<tag k="ssr:stedsnr" v="199384" />
	</node>
	<node id="-208925" lat="67.9514722251" lon="13.2074472118">
		<tag k="bay" v="fjord" />
		<tag k="name" v="Kåsa" />
		<tag k="natural" v="bay" />
		<tag k="ssr:stedsnr" v="199180" />
	</node>
	<node id="-208923" lat="68.0243249976" lon="12.9839055664">
		<tag k="name" v="Horseidvika" />
		<tag k="natural" v="bay" />
		<tag k="ssr:stedsnr" v="199024" />
	</node>
	<node id="-209094" lat="67.9483999995" lon="13.1365222275">
		<tag k="name" v="Skagen" />
		<tag k="natural" v="cape" />
		<tag k="ssr:stedsnr" v="777420" />
	</node>
	<node id="-208914" lat="67.8863694469" lon="13.0100194433">
		<tag k="name" v="Flathaugholmen" />
		<tag k="place" v="islet" />
		<tag k="ssr:stedsnr" v="171349" />
	</node>
	<node id="-208913" lat="67.8932930577" lon="13.0368380367">
		<tag k="name" v="Oddan" />
		<tag k="natural" v="cape" />
		<tag k="ssr:stedsnr" v="171332" />
	</node>
	<node id="-208902" lat="67.9436527819" lon="13.1374833443">
		<tag k="fixme" v="consider seamark:type=rock or natural=shoal" />
		<tag k="name" v="Skarven" />
		<tag k="place" v="islet" />
		<tag k="ssr:stedsnr" v="138490" />
	</node>
	<node id="-209153" lat="67.8764416667" lon="13.003058338">
		<tag k="name" v="Grunnflaget" />
		<tag k="natural" v="shoal" />
		<tag k="place" v="locality" />
		<tag k="ssr:stedsnr" v="866391" />
	</node>
	<node id="-208900" lat="67.9562361089" lon="12.8325361062">
		<tag k="name" v="Småskallan" />
		<tag k="natural" v="shoal" />
		<tag k="place" v="locality" />
		<tag k="ssr:stedsnr" v="138469" />
	</node>
	<node id="-208898" lat="67.8961722195" lon="13.0451972211">
		<tag k="name" v="Holmen" />
		<tag k="place" v="islet" />
		<tag k="ssr:stedsnr" v="138408" />
	</node>
	<node id="-208897" lat="67.9060166643" lon="12.7363027712">
		<tag k="name" v="Finningen" />
		<tag k="natural" v="shoal" />
		<tag k="place" v="locality" />
		<tag k="ssr:stedsnr" v="138403" />
>>>>>>> e1d4bc35ff8a6074a6f2e91616a996b547c36f15
	</node>
</osm>
