<?xml version="1.0" encoding="UTF-8"?>
<<<<<<< HEAD
<osm version="0.6" generator="osmapis">
	<node lat="67.90797777674887" lon="13.002808341034118" id="-10688">
		<tag k="name" v="Tridalsvatnet" />
		<tag k="natural" v="water" />
		<tag k="ssr:stedsnr" v="259374" />
	</node>
	<node lat="67.88624722613173" lon="12.962788899172422" id="-10709">
		<tag k="name" v="Kamvika" />
		<tag k="natural" v="bay" />
		<tag k="ssr:stedsnr" v="232335" />
	</node>
	<node lat="67.8852555564893" lon="12.971863883994455" id="-10711">
		<tag k="name" v="Tjønn-tjønna" />
		<tag k="natural" v="water" />
		<tag k="ssr:stedsnr" v="232337" />
	</node>
	<node lat="67.94078055391873" lon="12.959541677977967" id="-10723">
=======
<osm generator="osmapis" version="0.6">
	<node id="-209152" lat="67.8929833338" lon="12.8763361176">
		<tag k="name" v="Stokkvikvatnet" />
		<tag k="natural" v="water" />
		<tag k="ssr:stedsnr" v="866379" />
	</node>
	<node id="-208638" lat="67.9647111119" lon="13.1490666586">
		<tag k="fixme" v="multiple name tags, choose one and add the other to alt_name" />
		<tag k="name" v="Hamnøyvatnet;Vassdalsvatnet" />
		<tag k="natural" v="water" />
		<tag k="ssr:stedsnr" v="442470" />
	</node>
	<node id="-209109" lat="67.9280361113" lon="13.0343111057">
		<tag k="alt_name" v="Austredalsvatnet" />
		<tag k="name" v="Austerdalsvatnet" />
		<tag k="natural" v="water" />
		<tag k="ssr:stedsnr" v="805382" />
	</node>
	<node id="-208635" lat="67.9805333309" lon="13.0507611029">
		<tag k="name" v="Forssandvatnet" />
		<tag k="natural" v="water" />
		<tag k="ssr:stedsnr" v="442447" />
	</node>
	<node id="-208852" lat="67.8868916681" lon="12.9511444497">
		<tag k="name" v="Storlihaugen" />
		<tag k="natural" v="cape" />
		<tag k="ssr:stedsnr" v="50342" />
	</node>
	<node id="-208745" lat="67.8815166659" lon="12.9718805655">
		<tag k="name" v="Båstavika" />
		<tag k="natural" v="bay" />
		<tag k="ssr:stedsnr" v="717655" />
	</node>
	<node id="-209010" lat="67.8833166661" lon="12.9475222159">
		<tag k="name" v="Kokarneset" />
		<tag k="natural" v="cape" />
		<tag k="ssr:stedsnr" v="414335" />
	</node>
	<node id="-209137" lat="67.887230556" lon="12.9605388822">
		<tag k="name" v="Fagervika" />
		<tag k="natural" v="bay" />
		<tag k="ssr:stedsnr" v="839358" />
	</node>
	<node id="-208880" lat="67.8914500034" lon="13.0144222259">
		<tag k="name" v="Neset" />
		<tag k="natural" v="cape" />
		<tag k="ssr:stedsnr" v="111360" />
	</node>
	<node id="-208878" lat="67.8816749977" lon="12.9319111085">
		<tag k="name" v="Bjørnbåsan" />
		<tag k="natural" v="cape" />
		<tag k="ssr:stedsnr" v="111342" />
	</node>
	<node id="-209106" lat="67.8838527771" lon="12.9857499943">
		<tag k="name" v="Åkervika" />
		<tag k="natural" v="bay" />
		<tag k="ssr:stedsnr" v="778641" />
	</node>
	<node id="-208618" lat="67.8930583354" lon="13.0119805659">
		<tag k="name" v="Fuglneset" />
		<tag k="natural" v="cape" />
		<tag k="ssr:stedsnr" v="293412" />
	</node>
	<node id="-209001" lat="67.9570138897" lon="12.9257305596">
		<tag k="alt_name" v="Hermannsdalvatnet" />
		<tag k="name" v="Hermannsdalsvatnet" />
		<tag k="natural" v="water" />
		<tag k="ssr:stedsnr" v="381468" />
	</node>
	<node id="-208613" lat="68.0144944428" lon="12.9927166693">
		<tag k="name" v="Stielva" />
		<tag k="ssr:stedsnr" v="293107" />
		<tag k="waterway" v="river" />
	</node>
	<node id="-209124" lat="67.9723722221" lon="13.1652333245">
		<tag k="name" v="Ølkona" />
		<tag k="ssr:stedsnr" v="806442" />
		<tag k="waterway" v="stream" />
	</node>
	<node id="-208607" lat="67.9407805539" lon="12.959541678">
>>>>>>> e1d4bc35ff8a6074a6f2e91616a996b547c36f15
		<tag k="name" v="Litlforsvatnet" />
		<tag k="natural" v="water" />
		<tag k="ssr:stedsnr" v="260502" />
	</node>
<<<<<<< HEAD
	<node lat="67.89305833538099" lon="13.011980565944118" id="-10728">
		<tag k="name" v="Fuglneset" />
		<tag k="natural" v="cape" />
		<tag k="ssr:stedsnr" v="293412" />
	</node>
	<node lat="67.85678333159194" lon="12.890133344668827" id="-10739">
		<tag k="alt_name" v="Ånnstadvatnet" />
		<tag k="name" v="Ånstadvatnet" />
=======
	<node id="-208987" lat="67.9261749976" lon="12.9556416673">
		<tag k="name" v="Krokvatnet" />
>>>>>>> e1d4bc35ff8a6074a6f2e91616a996b547c36f15
		<tag k="natural" v="water" />
		<tag k="ssr:stedsnr" v="320433" />
	</node>
<<<<<<< HEAD
	<node lat="67.95602222635739" lon="12.958786122409087" id="-10745">
		<tag k="alt_name" v="Øvrevatnet" />
		<tag k="name" v="Øvervatnet" />
=======
	<node id="-208750" lat="67.893305558" lon="13.0157166706">
		<tag k="name" v="Sørvågvatnet" />
		<tag k="natural" v="water" />
		<tag k="ssr:stedsnr" v="623406" />
	</node>
	<node id="-209103" lat="67.8954861126" lon="13.0099833255">
		<tag k="name" v="Olaelva" />
		<tag k="ssr:stedsnr" v="778351" />
		<tag k="waterway" v="river" />
	</node>
	<node id="-208727" lat="67.9753611087" lon="13.1078055635">
		<tag k="alt_name" v="Austrevatnet" />
		<tag k="name" v="Austervatnet" />
>>>>>>> e1d4bc35ff8a6074a6f2e91616a996b547c36f15
		<tag k="natural" v="water" />
		<tag k="ssr:stedsnr" v="320461" />
	</node>
<<<<<<< HEAD
	<node lat="67.88215277935474" lon="12.965163877350024" id="-10756">
		<tag k="name" v="Grytvika" />
=======
	<node id="-208853" lat="67.8867138868" lon="12.9417722252">
		<tag k="name" v="Heimer-Torshaugvika" />
>>>>>>> e1d4bc35ff8a6074a6f2e91616a996b547c36f15
		<tag k="natural" v="bay" />
		<tag k="ssr:stedsnr" v="353654" />
	</node>
<<<<<<< HEAD
	<node lat="68.0108944404482" lon="12.996030553779239" id="-10758">
		<tag k="name" v="Litlvatnet" />
		<tag k="natural" v="water" />
		<tag k="ssr:stedsnr" v="475085" />
	</node>
	<node lat="67.89114166996603" lon="13.019305554174517" id="-10764">
		<tag k="name" v="Åkerneset" />
		<tag k="natural" v="cape" />
		<tag k="ssr:stedsnr" v="475380" />
	</node>
	<node lat="67.9261749976465" lon="12.955641667313582" id="-10771">
		<tag k="name" v="Krokvatnet" />
		<tag k="natural" v="water" />
		<tag k="ssr:stedsnr" v="380517" />
		<tag k="water" v="lake" />
	</node>
	<node lat="67.88331666608681" lon="12.947522215933004" id="-10780">
		<tag k="name" v="Kokarneset" />
=======
	<node id="-208596" lat="67.9079777767" lon="13.002808341">
		<tag k="name" v="Tridalsvatnet" />
		<tag k="natural" v="water" />
		<tag k="ssr:stedsnr" v="259374" />
	</node>
	<node id="-208723" lat="67.8424972257" lon="12.8802555562">
		<tag k="name" v="Tuvvatnet" />
		<tag k="natural" v="water" />
		<tag k="ssr:stedsnr" v="684087" />
	</node>
	<node id="-208850" lat="67.8820861122" lon="12.9247694565">
		<tag k="name" v="Melkarsanden" />
>>>>>>> e1d4bc35ff8a6074a6f2e91616a996b547c36f15
		<tag k="natural" v="cape" />
		<tag k="ssr:stedsnr" v="414335" />
	</node>
<<<<<<< HEAD
	<node lat="67.98053333089695" lon="13.050761102850197" id="-10789">
		<tag k="name" v="Forssandvatnet" />
		<tag k="natural" v="water" />
		<tag k="ssr:stedsnr" v="442447" />
	</node>
	<node lat="68.00849444598549" lon="12.99910832319683" id="-10800">
		<tag k="fixme" v="multiple name tags, choose one and add the other to alt_name" />
		<tag k="name" v="Horseidvatnet;Storvatnet" />
		<tag k="natural" v="water" />
		<tag k="ssr:stedsnr" v="502035" />
	</node>
	<node lat="67.89134166480788" lon="13.000349989868337" id="-10803">
		<tag k="name" v="Tindsvatnet" />
		<tag k="natural" v="water" />
		<tag k="ssr:stedsnr" v="502406" />
	</node>
	<node lat="67.914574999012" lon="13.01256388152157" id="-10806">
		<tag k="name" v="Kjølvatna" />
		<tag k="natural" v="water" />
		<tag k="ssr:stedsnr" v="502385" />
	</node>
	<node lat="67.84249722570918" lon="12.880255556207551" id="-10817">
		<tag k="name" v="Tuvvatnet" />
		<tag k="natural" v="water" />
		<tag k="ssr:stedsnr" v="684087" />
	</node>
	<node lat="67.97536110870006" lon="13.107805563456537" id="-10821">
		<tag k="alt_name" v="Austrevatnet" />
		<tag k="name" v="Austervatnet" />
		<tag k="natural" v="water" />
		<tag k="ssr:stedsnr" v="684451" />
	</node>
	<node lat="67.89330555802081" lon="13.015716670606766" id="-10842">
		<tag k="name" v="Sørvågvatnet" />
		<tag k="natural" v="water" />
		<tag k="ssr:stedsnr" v="623406" />
	</node>
	<node lat="67.92894167068148" lon="12.950844453531188" id="-10853">
=======
	<node id="-208847" lat="67.9461333297" lon="12.9536666596">
		<tag k="name" v="Kringeldalsvatn" />
		<tag k="natural" v="water" />
		<tag k="ssr:stedsnr" v="17496" />
	</node>
	<node id="-208974" lat="67.8821527794" lon="12.9651638774">
		<tag k="name" v="Grytvika" />
		<tag k="natural" v="bay" />
		<tag k="ssr:stedsnr" v="353654" />
	</node>
	<node id="-209098" lat="67.8906611112" lon="12.885200007">
		<tag k="name" v="Neset" />
		<tag k="natural" v="cape" />
		<tag k="ssr:stedsnr" v="778298" />
	</node>
	<node id="-208951" lat="67.9560222264" lon="12.9587861224">
		<tag k="alt_name" v="Øvrevatnet" />
		<tag k="name" v="Øvervatnet" />
		<tag k="natural" v="water" />
		<tag k="ssr:stedsnr" v="320461" />
	</node>
	<node id="-208964" lat="67.8875249977" lon="12.9329083304">
		<tag k="name" v="Inner-Torshaugvika" />
		<tag k="natural" v="bay" />
		<tag k="ssr:stedsnr" v="353365" />
	</node>
	<node id="-208963" lat="67.8855888916" lon="12.9658166645">
		<tag k="name" v="Bulvika" />
		<tag k="natural" v="bay" />
		<tag k="ssr:stedsnr" v="353359" />
	</node>
	<node id="-208706" lat="67.9289416707" lon="12.9508444535">
>>>>>>> e1d4bc35ff8a6074a6f2e91616a996b547c36f15
		<tag k="name" v="Krokvegneset" />
		<tag k="natural" v="cape" />
		<tag k="ssr:stedsnr" v="657297" />
	</node>
<<<<<<< HEAD
	<node lat="67.88871666320772" lon="13.002263885758158" id="-10867">
		<tag k="name" v="Tindselva" />
		<tag k="ssr:stedsnr" v="717384" />
		<tag k="waterway" v="river" />
	</node>
	<node lat="67.96981666572371" lon="13.167438892117495" id="-10869">
		<tag k="name" v="Ølkonvatnet" />
=======
	<node id="-208576" lat="67.8852555565" lon="12.971863884">
		<tag k="name" v="Tjønn-tjønna" />
		<tag k="natural" v="water" />
		<tag k="ssr:stedsnr" v="232337" />
	</node>
	<node id="-208574" lat="67.8862472261" lon="12.9627888992">
		<tag k="name" v="Kamvika" />
		<tag k="natural" v="bay" />
		<tag k="ssr:stedsnr" v="232335" />
	</node>
	<node id="-208700" lat="67.8913416648" lon="13.0003499899">
		<tag k="name" v="Tindsvatnet" />
>>>>>>> e1d4bc35ff8a6074a6f2e91616a996b547c36f15
		<tag k="natural" v="water" />
		<tag k="ssr:stedsnr" v="717425" />
		<tag k="water" v="lake" />
	</node>
<<<<<<< HEAD
	<node lat="67.89202222072879" lon="13.022272221737712" id="-10875">
		<tag k="name" v="Svinneset" />
		<tag k="natural" v="cape" />
		<tag k="ssr:stedsnr" v="900376" />
	</node>
	<node lat="67.91753055299661" lon="12.993888879031367" id="-10881">
		<tag k="alt_name" v="Fjerdedalsvatnet" />
		<tag k="name" v="Fjerddalsvatnet" />
		<tag k="natural" v="water" />
		<tag k="ssr:stedsnr" v="745405" />
	</node>
	<node lat="67.89548611259781" lon="13.009983325486775" id="-10890">
		<tag k="name" v="Olaelva" />
		<tag k="ssr:stedsnr" v="778351" />
		<tag k="waterway" v="river" />
	</node>
	<node lat="67.90209166395181" lon="13.006916659421313" id="-10897">
=======
	<node id="-209107" lat="67.8826388925" lon="12.9554527891">
		<tag k="name" v="Rasmussvika" />
		<tag k="natural" v="bay" />
		<tag k="ssr:stedsnr" v="778647" />
	</node>
	<node id="-208695" lat="67.914574999" lon="13.0125638815">
		<tag k="name" v="Kjølvatna" />
		<tag k="natural" v="water" />
		<tag k="ssr:stedsnr" v="502385" />
	</node>
	<node id="-208821" lat="67.902091664" lon="13.0069166594">
>>>>>>> e1d4bc35ff8a6074a6f2e91616a996b547c36f15
		<tag k="name" v="Badevika" />
		<tag k="natural" v="bay" />
		<tag k="ssr:stedsnr" v="837525" />
	</node>
<<<<<<< HEAD
	<node lat="67.88486111333962" lon="12.951691661618396" id="-10908">
		<tag k="alt_name" v="Åvatnet;Å-vatnet" />
		<tag k="name" v="Ågvatnet" />
=======
	<node id="-208945" lat="67.8567833316" lon="12.8901333447">
		<tag k="alt_name" v="Ånnstadvatnet" />
		<tag k="name" v="Ånstadvatnet" />
>>>>>>> e1d4bc35ff8a6074a6f2e91616a996b547c36f15
		<tag k="natural" v="water" />
		<tag k="ssr:stedsnr" v="926387" />
		<tag k="water" v="lake" />
	</node>
	<node lat="67.88283611045637" lon="12.949905545389637" id="-10927">
		<tag k="name" v="Kjerstihola" />
		<tag k="natural" v="bay" />
		<tag k="ssr:stedsnr" v="900352" />
	</node>
<<<<<<< HEAD
	<node lat="67.902033332303" lon="12.944111108862403" id="-10930">
		<tag k="name" v="Trolldalsvatnet" />
		<tag k="natural" v="water" />
		<tag k="ssr:stedsnr" v="927408" />
		<tag k="water" v="lake" />
	</node>
	<node lat="67.972194441681" lon="13.088741674890608" id="-10932">
=======
	<node id="-208816" lat="67.9721944417" lon="13.0887416749">
>>>>>>> e1d4bc35ff8a6074a6f2e91616a996b547c36f15
		<tag k="fixme" v="multiple name tags, choose one and add the other to alt_name" />
		<tag k="name" v="Festhælvatnet;Vestervatnet" />
		<tag k="natural" v="water" />
		<tag k="ssr:stedsnr" v="927465" />
	</node>
<<<<<<< HEAD
	<node lat="67.94613332971035" lon="12.953666659572859" id="-10954">
		<tag k="name" v="Kringeldalsvatn" />
=======
	<node id="-208687" lat="68.008494446" lon="12.9991083232">
		<tag k="fixme" v="multiple name tags, choose one and add the other to alt_name" />
		<tag k="name" v="Horseidvatnet;Storvatnet" />
>>>>>>> e1d4bc35ff8a6074a6f2e91616a996b547c36f15
		<tag k="natural" v="water" />
		<tag k="ssr:stedsnr" v="17496" />
	</node>
<<<<<<< HEAD
	<node lat="67.88208611221624" lon="12.924769456534841" id="-10960">
		<tag k="name" v="Melkarsanden" />
		<tag k="natural" v="cape" />
		<tag k="ssr:stedsnr" v="50329" />
	</node>
	<node lat="67.88689166808187" lon="12.951144449733988" id="-10962">
		<tag k="name" v="Storlihaugen" />
		<tag k="natural" v="cape" />
		<tag k="ssr:stedsnr" v="50342" />
	</node>
	<node lat="67.88671388679717" lon="12.94177222520312" id="-10963">
		<tag k="name" v="Heimer-Torshaugvika" />
		<tag k="natural" v="bay" />
		<tag k="ssr:stedsnr" v="50346" />
	</node>
	<node lat="67.88167499769064" lon="12.93191110849814" id="-10987">
		<tag k="name" v="Bjørnbåsan" />
		<tag k="natural" v="cape" />
		<tag k="ssr:stedsnr" v="111342" />
	</node>
	<node lat="67.891450003416" lon="13.014422225857462" id="-10989">
		<tag k="name" v="Neset" />
		<tag k="natural" v="cape" />
		<tag k="ssr:stedsnr" v="111360" />
	</node>
	<node lat="67.92937777715848" lon="12.990197225285838" id="-11023">
=======
	<node id="-208811" lat="67.9020333323" lon="12.9441111089">
		<tag k="name" v="Trolldalsvatnet" />
		<tag k="natural" v="water" />
		<tag k="ssr:stedsnr" v="927408" />
		<tag k="water" v="lake" />
	</node>
	<node id="-209066" lat="67.8999222258" lon="12.9954916746">
		<tag k="alt_name" v="Studalsvatnet" />
		<tag k="name" v="Stuvdalsvatnet" />
		<tag k="natural" v="water" />
		<tag k="ssr:stedsnr" v="623396" />
	</node>
	<node id="-208933" lat="67.9293777772" lon="12.9901972253">
>>>>>>> e1d4bc35ff8a6074a6f2e91616a996b547c36f15
		<tag k="alt_name" v="Ternnesvatnet" />
		<tag k="name" v="Tennesvatnet" />
		<tag k="natural" v="water" />
		<tag k="ssr:stedsnr" v="199491" />
		<tag k="water" v="lake" />
	</node>
<<<<<<< HEAD
	<node lat="68.0144944428285" lon="12.992716669280295" id="-11030">
		<tag k="name" v="Stielva" />
		<tag k="ssr:stedsnr" v="293107" />
		<tag k="waterway" v="river" />
	</node>
	<node lat="67.9329749968337" lon="13.059661120151674" id="-11041">
		<tag k="name" v="Reinevatnet" />
		<tag k="natural" v="water" />
		<tag k="ssr:stedsnr" v="320378" />
	</node>
	<node lat="67.90732222140693" lon="13.024438896655973" id="-11042">
=======
	<node id="-208675" lat="67.89114167" lon="13.0193055542">
		<tag k="name" v="Åkerneset" />
		<tag k="natural" v="cape" />
		<tag k="ssr:stedsnr" v="475380" />
	</node>
	<node id="-208802" lat="67.8848611133" lon="12.9516916616">
		<tag k="alt_name" v="Åvatnet;Å-vatnet" />
		<tag k="name" v="Ågvatnet" />
		<tag k="natural" v="water" />
		<tag k="ssr:stedsnr" v="926387" />
		<tag k="water" v="lake" />
	</node>
	<node id="-208666" lat="67.9073222214" lon="13.0244388967">
>>>>>>> e1d4bc35ff8a6074a6f2e91616a996b547c36f15
		<tag k="name" v="Moskenesvatnet" />
		<tag k="natural" v="water" />
		<tag k="ssr:stedsnr" v="320382" />
	</node>
<<<<<<< HEAD
	<node lat="67.88558889158115" lon="12.965816664503805" id="-11049">
		<tag k="name" v="Bulvika" />
		<tag k="natural" v="bay" />
		<tag k="ssr:stedsnr" v="353359" />
	</node>
	<node lat="67.88752499770295" lon="12.932908330402121" id="-11050">
		<tag k="name" v="Inner-Torshaugvika" />
		<tag k="natural" v="bay" />
		<tag k="ssr:stedsnr" v="353365" />
	</node>
	<node lat="67.90947777736932" lon="12.91442221956919" id="-11061">
		<tag k="alt_name" v="Mengedalsvatnet" />
		<tag k="name" v="Mengelsdalsvatnet" />
=======
	<node id="-208978" lat="67.9094777774" lon="12.9144222196">
		<tag k="alt_name" v="Mengedalsvatnet" />
		<tag k="name" v="Mengelsdalsvatnet" />
		<tag k="natural" v="water" />
		<tag k="ssr:stedsnr" v="380401" />
	</node>
	<node id="-208791" lat="67.917530553" lon="12.993888879">
		<tag k="alt_name" v="Fjerdedalsvatnet" />
		<tag k="name" v="Fjerddalsvatnet" />
>>>>>>> e1d4bc35ff8a6074a6f2e91616a996b547c36f15
		<tag k="natural" v="water" />
		<tag k="ssr:stedsnr" v="380401" />
	</node>
<<<<<<< HEAD
	<node lat="67.95701388973568" lon="12.92573055964903" id="-11075">
		<tag k="alt_name" v="Hermannsdalvatnet" />
		<tag k="name" v="Hermannsdalsvatnet" />
		<tag k="natural" v="water" />
		<tag k="ssr:stedsnr" v="381468" />
	</node>
	<node lat="67.97775000131266" lon="13.040858331034228" id="-11079">
		<tag k="name" v="Rostadforsen" />
		<tag k="natural" v="waterfall" />
		<tag k="ssr:stedsnr" v="414062" />
	</node>
	<node lat="67.96471111187961" lon="13.149066658613934" id="-11093">
		<tag k="fixme" v="multiple name tags, choose one and add the other to alt_name" />
		<tag k="name" v="Hamnøyvatnet;Vassdalsvatnet" />
=======
	<node id="-208665" lat="67.9329749968" lon="13.0596611202">
		<tag k="name" v="Reinevatnet" />
		<tag k="natural" v="water" />
		<tag k="ssr:stedsnr" v="320378" />
	</node>
	<node id="-208660" lat="68.0108944404" lon="12.9960305538">
		<tag k="name" v="Litlvatnet" />
>>>>>>> e1d4bc35ff8a6074a6f2e91616a996b547c36f15
		<tag k="natural" v="water" />
		<tag k="ssr:stedsnr" v="442470" />
	</node>
<<<<<<< HEAD
	<node lat="67.88381667055835" lon="12.974472223008071" id="-11109">
		<tag k="name" v="Nakkvika" />
		<tag k="natural" v="bay" />
		<tag k="ssr:stedsnr" v="535636" />
	</node>
	<node lat="67.87755555913176" lon="12.972708332948457" id="-11110">
		<tag k="name" v="Kråksloka" />
		<tag k="natural" v="bay" />
		<tag k="ssr:stedsnr" v="535640" />
	</node>
	<node lat="67.89992222582946" lon="12.995491674633328" id="-11148">
		<tag k="alt_name" v="Studalsvatnet" />
		<tag k="name" v="Stuvdalsvatnet" />
=======
	<node id="-209006" lat="67.9777500013" lon="13.040858331">
		<tag k="name" v="Rostadforsen" />
		<tag k="natural" v="waterfall" />
		<tag k="ssr:stedsnr" v="414062" />
	</node>
	<node id="-208786" lat="67.8828361105" lon="12.9499055454">
		<tag k="name" v="Kjerstihola" />
		<tag k="natural" v="bay" />
		<tag k="ssr:stedsnr" v="900352" />
	</node>
	<node id="-208784" lat="67.8920222207" lon="13.0222722217">
		<tag k="name" v="Svinneset" />
		<tag k="natural" v="cape" />
		<tag k="ssr:stedsnr" v="900376" />
	</node>
	<node id="-209167" lat="67.8851583351" lon="12.9663694392">
		<tag k="name" v="Bulvikhaugen" />
		<tag k="natural" v="cape" />
		<tag k="ssr:stedsnr" v="960325" />
	</node>
	<node id="-208778" lat="67.9698166657" lon="13.1674388921">
		<tag k="name" v="Ølkonvatnet" />
>>>>>>> e1d4bc35ff8a6074a6f2e91616a996b547c36f15
		<tag k="natural" v="water" />
		<tag k="ssr:stedsnr" v="623396" />
	</node>
<<<<<<< HEAD
	<node lat="67.89424444141315" lon="13.005377771870586" id="-11179">
		<tag k="name" v="Studalselva" />
		<tag k="ssr:stedsnr" v="717370" />
		<tag k="waterway" v="river" />
	</node>
	<node lat="67.88151666585817" lon="12.971880565547593" id="-11182">
		<tag k="name" v="Båstavika" />
		<tag k="natural" v="bay" />
		<tag k="ssr:stedsnr" v="717655" />
	</node>
	<node lat="67.89066111115164" lon="12.885200007029473" id="-11199">
		<tag k="name" v="Neset" />
		<tag k="natural" v="cape" />
		<tag k="ssr:stedsnr" v="778298" />
	</node>
	<node lat="67.88385277709013" lon="12.985749994338248" id="-11204">
		<tag k="name" v="Åkervika" />
=======
	<node id="-208775" lat="67.8887166632" lon="13.0022638858">
		<tag k="name" v="Tindselva" />
		<tag k="ssr:stedsnr" v="717384" />
		<tag k="waterway" v="river" />
	</node>
	<node id="-208774" lat="67.8942444414" lon="13.0053777719">
		<tag k="name" v="Studalselva" />
		<tag k="ssr:stedsnr" v="717370" />
		<tag k="waterway" v="river" />
	</node>
	<node id="-209157" lat="67.9689055559" lon="13.100802781">
		<tag k="name" v="Fløvatnet" />
		<tag k="natural" v="water" />
		<tag k="ssr:stedsnr" v="867479" />
	</node>
	<node id="-209027" lat="67.8775555591" lon="12.9727083329">
		<tag k="name" v="Kråksloka" />
>>>>>>> e1d4bc35ff8a6074a6f2e91616a996b547c36f15
		<tag k="natural" v="bay" />
		<tag k="ssr:stedsnr" v="778641" />
	</node>
<<<<<<< HEAD
	<node lat="67.88263889245644" lon="12.955452789066825" id="-11205">
		<tag k="name" v="Rasmussvika" />
		<tag k="natural" v="bay" />
		<tag k="ssr:stedsnr" v="778647" />
	</node>
	<node lat="67.9280361112661" lon="13.034311105700107" id="-11208">
		<tag k="alt_name" v="Austredalsvatnet" />
		<tag k="name" v="Austerdalsvatnet" />
		<tag k="natural" v="water" />
		<tag k="ssr:stedsnr" v="805382" />
	</node>
	<node lat="67.97237222212406" lon="13.165233324538924" id="-11221">
		<tag k="name" v="Ølkona" />
		<tag k="ssr:stedsnr" v="806442" />
		<tag k="waterway" v="stream" />
	</node>
	<node lat="67.88723055600904" lon="12.96053888219742" id="-11230">
		<tag k="name" v="Fagervika" />
		<tag k="natural" v="bay" />
		<tag k="ssr:stedsnr" v="839358" />
	</node>
	<node lat="67.89298333377789" lon="12.876336117583882" id="-11238">
		<tag k="name" v="Stokkvikvatnet" />
		<tag k="natural" v="water" />
		<tag k="ssr:stedsnr" v="866379" />
	</node>
	<node lat="67.96890555589748" lon="13.100802781011186" id="-11244">
		<tag k="name" v="Fløvatnet" />
		<tag k="natural" v="water" />
		<tag k="ssr:stedsnr" v="867479" />
	</node>
	<node lat="67.88515833513887" lon="12.966369439165966" id="-11256">
		<tag k="name" v="Bulvikhaugen" />
		<tag k="natural" v="cape" />
		<tag k="ssr:stedsnr" v="960325" />
=======
	<node id="-209026" lat="67.8838166706" lon="12.974472223">
		<tag k="name" v="Nakkvika" />
		<tag k="natural" v="bay" />
		<tag k="ssr:stedsnr" v="535636" />
>>>>>>> e1d4bc35ff8a6074a6f2e91616a996b547c36f15
	</node>
</osm>
