<?xml version="1.0" encoding="UTF-8"?>
<osm version="0.6" generator="osmapis">
	<node lat="67.82468055560726" lon="12.828497230307633" id="-11706">
		<tag k="name" v="Seiflua" />
		<tag k="natural" v="shoal" />
		<tag k="place" v="locality" />
		<tag k="ssr:stedsnr" v="229748" />
	</node>
	<node lat="67.93005555824921" lon="13.081972213807209" id="-11707">
		<tag k="name" v="Hesthaugen" />
		<tag k="natural" v="cape" />
		<tag k="ssr:stedsnr" v="231448" />
	</node>
	<node lat="67.93009166370777" lon="13.072008325403566" id="-11708">
		<tag k="name" v="Sessen" />
		<tag k="natural" v="ridge" />
		<tag k="place" v="locality" />
		<tag k="ssr:stedsnr" v="231450" />
	</node>
	<node lat="67.9322888874777" lon="13.071349995031294" id="-11709">
		<tag k="name" v="Vassheia" />
		<tag k="natural" v="hill" />
		<tag k="place" v="locality" />
		<tag k="ssr:stedsnr" v="231452" />
	</node>
	<node lat="67.96302778016432" lon="13.166163897400239" id="-11710">
		<tag k="name" v="Akkarvikodden" />
		<tag k="natural" v="cape" />
		<tag k="ssr:stedsnr" v="231420" />
	</node>
	<node lat="67.97282778049895" lon="12.997905563476996" id="-11711">
		<tag k="name" v="Kjelen" />
		<tag k="natural" v="valley" />
		<tag k="place" v="locality" />
		<tag k="ssr:stedsnr" v="232051" />
	</node>
	<node lat="67.97459167060916" lon="12.989552769242438" id="-11712">
		<tag k="name" v="Strupan" />
		<tag k="natural" v="slope" />
		<tag k="place" v="locality" />
		<tag k="ssr:stedsnr" v="232052" />
	</node>
	<node lat="67.97012777548083" lon="12.97166389714689" id="-11713">
		<tag k="name" v="Moan" />
		<tag k="place" v="locality" />
		<tag k="ssr:stedsnr" v="232056" />
	</node>
	<node lat="67.97583610833617" lon="12.953113887250407" id="-11714">
		<tag k="name" v="Studalen" />
		<tag k="natural" v="valley" />
		<tag k="place" v="locality" />
		<tag k="ssr:stedsnr" v="232068" />
	</node>
	<node lat="67.91546388914759" lon="13.050302784371349" id="-11715">
		<tag k="name" v="Vedvika" />
		<tag k="natural" v="bay" />
		<tag k="ssr:stedsnr" v="232277" />
	</node>
	<node lat="67.90291389307215" lon="13.051633326869595" id="-11716">
		<tag k="landuse" v="meadow" />
		<tag k="name" v="Bakjorda" />
		<tag k="ssr:stedsnr" v="232345" />
	</node>
	<node lat="67.97811388857679" lon="13.08196943312833" id="-11717">
		<tag k="name" v="Vestervassdalen" />
		<tag k="natural" v="valley" />
		<tag k="place" v="locality" />
		<tag k="ssr:stedsnr" v="232373" />
	</node>
	<node lat="67.87062221799994" lon="12.922300003158643" id="-11718">
		<tag k="name" v="Tindsfjellet" />
		<tag k="natural" v="cliff" />
		<tag k="ssr:stedsnr" v="232583" />
	</node>
	<node lat="67.83318888527376" lon="12.822072210669788" id="-11719">
		<tag k="highway" v="path" />
		<tag k="name" v="Sandstien" />
		<tag k="ssr:stedsnr" v="232682" />
	</node>
	<node lat="67.85173611208064" lon="12.866708326650173" id="-11720">
		<tag k="name" v="Ånstadheia" />
		<tag k="natural" v="hill" />
		<tag k="place" v="locality" />
		<tag k="ssr:stedsnr" v="232696" />
	</node>
	<node lat="67.88611389322233" lon="12.939436115330837" id="-11721">
		<tag k="name" v="Torshaugen" />
		<tag k="natural" v="hill" />
		<tag k="place" v="locality" />
		<tag k="ssr:stedsnr" v="16368" />
	</node>
	<node lat="67.94481666911837" lon="13.124963897310021" id="-11722">
		<tag k="name" v="Toppøya" />
		<tag k="place" v="islet" />
		<tag k="ssr:stedsnr" v="17499" />
	</node>
	<node lat="67.90536388702647" lon="12.98229166948019" id="-11723">
		<tag k="name" v="Øverstøvla" />
		<tag k="natural" v="hill" />
		<tag k="place" v="locality" />
		<tag k="ssr:stedsnr" v="50301" />
	</node>
	<node lat="67.88640278133813" lon="13.015491664186404" id="-11724">
		<tag k="name" v="Stoltenbergodden" />
		<tag k="natural" v="cape" />
		<tag k="ssr:stedsnr" v="50319" />
	</node>
	<node lat="67.88460555232525" lon="13.013413880316405" id="-11725">
		<tag k="name" v="Ytterbogen" />
		<tag k="natural" v="cape" />
		<tag k="ssr:stedsnr" v="50322" />
	</node>
	<node lat="67.96213610745231" lon="13.007391662960325" id="-11726">
		<tag k="name" v="Hansneset" />
		<tag k="natural" v="cape" />
		<tag k="ssr:stedsnr" v="50408" />
	</node>
	<node lat="67.95258888857504" lon="13.084413892809483" id="-11727">
		<tag k="name" v="Lamlia" />
		<tag k="natural" v="slope" />
		<tag k="place" v="locality" />
		<tag k="ssr:stedsnr" v="50412" />
	</node>
	<node lat="67.95948610877922" lon="13.07759443988679" id="-11728">
		<tag k="name" v="Sølvpengdalen" />
		<tag k="natural" v="valley" />
		<tag k="place" v="locality" />
		<tag k="ssr:stedsnr" v="50418" />
	</node>
	<node lat="67.92523333243054" lon="12.720455557529109" id="-11729">
		<tag k="name" v="Nyklakken" />
		<tag k="natural" v="shoal" />
		<tag k="place" v="locality" />
		<tag k="ssr:stedsnr" v="77507" />
	</node>
	<node lat="67.93441666705516" lon="12.887827771979042" id="-11730">
		<tag k="alt_name" v="Ertnhella" />
		<tag k="name" v="Ertenhella" />
		<tag k="natural" v="cape" />
		<tag k="ssr:stedsnr" v="77500" />
	</node>
	<node lat="67.85900000272409" lon="12.967311108792465" id="-11731">
		<tag k="name" v="Ågskallan" />
		<tag k="natural" v="shoal" />
		<tag k="place" v="locality" />
		<tag k="ssr:stedsnr" v="78426" />
	</node>
	<node lat="67.89057500269743" lon="12.975416661531403" id="-11732">
		<tag k="fixme" v="consider natural=peak for the most distinct mountains in the district" />
		<tag k="name" v="Tinddalstinden" />
		<tag k="natural" v="hill" />
		<tag k="place" v="locality" />
		<tag k="ssr:stedsnr" v="78399" />
	</node>
	<node lat="67.94621666687455" lon="13.13328054941571" id="-11733">
		<tag k="name" v="Hamnøya" />
		<tag k="natural" v="cape" />
		<tag k="ssr:stedsnr" v="120916" />
	</node>
	<node lat="67.82657777524945" lon="12.785600001392403" id="-11734">
		<tag k="name" v="Skallen" />
		<tag k="natural" v="shoal" />
		<tag k="place" v="locality" />
		<tag k="ssr:stedsnr" v="138092" />
	</node>
	<node lat="67.84158055939689" lon="12.825561103556064" id="-11735">
		<tag k="alt_name" v="Kolhellarsanden" />
		<tag k="name" v="Kollhellarsanden" />
		<tag k="natural" v="beach" />
		<tag k="ssr:stedsnr" v="138097" />
	</node>
	<node lat="67.83692777371625" lon="12.814947223752403" id="-11736">
		<tag k="name" v="Gongskardet" />
		<tag k="natural" v="valley" />
		<tag k="place" v="locality" />
		<tag k="ssr:stedsnr" v="138102" />
	</node>
	<node lat="67.91128055327391" lon="12.866988889170962" id="-11737">
		<tag k="name" v="Oterneset" />
		<tag k="natural" v="cape" />
		<tag k="ssr:stedsnr" v="138402" />
	</node>
	<node lat="67.90601666428117" lon="12.736302771166402" id="-11738">
		<tag k="name" v="Finningen" />
		<tag k="natural" v="shoal" />
		<tag k="place" v="locality" />
		<tag k="ssr:stedsnr" v="138403" />
	</node>
	<node lat="67.94365278192538" lon="13.137483344311725" id="-11739">
		<tag k="fixme" v="consider seamark:type=rock or natural=shoal" />
		<tag k="name" v="Skarven" />
		<tag k="place" v="islet" />
		<tag k="ssr:stedsnr" v="138490" />
	</node>
	<node lat="67.92576111109895" lon="13.002255565068324" id="-11740">
		<tag k="name" v="Lamheia" />
		<tag k="natural" v="hill" />
		<tag k="place" v="locality" />
		<tag k="ssr:stedsnr" v="138493" />
	</node>
	<node lat="67.92633889044662" lon="13.086308323601274" id="-11741">
		<tag k="name" v="Ramsvika" />
		<tag k="natural" v="bay" />
		<tag k="ssr:stedsnr" v="138396" />
	</node>
	<node lat="68.0114027749027" lon="12.856108328314054" id="-11742">
		<tag k="name" v="Småskallan" />
		<tag k="natural" v="shoal" />
		<tag k="place" v="locality" />
		<tag k="ssr:stedsnr" v="259031" />
	</node>
	<node lat="67.92760277618112" lon="13.107386115735483" id="-11743">
		<tag k="fixme" v="multiple name tags, choose one and add the other to alt_name" />
		<tag k="name" v="Lamholmen;Kuforet" />
		<tag k="place" v="islet" />
		<tag k="ssr:stedsnr" v="259370" />
	</node>
	<node lat="67.90797777674887" lon="13.002808341034118" id="-11744">
		<tag k="name" v="Tridalsvatnet" />
		<tag k="natural" v="water" />
		<tag k="ssr:stedsnr" v="259374" />
	</node>
	<node lat="67.90252222037887" lon="12.800822214196144" id="-11745">
		<tag k="fixme" v="consider seamark:type=rock or natural=shoal" />
		<tag k="name" v="Stokkvikflesa" />
		<tag k="place" v="islet" />
		<tag k="ssr:stedsnr" v="259391" />
	</node>
	<node lat="67.89380278158316" lon="12.94476944707276" id="-11746">
		<tag k="fixme" v="consider natural=peak for the most distinct mountains in the district" />
		<tag k="name" v="Småtindan" />
		<tag k="natural" v="hill" />
		<tag k="place" v="locality" />
		<tag k="ssr:stedsnr" v="259394" />
	</node>
	<node lat="67.89345555261399" lon="12.820997212755069" id="-11747">
		<tag k="name" v="Grasholmflua" />
		<tag k="natural" v="shoal" />
		<tag k="place" v="locality" />
		<tag k="ssr:stedsnr" v="259398" />
	</node>
	<node lat="67.88290555922238" lon="12.875094439660698" id="-11748">
		<tag k="fixme" v="consider natural=peak for the most distinct mountains in the district" />
		<tag k="name" v="Gjerdtindan" />
		<tag k="natural" v="hill" />
		<tag k="place" v="locality" />
		<tag k="ssr:stedsnr" v="259401" />
	</node>
	<node lat="67.9364722251643" lon="13.06762777063192" id="-11749">
		<tag k="fixme" v="consider natural=peak for the most distinct mountains in the district" />
		<tag k="name" v="Hammarskaftet" />
		<tag k="natural" v="hill" />
		<tag k="place" v="locality" />
		<tag k="ssr:stedsnr" v="259476" />
	</node>
	<node lat="68.0279886459239" lon="12.995764676462818" id="-11751">
		<tag k="name" v="Horseid" />
		<tag k="place" v="locality" />
		<tag k="ssr:stedsnr" v="260031" />
	</node>
	<node lat="67.97735277672265" lon="13.015063886826583" id="-11752">
		<tag k="fixme" v="multiple name tags, choose one and add the other to alt_name" />
		<tag k="name" v="Nabblisvadet;Finnhamnneset" />
		<tag k="natural" v="cape" />
		<tag k="ssr:stedsnr" v="260474" />
	</node>
	<node lat="67.97496389062847" lon="12.986783339906143" id="-11753">
		<tag k="name" v="Brunaksla" />
		<tag k="place" v="locality" />
		<tag k="ssr:stedsnr" v="260481" />
	</node>
	<node lat="67.95543055861066" lon="12.948266657215498" id="-11754">
		<tag k="name" v="Stæpet" />
		<tag k="natural" v="valley" />
		<tag k="place" v="locality" />
		<tag k="ssr:stedsnr" v="171071" />
	</node>
	<node lat="67.95274166641052" lon="12.976599998847922" id="-11755">
		<tag k="name" v="Rognlihammaren" />
		<tag k="natural" v="cliff" />
		<tag k="ssr:stedsnr" v="171072" />
	</node>
	<node lat="68.00966666638749" lon="12.996641657923876" id="-11756">
		<tag k="ford" v="yes" />
		<tag k="name" v="Vaet" />
		<tag k="place" v="locality" />
		<tag k="ssr:stedsnr" v="171076" />
	</node>
	<node lat="67.92046388834865" lon="13.04645278212085" id="-11757">
		<tag k="name" v="Neset" />
		<tag k="place" v="locality" />
		<tag k="ssr:stedsnr" v="171263" />
	</node>
	<node lat="67.95642777641584" lon="12.908874996071292" id="-11758">
		<tag k="name" v="Sandhågen" />
		<tag k="natural" v="hill" />
		<tag k="place" v="locality" />
		<tag k="ssr:stedsnr" v="171417" />
	</node>
	<node lat="67.88756944705104" lon="13.002963884172413" id="-11759">
		<tag k="name" v="Nordbergan" />
		<tag k="natural" v="cliff" />
		<tag k="ssr:stedsnr" v="171358" />
	</node>
	<node lat="67.88181110657395" lon="12.9886250048603" id="-11760">
		<tag k="fixme" v="consider seamark:type=rock or natural=shoal" />
		<tag k="name" v="Skarvskjeret" />
		<tag k="place" v="islet" />
		<tag k="ssr:stedsnr" v="171671" />
	</node>
	<node lat="67.88113611339713" lon="12.980519438567576" id="-11761">
		<tag k="name" v="Å-gården" />
		<tag k="place" v="farm" />
		<tag k="ssr:stedsnr" v="171677" />
	</node>
	<node lat="67.82973055397397" lon="12.861772216909587" id="-11762">
		<tag k="name" v="Sperrisskogen" />
		<tag k="place" v="locality" />
		<tag k="ssr:stedsnr" v="171757" />
	</node>
	<node lat="67.8655500032172" lon="12.85019721688873" id="-11763">
		<tag k="name" v="Turtnbakkmulen" />
		<tag k="natural" v="cape" />
		<tag k="ssr:stedsnr" v="198405" />
	</node>
	<node lat="68.02432499757067" lon="12.98390556640817" id="-11764">
		<tag k="name" v="Horseidvika" />
		<tag k="natural" v="bay" />
		<tag k="ssr:stedsnr" v="199024" />
	</node>
	<node lat="67.88624722613173" lon="12.962788899172422" id="-11765">
		<tag k="name" v="Kamvika" />
		<tag k="natural" v="bay" />
		<tag k="ssr:stedsnr" v="232335" />
	</node>
	<node lat="67.88572778166609" lon="13.00017500815022" id="-11766">
		<tag k="name" v="Tindshamna" />
		<tag k="natural" v="bay" />
		<tag k="ssr:stedsnr" v="232336" />
	</node>
	<node lat="67.8852555564893" lon="12.971863883994455" id="-11767">
		<tag k="name" v="Tjønn-tjønna" />
		<tag k="natural" v="water" />
		<tag k="ssr:stedsnr" v="232337" />
	</node>
	<node lat="67.88688610663274" lon="13.037094446434011" id="-11768">
		<tag k="barrier" v="fence" />
		<tag k="name" v="Svingjerdet" />
		<tag k="ssr:stedsnr" v="232339" />
	</node>
	<node lat="68.0074805528279" lon="12.95418056414897" id="-11769">
		<tag k="name" v="Skjelvodden" />
		<tag k="natural" v="cape" />
		<tag k="ssr:stedsnr" v="232081" />
	</node>
	<node lat="68.03098610829622" lon="12.987572215386859" id="-11770">
		<tag k="name" v="Skarverodden" />
		<tag k="natural" v="cape" />
		<tag k="ssr:stedsnr" v="232084" />
	</node>
	<node lat="67.83021944004643" lon="12.785855561501885" id="-11771">
		<tag k="name" v="Djupbåen" />
		<tag k="natural" v="shoal" />
		<tag k="place" v="locality" />
		<tag k="ssr:stedsnr" v="259064" />
	</node>
	<node lat="67.82758888719304" lon="12.807022230028606" id="-11772">
		<tag k="name" v="Hella" />
		<tag k="place" v="islet" />
		<tag k="ssr:stedsnr" v="259065" />
	</node>
	<node lat="67.83071110791197" lon="12.810044450403009" id="-11773">
		<tag k="alt_name" v="Kjiholmen" />
		<tag k="name" v="Kjeholmen" />
		<tag k="place" v="islet" />
		<tag k="ssr:stedsnr" v="259066" />
	</node>
	<node lat="67.84914166960526" lon="12.899738894059462" id="-11774">
		<tag k="name" v="Svadodden" />
		<tag k="natural" v="cape" />
		<tag k="ssr:stedsnr" v="259073" />
	</node>
	<node lat="67.9960777809593" lon="12.786025009569684" id="-11775">
		<tag k="name" v="Dyrbåen" />
		<tag k="natural" v="shoal" />
		<tag k="place" v="locality" />
		<tag k="ssr:stedsnr" v="259280" />
	</node>
	<node lat="67.86995277372037" lon="12.939641674535736" id="-11776">
		<tag k="name" v="Tindsvika" />
		<tag k="natural" v="bay" />
		<tag k="ssr:stedsnr" v="259412" />
	</node>
	<node lat="67.86838333429284" lon="12.996763885977394" id="-11777">
		<tag k="name" v="Gjerdtindsskallen" />
		<tag k="natural" v="shoal" />
		<tag k="place" v="locality" />
		<tag k="ssr:stedsnr" v="259415" />
	</node>
	<node lat="67.95319722289844" lon="12.97220834140246" id="-11778">
		<tag k="fixme" v="multiple name tags, choose one and add the other to alt_name; consider natural=peak for the most distinct mountains in the district" />
		<tag k="name" v="Rabbtinden;Trollhaue" />
		<tag k="natural" v="hill" />
		<tag k="place" v="locality" />
		<tag k="ssr:stedsnr" v="260499" />
	</node>
	<node lat="67.94078055391873" lon="12.959541677977967" id="-11779">
		<tag k="name" v="Litlforsvatnet" />
		<tag k="natural" v="water" />
		<tag k="ssr:stedsnr" v="260502" />
	</node>
	<node lat="67.95389166720113" lon="13.141988889132191" id="-11780">
		<tag k="name" v="Lilandsholmen" />
		<tag k="place" v="islet" />
		<tag k="ssr:stedsnr" v="260507" />
	</node>
	<node lat="67.9399027787488" lon="13.073302780820265" id="-11781">
		<tag k="name" v="Vestervalen" />
		<tag k="natural" v="cape" />
		<tag k="ssr:stedsnr" v="292376" />
	</node>
	<node lat="67.93703889112845" lon="13.071205555631657" id="-11782">
		<tag k="loc_name" v="Marka" />
		<tag k="name" v="Marken Ø" />
		<tag k="place" v="hamlet" />
		<tag k="ssr:stedsnr" v="292379" />
	</node>
	<node lat="67.89527222664003" lon="12.996583327908747" id="-11783">
		<tag k="name" v="Åsen" />
		<tag k="natural" v="hill" />
		<tag k="place" v="locality" />
		<tag k="ssr:stedsnr" v="293410" />
	</node>
	<node lat="67.89305833538099" lon="13.011980565944118" id="-11784">
		<tag k="name" v="Fuglneset" />
		<tag k="natural" v="cape" />
		<tag k="ssr:stedsnr" v="293412" />
	</node>
	<node lat="67.8430527786765" lon="12.833255553762847" id="-11785">
		<tag k="name" v="Banura" />
		<tag k="natural" v="scree" />
		<tag k="ssr:stedsnr" v="293735" />
	</node>
	<node lat="67.87472778136923" lon="12.886530557722518" id="-11786">
		<tag k="fixme" v="consider natural=peak for the most distinct mountains in the district" />
		<tag k="name" v="Mannen" />
		<tag k="natural" v="hill" />
		<tag k="place" v="locality" />
		<tag k="ssr:stedsnr" v="319402" />
	</node>
	<node lat="67.86076110924141" lon="12.81463334250172" id="-11787">
		<tag k="name" v="Steinen" />
		<tag k="natural" v="shoal" />
		<tag k="place" v="locality" />
		<tag k="ssr:stedsnr" v="319408" />
	</node>
	<node lat="67.83503055435807" lon="12.844541656672124" id="-11788">
		<tag k="name" v="Lofotodden" />
		<tag k="natural" v="cape" />
		<tag k="ssr:stedsnr" v="320068" />
	</node>
	<node lat="67.83711388996305" lon="12.866750002602696" id="-11789">
		<tag k="name" v="Kalvhagen" />
		<tag k="natural" v="valley" />
		<tag k="place" v="locality" />
		<tag k="ssr:stedsnr" v="320073" />
	</node>
	<node lat="67.829698269789" lon="12.81589620711412" id="-11790">
		<tag k="name" v="Helle" />
		<tag k="place" v="locality" />
		<tag k="ssr:stedsnr" v="320085" />
	</node>
	<node lat="67.9095222193174" lon="12.89876945493897" id="-11791">
		<tag k="fixme" v="consider natural=peak for the most distinct mountains in the district" />
		<tag k="name" v="Smallidalstindan" />
		<tag k="natural" v="hill" />
		<tag k="place" v="locality" />
		<tag k="ssr:stedsnr" v="320387" />
	</node>
	<node lat="67.91920278067005" lon="13.040363898166357" id="-11792">
		<tag k="name" v="Djupfjorden" />
		<tag k="place" v="isolated_dwelling" />
		<tag k="ssr:stedsnr" v="320389" />
	</node>
	<node lat="67.9896861099491" lon="12.90680832426134" id="-11793">
		<tag k="name" v="Bergskallen" />
		<tag k="natural" v="shoal" />
		<tag k="place" v="locality" />
		<tag k="ssr:stedsnr" v="320295" />
	</node>
	<node lat="67.99412499585969" lon="12.931319433045754" id="-11794">
		<tag k="name" v="Kariskallen" />
		<tag k="natural" v="shoal" />
		<tag k="place" v="locality" />
		<tag k="ssr:stedsnr" v="320296" />
	</node>
	<node lat="67.85678333159194" lon="12.890133344668827" id="-11795">
		<tag k="alt_name" v="Ånnstadvatnet" />
		<tag k="name" v="Ånstadvatnet" />
		<tag k="natural" v="water" />
		<tag k="ssr:stedsnr" v="320433" />
	</node>
	<node lat="67.99500833337449" lon="13.048577788591949" id="-11796">
		<tag k="fixme" v="multiple name tags, choose one and add the other to alt_name; consider natural=peak for the most distinct mountains in the district" />
		<tag k="name" v="Målheia;Segeltinden" />
		<tag k="natural" v="hill" />
		<tag k="place" v="locality" />
		<tag k="ssr:stedsnr" v="320435" />
	</node>
	<node lat="67.98105555335225" lon="12.981461107865238" id="-11797">
		<tag k="fixme" v="consider natural=peak for the most distinct mountains in the district" />
		<tag k="name" v="Helvetestinden" />
		<tag k="natural" v="hill" />
		<tag k="place" v="locality" />
		<tag k="ssr:stedsnr" v="320439" />
	</node>
	<node lat="67.9670722185344" lon="12.918930557073857" id="-11798">
		<tag k="fixme" v="consider natural=peak for the most distinct mountains in the district" />
		<tag k="name" v="Stuvdalstinden" />
		<tag k="natural" v="hill" />
		<tag k="place" v="locality" />
		<tag k="ssr:stedsnr" v="320447" />
	</node>
	<node lat="67.96222500264037" lon="12.97074166879587" id="-11799">
		<tag k="fixme" v="consider natural=peak for the most distinct mountains in the district" />
		<tag k="name" v="Bisplua" />
		<tag k="natural" v="hill" />
		<tag k="place" v="locality" />
		<tag k="ssr:stedsnr" v="320454" />
	</node>
	<node lat="67.96886666592492" lon="13.159241666883588" id="-11800">
		<tag k="fixme" v="consider natural=peak for the most distinct mountains in the district" />
		<tag k="name" v="Akkarviktinden" />
		<tag k="natural" v="hill" />
		<tag k="place" v="locality" />
		<tag k="ssr:stedsnr" v="320458" />
	</node>
	<node lat="67.95602222635739" lon="12.958786122409087" id="-11801">
		<tag k="alt_name" v="Øvrevatnet" />
		<tag k="name" v="Øvervatnet" />
		<tag k="natural" v="water" />
		<tag k="ssr:stedsnr" v="320461" />
	</node>
	<node lat="67.95415555532549" lon="13.13218055468294" id="-11802">
		<tag k="alt_name" v="Festhelltinden" />
		<tag k="fixme" v="consider natural=peak for the most distinct mountains in the district" />
		<tag k="name" v="Festhæltinden" />
		<tag k="natural" v="hill" />
		<tag k="place" v="locality" />
		<tag k="ssr:stedsnr" v="320466" />
	</node>
	<node lat="68.03880000419518" lon="13.006072215432427" id="-11803">
		<tag k="fixme" v="consider natural=peak for the most distinct mountains in the district" />
		<tag k="name" v="Ytre Brasråstindan" />
		<tag k="natural" v="hill" />
		<tag k="place" v="locality" />
		<tag k="ssr:stedsnr" v="471856" />
	</node>
	<node lat="67.92313611293669" lon="13.074055557480227" id="-11804">
		<tag k="name" v="Ramsvikdalen" />
		<tag k="natural" v="valley" />
		<tag k="place" v="locality" />
		<tag k="ssr:stedsnr" v="473433" />
	</node>
	<node lat="67.93519166615661" lon="13.092100007534043" id="-11805">
		<tag k="name" v="Storstubergan" />
		<tag k="natural" v="cape" />
		<tag k="ssr:stedsnr" v="473407" />
	</node>
	<node lat="67.90110277870606" lon="12.985263885678389" id="-11806">
		<tag k="name" v="Trollura" />
		<tag k="natural" v="scree" />
		<tag k="ssr:stedsnr" v="351513" />
	</node>
	<node lat="67.93512500259467" lon="13.09744166108304" id="-11807">
		<tag k="name" v="Steinleia" />
		<tag k="natural" v="shoal" />
		<tag k="place" v="locality" />
		<tag k="ssr:stedsnr" v="352369" />
	</node>
	<node lat="67.9361027763165" lon="13.111266665360276" id="-11808">
		<tag k="name" v="Fyrodden" />
		<tag k="natural" v="cape" />
		<tag k="ssr:stedsnr" v="352371" />
	</node>
	<node lat="67.976386107489" lon="12.972122228600941" id="-11809">
		<tag k="name" v="Raen" />
		<tag k="natural" v="beach" />
		<tag k="ssr:stedsnr" v="353071" />
		<tag k="surface" v="sand" />
	</node>
	<node lat="67.9746694479425" lon="13.133797220629578" id="-11810">
		<tag k="name" v="Lilandsdalen" />
		<tag k="natural" v="valley" />
		<tag k="place" v="locality" />
		<tag k="ssr:stedsnr" v="353420" />
	</node>
	<node lat="67.88049444207249" lon="12.976363889346562" id="-11811">
		<tag k="name" v="Hennummarka" />
		<tag k="place" v="locality" />
		<tag k="ssr:stedsnr" v="353652" />
	</node>
	<node lat="67.88215277935474" lon="12.965163877350024" id="-11812">
		<tag k="name" v="Grytvika" />
		<tag k="natural" v="bay" />
		<tag k="ssr:stedsnr" v="353654" />
	</node>
	<node lat="67.95976944256857" lon="12.926255565890242" id="-11813">
		<tag k="name" v="Bjørnbakkan" />
		<tag k="natural" v="slope" />
		<tag k="place" v="locality" />
		<tag k="ssr:stedsnr" v="475083" />
	</node>
	<node lat="68.0108944404482" lon="12.996030553779239" id="-11814">
		<tag k="name" v="Litlvatnet" />
		<tag k="natural" v="water" />
		<tag k="ssr:stedsnr" v="475085" />
	</node>
	<node lat="67.98722777935842" lon="12.961680563090617" id="-11815">
		<tag k="name" v="Kariura" />
		<tag k="natural" v="scree" />
		<tag k="ssr:stedsnr" v="475090" />
	</node>
	<node lat="67.93004999829563" lon="13.055822227540599" id="-11816">
		<tag k="name" v="Kista" />
		<tag k="natural" v="valley" />
		<tag k="place" v="locality" />
		<tag k="ssr:stedsnr" v="475290" />
	</node>
	<node lat="67.9389833330125" lon="13.060358328387645" id="-11817">
		<tag k="name" v="Elselia" />
		<tag k="natural" v="slope" />
		<tag k="place" v="locality" />
		<tag k="ssr:stedsnr" v="475292" />
	</node>
	<node lat="67.95550555876748" lon="12.996786111918475" id="-11818">
		<tag k="name" v="Hamnen" />
		<tag k="natural" v="cape" />
		<tag k="ssr:stedsnr" v="475423" />
	</node>
	<node lat="67.90150555433992" lon="13.049572216175164" id="-11819">
		<tag k="name" v="Kirkhaugen" />
		<tag k="natural" v="hill" />
		<tag k="place" v="locality" />
		<tag k="ssr:stedsnr" v="475379" />
	</node>
	<node lat="67.89114166996603" lon="13.019305554174517" id="-11820">
		<tag k="name" v="Åkerneset" />
		<tag k="natural" v="cape" />
		<tag k="ssr:stedsnr" v="475380" />
	</node>
	<node lat="67.95907499911588" lon="13.113638885014115" id="-11821">
		<tag k="name" v="Duken" />
		<tag k="natural" v="cape" />
		<tag k="ssr:stedsnr" v="475443" />
	</node>
	<node lat="67.85080555261504" lon="12.855458322080256" id="-11822">
		<tag k="name" v="Ånstadlia" />
		<tag k="natural" v="slope" />
		<tag k="place" v="locality" />
		<tag k="ssr:stedsnr" v="475736" />
	</node>
	<node lat="67.91611388843134" lon="13.022786121204799" id="-11823">
		<tag k="fixme" v="consider natural=peak for the most distinct mountains in the district" />
		<tag k="name" v="Merraflestinden" />
		<tag k="natural" v="hill" />
		<tag k="place" v="locality" />
		<tag k="ssr:stedsnr" v="380403" />
	</node>
	<node lat="67.88308888760666" lon="12.828283340245198" id="-11824">
		<tag k="name" v="Krykkjeholmflua" />
		<tag k="natural" v="shoal" />
		<tag k="place" v="locality" />
		<tag k="ssr:stedsnr" v="380428" />
	</node>
	<node lat="67.94109166608249" lon="13.110636119519182" id="-11825">
		<tag k="name" v="Sakrisøya" />
		<tag k="place" v="islet" />
		<tag k="ssr:stedsnr" v="380511" />
	</node>
	<node lat="68.09318889316594" lon="13.100097218799524" id="-11826">
		<tag k="alt_name" v="Moskenesøy" />
		<tag k="name" v="Moskenesøya" />
		<tag k="place" v="island" />
		<tag k="ssr:stedsnr" v="380514" />
	</node>
	<node lat="67.9261749976465" lon="12.955641667313582" id="-11827">
		<tag k="name" v="Krokvatnet" />
		<tag k="natural" v="water" />
		<tag k="ssr:stedsnr" v="380517" />
		<tag k="water" v="lake" />
	</node>
	<node lat="67.855261113746" lon="12.85996943804226" id="-11828">
		<tag k="alt_name" v="Tortenbakkheia" />
		<tag k="name" v="Turtnbakkheia" />
		<tag k="natural" v="hill" />
		<tag k="place" v="locality" />
		<tag k="ssr:stedsnr" v="380460" />
	</node>
	<node lat="67.99631389098096" lon="12.956897224258915" id="-11829">
		<tag k="loc_name" v="Karisteinen" />
		<tag k="name" v="Skjelvsteinen" />
		<tag k="natural" v="cape" />
		<tag k="ssr:stedsnr" v="381312" />
	</node>
	<node lat="67.89698888603468" lon="13.031763878471255" id="-11830">
		<tag k="alt_name" v="Breidlandet" />
		<tag k="name" v="Breilandet" />
		<tag k="place" v="locality" />
		<tag k="ssr:stedsnr" v="381404" />
	</node>
	<node lat="67.95904999938708" lon="13.146841666963613" id="-11832">
		<tag k="name" v="Lilandsvika" />
		<tag k="natural" v="bay" />
		<tag k="ssr:stedsnr" v="413405" />
	</node>
	<node lat="67.9139916677014" lon="13.0570305532344" id="-11833">
		<tag k="name" v="Storhågen" />
		<tag k="natural" v="ridge" />
		<tag k="place" v="locality" />
		<tag k="ssr:stedsnr" v="414290" />
	</node>
	<node lat="67.97628888520381" lon="13.128869449756362" id="-11834">
		<tag k="fixme" v="consider natural=peak for the most distinct mountains in the district" />
		<tag k="name" v="Lilandstindan" />
		<tag k="natural" v="hill" />
		<tag k="place" v="locality" />
		<tag k="ssr:stedsnr" v="414408" />
	</node>
	<node lat="67.97139166694863" lon="13.10830277221798" id="-11835">
		<tag k="highway" v="path" />
		<tag k="name" v="Stia" />
		<tag k="ssr:stedsnr" v="414411" />
	</node>
	<node lat="67.88331666608681" lon="12.947522215933004" id="-11836">
		<tag k="name" v="Kokarneset" />
		<tag k="natural" v="cape" />
		<tag k="ssr:stedsnr" v="414335" />
	</node>
	<node lat="67.8743333377718" lon="13.003313892135107" id="-11837">
		<tag k="name" v="Nipingen" />
		<tag k="place" v="islet" />
		<tag k="ssr:stedsnr" v="441415" />
	</node>
	<node lat="67.93814167033243" lon="13.043600012506742" id="-11838">
		<tag k="fixme" v="consider natural=peak for the most distinct mountains in the district" />
		<tag k="name" v="Navaren" />
		<tag k="natural" v="hill" />
		<tag k="place" v="locality" />
		<tag k="ssr:stedsnr" v="441487" />
	</node>
	<node lat="67.90205833596755" lon="12.86836667651583" id="-11839">
		<tag k="alt_name" v="Smallidalen" />
		<tag k="name" v="Smålidalen" />
		<tag k="natural" v="valley" />
		<tag k="place" v="locality" />
		<tag k="ssr:stedsnr" v="441389" />
	</node>
	<node lat="67.83398333447482" lon="12.826336122295034" id="-11840">
		<tag k="name" v="Slåttlia" />
		<tag k="natural" v="slope" />
		<tag k="place" v="locality" />
		<tag k="ssr:stedsnr" v="442102" />
	</node>
	<node lat="67.83717499828116" lon="12.782111105807672" id="-11841">
		<tag k="name" v="Sørholmen" />
		<tag k="place" v="island" />
		<tag k="ssr:stedsnr" v="442111" />
	</node>
	<node lat="67.89911388892388" lon="13.03742499548893" id="-11842">
		<tag k="name" v="Moskenesvågen" />
		<tag k="natural" v="bay" />
		<tag k="ssr:stedsnr" v="442394" />
	</node>
	<node lat="67.89081111299178" lon="12.846555547495527" id="-11843">
		<tag k="name" v="Måsnakken" />
		<tag k="natural" v="cape" />
		<tag k="ssr:stedsnr" v="442408" />
	</node>
	<node lat="67.97779444873827" lon="12.929266665045013" id="-11844">
		<tag k="fixme" v="consider natural=peak for the most distinct mountains in the district" />
		<tag k="name" v="Kalkonestinden" />
		<tag k="natural" v="hill" />
		<tag k="place" v="locality" />
		<tag k="ssr:stedsnr" v="442435" />
	</node>
	<node lat="67.98053333089695" lon="13.050761102850197" id="-11845">
		<tag k="name" v="Forssandvatnet" />
		<tag k="natural" v="water" />
		<tag k="ssr:stedsnr" v="442447" />
	</node>
	<node lat="67.94845833023281" lon="12.937588878369432" id="-11846">
		<tag k="fixme" v="consider natural=peak for the most distinct mountains in the district" />
		<tag k="name" v="Klokkaåttetinden" />
		<tag k="natural" v="hill" />
		<tag k="place" v="locality" />
		<tag k="ssr:stedsnr" v="442487" />
	</node>
	<node lat="67.8587583302306" lon="12.8245361118573" id="-11847">
		<tag k="fixme" v="multiple name tags, choose one and add the other to alt_name" />
		<tag k="name" v="Avløysa;Ytter-Avløysa" />
		<tag k="place" v="islet" />
		<tag k="ssr:stedsnr" v="673448" />
	</node>
	<node lat="67.90717500060391" lon="12.863977778332771" id="-11848">
		<tag k="fixme" v="consider seamark:type=rock or natural=shoal" />
		<tag k="name" v="Bukkhammarskjeran" />
		<tag k="place" v="islet" />
		<tag k="ssr:stedsnr" v="475312" />
	</node>
	<node lat="67.89519444787857" lon="12.87068610479144" id="-11849">
		<tag k="name" v="Vollen" />
		<tag k="natural" v="slope" />
		<tag k="place" v="locality" />
		<tag k="ssr:stedsnr" v="475315" />
	</node>
	<node lat="67.97525833464694" lon="13.088172231096275" id="-11850">
		<tag k="name" v="Oskarsborg" />
		<tag k="natural" v="scree" />
		<tag k="ssr:stedsnr" v="475418" />
	</node>
	<node lat="67.87443610934034" lon="12.956188896767117" id="-11851">
		<tag k="fixme" v="consider natural=peak for the most distinct mountains in the district" />
		<tag k="name" v="Alpiggen" />
		<tag k="natural" v="hill" />
		<tag k="place" v="locality" />
		<tag k="ssr:stedsnr" v="475359" />
	</node>
	<node lat="67.8452222246756" lon="12.833361114446966" id="-11852">
		<tag k="name" v="Banjordhaugen" />
		<tag k="natural" v="hill" />
		<tag k="place" v="locality" />
		<tag k="ssr:stedsnr" v="475725" />
	</node>
	<node lat="67.86600278153696" lon="12.80203332552703" id="-11853">
		<tag k="alt_name" v="Smellbåen, øvre" />
		<tag k="name" v="Øvre Smellbåen" />
		<tag k="natural" v="shoal" />
		<tag k="place" v="locality" />
		<tag k="ssr:stedsnr" v="501402" />
	</node>
	<node lat="67.8877138908104" lon="13.041247212842205" id="-11854">
		<tag k="name" v="Tarnesodden" />
		<tag k="place" v="islet" />
		<tag k="ssr:stedsnr" v="501392" />
	</node>
	<node lat="67.87083889326328" lon="12.781380555497622" id="-11855">
		<tag k="alt_name" v="Smellbåan, yt" />
		<tag k="name" v="Ytre Smellbåan" />
		<tag k="natural" v="shoal" />
		<tag k="place" v="locality" />
		<tag k="ssr:stedsnr" v="501395" />
	</node>
	<node lat="68.00849444598549" lon="12.99910832319683" id="-11856">
		<tag k="fixme" v="multiple name tags, choose one and add the other to alt_name" />
		<tag k="name" v="Horseidvatnet;Storvatnet" />
		<tag k="natural" v="water" />
		<tag k="ssr:stedsnr" v="502035" />
	</node>
	<node lat="67.8088249985406" lon="12.876466661288369" id="-11857">
		<tag k="name" v="Herjeskallen" />
		<tag k="natural" v="shoal" />
		<tag k="place" v="locality" />
		<tag k="ssr:stedsnr" v="502074" />
	</node>
	<node lat="67.82458888639736" lon="12.817805561546264" id="-11858">
		<tag k="name" v="Rødøya" />
		<tag k="place" v="islet" />
		<tag k="ssr:stedsnr" v="502080" />
	</node>
	<node lat="67.89134166480788" lon="13.000349989868337" id="-11859">
		<tag k="name" v="Tindsvatnet" />
		<tag k="natural" v="water" />
		<tag k="ssr:stedsnr" v="502406" />
	</node>
	<node lat="67.89307778047414" lon="12.854722221341502" id="-11860">
		<tag k="name" v="Stokkvika" />
		<tag k="natural" v="bay" />
		<tag k="ssr:stedsnr" v="502408" />
	</node>
	<node lat="67.92557777842286" lon="13.100686105778864" id="-11861">
		<tag k="name" v="Purka" />
		<tag k="place" v="islet" />
		<tag k="ssr:stedsnr" v="502374" />
	</node>
	<node lat="67.914574999012" lon="13.01256388152157" id="-11862">
		<tag k="name" v="Kjølvatna" />
		<tag k="natural" v="water" />
		<tag k="ssr:stedsnr" v="502385" />
	</node>
	<node lat="67.91258055658014" lon="12.96721944414757" id="-11863">
		<tag k="fixme" v="consider natural=peak for the most distinct mountains in the district" />
		<tag k="name" v="Støvla" />
		<tag k="natural" v="hill" />
		<tag k="place" v="locality" />
		<tag k="ssr:stedsnr" v="502386" />
	</node>
	<node lat="67.8989527811112" lon="13.056991665990234" id="-11864">
		<tag k="name" v="Grautdallen" />
		<tag k="natural" v="shoal" />
		<tag k="place" v="locality" />
		<tag k="ssr:stedsnr" v="502394" />
	</node>
	<node lat="67.95845555383607" lon="12.972194442584069" id="-11865">
		<tag k="alt_name" v="Håtindan" />
		<tag k="fixme" v="consider natural=peak for the most distinct mountains in the district" />
		<tag k="name" v="Håtinden" />
		<tag k="natural" v="hill" />
		<tag k="place" v="locality" />
		<tag k="ssr:stedsnr" v="502474" />
	</node>
	<node lat="67.93618611331317" lon="13.020219442773334" id="-11866">
		<tag k="fixme" v="consider natural=peak for the most distinct mountains in the district" />
		<tag k="name" v="Veinestinden" />
		<tag k="natural" v="hill" />
		<tag k="place" v="locality" />
		<tag k="ssr:stedsnr" v="502486" />
	</node>
	<node lat="67.82856944796487" lon="12.848447212342228" id="-11867">
		<tag k="fixme" v="consider natural=peak for the most distinct mountains in the district" />
		<tag k="name" v="Ørnpliggen" />
		<tag k="natural" v="hill" />
		<tag k="place" v="locality" />
		<tag k="ssr:stedsnr" v="684064" />
	</node>
	<node lat="67.82399166792615" lon="12.84421389703871" id="-11868">
		<tag k="name" v="Djupbåen" />
		<tag k="natural" v="shoal" />
		<tag k="place" v="locality" />
		<tag k="ssr:stedsnr" v="684065" />
	</node>
	<node lat="67.88054722135169" lon="12.843213899146466" id="-11869">
		<tag k="name" v="Draugvikskjeran" />
		<tag k="natural" v="shoal" />
		<tag k="place" v="locality" />
		<tag k="ssr:stedsnr" v="683380" />
	</node>
	<node lat="68.0074666660088" lon="12.947466676543357" id="-11870">
		<tag k="name" v="Skjelvsteinen" />
		<tag k="place" v="islet" />
		<tag k="ssr:stedsnr" v="684030" />
	</node>
	<node lat="67.84011389134263" lon="12.858727789045856" id="-11871">
		<tag k="name" v="Tuvdalen" />
		<tag k="natural" v="valley" />
		<tag k="place" v="locality" />
		<tag k="ssr:stedsnr" v="684080" />
	</node>
	<node lat="67.84459420952574" lon="12.885983808304557" id="-11872">
		<tag k="name" v="Tuv" />
		<tag k="place" v="locality" />
		<tag k="ssr:stedsnr" v="684086" />
	</node>
	<node lat="67.84249722570918" lon="12.880255556207551" id="-11873">
		<tag k="name" v="Tuvvatnet" />
		<tag k="natural" v="water" />
		<tag k="ssr:stedsnr" v="684087" />
	</node>
	<node lat="67.99552499889337" lon="13.037324994699956" id="-11874">
		<tag k="alt_name" v="Austredalen" />
		<tag k="name" v="Austerdalen" />
		<tag k="natural" v="valley" />
		<tag k="place" v="locality" />
		<tag k="ssr:stedsnr" v="684297" />
	</node>
	<node lat="67.91170277823504" lon="13.055994440159132" id="-11875">
		<tag k="fixme" v="consider natural=peak for the most distinct mountains in the district" />
		<tag k="name" v="Steffennakken" />
		<tag k="natural" v="hill" />
		<tag k="place" v="locality" />
		<tag k="ssr:stedsnr" v="684381" />
	</node>
	<node lat="67.90036666401501" lon="13.046308336529192" id="-11876">
		<tag k="amenity" v="place_of_worship" />
		<tag k="denomination" v="lutheran" />
		<tag k="name" v="Moskenes kirke" />
		<tag k="religion" v="christian" />
		<tag k="ssr:stedsnr" v="684393" />
	</node>
	<node lat="67.97536110870006" lon="13.107805563456537" id="-11877">
		<tag k="alt_name" v="Austrevatnet" />
		<tag k="name" v="Austervatnet" />
		<tag k="natural" v="water" />
		<tag k="ssr:stedsnr" v="684451" />
	</node>
	<node lat="67.95873055649535" lon="13.003774992131165" id="-11878">
		<tag k="name" v="Vindstad" />
		<tag k="place" v="hamlet" />
		<tag k="ssr:stedsnr" v="684466" />
	</node>
	<node lat="67.96067499749377" lon="13.021847225584889" id="-11879">
		<tag k="name" v="Engelsneset" />
		<tag k="natural" v="cape" />
		<tag k="ssr:stedsnr" v="684467" />
	</node>
	<node lat="67.9408722258737" lon="12.780194441403548" id="-11880">
		<tag k="name" v="Nordbåen" />
		<tag k="natural" v="shoal" />
		<tag k="place" v="locality" />
		<tag k="ssr:stedsnr" v="684469" />
	</node>
	<node lat="67.94584166780797" lon="13.133044441840603" id="-11881">
		<tag k="fixme" v="consider place=suburb, village or hamlet" />
		<tag k="name" v="Hamnøya" />
		<tag k="place" v="quarter" />
		<tag k="ssr:stedsnr" v="684478" />
	</node>
	<node lat="67.93241111429336" lon="13.08874167363407" id="-11882">
		<tag k="name" v="Reine" />
		<tag k="place" v="village" />
		<tag k="ssr:stedsnr" v="684485" />
	</node>
	<node lat="67.94053055823879" lon="13.125116670403761" id="-11883">
		<tag k="fixme" v="consider seamark:type=rock or natural=shoal" />
		<tag k="name" v="Einsteinen" />
		<tag k="place" v="islet" />
		<tag k="ssr:stedsnr" v="684486" />
	</node>
	<node lat="67.94516944702175" lon="13.129852771872736" id="-11884">
		<tag k="name" v="Breisundet" />
		<tag k="natural" v="strait" />
		<tag k="ssr:stedsnr" v="534377" />
	</node>
	<node lat="67.94466110832018" lon="13.134411105038728" id="-11885">
		<tag k="name" v="Sørøya" />
		<tag k="natural" v="cape" />
		<tag k="ssr:stedsnr" v="534382" />
	</node>
	<node lat="67.88991666779447" lon="13.007416673113156" id="-11886">
		<tag k="name" v="Storhaugen" />
		<tag k="natural" v="hill" />
		<tag k="place" v="locality" />
		<tag k="ssr:stedsnr" v="535374" />
	</node>
	<node lat="67.89463888552864" lon="12.920608331906791" id="-11887">
		<tag k="name" v="Mengedalsheia" />
		<tag k="natural" v="hill" />
		<tag k="place" v="locality" />
		<tag k="ssr:stedsnr" v="535276" />
	</node>
	<node lat="67.92177222211377" lon="13.022491662296744" id="-11888">
		<tag k="name" v="Vesterdalen" />
		<tag k="natural" v="valley" />
		<tag k="place" v="locality" />
		<tag k="ssr:stedsnr" v="535283" />
	</node>
	<node lat="67.97351111210709" lon="13.145408326795382" id="-11889">
		<tag k="name" v="Vassdalen" />
		<tag k="natural" v="valley" />
		<tag k="place" v="locality" />
		<tag k="ssr:stedsnr" v="535419" />
	</node>
	<node lat="67.97335277741526" lon="13.014955555000771" id="-11890">
		<tag k="name" v="Nabblian" />
		<tag k="natural" v="slope" />
		<tag k="place" v="locality" />
		<tag k="ssr:stedsnr" v="536077" />
	</node>
	<node lat="67.96835555270248" lon="12.956497230705015" id="-11891">
		<tag k="name" v="Reklidalen" />
		<tag k="natural" v="valley" />
		<tag k="place" v="locality" />
		<tag k="ssr:stedsnr" v="536082" />
	</node>
	<node lat="68.04472222385655" lon="13.001569440529591" id="-11892">
		<tag k="name" v="Hjellberget" />
		<tag k="natural" v="cliff" />
		<tag k="ssr:stedsnr" v="596107" />
	</node>
	<node lat="67.95922500180548" lon="12.938697219058563" id="-11893">
		<tag k="name" v="Lian" />
		<tag k="natural" v="slope" />
		<tag k="place" v="locality" />
		<tag k="ssr:stedsnr" v="596069" />
	</node>
	<node lat="67.88966666957631" lon="12.97096111812093" id="-11894">
		<tag k="name" v="Breiflotan" />
		<tag k="natural" v="hill" />
		<tag k="place" v="locality" />
		<tag k="ssr:stedsnr" v="596257" />
	</node>
	<node lat="67.88221060260904" lon="12.98660110742844" id="-11895">
		<tag k="fixme" v="consider seamark:type=rock or natural=shoal" />
		<tag k="name" v="Skarvskjeran" />
		<tag k="place" v="islet" />
		<tag k="ssr:stedsnr" v="596615" />
	</node>
	<node lat="67.8351055551563" lon="12.821113885145648" id="-11896">
		<tag k="name" v="Hellsanden" />
		<tag k="natural" v="beach" />
		<tag k="ssr:stedsnr" v="596702" />
	</node>
	<node lat="67.83321944794116" lon="12.816411112574812" id="-11897">
		<tag k="name" v="Buvågen" />
		<tag k="natural" v="bay" />
		<tag k="ssr:stedsnr" v="623108" />
	</node>
	<node lat="67.89330555802081" lon="13.015716670606766" id="-11898">
		<tag k="name" v="Sørvågvatnet" />
		<tag k="natural" v="water" />
		<tag k="ssr:stedsnr" v="623406" />
	</node>
	<node lat="67.87948888538611" lon="12.906944441284212" id="-11899">
		<tag k="name" v="Ågdalen" />
		<tag k="natural" v="valley" />
		<tag k="place" v="locality" />
		<tag k="ssr:stedsnr" v="623412" />
	</node>
	<node lat="67.8832305593998" lon="12.75504999261588" id="-11900">
		<tag k="name" v="Storskallen" />
		<tag k="natural" v="shoal" />
		<tag k="place" v="locality" />
		<tag k="ssr:stedsnr" v="623418" />
	</node>
	<node lat="67.96566666258461" lon="12.754813889773859" id="-11901">
		<tag k="name" v="Hjellbergskallan" />
		<tag k="natural" v="shoal" />
		<tag k="place" v="locality" />
		<tag k="ssr:stedsnr" v="623470" />
	</node>
	<node lat="67.94238888846927" lon="13.1269777694941" id="-11902">
		<tag k="fixme" v="consider seamark:type=rock or natural=shoal" />
		<tag k="name" v="Flatskjeret" />
		<tag k="place" v="islet" />
		<tag k="ssr:stedsnr" v="623509" />
	</node>
	<node lat="67.93362777838423" lon="13.088547224193986" id="-11903">
		<tag k="amenity" v="place_of_worship" />
		<tag k="denomination" v="lutheran" />
		<tag k="name" v="Reine kirke" />
		<tag k="religion" v="christian" />
		<tag k="ssr:stedsnr" v="623513" />
	</node>
	<node lat="67.9311749998838" lon="13.020288896698997" id="-11904">
		<tag k="alt_name" v="Munkan" />
		<tag k="fixme" v="consider natural=peak for the most distinct mountains in the district" />
		<tag k="name" v="Munken" />
		<tag k="natural" v="hill" />
		<tag k="place" v="locality" />
		<tag k="ssr:stedsnr" v="623514" />
	</node>
	<node lat="67.85305833669658" lon="12.918511112502012" id="-11905">
		<tag k="name" v="Båan" />
		<tag k="place" v="locality" />
		<tag k="seamark:type" v="rock" />
		<tag k="ssr:stedsnr" v="654695" />
	</node>
	<node lat="67.95126944009769" lon="13.132144453632487" id="-11906">
		<tag k="name" v="Hella" />
		<tag k="place" v="farm" />
		<tag k="ssr:stedsnr" v="655403" />
	</node>
	<node lat="68.02408333407554" lon="12.965311099690705" id="-11907">
		<tag k="name" v="Mullian" />
		<tag k="natural" v="slope" />
		<tag k="place" v="locality" />
		<tag k="ssr:stedsnr" v="657082" />
	</node>
	<node lat="68.03073055549781" lon="13.01166389459709" id="-11908">
		<tag k="name" v="Trolldalen" />
		<tag k="natural" v="valley" />
		<tag k="place" v="locality" />
		<tag k="ssr:stedsnr" v="657083" />
	</node>
	<node lat="67.92894167068148" lon="12.950844453531188" id="-11909">
		<tag k="name" v="Krokvegneset" />
		<tag k="natural" v="cape" />
		<tag k="ssr:stedsnr" v="657297" />
	</node>
	<node lat="67.93371944456447" lon="13.042036116020913" id="-11910">
		<tag k="name" v="Austerdalsfjellet" />
		<tag k="natural" v="hill" />
		<tag k="place" v="locality" />
		<tag k="ssr:stedsnr" v="657300" />
	</node>
	<node lat="67.95446944725605" lon="13.092111099857393" id="-11911">
		<tag k="name" v="Trollholet" />
		<tag k="natural" v="valley" />
		<tag k="place" v="locality" />
		<tag k="ssr:stedsnr" v="657439" />
	</node>
	<node lat="67.8863250037483" lon="12.905583345000423" id="-11912">
		<tag k="name" v="Ågskaret" />
		<tag k="natural" v="valley" />
		<tag k="place" v="locality" />
		<tag k="ssr:stedsnr" v="657311" />
	</node>
	<node lat="67.88101388969274" lon="12.855555552522056" id="-11913">
		<tag k="name" v="Gjerdnakken" />
		<tag k="natural" v="ridge" />
		<tag k="place" v="locality" />
		<tag k="ssr:stedsnr" v="657314" />
	</node>
	<node lat="68.00276944248219" lon="13.014713898314897" id="-11914">
		<tag k="alt_name" v="Maslitinden" />
		<tag k="fixme" v="consider natural=peak for the most distinct mountains in the district" />
		<tag k="name" v="Marklitinden" />
		<tag k="natural" v="hill" />
		<tag k="place" v="locality" />
		<tag k="ssr:stedsnr" v="684052" />
	</node>
	<node lat="67.87834444196424" lon="12.966183330401392" id="-11915">
		<tag k="name" v="Andstabbvika" />
		<tag k="natural" v="bay" />
		<tag k="ssr:stedsnr" v="684414" />
	</node>
	<node lat="67.85055000367912" lon="12.821722221165997" id="-11916">
		<tag k="name" v="Steinflesa" />
		<tag k="place" v="islet" />
		<tag k="ssr:stedsnr" v="684422" />
	</node>
	<node lat="67.84113889315934" lon="12.79688611840224" id="-11917">
		<tag k="name" v="Kjellsneset" />
		<tag k="natural" v="cape" />
		<tag k="ssr:stedsnr" v="684423" />
	</node>
	<node lat="67.85619722381335" lon="12.800338885544425" id="-11918">
		<tag k="name" v="Langflesa" />
		<tag k="place" v="islet" />
		<tag k="ssr:stedsnr" v="684424" />
	</node>
	<node lat="67.9231305591747" lon="12.93451665725764" id="-11919">
		<tag k="fixme" v="consider natural=peak for the most distinct mountains in the district" />
		<tag k="name" v="Grustinden" />
		<tag k="natural" v="hill" />
		<tag k="place" v="locality" />
		<tag k="ssr:stedsnr" v="897294" />
	</node>
	<node lat="67.98972222574487" lon="13.017688898189602" id="-11920">
		<tag k="name" v="Steinflua" />
		<tag k="natural" v="shoal" />
		<tag k="place" v="locality" />
		<tag k="ssr:stedsnr" v="714504" />
	</node>
	<node lat="67.94030555796563" lon="13.08358056277653" id="-11921">
		<tag k="name" v="Preikstolen" />
		<tag k="natural" v="hill" />
		<tag k="place" v="locality" />
		<tag k="ssr:stedsnr" v="716423" />
	</node>
	<node lat="67.88770833762989" lon="12.969052776294673" id="-11922">
		<tag k="name" v="Djuplia" />
		<tag k="natural" v="slope" />
		<tag k="place" v="locality" />
		<tag k="ssr:stedsnr" v="717252" />
	</node>
	<node lat="67.88871666320772" lon="13.002263885758158" id="-11923">
		<tag k="name" v="Tindselva" />
		<tag k="ssr:stedsnr" v="717384" />
		<tag k="waterway" v="river" />
	</node>
	<node lat="67.92445277915944" lon="13.092922228497205" id="-11924">
		<tag k="fixme" v="consider seamark:type=rock or natural=shoal" />
		<tag k="name" v="Munkskjeret" />
		<tag k="place" v="islet" />
		<tag k="ssr:stedsnr" v="717406" />
	</node>
	<node lat="67.96981666572371" lon="13.167438892117495" id="-11925">
		<tag k="name" v="Ølkonvatnet" />
		<tag k="natural" v="water" />
		<tag k="ssr:stedsnr" v="717425" />
		<tag k="water" v="lake" />
	</node>
	<node lat="67.95923889002329" lon="13.152402768669964" id="-11926">
		<tag k="name" v="Vassdalsvika" />
		<tag k="natural" v="bay" />
		<tag k="ssr:stedsnr" v="899395" />
	</node>
	<node lat="67.95510277799474" lon="13.14358334076409" id="-11927">
		<tag k="name" v="Lilandsodden" />
		<tag k="natural" v="cape" />
		<tag k="ssr:stedsnr" v="899397" />
	</node>
	<node lat="67.8853999972015" lon="12.913186104654352" id="-11928">
		<tag k="name" v="Småskogan" />
		<tag k="place" v="locality" />
		<tag k="ssr:stedsnr" v="900363" />
	</node>
	<node lat="67.89802500391205" lon="13.049049994403537" id="-11929">
		<tag k="name" v="Tjeldhaugen" />
		<tag k="natural" v="hill" />
		<tag k="place" v="locality" />
		<tag k="ssr:stedsnr" v="900365" />
	</node>
	<node lat="67.89603055769305" lon="13.007263900398138" id="-11930">
		<tag k="name" v="Studalsbrekka" />
		<tag k="natural" v="slope" />
		<tag k="place" v="locality" />
		<tag k="ssr:stedsnr" v="900373" />
	</node>
	<node lat="67.89202222072879" lon="13.022272221737712" id="-11931">
		<tag k="name" v="Svinneset" />
		<tag k="natural" v="cape" />
		<tag k="ssr:stedsnr" v="900376" />
	</node>
	<node lat="67.88450000282019" lon="13.001113890116107" id="-11932">
		<tag k="name" v="Roseberget" />
		<tag k="natural" v="cape" />
		<tag k="ssr:stedsnr" v="900379" />
	</node>
	<node lat="67.83241389012699" lon="12.80238056634274" id="-11933">
		<tag k="name" v="Løktnakken" />
		<tag k="natural" v="cape" />
		<tag k="ssr:stedsnr" v="900730" />
	</node>
	<node lat="67.87959444484216" lon="12.983958341024195" id="-11934">
		<tag k="alt_name" v="Å i Lofoten" />
		<tag k="name" v="Å" />
		<tag k="place" v="village" />
		<tag k="ssr:stedsnr" v="744377" />
	</node>
	<node lat="68.0013774116376" lon="13.023941027178822" id="-11935">
		<tag k="alt_name" v="Krokhammartindan" />
		<tag k="fixme" v="consider natural=peak for the most distinct mountains in the district" />
		<tag k="name" v="Kråkhammartinden" />
		<tag k="natural" v="hill" />
		<tag k="place" v="locality" />
		<tag k="ssr:stedsnr" v="745079" />
	</node>
	<node lat="67.83276944855108" lon="12.832988892135022" id="-11936">
		<tag k="name" v="Munkan" />
		<tag k="natural" v="hill" />
		<tag k="place" v="locality" />
		<tag k="ssr:stedsnr" v="745094" />
	</node>
	<node lat="67.91753055299661" lon="12.993888879031367" id="-11937">
		<tag k="alt_name" v="Fjerdedalsvatnet" />
		<tag k="name" v="Fjerddalsvatnet" />
		<tag k="natural" v="water" />
		<tag k="ssr:stedsnr" v="745405" />
	</node>
	<node lat="67.92254722664606" lon="12.971119446520923" id="-11938">
		<tag k="alt_name" v="Molltinden" />
		<tag k="fixme" v="consider natural=peak for the most distinct mountains in the district" />
		<tag k="name" v="Moldtinden" />
		<tag k="natural" v="hill" />
		<tag k="place" v="locality" />
		<tag k="ssr:stedsnr" v="745406" />
	</node>
	<node lat="67.91157222134778" lon="13.01923054874874" id="-11939">
		<tag k="fixme" v="consider natural=peak for the most distinct mountains in the district" />
		<tag k="name" v="Kjølen" />
		<tag k="natural" v="hill" />
		<tag k="place" v="locality" />
		<tag k="ssr:stedsnr" v="745413" />
	</node>
	<node lat="67.89732222344878" lon="12.847369442129427" id="-11940">
		<tag k="name" v="Stokkvikholmen" />
		<tag k="place" v="islet" />
		<tag k="ssr:stedsnr" v="745419" />
	</node>
	<node lat="67.94111666771184" lon="13.090588897177675" id="-11941">
		<tag k="name" v="Andøya" />
		<tag k="place" v="island" />
		<tag k="ssr:stedsnr" v="745474" />
	</node>
	<node lat="67.94205833763898" lon="13.100647223009712" id="-11942">
		<tag k="name" v="Kvalvika" />
		<tag k="natural" v="bay" />
		<tag k="ssr:stedsnr" v="745483" />
	</node>
	<node lat="67.85116666373203" lon="12.84036665430593" id="-11943">
		<tag k="name" v="Trusteinen" />
		<tag k="natural" v="stone" />
		<tag k="ssr:stedsnr" v="775673" />
	</node>
	<node lat="67.86124166589876" lon="12.974994455638754" id="-11944">
		<tag k="name" v="Øvre Grunnskallen" />
		<tag k="natural" v="shoal" />
		<tag k="place" v="locality" />
		<tag k="ssr:stedsnr" v="775707" />
	</node>
	<node lat="67.88468332901427" lon="13.003586110376684" id="-11945">
		<tag k="fixme" v="consider seamark:type=rock or natural=shoal" />
		<tag k="name" v="Hjelleskjeret" />
		<tag k="place" v="islet" />
		<tag k="ssr:stedsnr" v="778329" />
	</node>
	<node lat="67.89548611259781" lon="13.009983325486775" id="-11946">
		<tag k="name" v="Olaelva" />
		<tag k="ssr:stedsnr" v="778351" />
		<tag k="waterway" v="river" />
	</node>
	<node lat="67.9586583300022" lon="12.987708336298892" id="-11947">
		<tag k="name" v="Skarsloka" />
		<tag k="natural" v="valley" />
		<tag k="place" v="locality" />
		<tag k="ssr:stedsnr" v="778418" />
	</node>
	<node lat="67.88321944092279" lon="13.023847215132527" id="-11948">
		<tag k="name" v="Storvika" />
		<tag k="natural" v="bay" />
		<tag k="ssr:stedsnr" v="778673" />
	</node>
	<node lat="67.87692499635652" lon="12.947833321583532" id="-11949">
		<tag k="fixme" v="multiple name tags, choose one and add the other to alt_name; consider natural=peak for the most distinct mountains in the district" />
		<tag k="name" v="Andstabben;Stor-Andstabben" />
		<tag k="natural" v="hill" />
		<tag k="place" v="locality" />
		<tag k="ssr:stedsnr" v="916440" />
	</node>
	<node lat="67.88824722227763" lon="13.006399989994899" id="-11950">
		<tag k="name" v="Vedvika" />
		<tag k="natural" v="bay" />
		<tag k="ssr:stedsnr" v="836704" />
	</node>
	<node lat="67.87239166574017" lon="12.998777784829647" id="-11951">
		<tag k="name" v="Kobbskallen" />
		<tag k="natural" v="shoal" />
		<tag k="place" v="locality" />
		<tag k="ssr:stedsnr" v="836678" />
	</node>
	<node lat="67.86155555554716" lon="12.978652785661497" id="-11952">
		<tag k="name" v="Dåvskallen" />
		<tag k="natural" v="shoal" />
		<tag k="place" v="locality" />
		<tag k="ssr:stedsnr" v="836679" />
	</node>
	<node lat="67.90209166395181" lon="13.006916659421313" id="-11953">
		<tag k="name" v="Badevika" />
		<tag k="natural" v="bay" />
		<tag k="ssr:stedsnr" v="837525" />
	</node>
	<node lat="67.9352972199201" lon="13.076433334156864" id="-11954">
		<tag k="name" v="Skjeret" />
		<tag k="place" v="islet" />
		<tag k="ssr:stedsnr" v="838428" />
	</node>
	<node lat="67.93394444531543" lon="13.079563895090223" id="-11955">
		<tag k="fixme" v="consider seamark:type=rock or natural=shoal" />
		<tag k="name" v="Kobbskjeret" />
		<tag k="place" v="islet" />
		<tag k="ssr:stedsnr" v="838429" />
	</node>
	<node lat="67.94013055349846" lon="13.079694433987717" id="-11956">
		<tag k="name" v="Valen" />
		<tag k="natural" v="ridge" />
		<tag k="place" v="locality" />
		<tag k="ssr:stedsnr" v="838430" />
	</node>
	<node lat="67.9361805559511" lon="12.907122212379884" id="-11957">
		<tag k="fixme" v="consider natural=peak for the most distinct mountains in the district" />
		<tag k="name" v="Ertenhellåsen" />
		<tag k="natural" v="hill" />
		<tag k="place" v="locality" />
		<tag k="ssr:stedsnr" v="839303" />
	</node>
	<node lat="67.90263611153857" lon="12.968486121394985" id="-11958">
		<tag k="name" v="Himmelheia" />
		<tag k="natural" v="hill" />
		<tag k="place" v="locality" />
		<tag k="ssr:stedsnr" v="839315" />
	</node>
	<node lat="67.89464999688299" lon="13.00775278129958" id="-11959">
		<tag k="name" v="Kvitbergan" />
		<tag k="natural" v="ridge" />
		<tag k="place" v="locality" />
		<tag k="ssr:stedsnr" v="839377" />
	</node>
	<node lat="67.85290555622191" lon="12.836274992991719" id="-11960">
		<tag k="name" v="Oterhaugneset" />
		<tag k="natural" v="cape" />
		<tag k="ssr:stedsnr" v="839676" />
	</node>
	<node lat="67.85726110923939" lon="12.867336121303266" id="-11961">
		<tag k="name" v="Nordheia" />
		<tag k="natural" v="hill" />
		<tag k="place" v="locality" />
		<tag k="ssr:stedsnr" v="839678" />
	</node>
	<node lat="67.88418888616741" lon="13.00192500345225" id="-11962">
		<tag k="name" v="Tindsvågen" />
		<tag k="natural" v="strait" />
		<tag k="ssr:stedsnr" v="839690" />
	</node>
	<node lat="67.6406666625269" lon="12.919197231179043" id="-11963">
		<tag k="name" v="Vestfjorden" />
		<tag k="place" v="sea" />
		<tag k="ssr:stedsnr" v="926139" />
	</node>
	<node lat="67.88486111333962" lon="12.951691661618396" id="-11964">
		<tag k="alt_name" v="Åvatnet;Å-vatnet" />
		<tag k="name" v="Ågvatnet" />
		<tag k="natural" v="water" />
		<tag k="ssr:stedsnr" v="926387" />
		<tag k="water" v="lake" />
	</node>
	<node lat="67.8796944475795" lon="12.972794445201137" id="-11965">
		<tag k="name" v="Litlandstabben" />
		<tag k="natural" v="hill" />
		<tag k="place" v="locality" />
		<tag k="ssr:stedsnr" v="926389" />
	</node>
	<node lat="67.88516944528493" lon="13.008802778883894" id="-11966">
		<tag k="name" v="Bogen" />
		<tag k="natural" v="bay" />
		<tag k="ssr:stedsnr" v="926390" />
	</node>
	<node lat="67.92278333642338" lon="13.012763897345247" id="-11967">
		<tag k="fixme" v="consider natural=peak for the most distinct mountains in the district" />
		<tag k="name" v="Djupfjordheia" />
		<tag k="natural" v="hill" />
		<tag k="place" v="locality" />
		<tag k="ssr:stedsnr" v="927395" />
	</node>
	<node lat="67.83115833103852" lon="12.843855554613349" id="-11968">
		<tag k="name" v="Stormarka" />
		<tag k="place" v="locality" />
		<tag k="ssr:stedsnr" v="927083" />
	</node>
	<node lat="67.8368361109261" lon="12.82311667362135" id="-11970">
		<tag k="fixme" v="multiple name tags, choose one and add the other to alt_name" />
		<tag k="name" v="Bjørnskardet;Hellsreva" />
		<tag k="natural" v="valley" />
		<tag k="place" v="locality" />
		<tag k="ssr:stedsnr" v="927099" />
	</node>
	<node lat="67.88911666958168" lon="13.035911109854332" id="-11971">
		<tag k="alt_name" v="Besselvåg" />
		<tag k="name" v="Besselvågen" />
		<tag k="natural" v="bay" />
		<tag k="ssr:stedsnr" v="927423" />
	</node>
	<node lat="67.91741388822525" lon="12.912938899707118" id="-11972">
		<tag k="fixme" v="consider natural=peak for the most distinct mountains in the district" />
		<tag k="name" v="Trolldalstinden" />
		<tag k="natural" v="hill" />
		<tag k="place" v="locality" />
		<tag k="ssr:stedsnr" v="927397" />
	</node>
	<node lat="67.84787777871296" lon="12.763016656721376" id="-11973">
		<tag k="name" v="Seiskallen" />
		<tag k="natural" v="shoal" />
		<tag k="place" v="locality" />
		<tag k="ssr:stedsnr" v="927439" />
	</node>
	<node lat="67.98149999926342" lon="12.924291677124586" id="-11974">
		<tag k="alt_name" v="Kalkoneset;Kalkunneset" />
		<tag k="name" v="Kalkonneset" />
		<tag k="natural" v="cape" />
		<tag k="ssr:stedsnr" v="927448" />
	</node>
	<node lat="67.94388888518463" lon="12.967672229237714" id="-11975">
		<tag k="fixme" v="consider natural=peak for the most distinct mountains in the district" />
		<tag k="name" v="Kringeldalstind" />
		<tag k="natural" v="hill" />
		<tag k="place" v="locality" />
		<tag k="ssr:stedsnr" v="927489" />
	</node>
	<node lat="67.94729999582906" lon="13.039283333383914" id="-11976">
		<tag k="alt_name" v="Veineset" />
		<tag k="name" v="Veines" />
		<tag k="natural" v="cape" />
		<tag k="ssr:stedsnr" v="927492" />
	</node>
	<node lat="67.92593889310987" lon="13.060141674250685" id="-11977">
		<tag k="name" v="Helvete" />
		<tag k="place" v="locality" />
		<tag k="ssr:stedsnr" v="927501" />
	</node>
	<node lat="67.84243055359097" lon="12.795516677397094" id="-11978">
		<tag k="fixme" v="multiple name tags, choose one and add the other to alt_name" />
		<tag k="name" v="Kjellsnesskjeran;Nesskjeran" />
		<tag k="natural" v="cape" />
		<tag k="ssr:stedsnr" v="897706" />
	</node>
	<node lat="67.8896777788431" lon="12.891236109547306" id="-11979">
		<tag k="name" v="Øverdalen" />
		<tag k="natural" v="valley" />
		<tag k="place" v="locality" />
		<tag k="ssr:stedsnr" v="900316" />
	</node>
	<node lat="67.97627499569127" lon="13.152827781881369" id="-11980">
		<tag k="name" v="Bukkskinnet" />
		<tag k="natural" v="cliff" />
		<tag k="ssr:stedsnr" v="900412" />
	</node>
	<node lat="67.97439444733419" lon="13.073608329720797" id="-11981">
		<tag k="name" v="Kanonen" />
		<tag k="place" v="locality" />
		<tag k="ssr:stedsnr" v="900418" />
	</node>
	<node lat="67.96411389199066" lon="12.97290001161367" id="-11982">
		<tag k="name" v="Elendalen" />
		<tag k="natural" v="valley" />
		<tag k="place" v="locality" />
		<tag k="ssr:stedsnr" v="900422" />
	</node>
	<node lat="67.88283611045637" lon="12.949905545389637" id="-11983">
		<tag k="name" v="Kjerstihola" />
		<tag k="natural" v="bay" />
		<tag k="ssr:stedsnr" v="900352" />
	</node>
	<node lat="67.93690555253133" lon="12.963199996147496" id="-11984">
		<tag k="name" v="Lamheia" />
		<tag k="natural" v="hill" />
		<tag k="place" v="locality" />
		<tag k="ssr:stedsnr" v="900460" />
	</node>
	<node lat="67.87264722469219" lon="12.852072215075566" id="-11985">
		<tag k="name" v="Gjerdvika" />
		<tag k="natural" v="bay" />
		<tag k="ssr:stedsnr" v="926403" />
	</node>
	<node lat="67.902033332303" lon="12.944111108862403" id="-11986">
		<tag k="name" v="Trolldalsvatnet" />
		<tag k="natural" v="water" />
		<tag k="ssr:stedsnr" v="927408" />
		<tag k="water" v="lake" />
	</node>
	<node lat="67.89102222635898" lon="12.748225000477095" id="-11987">
		<tag k="name" v="Elvskallan" />
		<tag k="natural" v="shoal" />
		<tag k="place" v="locality" />
		<tag k="ssr:stedsnr" v="927414" />
	</node>
	<node lat="67.972194441681" lon="13.088741674890608" id="-11988">
		<tag k="fixme" v="multiple name tags, choose one and add the other to alt_name" />
		<tag k="name" v="Festhælvatnet;Vestervatnet" />
		<tag k="natural" v="water" />
		<tag k="ssr:stedsnr" v="927465" />
	</node>
	<node lat="67.85912500266194" lon="12.967208331085143" id="-11989">
		<tag k="name" v="Øvre Rødliskallen" />
		<tag k="natural" v="shoal" />
		<tag k="place" v="locality" />
		<tag k="ssr:stedsnr" v="957721" />
	</node>
	<node lat="67.85940555479064" lon="12.975272211821775" id="-11990">
		<tag k="name" v="Indre Grunnskallen" />
		<tag k="natural" v="shoal" />
		<tag k="place" v="locality" />
		<tag k="ssr:stedsnr" v="957723" />
	</node>
	<node lat="67.92230000216237" lon="13.05428055205752" id="-11991">
		<tag k="name" v="Rundlia" />
		<tag k="natural" v="slope" />
		<tag k="place" v="locality" />
		<tag k="ssr:stedsnr" v="960276" />
	</node>
	<node lat="67.97864166819451" lon="13.09403056015195" id="-11992">
		<tag k="fixme" v="consider natural=peak for the most distinct mountains in the district" />
		<tag k="name" v="Festhælvasstinden" />
		<tag k="natural" v="hill" />
		<tag k="place" v="locality" />
		<tag k="ssr:stedsnr" v="960405" />
	</node>
	<node lat="67.95503332952525" lon="13.117047224396897" id="-11993">
		<tag k="name" v="Skjåneset" />
		<tag k="natural" v="cape" />
		<tag k="ssr:stedsnr" v="960443" />
	</node>
	<node lat="67.88017499840225" lon="13.015380566399292" id="-11994">
		<tag k="name" v="Guriskjeret" />
		<tag k="natural" v="shoal" />
		<tag k="place" v="locality" />
		<tag k="ssr:stedsnr" v="16380" />
	</node>
	<node lat="67.87863610652147" lon="13.022816675257065" id="-11995">
		<tag k="name" v="Husmannsskallen" />
		<tag k="natural" v="shoal" />
		<tag k="place" v="locality" />
		<tag k="ssr:stedsnr" v="16381" />
	</node>
	<node lat="67.86314444103498" lon="12.902877775137105" id="-11996">
		<tag k="alt_name" v="Ånnstadvika;Åndstadvika" />
		<tag k="name" v="Ånstadvika" />
		<tag k="natural" v="bay" />
		<tag k="ssr:stedsnr" v="16388" />
	</node>
	<node lat="67.86106111009451" lon="12.750691663512756" id="-11997">
		<tag k="name" v="Hellarskallen" />
		<tag k="natural" v="shoal" />
		<tag k="place" v="locality" />
		<tag k="ssr:stedsnr" v="16393" />
	</node>
	<node lat="67.82903889207864" lon="12.808241668516917" id="-11998">
		<tag k="alt_name" v="Løngholmen" />
		<tag k="name" v="Lyngholmen" />
		<tag k="place" v="islet" />
		<tag k="ssr:stedsnr" v="17091" />
	</node>
	<node lat="67.83504722543758" lon="12.80038888226236" id="-11999">
		<tag k="fixme" v="multiple name tags, choose one and add the other to alt_name" />
		<tag k="name" v="Buvågnakken;Buvågvarden" />
		<tag k="natural" v="cape" />
		<tag k="ssr:stedsnr" v="17096" />
	</node>
	<node lat="67.84733333046438" lon="12.804397215703636" id="-12001">
		<tag k="name" v="Kjerksteinen" />
		<tag k="place" v="locality" />
		<tag k="seamark:type" v="rock" />
		<tag k="ssr:stedsnr" v="17453" />
	</node>
	<node lat="68.01308333498639" lon="13.01867499317287" id="-12002">
		<tag k="fixme" v="consider natural=peak for the most distinct mountains in the district" />
		<tag k="name" v="Markan" />
		<tag k="natural" v="hill" />
		<tag k="place" v="locality" />
		<tag k="ssr:stedsnr" v="17039" />
	</node>
	<node lat="67.99356686661832" lon="13.011126945031423" id="-12003">
		<tag k="alt_name" v="Kirkefjord" />
		<tag k="fixme" v="consider place=hamlet" />
		<tag k="name" v="Kjerkfjorden" />
		<tag k="place" v="farm" />
		<tag k="ssr:stedsnr" v="17335" />
	</node>
	<node lat="67.90358055125144" lon="12.847522232667085" id="-12004">
		<tag k="fixme" v="consider seamark:type=rock or natural=shoal" />
		<tag k="name" v="Smalskjeret" />
		<tag k="place" v="islet" />
		<tag k="ssr:stedsnr" v="17420" />
	</node>
	<node lat="67.8969277774571" lon="13.048811117840017" id="-12005">
		<tag k="name" v="Tjeldskjeret" />
		<tag k="place" v="islet" />
		<tag k="ssr:stedsnr" v="17422" />
	</node>
	<node lat="67.89294722370545" lon="12.838919446892236" id="-12006">
		<tag k="name" v="Grasholmen" />
		<tag k="place" v="islet" />
		<tag k="ssr:stedsnr" v="17426" />
	</node>
	<node lat="67.85228055687955" lon="12.881883324649843" id="-12007">
		<tag k="name" v="Kudalen" />
		<tag k="natural" v="valley" />
		<tag k="place" v="locality" />
		<tag k="ssr:stedsnr" v="17457" />
	</node>
	<node lat="67.971397219784" lon="13.003783326991137" id="-12008">
		<tag k="fixme" v="consider natural=peak for the most distinct mountains in the district" />
		<tag k="name" v="Olatinden" />
		<tag k="natural" v="hill" />
		<tag k="place" v="locality" />
		<tag k="ssr:stedsnr" v="17475" />
	</node>
	<node lat="67.95000555558623" lon="12.922847218893537" id="-12009">
		<tag k="fixme" v="multiple name tags, choose one and add the other to alt_name; consider natural=peak for the most distinct mountains in the district" />
		<tag k="name" v="Sauhågtinden;Saubergtinden;Middagstinden" />
		<tag k="natural" v="hill" />
		<tag k="place" v="locality" />
		<tag k="ssr:stedsnr" v="17487" />
	</node>
	<node lat="67.94613332971035" lon="12.953666659572859" id="-12010">
		<tag k="name" v="Kringeldalsvatn" />
		<tag k="natural" v="water" />
		<tag k="ssr:stedsnr" v="17496" />
	</node>
	<node lat="67.92471389087743" lon="13.108625008216286" id="-12012">
		<tag k="name" v="Gautbåen" />
		<tag k="natural" v="shoal" />
		<tag k="place" v="locality" />
		<tag k="ssr:stedsnr" v="47536" />
	</node>
	<node lat="67.9615388935203" lon="13.160941662633732" id="-12013">
		<tag k="name" v="Vest-Akkarvikodden" />
		<tag k="natural" v="cape" />
		<tag k="ssr:stedsnr" v="49429" />
	</node>
	<node lat="67.93095277397914" lon="13.083780560434578" id="-12014">
		<tag k="name" v="Gravdalsbukta" />
		<tag k="natural" v="bay" />
		<tag k="ssr:stedsnr" v="49447" />
	</node>
	<node lat="67.97028333242447" lon="12.991388886705217" id="-12015">
		<tag k="name" v="Båtvika" />
		<tag k="natural" v="bay" />
		<tag k="ssr:stedsnr" v="50053" />
	</node>
	<node lat="67.88208611221624" lon="12.924769456534841" id="-12016">
		<tag k="name" v="Melkarsanden" />
		<tag k="natural" v="cape" />
		<tag k="ssr:stedsnr" v="50329" />
	</node>
	<node lat="67.88373889133108" lon="12.931386118611504" id="-12017">
		<tag k="name" v="Storhaugen" />
		<tag k="natural" v="hill" />
		<tag k="place" v="locality" />
		<tag k="ssr:stedsnr" v="50332" />
	</node>
	<node lat="67.88689166808187" lon="12.951144449733988" id="-12018">
		<tag k="name" v="Storlihaugen" />
		<tag k="natural" v="cape" />
		<tag k="ssr:stedsnr" v="50342" />
	</node>
	<node lat="67.88671388679717" lon="12.94177222520312" id="-12019">
		<tag k="name" v="Heimer-Torshaugvika" />
		<tag k="natural" v="bay" />
		<tag k="ssr:stedsnr" v="50346" />
	</node>
	<node lat="67.89936111537531" lon="13.049041675102558" id="-12020">
		<tag k="name" v="Moskeneshaugen" />
		<tag k="natural" v="hill" />
		<tag k="place" v="locality" />
		<tag k="ssr:stedsnr" v="50351" />
	</node>
	<node lat="67.88843611321592" lon="13.022088888241274" id="-12021">
		<tag k="name" v="Svertelvika" />
		<tag k="natural" v="bay" />
		<tag k="ssr:stedsnr" v="50353" />
	</node>
	<node lat="67.9135583374043" lon="13.070755563908026" id="-12022">
		<tag k="name" v="Båtvika" />
		<tag k="natural" v="bay" />
		<tag k="ssr:stedsnr" v="50393" />
	</node>
	<node lat="67.83966110919155" lon="12.820772222678393" id="-12023">
		<tag k="name" v="Rundfjellet" />
		<tag k="natural" v="hill" />
		<tag k="place" v="locality" />
		<tag k="ssr:stedsnr" v="50680" />
	</node>
	<node lat="67.83736667136282" lon="12.810983323941837" id="-12024">
		<tag k="name" v="Hjella" />
		<tag k="natural" v="slope" />
		<tag k="place" v="locality" />
		<tag k="ssr:stedsnr" v="50682" />
	</node>
	<node lat="67.97912243078417" lon="12.954134503414213" id="-12025">
		<tag k="fixme" v="consider place=hamlet" />
		<tag k="name" v="Buneset" />
		<tag k="place" v="farm" />
		<tag k="ssr:stedsnr" v="78438" />
	</node>
	<node lat="67.97862221994868" lon="12.987125002462417" id="-12026">
		<tag k="fixme" v="consider natural=peak for the most distinct mountains in the district" />
		<tag k="name" v="Brunakseltinden" />
		<tag k="natural" v="hill" />
		<tag k="place" v="locality" />
		<tag k="ssr:stedsnr" v="78442" />
	</node>
	<node lat="67.95868333294433" lon="13.172055558090076" id="-12027">
		<tag k="alt_name" v="Skaksåldan" />
		<tag k="name" v="Skaksåldene" />
		<tag k="natural" v="shoal" />
		<tag k="place" v="locality" />
		<tag k="ssr:stedsnr" v="78476" />
	</node>
	<node lat="67.91767222408635" lon="12.965369438674964" id="-12028">
		<tag k="fixme" v="consider natural=peak for the most distinct mountains in the district" />
		<tag k="name" v="Snaufjellet" />
		<tag k="natural" v="hill" />
		<tag k="place" v="locality" />
		<tag k="ssr:stedsnr" v="77392" />
	</node>
	<node lat="67.8227638863053" lon="12.794705546224376" id="-12029">
		<tag k="name" v="Sørfallet" />
		<tag k="natural" v="shoal" />
		<tag k="place" v="locality" />
		<tag k="ssr:stedsnr" v="78076" />
	</node>
	<node lat="67.83514166386983" lon="12.855158330766603" id="-12030">
		<tag k="fixme" v="consider natural=peak for the most distinct mountains in the district" />
		<tag k="name" v="Hellsegga" />
		<tag k="natural" v="hill" />
		<tag k="place" v="locality" />
		<tag k="ssr:stedsnr" v="78081" />
	</node>
	<node lat="67.84907221851826" lon="12.86935277974094" id="-12031">
		<tag k="fixme" v="consider natural=peak for the most distinct mountains in the district" />
		<tag k="name" v="Stortinden" />
		<tag k="natural" v="hill" />
		<tag k="place" v="locality" />
		<tag k="ssr:stedsnr" v="78086" />
	</node>
	<node lat="67.94733333786519" lon="12.80383887903044" id="-12032">
		<tag k="name" v="Lønnfallet" />
		<tag k="natural" v="shoal" />
		<tag k="place" v="locality" />
		<tag k="ssr:stedsnr" v="78477" />
	</node>
	<node lat="67.9274944484044" lon="13.002644437296555" id="-12033">
		<tag k="fixme" v="consider tourism=alpine_hut or tourism=chalet" />
		<tag k="name" v="Munkebu" />
		<tag k="ssr:stedsnr" v="85467" />
		<tag k="tourism" v="wilderness_hut" />
	</node>
	<node lat="67.93870000388425" lon="13.126294441670305" id="-12036">
		<tag k="name" v="Einsteinflua" />
		<tag k="natural" v="shoal" />
		<tag k="place" v="locality" />
		<tag k="ssr:stedsnr" v="108560" />
	</node>
	<node lat="67.82898889013771" lon="12.870733343536495" id="-12037">
		<tag k="name" v="Yttertuven" />
		<tag k="natural" v="cape" />
		<tag k="ssr:stedsnr" v="108744" />
	</node>
	<node lat="67.95307499970855" lon="13.125694433024604" id="-12038">
		<tag k="name" v="Festhellhula" />
		<tag k="place" v="locality" />
		<tag k="ssr:stedsnr" v="110446" />
	</node>
	<node lat="68.00771667094924" lon="13.013641676662795" id="-12039">
		<tag k="name" v="Vomma" />
		<tag k="natural" v="ridge" />
		<tag k="place" v="locality" />
		<tag k="ssr:stedsnr" v="111099" />
	</node>
	<node lat="67.96118888760408" lon="12.989616667763867" id="-12040">
		<tag k="name" v="Aksla" />
		<tag k="natural" v="ridge" />
		<tag k="place" v="locality" />
		<tag k="ssr:stedsnr" v="111398" />
	</node>
	<node lat="67.88798333790206" lon="12.985469438728499" id="-12041">
		<tag k="name" v="Støttlikollen" />
		<tag k="natural" v="hill" />
		<tag k="place" v="locality" />
		<tag k="ssr:stedsnr" v="111239" />
	</node>
	<node lat="67.88769166319263" lon="12.953063878494328" id="-12042">
		<tag k="highway" v="path" />
		<tag k="name" v="Ner-Hundstien" />
		<tag k="ssr:stedsnr" v="111243" />
	</node>
	<node lat="67.88167499769064" lon="12.93191110849814" id="-12043">
		<tag k="name" v="Bjørnbåsan" />
		<tag k="natural" v="cape" />
		<tag k="ssr:stedsnr" v="111342" />
	</node>
	<node lat="67.89992500101022" lon="13.033275003647981" id="-12044">
		<tag k="fixme" v="consider seamark:type=rock or natural=shoal" />
		<tag k="name" v="Oksbåsskjeran" />
		<tag k="place" v="islet" />
		<tag k="ssr:stedsnr" v="111359" />
	</node>
	<node lat="67.891450003416" lon="13.014422225857462" id="-12045">
		<tag k="name" v="Neset" />
		<tag k="natural" v="cape" />
		<tag k="ssr:stedsnr" v="111360" />
	</node>
	<node lat="67.88305000026828" lon="12.977977767708454" id="-12046">
		<tag k="name" v="Høgnakken" />
		<tag k="natural" v="ridge" />
		<tag k="place" v="locality" />
		<tag k="ssr:stedsnr" v="111629" />
	</node>
	<node lat="67.8607638899026" lon="12.848597224004262" id="-12047">
		<tag k="name" v="Turtnbakkvika" />
		<tag k="natural" v="bay" />
		<tag k="ssr:stedsnr" v="137411" />
	</node>
	<node lat="68.02736111376467" lon="12.963574994732639" id="-12048">
		<tag k="name" v="Horseidmulen" />
		<tag k="natural" v="cape" />
		<tag k="old_name" v="Hornseidmulen" />
		<tag k="ssr:stedsnr" v="138026" />
	</node>
	<node lat="68.03589444506073" lon="12.84716665814416" id="-12049">
		<tag k="name" v="Hammarskaftskallen" />
		<tag k="natural" v="shoal" />
		<tag k="place" v="locality" />
		<tag k="ssr:stedsnr" v="138040" />
	</node>
	<node lat="68.00255555264229" lon="12.894963893929619" id="-12050">
		<tag k="name" v="Beitskjelskallen" />
		<tag k="natural" v="shoal" />
		<tag k="place" v="locality" />
		<tag k="ssr:stedsnr" v="138066" />
	</node>
	<node lat="67.82820833566552" lon="12.82315277176841" id="-12051">
		<tag k="alt_name" v="Reivika" />
		<tag k="name" v="Reidvika" />
		<tag k="natural" v="bay" />
		<tag k="ssr:stedsnr" v="138086" />
	</node>
	<node lat="67.83277777521172" lon="12.878352786891433" id="-12052">
		<tag k="name" v="Skata" />
		<tag k="natural" v="shoal" />
		<tag k="place" v="locality" />
		<tag k="ssr:stedsnr" v="138088" />
	</node>
	<node lat="67.83117778055906" lon="12.876136102741414" id="-12053">
		<tag k="name" v="Kvalbakken" />
		<tag k="natural" v="shoal" />
		<tag k="place" v="locality" />
		<tag k="ssr:stedsnr" v="138089" />
	</node>
	<node lat="67.96474722521606" lon="13.016702777461237" id="-12054">
		<tag k="fixme" v="consider natural=peak for the most distinct mountains in the district" />
		<tag k="name" v="Floan" />
		<tag k="natural" v="hill" />
		<tag k="place" v="locality" />
		<tag k="ssr:stedsnr" v="138464" />
	</node>
	<node lat="67.95623610891782" lon="12.832536106217702" id="-12055">
		<tag k="name" v="Småskallan" />
		<tag k="natural" v="shoal" />
		<tag k="place" v="locality" />
		<tag k="ssr:stedsnr" v="138469" />
	</node>
	<node lat="67.93672500291855" lon="13.080658345757211" id="-12056">
		<tag k="name" v="Reinevågen" />
		<tag k="natural" v="bay" />
		<tag k="ssr:stedsnr" v="138486" />
	</node>
	<node lat="67.99930277826735" lon="12.899924989264388" id="-12058">
		<tag k="name" v="Beiteskiskallen" />
		<tag k="natural" v="shoal" />
		<tag k="place" v="locality" />
		<tag k="ssr:stedsnr" v="138323" />
	</node>
	<node lat="67.89617221954005" lon="13.045197221070236" id="-12059">
		<tag k="name" v="Holmen" />
		<tag k="place" v="islet" />
		<tag k="ssr:stedsnr" v="138408" />
	</node>
	<node lat="67.86421944527622" lon="12.85286944254522" id="-12060">
		<tag k="name" v="Vedersteinsberget" />
		<tag k="natural" v="hill" />
		<tag k="place" v="locality" />
		<tag k="ssr:stedsnr" v="168693" />
	</node>
	<node lat="67.98164444230927" lon="12.974097213767966" id="-12062">
		<tag k="name" v="Oterlia" />
		<tag k="natural" v="slope" />
		<tag k="place" v="locality" />
		<tag k="ssr:stedsnr" v="171080" />
	</node>
	<node lat="67.8889027812884" lon="12.953072221406089" id="-12063">
		<tag k="highway" v="path" />
		<tag k="name" v="Øver-Hundstien" />
		<tag k="ssr:stedsnr" v="171225" />
	</node>
	<node lat="67.88836944810659" lon="12.915216665556258" id="-12064">
		<tag k="name" v="Morsjedalen" />
		<tag k="natural" v="valley" />
		<tag k="place" v="locality" />
		<tag k="ssr:stedsnr" v="171329" />
	</node>
	<node lat="67.89329305772397" lon="13.036838036720077" id="-12065">
		<tag k="name" v="Oddan" />
		<tag k="natural" v="cape" />
		<tag k="ssr:stedsnr" v="171332" />
	</node>
	<node lat="67.88636944694167" lon="13.010019443325776" id="-12066">
		<tag k="name" v="Flathaugholmen" />
		<tag k="place" v="islet" />
		<tag k="ssr:stedsnr" v="171349" />
	</node>
	<node lat="67.91822500014365" lon="13.076541666636341" id="-12067">
		<tag k="fixme" v="consider natural=peak for the most distinct mountains in the district" />
		<tag k="name" v="Storkåken" />
		<tag k="natural" v="hill" />
		<tag k="place" v="locality" />
		<tag k="ssr:stedsnr" v="171385" />
	</node>
	<node lat="67.92734721903052" lon="13.091738891119713" id="-12068">
		<tag k="name" v="Jakobhola" />
		<tag k="natural" v="valley" />
		<tag k="place" v="locality" />
		<tag k="ssr:stedsnr" v="171387" />
	</node>
	<node lat="67.8681000014769" lon="12.895547214756707" id="-12069">
		<tag k="name" v="Betlidalen" />
		<tag k="natural" v="valley" />
		<tag k="place" v="locality" />
		<tag k="ssr:stedsnr" v="198391" />
	</node>
	<node lat="67.83993610759845" lon="12.813577777801521" id="-12070">
		<tag k="alt_name" v="Kolfjellet" />
		<tag k="name" v="Kollfjellet" />
		<tag k="natural" v="hill" />
		<tag k="place" v="locality" />
		<tag k="ssr:stedsnr" v="199117" />
	</node>
	<node lat="67.83039166467456" lon="12.828552777894835" id="-12071">
		<tag k="fixme" v="consider natural=peak for the most distinct mountains in the district" />
		<tag k="name" v="Geittinden" />
		<tag k="natural" v="hill" />
		<tag k="place" v="locality" />
		<tag k="ssr:stedsnr" v="199099" />
	</node>
	<node lat="67.95147222506189" lon="13.207447211782847" id="-12072">
		<tag k="bay" v="fjord" />
		<tag k="name" v="Kåsa" />
		<tag k="natural" v="bay" />
		<tag k="ssr:stedsnr" v="199180" />
	</node>
	<node lat="67.9283833360052" lon="13.085833326425517" id="-12073">
		<tag k="name" v="Reinehalsen" />
		<tag k="place" v="locality" />
		<tag k="ssr:stedsnr" v="199384" />
	</node>
	<node lat="67.90599167004592" lon="12.867544444869218" id="-12074">
		<tag k="name" v="Bukkhammaren" />
		<tag k="natural" v="cape" />
		<tag k="ssr:stedsnr" v="199394" />
	</node>
	<node lat="67.94629444298" lon="13.138527768121705" id="-12075">
		<tag k="name" v="Rundkulten" />
		<tag k="place" v="island" />
		<tag k="ssr:stedsnr" v="199473" />
	</node>
	<node lat="67.9447499963447" lon="13.11807500043053" id="-12076">
		<tag k="bay" v="fjord" />
		<tag k="name" v="Reinefjorden" />
		<tag k="natural" v="bay" />
		<tag k="ssr:stedsnr" v="199474" />
	</node>
	<node lat="67.946044442365" lon="13.163755548490869" id="-12077">
		<tag k="name" v="Kortskallen" />
		<tag k="natural" v="shoal" />
		<tag k="place" v="locality" />
		<tag k="ssr:stedsnr" v="199479" />
	</node>
	<node lat="67.92937777715848" lon="12.990197225285838" id="-12079">
		<tag k="alt_name" v="Ternnesvatnet" />
		<tag k="name" v="Tennesvatnet" />
		<tag k="natural" v="water" />
		<tag k="ssr:stedsnr" v="199491" />
		<tag k="water" v="lake" />
	</node>
	<node lat="67.96456388830133" lon="12.929127789171902" id="-12080">
		<tag k="name" v="Stuvdalen" />
		<tag k="natural" v="valley" />
		<tag k="place" v="locality" />
		<tag k="ssr:stedsnr" v="199443" />
	</node>
	<node lat="67.9602472196774" lon="12.984874988124252" id="-12081">
		<tag k="fixme" v="consider natural=peak for the most distinct mountains in the district" />
		<tag k="name" v="Pøylhammaren" />
		<tag k="natural" v="hill" />
		<tag k="place" v="locality" />
		<tag k="ssr:stedsnr" v="199445" />
	</node>
	<node lat="67.9046333352502" lon="12.971300002900973" id="-12082">
		<tag k="fixme" v="consider natural=peak for the most distinct mountains in the district" />
		<tag k="name" v="Vestertinden" />
		<tag k="natural" v="hill" />
		<tag k="place" v="locality" />
		<tag k="ssr:stedsnr" v="290462" />
	</node>
	<node lat="67.94303888681775" lon="13.120105555157206" id="-12083">
		<tag k="name" v="Litl-Toppøya" />
		<tag k="place" v="islet" />
		<tag k="ssr:stedsnr" v="292352" />
	</node>
	<node lat="67.9164555575624" lon="13.03888333778912" id="-12084">
		<tag k="name" v="Oliannaplassen" />
		<tag k="place" v="locality" />
		<tag k="ssr:stedsnr" v="293339" />
	</node>
	<node lat="67.95095000304453" lon="12.978002786637218" id="-12085">
		<tag k="name" v="Klaveisdalen" />
		<tag k="natural" v="valley" />
		<tag k="place" v="locality" />
		<tag k="ssr:stedsnr" v="293095" />
	</node>
	<node lat="68.0144944428285" lon="12.992716669280295" id="-12086">
		<tag k="name" v="Stielva" />
		<tag k="ssr:stedsnr" v="293107" />
		<tag k="waterway" v="river" />
	</node>
	<node lat="67.89391388849059" lon="12.888222214252153" id="-12087">
		<tag k="name" v="Storbakkan" />
		<tag k="natural" v="slope" />
		<tag k="place" v="locality" />
		<tag k="ssr:stedsnr" v="293360" />
	</node>
	<node lat="67.91420278227874" lon="13.079280556890145" id="-12088">
		<tag k="name" v="Djupfjordodden" />
		<tag k="natural" v="cape" />
		<tag k="ssr:stedsnr" v="293436" />
	</node>
	<node lat="67.95907221793271" lon="13.01018888624773" id="-12089">
		<tag k="name" v="Straumsholmen" />
		<tag k="place" v="islet" />
		<tag k="ssr:stedsnr" v="293453" />
	</node>
	<node lat="67.96926944196629" lon="13.112969435460752" id="-12090">
		<tag k="name" v="Austerdalen" />
		<tag k="natural" v="valley" />
		<tag k="place" v="locality" />
		<tag k="ssr:stedsnr" v="293465" />
	</node>
	<node lat="67.89109444690281" lon="12.801675004376994" id="-12092">
		<tag k="name" v="Trollskallan" />
		<tag k="natural" v="shoal" />
		<tag k="place" v="locality" />
		<tag k="ssr:stedsnr" v="320405" />
	</node>
	<node lat="68.01705555492688" lon="12.976919453395185" id="-12093">
		<tag k="fixme" v="consider natural=peak for the most distinct mountains in the district" />
		<tag k="name" v="Kamman" />
		<tag k="natural" v="hill" />
		<tag k="place" v="locality" />
		<tag k="ssr:stedsnr" v="320041" />
	</node>
	<node lat="67.82513333664649" lon="12.811450010975973" id="-12094">
		<tag k="name" v="Reidsundet" />
		<tag k="natural" v="strait" />
		<tag k="ssr:stedsnr" v="320082" />
	</node>
	<node lat="67.93852499840631" lon="13.114377785891131" id="-12095">
		<tag k="alt_name" v="Olnilsøya" />
		<tag k="name" v="Olenilsøya" />
		<tag k="place" v="island" />
		<tag k="ssr:stedsnr" v="320480" />
	</node>
	<node lat="67.93381944051353" lon="13.117024999510125" id="-12096">
		<tag k="fixme" v="consider seamark:type=rock or natural=shoal" />
		<tag k="name" v="Langskjeret" />
		<tag k="place" v="islet" />
		<tag k="ssr:stedsnr" v="320375" />
	</node>
	<node lat="67.9329749968337" lon="13.059661120151674" id="-12097">
		<tag k="name" v="Reinevatnet" />
		<tag k="natural" v="water" />
		<tag k="ssr:stedsnr" v="320378" />
	</node>
	<node lat="67.90732222140693" lon="13.024438896655973" id="-12098">
		<tag k="name" v="Moskenesvatnet" />
		<tag k="natural" v="water" />
		<tag k="ssr:stedsnr" v="320382" />
	</node>
	<node lat="67.85335340402463" lon="12.898898078839688" id="-12099">
		<tag k="name" v="Ånstad" />
		<tag k="place" v="locality" />
		<tag k="ssr:stedsnr" v="320429" />
	</node>
	<node lat="67.85717221906415" lon="12.968924988836049" id="-12100">
		<tag k="name" v="Indre Rødliskallen" />
		<tag k="natural" v="shoal" />
		<tag k="place" v="locality" />
		<tag k="ssr:stedsnr" v="350697" />
	</node>
	<node lat="67.93824722683036" lon="13.068472215489324" id="-12101">
		<tag k="name" v="Bollhaugen" />
		<tag k="natural" v="ridge" />
		<tag k="place" v="locality" />
		<tag k="ssr:stedsnr" v="352393" />
	</node>
	<node lat="67.91817499857846" lon="13.013850008836878" id="-12102">
		<tag k="name" v="Klokkafemskaret" />
		<tag k="natural" v="valley" />
		<tag k="place" v="locality" />
		<tag k="ssr:stedsnr" v="353309" />
	</node>
	<node lat="67.89218889231222" lon="12.86528056012199" id="-12103">
		<tag k="name" v="Brekka" />
		<tag k="natural" v="slope" />
		<tag k="place" v="locality" />
		<tag k="ssr:stedsnr" v="353326" />
	</node>
	<node lat="67.98972222600527" lon="13.02056944902237" id="-12104">
		<tag k="name" v="Svaet" />
		<tag k="natural" v="cliff" />
		<tag k="ssr:stedsnr" v="353100" />
	</node>
	<node lat="67.88558889158115" lon="12.965816664503805" id="-12105">
		<tag k="name" v="Bulvika" />
		<tag k="natural" v="bay" />
		<tag k="ssr:stedsnr" v="353359" />
	</node>
	<node lat="67.88752499770295" lon="12.932908330402121" id="-12106">
		<tag k="name" v="Inner-Torshaugvika" />
		<tag k="natural" v="bay" />
		<tag k="ssr:stedsnr" v="353365" />
	</node>
	<node lat="67.88729444368357" lon="13.041849996009097" id="-12107">
		<tag k="fixme" v="consider seamark:type=rock or natural=shoal" />
		<tag k="name" v="Fyrskjeran" />
		<tag k="place" v="islet" />
		<tag k="ssr:stedsnr" v="353369" />
	</node>
	<node lat="67.89450000297974" lon="13.002136101114987" id="-12108">
		<tag k="name" v="Slåtta" />
		<tag k="natural" v="wetland" />
		<tag k="ssr:stedsnr" v="353374" />
	</node>
	<node lat="67.89414444826019" lon="13.035180546480666" id="-12109">
		<tag k="name" v="Langnesbukta" />
		<tag k="natural" v="bay" />
		<tag k="ssr:stedsnr" v="353375" />
	</node>
	<node lat="67.92016944544349" lon="13.065208338808432" id="-12110">
		<tag k="name" v="Langteigan" />
		<tag k="natural" v="slope" />
		<tag k="place" v="locality" />
		<tag k="ssr:stedsnr" v="353399" />
	</node>
	<node lat="67.9094138878535" lon="13.070616674051614" id="-12111">
		<tag k="name" v="Steffennakken" />
		<tag k="natural" v="cape" />
		<tag k="ssr:stedsnr" v="353400" />
	</node>
	<node lat="67.96425833292683" lon="12.998061112824825" id="-12112">
		<tag k="name" v="Bonen" />
		<tag k="natural" v="cape" />
		<tag k="ssr:stedsnr" v="353427" />
	</node>
	<node lat="67.95194444748957" lon="13.076494449288939" id="-12113">
		<tag k="name" v="Lamlibenken" />
		<tag k="natural" v="ridge" />
		<tag k="place" v="locality" />
		<tag k="ssr:stedsnr" v="353440" />
	</node>
	<node lat="67.83870555240013" lon="12.801033329570352" id="-12114">
		<tag k="name" v="Skarphaugen" />
		<tag k="natural" v="hill" />
		<tag k="place" v="locality" />
		<tag k="ssr:stedsnr" v="353733" />
	</node>
	<node lat="67.84701666715914" lon="12.845399990805106" id="-12115">
		<tag k="name" v="Gangvasteinen" />
		<tag k="natural" v="stone" />
		<tag k="ssr:stedsnr" v="353744" />
	</node>
	<node lat="67.92324721856666" lon="12.896213887122862" id="-12116">
		<tag k="alt_name" v="Ertnhellvika" />
		<tag k="name" v="Ertenhellvika" />
		<tag k="natural" v="bay" />
		<tag k="ssr:stedsnr" v="380389" />
	</node>
	<node lat="67.90947777736932" lon="12.91442221956919" id="-12117">
		<tag k="alt_name" v="Mengedalsvatnet" />
		<tag k="name" v="Mengelsdalsvatnet" />
		<tag k="natural" v="water" />
		<tag k="ssr:stedsnr" v="380401" />
	</node>
	<node lat="67.86856388960432" lon="12.761952768374872" id="-12118">
		<tag k="name" v="Stampen" />
		<tag k="natural" v="shoal" />
		<tag k="place" v="locality" />
		<tag k="ssr:stedsnr" v="380436" />
	</node>
	<node lat="67.86519999770532" lon="12.977994444258378" id="-12119">
		<tag k="alt_name" v="Håndskardskallen" />
		<tag k="name" v="Hornskardskallen" />
		<tag k="natural" v="shoal" />
		<tag k="place" v="locality" />
		<tag k="ssr:stedsnr" v="380443" />
	</node>
	<node lat="67.86422500232614" lon="12.924949992566399" id="-12120">
		<tag k="name" v="Nupen" />
		<tag k="natural" v="cape" />
		<tag k="ssr:stedsnr" v="380444" />
	</node>
	<node lat="67.82346388881601" lon="12.821355544732079" id="-12121">
		<tag k="name" v="Moklakkan" />
		<tag k="place" v="islet" />
		<tag k="ssr:stedsnr" v="381095" />
	</node>
	<node lat="67.91814166614904" lon="13.053619433020328" id="-12122">
		<tag k="bay" v="fjord" />
		<tag k="name" v="Djupfjorden" />
		<tag k="natural" v="bay" />
		<tag k="ssr:stedsnr" v="381184" />
	</node>
	<node lat="68.03412777739737" lon="12.985027787909884" id="-12123">
		<tag k="name" v="Tjeldsneset" />
		<tag k="natural" v="cape" />
		<tag k="ssr:stedsnr" v="381037" />
	</node>
	<node lat="67.91315000415877" lon="13.077500010680572" id="-12124">
		<tag k="alt_name" v="Djupfjordbåen" />
		<tag k="name" v="Djupfjordbøan" />
		<tag k="natural" v="shoal" />
		<tag k="place" v="locality" />
		<tag k="ssr:stedsnr" v="381393" />
	</node>
	<node lat="67.9871166660505" lon="13.033219449327976" id="-12125">
		<tag k="fixme" v="consider natural=peak for the most distinct mountains in the district" />
		<tag k="name" v="Litltinden" />
		<tag k="natural" v="hill" />
		<tag k="place" v="locality" />
		<tag k="ssr:stedsnr" v="381440" />
	</node>
	<node lat="67.98243611078588" lon="13.086436120964132" id="-12126">
		<tag k="fixme" v="consider natural=peak for the most distinct mountains in the district" />
		<tag k="name" v="Klokktinden" />
		<tag k="natural" v="hill" />
		<tag k="place" v="locality" />
		<tag k="ssr:stedsnr" v="381450" />
	</node>
	<node lat="67.97824444360171" lon="13.149769451573022" id="-12127">
		<tag k="fixme" v="consider natural=peak for the most distinct mountains in the district" />
		<tag k="name" v="Ølkontinden" />
		<tag k="natural" v="hill" />
		<tag k="place" v="locality" />
		<tag k="ssr:stedsnr" v="381453" />
	</node>
	<node lat="67.9762333361254" lon="13.024527786123182" id="-12128">
		<tag k="alt_name" v="Kirkefjorden" />
		<tag k="bay" v="fjord" />
		<tag k="name" v="Kjerkfjorden" />
		<tag k="natural" v="bay" />
		<tag k="ssr:stedsnr" v="381455" />
	</node>
	<node lat="67.96720000133489" lon="13.13091110592672" id="-12129">
		<tag k="fixme" v="consider natural=peak for the most distinct mountains in the district" />
		<tag k="name" v="Lilandstinden" />
		<tag k="natural" v="hill" />
		<tag k="place" v="locality" />
		<tag k="ssr:stedsnr" v="381463" />
	</node>
	<node lat="67.95775277595213" lon="12.894130544740072" id="-12130">
		<tag k="name" v="Hermannsdalsflesa" />
		<tag k="place" v="islet" />
		<tag k="ssr:stedsnr" v="381466" />
	</node>
	<node lat="67.95701388973568" lon="12.92573055964903" id="-12131">
		<tag k="alt_name" v="Hermannsdalvatnet" />
		<tag k="name" v="Hermannsdalsvatnet" />
		<tag k="natural" v="water" />
		<tag k="ssr:stedsnr" v="381468" />
	</node>
	<node lat="67.89525277856457" lon="13.052202776273045" id="-12132">
		<tag k="name" v="Skjortbaken" />
		<tag k="natural" v="shoal" />
		<tag k="place" v="locality" />
		<tag k="ssr:stedsnr" v="411698" />
	</node>
	<node lat="67.8417666649955" lon="12.77893611435021" id="-12133">
		<tag k="name" v="Nordholmen" />
		<tag k="place" v="islet" />
		<tag k="ssr:stedsnr" v="411729" />
	</node>
	<node lat="67.96781944025832" lon="12.998933334525628" id="-12134">
		<tag k="name" v="Bissevåglia" />
		<tag k="natural" v="slope" />
		<tag k="place" v="locality" />
		<tag k="ssr:stedsnr" v="414055" />
	</node>
	<node lat="67.97775000131266" lon="13.040858331034228" id="-12135">
		<tag k="name" v="Rostadforsen" />
		<tag k="natural" v="waterfall" />
		<tag k="ssr:stedsnr" v="414062" />
	</node>
	<node lat="67.99046666523324" lon="12.968622217094177" id="-12136">
		<tag k="name" v="Karitinden" />
		<tag k="natural" v="ridge" />
		<tag k="place" v="locality" />
		<tag k="ssr:stedsnr" v="414081" />
	</node>
	<node lat="67.89947500360803" lon="12.852572221750902" id="-12137">
		<tag k="name" v="Mulfjellet" />
		<tag k="natural" v="cliff" />
		<tag k="ssr:stedsnr" v="414302" />
	</node>
	<node lat="67.94821666359226" lon="13.011433334537442" id="-12138">
		<tag k="name" v="Torshaugen" />
		<tag k="natural" v="hill" />
		<tag k="place" v="locality" />
		<tag k="ssr:stedsnr" v="414451" />
	</node>
	<node lat="67.88924166428049" lon="13.02686666090439" id="-12139">
		<tag k="name" v="Sørvågen" />
		<tag k="natural" v="bay" />
		<tag k="ssr:stedsnr" v="414352" />
	</node>
	<node lat="67.89603055485861" lon="13.020761099152626" id="-12140">
		<tag k="name" v="Stormyra" />
		<tag k="natural" v="wetland" />
		<tag k="ssr:stedsnr" v="414363" />
	</node>
	<node lat="67.89244722518544" lon="12.995538881178108" id="-12141">
		<tag k="name" v="Kalvrevva" />
		<tag k="natural" v="valley" />
		<tag k="place" v="locality" />
		<tag k="ssr:stedsnr" v="414367" />
	</node>
	<node lat="67.88756944485122" lon="13.00874721706169" id="-12142">
		<tag k="name" v="Lortvika" />
		<tag k="natural" v="bay" />
		<tag k="ssr:stedsnr" v="414369" />
	</node>
	<node lat="67.84396389244856" lon="12.839652775598307" id="-12143">
		<tag k="fixme" v="consider natural=peak for the most distinct mountains in the district" />
		<tag k="name" v="Silsandneshaugen" />
		<tag k="natural" v="hill" />
		<tag k="place" v="locality" />
		<tag k="ssr:stedsnr" v="414721" />
	</node>
	<node lat="67.92609722637448" lon="13.075322214734099" id="-12145">
		<tag k="fixme" v="consider natural=peak for the most distinct mountains in the district" />
		<tag k="name" v="Reinebringen" />
		<tag k="natural" v="hill" />
		<tag k="place" v="locality" />
		<tag k="ssr:stedsnr" v="441378" />
	</node>
	<node lat="67.94939722529611" lon="13.119624999500763" id="-12146">
		<tag k="fixme" v="consider seamark:type=rock or natural=shoal" />
		<tag k="name" v="Kobbskjeret" />
		<tag k="place" v="islet" />
		<tag k="ssr:stedsnr" v="441481" />
	</node>
	<node lat="67.97207777998466" lon="12.935388890716588" id="-12147">
		<tag k="fixme" v="consider natural=peak for the most distinct mountains in the district" />
		<tag k="name" v="Storskiva" />
		<tag k="natural" v="hill" />
		<tag k="place" v="locality" />
		<tag k="ssr:stedsnr" v="442456" />
	</node>
	<node lat="67.96471666251874" lon="12.952408325381043" id="-12148">
		<tag k="fixme" v="consider natural=peak for the most distinct mountains in the district" />
		<tag k="name" v="Spisstinden" />
		<tag k="natural" v="hill" />
		<tag k="place" v="locality" />
		<tag k="ssr:stedsnr" v="442469" />
	</node>
	<node lat="67.96471111187961" lon="13.149066658613934" id="-12149">
		<tag k="fixme" v="multiple name tags, choose one and add the other to alt_name" />
		<tag k="name" v="Hamnøyvatnet;Vassdalsvatnet" />
		<tag k="natural" v="water" />
		<tag k="ssr:stedsnr" v="442470" />
	</node>
	<node lat="67.96786944365256" lon="12.989174996921411" id="-12150">
		<tag k="bay" v="fjord" />
		<tag k="name" v="Bunesfjorden" />
		<tag k="natural" v="bay" />
		<tag k="ssr:stedsnr" v="442472" />
	</node>
	<node lat="67.8445194400356" lon="12.777372228749643" id="-12151">
		<tag k="fixme" v="multiple name tags, choose one and add the other to alt_name" />
		<tag k="name" v="Avløysa;Nordholmsavløysa" />
		<tag k="place" v="island" />
		<tag k="ssr:stedsnr" v="442428" />
	</node>
	<node lat="67.8841250030079" lon="12.996775008718455" id="-12152">
		<tag k="fixme" v="consider place=suburb, village or hamlet" />
		<tag k="name" v="Tind" />
		<tag k="place" v="quarter" />
		<tag k="ssr:stedsnr" v="501380" />
	</node>
	<node lat="67.9019611095311" lon="13.019088894325561" id="-12154">
		<tag k="alt_name" v="Kolfjellet" />
		<tag k="fixme" v="consider natural=peak for the most distinct mountains in the district" />
		<tag k="name" v="Kollfjellet" />
		<tag k="natural" v="hill" />
		<tag k="place" v="locality" />
		<tag k="ssr:stedsnr" v="502398" />
	</node>
	<node lat="67.90061944090901" lon="12.845863892031417" id="-12155">
		<tag k="name" v="Stokkvikmulen" />
		<tag k="natural" v="cape" />
		<tag k="ssr:stedsnr" v="502400" />
	</node>
	<node lat="67.91561110859809" lon="12.871258337373632" id="-12156">
		<tag k="alt_name" v="Oternesbåan" />
		<tag k="name" v="Oternesbøan" />
		<tag k="natural" v="shoal" />
		<tag k="place" v="locality" />
		<tag k="ssr:stedsnr" v="502369" />
	</node>
	<node lat="67.9807138931834" lon="12.952630563221039" id="-12157">
		<tag k="fixme" v="multiple name tags, choose one and add the other to alt_name" />
		<tag k="name" v="Ausodden;Ausa" />
		<tag k="natural" v="cape" />
		<tag k="ssr:stedsnr" v="502441" />
	</node>
	<node lat="67.95989166597374" lon="12.96134722166443" id="-12158">
		<tag k="name" v="Hermannsdalslia" />
		<tag k="natural" v="valley" />
		<tag k="place" v="locality" />
		<tag k="ssr:stedsnr" v="502463" />
	</node>
	<node lat="67.97010278141603" lon="12.961491666657276" id="-12159">
		<tag k="name" v="Trolldalen" />
		<tag k="natural" v="valley" />
		<tag k="place" v="locality" />
		<tag k="ssr:stedsnr" v="502465" />
	</node>
	<node lat="67.96728610842094" lon="13.062227788724847" id="-12160">
		<tag k="fixme" v="consider natural=peak for the most distinct mountains in the district" />
		<tag k="name" v="Rostadtindan" />
		<tag k="natural" v="hill" />
		<tag k="place" v="locality" />
		<tag k="ssr:stedsnr" v="502471" />
	</node>
	<node lat="67.9333611136177" lon="13.073658326372808" id="-12162">
		<tag k="loc_name" v="Marka" />
		<tag k="name" v="Marken V" />
		<tag k="place" v="hamlet" />
		<tag k="ssr:stedsnr" v="534401" />
	</node>
	<node lat="67.89196111291484" lon="12.921811109890486" id="-12163">
		<tag k="name" v="Mengedalen" />
		<tag k="natural" v="valley" />
		<tag k="place" v="locality" />
		<tag k="ssr:stedsnr" v="535357" />
	</node>
	<node lat="67.89941111132366" lon="13.028947228369287" id="-12164">
		<tag k="name" v="Finnhamna" />
		<tag k="natural" v="bay" />
		<tag k="ssr:stedsnr" v="535363" />
	</node>
	<node lat="67.88381667055835" lon="12.974472223008071" id="-12165">
		<tag k="name" v="Nakkvika" />
		<tag k="natural" v="bay" />
		<tag k="ssr:stedsnr" v="535636" />
	</node>
	<node lat="67.87755555913176" lon="12.972708332948457" id="-12166">
		<tag k="name" v="Kråksloka" />
		<tag k="natural" v="bay" />
		<tag k="ssr:stedsnr" v="535640" />
	</node>
	<node lat="67.85685555125704" lon="12.863016673302248" id="-12167">
		<tag k="name" v="Tortenbakkskaret" />
		<tag k="natural" v="valley" />
		<tag k="place" v="locality" />
		<tag k="ssr:stedsnr" v="535660" />
	</node>
	<node lat="68.01108332940521" lon="12.789008336392504" id="-12168">
		<tag k="name" v="Floskallan" />
		<tag k="natural" v="shoal" />
		<tag k="place" v="locality" />
		<tag k="ssr:stedsnr" v="562027" />
	</node>
	<node lat="68.0083138933487" lon="12.97944444255227" id="-12169">
		<tag k="fixme" v="consider natural=peak for the most distinct mountains in the district" />
		<tag k="name" v="Breiflogtinden" />
		<tag k="natural" v="hill" />
		<tag k="place" v="locality" />
		<tag k="ssr:stedsnr" v="562033" />
	</node>
	<node lat="68.02259999972516" lon="12.973172219209587" id="-12170">
		<tag k="fixme" v="multiple name tags, choose one and add the other to alt_name; consider natural=peak for the most distinct mountains in the district" />
		<tag k="name" v="Smeden;Smetinden" />
		<tag k="natural" v="hill" />
		<tag k="place" v="locality" />
		<tag k="ssr:stedsnr" v="562037" />
	</node>
	<node lat="67.84792454415641" lon="12.843000324275868" id="-12171">
		<tag k="alt_name" v="Revsvika" />
		<tag k="name" v="Refsvika" />
		<tag k="natural" v="bay" />
		<tag k="ssr:stedsnr" v="562065" />
	</node>
	<node lat="67.83385277366767" lon="12.789133328367809" id="-12172">
		<tag k="fixme" v="consider seamark:type=rock or natural=shoal" />
		<tag k="name" v="Skiten" />
		<tag k="place" v="islet" />
		<tag k="ssr:stedsnr" v="562066" />
	</node>
	<node lat="67.991447224476" lon="12.996927786710364" id="-12173">
		<tag k="fixme" v="multiple name tags, choose one and add the other to alt_name; consider natural=peak for the most distinct mountains in the district" />
		<tag k="name" v="Merraflestinden;Merrastitinden" />
		<tag k="natural" v="hill" />
		<tag k="place" v="locality" />
		<tag k="ssr:stedsnr" v="562275" />
	</node>
	<node lat="67.90547499685191" lon="13.05580556160467" id="-12174">
		<tag k="name" v="Seljevika" />
		<tag k="natural" v="bay" />
		<tag k="ssr:stedsnr" v="562378" />
	</node>
	<node lat="67.89915555132814" lon="12.9165000055712" id="-12175">
		<tag k="fixme" v="consider natural=peak for the most distinct mountains in the district" />
		<tag k="name" v="Mengelsdalstinden" />
		<tag k="natural" v="hill" />
		<tag k="place" v="locality" />
		<tag k="ssr:stedsnr" v="562380" />
	</node>
	<node lat="67.88154444267592" lon="13.003091672609683" id="-12176">
		<tag k="name" v="Lamholmen" />
		<tag k="place" v="islet" />
		<tag k="ssr:stedsnr" v="562394" />
	</node>
	<node lat="67.88467499752645" lon="12.739383344057183" id="-12177">
		<tag k="name" v="Sandvoksterskallan" />
		<tag k="natural" v="shoal" />
		<tag k="place" v="locality" />
		<tag k="ssr:stedsnr" v="562398" />
	</node>
	<node lat="67.8784555541053" lon="13.066838890821222" id="-12178">
		<tag k="name" v="Ufsskallen" />
		<tag k="natural" v="shoal" />
		<tag k="place" v="locality" />
		<tag k="ssr:stedsnr" v="562418" />
	</node>
	<node lat="67.92647777675857" lon="13.091408335365372" id="-12179">
		<tag k="alt_name" v="Munkhaugen" />
		<tag k="fixme" v="consider natural=peak for the most distinct mountains in the district" />
		<tag k="name" v="Munkhauan" />
		<tag k="natural" v="hill" />
		<tag k="place" v="locality" />
		<tag k="ssr:stedsnr" v="562365" />
	</node>
	<node lat="67.85729444204037" lon="12.762894438287985" id="-12180">
		<tag k="name" v="Truskallen" />
		<tag k="natural" v="shoal" />
		<tag k="place" v="locality" />
		<tag k="ssr:stedsnr" v="562426" />
	</node>
	<node lat="67.94758611398692" lon="13.15291389444631" id="-12181">
		<tag k="name" v="Korten" />
		<tag k="place" v="islet" />
		<tag k="ssr:stedsnr" v="562484" />
	</node>
	<node lat="67.81015277439035" lon="12.777550003104482" id="-12182">
		<tag k="bay" v="fjord" />
		<tag k="name" v="Moskstraumen" />
		<tag k="natural" v="bay" />
		<tag k="ssr:stedsnr" v="563083" />
	</node>
	<node lat="67.98561388455552" lon="13.042444445724632" id="-12183">
		<tag k="alt_name" v="Seiltinden" />
		<tag k="fixme" v="consider natural=peak for the most distinct mountains in the district" />
		<tag k="name" v="Segltinden" />
		<tag k="natural" v="hill" />
		<tag k="place" v="locality" />
		<tag k="ssr:stedsnr" v="563428" />
	</node>
	<node lat="67.96995555581756" lon="12.982149995585507" id="-12184">
		<tag k="name" v="Bunesfjorden" />
		<tag k="place" v="isolated_dwelling" />
		<tag k="ssr:stedsnr" v="563438" />
	</node>
	<node lat="67.97169999605659" lon="12.911386104609944" id="-12185">
		<tag k="name" v="Skarvsteinen" />
		<tag k="natural" v="cape" />
		<tag k="ssr:stedsnr" v="563441" />
	</node>
	<node lat="67.95850277623074" lon="12.926691668361759" id="-12186">
		<tag k="name" v="Hermannsdalen" />
		<tag k="natural" v="valley" />
		<tag k="place" v="locality" />
		<tag k="ssr:stedsnr" v="563452" />
	</node>
	<node lat="67.95877221940685" lon="13.103497230474138" id="-12187">
		<tag k="bay" v="fjord" />
		<tag k="name" v="Vorfjorden" />
		<tag k="natural" v="bay" />
		<tag k="ssr:stedsnr" v="563458" />
	</node>
	<node lat="67.95053610764187" lon="13.070555561790439" id="-12188">
		<tag k="alt_name" v="Olstindodden" />
		<tag k="name" v="Olstindneset" />
		<tag k="natural" v="cape" />
		<tag k="ssr:stedsnr" v="563465" />
	</node>
	<node lat="67.95334293595833" lon="13.119783396629343" id="-12189">
		<tag k="alt_name" v="Festhelen" />
		<tag k="fixme" v="consider place=hamlet" />
		<tag k="name" v="Festhælen" />
		<tag k="place" v="farm" />
		<tag k="ssr:stedsnr" v="563467" />
	</node>
	<node lat="67.93633889182105" lon="13.089827766789934" id="-12190">
		<tag k="name" v="Skjånakken" />
		<tag k="natural" v="hill" />
		<tag k="place" v="locality" />
		<tag k="ssr:stedsnr" v="595362" />
	</node>
	<node lat="67.97651944888857" lon="13.159158324820696" id="-12191">
		<tag k="name" v="Ølkondalen" />
		<tag k="natural" v="valley" />
		<tag k="place" v="locality" />
		<tag k="ssr:stedsnr" v="596385" />
	</node>
	<node lat="68.03413055924491" lon="13.00693889100463" id="-12192">
		<tag k="name" v="Dalur" />
		<tag k="natural" v="scree" />
		<tag k="ssr:stedsnr" v="596082" />
	</node>
	<node lat="68.00362499932726" lon="12.98990833248847" id="-12193">
		<tag k="name" v="Kråkdalen" />
		<tag k="natural" v="valley" />
		<tag k="place" v="locality" />
		<tag k="ssr:stedsnr" v="596089" />
	</node>
	<node lat="67.88515832942299" lon="12.849502765314313" id="-12194">
		<tag k="alt_name" v="Drågvika" />
		<tag k="name" v="Draugvika" />
		<tag k="natural" v="bay" />
		<tag k="ssr:stedsnr" v="622398" />
	</node>
	<node lat="68.02311110699843" lon="13.01990555559953" id="-12195">
		<tag k="alt_name" v="Brandtuva" />
		<tag k="fixme" v="consider natural=peak for the most distinct mountains in the district" />
		<tag k="name" v="Branntuva" />
		<tag k="natural" v="hill" />
		<tag k="place" v="locality" />
		<tag k="ssr:stedsnr" v="623022" />
	</node>
	<node lat="67.84068611091848" lon="12.88128610580699" id="-12196">
		<tag k="name" v="Indretuven" />
		<tag k="place" v="farm" />
		<tag k="ssr:stedsnr" v="623099" />
	</node>
	<node lat="67.82792777523635" lon="12.817994445954861" id="-12197">
		<tag k="fixme" v="multiple name tags, choose one and add the other to alt_name" />
		<tag k="name" v="Reidtinden;Stor-Reitinden" />
		<tag k="natural" v="hill" />
		<tag k="place" v="locality" />
		<tag k="ssr:stedsnr" v="623101" />
	</node>
	<node lat="67.9607250016237" lon="13.170205555183488" id="-12198">
		<tag k="alt_name" v="Nakkmedan" />
		<tag k="name" v="Nakkmean" />
		<tag k="natural" v="shoal" />
		<tag k="place" v="locality" />
		<tag k="ssr:stedsnr" v="623490" />
	</node>
	<node lat="67.94539166899905" lon="12.91486111166077" id="-12199">
		<tag k="name" v="Saubukta" />
		<tag k="natural" v="bay" />
		<tag k="ssr:stedsnr" v="623491" />
	</node>
	<node lat="67.94200833523671" lon="12.938019432817763" id="-12200">
		<tag k="alt_name" v="Hermansdalstinden" />
		<tag k="fixme" v="consider natural=peak for the most distinct mountains in the district" />
		<tag k="name" v="Hermannsdalstinden" />
		<tag k="natural" v="hill" />
		<tag k="place" v="locality" />
		<tag k="ssr:stedsnr" v="623494" />
	</node>
	<node lat="67.94839167020298" lon="13.001388885521406" id="-12201">
		<tag k="alt_name" v="Ternneset" />
		<tag k="name" v="Tennes" />
		<tag k="natural" v="cape" />
		<tag k="ssr:stedsnr" v="623497" />
	</node>
	<node lat="67.94109999922415" lon="12.979752774198783" id="-12202">
		<tag k="bay" v="fjord" />
		<tag k="name" v="Forsfjorden" />
		<tag k="natural" v="bay" />
		<tag k="ssr:stedsnr" v="623498" />
	</node>
	<node lat="67.90231944351905" lon="13.041591657299133" id="-12203">
		<tag k="name" v="Moskenes" />
		<tag k="place" v="village" />
		<tag k="ssr:stedsnr" v="623395" />
	</node>
	<node lat="67.89992222582946" lon="12.995491674633328" id="-12204">
		<tag k="alt_name" v="Studalsvatnet" />
		<tag k="name" v="Stuvdalsvatnet" />
		<tag k="natural" v="water" />
		<tag k="ssr:stedsnr" v="623396" />
	</node>
	<node lat="67.89711666691448" lon="12.86336666518217" id="-12205">
		<tag k="fixme" v="consider natural=peak for the most distinct mountains in the district" />
		<tag k="name" v="Smallidalsmulen" />
		<tag k="natural" v="hill" />
		<tag k="place" v="locality" />
		<tag k="ssr:stedsnr" v="623400" />
	</node>
	<node lat="67.89913333568718" lon="12.835980556519834" id="-12206">
		<tag k="fixme" v="multiple name tags, choose one and add the other to alt_name" />
		<tag k="name" v="Flesa;Vedskjeret" />
		<tag k="place" v="islet" />
		<tag k="ssr:stedsnr" v="623402" />
	</node>
	<node lat="67.8742277769991" lon="12.976550002463354" id="-12207">
		<tag k="alt_name" v="Amundholmen" />
		<tag k="name" v="Amundsholmen" />
		<tag k="place" v="islet" />
		<tag k="ssr:stedsnr" v="623423" />
	</node>
	<node lat="67.86192777775778" lon="12.882611112213134" id="-12208">
		<tag k="name" v="Svultendalen" />
		<tag k="natural" v="valley" />
		<tag k="place" v="locality" />
		<tag k="ssr:stedsnr" v="623431" />
	</node>
	<node lat="67.86340833471559" lon="12.870161109588379" id="-12209">
		<tag k="fixme" v="consider natural=peak for the most distinct mountains in the district" />
		<tag k="name" v="Gjerdtinden" />
		<tag k="natural" v="hill" />
		<tag k="place" v="locality" />
		<tag k="ssr:stedsnr" v="623432" />
	</node>
	<node lat="67.85464722605006" lon="12.798966658684918" id="-12210">
		<tag k="name" v="Rundflesa" />
		<tag k="place" v="islet" />
		<tag k="ssr:stedsnr" v="623441" />
	</node>
	<node lat="67.85681388683273" lon="12.832836099709883" id="-12211">
		<tag k="name" v="Steinberget" />
		<tag k="natural" v="hill" />
		<tag k="place" v="locality" />
		<tag k="ssr:stedsnr" v="623446" />
	</node>
	<node lat="67.97220833603889" lon="12.733763888294819" id="-12212">
		<tag k="name" v="Høgtindskallan" />
		<tag k="natural" v="shoal" />
		<tag k="place" v="locality" />
		<tag k="ssr:stedsnr" v="623457" />
	</node>
	<node lat="67.98365555532475" lon="12.918100000349009" id="-12213">
		<tag k="name" v="Kalkunnesbåen" />
		<tag k="natural" v="shoal" />
		<tag k="place" v="locality" />
		<tag k="ssr:stedsnr" v="653556" />
	</node>
	<node lat="67.9384611099798" lon="13.109991657534728" id="-12214">
		<tag k="name" v="Øyodden" />
		<tag k="natural" v="cape" />
		<tag k="ssr:stedsnr" v="655372" />
	</node>
	<node lat="67.9364277766015" lon="13.102227768093568" id="-12215">
		<tag k="fixme" v="consider seamark:type=rock or natural=shoal" />
		<tag k="name" v="Fiskarskjeret" />
		<tag k="place" v="islet" />
		<tag k="ssr:stedsnr" v="655373" />
	</node>
	<node lat="67.9989111116602" lon="12.96781388841782" id="-12216">
		<tag k="name" v="Skjelvan" />
		<tag k="natural" v="slope" />
		<tag k="place" v="locality" />
		<tag k="ssr:stedsnr" v="657076" />
	</node>
	<node lat="67.89039166244486" lon="13.03723332406495" id="-12217">
		<tag k="fixme" v="consider seamark:type=rock or natural=shoal" />
		<tag k="name" v="Vedskjeret" />
		<tag k="place" v="islet" />
		<tag k="ssr:stedsnr" v="657373" />
	</node>
	<node lat="67.95737222609607" lon="13.089708335478754" id="-12218">
		<tag k="name" v="Snebakkan" />
		<tag k="natural" v="slope" />
		<tag k="place" v="locality" />
		<tag k="ssr:stedsnr" v="657451" />
	</node>
	<node lat="67.96094721899712" lon="13.066938896338643" id="-12219">
		<tag k="fixme" v="consider natural=peak for the most distinct mountains in the district" />
		<tag k="name" v="Rostadtinden" />
		<tag k="natural" v="hill" />
		<tag k="place" v="locality" />
		<tag k="ssr:stedsnr" v="657454" />
	</node>
	<node lat="67.96221389011099" lon="13.08927499153456" id="-12220">
		<tag k="name" v="Myran" />
		<tag k="natural" v="wetland" />
		<tag k="ssr:stedsnr" v="657457" />
	</node>
	<node lat="67.9446583320413" lon="12.991141672034553" id="-12221">
		<tag k="name" v="Hoffstad" />
		<tag k="place" v="locality" />
		<tag k="ssr:stedsnr" v="657474" />
	</node>
	<node lat="67.89547222372701" lon="13.026575001626243" id="-12222">
		<tag k="name" v="Rostaddalen" />
		<tag k="natural" v="valley" />
		<tag k="place" v="locality" />
		<tag k="ssr:stedsnr" v="657384" />
	</node>
	<node lat="67.98303610847515" lon="13.107766659840415" id="-12223">
		<tag k="name" v="Vorfjordskaret" />
		<tag k="natural" v="valley" />
		<tag k="place" v="locality" />
		<tag k="ssr:stedsnr" v="657419" />
	</node>
	<node lat="67.97418332918923" lon="13.103224996333553" id="-12224">
		<tag k="fixme" v="consider natural=peak for the most distinct mountains in the district" />
		<tag k="name" v="Åsen" />
		<tag k="natural" v="hill" />
		<tag k="place" v="locality" />
		<tag k="ssr:stedsnr" v="657425" />
	</node>
	<node lat="67.88125832905416" lon="12.97811667215188" id="-12225">
		<tag k="name" v="Nonshaugen" />
		<tag k="natural" v="hill" />
		<tag k="place" v="locality" />
		<tag k="ssr:stedsnr" v="657637" />
	</node>
	<node lat="67.88237777332873" lon="13.031086113807435" id="-12226">
		<tag k="name" v="Kråkhammeren" />
		<tag k="natural" v="cape" />
		<tag k="ssr:stedsnr" v="657657" />
	</node>
	<node lat="67.88180000290933" lon="13.027474993301233" id="-12227">
		<tag k="fixme" v="consider seamark:type=rock or natural=shoal" />
		<tag k="name" v="Skarvskuta" />
		<tag k="place" v="islet" />
		<tag k="ssr:stedsnr" v="657658" />
	</node>
	<node lat="67.88301111187825" lon="13.000722216771285" id="-12228">
		<tag k="name" v="Tindsleia" />
		<tag k="natural" v="strait" />
		<tag k="ssr:stedsnr" v="657662" />
	</node>
	<node lat="67.9418000005907" lon="13.11505554542441" id="-12229">
		<tag k="name" v="Rundkulten" />
		<tag k="natural" v="cape" />
		<tag k="ssr:stedsnr" v="716398" />
	</node>
	<node lat="67.87759444449117" lon="12.940383324029872" id="-12230">
		<tag k="fixme" v="consider natural=peak for the most distinct mountains in the district" />
		<tag k="name" v="Bjørnen" />
		<tag k="natural" v="hill" />
		<tag k="place" v="locality" />
		<tag k="ssr:stedsnr" v="717344" />
	</node>
	<node lat="67.88504166497793" lon="12.996158342418827" id="-12231">
		<tag k="name" v="Tindsgården" />
		<tag k="place" v="farm" />
		<tag k="ssr:stedsnr" v="717352" />
	</node>
	<node lat="67.88490555480499" lon="12.976149997868193" id="-12232">
		<tag k="name" v="Nakkvikhaugen" />
		<tag k="natural" v="ridge" />
		<tag k="place" v="locality" />
		<tag k="ssr:stedsnr" v="717354" />
	</node>
	<node lat="67.90209722191845" lon="13.033211114906273" id="-12233">
		<tag k="name" v="Bruddet" />
		<tag k="place" v="locality" />
		<tag k="ssr:stedsnr" v="717362" />
	</node>
	<node lat="67.89892222585775" lon="13.018236101598944" id="-12234">
		<tag k="name" v="Øverheia" />
		<tag k="natural" v="hill" />
		<tag k="place" v="locality" />
		<tag k="ssr:stedsnr" v="717364" />
	</node>
	<node lat="67.89424444141315" lon="13.005377771870586" id="-12235">
		<tag k="name" v="Studalselva" />
		<tag k="ssr:stedsnr" v="717370" />
		<tag k="waterway" v="river" />
	</node>
	<node lat="67.98308611006114" lon="13.114552773877053" id="-12236">
		<tag k="fixme" v="consider natural=peak for the most distinct mountains in the district" />
		<tag k="name" v="Austervasstinden" />
		<tag k="natural" v="hill" />
		<tag k="place" v="locality" />
		<tag k="ssr:stedsnr" v="717420" />
	</node>
	<node lat="67.94301944706969" lon="12.973769437104858" id="-12237">
		<tag k="name" v="Grisbakkan" />
		<tag k="natural" v="slope" />
		<tag k="place" v="locality" />
		<tag k="ssr:stedsnr" v="717483" />
	</node>
	<node lat="67.88151666585817" lon="12.971880565547593" id="-12238">
		<tag k="name" v="Båstavika" />
		<tag k="natural" v="bay" />
		<tag k="ssr:stedsnr" v="717655" />
	</node>
	<node lat="67.97634166232332" lon="12.938369449560632" id="-12239">
		<tag k="name" v="Kvanndalen" />
		<tag k="natural" v="valley" />
		<tag k="place" v="locality" />
		<tag k="ssr:stedsnr" v="718079" />
	</node>
	<node lat="67.9815916641579" lon="13.014641655122235" id="-12240">
		<tag k="fixme" v="consider seamark:type=rock or natural=shoal" />
		<tag k="name" v="Kobbsteinen" />
		<tag k="place" v="islet" />
		<tag k="ssr:stedsnr" v="718094" />
	</node>
	<node lat="67.99899166772138" lon="12.99793889412141" id="-12241">
		<tag k="name" v="Einangen" />
		<tag k="natural" v="valley" />
		<tag k="place" v="locality" />
		<tag k="ssr:stedsnr" v="718095" />
	</node>
	<node lat="67.84779444156239" lon="12.848166661112863" id="-12242">
		<tag k="name" v="Kjøttsteinen" />
		<tag k="natural" v="stone" />
		<tag k="ssr:stedsnr" v="718731" />
	</node>
	<node lat="68.03871111281313" lon="13.00584167660904" id="-12243">
		<tag k="alt_name" v="Indre Brasråstindan;Brasråsen" />
		<tag k="fixme" v="consider natural=peak for the most distinct mountains in the district" />
		<tag k="name" v="Brasråstindan" />
		<tag k="natural" v="hill" />
		<tag k="place" v="locality" />
		<tag k="ssr:stedsnr" v="745046" />
	</node>
	<node lat="67.88894166373552" lon="12.990791671652568" id="-12244">
		<tag k="fixme" v="consider natural=peak for the most distinct mountains in the district" />
		<tag k="name" v="Tindstinden" />
		<tag k="natural" v="hill" />
		<tag k="place" v="locality" />
		<tag k="ssr:stedsnr" v="745420" />
	</node>
	<node lat="67.95642777539042" lon="13.076799989519706" id="-12245">
		<tag k="fixme" v="consider natural=peak for the most distinct mountains in the district" />
		<tag k="name" v="Olstinden" />
		<tag k="natural" v="hill" />
		<tag k="place" v="locality" />
		<tag k="ssr:stedsnr" v="745464" />
	</node>
	<node lat="67.94988610849892" lon="12.966966665432224" id="-12246">
		<tag k="alt_name" v="Brynliskardtinden" />
		<tag k="fixme" v="consider natural=peak for the most distinct mountains in the district" />
		<tag k="name" v="Brynliskartinden" />
		<tag k="natural" v="hill" />
		<tag k="place" v="locality" />
		<tag k="ssr:stedsnr" v="745469" />
	</node>
	<node lat="67.93570555585048" lon="13.073869453740315" id="-12247">
		<tag k="name" v="Solbakken" />
		<tag k="place" v="farm" />
		<tag k="ssr:stedsnr" v="768356" />
	</node>
	<node lat="67.93355278205117" lon="13.093205548102597" id="-12248">
		<tag k="name" v="Jekthaugen" />
		<tag k="natural" v="hill" />
		<tag k="place" v="locality" />
		<tag k="ssr:stedsnr" v="777372" />
	</node>
	<node lat="67.94241111301241" lon="13.09523055116696" id="-12249">
		<tag k="name" v="Myran" />
		<tag k="place" v="quarter" />
		<tag k="ssr:stedsnr" v="777385" />
	</node>
	<node lat="67.94839999950847" lon="13.136522227493455" id="-12250">
		<tag k="name" v="Skagen" />
		<tag k="natural" v="cape" />
		<tag k="ssr:stedsnr" v="777420" />
	</node>
	<node lat="68.02127777545937" lon="12.983363892039245" id="-12251">
		<tag k="name" v="Jofjellet" />
		<tag k="natural" v="cliff" />
		<tag k="ssr:stedsnr" v="778086" />
	</node>
	<node lat="67.98033889273985" lon="12.970597223441402" id="-12252">
		<tag k="name" v="Likhola" />
		<tag k="place" v="locality" />
		<tag k="ssr:stedsnr" v="778093" />
	</node>
	<node lat="67.9184555552649" lon="13.074180547999905" id="-12253">
		<tag k="name" v="Bjønnskaret" />
		<tag k="natural" v="valley" />
		<tag k="place" v="locality" />
		<tag k="ssr:stedsnr" v="778381" />
	</node>
	<node lat="67.93967777653488" lon="13.054750006893999" id="-12254">
		<tag k="name" v="Finnura" />
		<tag k="natural" v="scree" />
		<tag k="ssr:stedsnr" v="778281" />
	</node>
	<node lat="67.89066111115164" lon="12.885200007029473" id="-12255">
		<tag k="name" v="Neset" />
		<tag k="natural" v="cape" />
		<tag k="ssr:stedsnr" v="778298" />
	</node>
	<node lat="67.8876722192146" lon="12.925436106988005" id="-12256">
		<tag k="name" v="Røyrhallet" />
		<tag k="natural" v="slope" />
		<tag k="place" v="locality" />
		<tag k="ssr:stedsnr" v="778340" />
	</node>
	<node lat="67.89561944481372" lon="13.038547212287552" id="-12257">
		<tag k="name" v="Løktodden" />
		<tag k="natural" v="cape" />
		<tag k="ssr:stedsnr" v="778342" />
	</node>
	<node lat="67.9024944475343" lon="13.028683330558717" id="-12258">
		<tag k="name" v="Sauhella" />
		<tag k="natural" v="slope" />
		<tag k="place" v="locality" />
		<tag k="ssr:stedsnr" v="778347" />
	</node>
	<node lat="67.88280555360139" lon="12.993255551085797" id="-12259">
		<tag k="fixme" v="consider seamark:type=rock or natural=shoal" />
		<tag k="name" v="Olaskjeret" />
		<tag k="place" v="islet" />
		<tag k="ssr:stedsnr" v="778628" />
	</node>
	<node lat="67.88385277709013" lon="12.985749994338248" id="-12260">
		<tag k="name" v="Åkervika" />
		<tag k="natural" v="bay" />
		<tag k="ssr:stedsnr" v="778641" />
	</node>
	<node lat="67.88263889245644" lon="12.955452789066825" id="-12261">
		<tag k="name" v="Rasmussvika" />
		<tag k="natural" v="bay" />
		<tag k="ssr:stedsnr" v="778647" />
	</node>
	<node lat="67.94161111142286" lon="13.011827773023342" id="-12262">
		<tag k="alt_name" v="Ternnestinden" />
		<tag k="fixme" v="consider natural=peak for the most distinct mountains in the district" />
		<tag k="name" v="Tennestinden" />
		<tag k="natural" v="hill" />
		<tag k="place" v="locality" />
		<tag k="ssr:stedsnr" v="805497" />
	</node>
	<node lat="67.93399722165042" lon="12.913899988382942" id="-12263">
		<tag k="alt_name" v="Breidtinden" />
		<tag k="fixme" v="consider natural=peak for the most distinct mountains in the district" />
		<tag k="name" v="Breitinden" />
		<tag k="natural" v="hill" />
		<tag k="place" v="locality" />
		<tag k="ssr:stedsnr" v="805498" />
	</node>
	<node lat="67.9280361112661" lon="13.034311105700107" id="-12264">
		<tag k="alt_name" v="Austredalsvatnet" />
		<tag k="name" v="Austerdalsvatnet" />
		<tag k="natural" v="water" />
		<tag k="ssr:stedsnr" v="805382" />
	</node>
	<node lat="67.87222499784649" lon="12.970708324097664" id="-12265">
		<tag k="name" v="Andstabbflua" />
		<tag k="natural" v="shoal" />
		<tag k="place" v="locality" />
		<tag k="ssr:stedsnr" v="805426" />
	</node>
	<node lat="67.86497778013441" lon="12.990486099798146" id="-12266">
		<tag k="name" v="Kalvskinnskallen" />
		<tag k="natural" v="shoal" />
		<tag k="place" v="locality" />
		<tag k="ssr:stedsnr" v="805435" />
	</node>
	<node lat="67.92568333197441" lon="12.918658326903692" id="-12267">
		<tag k="alt_name" v="Ertnhelltinden" />
		<tag k="fixme" v="consider natural=peak for the most distinct mountains in the district" />
		<tag k="name" v="Ertenhelltinden" />
		<tag k="natural" v="hill" />
		<tag k="place" v="locality" />
		<tag k="ssr:stedsnr" v="805505" />
	</node>
	<node lat="67.98711944771398" lon="13.036352778975687" id="-12268">
		<tag k="name" v="Durmålsdalen" />
		<tag k="natural" v="valley" />
		<tag k="place" v="locality" />
		<tag k="ssr:stedsnr" v="806303" />
	</node>
	<node lat="67.99609722189179" lon="12.982302781437406" id="-12269">
		<tag k="fixme" v="multiple name tags, choose one and add the other to alt_name; consider natural=peak for the most distinct mountains in the district" />
		<tag k="name" v="Moltbærtinden;Skjelvtinden" />
		<tag k="natural" v="hill" />
		<tag k="place" v="locality" />
		<tag k="ssr:stedsnr" v="806305" />
	</node>
	<node lat="67.99924444568259" lon="13.034366675492013" id="-12270">
		<tag k="fixme" v="consider natural=peak for the most distinct mountains in the district" />
		<tag k="name" v="Manntinden" />
		<tag k="natural" v="hill" />
		<tag k="place" v="locality" />
		<tag k="ssr:stedsnr" v="806307" />
	</node>
	<node lat="67.84163888862227" lon="12.892583322888735" id="-12271">
		<tag k="name" v="Ståkja" />
		<tag k="natural" v="shoal" />
		<tag k="place" v="locality" />
		<tag k="ssr:stedsnr" v="806077" />
	</node>
	<node lat="67.9860472211599" lon="12.994049990052783" id="-12272">
		<tag k="alt_name" v="Vestredalen" />
		<tag k="name" v="Vesterdalen" />
		<tag k="natural" v="valley" />
		<tag k="place" v="locality" />
		<tag k="ssr:stedsnr" v="806425" />
	</node>
	<node lat="67.98447722934205" lon="13.120304366724943" id="-12273">
		<tag k="alt_name" v="Målhøgtinden" />
		<tag k="fixme" v="consider natural=peak for the most distinct mountains in the district" />
		<tag k="name" v="Molhøgtinden" />
		<tag k="natural" v="hill" />
		<tag k="place" v="locality" />
		<tag k="ssr:stedsnr" v="806428" />
	</node>
	<node lat="67.97338888434118" lon="13.004655560661165" id="-12274">
		<tag k="fixme" v="consider natural=peak for the most distinct mountains in the district" />
		<tag k="name" v="Kammen" />
		<tag k="natural" v="hill" />
		<tag k="place" v="locality" />
		<tag k="ssr:stedsnr" v="806435" />
	</node>
	<node lat="67.97301110961334" lon="12.977302769772612" id="-12275">
		<tag k="name" v="Einangen" />
		<tag k="natural" v="valley" />
		<tag k="place" v="locality" />
		<tag k="ssr:stedsnr" v="806438" />
	</node>
	<node lat="67.96678055554023" lon="12.940127780031009" id="-12276">
		<tag k="fixme" v="consider natural=peak for the most distinct mountains in the district" />
		<tag k="name" v="Litlskiva" />
		<tag k="natural" v="hill" />
		<tag k="place" v="locality" />
		<tag k="ssr:stedsnr" v="806440" />
	</node>
	<node lat="67.97237222212406" lon="13.165233324538924" id="-12277">
		<tag k="name" v="Ølkona" />
		<tag k="ssr:stedsnr" v="806442" />
		<tag k="waterway" v="stream" />
	</node>
	<node lat="67.89250277405111" lon="13.042816676538282" id="-12278">
		<tag k="name" v="Kråka" />
		<tag k="place" v="islet" />
		<tag k="ssr:stedsnr" v="806387" />
	</node>
	<node lat="67.88968055600013" lon="13.016402772381058" id="-12279">
		<tag k="name" v="Sørvågen" />
		<tag k="place" v="village" />
		<tag k="ssr:stedsnr" v="806389" />
	</node>
	<node lat="67.96579722006106" lon="12.969080544233043" id="-12280">
		<tag k="fixme" v="consider natural=peak for the most distinct mountains in the district" />
		<tag k="name" v="Trollhovudet" />
		<tag k="natural" v="hill" />
		<tag k="place" v="locality" />
		<tag k="ssr:stedsnr" v="806448" />
	</node>
	<node lat="67.96280277387827" lon="13.16333334328514" id="-12281">
		<tag k="name" v="Akkarvika" />
		<tag k="natural" v="bay" />
		<tag k="ssr:stedsnr" v="806452" />
	</node>
	<node lat="67.92071389121374" lon="13.101605565579506" id="-12282">
		<tag k="name" v="Purkskallen" />
		<tag k="natural" v="shoal" />
		<tag k="place" v="locality" />
		<tag k="ssr:stedsnr" v="836500" />
	</node>
	<node lat="67.95971388614097" lon="12.915299999027079" id="-12283">
		<tag k="name" v="Hermannsdal" />
		<tag k="place" v="locality" />
		<tag k="ssr:stedsnr" v="839063" />
	</node>
	<node lat="67.89096944746632" lon="12.950691677279343" id="-12284">
		<tag k="name" v="Langliflotan" />
		<tag k="natural" v="slope" />
		<tag k="place" v="locality" />
		<tag k="ssr:stedsnr" v="839252" />
	</node>
	<node lat="67.87475555436716" lon="12.938275004831512" id="-12285">
		<tag k="name" v="Stormarka" />
		<tag k="place" v="locality" />
		<tag k="ssr:stedsnr" v="839348" />
	</node>
	<node lat="67.88723055600904" lon="12.96053888219742" id="-12286">
		<tag k="name" v="Fagervika" />
		<tag k="natural" v="bay" />
		<tag k="ssr:stedsnr" v="839358" />
	</node>
	<node lat="67.88917489695356" lon="13.038787568367251" id="-12287">
		<tag k="name" v="Fløystanga" />
		<tag k="place" v="locality" />
		<tag k="ssr:stedsnr" v="839369" />
	</node>
	<node lat="67.9677861070223" lon="13.10874999283794" id="-12288">
		<tag k="name" v="Bjørnvika" />
		<tag k="natural" v="bay" />
		<tag k="ssr:stedsnr" v="839446" />
	</node>
	<node lat="67.91800555773014" lon="13.080591661364142" id="-12289">
		<tag k="name" v="Litlkåken" />
		<tag k="natural" v="ridge" />
		<tag k="place" v="locality" />
		<tag k="ssr:stedsnr" v="839397" />
	</node>
	<node lat="67.94063611461158" lon="13.044297216043102" id="-12290">
		<tag k="name" v="Kamtinden" />
		<tag k="natural" v="ridge" />
		<tag k="place" v="locality" />
		<tag k="ssr:stedsnr" v="839470" />
	</node>
	<node lat="67.82715555291571" lon="12.791613899433727" id="-12291">
		<tag k="name" v="Tørrfallet" />
		<tag k="natural" v="shoal" />
		<tag k="place" v="locality" />
		<tag k="ssr:stedsnr" v="866052" />
	</node>
	<node lat="67.83891389084926" lon="12.78003610723404" id="-12292">
		<tag k="name" v="Holmsundet" />
		<tag k="natural" v="strait" />
		<tag k="ssr:stedsnr" v="866058" />
	</node>
	<node lat="67.91234999954838" lon="13.039011112638535" id="-12293">
		<tag k="fixme" v="consider natural=peak for the most distinct mountains in the district" />
		<tag k="name" v="Gylttinden" />
		<tag k="natural" v="hill" />
		<tag k="place" v="locality" />
		<tag k="ssr:stedsnr" v="866359" />
	</node>
	<node lat="67.89298333377789" lon="12.876336117583882" id="-12294">
		<tag k="name" v="Stokkvikvatnet" />
		<tag k="natural" v="water" />
		<tag k="ssr:stedsnr" v="866379" />
	</node>
	<node lat="67.99141388795107" lon="12.973216661659027" id="-12295">
		<tag k="fixme" v="consider natural=peak for the most distinct mountains in the district" />
		<tag k="name" v="Stamprevtinden" />
		<tag k="natural" v="hill" />
		<tag k="place" v="locality" />
		<tag k="ssr:stedsnr" v="866271" />
	</node>
	<node lat="67.87644166669092" lon="13.003058337988579" id="-12296">
		<tag k="name" v="Grunnflaget" />
		<tag k="natural" v="shoal" />
		<tag k="place" v="locality" />
		<tag k="ssr:stedsnr" v="866391" />
	</node>
	<node lat="67.87624444559553" lon="12.8352111168089" id="-12297">
		<tag k="name" v="Krykkjeholmen" />
		<tag k="place" v="islet" />
		<tag k="ssr:stedsnr" v="866394" />
	</node>
	<node lat="67.86780555439046" lon="12.878824992426333" id="-12298">
		<tag k="name" v="Gjerdskardet" />
		<tag k="natural" v="valley" />
		<tag k="place" v="locality" />
		<tag k="ssr:stedsnr" v="866405" />
	</node>
	<node lat="67.96478889283436" lon="12.976180560270894" id="-12299">
		<tag k="name" v="Reklidalshåa" />
		<tag k="natural" v="valley" />
		<tag k="place" v="locality" />
		<tag k="ssr:stedsnr" v="867474" />
	</node>
	<node lat="67.96890555589748" lon="13.100802781011186" id="-12300">
		<tag k="name" v="Fløvatnet" />
		<tag k="natural" v="water" />
		<tag k="ssr:stedsnr" v="867479" />
	</node>
	<node lat="67.96219722491878" lon="13.046336115932021" id="-12301">
		<tag k="name" v="Rostad" />
		<tag k="place" v="hamlet" />
		<tag k="ssr:stedsnr" v="867481" />
	</node>
	<node lat="67.9673638862216" lon="13.01371110454984" id="-12302">
		<tag k="fixme" v="multiple name tags, choose one and add the other to alt_name; consider natural=peak for the most distinct mountains in the district" />
		<tag k="name" v="Pantaliantinden;Hanstinden" />
		<tag k="natural" v="hill" />
		<tag k="place" v="locality" />
		<tag k="ssr:stedsnr" v="867483" />
	</node>
	<node lat="67.951097220238" lon="12.733397231065949" id="-12303">
		<tag k="name" v="Långeskallen" />
		<tag k="natural" v="shoal" />
		<tag k="place" v="locality" />
		<tag k="ssr:stedsnr" v="957537" />
	</node>
	<node lat="67.93113889279155" lon="13.090333336849904" id="-12304">
		<tag k="name" v="Dorithaugen" />
		<tag k="natural" v="hill" />
		<tag k="place" v="locality" />
		<tag k="ssr:stedsnr" v="959364" />
	</node>
	<node lat="68.01795833177202" lon="12.970355565110417" id="-12305">
		<tag k="name" v="Mulvika" />
		<tag k="natural" v="bay" />
		<tag k="ssr:stedsnr" v="960076" />
	</node>
	<node lat="68.02841388603466" lon="12.989061106803687" id="-12306">
		<tag k="name" v="Øya" />
		<tag k="natural" v="cape" />
		<tag k="ssr:stedsnr" v="960081" />
	</node>
	<node lat="67.98343055724256" lon="12.969513886537303" id="-12307">
		<tag k="name" v="Studøra" />
		<tag k="place" v="locality" />
		<tag k="ssr:stedsnr" v="960082" />
	</node>
	<node lat="67.85441944740644" lon="12.839647230087936" id="-12308">
		<tag k="name" v="Bakfjæra" />
		<tag k="natural" v="beach" />
		<tag k="ssr:stedsnr" v="960659" />
	</node>
	<node lat="67.89126389018122" lon="12.929125001673293" id="-12309">
		<tag k="name" v="Markushamran" />
		<tag k="natural" v="cliff" />
		<tag k="ssr:stedsnr" v="960261" />
	</node>
	<node lat="67.88184166669306" lon="12.91851389210735" id="-12310">
		<tag k="name" v="Myran" />
		<tag k="natural" v="wetland" />
		<tag k="ssr:stedsnr" v="960317" />
	</node>
	<node lat="67.88486944595289" lon="13.022977774463078" id="-12311">
		<tag k="name" v="Pålhola" />
		<tag k="natural" v="valley" />
		<tag k="place" v="locality" />
		<tag k="ssr:stedsnr" v="960323" />
	</node>
	<node lat="67.88515833513887" lon="12.966369439165966" id="-12312">
		<tag k="name" v="Bulvikhaugen" />
		<tag k="natural" v="cape" />
		<tag k="ssr:stedsnr" v="960325" />
	</node>
	<node lat="67.88604444242198" lon="12.97092778319465" id="-12313">
		<tag k="name" v="Greislia" />
		<tag k="natural" v="slope" />
		<tag k="place" v="locality" />
		<tag k="ssr:stedsnr" v="960326" />
	</node>
	<node lat="67.91542500046539" lon="13.074627782223086" id="-12314">
		<tag k="name" v="Naustvika" />
		<tag k="natural" v="bay" />
		<tag k="ssr:stedsnr" v="960388" />
	</node>
	<node lat="67.9579416662284" lon="13.024019442671937" id="-12315">
		<tag k="name" v="Engelsnesodden" />
		<tag k="natural" v="cape" />
		<tag k="ssr:stedsnr" v="960421" />
	</node>
	<node lat="67.85045277598626" lon="12.84619999916907" id="-12316">
		<tag k="name" v="Slettan" />
		<tag k="place" v="locality" />
		<tag k="ssr:stedsnr" v="960725" />
	</node>
	<node lat="67.84851284549751" lon="12.847123880658371" id="-12319">
		<tag k="name" v="Refsvika" />
		<tag k="place" v="locality" />
		<tag k="ssr:stedsnr" v="1075899" />
	</node>
	<node lat="67.88032969542219" lon="12.980371356529691" id="-12320">
		<tag k="fixme" v="consider place=hamlet" />
		<tag k="name" v="Å" />
		<tag k="place" v="farm" />
		<tag k="ssr:stedsnr" v="1075900" />
	</node>
	<node lat="67.88484851147446" lon="12.99908548092141" id="-12321">
		<tag k="fixme" v="consider place=hamlet" />
		<tag k="name" v="Tind" />
		<tag k="place" v="farm" />
		<tag k="ssr:stedsnr" v="1075901" />
	</node>
	<node lat="67.96330333344521" lon="13.050666157600883" id="-12322">
		<tag k="name" v="Bisselvåg" />
		<tag k="place" v="locality" />
		<tag k="ssr:stedsnr" v="1075902" />
	</node>
	<node lat="67.90328191255266" lon="13.040335352138477" id="-12323">
		<tag k="fixme" v="consider place=hamlet" />
		<tag k="name" v="Moskenes" />
		<tag k="place" v="farm" />
		<tag k="ssr:stedsnr" v="1075903" />
	</node>
	<node lat="67.934119645004" lon="13.093179302692484" id="-12324">
		<tag k="fixme" v="consider place=hamlet" />
		<tag k="name" v="Reine" />
		<tag k="place" v="farm" />
		<tag k="ssr:stedsnr" v="1075904" />
	</node>
	<node lat="67.8881109566273" lon="13.011895274261002" id="-12329">
		<tag k="name" v="Flathaug" />
		<tag k="place" v="farm" />
		<tag k="ssr:stedsnr" v="1076934" />
	</node>
</osm>
