<?xml version="1.0" encoding="UTF-8"?>
<<<<<<< HEAD
<osm version="0.6" generator="osmapis">
	<node lat="67.90291389307215" lon="13.051633326869595" id="-10660">
		<tag k="landuse" v="meadow" />
		<tag k="name" v="Bakjorda" />
		<tag k="ssr:stedsnr" v="232345" />
	</node>
	<node lat="67.82973055397397" lon="12.861772216909587" id="-10706">
		<tag k="name" v="Sperrisskogen" />
		<tag k="place" v="locality" />
		<tag k="ssr:stedsnr" v="171757" />
	</node>
	<node lat="67.8430527786765" lon="12.833255553762847" id="-10729">
		<tag k="name" v="Banura" />
		<tag k="natural" v="scree" />
		<tag k="ssr:stedsnr" v="293735" />
	</node>
	<node lat="67.90110277870606" lon="12.985263885678389" id="-10750">
=======
<osm generator="osmapis" version="0.6">
	<node id="-208799" lat="67.8511666637" lon="12.8403666543">
		<tag k="name" v="Trusteinen" />
		<tag k="natural" v="stone" />
		<tag k="ssr:stedsnr" v="775673" />
	</node>
	<node id="-208829" lat="67.8818416667" lon="12.9185138921">
		<tag k="name" v="Myran" />
		<tag k="natural" v="wetland" />
		<tag k="ssr:stedsnr" v="960317" />
	</node>
	<node id="-208955" lat="67.9011027787" lon="12.9852638857">
>>>>>>> e1d4bc35ff8a6074a6f2e91616a996b547c36f15
		<tag k="name" v="Trollura" />
		<tag k="natural" v="scree" />
		<tag k="ssr:stedsnr" v="351513" />
	</node>
<<<<<<< HEAD
	<node lat="67.976386107489" lon="12.972122228600941" id="-10753">
		<tag k="name" v="Raen" />
		<tag k="natural" v="beach" />
		<tag k="ssr:stedsnr" v="353071" />
		<tag k="surface" v="sand" />
	</node>
	<node lat="67.88049444207249" lon="12.976363889346562" id="-10755">
		<tag k="name" v="Hennummarka" />
		<tag k="place" v="locality" />
		<tag k="ssr:stedsnr" v="353652" />
	</node>
	<node lat="67.98722777935842" lon="12.961680563090617" id="-10759">
		<tag k="name" v="Kariura" />
		<tag k="natural" v="scree" />
		<tag k="ssr:stedsnr" v="475090" />
	</node>
	<node lat="67.97525833464694" lon="13.088172231096275" id="-10794">
		<tag k="name" v="Oskarsborg" />
		<tag k="natural" v="scree" />
		<tag k="ssr:stedsnr" v="475418" />
	</node>
	<node lat="67.8853999972015" lon="12.913186104654352" id="-10872">
=======
	<node id="-209142" lat="67.8747555544" lon="12.9382750048">
		<tag k="name" v="Stormarka" />
		<tag k="place" v="locality" />
		<tag k="ssr:stedsnr" v="839348" />
	</node>
	<node id="-208959" lat="67.9763861075" lon="12.9721222286">
		<tag k="name" v="Raen" />
		<tag k="natural" v="beach" />
		<tag k="ssr:stedsnr" v="353071" />
		<tag k="surface" v="sand" />
	</node>
	<node id="-208760" lat="67.9622138901" lon="13.0892749915">
		<tag k="name" v="Myran" />
		<tag k="natural" v="wetland" />
		<tag k="ssr:stedsnr" v="657457" />
	</node>
	<node id="-208822" lat="67.8853999972" lon="12.9131861047">
>>>>>>> e1d4bc35ff8a6074a6f2e91616a996b547c36f15
		<tag k="name" v="Småskogan" />
		<tag k="place" v="locality" />
		<tag k="ssr:stedsnr" v="900363" />
	</node>
<<<<<<< HEAD
	<node lat="67.85116666373203" lon="12.84036665430593" id="-10887">
		<tag k="name" v="Trusteinen" />
		<tag k="natural" v="stone" />
		<tag k="ssr:stedsnr" v="775673" />
	</node>
	<node lat="67.89450000297974" lon="13.002136101114987" id="-11052">
		<tag k="name" v="Slåtta" />
		<tag k="natural" v="wetland" />
		<tag k="ssr:stedsnr" v="353374" />
	</node>
	<node lat="67.84701666715914" lon="12.845399990805106" id="-11059">
=======
	<node id="-208661" lat="67.9872277794" lon="12.9616805631">
		<tag k="name" v="Kariura" />
		<tag k="natural" v="scree" />
		<tag k="ssr:stedsnr" v="475090" />
	</node>
	<node id="-209012" lat="67.8960305549" lon="13.0207610992">
		<tag k="name" v="Stormyra" />
		<tag k="natural" v="wetland" />
		<tag k="ssr:stedsnr" v="414363" />
	</node>
	<node id="-208976" lat="67.8470166672" lon="12.8453999908">
>>>>>>> e1d4bc35ff8a6074a6f2e91616a996b547c36f15
		<tag k="name" v="Gangvasteinen" />
		<tag k="natural" v="stone" />
		<tag k="ssr:stedsnr" v="353744" />
	</node>
<<<<<<< HEAD
	<node lat="67.89603055485861" lon="13.020761099152626" id="-11084">
		<tag k="name" v="Stormyra" />
		<tag k="natural" v="wetland" />
		<tag k="ssr:stedsnr" v="414363" />
	</node>
	<node lat="68.03413055924491" lon="13.00693889100463" id="-11136">
		<tag k="name" v="Dalur" />
=======
	<node id="-208623" lat="67.8430527787" lon="12.8332555538">
		<tag k="name" v="Banura" />
>>>>>>> e1d4bc35ff8a6074a6f2e91616a996b547c36f15
		<tag k="natural" v="scree" />
		<tag k="ssr:stedsnr" v="596082" />
	</node>
<<<<<<< HEAD
	<node lat="67.96221389011099" lon="13.08927499153456" id="-11164">
		<tag k="name" v="Myran" />
		<tag k="natural" v="wetland" />
		<tag k="ssr:stedsnr" v="657457" />
	</node>
	<node lat="67.84779444156239" lon="12.848166661112863" id="-11186">
=======
	<node id="-208749" lat="67.8477944416" lon="12.8481666611">
>>>>>>> e1d4bc35ff8a6074a6f2e91616a996b547c36f15
		<tag k="name" v="Kjøttsteinen" />
		<tag k="natural" v="stone" />
		<tag k="ssr:stedsnr" v="718731" />
	</node>
<<<<<<< HEAD
	<node lat="67.93967777653488" lon="13.054750006893999" id="-11198">
=======
	<node id="-208921" lat="67.829730554" lon="12.8617722169">
		<tag k="name" v="Sperrisskogen" />
		<tag k="place" v="locality" />
		<tag k="ssr:stedsnr" v="171757" />
	</node>
	<node id="-209097" lat="67.9396777765" lon="13.0547500069">
>>>>>>> e1d4bc35ff8a6074a6f2e91616a996b547c36f15
		<tag k="name" v="Finnura" />
		<tag k="natural" v="scree" />
		<tag k="ssr:stedsnr" v="778281" />
	</node>
<<<<<<< HEAD
	<node lat="67.87475555436716" lon="12.938275004831512" id="-11229">
		<tag k="name" v="Stormarka" />
		<tag k="place" v="locality" />
		<tag k="ssr:stedsnr" v="839348" />
	</node>
	<node lat="67.88184166669306" lon="12.91851389210735" id="-11254">
		<tag k="name" v="Myran" />
		<tag k="natural" v="wetland" />
		<tag k="ssr:stedsnr" v="960317" />
=======
	<node id="-208966" lat="67.894500003" lon="13.0021361011">
		<tag k="name" v="Slåtta" />
		<tag k="natural" v="wetland" />
		<tag k="ssr:stedsnr" v="353374" />
	</node>
	<node id="-209053" lat="68.0341305592" lon="13.006938891">
		<tag k="name" v="Dalur" />
		<tag k="natural" v="scree" />
		<tag k="ssr:stedsnr" v="596082" />
	</node>
	<node id="-208676" lat="67.9752583346" lon="13.0881722311">
		<tag k="name" v="Oskarsborg" />
		<tag k="natural" v="scree" />
		<tag k="ssr:stedsnr" v="475418" />
	</node>
	<node id="-208973" lat="67.8804944421" lon="12.9763638893">
		<tag k="name" v="Hennummarka" />
		<tag k="place" v="locality" />
		<tag k="ssr:stedsnr" v="353652" />
	</node>
	<node id="-208578" lat="67.9029138931" lon="13.0516333269">
		<tag k="landuse" v="meadow" />
		<tag k="name" v="Bakjorda" />
		<tag k="ssr:stedsnr" v="232345" />
>>>>>>> e1d4bc35ff8a6074a6f2e91616a996b547c36f15
	</node>
</osm>
