<?xml version="1.0" encoding="UTF-8"?>
<osm version="0.6" generator="osmapis">
	<node lat="69.37770277534014" lon="19.26685832234306" id="-102920">
		<tag k="name" v="Tverrbanken" />
		<tag k="ssr:date" v="2019-12-27" />
		<tag k="ssr:gruppe" v="sjøbunn" />
		<tag k="ssr:hovedgruppe" v="sjø" />
		<tag k="ssr:stedsnr" v="231922" />
		<tag k="ssr:type" v="bankeISjø" />
	</node>
	<node lat="69.37778055372625" lon="19.270083323661215" id="-103847">
		<tag k="name" v="Amrikbanken" />
		<tag k="ssr:date" v="2019-12-27" />
		<tag k="ssr:gruppe" v="sjøbunn" />
		<tag k="ssr:hovedgruppe" v="sjø" />
		<tag k="ssr:stedsnr" v="535920" />
		<tag k="ssr:type" v="bankeISjø" />
	</node>
	<node lat="69.45903975879813" lon="18.967580128484613" id="-103891">
		<tag k="name" v="Storneset" />
		<tag k="ssr:date" v="2020-09-17" />
		<tag k="ssr:gruppe" v="navigasjon" />
		<tag k="ssr:hovedgruppe" v="infrastruktur" />
		<tag k="ssr:stedsnr" v="564868" />
		<tag k="ssr:type" v="fyrlykt" />
	</node>
	<node lat="69.35224444299064" lon="18.847727778860538" id="-103968">
		<tag k="name" v="Malangen" />
		<tag k="ssr:date" v="2019-12-27" />
		<tag k="ssr:gruppe" v="terrengområder" />
		<tag k="ssr:hovedgruppe" v="terreng" />
		<tag k="ssr:stedsnr" v="634803" />
		<tag k="ssr:type" v="landskapsområde" />
	</node>
	<node lat="69.34080721600195" lon="19.387900674802257" id="-104041">
		<tag k="name" v="Tomasjordnes" />
		<tag k="ssr:date" v="2021-01-05" />
		<tag k="ssr:gruppe" v="navigasjon" />
		<tag k="ssr:hovedgruppe" v="infrastruktur" />
		<tag k="ssr:stedsnr" v="686142" />
		<tag k="ssr:type" v="fyrlykt" />
	</node>
	<node lat="69.2747749951772" lon="18.90219444852924" id="-104764">
		<tag k="name" v="Indre Malangen" />
		<tag k="ssr:date" v="2019-12-27" />
		<tag k="ssr:gruppe" v="administrativeIndelinger" />
		<tag k="ssr:hovedgruppe" v="offentligAdministrasjon" />
		<tag k="ssr:stedsnr" v="87804" />
		<tag k="ssr:type" v="annenAdministrativInndeling" />
	</node>
	<node lat="69.3758388905685" lon="19.276041656036533" id="-106108">
		<tag k="name" v="Storbanken" />
		<tag k="ssr:date" v="2019-12-27" />
		<tag k="ssr:gruppe" v="sjøbunn" />
		<tag k="ssr:hovedgruppe" v="sjø" />
		<tag k="ssr:stedsnr" v="656924" />
		<tag k="ssr:type" v="bankeISjø" />
	</node>
	<node lat="69.24023333465456" lon="19.226541665802024" id="-106275">
		<tag k="name" v="Balsfjord kommune" />
		<tag k="ssr:date" v="2019-12-27" />
		<tag k="ssr:gruppe" v="administrativeIndelinger" />
		<tag k="ssr:hovedgruppe" v="offentligAdministrasjon" />
		<tag k="ssr:stedsnr" v="754141" />
		<tag k="ssr:type" v="kommune" />
	</node>
	<node lat="69.33168585011633" lon="18.821340770146143" id="-106479">
		<tag k="name" v="Nordbyneset" />
		<tag k="ssr:date" v="2020-11-26" />
		<tag k="ssr:gruppe" v="navigasjon" />
		<tag k="ssr:hovedgruppe" v="infrastruktur" />
		<tag k="ssr:stedsnr" v="807996" />
		<tag k="ssr:type" v="fyrlykt" />
	</node>
	<node lat="69.24550734278915" lon="19.224342798835178" id="-106749">
		<tag k="name" v="Gammelveien" />
		<tag k="ssr:date" v="2019-12-27" />
		<tag k="ssr:gruppe" v="veg" />
		<tag k="ssr:hovedgruppe" v="infrastruktur" />
		<tag k="ssr:stedsnr" v="1010685" />
		<tag k="ssr:type" v="adressenavn" />
	</node>
	<node lat="69.26633508823997" lon="19.134005338795358" id="-106750">
		<tag k="name" v="Vassliveien" />
		<tag k="ssr:date" v="2019-12-27" />
		<tag k="ssr:gruppe" v="veg" />
		<tag k="ssr:hovedgruppe" v="infrastruktur" />
		<tag k="ssr:stedsnr" v="1010936" />
		<tag k="ssr:type" v="adressenavn" />
	</node>
	<node lat="69.27843349570676" lon="19.00740330953523" id="-106751">
		<tag k="name" v="Fribergveien" />
		<tag k="ssr:date" v="2019-12-27" />
		<tag k="ssr:gruppe" v="veg" />
		<tag k="ssr:hovedgruppe" v="infrastruktur" />
		<tag k="ssr:stedsnr" v="1010938" />
		<tag k="ssr:type" v="adressenavn" />
	</node>
	<node lat="69.04304654018165" lon="19.44272936246303" id="-106752">
		<tag k="name" v="Tamokveien" />
		<tag k="ssr:date" v="2019-12-27" />
		<tag k="ssr:gruppe" v="veg" />
		<tag k="ssr:hovedgruppe" v="infrastruktur" />
		<tag k="ssr:stedsnr" v="1010940" />
		<tag k="ssr:type" v="adressenavn" />
	</node>
	<node lat="69.09401132858999" lon="19.167578544550096" id="-106753">
		<tag k="name" v="Strømstadkjosen" />
		<tag k="ssr:date" v="2019-12-27" />
		<tag k="ssr:gruppe" v="veg" />
		<tag k="ssr:hovedgruppe" v="infrastruktur" />
		<tag k="ssr:stedsnr" v="1010942" />
		<tag k="ssr:type" v="adressenavn" />
	</node>
	<node lat="69.400098534569" lon="18.596000751736565" id="-106754">
		<tag k="name" v="Sandselvveien" />
		<tag k="ssr:date" v="2019-12-27" />
		<tag k="ssr:gruppe" v="veg" />
		<tag k="ssr:hovedgruppe" v="infrastruktur" />
		<tag k="ssr:stedsnr" v="1010945" />
		<tag k="ssr:type" v="adressenavn" />
	</node>
	<node lat="69.25235623094999" lon="19.021362107792594" id="-106755">
		<tag k="name" v="Furudalsveien" />
		<tag k="ssr:date" v="2019-12-27" />
		<tag k="ssr:gruppe" v="veg" />
		<tag k="ssr:hovedgruppe" v="infrastruktur" />
		<tag k="ssr:stedsnr" v="1010947" />
		<tag k="ssr:type" v="adressenavn" />
	</node>
	<node lat="69.41030773979269" lon="18.66261842278628" id="-106756">
		<tag k="name" v="Fjellbruveien" />
		<tag k="ssr:date" v="2019-12-27" />
		<tag k="ssr:gruppe" v="veg" />
		<tag k="ssr:hovedgruppe" v="infrastruktur" />
		<tag k="ssr:stedsnr" v="1010949" />
		<tag k="ssr:type" v="adressenavn" />
	</node>
	<node lat="69.39199936414671" lon="18.640299757652972" id="-106757">
		<tag k="name" v="Nerbygdveien" />
		<tag k="ssr:date" v="2019-12-27" />
		<tag k="ssr:gruppe" v="veg" />
		<tag k="ssr:hovedgruppe" v="infrastruktur" />
		<tag k="ssr:stedsnr" v="1010951" />
		<tag k="ssr:type" v="adressenavn" />
	</node>
	<node lat="69.18657434446055" lon="19.227047178023966" id="-106758">
		<tag k="name" v="Seljevollveien" />
		<tag k="ssr:date" v="2019-12-27" />
		<tag k="ssr:gruppe" v="veg" />
		<tag k="ssr:hovedgruppe" v="infrastruktur" />
		<tag k="ssr:stedsnr" v="1010953" />
		<tag k="ssr:type" v="adressenavn" />
	</node>
	<node lat="69.35834669096421" lon="18.691376245204626" id="-106759">
		<tag k="name" v="Skutvikveien" />
		<tag k="ssr:date" v="2019-12-27" />
		<tag k="ssr:gruppe" v="veg" />
		<tag k="ssr:hovedgruppe" v="infrastruktur" />
		<tag k="ssr:stedsnr" v="1010955" />
		<tag k="ssr:type" v="adressenavn" />
	</node>
	<node lat="69.40737005066967" lon="18.690516316886317" id="-106760">
		<tag k="name" v="Nordheimveien" />
		<tag k="ssr:date" v="2019-12-27" />
		<tag k="ssr:gruppe" v="veg" />
		<tag k="ssr:hovedgruppe" v="infrastruktur" />
		<tag k="ssr:stedsnr" v="1010957" />
		<tag k="ssr:type" v="adressenavn" />
	</node>
	<node lat="69.27713567039709" lon="18.718671465645514" id="-106761">
		<tag k="name" v="Nerseterveien" />
		<tag k="ssr:date" v="2019-12-27" />
		<tag k="ssr:gruppe" v="veg" />
		<tag k="ssr:hovedgruppe" v="infrastruktur" />
		<tag k="ssr:stedsnr" v="1010959" />
		<tag k="ssr:type" v="adressenavn" />
	</node>
	<node lat="69.3213605410098" lon="18.755800534433572" id="-106762">
		<tag k="name" v="Kjerkevikveien" />
		<tag k="ssr:date" v="2019-12-27" />
		<tag k="ssr:gruppe" v="veg" />
		<tag k="ssr:hovedgruppe" v="infrastruktur" />
		<tag k="ssr:stedsnr" v="1010961" />
		<tag k="ssr:type" v="adressenavn" />
	</node>
	<node lat="69.1848407130622" lon="19.057542006707553" id="-106763">
		<tag k="name" v="Nerliveien" />
		<tag k="ssr:date" v="2019-12-27" />
		<tag k="ssr:gruppe" v="veg" />
		<tag k="ssr:hovedgruppe" v="infrastruktur" />
		<tag k="ssr:stedsnr" v="1010963" />
		<tag k="ssr:type" v="adressenavn" />
	</node>
	<node lat="69.24368450257442" lon="19.220653706745228" id="-106764">
		<tag k="name" v="Arnulv Eide-veien" />
		<tag k="ssr:date" v="2019-12-27" />
		<tag k="ssr:gruppe" v="veg" />
		<tag k="ssr:hovedgruppe" v="infrastruktur" />
		<tag k="ssr:stedsnr" v="1010965" />
		<tag k="ssr:type" v="adressenavn" />
	</node>
	<node lat="69.17803902344465" lon="19.060745272646844" id="-106765">
		<tag k="name" v="Øverlibakken" />
		<tag k="ssr:date" v="2019-12-27" />
		<tag k="ssr:gruppe" v="veg" />
		<tag k="ssr:hovedgruppe" v="infrastruktur" />
		<tag k="ssr:stedsnr" v="1010967" />
		<tag k="ssr:type" v="adressenavn" />
	</node>
	<node lat="69.22197730083509" lon="19.237452957839263" id="-106766">
		<tag k="name" v="Bjørkengbakken" />
		<tag k="ssr:date" v="2019-12-27" />
		<tag k="ssr:gruppe" v="veg" />
		<tag k="ssr:hovedgruppe" v="infrastruktur" />
		<tag k="ssr:stedsnr" v="1010969" />
		<tag k="ssr:type" v="adressenavn" />
	</node>
	<node lat="69.32213419472774" lon="18.762940786801778" id="-106767">
		<tag k="name" v="Korsvikveien" />
		<tag k="ssr:date" v="2019-12-27" />
		<tag k="ssr:gruppe" v="veg" />
		<tag k="ssr:hovedgruppe" v="infrastruktur" />
		<tag k="ssr:stedsnr" v="1010971" />
		<tag k="ssr:type" v="adressenavn" />
	</node>
	<node lat="69.17431170118658" lon="19.258507394540867" id="-106768">
		<tag k="name" v="Snebakkveien" />
		<tag k="ssr:date" v="2019-12-27" />
		<tag k="ssr:gruppe" v="veg" />
		<tag k="ssr:hovedgruppe" v="infrastruktur" />
		<tag k="ssr:stedsnr" v="1010973" />
		<tag k="ssr:type" v="adressenavn" />
	</node>
	<node lat="69.33216658835484" lon="18.89055756269615" id="-106769">
		<tag k="name" v="Lillehaugveien" />
		<tag k="ssr:date" v="2019-12-27" />
		<tag k="ssr:gruppe" v="veg" />
		<tag k="ssr:hovedgruppe" v="infrastruktur" />
		<tag k="ssr:stedsnr" v="1010975" />
		<tag k="ssr:type" v="adressenavn" />
	</node>
	<node lat="69.21543864653727" lon="19.56390282699666" id="-106770">
		<tag k="name" v="Madsjorda" />
		<tag k="ssr:date" v="2019-12-27" />
		<tag k="ssr:gruppe" v="veg" />
		<tag k="ssr:hovedgruppe" v="infrastruktur" />
		<tag k="ssr:stedsnr" v="1010977" />
		<tag k="ssr:type" v="adressenavn" />
	</node>
	<node lat="69.23961374685067" lon="19.233748128950296" id="-106771">
		<tag k="name" v="Brattmelveien" />
		<tag k="ssr:date" v="2019-12-27" />
		<tag k="ssr:gruppe" v="veg" />
		<tag k="ssr:hovedgruppe" v="infrastruktur" />
		<tag k="ssr:stedsnr" v="1010978" />
		<tag k="ssr:type" v="adressenavn" />
	</node>
	<node lat="69.24270963241175" lon="19.231464185667054" id="-106772">
		<tag k="name" v="Issa Hansens vei" />
		<tag k="old_name" v="Ner-Bukta" />
		<tag k="ssr:date" v="2021-09-21" />
		<tag k="ssr:gruppe" v="veg" />
		<tag k="ssr:hovedgruppe" v="infrastruktur" />
		<tag k="ssr:stedsnr" v="1010979" />
		<tag k="ssr:type" v="adressenavn" />
	</node>
	<node lat="69.34174651079043" lon="18.894710747752974" id="-106773">
		<tag k="name" v="Morudveien" />
		<tag k="ssr:date" v="2019-12-27" />
		<tag k="ssr:gruppe" v="veg" />
		<tag k="ssr:hovedgruppe" v="infrastruktur" />
		<tag k="ssr:stedsnr" v="1010981" />
		<tag k="ssr:type" v="adressenavn" />
	</node>
	<node lat="69.31983082215636" lon="18.81976392920249" id="-106774">
		<tag k="name" v="Plogsetra" />
		<tag k="ssr:date" v="2019-12-27" />
		<tag k="ssr:gruppe" v="veg" />
		<tag k="ssr:hovedgruppe" v="infrastruktur" />
		<tag k="ssr:stedsnr" v="1010983" />
		<tag k="ssr:type" v="adressenavn" />
	</node>
	<node lat="69.23945289099642" lon="19.222377813214706" id="-106775">
		<tag k="name" v="Midtgårdsveien" />
		<tag k="ssr:date" v="2019-12-27" />
		<tag k="ssr:gruppe" v="veg" />
		<tag k="ssr:hovedgruppe" v="infrastruktur" />
		<tag k="ssr:stedsnr" v="1010985" />
		<tag k="ssr:type" v="adressenavn" />
	</node>
	<node lat="69.24546488032206" lon="19.22449517323965" id="-106776">
		<tag k="name" v="Buktaveien" />
		<tag k="ssr:date" v="2019-12-27" />
		<tag k="ssr:gruppe" v="veg" />
		<tag k="ssr:hovedgruppe" v="infrastruktur" />
		<tag k="ssr:stedsnr" v="1010781" />
		<tag k="ssr:type" v="adressenavn" />
	</node>
	<node lat="69.21813032652175" lon="19.568164340767904" id="-106777">
		<tag k="name" v="Kvienskogen" />
		<tag k="ssr:date" v="2019-12-27" />
		<tag k="ssr:gruppe" v="veg" />
		<tag k="ssr:hovedgruppe" v="infrastruktur" />
		<tag k="ssr:stedsnr" v="1010787" />
		<tag k="ssr:type" v="adressenavn" />
	</node>
	<node lat="69.08601339868227" lon="19.605336553629" id="-106778">
		<tag k="name" v="Seterveien" />
		<tag k="ssr:date" v="2019-12-27" />
		<tag k="ssr:gruppe" v="veg" />
		<tag k="ssr:hovedgruppe" v="infrastruktur" />
		<tag k="ssr:stedsnr" v="1010789" />
		<tag k="ssr:type" v="adressenavn" />
	</node>
	<node lat="69.08942053371884" lon="19.300354972079727" id="-106779">
		<tag k="name" v="Odinveien" />
		<tag k="ssr:date" v="2019-12-27" />
		<tag k="ssr:gruppe" v="veg" />
		<tag k="ssr:hovedgruppe" v="infrastruktur" />
		<tag k="ssr:stedsnr" v="1010794" />
		<tag k="ssr:type" v="adressenavn" />
	</node>
	<node lat="69.2790548877538" lon="18.716717830319823" id="-106780">
		<tag k="name" v="Ingebrigt Eliassens vei" />
		<tag k="ssr:date" v="2019-12-27" />
		<tag k="ssr:gruppe" v="veg" />
		<tag k="ssr:hovedgruppe" v="infrastruktur" />
		<tag k="ssr:stedsnr" v="1010897" />
		<tag k="ssr:type" v="adressenavn" />
	</node>
	<node lat="69.16829396051044" lon="18.987722698449804" id="-106781">
		<tag k="name" v="Øverliveien" />
		<tag k="ssr:date" v="2019-12-27" />
		<tag k="ssr:gruppe" v="veg" />
		<tag k="ssr:hovedgruppe" v="infrastruktur" />
		<tag k="ssr:stedsnr" v="1010899" />
		<tag k="ssr:type" v="adressenavn" />
	</node>
	<node lat="69.3586168236113" lon="18.890101187383543" id="-106782">
		<tag k="name" v="Fjellbygdveien" />
		<tag k="ssr:date" v="2019-12-27" />
		<tag k="ssr:gruppe" v="veg" />
		<tag k="ssr:hovedgruppe" v="infrastruktur" />
		<tag k="ssr:stedsnr" v="1010901" />
		<tag k="ssr:type" v="adressenavn" />
	</node>
	<node lat="69.090155482683" lon="19.2129815056485" id="-106783">
		<tag k="name" v="Rundvassveien" />
		<tag k="ssr:date" v="2019-12-27" />
		<tag k="ssr:gruppe" v="veg" />
		<tag k="ssr:hovedgruppe" v="infrastruktur" />
		<tag k="ssr:stedsnr" v="1010903" />
		<tag k="ssr:type" v="adressenavn" />
	</node>
	<node lat="69.06319087081683" lon="19.294605443162673" id="-106784">
		<tag k="name" v="Åsheimveien" />
		<tag k="ssr:date" v="2019-12-27" />
		<tag k="ssr:gruppe" v="veg" />
		<tag k="ssr:hovedgruppe" v="infrastruktur" />
		<tag k="ssr:stedsnr" v="1010905" />
		<tag k="ssr:type" v="adressenavn" />
	</node>
	<node lat="69.21231572700756" lon="19.12112830318236" id="-106785">
		<tag k="name" v="Storbuktveien" />
		<tag k="ssr:date" v="2019-12-27" />
		<tag k="ssr:gruppe" v="veg" />
		<tag k="ssr:hovedgruppe" v="infrastruktur" />
		<tag k="ssr:stedsnr" v="1010907" />
		<tag k="ssr:type" v="adressenavn" />
	</node>
	<node lat="69.20671548137449" lon="19.27675423093354" id="-106786">
		<tag k="name" v="Brennmoveien" />
		<tag k="ssr:date" v="2019-12-27" />
		<tag k="ssr:gruppe" v="veg" />
		<tag k="ssr:hovedgruppe" v="infrastruktur" />
		<tag k="ssr:stedsnr" v="1010909" />
		<tag k="ssr:type" v="adressenavn" />
	</node>
	<node lat="69.06654756512262" lon="19.310094117359178" id="-106787">
		<tag k="name" v="Myrvangveien" />
		<tag k="ssr:date" v="2019-12-27" />
		<tag k="ssr:gruppe" v="veg" />
		<tag k="ssr:hovedgruppe" v="infrastruktur" />
		<tag k="ssr:stedsnr" v="1010911" />
		<tag k="ssr:type" v="adressenavn" />
	</node>
	<node lat="69.25095310613027" lon="19.22085289142179" id="-106788">
		<tag k="name" v="Sørengveien" />
		<tag k="ssr:date" v="2019-12-27" />
		<tag k="ssr:gruppe" v="veg" />
		<tag k="ssr:hovedgruppe" v="infrastruktur" />
		<tag k="ssr:stedsnr" v="1010913" />
		<tag k="ssr:type" v="adressenavn" />
	</node>
	<node lat="69.25018410159637" lon="19.22151951915979" id="-106789">
		<tag k="name" v="Frydenlundveien" />
		<tag k="ssr:date" v="2019-12-27" />
		<tag k="ssr:gruppe" v="veg" />
		<tag k="ssr:hovedgruppe" v="infrastruktur" />
		<tag k="ssr:stedsnr" v="1010914" />
		<tag k="ssr:type" v="adressenavn" />
	</node>
	<node lat="69.31122641093269" lon="19.34581482655285" id="-106790">
		<tag k="name" v="Hauglandveien" />
		<tag k="ssr:date" v="2019-12-27" />
		<tag k="ssr:gruppe" v="veg" />
		<tag k="ssr:hovedgruppe" v="infrastruktur" />
		<tag k="ssr:stedsnr" v="1010916" />
		<tag k="ssr:type" v="adressenavn" />
	</node>
	<node lat="69.25332507335676" lon="19.216989248463943" id="-106791">
		<tag k="name" v="Nordengveien" />
		<tag k="ssr:date" v="2019-12-27" />
		<tag k="ssr:gruppe" v="veg" />
		<tag k="ssr:hovedgruppe" v="infrastruktur" />
		<tag k="ssr:stedsnr" v="1010918" />
		<tag k="ssr:type" v="adressenavn" />
	</node>
	<node lat="69.27635408086655" lon="19.277359732884573" id="-106792">
		<tag k="name" v="Grønåsveien" />
		<tag k="ssr:date" v="2019-12-27" />
		<tag k="ssr:gruppe" v="veg" />
		<tag k="ssr:hovedgruppe" v="infrastruktur" />
		<tag k="ssr:stedsnr" v="1010920" />
		<tag k="ssr:type" v="adressenavn" />
	</node>
	<node lat="69.2388838950278" lon="19.226132675682983" id="-106793">
		<tag k="name" v="Petersborgveien" />
		<tag k="ssr:date" v="2019-12-27" />
		<tag k="ssr:gruppe" v="veg" />
		<tag k="ssr:hovedgruppe" v="infrastruktur" />
		<tag k="ssr:stedsnr" v="1010922" />
		<tag k="ssr:type" v="adressenavn" />
	</node>
	<node lat="69.2422377821829" lon="19.22512739320031" id="-106794">
		<tag k="name" v="Øver-Grindbakken" />
		<tag k="ssr:date" v="2019-12-27" />
		<tag k="ssr:gruppe" v="veg" />
		<tag k="ssr:hovedgruppe" v="infrastruktur" />
		<tag k="ssr:stedsnr" v="1010924" />
		<tag k="ssr:type" v="adressenavn" />
	</node>
	<node lat="69.21231146045848" lon="19.27143451955084" id="-106795">
		<tag k="name" v="Hølveien" />
		<tag k="ssr:date" v="2019-12-27" />
		<tag k="ssr:gruppe" v="veg" />
		<tag k="ssr:hovedgruppe" v="infrastruktur" />
		<tag k="ssr:stedsnr" v="1010926" />
		<tag k="ssr:type" v="adressenavn" />
	</node>
	<node lat="69.21353320251018" lon="19.27040204086716" id="-106796">
		<tag k="name" v="Storbakken" />
		<tag k="ssr:date" v="2019-12-27" />
		<tag k="ssr:gruppe" v="veg" />
		<tag k="ssr:hovedgruppe" v="infrastruktur" />
		<tag k="ssr:stedsnr" v="1010928" />
		<tag k="ssr:type" v="adressenavn" />
	</node>
	<node lat="69.0693079412965" lon="19.269310442597877" id="-106797">
		<tag k="name" v="Takvassveien" />
		<tag k="ssr:date" v="2019-12-27" />
		<tag k="ssr:gruppe" v="veg" />
		<tag k="ssr:hovedgruppe" v="infrastruktur" />
		<tag k="ssr:stedsnr" v="1010930" />
		<tag k="ssr:type" v="adressenavn" />
	</node>
	<node lat="69.26291350428542" lon="18.71573539796831" id="-106798">
		<tag k="name" v="Aursfjordveien" />
		<tag k="ssr:date" v="2019-12-27" />
		<tag k="ssr:gruppe" v="veg" />
		<tag k="ssr:hovedgruppe" v="infrastruktur" />
		<tag k="ssr:stedsnr" v="1010932" />
		<tag k="ssr:type" v="adressenavn" />
	</node>
	<node lat="69.2395246720838" lon="19.232094387382556" id="-106799">
		<tag k="name" v="Heimbakken" />
		<tag k="ssr:date" v="2019-12-27" />
		<tag k="ssr:gruppe" v="veg" />
		<tag k="ssr:hovedgruppe" v="infrastruktur" />
		<tag k="ssr:stedsnr" v="1010934" />
		<tag k="ssr:type" v="adressenavn" />
	</node>
	<node lat="69.33210253031713" lon="18.89106099881563" id="-106800">
		<tag k="name" v="Oldervikneset" />
		<tag k="ssr:date" v="2019-12-27" />
		<tag k="ssr:gruppe" v="veg" />
		<tag k="ssr:hovedgruppe" v="infrastruktur" />
		<tag k="ssr:stedsnr" v="1010987" />
		<tag k="ssr:type" v="adressenavn" />
	</node>
	<node lat="69.31311693205113" lon="18.669397132344443" id="-106801">
		<tag k="name" v="Aursvikveien" />
		<tag k="ssr:date" v="2019-12-27" />
		<tag k="ssr:gruppe" v="veg" />
		<tag k="ssr:hovedgruppe" v="infrastruktur" />
		<tag k="ssr:stedsnr" v="1010989" />
		<tag k="ssr:type" v="adressenavn" />
	</node>
	<node lat="69.31369831829022" lon="18.6747413411244" id="-106802">
		<tag k="name" v="Myrhaugveien" />
		<tag k="ssr:date" v="2019-12-27" />
		<tag k="ssr:gruppe" v="veg" />
		<tag k="ssr:hovedgruppe" v="infrastruktur" />
		<tag k="ssr:stedsnr" v="1010991" />
		<tag k="ssr:type" v="adressenavn" />
	</node>
	<node lat="69.38631699135564" lon="18.60500987260784" id="-106803">
		<tag k="name" v="Sandsryggen" />
		<tag k="ssr:date" v="2019-12-27" />
		<tag k="ssr:gruppe" v="veg" />
		<tag k="ssr:hovedgruppe" v="infrastruktur" />
		<tag k="ssr:stedsnr" v="1010994" />
		<tag k="ssr:type" v="adressenavn" />
	</node>
	<node lat="69.25061370526932" lon="18.86623843483606" id="-106804">
		<tag k="name" v="Vesterliveien" />
		<tag k="ssr:date" v="2019-12-27" />
		<tag k="ssr:gruppe" v="veg" />
		<tag k="ssr:hovedgruppe" v="infrastruktur" />
		<tag k="ssr:stedsnr" v="1010996" />
		<tag k="ssr:type" v="adressenavn" />
	</node>
	<node lat="69.31788797241012" lon="18.67909850549431" id="-106805">
		<tag k="name" v="Aursnesveien" />
		<tag k="ssr:date" v="2019-12-27" />
		<tag k="ssr:gruppe" v="veg" />
		<tag k="ssr:hovedgruppe" v="infrastruktur" />
		<tag k="ssr:stedsnr" v="1010998" />
		<tag k="ssr:type" v="adressenavn" />
	</node>
	<node lat="69.31919572593095" lon="18.701288294831386" id="-106806">
		<tag k="name" v="Tømmervikbakken" />
		<tag k="ssr:date" v="2019-12-27" />
		<tag k="ssr:gruppe" v="veg" />
		<tag k="ssr:hovedgruppe" v="infrastruktur" />
		<tag k="ssr:stedsnr" v="1011000" />
		<tag k="ssr:type" v="adressenavn" />
	</node>
	<node lat="69.31668996446966" lon="18.674069357442914" id="-106807">
		<tag k="name" v="Vikajorda" />
		<tag k="ssr:date" v="2019-12-27" />
		<tag k="ssr:gruppe" v="veg" />
		<tag k="ssr:hovedgruppe" v="infrastruktur" />
		<tag k="ssr:stedsnr" v="1011002" />
		<tag k="ssr:type" v="adressenavn" />
	</node>
	<node lat="69.31713573879289" lon="18.67592930838386" id="-106808">
		<tag k="name" v="Småslettveien" />
		<tag k="ssr:date" v="2019-12-27" />
		<tag k="ssr:gruppe" v="veg" />
		<tag k="ssr:hovedgruppe" v="infrastruktur" />
		<tag k="ssr:stedsnr" v="1011004" />
		<tag k="ssr:type" v="adressenavn" />
	</node>
	<node lat="69.24369855424398" lon="19.445045123841386" id="-106809">
		<tag k="name" v="Musnesveien" />
		<tag k="ssr:date" v="2019-12-27" />
		<tag k="ssr:gruppe" v="veg" />
		<tag k="ssr:hovedgruppe" v="infrastruktur" />
		<tag k="ssr:stedsnr" v="1011006" />
		<tag k="ssr:type" v="adressenavn" />
	</node>
	<node lat="69.21909829725404" lon="19.55464384542126" id="-106810">
		<tag k="name" v="Jernbergveien" />
		<tag k="ssr:date" v="2019-12-27" />
		<tag k="ssr:gruppe" v="veg" />
		<tag k="ssr:hovedgruppe" v="infrastruktur" />
		<tag k="ssr:stedsnr" v="1011008" />
		<tag k="ssr:type" v="adressenavn" />
	</node>
	<node lat="69.3201108625133" lon="18.7129865236725" id="-106811">
		<tag k="name" v="Slettengveien" />
		<tag k="ssr:date" v="2019-12-27" />
		<tag k="ssr:gruppe" v="veg" />
		<tag k="ssr:hovedgruppe" v="infrastruktur" />
		<tag k="ssr:stedsnr" v="1011011" />
		<tag k="ssr:type" v="adressenavn" />
	</node>
	<node lat="69.24333254876186" lon="19.446655247780008" id="-106812">
		<tag k="name" v="Musnesbakken" />
		<tag k="ssr:date" v="2019-12-27" />
		<tag k="ssr:gruppe" v="veg" />
		<tag k="ssr:hovedgruppe" v="infrastruktur" />
		<tag k="ssr:stedsnr" v="1011013" />
		<tag k="ssr:type" v="adressenavn" />
	</node>
	<node lat="69.33617080389395" lon="18.845287503484155" id="-106813">
		<tag k="name" v="Nordbyelvveien" />
		<tag k="ssr:date" v="2019-12-27" />
		<tag k="ssr:gruppe" v="veg" />
		<tag k="ssr:hovedgruppe" v="infrastruktur" />
		<tag k="ssr:stedsnr" v="1011015" />
		<tag k="ssr:type" v="adressenavn" />
	</node>
	<node lat="69.26434228329525" lon="18.749218512855578" id="-106814">
		<tag k="name" v="Moltbergveien" />
		<tag k="ssr:date" v="2019-12-27" />
		<tag k="ssr:gruppe" v="veg" />
		<tag k="ssr:hovedgruppe" v="infrastruktur" />
		<tag k="ssr:stedsnr" v="1011017" />
		<tag k="ssr:type" v="adressenavn" />
	</node>
	<node lat="69.4400513395852" lon="18.470536867098843" id="-106815">
		<tag k="name" v="Spildernesveien" />
		<tag k="ssr:date" v="2019-12-27" />
		<tag k="ssr:gruppe" v="veg" />
		<tag k="ssr:hovedgruppe" v="infrastruktur" />
		<tag k="ssr:stedsnr" v="1011019" />
		<tag k="ssr:type" v="adressenavn" />
	</node>
	<node lat="69.33331076447166" lon="18.819782992320945" id="-106816">
		<tag k="name" v="Nordbynesveien" />
		<tag k="ssr:date" v="2019-12-27" />
		<tag k="ssr:gruppe" v="veg" />
		<tag k="ssr:hovedgruppe" v="infrastruktur" />
		<tag k="ssr:stedsnr" v="1011021" />
		<tag k="ssr:type" v="adressenavn" />
	</node>
	<node lat="69.19357378799593" lon="19.72575689692811" id="-106817">
		<tag k="name" v="Elvekroknes" />
		<tag k="ssr:date" v="2019-12-27" />
		<tag k="ssr:gruppe" v="veg" />
		<tag k="ssr:hovedgruppe" v="infrastruktur" />
		<tag k="ssr:stedsnr" v="1011086" />
		<tag k="ssr:type" v="adressenavn" />
	</node>
	<node lat="69.18863061164377" lon="19.223848570137903" id="-106818">
		<tag k="name" v="Åsveien" />
		<tag k="ssr:date" v="2019-12-27" />
		<tag k="ssr:gruppe" v="veg" />
		<tag k="ssr:hovedgruppe" v="infrastruktur" />
		<tag k="ssr:stedsnr" v="1011087" />
		<tag k="ssr:type" v="adressenavn" />
	</node>
	<node lat="69.23398666610174" lon="19.342985920618748" id="-106819">
		<tag k="name" v="Sandbuktveien" />
		<tag k="ssr:date" v="2019-12-27" />
		<tag k="ssr:gruppe" v="veg" />
		<tag k="ssr:hovedgruppe" v="infrastruktur" />
		<tag k="ssr:stedsnr" v="1011088" />
		<tag k="ssr:type" v="adressenavn" />
	</node>
	<node lat="69.31133410564341" lon="19.345885280727188" id="-106820">
		<tag k="name" v="Tenneskaia" />
		<tag k="ssr:date" v="2019-12-27" />
		<tag k="ssr:gruppe" v="veg" />
		<tag k="ssr:hovedgruppe" v="infrastruktur" />
		<tag k="ssr:stedsnr" v="1011089" />
		<tag k="ssr:type" v="adressenavn" />
	</node>
	<node lat="69.27635408086655" lon="19.277359732884573" id="-106821">
		<tag k="name" v="Tennesveien" />
		<tag k="ssr:date" v="2019-12-27" />
		<tag k="ssr:gruppe" v="veg" />
		<tag k="ssr:hovedgruppe" v="infrastruktur" />
		<tag k="ssr:stedsnr" v="1011091" />
		<tag k="ssr:type" v="adressenavn" />
	</node>
	<node lat="69.08953500201223" lon="19.21802638099796" id="-106822">
		<tag k="name" v="Vassmoveien" />
		<tag k="ssr:date" v="2019-12-27" />
		<tag k="ssr:gruppe" v="veg" />
		<tag k="ssr:hovedgruppe" v="infrastruktur" />
		<tag k="ssr:stedsnr" v="1011093" />
		<tag k="ssr:type" v="adressenavn" />
	</node>
	<node lat="69.19597813898208" lon="19.246448074185064" id="-106823">
		<tag k="name" v="Stormoen" />
		<tag k="ssr:date" v="2019-12-27" />
		<tag k="ssr:gruppe" v="veg" />
		<tag k="ssr:hovedgruppe" v="infrastruktur" />
		<tag k="ssr:stedsnr" v="1011095" />
		<tag k="ssr:type" v="adressenavn" />
	</node>
	<node lat="69.17279571828198" lon="19.1802842373031" id="-106824">
		<tag k="name" v="Strupveien" />
		<tag k="ssr:date" v="2019-12-27" />
		<tag k="ssr:gruppe" v="veg" />
		<tag k="ssr:hovedgruppe" v="infrastruktur" />
		<tag k="ssr:stedsnr" v="1011096" />
		<tag k="ssr:type" v="adressenavn" />
	</node>
	<node lat="69.153663001547" lon="19.173660404068006" id="-106825">
		<tag k="name" v="Juksavassveien" />
		<tag k="ssr:date" v="2019-12-27" />
		<tag k="ssr:gruppe" v="veg" />
		<tag k="ssr:hovedgruppe" v="infrastruktur" />
		<tag k="ssr:stedsnr" v="1011098" />
		<tag k="ssr:type" v="adressenavn" />
	</node>
	<node lat="69.04773364920703" lon="19.44463017779122" id="-106826">
		<tag k="name" v="Eijabakken" />
		<tag k="ssr:date" v="2019-12-27" />
		<tag k="ssr:gruppe" v="veg" />
		<tag k="ssr:hovedgruppe" v="infrastruktur" />
		<tag k="ssr:stedsnr" v="1011047" />
		<tag k="ssr:type" v="adressenavn" />
	</node>
	<node lat="69.05820589285044" lon="19.500087758659646" id="-106827">
		<tag k="name" v="Elverumsveien" />
		<tag k="ssr:date" v="2019-12-27" />
		<tag k="ssr:gruppe" v="veg" />
		<tag k="ssr:hovedgruppe" v="infrastruktur" />
		<tag k="ssr:stedsnr" v="1011048" />
		<tag k="ssr:type" v="adressenavn" />
	</node>
	<node lat="69.237135074932" lon="19.22011286210626" id="-106828">
		<tag k="name" v="Kjørveidalen" />
		<tag k="ssr:date" v="2019-12-27" />
		<tag k="ssr:gruppe" v="veg" />
		<tag k="ssr:hovedgruppe" v="infrastruktur" />
		<tag k="ssr:stedsnr" v="1011050" />
		<tag k="ssr:type" v="adressenavn" />
	</node>
	<node lat="69.08510305746006" lon="19.188952468494556" id="-106829">
		<tag k="name" v="Maukengveien" />
		<tag k="ssr:date" v="2019-12-27" />
		<tag k="ssr:gruppe" v="veg" />
		<tag k="ssr:hovedgruppe" v="infrastruktur" />
		<tag k="ssr:stedsnr" v="1011052" />
		<tag k="ssr:type" v="adressenavn" />
	</node>
	<node lat="69.3126045253604" lon="19.53888965717015" id="-106830">
		<tag k="name" v="Mobakken" />
		<tag k="ssr:date" v="2019-12-27" />
		<tag k="ssr:gruppe" v="veg" />
		<tag k="ssr:hovedgruppe" v="infrastruktur" />
		<tag k="ssr:stedsnr" v="1011054" />
		<tag k="ssr:type" v="adressenavn" />
	</node>
	<node lat="69.21815790737854" lon="19.541052609228142" id="-106831">
		<tag k="name" v="Sjøvollan" />
		<tag k="ssr:date" v="2019-12-27" />
		<tag k="ssr:gruppe" v="veg" />
		<tag k="ssr:hovedgruppe" v="infrastruktur" />
		<tag k="ssr:stedsnr" v="1011055" />
		<tag k="ssr:type" v="adressenavn" />
	</node>
	<node lat="69.08664993031333" lon="19.604632445032056" id="-106832">
		<tag k="name" v="Skiferveien" />
		<tag k="ssr:date" v="2019-12-27" />
		<tag k="ssr:gruppe" v="veg" />
		<tag k="ssr:hovedgruppe" v="infrastruktur" />
		<tag k="ssr:stedsnr" v="1011056" />
		<tag k="ssr:type" v="adressenavn" />
	</node>
	<node lat="69.32922782074226" lon="18.918395763152326" id="-106833">
		<tag k="name" v="Hemmingveien" />
		<tag k="ssr:date" v="2019-12-27" />
		<tag k="ssr:gruppe" v="veg" />
		<tag k="ssr:hovedgruppe" v="infrastruktur" />
		<tag k="ssr:stedsnr" v="1011058" />
		<tag k="ssr:type" v="adressenavn" />
	</node>
	<node lat="69.195896651107" lon="19.737398552350186" id="-106834">
		<tag k="name" v="Øvergårdveien" />
		<tag k="ssr:date" v="2019-12-27" />
		<tag k="ssr:gruppe" v="veg" />
		<tag k="ssr:hovedgruppe" v="infrastruktur" />
		<tag k="ssr:stedsnr" v="1011059" />
		<tag k="ssr:type" v="adressenavn" />
	</node>
	<node lat="69.2224500873989" lon="19.51627121786332" id="-106835">
		<tag k="name" v="Seljelvnesveien" />
		<tag k="ssr:date" v="2019-12-27" />
		<tag k="ssr:gruppe" v="veg" />
		<tag k="ssr:hovedgruppe" v="infrastruktur" />
		<tag k="ssr:stedsnr" v="1011061" />
		<tag k="ssr:type" v="adressenavn" />
	</node>
	<node lat="69.21924828672871" lon="19.602035446727395" id="-106836">
		<tag k="name" v="Steinvollan" />
		<tag k="ssr:date" v="2019-12-27" />
		<tag k="ssr:gruppe" v="veg" />
		<tag k="ssr:hovedgruppe" v="infrastruktur" />
		<tag k="ssr:stedsnr" v="1011062" />
		<tag k="ssr:type" v="adressenavn" />
	</node>
	<node lat="69.162396087593" lon="19.05433002781699" id="-106837">
		<tag k="name" v="Sagelvvassveien" />
		<tag k="ssr:date" v="2019-12-27" />
		<tag k="ssr:gruppe" v="veg" />
		<tag k="ssr:hovedgruppe" v="infrastruktur" />
		<tag k="ssr:stedsnr" v="1011063" />
		<tag k="ssr:type" v="adressenavn" />
	</node>
	<node lat="69.24677571138929" lon="19.221753880855832" id="-106838">
		<tag k="name" v="Asphaugveien" />
		<tag k="ssr:date" v="2019-12-27" />
		<tag k="ssr:gruppe" v="veg" />
		<tag k="ssr:hovedgruppe" v="infrastruktur" />
		<tag k="ssr:stedsnr" v="1011065" />
		<tag k="ssr:type" v="adressenavn" />
	</node>
	<node lat="69.25157842063956" lon="19.23775708184017" id="-106839">
		<tag k="name" v="Lundbergveien" />
		<tag k="ssr:date" v="2019-12-27" />
		<tag k="ssr:gruppe" v="veg" />
		<tag k="ssr:hovedgruppe" v="infrastruktur" />
		<tag k="ssr:stedsnr" v="1011068" />
		<tag k="ssr:type" v="adressenavn" />
	</node>
	<node lat="69.25006115572789" lon="19.23405068450406" id="-106840">
		<tag k="name" v="Sneveveien" />
		<tag k="ssr:date" v="2019-12-27" />
		<tag k="ssr:gruppe" v="veg" />
		<tag k="ssr:hovedgruppe" v="infrastruktur" />
		<tag k="ssr:stedsnr" v="1011070" />
		<tag k="ssr:type" v="adressenavn" />
	</node>
	<node lat="69.44050580936059" lon="18.930729806684948" id="-106841">
		<tag k="name" v="Boikamyra" />
		<tag k="ssr:date" v="2019-12-27" />
		<tag k="ssr:gruppe" v="veg" />
		<tag k="ssr:hovedgruppe" v="infrastruktur" />
		<tag k="ssr:stedsnr" v="1011072" />
		<tag k="ssr:type" v="adressenavn" />
	</node>
	<node lat="69.31116502049542" lon="18.84019224335087" id="-106842">
		<tag k="name" v="Lanesveien" />
		<tag k="ssr:date" v="2019-12-27" />
		<tag k="ssr:gruppe" v="veg" />
		<tag k="ssr:hovedgruppe" v="infrastruktur" />
		<tag k="ssr:stedsnr" v="1011074" />
		<tag k="ssr:type" v="adressenavn" />
	</node>
	<node lat="69.31851094796868" lon="18.825098789447555" id="-106843">
		<tag k="name" v="Inner-Hamnvåg" />
		<tag k="ssr:date" v="2019-12-27" />
		<tag k="ssr:gruppe" v="veg" />
		<tag k="ssr:hovedgruppe" v="infrastruktur" />
		<tag k="ssr:stedsnr" v="1011076" />
		<tag k="ssr:type" v="adressenavn" />
	</node>
	<node lat="69.3219328296272" lon="18.778031288189077" id="-106844">
		<tag k="name" v="Hamnvågneset" />
		<tag k="ssr:date" v="2019-12-27" />
		<tag k="ssr:gruppe" v="veg" />
		<tag k="ssr:hovedgruppe" v="infrastruktur" />
		<tag k="ssr:stedsnr" v="1011078" />
		<tag k="ssr:type" v="adressenavn" />
	</node>
	<node lat="69.21674478074067" lon="19.299701881031922" id="-106845">
		<tag k="name" v="Sørkjosveien" />
		<tag k="ssr:date" v="2019-12-27" />
		<tag k="ssr:gruppe" v="veg" />
		<tag k="ssr:hovedgruppe" v="infrastruktur" />
		<tag k="ssr:stedsnr" v="1011080" />
		<tag k="ssr:type" v="adressenavn" />
	</node>
	<node lat="69.30336481850962" lon="19.338292815796095" id="-106846">
		<tag k="name" v="Middagsbuktveien" />
		<tag k="ssr:date" v="2019-12-27" />
		<tag k="ssr:gruppe" v="veg" />
		<tag k="ssr:hovedgruppe" v="infrastruktur" />
		<tag k="ssr:stedsnr" v="1011082" />
		<tag k="ssr:type" v="adressenavn" />
	</node>
	<node lat="69.23608183456905" lon="19.364319202853324" id="-106847">
		<tag k="name" v="Kaiveien" />
		<tag k="ssr:date" v="2019-12-27" />
		<tag k="ssr:gruppe" v="veg" />
		<tag k="ssr:hovedgruppe" v="infrastruktur" />
		<tag k="ssr:stedsnr" v="1011084" />
		<tag k="ssr:type" v="adressenavn" />
	</node>
	<node lat="69.24792314552873" lon="19.22484093280126" id="-106848">
		<tag k="name" v="Kveldsolveien" />
		<tag k="ssr:date" v="2019-12-27" />
		<tag k="ssr:gruppe" v="veg" />
		<tag k="ssr:hovedgruppe" v="infrastruktur" />
		<tag k="ssr:stedsnr" v="1011211" />
		<tag k="ssr:type" v="adressenavn" />
	</node>
	<node lat="69.24678498541297" lon="19.221874280233568" id="-106849">
		<tag k="name" v="Kløverstien" />
		<tag k="ssr:date" v="2019-12-27" />
		<tag k="ssr:gruppe" v="veg" />
		<tag k="ssr:hovedgruppe" v="infrastruktur" />
		<tag k="ssr:stedsnr" v="1011216" />
		<tag k="ssr:type" v="adressenavn" />
	</node>
	<node lat="69.21967474377989" lon="19.315297969165567" id="-106850">
		<tag k="name" v="Markenesveien" />
		<tag k="ssr:date" v="2019-12-27" />
		<tag k="ssr:gruppe" v="veg" />
		<tag k="ssr:hovedgruppe" v="infrastruktur" />
		<tag k="ssr:stedsnr" v="1011270" />
		<tag k="ssr:type" v="adressenavn" />
	</node>
	<node lat="69.23824687733867" lon="19.224727707836635" id="-106851">
		<tag k="name" v="Kirkeveien" />
		<tag k="ssr:date" v="2019-12-27" />
		<tag k="ssr:gruppe" v="veg" />
		<tag k="ssr:hovedgruppe" v="infrastruktur" />
		<tag k="ssr:stedsnr" v="1011423" />
		<tag k="ssr:type" v="adressenavn" />
	</node>
	<node lat="69.39811583086667" lon="18.604229534782537" id="-106852">
		<tag k="name" v="Aspestien" />
		<tag k="ssr:date" v="2019-12-27" />
		<tag k="ssr:gruppe" v="veg" />
		<tag k="ssr:hovedgruppe" v="infrastruktur" />
		<tag k="ssr:stedsnr" v="1011595" />
		<tag k="ssr:type" v="adressenavn" />
	</node>
	<node lat="69.23736386978447" lon="19.223393248969558" id="-106853">
		<tag k="name" v="Brattbakken" />
		<tag k="ssr:date" v="2019-12-27" />
		<tag k="ssr:gruppe" v="veg" />
		<tag k="ssr:hovedgruppe" v="infrastruktur" />
		<tag k="ssr:stedsnr" v="1011494" />
		<tag k="ssr:type" v="adressenavn" />
	</node>
	<node lat="69.237135074932" lon="19.22011286210626" id="-106854">
		<tag k="name" v="Svingen" />
		<tag k="ssr:date" v="2019-12-27" />
		<tag k="ssr:gruppe" v="veg" />
		<tag k="ssr:hovedgruppe" v="infrastruktur" />
		<tag k="ssr:stedsnr" v="1011507" />
		<tag k="ssr:type" v="adressenavn" />
	</node>
	<node lat="69.2387208934006" lon="19.223836975625204" id="-106855">
		<tag k="name" v="Balstun" />
		<tag k="ssr:date" v="2019-12-27" />
		<tag k="ssr:gruppe" v="veg" />
		<tag k="ssr:hovedgruppe" v="infrastruktur" />
		<tag k="ssr:stedsnr" v="1011652" />
		<tag k="ssr:type" v="adressenavn" />
	</node>
	<node lat="69.40191332339373" lon="18.677674563418005" id="-106856">
		<tag k="name" v="Ny Jord-veien" />
		<tag k="ssr:date" v="2019-12-27" />
		<tag k="ssr:gruppe" v="veg" />
		<tag k="ssr:hovedgruppe" v="infrastruktur" />
		<tag k="ssr:stedsnr" v="1011582" />
		<tag k="ssr:type" v="adressenavn" />
	</node>
	<node lat="69.40088777268224" lon="18.598758434657388" id="-106857">
		<tag k="name" v="Langskogveien" />
		<tag k="ssr:date" v="2019-12-27" />
		<tag k="ssr:gruppe" v="veg" />
		<tag k="ssr:hovedgruppe" v="infrastruktur" />
		<tag k="ssr:stedsnr" v="1011605" />
		<tag k="ssr:type" v="adressenavn" />
	</node>
	<node lat="69.24774228779137" lon="19.2232764518988" id="-106858">
		<tag k="name" v="Stubben" />
		<tag k="ssr:date" v="2019-12-27" />
		<tag k="ssr:gruppe" v="veg" />
		<tag k="ssr:hovedgruppe" v="infrastruktur" />
		<tag k="ssr:stedsnr" v="1011694" />
		<tag k="ssr:type" v="adressenavn" />
	</node>
	<node lat="69.24676141301553" lon="19.222598707082813" id="-106859">
		<tag k="name" v="Seljeveien" />
		<tag k="ssr:date" v="2019-12-27" />
		<tag k="ssr:gruppe" v="veg" />
		<tag k="ssr:hovedgruppe" v="infrastruktur" />
		<tag k="ssr:stedsnr" v="1011698" />
		<tag k="ssr:type" v="adressenavn" />
	</node>
	<node lat="69.23692317249208" lon="19.21974976128882" id="-106860">
		<tag k="name" v="Grønnvollveien" />
		<tag k="ssr:date" v="2019-12-27" />
		<tag k="ssr:gruppe" v="veg" />
		<tag k="ssr:hovedgruppe" v="infrastruktur" />
		<tag k="ssr:stedsnr" v="1011662" />
		<tag k="ssr:type" v="adressenavn" />
	</node>
	<node lat="69.2354996920975" lon="19.220401671322033" id="-106861">
		<tag k="name" v="Fossveien" />
		<tag k="ssr:date" v="2019-12-27" />
		<tag k="ssr:gruppe" v="veg" />
		<tag k="ssr:hovedgruppe" v="infrastruktur" />
		<tag k="ssr:stedsnr" v="1011813" />
		<tag k="ssr:type" v="adressenavn" />
	</node>
	<node lat="69.23584415568706" lon="19.219508811908216" id="-106862">
		<tag k="name" v="Bregneveien" />
		<tag k="ssr:date" v="2019-12-27" />
		<tag k="ssr:gruppe" v="veg" />
		<tag k="ssr:hovedgruppe" v="infrastruktur" />
		<tag k="ssr:stedsnr" v="1011822" />
		<tag k="ssr:type" v="adressenavn" />
	</node>
	<node lat="69.25197664231437" lon="19.230976230481915" id="-106863">
		<tag k="name" v="Tiurveien" />
		<tag k="ssr:date" v="2019-12-27" />
		<tag k="ssr:gruppe" v="veg" />
		<tag k="ssr:hovedgruppe" v="infrastruktur" />
		<tag k="ssr:stedsnr" v="1011920" />
		<tag k="ssr:type" v="adressenavn" />
	</node>
	<node lat="69.25190794612999" lon="19.231578720789862" id="-106864">
		<tag k="name" v="Øvre Elvejordsvei" />
		<tag k="ssr:date" v="2019-12-27" />
		<tag k="ssr:gruppe" v="veg" />
		<tag k="ssr:hovedgruppe" v="infrastruktur" />
		<tag k="ssr:stedsnr" v="1011936" />
		<tag k="ssr:type" v="adressenavn" />
	</node>
	<node lat="69.21486300180632" lon="19.576480156269124" id="-106865">
		<tag k="name" v="Ringveien" />
		<tag k="ssr:date" v="2019-12-27" />
		<tag k="ssr:gruppe" v="veg" />
		<tag k="ssr:hovedgruppe" v="infrastruktur" />
		<tag k="ssr:stedsnr" v="1011945" />
		<tag k="ssr:type" v="adressenavn" />
	</node>
	<node lat="69.25329477155636" lon="19.231203027223142" id="-106866">
		<tag k="name" v="Eineveien" />
		<tag k="ssr:date" v="2019-12-27" />
		<tag k="ssr:gruppe" v="veg" />
		<tag k="ssr:hovedgruppe" v="infrastruktur" />
		<tag k="ssr:stedsnr" v="1011947" />
		<tag k="ssr:type" v="adressenavn" />
	</node>
	<node lat="69.25216899301465" lon="19.228849264341928" id="-106867">
		<tag k="name" v="Bertestuveien" />
		<tag k="ssr:date" v="2019-12-27" />
		<tag k="ssr:gruppe" v="veg" />
		<tag k="ssr:hovedgruppe" v="infrastruktur" />
		<tag k="ssr:stedsnr" v="1011964" />
		<tag k="ssr:type" v="adressenavn" />
	</node>
	<node lat="69.32919709153126" lon="18.918387900180043" id="-106868">
		<tag k="name" v="Mestermannsveien" />
		<tag k="ssr:date" v="2019-12-27" />
		<tag k="ssr:gruppe" v="veg" />
		<tag k="ssr:hovedgruppe" v="infrastruktur" />
		<tag k="ssr:stedsnr" v="1011966" />
		<tag k="ssr:type" v="adressenavn" />
	</node>
	<node lat="69.32811676294688" lon="18.919651204649302" id="-106869">
		<tag k="name" v="Adrian Hansens vei" />
		<tag k="ssr:date" v="2019-12-27" />
		<tag k="ssr:gruppe" v="veg" />
		<tag k="ssr:hovedgruppe" v="infrastruktur" />
		<tag k="ssr:stedsnr" v="1011983" />
		<tag k="ssr:type" v="adressenavn" />
	</node>
	<node lat="69.25176332214315" lon="19.23285830418682" id="-106870">
		<tag k="name" v="Nedre Elvejordsvei" />
		<tag k="ssr:date" v="2019-12-27" />
		<tag k="ssr:gruppe" v="veg" />
		<tag k="ssr:hovedgruppe" v="infrastruktur" />
		<tag k="ssr:stedsnr" v="1011999" />
		<tag k="ssr:type" v="adressenavn" />
	</node>
	<node lat="69.25177067583691" lon="19.2342463649595" id="-106871">
		<tag k="name" v="Tyttebærstien" />
		<tag k="old_name" v="Dalveien" />
		<tag k="ssr:date" v="2021-09-20" />
		<tag k="ssr:gruppe" v="veg" />
		<tag k="ssr:hovedgruppe" v="infrastruktur" />
		<tag k="ssr:stedsnr" v="1012000" />
		<tag k="ssr:type" v="adressenavn" />
	</node>
	<node lat="69.33046203095469" lon="18.915500449537454" id="-106872">
		<tag k="name" v="Beritstien" />
		<tag k="ssr:date" v="2019-12-27" />
		<tag k="ssr:gruppe" v="veg" />
		<tag k="ssr:hovedgruppe" v="infrastruktur" />
		<tag k="ssr:stedsnr" v="1012020" />
		<tag k="ssr:type" v="adressenavn" />
	</node>
	<node lat="69.21681384373451" lon="19.561602331158646" id="-106873">
		<tag k="name" v="Skoleveien" />
		<tag k="ssr:date" v="2019-12-27" />
		<tag k="ssr:gruppe" v="veg" />
		<tag k="ssr:hovedgruppe" v="infrastruktur" />
		<tag k="ssr:stedsnr" v="1012117" />
		<tag k="ssr:type" v="adressenavn" />
	</node>
	<node lat="69.21481724247157" lon="19.562385229098872" id="-106874">
		<tag k="name" v="Roffaveien" />
		<tag k="ssr:date" v="2019-12-27" />
		<tag k="ssr:gruppe" v="veg" />
		<tag k="ssr:hovedgruppe" v="infrastruktur" />
		<tag k="ssr:stedsnr" v="1012178" />
		<tag k="ssr:type" v="adressenavn" />
	</node>
	<node lat="69.21389742763378" lon="19.568529478365452" id="-106875">
		<tag k="name" v="Industriveien" />
		<tag k="old_name" v="Industriveien Nordkjosbotn" />
		<tag k="ssr:date" v="2021-05-04" />
		<tag k="ssr:gruppe" v="veg" />
		<tag k="ssr:hovedgruppe" v="infrastruktur" />
		<tag k="ssr:stedsnr" v="1012183" />
		<tag k="ssr:type" v="adressenavn" />
	</node>
	<node lat="69.24405316897052" lon="19.230874950507694" id="-106876">
		<tag k="name" v="Petterbakken" />
		<tag k="ssr:date" v="2019-12-27" />
		<tag k="ssr:gruppe" v="veg" />
		<tag k="ssr:hovedgruppe" v="infrastruktur" />
		<tag k="ssr:stedsnr" v="1012749" />
		<tag k="ssr:type" v="adressenavn" />
	</node>
	<node lat="69.24078557658073" lon="19.234315225744925" id="-106877">
		<tag k="name" v="Meieriveien" />
		<tag k="ssr:date" v="2019-12-27" />
		<tag k="ssr:gruppe" v="veg" />
		<tag k="ssr:hovedgruppe" v="infrastruktur" />
		<tag k="ssr:stedsnr" v="1012759" />
		<tag k="ssr:type" v="adressenavn" />
	</node>
	<node lat="69.23456180873832" lon="19.211237730099914" id="-106878">
		<tag k="name" v="Moanveien" />
		<tag k="ssr:date" v="2019-12-27" />
		<tag k="ssr:gruppe" v="veg" />
		<tag k="ssr:hovedgruppe" v="infrastruktur" />
		<tag k="ssr:stedsnr" v="1012845" />
		<tag k="ssr:type" v="adressenavn" />
	</node>
	<node lat="69.2201249151382" lon="19.5506498749731" id="-106879">
		<tag k="name" v="Vollabakkveien" />
		<tag k="ssr:date" v="2019-12-27" />
		<tag k="ssr:gruppe" v="veg" />
		<tag k="ssr:hovedgruppe" v="infrastruktur" />
		<tag k="ssr:stedsnr" v="1012265" />
		<tag k="ssr:type" v="adressenavn" />
	</node>
	<node lat="69.2180219136816" lon="19.55885637539642" id="-106880">
		<tag k="name" v="Torgveien" />
		<tag k="ssr:date" v="2019-12-27" />
		<tag k="ssr:gruppe" v="veg" />
		<tag k="ssr:hovedgruppe" v="infrastruktur" />
		<tag k="ssr:stedsnr" v="1012282" />
		<tag k="ssr:type" v="adressenavn" />
	</node>
	<node lat="69.2420053135572" lon="19.233564015360912" id="-106881">
		<tag k="name" v="Grindbakken" />
		<tag k="ssr:date" v="2019-12-27" />
		<tag k="ssr:gruppe" v="veg" />
		<tag k="ssr:hovedgruppe" v="infrastruktur" />
		<tag k="ssr:stedsnr" v="1012463" />
		<tag k="ssr:type" v="adressenavn" />
	</node>
	<node lat="69.2179431306694" lon="19.57501296847636" id="-106882">
		<tag k="name" v="Myrveien" />
		<tag k="ssr:date" v="2019-12-27" />
		<tag k="ssr:gruppe" v="veg" />
		<tag k="ssr:hovedgruppe" v="infrastruktur" />
		<tag k="ssr:stedsnr" v="1012367" />
		<tag k="ssr:type" v="adressenavn" />
	</node>
	<node lat="69.21551075804615" lon="19.570402688444872" id="-106883">
		<tag k="name" v="Kløverlundveien" />
		<tag k="ssr:date" v="2019-12-27" />
		<tag k="ssr:gruppe" v="veg" />
		<tag k="ssr:hovedgruppe" v="infrastruktur" />
		<tag k="ssr:stedsnr" v="1012370" />
		<tag k="ssr:type" v="adressenavn" />
	</node>
	<node lat="69.21740529451012" lon="19.55824346967203" id="-106884">
		<tag k="name" v="Skogveien" />
		<tag k="ssr:date" v="2019-12-27" />
		<tag k="ssr:gruppe" v="veg" />
		<tag k="ssr:hovedgruppe" v="infrastruktur" />
		<tag k="ssr:stedsnr" v="1012381" />
		<tag k="ssr:type" v="adressenavn" />
	</node>
	<node lat="69.2150488015525" lon="19.55278806862506" id="-106885">
		<tag k="name" v="Sentrumsveien" />
		<tag k="ssr:date" v="2019-12-27" />
		<tag k="ssr:gruppe" v="veg" />
		<tag k="ssr:hovedgruppe" v="infrastruktur" />
		<tag k="ssr:stedsnr" v="1012416" />
		<tag k="ssr:type" v="adressenavn" />
	</node>
	<node lat="69.21460336016234" lon="19.574410741122833" id="-106886">
		<tag k="name" v="Moveien" />
		<tag k="ssr:date" v="2019-12-27" />
		<tag k="ssr:gruppe" v="veg" />
		<tag k="ssr:hovedgruppe" v="infrastruktur" />
		<tag k="ssr:stedsnr" v="1012419" />
		<tag k="ssr:type" v="adressenavn" />
	</node>
	<node lat="69.24028416472581" lon="19.232967018086228" id="-106887">
		<tag k="name" v="Hageveien" />
		<tag k="ssr:date" v="2019-12-27" />
		<tag k="ssr:gruppe" v="veg" />
		<tag k="ssr:hovedgruppe" v="infrastruktur" />
		<tag k="ssr:stedsnr" v="1012513" />
		<tag k="ssr:type" v="adressenavn" />
	</node>
	<node lat="69.23793433416525" lon="19.227883596034694" id="-106888">
		<tag k="name" v="Strandveien" />
		<tag k="ssr:date" v="2019-12-27" />
		<tag k="ssr:gruppe" v="veg" />
		<tag k="ssr:hovedgruppe" v="infrastruktur" />
		<tag k="ssr:stedsnr" v="1012809" />
		<tag k="ssr:type" v="adressenavn" />
	</node>
	<node lat="69.23768587714001" lon="19.21651599345823" id="-106889">
		<tag k="name" v="Balsokkveien" />
		<tag k="ssr:date" v="2019-12-27" />
		<tag k="ssr:gruppe" v="veg" />
		<tag k="ssr:hovedgruppe" v="infrastruktur" />
		<tag k="ssr:stedsnr" v="1012814" />
		<tag k="ssr:type" v="adressenavn" />
	</node>
	<node lat="69.37560732123215" lon="19.358692184692533" id="-106890">
		<tag k="name" v="Laksvatnveien" />
		<tag k="ssr:date" v="2019-12-27" />
		<tag k="ssr:gruppe" v="veg" />
		<tag k="ssr:hovedgruppe" v="infrastruktur" />
		<tag k="ssr:stedsnr" v="1013291" />
		<tag k="ssr:type" v="adressenavn" />
	</node>
	<node lat="69.23938478832369" lon="19.22882225549316" id="-106891">
		<tag k="name" v="Rådhusgata" />
		<tag k="ssr:date" v="2019-12-27" />
		<tag k="ssr:gruppe" v="veg" />
		<tag k="ssr:hovedgruppe" v="infrastruktur" />
		<tag k="ssr:stedsnr" v="1012885" />
		<tag k="ssr:type" v="adressenavn" />
	</node>
	<node lat="69.23917245183053" lon="19.229492677459998" id="-106892">
		<tag k="name" v="Veiskifte" />
		<tag k="ssr:date" v="2019-12-27" />
		<tag k="ssr:gruppe" v="veg" />
		<tag k="ssr:hovedgruppe" v="infrastruktur" />
		<tag k="ssr:stedsnr" v="1013232" />
		<tag k="ssr:type" v="adressenavn" />
	</node>
	<node lat="69.37689121857326" lon="19.360623462770217" id="-106893">
		<tag k="name" v="Antonbakken" />
		<tag k="ssr:date" v="2019-12-27" />
		<tag k="ssr:gruppe" v="veg" />
		<tag k="ssr:hovedgruppe" v="infrastruktur" />
		<tag k="ssr:stedsnr" v="1013471" />
		<tag k="ssr:type" v="adressenavn" />
	</node>
	<node lat="69.37706708403542" lon="19.359688202074942" id="-106894">
		<tag k="name" v="Simonbakken" />
		<tag k="ssr:date" v="2019-12-27" />
		<tag k="ssr:gruppe" v="veg" />
		<tag k="ssr:hovedgruppe" v="infrastruktur" />
		<tag k="ssr:stedsnr" v="1013477" />
		<tag k="ssr:type" v="adressenavn" />
	</node>
	<node lat="69.21681384373451" lon="19.561602331158646" id="-106895">
		<tag k="name" v="Kirkemoveien" />
		<tag k="ssr:date" v="2019-12-27" />
		<tag k="ssr:gruppe" v="veg" />
		<tag k="ssr:hovedgruppe" v="infrastruktur" />
		<tag k="ssr:stedsnr" v="1013546" />
		<tag k="ssr:type" v="adressenavn" />
	</node>
	<node lat="69.24405566274791" lon="19.230249648111002" id="-106896">
		<tag k="name" v="Barnehageveien" />
		<tag k="ssr:date" v="2019-12-27" />
		<tag k="ssr:gruppe" v="veg" />
		<tag k="ssr:hovedgruppe" v="infrastruktur" />
		<tag k="ssr:stedsnr" v="1013606" />
		<tag k="ssr:type" v="adressenavn" />
	</node>
	<node lat="69.24546488032206" lon="19.22449517323965" id="-106897">
		<tag k="name" v="Mellomveien" />
		<tag k="ssr:date" v="2019-12-27" />
		<tag k="ssr:gruppe" v="veg" />
		<tag k="ssr:hovedgruppe" v="infrastruktur" />
		<tag k="ssr:stedsnr" v="1013634" />
		<tag k="ssr:type" v="adressenavn" />
	</node>
	<node lat="69.37611554139524" lon="19.36266863777401" id="-106898">
		<tag k="name" v="Svartbergveien" />
		<tag k="ssr:date" v="2019-12-27" />
		<tag k="ssr:gruppe" v="veg" />
		<tag k="ssr:hovedgruppe" v="infrastruktur" />
		<tag k="ssr:stedsnr" v="1013790" />
		<tag k="ssr:type" v="adressenavn" />
	</node>
	<node lat="69.37753054760195" lon="19.286295492587065" id="-106899">
		<tag k="name" v="Selnesveien" />
		<tag k="ssr:date" v="2019-12-27" />
		<tag k="ssr:gruppe" v="veg" />
		<tag k="ssr:hovedgruppe" v="infrastruktur" />
		<tag k="ssr:stedsnr" v="1013830" />
		<tag k="ssr:type" v="adressenavn" />
	</node>
	<node lat="69.38553522748192" lon="19.286757709728874" id="-106900">
		<tag k="name" v="Ørnesveien" />
		<tag k="ssr:date" v="2019-12-27" />
		<tag k="ssr:gruppe" v="veg" />
		<tag k="ssr:hovedgruppe" v="infrastruktur" />
		<tag k="ssr:stedsnr" v="1013837" />
		<tag k="ssr:type" v="adressenavn" />
	</node>
	<node lat="69.24415070059939" lon="19.229393837643556" id="-106901">
		<tag k="name" v="Myraveien" />
		<tag k="ssr:date" v="2019-12-27" />
		<tag k="ssr:gruppe" v="veg" />
		<tag k="ssr:hovedgruppe" v="infrastruktur" />
		<tag k="ssr:stedsnr" v="1013643" />
		<tag k="ssr:type" v="adressenavn" />
	</node>
	<node lat="69.26867295924936" lon="19.415298218207457" id="-106902">
		<tag k="name" v="Dalvegen" />
		<tag k="ssr:date" v="2019-12-27" />
		<tag k="ssr:gruppe" v="veg" />
		<tag k="ssr:hovedgruppe" v="infrastruktur" />
		<tag k="ssr:stedsnr" v="1014275" />
		<tag k="ssr:type" v="adressenavn" />
	</node>
	<node lat="69.20767039024757" lon="19.27362097100342" id="-106903">
		<tag k="name" v="Brennmomyra" />
		<tag k="ssr:date" v="2019-12-27" />
		<tag k="ssr:gruppe" v="veg" />
		<tag k="ssr:hovedgruppe" v="infrastruktur" />
		<tag k="ssr:stedsnr" v="1014285" />
		<tag k="ssr:type" v="adressenavn" />
	</node>
	<node lat="69.2179431306694" lon="19.57501296847636" id="-106904">
		<tag k="name" v="Elvegårdsveien" />
		<tag k="ssr:date" v="2019-12-27" />
		<tag k="ssr:gruppe" v="veg" />
		<tag k="ssr:hovedgruppe" v="infrastruktur" />
		<tag k="ssr:stedsnr" v="1014317" />
		<tag k="ssr:type" v="adressenavn" />
	</node>
	<node lat="69.20831370148142" lon="19.271975015381642" id="-106905">
		<tag k="name" v="Stormyrveien" />
		<tag k="ssr:date" v="2019-12-27" />
		<tag k="ssr:gruppe" v="veg" />
		<tag k="ssr:hovedgruppe" v="infrastruktur" />
		<tag k="ssr:stedsnr" v="1014530" />
		<tag k="ssr:type" v="adressenavn" />
	</node>
	<node lat="69.32797361228067" lon="18.92733646063737" id="-106906">
		<tag k="name" v="Hilmarveien" />
		<tag k="ssr:date" v="2019-12-27" />
		<tag k="ssr:gruppe" v="veg" />
		<tag k="ssr:hovedgruppe" v="infrastruktur" />
		<tag k="ssr:stedsnr" v="1016387" />
		<tag k="ssr:type" v="adressenavn" />
	</node>
	<node lat="69.37466173042412" lon="18.740746410499252" id="-106907">
		<tag k="name" v="Fjellskardalen" />
		<tag k="ssr:date" v="2019-12-27" />
		<tag k="ssr:gruppe" v="veg" />
		<tag k="ssr:hovedgruppe" v="infrastruktur" />
		<tag k="ssr:stedsnr" v="1017961" />
		<tag k="ssr:type" v="adressenavn" />
	</node>
	<node lat="69.31000836724742" lon="18.973489092920275" id="-106908">
		<tag k="name" v="Heimveien" />
		<tag k="ssr:date" v="2019-12-27" />
		<tag k="ssr:gruppe" v="veg" />
		<tag k="ssr:hovedgruppe" v="infrastruktur" />
		<tag k="ssr:stedsnr" v="1018206" />
		<tag k="ssr:type" v="adressenavn" />
	</node>
	<node lat="69.33177382790184" lon="18.884453894704137" id="-106909">
		<tag k="name" v="Balsfjordveien" />
		<tag k="ssr:date" v="2019-12-27" />
		<tag k="ssr:gruppe" v="veg" />
		<tag k="ssr:hovedgruppe" v="infrastruktur" />
		<tag k="ssr:stedsnr" v="1018215" />
		<tag k="ssr:type" v="adressenavn" />
	</node>
	<node lat="69.38102661426078" lon="19.006711755441046" id="-106910">
		<tag k="name" v="Indre Malangseidet" />
		<tag k="ssr:date" v="2019-12-27" />
		<tag k="ssr:gruppe" v="veg" />
		<tag k="ssr:hovedgruppe" v="infrastruktur" />
		<tag k="ssr:stedsnr" v="1018033" />
		<tag k="ssr:type" v="adressenavn" />
	</node>
	<node lat="69.28930753535276" lon="19.01088791646832" id="-106911">
		<tag k="name" v="Malangsveien" />
		<tag k="ssr:date" v="2019-12-27" />
		<tag k="ssr:gruppe" v="veg" />
		<tag k="ssr:hovedgruppe" v="infrastruktur" />
		<tag k="ssr:stedsnr" v="1018217" />
		<tag k="ssr:type" v="adressenavn" />
	</node>
	<node lat="69.25780312255871" lon="19.11668959695193" id="-106912">
		<tag k="name" v="Tverrveien" />
		<tag k="ssr:date" v="2019-12-27" />
		<tag k="ssr:gruppe" v="veg" />
		<tag k="ssr:hovedgruppe" v="infrastruktur" />
		<tag k="ssr:stedsnr" v="1018219" />
		<tag k="ssr:type" v="adressenavn" />
	</node>
	<node lat="69.2747080464987" lon="19.422158006676536" id="-106913">
		<tag k="name" v="Nordlysveien" />
		<tag k="ssr:date" v="2019-12-27" />
		<tag k="ssr:gruppe" v="veg" />
		<tag k="ssr:hovedgruppe" v="infrastruktur" />
		<tag k="ssr:stedsnr" v="1073753" />
		<tag k="ssr:type" v="adressenavn" />
	</node>
	<node lat="69.21953249067062" lon="19.602807589035223" id="-106914">
		<tag k="name" v="Bruelvveien" />
		<tag k="ssr:date" v="2019-12-27" />
		<tag k="ssr:gruppe" v="veg" />
		<tag k="ssr:hovedgruppe" v="infrastruktur" />
		<tag k="ssr:stedsnr" v="1073754" />
		<tag k="ssr:type" v="adressenavn" />
	</node>
	<node lat="69.13688113802365" lon="19.035933173318906" id="-106915">
		<tag k="name" v="Innlandsveien" />
		<tag k="ssr:date" v="2019-12-27" />
		<tag k="ssr:gruppe" v="veg" />
		<tag k="ssr:hovedgruppe" v="infrastruktur" />
		<tag k="ssr:stedsnr" v="1073755" />
		<tag k="ssr:type" v="adressenavn" />
	</node>
	<node lat="70.08225403199775" lon="29.73028468656217" id="-106916">
		<tag k="fixme" v="multiple name tags, choose one and add the other to alt_name" />
		<tag k="name" v="Troms og Finnmark;Troms og Finnmark fylke - Romssa ja Finnmárkku fylka - Tromssan ja Finmarkun fylkki" />
		<tag k="name:fkv" v="Tromssan ja Finmarkun fylkki" />
		<tag k="name:no" v="Troms og Finnmark;Troms og Finnmark fylke" />
		<tag k="name:se" v="Romssa ja Finnmárkku fylka" />
		<tag k="ssr:date" v="2021-06-08" />
		<tag k="ssr:gruppe" v="administrativeIndelinger" />
		<tag k="ssr:hovedgruppe" v="offentligAdministrasjon" />
		<tag k="ssr:stedsnr" v="1073694" />
		<tag k="ssr:type" v="fylke" />
	</node>
	<node lat="69.21262576534198" lon="19.53676436690923" id="-106917">
		<tag k="name" v="Bergenesveien" />
		<tag k="ssr:date" v="2019-12-27" />
		<tag k="ssr:gruppe" v="veg" />
		<tag k="ssr:hovedgruppe" v="infrastruktur" />
		<tag k="ssr:stedsnr" v="1073773" />
		<tag k="ssr:type" v="adressenavn" />
	</node>
	<node lat="69.07974444254928" lon="19.267759802349794" id="-106919">
		<tag k="name" v="Veg 1097" />
		<tag k="ssr:date" v="2019-12-27" />
		<tag k="ssr:gruppe" v="veg" />
		<tag k="ssr:hovedgruppe" v="infrastruktur" />
		<tag k="ssr:stedsnr" v="1074069" />
		<tag k="ssr:type" v="adressenavn" />
	</node>
	<node lat="69.33037274892304" lon="18.913617215164216" id="-106920">
		<tag k="name" v="Veg 2710" />
		<tag k="ssr:date" v="2019-12-27" />
		<tag k="ssr:gruppe" v="veg" />
		<tag k="ssr:hovedgruppe" v="infrastruktur" />
		<tag k="ssr:stedsnr" v="1074070" />
		<tag k="ssr:type" v="adressenavn" />
	</node>
	<node lat="69.34734869898003" lon="18.742419984519856" id="-106921">
		<tag k="name" v="Veg 9004" />
		<tag k="ssr:date" v="2019-12-27" />
		<tag k="ssr:gruppe" v="veg" />
		<tag k="ssr:hovedgruppe" v="infrastruktur" />
		<tag k="ssr:stedsnr" v="1074071" />
		<tag k="ssr:type" v="adressenavn" />
	</node>
	<node lat="69.2111380331039" lon="19.12474574765242" id="-106922">
		<tag k="name" v="Mosbergvikveien" />
		<tag k="ssr:date" v="2019-12-27" />
		<tag k="ssr:gruppe" v="veg" />
		<tag k="ssr:hovedgruppe" v="infrastruktur" />
		<tag k="ssr:stedsnr" v="1074072" />
		<tag k="ssr:type" v="adressenavn" />
	</node>
	<node lat="69.08922870661777" lon="19.235107647897394" id="-106941">
		<tag k="name" v="Langvassli" />
		<tag k="old_name" v="Veg 1110" />
		<tag k="ssr:date" v="2021-09-20" />
		<tag k="ssr:gruppe" v="veg" />
		<tag k="ssr:hovedgruppe" v="infrastruktur" />
		<tag k="ssr:stedsnr" v="1081139" />
		<tag k="ssr:type" v="adressenavn" />
	</node>
	<node lat="69.2154363519533" lon="19.569141468039764" id="-106942">
		<tag k="name" v="Veg 4510" />
		<tag k="ssr:date" v="2021-05-04" />
		<tag k="ssr:gruppe" v="veg" />
		<tag k="ssr:hovedgruppe" v="infrastruktur" />
		<tag k="ssr:stedsnr" v="1081140" />
		<tag k="ssr:type" v="adressenavn" />
	</node>
	<node lat="69.21784988830493" lon="19.57263102961213" id="-106943">
		<tag k="name" v="Vei 6710" />
		<tag k="ssr:date" v="2021-10-07" />
		<tag k="ssr:gruppe" v="veg" />
		<tag k="ssr:hovedgruppe" v="infrastruktur" />
		<tag k="ssr:stedsnr" v="1082547" />
		<tag k="ssr:type" v="adressenavn" />
	</node>
</osm>
