<?xml version="1.0" encoding="UTF-8"?>
<osm generator="osmapis" version="0.6">
	<node id="-828064" lat="63.2783319946" lon="9.11051184505">
		<tag k="name" v="Ånnavatnet" />
		<tag k="ssr:date" v="2019-05-30" />
		<tag k="ssr:gruppe" v="veg" />
		<tag k="ssr:hovedgruppe" v="infrastruktur" />
		<tag k="ssr:stedsnr" v="1020772" />
		<tag k="ssr:type" v="adressenavn" />
	</node>
	<node id="-829503" lat="63.399863886" lon="8.81850833007">
		<tag k="name" v="Rennsjøveien" />
		<tag k="ssr:date" v="2019-05-30" />
		<tag k="ssr:gruppe" v="veg" />
		<tag k="ssr:hovedgruppe" v="infrastruktur" />
		<tag k="ssr:stedsnr" v="242623" />
		<tag k="ssr:type" v="adressenavn" />
	</node>
	<node id="-829725" lat="64.0144468016" lon="11.4818866293">
		<tag k="fixme" v="multiple name tags, choose one and add the other to alt_name" />
		<tag k="name" v="Trøndelag fylke - Trööndelage;Trööndelagen fylhke" />
		<tag k="name:no" v="Trøndelag fylke" />
		<tag k="name:sma" v="Trööndelage;Trööndelagen fylhke" />
		<tag k="ssr:date" v="2019-11-14" />
		<tag k="ssr:gruppe" v="administrativeIndelinger" />
		<tag k="ssr:hovedgruppe" v="offentligAdministrasjon" />
		<tag k="ssr:stedsnr" v="980645" />
		<tag k="ssr:type" v="fylke" />
	</node>
	<node id="-828604" lat="63.2142833374" lon="9.04327777147">
		<tag k="name" v="Stølvegen" />
		<tag k="ssr:date" v="2018-01-09" />
		<tag k="ssr:gruppe" v="veg" />
		<tag k="ssr:hovedgruppe" v="infrastruktur" />
		<tag k="ssr:stedsnr" v="150290" />
		<tag k="ssr:type" v="vegstrekning" />
	</node>
	<node id="-828922" lat="63.467774999" lon="9.07112778436">
		<tag k="alt_name" v="Ballen" />
		<tag k="name" v="Balen" />
		<tag k="ssr:date" v="2018-01-09" />
		<tag k="ssr:gruppe" v="navigasjon" />
		<tag k="ssr:hovedgruppe" v="infrastruktur" />
		<tag k="ssr:stedsnr" v="227373" />
		<tag k="ssr:type" v="lanterne" />
	</node>
	<node id="-829300" lat="63.2909527764" lon="9.08894167231">
		<tag k="name" v="Hemne kommune" />
		<tag k="ssr:date" v="2018-01-09" />
		<tag k="ssr:gruppe" v="administrativeIndelinger" />
		<tag k="ssr:hovedgruppe" v="offentligAdministrasjon" />
		<tag k="ssr:stedsnr" v="146616" />
		<tag k="ssr:type" v="kommune" />
	</node>
	<node id="-830451" lat="63.4489805589" lon="8.99568889499">
		<tag k="alt_name" v="Magerøy" />
		<tag k="loc_name" v="Ringberget" />
		<tag k="name" v="Magerøya" />
		<tag k="ssr:date" v="2018-01-09" />
		<tag k="ssr:gruppe" v="navigasjon" />
		<tag k="ssr:hovedgruppe" v="infrastruktur" />
		<tag k="ssr:stedsnr" v="166438" />
		<tag k="ssr:type" v="fyrlykt" />
	</node>
	<node id="-828065" lat="63.2088499041" lon="9.00481579457">
		<tag k="name" v="Leitveien" />
		<tag k="ssr:date" v="2019-05-30" />
		<tag k="ssr:gruppe" v="veg" />
		<tag k="ssr:hovedgruppe" v="infrastruktur" />
		<tag k="ssr:stedsnr" v="1020531" />
		<tag k="ssr:type" v="adressenavn" />
	</node>
	<node id="-828651" lat="63.1960055565" lon="8.83870833822">
		<tag k="name" v="Hovdehammeren" />
		<tag k="ssr:date" v="2018-01-09" />
		<tag k="ssr:gruppe" v="navigasjon" />
		<tag k="ssr:hovedgruppe" v="infrastruktur" />
		<tag k="ssr:stedsnr" v="716645" />
		<tag k="ssr:type" v="fyrlykt" />
	</node>
	<node id="-827516" lat="63.2910202527" lon="9.08896578962">
		<tag k="name" v="Heim kommune" />
		<tag k="ssr:date" v="2019-11-20" />
		<tag k="ssr:gruppe" v="administrativeIndelinger" />
		<tag k="ssr:hovedgruppe" v="offentligAdministrasjon" />
		<tag k="ssr:stedsnr" v="1073403" />
		<tag k="ssr:type" v="kommune" />
	</node>
	<node id="-829189" lat="63.4170111132" lon="9.13785555209">
		<tag k="name" v="Flisa" />
		<tag k="ssr:date" v="2018-01-09" />
		<tag k="ssr:gruppe" v="navigasjon" />
		<tag k="ssr:hovedgruppe" v="infrastruktur" />
		<tag k="ssr:stedsnr" v="773556" />
		<tag k="ssr:type" v="fyrlykt" />
	</node>
	<node id="-828067" lat="63.4632123804" lon="9.02866697589">
		<tag k="name" v="Ytterøya" />
		<tag k="ssr:date" v="2019-05-30" />
		<tag k="ssr:gruppe" v="veg" />
		<tag k="ssr:hovedgruppe" v="infrastruktur" />
		<tag k="ssr:stedsnr" v="1020964" />
		<tag k="ssr:type" v="adressenavn" />
	</node>
	<node id="-828066" lat="63.4592083194" lon="9.03474056335">
		<tag k="name" v="Stamnesøya" />
		<tag k="ssr:date" v="2019-05-30" />
		<tag k="ssr:gruppe" v="veg" />
		<tag k="ssr:hovedgruppe" v="infrastruktur" />
		<tag k="ssr:stedsnr" v="1020962" />
		<tag k="ssr:type" v="adressenavn" />
	</node>
	<node id="-830113" lat="63.3604027815" lon="9.18481945047">
		<tag k="name" v="Næløya" />
		<tag k="old_name" v="Nerøy;Nærøy" />
		<tag k="ssr:date" v="2018-01-09" />
		<tag k="ssr:gruppe" v="navigasjon" />
		<tag k="ssr:hovedgruppe" v="infrastruktur" />
		<tag k="ssr:stedsnr" v="255718" />
		<tag k="ssr:type" v="fyrlykt" />
	</node>
</osm>
