<?xml version="1.0" encoding="UTF-8"?>
<osm generator="osmapis" version="0.6">
	<node changeset="58770998" id="5603021421" lat="58.4072944" lon="7.42035" timestamp="2018-05-07T21:17:51Z" uid="3842253" user="NKA_import" version="1">
		<tag k="name" v="Dynjan" />
		<tag k="place" v="farm" />
		<tag k="ssr:stedsnr" v="303901" />
		<tag k="ssr:type" v="bruk" />
	</node>
	<node changeset="58770998" id="5603021422" lat="58.265075" lon="7.28855" timestamp="2018-05-07T21:17:51Z" uid="3842253" user="NKA_import" version="1">
		<tag k="name" v="Åsan" />
		<tag k="place" v="farm" />
		<tag k="ssr:stedsnr" v="667574" />
		<tag k="ssr:type" v="gard" />
	</node>
	<node changeset="58770998" id="5603021423" lat="58.24015" lon="7.3659472" timestamp="2018-05-07T21:17:51Z" uid="3842253" user="NKA_import" version="1">
		<tag k="name" v="Håland" />
		<tag k="place" v="farm" />
		<tag k="ssr:stedsnr" v="667592" />
		<tag k="ssr:type" v="gard" />
	</node>
	<node changeset="58770998" id="5603021424" lat="58.4424111" lon="7.3594056" timestamp="2018-05-07T21:17:51Z" uid="3842253" user="NKA_import" version="1">
		<tag k="name" v="Vårdal" />
		<tag k="place" v="hamlet" />
		<tag k="ssr:stedsnr" v="303921" />
		<tag k="ssr:type" v="gard" />
	</node>
	<node changeset="58770998" id="5603021425" lat="58.3496972" lon="7.3850028" timestamp="2018-05-07T21:17:51Z" uid="3842253" user="NKA_import" version="1">
		<tag k="name" v="Hagåkeren" />
		<tag k="place" v="farm" />
		<tag k="ssr:stedsnr" v="826231" />
		<tag k="ssr:type" v="bruk" />
	</node>
	<node changeset="58770998" id="5603021426" lat="58.3520139" lon="7.3849028" timestamp="2018-05-07T21:17:51Z" uid="3842253" user="NKA_import" version="1">
		<tag k="name" v="Vollan" />
		<tag k="place" v="farm" />
		<tag k="ssr:stedsnr" v="887967" />
		<tag k="ssr:type" v="bruk" />
	</node>
	<node changeset="58770998" id="5603021427" lat="58.4233028" lon="7.3657972" timestamp="2018-05-07T21:17:51Z" uid="3842253" user="NKA_import" version="1">
		<tag k="alt_name" v="Rebåsen;Reppåsen" />
		<tag k="loc_name" v="Rebbåsæn" />
		<tag k="name" v="Rebbåsen" />
		<tag k="place" v="farm" />
		<tag k="ssr:stedsnr" v="667856" />
		<tag k="ssr:type" v="gard" />
	</node>
	<node changeset="58770998" id="5603021428" lat="58.3714194" lon="7.4167194" timestamp="2018-05-07T21:17:51Z" uid="3842253" user="NKA_import" version="1">
		<tag k="alt_name" v="Dalan" />
		<tag k="name" v="Ytre Dalan" />
		<tag k="place" v="farm" />
		<tag k="ssr:stedsnr" v="667940" />
		<tag k="ssr:type" v="bruk" />
	</node>
	<node changeset="58770998" id="5603021429" lat="58.4665444" lon="7.3957639" timestamp="2018-05-07T21:17:52Z" uid="3842253" user="NKA_import" version="1">
		<tag k="name" v="Øygarden" />
		<tag k="place" v="farm" />
		<tag k="ssr:stedsnr" v="703129" />
		<tag k="ssr:type" v="bruk" />
	</node>
	<node changeset="58770998" id="5603021430" lat="58.2897297" lon="7.3312674" timestamp="2018-05-07T21:17:52Z" uid="3842253" user="NKA_import" version="1">
		<tag k="loc_name" v="I Jile" />
		<tag k="name" v="Nepstad" />
		<tag k="place" v="farm" />
		<tag k="ssr:stedsnr" v="517" />
		<tag k="ssr:type" v="bruk" />
	</node>
	<node changeset="58770998" id="5603021431" lat="58.3037988" lon="7.3833297" timestamp="2018-05-07T21:17:52Z" uid="3842253" user="NKA_import" version="1">
		<tag k="alt_name" v="Biktjønn" />
		<tag k="building" v="cabin" />
		<tag k="name" v="Biktjørn" />
		<tag k="place" v="isolated_dwelling" />
		<tag k="ssr:stedsnr" v="854" />
		<tag k="ssr:type" v="fritidsbolig" />
	</node>
	<node changeset="58770998" id="5603021432" lat="58.335175" lon="7.4092722" timestamp="2018-05-07T21:17:52Z" uid="3842253" user="NKA_import" version="1">
		<tag k="name" v="Nåstad" />
		<tag k="place" v="farm" />
		<tag k="ssr:stedsnr" v="808" />
		<tag k="ssr:type" v="bruk" />
	</node>
	<node changeset="58770998" id="5603021433" lat="58.4898361" lon="7.4833972" timestamp="2018-05-07T21:17:52Z" uid="3842253" user="NKA_import" version="1">
		<tag k="name" v="Lian" />
		<tag k="place" v="farm" />
		<tag k="ssr:stedsnr" v="340168" />
		<tag k="ssr:type" v="bruk" />
	</node>
	<node changeset="58770998" id="5603021434" lat="58.2537417" lon="7.3897445" timestamp="2018-05-07T21:17:52Z" uid="3842253" user="NKA_import" version="1">
		<tag k="alt_name" v="Stavedal" />
		<tag k="name" v="Stavedalen" />
		<tag k="place" v="farm" />
		<tag k="ssr:stedsnr" v="849248" />
		<tag k="ssr:type" v="gard" />
	</node>
	<node changeset="58770998" id="5603021435" lat="58.3584278" lon="7.3967139" timestamp="2018-05-07T21:17:52Z" uid="3842253" user="NKA_import" version="1">
		<tag k="name" v="Grytinga" />
		<tag k="place" v="farm" />
		<tag k="ssr:stedsnr" v="158970" />
		<tag k="ssr:type" v="bruk" />
	</node>
	<node changeset="58770998" id="5603021436" lat="58.310225" lon="7.33575" timestamp="2018-05-07T21:17:52Z" uid="3842253" user="NKA_import" version="1">
		<tag k="name" v="Hellesheia" />
		<tag k="place" v="farm" />
		<tag k="ssr:stedsnr" v="849557" />
		<tag k="ssr:type" v="bruk" />
	</node>
	<node changeset="58770998" id="5603021437" lat="58.2787417" lon="7.3332333" timestamp="2018-05-07T21:17:52Z" uid="3842253" user="NKA_import" version="1">
		<tag k="name" v="Augland" />
		<tag k="place" v="farm" />
		<tag k="ssr:stedsnr" v="850514" />
		<tag k="ssr:type" v="gard" />
	</node>
	<node changeset="58770998" id="5603021438" lat="58.4669" lon="7.4539306" timestamp="2018-05-07T21:17:52Z" uid="3842253" user="NKA_import" version="1">
		<tag k="name" v="Smedsland" />
		<tag k="place" v="farm" />
		<tag k="ssr:stedsnr" v="849602" />
		<tag k="ssr:type" v="bruk" />
	</node>
	<node changeset="58770998" id="5603021439" lat="58.3302556" lon="7.3418944" timestamp="2018-05-07T21:17:52Z" uid="3842253" user="NKA_import" version="1">
		<tag k="alt_name" v="Brokka" />
		<tag k="building" v="cabin" />
		<tag k="name" v="Brokke" />
		<tag k="place" v="isolated_dwelling" />
		<tag k="ssr:stedsnr" v="850549" />
		<tag k="ssr:type" v="fritidsbolig" />
	</node>
	<node changeset="58770998" id="5603021440" lat="58.2438139" lon="7.4024861" timestamp="2018-05-07T21:17:53Z" uid="3842253" user="NKA_import" version="1">
		<tag k="alt_name" v="Ytre Hvreseland" />
		<tag k="name" v="Ytre Havre Seland" />
		<tag k="place" v="farm" />
		<tag k="ssr:stedsnr" v="158876" />
		<tag k="ssr:type" v="bruk" />
	</node>
	<node changeset="58770998" id="5603021441" lat="58.2679139" lon="7.312375" timestamp="2018-05-07T21:17:53Z" uid="3842253" user="NKA_import" version="1">
		<tag k="name" v="Hægeland" />
		<tag k="place" v="farm" />
		<tag k="ssr:stedsnr" v="850601" />
		<tag k="ssr:type" v="bruk" />
	</node>
	<node changeset="58770998" id="5603021442" lat="58.2467611" lon="7.4016111" timestamp="2018-05-07T21:17:53Z" uid="3842253" user="NKA_import" version="1">
		<tag k="alt_name" v="Havre Seland" />
		<tag k="name" v="Havreseland" />
		<tag k="place" v="farm" />
		<tag k="ssr:stedsnr" v="850615" />
		<tag k="ssr:type" v="gard" />
	</node>
	<node changeset="58770998" id="5603021443" lat="58.2835472" lon="7.30695" timestamp="2018-05-07T21:17:53Z" uid="3842253" user="NKA_import" version="1">
		<tag k="loc_name" v="Bruliå" />
		<tag k="name" v="Brulia" />
		<tag k="place" v="farm" />
		<tag k="ssr:stedsnr" v="182508" />
		<tag k="ssr:type" v="bruk" />
	</node>
	<node changeset="58770998" id="5603021444" lat="58.4867806" lon="7.4838745" timestamp="2018-05-07T21:17:53Z" uid="3842253" user="NKA_import" version="1">
		<tag k="name" v="Butveit" />
		<tag k="place" v="hamlet" />
		<tag k="ssr:stedsnr" v="182595" />
		<tag k="ssr:type" v="gard" />
	</node>
	<node changeset="58770998" id="5603021445" lat="58.2601389" lon="7.3506361" timestamp="2018-05-07T21:17:53Z" uid="3842253" user="NKA_import" version="1">
		<tag k="alt_name" v="Hommemoen" />
		<tag k="name" v="Hommoen" />
		<tag k="place" v="farm" />
		<tag k="ssr:stedsnr" v="850843" />
		<tag k="ssr:type" v="bruk" />
	</node>
	<node changeset="58770998" id="5603021446" lat="58.3246972" lon="7.4003861" timestamp="2018-05-07T21:17:53Z" uid="3842253" user="NKA_import" version="1">
		<tag k="name" v="Strisland" />
		<tag k="place" v="hamlet" />
		<tag k="ssr:stedsnr" v="182729" />
		<tag k="ssr:type" v="gard" />
	</node>
	<node changeset="58770998" id="5603021447" lat="58.2704028" lon="7.3233944" timestamp="2018-05-07T21:17:53Z" uid="3842253" user="NKA_import" version="1">
		<tag k="name" v="Roset" />
		<tag k="place" v="locality" />
		<tag k="ssr:stedsnr" v="36829" />
		<tag k="ssr:type" v="gammelBosettingsplass" />
	</node>
	<node changeset="58770998" id="5603021448" lat="58.4277778" lon="7.3718139" timestamp="2018-05-07T21:17:53Z" uid="3842253" user="NKA_import" version="1">
		<tag k="name" v="Botnan" />
		<tag k="place" v="farm" />
		<tag k="ssr:stedsnr" v="850878" />
		<tag k="ssr:type" v="gard" />
	</node>
	<node changeset="58770998" id="5603021449" lat="58.4162749" lon="7.4073958" timestamp="2018-05-07T21:17:53Z" uid="3842253" user="NKA_import" version="1">
		<tag k="name" v="Hårtveit" />
		<tag k="place" v="hamlet" />
		<tag k="ssr:stedsnr" v="850884" />
		<tag k="ssr:type" v="gard" />
	</node>
	<node changeset="58770998" id="5603021450" lat="58.41385" lon="7.3692972" timestamp="2018-05-07T21:17:53Z" uid="3842253" user="NKA_import" version="1">
		<tag k="name" v="Bakkan" />
		<tag k="place" v="farm" />
		<tag k="ssr:stedsnr" v="850881" />
		<tag k="ssr:type" v="bruk" />
	</node>
	<node changeset="58770998" id="5603021451" lat="58.3788611" lon="7.3665528" timestamp="2018-05-07T21:17:54Z" uid="3842253" user="NKA_import" version="1">
		<tag k="name" v="Stedjan" />
		<tag k="place" v="farm" />
		<tag k="ssr:stedsnr" v="182983" />
		<tag k="ssr:type" v="bruk" />
	</node>
	<node changeset="58770998" id="5603021452" lat="58.3586861" lon="7.3829694" timestamp="2018-05-07T21:17:54Z" uid="3842253" user="NKA_import" version="1">
		<tag k="loc_name" v="Sannen" />
		<tag k="name" v="Sanden" />
		<tag k="place" v="farm" />
		<tag k="ssr:stedsnr" v="850949" />
		<tag k="ssr:type" v="bruk" />
	</node>
	<node changeset="58770998" id="5603021453" lat="58.2469194" lon="7.3827139" timestamp="2018-05-07T21:17:54Z" uid="3842253" user="NKA_import" version="1">
		<tag k="name" v="Nerejordet" />
		<tag k="place" v="farm" />
		<tag k="ssr:stedsnr" v="36873" />
		<tag k="ssr:type" v="bruk" />
	</node>
	<node changeset="58770998" id="5603021454" lat="58.2465917" lon="7.262175" timestamp="2018-05-07T21:17:54Z" uid="3842253" user="NKA_import" version="1">
		<tag k="alt_name" v="Eigebø" />
		<tag k="name" v="Eikjebø" />
		<tag k="place" v="farm" />
		<tag k="ssr:stedsnr" v="910378" />
		<tag k="ssr:type" v="bruk" />
	</node>
	<node changeset="58770998" id="5603021455" lat="58.3253722" lon="7.4075528" timestamp="2018-05-07T21:17:54Z" uid="3842253" user="NKA_import" version="1">
		<tag k="name" v="Kisland" />
		<tag k="place" v="farm" />
		<tag k="ssr:stedsnr" v="522966" />
		<tag k="ssr:type" v="gard" />
	</node>
	<node changeset="58770998" id="5603021456" lat="58.2434583" lon="7.3663639" timestamp="2018-05-07T21:17:54Z" uid="3842253" user="NKA_import" version="1">
		<tag k="loc_name" v="Myrå" />
		<tag k="name" v="Myra" />
		<tag k="place" v="locality" />
		<tag k="ssr:stedsnr" v="36877" />
		<tag k="ssr:type" v="eiendom" />
	</node>
	<node changeset="58770998" id="5603021457" lat="58.337174" lon="7.3732286" timestamp="2018-05-07T21:17:54Z" uid="3842253" user="NKA_import" version="1">
		<tag k="alt_name" v="Langneset" />
		<tag k="name" v="Langsneset" />
		<tag k="place" v="farm" />
		<tag k="ssr:stedsnr" v="910800" />
		<tag k="ssr:type" v="gard" />
	</node>
	<node changeset="58770998" id="5603021458" lat="58.2381843" lon="7.3647548" timestamp="2018-05-07T21:17:54Z" uid="3842253" user="NKA_import" version="1">
		<tag k="name" v="Listad" />
		<tag k="place" v="farm" />
		<tag k="ssr:stedsnr" v="910647" />
		<tag k="ssr:type" v="gard" />
	</node>
	<node changeset="58770998" id="5603021459" lat="58.299925" lon="7.359131" timestamp="2018-05-07T21:17:54Z" uid="3842253" user="NKA_import" version="1">
		<tag k="name" v="Monan" />
		<tag k="place" v="farm" />
		<tag k="ssr:stedsnr" v="910864" />
		<tag k="ssr:type" v="bruk" />
	</node>
	<node changeset="58770998" id="5603021460" lat="58.4090056" lon="7.4192111" timestamp="2018-05-07T21:17:54Z" uid="3842253" user="NKA_import" version="1">
		<tag k="name" v="Ågedal" />
		<tag k="place" v="hamlet" />
		<tag k="ssr:stedsnr" v="910905" />
		<tag k="ssr:type" v="bruk" />
	</node>
	<node changeset="58770998" id="5603021461" lat="58.2542849" lon="7.3501779" timestamp="2018-05-07T21:17:54Z" uid="3842253" user="NKA_import" version="1">
		<tag k="alt_name" v="Viblemo" />
		<tag k="name" v="Vivlemo" />
		<tag k="place" v="hamlet" />
		<tag k="ssr:stedsnr" v="546206" />
		<tag k="ssr:type" v="gard" />
	</node>
	<node changeset="58770998" id="5603021462" lat="58.4569806" lon="7.4250361" timestamp="2018-05-07T21:17:54Z" uid="3842253" user="NKA_import" version="1">
		<tag k="alt_name" v="Botnan" />
		<tag k="name" v="Vassbotnen" />
		<tag k="place" v="farm" />
		<tag k="ssr:stedsnr" v="910921" />
		<tag k="ssr:type" v="gard" />
	</node>
	<node changeset="58770998" id="5603021463" lat="58.2462278" lon="7.3425611" timestamp="2018-05-07T21:17:55Z" uid="3842253" user="NKA_import" version="1">
		<tag k="name" v="Indre Skår" />
		<tag k="place" v="farm" />
		<tag k="ssr:stedsnr" v="340861" />
		<tag k="ssr:type" v="gard" />
	</node>
	<node changeset="58770998" id="5603021464" lat="58.4637928" lon="7.4275771" timestamp="2018-05-07T21:17:55Z" uid="3842253" user="NKA_import" version="1">
		<tag k="alt_name" v="Brandsdalen;Bronnesdal" />
		<tag k="name" v="Bransdal" />
		<tag k="place" v="farm" />
		<tag k="ssr:stedsnr" v="546521" />
		<tag k="ssr:type" v="gard" />
	</node>
	<node changeset="58770998" id="5603021465" lat="58.3608611" lon="7.3393778" timestamp="2018-05-07T21:17:55Z" uid="3842253" user="NKA_import" version="1">
		<tag k="name" v="Høyland" />
		<tag k="place" v="hamlet" />
		<tag k="ssr:stedsnr" v="546674" />
		<tag k="ssr:type" v="bruk" />
	</node>
	<node changeset="58770998" id="5603021466" lat="58.3738806" lon="7.3776694" timestamp="2018-05-07T21:17:55Z" uid="3842253" user="NKA_import" version="1">
		<tag k="name" v="Fjaddåkeren" />
		<tag k="place" v="farm" />
		<tag k="ssr:stedsnr" v="947021" />
		<tag k="ssr:type" v="bruk" />
	</node>
	<node changeset="58770998" id="5603021467" lat="58.4298972" lon="7.3244889" timestamp="2018-05-07T21:17:55Z" uid="3842253" user="NKA_import" version="1">
		<tag k="name" v="Løland" />
		<tag k="place" v="farm" />
		<tag k="ssr:stedsnr" v="37054" />
		<tag k="ssr:type" v="gard" />
	</node>
	<node changeset="58770998" id="5603021468" lat="58.3424639" lon="7.4008639" timestamp="2018-05-07T21:17:55Z" uid="3842253" user="NKA_import" version="1">
		<tag k="building" v="cabin" />
		<tag k="loc_name" v="Leinlann" />
		<tag k="name" v="Leinland" />
		<tag k="place" v="isolated_dwelling" />
		<tag k="ssr:stedsnr" v="546756" />
		<tag k="ssr:type" v="fritidsbolig" />
	</node>
	<node changeset="58770998" id="5603021469" lat="58.2977751" lon="7.3534083" timestamp="2018-05-07T21:17:55Z" uid="3842253" user="NKA_import" version="1">
		<tag k="loc_name" v="Der heima" />
		<tag k="name" v="Kleivan" />
		<tag k="place" v="farm" />
		<tag k="ssr:stedsnr" v="546843" />
		<tag k="ssr:type" v="bruk" />
	</node>
	<node changeset="58770998" id="5603021470" lat="58.2683437" lon="7.3863233" timestamp="2018-05-07T21:17:55Z" uid="3842253" user="NKA_import" version="1">
		<tag k="loc_name" v="Der Heima" />
		<tag k="name" v="Høyland" />
		<tag k="place" v="hamlet" />
		<tag k="ssr:stedsnr" v="546824" />
		<tag k="ssr:type" v="bruk" />
	</node>
	<node changeset="58770998" id="5603021471" lat="58.3528417" lon="7.38505" timestamp="2018-05-07T21:17:55Z" uid="3842253" user="NKA_import" version="1">
		<tag k="name" v="Monen" />
		<tag k="place" v="farm" />
		<tag k="ssr:stedsnr" v="340965" />
		<tag k="ssr:type" v="bruk" />
	</node>
	<node changeset="58770998" id="5603021472" lat="58.4288167" lon="7.4571139" timestamp="2018-05-07T21:17:55Z" uid="3842253" user="NKA_import" version="1">
		<tag k="alt_name" v="Utbostad" />
		<tag k="loc_name" v="Der nede" />
		<tag k="name" v="Ubostad" />
		<tag k="place" v="farm" />
		<tag k="ssr:stedsnr" v="546861" />
		<tag k="ssr:type" v="bruk" />
	</node>
	<node changeset="58770998" id="5603021473" lat="58.341225" lon="7.4166945" timestamp="2018-05-07T21:17:56Z" uid="3842253" user="NKA_import" version="1">
		<tag k="name" v="Under Brotan" />
		<tag k="place" v="farm" />
		<tag k="ssr:stedsnr" v="340987" />
		<tag k="ssr:type" v="bruk" />
	</node>
	<node changeset="58770998" id="5603021474" lat="58.3542667" lon="7.4218972" timestamp="2018-05-07T21:17:56Z" uid="3842253" user="NKA_import" version="1">
		<tag k="name" v="Langåsen" />
		<tag k="place" v="farm" />
		<tag k="ssr:stedsnr" v="546952" />
		<tag k="ssr:type" v="gard" />
	</node>
	<node changeset="58770998" id="5603021475" lat="58.3519766" lon="7.3243265" timestamp="2018-05-07T21:17:56Z" uid="3842253" user="NKA_import" version="1">
		<tag k="name" v="Iveland" />
		<tag k="place" v="hamlet" />
		<tag k="ssr:stedsnr" v="570147" />
		<tag k="ssr:type" v="grend" />
	</node>
	<node changeset="58770998" id="5603021171" lat="58.4188314" lon="7.3980459" timestamp="2018-05-07T21:17:46Z" uid="3842253" user="NKA_import" version="1">
		<tag k="name" v="Byremo" />
		<tag k="place" v="farm" />
		<tag k="ssr:stedsnr" v="979404" />
		<tag k="ssr:type" v="gard" />
	</node>
	<node changeset="58770998" id="899535542" lat="58.2792409" lon="7.2906883" timestamp="2018-05-07T21:17:57Z" uid="3842253" user="NKA_import" version="2">
		<tag k="name" v="Barstad" />
		<tag k="place" v="hamlet" />
		<tag k="ssr:stedsnr" v="979386" />
		<tag k="ssr:type" v="gard" />
	</node>
	<node changeset="58770998" id="5603021173" lat="58.3784058" lon="7.3308466" timestamp="2018-05-07T21:17:46Z" uid="3842253" user="NKA_import" version="1">
		<tag k="name" v="Øyheien" />
		<tag k="place" v="farm" />
		<tag k="ssr:stedsnr" v="979405" />
		<tag k="ssr:type" v="gard" />
	</node>
	<node changeset="58770998" id="527384696" lat="58.3523806" lon="7.3858028" timestamp="2018-05-07T21:17:56Z" uid="3842253" user="NKA_import" version="2">
		<tag k="alt_name" v="Ågedalstø" />
		<tag k="name" v="Ågedalstøi" />
		<tag k="place" v="hamlet" />
		<tag k="ssr:stedsnr" v="667970" />
		<tag k="ssr:type" v="bruk" />
	</node>
	<node changeset="58770998" id="5603021182" lat="58.4084116" lon="7.4179497" timestamp="2018-05-07T21:17:47Z" uid="3842253" user="NKA_import" version="1">
		<tag k="name" v="Øvre Ågedal" />
		<tag k="place" v="farm" />
		<tag k="ssr:stedsnr" v="979415" />
		<tag k="ssr:type" v="gard" />
	</node>
	<node changeset="58770998" id="899534975" lat="58.2893107" lon="7.2711451" timestamp="2018-05-07T21:17:57Z" uid="3842253" user="NKA_import" version="2">
		<tag k="name" v="Åbestad" />
		<tag k="place" v="hamlet" />
		<tag k="ssr:stedsnr" v="121521" />
		<tag k="ssr:type" v="gard" />
	</node>
	<node changeset="79171065" id="527385349" lat="58.4214873" lon="7.4025825" timestamp="2020-01-03T19:44:59Z" uid="3497659" user="NKA" version="3">
		<tag k="name" v="Byremo" />
		<tag k="place" v="village" />
		<tag k="population" v="279" />
		<tag k="population:date" v="2019-01-01" />
		<tag k="ref:ssb_tettsted" v="4132" />
		<tag k="ssr:stedsnr" v="910893" />
		<tag k="ssr:type" v="bygdelagBygd" />
	</node>
	<node changeset="58770998" id="3710171458" lat="58.4793409" lon="7.3878818" timestamp="2018-05-07T21:17:57Z" uid="3842253" user="NKA_import" version="2">
		<tag k="alt_name" v="Flottorp, øvre" />
		<tag k="name" v="Øvre Flottorp" />
		<tag k="place" v="hamlet" />
		<tag k="ssr:stedsnr" v="485544" />
		<tag k="ssr:type" v="gard" />
	</node>
	<node changeset="58770998" id="5603021126" lat="58.404435" lon="7.3439724" timestamp="2018-05-07T21:17:42Z" uid="3842253" user="NKA_import" version="1">
		<tag k="name" v="Ås" />
		<tag k="place" v="hamlet" />
		<tag k="ssr:stedsnr" v="364665" />
		<tag k="ssr:type" v="gard" />
	</node>
	<node changeset="58770998" id="5603021127" lat="58.3432556" lon="7.4198778" timestamp="2018-05-07T21:17:42Z" uid="3842253" user="NKA_import" version="1">
		<tag k="alt_name" v="Solberg" />
		<tag k="name" v="Solbjør" />
		<tag k="place" v="farm" />
		<tag k="ssr:stedsnr" v="364799" />
		<tag k="ssr:type" v="gard" />
	</node>
	<node changeset="58770998" id="5603021128" lat="58.4802" lon="7.3957056" timestamp="2018-05-07T21:17:42Z" uid="3842253" user="NKA_import" version="1">
		<tag k="name" v="Øygarden" />
		<tag k="place" v="farm" />
		<tag k="ssr:stedsnr" v="37191" />
		<tag k="ssr:type" v="bruk" />
	</node>
	<node changeset="58770998" id="5603021129" lat="58.4325278" lon="7.4102444" timestamp="2018-05-07T21:17:42Z" uid="3842253" user="NKA_import" version="1">
		<tag k="name" v="Stedjan" />
		<tag k="place" v="farm" />
		<tag k="ssr:stedsnr" v="728928" />
		<tag k="ssr:type" v="bruk" />
	</node>
	<node changeset="58770998" id="5603021130" lat="58.3254778" lon="7.3933" timestamp="2018-05-07T21:17:42Z" uid="3842253" user="NKA_import" version="1">
		<tag k="name" v="Røysen" />
		<tag k="place" v="farm" />
		<tag k="ssr:stedsnr" v="37988" />
		<tag k="ssr:type" v="gard" />
	</node>
	<node changeset="58770998" id="5603021131" lat="58.3238361" lon="7.2935417" timestamp="2018-05-07T21:17:42Z" uid="3842253" user="NKA_import" version="1">
		<tag k="name" v="Øvre Eikeland" />
		<tag k="place" v="locality" />
		<tag k="ssr:stedsnr" v="37791" />
		<tag k="ssr:type" v="gammelBosettingsplass" />
	</node>
	<node changeset="58770998" id="5603021132" lat="58.2803556" lon="7.2909139" timestamp="2018-05-07T21:17:42Z" uid="3842253" user="NKA_import" version="1">
		<tag k="loc_name" v="Hampen" />
		<tag k="name" v="Hagen" />
		<tag k="place" v="farm" />
		<tag k="ssr:stedsnr" v="219939" />
		<tag k="ssr:type" v="bruk" />
	</node>
	<node changeset="58770998" id="5603021133" lat="58.3863417" lon="7.4432222" timestamp="2018-05-07T21:17:42Z" uid="3842253" user="NKA_import" version="1">
		<tag k="name" v="Skogen" />
		<tag k="place" v="farm" />
		<tag k="ssr:stedsnr" v="60994" />
		<tag k="ssr:type" v="bruk" />
	</node>
	<node changeset="58770998" id="5603021134" lat="58.3728444" lon="7.3561778" timestamp="2018-05-07T21:17:42Z" uid="3842253" user="NKA_import" version="1">
		<tag k="name" v="Kleppan" />
		<tag k="place" v="farm" />
		<tag k="ssr:stedsnr" v="60945" />
		<tag k="ssr:type" v="bruk" />
	</node>
	<node changeset="58770998" id="5603021135" lat="58.4833702" lon="7.4537832" timestamp="2018-05-07T21:17:43Z" uid="3842253" user="NKA_import" version="1">
		<tag k="alt_name" v="Svindal, vestre" />
		<tag k="name" v="Vestre Sveindal" />
		<tag k="place" v="hamlet" />
		<tag k="ssr:stedsnr" v="61580" />
		<tag k="ssr:type" v="gard" />
	</node>
	<node changeset="58770998" id="5603021136" lat="58.332225" lon="7.3227972" timestamp="2018-05-07T21:17:43Z" uid="3842253" user="NKA_import" version="1">
		<tag k="alt_name" v="Hellevatn" />
		<tag k="name" v="Hellevann" />
		<tag k="place" v="farm" />
		<tag k="ssr:stedsnr" v="61531" />
		<tag k="ssr:type" v="gard" />
	</node>
	<node changeset="58770998" id="5603021137" lat="58.2375194" lon="7.3751139" timestamp="2018-05-07T21:17:43Z" uid="3842253" user="NKA_import" version="1">
		<tag k="name" v="Kvidalen" />
		<tag k="place" v="locality" />
		<tag k="ssr:stedsnr" v="947867" />
		<tag k="ssr:type" v="gammelBosettingsplass" />
	</node>
	<node changeset="58770998" id="5603021138" lat="58.3228083" lon="7.3985778" timestamp="2018-05-07T21:17:43Z" uid="3842253" user="NKA_import" version="1">
		<tag k="name" v="Voddan" />
		<tag k="place" v="farm" />
		<tag k="ssr:stedsnr" v="219977" />
		<tag k="ssr:type" v="bruk" />
	</node>
	<node changeset="58770998" id="5603021139" lat="58.3006139" lon="7.2592111" timestamp="2018-05-07T21:17:43Z" uid="3842253" user="NKA_import" version="1">
		<tag k="name" v="Røyseland" />
		<tag k="place" v="locality" />
		<tag k="ssr:stedsnr" v="947882" />
		<tag k="ssr:type" v="gammelBosettingsplass" />
	</node>
	<node changeset="58770998" id="5603021140" lat="58.3514028" lon="7.3846639" timestamp="2018-05-07T21:17:43Z" uid="3842253" user="NKA_import" version="1">
		<tag k="alt_name" v="Ødegård" />
		<tag k="name" v="Øygard" />
		<tag k="place" v="farm" />
		<tag k="ssr:stedsnr" v="61776" />
		<tag k="ssr:type" v="bruk" />
	</node>
	<node changeset="58770998" id="5603021141" lat="58.4063194" lon="7.40885" timestamp="2018-05-07T21:17:43Z" uid="3842253" user="NKA_import" version="1">
		<tag k="alt_name" v="Rudlend" />
		<tag k="name" v="Rydlendet" />
		<tag k="place" v="farm" />
		<tag k="ssr:stedsnr" v="61901" />
		<tag k="ssr:type" v="gard" />
	</node>
	<node changeset="58770998" id="5603021142" lat="58.4078389" lon="7.3586056" timestamp="2018-05-07T21:17:43Z" uid="3842253" user="NKA_import" version="1">
		<tag k="name" v="Vestegarden" />
		<tag k="place" v="farm" />
		<tag k="ssr:stedsnr" v="61899" />
		<tag k="ssr:type" v="bruk" />
	</node>
	<node changeset="58770998" id="5603021143" lat="58.4840523" lon="7.4638446" timestamp="2018-05-07T21:17:43Z" uid="3842253" user="NKA_import" version="1">
		<tag k="name" v="Lunden" />
		<tag k="place" v="neighbourhood" />
		<tag k="ssr:stedsnr" v="243596" />
		<tag k="ssr:type" v="bruk" />
	</node>
	<node changeset="58770998" id="5603021144" lat="58.3566389" lon="7.3984861" timestamp="2018-05-07T21:17:44Z" uid="3842253" user="NKA_import" version="1">
		<tag k="loc_name" v="Røyjordæ" />
		<tag k="name" v="Røyjordet" />
		<tag k="place" v="farm" />
		<tag k="ssr:stedsnr" v="61958" />
		<tag k="ssr:type" v="bruk" />
	</node>
	<node changeset="58770998" id="5603021145" lat="58.4063028" lon="7.3663083" timestamp="2018-05-07T21:17:44Z" uid="3842253" user="NKA_import" version="1">
		<tag k="alt_name" v="Øydna, øvre;Øvre Øydne" />
		<tag k="name" v="Øvre Øydna" />
		<tag k="place" v="hamlet" />
		<tag k="ssr:stedsnr" v="243897" />
		<tag k="ssr:type" v="gard" />
	</node>
	<node changeset="58770998" id="5603021146" lat="58.4158677" lon="7.3835826" timestamp="2018-05-07T21:17:44Z" uid="3842253" user="NKA_import" version="1">
		<tag k="name" v="Golevik" />
		<tag k="place" v="hamlet" />
		<tag k="ssr:stedsnr" v="243870" />
		<tag k="ssr:type" v="bruk" />
	</node>
	<node changeset="58770998" id="5603021147" lat="58.44055" lon="7.4080472" timestamp="2018-05-07T21:17:44Z" uid="3842253" user="NKA_import" version="1">
		<tag k="name" v="Skår" />
		<tag k="place" v="farm" />
		<tag k="ssr:stedsnr" v="243911" />
		<tag k="ssr:type" v="gard" />
	</node>
	<node changeset="58770998" id="5603021148" lat="58.2625139" lon="7.3315944" timestamp="2018-05-07T21:17:44Z" uid="3842253" user="NKA_import" version="1">
		<tag k="name" v="Vrålstad" />
		<tag k="place" v="farm" />
		<tag k="ssr:stedsnr" v="425596" />
		<tag k="ssr:type" v="gard" />
	</node>
	<node changeset="58770998" id="5603021149" lat="58.492375" lon="7.4642417" timestamp="2018-05-07T21:17:44Z" uid="3842253" user="NKA_import" version="1">
		<tag k="alt_name" v="Svindal, østre;Østre Sveindal" />
		<tag k="name" v="Austre Sveindal" />
		<tag k="place" v="hamlet" />
		<tag k="ssr:stedsnr" v="425574" />
		<tag k="ssr:type" v="gard" />
	</node>
	<node changeset="58770998" id="5603021150" lat="58.5041889" lon="7.4730444" timestamp="2018-05-07T21:17:44Z" uid="3842253" user="NKA_import" version="1">
		<tag k="name" v="Gyros øygard" />
		<tag k="place" v="locality" />
		<tag k="ssr:stedsnr" v="97221" />
		<tag k="ssr:type" v="gammelBosettingsplass" />
	</node>
	<node changeset="58770998" id="5603021151" lat="58.3050823" lon="7.2678002" timestamp="2018-05-07T21:17:44Z" uid="3842253" user="NKA_import" version="1">
		<tag k="name" v="Røyseland" />
		<tag k="place" v="farm" />
		<tag k="ssr:stedsnr" v="979385" />
		<tag k="ssr:type" v="gard" />
	</node>
	<node changeset="58770998" id="5603021152" lat="58.3311222" lon="7.3531444" timestamp="2018-05-07T21:17:44Z" uid="3842253" user="NKA_import" version="1">
		<tag k="name" v="Undeland" />
		<tag k="place" v="farm" />
		<tag k="ssr:stedsnr" v="425774" />
		<tag k="ssr:type" v="gard" />
	</node>
	<node changeset="58770998" id="5603021153" lat="58.4829333" lon="7.4633806" timestamp="2018-05-07T21:17:44Z" uid="3842253" user="NKA_import" version="1">
		<tag k="name" v="Fidje" />
		<tag k="place" v="farm" />
		<tag k="ssr:stedsnr" v="401181" />
		<tag k="ssr:type" v="bruk" />
	</node>
	<node changeset="58770998" id="5603021154" lat="58.2814161" lon="7.3341152" timestamp="2018-05-07T21:17:44Z" uid="3842253" user="NKA_import" version="1">
		<tag k="name" v="Østre Eikebø" />
		<tag k="place" v="farm" />
		<tag k="ssr:stedsnr" v="979388" />
		<tag k="ssr:type" v="gard" />
	</node>
	<node changeset="58770998" id="5603021155" lat="58.2720861" lon="7.3553055" timestamp="2018-05-07T21:17:44Z" uid="3842253" user="NKA_import" version="1">
		<tag k="alt_name" v="Bordalen" />
		<tag k="name" v="Bordal" />
		<tag k="place" v="farm" />
		<tag k="ssr:stedsnr" v="606818" />
		<tag k="ssr:type" v="bruk" />
	</node>
	<node changeset="58770998" id="5603021156" lat="58.2684584" lon="7.3116768" timestamp="2018-05-07T21:17:45Z" uid="3842253" user="NKA_import" version="1">
		<tag k="name" v="Vestre Hægeland" />
		<tag k="place" v="farm" />
		<tag k="ssr:stedsnr" v="979389" />
		<tag k="ssr:type" v="gard" />
	</node>
	<node changeset="58770998" id="5603021157" lat="58.265023" lon="7.347558" timestamp="2018-05-07T21:17:45Z" uid="3842253" user="NKA_import" version="1">
		<tag k="loc_name" v="På ægrå" />
		<tag k="name" v="Seland" />
		<tag k="place" v="hamlet" />
		<tag k="ssr:stedsnr" v="606835" />
		<tag k="ssr:type" v="bruk" />
	</node>
	<node changeset="58770998" id="5603021158" lat="58.2990139" lon="7.3602613" timestamp="2018-05-07T21:17:45Z" uid="3842253" user="NKA_import" version="1">
		<tag k="loc_name" v="Storkemoen" />
		<tag k="name" v="Helle" />
		<tag k="place" v="neighbourhood" />
		<tag k="ssr:stedsnr" v="606861" />
		<tag k="ssr:type" v="bruk" />
	</node>
	<node changeset="58770998" id="5603021159" lat="58.3833694" lon="7.4166306" timestamp="2018-05-07T21:17:45Z" uid="3842253" user="NKA_import" version="1">
		<tag k="alt_name" v="Flåt" />
		<tag k="name" v="Flot" />
		<tag k="place" v="farm" />
		<tag k="ssr:stedsnr" v="425990" />
		<tag k="ssr:type" v="bruk" />
	</node>
	<node changeset="58770998" id="5603021160" lat="58.2472822" lon="7.2628193" timestamp="2018-05-07T21:17:45Z" uid="3842253" user="NKA_import" version="1">
		<tag k="name" v="Vestre Eikebø" />
		<tag k="place" v="farm" />
		<tag k="ssr:stedsnr" v="979390" />
		<tag k="ssr:type" v="gard" />
	</node>
	<node changeset="58770998" id="5603021161" lat="58.2542999" lon="7.324767" timestamp="2018-05-07T21:17:45Z" uid="3842253" user="NKA_import" version="1">
		<tag k="name" v="Ytre Eikeland" />
		<tag k="place" v="farm" />
		<tag k="ssr:stedsnr" v="979391" />
		<tag k="ssr:type" v="gard" />
	</node>
	<node changeset="58770998" id="5603021162" lat="58.46335" lon="7.3831556" timestamp="2018-05-07T21:17:45Z" uid="3842253" user="NKA_import" version="1">
		<tag k="alt_name" v="Flottorp, nedre" />
		<tag k="name" v="Nedre Flottorp" />
		<tag k="place" v="farm" />
		<tag k="ssr:stedsnr" v="606555" />
		<tag k="ssr:type" v="gard" />
	</node>
	<node changeset="58770998" id="5603021163" lat="58.2833367" lon="7.3593435" timestamp="2018-05-07T21:17:45Z" uid="3842253" user="NKA_import" version="1">
		<tag k="name" v="Konsmo" />
		<tag k="place" v="farm" />
		<tag k="ssr:stedsnr" v="979395" />
		<tag k="ssr:type" v="gard" />
	</node>
	<node changeset="58770998" id="5603021164" lat="58.2643373" lon="7.3486867" timestamp="2018-05-07T21:17:45Z" uid="3842253" user="NKA_import" version="1">
		<tag k="name" v="Skarpe-Seland" />
		<tag k="place" v="farm" />
		<tag k="ssr:stedsnr" v="979394" />
		<tag k="ssr:type" v="gard" />
	</node>
	<node changeset="58770998" id="5603021165" lat="58.3634417" lon="7.341625" timestamp="2018-05-07T21:17:45Z" uid="3842253" user="NKA_import" version="1">
		<tag k="loc_name" v="Der inne" />
		<tag k="name" v="Furebakkjen" />
		<tag k="place" v="farm" />
		<tag k="ssr:stedsnr" v="401963" />
		<tag k="ssr:type" v="bruk" />
	</node>
	<node changeset="58770998" id="5603021166" lat="58.2768135" lon="7.3961716" timestamp="2018-05-07T21:17:45Z" uid="3842253" user="NKA_import" version="1">
		<tag k="name" v="Espeland" />
		<tag k="place" v="farm" />
		<tag k="ssr:stedsnr" v="979398" />
		<tag k="ssr:type" v="gard" />
	</node>
	<node changeset="58770998" id="5603021167" lat="58.2454167" lon="7.3834639" timestamp="2018-05-07T21:17:45Z" uid="3842253" user="NKA_import" version="1">
		<tag k="loc_name" v="Fiddan" />
		<tag k="name" v="Fidland" />
		<tag k="place" v="farm" />
		<tag k="ssr:stedsnr" v="606625" />
		<tag k="ssr:type" v="gard" />
	</node>
	<node changeset="58770998" id="5603021168" lat="58.3264278" lon="7.4035639" timestamp="2018-05-07T21:17:46Z" uid="3842253" user="NKA_import" version="1">
		<tag k="name" v="Berslåten" />
		<tag k="place" v="farm" />
		<tag k="ssr:stedsnr" v="401973" />
		<tag k="ssr:type" v="bruk" />
	</node>
	<node changeset="58770998" id="5603021169" lat="58.4838611" lon="7.4814417" timestamp="2018-05-07T21:17:46Z" uid="3842253" user="NKA_import" version="1">
		<tag k="name" v="Myran" />
		<tag k="place" v="farm" />
		<tag k="ssr:stedsnr" v="461177" />
		<tag k="ssr:type" v="bruk" />
	</node>
	<node changeset="58770998" id="5603021170" lat="58.2565572" lon="7.4112225" timestamp="2018-05-07T21:17:46Z" uid="3842253" user="NKA_import" version="1">
		<tag k="name" v="Birkeland" />
		<tag k="place" v="hamlet" />
		<tag k="ssr:stedsnr" v="979401" />
		<tag k="ssr:type" v="gard" />
	</node>
	<node changeset="58770998" id="527385459" lat="58.4756926" lon="7.416688" timestamp="2018-05-07T21:17:56Z" uid="3842253" user="NKA_import" version="2">
		<tag k="name" v="Håland" />
		<tag k="place" v="hamlet" />
		<tag k="ssr:stedsnr" v="182573" />
		<tag k="ssr:type" v="gard" />
	</node>
	<node changeset="58770998" id="5603021172" lat="58.4242394" lon="7.3487468" timestamp="2018-05-07T21:17:46Z" uid="3842253" user="NKA_import" version="1">
		<tag k="name" v="Skåt" />
		<tag k="place" v="farm" />
		<tag k="ssr:stedsnr" v="979403" />
		<tag k="ssr:type" v="gard" />
	</node>
	<node changeset="58770998" id="527385461" lat="58.4885045" lon="7.4660949" timestamp="2018-05-07T21:17:56Z" uid="3842253" user="NKA_import" version="2">
		<tag k="name" v="Sveindal" />
		<tag k="place" v="village" />
		<tag k="ssr:stedsnr" v="813148" />
		<tag k="ssr:type" v="bygdelagBygd" />
	</node>
	<node changeset="58770998" id="5603021174" lat="58.3737556" lon="7.3752806" timestamp="2018-05-07T21:17:46Z" uid="3842253" user="NKA_import" version="1">
		<tag k="name" v="Valand" />
		<tag k="place" v="farm" />
		<tag k="ssr:stedsnr" v="606939" />
		<tag k="ssr:type" v="gard" />
	</node>
	<node changeset="58770998" id="5603021175" lat="58.4124292" lon="7.4008233" timestamp="2018-05-07T21:17:46Z" uid="3842253" user="NKA_import" version="1">
		<tag k="name" v="Refsnes" />
		<tag k="place" v="farm" />
		<tag k="ssr:stedsnr" v="979406" />
		<tag k="ssr:type" v="gard" />
	</node>
	<node changeset="58770998" id="5603021176" lat="58.3570722" lon="7.3407222" timestamp="2018-05-07T21:17:46Z" uid="3842253" user="NKA_import" version="1">
		<tag k="name" v="Holmen" />
		<tag k="place" v="farm" />
		<tag k="ssr:stedsnr" v="461216" />
		<tag k="ssr:type" v="bruk" />
	</node>
	<node changeset="58770998" id="5603021177" lat="58.4394021" lon="7.4168527" timestamp="2018-05-07T21:17:46Z" uid="3842253" user="NKA_import" version="1">
		<tag k="name" v="Grindheim" />
		<tag k="place" v="hamlet" />
		<tag k="ssr:stedsnr" v="979410" />
		<tag k="ssr:type" v="navnegard" />
	</node>
	<node changeset="58770998" id="5603021178" lat="58.4388246" lon="7.4146137" timestamp="2018-05-07T21:17:46Z" uid="3842253" user="NKA_import" version="1">
		<tag k="name" v="Ytre Grindheim" />
		<tag k="place" v="farm" />
		<tag k="ssr:stedsnr" v="979407" />
		<tag k="ssr:type" v="gard" />
	</node>
	<node changeset="58770998" id="5603021179" lat="58.2994944" lon="7.3019528" timestamp="2018-05-07T21:17:46Z" uid="3842253" user="NKA_import" version="1">
		<tag k="name" v="Koveland" />
		<tag k="place" v="farm" />
		<tag k="ssr:stedsnr" v="788522" />
		<tag k="ssr:type" v="gard" />
	</node>
	<node changeset="58770998" id="5603021180" lat="58.4297984" lon="7.4682002" timestamp="2018-05-07T21:17:47Z" uid="3842253" user="NKA_import" version="1">
		<tag k="name" v="Leland" />
		<tag k="place" v="hamlet" />
		<tag k="ssr:stedsnr" v="979413" />
		<tag k="ssr:type" v="gard" />
	</node>
	<node changeset="58770998" id="5603021181" lat="58.4317822" lon="7.4774731" timestamp="2018-05-07T21:17:47Z" uid="3842253" user="NKA_import" version="1">
		<tag k="name" v="Seland" />
		<tag k="place" v="farm" />
		<tag k="ssr:stedsnr" v="979412" />
		<tag k="ssr:type" v="gard" />
	</node>
	<node changeset="58770998" id="899535230" lat="58.2890444" lon="7.2544333" timestamp="2018-05-07T21:17:57Z" uid="3842253" user="NKA_import" version="3">
		<tag k="alt_name" v="Skopteland" />
		<tag k="name" v="Skofteland" />
		<tag k="place" v="farm" />
		<tag k="ssr:stedsnr" v="606513" />
		<tag k="ssr:type" v="gard" />
	</node>
	<node changeset="58770998" id="5603021183" lat="58.2525167" lon="7.3384694" timestamp="2018-05-07T21:17:47Z" uid="3842253" user="NKA_import" version="1">
		<tag k="alt_name" v="Bjodan" />
		<tag k="name" v="Bjodland" />
		<tag k="place" v="farm" />
		<tag k="ssr:stedsnr" v="789595" />
		<tag k="ssr:type" v="bruk" />
	</node>
	<node changeset="58770998" id="5603021184" lat="58.3872631" lon="7.4446492" timestamp="2018-05-07T21:17:47Z" uid="3842253" user="NKA_import" version="1">
		<tag k="name" v="Øvre Åsen" />
		<tag k="place" v="farm" />
		<tag k="ssr:stedsnr" v="979439" />
		<tag k="ssr:type" v="gard" />
	</node>
	<node changeset="58770998" id="5603021185" lat="58.3502923" lon="7.3827475" timestamp="2018-05-07T21:17:47Z" uid="3842253" user="NKA_import" version="1">
		<tag k="name" v="Ågedalstranden" />
		<tag k="place" v="farm" />
		<tag k="ssr:stedsnr" v="979441" />
		<tag k="ssr:type" v="gard" />
	</node>
	<node changeset="58770998" id="5603021186" lat="58.3846941" lon="7.4414624" timestamp="2018-05-07T21:17:47Z" uid="3842253" user="NKA_import" version="1">
		<tag k="name" v="Vestre Åsen" />
		<tag k="place" v="farm" />
		<tag k="ssr:stedsnr" v="979440" />
		<tag k="ssr:type" v="gard" />
	</node>
	<node changeset="58770998" id="5603021187" lat="58.2301528" lon="7.3599167" timestamp="2018-05-07T21:17:47Z" uid="3842253" user="NKA_import" version="1">
		<tag k="alt_name" v="Bumyrdal" />
		<tag k="name" v="Bumyrdalen" />
		<tag k="place" v="farm" />
		<tag k="ssr:stedsnr" v="789735" />
		<tag k="ssr:type" v="gard" />
	</node>
	<node changeset="58770998" id="5603021188" lat="58.3840897" lon="7.420425" timestamp="2018-05-07T21:17:47Z" uid="3842253" user="NKA_import" version="1">
		<tag k="name" v="Rosseland" />
		<tag k="place" v="farm" />
		<tag k="ssr:stedsnr" v="979444" />
		<tag k="ssr:type" v="gard" />
	</node>
	<node changeset="58770998" id="5603021189" lat="58.3307139" lon="7.3995" timestamp="2018-05-07T21:17:48Z" uid="3842253" user="NKA_import" version="1">
		<tag k="name" v="Midtbø" />
		<tag k="place" v="farm" />
		<tag k="ssr:stedsnr" v="789767" />
		<tag k="ssr:type" v="bruk" />
	</node>
	<node changeset="58770998" id="5603021190" lat="58.4418734" lon="7.4169095" timestamp="2018-05-07T21:17:48Z" uid="3842253" user="NKA_import" version="1">
		<tag k="name" v="Øvre Grindheim" />
		<tag k="place" v="farm" />
		<tag k="ssr:stedsnr" v="979408" />
		<tag k="ssr:type" v="gard" />
	</node>
	<node changeset="58770998" id="5603021191" lat="58.3854858" lon="7.4448155" timestamp="2018-05-07T21:17:48Z" uid="3842253" user="NKA_import" version="1">
		<tag k="name" v="Åsen" />
		<tag k="place" v="locality" />
		<tag k="ssr:stedsnr" v="979445" />
		<tag k="ssr:type" v="navnegard" />
	</node>
	<node changeset="58770998" id="5603021192" lat="58.3599139" lon="7.40405" timestamp="2018-05-07T21:17:48Z" uid="3842253" user="NKA_import" version="1">
		<tag k="alt_name" v="Ytre Ågedal" />
		<tag k="name" v="Ågedal" />
		<tag k="place" v="farm" />
		<tag k="ssr:stedsnr" v="789969" />
		<tag k="ssr:type" v="gard" />
	</node>
	<node changeset="58770998" id="5603021193" lat="58.4716303" lon="7.3885911" timestamp="2018-05-07T21:17:48Z" uid="3842253" user="NKA_import" version="1">
		<tag k="name" v="Fottorp" />
		<tag k="place" v="farm" />
		<tag k="ssr:stedsnr" v="979409" />
		<tag k="ssr:type" v="navnegard" />
	</node>
	<node changeset="58770998" id="5603021194" lat="58.283375" lon="7.3068444" timestamp="2018-05-07T21:17:48Z" uid="3842253" user="NKA_import" version="1">
		<tag k="name" v="Brulid" />
		<tag k="place" v="locality" />
		<tag k="ssr:stedsnr" v="461927" />
		<tag k="ssr:type" v="gammelBosettingsplass" />
	</node>
	<node changeset="58770998" id="5603021195" lat="58.3489222" lon="7.3866472" timestamp="2018-05-07T21:17:48Z" uid="3842253" user="NKA_import" version="1">
		<tag k="name" v="Tupten" />
		<tag k="place" v="farm" />
		<tag k="ssr:stedsnr" v="643241" />
		<tag k="ssr:type" v="bruk" />
	</node>
	<node changeset="58770998" id="5603021196" lat="58.3590417" lon="7.4135917" timestamp="2018-05-07T21:17:48Z" uid="3842253" user="NKA_import" version="1">
		<tag k="building" v="farm_auxiliary" />
		<tag k="name" v="Langåsbua" />
		<tag k="place" v="locality" />
		<tag k="ssr:stedsnr" v="643238" />
		<tag k="ssr:type" v="byggForJordbrukFiskeOgFangst" />
	</node>
	<node changeset="58770998" id="5603021197" lat="58.427675" lon="7.3634639" timestamp="2018-05-07T21:17:48Z" uid="3842253" user="NKA_import" version="1">
		<tag k="loc_name" v="Slettåsen" />
		<tag k="name" v="Sletåsen" />
		<tag k="place" v="farm" />
		<tag k="ssr:stedsnr" v="111533" />
		<tag k="ssr:type" v="bruk" />
	</node>
	<node changeset="58770998" id="5603021198" lat="58.2887056" lon="7.3118639" timestamp="2018-05-07T21:17:48Z" uid="3842253" user="NKA_import" version="1">
		<tag k="name" v="Bjåskog" />
		<tag k="place" v="locality" />
		<tag k="ssr:stedsnr" v="886301" />
		<tag k="ssr:type" v="gammelBosettingsplass" />
	</node>
	<node changeset="58770998" id="5603021199" lat="58.2548083" lon="7.3573333" timestamp="2018-05-07T21:17:48Z" uid="3842253" user="NKA_import" version="1">
		<tag k="name" v="Kleven" />
		<tag k="place" v="farm" />
		<tag k="ssr:stedsnr" v="643762" />
		<tag k="ssr:type" v="bruk" />
	</node>
	<node changeset="58770998" id="5603021200" lat="58.3047167" lon="7.3405639" timestamp="2018-05-07T21:17:49Z" uid="3842253" user="NKA_import" version="1">
		<tag k="alt_name" v="Høylungbakken" />
		<tag k="name" v="Høylombakken" />
		<tag k="place" v="locality" />
		<tag k="ssr:stedsnr" v="121534" />
		<tag k="ssr:type" v="gammelBosettingsplass" />
	</node>
	<node changeset="58770998" id="5603021201" lat="58.4992361" lon="7.4814805" timestamp="2018-05-07T21:17:49Z" uid="3842253" user="NKA_import" version="1">
		<tag k="name" v="Fugletveit" />
		<tag k="place" v="farm" />
		<tag k="ssr:stedsnr" v="121609" />
		<tag k="ssr:type" v="bruk" />
	</node>
	<node changeset="66515222" id="5603021202" lat="58.4746632" lon="7.4681825" timestamp="2019-01-21T19:22:14Z" uid="3497659" user="NKA" version="2">
		<tag k="name" v="Kollungtveit" />
		<tag k="place" v="hamlet" />
		<tag k="ssr:stedsnr" v="121571" />
		<tag k="ssr:type" v="gard" />
	</node>
	<node changeset="58770998" id="5603021203" lat="58.4018972" lon="7.3626111" timestamp="2018-05-07T21:17:49Z" uid="3842253" user="NKA_import" version="1">
		<tag k="name" v="Ekra" />
		<tag k="place" v="farm" />
		<tag k="ssr:stedsnr" v="485981" />
		<tag k="ssr:type" v="bruk" />
	</node>
	<node changeset="58770998" id="5603021204" lat="58.2968861" lon="7.3781806" timestamp="2018-05-07T21:17:49Z" uid="3842253" user="NKA_import" version="1">
		<tag k="alt_name" v="Hunsdal" />
		<tag k="name" v="Hundsdal" />
		<tag k="place" v="farm" />
		<tag k="ssr:stedsnr" v="121855" />
		<tag k="ssr:type" v="gard" />
	</node>
	<node changeset="58770998" id="5603021205" lat="58.3871417" lon="7.4259028" timestamp="2018-05-07T21:17:49Z" uid="3842253" user="NKA_import" version="1">
		<tag k="name" v="Dalan" />
		<tag k="place" v="farm" />
		<tag k="ssr:stedsnr" v="121989" />
		<tag k="ssr:type" v="bruk" />
	</node>
	<node changeset="58770998" id="5603021206" lat="58.2423472" lon="7.3389806" timestamp="2018-05-07T21:17:49Z" uid="3842253" user="NKA_import" version="1">
		<tag k="alt_name" v="Ytre Skår" />
		<tag k="name" v="Skår" />
		<tag k="place" v="farm" />
		<tag k="ssr:stedsnr" v="485322" />
		<tag k="ssr:type" v="gard" />
	</node>
	<node changeset="58770998" id="5603021207" lat="58.328" lon="7.308" timestamp="2018-05-07T21:17:49Z" uid="3842253" user="NKA_import" version="1">
		<tag k="alt_name" v="Gunleivstøl;Gunleifstøl" />
		<tag k="name" v="Gunnleivsstøl" />
		<tag k="place" v="farm" />
		<tag k="ssr:stedsnr" v="485499" />
		<tag k="ssr:type" v="gard" />
	</node>
	<node changeset="58770998" id="5603021208" lat="58.3252917" lon="7.31725" timestamp="2018-05-07T21:17:49Z" uid="3842253" user="NKA_import" version="1">
		<tag k="name" v="Hellestøl" />
		<tag k="place" v="farm" />
		<tag k="ssr:stedsnr" v="485495" />
		<tag k="ssr:type" v="gard" />
	</node>
	<node changeset="58770998" id="5603021209" lat="58.3063694" lon="7.4034556" timestamp="2018-05-07T21:17:49Z" uid="3842253" user="NKA_import" version="1">
		<tag k="name" v="Kvelland" />
		<tag k="place" v="farm" />
		<tag k="ssr:stedsnr" v="485725" />
		<tag k="ssr:type" v="gard" />
	</node>
	<node changeset="58770998" id="5603021210" lat="58.4135639" lon="7.4175" timestamp="2018-05-07T21:17:49Z" uid="3842253" user="NKA_import" version="1">
		<tag k="name" v="Åmot" />
		<tag k="place" v="farm" />
		<tag k="ssr:stedsnr" v="485878" />
		<tag k="ssr:type" v="bruk" />
	</node>
	<node changeset="58770998" id="5603021211" lat="58.2739985" lon="7.415303" timestamp="2018-05-07T21:17:50Z" uid="3842253" user="NKA_import" version="1">
		<tag k="alt_name" v="Skardstad" />
		<tag k="loc_name" v="Austigaren" />
		<tag k="name" v="Skarstad" />
		<tag k="place" v="farm" />
		<tag k="ssr:stedsnr" v="485786" />
		<tag k="ssr:type" v="bruk" />
	</node>
	<node changeset="58770998" id="5603021212" lat="58.3219" lon="7.2984389" timestamp="2018-05-07T21:17:50Z" uid="3842253" user="NKA_import" version="1">
		<tag k="name" v="Eikeland" />
		<tag k="place" v="farm" />
		<tag k="ssr:stedsnr" v="303544" />
		<tag k="ssr:type" v="bruk" />
	</node>
	<node changeset="58770998" id="5603021213" lat="58.2822361" lon="7.3339389" timestamp="2018-05-07T21:17:50Z" uid="3842253" user="NKA_import" version="1">
		<tag k="alt_name" v="Eigebø" />
		<tag k="name" v="Eikebø" />
		<tag k="place" v="farm" />
		<tag k="ssr:stedsnr" v="303507" />
		<tag k="ssr:type" v="bruk" />
	</node>
	<node changeset="58770998" id="5603021214" lat="58.2840493" lon="7.3582728" timestamp="2018-05-07T21:17:50Z" uid="3842253" user="NKA_import" version="1">
		<tag k="name" v="Lien" />
		<tag k="place" v="locality" />
		<tag k="ssr:stedsnr" v="666106" />
		<tag k="ssr:type" v="eiendom" />
	</node>
	<node changeset="58770998" id="5603021215" lat="58.3712278" lon="7.3578333" timestamp="2018-05-07T21:17:50Z" uid="3842253" user="NKA_import" version="1">
		<tag k="loc_name" v="Der oppe i Samloga" />
		<tag k="name" v="Samloka" />
		<tag k="place" v="farm" />
		<tag k="ssr:stedsnr" v="522017" />
		<tag k="ssr:type" v="bruk" />
	</node>
	<node changeset="58770998" id="5603021216" lat="58.3684556" lon="7.3785417" timestamp="2018-05-07T21:17:50Z" uid="3842253" user="NKA_import" version="1">
		<tag k="name" v="Utjordet" />
		<tag k="place" v="farm" />
		<tag k="ssr:stedsnr" v="158035" />
		<tag k="ssr:type" v="bruk" />
	</node>
	<node changeset="58770998" id="5603021217" lat="58.2545889" lon="7.3242778" timestamp="2018-05-07T21:17:50Z" uid="3842253" user="NKA_import" version="1">
		<tag k="alt_name" v="Eigeland" />
		<tag k="name" v="Eikeland" />
		<tag k="place" v="farm" />
		<tag k="ssr:stedsnr" v="303602" />
		<tag k="ssr:type" v="bruk" />
	</node>
	<node changeset="58770998" id="5603021218" lat="58.2616778" lon="7.2799667" timestamp="2018-05-07T21:17:50Z" uid="3842253" user="NKA_import" version="1">
		<tag k="name" v="Risdal" />
		<tag k="place" v="farm" />
		<tag k="ssr:stedsnr" v="303607" />
		<tag k="ssr:type" v="gard" />
	</node>
	<node changeset="58770998" id="5603021219" lat="58.2404956" lon="7.3466949" timestamp="2018-05-07T21:17:50Z" uid="3842253" user="NKA_import" version="1">
		<tag k="name" v="Geislefos" />
		<tag k="place" v="farm" />
		<tag k="ssr:stedsnr" v="667235" />
		<tag k="ssr:type" v="gard" />
	</node>
	<node changeset="58770998" id="5603021220" lat="58.3095111" lon="7.314825" timestamp="2018-05-07T21:17:51Z" uid="3842253" user="NKA_import" version="1">
		<tag k="alt_name" v="Sobelia" />
		<tag k="name" v="Såpelia" />
		<tag k="place" v="farm" />
		<tag k="ssr:stedsnr" v="667502" />
		<tag k="ssr:type" v="bruk" />
	</node>
	<node changeset="58770998" id="527384485" lat="58.2851599" lon="7.3557433" timestamp="2018-05-07T21:17:56Z" uid="3842253" user="NKA_import" version="2">
		<tag k="name" v="Konsmo" />
		<tag k="place" v="village" />
		<tag k="ssr:stedsnr" v="910880" />
		<tag k="ssr:type" v="bygdelagBygd" />
	</node>
	<node changeset="58770998" id="700244935" lat="58.2532045" lon="7.3019326" timestamp="2018-05-07T21:17:56Z" uid="3842253" user="NKA_import" version="2">
		<tag k="alt_name" v="Brastad" />
		<tag k="name" v="Brasstad" />
		<tag k="place" v="hamlet" />
		<tag k="ssr:stedsnr" v="850594" />
		<tag k="ssr:type" v="gard" />
	</node>
	<node changeset="58770998" id="700279776" lat="58.3329577" lon="7.3055748" timestamp="2018-05-07T21:17:57Z" uid="3842253" user="NKA_import" version="2">
		<tag k="name" v="Røynesdal" />
		<tag k="place" v="farm" />
		<tag k="ssr:stedsnr" v="425533" />
		<tag k="ssr:type" v="gard" />
	</node>
	<node changeset="58770998" id="527384562" lat="58.3225285" lon="7.3692664" timestamp="2018-05-07T21:17:56Z" uid="3842253" user="NKA_import" version="2">
		<tag k="alt_name" v="Øydnesklev" />
		<tag k="name" v="Øydneskleiv" />
		<tag k="place" v="hamlet" />
		<tag k="ssr:stedsnr" v="182745" />
		<tag k="ssr:type" v="gard" />
	</node>
	<node changeset="58770998" id="527385083" lat="58.3739295" lon="7.3664757" timestamp="2018-05-07T21:17:56Z" uid="3842253" user="NKA_import" version="3">
		<tag k="alt_name" v="Øydna, yt;Ytre Øydne" />
		<tag k="name" v="Ytre Øydna" />
		<tag k="place" v="hamlet" />
		<tag k="ssr:stedsnr" v="788944" />
		<tag k="ssr:type" v="gard" />
	</node>
</osm>
