<?xml version="1.0" encoding="UTF-8"?>
<osm generator="osmapis" version="0.6">
	<node id="-767708" lat="63.6022162426" lon="10.7999423158">
		<tag k="name" v="Litjhogstad" />
		<tag k="place" v="farm" />
		<tag k="ssr:stedsnr" v="986353" />
	</node>
	<node id="-767706" lat="63.5848496283" lon="10.7369933282">
		<tag k="name" v="Alstad østre" />
		<tag k="place" v="farm" />
		<tag k="ssr:stedsnr" v="985856" />
	</node>
	<node id="-767705" lat="63.5883935688" lon="10.7139872459">
		<tag k="name" v="Riset" />
		<tag k="place" v="farm" />
		<tag k="ssr:stedsnr" v="985556" />
	</node>
	<node id="-767704" lat="63.6330543645" lon="10.9142645343">
		<tag k="fixme" v="consider tourism=alpine_hut or tourism=chalet" />
		<tag k="name" v="Rapphytta" />
		<tag k="ssr:stedsnr" v="985448" />
		<tag k="tourism" v="wilderness_hut" />
	</node>
	<node id="-767703" lat="63.5769869501" lon="10.7474163632">
		<tag k="name" v="Vika" />
		<tag k="place" v="hamlet" />
		<tag k="ssr:stedsnr" v="976232" />
	</node>
	<node id="-767702" lat="63.5784777789" lon="10.694408326">
		<tag k="name" v="Hogstad" />
		<tag k="place" v="farm" />
		<tag k="ssr:stedsnr" v="959017" />
	</node>
	<node id="-767701" lat="63.5638249984" lon="10.7119416608">
		<tag k="name" v="Logsteinhaugen" />
		<tag k="natural" v="hill" />
		<tag k="place" v="locality" />
		<tag k="ssr:stedsnr" v="957642" />
	</node>
	<node id="-767700" lat="63.5744559194" lon="10.7540803397">
		<tag k="name" v="Vikaelva" />
		<tag k="ssr:stedsnr" v="957352" />
		<tag k="waterway" v="stream" />
	</node>
	<node id="-767699" lat="63.5716943306" lon="10.7620390637">
		<tag k="name" v="Moksnes" />
		<tag k="place" v="farm" />
		<tag k="ssr:stedsnr" v="957350" />
	</node>
	<node id="-767698" lat="63.6020111138" lon="10.8023555514">
		<tag k="name" v="Hogstadbekken" />
		<tag k="ssr:stedsnr" v="957293" />
		<tag k="waterway" v="stream" />
	</node>
	<node id="-767697" lat="63.6016837589" lon="10.7966398255">
		<tag k="fixme" v="consider place=hamlet" />
		<tag k="name" v="Hogstad" />
		<tag k="place" v="farm" />
		<tag k="ssr:stedsnr" v="957257" />
	</node>
	<node id="-767696" lat="63.5956112825" lon="10.8515269916">
		<tag k="name" v="Hansfjæra" />
		<tag k="natural" v="beach" />
		<tag k="place" v="locality" />
		<tag k="ssr:stedsnr" v="957198" />
	</node>
	<node id="-767695" lat="63.6108944449" lon="10.8736000044">
		<tag k="name" v="Badstumyra" />
		<tag k="natural" v="wetland" />
		<tag k="ssr:stedsnr" v="957194" />
	</node>
	<node id="-767694" lat="63.632274996" lon="10.9236249977">
		<tag k="name" v="Stordalen" />
		<tag k="natural" v="valley" />
		<tag k="place" v="locality" />
		<tag k="ssr:stedsnr" v="957108" />
	</node>
	<node id="-767693" lat="63.6429639475" lon="10.8925982208">
		<tag k="name" v="Brattåsmyran" />
		<tag k="natural" v="wetland" />
		<tag k="ssr:stedsnr" v="956172" />
	</node>
	<node id="-767692" lat="63.5482527754" lon="10.6683222319">
		<tag k="name" v="Nesvoll" />
		<tag k="place" v="isolated_dwelling" />
		<tag k="ssr:stedsnr" v="956136" />
	</node>
	<node id="-767691" lat="63.6542944464" lon="10.914847227">
		<tag k="name" v="Frosta statsallmenning" />
		<tag k="place" v="locality" />
		<tag k="ssr:stedsnr" v="956082" />
	</node>
	<node id="-767690" lat="63.6662722245" lon="10.9019305504">
		<tag k="name" v="Holmdalen" />
		<tag k="natural" v="valley" />
		<tag k="place" v="locality" />
		<tag k="ssr:stedsnr" v="956077" />
	</node>
	<node id="-767689" lat="63.647253064" lon="10.8559723024">
		<tag k="name" v="Sandåsen" />
		<tag k="natural" v="hill" />
		<tag k="place" v="locality" />
		<tag k="ssr:stedsnr" v="956071" />
	</node>
	<node id="-767688" lat="63.6366138865" lon="10.7802416753">
		<tag k="name" v="Fånestangen" />
		<tag k="natural" v="cape" />
		<tag k="ssr:stedsnr" v="863983" />
	</node>
	<node id="-767687" lat="63.6121079471" lon="10.7568342427">
		<tag k="fixme" v="consider place=hamlet" />
		<tag k="name" v="Solem" />
		<tag k="place" v="farm" />
		<tag k="ssr:stedsnr" v="863902" />
	</node>
	<node id="-767686" lat="63.613470414" lon="10.8795247523">
		<tag k="fixme" v="consider place=hamlet" />
		<tag k="name" v="Linsvekleiva" />
		<tag k="place" v="farm" />
		<tag k="ssr:stedsnr" v="863893" />
	</node>
	<node id="-767685" lat="63.6051444448" lon="10.7424166639">
		<tag k="name" v="Fagerheim" />
		<tag k="place" v="farm" />
		<tag k="ssr:stedsnr" v="863862" />
	</node>
	<node id="-767684" lat="63.5848694441" lon="10.7170555572">
		<tag k="alt_name" v="Vestre Risan;Risan vestre" />
		<tag k="name" v="Risan" />
		<tag k="place" v="farm" />
		<tag k="ssr:stedsnr" v="863307" />
	</node>
	<node id="-767683" lat="63.5902388886" lon="10.6978277791">
		<tag k="name" v="Granheim" />
		<tag k="place" v="isolated_dwelling" />
		<tag k="ssr:stedsnr" v="863303" />
	</node>
	<node id="-767682" lat="63.5842555568" lon="10.6405250096">
		<tag k="name" v="Åbåten" />
		<tag k="natural" v="cape" />
		<tag k="ssr:stedsnr" v="863218" />
	</node>
	<node id="-767681" lat="63.6563805569" lon="10.9050249926">
		<tag k="name" v="Krokvatnet" />
		<tag k="natural" v="water" />
		<tag k="ssr:stedsnr" v="863059" />
	</node>
	<node id="-767680" lat="63.6519083375" lon="10.8847472317">
		<tag k="name" v="Bjørnbettet" />
		<tag k="natural" v="hill" />
		<tag k="place" v="locality" />
		<tag k="ssr:stedsnr" v="863038" />
	</node>
	<node id="-767679" lat="63.6697722258" lon="10.8744722323">
		<tag k="fixme" v="multiple name tags, choose one and add the other to alt_name" />
		<tag k="name" v="Storholmen;Åsholmen" />
		<tag k="place" v="islet" />
		<tag k="ssr:stedsnr" v="863028" />
	</node>
	<node id="-767678" lat="63.6298583347" lon="10.7986916716">
		<tag k="name" v="Fredtun" />
		<tag k="place" v="farm" />
		<tag k="ssr:stedsnr" v="862993" />
	</node>
	<node id="-767677" lat="63.5612444464" lon="10.6932444538">
		<tag k="alt_name" v="Mo, vestre" />
		<tag k="fixme" v="multiple name tags, choose one and add the other to alt_name" />
		<tag k="name" v="Mo;Vestre Mo" />
		<tag k="place" v="farm" />
		<tag k="ssr:stedsnr" v="862254" />
	</node>
	<node id="-767676" lat="63.5513372121" lon="10.6546579138">
		<tag k="fixme" v="consider place=hamlet" />
		<tag k="name" v="Island" />
		<tag k="place" v="farm" />
		<tag k="ssr:stedsnr" v="862248" />
	</node>
	<node id="-767675" lat="63.5781527816" lon="10.5424027696">
		<tag k="name" v="Tauterryggen" />
		<tag k="place" v="locality" />
		<tag k="ssr:stedsnr" v="846292" />
	</node>
	<node id="-767674" lat="63.5682279819" lon="10.7264634015">
		<tag k="name" v="Vikaleiret" />
		<tag k="natural" v="beach" />
		<tag k="place" v="locality" />
		<tag k="ssr:stedsnr" v="836302" />
	</node>
	<node id="-767673" lat="63.5909638873" lon="10.8367722221">
		<tag k="name" v="Geitbergfjæra" />
		<tag k="natural" v="beach" />
		<tag k="place" v="locality" />
		<tag k="ssr:stedsnr" v="836214" />
	</node>
	<node id="-767672" lat="63.5975956367" lon="10.7857061363">
		<tag k="name" v="Slånnåvika" />
		<tag k="natural" v="bay" />
		<tag k="ssr:stedsnr" v="836211" />
	</node>
	<node id="-767671" lat="63.579372099" lon="10.7617868182">
		<tag k="name" v="Bjørnstad" />
		<tag k="place" v="farm" />
		<tag k="ssr:stedsnr" v="836209" />
	</node>
	<node id="-767670" lat="63.5802874306" lon="10.7885446595">
		<tag k="name" v="Revelsvebakken" />
		<tag k="natural" v="slope" />
		<tag k="place" v="locality" />
		<tag k="ssr:stedsnr" v="836207" />
	</node>
	<node id="-767669" lat="63.6297444486" lon="10.9178583346">
		<tag k="name" v="Galstomyra" />
		<tag k="natural" v="wetland" />
		<tag k="ssr:stedsnr" v="836087" />
	</node>
	<node id="-767668" lat="63.643753979" lon="10.9045238045">
		<tag k="name" v="Fesetmyra" />
		<tag k="natural" v="wetland" />
		<tag k="ssr:stedsnr" v="835180" />
	</node>
	<node id="-767667" lat="63.6283398269" lon="10.8623171842">
		<tag k="name" v="Vangsmyra" />
		<tag k="natural" v="wetland" />
		<tag k="ssr:stedsnr" v="835176" />
	</node>
	<node id="-767666" lat="63.6165365941" lon="10.8759214501">
		<tag k="name" v="Brennesbekken" />
		<tag k="ssr:stedsnr" v="835138" />
		<tag k="waterway" v="stream" />
	</node>
	<node id="-767665" lat="63.6355375183" lon="10.8519030512">
		<tag k="name" v="Staurselva" />
		<tag k="ssr:stedsnr" v="835079" />
		<tag k="waterway" v="stream" />
	</node>
	<node id="-767664" lat="63.5896083374" lon="10.6935194416">
		<tag k="name" v="Kransarvika" />
		<tag k="natural" v="bay" />
		<tag k="ssr:stedsnr" v="834775" />
	</node>
	<node id="-767663" lat="63.5741444413" lon="10.7091388871">
		<tag k="name" v="Leinum" />
		<tag k="place" v="farm" />
		<tag k="ssr:stedsnr" v="834760" />
	</node>
	<node id="-767662" lat="63.6038972226" lon="10.7471000002">
		<tag k="fixme" v="consider natural=peak for the most distinct mountains in the district" />
		<tag k="name" v="Lauvåsen" />
		<tag k="natural" v="hill" />
		<tag k="place" v="locality" />
		<tag k="ssr:stedsnr" v="833990" />
	</node>
	<node id="-767660" lat="63.6446666644" lon="10.7968749912">
		<tag k="name" v="Flågrunnen" />
		<tag k="natural" v="shoal" />
		<tag k="place" v="locality" />
		<tag k="ssr:stedsnr" v="802989" />
	</node>
	<node id="-767659" lat="63.6020496831" lon="10.8276519798">
		<tag k="fixme" v="consider place=hamlet" />
		<tag k="name" v="Giset" />
		<tag k="place" v="farm" />
		<tag k="ssr:stedsnr" v="802915" />
	</node>
	<node id="-767658" lat="63.6061527757" lon="10.8831472228">
		<tag k="name" v="Aunsjøen" />
		<tag k="natural" v="bay" />
		<tag k="ssr:stedsnr" v="802904" />
	</node>
	<node id="-767657" lat="63.594969445" lon="10.8422083254">
		<tag k="name" v="Steinsvoll" />
		<tag k="place" v="isolated_dwelling" />
		<tag k="ssr:stedsnr" v="802879" />
	</node>
	<node id="-767656" lat="63.5856611114" lon="10.5985694479">
		<tag k="name" v="Kviningsgrunnen" />
		<tag k="natural" v="shoal" />
		<tag k="place" v="locality" />
		<tag k="ssr:stedsnr" v="802341" />
	</node>
	<node id="-767655" lat="63.5647972266" lon="10.638600007">
		<tag k="alt_name" v="Tautersvaet" />
		<tag k="name" v="Svaet" />
		<tag k="natural" v="strait" />
		<tag k="ssr:stedsnr" v="802221" />
	</node>
	<node id="-767654" lat="63.5853904058" lon="10.7175283107">
		<tag k="name" v="Risan" />
		<tag k="place" v="hamlet" />
		<tag k="ssr:stedsnr" v="802198" />
	</node>
	<node id="-767653" lat="63.5604247968" lon="10.6975953439">
		<tag k="name" v="Mostad" />
		<tag k="place" v="hamlet" />
		<tag k="ssr:stedsnr" v="777059" />
	</node>
	<node id="-767652" lat="63.5874472244" lon="10.8145972164">
		<tag k="man_made" v="quay" />
		<tag k="name" v="Vågen kai" />
		<tag k="place" v="locality" />
		<tag k="ssr:stedsnr" v="775245" />
	</node>
	<node id="-767651" lat="63.5885916648" lon="10.8278305463">
		<tag k="name" v="Furruhaugen" />
		<tag k="natural" v="hill" />
		<tag k="place" v="locality" />
		<tag k="ssr:stedsnr" v="775242" />
	</node>
	<node id="-767650" lat="63.6069333299" lon="10.8240472266">
		<tag k="fixme" v="consider natural=peak for the most distinct mountains in the district" />
		<tag k="name" v="Hojemsåsen" />
		<tag k="natural" v="hill" />
		<tag k="place" v="locality" />
		<tag k="ssr:stedsnr" v="775276" />
	</node>
	<node id="-767649" lat="63.6117972233" lon="10.785025">
		<tag k="name" v="Brekkmyra" />
		<tag k="natural" v="wetland" />
		<tag k="ssr:stedsnr" v="775271" />
	</node>
	<node id="-767648" lat="63.6202388871" lon="10.7267166692">
		<tag k="name" v="Brattvika" />
		<tag k="natural" v="bay" />
		<tag k="ssr:stedsnr" v="774989" />
	</node>
	<node id="-767647" lat="63.6237666651" lon="10.7650500082">
		<tag k="name" v="Romma" />
		<tag k="place" v="isolated_dwelling" />
		<tag k="ssr:stedsnr" v="774962" />
	</node>
	<node id="-767646" lat="63.5570944472" lon="10.655108324">
		<tag k="name" v="Hernesøra" />
		<tag k="natural" v="beach" />
		<tag k="place" v="locality" />
		<tag k="ssr:stedsnr" v="774227" />
	</node>
	<node id="-767645" lat="63.6340499967" lon="10.8315388809">
		<tag k="name" v="Stavsetbekken" />
		<tag k="ssr:stedsnr" v="774213" />
		<tag k="waterway" v="stream" />
	</node>
	<node id="-767644" lat="63.6324317086" lon="10.8752107008">
		<tag k="name" v="Hesttjønna" />
		<tag k="natural" v="water" />
		<tag k="ssr:stedsnr" v="774183" />
	</node>
	<node id="-767643" lat="63.5723833295" lon="10.6100305612">
		<tag k="name" v="Måsdammen" />
		<tag k="natural" v="water" />
		<tag k="ssr:stedsnr" v="774028" />
		<tag k="water" v="pond" />
	</node>
	<node id="-767642" lat="63.6300102404" lon="10.8552205626">
		<tag k="name" v="Svean" />
		<tag k="place" v="farm" />
		<tag k="ssr:stedsnr" v="774090" />
	</node>
	<node id="-767641" lat="63.6462881232" lon="10.8624952407">
		<tag k="name" v="Åvik" />
		<tag k="place" v="farm" />
		<tag k="ssr:stedsnr" v="774075" />
	</node>
	<node id="-767640" lat="63.5818972206" lon="10.6760527732">
		<tag k="name" v="Holmberget" />
		<tag k="place" v="farm" />
		<tag k="ssr:stedsnr" v="753052" />
	</node>
	<node id="-767639" lat="63.664832819" lon="10.8774152066">
		<tag k="fixme" v="consider place=hamlet" />
		<tag k="name" v="Åsholmen" />
		<tag k="place" v="farm" />
		<tag k="ssr:stedsnr" v="753050" />
	</node>
	<node id="-767638" lat="63.6005499991" lon="10.7238694374">
		<tag k="alt_name" v="Nåvik;Nåvikan;Nåvik nedre" />
		<tag k="name" v="Nedre Nåvik" />
		<tag k="place" v="farm" />
		<tag k="ssr:stedsnr" v="741922" />
	</node>
	<node id="-767637" lat="63.601788887" lon="10.7884694369">
		<tag k="name" v="Solvang" />
		<tag k="place" v="isolated_dwelling" />
		<tag k="ssr:stedsnr" v="741918" />
	</node>
	<node id="-767636" lat="63.6048916639" lon="10.7736750015">
		<tag k="name" v="Frosta" />
		<tag k="natural" v="cape" />
		<tag k="ssr:stedsnr" v="741917" />
	</node>
	<node id="-767635" lat="63.6097833319" lon="10.7786638952">
		<tag k="historic" v="shieling" />
		<tag k="name" v="Brekksveet" />
		<tag k="place" v="locality" />
		<tag k="ssr:stedsnr" v="741915" />
	</node>
	<node id="-767634" lat="63.5889180538" lon="10.7510404471">
		<tag k="name" v="Vangberg" />
		<tag k="place" v="hamlet" />
		<tag k="ssr:stedsnr" v="741898" />
	</node>
	<node id="-767633" lat="63.5854444444" lon="10.759027771">
		<tag k="alt_name" v="Juberg, ytre" />
		<tag k="name" v="Ytre Juberg" />
		<tag k="place" v="farm" />
		<tag k="ssr:stedsnr" v="741897" />
	</node>
	<node id="-767632" lat="63.5912341918" lon="10.7831135495">
		<tag k="name" v="Hellan" />
		<tag k="place" v="farm" />
		<tag k="ssr:stedsnr" v="741896" />
	</node>
	<node id="-767631" lat="63.5860348516" lon="10.7748542562">
		<tag k="name" v="Hellan" />
		<tag k="place" v="hamlet" />
		<tag k="ssr:stedsnr" v="741895" />
	</node>
	<node id="-767630" lat="63.5890694457" lon="10.7934750051">
		<tag k="name" v="Nytrøa" />
		<tag k="place" v="farm" />
		<tag k="ssr:stedsnr" v="741893" />
	</node>
	<node id="-767629" lat="63.5682027758" lon="10.723638885">
		<tag k="name" v="Vikaleiret" />
		<tag k="place" v="farm" />
		<tag k="ssr:stedsnr" v="741876" />
	</node>
	<node id="-767628" lat="63.5781166661" lon="10.7882916643">
		<tag k="name" v="Sveplassen" />
		<tag k="place" v="farm" />
		<tag k="ssr:stedsnr" v="741872" />
	</node>
	<node id="-767626" lat="63.6437361148" lon="10.8642944376">
		<tag k="name" v="Åtlohellan" />
		<tag k="place" v="farm" />
		<tag k="ssr:stedsnr" v="741994" />
	</node>
	<node id="-767625" lat="63.6422027738" lon="10.8460777784">
		<tag k="name" v="Åtlosanden" />
		<tag k="natural" v="bay" />
		<tag k="ssr:stedsnr" v="741993" />
	</node>
	<node id="-767624" lat="63.6427638854" lon="10.8899555584">
		<tag k="fixme" v="consider natural=peak for the most distinct mountains in the district" />
		<tag k="name" v="Brattåsen" />
		<tag k="natural" v="hill" />
		<tag k="place" v="locality" />
		<tag k="ssr:stedsnr" v="741992" />
	</node>
	<node id="-767623" lat="63.6414777758" lon="10.9265000059">
		<tag k="fixme" v="consider natural=peak for the most distinct mountains in the district" />
		<tag k="name" v="Liahøgda" />
		<tag k="natural" v="hill" />
		<tag k="place" v="locality" />
		<tag k="ssr:stedsnr" v="741990" />
	</node>
	<node id="-767622" lat="63.5758194435" lon="10.7453166737">
		<tag k="alt_name" v="Vika, øvre" />
		<tag k="name" v="Øvre Vika" />
		<tag k="place" v="farm" />
		<tag k="ssr:stedsnr" v="741855" />
	</node>
	<node id="-767621" lat="63.6023388891" lon="10.7070388806">
		<tag k="alt_name" v="Oldervika" />
		<tag k="name" v="Oldervik" />
		<tag k="place" v="isolated_dwelling" />
		<tag k="ssr:stedsnr" v="741352" />
	</node>
	<node id="-767620" lat="63.5538004922" lon="10.6622552132">
		<tag k="fixme" v="consider place=hamlet" />
		<tag k="name" v="Nygården" />
		<tag k="place" v="farm" />
		<tag k="ssr:stedsnr" v="741292" />
	</node>
	<node id="-767619" lat="63.5732291315" lon="10.6056504137">
		<tag k="alt_name" v="Tautra, s;Sør-Tautra;Tautra" />
		<tag k="name" v="Søre Tautra" />
		<tag k="place" v="farm" />
		<tag k="ssr:stedsnr" v="741231" />
	</node>
	<node id="-767618" lat="63.5705265574" lon="10.7558932901">
		<tag k="name" v="Moksneshaugen" />
		<tag k="natural" v="hill" />
		<tag k="place" v="locality" />
		<tag k="ssr:stedsnr" v="653356" />
	</node>
	<node id="-767617" lat="63.5738959353" lon="10.7232036644">
		<tag k="name" v="Løkstad" />
		<tag k="place" v="farm" />
		<tag k="ssr:stedsnr" v="653351" />
	</node>
	<node id="-767616" lat="63.5756972263" lon="10.6105805581">
		<tag k="name" v="Grande" />
		<tag k="place" v="farm" />
		<tag k="ssr:stedsnr" v="653016" />
	</node>
	<node id="-767615" lat="63.598216665" lon="10.7797166677">
		<tag k="name" v="Trollneset" />
		<tag k="natural" v="cape" />
		<tag k="ssr:stedsnr" v="652999" />
	</node>
	<node id="-767614" lat="63.5927083303" lon="10.7657666718">
		<tag k="name" v="Oset" />
		<tag k="natural" v="bay" />
		<tag k="ssr:stedsnr" v="652996" />
	</node>
	<node id="-767613" lat="63.6244555512" lon="10.8086638897">
		<tag k="name" v="Ratvollmyra" />
		<tag k="natural" v="wetland" />
		<tag k="ssr:stedsnr" v="653190" />
	</node>
	<node id="-767612" lat="63.5930283521" lon="10.7040239715">
		<tag k="fixme" v="consider place=hamlet" />
		<tag k="name" v="Risetsveet" />
		<tag k="place" v="farm" />
		<tag k="ssr:stedsnr" v="652788" />
	</node>
	<node id="-767611" lat="63.6397849762" lon="10.8776508329">
		<tag k="name" v="Krokmyra" />
		<tag k="natural" v="wetland" />
		<tag k="ssr:stedsnr" v="652146" />
	</node>
	<node id="-767610" lat="63.6312579057" lon="10.872276195">
		<tag k="name" v="Hesttjønnbekken" />
		<tag k="ssr:stedsnr" v="652141" />
		<tag k="waterway" v="stream" />
	</node>
	<node id="-767609" lat="63.5527999997" lon="10.6809055617">
		<tag k="name" v="Valheim" />
		<tag k="place" v="farm" />
		<tag k="ssr:stedsnr" v="652117" />
	</node>
	<node id="-767607" lat="63.5792083338" lon="10.5293638966">
		<tag k="name" v="Langleitan" />
		<tag k="natural" v="shoal" />
		<tag k="place" v="locality" />
		<tag k="ssr:stedsnr" v="650050" />
	</node>
	<node id="-767606" lat="63.5735305582" lon="10.7730583383">
		<tag k="name" v="Moksneslia" />
		<tag k="natural" v="slope" />
		<tag k="place" v="locality" />
		<tag k="ssr:stedsnr" v="650115" />
	</node>
	<node id="-767605" lat="63.5773611115" lon="10.7499861039">
		<tag k="alt_name" v="Vika, midtre" />
		<tag k="fixme" v="multiple name tags, choose one and add the other to alt_name" />
		<tag k="name" v="Vika;Midtre Vika" />
		<tag k="place" v="farm" />
		<tag k="ssr:stedsnr" v="620795" />
	</node>
	<node id="-767604" lat="63.5697944403" lon="10.7731888816">
		<tag k="name" v="Kniptangen" />
		<tag k="natural" v="cape" />
		<tag k="ssr:stedsnr" v="620757" />
	</node>
	<node id="-767603" lat="63.5780444431" lon="10.566452771">
		<tag k="name" v="Storgrunnen" />
		<tag k="natural" v="shoal" />
		<tag k="place" v="locality" />
		<tag k="ssr:stedsnr" v="620210" />
	</node>
	<node id="-767602" lat="63.579547225" lon="10.6970499946">
		<tag k="alt_name" v="Hogstad, midtre" />
		<tag k="name" v="Midtre Hogstad" />
		<tag k="place" v="farm" />
		<tag k="ssr:stedsnr" v="620204" />
	</node>
	<node id="-767601" lat="63.5769019672" lon="10.7016867066">
		<tag k="name" v="Solli" />
		<tag k="place" v="farm" />
		<tag k="ssr:stedsnr" v="620201" />
	</node>
	<node id="-767600" lat="63.6458750035" lon="10.8690999973">
		<tag k="name" v="Åstad" />
		<tag k="place" v="farm" />
		<tag k="ssr:stedsnr" v="620033" />
	</node>
	<node id="-767599" lat="63.6649694442" lon="10.8764361024">
		<tag k="name" v="Åsholmen" />
		<tag k="natural" v="cape" />
		<tag k="ssr:stedsnr" v="620004" />
	</node>
	<node id="-767598" lat="63.6351222227" lon="10.7525111188">
		<tag k="name" v="Sandgrunnen" />
		<tag k="natural" v="shoal" />
		<tag k="place" v="locality" />
		<tag k="ssr:stedsnr" v="620000" />
	</node>
	<node id="-767597" lat="63.6231264777" lon="10.7687006379">
		<tag k="fixme" v="consider place=hamlet" />
		<tag k="name" v="Gristad" />
		<tag k="place" v="farm" />
		<tag k="ssr:stedsnr" v="619963" />
	</node>
	<node id="-767596" lat="63.5858361091" lon="10.8128805598">
		<tag k="name" v="Hyndøyvågen" />
		<tag k="natural" v="bay" />
		<tag k="ssr:stedsnr" v="619901" />
	</node>
	<node id="-767595" lat="63.5872008859" lon="10.7539549418">
		<tag k="alt_name" v="Frosta" />
		<tag k="amenity" v="place_of_worship" />
		<tag k="denomination" v="lutheran" />
		<tag k="name" v="Frosta kirke" />
		<tag k="religion" v="christian" />
		<tag k="ssr:stedsnr" v="619883" />
	</node>
	<node id="-767594" lat="63.5933000009" lon="10.844924992">
		<tag k="alt_name" v="Ulvviksveet" />
		<tag k="name" v="Ulviksveet" />
		<tag k="place" v="isolated_dwelling" />
		<tag k="ssr:stedsnr" v="619872" />
	</node>
	<node id="-767593" lat="63.5886382105" lon="10.7135636849">
		<tag k="name" v="Riset" />
		<tag k="place" v="hamlet" />
		<tag k="ssr:stedsnr" v="619361" />
	</node>
	<node id="-767592" lat="63.5661571248" lon="10.7009075195">
		<tag k="name" v="Kråklund" />
		<tag k="place" v="hamlet" />
		<tag k="ssr:stedsnr" v="619268" />
	</node>
	<node id="-767591" lat="63.5454499962" lon="10.6777361151">
		<tag k="name" v="Sørgrenda" />
		<tag k="place" v="hamlet" />
		<tag k="ssr:stedsnr" v="619253" />
	</node>
	<node id="-767590" lat="63.6612611145" lon="10.847088895">
		<tag k="name" v="Holmgrunnen" />
		<tag k="natural" v="shoal" />
		<tag k="place" v="locality" />
		<tag k="ssr:stedsnr" v="619054" />
	</node>
	<node id="-767589" lat="63.6525833352" lon="10.8860055609">
		<tag k="name" v="Bjønnbettet" />
		<tag k="natural" v="wetland" />
		<tag k="ssr:stedsnr" v="595152" />
	</node>
	<node id="-767588" lat="63.5934000017" lon="10.7633694393">
		<tag k="name" v="Vassli" />
		<tag k="place" v="farm" />
		<tag k="ssr:stedsnr" v="593000" />
	</node>
	<node id="-767587" lat="63.5672666695" lon="10.6797055504">
		<tag k="alt_name" v="Nordfjæra nordre" />
		<tag k="name" v="Nordre Nordfjæra" />
		<tag k="place" v="farm" />
		<tag k="ssr:stedsnr" v="592704" />
	</node>
	<node id="-767586" lat="63.5461583351" lon="10.6768527818">
		<tag k="name" v="Sørheim" />
		<tag k="place" v="farm" />
		<tag k="ssr:stedsnr" v="592376" />
	</node>
	<node id="-767585" lat="63.5967076286" lon="10.834507286">
		<tag k="name" v="Bekkdalen" />
		<tag k="natural" v="valley" />
		<tag k="place" v="locality" />
		<tag k="ssr:stedsnr" v="592286" />
	</node>
	<node id="-767584" lat="63.5388777772" lon="10.6474333348">
		<tag k="name" v="Råttåvika" />
		<tag k="natural" v="bay" />
		<tag k="ssr:stedsnr" v="592253" />
	</node>
	<node id="-767583" lat="63.5435388892" lon="10.6511444443">
		<tag k="name" v="Kongshaugen" />
		<tag k="natural" v="hill" />
		<tag k="place" v="locality" />
		<tag k="ssr:stedsnr" v="592237" />
	</node>
	<node id="-767582" lat="63.5429333329" lon="10.6516111138">
		<tag k="alt_name" v="Haugan nedre" />
		<tag k="name" v="Nedre Haugan" />
		<tag k="place" v="farm" />
		<tag k="ssr:stedsnr" v="592236" />
	</node>
	<node id="-767581" lat="63.6178972183" lon="10.8295305582">
		<tag k="fixme" v="consider natural=peak for the most distinct mountains in the district" />
		<tag k="name" v="Hovdalsåsen" />
		<tag k="natural" v="hill" />
		<tag k="place" v="locality" />
		<tag k="ssr:stedsnr" v="592222" />
	</node>
	<node id="-767580" lat="63.6331305593" lon="10.7839416736">
		<tag k="name" v="Fånesbukta" />
		<tag k="natural" v="bay" />
		<tag k="ssr:stedsnr" v="592220" />
	</node>
	<node id="-767579" lat="63.6494465724" lon="10.9040717509">
		<tag k="name" v="Krokvassbekken" />
		<tag k="ssr:stedsnr" v="592062" />
		<tag k="waterway" v="stream" />
	</node>
	<node id="-767578" lat="63.5998388887" lon="10.7075944531">
		<tag k="name" v="Nåvikaunet" />
		<tag k="place" v="farm" />
		<tag k="ssr:stedsnr" v="591795" />
	</node>
	<node id="-767577" lat="63.5957944465" lon="10.7363416708">
		<tag k="name" v="Skardet" />
		<tag k="place" v="quarter" />
		<tag k="ssr:stedsnr" v="591878" />
	</node>
	<node id="-767576" lat="63.6229790262" lon="10.7593988549">
		<tag k="name" v="Vigtil" />
		<tag k="place" v="hamlet" />
		<tag k="ssr:stedsnr" v="559951" />
	</node>
	<node id="-767575" lat="63.6275110762" lon="10.7880130283">
		<tag k="fixme" v="consider place=hamlet" />
		<tag k="name" v="Rekbu" />
		<tag k="place" v="farm" />
		<tag k="ssr:stedsnr" v="559948" />
	</node>
	<node id="-767574" lat="63.6062777759" lon="10.8200305505">
		<tag k="name" v="Hojemsåsen" />
		<tag k="place" v="isolated_dwelling" />
		<tag k="ssr:stedsnr" v="559892" />
	</node>
	<node id="-767573" lat="63.6049916658" lon="10.808716674">
		<tag k="alt_name" v="Hojem, litle" />
		<tag k="name" v="Litle Hojem" />
		<tag k="place" v="farm" />
		<tag k="ssr:stedsnr" v="559888" />
	</node>
	<node id="-767572" lat="63.608085511" lon="10.801013444">
		<tag k="fixme" v="consider place=hamlet" />
		<tag k="name" v="Myraunet" />
		<tag k="place" v="farm" />
		<tag k="ssr:stedsnr" v="559884" />
	</node>
	<node id="-767571" lat="63.6751972194" lon="10.8720555557">
		<tag k="name" v="Åsholmflua" />
		<tag k="natural" v="shoal" />
		<tag k="place" v="locality" />
		<tag k="ssr:stedsnr" v="559091" />
	</node>
	<node id="-767570" lat="63.6341482198" lon="10.8233327415">
		<tag k="fixme" v="consider place=hamlet" />
		<tag k="name" v="Stavset" />
		<tag k="place" v="farm" />
		<tag k="ssr:stedsnr" v="558998" />
	</node>
	<node id="-767569" lat="63.5559499986" lon="10.6538333332">
		<tag k="name" v="Øra" />
		<tag k="place" v="farm" />
		<tag k="ssr:stedsnr" v="558246" />
	</node>
	<node id="-767568" lat="63.544824997" lon="10.6571333319">
		<tag k="alt_name" v="Hernes;Hernes, vestre" />
		<tag k="name" v="Vestre Hernes" />
		<tag k="place" v="farm" />
		<tag k="ssr:stedsnr" v="558237" />
	</node>
	<node id="-767567" lat="63.5677833322" lon="10.6103333337">
		<tag k="alt_name" v="Holmen, store;Storholmen" />
		<tag k="name" v="Store Holmen" />
		<tag k="natural" v="cape" />
		<tag k="ssr:stedsnr" v="558198" />
	</node>
	<node id="-767566" lat="63.623186111" lon="10.8905527768">
		<tag k="name" v="Lågkastmyra" />
		<tag k="natural" v="wetland" />
		<tag k="ssr:stedsnr" v="535170" />
	</node>
	<node id="-767565" lat="63.5701122593" lon="10.7273086298">
		<tag k="name" v="Dunsplassen" />
		<tag k="place" v="farm" />
		<tag k="ssr:stedsnr" v="532338" />
	</node>
	<node id="-767564" lat="63.6126555545" lon="10.8033138804">
		<tag k="name" v="Frøstadbekken" />
		<tag k="ssr:stedsnr" v="532280" />
		<tag k="waterway" v="stream" />
	</node>
	<node id="-767563" lat="63.5999438232" lon="10.7859332611">
		<tag k="name" v="Mariaberget" />
		<tag k="natural" v="hill" />
		<tag k="place" v="locality" />
		<tag k="ssr:stedsnr" v="532232" />
	</node>
	<node id="-767562" lat="63.5981083293" lon="10.7521500065">
		<tag k="name" v="Brannhaugen" />
		<tag k="natural" v="hill" />
		<tag k="place" v="locality" />
		<tag k="ssr:stedsnr" v="531909" />
	</node>
	<node id="-767561" lat="63.5481888922" lon="10.6378888905">
		<tag k="name" v="Uthaug" />
		<tag k="place" v="farm" />
		<tag k="ssr:stedsnr" v="531240" />
	</node>
	<node id="-767560" lat="63.5564722211" lon="10.6953555629">
		<tag k="name" v="Mostad" />
		<tag k="place" v="farm" />
		<tag k="ssr:stedsnr" v="531122" />
	</node>
	<node id="-767559" lat="63.6435331537" lon="10.8737088373">
		<tag k="name" v="Åtlomyra" />
		<tag k="natural" v="wetland" />
		<tag k="ssr:stedsnr" v="531079" />
	</node>
	<node id="-767558" lat="63.6176862892" lon="10.8115231644">
		<tag k="fixme" v="consider place=hamlet" />
		<tag k="name" v="Kvamman" />
		<tag k="place" v="farm" />
		<tag k="ssr:stedsnr" v="531211" />
	</node>
	<node id="-767557" lat="63.6605691649" lon="10.9100845483">
		<tag k="name" v="Storheimyra" />
		<tag k="natural" v="wetland" />
		<tag k="ssr:stedsnr" v="531055" />
	</node>
	<node id="-767556" lat="63.6157555531" lon="10.8121444424">
		<tag k="name" v="Vestre Kvamman" />
		<tag k="place" v="farm" />
		<tag k="ssr:stedsnr" v="438914" />
	</node>
	<node id="-767555" lat="63.6009169049" lon="10.7611427299">
		<tag k="fixme" v="consider place=hamlet" />
		<tag k="name" v="Remman" />
		<tag k="place" v="farm" />
		<tag k="ssr:stedsnr" v="438884" />
	</node>
	<node id="-767554" lat="63.6061999986" lon="10.8018750047">
		<tag k="name" v="Halset" />
		<tag k="place" v="farm" />
		<tag k="ssr:stedsnr" v="438873" />
	</node>
	<node id="-767553" lat="63.592047222" lon="10.7383249991">
		<tag k="name" v="Borg" />
		<tag k="place" v="farm" />
		<tag k="ssr:stedsnr" v="438859" />
	</node>
	<node id="-767552" lat="63.5971974244" lon="10.8303334354">
		<tag k="fixme" v="consider place=hamlet" />
		<tag k="name" v="Banlia" />
		<tag k="place" v="farm" />
		<tag k="ssr:stedsnr" v="438848" />
	</node>
	<node id="-767551" lat="63.5780194446" lon="10.7532694392">
		<tag k="alt_name" v="Vika, austre" />
		<tag k="name" v="Austre Vika" />
		<tag k="place" v="farm" />
		<tag k="ssr:stedsnr" v="438815" />
	</node>
	<node id="-767550" lat="63.5742250011" lon="10.7316222276">
		<tag k="name" v="Holte" />
		<tag k="place" v="farm" />
		<tag k="ssr:stedsnr" v="438811" />
	</node>
	<node id="-767549" lat="63.5975333331" lon="10.7096333367">
		<tag k="name" v="Småland" />
		<tag k="place" v="farm" />
		<tag k="ssr:stedsnr" v="438285" />
	</node>
	<node id="-767548" lat="63.5419722237" lon="10.6625222305">
		<tag k="name" v="Sørli" />
		<tag k="place" v="isolated_dwelling" />
		<tag k="ssr:stedsnr" v="438210" />
	</node>
	<node id="-767547" lat="63.5402916702" lon="10.650936119">
		<tag k="name" v="Gullberget" />
		<tag k="natural" v="hill" />
		<tag k="place" v="locality" />
		<tag k="ssr:stedsnr" v="438209" />
	</node>
	<node id="-767546" lat="63.5697805521" lon="10.6718166582">
		<tag k="name" v="Tangen" />
		<tag k="natural" v="cape" />
		<tag k="ssr:stedsnr" v="438154" />
	</node>
	<node id="-767545" lat="63.6592083324" lon="10.8962444356">
		<tag k="fixme" v="consider natural=peak for the most distinct mountains in the district" />
		<tag k="name" v="Litlheia" />
		<tag k="natural" v="hill" />
		<tag k="place" v="locality" />
		<tag k="ssr:stedsnr" v="438045" />
	</node>
	<node id="-767544" lat="63.6307194478" lon="10.8037111044">
		<tag k="name" v="Austgård" />
		<tag k="place" v="farm" />
		<tag k="ssr:stedsnr" v="437991" />
	</node>
	<node id="-767543" lat="63.6309916644" lon="10.9111361122">
		<tag k="name" v="Brannhaugen" />
		<tag k="natural" v="hill" />
		<tag k="place" v="locality" />
		<tag k="ssr:stedsnr" v="438983" />
	</node>
	<node id="-767542" lat="63.5686805546" lon="10.673966672">
		<tag k="alt_name" v="Ryggvik" />
		<tag k="name" v="Ryggavika" />
		<tag k="place" v="farm" />
		<tag k="ssr:stedsnr" v="437214" />
	</node>
	<node id="-767541" lat="63.566352778" lon="10.7220833356">
		<tag k="name" v="Hammeren" />
		<tag k="place" v="farm" />
		<tag k="ssr:stedsnr" v="414237" />
	</node>
	<node id="-767540" lat="63.5612749998" lon="10.7036555459">
		<tag k="name" v="Mostadtrøa" />
		<tag k="place" v="farm" />
		<tag k="ssr:stedsnr" v="411637" />
	</node>
	<node id="-767539" lat="63.6152861074" lon="10.8245222165">
		<tag k="name" v="Hovd" />
		<tag k="place" v="isolated_dwelling" />
		<tag k="ssr:stedsnr" v="411229" />
	</node>
	<node id="-767538" lat="63.6343305597" lon="10.9163555584">
		<tag k="name" v="Setermyra" />
		<tag k="natural" v="wetland" />
		<tag k="ssr:stedsnr" v="411123" />
	</node>
	<node id="-767537" lat="63.6354722241" lon="10.9215305516">
		<tag k="name" v="Ingebriktsbekken" />
		<tag k="ssr:stedsnr" v="411105" />
		<tag k="waterway" v="stream" />
	</node>
	<node id="-767536" lat="63.5949222213" lon="10.7798138901">
		<tag k="name" v="Olahølet" />
		<tag k="natural" v="bay" />
		<tag k="ssr:stedsnr" v="410999" />
	</node>
	<node id="-767535" lat="63.5963833298" lon="10.7580722206">
		<tag k="name" v="Vagnåsen" />
		<tag k="natural" v="hill" />
		<tag k="place" v="locality" />
		<tag k="ssr:stedsnr" v="410896" />
	</node>
	<node id="-767534" lat="63.5950735275" lon="10.7170033599">
		<tag k="fixme" v="consider place=hamlet" />
		<tag k="name" v="Storlia" />
		<tag k="place" v="farm" />
		<tag k="ssr:stedsnr" v="410810" />
	</node>
	<node id="-767533" lat="63.6303373721" lon="10.7784178542">
		<tag k="name" v="Fånes" />
		<tag k="place" v="hamlet" />
		<tag k="ssr:stedsnr" v="410200" />
	</node>
	<node id="-767532" lat="63.620045926" lon="10.8642338048">
		<tag k="name" v="Litlholmen" />
		<tag k="place" v="islet" />
		<tag k="ssr:stedsnr" v="410171" />
	</node>
	<node id="-767531" lat="63.6659272862" lon="10.8739983265">
		<tag k="fixme" v="consider seamark:type=rock or natural=shoal" />
		<tag k="name" v="Langskjæret" />
		<tag k="place" v="islet" />
		<tag k="ssr:stedsnr" v="410068" />
	</node>
	<node id="-767530" lat="63.6663055564" lon="10.8822083268">
		<tag k="name" v="Hendrikdalen" />
		<tag k="natural" v="valley" />
		<tag k="place" v="locality" />
		<tag k="ssr:stedsnr" v="410062" />
	</node>
	<node id="-767529" lat="63.5820749984" lon="10.6914388888">
		<tag k="name" v="Utsikten" />
		<tag k="natural" v="hill" />
		<tag k="place" v="locality" />
		<tag k="ssr:stedsnr" v="409782" />
	</node>
	<node id="-767528" lat="63.5762527765" lon="10.8118694403">
		<tag k="name" v="Vollgrunnen" />
		<tag k="natural" v="shoal" />
		<tag k="place" v="locality" />
		<tag k="ssr:stedsnr" v="408950" />
	</node>
	<node id="-767527" lat="63.5375305534" lon="10.6474972263">
		<tag k="name" v="Slegga" />
		<tag k="place" v="islet" />
		<tag k="ssr:stedsnr" v="408938" />
	</node>
	<node id="-767526" lat="63.5746583308" lon="10.6568944538">
		<tag k="name" v="Litlegrunnen" />
		<tag k="natural" v="shoal" />
		<tag k="place" v="locality" />
		<tag k="ssr:stedsnr" v="408934" />
	</node>
	<node id="-767525" lat="63.5868692204" lon="10.7596297249">
		<tag k="name" v="Juberg" />
		<tag k="place" v="hamlet" />
		<tag k="ssr:stedsnr" v="408139" />
	</node>
	<node id="-767524" lat="63.5627799575" lon="10.6772203725">
		<tag k="fixme" v="consider place=hamlet" />
		<tag k="name" v="Nordfjæra" />
		<tag k="place" v="farm" />
		<tag k="ssr:stedsnr" v="389073" />
	</node>
	<node id="-767523" lat="63.6236916671" lon="10.8495999958">
		<tag k="name" v="Fjøsmyra" />
		<tag k="natural" v="wetland" />
		<tag k="ssr:stedsnr" v="377965" />
	</node>
	<node id="-767522" lat="63.6211047883" lon="10.8352345831">
		<tag k="name" v="Stormyra" />
		<tag k="natural" v="wetland" />
		<tag k="ssr:stedsnr" v="377955" />
	</node>
	<node id="-767521" lat="63.6144148956" lon="10.7831965867">
		<tag k="fixme" v="consider place=hamlet" />
		<tag k="name" v="Brekka" />
		<tag k="place" v="farm" />
		<tag k="ssr:stedsnr" v="377917" />
	</node>
	<node id="-767520" lat="63.6166187494" lon="10.7506439674">
		<tag k="fixme" v="consider place=hamlet" />
		<tag k="name" v="Skågset" />
		<tag k="place" v="farm" />
		<tag k="ssr:stedsnr" v="377913" />
	</node>
	<node id="-767519" lat="63.6089972265" lon="10.8320666629">
		<tag k="fixme" v="consider natural=peak for the most distinct mountains in the district" />
		<tag k="name" v="Hojemskammen" />
		<tag k="natural" v="hill" />
		<tag k="place" v="locality" />
		<tag k="ssr:stedsnr" v="377903" />
	</node>
	<node id="-767518" lat="63.59811667" lon="10.7841055512">
		<tag k="name" v="Liavatnet" />
		<tag k="natural" v="water" />
		<tag k="ssr:stedsnr" v="377889" />
		<tag k="water" v="lake" />
	</node>
	<node id="-767517" lat="63.5829128118" lon="10.7946523625">
		<tag k="alt_name" v="Hundøya" />
		<tag k="fixme" v="consider place=hamlet" />
		<tag k="name" v="Hyndøya" />
		<tag k="place" v="farm" />
		<tag k="ssr:stedsnr" v="377866" />
	</node>
	<node id="-767516" lat="63.590548829" lon="10.8307142856">
		<tag k="fixme" v="consider place=hamlet" />
		<tag k="name" v="Steine" />
		<tag k="place" v="farm" />
		<tag k="ssr:stedsnr" v="377865" />
	</node>
	<node id="-767515" lat="63.5948194467" lon="10.7930111168">
		<tag k="name" v="Stormyra" />
		<tag k="natural" v="wetland" />
		<tag k="ssr:stedsnr" v="377842" />
	</node>
	<node id="-767514" lat="63.592319445" lon="10.7710222201">
		<tag k="name" v="Liberg" />
		<tag k="place" v="farm" />
		<tag k="ssr:stedsnr" v="377840" />
	</node>
	<node id="-767513" lat="63.5816083326" lon="10.807427777">
		<tag k="name" v="Kvitsandvika" />
		<tag k="place" v="farm" />
		<tag k="ssr:stedsnr" v="377823" />
	</node>
	<node id="-767512" lat="63.5694138883" lon="10.7493777755">
		<tag k="name" v="Manneset" />
		<tag k="natural" v="cape" />
		<tag k="ssr:stedsnr" v="377751" />
	</node>
	<node id="-767511" lat="63.5856500006" lon="10.5695250032">
		<tag k="name" v="Kristoffergrunnen" />
		<tag k="natural" v="shoal" />
		<tag k="place" v="locality" />
		<tag k="ssr:stedsnr" v="377289" />
	</node>
	<node id="-767510" lat="63.5787138913" lon="10.6946416692">
		<tag k="alt_name" v="Hogstad, nedre" />
		<tag k="name" v="Nedre Hogstad" />
		<tag k="place" v="farm" />
		<tag k="ssr:stedsnr" v="377186" />
	</node>
	<node id="-767509" lat="63.6418222203" lon="10.8658222232">
		<tag k="name" v="Sørenplassen" />
		<tag k="place" v="farm" />
		<tag k="ssr:stedsnr" v="376982" />
	</node>
	<node id="-767508" lat="63.636536996" lon="10.8877704275">
		<tag k="fixme" v="consider place=hamlet" />
		<tag k="name" v="Storsveet" />
		<tag k="place" v="farm" />
		<tag k="ssr:stedsnr" v="376980" />
	</node>
	<node id="-767507" lat="63.5967527751" lon="10.7231555624">
		<tag k="name" v="Kjelstad" />
		<tag k="place" v="farm" />
		<tag k="ssr:stedsnr" v="376905" />
	</node>
	<node id="-767506" lat="63.5626944478" lon="10.6638111184">
		<tag k="name" v="Nordfjærabukta" />
		<tag k="natural" v="bay" />
		<tag k="ssr:stedsnr" v="376249" />
	</node>
	<node id="-767505" lat="63.5750888859" lon="10.6256750068">
		<tag k="name" v="Kuøra" />
		<tag k="natural" v="beach" />
		<tag k="place" v="locality" />
		<tag k="ssr:stedsnr" v="376190" />
	</node>
	<node id="-767504" lat="63.5670999958" lon="10.6908916751">
		<tag k="name" v="Tingstad" />
		<tag k="natural" v="hill" />
		<tag k="place" v="locality" />
		<tag k="ssr:stedsnr" v="350623" />
	</node>
	<node id="-767503" lat="63.6300944461" lon="10.7948305603">
		<tag k="name" v="Bakkbekken" />
		<tag k="ssr:stedsnr" v="350262" />
		<tag k="waterway" v="stream" />
	</node>
	<node id="-767502" lat="63.6087404742" lon="10.890736743">
		<tag k="fixme" v="consider place=hamlet" />
		<tag k="name" v="Kuvika" />
		<tag k="place" v="farm" />
		<tag k="ssr:stedsnr" v="350183" />
	</node>
	<node id="-767501" lat="63.6401416695" lon="10.9376027771">
		<tag k="name" v="Markhusheia" />
		<tag k="natural" v="hill" />
		<tag k="place" v="locality" />
		<tag k="ssr:stedsnr" v="350082" />
	</node>
	<node id="-767500" lat="63.6238000026" lon="10.7768972267">
		<tag k="name" v="Kalvhagan" />
		<tag k="place" v="farm" />
		<tag k="ssr:stedsnr" v="349972" />
	</node>
	<node id="-767499" lat="63.5955510072" lon="10.712107313">
		<tag k="fixme" v="consider place=hamlet" />
		<tag k="name" v="Haugen" />
		<tag k="place" v="farm" />
		<tag k="ssr:stedsnr" v="349833" />
	</node>
	<node id="-767498" lat="63.5995916689" lon="10.7110472179">
		<tag k="name" v="Nåvikbekken" />
		<tag k="ssr:stedsnr" v="349828" />
		<tag k="waterway" v="stream" />
	</node>
	<node id="-767497" lat="63.5474722201" lon="10.6728638811">
		<tag k="name" v="Otterstad" />
		<tag k="place" v="farm" />
		<tag k="ssr:stedsnr" v="349148" />
	</node>
	<node id="-767496" lat="63.6467944417" lon="10.9325472226">
		<tag k="name" v="Sandhøgda" />
		<tag k="natural" v="hill" />
		<tag k="place" v="locality" />
		<tag k="ssr:stedsnr" v="349133" />
	</node>
	<node id="-767495" lat="63.6713444478" lon="10.887594453">
		<tag k="name" v="Olsfestet" />
		<tag k="place" v="locality" />
		<tag k="ssr:stedsnr" v="349083" />
	</node>
	<node id="-767494" lat="63.6464251917" lon="10.868853965">
		<tag k="name" v="Åtloaunet" />
		<tag k="place" v="isolated_dwelling" />
		<tag k="ssr:stedsnr" v="349075" />
	</node>
	<node id="-767493" lat="63.6297305589" lon="10.7626361121">
		<tag k="name" v="Ohlen" />
		<tag k="place" v="farm" />
		<tag k="ssr:stedsnr" v="348945" />
	</node>
	<node id="-767492" lat="63.5841950898" lon="10.6221089743">
		<tag k="amenity" v="place_of_worship" />
		<tag k="fixme" v="specify religion=*, denomination=*, building=* etc" />
		<tag k="name" v="Tautra kloster" />
		<tag k="ssr:stedsnr" v="348034" />
	</node>
	<node id="-767491" lat="63.6473500038" lon="10.8282361179">
		<tag k="alt_name" v="Skjergrunnen" />
		<tag k="name" v="Skjærgrunnen" />
		<tag k="natural" v="shoal" />
		<tag k="place" v="locality" />
		<tag k="ssr:stedsnr" v="347372" />
	</node>
	<node id="-767490" lat="63.6200416696" lon="10.7228305542">
		<tag k="name" v="Brattvikneset" />
		<tag k="natural" v="cape" />
		<tag k="ssr:stedsnr" v="347121" />
	</node>
	<node id="-767489" lat="63.5850499992" lon="10.5686722218">
		<tag k="name" v="Kvassgrunnen" />
		<tag k="natural" v="shoal" />
		<tag k="place" v="locality" />
		<tag k="ssr:stedsnr" v="347046" />
	</node>
	<node id="-767488" lat="63.6300138885" lon="10.7717972169">
		<tag k="name" v="Fånes" />
		<tag k="place" v="farm" />
		<tag k="ssr:stedsnr" v="316997" />
	</node>
	<node id="-767487" lat="63.6337166696" lon="10.8581249902">
		<tag k="name" v="Fossbakken" />
		<tag k="place" v="farm" />
		<tag k="ssr:stedsnr" v="316994" />
	</node>
	<node id="-767486" lat="63.6286563434" lon="10.8807981438">
		<tag k="fixme" v="consider place=hamlet" />
		<tag k="name" v="Lutdalen" />
		<tag k="place" v="farm" />
		<tag k="ssr:stedsnr" v="316993" />
	</node>
	<node id="-767485" lat="63.6287722188" lon="10.8489833236">
		<tag k="fixme" v="consider natural=peak for the most distinct mountains in the district" />
		<tag k="name" v="Staurskammen" />
		<tag k="natural" v="hill" />
		<tag k="place" v="locality" />
		<tag k="ssr:stedsnr" v="316991" />
	</node>
	<node id="-767484" lat="63.6651722261" lon="10.8275222129">
		<tag k="name" v="Nordgrunnan" />
		<tag k="natural" v="shoal" />
		<tag k="place" v="locality" />
		<tag k="ssr:stedsnr" v="317027" />
	</node>
	<node id="-767483" lat="63.620041994" lon="10.7424019398">
		<tag k="fixme" v="consider place=hamlet" />
		<tag k="name" v="Orsanden" />
		<tag k="place" v="farm" />
		<tag k="ssr:stedsnr" v="316944" />
	</node>
	<node id="-767482" lat="63.6170000011" lon="10.7576111099">
		<tag k="name" v="Åsen" />
		<tag k="place" v="farm" />
		<tag k="ssr:stedsnr" v="316943" />
	</node>
	<node id="-767481" lat="63.5925416085" lon="10.7431234921">
		<tag k="fixme" v="consider place=hamlet" />
		<tag k="name" v="Berg" />
		<tag k="place" v="farm" />
		<tag k="ssr:stedsnr" v="316933" />
	</node>
	<node id="-767480" lat="63.6005031594" lon="10.7928847375">
		<tag k="name" v="Hogstad" />
		<tag k="place" v="farm" />
		<tag k="ssr:stedsnr" v="316929" />
	</node>
	<node id="-767479" lat="63.5894166663" lon="10.815769453">
		<tag k="name" v="Myrheim" />
		<tag k="place" v="isolated_dwelling" />
		<tag k="ssr:stedsnr" v="316918" />
	</node>
	<node id="-767478" lat="63.5860750003" lon="10.8061583262">
		<tag k="name" v="Vågen" />
		<tag k="place" v="farm" />
		<tag k="ssr:stedsnr" v="316917" />
	</node>
	<node id="-767477" lat="63.580825002" lon="10.8044416617">
		<tag k="alt_name" v="Kvitlsandvika" />
		<tag k="name" v="Kvitsandvika" />
		<tag k="natural" v="bay" />
		<tag k="ssr:stedsnr" v="316875" />
	</node>
	<node id="-767476" lat="63.6147277781" lon="10.7121805593">
		<tag k="alt_name" v="Furruneset" />
		<tag k="name" v="Furuneset" />
		<tag k="natural" v="cape" />
		<tag k="ssr:stedsnr" v="316301" />
	</node>
	<node id="-767475" lat="63.5454416636" lon="10.6605916578">
		<tag k="alt_name" v="Hernes, nedre" />
		<tag k="name" v="Nedre Hernes" />
		<tag k="place" v="farm" />
		<tag k="ssr:stedsnr" v="316250" />
	</node>
	<node id="-767474" lat="63.5436586817" lon="10.6536628931">
		<tag k="name" v="Haugan" />
		<tag k="place" v="hamlet" />
		<tag k="ssr:stedsnr" v="316240" />
	</node>
	<node id="-767473" lat="63.5253611154" lon="10.5238472214">
		<tag k="name" v="Treungsgrunnen" />
		<tag k="natural" v="shoal" />
		<tag k="place" v="locality" />
		<tag k="ssr:stedsnr" v="316239" />
	</node>
	<node id="-767472" lat="63.5820611096" lon="10.6281666579">
		<tag k="name" v="Sørhamna" />
		<tag k="place" v="isolated_dwelling" />
		<tag k="ssr:stedsnr" v="316234" />
	</node>
	<node id="-767471" lat="63.5846444422" lon="10.6913305475">
		<tag k="name" v="Aunan" />
		<tag k="place" v="farm" />
		<tag k="ssr:stedsnr" v="316351" />
	</node>
	<node id="-767470" lat="63.6470194483" lon="10.8790083401">
		<tag k="alt_name" v="Skardtjønna" />
		<tag k="name" v="Skardstjønna" />
		<tag k="natural" v="water" />
		<tag k="ssr:stedsnr" v="316034" />
	</node>
	<node id="-767469" lat="63.5730026391" lon="10.6894254352">
		<tag k="fixme" v="consider place=hamlet" />
		<tag k="name" v="Rygg" />
		<tag k="place" v="farm" />
		<tag k="ssr:stedsnr" v="207392" />
	</node>
	<node id="-767468" lat="63.6173833305" lon="10.8141250034">
		<tag k="name" v="Kvamman" />
		<tag k="place" v="farm" />
		<tag k="ssr:stedsnr" v="207026" />
	</node>
	<node id="-767467" lat="63.6301138926" lon="10.8233527722">
		<tag k="alt_name" v="Stavset, søre" />
		<tag k="fixme" v="multiple name tags, choose one and add the other to alt_name" />
		<tag k="name" v="Stavset;Søre Stavset" />
		<tag k="place" v="farm" />
		<tag k="ssr:stedsnr" v="195992" />
	</node>
	<node id="-767466" lat="63.6527972249" lon="10.8571527848">
		<tag k="name" v="Åtlotangen" />
		<tag k="natural" v="cape" />
		<tag k="ssr:stedsnr" v="195984" />
	</node>
	<node id="-767465" lat="63.6203013313" lon="10.8559565498">
		<tag k="fixme" v="consider place=hamlet" />
		<tag k="name" v="Indre Hovdalen" />
		<tag k="place" v="farm" />
		<tag k="ssr:stedsnr" v="195973" />
	</node>
	<node id="-767464" lat="63.6075305517" lon="10.7413138891">
		<tag k="name" v="Myrholt" />
		<tag k="place" v="farm" />
		<tag k="ssr:stedsnr" v="195925" />
	</node>
	<node id="-767463" lat="63.5983249957" lon="10.7474833354">
		<tag k="name" v="Bergsvatnet" />
		<tag k="natural" v="water" />
		<tag k="ssr:stedsnr" v="195890" />
	</node>
	<node id="-767462" lat="63.6031271686" lon="10.8656421814">
		<tag k="fixme" v="consider place=hamlet" />
		<tag k="name" v="Aunet" />
		<tag k="place" v="farm" />
		<tag k="ssr:stedsnr" v="195881" />
	</node>
	<node id="-767461" lat="63.5857180636" lon="10.7439855478">
		<tag k="name" v="Alstad" />
		<tag k="place" v="hamlet" />
		<tag k="ssr:stedsnr" v="195869" />
	</node>
	<node id="-767460" lat="63.5964559763" lon="10.8493075542">
		<tag k="fixme" v="consider place=hamlet" />
		<tag k="name" v="Ulvika" />
		<tag k="place" v="farm" />
		<tag k="ssr:stedsnr" v="195857" />
	</node>
	<node id="-767459" lat="63.5742611079" lon="10.7243527837">
		<tag k="name" v="Revhaug" />
		<tag k="place" v="farm" />
		<tag k="ssr:stedsnr" v="195832" />
	</node>
	<node id="-767458" lat="63.5398444477" lon="10.6454583394">
		<tag k="name" v="Kleiva" />
		<tag k="place" v="farm" />
		<tag k="ssr:stedsnr" v="195251" />
	</node>
	<node id="-767457" lat="63.5776583316" lon="10.605413896">
		<tag k="alt_name" v="Bakken" />
		<tag k="name" v="Bakkan" />
		<tag k="place" v="farm" />
		<tag k="ssr:stedsnr" v="195248" />
	</node>
	<node id="-767456" lat="63.6620583301" lon="10.8732555639">
		<tag k="fixme" v="consider seamark:type=rock or natural=shoal" />
		<tag k="name" v="Naustskjæret" />
		<tag k="place" v="islet" />
		<tag k="ssr:stedsnr" v="195054" />
	</node>
	<node id="-767455" lat="63.6509335971" lon="10.9110736483">
		<tag k="fixme" v="consider place=hamlet" />
		<tag k="name" v="Fjellplassen" />
		<tag k="place" v="farm" />
		<tag k="ssr:stedsnr" v="195031" />
	</node>
	<node id="-767454" lat="63.6063333338" lon="10.8005944494">
		<tag k="name" v="Kvamsbekken" />
		<tag k="ssr:stedsnr" v="168298" />
		<tag k="waterway" v="stream" />
	</node>
	<node id="-767453" lat="63.6270972189" lon="10.8054999898">
		<tag k="name" v="Revskaftet" />
		<tag k="natural" v="hill" />
		<tag k="place" v="locality" />
		<tag k="ssr:stedsnr" v="168200" />
	</node>
	<node id="-767452" lat="63.6187452865" lon="10.8870506252">
		<tag k="name" v="Gjørismyra" />
		<tag k="natural" v="wetland" />
		<tag k="ssr:stedsnr" v="167149" />
	</node>
	<node id="-767451" lat="63.6195096831" lon="10.8695659856">
		<tag k="name" v="Svartberget" />
		<tag k="natural" v="hill" />
		<tag k="place" v="locality" />
		<tag k="ssr:stedsnr" v="167190" />
	</node>
	<node id="-767450" lat="63.641037159" lon="10.9012932701">
		<tag k="name" v="Fesetmyrdalen" />
		<tag k="natural" v="valley" />
		<tag k="place" v="locality" />
		<tag k="ssr:stedsnr" v="167187" />
	</node>
	<node id="-767449" lat="63.6311607207" lon="10.9002239643">
		<tag k="name" v="Åsmyra" />
		<tag k="natural" v="wetland" />
		<tag k="ssr:stedsnr" v="167186" />
	</node>
	<node id="-767448" lat="63.6237391646" lon="10.8498037783">
		<tag k="name" v="Hovdalsmyra" />
		<tag k="natural" v="wetland" />
		<tag k="ssr:stedsnr" v="167185" />
	</node>
	<node id="-767447" lat="63.6297552054" lon="10.8858244764">
		<tag k="name" v="Lutdalsbekken" />
		<tag k="ssr:stedsnr" v="167184" />
		<tag k="waterway" v="stream" />
	</node>
	<node id="-767446" lat="63.5713666637" lon="10.6752749971">
		<tag k="name" v="Ryggavika" />
		<tag k="natural" v="bay" />
		<tag k="ssr:stedsnr" v="166743" />
	</node>
	<node id="-767445" lat="63.607016669" lon="10.7599166666">
		<tag k="name" v="Vangberghalla" />
		<tag k="natural" v="hill" />
		<tag k="place" v="locality" />
		<tag k="ssr:stedsnr" v="166985" />
	</node>
	<node id="-767443" lat="63.6367737644" lon="10.8379817715">
		<tag k="fixme" v="consider place=hamlet" />
		<tag k="name" v="Staur" />
		<tag k="place" v="farm" />
		<tag k="ssr:stedsnr" v="134987" />
	</node>
	<node id="-767442" lat="63.5811833369" lon="10.7485472227">
		<tag k="name" v="Gorset" />
		<tag k="place" v="farm" />
		<tag k="ssr:stedsnr" v="134838" />
	</node>
	<node id="-767441" lat="63.6160064226" lon="10.8650278435">
		<tag k="fixme" v="consider place=hamlet" />
		<tag k="name" v="Brenne" />
		<tag k="place" v="farm" />
		<tag k="ssr:stedsnr" v="134919" />
	</node>
	<node id="-767440" lat="63.6103916628" lon="10.8938583309">
		<tag k="name" v="Litlgjerdet" />
		<tag k="place" v="isolated_dwelling" />
		<tag k="ssr:stedsnr" v="134917" />
	</node>
	<node id="-767439" lat="63.5999222182" lon="10.7079027758">
		<tag k="name" v="Helsingplassen" />
		<tag k="place" v="farm" />
		<tag k="ssr:stedsnr" v="134347" />
	</node>
	<node id="-767438" lat="63.5638388882" lon="10.5839527876">
		<tag k="name" v="Skagøra" />
		<tag k="natural" v="beach" />
		<tag k="place" v="locality" />
		<tag k="ssr:stedsnr" v="134296" />
	</node>
	<node id="-767437" lat="63.5618888915" lon="10.6759444395">
		<tag k="alt_name" v="Nordfjæra, søre" />
		<tag k="name" v="Søre Nordfjæra" />
		<tag k="place" v="farm" />
		<tag k="ssr:stedsnr" v="134294" />
	</node>
	<node id="-767436" lat="63.5671914272" lon="10.7018187577">
		<tag k="alt_name" v="Logtun" />
		<tag k="amenity" v="place_of_worship" />
		<tag k="denomination" v="lutheran" />
		<tag k="name" v="Logtun kirke" />
		<tag k="religion" v="christian" />
		<tag k="ssr:stedsnr" v="134293" />
	</node>
	<node id="-767435" lat="63.5502722263" lon="10.6416888983">
		<tag k="alt_name" v="Skjulsvika" />
		<tag k="name" v="Skulsvikbukta" />
		<tag k="natural" v="bay" />
		<tag k="ssr:stedsnr" v="134287" />
	</node>
	<node id="-767434" lat="63.5415527813" lon="10.6410666599">
		<tag k="alt_name" v="Hauganfjæra" />
		<tag k="name" v="Haugfjæra" />
		<tag k="natural" v="bay" />
		<tag k="ssr:stedsnr" v="134281" />
	</node>
	<node id="-767433" lat="63.545252776" lon="10.6730166669">
		<tag k="alt_name" v="Hernes, søre" />
		<tag k="name" v="Søre Hernes" />
		<tag k="place" v="farm" />
		<tag k="ssr:stedsnr" v="134279" />
	</node>
	<node id="-767432" lat="63.5471083315" lon="10.6499611193">
		<tag k="name" v="Oldret" />
		<tag k="place" v="farm" />
		<tag k="ssr:stedsnr" v="134274" />
	</node>
	<node id="-767431" lat="63.5491638886" lon="10.6677722316">
		<tag k="name" v="Neset" />
		<tag k="natural" v="cape" />
		<tag k="ssr:stedsnr" v="134267" />
	</node>
	<node id="-767430" lat="63.5834888878" lon="10.6131166632">
		<tag k="name" v="Kviningen" />
		<tag k="natural" v="cape" />
		<tag k="ssr:stedsnr" v="134256" />
	</node>
	<node id="-767429" lat="63.579686108" lon="10.5845527817">
		<tag k="name" v="Gardsgrunnen" />
		<tag k="natural" v="shoal" />
		<tag k="place" v="locality" />
		<tag k="ssr:stedsnr" v="134255" />
	</node>
	<node id="-767428" lat="63.5804361097" lon="10.6240444496">
		<tag k="name" v="Nordhamna" />
		<tag k="natural" v="bay" />
		<tag k="ssr:stedsnr" v="134254" />
	</node>
	<node id="-767427" lat="63.5757361136" lon="10.6784722125">
		<tag k="name" v="Bakken" />
		<tag k="place" v="farm" />
		<tag k="ssr:stedsnr" v="134238" />
	</node>
	<node id="-767426" lat="63.568450002" lon="10.7041444514">
		<tag k="name" v="Tinghaugen" />
		<tag k="ssr:stedsnr" v="134229" />
		<tag k="tourism" v="attraction" />
	</node>
	<node id="-767425" lat="63.6405166648" lon="10.8508555609">
		<tag k="alt_name" v="Åtlo" />
		<tag k="name" v="Åtlohaugen" />
		<tag k="place" v="farm" />
		<tag k="ssr:stedsnr" v="134056" />
	</node>
	<node id="-767424" lat="63.5513193612" lon="10.6646803327">
		<tag k="name" v="Hernes" />
		<tag k="place" v="hamlet" />
		<tag k="ssr:stedsnr" v="118828" />
	</node>
	<node id="-767423" lat="63.6468805598" lon="10.9237277769">
		<tag k="name" v="Øver Våbekken" />
		<tag k="ssr:stedsnr" v="107830" />
		<tag k="waterway" v="stream" />
	</node>
	<node id="-767422" lat="63.5674777785" lon="10.7119416607">
		<tag k="name" v="Prestaunet" />
		<tag k="place" v="farm" />
		<tag k="ssr:stedsnr" v="107685" />
	</node>
	<node id="-767421" lat="63.5608722223" lon="10.670830548">
		<tag k="name" v="Nordfjæraleiret" />
		<tag k="natural" v="beach" />
		<tag k="place" v="locality" />
		<tag k="ssr:stedsnr" v="107678" />
	</node>
	<node id="-767420" lat="63.5718960699" lon="10.7379077576">
		<tag k="name" v="Karlberget" />
		<tag k="place" v="isolated_dwelling" />
		<tag k="ssr:stedsnr" v="107374" />
	</node>
	<node id="-767419" lat="63.5631164498" lon="10.7200556529">
		<tag k="name" v="Logsteinhåmmåren" />
		<tag k="natural" v="cape" />
		<tag k="ssr:stedsnr" v="107365" />
	</node>
	<node id="-767418" lat="63.5576194476" lon="10.6787138922">
		<tag k="name" v="Nordstad" />
		<tag k="place" v="farm" />
		<tag k="ssr:stedsnr" v="107101" />
	</node>
	<node id="-767417" lat="63.6285694424" lon="10.7774777681">
		<tag k="name" v="Raudkleiva" />
		<tag k="natural" v="slope" />
		<tag k="place" v="locality" />
		<tag k="ssr:stedsnr" v="106952" />
	</node>
	<node id="-767416" lat="63.5882638933" lon="10.7025472173">
		<tag k="name" v="Risethøgda" />
		<tag k="natural" v="hill" />
		<tag k="place" v="locality" />
		<tag k="ssr:stedsnr" v="105777" />
	</node>
	<node id="-767415" lat="63.575439384" lon="10.6150318069">
		<tag k="fixme" v="consider place=hamlet" />
		<tag k="name" v="Tautra" />
		<tag k="place" v="farm" />
		<tag k="ssr:stedsnr" v="105066" />
	</node>
	<node id="-767414" lat="63.6266777782" lon="10.9067694445">
		<tag k="name" v="Lomtjønna" />
		<tag k="natural" v="water" />
		<tag k="ssr:stedsnr" v="74981" />
	</node>
	<node id="-767413" lat="63.6215222219" lon="10.8169916664">
		<tag k="name" v="Litl Kvamman" />
		<tag k="place" v="farm" />
		<tag k="ssr:stedsnr" v="74971" />
	</node>
	<node id="-767412" lat="63.6259888919" lon="10.7281611153">
		<tag k="name" v="Orsandgrunnen" />
		<tag k="natural" v="shoal" />
		<tag k="place" v="locality" />
		<tag k="ssr:stedsnr" v="74937" />
	</node>
	<node id="-767411" lat="63.6049333327" lon="10.7349250013">
		<tag k="name" v="Brattsvedalen" />
		<tag k="place" v="farm" />
		<tag k="ssr:stedsnr" v="74922" />
	</node>
	<node id="-767410" lat="63.6151349335" lon="10.7787083857">
		<tag k="fixme" v="consider place=hamlet" />
		<tag k="name" v="Stokkan" />
		<tag k="place" v="farm" />
		<tag k="ssr:stedsnr" v="74918" />
	</node>
	<node id="-767409" lat="63.6120938147" lon="10.854748314">
		<tag k="fixme" v="consider place=hamlet" />
		<tag k="name" v="Gisetstaden" />
		<tag k="place" v="farm" />
		<tag k="ssr:stedsnr" v="74900" />
	</node>
	<node id="-767408" lat="63.6160104562" lon="10.8895817472">
		<tag k="fixme" v="consider place=hamlet" />
		<tag k="name" v="Brannåsen" />
		<tag k="place" v="farm" />
		<tag k="ssr:stedsnr" v="74899" />
	</node>
	<node id="-767407" lat="63.6042805512" lon="10.791730564">
		<tag k="alt_name" v="Jakobsminde" />
		<tag k="name" v="Minde" />
		<tag k="place" v="farm" />
		<tag k="ssr:stedsnr" v="74874" />
	</node>
	<node id="-767406" lat="63.5728246103" lon="10.7278383489">
		<tag k="name" v="Austeng" />
		<tag k="place" v="farm" />
		<tag k="ssr:stedsnr" v="74829" />
	</node>
	<node id="-767405" lat="63.5534916711" lon="10.6892805519">
		<tag k="name" v="Austvik" />
		<tag k="place" v="farm" />
		<tag k="ssr:stedsnr" v="74224" />
	</node>
	<node id="-767404" lat="63.5828022531" lon="10.6234590934">
		<tag k="alt_name" v="Tautra, midtre;Tautra midtre" />
		<tag k="name" v="Midtre Tautra" />
		<tag k="place" v="farm" />
		<tag k="ssr:stedsnr" v="74207" />
	</node>
	<node id="-767403" lat="63.5837898081" lon="10.62297168">
		<tag k="alt_name" v="Tautra, nordre;Tautra nordre;Nord-Tautra" />
		<tag k="name" v="Nordre Tautra" />
		<tag k="place" v="farm" />
		<tag k="ssr:stedsnr" v="74206" />
	</node>
	<node id="-767402" lat="63.5779805558" lon="10.6778388806">
		<tag k="name" v="Hogstadsveet" />
		<tag k="place" v="farm" />
		<tag k="ssr:stedsnr" v="74189" />
	</node>
	<node id="-767401" lat="63.6066499994" lon="10.8628916766">
		<tag k="fixme" v="consider natural=peak for the most distinct mountains in the district" />
		<tag k="name" v="Tronnobergskammen" />
		<tag k="natural" v="hill" />
		<tag k="place" v="locality" />
		<tag k="ssr:stedsnr" v="73868" />
	</node>
	<node id="-767400" lat="63.6493305553" lon="10.9203416677">
		<tag k="name" v="Sottjønna" />
		<tag k="natural" v="water" />
		<tag k="ssr:stedsnr" v="74036" />
	</node>
	<node id="-767399" lat="63.5635972261" lon="10.5510611193">
		<tag k="name" v="Kjerkeflua" />
		<tag k="natural" v="shoal" />
		<tag k="place" v="locality" />
		<tag k="ssr:stedsnr" v="73247" />
	</node>
	<node id="-767398" lat="63.5920247388" lon="10.845217981">
		<tag k="fixme" v="consider seamark:type=rock or natural=shoal" />
		<tag k="name" v="Ulvikskjæret" />
		<tag k="place" v="islet" />
		<tag k="ssr:stedsnr" v="47276" />
	</node>
	<node id="-767397" lat="63.5772569602" lon="10.7805422181">
		<tag k="fixme" v="consider natural=peak for the most distinct mountains in the district" />
		<tag k="name" v="Moksnesåsen" />
		<tag k="natural" v="hill" />
		<tag k="place" v="locality" />
		<tag k="ssr:stedsnr" v="47257" />
	</node>
	<node id="-767396" lat="63.6338250037" lon="10.9124805573">
		<tag k="name" v="Setertjønna" />
		<tag k="natural" v="water" />
		<tag k="ssr:stedsnr" v="47096" />
	</node>
	<node id="-767395" lat="63.609302777" lon="10.7163527739">
		<tag k="name" v="Breivikbekken" />
		<tag k="ssr:stedsnr" v="46817" />
		<tag k="waterway" v="stream" />
	</node>
	<node id="-767394" lat="63.5894775478" lon="10.7650578036">
		<tag k="name" v="Jubergshaugen" />
		<tag k="natural" v="hill" />
		<tag k="place" v="locality" />
		<tag k="ssr:stedsnr" v="46275" />
	</node>
	<node id="-767393" lat="63.5487555529" lon="10.6363111203">
		<tag k="name" v="Håmmårhaugen" />
		<tag k="natural" v="hill" />
		<tag k="place" v="locality" />
		<tag k="ssr:stedsnr" v="46250" />
	</node>
	<node id="-767392" lat="63.6191861076" lon="10.8085694507">
		<tag k="name" v="Frøstad" />
		<tag k="place" v="farm" />
		<tag k="ssr:stedsnr" v="46213" />
	</node>
	<node id="-767391" lat="63.5983977019" lon="10.8562033179">
		<tag k="name" v="Bekken" />
		<tag k="natural" v="bay" />
		<tag k="ssr:stedsnr" v="46209" />
	</node>
	<node id="-767390" lat="63.6368499955" lon="10.8413305596">
		<tag k="name" v="Gammelgården" />
		<tag k="place" v="isolated_dwelling" />
		<tag k="ssr:stedsnr" v="46204" />
	</node>
	<node id="-767389" lat="63.6169854501" lon="10.8609829545">
		<tag k="name" v="Brennestangen" />
		<tag k="natural" v="cape" />
		<tag k="ssr:stedsnr" v="46178" />
	</node>
	<node id="-767388" lat="63.6288287334" lon="10.8996954913">
		<tag k="name" v="Åsan" />
		<tag k="natural" v="hill" />
		<tag k="place" v="locality" />
		<tag k="ssr:stedsnr" v="46173" />
	</node>
	<node id="-767387" lat="63.6073017146" lon="10.8853013698">
		<tag k="name" v="Raudberget" />
		<tag k="natural" v="hill" />
		<tag k="place" v="locality" />
		<tag k="ssr:stedsnr" v="46154" />
	</node>
	<node id="-767386" lat="63.615555873" lon="10.878246258">
		<tag k="name" v="Spendmyra" />
		<tag k="place" v="locality" />
		<tag k="ssr:stedsnr" v="46141" />
	</node>
	<node id="-767385" lat="63.5567805584" lon="10.6867972313">
		<tag k="name" v="Valtun" />
		<tag k="place" v="farm" />
		<tag k="ssr:stedsnr" v="46135" />
	</node>
	<node id="-767384" lat="63.6570113369" lon="10.9055586168">
		<tag k="name" v="Krokvassmyra" />
		<tag k="natural" v="wetland" />
		<tag k="ssr:stedsnr" v="46057" />
	</node>
	<node id="-767383" lat="63.6474761082" lon="10.8857829284">
		<tag k="name" v="Skardet" />
		<tag k="natural" v="valley" />
		<tag k="place" v="locality" />
		<tag k="ssr:stedsnr" v="46053" />
	</node>
	<node id="-767382" lat="63.5815444441" lon="10.8312055625">
		<tag k="name" v="Steinsgrunnen" />
		<tag k="natural" v="shoal" />
		<tag k="place" v="locality" />
		<tag k="ssr:stedsnr" v="44927" />
	</node>
	<node id="-767381" lat="63.5435638876" lon="10.6746888922">
		<tag k="name" v="Hernesøra" />
		<tag k="natural" v="beach" />
		<tag k="place" v="locality" />
		<tag k="ssr:stedsnr" v="44914" />
	</node>
	<node id="-767379" lat="63.6150697329" lon="10.8275754992">
		<tag k="fixme" v="multiple name tags, choose one and add the other to alt_name; consider place=hamlet" />
		<tag k="name" v="Ytre Hovdalen;Hovdalen" />
		<tag k="place" v="farm" />
		<tag k="ssr:stedsnr" v="13899" />
	</node>
	<node id="-767378" lat="63.6007972241" lon="10.836558326">
		<tag k="name" v="Skogtrøa" />
		<tag k="place" v="farm" />
		<tag k="ssr:stedsnr" v="13883" />
	</node>
	<node id="-767377" lat="63.6036138867" lon="10.81979999">
		<tag k="name" v="Husby" />
		<tag k="place" v="farm" />
		<tag k="ssr:stedsnr" v="13878" />
	</node>
	<node id="-767376" lat="63.5944777741" lon="10.8087555633">
		<tag k="fixme" v="consider natural=peak for the most distinct mountains in the district" />
		<tag k="name" v="Hellåsen" />
		<tag k="natural" v="hill" />
		<tag k="place" v="locality" />
		<tag k="ssr:stedsnr" v="13847" />
	</node>
	<node id="-767375" lat="63.5711305529" lon="10.7241444455">
		<tag k="name" v="Svean" />
		<tag k="place" v="farm" />
		<tag k="ssr:stedsnr" v="13836" />
	</node>
	<node id="-767374" lat="63.5690500042" lon="10.726797226">
		<tag k="name" v="Elverhaug" />
		<tag k="place" v="farm" />
		<tag k="ssr:stedsnr" v="13835" />
	</node>
	<node id="-767373" lat="63.6238669902" lon="10.8221912453">
		<tag k="name" v="Vestgård" />
		<tag k="place" v="farm" />
		<tag k="ssr:stedsnr" v="13970" />
	</node>
	<node id="-767372" lat="63.6188394806" lon="10.7996372048">
		<tag k="fixme" v="consider place=hamlet" />
		<tag k="name" v="Frøstad" />
		<tag k="place" v="farm" />
		<tag k="ssr:stedsnr" v="13969" />
	</node>
	<node id="-767371" lat="63.623086115" lon="10.889738883">
		<tag k="name" v="Lågkastbekken" />
		<tag k="ssr:stedsnr" v="13968" />
		<tag k="waterway" v="stream" />
	</node>
	<node id="-767370" lat="63.6185944443" lon="10.8611944456">
		<tag k="name" v="Hovdalsvatnet" />
		<tag k="natural" v="water" />
		<tag k="ssr:stedsnr" v="13965" />
		<tag k="water" v="lake" />
	</node>
	<node id="-767369" lat="63.6248499979" lon="10.8606888792">
		<tag k="name" v="Vang" />
		<tag k="place" v="isolated_dwelling" />
		<tag k="ssr:stedsnr" v="13964" />
	</node>
	<node id="-767368" lat="63.5659166691" lon="10.6945694354">
		<tag k="name" v="Mo" />
		<tag k="place" v="farm" />
		<tag k="ssr:stedsnr" v="13267" />
	</node>
	<node id="-767367" lat="63.5530903453" lon="10.676001756">
		<tag k="fixme" v="consider place=hamlet" />
		<tag k="name" v="Evenhus" />
		<tag k="place" v="farm" />
		<tag k="ssr:stedsnr" v="13248" />
	</node>
	<node id="-767366" lat="63.5430194488" lon="10.6696666711">
		<tag k="name" v="Heggvik" />
		<tag k="place" v="isolated_dwelling" />
		<tag k="ssr:stedsnr" v="13242" />
	</node>
	<node id="-767365" lat="63.5771222193" lon="10.704863883">
		<tag k="alt_name" v="Lein, litle" />
		<tag k="name" v="Litl-Lein" />
		<tag k="place" v="farm" />
		<tag k="ssr:stedsnr" v="13226" />
	</node>
	<node id="-767364" lat="63.5672222214" lon="10.5920777802">
		<tag k="name" v="Skaget" />
		<tag k="natural" v="cape" />
		<tag k="ssr:stedsnr" v="13200" />
	</node>
	<node id="-767363" lat="63.6621527808" lon="10.9022999909">
		<tag k="name" v="Igltjønna" />
		<tag k="natural" v="water" />
		<tag k="ssr:stedsnr" v="13069" />
	</node>
	<node id="-767362" lat="63.6014545449" lon="10.7300501705">
		<tag k="name" v="Nåvik søndre" />
		<tag k="place" v="farm" />
		<tag k="ssr:stedsnr" v="986098" />
	</node>
	<node id="-767360" lat="63.5707817206" lon="10.7596834984">
		<tag k="name" v="Moksnes ytre" />
		<tag k="place" v="farm" />
		<tag k="ssr:stedsnr" v="986100" />
	</node>
	<node id="-767358" lat="63.5896003329" lon="10.7115097384">
		<tag k="name" v="Riset" />
		<tag k="place" v="farm" />
		<tag k="ssr:stedsnr" v="985555" />
	</node>
	<node id="-767355" lat="63.5727247834" lon="10.7182770269">
		<tag k="name" v="Nordtun" />
		<tag k="place" v="farm" />
		<tag k="ssr:stedsnr" v="957340" />
	</node>
	<node id="-767354" lat="63.5878277798" lon="10.729163883">
		<tag k="name" v="Asklundvatnet" />
		<tag k="natural" v="water" />
		<tag k="ssr:stedsnr" v="863848" />
	</node>
	<node id="-767353" lat="63.5869194407" lon="10.7886861189">
		<tag k="name" v="Helltrøa" />
		<tag k="place" v="farm" />
		<tag k="ssr:stedsnr" v="863841" />
	</node>
	<node id="-767352" lat="63.5798548102" lon="10.7719013268">
		<tag k="fixme" v="consider place=hamlet" />
		<tag k="name" v="Revlan" />
		<tag k="place" v="farm" />
		<tag k="ssr:stedsnr" v="863815" />
	</node>
	<node id="-767351" lat="63.5729166673" lon="10.7684472239">
		<tag k="alt_name" v="Moksnes, austre;Moksnes østre" />
		<tag k="name" v="Austre Moksnes" />
		<tag k="place" v="farm" />
		<tag k="ssr:stedsnr" v="863811" />
	</node>
	<node id="-767350" lat="63.5797416664" lon="10.7796694438">
		<tag k="name" v="Myr" />
		<tag k="place" v="isolated_dwelling" />
		<tag k="ssr:stedsnr" v="863810" />
	</node>
	<node id="-767349" lat="63.569991664" lon="10.6173472163">
		<tag k="alt_name" v="Holmen, l;Litlholmen" />
		<tag k="name" v="Litle Holmen" />
		<tag k="natural" v="cape" />
		<tag k="ssr:stedsnr" v="862220" />
	</node>
	<node id="-767348" lat="63.6004305593" lon="10.8488944366">
		<tag k="name" v="Åsgutu" />
		<tag k="place" v="farm" />
		<tag k="ssr:stedsnr" v="838005" />
	</node>
	<node id="-767347" lat="63.6108277822" lon="10.7878888885">
		<tag k="fixme" v="consider natural=peak for the most distinct mountains in the district" />
		<tag k="name" v="Ramnåsen" />
		<tag k="natural" v="hill" />
		<tag k="place" v="locality" />
		<tag k="ssr:stedsnr" v="836258" />
	</node>
	<node id="-767346" lat="63.6053949754" lon="10.7955950054">
		<tag k="name" v="Raudmyra" />
		<tag k="natural" v="wetland" />
		<tag k="ssr:stedsnr" v="836254" />
	</node>
	<node id="-767345" lat="63.6404750031" lon="10.9300388811">
		<tag k="name" v="Liahøgda" />
		<tag k="natural" v="hill" />
		<tag k="place" v="locality" />
		<tag k="ssr:stedsnr" v="836071" />
	</node>
	<node id="-767344" lat="63.590436113" lon="10.7621972223">
		<tag k="name" v="Jubergselva" />
		<tag k="ssr:stedsnr" v="835907" />
		<tag k="waterway" v="stream" />
	</node>
	<node id="-767343" lat="63.587929937" lon="10.7537759973">
		<tag k="name" v="Presthushaugen" />
		<tag k="natural" v="hill" />
		<tag k="place" v="locality" />
		<tag k="ssr:stedsnr" v="835255" />
	</node>
	<node id="-767342" lat="63.5434472178" lon="10.6435527769">
		<tag k="name" v="Haugsand" />
		<tag k="place" v="farm" />
		<tag k="ssr:stedsnr" v="835223" />
	</node>
	<node id="-767341" lat="63.5888416647" lon="10.6908305484">
		<tag k="name" v="Huva" />
		<tag k="natural" v="cape" />
		<tag k="ssr:stedsnr" v="802353" />
	</node>
	<node id="-767340" lat="63.6095750003" lon="10.713808343">
		<tag k="alt_name" v="Breidvika" />
		<tag k="name" v="Breivika" />
		<tag k="place" v="farm" />
		<tag k="ssr:stedsnr" v="802321" />
	</node>
	<node id="-767339" lat="63.552266669" lon="10.6649722148">
		<tag k="alt_name" v="Hernes, østre" />
		<tag k="name" v="Østre Hernes" />
		<tag k="place" v="farm" />
		<tag k="ssr:stedsnr" v="802255" />
	</node>
	<node id="-767338" lat="63.5721475265" lon="10.7604359607">
		<tag k="name" v="Moksnes" />
		<tag k="place" v="hamlet" />
		<tag k="ssr:stedsnr" v="924766" />
	</node>
	<node id="-767337" lat="63.5729194478" lon="10.7431277851">
		<tag k="name" v="Storleiret" />
		<tag k="natural" v="bay" />
		<tag k="ssr:stedsnr" v="924764" />
	</node>
	<node id="-767336" lat="63.632038976" lon="10.8277639984">
		<tag k="fixme" v="consider place=hamlet" />
		<tag k="name" v="Buset" />
		<tag k="place" v="farm" />
		<tag k="ssr:stedsnr" v="923996" />
	</node>
	<node id="-767335" lat="63.6306361079" lon="10.8569555523">
		<tag k="name" v="Eide" />
		<tag k="place" v="farm" />
		<tag k="ssr:stedsnr" v="923993" />
	</node>
	<node id="-767334" lat="63.6383694483" lon="10.8480694539">
		<tag k="name" v="Fossli" />
		<tag k="place" v="farm" />
		<tag k="ssr:stedsnr" v="923985" />
	</node>
	<node id="-767333" lat="63.6227611092" lon="10.8197527794">
		<tag k="name" v="Nyenget" />
		<tag k="place" v="farm" />
		<tag k="ssr:stedsnr" v="923980" />
	</node>
	<node id="-767332" lat="63.6254722195" lon="10.7481638895">
		<tag k="name" v="Småtta" />
		<tag k="natural" v="bay" />
		<tag k="ssr:stedsnr" v="923955" />
	</node>
	<node id="-767331" lat="63.6006916653" lon="10.8487305632">
		<tag k="name" v="Ospguttu" />
		<tag k="place" v="farm" />
		<tag k="ssr:stedsnr" v="923886" />
	</node>
	<node id="-767330" lat="63.5766833298" lon="10.7583472154">
		<tag k="name" v="Sveet" />
		<tag k="place" v="isolated_dwelling" />
		<tag k="ssr:stedsnr" v="923846" />
	</node>
	<node id="-767329" lat="63.579508836" lon="10.7412822947">
		<tag k="leisure" v="pitch" />
		<tag k="name" v="Vinnatrøa" />
		<tag k="ssr:stedsnr" v="923845" />
	</node>
	<node id="-767328" lat="63.5575472209" lon="10.622358341">
		<tag k="alt_name" v="Bollsvikgrunnen" />
		<tag k="name" v="Ballsvikgrunnen" />
		<tag k="natural" v="shoal" />
		<tag k="place" v="locality" />
		<tag k="ssr:stedsnr" v="923266" />
	</node>
	<node id="-767327" lat="63.5625249985" lon="10.7003861072">
		<tag k="name" v="Moum" />
		<tag k="place" v="farm" />
		<tag k="ssr:stedsnr" v="923264" />
	</node>
	<node id="-767326" lat="63.5461027783" lon="10.6113250022">
		<tag k="name" v="Øksningen" />
		<tag k="place" v="islet" />
		<tag k="ssr:stedsnr" v="923262" />
	</node>
	<node id="-767325" lat="63.5650083358" lon="10.6755444505">
		<tag k="name" v="Nordfjæra" />
		<tag k="place" v="farm" />
		<tag k="ssr:stedsnr" v="786832" />
	</node>
	<node id="-767324" lat="63.8191722183" lon="11.1078083357">
		<tag k="bay" v="fjord" />
		<tag k="name" v="Trondheimsfjorden" />
		<tag k="natural" v="bay" />
		<tag k="ssr:stedsnr" v="923078" />
	</node>
	<node id="-767323" lat="63.6562555579" lon="10.8653777732">
		<tag k="alt_name" v="Drauvika" />
		<tag k="name" v="Draugvika" />
		<tag k="natural" v="bay" />
		<tag k="ssr:stedsnr" v="923069" />
	</node>
	<node id="-767322" lat="63.630955559" lon="10.9110083308">
		<tag k="name" v="Brannhaugen" />
		<tag k="natural" v="hill" />
		<tag k="place" v="locality" />
		<tag k="ssr:stedsnr" v="775103" />
	</node>
	<node id="-767321" lat="63.6083138856" lon="10.737369449">
		<tag k="name" v="Tømret" />
		<tag k="place" v="farm" />
		<tag k="ssr:stedsnr" v="741958" />
	</node>
	<node id="-767320" lat="63.5844388873" lon="10.818072228">
		<tag k="alt_name" v="Korsneset" />
		<tag k="name" v="Korsnes" />
		<tag k="natural" v="cape" />
		<tag k="ssr:stedsnr" v="741906" />
	</node>
	<node id="-767319" lat="63.567836108" lon="10.7674277821">
		<tag k="name" v="Laberget" />
		<tag k="natural" v="cape" />
		<tag k="ssr:stedsnr" v="741815" />
	</node>
	<node id="-767318" lat="63.642600003" lon="10.9300138837">
		<tag k="name" v="Kudalsbekken" />
		<tag k="ssr:stedsnr" v="897095" />
		<tag k="waterway" v="stream" />
	</node>
	<node id="-767317" lat="63.5683997722" lon="10.7233559403">
		<tag k="name" v="Rognhaugen" />
		<tag k="natural" v="hill" />
		<tag k="place" v="locality" />
		<tag k="ssr:stedsnr" v="896382" />
	</node>
	<node id="-767316" lat="63.5770581729" lon="10.7175443819">
		<tag k="name" v="Solbakken" />
		<tag k="place" v="farm" />
		<tag k="ssr:stedsnr" v="896367" />
	</node>
	<node id="-767315" lat="63.592941663" lon="10.8323833285">
		<tag k="name" v="Steinsbekken" />
		<tag k="ssr:stedsnr" v="896259" />
		<tag k="waterway" v="stream" />
	</node>
	<node id="-767314" lat="63.5805274957" lon="10.7959006966">
		<tag k="name" v="Steinan" />
		<tag k="place" v="farm" />
		<tag k="ssr:stedsnr" v="896246" />
	</node>
	<node id="-767313" lat="63.6061861106" lon="10.8581022185">
		<tag k="fixme" v="consider natural=peak for the most distinct mountains in the district" />
		<tag k="name" v="Brennkammen" />
		<tag k="natural" v="hill" />
		<tag k="place" v="locality" />
		<tag k="ssr:stedsnr" v="896186" />
	</node>
	<node id="-767312" lat="63.6532936208" lon="10.9095592909">
		<tag k="name" v="Fjellplassbekken" />
		<tag k="ssr:stedsnr" v="896064" />
		<tag k="waterway" v="stream" />
	</node>
	<node id="-767311" lat="63.6562146754" lon="10.869356599">
		<tag k="name" v="Olderbakken" />
		<tag k="place" v="farm" />
		<tag k="ssr:stedsnr" v="896063" />
	</node>
	<node id="-767310" lat="63.645520236" lon="10.8619283138">
		<tag k="name" v="Åtlobekken" />
		<tag k="ssr:stedsnr" v="896052" />
		<tag k="waterway" v="stream" />
	</node>
	<node id="-767309" lat="63.5797472242" lon="10.6264249933">
		<tag k="name" v="Valen" />
		<tag k="place" v="locality" />
		<tag k="ssr:stedsnr" v="896013" />
	</node>
	<node id="-767308" lat="63.5975694456" lon="10.7035277775">
		<tag k="man_made" v="quay" />
		<tag k="name" v="Småland kai" />
		<tag k="place" v="locality" />
		<tag k="ssr:stedsnr" v="895793" />
	</node>
	<node id="-767307" lat="63.5814248247" lon="10.801701399">
		<tag k="name" v="Saltbuvollen" />
		<tag k="place" v="farm" />
		<tag k="ssr:stedsnr" v="714216" />
	</node>
	<node id="-767306" lat="63.6323888897" lon="10.8329277756">
		<tag k="name" v="Brubakken" />
		<tag k="natural" v="slope" />
		<tag k="place" v="locality" />
		<tag k="ssr:stedsnr" v="714166" />
	</node>
	<node id="-767305" lat="63.6321463764" lon="10.8793834654">
		<tag k="name" v="Hesttjønnåsen" />
		<tag k="place" v="isolated_dwelling" />
		<tag k="ssr:stedsnr" v="713159" />
	</node>
	<node id="-767304" lat="63.6041888907" lon="10.7758749988">
		<tag k="name" v="Kleivan" />
		<tag k="natural" v="slope" />
		<tag k="place" v="locality" />
		<tag k="ssr:stedsnr" v="712991" />
	</node>
	<node id="-767303" lat="63.6309944408" lon="10.7657416579">
		<tag k="name" v="Sandberga" />
		<tag k="place" v="quarter" />
		<tag k="ssr:stedsnr" v="712965" />
	</node>
	<node id="-767302" lat="63.5714888884" lon="10.7174194532">
		<tag k="name" v="Solstad" />
		<tag k="place" v="farm" />
		<tag k="ssr:stedsnr" v="712761" />
	</node>
	<node id="-767301" lat="63.5682555538" lon="10.69720555">
		<tag k="name" v="Logtunmyra" />
		<tag k="place" v="locality" />
		<tag k="ssr:stedsnr" v="712758" />
	</node>
	<node id="-767300" lat="63.562836107" lon="10.6817194447">
		<tag k="name" v="Rønning" />
		<tag k="place" v="farm" />
		<tag k="ssr:stedsnr" v="894772" />
	</node>
	<node id="-767299" lat="63.6353681543" lon="10.7819435458">
		<tag k="alt_name" v="Fåneshamn" />
		<tag k="name" v="Fåneshamna" />
		<tag k="place" v="locality" />
		<tag k="ssr:stedsnr" v="893329" />
	</node>
	<node id="-767298" lat="63.5710388909" lon="10.7061500042">
		<tag k="building" v="industrial" />
		<tag k="industrial" v="factory" />
		<tag k="name" v="Bolkan bruk" />
		<tag k="ssr:stedsnr" v="680266" />
	</node>
	<node id="-767297" lat="63.6100277744" lon="10.8656361088">
		<tag k="name" v="Kammyra" />
		<tag k="natural" v="wetland" />
		<tag k="ssr:stedsnr" v="654204" />
	</node>
	<node id="-767296" lat="63.6028944473" lon="10.7856138812">
		<tag k="fixme" v="consider natural=peak for the most distinct mountains in the district" />
		<tag k="name" v="Gaupåsen" />
		<tag k="natural" v="hill" />
		<tag k="place" v="locality" />
		<tag k="ssr:stedsnr" v="653273" />
	</node>
	<node id="-767295" lat="63.6263449451" lon="10.8765511273">
		<tag k="name" v="Landfastholmen" />
		<tag k="place" v="islet" />
		<tag k="ssr:stedsnr" v="653141" />
	</node>
	<node id="-767294" lat="63.5920499962" lon="10.8451666627">
		<tag k="fixme" v="consider seamark:type=rock or natural=shoal" />
		<tag k="name" v="Storskjæret" />
		<tag k="place" v="islet" />
		<tag k="ssr:stedsnr" v="650920" />
	</node>
	<node id="-767293" lat="63.6119583316" lon="10.8071833239">
		<tag k="name" v="Rønningen" />
		<tag k="place" v="farm" />
		<tag k="ssr:stedsnr" v="619934" />
	</node>
	<node id="-767292" lat="63.5705222257" lon="10.6021694424">
		<tag k="name" v="Skagbukta" />
		<tag k="natural" v="bay" />
		<tag k="ssr:stedsnr" v="619217" />
	</node>
	<node id="-767291" lat="63.6375277792" lon="10.9327805493">
		<tag k="name" v="Rasmustjønnbekken" />
		<tag k="ssr:stedsnr" v="715089" />
		<tag k="waterway" v="stream" />
	</node>
	<node id="-767290" lat="63.5706171001" lon="10.7316672346">
		<tag k="name" v="Litlleiret" />
		<tag k="natural" v="bay" />
		<tag k="ssr:stedsnr" v="714320" />
	</node>
	<node id="-767289" lat="63.578797765" lon="10.7452598222">
		<tag k="name" v="Nordvik" />
		<tag k="place" v="isolated_dwelling" />
		<tag k="ssr:stedsnr" v="714318" />
	</node>
	<node id="-767288" lat="63.6682055565" lon="10.8887000085">
		<tag k="name" v="Holmtjønnbekken" />
		<tag k="ssr:stedsnr" v="714065" />
		<tag k="waterway" v="stream" />
	</node>
	<node id="-767287" lat="63.676058335" lon="10.8950861153">
		<tag k="historic" v="boundary_stone" />
		<tag k="man_made" v="cairn" />
		<tag k="name" v="Frosthornet" />
		<tag k="place" v="locality" />
		<tag k="ssr:stedsnr" v="714064" />
	</node>
	<node id="-767286" lat="63.5981666708" lon="10.8428805521">
		<tag k="name" v="Ulvik" />
		<tag k="place" v="farm" />
		<tag k="ssr:stedsnr" v="714227" />
	</node>
	<node id="-767285" lat="63.5849576325" lon="10.7926107503">
		<tag k="name" v="Bakkli" />
		<tag k="place" v="farm" />
		<tag k="ssr:stedsnr" v="714219" />
	</node>
	<node id="-767284" lat="63.5933805598" lon="10.7311555499">
		<tag k="name" v="Skogbrynet" />
		<tag k="place" v="quarter" />
		<tag k="ssr:stedsnr" v="713895" />
	</node>
	<node id="-767283" lat="63.6386972222" lon="10.9178388799">
		<tag k="name" v="Høgmyran" />
		<tag k="natural" v="wetland" />
		<tag k="ssr:stedsnr" v="593105" />
	</node>
	<node id="-767282" lat="63.5547527815" lon="10.6949722171">
		<tag k="name" v="Svendgård" />
		<tag k="place" v="farm" />
		<tag k="ssr:stedsnr" v="713136" />
	</node>
	<node id="-767281" lat="63.6257972375" lon="10.8684870858">
		<tag k="name" v="Lutdalstangen" />
		<tag k="natural" v="cape" />
		<tag k="ssr:stedsnr" v="713076" />
	</node>
	<node id="-767280" lat="63.6448382422" lon="10.8790856994">
		<tag k="name" v="Brannskardet" />
		<tag k="natural" v="valley" />
		<tag k="place" v="locality" />
		<tag k="ssr:stedsnr" v="713055" />
	</node>
	<node id="-767279" lat="63.5907833293" lon="10.7073944505">
		<tag k="name" v="Trøan" />
		<tag k="place" v="farm" />
		<tag k="ssr:stedsnr" v="591804" />
	</node>
	<node id="-767278" lat="63.5845361076" lon="10.5579638898">
		<tag k="name" v="Nordgrunnen" />
		<tag k="natural" v="shoal" />
		<tag k="place" v="locality" />
		<tag k="ssr:stedsnr" v="711057" />
	</node>
	<node id="-767277" lat="63.5866605577" lon="10.7321625795">
		<tag k="name" v="Asklund" />
		<tag k="place" v="hamlet" />
		<tag k="ssr:stedsnr" v="559863" />
	</node>
	<node id="-767276" lat="63.6201460834" lon="10.89290829">
		<tag k="fixme" v="consider place=hamlet" />
		<tag k="name" v="Svenskhalla" />
		<tag k="place" v="farm" />
		<tag k="ssr:stedsnr" v="559970" />
	</node>
	<node id="-767275" lat="63.6134555594" lon="10.7249333279">
		<tag k="name" v="Storsveet" />
		<tag k="place" v="farm" />
		<tag k="ssr:stedsnr" v="559915" />
	</node>
	<node id="-767274" lat="63.6063249972" lon="10.7093555457">
		<tag k="alt_name" v="Skjeran" />
		<tag k="name" v="Skjæran" />
		<tag k="place" v="farm" />
		<tag k="ssr:stedsnr" v="558302" />
	</node>
	<node id="-767273" lat="63.5765250032" lon="10.6136083258">
		<tag k="name" v="Nordvik" />
		<tag k="place" v="farm" />
		<tag k="ssr:stedsnr" v="558208" />
	</node>
	<node id="-767272" lat="63.5749545783" lon="10.6054864803">
		<tag k="name" v="Tautra" />
		<tag k="place" v="island" />
		<tag k="ssr:stedsnr" v="558206" />
	</node>
	<node id="-767271" lat="63.6244055566" lon="10.7577250088">
		<tag k="name" v="Vigtil" />
		<tag k="place" v="farm" />
		<tag k="ssr:stedsnr" v="531959" />
	</node>
	<node id="-767270" lat="63.6021257243" lon="10.7278586188">
		<tag k="name" v="Nåvik" />
		<tag k="place" v="hamlet" />
		<tag k="ssr:stedsnr" v="530954" />
	</node>
	<node id="-767269" lat="63.6626638868" lon="10.9035194379">
		<tag k="fixme" v="consider tourism=alpine_hut or tourism=chalet" />
		<tag k="name" v="Fjellhov" />
		<tag k="ssr:stedsnr" v="526159" />
		<tag k="tourism" v="wilderness_hut" />
	</node>
	<node id="-767268" lat="63.6081904968" lon="10.8138312713">
		<tag k="fixme" v="consider place=hamlet" />
		<tag k="name" v="Hojem" />
		<tag k="place" v="farm" />
		<tag k="ssr:stedsnr" v="681893" />
	</node>
	<node id="-767267" lat="63.6032333291" lon="10.8785194349">
		<tag k="fixme" v="consider seamark:type=rock or natural=shoal" />
		<tag k="name" v="Kolvikskjæret" />
		<tag k="place" v="islet" />
		<tag k="ssr:stedsnr" v="498895" />
	</node>
	<node id="-767266" lat="63.5888049029" lon="10.7567356675">
		<tag k="fixme" v="consider place=hamlet" />
		<tag k="name" v="Presthus" />
		<tag k="place" v="farm" />
		<tag k="ssr:stedsnr" v="498885" />
	</node>
	<node id="-767265" lat="63.6320246863" lon="10.8101199003">
		<tag k="fixme" v="consider place=hamlet" />
		<tag k="name" v="Skogen" />
		<tag k="place" v="farm" />
		<tag k="ssr:stedsnr" v="680994" />
	</node>
	<node id="-767264" lat="63.6352594293" lon="10.8551955526">
		<tag k="fixme" v="consider place=hamlet" />
		<tag k="name" v="Feset" />
		<tag k="place" v="farm" />
		<tag k="ssr:stedsnr" v="680990" />
	</node>
	<node id="-767263" lat="63.6207722208" lon="10.8053222135">
		<tag k="name" v="Voll" />
		<tag k="place" v="farm" />
		<tag k="ssr:stedsnr" v="680981" />
	</node>
	<node id="-767262" lat="63.6118944426" lon="10.7404722126">
		<tag k="name" v="Søre Orsanden" />
		<tag k="place" v="farm" />
		<tag k="ssr:stedsnr" v="680938" />
	</node>
	<node id="-767261" lat="63.6115475635" lon="10.8974692586">
		<tag k="fixme" v="consider place=hamlet" />
		<tag k="name" v="Litlvika" />
		<tag k="place" v="farm" />
		<tag k="ssr:stedsnr" v="680926" />
	</node>
	<node id="-767260" lat="63.5875527793" lon="10.673705552">
		<tag k="alt_name" v="Karihovudgrunnen" />
		<tag k="name" v="Karihoveflua" />
		<tag k="natural" v="shoal" />
		<tag k="place" v="locality" />
		<tag k="ssr:stedsnr" v="680351" />
	</node>
	<node id="-767259" lat="63.6119777754" lon="10.7004972223">
		<tag k="alt_name" v="Breidvikflua" />
		<tag k="name" v="Breivikflua" />
		<tag k="natural" v="shoal" />
		<tag k="place" v="locality" />
		<tag k="ssr:stedsnr" v="680300" />
	</node>
	<node id="-767258" lat="63.5465472217" lon="10.6798333259">
		<tag k="name" v="Galtviksveet" />
		<tag k="place" v="farm" />
		<tag k="ssr:stedsnr" v="680246" />
	</node>
	<node id="-767257" lat="63.560405559" lon="10.6867916696">
		<tag k="alt_name" v="Moholtan" />
		<tag k="name" v="Moholt" />
		<tag k="place" v="farm" />
		<tag k="ssr:stedsnr" v="437256" />
	</node>
	<node id="-767256" lat="63.6333805597" lon="10.7776583382">
		<tag k="alt_name" v="Fånes, nedre;Fånes" />
		<tag k="name" v="Nedre Fånes" />
		<tag k="place" v="farm" />
		<tag k="ssr:stedsnr" v="498996" />
	</node>
	<node id="-767255" lat="63.6424199716" lon="10.8584882089">
		<tag k="name" v="Åtlo" />
		<tag k="place" v="hamlet" />
		<tag k="ssr:stedsnr" v="498987" />
	</node>
	<node id="-767254" lat="63.6279335972" lon="10.8217699708">
		<tag k="fixme" v="consider place=hamlet" />
		<tag k="name" v="Flekkstad" />
		<tag k="place" v="farm" />
		<tag k="ssr:stedsnr" v="498978" />
	</node>
	<node id="-767253" lat="63.6182638896" lon="10.8097194536">
		<tag k="name" v="Nordre Kvamman" />
		<tag k="place" v="farm" />
		<tag k="ssr:stedsnr" v="498939" />
	</node>
	<node id="-767252" lat="63.5964214895" lon="10.766728424">
		<tag k="fixme" v="consider place=hamlet" />
		<tag k="name" v="Lian" />
		<tag k="place" v="farm" />
		<tag k="ssr:stedsnr" v="498910" />
	</node>
	<node id="-767251" lat="63.6035416624" lon="10.8415944365">
		<tag k="name" v="Dalen" />
		<tag k="place" v="isolated_dwelling" />
		<tag k="ssr:stedsnr" v="498906" />
	</node>
	<node id="-767250" lat="63.556724998" lon="10.6754194534">
		<tag k="name" v="Sandvei" />
		<tag k="place" v="farm" />
		<tag k="ssr:stedsnr" v="498281" />
	</node>
	<node id="-767249" lat="63.5503690003" lon="10.6861056766">
		<tag k="fixme" v="consider place=hamlet" />
		<tag k="name" v="Galtvik" />
		<tag k="place" v="farm" />
		<tag k="ssr:stedsnr" v="498279" />
	</node>
	<node id="-767248" lat="63.5777344374" lon="10.7110535868">
		<tag k="alt_name" v="Lein, vestre;Lein" />
		<tag k="name" v="Vestre Lein" />
		<tag k="place" v="farm" />
		<tag k="ssr:stedsnr" v="498265" />
	</node>
	<node id="-767247" lat="63.5725222192" lon="10.5967055459">
		<tag k="name" v="Sandan" />
		<tag k="place" v="isolated_dwelling" />
		<tag k="ssr:stedsnr" v="498251" />
	</node>
	<node id="-767246" lat="63.581697225" lon="10.6729388868">
		<tag k="name" v="Holmberget" />
		<tag k="natural" v="cape" />
		<tag k="ssr:stedsnr" v="498257" />
	</node>
	<node id="-767245" lat="63.6502166636" lon="10.8594888976">
		<tag k="name" v="Leirvika" />
		<tag k="place" v="isolated_dwelling" />
		<tag k="ssr:stedsnr" v="498045" />
	</node>
	<node id="-767244" lat="63.6646083375" lon="10.8732638873">
		<tag k="fixme" v="consider seamark:type=rock or natural=shoal" />
		<tag k="name" v="Garnskjæret" />
		<tag k="place" v="islet" />
		<tag k="ssr:stedsnr" v="498008" />
	</node>
	<node id="-767243" lat="63.6002020807" lon="10.8589381909">
		<tag k="name" v="Ulvikberga" />
		<tag k="natural" v="hill" />
		<tag k="place" v="locality" />
		<tag k="ssr:stedsnr" v="349223" />
	</node>
	<node id="-767242" lat="63.6075851644" lon="10.8523227485">
		<tag k="name" v="Aspmodal" />
		<tag k="place" v="farm" />
		<tag k="ssr:stedsnr" v="349213" />
	</node>
	<node id="-767241" lat="63.5647788638" lon="10.6922376316">
		<tag k="fixme" v="consider place=hamlet" />
		<tag k="name" v="Mo" />
		<tag k="place" v="farm" />
		<tag k="ssr:stedsnr" v="482149" />
	</node>
	<node id="-767240" lat="63.6216582396" lon="10.7819986699">
		<tag k="fixme" v="consider place=hamlet" />
		<tag k="name" v="Breiset" />
		<tag k="place" v="farm" />
		<tag k="ssr:stedsnr" v="316970" />
	</node>
	<node id="-767239" lat="63.6702388888" lon="10.8930000047">
		<tag k="name" v="Brurstidalen" />
		<tag k="natural" v="valley" />
		<tag k="place" v="locality" />
		<tag k="ssr:stedsnr" v="317006" />
	</node>
	<node id="-767238" lat="63.6658972188" lon="10.8954361176">
		<tag k="name" v="Holmtjønna" />
		<tag k="natural" v="water" />
		<tag k="ssr:stedsnr" v="317005" />
	</node>
	<node id="-767237" lat="63.5494500028" lon="10.633752786">
		<tag k="name" v="Ballsvik" />
		<tag k="place" v="farm" />
		<tag k="ssr:stedsnr" v="316261" />
	</node>
	<node id="-767236" lat="63.5533583319" lon="10.6598833402">
		<tag k="alt_name" v="Hernes, øvre" />
		<tag k="name" v="Øvre Hernes" />
		<tag k="place" v="farm" />
		<tag k="ssr:stedsnr" v="316259" />
	</node>
	<node id="-767235" lat="63.5466666657" lon="10.6288666663">
		<tag k="alt_name" v="Frostatangen" />
		<tag k="name" v="Hynne" />
		<tag k="natural" v="cape" />
		<tag k="ssr:stedsnr" v="316253" />
	</node>
	<node id="-767234" lat="63.587336107" lon="10.6896750068">
		<tag k="alt_name" v="Lenvik" />
		<tag k="name" v="Lenvika" />
		<tag k="place" v="farm" />
		<tag k="ssr:stedsnr" v="316359" />
	</node>
	<node id="-767233" lat="63.5857222183" lon="10.6966944463">
		<tag k="name" v="Ådal" />
		<tag k="place" v="farm" />
		<tag k="ssr:stedsnr" v="316357" />
	</node>
	<node id="-767232" lat="63.566805559" lon="10.6892027794">
		<tag k="alt_name" v="Mo, nordre;Mo nordre" />
		<tag k="name" v="Nordre Mo" />
		<tag k="place" v="farm" />
		<tag k="ssr:stedsnr" v="316216" />
	</node>
	<node id="-767231" lat="63.5714777807" lon="10.6895805608">
		<tag k="alt_name" v="Rygg, nedre;Rygg" />
		<tag k="name" v="Nedre Rygg" />
		<tag k="place" v="farm" />
		<tag k="ssr:stedsnr" v="316212" />
	</node>
	<node id="-767230" lat="63.5755916698" lon="10.6968333266">
		<tag k="alt_name" v="Rygg, østre" />
		<tag k="name" v="Østre Rygg" />
		<tag k="place" v="farm" />
		<tag k="ssr:stedsnr" v="316211" />
	</node>
	<node id="-767229" lat="63.5746055557" lon="10.6898861043">
		<tag k="alt_name" v="Rygg, øvre" />
		<tag k="name" v="Øvre Rygg" />
		<tag k="place" v="farm" />
		<tag k="ssr:stedsnr" v="316209" />
	</node>
	<node id="-767228" lat="63.6391583295" lon="10.9403611095">
		<tag k="name" v="Rasmustjønna" />
		<tag k="natural" v="water" />
		<tag k="ssr:stedsnr" v="472097" />
	</node>
	<node id="-767227" lat="63.5701428178" lon="10.7185830678">
		<tag k="name" v="Midttun" />
		<tag k="place" v="farm" />
		<tag k="ssr:stedsnr" v="471347" />
	</node>
	<node id="-767226" lat="63.589069444" lon="10.8317916756">
		<tag k="name" v="Geitberget" />
		<tag k="natural" v="hill" />
		<tag k="place" v="locality" />
		<tag k="ssr:stedsnr" v="471257" />
	</node>
	<node id="-767225" lat="63.5844559159" lon="10.7862509589">
		<tag k="name" v="Kjøbenhavn" />
		<tag k="place" v="farm" />
		<tag k="ssr:stedsnr" v="471253" />
	</node>
	<node id="-767224" lat="63.653160741" lon="10.857927294">
		<tag k="name" v="Vikan" />
		<tag k="place" v="farm" />
		<tag k="ssr:stedsnr" v="471072" />
	</node>
	<node id="-767223" lat="63.6613173679" lon="10.9021552875">
		<tag k="name" v="Igltjønnmyra" />
		<tag k="natural" v="wetland" />
		<tag k="ssr:stedsnr" v="471067" />
	</node>
	<node id="-767222" lat="63.6112444488" lon="10.7115666765">
		<tag k="name" v="Breivikbukta" />
		<tag k="natural" v="bay" />
		<tag k="ssr:stedsnr" v="470800" />
	</node>
	<node id="-767221" lat="63.5577527751" lon="10.6757027682">
		<tag k="name" v="Hernesmarka" />
		<tag k="place" v="farm" />
		<tag k="ssr:stedsnr" v="470322" />
	</node>
	<node id="-767220" lat="63.6088361133" lon="10.754302773">
		<tag k="name" v="Langdalen" />
		<tag k="natural" v="valley" />
		<tag k="place" v="locality" />
		<tag k="ssr:stedsnr" v="469985" />
	</node>
	<node id="-767219" lat="63.6261327201" lon="10.8984723175">
		<tag k="name" v="Djupdalsmyra" />
		<tag k="natural" v="wetland" />
		<tag k="ssr:stedsnr" v="289161" />
	</node>
	<node id="-767218" lat="63.57371111" lon="10.5973361125">
		<tag k="name" v="Nordstrand" />
		<tag k="place" v="farm" />
		<tag k="ssr:stedsnr" v="289017" />
	</node>
	<node id="-767217" lat="63.5907722198" lon="10.7240027853">
		<tag k="name" v="Kjelsåsberga" />
		<tag k="natural" v="hill" />
		<tag k="place" v="locality" />
		<tag k="ssr:stedsnr" v="288067" />
	</node>
	<node id="-767216" lat="63.6209361069" lon="10.7956861107">
		<tag k="name" v="Solvang" />
		<tag k="place" v="farm" />
		<tag k="ssr:stedsnr" v="256964" />
	</node>
	<node id="-767215" lat="63.6073194445" lon="10.7468472312">
		<tag k="name" v="Austli" />
		<tag k="place" v="locality" />
		<tag k="ssr:stedsnr" v="256907" />
	</node>
	<node id="-767214" lat="63.5813638919" lon="10.6295388951">
		<tag k="name" v="Sørhamna" />
		<tag k="natural" v="bay" />
		<tag k="ssr:stedsnr" v="256203" />
	</node>
	<node id="-767213" lat="63.6002888857" lon="10.7550027692">
		<tag k="name" v="Remmavatnet" />
		<tag k="natural" v="water" />
		<tag k="ssr:stedsnr" v="255918" />
	</node>
	<node id="-767212" lat="63.6061527788" lon="10.8459999972">
		<tag k="name" v="Dalsveet" />
		<tag k="place" v="farm" />
		<tag k="ssr:stedsnr" v="255910" />
	</node>
	<node id="-767211" lat="63.5603722227" lon="10.67982223">
		<tag k="name" v="Sandstad" />
		<tag k="place" v="farm" />
		<tag k="ssr:stedsnr" v="255252" />
	</node>
	<node id="-767210" lat="63.5996527783" lon="10.7776888819">
		<tag k="name" v="Slættet" />
		<tag k="place" v="locality" />
		<tag k="ssr:stedsnr" v="231004" />
	</node>
	<node id="-767209" lat="63.5809492399" lon="10.749303389">
		<tag k="name" v="Vikamyran" />
		<tag k="place" v="locality" />
		<tag k="ssr:stedsnr" v="228258" />
	</node>
	<node id="-767208" lat="63.6453615173" lon="10.874078424">
		<tag k="name" v="Aunberget" />
		<tag k="natural" v="hill" />
		<tag k="place" v="locality" />
		<tag k="ssr:stedsnr" v="228060" />
	</node>
	<node id="-767207" lat="63.5714888884" lon="10.7174194532">
		<tag k="name" v="Lund" />
		<tag k="place" v="farm" />
		<tag k="ssr:stedsnr" v="227757" />
	</node>
	<node id="-767206" lat="63.5660777753" lon="10.7222277757">
		<tag k="name" v="Håmmåren" />
		<tag k="place" v="farm" />
		<tag k="ssr:stedsnr" v="195809" />
	</node>
	<node id="-767205" lat="63.6035472251" lon="10.7035638799">
		<tag k="name" v="Hyllviktangen" />
		<tag k="natural" v="cape" />
		<tag k="ssr:stedsnr" v="195325" />
	</node>
	<node id="-767204" lat="63.5728916623" lon="10.6852527875">
		<tag k="alt_name" v="Rygg, vestre" />
		<tag k="name" v="Vestre Rygg" />
		<tag k="place" v="farm" />
		<tag k="ssr:stedsnr" v="195215" />
	</node>
	<node id="-767203" lat="63.5712555566" lon="10.6801805497">
		<tag k="name" v="Rønningen" />
		<tag k="place" v="farm" />
		<tag k="ssr:stedsnr" v="195213" />
	</node>
	<node id="-767202" lat="63.6201277737" lon="10.7396444513">
		<tag k="name" v="Orsandbekken" />
		<tag k="ssr:stedsnr" v="289995" />
		<tag k="waterway" v="stream" />
	</node>
	<node id="-767201" lat="63.6451555538" lon="10.9175416649">
		<tag k="name" v="Ner Våbekken" />
		<tag k="ssr:stedsnr" v="289096" />
		<tag k="waterway" v="stream" />
	</node>
	<node id="-767200" lat="63.6465122207" lon="10.9088046133">
		<tag k="name" v="Svartdalen" />
		<tag k="natural" v="valley" />
		<tag k="place" v="locality" />
		<tag k="ssr:stedsnr" v="289055" />
	</node>
	<node id="-767199" lat="63.5930166675" lon="10.7492749986">
		<tag k="name" v="Bergsbekken" />
		<tag k="ssr:stedsnr" v="288882" />
		<tag k="waterway" v="stream" />
	</node>
	<node id="-767198" lat="63.5951138885" lon="10.7071111031">
		<tag k="name" v="Steinhaugen" />
		<tag k="place" v="farm" />
		<tag k="ssr:stedsnr" v="288791" />
	</node>
	<node id="-767197" lat="63.5710388909" lon="10.7061500042">
		<tag k="name" v="Bolkan" />
		<tag k="place" v="isolated_dwelling" />
		<tag k="ssr:stedsnr" v="287791" />
	</node>
	<node id="-767196" lat="63.5739619503" lon="10.7290075323">
		<tag k="name" v="Storsveet" />
		<tag k="place" v="farm" />
		<tag k="ssr:stedsnr" v="168366" />
	</node>
	<node id="-767195" lat="63.6530388896" lon="10.9203805532">
		<tag k="name" v="Stordalsbekken" />
		<tag k="ssr:stedsnr" v="168123" />
		<tag k="waterway" v="stream" />
	</node>
	<node id="-767194" lat="63.594963889" lon="10.7435083295">
		<tag k="name" v="Bergsåsen" />
		<tag k="natural" v="hill" />
		<tag k="place" v="locality" />
		<tag k="ssr:stedsnr" v="167909" />
	</node>
	<node id="-767193" lat="63.5862805549" lon="10.7369305554">
		<tag k="amenity" v="school" />
		<tag k="name" v="Frosta skole" />
		<tag k="ssr:stedsnr" v="167364" />
	</node>
	<node id="-767192" lat="63.6243153932" lon="10.8682275934">
		<tag k="name" v="Åtloholman" />
		<tag k="place" v="islet" />
		<tag k="ssr:stedsnr" v="167070" />
	</node>
	<node id="-767191" lat="63.6546284342" lon="10.8874015605">
		<tag k="name" v="Rekbumyra" />
		<tag k="natural" v="wetland" />
		<tag k="ssr:stedsnr" v="167054" />
	</node>
	<node id="-767190" lat="63.5796735029" lon="10.6985445471">
		<tag k="name" v="Hogstad" />
		<tag k="place" v="hamlet" />
		<tag k="ssr:stedsnr" v="165056" />
	</node>
	<node id="-767189" lat="63.5930083292" lon="10.6078499989">
		<tag k="name" v="Indregrunnen" />
		<tag k="natural" v="shoal" />
		<tag k="place" v="locality" />
		<tag k="ssr:stedsnr" v="165054" />
	</node>
	<node id="-767188" lat="63.5493222207" lon="10.7219805618">
		<tag k="bay" v="fjord" />
		<tag k="name" v="Åsenfjorden" />
		<tag k="natural" v="bay" />
		<tag k="ssr:stedsnr" v="134806" />
	</node>
	<node id="-767187" lat="63.6469999987" lon="10.878977768">
		<tag k="name" v="Skardtjønna" />
		<tag k="natural" v="water" />
		<tag k="ssr:stedsnr" v="263771" />
	</node>
	<node id="-767186" lat="63.5834070305" lon="10.8038969256">
		<tag k="name" v="Vågsveet" />
		<tag k="place" v="farm" />
		<tag k="ssr:stedsnr" v="107240" />
	</node>
	<node id="-767185" lat="63.5841243059" lon="10.8121084912">
		<tag k="name" v="Haukberget" />
		<tag k="natural" v="hill" />
		<tag k="place" v="locality" />
		<tag k="ssr:stedsnr" v="107238" />
	</node>
	<node id="-767184" lat="63.613556753" lon="10.8488810645">
		<tag k="name" v="Botnan" />
		<tag k="natural" v="bay" />
		<tag k="ssr:stedsnr" v="107141" />
	</node>
	<node id="-767183" lat="63.6375910496" lon="10.9027556171">
		<tag k="name" v="Kopperdalen" />
		<tag k="natural" v="valley" />
		<tag k="place" v="locality" />
		<tag k="ssr:stedsnr" v="107139" />
	</node>
	<node id="-767182" lat="63.634154491" lon="10.8932555462">
		<tag k="name" v="Storsvebekken" />
		<tag k="ssr:stedsnr" v="107130" />
		<tag k="waterway" v="stream" />
	</node>
	<node id="-767181" lat="63.5879222264" lon="10.7630500094">
		<tag k="alt_name" v="Juberg, øvre" />
		<tag k="name" v="Øvre Juberg" />
		<tag k="place" v="farm" />
		<tag k="ssr:stedsnr" v="256829" />
	</node>
	<node id="-767180" lat="63.5825250961" lon="10.7756438605">
		<tag k="fixme" v="consider place=hamlet" />
		<tag k="name" v="Kvarme" />
		<tag k="place" v="farm" />
		<tag k="ssr:stedsnr" v="256793" />
	</node>
	<node id="-767179" lat="63.581147951" lon="10.725611044">
		<tag k="name" v="Lein" />
		<tag k="place" v="hamlet" />
		<tag k="ssr:stedsnr" v="256786" />
	</node>
	<node id="-767178" lat="63.5829369524" lon="10.736219449">
		<tag k="fixme" v="consider place=hamlet" />
		<tag k="name" v="Vinnan" />
		<tag k="place" v="farm" />
		<tag k="ssr:stedsnr" v="256781" />
	</node>
	<node id="-767177" lat="63.5891722262" lon="10.6208555581">
		<tag k="name" v="Klosterflua" />
		<tag k="natural" v="shoal" />
		<tag k="place" v="locality" />
		<tag k="ssr:stedsnr" v="256283" />
	</node>
	<node id="-767176" lat="63.5976388921" lon="10.7054277807">
		<tag k="fixme" v="consider place=hamlet" />
		<tag k="name" v="Småland" />
		<tag k="place" v="village" />
		<tag k="ssr:stedsnr" v="256280" />
	</node>
	<node id="-767175" lat="63.5816111085" lon="10.7063416698">
		<tag k="alt_name" v="Hogstad, øvre" />
		<tag k="name" v="Øvre Hogstad" />
		<tag k="place" v="farm" />
		<tag k="ssr:stedsnr" v="256206" />
	</node>
	<node id="-767174" lat="63.6324638901" lon="10.8114722249">
		<tag k="name" v="Hellberg" />
		<tag k="place" v="farm" />
		<tag k="ssr:stedsnr" v="255990" />
	</node>
	<node id="-767173" lat="63.6297388867" lon="10.8547555654">
		<tag k="name" v="Staurset" />
		<tag k="place" v="isolated_dwelling" />
		<tag k="ssr:stedsnr" v="255987" />
	</node>
	<node id="-767172" lat="63.600224999" lon="10.8172666682">
		<tag k="name" v="Bjørkli" />
		<tag k="place" v="isolated_dwelling" />
		<tag k="ssr:stedsnr" v="255877" />
	</node>
	<node id="-767171" lat="63.5601638881" lon="10.6964388822">
		<tag k="name" v="Mostad" />
		<tag k="place" v="farm" />
		<tag k="ssr:stedsnr" v="255235" />
	</node>
	<node id="-767170" lat="63.5639026331" lon="10.7085378826">
		<tag k="fixme" v="consider place=hamlet" />
		<tag k="name" v="Logstein" />
		<tag k="place" v="farm" />
		<tag k="ssr:stedsnr" v="255232" />
	</node>
	<node id="-767169" lat="63.5534475995" lon="10.6700702443">
		<tag k="fixme" v="consider place=hamlet" />
		<tag k="name" v="Valberg" />
		<tag k="place" v="farm" />
		<tag k="ssr:stedsnr" v="255227" />
	</node>
	<node id="-767168" lat="63.5735194446" lon="10.6777972222">
		<tag k="name" v="Ryggafjæra" />
		<tag k="natural" v="beach" />
		<tag k="place" v="locality" />
		<tag k="ssr:stedsnr" v="255193" />
	</node>
	<node id="-767167" lat="63.6337527813" lon="10.8745805583">
		<tag k="name" v="Reitan" />
		<tag k="place" v="farm" />
		<tag k="ssr:stedsnr" v="73989" />
	</node>
	<node id="-767166" lat="63.638402781" lon="10.8972583364">
		<tag k="name" v="Storsvetjønna" />
		<tag k="natural" v="water" />
		<tag k="ssr:stedsnr" v="73976" />
	</node>
	<node id="-767165" lat="63.5584305588" lon="10.6723805617">
		<tag k="name" v="Hernesmarka" />
		<tag k="place" v="farm" />
		<tag k="ssr:stedsnr" v="229650" />
	</node>
	<node id="-767164" lat="63.5821000044" lon="10.721122216">
		<tag k="name" v="Grostad" />
		<tag k="place" v="farm" />
		<tag k="ssr:stedsnr" v="229345" />
	</node>
	<node id="-767163" lat="63.6096011007" lon="10.8779552049">
		<tag k="name" v="Høglia" />
		<tag k="natural" v="hill" />
		<tag k="place" v="locality" />
		<tag k="ssr:stedsnr" v="228140" />
	</node>
	<node id="-767162" lat="63.6475573342" lon="10.8489313732">
		<tag k="name" v="Åtloøra" />
		<tag k="natural" v="beach" />
		<tag k="place" v="locality" />
		<tag k="ssr:stedsnr" v="228065" />
	</node>
	<node id="-767161" lat="63.5846638868" lon="10.6773444366">
		<tag k="fixme" v="consider seamark:type=rock or natural=shoal" />
		<tag k="name" v="Karihauet" />
		<tag k="place" v="islet" />
		<tag k="ssr:stedsnr" v="227781" />
	</node>
	<node id="-767160" lat="63.5681104432" lon="10.7025301562">
		<tag k="fixme" v="consider place=hamlet" />
		<tag k="name" v="Logtun" />
		<tag k="place" v="farm" />
		<tag k="ssr:stedsnr" v="25416" />
	</node>
	<node id="-767159" lat="63.6145027749" lon="10.7708694514">
		<tag k="name" v="Stokkåsen" />
		<tag k="natural" v="hill" />
		<tag k="place" v="locality" />
		<tag k="ssr:stedsnr" v="13917" />
	</node>
	<node id="-767158" lat="63.617288892" lon="10.8145194452">
		<tag k="name" v="Austre Kvamman" />
		<tag k="place" v="farm" />
		<tag k="ssr:stedsnr" v="13914" />
	</node>
	<node id="-767157" lat="63.61512222" lon="10.8069194379">
		<tag k="name" v="Høgset" />
		<tag k="place" v="farm" />
		<tag k="ssr:stedsnr" v="13912" />
	</node>
</osm>
