<?xml version="1.0" encoding="UTF-8"?>
<osm generator="osmapis" version="0.6">
	<node id="-881149" lat="63.5742611079" lon="10.7243527837">
		<tag k="name" v="Revhaug" />
		<tag k="place" v="farm" />
		<tag k="ssr:stedsnr" v="195832" />
	</node>
	<node id="-881145" lat="63.6160104562" lon="10.8895817472">
		<tag k="fixme" v="consider place=hamlet" />
		<tag k="name" v="Brannåsen" />
		<tag k="place" v="farm" />
		<tag k="ssr:stedsnr" v="74899" />
	</node>
	<node id="-881142" lat="63.6120938147" lon="10.854748314">
		<tag k="fixme" v="consider place=hamlet" />
		<tag k="name" v="Gisetstaden" />
		<tag k="place" v="farm" />
		<tag k="ssr:stedsnr" v="74900" />
	</node>
	<node id="-881141" lat="63.617288892" lon="10.8145194452">
		<tag k="name" v="Austre Kvamman" />
		<tag k="place" v="farm" />
		<tag k="ssr:stedsnr" v="13914" />
	</node>
	<node id="-881140" lat="63.5805274957" lon="10.7959006966">
		<tag k="name" v="Steinan" />
		<tag k="place" v="farm" />
		<tag k="ssr:stedsnr" v="896246" />
	</node>
	<node id="-881138" lat="63.6458750035" lon="10.8690999973">
		<tag k="name" v="Åstad" />
		<tag k="place" v="farm" />
		<tag k="ssr:stedsnr" v="620033" />
	</node>
	<node id="-881137" lat="63.5647788638" lon="10.6922376316">
		<tag k="fixme" v="consider place=hamlet" />
		<tag k="name" v="Mo" />
		<tag k="place" v="farm" />
		<tag k="ssr:stedsnr" v="482149" />
	</node>
	<node id="-881134" lat="63.6297305589" lon="10.7626361121">
		<tag k="name" v="Ohlen" />
		<tag k="place" v="farm" />
		<tag k="ssr:stedsnr" v="348945" />
	</node>
	<node id="-881125" lat="63.6462881232" lon="10.8624952407">
		<tag k="name" v="Åvik" />
		<tag k="place" v="farm" />
		<tag k="ssr:stedsnr" v="774075" />
	</node>
	<node id="-881124" lat="63.5530903453" lon="10.676001756">
		<tag k="fixme" v="consider place=hamlet" />
		<tag k="name" v="Evenhus" />
		<tag k="place" v="farm" />
		<tag k="ssr:stedsnr" v="13248" />
	</node>
	<node id="-881123" lat="63.6061527788" lon="10.8459999972">
		<tag k="name" v="Dalsveet" />
		<tag k="place" v="farm" />
		<tag k="ssr:stedsnr" v="255910" />
	</node>
	<node id="-881122" lat="63.5998388887" lon="10.7075944531">
		<tag k="name" v="Nåvikaunet" />
		<tag k="place" v="farm" />
		<tag k="ssr:stedsnr" v="591795" />
	</node>
	<node id="-881121" lat="63.5494500028" lon="10.633752786">
		<tag k="name" v="Ballsvik" />
		<tag k="place" v="farm" />
		<tag k="ssr:stedsnr" v="316261" />
	</node>
	<node id="-881120" lat="63.5981666708" lon="10.8428805521">
		<tag k="name" v="Ulvik" />
		<tag k="place" v="farm" />
		<tag k="ssr:stedsnr" v="714227" />
	</node>
	<node id="-881117" lat="63.5818972206" lon="10.6760527732">
		<tag k="name" v="Holmberget" />
		<tag k="place" v="farm" />
		<tag k="ssr:stedsnr" v="753052" />
	</node>
	<node id="-881116" lat="63.5686805546" lon="10.673966672">
		<tag k="alt_name" v="Ryggvik" />
		<tag k="name" v="Ryggavika" />
		<tag k="place" v="farm" />
		<tag k="ssr:stedsnr" v="437214" />
	</node>
	<node id="-881115" lat="63.5810194406" lon="10.7430583263">
		<tag k="leisure" v="pitch" />
		<tag k="name" v="Vinnatrøa" />
		<tag k="ssr:stedsnr" v="923845" />
	</node>
	<node id="-881114" lat="63.6061999986" lon="10.8018750047">
		<tag k="name" v="Halset" />
		<tag k="place" v="farm" />
		<tag k="ssr:stedsnr" v="438873" />
	</node>
	<node id="-881113" lat="63.5957944465" lon="10.7363416708">
		<tag k="name" v="Skardet" />
		<tag k="place" v="quarter" />
		<tag k="ssr:stedsnr" v="591878" />
	</node>
	<node id="-881112" lat="63.6502166636" lon="10.8594888976">
		<tag k="name" v="Leirvika" />
		<tag k="place" v="isolated_dwelling" />
		<tag k="ssr:stedsnr" v="498045" />
	</node>
	<node id="-881110" lat="63.6115475635" lon="10.8974692586">
		<tag k="fixme" v="consider place=hamlet" />
		<tag k="name" v="Litlvika" />
		<tag k="place" v="farm" />
		<tag k="ssr:stedsnr" v="680926" />
	</node>
	<node id="-881108" lat="63.5766833298" lon="10.7583472154">
		<tag k="name" v="Sveet" />
		<tag k="place" v="isolated_dwelling" />
		<tag k="ssr:stedsnr" v="923846" />
	</node>
	<node id="-881107" lat="63.5474722201" lon="10.6728638811">
		<tag k="name" v="Otterstad" />
		<tag k="place" v="farm" />
		<tag k="ssr:stedsnr" v="349148" />
	</node>
	<node id="-881106" lat="63.5797416664" lon="10.7796694438">
		<tag k="name" v="Myr" />
		<tag k="place" v="isolated_dwelling" />
		<tag k="ssr:stedsnr" v="863810" />
	</node>
	<node id="-881104" lat="63.5742250011" lon="10.7316222276">
		<tag k="name" v="Holte" />
		<tag k="place" v="farm" />
		<tag k="ssr:stedsnr" v="438811" />
	</node>
	<node id="-881102" lat="63.5811833369" lon="10.7485472227">
		<tag k="name" v="Gorset" />
		<tag k="place" v="farm" />
		<tag k="ssr:stedsnr" v="134838" />
	</node>
	<node id="-881101" lat="63.61512222" lon="10.8069194379">
		<tag k="name" v="Høgset" />
		<tag k="place" v="farm" />
		<tag k="ssr:stedsnr" v="13912" />
	</node>
	<node id="-881098" lat="63.5729166673" lon="10.7684472239">
		<tag k="alt_name" v="Moksnes, austre;Moksnes østre" />
		<tag k="name" v="Austre Moksnes" />
		<tag k="place" v="farm" />
		<tag k="ssr:stedsnr" v="863811" />
	</node>
	<node id="-881096" lat="63.5728246103" lon="10.7278383489">
		<tag k="name" v="Austeng" />
		<tag k="place" v="farm" />
		<tag k="ssr:stedsnr" v="74829" />
	</node>
	<node id="-881095" lat="63.6207722208" lon="10.8053222135">
		<tag k="name" v="Voll" />
		<tag k="place" v="farm" />
		<tag k="ssr:stedsnr" v="680981" />
	</node>
	<node id="-881094" lat="63.5398444477" lon="10.6454583394">
		<tag k="name" v="Kleiva" />
		<tag k="place" v="farm" />
		<tag k="ssr:stedsnr" v="195251" />
	</node>
	<node id="-881092" lat="63.5547527815" lon="10.6949722171">
		<tag k="name" v="Svendgård" />
		<tag k="place" v="farm" />
		<tag k="ssr:stedsnr" v="713136" />
	</node>
	<node id="-881089" lat="63.6227611092" lon="10.8197527794">
		<tag k="name" v="Nyenget" />
		<tag k="place" v="farm" />
		<tag k="ssr:stedsnr" v="923980" />
	</node>
	<node id="-881088" lat="63.664832819" lon="10.8774152066">
		<tag k="fixme" v="consider place=hamlet" />
		<tag k="name" v="Åsholmen" />
		<tag k="place" v="farm" />
		<tag k="ssr:stedsnr" v="753050" />
	</node>
	<node id="-881085" lat="63.562836107" lon="10.6817194447">
		<tag k="name" v="Rønning" />
		<tag k="place" v="farm" />
		<tag k="ssr:stedsnr" v="894772" />
	</node>
	<node id="-881084" lat="63.5829369524" lon="10.736219449">
		<tag k="fixme" v="consider place=hamlet" />
		<tag k="name" v="Vinnan" />
		<tag k="place" v="farm" />
		<tag k="ssr:stedsnr" v="256781" />
	</node>
	<node id="-881083" lat="63.6020496831" lon="10.8276519798">
		<tag k="fixme" v="consider place=hamlet" />
		<tag k="name" v="Giset" />
		<tag k="place" v="farm" />
		<tag k="ssr:stedsnr" v="802915" />
	</node>
	<node id="-881082" lat="63.5821000044" lon="10.721122216">
		<tag k="name" v="Grostad" />
		<tag k="place" v="farm" />
		<tag k="ssr:stedsnr" v="229345" />
	</node>
	<node id="-881079" lat="63.5534916711" lon="10.6892805519">
		<tag k="name" v="Austvik" />
		<tag k="place" v="farm" />
		<tag k="ssr:stedsnr" v="74224" />
	</node>
	<node id="-881078" lat="63.5430194488" lon="10.6696666711">
		<tag k="name" v="Heggvik" />
		<tag k="place" v="isolated_dwelling" />
		<tag k="ssr:stedsnr" v="13242" />
	</node>
	<node id="-881076" lat="63.5933000009" lon="10.844924992">
		<tag k="alt_name" v="Ulvviksveet" />
		<tag k="name" v="Ulviksveet" />
		<tag k="place" v="isolated_dwelling" />
		<tag k="ssr:stedsnr" v="619872" />
	</node>
	<node id="-881075" lat="63.5661571248" lon="10.7009075195">
		<tag k="name" v="Kråklund" />
		<tag k="place" v="hamlet" />
		<tag k="ssr:stedsnr" v="619268" />
	</node>
	<node id="-881074" lat="63.5975333331" lon="10.7096333367">
		<tag k="name" v="Småland" />
		<tag k="place" v="farm" />
		<tag k="ssr:stedsnr" v="438285" />
	</node>
	<node id="-881073" lat="63.5603722227" lon="10.67982223">
		<tag k="name" v="Sandstad" />
		<tag k="place" v="farm" />
		<tag k="ssr:stedsnr" v="255252" />
	</node>
	<node id="-881071" lat="63.5780194446" lon="10.7532694392">
		<tag k="alt_name" v="Vika, austre" />
		<tag k="name" v="Austre Vika" />
		<tag k="place" v="farm" />
		<tag k="ssr:stedsnr" v="438815" />
	</node>
	<node id="-881067" lat="63.6237666651" lon="10.7650500082">
		<tag k="name" v="Romma" />
		<tag k="place" v="isolated_dwelling" />
		<tag k="ssr:stedsnr" v="774962" />
	</node>
	<node id="-881066" lat="63.6238669902" lon="10.8221912453">
		<tag k="name" v="Vestgård" />
		<tag k="place" v="farm" />
		<tag k="ssr:stedsnr" v="13970" />
	</node>
	<node id="-881063" lat="63.6031271686" lon="10.8656421814">
		<tag k="fixme" v="consider place=hamlet" />
		<tag k="name" v="Aunet" />
		<tag k="place" v="farm" />
		<tag k="ssr:stedsnr" v="195881" />
	</node>
	<node id="-881059" lat="63.5776583316" lon="10.605413896">
		<tag k="alt_name" v="Bakken" />
		<tag k="name" v="Bakkan" />
		<tag k="place" v="farm" />
		<tag k="ssr:stedsnr" v="195248" />
	</node>
	<node id="-881058" lat="63.5513193612" lon="10.6646803327">
		<tag k="name" v="Hernes" />
		<tag k="place" v="hamlet" />
		<tag k="ssr:stedsnr" v="118828" />
	</node>
	<node id="-881056" lat="63.5866605577" lon="10.7321625795">
		<tag k="name" v="Asklund" />
		<tag k="place" v="hamlet" />
		<tag k="ssr:stedsnr" v="559863" />
	</node>
	<node id="-881054" lat="63.5584305588" lon="10.6723805617">
		<tag k="name" v="Hernesmarka" />
		<tag k="place" v="farm" />
		<tag k="ssr:stedsnr" v="229650" />
	</node>
	<node id="-881051" lat="63.6383694483" lon="10.8480694539">
		<tag k="name" v="Fossli" />
		<tag k="place" v="farm" />
		<tag k="ssr:stedsnr" v="923985" />
	</node>
	<node id="-881050" lat="63.5784777789" lon="10.694408326">
		<tag k="name" v="Hogstad" />
		<tag k="place" v="farm" />
		<tag k="ssr:stedsnr" v="959017" />
	</node>
	<node id="-881047" lat="63.6209361069" lon="10.7956861107">
		<tag k="name" v="Solvang" />
		<tag k="place" v="farm" />
		<tag k="ssr:stedsnr" v="256964" />
	</node>
	<node id="-881044" lat="63.6188394806" lon="10.7996372048">
		<tag k="fixme" v="consider place=hamlet" />
		<tag k="name" v="Frøstad" />
		<tag k="place" v="farm" />
		<tag k="ssr:stedsnr" v="13969" />
	</node>
	<node id="-881043" lat="63.6095750003" lon="10.713808343">
		<tag k="alt_name" v="Breidvika" />
		<tag k="name" v="Breivika" />
		<tag k="place" v="farm" />
		<tag k="ssr:stedsnr" v="802321" />
	</node>
	<node id="-881040" lat="63.6352594293" lon="10.8551955526">
		<tag k="fixme" v="consider place=hamlet" />
		<tag k="name" v="Feset" />
		<tag k="place" v="farm" />
		<tag k="ssr:stedsnr" v="680990" />
	</node>
	<node id="-881039" lat="63.590548829" lon="10.8307142856">
		<tag k="fixme" v="consider place=hamlet" />
		<tag k="name" v="Steine" />
		<tag k="place" v="farm" />
		<tag k="ssr:stedsnr" v="377865" />
	</node>
	<node id="-881038" lat="63.5756972263" lon="10.6105805581">
		<tag k="name" v="Grande" />
		<tag k="place" v="farm" />
		<tag k="ssr:stedsnr" v="653016" />
	</node>
	<node id="-881036" lat="63.5419722237" lon="10.6625222305">
		<tag k="name" v="Sørli" />
		<tag k="place" v="isolated_dwelling" />
		<tag k="ssr:stedsnr" v="438210" />
	</node>
	<node id="-881034" lat="63.5757361136" lon="10.6784722125">
		<tag k="name" v="Bakken" />
		<tag k="place" v="farm" />
		<tag k="ssr:stedsnr" v="134238" />
	</node>
	<node id="-881033" lat="63.5690500042" lon="10.726797226">
		<tag k="name" v="Elverhaug" />
		<tag k="place" v="farm" />
		<tag k="ssr:stedsnr" v="13835" />
	</node>
	<node id="-881032" lat="63.6021257243" lon="10.7278586188">
		<tag k="name" v="Nåvik" />
		<tag k="place" v="hamlet" />
		<tag k="ssr:stedsnr" v="530954" />
	</node>
	<node id="-881031" lat="63.6248499979" lon="10.8606888792">
		<tag k="name" v="Vang" />
		<tag k="place" v="isolated_dwelling" />
		<tag k="ssr:stedsnr" v="13964" />
	</node>
	<node id="-881541" lat="63.6298583347" lon="10.7986916716">
		<tag k="name" v="Fredtun" />
		<tag k="place" v="farm" />
		<tag k="ssr:stedsnr" v="862993" />
	</node>
	<node id="-881028" lat="63.6333805597" lon="10.7776583382">
		<tag k="alt_name" v="Fånes, nedre;Fånes" />
		<tag k="name" v="Nedre Fånes" />
		<tag k="place" v="farm" />
		<tag k="ssr:stedsnr" v="498996" />
	</node>
	<node id="-881539" lat="63.5650083358" lon="10.6755444505">
		<tag k="name" v="Nordfjæra" />
		<tag k="place" v="farm" />
		<tag k="ssr:stedsnr" v="786832" />
	</node>
	<node id="-881026" lat="63.5627799575" lon="10.6772203725">
		<tag k="fixme" v="consider place=hamlet" />
		<tag k="name" v="Nordfjæra" />
		<tag k="place" v="farm" />
		<tag k="ssr:stedsnr" v="389073" />
	</node>
	<node id="-881537" lat="63.5769019672" lon="10.7016867066">
		<tag k="name" v="Solli" />
		<tag k="place" v="farm" />
		<tag k="ssr:stedsnr" v="620201" />
	</node>
	<node id="-881536" lat="63.5503690003" lon="10.6861056766">
		<tag k="fixme" v="consider place=hamlet" />
		<tag k="name" v="Galtvik" />
		<tag k="place" v="farm" />
		<tag k="ssr:stedsnr" v="498279" />
	</node>
	<node id="-881535" lat="63.5710388909" lon="10.7061500042">
		<tag k="building" v="industrial" />
		<tag k="industrial" v="factory" />
		<tag k="name" v="Bolkan bruk" />
		<tag k="ssr:stedsnr" v="680266" />
	</node>
	<node id="-881022" lat="63.5829128118" lon="10.7946523625">
		<tag k="alt_name" v="Hundøya" />
		<tag k="fixme" v="consider place=hamlet" />
		<tag k="name" v="Hyndøya" />
		<tag k="place" v="farm" />
		<tag k="ssr:stedsnr" v="377866" />
	</node>
	<node id="-881533" lat="63.5714888884" lon="10.7174194532">
		<tag k="name" v="Lund" />
		<tag k="place" v="farm" />
		<tag k="ssr:stedsnr" v="227757" />
	</node>
	<node id="-881020" lat="63.5711305529" lon="10.7241444455">
		<tag k="name" v="Svean" />
		<tag k="place" v="farm" />
		<tag k="ssr:stedsnr" v="13836" />
	</node>
	<node id="-881019" lat="63.5454416636" lon="10.6605916578">
		<tag k="alt_name" v="Hernes, nedre" />
		<tag k="name" v="Nedre Hernes" />
		<tag k="place" v="farm" />
		<tag k="ssr:stedsnr" v="316250" />
	</node>
	<node id="-881530" lat="63.6150697329" lon="10.8275754992">
		<tag k="fixme" v="multiple name tags, choose one and add the other to alt_name; consider place=hamlet" />
		<tag k="name" v="Ytre Hovdalen;Hovdalen" />
		<tag k="place" v="farm" />
		<tag k="ssr:stedsnr" v="13899" />
	</node>
	<node id="-881016" lat="63.5718960699" lon="10.7379077576">
		<tag k="name" v="Karlberget" />
		<tag k="place" v="isolated_dwelling" />
		<tag k="ssr:stedsnr" v="107374" />
	</node>
	<node id="-881527" lat="63.653160741" lon="10.857927294">
		<tag k="name" v="Vikan" />
		<tag k="place" v="farm" />
		<tag k="ssr:stedsnr" v="471072" />
	</node>
	<node id="-881526" lat="63.601788887" lon="10.7884694369">
		<tag k="name" v="Solvang" />
		<tag k="place" v="isolated_dwelling" />
		<tag k="ssr:stedsnr" v="741918" />
	</node>
	<node id="-881013" lat="63.5781166661" lon="10.7882916643">
		<tag k="name" v="Sveplassen" />
		<tag k="place" v="farm" />
		<tag k="ssr:stedsnr" v="741872" />
	</node>
	<node id="-881523" lat="63.5879222264" lon="10.7630500094">
		<tag k="alt_name" v="Juberg, øvre" />
		<tag k="name" v="Øvre Juberg" />
		<tag k="place" v="farm" />
		<tag k="ssr:stedsnr" v="256829" />
	</node>
	<node id="-881522" lat="63.5771222193" lon="10.704863883">
		<tag k="alt_name" v="Lein, litle" />
		<tag k="name" v="Litl-Lein" />
		<tag k="place" v="farm" />
		<tag k="ssr:stedsnr" v="13226" />
	</node>
	<node id="-881520" lat="63.5681104432" lon="10.7025301562">
		<tag k="fixme" v="consider place=hamlet" />
		<tag k="name" v="Logtun" />
		<tag k="place" v="farm" />
		<tag k="ssr:stedsnr" v="25416" />
	</node>
	<node id="-881007" lat="63.6182638896" lon="10.8097194536">
		<tag k="name" v="Nordre Kvamman" />
		<tag k="place" v="farm" />
		<tag k="ssr:stedsnr" v="498939" />
	</node>
	<node id="-881517" lat="63.556724998" lon="10.6754194534">
		<tag k="name" v="Sandvei" />
		<tag k="place" v="farm" />
		<tag k="ssr:stedsnr" v="498281" />
	</node>
	<node id="-881004" lat="63.6134555594" lon="10.7249333279">
		<tag k="name" v="Storsveet" />
		<tag k="place" v="farm" />
		<tag k="ssr:stedsnr" v="559915" />
	</node>
	<node id="-881003" lat="63.6087404742" lon="10.890736743">
		<tag k="fixme" v="consider place=hamlet" />
		<tag k="name" v="Kuvika" />
		<tag k="place" v="farm" />
		<tag k="ssr:stedsnr" v="350183" />
	</node>
	<node id="-881513" lat="63.6097833319" lon="10.7786638952">
		<tag k="historic" v="shieling" />
		<tag k="name" v="Brekksveet" />
		<tag k="place" v="locality" />
		<tag k="ssr:stedsnr" v="741915" />
	</node>
	<node id="-881511" lat="63.5660777753" lon="10.7222277757">
		<tag k="name" v="Håmmåren" />
		<tag k="place" v="farm" />
		<tag k="ssr:stedsnr" v="195809" />
	</node>
	<node id="-880997" lat="63.6014545449" lon="10.7300501705">
		<tag k="name" v="Nåvik søndre" />
		<tag k="place" v="farm" />
		<tag k="ssr:stedsnr" v="986098" />
	</node>
	<node id="-881508" lat="63.5612444464" lon="10.6932444538">
		<tag k="alt_name" v="Mo, vestre" />
		<tag k="fixme" v="multiple name tags, choose one and add the other to alt_name" />
		<tag k="name" v="Mo;Vestre Mo" />
		<tag k="place" v="farm" />
		<tag k="ssr:stedsnr" v="862254" />
	</node>
	<node id="-880995" lat="63.5848496283" lon="10.7369933282">
		<tag k="name" v="Alstad østre" />
		<tag k="place" v="farm" />
		<tag k="ssr:stedsnr" v="985856" />
	</node>
	<node id="-881506" lat="63.5976388921" lon="10.7054277807">
		<tag k="fixme" v="consider place=hamlet" />
		<tag k="name" v="Småland" />
		<tag k="place" v="village" />
		<tag k="ssr:stedsnr" v="256280" />
	</node>
	<node id="-881505" lat="63.5618888915" lon="10.6759444395">
		<tag k="alt_name" v="Nordfjæra, søre" />
		<tag k="name" v="Søre Nordfjæra" />
		<tag k="place" v="farm" />
		<tag k="ssr:stedsnr" v="134294" />
	</node>
	<node id="-880992" lat="63.6330543645" lon="10.9142645343">
		<tag k="fixme" v="consider tourism=alpine_hut or tourism=chalet" />
		<tag k="name" v="Rapphytta" />
		<tag k="ssr:stedsnr" v="985448" />
		<tag k="tourism" v="wilderness_hut" />
	</node>
	<node id="-881503" lat="63.5672666695" lon="10.6797055504">
		<tag k="alt_name" v="Nordfjæra nordre" />
		<tag k="name" v="Nordre Nordfjæra" />
		<tag k="place" v="farm" />
		<tag k="ssr:stedsnr" v="592704" />
	</node>
	<node id="-881502" lat="63.5454499962" lon="10.6777361151">
		<tag k="name" v="Sørgrenda" />
		<tag k="place" v="hamlet" />
		<tag k="ssr:stedsnr" v="619253" />
	</node>
	<node id="-881501" lat="63.592047222" lon="10.7383249991">
		<tag k="name" v="Borg" />
		<tag k="place" v="farm" />
		<tag k="ssr:stedsnr" v="438859" />
	</node>
	<node id="-881500" lat="63.5601638881" lon="10.6964388822">
		<tag k="name" v="Mostad" />
		<tag k="place" v="farm" />
		<tag k="ssr:stedsnr" v="255235" />
	</node>
	<node id="-881499" lat="63.5674777785" lon="10.7119416607">
		<tag k="name" v="Prestaunet" />
		<tag k="place" v="farm" />
		<tag k="ssr:stedsnr" v="107685" />
	</node>
	<node id="-881496" lat="63.6201460834" lon="10.89290829">
		<tag k="fixme" v="consider place=hamlet" />
		<tag k="name" v="Svenskhalla" />
		<tag k="place" v="farm" />
		<tag k="ssr:stedsnr" v="559970" />
	</node>
	<node id="-881495" lat="63.5773611115" lon="10.7499861039">
		<tag k="alt_name" v="Vika, midtre" />
		<tag k="fixme" v="multiple name tags, choose one and add the other to alt_name" />
		<tag k="name" v="Vika;Midtre Vika" />
		<tag k="place" v="farm" />
		<tag k="ssr:stedsnr" v="620795" />
	</node>
	<node id="-881493" lat="63.6301138926" lon="10.8233527722">
		<tag k="alt_name" v="Stavset, søre" />
		<tag k="fixme" v="multiple name tags, choose one and add the other to alt_name" />
		<tag k="name" v="Stavset;Søre Stavset" />
		<tag k="place" v="farm" />
		<tag k="ssr:stedsnr" v="195992" />
	</node>
	<node id="-881491" lat="63.6509335971" lon="10.9110736483">
		<tag k="fixme" v="consider place=hamlet" />
		<tag k="name" v="Fjellplassen" />
		<tag k="place" v="farm" />
		<tag k="ssr:stedsnr" v="195031" />
	</node>
	<node id="-881490" lat="63.6042805512" lon="10.791730564">
		<tag k="alt_name" v="Jakobsminde" />
		<tag k="name" v="Minde" />
		<tag k="place" v="farm" />
		<tag k="ssr:stedsnr" v="74874" />
	</node>
	<node id="-881488" lat="63.5857180636" lon="10.7439855478">
		<tag k="name" v="Alstad" />
		<tag k="place" v="hamlet" />
		<tag k="ssr:stedsnr" v="195869" />
	</node>
	<node id="-881485" lat="63.6051444448" lon="10.7424166639">
		<tag k="name" v="Fagerheim" />
		<tag k="place" v="farm" />
		<tag k="ssr:stedsnr" v="863862" />
	</node>
	<node id="-881484" lat="63.5436586817" lon="10.6536628931">
		<tag k="name" v="Haugan" />
		<tag k="place" v="hamlet" />
		<tag k="ssr:stedsnr" v="316240" />
	</node>
	<node id="-881483" lat="63.5741444413" lon="10.7091388871">
		<tag k="name" v="Leinum" />
		<tag k="place" v="farm" />
		<tag k="ssr:stedsnr" v="834760" />
	</node>
	<node id="-881482" lat="63.5862805549" lon="10.7369305554">
		<tag k="amenity" v="school" />
		<tag k="name" v="Frosta skole" />
		<tag k="ssr:stedsnr" v="167364" />
	</node>
	<node id="-881477" lat="63.5604247968" lon="10.6975953439">
		<tag k="name" v="Mostad" />
		<tag k="place" v="hamlet" />
		<tag k="ssr:stedsnr" v="777059" />
	</node>
	<node id="-881474" lat="63.6437361148" lon="10.8642944376">
		<tag k="name" v="Åtlohellan" />
		<tag k="place" v="farm" />
		<tag k="ssr:stedsnr" v="741994" />
	</node>
	<node id="-881473" lat="63.5837898081" lon="10.62297168">
		<tag k="alt_name" v="Tautra, nordre;Tautra nordre;Nord-Tautra" />
		<tag k="name" v="Nordre Tautra" />
		<tag k="place" v="farm" />
		<tag k="ssr:stedsnr" v="74206" />
	</node>
	<node id="-881470" lat="63.5730026391" lon="10.6894254352">
		<tag k="fixme" v="consider place=hamlet" />
		<tag k="name" v="Rygg" />
		<tag k="place" v="farm" />
		<tag k="ssr:stedsnr" v="207392" />
	</node>
	<node id="-881468" lat="63.5934000017" lon="10.7633694393">
		<tag k="name" v="Vassli" />
		<tag k="place" v="farm" />
		<tag k="ssr:stedsnr" v="593000" />
	</node>
	<node id="-881467" lat="63.6075851644" lon="10.8523227485">
		<tag k="name" v="Aspmodal" />
		<tag k="place" v="farm" />
		<tag k="ssr:stedsnr" v="349213" />
	</node>
	<node id="-881466" lat="63.5828022531" lon="10.6234590934">
		<tag k="alt_name" v="Tautra, midtre;Tautra midtre" />
		<tag k="name" v="Midtre Tautra" />
		<tag k="place" v="farm" />
		<tag k="ssr:stedsnr" v="74207" />
	</node>
	<node id="-881462" lat="63.587336107" lon="10.6896750068">
		<tag k="alt_name" v="Lenvik" />
		<tag k="name" v="Lenvika" />
		<tag k="place" v="farm" />
		<tag k="ssr:stedsnr" v="316359" />
	</node>
	<node id="-881461" lat="63.5857222183" lon="10.6966944463">
		<tag k="name" v="Ådal" />
		<tag k="place" v="farm" />
		<tag k="ssr:stedsnr" v="316357" />
	</node>
	<node id="-881456" lat="63.6166187494" lon="10.7506439674">
		<tag k="fixme" v="consider place=hamlet" />
		<tag k="name" v="Skågset" />
		<tag k="place" v="farm" />
		<tag k="ssr:stedsnr" v="377913" />
	</node>
	<node id="-881455" lat="63.575439384" lon="10.6150318069">
		<tag k="fixme" v="consider place=hamlet" />
		<tag k="name" v="Tautra" />
		<tag k="place" v="farm" />
		<tag k="ssr:stedsnr" v="105066" />
	</node>
	<node id="-881454" lat="63.6075305517" lon="10.7413138891">
		<tag k="name" v="Myrholt" />
		<tag k="place" v="farm" />
		<tag k="ssr:stedsnr" v="195925" />
	</node>
	<node id="-881453" lat="63.5971974244" lon="10.8303334354">
		<tag k="fixme" v="consider place=hamlet" />
		<tag k="name" v="Banlia" />
		<tag k="place" v="farm" />
		<tag k="ssr:stedsnr" v="438848" />
	</node>
	<node id="-881450" lat="63.5639026331" lon="10.7085378826">
		<tag k="fixme" v="consider place=hamlet" />
		<tag k="name" v="Logstein" />
		<tag k="place" v="farm" />
		<tag k="ssr:stedsnr" v="255232" />
	</node>
	<node id="-881448" lat="63.6119583316" lon="10.8071833239">
		<tag k="name" v="Rønningen" />
		<tag k="place" v="farm" />
		<tag k="ssr:stedsnr" v="619934" />
	</node>
	<node id="-881445" lat="63.5820611096" lon="10.6281666579">
		<tag k="name" v="Sørhamna" />
		<tag k="place" v="isolated_dwelling" />
		<tag k="ssr:stedsnr" v="316234" />
	</node>
	<node id="-881442" lat="63.5559499986" lon="10.6538333332">
		<tag k="name" v="Øra" />
		<tag k="place" v="farm" />
		<tag k="ssr:stedsnr" v="558246" />
	</node>
	<node id="-881440" lat="63.5930283521" lon="10.7040239715">
		<tag k="fixme" v="consider place=hamlet" />
		<tag k="name" v="Risetsveet" />
		<tag k="place" v="farm" />
		<tag k="ssr:stedsnr" v="652788" />
	</node>
	<node id="-881439" lat="63.5834070305" lon="10.8038969256">
		<tag k="name" v="Vågsveet" />
		<tag k="place" v="farm" />
		<tag k="ssr:stedsnr" v="107240" />
	</node>
	<node id="-881438" lat="63.6005499991" lon="10.7238694374">
		<tag k="alt_name" v="Nåvik;Nåvikan;Nåvik nedre" />
		<tag k="name" v="Nedre Nåvik" />
		<tag k="place" v="farm" />
		<tag k="ssr:stedsnr" v="741922" />
	</node>
	<node id="-881437" lat="63.6191861076" lon="10.8085694507">
		<tag k="name" v="Frøstad" />
		<tag k="place" v="farm" />
		<tag k="ssr:stedsnr" v="46213" />
	</node>
	<node id="-881436" lat="63.5710388909" lon="10.7061500042">
		<tag k="name" v="Bolkan" />
		<tag k="place" v="isolated_dwelling" />
		<tag k="ssr:stedsnr" v="287791" />
	</node>
	<node id="-881434" lat="63.5758194435" lon="10.7453166737">
		<tag k="alt_name" v="Vika, øvre" />
		<tag k="name" v="Øvre Vika" />
		<tag k="place" v="farm" />
		<tag k="ssr:stedsnr" v="741855" />
	</node>
	<node id="-881432" lat="63.6170000011" lon="10.7576111099">
		<tag k="name" v="Åsen" />
		<tag k="place" v="farm" />
		<tag k="ssr:stedsnr" v="316943" />
	</node>
	<node id="-881430" lat="63.579547225" lon="10.6970499946">
		<tag k="alt_name" v="Hogstad, midtre" />
		<tag k="name" v="Midtre Hogstad" />
		<tag k="place" v="farm" />
		<tag k="ssr:stedsnr" v="620204" />
	</node>
	<node id="-881429" lat="63.5769869501" lon="10.7474163632">
		<tag k="name" v="Vika" />
		<tag k="place" v="hamlet" />
		<tag k="ssr:stedsnr" v="976232" />
	</node>
	<node id="-881427" lat="63.620041994" lon="10.7424019398">
		<tag k="fixme" v="consider place=hamlet" />
		<tag k="name" v="Orsanden" />
		<tag k="place" v="farm" />
		<tag k="ssr:stedsnr" v="316944" />
	</node>
	<node id="-881027" lat="63.5868692204" lon="10.7596297249">
		<tag k="name" v="Juberg" />
		<tag k="place" v="hamlet" />
		<tag k="ssr:stedsnr" v="408139" />
	</node>
	<node id="-881423" lat="63.5461583351" lon="10.6768527818">
		<tag k="name" v="Sørheim" />
		<tag k="place" v="farm" />
		<tag k="ssr:stedsnr" v="592376" />
	</node>
	<node id="-881422" lat="63.600224999" lon="10.8172666682">
		<tag k="name" v="Bjørkli" />
		<tag k="place" v="isolated_dwelling" />
		<tag k="ssr:stedsnr" v="255877" />
	</node>
	<node id="-881420" lat="63.6144148956" lon="10.7831965867">
		<tag k="fixme" v="consider place=hamlet" />
		<tag k="name" v="Brekka" />
		<tag k="place" v="farm" />
		<tag k="ssr:stedsnr" v="377917" />
	</node>
	<node id="-881418" lat="63.5534475995" lon="10.6700702443">
		<tag k="fixme" v="consider place=hamlet" />
		<tag k="name" v="Valberg" />
		<tag k="place" v="farm" />
		<tag k="ssr:stedsnr" v="255227" />
	</node>
	<node id="-881416" lat="63.6244055566" lon="10.7577250088">
		<tag k="name" v="Vigtil" />
		<tag k="place" v="farm" />
		<tag k="ssr:stedsnr" v="531959" />
	</node>
	<node id="-881414" lat="63.6424199716" lon="10.8584882089">
		<tag k="name" v="Åtlo" />
		<tag k="place" v="hamlet" />
		<tag k="ssr:stedsnr" v="498987" />
	</node>
	<node id="-881413" lat="63.6303373721" lon="10.7784178542">
		<tag k="name" v="Fånes" />
		<tag k="place" v="hamlet" />
		<tag k="ssr:stedsnr" v="410200" />
	</node>
	<node id="-881412" lat="63.5482527754" lon="10.6683222319">
		<tag k="name" v="Nesvoll" />
		<tag k="place" v="isolated_dwelling" />
		<tag k="ssr:stedsnr" v="956136" />
	</node>
	<node id="-880994" lat="63.5883935688" lon="10.7139872459">
		<tag k="name" v="Riset" />
		<tag k="place" v="farm" />
		<tag k="ssr:stedsnr" v="985556" />
	</node>
	<node id="-881409" lat="63.5481888922" lon="10.6378888905">
		<tag k="name" v="Uthaug" />
		<tag k="place" v="farm" />
		<tag k="ssr:stedsnr" v="531240" />
	</node>
	<node id="-881408" lat="63.6307194478" lon="10.8037111044">
		<tag k="name" v="Austgård" />
		<tag k="place" v="farm" />
		<tag k="ssr:stedsnr" v="437991" />
	</node>
	<node id="-881024" lat="63.5567805584" lon="10.6867972313">
		<tag k="name" v="Valtun" />
		<tag k="place" v="farm" />
		<tag k="ssr:stedsnr" v="46135" />
	</node>
	<node id="-881406" lat="63.6049916658" lon="10.808716674">
		<tag k="alt_name" v="Hojem, litle" />
		<tag k="name" v="Litle Hojem" />
		<tag k="place" v="farm" />
		<tag k="ssr:stedsnr" v="559888" />
	</node>
	<node id="-881403" lat="63.5714888884" lon="10.7174194532">
		<tag k="name" v="Solstad" />
		<tag k="place" v="farm" />
		<tag k="ssr:stedsnr" v="712761" />
	</node>
	<node id="-881401" lat="63.5925416085" lon="10.7431234921">
		<tag k="fixme" v="consider place=hamlet" />
		<tag k="name" v="Berg" />
		<tag k="place" v="farm" />
		<tag k="ssr:stedsnr" v="316933" />
	</node>
	<node id="-881397" lat="63.5777344374" lon="10.7110535868">
		<tag k="alt_name" v="Lein, vestre;Lein" />
		<tag k="name" v="Vestre Lein" />
		<tag k="place" v="farm" />
		<tag k="ssr:stedsnr" v="498265" />
	</node>
	<node id="-881396" lat="63.5999222182" lon="10.7079027758">
		<tag k="name" v="Helsingplassen" />
		<tag k="place" v="farm" />
		<tag k="ssr:stedsnr" v="134347" />
	</node>
	<node id="-881395" lat="63.5964214895" lon="10.766728424">
		<tag k="fixme" v="consider place=hamlet" />
		<tag k="name" v="Lian" />
		<tag k="place" v="farm" />
		<tag k="ssr:stedsnr" v="498910" />
	</node>
	<node id="-881393" lat="63.5728916623" lon="10.6852527875">
		<tag k="alt_name" v="Rygg, vestre" />
		<tag k="name" v="Vestre Rygg" />
		<tag k="place" v="farm" />
		<tag k="ssr:stedsnr" v="195215" />
	</node>
	<node id="-881392" lat="63.6418222203" lon="10.8658222232">
		<tag k="name" v="Sørenplassen" />
		<tag k="place" v="farm" />
		<tag k="ssr:stedsnr" v="376982" />
	</node>
	<node id="-881391" lat="63.5796735029" lon="10.6985445471">
		<tag k="name" v="Hogstad" />
		<tag k="place" v="hamlet" />
		<tag k="ssr:stedsnr" v="165056" />
	</node>
	<node id="-881390" lat="63.6007972241" lon="10.836558326">
		<tag k="name" v="Skogtrøa" />
		<tag k="place" v="farm" />
		<tag k="ssr:stedsnr" v="13883" />
	</node>
	<node id="-881389" lat="63.6337166696" lon="10.8581249902">
		<tag k="name" v="Fossbakken" />
		<tag k="place" v="farm" />
		<tag k="ssr:stedsnr" v="316994" />
	</node>
	<node id="-881387" lat="63.6229790262" lon="10.7593988549">
		<tag k="name" v="Vigtil" />
		<tag k="place" v="hamlet" />
		<tag k="ssr:stedsnr" v="559951" />
	</node>
	<node id="-881384" lat="63.5465472217" lon="10.6798333259">
		<tag k="name" v="Galtviksveet" />
		<tag k="place" v="farm" />
		<tag k="ssr:stedsnr" v="680246" />
	</node>
	<node id="-881383" lat="63.5577527751" lon="10.6757027682">
		<tag k="name" v="Hernesmarka" />
		<tag k="place" v="farm" />
		<tag k="ssr:stedsnr" v="470322" />
	</node>
	<node id="-881382" lat="63.5964559763" lon="10.8493075542">
		<tag k="fixme" v="consider place=hamlet" />
		<tag k="name" v="Ulvika" />
		<tag k="place" v="farm" />
		<tag k="ssr:stedsnr" v="195857" />
	</node>
	<node id="-881381" lat="63.6063249972" lon="10.7093555457">
		<tag k="alt_name" v="Skjeran" />
		<tag k="name" v="Skjæran" />
		<tag k="place" v="farm" />
		<tag k="ssr:stedsnr" v="558302" />
	</node>
	<node id="-881380" lat="63.5787138913" lon="10.6946416692">
		<tag k="alt_name" v="Hogstad, nedre" />
		<tag k="name" v="Nedre Hogstad" />
		<tag k="place" v="farm" />
		<tag k="ssr:stedsnr" v="377186" />
	</node>
	<node id="-881379" lat="63.6286563434" lon="10.8807981438">
		<tag k="fixme" v="consider place=hamlet" />
		<tag k="name" v="Lutdalen" />
		<tag k="place" v="farm" />
		<tag k="ssr:stedsnr" v="316993" />
	</node>
	<node id="-881377" lat="63.6005031594" lon="10.7928847375">
		<tag k="name" v="Hogstad" />
		<tag k="place" v="farm" />
		<tag k="ssr:stedsnr" v="316929" />
	</node>
	<node id="-881374" lat="63.636536996" lon="10.8877704275">
		<tag k="fixme" v="consider place=hamlet" />
		<tag k="name" v="Storsveet" />
		<tag k="place" v="farm" />
		<tag k="ssr:stedsnr" v="376980" />
	</node>
	<node id="-881373" lat="63.6368499955" lon="10.8413305596">
		<tag k="name" v="Gammelgården" />
		<tag k="place" v="isolated_dwelling" />
		<tag k="ssr:stedsnr" v="46204" />
	</node>
	<node id="-881372" lat="63.5682555538" lon="10.69720555">
		<tag k="name" v="Logtunmyra" />
		<tag k="place" v="locality" />
		<tag k="ssr:stedsnr" v="712758" />
	</node>
	<node id="-881370" lat="63.544824997" lon="10.6571333319">
		<tag k="alt_name" v="Hernes;Hernes, vestre" />
		<tag k="name" v="Vestre Hernes" />
		<tag k="place" v="farm" />
		<tag k="ssr:stedsnr" v="558237" />
	</node>
	<node id="-881368" lat="63.6300102404" lon="10.8552205626">
		<tag k="name" v="Svean" />
		<tag k="place" v="farm" />
		<tag k="ssr:stedsnr" v="774090" />
	</node>
	<node id="-881367" lat="63.6367737644" lon="10.8379817715">
		<tag k="fixme" v="consider place=hamlet" />
		<tag k="name" v="Staur" />
		<tag k="place" v="farm" />
		<tag k="ssr:stedsnr" v="134987" />
	</node>
	<node id="-881365" lat="63.5848694441" lon="10.7170555572">
		<tag k="alt_name" v="Vestre Risan;Risan vestre" />
		<tag k="name" v="Risan" />
		<tag k="place" v="farm" />
		<tag k="ssr:stedsnr" v="863307" />
	</node>
	<node id="-881364" lat="63.5955510072" lon="10.712107313">
		<tag k="fixme" v="consider place=hamlet" />
		<tag k="name" v="Haugen" />
		<tag k="place" v="farm" />
		<tag k="ssr:stedsnr" v="349833" />
	</node>
	<node id="-881360" lat="63.5869194407" lon="10.7886861189">
		<tag k="name" v="Helltrøa" />
		<tag k="place" v="farm" />
		<tag k="ssr:stedsnr" v="863841" />
	</node>
	<node id="-881359" lat="63.5889180538" lon="10.7510404471">
		<tag k="name" v="Vangberg" />
		<tag k="place" v="hamlet" />
		<tag k="ssr:stedsnr" v="741898" />
	</node>
	<node id="-881357" lat="63.6279335972" lon="10.8217699708">
		<tag k="fixme" v="consider place=hamlet" />
		<tag k="name" v="Flekkstad" />
		<tag k="place" v="farm" />
		<tag k="ssr:stedsnr" v="498978" />
	</node>
	<node id="-881354" lat="63.6062777759" lon="10.8200305505">
		<tag k="name" v="Hojemsåsen" />
		<tag k="place" v="isolated_dwelling" />
		<tag k="ssr:stedsnr" v="559892" />
	</node>
	<node id="-881353" lat="63.6036138867" lon="10.81979999">
		<tag k="name" v="Husby" />
		<tag k="place" v="farm" />
		<tag k="ssr:stedsnr" v="13878" />
	</node>
	<node id="-881352" lat="63.6203013313" lon="10.8559565498">
		<tag k="fixme" v="consider place=hamlet" />
		<tag k="name" v="Indre Hovdalen" />
		<tag k="place" v="farm" />
		<tag k="ssr:stedsnr" v="195973" />
	</node>
	<node id="-881351" lat="63.57371111" lon="10.5973361125">
		<tag k="name" v="Nordstrand" />
		<tag k="place" v="farm" />
		<tag k="ssr:stedsnr" v="289017" />
	</node>
	<node id="-881350" lat="63.545252776" lon="10.6730166669">
		<tag k="alt_name" v="Hernes, søre" />
		<tag k="name" v="Søre Hernes" />
		<tag k="place" v="farm" />
		<tag k="ssr:stedsnr" v="134279" />
	</node>
	<node id="-881347" lat="63.6300138885" lon="10.7717972169">
		<tag k="name" v="Fånes" />
		<tag k="place" v="farm" />
		<tag k="ssr:stedsnr" v="316997" />
	</node>
	<node id="-881346" lat="63.594969445" lon="10.8422083254">
		<tag k="name" v="Steinsvoll" />
		<tag k="place" v="isolated_dwelling" />
		<tag k="ssr:stedsnr" v="802879" />
	</node>
	<node id="-881345" lat="63.5912341918" lon="10.7831135495">
		<tag k="name" v="Hellan" />
		<tag k="place" v="farm" />
		<tag k="ssr:stedsnr" v="741896" />
	</node>
	<node id="-881343" lat="63.560405559" lon="10.6867916696">
		<tag k="alt_name" v="Moholtan" />
		<tag k="name" v="Moholt" />
		<tag k="place" v="farm" />
		<tag k="ssr:stedsnr" v="437256" />
	</node>
	<node id="-881341" lat="63.5564722211" lon="10.6953555629">
		<tag k="name" v="Mostad" />
		<tag k="place" v="farm" />
		<tag k="ssr:stedsnr" v="531122" />
	</node>
	<node id="-881339" lat="63.5712555566" lon="10.6801805497">
		<tag k="name" v="Rønningen" />
		<tag k="place" v="farm" />
		<tag k="ssr:stedsnr" v="195213" />
	</node>
	<node id="-881338" lat="63.5854444444" lon="10.759027771">
		<tag k="alt_name" v="Juberg, ytre" />
		<tag k="name" v="Ytre Juberg" />
		<tag k="place" v="farm" />
		<tag k="ssr:stedsnr" v="741897" />
	</node>
	<node id="-881337" lat="63.6309944408" lon="10.7657416579">
		<tag k="name" v="Sandberga" />
		<tag k="place" v="quarter" />
		<tag k="ssr:stedsnr" v="712965" />
	</node>
	<node id="-881336" lat="63.6157555531" lon="10.8121444424">
		<tag k="name" v="Vestre Kvamman" />
		<tag k="place" v="farm" />
		<tag k="ssr:stedsnr" v="438914" />
	</node>
	<node id="-881335" lat="63.5716943306" lon="10.7620390637">
		<tag k="name" v="Moksnes" />
		<tag k="place" v="farm" />
		<tag k="ssr:stedsnr" v="957350" />
	</node>
	<node id="-881334" lat="63.5770581729" lon="10.7175443819">
		<tag k="name" v="Solbakken" />
		<tag k="place" v="farm" />
		<tag k="ssr:stedsnr" v="896367" />
	</node>
	<node id="-881333" lat="63.6337527813" lon="10.8745805583">
		<tag k="name" v="Reitan" />
		<tag k="place" v="farm" />
		<tag k="ssr:stedsnr" v="73989" />
	</node>
	<node id="-881332" lat="63.5816111085" lon="10.7063416698">
		<tag k="alt_name" v="Hogstad, øvre" />
		<tag k="name" v="Øvre Hogstad" />
		<tag k="place" v="farm" />
		<tag k="ssr:stedsnr" v="256206" />
	</node>
	<node id="-881331" lat="63.5846444422" lon="10.6913305475">
		<tag k="name" v="Aunan" />
		<tag k="place" v="farm" />
		<tag k="ssr:stedsnr" v="316351" />
	</node>
	<node id="-881011" lat="63.6238000026" lon="10.7768972267">
		<tag k="name" v="Kalvhagan" />
		<tag k="place" v="farm" />
		<tag k="ssr:stedsnr" v="349972" />
	</node>
	<node id="-881325" lat="63.5612749998" lon="10.7036555459">
		<tag k="name" v="Mostadtrøa" />
		<tag k="place" v="farm" />
		<tag k="ssr:stedsnr" v="411637" />
	</node>
	<node id="-881321" lat="63.6049333327" lon="10.7349250013">
		<tag k="name" v="Brattsvedalen" />
		<tag k="place" v="farm" />
		<tag k="ssr:stedsnr" v="74922" />
	</node>
	<node id="-880991" lat="63.6626638868" lon="10.9035194379">
		<tag k="fixme" v="consider tourism=alpine_hut or tourism=chalet" />
		<tag k="name" v="Fjellhov" />
		<tag k="ssr:stedsnr" v="526159" />
		<tag k="tourism" v="wilderness_hut" />
	</node>
	<node id="-881008" lat="63.5798548102" lon="10.7719013268">
		<tag k="fixme" v="consider place=hamlet" />
		<tag k="name" v="Revlan" />
		<tag k="place" v="farm" />
		<tag k="ssr:stedsnr" v="863815" />
	</node>
	<node id="-881025" lat="63.5682027758" lon="10.723638885">
		<tag k="name" v="Vikaleiret" />
		<tag k="place" v="farm" />
		<tag k="ssr:stedsnr" v="741876" />
	</node>
	<node id="-881315" lat="63.6562146754" lon="10.869356599">
		<tag k="name" v="Olderbakken" />
		<tag k="place" v="farm" />
		<tag k="ssr:stedsnr" v="896063" />
	</node>
	<node id="-881314" lat="63.5471083315" lon="10.6499611193">
		<tag k="name" v="Oldret" />
		<tag k="place" v="farm" />
		<tag k="ssr:stedsnr" v="134274" />
	</node>
	<node id="-881313" lat="63.5429333329" lon="10.6516111138">
		<tag k="alt_name" v="Haugan nedre" />
		<tag k="name" v="Nedre Haugan" />
		<tag k="place" v="farm" />
		<tag k="ssr:stedsnr" v="592236" />
	</node>
	<node id="-881311" lat="63.5721475265" lon="10.7604359607">
		<tag k="name" v="Moksnes" />
		<tag k="place" v="hamlet" />
		<tag k="ssr:stedsnr" v="924766" />
	</node>
	<node id="-881309" lat="63.5967527751" lon="10.7231555624">
		<tag k="name" v="Kjelstad" />
		<tag k="place" v="farm" />
		<tag k="ssr:stedsnr" v="376905" />
	</node>
	<node id="-881308" lat="63.566352778" lon="10.7220833356">
		<tag k="name" v="Hammeren" />
		<tag k="place" v="farm" />
		<tag k="ssr:stedsnr" v="414237" />
	</node>
	<node id="-881307" lat="63.5951138885" lon="10.7071111031">
		<tag k="name" v="Steinhaugen" />
		<tag k="place" v="farm" />
		<tag k="ssr:stedsnr" v="288791" />
	</node>
	<node id="-881001" lat="63.6022162426" lon="10.7999423158">
		<tag k="name" v="Litjhogstad" />
		<tag k="place" v="farm" />
		<tag k="ssr:stedsnr" v="986353" />
	</node>
	<node id="-881303" lat="63.6464251917" lon="10.868853965">
		<tag k="name" v="Åtloaunet" />
		<tag k="place" v="isolated_dwelling" />
		<tag k="ssr:stedsnr" v="349075" />
	</node>
	<node id="-881300" lat="63.6006916653" lon="10.8487305632">
		<tag k="name" v="Ospguttu" />
		<tag k="place" v="farm" />
		<tag k="ssr:stedsnr" v="923886" />
	</node>
	<node id="-881295" lat="63.6035416624" lon="10.8415944365">
		<tag k="name" v="Dalen" />
		<tag k="place" v="isolated_dwelling" />
		<tag k="ssr:stedsnr" v="498906" />
	</node>
	<node id="-881294" lat="63.5779805558" lon="10.6778388806">
		<tag k="name" v="Hogstadsveet" />
		<tag k="place" v="farm" />
		<tag k="ssr:stedsnr" v="74189" />
	</node>
	<node id="-881005" lat="63.552266669" lon="10.6649722148">
		<tag k="alt_name" v="Hernes, østre" />
		<tag k="name" v="Østre Hernes" />
		<tag k="place" v="farm" />
		<tag k="ssr:stedsnr" v="802255" />
	</node>
	<node id="-881289" lat="63.5659166691" lon="10.6945694354">
		<tag k="name" v="Mo" />
		<tag k="place" v="farm" />
		<tag k="ssr:stedsnr" v="13267" />
	</node>
	<node id="-881286" lat="63.6103916628" lon="10.8938583309">
		<tag k="name" v="Litlgjerdet" />
		<tag k="place" v="isolated_dwelling" />
		<tag k="ssr:stedsnr" v="134917" />
	</node>
	<node id="-881285" lat="63.5844559159" lon="10.7862509589">
		<tag k="name" v="Kjøbenhavn" />
		<tag k="place" v="farm" />
		<tag k="ssr:stedsnr" v="471253" />
	</node>
	<node id="-881284" lat="63.6004305593" lon="10.8488944366">
		<tag k="name" v="Åsgutu" />
		<tag k="place" v="farm" />
		<tag k="ssr:stedsnr" v="838005" />
	</node>
	<node id="-881283" lat="63.579372099" lon="10.7617868182">
		<tag k="name" v="Bjørnstad" />
		<tag k="place" v="farm" />
		<tag k="ssr:stedsnr" v="836209" />
	</node>
	<node id="-881282" lat="63.592319445" lon="10.7710222201">
		<tag k="name" v="Liberg" />
		<tag k="place" v="farm" />
		<tag k="ssr:stedsnr" v="377840" />
	</node>
	<node id="-881281" lat="63.608085511" lon="10.801013444">
		<tag k="fixme" v="consider place=hamlet" />
		<tag k="name" v="Myraunet" />
		<tag k="place" v="farm" />
		<tag k="ssr:stedsnr" v="559884" />
	</node>
	<node id="-881280" lat="63.6151349335" lon="10.7787083857">
		<tag k="fixme" v="consider place=hamlet" />
		<tag k="name" v="Stokkan" />
		<tag k="place" v="farm" />
		<tag k="ssr:stedsnr" v="74918" />
	</node>
	<node id="-881279" lat="63.6297388867" lon="10.8547555654">
		<tag k="name" v="Staurset" />
		<tag k="place" v="isolated_dwelling" />
		<tag k="ssr:stedsnr" v="255987" />
	</node>
	<node id="-881277" lat="63.6016837589" lon="10.7966398255">
		<tag k="fixme" v="consider place=hamlet" />
		<tag k="name" v="Hogstad" />
		<tag k="place" v="farm" />
		<tag k="ssr:stedsnr" v="957257" />
	</node>
	<node id="-881276" lat="63.5513372121" lon="10.6546579138">
		<tag k="fixme" v="consider place=hamlet" />
		<tag k="name" v="Island" />
		<tag k="place" v="farm" />
		<tag k="ssr:stedsnr" v="862248" />
	</node>
	<node id="-881273" lat="63.6275110762" lon="10.7880130283">
		<tag k="fixme" v="consider place=hamlet" />
		<tag k="name" v="Rekbu" />
		<tag k="place" v="farm" />
		<tag k="ssr:stedsnr" v="559948" />
	</node>
	<node id="-881272" lat="63.6160064226" lon="10.8650278435">
		<tag k="fixme" v="consider place=hamlet" />
		<tag k="name" v="Brenne" />
		<tag k="place" v="farm" />
		<tag k="ssr:stedsnr" v="134919" />
	</node>
	<node id="-881270" lat="63.6152861074" lon="10.8245222165">
		<tag k="name" v="Hovd" />
		<tag k="place" v="isolated_dwelling" />
		<tag k="ssr:stedsnr" v="411229" />
	</node>
	<node id="-881269" lat="63.6176862892" lon="10.8115231644">
		<tag k="fixme" v="consider place=hamlet" />
		<tag k="name" v="Kvamman" />
		<tag k="place" v="farm" />
		<tag k="ssr:stedsnr" v="531211" />
	</node>
	<node id="-881268" lat="63.5739619503" lon="10.7290075323">
		<tag k="name" v="Storsveet" />
		<tag k="place" v="farm" />
		<tag k="ssr:stedsnr" v="168366" />
	</node>
	<node id="-881266" lat="63.5950735275" lon="10.7170033599">
		<tag k="fixme" v="consider place=hamlet" />
		<tag k="name" v="Storlia" />
		<tag k="place" v="farm" />
		<tag k="ssr:stedsnr" v="410810" />
	</node>
	<node id="-881262" lat="63.6324638901" lon="10.8114722249">
		<tag k="name" v="Hellberg" />
		<tag k="place" v="farm" />
		<tag k="ssr:stedsnr" v="255990" />
	</node>
	<node id="-881261" lat="63.566805559" lon="10.6892027794">
		<tag k="alt_name" v="Mo, nordre;Mo nordre" />
		<tag k="name" v="Nordre Mo" />
		<tag k="place" v="farm" />
		<tag k="ssr:stedsnr" v="316216" />
	</node>
	<node id="-881258" lat="63.5853904058" lon="10.7175283107">
		<tag k="name" v="Risan" />
		<tag k="place" v="hamlet" />
		<tag k="ssr:stedsnr" v="802198" />
	</node>
	<node id="-880999" lat="63.5707817206" lon="10.7596834984">
		<tag k="name" v="Moksnes ytre" />
		<tag k="place" v="farm" />
		<tag k="ssr:stedsnr" v="986100" />
	</node>
	<node id="-881256" lat="63.5738959353" lon="10.7232036644">
		<tag k="name" v="Løkstad" />
		<tag k="place" v="farm" />
		<tag k="ssr:stedsnr" v="653351" />
	</node>
	<node id="-881252" lat="63.6231264777" lon="10.7687006379">
		<tag k="fixme" v="consider place=hamlet" />
		<tag k="name" v="Gristad" />
		<tag k="place" v="farm" />
		<tag k="ssr:stedsnr" v="619963" />
	</node>
	<node id="-881251" lat="63.5746055557" lon="10.6898861043">
		<tag k="alt_name" v="Rygg, øvre" />
		<tag k="name" v="Øvre Rygg" />
		<tag k="place" v="farm" />
		<tag k="ssr:stedsnr" v="316209" />
	</node>
	<node id="-881247" lat="63.6306361079" lon="10.8569555523">
		<tag k="name" v="Eide" />
		<tag k="place" v="farm" />
		<tag k="ssr:stedsnr" v="923993" />
	</node>
	<node id="-881245" lat="63.5576194476" lon="10.6787138922">
		<tag k="name" v="Nordstad" />
		<tag k="place" v="farm" />
		<tag k="ssr:stedsnr" v="107101" />
	</node>
	<node id="-881244" lat="63.6121079471" lon="10.7568342427">
		<tag k="fixme" v="consider place=hamlet" />
		<tag k="name" v="Solem" />
		<tag k="place" v="farm" />
		<tag k="ssr:stedsnr" v="863902" />
	</node>
	<node id="-881243" lat="63.6118944426" lon="10.7404722126">
		<tag k="name" v="Søre Orsanden" />
		<tag k="place" v="farm" />
		<tag k="ssr:stedsnr" v="680938" />
	</node>
	<node id="-881242" lat="63.6173833305" lon="10.8141250034">
		<tag k="name" v="Kvamman" />
		<tag k="place" v="farm" />
		<tag k="ssr:stedsnr" v="207026" />
	</node>
	<node id="-881241" lat="63.5732291315" lon="10.6056504137">
		<tag k="alt_name" v="Tautra, s;Sør-Tautra;Tautra" />
		<tag k="name" v="Søre Tautra" />
		<tag k="place" v="farm" />
		<tag k="ssr:stedsnr" v="741231" />
	</node>
	<node id="-881239" lat="63.5849576325" lon="10.7926107503">
		<tag k="name" v="Bakkli" />
		<tag k="place" v="farm" />
		<tag k="ssr:stedsnr" v="714219" />
	</node>
	<node id="-881232" lat="63.6215222219" lon="10.8169916664">
		<tag k="name" v="Litl Kvamman" />
		<tag k="place" v="farm" />
		<tag k="ssr:stedsnr" v="74971" />
	</node>
	<node id="-881229" lat="63.5814248247" lon="10.801701399">
		<tag k="name" v="Saltbuvollen" />
		<tag k="place" v="farm" />
		<tag k="ssr:stedsnr" v="714216" />
	</node>
	<node id="-881228" lat="63.5701428178" lon="10.7185830678">
		<tag k="name" v="Midttun" />
		<tag k="place" v="farm" />
		<tag k="ssr:stedsnr" v="471347" />
	</node>
	<node id="-881227" lat="63.6321463764" lon="10.8793834654">
		<tag k="name" v="Hesttjønnåsen" />
		<tag k="place" v="isolated_dwelling" />
		<tag k="ssr:stedsnr" v="713159" />
	</node>
	<node id="-881226" lat="63.5860750003" lon="10.8061583262">
		<tag k="name" v="Vågen" />
		<tag k="place" v="farm" />
		<tag k="ssr:stedsnr" v="316917" />
	</node>
	<node id="-881223" lat="63.5907833293" lon="10.7073944505">
		<tag k="name" v="Trøan" />
		<tag k="place" v="farm" />
		<tag k="ssr:stedsnr" v="591804" />
	</node>
	<node id="-881222" lat="63.5538004922" lon="10.6622552132">
		<tag k="fixme" v="consider place=hamlet" />
		<tag k="name" v="Nygården" />
		<tag k="place" v="farm" />
		<tag k="ssr:stedsnr" v="741292" />
	</node>
	<node id="-880993" lat="63.5896003329" lon="10.7115097384">
		<tag k="name" v="Riset" />
		<tag k="place" v="farm" />
		<tag k="ssr:stedsnr" v="985555" />
	</node>
	<node id="-881220" lat="63.6405166648" lon="10.8508555609">
		<tag k="alt_name" v="Åtlo" />
		<tag k="name" v="Åtlohaugen" />
		<tag k="place" v="farm" />
		<tag k="ssr:stedsnr" v="134056" />
	</node>
	<node id="-881219" lat="63.5434472178" lon="10.6435527769">
		<tag k="name" v="Haugsand" />
		<tag k="place" v="farm" />
		<tag k="ssr:stedsnr" v="835223" />
	</node>
	<node id="-881218" lat="63.613470414" lon="10.8795247523">
		<tag k="fixme" v="consider place=hamlet" />
		<tag k="name" v="Linsvekleiva" />
		<tag k="place" v="farm" />
		<tag k="ssr:stedsnr" v="863893" />
	</node>
	<node id="-881216" lat="63.5894166663" lon="10.815769453">
		<tag k="name" v="Myrheim" />
		<tag k="place" v="isolated_dwelling" />
		<tag k="ssr:stedsnr" v="316918" />
	</node>
	<node id="-881213" lat="63.5725222192" lon="10.5967055459">
		<tag k="name" v="Sandan" />
		<tag k="place" v="isolated_dwelling" />
		<tag k="ssr:stedsnr" v="498251" />
	</node>
	<node id="-881209" lat="63.5825250961" lon="10.7756438605">
		<tag k="fixme" v="consider place=hamlet" />
		<tag k="name" v="Kvarme" />
		<tag k="place" v="farm" />
		<tag k="ssr:stedsnr" v="256793" />
	</node>
	<node id="-881205" lat="63.5714777807" lon="10.6895805608">
		<tag k="alt_name" v="Rygg, nedre;Rygg" />
		<tag k="name" v="Nedre Rygg" />
		<tag k="place" v="farm" />
		<tag k="ssr:stedsnr" v="316212" />
	</node>
	<node id="-881204" lat="63.6023388891" lon="10.7070388806">
		<tag k="alt_name" v="Oldervika" />
		<tag k="name" v="Oldervik" />
		<tag k="place" v="isolated_dwelling" />
		<tag k="ssr:stedsnr" v="741352" />
	</node>
	<node id="-881203" lat="63.5701122593" lon="10.7273086298">
		<tag k="name" v="Dunsplassen" />
		<tag k="place" v="farm" />
		<tag k="ssr:stedsnr" v="532338" />
	</node>
	<node id="-881202" lat="63.578797765" lon="10.7452598222">
		<tag k="name" v="Nordvik" />
		<tag k="place" v="isolated_dwelling" />
		<tag k="ssr:stedsnr" v="714318" />
	</node>
	<node id="-881201" lat="63.6320246863" lon="10.8101199003">
		<tag k="fixme" v="consider place=hamlet" />
		<tag k="name" v="Skogen" />
		<tag k="place" v="farm" />
		<tag k="ssr:stedsnr" v="680994" />
	</node>
	<node id="-881196" lat="63.5755916698" lon="10.6968333266">
		<tag k="alt_name" v="Rygg, østre" />
		<tag k="name" v="Østre Rygg" />
		<tag k="place" v="farm" />
		<tag k="ssr:stedsnr" v="316211" />
	</node>
	<node id="-881195" lat="63.5625249985" lon="10.7003861072">
		<tag k="name" v="Moum" />
		<tag k="place" v="farm" />
		<tag k="ssr:stedsnr" v="923264" />
	</node>
	<node id="-881194" lat="63.5933805598" lon="10.7311555499">
		<tag k="name" v="Skogbrynet" />
		<tag k="place" v="quarter" />
		<tag k="ssr:stedsnr" v="713895" />
	</node>
	<node id="-881191" lat="63.5765250032" lon="10.6136083258">
		<tag k="name" v="Nordvik" />
		<tag k="place" v="farm" />
		<tag k="ssr:stedsnr" v="558208" />
	</node>
	<node id="-881190" lat="63.581147951" lon="10.725611044">
		<tag k="name" v="Lein" />
		<tag k="place" v="hamlet" />
		<tag k="ssr:stedsnr" v="256786" />
	</node>
	<node id="-881188" lat="63.5727247834" lon="10.7182770269">
		<tag k="name" v="Nordtun" />
		<tag k="place" v="farm" />
		<tag k="ssr:stedsnr" v="957340" />
	</node>
	<node id="-881187" lat="63.5890694457" lon="10.7934750051">
		<tag k="name" v="Nytrøa" />
		<tag k="place" v="farm" />
		<tag k="ssr:stedsnr" v="741893" />
	</node>
	<node id="-881185" lat="63.5888049029" lon="10.7567356675">
		<tag k="fixme" v="consider place=hamlet" />
		<tag k="name" v="Presthus" />
		<tag k="place" v="farm" />
		<tag k="ssr:stedsnr" v="498885" />
	</node>
	<node id="-881183" lat="63.6341482198" lon="10.8233327415">
		<tag k="fixme" v="consider place=hamlet" />
		<tag k="name" v="Stavset" />
		<tag k="place" v="farm" />
		<tag k="ssr:stedsnr" v="558998" />
	</node>
	<node id="-881181" lat="63.5860348516" lon="10.7748542562">
		<tag k="name" v="Hellan" />
		<tag k="place" v="hamlet" />
		<tag k="ssr:stedsnr" v="741895" />
	</node>
	<node id="-881179" lat="63.6216582396" lon="10.7819986699">
		<tag k="fixme" v="consider place=hamlet" />
		<tag k="name" v="Breiset" />
		<tag k="place" v="farm" />
		<tag k="ssr:stedsnr" v="316970" />
	</node>
	<node id="-881175" lat="63.5533583319" lon="10.6598833402">
		<tag k="alt_name" v="Hernes, øvre" />
		<tag k="name" v="Øvre Hernes" />
		<tag k="place" v="farm" />
		<tag k="ssr:stedsnr" v="316259" />
	</node>
	<node id="-881173" lat="63.6009169049" lon="10.7611427299">
		<tag k="fixme" v="consider place=hamlet" />
		<tag k="name" v="Remman" />
		<tag k="place" v="farm" />
		<tag k="ssr:stedsnr" v="438884" />
	</node>
	<node id="-881171" lat="63.5902388886" lon="10.6978277791">
		<tag k="name" v="Granheim" />
		<tag k="place" v="isolated_dwelling" />
		<tag k="ssr:stedsnr" v="863303" />
	</node>
	<node id="-881170" lat="63.6081904968" lon="10.8138312713">
		<tag k="fixme" v="consider place=hamlet" />
		<tag k="name" v="Hojem" />
		<tag k="place" v="farm" />
		<tag k="ssr:stedsnr" v="681893" />
	</node>
	<node id="-881167" lat="63.5527999997" lon="10.6809055617">
		<tag k="name" v="Valheim" />
		<tag k="place" v="farm" />
		<tag k="ssr:stedsnr" v="652117" />
	</node>
	<node id="-881163" lat="63.6083138856" lon="10.737369449">
		<tag k="name" v="Tømret" />
		<tag k="place" v="farm" />
		<tag k="ssr:stedsnr" v="741958" />
	</node>
	<node id="-881160" lat="63.632038976" lon="10.8277639984">
		<tag k="fixme" v="consider place=hamlet" />
		<tag k="name" v="Buset" />
		<tag k="place" v="farm" />
		<tag k="ssr:stedsnr" v="923996" />
	</node>
	<node id="-881159" lat="63.5816083326" lon="10.807427777">
		<tag k="name" v="Kvitsandvika" />
		<tag k="place" v="farm" />
		<tag k="ssr:stedsnr" v="377823" />
	</node>
	<node id="-881154" lat="63.5886382105" lon="10.7135636849">
		<tag k="name" v="Riset" />
		<tag k="place" v="hamlet" />
		<tag k="ssr:stedsnr" v="619361" />
	</node>
</osm>
