<?xml version="1.0" encoding="UTF-8"?>
<<<<<<< HEAD
<osm version="0.6" generator="osmapis">
	<node lat="63.635368154291804" lon="10.781943545837768" id="-31305">
=======
<osm generator="osmapis" version="0.6">
	<node id="-767308" lat="63.5975694456" lon="10.7035277775">
		<tag k="man_made" v="quay" />
		<tag k="name" v="Småland kai" />
		<tag k="place" v="locality" />
		<tag k="ssr:stedsnr" v="895793" />
	</node>
	<node id="-767652" lat="63.5874472244" lon="10.8145972164">
		<tag k="man_made" v="quay" />
		<tag k="name" v="Vågen kai" />
		<tag k="place" v="locality" />
		<tag k="ssr:stedsnr" v="775245" />
	</node>
	<node id="-767299" lat="63.6353681543" lon="10.7819435458">
>>>>>>> e1d4bc35ff8a6074a6f2e91616a996b547c36f15
		<tag k="alt_name" v="Fåneshamn" />
		<tag k="name" v="Fåneshamna" />
		<tag k="place" v="locality" />
		<tag k="ssr:stedsnr" v="893329" />
	</node>
<<<<<<< HEAD
	<node lat="63.597569445629595" lon="10.703527777488155" id="-31365">
		<tag k="man_made" v="quay" />
		<tag k="name" v="Småland kai" />
		<tag k="place" v="locality" />
		<tag k="ssr:stedsnr" v="895793" />
	</node>
	<node lat="63.58744722437936" lon="10.814597216370785" id="-31647">
		<tag k="man_made" v="quay" />
		<tag k="name" v="Vågen kai" />
		<tag k="place" v="locality" />
		<tag k="ssr:stedsnr" v="775245" />
	</node>
=======
>>>>>>> e1d4bc35ff8a6074a6f2e91616a996b547c36f15
</osm>
