<?xml version="1.0" encoding="UTF-8"?>
<<<<<<< HEAD
<osm version="0.6" generator="osmapis">
	<node lat="63.66215278081473" lon="10.902299990863252" id="-31149">
		<tag k="name" v="Igltjønna" />
		<tag k="natural" v="water" />
		<tag k="ssr:stedsnr" v="13069" />
	</node>
	<node lat="63.61698545009359" lon="10.860982954524413" id="-31161">
		<tag k="name" v="Brennestangen" />
		<tag k="natural" v="cape" />
		<tag k="ssr:stedsnr" v="46178" />
	</node>
	<node lat="63.60930277697517" lon="10.716352773937636" id="-31163">
		<tag k="name" v="Breivikbekken" />
		<tag k="ssr:stedsnr" v="46817" />
		<tag k="waterway" v="stream" />
	</node>
	<node lat="63.64933055526697" lon="10.920341667674645" id="-31164">
		<tag k="name" v="Sottjønna" />
		<tag k="natural" v="water" />
		<tag k="ssr:stedsnr" v="74036" />
	</node>
	<node lat="63.63415449102739" lon="10.893255546228678" id="-31169">
		<tag k="name" v="Storsvebekken" />
		<tag k="ssr:stedsnr" v="107130" />
		<tag k="waterway" v="stream" />
	</node>
	<node lat="63.64688055982395" lon="10.923727776874248" id="-31172">
		<tag k="name" v="Øver Våbekken" />
		<tag k="ssr:stedsnr" v="107830" />
		<tag k="waterway" v="stream" />
	</node>
	<node lat="63.65303888962885" lon="10.92038055315206" id="-31196">
		<tag k="name" v="Stordalsbekken" />
		<tag k="ssr:stedsnr" v="168123" />
		<tag k="waterway" v="stream" />
	</node>
	<node lat="63.646999998720034" lon="10.878977768048538" id="-31198">
		<tag k="name" v="Skardtjønna" />
		<tag k="natural" v="water" />
		<tag k="ssr:stedsnr" v="263771" />
	</node>
	<node lat="63.60028888572558" lon="10.75500276916049" id="-31208">
		<tag k="name" v="Remmavatnet" />
		<tag k="natural" v="water" />
		<tag k="ssr:stedsnr" v="255918" />
	</node>
	<node lat="63.59301666749238" lon="10.749274998606296" id="-31215">
		<tag k="name" v="Bergsbekken" />
		<tag k="ssr:stedsnr" v="288882" />
		<tag k="waterway" v="stream" />
	</node>
	<node lat="63.64515555376074" lon="10.917541664889958" id="-31216">
		<tag k="name" v="Ner Våbekken" />
		<tag k="ssr:stedsnr" v="289096" />
		<tag k="waterway" v="stream" />
	</node>
	<node lat="63.62012777366927" lon="10.739644451276767" id="-31217">
		<tag k="name" v="Orsandbekken" />
		<tag k="ssr:stedsnr" v="289995" />
		<tag k="waterway" v="stream" />
	</node>
	<node lat="63.66589721875019" lon="10.895436117582944" id="-31229">
		<tag k="name" v="Holmtjønna" />
		<tag k="natural" v="water" />
		<tag k="ssr:stedsnr" v="317005" />
	</node>
	<node lat="63.63915832948698" lon="10.94036110947999" id="-31238">
		<tag k="name" v="Rasmustjønna" />
		<tag k="natural" v="water" />
		<tag k="ssr:stedsnr" v="472097" />
	</node>
	<node lat="63.63547222407071" lon="10.921530551572346" id="-31247">
		<tag k="name" v="Ingebriktsbekken" />
		<tag k="ssr:stedsnr" v="411105" />
		<tag k="waterway" v="stream" />
	</node>
	<node lat="63.61265555454498" lon="10.803313880412533" id="-31279">
=======
<osm generator="osmapis" version="0.6">
	<node id="-767615" lat="63.598216665" lon="10.7797166677">
		<tag k="name" v="Trollneset" />
		<tag k="natural" v="cape" />
		<tag k="ssr:stedsnr" v="652999" />
	</node>
	<node id="-767614" lat="63.5927083303" lon="10.7657666718">
		<tag k="name" v="Oset" />
		<tag k="natural" v="bay" />
		<tag k="ssr:stedsnr" v="652996" />
	</node>
	<node id="-767228" lat="63.6391583295" lon="10.9403611095">
		<tag k="name" v="Rasmustjønna" />
		<tag k="natural" v="water" />
		<tag k="ssr:stedsnr" v="472097" />
	</node>
	<node id="-767354" lat="63.5878277798" lon="10.729163883">
		<tag k="name" v="Asklundvatnet" />
		<tag k="natural" v="water" />
		<tag k="ssr:stedsnr" v="863848" />
	</node>
	<node id="-767295" lat="63.6263449451" lon="10.8765511273">
		<tag k="name" v="Landfastholmen" />
		<tag k="place" v="islet" />
		<tag k="ssr:stedsnr" v="653141" />
	</node>
	<node id="-767187" lat="63.6469999987" lon="10.878977768">
		<tag k="name" v="Skardtjønna" />
		<tag k="natural" v="water" />
		<tag k="ssr:stedsnr" v="263771" />
	</node>
	<node id="-767344" lat="63.590436113" lon="10.7621972223">
		<tag k="name" v="Jubergselva" />
		<tag k="ssr:stedsnr" v="835907" />
		<tag k="waterway" v="stream" />
	</node>
	<node id="-767470" lat="63.6470194483" lon="10.8790083401">
		<tag k="alt_name" v="Skardtjønna" />
		<tag k="name" v="Skardstjønna" />
		<tag k="natural" v="water" />
		<tag k="ssr:stedsnr" v="316034" />
	</node>
	<node id="-767213" lat="63.6002888857" lon="10.7550027692">
		<tag k="name" v="Remmavatnet" />
		<tag k="natural" v="water" />
		<tag k="ssr:stedsnr" v="255918" />
	</node>
	<node id="-767463" lat="63.5983249957" lon="10.7474833354">
		<tag k="name" v="Bergsvatnet" />
		<tag k="natural" v="water" />
		<tag k="ssr:stedsnr" v="195890" />
	</node>
	<node id="-767202" lat="63.6201277737" lon="10.7396444513">
		<tag k="name" v="Orsandbekken" />
		<tag k="ssr:stedsnr" v="289995" />
		<tag k="waterway" v="stream" />
	</node>
	<node id="-767201" lat="63.6451555538" lon="10.9175416649">
		<tag k="name" v="Ner Våbekken" />
		<tag k="ssr:stedsnr" v="289096" />
		<tag k="waterway" v="stream" />
	</node>
	<node id="-767199" lat="63.5930166675" lon="10.7492749986">
		<tag k="name" v="Bergsbekken" />
		<tag k="ssr:stedsnr" v="288882" />
		<tag k="waterway" v="stream" />
	</node>
	<node id="-767454" lat="63.6063333338" lon="10.8005944494">
		<tag k="name" v="Kvamsbekken" />
		<tag k="ssr:stedsnr" v="168298" />
		<tag k="waterway" v="stream" />
	</node>
	<node id="-767610" lat="63.6312579057" lon="10.872276195">
		<tag k="name" v="Hesttjønnbekken" />
		<tag k="ssr:stedsnr" v="652141" />
		<tag k="waterway" v="stream" />
	</node>
	<node id="-767192" lat="63.6243153932" lon="10.8682275934">
		<tag k="name" v="Åtloholman" />
		<tag k="place" v="islet" />
		<tag k="ssr:stedsnr" v="167070" />
	</node>
	<node id="-767447" lat="63.6297552054" lon="10.8858244764">
		<tag k="name" v="Lutdalsbekken" />
		<tag k="ssr:stedsnr" v="167184" />
		<tag k="waterway" v="stream" />
	</node>
	<node id="-767318" lat="63.642600003" lon="10.9300138837">
		<tag k="name" v="Kudalsbekken" />
		<tag k="ssr:stedsnr" v="897095" />
		<tag k="waterway" v="stream" />
	</node>
	<node id="-767700" lat="63.5744559194" lon="10.7540803397">
		<tag k="name" v="Vikaelva" />
		<tag k="ssr:stedsnr" v="957352" />
		<tag k="waterway" v="stream" />
	</node>
	<node id="-767315" lat="63.592941663" lon="10.8323833285">
		<tag k="name" v="Steinsbekken" />
		<tag k="ssr:stedsnr" v="896259" />
		<tag k="waterway" v="stream" />
	</node>
	<node id="-767698" lat="63.6020111138" lon="10.8023555514">
		<tag k="name" v="Hogstadbekken" />
		<tag k="ssr:stedsnr" v="957293" />
		<tag k="waterway" v="stream" />
	</node>
	<node id="-767312" lat="63.6532936208" lon="10.9095592909">
		<tag k="name" v="Fjellplassbekken" />
		<tag k="ssr:stedsnr" v="896064" />
		<tag k="waterway" v="stream" />
	</node>
	<node id="-767288" lat="63.6682055565" lon="10.8887000085">
		<tag k="name" v="Holmtjønnbekken" />
		<tag k="ssr:stedsnr" v="714065" />
		<tag k="waterway" v="stream" />
	</node>
	<node id="-767310" lat="63.645520236" lon="10.8619283138">
		<tag k="name" v="Åtlobekken" />
		<tag k="ssr:stedsnr" v="896052" />
		<tag k="waterway" v="stream" />
	</node>
	<node id="-767564" lat="63.6126555545" lon="10.8033138804">
>>>>>>> e1d4bc35ff8a6074a6f2e91616a996b547c36f15
		<tag k="name" v="Frøstadbekken" />
		<tag k="ssr:stedsnr" v="532280" />
		<tag k="waterway" v="stream" />
	</node>
<<<<<<< HEAD
	<node lat="63.64944657238872" lon="10.904071750939332" id="-31289">
		<tag k="name" v="Krokvassbekken" />
		<tag k="ssr:stedsnr" v="592062" />
		<tag k="waterway" v="stream" />
	</node>
	<node lat="63.63125790572647" lon="10.872276195016328" id="-31299">
		<tag k="name" v="Hesttjønnbekken" />
		<tag k="ssr:stedsnr" v="652141" />
		<tag k="waterway" v="stream" />
	</node>
	<node lat="63.59821666501902" lon="10.779716667679503" id="-31302">
		<tag k="name" v="Trollneset" />
		<tag k="natural" v="cape" />
		<tag k="ssr:stedsnr" v="652999" />
	</node>
	<node lat="63.64552023602495" lon="10.861928313835477" id="-31308">
		<tag k="name" v="Åtlobekken" />
		<tag k="ssr:stedsnr" v="896052" />
		<tag k="waterway" v="stream" />
	</node>
	<node lat="63.642600002953905" lon="10.930013883694432" id="-31312">
		<tag k="name" v="Kudalsbekken" />
		<tag k="ssr:stedsnr" v="897095" />
		<tag k="waterway" v="stream" />
	</node>
	<node lat="63.625797237535565" lon="10.868487085812516" id="-31313">
		<tag k="name" v="Lutdalstangen" />
		<tag k="natural" v="cape" />
		<tag k="ssr:stedsnr" v="713076" />
	</node>
	<node lat="63.63404999673865" lon="10.831538880859004" id="-31328">
		<tag k="name" v="Stavsetbekken" />
		<tag k="ssr:stedsnr" v="774213" />
		<tag k="waterway" v="stream" />
	</node>
	<node lat="63.61653659414678" lon="10.8759214501198" id="-31349">
=======
	<node id="-767182" lat="63.634154491" lon="10.8932555462">
		<tag k="name" v="Storsvebekken" />
		<tag k="ssr:stedsnr" v="107130" />
		<tag k="waterway" v="stream" />
	</node>
	<node id="-767681" lat="63.6563805569" lon="10.9050249926">
		<tag k="name" v="Krokvatnet" />
		<tag k="natural" v="water" />
		<tag k="ssr:stedsnr" v="863059" />
	</node>
	<node id="-767423" lat="63.6468805598" lon="10.9237277769">
		<tag k="name" v="Øver Våbekken" />
		<tag k="ssr:stedsnr" v="107830" />
		<tag k="waterway" v="stream" />
	</node>
	<node id="-767166" lat="63.638402781" lon="10.8972583364">
		<tag k="name" v="Storsvetjønna" />
		<tag k="natural" v="water" />
		<tag k="ssr:stedsnr" v="73976" />
	</node>
	<node id="-767291" lat="63.6375277792" lon="10.9327805493">
		<tag k="name" v="Rasmustjønnbekken" />
		<tag k="ssr:stedsnr" v="715089" />
		<tag k="waterway" v="stream" />
	</node>
	<node id="-767672" lat="63.5975956367" lon="10.7857061363">
		<tag k="name" v="Slånnåvika" />
		<tag k="natural" v="bay" />
		<tag k="ssr:stedsnr" v="836211" />
	</node>
	<node id="-767414" lat="63.6266777782" lon="10.9067694445">
		<tag k="name" v="Lomtjønna" />
		<tag k="natural" v="water" />
		<tag k="ssr:stedsnr" v="74981" />
	</node>
	<node id="-767666" lat="63.6165365941" lon="10.8759214501">
>>>>>>> e1d4bc35ff8a6074a6f2e91616a996b547c36f15
		<tag k="name" v="Brennesbekken" />
		<tag k="ssr:stedsnr" v="835138" />
		<tag k="waterway" v="stream" />
	</node>
<<<<<<< HEAD
	<node lat="63.590436112965065" lon="10.762197222285833" id="-31353">
		<tag k="name" v="Jubergselva" />
		<tag k="ssr:stedsnr" v="835907" />
		<tag k="waterway" v="stream" />
	</node>
	<node lat="63.597595636690755" lon="10.785706136251797" id="-31356">
		<tag k="name" v="Slånnåvika" />
		<tag k="natural" v="bay" />
		<tag k="ssr:stedsnr" v="836211" />
	</node>
	<node lat="63.58782777977012" lon="10.72916388300257" id="-31364">
		<tag k="name" v="Asklundvatnet" />
		<tag k="natural" v="water" />
		<tag k="ssr:stedsnr" v="863848" />
	</node>
	<node lat="63.65329362079855" lon="10.90955929093383" id="-31368">
		<tag k="name" v="Fjellplassbekken" />
		<tag k="ssr:stedsnr" v="896064" />
		<tag k="waterway" v="stream" />
	</node>
	<node lat="63.59294166298683" lon="10.832383328478723" id="-31369">
		<tag k="name" v="Steinsbekken" />
		<tag k="ssr:stedsnr" v="896259" />
		<tag k="waterway" v="stream" />
	</node>
	<node lat="63.6020111137546" lon="10.802355551350917" id="-31375">
		<tag k="name" v="Hogstadbekken" />
		<tag k="ssr:stedsnr" v="957293" />
		<tag k="waterway" v="stream" />
	</node>
	<node lat="63.618594444321936" lon="10.861194445605976" id="-31390">
		<tag k="name" v="Hovdalsvatnet" />
=======
	<node id="-767537" lat="63.6354722241" lon="10.9215305516">
		<tag k="name" v="Ingebriktsbekken" />
		<tag k="ssr:stedsnr" v="411105" />
		<tag k="waterway" v="stream" />
	</node>
	<node id="-767536" lat="63.5949222213" lon="10.7798138901">
		<tag k="name" v="Olahølet" />
		<tag k="natural" v="bay" />
		<tag k="ssr:stedsnr" v="410999" />
	</node>
	<node id="-767389" lat="63.6169854501" lon="10.8609829545">
		<tag k="name" v="Brennestangen" />
		<tag k="natural" v="cape" />
		<tag k="ssr:stedsnr" v="46178" />
	</node>
	<node id="-767532" lat="63.620045926" lon="10.8642338048">
		<tag k="name" v="Litlholmen" />
		<tag k="place" v="islet" />
		<tag k="ssr:stedsnr" v="410171" />
	</node>
	<node id="-767400" lat="63.6493305553" lon="10.9203416677">
		<tag k="name" v="Sottjønna" />
		<tag k="natural" v="water" />
		<tag k="ssr:stedsnr" v="74036" />
	</node>
	<node id="-767281" lat="63.6257972375" lon="10.8684870858">
		<tag k="name" v="Lutdalstangen" />
		<tag k="natural" v="cape" />
		<tag k="ssr:stedsnr" v="713076" />
	</node>
	<node id="-767396" lat="63.6338250037" lon="10.9124805573">
		<tag k="name" v="Setertjønna" />
		<tag k="natural" v="water" />
		<tag k="ssr:stedsnr" v="47096" />
	</node>
	<node id="-767395" lat="63.609302777" lon="10.7163527739">
		<tag k="name" v="Breivikbekken" />
		<tag k="ssr:stedsnr" v="46817" />
		<tag k="waterway" v="stream" />
	</node>
	<node id="-767195" lat="63.6530388896" lon="10.9203805532">
		<tag k="name" v="Stordalsbekken" />
		<tag k="ssr:stedsnr" v="168123" />
		<tag k="waterway" v="stream" />
	</node>
	<node id="-767579" lat="63.6494465724" lon="10.9040717509">
		<tag k="name" v="Krokvassbekken" />
		<tag k="ssr:stedsnr" v="592062" />
		<tag k="waterway" v="stream" />
	</node>
	<node id="-767518" lat="63.59811667" lon="10.7841055512">
		<tag k="name" v="Liavatnet" />
>>>>>>> e1d4bc35ff8a6074a6f2e91616a996b547c36f15
		<tag k="natural" v="water" />
		<tag k="ssr:stedsnr" v="13965" />
		<tag k="water" v="lake" />
	</node>
<<<<<<< HEAD
	<node lat="63.62308611495751" lon="10.889738883038442" id="-31391">
		<tag k="name" v="Lågkastbekken" />
		<tag k="ssr:stedsnr" v="13968" />
		<tag k="waterway" v="stream" />
	</node>
	<node lat="63.633825003669806" lon="10.912480557314284" id="-31402">
		<tag k="name" v="Setertjønna" />
=======
	<node id="-767645" lat="63.6340499967" lon="10.8315388809">
		<tag k="name" v="Stavsetbekken" />
		<tag k="ssr:stedsnr" v="774213" />
		<tag k="waterway" v="stream" />
	</node>
	<node id="-767644" lat="63.6324317086" lon="10.8752107008">
		<tag k="name" v="Hesttjønna" />
>>>>>>> e1d4bc35ff8a6074a6f2e91616a996b547c36f15
		<tag k="natural" v="water" />
		<tag k="ssr:stedsnr" v="47096" />
	</node>
<<<<<<< HEAD
	<node lat="63.63840278095269" lon="10.897258336353515" id="-31406">
		<tag k="name" v="Storsvetjønna" />
=======
	<node id="-767643" lat="63.5723833295" lon="10.6100305612">
		<tag k="name" v="Måsdammen" />
>>>>>>> e1d4bc35ff8a6074a6f2e91616a996b547c36f15
		<tag k="natural" v="water" />
		<tag k="ssr:stedsnr" v="73976" />
	</node>
<<<<<<< HEAD
	<node lat="63.626677778221655" lon="10.906769444511221" id="-31418">
		<tag k="name" v="Lomtjønna" />
		<tag k="natural" v="water" />
		<tag k="ssr:stedsnr" v="74981" />
	</node>
	<node lat="63.613556753043966" lon="10.848881064505235" id="-31426">
		<tag k="name" v="Botnan" />
		<tag k="natural" v="bay" />
		<tag k="ssr:stedsnr" v="107141" />
	</node>
	<node lat="63.62431539317529" lon="10.868227593421041" id="-31445">
		<tag k="name" v="Åtloholman" />
		<tag k="place" v="islet" />
		<tag k="ssr:stedsnr" v="167070" />
	</node>
	<node lat="63.62975520540391" lon="10.885824476435571" id="-31450">
		<tag k="name" v="Lutdalsbekken" />
		<tag k="ssr:stedsnr" v="167184" />
		<tag k="waterway" v="stream" />
	</node>
	<node lat="63.606333333833454" lon="10.80059444940781" id="-31456">
		<tag k="name" v="Kvamsbekken" />
		<tag k="ssr:stedsnr" v="168298" />
		<tag k="waterway" v="stream" />
	</node>
	<node lat="63.59832499571604" lon="10.747483335384947" id="-31465">
		<tag k="name" v="Bergsvatnet" />
		<tag k="natural" v="water" />
		<tag k="ssr:stedsnr" v="195890" />
	</node>
	<node lat="63.64701944825135" lon="10.879008340128308" id="-31483">
		<tag k="alt_name" v="Skardtjønna" />
		<tag k="name" v="Skardstjønna" />
=======
	<node id="-767665" lat="63.6355375183" lon="10.8519030512">
		<tag k="name" v="Staurselva" />
		<tag k="ssr:stedsnr" v="835079" />
		<tag k="waterway" v="stream" />
	</node>
	<node id="-767503" lat="63.6300944461" lon="10.7948305603">
		<tag k="name" v="Bakkbekken" />
		<tag k="ssr:stedsnr" v="350262" />
		<tag k="waterway" v="stream" />
	</node>
	<node id="-767370" lat="63.6185944443" lon="10.8611944456">
		<tag k="name" v="Hovdalsvatnet" />
		<tag k="natural" v="water" />
		<tag k="ssr:stedsnr" v="13965" />
		<tag k="water" v="lake" />
	</node>
	<node id="-767371" lat="63.623086115" lon="10.889738883">
		<tag k="name" v="Lågkastbekken" />
		<tag k="ssr:stedsnr" v="13968" />
		<tag k="waterway" v="stream" />
	</node>
	<node id="-767498" lat="63.5995916689" lon="10.7110472179">
		<tag k="name" v="Nåvikbekken" />
		<tag k="ssr:stedsnr" v="349828" />
		<tag k="waterway" v="stream" />
	</node>
	<node id="-767238" lat="63.6658972188" lon="10.8954361176">
		<tag k="name" v="Holmtjønna" />
>>>>>>> e1d4bc35ff8a6074a6f2e91616a996b547c36f15
		<tag k="natural" v="water" />
		<tag k="ssr:stedsnr" v="316034" />
	</node>
<<<<<<< HEAD
	<node lat="63.59959166885831" lon="10.711047217861774" id="-31507">
		<tag k="name" v="Nåvikbekken" />
		<tag k="ssr:stedsnr" v="349828" />
		<tag k="waterway" v="stream" />
	</node>
	<node lat="63.63009444611255" lon="10.79483056025264" id="-31512">
		<tag k="name" v="Bakkbekken" />
		<tag k="ssr:stedsnr" v="350262" />
		<tag k="waterway" v="stream" />
	</node>
	<node lat="63.59811667001728" lon="10.78410555117036" id="-31525">
		<tag k="name" v="Liavatnet" />
=======
	<node id="-767363" lat="63.6621527808" lon="10.9022999909">
		<tag k="name" v="Igltjønna" />
>>>>>>> e1d4bc35ff8a6074a6f2e91616a996b547c36f15
		<tag k="natural" v="water" />
		<tag k="ssr:stedsnr" v="377889" />
		<tag k="water" v="lake" />
	</node>
<<<<<<< HEAD
	<node lat="63.62004592599608" lon="10.86423380478968" id="-31533">
		<tag k="name" v="Litlholmen" />
		<tag k="place" v="islet" />
		<tag k="ssr:stedsnr" v="410171" />
	</node>
	<node lat="63.59492222132135" lon="10.779813890069164" id="-31539">
		<tag k="name" v="Olahølet" />
		<tag k="natural" v="bay" />
		<tag k="ssr:stedsnr" v="410999" />
	</node>
	<node lat="63.59270833026874" lon="10.76576667182411" id="-31604">
		<tag k="name" v="Oset" />
		<tag k="natural" v="bay" />
		<tag k="ssr:stedsnr" v="652996" />
	</node>
	<node lat="63.62634494514584" lon="10.876551127258413" id="-31606">
		<tag k="name" v="Landfastholmen" />
		<tag k="place" v="islet" />
		<tag k="ssr:stedsnr" v="653141" />
	</node>
	<node lat="63.668205556495224" lon="10.888700008521083" id="-31620">
		<tag k="name" v="Holmtjønnbekken" />
		<tag k="ssr:stedsnr" v="714065" />
		<tag k="waterway" v="stream" />
	</node>
	<node lat="63.63752777924455" lon="10.932780549333838" id="-31622">
		<tag k="name" v="Rasmustjønnbekken" />
		<tag k="ssr:stedsnr" v="715089" />
		<tag k="waterway" v="stream" />
	</node>
	<node lat="63.57238332950445" lon="10.610030561207981" id="-31640">
		<tag k="name" v="Måsdammen" />
		<tag k="natural" v="water" />
		<tag k="ssr:stedsnr" v="774028" />
		<tag k="water" v="pond" />
	</node>
	<node lat="63.63243170855867" lon="10.875210700782723" id="-31643">
		<tag k="name" v="Hesttjønna" />
		<tag k="natural" v="water" />
		<tag k="ssr:stedsnr" v="774183" />
	</node>
	<node lat="63.63553751831315" lon="10.851903051189511" id="-31657">
		<tag k="name" v="Staurselva" />
		<tag k="ssr:stedsnr" v="835079" />
		<tag k="waterway" v="stream" />
	</node>
	<node lat="63.656380556899386" lon="10.905024992576896" id="-31667">
		<tag k="name" v="Krokvatnet" />
		<tag k="natural" v="water" />
		<tag k="ssr:stedsnr" v="863059" />
	</node>
	<node lat="63.57445591936474" lon="10.754080339671145" id="-31688">
		<tag k="name" v="Vikaelva" />
		<tag k="ssr:stedsnr" v="957352" />
		<tag k="waterway" v="stream" />
=======
	<node id="-767184" lat="63.613556753" lon="10.8488810645">
		<tag k="name" v="Botnan" />
		<tag k="natural" v="bay" />
		<tag k="ssr:stedsnr" v="107141" />
>>>>>>> e1d4bc35ff8a6074a6f2e91616a996b547c36f15
	</node>
</osm>
