<?xml version="1.0" encoding="UTF-8"?>
<osm version="0.6" generator="osmapis">
	<node lat="63.54356388757547" lon="10.674688892187392" id="-87500">
		<tag k="name" v="Hernesøra" />
		<tag k="natural" v="beach" />
		<tag k="ssr:stedsnr" v="44914" />
	</node>
	<node lat="63.5815444441393" lon="10.831205562528693" id="-87501">
		<tag k="name" v="Steinsgrunnen" />
		<tag k="natural" v="shoal" />
		<tag k="place" v="locality" />
		<tag k="ssr:stedsnr" v="44927" />
	</node>
	<node lat="63.598397701893035" lon="10.856203317900464" id="-87503">
		<tag k="name" v="Bekken" />
		<tag k="natural" v="bay" />
		<tag k="ssr:stedsnr" v="46209" />
	</node>
	<node lat="63.592024738840294" lon="10.845217980978736" id="-87506">
		<tag k="fixme" v="consider seamark:type=rock or natural=shoal" />
		<tag k="name" v="Ulvikskjæret" />
		<tag k="place" v="islet" />
		<tag k="ssr:stedsnr" v="47276" />
	</node>
	<node lat="63.58466388678586" lon="10.677344436649019" id="-87507">
		<tag k="fixme" v="consider seamark:type=rock or natural=shoal" />
		<tag k="name" v="Karihauet" />
		<tag k="place" v="islet" />
		<tag k="ssr:stedsnr" v="227781" />
	</node>
	<node lat="63.64755733417738" lon="10.848931373184419" id="-87508">
		<tag k="name" v="Åtloøra" />
		<tag k="natural" v="beach" />
		<tag k="ssr:stedsnr" v="228065" />
	</node>
	<node lat="63.56087222225201" lon="10.670830547961263" id="-87519">
		<tag k="name" v="Nordfjæraleiret" />
		<tag k="natural" v="beach" />
		<tag k="ssr:stedsnr" v="107678" />
	</node>
	<node lat="63.58043610968948" lon="10.624044449593773" id="-87522">
		<tag k="name" v="Nordhamna" />
		<tag k="natural" v="bay" />
		<tag k="ssr:stedsnr" v="134254" />
	</node>
	<node lat="63.57968610803834" lon="10.584552781712544" id="-87523">
		<tag k="name" v="Gardsgrunnen" />
		<tag k="natural" v="shoal" />
		<tag k="place" v="locality" />
		<tag k="ssr:stedsnr" v="134255" />
	</node>
	<node lat="63.583488887827265" lon="10.613116663221328" id="-87524">
		<tag k="name" v="Kviningen" />
		<tag k="natural" v="cape" />
		<tag k="ssr:stedsnr" v="134256" />
	</node>
	<node lat="63.54916388859131" lon="10.667772231557317" id="-87525">
		<tag k="name" v="Neset" />
		<tag k="natural" v="cape" />
		<tag k="ssr:stedsnr" v="134267" />
	</node>
	<node lat="63.54932222073952" lon="10.721980561779462" id="-87526">
		<tag k="bay" v="fjord" />
		<tag k="name" v="Åsenfjorden" />
		<tag k="natural" v="bay" />
		<tag k="ssr:stedsnr" v="134806" />
	</node>
	<node lat="63.60354722506917" lon="10.703563879864285" id="-87536">
		<tag k="name" v="Hyllviktangen" />
		<tag k="natural" v="cape" />
		<tag k="ssr:stedsnr" v="195325" />
	</node>
	<node lat="63.573519444619976" lon="10.677797222153886" id="-87542">
		<tag k="name" v="Ryggafjæra" />
		<tag k="natural" v="beach" />
		<tag k="ssr:stedsnr" v="255193" />
	</node>
	<node lat="63.58136389186544" lon="10.629538895097104" id="-87558">
		<tag k="name" v="Sørhamna" />
		<tag k="natural" v="bay" />
		<tag k="ssr:stedsnr" v="256203" />
	</node>
	<node lat="63.58917222618597" lon="10.620855558106184" id="-87561">
		<tag k="name" v="Klosterflua" />
		<tag k="natural" v="shoal" />
		<tag k="place" v="locality" />
		<tag k="ssr:stedsnr" v="256283" />
	</node>
	<node lat="63.620041669647286" lon="10.722830554172853" id="-87578">
		<tag k="name" v="Brattvikneset" />
		<tag k="natural" v="cape" />
		<tag k="ssr:stedsnr" v="347121" />
	</node>
	<node lat="63.64735000377077" lon="10.828236117874567" id="-87579">
		<tag k="alt_name" v="Skjergrunnen" />
		<tag k="name" v="Skjærgrunnen" />
		<tag k="natural" v="shoal" />
		<tag k="place" v="locality" />
		<tag k="ssr:stedsnr" v="347372" />
	</node>
	<node lat="63.57508888591868" lon="10.625675006815285" id="-87588">
		<tag k="name" v="Kuøra" />
		<tag k="natural" v="beach" />
		<tag k="ssr:stedsnr" v="376190" />
	</node>
	<node lat="63.61124444877176" lon="10.711566676509932" id="-87611">
		<tag k="name" v="Breivikbukta" />
		<tag k="natural" v="bay" />
		<tag k="ssr:stedsnr" v="470800" />
	</node>
	<node lat="63.66460833748089" lon="10.873263887260505" id="-87613">
		<tag k="fixme" v="consider seamark:type=rock or natural=shoal" />
		<tag k="name" v="Garnskjæret" />
		<tag k="place" v="islet" />
		<tag k="ssr:stedsnr" v="498008" />
	</node>
	<node lat="63.58169722497391" lon="10.67293888678496" id="-87615">
		<tag k="name" v="Holmberget" />
		<tag k="natural" v="cape" />
		<tag k="ssr:stedsnr" v="498257" />
	</node>
	<node lat="63.61197777539713" lon="10.700497222265954" id="-87627">
		<tag k="alt_name" v="Breidvikflua" />
		<tag k="name" v="Breivikflua" />
		<tag k="natural" v="shoal" />
		<tag k="place" v="locality" />
		<tag k="ssr:stedsnr" v="680300" />
	</node>
	<node lat="63.5875527793224" lon="10.673705551986433" id="-87628">
		<tag k="alt_name" v="Karihovudgrunnen" />
		<tag k="name" v="Karihoveflua" />
		<tag k="natural" v="shoal" />
		<tag k="place" v="locality" />
		<tag k="ssr:stedsnr" v="680351" />
	</node>
	<node lat="63.574954578287866" lon="10.605486480300199" id="-87630">
		<tag k="name" v="Tautra" />
		<tag k="place" v="island" />
		<tag k="ssr:stedsnr" v="558206" />
	</node>
	<node lat="63.633130559325025" lon="10.783941673637294" id="-87642">
		<tag k="name" v="Fånesbukta" />
		<tag k="natural" v="bay" />
		<tag k="ssr:stedsnr" v="592220" />
	</node>
	<node lat="63.66496944416136" lon="10.876436102386172" id="-87648">
		<tag k="name" v="Åsholmen" />
		<tag k="natural" v="cape" />
		<tag k="ssr:stedsnr" v="620004" />
	</node>
	<node lat="63.57920833377231" lon="10.529363896572763" id="-87650">
		<tag k="name" v="Langleitan" />
		<tag k="natural" v="shoal" />
		<tag k="place" v="locality" />
		<tag k="ssr:stedsnr" v="650050" />
	</node>
	<node lat="63.57061710006158" lon="10.731667234626729" id="-87666">
		<tag k="name" v="Litlleiret" />
		<tag k="natural" v="bay" />
		<tag k="ssr:stedsnr" v="714320" />
	</node>
	<node lat="63.56783610795606" lon="10.767427782068424" id="-87669">
		<tag k="name" v="Laberget" />
		<tag k="natural" v="cape" />
		<tag k="ssr:stedsnr" v="741815" />
	</node>
	<node lat="63.584438887259054" lon="10.818072227952515" id="-87670">
		<tag k="alt_name" v="Korsneset" />
		<tag k="name" v="Korsnes" />
		<tag k="natural" v="cape" />
		<tag k="ssr:stedsnr" v="741906" />
	</node>
	<node lat="63.642202773833915" lon="10.84607777844833" id="-87673">
		<tag k="name" v="Åtlosanden" />
		<tag k="natural" v="bay" />
		<tag k="ssr:stedsnr" v="741993" />
	</node>
	<node lat="63.56479722663252" lon="10.638600007006026" id="-87692">
		<tag k="fixme" v="multiple name tags, choose one and add the other to alt_name" />
		<tag k="name" v="Svaet;Tautersvaet" />
		<tag k="natural" v="strait" />
		<tag k="ssr:stedsnr" v="802221" />
	</node>
	<node lat="63.60615277572808" lon="10.883147222843645" id="-87694">
		<tag k="name" v="Aunsjøen" />
		<tag k="natural" v="bay" />
		<tag k="ssr:stedsnr" v="802904" />
	</node>
	<node lat="63.59096388726227" lon="10.836772222059572" id="-87699">
		<tag k="name" v="Geitbergfjæra" />
		<tag k="natural" v="beach" />
		<tag k="ssr:stedsnr" v="836214" />
	</node>
	<node lat="63.56822798187726" lon="10.726463401499267" id="-87700">
		<tag k="name" v="Vikaleiret" />
		<tag k="natural" v="beach" />
		<tag k="ssr:stedsnr" v="836302" />
	</node>
	<node lat="63.56999166396942" lon="10.617347216296924" id="-87701">
		<tag k="alt_name" v="Holmen, l;Litlholmen" />
		<tag k="name" v="Litle Holmen" />
		<tag k="natural" v="cape" />
		<tag k="ssr:stedsnr" v="862220" />
	</node>
	<node lat="63.63661388645632" lon="10.780241675349469" id="-87710">
		<tag k="name" v="Fånestangen" />
		<tag k="natural" v="cape" />
		<tag k="ssr:stedsnr" v="863983" />
	</node>
	<node lat="63.819172218288585" lon="11.107808335679117" id="-87717">
		<tag k="bay" v="fjord" />
		<tag k="name" v="Trondheimsfjorden" />
		<tag k="natural" v="bay" />
		<tag k="ssr:stedsnr" v="923078" />
	</node>
	<node lat="63.59561128245309" lon="10.851526991595964" id="-87724">
		<tag k="name" v="Hansfjæra" />
		<tag k="natural" v="beach" />
		<tag k="ssr:stedsnr" v="957198" />
	</node>
	<node lat="63.56722222142939" lon="10.59207778015885" id="-87781">
		<tag k="name" v="Skaget" />
		<tag k="natural" v="cape" />
		<tag k="ssr:stedsnr" v="13200" />
	</node>
	<node lat="63.56359722605454" lon="10.551061119258417" id="-87806">
		<tag k="name" v="Kjerkeflua" />
		<tag k="natural" v="shoal" />
		<tag k="place" v="locality" />
		<tag k="ssr:stedsnr" v="73247" />
	</node>
	<node lat="63.625988891904804" lon="10.728161115339446" id="-87817">
		<tag k="name" v="Orsandgrunnen" />
		<tag k="natural" v="shoal" />
		<tag k="place" v="locality" />
		<tag k="ssr:stedsnr" v="74937" />
	</node>
	<node lat="63.56311644977059" lon="10.720055652866462" id="-87821">
		<tag k="name" v="Logsteinhåmmåren" />
		<tag k="natural" v="cape" />
		<tag k="ssr:stedsnr" v="107365" />
	</node>
	<node lat="63.54155278125696" lon="10.641066659888777" id="-87832">
		<tag k="alt_name" v="Hauganfjæra" />
		<tag k="name" v="Haugfjæra" />
		<tag k="natural" v="bay" />
		<tag k="ssr:stedsnr" v="134281" />
	</node>
	<node lat="63.55027222632406" lon="10.641688898309706" id="-87833">
		<tag k="alt_name" v="Skjulsvika" />
		<tag k="name" v="Skulsvikbukta" />
		<tag k="natural" v="bay" />
		<tag k="ssr:stedsnr" v="134287" />
	</node>
	<node lat="63.56383888823185" lon="10.583952787620374" id="-87836">
		<tag k="name" v="Skagøra" />
		<tag k="natural" v="beach" />
		<tag k="ssr:stedsnr" v="134296" />
	</node>
	<node lat="63.59300832919957" lon="10.607849998925744" id="-87841">
		<tag k="name" v="Indregrunnen" />
		<tag k="natural" v="shoal" />
		<tag k="place" v="locality" />
		<tag k="ssr:stedsnr" v="165054" />
	</node>
	<node lat="63.57136666372939" lon="10.675274997111984" id="-87842">
		<tag k="name" v="Ryggavika" />
		<tag k="natural" v="bay" />
		<tag k="ssr:stedsnr" v="166743" />
	</node>
	<node lat="63.66205833009683" lon="10.873255563908906" id="-87854">
		<tag k="fixme" v="consider seamark:type=rock or natural=shoal" />
		<tag k="name" v="Naustskjæret" />
		<tag k="place" v="islet" />
		<tag k="ssr:stedsnr" v="195054" />
	</node>
	<node lat="63.652797224887316" lon="10.857152784755085" id="-87861">
		<tag k="name" v="Åtlotangen" />
		<tag k="natural" v="cape" />
		<tag k="ssr:stedsnr" v="195984" />
	</node>
	<node lat="63.52536111536166" lon="10.523847221402848" id="-87870">
		<tag k="name" v="Treungsgrunnen" />
		<tag k="natural" v="shoal" />
		<tag k="place" v="locality" />
		<tag k="ssr:stedsnr" v="316239" />
	</node>
	<node lat="63.546666665676156" lon="10.628866666258869" id="-87873">
		<tag k="alt_name" v="Frostatangen" />
		<tag k="name" v="Hynne" />
		<tag k="natural" v="cape" />
		<tag k="ssr:stedsnr" v="316253" />
	</node>
	<node lat="63.61472777812995" lon="10.712180559334122" id="-87878">
		<tag k="alt_name" v="Furruneset" />
		<tag k="name" v="Furuneset" />
		<tag k="natural" v="cape" />
		<tag k="ssr:stedsnr" v="316301" />
	</node>
	<node lat="63.66517222608187" lon="10.827522212884848" id="-87890">
		<tag k="name" v="Nordgrunnan" />
		<tag k="natural" v="shoal" />
		<tag k="place" v="locality" />
		<tag k="ssr:stedsnr" v="317027" />
	</node>
	<node lat="63.58082500197587" lon="10.804441661702942" id="-87891">
		<tag k="alt_name" v="Kvitlsandvika" />
		<tag k="name" v="Kvitsandvika" />
		<tag k="natural" v="bay" />
		<tag k="ssr:stedsnr" v="316875" />
	</node>
	<node lat="63.585049999207364" lon="10.568672221821112" id="-87892">
		<tag k="name" v="Kvassgrunnen" />
		<tag k="natural" v="shoal" />
		<tag k="place" v="locality" />
		<tag k="ssr:stedsnr" v="347046" />
	</node>
	<node lat="63.56269444782899" lon="10.663811118388876" id="-87900">
		<tag k="name" v="Nordfjærabukta" />
		<tag k="natural" v="bay" />
		<tag k="ssr:stedsnr" v="376249" />
	</node>
	<node lat="63.58565000063483" lon="10.569525003200301" id="-87902">
		<tag k="name" v="Kristoffergrunnen" />
		<tag k="natural" v="shoal" />
		<tag k="place" v="locality" />
		<tag k="ssr:stedsnr" v="377289" />
	</node>
	<node lat="63.56941388834834" lon="10.749377775474958" id="-87903">
		<tag k="name" v="Manneset" />
		<tag k="natural" v="cape" />
		<tag k="ssr:stedsnr" v="377751" />
	</node>
	<node lat="63.574658330769125" lon="10.656894453790754" id="-87916">
		<tag k="name" v="Litlegrunnen" />
		<tag k="natural" v="shoal" />
		<tag k="place" v="locality" />
		<tag k="ssr:stedsnr" v="408934" />
	</node>
	<node lat="63.537530553383164" lon="10.6474972262772" id="-87917">
		<tag k="name" v="Slegga" />
		<tag k="place" v="islet" />
		<tag k="ssr:stedsnr" v="408938" />
	</node>
	<node lat="63.576252776474114" lon="10.811869440308993" id="-87918">
		<tag k="name" v="Vollgrunnen" />
		<tag k="natural" v="shoal" />
		<tag k="place" v="locality" />
		<tag k="ssr:stedsnr" v="408950" />
	</node>
	<node lat="63.66592728624899" lon="10.873998326501933" id="-87921">
		<tag k="fixme" v="consider seamark:type=rock or natural=shoal" />
		<tag k="name" v="Langskjæret" />
		<tag k="place" v="islet" />
		<tag k="ssr:stedsnr" v="410068" />
	</node>
	<node lat="63.56978055207698" lon="10.671816658200672" id="-87929">
		<tag k="name" v="Tangen" />
		<tag k="natural" v="cape" />
		<tag k="ssr:stedsnr" v="438154" />
	</node>
	<node lat="63.603233329088546" lon="10.87851943491953" id="-87941">
		<tag k="fixme" v="consider seamark:type=rock or natural=shoal" />
		<tag k="name" v="Kolvikskjæret" />
		<tag k="place" v="islet" />
		<tag k="ssr:stedsnr" v="498895" />
	</node>
	<node lat="63.5677833321923" lon="10.61033333370529" id="-87953">
		<tag k="alt_name" v="Holmen, store;Storholmen" />
		<tag k="name" v="Store Holmen" />
		<tag k="natural" v="cape" />
		<tag k="ssr:stedsnr" v="558198" />
	</node>
	<node lat="63.675197219410116" lon="10.872055555662511" id="-87957">
		<tag k="name" v="Åsholmflua" />
		<tag k="natural" v="shoal" />
		<tag k="place" v="locality" />
		<tag k="ssr:stedsnr" v="559091" />
	</node>
	<node lat="63.53887777721706" lon="10.647433334830293" id="-87968">
		<tag k="name" v="Råttåvika" />
		<tag k="natural" v="bay" />
		<tag k="ssr:stedsnr" v="592253" />
	</node>
	<node lat="63.6612611144948" lon="10.847088895042372" id="-87973">
		<tag k="name" v="Holmgrunnen" />
		<tag k="natural" v="shoal" />
		<tag k="place" v="locality" />
		<tag k="ssr:stedsnr" v="619054" />
	</node>
	<node lat="63.570522225693274" lon="10.602169442445474" id="-87974">
		<tag k="name" v="Skagbukta" />
		<tag k="natural" v="bay" />
		<tag k="ssr:stedsnr" v="619217" />
	</node>
	<node lat="63.58583610911129" lon="10.812880559843267" id="-87978">
		<tag k="name" v="Hyndøyvågen" />
		<tag k="natural" v="bay" />
		<tag k="ssr:stedsnr" v="619901" />
	</node>
	<node lat="63.63512222267886" lon="10.7525111188291" id="-87980">
		<tag k="name" v="Sandgrunnen" />
		<tag k="natural" v="shoal" />
		<tag k="place" v="locality" />
		<tag k="ssr:stedsnr" v="620000" />
	</node>
	<node lat="63.5780444431404" lon="10.566452770967814" id="-87984">
		<tag k="name" v="Storgrunnen" />
		<tag k="natural" v="shoal" />
		<tag k="place" v="locality" />
		<tag k="ssr:stedsnr" v="620210" />
	</node>
	<node lat="63.56979444027238" lon="10.773188881616527" id="-87986">
		<tag k="name" v="Kniptangen" />
		<tag k="natural" v="cape" />
		<tag k="ssr:stedsnr" v="620757" />
	</node>
	<node lat="63.592049996222165" lon="10.845166662740015" id="-87987">
		<tag k="fixme" v="consider seamark:type=rock or natural=shoal" />
		<tag k="name" v="Storskjæret" />
		<tag k="place" v="islet" />
		<tag k="ssr:stedsnr" v="650920" />
	</node>
	<node lat="63.58453610759951" lon="10.557963889777549" id="-87993">
		<tag k="name" v="Nordgrunnen" />
		<tag k="natural" v="shoal" />
		<tag k="place" v="locality" />
		<tag k="ssr:stedsnr" v="711057" />
	</node>
	<node lat="63.60489166388297" lon="10.773675001468316" id="-88009">
		<tag k="name" v="Frosta" />
		<tag k="natural" v="peninsula" />
		<tag k="place" v="locality" />
		<tag k="ssr:stedsnr" v="741917" />
	</node>
	<node lat="63.557094447187836" lon="10.655108324036279" id="-88021">
		<tag k="name" v="Hernesøra" />
		<tag k="natural" v="beach" />
		<tag k="ssr:stedsnr" v="774227" />
	</node>
	<node lat="63.620238887071544" lon="10.726716669173703" id="-88022">
		<tag k="name" v="Brattvika" />
		<tag k="natural" v="bay" />
		<tag k="ssr:stedsnr" v="774989" />
	</node>
	<node lat="63.58566111135078" lon="10.598569447865001" id="-88030">
		<tag k="name" v="Kviningsgrunnen" />
		<tag k="natural" v="shoal" />
		<tag k="place" v="locality" />
		<tag k="ssr:stedsnr" v="802341" />
	</node>
	<node lat="63.58884166473423" lon="10.690830548350023" id="-88031">
		<tag k="name" v="Huva" />
		<tag k="natural" v="cape" />
		<tag k="ssr:stedsnr" v="802353" />
	</node>
	<node lat="63.64466666436912" lon="10.796874991176544" id="-88034">
		<tag k="name" v="Flågrunnen" />
		<tag k="natural" v="shoal" />
		<tag k="place" v="locality" />
		<tag k="ssr:stedsnr" v="802989" />
	</node>
	<node lat="63.58960833736228" lon="10.693519441599138" id="-88038">
		<tag k="name" v="Kransarvika" />
		<tag k="natural" v="bay" />
		<tag k="ssr:stedsnr" v="834775" />
	</node>
	<node lat="63.66977222583177" lon="10.874472232303983" id="-88052">
		<tag k="fixme" v="multiple name tags, choose one and add the other to alt_name" />
		<tag k="name" v="Storholmen;Åsholmen" />
		<tag k="place" v="islet" />
		<tag k="ssr:stedsnr" v="863028" />
	</node>
	<node lat="63.58425555676174" lon="10.640525009578749" id="-88055">
		<tag k="name" v="Åbåten" />
		<tag k="natural" v="cape" />
		<tag k="ssr:stedsnr" v="863218" />
	</node>
	<node lat="63.65625555794337" lon="10.865377773229234" id="-88060">
		<tag k="alt_name" v="Drauvika" />
		<tag k="name" v="Draugvika" />
		<tag k="natural" v="bay" />
		<tag k="ssr:stedsnr" v="923069" />
	</node>
	<node lat="63.54610277832534" lon="10.611325002227531" id="-88061">
		<tag k="name" v="Øksningen" />
		<tag k="place" v="islet" />
		<tag k="ssr:stedsnr" v="923262" />
	</node>
	<node lat="63.55754722090699" lon="10.622358340951529" id="-88063">
		<tag k="alt_name" v="Bollsvikgrunnen" />
		<tag k="name" v="Ballsvikgrunnen" />
		<tag k="natural" v="shoal" />
		<tag k="place" v="locality" />
		<tag k="ssr:stedsnr" v="923266" />
	</node>
	<node lat="63.62547221946084" lon="10.74816388953577" id="-88064">
		<tag k="name" v="Småtta" />
		<tag k="natural" v="bay" />
		<tag k="ssr:stedsnr" v="923955" />
	</node>
	<node lat="63.57291944784858" lon="10.743127785113364" id="-88069">
		<tag k="name" v="Storleiret" />
		<tag k="natural" v="bay" />
		<tag k="ssr:stedsnr" v="924764" />
	</node>
</osm>
