<?xml version="1.0" encoding="UTF-8"?>
<osm version="0.6" generator="osmapis">
	<node lat="63.584195089812766" lon="10.62210897434752" id="-87580">
		<tag k="amenity" v="place_of_worship" />
		<tag k="fixme" v="specify religion=*, denomination=*, building=* etc" />
		<tag k="name" v="Tautra kloster" />
		<tag k="ssr:stedsnr" v="348034" />
	</node>
	<node lat="63.67134444776329" lon="10.887594453003704" id="-87582">
		<tag k="name" v="Olsfestet" />
		<tag k="place" v="locality" />
		<tag k="ssr:stedsnr" v="349083" />
	</node>
	<node lat="63.58720088594446" lon="10.753954941752037" id="-87647">
		<tag k="alt_name" v="Frosta" />
		<tag k="amenity" v="place_of_worship" />
		<tag k="denomination" v="lutheran" />
		<tag k="name" v="Frosta kirke" />
		<tag k="religion" v="christian" />
		<tag k="ssr:stedsnr" v="619883" />
	</node>
	<node lat="63.56845000197934" lon="10.704144451427206" id="-87827">
		<tag k="name" v="Tinghaugen" />
		<tag k="ssr:stedsnr" v="134229" />
		<tag k="tourism" v="attraction" />
	</node>
	<node lat="63.56719142717034" lon="10.701818757698213" id="-87834">
		<tag k="alt_name" v="Logtun" />
		<tag k="amenity" v="place_of_worship" />
		<tag k="denomination" v="lutheran" />
		<tag k="name" v="Logtun kirke" />
		<tag k="religion" v="christian" />
		<tag k="ssr:stedsnr" v="134293" />
	</node>
	<node lat="63.585914145921" lon="10.730455521247453" id="-88185">
		<tag k="alt_name" v="BjÃ¸rkly" />
		<tag k="amenity" v="community_centre" />
		<tag k="name" v="Frosta bedehus" />
		<tag k="ssr:stedsnr" v="1081995" />
	</node>
	<node lat="63.61896016724692" lon="10.814143059986609" id="-88189">
		<tag k="amenity" v="community_centre" />
		<tag k="name" v="Folkheim" />
		<tag k="ssr:stedsnr" v="1085560" />
	</node>
</osm>
