<?xml version="1.0" encoding="UTF-8"?>
<osm version="0.6" generator="osmapis">
	<node lat="63.61450277489971" lon="10.770869451362351" id="-31154">
		<tag k="name" v="Stokkåsen" />
		<tag k="natural" v="hill" />
		<tag k="place" v="locality" />
		<tag k="ssr:stedsnr" v="13917" />
	</node>
	<node lat="63.62882873339266" lon="10.899695491265176" id="-31160">
		<tag k="name" v="Åsan" />
		<tag k="natural" v="hill" />
		<tag k="place" v="locality" />
		<tag k="ssr:stedsnr" v="46173" />
	</node>
	<node lat="63.589477547820536" lon="10.765057803576973" id="-31162">
		<tag k="name" v="Jubergshaugen" />
		<tag k="natural" v="hill" />
		<tag k="place" v="locality" />
		<tag k="ssr:stedsnr" v="46275" />
	</node>
	<node lat="63.588263893338286" lon="10.70254721733178" id="-31168">
		<tag k="name" v="Risethøgda" />
		<tag k="natural" v="hill" />
		<tag k="place" v="locality" />
		<tag k="ssr:stedsnr" v="105777" />
	</node>
	<node lat="63.594963889006" lon="10.74350832946125" id="-31195">
		<tag k="name" v="Bergsåsen" />
		<tag k="natural" v="hill" />
		<tag k="place" v="locality" />
		<tag k="ssr:stedsnr" v="167909" />
	</node>
	<node lat="65.11002777597567" lon="13.085422216082504" id="-31200">
		<tag k="fixme" v="consider natural=peak for the most distinct mountains in the district" />
		<tag k="name" v="Kløftfjellet - Sloeptjenguevtele" />
		<tag k="name:no" v="Kløftfjellet" />
		<tag k="name:sma" v="Sloeptjenguevtele" />
		<tag k="natural" v="hill" />
		<tag k="place" v="locality" />
		<tag k="ssr:stedsnr" v="196523" />
	</node>
	<node lat="63.60960110065719" lon="10.877955204919974" id="-31204">
		<tag k="name" v="Høglia" />
		<tag k="natural" v="hill" />
		<tag k="place" v="locality" />
		<tag k="ssr:stedsnr" v="228140" />
	</node>
	<node lat="63.599652778256846" lon="10.777688881913706" id="-31205">
		<tag k="name" v="Slættet" />
		<tag k="place" v="locality" />
		<tag k="ssr:stedsnr" v="231004" />
	</node>
	<node lat="63.67023888875753" lon="10.893000004661046" id="-31230">
		<tag k="name" v="Brurstidalen" />
		<tag k="natural" v="valley" />
		<tag k="place" v="locality" />
		<tag k="ssr:stedsnr" v="317006" />
	</node>
	<node lat="63.608836113285875" lon="10.75430277298854" id="-31233">
		<tag k="name" v="Langdalen" />
		<tag k="natural" v="valley" />
		<tag k="place" v="locality" />
		<tag k="ssr:stedsnr" v="469985" />
	</node>
	<node lat="63.58906944400019" lon="10.831791675626354" id="-31236">
		<tag k="name" v="Geitberget" />
		<tag k="natural" v="hill" />
		<tag k="place" v="locality" />
		<tag k="ssr:stedsnr" v="471257" />
	</node>
	<node lat="63.5670999957949" lon="10.690891675092479" id="-31240">
		<tag k="name" v="Tingstad" />
		<tag k="natural" v="hill" />
		<tag k="place" v="locality" />
		<tag k="ssr:stedsnr" v="350623" />
	</node>
	<node lat="63.59638332979295" lon="10.758072220572526" id="-31246">
		<tag k="name" v="Vagnåsen" />
		<tag k="natural" v="hill" />
		<tag k="place" v="locality" />
		<tag k="ssr:stedsnr" v="410896" />
	</node>
	<node lat="63.540291670216035" lon="10.650936118970128" id="-31251">
		<tag k="name" v="Gullberget" />
		<tag k="natural" v="hill" />
		<tag k="place" v="locality" />
		<tag k="ssr:stedsnr" v="438209" />
	</node>
	<node lat="63.59994382321824" lon="10.785933261065637" id="-31278">
		<tag k="name" v="Mariaberget" />
		<tag k="natural" v="hill" />
		<tag k="place" v="locality" />
		<tag k="ssr:stedsnr" v="532232" />
	</node>
	<node lat="63.617897218252416" lon="10.829530558245628" id="-31291">
		<tag k="fixme" v="consider natural=peak for the most distinct mountains in the district" />
		<tag k="name" v="Hovdalsåsen" />
		<tag k="natural" v="hill" />
		<tag k="place" v="locality" />
		<tag k="ssr:stedsnr" v="592222" />
	</node>
	<node lat="63.60618611059531" lon="10.858102218518969" id="-31307">
		<tag k="fixme" v="consider natural=peak for the most distinct mountains in the district" />
		<tag k="name" v="Brennkammen" />
		<tag k="natural" v="hill" />
		<tag k="place" v="locality" />
		<tag k="ssr:stedsnr" v="896186" />
	</node>
	<node lat="63.56839977222827" lon="10.723355940288355" id="-31311">
		<tag k="name" v="Rognhaugen" />
		<tag k="natural" v="hill" />
		<tag k="place" v="locality" />
		<tag k="ssr:stedsnr" v="896382" />
	</node>
	<node lat="63.641477775792524" lon="10.926500005933315" id="-31322">
		<tag k="fixme" v="consider natural=peak for the most distinct mountains in the district" />
		<tag k="name" v="Liahøgda" />
		<tag k="natural" v="hill" />
		<tag k="place" v="locality" />
		<tag k="ssr:stedsnr" v="741990" />
	</node>
	<node lat="63.64276388536003" lon="10.889955558359397" id="-31323">
		<tag k="fixme" v="consider natural=peak for the most distinct mountains in the district" />
		<tag k="name" v="Brattåsen" />
		<tag k="natural" v="hill" />
		<tag k="place" v="locality" />
		<tag k="ssr:stedsnr" v="741992" />
	</node>
	<node lat="63.630955559010474" lon="10.911008330807068" id="-31330">
		<tag k="name" v="Brannhaugen" />
		<tag k="natural" v="hill" />
		<tag k="place" v="locality" />
		<tag k="ssr:stedsnr" v="775103" />
	</node>
	<node lat="63.58028743055784" lon="10.788544659543033" id="-31354">
		<tag k="name" v="Revelsvebakken" />
		<tag k="natural" v="slope" />
		<tag k="place" v="locality" />
		<tag k="ssr:stedsnr" v="836207" />
	</node>
	<node lat="63.632274995978875" lon="10.923624997684218" id="-31374">
		<tag k="name" v="Stordalen" />
		<tag k="natural" v="valley" />
		<tag k="place" v="locality" />
		<tag k="ssr:stedsnr" v="957108" />
	</node>
	<node lat="63.594477774109954" lon="10.808755563293966" id="-31387">
		<tag k="fixme" v="consider natural=peak for the most distinct mountains in the district" />
		<tag k="name" v="Hellåsen" />
		<tag k="natural" v="hill" />
		<tag k="place" v="locality" />
		<tag k="ssr:stedsnr" v="13847" />
	</node>
	<node lat="63.64747610816498" lon="10.88578292842526" id="-31398">
		<tag k="name" v="Skardet" />
		<tag k="natural" v="valley" />
		<tag k="place" v="locality" />
		<tag k="ssr:stedsnr" v="46053" />
	</node>
	<node lat="63.6073017145851" lon="10.885301369833186" id="-31400">
		<tag k="name" v="Raudberget" />
		<tag k="natural" v="hill" />
		<tag k="place" v="locality" />
		<tag k="ssr:stedsnr" v="46154" />
	</node>
	<node lat="63.5487555528637" lon="10.636311120333394" id="-31401">
		<tag k="name" v="Håmmårhaugen" />
		<tag k="natural" v="hill" />
		<tag k="place" v="locality" />
		<tag k="ssr:stedsnr" v="46250" />
	</node>
	<node lat="63.57725696021913" lon="10.78054221806724" id="-31404">
		<tag k="fixme" v="consider natural=peak for the most distinct mountains in the district" />
		<tag k="name" v="Moksnesåsen" />
		<tag k="natural" v="hill" />
		<tag k="place" v="locality" />
		<tag k="ssr:stedsnr" v="47257" />
	</node>
	<node lat="63.60664999943519" lon="10.862891676637638" id="-31409">
		<tag k="fixme" v="consider natural=peak for the most distinct mountains in the district" />
		<tag k="name" v="Tronnobergskammen" />
		<tag k="natural" v="hill" />
		<tag k="place" v="locality" />
		<tag k="ssr:stedsnr" v="73868" />
	</node>
	<node lat="63.58412430591041" lon="10.812108491186722" id="-31422">
		<tag k="name" v="Haukberget" />
		<tag k="natural" v="hill" />
		<tag k="place" v="locality" />
		<tag k="ssr:stedsnr" v="107238" />
	</node>
	<node lat="63.628569442407716" lon="10.777477768054467" id="-31424">
		<tag k="name" v="Raudkleiva" />
		<tag k="natural" v="slope" />
		<tag k="place" v="locality" />
		<tag k="ssr:stedsnr" v="106952" />
	</node>
	<node lat="63.63759104964348" lon="10.902755617127294" id="-31425">
		<tag k="name" v="Kopperdalen" />
		<tag k="natural" v="valley" />
		<tag k="place" v="locality" />
		<tag k="ssr:stedsnr" v="107139" />
	</node>
	<node lat="63.607016669017995" lon="10.759916666619992" id="-31447">
		<tag k="name" v="Vangberghalla" />
		<tag k="natural" v="hill" />
		<tag k="place" v="locality" />
		<tag k="ssr:stedsnr" v="166985" />
	</node>
	<node lat="63.64103715900478" lon="10.901293270114387" id="-31453">
		<tag k="name" v="Fesetmyrdalen" />
		<tag k="natural" v="valley" />
		<tag k="place" v="locality" />
		<tag k="ssr:stedsnr" v="167187" />
	</node>
	<node lat="63.619509683113506" lon="10.869565985562968" id="-31454">
		<tag k="name" v="Svartberget" />
		<tag k="natural" v="hill" />
		<tag k="place" v="locality" />
		<tag k="ssr:stedsnr" v="167190" />
	</node>
	<node lat="63.627097218912496" lon="10.805499989815083" id="-31455">
		<tag k="name" v="Revskaftet" />
		<tag k="natural" v="hill" />
		<tag k="place" v="locality" />
		<tag k="ssr:stedsnr" v="168200" />
	</node>
	<node lat="63.6453615173411" lon="10.874078424013822" id="-31474">
		<tag k="name" v="Aunberget" />
		<tag k="natural" v="hill" />
		<tag k="place" v="locality" />
		<tag k="ssr:stedsnr" v="228060" />
	</node>
	<node lat="63.59077221975397" lon="10.724002785330445" id="-31477">
		<tag k="name" v="Kjelsåsberga" />
		<tag k="natural" v="hill" />
		<tag k="place" v="locality" />
		<tag k="ssr:stedsnr" v="288067" />
	</node>
	<node lat="63.64651222068903" lon="10.908804613341962" id="-31479">
		<tag k="name" v="Svartdalen" />
		<tag k="natural" v="valley" />
		<tag k="place" v="locality" />
		<tag k="ssr:stedsnr" v="289055" />
	</node>
	<node lat="63.62877221884968" lon="10.848983323635103" id="-31490">
		<tag k="fixme" v="consider natural=peak for the most distinct mountains in the district" />
		<tag k="name" v="Staurskammen" />
		<tag k="natural" v="hill" />
		<tag k="place" v="locality" />
		<tag k="ssr:stedsnr" v="316991" />
	</node>
	<node lat="63.64679444174688" lon="10.932547222599357" id="-31503">
		<tag k="name" v="Sandhøgda" />
		<tag k="natural" v="hill" />
		<tag k="place" v="locality" />
		<tag k="ssr:stedsnr" v="349133" />
	</node>
	<node lat="63.600202080669945" lon="10.85893819086505" id="-31506">
		<tag k="name" v="Ulvikberga" />
		<tag k="natural" v="hill" />
		<tag k="place" v="locality" />
		<tag k="ssr:stedsnr" v="349223" />
	</node>
	<node lat="63.64014166947079" lon="10.937602777094584" id="-31510">
		<tag k="name" v="Markhusheia" />
		<tag k="natural" v="hill" />
		<tag k="place" v="locality" />
		<tag k="ssr:stedsnr" v="350082" />
	</node>
	<node lat="63.60899722646727" lon="10.832066662932448" id="-31526">
		<tag k="fixme" v="consider natural=peak for the most distinct mountains in the district" />
		<tag k="name" v="Hojemskammen" />
		<tag k="natural" v="hill" />
		<tag k="place" v="locality" />
		<tag k="ssr:stedsnr" v="377903" />
	</node>
	<node lat="63.582074998402064" lon="10.691438888820795" id="-31534">
		<tag k="name" v="Utsikten" />
		<tag k="natural" v="hill" />
		<tag k="place" v="locality" />
		<tag k="ssr:stedsnr" v="409782" />
	</node>
	<node lat="63.666305556395706" lon="10.882208326750684" id="-31536">
		<tag k="name" v="Hendrikdalen" />
		<tag k="natural" v="valley" />
		<tag k="place" v="locality" />
		<tag k="ssr:stedsnr" v="410062" />
	</node>
	<node lat="63.659208332410415" lon="10.896244435565222" id="-31543">
		<tag k="fixme" v="consider natural=peak for the most distinct mountains in the district" />
		<tag k="name" v="Litlheia" />
		<tag k="natural" v="hill" />
		<tag k="place" v="locality" />
		<tag k="ssr:stedsnr" v="438045" />
	</node>
	<node lat="63.63099166436369" lon="10.911136112246385" id="-31550">
		<tag k="name" v="Brannhaugen" />
		<tag k="natural" v="hill" />
		<tag k="place" v="locality" />
		<tag k="ssr:stedsnr" v="438983" />
	</node>
	<node lat="63.59810832925668" lon="10.752150006543959" id="-31564">
		<tag k="name" v="Brannhaugen" />
		<tag k="natural" v="hill" />
		<tag k="place" v="locality" />
		<tag k="ssr:stedsnr" v="531909" />
	</node>
	<node lat="63.54353888916857" lon="10.651144444306643" id="-31579">
		<tag k="name" v="Kongshaugen" />
		<tag k="natural" v="hill" />
		<tag k="place" v="locality" />
		<tag k="ssr:stedsnr" v="592237" />
	</node>
	<node lat="63.596707628559706" lon="10.834507286019669" id="-31580">
		<tag k="name" v="Bekkdalen" />
		<tag k="natural" v="valley" />
		<tag k="place" v="locality" />
		<tag k="ssr:stedsnr" v="592286" />
	</node>
	<node lat="63.57353055824152" lon="10.773058338252607" id="-31602">
		<tag k="name" v="Moksneslia" />
		<tag k="natural" v="slope" />
		<tag k="place" v="locality" />
		<tag k="ssr:stedsnr" v="650115" />
	</node>
	<node lat="63.6028944473045" lon="10.78561388121677" id="-31607">
		<tag k="fixme" v="consider natural=peak for the most distinct mountains in the district" />
		<tag k="name" v="Gaupåsen" />
		<tag k="natural" v="hill" />
		<tag k="place" v="locality" />
		<tag k="ssr:stedsnr" v="653273" />
	</node>
	<node lat="63.57052655743325" lon="10.755893290116282" id="-31610">
		<tag k="name" v="Moksneshaugen" />
		<tag k="natural" v="hill" />
		<tag k="place" v="locality" />
		<tag k="ssr:stedsnr" v="653356" />
	</node>
	<node lat="63.604188890744446" lon="10.7758749987831" id="-31613">
		<tag k="name" v="Kleivan" />
		<tag k="natural" v="slope" />
		<tag k="place" v="locality" />
		<tag k="ssr:stedsnr" v="712991" />
	</node>
	<node lat="63.644838242246216" lon="10.879085699369876" id="-31616">
		<tag k="name" v="Brannskardet" />
		<tag k="natural" v="valley" />
		<tag k="place" v="locality" />
		<tag k="ssr:stedsnr" v="713055" />
	</node>
	<node lat="63.63238888968571" lon="10.832927775578119" id="-31621">
		<tag k="name" v="Brubakken" />
		<tag k="natural" v="slope" />
		<tag k="place" v="locality" />
		<tag k="ssr:stedsnr" v="714166" />
	</node>
	<node lat="63.606933329854805" lon="10.824047226617171" id="-31644">
		<tag k="fixme" v="consider natural=peak for the most distinct mountains in the district" />
		<tag k="name" v="Hojemsåsen" />
		<tag k="natural" v="hill" />
		<tag k="place" v="locality" />
		<tag k="ssr:stedsnr" v="775276" />
	</node>
	<node lat="63.588591664762774" lon="10.827830546271098" id="-31646">
		<tag k="name" v="Furruhaugen" />
		<tag k="natural" v="hill" />
		<tag k="place" v="locality" />
		<tag k="ssr:stedsnr" v="775242" />
	</node>
	<node lat="63.60389722260752" lon="10.74710000015071" id="-31654">
		<tag k="fixme" v="consider natural=peak for the most distinct mountains in the district" />
		<tag k="name" v="Lauvåsen" />
		<tag k="natural" v="hill" />
		<tag k="place" v="locality" />
		<tag k="ssr:stedsnr" v="833990" />
	</node>
	<node lat="63.587929936988616" lon="10.753775997264302" id="-31659">
		<tag k="name" v="Presthushaugen" />
		<tag k="natural" v="hill" />
		<tag k="place" v="locality" />
		<tag k="ssr:stedsnr" v="835255" />
	</node>
	<node lat="63.64047500306697" lon="10.93003888114909" id="-31660">
		<tag k="name" v="Liahøgda" />
		<tag k="natural" v="hill" />
		<tag k="place" v="locality" />
		<tag k="ssr:stedsnr" v="836071" />
	</node>
	<node lat="63.61082778218529" lon="10.787888888450516" id="-31663">
		<tag k="fixme" v="consider natural=peak for the most distinct mountains in the district" />
		<tag k="name" v="Ramnåsen" />
		<tag k="natural" v="hill" />
		<tag k="place" v="locality" />
		<tag k="ssr:stedsnr" v="836258" />
	</node>
	<node lat="63.65190833749991" lon="10.884747231701656" id="-31669">
		<tag k="name" v="Bjørnbettet" />
		<tag k="natural" v="hill" />
		<tag k="place" v="locality" />
		<tag k="ssr:stedsnr" v="863038" />
	</node>
	<node lat="63.64725306395989" lon="10.855972302381193" id="-31679">
		<tag k="name" v="Sandåsen" />
		<tag k="natural" v="hill" />
		<tag k="place" v="locality" />
		<tag k="ssr:stedsnr" v="956071" />
	</node>
	<node lat="63.6662722245494" lon="10.901930550448355" id="-31680">
		<tag k="name" v="Holmdalen" />
		<tag k="natural" v="valley" />
		<tag k="place" v="locality" />
		<tag k="ssr:stedsnr" v="956077" />
	</node>
	<node lat="63.56382499841457" lon="10.711941660846907" id="-31689">
		<tag k="name" v="Logsteinhaugen" />
		<tag k="natural" v="hill" />
		<tag k="place" v="locality" />
		<tag k="ssr:stedsnr" v="957642" />
	</node>
</osm>
