<?xml version="1.0" encoding="UTF-8"?>
<osm version="0.6" generator="osmapis">
	<node lat="63.60731944446427" lon="10.746847231247202" id="-86203">
		<tag k="name" v="Austli" />
		<tag k="place" v="locality" />
		<tag k="ssr:stedsnr" v="256907" />
	</node>
	<node lat="63.63433055971861" lon="10.916355558360983" id="-86240">
		<tag k="name" v="Setermyra" />
		<tag k="natural" v="wetland" />
		<tag k="ssr:stedsnr" v="411123" />
	</node>
	<node lat="63.661317367943575" lon="10.902155287508913" id="-86250">
		<tag k="name" v="Igltjønnmyra" />
		<tag k="natural" v="wetland" />
		<tag k="ssr:stedsnr" v="471067" />
	</node>
	<node lat="63.63869722219368" lon="10.917838879872326" id="-86286">
		<tag k="name" v="Høgmyran" />
		<tag k="natural" v="wetland" />
		<tag k="ssr:stedsnr" v="593105" />
	</node>
	<node lat="63.65258333516398" lon="10.886005560888385" id="-86287">
		<tag k="name" v="Bjønnbettet" />
		<tag k="natural" v="wetland" />
		<tag k="ssr:stedsnr" v="595152" />
	</node>
	<node lat="63.639784976177495" lon="10.87765083294356" id="-86292">
		<tag k="name" v="Krokmyra" />
		<tag k="natural" v="wetland" />
		<tag k="ssr:stedsnr" v="652146" />
	</node>
	<node lat="63.610027774415705" lon="10.865636108814398" id="-86295">
		<tag k="name" v="Kammyra" />
		<tag k="natural" v="wetland" />
		<tag k="ssr:stedsnr" v="654204" />
	</node>
	<node lat="63.611797223280135" lon="10.785025000008723" id="-86323">
		<tag k="name" v="Brekkmyra" />
		<tag k="natural" v="wetland" />
		<tag k="ssr:stedsnr" v="775271" />
	</node>
	<node lat="63.64375397895078" lon="10.904523804481778" id="-86342">
		<tag k="name" v="Fesetmyra" />
		<tag k="natural" v="wetland" />
		<tag k="ssr:stedsnr" v="835180" />
	</node>
	<node lat="63.57974722417044" lon="10.626424993346143" id="-86358">
		<tag k="name" v="Valen" />
		<tag k="place" v="locality" />
		<tag k="ssr:stedsnr" v="896013" />
	</node>
	<node lat="63.61555587304222" lon="10.878246258037999" id="-86437">
		<tag k="name" v="Spendmyra" />
		<tag k="place" v="locality" />
		<tag k="ssr:stedsnr" v="46141" />
	</node>
	<node lat="63.65701133693707" lon="10.90555861678521" id="-86439">
		<tag k="name" v="Krokvassmyra" />
		<tag k="natural" v="wetland" />
		<tag k="ssr:stedsnr" v="46057" />
	</node>
	<node lat="63.65462843417278" lon="10.887401560502138" id="-86488">
		<tag k="name" v="Rekbumyra" />
		<tag k="natural" v="wetland" />
		<tag k="ssr:stedsnr" v="167054" />
	</node>
	<node lat="63.61874528646091" lon="10.887050625184594" id="-86489">
		<tag k="name" v="Gjørismyra" />
		<tag k="natural" v="wetland" />
		<tag k="ssr:stedsnr" v="167149" />
	</node>
	<node lat="63.623739164633676" lon="10.849803778262443" id="-86491">
		<tag k="name" v="Hovdalsmyra" />
		<tag k="natural" v="wetland" />
		<tag k="ssr:stedsnr" v="167185" />
	</node>
	<node lat="63.6311607207405" lon="10.9002239642537" id="-86492">
		<tag k="name" v="Åsmyra" />
		<tag k="natural" v="wetland" />
		<tag k="ssr:stedsnr" v="167186" />
	</node>
	<node lat="63.58094923989662" lon="10.749303389006643" id="-86516">
		<tag k="name" v="Vikamyran" />
		<tag k="place" v="locality" />
		<tag k="ssr:stedsnr" v="228258" />
	</node>
	<node lat="63.62613272005136" lon="10.898472317534452" id="-86520">
		<tag k="name" v="Djupdalsmyra" />
		<tag k="natural" v="wetland" />
		<tag k="ssr:stedsnr" v="289161" />
	</node>
	<node lat="63.594819446749575" lon="10.79301111682006" id="-86562">
		<tag k="name" v="Stormyra" />
		<tag k="natural" v="wetland" />
		<tag k="ssr:stedsnr" v="377842" />
	</node>
	<node lat="63.62110478829212" lon="10.835234583109388" id="-86569">
		<tag k="name" v="Stormyra" />
		<tag k="natural" v="wetland" />
		<tag k="ssr:stedsnr" v="377955" />
	</node>
	<node lat="63.62369166707925" lon="10.849599995793005" id="-86570">
		<tag k="name" v="Fjøsmyra" />
		<tag k="natural" v="wetland" />
		<tag k="ssr:stedsnr" v="377965" />
	</node>
	<node lat="63.643533153678" lon="10.873708837284466" id="-86600">
		<tag k="name" v="Åtlomyra" />
		<tag k="natural" v="wetland" />
		<tag k="ssr:stedsnr" v="531079" />
	</node>
	<node lat="63.660569164946146" lon="10.910084548322294" id="-86601">
		<tag k="name" v="Storheimyra" />
		<tag k="natural" v="wetland" />
		<tag k="ssr:stedsnr" v="531055" />
	</node>
	<node lat="63.62318611103631" lon="10.890552776838891" id="-86607">
		<tag k="name" v="Lågkastmyra" />
		<tag k="natural" v="wetland" />
		<tag k="ssr:stedsnr" v="535170" />
	</node>
	<node lat="63.62445555118065" lon="10.80866388968999" id="-86648">
		<tag k="name" v="Ratvollmyra" />
		<tag k="natural" v="wetland" />
		<tag k="ssr:stedsnr" v="653190" />
	</node>
	<node lat="63.62833982693325" lon="10.862317184184555" id="-86698">
		<tag k="name" v="Vangsmyra" />
		<tag k="natural" v="wetland" />
		<tag k="ssr:stedsnr" v="835176" />
	</node>
	<node lat="63.62974444861237" lon="10.917858334562595" id="-86701">
		<tag k="name" v="Galstomyra" />
		<tag k="natural" v="wetland" />
		<tag k="ssr:stedsnr" v="836087" />
	</node>
	<node lat="63.605394975420836" lon="10.795595005402431" id="-86702">
		<tag k="name" v="Raudmyra" />
		<tag k="natural" v="wetland" />
		<tag k="ssr:stedsnr" v="836254" />
	</node>
	<node lat="63.642963947489804" lon="10.892598220812209" id="-86723">
		<tag k="name" v="Brattåsmyran" />
		<tag k="natural" v="wetland" />
		<tag k="ssr:stedsnr" v="956172" />
	</node>
	<node lat="63.61089444488838" lon="10.873600004444622" id="-86724">
		<tag k="name" v="Badstumyra" />
		<tag k="natural" v="wetland" />
		<tag k="ssr:stedsnr" v="957194" />
	</node>
</osm>
