<?xml version="1.0" encoding="UTF-8"?>
<osm generator="osmapis" version="0.6">
	<node id="-753591" lat="68.7488138887" lon="17.0941777775">
		<tag k="fixme" v="consider natural=peak for the most distinct mountains in the district" />
		<tag k="name" v="Møvikhamran" />
		<tag k="natural" v="hill" />
		<tag k="place" v="locality" />
		<tag k="ssr:stedsnr" v="960249" />
	</node>
	<node id="-753590" lat="68.7908694487" lon="17.1079749896">
		<tag k="name" v="Håmannsbakkan" />
		<tag k="natural" v="slope" />
		<tag k="place" v="locality" />
		<tag k="ssr:stedsnr" v="960284" />
	</node>
	<node id="-753589" lat="68.8555499998" lon="17.260663891">
		<tag k="fixme" v="consider natural=peak for the most distinct mountains in the district" />
		<tag k="name" v="Ressen" />
		<tag k="natural" v="hill" />
		<tag k="place" v="locality" />
		<tag k="ssr:stedsnr" v="959851" />
	</node>
	<node id="-753588" lat="68.9229722194" lon="17.3099694387">
		<tag k="name" v="Svinlihågen" />
		<tag k="natural" v="hill" />
		<tag k="place" v="locality" />
		<tag k="ssr:stedsnr" v="959847" />
	</node>
	<node id="-753587" lat="68.9211111106" lon="17.3234611177">
		<tag k="name" v="Storelvsletta" />
		<tag k="place" v="locality" />
		<tag k="ssr:stedsnr" v="959842" />
	</node>
	<node id="-753584" lat="68.8989750032" lon="17.2813638784">
		<tag k="name" v="Lalian" />
		<tag k="natural" v="slope" />
		<tag k="place" v="locality" />
		<tag k="ssr:stedsnr" v="959823" />
	</node>
	<node id="-753583" lat="68.9101000034" lon="17.216283326">
		<tag k="name" v="Raplia" />
		<tag k="natural" v="slope" />
		<tag k="place" v="locality" />
		<tag k="ssr:stedsnr" v="959811" />
	</node>
	<node id="-753582" lat="68.850219448" lon="17.407230547">
		<tag k="name" v="Ressegrava" />
		<tag k="natural" v="cave_entrance" />
		<tag k="ssr:stedsnr" v="959810" />
	</node>
	<node id="-753581" lat="68.8357305581" lon="17.3845000083">
		<tag k="name" v="Hamnhågen" />
		<tag k="natural" v="hill" />
		<tag k="place" v="locality" />
		<tag k="ssr:stedsnr" v="959808" />
	</node>
	<node id="-753580" lat="68.8503527778" lon="17.4336638806">
		<tag k="name" v="Gjerdeberget" />
		<tag k="natural" v="hill" />
		<tag k="place" v="locality" />
		<tag k="ssr:stedsnr" v="959804" />
	</node>
	<node id="-753579" lat="68.8441583334" lon="17.3940527829">
		<tag k="fixme" v="consider natural=peak for the most distinct mountains in the district" />
		<tag k="name" v="Lapphågkollen" />
		<tag k="natural" v="hill" />
		<tag k="place" v="locality" />
		<tag k="ssr:stedsnr" v="959801" />
	</node>
	<node id="-753577" lat="68.8869750015" lon="17.4288277863">
		<tag k="fixme" v="consider natural=peak for the most distinct mountains in the district" />
		<tag k="name" v="Viktind" />
		<tag k="natural" v="hill" />
		<tag k="ssr:stedsnr" v="959788" />
	</node>
	<node id="-753576" lat="68.8523111119" lon="17.4285833316">
		<tag k="name" v="Lia" />
		<tag k="natural" v="slope" />
		<tag k="place" v="locality" />
		<tag k="ssr:stedsnr" v="959770" />
	</node>
	<node id="-753574" lat="68.8608361107" lon="17.4592055476">
		<tag k="name" v="Ramneberget" />
		<tag k="natural" v="hill" />
		<tag k="place" v="locality" />
		<tag k="ssr:stedsnr" v="959731" />
	</node>
	<node id="-753573" lat="68.9126611091" lon="17.1301249912">
		<tag k="name" v="Huldrekjerka" />
		<tag k="natural" v="hill" />
		<tag k="place" v="locality" />
		<tag k="ssr:stedsnr" v="959640" />
	</node>
	<node id="-753572" lat="68.9093944423" lon="17.1367361068">
		<tag k="name" v="Mathågen" />
		<tag k="natural" v="hill" />
		<tag k="place" v="locality" />
		<tag k="ssr:stedsnr" v="959636" />
	</node>
	<node id="-753571" lat="68.8077111131" lon="17.297536099">
		<tag k="name" v="Litjeberget" />
		<tag k="natural" v="hill" />
		<tag k="place" v="locality" />
		<tag k="ssr:stedsnr" v="959632" />
	</node>
	<node id="-753568" lat="68.808244443" lon="17.2753194486">
		<tag k="name" v="Bjørnbåsen" />
		<tag k="natural" v="valley" />
		<tag k="place" v="locality" />
		<tag k="ssr:stedsnr" v="959608" />
	</node>
	<node id="-753567" lat="68.8035777791" lon="17.2699805584">
		<tag k="name" v="Kviteberget" />
		<tag k="natural" v="hill" />
		<tag k="place" v="locality" />
		<tag k="ssr:stedsnr" v="959603" />
	</node>
	<node id="-753566" lat="68.8324166636" lon="17.2191999892">
		<tag k="name" v="Snellhågen" />
		<tag k="natural" v="hill" />
		<tag k="place" v="locality" />
		<tag k="ssr:stedsnr" v="959585" />
	</node>
	<node id="-753564" lat="68.8346749981" lon="16.9905472298">
		<tag k="name" v="Mølnelvbrekka" />
		<tag k="natural" v="hill" />
		<tag k="place" v="locality" />
		<tag k="ssr:stedsnr" v="959432" />
	</node>
	<node id="-753560" lat="68.7777472247" lon="17.0182444502">
		<tag k="fixme" v="consider natural=peak for the most distinct mountains in the district" />
		<tag k="name" v="Fjellhøgda" />
		<tag k="natural" v="hill" />
		<tag k="place" v="locality" />
		<tag k="ssr:stedsnr" v="959380" />
	</node>
	<node id="-753559" lat="68.8008666709" lon="16.9951555553">
		<tag k="name" v="Bollahågen" />
		<tag k="natural" v="hill" />
		<tag k="place" v="locality" />
		<tag k="ssr:stedsnr" v="959353" />
	</node>
	<node id="-753558" lat="68.8329972213" lon="17.0552944383">
		<tag k="name" v="Kleivan" />
		<tag k="natural" v="slope" />
		<tag k="place" v="locality" />
		<tag k="ssr:stedsnr" v="959279" />
	</node>
	<node id="-753556" lat="68.9111916687" lon="17.3912194344">
		<tag k="name" v="Hankelia" />
		<tag k="natural" v="slope" />
		<tag k="place" v="locality" />
		<tag k="ssr:stedsnr" v="959175" />
	</node>
	<node id="-753553" lat="68.7471861081" lon="16.979641663">
		<tag k="name" v="Rundhågen" />
		<tag k="natural" v="hill" />
		<tag k="place" v="locality" />
		<tag k="ssr:stedsnr" v="959091" />
	</node>
	<node id="-753549" lat="68.8235999961" lon="17.2870916746">
		<tag k="alt_name" v="Mosan" />
		<tag k="fixme" v="consider natural=peak for the most distinct mountains in the district" />
		<tag k="name" v="Måsan" />
		<tag k="natural" v="hill" />
		<tag k="place" v="locality" />
		<tag k="ssr:stedsnr" v="868169" />
	</node>
	<node id="-753546" lat="68.885083334" lon="17.2700722326">
		<tag k="fixme" v="consider natural=peak for the most distinct mountains in the district" />
		<tag k="name" v="Aksla" />
		<tag k="natural" v="hill" />
		<tag k="place" v="locality" />
		<tag k="ssr:stedsnr" v="867285" />
	</node>
	<node id="-753544" lat="68.9117250015" lon="17.2865777822">
		<tag k="name" v="Trollhola" />
		<tag k="natural" v="valley" />
		<tag k="place" v="locality" />
		<tag k="ssr:stedsnr" v="867275" />
	</node>
	<node id="-753543" lat="68.8629027799" lon="17.1560444497">
		<tag k="name" v="Riven" />
		<tag k="natural" v="slope" />
		<tag k="place" v="locality" />
		<tag k="ssr:stedsnr" v="867270" />
	</node>
	<node id="-753542" lat="68.8572194416" lon="17.3547499897">
		<tag k="fixme" v="consider natural=peak for the most distinct mountains in the district" />
		<tag k="name" v="Rundtinden" />
		<tag k="natural" v="hill" />
		<tag k="ssr:stedsnr" v="867267" />
	</node>
	<node id="-753538" lat="68.8462138907" lon="17.3327083371">
		<tag k="fixme" v="consider natural=peak for the most distinct mountains in the district" />
		<tag k="name" v="Stortinden" />
		<tag k="natural" v="hill" />
		<tag k="place" v="locality" />
		<tag k="ssr:stedsnr" v="867238" />
	</node>
	<node id="-753537" lat="68.8018361149" lon="17.0094972269">
		<tag k="fixme" v="consider natural=peak for the most distinct mountains in the district" />
		<tag k="name" v="Brattåsen" />
		<tag k="natural" v="hill" />
		<tag k="place" v="locality" />
		<tag k="ssr:stedsnr" v="867230" />
	</node>
	<node id="-753532" lat="68.8507138902" lon="17.3558416704">
		<tag k="name" v="Svinliaksla" />
		<tag k="place" v="locality" />
		<tag k="ssr:stedsnr" v="839629" />
	</node>
	<node id="-753530" lat="68.7704111084" lon="17.1733055533">
		<tag k="name" v="Langholtet" />
		<tag k="natural" v="hill" />
		<tag k="place" v="locality" />
		<tag k="ssr:stedsnr" v="839336" />
	</node>
	<node id="-753529" lat="68.8387250042" lon="17.1921166612">
		<tag k="name" v="Gråberget" />
		<tag k="natural" v="hill" />
		<tag k="place" v="locality" />
		<tag k="ssr:stedsnr" v="839327" />
	</node>
	<node id="-753527" lat="68.7944138879" lon="17.1166388938">
		<tag k="name" v="Rødhågen" />
		<tag k="natural" v="hill" />
		<tag k="place" v="locality" />
		<tag k="ssr:stedsnr" v="839304" />
	</node>
	<node id="-753526" lat="68.7895250042" lon="17.1430083263">
		<tag k="name" v="Solidnakken" />
		<tag k="natural" v="hill" />
		<tag k="place" v="locality" />
		<tag k="ssr:stedsnr" v="839284" />
	</node>
	<node id="-753525" lat="68.7631277749" lon="17.0910444457">
		<tag k="fixme" v="consider natural=peak for the most distinct mountains in the district" />
		<tag k="name" v="Stoplan" />
		<tag k="natural" v="hill" />
		<tag k="place" v="locality" />
		<tag k="ssr:stedsnr" v="839277" />
	</node>
	<node id="-753523" lat="68.9216472222" lon="17.2991111088">
		<tag k="name" v="Hattebergan" />
		<tag k="natural" v="hill" />
		<tag k="place" v="locality" />
		<tag k="ssr:stedsnr" v="838873" />
	</node>
	<node id="-753519" lat="68.8413527748" lon="17.386844445">
		<tag k="name" v="Torvhågen" />
		<tag k="natural" v="hill" />
		<tag k="place" v="locality" />
		<tag k="ssr:stedsnr" v="838836" />
	</node>
	<node id="-753518" lat="68.8499138892" lon="17.3721333357">
		<tag k="name" v="Botnan" />
		<tag k="place" v="locality" />
		<tag k="ssr:stedsnr" v="838832" />
	</node>
	<node id="-753516" lat="68.8625083356" lon="17.4416360977">
		<tag k="name" v="Trollan" />
		<tag k="natural" v="hill" />
		<tag k="place" v="locality" />
		<tag k="ssr:stedsnr" v="838809" />
	</node>
	<node id="-753514" lat="68.8896694462" lon="17.1554666665">
		<tag k="name" v="Remmelbergan" />
		<tag k="natural" v="hill" />
		<tag k="place" v="locality" />
		<tag k="ssr:stedsnr" v="838768" />
	</node>
	<node id="-753513" lat="68.8000611073" lon="17.2631277661">
		<tag k="name" v="Kleivhågen" />
		<tag k="natural" v="hill" />
		<tag k="place" v="locality" />
		<tag k="ssr:stedsnr" v="838648" />
	</node>
	<node id="-753511" lat="68.8206416649" lon="17.0058388946">
		<tag k="name" v="Sætermarka" />
		<tag k="place" v="locality" />
		<tag k="ssr:stedsnr" v="838531" />
	</node>
	<node id="-753510" lat="68.8227694471" lon="17.0252388871">
		<tag k="fixme" v="consider natural=peak for the most distinct mountains in the district" />
		<tag k="name" v="Ytre Bollahøgda" />
		<tag k="natural" v="hill" />
		<tag k="place" v="locality" />
		<tag k="ssr:stedsnr" v="838528" />
	</node>
	<node id="-753509" lat="68.8278333304" lon="17.0121972094">
		<tag k="fixme" v="consider natural=peak for the most distinct mountains in the district" />
		<tag k="name" v="Tømmeråsen" />
		<tag k="natural" v="hill" />
		<tag k="place" v="locality" />
		<tag k="ssr:stedsnr" v="838526" />
	</node>
	<node id="-753506" lat="68.8359555509" lon="17.0135555645">
		<tag k="name" v="Finngammhågen" />
		<tag k="natural" v="hill" />
		<tag k="place" v="locality" />
		<tag k="ssr:stedsnr" v="838499" />
	</node>
	<node id="-753505" lat="68.8320166634" lon="16.9875527686">
		<tag k="name" v="Stordalen" />
		<tag k="natural" v="valley" />
		<tag k="place" v="locality" />
		<tag k="ssr:stedsnr" v="838497" />
	</node>
	<node id="-753504" lat="68.806383331" lon="17.0049722085">
		<tag k="name" v="Gamman" />
		<tag k="place" v="locality" />
		<tag k="ssr:stedsnr" v="838425" />
	</node>
	<node id="-753494" lat="68.8249777761" lon="17.2280861114">
		<tag k="alt_name" v="Kapphushøgda" />
		<tag k="name" v="Kappushøgda" />
		<tag k="natural" v="hill" />
		<tag k="place" v="locality" />
		<tag k="ssr:stedsnr" v="807209" />
	</node>
	<node id="-753490" lat="68.8273500031" lon="17.2670999899">
		<tag k="name" v="Kvanntobotn" />
		<tag k="natural" v="valley" />
		<tag k="place" v="locality" />
		<tag k="ssr:stedsnr" v="807185" />
	</node>
	<node id="-753489" lat="68.7716222267" lon="17.0709944348">
		<tag k="name" v="Stappedalen" />
		<tag k="natural" v="valley" />
		<tag k="place" v="locality" />
		<tag k="ssr:stedsnr" v="806951" />
	</node>
	<node id="-753488" lat="68.7859000017" lon="17.0541138916">
		<tag k="fixme" v="consider natural=peak for the most distinct mountains in the district" />
		<tag k="name" v="Drangen" />
		<tag k="natural" v="hill" />
		<tag k="place" v="locality" />
		<tag k="ssr:stedsnr" v="806942" />
	</node>
	<node id="-753487" lat="68.8824888843" lon="17.4338722242">
		<tag k="name" v="Kvalvikberget" />
		<tag k="natural" v="hill" />
		<tag k="place" v="locality" />
		<tag k="ssr:stedsnr" v="806869" />
	</node>
	<node id="-753486" lat="68.9033555555" lon="17.1427916726">
		<tag k="name" v="Nonskarhågen" />
		<tag k="natural" v="hill" />
		<tag k="place" v="locality" />
		<tag k="ssr:stedsnr" v="806248" />
	</node>
	<node id="-753483" lat="68.9133777802" lon="17.2406444368">
		<tag k="fixme" v="consider natural=peak for the most distinct mountains in the district" />
		<tag k="name" v="Kvitfjellet" />
		<tag k="natural" v="hill" />
		<tag k="place" v="locality" />
		<tag k="ssr:stedsnr" v="806127" />
	</node>
	<node id="-753481" lat="68.8929027734" lon="17.2256638901">
		<tag k="name" v="Gammesletta" />
		<tag k="place" v="locality" />
		<tag k="ssr:stedsnr" v="778559" />
	</node>
	<node id="-753480" lat="68.7489527779" lon="17.0557305495">
		<tag k="fixme" v="consider natural=peak for the most distinct mountains in the district" />
		<tag k="name" v="Bjørntoppen" />
		<tag k="natural" v="hill" />
		<tag k="place" v="locality" />
		<tag k="ssr:stedsnr" v="778273" />
	</node>
	<node id="-753479" lat="68.7538249977" lon="17.0923472125">
		<tag k="name" v="Langebakkan" />
		<tag k="natural" v="slope" />
		<tag k="place" v="locality" />
		<tag k="ssr:stedsnr" v="778271" />
	</node>
	<node id="-753477" lat="68.9272416632" lon="17.2346111127">
		<tag k="name" v="Fjellbrunbergan" />
		<tag k="natural" v="hill" />
		<tag k="place" v="locality" />
		<tag k="ssr:stedsnr" v="777827" />
	</node>
	<node id="-753476" lat="68.9274833318" lon="17.2652805577">
		<tag k="name" v="Jenseberget" />
		<tag k="natural" v="hill" />
		<tag k="place" v="locality" />
		<tag k="ssr:stedsnr" v="777826" />
	</node>
	<node id="-753475" lat="68.9216361144" lon="17.342063879">
		<tag k="name" v="Bestefardalen" />
		<tag k="natural" v="valley" />
		<tag k="place" v="locality" />
		<tag k="ssr:stedsnr" v="777810" />
	</node>
	<node id="-753471" lat="68.8461416695" lon="17.3998055428">
		<tag k="fixme" v="consider natural=peak for the most distinct mountains in the district" />
		<tag k="name" v="Storhågkollen" />
		<tag k="natural" v="hill" />
		<tag k="place" v="locality" />
		<tag k="ssr:stedsnr" v="777789" />
	</node>
	<node id="-753470" lat="68.8508805578" lon="17.3646333356">
		<tag k="name" v="Svinlia" />
		<tag k="natural" v="slope" />
		<tag k="place" v="locality" />
		<tag k="ssr:stedsnr" v="777785" />
	</node>
	<node id="-753468" lat="68.84263333" lon="17.3818388945">
		<tag k="name" v="Seljelihågen" />
		<tag k="natural" v="hill" />
		<tag k="place" v="locality" />
		<tag k="ssr:stedsnr" v="777781" />
	</node>
	<node id="-753466" lat="68.7973138851" lon="17.2292555526">
		<tag k="name" v="Aspeliskaret" />
		<tag k="natural" v="valley" />
		<tag k="place" v="locality" />
		<tag k="ssr:stedsnr" v="777631" />
	</node>
	<node id="-753465" lat="68.8382472208" lon="17.2020277671">
		<tag k="name" v="Bjørnhammaren" />
		<tag k="natural" v="hill" />
		<tag k="place" v="locality" />
		<tag k="ssr:stedsnr" v="777609" />
	</node>
	<node id="-753464" lat="68.8788194483" lon="17.1406777675">
		<tag k="name" v="Tyttebærholtan" />
		<tag k="natural" v="slope" />
		<tag k="place" v="locality" />
		<tag k="ssr:stedsnr" v="777732" />
	</node>
	<node id="-753463" lat="68.9235694454" lon="17.1180888842">
		<tag k="name" v="Skiphågen" />
		<tag k="natural" v="hill" />
		<tag k="place" v="locality" />
		<tag k="ssr:stedsnr" v="777719" />
	</node>
	<node id="-753462" lat="68.7908138868" lon="17.0015638822">
		<tag k="fixme" v="consider natural=peak for the most distinct mountains in the district" />
		<tag k="name" v="Steinsåsen" />
		<tag k="natural" v="hill" />
		<tag k="place" v="locality" />
		<tag k="ssr:stedsnr" v="777398" />
	</node>
	<node id="-753459" lat="68.828427776" lon="17.0797666714">
		<tag k="name" v="Bukkhågen" />
		<tag k="natural" v="hill" />
		<tag k="place" v="locality" />
		<tag k="ssr:stedsnr" v="777330" />
	</node>
	<node id="-753456" lat="68.8516472211" lon="17.0114499896">
		<tag k="name" v="Asphågen" />
		<tag k="natural" v="hill" />
		<tag k="place" v="locality" />
		<tag k="ssr:stedsnr" v="777464" />
	</node>
	<node id="-753455" lat="68.752900003" lon="17.1163305675">
		<tag k="name" v="Blomlia" />
		<tag k="natural" v="slope" />
		<tag k="place" v="locality" />
		<tag k="ssr:stedsnr" v="777251" />
	</node>
	<node id="-753454" lat="68.7548249979" lon="17.1224277644">
		<tag k="name" v="Vadsletta" />
		<tag k="place" v="locality" />
		<tag k="ssr:stedsnr" v="777238" />
	</node>
	<node id="-753450" lat="68.7292888868" lon="16.8642805525">
		<tag k="name" v="Klubben" />
		<tag k="natural" v="hill" />
		<tag k="place" v="locality" />
		<tag k="ssr:stedsnr" v="777045" />
	</node>
	<node id="-753442" lat="68.7614611158" lon="16.8582694332">
		<tag k="name" v="Omnen" />
		<tag k="place" v="locality" />
		<tag k="ssr:stedsnr" v="749462" />
	</node>
	<node id="-753438" lat="68.8864694426" lon="17.4597138832">
		<tag k="name" v="Danielberget" />
		<tag k="natural" v="hill" />
		<tag k="place" v="locality" />
		<tag k="ssr:stedsnr" v="745876" />
	</node>
	<node id="-753436" lat="68.8183027796" lon="17.1809694311">
		<tag k="alt_name" v="Ytterkleiva" />
		<tag k="name" v="Ytterkleiv" />
		<tag k="natural" v="hill" />
		<tag k="place" v="locality" />
		<tag k="ssr:stedsnr" v="636843" />
	</node>
	<node id="-753432" lat="68.8237194416" lon="17.3538722155">
		<tag k="alt_name" v="Prestberget" />
		<tag k="name" v="Pesseberget" />
		<tag k="natural" v="hill" />
		<tag k="place" v="locality" />
		<tag k="ssr:stedsnr" v="635985" />
	</node>
	<node id="-753427" lat="68.7596611146" lon="17.0242499888">
		<tag k="name" v="Sulvassheia" />
		<tag k="natural" v="plateau" />
		<tag k="ssr:stedsnr" v="624988" />
	</node>
	<node id="-753423" lat="68.7797583292" lon="17.1426138865">
		<tag k="name" v="Skrinndalen" />
		<tag k="natural" v="valley" />
		<tag k="place" v="locality" />
		<tag k="ssr:stedsnr" v="624935" />
	</node>
	<node id="-753421" lat="68.886563885" lon="17.1520138912">
		<tag k="fixme" v="consider natural=peak for the most distinct mountains in the district" />
		<tag k="name" v="Middagstinden" />
		<tag k="natural" v="hill" />
		<tag k="place" v="locality" />
		<tag k="ssr:stedsnr" v="624250" />
	</node>
	<node id="-753419" lat="68.8527972207" lon="17.2726666748">
		<tag k="name" v="Skreddalen" />
		<tag k="natural" v="valley" />
		<tag k="place" v="locality" />
		<tag k="ssr:stedsnr" v="624236" />
	</node>
	<node id="-753416" lat="68.8851527759" lon="17.2641583261">
		<tag k="fixme" v="consider natural=peak for the most distinct mountains in the district" />
		<tag k="name" v="Tindaksla" />
		<tag k="natural" v="hill" />
		<tag k="place" v="locality" />
		<tag k="ssr:stedsnr" v="595891" />
	</node>
	<node id="-753414" lat="68.8888722203" lon="17.3329194488">
		<tag k="name" v="Knofsen" />
		<tag k="natural" v="hill" />
		<tag k="place" v="locality" />
		<tag k="ssr:stedsnr" v="595860" />
	</node>
	<node id="-753411" lat="68.8390444421" lon="17.390841672">
		<tag k="name" v="Ørnreirberget" />
		<tag k="natural" v="hill" />
		<tag k="place" v="locality" />
		<tag k="ssr:stedsnr" v="595770" />
	</node>
	<node id="-753409" lat="68.8596527737" lon="17.4516888833">
		<tag k="name" v="Moan" />
		<tag k="place" v="locality" />
		<tag k="ssr:stedsnr" v="595765" />
	</node>
	<node id="-753407" lat="68.9130305576" lon="17.3810250051">
		<tag k="name" v="Rabben" />
		<tag k="place" v="locality" />
		<tag k="ssr:stedsnr" v="595735" />
	</node>
	<node id="-753405" lat="68.8813305551" lon="17.1377833272">
		<tag k="name" v="Hatthammaren" />
		<tag k="natural" v="hill" />
		<tag k="place" v="locality" />
		<tag k="ssr:stedsnr" v="595726" />
	</node>
	<node id="-753404" lat="68.8782166637" lon="17.1597999982">
		<tag k="name" v="Lattdalen" />
		<tag k="natural" v="valley" />
		<tag k="place" v="locality" />
		<tag k="ssr:stedsnr" v="595719" />
	</node>
	<node id="-753400" lat="68.8692416689" lon="17.1549972276">
		<tag k="name" v="Pesseberget" />
		<tag k="natural" v="hill" />
		<tag k="place" v="locality" />
		<tag k="ssr:stedsnr" v="595670" />
	</node>
	<node id="-753397" lat="68.8373388921" lon="17.2015388771">
		<tag k="name" v="Nilslian" />
		<tag k="natural" v="slope" />
		<tag k="place" v="locality" />
		<tag k="ssr:stedsnr" v="595590" />
	</node>
	<node id="-753396" lat="68.8118166634" lon="17.3150777753">
		<tag k="name" v="Storrødberget" />
		<tag k="natural" v="hill" />
		<tag k="place" v="locality" />
		<tag k="ssr:stedsnr" v="595557" />
	</node>
	<node id="-753394" lat="68.8326555557" lon="17.0094805619">
		<tag k="name" v="Tortenbergan" />
		<tag k="natural" v="hill" />
		<tag k="place" v="locality" />
		<tag k="ssr:stedsnr" v="595461" />
	</node>
	<node id="-753393" lat="68.8342805571" lon="17.0011611044">
		<tag k="fixme" v="consider natural=peak for the most distinct mountains in the district" />
		<tag k="name" v="Høgda" />
		<tag k="natural" v="hill" />
		<tag k="place" v="locality" />
		<tag k="ssr:stedsnr" v="595458" />
	</node>
	<node id="-753392" lat="68.7760999984" lon="16.9614611075">
		<tag k="fixme" v="consider natural=peak for the most distinct mountains in the district" />
		<tag k="name" v="Brattebergtuva" />
		<tag k="natural" v="hill" />
		<tag k="place" v="locality" />
		<tag k="ssr:stedsnr" v="595425" />
	</node>
	<node id="-753391" lat="68.7824833313" lon="17.0009861046">
		<tag k="name" v="Sandvass-skogen" />
		<tag k="place" v="locality" />
		<tag k="ssr:stedsnr" v="595421" />
	</node>
	<node id="-753389" lat="68.8145111099" lon="17.0525166642">
		<tag k="fixme" v="consider natural=peak for the most distinct mountains in the district" />
		<tag k="name" v="Kvitfløyet" />
		<tag k="natural" v="hill" />
		<tag k="place" v="locality" />
		<tag k="ssr:stedsnr" v="595311" />
	</node>
	<node id="-753388" lat="68.8459000017" lon="17.1805527782">
		<tag k="name" v="Hamran" />
		<tag k="natural" v="hill" />
		<tag k="place" v="locality" />
		<tag k="ssr:stedsnr" v="595279" />
	</node>
	<node id="-753386" lat="68.7516638921" lon="17.0835611015">
		<tag k="name" v="Klubben" />
		<tag k="natural" v="hill" />
		<tag k="place" v="locality" />
		<tag k="ssr:stedsnr" v="595241" />
	</node>
	<node id="-753385" lat="68.7628194428" lon="17.1239055496">
		<tag k="fixme" v="consider natural=peak for the most distinct mountains in the district" />
		<tag k="name" v="Høgda" />
		<tag k="natural" v="hill" />
		<tag k="place" v="locality" />
		<tag k="ssr:stedsnr" v="595235" />
	</node>
	<node id="-753384" lat="68.9064472255" lon="17.3985277788">
		<tag k="name" v="Årboslian" />
		<tag k="natural" v="slope" />
		<tag k="place" v="locality" />
		<tag k="ssr:stedsnr" v="595178" />
	</node>
	<node id="-753382" lat="68.7483527814" lon="16.9894639001">
		<tag k="name" v="Kolmysletta" />
		<tag k="place" v="locality" />
		<tag k="ssr:stedsnr" v="595078" />
	</node>
	<node id="-753381" lat="68.753958337" lon="17.0163861003">
		<tag k="name" v="Heiberget" />
		<tag k="natural" v="hill" />
		<tag k="place" v="locality" />
		<tag k="ssr:stedsnr" v="595071" />
	</node>
	<node id="-753380" lat="68.7635611089" lon="17.0092611185">
		<tag k="name" v="Storhågen" />
		<tag k="natural" v="hill" />
		<tag k="place" v="locality" />
		<tag k="ssr:stedsnr" v="595062" />
	</node>
	<node id="-753379" lat="68.7283999983" lon="16.8760277701">
		<tag k="fixme" v="consider natural=peak for the most distinct mountains in the district" />
		<tag k="name" v="Blåmannen" />
		<tag k="natural" v="hill" />
		<tag k="ssr:stedsnr" v="595039" />
	</node>
	<node id="-753377" lat="68.9225333288" lon="17.2818500055">
		<tag k="name" v="Durmålshågen" />
		<tag k="natural" v="hill" />
		<tag k="place" v="locality" />
		<tag k="ssr:stedsnr" v="594813" />
	</node>
	<node id="-753372" lat="68.7318055561" lon="16.9166416704">
		<tag k="name" v="Liberget" />
		<tag k="natural" v="hill" />
		<tag k="place" v="locality" />
		<tag k="ssr:stedsnr" v="567009" />
	</node>
	<node id="-753371" lat="68.8200388876" lon="17.2669249956">
		<tag k="fixme" v="consider natural=peak for the most distinct mountains in the district" />
		<tag k="name" v="Stakken" />
		<tag k="natural" v="hill" />
		<tag k="place" v="locality" />
		<tag k="ssr:stedsnr" v="564180" />
	</node>
	<node id="-753369" lat="68.7513277789" lon="16.8810972246">
		<tag k="name" v="Tjelden" />
		<tag k="natural" v="hill" />
		<tag k="place" v="locality" />
		<tag k="ssr:stedsnr" v="563997" />
	</node>
	<node id="-753366" lat="68.7980000012" lon="17.2617555605">
		<tag k="name" v="Vindhammaren" />
		<tag k="natural" v="hill" />
		<tag k="place" v="locality" />
		<tag k="ssr:stedsnr" v="563971" />
	</node>
	<node id="-753363" lat="68.768105557" lon="17.0589805617">
		<tag k="fixme" v="consider natural=peak for the most distinct mountains in the district" />
		<tag k="name" v="Sula" />
		<tag k="natural" v="hill" />
		<tag k="place" v="locality" />
		<tag k="ssr:stedsnr" v="563960" />
	</node>
	<node id="-753362" lat="68.7455083294" lon="16.9003611178">
		<tag k="fixme" v="consider natural=peak for the most distinct mountains in the district" />
		<tag k="name" v="Lasselitinden" />
		<tag k="natural" v="hill" />
		<tag k="place" v="locality" />
		<tag k="ssr:stedsnr" v="563925" />
	</node>
	<node id="-753358" lat="68.7584444426" lon="16.8644638849">
		<tag k="fixme" v="consider natural=peak for the most distinct mountains in the district" />
		<tag k="name" v="Kvithamran" />
		<tag k="natural" v="hill" />
		<tag k="place" v="locality" />
		<tag k="ssr:stedsnr" v="655016" />
	</node>
	<node id="-753356" lat="68.8775861149" lon="17.3360444343">
		<tag k="fixme" v="consider natural=peak for the most distinct mountains in the district" />
		<tag k="name" v="Skartinden" />
		<tag k="natural" v="hill" />
		<tag k="place" v="locality" />
		<tag k="ssr:stedsnr" v="563252" />
	</node>
	<node id="-753354" lat="68.8957083351" lon="17.1291249887">
		<tag k="name" v="Gongskardalen" />
		<tag k="natural" v="valley" />
		<tag k="place" v="locality" />
		<tag k="ssr:stedsnr" v="563242" />
	</node>
	<node id="-753353" lat="68.856597221" lon="17.2570444536">
		<tag k="name" v="Risen" />
		<tag k="natural" v="slope" />
		<tag k="place" v="locality" />
		<tag k="ssr:stedsnr" v="563233" />
	</node>
	<node id="-753348" lat="68.84739167" lon="17.2131222115">
		<tag k="fixme" v="consider natural=peak for the most distinct mountains in the district" />
		<tag k="name" v="Åtinden" />
		<tag k="natural" v="hill" />
		<tag k="place" v="locality" />
		<tag k="ssr:stedsnr" v="563209" />
	</node>
	<node id="-753344" lat="68.8857416649" lon="17.3315944349">
		<tag k="name" v="Skaret" />
		<tag k="natural" v="valley" />
		<tag k="place" v="locality" />
		<tag k="ssr:stedsnr" v="535862" />
	</node>
	<node id="-753343" lat="68.8932999954" lon="17.410722227">
		<tag k="name" v="Hestelia" />
		<tag k="natural" v="slope" />
		<tag k="place" v="locality" />
		<tag k="ssr:stedsnr" v="535749" />
	</node>
	<node id="-753342" lat="68.8184833321" lon="17.0534055422">
		<tag k="name" v="Ørnreiret" />
		<tag k="natural" v="hill" />
		<tag k="place" v="locality" />
		<tag k="ssr:stedsnr" v="535722" />
	</node>
	<node id="-753341" lat="68.8856277803" lon="17.1669944411">
		<tag k="name" v="Bjørndalen" />
		<tag k="natural" v="valley" />
		<tag k="place" v="locality" />
		<tag k="ssr:stedsnr" v="535709" />
	</node>
	<node id="-753339" lat="68.9236527792" lon="17.3560416545">
		<tag k="name" v="Bratteberget" />
		<tag k="natural" v="hill" />
		<tag k="place" v="locality" />
		<tag k="ssr:stedsnr" v="535829" />
	</node>
	<node id="-753338" lat="68.8302138855" lon="16.9952361193">
		<tag k="fixme" v="consider natural=peak for the most distinct mountains in the district" />
		<tag k="name" v="Nonsåsen" />
		<tag k="natural" v="hill" />
		<tag k="place" v="locality" />
		<tag k="ssr:stedsnr" v="535477" />
	</node>
	<node id="-753336" lat="68.7790972228" lon="17.1536944504">
		<tag k="name" v="Gardsvikdalen" />
		<tag k="natural" v="valley" />
		<tag k="place" v="locality" />
		<tag k="ssr:stedsnr" v="535349" />
	</node>
	<node id="-753333" lat="68.8396944486" lon="17.1913916595">
		<tag k="name" v="Langeberget" />
		<tag k="natural" v="hill" />
		<tag k="place" v="locality" />
		<tag k="ssr:stedsnr" v="535318" />
	</node>
	<node id="-753332" lat="68.800299997" lon="17.0855388904">
		<tag k="fixme" v="consider natural=peak for the most distinct mountains in the district" />
		<tag k="name" v="Høgda" />
		<tag k="natural" v="hill" />
		<tag k="place" v="locality" />
		<tag k="ssr:stedsnr" v="535310" />
	</node>
	<node id="-753331" lat="68.7507055576" lon="17.1037555512">
		<tag k="name" v="Moan" />
		<tag k="natural" v="slope" />
		<tag k="place" v="locality" />
		<tag k="ssr:stedsnr" v="535267" />
	</node>
	<node id="-753328" lat="68.8391083349" lon="17.0201222318">
		<tag k="fixme" v="consider natural=peak for the most distinct mountains in the district" />
		<tag k="name" v="Slåttåsen" />
		<tag k="natural" v="hill" />
		<tag k="place" v="locality" />
		<tag k="ssr:stedsnr" v="535460" />
	</node>
	<node id="-753327" lat="68.7769194456" lon="16.9331055642">
		<tag k="name" v="Vårbergan" />
		<tag k="natural" v="hill" />
		<tag k="place" v="locality" />
		<tag k="ssr:stedsnr" v="535440" />
	</node>
	<node id="-753326" lat="68.8695138848" lon="17.3067555469">
		<tag k="name" v="Kvantolian" />
		<tag k="natural" v="slope" />
		<tag k="place" v="locality" />
		<tag k="ssr:stedsnr" v="534864" />
	</node>
	<node id="-753325" lat="68.8611638924" lon="17.2146222208">
		<tag k="name" v="Blekkhuset" />
		<tag k="natural" v="hill" />
		<tag k="place" v="locality" />
		<tag k="ssr:stedsnr" v="534855" />
	</node>
	<node id="-753322" lat="68.8843416677" lon="17.1558694408">
		<tag k="name" v="Middagsheia" />
		<tag k="natural" v="hill" />
		<tag k="place" v="locality" />
		<tag k="ssr:stedsnr" v="534748" />
	</node>
	<node id="-753321" lat="68.8584750046" lon="17.1705527733">
		<tag k="name" v="Stormoen" />
		<tag k="place" v="locality" />
		<tag k="ssr:stedsnr" v="534700" />
	</node>
	<node id="-753320" lat="68.9044722243" lon="17.1103805554">
		<tag k="name" v="Fløybergan" />
		<tag k="natural" v="hill" />
		<tag k="place" v="locality" />
		<tag k="ssr:stedsnr" v="534675" />
	</node>
	<node id="-753319" lat="68.9090555588" lon="17.1104944347">
		<tag k="name" v="Kleksebergan" />
		<tag k="natural" v="hill" />
		<tag k="place" v="locality" />
		<tag k="ssr:stedsnr" v="534672" />
	</node>
	<node id="-753318" lat="68.9227500025" lon="17.2158083369">
		<tag k="name" v="Himmelberget" />
		<tag k="natural" v="hill" />
		<tag k="place" v="locality" />
		<tag k="ssr:stedsnr" v="534838" />
	</node>
	<node id="-753312" lat="68.8075555574" lon="17.2832111211">
		<tag k="fixme" v="consider natural=peak for the most distinct mountains in the district" />
		<tag k="name" v="Sæterfjellet" />
		<tag k="natural" v="hill" />
		<tag k="place" v="locality" />
		<tag k="ssr:stedsnr" v="534662" />
	</node>
	<node id="-753311" lat="68.7703055558" lon="17.0164805595">
		<tag k="name" v="Skavbakkan" />
		<tag k="natural" v="slope" />
		<tag k="place" v="locality" />
		<tag k="ssr:stedsnr" v="534434" />
	</node>
	<node id="-753308" lat="68.7433527809" lon="17.0087500057">
		<tag k="name" v="Holtet" />
		<tag k="place" v="locality" />
		<tag k="ssr:stedsnr" v="534123" />
	</node>
	<node id="-753306" lat="68.7321111076" lon="16.9116999864">
		<tag k="name" v="Oldra" />
		<tag k="natural" v="hill" />
		<tag k="place" v="locality" />
		<tag k="ssr:stedsnr" v="534105" />
	</node>
	<node id="-753303" lat="68.7493611075" lon="16.9708305572">
		<tag k="fixme" v="consider natural=peak for the most distinct mountains in the district" />
		<tag k="name" v="Brattåsen" />
		<tag k="natural" v="hill" />
		<tag k="place" v="locality" />
		<tag k="ssr:stedsnr" v="534065" />
	</node>
	<node id="-753302" lat="68.9283611132" lon="17.2620805511">
		<tag k="name" v="Sørenberget" />
		<tag k="natural" v="hill" />
		<tag k="place" v="locality" />
		<tag k="ssr:stedsnr" v="413870" />
	</node>
	<node id="-753301" lat="68.9297999993" lon="17.2434972238">
		<tag k="name" v="Korkesletta" />
		<tag k="place" v="locality" />
		<tag k="ssr:stedsnr" v="413868" />
	</node>
	<node id="-753300" lat="68.9214138911" lon="17.3361083366">
		<tag k="name" v="Hakkestadrabben" />
		<tag k="place" v="locality" />
		<tag k="ssr:stedsnr" v="413854" />
	</node>
	<node id="-753299" lat="68.9257361082" lon="17.2131166628">
		<tag k="name" v="Ytterskarven" />
		<tag k="natural" v="hill" />
		<tag k="place" v="locality" />
		<tag k="ssr:stedsnr" v="413853" />
	</node>
	<node id="-753297" lat="68.8968666679" lon="17.3245250018">
		<tag k="name" v="Langkråkilen" />
		<tag k="natural" v="valley" />
		<tag k="place" v="locality" />
		<tag k="ssr:stedsnr" v="413837" />
	</node>
	<node id="-753293" lat="68.8477944458" lon="17.411116669">
		<tag k="name" v="Bjørnhøgda" />
		<tag k="natural" v="hill" />
		<tag k="place" v="locality" />
		<tag k="ssr:stedsnr" v="413813" />
	</node>
	<node id="-753291" lat="68.8807333368" lon="17.4411333386">
		<tag k="fixme" v="consider natural=peak for the most distinct mountains in the district" />
		<tag k="name" v="Kvalvikfjellet" />
		<tag k="natural" v="hill" />
		<tag k="place" v="locality" />
		<tag k="ssr:stedsnr" v="413780" />
	</node>
	<node id="-753290" lat="68.881827779" lon="17.1546277654">
		<tag k="name" v="Bjørnlian" />
		<tag k="natural" v="slope" />
		<tag k="place" v="locality" />
		<tag k="ssr:stedsnr" v="413757" />
	</node>
	<node id="-753289" lat="68.8262611093" lon="17.1956750023">
		<tag k="fixme" v="consider natural=peak for the most distinct mountains in the district" />
		<tag k="name" v="Brekka" />
		<tag k="natural" v="hill" />
		<tag k="place" v="locality" />
		<tag k="ssr:stedsnr" v="413744" />
	</node>
	<node id="-753288" lat="68.8239277766" lon="17.1943027779">
		<tag k="fixme" v="consider natural=peak for the most distinct mountains in the district" />
		<tag k="name" v="Åsen" />
		<tag k="natural" v="hill" />
		<tag k="place" v="locality" />
		<tag k="ssr:stedsnr" v="413743" />
	</node>
	<node id="-753287" lat="68.9181722201" lon="17.1308305488">
		<tag k="name" v="Nappholtet" />
		<tag k="natural" v="hill" />
		<tag k="place" v="locality" />
		<tag k="ssr:stedsnr" v="413731" />
	</node>
	<node id="-753285" lat="68.8677611089" lon="17.1656694399">
		<tag k="name" v="Kråkskaret" />
		<tag k="natural" v="valley" />
		<tag k="place" v="locality" />
		<tag k="ssr:stedsnr" v="413712" />
	</node>
	<node id="-753284" lat="68.900211114" lon="17.108802789">
		<tag k="name" v="Bjørnliflaten" />
		<tag k="place" v="locality" />
		<tag k="ssr:stedsnr" v="413693" />
	</node>
	<node id="-753282" lat="68.79590278" lon="17.242352775">
		<tag k="name" v="Seglsteinberget" />
		<tag k="natural" v="hill" />
		<tag k="place" v="locality" />
		<tag k="ssr:stedsnr" v="413671" />
	</node>
	<node id="-753279" lat="68.800586109" lon="17.2302555555">
		<tag k="name" v="Donsan" />
		<tag k="place" v="locality" />
		<tag k="ssr:stedsnr" v="413647" />
	</node>
	<node id="-753275" lat="68.8168861106" lon="17.0219972326">
		<tag k="name" v="Fridalshågen" />
		<tag k="natural" v="hill" />
		<tag k="place" v="locality" />
		<tag k="ssr:stedsnr" v="413478" />
	</node>
	<node id="-753274" lat="68.7780222231" lon="16.964380551">
		<tag k="fixme" v="consider natural=peak for the most distinct mountains in the district" />
		<tag k="name" v="Brattebergan" />
		<tag k="natural" v="hill" />
		<tag k="place" v="locality" />
		<tag k="ssr:stedsnr" v="413458" />
	</node>
	<node id="-753273" lat="68.796888885" lon="16.9983416697">
		<tag k="name" v="Dyrstadhågen" />
		<tag k="natural" v="hill" />
		<tag k="place" v="locality" />
		<tag k="ssr:stedsnr" v="413431" />
	</node>
	<node id="-753271" lat="68.817347223" lon="17.0606666568">
		<tag k="name" v="Dyrstad-Storhågen" />
		<tag k="natural" v="hill" />
		<tag k="place" v="locality" />
		<tag k="ssr:stedsnr" v="413358" />
	</node>
	<node id="-753269" lat="68.7775611084" lon="17.1094638976">
		<tag k="name" v="Seljebakkan" />
		<tag k="natural" v="slope" />
		<tag k="place" v="locality" />
		<tag k="ssr:stedsnr" v="413294" />
	</node>
	<node id="-753268" lat="68.7894666628" lon="17.1637444422">
		<tag k="name" v="Årsandskogen" />
		<tag k="place" v="locality" />
		<tag k="ssr:stedsnr" v="413293" />
	</node>
	<node id="-753267" lat="68.7445194463" lon="16.9874416577">
		<tag k="name" v="Lian" />
		<tag k="natural" v="slope" />
		<tag k="place" v="locality" />
		<tag k="ssr:stedsnr" v="413135" />
	</node>
	<node id="-753266" lat="68.7439583304" lon="17.0045777722">
		<tag k="name" v="Skjelldalen" />
		<tag k="natural" v="valley" />
		<tag k="place" v="locality" />
		<tag k="ssr:stedsnr" v="413133" />
	</node>
	<node id="-753265" lat="68.7447749993" lon="17.0082861147">
		<tag k="name" v="Hella" />
		<tag k="place" v="locality" />
		<tag k="ssr:stedsnr" v="413129" />
	</node>
	<node id="-753264" lat="68.7917833363" lon="16.9255500081">
		<tag k="name" v="Kastebergan" />
		<tag k="natural" v="hill" />
		<tag k="place" v="locality" />
		<tag k="ssr:stedsnr" v="413127" />
	</node>
	<node id="-753262" lat="68.7460555596" lon="16.9987805592">
		<tag k="name" v="Skjelldalen" />
		<tag k="natural" v="valley" />
		<tag k="place" v="locality" />
		<tag k="ssr:stedsnr" v="413097" />
	</node>
	<node id="-753261" lat="68.7527055527" lon="16.9916333225">
		<tag k="fixme" v="consider natural=peak for the most distinct mountains in the district" />
		<tag k="name" v="Litjevassheia" />
		<tag k="natural" v="hill" />
		<tag k="place" v="locality" />
		<tag k="ssr:stedsnr" v="413066" />
	</node>
	<node id="-753260" lat="68.7424166641" lon="16.8539694402">
		<tag k="name" v="Lynghågen" />
		<tag k="natural" v="hill" />
		<tag k="place" v="locality" />
		<tag k="ssr:stedsnr" v="413024" />
	</node>
	<node id="-753255" lat="68.7438583288" lon="16.9281111136">
		<tag k="name" v="Heimerdalen" />
		<tag k="natural" v="valley" />
		<tag k="place" v="locality" />
		<tag k="ssr:stedsnr" v="385030" />
	</node>
	<node id="-753254" lat="68.7273666709" lon="16.873891656">
		<tag k="name" v="Skreda" />
		<tag k="natural" v="slope" />
		<tag k="place" v="locality" />
		<tag k="ssr:stedsnr" v="385003" />
	</node>
	<node id="-753251" lat="68.8579055588" lon="17.3082111189">
		<tag k="alt_name" v="Staumbotn" />
		<tag k="name" v="Straumbotn" />
		<tag k="natural" v="valley" />
		<tag k="place" v="locality" />
		<tag k="ssr:stedsnr" v="382220" />
	</node>
	<node id="-753248" lat="68.7675027817" lon="16.8851861111">
		<tag k="fixme" v="consider natural=peak for the most distinct mountains in the district" />
		<tag k="name" v="Hallen" />
		<tag k="natural" v="hill" />
		<tag k="place" v="locality" />
		<tag k="ssr:stedsnr" v="381988" />
	</node>
	<node id="-753246" lat="68.792322224" lon="17.0367166602">
		<tag k="fixme" v="consider natural=peak for the most distinct mountains in the district" />
		<tag k="name" v="Stortinden" />
		<tag k="natural" v="hill" />
		<tag k="place" v="locality" />
		<tag k="ssr:stedsnr" v="381965" />
	</node>
	<node id="-753240" lat="68.9122055558" lon="17.2738833271">
		<tag k="fixme" v="consider natural=peak for the most distinct mountains in the district" />
		<tag k="name" v="Klåptinden" />
		<tag k="natural" v="hill" />
		<tag k="place" v="locality" />
		<tag k="ssr:stedsnr" v="381269" />
	</node>
	<node id="-753237" lat="68.9239305567" lon="17.3273472141">
		<tag k="alt_name" v="Molvikberget" />
		<tag k="name" v="Mollvikberget" />
		<tag k="natural" v="hill" />
		<tag k="place" v="locality" />
		<tag k="ssr:stedsnr" v="381157" />
	</node>
	<node id="-753230" lat="68.9193583293" lon="17.330305556">
		<tag k="fixme" v="consider natural=peak for the most distinct mountains in the district" />
		<tag k="name" v="Blåfjellet" />
		<tag k="natural" v="hill" />
		<tag k="place" v="locality" />
		<tag k="ssr:stedsnr" v="352825" />
	</node>
	<node id="-753229" lat="68.8992694462" lon="17.2882666557">
		<tag k="name" v="Langeberget" />
		<tag k="natural" v="hill" />
		<tag k="place" v="locality" />
		<tag k="ssr:stedsnr" v="352814" />
	</node>
	<node id="-753228" lat="68.9153833327" lon="17.2102083213">
		<tag k="name" v="Storberget" />
		<tag k="natural" v="hill" />
		<tag k="place" v="locality" />
		<tag k="ssr:stedsnr" v="352808" />
	</node>
	<node id="-753227" lat="68.8416027741" lon="17.3630972102">
		<tag k="name" v="Hamborgaksla" />
		<tag k="place" v="locality" />
		<tag k="ssr:stedsnr" v="352779" />
	</node>
	<node id="-753226" lat="68.8899583364" lon="17.4305749894">
		<tag k="name" v="Vikberget" />
		<tag k="natural" v="hill" />
		<tag k="place" v="locality" />
		<tag k="ssr:stedsnr" v="352776" />
	</node>
	<node id="-753225" lat="68.8358277802" lon="17.360297218">
		<tag k="name" v="Nakkebotn" />
		<tag k="natural" v="valley" />
		<tag k="place" v="locality" />
		<tag k="ssr:stedsnr" v="352768" />
	</node>
	<node id="-753224" lat="68.8627444467" lon="17.4500416779">
		<tag k="name" v="Storlia" />
		<tag k="natural" v="slope" />
		<tag k="place" v="locality" />
		<tag k="ssr:stedsnr" v="352765" />
	</node>
	<node id="-753223" lat="68.8645222184" lon="17.4594888822">
		<tag k="name" v="Svartdalen" />
		<tag k="natural" v="valley" />
		<tag k="place" v="locality" />
		<tag k="ssr:stedsnr" v="352762" />
	</node>
	<node id="-753222" lat="68.8795861115" lon="17.1699361198">
		<tag k="fixme" v="consider natural=peak for the most distinct mountains in the district" />
		<tag k="name" v="Ryggen" />
		<tag k="natural" v="hill" />
		<tag k="place" v="locality" />
		<tag k="ssr:stedsnr" v="352717" />
	</node>
	<node id="-753221" lat="68.8132527785" lon="17.1940416688">
		<tag k="name" v="Djupedalen" />
		<tag k="natural" v="valley" />
		<tag k="place" v="locality" />
		<tag k="ssr:stedsnr" v="352707" />
	</node>
	<node id="-753220" lat="68.9209472176" lon="17.1490694473">
		<tag k="name" v="Ånderkleiva" />
		<tag k="natural" v="slope" />
		<tag k="place" v="locality" />
		<tag k="ssr:stedsnr" v="352702" />
	</node>
	<node id="-753219" lat="68.872672226" lon="17.1491111084">
		<tag k="name" v="Bjønnhågen" />
		<tag k="natural" v="hill" />
		<tag k="place" v="locality" />
		<tag k="ssr:stedsnr" v="352687" />
	</node>
	<node id="-753217" lat="68.8374805539" lon="17.2119583354">
		<tag k="name" v="Geita" />
		<tag k="natural" v="hill" />
		<tag k="place" v="locality" />
		<tag k="ssr:stedsnr" v="352594" />
	</node>
	<node id="-753215" lat="68.8237861103" lon="17.0183805441">
		<tag k="fixme" v="consider natural=peak for the most distinct mountains in the district" />
		<tag k="name" v="Klubben" />
		<tag k="natural" v="hill" />
		<tag k="place" v="locality" />
		<tag k="ssr:stedsnr" v="352487" />
	</node>
	<node id="-753210" lat="68.7754416686" lon="16.9655138997">
		<tag k="fixme" v="consider natural=peak for the most distinct mountains in the district" />
		<tag k="name" v="Ørntuva" />
		<tag k="natural" v="hill" />
		<tag k="place" v="locality" />
		<tag k="ssr:stedsnr" v="352428" />
	</node>
	<node id="-753209" lat="68.777208334" lon="16.9003194542">
		<tag k="name" v="Brua" />
		<tag k="natural" v="hill" />
		<tag k="place" v="locality" />
		<tag k="ssr:stedsnr" v="352421" />
	</node>
	<node id="-753208" lat="68.7814499997" lon="16.929858321">
		<tag k="name" v="Ørnlia" />
		<tag k="natural" v="slope" />
		<tag k="place" v="locality" />
		<tag k="ssr:stedsnr" v="352416" />
	</node>
	<node id="-753207" lat="68.7921583309" lon="17.0053027826">
		<tag k="name" v="Årnipen" />
		<tag k="place" v="locality" />
		<tag k="ssr:stedsnr" v="352399" />
	</node>
	<node id="-753206" lat="68.8190416638" lon="17.0570777683">
		<tag k="name" v="Småhågan" />
		<tag k="natural" v="hill" />
		<tag k="place" v="locality" />
		<tag k="ssr:stedsnr" v="352334" />
	</node>
	<node id="-753203" lat="68.8028583308" lon="17.0823833199">
		<tag k="fixme" v="consider natural=peak for the most distinct mountains in the district" />
		<tag k="name" v="Ramnfløyet" />
		<tag k="natural" v="hill" />
		<tag k="place" v="locality" />
		<tag k="ssr:stedsnr" v="352283" />
	</node>
	<node id="-753199" lat="68.7505861121" lon="17.0995638861">
		<tag k="name" v="Bjørnbåsen" />
		<tag k="place" v="locality" />
		<tag k="ssr:stedsnr" v="352250" />
	</node>
	<node id="-753197" lat="68.7511083335" lon="17.1096055558">
		<tag k="fixme" v="consider natural=peak for the most distinct mountains in the district" />
		<tag k="name" v="Fløyet" />
		<tag k="natural" v="hill" />
		<tag k="place" v="locality" />
		<tag k="ssr:stedsnr" v="352245" />
	</node>
	<node id="-753196" lat="68.7652611146" lon="17.1316638939">
		<tag k="fixme" v="consider natural=peak for the most distinct mountains in the district" />
		<tag k="name" v="Breivollfjellet" />
		<tag k="natural" v="hill" />
		<tag k="place" v="locality" />
		<tag k="ssr:stedsnr" v="352240" />
	</node>
	<node id="-753195" lat="68.8040722229" lon="17.0778861024">
		<tag k="name" v="Reinhågen" />
		<tag k="natural" v="hill" />
		<tag k="place" v="locality" />
		<tag k="ssr:stedsnr" v="352232" />
	</node>
	<node id="-753190" lat="68.7486111101" lon="16.9331472243">
		<tag k="name" v="Djupedalen" />
		<tag k="natural" v="valley" />
		<tag k="place" v="locality" />
		<tag k="ssr:stedsnr" v="352060" />
	</node>
	<node id="-753188" lat="68.7278416711" lon="16.8638305542">
		<tag k="name" v="Storoldran" />
		<tag k="natural" v="slope" />
		<tag k="place" v="locality" />
		<tag k="ssr:stedsnr" v="352044" />
	</node>
	<node id="-753183" lat="68.8210972206" lon="17.1939499938">
		<tag k="name" v="Ånstadberget" />
		<tag k="natural" v="hill" />
		<tag k="place" v="locality" />
		<tag k="ssr:stedsnr" v="325440" />
	</node>
	<node id="-753180" lat="68.75329167" lon="16.9272222276">
		<tag k="name" v="Norddalen" />
		<tag k="natural" v="valley" />
		<tag k="place" v="locality" />
		<tag k="ssr:stedsnr" v="321992" />
	</node>
	<node id="-753179" lat="68.7962055595" lon="17.0144416754">
		<tag k="fixme" v="consider natural=peak for the most distinct mountains in the district" />
		<tag k="name" v="Flaet" />
		<tag k="natural" v="hill" />
		<tag k="place" v="locality" />
		<tag k="ssr:stedsnr" v="321946" />
	</node>
	<node id="-753177" lat="68.7476527823" lon="17.083391662">
		<tag k="name" v="Rødberget" />
		<tag k="natural" v="hill" />
		<tag k="place" v="locality" />
		<tag k="ssr:stedsnr" v="321876" />
	</node>
	<node id="-753173" lat="68.8101472243" lon="17.0408555452">
		<tag k="fixme" v="consider natural=peak for the most distinct mountains in the district" />
		<tag k="name" v="Bårvassholtan" />
		<tag k="natural" v="hill" />
		<tag k="place" v="locality" />
		<tag k="ssr:stedsnr" v="320196" />
	</node>
	<node id="-753171" lat="68.8914583374" lon="17.3084472191">
		<tag k="name" v="Vasskaret" />
		<tag k="natural" v="valley" />
		<tag k="place" v="locality" />
		<tag k="ssr:stedsnr" v="321223" />
	</node>
	<node id="-753168" lat="68.8637750016" lon="17.2997694504">
		<tag k="alt_name" v="Bronkeberget" />
		<tag k="name" v="Brunkeberget" />
		<tag k="natural" v="hill" />
		<tag k="place" v="locality" />
		<tag k="ssr:stedsnr" v="212057" />
	</node>
	<node id="-753167" lat="68.8166416708" lon="17.3296750006">
		<tag k="name" v="Vikberget" />
		<tag k="natural" v="hill" />
		<tag k="place" v="locality" />
		<tag k="ssr:stedsnr" v="211998" />
	</node>
	<node id="-753165" lat="68.7370749971" lon="16.8527750056">
		<tag k="name" v="Guleberget" />
		<tag k="natural" v="hill" />
		<tag k="place" v="locality" />
		<tag k="ssr:stedsnr" v="203009" />
	</node>
	<node id="-753164" lat="68.7358277808" lon="16.8759138916">
		<tag k="name" v="Storheidalen" />
		<tag k="natural" v="valley" />
		<tag k="place" v="locality" />
		<tag k="ssr:stedsnr" v="203008" />
	</node>
	<node id="-753162" lat="68.7267111095" lon="16.8471222103">
		<tag k="name" v="Vikeberget" />
		<tag k="natural" v="hill" />
		<tag k="place" v="locality" />
		<tag k="ssr:stedsnr" v="200905" />
	</node>
	<node id="-753157" lat="68.7605499978" lon="17.0884222294">
		<tag k="fixme" v="consider natural=peak for the most distinct mountains in the district" />
		<tag k="name" v="Skogsheia" />
		<tag k="natural" v="hill" />
		<tag k="place" v="locality" />
		<tag k="ssr:stedsnr" v="200985" />
	</node>
	<node id="-753149" lat="68.7688555604" lon="16.9823111014">
		<tag k="fixme" v="consider natural=peak for the most distinct mountains in the district" />
		<tag k="name" v="Mevassheia" />
		<tag k="natural" v="hill" />
		<tag k="place" v="locality" />
		<tag k="ssr:stedsnr" v="199950" />
	</node>
	<node id="-753148" lat="68.7786722185" lon="17.0526055419">
		<tag k="fixme" v="consider natural=peak for the most distinct mountains in the district" />
		<tag k="name" v="Rundtind" />
		<tag k="natural" v="hill" />
		<tag k="place" v="locality" />
		<tag k="ssr:stedsnr" v="199946" />
	</node>
	<node id="-753144" lat="68.8388222263" lon="17.3240555473">
		<tag k="fixme" v="consider natural=peak for the most distinct mountains in the district" />
		<tag k="name" v="Stortindlemman" />
		<tag k="natural" v="hill" />
		<tag k="place" v="locality" />
		<tag k="ssr:stedsnr" v="171650" />
	</node>
	<node id="-753142" lat="68.8224833354" lon="17.0631555459">
		<tag k="fixme" v="consider natural=peak for the most distinct mountains in the district" />
		<tag k="name" v="Sør-Skolten" />
		<tag k="natural" v="hill" />
		<tag k="place" v="locality" />
		<tag k="ssr:stedsnr" v="171337" />
	</node>
	<node id="-753141" lat="68.8221750002" lon="17.0818611052">
		<tag k="name" v="Tinghågen" />
		<tag k="natural" v="hill" />
		<tag k="place" v="locality" />
		<tag k="ssr:stedsnr" v="171328" />
	</node>
	<node id="-753140" lat="68.788275003" lon="17.133199999">
		<tag k="name" v="Storskaret" />
		<tag k="natural" v="valley" />
		<tag k="place" v="locality" />
		<tag k="ssr:stedsnr" v="171259" />
	</node>
	<node id="-753139" lat="68.7514166643" lon="17.0411138876">
		<tag k="name" v="Endeskaret" />
		<tag k="natural" v="valley" />
		<tag k="place" v="locality" />
		<tag k="ssr:stedsnr" v="171255" />
	</node>
	<node id="-753137" lat="68.7566499981" lon="17.0867972261">
		<tag k="name" v="Perhågen" />
		<tag k="natural" v="hill" />
		<tag k="place" v="locality" />
		<tag k="ssr:stedsnr" v="171251" />
	</node>
	<node id="-753136" lat="68.8018694406" lon="17.0487222164">
		<tag k="fixme" v="consider natural=peak for the most distinct mountains in the district" />
		<tag k="name" v="Gjerdshamran" />
		<tag k="natural" v="hill" />
		<tag k="place" v="locality" />
		<tag k="ssr:stedsnr" v="171227" />
	</node>
	<node id="-753135" lat="68.9247138924" lon="17.2886583409">
		<tag k="name" v="Einehågen" />
		<tag k="natural" v="hill" />
		<tag k="place" v="locality" />
		<tag k="ssr:stedsnr" v="170866" />
	</node>
	<node id="-753134" lat="68.9264805511" lon="17.2731833392">
		<tag k="name" v="Sennamyrberget" />
		<tag k="natural" v="hill" />
		<tag k="place" v="locality" />
		<tag k="ssr:stedsnr" v="170852" />
	</node>
	<node id="-753132" lat="68.9208638872" lon="17.2433638759">
		<tag k="fixme" v="consider natural=peak for the most distinct mountains in the district" />
		<tag k="name" v="Klubben" />
		<tag k="natural" v="hill" />
		<tag k="place" v="locality" />
		<tag k="ssr:stedsnr" v="170845" />
	</node>
	<node id="-753131" lat="68.9138222208" lon="17.2199472277">
		<tag k="name" v="Grønnlia" />
		<tag k="natural" v="slope" />
		<tag k="place" v="locality" />
		<tag k="ssr:stedsnr" v="170831" />
	</node>
	<node id="-753130" lat="68.8415361149" lon="17.395508333">
		<tag k="name" v="Lapphågen" />
		<tag k="natural" v="hill" />
		<tag k="place" v="locality" />
		<tag k="ssr:stedsnr" v="170818" />
	</node>
	<node id="-753126" lat="68.8754805527" lon="17.1385138927">
		<tag k="name" v="Kleiva" />
		<tag k="natural" v="hill" />
		<tag k="place" v="locality" />
		<tag k="ssr:stedsnr" v="170754" />
	</node>
	<node id="-753125" lat="68.8230500002" lon="17.1864972274">
		<tag k="name" v="Trollskaret" />
		<tag k="natural" v="valley" />
		<tag k="place" v="locality" />
		<tag k="ssr:stedsnr" v="170739" />
	</node>
	<node id="-753124" lat="68.8997249955" lon="17.1118694499">
		<tag k="name" v="Alteret" />
		<tag k="natural" v="hill" />
		<tag k="place" v="locality" />
		<tag k="ssr:stedsnr" v="170677" />
	</node>
	<node id="-753123" lat="68.9093583351" lon="17.1430361048">
		<tag k="name" v="Maraskaret" />
		<tag k="natural" v="valley" />
		<tag k="place" v="locality" />
		<tag k="ssr:stedsnr" v="170663" />
	</node>
	<node id="-753121" lat="68.8141722266" lon="17.0553138838">
		<tag k="fixme" v="consider natural=peak for the most distinct mountains in the district" />
		<tag k="name" v="Ramnfløyet" />
		<tag k="natural" v="hill" />
		<tag k="place" v="locality" />
		<tag k="ssr:stedsnr" v="170360" />
	</node>
	<node id="-753119" lat="68.7427250031" lon="16.9987555586">
		<tag k="name" v="Stien" />
		<tag k="place" v="locality" />
		<tag k="ssr:stedsnr" v="170136" />
	</node>
	<node id="-753116" lat="68.7459777784" lon="17.0271388853">
		<tag k="name" v="Ramnfløybergan" />
		<tag k="natural" v="hill" />
		<tag k="place" v="locality" />
		<tag k="ssr:stedsnr" v="170086" />
	</node>
	<node id="-753114" lat="68.7595638883" lon="17.0135527748">
		<tag k="name" v="Litjehågen" />
		<tag k="natural" v="hill" />
		<tag k="place" v="locality" />
		<tag k="ssr:stedsnr" v="170066" />
	</node>
	<node id="-753112" lat="68.8491722191" lon="16.9952249866">
		<tag k="fixme" v="consider natural=peak for the most distinct mountains in the district" />
		<tag k="name" v="Bergenden" />
		<tag k="natural" v="hill" />
		<tag k="place" v="locality" />
		<tag k="ssr:stedsnr" v="170475" />
	</node>
	<node id="-753103" lat="68.7349361144" lon="16.9032666768">
		<tag k="name" v="Lia" />
		<tag k="natural" v="slope" />
		<tag k="place" v="locality" />
		<tag k="ssr:stedsnr" v="142009" />
	</node>
	<node id="-753102" lat="68.7310166627" lon="16.8528666655">
		<tag k="fixme" v="consider natural=peak for the most distinct mountains in the district" />
		<tag k="name" v="Bergsmulen" />
		<tag k="natural" v="hill" />
		<tag k="place" v="locality" />
		<tag k="ssr:stedsnr" v="142002" />
	</node>
	<node id="-753101" lat="68.8253555535" lon="17.1739166557">
		<tag k="name" v="Vardhågen" />
		<tag k="natural" v="hill" />
		<tag k="place" v="locality" />
		<tag k="ssr:stedsnr" v="141192" />
	</node>
	<node id="-753096" lat="68.8769916701" lon="17.3948666597">
		<tag k="fixme" v="consider natural=peak for the most distinct mountains in the district" />
		<tag k="name" v="Istinden" />
		<tag k="natural" v="hill" />
		<tag k="place" v="locality" />
		<tag k="ssr:stedsnr" v="139226" />
	</node>
	<node id="-753088" lat="68.7787027771" lon="17.1244055418">
		<tag k="name" v="Mørkedalen" />
		<tag k="natural" v="valley" />
		<tag k="place" v="locality" />
		<tag k="ssr:stedsnr" v="138943" />
	</node>
	<node id="-753087" lat="68.9086638849" lon="17.3482638949">
		<tag k="fixme" v="consider natural=peak for the most distinct mountains in the district" />
		<tag k="name" v="Årbostadtinden" />
		<tag k="natural" v="hill" />
		<tag k="place" v="locality" />
		<tag k="ssr:stedsnr" v="138269" />
	</node>
	<node id="-753085" lat="68.8786388872" lon="17.2580444426">
		<tag k="name" v="Brattlandet" />
		<tag k="natural" v="slope" />
		<tag k="place" v="locality" />
		<tag k="ssr:stedsnr" v="110875" />
	</node>
	<node id="-753084" lat="68.8655611093" lon="17.4646027834">
		<tag k="name" v="Larsebakken" />
		<tag k="natural" v="slope" />
		<tag k="place" v="locality" />
		<tag k="ssr:stedsnr" v="110791" />
	</node>
	<node id="-753083" lat="68.8844833289" lon="17.1275861168">
		<tag k="name" v="Storhammaren" />
		<tag k="natural" v="hill" />
		<tag k="place" v="locality" />
		<tag k="ssr:stedsnr" v="110760" />
	</node>
	<node id="-753082" lat="68.8822111082" lon="17.178852785">
		<tag k="name" v="Kråkegullhågan" />
		<tag k="natural" v="hill" />
		<tag k="place" v="locality" />
		<tag k="ssr:stedsnr" v="110754" />
	</node>
	<node id="-753077" lat="68.8278833353" lon="17.2178777773">
		<tag k="name" v="Munnhågen" />
		<tag k="natural" v="hill" />
		<tag k="place" v="locality" />
		<tag k="ssr:stedsnr" v="110638" />
	</node>
	<node id="-753075" lat="68.8317666641" lon="17.2270055561">
		<tag k="name" v="Kroken" />
		<tag k="natural" v="slope" />
		<tag k="place" v="locality" />
		<tag k="ssr:stedsnr" v="110629" />
	</node>
	<node id="-753072" lat="68.8397638924" lon="17.0087083298">
		<tag k="name" v="Olderåshågen" />
		<tag k="natural" v="hill" />
		<tag k="place" v="locality" />
		<tag k="ssr:stedsnr" v="110471" />
	</node>
	<node id="-753068" lat="68.8160111143" lon="17.0463277715">
		<tag k="name" v="Håmannsbakkan" />
		<tag k="natural" v="slope" />
		<tag k="place" v="locality" />
		<tag k="ssr:stedsnr" v="110351" />
	</node>
	<node id="-753067" lat="68.7905194482" lon="17.0839777829">
		<tag k="fixme" v="consider natural=peak for the most distinct mountains in the district" />
		<tag k="name" v="Vikarsåsen" />
		<tag k="natural" v="hill" />
		<tag k="place" v="locality" />
		<tag k="ssr:stedsnr" v="110294" />
	</node>
	<node id="-753066" lat="68.7900444466" lon="17.1337416665">
		<tag k="name" v="Skjellvollen" />
		<tag k="natural" v="hill" />
		<tag k="place" v="locality" />
		<tag k="ssr:stedsnr" v="110265" />
	</node>
	<node id="-753065" lat="68.7544083344" lon="17.0653111004">
		<tag k="name" v="Lappegjerdshøgda" />
		<tag k="natural" v="hill" />
		<tag k="place" v="locality" />
		<tag k="ssr:stedsnr" v="110256" />
	</node>
	<node id="-753064" lat="68.8087666693" lon="17.0638639002">
		<tag k="name" v="Bretteglettet" />
		<tag k="natural" v="hill" />
		<tag k="place" v="locality" />
		<tag k="ssr:stedsnr" v="110239" />
	</node>
	<node id="-753063" lat="68.7425388872" lon="16.961944446">
		<tag k="name" v="Finnjorda" />
		<tag k="natural" v="slope" />
		<tag k="place" v="locality" />
		<tag k="ssr:stedsnr" v="110097" />
	</node>
	<node id="-753046" lat="68.8093777801" lon="17.2208972237">
		<tag k="fixme" v="consider natural=peak for the most distinct mountains in the district" />
		<tag k="name" v="Vedkollen" />
		<tag k="natural" v="hill" />
		<tag k="place" v="locality" />
		<tag k="ssr:stedsnr" v="79190" />
	</node>
	<node id="-753042" lat="68.7694666666" lon="17.1654249996">
		<tag k="name" v="Storholtet" />
		<tag k="natural" v="hill" />
		<tag k="place" v="locality" />
		<tag k="ssr:stedsnr" v="78958" />
	</node>
	<node id="-753038" lat="68.868952778" lon="17.4515250063">
		<tag k="fixme" v="consider natural=peak for the most distinct mountains in the district" />
		<tag k="name" v="Sørkollen" />
		<tag k="natural" v="hill" />
		<tag k="place" v="locality" />
		<tag k="ssr:stedsnr" v="78756" />
	</node>
	<node id="-753035" lat="68.8938972194" lon="17.3158972092">
		<tag k="name" v="Langbergkilen" />
		<tag k="natural" v="valley" />
		<tag k="place" v="locality" />
		<tag k="ssr:stedsnr" v="50830" />
	</node>
	<node id="-753034" lat="68.8427388934" lon="17.3471944398">
		<tag k="name" v="Rundekollen" />
		<tag k="natural" v="hill" />
		<tag k="place" v="locality" />
		<tag k="ssr:stedsnr" v="50582" />
	</node>
	<node id="-753032" lat="68.9010111072" lon="17.2532055602">
		<tag k="fixme" v="consider natural=peak for the most distinct mountains in the district" />
		<tag k="name" v="Knubban" />
		<tag k="natural" v="hill" />
		<tag k="place" v="locality" />
		<tag k="ssr:stedsnr" v="49818" />
	</node>
	<node id="-753030" lat="68.8291166679" lon="17.3601055436">
		<tag k="name" v="Bulian" />
		<tag k="natural" v="slope" />
		<tag k="place" v="locality" />
		<tag k="ssr:stedsnr" v="49789" />
	</node>
	<node id="-753026" lat="68.888630556" lon="17.1267666691">
		<tag k="name" v="Mellahammaren" />
		<tag k="natural" v="hill" />
		<tag k="place" v="locality" />
		<tag k="ssr:stedsnr" v="49759" />
	</node>
	<node id="-753025" lat="68.9215000005" lon="17.1415722099">
		<tag k="name" v="Skårkleiva" />
		<tag k="natural" v="slope" />
		<tag k="place" v="locality" />
		<tag k="ssr:stedsnr" v="49734" />
	</node>
	<node id="-753024" lat="68.8736999988" lon="17.1566722224">
		<tag k="name" v="Kollen" />
		<tag k="natural" v="slope" />
		<tag k="place" v="locality" />
		<tag k="ssr:stedsnr" v="49719" />
	</node>
	<node id="-753023" lat="68.9130361132" lon="17.1609361122">
		<tag k="name" v="Brekkhågen" />
		<tag k="natural" v="hill" />
		<tag k="place" v="locality" />
		<tag k="ssr:stedsnr" v="49706" />
	</node>
	<node id="-753022" lat="68.8989055581" lon="17.1120666588">
		<tag k="name" v="Hestholla" />
		<tag k="natural" v="valley" />
		<tag k="place" v="locality" />
		<tag k="ssr:stedsnr" v="49704" />
	</node>
	<node id="-753020" lat="68.7991194422" lon="17.2556166673">
		<tag k="name" v="Rundhågen" />
		<tag k="natural" v="hill" />
		<tag k="place" v="locality" />
		<tag k="ssr:stedsnr" v="49668" />
	</node>
	<node id="-753019" lat="68.8239888892" lon="17.3206916717">
		<tag k="name" v="Gregusvikbotn" />
		<tag k="natural" v="valley" />
		<tag k="place" v="locality" />
		<tag k="ssr:stedsnr" v="49659" />
	</node>
	<node id="-753017" lat="68.8442944475" lon="17.3340194474">
		<tag k="name" v="Straumskarheia" />
		<tag k="natural" v="hill" />
		<tag k="place" v="locality" />
		<tag k="ssr:stedsnr" v="49652" />
	</node>
	<node id="-753011" lat="68.8269388897" lon="17.07178333">
		<tag k="name" v="Gammhågen" />
		<tag k="natural" v="hill" />
		<tag k="place" v="locality" />
		<tag k="ssr:stedsnr" v="49404" />
	</node>
	<node id="-753010" lat="68.8111416642" lon="17.0476416634">
		<tag k="fixme" v="consider natural=peak for the most distinct mountains in the district" />
		<tag k="name" v="Solbergåsan" />
		<tag k="natural" v="hill" />
		<tag k="place" v="locality" />
		<tag k="ssr:stedsnr" v="49396" />
	</node>
	<node id="-753009" lat="68.8151250028" lon="17.0683750004">
		<tag k="name" v="Kjellshågen" />
		<tag k="natural" v="hill" />
		<tag k="place" v="locality" />
		<tag k="ssr:stedsnr" v="49391" />
	</node>
	<node id="-753008" lat="68.7870638929" lon="17.1289472106">
		<tag k="name" v="Forskaret" />
		<tag k="natural" v="valley" />
		<tag k="place" v="locality" />
		<tag k="ssr:stedsnr" v="49383" />
	</node>
	<node id="-753006" lat="68.8343944415" lon="17.0510277741">
		<tag k="fixme" v="consider natural=peak for the most distinct mountains in the district" />
		<tag k="name" v="Bruråsen" />
		<tag k="natural" v="hill" />
		<tag k="place" v="locality" />
		<tag k="ssr:stedsnr" v="49366" />
	</node>
	<node id="-753005" lat="68.7935500015" lon="17.1147972272">
		<tag k="name" v="Tortliskaret" />
		<tag k="natural" v="valley" />
		<tag k="place" v="locality" />
		<tag k="ssr:stedsnr" v="49342" />
	</node>
	<node id="-753004" lat="68.7671750017" lon="17.1085027736">
		<tag k="name" v="Fjellmyrskogen" />
		<tag k="place" v="locality" />
		<tag k="ssr:stedsnr" v="49326" />
	</node>
	<node id="-753003" lat="68.7475166623" lon="17.0418222311">
		<tag k="fixme" v="consider natural=peak for the most distinct mountains in the district" />
		<tag k="name" v="Flaten" />
		<tag k="natural" v="hill" />
		<tag k="place" v="locality" />
		<tag k="ssr:stedsnr" v="49319" />
	</node>
	<node id="-753002" lat="68.7573277819" lon="17.1210083322">
		<tag k="fixme" v="consider natural=peak for the most distinct mountains in the district" />
		<tag k="name" v="Kollåsen" />
		<tag k="natural" v="hill" />
		<tag k="place" v="locality" />
		<tag k="ssr:stedsnr" v="49307" />
	</node>
	<node id="-752986" lat="68.7846777793" lon="16.9919111112">
		<tag k="fixme" v="consider natural=peak for the most distinct mountains in the district" />
		<tag k="name" v="Sandvassheia" />
		<tag k="natural" v="hill" />
		<tag k="place" v="locality" />
		<tag k="ssr:stedsnr" v="17968" />
	</node>
	<node id="-752980" lat="68.9135972265" lon="17.1432499963">
		<tag k="fixme" v="consider natural=peak for the most distinct mountains in the district" />
		<tag k="name" v="Nappen" />
		<tag k="natural" v="hill" />
		<tag k="place" v="locality" />
		<tag k="ssr:stedsnr" v="18136" />
	</node>
	<node id="-752978" lat="68.8169527819" lon="17.2124444432">
		<tag k="name" v="Vargsteinholtet" />
		<tag k="natural" v="hill" />
		<tag k="place" v="locality" />
		<tag k="ssr:stedsnr" v="960618" />
	</node>
	<node id="-752977" lat="68.7818722186" lon="17.178066676">
		<tag k="name" v="Pottingholtet" />
		<tag k="natural" v="hill" />
		<tag k="place" v="locality" />
		<tag k="ssr:stedsnr" v="960313" />
	</node>
	<node id="-752976" lat="68.7689833352" lon="17.1609111181">
		<tag k="name" v="Skaret" />
		<tag k="natural" v="valley" />
		<tag k="place" v="locality" />
		<tag k="ssr:stedsnr" v="960304" />
	</node>
	<node id="-752975" lat="68.7736027809" lon="17.110300008">
		<tag k="name" v="Ørnberget" />
		<tag k="natural" v="hill" />
		<tag k="place" v="locality" />
		<tag k="ssr:stedsnr" v="960273" />
	</node>
	<node id="-752973" lat="68.7570555513" lon="17.065952783">
		<tag k="name" v="Ørnbakken" />
		<tag k="natural" v="slope" />
		<tag k="place" v="locality" />
		<tag k="ssr:stedsnr" v="960259" />
	</node>
	<node id="-752971" lat="68.7377222225" lon="16.8846722097">
		<tag k="fixme" v="consider natural=peak for the most distinct mountains in the district" />
		<tag k="name" v="Brustinden" />
		<tag k="natural" v="hill" />
		<tag k="place" v="locality" />
		<tag k="ssr:stedsnr" v="928916" />
	</node>
	<node id="-752969" lat="68.8551055555" lon="17.4339861084">
		<tag k="name" v="Bjørnhammaren" />
		<tag k="natural" v="hill" />
		<tag k="place" v="locality" />
		<tag k="ssr:stedsnr" v="899786" />
	</node>
	<node id="-752968" lat="68.8541833347" lon="17.4226250065">
		<tag k="fixme" v="consider natural=peak for the most distinct mountains in the district" />
		<tag k="name" v="Rødrapet" />
		<tag k="natural" v="hill" />
		<tag k="place" v="locality" />
		<tag k="ssr:stedsnr" v="899784" />
	</node>
	<node id="-752967" lat="68.9163638906" lon="17.3704416588">
		<tag k="name" v="Storhågen" />
		<tag k="natural" v="hill" />
		<tag k="place" v="locality" />
		<tag k="ssr:stedsnr" v="899765" />
	</node>
	<node id="-752966" lat="68.8929000047" lon="17.1217999948">
		<tag k="name" v="Ytsthammaren" />
		<tag k="natural" v="hill" />
		<tag k="place" v="locality" />
		<tag k="ssr:stedsnr" v="899760" />
	</node>
	<node id="-752965" lat="68.8844666648" lon="17.1558805517">
		<tag k="name" v="Middagsaksla" />
		<tag k="place" v="locality" />
		<tag k="ssr:stedsnr" v="899759" />
	</node>
	<node id="-752964" lat="68.8762444481" lon="17.1442083222">
		<tag k="fixme" v="consider natural=peak for the most distinct mountains in the district" />
		<tag k="name" v="Svartåsen" />
		<tag k="natural" v="hill" />
		<tag k="place" v="locality" />
		<tag k="ssr:stedsnr" v="899757" />
	</node>
	<node id="-752962" lat="68.8662944455" lon="17.2529555443">
		<tag k="name" v="Svartberget" />
		<tag k="natural" v="hill" />
		<tag k="place" v="locality" />
		<tag k="ssr:stedsnr" v="899867" />
	</node>
	<node id="-752961" lat="68.8432166677" lon="17.0057944464">
		<tag k="name" v="Brennhågen" />
		<tag k="natural" v="hill" />
		<tag k="place" v="locality" />
		<tag k="ssr:stedsnr" v="899466" />
	</node>
	<node id="-752960" lat="68.8237527781" lon="16.9953249882">
		<tag k="fixme" v="consider natural=peak for the most distinct mountains in the district" />
		<tag k="name" v="Stilkusvassbrekka" />
		<tag k="natural" v="hill" />
		<tag k="place" v="locality" />
		<tag k="ssr:stedsnr" v="899457" />
	</node>
	<node id="-752959" lat="68.738227773" lon="16.9325694531">
		<tag k="fixme" v="consider natural=peak for the most distinct mountains in the district" />
		<tag k="name" v="Kjølen" />
		<tag k="natural" v="hill" />
		<tag k="place" v="locality" />
		<tag k="ssr:stedsnr" v="899112" />
	</node>
	<node id="-752958" lat="68.7504750016" lon="17.0217361086">
		<tag k="fixme" v="consider natural=peak for the most distinct mountains in the district" />
		<tag k="name" v="Kvigevassåsen" />
		<tag k="natural" v="hill" />
		<tag k="place" v="locality" />
		<tag k="ssr:stedsnr" v="898087" />
	</node>
	<node id="-752957" lat="68.7472055535" lon="17.0257916759">
		<tag k="fixme" v="consider natural=peak for the most distinct mountains in the district" />
		<tag k="name" v="Ramnfløyet" />
		<tag k="natural" v="hill" />
		<tag k="place" v="locality" />
		<tag k="ssr:stedsnr" v="898079" />
	</node>
	<node id="-752956" lat="68.7581944423" lon="16.9728749932">
		<tag k="name" v="Vedrøysa" />
		<tag k="natural" v="hill" />
		<tag k="place" v="locality" />
		<tag k="ssr:stedsnr" v="898073" />
	</node>
	<node id="-752955" lat="68.7485055553" lon="16.9727583268">
		<tag k="name" v="Varslihågen" />
		<tag k="natural" v="hill" />
		<tag k="place" v="locality" />
		<tag k="ssr:stedsnr" v="898057" />
	</node>
	<node id="-752947" lat="68.8980666669" lon="17.3721916524">
		<tag k="name" v="Henrikskaret" />
		<tag k="natural" v="valley" />
		<tag k="place" v="locality" />
		<tag k="ssr:stedsnr" v="838223" />
	</node>
	<node id="-752946" lat="68.8391222204" lon="17.2099611197">
		<tag k="name" v="Bukkelia" />
		<tag k="natural" v="slope" />
		<tag k="place" v="locality" />
		<tag k="ssr:stedsnr" v="932439" />
	</node>
	<node id="-752942" lat="68.9239111146" lon="17.2280416718">
		<tag k="name" v="Klåpheia" />
		<tag k="natural" v="hill" />
		<tag k="place" v="locality" />
		<tag k="ssr:stedsnr" v="931256" />
	</node>
	<node id="-752938" lat="68.7680388902" lon="16.9012999956">
		<tag k="name" v="Romnedalen" />
		<tag k="natural" v="valley" />
		<tag k="place" v="locality" />
		<tag k="ssr:stedsnr" v="928950" />
	</node>
	<node id="-752937" lat="68.7761166638" lon="17.1252111151">
		<tag k="fixme" v="consider natural=peak for the most distinct mountains in the district" />
		<tag k="name" v="Heia" />
		<tag k="natural" v="hill" />
		<tag k="place" v="locality" />
		<tag k="ssr:stedsnr" v="928944" />
	</node>
	<node id="-752936" lat="68.7797972252" lon="17.0930666591">
		<tag k="fixme" v="consider natural=peak for the most distinct mountains in the district" />
		<tag k="name" v="Vikheia" />
		<tag k="natural" v="hill" />
		<tag k="place" v="locality" />
		<tag k="ssr:stedsnr" v="928942" />
	</node>
	<node id="-752934" lat="68.8717250001" lon="17.1775250083">
		<tag k="fixme" v="consider natural=peak for the most distinct mountains in the district" />
		<tag k="name" v="Kråktindan" />
		<tag k="natural" v="hill" />
		<tag k="place" v="locality" />
		<tag k="ssr:stedsnr" v="928214" />
	</node>
	<node id="-752930" lat="68.8214722218" lon="17.1836388911">
		<tag k="name" v="Ånstadlia" />
		<tag k="natural" v="slope" />
		<tag k="place" v="locality" />
		<tag k="ssr:stedsnr" v="928190" />
	</node>
	<node id="-752928" lat="68.8341305595" lon="16.991838885">
		<tag k="fixme" v="consider natural=peak for the most distinct mountains in the district" />
		<tag k="name" v="Mølnhusbrekka" />
		<tag k="natural" v="hill" />
		<tag k="place" v="locality" />
		<tag k="ssr:stedsnr" v="928184" />
	</node>
	<node id="-752924" lat="68.797663888" lon="17.2293166671">
		<tag k="name" v="Aspelia" />
		<tag k="natural" v="slope" />
		<tag k="place" v="locality" />
		<tag k="ssr:stedsnr" v="927975" />
	</node>
	<node id="-752921" lat="68.8131083314" lon="17.2072749993">
		<tag k="fixme" v="consider natural=peak for the most distinct mountains in the district" />
		<tag k="name" v="Vedakollen" />
		<tag k="natural" v="hill" />
		<tag k="place" v="locality" />
		<tag k="ssr:stedsnr" v="778621" />
	</node>
	<node id="-752920" lat="68.8211444402" lon="17.2035083398">
		<tag k="name" v="Blomvassholla" />
		<tag k="natural" v="valley" />
		<tag k="place" v="locality" />
		<tag k="ssr:stedsnr" v="778610" />
	</node>
	<node id="-752919" lat="68.8625805538" lon="17.1764249953">
		<tag k="name" v="Kongsdalen" />
		<tag k="natural" v="valley" />
		<tag k="place" v="locality" />
		<tag k="ssr:stedsnr" v="777693" />
	</node>
	<node id="-752917" lat="68.8044083311" lon="17.2882194536">
		<tag k="name" v="Sæterberget" />
		<tag k="natural" v="hill" />
		<tag k="place" v="locality" />
		<tag k="ssr:stedsnr" v="777656" />
	</node>
	<node id="-752916" lat="68.7985666665" lon="17.0937055621">
		<tag k="fixme" v="consider natural=peak for the most distinct mountains in the district" />
		<tag k="name" v="Bukkhamran" />
		<tag k="natural" v="hill" />
		<tag k="place" v="locality" />
		<tag k="ssr:stedsnr" v="777295" />
	</node>
	<node id="-752914" lat="68.7937444486" lon="17.1215055629">
		<tag k="name" v="Gløtthågen" />
		<tag k="natural" v="hill" />
		<tag k="place" v="locality" />
		<tag k="ssr:stedsnr" v="777265" />
	</node>
	<node id="-752913" lat="68.7264388878" lon="16.8491694433">
		<tag k="name" v="Tendingsberget" />
		<tag k="natural" v="hill" />
		<tag k="place" v="locality" />
		<tag k="ssr:stedsnr" v="777053" />
	</node>
	<node id="-752910" lat="68.7386166663" lon="16.9659027786">
		<tag k="name" v="Flatebergan" />
		<tag k="natural" v="hill" />
		<tag k="place" v="locality" />
		<tag k="ssr:stedsnr" v="749012" />
	</node>
	<node id="-752905" lat="68.8805722209" lon="17.210566656">
		<tag k="name" v="Storberget" />
		<tag k="natural" v="hill" />
		<tag k="place" v="locality" />
		<tag k="ssr:stedsnr" v="899897" />
	</node>
	<node id="-752901" lat="68.8756638872" lon="17.1729583298">
		<tag k="fixme" v="consider natural=peak for the most distinct mountains in the district" />
		<tag k="name" v="Kråktindan" />
		<tag k="natural" v="hill" />
		<tag k="place" v="locality" />
		<tag k="ssr:stedsnr" v="899746" />
	</node>
	<node id="-752898" lat="68.8706194448" lon="17.1554777872">
		<tag k="name" v="Preikstolan" />
		<tag k="natural" v="hill" />
		<tag k="place" v="locality" />
		<tag k="ssr:stedsnr" v="899705" />
	</node>
	<node id="-752897" lat="68.9024722248" lon="17.2224694349">
		<tag k="name" v="Kvannbotn" />
		<tag k="natural" v="valley" />
		<tag k="place" v="locality" />
		<tag k="ssr:stedsnr" v="899844" />
	</node>
	<node id="-752896" lat="68.9110500037" lon="17.2225333213">
		<tag k="name" v="Kjerkemoen" />
		<tag k="place" v="locality" />
		<tag k="ssr:stedsnr" v="899831" />
	</node>
	<node id="-752894" lat="68.8250916697" lon="17.241824988">
		<tag k="name" v="Stakkebergan" />
		<tag k="natural" v="hill" />
		<tag k="place" v="locality" />
		<tag k="ssr:stedsnr" v="899631" />
	</node>
	<node id="-752893" lat="68.8284555535" lon="17.3559638864">
		<tag k="name" v="Falkhammaren" />
		<tag k="natural" v="hill" />
		<tag k="place" v="locality" />
		<tag k="ssr:stedsnr" v="899584" />
	</node>
	<node id="-752891" lat="68.8115833313" lon="16.9986722107">
		<tag k="name" v="Gamman" />
		<tag k="place" v="locality" />
		<tag k="ssr:stedsnr" v="899512" />
	</node>
	<node id="-752890" lat="68.9107999973" lon="17.1269555438">
		<tag k="name" v="Brunbergan" />
		<tag k="natural" v="hill" />
		<tag k="place" v="locality" />
		<tag k="ssr:stedsnr" v="899685" />
	</node>
	<node id="-752889" lat="68.9167000048" lon="17.1428999921">
		<tag k="name" v="Veskeskaret" />
		<tag k="natural" v="valley" />
		<tag k="place" v="locality" />
		<tag k="ssr:stedsnr" v="899668" />
	</node>
	<node id="-752887" lat="68.8361527754" lon="16.9715583346">
		<tag k="name" v="Buvikberget" />
		<tag k="natural" v="hill" />
		<tag k="place" v="locality" />
		<tag k="ssr:stedsnr" v="899480" />
	</node>
	<node id="-752886" lat="68.7777499981" lon="17.1594111184">
		<tag k="name" v="Sankthanssletta" />
		<tag k="place" v="locality" />
		<tag k="ssr:stedsnr" v="899336" />
	</node>
	<node id="-752885" lat="68.7692722218" lon="17.1450472164">
		<tag k="name" v="Olahågen" />
		<tag k="natural" v="hill" />
		<tag k="place" v="locality" />
		<tag k="ssr:stedsnr" v="899325" />
	</node>
	<node id="-752884" lat="68.7982666697" lon="17.0998749962">
		<tag k="name" v="Breilia" />
		<tag k="natural" v="slope" />
		<tag k="place" v="locality" />
		<tag k="ssr:stedsnr" v="899295" />
	</node>
	<node id="-752882" lat="68.7461750045" lon="17.0796611053">
		<tag k="name" v="Finnberget" />
		<tag k="natural" v="hill" />
		<tag k="place" v="locality" />
		<tag k="ssr:stedsnr" v="899262" />
	</node>
	<node id="-752881" lat="68.7528666685" lon="17.1052944427">
		<tag k="name" v="Sandrøv" />
		<tag k="natural" v="slope" />
		<tag k="place" v="locality" />
		<tag k="ssr:stedsnr" v="899260" />
	</node>
	<node id="-752879" lat="68.860916669" lon="17.2660833261">
		<tag k="name" v="Langemarka" />
		<tag k="place" v="locality" />
		<tag k="ssr:stedsnr" v="898838" />
	</node>
	<node id="-752878" lat="68.7957750042" lon="17.0084527669">
		<tag k="name" v="Bondekofta" />
		<tag k="natural" v="hill" />
		<tag k="place" v="locality" />
		<tag k="ssr:stedsnr" v="898390" />
	</node>
	<node id="-752877" lat="68.8056722263" lon="17.0197611139">
		<tag k="name" v="Rolighollan" />
		<tag k="place" v="locality" />
		<tag k="ssr:stedsnr" v="898386" />
	</node>
	<node id="-752876" lat="68.743094447" lon="16.8581027894">
		<tag k="fixme" v="consider natural=peak for the most distinct mountains in the district" />
		<tag k="name" v="Storfløyet" />
		<tag k="natural" v="hill" />
		<tag k="place" v="locality" />
		<tag k="ssr:stedsnr" v="898021" />
	</node>
	<node id="-752875" lat="68.8984944441" lon="17.2364388922">
		<tag k="name" v="Kjerramyrdalen" />
		<tag k="natural" v="valley" />
		<tag k="place" v="locality" />
		<tag k="ssr:stedsnr" v="717822" />
	</node>
	<node id="-752873" lat="68.8383916672" lon="17.3822777686">
		<tag k="name" v="Asphågen" />
		<tag k="natural" v="hill" />
		<tag k="place" v="locality" />
		<tag k="ssr:stedsnr" v="717804" />
	</node>
	<node id="-752872" lat="68.8449694474" lon="17.3887472261">
		<tag k="name" v="Måshågen" />
		<tag k="natural" v="hill" />
		<tag k="place" v="locality" />
		<tag k="ssr:stedsnr" v="717789" />
	</node>
	<node id="-752870" lat="68.879263886" lon="17.4775749883">
		<tag k="name" v="Svarthammaren" />
		<tag k="natural" v="hill" />
		<tag k="place" v="locality" />
		<tag k="ssr:stedsnr" v="717765" />
	</node>
	<node id="-752869" lat="68.8905555576" lon="17.4182166721">
		<tag k="name" v="Blåbærhågen" />
		<tag k="natural" v="hill" />
		<tag k="place" v="locality" />
		<tag k="ssr:stedsnr" v="717759" />
	</node>
	<node id="-752868" lat="68.8196055518" lon="17.2380694427">
		<tag k="fixme" v="consider natural=peak for the most distinct mountains in the district" />
		<tag k="name" v="Glebergkollen" />
		<tag k="natural" v="hill" />
		<tag k="place" v="locality" />
		<tag k="ssr:stedsnr" v="717617" />
	</node>
	<node id="-752867" lat="68.8233888895" lon="17.2254722154">
		<tag k="name" v="Lemman" />
		<tag k="natural" v="hill" />
		<tag k="place" v="locality" />
		<tag k="ssr:stedsnr" v="717616" />
	</node>
	<node id="-752866" lat="68.8382055534" lon="17.2713138987">
		<tag k="name" v="Henningheia" />
		<tag k="natural" v="hill" />
		<tag k="place" v="locality" />
		<tag k="ssr:stedsnr" v="717608" />
	</node>
	<node id="-752865" lat="68.8373777748" lon="17.2547638748">
		<tag k="name" v="Johammaren" />
		<tag k="natural" v="hill" />
		<tag k="place" v="locality" />
		<tag k="ssr:stedsnr" v="717606" />
	</node>
	<node id="-752864" lat="68.9233277747" lon="17.2251138847">
		<tag k="name" v="Klåpskolten" />
		<tag k="natural" v="hill" />
		<tag k="place" v="locality" />
		<tag k="ssr:stedsnr" v="716824" />
	</node>
	<node id="-752858" lat="68.8589722231" lon="17.0102027852">
		<tag k="name" v="Kjerringberget" />
		<tag k="natural" v="hill" />
		<tag k="place" v="locality" />
		<tag k="ssr:stedsnr" v="880215" />
	</node>
	<node id="-752852" lat="68.9260861133" lon="17.2987750063">
		<tag k="name" v="Teisteberget" />
		<tag k="natural" v="hill" />
		<tag k="place" v="locality" />
		<tag k="ssr:stedsnr" v="656857" />
	</node>
	<node id="-752851" lat="68.8551777773" lon="17.1687888918">
		<tag k="name" v="Aukhammaren" />
		<tag k="natural" v="hill" />
		<tag k="place" v="locality" />
		<tag k="ssr:stedsnr" v="656706" />
	</node>
	<node id="-752848" lat="68.802983338" lon="17.2191138766">
		<tag k="name" v="Sørvikskaret" />
		<tag k="natural" v="valley" />
		<tag k="place" v="locality" />
		<tag k="ssr:stedsnr" v="656658" />
	</node>
	<node id="-752847" lat="68.8465916673" lon="16.9926083325">
		<tag k="fixme" v="consider natural=peak for the most distinct mountains in the district" />
		<tag k="name" v="Mølnebergan" />
		<tag k="natural" v="hill" />
		<tag k="place" v="locality" />
		<tag k="ssr:stedsnr" v="656473" />
	</node>
	<node id="-752846" lat="68.8509305509" lon="17.032330562">
		<tag k="fixme" v="consider natural=peak for the most distinct mountains in the district" />
		<tag k="name" v="Høgstibrekka" />
		<tag k="natural" v="hill" />
		<tag k="place" v="locality" />
		<tag k="ssr:stedsnr" v="656468" />
	</node>
	<node id="-752845" lat="68.8470777748" lon="17.0214944507">
		<tag k="fixme" v="consider natural=peak for the most distinct mountains in the district" />
		<tag k="name" v="Lomtjønnbrekka" />
		<tag k="natural" v="hill" />
		<tag k="place" v="locality" />
		<tag k="ssr:stedsnr" v="656466" />
	</node>
	<node id="-752844" lat="68.8192388897" lon="17.0112944552">
		<tag k="name" v="Branthågen" />
		<tag k="natural" v="hill" />
		<tag k="place" v="locality" />
		<tag k="ssr:stedsnr" v="656526" />
	</node>
	<node id="-752839" lat="68.7989249997" lon="17.1010277669">
		<tag k="name" v="Nilsbakken" />
		<tag k="natural" v="slope" />
		<tag k="place" v="locality" />
		<tag k="ssr:stedsnr" v="656303" />
	</node>
	<node id="-752838" lat="68.7932972186" lon="17.1024805426">
		<tag k="name" v="Kvitebergan" />
		<tag k="natural" v="hill" />
		<tag k="place" v="locality" />
		<tag k="ssr:stedsnr" v="656292" />
	</node>
	<node id="-752837" lat="68.7972416656" lon="17.0962833243">
		<tag k="fixme" v="consider natural=peak for the most distinct mountains in the district" />
		<tag k="name" v="Åsen" />
		<tag k="natural" v="hill" />
		<tag k="place" v="locality" />
		<tag k="ssr:stedsnr" v="656288" />
	</node>
	<node id="-752835" lat="68.7533361084" lon="17.1129333261">
		<tag k="name" v="Bausenhågen" />
		<tag k="natural" v="hill" />
		<tag k="place" v="locality" />
		<tag k="ssr:stedsnr" v="656261" />
	</node>
	<node id="-752834" lat="68.8725611132" lon="17.3124222238">
		<tag k="name" v="Ytterholla" />
		<tag k="natural" v="valley" />
		<tag k="place" v="locality" />
		<tag k="ssr:stedsnr" v="655853" />
	</node>
	<node id="-752833" lat="68.7462638859" lon="17.0100277858">
		<tag k="name" v="Brekkebakkan" />
		<tag k="natural" v="slope" />
		<tag k="place" v="locality" />
		<tag k="ssr:stedsnr" v="655097" />
	</node>
	<node id="-752832" lat="68.7465916662" lon="17.0342916553">
		<tag k="name" v="Svarteberget" />
		<tag k="natural" v="hill" />
		<tag k="place" v="locality" />
		<tag k="ssr:stedsnr" v="655096" />
	</node>
	<node id="-752831" lat="68.7469888863" lon="17.0206027641">
		<tag k="name" v="Purkelia" />
		<tag k="natural" v="slope" />
		<tag k="place" v="locality" />
		<tag k="ssr:stedsnr" v="655093" />
	</node>
	<node id="-752826" lat="68.8807333292" lon="17.2497222215">
		<tag k="name" v="Gollajorda" />
		<tag k="natural" v="slope" />
		<tag k="place" v="locality" />
		<tag k="ssr:stedsnr" v="717883" />
	</node>
	<node id="-752824" lat="68.9230972229" lon="17.3643083349">
		<tag k="name" v="Mølnusberget" />
		<tag k="natural" v="hill" />
		<tag k="place" v="locality" />
		<tag k="ssr:stedsnr" v="717741" />
	</node>
	<node id="-752823" lat="68.9239388935" lon="17.1280472102">
		<tag k="name" v="Naustberget" />
		<tag k="natural" v="hill" />
		<tag k="place" v="locality" />
		<tag k="ssr:stedsnr" v="717708" />
	</node>
	<node id="-752822" lat="68.8705055535" lon="17.150891667">
		<tag k="name" v="Rundholtet" />
		<tag k="natural" v="hill" />
		<tag k="place" v="locality" />
		<tag k="ssr:stedsnr" v="717691" />
	</node>
	<node id="-752821" lat="68.8702833366" lon="17.1685027835">
		<tag k="name" v="Langelia" />
		<tag k="natural" v="slope" />
		<tag k="place" v="locality" />
		<tag k="ssr:stedsnr" v="717690" />
	</node>
	<node id="-752820" lat="68.9256833369" lon="17.1148250053">
		<tag k="name" v="Kalveberget" />
		<tag k="natural" v="hill" />
		<tag k="place" v="locality" />
		<tag k="ssr:stedsnr" v="717683" />
	</node>
	<node id="-752818" lat="68.9093888902" lon="17.1491916558">
		<tag k="fixme" v="consider natural=peak for the most distinct mountains in the district" />
		<tag k="name" v="Varden" />
		<tag k="natural" v="hill" />
		<tag k="place" v="locality" />
		<tag k="ssr:stedsnr" v="717661" />
	</node>
	<node id="-752817" lat="68.7967305596" lon="17.2517805506">
		<tag k="name" v="Skarvberget" />
		<tag k="natural" v="hill" />
		<tag k="place" v="locality" />
		<tag k="ssr:stedsnr" v="717653" />
	</node>
	<node id="-752816" lat="68.8062694457" lon="17.2018583342">
		<tag k="name" v="Skaret" />
		<tag k="natural" v="valley" />
		<tag k="place" v="locality" />
		<tag k="ssr:stedsnr" v="717646" />
	</node>
	<node id="-752814" lat="68.8003416707" lon="17.2200888825">
		<tag k="name" v="Ramnfløyan" />
		<tag k="natural" v="hill" />
		<tag k="place" v="locality" />
		<tag k="ssr:stedsnr" v="717637" />
	</node>
	<node id="-752813" lat="68.8065472244" lon="17.2252972115">
		<tag k="name" v="Strupen" />
		<tag k="natural" v="valley" />
		<tag k="place" v="locality" />
		<tag k="ssr:stedsnr" v="717632" />
	</node>
	<node id="-752812" lat="68.8024555575" lon="17.2571222166">
		<tag k="name" v="Lillemyrbakken" />
		<tag k="natural" v="slope" />
		<tag k="place" v="locality" />
		<tag k="ssr:stedsnr" v="717630" />
	</node>
	<node id="-752810" lat="68.8945305535" lon="17.2308333366">
		<tag k="name" v="Brenna" />
		<tag k="natural" v="slope" />
		<tag k="place" v="locality" />
		<tag k="ssr:stedsnr" v="717592" />
	</node>
	<node id="-752808" lat="68.8111222194" lon="17.0057222175">
		<tag k="name" v="Mortenlarsbakkan" />
		<tag k="natural" v="slope" />
		<tag k="place" v="locality" />
		<tag k="ssr:stedsnr" v="717530" />
	</node>
	<node id="-752803" lat="68.7730250043" lon="17.1634583297">
		<tag k="name" v="Sniphågen" />
		<tag k="natural" v="hill" />
		<tag k="place" v="locality" />
		<tag k="ssr:stedsnr" v="717332" />
	</node>
	<node id="-752802" lat="68.7727055573" lon="17.16382221">
		<tag k="name" v="Jensdalen" />
		<tag k="natural" v="valley" />
		<tag k="place" v="locality" />
		<tag k="ssr:stedsnr" v="717331" />
	</node>
	<node id="-752801" lat="68.8333388911" lon="17.0605138928">
		<tag k="name" v="Hågen" />
		<tag k="natural" v="hill" />
		<tag k="place" v="locality" />
		<tag k="ssr:stedsnr" v="717325" />
	</node>
	<node id="-752797" lat="68.8042277756" lon="17.0466833319">
		<tag k="fixme" v="consider natural=peak for the most distinct mountains in the district" />
		<tag k="name" v="Kvantobrekka" />
		<tag k="natural" v="hill" />
		<tag k="place" v="locality" />
		<tag k="ssr:stedsnr" v="717253" />
	</node>
	<node id="-752795" lat="68.741536113" lon="16.9786694396">
		<tag k="name" v="Yttermarka" />
		<tag k="place" v="locality" />
		<tag k="ssr:stedsnr" v="716140" />
	</node>
	<node id="-752794" lat="68.7435388867" lon="16.9783527864">
		<tag k="name" v="Lembergan" />
		<tag k="natural" v="hill" />
		<tag k="place" v="locality" />
		<tag k="ssr:stedsnr" v="716098" />
	</node>
	<node id="-752793" lat="68.74848889" lon="17.0090888838">
		<tag k="fixme" v="consider natural=peak for the most distinct mountains in the district" />
		<tag k="name" v="Brekka" />
		<tag k="natural" v="hill" />
		<tag k="place" v="locality" />
		<tag k="ssr:stedsnr" v="716092" />
	</node>
	<node id="-752792" lat="68.7522694489" lon="17.0157888812">
		<tag k="name" v="Reingjerdan" />
		<tag k="natural" v="slope" />
		<tag k="place" v="locality" />
		<tag k="ssr:stedsnr" v="716088" />
	</node>
	<node id="-752790" lat="68.738805558" lon="16.869397234">
		<tag k="name" v="Storheia" />
		<tag k="natural" v="hill" />
		<tag k="place" v="locality" />
		<tag k="ssr:stedsnr" v="716042" />
	</node>
	<node id="-752789" lat="68.9196194418" lon="17.3568333362">
		<tag k="name" v="Dikhammaren" />
		<tag k="natural" v="hill" />
		<tag k="place" v="locality" />
		<tag k="ssr:stedsnr" v="595830" />
	</node>
	<node id="-752787" lat="68.8987777792" lon="17.3028333408">
		<tag k="name" v="Brattlia" />
		<tag k="natural" v="slope" />
		<tag k="place" v="locality" />
		<tag k="ssr:stedsnr" v="595814" />
	</node>
	<node id="-752784" lat="68.814186108" lon="17.1828222264">
		<tag k="alt_name" v="Innerkleiva" />
		<tag k="name" v="Innerkleiv" />
		<tag k="natural" v="hill" />
		<tag k="place" v="locality" />
		<tag k="ssr:stedsnr" v="697841" />
	</node>
	<node id="-752782" lat="68.8497861123" lon="16.9973194535">
		<tag k="name" v="Finnkonhella" />
		<tag k="place" v="locality" />
		<tag k="ssr:stedsnr" v="697273" />
	</node>
	<node id="-752778" lat="68.8938722181" lon="17.4045361166">
		<tag k="fixme" v="consider natural=peak for the most distinct mountains in the district" />
		<tag k="name" v="Brunan" />
		<tag k="natural" v="hill" />
		<tag k="place" v="locality" />
		<tag k="ssr:stedsnr" v="535778" />
	</node>
	<node id="-752777" lat="68.8938611079" lon="17.3931055604">
		<tag k="name" v="Reingjerdan" />
		<tag k="place" v="locality" />
		<tag k="ssr:stedsnr" v="535774" />
	</node>
	<node id="-752776" lat="68.8831111068" lon="17.4593138921">
		<tag k="fixme" v="consider natural=peak for the most distinct mountains in the district" />
		<tag k="name" v="Slompesteinfjellet" />
		<tag k="natural" v="hill" />
		<tag k="place" v="locality" />
		<tag k="ssr:stedsnr" v="535752" />
	</node>
	<node id="-752774" lat="68.8374305591" lon="17.3521472175">
		<tag k="name" v="Hamborgaksla" />
		<tag k="place" v="locality" />
		<tag k="ssr:stedsnr" v="535605" />
	</node>
	<node id="-752773" lat="68.82254444" lon="17.0500583344">
		<tag k="name" v="Hundberget" />
		<tag k="natural" v="hill" />
		<tag k="place" v="locality" />
		<tag k="ssr:stedsnr" v="535362" />
	</node>
	<node id="-752772" lat="68.8263472196" lon="17.0540083323">
		<tag k="name" v="Skokkelhågen" />
		<tag k="natural" v="hill" />
		<tag k="place" v="locality" />
		<tag k="ssr:stedsnr" v="535360" />
	</node>
	<node id="-752771" lat="68.8239083351" lon="17.0671083425">
		<tag k="name" v="Åsebakkan" />
		<tag k="natural" v="slope" />
		<tag k="place" v="locality" />
		<tag k="ssr:stedsnr" v="535356" />
	</node>
	<node id="-752770" lat="68.804705553" lon="17.2579944395">
		<tag k="name" v="Stakkevassbakken" />
		<tag k="natural" v="slope" />
		<tag k="place" v="locality" />
		<tag k="ssr:stedsnr" v="534641" />
	</node>
	<node id="-752769" lat="68.8031916707" lon="17.2632722295">
		<tag k="name" v="Flaten" />
		<tag k="place" v="locality" />
		<tag k="ssr:stedsnr" v="534632" />
	</node>
	<node id="-752764" lat="68.752572224" lon="16.8590111021">
		<tag k="name" v="Hammaren" />
		<tag k="natural" v="hill" />
		<tag k="place" v="locality" />
		<tag k="ssr:stedsnr" v="689425" />
	</node>
	<node id="-752759" lat="68.8013361142" lon="17.075694439">
		<tag k="alt_name" v="Kringelåsen" />
		<tag k="fixme" v="consider natural=peak for the most distinct mountains in the district" />
		<tag k="name" v="Kringleåsen" />
		<tag k="natural" v="hill" />
		<tag k="place" v="locality" />
		<tag k="ssr:stedsnr" v="685950" />
	</node>
	<node id="-752758" lat="68.7692638866" lon="17.0572083257">
		<tag k="fixme" v="consider natural=peak for the most distinct mountains in the district" />
		<tag k="name" v="Sæta" />
		<tag k="natural" v="hill" />
		<tag k="place" v="locality" />
		<tag k="ssr:stedsnr" v="685939" />
	</node>
	<node id="-752752" lat="68.8817472186" lon="17.448536119">
		<tag k="name" v="Kvalvikskaret" />
		<tag k="natural" v="valley" />
		<tag k="place" v="locality" />
		<tag k="ssr:stedsnr" v="685847" />
	</node>
	<node id="-752750" lat="68.7682472217" lon="17.1235194347">
		<tag k="fixme" v="consider natural=peak for the most distinct mountains in the district" />
		<tag k="name" v="Brattåsen" />
		<tag k="natural" v="hill" />
		<tag k="place" v="locality" />
		<tag k="ssr:stedsnr" v="685285" />
	</node>
	<node id="-752747" lat="68.8367416695" lon="17.306088882">
		<tag k="fixme" v="consider natural=peak for the most distinct mountains in the district" />
		<tag k="name" v="Snøtinden" />
		<tag k="natural" v="hill" />
		<tag k="place" v="locality" />
		<tag k="ssr:stedsnr" v="685195" />
	</node>
	<node id="-752746" lat="68.9236583345" lon="17.346516669">
		<tag k="name" v="Jomfruberget" />
		<tag k="natural" v="hill" />
		<tag k="place" v="locality" />
		<tag k="ssr:stedsnr" v="685134" />
	</node>
	<node id="-752743" lat="68.9069805566" lon="17.219508331">
		<tag k="name" v="Kolbotn" />
		<tag k="natural" v="valley" />
		<tag k="place" v="locality" />
		<tag k="ssr:stedsnr" v="474810" />
	</node>
	<node id="-752742" lat="68.8072499989" lon="17.1843722286">
		<tag k="alt_name" v="Hamran" />
		<tag k="name" v="Hammaren" />
		<tag k="natural" v="hill" />
		<tag k="place" v="locality" />
		<tag k="ssr:stedsnr" v="454436" />
	</node>
	<node id="-752738" lat="68.8484694442" lon="17.3867888911">
		<tag k="name" v="Brunen" />
		<tag k="natural" v="hill" />
		<tag k="place" v="locality" />
		<tag k="ssr:stedsnr" v="656820" />
	</node>
	<node id="-752736" lat="68.8718138886" lon="17.4757722094">
		<tag k="name" v="Einhågen" />
		<tag k="natural" v="hill" />
		<tag k="place" v="locality" />
		<tag k="ssr:stedsnr" v="656794" />
	</node>
	<node id="-752734" lat="68.8947027775" lon="17.4098305473">
		<tag k="name" v="Brattlandet" />
		<tag k="natural" v="slope" />
		<tag k="place" v="locality" />
		<tag k="ssr:stedsnr" v="656788" />
	</node>
	<node id="-752733" lat="68.9179722221" lon="17.3702166671">
		<tag k="name" v="Hatten" />
		<tag k="natural" v="hill" />
		<tag k="place" v="locality" />
		<tag k="ssr:stedsnr" v="656776" />
	</node>
	<node id="-752730" lat="68.9227249994" lon="17.1335000028">
		<tag k="name" v="Rødsteinkleiva" />
		<tag k="natural" v="slope" />
		<tag k="place" v="locality" />
		<tag k="ssr:stedsnr" v="656735" />
	</node>
	<node id="-752729" lat="68.9196694482" lon="17.1266138947">
		<tag k="name" v="Langholtet" />
		<tag k="natural" v="hill" />
		<tag k="place" v="locality" />
		<tag k="ssr:stedsnr" v="656730" />
	</node>
	<node id="-752728" lat="68.9011388857" lon="17.1453277844">
		<tag k="name" v="Nonskaret" />
		<tag k="natural" v="valley" />
		<tag k="place" v="locality" />
		<tag k="ssr:stedsnr" v="656696" />
	</node>
	<node id="-752727" lat="68.9149388922" lon="17.1530722102">
		<tag k="name" v="Munnhågen" />
		<tag k="natural" v="hill" />
		<tag k="place" v="locality" />
		<tag k="ssr:stedsnr" v="656689" />
	</node>
	<node id="-752725" lat="68.9145249985" lon="17.1289583387">
		<tag k="name" v="Ramsletta" />
		<tag k="place" v="locality" />
		<tag k="ssr:stedsnr" v="656680" />
	</node>
	<node id="-752724" lat="68.8079611113" lon="17.2521250081">
		<tag k="name" v="Kollan" />
		<tag k="natural" v="hill" />
		<tag k="place" v="locality" />
		<tag k="ssr:stedsnr" v="656648" />
	</node>
	<node id="-752722" lat="68.8230833345" lon="17.3460611067">
		<tag k="name" v="Lefsa" />
		<tag k="natural" v="slope" />
		<tag k="place" v="locality" />
		<tag k="ssr:stedsnr" v="656601" />
	</node>
	<node id="-752720" lat="68.8301555581" lon="17.0491222141">
		<tag k="fixme" v="consider natural=peak for the most distinct mountains in the district" />
		<tag k="name" v="Ramnfløyet" />
		<tag k="natural" v="hill" />
		<tag k="place" v="locality" />
		<tag k="ssr:stedsnr" v="656355" />
	</node>
	<node id="-752717" lat="68.7525777812" lon="17.0858222282">
		<tag k="name" v="Kumosletta" />
		<tag k="place" v="locality" />
		<tag k="ssr:stedsnr" v="656243" />
	</node>
	<node id="-752716" lat="68.8025499999" lon="17.0673055526">
		<tag k="name" v="Vedhågen" />
		<tag k="natural" v="hill" />
		<tag k="place" v="locality" />
		<tag k="ssr:stedsnr" v="656231" />
	</node>
	<node id="-752715" lat="68.8291638937" lon="17.0568749902">
		<tag k="name" v="Sandhågen" />
		<tag k="natural" v="hill" />
		<tag k="place" v="locality" />
		<tag k="ssr:stedsnr" v="656354" />
	</node>
	<node id="-752714" lat="68.8193138894" lon="17.0663583436">
		<tag k="name" v="Nattmålshågen" />
		<tag k="natural" v="hill" />
		<tag k="place" v="locality" />
		<tag k="ssr:stedsnr" v="656353" />
	</node>
	<node id="-752713" lat="68.8132250008" lon="17.0638333227">
		<tag k="name" v="Brekka" />
		<tag k="natural" v="hill" />
		<tag k="place" v="locality" />
		<tag k="ssr:stedsnr" v="656345" />
	</node>
	<node id="-752712" lat="68.7857861117" lon="17.149958323">
		<tag k="name" v="Skriverjorda" />
		<tag k="place" v="locality" />
		<tag k="ssr:stedsnr" v="656335" />
	</node>
	<node id="-752711" lat="68.7700777782" lon="17.1467083285">
		<tag k="name" v="Bølgebakken" />
		<tag k="natural" v="slope" />
		<tag k="place" v="locality" />
		<tag k="ssr:stedsnr" v="656323" />
	</node>
	<node id="-752710" lat="68.8522722222" lon="17.1742944533">
		<tag k="name" v="Gjerdshammaren" />
		<tag k="natural" v="hill" />
		<tag k="place" v="locality" />
		<tag k="ssr:stedsnr" v="656314" />
	</node>
	<node id="-752707" lat="68.9220111151" lon="17.2894000007">
		<tag k="name" v="Mossehågen" />
		<tag k="natural" v="hill" />
		<tag k="place" v="locality" />
		<tag k="ssr:stedsnr" v="655838" />
	</node>
	<node id="-752698" lat="68.8356388885" lon="17.0609750089">
		<tag k="name" v="Rønneglugget" />
		<tag k="natural" v="hill" />
		<tag k="place" v="locality" />
		<tag k="ssr:stedsnr" v="413329" />
	</node>
	<node id="-752697" lat="68.7953888897" lon="17.071024994">
		<tag k="fixme" v="consider natural=peak for the most distinct mountains in the district" />
		<tag k="name" v="Ryggen" />
		<tag k="natural" v="hill" />
		<tag k="place" v="locality" />
		<tag k="ssr:stedsnr" v="413319" />
	</node>
	<node id="-752696" lat="68.7918111072" lon="17.1023138947">
		<tag k="name" v="Vedhøggan" />
		<tag k="place" v="locality" />
		<tag k="ssr:stedsnr" v="413311" />
	</node>
	<node id="-752695" lat="68.7910527768" lon="17.0969138915">
		<tag k="name" v="Vakkerbakkan" />
		<tag k="natural" v="slope" />
		<tag k="place" v="locality" />
		<tag k="ssr:stedsnr" v="413307" />
	</node>
	<node id="-752694" lat="68.808966665" lon="17.1966444397">
		<tag k="name" v="Orrhågen" />
		<tag k="natural" v="hill" />
		<tag k="place" v="locality" />
		<tag k="ssr:stedsnr" v="413305" />
	</node>
	<node id="-752689" lat="68.787733335" lon="17.0463749967">
		<tag k="fixme" v="consider natural=peak for the most distinct mountains in the district" />
		<tag k="name" v="Mellatinden" />
		<tag k="natural" v="hill" />
		<tag k="place" v="locality" />
		<tag k="ssr:stedsnr" v="503951" />
	</node>
	<node id="-752688" lat="68.736008337" lon="16.8671416676">
		<tag k="fixme" v="consider natural=peak for the most distinct mountains in the district" />
		<tag k="name" v="Ramnfløya" />
		<tag k="natural" v="hill" />
		<tag k="place" v="locality" />
		<tag k="ssr:stedsnr" v="503887" />
	</node>
	<node id="-752687" lat="68.8749361102" lon="17.4500749905">
		<tag k="fixme" v="consider natural=peak for the most distinct mountains in the district" />
		<tag k="name" v="Nordkollen" />
		<tag k="natural" v="hill" />
		<tag k="place" v="locality" />
		<tag k="ssr:stedsnr" v="503730" />
	</node>
	<node id="-752686" lat="68.7831194426" lon="16.9401333425">
		<tag k="name" v="Strupen" />
		<tag k="natural" v="valley" />
		<tag k="place" v="locality" />
		<tag k="ssr:stedsnr" v="385465" />
	</node>
	<node id="-752676" lat="68.7385722232" lon="16.9140333305">
		<tag k="name" v="Lasselia" />
		<tag k="natural" v="slope" />
		<tag k="place" v="locality" />
		<tag k="ssr:stedsnr" v="352113" />
	</node>
	<node id="-752674" lat="68.8881972229" lon="17.2497111129">
		<tag k="name" v="Moen" />
		<tag k="place" v="locality" />
		<tag k="ssr:stedsnr" v="474876" />
	</node>
	<node id="-752673" lat="68.8920805592" lon="17.3574333403">
		<tag k="name" v="Rødsandhøgda" />
		<tag k="natural" v="hill" />
		<tag k="place" v="locality" />
		<tag k="ssr:stedsnr" v="474863" />
	</node>
	<node id="-752671" lat="68.8519055571" lon="17.4237666768">
		<tag k="name" v="Lia" />
		<tag k="natural" v="slope" />
		<tag k="place" v="locality" />
		<tag k="ssr:stedsnr" v="474798" />
	</node>
	<node id="-752669" lat="68.8454833293" lon="17.3758083273">
		<tag k="name" v="Langebakken" />
		<tag k="natural" v="slope" />
		<tag k="place" v="locality" />
		<tag k="ssr:stedsnr" v="474792" />
	</node>
	<node id="-752668" lat="68.8989972254" lon="17.3380722152">
		<tag k="name" v="Rødsandbotn" />
		<tag k="natural" v="valley" />
		<tag k="place" v="locality" />
		<tag k="ssr:stedsnr" v="474791" />
	</node>
	<node id="-752666" lat="68.8395805592" lon="17.3865777744">
		<tag k="name" v="Forraberget" />
		<tag k="natural" v="hill" />
		<tag k="place" v="locality" />
		<tag k="ssr:stedsnr" v="474777" />
	</node>
	<node id="-752665" lat="68.8897166642" lon="17.4165805639">
		<tag k="name" v="Johannalia" />
		<tag k="natural" v="slope" />
		<tag k="place" v="locality" />
		<tag k="ssr:stedsnr" v="474768" />
	</node>
	<node id="-752664" lat="68.8215388876" lon="17.195083338">
		<tag k="fixme" v="consider natural=peak for the most distinct mountains in the district" />
		<tag k="name" v="Klubben" />
		<tag k="natural" v="hill" />
		<tag k="place" v="locality" />
		<tag k="ssr:stedsnr" v="474738" />
	</node>
	<node id="-752662" lat="68.8674944477" lon="17.1356777712">
		<tag k="name" v="Storberget" />
		<tag k="natural" v="hill" />
		<tag k="place" v="locality" />
		<tag k="ssr:stedsnr" v="474710" />
	</node>
	<node id="-752660" lat="68.9139444446" lon="17.1360055427">
		<tag k="name" v="Rødbergan" />
		<tag k="natural" v="hill" />
		<tag k="place" v="locality" />
		<tag k="ssr:stedsnr" v="474684" />
	</node>
	<node id="-752659" lat="68.79794722" lon="17.2587222279">
		<tag k="name" v="Eineberget" />
		<tag k="natural" v="hill" />
		<tag k="place" v="locality" />
		<tag k="ssr:stedsnr" v="474664" />
	</node>
	<node id="-752657" lat="68.8062833343" lon="17.2676527774">
		<tag k="name" v="Labakken" />
		<tag k="natural" v="slope" />
		<tag k="place" v="locality" />
		<tag k="ssr:stedsnr" v="474648" />
	</node>
	<node id="-752655" lat="68.8133138883" lon="17.2490944319">
		<tag k="name" v="Kastarberget" />
		<tag k="natural" v="hill" />
		<tag k="place" v="locality" />
		<tag k="ssr:stedsnr" v="474638" />
	</node>
	<node id="-752654" lat="68.8170361077" lon="17.2451055628">
		<tag k="name" v="Botnlemman" />
		<tag k="natural" v="hill" />
		<tag k="place" v="locality" />
		<tag k="ssr:stedsnr" v="474637" />
	</node>
	<node id="-752653" lat="68.8294416671" lon="17.2112333233">
		<tag k="name" v="Aspedalen" />
		<tag k="natural" v="valley" />
		<tag k="place" v="locality" />
		<tag k="ssr:stedsnr" v="474631" />
	</node>
	<node id="-752651" lat="68.8859277755" lon="17.2030361074">
		<tag k="name" v="Kvannberget" />
		<tag k="natural" v="hill" />
		<tag k="place" v="locality" />
		<tag k="ssr:stedsnr" v="474584" />
	</node>
	<node id="-752649" lat="68.8122055597" lon="17.0361055612">
		<tag k="name" v="Djupedalen" />
		<tag k="natural" v="valley" />
		<tag k="place" v="locality" />
		<tag k="ssr:stedsnr" v="474511" />
	</node>
	<node id="-752647" lat="68.8171027792" lon="16.9960916661">
		<tag k="fixme" v="consider natural=peak for the most distinct mountains in the district" />
		<tag k="name" v="Stilkusvassbrekka" />
		<tag k="natural" v="hill" />
		<tag k="place" v="locality" />
		<tag k="ssr:stedsnr" v="474498" />
	</node>
	<node id="-752646" lat="68.8390499983" lon="16.9923055412">
		<tag k="name" v="Mølneberget" />
		<tag k="natural" v="hill" />
		<tag k="place" v="locality" />
		<tag k="ssr:stedsnr" v="474478" />
	</node>
	<node id="-752644" lat="68.8231361113" lon="17.0545055636">
		<tag k="name" v="Bolla-Storhågen" />
		<tag k="natural" v="hill" />
		<tag k="place" v="locality" />
		<tag k="ssr:stedsnr" v="474347" />
	</node>
	<node id="-752643" lat="68.7825777748" lon="17.1374111173">
		<tag k="fixme" v="consider natural=peak for the most distinct mountains in the district" />
		<tag k="name" v="Skrinnfjellet" />
		<tag k="natural" v="hill" />
		<tag k="place" v="locality" />
		<tag k="ssr:stedsnr" v="474331" />
	</node>
	<node id="-752642" lat="68.7746611138" lon="17.1319194535">
		<tag k="name" v="Løslian" />
		<tag k="natural" v="slope" />
		<tag k="place" v="locality" />
		<tag k="ssr:stedsnr" v="474317" />
	</node>
	<node id="-752641" lat="68.7726250025" lon="17.1764694528">
		<tag k="name" v="Holtejorda" />
		<tag k="place" v="locality" />
		<tag k="ssr:stedsnr" v="474316" />
	</node>
	<node id="-752640" lat="68.8313500035" lon="17.0689694356">
		<tag k="name" v="Laberget" />
		<tag k="natural" v="hill" />
		<tag k="place" v="locality" />
		<tag k="ssr:stedsnr" v="474309" />
	</node>
	<node id="-752639" lat="68.832822223" lon="17.1913083218">
		<tag k="name" v="Rabben" />
		<tag k="natural" v="hill" />
		<tag k="place" v="locality" />
		<tag k="ssr:stedsnr" v="474301" />
	</node>
	<node id="-752635" lat="68.7476222239" lon="17.0757638947">
		<tag k="name" v="Brattebakkan" />
		<tag k="natural" v="slope" />
		<tag k="place" v="locality" />
		<tag k="ssr:stedsnr" v="474272" />
	</node>
	<node id="-752633" lat="68.8556055579" lon="17.3028222265">
		<tag k="name" v="Benonlia" />
		<tag k="natural" v="slope" />
		<tag k="place" v="locality" />
		<tag k="ssr:stedsnr" v="473870" />
	</node>
	<node id="-752632" lat="68.9285388902" lon="17.2254666745">
		<tag k="name" v="Skarven" />
		<tag k="natural" v="hill" />
		<tag k="place" v="locality" />
		<tag k="ssr:stedsnr" v="473868" />
	</node>
	<node id="-752631" lat="68.9236583292" lon="17.2045805476">
		<tag k="name" v="Kviteberget" />
		<tag k="natural" v="hill" />
		<tag k="place" v="locality" />
		<tag k="ssr:stedsnr" v="473848" />
	</node>
	<node id="-752627" lat="68.7510944408" lon="16.984588893">
		<tag k="name" v="Russegrevdalen" />
		<tag k="natural" v="valley" />
		<tag k="place" v="locality" />
		<tag k="ssr:stedsnr" v="473115" />
	</node>
	<node id="-752625" lat="68.763613892" lon="16.974244449">
		<tag k="name" v="Langemyrbakkan" />
		<tag k="natural" v="slope" />
		<tag k="place" v="locality" />
		<tag k="ssr:stedsnr" v="473093" />
	</node>
	<node id="-752624" lat="68.7481833333" lon="16.9948416553">
		<tag k="name" v="Kolmyhågen" />
		<tag k="natural" v="hill" />
		<tag k="place" v="locality" />
		<tag k="ssr:stedsnr" v="473081" />
	</node>
	<node id="-752622" lat="68.726894448" lon="16.8376777885">
		<tag k="name" v="Nilsberget" />
		<tag k="natural" v="hill" />
		<tag k="place" v="locality" />
		<tag k="ssr:stedsnr" v="473051" />
	</node>
	<node id="-752619" lat="68.8633527741" lon="17.2528555534">
		<tag k="name" v="Kjerran" />
		<tag k="natural" v="slope" />
		<tag k="place" v="locality" />
		<tag k="ssr:stedsnr" v="291854" />
	</node>
	<node id="-752618" lat="68.7434111151" lon="16.9877638986">
		<tag k="name" v="Skaret" />
		<tag k="natural" v="valley" />
		<tag k="place" v="locality" />
		<tag k="ssr:stedsnr" v="291118" />
	</node>
	<node id="-752615" lat="68.8577361126" lon="17.2977750108">
		<tag k="name" v="Laberget" />
		<tag k="natural" v="hill" />
		<tag k="place" v="locality" />
		<tag k="ssr:stedsnr" v="272062" />
	</node>
	<node id="-752612" lat="68.8020500025" lon="16.9471638957">
		<tag k="fixme" v="consider natural=peak for the most distinct mountains in the district" />
		<tag k="name" v="Brokheia" />
		<tag k="natural" v="hill" />
		<tag k="place" v="locality" />
		<tag k="ssr:stedsnr" v="260246" />
	</node>
	<node id="-752607" lat="68.8858027779" lon="17.2340361015">
		<tag k="name" v="Blomli" />
		<tag k="natural" v="slope" />
		<tag k="place" v="locality" />
		<tag k="ssr:stedsnr" v="231909" />
	</node>
	<node id="-752605" lat="68.8727944425" lon="17.462722213">
		<tag k="name" v="Dalen" />
		<tag k="natural" v="valley" />
		<tag k="place" v="locality" />
		<tag k="ssr:stedsnr" v="231810" />
	</node>
	<node id="-752604" lat="68.8392166683" lon="17.2486416615">
		<tag k="name" v="Breilifatet" />
		<tag k="natural" v="hill" />
		<tag k="place" v="locality" />
		<tag k="ssr:stedsnr" v="231672" />
	</node>
	<node id="-752603" lat="68.9029333379" lon="17.1144916648">
		<tag k="name" v="Storliskaret" />
		<tag k="natural" v="valley" />
		<tag k="place" v="locality" />
		<tag k="ssr:stedsnr" v="231720" />
	</node>
	<node id="-752598" lat="68.8394444454" lon="17.0482416554">
		<tag k="name" v="Hjelmhågen" />
		<tag k="natural" v="hill" />
		<tag k="place" v="locality" />
		<tag k="ssr:stedsnr" v="231359" />
	</node>
	<node id="-752597" lat="68.7584833321" lon="17.0415138942">
		<tag k="name" v="Kviteberget" />
		<tag k="natural" v="hill" />
		<tag k="place" v="locality" />
		<tag k="ssr:stedsnr" v="231311" />
	</node>
	<node id="-752596" lat="68.750763893" lon="17.0515416576">
		<tag k="name" v="Olfinnkollen" />
		<tag k="natural" v="hill" />
		<tag k="place" v="locality" />
		<tag k="ssr:stedsnr" v="231306" />
	</node>
	<node id="-752595" lat="68.7496083298" lon="17.0084972259">
		<tag k="fixme" v="consider natural=peak for the most distinct mountains in the district" />
		<tag k="name" v="Gjerdryggen" />
		<tag k="natural" v="hill" />
		<tag k="place" v="locality" />
		<tag k="ssr:stedsnr" v="231108" />
	</node>
	<node id="-752594" lat="68.7460972203" lon="17.0193361031">
		<tag k="name" v="Melkebakkan" />
		<tag k="natural" v="slope" />
		<tag k="place" v="locality" />
		<tag k="ssr:stedsnr" v="231104" />
	</node>
	<node id="-752592" lat="68.8593750003" lon="17.234827778">
		<tag k="name" v="Slåstranddalen" />
		<tag k="natural" v="valley" />
		<tag k="place" v="locality" />
		<tag k="ssr:stedsnr" v="443223" />
	</node>
	<node id="-752590" lat="68.8198305512" lon="17.0242250075">
		<tag k="name" v="Fridalshøgda" />
		<tag k="natural" v="hill" />
		<tag k="place" v="locality" />
		<tag k="ssr:stedsnr" v="443190" />
	</node>
	<node id="-752589" lat="68.7576749993" lon="16.8916999862">
		<tag k="fixme" v="consider natural=peak for the most distinct mountains in the district" />
		<tag k="name" v="Rolla" />
		<tag k="natural" v="hill" />
		<tag k="place" v="locality" />
		<tag k="ssr:stedsnr" v="442996" />
	</node>
	<node id="-752582" lat="68.7450388865" lon="17.055961111">
		<tag k="name" v="Likberget" />
		<tag k="natural" v="hill" />
		<tag k="place" v="locality" />
		<tag k="ssr:stedsnr" v="442917" />
	</node>
	<node id="-752581" lat="68.8666749961" lon="17.4295388909">
		<tag k="name" v="Langlia" />
		<tag k="natural" v="slope" />
		<tag k="place" v="locality" />
		<tag k="ssr:stedsnr" v="442794" />
	</node>
	<node id="-752576" lat="68.9195027818" lon="17.1158500113">
		<tag k="name" v="Buberget" />
		<tag k="natural" v="hill" />
		<tag k="place" v="locality" />
		<tag k="ssr:stedsnr" v="442151" />
	</node>
	<node id="-752573" lat="68.8504055555" lon="17.030800007">
		<tag k="name" v="Brannen" />
		<tag k="natural" v="hill" />
		<tag k="place" v="locality" />
		<tag k="ssr:stedsnr" v="200219" />
	</node>
	<node id="-752571" lat="68.8626333291" lon="17.4006888953">
		<tag k="fixme" v="consider natural=peak for the most distinct mountains in the district" />
		<tag k="name" v="Kråkrøtinden" />
		<tag k="natural" v="hill" />
		<tag k="place" v="locality" />
		<tag k="ssr:stedsnr" v="200208" />
	</node>
	<node id="-752567" lat="68.8938333357" lon="17.3239805519">
		<tag k="name" v="Trollberget" />
		<tag k="natural" v="hill" />
		<tag k="place" v="locality" />
		<tag k="ssr:stedsnr" v="292868" />
	</node>
	<node id="-752566" lat="68.8942666693" lon="17.3348333199">
		<tag k="name" v="Rødsanden" />
		<tag k="natural" v="slope" />
		<tag k="place" v="locality" />
		<tag k="ssr:stedsnr" v="292867" />
	</node>
	<node id="-752564" lat="68.9225861138" lon="17.3021249896">
		<tag k="name" v="Seljeloftan" />
		<tag k="natural" v="hill" />
		<tag k="place" v="locality" />
		<tag k="ssr:stedsnr" v="292844" />
	</node>
	<node id="-752562" lat="68.8981777775" lon="17.2133722091">
		<tag k="name" v="Skjærbakkan" />
		<tag k="natural" v="slope" />
		<tag k="place" v="locality" />
		<tag k="ssr:stedsnr" v="292827" />
	</node>
	<node id="-752559" lat="68.8483638912" lon="17.3809388985">
		<tag k="name" v="Appelsinberget" />
		<tag k="natural" v="hill" />
		<tag k="place" v="locality" />
		<tag k="ssr:stedsnr" v="292806" />
	</node>
	<node id="-752558" lat="68.8889583302" lon="17.4344972233">
		<tag k="name" v="Torvhågen" />
		<tag k="natural" v="hill" />
		<tag k="place" v="locality" />
		<tag k="ssr:stedsnr" v="292795" />
	</node>
	<node id="-752557" lat="68.8681944398" lon="17.4642750054">
		<tag k="name" v="Blomlihammaren" />
		<tag k="natural" v="hill" />
		<tag k="place" v="locality" />
		<tag k="ssr:stedsnr" v="292772" />
	</node>
	<node id="-752556" lat="68.8741055603" lon="17.4589361038">
		<tag k="name" v="Forsalia" />
		<tag k="natural" v="slope" />
		<tag k="place" v="locality" />
		<tag k="ssr:stedsnr" v="292767" />
	</node>
	<node id="-752553" lat="68.8769666672" lon="17.1402750024">
		<tag k="name" v="Hestenesbakkan" />
		<tag k="natural" v="slope" />
		<tag k="place" v="locality" />
		<tag k="ssr:stedsnr" v="292731" />
	</node>
	<node id="-752552" lat="68.9230444466" lon="17.1249444378">
		<tag k="name" v="Hågen" />
		<tag k="natural" v="hill" />
		<tag k="place" v="locality" />
		<tag k="ssr:stedsnr" v="292711" />
	</node>
	<node id="-752550" lat="68.8608222192" lon="17.1764027813">
		<tag k="name" v="Svarteberget" />
		<tag k="natural" v="hill" />
		<tag k="place" v="locality" />
		<tag k="ssr:stedsnr" v="292686" />
	</node>
	<node id="-752549" lat="68.9049138913" lon="17.1347333315">
		<tag k="fixme" v="consider natural=peak for the most distinct mountains in the district" />
		<tag k="name" v="Heifjellet" />
		<tag k="natural" v="hill" />
		<tag k="place" v="locality" />
		<tag k="ssr:stedsnr" v="292654" />
	</node>
	<node id="-752547" lat="68.7967555526" lon="17.2560222105">
		<tag k="name" v="Teisteberget" />
		<tag k="natural" v="hill" />
		<tag k="place" v="locality" />
		<tag k="ssr:stedsnr" v="292639" />
	</node>
	<node id="-752545" lat="68.8407777797" lon="17.2635527705">
		<tag k="name" v="Skreddalen" />
		<tag k="natural" v="valley" />
		<tag k="place" v="locality" />
		<tag k="ssr:stedsnr" v="292604" />
	</node>
	<node id="-752542" lat="68.8283527762" lon="17.0296694499">
		<tag k="name" v="Breidalen" />
		<tag k="natural" v="valley" />
		<tag k="place" v="locality" />
		<tag k="ssr:stedsnr" v="292479" />
	</node>
	<node id="-752539" lat="68.7751472201" lon="17.1650749929">
		<tag k="name" v="Nøysomheten" />
		<tag k="place" v="locality" />
		<tag k="ssr:stedsnr" v="292305" />
	</node>
	<node id="-752537" lat="68.8500666638" lon="17.1802666719">
		<tag k="name" v="Ramnfløy" />
		<tag k="natural" v="hill" />
		<tag k="place" v="locality" />
		<tag k="ssr:stedsnr" v="292288" />
	</node>
	<node id="-752536" lat="68.7921861125" lon="17.0695638869">
		<tag k="name" v="Malenaheia" />
		<tag k="natural" v="hill" />
		<tag k="place" v="locality" />
		<tag k="ssr:stedsnr" v="292285" />
	</node>
	<node id="-752534" lat="68.8042388874" lon="17.0606416604">
		<tag k="name" v="Frimosletta" />
		<tag k="place" v="locality" />
		<tag k="ssr:stedsnr" v="292279" />
	</node>
	<node id="-752533" lat="68.7471472212" lon="17.0485388767">
		<tag k="fixme" v="consider natural=peak for the most distinct mountains in the district" />
		<tag k="name" v="Svarthollsfjellet" />
		<tag k="natural" v="hill" />
		<tag k="place" v="locality" />
		<tag k="ssr:stedsnr" v="292253" />
	</node>
	<node id="-752532" lat="68.7477972254" lon="17.1001916645">
		<tag k="name" v="Ryphågen" />
		<tag k="natural" v="hill" />
		<tag k="place" v="locality" />
		<tag k="ssr:stedsnr" v="292240" />
	</node>
	<node id="-752531" lat="68.908672222" lon="17.3954305651">
		<tag k="name" v="Henriklia" />
		<tag k="natural" v="slope" />
		<tag k="place" v="locality" />
		<tag k="ssr:stedsnr" v="292170" />
	</node>
	<node id="-752530" lat="68.7441916668" lon="16.9695083196">
		<tag k="name" v="Brattåskollen" />
		<tag k="natural" v="hill" />
		<tag k="place" v="locality" />
		<tag k="ssr:stedsnr" v="292073" />
	</node>
	<node id="-752529" lat="68.7874722252" lon="16.9642222332">
		<tag k="fixme" v="consider natural=peak for the most distinct mountains in the district" />
		<tag k="name" v="Brokheia" />
		<tag k="natural" v="hill" />
		<tag k="place" v="locality" />
		<tag k="ssr:stedsnr" v="291425" />
	</node>
	<node id="-752528" lat="68.7903777791" lon="16.9690138773">
		<tag k="fixme" v="consider natural=peak for the most distinct mountains in the district" />
		<tag k="name" v="Svartebergan" />
		<tag k="natural" v="hill" />
		<tag k="place" v="locality" />
		<tag k="ssr:stedsnr" v="291420" />
	</node>
	<node id="-752527" lat="68.745536107" lon="16.9778888903">
		<tag k="name" v="Storhågen" />
		<tag k="natural" v="hill" />
		<tag k="place" v="locality" />
		<tag k="ssr:stedsnr" v="291087" />
	</node>
	<node id="-752526" lat="68.7599861118" lon="16.9836500044">
		<tag k="fixme" v="consider natural=peak for the most distinct mountains in the district" />
		<tag k="name" v="Mevassheia" />
		<tag k="natural" v="hill" />
		<tag k="place" v="locality" />
		<tag k="ssr:stedsnr" v="291070" />
	</node>
	<node id="-752524" lat="68.7592777821" lon="17.0366138928">
		<tag k="name" v="Kvitebergdalen" />
		<tag k="natural" v="valley" />
		<tag k="place" v="locality" />
		<tag k="ssr:stedsnr" v="291061" />
	</node>
	<node id="-752523" lat="68.7455027749" lon="16.9937861208">
		<tag k="name" v="Resmålshågen" />
		<tag k="natural" v="hill" />
		<tag k="place" v="locality" />
		<tag k="ssr:stedsnr" v="291060" />
	</node>
	<node id="-752520" lat="68.7832777803" lon="16.9261999933">
		<tag k="fixme" v="consider natural=peak for the most distinct mountains in the district" />
		<tag k="name" v="Høgda" />
		<tag k="natural" v="hill" />
		<tag k="place" v="locality" />
		<tag k="ssr:stedsnr" v="170440" />
	</node>
	<node id="-752519" lat="68.7306333315" lon="16.8597000063">
		<tag k="name" v="Hammaren" />
		<tag k="natural" v="hill" />
		<tag k="place" v="locality" />
		<tag k="ssr:stedsnr" v="170043" />
	</node>
	<node id="-752518" lat="68.731433334" lon="16.8648722256">
		<tag k="fixme" v="consider natural=peak for the most distinct mountains in the district" />
		<tag k="name" v="Lille Ramnfløyet" />
		<tag k="natural" v="hill" />
		<tag k="place" v="locality" />
		<tag k="ssr:stedsnr" v="170042" />
	</node>
	<node id="-752515" lat="68.8154250034" lon="17.2264583279">
		<tag k="name" v="Snebakken" />
		<tag k="natural" v="slope" />
		<tag k="place" v="locality" />
		<tag k="ssr:stedsnr" v="147704" />
	</node>
	<node id="-752507" lat="68.8218277783" lon="17.2157611089">
		<tag k="name" v="Ånstadbotn" />
		<tag k="natural" v="valley" />
		<tag k="place" v="locality" />
		<tag k="ssr:stedsnr" v="263273" />
	</node>
	<node id="-752505" lat="68.8448805542" lon="17.4026999968">
		<tag k="name" v="Storhågen" />
		<tag k="natural" v="hill" />
		<tag k="place" v="locality" />
		<tag k="ssr:stedsnr" v="110825" />
	</node>
	<node id="-752504" lat="68.8912500033" lon="17.4039277734">
		<tag k="name" v="Steinliberget" />
		<tag k="natural" v="hill" />
		<tag k="place" v="locality" />
		<tag k="ssr:stedsnr" v="110809" />
	</node>
	<node id="-752503" lat="68.8949944482" lon="17.2617305496">
		<tag k="name" v="Knubban" />
		<tag k="natural" v="hill" />
		<tag k="place" v="locality" />
		<tag k="ssr:stedsnr" v="110902" />
	</node>
	<node id="-752502" lat="68.8020388869" lon="17.0166805535">
		<tag k="fixme" v="consider natural=peak for the most distinct mountains in the district" />
		<tag k="name" v="Bjørnen" />
		<tag k="natural" v="hill" />
		<tag k="place" v="locality" />
		<tag k="ssr:stedsnr" v="110407" />
	</node>
	<node id="-752501" lat="68.8044861101" lon="17.0250111108">
		<tag k="name" v="Mathågen" />
		<tag k="natural" v="hill" />
		<tag k="place" v="locality" />
		<tag k="ssr:stedsnr" v="110405" />
	</node>
	<node id="-752499" lat="68.810266671" lon="16.9862027782">
		<tag k="name" v="Svarthollbakkan" />
		<tag k="natural" v="slope" />
		<tag k="place" v="locality" />
		<tag k="ssr:stedsnr" v="110511" />
	</node>
	<node id="-752498" lat="68.7274611112" lon="16.8794916556">
		<tag k="fixme" v="consider natural=peak for the most distinct mountains in the district" />
		<tag k="name" v="Kovan" />
		<tag k="natural" v="hill" />
		<tag k="place" v="locality" />
		<tag k="ssr:stedsnr" v="110042" />
	</node>
	<node id="-752497" lat="68.7409777752" lon="16.8685972122">
		<tag k="name" v="Rødsanddalen" />
		<tag k="natural" v="valley" />
		<tag k="place" v="locality" />
		<tag k="ssr:stedsnr" v="110037" />
	</node>
	<node id="-752495" lat="68.7602500038" lon="16.9167555535">
		<tag k="alt_name" v="Mikkelholla" />
		<tag k="name" v="Mikkelhola" />
		<tag k="natural" v="valley" />
		<tag k="place" v="locality" />
		<tag k="ssr:stedsnr" v="260991" />
	</node>
	<node id="-752493" lat="68.7979027807" lon="17.0282388831">
		<tag k="fixme" v="consider natural=peak for the most distinct mountains in the district" />
		<tag k="name" v="Aksla" />
		<tag k="natural" v="hill" />
		<tag k="place" v="locality" />
		<tag k="ssr:stedsnr" v="260970" />
	</node>
	<node id="-752487" lat="68.8653611109" lon="17.4398361017">
		<tag k="fixme" v="consider natural=peak for the most distinct mountains in the district" />
		<tag k="name" v="Reintinden" />
		<tag k="natural" v="hill" />
		<tag k="place" v="locality" />
		<tag k="ssr:stedsnr" v="260796" />
	</node>
	<node id="-752482" lat="68.9054583369" lon="17.1127472121">
		<tag k="name" v="Klubban" />
		<tag k="natural" v="hill" />
		<tag k="place" v="locality" />
		<tag k="ssr:stedsnr" v="260288" />
	</node>
	<node id="-752481" lat="68.8549333308" lon="17.3658749853">
		<tag k="fixme" v="consider natural=peak for the most distinct mountains in the district" />
		<tag k="name" v="Botntinden" />
		<tag k="natural" v="hill" />
		<tag k="ssr:stedsnr" v="260287" />
	</node>
	<node id="-752480" lat="68.8678722213" lon="17.3873638876">
		<tag k="fixme" v="consider natural=peak for the most distinct mountains in the district" />
		<tag k="name" v="Langlitinden" />
		<tag k="natural" v="hill" />
		<tag k="place" v="locality" />
		<tag k="ssr:stedsnr" v="260277" />
	</node>
	<node id="-752477" lat="68.8425361126" lon="17.2527527653">
		<tag k="fixme" v="consider natural=peak for the most distinct mountains in the district" />
		<tag k="name" v="Ristinden" />
		<tag k="natural" v="hill" />
		<tag k="place" v="locality" />
		<tag k="ssr:stedsnr" v="260263" />
	</node>
	<node id="-752474" lat="68.7270861087" lon="16.8602972187">
		<tag k="name" v="Kleiva" />
		<tag k="natural" v="hill" />
		<tag k="place" v="locality" />
		<tag k="ssr:stedsnr" v="82003" />
	</node>
	<node id="-752472" lat="68.824986112" lon="16.9745222088">
		<tag k="name" v="Mulheia" />
		<tag k="natural" v="hill" />
		<tag k="place" v="locality" />
		<tag k="ssr:stedsnr" v="79205" />
	</node>
	<node id="-752470" lat="68.8806861141" lon="17.3061139007">
		<tag k="fixme" v="consider natural=peak for the most distinct mountains in the district" />
		<tag k="name" v="Vasskartinden" />
		<tag k="natural" v="hill" />
		<tag k="place" v="locality" />
		<tag k="ssr:stedsnr" v="78273" />
	</node>
	<node id="-752469" lat="68.9073833359" lon="17.2971361038">
		<tag k="fixme" v="consider natural=peak for the most distinct mountains in the district" />
		<tag k="name" v="Rundtinden" />
		<tag k="natural" v="hill" />
		<tag k="ssr:stedsnr" v="78268" />
	</node>
	<node id="-752464" lat="68.893466663" lon="17.3539222276">
		<tag k="name" v="Svarthammaren" />
		<tag k="natural" v="hill" />
		<tag k="place" v="locality" />
		<tag k="ssr:stedsnr" v="50851" />
	</node>
	<node id="-752462" lat="68.8757361078" lon="17.2745638788">
		<tag k="name" v="Storhågen" />
		<tag k="natural" v="hill" />
		<tag k="place" v="locality" />
		<tag k="ssr:stedsnr" v="231885" />
	</node>
	<node id="-752461" lat="68.8936527771" lon="17.3456500001">
		<tag k="alt_name" v="Rødhompen" />
		<tag k="name" v="Rødhumpen" />
		<tag k="natural" v="hill" />
		<tag k="place" v="locality" />
		<tag k="ssr:stedsnr" v="231880" />
	</node>
	<node id="-752460" lat="68.8925972257" lon="17.4127138794">
		<tag k="name" v="Steinlia" />
		<tag k="natural" v="slope" />
		<tag k="place" v="locality" />
		<tag k="ssr:stedsnr" v="231798" />
	</node>
	<node id="-752459" lat="68.9132333309" lon="17.3857083326">
		<tag k="fixme" v="consider natural=peak for the most distinct mountains in the district" />
		<tag k="name" v="Bukkefjellet" />
		<tag k="natural" v="hill" />
		<tag k="place" v="locality" />
		<tag k="ssr:stedsnr" v="231786" />
	</node>
	<node id="-752458" lat="68.8534666641" lon="17.4147916756">
		<tag k="name" v="Skreddalen" />
		<tag k="natural" v="valley" />
		<tag k="place" v="locality" />
		<tag k="ssr:stedsnr" v="231839" />
	</node>
	<node id="-752457" lat="68.8488194463" lon="17.409141656">
		<tag k="name" v="Spunsebergan" />
		<tag k="natural" v="hill" />
		<tag k="place" v="locality" />
		<tag k="ssr:stedsnr" v="231836" />
	</node>
	<node id="-752456" lat="68.8682055531" lon="17.1560638829">
		<tag k="name" v="Gråberget" />
		<tag k="natural" v="hill" />
		<tag k="place" v="locality" />
		<tag k="ssr:stedsnr" v="231746" />
	</node>
	<node id="-752455" lat="68.9052722239" lon="17.1504861184">
		<tag k="name" v="Heia" />
		<tag k="natural" v="hill" />
		<tag k="place" v="locality" />
		<tag k="ssr:stedsnr" v="231731" />
	</node>
	<node id="-752454" lat="68.8279916646" lon="17.3311638844">
		<tag k="name" v="Pessebotn" />
		<tag k="natural" v="valley" />
		<tag k="place" v="locality" />
		<tag k="ssr:stedsnr" v="231644" />
	</node>
	<node id="-752452" lat="68.890641663" lon="17.1337555583">
		<tag k="name" v="Heia" />
		<tag k="natural" v="hill" />
		<tag k="place" v="locality" />
		<tag k="ssr:stedsnr" v="231783" />
	</node>
	<node id="-752451" lat="68.87871944" lon="17.1836833391">
		<tag k="name" v="Arvebakkan" />
		<tag k="natural" v="slope" />
		<tag k="place" v="locality" />
		<tag k="ssr:stedsnr" v="231779" />
	</node>
	<node id="-752449" lat="68.8270972236" lon="17.1872194431">
		<tag k="name" v="Falkeleiken" />
		<tag k="natural" v="hill" />
		<tag k="place" v="locality" />
		<tag k="ssr:stedsnr" v="231769" />
	</node>
	<node id="-752448" lat="68.8057361092" lon="17.2104860984">
		<tag k="name" v="Kviteberget" />
		<tag k="natural" v="hill" />
		<tag k="place" v="locality" />
		<tag k="ssr:stedsnr" v="231695" />
	</node>
	<node id="-752446" lat="68.8269361077" lon="17.3555277772">
		<tag k="name" v="Ramneberget" />
		<tag k="natural" v="hill" />
		<tag k="place" v="locality" />
		<tag k="ssr:stedsnr" v="231683" />
	</node>
	<node id="-752445" lat="68.8479722235" lon="17.3451166628">
		<tag k="name" v="Straumskaret" />
		<tag k="natural" v="valley" />
		<tag k="place" v="locality" />
		<tag k="ssr:stedsnr" v="231679" />
	</node>
	<node id="-752442" lat="68.8483444477" lon="17.0076222244">
		<tag k="name" v="Boltskaret" />
		<tag k="natural" v="valley" />
		<tag k="place" v="locality" />
		<tag k="ssr:stedsnr" v="231519" />
	</node>
	<node id="-752441" lat="68.8376638879" lon="16.9820250023">
		<tag k="name" v="Mølneshågen" />
		<tag k="natural" v="hill" />
		<tag k="place" v="locality" />
		<tag k="ssr:stedsnr" v="231518" />
	</node>
	<node id="-752438" lat="68.8165666641" lon="17.0345222245">
		<tag k="name" v="Høgda" />
		<tag k="natural" v="hill" />
		<tag k="place" v="locality" />
		<tag k="ssr:stedsnr" v="231577" />
	</node>
	<node id="-752435" lat="68.7702194472" lon="17.1053249925">
		<tag k="name" v="Vasslian" />
		<tag k="natural" v="slope" />
		<tag k="place" v="locality" />
		<tag k="ssr:stedsnr" v="231325" />
	</node>
	<node id="-752434" lat="68.7683416712" lon="17.1019305487">
		<tag k="alt_name" v="Svarthompen" />
		<tag k="name" v="Svarthumpen" />
		<tag k="natural" v="hill" />
		<tag k="place" v="locality" />
		<tag k="ssr:stedsnr" v="231323" />
	</node>
	<node id="-752432" lat="68.8308472194" lon="17.0587944325">
		<tag k="name" v="Lille Ramnfløyet" />
		<tag k="natural" v="hill" />
		<tag k="place" v="locality" />
		<tag k="ssr:stedsnr" v="231385" />
	</node>
	<node id="-752431" lat="68.8236666676" lon="17.0603361116">
		<tag k="fixme" v="consider natural=peak for the most distinct mountains in the district" />
		<tag k="name" v="Skolten" />
		<tag k="natural" v="hill" />
		<tag k="place" v="locality" />
		<tag k="ssr:stedsnr" v="231382" />
	</node>
	<node id="-752430" lat="68.8208111103" lon="17.064338899">
		<tag k="name" v="Steinbakkan" />
		<tag k="natural" v="slope" />
		<tag k="place" v="locality" />
		<tag k="ssr:stedsnr" v="231376" />
	</node>
	<node id="-752429" lat="68.8107472219" lon="17.0566833365">
		<tag k="name" v="Borga" />
		<tag k="natural" v="hill" />
		<tag k="place" v="locality" />
		<tag k="ssr:stedsnr" v="231375" />
	</node>
	<node id="-752428" lat="68.7718249968" lon="17.1420222251">
		<tag k="name" v="Middagshågen" />
		<tag k="natural" v="hill" />
		<tag k="place" v="locality" />
		<tag k="ssr:stedsnr" v="231367" />
	</node>
	<node id="-752427" lat="68.7461555586" lon="17.0137277679">
		<tag k="name" v="Hestelia" />
		<tag k="natural" v="slope" />
		<tag k="place" v="locality" />
		<tag k="ssr:stedsnr" v="231095" />
	</node>
	<node id="-752425" lat="68.728358335" lon="16.8864222098">
		<tag k="name" v="Memarka" />
		<tag k="natural" v="slope" />
		<tag k="place" v="locality" />
		<tag k="ssr:stedsnr" v="231124" />
	</node>
	<node id="-752424" lat="68.8690444407" lon="17.2830305642">
		<tag k="name" v="Innerbogen" />
		<tag k="natural" v="slope" />
		<tag k="place" v="locality" />
		<tag k="ssr:stedsnr" v="230842" />
	</node>
	<node id="-752423" lat="68.9273222263" lon="17.254441669">
		<tag k="name" v="Storhågen" />
		<tag k="natural" v="hill" />
		<tag k="place" v="locality" />
		<tag k="ssr:stedsnr" v="230833" />
	</node>
</osm>
