<?xml version="1.0" encoding="UTF-8"?>
<osm version="0.6" generator="osmapis">
	<node lat="68.87254722201502" lon="17.26675000627488" id="-96983">
		<tag k="name" v="Koggelbogneset" />
		<tag k="natural" v="cape" />
		<tag k="ssr:stedsnr" v="230827" />
	</node>
	<node lat="68.85147777757038" lon="17.16412777552478" id="-96990">
		<tag k="fixme" v="consider seamark:type=rock or natural=shoal" />
		<tag k="name" v="Tangskjæret" />
		<tag k="place" v="islet" />
		<tag k="ssr:stedsnr" v="231349" />
	</node>
	<node lat="68.80131667087228" lon="17.200352773866715" id="-97001">
		<tag k="name" v="Leirholla" />
		<tag k="natural" v="bay" />
		<tag k="ssr:stedsnr" v="231688" />
	</node>
	<node lat="68.88103333365729" lon="17.474205544528832" id="-97011">
		<tag k="alt_name" v="Grasvika" />
		<tag k="name" v="Gressvika" />
		<tag k="natural" v="bay" />
		<tag k="ssr:stedsnr" v="17809" />
	</node>
	<node lat="68.77405833301863" lon="17.18268332295022" id="-97013">
		<tag k="name" v="Kipertneset" />
		<tag k="natural" v="cape" />
		<tag k="ssr:stedsnr" v="17959" />
	</node>
	<node lat="68.84821389066292" lon="17.044361119107418" id="-97016">
		<tag k="name" v="Selvågen" />
		<tag k="natural" v="bay" />
		<tag k="ssr:stedsnr" v="18208" />
	</node>
	<node lat="68.74140000113431" lon="16.983405556626817" id="-97019">
		<tag k="fixme" v="consider seamark:type=rock or natural=shoal" />
		<tag k="name" v="Skjeret" />
		<tag k="place" v="islet" />
		<tag k="ssr:stedsnr" v="29407" />
	</node>
	<node lat="68.89048055547369" lon="17.42602500944952" id="-97028">
		<tag k="name" v="Neset" />
		<tag k="natural" v="cape" />
		<tag k="ssr:stedsnr" v="49778" />
	</node>
	<node lat="68.87753332980728" lon="17.22267776526782" id="-97032">
		<tag k="name" v="Sandneset" />
		<tag k="natural" v="cape" />
		<tag k="ssr:stedsnr" v="50869" />
	</node>
	<node lat="68.921541668274" lon="17.198933329864637" id="-97044">
		<tag k="name" v="Klåpneset" />
		<tag k="natural" v="cape" />
		<tag k="ssr:stedsnr" v="90727" />
	</node>
	<node lat="68.80593610799478" lon="17.294105559473667" id="-97053">
		<tag k="name" v="Sætervika" />
		<tag k="natural" v="bay" />
		<tag k="ssr:stedsnr" v="110671" />
	</node>
	<node lat="68.90786111105446" lon="17.19717500346071" id="-97054">
		<tag k="name" v="Nessan" />
		<tag k="natural" v="cape" />
		<tag k="ssr:stedsnr" v="110683" />
	</node>
	<node lat="68.90578888639841" lon="17.10054167461876" id="-97055">
		<tag k="name" v="Leneset" />
		<tag k="natural" v="cape" />
		<tag k="ssr:stedsnr" v="110690" />
	</node>
	<node lat="68.81690833516298" lon="17.09655000310533" id="-97062">
		<tag k="name" v="Dyrstadholmen" />
		<tag k="place" v="islet" />
		<tag k="ssr:stedsnr" v="139190" />
	</node>
	<node lat="68.79219999713453" lon="17.15293055033456" id="-97070">
		<tag k="name" v="Ibestadbukta" />
		<tag k="natural" v="bay" />
		<tag k="ssr:stedsnr" v="150415" />
	</node>
	<node lat="68.83669166310506" lon="17.089308333589294" id="-97072">
		<tag k="name" v="Bollagrunnen" />
		<tag k="natural" v="shoal" />
		<tag k="place" v="locality" />
		<tag k="ssr:stedsnr" v="151004" />
	</node>
	<node lat="68.87625000233746" lon="17.485572217362105" id="-97083">
		<tag k="alt_name" v="Langeneset" />
		<tag k="name" v="Langneset" />
		<tag k="natural" v="cape" />
		<tag k="ssr:stedsnr" v="260341" />
	</node>
	<node lat="68.77509721849047" lon="16.867230559355274" id="-97090">
		<tag k="name" v="Dyngenesgrunnen" />
		<tag k="natural" v="shoal" />
		<tag k="place" v="locality" />
		<tag k="ssr:stedsnr" v="260965" />
	</node>
	<node lat="68.82459166735437" lon="17.359672223793027" id="-97093">
		<tag k="name" v="Sandvika" />
		<tag k="natural" v="bay" />
		<tag k="ssr:stedsnr" v="170804" />
	</node>
	<node lat="68.73982778246099" lon="16.972733329759432" id="-97109">
		<tag k="alt_name" v="Ausa" />
		<tag k="name" v="Auseneset" />
		<tag k="natural" v="cape" />
		<tag k="ssr:stedsnr" v="200913" />
	</node>
	<node lat="68.78798333231951" lon="17.19469722516678" id="-97113">
		<tag k="name" v="Småseigrunnen" />
		<tag k="natural" v="shoal" />
		<tag k="place" v="locality" />
		<tag k="ssr:stedsnr" v="208402" />
	</node>
	<node lat="68.7604666629145" lon="17.158872218103625" id="-97114">
		<tag k="fixme" v="consider seamark:type=rock or natural=shoal" />
		<tag k="name" v="Parteskjæret" />
		<tag k="place" v="islet" />
		<tag k="ssr:stedsnr" v="212407" />
	</node>
	<node lat="68.83066944208456" lon="16.824133335635295" id="-97115">
		<tag k="name" v="Mefjerdingen" />
		<tag k="natural" v="shoal" />
		<tag k="place" v="locality" />
		<tag k="ssr:stedsnr" v="269750" />
	</node>
	<node lat="68.84089721807474" lon="16.976972222243845" id="-97130">
		<tag k="name" v="Kalkenesvika" />
		<tag k="natural" v="bay" />
		<tag k="ssr:stedsnr" v="231520" />
	</node>
	<node lat="68.85390000046768" lon="17.451152786604236" id="-97134">
		<tag k="fixme" v="consider seamark:type=rock or natural=shoal" />
		<tag k="name" v="Møysteinen" />
		<tag k="place" v="islet" />
		<tag k="ssr:stedsnr" v="231784" />
	</node>
	<node lat="68.72341111266422" lon="16.827111100878724" id="-97144">
		<tag k="name" v="Øyra" />
		<tag k="natural" v="shoal" />
		<tag k="place" v="locality" />
		<tag k="ssr:stedsnr" v="454486" />
	</node>
	<node lat="68.89702777911363" lon="17.57659721844176" id="-97147">
		<tag k="bay" v="fjord" />
		<tag k="name" v="Salangen" />
		<tag k="name:no" v="Salangen" />
		<tag k="name:se" v="Siellakvuotna" />
		<tag k="natural" v="bay" />
		<tag k="ssr:stedsnr" v="260857" />
	</node>
	<node lat="68.86910000238106" lon="17.04292500624122" id="-97167">
		<tag k="name" v="Vadskjærgrunnen" />
		<tag k="natural" v="shoal" />
		<tag k="place" v="locality" />
		<tag k="ssr:stedsnr" v="333019" />
	</node>
	<node lat="68.74480000262228" lon="17.034919433519704" id="-97172">
		<tag k="name" v="Bukkhellan" />
		<tag k="natural" v="beach" />
		<tag k="ssr:stedsnr" v="473145" />
	</node>
	<node lat="68.92625833055365" lon="17.277050000986737" id="-97174">
		<tag k="name" v="Sildvika" />
		<tag k="natural" v="bay" />
		<tag k="ssr:stedsnr" v="473847" />
	</node>
	<node lat="68.91764444681105" lon="17.116125011288556" id="-97176">
		<tag k="name" v="Kråkeboren" />
		<tag k="natural" v="cape" />
		<tag k="ssr:stedsnr" v="474732" />
	</node>
	<node lat="68.79157777908894" lon="17.164297230657976" id="-97182">
		<tag k="name" v="Lille Årneset" />
		<tag k="natural" v="cape" />
		<tag k="ssr:stedsnr" v="352263" />
	</node>
	<node lat="68.89020277680775" lon="17.22407499356754" id="-97209">
		<tag k="name" v="Sollineset" />
		<tag k="natural" v="cape" />
		<tag k="ssr:stedsnr" v="474583" />
	</node>
	<node lat="68.82674166741968" lon="17.365711098021027" id="-97220">
		<tag k="name" v="Reinskinnvika" />
		<tag k="natural" v="bay" />
		<tag k="ssr:stedsnr" v="474783" />
	</node>
	<node lat="68.86217500042251" lon="17.04862778529096" id="-97235">
		<tag k="fixme" v="consider seamark:type=rock or natural=shoal" />
		<tag k="name" v="Gårdsskjæran" />
		<tag k="place" v="islet" />
		<tag k="ssr:stedsnr" v="394006" />
	</node>
	<node lat="68.87940555899021" lon="17.216819442299467" id="-97237">
		<tag k="name" v="Storbergvika" />
		<tag k="natural" v="bay" />
		<tag k="ssr:stedsnr" v="394834" />
	</node>
	<node lat="68.84020277479237" lon="17.405944450776744" id="-97238">
		<tag k="name" v="Storelvgrunnen" />
		<tag k="natural" v="shoal" />
		<tag k="place" v="locality" />
		<tag k="ssr:stedsnr" v="272083" />
	</node>
	<node lat="68.84882500444665" lon="17.043444433369366" id="-97243">
		<tag k="name" v="Stokkestranda" />
		<tag k="natural" v="beach" />
		<tag k="ssr:stedsnr" v="413335" />
	</node>
	<node lat="68.84155000248215" lon="17.06393332861535" id="-97244">
		<tag k="fixme" v="consider seamark:type=rock or natural=shoal" />
		<tag k="name" v="Tretteskjæret" />
		<tag k="place" v="islet" />
		<tag k="ssr:stedsnr" v="413340" />
	</node>
	<node lat="68.76354999573653" lon="17.170222226706496" id="-97257">
		<tag k="name" v="Storvikklubben" />
		<tag k="natural" v="cape" />
		<tag k="ssr:stedsnr" v="442992" />
	</node>
	<node lat="68.79188611566452" lon="17.17468610951511" id="-97260">
		<tag k="name" v="Årneset" />
		<tag k="natural" v="cape" />
		<tag k="ssr:stedsnr" v="454409" />
	</node>
	<node lat="68.85144999739869" lon="17.44116389308035" id="-97261">
		<tag k="name" v="Hysesteinen" />
		<tag k="natural" v="shoal" />
		<tag k="place" v="locality" />
		<tag k="ssr:stedsnr" v="455079" />
	</node>
	<node lat="68.86901666499739" lon="17.132369445635227" id="-97273">
		<tag k="name" v="Holmen" />
		<tag k="place" v="islet" />
		<tag k="ssr:stedsnr" v="474707" />
	</node>
	<node lat="68.80444999826302" lon="16.934283338173614" id="-97276">
		<tag k="name" v="Kvalen" />
		<tag k="natural" v="cape" />
		<tag k="ssr:stedsnr" v="502183" />
	</node>
	<node lat="68.75588055973961" lon="17.17436389288695" id="-97278">
		<tag k="name" v="Skallen" />
		<tag k="natural" v="shoal" />
		<tag k="place" v="locality" />
		<tag k="ssr:stedsnr" v="515416" />
	</node>
	<node lat="68.88404999723075" lon="17.127824987308024" id="-97282">
		<tag k="name" v="Molvikhammaren" />
		<tag k="natural" v="cape" />
		<tag k="ssr:stedsnr" v="685232" />
	</node>
	<node lat="68.88090833199001" lon="17.052177784789475" id="-97283">
		<tag k="name" v="Fjellgrunnen" />
		<tag k="natural" v="shoal" />
		<tag k="place" v="locality" />
		<tag k="ssr:stedsnr" v="685236" />
	</node>
	<node lat="68.73320277539463" lon="16.925088890043174" id="-97287">
		<tag k="name" v="Halsen" />
		<tag k="natural" v="cape" />
		<tag k="ssr:stedsnr" v="685915" />
	</node>
	<node lat="68.77763889084545" lon="16.914816672033453" id="-97293">
		<tag k="name" v="Hallevika" />
		<tag k="natural" v="bay" />
		<tag k="ssr:stedsnr" v="685971" />
	</node>
	<node lat="68.83312777836792" lon="17.184436113471182" id="-97303">
		<tag k="name" v="Stranda" />
		<tag k="natural" v="beach" />
		<tag k="ssr:stedsnr" v="535319" />
	</node>
	<node lat="68.83845278120818" lon="17.39706388031516" id="-97314">
		<tag k="name" v="Båtvika" />
		<tag k="natural" v="bay" />
		<tag k="ssr:stedsnr" v="575058" />
	</node>
	<node lat="68.9054944467566" lon="17.175466662486002" id="-97315">
		<tag k="name" v="Hamna" />
		<tag k="natural" v="bay" />
		<tag k="ssr:stedsnr" v="576844" />
	</node>
	<node lat="68.8000444479498" lon="17.27381111097839" id="-97316">
		<tag k="alt_name" v="Kleivberget" />
		<tag k="name" v="Kleberget" />
		<tag k="natural" v="cape" />
		<tag k="ssr:stedsnr" v="696996" />
	</node>
	<node lat="68.83857499611064" lon="17.176702767410543" id="-97317">
		<tag k="fixme" v="multiple name tags, choose one and add the other to alt_name" />
		<tag k="name" v="Neset;Ytteråneset" />
		<tag k="natural" v="cape" />
		<tag k="ssr:stedsnr" v="697173" />
	</node>
	<node lat="68.87227221886761" lon="17.019963896233325" id="-97319">
		<tag k="fixme" v="consider seamark:type=rock or natural=shoal" />
		<tag k="name" v="Storholmskjæret" />
		<tag k="place" v="islet" />
		<tag k="ssr:stedsnr" v="697245" />
	</node>
	<node lat="68.748561109586" lon="16.853838884878584" id="-97322">
		<tag k="name" v="Hellan" />
		<tag k="natural" v="beach" />
		<tag k="ssr:stedsnr" v="595017" />
	</node>
	<node lat="68.87448611515279" lon="17.260505556120876" id="-97337">
		<tag k="name" v="Ytterbogneset" />
		<tag k="natural" v="cape" />
		<tag k="ssr:stedsnr" v="595869" />
	</node>
	<node lat="68.89220277528067" lon="17.422927771661886" id="-97338">
		<tag k="name" v="Gunnarlabben" />
		<tag k="natural" v="cape" />
		<tag k="ssr:stedsnr" v="595749" />
	</node>
	<node lat="68.86403333334282" lon="17.42663610014984" id="-97342">
		<tag k="name" v="Andørja" />
		<tag k="name:no" v="Andørja" />
		<tag k="name:se" v="Áttir" />
		<tag k="place" v="island" />
		<tag k="ssr:stedsnr" v="627246" />
	</node>
	<node lat="68.87119999544707" lon="17.009644453343597" id="-97346">
		<tag k="name" v="Skorvegrunnen" />
		<tag k="natural" v="shoal" />
		<tag k="place" v="locality" />
		<tag k="ssr:stedsnr" v="636228" />
	</node>
	<node lat="68.74482500028792" lon="17.059477767562907" id="-97362">
		<tag k="name" v="Rognvika" />
		<tag k="natural" v="bay" />
		<tag k="ssr:stedsnr" v="656495" />
	</node>
	<node lat="68.8868111133173" lon="17.45037500231338" id="-97372">
		<tag k="name" v="Kvalvika" />
		<tag k="natural" v="bay" />
		<tag k="ssr:stedsnr" v="685852" />
	</node>
	<node lat="68.73491388706222" lon="16.945308335161318" id="-97373">
		<tag k="name" v="Hamran" />
		<tag k="natural" v="cape" />
		<tag k="ssr:stedsnr" v="685913" />
	</node>
	<node lat="68.74582221796733" lon="17.077697231434936" id="-97377">
		<tag k="name" v="Sandvika" />
		<tag k="natural" v="bay" />
		<tag k="ssr:stedsnr" v="697414" />
	</node>
	<node lat="68.75550277961258" lon="17.14270556580131" id="-97378">
		<tag k="name" v="Risnakken" />
		<tag k="natural" v="cape" />
		<tag k="ssr:stedsnr" v="697417" />
	</node>
	<node lat="68.79833888986086" lon="16.927702781723735" id="-97379">
		<tag k="name" v="Stikkelberget" />
		<tag k="natural" v="cape" />
		<tag k="ssr:stedsnr" v="697482" />
	</node>
	<node lat="68.86954166336311" lon="17.478327767780563" id="-97389">
		<tag k="name" v="Skjellviknes" />
		<tag k="natural" v="cape" />
		<tag k="ssr:stedsnr" v="899789" />
	</node>
	<node lat="68.74700555324243" lon="17.093761109275697" id="-97392">
		<tag k="name" v="Møvika" />
		<tag k="natural" v="bay" />
		<tag k="ssr:stedsnr" v="717278" />
	</node>
	<node lat="68.83367222606027" lon="17.380255566943926" id="-97400">
		<tag k="name" v="Hamna" />
		<tag k="natural" v="bay" />
		<tag k="ssr:stedsnr" v="717772" />
	</node>
	<node lat="68.84578611572907" lon="17.416016661239432" id="-97403">
		<tag k="name" v="Stranda" />
		<tag k="natural" v="beach" />
		<tag k="ssr:stedsnr" v="717809" />
	</node>
	<node lat="68.9257027794002" lon="17.11475278054204" id="-97430">
		<tag k="name" v="Engenes" />
		<tag k="natural" v="cape" />
		<tag k="ssr:stedsnr" v="757710" />
	</node>
	<node lat="68.84190277474816" lon="17.052741657981034" id="-97433">
		<tag k="name" v="Leirosen" />
		<tag k="natural" v="bay" />
		<tag k="ssr:stedsnr" v="777308" />
	</node>
	<node lat="68.86482222258597" lon="17.468525004299913" id="-97447">
		<tag k="name" v="Sørvikneset" />
		<tag k="natural" v="cape" />
		<tag k="ssr:stedsnr" v="819126" />
	</node>
	<node lat="68.91005555853715" lon="17.063963891256297" id="-97469">
		<tag k="name" v="Engenesgrunnen" />
		<tag k="natural" v="shoal" />
		<tag k="place" v="locality" />
		<tag k="ssr:stedsnr" v="928208" />
	</node>
	<node lat="68.72211389299085" lon="16.817363892392166" id="-97477">
		<tag k="name" v="Litleholmen" />
		<tag k="place" v="islet" />
		<tag k="ssr:stedsnr" v="928999" />
	</node>
	<node lat="68.82958888824122" lon="17.082433343225077" id="-97485">
		<tag k="name" v="Bollaneset" />
		<tag k="natural" v="cape" />
		<tag k="ssr:stedsnr" v="879006" />
	</node>
	<node lat="68.91809166650746" lon="17.19644720846002" id="-97497">
		<tag k="fixme" v="consider seamark:type=rock or natural=shoal" />
		<tag k="name" v="Skjæran" />
		<tag k="place" v="islet" />
		<tag k="ssr:stedsnr" v="899708" />
	</node>
	<node lat="68.79952777661232" lon="17.208158321279473" id="-97513">
		<tag k="name" v="Sørvika" />
		<tag k="natural" v="bay" />
		<tag k="ssr:stedsnr" v="959615" />
	</node>
	<node lat="68.8786055541203" lon="17.013536097555377" id="-97533">
		<tag k="name" v="Nordgrunnen" />
		<tag k="natural" v="shoal" />
		<tag k="place" v="locality" />
		<tag k="ssr:stedsnr" v="18223" />
	</node>
	<node lat="68.8469916698579" lon="17.4209444498612" id="-97537">
		<tag k="alt_name" v="Hestenes" />
		<tag k="name" v="Hestneset" />
		<tag k="natural" v="cape" />
		<tag k="ssr:stedsnr" v="18264" />
	</node>
	<node lat="68.86620833635408" lon="16.90294998757963" id="-97538">
		<tag k="bay" v="fjord" />
		<tag k="loc_name:se" v="Váhkvierddas" />
		<tag k="name" v="Vågsfjorden" />
		<tag k="name:no" v="Vågsfjorden" />
		<tag k="natural" v="bay" />
		<tag k="ssr:stedsnr" v="18763" />
	</node>
	<node lat="68.89416388941865" lon="17.435219431020155" id="-97540">
		<tag k="name" v="Mjøsundet" />
		<tag k="name:no" v="Mjøsundet" />
		<tag k="name:se" v="Mesuddi" />
		<tag k="natural" v="strait" />
		<tag k="ssr:stedsnr" v="18833" />
	</node>
	<node lat="68.9302305560974" lon="17.252419440156885" id="-97545">
		<tag k="name" v="Skjærvika" />
		<tag k="natural" v="bay" />
		<tag k="ssr:stedsnr" v="29658" />
	</node>
	<node lat="68.87286666673819" lon="17.483552764258818" id="-97560">
		<tag k="name" v="Kråkevika" />
		<tag k="natural" v="bay" />
		<tag k="ssr:stedsnr" v="49786" />
	</node>
	<node lat="68.83519444559518" lon="17.38896110983052" id="-97561">
		<tag k="name" v="Trollvika" />
		<tag k="natural" v="bay" />
		<tag k="ssr:stedsnr" v="49788" />
	</node>
	<node lat="68.8368777796144" lon="17.38218888428112" id="-97563">
		<tag k="name" v="Hamnelva" />
		<tag k="natural" v="cape" />
		<tag k="ssr:stedsnr" v="49794" />
	</node>
	<node lat="68.91877778138318" lon="17.382244455102445" id="-97577">
		<tag k="alt_name" v="Årbostadnova;Årbostnova" />
		<tag k="name" v="Årbosnova" />
		<tag k="natural" v="cape" />
		<tag k="ssr:stedsnr" v="78139" />
	</node>
	<node lat="68.72306388683268" lon="16.77155000600786" id="-97581">
		<tag k="name" v="Storholmen" />
		<tag k="place" v="islet" />
		<tag k="ssr:stedsnr" v="78998" />
	</node>
	<node lat="68.72612221965593" lon="16.886072213038034" id="-97587">
		<tag k="name" v="Agnneset" />
		<tag k="natural" v="cape" />
		<tag k="ssr:stedsnr" v="79905" />
	</node>
	<node lat="68.92495277988598" lon="17.10720001046818" id="-97593">
		<tag k="name" v="Bøen" />
		<tag k="natural" v="shoal" />
		<tag k="place" v="locality" />
		<tag k="ssr:stedsnr" v="90709" />
	</node>
	<node lat="68.90048055795626" lon="17.180205561885153" id="-97595">
		<tag k="alt_name" v="Slettnes" />
		<tag k="name" v="Slettneset" />
		<tag k="natural" v="cape" />
		<tag k="ssr:stedsnr" v="91837" />
	</node>
	<node lat="68.84902222145695" lon="17.428222220497208" id="-97601">
		<tag k="name" v="Draunes" />
		<tag k="natural" v="cape" />
		<tag k="ssr:stedsnr" v="110831" />
	</node>
	<node lat="68.82975833306195" lon="16.962774994791914" id="-97622">
		<tag k="name" v="Langevika" />
		<tag k="natural" v="bay" />
		<tag k="ssr:stedsnr" v="139217" />
	</node>
	<node lat="68.74129166914744" lon="16.8013527870978" id="-97627">
		<tag k="fixme" v="consider seamark:type=rock or natural=shoal" />
		<tag k="name" v="Nattmålskjæret" />
		<tag k="place" v="islet" />
		<tag k="ssr:stedsnr" v="139928" />
	</node>
	<node lat="68.7447611098237" lon="17.06778055031807" id="-97628">
		<tag k="name" v="Mørkeneset" />
		<tag k="natural" v="cape" />
		<tag k="ssr:stedsnr" v="139878" />
	</node>
	<node lat="68.88997777999099" lon="17.433513889449035" id="-97647">
		<tag k="name" v="Lillevika" />
		<tag k="natural" v="bay" />
		<tag k="ssr:stedsnr" v="170783" />
	</node>
	<node lat="68.72093888828489" lon="16.783933331597854" id="-97668">
		<tag k="fixme" v="consider seamark:type=rock or natural=shoal" />
		<tag k="name" v="Svartskjæret" />
		<tag k="place" v="islet" />
		<tag k="ssr:stedsnr" v="199998" />
	</node>
	<node lat="68.86180555275008" lon="17.276777766672705" id="-97672">
		<tag k="name" v="Trollvikneset" />
		<tag k="natural" v="cape" />
		<tag k="ssr:stedsnr" v="200214" />
	</node>
	<node lat="68.89972777909212" lon="17.209838892974645" id="-97675">
		<tag k="name" v="Sandneset" />
		<tag k="natural" v="cape" />
		<tag k="ssr:stedsnr" v="200231" />
	</node>
	<node lat="68.88176666615257" lon="17.22837776781306" id="-97676">
		<tag k="name" v="Straumbotn" />
		<tag k="natural" v="bay" />
		<tag k="old_name" v="Straumsbotn" />
		<tag k="ssr:stedsnr" v="200232" />
	</node>
	<node lat="68.92753888680271" lon="17.12440277891549" id="-97684">
		<tag k="name" v="Engenesodden" />
		<tag k="natural" v="cape" />
		<tag k="ssr:stedsnr" v="212739" />
	</node>
	<node lat="68.83287778170072" lon="16.966155560102905" id="-97685">
		<tag k="name" v="Steinvika" />
		<tag k="natural" v="bay" />
		<tag k="ssr:stedsnr" v="273252" />
	</node>
	<node lat="68.84315832890002" lon="16.984775007936584" id="-97686">
		<tag k="name" v="Mølnhusvika" />
		<tag k="natural" v="bay" />
		<tag k="ssr:stedsnr" v="273254" />
	</node>
	<node lat="68.76099444485439" lon="16.85885833381707" id="-97687">
		<tag k="name" v="Omnsand" />
		<tag k="natural" v="beach" />
		<tag k="ssr:stedsnr" v="291016" />
	</node>
	<node lat="68.85498888434202" lon="17.04721666826987" id="-97689">
		<tag k="name" v="Ørnstranda" />
		<tag k="natural" v="beach" />
		<tag k="ssr:stedsnr" v="292694" />
	</node>
	<node lat="68.81450832929167" lon="17.326300004950717" id="-97711">
		<tag k="name" v="Mathollnes" />
		<tag k="natural" v="cape" />
		<tag k="ssr:stedsnr" v="292552" />
	</node>
	<node lat="68.8568944477862" lon="17.046224987475018" id="-97716">
		<tag k="name" v="Borsåkerholmen" />
		<tag k="place" v="islet" />
		<tag k="ssr:stedsnr" v="292733" />
	</node>
	<node lat="68.80474166441422" lon="17.298866671116198" id="-97738">
		<tag k="name" v="Raudbergbakken" />
		<tag k="natural" v="shoal" />
		<tag k="place" v="locality" />
		<tag k="ssr:stedsnr" v="332995" />
	</node>
	<node lat="68.74475278059616" lon="17.02895556224602" id="-97740">
		<tag k="name" v="Skjæret" />
		<tag k="natural" v="cape" />
		<tag k="ssr:stedsnr" v="352126" />
	</node>
	<node lat="68.83010000212344" lon="17.08017222040671" id="-97756">
		<tag k="name" v="Leira" />
		<tag k="natural" v="bay" />
		<tag k="ssr:stedsnr" v="352332" />
	</node>
	<node lat="68.86812500227794" lon="17.036769442271495" id="-97763">
		<tag k="fixme" v="consider seamark:type=rock or natural=shoal" />
		<tag k="name" v="Vass-skjæran" />
		<tag k="place" v="islet" />
		<tag k="ssr:stedsnr" v="352497" />
	</node>
	<node lat="68.79682222058618" lon="17.210641665817224" id="-97766">
		<tag k="name" v="Sørvikgrunnen" />
		<tag k="natural" v="shoal" />
		<tag k="place" v="locality" />
		<tag k="ssr:stedsnr" v="352612" />
	</node>
	<node lat="68.86861944720106" lon="17.24613056029139" id="-97767">
		<tag k="name" v="Slåstrandholmen" />
		<tag k="natural" v="cape" />
		<tag k="ssr:stedsnr" v="352835" />
	</node>
	<node lat="68.77103332975722" lon="16.863916664090386" id="-97778">
		<tag k="name" v="Dyngeneset" />
		<tag k="natural" v="cape" />
		<tag k="ssr:stedsnr" v="381952" />
	</node>
	<node lat="68.92435000044978" lon="17.32273055346898" id="-97786">
		<tag k="name" v="Klemmesteinvika" />
		<tag k="natural" v="bay" />
		<tag k="ssr:stedsnr" v="393659" />
	</node>
	<node lat="68.82970833364928" lon="17.08296387720689" id="-97804">
		<tag k="name" v="Hopen" />
		<tag k="natural" v="cape" />
		<tag k="ssr:stedsnr" v="413369" />
	</node>
	<node lat="68.84956110742283" lon="17.43203611473741" id="-97810">
		<tag k="name" v="Rypsteinvika" />
		<tag k="natural" v="bay" />
		<tag k="ssr:stedsnr" v="413821" />
	</node>
	<node lat="68.91301944039573" lon="17.18687221916666" id="-97814">
		<tag k="name" v="Neset" />
		<tag k="natural" v="cape" />
		<tag k="ssr:stedsnr" v="413684" />
	</node>
	<node lat="68.92586388707488" lon="17.30758889500199" id="-97826">
		<tag k="name" v="Svinlineset" />
		<tag k="natural" v="cape" />
		<tag k="ssr:stedsnr" v="442158" />
	</node>
	<node lat="68.86978611488556" lon="17.020091668920344" id="-97827">
		<tag k="name" v="Storholmen" />
		<tag k="place" v="islet" />
		<tag k="ssr:stedsnr" v="442263" />
	</node>
	<node lat="68.74622500057785" lon="16.848416664841942" id="-97829">
		<tag k="name" v="Foldneset" />
		<tag k="natural" v="cape" />
		<tag k="ssr:stedsnr" v="442918" />
	</node>
	<node lat="68.79404722658607" lon="17.19427777025792" id="-97840">
		<tag k="name" v="Tjuvholmen" />
		<tag k="place" v="islet" />
		<tag k="ssr:stedsnr" v="502958" />
	</node>
	<node lat="68.81322778136602" lon="17.321352786051037" id="-97874">
		<tag k="name" v="Matholla" />
		<tag k="natural" v="bay" />
		<tag k="ssr:stedsnr" v="535574" />
	</node>
	<node lat="68.86281944627432" lon="17.0446638795715" id="-97893">
		<tag k="alt_name" v="Hovda" />
		<tag k="name" v="Hovden" />
		<tag k="natural" v="cape" />
		<tag k="ssr:stedsnr" v="563231" />
	</node>
	<node lat="68.85585833659863" lon="17.455674997569037" id="-97901">
		<tag k="name" v="Storsteinneset" />
		<tag k="natural" v="cape" />
		<tag k="ssr:stedsnr" v="563281" />
	</node>
	<node lat="68.78755000457254" lon="17.24449721852488" id="-97906">
		<tag k="bay" v="fjord" />
		<tag k="loc_name:se" v="Ásttavierda" />
		<tag k="name" v="Astafjorden" />
		<tag k="name:no" v="Astafjorden" />
		<tag k="natural" v="bay" />
		<tag k="ssr:stedsnr" v="563969" />
	</node>
	<node lat="68.78864444288745" lon="17.189411115498498" id="-97908">
		<tag k="name" v="Flatholmen" />
		<tag k="place" v="islet" />
		<tag k="ssr:stedsnr" v="563975" />
	</node>
	<node lat="68.76745833427225" lon="17.17625278406501" id="-97911">
		<tag k="name" v="Storvika" />
		<tag k="natural" v="bay" />
		<tag k="ssr:stedsnr" v="563961" />
	</node>
	<node lat="68.8535166697105" lon="16.997430560646578" id="-97917">
		<tag k="fixme" v="consider seamark:type=rock or natural=shoal" />
		<tag k="name" v="Gardsskjæret" />
		<tag k="place" v="islet" />
		<tag k="ssr:stedsnr" v="576223" />
	</node>
	<node lat="68.73028611149901" lon="16.908183340144703" id="-97923">
		<tag k="fixme" v="consider seamark:type=rock or natural=shoal" />
		<tag k="name" v="Hesten og mannen" />
		<tag k="place" v="islet" />
		<tag k="ssr:stedsnr" v="595088" />
	</node>
	<node lat="68.91286388928307" lon="17.181474989249153" id="-97929">
		<tag k="name" v="Leira" />
		<tag k="natural" v="shoal" />
		<tag k="place" v="locality" />
		<tag k="ssr:stedsnr" v="595641" />
	</node>
	<node lat="68.91933888898576" lon="17.16641111252107" id="-97932">
		<tag k="name" v="Tobbeneset" />
		<tag k="natural" v="cape" />
		<tag k="ssr:stedsnr" v="595678" />
	</node>
	<node lat="68.83679166858546" lon="17.392711109876704" id="-97935">
		<tag k="name" v="Ørnvika" />
		<tag k="natural" v="bay" />
		<tag k="ssr:stedsnr" v="595767" />
	</node>
	<node lat="68.85616944690118" lon="17.457344436071054" id="-97938">
		<tag k="name" v="Hestevika" />
		<tag k="natural" v="bay" />
		<tag k="ssr:stedsnr" v="595732" />
	</node>
	<node lat="68.87333332864564" lon="17.00776111852679" id="-97944">
		<tag k="name" v="Sørgrunnen" />
		<tag k="natural" v="shoal" />
		<tag k="place" v="locality" />
		<tag k="ssr:stedsnr" v="624232" />
	</node>
	<node lat="68.84421944169013" lon="17.172338874442826" id="-97952">
		<tag k="name" v="Leberget" />
		<tag k="natural" v="cape" />
		<tag k="ssr:stedsnr" v="627268" />
	</node>
	<node lat="68.81888333403315" lon="17.08755832062019" id="-97954">
		<tag k="name" v="Dyrstadbukta" />
		<tag k="natural" v="bay" />
		<tag k="ssr:stedsnr" v="636053" />
	</node>
	<node lat="68.92729444496246" lon="17.218283329210934" id="-97966">
		<tag k="fixme" v="consider seamark:type=rock or natural=shoal" />
		<tag k="name" v="Torleivskjæret" />
		<tag k="place" v="islet" />
		<tag k="ssr:stedsnr" v="655850" />
	</node>
	<node lat="68.85963333326998" lon="17.29889165656459" id="-97967">
		<tag k="name" v="Pollen" />
		<tag k="natural" v="bay" />
		<tag k="ssr:stedsnr" v="655851" />
	</node>
	<node lat="68.91373888871382" lon="17.190333319151836" id="-97984">
		<tag k="name" v="Ytternaustneset" />
		<tag k="natural" v="cape" />
		<tag k="ssr:stedsnr" v="656682" />
	</node>
	<node lat="68.80143333573125" lon="17.12796666092239" id="-98003">
		<tag k="name" v="Vikarsøyra" />
		<tag k="natural" v="cape" />
		<tag k="ssr:stedsnr" v="717292" />
	</node>
	<node lat="68.93032778124494" lon="17.234450011103867" id="-98032">
		<tag k="name" v="Finnevikneset" />
		<tag k="natural" v="cape" />
		<tag k="ssr:stedsnr" v="745161" />
	</node>
	<node lat="68.77082221895583" lon="17.189563875513453" id="-98039">
		<tag k="name" v="Hamnvikgrunnen" />
		<tag k="natural" v="shoal" />
		<tag k="place" v="locality" />
		<tag k="ssr:stedsnr" v="757403" />
	</node>
	<node lat="68.7502944463626" lon="17.173966664165093" id="-98040">
		<tag k="name" v="Skogsgrunnen" />
		<tag k="natural" v="shoal" />
		<tag k="place" v="locality" />
		<tag k="ssr:stedsnr" v="757405" />
	</node>
	<node lat="68.74954444247031" lon="17.119055559449393" id="-98041">
		<tag k="name" v="Finnvikneset" />
		<tag k="natural" v="cape" />
		<tag k="ssr:stedsnr" v="757419" />
	</node>
	<node lat="68.93004722130495" lon="17.238286106933106" id="-98048">
		<tag k="name" v="Finnevika" />
		<tag k="natural" v="bay" />
		<tag k="ssr:stedsnr" v="777828" />
	</node>
	<node lat="68.84759166508691" lon="17.42344444905806" id="-98067">
		<tag k="name" v="Skjeljedammen" />
		<tag k="natural" v="bay" />
		<tag k="ssr:stedsnr" v="777792" />
	</node>
	<node lat="68.84326944040312" lon="17.05833056273925" id="-98081">
		<tag k="fixme" v="consider seamark:type=rock or natural=shoal" />
		<tag k="name" v="Munnholmen" />
		<tag k="place" v="islet" />
		<tag k="ssr:stedsnr" v="807197" />
	</node>
	<node lat="68.89018652044508" lon="17.460002997204533" id="-98086">
		<tag k="name" v="Mjøsundholmen" />
		<tag k="place" v="islet" />
		<tag k="ssr:stedsnr" v="807837" />
	</node>
	<node lat="68.74756672967224" lon="17.100467034485686" id="-98087">
		<tag k="name" v="Ripen" />
		<tag k="natural" v="cape" />
		<tag k="ssr:stedsnr" v="818421" />
	</node>
	<node lat="68.90156111261206" lon="17.208430564133558" id="-98089">
		<tag k="name" v="Sandvika" />
		<tag k="natural" v="bay" />
		<tag k="ssr:stedsnr" v="819830" />
	</node>
	<node lat="68.73453888844368" lon="16.94297778487591" id="-98091">
		<tag k="name" v="Seiholla" />
		<tag k="natural" v="bay" />
		<tag k="ssr:stedsnr" v="838136" />
	</node>
	<node lat="68.83502221881997" lon="17.07405277114538" id="-98093">
		<tag k="name" v="Leira" />
		<tag k="natural" v="beach" />
		<tag k="ssr:stedsnr" v="838351" />
	</node>
	<node lat="68.91175277482269" lon="17.190536099226236" id="-98099">
		<tag k="name" v="Skarvesteinneset" />
		<tag k="natural" v="cape" />
		<tag k="ssr:stedsnr" v="838682" />
	</node>
	<node lat="68.8775388870287" lon="17.48320556324857" id="-98106">
		<tag k="name" v="Fruvika" />
		<tag k="natural" v="bay" />
		<tag k="ssr:stedsnr" v="838800" />
	</node>
	<node lat="68.89308611540244" lon="17.21851388938607" id="-98111">
		<tag k="name" v="Storelvneset" />
		<tag k="natural" v="cape" />
		<tag k="ssr:stedsnr" v="839600" />
	</node>
	<node lat="68.91444722576834" lon="17.117666658878417" id="-98113">
		<tag k="name" v="Bussevika" />
		<tag k="natural" v="bay" />
		<tag k="ssr:stedsnr" v="867164" />
	</node>
	<node lat="68.91673055531942" lon="17.192491666473057" id="-98114">
		<tag k="alt_name" v="Skjervik" />
		<tag k="name" v="Skjærvika" />
		<tag k="natural" v="bay" />
		<tag k="ssr:stedsnr" v="867170" />
	</node>
	<node lat="68.84068333074838" lon="17.073297207447585" id="-98117">
		<tag k="name" v="Bollaholmen" />
		<tag k="natural" v="cape" />
		<tag k="ssr:stedsnr" v="867242" />
	</node>
	<node lat="68.88298610890209" lon="17.236588891482747" id="-98123">
		<tag k="name" v="Storsteinneset" />
		<tag k="natural" v="cape" />
		<tag k="ssr:stedsnr" v="867284" />
	</node>
	<node lat="68.85113888855128" lon="17.16807222199188" id="-98130">
		<tag k="name" v="Sandvika" />
		<tag k="natural" v="bay" />
		<tag k="ssr:stedsnr" v="879142" />
	</node>
	<node lat="68.81542221992949" lon="16.946080542969668" id="-98132">
		<tag k="name" v="Tømmervikneset" />
		<tag k="natural" v="cape" />
		<tag k="ssr:stedsnr" v="880195" />
	</node>
	<node lat="68.86603333209526" lon="17.043488895262797" id="-98133">
		<tag k="alt_name" v="Tenneskjæret" />
		<tag k="fixme" v="consider seamark:type=rock or natural=shoal" />
		<tag k="name" v="Tennskjæret" />
		<tag k="place" v="islet" />
		<tag k="ssr:stedsnr" v="940019" />
	</node>
	<node lat="68.86286389238077" lon="17.14639444636717" id="-98134">
		<tag k="name" v="Rivvika" />
		<tag k="natural" v="bay" />
		<tag k="ssr:stedsnr" v="940164" />
	</node>
	<node lat="68.9109666649972" lon="17.17685278742865" id="-98135">
		<tag k="alt_name" v="Langnes" />
		<tag k="name" v="Langneset" />
		<tag k="natural" v="cape" />
		<tag k="ssr:stedsnr" v="940737" />
	</node>
	<node lat="68.86267777430778" lon="17.049394433569294" id="-98137">
		<tag k="name" v="Jonsgrunnen" />
		<tag k="natural" v="shoal" />
		<tag k="place" v="locality" />
		<tag k="ssr:stedsnr" v="940779" />
	</node>
	<node lat="68.72956666659923" lon="16.905205561134665" id="-98138">
		<tag k="fixme" v="consider seamark:type=rock or natural=shoal" />
		<tag k="name" v="Enkeltsteinen" />
		<tag k="place" v="islet" />
		<tag k="ssr:stedsnr" v="959100" />
	</node>
	<node lat="68.88103332960185" lon="17.241791665206605" id="-98166">
		<tag k="name" v="Krakknessan" />
		<tag k="natural" v="cape" />
		<tag k="ssr:stedsnr" v="960859" />
	</node>
	<node lat="68.83469415838832" lon="17.077279739742373" id="-98225">
		<tag k="name" v="Ytre Bollaneset" />
		<tag k="natural" v="cape" />
		<tag k="ssr:stedsnr" v="1076511" />
	</node>
</osm>
