<?xml version="1.0" encoding="UTF-8"?>
<<<<<<< HEAD
<osm version="0.6" generator="osmapis">
	<node lat="68.91724167051541" lon="17.20750278973451" id="-32497">
		<tag k="name" v="Ørnholtet" />
		<tag k="place" v="locality" />
		<tag k="ssr:stedsnr" v="230814" />
	</node>
	<node lat="68.81750555958868" lon="17.000816661234325" id="-32513">
		<tag k="name" v="Olamyra" />
=======
<osm generator="osmapis" version="0.6">
	<node id="-855552" lat="68.8133861117" lon="17.3059388772">
		<tag k="name" v="Ressekjerringa" />
		<tag k="natural" v="stone" />
		<tag k="ssr:stedsnr" v="171602" />
	</node>
	<node id="-855035" lat="68.7466833372" lon="17.0175583434">
		<tag k="name" v="Ørnholla" />
		<tag k="place" v="locality" />
		<tag k="ssr:stedsnr" v="473105" />
	</node>
	<node id="-855536" lat="68.8890777771" lon="17.12962222">
		<tag k="name" v="Finnomnen" />
		<tag k="natural" v="stone" />
		<tag k="ssr:stedsnr" v="170758" />
	</node>
	<node id="-855531" lat="68.8008638847" lon="17.2485805535">
		<tag k="name" v="Stormyra" />
		<tag k="natural" v="wetland" />
		<tag k="ssr:stedsnr" v="170653" />
	</node>
	<node id="-855526" lat="68.7533305592" lon="17.010911115">
		<tag k="name" v="Reingjerdmyran" />
		<tag k="natural" v="wetland" />
		<tag k="ssr:stedsnr" v="170088" />
	</node>
	<node id="-855011" lat="68.8175055596" lon="17.0008166612">
		<tag k="name" v="Olamyra" />
		<tag k="natural" v="wetland" />
		<tag k="ssr:stedsnr" v="231572" />
	</node>
	<node id="-855522" lat="68.7657388858" lon="16.944930565">
		<tag k="name" v="Stormyra" />
		<tag k="natural" v="wetland" />
		<tag k="ssr:stedsnr" v="170052" />
	</node>
	<node id="-854996" lat="68.7631944405" lon="17.1126916744">
		<tag k="name" v="Fjellmyra" />
		<tag k="natural" v="wetland" />
		<tag k="ssr:stedsnr" v="442985" />
	</node>
	<node id="-854995" lat="68.7967916693" lon="17.0762777738">
		<tag k="name" v="Lågmyra" />
		<tag k="natural" v="wetland" />
		<tag k="ssr:stedsnr" v="442959" />
	</node>
	<node id="-855495" lat="68.8840916707" lon="17.2440416701">
		<tag k="name" v="Storsteinan" />
		<tag k="natural" v="stone" />
		<tag k="ssr:stedsnr" v="110884" />
	</node>
	<node id="-854859" lat="68.8156305594" lon="17.0414805577">
		<tag k="name" v="Skarholtan" />
		<tag k="place" v="locality" />
		<tag k="ssr:stedsnr" v="231771" />
	</node>
	<node id="-855994" lat="68.9041111122" lon="17.2091083224">
		<tag k="name" v="Ora" />
		<tag k="natural" v="scree" />
		<tag k="ssr:stedsnr" v="959826" />
	</node>
	<node id="-855984" lat="68.884702778" lon="17.4671083353">
		<tag k="name" v="Slompesteinen" />
		<tag k="natural" v="stone" />
		<tag k="ssr:stedsnr" v="959761" />
	</node>
	<node id="-855471" lat="68.7455416652" lon="17.0194583376">
		<tag k="name" v="Sørenholla" />
		<tag k="place" v="locality" />
		<tag k="ssr:stedsnr" v="110073" />
	</node>
	<node id="-854957" lat="68.9062555589" lon="17.1250972164">
		<tag k="name" v="Heifjellmyran" />
		<tag k="natural" v="wetland" />
		<tag k="ssr:stedsnr" v="292646" />
	</node>
	<node id="-854952" lat="68.8568222201" lon="17.009336104">
		<tag k="name" v="Agnholtet" />
		<tag k="place" v="locality" />
		<tag k="ssr:stedsnr" v="292482" />
	</node>
	<node id="-854950" lat="68.8244333306" lon="17.0481972148">
		<tag k="name" v="Mildemyra" />
		<tag k="natural" v="wetland" />
		<tag k="ssr:stedsnr" v="292335" />
	</node>
	<node id="-854949" lat="68.7730472215" lon="17.1489000062">
		<tag k="name" v="Middagsmyra" />
		<tag k="natural" v="wetland" />
		<tag k="ssr:stedsnr" v="292314" />
	</node>
	<node id="-855972" lat="68.8448222232" lon="17.0096138779">
		<tag k="name" v="Skogmyra" />
		<tag k="natural" v="wetland" />
		<tag k="ssr:stedsnr" v="959422" />
	</node>
	<node id="-854944" lat="68.8043972201" lon="17.0711472286">
		<tag k="name" v="Graverholtet" />
		<tag k="place" v="locality" />
		<tag k="ssr:stedsnr" v="292280" />
	</node>
	<node id="-855966" lat="68.9081277814" lon="17.3837861225">
		<tag k="name" v="Stormyra" />
		<tag k="natural" v="wetland" />
		<tag k="ssr:stedsnr" v="959178" />
	</node>
	<node id="-855960" lat="68.7522694411" lon="16.962950006">
		<tag k="name" v="Anemyra" />
		<tag k="natural" v="wetland" />
		<tag k="ssr:stedsnr" v="959072" />
	</node>
	<node id="-855959" lat="68.8267416632" lon="17.0627222279">
		<tag k="name" v="Stormyra" />
		<tag k="natural" v="wetland" />
		<tag k="ssr:stedsnr" v="868194" />
	</node>
	<node id="-855445" lat="68.893555555" lon="17.3001249922">
		<tag k="name" v="Stormyra" />
		<tag k="natural" v="wetland" />
		<tag k="ssr:stedsnr" v="50831" />
	</node>
	<node id="-854925" lat="68.7757861073" lon="16.8974722275">
		<tag k="name" v="Omnen" />
		<tag k="natural" v="scree" />
		<tag k="ssr:stedsnr" v="150502" />
	</node>
	<node id="-855430" lat="68.9156166649" lon="17.1306833381">
		<tag k="name" v="Ramslettholtet" />
		<tag k="place" v="locality" />
		<tag k="ssr:stedsnr" v="49695" />
	</node>
	<node id="-855427" lat="68.8357027778" lon="17.2134444498">
		<tag k="name" v="Ora" />
		<tag k="natural" v="scree" />
		<tag k="ssr:stedsnr" v="49655" />
	</node>
	<node id="-855937" lat="68.8078611104" lon="17.071841662">
		<tag k="name" v="Svartholtet" />
		<tag k="place" v="locality" />
		<tag k="ssr:stedsnr" v="839316" />
	</node>
	<node id="-855421" lat="68.8091888883" lon="16.9955305593">
		<tag k="name" v="Essingmyran" />
		<tag k="natural" v="wetland" />
		<tag k="ssr:stedsnr" v="49437" />
	</node>
	<node id="-855409" lat="68.7523472197" lon="16.9671861131">
		<tag k="name" v="Vesteinen" />
		<tag k="natural" v="stone" />
		<tag k="ssr:stedsnr" v="49121" />
	</node>
	<node id="-854894" lat="68.8689416675" lon="17.3956555552">
		<tag k="name" v="Blåisen" />
		<tag k="natural" v="glacier" />
		<tag k="ssr:stedsnr" v="260333" />
	</node>
	<node id="-855469" lat="68.859122225" lon="17.280194445">
		<tag k="name" v="Skreda" />
		<tag k="natural" v="scree" />
		<tag k="ssr:stedsnr" v="109834" />
	</node>
	<node id="-854872" lat="68.8915694455" lon="17.2621999981">
		<tag k="name" v="Vassmyran" />
		<tag k="natural" v="wetland" />
		<tag k="ssr:stedsnr" v="231901" />
	</node>
	<node id="-855383" lat="68.7874000034" lon="17.0983305653">
		<tag k="name" v="Rødsandholtan" />
		<tag k="place" v="locality" />
		<tag k="ssr:stedsnr" v="960269" />
	</node>
	<node id="-855891" lat="68.8942888892" lon="17.3035388873">
		<tag k="name" v="Aurdiket" />
		<tag k="natural" v="wetland" />
		<tag k="ssr:stedsnr" v="778874" />
	</node>
	<node id="-855372" lat="68.8907916651" lon="17.3179111056">
		<tag k="name" v="Mellaorskogen" />
		<tag k="place" v="locality" />
		<tag k="ssr:stedsnr" v="899873" />
	</node>
	<node id="-855883" lat="68.9236361122" lon="17.2645638764">
		<tag k="name" v="Karlmyra" />
		<tag k="natural" v="wetland" />
		<tag k="ssr:stedsnr" v="777806" />
	</node>
	<node id="-855878" lat="68.9012305521" lon="17.351086118">
		<tag k="name" v="Kvitora" />
		<tag k="natural" v="scree" />
		<tag k="ssr:stedsnr" v="777784" />
	</node>
	<node id="-855876" lat="68.8760555542" lon="17.4649249856">
		<tag k="name" v="Purkemyra" />
		<tag k="natural" v="wetland" />
		<tag k="ssr:stedsnr" v="777763" />
	</node>
	<node id="-855362" lat="68.891280558" lon="17.2864944471">
		<tag k="name" v="Vasskarura" />
		<tag k="natural" v="scree" />
		<tag k="ssr:stedsnr" v="871453" />
	</node>
	<node id="-854849" lat="68.80721111" lon="17.0266972307">
		<tag k="name" v="Borvassholtet" />
>>>>>>> e1d4bc35ff8a6074a6f2e91616a996b547c36f15
		<tag k="natural" v="wetland" />
		<tag k="ssr:stedsnr" v="231572" />
	</node>
<<<<<<< HEAD
	<node lat="68.81563055941182" lon="17.041480557703604" id="-32523">
		<tag k="name" v="Skarholtan" />
		<tag k="place" v="locality" />
		<tag k="ssr:stedsnr" v="231771" />
	</node>
	<node lat="68.89156944553105" lon="17.26219999808534" id="-32525">
		<tag k="name" v="Vassmyran" />
		<tag k="natural" v="wetland" />
		<tag k="ssr:stedsnr" v="231901" />
	</node>
	<node lat="68.74554166524476" lon="17.019458337638124" id="-32562">
		<tag k="name" v="Sørenholla" />
=======
	<node id="-854846" lat="68.8211277803" lon="17.0566750074">
		<tag k="name" v="Skoltemyra" />
		<tag k="natural" v="wetland" />
		<tag k="ssr:stedsnr" v="231386" />
	</node>
	<node id="-855867" lat="68.8413694436" lon="16.9843166673">
		<tag k="name" v="Kalkenesmyra" />
		<tag k="natural" v="wetland" />
		<tag k="ssr:stedsnr" v="777475" />
	</node>
	<node id="-855862" lat="68.9122555585" lon="17.3888916753">
		<tag k="name" v="Rødora" />
		<tag k="natural" v="scree" />
		<tag k="ssr:stedsnr" v="777180" />
	</node>
	<node id="-854829" lat="68.9172416705" lon="17.2075027897">
		<tag k="name" v="Ørnholtet" />
>>>>>>> e1d4bc35ff8a6074a6f2e91616a996b547c36f15
		<tag k="place" v="locality" />
		<tag k="ssr:stedsnr" v="110073" />
	</node>
<<<<<<< HEAD
	<node lat="68.81714444206747" lon="17.037997220173555" id="-32565">
		<tag k="name" v="Skredholtan" />
		<tag k="place" v="locality" />
		<tag k="ssr:stedsnr" v="110523" />
	</node>
	<node lat="68.88409167073813" lon="17.244041670074072" id="-32575">
=======
	<node id="-855844" lat="68.7719055535" lon="16.8785249856">
		<tag k="name" v="Raset" />
		<tag k="natural" v="scree" />
		<tag k="ssr:stedsnr" v="636492" />
	</node>
	<node id="-855843" lat="68.8527833349" lon="17.4469777753">
>>>>>>> e1d4bc35ff8a6074a6f2e91616a996b547c36f15
		<tag k="name" v="Storsteinan" />
		<tag k="natural" v="stone" />
		<tag k="ssr:stedsnr" v="110884" />
	</node>
<<<<<<< HEAD
	<node lat="68.77578610726006" lon="16.8974722274673" id="-32587">
		<tag k="name" v="Omnen" />
		<tag k="natural" v="scree" />
		<tag k="ssr:stedsnr" v="150502" />
	</node>
	<node lat="68.86894166754104" lon="17.395655555173764" id="-32594">
		<tag k="name" v="Blåisen" />
		<tag k="natural" v="glacier" />
		<tag k="ssr:stedsnr" v="260333" />
	</node>
	<node lat="68.88907777705211" lon="17.12962221996322" id="-32607">
		<tag k="name" v="Finnomnen" />
		<tag k="natural" v="stone" />
		<tag k="ssr:stedsnr" v="170758" />
	</node>
	<node lat="68.81338611167163" lon="17.305938877176384" id="-32617">
		<tag k="name" v="Ressekjerringa" />
		<tag k="natural" v="stone" />
		<tag k="ssr:stedsnr" v="171602" />
	</node>
	<node lat="68.8072111099827" lon="17.026697230734136" id="-32639">
		<tag k="name" v="Borvassholtet" />
=======
	<node id="-855324" lat="68.7966527825" lon="17.0762249957">
		<tag k="name" v="Ryggemyra" />
		<tag k="natural" v="wetland" />
		<tag k="ssr:stedsnr" v="777293" />
	</node>
	<node id="-855311" lat="68.892738889" lon="17.338208344">
		<tag k="name" v="Skredmyra" />
		<tag k="natural" v="wetland" />
		<tag k="ssr:stedsnr" v="899879" />
	</node>
	<node id="-855309" lat="68.9189666624" lon="17.128213894">
		<tag k="name" v="Langemyra" />
		<tag k="natural" v="wetland" />
		<tag k="ssr:stedsnr" v="899717" />
	</node>
	<node id="-855811" lat="68.9231749959" lon="17.1216888925">
		<tag k="name" v="Brunholtet" />
		<tag k="place" v="locality" />
		<tag k="ssr:stedsnr" v="595684" />
	</node>
	<node id="-855297" lat="68.8415388878" lon="16.9896472171">
		<tag k="name" v="Olsbogmyra" />
>>>>>>> e1d4bc35ff8a6074a6f2e91616a996b547c36f15
		<tag k="natural" v="wetland" />
		<tag k="ssr:stedsnr" v="231431" />
	</node>
<<<<<<< HEAD
	<node lat="68.82112778032572" lon="17.056675007374487" id="-32642">
		<tag k="name" v="Skoltemyra" />
=======
	<node id="-855292" lat="68.7922472249" lon="17.0901611051">
		<tag k="name" v="Åsemyra" />
>>>>>>> e1d4bc35ff8a6074a6f2e91616a996b547c36f15
		<tag k="natural" v="wetland" />
		<tag k="ssr:stedsnr" v="231386" />
	</node>
<<<<<<< HEAD
	<node lat="68.77304722150696" lon="17.148900006175765" id="-32668">
		<tag k="name" v="Middagsmyra" />
=======
	<node id="-854909" lat="68.8171444421" lon="17.0379972202">
		<tag k="name" v="Skredholtan" />
		<tag k="place" v="locality" />
		<tag k="ssr:stedsnr" v="110523" />
	</node>
	<node id="-855591" lat="68.7332972253" lon="16.8901527676">
		<tag k="name" v="Ura" />
		<tag k="natural" v="scree" />
		<tag k="ssr:stedsnr" v="325005" />
	</node>
	<node id="-855259" lat="68.8009388927" lon="17.2618277801">
		<tag k="name" v="Olamyra" />
>>>>>>> e1d4bc35ff8a6074a6f2e91616a996b547c36f15
		<tag k="natural" v="wetland" />
		<tag k="ssr:stedsnr" v="292314" />
	</node>
<<<<<<< HEAD
	<node lat="68.80439722008128" lon="17.07114722857036" id="-32670">
		<tag k="name" v="Graverholtet" />
=======
	<node id="-855258" lat="68.7985777822" lon="17.2115333287">
		<tag k="name" v="Holtet" />
>>>>>>> e1d4bc35ff8a6074a6f2e91616a996b547c36f15
		<tag k="place" v="locality" />
		<tag k="ssr:stedsnr" v="292280" />
	</node>
<<<<<<< HEAD
	<node lat="68.85682222010891" lon="17.009336103997548" id="-32672">
		<tag k="name" v="Agnholtet" />
		<tag k="place" v="locality" />
		<tag k="ssr:stedsnr" v="292482" />
	</node>
	<node lat="68.73329722534818" lon="16.890152767585043" id="-32681">
		<tag k="name" v="Ura" />
		<tag k="natural" v="scree" />
		<tag k="ssr:stedsnr" v="325005" />
	</node>
	<node lat="68.88975277752007" lon="17.32825833990519" id="-32719">
		<tag k="name" v="Mellaholtan" />
=======
	<node id="-855251" lat="68.8106666679" lon="16.9948694419">
		<tag k="name" v="Essingholtan" />
		<tag k="place" v="locality" />
		<tag k="ssr:stedsnr" v="656511" />
	</node>
	<node id="-855245" lat="68.7693527791" lon="17.1173000034">
		<tag k="name" v="Storbakkmyra" />
		<tag k="natural" v="wetland" />
		<tag k="ssr:stedsnr" v="656271" />
	</node>
	<node id="-855239" lat="68.7471472223" lon="16.9745694314">
		<tag k="name" v="Varslimyra" />
		<tag k="natural" v="wetland" />
		<tag k="ssr:stedsnr" v="655072" />
	</node>
	<node id="-855746" lat="68.8522111098" lon="17.02126667">
		<tag k="name" v="Geitskogholtan" />
>>>>>>> e1d4bc35ff8a6074a6f2e91616a996b547c36f15
		<tag k="place" v="locality" />
		<tag k="ssr:stedsnr" v="353867" />
	</node>
<<<<<<< HEAD
	<node lat="68.80998333436467" lon="17.306030553469917" id="-32726">
		<tag k="name" v="Skjellsteinen" />
		<tag k="natural" v="stone" />
		<tag k="ssr:stedsnr" v="474585" />
	</node>
	<node lat="68.80394444428303" lon="17.200538886153975" id="-32730">
		<tag k="name" v="Langåkeren" />
=======
	<node id="-855739" lat="68.7518333306" lon="17.1032916761">
		<tag k="name" v="Forholtet" />
>>>>>>> e1d4bc35ff8a6074a6f2e91616a996b547c36f15
		<tag k="place" v="locality" />
		<tag k="ssr:stedsnr" v="474657" />
	</node>
<<<<<<< HEAD
	<node lat="68.84235832874083" lon="17.390702783448766" id="-32738">
		<tag k="name" v="Borkesteinen" />
		<tag k="natural" v="stone" />
		<tag k="ssr:stedsnr" v="474796" />
	</node>
	<node lat="68.90025555300183" lon="17.104752776225386" id="-32742">
		<tag k="name" v="Bjørnsteinen" />
		<tag k="natural" v="stone" />
		<tag k="ssr:stedsnr" v="381274" />
	</node>
	<node lat="68.76319444054545" lon="17.11269167436768" id="-32771">
		<tag k="name" v="Fjellmyra" />
		<tag k="natural" v="wetland" />
		<tag k="ssr:stedsnr" v="442985" />
	</node>
	<node lat="68.74668333720241" lon="17.017558343419473" id="-32777">
		<tag k="name" v="Ørnholla" />
=======
	<node id="-855220" lat="68.8028972186" lon="17.2441972276">
		<tag k="name" v="Røysan" />
		<tag k="natural" v="scree" />
		<tag k="ssr:stedsnr" v="717626" />
	</node>
	<node id="-855216" lat="68.8102444443" lon="17.0185166628">
		<tag k="name" v="Rolighollan" />
		<tag k="place" v="locality" />
		<tag k="ssr:stedsnr" v="717526" />
	</node>
	<node id="-855215" lat="68.8531277818" lon="17.0189888977">
		<tag k="name" v="Langholtet" />
>>>>>>> e1d4bc35ff8a6074a6f2e91616a996b547c36f15
		<tag k="place" v="locality" />
		<tag k="ssr:stedsnr" v="473105" />
	</node>
<<<<<<< HEAD
	<node lat="68.82969444338426" lon="17.036619454972055" id="-32783">
		<tag k="name" v="Lagholtet" />
=======
	<node id="-855726" lat="68.9174972198" lon="17.2250999869">
		<tag k="name" v="Breiholtan" />
>>>>>>> e1d4bc35ff8a6074a6f2e91616a996b547c36f15
		<tag k="place" v="locality" />
		<tag k="ssr:stedsnr" v="474509" />
	</node>
<<<<<<< HEAD
	<node lat="68.81281666519925" lon="17.023188883952194" id="-32813">
		<tag k="name" v="Høgdemyran" />
=======
	<node id="-855213" lat="68.7691333343" lon="17.1432749869">
		<tag k="name" v="Olahågmyra" />
>>>>>>> e1d4bc35ff8a6074a6f2e91616a996b547c36f15
		<tag k="natural" v="wetland" />
		<tag k="ssr:stedsnr" v="717335" />
	</node>
<<<<<<< HEAD
	<node lat="68.85221110979973" lon="17.021266670039747" id="-32821">
		<tag k="name" v="Geitskogholtan" />
=======
	<node id="-855724" lat="68.8215833307" lon="16.9988527732">
		<tag k="name" v="Oksholla" />
>>>>>>> e1d4bc35ff8a6074a6f2e91616a996b547c36f15
		<tag k="place" v="locality" />
		<tag k="ssr:stedsnr" v="535468" />
	</node>
<<<<<<< HEAD
	<node lat="68.85278333489414" lon="17.446977775286165" id="-32860">
		<tag k="name" v="Storsteinan" />
		<tag k="natural" v="stone" />
		<tag k="ssr:stedsnr" v="636134" />
	</node>
	<node lat="68.7719055534669" lon="16.878524985594034" id="-32862">
		<tag k="name" v="Raset" />
		<tag k="natural" v="scree" />
		<tag k="ssr:stedsnr" v="636492" />
	</node>
	<node lat="68.9163777794567" lon="17.222197210338763" id="-32883">
		<tag k="name" v="Breiholtan" />
		<tag k="place" v="locality" />
		<tag k="ssr:stedsnr" v="656839" />
	</node>
	<node lat="68.7922472248929" lon="17.090161105093873" id="-32919">
		<tag k="name" v="Åsemyra" />
		<tag k="natural" v="wetland" />
		<tag k="ssr:stedsnr" v="899290" />
	</node>
	<node lat="68.89273888902856" lon="17.338208343981492" id="-32933">
		<tag k="name" v="Skredmyra" />
=======
	<node id="-855723" lat="68.8418138877" lon="17.0081999963">
		<tag k="name" v="Krokmyra" />
		<tag k="natural" v="wetland" />
		<tag k="ssr:stedsnr" v="534464" />
	</node>
	<node id="-855722" lat="68.8437833315" lon="17.0169472104">
		<tag k="name" v="Slåttåsmyra" />
		<tag k="natural" v="wetland" />
		<tag k="ssr:stedsnr" v="534463" />
	</node>
	<node id="-855209" lat="68.7981777768" lon="17.0814972222">
		<tag k="name" v="Høgdemyra" />
		<tag k="natural" v="wetland" />
		<tag k="ssr:stedsnr" v="717296" />
	</node>
	<node id="-855921" lat="68.8063472206" lon="17.2282027705">
		<tag k="name" v="Torvmyran" />
		<tag k="natural" v="wetland" />
		<tag k="ssr:stedsnr" v="838655" />
	</node>
	<node id="-855707" lat="68.9250749986" lon="17.2088861147">
		<tag k="name" v="Håmannsteinen" />
		<tag k="natural" v="stone" />
		<tag k="ssr:stedsnr" v="413851" />
	</node>
	<node id="-855705" lat="68.9173833324" lon="17.3283277789">
		<tag k="name" v="Blåfjellmyran" />
>>>>>>> e1d4bc35ff8a6074a6f2e91616a996b547c36f15
		<tag k="natural" v="wetland" />
		<tag k="ssr:stedsnr" v="899879" />
	</node>
<<<<<<< HEAD
	<node lat="68.92363611221278" lon="17.264563876434273" id="-32957">
		<tag k="name" v="Karlmyra" />
		<tag k="natural" v="wetland" />
		<tag k="ssr:stedsnr" v="777806" />
	</node>
	<node lat="68.84153888782377" lon="16.98964721709384" id="-33008">
		<tag k="name" v="Olsbogmyra" />
=======
	<node id="-855703" lat="68.8491083305" lon="17.4247527758">
		<tag k="name" v="Lasteinen" />
		<tag k="natural" v="stone" />
		<tag k="ssr:stedsnr" v="413815" />
	</node>
	<node id="-855689" lat="68.8088833369" lon="17.209980558">
		<tag k="name" v="Langbakkmyra" />
>>>>>>> e1d4bc35ff8a6074a6f2e91616a996b547c36f15
		<tag k="natural" v="wetland" />
		<tag k="ssr:stedsnr" v="899482" />
	</node>
<<<<<<< HEAD
	<node lat="68.91896666244266" lon="17.128213894044524" id="-33011">
		<tag k="name" v="Langemyra" />
		<tag k="natural" v="wetland" />
		<tag k="ssr:stedsnr" v="899717" />
	</node>
	<node lat="68.8907916650584" lon="17.317911105584564" id="-33017">
		<tag k="name" v="Mellaorskogen" />
		<tag k="place" v="locality" />
		<tag k="ssr:stedsnr" v="899873" />
	</node>
	<node lat="68.78740000343389" lon="17.09833056528126" id="-33037">
		<tag k="name" v="Rødsandholtan" />
=======
	<node id="-855686" lat="68.8183027795" lon="17.0333416542">
		<tag k="name" v="Hågholtet" />
		<tag k="place" v="locality" />
		<tag k="ssr:stedsnr" v="413520" />
	</node>
	<node id="-855149" lat="68.9163777795" lon="17.2221972103">
		<tag k="name" v="Breiholtan" />
>>>>>>> e1d4bc35ff8a6074a6f2e91616a996b547c36f15
		<tag k="place" v="locality" />
		<tag k="ssr:stedsnr" v="960269" />
	</node>
<<<<<<< HEAD
	<node lat="68.75234721966795" lon="16.96718611307183" id="-33060">
		<tag k="name" v="Vesteinen" />
=======
	<node id="-855140" lat="68.8748527812" lon="17.1419860987">
		<tag k="name" v="Sjurheldran" />
>>>>>>> e1d4bc35ff8a6074a6f2e91616a996b547c36f15
		<tag k="natural" v="stone" />
		<tag k="ssr:stedsnr" v="49121" />
	</node>
<<<<<<< HEAD
	<node lat="68.80918888833341" lon="16.995530559332998" id="-33069">
		<tag k="name" v="Essingmyran" />
		<tag k="natural" v="wetland" />
		<tag k="ssr:stedsnr" v="49437" />
	</node>
	<node lat="68.91561666494378" lon="17.13068333806593" id="-33072">
		<tag k="name" v="Ramslettholtet" />
=======
	<node id="-855650" lat="68.900255553" lon="17.1047527762">
		<tag k="name" v="Bjørnsteinen" />
		<tag k="natural" v="stone" />
		<tag k="ssr:stedsnr" v="381274" />
	</node>
	<node id="-855645" lat="68.8897527775" lon="17.3282583399">
		<tag k="name" v="Mellaholtan" />
>>>>>>> e1d4bc35ff8a6074a6f2e91616a996b547c36f15
		<tag k="place" v="locality" />
		<tag k="ssr:stedsnr" v="49695" />
	</node>
<<<<<<< HEAD
	<node lat="68.83570277777086" lon="17.213444449802022" id="-33079">
		<tag k="name" v="Ora" />
		<tag k="natural" v="scree" />
		<tag k="ssr:stedsnr" v="49655" />
	</node>
	<node lat="68.89355555497312" lon="17.300124992193066" id="-33086">
		<tag k="name" v="Stormyra" />
		<tag k="natural" v="wetland" />
		<tag k="ssr:stedsnr" v="50831" />
	</node>
	<node lat="68.85912222502405" lon="17.280194444980502" id="-33109">
		<tag k="name" v="Skreda" />
		<tag k="natural" v="scree" />
		<tag k="ssr:stedsnr" v="109834" />
	</node>
	<node lat="68.75333055918938" lon="17.010911114968312" id="-33148">
		<tag k="name" v="Reingjerdmyran" />
=======
	<node id="-855641" lat="68.8717472183" lon="17.2902972109">
		<tag k="name" v="Storora" />
		<tag k="natural" v="scree" />
		<tag k="ssr:stedsnr" v="352843" />
	</node>
	<node id="-855127" lat="68.8414861155" lon="16.9927222175">
		<tag k="name" v="Finnsteinen" />
		<tag k="natural" v="stone" />
		<tag k="ssr:stedsnr" v="656480" />
	</node>
	<node id="-855115" lat="68.9273222184" lon="17.2429972154">
		<tag k="name" v="Jomyra" />
>>>>>>> e1d4bc35ff8a6074a6f2e91616a996b547c36f15
		<tag k="natural" v="wetland" />
		<tag k="ssr:stedsnr" v="170088" />
	</node>
<<<<<<< HEAD
	<node lat="68.76573888583196" lon="16.94493056499099" id="-33151">
		<tag k="name" v="Stormyra" />
		<tag k="natural" v="wetland" />
		<tag k="ssr:stedsnr" v="170052" />
	</node>
	<node lat="68.80086388470636" lon="17.248580553470816" id="-33161">
		<tag k="name" v="Stormyra" />
		<tag k="natural" v="wetland" />
		<tag k="ssr:stedsnr" v="170653" />
	</node>
	<node lat="68.87482499622566" lon="17.472475000266556" id="-33177">
		<tag k="name" v="Holtan" />
=======
	<node id="-855114" lat="68.8903972183" lon="17.1960888846">
		<tag k="name" v="Kvithella" />
		<tag k="natural" v="stone" />
		<tag k="ssr:stedsnr" v="515827" />
	</node>
	<node id="-855111" lat="68.8361388915" lon="17.2370555513">
		<tag k="name" v="Breilioran" />
		<tag k="natural" v="scree" />
		<tag k="ssr:stedsnr" v="414615" />
	</node>
	<node id="-855622" lat="68.8565000002" lon="17.022155547">
		<tag k="name" v="Skjellholtet" />
>>>>>>> e1d4bc35ff8a6074a6f2e91616a996b547c36f15
		<tag k="place" v="locality" />
		<tag k="ssr:stedsnr" v="199787" />
	</node>
<<<<<<< HEAD
	<node lat="68.75522222278904" lon="17.057494451981846" id="-33192">
		<tag k="name" v="Sulmyren" />
=======
	<node id="-855621" lat="68.8508416691" lon="17.0150555665">
		<tag k="name" v="Stormyra" />
>>>>>>> e1d4bc35ff8a6074a6f2e91616a996b547c36f15
		<tag k="natural" v="wetland" />
		<tag k="ssr:stedsnr" v="200991" />
	</node>
<<<<<<< HEAD
	<node lat="68.82443333063583" lon="17.048197214776323" id="-33213">
		<tag k="name" v="Mildemyra" />
=======
	<node id="-855620" lat="68.8481083317" lon="16.9950055459">
		<tag k="name" v="Hattemyra" />
>>>>>>> e1d4bc35ff8a6074a6f2e91616a996b547c36f15
		<tag k="natural" v="wetland" />
		<tag k="ssr:stedsnr" v="292335" />
	</node>
<<<<<<< HEAD
	<node lat="68.9062555589267" lon="17.125097216416364" id="-33226">
		<tag k="name" v="Heifjellmyran" />
		<tag k="natural" v="wetland" />
		<tag k="ssr:stedsnr" v="292646" />
	</node>
	<node lat="68.78878055605584" lon="17.102027770952976" id="-33260">
=======
	<node id="-855613" lat="68.7736972184" lon="17.152874996">
		<tag k="name" v="Gluggemyra" />
		<tag k="natural" v="wetland" />
		<tag k="ssr:stedsnr" v="352319" />
	</node>
	<node id="-855611" lat="68.8076333324" lon="17.0787888964">
		<tag k="name" v="Purkholtet" />
		<tag k="place" v="locality" />
		<tag k="ssr:stedsnr" v="352282" />
	</node>
	<node id="-855610" lat="68.7887805561" lon="17.102027771">
>>>>>>> e1d4bc35ff8a6074a6f2e91616a996b547c36f15
		<tag k="name" v="Rødsandholla" />
		<tag k="place" v="locality" />
		<tag k="ssr:stedsnr" v="352275" />
	</node>
<<<<<<< HEAD
	<node lat="68.80763333242139" lon="17.078788896435565" id="-33261">
		<tag k="name" v="Purkholtet" />
=======
	<node id="-855732" lat="68.8681083333" lon="17.2906444345">
		<tag k="name" v="Myrhellan" />
		<tag k="natural" v="stone" />
		<tag k="ssr:stedsnr" v="534850" />
	</node>
	<node id="-855079" lat="68.8423583287" lon="17.3907027834">
		<tag k="name" v="Borkesteinen" />
		<tag k="natural" v="stone" />
		<tag k="ssr:stedsnr" v="474796" />
	</node>
	<node id="-855067" lat="68.8039444443" lon="17.2005388862">
		<tag k="name" v="Langåkeren" />
>>>>>>> e1d4bc35ff8a6074a6f2e91616a996b547c36f15
		<tag k="place" v="locality" />
		<tag k="ssr:stedsnr" v="352282" />
	</node>
<<<<<<< HEAD
	<node lat="68.77369721837756" lon="17.152874996017307" id="-33268">
		<tag k="name" v="Gluggemyra" />
		<tag k="natural" v="wetland" />
		<tag k="ssr:stedsnr" v="352319" />
	</node>
	<node lat="68.84810833168919" lon="16.995005545886666" id="-33271">
		<tag k="name" v="Hattemyra" />
		<tag k="natural" v="wetland" />
		<tag k="ssr:stedsnr" v="352454" />
	</node>
	<node lat="68.85084166911719" lon="17.015055566541054" id="-33272">
		<tag k="name" v="Stormyra" />
=======
	<node id="-855061" lat="68.8099833344" lon="17.3060305535">
		<tag k="name" v="Skjellsteinen" />
		<tag k="natural" v="stone" />
		<tag k="ssr:stedsnr" v="474585" />
	</node>
	<node id="-855057" lat="68.8296944434" lon="17.036619455">
		<tag k="name" v="Lagholtet" />
		<tag k="place" v="locality" />
		<tag k="ssr:stedsnr" v="474509" />
	</node>
	<node id="-855567" lat="68.7552222228" lon="17.057494452">
		<tag k="name" v="Sulmyren" />
>>>>>>> e1d4bc35ff8a6074a6f2e91616a996b547c36f15
		<tag k="natural" v="wetland" />
		<tag k="ssr:stedsnr" v="352455" />
	</node>
<<<<<<< HEAD
	<node lat="68.8565000001501" lon="17.022155546954913" id="-33273">
		<tag k="name" v="Skjellholtet" />
		<tag k="place" v="locality" />
		<tag k="ssr:stedsnr" v="352473" />
	</node>
	<node lat="68.87174721833968" lon="17.290297210922787" id="-33281">
		<tag k="name" v="Storora" />
		<tag k="natural" v="scree" />
		<tag k="ssr:stedsnr" v="352843" />
	</node>
	<node lat="68.81830277954461" lon="17.033341654234945" id="-33318">
		<tag k="name" v="Hågholtet" />
		<tag k="place" v="locality" />
		<tag k="ssr:stedsnr" v="413520" />
	</node>
	<node lat="68.849108330477" lon="17.42475277578783" id="-33322">
		<tag k="name" v="Lasteinen" />
		<tag k="natural" v="stone" />
		<tag k="ssr:stedsnr" v="413815" />
	</node>
	<node lat="68.80888333686721" lon="17.209980557950246" id="-33324">
		<tag k="name" v="Langbakkmyra" />
		<tag k="natural" v="wetland" />
		<tag k="ssr:stedsnr" v="413657" />
	</node>
	<node lat="68.9250749985848" lon="17.208886114667294" id="-33330">
		<tag k="name" v="Håmannsteinen" />
		<tag k="natural" v="stone" />
		<tag k="ssr:stedsnr" v="413851" />
	</node>
	<node lat="68.91738333239904" lon="17.32832777893613" id="-33333">
		<tag k="name" v="Blåfjellmyran" />
		<tag k="natural" v="wetland" />
		<tag k="ssr:stedsnr" v="413828" />
	</node>
	<node lat="68.83613889148211" lon="17.237055551318015" id="-33336">
		<tag k="name" v="Breilioran" />
		<tag k="natural" v="scree" />
		<tag k="ssr:stedsnr" v="414615" />
	</node>
	<node lat="68.79679166931993" lon="17.076277773832675" id="-33345">
		<tag k="name" v="Lågmyra" />
		<tag k="natural" v="wetland" />
		<tag k="ssr:stedsnr" v="442959" />
	</node>
	<node lat="68.89039721831757" lon="17.196088884567267" id="-33364">
		<tag k="name" v="Kvithella" />
		<tag k="natural" v="stone" />
		<tag k="ssr:stedsnr" v="515827" />
	</node>
	<node lat="68.84378333154751" lon="17.016947210420522" id="-33373">
		<tag k="name" v="Slåttåsmyra" />
		<tag k="natural" v="wetland" />
		<tag k="ssr:stedsnr" v="534463" />
	</node>
	<node lat="68.84181388769576" lon="17.008199996340796" id="-33374">
		<tag k="name" v="Krokmyra" />
		<tag k="natural" v="wetland" />
		<tag k="ssr:stedsnr" v="534464" />
	</node>
	<node lat="68.82158333072306" lon="16.99885277319694" id="-33378">
		<tag k="name" v="Oksholla" />
		<tag k="place" v="locality" />
		<tag k="ssr:stedsnr" v="534492" />
	</node>
	<node lat="68.91749721981164" lon="17.225099986927493" id="-33380">
		<tag k="name" v="Breiholtan" />
		<tag k="place" v="locality" />
		<tag k="ssr:stedsnr" v="534827" />
	</node>
	<node lat="68.86810833332241" lon="17.29064443446341" id="-33382">
		<tag k="name" v="Myrhellan" />
		<tag k="natural" v="stone" />
		<tag k="ssr:stedsnr" v="534850" />
	</node>
	<node lat="68.75183333058884" lon="17.103291676060962" id="-33388">
		<tag k="name" v="Forholtet" />
		<tag k="place" v="locality" />
		<tag k="ssr:stedsnr" v="535266" />
	</node>
	<node lat="68.92317499585413" lon="17.121688892472562" id="-33446">
		<tag k="name" v="Brunholtet" />
		<tag k="place" v="locality" />
		<tag k="ssr:stedsnr" v="595684" />
	</node>
	<node lat="68.74714722230534" lon="16.974569431384907" id="-33472">
		<tag k="name" v="Varslimyra" />
		<tag k="natural" v="wetland" />
		<tag k="ssr:stedsnr" v="655072" />
	</node>
	<node lat="68.92732221843713" lon="17.242997215404678" id="-33473">
		<tag k="name" v="Jomyra" />
		<tag k="natural" v="wetland" />
		<tag k="ssr:stedsnr" v="655827" />
	</node>
	<node lat="68.76935277911348" lon="17.117300003378833" id="-33488">
		<tag k="name" v="Storbakkmyra" />
		<tag k="natural" v="wetland" />
		<tag k="ssr:stedsnr" v="656271" />
	</node>
	<node lat="68.84148611547121" lon="16.992722217534464" id="-33492">
		<tag k="name" v="Finnsteinen" />
		<tag k="natural" v="stone" />
		<tag k="ssr:stedsnr" v="656480" />
	</node>
	<node lat="68.81066666788537" lon="16.994869441911465" id="-33493">
		<tag k="name" v="Essingholtan" />
		<tag k="place" v="locality" />
		<tag k="ssr:stedsnr" v="656511" />
	</node>
	<node lat="68.79857778219288" lon="17.211533328712978" id="-33503">
		<tag k="name" v="Holtet" />
		<tag k="place" v="locality" />
		<tag k="ssr:stedsnr" v="656660" />
	</node>
	<node lat="68.8009388927071" lon="17.261827780127856" id="-33504">
		<tag k="name" v="Olamyra" />
		<tag k="natural" v="wetland" />
		<tag k="ssr:stedsnr" v="656672" />
	</node>
	<node lat="68.87485278118382" lon="17.141986098671325" id="-33506">
		<tag k="name" v="Sjurheldran" />
		<tag k="natural" v="stone" />
		<tag k="ssr:stedsnr" v="656762" />
	</node>
	<node lat="68.79817777683624" lon="17.08149722216219" id="-33517">
		<tag k="name" v="Høgdemyra" />
		<tag k="natural" v="wetland" />
		<tag k="ssr:stedsnr" v="717296" />
	</node>
	<node lat="68.76913333432928" lon="17.14327498692039" id="-33520">
		<tag k="name" v="Olahågmyra" />
		<tag k="natural" v="wetland" />
		<tag k="ssr:stedsnr" v="717335" />
	</node>
	<node lat="68.81024444433301" lon="17.01851666282974" id="-33522">
		<tag k="name" v="Rolighollan" />
		<tag k="place" v="locality" />
		<tag k="ssr:stedsnr" v="717526" />
	</node>
	<node lat="68.85312778184593" lon="17.018988897671566" id="-33525">
		<tag k="name" v="Langholtet" />
		<tag k="place" v="locality" />
		<tag k="ssr:stedsnr" v="717510" />
	</node>
	<node lat="68.80289721855291" lon="17.244197227590004" id="-33530">
		<tag k="name" v="Røysan" />
		<tag k="natural" v="scree" />
		<tag k="ssr:stedsnr" v="717626" />
=======
	<node id="-855725" lat="68.8128166652" lon="17.023188884">
		<tag k="name" v="Høgdemyran" />
		<tag k="natural" v="wetland" />
		<tag k="ssr:stedsnr" v="534502" />
	</node>
	<node id="-855556" lat="68.8748249962" lon="17.4724750003">
		<tag k="name" v="Holtan" />
		<tag k="place" v="locality" />
		<tag k="ssr:stedsnr" v="199787" />
>>>>>>> e1d4bc35ff8a6074a6f2e91616a996b547c36f15
	</node>
</osm>
