<?xml version="1.0" encoding="UTF-8"?>
<osm generator="osmapis" version="0.6">
	<node id="-753150" lat="68.7711277794" lon="17.0989972239">
		<tag k="name" v="Ibestadvatnet" />
		<tag k="natural" v="water" />
		<tag k="ssr:stedsnr" v="199952" />
		<tag k="water" v="lake" />
	</node>
	<node id="-752637" lat="68.7970166671" lon="17.0701361192">
		<tag k="name" v="Lågelva" />
		<tag k="ssr:stedsnr" v="474296" />
		<tag k="waterway" v="stream" />
	</node>
	<node id="-752636" lat="68.768644441" lon="17.1071083242">
		<tag k="name" v="Finnvatnet" />
		<tag k="natural" v="water" />
		<tag k="ssr:stedsnr" v="474276" />
	</node>
	<node id="-753145" lat="68.8248888906" lon="16.9856972226">
		<tag k="name" v="Brattåsvatnet" />
		<tag k="natural" v="water" />
		<tag k="ssr:stedsnr" v="176230" />
	</node>
	<node id="-752629" lat="68.7920083336" lon="17.0104416533">
		<tag k="name" v="Kviteskreelva" />
		<tag k="ssr:stedsnr" v="473428" />
		<tag k="waterway" v="stream" />
	</node>
	<node id="-752638" lat="68.7939555569" lon="17.1022194389">
		<tag k="name" v="Stielva" />
		<tag k="ssr:stedsnr" v="474298" />
		<tag k="waterway" v="stream" />
	</node>
	<node id="-753138" lat="68.7483222205" lon="17.0589611068">
		<tag k="name" v="Rognvikelva" />
		<tag k="ssr:stedsnr" v="171252" />
		<tag k="waterway" v="stream" />
	</node>
	<node id="-752723" lat="68.8369527749" lon="17.2140666644">
		<tag k="name" v="Orelva" />
		<tag k="ssr:stedsnr" v="656630" />
		<tag k="waterway" v="stream" />
	</node>
	<node id="-752623" lat="68.7539888845" lon="16.924238896">
		<tag k="name" v="Norddalselva" />
		<tag k="ssr:stedsnr" v="473076" />
		<tag k="waterway" v="stream" />
	</node>
	<node id="-753133" lat="68.9223250008" lon="17.2223722306">
		<tag k="name" v="Klåpvatnet" />
		<tag k="natural" v="water" />
		<tag k="ssr:stedsnr" v="170848" />
	</node>
	<node id="-752721" lat="68.773377781" lon="16.9051166608">
		<tag k="name" v="Ravneelva" />
		<tag k="ssr:stedsnr" v="656437" />
		<tag k="waterway" v="stream" />
	</node>
	<node id="-752611" lat="68.8111583367" lon="16.9736749917">
		<tag k="name" v="Tømmervikvatnet" />
		<tag k="natural" v="water" />
		<tag k="ssr:stedsnr" v="260235" />
	</node>
	<node id="-753118" lat="68.8039194423" lon="16.977205553">
		<tag k="name" v="Skjellvatnet" />
		<tag k="natural" v="water" />
		<tag k="ssr:stedsnr" v="170119" />
	</node>
	<node id="-753115" lat="68.7557333356" lon="16.9676833219">
		<tag k="name" v="Nøkkevatnet" />
		<tag k="natural" v="water" />
		<tag k="ssr:stedsnr" v="170076" />
	</node>
	<node id="-752601" lat="68.8173555535" lon="16.9822944328">
		<tag k="name" v="Stilkusvassosen" />
		<tag k="natural" v="bay" />
		<tag k="ssr:stedsnr" v="231556" />
	</node>
	<node id="-753111" lat="68.8303999968" lon="17.0038916752">
		<tag k="name" v="Middagsvatnet" />
		<tag k="natural" v="water" />
		<tag k="ssr:stedsnr" v="170467" />
	</node>
	<node id="-753110" lat="68.7746361086" lon="16.9892388901">
		<tag k="name" v="Hollvatnet" />
		<tag k="natural" v="water" />
		<tag k="ssr:stedsnr" v="170454" />
	</node>
	<node id="-752593" lat="68.8602972189" lon="17.3615777687">
		<tag k="name" v="Innerholvatnet" />
		<tag k="natural" v="water" />
		<tag k="ssr:stedsnr" v="443226" />
	</node>
	<node id="-753104" lat="68.7684916695" lon="16.9764305452">
		<tag k="name" v="Brørn" />
		<tag k="natural" v="water" />
		<tag k="ssr:stedsnr" v="142426" />
	</node>
	<node id="-753570" lat="68.803583336" lon="17.2662361108">
		<tag k="name" v="Flatelva" />
		<tag k="ssr:stedsnr" v="959628" />
		<tag k="waterway" v="stream" />
	</node>
	<node id="-752585" lat="68.7983333321" lon="17.0041388753">
		<tag k="name" v="Brattåsvatnet" />
		<tag k="natural" v="water" />
		<tag k="ssr:stedsnr" v="442957" />
	</node>
	<node id="-752584" lat="68.77914167" lon="16.9722805454">
		<tag k="name" v="Jovatnet" />
		<tag k="natural" v="water" />
		<tag k="ssr:stedsnr" v="442953" />
	</node>
	<node id="-753092" lat="68.8451444439" lon="17.3954000042">
		<tag k="name" v="Storelva" />
		<tag k="ssr:stedsnr" v="139205" />
		<tag k="waterway" v="stream" />
	</node>
	<node id="-752579" lat="68.891463886" lon="17.3872277762">
		<tag k="name" v="Storelvvatnet" />
		<tag k="natural" v="water" />
		<tag k="ssr:stedsnr" v="442288" />
		<tag k="water" v="lake" />
	</node>
	<node id="-753090" lat="68.7632500001" lon="17.045094453">
		<tag k="name" v="Sulvatnet" />
		<tag k="natural" v="water" />
		<tag k="ssr:stedsnr" v="138986" />
		<tag k="water" v="lake" />
	</node>
	<node id="-752574" lat="68.8083999998" lon="16.9876222262">
		<tag k="name" v="Svartholvatnet" />
		<tag k="natural" v="water" />
		<tag k="ssr:stedsnr" v="203468" />
		<tag k="water" v="lake" />
	</node>
	<node id="-752569" lat="68.8115444438" lon="17.0111222219">
		<tag k="alt_name" v="Krokvatnet, l" />
		<tag k="name" v="Lille Krokvatnet" />
		<tag k="natural" v="water" />
		<tag k="ssr:stedsnr" v="199211" />
	</node>
	<node id="-752568" lat="68.8915694455" lon="17.2621999981">
		<tag k="name" v="Sandvika" />
		<tag k="natural" v="bay" />
		<tag k="ssr:stedsnr" v="292879" />
	</node>
	<node id="-753078" lat="68.802011108" lon="17.2636972082">
		<tag k="name" v="Kleivelva" />
		<tag k="ssr:stedsnr" v="110669" />
		<tag k="waterway" v="stream" />
	</node>
	<node id="-752565" lat="68.8893805575" lon="17.3391472291">
		<tag k="name" v="Skredmyrelva" />
		<tag k="ssr:stedsnr" v="292866" />
		<tag k="waterway" v="stream" />
	</node>
	<node id="-753076" lat="68.8441416641" lon="17.3457055513">
		<tag k="name" v="Rundekollvatnan" />
		<tag k="natural" v="water" />
		<tag k="ssr:stedsnr" v="110634" />
		<tag k="water" v="lake" />
	</node>
	<node id="-752563" lat="68.8972583357" lon="17.224658336">
		<tag k="name" v="Skjærbakkelva" />
		<tag k="ssr:stedsnr" v="292828" />
		<tag k="waterway" v="stream" />
	</node>
	<node id="-753074" lat="68.8241527772" lon="17.3420777665">
		<tag k="name" v="Storforsen" />
		<tag k="natural" v="waterfall" />
		<tag k="ssr:stedsnr" v="110597" />
	</node>
	<node id="-752561" lat="68.9026500009" lon="17.2171805489">
		<tag k="name" v="Sandvikelva" />
		<tag k="ssr:stedsnr" v="292826" />
		<tag k="waterway" v="stream" />
	</node>
	<node id="-752560" lat="68.9069472265" lon="17.2131027679">
		<tag k="name" v="Orelva" />
		<tag k="ssr:stedsnr" v="292819" />
		<tag k="waterway" v="stream" />
	</node>
	<node id="-753071" lat="68.771611111" lon="16.9670333438">
		<tag k="name" v="Nordkjosen" />
		<tag k="natural" v="bay" />
		<tag k="ssr:stedsnr" v="110455" />
	</node>
	<node id="-753070" lat="68.7720861093" lon="16.9633361118">
		<tag k="name" v="Nordfinnbuneset" />
		<tag k="natural" v="cape" />
		<tag k="ssr:stedsnr" v="110451" />
	</node>
	<node id="-752555" lat="68.8876111101" lon="17.4263583204">
		<tag k="name" v="Storelva" />
		<tag k="ssr:stedsnr" v="292765" />
		<tag k="waterway" v="stream" />
	</node>
	<node id="-753578" lat="68.8873833332" lon="17.3924055434">
		<tag k="name" v="Jektevikelva" />
		<tag k="ssr:stedsnr" v="959793" />
		<tag k="waterway" v="stream" />
	</node>
	<node id="-753058" lat="68.8535083361" lon="17.0078916609">
		<tag k="name" v="Silsanden" />
		<tag k="natural" v="beach" />
		<tag k="ssr:stedsnr" v="91255" />
	</node>
	<node id="-752621" lat="68.7765722205" lon="16.9507805506">
		<tag k="name" v="Langeneset" />
		<tag k="natural" v="cape" />
		<tag k="ssr:stedsnr" v="292399" />
	</node>
	<node id="-753565" lat="68.8170888909" lon="17.0125388951">
		<tag k="name" v="Holmen" />
		<tag k="place" v="islet" />
		<tag k="ssr:stedsnr" v="959462" />
	</node>
	<node id="-753562" lat="68.7673861146" lon="17.0279499931">
		<tag k="name" v="Hammarholla" />
		<tag k="natural" v="cape" />
		<tag k="ssr:stedsnr" v="959395" />
	</node>
	<node id="-753050" lat="68.8229972248" lon="17.0000722289">
		<tag k="name" v="Mangelåsvatnet" />
		<tag k="natural" v="water" />
		<tag k="ssr:stedsnr" v="82074" />
	</node>
	<node id="-753047" lat="68.8429666685" lon="17.3251666649">
		<tag k="name" v="Stortindvatnet" />
		<tag k="natural" v="water" />
		<tag k="ssr:stedsnr" v="79198" />
	</node>
	<node id="-753043" lat="68.7952388923" lon="17.0872166668">
		<tag k="fixme" v="multiple name tags, choose one and add the other to alt_name" />
		<tag k="name" v="Bukkhammarelva;Haugaelva" />
		<tag k="ssr:stedsnr" v="78963" />
		<tag k="waterway" v="stream" />
	</node>
	<node id="-753041" lat="68.7498527764" lon="16.9562583368">
		<tag k="name" v="Forsavatnet" />
		<tag k="natural" v="water" />
		<tag k="ssr:stedsnr" v="78910" />
		<tag k="water" v="lake" />
	</node>
	<node id="-753552" lat="68.7520138878" lon="17.0191277691">
		<tag k="name" v="Melkebakkelva" />
		<tag k="ssr:stedsnr" v="959085" />
		<tag k="waterway" v="stream" />
	</node>
	<node id="-753039" lat="68.8743583332" lon="17.4432666618">
		<tag k="name" v="Kransevatnet" />
		<tag k="natural" v="water" />
		<tag k="ssr:stedsnr" v="78775" />
	</node>
	<node id="-752525" lat="68.7526499972" lon="16.9994722106">
		<tag k="name" v="Litjevatnet" />
		<tag k="natural" v="water" />
		<tag k="ssr:stedsnr" v="291066" />
	</node>
	<node id="-752521" lat="68.780958336" lon="16.9557222336">
		<tag k="name" v="Storholmen" />
		<tag k="place" v="islet" />
		<tag k="ssr:stedsnr" v="170443" />
	</node>
	<node id="-753533" lat="68.8509499986" lon="17.3497805479">
		<tag k="name" v="Djupvatnet" />
		<tag k="natural" v="water" />
		<tag k="ssr:stedsnr" v="839632" />
	</node>
	<node id="-753524" lat="68.7475388879" lon="17.0643305501">
		<tag k="name" v="Mørkeneselva" />
		<tag k="ssr:stedsnr" v="839271" />
		<tag k="waterway" v="stream" />
	</node>
	<node id="-753522" lat="68.9083666699" lon="17.2087611073">
		<tag k="name" v="Kobbesteinelva" />
		<tag k="ssr:stedsnr" v="838685" />
		<tag k="waterway" v="stream" />
	</node>
	<node id="-753555" lat="68.8064611145" lon="17.0007888777">
		<tag k="name" v="Essingelva" />
		<tag k="ssr:stedsnr" v="959106" />
		<tag k="waterway" v="stream" />
	</node>
	<node id="-753520" lat="68.8411027789" lon="17.3918083314">
		<tag k="name" v="Båtvikelva" />
		<tag k="ssr:stedsnr" v="838840" />
		<tag k="waterway" v="stream" />
	</node>
	<node id="-752494" lat="68.7907055563" lon="17.0803916677">
		<tag k="name" v="Selsetvatnet" />
		<tag k="natural" v="water" />
		<tag k="ssr:stedsnr" v="260975" />
	</node>
	<node id="-753517" lat="68.8370055524" lon="17.3852083196">
		<tag k="name" v="Trollvikelva" />
		<tag k="ssr:stedsnr" v="838818" />
		<tag k="waterway" v="stream" />
	</node>
	<node id="-752490" lat="68.7476444463" lon="17.0033000031">
		<tag k="name" v="Storelva" />
		<tag k="ssr:stedsnr" v="260936" />
		<tag k="waterway" v="stream" />
	</node>
	<node id="-753001" lat="68.7910972206" lon="16.9594888868">
		<tag k="name" v="Storneset" />
		<tag k="natural" v="cape" />
		<tag k="ssr:stedsnr" v="49146" />
	</node>
	<node id="-752999" lat="68.7512555556" lon="16.9506166623">
		<tag k="name" v="Fugleheia" />
		<tag k="natural" v="cape" />
		<tag k="ssr:stedsnr" v="49076" />
	</node>
	<node id="-753508" lat="68.8130833289" lon="16.9824111199">
		<tag k="name" v="Stilkuselva" />
		<tag k="ssr:stedsnr" v="838523" />
		<tag k="waterway" v="stream" />
	</node>
	<node id="-752483" lat="68.9048888853" lon="17.1424555543">
		<tag k="name" v="Heivatnet" />
		<tag k="natural" v="water" />
		<tag k="ssr:stedsnr" v="260289" />
	</node>
	<node id="-752992" lat="68.7389111131" lon="16.8868111228">
		<tag k="name" v="Brustindvatnet" />
		<tag k="natural" v="water" />
		<tag k="ssr:stedsnr" v="18898" />
	</node>
	<node id="-753040" lat="68.74970278" lon="16.914008329">
		<tag k="name" v="Djupedalsvatnet" />
		<tag k="natural" v="water" />
		<tag k="ssr:stedsnr" v="78909" />
	</node>
	<node id="-752478" lat="68.8301805601" lon="17.2404027689">
		<tag k="name" v="Kvanntoelva" />
		<tag k="ssr:stedsnr" v="260269" />
		<tag k="waterway" v="river" />
	</node>
	<node id="-752987" lat="68.791658332" lon="17.1310972204">
		<tag k="name" v="Oteråa" />
		<tag k="ssr:stedsnr" v="17969" />
		<tag k="waterway" v="stream" />
	</node>
	<node id="-752984" lat="68.7629750006" lon="16.9958444397">
		<tag k="fixme" v="multiple name tags, choose one and add the other to alt_name" />
		<tag k="name" v="Mevatnet;Sandvatnet" />
		<tag k="natural" v="water" />
		<tag k="ssr:stedsnr" v="17958" />
		<tag k="water" v="lake" />
	</node>
	<node id="-752982" lat="68.852780559" lon="17.2318499985">
		<tag k="name" v="Slåstrandvatnet" />
		<tag k="natural" v="water" />
		<tag k="ssr:stedsnr" v="18178" />
	</node>
	<node id="-753493" lat="68.8424194405" lon="17.2651194507">
		<tag k="name" v="Skreddalsvatnan" />
		<tag k="natural" v="water" />
		<tag k="ssr:stedsnr" v="807200" />
		<tag k="water" v="lake" />
	</node>
	<node id="-752468" lat="68.8112833316" lon="17.0282083202">
		<tag k="alt_name" v="Djupedalsvatnet" />
		<tag k="name" v="Skredvatnet" />
		<tag k="natural" v="water" />
		<tag k="ssr:stedsnr" v="78211" />
	</node>
	<node id="-752465" lat="68.8878999989" lon="17.3069055464">
		<tag k="name" v="Mellaorelva" />
		<tag k="ssr:stedsnr" v="50855" />
		<tag k="waterway" v="stream" />
	</node>
	<node id="-753473" lat="68.9236361122" lon="17.2645638764">
		<tag k="name" v="Seljetuvelva" />
		<tag k="ssr:stedsnr" v="777805" />
		<tag k="waterway" v="stream" />
	</node>
	<node id="-752439" lat="68.8079555538" lon="17.0387666581">
		<tag k="name" v="Lille Borvatnet" />
		<tag k="natural" v="water" />
		<tag k="ssr:stedsnr" v="231429" />
	</node>
	<node id="-753461" lat="68.8279388878" lon="17.0587722089">
		<tag k="name" v="Leirbekken" />
		<tag k="ssr:stedsnr" v="777347" />
		<tag k="waterway" v="stream" />
	</node>
	<node id="-752606" lat="68.9224833304" lon="17.2949583376">
		<tag k="name" v="Båtålvikelva" />
		<tag k="ssr:stedsnr" v="231864" />
		<tag k="waterway" v="stream" />
	</node>
	<node id="-752433" lat="68.9157055555" lon="17.3783972144">
		<tag k="name" v="Skakkelva" />
		<tag k="ssr:stedsnr" v="231216" />
		<tag k="waterway" v="stream" />
	</node>
	<node id="-752944" lat="68.748413891" lon="16.8973944483">
		<tag k="name" v="Rollvatnet" />
		<tag k="natural" v="water" />
		<tag k="ssr:stedsnr" v="932013" />
		<tag k="water" v="lake" />
	</node>
	<node id="-753452" lat="68.9039944478" lon="17.3956722313">
		<tag k="name" v="Litjeelva" />
		<tag k="ssr:stedsnr" v="777168" />
		<tag k="waterway" v="stream" />
	</node>
	<node id="-752426" lat="68.7498305583" lon="16.9652833229">
		<tag k="name" v="Spøkerivatnet" />
		<tag k="natural" v="water" />
		<tag k="ssr:stedsnr" v="231088" />
	</node>
	<node id="-752935" lat="68.8837305553" lon="17.3931055413">
		<tag k="fixme" v="multiple name tags, choose one and add the other to alt_name" />
		<tag k="name" v="Isvatnet;Jektevikvatnan" />
		<tag k="natural" v="water" />
		<tag k="ssr:stedsnr" v="928216" />
		<tag k="water" v="lake" />
	</node>
	<node id="-752421" lat="68.8616222217" lon="17.2393305447">
		<tag k="name" v="Slåstrandelva" />
		<tag k="ssr:stedsnr" v="230825" />
		<tag k="waterway" v="river" />
	</node>
	<node id="-752932" lat="68.8567194426" lon="17.3144722253">
		<tag k="name" v="Skjellelva" />
		<tag k="ssr:stedsnr" v="928199" />
		<tag k="waterway" v="stream" />
	</node>
	<node id="-752931" lat="68.863036114" lon="17.3172444533">
		<tag k="alt_name" v="Bjørndalelva" />
		<tag k="name" v="Bjørndalselva" />
		<tag k="ssr:stedsnr" v="928196" />
		<tag k="waterway" v="stream" />
	</node>
	<node id="-753440" lat="68.893422225" lon="17.276555563">
		<tag k="name" v="Vasskarvatnet" />
		<tag k="natural" v="water" />
		<tag k="ssr:stedsnr" v="746223" />
		<tag k="water" v="lake" />
	</node>
	<node id="-753439" lat="68.825805553" lon="17.028791652">
		<tag k="alt_name" v="Roldneselva" />
		<tag k="name" v="Rollneselva" />
		<tag k="ssr:stedsnr" v="746207" />
		<tag k="waterway" v="river" />
	</node>
	<node id="-752926" lat="68.8509916678" lon="17.3375444451">
		<tag k="name" v="Juliusvatnet" />
		<tag k="natural" v="water" />
		<tag k="ssr:stedsnr" v="928178" />
	</node>
	<node id="-753437" lat="68.8085805583" lon="17.2542722279">
		<tag k="name" v="Stakkevatnet" />
		<tag k="natural" v="water" />
		<tag k="ssr:stedsnr" v="745245" />
	</node>
	<node id="-753431" lat="68.7697194415" lon="16.9991972135">
		<tag k="name" v="Holmen" />
		<tag k="place" v="islet" />
		<tag k="ssr:stedsnr" v="628431" />
	</node>
	<node id="-752918" lat="68.9018333321" lon="17.1706000067">
		<tag k="name" v="Mølnelva" />
		<tag k="ssr:stedsnr" v="777681" />
		<tag k="waterway" v="stream" />
	</node>
	<node id="-753426" lat="68.7916027736" lon="16.966891674">
		<tag k="alt_name" v="Krokvatnet, store" />
		<tag k="fixme" v="multiple name tags, choose one and add the other to alt_name" />
		<tag k="name" v="Krokvatnet;Store Krokvatnet" />
		<tag k="natural" v="water" />
		<tag k="ssr:stedsnr" v="624960" />
		<tag k="water" v="lake" />
	</node>
	<node id="-753424" lat="68.802486112" lon="16.9865194407">
		<tag k="name" v="Mevatnet" />
		<tag k="natural" v="water" />
		<tag k="ssr:stedsnr" v="624954" />
	</node>
	<node id="-752908" lat="68.91839444" lon="17.320008336">
		<tag k="name" v="Storelva" />
		<tag k="ssr:stedsnr" v="745173" />
		<tag k="waterway" v="stream" />
	</node>
	<node id="-753417" lat="68.8288666667" lon="17.2001777827">
		<tag k="name" v="Ånstadelva" />
		<tag k="ssr:stedsnr" v="624229" />
		<tag k="waterway" v="river" />
	</node>
	<node id="-752904" lat="68.8928027753" lon="17.2719861">
		<tag k="name" v="Vassenden" />
		<tag k="natural" v="cape" />
		<tag k="ssr:stedsnr" v="899894" />
	</node>
	<node id="-753413" lat="68.9136999961" lon="17.207847213">
		<tag k="name" v="Skjærvikelva" />
		<tag k="ssr:stedsnr" v="595801" />
		<tag k="waterway" v="stream" />
	</node>
	<node id="-753412" lat="68.9000666634" lon="17.389019443">
		<tag k="name" v="Storelva" />
		<tag k="ssr:stedsnr" v="595780" />
		<tag k="waterway" v="stream" />
	</node>
	<node id="-752683" lat="68.8497083339" lon="17.0228166687">
		<tag k="name" v="Lomtjørn" />
		<tag k="natural" v="water" />
		<tag k="ssr:stedsnr" v="503208" />
	</node>
	<node id="-752892" lat="68.8161944451" lon="17.0168000048">
		<tag k="name" v="Svarttjønna" />
		<tag k="natural" v="water" />
		<tag k="ssr:stedsnr" v="899513" />
	</node>
	<node id="-753398" lat="68.9094000013" lon="17.124852786">
		<tag k="name" v="Storelva" />
		<tag k="ssr:stedsnr" v="595638" />
		<tag k="waterway" v="stream" />
	</node>
	<node id="-752880" lat="68.7478055594" lon="16.9579833274">
		<tag k="name" v="Storvassholla" />
		<tag k="natural" v="bay" />
		<tag k="ssr:stedsnr" v="899074" />
	</node>
	<node id="-753390" lat="68.7684138846" lon="16.926030561">
		<tag k="name" v="Djupelva" />
		<tag k="ssr:stedsnr" v="595417" />
		<tag k="waterway" v="stream" />
	</node>
	<node id="-752509" lat="68.8279527755" lon="17.0074166644">
		<tag k="name" v="Tømmeråsvatnet" />
		<tag k="natural" v="water" />
		<tag k="ssr:stedsnr" v="264148" />
	</node>
	<node id="-753387" lat="68.788688886" lon="17.1566305652">
		<tag k="name" v="Prestelva" />
		<tag k="ssr:stedsnr" v="595250" />
		<tag k="waterway" v="stream" />
	</node>
	<node id="-753376" lat="68.7478222191" lon="17.023622216">
		<tag k="name" v="Ramnelva" />
		<tag k="ssr:stedsnr" v="655102" />
		<tag k="waterway" v="stream" />
	</node>
	<node id="-753370" lat="68.8165583372" lon="17.0095888911">
		<tag k="alt_name" v="Bollavatnet, store" />
		<tag k="name" v="Store Bollavatnet" />
		<tag k="natural" v="water" />
		<tag k="old_name" v="Bollavatnet" />
		<tag k="ssr:stedsnr" v="564175" />
		<tag k="water" v="lake" />
	</node>
	<node id="-753368" lat="68.7685666658" lon="17.0184277649">
		<tag k="name" v="Joelva" />
		<tag k="ssr:stedsnr" v="563988" />
		<tag k="waterway" v="stream" />
	</node>
	<node id="-752580" lat="68.8962499979" lon="17.3907861107">
		<tag k="name" v="Storelva" />
		<tag k="ssr:stedsnr" v="442326" />
		<tag k="waterway" v="stream" />
	</node>
	<node id="-753359" lat="68.8779666682" lon="17.4301305597">
		<tag k="name" v="Jensevatnet" />
		<tag k="natural" v="water" />
		<tag k="ssr:stedsnr" v="563795" />
	</node>
	<node id="-752843" lat="68.8238166628" lon="17.0346388889">
		<tag k="name" v="Hågholtmyra" />
		<tag k="natural" v="water" />
		<tag k="ssr:stedsnr" v="656516" />
	</node>
	<node id="-752841" lat="68.8119055531" lon="16.9856777819">
		<tag k="name" v="Tømmerhaugvatnet" />
		<tag k="natural" v="water" />
		<tag k="ssr:stedsnr" v="656505" />
	</node>
	<node id="-752840" lat="68.7966472257" lon="17.0635583248">
		<tag k="name" v="Lågbakkan" />
		<tag k="ssr:stedsnr" v="656306" />
		<tag k="waterway" v="stream" />
	</node>
	<node id="-753349" lat="68.8346444427" lon="16.9851888836">
		<tag k="name" v="Mølnhusvatnet" />
		<tag k="natural" v="water" />
		<tag k="ssr:stedsnr" v="563218" />
		<tag k="water" v="lake" />
	</node>
	<node id="-753347" lat="68.8004055531" lon="16.9482833333">
		<tag k="name" v="Ringvatnet" />
		<tag k="natural" v="water" />
		<tag k="ssr:stedsnr" v="563206" />
	</node>
	<node id="-753355" lat="68.8912694411" lon="17.3740111111">
		<tag k="name" v="Langevatnet" />
		<tag k="natural" v="water" />
		<tag k="ssr:stedsnr" v="563248" />
	</node>
	<node id="-752829" lat="68.7484777737" lon="16.9548500048">
		<tag k="name" v="Aneneset" />
		<tag k="natural" v="cape" />
		<tag k="ssr:stedsnr" v="655066" />
	</node>
	<node id="-752828" lat="68.7560777808" lon="16.9455222174">
		<tag k="name" v="Stokkelva" />
		<tag k="ssr:stedsnr" v="655061" />
		<tag k="waterway" v="stream" />
	</node>
	<node id="-752927" lat="68.8364583322" lon="17.3391500001">
		<tag k="name" v="Lielvvatnet" />
		<tag k="natural" v="water" />
		<tag k="ssr:stedsnr" v="928181" />
		<tag k="water" v="lake" />
	</node>
	<node id="-753244" lat="68.7703250034" lon="16.9541194324">
		<tag k="name" v="Skipsvatnet" />
		<tag k="natural" v="water" />
		<tag k="ssr:stedsnr" v="381953" />
		<tag k="water" v="lake" />
	</node>
	<node id="-752819" lat="68.8984222257" lon="17.1501944359">
		<tag k="name" v="Nonskarvatnet" />
		<tag k="natural" v="water" />
		<tag k="ssr:stedsnr" v="717677" />
	</node>
	<node id="-753329" lat="68.8265611119" lon="17.0368027814">
		<tag k="name" v="Svemyra" />
		<tag k="natural" v="water" />
		<tag k="ssr:stedsnr" v="535461" />
	</node>
	<node id="-752815" lat="68.8035499983" lon="17.2361555539">
		<tag k="name" v="Lomvatnet" />
		<tag k="natural" v="water" />
		<tag k="ssr:stedsnr" v="717640" />
	</node>
	<node id="-752809" lat="68.8155027784" lon="17.0056222231">
		<tag k="name" v="Bollavasstunga" />
		<tag k="natural" v="cape" />
		<tag k="ssr:stedsnr" v="717531" />
	</node>
	<node id="-752496" lat="68.7378611062" lon="16.8587777868">
		<tag k="name" v="Slettelva" />
		<tag k="ssr:stedsnr" v="110024" />
		<tag k="waterway" v="stream" />
	</node>
	<node id="-753310" lat="68.7986083379" lon="16.9809722171">
		<tag k="name" v="Demningen" />
		<tag k="ssr:stedsnr" v="534399" />
		<tag k="waterway" v="dam" />
	</node>
	<node id="-753309" lat="68.8057055514" lon="16.9633527749">
		<tag k="name" v="Brokheivatnet" />
		<tag k="natural" v="water" />
		<tag k="ssr:stedsnr" v="534391" />
	</node>
	<node id="-752796" lat="68.8987888856" lon="17.362980549">
		<tag k="name" v="Tindvatnet" />
		<tag k="natural" v="water" />
		<tag k="ssr:stedsnr" v="717189" />
	</node>
	<node id="-753307" lat="68.8013611119" lon="16.973580566">
		<tag k="name" v="Sennavatnet" />
		<tag k="natural" v="water" />
		<tag k="ssr:stedsnr" v="534113" />
	</node>
	<node id="-753304" lat="68.7619305525" lon="16.966252769">
		<tag k="name" v="Heimekjosen" />
		<tag k="natural" v="bay" />
		<tag k="ssr:stedsnr" v="534072" />
	</node>
	<node id="-752791" lat="68.7484888885" lon="16.9264361094">
		<tag k="name" v="Djupedalselva" />
		<tag k="ssr:stedsnr" v="716065" />
		<tag k="waterway" v="stream" />
	</node>
	<node id="-752788" lat="68.899697219" lon="17.2220166583">
		<tag k="name" v="Sandneselva" />
		<tag k="ssr:stedsnr" v="595819" />
		<tag k="waterway" v="stream" />
	</node>
	<node id="-752785" lat="68.8322666649" lon="17.2703527698">
		<tag k="name" v="Snøfjellelva" />
		<tag k="ssr:stedsnr" v="567441" />
		<tag k="waterway" v="stream" />
	</node>
	<node id="-753292" lat="68.8353861104" lon="17.3701583355">
		<tag k="name" v="Hettatjønna" />
		<tag k="natural" v="water" />
		<tag k="ssr:stedsnr" v="413792" />
	</node>
	<node id="-752775" lat="68.8297333309" lon="17.2219111161">
		<tag k="name" v="Kroken" />
		<tag k="natural" v="cape" />
		<tag k="ssr:stedsnr" v="535612" />
	</node>
	<node id="-753286" lat="68.8638888888" lon="17.1610138803">
		<tag k="name" v="Rivelva" />
		<tag k="ssr:stedsnr" v="413715" />
		<tag k="waterway" v="stream" />
	</node>
	<node id="-753345" lat="68.9192277802" lon="17.2873277839">
		<tag k="alt_name" v="Langbergelva" />
		<tag k="name" v="Langebergelva" />
		<tag k="ssr:stedsnr" v="563141" />
		<tag k="waterway" v="stream" />
	</node>
	<node id="-752767" lat="68.7892250038" lon="16.9930444334">
		<tag k="name" v="Steinsåsvatnet" />
		<tag k="natural" v="water" />
		<tag k="ssr:stedsnr" v="534403" />
	</node>
	<node id="-753278" lat="68.8011444406" lon="17.2176916702">
		<tag k="name" v="Sørvikelva" />
		<tag k="ssr:stedsnr" v="413640" />
		<tag k="waterway" v="stream" />
	</node>
	<node id="-753276" lat="68.8407666689" lon="16.9882361154">
		<tag k="name" v="Mølne-elva" />
		<tag k="ssr:stedsnr" v="413495" />
		<tag k="waterway" v="stream" />
	</node>
	<node id="-752761" lat="68.7746500017" lon="16.9742583446">
		<tag k="name" v="Lomvatnet" />
		<tag k="natural" v="water" />
		<tag k="ssr:stedsnr" v="685969" />
	</node>
	<node id="-752760" lat="68.7927666643" lon="17.1105333311">
		<tag k="name" v="Vikelva" />
		<tag k="ssr:stedsnr" v="685965" />
		<tag k="waterway" v="stream" />
	</node>
	<node id="-753270" lat="68.778330559" lon="17.1447055563">
		<tag k="name" v="Skrinndalselva" />
		<tag k="ssr:stedsnr" v="413357" />
		<tag k="waterway" v="stream" />
	</node>
	<node id="-752757" lat="68.7774972192" lon="16.9815638742">
		<tag k="name" v="Tempervatnet" />
		<tag k="natural" v="water" />
		<tag k="ssr:stedsnr" v="685933" />
	</node>
	<node id="-752739" lat="68.9198611153" lon="17.3477833286">
		<tag k="name" v="Skreddalselva" />
		<tag k="ssr:stedsnr" v="656832" />
		<tag k="waterway" v="stream" />
	</node>
	<node id="-753250" lat="68.8137944491" lon="17.0219527725">
		<tag k="name" v="Fridalsvatnet" />
		<tag k="natural" v="water" />
		<tag k="ssr:stedsnr" v="382194" />
	</node>
	<node id="-753249" lat="68.8195638899" lon="16.9894277807">
		<tag k="name" v="Stilkusvatnet" />
		<tag k="natural" v="water" />
		<tag k="ssr:stedsnr" v="382191" />
		<tag k="water" v="lake" />
	</node>
	<node id="-752735" lat="68.8708944422" lon="17.4686805649">
		<tag k="name" v="Storelva" />
		<tag k="ssr:stedsnr" v="656793" />
		<tag k="waterway" v="stream" />
	</node>
	<node id="-752732" lat="68.8979916699" lon="17.1351861156">
		<tag k="name" v="Gongskarelva" />
		<tag k="ssr:stedsnr" v="656765" />
		<tag k="waterway" v="stream" />
	</node>
	<node id="-753242" lat="68.8921777766" lon="17.242122222">
		<tag k="name" v="Storelva" />
		<tag k="ssr:stedsnr" v="381302" />
		<tag k="waterway" v="river" />
	</node>
	<node id="-753238" lat="68.8061527764" lon="17.0390277827">
		<tag k="alt_name" v="Borvatnet" />
		<tag k="name" v="Bårvatnet" />
		<tag k="natural" v="water" />
		<tag k="ssr:stedsnr" v="381224" />
	</node>
	<node id="-753235" lat="68.8922499968" lon="17.3208777837">
		<tag k="name" v="Stillelva" />
		<tag k="ssr:stedsnr" v="353864" />
		<tag k="waterway" v="river" />
	</node>
	<node id="-753234" lat="68.8197611092" lon="17.2310888977">
		<tag k="name" v="Glebergelva" />
		<tag k="ssr:stedsnr" v="353636" />
		<tag k="waterway" v="stream" />
	</node>
	<node id="-753233" lat="68.8208305559" lon="17.3304111074">
		<tag k="name" v="Gregusvikelva" />
		<tag k="ssr:stedsnr" v="353588" />
		<tag k="waterway" v="stream" />
	</node>
	<node id="-752538" lat="68.8317861105" lon="17.0471861206">
		<tag k="name" v="Krokelva" />
		<tag k="ssr:stedsnr" v="292300" />
		<tag k="waterway" v="stream" />
	</node>
	<node id="-753214" lat="68.8171500046" lon="16.9906888867">
		<tag k="name" v="Stilkusvasstunga" />
		<tag k="natural" v="cape" />
		<tag k="ssr:stedsnr" v="352485" />
	</node>
	<node id="-752479" lat="68.8329222211" lon="17.3678583431">
		<tag k="name" v="Lielva" />
		<tag k="ssr:stedsnr" v="260271" />
		<tag k="waterway" v="stream" />
	</node>
	<node id="-752693" lat="68.7832083357" lon="16.9712777686">
		<tag k="name" v="Vassbotn" />
		<tag k="natural" v="bay" />
		<tag k="ssr:stedsnr" v="507439" />
	</node>
	<node id="-752685" lat="68.8333861161" lon="17.1921083216">
		<tag k="name" v="Å-elva" />
		<tag k="ssr:stedsnr" v="385457" />
		<tag k="waterway" v="river" />
	</node>
	<node id="-753586" lat="68.9274222253" lon="17.2495416575">
		<tag k="name" v="Skjærvikelva" />
		<tag k="ssr:stedsnr" v="959834" />
		<tag k="waterway" v="stream" />
	</node>
	<node id="-753194" lat="68.9075472222" lon="17.3849194444">
		<tag k="name" v="Finnelielva" />
		<tag k="ssr:stedsnr" v="352180" />
		<tag k="waterway" v="stream" />
	</node>
	<node id="-753193" lat="68.9158305545" lon="17.3679916552">
		<tag k="name" v="Gårdselva" />
		<tag k="ssr:stedsnr" v="352179" />
		<tag k="waterway" v="stream" />
	</node>
	<node id="-753192" lat="68.8956138908" lon="17.368591655">
		<tag k="name" v="Sennavatnet" />
		<tag k="natural" v="water" />
		<tag k="ssr:stedsnr" v="352164" />
	</node>
	<node id="-753191" lat="68.7668444419" lon="16.9642111152">
		<tag k="name" v="Heimfinnbuneset" />
		<tag k="natural" v="cape" />
		<tag k="ssr:stedsnr" v="352073" />
	</node>
	<node id="-752981" lat="68.8123111073" lon="16.9907722243">
		<tag k="alt_name" v="Bollavatnet, l" />
		<tag k="name" v="Lille Bollavatnet" />
		<tag k="natural" v="water" />
		<tag k="ssr:stedsnr" v="18171" />
	</node>
	<node id="-753189" lat="68.758772225" lon="16.9516472208">
		<tag k="name" v="Forsåstorholmen" />
		<tag k="place" v="islet" />
		<tag k="ssr:stedsnr" v="352056" />
	</node>
	<node id="-752489" lat="68.741624996" lon="16.9556527739">
		<tag k="name" v="Storelva" />
		<tag k="ssr:stedsnr" v="260933" />
		<tag k="waterway" v="stream" />
	</node>
	<node id="-753186" lat="68.8359861139" lon="17.2843972186">
		<tag k="name" v="Snøfjellvatnet" />
		<tag k="natural" v="water" />
		<tag k="ssr:stedsnr" v="325471" />
	</node>
	<node id="-752672" lat="68.9193111069" lon="17.3578972293">
		<tag k="name" v="Dikhammarelva" />
		<tag k="ssr:stedsnr" v="474816" />
		<tag k="waterway" v="stream" />
	</node>
	<node id="-753170" lat="68.8903694411" lon="17.3501444377">
		<tag k="name" v="Mørkevatnet" />
		<tag k="natural" v="water" />
		<tag k="ssr:stedsnr" v="321221" />
	</node>
	<node id="-753160" lat="68.7514888931" lon="16.8876805464">
		<tag k="name" v="Tjeldvatnet" />
		<tag k="natural" v="water" />
		<tag k="ssr:stedsnr" v="200995" />
	</node>
	<node id="-753159" lat="68.7535694481" lon="16.9638027737">
		<tag k="name" v="Anemyrvatnet" />
		<tag k="natural" v="water" />
		<tag k="ssr:stedsnr" v="200994" />
	</node>
	<node id="-752645" lat="68.7767222242" lon="16.9463361219">
		<tag k="name" v="Langeneskjosen" />
		<tag k="natural" v="bay" />
		<tag k="ssr:stedsnr" v="474438" />
	</node>
</osm>
