<?xml version="1.0" encoding="UTF-8"?>
<<<<<<< HEAD
<osm version="0.6" generator="osmapis">
	<node lat="68.83863055564105" lon="17.18030554447609" id="-32534">
		<tag k="name" v="Ytter-Å" />
		<tag k="place" v="farm" />
		<tag k="ssr:stedsnr" v="21488" />
	</node>
	<node lat="68.76443888653527" lon="17.162650000510496" id="-32536">
		<tag k="name" v="Stridsvollen" />
		<tag k="place" v="farm" />
		<tag k="ssr:stedsnr" v="29427" />
	</node>
	<node lat="68.89105000015637" lon="17.223961113771846" id="-32545">
		<tag k="name" v="Nymo" />
		<tag k="place" v="isolated_dwelling" />
		<tag k="ssr:stedsnr" v="49618" />
	</node>
	<node lat="68.83327499679032" lon="17.248486095794593" id="-32553">
		<tag k="name" v="Matsteinen" />
		<tag k="place" v="locality" />
		<tag k="ssr:stedsnr" v="79202" />
	</node>
	<node lat="68.82376323107266" lon="17.17762173590401" id="-32555">
		<tag k="alt_name" v="Ånnstad" />
		<tag k="name" v="Ånstad" />
		<tag k="place" v="hamlet" />
		<tag k="ssr:stedsnr" v="79206" />
	</node>
	<node lat="68.82801439008033" lon="17.070976494934886" id="-32559">
		<tag k="fixme" v="consider place=hamlet" />
		<tag k="name" v="Inner-Bolla" />
		<tag k="place" v="farm" />
		<tag k="ssr:stedsnr" v="90009" />
	</node>
	<node lat="68.80986111205878" lon="17.186341675913596" id="-32576">
		<tag k="alt_name" v="Breidvika;Breivika" />
		<tag k="name" v="Breivik" />
		<tag k="place" v="farm" />
		<tag k="ssr:stedsnr" v="138215" />
	</node>
	<node lat="68.88875000063402" lon="17.22915555807012" id="-32580">
		<tag k="name" v="Nymo" />
		<tag k="place" v="farm" />
		<tag k="ssr:stedsnr" v="139242" />
	</node>
	<node lat="68.83490555759197" lon="17.18637500038826" id="-32583">
		<tag k="name" v="Inner-Å" />
		<tag k="place" v="farm" />
		<tag k="ssr:stedsnr" v="142437" />
	</node>
	<node lat="68.7438527789219" lon="16.982955542596105" id="-32584">
		<tag k="fixme" v="consider place=hamlet" />
		<tag k="name" v="Forså" />
		<tag k="place" v="village" />
		<tag k="ssr:stedsnr" v="146429" />
	</node>
	<node lat="68.92179400615973" lon="17.362461322460987" id="-32589">
		<tag k="alt_name" v="Aarbostad" />
		<tag k="fixme" v="consider place=hamlet" />
		<tag k="name" v="Årbostad" />
		<tag k="place" v="farm" />
		<tag k="ssr:stedsnr" v="260170" />
	</node>
	<node lat="68.89589166813369" lon="17.2897861060488" id="-32598">
		<tag k="name" v="Vasskaret" />
		<tag k="place" v="farm" />
		<tag k="ssr:stedsnr" v="260295" />
	</node>
	<node lat="68.9113361079977" lon="17.38139165166957" id="-32602">
		<tag k="name" v="Sætran" />
		<tag k="place" v="locality" />
		<tag k="ssr:stedsnr" v="170216" />
	</node>
	<node lat="68.79727222699624" lon="17.24675276996387" id="-32623">
		<tag k="alt_name" v="Segelstein" />
		<tag k="name" v="Seglstein" />
		<tag k="place" v="farm" />
		<tag k="ssr:stedsnr" v="199961" />
	</node>
	<node lat="68.83285277473733" lon="16.968138880739772" id="-32643">
		<tag k="name" v="Steinvik" />
		<tag k="place" v="locality" />
		<tag k="ssr:stedsnr" v="231510" />
	</node>
	<node lat="68.74320555390855" lon="16.981661119267248" id="-32664">
		<tag k="alt_name" v="Forså ytre;Forså, yt" />
		<tag k="name" v="Ytre Forså" />
		<tag k="old_name" v="Forså" />
		<tag k="place" v="farm" />
		<tag k="ssr:stedsnr" v="260949" />
	</node>
	<node lat="68.86207499548554" lon="17.04206389767643" id="-32680">
		<tag k="alt_name:no" v="Roldnes" />
		<tag k="fixme" v="consider place=hamlet" />
		<tag k="name" v="Rollnes - Nuorta-Rállegeahči" />
		<tag k="name:no" v="Rollnes" />
		<tag k="name:se" v="Nuorta-Rállegeahči" />
		<tag k="old_name:no" v="Nordrollnes" />
		<tag k="place" v="village" />
		<tag k="ssr:stedsnr" v="324506" />
	</node>
	<node lat="68.80173055649327" lon="17.10984723248754" id="-32743">
		<tag k="name" v="Vik" />
		<tag k="place" v="hamlet" />
		<tag k="ssr:stedsnr" v="381962" />
	</node>
	<node lat="68.77971899154107" lon="16.923318042781247" id="-32745">
		<tag k="name" v="Hallevika" />
		<tag k="place" v="locality" />
		<tag k="ssr:stedsnr" v="381969" />
	</node>
	<node lat="68.72883333388283" lon="16.831322232182377" id="-32746">
		<tag k="fixme" v="consider place=hamlet" />
		<tag k="name" v="Sørrollnes - Orjješ-Rállegeahči" />
		<tag k="name:no" v="Sørrollnes" />
		<tag k="name:se" v="Orjješ-Rállegeahči" />
		<tag k="place" v="village" />
		<tag k="ssr:stedsnr" v="382912" />
	</node>
	<node lat="68.81095833171908" lon="17.184761114484065" id="-32749">
		<tag k="alt_name" v="Breidvika" />
		<tag k="name" v="Breivika" />
		<tag k="place" v="hamlet" />
		<tag k="ssr:stedsnr" v="385445" />
	</node>
	<node lat="68.83708889252523" lon="17.180905553655432" id="-32792">
		<tag k="name" v="Ytter-Å" />
		<tag k="place" v="farm" />
		<tag k="ssr:stedsnr" v="507426" />
	</node>
	<node lat="68.91613333749827" lon="17.17169999718908" id="-32794">
		<tag k="name" v="Åndervåg" />
		<tag k="place" v="hamlet" />
		<tag k="ssr:stedsnr" v="685126" />
	</node>
	<node lat="68.7447388847679" lon="17.012930558146383" id="-32801">
		<tag k="alt_name" v="Forså, in" />
		<tag k="name" v="Indre Forså" />
		<tag k="place" v="farm" />
		<tag k="ssr:stedsnr" v="685895" />
	</node>
	<node lat="68.83750229217593" lon="17.191062244940092" id="-32819">
		<tag k="alt_name" v="Aa Indre" />
		<tag k="fixme" v="consider place=hamlet" />
		<tag k="name" v="Inner-Å" />
		<tag k="place" v="farm" />
		<tag k="ssr:stedsnr" v="535322" />
	</node>
	<node lat="68.8067833297625" lon="17.097455543161242" id="-32835">
		<tag k="name" v="Kleiva" />
		<tag k="place" v="farm" />
		<tag k="ssr:stedsnr" v="697423" />
	</node>
	<node lat="68.86935164287372" lon="17.47005625523626" id="-32855">
		<tag k="alt_name" v="Furnes" />
		<tag k="fixme" v="consider place=hamlet" />
		<tag k="name" v="Fornes" />
		<tag k="place" v="farm" />
		<tag k="ssr:stedsnr" v="624758" />
	</node>
	<node lat="68.86892778097888" lon="17.47193054764887" id="-32891">
		<tag k="name" v="Fornes" />
		<tag k="place" v="farm" />
		<tag k="ssr:stedsnr" v="689601" />
	</node>
	<node lat="68.89485555784839" lon="17.27147498677545" id="-32935">
		<tag k="name" v="Kariheimen" />
		<tag k="place" v="locality" />
		<tag k="ssr:stedsnr" v="899892" />
	</node>
	<node lat="68.82886015681127" lon="17.18822899531482" id="-32943">
		<tag k="fixme" v="consider place=hamlet" />
		<tag k="name" v="Ånstad" />
		<tag k="place" v="farm" />
		<tag k="ssr:stedsnr" v="749466" />
	</node>
	<node lat="68.91276666764057" lon="17.195013878661417" id="-32960">
		<tag k="name" v="Straumen" />
		<tag k="place" v="hamlet" />
		<tag k="ssr:stedsnr" v="810095" />
	</node>
	<node lat="68.7883166712335" lon="17.15255277632766" id="-32961">
		<tag k="fixme" v="consider place=hamlet" />
		<tag k="name" v="Ibestad - Ivvárstádik" />
		<tag k="name:no" v="Ibestad" />
		<tag k="name:se" v="Ivvárstádik" />
		<tag k="place" v="village" />
		<tag k="ssr:stedsnr" v="810493" />
	</node>
	<node lat="68.81855278008142" lon="17.331016656971595" id="-32976">
		<tag k="alt_name" v="Gregusvik" />
		<tag k="name" v="Gregusvika" />
		<tag k="place" v="locality" />
		<tag k="ssr:stedsnr" v="928171" />
	</node>
	<node lat="68.83314064217713" lon="17.077376071688334" id="-32980">
		<tag k="fixme" v="consider place=hamlet" />
		<tag k="name" v="Bolla" />
		<tag k="place" v="village" />
		<tag k="ssr:stedsnr" v="928186" />
	</node>
	<node lat="68.74934691212324" lon="17.11693574501498" id="-32987">
		<tag k="name" v="Kalvegarden" />
=======
<osm generator="osmapis" version="0.6">
	<node id="-855019" lat="68.8365611097" lon="17.1866361061">
		<tag k="name" v="Inner-Å" />
		<tag k="place" v="farm" />
		<tag k="ssr:stedsnr" v="446453" />
	</node>
	<node id="-855018" lat="68.8691388875" lon="17.4730777811">
		<tag k="name" v="Fornes" />
		<tag k="place" v="farm" />
		<tag k="ssr:stedsnr" v="446425" />
	</node>
	<node id="-855529" lat="68.911336108" lon="17.3813916517">
		<tag k="name" v="Sætran" />
		<tag k="place" v="locality" />
		<tag k="ssr:stedsnr" v="170216" />
	</node>
	<node id="-855009" lat="68.8328527747" lon="16.9681388807">
		<tag k="name" v="Steinvik" />
		<tag k="place" v="locality" />
		<tag k="ssr:stedsnr" v="231510" />
	</node>
	<node id="-856032" lat="68.7280791098" lon="16.8359626562">
		<tag k="fixme" v="consider place=hamlet" />
		<tag k="name" v="Sørrollnes" />
		<tag k="place" v="farm" />
		<tag k="ssr:stedsnr" v="1077106" />
	</node>
	<node id="-856031" lat="68.799345039" lon="17.2170707439">
		<tag k="fixme" v="consider place=hamlet" />
		<tag k="name" v="Igeland" />
		<tag k="place" v="farm" />
		<tag k="ssr:stedsnr" v="1077105" />
	</node>
	<node id="-856030" lat="68.8615006374" lon="17.0355391541">
		<tag k="alt_name" v="Nordre Rollnes" />
		<tag k="fixme" v="consider place=hamlet" />
		<tag k="name" v="Nord-Rollnes" />
		<tag k="place" v="farm" />
		<tag k="ssr:stedsnr" v="1077104" />
	</node>
	<node id="-856029" lat="68.8380274717" lon="17.0644887719">
		<tag k="name" v="Svartholtet" />
		<tag k="place" v="hamlet" />
		<tag k="ssr:stedsnr" v="1077103" />
	</node>
	<node id="-856028" lat="68.8354409969" lon="17.0672464674">
		<tag k="alt_name" v="Ytre Bolla" />
		<tag k="fixme" v="consider place=hamlet" />
		<tag k="name" v="Ytter-Bolla" />
		<tag k="place" v="farm" />
		<tag k="ssr:stedsnr" v="1077102" />
	</node>
	<node id="-856027" lat="68.8057890375" lon="17.0968516033">
		<tag k="name" v="Selset" />
		<tag k="place" v="hamlet" />
		<tag k="ssr:stedsnr" v="1077101" />
	</node>
	<node id="-855514" lat="68.8295916656" lon="17.1865861085">
		<tag k="name" v="Ånstad" />
		<tag k="place" v="farm" />
		<tag k="ssr:stedsnr" v="142429" />
	</node>
	<node id="-856025" lat="68.7879915307" lon="17.1479512234">
		<tag k="fixme" v="consider place=hamlet" />
		<tag k="name" v="Nedre Ibestad" />
		<tag k="place" v="farm" />
		<tag k="ssr:stedsnr" v="1077099" />
	</node>
	<node id="-856024" lat="68.7806805007" lon="17.1728241434">
		<tag k="fixme" v="consider place=hamlet" />
		<tag k="name" v="Ibestad" />
		<tag k="place" v="farm" />
		<tag k="ssr:stedsnr" v="1077098" />
	</node>
	<node id="-856023" lat="68.7630067168" lon="17.1586856983">
		<tag k="fixme" v="consider place=hamlet" />
		<tag k="name" v="Parten" />
		<tag k="place" v="farm" />
		<tag k="ssr:stedsnr" v="1077096" />
	</node>
	<node id="-856022" lat="68.7658459558" lon="17.1060325868">
		<tag k="fixme" v="consider place=hamlet" />
		<tag k="name" v="Lilleskog" />
		<tag k="place" v="farm" />
		<tag k="ssr:stedsnr" v="1077095" />
	</node>
	<node id="-856021" lat="69.6807751959" lon="19.0868014399">
		<tag k="fixme" v="consider place=hamlet" />
		<tag k="name" v="Krokelv" />
		<tag k="place" v="farm" />
		<tag k="ssr:stedsnr" v="1076826" />
	</node>
	<node id="-855507" lat="68.8887500006" lon="17.2291555581">
		<tag k="name" v="Nymo" />
		<tag k="place" v="farm" />
		<tag k="ssr:stedsnr" v="139242" />
	</node>
	<node id="-855506" lat="68.8490823802" lon="17.0050136632">
		<tag k="fixme" v="consider place=hamlet" />
		<tag k="name" v="Fugleberg" />
		<tag k="place" v="farm" />
		<tag k="ssr:stedsnr" v="139235" />
	</node>
	<node id="-856016" lat="69.6548386171" lon="18.9540555979">
		<tag k="amenity" v="school" />
		<tag k="name" v="Ishavsbyen videregående skole" />
		<tag k="ssr:stedsnr" v="1075695" />
	</node>
	<node id="-856014" lat="68.7448454316" lon="17.0103389394">
		<tag k="name" v="Forså indre" />
		<tag k="place" v="farm" />
		<tag k="ssr:stedsnr" v="989995" />
	</node>
	<node id="-856013" lat="68.7443386288" lon="17.011383309">
		<tag k="name" v="Forså indre" />
		<tag k="place" v="farm" />
		<tag k="ssr:stedsnr" v="989994" />
	</node>
	<node id="-856012" lat="68.745609962" lon="17.0625922998">
		<tag k="name" v="Forså indre" />
		<tag k="place" v="farm" />
		<tag k="ssr:stedsnr" v="989991" />
	</node>
	<node id="-856011" lat="68.7424895486" lon="16.9781403144">
		<tag k="name" v="Forså ytre" />
>>>>>>> e1d4bc35ff8a6074a6f2e91616a996b547c36f15
		<tag k="place" v="farm" />
		<tag k="ssr:stedsnr" v="928890" />
	</node>
<<<<<<< HEAD
	<node lat="68.75991666931375" lon="17.148524998033242" id="-32991">
		<tag k="alt_name" v="Breidvoll" />
=======
	<node id="-855498" lat="68.7996277766" lon="17.2153722285">
		<tag k="alt_name" v="Sørvik" />
>>>>>>> e1d4bc35ff8a6074a6f2e91616a996b547c36f15
		<tag k="fixme" v="consider place=hamlet" />
		<tag k="name" v="Breivoll" />
		<tag k="place" v="village" />
		<tag k="ssr:stedsnr" v="928988" />
	</node>
<<<<<<< HEAD
	<node lat="68.77926944417202" lon="17.171788882635397" id="-32993">
		<tag k="name" v="Hamnvik" />
		<tag k="place" v="village" />
		<tag k="ssr:stedsnr" v="867947" />
	</node>
	<node lat="68.77599444363722" lon="17.017622223505196" id="-32994">
		<tag k="historic" v="shieling" />
		<tag k="name" v="Fjellhøgda" />
		<tag k="place" v="isolated_dwelling" />
		<tag k="ssr:stedsnr" v="867951" />
	</node>
	<node lat="68.76958611241011" lon="17.010522222286195" id="-33030">
		<tag k="historic" v="shieling" />
		<tag k="name" v="Vageniusheimen" />
		<tag k="place" v="isolated_dwelling" />
		<tag k="ssr:stedsnr" v="959390" />
	</node>
	<node lat="68.91604891846009" lon="17.167885400103074" id="-33039">
		<tag k="fixme" v="consider place=hamlet" />
		<tag k="name" v="Åndervåg" />
=======
	<node id="-856009" lat="68.7440318118" lon="16.9829551272">
		<tag k="name" v="Forså ytre" />
		<tag k="place" v="farm" />
		<tag k="ssr:stedsnr" v="989972" />
	</node>
	<node id="-856008" lat="68.7434028817" lon="16.9800152762">
		<tag k="name" v="Forså ytre" />
		<tag k="place" v="farm" />
		<tag k="ssr:stedsnr" v="989969" />
	</node>
	<node id="-856007" lat="68.7435462858" lon="16.9824948095">
		<tag k="alt_name:no" v="Forsaa ytre" />
		<tag k="fixme" v="consider place=hamlet" />
		<tag k="loc_name:no" v="Sør-Forså;Sør-Forsa" />
		<tag k="loc_name:se" v="Orjjes-Huorsu" />
		<tag k="name" v="Ytre Forså" />
		<tag k="name:no" v="Ytre Forså" />
>>>>>>> e1d4bc35ff8a6074a6f2e91616a996b547c36f15
		<tag k="place" v="farm" />
		<tag k="ssr:stedsnr" v="973999" />
	</node>
<<<<<<< HEAD
	<node lat="68.74376121343167" lon="17.009610816644894" id="-33040">
		<tag k="name" v="Fossheim" />
=======
	<node id="-856006" lat="68.7452197527" lon="17.0099691706">
		<tag k="alt_name:no" v="Forsaa indre" />
		<tag k="fixme" v="consider place=hamlet" />
		<tag k="loc_name:no" v="Nord-Forså;Nord-Forsa" />
		<tag k="loc_name:se" v="Nuorta-Huorsu" />
		<tag k="name" v="Indre Forså" />
		<tag k="name:no" v="Indre Forså" />
>>>>>>> e1d4bc35ff8a6074a6f2e91616a996b547c36f15
		<tag k="place" v="farm" />
		<tag k="ssr:stedsnr" v="974045" />
	</node>
<<<<<<< HEAD
	<node lat="68.74528029102873" lon="17.016683231130028" id="-33041">
=======
	<node id="-856005" lat="68.745280291" lon="17.0166832311">
>>>>>>> e1d4bc35ff8a6074a6f2e91616a996b547c36f15
		<tag k="loc_name:no" v="Forsa" />
		<tag k="loc_name:se" v="Huorssuk" />
		<tag k="name" v="Forså" />
		<tag k="name:no" v="Forså" />
		<tag k="place" v="hamlet" />
		<tag k="ssr:stedsnr" v="989924" />
	</node>
<<<<<<< HEAD
	<node lat="68.74521975269555" lon="17.009969170608716" id="-33042">
		<tag k="alt_name:no" v="Forsaa indre" />
		<tag k="fixme" v="consider place=hamlet" />
		<tag k="loc_name:no" v="Nord-Forså;Nord-Forsa" />
		<tag k="loc_name:se" v="Nuorta-Huorsu" />
		<tag k="name" v="Indre Forså" />
		<tag k="name:no" v="Indre Forså" />
=======
	<node id="-856004" lat="68.8008125642" lon="17.1081789242">
		<tag k="fixme" v="consider place=hamlet" />
		<tag k="name" v="Vik" />
		<tag k="place" v="farm" />
		<tag k="ssr:stedsnr" v="989172" />
	</node>
	<node id="-856003" lat="68.8248794628" lon="17.1810814865">
		<tag k="name" v="Fredheim" />
>>>>>>> e1d4bc35ff8a6074a6f2e91616a996b547c36f15
		<tag k="place" v="farm" />
		<tag k="ssr:stedsnr" v="989929" />
	</node>
<<<<<<< HEAD
	<node lat="68.74340288166408" lon="16.980015276247716" id="-33043">
		<tag k="name" v="Forså ytre" />
=======
	<node id="-856002" lat="68.7437612134" lon="17.0096108166">
		<tag k="name" v="Fossheim" />
>>>>>>> e1d4bc35ff8a6074a6f2e91616a996b547c36f15
		<tag k="place" v="farm" />
		<tag k="ssr:stedsnr" v="989969" />
	</node>
<<<<<<< HEAD
	<node lat="68.76017262547043" lon="17.14310226328829" id="-33057">
=======
	<node id="-856001" lat="68.9160489185" lon="17.1678854001">
>>>>>>> e1d4bc35ff8a6074a6f2e91616a996b547c36f15
		<tag k="fixme" v="consider place=hamlet" />
		<tag k="name" v="Breivoll" />
		<tag k="place" v="farm" />
<<<<<<< HEAD
		<tag k="ssr:stedsnr" v="21476" />
	</node>
	<node lat="68.9122914440535" lon="17.198229729282247" id="-33059">
		<tag k="fixme" v="consider place=hamlet" />
		<tag k="name" v="Straumen" />
=======
		<tag k="ssr:stedsnr" v="973999" />
	</node>
	<node id="-854955" lat="68.8009361084" lon="17.2729333353">
		<tag k="name" v="Yttersæter" />
		<tag k="place" v="isolated_dwelling" />
		<tag k="ssr:stedsnr" v="292620" />
	</node>
	<node id="-855465" lat="68.8280143901" lon="17.0709764949">
		<tag k="fixme" v="consider place=hamlet" />
		<tag k="name" v="Inner-Bolla" />
		<tag k="place" v="farm" />
		<tag k="ssr:stedsnr" v="90009" />
	</node>
	<node id="-855464" lat="68.8346777763" lon="17.1893555474">
		<tag k="name" v="Inner-Å" />
>>>>>>> e1d4bc35ff8a6074a6f2e91616a996b547c36f15
		<tag k="place" v="farm" />
		<tag k="ssr:stedsnr" v="29750" />
	</node>
<<<<<<< HEAD
	<node lat="68.88780277907244" lon="17.23060277535865" id="-33070">
		<tag k="name" v="Nylund" />
=======
	<node id="-855463" lat="68.8355583325" lon="17.1879027812">
		<tag k="name" v="Inner-Å" />
>>>>>>> e1d4bc35ff8a6074a6f2e91616a996b547c36f15
		<tag k="place" v="farm" />
		<tag k="ssr:stedsnr" v="49616" />
	</node>
<<<<<<< HEAD
	<node lat="68.88877499560104" lon="17.229083334878688" id="-33071">
		<tag k="name" v="Moland" />
		<tag k="place" v="isolated_dwelling" />
		<tag k="ssr:stedsnr" v="49617" />
	</node>
	<node lat="68.83220000187765" lon="17.206938900000676" id="-33077">
		<tag k="name" v="Lundamo" />
=======
	<node id="-855462" lat="68.8384444474" lon="17.1838750076">
		<tag k="name" v="Ytter-Å" />
>>>>>>> e1d4bc35ff8a6074a6f2e91616a996b547c36f15
		<tag k="place" v="farm" />
		<tag k="ssr:stedsnr" v="49650" />
	</node>
<<<<<<< HEAD
	<node lat="68.87063889325451" lon="17.274513877751907" id="-33083">
		<tag k="name" v="Vang" />
		<tag k="place" v="isolated_dwelling" />
		<tag k="ssr:stedsnr" v="49839" />
	</node>
	<node lat="68.89137068784295" lon="17.422309825857596" id="-33098">
=======
	<node id="-855970" lat="68.7695861124" lon="17.0105222223">
		<tag k="historic" v="shieling" />
		<tag k="name" v="Vageniusheimen" />
		<tag k="place" v="locality" />
		<tag k="ssr:stedsnr" v="959390" />
	</node>
	<node id="-855457" lat="68.8913706878" lon="17.4223098259">
>>>>>>> e1d4bc35ff8a6074a6f2e91616a996b547c36f15
		<tag k="alt_name" v="Jægtevik" />
		<tag k="fixme" v="consider place=hamlet" />
		<tag k="name" v="Jektevika" />
		<tag k="place" v="farm" />
		<tag k="ssr:stedsnr" v="79838" />
	</node>
<<<<<<< HEAD
	<node lat="68.83844444737704" lon="17.18387500756987" id="-33103">
		<tag k="name" v="Ytter-Å" />
		<tag k="place" v="farm" />
		<tag k="ssr:stedsnr" v="82439" />
	</node>
	<node lat="68.83555833251782" lon="17.18790278122958" id="-33104">
		<tag k="name" v="Inner-Å" />
		<tag k="place" v="farm" />
		<tag k="ssr:stedsnr" v="82446" />
	</node>
	<node lat="68.83467777627122" lon="17.18935554740479" id="-33105">
		<tag k="name" v="Inner-Å" />
		<tag k="place" v="farm" />
		<tag k="ssr:stedsnr" v="82449" />
	</node>
	<node lat="68.79962777664392" lon="17.215372228500517" id="-33133">
		<tag k="alt_name" v="Sørvik" />
=======
	<node id="-855957" lat="68.7759944436" lon="17.0176222235">
		<tag k="historic" v="shieling" />
		<tag k="name" v="Fjellhøgda" />
		<tag k="place" v="locality" />
		<tag k="ssr:stedsnr" v="867951" />
	</node>
	<node id="-855956" lat="68.7792694442" lon="17.1717888826">
		<tag k="name" v="Hamnvik" />
		<tag k="place" v="village" />
		<tag k="ssr:stedsnr" v="867947" />
	</node>
	<node id="-855442" lat="68.8706388933" lon="17.2745138778">
		<tag k="name" v="Vang" />
		<tag k="place" v="isolated_dwelling" />
		<tag k="ssr:stedsnr" v="49839" />
	</node>
	<node id="-855949" lat="68.8344333351" lon="17.1849277821">
>>>>>>> e1d4bc35ff8a6074a6f2e91616a996b547c36f15
		<tag k="fixme" v="consider place=hamlet" />
		<tag k="name" v="Sørvika" />
		<tag k="place" v="village" />
		<tag k="ssr:stedsnr" v="138954" />
	</node>
<<<<<<< HEAD
	<node lat="68.8690549997541" lon="17.143897493195237" id="-33137">
		<tag k="fixme" v="consider place=hamlet" />
		<tag k="name" v="Laupstad" />
=======
	<node id="-854923" lat="68.8221111127" lon="17.0820777647">
		<tag k="name" v="Tinghågen" />
>>>>>>> e1d4bc35ff8a6074a6f2e91616a996b547c36f15
		<tag k="place" v="farm" />
		<tag k="ssr:stedsnr" v="139224" />
	</node>
<<<<<<< HEAD
	<node lat="68.84908238017108" lon="17.005013663189253" id="-33139">
		<tag k="fixme" v="consider place=hamlet" />
		<tag k="name" v="Fugleberg" />
=======
	<node id="-854920" lat="68.8098611121" lon="17.1863416759">
		<tag k="alt_name" v="Breidvika;Breivika" />
		<tag k="name" v="Breivik" />
>>>>>>> e1d4bc35ff8a6074a6f2e91616a996b547c36f15
		<tag k="place" v="farm" />
		<tag k="ssr:stedsnr" v="139235" />
	</node>
<<<<<<< HEAD
	<node lat="68.82959166564602" lon="17.18658610852366" id="-33144">
		<tag k="name" v="Ånstad" />
		<tag k="place" v="farm" />
		<tag k="ssr:stedsnr" v="142429" />
	</node>
	<node lat="68.82211111266227" lon="17.082077764672018" id="-33175">
		<tag k="name" v="Tinghågen" />
=======
	<node id="-855943" lat="68.9269098279" lon="17.2615336897">
		<tag k="fixme" v="consider place=hamlet" />
		<tag k="name" v="Klåpen" />
		<tag k="place" v="farm" />
		<tag k="ssr:stedsnr" v="867159" />
	</node>
	<node id="-855425" lat="68.8322000019" lon="17.2069389">
		<tag k="name" v="Lundamo" />
>>>>>>> e1d4bc35ff8a6074a6f2e91616a996b547c36f15
		<tag k="place" v="farm" />
		<tag k="ssr:stedsnr" v="273019" />
	</node>
<<<<<<< HEAD
	<node lat="68.80093610841398" lon="17.272933335332098" id="-33223">
		<tag k="name" v="Yttersæter" />
=======
	<node id="-855424" lat="68.8910500002" lon="17.2239611138">
		<tag k="name" v="Nymo" />
>>>>>>> e1d4bc35ff8a6074a6f2e91616a996b547c36f15
		<tag k="place" v="isolated_dwelling" />
		<tag k="ssr:stedsnr" v="292620" />
	</node>
<<<<<<< HEAD
	<node lat="68.865150001675" lon="17.46836389081276" id="-33240">
		<tag k="alt_name" v="Borglund" />
		<tag k="name" v="Sørvikhamn" />
		<tag k="place" v="farm" />
		<tag k="ssr:stedsnr" v="321725" />
	</node>
	<node lat="68.92950833520776" lon="17.249061118202903" id="-33241">
		<tag k="name" v="Klåpskjærvika" />
=======
	<node id="-855423" lat="68.8887749956" lon="17.2290833349">
		<tag k="name" v="Moland" />
		<tag k="place" v="isolated_dwelling" />
		<tag k="ssr:stedsnr" v="49617" />
	</node>
	<node id="-855422" lat="68.8878027791" lon="17.2306027754">
		<tag k="name" v="Nylund" />
>>>>>>> e1d4bc35ff8a6074a6f2e91616a996b547c36f15
		<tag k="place" v="farm" />
		<tag k="ssr:stedsnr" v="321117" />
	</node>
<<<<<<< HEAD
	<node lat="68.82566389309184" lon="17.17681109989461" id="-33248">
		<tag k="name" v="Ånstad" />
=======
	<node id="-854900" lat="68.7432055539" lon="16.9816611193">
		<tag k="alt_name" v="Forså ytre;Forså, yt" />
		<tag k="name" v="Ytre Forså" />
		<tag k="old_name" v="Forså" />
>>>>>>> e1d4bc35ff8a6074a6f2e91616a996b547c36f15
		<tag k="place" v="farm" />
		<tag k="ssr:stedsnr" v="325441" />
	</node>
<<<<<<< HEAD
	<node lat="68.83596944588083" lon="17.18729999628071" id="-33249">
		<tag k="name" v="Inner-Å" />
=======
	<node id="-855407" lat="68.9122914441" lon="17.1982297293">
		<tag k="fixme" v="consider place=hamlet" />
		<tag k="name" v="Straumen" />
>>>>>>> e1d4bc35ff8a6074a6f2e91616a996b547c36f15
		<tag k="place" v="farm" />
		<tag k="ssr:stedsnr" v="325442" />
	</node>
<<<<<<< HEAD
	<node lat="68.7503625684185" lon="17.111504874793763" id="-33258">
		<tag k="fixme" v="consider place=hamlet" />
		<tag k="name" v="Storskog" />
=======
	<node id="-855405" lat="68.7644388865" lon="17.1626500005">
		<tag k="name" v="Stridsvollen" />
>>>>>>> e1d4bc35ff8a6074a6f2e91616a996b547c36f15
		<tag k="place" v="farm" />
		<tag k="ssr:stedsnr" v="352249" />
	</node>
	<node lat="68.80175833076827" lon="17.279813874919938" id="-33289">
		<tag k="name" v="Sæter" />
		<tag k="place" v="farm" />
		<tag k="ssr:stedsnr" v="381226" />
	</node>
<<<<<<< HEAD
	<node lat="68.83756388884713" lon="17.185725010849364" id="-33295">
=======
	<node id="-855403" lat="68.8386305556" lon="17.1803055445">
>>>>>>> e1d4bc35ff8a6074a6f2e91616a996b547c36f15
		<tag k="name" v="Ytter-Å" />
		<tag k="place" v="farm" />
		<tag k="ssr:stedsnr" v="385454" />
	</node>
<<<<<<< HEAD
	<node lat="68.83956578803102" lon="17.183661161240636" id="-33304">
		<tag k="alt_name" v="Aa Ytre" />
		<tag k="fixme" v="consider place=hamlet" />
		<tag k="name" v="Ytter-Å" />
		<tag k="place" v="farm" />
		<tag k="ssr:stedsnr" v="413332" />
	</node>
	<node lat="68.86913888752272" lon="17.473077781126094" id="-33351">
		<tag k="name" v="Fornes" />
		<tag k="place" v="farm" />
		<tag k="ssr:stedsnr" v="446425" />
	</node>
	<node lat="68.83656110967586" lon="17.186636106139193" id="-33352">
		<tag k="name" v="Inner-Å" />
=======
	<node id="-855402" lat="68.7601726255" lon="17.1431022633">
		<tag k="fixme" v="consider place=hamlet" />
		<tag k="name" v="Breivoll" />
		<tag k="place" v="farm" />
		<tag k="ssr:stedsnr" v="21476" />
	</node>
	<node id="-854885" lat="68.9217940062" lon="17.3624613225">
		<tag k="alt_name" v="Aarbostad" />
		<tag k="fixme" v="consider place=hamlet" />
		<tag k="name" v="Årbostad" />
		<tag k="place" v="farm" />
		<tag k="ssr:stedsnr" v="260170" />
	</node>
	<node id="-855908" lat="68.7962999991" lon="17.1295083225">
		<tag k="name" v="Ryet" />
>>>>>>> e1d4bc35ff8a6074a6f2e91616a996b547c36f15
		<tag k="place" v="farm" />
		<tag k="ssr:stedsnr" v="446453" />
	</node>
<<<<<<< HEAD
	<node lat="68.84610555798508" lon="17.042191666265712" id="-33363">
=======
	<node id="-855906" lat="68.7883166712" lon="17.1525527763">
>>>>>>> e1d4bc35ff8a6074a6f2e91616a996b547c36f15
		<tag k="fixme" v="consider place=hamlet" />
		<tag k="name" v="Selvågen" />
		<tag k="place" v="village" />
		<tag k="ssr:stedsnr" v="515009" />
	</node>
<<<<<<< HEAD
	<node lat="68.75167777726186" lon="17.006605552258044" id="-33369">
		<tag k="name" v="Mortenheimen" />
		<tag k="place" v="locality" />
		<tag k="ssr:stedsnr" v="534079" />
	</node>
	<node lat="68.87259444392203" lon="17.268572213864456" id="-33383">
		<tag k="name" v="Blomvang" />
		<tag k="place" v="farm" />
		<tag k="ssr:stedsnr" v="534851" />
	</node>
	<node lat="68.80748055110054" lon="17.099888896567165" id="-33402">
		<tag k="name" v="Selset" />
=======
	<node id="-855905" lat="68.9127666676" lon="17.1950138787">
		<tag k="name" v="Straumen" />
>>>>>>> e1d4bc35ff8a6074a6f2e91616a996b547c36f15
		<tag k="place" v="hamlet" />
		<tag k="ssr:stedsnr" v="563201" />
	</node>
<<<<<<< HEAD
	<node lat="68.84047419309752" lon="17.4001158730197" id="-33412">
		<tag k="alt_name" v="Kråkrø" />
		<tag k="fixme" v="consider place=hamlet" />
		<tag k="name" v="Kråkrøy" />
		<tag k="place" v="farm" />
		<tag k="ssr:stedsnr" v="563219" />
	</node>
	<node lat="68.83430555578734" lon="17.379405557742782" id="-33413">
		<tag k="name" v="Kråkrøhamn" />
		<tag k="place" v="isolated_dwelling" />
		<tag k="ssr:stedsnr" v="563221" />
	</node>
	<node lat="68.74400705650108" lon="17.008673147133386" id="-33416">
		<tag k="name" v="Holtet" />
		<tag k="place" v="farm" />
		<tag k="ssr:stedsnr" v="563921" />
	</node>
	<node lat="68.7456638873736" lon="17.062544440942936" id="-33418">
		<tag k="name" v="Rognvika" />
		<tag k="place" v="isolated_dwelling" />
		<tag k="ssr:stedsnr" v="563915" />
	</node>
	<node lat="68.75577222172639" lon="17.13884999628527" id="-33429">
		<tag k="name" v="Skog" />
		<tag k="place" v="hamlet" />
		<tag k="ssr:stedsnr" v="567472" />
	</node>
	<node lat="68.85578889283984" lon="17.162958325015833" id="-33459">
		<tag k="name" v="Kveldro" />
=======
	<node id="-854880" lat="68.8332749968" lon="17.2484860958">
		<tag k="name" v="Matsteinen" />
		<tag k="place" v="locality" />
		<tag k="ssr:stedsnr" v="79202" />
	</node>
	<node id="-855900" lat="68.8149943659" lon="17.0845154556">
		<tag k="name" v="Dyrstad" />
>>>>>>> e1d4bc35ff8a6074a6f2e91616a996b547c36f15
		<tag k="place" v="farm" />
		<tag k="ssr:stedsnr" v="624240" />
	</node>
	<node lat="68.76744999702171" lon="17.00669166758278" id="-33521">
		<tag k="historic" v="shieling" />
		<tag k="name" v="Joheimen" />
		<tag k="place" v="isolated_dwelling" />
		<tag k="ssr:stedsnr" v="717459" />
	</node>
	<node lat="68.89518333235831" lon="17.297155558901224" id="-33527">
		<tag k="name" v="Holte" />
		<tag k="place" v="farm" />
		<tag k="ssr:stedsnr" v="717879" />
	</node>
	<node lat="68.92440096048738" lon="17.122040949494536" id="-33546">
		<tag k="fixme" v="consider place=hamlet" />
		<tag k="name" v="Engenes" />
		<tag k="place" v="farm" />
		<tag k="ssr:stedsnr" v="745170" />
	</node>
	<node lat="68.78755277451441" lon="17.174652783402365" id="-33548">
		<tag k="name" v="Årsand" />
		<tag k="place" v="hamlet" />
		<tag k="ssr:stedsnr" v="745965" />
	</node>
	<node id="-855361" lat="68.8348472206" lon="17.1911722079">
		<tag k="name" v="Inner-Å" />
		<tag k="place" v="locality" />
		<tag k="ssr:stedsnr" v="871423" />
	</node>
	<node id="-855869" lat="68.815430552" lon="17.0881499894">
		<tag k="fixme" v="consider place=hamlet" />
		<tag k="name" v="Dyrstad" />
		<tag k="place" v="village" />
		<tag k="ssr:stedsnr" v="777343" />
	</node>
	<node id="-855349" lat="68.7599166693" lon="17.148524998">
		<tag k="alt_name" v="Breidvoll" />
		<tag k="fixme" v="consider place=hamlet" />
		<tag k="name" v="Breivoll" />
		<tag k="place" v="village" />
		<tag k="ssr:stedsnr" v="928988" />
	</node>
	<node id="-855348" lat="68.7495916659" lon="17.1189166731">
		<tag k="name" v="Kalvegarden" />
		<tag k="place" v="isolated_dwelling" />
		<tag k="ssr:stedsnr" v="928890" />
	</node>
	<node id="-855517" lat="68.7438527789" lon="16.9829555426">
		<tag k="fixme" v="consider place=hamlet" />
		<tag k="name" v="Forså" />
		<tag k="place" v="village" />
		<tag k="ssr:stedsnr" v="146429" />
	</node>
	<node id="-855852" lat="68.8288601568" lon="17.1882289953">
		<tag k="fixme" v="consider place=hamlet" />
		<tag k="name" v="Ånstad" />
		<tag k="place" v="farm" />
		<tag k="ssr:stedsnr" v="749466" />
	</node>
	<node id="-855338" lat="68.8331406422" lon="17.0773760717">
		<tag k="fixme" v="consider place=hamlet" />
		<tag k="name" v="Bolla" />
		<tag k="place" v="village" />
		<tag k="ssr:stedsnr" v="928186" />
	</node>
	<node id="-855334" lat="68.8185527801" lon="17.331016657">
		<tag k="alt_name" v="Gregusvik" />
		<tag k="name" v="Gregusvika" />
		<tag k="place" v="locality" />
		<tag k="ssr:stedsnr" v="928171" />
	</node>
	<node id="-855331" lat="68.8048972251" lon="17.1963805652">
		<tag k="name" v="Igeland" />
		<tag k="place" v="hamlet" />
		<tag k="ssr:stedsnr" v="806206" />
	</node>
	<node id="-855515" lat="68.8349055576" lon="17.1863750004">
		<tag k="name" v="Inner-Å" />
		<tag k="place" v="farm" />
		<tag k="ssr:stedsnr" v="142437" />
	</node>
	<node id="-856026" lat="68.7862891606" lon="17.1470798404">
		<tag k="fixme" v="consider place=hamlet" />
		<tag k="name" v="Øvre Ibestad" />
		<tag k="place" v="farm" />
		<tag k="ssr:stedsnr" v="1077100" />
	</node>
	<node id="-855831" lat="68.8693516429" lon="17.4700562552">
		<tag k="alt_name" v="Furnes" />
		<tag k="fixme" v="consider place=hamlet" />
		<tag k="name" v="Fornes" />
		<tag k="place" v="farm" />
		<tag k="ssr:stedsnr" v="624758" />
	</node>
	<node id="-855318" lat="68.7875527745" lon="17.1746527834">
		<tag k="name" v="Årsand" />
		<tag k="place" v="hamlet" />
		<tag k="ssr:stedsnr" v="745965" />
	</node>
	<node id="-855829" lat="68.8557888928" lon="17.162958325">
		<tag k="name" v="Kveldro" />
		<tag k="place" v="isolated_dwelling" />
		<tag k="ssr:stedsnr" v="624240" />
	</node>
	<node id="-855316" lat="68.9244009605" lon="17.1220409495">
		<tag k="fixme" v="consider place=hamlet" />
		<tag k="name" v="Engenes" />
		<tag k="place" v="farm" />
		<tag k="ssr:stedsnr" v="745170" />
	</node>
	<node id="-855312" lat="68.8948555578" lon="17.2714749868">
		<tag k="name" v="Kariheimen" />
		<tag k="place" v="locality" />
		<tag k="ssr:stedsnr" v="899892" />
	</node>
	<node id="-855272" lat="68.8067833298" lon="17.0974555432">
		<tag k="name" v="Kleiva" />
		<tag k="place" v="farm" />
		<tag k="ssr:stedsnr" v="697423" />
	</node>
	<node id="-855782" lat="68.7557722217" lon="17.1388499963">
		<tag k="name" v="Skog" />
		<tag k="place" v="hamlet" />
		<tag k="ssr:stedsnr" v="567472" />
	</node>
	<node id="-855265" lat="68.9170861119" lon="17.2020305435">
		<tag k="name" v="Skjærvika" />
		<tag k="place" v="farm" />
		<tag k="ssr:stedsnr" v="879736" />
	</node>
	<node id="-855504" lat="68.8690549998" lon="17.1438974932">
		<tag k="fixme" v="consider place=hamlet" />
		<tag k="name" v="Laupstad" />
		<tag k="place" v="farm" />
		<tag k="ssr:stedsnr" v="139224" />
	</node>
	<node id="-855770" lat="68.7435888892" lon="17.0101777784">
		<tag k="name" v="Holtet" />
		<tag k="place" v="isolated_dwelling" />
		<tag k="ssr:stedsnr" v="563921" />
	</node>
	<node id="-855769" lat="68.7456638874" lon="17.0625444409">
		<tag k="name" v="Rognvika" />
		<tag k="place" v="isolated_dwelling" />
		<tag k="ssr:stedsnr" v="563915" />
	</node>
	<node id="-855760" lat="68.8343055558" lon="17.3794055577">
		<tag k="name" v="Kråkrøhamn" />
		<tag k="place" v="isolated_dwelling" />
		<tag k="ssr:stedsnr" v="563221" />
	</node>
	<node id="-855759" lat="68.8404741931" lon="17.400115873">
		<tag k="alt_name" v="Kråkrø" />
		<tag k="fixme" v="consider place=hamlet" />
		<tag k="name" v="Kråkrøy" />
		<tag k="place" v="farm" />
		<tag k="ssr:stedsnr" v="563219" />
	</node>
	<node id="-855755" lat="68.8074805511" lon="17.0998888966">
		<tag k="name" v="Selset" />
		<tag k="place" v="hamlet" />
		<tag k="ssr:stedsnr" v="563201" />
	</node>
	<node id="-855234" lat="68.8951833324" lon="17.2971555589">
		<tag k="name" v="Holte" />
		<tag k="place" v="farm" />
		<tag k="ssr:stedsnr" v="717879" />
	</node>
	<node id="-855744" lat="68.8375022922" lon="17.1910622449">
		<tag k="alt_name" v="Aa Indre" />
		<tag k="fixme" v="consider place=hamlet" />
		<tag k="name" v="Inner-Å" />
		<tag k="place" v="farm" />
		<tag k="ssr:stedsnr" v="535322" />
	</node>
	<node id="-856010" lat="68.7411561659" lon="16.9773068209">
		<tag k="name" v="Forså  ytre" />
		<tag k="place" v="farm" />
		<tag k="ssr:stedsnr" v="989975" />
	</node>
	<node id="-855733" lat="68.8725944439" lon="17.2685722139">
		<tag k="name" v="Blomvang" />
		<tag k="place" v="farm" />
		<tag k="ssr:stedsnr" v="534851" />
	</node>
	<node id="-855214" lat="68.767449997" lon="17.0066916676">
		<tag k="historic" v="shieling" />
		<tag k="name" v="Joheimen" />
		<tag k="place" v="locality" />
		<tag k="ssr:stedsnr" v="717459" />
	</node>
	<node id="-855153" lat="68.9161333375" lon="17.1716999972">
		<tag k="name" v="Åndervåg" />
		<tag k="place" v="hamlet" />
		<tag k="ssr:stedsnr" v="685126" />
	</node>
	<node id="-855714" lat="68.7516777773" lon="17.0066055523">
		<tag k="name" v="Mortenheimen" />
		<tag k="place" v="locality" />
		<tag k="ssr:stedsnr" v="534079" />
	</node>
	<node id="-854893" lat="68.8958916681" lon="17.289786106">
		<tag k="name" v="Vasskaret" />
		<tag k="place" v="farm" />
		<tag k="ssr:stedsnr" v="260295" />
	</node>
	<node id="-855175" lat="68.868927781" lon="17.4719305476">
		<tag k="name" v="Fornes" />
		<tag k="place" v="farm" />
		<tag k="ssr:stedsnr" v="689601" />
	</node>
	<node id="-855163" lat="68.7447388848" lon="17.0129305581">
		<tag k="alt_name" v="Forså, in" />
		<tag k="name" v="Indre Forså" />
		<tag k="place" v="farm" />
		<tag k="ssr:stedsnr" v="685895" />
	</node>
	<node id="-855160" lat="68.846105558" lon="17.0421916663">
		<tag k="fixme" v="consider place=hamlet" />
		<tag k="name" v="Selvågen" />
		<tag k="place" v="village" />
		<tag k="ssr:stedsnr" v="515009" />
	</node>
	<node id="-855665" lat="68.8109583317" lon="17.1847611145">
		<tag k="alt_name" v="Breidvika" />
		<tag k="name" v="Breivika" />
		<tag k="place" v="hamlet" />
		<tag k="ssr:stedsnr" v="385445" />
	</node>
	<node id="-855661" lat="68.7288333339" lon="16.8313222322">
		<tag k="fixme" v="consider place=hamlet" />
		<tag k="name" v="Sørrollnes - Orjješ-Rállegeahči" />
		<tag k="name:no" v="Sørrollnes" />
		<tag k="name:se" v="Orjješ-Rállegeahči" />
		<tag k="place" v="village" />
		<tag k="ssr:stedsnr" v="382912" />
	</node>
	<node id="-855656" lat="68.7797189915" lon="16.9233180428">
		<tag k="name" v="Hallevika" />
		<tag k="place" v="locality" />
		<tag k="ssr:stedsnr" v="381969" />
	</node>
	<node id="-855654" lat="68.8017305565" lon="17.1098472325">
		<tag k="name" v="Vik" />
		<tag k="place" v="hamlet" />
		<tag k="ssr:stedsnr" v="381962" />
	</node>
	<node id="-855648" lat="68.8017583308" lon="17.2798138749">
		<tag k="name" v="Sæter" />
		<tag k="place" v="farm" />
		<tag k="ssr:stedsnr" v="381226" />
	</node>
	<node id="-854882" lat="68.8237632311" lon="17.1776217359">
		<tag k="alt_name" v="Ånnstad" />
		<tag k="name" v="Ånstad" />
		<tag k="place" v="hamlet" />
		<tag k="ssr:stedsnr" v="79206" />
	</node>
	<node id="-855108" lat="68.839565788" lon="17.1836611612">
		<tag k="alt_name" v="Aa Ytre" />
		<tag k="fixme" v="consider place=hamlet" />
		<tag k="name" v="Ytter-Å" />
		<tag k="place" v="farm" />
		<tag k="ssr:stedsnr" v="413332" />
	</node>
	<node id="-855101" lat="68.8370888925" lon="17.1809055537">
		<tag k="name" v="Ytter-Å" />
		<tag k="place" v="farm" />
		<tag k="ssr:stedsnr" v="507426" />
	</node>
	<node id="-855607" lat="68.7503625684" lon="17.1115048748">
		<tag k="fixme" v="consider place=hamlet" />
		<tag k="name" v="Storskog" />
		<tag k="place" v="farm" />
		<tag k="ssr:stedsnr" v="352249" />
	</node>
	<node id="-855093" lat="68.8375638888" lon="17.1857250108">
		<tag k="name" v="Ytter-Å" />
		<tag k="place" v="farm" />
		<tag k="ssr:stedsnr" v="385454" />
	</node>
	<node id="-855594" lat="68.8359694459" lon="17.1872999963">
		<tag k="name" v="Inner-Å" />
		<tag k="place" v="farm" />
		<tag k="ssr:stedsnr" v="325442" />
	</node>
	<node id="-855593" lat="68.8256638931" lon="17.1768110999">
		<tag k="name" v="Ånstad" />
		<tag k="place" v="farm" />
		<tag k="ssr:stedsnr" v="325441" />
	</node>
	<node id="-855590" lat="68.8620749955" lon="17.0420638977">
		<tag k="alt_name:no" v="Roldnes" />
		<tag k="fixme" v="consider place=hamlet" />
		<tag k="name" v="Rollnes - Nuorta-Rállegeahči" />
		<tag k="name:no" v="Rollnes" />
		<tag k="name:se" v="Nuorta-Rállegeahči" />
		<tag k="old_name:no" v="Nordrollnes" />
		<tag k="place" v="village" />
		<tag k="ssr:stedsnr" v="324506" />
	</node>
	<node id="-855585" lat="68.8651500017" lon="17.4683638908">
		<tag k="alt_name" v="Borglund" />
		<tag k="name" v="Sørvikhamn" />
		<tag k="place" v="farm" />
		<tag k="ssr:stedsnr" v="321725" />
	</node>
	<node id="-855583" lat="68.9295083352" lon="17.2490611182">
		<tag k="name" v="Klåpskjærvika" />
		<tag k="place" v="farm" />
		<tag k="ssr:stedsnr" v="321117" />
	</node>
	<node id="-855560" lat="68.797272227" lon="17.24675277">
		<tag k="alt_name" v="Segelstein" />
		<tag k="name" v="Seglstein" />
		<tag k="place" v="farm" />
		<tag k="ssr:stedsnr" v="199961" />
	</node>
</osm>
