<?xml version="1.0" encoding="UTF-8"?>
<osm version="0.6" generator="osmapis">
	<node lat="60.430679903620785" lon="6.700419768558673" id="-71466">
		<tag k="alt_name" v="Slåttenes" />
		<tag k="name" v="Slåttenes lykt" />
		<tag k="ssr:date" v="2020-09-08" />
		<tag k="ssr:gruppe" v="navigasjon" />
		<tag k="ssr:hovedgruppe" v="infrastruktur" />
		<tag k="ssr:stedsnr" v="236796" />
		<tag k="ssr:type" v="fyrlykt" />
	</node>
	<node lat="60.673652303220784" lon="6.516079474484003" id="-71506">
		<tag k="name" v="Todalen" />
		<tag k="ssr:date" v="2019-12-27" />
		<tag k="ssr:gruppe" v="veg" />
		<tag k="ssr:hovedgruppe" v="infrastruktur" />
		<tag k="ssr:stedsnr" v="238888" />
		<tag k="ssr:type" v="adressenavn" />
	</node>
	<node lat="60.529410857143326" lon="6.728165472882074" id="-71507">
		<tag k="name" v="Hagasund" />
		<tag k="ssr:date" v="2019-12-27" />
		<tag k="ssr:gruppe" v="veg" />
		<tag k="ssr:hovedgruppe" v="infrastruktur" />
		<tag k="ssr:stedsnr" v="240144" />
		<tag k="ssr:type" v="adressenavn" />
	</node>
	<node lat="60.52959651717793" lon="6.662012442943845" id="-71508">
		<tag k="name" v="Grjostøl" />
		<tag k="ssr:date" v="2019-12-27" />
		<tag k="ssr:gruppe" v="veg" />
		<tag k="ssr:hovedgruppe" v="infrastruktur" />
		<tag k="ssr:stedsnr" v="240146" />
		<tag k="ssr:type" v="adressenavn" />
	</node>
	<node lat="60.582273015630626" lon="6.6762284397113145" id="-71509">
		<tag k="name" v="Spildavegen" />
		<tag k="ssr:date" v="2019-12-27" />
		<tag k="ssr:gruppe" v="veg" />
		<tag k="ssr:hovedgruppe" v="infrastruktur" />
		<tag k="ssr:stedsnr" v="240159" />
		<tag k="ssr:type" v="adressenavn" />
	</node>
	<node lat="60.52545516141149" lon="6.720455932898371" id="-71512">
		<tag k="name" v="Eide" />
		<tag k="ssr:date" v="2019-12-27" />
		<tag k="ssr:gruppe" v="veg" />
		<tag k="ssr:hovedgruppe" v="infrastruktur" />
		<tag k="ssr:stedsnr" v="241152" />
		<tag k="ssr:type" v="adressenavn" />
	</node>
	<node lat="60.621672922842336" lon="6.221048839090878" id="-71635">
		<tag k="name" v="Ukvitnesvegen" />
		<tag k="ssr:date" v="2019-12-27" />
		<tag k="ssr:gruppe" v="veg" />
		<tag k="ssr:hovedgruppe" v="infrastruktur" />
		<tag k="ssr:stedsnr" v="102813" />
		<tag k="ssr:type" v="adressenavn" />
	</node>
	<node lat="60.603655064370685" lon="6.438290582592979" id="-71774">
		<tag k="name" v="Græe" />
		<tag k="ssr:date" v="2019-12-27" />
		<tag k="ssr:gruppe" v="veg" />
		<tag k="ssr:hovedgruppe" v="infrastruktur" />
		<tag k="ssr:stedsnr" v="117111" />
		<tag k="ssr:type" v="adressenavn" />
	</node>
	<node lat="60.59344533147525" lon="6.462065516493908" id="-71775">
		<tag k="name" v="Litlere" />
		<tag k="ssr:date" v="2019-12-27" />
		<tag k="ssr:gruppe" v="veg" />
		<tag k="ssr:hovedgruppe" v="infrastruktur" />
		<tag k="ssr:stedsnr" v="117091" />
		<tag k="ssr:type" v="adressenavn" />
	</node>
	<node lat="60.65028245692976" lon="6.181481933101273" id="-71912">
		<tag k="name" v="Kolle" />
		<tag k="ssr:date" v="2019-12-27" />
		<tag k="ssr:gruppe" v="veg" />
		<tag k="ssr:hovedgruppe" v="infrastruktur" />
		<tag k="ssr:stedsnr" v="162813" />
		<tag k="ssr:type" v="adressenavn" />
	</node>
	<node lat="60.638853904514285" lon="6.1980049279972285" id="-72151">
		<tag k="name" v="Steinsvegen" />
		<tag k="ssr:date" v="2019-12-27" />
		<tag k="ssr:gruppe" v="veg" />
		<tag k="ssr:hovedgruppe" v="infrastruktur" />
		<tag k="ssr:stedsnr" v="223810" />
		<tag k="ssr:type" v="adressenavn" />
	</node>
	<node lat="60.85503514923622" lon="6.48315540727889" id="-72294">
		<tag k="name" v="Ondratunet" />
		<tag k="ssr:date" v="2019-12-27" />
		<tag k="ssr:gruppe" v="veg" />
		<tag k="ssr:hovedgruppe" v="infrastruktur" />
		<tag k="ssr:stedsnr" v="297902" />
		<tag k="ssr:type" v="adressenavn" />
	</node>
	<node lat="60.5295754573389" lon="6.662105485495331" id="-72309">
		<tag k="name" v="Horgastølen" />
		<tag k="ssr:date" v="2019-12-27" />
		<tag k="ssr:gruppe" v="veg" />
		<tag k="ssr:hovedgruppe" v="infrastruktur" />
		<tag k="ssr:stedsnr" v="301132" />
		<tag k="ssr:type" v="adressenavn" />
	</node>
	<node lat="60.855922661203095" lon="6.487410795939006" id="-72333">
		<tag k="name" v="Øvre Vårstølen" />
		<tag k="ssr:date" v="2019-12-27" />
		<tag k="ssr:gruppe" v="veg" />
		<tag k="ssr:hovedgruppe" v="infrastruktur" />
		<tag k="ssr:stedsnr" v="465959" />
		<tag k="ssr:type" v="adressenavn" />
	</node>
	<node lat="60.62567904596823" lon="6.271427809308106" id="-72487">
		<tag k="name" v="Skjeldaleitene" />
		<tag k="ssr:date" v="2019-12-27" />
		<tag k="ssr:gruppe" v="veg" />
		<tag k="ssr:hovedgruppe" v="infrastruktur" />
		<tag k="ssr:stedsnr" v="344806" />
		<tag k="ssr:type" v="adressenavn" />
	</node>
	<node lat="60.64650825076913" lon="6.5108597454674" id="-72531">
		<tag k="name" v="Grauavegen" />
		<tag k="ssr:date" v="2019-12-27" />
		<tag k="ssr:gruppe" v="veg" />
		<tag k="ssr:hovedgruppe" v="infrastruktur" />
		<tag k="ssr:stedsnr" v="359904" />
		<tag k="ssr:type" v="adressenavn" />
	</node>
	<node lat="60.5865307332367" lon="6.4631465754953465" id="-72603">
		<tag k="name" v="Bjørnshovden" />
		<tag k="ssr:date" v="2019-12-27" />
		<tag k="ssr:gruppe" v="veg" />
		<tag k="ssr:hovedgruppe" v="infrastruktur" />
		<tag k="ssr:stedsnr" v="481093" />
		<tag k="ssr:type" v="adressenavn" />
	</node>
	<node lat="60.619713013205576" lon="6.436162803527727" id="-72604">
		<tag k="name" v="Ronve" />
		<tag k="ssr:date" v="2019-12-27" />
		<tag k="ssr:gruppe" v="veg" />
		<tag k="ssr:hovedgruppe" v="infrastruktur" />
		<tag k="ssr:stedsnr" v="481101" />
		<tag k="ssr:type" v="adressenavn" />
	</node>
	<node lat="60.64480244142495" lon="6.5041700902251485" id="-72605">
		<tag k="name" v="Kytesvegen" />
		<tag k="ssr:date" v="2019-12-27" />
		<tag k="ssr:gruppe" v="veg" />
		<tag k="ssr:hovedgruppe" v="infrastruktur" />
		<tag k="ssr:stedsnr" v="481894" />
		<tag k="ssr:type" v="adressenavn" />
	</node>
	<node lat="60.63823962695765" lon="6.443455580099259" id="-72606">
		<tag k="name" v="Vasslii" />
		<tag k="ssr:date" v="2019-12-27" />
		<tag k="ssr:gruppe" v="veg" />
		<tag k="ssr:hovedgruppe" v="infrastruktur" />
		<tag k="ssr:stedsnr" v="481895" />
		<tag k="ssr:type" v="adressenavn" />
	</node>
	<node lat="60.669974733607624" lon="6.518941710414817" id="-72607">
		<tag k="name" v="Langbrekk" />
		<tag k="ssr:date" v="2019-12-27" />
		<tag k="ssr:gruppe" v="veg" />
		<tag k="ssr:hovedgruppe" v="infrastruktur" />
		<tag k="ssr:stedsnr" v="481899" />
		<tag k="ssr:type" v="adressenavn" />
	</node>
	<node lat="60.525110963872685" lon="6.7293069294195345" id="-72644">
		<tag k="name" v="Lerkevegen" />
		<tag k="ssr:date" v="2019-12-27" />
		<tag k="ssr:gruppe" v="veg" />
		<tag k="ssr:hovedgruppe" v="infrastruktur" />
		<tag k="ssr:stedsnr" v="483146" />
		<tag k="ssr:type" v="adressenavn" />
	</node>
	<node lat="60.5850345092884" lon="6.67361903399585" id="-72645">
		<tag k="name" v="Bakkavegen" />
		<tag k="ssr:date" v="2019-12-27" />
		<tag k="ssr:gruppe" v="veg" />
		<tag k="ssr:hovedgruppe" v="infrastruktur" />
		<tag k="ssr:stedsnr" v="483151" />
		<tag k="ssr:type" v="adressenavn" />
	</node>
	<node lat="60.529778950387794" lon="6.728486037883502" id="-72646">
		<tag k="name" v="Nitunsvegen" />
		<tag k="ssr:date" v="2019-12-27" />
		<tag k="ssr:gruppe" v="veg" />
		<tag k="ssr:hovedgruppe" v="infrastruktur" />
		<tag k="ssr:stedsnr" v="483155" />
		<tag k="ssr:type" v="adressenavn" />
	</node>
	<node lat="60.588614798972" lon="6.788619245252178" id="-72647">
		<tag k="name" v="Olavstølsvegen" />
		<tag k="ssr:date" v="2019-12-27" />
		<tag k="ssr:gruppe" v="veg" />
		<tag k="ssr:hovedgruppe" v="infrastruktur" />
		<tag k="ssr:stedsnr" v="483158" />
		<tag k="ssr:type" v="adressenavn" />
	</node>
	<node lat="60.56574560886351" lon="6.19824246733516" id="-72654">
		<tag k="name" v="Hamlagrøvegen" />
		<tag k="ssr:date" v="2019-12-27" />
		<tag k="ssr:gruppe" v="veg" />
		<tag k="ssr:hovedgruppe" v="infrastruktur" />
		<tag k="ssr:stedsnr" v="405795" />
		<tag k="ssr:type" v="adressenavn" />
	</node>
	<node lat="60.62395447657604" lon="6.160473727470719" id="-72655">
		<tag k="name" v="Hyljaråsvegen" />
		<tag k="ssr:date" v="2019-12-27" />
		<tag k="ssr:gruppe" v="veg" />
		<tag k="ssr:hovedgruppe" v="infrastruktur" />
		<tag k="ssr:stedsnr" v="405797" />
		<tag k="ssr:type" v="adressenavn" />
	</node>
	<node lat="60.63796354975252" lon="6.176460293603584" id="-72656">
		<tag k="name" v="Geitlesteigen" />
		<tag k="ssr:date" v="2019-12-27" />
		<tag k="ssr:gruppe" v="veg" />
		<tag k="ssr:hovedgruppe" v="infrastruktur" />
		<tag k="ssr:stedsnr" v="405816" />
		<tag k="ssr:type" v="adressenavn" />
	</node>
	<node lat="60.628876993032534" lon="6.259618123755676" id="-72657">
		<tag k="name" v="Seimsgrendvegen" />
		<tag k="old_name" v="Seimsvegen" />
		<tag k="ssr:date" v="2019-12-27" />
		<tag k="ssr:gruppe" v="veg" />
		<tag k="ssr:hovedgruppe" v="infrastruktur" />
		<tag k="ssr:stedsnr" v="405818" />
		<tag k="ssr:type" v="adressenavn" />
	</node>
	<node lat="60.59878450248072" lon="6.645412806392808" id="-72714">
		<tag k="name" v="Skykkjeset" />
		<tag k="ssr:date" v="2019-12-27" />
		<tag k="ssr:gruppe" v="veg" />
		<tag k="ssr:hovedgruppe" v="infrastruktur" />
		<tag k="ssr:stedsnr" v="423147" />
		<tag k="ssr:type" v="adressenavn" />
	</node>
	<node lat="60.488131470398244" lon="6.64860519408728" id="-72715">
		<tag k="name" v="Folkedal" />
		<tag k="ssr:date" v="2019-12-27" />
		<tag k="ssr:gruppe" v="veg" />
		<tag k="ssr:hovedgruppe" v="infrastruktur" />
		<tag k="ssr:stedsnr" v="423151" />
		<tag k="ssr:type" v="adressenavn" />
	</node>
	<node lat="60.457958872049595" lon="6.545251209884727" id="-72716">
		<tag k="name" v="Fossdalsvegen" />
		<tag k="ssr:date" v="2019-12-27" />
		<tag k="ssr:gruppe" v="veg" />
		<tag k="ssr:hovedgruppe" v="infrastruktur" />
		<tag k="ssr:stedsnr" v="423155" />
		<tag k="ssr:type" v="adressenavn" />
	</node>
	<node lat="60.61554094053599" lon="6.434220083795962" id="-73005">
		<tag k="name" v="Sonve" />
		<tag k="ssr:date" v="2019-12-27" />
		<tag k="ssr:gruppe" v="veg" />
		<tag k="ssr:hovedgruppe" v="infrastruktur" />
		<tag k="ssr:stedsnr" v="481104" />
		<tag k="ssr:type" v="adressenavn" />
	</node>
	<node lat="60.619332744548146" lon="6.436026170458976" id="-73006">
		<tag k="name" v="Bordalsvegen" />
		<tag k="ssr:date" v="2019-12-27" />
		<tag k="ssr:gruppe" v="veg" />
		<tag k="ssr:hovedgruppe" v="infrastruktur" />
		<tag k="ssr:stedsnr" v="481066" />
		<tag k="ssr:type" v="adressenavn" />
	</node>
	<node lat="60.568126221395936" lon="6.460388909250793" id="-73007">
		<tag k="name" v="Tesdalen" />
		<tag k="ssr:date" v="2019-12-27" />
		<tag k="ssr:gruppe" v="veg" />
		<tag k="ssr:hovedgruppe" v="infrastruktur" />
		<tag k="ssr:stedsnr" v="481068" />
		<tag k="ssr:type" v="adressenavn" />
	</node>
	<node lat="60.48898052971803" lon="6.645249190459466" id="-73008">
		<tag k="name" v="Hålivegen" />
		<tag k="ssr:date" v="2019-12-27" />
		<tag k="ssr:gruppe" v="veg" />
		<tag k="ssr:hovedgruppe" v="infrastruktur" />
		<tag k="ssr:stedsnr" v="483162" />
		<tag k="ssr:type" v="adressenavn" />
	</node>
	<node lat="60.48692725712377" lon="6.647532428838043" id="-73009">
		<tag k="name" v="Folkedalsvegen" />
		<tag k="ssr:date" v="2019-12-27" />
		<tag k="ssr:gruppe" v="veg" />
		<tag k="ssr:hovedgruppe" v="infrastruktur" />
		<tag k="ssr:stedsnr" v="483171" />
		<tag k="ssr:type" v="adressenavn" />
	</node>
	<node lat="60.59204409357978" lon="6.63587090649041" id="-73010">
		<tag k="name" v="Skaftedalsvegen" />
		<tag k="ssr:date" v="2019-12-27" />
		<tag k="ssr:gruppe" v="veg" />
		<tag k="ssr:hovedgruppe" v="infrastruktur" />
		<tag k="ssr:stedsnr" v="483179" />
		<tag k="ssr:type" v="adressenavn" />
	</node>
	<node lat="60.52551666641172" lon="6.728416669847749" id="-73011">
		<tag k="name" v="Huldravegen" />
		<tag k="ssr:date" v="2019-12-27" />
		<tag k="ssr:gruppe" v="veg" />
		<tag k="ssr:hovedgruppe" v="infrastruktur" />
		<tag k="ssr:stedsnr" v="484972" />
		<tag k="ssr:type" v="adressenavn" />
	</node>
	<node lat="60.530769912432504" lon="6.696633049694403" id="-73181">
		<tag k="name" v="Åsingavegen" />
		<tag k="ssr:date" v="2019-12-27" />
		<tag k="ssr:gruppe" v="veg" />
		<tag k="ssr:hovedgruppe" v="infrastruktur" />
		<tag k="ssr:stedsnr" v="544117" />
		<tag k="ssr:type" v="adressenavn" />
	</node>
	<node lat="60.570659186119634" lon="6.458982000062923" id="-73401">
		<tag k="name" v="Rjodavegen" />
		<tag k="ssr:date" v="2019-12-27" />
		<tag k="ssr:gruppe" v="veg" />
		<tag k="ssr:hovedgruppe" v="infrastruktur" />
		<tag k="ssr:stedsnr" v="602065" />
		<tag k="ssr:type" v="adressenavn" />
	</node>
	<node lat="60.526111111025685" lon="6.721230551853659" id="-73402">
		<tag k="name" v="Røynstrandvegen" />
		<tag k="ssr:date" v="2019-12-27" />
		<tag k="ssr:gruppe" v="veg" />
		<tag k="ssr:hovedgruppe" v="infrastruktur" />
		<tag k="ssr:stedsnr" v="604167" />
		<tag k="ssr:type" v="adressenavn" />
	</node>
	<node lat="60.62980227940046" lon="6.276551526224479" id="-73550">
		<tag k="name" v="Dalavegen" />
		<tag k="ssr:date" v="2019-12-27" />
		<tag k="ssr:gruppe" v="veg" />
		<tag k="ssr:hovedgruppe" v="infrastruktur" />
		<tag k="ssr:stedsnr" v="647804" />
		<tag k="ssr:type" v="adressenavn" />
	</node>
	<node lat="60.638853904514285" lon="6.1980049279972285" id="-73551">
		<tag k="name" v="Geitle" />
		<tag k="ssr:date" v="2019-12-27" />
		<tag k="ssr:gruppe" v="veg" />
		<tag k="ssr:hovedgruppe" v="infrastruktur" />
		<tag k="ssr:stedsnr" v="647805" />
		<tag k="ssr:type" v="adressenavn" />
	</node>
	<node lat="60.62427364181396" lon="6.273251372807392" id="-73552">
		<tag k="name" v="Nadlane" />
		<tag k="ssr:date" v="2019-12-27" />
		<tag k="ssr:gruppe" v="veg" />
		<tag k="ssr:hovedgruppe" v="infrastruktur" />
		<tag k="ssr:stedsnr" v="647811" />
		<tag k="ssr:type" v="adressenavn" />
	</node>
	<node lat="60.636614381495015" lon="6.242128788573528" id="-73553">
		<tag k="name" v="Eideshagevegen" />
		<tag k="old_name" v="Eidesvegen" />
		<tag k="ssr:date" v="2019-12-27" />
		<tag k="ssr:gruppe" v="veg" />
		<tag k="ssr:hovedgruppe" v="infrastruktur" />
		<tag k="ssr:stedsnr" v="647799" />
		<tag k="ssr:type" v="adressenavn" />
	</node>
	<node lat="60.57345735032964" lon="6.683406039696236" id="-73592">
		<tag k="name" v="Såkvitnavegen" />
		<tag k="ssr:date" v="2019-12-27" />
		<tag k="ssr:gruppe" v="veg" />
		<tag k="ssr:hovedgruppe" v="infrastruktur" />
		<tag k="ssr:stedsnr" v="665134" />
		<tag k="ssr:type" v="adressenavn" />
	</node>
	<node lat="60.57860615324019" lon="6.674981846201421" id="-73593">
		<tag k="name" v="Njuksvegen" />
		<tag k="ssr:date" v="2019-12-27" />
		<tag k="ssr:gruppe" v="veg" />
		<tag k="ssr:hovedgruppe" v="infrastruktur" />
		<tag k="ssr:stedsnr" v="665136" />
		<tag k="ssr:type" v="adressenavn" />
	</node>
	<node lat="60.54321655019456" lon="6.73261734678915" id="-73594">
		<tag k="name" v="Hausevegen" />
		<tag k="ssr:date" v="2019-12-27" />
		<tag k="ssr:gruppe" v="veg" />
		<tag k="ssr:hovedgruppe" v="infrastruktur" />
		<tag k="ssr:stedsnr" v="665194" />
		<tag k="ssr:type" v="adressenavn" />
	</node>
	<node lat="60.63934671698322" lon="6.254204428629935" id="-73670">
		<tag k="name" v="Vetlestølsvegen" />
		<tag k="ssr:date" v="2019-12-27" />
		<tag k="ssr:gruppe" v="veg" />
		<tag k="ssr:hovedgruppe" v="infrastruktur" />
		<tag k="ssr:stedsnr" v="891798" />
		<tag k="ssr:type" v="adressenavn" />
	</node>
	<node lat="60.63209739204786" lon="6.274722205328246" id="-73671">
		<tag k="name" v="Flagavegen" />
		<tag k="ssr:date" v="2019-12-27" />
		<tag k="ssr:gruppe" v="veg" />
		<tag k="ssr:hovedgruppe" v="infrastruktur" />
		<tag k="ssr:stedsnr" v="891802" />
		<tag k="ssr:type" v="adressenavn" />
	</node>
	<node lat="60.621799354242555" lon="6.213231734422116" id="-73775">
		<tag k="name" v="Neståsvegen" />
		<tag k="ssr:date" v="2019-12-27" />
		<tag k="ssr:gruppe" v="veg" />
		<tag k="ssr:hovedgruppe" v="infrastruktur" />
		<tag k="ssr:stedsnr" v="708783" />
		<tag k="ssr:type" v="adressenavn" />
	</node>
	<node lat="60.64262222393739" lon="6.4884944355401135" id="-73800">
		<tag k="name" v="Bergensbana" />
		<tag k="ssr:date" v="2019-12-27" />
		<tag k="ssr:gruppe" v="bane" />
		<tag k="ssr:hovedgruppe" v="infrastruktur" />
		<tag k="ssr:stedsnr" v="713476" />
		<tag k="ssr:type" v="banestrekning" />
	</node>
	<node lat="60.57147979444071" lon="6.696910988470177" id="-73815">
		<tag k="name" v="Øvre Vassenden" />
		<tag k="ssr:date" v="2019-12-27" />
		<tag k="ssr:gruppe" v="veg" />
		<tag k="ssr:hovedgruppe" v="infrastruktur" />
		<tag k="ssr:stedsnr" v="726138" />
		<tag k="ssr:type" v="adressenavn" />
	</node>
	<node lat="60.533169260577324" lon="6.748746796225242" id="-73932">
		<tag k="name" v="Måvassvegen" />
		<tag k="ssr:date" v="2019-12-27" />
		<tag k="ssr:gruppe" v="veg" />
		<tag k="ssr:hovedgruppe" v="infrastruktur" />
		<tag k="ssr:stedsnr" v="907073" />
		<tag k="ssr:type" v="adressenavn" />
	</node>
	<node lat="60.61021619343874" lon="6.181862314289198" id="-73934">
		<tag k="name" v="Svangavegen" />
		<tag k="ssr:date" v="2019-12-27" />
		<tag k="ssr:gruppe" v="veg" />
		<tag k="ssr:hovedgruppe" v="infrastruktur" />
		<tag k="ssr:stedsnr" v="769763" />
		<tag k="ssr:type" v="adressenavn" />
	</node>
	<node lat="60.63793515160918" lon="6.237060864236814" id="-73935">
		<tag k="name" v="Lissheimsvegen" />
		<tag k="ssr:date" v="2019-12-27" />
		<tag k="ssr:gruppe" v="veg" />
		<tag k="ssr:hovedgruppe" v="infrastruktur" />
		<tag k="ssr:stedsnr" v="769775" />
		<tag k="ssr:type" v="adressenavn" />
	</node>
	<node lat="60.55829010490826" lon="6.736496218449567" id="-73940">
		<tag k="name" v="Øvsthus" />
		<tag k="ssr:date" v="2019-12-27" />
		<tag k="ssr:gruppe" v="veg" />
		<tag k="ssr:hovedgruppe" v="infrastruktur" />
		<tag k="ssr:stedsnr" v="908185" />
		<tag k="ssr:type" v="adressenavn" />
	</node>
	<node lat="60.55022451644802" lon="6.750976185575635" id="-73972">
		<tag k="name" v="Heller" />
		<tag k="ssr:date" v="2019-12-27" />
		<tag k="ssr:gruppe" v="veg" />
		<tag k="ssr:hovedgruppe" v="infrastruktur" />
		<tag k="ssr:stedsnr" v="785111" />
		<tag k="ssr:type" v="adressenavn" />
	</node>
	<node lat="60.52144341032933" lon="6.725410454436129" id="-73973">
		<tag k="name" v="Rausvollvegen" />
		<tag k="ssr:date" v="2019-12-27" />
		<tag k="ssr:gruppe" v="veg" />
		<tag k="ssr:hovedgruppe" v="infrastruktur" />
		<tag k="ssr:stedsnr" v="786118" />
		<tag k="ssr:type" v="adressenavn" />
	</node>
	<node lat="60.524697218300716" lon="6.729877772422293" id="-73976">
		<tag k="name" v="Skielvvegen" />
		<tag k="ssr:date" v="2019-12-27" />
		<tag k="ssr:gruppe" v="veg" />
		<tag k="ssr:hovedgruppe" v="infrastruktur" />
		<tag k="ssr:stedsnr" v="788977" />
		<tag k="ssr:type" v="adressenavn" />
	</node>
	<node lat="60.66110433910291" lon="6.545421886300215" id="-74192">
		<tag k="name" v="Tverrbergsvegen" />
		<tag k="ssr:date" v="2019-12-27" />
		<tag k="ssr:gruppe" v="veg" />
		<tag k="ssr:hovedgruppe" v="infrastruktur" />
		<tag k="ssr:stedsnr" v="845078" />
		<tag k="ssr:type" v="adressenavn" />
	</node>
	<node lat="60.59787583463838" lon="6.450116173595655" id="-74193">
		<tag k="name" v="Himle" />
		<tag k="ssr:date" v="2019-12-27" />
		<tag k="ssr:gruppe" v="veg" />
		<tag k="ssr:hovedgruppe" v="infrastruktur" />
		<tag k="ssr:stedsnr" v="845091" />
		<tag k="ssr:type" v="adressenavn" />
	</node>
	<node lat="60.64365266796452" lon="6.494907233082317" id="-74194">
		<tag k="name" v="Melvesvegen" />
		<tag k="ssr:date" v="2019-12-27" />
		<tag k="ssr:gruppe" v="veg" />
		<tag k="ssr:hovedgruppe" v="infrastruktur" />
		<tag k="ssr:stedsnr" v="845912" />
		<tag k="ssr:type" v="adressenavn" />
	</node>
	<node lat="60.61074342635606" lon="6.1879804241498615" id="-74364">
		<tag k="name" v="Trænsvegen" />
		<tag k="ssr:date" v="2019-12-27" />
		<tag k="ssr:gruppe" v="veg" />
		<tag k="ssr:hovedgruppe" v="infrastruktur" />
		<tag k="ssr:stedsnr" v="891806" />
		<tag k="ssr:type" v="adressenavn" />
	</node>
	<node lat="60.611230963067236" lon="6.413192547584797" id="-74395">
		<tag k="name" v="Giljavegen" />
		<tag k="ssr:date" v="2019-12-27" />
		<tag k="ssr:gruppe" v="veg" />
		<tag k="ssr:hovedgruppe" v="infrastruktur" />
		<tag k="ssr:stedsnr" v="906056" />
		<tag k="ssr:type" v="adressenavn" />
	</node>
	<node lat="60.65714202615453" lon="6.451651134692378" id="-74397">
		<tag k="name" v="Almelandsvegen" />
		<tag k="ssr:date" v="2019-12-27" />
		<tag k="ssr:gruppe" v="veg" />
		<tag k="ssr:hovedgruppe" v="infrastruktur" />
		<tag k="ssr:stedsnr" v="906901" />
		<tag k="ssr:type" v="adressenavn" />
	</node>
	<node lat="60.614689349057215" lon="6.180095476965163" id="-74508">
		<tag k="name" v="Hosåsvegen" />
		<tag k="ssr:date" v="2019-12-27" />
		<tag k="ssr:gruppe" v="veg" />
		<tag k="ssr:hovedgruppe" v="infrastruktur" />
		<tag k="ssr:stedsnr" v="951785" />
		<tag k="ssr:type" v="adressenavn" />
	</node>
	<node lat="60.458857934855914" lon="6.6027940844360815" id="-74537">
		<tag k="alt_name" v="Håstabbenes" />
		<tag k="name" v="Håstabbenes lykt" />
		<tag k="ssr:date" v="2020-09-08" />
		<tag k="ssr:gruppe" v="navigasjon" />
		<tag k="ssr:hovedgruppe" v="infrastruktur" />
		<tag k="ssr:stedsnr" v="964791" />
		<tag k="ssr:type" v="fyrlykt" />
	</node>
	<node lat="60.51612210300432" lon="6.477389023228669" id="-74538">
		<tag k="name" v="Rong" />
		<tag k="ssr:date" v="2019-12-27" />
		<tag k="ssr:gruppe" v="veg" />
		<tag k="ssr:hovedgruppe" v="infrastruktur" />
		<tag k="ssr:stedsnr" v="966086" />
		<tag k="ssr:type" v="adressenavn" />
	</node>
	<node lat="60.61249492834064" lon="6.432593685911838" id="-74539">
		<tag k="name" v="Roknesborgi" />
		<tag k="ssr:date" v="2019-12-27" />
		<tag k="ssr:gruppe" v="veg" />
		<tag k="ssr:hovedgruppe" v="infrastruktur" />
		<tag k="ssr:stedsnr" v="966094" />
		<tag k="ssr:type" v="adressenavn" />
	</node>
	<node lat="60.5296204904828" lon="6.6619170209513685" id="-74540">
		<tag k="name" v="Krokavassvegen" />
		<tag k="ssr:date" v="2019-12-27" />
		<tag k="ssr:gruppe" v="veg" />
		<tag k="ssr:hovedgruppe" v="infrastruktur" />
		<tag k="ssr:stedsnr" v="968203" />
		<tag k="ssr:type" v="adressenavn" />
	</node>
	<node lat="60.52392424883569" lon="6.720741920454371" id="-74541">
		<tag k="name" v="Øyane" />
		<tag k="ssr:date" v="2019-12-27" />
		<tag k="ssr:gruppe" v="veg" />
		<tag k="ssr:hovedgruppe" v="infrastruktur" />
		<tag k="ssr:stedsnr" v="968205" />
		<tag k="ssr:type" v="adressenavn" />
	</node>
	<node lat="60.57472504787155" lon="6.688753304907115" id="-74542">
		<tag k="name" v="Seimsvegen" />
		<tag k="ssr:date" v="2019-12-27" />
		<tag k="ssr:gruppe" v="veg" />
		<tag k="ssr:hovedgruppe" v="infrastruktur" />
		<tag k="ssr:stedsnr" v="969246" />
		<tag k="ssr:type" v="adressenavn" />
	</node>
	<node lat="60.44803772761671" lon="6.6515261446297895" id="-74545">
		<tag k="name" v="Tjoflotvegen" />
		<tag k="ssr:date" v="2019-12-27" />
		<tag k="ssr:gruppe" v="veg" />
		<tag k="ssr:hovedgruppe" v="infrastruktur" />
		<tag k="ssr:stedsnr" v="987509" />
		<tag k="ssr:type" v="adressenavn" />
	</node>
	<node lat="60.50129722087833" lon="6.6295794062327635" id="-74717">
		<tag k="name" v="Mikkjelstølsvegen" />
		<tag k="ssr:date" v="2019-12-27" />
		<tag k="ssr:gruppe" v="veg" />
		<tag k="ssr:hovedgruppe" v="infrastruktur" />
		<tag k="ssr:stedsnr" v="38151" />
		<tag k="ssr:type" v="adressenavn" />
	</node>
	<node lat="60.66689388294497" lon="6.533483291304612" id="-74792">
		<tag k="name" v="Kløvshagane" />
		<tag k="ssr:date" v="2019-12-27" />
		<tag k="ssr:gruppe" v="veg" />
		<tag k="ssr:hovedgruppe" v="infrastruktur" />
		<tag k="ssr:stedsnr" v="56904" />
		<tag k="ssr:type" v="adressenavn" />
	</node>
	<node lat="60.52341607450059" lon="6.725025357310793" id="-74793">
		<tag k="name" v="Nodlavegen" />
		<tag k="ssr:date" v="2019-12-27" />
		<tag k="ssr:gruppe" v="veg" />
		<tag k="ssr:hovedgruppe" v="infrastruktur" />
		<tag k="ssr:stedsnr" v="57151" />
		<tag k="ssr:type" v="adressenavn" />
	</node>
	<node lat="60.55719324942492" lon="6.7328419846772904" id="-74794">
		<tag k="name" v="Skrivargardsvegen" />
		<tag k="ssr:date" v="2019-12-27" />
		<tag k="ssr:gruppe" v="veg" />
		<tag k="ssr:hovedgruppe" v="infrastruktur" />
		<tag k="ssr:stedsnr" v="58147" />
		<tag k="ssr:type" v="adressenavn" />
	</node>
	<node lat="60.54696769365202" lon="6.760894539680959" id="-74795">
		<tag k="name" v="Vatnasetvegen" />
		<tag k="ssr:date" v="2019-12-27" />
		<tag k="ssr:gruppe" v="veg" />
		<tag k="ssr:hovedgruppe" v="infrastruktur" />
		<tag k="ssr:stedsnr" v="58154" />
		<tag k="ssr:type" v="adressenavn" />
	</node>
	<node lat="60.54884586115439" lon="6.736812471397841" id="-74796">
		<tag k="name" v="Vindalsvegen" />
		<tag k="ssr:date" v="2019-12-27" />
		<tag k="ssr:gruppe" v="veg" />
		<tag k="ssr:hovedgruppe" v="infrastruktur" />
		<tag k="ssr:stedsnr" v="59135" />
		<tag k="ssr:type" v="adressenavn" />
	</node>
	<node lat="60.66688120800511" lon="6.518134055308682" id="-74981">
		<tag k="name" v="Lemmesvegen" />
		<tag k="ssr:date" v="2019-12-27" />
		<tag k="ssr:gruppe" v="veg" />
		<tag k="ssr:hovedgruppe" v="infrastruktur" />
		<tag k="ssr:stedsnr" v="117886" />
		<tag k="ssr:type" v="adressenavn" />
	</node>
	<node lat="60.63107715578735" lon="6.283723733171058" id="-74982">
		<tag k="name" v="Vestbygdvegen" />
		<tag k="ssr:date" v="2019-12-27" />
		<tag k="ssr:gruppe" v="veg" />
		<tag k="ssr:hovedgruppe" v="infrastruktur" />
		<tag k="ssr:stedsnr" v="117953" />
		<tag k="ssr:type" v="adressenavn" />
	</node>
	<node lat="60.54267966385286" lon="6.72377683453302" id="-74984">
		<tag k="name" v="Hausnesvegen" />
		<tag k="ssr:date" v="2019-12-27" />
		<tag k="ssr:gruppe" v="veg" />
		<tag k="ssr:hovedgruppe" v="infrastruktur" />
		<tag k="ssr:stedsnr" v="119189" />
		<tag k="ssr:type" v="adressenavn" />
	</node>
	<node lat="60.85584960048878" lon="6.484445738923889" id="-75202">
		<tag k="name" v="Draugsvollshammaren" />
		<tag k="ssr:date" v="2019-12-27" />
		<tag k="ssr:gruppe" v="veg" />
		<tag k="ssr:hovedgruppe" v="infrastruktur" />
		<tag k="ssr:stedsnr" v="176890" />
		<tag k="ssr:type" v="adressenavn" />
	</node>
	<node lat="60.59127078518695" lon="6.462425984384409" id="-75203">
		<tag k="name" v="Herresvegen" />
		<tag k="ssr:date" v="2019-12-27" />
		<tag k="ssr:gruppe" v="veg" />
		<tag k="ssr:hovedgruppe" v="infrastruktur" />
		<tag k="ssr:stedsnr" v="177078" />
		<tag k="ssr:type" v="adressenavn" />
	</node>
	<node lat="60.660247834771376" lon="6.4533960991898685" id="-75204">
		<tag k="name" v="Nedkvitnesvegen" />
		<tag k="ssr:date" v="2019-12-27" />
		<tag k="ssr:gruppe" v="veg" />
		<tag k="ssr:hovedgruppe" v="infrastruktur" />
		<tag k="ssr:stedsnr" v="177900" />
		<tag k="ssr:type" v="adressenavn" />
	</node>
	<node lat="60.85447654431001" lon="6.484434491546031" id="-75205">
		<tag k="name" v="Finnbutunet" />
		<tag k="ssr:date" v="2019-12-27" />
		<tag k="ssr:gruppe" v="veg" />
		<tag k="ssr:hovedgruppe" v="infrastruktur" />
		<tag k="ssr:stedsnr" v="177913" />
		<tag k="ssr:type" v="adressenavn" />
	</node>
	<node lat="60.57842413869552" lon="6.78397417495218" id="-75206">
		<tag k="name" v="Geituri" />
		<tag k="ssr:date" v="2019-12-27" />
		<tag k="ssr:gruppe" v="veg" />
		<tag k="ssr:hovedgruppe" v="infrastruktur" />
		<tag k="ssr:stedsnr" v="180142" />
		<tag k="ssr:type" v="adressenavn" />
	</node>
	<node lat="60.855507722652405" lon="6.4882001756970995" id="-75354">
		<tag k="name" v="Vårstølen" />
		<tag k="ssr:date" v="2019-12-27" />
		<tag k="ssr:gruppe" v="veg" />
		<tag k="ssr:hovedgruppe" v="infrastruktur" />
		<tag k="ssr:stedsnr" v="222955" />
		<tag k="ssr:type" v="adressenavn" />
	</node>
	<node lat="60.63750706582643" lon="6.173574526126371" id="-75408">
		<tag k="name" v="Saghaugen" />
		<tag k="ssr:date" v="2019-12-27" />
		<tag k="ssr:gruppe" v="veg" />
		<tag k="ssr:hovedgruppe" v="infrastruktur" />
		<tag k="ssr:stedsnr" v="284824" />
		<tag k="ssr:type" v="adressenavn" />
	</node>
	<node lat="60.59027052410463" lon="6.6286439280149505" id="-75465">
		<tag k="name" v="Brekke" />
		<tag k="old_name" v="Brekkevegen" />
		<tag k="ssr:date" v="2019-12-27" />
		<tag k="ssr:gruppe" v="veg" />
		<tag k="ssr:hovedgruppe" v="infrastruktur" />
		<tag k="ssr:stedsnr" v="299194" />
		<tag k="ssr:type" v="adressenavn" />
	</node>
	<node lat="60.529062069968305" lon="6.734189189121745" id="-75466">
		<tag k="name" v="Kjerlandsvegen" />
		<tag k="ssr:date" v="2019-12-27" />
		<tag k="ssr:gruppe" v="veg" />
		<tag k="ssr:hovedgruppe" v="infrastruktur" />
		<tag k="ssr:stedsnr" v="301147" />
		<tag k="ssr:type" v="adressenavn" />
	</node>
	<node lat="60.522706504054064" lon="6.727028942594251" id="-75467">
		<tag k="name" v="Skjerpevegen" />
		<tag k="ssr:date" v="2019-12-27" />
		<tag k="ssr:gruppe" v="veg" />
		<tag k="ssr:hovedgruppe" v="infrastruktur" />
		<tag k="ssr:stedsnr" v="301120" />
		<tag k="ssr:type" v="adressenavn" />
	</node>
	<node lat="60.83860242628144" lon="6.688401232191991" id="-75543">
		<tag k="name" v="Stalheimskleivi" />
		<tag k="ssr:date" v="2021-06-08" />
		<tag k="ssr:gruppe" v="veg" />
		<tag k="ssr:hovedgruppe" v="infrastruktur" />
		<tag k="ssr:stedsnr" v="312777" />
		<tag k="ssr:type" v="vegstrekning" />
	</node>
	<node lat="60.613403351186356" lon="6.432514967009265" id="-75681">
		<tag k="name" v="Rokne" />
		<tag k="ssr:date" v="2019-12-27" />
		<tag k="ssr:gruppe" v="veg" />
		<tag k="ssr:hovedgruppe" v="infrastruktur" />
		<tag k="ssr:stedsnr" v="359083" />
		<tag k="ssr:type" v="adressenavn" />
	</node>
	<node lat="60.68036715321445" lon="6.487071329921024" id="-75682">
		<tag k="name" v="Golfparken" />
		<tag k="ssr:date" v="2019-12-27" />
		<tag k="ssr:gruppe" v="veg" />
		<tag k="ssr:hovedgruppe" v="infrastruktur" />
		<tag k="ssr:stedsnr" v="359896" />
		<tag k="ssr:type" v="adressenavn" />
	</node>
	<node lat="60.59821310586408" lon="6.640195318366088" id="-75683">
		<tag k="name" v="Latebakken" />
		<tag k="ssr:date" v="2019-12-27" />
		<tag k="ssr:gruppe" v="veg" />
		<tag k="ssr:hovedgruppe" v="infrastruktur" />
		<tag k="ssr:stedsnr" v="361121" />
		<tag k="ssr:type" v="adressenavn" />
	</node>
	<node lat="60.534047020854764" lon="6.733287308176152" id="-75684">
		<tag k="name" v="Tueteigen" />
		<tag k="ssr:date" v="2019-12-27" />
		<tag k="ssr:gruppe" v="veg" />
		<tag k="ssr:hovedgruppe" v="infrastruktur" />
		<tag k="ssr:stedsnr" v="361131" />
		<tag k="ssr:type" v="adressenavn" />
	</node>
	<node lat="60.529218970425006" lon="6.695415485900905" id="-75685">
		<tag k="name" v="Liasetvegen" />
		<tag k="ssr:date" v="2019-12-27" />
		<tag k="ssr:gruppe" v="veg" />
		<tag k="ssr:hovedgruppe" v="infrastruktur" />
		<tag k="ssr:stedsnr" v="361144" />
		<tag k="ssr:type" v="adressenavn" />
	</node>
	<node lat="60.506784404069535" lon="6.686452060033079" id="-75686">
		<tag k="name" v="Haukanesstølen" />
		<tag k="ssr:date" v="2019-12-27" />
		<tag k="ssr:gruppe" v="veg" />
		<tag k="ssr:hovedgruppe" v="infrastruktur" />
		<tag k="ssr:stedsnr" v="361149" />
		<tag k="ssr:type" v="adressenavn" />
	</node>
	<node lat="60.54866476058372" lon="6.75677396022459" id="-75687">
		<tag k="name" v="Strindeskleivvegen" />
		<tag k="old_name" v="Allmenningsvegen" />
		<tag k="ssr:date" v="2019-12-27" />
		<tag k="ssr:gruppe" v="veg" />
		<tag k="ssr:hovedgruppe" v="infrastruktur" />
		<tag k="ssr:stedsnr" v="361205" />
		<tag k="ssr:type" v="adressenavn" />
	</node>
	<node lat="60.57250906100546" lon="6.69206461848094" id="-75688">
		<tag k="name" v="Skjervsvegen" />
		<tag k="ssr:date" v="2019-12-27" />
		<tag k="ssr:gruppe" v="veg" />
		<tag k="ssr:hovedgruppe" v="infrastruktur" />
		<tag k="ssr:stedsnr" v="362156" />
		<tag k="ssr:type" v="adressenavn" />
	</node>
	<node lat="60.56491051151847" lon="6.725275678014446" id="-75689">
		<tag k="name" v="Holvesvegen" />
		<tag k="ssr:date" v="2019-12-27" />
		<tag k="ssr:gruppe" v="veg" />
		<tag k="ssr:hovedgruppe" v="infrastruktur" />
		<tag k="ssr:stedsnr" v="362250" />
		<tag k="ssr:type" v="adressenavn" />
	</node>
	<node lat="60.85518062961873" lon="6.486309632722885" id="-75841">
		<tag k="name" v="Hyrtateigen" />
		<tag k="ssr:date" v="2019-12-27" />
		<tag k="ssr:gruppe" v="veg" />
		<tag k="ssr:hovedgruppe" v="infrastruktur" />
		<tag k="ssr:stedsnr" v="404961" />
		<tag k="ssr:type" v="adressenavn" />
	</node>
	<node lat="60.62099067509819" lon="6.225495405449423" id="-75842">
		<tag k="name" v="Gamle Dalavegen" />
		<tag k="ssr:date" v="2019-12-27" />
		<tag k="ssr:gruppe" v="veg" />
		<tag k="ssr:hovedgruppe" v="infrastruktur" />
		<tag k="ssr:stedsnr" v="405820" />
		<tag k="ssr:type" v="adressenavn" />
	</node>
	<node lat="60.589796110543745" lon="6.636860863097052" id="-75896">
		<tag k="name" v="Jørdrevegen" />
		<tag k="ssr:date" v="2019-12-27" />
		<tag k="ssr:gruppe" v="veg" />
		<tag k="ssr:hovedgruppe" v="infrastruktur" />
		<tag k="ssr:stedsnr" v="421161" />
		<tag k="ssr:type" v="adressenavn" />
	</node>
	<node lat="60.55215783631543" lon="6.737382472923264" id="-75897">
		<tag k="name" v="Velkjesvegen" />
		<tag k="ssr:date" v="2019-12-27" />
		<tag k="ssr:gruppe" v="veg" />
		<tag k="ssr:hovedgruppe" v="infrastruktur" />
		<tag k="ssr:stedsnr" v="423167" />
		<tag k="ssr:type" v="adressenavn" />
	</node>
	<node lat="60.52842634163571" lon="6.738465625085573" id="-75898">
		<tag k="name" v="Tveito" />
		<tag k="old_name" v="Tveitavegen" />
		<tag k="ssr:date" v="2019-12-27" />
		<tag k="ssr:gruppe" v="veg" />
		<tag k="ssr:hovedgruppe" v="infrastruktur" />
		<tag k="ssr:stedsnr" v="423172" />
		<tag k="ssr:type" v="adressenavn" />
	</node>
	<node lat="60.63392446164678" lon="6.264910612233422" id="-76100">
		<tag k="name" v="Vætesvegen" />
		<tag k="ssr:date" v="2019-12-27" />
		<tag k="ssr:gruppe" v="veg" />
		<tag k="ssr:hovedgruppe" v="infrastruktur" />
		<tag k="ssr:stedsnr" v="526970" />
		<tag k="ssr:type" v="adressenavn" />
	</node>
	<node lat="60.655278068879085" lon="6.53552420007" id="-76131">
		<tag k="name" v="Selheimsvegen" />
		<tag k="ssr:date" v="2019-12-27" />
		<tag k="ssr:gruppe" v="veg" />
		<tag k="ssr:hovedgruppe" v="infrastruktur" />
		<tag k="ssr:stedsnr" v="541060" />
		<tag k="ssr:type" v="adressenavn" />
	</node>
	<node lat="60.56633297100741" lon="6.464838614775532" id="-76132">
		<tag k="name" v="Kvitno" />
		<tag k="ssr:date" v="2019-12-27" />
		<tag k="ssr:gruppe" v="veg" />
		<tag k="ssr:hovedgruppe" v="infrastruktur" />
		<tag k="ssr:stedsnr" v="541079" />
		<tag k="ssr:type" v="adressenavn" />
	</node>
	<node lat="60.5293078385568" lon="6.695361228325038" id="-76133">
		<tag k="name" v="Steinsete" />
		<tag k="ssr:date" v="2019-12-27" />
		<tag k="ssr:gruppe" v="veg" />
		<tag k="ssr:hovedgruppe" v="infrastruktur" />
		<tag k="ssr:stedsnr" v="544129" />
		<tag k="ssr:type" v="adressenavn" />
	</node>
	<node lat="60.59525018087347" lon="6.822756483355006" id="-76134">
		<tag k="name" v="Espelandsnuten" />
		<tag k="ssr:date" v="2019-12-27" />
		<tag k="ssr:gruppe" v="veg" />
		<tag k="ssr:hovedgruppe" v="infrastruktur" />
		<tag k="ssr:stedsnr" v="544138" />
		<tag k="ssr:type" v="adressenavn" />
	</node>
	<node lat="60.51586031511083" lon="6.710902760577818" id="-76135">
		<tag k="name" v="Bjørndalstølen" />
		<tag k="old_name" v="Bjørndalen" />
		<tag k="ssr:date" v="2019-12-27" />
		<tag k="ssr:gruppe" v="veg" />
		<tag k="ssr:hovedgruppe" v="infrastruktur" />
		<tag k="ssr:stedsnr" v="544146" />
		<tag k="ssr:type" v="adressenavn" />
	</node>
	<node lat="60.52351002056567" lon="6.717568113582753" id="-76136">
		<tag k="name" v="Eidesvegen" />
		<tag k="ssr:date" v="2019-12-27" />
		<tag k="ssr:gruppe" v="veg" />
		<tag k="ssr:hovedgruppe" v="infrastruktur" />
		<tag k="ssr:stedsnr" v="544160" />
		<tag k="ssr:type" v="adressenavn" />
	</node>
	<node lat="60.548893142171835" lon="6.189476058093414" id="-76293">
		<tag k="name" v="Hodnabergsvegen" />
		<tag k="ssr:date" v="2019-12-27" />
		<tag k="ssr:gruppe" v="veg" />
		<tag k="ssr:hovedgruppe" v="infrastruktur" />
		<tag k="ssr:stedsnr" v="587787" />
		<tag k="ssr:type" v="adressenavn" />
	</node>
	<node lat="60.62395447657604" lon="6.160473727470719" id="-76294">
		<tag k="name" v="Skjerveggi" />
		<tag k="ssr:date" v="2019-12-27" />
		<tag k="ssr:gruppe" v="veg" />
		<tag k="ssr:hovedgruppe" v="infrastruktur" />
		<tag k="ssr:stedsnr" v="587789" />
		<tag k="ssr:type" v="adressenavn" />
	</node>
	<node lat="60.57662060021188" lon="6.467671065120932" id="-76352">
		<tag k="name" v="Fære" />
		<tag k="ssr:date" v="2019-12-27" />
		<tag k="ssr:gruppe" v="veg" />
		<tag k="ssr:hovedgruppe" v="infrastruktur" />
		<tag k="ssr:stedsnr" v="602084" />
		<tag k="ssr:type" v="adressenavn" />
	</node>
	<node lat="60.67753811484235" lon="6.485255591463867" id="-76355">
		<tag k="name" v="Heglesåsen" />
		<tag k="ssr:date" v="2019-12-27" />
		<tag k="ssr:gruppe" v="veg" />
		<tag k="ssr:hovedgruppe" v="infrastruktur" />
		<tag k="ssr:stedsnr" v="602894" />
		<tag k="ssr:type" v="adressenavn" />
	</node>
	<node lat="60.52169035434235" lon="6.722142424232428" id="-76356">
		<tag k="name" v="Steinkloppvegen" />
		<tag k="ssr:date" v="2019-12-27" />
		<tag k="ssr:gruppe" v="veg" />
		<tag k="ssr:hovedgruppe" v="infrastruktur" />
		<tag k="ssr:stedsnr" v="604140" />
		<tag k="ssr:type" v="adressenavn" />
	</node>
	<node lat="60.523879065676084" lon="6.72566433282382" id="-76357">
		<tag k="name" v="Sandhaugvegen" />
		<tag k="ssr:date" v="2019-12-27" />
		<tag k="ssr:gruppe" v="veg" />
		<tag k="ssr:hovedgruppe" v="infrastruktur" />
		<tag k="ssr:stedsnr" v="604141" />
		<tag k="ssr:type" v="adressenavn" />
	</node>
	<node lat="60.590472950887616" lon="6.662851880558951" id="-76358">
		<tag k="name" v="Skårsvegen" />
		<tag k="ssr:date" v="2019-12-27" />
		<tag k="ssr:gruppe" v="veg" />
		<tag k="ssr:hovedgruppe" v="infrastruktur" />
		<tag k="ssr:stedsnr" v="604198" />
		<tag k="ssr:type" v="adressenavn" />
	</node>
	<node lat="60.56645705947386" lon="6.7227325759546375" id="-76359">
		<tag k="name" v="Espelandsvegen" />
		<tag k="ssr:date" v="2019-12-27" />
		<tag k="ssr:gruppe" v="veg" />
		<tag k="ssr:hovedgruppe" v="infrastruktur" />
		<tag k="ssr:stedsnr" v="604246" />
		<tag k="ssr:type" v="adressenavn" />
	</node>
	<node lat="60.561084001769686" lon="6.176397652933628" id="-76506">
		<tag k="name" v="Bjørndalen" />
		<tag k="ssr:date" v="2019-12-27" />
		<tag k="ssr:gruppe" v="veg" />
		<tag k="ssr:hovedgruppe" v="infrastruktur" />
		<tag k="ssr:stedsnr" v="647777" />
		<tag k="ssr:type" v="adressenavn" />
	</node>
	<node lat="60.647793813083084" lon="6.494147388562524" id="-76558">
		<tag k="name" v="Øvre Tjukkebygdi" />
		<tag k="ssr:date" v="2019-12-27" />
		<tag k="ssr:gruppe" v="veg" />
		<tag k="ssr:hovedgruppe" v="infrastruktur" />
		<tag k="ssr:stedsnr" v="663065" />
		<tag k="ssr:type" v="adressenavn" />
	</node>
	<node lat="60.722881629412605" lon="6.491816783799789" id="-76559">
		<tag k="name" v="Reppavegen" />
		<tag k="ssr:date" v="2019-12-27" />
		<tag k="ssr:gruppe" v="veg" />
		<tag k="ssr:hovedgruppe" v="infrastruktur" />
		<tag k="ssr:stedsnr" v="663899" />
		<tag k="ssr:type" v="adressenavn" />
	</node>
	<node lat="60.52462815701297" lon="6.726742182948419" id="-76561">
		<tag k="name" v="Hagabrekko" />
		<tag k="ssr:date" v="2019-12-27" />
		<tag k="ssr:gruppe" v="veg" />
		<tag k="ssr:hovedgruppe" v="infrastruktur" />
		<tag k="ssr:stedsnr" v="665131" />
		<tag k="ssr:type" v="adressenavn" />
	</node>
	<node lat="60.53451410076114" lon="6.73414488482707" id="-76562">
		<tag k="name" v="Vallavikvegen" />
		<tag k="ssr:date" v="2019-12-27" />
		<tag k="ssr:gruppe" v="veg" />
		<tag k="ssr:hovedgruppe" v="infrastruktur" />
		<tag k="ssr:stedsnr" v="665155" />
		<tag k="ssr:type" v="adressenavn" />
	</node>
	<node lat="60.544624886296816" lon="6.474611726010427" id="-76625">
		<tag k="name" v="Jeraldsvegen" />
		<tag k="ssr:date" v="2019-12-27" />
		<tag k="ssr:gruppe" v="veg" />
		<tag k="ssr:hovedgruppe" v="infrastruktur" />
		<tag k="ssr:stedsnr" v="723091" />
		<tag k="ssr:type" v="adressenavn" />
	</node>
	<node lat="60.608716434086574" lon="6.420064474626662" id="-76626">
		<tag k="name" v="Tungeteigvegen" />
		<tag k="ssr:date" v="2019-12-27" />
		<tag k="ssr:gruppe" v="veg" />
		<tag k="ssr:hovedgruppe" v="infrastruktur" />
		<tag k="ssr:stedsnr" v="723060" />
		<tag k="ssr:type" v="adressenavn" />
	</node>
	<node lat="60.524081141085745" lon="6.723897276053199" id="-76627">
		<tag k="name" v="Nedre Røynstrand" />
		<tag k="ssr:date" v="2019-12-27" />
		<tag k="ssr:gruppe" v="veg" />
		<tag k="ssr:hovedgruppe" v="infrastruktur" />
		<tag k="ssr:stedsnr" v="724164" />
		<tag k="ssr:type" v="adressenavn" />
	</node>
	<node lat="60.64480244142495" lon="6.5041700902251485" id="-76844">
		<tag k="name" v="Raundalsvegen" />
		<tag k="ssr:date" v="2019-12-27" />
		<tag k="ssr:gruppe" v="veg" />
		<tag k="ssr:hovedgruppe" v="infrastruktur" />
		<tag k="ssr:stedsnr" v="784064" />
		<tag k="ssr:type" v="adressenavn" />
	</node>
	<node lat="60.4898724689345" lon="6.647056630050305" id="-76845">
		<tag k="name" v="Framitunvegen" />
		<tag k="ssr:date" v="2019-12-27" />
		<tag k="ssr:gruppe" v="veg" />
		<tag k="ssr:hovedgruppe" v="infrastruktur" />
		<tag k="ssr:stedsnr" v="786179" />
		<tag k="ssr:type" v="adressenavn" />
	</node>
	<node lat="60.456158784389466" lon="6.550399476519931" id="-76846">
		<tag k="name" v="Lussandvegen" />
		<tag k="ssr:date" v="2019-12-27" />
		<tag k="ssr:gruppe" v="veg" />
		<tag k="ssr:hovedgruppe" v="infrastruktur" />
		<tag k="ssr:stedsnr" v="787139" />
		<tag k="ssr:type" v="adressenavn" />
	</node>
	<node lat="60.480510565541806" lon="6.659102936995909" id="-77071">
		<tag k="name" v="Seljesete" />
		<tag k="ssr:date" v="2019-12-27" />
		<tag k="ssr:gruppe" v="veg" />
		<tag k="ssr:hovedgruppe" v="infrastruktur" />
		<tag k="ssr:stedsnr" v="847155" />
		<tag k="ssr:type" v="adressenavn" />
	</node>
	<node lat="60.47137894666118" lon="6.609502540259096" id="-77072">
		<tag k="name" v="Kvanndalsvegen" />
		<tag k="ssr:date" v="2019-12-27" />
		<tag k="ssr:gruppe" v="veg" />
		<tag k="ssr:hovedgruppe" v="infrastruktur" />
		<tag k="ssr:stedsnr" v="848146" />
		<tag k="ssr:type" v="adressenavn" />
	</node>
	<node lat="60.59025282007828" lon="6.674424281419687" id="-77073">
		<tag k="name" v="Bjørndalsvegen" />
		<tag k="ssr:date" v="2019-12-27" />
		<tag k="ssr:gruppe" v="veg" />
		<tag k="ssr:hovedgruppe" v="infrastruktur" />
		<tag k="ssr:stedsnr" v="848159" />
		<tag k="ssr:type" v="adressenavn" />
	</node>
	<node lat="60.48074259331732" lon="6.659927450189092" id="-77074">
		<tag k="name" v="Hamrevegen" />
		<tag k="ssr:date" v="2019-12-27" />
		<tag k="ssr:gruppe" v="veg" />
		<tag k="ssr:hovedgruppe" v="infrastruktur" />
		<tag k="ssr:stedsnr" v="848168" />
		<tag k="ssr:type" v="adressenavn" />
	</node>
	<node lat="60.561792330923495" lon="6.706267345629444" id="-77075">
		<tag k="name" v="Nesheimsvegen" />
		<tag k="ssr:date" v="2019-12-27" />
		<tag k="ssr:gruppe" v="veg" />
		<tag k="ssr:hovedgruppe" v="infrastruktur" />
		<tag k="ssr:stedsnr" v="848256" />
		<tag k="ssr:type" v="adressenavn" />
	</node>
	<node lat="60.59657838462986" lon="6.451755719595417" id="-77309">
		<tag k="name" v="Himleshagen" />
		<tag k="ssr:date" v="2019-12-27" />
		<tag k="ssr:gruppe" v="veg" />
		<tag k="ssr:hovedgruppe" v="infrastruktur" />
		<tag k="ssr:stedsnr" v="966081" />
		<tag k="ssr:type" v="adressenavn" />
	</node>
	<node lat="60.52097941842957" lon="6.759040758855999" id="-77310">
		<tag k="name" v="Stokkselvegen" />
		<tag k="ssr:date" v="2019-12-27" />
		<tag k="ssr:gruppe" v="veg" />
		<tag k="ssr:hovedgruppe" v="infrastruktur" />
		<tag k="ssr:stedsnr" v="968202" />
		<tag k="ssr:type" v="adressenavn" />
	</node>
	<node lat="60.52281431548125" lon="6.715148890274214" id="-77311">
		<tag k="name" v="Stasjonsvegen" />
		<tag k="ssr:date" v="2019-12-27" />
		<tag k="ssr:gruppe" v="veg" />
		<tag k="ssr:hovedgruppe" v="infrastruktur" />
		<tag k="ssr:stedsnr" v="971946" />
		<tag k="ssr:type" v="adressenavn" />
	</node>
	<node lat="60.45821993362725" lon="6.751820196152336" id="-77335">
		<tag k="name" v="Djønnaneset" />
		<tag k="ssr:date" v="2019-12-27" />
		<tag k="ssr:gruppe" v="veg" />
		<tag k="ssr:hovedgruppe" v="infrastruktur" />
		<tag k="ssr:stedsnr" v="987484" />
		<tag k="ssr:type" v="adressenavn" />
	</node>
	<node lat="60.47263996965804" lon="6.773918699924214" id="-77336">
		<tag k="name" v="Kaland" />
		<tag k="ssr:date" v="2019-12-27" />
		<tag k="ssr:gruppe" v="veg" />
		<tag k="ssr:hovedgruppe" v="infrastruktur" />
		<tag k="ssr:stedsnr" v="987491" />
		<tag k="ssr:type" v="adressenavn" />
	</node>
	<node lat="60.62711438045105" lon="6.387739071716091" id="-77359">
		<tag k="name" v="Brekkereino" />
		<tag k="ssr:date" v="2019-12-27" />
		<tag k="ssr:gruppe" v="veg" />
		<tag k="ssr:hovedgruppe" v="infrastruktur" />
		<tag k="ssr:stedsnr" v="1037384" />
		<tag k="ssr:type" v="adressenavn" />
	</node>
	<node lat="60.631836650084054" lon="6.444860209326325" id="-77360">
		<tag k="name" v="Brynaflaten" />
		<tag k="ssr:date" v="2019-12-27" />
		<tag k="ssr:gruppe" v="veg" />
		<tag k="ssr:hovedgruppe" v="infrastruktur" />
		<tag k="ssr:stedsnr" v="1037385" />
		<tag k="ssr:type" v="adressenavn" />
	</node>
	<node lat="60.62747001438264" lon="6.43371394837182" id="-77361">
		<tag k="name" v="Movegen" />
		<tag k="ssr:date" v="2019-12-27" />
		<tag k="ssr:gruppe" v="veg" />
		<tag k="ssr:hovedgruppe" v="infrastruktur" />
		<tag k="ssr:stedsnr" v="1037436" />
		<tag k="ssr:type" v="adressenavn" />
	</node>
	<node lat="60.63421262330272" lon="6.422954478301063" id="-77362">
		<tag k="name" v="Nedre Mølster" />
		<tag k="ssr:date" v="2019-12-27" />
		<tag k="ssr:gruppe" v="veg" />
		<tag k="ssr:hovedgruppe" v="infrastruktur" />
		<tag k="ssr:stedsnr" v="1037437" />
		<tag k="ssr:type" v="adressenavn" />
	</node>
	<node lat="60.631479423837156" lon="6.408253065264603" id="-77363">
		<tag k="name" v="Kverkane" />
		<tag k="ssr:date" v="2019-12-27" />
		<tag k="ssr:gruppe" v="veg" />
		<tag k="ssr:hovedgruppe" v="infrastruktur" />
		<tag k="ssr:stedsnr" v="1037438" />
		<tag k="ssr:type" v="adressenavn" />
	</node>
	<node lat="60.630490523953" lon="6.401431480218387" id="-77364">
		<tag k="name" v="Kvernavegen" />
		<tag k="ssr:date" v="2019-12-27" />
		<tag k="ssr:gruppe" v="veg" />
		<tag k="ssr:hovedgruppe" v="infrastruktur" />
		<tag k="ssr:stedsnr" v="1037440" />
		<tag k="ssr:type" v="adressenavn" />
	</node>
	<node lat="60.62799584565779" lon="6.43427753224423" id="-77365">
		<tag k="name" v="Industrigata" />
		<tag k="ssr:date" v="2019-12-27" />
		<tag k="ssr:gruppe" v="veg" />
		<tag k="ssr:hovedgruppe" v="infrastruktur" />
		<tag k="ssr:stedsnr" v="1037441" />
		<tag k="ssr:type" v="adressenavn" />
	</node>
	<node lat="60.63426276181385" lon="6.42511901149308" id="-77366">
		<tag k="name" v="Kleivi" />
		<tag k="ssr:date" v="2019-12-27" />
		<tag k="ssr:gruppe" v="veg" />
		<tag k="ssr:hovedgruppe" v="infrastruktur" />
		<tag k="ssr:stedsnr" v="1037442" />
		<tag k="ssr:type" v="adressenavn" />
	</node>
	<node lat="60.628710474049484" lon="6.424103093849466" id="-77367">
		<tag k="name" v="Lekvemoen" />
		<tag k="ssr:date" v="2019-12-27" />
		<tag k="ssr:gruppe" v="veg" />
		<tag k="ssr:hovedgruppe" v="infrastruktur" />
		<tag k="ssr:stedsnr" v="1037443" />
		<tag k="ssr:type" v="adressenavn" />
	</node>
	<node lat="60.629848322709236" lon="6.425489314807674" id="-77368">
		<tag k="name" v="Lekvemogata" />
		<tag k="ssr:date" v="2019-12-27" />
		<tag k="ssr:gruppe" v="veg" />
		<tag k="ssr:hovedgruppe" v="infrastruktur" />
		<tag k="ssr:stedsnr" v="1037445" />
		<tag k="ssr:type" v="adressenavn" />
	</node>
	<node lat="60.631083030667966" lon="6.409960905247674" id="-77369">
		<tag k="name" v="Kyrkjefloten" />
		<tag k="ssr:date" v="2019-12-27" />
		<tag k="ssr:gruppe" v="veg" />
		<tag k="ssr:hovedgruppe" v="infrastruktur" />
		<tag k="ssr:stedsnr" v="1037447" />
		<tag k="ssr:type" v="adressenavn" />
	</node>
	<node lat="60.62993849240745" lon="6.414119997551783" id="-77370">
		<tag k="name" v="Lekvebakken" />
		<tag k="ssr:date" v="2019-12-27" />
		<tag k="ssr:gruppe" v="veg" />
		<tag k="ssr:hovedgruppe" v="infrastruktur" />
		<tag k="ssr:stedsnr" v="1037448" />
		<tag k="ssr:type" v="adressenavn" />
	</node>
	<node lat="60.6256825973183" lon="6.387513934612697" id="-77371">
		<tag k="name" v="Seimshagen" />
		<tag k="ssr:date" v="2019-12-27" />
		<tag k="ssr:gruppe" v="veg" />
		<tag k="ssr:hovedgruppe" v="infrastruktur" />
		<tag k="ssr:stedsnr" v="1037449" />
		<tag k="ssr:type" v="adressenavn" />
	</node>
	<node lat="60.63177582770595" lon="6.421015253238473" id="-77372">
		<tag k="name" v="Sivlevegen" />
		<tag k="ssr:date" v="2019-12-27" />
		<tag k="ssr:gruppe" v="veg" />
		<tag k="ssr:hovedgruppe" v="infrastruktur" />
		<tag k="ssr:stedsnr" v="1037450" />
		<tag k="ssr:type" v="adressenavn" />
	</node>
	<node lat="60.637225405688234" lon="6.430869172416475" id="-77373">
		<tag k="name" v="Rognsli" />
		<tag k="ssr:date" v="2019-12-27" />
		<tag k="ssr:gruppe" v="veg" />
		<tag k="ssr:hovedgruppe" v="infrastruktur" />
		<tag k="ssr:stedsnr" v="1037451" />
		<tag k="ssr:type" v="adressenavn" />
	</node>
	<node lat="60.61996201270463" lon="6.4265801935556315" id="-77374">
		<tag k="name" v="Russarvegen" />
		<tag k="ssr:date" v="2019-12-27" />
		<tag k="ssr:gruppe" v="veg" />
		<tag k="ssr:hovedgruppe" v="infrastruktur" />
		<tag k="ssr:stedsnr" v="1037452" />
		<tag k="ssr:type" v="adressenavn" />
	</node>
	<node lat="60.62782957556941" lon="6.437831092125358" id="-77375">
		<tag k="name" v="Gamle Bordalsvegen" />
		<tag k="ssr:date" v="2019-12-27" />
		<tag k="ssr:gruppe" v="veg" />
		<tag k="ssr:hovedgruppe" v="infrastruktur" />
		<tag k="ssr:stedsnr" v="1037387" />
		<tag k="ssr:type" v="adressenavn" />
	</node>
	<node lat="60.6350207691401" lon="6.421353246766935" id="-77376">
		<tag k="name" v="Eggjabakken" />
		<tag k="ssr:date" v="2019-12-27" />
		<tag k="ssr:gruppe" v="veg" />
		<tag k="ssr:hovedgruppe" v="infrastruktur" />
		<tag k="ssr:stedsnr" v="1037389" />
		<tag k="ssr:type" v="adressenavn" />
	</node>
	<node lat="60.63063176315401" lon="6.4277488494971315" id="-77377">
		<tag k="name" v="Elvegata" />
		<tag k="ssr:date" v="2019-12-27" />
		<tag k="ssr:gruppe" v="veg" />
		<tag k="ssr:hovedgruppe" v="infrastruktur" />
		<tag k="ssr:stedsnr" v="1037392" />
		<tag k="ssr:type" v="adressenavn" />
	</node>
	<node lat="60.631349746959266" lon="6.442722752986578" id="-77378">
		<tag k="name" v="Brynavollen" />
		<tag k="ssr:date" v="2019-12-27" />
		<tag k="ssr:gruppe" v="veg" />
		<tag k="ssr:hovedgruppe" v="infrastruktur" />
		<tag k="ssr:stedsnr" v="1037394" />
		<tag k="ssr:type" v="adressenavn" />
	</node>
	<node lat="60.6241174906378" lon="6.437082802334056" id="-77379">
		<tag k="name" v="Dokki" />
		<tag k="ssr:date" v="2019-12-27" />
		<tag k="ssr:gruppe" v="veg" />
		<tag k="ssr:hovedgruppe" v="infrastruktur" />
		<tag k="ssr:stedsnr" v="1037397" />
		<tag k="ssr:type" v="adressenavn" />
	</node>
	<node lat="60.63503471506005" lon="6.433058284525464" id="-77380">
		<tag k="name" v="Bjørkelivegen" />
		<tag k="ssr:date" v="2019-12-27" />
		<tag k="ssr:gruppe" v="veg" />
		<tag k="ssr:hovedgruppe" v="infrastruktur" />
		<tag k="ssr:stedsnr" v="1037403" />
		<tag k="ssr:type" v="adressenavn" />
	</node>
	<node lat="60.62716429026242" lon="6.434875991439577" id="-77381">
		<tag k="name" v="Blomvegen" />
		<tag k="ssr:date" v="2019-12-27" />
		<tag k="ssr:gruppe" v="veg" />
		<tag k="ssr:hovedgruppe" v="infrastruktur" />
		<tag k="ssr:stedsnr" v="1037404" />
		<tag k="ssr:type" v="adressenavn" />
	</node>
	<node lat="60.45608296860612" lon="6.572333684693231" id="-77382">
		<tag k="name" v="Hardangervegen" />
		<tag k="ssr:date" v="2019-12-27" />
		<tag k="ssr:gruppe" v="veg" />
		<tag k="ssr:hovedgruppe" v="infrastruktur" />
		<tag k="ssr:stedsnr" v="1037406" />
		<tag k="ssr:type" v="adressenavn" />
	</node>
	<node lat="60.62887676266923" lon="6.442232056293016" id="-77383">
		<tag k="name" v="Haugabaret" />
		<tag k="ssr:date" v="2019-12-27" />
		<tag k="ssr:gruppe" v="veg" />
		<tag k="ssr:hovedgruppe" v="infrastruktur" />
		<tag k="ssr:stedsnr" v="1037407" />
		<tag k="ssr:type" v="adressenavn" />
	</node>
	<node lat="60.49455749366242" lon="6.642442424543287" id="-77384">
		<tag k="name" v="Smidjehaugen" />
		<tag k="ssr:date" v="2019-12-27" />
		<tag k="ssr:gruppe" v="veg" />
		<tag k="ssr:hovedgruppe" v="infrastruktur" />
		<tag k="ssr:stedsnr" v="1037408" />
		<tag k="ssr:type" v="adressenavn" />
	</node>
	<node lat="60.62971862674542" lon="6.397516597235281" id="-77385">
		<tag k="name" v="Hamrane" />
		<tag k="ssr:date" v="2019-12-27" />
		<tag k="ssr:gruppe" v="veg" />
		<tag k="ssr:hovedgruppe" v="infrastruktur" />
		<tag k="ssr:stedsnr" v="1037409" />
		<tag k="ssr:type" v="adressenavn" />
	</node>
	<node lat="60.6295314981333" lon="6.408551807864709" id="-77386">
		<tag k="name" v="Hangursvegen" />
		<tag k="ssr:date" v="2019-12-27" />
		<tag k="ssr:gruppe" v="veg" />
		<tag k="ssr:hovedgruppe" v="infrastruktur" />
		<tag k="ssr:stedsnr" v="1037410" />
		<tag k="ssr:type" v="adressenavn" />
	</node>
	<node lat="60.63660326163976" lon="6.428796018977922" id="-77387">
		<tag k="name" v="Hjellane" />
		<tag k="ssr:date" v="2019-12-27" />
		<tag k="ssr:gruppe" v="veg" />
		<tag k="ssr:hovedgruppe" v="infrastruktur" />
		<tag k="ssr:stedsnr" v="1037411" />
		<tag k="ssr:type" v="adressenavn" />
	</node>
	<node lat="60.6281399057599" lon="6.43132306458501" id="-77388">
		<tag k="name" v="Aad Gjelles gata" />
		<tag k="ssr:date" v="2019-12-27" />
		<tag k="ssr:gruppe" v="veg" />
		<tag k="ssr:hovedgruppe" v="infrastruktur" />
		<tag k="ssr:stedsnr" v="1037412" />
		<tag k="ssr:type" v="adressenavn" />
	</node>
	<node lat="60.62831506567608" lon="6.4217447067181785" id="-77389">
		<tag k="name" v="Hestavangen" />
		<tag k="ssr:date" v="2019-12-27" />
		<tag k="ssr:gruppe" v="veg" />
		<tag k="ssr:hovedgruppe" v="infrastruktur" />
		<tag k="ssr:stedsnr" v="1037413" />
		<tag k="ssr:type" v="adressenavn" />
	</node>
	<node lat="60.62724282797309" lon="6.434598201632668" id="-77390">
		<tag k="name" v="Furevegen" />
		<tag k="ssr:date" v="2019-12-27" />
		<tag k="ssr:gruppe" v="veg" />
		<tag k="ssr:hovedgruppe" v="infrastruktur" />
		<tag k="ssr:stedsnr" v="1037415" />
		<tag k="ssr:type" v="adressenavn" />
	</node>
	<node lat="60.627158355461034" lon="6.395015728107638" id="-77391">
		<tag k="name" v="Geili" />
		<tag k="ssr:date" v="2019-12-27" />
		<tag k="ssr:gruppe" v="veg" />
		<tag k="ssr:hovedgruppe" v="infrastruktur" />
		<tag k="ssr:stedsnr" v="1037417" />
		<tag k="ssr:type" v="adressenavn" />
	</node>
	<node lat="60.62663053430909" lon="6.393528249232696" id="-77392">
		<tag k="name" v="Finnesvegen" />
		<tag k="ssr:date" v="2019-12-27" />
		<tag k="ssr:gruppe" v="veg" />
		<tag k="ssr:hovedgruppe" v="infrastruktur" />
		<tag k="ssr:stedsnr" v="1037418" />
		<tag k="ssr:type" v="adressenavn" />
	</node>
	<node lat="60.62702850272455" lon="6.43537955596594" id="-77393">
		<tag k="name" v="Flaten" />
		<tag k="ssr:date" v="2019-12-27" />
		<tag k="ssr:gruppe" v="veg" />
		<tag k="ssr:hovedgruppe" v="infrastruktur" />
		<tag k="ssr:stedsnr" v="1037421" />
		<tag k="ssr:type" v="adressenavn" />
	</node>
	<node lat="60.62894185877908" lon="6.4159992217058965" id="-77394">
		<tag k="name" v="Gullfjordungsvegen" />
		<tag k="ssr:date" v="2019-12-27" />
		<tag k="ssr:gruppe" v="veg" />
		<tag k="ssr:hovedgruppe" v="infrastruktur" />
		<tag k="ssr:stedsnr" v="1037424" />
		<tag k="ssr:type" v="adressenavn" />
	</node>
	<node lat="60.62711307014764" lon="6.423515098939248" id="-77395">
		<tag k="name" v="Gymnasvegen" />
		<tag k="ssr:date" v="2019-12-27" />
		<tag k="ssr:gruppe" v="veg" />
		<tag k="ssr:hovedgruppe" v="infrastruktur" />
		<tag k="ssr:stedsnr" v="1037426" />
		<tag k="ssr:type" v="adressenavn" />
	</node>
	<node lat="60.61564490336643" lon="6.420890445406505" id="-77396">
		<tag k="name" v="Gjernesvegen" />
		<tag k="ssr:date" v="2019-12-27" />
		<tag k="ssr:gruppe" v="veg" />
		<tag k="ssr:hovedgruppe" v="infrastruktur" />
		<tag k="ssr:stedsnr" v="1037427" />
		<tag k="ssr:type" v="adressenavn" />
	</node>
	<node lat="60.631083030667966" lon="6.409960905247674" id="-77397">
		<tag k="name" v="Groavegen" />
		<tag k="ssr:date" v="2019-12-27" />
		<tag k="ssr:gruppe" v="veg" />
		<tag k="ssr:hovedgruppe" v="infrastruktur" />
		<tag k="ssr:stedsnr" v="1037428" />
		<tag k="ssr:type" v="adressenavn" />
	</node>
	<node lat="60.632073984298124" lon="6.424627333059066" id="-77398">
		<tag k="name" v="Lundhaugen" />
		<tag k="ssr:date" v="2019-12-27" />
		<tag k="ssr:gruppe" v="veg" />
		<tag k="ssr:hovedgruppe" v="infrastruktur" />
		<tag k="ssr:stedsnr" v="1037429" />
		<tag k="ssr:type" v="adressenavn" />
	</node>
	<node lat="60.62766142756003" lon="6.419325175391897" id="-77399">
		<tag k="name" v="Miltzows gata" />
		<tag k="ssr:date" v="2019-12-27" />
		<tag k="ssr:gruppe" v="veg" />
		<tag k="ssr:hovedgruppe" v="infrastruktur" />
		<tag k="ssr:stedsnr" v="1037430" />
		<tag k="ssr:type" v="adressenavn" />
	</node>
	<node lat="60.63085350241963" lon="6.425713153750775" id="-77400">
		<tag k="name" v="Lundarvegen" />
		<tag k="ssr:date" v="2019-12-27" />
		<tag k="ssr:gruppe" v="veg" />
		<tag k="ssr:hovedgruppe" v="infrastruktur" />
		<tag k="ssr:stedsnr" v="1037431" />
		<tag k="ssr:type" v="adressenavn" />
	</node>
	<node lat="60.63390692095712" lon="6.429552587170637" id="-77401">
		<tag k="name" v="Lunden" />
		<tag k="ssr:date" v="2019-12-27" />
		<tag k="ssr:gruppe" v="veg" />
		<tag k="ssr:hovedgruppe" v="infrastruktur" />
		<tag k="ssr:stedsnr" v="1037432" />
		<tag k="ssr:type" v="adressenavn" />
	</node>
	<node lat="60.627038522468894" lon="6.436096564430021" id="-77402">
		<tag k="name" v="Nyresbaret" />
		<tag k="ssr:date" v="2019-12-27" />
		<tag k="ssr:gruppe" v="veg" />
		<tag k="ssr:hovedgruppe" v="infrastruktur" />
		<tag k="ssr:stedsnr" v="1037433" />
		<tag k="ssr:type" v="adressenavn" />
	</node>
	<node lat="60.62336937927496" lon="6.439170816949789" id="-77403">
		<tag k="name" v="Nyrestråi" />
		<tag k="ssr:date" v="2019-12-27" />
		<tag k="ssr:gruppe" v="veg" />
		<tag k="ssr:hovedgruppe" v="infrastruktur" />
		<tag k="ssr:stedsnr" v="1037434" />
		<tag k="ssr:type" v="adressenavn" />
	</node>
	<node lat="60.5261316948771" lon="6.721177744619766" id="-77404">
		<tag k="name" v="Røynstrandsvegen" />
		<tag k="ssr:date" v="2019-12-27" />
		<tag k="ssr:gruppe" v="veg" />
		<tag k="ssr:hovedgruppe" v="infrastruktur" />
		<tag k="ssr:stedsnr" v="1037508" />
		<tag k="ssr:type" v="adressenavn" />
	</node>
	<node lat="60.629304992137165" lon="6.417483239565792" id="-77405">
		<tag k="name" v="Stallgata" />
		<tag k="ssr:date" v="2019-12-27" />
		<tag k="ssr:gruppe" v="veg" />
		<tag k="ssr:hovedgruppe" v="infrastruktur" />
		<tag k="ssr:stedsnr" v="1037453" />
		<tag k="ssr:type" v="adressenavn" />
	</node>
	<node lat="60.63561649228339" lon="6.430400206365916" id="-77406">
		<tag k="name" v="Stegen" />
		<tag k="ssr:date" v="2019-12-27" />
		<tag k="ssr:gruppe" v="veg" />
		<tag k="ssr:hovedgruppe" v="infrastruktur" />
		<tag k="ssr:stedsnr" v="1037454" />
		<tag k="ssr:type" v="adressenavn" />
	</node>
	<node lat="60.62945592427576" lon="6.419007153374317" id="-77407">
		<tag k="name" v="Skulegata" />
		<tag k="ssr:date" v="2019-12-27" />
		<tag k="ssr:gruppe" v="veg" />
		<tag k="ssr:hovedgruppe" v="infrastruktur" />
		<tag k="ssr:stedsnr" v="1037455" />
		<tag k="ssr:type" v="adressenavn" />
	</node>
	<node lat="60.63038924214072" lon="6.409246138679313" id="-77408">
		<tag k="name" v="Smidjevegen" />
		<tag k="ssr:date" v="2019-12-27" />
		<tag k="ssr:gruppe" v="veg" />
		<tag k="ssr:hovedgruppe" v="infrastruktur" />
		<tag k="ssr:stedsnr" v="1037456" />
		<tag k="ssr:type" v="adressenavn" />
	</node>
	<node lat="60.62997040133714" lon="6.395460838686204" id="-77409">
		<tag k="name" v="Orrefloten" />
		<tag k="ssr:date" v="2019-12-27" />
		<tag k="ssr:gruppe" v="veg" />
		<tag k="ssr:hovedgruppe" v="infrastruktur" />
		<tag k="ssr:stedsnr" v="1037457" />
		<tag k="ssr:type" v="adressenavn" />
	</node>
	<node lat="60.63118184627962" lon="6.412035348236704" id="-77410">
		<tag k="name" v="Osavegen" />
		<tag k="ssr:date" v="2019-12-27" />
		<tag k="ssr:gruppe" v="veg" />
		<tag k="ssr:hovedgruppe" v="infrastruktur" />
		<tag k="ssr:stedsnr" v="1037458" />
		<tag k="ssr:type" v="adressenavn" />
	</node>
	<node lat="60.62375670778999" lon="6.436204795411622" id="-77411">
		<tag k="name" v="Nyresvegen" />
		<tag k="ssr:date" v="2019-12-27" />
		<tag k="ssr:gruppe" v="veg" />
		<tag k="ssr:hovedgruppe" v="infrastruktur" />
		<tag k="ssr:stedsnr" v="1037459" />
		<tag k="ssr:type" v="adressenavn" />
	</node>
	<node lat="60.62697817940364" lon="6.418112769890224" id="-77412">
		<tag k="name" v="Olavsvegen" />
		<tag k="ssr:date" v="2019-12-27" />
		<tag k="ssr:gruppe" v="veg" />
		<tag k="ssr:hovedgruppe" v="infrastruktur" />
		<tag k="ssr:stedsnr" v="1037461" />
		<tag k="ssr:type" v="adressenavn" />
	</node>
	<node lat="60.630150658116804" lon="6.419541871300611" id="-77413">
		<tag k="name" v="Rognsbakken" />
		<tag k="ssr:date" v="2019-12-27" />
		<tag k="ssr:gruppe" v="veg" />
		<tag k="ssr:hovedgruppe" v="infrastruktur" />
		<tag k="ssr:stedsnr" v="1037462" />
		<tag k="ssr:type" v="adressenavn" />
	</node>
	<node lat="60.597376216727696" lon="6.677172802258254" id="-77414">
		<tag k="name" v="Skårsstølen" />
		<tag k="ssr:date" v="2019-12-27" />
		<tag k="ssr:gruppe" v="veg" />
		<tag k="ssr:hovedgruppe" v="infrastruktur" />
		<tag k="ssr:stedsnr" v="1037463" />
		<tag k="ssr:type" v="adressenavn" />
	</node>
	<node lat="60.63358466918412" lon="6.427925851440884" id="-77415">
		<tag k="name" v="Rognshagen" />
		<tag k="ssr:date" v="2019-12-27" />
		<tag k="ssr:gruppe" v="veg" />
		<tag k="ssr:hovedgruppe" v="infrastruktur" />
		<tag k="ssr:stedsnr" v="1037464" />
		<tag k="ssr:type" v="adressenavn" />
	</node>
	<node lat="60.63008926271537" lon="6.3966293175759255" id="-77416">
		<tag k="name" v="Raugstadvegen" />
		<tag k="ssr:date" v="2019-12-27" />
		<tag k="ssr:gruppe" v="veg" />
		<tag k="ssr:hovedgruppe" v="infrastruktur" />
		<tag k="ssr:stedsnr" v="1037465" />
		<tag k="ssr:type" v="adressenavn" />
	</node>
	<node lat="60.47265317046823" lon="6.59495279726752" id="-77417">
		<tag k="name" v="Håstabbastølen" />
		<tag k="ssr:date" v="2019-12-27" />
		<tag k="ssr:gruppe" v="veg" />
		<tag k="ssr:hovedgruppe" v="infrastruktur" />
		<tag k="ssr:stedsnr" v="1037466" />
		<tag k="ssr:type" v="adressenavn" />
	</node>
	<node lat="60.64423533189424" lon="6.430638917276336" id="-77418">
		<tag k="name" v="Ringheimsvegen" />
		<tag k="ssr:date" v="2019-12-27" />
		<tag k="ssr:gruppe" v="veg" />
		<tag k="ssr:hovedgruppe" v="infrastruktur" />
		<tag k="ssr:stedsnr" v="1037467" />
		<tag k="ssr:type" v="adressenavn" />
	</node>
	<node lat="60.48066032573468" lon="6.58213765019483" id="-77419">
		<tag k="name" v="Kvanndalsstølen" />
		<tag k="ssr:date" v="2019-12-27" />
		<tag k="ssr:gruppe" v="veg" />
		<tag k="ssr:hovedgruppe" v="infrastruktur" />
		<tag k="ssr:stedsnr" v="1037468" />
		<tag k="ssr:type" v="adressenavn" />
	</node>
	<node lat="60.8379412241836" lon="6.45615281368692" id="-77420">
		<tag k="name" v="Mørkvesstølsvegen" />
		<tag k="ssr:date" v="2019-12-27" />
		<tag k="ssr:gruppe" v="veg" />
		<tag k="ssr:hovedgruppe" v="infrastruktur" />
		<tag k="ssr:stedsnr" v="1038344" />
		<tag k="ssr:type" v="adressenavn" />
	</node>
	<node lat="60.8675529769611" lon="6.479746930009665" id="-77421">
		<tag k="name" v="Vetlebotnen" />
		<tag k="ssr:date" v="2019-12-27" />
		<tag k="ssr:gruppe" v="veg" />
		<tag k="ssr:hovedgruppe" v="infrastruktur" />
		<tag k="ssr:stedsnr" v="1038345" />
		<tag k="ssr:type" v="adressenavn" />
	</node>
	<node lat="60.83426973281876" lon="6.448146908855533" id="-77422">
		<tag k="name" v="Skjervheimsstølsvegen" />
		<tag k="ssr:date" v="2019-12-27" />
		<tag k="ssr:gruppe" v="veg" />
		<tag k="ssr:hovedgruppe" v="infrastruktur" />
		<tag k="ssr:stedsnr" v="1038346" />
		<tag k="ssr:type" v="adressenavn" />
	</node>
	<node lat="60.77646256258616" lon="6.4281909187671475" id="-77423">
		<tag k="name" v="Skreiavegen" />
		<tag k="ssr:date" v="2019-12-27" />
		<tag k="ssr:gruppe" v="veg" />
		<tag k="ssr:hovedgruppe" v="infrastruktur" />
		<tag k="ssr:stedsnr" v="1038347" />
		<tag k="ssr:type" v="adressenavn" />
	</node>
	<node lat="60.76699154903415" lon="6.424488258306456" id="-77424">
		<tag k="name" v="Fjelistølsvegen" />
		<tag k="ssr:date" v="2019-12-27" />
		<tag k="ssr:gruppe" v="veg" />
		<tag k="ssr:hovedgruppe" v="infrastruktur" />
		<tag k="ssr:stedsnr" v="1038348" />
		<tag k="ssr:type" v="adressenavn" />
	</node>
	<node lat="60.86850716727194" lon="6.484942474427843" id="-77425">
		<tag k="name" v="Storebotnen" />
		<tag k="ssr:date" v="2019-12-27" />
		<tag k="ssr:gruppe" v="veg" />
		<tag k="ssr:hovedgruppe" v="infrastruktur" />
		<tag k="ssr:stedsnr" v="1038350" />
		<tag k="ssr:type" v="adressenavn" />
	</node>
	<node lat="60.78100900871202" lon="6.470520377774065" id="-77426">
		<tag k="name" v="Kasetvegen" />
		<tag k="ssr:date" v="2019-12-27" />
		<tag k="ssr:gruppe" v="veg" />
		<tag k="ssr:hovedgruppe" v="infrastruktur" />
		<tag k="ssr:stedsnr" v="1038351" />
		<tag k="ssr:type" v="adressenavn" />
	</node>
	<node lat="60.80611357975603" lon="6.31391220260559" id="-77427">
		<tag k="name" v="Kvitanosstølen" />
		<tag k="ssr:date" v="2019-12-27" />
		<tag k="ssr:gruppe" v="veg" />
		<tag k="ssr:hovedgruppe" v="infrastruktur" />
		<tag k="ssr:stedsnr" v="1038352" />
		<tag k="ssr:type" v="adressenavn" />
	</node>
	<node lat="60.82359661955682" lon="6.332690566385329" id="-77428">
		<tag k="name" v="Stranda-Torvedalen" />
		<tag k="ssr:date" v="2019-12-27" />
		<tag k="ssr:gruppe" v="veg" />
		<tag k="ssr:hovedgruppe" v="infrastruktur" />
		<tag k="ssr:stedsnr" v="1038353" />
		<tag k="ssr:type" v="adressenavn" />
	</node>
	<node lat="60.620100729854755" lon="6.559273254493377" id="-77429">
		<tag k="name" v="Opelandsstølen" />
		<tag k="ssr:date" v="2019-12-27" />
		<tag k="ssr:gruppe" v="veg" />
		<tag k="ssr:hovedgruppe" v="infrastruktur" />
		<tag k="ssr:stedsnr" v="1038354" />
		<tag k="ssr:type" v="adressenavn" />
	</node>
	<node lat="60.736808047081254" lon="6.364480265857495" id="-77430">
		<tag k="name" v="Tvinnestølen" />
		<tag k="ssr:date" v="2019-12-27" />
		<tag k="ssr:gruppe" v="veg" />
		<tag k="ssr:hovedgruppe" v="infrastruktur" />
		<tag k="ssr:stedsnr" v="1038355" />
		<tag k="ssr:type" v="adressenavn" />
	</node>
	<node lat="60.79668340512377" lon="6.456027303815468" id="-77431">
		<tag k="name" v="Sundvesstølsvegen" />
		<tag k="ssr:date" v="2019-12-27" />
		<tag k="ssr:gruppe" v="veg" />
		<tag k="ssr:hovedgruppe" v="infrastruktur" />
		<tag k="ssr:stedsnr" v="1038356" />
		<tag k="ssr:type" v="adressenavn" />
	</node>
	<node lat="60.83065615846094" lon="6.427920265777142" id="-77432">
		<tag k="name" v="Tveitastølen" />
		<tag k="ssr:date" v="2019-12-27" />
		<tag k="ssr:gruppe" v="veg" />
		<tag k="ssr:hovedgruppe" v="infrastruktur" />
		<tag k="ssr:stedsnr" v="1038357" />
		<tag k="ssr:type" v="adressenavn" />
	</node>
	<node lat="60.797622638278035" lon="6.4529681925066855" id="-77433">
		<tag k="name" v="Reppabotnen" />
		<tag k="ssr:date" v="2019-12-27" />
		<tag k="ssr:gruppe" v="veg" />
		<tag k="ssr:hovedgruppe" v="infrastruktur" />
		<tag k="ssr:stedsnr" v="1038358" />
		<tag k="ssr:type" v="adressenavn" />
	</node>
	<node lat="60.79915067227267" lon="6.56783173040617" id="-77434">
		<tag k="name" v="Raunelivegen" />
		<tag k="ssr:date" v="2019-12-27" />
		<tag k="ssr:gruppe" v="veg" />
		<tag k="ssr:hovedgruppe" v="infrastruktur" />
		<tag k="ssr:stedsnr" v="1038359" />
		<tag k="ssr:type" v="adressenavn" />
	</node>
	<node lat="60.8306987452695" lon="6.567304898839227" id="-77435">
		<tag k="name" v="Turtnastølsvegen" />
		<tag k="ssr:date" v="2019-12-27" />
		<tag k="ssr:gruppe" v="veg" />
		<tag k="ssr:hovedgruppe" v="infrastruktur" />
		<tag k="ssr:stedsnr" v="1038360" />
		<tag k="ssr:type" v="adressenavn" />
	</node>
	<node lat="60.793963480140306" lon="6.519051853049908" id="-77436">
		<tag k="name" v="Vinja-Øyasetvegen" />
		<tag k="ssr:date" v="2019-12-27" />
		<tag k="ssr:gruppe" v="veg" />
		<tag k="ssr:hovedgruppe" v="infrastruktur" />
		<tag k="ssr:stedsnr" v="1038361" />
		<tag k="ssr:type" v="adressenavn" />
	</node>
	<node lat="60.80823432004677" lon="6.5137251790247355" id="-77437">
		<tag k="name" v="Vinjahaugen" />
		<tag k="ssr:date" v="2019-12-27" />
		<tag k="ssr:gruppe" v="veg" />
		<tag k="ssr:hovedgruppe" v="infrastruktur" />
		<tag k="ssr:stedsnr" v="1038362" />
		<tag k="ssr:type" v="adressenavn" />
	</node>
	<node lat="60.780005388226094" lon="6.5752795369738575" id="-77438">
		<tag k="name" v="Tjørnagardsvegen" />
		<tag k="ssr:date" v="2019-12-27" />
		<tag k="ssr:gruppe" v="veg" />
		<tag k="ssr:hovedgruppe" v="infrastruktur" />
		<tag k="ssr:stedsnr" v="1038363" />
		<tag k="ssr:type" v="adressenavn" />
	</node>
	<node lat="60.853618338191865" lon="6.55858673109638" id="-77439">
		<tag k="name" v="Løns-Reppane" />
		<tag k="ssr:date" v="2019-12-27" />
		<tag k="ssr:gruppe" v="veg" />
		<tag k="ssr:hovedgruppe" v="infrastruktur" />
		<tag k="ssr:stedsnr" v="1038364" />
		<tag k="ssr:type" v="adressenavn" />
	</node>
	<node lat="60.8440398665445" lon="6.563610005492885" id="-77440">
		<tag k="name" v="Tjørnarhovden" />
		<tag k="ssr:date" v="2019-12-27" />
		<tag k="ssr:gruppe" v="veg" />
		<tag k="ssr:hovedgruppe" v="infrastruktur" />
		<tag k="ssr:stedsnr" v="1038365" />
		<tag k="ssr:type" v="adressenavn" />
	</node>
	<node lat="60.74512064306741" lon="6.420763739071981" id="-77441">
		<tag k="name" v="Hommedalstjørni" />
		<tag k="ssr:date" v="2019-12-27" />
		<tag k="ssr:gruppe" v="veg" />
		<tag k="ssr:hovedgruppe" v="infrastruktur" />
		<tag k="ssr:stedsnr" v="1038366" />
		<tag k="ssr:type" v="adressenavn" />
	</node>
	<node lat="60.77986753118581" lon="6.407540597936155" id="-77442">
		<tag k="name" v="Steinsetvegen" />
		<tag k="ssr:date" v="2019-12-27" />
		<tag k="ssr:gruppe" v="veg" />
		<tag k="ssr:hovedgruppe" v="infrastruktur" />
		<tag k="ssr:stedsnr" v="1038367" />
		<tag k="ssr:type" v="adressenavn" />
	</node>
	<node lat="60.82109918330669" lon="6.494199049528276" id="-77443">
		<tag k="name" v="Øvste Ulvundsstølen" />
		<tag k="ssr:date" v="2019-12-27" />
		<tag k="ssr:gruppe" v="veg" />
		<tag k="ssr:hovedgruppe" v="infrastruktur" />
		<tag k="ssr:stedsnr" v="1038368" />
		<tag k="ssr:type" v="adressenavn" />
	</node>
	<node lat="60.811674028757416" lon="6.489739567155295" id="-77444">
		<tag k="name" v="Nedste Ulvundsstølen" />
		<tag k="ssr:date" v="2019-12-27" />
		<tag k="ssr:gruppe" v="veg" />
		<tag k="ssr:hovedgruppe" v="infrastruktur" />
		<tag k="ssr:stedsnr" v="1038369" />
		<tag k="ssr:type" v="adressenavn" />
	</node>
	<node lat="60.85529230727792" lon="6.4905639449841575" id="-77445">
		<tag k="name" v="Torggata" />
		<tag k="ssr:date" v="2019-12-27" />
		<tag k="ssr:gruppe" v="veg" />
		<tag k="ssr:hovedgruppe" v="infrastruktur" />
		<tag k="ssr:stedsnr" v="1038370" />
		<tag k="ssr:type" v="adressenavn" />
	</node>
	<node lat="60.62458368603258" lon="6.391003270948798" id="-77446">
		<tag k="name" v="Peter Bondes veg" />
		<tag k="ssr:date" v="2019-12-27" />
		<tag k="ssr:gruppe" v="veg" />
		<tag k="ssr:hovedgruppe" v="infrastruktur" />
		<tag k="ssr:stedsnr" v="1038371" />
		<tag k="ssr:type" v="adressenavn" />
	</node>
	<node lat="60.908497891490114" lon="6.71214839295513" id="-77447">
		<tag k="name" v="Haugane" />
		<tag k="ssr:date" v="2019-12-27" />
		<tag k="ssr:gruppe" v="veg" />
		<tag k="ssr:hovedgruppe" v="infrastruktur" />
		<tag k="ssr:stedsnr" v="1038372" />
		<tag k="ssr:type" v="adressenavn" />
	</node>
	<node lat="60.50682793578094" lon="6.473263558567431" id="-77448">
		<tag k="name" v="Bordals-Løkjane" />
		<tag k="ssr:date" v="2019-12-27" />
		<tag k="ssr:gruppe" v="veg" />
		<tag k="ssr:hovedgruppe" v="infrastruktur" />
		<tag k="ssr:stedsnr" v="1038373" />
		<tag k="ssr:type" v="adressenavn" />
	</node>
	<node lat="60.64907690551497" lon="6.387493358914258" id="-77449">
		<tag k="name" v="Valbergstjørni" />
		<tag k="ssr:date" v="2019-12-27" />
		<tag k="ssr:gruppe" v="veg" />
		<tag k="ssr:hovedgruppe" v="infrastruktur" />
		<tag k="ssr:stedsnr" v="1038374" />
		<tag k="ssr:type" v="adressenavn" />
	</node>
	<node lat="60.62086266301607" lon="6.424463898457027" id="-77450">
		<tag k="name" v="Bergslitræet" />
		<tag k="ssr:date" v="2019-12-27" />
		<tag k="ssr:gruppe" v="veg" />
		<tag k="ssr:hovedgruppe" v="infrastruktur" />
		<tag k="ssr:stedsnr" v="1038375" />
		<tag k="ssr:type" v="adressenavn" />
	</node>
	<node lat="60.68204435927566" lon="6.741703322914388" id="-77451">
		<tag k="name" v="Reimesvegen" />
		<tag k="ssr:date" v="2019-12-27" />
		<tag k="ssr:gruppe" v="veg" />
		<tag k="ssr:hovedgruppe" v="infrastruktur" />
		<tag k="ssr:stedsnr" v="1038378" />
		<tag k="ssr:type" v="adressenavn" />
	</node>
	<node lat="60.6887500769746" lon="6.735997895863076" id="-77452">
		<tag k="name" v="Solnutane" />
		<tag k="ssr:date" v="2019-12-27" />
		<tag k="ssr:gruppe" v="veg" />
		<tag k="ssr:hovedgruppe" v="infrastruktur" />
		<tag k="ssr:stedsnr" v="1038379" />
		<tag k="ssr:type" v="adressenavn" />
	</node>
	<node lat="60.61243018828979" lon="6.474566627392237" id="-77453">
		<tag k="name" v="Merkvane" />
		<tag k="ssr:date" v="2019-12-27" />
		<tag k="ssr:gruppe" v="veg" />
		<tag k="ssr:hovedgruppe" v="infrastruktur" />
		<tag k="ssr:stedsnr" v="1038380" />
		<tag k="ssr:type" v="adressenavn" />
	</node>
	<node lat="60.8428978164588" lon="6.686670055272128" id="-77454">
		<tag k="name" v="Sivle" />
		<tag k="ssr:date" v="2019-12-27" />
		<tag k="ssr:gruppe" v="veg" />
		<tag k="ssr:hovedgruppe" v="infrastruktur" />
		<tag k="ssr:stedsnr" v="1038381" />
		<tag k="ssr:type" v="adressenavn" />
	</node>
	<node lat="60.642206774378316" lon="6.023791976035825" id="-77455">
		<tag k="name" v="Vetleviki" />
		<tag k="ssr:date" v="2019-12-27" />
		<tag k="ssr:gruppe" v="veg" />
		<tag k="ssr:hovedgruppe" v="infrastruktur" />
		<tag k="ssr:stedsnr" v="1039136" />
		<tag k="ssr:type" v="adressenavn" />
	</node>
	<node lat="60.64630249277411" lon="6.133906691014982" id="-77456">
		<tag k="name" v="Skorve" />
		<tag k="ssr:date" v="2019-12-27" />
		<tag k="ssr:gruppe" v="veg" />
		<tag k="ssr:hovedgruppe" v="infrastruktur" />
		<tag k="ssr:stedsnr" v="1039138" />
		<tag k="ssr:type" v="adressenavn" />
	</node>
	<node lat="60.643446515111435" lon="6.160226305355946" id="-77457">
		<tag k="name" v="Kvilekvål" />
		<tag k="ssr:date" v="2019-12-27" />
		<tag k="ssr:gruppe" v="veg" />
		<tag k="ssr:hovedgruppe" v="infrastruktur" />
		<tag k="ssr:stedsnr" v="1039140" />
		<tag k="ssr:type" v="adressenavn" />
	</node>
	<node lat="60.654115730064525" lon="6.420154250030378" id="-77458">
		<tag k="name" v="Bavallstunet" />
		<tag k="ssr:date" v="2019-12-27" />
		<tag k="ssr:gruppe" v="veg" />
		<tag k="ssr:hovedgruppe" v="infrastruktur" />
		<tag k="ssr:stedsnr" v="1039142" />
		<tag k="ssr:type" v="adressenavn" />
	</node>
	<node lat="60.659334543060034" lon="6.435278239148864" id="-77459">
		<tag k="name" v="Flatekvålsvegen" />
		<tag k="ssr:date" v="2019-12-27" />
		<tag k="ssr:gruppe" v="veg" />
		<tag k="ssr:hovedgruppe" v="infrastruktur" />
		<tag k="ssr:stedsnr" v="1039144" />
		<tag k="ssr:type" v="adressenavn" />
	</node>
	<node lat="60.735258970389474" lon="6.134444647395484" id="-77460">
		<tag k="name" v="Brekkhuslii" />
		<tag k="ssr:date" v="2019-12-27" />
		<tag k="ssr:gruppe" v="veg" />
		<tag k="ssr:hovedgruppe" v="infrastruktur" />
		<tag k="ssr:stedsnr" v="1039146" />
		<tag k="ssr:type" v="adressenavn" />
	</node>
	<node lat="60.735258970389474" lon="6.134444647395484" id="-77461">
		<tag k="name" v="Brekkhusfjellet" />
		<tag k="ssr:date" v="2019-12-27" />
		<tag k="ssr:gruppe" v="veg" />
		<tag k="ssr:hovedgruppe" v="infrastruktur" />
		<tag k="ssr:stedsnr" v="1039148" />
		<tag k="ssr:type" v="adressenavn" />
	</node>
	<node lat="60.659226802908904" lon="6.096980634352027" id="-77462">
		<tag k="name" v="Solviksåsen" />
		<tag k="ssr:date" v="2019-12-27" />
		<tag k="ssr:gruppe" v="veg" />
		<tag k="ssr:hovedgruppe" v="infrastruktur" />
		<tag k="ssr:stedsnr" v="1039150" />
		<tag k="ssr:type" v="adressenavn" />
	</node>
	<node lat="60.65070835446706" lon="6.111051854106106" id="-77463">
		<tag k="name" v="Harabåsen" />
		<tag k="ssr:date" v="2019-12-27" />
		<tag k="ssr:gruppe" v="veg" />
		<tag k="ssr:hovedgruppe" v="infrastruktur" />
		<tag k="ssr:stedsnr" v="1039152" />
		<tag k="ssr:type" v="adressenavn" />
	</node>
	<node lat="60.64599537488829" lon="6.111002490387603" id="-77464">
		<tag k="name" v="Mykkeltveitvegen" />
		<tag k="ssr:date" v="2019-12-27" />
		<tag k="ssr:gruppe" v="veg" />
		<tag k="ssr:hovedgruppe" v="infrastruktur" />
		<tag k="ssr:stedsnr" v="1039154" />
		<tag k="ssr:type" v="adressenavn" />
	</node>
	<node lat="60.64726487481499" lon="6.111965622501573" id="-77465">
		<tag k="name" v="Teigdalsvegen" />
		<tag k="ssr:date" v="2019-12-27" />
		<tag k="ssr:gruppe" v="veg" />
		<tag k="ssr:hovedgruppe" v="infrastruktur" />
		<tag k="ssr:stedsnr" v="1039156" />
		<tag k="ssr:type" v="adressenavn" />
	</node>
	<node lat="60.64716815251908" lon="6.119359748094399" id="-77466">
		<tag k="name" v="Bjørgåsvegen" />
		<tag k="ssr:date" v="2019-12-27" />
		<tag k="ssr:gruppe" v="veg" />
		<tag k="ssr:hovedgruppe" v="infrastruktur" />
		<tag k="ssr:stedsnr" v="1039158" />
		<tag k="ssr:type" v="adressenavn" />
	</node>
	<node lat="60.65287009323872" lon="6.134028797015937" id="-77467">
		<tag k="name" v="Horgavegen" />
		<tag k="ssr:date" v="2019-12-27" />
		<tag k="ssr:gruppe" v="veg" />
		<tag k="ssr:hovedgruppe" v="infrastruktur" />
		<tag k="ssr:stedsnr" v="1039161" />
		<tag k="ssr:type" v="adressenavn" />
	</node>
	<node lat="60.65046546424366" lon="6.111143415530333" id="-77468">
		<tag k="name" v="Styvesvegen" />
		<tag k="ssr:date" v="2019-12-27" />
		<tag k="ssr:gruppe" v="veg" />
		<tag k="ssr:hovedgruppe" v="infrastruktur" />
		<tag k="ssr:stedsnr" v="1039162" />
		<tag k="ssr:type" v="adressenavn" />
	</node>
	<node lat="60.64814684575093" lon="6.1158688441011115" id="-77469">
		<tag k="name" v="Knute Nelson-gata" />
		<tag k="ssr:date" v="2019-12-27" />
		<tag k="ssr:gruppe" v="veg" />
		<tag k="ssr:hovedgruppe" v="infrastruktur" />
		<tag k="ssr:stedsnr" v="1039164" />
		<tag k="ssr:type" v="adressenavn" />
	</node>
	<node lat="60.659311435050334" lon="6.435397583252222" id="-77470">
		<tag k="name" v="Fitjavegen" />
		<tag k="ssr:date" v="2019-12-27" />
		<tag k="ssr:gruppe" v="veg" />
		<tag k="ssr:hovedgruppe" v="infrastruktur" />
		<tag k="ssr:stedsnr" v="1039166" />
		<tag k="ssr:type" v="adressenavn" />
	</node>
	<node lat="60.658147985826886" lon="6.43285061841871" id="-77471">
		<tag k="name" v="Skulestadtunet" />
		<tag k="ssr:date" v="2019-12-27" />
		<tag k="ssr:gruppe" v="veg" />
		<tag k="ssr:hovedgruppe" v="infrastruktur" />
		<tag k="ssr:stedsnr" v="1039169" />
		<tag k="ssr:type" v="adressenavn" />
	</node>
	<node lat="60.62433948695596" lon="6.442243893200564" id="-77472">
		<tag k="name" v="Øvre Storehagen" />
		<tag k="ssr:date" v="2019-12-27" />
		<tag k="ssr:gruppe" v="veg" />
		<tag k="ssr:hovedgruppe" v="infrastruktur" />
		<tag k="ssr:stedsnr" v="1039172" />
		<tag k="ssr:type" v="adressenavn" />
	</node>
	<node lat="60.65874856897644" lon="6.426913085010994" id="-77473">
		<tag k="name" v="Femmælen" />
		<tag k="ssr:date" v="2019-12-27" />
		<tag k="ssr:gruppe" v="veg" />
		<tag k="ssr:hovedgruppe" v="infrastruktur" />
		<tag k="ssr:stedsnr" v="1039174" />
		<tag k="ssr:type" v="adressenavn" />
	</node>
	<node lat="60.658183604249956" lon="6.430169675935503" id="-77474">
		<tag k="name" v="Øvrebøvegen" />
		<tag k="ssr:date" v="2019-12-27" />
		<tag k="ssr:gruppe" v="veg" />
		<tag k="ssr:hovedgruppe" v="infrastruktur" />
		<tag k="ssr:stedsnr" v="1039176" />
		<tag k="ssr:type" v="adressenavn" />
	</node>
	<node lat="60.65867410421472" lon="6.430584538630244" id="-77475">
		<tag k="name" v="Skulestadhagane" />
		<tag k="ssr:date" v="2019-12-27" />
		<tag k="ssr:gruppe" v="veg" />
		<tag k="ssr:hovedgruppe" v="infrastruktur" />
		<tag k="ssr:stedsnr" v="1039178" />
		<tag k="ssr:type" v="adressenavn" />
	</node>
	<node lat="60.6557618951898" lon="6.4346534789010805" id="-77476">
		<tag k="name" v="Myraplassen" />
		<tag k="ssr:date" v="2019-12-27" />
		<tag k="ssr:gruppe" v="veg" />
		<tag k="ssr:hovedgruppe" v="infrastruktur" />
		<tag k="ssr:stedsnr" v="1039180" />
		<tag k="ssr:type" v="adressenavn" />
	</node>
	<node lat="60.65850355026878" lon="6.431155337564065" id="-77477">
		<tag k="name" v="Fitjahaugen" />
		<tag k="ssr:date" v="2019-12-27" />
		<tag k="ssr:gruppe" v="veg" />
		<tag k="ssr:hovedgruppe" v="infrastruktur" />
		<tag k="ssr:stedsnr" v="1039182" />
		<tag k="ssr:type" v="adressenavn" />
	</node>
	<node lat="60.62922259440242" lon="6.420105387084026" id="-77478">
		<tag k="name" v="Bonangergata" />
		<tag k="ssr:date" v="2019-12-27" />
		<tag k="ssr:gruppe" v="veg" />
		<tag k="ssr:hovedgruppe" v="infrastruktur" />
		<tag k="ssr:stedsnr" v="1039184" />
		<tag k="ssr:type" v="adressenavn" />
	</node>
	<node lat="60.585479729690256" lon="6.6152219265462655" id="-77479">
		<tag k="name" v="Bulkovegen" />
		<tag k="ssr:date" v="2019-12-27" />
		<tag k="ssr:gruppe" v="veg" />
		<tag k="ssr:hovedgruppe" v="infrastruktur" />
		<tag k="ssr:stedsnr" v="1039286" />
		<tag k="ssr:type" v="adressenavn" />
	</node>
	<node lat="60.62753418943778" lon="6.4268316104287555" id="-77480">
		<tag k="name" v="Vadet" />
		<tag k="ssr:date" v="2019-12-27" />
		<tag k="ssr:gruppe" v="veg" />
		<tag k="ssr:hovedgruppe" v="infrastruktur" />
		<tag k="ssr:stedsnr" v="1039288" />
		<tag k="ssr:type" v="adressenavn" />
	</node>
	<node lat="60.629164869262944" lon="6.423276854491033" id="-77481">
		<tag k="name" v="Vangsgata" />
		<tag k="ssr:date" v="2019-12-27" />
		<tag k="ssr:gruppe" v="veg" />
		<tag k="ssr:hovedgruppe" v="infrastruktur" />
		<tag k="ssr:stedsnr" v="1039289" />
		<tag k="ssr:type" v="adressenavn" />
	</node>
	<node lat="60.628380842602525" lon="6.422357670980127" id="-77482">
		<tag k="name" v="Uttrågata" />
		<tag k="ssr:date" v="2019-12-27" />
		<tag k="ssr:gruppe" v="veg" />
		<tag k="ssr:hovedgruppe" v="infrastruktur" />
		<tag k="ssr:stedsnr" v="1039290" />
		<tag k="ssr:type" v="adressenavn" />
	</node>
	<node lat="60.631572958868844" lon="6.428635568168521" id="-77483">
		<tag k="name" v="Utsikten" />
		<tag k="ssr:date" v="2019-12-27" />
		<tag k="ssr:gruppe" v="veg" />
		<tag k="ssr:hovedgruppe" v="infrastruktur" />
		<tag k="ssr:stedsnr" v="1039291" />
		<tag k="ssr:type" v="adressenavn" />
	</node>
	<node lat="60.63621842389714" lon="6.422142189961334" id="-77484">
		<tag k="name" v="Hagahaugvegen" />
		<tag k="ssr:date" v="2019-12-27" />
		<tag k="ssr:gruppe" v="veg" />
		<tag k="ssr:hovedgruppe" v="infrastruktur" />
		<tag k="ssr:stedsnr" v="1039292" />
		<tag k="ssr:type" v="adressenavn" />
	</node>
	<node lat="60.64089255364153" lon="6.429414517406563" id="-77485">
		<tag k="name" v="Mølstervegen" />
		<tag k="ssr:date" v="2019-12-27" />
		<tag k="ssr:gruppe" v="veg" />
		<tag k="ssr:hovedgruppe" v="infrastruktur" />
		<tag k="ssr:stedsnr" v="1039293" />
		<tag k="ssr:type" v="adressenavn" />
	</node>
	<node lat="60.62528475310424" lon="6.392983823084489" id="-77486">
		<tag k="name" v="Evangervegen" />
		<tag k="ssr:date" v="2019-12-27" />
		<tag k="ssr:gruppe" v="veg" />
		<tag k="ssr:hovedgruppe" v="infrastruktur" />
		<tag k="ssr:stedsnr" v="1039294" />
		<tag k="ssr:type" v="adressenavn" />
	</node>
	<node lat="60.632243166238034" lon="6.422883221939549" id="-77487">
		<tag k="name" v="Sjukehusvegen" />
		<tag k="ssr:date" v="2019-12-27" />
		<tag k="ssr:gruppe" v="veg" />
		<tag k="ssr:hovedgruppe" v="infrastruktur" />
		<tag k="ssr:stedsnr" v="1039295" />
		<tag k="ssr:type" v="adressenavn" />
	</node>
	<node lat="60.63193640886534" lon="6.426539490851688" id="-77488">
		<tag k="name" v="Sverresbakken" />
		<tag k="ssr:date" v="2019-12-27" />
		<tag k="ssr:gruppe" v="veg" />
		<tag k="ssr:hovedgruppe" v="infrastruktur" />
		<tag k="ssr:stedsnr" v="1039296" />
		<tag k="ssr:type" v="adressenavn" />
	</node>
	<node lat="60.62874991165665" lon="6.423895639154983" id="-77489">
		<tag k="name" v="Sverresplassen" />
		<tag k="ssr:date" v="2019-12-27" />
		<tag k="ssr:gruppe" v="veg" />
		<tag k="ssr:hovedgruppe" v="infrastruktur" />
		<tag k="ssr:stedsnr" v="1039297" />
		<tag k="ssr:type" v="adressenavn" />
	</node>
	<node lat="60.63704179428984" lon="6.43828779523889" id="-77490">
		<tag k="name" v="Strandavegen" />
		<tag k="ssr:date" v="2019-12-27" />
		<tag k="ssr:gruppe" v="veg" />
		<tag k="ssr:hovedgruppe" v="infrastruktur" />
		<tag k="ssr:stedsnr" v="1039298" />
		<tag k="ssr:type" v="adressenavn" />
	</node>
	<node lat="60.630046856467004" lon="6.419485454189172" id="-77491">
		<tag k="name" v="Strengjarhaugen" />
		<tag k="ssr:date" v="2019-12-27" />
		<tag k="ssr:gruppe" v="veg" />
		<tag k="ssr:hovedgruppe" v="infrastruktur" />
		<tag k="ssr:stedsnr" v="1039299" />
		<tag k="ssr:type" v="adressenavn" />
	</node>
	<node lat="60.62608589231207" lon="6.433695721305049" id="-77492">
		<tag k="name" v="Tverrvegen" />
		<tag k="ssr:date" v="2019-12-27" />
		<tag k="ssr:gruppe" v="veg" />
		<tag k="ssr:hovedgruppe" v="infrastruktur" />
		<tag k="ssr:stedsnr" v="1039300" />
		<tag k="ssr:type" v="adressenavn" />
	</node>
	<node lat="60.6303819965167" lon="6.415799070935889" id="-77493">
		<tag k="name" v="Ullestadvegen" />
		<tag k="ssr:date" v="2019-12-27" />
		<tag k="ssr:gruppe" v="veg" />
		<tag k="ssr:hovedgruppe" v="infrastruktur" />
		<tag k="ssr:stedsnr" v="1039301" />
		<tag k="ssr:type" v="adressenavn" />
	</node>
	<node lat="60.62723450951487" lon="6.43204393451572" id="-77494">
		<tag k="name" v="Svingen" />
		<tag k="ssr:date" v="2019-12-27" />
		<tag k="ssr:gruppe" v="veg" />
		<tag k="ssr:hovedgruppe" v="infrastruktur" />
		<tag k="ssr:stedsnr" v="1039302" />
		<tag k="ssr:type" v="adressenavn" />
	</node>
	<node lat="60.631226703421824" lon="6.422775737512952" id="-77495">
		<tag k="name" v="Teigabrekko" />
		<tag k="ssr:date" v="2019-12-27" />
		<tag k="ssr:gruppe" v="veg" />
		<tag k="ssr:hovedgruppe" v="infrastruktur" />
		<tag k="ssr:stedsnr" v="1039303" />
		<tag k="ssr:type" v="adressenavn" />
	</node>
	<node lat="60.62383066941222" lon="6.432623929578776" id="-77496">
		<tag k="name" v="Groadalen" />
		<tag k="ssr:date" v="2019-12-27" />
		<tag k="ssr:gruppe" v="veg" />
		<tag k="ssr:hovedgruppe" v="infrastruktur" />
		<tag k="ssr:stedsnr" v="1039304" />
		<tag k="ssr:type" v="adressenavn" />
	</node>
	<node lat="60.752833361031804" lon="6.500703513274604" id="-77497">
		<tag k="name" v="Taulen" />
		<tag k="ssr:date" v="2019-12-27" />
		<tag k="ssr:gruppe" v="veg" />
		<tag k="ssr:hovedgruppe" v="infrastruktur" />
		<tag k="ssr:stedsnr" v="1038980" />
		<tag k="ssr:type" v="adressenavn" />
	</node>
	<node lat="60.75534122742044" lon="6.498492744870196" id="-77498">
		<tag k="name" v="Kvarmavegen" />
		<tag k="ssr:date" v="2019-12-27" />
		<tag k="ssr:gruppe" v="veg" />
		<tag k="ssr:hovedgruppe" v="infrastruktur" />
		<tag k="ssr:stedsnr" v="1038982" />
		<tag k="ssr:type" v="adressenavn" />
	</node>
	<node lat="60.73069036592874" lon="6.490453854981757" id="-77499">
		<tag k="name" v="Gjøsteinsvegen" />
		<tag k="ssr:date" v="2019-12-27" />
		<tag k="ssr:gruppe" v="veg" />
		<tag k="ssr:hovedgruppe" v="infrastruktur" />
		<tag k="ssr:stedsnr" v="1038984" />
		<tag k="ssr:type" v="adressenavn" />
	</node>
	<node lat="60.72764806270853" lon="6.490332882427528" id="-77500">
		<tag k="name" v="Afdalsvegen" />
		<tag k="ssr:date" v="2019-12-27" />
		<tag k="ssr:gruppe" v="veg" />
		<tag k="ssr:hovedgruppe" v="infrastruktur" />
		<tag k="ssr:stedsnr" v="1038986" />
		<tag k="ssr:type" v="adressenavn" />
	</node>
	<node lat="60.78278230063938" lon="6.477160561107402" id="-77501">
		<tag k="name" v="Gilbakkavegen" />
		<tag k="ssr:date" v="2019-12-27" />
		<tag k="ssr:gruppe" v="veg" />
		<tag k="ssr:hovedgruppe" v="infrastruktur" />
		<tag k="ssr:stedsnr" v="1038988" />
		<tag k="ssr:type" v="adressenavn" />
	</node>
	<node lat="60.77995159330007" lon="6.488975120864493" id="-77502">
		<tag k="name" v="Kroken" />
		<tag k="ssr:date" v="2019-12-27" />
		<tag k="ssr:gruppe" v="veg" />
		<tag k="ssr:hovedgruppe" v="infrastruktur" />
		<tag k="ssr:stedsnr" v="1038990" />
		<tag k="ssr:type" v="adressenavn" />
	</node>
	<node lat="60.74782326523577" lon="6.4487855778966905" id="-77503">
		<tag k="name" v="Løkjavegen" />
		<tag k="ssr:date" v="2019-12-27" />
		<tag k="ssr:gruppe" v="veg" />
		<tag k="ssr:hovedgruppe" v="infrastruktur" />
		<tag k="ssr:stedsnr" v="1038992" />
		<tag k="ssr:type" v="adressenavn" />
	</node>
	<node lat="60.76452829449807" lon="6.467249816726591" id="-77504">
		<tag k="name" v="Holbygdvegen" />
		<tag k="ssr:date" v="2019-12-27" />
		<tag k="ssr:gruppe" v="veg" />
		<tag k="ssr:hovedgruppe" v="infrastruktur" />
		<tag k="ssr:stedsnr" v="1038994" />
		<tag k="ssr:type" v="adressenavn" />
	</node>
	<node lat="60.67439201695389" lon="6.452656876374334" id="-77505">
		<tag k="name" v="Nordrekvålsvegen" />
		<tag k="ssr:date" v="2019-12-27" />
		<tag k="ssr:gruppe" v="veg" />
		<tag k="ssr:hovedgruppe" v="infrastruktur" />
		<tag k="ssr:stedsnr" v="1038996" />
		<tag k="ssr:type" v="adressenavn" />
	</node>
	<node lat="60.68054878261094" lon="6.454805954784727" id="-77506">
		<tag k="name" v="Sauesvegen" />
		<tag k="ssr:date" v="2019-12-27" />
		<tag k="ssr:gruppe" v="veg" />
		<tag k="ssr:hovedgruppe" v="infrastruktur" />
		<tag k="ssr:stedsnr" v="1038998" />
		<tag k="ssr:type" v="adressenavn" />
	</node>
	<node lat="60.66274257998158" lon="6.436868192585814" id="-77507">
		<tag k="name" v="Nedre Flatekvål" />
		<tag k="ssr:date" v="2019-12-27" />
		<tag k="ssr:gruppe" v="veg" />
		<tag k="ssr:hovedgruppe" v="infrastruktur" />
		<tag k="ssr:stedsnr" v="1039000" />
		<tag k="ssr:type" v="adressenavn" />
	</node>
	<node lat="60.670890442977374" lon="6.4503129687020175" id="-77508">
		<tag k="name" v="Ænsmoen" />
		<tag k="ssr:date" v="2019-12-27" />
		<tag k="ssr:gruppe" v="veg" />
		<tag k="ssr:hovedgruppe" v="infrastruktur" />
		<tag k="ssr:stedsnr" v="1039002" />
		<tag k="ssr:type" v="adressenavn" />
	</node>
	<node lat="60.72439315833892" lon="6.491403949440285" id="-77509">
		<tag k="name" v="Tvinnevegen" />
		<tag k="ssr:date" v="2019-12-27" />
		<tag k="ssr:gruppe" v="veg" />
		<tag k="ssr:hovedgruppe" v="infrastruktur" />
		<tag k="ssr:stedsnr" v="1039004" />
		<tag k="ssr:type" v="adressenavn" />
	</node>
	<node lat="60.72596947607866" lon="6.490264113798841" id="-77510">
		<tag k="name" v="Vossestrandvegen" />
		<tag k="ssr:date" v="2019-12-27" />
		<tag k="ssr:gruppe" v="veg" />
		<tag k="ssr:hovedgruppe" v="infrastruktur" />
		<tag k="ssr:stedsnr" v="1039007" />
		<tag k="ssr:type" v="adressenavn" />
	</node>
	<node lat="60.687732541275324" lon="6.459478786638898" id="-77511">
		<tag k="name" v="Blikbergsvegen" />
		<tag k="ssr:date" v="2019-12-27" />
		<tag k="ssr:gruppe" v="veg" />
		<tag k="ssr:hovedgruppe" v="infrastruktur" />
		<tag k="ssr:stedsnr" v="1039009" />
		<tag k="ssr:type" v="adressenavn" />
	</node>
	<node lat="60.70491364941547" lon="6.479987633299658" id="-77512">
		<tag k="name" v="Høylandsvegen" />
		<tag k="ssr:date" v="2019-12-27" />
		<tag k="ssr:gruppe" v="veg" />
		<tag k="ssr:hovedgruppe" v="infrastruktur" />
		<tag k="ssr:stedsnr" v="1039012" />
		<tag k="ssr:type" v="adressenavn" />
	</node>
	<node lat="60.83497271315522" lon="6.459945855375155" id="-77513">
		<tag k="name" v="Kalvhagen" />
		<tag k="ssr:date" v="2019-12-27" />
		<tag k="ssr:gruppe" v="veg" />
		<tag k="ssr:hovedgruppe" v="infrastruktur" />
		<tag k="ssr:stedsnr" v="1039014" />
		<tag k="ssr:type" v="adressenavn" />
	</node>
	<node lat="60.834620156599655" lon="6.4588286663949" id="-77514">
		<tag k="name" v="Huldahaugen" />
		<tag k="ssr:date" v="2019-12-27" />
		<tag k="ssr:gruppe" v="veg" />
		<tag k="ssr:hovedgruppe" v="infrastruktur" />
		<tag k="ssr:stedsnr" v="1039015" />
		<tag k="ssr:type" v="adressenavn" />
	</node>
	<node lat="60.83286447524666" lon="6.44295943054151" id="-77515">
		<tag k="name" v="Skjervheimsvegen" />
		<tag k="ssr:date" v="2019-12-27" />
		<tag k="ssr:gruppe" v="veg" />
		<tag k="ssr:hovedgruppe" v="infrastruktur" />
		<tag k="ssr:stedsnr" v="1039017" />
		<tag k="ssr:type" v="adressenavn" />
	</node>
	<node lat="60.83412146988429" lon="6.458999655392832" id="-77516">
		<tag k="name" v="Kvernhusvegen" />
		<tag k="ssr:date" v="2019-12-27" />
		<tag k="ssr:gruppe" v="veg" />
		<tag k="ssr:hovedgruppe" v="infrastruktur" />
		<tag k="ssr:stedsnr" v="1039019" />
		<tag k="ssr:type" v="adressenavn" />
	</node>
	<node lat="60.85777046674111" lon="6.499534257943412" id="-77517">
		<tag k="name" v="Årmotsvegen" />
		<tag k="ssr:date" v="2019-12-27" />
		<tag k="ssr:gruppe" v="veg" />
		<tag k="ssr:hovedgruppe" v="infrastruktur" />
		<tag k="ssr:stedsnr" v="1039020" />
		<tag k="ssr:type" v="adressenavn" />
	</node>
	<node lat="60.84507982214042" lon="6.472376046640587" id="-77518">
		<tag k="name" v="Helgelandsvegen" />
		<tag k="ssr:date" v="2019-12-27" />
		<tag k="ssr:gruppe" v="veg" />
		<tag k="ssr:hovedgruppe" v="infrastruktur" />
		<tag k="ssr:stedsnr" v="1039021" />
		<tag k="ssr:type" v="adressenavn" />
	</node>
	<node lat="60.853479977264584" lon="6.480958359714088" id="-77519">
		<tag k="name" v="Bygardslii" />
		<tag k="ssr:date" v="2019-12-27" />
		<tag k="ssr:gruppe" v="veg" />
		<tag k="ssr:hovedgruppe" v="infrastruktur" />
		<tag k="ssr:stedsnr" v="1039023" />
		<tag k="ssr:type" v="adressenavn" />
	</node>
	<node lat="60.7923274096393" lon="6.508404173678793" id="-77520">
		<tag k="name" v="Myrkdalsvegen" />
		<tag k="ssr:date" v="2019-12-27" />
		<tag k="ssr:gruppe" v="veg" />
		<tag k="ssr:hovedgruppe" v="infrastruktur" />
		<tag k="ssr:stedsnr" v="1039024" />
		<tag k="ssr:type" v="adressenavn" />
	</node>
	<node lat="60.82329724188517" lon="6.464720373263194" id="-77521">
		<tag k="name" v="Nesheimshagen" />
		<tag k="ssr:date" v="2019-12-27" />
		<tag k="ssr:gruppe" v="veg" />
		<tag k="ssr:hovedgruppe" v="infrastruktur" />
		<tag k="ssr:stedsnr" v="1039026" />
		<tag k="ssr:type" v="adressenavn" />
	</node>
	<node lat="60.78438199876868" lon="6.4793041512263105" id="-77522">
		<tag k="name" v="Engjalandsvegen" />
		<tag k="ssr:date" v="2019-12-27" />
		<tag k="ssr:gruppe" v="veg" />
		<tag k="ssr:hovedgruppe" v="infrastruktur" />
		<tag k="ssr:stedsnr" v="1039028" />
		<tag k="ssr:type" v="adressenavn" />
	</node>
	<node lat="60.78507919957425" lon="6.485959451385275" id="-77523">
		<tag k="name" v="Sundvesvegen" />
		<tag k="ssr:date" v="2019-12-27" />
		<tag k="ssr:gruppe" v="veg" />
		<tag k="ssr:hovedgruppe" v="infrastruktur" />
		<tag k="ssr:stedsnr" v="1039030" />
		<tag k="ssr:type" v="adressenavn" />
	</node>
	<node lat="60.82977406624937" lon="6.461970439250253" id="-77524">
		<tag k="name" v="Flisramsvegen" />
		<tag k="ssr:date" v="2019-12-27" />
		<tag k="ssr:gruppe" v="veg" />
		<tag k="ssr:hovedgruppe" v="infrastruktur" />
		<tag k="ssr:stedsnr" v="1039032" />
		<tag k="ssr:type" v="adressenavn" />
	</node>
	<node lat="60.834320532771336" lon="6.4598705406302095" id="-77525">
		<tag k="name" v="Tveitavegen" />
		<tag k="ssr:date" v="2019-12-27" />
		<tag k="ssr:gruppe" v="veg" />
		<tag k="ssr:hovedgruppe" v="infrastruktur" />
		<tag k="ssr:stedsnr" v="1039034" />
		<tag k="ssr:type" v="adressenavn" />
	</node>
	<node lat="60.80770790607355" lon="6.666882885686523" id="-77526">
		<tag k="name" v="Lundahovden" />
		<tag k="ssr:date" v="2019-12-27" />
		<tag k="ssr:gruppe" v="veg" />
		<tag k="ssr:hovedgruppe" v="infrastruktur" />
		<tag k="ssr:stedsnr" v="1039086" />
		<tag k="ssr:type" v="adressenavn" />
	</node>
	<node lat="60.8116088363559" lon="6.680561191094095" id="-77527">
		<tag k="name" v="Slænsvegen" />
		<tag k="ssr:date" v="2019-12-27" />
		<tag k="ssr:gruppe" v="veg" />
		<tag k="ssr:hovedgruppe" v="infrastruktur" />
		<tag k="ssr:stedsnr" v="1039088" />
		<tag k="ssr:type" v="adressenavn" />
	</node>
	<node lat="60.803256733129196" lon="6.644275238738459" id="-77528">
		<tag k="name" v="Haugsvikvegen" />
		<tag k="ssr:date" v="2019-12-27" />
		<tag k="ssr:gruppe" v="veg" />
		<tag k="ssr:hovedgruppe" v="infrastruktur" />
		<tag k="ssr:stedsnr" v="1039090" />
		<tag k="ssr:type" v="adressenavn" />
	</node>
	<node lat="60.805735794059736" lon="6.658236138147794" id="-77529">
		<tag k="name" v="Giljarhusvegen" />
		<tag k="ssr:date" v="2019-12-27" />
		<tag k="ssr:gruppe" v="veg" />
		<tag k="ssr:hovedgruppe" v="infrastruktur" />
		<tag k="ssr:stedsnr" v="1039092" />
		<tag k="ssr:type" v="adressenavn" />
	</node>
	<node lat="60.82568664392036" lon="6.687587265937132" id="-77530">
		<tag k="name" v="Stalheimsvegen" />
		<tag k="ssr:date" v="2019-12-27" />
		<tag k="ssr:gruppe" v="veg" />
		<tag k="ssr:hovedgruppe" v="infrastruktur" />
		<tag k="ssr:stedsnr" v="1039094" />
		<tag k="ssr:type" v="adressenavn" />
	</node>
	<node lat="60.83154120906864" lon="6.678178969841777" id="-77531">
		<tag k="name" v="Brattlandsvegen" />
		<tag k="ssr:date" v="2019-12-27" />
		<tag k="ssr:gruppe" v="veg" />
		<tag k="ssr:hovedgruppe" v="infrastruktur" />
		<tag k="ssr:stedsnr" v="1039096" />
		<tag k="ssr:type" v="adressenavn" />
	</node>
	<node lat="60.794234787461306" lon="6.6841130557673925" id="-77532">
		<tag k="name" v="Brandsetvegen" />
		<tag k="ssr:date" v="2019-12-27" />
		<tag k="ssr:gruppe" v="veg" />
		<tag k="ssr:hovedgruppe" v="infrastruktur" />
		<tag k="ssr:stedsnr" v="1039098" />
		<tag k="ssr:type" v="adressenavn" />
	</node>
	<node lat="60.82331553907387" lon="6.688176043652008" id="-77533">
		<tag k="name" v="Fyresvegen" />
		<tag k="ssr:date" v="2019-12-27" />
		<tag k="ssr:gruppe" v="veg" />
		<tag k="ssr:hovedgruppe" v="infrastruktur" />
		<tag k="ssr:stedsnr" v="1039100" />
		<tag k="ssr:type" v="adressenavn" />
	</node>
	<node lat="60.64642577861508" lon="5.991365489076172" id="-77534">
		<tag k="name" v="Horveidvegen" />
		<tag k="ssr:date" v="2019-12-27" />
		<tag k="ssr:gruppe" v="veg" />
		<tag k="ssr:hovedgruppe" v="infrastruktur" />
		<tag k="ssr:stedsnr" v="1039102" />
		<tag k="ssr:type" v="adressenavn" />
	</node>
	<node lat="60.64888222771452" lon="5.99394239749619" id="-77535">
		<tag k="name" v="Geilavegen" />
		<tag k="ssr:date" v="2019-12-27" />
		<tag k="ssr:gruppe" v="veg" />
		<tag k="ssr:hovedgruppe" v="infrastruktur" />
		<tag k="ssr:stedsnr" v="1039104" />
		<tag k="ssr:type" v="adressenavn" />
	</node>
	<node lat="60.63891280111943" lon="5.95819168697876" id="-77536">
		<tag k="name" v="Øyravegen" />
		<tag k="ssr:date" v="2019-12-27" />
		<tag k="ssr:gruppe" v="veg" />
		<tag k="ssr:hovedgruppe" v="infrastruktur" />
		<tag k="ssr:stedsnr" v="1039105" />
		<tag k="ssr:type" v="adressenavn" />
	</node>
	<node lat="60.637717889442335" lon="5.961117814003321" id="-77537">
		<tag k="name" v="Bolstadstrandi" />
		<tag k="ssr:date" v="2019-12-27" />
		<tag k="ssr:gruppe" v="veg" />
		<tag k="ssr:hovedgruppe" v="infrastruktur" />
		<tag k="ssr:stedsnr" v="1039107" />
		<tag k="ssr:type" v="adressenavn" />
	</node>
	<node lat="60.64713404865902" lon="6.111000480795955" id="-77538">
		<tag k="name" v="Hernesvegen" />
		<tag k="ssr:date" v="2019-12-27" />
		<tag k="ssr:gruppe" v="veg" />
		<tag k="ssr:hovedgruppe" v="infrastruktur" />
		<tag k="ssr:stedsnr" v="1039109" />
		<tag k="ssr:type" v="adressenavn" />
	</node>
	<node lat="60.64668956195211" lon="6.107224958777845" id="-77539">
		<tag k="name" v="Velesvegen" />
		<tag k="ssr:date" v="2019-12-27" />
		<tag k="ssr:gruppe" v="veg" />
		<tag k="ssr:hovedgruppe" v="infrastruktur" />
		<tag k="ssr:stedsnr" v="1039112" />
		<tag k="ssr:type" v="adressenavn" />
	</node>
	<node lat="60.646177429892745" lon="6.000269680376527" id="-77540">
		<tag k="name" v="Vassendavegen" />
		<tag k="ssr:date" v="2019-12-27" />
		<tag k="ssr:gruppe" v="veg" />
		<tag k="ssr:hovedgruppe" v="infrastruktur" />
		<tag k="ssr:stedsnr" v="1039115" />
		<tag k="ssr:type" v="adressenavn" />
	</node>
	<node lat="60.645215980262094" lon="6.0154355115785245" id="-77541">
		<tag k="name" v="Jørnevikvegen" />
		<tag k="ssr:date" v="2019-12-27" />
		<tag k="ssr:gruppe" v="veg" />
		<tag k="ssr:hovedgruppe" v="infrastruktur" />
		<tag k="ssr:stedsnr" v="1039117" />
		<tag k="ssr:type" v="adressenavn" />
	</node>
	<node lat="60.64996670303579" lon="5.948325118431771" id="-77542">
		<tag k="name" v="Tyssevegen" />
		<tag k="ssr:date" v="2019-12-27" />
		<tag k="ssr:gruppe" v="veg" />
		<tag k="ssr:hovedgruppe" v="infrastruktur" />
		<tag k="ssr:stedsnr" v="1039119" />
		<tag k="ssr:type" v="adressenavn" />
	</node>
	<node lat="60.64331290720796" lon="5.967961895566198" id="-77543">
		<tag k="name" v="Øvstedalsvegen" />
		<tag k="ssr:date" v="2019-12-27" />
		<tag k="ssr:gruppe" v="veg" />
		<tag k="ssr:hovedgruppe" v="infrastruktur" />
		<tag k="ssr:stedsnr" v="1039121" />
		<tag k="ssr:type" v="adressenavn" />
	</node>
	<node lat="60.63159624459955" lon="6.431789254594604" id="-77544">
		<tag k="name" v="Magasinvegen" />
		<tag k="ssr:date" v="2019-12-27" />
		<tag k="ssr:gruppe" v="veg" />
		<tag k="ssr:hovedgruppe" v="infrastruktur" />
		<tag k="ssr:stedsnr" v="1039123" />
		<tag k="ssr:type" v="adressenavn" />
	</node>
	<node lat="60.614304166233985" lon="5.975593605104787" id="-77545">
		<tag k="name" v="Rasdalsvegen" />
		<tag k="ssr:date" v="2019-12-27" />
		<tag k="ssr:gruppe" v="veg" />
		<tag k="ssr:hovedgruppe" v="infrastruktur" />
		<tag k="ssr:stedsnr" v="1039125" />
		<tag k="ssr:type" v="adressenavn" />
	</node>
	<node lat="60.64666357059547" lon="6.004568489956319" id="-77546">
		<tag k="name" v="Rongavegen" />
		<tag k="ssr:date" v="2019-12-27" />
		<tag k="ssr:gruppe" v="veg" />
		<tag k="ssr:hovedgruppe" v="infrastruktur" />
		<tag k="ssr:stedsnr" v="1039127" />
		<tag k="ssr:type" v="adressenavn" />
	</node>
	<node lat="60.638059231304084" lon="5.958295286562494" id="-77547">
		<tag k="name" v="Naustvegen" />
		<tag k="ssr:date" v="2019-12-27" />
		<tag k="ssr:gruppe" v="veg" />
		<tag k="ssr:hovedgruppe" v="infrastruktur" />
		<tag k="ssr:stedsnr" v="1039129" />
		<tag k="ssr:type" v="adressenavn" />
	</node>
	<node lat="60.64562533020567" lon="5.9658310409251785" id="-77548">
		<tag k="name" v="Horvviki" />
		<tag k="ssr:date" v="2019-12-27" />
		<tag k="ssr:gruppe" v="veg" />
		<tag k="ssr:hovedgruppe" v="infrastruktur" />
		<tag k="ssr:stedsnr" v="1039131" />
		<tag k="ssr:type" v="adressenavn" />
	</node>
	<node lat="60.64458028684522" lon="5.967430541512574" id="-77549">
		<tag k="name" v="Kupedalen" />
		<tag k="ssr:date" v="2019-12-27" />
		<tag k="ssr:gruppe" v="veg" />
		<tag k="ssr:hovedgruppe" v="infrastruktur" />
		<tag k="ssr:stedsnr" v="1039132" />
		<tag k="ssr:type" v="adressenavn" />
	</node>
	<node lat="60.81735425199174" lon="6.469617970063442" id="-77550">
		<tag k="name" v="Ulvundsvegen" />
		<tag k="ssr:date" v="2019-12-27" />
		<tag k="ssr:gruppe" v="veg" />
		<tag k="ssr:hovedgruppe" v="infrastruktur" />
		<tag k="ssr:stedsnr" v="1039036" />
		<tag k="ssr:type" v="adressenavn" />
	</node>
	<node lat="60.813358630453955" lon="6.474740473700781" id="-77551">
		<tag k="name" v="Nesheimsbrekkene" />
		<tag k="old_name" v="Nesheimsvegen" />
		<tag k="ssr:date" v="2019-12-27" />
		<tag k="ssr:gruppe" v="veg" />
		<tag k="ssr:hovedgruppe" v="infrastruktur" />
		<tag k="ssr:stedsnr" v="1039038" />
		<tag k="ssr:type" v="adressenavn" />
	</node>
	<node lat="60.8658416796931" lon="6.496637708026819" id="-77552">
		<tag k="name" v="Botnavegen" />
		<tag k="ssr:date" v="2019-12-27" />
		<tag k="ssr:gruppe" v="veg" />
		<tag k="ssr:hovedgruppe" v="infrastruktur" />
		<tag k="ssr:stedsnr" v="1039040" />
		<tag k="ssr:type" v="adressenavn" />
	</node>
	<node lat="60.62450088068141" lon="6.498820245247463" id="-77553">
		<tag k="name" v="Kinnesvegen" />
		<tag k="ssr:date" v="2019-12-27" />
		<tag k="ssr:gruppe" v="veg" />
		<tag k="ssr:hovedgruppe" v="infrastruktur" />
		<tag k="ssr:stedsnr" v="1039041" />
		<tag k="ssr:type" v="adressenavn" />
	</node>
	<node lat="60.79078823584609" lon="6.5664878193496" id="-77554">
		<tag k="name" v="Sundsvålsvegen" />
		<tag k="ssr:date" v="2019-12-27" />
		<tag k="ssr:gruppe" v="veg" />
		<tag k="ssr:hovedgruppe" v="infrastruktur" />
		<tag k="ssr:stedsnr" v="1039042" />
		<tag k="ssr:type" v="adressenavn" />
	</node>
	<node lat="60.789912503313346" lon="6.569530057878987" id="-77555">
		<tag k="name" v="Oppheimstunet" />
		<tag k="ssr:date" v="2019-12-27" />
		<tag k="ssr:gruppe" v="veg" />
		<tag k="ssr:hovedgruppe" v="infrastruktur" />
		<tag k="ssr:stedsnr" v="1039044" />
		<tag k="ssr:type" v="adressenavn" />
	</node>
	<node lat="60.78268943749118" lon="6.5583951680565065" id="-77556">
		<tag k="name" v="Oppheimsvegen" />
		<tag k="ssr:date" v="2019-12-27" />
		<tag k="ssr:gruppe" v="veg" />
		<tag k="ssr:hovedgruppe" v="infrastruktur" />
		<tag k="ssr:stedsnr" v="1039047" />
		<tag k="ssr:type" v="adressenavn" />
	</node>
	<node lat="60.80327852367187" lon="6.6432598103197735" id="-77557">
		<tag k="name" v="Ryggjavegen" />
		<tag k="ssr:date" v="2019-12-27" />
		<tag k="ssr:gruppe" v="veg" />
		<tag k="ssr:hovedgruppe" v="infrastruktur" />
		<tag k="ssr:stedsnr" v="1039049" />
		<tag k="ssr:type" v="adressenavn" />
	</node>
	<node lat="60.80382318056355" lon="6.6491218091770685" id="-77558">
		<tag k="name" v="Haugslii" />
		<tag k="ssr:date" v="2019-12-27" />
		<tag k="ssr:gruppe" v="veg" />
		<tag k="ssr:hovedgruppe" v="infrastruktur" />
		<tag k="ssr:stedsnr" v="1039051" />
		<tag k="ssr:type" v="adressenavn" />
	</node>
	<node lat="60.79287640645072" lon="6.569728052827206" id="-77559">
		<tag k="name" v="Oppheimsdalen" />
		<tag k="ssr:date" v="2019-12-27" />
		<tag k="ssr:gruppe" v="veg" />
		<tag k="ssr:hovedgruppe" v="infrastruktur" />
		<tag k="ssr:stedsnr" v="1039052" />
		<tag k="ssr:type" v="adressenavn" />
	</node>
	<node lat="60.79917376280932" lon="6.598758999628421" id="-77560">
		<tag k="name" v="Løn" />
		<tag k="ssr:date" v="2019-12-27" />
		<tag k="ssr:gruppe" v="veg" />
		<tag k="ssr:hovedgruppe" v="infrastruktur" />
		<tag k="ssr:stedsnr" v="1039054" />
		<tag k="ssr:type" v="adressenavn" />
	</node>
	<node lat="60.79243145510084" lon="6.521804464443051" id="-77561">
		<tag k="name" v="Posthagen" />
		<tag k="ssr:date" v="2019-12-27" />
		<tag k="ssr:gruppe" v="veg" />
		<tag k="ssr:hovedgruppe" v="infrastruktur" />
		<tag k="ssr:stedsnr" v="1039056" />
		<tag k="ssr:type" v="adressenavn" />
	</node>
	<node lat="60.79263960312028" lon="6.51967324775112" id="-77562">
		<tag k="name" v="Vinjavegen" />
		<tag k="ssr:date" v="2019-12-27" />
		<tag k="ssr:gruppe" v="veg" />
		<tag k="ssr:hovedgruppe" v="infrastruktur" />
		<tag k="ssr:stedsnr" v="1039058" />
		<tag k="ssr:type" v="adressenavn" />
	</node>
	<node lat="60.79147294405633" lon="6.509938435977779" id="-77563">
		<tag k="name" v="Draugsvollvegen" />
		<tag k="ssr:date" v="2019-12-27" />
		<tag k="ssr:gruppe" v="veg" />
		<tag k="ssr:hovedgruppe" v="infrastruktur" />
		<tag k="ssr:stedsnr" v="1039060" />
		<tag k="ssr:type" v="adressenavn" />
	</node>
	<node lat="60.792436764852525" lon="6.514445996282101" id="-77564">
		<tag k="name" v="Draugsvollbakkane" />
		<tag k="ssr:date" v="2019-12-27" />
		<tag k="ssr:gruppe" v="veg" />
		<tag k="ssr:hovedgruppe" v="infrastruktur" />
		<tag k="ssr:stedsnr" v="1039062" />
		<tag k="ssr:type" v="adressenavn" />
	</node>
	<node lat="60.780976947617226" lon="6.570675441961058" id="-77565">
		<tag k="name" v="Vasstrondvegen" />
		<tag k="ssr:date" v="2019-12-27" />
		<tag k="ssr:gruppe" v="veg" />
		<tag k="ssr:hovedgruppe" v="infrastruktur" />
		<tag k="ssr:stedsnr" v="1039064" />
		<tag k="ssr:type" v="adressenavn" />
	</node>
	<node lat="60.759364684030004" lon="6.566136749477511" id="-77566">
		<tag k="name" v="Langedalsvegen" />
		<tag k="ssr:date" v="2019-12-27" />
		<tag k="ssr:gruppe" v="veg" />
		<tag k="ssr:hovedgruppe" v="infrastruktur" />
		<tag k="ssr:stedsnr" v="1039066" />
		<tag k="ssr:type" v="adressenavn" />
	</node>
	<node lat="60.78523072569654" lon="6.559496158541793" id="-77567">
		<tag k="name" v="Framneslii" />
		<tag k="ssr:date" v="2019-12-27" />
		<tag k="ssr:gruppe" v="veg" />
		<tag k="ssr:hovedgruppe" v="infrastruktur" />
		<tag k="ssr:stedsnr" v="1039067" />
		<tag k="ssr:type" v="adressenavn" />
	</node>
	<node lat="60.784783314619034" lon="6.563380856619112" id="-77568">
		<tag k="name" v="Bidnesvegen" />
		<tag k="ssr:date" v="2019-12-27" />
		<tag k="ssr:gruppe" v="veg" />
		<tag k="ssr:hovedgruppe" v="infrastruktur" />
		<tag k="ssr:stedsnr" v="1039069" />
		<tag k="ssr:type" v="adressenavn" />
	</node>
	<node lat="60.624097839752515" lon="6.535680287977094" id="-77569">
		<tag k="name" v="Solhaugane" />
		<tag k="ssr:date" v="2019-12-27" />
		<tag k="ssr:gruppe" v="veg" />
		<tag k="ssr:hovedgruppe" v="infrastruktur" />
		<tag k="ssr:stedsnr" v="1039070" />
		<tag k="ssr:type" v="adressenavn" />
	</node>
	<node lat="60.632763912415676" lon="6.4253929527536275" id="-77570">
		<tag k="name" v="Rognstunet" />
		<tag k="ssr:date" v="2019-12-27" />
		<tag k="ssr:gruppe" v="veg" />
		<tag k="ssr:hovedgruppe" v="infrastruktur" />
		<tag k="ssr:stedsnr" v="1039072" />
		<tag k="ssr:type" v="adressenavn" />
	</node>
	<node lat="60.85298298206291" lon="6.725191712382371" id="-77571">
		<tag k="name" v="Jordalsvegen" />
		<tag k="ssr:date" v="2019-12-27" />
		<tag k="ssr:gruppe" v="veg" />
		<tag k="ssr:hovedgruppe" v="infrastruktur" />
		<tag k="ssr:stedsnr" v="1039074" />
		<tag k="ssr:type" v="adressenavn" />
	</node>
	<node lat="60.82568664392036" lon="6.687587265937132" id="-77572">
		<tag k="name" v="Nærøydalsvegen" />
		<tag k="ssr:date" v="2019-12-27" />
		<tag k="ssr:gruppe" v="veg" />
		<tag k="ssr:hovedgruppe" v="infrastruktur" />
		<tag k="ssr:stedsnr" v="1039076" />
		<tag k="ssr:type" v="adressenavn" />
	</node>
	<node lat="60.636084873096756" lon="6.440173143673133" id="-77573">
		<tag k="name" v="Regimentsvegen" />
		<tag k="ssr:date" v="2019-12-27" />
		<tag k="ssr:gruppe" v="veg" />
		<tag k="ssr:hovedgruppe" v="infrastruktur" />
		<tag k="ssr:stedsnr" v="1039078" />
		<tag k="ssr:type" v="adressenavn" />
	</node>
	<node lat="60.632906819853865" lon="6.440002193596528" id="-77574">
		<tag k="name" v="Oberst Bulls veg" />
		<tag k="ssr:date" v="2019-12-27" />
		<tag k="ssr:gruppe" v="veg" />
		<tag k="ssr:hovedgruppe" v="infrastruktur" />
		<tag k="ssr:stedsnr" v="1039080" />
		<tag k="ssr:type" v="adressenavn" />
	</node>
	<node lat="60.60681738710683" lon="6.383055262922119" id="-77575">
		<tag k="name" v="Vikjavegen" />
		<tag k="ssr:date" v="2019-12-27" />
		<tag k="ssr:gruppe" v="veg" />
		<tag k="ssr:hovedgruppe" v="infrastruktur" />
		<tag k="ssr:stedsnr" v="1039082" />
		<tag k="ssr:type" v="adressenavn" />
	</node>
	<node lat="60.8362212433949" lon="6.6799014816706235" id="-77576">
		<tag k="name" v="Brekkedalen" />
		<tag k="ssr:date" v="2019-12-27" />
		<tag k="ssr:gruppe" v="veg" />
		<tag k="ssr:hovedgruppe" v="infrastruktur" />
		<tag k="ssr:stedsnr" v="1039084" />
		<tag k="ssr:type" v="adressenavn" />
	</node>
	<node lat="60.64942431083279" lon="6.431980249022502" id="-77577">
		<tag k="name" v="Tornhaugen" />
		<tag k="ssr:date" v="2019-12-27" />
		<tag k="ssr:gruppe" v="veg" />
		<tag k="ssr:hovedgruppe" v="infrastruktur" />
		<tag k="ssr:stedsnr" v="1039186" />
		<tag k="ssr:type" v="adressenavn" />
	</node>
	<node lat="60.65577045290236" lon="6.436281737988782" id="-77578">
		<tag k="name" v="Storrviki" />
		<tag k="ssr:date" v="2019-12-27" />
		<tag k="ssr:gruppe" v="veg" />
		<tag k="ssr:hovedgruppe" v="infrastruktur" />
		<tag k="ssr:stedsnr" v="1039188" />
		<tag k="ssr:type" v="adressenavn" />
	</node>
	<node lat="60.63608370676205" lon="6.465794288864921" id="-77579">
		<tag k="name" v="Tjukkebygdvegen" />
		<tag k="ssr:date" v="2019-12-27" />
		<tag k="ssr:gruppe" v="veg" />
		<tag k="ssr:hovedgruppe" v="infrastruktur" />
		<tag k="ssr:stedsnr" v="1039190" />
		<tag k="ssr:type" v="adressenavn" />
	</node>
	<node lat="60.62853946584798" lon="6.438759402339644" id="-77580">
		<tag k="name" v="Vetleflaten" />
		<tag k="ssr:date" v="2019-12-27" />
		<tag k="ssr:gruppe" v="veg" />
		<tag k="ssr:hovedgruppe" v="infrastruktur" />
		<tag k="ssr:stedsnr" v="1039192" />
		<tag k="ssr:type" v="adressenavn" />
	</node>
	<node lat="60.621407419943445" lon="6.427698687490454" id="-77581">
		<tag k="name" v="Vossabakken" />
		<tag k="ssr:date" v="2019-12-27" />
		<tag k="ssr:gruppe" v="veg" />
		<tag k="ssr:hovedgruppe" v="infrastruktur" />
		<tag k="ssr:stedsnr" v="1039193" />
		<tag k="ssr:type" v="adressenavn" />
	</node>
	<node lat="60.651936974899975" lon="6.434747206422607" id="-77582">
		<tag k="name" v="Tråakrokane" />
		<tag k="ssr:date" v="2019-12-27" />
		<tag k="ssr:gruppe" v="veg" />
		<tag k="ssr:hovedgruppe" v="infrastruktur" />
		<tag k="ssr:stedsnr" v="1039195" />
		<tag k="ssr:type" v="adressenavn" />
	</node>
	<node lat="60.625948910329676" lon="6.5291525289176455" id="-77583">
		<tag k="name" v="Vivåslii" />
		<tag k="ssr:date" v="2019-12-27" />
		<tag k="ssr:gruppe" v="veg" />
		<tag k="ssr:hovedgruppe" v="infrastruktur" />
		<tag k="ssr:stedsnr" v="1039198" />
		<tag k="ssr:type" v="adressenavn" />
	</node>
	<node lat="60.62222821670994" lon="6.5317688308197654" id="-77584">
		<tag k="name" v="Brattebakken" />
		<tag k="ssr:date" v="2019-12-27" />
		<tag k="ssr:gruppe" v="veg" />
		<tag k="ssr:hovedgruppe" v="infrastruktur" />
		<tag k="ssr:stedsnr" v="1039200" />
		<tag k="ssr:type" v="adressenavn" />
	</node>
	<node lat="60.62808269677567" lon="6.5321256584811165" id="-77585">
		<tag k="name" v="Mønshaugane" />
		<tag k="ssr:date" v="2019-12-27" />
		<tag k="ssr:gruppe" v="veg" />
		<tag k="ssr:hovedgruppe" v="infrastruktur" />
		<tag k="ssr:stedsnr" v="1039202" />
		<tag k="ssr:type" v="adressenavn" />
	</node>
	<node lat="60.630795238868735" lon="6.5324548104816165" id="-77586">
		<tag k="name" v="Mønsvegen" />
		<tag k="ssr:date" v="2019-12-27" />
		<tag k="ssr:gruppe" v="veg" />
		<tag k="ssr:hovedgruppe" v="infrastruktur" />
		<tag k="ssr:stedsnr" v="1039204" />
		<tag k="ssr:type" v="adressenavn" />
	</node>
	<node lat="60.61703885763337" lon="6.546192054072543" id="-77587">
		<tag k="name" v="Opelandshaugen" />
		<tag k="ssr:date" v="2019-12-27" />
		<tag k="ssr:gruppe" v="veg" />
		<tag k="ssr:hovedgruppe" v="infrastruktur" />
		<tag k="ssr:stedsnr" v="1039206" />
		<tag k="ssr:type" v="adressenavn" />
	</node>
	<node lat="60.6088202087061" lon="6.591079392805037" id="-77588">
		<tag k="name" v="Fennavegen" />
		<tag k="ssr:date" v="2019-12-27" />
		<tag k="ssr:gruppe" v="veg" />
		<tag k="ssr:hovedgruppe" v="infrastruktur" />
		<tag k="ssr:stedsnr" v="1039208" />
		<tag k="ssr:type" v="adressenavn" />
	</node>
	<node lat="60.61923709370206" lon="6.542390931191095" id="-77589">
		<tag k="name" v="Opelandsvegen" />
		<tag k="ssr:date" v="2019-12-27" />
		<tag k="ssr:gruppe" v="veg" />
		<tag k="ssr:hovedgruppe" v="infrastruktur" />
		<tag k="ssr:stedsnr" v="1039210" />
		<tag k="ssr:type" v="adressenavn" />
	</node>
	<node lat="60.619757970547724" lon="6.5350866445196525" id="-77590">
		<tag k="name" v="Tymbrålen" />
		<tag k="ssr:date" v="2019-12-27" />
		<tag k="ssr:gruppe" v="veg" />
		<tag k="ssr:hovedgruppe" v="infrastruktur" />
		<tag k="ssr:stedsnr" v="1039212" />
		<tag k="ssr:type" v="adressenavn" />
	</node>
	<node lat="60.631418520990636" lon="6.477301892952852" id="-77591">
		<tag k="name" v="Gamle Liavegen" />
		<tag k="ssr:date" v="2019-12-27" />
		<tag k="ssr:gruppe" v="veg" />
		<tag k="ssr:hovedgruppe" v="infrastruktur" />
		<tag k="ssr:stedsnr" v="1039214" />
		<tag k="ssr:type" v="adressenavn" />
	</node>
	<node lat="60.62946637457605" lon="6.4842192267906755" id="-77592">
		<tag k="name" v="Renesvegen" />
		<tag k="ssr:date" v="2019-12-27" />
		<tag k="ssr:gruppe" v="veg" />
		<tag k="ssr:hovedgruppe" v="infrastruktur" />
		<tag k="ssr:stedsnr" v="1039216" />
		<tag k="ssr:type" v="adressenavn" />
	</node>
	<node lat="60.65058069034018" lon="6.436193802462435" id="-77593">
		<tag k="name" v="Voss Jordbruksskule" />
		<tag k="ssr:date" v="2019-12-27" />
		<tag k="ssr:gruppe" v="veg" />
		<tag k="ssr:hovedgruppe" v="infrastruktur" />
		<tag k="ssr:stedsnr" v="1039219" />
		<tag k="ssr:type" v="adressenavn" />
	</node>
	<node lat="60.633881599717654" lon="6.429444250211612" id="-77594">
		<tag k="name" v="Klausabakken" />
		<tag k="ssr:date" v="2019-12-27" />
		<tag k="ssr:gruppe" v="veg" />
		<tag k="ssr:hovedgruppe" v="infrastruktur" />
		<tag k="ssr:stedsnr" v="1039220" />
		<tag k="ssr:type" v="adressenavn" />
	</node>
	<node lat="60.6333782754299" lon="6.529896271293948" id="-77595">
		<tag k="name" v="Bjørkemoen" />
		<tag k="ssr:date" v="2019-12-27" />
		<tag k="ssr:gruppe" v="veg" />
		<tag k="ssr:hovedgruppe" v="infrastruktur" />
		<tag k="ssr:stedsnr" v="1039222" />
		<tag k="ssr:type" v="adressenavn" />
	</node>
	<node lat="60.62873444157748" lon="6.527327884217611" id="-77596">
		<tag k="name" v="Bjørkevegen" />
		<tag k="ssr:date" v="2019-12-27" />
		<tag k="ssr:gruppe" v="veg" />
		<tag k="ssr:hovedgruppe" v="infrastruktur" />
		<tag k="ssr:stedsnr" v="1039224" />
		<tag k="ssr:type" v="adressenavn" />
	</node>
	<node lat="60.613245137211" lon="6.504279880187356" id="-77597">
		<tag k="name" v="Skutlesvegen" />
		<tag k="ssr:date" v="2019-12-27" />
		<tag k="ssr:gruppe" v="veg" />
		<tag k="ssr:hovedgruppe" v="infrastruktur" />
		<tag k="ssr:stedsnr" v="1039226" />
		<tag k="ssr:type" v="adressenavn" />
	</node>
	<node lat="60.623538655408396" lon="6.500987309268505" id="-77598">
		<tag k="name" v="Vikeshovden" />
		<tag k="ssr:date" v="2019-12-27" />
		<tag k="ssr:gruppe" v="veg" />
		<tag k="ssr:hovedgruppe" v="infrastruktur" />
		<tag k="ssr:stedsnr" v="1039228" />
		<tag k="ssr:type" v="adressenavn" />
	</node>
	<node lat="60.60481302785365" lon="6.5835135063206325" id="-77599">
		<tag k="name" v="Håtveitvegen" />
		<tag k="ssr:date" v="2019-12-27" />
		<tag k="ssr:gruppe" v="veg" />
		<tag k="ssr:hovedgruppe" v="infrastruktur" />
		<tag k="ssr:stedsnr" v="1039230" />
		<tag k="ssr:type" v="adressenavn" />
	</node>
	<node lat="60.61148715891725" lon="6.584528447011299" id="-77600">
		<tag k="name" v="Hildestveitvegen" />
		<tag k="ssr:date" v="2019-12-27" />
		<tag k="ssr:gruppe" v="veg" />
		<tag k="ssr:hovedgruppe" v="infrastruktur" />
		<tag k="ssr:stedsnr" v="1039231" />
		<tag k="ssr:type" v="adressenavn" />
	</node>
	<node lat="60.60457382834319" lon="6.543251448730029" id="-77601">
		<tag k="name" v="Malahaugen" />
		<tag k="ssr:date" v="2019-12-27" />
		<tag k="ssr:gruppe" v="veg" />
		<tag k="ssr:hovedgruppe" v="infrastruktur" />
		<tag k="ssr:stedsnr" v="1039232" />
		<tag k="ssr:type" v="adressenavn" />
	</node>
	<node lat="60.6071520051677" lon="6.580173486119013" id="-77602">
		<tag k="name" v="Nedre Fennavegen" />
		<tag k="ssr:date" v="2019-12-27" />
		<tag k="ssr:gruppe" v="veg" />
		<tag k="ssr:hovedgruppe" v="infrastruktur" />
		<tag k="ssr:stedsnr" v="1039234" />
		<tag k="ssr:type" v="adressenavn" />
	</node>
	<node lat="60.64172369238309" lon="6.036847238464907" id="-77603">
		<tag k="name" v="Storevikane" />
		<tag k="ssr:date" v="2019-12-27" />
		<tag k="ssr:gruppe" v="veg" />
		<tag k="ssr:hovedgruppe" v="infrastruktur" />
		<tag k="ssr:stedsnr" v="1039134" />
		<tag k="ssr:type" v="adressenavn" />
	</node>
	<node lat="60.59878321806863" lon="6.556208171799908" id="-77604">
		<tag k="name" v="Dalsvegen" />
		<tag k="ssr:date" v="2019-12-27" />
		<tag k="ssr:gruppe" v="veg" />
		<tag k="ssr:hovedgruppe" v="infrastruktur" />
		<tag k="ssr:stedsnr" v="1039236" />
		<tag k="ssr:type" v="adressenavn" />
	</node>
	<node lat="60.59878321806863" lon="6.556208171799908" id="-77605">
		<tag k="name" v="Istadmyrane" />
		<tag k="ssr:date" v="2019-12-27" />
		<tag k="ssr:gruppe" v="veg" />
		<tag k="ssr:hovedgruppe" v="infrastruktur" />
		<tag k="ssr:stedsnr" v="1039238" />
		<tag k="ssr:type" v="adressenavn" />
	</node>
	<node lat="60.60305761269153" lon="6.54591840565418" id="-77606">
		<tag k="name" v="Istadbakken" />
		<tag k="ssr:date" v="2019-12-27" />
		<tag k="ssr:gruppe" v="veg" />
		<tag k="ssr:hovedgruppe" v="infrastruktur" />
		<tag k="ssr:stedsnr" v="1039240" />
		<tag k="ssr:type" v="adressenavn" />
	</node>
	<node lat="60.60436672097394" lon="6.5446927096184915" id="-77607">
		<tag k="name" v="Istadosen" />
		<tag k="ssr:date" v="2019-12-27" />
		<tag k="ssr:gruppe" v="veg" />
		<tag k="ssr:hovedgruppe" v="infrastruktur" />
		<tag k="ssr:stedsnr" v="1039242" />
		<tag k="ssr:type" v="adressenavn" />
	</node>
	<node lat="60.611464833531144" lon="6.541626360798549" id="-77608">
		<tag k="name" v="Bjørgamarki" />
		<tag k="ssr:date" v="2019-12-27" />
		<tag k="ssr:gruppe" v="veg" />
		<tag k="ssr:hovedgruppe" v="infrastruktur" />
		<tag k="ssr:stedsnr" v="1039244" />
		<tag k="ssr:type" v="adressenavn" />
	</node>
	<node lat="60.61358301089454" lon="6.539622591617047" id="-77609">
		<tag k="name" v="Bjørgabaret" />
		<tag k="ssr:date" v="2019-12-27" />
		<tag k="ssr:gruppe" v="veg" />
		<tag k="ssr:hovedgruppe" v="infrastruktur" />
		<tag k="ssr:stedsnr" v="1039246" />
		<tag k="ssr:type" v="adressenavn" />
	</node>
	<node lat="60.61320808597418" lon="6.545647718483391" id="-77610">
		<tag k="name" v="Tjørnahaugane" />
		<tag k="ssr:date" v="2019-12-27" />
		<tag k="ssr:gruppe" v="veg" />
		<tag k="ssr:hovedgruppe" v="infrastruktur" />
		<tag k="ssr:stedsnr" v="1039248" />
		<tag k="ssr:type" v="adressenavn" />
	</node>
	<node lat="60.61393555233993" lon="6.536632279096784" id="-77611">
		<tag k="name" v="Tymbrålsbakkane" />
		<tag k="ssr:date" v="2019-12-27" />
		<tag k="ssr:gruppe" v="veg" />
		<tag k="ssr:hovedgruppe" v="infrastruktur" />
		<tag k="ssr:stedsnr" v="1039249" />
		<tag k="ssr:type" v="adressenavn" />
	</node>
	<node lat="60.61722382467108" lon="6.512306946379691" id="-77612">
		<tag k="name" v="Vivåsvegen" />
		<tag k="ssr:date" v="2019-12-27" />
		<tag k="ssr:gruppe" v="veg" />
		<tag k="ssr:hovedgruppe" v="infrastruktur" />
		<tag k="ssr:stedsnr" v="1039251" />
		<tag k="ssr:type" v="adressenavn" />
	</node>
	<node lat="60.60479246290122" lon="6.544023106831583" id="-77613">
		<tag k="name" v="Filipshaugen" />
		<tag k="ssr:date" v="2019-12-27" />
		<tag k="ssr:gruppe" v="veg" />
		<tag k="ssr:hovedgruppe" v="infrastruktur" />
		<tag k="ssr:stedsnr" v="1039253" />
		<tag k="ssr:type" v="adressenavn" />
	</node>
	<node lat="60.61271700463748" lon="6.542699855353515" id="-77614">
		<tag k="name" v="Tjørnateigen" />
		<tag k="ssr:date" v="2019-12-27" />
		<tag k="ssr:gruppe" v="veg" />
		<tag k="ssr:hovedgruppe" v="infrastruktur" />
		<tag k="ssr:stedsnr" v="1039255" />
		<tag k="ssr:type" v="adressenavn" />
	</node>
	<node lat="60.612111562858026" lon="6.516189248974093" id="-77615">
		<tag k="name" v="Bjørgavegen" />
		<tag k="ssr:date" v="2019-12-27" />
		<tag k="ssr:gruppe" v="veg" />
		<tag k="ssr:hovedgruppe" v="infrastruktur" />
		<tag k="ssr:stedsnr" v="1039257" />
		<tag k="ssr:type" v="adressenavn" />
	</node>
	<node lat="60.61847763397829" lon="6.372801944823211" id="-77616">
		<tag k="name" v="Honvesvegen" />
		<tag k="ssr:date" v="2019-12-27" />
		<tag k="ssr:gruppe" v="veg" />
		<tag k="ssr:hovedgruppe" v="infrastruktur" />
		<tag k="ssr:stedsnr" v="1039259" />
		<tag k="ssr:type" v="adressenavn" />
	</node>
	<node lat="60.622534073364164" lon="6.327903721794377" id="-77617">
		<tag k="name" v="Rekvesvegen" />
		<tag k="ssr:date" v="2019-12-27" />
		<tag k="ssr:gruppe" v="veg" />
		<tag k="ssr:hovedgruppe" v="infrastruktur" />
		<tag k="ssr:stedsnr" v="1039261" />
		<tag k="ssr:type" v="adressenavn" />
	</node>
	<node lat="60.61807415629537" lon="6.372680743983416" id="-77618">
		<tag k="name" v="Kvålsvegen" />
		<tag k="ssr:date" v="2019-12-27" />
		<tag k="ssr:gruppe" v="veg" />
		<tag k="ssr:hovedgruppe" v="infrastruktur" />
		<tag k="ssr:stedsnr" v="1039264" />
		<tag k="ssr:type" v="adressenavn" />
	</node>
	<node lat="60.639478560992956" lon="6.326141098490932" id="-77619">
		<tag k="name" v="Dolvesvegen" />
		<tag k="ssr:date" v="2019-12-27" />
		<tag k="ssr:gruppe" v="veg" />
		<tag k="ssr:hovedgruppe" v="infrastruktur" />
		<tag k="ssr:stedsnr" v="1039266" />
		<tag k="ssr:type" v="adressenavn" />
	</node>
	<node lat="60.79232112505323" lon="6.5365376830662605" id="-77620">
		<tag k="name" v="Vinjadalen" />
		<tag k="ssr:date" v="2019-12-27" />
		<tag k="ssr:gruppe" v="veg" />
		<tag k="ssr:hovedgruppe" v="infrastruktur" />
		<tag k="ssr:stedsnr" v="1039269" />
		<tag k="ssr:type" v="adressenavn" />
	</node>
	<node lat="60.622550614991454" lon="6.3310386575751565" id="-77621">
		<tag k="name" v="Byrkjavegen" />
		<tag k="ssr:date" v="2019-12-27" />
		<tag k="ssr:gruppe" v="veg" />
		<tag k="ssr:hovedgruppe" v="infrastruktur" />
		<tag k="ssr:stedsnr" v="1039271" />
		<tag k="ssr:type" v="adressenavn" />
	</node>
	<node lat="60.62610728788803" lon="6.32386492515526" id="-77622">
		<tag k="name" v="Dyrvedalsvegen" />
		<tag k="ssr:date" v="2019-12-27" />
		<tag k="ssr:gruppe" v="veg" />
		<tag k="ssr:hovedgruppe" v="infrastruktur" />
		<tag k="ssr:stedsnr" v="1039273" />
		<tag k="ssr:type" v="adressenavn" />
	</node>
	<node lat="60.59604186683244" lon="6.564760364493867" id="-77623">
		<tag k="name" v="Dalsmoen" />
		<tag k="ssr:date" v="2019-12-27" />
		<tag k="ssr:gruppe" v="veg" />
		<tag k="ssr:hovedgruppe" v="infrastruktur" />
		<tag k="ssr:stedsnr" v="1039275" />
		<tag k="ssr:type" v="adressenavn" />
	</node>
	<node lat="60.598973716459135" lon="6.556477578757372" id="-77624">
		<tag k="name" v="Istadvegen" />
		<tag k="ssr:date" v="2019-12-27" />
		<tag k="ssr:gruppe" v="veg" />
		<tag k="ssr:hovedgruppe" v="infrastruktur" />
		<tag k="ssr:stedsnr" v="1039277" />
		<tag k="ssr:type" v="adressenavn" />
	</node>
	<node lat="60.59997318224949" lon="6.558573208443026" id="-77625">
		<tag k="name" v="Øvre Langhaugen" />
		<tag k="ssr:date" v="2019-12-27" />
		<tag k="ssr:gruppe" v="veg" />
		<tag k="ssr:hovedgruppe" v="infrastruktur" />
		<tag k="ssr:stedsnr" v="1039279" />
		<tag k="ssr:type" v="adressenavn" />
	</node>
	<node lat="60.62651661642653" lon="6.3896510710538275" id="-77626">
		<tag k="name" v="Seimsbardet" />
		<tag k="ssr:date" v="2019-12-27" />
		<tag k="ssr:gruppe" v="veg" />
		<tag k="ssr:hovedgruppe" v="infrastruktur" />
		<tag k="ssr:stedsnr" v="1039281" />
		<tag k="ssr:type" v="adressenavn" />
	</node>
	<node lat="60.625183801765004" lon="6.37812521049357" id="-77627">
		<tag k="name" v="Bauthusvegen" />
		<tag k="ssr:date" v="2019-12-27" />
		<tag k="ssr:gruppe" v="veg" />
		<tag k="ssr:hovedgruppe" v="infrastruktur" />
		<tag k="ssr:stedsnr" v="1039282" />
		<tag k="ssr:type" v="adressenavn" />
	</node>
	<node lat="60.59339982707826" lon="6.579396905163194" id="-77628">
		<tag k="name" v="Flatlandsmoen" />
		<tag k="ssr:date" v="2019-12-27" />
		<tag k="ssr:gruppe" v="veg" />
		<tag k="ssr:hovedgruppe" v="infrastruktur" />
		<tag k="ssr:stedsnr" v="1039284" />
		<tag k="ssr:type" v="adressenavn" />
	</node>
	<node lat="60.646488852613096" lon="6.430436349521309" id="-77629">
		<tag k="name" v="Bavallsvegen" />
		<tag k="ssr:date" v="2019-12-27" />
		<tag k="ssr:gruppe" v="veg" />
		<tag k="ssr:hovedgruppe" v="infrastruktur" />
		<tag k="ssr:stedsnr" v="1039337" />
		<tag k="ssr:type" v="adressenavn" />
	</node>
	<node lat="60.63220512543969" lon="6.469903995320931" id="-77630">
		<tag k="name" v="Brynalii" />
		<tag k="ssr:date" v="2019-12-27" />
		<tag k="ssr:gruppe" v="veg" />
		<tag k="ssr:hovedgruppe" v="infrastruktur" />
		<tag k="ssr:stedsnr" v="1039338" />
		<tag k="ssr:type" v="adressenavn" />
	</node>
	<node lat="60.62819628935464" lon="6.41811628875461" id="-77631">
		<tag k="name" v="Bergsliplassen" />
		<tag k="ssr:date" v="2019-12-27" />
		<tag k="ssr:gruppe" v="veg" />
		<tag k="ssr:hovedgruppe" v="infrastruktur" />
		<tag k="ssr:stedsnr" v="1039339" />
		<tag k="ssr:type" v="adressenavn" />
	</node>
	<node lat="60.628380435828824" lon="6.424860728267363" id="-77632">
		<tag k="name" v="Vossabygg" />
		<tag k="ssr:date" v="2019-12-27" />
		<tag k="ssr:gruppe" v="veg" />
		<tag k="ssr:hovedgruppe" v="infrastruktur" />
		<tag k="ssr:stedsnr" v="1039340" />
		<tag k="ssr:type" v="adressenavn" />
	</node>
	<node lat="60.63741194672021" lon="6.47252852543364" id="-77633">
		<tag k="name" v="Bømovegen" />
		<tag k="ssr:date" v="2019-12-27" />
		<tag k="ssr:gruppe" v="veg" />
		<tag k="ssr:hovedgruppe" v="infrastruktur" />
		<tag k="ssr:stedsnr" v="1039341" />
		<tag k="ssr:type" v="adressenavn" />
	</node>
	<node lat="60.63861023023299" lon="6.4760905228640695" id="-77634">
		<tag k="name" v="Gamle Raundalsvegen" />
		<tag k="ssr:date" v="2019-12-27" />
		<tag k="ssr:gruppe" v="veg" />
		<tag k="ssr:hovedgruppe" v="infrastruktur" />
		<tag k="ssr:stedsnr" v="1039343" />
		<tag k="ssr:type" v="adressenavn" />
	</node>
	<node lat="60.63473695094352" lon="6.458758064657815" id="-77635">
		<tag k="name" v="Brynamoen" />
		<tag k="ssr:date" v="2019-12-27" />
		<tag k="ssr:gruppe" v="veg" />
		<tag k="ssr:hovedgruppe" v="infrastruktur" />
		<tag k="ssr:stedsnr" v="1039345" />
		<tag k="ssr:type" v="adressenavn" />
	</node>
	<node lat="60.633865425006604" lon="6.4580268860616314" id="-77636">
		<tag k="name" v="Brynaskogen" />
		<tag k="ssr:date" v="2019-12-27" />
		<tag k="ssr:gruppe" v="veg" />
		<tag k="ssr:hovedgruppe" v="infrastruktur" />
		<tag k="ssr:stedsnr" v="1039347" />
		<tag k="ssr:type" v="adressenavn" />
	</node>
	<node lat="60.657695469178165" lon="6.421091025239782" id="-77637">
		<tag k="name" v="Skjerpeshagen" />
		<tag k="ssr:date" v="2019-12-27" />
		<tag k="ssr:gruppe" v="veg" />
		<tag k="ssr:hovedgruppe" v="infrastruktur" />
		<tag k="ssr:stedsnr" v="1039349" />
		<tag k="ssr:type" v="adressenavn" />
	</node>
	<node lat="60.65754725189725" lon="6.421677240200047" id="-77638">
		<tag k="name" v="Skjerpeslunden" />
		<tag k="ssr:date" v="2019-12-27" />
		<tag k="ssr:gruppe" v="veg" />
		<tag k="ssr:hovedgruppe" v="infrastruktur" />
		<tag k="ssr:stedsnr" v="1039351" />
		<tag k="ssr:type" v="adressenavn" />
	</node>
	<node lat="60.63729437129563" lon="6.469582662014203" id="-77639">
		<tag k="name" v="Rykkesvegen" />
		<tag k="ssr:date" v="2019-12-27" />
		<tag k="ssr:gruppe" v="veg" />
		<tag k="ssr:hovedgruppe" v="infrastruktur" />
		<tag k="ssr:stedsnr" v="1039354" />
		<tag k="ssr:type" v="adressenavn" />
	</node>
	<node lat="60.65210018573028" lon="6.4349898228243" id="-77640">
		<tag k="name" v="Skulestadvegen" />
		<tag k="ssr:date" v="2019-12-27" />
		<tag k="ssr:gruppe" v="veg" />
		<tag k="ssr:hovedgruppe" v="infrastruktur" />
		<tag k="ssr:stedsnr" v="1039356" />
		<tag k="ssr:type" v="adressenavn" />
	</node>
	<node lat="60.61700988540972" lon="6.432622966513092" id="-77641">
		<tag k="name" v="Songvesborgi" />
		<tag k="ssr:date" v="2019-12-27" />
		<tag k="ssr:gruppe" v="veg" />
		<tag k="ssr:hovedgruppe" v="infrastruktur" />
		<tag k="ssr:stedsnr" v="1039358" />
		<tag k="ssr:type" v="adressenavn" />
	</node>
	<node lat="60.65716158821304" lon="6.424970073198427" id="-77642">
		<tag k="name" v="Skjerpestunet" />
		<tag k="ssr:date" v="2019-12-27" />
		<tag k="ssr:gruppe" v="veg" />
		<tag k="ssr:hovedgruppe" v="infrastruktur" />
		<tag k="ssr:stedsnr" v="1039360" />
		<tag k="ssr:type" v="adressenavn" />
	</node>
	<node lat="60.65803415425515" lon="6.422978934506506" id="-77643">
		<tag k="name" v="Skjerpesvegen" />
		<tag k="ssr:date" v="2019-12-27" />
		<tag k="ssr:gruppe" v="veg" />
		<tag k="ssr:hovedgruppe" v="infrastruktur" />
		<tag k="ssr:stedsnr" v="1039362" />
		<tag k="ssr:type" v="adressenavn" />
	</node>
	<node lat="60.62887521798834" lon="6.465226232132208" id="-77644">
		<tag k="name" v="Liavegen" />
		<tag k="ssr:date" v="2019-12-27" />
		<tag k="ssr:gruppe" v="veg" />
		<tag k="ssr:hovedgruppe" v="infrastruktur" />
		<tag k="ssr:stedsnr" v="1039364" />
		<tag k="ssr:type" v="adressenavn" />
	</node>
	<node lat="60.62400285444331" lon="6.385566841182166" id="-77645">
		<tag k="name" v="Lydvabaret" />
		<tag k="ssr:date" v="2019-12-27" />
		<tag k="ssr:gruppe" v="veg" />
		<tag k="ssr:hovedgruppe" v="infrastruktur" />
		<tag k="ssr:stedsnr" v="1039366" />
		<tag k="ssr:type" v="adressenavn" />
	</node>
	<node lat="60.637002288729896" lon="6.469587771203836" id="-77646">
		<tag k="name" v="Høydalane" />
		<tag k="ssr:date" v="2019-12-27" />
		<tag k="ssr:gruppe" v="veg" />
		<tag k="ssr:hovedgruppe" v="infrastruktur" />
		<tag k="ssr:stedsnr" v="1039368" />
		<tag k="ssr:type" v="adressenavn" />
	</node>
	<node lat="60.65332452581763" lon="6.432905926883875" id="-77647">
		<tag k="name" v="Koglehaugen" />
		<tag k="ssr:date" v="2019-12-27" />
		<tag k="ssr:gruppe" v="veg" />
		<tag k="ssr:hovedgruppe" v="infrastruktur" />
		<tag k="ssr:stedsnr" v="1039370" />
		<tag k="ssr:type" v="adressenavn" />
	</node>
	<node lat="60.627065712294396" lon="6.445307404351405" id="-77648">
		<tag k="name" v="Nedre Storehagen" />
		<tag k="ssr:date" v="2019-12-27" />
		<tag k="ssr:gruppe" v="veg" />
		<tag k="ssr:hovedgruppe" v="infrastruktur" />
		<tag k="ssr:stedsnr" v="1039372" />
		<tag k="ssr:type" v="adressenavn" />
	</node>
	<node lat="60.65443922220645" lon="6.441666537256974" id="-77649">
		<tag k="name" v="Melsvegen" />
		<tag k="ssr:date" v="2019-12-27" />
		<tag k="ssr:gruppe" v="veg" />
		<tag k="ssr:hovedgruppe" v="infrastruktur" />
		<tag k="ssr:stedsnr" v="1039374" />
		<tag k="ssr:type" v="adressenavn" />
	</node>
	<node lat="60.653514692196346" lon="6.435023992735206" id="-77650">
		<tag k="name" v="Moteigen" />
		<tag k="ssr:date" v="2019-12-27" />
		<tag k="ssr:gruppe" v="veg" />
		<tag k="ssr:hovedgruppe" v="infrastruktur" />
		<tag k="ssr:stedsnr" v="1039376" />
		<tag k="ssr:type" v="adressenavn" />
	</node>
	<node lat="60.80025324944808" lon="6.640714441574823" id="-77651">
		<tag k="name" v="Kvitaberget" />
		<tag k="ssr:date" v="2019-12-27" />
		<tag k="ssr:gruppe" v="veg" />
		<tag k="ssr:hovedgruppe" v="infrastruktur" />
		<tag k="ssr:stedsnr" v="1039378" />
		<tag k="ssr:type" v="adressenavn" />
	</node>
	<node lat="60.79995292923245" lon="6.642930015209765" id="-77652">
		<tag k="name" v="Kvasshaugen" />
		<tag k="ssr:date" v="2019-12-27" />
		<tag k="ssr:gruppe" v="veg" />
		<tag k="ssr:hovedgruppe" v="infrastruktur" />
		<tag k="ssr:stedsnr" v="1039379" />
		<tag k="ssr:type" v="adressenavn" />
	</node>
	<node lat="60.77651152533235" lon="6.574512187207911" id="-77653">
		<tag k="name" v="Furestølsvegen" />
		<tag k="ssr:date" v="2019-12-27" />
		<tag k="ssr:gruppe" v="veg" />
		<tag k="ssr:hovedgruppe" v="infrastruktur" />
		<tag k="ssr:stedsnr" v="1039380" />
		<tag k="ssr:type" v="adressenavn" />
	</node>
	<node lat="60.51592361043796" lon="6.477834096697191" id="-77654">
		<tag k="name" v="Haugamovegen" />
		<tag k="ssr:date" v="2019-12-27" />
		<tag k="ssr:gruppe" v="veg" />
		<tag k="ssr:hovedgruppe" v="infrastruktur" />
		<tag k="ssr:stedsnr" v="1039381" />
		<tag k="ssr:type" v="adressenavn" />
	</node>
	<node lat="60.78871345388124" lon="6.690912227124849" id="-77655">
		<tag k="name" v="Ljosnavegen" />
		<tag k="ssr:date" v="2019-12-27" />
		<tag k="ssr:gruppe" v="veg" />
		<tag k="ssr:hovedgruppe" v="infrastruktur" />
		<tag k="ssr:stedsnr" v="1039383" />
		<tag k="ssr:type" v="adressenavn" />
	</node>
	<node lat="60.76260332282065" lon="6.517498756291468" id="-77656">
		<tag k="name" v="Lundset" />
		<tag k="ssr:date" v="2019-12-27" />
		<tag k="ssr:gruppe" v="veg" />
		<tag k="ssr:hovedgruppe" v="infrastruktur" />
		<tag k="ssr:stedsnr" v="1039385" />
		<tag k="ssr:type" v="adressenavn" />
	</node>
	<node lat="60.76571582534242" lon="6.488254548963802" id="-77657">
		<tag k="name" v="Hjellavegen" />
		<tag k="ssr:date" v="2019-12-27" />
		<tag k="ssr:gruppe" v="veg" />
		<tag k="ssr:hovedgruppe" v="infrastruktur" />
		<tag k="ssr:stedsnr" v="1039436" />
		<tag k="ssr:type" v="adressenavn" />
	</node>
	<node lat="60.56527493067871" lon="6.480261663830917" id="-77658">
		<tag k="name" v="Litrane" />
		<tag k="ssr:date" v="2019-12-27" />
		<tag k="ssr:gruppe" v="veg" />
		<tag k="ssr:hovedgruppe" v="infrastruktur" />
		<tag k="ssr:stedsnr" v="1039437" />
		<tag k="ssr:type" v="adressenavn" />
	</node>
	<node lat="60.68893934490289" lon="6.842251456955059" id="-77659">
		<tag k="name" v="Urdlandsstølen" />
		<tag k="ssr:date" v="2019-12-27" />
		<tag k="ssr:gruppe" v="veg" />
		<tag k="ssr:hovedgruppe" v="infrastruktur" />
		<tag k="ssr:stedsnr" v="1039438" />
		<tag k="ssr:type" v="adressenavn" />
	</node>
	<node lat="60.68032243684621" lon="6.581033470895505" id="-77660">
		<tag k="name" v="Fagnastølsvegen" />
		<tag k="ssr:date" v="2019-12-27" />
		<tag k="ssr:gruppe" v="veg" />
		<tag k="ssr:hovedgruppe" v="infrastruktur" />
		<tag k="ssr:stedsnr" v="1039439" />
		<tag k="ssr:type" v="adressenavn" />
	</node>
	<node lat="60.70092744041037" lon="6.580788434434373" id="-77661">
		<tag k="name" v="Fyrjavegen" />
		<tag k="ssr:date" v="2019-12-27" />
		<tag k="ssr:gruppe" v="veg" />
		<tag k="ssr:hovedgruppe" v="infrastruktur" />
		<tag k="ssr:stedsnr" v="1039440" />
		<tag k="ssr:type" v="adressenavn" />
	</node>
	<node lat="60.712145899162934" lon="6.6500482127943465" id="-77662">
		<tag k="name" v="Jonsstølsvegen" />
		<tag k="ssr:date" v="2019-12-27" />
		<tag k="ssr:gruppe" v="veg" />
		<tag k="ssr:hovedgruppe" v="infrastruktur" />
		<tag k="ssr:stedsnr" v="1039441" />
		<tag k="ssr:type" v="adressenavn" />
	</node>
	<node lat="60.694298562829516" lon="6.581291188370836" id="-77663">
		<tag k="name" v="Røyrlii" />
		<tag k="ssr:date" v="2019-12-27" />
		<tag k="ssr:gruppe" v="veg" />
		<tag k="ssr:hovedgruppe" v="infrastruktur" />
		<tag k="ssr:stedsnr" v="1039442" />
		<tag k="ssr:type" v="adressenavn" />
	</node>
	<node lat="60.70076571025968" lon="6.578405106099568" id="-77664">
		<tag k="name" v="Helgasetvegen" />
		<tag k="ssr:date" v="2019-12-27" />
		<tag k="ssr:gruppe" v="veg" />
		<tag k="ssr:hovedgruppe" v="infrastruktur" />
		<tag k="ssr:stedsnr" v="1039443" />
		<tag k="ssr:type" v="adressenavn" />
	</node>
	<node lat="60.693480212700486" lon="6.855080228679753" id="-77665">
		<tag k="name" v="Elvatunet" />
		<tag k="ssr:date" v="2019-12-27" />
		<tag k="ssr:gruppe" v="veg" />
		<tag k="ssr:hovedgruppe" v="infrastruktur" />
		<tag k="ssr:stedsnr" v="1039444" />
		<tag k="ssr:type" v="adressenavn" />
	</node>
	<node lat="60.65214907453489" lon="6.42613705274457" id="-77666">
		<tag k="name" v="Gamle Bavallsvegen" />
		<tag k="ssr:date" v="2019-12-27" />
		<tag k="ssr:gruppe" v="veg" />
		<tag k="ssr:hovedgruppe" v="infrastruktur" />
		<tag k="ssr:stedsnr" v="1039445" />
		<tag k="ssr:type" v="adressenavn" />
	</node>
	<node lat="60.69352686424793" lon="6.858309711849997" id="-77667">
		<tag k="name" v="Hedlesmoget" />
		<tag k="ssr:date" v="2019-12-27" />
		<tag k="ssr:gruppe" v="veg" />
		<tag k="ssr:hovedgruppe" v="infrastruktur" />
		<tag k="ssr:stedsnr" v="1039447" />
		<tag k="ssr:type" v="adressenavn" />
	</node>
	<node lat="60.693428752671174" lon="6.8553514524471675" id="-77668">
		<tag k="name" v="Mjølfjelltunet" />
		<tag k="ssr:date" v="2019-12-27" />
		<tag k="ssr:gruppe" v="veg" />
		<tag k="ssr:hovedgruppe" v="infrastruktur" />
		<tag k="ssr:stedsnr" v="1039448" />
		<tag k="ssr:type" v="adressenavn" />
	</node>
	<node lat="60.719948296828164" lon="6.4306700423415" id="-77669">
		<tag k="name" v="Kroni" />
		<tag k="ssr:date" v="2019-12-27" />
		<tag k="ssr:gruppe" v="veg" />
		<tag k="ssr:hovedgruppe" v="infrastruktur" />
		<tag k="ssr:stedsnr" v="1039449" />
		<tag k="ssr:type" v="adressenavn" />
	</node>
	<node lat="60.60096145001068" lon="6.4658714368947185" id="-77670">
		<tag k="name" v="Nedre Oldesåsen" />
		<tag k="ssr:date" v="2019-12-27" />
		<tag k="ssr:gruppe" v="veg" />
		<tag k="ssr:hovedgruppe" v="infrastruktur" />
		<tag k="ssr:stedsnr" v="1039450" />
		<tag k="ssr:type" v="adressenavn" />
	</node>
	<node lat="60.61542645632157" lon="6.473544553014422" id="-77671">
		<tag k="name" v="Vikeshagen" />
		<tag k="ssr:date" v="2019-12-27" />
		<tag k="ssr:gruppe" v="veg" />
		<tag k="ssr:hovedgruppe" v="infrastruktur" />
		<tag k="ssr:stedsnr" v="1039451" />
		<tag k="ssr:type" v="adressenavn" />
	</node>
	<node lat="60.60470093427579" lon="6.464610264457164" id="-77672">
		<tag k="name" v="Himlesdalen" />
		<tag k="ssr:date" v="2019-12-27" />
		<tag k="ssr:gruppe" v="veg" />
		<tag k="ssr:hovedgruppe" v="infrastruktur" />
		<tag k="ssr:stedsnr" v="1039452" />
		<tag k="ssr:type" v="adressenavn" />
	</node>
	<node lat="60.624913029210184" lon="6.390349022586364" id="-77673">
		<tag k="name" v="Eskelandsvegen" />
		<tag k="ssr:date" v="2019-12-27" />
		<tag k="ssr:gruppe" v="veg" />
		<tag k="ssr:hovedgruppe" v="infrastruktur" />
		<tag k="ssr:stedsnr" v="1039305" />
		<tag k="ssr:type" v="adressenavn" />
	</node>
	<node lat="60.62934523934774" lon="6.433005114896481" id="-77674">
		<tag k="name" v="Meierivegen" />
		<tag k="ssr:date" v="2019-12-27" />
		<tag k="ssr:gruppe" v="veg" />
		<tag k="ssr:hovedgruppe" v="infrastruktur" />
		<tag k="ssr:stedsnr" v="1039306" />
		<tag k="ssr:type" v="adressenavn" />
	</node>
	<node lat="60.62890028314769" lon="6.445705782595464" id="-77675">
		<tag k="name" v="Brynavegen" />
		<tag k="ssr:date" v="2019-12-27" />
		<tag k="ssr:gruppe" v="veg" />
		<tag k="ssr:hovedgruppe" v="infrastruktur" />
		<tag k="ssr:stedsnr" v="1039309" />
		<tag k="ssr:type" v="adressenavn" />
	</node>
	<node lat="60.627839693058064" lon="6.392060492472177" id="-77676">
		<tag k="name" v="Burekkje" />
		<tag k="ssr:date" v="2019-12-27" />
		<tag k="ssr:gruppe" v="veg" />
		<tag k="ssr:hovedgruppe" v="infrastruktur" />
		<tag k="ssr:stedsnr" v="1039310" />
		<tag k="ssr:type" v="adressenavn" />
	</node>
	<node lat="60.627839693058064" lon="6.392060492472177" id="-77677">
		<tag k="name" v="Kalvatrevegen" />
		<tag k="ssr:date" v="2019-12-27" />
		<tag k="ssr:gruppe" v="veg" />
		<tag k="ssr:hovedgruppe" v="infrastruktur" />
		<tag k="ssr:stedsnr" v="1039311" />
		<tag k="ssr:type" v="adressenavn" />
	</node>
	<node lat="60.627800081577384" lon="6.384551591068365" id="-77678">
		<tag k="name" v="Brekkevegen" />
		<tag k="ssr:date" v="2019-12-27" />
		<tag k="ssr:gruppe" v="veg" />
		<tag k="ssr:hovedgruppe" v="infrastruktur" />
		<tag k="ssr:stedsnr" v="1039312" />
		<tag k="ssr:type" v="adressenavn" />
	</node>
	<node lat="60.625595157325264" lon="6.419771387936735" id="-77679">
		<tag k="name" v="Idrottsvegen" />
		<tag k="ssr:date" v="2019-12-27" />
		<tag k="ssr:gruppe" v="veg" />
		<tag k="ssr:hovedgruppe" v="infrastruktur" />
		<tag k="ssr:stedsnr" v="1039313" />
		<tag k="ssr:type" v="adressenavn" />
	</node>
	<node lat="60.6276781719381" lon="6.421126486128253" id="-77680">
		<tag k="name" v="Hestabakkvegen" />
		<tag k="ssr:date" v="2019-12-27" />
		<tag k="ssr:gruppe" v="veg" />
		<tag k="ssr:hovedgruppe" v="infrastruktur" />
		<tag k="ssr:stedsnr" v="1039314" />
		<tag k="ssr:type" v="adressenavn" />
	</node>
	<node lat="60.62786225700358" lon="6.416951222953701" id="-77681">
		<tag k="name" v="Prestegardsalleen" />
		<tag k="ssr:date" v="2019-12-27" />
		<tag k="ssr:gruppe" v="veg" />
		<tag k="ssr:hovedgruppe" v="infrastruktur" />
		<tag k="ssr:stedsnr" v="1039315" />
		<tag k="ssr:type" v="adressenavn" />
	</node>
	<node lat="60.62838394489566" lon="6.415709240173441" id="-77682">
		<tag k="name" v="Holbergsplassen" />
		<tag k="ssr:date" v="2019-12-27" />
		<tag k="ssr:gruppe" v="veg" />
		<tag k="ssr:hovedgruppe" v="infrastruktur" />
		<tag k="ssr:stedsnr" v="1039316" />
		<tag k="ssr:type" v="adressenavn" />
	</node>
	<node lat="60.63585535282765" lon="6.4492590290963445" id="-77683">
		<tag k="name" v="Gilbaret" />
		<tag k="ssr:date" v="2019-12-27" />
		<tag k="ssr:gruppe" v="veg" />
		<tag k="ssr:hovedgruppe" v="infrastruktur" />
		<tag k="ssr:stedsnr" v="1039317" />
		<tag k="ssr:type" v="adressenavn" />
	</node>
	<node lat="60.625107410338" lon="6.389647183261609" id="-77684">
		<tag k="name" v="Lydvavegen" />
		<tag k="ssr:date" v="2019-12-27" />
		<tag k="ssr:gruppe" v="veg" />
		<tag k="ssr:hovedgruppe" v="infrastruktur" />
		<tag k="ssr:stedsnr" v="1039318" />
		<tag k="ssr:type" v="adressenavn" />
	</node>
	<node lat="60.63115850483616" lon="6.428815891885117" id="-77685">
		<tag k="name" v="Tvildesvegen" />
		<tag k="ssr:date" v="2019-12-27" />
		<tag k="ssr:gruppe" v="veg" />
		<tag k="ssr:hovedgruppe" v="infrastruktur" />
		<tag k="ssr:stedsnr" v="1039320" />
		<tag k="ssr:type" v="adressenavn" />
	</node>
	<node lat="60.63735223297514" lon="6.478424400657202" id="-77686">
		<tag k="name" v="Flyplassvegen" />
		<tag k="ssr:date" v="2019-12-27" />
		<tag k="ssr:gruppe" v="veg" />
		<tag k="ssr:hovedgruppe" v="infrastruktur" />
		<tag k="ssr:stedsnr" v="1039321" />
		<tag k="ssr:type" v="adressenavn" />
	</node>
	<node lat="60.637333474155014" lon="6.467418133797504" id="-77687">
		<tag k="name" v="Gamle Rykkesvegen" />
		<tag k="ssr:date" v="2019-12-27" />
		<tag k="ssr:gruppe" v="veg" />
		<tag k="ssr:hovedgruppe" v="infrastruktur" />
		<tag k="ssr:stedsnr" v="1039323" />
		<tag k="ssr:type" v="adressenavn" />
	</node>
	<node lat="60.654479759912036" lon="6.439504034103434" id="-77688">
		<tag k="name" v="Båtskottræet" />
		<tag k="ssr:date" v="2019-12-27" />
		<tag k="ssr:gruppe" v="veg" />
		<tag k="ssr:hovedgruppe" v="infrastruktur" />
		<tag k="ssr:stedsnr" v="1039325" />
		<tag k="ssr:type" v="adressenavn" />
	</node>
	<node lat="60.65491071705399" lon="6.443942823009938" id="-77689">
		<tag k="name" v="Dugstadfossen" />
		<tag k="ssr:date" v="2019-12-27" />
		<tag k="ssr:gruppe" v="veg" />
		<tag k="ssr:hovedgruppe" v="infrastruktur" />
		<tag k="ssr:stedsnr" v="1039327" />
		<tag k="ssr:type" v="adressenavn" />
	</node>
	<node lat="60.6285212689533" lon="6.446369442114678" id="-77690">
		<tag k="name" v="Haugateigen" />
		<tag k="ssr:date" v="2019-12-27" />
		<tag k="ssr:gruppe" v="veg" />
		<tag k="ssr:hovedgruppe" v="infrastruktur" />
		<tag k="ssr:stedsnr" v="1039329" />
		<tag k="ssr:type" v="adressenavn" />
	</node>
	<node lat="60.616387065554854" lon="6.4205375600663945" id="-77691">
		<tag k="name" v="Helgavangen" />
		<tag k="ssr:date" v="2019-12-27" />
		<tag k="ssr:gruppe" v="veg" />
		<tag k="ssr:hovedgruppe" v="infrastruktur" />
		<tag k="ssr:stedsnr" v="1039331" />
		<tag k="ssr:type" v="adressenavn" />
	</node>
	<node lat="60.615848776408804" lon="6.419139567370874" id="-77692">
		<tag k="name" v="Gjernesmoen" />
		<tag k="ssr:date" v="2019-12-27" />
		<tag k="ssr:gruppe" v="veg" />
		<tag k="ssr:hovedgruppe" v="infrastruktur" />
		<tag k="ssr:stedsnr" v="1039333" />
		<tag k="ssr:type" v="adressenavn" />
	</node>
	<node lat="60.65800379538422" lon="6.4231578148351165" id="-77693">
		<tag k="name" v="Grevlesvegen" />
		<tag k="ssr:date" v="2019-12-27" />
		<tag k="ssr:gruppe" v="veg" />
		<tag k="ssr:hovedgruppe" v="infrastruktur" />
		<tag k="ssr:stedsnr" v="1039335" />
		<tag k="ssr:type" v="adressenavn" />
	</node>
	<node lat="60.68159183067299" lon="6.727007228623453" id="-77694">
		<tag k="name" v="Gamle Reimesvegen" />
		<tag k="ssr:date" v="2019-12-27" />
		<tag k="ssr:gruppe" v="veg" />
		<tag k="ssr:hovedgruppe" v="infrastruktur" />
		<tag k="ssr:stedsnr" v="1039386" />
		<tag k="ssr:type" v="adressenavn" />
	</node>
	<node lat="60.685632356978815" lon="6.732224188597548" id="-77695">
		<tag k="name" v="Brekkestølsvegen" />
		<tag k="ssr:date" v="2019-12-27" />
		<tag k="ssr:gruppe" v="veg" />
		<tag k="ssr:hovedgruppe" v="infrastruktur" />
		<tag k="ssr:stedsnr" v="1039387" />
		<tag k="ssr:type" v="adressenavn" />
	</node>
	<node lat="60.668002346682435" lon="6.520368248692149" id="-77696">
		<tag k="name" v="Koladiket" />
		<tag k="ssr:date" v="2019-12-27" />
		<tag k="ssr:gruppe" v="veg" />
		<tag k="ssr:hovedgruppe" v="infrastruktur" />
		<tag k="ssr:stedsnr" v="1039388" />
		<tag k="ssr:type" v="adressenavn" />
	</node>
	<node lat="60.681019500750395" lon="6.739755969031535" id="-77697">
		<tag k="name" v="Øvsthusvegen" />
		<tag k="ssr:date" v="2019-12-27" />
		<tag k="ssr:gruppe" v="veg" />
		<tag k="ssr:hovedgruppe" v="infrastruktur" />
		<tag k="ssr:stedsnr" v="1039389" />
		<tag k="ssr:type" v="adressenavn" />
	</node>
	<node lat="60.8039700983637" lon="6.569093530262632" id="-77698">
		<tag k="name" v="Tveitaleitet" />
		<tag k="ssr:date" v="2019-12-27" />
		<tag k="ssr:gruppe" v="veg" />
		<tag k="ssr:hovedgruppe" v="infrastruktur" />
		<tag k="ssr:stedsnr" v="1039390" />
		<tag k="ssr:type" v="adressenavn" />
	</node>
	<node lat="60.83178198079677" lon="6.567313608131256" id="-77699">
		<tag k="name" v="Martheimstølen" />
		<tag k="ssr:date" v="2019-12-27" />
		<tag k="ssr:gruppe" v="veg" />
		<tag k="ssr:hovedgruppe" v="infrastruktur" />
		<tag k="ssr:stedsnr" v="1039391" />
		<tag k="ssr:type" v="adressenavn" />
	</node>
	<node lat="60.85357607299697" lon="6.558880794800739" id="-77700">
		<tag k="name" v="Kvanndalen" />
		<tag k="ssr:date" v="2019-12-27" />
		<tag k="ssr:gruppe" v="veg" />
		<tag k="ssr:hovedgruppe" v="infrastruktur" />
		<tag k="ssr:stedsnr" v="1039392" />
		<tag k="ssr:type" v="adressenavn" />
	</node>
	<node lat="60.67142910679117" lon="6.7428005905348805" id="-77701">
		<tag k="name" v="Reimesstølen" />
		<tag k="ssr:date" v="2019-12-27" />
		<tag k="ssr:gruppe" v="veg" />
		<tag k="ssr:hovedgruppe" v="infrastruktur" />
		<tag k="ssr:stedsnr" v="1039393" />
		<tag k="ssr:type" v="adressenavn" />
	</node>
	<node lat="60.66620932751989" lon="6.773458627550302" id="-77702">
		<tag k="name" v="Vetlaheggstølen" />
		<tag k="ssr:date" v="2019-12-27" />
		<tag k="ssr:gruppe" v="veg" />
		<tag k="ssr:hovedgruppe" v="infrastruktur" />
		<tag k="ssr:stedsnr" v="1039394" />
		<tag k="ssr:type" v="adressenavn" />
	</node>
	<node lat="60.66824448101439" lon="6.631713664056439" id="-77703">
		<tag k="name" v="Raundals-Liaset" />
		<tag k="ssr:date" v="2019-12-27" />
		<tag k="ssr:gruppe" v="veg" />
		<tag k="ssr:hovedgruppe" v="infrastruktur" />
		<tag k="ssr:stedsnr" v="1039395" />
		<tag k="ssr:type" v="adressenavn" />
	</node>
	<node lat="60.66317123676017" lon="6.683296416594567" id="-77704">
		<tag k="name" v="Bjørnset" />
		<tag k="ssr:date" v="2019-12-27" />
		<tag k="ssr:gruppe" v="veg" />
		<tag k="ssr:hovedgruppe" v="infrastruktur" />
		<tag k="ssr:stedsnr" v="1039396" />
		<tag k="ssr:type" v="adressenavn" />
	</node>
	<node lat="60.67867964687913" lon="6.734203377759164" id="-77705">
		<tag k="name" v="Nedre Reime" />
		<tag k="ssr:date" v="2019-12-27" />
		<tag k="ssr:gruppe" v="veg" />
		<tag k="ssr:hovedgruppe" v="infrastruktur" />
		<tag k="ssr:stedsnr" v="1039397" />
		<tag k="ssr:type" v="adressenavn" />
	</node>
	<node lat="60.68329736239139" lon="6.650136438673231" id="-77706">
		<tag k="name" v="Mon" />
		<tag k="ssr:date" v="2019-12-27" />
		<tag k="ssr:gruppe" v="veg" />
		<tag k="ssr:hovedgruppe" v="infrastruktur" />
		<tag k="ssr:stedsnr" v="1039398" />
		<tag k="ssr:type" v="adressenavn" />
	</node>
	<node lat="60.68442650832803" lon="6.726693409763962" id="-77707">
		<tag k="name" v="Sverrdalen" />
		<tag k="ssr:date" v="2019-12-27" />
		<tag k="ssr:gruppe" v="veg" />
		<tag k="ssr:hovedgruppe" v="infrastruktur" />
		<tag k="ssr:stedsnr" v="1039399" />
		<tag k="ssr:type" v="adressenavn" />
	</node>
	<node lat="60.66649587005752" lon="6.782713857754359" id="-77708">
		<tag k="name" v="Vollbotnen" />
		<tag k="ssr:date" v="2019-12-27" />
		<tag k="ssr:gruppe" v="veg" />
		<tag k="ssr:hovedgruppe" v="infrastruktur" />
		<tag k="ssr:stedsnr" v="1039400" />
		<tag k="ssr:type" v="adressenavn" />
	</node>
	<node lat="60.68679224751609" lon="6.612951962022623" id="-77709">
		<tag k="name" v="Raundals-Håset" />
		<tag k="ssr:date" v="2019-12-27" />
		<tag k="ssr:gruppe" v="veg" />
		<tag k="ssr:hovedgruppe" v="infrastruktur" />
		<tag k="ssr:stedsnr" v="1039401" />
		<tag k="ssr:type" v="adressenavn" />
	</node>
	<node lat="60.702625117362174" lon="6.592151855366909" id="-77710">
		<tag k="name" v="Stegabergsvegen" />
		<tag k="ssr:date" v="2019-12-27" />
		<tag k="ssr:gruppe" v="veg" />
		<tag k="ssr:hovedgruppe" v="infrastruktur" />
		<tag k="ssr:stedsnr" v="1039402" />
		<tag k="ssr:type" v="adressenavn" />
	</node>
	<node lat="60.56083147004223" lon="6.612813243973608" id="-77711">
		<tag k="name" v="Kjeatjørni" />
		<tag k="ssr:date" v="2019-12-27" />
		<tag k="ssr:gruppe" v="veg" />
		<tag k="ssr:hovedgruppe" v="infrastruktur" />
		<tag k="ssr:stedsnr" v="1039403" />
		<tag k="ssr:type" v="adressenavn" />
	</node>
	<node lat="60.5677036571738" lon="6.626050315432117" id="-77712">
		<tag k="name" v="Lyklaset" />
		<tag k="ssr:date" v="2019-12-27" />
		<tag k="ssr:gruppe" v="veg" />
		<tag k="ssr:hovedgruppe" v="infrastruktur" />
		<tag k="ssr:stedsnr" v="1039404" />
		<tag k="ssr:type" v="adressenavn" />
	</node>
	<node lat="60.56231771577737" lon="6.610732764949589" id="-77713">
		<tag k="name" v="Stuasetvegen" />
		<tag k="ssr:date" v="2019-12-27" />
		<tag k="ssr:gruppe" v="veg" />
		<tag k="ssr:hovedgruppe" v="infrastruktur" />
		<tag k="ssr:stedsnr" v="1039405" />
		<tag k="ssr:type" v="adressenavn" />
	</node>
	<node lat="60.56139384571477" lon="6.596048267365708" id="-77714">
		<tag k="name" v="Langeholmvegen" />
		<tag k="ssr:date" v="2019-12-27" />
		<tag k="ssr:gruppe" v="veg" />
		<tag k="ssr:hovedgruppe" v="infrastruktur" />
		<tag k="ssr:stedsnr" v="1039406" />
		<tag k="ssr:type" v="adressenavn" />
	</node>
	<node lat="60.6157772213105" lon="6.62987047774944" id="-77715">
		<tag k="name" v="Krakalii" />
		<tag k="ssr:date" v="2019-12-27" />
		<tag k="ssr:gruppe" v="veg" />
		<tag k="ssr:hovedgruppe" v="infrastruktur" />
		<tag k="ssr:stedsnr" v="1039407" />
		<tag k="ssr:type" v="adressenavn" />
	</node>
	<node lat="60.62832814825349" lon="6.632243817807065" id="-77716">
		<tag k="name" v="Steindro" />
		<tag k="ssr:date" v="2019-12-27" />
		<tag k="ssr:gruppe" v="veg" />
		<tag k="ssr:hovedgruppe" v="infrastruktur" />
		<tag k="ssr:stedsnr" v="1039408" />
		<tag k="ssr:type" v="adressenavn" />
	</node>
	<node lat="60.5580257247598" lon="6.587242381874737" id="-77717">
		<tag k="name" v="Grønlii" />
		<tag k="ssr:date" v="2019-12-27" />
		<tag k="ssr:gruppe" v="veg" />
		<tag k="ssr:hovedgruppe" v="infrastruktur" />
		<tag k="ssr:stedsnr" v="1039409" />
		<tag k="ssr:type" v="adressenavn" />
	</node>
	<node lat="60.61367977270434" lon="6.632656099534265" id="-77718">
		<tag k="name" v="Dalset" />
		<tag k="ssr:date" v="2019-12-27" />
		<tag k="ssr:gruppe" v="veg" />
		<tag k="ssr:hovedgruppe" v="infrastruktur" />
		<tag k="ssr:stedsnr" v="1039410" />
		<tag k="ssr:type" v="adressenavn" />
	</node>
	<node lat="60.586289327082596" lon="6.550420556845775" id="-77719">
		<tag k="name" v="Lia-Helgasetvegen" />
		<tag k="ssr:date" v="2019-12-27" />
		<tag k="ssr:gruppe" v="veg" />
		<tag k="ssr:hovedgruppe" v="infrastruktur" />
		<tag k="ssr:stedsnr" v="1039411" />
		<tag k="ssr:type" v="adressenavn" />
	</node>
	<node lat="60.584494022777385" lon="6.539315104677427" id="-77720">
		<tag k="name" v="Lia-Løkjane" />
		<tag k="ssr:date" v="2019-12-27" />
		<tag k="ssr:gruppe" v="veg" />
		<tag k="ssr:hovedgruppe" v="infrastruktur" />
		<tag k="ssr:stedsnr" v="1039412" />
		<tag k="ssr:type" v="adressenavn" />
	</node>
	<node lat="60.588835396857164" lon="6.56270277745886" id="-77721">
		<tag k="name" v="Langesetvegen" />
		<tag k="ssr:date" v="2019-12-27" />
		<tag k="ssr:gruppe" v="veg" />
		<tag k="ssr:hovedgruppe" v="infrastruktur" />
		<tag k="ssr:stedsnr" v="1039413" />
		<tag k="ssr:type" v="adressenavn" />
	</node>
	<node lat="60.549046085230195" lon="6.589854730269551" id="-77722">
		<tag k="name" v="Byrsetvegen" />
		<tag k="ssr:date" v="2019-12-27" />
		<tag k="ssr:gruppe" v="veg" />
		<tag k="ssr:hovedgruppe" v="infrastruktur" />
		<tag k="ssr:stedsnr" v="1039414" />
		<tag k="ssr:type" v="adressenavn" />
	</node>
	<node lat="60.59352134987084" lon="6.5774409284027024" id="-77723">
		<tag k="name" v="Vindbergsvegen" />
		<tag k="ssr:date" v="2019-12-27" />
		<tag k="ssr:gruppe" v="veg" />
		<tag k="ssr:hovedgruppe" v="infrastruktur" />
		<tag k="ssr:stedsnr" v="1039415" />
		<tag k="ssr:type" v="adressenavn" />
	</node>
	<node lat="60.672581422684516" lon="6.566266461478822" id="-77724">
		<tag k="name" v="Meringavegen" />
		<tag k="ssr:date" v="2019-12-27" />
		<tag k="ssr:gruppe" v="veg" />
		<tag k="ssr:hovedgruppe" v="infrastruktur" />
		<tag k="ssr:stedsnr" v="1039416" />
		<tag k="ssr:type" v="adressenavn" />
	</node>
	<node lat="60.679460528488505" lon="6.60734980248992" id="-77725">
		<tag k="name" v="Lindbergsvegen" />
		<tag k="ssr:date" v="2019-12-27" />
		<tag k="ssr:gruppe" v="veg" />
		<tag k="ssr:hovedgruppe" v="infrastruktur" />
		<tag k="ssr:stedsnr" v="1039417" />
		<tag k="ssr:type" v="adressenavn" />
	</node>
	<node lat="60.710067562293695" lon="6.901467004103844" id="-77726">
		<tag k="name" v="Ljosandgrøvene" />
		<tag k="ssr:date" v="2019-12-27" />
		<tag k="ssr:gruppe" v="veg" />
		<tag k="ssr:hovedgruppe" v="infrastruktur" />
		<tag k="ssr:stedsnr" v="1039418" />
		<tag k="ssr:type" v="adressenavn" />
	</node>
	<node lat="60.681324829564396" lon="6.637231095964394" id="-77727">
		<tag k="name" v="Kolvesvegen" />
		<tag k="ssr:date" v="2019-12-27" />
		<tag k="ssr:gruppe" v="veg" />
		<tag k="ssr:hovedgruppe" v="infrastruktur" />
		<tag k="ssr:stedsnr" v="1039419" />
		<tag k="ssr:type" v="adressenavn" />
	</node>
	<node lat="60.69366150438648" lon="6.671969794744387" id="-77728">
		<tag k="name" v="Beres-Øyaset" />
		<tag k="ssr:date" v="2019-12-27" />
		<tag k="ssr:gruppe" v="veg" />
		<tag k="ssr:hovedgruppe" v="infrastruktur" />
		<tag k="ssr:stedsnr" v="1039420" />
		<tag k="ssr:type" v="adressenavn" />
	</node>
	<node lat="60.67706267070338" lon="6.644955944023888" id="-77729">
		<tag k="name" v="Nedrestølen" />
		<tag k="ssr:date" v="2019-12-27" />
		<tag k="ssr:gruppe" v="veg" />
		<tag k="ssr:hovedgruppe" v="infrastruktur" />
		<tag k="ssr:stedsnr" v="1039421" />
		<tag k="ssr:type" v="adressenavn" />
	</node>
	<node lat="60.680255198826686" lon="6.6815233749423655" id="-77730">
		<tag k="name" v="Beresvegen" />
		<tag k="ssr:date" v="2019-12-27" />
		<tag k="ssr:gruppe" v="veg" />
		<tag k="ssr:hovedgruppe" v="infrastruktur" />
		<tag k="ssr:stedsnr" v="1039422" />
		<tag k="ssr:type" v="adressenavn" />
	</node>
	<node lat="60.68641440318616" lon="6.820132534663196" id="-77731">
		<tag k="name" v="Hagen" />
		<tag k="ssr:date" v="2019-12-27" />
		<tag k="ssr:gruppe" v="veg" />
		<tag k="ssr:hovedgruppe" v="infrastruktur" />
		<tag k="ssr:stedsnr" v="1039423" />
		<tag k="ssr:type" v="adressenavn" />
	</node>
	<node lat="60.69536120976297" lon="6.843544017967017" id="-77732">
		<tag k="name" v="Rjoanddalen" />
		<tag k="ssr:date" v="2019-12-27" />
		<tag k="ssr:gruppe" v="veg" />
		<tag k="ssr:hovedgruppe" v="infrastruktur" />
		<tag k="ssr:stedsnr" v="1039424" />
		<tag k="ssr:type" v="adressenavn" />
	</node>
	<node lat="60.69441067443906" lon="6.868587083490393" id="-77733">
		<tag k="name" v="Kleivavegen" />
		<tag k="ssr:date" v="2019-12-27" />
		<tag k="ssr:gruppe" v="veg" />
		<tag k="ssr:hovedgruppe" v="infrastruktur" />
		<tag k="ssr:stedsnr" v="1039425" />
		<tag k="ssr:type" v="adressenavn" />
	</node>
	<node lat="60.69053348305379" lon="6.838206061362448" id="-77734">
		<tag k="name" v="Allmenningsvegen" />
		<tag k="ssr:date" v="2019-12-27" />
		<tag k="ssr:gruppe" v="veg" />
		<tag k="ssr:hovedgruppe" v="infrastruktur" />
		<tag k="ssr:stedsnr" v="1039426" />
		<tag k="ssr:type" v="adressenavn" />
	</node>
	<node lat="60.712253302609795" lon="6.904818087827012" id="-77735">
		<tag k="name" v="Ljosanddalen" />
		<tag k="ssr:date" v="2019-12-27" />
		<tag k="ssr:gruppe" v="veg" />
		<tag k="ssr:hovedgruppe" v="infrastruktur" />
		<tag k="ssr:stedsnr" v="1039427" />
		<tag k="ssr:type" v="adressenavn" />
	</node>
	<node lat="60.70921918790846" lon="6.900612845268843" id="-77736">
		<tag k="name" v="Ljosandbotnen" />
		<tag k="ssr:date" v="2019-12-27" />
		<tag k="ssr:gruppe" v="veg" />
		<tag k="ssr:hovedgruppe" v="infrastruktur" />
		<tag k="ssr:stedsnr" v="1039428" />
		<tag k="ssr:type" v="adressenavn" />
	</node>
	<node lat="60.69500805912952" lon="6.8404930222367515" id="-77737">
		<tag k="name" v="Klyvsstølen" />
		<tag k="ssr:date" v="2019-12-27" />
		<tag k="ssr:gruppe" v="veg" />
		<tag k="ssr:hovedgruppe" v="infrastruktur" />
		<tag k="ssr:stedsnr" v="1039429" />
		<tag k="ssr:type" v="adressenavn" />
	</node>
	<node lat="60.69533394015508" lon="6.848456624186077" id="-77738">
		<tag k="name" v="Rjoandfossen" />
		<tag k="ssr:date" v="2019-12-27" />
		<tag k="ssr:gruppe" v="veg" />
		<tag k="ssr:hovedgruppe" v="infrastruktur" />
		<tag k="ssr:stedsnr" v="1039430" />
		<tag k="ssr:type" v="adressenavn" />
	</node>
	<node lat="60.829576969850045" lon="6.440548094562459" id="-77739">
		<tag k="name" v="Tveitastølsvegen" />
		<tag k="ssr:date" v="2019-12-27" />
		<tag k="ssr:gruppe" v="veg" />
		<tag k="ssr:hovedgruppe" v="infrastruktur" />
		<tag k="ssr:stedsnr" v="1039431" />
		<tag k="ssr:type" v="adressenavn" />
	</node>
	<node lat="60.61327204365516" lon="6.585417378857705" id="-77740">
		<tag k="name" v="Fennastølsvegen" />
		<tag k="ssr:date" v="2019-12-27" />
		<tag k="ssr:gruppe" v="veg" />
		<tag k="ssr:hovedgruppe" v="infrastruktur" />
		<tag k="ssr:stedsnr" v="1039432" />
		<tag k="ssr:type" v="adressenavn" />
	</node>
	<node lat="60.72707221732076" lon="6.601243715810154" id="-77741">
		<tag k="name" v="Remlevegen" />
		<tag k="ssr:date" v="2019-12-27" />
		<tag k="ssr:gruppe" v="veg" />
		<tag k="ssr:hovedgruppe" v="infrastruktur" />
		<tag k="ssr:stedsnr" v="1039433" />
		<tag k="ssr:type" v="adressenavn" />
	</node>
	<node lat="60.69750628296163" lon="6.581068502867447" id="-77742">
		<tag k="name" v="Moldalii" />
		<tag k="ssr:date" v="2019-12-27" />
		<tag k="ssr:gruppe" v="veg" />
		<tag k="ssr:hovedgruppe" v="infrastruktur" />
		<tag k="ssr:stedsnr" v="1039434" />
		<tag k="ssr:type" v="adressenavn" />
	</node>
	<node lat="60.667930060118785" lon="6.5200083229209" id="-77743">
		<tag k="name" v="Hadlingen" />
		<tag k="ssr:date" v="2019-12-27" />
		<tag k="ssr:gruppe" v="veg" />
		<tag k="ssr:hovedgruppe" v="infrastruktur" />
		<tag k="ssr:stedsnr" v="1039435" />
		<tag k="ssr:type" v="adressenavn" />
	</node>
	<node lat="60.60567563914706" lon="6.147024917538173" id="-77744">
		<tag k="name" v="Flagastølsvegen" />
		<tag k="ssr:date" v="2019-12-27" />
		<tag k="ssr:gruppe" v="veg" />
		<tag k="ssr:hovedgruppe" v="infrastruktur" />
		<tag k="ssr:stedsnr" v="1039486" />
		<tag k="ssr:type" v="adressenavn" />
	</node>
	<node lat="60.646428991481145" lon="6.313676822359553" id="-77745">
		<tag k="name" v="Buneldsvegen" />
		<tag k="ssr:date" v="2019-12-27" />
		<tag k="ssr:gruppe" v="veg" />
		<tag k="ssr:hovedgruppe" v="infrastruktur" />
		<tag k="ssr:stedsnr" v="1039487" />
		<tag k="ssr:type" v="adressenavn" />
	</node>
	<node lat="60.6434226361096" lon="6.330102824351242" id="-77746">
		<tag k="name" v="Arhellervegen" />
		<tag k="ssr:date" v="2019-12-27" />
		<tag k="ssr:gruppe" v="veg" />
		<tag k="ssr:hovedgruppe" v="infrastruktur" />
		<tag k="ssr:stedsnr" v="1039488" />
		<tag k="ssr:type" v="adressenavn" />
	</node>
	<node lat="60.673555628942324" lon="6.328341162558282" id="-77747">
		<tag k="name" v="Hedlo" />
		<tag k="ssr:date" v="2019-12-27" />
		<tag k="ssr:gruppe" v="veg" />
		<tag k="ssr:hovedgruppe" v="infrastruktur" />
		<tag k="ssr:stedsnr" v="1039489" />
		<tag k="ssr:type" v="adressenavn" />
	</node>
	<node lat="60.6464458813563" lon="6.3623662191399335" id="-77748">
		<tag k="name" v="Kiseldur" />
		<tag k="ssr:date" v="2019-12-27" />
		<tag k="ssr:gruppe" v="veg" />
		<tag k="ssr:hovedgruppe" v="infrastruktur" />
		<tag k="ssr:stedsnr" v="1039490" />
		<tag k="ssr:type" v="adressenavn" />
	</node>
	<node lat="60.64662568651167" lon="6.333445112031932" id="-77749">
		<tag k="name" v="Kvitingsvegen" />
		<tag k="ssr:date" v="2019-12-27" />
		<tag k="ssr:gruppe" v="veg" />
		<tag k="ssr:hovedgruppe" v="infrastruktur" />
		<tag k="ssr:stedsnr" v="1039491" />
		<tag k="ssr:type" v="adressenavn" />
	</node>
	<node lat="60.667549824674964" lon="6.199298288118413" id="-77750">
		<tag k="name" v="Lauvdalsvegen" />
		<tag k="ssr:date" v="2019-12-27" />
		<tag k="ssr:gruppe" v="veg" />
		<tag k="ssr:hovedgruppe" v="infrastruktur" />
		<tag k="ssr:stedsnr" v="1039492" />
		<tag k="ssr:type" v="adressenavn" />
	</node>
	<node lat="60.65644486543056" lon="6.269769252004168" id="-77751">
		<tag k="name" v="Listred" />
		<tag k="ssr:date" v="2019-12-27" />
		<tag k="ssr:gruppe" v="veg" />
		<tag k="ssr:hovedgruppe" v="infrastruktur" />
		<tag k="ssr:stedsnr" v="1039494" />
		<tag k="ssr:type" v="adressenavn" />
	</node>
	<node lat="60.64291416863124" lon="6.251863271993015" id="-77752">
		<tag k="name" v="Bergslia" />
		<tag k="ssr:date" v="2019-12-27" />
		<tag k="ssr:gruppe" v="veg" />
		<tag k="ssr:hovedgruppe" v="infrastruktur" />
		<tag k="ssr:stedsnr" v="1039496" />
		<tag k="ssr:type" v="adressenavn" />
	</node>
	<node lat="60.85214313751905" lon="6.4825434661254935" id="-77753">
		<tag k="name" v="Budeiehaugen" />
		<tag k="ssr:date" v="2019-12-27" />
		<tag k="ssr:gruppe" v="veg" />
		<tag k="ssr:hovedgruppe" v="infrastruktur" />
		<tag k="ssr:stedsnr" v="1039499" />
		<tag k="ssr:type" v="adressenavn" />
	</node>
	<node lat="60.85471309801088" lon="6.488822054463918" id="-77754">
		<tag k="name" v="Årmotssteinen" />
		<tag k="ssr:date" v="2019-12-27" />
		<tag k="ssr:gruppe" v="veg" />
		<tag k="ssr:hovedgruppe" v="infrastruktur" />
		<tag k="ssr:stedsnr" v="1039500" />
		<tag k="ssr:type" v="adressenavn" />
	</node>
	<node lat="60.853874342296464" lon="6.48692614710573" id="-77755">
		<tag k="name" v="Britahaugen" />
		<tag k="ssr:date" v="2019-12-27" />
		<tag k="ssr:gruppe" v="veg" />
		<tag k="ssr:hovedgruppe" v="infrastruktur" />
		<tag k="ssr:stedsnr" v="1039501" />
		<tag k="ssr:type" v="adressenavn" />
	</node>
	<node lat="60.83330692825514" lon="6.456585892840895" id="-77756">
		<tag k="name" v="Snytto" />
		<tag k="ssr:date" v="2019-12-27" />
		<tag k="ssr:gruppe" v="veg" />
		<tag k="ssr:hovedgruppe" v="infrastruktur" />
		<tag k="ssr:stedsnr" v="1039502" />
		<tag k="ssr:type" v="adressenavn" />
	</node>
	<node lat="60.657055366230836" lon="6.403574841692413" id="-77757">
		<tag k="name" v="Tråstølsvegen" />
		<tag k="ssr:date" v="2019-12-27" />
		<tag k="ssr:gruppe" v="veg" />
		<tag k="ssr:hovedgruppe" v="infrastruktur" />
		<tag k="ssr:stedsnr" v="1039503" />
		<tag k="ssr:type" v="adressenavn" />
	</node>
	<node lat="60.65861037715061" lon="6.4171017899126745" id="-77758">
		<tag k="name" v="Grevlesstølen" />
		<tag k="ssr:date" v="2019-12-27" />
		<tag k="ssr:gruppe" v="veg" />
		<tag k="ssr:hovedgruppe" v="infrastruktur" />
		<tag k="ssr:stedsnr" v="1039504" />
		<tag k="ssr:type" v="adressenavn" />
	</node>
	<node lat="60.86026930084626" lon="6.495661901991774" id="-77759">
		<tag k="name" v="Helgatunvegen" />
		<tag k="ssr:date" v="2019-12-27" />
		<tag k="ssr:gruppe" v="veg" />
		<tag k="ssr:hovedgruppe" v="infrastruktur" />
		<tag k="ssr:stedsnr" v="1039505" />
		<tag k="ssr:type" v="adressenavn" />
	</node>
	<node lat="60.860045974064676" lon="6.493326104165902" id="-77760">
		<tag k="name" v="Klypeteigen" />
		<tag k="ssr:date" v="2019-12-27" />
		<tag k="ssr:gruppe" v="veg" />
		<tag k="ssr:hovedgruppe" v="infrastruktur" />
		<tag k="ssr:stedsnr" v="1039506" />
		<tag k="ssr:type" v="adressenavn" />
	</node>
	<node lat="60.85849834665625" lon="6.49274317975268" id="-77761">
		<tag k="name" v="Feissgrovvegen" />
		<tag k="ssr:date" v="2019-12-27" />
		<tag k="ssr:gruppe" v="veg" />
		<tag k="ssr:hovedgruppe" v="infrastruktur" />
		<tag k="ssr:stedsnr" v="1039507" />
		<tag k="ssr:type" v="adressenavn" />
	</node>
	<node lat="60.64573351588578" lon="6.058789406803828" id="-77762">
		<tag k="name" v="Holemarki" />
		<tag k="ssr:date" v="2019-12-27" />
		<tag k="ssr:gruppe" v="veg" />
		<tag k="ssr:hovedgruppe" v="infrastruktur" />
		<tag k="ssr:stedsnr" v="1039508" />
		<tag k="ssr:type" v="adressenavn" />
	</node>
	<node lat="60.62960155377725" lon="6.082896300477864" id="-77763">
		<tag k="name" v="Vossedalen" />
		<tag k="ssr:date" v="2019-12-27" />
		<tag k="ssr:gruppe" v="veg" />
		<tag k="ssr:hovedgruppe" v="infrastruktur" />
		<tag k="ssr:stedsnr" v="1039509" />
		<tag k="ssr:type" v="adressenavn" />
	</node>
	<node lat="60.58730012132534" lon="6.467869075932604" id="-77764">
		<tag k="name" v="Øvre Nyhagen" />
		<tag k="ssr:date" v="2019-12-27" />
		<tag k="ssr:gruppe" v="veg" />
		<tag k="ssr:hovedgruppe" v="infrastruktur" />
		<tag k="ssr:stedsnr" v="1039510" />
		<tag k="ssr:type" v="adressenavn" />
	</node>
	<node lat="60.622574229084016" lon="6.431619906711727" id="-77765">
		<tag k="name" v="Hagabardet" />
		<tag k="ssr:date" v="2019-12-27" />
		<tag k="ssr:gruppe" v="veg" />
		<tag k="ssr:hovedgruppe" v="infrastruktur" />
		<tag k="ssr:stedsnr" v="1039511" />
		<tag k="ssr:type" v="adressenavn" />
	</node>
	<node lat="60.58730012132534" lon="6.467869075932604" id="-77766">
		<tag k="name" v="Nedre Nyhagen" />
		<tag k="ssr:date" v="2019-12-27" />
		<tag k="ssr:gruppe" v="veg" />
		<tag k="ssr:hovedgruppe" v="infrastruktur" />
		<tag k="ssr:stedsnr" v="1039512" />
		<tag k="ssr:type" v="adressenavn" />
	</node>
	<node lat="60.629009022538426" lon="6.007575448737136" id="-77767">
		<tag k="name" v="Jørnevikstølen" />
		<tag k="ssr:date" v="2019-12-27" />
		<tag k="ssr:gruppe" v="veg" />
		<tag k="ssr:hovedgruppe" v="infrastruktur" />
		<tag k="ssr:stedsnr" v="1039513" />
		<tag k="ssr:type" v="adressenavn" />
	</node>
	<node lat="60.645215980262094" lon="6.0154355115785245" id="-77768">
		<tag k="name" v="Jørnevikstrandi" />
		<tag k="ssr:date" v="2019-12-27" />
		<tag k="ssr:gruppe" v="veg" />
		<tag k="ssr:hovedgruppe" v="infrastruktur" />
		<tag k="ssr:stedsnr" v="1039514" />
		<tag k="ssr:type" v="adressenavn" />
	</node>
	<node lat="60.60144647040649" lon="6.466116969953315" id="-77769">
		<tag k="name" v="Øvre Oldesåsen" />
		<tag k="ssr:date" v="2019-12-27" />
		<tag k="ssr:gruppe" v="veg" />
		<tag k="ssr:hovedgruppe" v="infrastruktur" />
		<tag k="ssr:stedsnr" v="1039453" />
		<tag k="ssr:type" v="adressenavn" />
	</node>
	<node lat="60.61257091162921" lon="6.5006227741536735" id="-77770">
		<tag k="name" v="Skutlesmjølstølane" />
		<tag k="ssr:date" v="2019-12-27" />
		<tag k="ssr:gruppe" v="veg" />
		<tag k="ssr:hovedgruppe" v="infrastruktur" />
		<tag k="ssr:stedsnr" v="1039454" />
		<tag k="ssr:type" v="adressenavn" />
	</node>
	<node lat="60.70228916880264" lon="6.890783788354824" id="-77771">
		<tag k="name" v="Kårdalstunet" />
		<tag k="ssr:date" v="2019-12-27" />
		<tag k="ssr:gruppe" v="veg" />
		<tag k="ssr:hovedgruppe" v="infrastruktur" />
		<tag k="ssr:stedsnr" v="1039455" />
		<tag k="ssr:type" v="adressenavn" />
	</node>
	<node lat="60.613987858535495" lon="6.487441625175527" id="-77772">
		<tag k="name" v="Øvre Skutlesåsen" />
		<tag k="ssr:date" v="2019-12-27" />
		<tag k="ssr:gruppe" v="veg" />
		<tag k="ssr:hovedgruppe" v="infrastruktur" />
		<tag k="ssr:stedsnr" v="1039456" />
		<tag k="ssr:type" v="adressenavn" />
	</node>
	<node lat="60.613626829262095" lon="6.487732896203529" id="-77773">
		<tag k="name" v="Nedre Skutlesåsen" />
		<tag k="ssr:date" v="2019-12-27" />
		<tag k="ssr:gruppe" v="veg" />
		<tag k="ssr:hovedgruppe" v="infrastruktur" />
		<tag k="ssr:stedsnr" v="1039457" />
		<tag k="ssr:type" v="adressenavn" />
	</node>
	<node lat="60.61491864124118" lon="6.424778084718238" id="-77774">
		<tag k="name" v="Gjernestunet" />
		<tag k="ssr:date" v="2019-12-27" />
		<tag k="ssr:gruppe" v="veg" />
		<tag k="ssr:hovedgruppe" v="infrastruktur" />
		<tag k="ssr:stedsnr" v="1039459" />
		<tag k="ssr:type" v="adressenavn" />
	</node>
	<node lat="60.62493930958385" lon="6.330095800390615" id="-77775">
		<tag k="name" v="Yksnabjørgvegen" />
		<tag k="ssr:date" v="2019-12-27" />
		<tag k="ssr:gruppe" v="veg" />
		<tag k="ssr:hovedgruppe" v="infrastruktur" />
		<tag k="ssr:stedsnr" v="1039460" />
		<tag k="ssr:type" v="adressenavn" />
	</node>
	<node lat="60.7313985641171" lon="6.498610437726427" id="-77776">
		<tag k="name" v="Hustveit" />
		<tag k="ssr:date" v="2019-12-27" />
		<tag k="ssr:gruppe" v="veg" />
		<tag k="ssr:hovedgruppe" v="infrastruktur" />
		<tag k="ssr:stedsnr" v="1039461" />
		<tag k="ssr:type" v="adressenavn" />
	</node>
	<node lat="60.622331560225206" lon="6.500779750843533" id="-77777">
		<tag k="name" v="Auro" />
		<tag k="ssr:date" v="2019-12-27" />
		<tag k="ssr:gruppe" v="veg" />
		<tag k="ssr:hovedgruppe" v="infrastruktur" />
		<tag k="ssr:stedsnr" v="1039462" />
		<tag k="ssr:type" v="adressenavn" />
	</node>
	<node lat="60.66157881256554" lon="5.961412421325607" id="-77778">
		<tag k="name" v="Dunsen" />
		<tag k="ssr:date" v="2019-12-27" />
		<tag k="ssr:gruppe" v="veg" />
		<tag k="ssr:hovedgruppe" v="infrastruktur" />
		<tag k="ssr:stedsnr" v="1039463" />
		<tag k="ssr:type" v="adressenavn" />
	</node>
	<node lat="60.54131887337766" lon="6.344339863684302" id="-77779">
		<tag k="name" v="Torfinnsdalen" />
		<tag k="ssr:date" v="2019-12-27" />
		<tag k="ssr:gruppe" v="veg" />
		<tag k="ssr:hovedgruppe" v="infrastruktur" />
		<tag k="ssr:stedsnr" v="1039465" />
		<tag k="ssr:type" v="adressenavn" />
	</node>
	<node lat="60.55605631590957" lon="6.279191151903223" id="-77780">
		<tag k="name" v="Grøno" />
		<tag k="ssr:date" v="2019-12-27" />
		<tag k="ssr:gruppe" v="veg" />
		<tag k="ssr:hovedgruppe" v="infrastruktur" />
		<tag k="ssr:stedsnr" v="1039466" />
		<tag k="ssr:type" v="adressenavn" />
	</node>
	<node lat="60.560889111371885" lon="6.297839939421905" id="-77781">
		<tag k="name" v="Slåttebakkahorgi" />
		<tag k="ssr:date" v="2019-12-27" />
		<tag k="ssr:gruppe" v="veg" />
		<tag k="ssr:hovedgruppe" v="infrastruktur" />
		<tag k="ssr:stedsnr" v="1039467" />
		<tag k="ssr:type" v="adressenavn" />
	</node>
	<node lat="60.54445501786176" lon="6.1898304091681835" id="-77782">
		<tag k="name" v="Sveindalen" />
		<tag k="ssr:date" v="2019-12-27" />
		<tag k="ssr:gruppe" v="veg" />
		<tag k="ssr:hovedgruppe" v="infrastruktur" />
		<tag k="ssr:stedsnr" v="1039468" />
		<tag k="ssr:type" v="adressenavn" />
	</node>
	<node lat="60.54890664122579" lon="6.189381557674984" id="-77783">
		<tag k="name" v="Sveindalsvegen" />
		<tag k="ssr:date" v="2019-12-27" />
		<tag k="ssr:gruppe" v="veg" />
		<tag k="ssr:hovedgruppe" v="infrastruktur" />
		<tag k="ssr:stedsnr" v="1039469" />
		<tag k="ssr:type" v="adressenavn" />
	</node>
	<node lat="60.57464230113038" lon="6.221041759931174" id="-77784">
		<tag k="name" v="Kluftatjørni" />
		<tag k="ssr:date" v="2019-12-27" />
		<tag k="ssr:gruppe" v="veg" />
		<tag k="ssr:hovedgruppe" v="infrastruktur" />
		<tag k="ssr:stedsnr" v="1039470" />
		<tag k="ssr:type" v="adressenavn" />
	</node>
	<node lat="60.578139932778235" lon="6.215959248257094" id="-77785">
		<tag k="name" v="Flatøyni" />
		<tag k="ssr:date" v="2019-12-27" />
		<tag k="ssr:gruppe" v="veg" />
		<tag k="ssr:hovedgruppe" v="infrastruktur" />
		<tag k="ssr:stedsnr" v="1039471" />
		<tag k="ssr:type" v="adressenavn" />
	</node>
	<node lat="60.72916633486437" lon="6.177342897010275" id="-77786">
		<tag k="name" v="Bjørndalsstølen" />
		<tag k="ssr:date" v="2019-12-27" />
		<tag k="ssr:gruppe" v="veg" />
		<tag k="ssr:hovedgruppe" v="infrastruktur" />
		<tag k="ssr:stedsnr" v="1039472" />
		<tag k="ssr:type" v="adressenavn" />
	</node>
	<node lat="60.72602176302422" lon="6.181229935360189" id="-77787">
		<tag k="name" v="Fannadalsvegen" />
		<tag k="ssr:date" v="2019-12-27" />
		<tag k="ssr:gruppe" v="veg" />
		<tag k="ssr:hovedgruppe" v="infrastruktur" />
		<tag k="ssr:stedsnr" v="1039473" />
		<tag k="ssr:type" v="adressenavn" />
	</node>
	<node lat="60.543169026044914" lon="6.227793639924137" id="-77788">
		<tag k="name" v="Kvålsdalen" />
		<tag k="ssr:date" v="2019-12-27" />
		<tag k="ssr:gruppe" v="veg" />
		<tag k="ssr:hovedgruppe" v="infrastruktur" />
		<tag k="ssr:stedsnr" v="1039474" />
		<tag k="ssr:type" v="adressenavn" />
	</node>
	<node lat="60.56149621373071" lon="6.242500364080876" id="-77789">
		<tag k="name" v="Torfinnsosen" />
		<tag k="ssr:date" v="2019-12-27" />
		<tag k="ssr:gruppe" v="veg" />
		<tag k="ssr:hovedgruppe" v="infrastruktur" />
		<tag k="ssr:stedsnr" v="1039475" />
		<tag k="ssr:type" v="adressenavn" />
	</node>
	<node lat="60.5478507720798" lon="6.220674436311795" id="-77790">
		<tag k="name" v="Grånolten" />
		<tag k="ssr:date" v="2019-12-27" />
		<tag k="ssr:gruppe" v="veg" />
		<tag k="ssr:hovedgruppe" v="infrastruktur" />
		<tag k="ssr:stedsnr" v="1039476" />
		<tag k="ssr:type" v="adressenavn" />
	</node>
	<node lat="60.5988104994173" lon="6.193623640735319" id="-77791">
		<tag k="name" v="Sandfjellsvegen" />
		<tag k="ssr:date" v="2019-12-27" />
		<tag k="ssr:gruppe" v="veg" />
		<tag k="ssr:hovedgruppe" v="infrastruktur" />
		<tag k="ssr:stedsnr" v="1039477" />
		<tag k="ssr:type" v="adressenavn" />
	</node>
	<node lat="60.602128532984885" lon="6.198943374964767" id="-77792">
		<tag k="name" v="Brokatjørni" />
		<tag k="ssr:date" v="2019-12-27" />
		<tag k="ssr:gruppe" v="veg" />
		<tag k="ssr:hovedgruppe" v="infrastruktur" />
		<tag k="ssr:stedsnr" v="1039478" />
		<tag k="ssr:type" v="adressenavn" />
	</node>
	<node lat="60.53177141645279" lon="6.079581595058519" id="-77793">
		<tag k="name" v="Røvhaugane" />
		<tag k="ssr:date" v="2019-12-27" />
		<tag k="ssr:gruppe" v="veg" />
		<tag k="ssr:hovedgruppe" v="infrastruktur" />
		<tag k="ssr:stedsnr" v="1039479" />
		<tag k="ssr:type" v="adressenavn" />
	</node>
	<node lat="60.60208563471626" lon="6.204977345442181" id="-77794">
		<tag k="name" v="Sandfjellsrusti" />
		<tag k="ssr:date" v="2019-12-27" />
		<tag k="ssr:gruppe" v="veg" />
		<tag k="ssr:hovedgruppe" v="infrastruktur" />
		<tag k="ssr:stedsnr" v="1039480" />
		<tag k="ssr:type" v="adressenavn" />
	</node>
	<node lat="60.580161525335676" lon="6.163906319154546" id="-77795">
		<tag k="name" v="Lundaholmen" />
		<tag k="ssr:date" v="2019-12-27" />
		<tag k="ssr:gruppe" v="veg" />
		<tag k="ssr:hovedgruppe" v="infrastruktur" />
		<tag k="ssr:stedsnr" v="1039481" />
		<tag k="ssr:type" v="adressenavn" />
	</node>
	<node lat="60.54958658805425" lon="6.118513924827185" id="-77796">
		<tag k="name" v="Nore Hamlagrø" />
		<tag k="ssr:date" v="2019-12-27" />
		<tag k="ssr:gruppe" v="veg" />
		<tag k="ssr:hovedgruppe" v="infrastruktur" />
		<tag k="ssr:stedsnr" v="1039482" />
		<tag k="ssr:type" v="adressenavn" />
	</node>
	<node lat="60.546323370226666" lon="6.173473808529352" id="-77797">
		<tag k="name" v="Nestås-Øyaset" />
		<tag k="ssr:date" v="2019-12-27" />
		<tag k="ssr:gruppe" v="veg" />
		<tag k="ssr:hovedgruppe" v="infrastruktur" />
		<tag k="ssr:stedsnr" v="1039483" />
		<tag k="ssr:type" v="adressenavn" />
	</node>
	<node lat="60.56222310646829" lon="6.196270415393627" id="-77798">
		<tag k="name" v="Kjøviki" />
		<tag k="ssr:date" v="2019-12-27" />
		<tag k="ssr:gruppe" v="veg" />
		<tag k="ssr:hovedgruppe" v="infrastruktur" />
		<tag k="ssr:stedsnr" v="1039484" />
		<tag k="ssr:type" v="adressenavn" />
	</node>
	<node lat="60.60695868993071" lon="6.178541591555871" id="-77799">
		<tag k="name" v="Trænstølsvegen" />
		<tag k="ssr:date" v="2019-12-27" />
		<tag k="ssr:gruppe" v="veg" />
		<tag k="ssr:hovedgruppe" v="infrastruktur" />
		<tag k="ssr:stedsnr" v="1039485" />
		<tag k="ssr:type" v="adressenavn" />
	</node>
	<node lat="60.79150883297014" lon="6.519807123624843" id="-77801">
		<tag k="name" v="Posthagen" />
		<tag k="ssr:date" v="2019-12-27" />
		<tag k="ssr:gruppe" v="veg" />
		<tag k="ssr:hovedgruppe" v="infrastruktur" />
		<tag k="ssr:stedsnr" v="1073316" />
		<tag k="ssr:type" v="vegstrekning" />
	</node>
	<node lat="60.591603673129676" lon="6.671359809022296" id="-77802">
		<tag k="name" v="Fogerlii" />
		<tag k="ssr:date" v="2019-12-27" />
		<tag k="ssr:gruppe" v="veg" />
		<tag k="ssr:hovedgruppe" v="infrastruktur" />
		<tag k="ssr:stedsnr" v="1073570" />
		<tag k="ssr:type" v="adressenavn" />
	</node>
	<node lat="60.784017168686354" lon="6.5649151116092765" id="-77803">
		<tag k="name" v="Framnes" />
		<tag k="ssr:date" v="2019-12-27" />
		<tag k="ssr:gruppe" v="veg" />
		<tag k="ssr:hovedgruppe" v="infrastruktur" />
		<tag k="ssr:stedsnr" v="1073571" />
		<tag k="ssr:type" v="adressenavn" />
	</node>
	<node lat="60.9102532820479" lon="6.445641709022773" id="-77804">
		<tag k="name" v="Vikafjellsvegen" />
		<tag k="ssr:date" v="2020-01-03" />
		<tag k="ssr:gruppe" v="veg" />
		<tag k="ssr:hovedgruppe" v="infrastruktur" />
		<tag k="ssr:stedsnr" v="1073870" />
		<tag k="ssr:type" v="adressenavn" />
	</node>
	<node lat="60.6277378402877" lon="6.418476754995442" id="-77806">
		<tag k="name" v="Voss herad" />
		<tag k="ssr:date" v="2021-06-08" />
		<tag k="ssr:gruppe" v="administrativeIndelinger" />
		<tag k="ssr:hovedgruppe" v="offentligAdministrasjon" />
		<tag k="ssr:stedsnr" v="1074398" />
		<tag k="ssr:type" v="kommune" />
	</node>
	<node lat="60.38666587132831" lon="5.332557531214444" id="-77807">
		<tag k="name" v="Vestland fylke" />
		<tag k="ssr:date" v="2021-06-08" />
		<tag k="ssr:gruppe" v="administrativeIndelinger" />
		<tag k="ssr:hovedgruppe" v="offentligAdministrasjon" />
		<tag k="ssr:stedsnr" v="1074408" />
		<tag k="ssr:type" v="fylke" />
	</node>
	<node lat="60.629317806812836" lon="6.415562841140012" id="-77815">
		<tag k="name" v="Gurid Almenningens plass" />
		<tag k="ssr:date" v="2020-09-15" />
		<tag k="ssr:gruppe" v="veg" />
		<tag k="ssr:hovedgruppe" v="infrastruktur" />
		<tag k="ssr:stedsnr" v="1078273" />
		<tag k="ssr:type" v="adressenavn" />
	</node>
	<node lat="60.83722730864588" lon="6.4605095538458785" id="-77824">
		<tag k="name" v="Mørkveslii" />
		<tag k="ssr:date" v="2021-04-13" />
		<tag k="ssr:gruppe" v="veg" />
		<tag k="ssr:hovedgruppe" v="infrastruktur" />
		<tag k="ssr:stedsnr" v="1080781" />
		<tag k="ssr:type" v="adressenavn" />
	</node>
	<node lat="60.837018969653705" lon="6.450410979858634" id="-77832">
		<tag k="name" v="Hagamyri" />
		<tag k="ssr:date" v="2021-09-28" />
		<tag k="ssr:gruppe" v="veg" />
		<tag k="ssr:hovedgruppe" v="infrastruktur" />
		<tag k="ssr:stedsnr" v="1082432" />
		<tag k="ssr:type" v="adressenavn" />
	</node>
	<node lat="60.68461290009253" lon="6.672592743652098" id="-77833">
		<tag k="name" v="Sygnaberdsstølen" />
		<tag k="ssr:date" v="2021-10-28" />
		<tag k="ssr:gruppe" v="veg" />
		<tag k="ssr:hovedgruppe" v="infrastruktur" />
		<tag k="ssr:stedsnr" v="1082759" />
		<tag k="ssr:type" v="adressenavn" />
	</node>
</osm>
