<?xml version="1.0" encoding="UTF-8"?>
<osm generator="osmapis" version="0.6">
	<node id="-526720" lat="61.2691641754" lon="4.81112598457">
		<tag k="alt_name" v="Geita" />
		<tag k="name" v="Geita fyr" />
		<tag k="ssr:date" v="2019-10-08" />
		<tag k="ssr:gruppe" v="navigasjon" />
		<tag k="ssr:hovedgruppe" v="infrastruktur" />
		<tag k="ssr:stedsnr" v="129140" />
		<tag k="ssr:type" v="fyrstasjon" />
	</node>
	<node id="-528123" lat="61.2858611126" lon="4.77700832664">
		<tag k="alt_name" v="Austnes" />
		<tag k="name" v="Austnes lykt" />
		<tag k="ssr:date" v="2016-05-11" />
		<tag k="ssr:gruppe" v="navigasjon" />
		<tag k="ssr:hovedgruppe" v="infrastruktur" />
		<tag k="ssr:stedsnr" v="858089" />
		<tag k="ssr:type" v="fyrlykt" />
	</node>
	<node id="-527679" lat="61.3710972193" lon="4.89522223176">
		<tag k="alt_name" v="Hindøysund" />
		<tag k="name" v="Hindøysund lykt" />
		<tag k="old_name" v="Hindøysundet" />
		<tag k="ssr:date" v="2016-05-10" />
		<tag k="ssr:gruppe" v="navigasjon" />
		<tag k="ssr:hovedgruppe" v="infrastruktur" />
		<tag k="ssr:stedsnr" v="675236" />
		<tag k="ssr:type" v="fyrlykt" />
	</node>
	<node id="-526838" lat="61.2850692084" lon="4.60931426003">
		<tag k="name" v="Merra lanterne" />
		<tag k="ssr:date" v="2016-12-28" />
		<tag k="ssr:gruppe" v="navigasjon" />
		<tag k="ssr:hovedgruppe" v="infrastruktur" />
		<tag k="ssr:stedsnr" v="173173" />
		<tag k="ssr:type" v="lanterne" />
	</node>
	<node id="-527017" lat="61.3322555599" lon="5.05477777899">
		<tag k="alt_name" v="Granesund" />
		<tag k="name" v="Granesund lykt" />
		<tag k="ssr:date" v="2016-05-10" />
		<tag k="ssr:gruppe" v="navigasjon" />
		<tag k="ssr:hovedgruppe" v="infrastruktur" />
		<tag k="ssr:stedsnr" v="250127" />
		<tag k="ssr:type" v="fyrlykt" />
	</node>
	<node id="-526443" lat="61.292688891" lon="4.78343610712">
		<tag k="alt_name" v="Austnesholmen" />
		<tag k="name" v="Austnesholmen lykt" />
		<tag k="ssr:date" v="2016-05-10" />
		<tag k="ssr:gruppe" v="navigasjon" />
		<tag k="ssr:hovedgruppe" v="infrastruktur" />
		<tag k="ssr:stedsnr" v="8096" />
		<tag k="ssr:type" v="fyrlykt" />
	</node>
	<node id="-527975" lat="61.300091665" lon="4.9030999995">
		<tag k="alt_name" v="Rauøy" />
		<tag k="name" v="Rauøy lykt" />
		<tag k="old_name" v="Raudøyna" />
		<tag k="ssr:date" v="2016-05-11" />
		<tag k="ssr:gruppe" v="navigasjon" />
		<tag k="ssr:hovedgruppe" v="infrastruktur" />
		<tag k="ssr:stedsnr" v="797091" />
		<tag k="ssr:type" v="fyrlykt" />
	</node>
	<node id="-527075" lat="61.3484888896" lon="5.05322222729">
		<tag k="alt_name" v="Askvoll" />
		<tag k="name" v="Askvoll kommune" />
		<tag k="ssr:date" v="2019-08-14" />
		<tag k="ssr:gruppe" v="administrativeIndelinger" />
		<tag k="ssr:hovedgruppe" v="offentligAdministrasjon" />
		<tag k="ssr:stedsnr" v="268861" />
		<tag k="ssr:type" v="kommune" />
	</node>
	<node id="-527714" lat="61.2951638913" lon="4.59324167295">
		<tag k="alt_name" v="Sandøy lykt" />
		<tag k="name" v="Sandøy" />
		<tag k="old_name" v="Sandøyna" />
		<tag k="ssr:date" v="2016-05-10" />
		<tag k="ssr:gruppe" v="navigasjon" />
		<tag k="ssr:hovedgruppe" v="infrastruktur" />
		<tag k="ssr:stedsnr" v="675454" />
		<tag k="ssr:type" v="fyrlykt" />
	</node>
	<node id="-526304" lat="61.3002361125" lon="4.90315555967">
		<tag k="alt_name" v="Raudøy" />
		<tag k="name" v="Raudøy lykt" />
		<tag k="ssr:date" v="2016-05-10" />
		<tag k="ssr:gruppe" v="navigasjon" />
		<tag k="ssr:hovedgruppe" v="infrastruktur" />
		<tag k="ssr:stedsnr" v="403179" />
		<tag k="ssr:type" v="fyrlykt" />
	</node>
	<node id="-526680" lat="61.2805412871" lon="4.63193402265">
		<tag k="name" v="Årebrottet" />
		<tag k="ssr:date" v="2016-12-29" />
		<tag k="ssr:gruppe" v="navigasjon" />
		<tag k="ssr:hovedgruppe" v="infrastruktur" />
		<tag k="ssr:stedsnr" v="100625" />
		<tag k="ssr:type" v="lanterne" />
	</node>
	<node id="-527958" lat="61.3876249964" lon="4.96103334214">
		<tag k="name" v="Raudøy vestpynt" />
		<tag k="old_name" v="Raudøyna" />
		<tag k="ssr:date" v="2016-05-11" />
		<tag k="ssr:gruppe" v="navigasjon" />
		<tag k="ssr:hovedgruppe" v="infrastruktur" />
		<tag k="ssr:stedsnr" v="796219" />
		<tag k="ssr:type" v="fyrlykt" />
	</node>
	<node id="-527829" lat="61.3232333328" lon="5.07841387974">
		<tag k="alt_name" v="Langenes" />
		<tag k="name" v="Langenes lykt" />
		<tag k="ssr:date" v="2016-05-11" />
		<tag k="ssr:gruppe" v="navigasjon" />
		<tag k="ssr:hovedgruppe" v="infrastruktur" />
		<tag k="ssr:stedsnr" v="736188" />
		<tag k="ssr:type" v="fyrlykt" />
	</node>
	<node id="-528337" lat="60.8816104596" lon="6.30047518531">
		<tag k="name" v="Vestlandet" />
		<tag k="ssr:date" v="2019-01-06" />
		<tag k="ssr:gruppe" v="administrativeIndelinger" />
		<tag k="ssr:hovedgruppe" v="offentligAdministrasjon" />
		<tag k="ssr:stedsnr" v="974777" />
		<tag k="ssr:type" v="annenAdministrativInndeling" />
	</node>
	<node id="-528335" lat="61.270412814" lon="4.81348582215">
		<tag k="name" v="Instegeita" />
		<tag k="ssr:date" v="2019-05-31" />
		<tag k="ssr:gruppe" v="veg" />
		<tag k="ssr:hovedgruppe" v="infrastruktur" />
		<tag k="ssr:stedsnr" v="974060" />
		<tag k="ssr:type" v="adressenavn" />
	</node>
	<node id="-528327" lat="61.3683606536" lon="4.88344352015">
		<tag k="name" v="Hindøyna" />
		<tag k="ssr:date" v="2019-05-31" />
		<tag k="ssr:gruppe" v="veg" />
		<tag k="ssr:hovedgruppe" v="infrastruktur" />
		<tag k="ssr:stedsnr" v="971704" />
		<tag k="ssr:type" v="adressenavn" />
	</node>
	<node id="-527690" lat="61.4150472252" lon="4.97571944945">
		<tag k="alt_name" v="Stavenes" />
		<tag k="name" v="Stavenes lykt" />
		<tag k="ssr:date" v="2016-05-10" />
		<tag k="ssr:gruppe" v="navigasjon" />
		<tag k="ssr:hovedgruppe" v="infrastruktur" />
		<tag k="ssr:stedsnr" v="675315" />
		<tag k="ssr:type" v="fyrlykt" />
	</node>
	<node id="-527049" lat="61.2820445119" lon="4.64330706975">
		<tag k="alt_name" v="Hovden" />
		<tag k="name" v="Hovden lykt" />
		<tag k="ssr:date" v="2019-10-09" />
		<tag k="ssr:gruppe" v="navigasjon" />
		<tag k="ssr:hovedgruppe" v="infrastruktur" />
		<tag k="ssr:stedsnr" v="250314" />
		<tag k="ssr:type" v="fyrlykt" />
	</node>
	<node id="-528328" lat="61.2891747647" lon="4.6769325">
		<tag k="name" v="Bjørnøysundet" />
		<tag k="ssr:date" v="2019-05-31" />
		<tag k="ssr:gruppe" v="veg" />
		<tag k="ssr:hovedgruppe" v="infrastruktur" />
		<tag k="ssr:stedsnr" v="971709" />
		<tag k="ssr:type" v="adressenavn" />
	</node>
	<node id="-527559" lat="61.2999147715" lon="4.6323924853">
		<tag k="alt_name" v="Gjørines lykt;Gjørines;Gjørøyneset" />
		<tag k="name" v="Gjørøyneset lykt" />
		<tag k="ssr:date" v="2019-10-17" />
		<tag k="ssr:gruppe" v="navigasjon" />
		<tag k="ssr:hovedgruppe" v="infrastruktur" />
		<tag k="ssr:stedsnr" v="614413" />
		<tag k="ssr:type" v="fyrlykt" />
	</node>
	<node id="-528326" lat="61.4129952845" lon="4.89712334327">
		<tag k="name" v="Smelværet" />
		<tag k="ssr:date" v="2019-05-31" />
		<tag k="ssr:gruppe" v="veg" />
		<tag k="ssr:hovedgruppe" v="infrastruktur" />
		<tag k="ssr:stedsnr" v="971702" />
		<tag k="ssr:type" v="adressenavn" />
	</node>
	<node id="-528325" lat="61.3943882965" lon="4.9267742864">
		<tag k="name" v="Heggøyna" />
		<tag k="ssr:date" v="2019-05-31" />
		<tag k="ssr:gruppe" v="veg" />
		<tag k="ssr:hovedgruppe" v="infrastruktur" />
		<tag k="ssr:stedsnr" v="971701" />
		<tag k="ssr:type" v="adressenavn" />
	</node>
	<node id="-528324" lat="61.3162411519" lon="4.77576596024">
		<tag k="name" v="Alden" />
		<tag k="ssr:date" v="2019-05-31" />
		<tag k="ssr:gruppe" v="veg" />
		<tag k="ssr:hovedgruppe" v="infrastruktur" />
		<tag k="ssr:stedsnr" v="971699" />
		<tag k="ssr:type" v="adressenavn" />
	</node>
	<node id="-528319" lat="61.3192777741" lon="4.73231388065">
		<tag k="name" v="Hamntaren lanterne" />
		<tag k="ssr:date" v="2016-05-11" />
		<tag k="ssr:gruppe" v="navigasjon" />
		<tag k="ssr:hovedgruppe" v="infrastruktur" />
		<tag k="ssr:stedsnr" v="962815" />
		<tag k="ssr:type" v="lanterne" />
	</node>
	<node id="-527677" lat="61.3761777736" lon="5.02638334083">
		<tag k="alt_name" v="Trætanes" />
		<tag k="name" v="Trætanes lykt" />
		<tag k="old_name" v="Tretteneset" />
		<tag k="ssr:date" v="2016-05-10" />
		<tag k="ssr:gruppe" v="navigasjon" />
		<tag k="ssr:hovedgruppe" v="infrastruktur" />
		<tag k="ssr:stedsnr" v="675229" />
		<tag k="ssr:type" v="fyrlykt" />
	</node>
	<node id="-526390" lat="61.2848508186" lon="4.63267782159">
		<tag k="name" v="Hellersøyvegen" />
		<tag k="ssr:date" v="2019-05-31" />
		<tag k="ssr:gruppe" v="veg" />
		<tag k="ssr:hovedgruppe" v="infrastruktur" />
		<tag k="ssr:stedsnr" v="991105" />
		<tag k="ssr:type" v="adressenavn" />
	</node>
	<node id="-526389" lat="61.3273286162" lon="5.0966277498">
		<tag k="name" v="Dørhellevegen" />
		<tag k="ssr:date" v="2019-05-31" />
		<tag k="ssr:gruppe" v="veg" />
		<tag k="ssr:hovedgruppe" v="infrastruktur" />
		<tag k="ssr:stedsnr" v="991106" />
		<tag k="ssr:type" v="adressenavn" />
	</node>
	<node id="-526388" lat="61.3460691515" lon="4.62413745784">
		<tag k="name" v="Herlandsneset" />
		<tag k="ssr:date" v="2019-05-31" />
		<tag k="ssr:gruppe" v="veg" />
		<tag k="ssr:hovedgruppe" v="infrastruktur" />
		<tag k="ssr:stedsnr" v="991104" />
		<tag k="ssr:type" v="adressenavn" />
	</node>
	<node id="-526387" lat="61.3215579706" lon="4.97239558172">
		<tag k="name" v="Herlandsvegen" />
		<tag k="ssr:date" v="2019-05-31" />
		<tag k="ssr:gruppe" v="veg" />
		<tag k="ssr:hovedgruppe" v="infrastruktur" />
		<tag k="ssr:stedsnr" v="991103" />
		<tag k="ssr:type" v="adressenavn" />
	</node>
	<node id="-527410" lat="61.29347308" lon="4.64999951094">
		<tag k="alt_name" v="Olsund" />
		<tag k="name" v="Olsund lykt" />
		<tag k="ssr:date" v="2019-10-14" />
		<tag k="ssr:gruppe" v="navigasjon" />
		<tag k="ssr:hovedgruppe" v="infrastruktur" />
		<tag k="ssr:stedsnr" v="553416" />
		<tag k="ssr:type" v="fyrlykt" />
	</node>
	<node id="-526386" lat="61.3725910534" lon="5.03163471161">
		<tag k="name" v="Follevågvegen" />
		<tag k="ssr:date" v="2019-05-31" />
		<tag k="ssr:gruppe" v="veg" />
		<tag k="ssr:hovedgruppe" v="infrastruktur" />
		<tag k="ssr:stedsnr" v="991102" />
		<tag k="ssr:type" v="adressenavn" />
	</node>
	<node id="-527273" lat="61.3761583365" lon="4.83473054746">
		<tag k="alt_name" v="Tussen" />
		<tag k="name" v="Tussen lykt" />
		<tag k="ssr:date" v="2016-05-10" />
		<tag k="ssr:gruppe" v="navigasjon" />
		<tag k="ssr:hovedgruppe" v="infrastruktur" />
		<tag k="ssr:stedsnr" v="493323" />
		<tag k="ssr:type" v="fyrlykt" />
	</node>
	<node id="-527814" lat="61.3868000016" lon="4.92525000685">
		<tag k="alt_name" v="Heggøy;Heggøy lykt" />
		<tag k="name" v="Heggøyna lykt" />
		<tag k="ssr:date" v="2016-05-11" />
		<tag k="ssr:gruppe" v="navigasjon" />
		<tag k="ssr:hovedgruppe" v="infrastruktur" />
		<tag k="ssr:stedsnr" v="735304" />
		<tag k="ssr:type" v="fyrlykt" />
	</node>
	<node id="-526881" lat="61.4824329777" lon="5.23059678057">
		<tag k="alt_name" v="Flokenes" />
		<tag k="name" v="Flokeneset" />
		<tag k="ssr:date" v="2019-10-17" />
		<tag k="ssr:gruppe" v="navigasjon" />
		<tag k="ssr:hovedgruppe" v="infrastruktur" />
		<tag k="ssr:stedsnr" v="190069" />
		<tag k="ssr:type" v="fyrlykt" />
	</node>
	<node id="-526998" lat="61.2688750038" lon="4.81505832689">
		<tag k="name" v="Geita ø.pynt" />
		<tag k="ssr:date" v="2016-05-10" />
		<tag k="ssr:gruppe" v="navigasjon" />
		<tag k="ssr:hovedgruppe" v="infrastruktur" />
		<tag k="ssr:stedsnr" v="234865" />
		<tag k="ssr:type" v="lanterne" />
	</node>
	<node id="-527498" lat="61.4103536213" lon="4.83093630391">
		<tag k="name" v="Blåna lanterne" />
		<tag k="ssr:date" v="2016-12-28" />
		<tag k="ssr:gruppe" v="navigasjon" />
		<tag k="ssr:hovedgruppe" v="infrastruktur" />
		<tag k="ssr:stedsnr" v="598778" />
		<tag k="ssr:type" v="lanterne" />
	</node>
</osm>
