<?xml version="1.0" encoding="UTF-8"?>
<osm generator="osmapis" version="0.6">
	<node id="-19199" lat="59.3212138889" lon="10.9418194512">
		<tag k="name" v="Finstadbukta" />
		<tag k="natural" v="bay" />
		<tag k="ssr:stedsnr" v="543755" />
	</node>
	<node id="-19195" lat="59.3768361091" lon="10.8318277802">
		<tag k="name" v="Haugstentangen" />
		<tag k="natural" v="cape" />
		<tag k="ssr:stedsnr" v="543275" />
	</node>
	<node id="-19061" lat="59.3936000033" lon="10.8173750069">
		<tag k="name" v="Skogstangen" />
		<tag k="natural" v="cape" />
		<tag k="ssr:stedsnr" v="56890" />
	</node>
	<node id="-19052" lat="59.3471194452" lon="10.9667027795">
		<tag k="alt_name" v="Isebakktjernet" />
		<tag k="name" v="Isebakktjern" />
		<tag k="natural" v="water" />
		<tag k="ssr:stedsnr" v="2518" />
	</node>
	<node id="-19176" lat="59.3957611155" lon="10.8921861032">
		<tag k="name" v="Lefseholmene" />
		<tag k="place" v="islet" />
		<tag k="ssr:stedsnr" v="482590" />
	</node>
	<node id="-19303" lat="59.4021083378" lon="10.8861638811">
		<tag k="name" v="Burumøya" />
		<tag k="place" v="island" />
		<tag k="ssr:stedsnr" v="791298" />
	</node>
	<node id="-19172" lat="59.3745388877" lon="10.8366666668">
		<tag k="name" v="Hareholmen" />
		<tag k="place" v="islet" />
		<tag k="ssr:stedsnr" v="482237" />
	</node>
	<node id="-19298" lat="59.3833861091" lon="10.8398916624">
		<tag k="name" v="Moskjærene" />
		<tag k="place" v="islet" />
		<tag k="ssr:stedsnr" v="786600" />
	</node>
	<node id="-19168" lat="59.3909638876" lon="10.8183444437">
		<tag k="name" v="Sandbukt" />
		<tag k="natural" v="bay" />
		<tag k="ssr:stedsnr" v="481890" />
	</node>
	<node id="-19295" lat="59.3389500028" lon="10.8438194483">
		<tag k="name" v="Årneberghølen" />
		<tag k="ssr:stedsnr" v="786352" />
		<tag k="waterway" v="stream" />
	</node>
	<node id="-19293" lat="59.3802777767" lon="10.8225777852">
		<tag k="name" v="Storedøvik" />
		<tag k="natural" v="bay" />
		<tag k="ssr:stedsnr" v="784893" />
	</node>
	<node id="-19281" lat="59.3880083331" lon="10.9000083323">
		<tag k="name" v="Henestangen" />
		<tag k="natural" v="cape" />
		<tag k="ssr:stedsnr" v="730301" />
	</node>
	<node id="-19148" lat="59.3179333351" lon="10.9346555562">
		<tag k="name" v="Skinnerflo" />
		<tag k="natural" v="water" />
		<tag k="ssr:stedsnr" v="245418" />
		<tag k="water" v="lake" />
	</node>
	<node id="-19170" lat="59.3426750032" lon="10.7628666714">
		<tag k="name" v="Heiabekken" />
		<tag k="ssr:stedsnr" v="481922" />
		<tag k="waterway" v="stream" />
	</node>
	<node id="-19276" lat="59.3359416666" lon="10.8783277707">
		<tag k="alt_name" v="Auberghølen" />
		<tag k="name" v="Augeberghølen" />
		<tag k="natural" v="water" />
		<tag k="ssr:stedsnr" v="725343" />
	</node>
	<node id="-19013" lat="59.3681749991" lon="10.8565750064">
		<tag k="name" v="Langøya" />
		<tag k="place" v="islet" />
		<tag k="ssr:stedsnr" v="366266" />
	</node>
	<node id="-19275" lat="59.363172223" lon="10.8854611071">
		<tag k="name" v="Karlshusbunn" />
		<tag k="natural" v="bay" />
		<tag k="ssr:stedsnr" v="725249" />
	</node>
	<node id="-19132" lat="59.3265805559" lon="10.7812250027">
		<tag k="name" v="Akersbekken" />
		<tag k="ssr:stedsnr" v="238549" />
		<tag k="waterway" v="stream" />
	</node>
	<node id="-19253" lat="59.3714195561" lon="10.8954222883">
		<tag k="name" v="Heneskilen" />
		<tag k="natural" v="bay" />
		<tag k="ssr:stedsnr" v="664561" />
	</node>
	<node id="-19252" lat="59.4012055537" lon="10.8784861118">
		<tag k="name" v="Slottsholmen" />
		<tag k="place" v="islet" />
		<tag k="ssr:stedsnr" v="664551" />
	</node>
	<node id="-19249" lat="59.3660472232" lon="10.8515527861">
		<tag k="name" v="Lundsholmen" />
		<tag k="place" v="islet" />
		<tag k="ssr:stedsnr" v="664224" />
	</node>
	<node id="-19245" lat="59.3781805535" lon="10.8217611177">
		<tag k="name" v="Lilledøvik" />
		<tag k="natural" v="bay" />
		<tag k="ssr:stedsnr" v="663892" />
	</node>
	<node id="-18986" lat="59.3468916652" lon="10.9653583247">
		<tag k="name" v="Staringa" />
		<tag k="place" v="islet" />
		<tag k="ssr:stedsnr" v="300584" />
	</node>
	<node id="-19364" lat="59.371111107" lon="10.882383332">
		<tag k="name" v="Gåsholmen" />
		<tag k="place" v="islet" />
		<tag k="ssr:stedsnr" v="968308" />
	</node>
	<node id="-19362" lat="59.3752138933" lon="10.8613111047">
		<tag k="name" v="Klokkerne" />
		<tag k="place" v="islet" />
		<tag k="ssr:stedsnr" v="968281" />
	</node>
	<node id="-19229" lat="59.3458749958" lon="10.9528944468">
		<tag k="name" v="Mosatjernet" />
		<tag k="natural" v="water" />
		<tag k="ssr:stedsnr" v="608531" />
	</node>
	<node id="-19344" lat="59.3723583341" lon="10.915927774">
		<tag k="name" v="Borgebunn" />
		<tag k="natural" v="bay" />
		<tag k="ssr:stedsnr" v="907228" />
	</node>
	<node id="-19340" lat="59.3832611098" lon="10.8239000028">
		<tag k="name" v="Sponbukt" />
		<tag k="natural" v="bay" />
		<tag k="ssr:stedsnr" v="906886" />
	</node>
	<node id="-19205" lat="59.3771916681" lon="10.8780722252">
		<tag k="alt_name" v="Øksenøya" />
		<tag k="name" v="Oksenøya" />
		<tag k="place" v="island" />
		<tag k="ssr:stedsnr" v="548307" />
	</node>
	<node id="-19204" lat="59.3786138856" lon="10.8582555496">
		<tag k="name" v="Brattholmen" />
		<tag k="place" v="islet" />
		<tag k="ssr:stedsnr" v="548305" />
	</node>
</osm>
