<?xml version="1.0" encoding="UTF-8"?>
<osm generator="osmapis" version="0.6">
	<node id="-18992" lat="59.3446499974" lon="10.9492027761">
		<tag k="alt_name" v="Åkebergmosan" />
		<tag k="name" v="Åkebergmosen" />
		<tag k="natural" v="wetland" />
		<tag k="ssr:stedsnr" v="305532" />
	</node>
	<node id="-19134" lat="59.3869111146" lon="10.81083611">
		<tag k="name" v="Sogn skog" />
		<tag k="place" v="locality" />
		<tag k="ssr:stedsnr" v="238887" />
	</node>
	<node id="-19321" lat="59.3831555572" lon="10.8134361147">
		<tag k="name" v="Sagmyra" />
		<tag k="natural" v="wetland" />
		<tag k="ssr:stedsnr" v="845902" />
	</node>
	<node id="-19220" lat="59.3728666642" lon="10.9397888926">
		<tag k="name" v="Kloppermyra" />
		<tag k="natural" v="wetland" />
		<tag k="ssr:stedsnr" v="603569" />
	</node>
	<node id="-19345" lat="59.3727833374" lon="10.9675777845">
		<tag k="name" v="Bjørnemyr" />
		<tag k="natural" v="wetland" />
		<tag k="ssr:stedsnr" v="907531" />
	</node>
	<node id="-19216" lat="59.2986055589" lon="10.8383499997">
		<tag k="name" v="Rørfjellmyr" />
		<tag k="natural" v="wetland" />
		<tag k="ssr:stedsnr" v="602887" />
	</node>
	<node id="-19246" lat="59.3015944435" lon="10.8428861031">
		<tag k="name" v="Dammyr" />
		<tag k="natural" v="wetland" />
		<tag k="ssr:stedsnr" v="663902" />
	</node>
	<node id="-19175" lat="59.3817722189" lon="10.9468305494">
		<tag k="name" v="Leiedalsmyra" />
		<tag k="natural" v="wetland" />
		<tag k="ssr:stedsnr" v="482579" />
	</node>
	<node id="-19367" lat="59.3891250018" lon="10.9457888818">
		<tag k="name" v="Høymyr" />
		<tag k="natural" v="wetland" />
		<tag k="ssr:stedsnr" v="968599" />
	</node>
	<node id="-19366" lat="59.381877781" lon="10.9690722204">
		<tag k="name" v="Bruane" />
		<tag k="place" v="locality" />
		<tag k="ssr:stedsnr" v="968600" />
	</node>
</osm>
