<?xml version="1.0" encoding="UTF-8"?>
<osm generator="osmapis" version="0.6">
	<node changeset="58620907" id="2358354868" lat="59.410828" lon="9.683364" timestamp="2018-05-02T17:04:20Z" uid="3497659" user="NKA" version="2">
		<tag k="loc_name" v="Godvannsflagget" />
		<tag k="name" v="Godvassflaket" />
		<tag k="natural" v="peak" />
		<tag k="source:name" v="Kartverket" />
		<tag k="ssr:stedsnr" v="791517" />
	</node>
	<node changeset="59608465" id="5670157921" lat="59.311975" lon="9.6536639" timestamp="2018-06-06T16:25:46Z" uid="3842253" user="NKA_import" version="1">
		<tag k="name" v="Grønli" />
		<tag k="place" v="isolated_dwelling" />
		<tag k="ssr:stedsnr" v="48375" />
		<tag k="ssr:type" v="eneboligMindreBoligbygg" />
	</node>
	<node changeset="59608465" id="5670157922" lat="59.2846694" lon="9.7456167" timestamp="2018-06-06T16:25:46Z" uid="3842253" user="NKA_import" version="1">
		<tag k="name" v="Rønningene" />
		<tag k="place" v="farm" />
		<tag k="ssr:stedsnr" v="48462" />
		<tag k="ssr:type" v="bruk" />
	</node>
	<node changeset="59608465" id="5670157923" lat="59.2346306" lon="9.7454194" timestamp="2018-06-06T16:25:46Z" uid="3842253" user="NKA_import" version="1">
		<tag k="name" v="Gonsholtseter" />
		<tag k="place" v="locality" />
		<tag k="ssr:stedsnr" v="49172" />
		<tag k="ssr:type" v="gammelBosettingsplass" />
	</node>
	<node changeset="59608465" id="5670157924" lat="59.2597417" lon="9.7566056" timestamp="2018-06-06T16:25:46Z" uid="3842253" user="NKA_import" version="1">
		<tag k="name" v="Elverhøy" />
		<tag k="place" v="isolated_dwelling" />
		<tag k="ssr:stedsnr" v="838715" />
		<tag k="ssr:type" v="eneboligMindreBoligbygg" />
	</node>
	<node changeset="59608465" id="5670157925" lat="59.2658778" lon="9.7379306" timestamp="2018-06-06T16:25:46Z" uid="3842253" user="NKA_import" version="1">
		<tag k="name" v="Skogheim" />
		<tag k="place" v="farm" />
		<tag k="ssr:stedsnr" v="838748" />
		<tag k="ssr:type" v="bruk" />
	</node>
	<node changeset="59608465" id="5670157926" lat="59.2625778" lon="9.7480389" timestamp="2018-06-06T16:25:46Z" uid="3842253" user="NKA_import" version="1">
		<tag k="name" v="Nystad" />
		<tag k="place" v="farm" />
		<tag k="ssr:stedsnr" v="49733" />
		<tag k="ssr:type" v="bruk" />
	</node>
	<node changeset="59608465" id="5670157927" lat="59.2463444" lon="9.8186444" timestamp="2018-06-06T16:25:47Z" uid="3842253" user="NKA_import" version="1">
		<tag k="alt_name" v="Holtsdalen" />
		<tag k="name" v="Holtsdalen" />
		<tag k="place" v="farm" />
		<tag k="ssr:stedsnr" v="851639" />
		<tag k="ssr:type" v="bruk" />
	</node>
	<node changeset="59608465" id="5670157928" lat="59.2228778" lon="9.8533861" timestamp="2018-06-06T16:25:47Z" uid="3842253" user="NKA_import" version="1">
		<tag k="name" v="Nygård" />
		<tag k="place" v="farm" />
		<tag k="ssr:stedsnr" v="851708" />
		<tag k="ssr:type" v="bruk" />
	</node>
	<node changeset="59608465" id="5670157929" lat="59.2524471" lon="9.7593076" timestamp="2018-06-06T16:25:47Z" uid="3842253" user="NKA_import" version="1">
		<tag k="name" v="Rød" />
		<tag k="place" v="farm" />
		<tag k="ssr:stedsnr" v="63056" />
		<tag k="ssr:type" v="gard" />
	</node>
	<node changeset="59608465" id="5670157930" lat="59.3223556" lon="9.6543333" timestamp="2018-06-06T16:25:47Z" uid="3842253" user="NKA_import" version="1">
		<tag k="name" v="Hansekåken" />
		<tag k="place" v="farm" />
		<tag k="ssr:stedsnr" v="852324" />
		<tag k="ssr:type" v="bruk" />
	</node>
	<node changeset="59608465" id="5670157931" lat="59.396325" lon="9.6656028" timestamp="2018-06-06T16:25:47Z" uid="3842253" user="NKA_import" version="1">
		<tag k="loc_name" v="Lysetjern" />
		<tag k="name" v="Lysetjørn" />
		<tag k="place" v="farm" />
		<tag k="ssr:stedsnr" v="63330" />
		<tag k="ssr:type" v="bruk" />
	</node>
	<node changeset="59608465" id="5670157932" lat="59.3192433" lon="9.6642773" timestamp="2018-06-06T16:25:47Z" uid="3842253" user="NKA_import" version="1">
		<tag k="name" v="Hogstadgrenda" />
		<tag k="place" v="hamlet" />
		<tag k="ssr:stedsnr" v="852323" />
		<tag k="ssr:type" v="grend" />
	</node>
	<node changeset="59608465" id="5670157933" lat="59.3221111" lon="9.6655222" timestamp="2018-06-06T16:25:47Z" uid="3842253" user="NKA_import" version="1">
		<tag k="name" v="Skoglund" />
		<tag k="place" v="isolated_dwelling" />
		<tag k="ssr:stedsnr" v="63339" />
		<tag k="ssr:type" v="eneboligMindreBoligbygg" />
	</node>
	<node changeset="59608465" id="5670157934" lat="59.3193806" lon="9.660375" timestamp="2018-06-06T16:25:47Z" uid="3842253" user="NKA_import" version="1">
		<tag k="alt_name" v="Nedre Hogstad" />
		<tag k="name" v="Hogstad, nedre" />
		<tag k="place" v="farm" />
		<tag k="ssr:stedsnr" v="852325" />
		<tag k="ssr:type" v="gard" />
	</node>
	<node changeset="59608465" id="5670157935" lat="59.3439972" lon="9.6548678" timestamp="2018-06-06T16:25:47Z" uid="3842253" user="NKA_import" version="1">
		<tag k="building" v="cabin" />
		<tag k="name" v="Vassdalen" />
		<tag k="place" v="isolated_dwelling" />
		<tag k="ssr:stedsnr" v="63368" />
		<tag k="ssr:type" v="fritidsbolig" />
	</node>
	<node changeset="59608465" id="5670157936" lat="59.2732" lon="9.7282055" timestamp="2018-06-06T16:25:47Z" uid="3842253" user="NKA_import" version="1">
		<tag k="name" v="Sande" />
		<tag k="place" v="farm" />
		<tag k="ssr:stedsnr" v="852453" />
		<tag k="ssr:type" v="bruk" />
	</node>
	<node changeset="59608465" id="5670157937" lat="59.2999333" lon="9.6709944" timestamp="2018-06-06T16:25:47Z" uid="3842253" user="NKA_import" version="1">
		<tag k="name" v="Ordalen" />
		<tag k="place" v="farm" />
		<tag k="ssr:stedsnr" v="63407" />
		<tag k="ssr:type" v="bruk" />
	</node>
	<node changeset="59608465" id="5670157938" lat="59.273925" lon="9.7109278" timestamp="2018-06-06T16:25:48Z" uid="3842253" user="NKA_import" version="1">
		<tag k="name" v="Bakkane" />
		<tag k="place" v="neighbourhood" />
		<tag k="ssr:stedsnr" v="852456" />
		<tag k="ssr:type" v="boligfelt" />
	</node>
	<node changeset="59608465" id="5670157939" lat="59.3098778" lon="9.6669389" timestamp="2018-06-06T16:25:48Z" uid="3842253" user="NKA_import" version="1">
		<tag k="name" v="Østgård" />
		<tag k="place" v="isolated_dwelling" />
		<tag k="ssr:stedsnr" v="63447" />
		<tag k="ssr:type" v="eneboligMindreBoligbygg" />
	</node>
	<node changeset="59608465" id="5670157940" lat="59.2898611" lon="9.72475" timestamp="2018-06-06T16:25:48Z" uid="3842253" user="NKA_import" version="1">
		<tag k="name" v="Rønningen" />
		<tag k="place" v="farm" />
		<tag k="ssr:stedsnr" v="852476" />
		<tag k="ssr:type" v="bruk" />
	</node>
	<node changeset="59608465" id="5670157941" lat="59.2231528" lon="9.8305639" timestamp="2018-06-06T16:25:48Z" uid="3842253" user="NKA_import" version="1">
		<tag k="name" v="Løkka" />
		<tag k="place" v="farm" />
		<tag k="ssr:stedsnr" v="547763" />
		<tag k="ssr:type" v="bruk" />
	</node>
	<node changeset="59608465" id="5670157942" lat="59.31565" lon="9.6453945" timestamp="2018-06-06T16:25:48Z" uid="3842253" user="NKA_import" version="1">
		<tag k="name" v="Sølverød" />
		<tag k="place" v="farm" />
		<tag k="ssr:stedsnr" v="63451" />
		<tag k="ssr:type" v="gard" />
	</node>
	<node changeset="59608465" id="5670157943" lat="59.2277657" lon="9.8527451" timestamp="2018-06-06T16:25:48Z" uid="3842253" user="NKA_import" version="1">
		<tag k="name" v="Auen" />
		<tag k="place" v="farm" />
		<tag k="ssr:stedsnr" v="911740" />
		<tag k="ssr:type" v="bruk" />
	</node>
	<node changeset="79869835" id="5670157944" lat="59.2838278" lon="9.7338361" timestamp="2020-01-21T17:48:54Z" uid="3497659" user="NKA" version="2">
		<tag k="name" v="Øverbø" />
		<tag k="place" v="hamlet" />
		<tag k="population" v="269" />
		<tag k="population:date" v="2019-01-01" />
		<tag k="ref:ssb_tettsted" v="3033" />
		<tag k="ssr:stedsnr" v="63513" />
		<tag k="ssr:type" v="gard" />
	</node>
	<node changeset="59608465" id="5670157945" lat="59.272931" lon="9.7219826" timestamp="2018-06-06T16:25:48Z" uid="3842253" user="NKA_import" version="1">
		<tag k="name" v="Torsholt" />
		<tag k="place" v="hamlet" />
		<tag k="ssr:stedsnr" v="85906" />
		<tag k="ssr:type" v="grend" />
	</node>
	<node changeset="59608465" id="5670157946" lat="59.3201152" lon="9.6641775" timestamp="2018-06-06T16:25:48Z" uid="3842253" user="NKA_import" version="1">
		<tag k="name" v="Hogstad, øvre" />
		<tag k="place" v="farm" />
		<tag k="ssr:stedsnr" v="548335" />
		<tag k="ssr:type" v="gard" />
	</node>
	<node changeset="59608465" id="5670157947" lat="59.31265" lon="9.6600556" timestamp="2018-06-06T16:25:48Z" uid="3842253" user="NKA_import" version="1">
		<tag k="name" v="Sølland" />
		<tag k="place" v="farm" />
		<tag k="ssr:stedsnr" v="912445" />
		<tag k="ssr:type" v="gard" />
	</node>
	<node changeset="59608465" id="5670157948" lat="59.2954124" lon="9.6914633" timestamp="2018-06-06T16:25:48Z" uid="3842253" user="NKA_import" version="1">
		<tag k="alt_name" v="Klauverød" />
		<tag k="name" v="Kløverød" />
		<tag k="place" v="hamlet" />
		<tag k="ssr:stedsnr" v="109260" />
		<tag k="ssr:type" v="gard" />
	</node>
	<node changeset="59608465" id="5670157949" lat="59.291475" lon="9.7195028" timestamp="2018-06-06T16:25:48Z" uid="3842253" user="NKA_import" version="1">
		<tag k="name" v="Myra" />
		<tag k="place" v="farm" />
		<tag k="ssr:stedsnr" v="912509" />
		<tag k="ssr:type" v="bruk" />
	</node>
	<node changeset="59608465" id="5670157950" lat="59.2994667" lon="9.729875" timestamp="2018-06-06T16:25:49Z" uid="3842253" user="NKA_import" version="1">
		<tag k="name" v="Langdalstua" />
		<tag k="place" v="locality" />
		<tag k="ssr:stedsnr" v="548409" />
		<tag k="ssr:type" v="byggForJordbrukFiskeOgFangst" />
	</node>
	<node changeset="59608465" id="5670157951" lat="59.3097639" lon="9.6419889" timestamp="2018-06-06T16:25:49Z" uid="3842253" user="NKA_import" version="1">
		<tag k="name" v="Lund" />
		<tag k="place" v="farm" />
		<tag k="ssr:stedsnr" v="548426" />
		<tag k="ssr:type" v="bruk" />
	</node>
	<node changeset="59608465" id="5670157952" lat="59.2540833" lon="9.8200278" timestamp="2018-06-06T16:25:49Z" uid="3842253" user="NKA_import" version="1">
		<tag k="name" v="Søndre Modalen" />
		<tag k="place" v="locality" />
		<tag k="ssr:stedsnr" v="109719" />
		<tag k="ssr:type" v="gammelBosettingsplass" />
	</node>
	<node changeset="59608465" id="5670157953" lat="59.2142472" lon="9.8299111" timestamp="2018-06-06T16:25:49Z" uid="3842253" user="NKA_import" version="1">
		<tag k="name" v="Naphaug" />
		<tag k="place" v="farm" />
		<tag k="ssr:stedsnr" v="912748" />
		<tag k="ssr:type" v="bruk" />
	</node>
	<node changeset="59608465" id="5670157954" lat="59.2725028" lon="9.745" timestamp="2018-06-06T16:25:49Z" uid="3842253" user="NKA_import" version="1">
		<tag k="name" v="Tveitan" />
		<tag k="place" v="farm" />
		<tag k="ssr:stedsnr" v="548459" />
		<tag k="ssr:type" v="bruk" />
	</node>
	<node changeset="59608465" id="5670157955" lat="59.2715222" lon="9.6594861" timestamp="2018-06-06T16:25:49Z" uid="3842253" user="NKA_import" version="1">
		<tag k="historic" v="shieling" />
		<tag k="name" v="Høgsetsetra" />
		<tag k="place" v="locality" />
		<tag k="ssr:stedsnr" v="548463" />
		<tag k="ssr:type" v="seterStøl" />
	</node>
	<node changeset="59608465" id="5670157956" lat="59.2752361" lon="9.7237555" timestamp="2018-06-06T16:25:49Z" uid="3842253" user="NKA_import" version="1">
		<tag k="alt_name" v="Thorsholt" />
		<tag k="name" v="Torsholt" />
		<tag k="place" v="farm" />
		<tag k="ssr:stedsnr" v="548476" />
		<tag k="ssr:type" v="gard" />
	</node>
	<node changeset="59608465" id="5670157957" lat="59.28035" lon="9.7282417" timestamp="2018-06-06T16:25:49Z" uid="3842253" user="NKA_import" version="1">
		<tag k="alt_name" v="Saga" />
		<tag k="name" v="Saga" />
		<tag k="place" v="farm" />
		<tag k="ssr:stedsnr" v="548480" />
		<tag k="ssr:type" v="bruk" />
	</node>
	<node changeset="59608465" id="5670157958" lat="59.3095222" lon="9.66345" timestamp="2018-06-06T16:25:49Z" uid="3842253" user="NKA_import" version="1">
		<tag k="name" v="Tveitan nordre" />
		<tag k="place" v="farm" />
		<tag k="ssr:stedsnr" v="110238" />
		<tag k="ssr:type" v="bruk" />
	</node>
	<node changeset="59608465" id="5670157959" lat="59.2714434" lon="9.7134103" timestamp="2018-06-06T16:25:49Z" uid="3842253" user="NKA_import" version="1">
		<tag k="name" v="Bakkaneriset" />
		<tag k="place" v="neighbourhood" />
		<tag k="ssr:stedsnr" v="949563" />
		<tag k="ssr:type" v="boligfelt" />
	</node>
	<node changeset="59608465" id="5670157960" lat="59.2780528" lon="9.7913306" timestamp="2018-06-06T16:25:49Z" uid="3842253" user="NKA_import" version="1">
		<tag k="historic" v="shieling" />
		<tag k="name" v="Gurholtsetra" />
		<tag k="place" v="locality" />
		<tag k="ssr:stedsnr" v="548485" />
		<tag k="ssr:type" v="seterStøl" />
	</node>
	<node changeset="59608465" id="5670157961" lat="59.21725" lon="9.8251306" timestamp="2018-06-06T16:25:49Z" uid="3842253" user="NKA_import" version="1">
		<tag k="name" v="Skogtvet" />
		<tag k="old_name" v="Skogtveit" />
		<tag k="place" v="farm" />
		<tag k="ssr:stedsnr" v="122739" />
		<tag k="ssr:type" v="bruk" />
	</node>
	<node changeset="59608465" id="5670157962" lat="59.2498361" lon="9.8242639" timestamp="2018-06-06T16:25:50Z" uid="3842253" user="NKA_import" version="1">
		<tag k="name" v="Holt" />
		<tag k="place" v="farm" />
		<tag k="ssr:stedsnr" v="123061" />
		<tag k="ssr:type" v="bruk" />
	</node>
	<node changeset="59608465" id="5670157963" lat="59.2930139" lon="9.6965222" timestamp="2018-06-06T16:25:50Z" uid="3842253" user="NKA_import" version="1">
		<tag k="name" v="Kløvstad" />
		<tag k="place" v="farm" />
		<tag k="ssr:stedsnr" v="123434" />
		<tag k="ssr:type" v="bruk" />
	</node>
	<node changeset="59608465" id="5670157964" lat="59.2403889" lon="9.8162056" timestamp="2018-06-06T16:25:50Z" uid="3842253" user="NKA_import" version="1">
		<tag k="name" v="Killmyr" />
		<tag k="place" v="farm" />
		<tag k="ssr:stedsnr" v="548656" />
		<tag k="ssr:type" v="bruk" />
	</node>
	<node changeset="59608465" id="5670157965" lat="59.3135389" lon="9.6566667" timestamp="2018-06-06T16:25:50Z" uid="3842253" user="NKA_import" version="1">
		<tag k="name" v="Vestby" />
		<tag k="place" v="farm" />
		<tag k="ssr:stedsnr" v="123482" />
		<tag k="ssr:type" v="bruk" />
	</node>
	<node changeset="59608465" id="5670157966" lat="59.3124222" lon="9.650225" timestamp="2018-06-06T16:25:50Z" uid="3842253" user="NKA_import" version="1">
		<tag k="name" v="Granheim" />
		<tag k="place" v="isolated_dwelling" />
		<tag k="ssr:stedsnr" v="958434" />
		<tag k="ssr:type" v="eneboligMindreBoligbygg" />
	</node>
	<node changeset="59608465" id="5670157967" lat="59.2435269" lon="9.7849561" timestamp="2018-06-06T16:25:51Z" uid="3842253" user="NKA_import" version="1">
		<tag k="name" v="Austad" />
		<tag k="place" v="hamlet" />
		<tag k="ssr:stedsnr" v="570908" />
		<tag k="ssr:type" v="grend" />
	</node>
	<node changeset="59608465" id="5670157968" lat="59.2383472" lon="9.8021" timestamp="2018-06-06T16:25:51Z" uid="3842253" user="NKA_import" version="1">
		<tag k="name" v="Finsrud" />
		<tag k="place" v="farm" />
		<tag k="ssr:stedsnr" v="123676" />
		<tag k="ssr:type" v="bruk" />
	</node>
	<node changeset="59608465" id="5670157969" lat="59.2387111" lon="9.7354222" timestamp="2018-06-06T16:25:51Z" uid="3842253" user="NKA_import" version="1">
		<tag k="historic" v="shieling" />
		<tag k="name" v="Rødseter" />
		<tag k="place" v="locality" />
		<tag k="ssr:stedsnr" v="959137" />
		<tag k="ssr:type" v="seterStøl" />
	</node>
	<node changeset="59608465" id="5670157970" lat="59.3237861" lon="9.6661333" timestamp="2018-06-06T16:25:51Z" uid="3842253" user="NKA_import" version="1">
		<tag k="name" v="Skogstue" />
		<tag k="place" v="isolated_dwelling" />
		<tag k="ssr:stedsnr" v="124261" />
		<tag k="ssr:type" v="eneboligMindreBoligbygg" />
	</node>
	<node changeset="59608465" id="5670157971" lat="59.2165667" lon="9.8161861" timestamp="2018-06-06T16:25:51Z" uid="3842253" user="NKA_import" version="1">
		<tag k="name" v="Moholtseter" />
		<tag k="place" v="locality" />
		<tag k="ssr:stedsnr" v="169236" />
		<tag k="ssr:type" v="gammelBosettingsplass" />
	</node>
	<node changeset="59608465" id="5670157972" lat="59.2684306" lon="9.7481333" timestamp="2018-06-06T16:25:51Z" uid="3842253" user="NKA_import" version="1">
		<tag k="name" v="Østre Gurholt" />
		<tag k="place" v="farm" />
		<tag k="ssr:stedsnr" v="959681" />
		<tag k="ssr:type" v="bruk" />
	</node>
	<node changeset="59608465" id="5670157973" lat="59.267675" lon="9.7467694" timestamp="2018-06-06T16:25:52Z" uid="3842253" user="NKA_import" version="1">
		<tag k="name" v="Vestre Gurholt" />
		<tag k="place" v="farm" />
		<tag k="ssr:stedsnr" v="959685" />
		<tag k="ssr:type" v="bruk" />
	</node>
	<node changeset="59608465" id="5670157974" lat="59.3047872" lon="9.6607247" timestamp="2018-06-06T16:25:53Z" uid="3842253" user="NKA_import" version="1">
		<tag k="name" v="Søndre Sørtveit" />
		<tag k="place" v="farm" />
		<tag k="ssr:stedsnr" v="594269" />
		<tag k="ssr:type" v="bruk" />
	</node>
	<node changeset="59608465" id="5670157975" lat="59.3540604" lon="9.6700354" timestamp="2018-06-06T16:25:54Z" uid="3842253" user="NKA_import" version="1">
		<tag k="name" v="Vannebuseter" />
		<tag k="place" v="farm" />
		<tag k="ssr:stedsnr" v="980387" />
		<tag k="ssr:type" v="gard" />
	</node>
	<node changeset="59608465" id="5670157976" lat="59.2721056" lon="9.7376444" timestamp="2018-06-06T16:25:55Z" uid="3842253" user="NKA_import" version="1">
		<tag k="name" v="Norheim" />
		<tag k="place" v="farm" />
		<tag k="ssr:stedsnr" v="169599" />
		<tag k="ssr:type" v="bruk" />
	</node>
	<node changeset="59608465" id="5670157977" lat="59.3091058" lon="9.6665994" timestamp="2018-06-06T16:25:55Z" uid="3842253" user="NKA_import" version="1">
		<tag k="name" v="Tveitan" />
		<tag k="place" v="farm" />
		<tag k="ssr:stedsnr" v="980390" />
		<tag k="ssr:type" v="gard" />
	</node>
	<node changeset="59608465" id="5670157978" lat="59.3222194" lon="9.6234639" timestamp="2018-06-06T16:25:55Z" uid="3842253" user="NKA_import" version="1">
		<tag k="name" v="Kåsene nordre" />
		<tag k="place" v="farm" />
		<tag k="ssr:stedsnr" v="594446" />
		<tag k="ssr:type" v="bruk" />
	</node>
	<node changeset="59608465" id="5670157979" lat="59.2953313" lon="9.6438483" timestamp="2018-06-06T16:25:55Z" uid="3842253" user="NKA_import" version="1">
		<tag k="name" v="Brattås" />
		<tag k="place" v="farm" />
		<tag k="ssr:stedsnr" v="980392" />
		<tag k="ssr:type" v="gard" />
	</node>
	<node changeset="59608465" id="5670157980" lat="59.2669194" lon="9.7873286" timestamp="2018-06-06T16:25:55Z" uid="3842253" user="NKA_import" version="1">
		<tag k="name" v="Surtedalen" />
		<tag k="place" v="farm" />
		<tag k="ssr:stedsnr" v="980396" />
		<tag k="ssr:type" v="gard" />
	</node>
	<node changeset="59608465" id="5670157981" lat="59.2880028" lon="9.7096361" timestamp="2018-06-06T16:25:56Z" uid="3842253" user="NKA_import" version="1">
		<tag k="name" v="Prestegården" />
		<tag k="place" v="farm" />
		<tag k="ssr:stedsnr" v="594485" />
		<tag k="ssr:type" v="gard" />
	</node>
	<node changeset="59608465" id="5670157982" lat="59.25331" lon="9.7580034" timestamp="2018-06-06T16:25:56Z" uid="3842253" user="NKA_import" version="1">
		<tag k="name" v="Øvre Rød" />
		<tag k="place" v="farm" />
		<tag k="ssr:stedsnr" v="594670" />
		<tag k="ssr:type" v="bruk" />
	</node>
	<node changeset="59608465" id="5670157983" lat="59.2610205" lon="9.7961163" timestamp="2018-06-06T16:25:56Z" uid="3842253" user="NKA_import" version="1">
		<tag k="name" v="Viken" />
		<tag k="place" v="farm" />
		<tag k="ssr:stedsnr" v="980397" />
		<tag k="ssr:type" v="gard" />
	</node>
	<node changeset="59608465" id="5670157984" lat="59.2560652" lon="9.7676026" timestamp="2018-06-06T16:25:56Z" uid="3842253" user="NKA_import" version="1">
		<tag k="name" v="Nordre Gonsholt" />
		<tag k="place" v="farm" />
		<tag k="ssr:stedsnr" v="980398" />
		<tag k="ssr:type" v="gard" />
	</node>
	<node changeset="59608465" id="5670157985" lat="59.267199" lon="9.7374988" timestamp="2018-06-06T16:25:56Z" uid="3842253" user="NKA_import" version="1">
		<tag k="name" v="Søndre Engelstad" />
		<tag k="place" v="farm" />
		<tag k="ssr:stedsnr" v="594697" />
		<tag k="ssr:type" v="bruk" />
	</node>
	<node changeset="59608465" id="5670157986" lat="59.2541738" lon="9.7677216" timestamp="2018-06-06T16:25:56Z" uid="3842253" user="NKA_import" version="1">
		<tag k="name" v="Søndre Gonsholt" />
		<tag k="place" v="farm" />
		<tag k="ssr:stedsnr" v="980399" />
		<tag k="ssr:type" v="gard" />
	</node>
	<node changeset="59608465" id="5670157987" lat="59.2475917" lon="9.8184472" timestamp="2018-06-06T16:25:56Z" uid="3842253" user="NKA_import" version="1">
		<tag k="name" v="Sikane" />
		<tag k="place" v="farm" />
		<tag k="ssr:stedsnr" v="594741" />
		<tag k="ssr:type" v="bruk" />
	</node>
	<node changeset="59608465" id="5670157988" lat="59.2550624" lon="9.7679877" timestamp="2018-06-06T16:25:56Z" uid="3842253" user="NKA_import" version="1">
		<tag k="name" v="Gonsholt" />
		<tag k="place" v="hamlet" />
		<tag k="ssr:stedsnr" v="980400" />
		<tag k="ssr:type" v="navnegard" />
	</node>
	<node changeset="59608465" id="5670157989" lat="59.2676944" lon="9.7847" timestamp="2018-06-06T16:25:56Z" uid="3842253" user="NKA_import" version="1">
		<tag k="name" v="Sortedal" />
		<tag k="place" v="locality" />
		<tag k="ssr:stedsnr" v="594785" />
		<tag k="ssr:type" v="gammelBosettingsplass" />
	</node>
	<node changeset="59608465" id="5670157990" lat="59.2531694" lon="9.7637333" timestamp="2018-06-06T16:25:56Z" uid="3842253" user="NKA_import" version="1">
		<tag k="name" v="Vestgård" />
		<tag k="place" v="farm" />
		<tag k="ssr:stedsnr" v="170710" />
		<tag k="ssr:type" v="bruk" />
	</node>
	<node changeset="59608465" id="5670157991" lat="59.2565348" lon="9.8222873" timestamp="2018-06-06T16:25:56Z" uid="3842253" user="NKA_import" version="1">
		<tag k="name" v="Nordre Kiste" />
		<tag k="place" v="farm" />
		<tag k="ssr:stedsnr" v="980402" />
		<tag k="ssr:type" v="gard" />
	</node>
	<node changeset="59608465" id="5670157992" lat="59.2441173" lon="9.803642" timestamp="2018-06-06T16:25:57Z" uid="3842253" user="NKA_import" version="1">
		<tag k="name" v="Søndre Kiste" />
		<tag k="place" v="farm" />
		<tag k="ssr:stedsnr" v="980403" />
		<tag k="ssr:type" v="gard" />
	</node>
	<node changeset="59608465" id="5670157993" lat="59.2556528" lon="9.7634167" timestamp="2018-06-06T16:25:57Z" uid="3842253" user="NKA_import" version="1">
		<tag k="name" v="Bjerke" />
		<tag k="place" v="farm" />
		<tag k="ssr:stedsnr" v="170712" />
		<tag k="ssr:type" v="bruk" />
	</node>
	<node changeset="59608465" id="5670157994" lat="59.2460434" lon="9.8030107" timestamp="2018-06-06T16:25:57Z" uid="3842253" user="NKA_import" version="1">
		<tag k="name" v="Kiste" />
		<tag k="place" v="hamlet" />
		<tag k="ssr:stedsnr" v="980404" />
		<tag k="ssr:type" v="navnegard" />
	</node>
	<node changeset="59608465" id="5670157995" lat="59.2136333" lon="9.8440805" timestamp="2018-06-06T16:25:57Z" uid="3842253" user="NKA_import" version="1">
		<tag k="name" v="Kvisla" />
		<tag k="place" v="farm" />
		<tag k="ssr:stedsnr" v="183746" />
		<tag k="ssr:type" v="gard" />
	</node>
	<node changeset="59608465" id="5670157996" lat="59.2292417" lon="9.8263306" timestamp="2018-06-06T16:25:57Z" uid="3842253" user="NKA_import" version="1">
		<tag k="name" v="Moholt" />
		<tag k="place" v="farm" />
		<tag k="ssr:stedsnr" v="607649" />
		<tag k="ssr:type" v="gard" />
	</node>
	<node changeset="59608465" id="5670157997" lat="59.3085361" lon="9.6591611" timestamp="2018-06-06T16:25:57Z" uid="3842253" user="NKA_import" version="1">
		<tag k="name" v="Nordtveit" />
		<tag k="place" v="isolated_dwelling" />
		<tag k="ssr:stedsnr" v="184422" />
		<tag k="ssr:type" v="eneboligMindreBoligbygg" />
	</node>
	<node changeset="59608465" id="5670157998" lat="59.3088889" lon="9.6643" timestamp="2018-06-06T16:25:57Z" uid="3842253" user="NKA_import" version="1">
		<tag k="name" v="Tveitan" />
		<tag k="place" v="farm" />
		<tag k="ssr:stedsnr" v="608411" />
		<tag k="ssr:type" v="bruk" />
	</node>
	<node changeset="59608465" id="5670157999" lat="59.3292528" lon="9.7268361" timestamp="2018-06-06T16:25:57Z" uid="3842253" user="NKA_import" version="1">
		<tag k="alt_name" v="Hogstadsæter, s" />
		<tag k="historic" v="shieling" />
		<tag k="name" v="Søndre Hogstadseter" />
		<tag k="place" v="locality" />
		<tag k="ssr:stedsnr" v="184332" />
		<tag k="ssr:type" v="seterStøl" />
	</node>
	<node changeset="59608465" id="5670158000" lat="59.3014" lon="9.6405167" timestamp="2018-06-06T16:25:57Z" uid="3842253" user="NKA_import" version="1">
		<tag k="name" v="Avsøla" />
		<tag k="place" v="farm" />
		<tag k="ssr:stedsnr" v="184401" />
		<tag k="ssr:type" v="bruk" />
	</node>
	<node changeset="59608465" id="5670158001" lat="59.3154111" lon="9.7141583" timestamp="2018-06-06T16:25:57Z" uid="3842253" user="NKA_import" version="1">
		<tag k="alt_name" v="Kløverødsæter" />
		<tag k="name" v="Kløverødseter" />
		<tag k="place" v="isolated_dwelling" />
		<tag k="ssr:stedsnr" v="184441" />
		<tag k="ssr:type" v="fritidsbolig" />
	</node>
	<node changeset="59608465" id="5670158002" lat="59.2107333" lon="9.8400528" timestamp="2018-06-06T16:25:57Z" uid="3842253" user="NKA_import" version="1">
		<tag k="name" v="Kvislarønningen" />
		<tag k="old_name" v="Kvislerønningen" />
		<tag k="place" v="farm" />
		<tag k="ssr:stedsnr" v="608780" />
		<tag k="ssr:type" v="bruk" />
	</node>
	<node changeset="59608465" id="5670158003" lat="59.3147783" lon="9.6579209" timestamp="2018-06-06T16:25:58Z" uid="3842253" user="NKA_import" version="1">
		<tag k="name" v="Elvestad" />
		<tag k="place" v="farm" />
		<tag k="ssr:stedsnr" v="184448" />
		<tag k="ssr:type" v="bruk" />
	</node>
	<node changeset="59608465" id="5670158004" lat="59.3551306" lon="9.6671944" timestamp="2018-06-06T16:25:58Z" uid="3842253" user="NKA_import" version="1">
		<tag k="name" v="Vanebu" />
		<tag k="place" v="hamlet" />
		<tag k="ssr:stedsnr" v="305264" />
		<tag k="ssr:type" v="bruk" />
	</node>
	<node changeset="59608465" id="5670158005" lat="59.2694696" lon="9.7485658" timestamp="2018-06-06T16:25:58Z" uid="3842253" user="NKA_import" version="1">
		<tag k="alt_name" v="Gurholt" />
		<tag k="name" v="Gurholt" />
		<tag k="place" v="hamlet" />
		<tag k="ssr:stedsnr" v="184462" />
		<tag k="ssr:type" v="gard" />
	</node>
	<node changeset="59608465" id="5670158006" lat="59.3721667" lon="9.6759167" timestamp="2018-06-06T16:25:58Z" uid="3842253" user="NKA_import" version="1">
		<tag k="name" v="Bjørndalen" />
		<tag k="place" v="farm" />
		<tag k="ssr:stedsnr" v="305272" />
		<tag k="ssr:type" v="bruk" />
	</node>
	<node changeset="59608465" id="5670158007" lat="59.3848889" lon="9.7036639" timestamp="2018-06-06T16:25:58Z" uid="3842253" user="NKA_import" version="1">
		<tag k="name" v="Steindalen" />
		<tag k="place" v="farm" />
		<tag k="ssr:stedsnr" v="609279" />
		<tag k="ssr:type" v="bruk" />
	</node>
	<node changeset="59608465" id="5670158008" lat="59.26435" lon="9.7421889" timestamp="2018-06-06T16:25:58Z" uid="3842253" user="NKA_import" version="1">
		<tag k="name" v="Serkland" />
		<tag k="place" v="farm" />
		<tag k="ssr:stedsnr" v="184474" />
		<tag k="ssr:type" v="gard" />
	</node>
	<node changeset="59608465" id="5670158009" lat="59.29115" lon="9.6880944" timestamp="2018-06-06T16:25:58Z" uid="3842253" user="NKA_import" version="1">
		<tag k="name" v="Skilbred" />
		<tag k="place" v="farm" />
		<tag k="ssr:stedsnr" v="184503" />
		<tag k="ssr:type" v="bruk" />
	</node>
	<node changeset="59608465" id="5670158010" lat="59.295675" lon="9.6827722" timestamp="2018-06-06T16:25:58Z" uid="3842253" user="NKA_import" version="1">
		<tag k="name" v="Solås" />
		<tag k="place" v="farm" />
		<tag k="ssr:stedsnr" v="305407" />
		<tag k="ssr:type" v="bruk" />
	</node>
	<node changeset="59608465" id="5670158011" lat="59.4054611" lon="9.6467056" timestamp="2018-06-06T16:25:58Z" uid="3842253" user="NKA_import" version="1">
		<tag k="name" v="Romsdalen" />
		<tag k="place" v="farm" />
		<tag k="ssr:stedsnr" v="609293" />
		<tag k="ssr:type" v="bruk" />
	</node>
	<node changeset="59608465" id="5670158012" lat="59.312225" lon="9.6418778" timestamp="2018-06-06T16:25:58Z" uid="3842253" user="NKA_import" version="1">
		<tag k="name" v="Granli" />
		<tag k="place" v="farm" />
		<tag k="ssr:stedsnr" v="305459" />
		<tag k="ssr:type" v="bruk" />
	</node>
	<node changeset="59608465" id="5670158013" lat="59.3337" lon="9.7149167" timestamp="2018-06-06T16:25:58Z" uid="3842253" user="NKA_import" version="1">
		<tag k="alt_name" v="Hogstadsæter, nordre" />
		<tag k="historic" v="shieling" />
		<tag k="name" v="Nordre Hogstadseter" />
		<tag k="place" v="locality" />
		<tag k="ssr:stedsnr" v="609328" />
		<tag k="ssr:type" v="seterStøl" />
	</node>
	<node changeset="59608465" id="5670158014" lat="59.2735122" lon="9.7016191" timestamp="2018-06-06T16:25:59Z" uid="3842253" user="NKA_import" version="1">
		<tag k="alt_name" v="Holtefeltet" />
		<tag k="name" v="Holtesletta" />
		<tag k="place" v="neighbourhood" />
		<tag k="ssr:stedsnr" v="203244" />
		<tag k="ssr:type" v="boligfelt" />
	</node>
	<node changeset="59608465" id="5670158015" lat="59.2671323" lon="9.7350489" timestamp="2018-06-06T16:25:59Z" uid="3842253" user="NKA_import" version="1">
		<tag k="name" v="Engelstad" />
		<tag k="place" v="hamlet" />
		<tag k="ssr:stedsnr" v="305472" />
		<tag k="ssr:type" v="bruk" />
	</node>
	<node changeset="59608465" id="5670158016" lat="59.315248" lon="9.6562993" timestamp="2018-06-06T16:25:59Z" uid="3842253" user="NKA_import" version="1">
		<tag k="name" v="Opdalen" />
		<tag k="place" v="hamlet" />
		<tag k="ssr:stedsnr" v="609338" />
		<tag k="ssr:type" v="bygdelagBygd" />
	</node>
	<node changeset="59608465" id="5670158017" lat="59.2762639" lon="9.6776806" timestamp="2018-06-06T16:25:59Z" uid="3842253" user="NKA_import" version="1">
		<tag k="name" v="Lauvlastua" />
		<tag k="place" v="isolated_dwelling" />
		<tag k="ssr:stedsnr" v="609443" />
		<tag k="ssr:type" v="fritidsbolig" />
	</node>
	<node changeset="59608465" id="5670158018" lat="59.2843389" lon="9.726075" timestamp="2018-06-06T16:25:59Z" uid="3842253" user="NKA_import" version="1">
		<tag k="name" v="Nordbø" />
		<tag k="place" v="farm" />
		<tag k="ssr:stedsnr" v="305521" />
		<tag k="ssr:type" v="bruk" />
	</node>
	<node changeset="59608465" id="5670158019" lat="59.2873667" lon="9.7034083" timestamp="2018-06-06T16:25:59Z" uid="3842253" user="NKA_import" version="1">
		<tag k="name" v="Høgset" />
		<tag k="place" v="farm" />
		<tag k="ssr:stedsnr" v="305541" />
		<tag k="ssr:type" v="gard" />
	</node>
	<node changeset="59608465" id="5670158020" lat="59.2361667" lon="9.8100055" timestamp="2018-06-06T16:25:59Z" uid="3842253" user="NKA_import" version="1">
		<tag k="name" v="Stranda" />
		<tag k="place" v="locality" />
		<tag k="ssr:stedsnr" v="655002" />
		<tag k="ssr:type" v="gammelBosettingsplass" />
	</node>
	<node changeset="59608465" id="5670158721" lat="59.2116222" lon="9.8595861" timestamp="2018-06-06T16:25:59Z" uid="3842253" user="NKA_import" version="1">
		<tag k="name" v="Neset" />
		<tag k="place" v="farm" />
		<tag k="ssr:stedsnr" v="305739" />
		<tag k="ssr:type" v="gard" />
	</node>
	<node changeset="59608465" id="5670158722" lat="59.4042167" lon="9.6637833" timestamp="2018-06-06T16:25:59Z" uid="3842253" user="NKA_import" version="1">
		<tag k="name" v="Kollen" />
		<tag k="place" v="farm" />
		<tag k="ssr:stedsnr" v="306287" />
		<tag k="ssr:type" v="bruk" />
	</node>
	<node changeset="59608465" id="5670158723" lat="59.334764" lon="9.6030937" timestamp="2018-06-06T16:25:59Z" uid="3842253" user="NKA_import" version="1">
		<tag k="building" v="cabin" />
		<tag k="loc_name" v="Sølverødseter" />
		<tag k="name" v="Sølverød" />
		<tag k="place" v="isolated_dwelling" />
		<tag k="ssr:stedsnr" v="306319" />
		<tag k="ssr:type" v="fritidsbolig" />
	</node>
	<node changeset="59608465" id="5670158724" lat="59.2953108" lon="9.7923349" timestamp="2018-06-06T16:25:59Z" uid="3842253" user="NKA_import" version="1">
		<tag k="building" v="farm_auxiliary" />
		<tag k="name" v="Fjellriset" />
		<tag k="place" v="locality" />
		<tag k="ssr:stedsnr" v="655229" />
		<tag k="ssr:type" v="byggForJordbrukFiskeOgFangst" />
	</node>
	<node changeset="59608465" id="5670158725" lat="59.2896833" lon="9.702725" timestamp="2018-06-06T16:26:00Z" uid="3842253" user="NKA_import" version="1">
		<tag k="name" v="Ekli" />
		<tag k="place" v="farm" />
		<tag k="ssr:stedsnr" v="655274" />
		<tag k="ssr:type" v="bruk" />
	</node>
	<node changeset="59608465" id="5670158726" lat="59.3204667" lon="9.6264194" timestamp="2018-06-06T16:26:00Z" uid="3842253" user="NKA_import" version="1">
		<tag k="name" v="Kåsene søndre" />
		<tag k="place" v="farm" />
		<tag k="ssr:stedsnr" v="230436" />
		<tag k="ssr:type" v="bruk" />
	</node>
	<node changeset="59608465" id="5670158727" lat="59.2203389" lon="9.7648639" timestamp="2018-06-06T16:26:00Z" uid="3842253" user="NKA_import" version="1">
		<tag k="name" v="Øvre Valldal" />
		<tag k="place" v="locality" />
		<tag k="ssr:stedsnr" v="351255" />
		<tag k="ssr:type" v="gammelBosettingsplass" />
	</node>
	<node changeset="59608465" id="5670158728" lat="59.3143139" lon="9.7438116" timestamp="2018-06-06T16:26:00Z" uid="3842253" user="NKA_import" version="1">
		<tag k="building" v="farm_auxiliary" />
		<tag k="name" v="Gåladammen" />
		<tag k="place" v="locality" />
		<tag k="ssr:stedsnr" v="655305" />
		<tag k="ssr:type" v="byggForJordbrukFiskeOgFangst" />
	</node>
	<node changeset="59608465" id="5670158729" lat="59.2783667" lon="9.7123972" timestamp="2018-06-06T16:26:00Z" uid="3842253" user="NKA_import" version="1">
		<tag k="name" v="Nyhagen" />
		<tag k="place" v="farm" />
		<tag k="ssr:stedsnr" v="655492" />
		<tag k="ssr:type" v="bruk" />
	</node>
	<node changeset="59608465" id="5670158730" lat="59.2795722" lon="9.7349222" timestamp="2018-06-06T16:26:00Z" uid="3842253" user="NKA_import" version="1">
		<tag k="name" v="Åsen" />
		<tag k="place" v="farm" />
		<tag k="ssr:stedsnr" v="230584" />
		<tag k="ssr:type" v="bruk" />
	</node>
	<node changeset="59608465" id="5670158731" lat="59.2500167" lon="9.76715" timestamp="2018-06-06T16:26:00Z" uid="3842253" user="NKA_import" version="1">
		<tag k="name" v="Tufte" />
		<tag k="place" v="farm" />
		<tag k="ssr:stedsnr" v="230823" />
		<tag k="ssr:type" v="bruk" />
	</node>
	<node changeset="59608465" id="5670158732" lat="59.3125556" lon="9.6665167" timestamp="2018-06-06T16:26:00Z" uid="3842253" user="NKA_import" version="1">
		<tag k="name" v="Tveitan nordgård" />
		<tag k="place" v="farm" />
		<tag k="ssr:stedsnr" v="351400" />
		<tag k="ssr:type" v="bruk" />
	</node>
	<node changeset="59608465" id="5670158733" lat="59.2489065" lon="9.7983826" timestamp="2018-06-06T16:26:00Z" uid="3842253" user="NKA_import" version="1">
		<tag k="building" v="cabin" />
		<tag k="name" v="Kiste" />
		<tag k="place" v="isolated_dwelling" />
		<tag k="ssr:stedsnr" v="655766" />
		<tag k="ssr:type" v="fritidsbolig" />
	</node>
	<node changeset="59608465" id="5670158734" lat="59.2658667" lon="9.7677944" timestamp="2018-06-06T16:26:00Z" uid="3842253" user="NKA_import" version="1">
		<tag k="name" v="Kjølnes" />
		<tag k="place" v="locality" />
		<tag k="ssr:stedsnr" v="351808" />
		<tag k="ssr:type" v="gammelBosettingsplass" />
	</node>
	<node changeset="59608465" id="5670158735" lat="59.3748736" lon="9.7477616" timestamp="2018-06-06T16:26:00Z" uid="3842253" user="NKA_import" version="1">
		<tag k="amenity" v="cafe" />
		<tag k="name" v="Årumstua" />
		<tag k="ski" v="yes" />
		<tag k="ssr:stedsnr" v="669256" />
		<tag k="ssr:type" v="turisthytte" />
	</node>
	<node changeset="59608465" id="5670158736" lat="59.3056712" lon="9.6600331" timestamp="2018-06-06T16:26:00Z" uid="3842253" user="NKA_import" version="1">
		<tag k="name" v="Nordre Sørtveit" />
		<tag k="place" v="farm" />
		<tag k="ssr:stedsnr" v="231291" />
		<tag k="ssr:type" v="bruk" />
	</node>
	<node changeset="59608465" id="5670158737" lat="59.2392056" lon="9.7741639" timestamp="2018-06-06T16:26:01Z" uid="3842253" user="NKA_import" version="1">
		<tag k="name" v="Bakkanejordet" />
		<tag k="place" v="locality" />
		<tag k="ssr:stedsnr" v="352101" />
		<tag k="ssr:type" v="gammelBosettingsplass" />
	</node>
	<node changeset="59608465" id="5670158738" lat="59.2908833" lon="9.6897389" timestamp="2018-06-06T16:26:01Z" uid="3842253" user="NKA_import" version="1">
		<tag k="name" v="Friborg" />
		<tag k="place" v="farm" />
		<tag k="ssr:stedsnr" v="231313" />
		<tag k="ssr:type" v="bruk" />
	</node>
	<node changeset="59608465" id="5670158739" lat="59.2828139" lon="9.7773889" timestamp="2018-06-06T16:26:01Z" uid="3842253" user="NKA_import" version="1">
		<tag k="name" v="Granli" />
		<tag k="place" v="farm" />
		<tag k="ssr:stedsnr" v="352184" />
		<tag k="ssr:type" v="bruk" />
	</node>
	<node changeset="59608465" id="5670158740" lat="59.3060222" lon="9.6491278" timestamp="2018-06-06T16:26:01Z" uid="3842253" user="NKA_import" version="1">
		<tag k="name" v="Rønningen" />
		<tag k="place" v="farm" />
		<tag k="ssr:stedsnr" v="231329" />
		<tag k="ssr:type" v="bruk" />
	</node>
	<node changeset="59608465" id="5670158741" lat="59.2915333" lon="9.7167972" timestamp="2018-06-06T16:26:01Z" uid="3842253" user="NKA_import" version="1">
		<tag k="name" v="Roligheten" />
		<tag k="place" v="farm" />
		<tag k="ssr:stedsnr" v="352208" />
		<tag k="ssr:type" v="bruk" />
	</node>
	<node changeset="59608465" id="5670158742" lat="59.2676444" lon="9.752225" timestamp="2018-06-06T16:26:01Z" uid="3842253" user="NKA_import" version="1">
		<tag k="name" v="Solbakken" />
		<tag k="place" v="farm" />
		<tag k="ssr:stedsnr" v="352681" />
		<tag k="ssr:type" v="bruk" />
	</node>
	<node changeset="59608465" id="5670158743" lat="59.2653333" lon="9.754025" timestamp="2018-06-06T16:26:02Z" uid="3842253" user="NKA_import" version="1">
		<tag k="name" v="Svingen" />
		<tag k="place" v="farm" />
		<tag k="ssr:stedsnr" v="352683" />
		<tag k="ssr:type" v="bruk" />
	</node>
	<node changeset="59608465" id="5670158744" lat="59.304325" lon="9.6459278" timestamp="2018-06-06T16:26:02Z" uid="3842253" user="NKA_import" version="1">
		<tag k="name" v="Grønland" />
		<tag k="place" v="farm" />
		<tag k="ssr:stedsnr" v="669424" />
		<tag k="ssr:type" v="bruk" />
	</node>
	<node changeset="59608465" id="5670158745" lat="59.3165611" lon="9.6530278" timestamp="2018-06-06T16:26:02Z" uid="3842253" user="NKA_import" version="1">
		<tag k="name" v="Botndalen" />
		<tag k="place" v="farm" />
		<tag k="ssr:stedsnr" v="669444" />
		<tag k="ssr:type" v="bruk" />
	</node>
	<node changeset="59608465" id="5670158746" lat="59.3131846" lon="9.7543302" timestamp="2018-06-06T16:26:02Z" uid="3842253" user="NKA_import" version="1">
		<tag k="alt_name" v="Prestegårdsætra" />
		<tag k="building" v="cabin" />
		<tag k="name" v="Prestegårdseter" />
		<tag k="place" v="isolated_dwelling" />
		<tag k="ssr:stedsnr" v="245409" />
		<tag k="ssr:type" v="fritidsbolig" />
	</node>
	<node changeset="59608465" id="5670158747" lat="59.2827361" lon="9.777725" timestamp="2018-06-06T16:26:02Z" uid="3842253" user="NKA_import" version="1">
		<tag k="name" v="Sandbrekkene" />
		<tag k="place" v="farm" />
		<tag k="ssr:stedsnr" v="669509" />
		<tag k="ssr:type" v="bruk" />
	</node>
	<node changeset="59608465" id="5670158748" lat="59.314175" lon="9.6437278" timestamp="2018-06-06T16:26:02Z" uid="3842253" user="NKA_import" version="1">
		<tag k="name" v="Tormodsrød" />
		<tag k="place" v="farm" />
		<tag k="ssr:stedsnr" v="245413" />
		<tag k="ssr:type" v="gard" />
	</node>
	<node changeset="59608465" id="5670158749" lat="59.2868028" lon="9.7196889" timestamp="2018-06-06T16:26:02Z" uid="3842253" user="NKA_import" version="1">
		<tag k="name" v="Sørbøhagen" />
		<tag k="place" v="farm" />
		<tag k="ssr:stedsnr" v="245465" />
		<tag k="ssr:type" v="bruk" />
	</node>
	<node changeset="59608465" id="5670158750" lat="59.2881583" lon="9.691475" timestamp="2018-06-06T16:26:02Z" uid="3842253" user="NKA_import" version="1">
		<tag k="name" v="Skilbred" />
		<tag k="place" v="farm" />
		<tag k="ssr:stedsnr" v="245480" />
		<tag k="ssr:type" v="gard" />
	</node>
	<node changeset="59608465" id="5670158751" lat="59.291575" lon="9.7009667" timestamp="2018-06-06T16:26:02Z" uid="3842253" user="NKA_import" version="1">
		<tag k="name" v="Solheim" />
		<tag k="place" v="farm" />
		<tag k="ssr:stedsnr" v="366398" />
		<tag k="ssr:type" v="bruk" />
	</node>
	<node changeset="59608465" id="5670158752" lat="59.305175" lon="9.6649806" timestamp="2018-06-06T16:26:02Z" uid="3842253" user="NKA_import" version="1">
		<tag k="name" v="Saga" />
		<tag k="place" v="farm" />
		<tag k="ssr:stedsnr" v="427425" />
		<tag k="ssr:type" v="bruk" />
	</node>
	<node changeset="59608465" id="5670158753" lat="59.2637821" lon="9.6982991" timestamp="2018-06-06T16:26:02Z" uid="3842253" user="NKA_import" version="1">
		<tag k="name" v="Skauen" />
		<tag k="place" v="neighbourhood" />
		<tag k="ssr:stedsnr" v="688772" />
		<tag k="ssr:type" v="boligfelt" />
	</node>
	<node changeset="59608465" id="5670158754" lat="59.3122667" lon="9.6666861" timestamp="2018-06-06T16:26:02Z" uid="3842253" user="NKA_import" version="1">
		<tag k="name" v="Nordgård" />
		<tag k="place" v="farm" />
		<tag k="ssr:stedsnr" v="427442" />
		<tag k="ssr:type" v="bruk" />
	</node>
	<node changeset="59608465" id="5670158755" lat="59.2735139" lon="9.7295806" timestamp="2018-06-06T16:26:03Z" uid="3842253" user="NKA_import" version="1">
		<tag k="name" v="Tudal" />
		<tag k="place" v="farm" />
		<tag k="ssr:stedsnr" v="427474" />
		<tag k="ssr:type" v="gard" />
	</node>
	<node changeset="59608465" id="5670158756" lat="59.2863028" lon="9.7249389" timestamp="2018-06-06T16:26:03Z" uid="3842253" user="NKA_import" version="1">
		<tag k="name" v="Sørbø" />
		<tag k="place" v="hamlet" />
		<tag k="ssr:stedsnr" v="366497" />
		<tag k="ssr:type" v="gard" />
	</node>
	<node changeset="59608465" id="5670158757" lat="59.2601552" lon="9.8389864" timestamp="2018-06-06T16:26:03Z" uid="3842253" user="NKA_import" version="1">
		<tag k="building" v="cabin" />
		<tag k="name" v="Diplestua" />
		<tag k="place" v="isolated_dwelling" />
		<tag k="ssr:stedsnr" v="695231" />
		<tag k="ssr:type" v="fritidsbolig" />
	</node>
	<node changeset="59608465" id="5670158758" lat="59.2944972" lon="9.6870139" timestamp="2018-06-06T16:26:03Z" uid="3842253" user="NKA_import" version="1">
		<tag k="name" v="Oset" />
		<tag k="place" v="farm" />
		<tag k="ssr:stedsnr" v="715299" />
		<tag k="ssr:type" v="bruk" />
	</node>
	<node changeset="59608465" id="5670158759" lat="59.2792889" lon="9.7273861" timestamp="2018-06-06T16:26:03Z" uid="3842253" user="NKA_import" version="1">
		<tag k="name" v="Østby" />
		<tag k="place" v="farm" />
		<tag k="ssr:stedsnr" v="716519" />
		<tag k="ssr:type" v="bruk" />
	</node>
	<node changeset="59608465" id="5670158760" lat="59.2885809" lon="9.7064618" timestamp="2018-06-06T16:26:03Z" uid="3842253" user="NKA_import" version="1">
		<tag k="name" v="Siljan" />
		<tag k="place" v="hamlet" />
		<tag k="ssr:stedsnr" v="427513" />
		<tag k="ssr:type" v="bygdelagBygd" />
	</node>
	<node changeset="59608465" id="5670158761" lat="59.2665472" lon="9.8225333" timestamp="2018-06-06T16:26:03Z" uid="3842253" user="NKA_import" version="1">
		<tag k="historic" v="shieling" />
		<tag k="name" v="Nordre Kisteseter" />
		<tag k="place" v="locality" />
		<tag k="ssr:stedsnr" v="385836" />
		<tag k="ssr:type" v="seterStøl" />
	</node>
	<node changeset="59608465" id="5670158762" lat="59.2467861" lon="9.7631639" timestamp="2018-06-06T16:26:03Z" uid="3842253" user="NKA_import" version="1">
		<tag k="name" v="Vierød" />
		<tag k="place" v="farm" />
		<tag k="ssr:stedsnr" v="427628" />
		<tag k="ssr:type" v="bruk" />
	</node>
	<node changeset="59608465" id="5670158763" lat="59.28275" lon="9.7103361" timestamp="2018-06-06T16:26:03Z" uid="3842253" user="NKA_import" version="1">
		<tag k="name" v="Bjørntvedt" />
		<tag k="place" v="farm" />
		<tag k="ssr:stedsnr" v="716520" />
		<tag k="ssr:type" v="bruk" />
	</node>
	<node changeset="79869835" id="5670158764" lat="59.2790785" lon="9.7294212" timestamp="2020-01-21T17:48:54Z" uid="3497659" user="NKA" version="2">
		<tag k="name" v="Siljan" />
		<tag k="place" v="village" />
		<tag k="population" v="629" />
		<tag k="population:date" v="2019-01-01" />
		<tag k="ref:ssb_tettsted" v="3031" />
		<tag k="ssr:stedsnr" v="403616" />
		<tag k="ssr:type" v="boligfelt" />
	</node>
	<node changeset="59608465" id="5670158765" lat="59.309025" lon="9.6639222" timestamp="2018-06-06T16:26:03Z" uid="3842253" user="NKA_import" version="1">
		<tag k="name" v="Tveitan søndre" />
		<tag k="place" v="farm" />
		<tag k="ssr:stedsnr" v="716273" />
		<tag k="ssr:type" v="bruk" />
	</node>
	<node changeset="59608465" id="5670158766" lat="59.22885" lon="9.8604417" timestamp="2018-06-06T16:26:03Z" uid="3842253" user="NKA_import" version="1">
		<tag k="name" v="Auen" />
		<tag k="place" v="neighbourhood" />
		<tag k="ssr:stedsnr" v="464654" />
		<tag k="ssr:type" v="boligfelt" />
	</node>
	<node changeset="59608465" id="5670158767" lat="59.2437722" lon="9.7762444" timestamp="2018-06-06T16:26:04Z" uid="3842253" user="NKA_import" version="1">
		<tag k="name" v="Riset" />
		<tag k="place" v="farm" />
		<tag k="ssr:stedsnr" v="473053" />
		<tag k="ssr:type" v="bruk" />
	</node>
	<node changeset="59608465" id="5670158768" lat="59.2281139" lon="9.8736333" timestamp="2018-06-06T16:26:04Z" uid="3842253" user="NKA_import" version="1">
		<tag k="name" v="Svartangen" />
		<tag k="place" v="farm" />
		<tag k="ssr:stedsnr" v="486665" />
		<tag k="ssr:type" v="gard" />
	</node>
	<node changeset="59608465" id="5670158769" lat="59.2556472" lon="9.7709889" timestamp="2018-06-06T16:26:04Z" uid="3842253" user="NKA_import" version="1">
		<tag k="name" v="Prestejordet" />
		<tag k="place" v="farm" />
		<tag k="ssr:stedsnr" v="716839" />
		<tag k="ssr:type" v="bruk" />
	</node>
	<node changeset="59608465" id="5670158770" lat="59.2543889" lon="9.8558306" timestamp="2018-06-06T16:26:04Z" uid="3842253" user="NKA_import" version="1">
		<tag k="name" v="Gamleseter" />
		<tag k="place" v="locality" />
		<tag k="ssr:stedsnr" v="716899" />
		<tag k="ssr:type" v="gammelBosettingsplass" />
	</node>
	<node changeset="59608465" id="5670158771" lat="59.318975" lon="9.6515778" timestamp="2018-06-06T16:26:04Z" uid="3842253" user="NKA_import" version="1">
		<tag k="name" v="Island" />
		<tag k="place" v="farm" />
		<tag k="ssr:stedsnr" v="487460" />
		<tag k="ssr:type" v="gard" />
	</node>
	<node changeset="59608465" id="5670158772" lat="59.2722417" lon="9.72915" timestamp="2018-06-06T16:26:04Z" uid="3842253" user="NKA_import" version="1">
		<tag k="name" v="Soltveit" />
		<tag k="place" v="farm" />
		<tag k="ssr:stedsnr" v="487494" />
		<tag k="ssr:type" v="bruk" />
	</node>
	<node changeset="59608465" id="5670158773" lat="59.2335283" lon="9.8318004" timestamp="2018-06-06T16:26:04Z" uid="3842253" user="NKA_import" version="1">
		<tag k="name" v="Streket" />
		<tag k="place" v="farm" />
		<tag k="ssr:stedsnr" v="716962" />
		<tag k="ssr:type" v="bruk" />
	</node>
	<node changeset="59608465" id="5670158774" lat="59.2766333" lon="9.7106775" timestamp="2018-06-06T16:26:04Z" uid="3842253" user="NKA_import" version="1">
		<tag k="name" v="Hagen" />
		<tag k="place" v="farm" />
		<tag k="ssr:stedsnr" v="487512" />
		<tag k="ssr:type" v="bruk" />
	</node>
	<node changeset="59608465" id="5670158775" lat="59.2792108" lon="9.7019608" timestamp="2018-06-06T16:26:04Z" uid="3842253" user="NKA_import" version="1">
		<tag k="name" v="Holte" />
		<tag k="place" v="farm" />
		<tag k="ssr:stedsnr" v="487513" />
		<tag k="ssr:type" v="gard" />
	</node>
	<node changeset="59608465" id="5670158776" lat="59.2343444" lon="9.8477028" timestamp="2018-06-06T16:26:04Z" uid="3842253" user="NKA_import" version="1">
		<tag k="name" v="Dåpan" />
		<tag k="place" v="farm" />
		<tag k="ssr:stedsnr" v="729662" />
		<tag k="ssr:type" v="bruk" />
	</node>
	<node changeset="59608465" id="5670158777" lat="59.3732" lon="9.6916861" timestamp="2018-06-06T16:26:04Z" uid="3842253" user="NKA_import" version="1">
		<tag k="name" v="Hakhaug" />
		<tag k="place" v="isolated_dwelling" />
		<tag k="ssr:stedsnr" v="730280" />
		<tag k="ssr:type" v="eneboligMindreBoligbygg" />
	</node>
	<node changeset="59608465" id="5670158778" lat="59.2891056" lon="9.6989889" timestamp="2018-06-06T16:26:05Z" uid="3842253" user="NKA_import" version="1">
		<tag k="name" v="Holtan" />
		<tag k="place" v="farm" />
		<tag k="ssr:stedsnr" v="413615" />
		<tag k="ssr:type" v="bruk" />
	</node>
	<node changeset="59608465" id="5670158779" lat="59.3149139" lon="9.6407528" timestamp="2018-06-06T16:26:05Z" uid="3842253" user="NKA_import" version="1">
		<tag k="name" v="Skogstad" />
		<tag k="place" v="farm" />
		<tag k="ssr:stedsnr" v="730443" />
		<tag k="ssr:type" v="bruk" />
	</node>
	<node changeset="59608465" id="5670158780" lat="59.291332" lon="9.7109862" timestamp="2018-06-06T16:26:05Z" uid="3842253" user="NKA_import" version="1">
		<tag k="name" v="Snurråsen" />
		<tag k="place" v="neighbourhood" />
		<tag k="ssr:stedsnr" v="506211" />
		<tag k="ssr:type" v="boligfelt" />
	</node>
	<node changeset="59608465" id="5670158781" lat="59.2522189" lon="9.8442068" timestamp="2018-06-06T16:26:05Z" uid="3842253" user="NKA_import" version="1">
		<tag k="building" v="cabin" />
		<tag k="name" v="Søndre Kisteseter" />
		<tag k="place" v="isolated_dwelling" />
		<tag k="ssr:stedsnr" v="730473" />
		<tag k="ssr:type" v="fritidsbolig" />
	</node>
	<node changeset="59608465" id="5670158782" lat="59.2820639" lon="9.6342528" timestamp="2018-06-06T16:26:05Z" uid="3842253" user="NKA_import" version="1">
		<tag k="name" v="Brattås seter" />
		<tag k="place" v="locality" />
		<tag k="ssr:stedsnr" v="473560" />
		<tag k="ssr:type" v="gammelBosettingsplass" />
	</node>
	<node changeset="59608465" id="5670158783" lat="59.2742778" lon="9.7051" timestamp="2018-06-06T16:26:05Z" uid="3842253" user="NKA_import" version="1">
		<tag k="name" v="Plassen" />
		<tag k="place" v="farm" />
		<tag k="ssr:stedsnr" v="473563" />
		<tag k="ssr:type" v="bruk" />
	</node>
	<node changeset="59608465" id="5670158784" lat="59.2737694" lon="9.7228111" timestamp="2018-06-06T16:26:05Z" uid="3842253" user="NKA_import" version="1">
		<tag k="name" v="Thorshaug" />
		<tag k="place" v="farm" />
		<tag k="ssr:stedsnr" v="473604" />
		<tag k="ssr:type" v="bruk" />
	</node>
	<node changeset="59608465" id="5670158785" lat="59.3951917" lon="9.70335" timestamp="2018-06-06T16:26:05Z" uid="3842253" user="NKA_import" version="1">
		<tag k="name" v="Grorudplassen" />
		<tag k="place" v="farm" />
		<tag k="ssr:stedsnr" v="731255" />
		<tag k="ssr:type" v="bruk" />
	</node>
	<node changeset="59608465" id="5670158786" lat="59.2514833" lon="9.7702306" timestamp="2018-06-06T16:26:05Z" uid="3842253" user="NKA_import" version="1">
		<tag k="name" v="Skobba" />
		<tag k="place" v="farm" />
		<tag k="ssr:stedsnr" v="473783" />
		<tag k="ssr:type" v="bruk" />
	</node>
	<node changeset="59608465" id="5670158787" lat="59.2804352" lon="9.7355789" timestamp="2018-06-06T16:26:05Z" uid="3842253" user="NKA_import" version="1">
		<tag k="name" v="Mølleåsen" />
		<tag k="place" v="neighbourhood" />
		<tag k="ssr:stedsnr" v="889618" />
		<tag k="ssr:type" v="boligfelt" />
	</node>
	<node changeset="59608465" id="5670158788" lat="59.2853499" lon="9.7072688" timestamp="2018-06-06T16:26:05Z" uid="3842253" user="NKA_import" version="1">
		<tag k="name" v="Høiset" />
		<tag k="place" v="farm" />
		<tag k="ssr:stedsnr" v="534572" />
		<tag k="ssr:type" v="bruk" />
	</node>
	<node changeset="59608465" id="5670158789" lat="59.2802833" lon="9.6981139" timestamp="2018-06-06T16:26:05Z" uid="3842253" user="NKA_import" version="1">
		<tag k="name" v="Kamperhaug" />
		<tag k="place" v="farm" />
		<tag k="ssr:stedsnr" v="534577" />
		<tag k="ssr:type" v="bruk" />
	</node>
	<node changeset="59608465" id="5670158790" lat="59.3111472" lon="9.7701222" timestamp="2018-06-06T16:26:06Z" uid="3842253" user="NKA_import" version="1">
		<tag k="name" v="Vindfjellstua" />
		<tag k="place" v="locality" />
		<tag k="ssr:stedsnr" v="898215" />
		<tag k="ssr:type" v="byggForJordbrukFiskeOgFangst" />
	</node>
	<node changeset="59608465" id="5670158791" lat="59.3081917" lon="9.6662667" timestamp="2018-06-06T16:26:06Z" uid="3842253" user="NKA_import" version="1">
		<tag k="name" v="Tveitan Sem" />
		<tag k="place" v="farm" />
		<tag k="ssr:stedsnr" v="898242" />
		<tag k="ssr:type" v="bruk" />
	</node>
	<node changeset="59608465" id="5670158792" lat="59.2928917" lon="9.6939417" timestamp="2018-06-06T16:26:06Z" uid="3842253" user="NKA_import" version="1">
		<tag k="name" v="Hillestad" />
		<tag k="place" v="farm" />
		<tag k="ssr:stedsnr" v="898266" />
		<tag k="ssr:type" v="bruk" />
	</node>
	<node changeset="59608465" id="5670158793" lat="59.3055222" lon="9.6451944" timestamp="2018-06-06T16:26:06Z" uid="3842253" user="NKA_import" version="1">
		<tag k="name" v="Svenskerønningen" />
		<tag k="place" v="farm" />
		<tag k="ssr:stedsnr" v="777274" />
		<tag k="ssr:type" v="bruk" />
	</node>
	<node changeset="59608465" id="5670158794" lat="59.2636944" lon="9.7509694" timestamp="2018-06-06T16:26:06Z" uid="3842253" user="NKA_import" version="1">
		<tag k="name" v="Engrønningen" />
		<tag k="place" v="farm" />
		<tag k="ssr:stedsnr" v="777706" />
		<tag k="ssr:type" v="bruk" />
	</node>
	<node changeset="59608465" id="5670158795" lat="59.2679427" lon="9.7348419" timestamp="2018-06-06T16:26:06Z" uid="3842253" user="NKA_import" version="1">
		<tag k="name" v="Nordre Engelstad" />
		<tag k="place" v="farm" />
		<tag k="ssr:stedsnr" v="413730" />
		<tag k="ssr:type" v="bruk" />
	</node>
	<node changeset="59608465" id="5670158796" lat="59.2111333" lon="9.8283111" timestamp="2018-06-06T16:26:06Z" uid="3842253" user="NKA_import" version="1">
		<tag k="name" v="Rønningen" />
		<tag k="place" v="farm" />
		<tag k="ssr:stedsnr" v="790766" />
		<tag k="ssr:type" v="bruk" />
	</node>
	<node changeset="59608465" id="5670158797" lat="59.262575" lon="9.7536222" timestamp="2018-06-06T16:26:06Z" uid="3842253" user="NKA_import" version="1">
		<tag k="name" v="Haugen" />
		<tag k="place" v="farm" />
		<tag k="ssr:stedsnr" v="791033" />
		<tag k="ssr:type" v="bruk" />
	</node>
	<node changeset="59608465" id="5670158798" lat="59.2336139" lon="9.8351639" timestamp="2018-06-06T16:26:06Z" uid="3842253" user="NKA_import" version="1">
		<tag k="name" v="Eidet" />
		<tag k="place" v="hamlet" />
		<tag k="ssr:stedsnr" v="1655" />
		<tag k="ssr:type" v="bruk" />
	</node>
	<node changeset="59608465" id="5670158799" lat="59.36205" lon="9.659725" timestamp="2018-06-06T16:26:06Z" uid="3842253" user="NKA_import" version="1">
		<tag k="loc_name" v="Toklev" />
		<tag k="name" v="Tokleiv" />
		<tag k="place" v="farm" />
		<tag k="ssr:stedsnr" v="791255" />
		<tag k="ssr:type" v="bruk" />
	</node>
	<node changeset="59608465" id="5670158800" lat="59.2067492" lon="9.781565" timestamp="2018-06-06T16:26:06Z" uid="3842253" user="NKA_import" version="1">
		<tag k="building" v="cabin" />
		<tag k="name" v="Orholt" />
		<tag k="place" v="isolated_dwelling" />
		<tag k="ssr:stedsnr" v="1693" />
		<tag k="ssr:type" v="fritidsbolig" />
	</node>
	<node changeset="59608465" id="5670158801" lat="59.3975955" lon="9.7063304" timestamp="2018-06-06T16:26:07Z" uid="3842253" user="NKA_import" version="1">
		<tag k="name" v="Grorud" />
		<tag k="place" v="hamlet" />
		<tag k="ssr:stedsnr" v="791296" />
		<tag k="ssr:type" v="grend" />
	</node>
	<node changeset="59608465" id="5670158802" lat="59.2202028" lon="9.8533556" timestamp="2018-06-06T16:26:07Z" uid="3842253" user="NKA_import" version="1">
		<tag k="name" v="Vranghol" />
		<tag k="place" v="farm" />
		<tag k="ssr:stedsnr" v="1714" />
		<tag k="ssr:type" v="bruk" />
	</node>
	<node changeset="59608465" id="5670158803" lat="59.2604278" lon="9.7583278" timestamp="2018-06-06T16:26:07Z" uid="3842253" user="NKA_import" version="1">
		<tag k="name" v="Hagen" />
		<tag k="place" v="farm" />
		<tag k="ssr:stedsnr" v="2040" />
		<tag k="ssr:type" v="bruk" />
	</node>
	<node changeset="59608465" id="5670158804" lat="59.3727056" lon="9.6637139" timestamp="2018-06-06T16:26:07Z" uid="3842253" user="NKA_import" version="1">
		<tag k="name" v="Toa" />
		<tag k="place" v="isolated_dwelling" />
		<tag k="ssr:stedsnr" v="2277" />
		<tag k="ssr:type" v="eneboligMindreBoligbygg" />
	</node>
	<node changeset="59608465" id="5670158805" lat="59.2971861" lon="9.68075" timestamp="2018-06-06T16:26:07Z" uid="3842253" user="NKA_import" version="1">
		<tag k="name" v="Kløva" />
		<tag k="place" v="farm" />
		<tag k="ssr:stedsnr" v="791367" />
		<tag k="ssr:type" v="bruk" />
	</node>
	<node changeset="59608465" id="5670158806" lat="59.3085861" lon="9.6406667" timestamp="2018-06-06T16:26:07Z" uid="3842253" user="NKA_import" version="1">
		<tag k="name" v="Rød" />
		<tag k="place" v="farm" />
		<tag k="ssr:stedsnr" v="791385" />
		<tag k="ssr:type" v="bruk" />
	</node>
	<node changeset="59608465" id="5670158807" lat="59.3229944" lon="9.5969472" timestamp="2018-06-06T16:26:07Z" uid="3842253" user="NKA_import" version="1">
		<tag k="historic" v="shieling" />
		<tag k="name" v="Søllandseter" />
		<tag k="place" v="locality" />
		<tag k="ssr:stedsnr" v="2368" />
		<tag k="ssr:type" v="seterStøl" />
	</node>
	<node changeset="59608465" id="5670158808" lat="59.3403861" lon="9.7641528" timestamp="2018-06-06T16:26:07Z" uid="3842253" user="NKA_import" version="1">
		<tag k="loc_name" v="Viddaseter" />
		<tag k="name" v="Vidda" />
		<tag k="place" v="isolated_dwelling" />
		<tag k="ssr:stedsnr" v="2373" />
		<tag k="ssr:type" v="fritidsbolig" />
	</node>
	<node changeset="59608465" id="5670158809" lat="59.2858778" lon="9.7421722" timestamp="2018-06-06T16:26:07Z" uid="3842253" user="NKA_import" version="1">
		<tag k="name" v="Rønningane" />
		<tag k="place" v="farm" />
		<tag k="ssr:stedsnr" v="791469" />
		<tag k="ssr:type" v="bruk" />
	</node>
	<node changeset="59608465" id="5670158810" lat="59.3060278" lon="9.64345" timestamp="2018-06-06T16:26:07Z" uid="3842253" user="NKA_import" version="1">
		<tag k="name" v="Nilsrud" />
		<tag k="place" v="farm" />
		<tag k="ssr:stedsnr" v="2433" />
		<tag k="ssr:type" v="bruk" />
	</node>
	<node changeset="59608465" id="5670158811" lat="59.3175028" lon="9.6620972" timestamp="2018-06-06T16:26:07Z" uid="3842253" user="NKA_import" version="1">
		<tag k="name" v="Nymo" />
		<tag k="place" v="isolated_dwelling" />
		<tag k="ssr:stedsnr" v="2453" />
		<tag k="ssr:type" v="eneboligMindreBoligbygg" />
	</node>
	<node changeset="59608465" id="5670158812" lat="59.2880917" lon="9.69665" timestamp="2018-06-06T16:26:07Z" uid="3842253" user="NKA_import" version="1">
		<tag k="name" v="Lunde" />
		<tag k="place" v="farm" />
		<tag k="ssr:stedsnr" v="791484" />
		<tag k="ssr:type" v="bruk" />
	</node>
	<node changeset="59608465" id="5670158813" lat="59.35015" lon="9.6713" timestamp="2018-06-06T16:26:08Z" uid="3842253" user="NKA_import" version="1">
		<tag k="name" v="Vanebu" />
		<tag k="place" v="neighbourhood" />
		<tag k="ssr:stedsnr" v="828614" />
		<tag k="ssr:type" v="hyttefelt" />
	</node>
	<node changeset="59608465" id="5670158814" lat="59.247425" lon="9.8081306" timestamp="2018-06-06T16:26:08Z" uid="3842253" user="NKA_import" version="1">
		<tag k="name" v="Teie" />
		<tag k="place" v="isolated_dwelling" />
		<tag k="ssr:stedsnr" v="2643" />
		<tag k="ssr:type" v="eneboligMindreBoligbygg" />
	</node>
	<node changeset="59608465" id="5670157819" lat="59.3194866" lon="9.5849313" timestamp="2018-06-06T16:25:46Z" uid="3842253" user="NKA_import" version="1">
		<tag k="building" v="cabin" />
		<tag k="name" v="Moheistua" />
		<tag k="place" v="isolated_dwelling" />
		<tag k="ssr:stedsnr" v="2754" />
		<tag k="ssr:type" v="fritidsbolig" />
	</node>
	<node changeset="59608465" id="5670157820" lat="59.2851667" lon="9.740075" timestamp="2018-06-06T16:25:46Z" uid="3842253" user="NKA_import" version="1">
		<tag k="name" v="Lillekås" />
		<tag k="place" v="farm" />
		<tag k="ssr:stedsnr" v="837486" />
		<tag k="ssr:type" v="bruk" />
	</node>
</osm>
