<?xml version="1.0" encoding="UTF-8"?>
<osm generator="osmapis" version="0.6">
	<node id="-16382" lat="66.8443138891" lon="13.4286361094">
		<tag k="name" v="Nordmarka" />
		<tag k="natural" v="slope" />
		<tag k="place" v="locality" />
		<tag k="ssr:stedsnr" v="340298" />
	</node>
	<node id="-16380" lat="66.7200777784" lon="13.7853611107">
		<tag k="name" v="Tennøyrlemmen" />
		<tag k="place" v="locality" />
		<tag k="ssr:stedsnr" v="324789" />
	</node>
	<node id="-16377" lat="66.8426583294" lon="13.5062111187">
		<tag k="fixme" v="consider natural=peak for the most distinct mountains in the district" />
		<tag k="name" v="Ligråfjellet" />
		<tag k="natural" v="hill" />
		<tag k="place" v="locality" />
		<tag k="ssr:stedsnr" v="320992" />
	</node>
	<node id="-16376" lat="66.8313000035" lon="13.3660527693">
		<tag k="name" v="Nakkåsen" />
		<tag k="natural" v="hill" />
		<tag k="place" v="locality" />
		<tag k="ssr:stedsnr" v="320989" />
	</node>
	<node id="-16375" lat="66.8333555517" lon="13.4947972245">
		<tag k="fixme" v="consider natural=peak for the most distinct mountains in the district" />
		<tag k="name" v="Røsshagtinden" />
		<tag k="natural" v="hill" />
		<tag k="place" v="locality" />
		<tag k="ssr:stedsnr" v="320980" />
	</node>
	<node id="-16372" lat="66.9098083361" lon="13.6875027843">
		<tag k="name" v="Kjerråsen" />
		<tag k="natural" v="hill" />
		<tag k="place" v="locality" />
		<tag k="ssr:stedsnr" v="320887" />
	</node>
	<node id="-16365" lat="66.8150527735" lon="13.8309333379">
		<tag k="fixme" v="consider natural=peak for the most distinct mountains in the district" />
		<tag k="name" v="Stortuva" />
		<tag k="natural" v="hill" />
		<tag k="place" v="locality" />
		<tag k="ssr:stedsnr" v="320334" />
	</node>
	<node id="-17048" lat="66.7165499963" lon="13.6013833367">
		<tag k="name" v="Gårdslia" />
		<tag k="natural" v="slope" />
		<tag k="place" v="locality" />
		<tag k="ssr:stedsnr" v="955164" />
	</node>
	<node id="-16340" lat="66.7021027761" lon="13.8592250046">
		<tag k="fixme" v="consider natural=peak for the most distinct mountains in the district" />
		<tag k="name" v="Ettinden" />
		<tag k="natural" v="hill" />
		<tag k="place" v="locality" />
		<tag k="ssr:stedsnr" v="319470" />
	</node>
	<node id="-16339" lat="66.6685833305" lon="14.0928416675">
		<tag k="fixme" v="consider natural=peak for the most distinct mountains in the district" />
		<tag k="name" v="Kjølfjellet" />
		<tag k="natural" v="hill" />
		<tag k="place" v="locality" />
		<tag k="ssr:stedsnr" v="319465" />
	</node>
	<node id="-16337" lat="66.7735249963" lon="13.8135583332">
		<tag k="alt_name" v="Bjerangstinden, l" />
		<tag k="fixme" v="consider natural=peak for the most distinct mountains in the district" />
		<tag k="name" v="Litle Bjerangstinden" />
		<tag k="natural" v="hill" />
		<tag k="place" v="locality" />
		<tag k="ssr:stedsnr" v="319299" />
	</node>
	<node id="-16336" lat="66.6665027781" lon="13.6715555519">
		<tag k="fixme" v="consider natural=peak for the most distinct mountains in the district" />
		<tag k="name" v="Bukktinden" />
		<tag k="natural" v="hill" />
		<tag k="place" v="locality" />
		<tag k="ssr:stedsnr" v="319295" />
	</node>
	<node id="-16335" lat="66.759652781" lon="13.8294000059">
		<tag k="alt_name" v="Seterdalen" />
		<tag k="name" v="Sæterdalen" />
		<tag k="natural" v="valley" />
		<tag k="place" v="locality" />
		<tag k="ssr:stedsnr" v="319293" />
	</node>
	<node id="-16334" lat="66.7584222254" lon="13.8938277687">
		<tag k="name" v="Stavlia" />
		<tag k="natural" v="slope" />
		<tag k="place" v="locality" />
		<tag k="ssr:stedsnr" v="319290" />
	</node>
	<node id="-16329" lat="66.7729166694" lon="13.6509999903">
		<tag k="name" v="Isvollaksla" />
		<tag k="natural" v="hill" />
		<tag k="place" v="locality" />
		<tag k="ssr:stedsnr" v="319034" />
	</node>
	<node id="-16328" lat="66.7754277822" lon="13.7018361158">
		<tag k="fixme" v="consider natural=peak for the most distinct mountains in the district" />
		<tag k="name" v="Føllitinden" />
		<tag k="natural" v="hill" />
		<tag k="place" v="locality" />
		<tag k="ssr:stedsnr" v="319030" />
	</node>
	<node id="-16323" lat="66.913638893" lon="13.7380833407">
		<tag k="fixme" v="consider natural=peak for the most distinct mountains in the district" />
		<tag k="name" v="Nakken" />
		<tag k="natural" v="hill" />
		<tag k="place" v="locality" />
		<tag k="ssr:stedsnr" v="319177" />
	</node>
	<node id="-16304" lat="66.934855553" lon="13.6266861012">
		<tag k="fixme" v="consider natural=peak for the most distinct mountains in the district" />
		<tag k="name" v="Skjeggetinden" />
		<tag k="natural" v="hill" />
		<tag k="place" v="locality" />
		<tag k="ssr:stedsnr" v="198855" />
	</node>
	<node id="-16296" lat="66.6838138928" lon="13.552074993">
		<tag k="fixme" v="consider natural=peak for the most distinct mountains in the district" />
		<tag k="name" v="Kjølen" />
		<tag k="natural" v="hill" />
		<tag k="place" v="locality" />
		<tag k="ssr:stedsnr" v="198193" />
	</node>
	<node id="-16294" lat="66.7382527766" lon="13.704849994">
		<tag k="name" v="Holandsdalen" />
		<tag k="natural" v="valley" />
		<tag k="place" v="locality" />
		<tag k="ssr:stedsnr" v="198161" />
	</node>
	<node id="-16293" lat="66.924411114" lon="13.7447611223">
		<tag k="fixme" v="consider natural=peak for the most distinct mountains in the district" />
		<tag k="name" v="Børskardtinden" />
		<tag k="natural" v="hill" />
		<tag k="place" v="locality" />
		<tag k="ssr:stedsnr" v="198155" />
	</node>
	<node id="-16292" lat="66.6301944472" lon="13.9487277823">
		<tag k="fixme" v="consider natural=peak for the most distinct mountains in the district" />
		<tag k="name" v="Snøtinden" />
		<tag k="natural" v="hill" />
		<tag k="place" v="locality" />
		<tag k="ssr:stedsnr" v="198460" />
	</node>
	<node id="-16285" lat="66.791405557" lon="13.6661055525">
		<tag k="name" v="Austreskardet" />
		<tag k="natural" v="valley" />
		<tag k="place" v="locality" />
		<tag k="ssr:stedsnr" v="198081" />
	</node>
	<node id="-16283" lat="66.798166667" lon="13.553474991">
		<tag k="fixme" v="consider natural=peak for the most distinct mountains in the district" />
		<tag k="name" v="Ørjostinden" />
		<tag k="natural" v="hill" />
		<tag k="place" v="locality" />
		<tag k="ssr:stedsnr" v="198067" />
	</node>
	<node id="-16282" lat="66.7921222245" lon="13.5474027697">
		<tag k="name" v="Stordalen" />
		<tag k="natural" v="valley" />
		<tag k="place" v="locality" />
		<tag k="ssr:stedsnr" v="198065" />
	</node>
	<node id="-16279" lat="66.7239944448" lon="13.3980138896">
		<tag k="name" v="Litllia" />
		<tag k="natural" v="slope" />
		<tag k="place" v="locality" />
		<tag k="ssr:stedsnr" v="198131" />
	</node>
	<node id="-16276" lat="66.884444445" lon="13.7899722123">
		<tag k="fixme" v="consider natural=peak for the most distinct mountains in the district" />
		<tag k="name" v="Barfjellet" />
		<tag k="natural" v="hill" />
		<tag k="place" v="locality" />
		<tag k="ssr:stedsnr" v="198117" />
	</node>
	<node id="-16273" lat="66.9197611137" lon="13.6714444398">
		<tag k="name" v="Olderdalen" />
		<tag k="natural" v="valley" />
		<tag k="place" v="locality" />
		<tag k="ssr:stedsnr" v="166886" />
	</node>
	<node id="-16271" lat="66.9220305544" lon="13.5589361021">
		<tag k="name" v="Innermarka" />
		<tag k="natural" v="valley" />
		<tag k="place" v="locality" />
		<tag k="ssr:stedsnr" v="166850" />
	</node>
	<node id="-16269" lat="66.82205" lon="13.7976333354">
		<tag k="name" v="Mosheia" />
		<tag k="natural" v="slope" />
		<tag k="place" v="locality" />
		<tag k="ssr:stedsnr" v="166641" />
	</node>
	<node id="-16268" lat="66.7448388887" lon="13.7073888778">
		<tag k="name" v="Holandsdalsbakkan" />
		<tag k="natural" v="slope" />
		<tag k="place" v="locality" />
		<tag k="ssr:stedsnr" v="166622" />
	</node>
	<node id="-16267" lat="66.8149527791" lon="13.3447500014">
		<tag k="name" v="Bolkrokhågen" />
		<tag k="natural" v="ridge" />
		<tag k="place" v="locality" />
		<tag k="ssr:stedsnr" v="166621" />
	</node>
	<node id="-16263" lat="66.7279277772" lon="13.694472221">
		<tag k="name" v="Bulidalen" />
		<tag k="natural" v="valley" />
		<tag k="place" v="locality" />
		<tag k="ssr:stedsnr" v="166417" />
	</node>
	<node id="-16261" lat="66.7296333352" lon="13.6755944491">
		<tag k="name" v="Riset" />
		<tag k="natural" v="slope" />
		<tag k="place" v="locality" />
		<tag k="ssr:stedsnr" v="166411" />
	</node>
	<node id="-16258" lat="66.8124638903" lon="13.6913416642">
		<tag k="name" v="Svarthammeren" />
		<tag k="place" v="locality" />
		<tag k="ssr:stedsnr" v="166722" />
	</node>
	<node id="-16256" lat="66.8487583299" lon="13.8137083284">
		<tag k="name" v="Leirkråga" />
		<tag k="natural" v="valley" />
		<tag k="place" v="locality" />
		<tag k="ssr:stedsnr" v="166503" />
	</node>
	<node id="-16254" lat="66.7317027772" lon="13.8713972286">
		<tag k="name" v="Innerteigen" />
		<tag k="natural" v="slope" />
		<tag k="place" v="locality" />
		<tag k="ssr:stedsnr" v="166178" />
	</node>
	<node id="-17045" lat="66.7455777738" lon="13.8211666765">
		<tag k="name" v="Vedkassberget" />
		<tag k="natural" v="hill" />
		<tag k="place" v="locality" />
		<tag k="ssr:stedsnr" v="955101" />
	</node>
	<node id="-16252" lat="66.7523305538" lon="13.371694434">
		<tag k="name" v="Gjurbotnheia" />
		<tag k="natural" v="ridge" />
		<tag k="place" v="locality" />
		<tag k="ssr:stedsnr" v="166326" />
	</node>
	<node id="-16247" lat="66.7628222192" lon="13.3883555659">
		<tag k="name" v="Røyrstadrabben" />
		<tag k="natural" v="ridge" />
		<tag k="place" v="locality" />
		<tag k="ssr:stedsnr" v="165334" />
	</node>
	<node id="-16246" lat="66.7576972262" lon="13.4004194461">
		<tag k="fixme" v="consider natural=peak for the most distinct mountains in the district" />
		<tag k="name" v="Øverrabben" />
		<tag k="natural" v="hill" />
		<tag k="place" v="locality" />
		<tag k="ssr:stedsnr" v="165333" />
	</node>
	<node id="-16241" lat="66.9212527769" lon="13.4396166586">
		<tag k="name" v="Tjyvdalen" />
		<tag k="natural" v="valley" />
		<tag k="place" v="locality" />
		<tag k="ssr:stedsnr" v="158313" />
	</node>
	<node id="-16237" lat="66.731966666" lon="13.9413249986">
		<tag k="name" v="Gabrielheimen" />
		<tag k="natural" v="valley" />
		<tag k="place" v="locality" />
		<tag k="ssr:stedsnr" v="142816" />
	</node>
	<node id="-16236" lat="66.7115583355" lon="13.7291055485">
		<tag k="name" v="Almlia" />
		<tag k="natural" v="slope" />
		<tag k="place" v="locality" />
		<tag k="ssr:stedsnr" v="142806" />
	</node>
	<node id="-16229" lat="66.8444472255" lon="13.5008305475">
		<tag k="name" v="Meløyfloget" />
		<tag k="natural" v="cliff" />
		<tag k="ssr:stedsnr" v="137950" />
	</node>
	<node id="-16216" lat="66.9253277798" lon="13.6428888933">
		<tag k="fixme" v="consider natural=peak for the most distinct mountains in the district" />
		<tag k="name" v="Bjørntinden" />
		<tag k="natural" v="hill" />
		<tag k="place" v="locality" />
		<tag k="ssr:stedsnr" v="137879" />
	</node>
	<node id="-16215" lat="66.9185583307" lon="13.579880552">
		<tag k="fixme" v="consider natural=peak for the most distinct mountains in the district" />
		<tag k="name" v="Forsheia" />
		<tag k="natural" v="hill" />
		<tag k="place" v="locality" />
		<tag k="ssr:stedsnr" v="137878" />
	</node>
	<node id="-16207" lat="66.6824249988" lon="13.6620000025">
		<tag k="fixme" v="consider natural=peak for the most distinct mountains in the district" />
		<tag k="name" v="Kløfttinden" />
		<tag k="natural" v="hill" />
		<tag k="place" v="locality" />
		<tag k="ssr:stedsnr" v="137178" />
	</node>
	<node id="-16205" lat="66.734611107" lon="13.71052499">
		<tag k="name" v="Tellvikdalen" />
		<tag k="natural" v="valley" />
		<tag k="place" v="locality" />
		<tag k="ssr:stedsnr" v="137096" />
	</node>
	<node id="-16204" lat="66.7340416652" lon="13.6413750072">
		<tag k="name" v="Klubben" />
		<tag k="natural" v="hill" />
		<tag k="place" v="locality" />
		<tag k="ssr:stedsnr" v="137093" />
	</node>
	<node id="-17043" lat="66.7552972258" lon="13.8489805654">
		<tag k="name" v="Øverseterflata" />
		<tag k="place" v="locality" />
		<tag k="ssr:stedsnr" v="955053" />
	</node>
	<node id="-16200" lat="66.7835611144" lon="13.6244694554">
		<tag k="fixme" v="consider natural=peak for the most distinct mountains in the district" />
		<tag k="name" v="Oldratinden" />
		<tag k="natural" v="hill" />
		<tag k="place" v="locality" />
		<tag k="ssr:stedsnr" v="137061" />
	</node>
	<node id="-16199" lat="66.7420416668" lon="13.7620277837">
		<tag k="alt_name" v="Storvikskardet" />
		<tag k="name" v="Storvikskaret" />
		<tag k="natural" v="valley" />
		<tag k="place" v="locality" />
		<tag k="ssr:stedsnr" v="137357" />
	</node>
	<node id="-16198" lat="66.8705527793" lon="13.8588916565">
		<tag k="name" v="Sørlandet" />
		<tag k="natural" v="slope" />
		<tag k="place" v="locality" />
		<tag k="ssr:stedsnr" v="137353" />
	</node>
	<node id="-16197" lat="66.8491583379" lon="13.7864611052">
		<tag k="fixme" v="consider natural=peak for the most distinct mountains in the district" />
		<tag k="name" v="Sørhesten" />
		<tag k="natural" v="hill" />
		<tag k="place" v="locality" />
		<tag k="ssr:stedsnr" v="137338" />
	</node>
	<node id="-16192" lat="66.8809305556" lon="13.8714777877">
		<tag k="name" v="Botnfjellet" />
		<tag k="natural" v="ridge" />
		<tag k="place" v="locality" />
		<tag k="ssr:stedsnr" v="107495" />
	</node>
	<node id="-16191" lat="66.8898027792" lon="13.8640222149">
		<tag k="name" v="Varfjellet" />
		<tag k="natural" v="cliff" />
		<tag k="ssr:stedsnr" v="107492" />
	</node>
	<node id="-16190" lat="66.8339055588" lon="13.711450003">
		<tag k="name" v="Skallberget" />
		<tag k="natural" v="cliff" />
		<tag k="ssr:stedsnr" v="106709" />
	</node>
	<node id="-16186" lat="66.6964805542" lon="13.7123027711">
		<tag k="name" v="Nordmarka" />
		<tag k="natural" v="slope" />
		<tag k="place" v="locality" />
		<tag k="ssr:stedsnr" v="106435" />
	</node>
	<node id="-16184" lat="66.7393611144" lon="13.7149694466">
		<tag k="name" v="Innermerkerabben" />
		<tag k="natural" v="hill" />
		<tag k="place" v="locality" />
		<tag k="ssr:stedsnr" v="106363" />
	</node>
	<node id="-16182" lat="66.7150972259" lon="13.585997214">
		<tag k="fixme" v="consider natural=peak for the most distinct mountains in the district" />
		<tag k="name" v="Øverskardåsen" />
		<tag k="natural" v="hill" />
		<tag k="place" v="locality" />
		<tag k="ssr:stedsnr" v="106141" />
	</node>
	<node id="-16181" lat="66.7524888929" lon="13.8906249992">
		<tag k="name" v="Sørkråga" />
		<tag k="natural" v="slope" />
		<tag k="place" v="locality" />
		<tag k="ssr:stedsnr" v="106089" />
	</node>
	<node id="-16179" lat="66.8287138914" lon="13.855363897">
		<tag k="name" v="Nordhøgsetbakken" />
		<tag k="natural" v="ridge" />
		<tag k="place" v="locality" />
		<tag k="ssr:stedsnr" v="106023" />
	</node>
	<node id="-16178" lat="66.9159694436" lon="13.7071527867">
		<tag k="name" v="Klaveshågen" />
		<tag k="natural" v="ridge" />
		<tag k="place" v="locality" />
		<tag k="ssr:stedsnr" v="105893" />
	</node>
	<node id="-16172" lat="66.8023999954" lon="13.6244277839">
		<tag k="name" v="Mosheia" />
		<tag k="natural" v="hill" />
		<tag k="place" v="locality" />
		<tag k="ssr:stedsnr" v="105802" />
	</node>
	<node id="-16170" lat="66.9125805517" lon="13.7979138905">
		<tag k="name" v="Romflaget" />
		<tag k="natural" v="cliff" />
		<tag k="ssr:stedsnr" v="105784" />
	</node>
	<node id="-16168" lat="66.9076388887" lon="13.671222211">
		<tag k="name" v="Foramoen" />
		<tag k="place" v="locality" />
		<tag k="ssr:stedsnr" v="105776" />
	</node>
	<node id="-16167" lat="66.7935638909" lon="13.5477861224">
		<tag k="name" v="Skjålikollen" />
		<tag k="natural" v="ridge" />
		<tag k="place" v="locality" />
		<tag k="ssr:stedsnr" v="105775" />
	</node>
	<node id="-16165" lat="66.8421583363" lon="13.7963722148">
		<tag k="name" v="Lappmoa" />
		<tag k="place" v="locality" />
		<tag k="ssr:stedsnr" v="105746" />
	</node>
	<node id="-16164" lat="66.7520750048" lon="13.7930916565">
		<tag k="name" v="Vedhøggan" />
		<tag k="natural" v="slope" />
		<tag k="place" v="locality" />
		<tag k="ssr:stedsnr" v="105727" />
	</node>
	<node id="-16163" lat="66.7384638861" lon="13.6511916653">
		<tag k="fixme" v="consider natural=peak for the most distinct mountains in the district" />
		<tag k="name" v="Røyrstøtinden" />
		<tag k="natural" v="hill" />
		<tag k="place" v="locality" />
		<tag k="ssr:stedsnr" v="105709" />
	</node>
	<node id="-16161" lat="66.8023027734" lon="13.2180194485">
		<tag k="fixme" v="consider natural=peak for the most distinct mountains in the district" />
		<tag k="name" v="Alberget" />
		<tag k="natural" v="hill" />
		<tag k="place" v="locality" />
		<tag k="ssr:stedsnr" v="105700" />
	</node>
	<node id="-16159" lat="66.8252194424" lon="13.7889888837">
		<tag k="name" v="Vardtuva" />
		<tag k="natural" v="hill" />
		<tag k="place" v="locality" />
		<tag k="ssr:stedsnr" v="105663" />
	</node>
	<node id="-16158" lat="66.7501444412" lon="13.6904722145">
		<tag k="name" v="Fjellsenga" />
		<tag k="natural" v="slope" />
		<tag k="place" v="locality" />
		<tag k="ssr:stedsnr" v="105650" />
	</node>
	<node id="-16153" lat="66.7854694467" lon="13.3653972293">
		<tag k="name" v="Limhågen" />
		<tag k="natural" v="hill" />
		<tag k="place" v="locality" />
		<tag k="ssr:stedsnr" v="105380" />
	</node>
	<node id="-16151" lat="66.7600694447" lon="13.3698333301">
		<tag k="name" v="Litlsnydalen" />
		<tag k="natural" v="valley" />
		<tag k="place" v="locality" />
		<tag k="ssr:stedsnr" v="105357" />
	</node>
	<node id="-16149" lat="66.8157416688" lon="13.3761527669">
		<tag k="fixme" v="consider natural=peak for the most distinct mountains in the district" />
		<tag k="name" v="Innerhatten" />
		<tag k="natural" v="hill" />
		<tag k="place" v="locality" />
		<tag k="ssr:stedsnr" v="105284" />
	</node>
	<node id="-16148" lat="66.7326055584" lon="13.8473611068">
		<tag k="name" v="Dyrhammaren" />
		<tag k="natural" v="ridge" />
		<tag k="place" v="locality" />
		<tag k="ssr:stedsnr" v="105168" />
	</node>
	<node id="-16147" lat="66.7547194432" lon="13.3324666717">
		<tag k="name" v="Mellia" />
		<tag k="natural" v="slope" />
		<tag k="place" v="locality" />
		<tag k="ssr:stedsnr" v="97767" />
	</node>
	<node id="-16146" lat="66.7630388884" lon="13.3344777823">
		<tag k="name" v="Litl-Kjørrågdalen" />
		<tag k="natural" v="valley" />
		<tag k="place" v="locality" />
		<tag k="ssr:stedsnr" v="97764" />
	</node>
	<node id="-16145" lat="66.7762944474" lon="13.3552805566">
		<tag k="name" v="Merratuva" />
		<tag k="natural" v="ridge" />
		<tag k="place" v="locality" />
		<tag k="ssr:stedsnr" v="97758" />
	</node>
	<node id="-17026" lat="66.8428361097" lon="13.4189666565">
		<tag k="fixme" v="consider natural=peak for the most distinct mountains in the district" />
		<tag k="name" v="Meløysteinen" />
		<tag k="natural" v="hill" />
		<tag k="place" v="locality" />
		<tag k="ssr:stedsnr" v="866957" />
	</node>
	<node id="-16137" lat="66.8371777817" lon="13.4252750075">
		<tag k="alt_name" v="Hestfloget" />
		<tag k="fixme" v="consider natural=peak for the most distinct mountains in the district" />
		<tag k="name" v="Hestlihumpen" />
		<tag k="natural" v="hill" />
		<tag k="place" v="locality" />
		<tag k="ssr:stedsnr" v="77996" />
	</node>
	<node id="-16103" lat="66.6756499986" lon="13.7527916573">
		<tag k="fixme" v="consider natural=peak for the most distinct mountains in the district" />
		<tag k="name" v="Midnattssoltinden" />
		<tag k="natural" v="hill" />
		<tag k="place" v="locality" />
		<tag k="ssr:stedsnr" v="77494" />
	</node>
	<node id="-16101" lat="66.6907250003" lon="13.6270250103">
		<tag k="fixme" v="multiple name tags, choose one and add the other to alt_name; consider natural=peak for the most distinct mountains in the district" />
		<tag k="name" v="Risnakkollen;Tuva" />
		<tag k="natural" v="hill" />
		<tag k="place" v="locality" />
		<tag k="ssr:stedsnr" v="77208" />
	</node>
	<node id="-16097" lat="66.9229888891" lon="13.7559222174">
		<tag k="name" v="Børskaret" />
		<tag k="natural" v="valley" />
		<tag k="place" v="locality" />
		<tag k="ssr:stedsnr" v="77171" />
	</node>
	<node id="-16095" lat="66.887413893" lon="13.8761861102">
		<tag k="fixme" v="consider natural=peak for the most distinct mountains in the district" />
		<tag k="name" v="Syrgrastinden" />
		<tag k="natural" v="hill" />
		<tag k="place" v="locality" />
		<tag k="ssr:stedsnr" v="77151" />
	</node>
	<node id="-16093" lat="66.7286861146" lon="13.6017194426">
		<tag k="fixme" v="consider natural=peak for the most distinct mountains in the district" />
		<tag k="name" v="Sørfjellet" />
		<tag k="natural" v="hill" />
		<tag k="place" v="locality" />
		<tag k="ssr:stedsnr" v="77132" />
	</node>
	<node id="-16092" lat="66.7315916698" lon="13.6255888895">
		<tag k="fixme" v="consider natural=peak for the most distinct mountains in the district" />
		<tag k="name" v="Halsatuva" />
		<tag k="natural" v="hill" />
		<tag k="place" v="locality" />
		<tag k="ssr:stedsnr" v="77130" />
	</node>
	<node id="-16088" lat="66.8028833371" lon="13.6931694537">
		<tag k="fixme" v="consider natural=peak for the most distinct mountains in the district" />
		<tag k="name" v="Sandviksfjellet" />
		<tag k="natural" v="hill" />
		<tag k="place" v="locality" />
		<tag k="ssr:stedsnr" v="77113" />
	</node>
	<node id="-16085" lat="66.7924472264" lon="13.5092166663">
		<tag k="fixme" v="consider natural=peak for the most distinct mountains in the district" />
		<tag k="name" v="Trolla" />
		<tag k="natural" v="hill" />
		<tag k="place" v="locality" />
		<tag k="ssr:stedsnr" v="77072" />
	</node>
	<node id="-16078" lat="66.8086333318" lon="13.6484472278">
		<tag k="name" v="Digermuldalen" />
		<tag k="natural" v="valley" />
		<tag k="place" v="locality" />
		<tag k="ssr:stedsnr" v="76132" />
	</node>
	<node id="-16077" lat="66.7660972211" lon="13.3547916677">
		<tag k="alt_name" v="Åmnesfjellet" />
		<tag k="fixme" v="consider natural=peak for the most distinct mountains in the district" />
		<tag k="name" v="Nonstinden" />
		<tag k="natural" v="hill" />
		<tag k="place" v="locality" />
		<tag k="ssr:stedsnr" v="76083" />
	</node>
	<node id="-16076" lat="66.7372416701" lon="13.7486416689">
		<tag k="fixme" v="consider natural=peak for the most distinct mountains in the district" />
		<tag k="name" v="Blånasen" />
		<tag k="natural" v="hill" />
		<tag k="place" v="locality" />
		<tag k="ssr:stedsnr" v="77396" />
	</node>
	<node id="-16074" lat="66.7421361144" lon="13.7753833251">
		<tag k="fixme" v="consider natural=peak for the most distinct mountains in the district" />
		<tag k="name" v="Stortuva" />
		<tag k="natural" v="hill" />
		<tag k="place" v="locality" />
		<tag k="ssr:stedsnr" v="77393" />
	</node>
	<node id="-16070" lat="66.817933337" lon="13.9951527738">
		<tag k="fixme" v="consider natural=peak for the most distinct mountains in the district" />
		<tag k="name" v="Rebbanfjellet" />
		<tag k="natural" v="hill" />
		<tag k="place" v="locality" />
		<tag k="ssr:stedsnr" v="53794" />
	</node>
	<node id="-16066" lat="66.7794166677" lon="13.3555694556">
		<tag k="name" v="Forran" />
		<tag k="natural" v="ridge" />
		<tag k="place" v="locality" />
		<tag k="ssr:stedsnr" v="45657" />
	</node>
	<node id="-16064" lat="66.8014749966" lon="13.2016472302">
		<tag k="name" v="Venningan" />
		<tag k="natural" v="valley" />
		<tag k="place" v="locality" />
		<tag k="ssr:stedsnr" v="45623" />
	</node>
	<node id="-16061" lat="66.8088111074" lon="13.2079416555">
		<tag k="name" v="Ramnfloget" />
		<tag k="natural" v="cliff" />
		<tag k="ssr:stedsnr" v="45578" />
	</node>
	<node id="-16059" lat="66.84421389" lon="13.8197027729">
		<tag k="name" v="Jørgenhøgget" />
		<tag k="natural" v="slope" />
		<tag k="place" v="locality" />
		<tag k="ssr:stedsnr" v="45497" />
	</node>
	<node id="-16058" lat="66.6938972245" lon="13.6635027834">
		<tag k="fixme" v="consider natural=peak for the most distinct mountains in the district" />
		<tag k="name" v="Nontuva" />
		<tag k="natural" v="hill" />
		<tag k="place" v="locality" />
		<tag k="ssr:stedsnr" v="45448" />
	</node>
	<node id="-16057" lat="66.7279694471" lon="13.6957638827">
		<tag k="name" v="Hellran" />
		<tag k="place" v="locality" />
		<tag k="ssr:stedsnr" v="45411" />
	</node>
	<node id="-16054" lat="66.7415944485" lon="13.6799194364">
		<tag k="name" v="Vassbotn" />
		<tag k="natural" v="valley" />
		<tag k="place" v="locality" />
		<tag k="ssr:stedsnr" v="45380" />
	</node>
	<node id="-16051" lat="66.7331749997" lon="13.3981333376">
		<tag k="fixme" v="consider natural=peak for the most distinct mountains in the district" />
		<tag k="name" v="Halshågen" />
		<tag k="natural" v="hill" />
		<tag k="place" v="locality" />
		<tag k="ssr:stedsnr" v="45339" />
	</node>
	<node id="-16049" lat="66.8246638852" lon="13.4492750058">
		<tag k="name" v="Trangkleiva" />
		<tag k="natural" v="slope" />
		<tag k="place" v="locality" />
		<tag k="ssr:stedsnr" v="45278" />
	</node>
	<node id="-16048" lat="66.8157083359" lon="13.3726027844">
		<tag k="name" v="Hattskaret" />
		<tag k="natural" v="valley" />
		<tag k="place" v="locality" />
		<tag k="ssr:stedsnr" v="45244" />
	</node>
	<node id="-16040" lat="66.7437500008" lon="13.5924333261">
		<tag k="name" v="Strupen" />
		<tag k="natural" v="valley" />
		<tag k="place" v="locality" />
		<tag k="ssr:stedsnr" v="44932" />
	</node>
	<node id="-16037" lat="66.7540500041" lon="13.5829194547">
		<tag k="name" v="Middagshågan" />
		<tag k="natural" v="hill" />
		<tag k="place" v="locality" />
		<tag k="ssr:stedsnr" v="44901" />
	</node>
	<node id="-16036" lat="66.7522305577" lon="13.6439194377">
		<tag k="fixme" v="consider natural=peak for the most distinct mountains in the district" />
		<tag k="name" v="Litlgrønåsen" />
		<tag k="natural" v="hill" />
		<tag k="place" v="locality" />
		<tag k="ssr:stedsnr" v="44900" />
	</node>
	<node id="-16035" lat="66.9242749965" lon="13.7238416551">
		<tag k="name" v="Tuva" />
		<tag k="natural" v="ridge" />
		<tag k="place" v="locality" />
		<tag k="ssr:stedsnr" v="44877" />
	</node>
	<node id="-16031" lat="66.7996611087" lon="13.5116888816">
		<tag k="name" v="Marenhågen" />
		<tag k="natural" v="hill" />
		<tag k="place" v="locality" />
		<tag k="ssr:stedsnr" v="44788" />
	</node>
	<node id="-16030" lat="66.8006361124" lon="13.5120194372">
		<tag k="name" v="Grindhågen" />
		<tag k="natural" v="ridge" />
		<tag k="place" v="locality" />
		<tag k="ssr:stedsnr" v="44780" />
	</node>
	<node id="-16029" lat="66.8302861097" lon="13.5249416568">
		<tag k="alt_name" v="Olderskogen" />
		<tag k="name" v="Olderskog" />
		<tag k="natural" v="slope" />
		<tag k="place" v="locality" />
		<tag k="ssr:stedsnr" v="44775" />
	</node>
	<node id="-16028" lat="66.8379805594" lon="13.5639972234">
		<tag k="fixme" v="consider natural=peak for the most distinct mountains in the district" />
		<tag k="name" v="Storhågen" />
		<tag k="natural" v="hill" />
		<tag k="place" v="locality" />
		<tag k="ssr:stedsnr" v="44768" />
	</node>
	<node id="-16022" lat="66.7191694421" lon="13.619463884">
		<tag k="name" v="Fridalen" />
		<tag k="natural" v="valley" />
		<tag k="place" v="locality" />
		<tag k="ssr:stedsnr" v="44167" />
	</node>
	<node id="-16019" lat="66.854527777" lon="13.7381833417">
		<tag k="name" v="Kustolen" />
		<tag k="natural" v="ridge" />
		<tag k="place" v="locality" />
		<tag k="ssr:stedsnr" v="44748" />
	</node>
	<node id="-16018" lat="66.8536916712" lon="13.7389861022">
		<tag k="name" v="Åsen" />
		<tag k="natural" v="hill" />
		<tag k="place" v="locality" />
		<tag k="ssr:stedsnr" v="44746" />
	</node>
	<node id="-16017" lat="66.7157444484" lon="13.4648583238">
		<tag k="fixme" v="consider natural=peak for the most distinct mountains in the district" />
		<tag k="name" v="Grindåsen" />
		<tag k="natural" v="hill" />
		<tag k="place" v="locality" />
		<tag k="ssr:stedsnr" v="43373" />
	</node>
	<node id="-16013" lat="66.9168972256" lon="13.4508638966">
		<tag k="name" v="Husøygavlen" />
		<tag k="natural" v="cliff" />
		<tag k="ssr:stedsnr" v="36249" />
	</node>
	<node id="-16010" lat="66.7036666628" lon="13.752174999">
		<tag k="name" v="Røyrlia" />
		<tag k="natural" v="slope" />
		<tag k="place" v="locality" />
		<tag k="ssr:stedsnr" v="21795" />
	</node>
	<node id="-16004" lat="66.9119777776" lon="13.5631166662">
		<tag k="fixme" v="consider natural=peak for the most distinct mountains in the district" />
		<tag k="name" v="Hatten" />
		<tag k="natural" v="hill" />
		<tag k="place" v="locality" />
		<tag k="ssr:stedsnr" v="16882" />
	</node>
	<node id="-15995" lat="66.7550694481" lon="13.6143694348">
		<tag k="fixme" v="consider natural=peak for the most distinct mountains in the district" />
		<tag k="name" v="Langåsen" />
		<tag k="natural" v="hill" />
		<tag k="place" v="locality" />
		<tag k="ssr:stedsnr" v="16762" />
	</node>
	<node id="-17001" lat="66.84658333" lon="13.995191666">
		<tag k="alt_name" v="Vakkerdalsskardet" />
		<tag k="name" v="Vakkerdalsskaret" />
		<tag k="natural" v="valley" />
		<tag k="place" v="locality" />
		<tag k="ssr:stedsnr" v="866333" />
	</node>
	<node id="-17000" lat="66.8474583321" lon="13.8693861072">
		<tag k="fixme" v="consider natural=peak for the most distinct mountains in the district" />
		<tag k="name" v="Køvdalstinden" />
		<tag k="natural" v="hill" />
		<tag k="place" v="locality" />
		<tag k="ssr:stedsnr" v="866331" />
	</node>
	<node id="-15971" lat="66.7233583371" lon="13.876038893">
		<tag k="fixme" v="consider natural=peak for the most distinct mountains in the district" />
		<tag k="name" v="Kobbartuva" />
		<tag k="natural" v="hill" />
		<tag k="place" v="locality" />
		<tag k="ssr:stedsnr" v="16463" />
	</node>
	<node id="-15969" lat="66.7037166629" lon="13.885505554">
		<tag k="fixme" v="consider natural=peak for the most distinct mountains in the district" />
		<tag k="name" v="Juret" />
		<tag k="natural" v="hill" />
		<tag k="place" v="locality" />
		<tag k="ssr:stedsnr" v="16451" />
	</node>
	<node id="-15968" lat="66.8262805581" lon="13.7998416728">
		<tag k="fixme" v="consider natural=peak for the most distinct mountains in the district" />
		<tag k="name" v="Rabban" />
		<tag k="natural" v="hill" />
		<tag k="place" v="locality" />
		<tag k="ssr:stedsnr" v="16299" />
	</node>
	<node id="-15967" lat="66.8259249966" lon="13.9881833215">
		<tag k="name" v="Østerdalen" />
		<tag k="natural" v="valley" />
		<tag k="place" v="locality" />
		<tag k="ssr:stedsnr" v="16298" />
	</node>
	<node id="-15966" lat="66.8187416693" lon="14.0375999989">
		<tag k="fixme" v="consider natural=peak for the most distinct mountains in the district" />
		<tag k="loc_name:smj" v="Hiertiktjåhkkå" />
		<tag k="name" v="Reben" />
		<tag k="name:no" v="Reben" />
		<tag k="natural" v="hill" />
		<tag k="place" v="locality" />
		<tag k="ssr:stedsnr" v="16290" />
	</node>
	<node id="-15964" lat="66.8042083299" lon="14.0211722287">
		<tag k="alt_name" v="Djupedalen" />
		<tag k="name" v="Djupdalen" />
		<tag k="natural" v="valley" />
		<tag k="place" v="locality" />
		<tag k="ssr:stedsnr" v="16287" />
	</node>
	<node id="-15960" lat="66.7516805581" lon="13.7965138912">
		<tag k="name" v="Bjerangsdalen" />
		<tag k="natural" v="valley" />
		<tag k="place" v="locality" />
		<tag k="ssr:stedsnr" v="16267" />
	</node>
	<node id="-15959" lat="66.7473111132" lon="13.8366833368">
		<tag k="alt_name" v="Durmålslia" />
		<tag k="name" v="Dugarmålslia" />
		<tag k="natural" v="slope" />
		<tag k="place" v="locality" />
		<tag k="ssr:stedsnr" v="16260" />
	</node>
	<node id="-15957" lat="66.7921944418" lon="13.4545444375">
		<tag k="name" v="Hallen" />
		<tag k="natural" v="hill" />
		<tag k="place" v="locality" />
		<tag k="ssr:stedsnr" v="16095" />
	</node>
	<node id="-15950" lat="66.7717638866" lon="13.3770583309">
		<tag k="fixme" v="multiple name tags, choose one and add the other to alt_name" />
		<tag k="name" v="Melan;Stormoa" />
		<tag k="place" v="locality" />
		<tag k="ssr:stedsnr" v="16063" />
	</node>
	<node id="-15949" lat="66.7716972265" lon="13.398588881">
		<tag k="fixme" v="consider natural=peak for the most distinct mountains in the district" />
		<tag k="name" v="Hesten" />
		<tag k="natural" v="hill" />
		<tag k="place" v="locality" />
		<tag k="ssr:stedsnr" v="16060" />
	</node>
	<node id="-15937" lat="66.7553138915" lon="13.3175333239">
		<tag k="name" v="Svartgjota" />
		<tag k="natural" v="valley" />
		<tag k="place" v="locality" />
		<tag k="ssr:stedsnr" v="947703" />
	</node>
	<node id="-15930" lat="66.7603472192" lon="13.7988666627">
		<tag k="name" v="Hegglund" />
		<tag k="natural" v="slope" />
		<tag k="place" v="locality" />
		<tag k="ssr:stedsnr" v="895057" />
	</node>
	<node id="-15928" lat="66.7133222267" lon="13.4819888807">
		<tag k="name" v="Fribakkan" />
		<tag k="natural" v="slope" />
		<tag k="place" v="locality" />
		<tag k="ssr:stedsnr" v="948422" />
	</node>
	<node id="-15927" lat="66.7544722196" lon="13.3290138822">
		<tag k="name" v="Stordalen" />
		<tag k="natural" v="valley" />
		<tag k="place" v="locality" />
		<tag k="ssr:stedsnr" v="947700" />
	</node>
	<node id="-15926" lat="66.7731250043" lon="13.3611666629">
		<tag k="name" v="Nonstuva" />
		<tag k="natural" v="ridge" />
		<tag k="place" v="locality" />
		<tag k="ssr:stedsnr" v="947718" />
	</node>
	<node id="-15925" lat="66.754416666" lon="13.2780833401">
		<tag k="name" v="Kjøpmannskaret" />
		<tag k="natural" v="valley" />
		<tag k="place" v="locality" />
		<tag k="ssr:stedsnr" v="947709" />
	</node>
	<node id="-15924" lat="66.7550916671" lon="13.339616657">
		<tag k="name" v="Almfloget" />
		<tag k="natural" v="cliff" />
		<tag k="ssr:stedsnr" v="947705" />
	</node>
	<node id="-15920" lat="66.9063888853" lon="13.8184833224">
		<tag k="name" v="Ronan" />
		<tag k="place" v="locality" />
		<tag k="ssr:stedsnr" v="835504" />
	</node>
	<node id="-15914" lat="66.6984166655" lon="13.6409166595">
		<tag k="name" v="Langhågen" />
		<tag k="natural" v="hill" />
		<tag k="place" v="locality" />
		<tag k="ssr:stedsnr" v="834877" />
	</node>
	<node id="-15911" lat="66.7247166657" lon="13.7039527827">
		<tag k="name" v="Hamnhågen" />
		<tag k="natural" v="hill" />
		<tag k="place" v="locality" />
		<tag k="ssr:stedsnr" v="834403" />
	</node>
	<node id="-15909" lat="66.7753972212" lon="13.4007527669">
		<tag k="name" v="Tullirona" />
		<tag k="natural" v="slope" />
		<tag k="place" v="locality" />
		<tag k="ssr:stedsnr" v="834364" />
	</node>
	<node id="-15907" lat="66.7577500037" lon="13.4368305591">
		<tag k="name" v="Breivikhågen" />
		<tag k="natural" v="hill" />
		<tag k="place" v="locality" />
		<tag k="ssr:stedsnr" v="834305" />
	</node>
	<node id="-15906" lat="66.721697225" lon="13.6439861139">
		<tag k="fixme" v="consider natural=peak for the most distinct mountains in the district" />
		<tag k="name" v="Brasethesten" />
		<tag k="natural" v="hill" />
		<tag k="place" v="locality" />
		<tag k="ssr:stedsnr" v="834179" />
	</node>
	<node id="-15903" lat="66.7460083324" lon="13.79431111">
		<tag k="name" v="Svarthågen" />
		<tag k="natural" v="ridge" />
		<tag k="place" v="locality" />
		<tag k="ssr:stedsnr" v="834105" />
	</node>
	<node id="-15902" lat="66.8228416638" lon="13.4176444356">
		<tag k="name" v="Skipperhågen" />
		<tag k="natural" v="ridge" />
		<tag k="place" v="locality" />
		<tag k="ssr:stedsnr" v="834265" />
	</node>
	<node id="-15900" lat="66.7524444479" lon="13.8117111228">
		<tag k="name" v="Storskogen" />
		<tag k="natural" v="slope" />
		<tag k="place" v="locality" />
		<tag k="ssr:stedsnr" v="834056" />
	</node>
	<node id="-15898" lat="66.8783777814" lon="13.6955722297">
		<tag k="name" v="Kvithammaren" />
		<tag k="natural" v="cliff" />
		<tag k="ssr:stedsnr" v="833276" />
	</node>
	<node id="-15893" lat="66.919108333" lon="13.440533335">
		<tag k="name" v="Tjyvdalsheia" />
		<tag k="natural" v="hill" />
		<tag k="place" v="locality" />
		<tag k="ssr:stedsnr" v="826306" />
	</node>
	<node id="-15887" lat="66.8996638885" lon="13.6495222205">
		<tag k="name" v="Kleiva" />
		<tag k="natural" v="hill" />
		<tag k="place" v="locality" />
		<tag k="ssr:stedsnr" v="927950" />
	</node>
	<node id="-15871" lat="66.9382305535" lon="13.6391805471">
		<tag k="fixme" v="consider natural=peak for the most distinct mountains in the district" />
		<tag k="name" v="Ruan" />
		<tag k="natural" v="hill" />
		<tag k="place" v="locality" />
		<tag k="ssr:stedsnr" v="805842" />
	</node>
	<node id="-15867" lat="66.6885833332" lon="13.6589888891">
		<tag k="fixme" v="consider natural=peak for the most distinct mountains in the district" />
		<tag k="name" v="Stortinden" />
		<tag k="natural" v="hill" />
		<tag k="place" v="locality" />
		<tag k="ssr:stedsnr" v="805176" />
	</node>
	<node id="-15862" lat="66.7540944429" lon="13.6917250017">
		<tag k="name" v="Breiviklia" />
		<tag k="natural" v="slope" />
		<tag k="place" v="locality" />
		<tag k="ssr:stedsnr" v="805024" />
	</node>
	<node id="-15858" lat="66.7421749998" lon="13.6908833225">
		<tag k="fixme" v="consider natural=peak for the most distinct mountains in the district" />
		<tag k="name" v="Sautuva" />
		<tag k="natural" v="hill" />
		<tag k="place" v="locality" />
		<tag k="ssr:stedsnr" v="927193" />
	</node>
	<node id="-15846" lat="66.7112916682" lon="14.3215250083">
		<tag k="name" v="Sørdalen" />
		<tag k="natural" v="valley" />
		<tag k="place" v="locality" />
		<tag k="ssr:stedsnr" v="926419" />
	</node>
	<node id="-15845" lat="66.8296694439" lon="14.5488972307">
		<tag k="alt_name" v="Grottådalen" />
		<tag k="name" v="Gråtådalen" />
		<tag k="natural" v="valley" />
		<tag k="place" v="locality" />
		<tag k="ssr:stedsnr" v="926407" />
	</node>
	<node id="-15843" lat="66.8618805574" lon="13.828022223">
		<tag k="fixme" v="consider natural=peak for the most distinct mountains in the district" />
		<tag k="name" v="Nonstinden" />
		<tag k="natural" v="hill" />
		<tag k="place" v="locality" />
		<tag k="ssr:stedsnr" v="926353" />
	</node>
	<node id="-15842" lat="66.8590638847" lon="13.7841750075">
		<tag k="fixme" v="multiple name tags, choose one and add the other to alt_name" />
		<tag k="name" v="Hestlian;Spilderhestlia" />
		<tag k="natural" v="slope" />
		<tag k="place" v="locality" />
		<tag k="ssr:stedsnr" v="926351" />
	</node>
	<node id="-15839" lat="66.8537833351" lon="13.8138527692">
		<tag k="name" v="Jakobslia" />
		<tag k="natural" v="slope" />
		<tag k="place" v="locality" />
		<tag k="ssr:stedsnr" v="926341" />
	</node>
	<node id="-15837" lat="66.7651861152" lon="13.8904416732">
		<tag k="name" v="Nordkrokan" />
		<tag k="place" v="locality" />
		<tag k="ssr:stedsnr" v="926291" />
	</node>
	<node id="-15832" lat="66.7071388909" lon="13.5050750112">
		<tag k="alt_name" v="Arhaugtuva" />
		<tag k="name" v="Arhågtuva" />
		<tag k="natural" v="hill" />
		<tag k="place" v="locality" />
		<tag k="ssr:stedsnr" v="926209" />
	</node>
	<node id="-15830" lat="66.8901444475" lon="13.9259000074">
		<tag k="fixme" v="consider natural=peak for the most distinct mountains in the district" />
		<tag k="name" v="Sætertinden" />
		<tag k="natural" v="hill" />
		<tag k="place" v="locality" />
		<tag k="ssr:stedsnr" v="926153" />
	</node>
	<node id="-15829" lat="66.8855944455" lon="13.8823666757">
		<tag k="name" v="Syrgrasdalen" />
		<tag k="natural" v="valley" />
		<tag k="place" v="locality" />
		<tag k="ssr:stedsnr" v="926148" />
	</node>
	<node id="-15828" lat="66.8759638889" lon="13.7299555542">
		<tag k="name" v="Saulihola" />
		<tag k="natural" v="valley" />
		<tag k="place" v="locality" />
		<tag k="ssr:stedsnr" v="926143" />
	</node>
	<node id="-15826" lat="66.9094999983" lon="13.8534555552">
		<tag k="name" v="Lysvasskardet" />
		<tag k="natural" v="valley" />
		<tag k="place" v="locality" />
		<tag k="ssr:stedsnr" v="926126" />
	</node>
	<node id="-15825" lat="66.7328638887" lon="13.6796500058">
		<tag k="name" v="Bulikollen" />
		<tag k="natural" v="hill" />
		<tag k="place" v="locality" />
		<tag k="ssr:stedsnr" v="926125" />
	</node>
	<node id="-15823" lat="66.7846166677" lon="13.6469055538">
		<tag k="fixme" v="consider natural=peak for the most distinct mountains in the district" />
		<tag k="name" v="Belletkvann" />
		<tag k="natural" v="hill" />
		<tag k="place" v="locality" />
		<tag k="ssr:stedsnr" v="926097" />
	</node>
	<node id="-15822" lat="66.7837055571" lon="13.6726166647">
		<tag k="name" v="Kvanndalen" />
		<tag k="natural" v="valley" />
		<tag k="place" v="locality" />
		<tag k="ssr:stedsnr" v="926096" />
	</node>
	<node id="-15819" lat="66.7664277759" lon="13.3245916744">
		<tag k="fixme" v="consider natural=peak for the most distinct mountains in the district" />
		<tag k="name" v="Heklan" />
		<tag k="natural" v="hill" />
		<tag k="place" v="locality" />
		<tag k="ssr:stedsnr" v="926060" />
	</node>
	<node id="-15817" lat="66.753991668" lon="13.4025722244">
		<tag k="alt_name" v="Ørnsteinen" />
		<tag k="name" v="Ørnstolen" />
		<tag k="natural" v="hill" />
		<tag k="place" v="locality" />
		<tag k="ssr:stedsnr" v="926004" />
	</node>
	<node id="-15813" lat="66.6959972186" lon="13.734119452">
		<tag k="name" v="Sommarøya" />
		<tag k="natural" v="hill" />
		<tag k="place" v="locality" />
		<tag k="ssr:stedsnr" v="774512" />
	</node>
	<node id="-15812" lat="66.9104833317" lon="13.8196333411">
		<tag k="name" v="Ronan" />
		<tag k="place" v="locality" />
		<tag k="ssr:stedsnr" v="774507" />
	</node>
	<node id="-15806" lat="66.7495666691" lon="13.7486694503">
		<tag k="name" v="Klubben" />
		<tag k="natural" v="ridge" />
		<tag k="place" v="locality" />
		<tag k="ssr:stedsnr" v="773681" />
	</node>
	<node id="-15803" lat="66.804625002" lon="13.2224083413">
		<tag k="name" v="Melan" />
		<tag k="place" v="locality" />
		<tag k="ssr:stedsnr" v="773655" />
	</node>
	<node id="-15802" lat="66.7346638866" lon="13.6053583375">
		<tag k="name" v="Tuvskogan" />
		<tag k="natural" v="slope" />
		<tag k="place" v="locality" />
		<tag k="ssr:stedsnr" v="773735" />
	</node>
	<node id="-15798" lat="66.8179277775" lon="13.3854055607">
		<tag k="name" v="Blikkhågen" />
		<tag k="natural" v="hill" />
		<tag k="place" v="locality" />
		<tag k="ssr:stedsnr" v="773271" />
	</node>
	<node id="-15797" lat="66.8419944435" lon="13.4569972109">
		<tag k="name" v="Tømmervelta" />
		<tag k="natural" v="valley" />
		<tag k="place" v="locality" />
		<tag k="ssr:stedsnr" v="773305" />
	</node>
	<node id="-15796" lat="66.7509555579" lon="13.8122638954">
		<tag k="name" v="Kollhågen" />
		<tag k="natural" v="hill" />
		<tag k="place" v="locality" />
		<tag k="ssr:stedsnr" v="773095" />
	</node>
	<node id="-15795" lat="66.7612888854" lon="13.8089472169">
		<tag k="name" v="Litlbjærangslia" />
		<tag k="natural" v="slope" />
		<tag k="place" v="locality" />
		<tag k="ssr:stedsnr" v="773077" />
	</node>
	<node id="-15792" lat="66.9094694416" lon="13.6609750026">
		<tag k="name" v="Moen" />
		<tag k="place" v="locality" />
		<tag k="ssr:stedsnr" v="772951" />
	</node>
	<node id="-15790" lat="66.7377888898" lon="13.8752638785">
		<tag k="name" v="Ytterrondalen" />
		<tag k="natural" v="valley" />
		<tag k="place" v="locality" />
		<tag k="ssr:stedsnr" v="749824" />
	</node>
	<node id="-15774" lat="66.8750833339" lon="13.7378611006">
		<tag k="fixme" v="consider natural=peak for the most distinct mountains in the district" />
		<tag k="name" v="Djupvikfjellet" />
		<tag k="natural" v="hill" />
		<tag k="place" v="locality" />
		<tag k="ssr:stedsnr" v="744324" />
	</node>
	<node id="-15772" lat="66.7908111142" lon="13.9446777886">
		<tag k="alt_name" v="Glomssteet" />
		<tag k="fixme" v="consider natural=peak for the most distinct mountains in the district" />
		<tag k="name" v="Glomsteet" />
		<tag k="natural" v="hill" />
		<tag k="place" v="locality" />
		<tag k="ssr:stedsnr" v="744263" />
	</node>
	<node id="-15770" lat="66.7742111124" lon="13.7780666602">
		<tag k="fixme" v="consider natural=peak for the most distinct mountains in the district" />
		<tag k="name" v="Hjartfjellet" />
		<tag k="natural" v="hill" />
		<tag k="place" v="locality" />
		<tag k="ssr:stedsnr" v="744255" />
	</node>
	<node id="-15766" lat="66.7853694402" lon="13.6643444521">
		<tag k="fixme" v="consider natural=peak for the most distinct mountains in the district" />
		<tag k="name" v="Brattdalsryggen" />
		<tag k="natural" v="hill" />
		<tag k="place" v="locality" />
		<tag k="ssr:stedsnr" v="744062" />
	</node>
	<node id="-15762" lat="66.8786000039" lon="13.7953861187">
		<tag k="name" v="Storlia" />
		<tag k="natural" v="slope" />
		<tag k="place" v="locality" />
		<tag k="ssr:stedsnr" v="744118" />
	</node>
	<node id="-15758" lat="66.7202694412" lon="13.6580583221">
		<tag k="name" v="Svarthammaren" />
		<tag k="natural" v="ridge" />
		<tag k="place" v="locality" />
		<tag k="ssr:stedsnr" v="896423" />
	</node>
	<node id="-15754" lat="66.7425027776" lon="13.7988361038">
		<tag k="fixme" v="consider natural=peak for the most distinct mountains in the district" />
		<tag k="name" v="Mannågdalsfjellet" />
		<tag k="natural" v="hill" />
		<tag k="place" v="locality" />
		<tag k="ssr:stedsnr" v="715370" />
	</node>
	<node id="-15753" lat="66.6887166662" lon="13.7116277757">
		<tag k="fixme" v="consider natural=peak for the most distinct mountains in the district" />
		<tag k="name" v="Rødtinden" />
		<tag k="natural" v="hill" />
		<tag k="place" v="locality" />
		<tag k="ssr:stedsnr" v="895435" />
	</node>
	<node id="-15752" lat="66.7325722241" lon="13.6769388843">
		<tag k="name" v="Gongskardet" />
		<tag k="natural" v="valley" />
		<tag k="place" v="locality" />
		<tag k="ssr:stedsnr" v="895385" />
	</node>
	<node id="-15751" lat="66.7339111117" lon="13.7031138906">
		<tag k="name" v="Mellafloglia" />
		<tag k="natural" v="slope" />
		<tag k="place" v="locality" />
		<tag k="ssr:stedsnr" v="895355" />
	</node>
	<node id="-15749" lat="66.7490166629" lon="13.9398638966">
		<tag k="name" v="Nordskaret" />
		<tag k="natural" v="valley" />
		<tag k="place" v="locality" />
		<tag k="ssr:stedsnr" v="895086" />
	</node>
	<node id="-15748" lat="66.7459777782" lon="13.9420444426">
		<tag k="name" v="Sørskaret" />
		<tag k="natural" v="valley" />
		<tag k="place" v="locality" />
		<tag k="ssr:stedsnr" v="895085" />
	</node>
	<node id="-15746" lat="66.738813893" lon="13.5676333266">
		<tag k="fixme" v="consider natural=peak for the most distinct mountains in the district" />
		<tag k="name" v="Tjellbærsteinan" />
		<tag k="natural" v="hill" />
		<tag k="place" v="locality" />
		<tag k="ssr:stedsnr" v="894930" />
	</node>
	<node id="-15745" lat="66.8564277743" lon="13.7247777754">
		<tag k="name" v="Litlhågen" />
		<tag k="natural" v="hill" />
		<tag k="place" v="locality" />
		<tag k="ssr:stedsnr" v="712975" />
	</node>
	<node id="-15743" lat="66.9035277775" lon="13.5485666667">
		<tag k="name" v="Lithågen" />
		<tag k="natural" v="hill" />
		<tag k="place" v="locality" />
		<tag k="ssr:stedsnr" v="894877" />
	</node>
	<node id="-15734" lat="66.8034305568" lon="13.6170972158">
		<tag k="name" v="Høggan" />
		<tag k="natural" v="slope" />
		<tag k="place" v="locality" />
		<tag k="ssr:stedsnr" v="894811" />
	</node>
	<node id="-15733" lat="66.7999555574" lon="13.6328916597">
		<tag k="name" v="Hestlia" />
		<tag k="natural" v="slope" />
		<tag k="place" v="locality" />
		<tag k="ssr:stedsnr" v="894809" />
	</node>
	<node id="-15732" lat="66.8000638914" lon="13.5965333267">
		<tag k="name" v="Riskallen" />
		<tag k="natural" v="ridge" />
		<tag k="place" v="locality" />
		<tag k="ssr:stedsnr" v="894808" />
	</node>
	<node id="-15731" lat="66.792063891" lon="13.5358305645">
		<tag k="name" v="Marijordhågen" />
		<tag k="natural" v="ridge" />
		<tag k="place" v="locality" />
		<tag k="ssr:stedsnr" v="894800" />
	</node>
	<node id="-15729" lat="66.8871277746" lon="13.7391916549">
		<tag k="name" v="Mosvolldalen" />
		<tag k="natural" v="valley" />
		<tag k="place" v="locality" />
		<tag k="ssr:stedsnr" v="712597" />
	</node>
	<node id="-15728" lat="66.832224997" lon="13.7905611153">
		<tag k="name" v="Tverråglia" />
		<tag k="natural" v="slope" />
		<tag k="place" v="locality" />
		<tag k="ssr:stedsnr" v="894756" />
	</node>
	<node id="-15725" lat="66.8118194479" lon="13.6662583241">
		<tag k="name" v="Isbergan" />
		<tag k="natural" v="cliff" />
		<tag k="ssr:stedsnr" v="894743" />
	</node>
	<node id="-15723" lat="66.8273527752" lon="13.4674444334">
		<tag k="name" v="Innerkleiva" />
		<tag k="natural" v="slope" />
		<tag k="place" v="locality" />
		<tag k="ssr:stedsnr" v="712238" />
	</node>
	<node id="-15721" lat="66.8275916684" lon="13.4049583343">
		<tag k="name" v="Meberget" />
		<tag k="natural" v="hill" />
		<tag k="place" v="locality" />
		<tag k="ssr:stedsnr" v="712222" />
	</node>
	<node id="-15719" lat="66.8629805588" lon="13.7219249892">
		<tag k="name" v="Spilderhalsen" />
		<tag k="natural" v="ridge" />
		<tag k="place" v="locality" />
		<tag k="ssr:stedsnr" v="712208" />
	</node>
	<node id="-15716" lat="66.7367555547" lon="13.8872500033">
		<tag k="name" v="Molla" />
		<tag k="natural" v="slope" />
		<tag k="place" v="locality" />
		<tag k="ssr:stedsnr" v="712154" />
	</node>
	<node id="-15715" lat="66.8219333333" lon="13.7926916779">
		<tag k="name" v="Rondalen" />
		<tag k="natural" v="valley" />
		<tag k="place" v="locality" />
		<tag k="ssr:stedsnr" v="894677" />
	</node>
	<node id="-15714" lat="66.8050250019" lon="13.195866674">
		<tag k="name" v="Bottelhågan" />
		<tag k="natural" v="ridge" />
		<tag k="place" v="locality" />
		<tag k="ssr:stedsnr" v="894674" />
	</node>
	<node id="-15713" lat="66.7605305552" lon="13.7490388866">
		<tag k="name" v="Småronan" />
		<tag k="place" v="locality" />
		<tag k="ssr:stedsnr" v="894664" />
	</node>
	<node id="-15709" lat="66.7970805558" lon="13.6246111167">
		<tag k="name" v="Moan" />
		<tag k="place" v="locality" />
		<tag k="ssr:stedsnr" v="711822" />
	</node>
	<node id="-15708" lat="66.7552194402" lon="13.7837000081">
		<tag k="name" v="Vadbakkan" />
		<tag k="natural" v="slope" />
		<tag k="place" v="locality" />
		<tag k="ssr:stedsnr" v="894586" />
	</node>
	<node id="-15707" lat="66.7667333291" lon="13.4579138943">
		<tag k="name" v="Maliskarhågen" />
		<tag k="natural" v="ridge" />
		<tag k="place" v="locality" />
		<tag k="ssr:stedsnr" v="711406" />
	</node>
	<node id="-15706" lat="66.7740305601" lon="13.380661104">
		<tag k="name" v="Storhågen" />
		<tag k="natural" v="hill" />
		<tag k="place" v="locality" />
		<tag k="ssr:stedsnr" v="894424" />
	</node>
	<node id="-15704" lat="66.7293555578" lon="13.412844444">
		<tag k="name" v="Nattmålshågen" />
		<tag k="natural" v="hill" />
		<tag k="place" v="locality" />
		<tag k="ssr:stedsnr" v="894354" />
	</node>
	<node id="-15703" lat="66.8308861069" lon="13.4084194473">
		<tag k="name" v="Langhågen" />
		<tag k="natural" v="hill" />
		<tag k="place" v="locality" />
		<tag k="ssr:stedsnr" v="894340" />
	</node>
	<node id="-15702" lat="66.8270638897" lon="13.4699444471">
		<tag k="name" v="Rundhågen" />
		<tag k="natural" v="hill" />
		<tag k="place" v="locality" />
		<tag k="ssr:stedsnr" v="894312" />
	</node>
	<node id="-15699" lat="66.8130722251" lon="13.3638750071">
		<tag k="fixme" v="consider natural=peak for the most distinct mountains in the district" />
		<tag k="name" v="Ytterhatten" />
		<tag k="natural" v="hill" />
		<tag k="place" v="locality" />
		<tag k="ssr:stedsnr" v="894292" />
	</node>
	<node id="-15694" lat="66.7391333324" lon="13.9484694507">
		<tag k="name" v="Østerdalen" />
		<tag k="natural" v="valley" />
		<tag k="place" v="locality" />
		<tag k="ssr:stedsnr" v="894167" />
	</node>
	<node id="-15689" lat="66.767055556" lon="13.3099499958">
		<tag k="fixme" v="consider natural=peak for the most distinct mountains in the district" />
		<tag k="name" v="Åsen" />
		<tag k="natural" v="hill" />
		<tag k="place" v="locality" />
		<tag k="ssr:stedsnr" v="887747" />
	</node>
	<node id="-15688" lat="66.7544333368" lon="13.3204805493">
		<tag k="name" v="Ysviklia" />
		<tag k="natural" v="slope" />
		<tag k="place" v="locality" />
		<tag k="ssr:stedsnr" v="886735" />
	</node>
	<node id="-15674" lat="66.9204527778" lon="13.7774249934">
		<tag k="name" v="Skromdalsskaret" />
		<tag k="natural" v="valley" />
		<tag k="place" v="locality" />
		<tag k="ssr:stedsnr" v="683153" />
	</node>
	<node id="-15672" lat="66.723197218" lon="13.6225611065">
		<tag k="fixme" v="multiple name tags, choose one and add the other to alt_name; consider natural=peak for the most distinct mountains in the district" />
		<tag k="name" v="Kjerringdalsaksla;Sommarsethøgda" />
		<tag k="natural" v="hill" />
		<tag k="place" v="locality" />
		<tag k="ssr:stedsnr" v="683210" />
	</node>
	<node id="-15671" lat="66.7883416678" lon="13.6905916781">
		<tag k="fixme" v="consider natural=peak for the most distinct mountains in the district" />
		<tag k="name" v="Slagfjellkjølen" />
		<tag k="natural" v="hill" />
		<tag k="place" v="locality" />
		<tag k="ssr:stedsnr" v="683073" />
	</node>
	<node id="-15669" lat="66.7944749979" lon="13.6632694425">
		<tag k="name" v="Austdalen" />
		<tag k="natural" v="valley" />
		<tag k="place" v="locality" />
		<tag k="ssr:stedsnr" v="683059" />
	</node>
	<node id="-15667" lat="66.760902779" lon="13.429880545">
		<tag k="name" v="Lembakken" />
		<tag k="natural" v="slope" />
		<tag k="place" v="locality" />
		<tag k="ssr:stedsnr" v="683007" />
	</node>
	<node id="-16957" lat="66.9252583316" lon="13.631872232">
		<tag k="name" v="Molla" />
		<tag k="place" v="locality" />
		<tag k="ssr:stedsnr" v="834847" />
	</node>
	<node id="-15665" lat="66.6804944474" lon="13.6429888949">
		<tag k="name" v="Kvanntuva" />
		<tag k="natural" v="ridge" />
		<tag k="place" v="locality" />
		<tag k="ssr:stedsnr" v="651892" />
	</node>
	<node id="-15664" lat="66.9079777813" lon="13.5845055504">
		<tag k="name" v="Kjellarbakken" />
		<tag k="natural" v="slope" />
		<tag k="place" v="locality" />
		<tag k="ssr:stedsnr" v="651880" />
	</node>
	<node id="-15661" lat="66.9506444431" lon="13.617444441">
		<tag k="name" v="Grensen" />
		<tag k="natural" v="slope" />
		<tag k="place" v="locality" />
		<tag k="ssr:stedsnr" v="651853" />
	</node>
	<node id="-15660" lat="66.6958138873" lon="13.5641777852">
		<tag k="name" v="Merkeberget" />
		<tag k="natural" v="cliff" />
		<tag k="ssr:stedsnr" v="651908" />
	</node>
	<node id="-15656" lat="66.7632805542" lon="13.8918944431">
		<tag k="name" v="Nordkråga" />
		<tag k="natural" v="slope" />
		<tag k="place" v="locality" />
		<tag k="ssr:stedsnr" v="651106" />
	</node>
	<node id="-15649" lat="66.853816665" lon="13.6407388907">
		<tag k="fixme" v="consider natural=peak for the most distinct mountains in the district" />
		<tag k="name" v="Litlhopen" />
		<tag k="natural" v="hill" />
		<tag k="place" v="locality" />
		<tag k="ssr:stedsnr" v="722677" />
	</node>
	<node id="-15648" lat="66.7324138917" lon="13.5696972286">
		<tag k="name" v="Svehågen" />
		<tag k="natural" v="hill" />
		<tag k="place" v="locality" />
		<tag k="ssr:stedsnr" v="712919" />
	</node>
	<node id="-15646" lat="66.9159777739" lon="13.6959111054">
		<tag k="alt_name" v="Kongersvollen" />
		<tag k="name" v="Kongervoll" />
		<tag k="place" v="locality" />
		<tag k="ssr:stedsnr" v="712886" />
	</node>
	<node id="-15645" lat="66.860672223" lon="13.7514194376">
		<tag k="name" v="Djupdalen" />
		<tag k="natural" v="valley" />
		<tag k="place" v="locality" />
		<tag k="ssr:stedsnr" v="712743" />
	</node>
	<node id="-15644" lat="66.8566277769" lon="13.74866666">
		<tag k="name" v="Ramnfloget" />
		<tag k="natural" v="cliff" />
		<tag k="ssr:stedsnr" v="712739" />
	</node>
	<node id="-15642" lat="66.8400138891" lon="13.7792416606">
		<tag k="name" v="Grøntuva" />
		<tag k="natural" v="slope" />
		<tag k="place" v="locality" />
		<tag k="ssr:stedsnr" v="712734" />
	</node>
	<node id="-15640" lat="66.8301333299" lon="13.7867888822">
		<tag k="name" v="Tortenlia" />
		<tag k="natural" v="slope" />
		<tag k="place" v="locality" />
		<tag k="ssr:stedsnr" v="712731" />
	</node>
	<node id="-15639" lat="66.8316972205" lon="13.767486101">
		<tag k="name" v="Nausthågen" />
		<tag k="natural" v="hill" />
		<tag k="place" v="locality" />
		<tag k="ssr:stedsnr" v="712724" />
	</node>
	<node id="-15637" lat="66.8266333306" lon="13.5117555528">
		<tag k="name" v="Klubben" />
		<tag k="natural" v="ridge" />
		<tag k="place" v="locality" />
		<tag k="ssr:stedsnr" v="712778" />
	</node>
	<node id="-15633" lat="66.8678250029" lon="13.7758833301">
		<tag k="name" v="Digermulen" />
		<tag k="natural" v="ridge" />
		<tag k="place" v="locality" />
		<tag k="ssr:stedsnr" v="712701" />
	</node>
	<node id="-15632" lat="66.865563893" lon="13.7500666779">
		<tag k="name" v="Fallbakken" />
		<tag k="natural" v="slope" />
		<tag k="place" v="locality" />
		<tag k="ssr:stedsnr" v="712682" />
	</node>
	<node id="-15631" lat="66.7239638877" lon="13.5673111144">
		<tag k="name" v="Hærskardet" />
		<tag k="natural" v="valley" />
		<tag k="place" v="locality" />
		<tag k="ssr:stedsnr" v="712666" />
	</node>
	<node id="-15628" lat="66.7865138857" lon="13.4186277768">
		<tag k="name" v="Jerusalem" />
		<tag k="natural" v="slope" />
		<tag k="place" v="locality" />
		<tag k="ssr:stedsnr" v="712323" />
	</node>
	<node id="-15627" lat="66.7266388898" lon="13.4258583314">
		<tag k="name" v="Åbotsvikhågen" />
		<tag k="natural" v="ridge" />
		<tag k="place" v="locality" />
		<tag k="ssr:stedsnr" v="712310" />
	</node>
	<node id="-15626" lat="66.7574666661" lon="13.7589388832">
		<tag k="name" v="Øyra" />
		<tag k="place" v="locality" />
		<tag k="ssr:stedsnr" v="712259" />
	</node>
	<node id="-15625" lat="66.7278333339" lon="13.4575861207">
		<tag k="name" v="Kjelland" />
		<tag k="natural" v="slope" />
		<tag k="place" v="locality" />
		<tag k="ssr:stedsnr" v="712397" />
	</node>
	<node id="-15624" lat="66.7293305545" lon="13.6811194491">
		<tag k="name" v="Baklia" />
		<tag k="natural" v="slope" />
		<tag k="place" v="locality" />
		<tag k="ssr:stedsnr" v="712394" />
	</node>
	<node id="-15622" lat="66.757872221" lon="13.8187416708">
		<tag k="name" v="Dyrrabban" />
		<tag k="natural" v="slope" />
		<tag k="place" v="locality" />
		<tag k="ssr:stedsnr" v="712061" />
	</node>
	<node id="-15621" lat="66.7538277742" lon="13.5620333437">
		<tag k="name" v="Slettahågen" />
		<tag k="natural" v="hill" />
		<tag k="place" v="locality" />
		<tag k="ssr:stedsnr" v="590948" />
	</node>
	<node id="-15619" lat="66.8157833349" lon="13.8190111218">
		<tag k="name" v="Litltoppen" />
		<tag k="natural" v="ridge" />
		<tag k="place" v="locality" />
		<tag k="ssr:stedsnr" v="712032" />
	</node>
	<node id="-15617" lat="66.8215305558" lon="13.3851444387">
		<tag k="fixme" v="consider natural=peak for the most distinct mountains in the district" />
		<tag k="name" v="Alberget" />
		<tag k="natural" v="hill" />
		<tag k="place" v="locality" />
		<tag k="ssr:stedsnr" v="590261" />
	</node>
	<node id="-15616" lat="66.8326888909" lon="13.4168583273">
		<tag k="name" v="Kista" />
		<tag k="natural" v="ridge" />
		<tag k="place" v="locality" />
		<tag k="ssr:stedsnr" v="590307" />
	</node>
	<node id="-15615" lat="66.7214194446" lon="13.4364694413">
		<tag k="name" v="Størkerhågen" />
		<tag k="natural" v="hill" />
		<tag k="place" v="locality" />
		<tag k="ssr:stedsnr" v="710418" />
	</node>
	<node id="-15611" lat="66.7562138904" lon="13.3257305478">
		<tag k="name" v="Tuva" />
		<tag k="natural" v="ridge" />
		<tag k="place" v="locality" />
		<tag k="ssr:stedsnr" v="704695" />
	</node>
	<node id="-15609" lat="66.8195944461" lon="13.9608638956">
		<tag k="name" v="Vassaksla" />
		<tag k="natural" v="ridge" />
		<tag k="place" v="locality" />
		<tag k="ssr:stedsnr" v="704164" />
	</node>
	<node id="-16955" lat="66.8580472228" lon="13.7579972245">
		<tag k="name" v="Lapptralia" />
		<tag k="natural" v="slope" />
		<tag k="place" v="locality" />
		<tag k="ssr:stedsnr" v="834745" />
	</node>
	<node id="-15601" lat="66.8964388901" lon="13.6641222244">
		<tag k="alt_name" v="Ronetinden" />
		<tag k="fixme" v="consider natural=peak for the most distinct mountains in the district" />
		<tag k="name" v="Rontinden" />
		<tag k="natural" v="hill" />
		<tag k="place" v="locality" />
		<tag k="ssr:stedsnr" v="561915" />
	</node>
	<node id="-15600" lat="66.8974111155" lon="13.7055888833">
		<tag k="fixme" v="multiple name tags, choose one and add the other to alt_name; consider natural=peak for the most distinct mountains in the district" />
		<tag k="name" v="Breifjellet;Vasshaugfjellet" />
		<tag k="natural" v="hill" />
		<tag k="place" v="locality" />
		<tag k="ssr:stedsnr" v="561914" />
	</node>
	<node id="-15588" lat="66.7606111065" lon="13.3540194519">
		<tag k="fixme" v="multiple name tags, choose one and add the other to alt_name; consider natural=peak for the most distinct mountains in the district" />
		<tag k="name" v="Bjørntinden;Snødalstinden" />
		<tag k="natural" v="hill" />
		<tag k="place" v="locality" />
		<tag k="ssr:stedsnr" v="561066" />
	</node>
	<node id="-15587" lat="66.7633277778" lon="13.4139777859">
		<tag k="fixme" v="consider natural=peak for the most distinct mountains in the district" />
		<tag k="name" v="Skarstinden" />
		<tag k="natural" v="hill" />
		<tag k="place" v="locality" />
		<tag k="ssr:stedsnr" v="561062" />
	</node>
	<node id="-15585" lat="66.7603666667" lon="13.3079944551">
		<tag k="alt_name" v="Harfjellskardet" />
		<tag k="name" v="Harrfjellskaret" />
		<tag k="natural" v="valley" />
		<tag k="place" v="locality" />
		<tag k="ssr:stedsnr" v="561021" />
	</node>
	<node id="-15584" lat="66.7557750009" lon="13.3679694519">
		<tag k="alt_name" v="Slåttfjellet" />
		<tag k="fixme" v="consider natural=peak for the most distinct mountains in the district" />
		<tag k="name" v="Slottfjellet" />
		<tag k="natural" v="hill" />
		<tag k="place" v="locality" />
		<tag k="ssr:stedsnr" v="561018" />
	</node>
	<node id="-15582" lat="66.9003722255" lon="13.8213500092">
		<tag k="fixme" v="consider natural=peak for the most distinct mountains in the district" />
		<tag k="name" v="Svartvasshamran" />
		<tag k="natural" v="hill" />
		<tag k="place" v="locality" />
		<tag k="ssr:stedsnr" v="693626" />
	</node>
	<node id="-15576" lat="66.7899805565" lon="13.532538896">
		<tag k="name" v="Askalia" />
		<tag k="natural" v="slope" />
		<tag k="place" v="locality" />
		<tag k="ssr:stedsnr" v="530782" />
	</node>
	<node id="-15570" lat="66.7462666683" lon="13.7148361094">
		<tag k="fixme" v="consider natural=peak for the most distinct mountains in the district" />
		<tag k="name" v="Lasset" />
		<tag k="natural" v="hill" />
		<tag k="place" v="locality" />
		<tag k="ssr:stedsnr" v="530411" />
	</node>
	<node id="-15569" lat="66.7091861143" lon="13.460308337">
		<tag k="name" v="Hestskarheia" />
		<tag k="natural" v="hill" />
		<tag k="place" v="locality" />
		<tag k="ssr:stedsnr" v="530402" />
	</node>
	<node id="-15568" lat="66.721380557" lon="13.6244861008">
		<tag k="name" v="Kjerringdalen" />
		<tag k="natural" v="valley" />
		<tag k="place" v="locality" />
		<tag k="ssr:stedsnr" v="530193" />
	</node>
	<node id="-15566" lat="66.7147138924" lon="13.5182999973">
		<tag k="fixme" v="consider natural=peak for the most distinct mountains in the district" />
		<tag k="name" v="Arhaugkollen" />
		<tag k="natural" v="hill" />
		<tag k="place" v="locality" />
		<tag k="ssr:stedsnr" v="530215" />
	</node>
	<node id="-15565" lat="66.7158916664" lon="13.5242555659">
		<tag k="name" v="Gløshågen" />
		<tag k="natural" v="ridge" />
		<tag k="place" v="locality" />
		<tag k="ssr:stedsnr" v="530212" />
	</node>
	<node id="-15563" lat="66.7721416658" lon="13.576755561">
		<tag k="fixme" v="consider natural=peak for the most distinct mountains in the district" />
		<tag k="name" v="Grytåsen" />
		<tag k="natural" v="hill" />
		<tag k="place" v="locality" />
		<tag k="ssr:stedsnr" v="529830" />
	</node>
	<node id="-15560" lat="66.7740166679" lon="13.4729305505">
		<tag k="name" v="Trollholan" />
		<tag k="natural" v="valley" />
		<tag k="place" v="locality" />
		<tag k="ssr:stedsnr" v="529371" />
	</node>
	<node id="-15555" lat="66.8196111091" lon="13.3783638836">
		<tag k="alt_name" v="Kolpilten" />
		<tag k="name" v="Kålpilten" />
		<tag k="natural" v="hill" />
		<tag k="place" v="locality" />
		<tag k="ssr:stedsnr" v="684974" />
	</node>
	<node id="-15552" lat="66.9074000034" lon="13.6401416626">
		<tag k="name" v="Ronemoen" />
		<tag k="place" v="locality" />
		<tag k="ssr:stedsnr" v="684944" />
	</node>
	<node id="-15548" lat="66.904088888" lon="13.5538694486">
		<tag k="alt_name" v="Hornneshaugen" />
		<tag k="name" v="Hornneshågen" />
		<tag k="natural" v="hill" />
		<tag k="place" v="locality" />
		<tag k="ssr:stedsnr" v="684874" />
	</node>
	<node id="-15543" lat="66.9161305553" lon="13.7883527812">
		<tag k="name" v="Mølndalen" />
		<tag k="natural" v="valley" />
		<tag k="place" v="locality" />
		<tag k="ssr:stedsnr" v="684767" />
	</node>
	<node id="-15537" lat="66.7445083309" lon="13.8320166681">
		<tag k="name" v="Kjølen" />
		<tag k="natural" v="ridge" />
		<tag k="place" v="locality" />
		<tag k="ssr:stedsnr" v="684373" />
	</node>
	<node id="-15532" lat="66.7392277789" lon="14.2879749937">
		<tag k="loc_name:smj" v="Rájjevágge" />
		<tag k="name" v="Glomdalen" />
		<tag k="name:no" v="Glomdalen" />
		<tag k="natural" v="valley" />
		<tag k="place" v="locality" />
		<tag k="ssr:stedsnr" v="684442" />
	</node>
	<node id="-15531" lat="66.7008027813" lon="13.4999694343">
		<tag k="fixme" v="consider natural=peak for the most distinct mountains in the district" />
		<tag k="name" v="Rismålstinden" />
		<tag k="natural" v="hill" />
		<tag k="place" v="locality" />
		<tag k="ssr:stedsnr" v="684197" />
	</node>
	<node id="-15529" lat="66.741052782" lon="13.6648527798">
		<tag k="name" v="Neverlia" />
		<tag k="natural" v="slope" />
		<tag k="place" v="locality" />
		<tag k="ssr:stedsnr" v="684192" />
	</node>
	<node id="-15527" lat="66.7419027792" lon="13.7278611215">
		<tag k="alt_name" v="Frukosttuva" />
		<tag k="fixme" v="consider natural=peak for the most distinct mountains in the district" />
		<tag k="name" v="Frokosttuva" />
		<tag k="natural" v="hill" />
		<tag k="place" v="locality" />
		<tag k="ssr:stedsnr" v="684177" />
	</node>
	<node id="-15522" lat="66.9433666711" lon="13.5258611144">
		<tag k="fixme" v="consider natural=peak for the most distinct mountains in the district" />
		<tag k="name" v="Kunna" />
		<tag k="natural" v="hill" />
		<tag k="place" v="locality" />
		<tag k="ssr:stedsnr" v="683844" />
	</node>
	<node id="-15516" lat="66.9213861109" lon="13.83372778">
		<tag k="fixme" v="consider natural=peak for the most distinct mountains in the district" />
		<tag k="name" v="Mølndalstinden" />
		<tag k="natural" v="hill" />
		<tag k="place" v="locality" />
		<tag k="ssr:stedsnr" v="683152" />
	</node>
	<node id="-15514" lat="66.8807444438" lon="13.7445305495">
		<tag k="fixme" v="consider natural=peak for the most distinct mountains in the district" />
		<tag k="name" v="Klubben" />
		<tag k="natural" v="hill" />
		<tag k="place" v="locality" />
		<tag k="ssr:stedsnr" v="683126" />
	</node>
	<node id="-15513" lat="66.8963972229" lon="13.8918999971">
		<tag k="fixme" v="consider natural=peak for the most distinct mountains in the district" />
		<tag k="name" v="Vardefjellet" />
		<tag k="natural" v="hill" />
		<tag k="place" v="locality" />
		<tag k="ssr:stedsnr" v="683121" />
	</node>
	<node id="-15512" lat="66.8868027756" lon="13.7825638941">
		<tag k="alt_name" v="Dydalen" />
		<tag k="name" v="Dyrdalen" />
		<tag k="natural" v="valley" />
		<tag k="place" v="locality" />
		<tag k="ssr:stedsnr" v="683119" />
	</node>
	<node id="-15508" lat="66.8003194471" lon="13.6696472269">
		<tag k="fixme" v="consider natural=peak for the most distinct mountains in the district" />
		<tag k="name" v="Keipen" />
		<tag k="natural" v="hill" />
		<tag k="place" v="locality" />
		<tag k="ssr:stedsnr" v="683106" />
	</node>
	<node id="-15501" lat="66.7774777811" lon="13.5868111081">
		<tag k="name" v="Saurlia" />
		<tag k="natural" v="slope" />
		<tag k="place" v="locality" />
		<tag k="ssr:stedsnr" v="683030" />
	</node>
	<node id="-15500" lat="66.7788277814" lon="13.6726916758">
		<tag k="name" v="Kjelddalen" />
		<tag k="natural" v="valley" />
		<tag k="place" v="locality" />
		<tag k="ssr:stedsnr" v="683026" />
	</node>
	<node id="-15497" lat="66.7939583307" lon="13.9958083267">
		<tag k="alt_name" v="Fykanberget" />
		<tag k="name" v="Fykanbergan" />
		<tag k="natural" v="hill" />
		<tag k="place" v="locality" />
		<tag k="ssr:stedsnr" v="502299" />
	</node>
	<node id="-15494" lat="66.7969444413" lon="14.0024250022">
		<tag k="name" v="Fykan" />
		<tag k="natural" v="valley" />
		<tag k="place" v="locality" />
		<tag k="ssr:stedsnr" v="502312" />
	</node>
	<node id="-15492" lat="66.7977750006" lon="14.1237000077">
		<tag k="name" v="Daudmannsskardet" />
		<tag k="natural" v="valley" />
		<tag k="place" v="locality" />
		<tag k="ssr:stedsnr" v="502310" />
	</node>
	<node id="-15490" lat="66.9238722222" lon="13.5972638862">
		<tag k="fixme" v="consider natural=peak for the most distinct mountains in the district" />
		<tag k="name" v="Skrovtinden" />
		<tag k="natural" v="hill" />
		<tag k="place" v="locality" />
		<tag k="ssr:stedsnr" v="501884" />
	</node>
	<node id="-16951" lat="66.8605194449" lon="13.6500694478">
		<tag k="name" v="Olderen" />
		<tag k="natural" v="ridge" />
		<tag k="place" v="locality" />
		<tag k="ssr:stedsnr" v="834765" />
	</node>
	<node id="-15483" lat="66.7687861143" lon="13.7751888884">
		<tag k="name" v="Svahella" />
		<tag k="natural" v="hill" />
		<tag k="place" v="locality" />
		<tag k="ssr:stedsnr" v="501285" />
	</node>
	<node id="-15481" lat="66.8275305527" lon="13.9624777665">
		<tag k="alt_name" v="Glomneshaugen" />
		<tag k="name" v="Glomvasshågen" />
		<tag k="natural" v="hill" />
		<tag k="place" v="locality" />
		<tag k="ssr:stedsnr" v="501312" />
	</node>
	<node id="-15480" lat="66.8260277815" lon="13.9138666632">
		<tag k="fixme" v="consider natural=peak for the most distinct mountains in the district" />
		<tag k="name" v="Sfinxen" />
		<tag k="natural" v="hill" />
		<tag k="place" v="locality" />
		<tag k="ssr:stedsnr" v="501310" />
	</node>
	<node id="-15479" lat="66.8916277768" lon="13.7947055535">
		<tag k="fixme" v="consider natural=peak for the most distinct mountains in the district" />
		<tag k="name" v="Breifjellet" />
		<tag k="natural" v="hill" />
		<tag k="place" v="locality" />
		<tag k="ssr:stedsnr" v="501118" />
	</node>
	<node id="-15474" lat="66.6988388877" lon="13.5359583325">
		<tag k="name" v="Smålemman" />
		<tag k="natural" v="slope" />
		<tag k="place" v="locality" />
		<tag k="ssr:stedsnr" v="470112" />
	</node>
	<node id="-15472" lat="66.8271972181" lon="13.3600416671">
		<tag k="fixme" v="consider natural=peak for the most distinct mountains in the district" />
		<tag k="name" v="Revåsen" />
		<tag k="natural" v="hill" />
		<tag k="place" v="locality" />
		<tag k="ssr:stedsnr" v="469652" />
	</node>
	<node id="-15471" lat="66.7567611115" lon="13.6655166687">
		<tag k="name" v="Heststeinhågen" />
		<tag k="natural" v="hill" />
		<tag k="place" v="locality" />
		<tag k="ssr:stedsnr" v="469650" />
	</node>
	<node id="-15470" lat="66.7150333316" lon="13.4147027698">
		<tag k="name" v="Rognlia" />
		<tag k="natural" v="slope" />
		<tag k="place" v="locality" />
		<tag k="ssr:stedsnr" v="467405" />
	</node>
	<node id="-15457" lat="66.8537027799" lon="13.640947222">
		<tag k="fixme" v="consider natural=peak for the most distinct mountains in the district" />
		<tag k="name" v="Mesøytoppen" />
		<tag k="natural" v="hill" />
		<tag k="place" v="locality" />
		<tag k="ssr:stedsnr" v="518448" />
	</node>
	<node id="-15454" lat="66.916558337" lon="13.7582527712">
		<tag k="name" v="Kjølen" />
		<tag k="natural" v="ridge" />
		<tag k="place" v="locality" />
		<tag k="ssr:stedsnr" v="409874" />
	</node>
	<node id="-15453" lat="66.9163999974" lon="13.6735749913">
		<tag k="name" v="Sollinakkan" />
		<tag k="natural" v="ridge" />
		<tag k="place" v="locality" />
		<tag k="ssr:stedsnr" v="409870" />
	</node>
	<node id="-15451" lat="66.7416388864" lon="13.5669249942">
		<tag k="fixme" v="consider natural=peak for the most distinct mountains in the district" />
		<tag k="name" v="Grindåsen" />
		<tag k="natural" v="hill" />
		<tag k="place" v="locality" />
		<tag k="ssr:stedsnr" v="409910" />
	</node>
	<node id="-15448" lat="66.7618749974" lon="13.4431999948">
		<tag k="name" v="Storhågen" />
		<tag k="natural" v="hill" />
		<tag k="place" v="locality" />
		<tag k="ssr:stedsnr" v="409318" />
	</node>
	<node id="-15446" lat="66.7121750021" lon="13.7483138968">
		<tag k="name" v="Bulikollen" />
		<tag k="natural" v="ridge" />
		<tag k="place" v="locality" />
		<tag k="ssr:stedsnr" v="506783" />
	</node>
	<node id="-15435" lat="66.7455138911" lon="13.9337694537">
		<tag k="name" v="Bjørnholet" />
		<tag k="natural" v="valley" />
		<tag k="place" v="locality" />
		<tag k="ssr:stedsnr" v="502376" />
	</node>
	<node id="-15434" lat="66.6330250013" lon="14.2119861073">
		<tag k="alt_name" v="Istinden, nordre" />
		<tag k="fixme" v="consider natural=peak for the most distinct mountains in the district" />
		<tag k="name" v="Nordre Istinden" />
		<tag k="natural" v="hill" />
		<tag k="place" v="locality" />
		<tag k="ssr:stedsnr" v="502475" />
	</node>
	<node id="-15433" lat="66.7532972178" lon="14.3281305626">
		<tag k="fixme" v="consider natural=peak for the most distinct mountains in the district" />
		<tag k="loc_name:smj" v="Nuortta Siekkistjåhkkå" />
		<tag k="name" v="Nordre Glomvassfjellet" />
		<tag k="name:no" v="Nordre Glomvassfjellet" />
		<tag k="natural" v="hill" />
		<tag k="place" v="locality" />
		<tag k="ssr:stedsnr" v="502371" />
	</node>
	<node id="-15432" lat="66.7450999955" lon="13.892908341">
		<tag k="name" v="Stordalen" />
		<tag k="natural" v="valley" />
		<tag k="place" v="locality" />
		<tag k="ssr:stedsnr" v="502368" />
	</node>
	<node id="-15430" lat="66.927375002" lon="13.587724989">
		<tag k="fixme" v="consider natural=peak for the most distinct mountains in the district" />
		<tag k="name" v="Skroven" />
		<tag k="natural" v="hill" />
		<tag k="place" v="locality" />
		<tag k="ssr:stedsnr" v="501833" />
	</node>
	<node id="-15428" lat="66.8349166692" lon="13.5065888832">
		<tag k="name" v="Fagervikdalen" />
		<tag k="natural" v="valley" />
		<tag k="place" v="locality" />
		<tag k="ssr:stedsnr" v="502000" />
	</node>
	<node id="-15426" lat="66.8344750028" lon="13.4537083235">
		<tag k="fixme" v="consider natural=peak for the most distinct mountains in the district" />
		<tag k="name" v="Meløytinden" />
		<tag k="natural" v="hill" />
		<tag k="place" v="locality" />
		<tag k="ssr:stedsnr" v="501993" />
	</node>
	<node id="-15416" lat="66.8056194463" lon="13.6405555508">
		<tag k="fixme" v="consider natural=peak for the most distinct mountains in the district" />
		<tag k="name" v="Hesten" />
		<tag k="natural" v="hill" />
		<tag k="place" v="locality" />
		<tag k="ssr:stedsnr" v="501762" />
	</node>
	<node id="-15414" lat="66.8369972263" lon="13.8292055482">
		<tag k="alt_name" v="Storskardet" />
		<tag k="name" v="Storskaret" />
		<tag k="natural" v="valley" />
		<tag k="place" v="locality" />
		<tag k="ssr:stedsnr" v="501755" />
	</node>
	<node id="-15413" lat="66.8060333345" lon="13.204552784">
		<tag k="fixme" v="consider natural=peak for the most distinct mountains in the district" />
		<tag k="name" v="Bolgtinden" />
		<tag k="natural" v="hill" />
		<tag k="place" v="locality" />
		<tag k="ssr:stedsnr" v="501748" />
	</node>
	<node id="-15400" lat="66.7048944411" lon="14.3551444377">
		<tag k="fixme" v="consider natural=peak for the most distinct mountains in the district" />
		<tag k="name" v="Spisstinden" />
		<tag k="natural" v="hill" />
		<tag k="place" v="locality" />
		<tag k="ssr:stedsnr" v="501418" />
	</node>
	<node id="-15399" lat="66.8507805588" lon="13.7275083308">
		<tag k="fixme" v="multiple name tags, choose one and add the other to alt_name; consider natural=peak for the most distinct mountains in the district" />
		<tag k="name" v="Sandågåsen;Åsen" />
		<tag k="natural" v="hill" />
		<tag k="place" v="locality" />
		<tag k="ssr:stedsnr" v="501345" />
	</node>
	<node id="-15392" lat="66.7740027802" lon="13.3543472316">
		<tag k="name" v="Bjørndalen" />
		<tag k="natural" v="valley" />
		<tag k="place" v="locality" />
		<tag k="ssr:stedsnr" v="501088" />
	</node>
	<node id="-15391" lat="66.7926083373" lon="13.5413611157">
		<tag k="alt_name" v="Lushaugen" />
		<tag k="name" v="Lushågen" />
		<tag k="natural" v="hill" />
		<tag k="place" v="locality" />
		<tag k="ssr:stedsnr" v="501081" />
	</node>
	<node id="-15385" lat="66.9184055538" lon="13.671669439">
		<tag k="name" v="Sollenget" />
		<tag k="natural" v="slope" />
		<tag k="place" v="locality" />
		<tag k="ssr:stedsnr" v="348865" />
	</node>
	<node id="-15383" lat="66.8266999961" lon="13.7706277803">
		<tag k="name" v="Juvika" />
		<tag k="natural" v="valley" />
		<tag k="place" v="locality" />
		<tag k="ssr:stedsnr" v="348723" />
	</node>
	<node id="-15382" lat="66.8319916676" lon="13.7545361183">
		<tag k="name" v="Solbakken" />
		<tag k="natural" v="slope" />
		<tag k="place" v="locality" />
		<tag k="ssr:stedsnr" v="348719" />
	</node>
	<node id="-15381" lat="66.8622666642" lon="13.7545555471">
		<tag k="name" v="Vassrabben" />
		<tag k="natural" v="ridge" />
		<tag k="place" v="locality" />
		<tag k="ssr:stedsnr" v="348674" />
	</node>
	<node id="-15379" lat="66.8056472224" lon="13.2285055621">
		<tag k="loc_name" v="Valberghågen" />
		<tag k="name" v="Vardberghågen" />
		<tag k="natural" v="ridge" />
		<tag k="place" v="locality" />
		<tag k="ssr:stedsnr" v="348653" />
	</node>
	<node id="-15378" lat="66.8040694421" lon="13.209400011">
		<tag k="name" v="Kvitlia" />
		<tag k="natural" v="slope" />
		<tag k="place" v="locality" />
		<tag k="ssr:stedsnr" v="348624" />
	</node>
	<node id="-15373" lat="66.7307361148" lon="13.7992638816">
		<tag k="name" v="Mannågskogen" />
		<tag k="natural" v="slope" />
		<tag k="place" v="locality" />
		<tag k="ssr:stedsnr" v="348162" />
	</node>
	<node id="-15372" lat="66.7273416683" lon="13.4386055565">
		<tag k="name" v="Trongkleiva" />
		<tag k="natural" v="slope" />
		<tag k="place" v="locality" />
		<tag k="ssr:stedsnr" v="348403" />
	</node>
	<node id="-15371" lat="66.7569472261" lon="13.7896638804">
		<tag k="name" v="Mølnhågen" />
		<tag k="natural" v="hill" />
		<tag k="place" v="locality" />
		<tag k="ssr:stedsnr" v="348267" />
	</node>
	<node id="-15370" lat="66.8280444438" lon="13.3737055464">
		<tag k="name" v="Bomvollhågen" />
		<tag k="natural" v="ridge" />
		<tag k="place" v="locality" />
		<tag k="ssr:stedsnr" v="348255" />
	</node>
	<node id="-15365" lat="66.7618027764" lon="13.7575805639">
		<tag k="name" v="Demlirona" />
		<tag k="place" v="locality" />
		<tag k="ssr:stedsnr" v="348026" />
	</node>
	<node id="-15364" lat="66.816791663" lon="13.8005138995">
		<tag k="name" v="Storhågen" />
		<tag k="natural" v="hill" />
		<tag k="place" v="locality" />
		<tag k="ssr:stedsnr" v="348023" />
	</node>
	<node id="-15362" lat="66.8741277741" lon="13.7735861209">
		<tag k="name" v="Jensforheia" />
		<tag k="natural" v="hill" />
		<tag k="place" v="locality" />
		<tag k="ssr:stedsnr" v="347508" />
	</node>
	<node id="-15361" lat="66.7217416681" lon="13.3993416732">
		<tag k="name" v="Storlien" />
		<tag k="natural" v="slope" />
		<tag k="place" v="locality" />
		<tag k="ssr:stedsnr" v="346421" />
	</node>
	<node id="-15360" lat="66.7180833337" lon="13.4478611028">
		<tag k="name" v="Storførhågen" />
		<tag k="natural" v="ridge" />
		<tag k="place" v="locality" />
		<tag k="ssr:stedsnr" v="346417" />
	</node>
	<node id="-15348" lat="66.7962583339" lon="13.5904805545">
		<tag k="fixme" v="consider natural=peak for the most distinct mountains in the district" />
		<tag k="name" v="Okla" />
		<tag k="natural" v="hill" />
		<tag k="place" v="locality" />
		<tag k="ssr:stedsnr" v="319075" />
	</node>
	<node id="-15346" lat="66.7655333374" lon="13.4019666676">
		<tag k="fixme" v="consider natural=peak for the most distinct mountains in the district" />
		<tag k="name" v="Låsnestinden" />
		<tag k="natural" v="hill" />
		<tag k="place" v="locality" />
		<tag k="ssr:stedsnr" v="319053" />
	</node>
	<node id="-15342" lat="66.8927861111" lon="13.8283527774">
		<tag k="name" v="Storholmhågen" />
		<tag k="natural" v="ridge" />
		<tag k="place" v="locality" />
		<tag k="ssr:stedsnr" v="470464" />
	</node>
	<node id="-15341" lat="66.8786472224" lon="13.8178277719">
		<tag k="name" v="Petterhøllet" />
		<tag k="natural" v="valley" />
		<tag k="place" v="locality" />
		<tag k="ssr:stedsnr" v="470459" />
	</node>
	<node id="-15339" lat="66.7310444485" lon="13.727502769">
		<tag k="name" v="Geitrevva" />
		<tag k="natural" v="gorge" />
		<tag k="ssr:stedsnr" v="470360" />
	</node>
	<node id="-15338" lat="66.7570222187" lon="13.8809416574">
		<tag k="name" v="Partan" />
		<tag k="natural" v="ridge" />
		<tag k="place" v="locality" />
		<tag k="ssr:stedsnr" v="470078" />
	</node>
	<node id="-15337" lat="66.7431194429" lon="13.848694452">
		<tag k="alt_name" v="Kvantove" />
		<tag k="name" v="Kvantovet" />
		<tag k="natural" v="valley" />
		<tag k="place" v="locality" />
		<tag k="ssr:stedsnr" v="470067" />
	</node>
	<node id="-15336" lat="66.75666111" lon="13.832672226">
		<tag k="name" v="Kvanndiket" />
		<tag k="place" v="locality" />
		<tag k="ssr:stedsnr" v="470031" />
	</node>
	<node id="-15335" lat="66.7594194451" lon="13.8221166698">
		<tag k="name" v="Petterslåttet" />
		<tag k="natural" v="valley" />
		<tag k="place" v="locality" />
		<tag k="ssr:stedsnr" v="470029" />
	</node>
	<node id="-15332" lat="66.7420722246" lon="13.5439944536">
		<tag k="name" v="Sundhågen" />
		<tag k="natural" v="hill" />
		<tag k="place" v="locality" />
		<tag k="ssr:stedsnr" v="469937" />
	</node>
	<node id="-15329" lat="66.9375555556" lon="13.5619638992">
		<tag k="name" v="Kleivan" />
		<tag k="natural" v="slope" />
		<tag k="place" v="locality" />
		<tag k="ssr:stedsnr" v="469852" />
	</node>
	<node id="-15324" lat="66.8013555578" lon="13.560783344">
		<tag k="name" v="Forahågen" />
		<tag k="natural" v="ridge" />
		<tag k="place" v="locality" />
		<tag k="ssr:stedsnr" v="469789" />
	</node>
	<node id="-15320" lat="66.8288500021" lon="13.7709972337">
		<tag k="name" v="Heia" />
		<tag k="natural" v="hill" />
		<tag k="place" v="locality" />
		<tag k="ssr:stedsnr" v="469764" />
	</node>
	<node id="-15317" lat="66.804105552" lon="13.2293000086">
		<tag k="name" v="Vethågen" />
		<tag k="natural" v="hill" />
		<tag k="place" v="locality" />
		<tag k="ssr:stedsnr" v="469696" />
	</node>
	<node id="-15314" lat="66.7689555585" lon="13.6728666764">
		<tag k="name" v="Elvemoen" />
		<tag k="natural" v="slope" />
		<tag k="place" v="locality" />
		<tag k="ssr:stedsnr" v="469664" />
	</node>
	<node id="-15312" lat="66.70661389" lon="13.4937416624">
		<tag k="name" v="Kvanndalsrabben" />
		<tag k="natural" v="ridge" />
		<tag k="place" v="locality" />
		<tag k="ssr:stedsnr" v="469406" />
	</node>
	<node id="-15308" lat="66.7245444415" lon="13.3853083283">
		<tag k="name" v="Tømmerskaret" />
		<tag k="natural" v="valley" />
		<tag k="place" v="locality" />
		<tag k="ssr:stedsnr" v="469349" />
	</node>
	<node id="-15307" lat="66.8262972181" lon="13.448697216">
		<tag k="name" v="Vikakleiva" />
		<tag k="natural" v="slope" />
		<tag k="place" v="locality" />
		<tag k="ssr:stedsnr" v="469266" />
	</node>
	<node id="-15303" lat="66.71651667" lon="13.6082500085">
		<tag k="name" v="Klumpen" />
		<tag k="natural" v="ridge" />
		<tag k="place" v="locality" />
		<tag k="ssr:stedsnr" v="469170" />
	</node>
	<node id="-15300" lat="66.6798972231" lon="13.6029472293">
		<tag k="name" v="Rissan" />
		<tag k="place" v="locality" />
		<tag k="ssr:stedsnr" v="469546" />
	</node>
	<node id="-15298" lat="66.8078944479" lon="13.1936805563">
		<tag k="name" v="Guthella" />
		<tag k="place" v="locality" />
		<tag k="ssr:stedsnr" v="288605" />
	</node>
	<node id="-15297" lat="66.8764055528" lon="13.8131444434">
		<tag k="name" v="Reingarden" />
		<tag k="natural" v="valley" />
		<tag k="place" v="locality" />
		<tag k="ssr:stedsnr" v="288463" />
	</node>
	<node id="-15296" lat="66.8487416658" lon="13.8203611157">
		<tag k="name" v="Kvannbakkan" />
		<tag k="natural" v="slope" />
		<tag k="place" v="locality" />
		<tag k="ssr:stedsnr" v="288460" />
	</node>
	<node id="-15294" lat="66.7077333306" lon="13.7431999981">
		<tag k="name" v="Stirabben" />
		<tag k="natural" v="ridge" />
		<tag k="place" v="locality" />
		<tag k="ssr:stedsnr" v="288410" />
	</node>
	<node id="-15293" lat="66.7318555553" lon="13.7427805461">
		<tag k="name" v="Djupvikrabben" />
		<tag k="natural" v="ridge" />
		<tag k="place" v="locality" />
		<tag k="ssr:stedsnr" v="288369" />
	</node>
	<node id="-15292" lat="66.7364472232" lon="13.7038888816">
		<tag k="name" v="Bjørkmoa" />
		<tag k="natural" v="slope" />
		<tag k="place" v="locality" />
		<tag k="ssr:stedsnr" v="288358" />
	</node>
	<node id="-15291" lat="66.7338972179" lon="13.7194861073">
		<tag k="name" v="Risfjellet" />
		<tag k="natural" v="hill" />
		<tag k="place" v="locality" />
		<tag k="ssr:stedsnr" v="288353" />
	</node>
	<node id="-15284" lat="66.8081388909" lon="13.9058333378">
		<tag k="name" v="Svalskogen" />
		<tag k="natural" v="slope" />
		<tag k="place" v="locality" />
		<tag k="ssr:stedsnr" v="288004" />
	</node>
	<node id="-15279" lat="66.772922219" lon="13.3665722143">
		<tag k="name" v="Rondalen" />
		<tag k="natural" v="valley" />
		<tag k="place" v="locality" />
		<tag k="ssr:stedsnr" v="287413" />
	</node>
	<node id="-15278" lat="66.7374055518" lon="13.9551555616">
		<tag k="name" v="Røstet" />
		<tag k="place" v="locality" />
		<tag k="ssr:stedsnr" v="287175" />
	</node>
	<node id="-15277" lat="66.8517472196" lon="13.7212166719">
		<tag k="name" v="Nonskaret" />
		<tag k="natural" v="valley" />
		<tag k="place" v="locality" />
		<tag k="ssr:stedsnr" v="287212" />
	</node>
	<node id="-15276" lat="66.7617861088" lon="13.7780805545">
		<tag k="name" v="Fjellinnerrona" />
		<tag k="place" v="locality" />
		<tag k="ssr:stedsnr" v="287026" />
	</node>
	<node id="-15275" lat="66.772483338" lon="13.3446749917">
		<tag k="name" v="Kjølen" />
		<tag k="natural" v="ridge" />
		<tag k="place" v="locality" />
		<tag k="ssr:stedsnr" v="462735" />
	</node>
	<node id="-15273" lat="66.9218750009" lon="13.4560083388">
		<tag k="name" v="Trangkleiva" />
		<tag k="natural" v="slope" />
		<tag k="place" v="locality" />
		<tag k="ssr:stedsnr" v="461298" />
	</node>
	<node id="-15261" lat="66.7870250035" lon="13.8375611196">
		<tag k="name" v="Mugskoglia" />
		<tag k="natural" v="slope" />
		<tag k="place" v="locality" />
		<tag k="ssr:stedsnr" v="259303" />
	</node>
	<node id="-15259" lat="66.9241416675" lon="13.8563027821">
		<tag k="name" v="Galtskaret" />
		<tag k="natural" v="valley" />
		<tag k="place" v="locality" />
		<tag k="ssr:stedsnr" v="259165" />
	</node>
	<node id="-15255" lat="66.7152749982" lon="13.415358322">
		<tag k="name" v="Middagsskardet" />
		<tag k="natural" v="valley" />
		<tag k="place" v="locality" />
		<tag k="ssr:stedsnr" v="259213" />
	</node>
	<node id="-15251" lat="66.798213891" lon="13.5891138899">
		<tag k="name" v="Ytredalen" />
		<tag k="natural" v="valley" />
		<tag k="place" v="locality" />
		<tag k="ssr:stedsnr" v="259058" />
	</node>
	<node id="-15250" lat="66.7921555535" lon="13.5210555548">
		<tag k="fixme" v="consider natural=peak for the most distinct mountains in the district" />
		<tag k="name" v="Koppen" />
		<tag k="natural" v="hill" />
		<tag k="place" v="locality" />
		<tag k="ssr:stedsnr" v="259055" />
	</node>
	<node id="-15248" lat="66.8911444413" lon="13.7089666599">
		<tag k="fixme" v="consider natural=peak for the most distinct mountains in the district" />
		<tag k="name" v="Østentinden" />
		<tag k="natural" v="hill" />
		<tag k="place" v="locality" />
		<tag k="ssr:stedsnr" v="259115" />
	</node>
	<node id="-15245" lat="66.7110250003" lon="14.4202250039">
		<tag k="name" v="Lappflyttarskaret" />
		<tag k="natural" v="valley" />
		<tag k="place" v="locality" />
		<tag k="ssr:stedsnr" v="258427" />
	</node>
	<node id="-15241" lat="66.7695499993" lon="13.7173361093">
		<tag k="fixme" v="consider natural=peak for the most distinct mountains in the district" />
		<tag k="name" v="Hammartinden" />
		<tag k="natural" v="hill" />
		<tag k="place" v="locality" />
		<tag k="ssr:stedsnr" v="258054" />
	</node>
	<node id="-15235" lat="66.7161416651" lon="13.7470472174">
		<tag k="name" v="Trondhaugen" />
		<tag k="natural" v="hill" />
		<tag k="place" v="locality" />
		<tag k="ssr:stedsnr" v="446789" />
	</node>
	<node id="-15233" lat="66.8439972235" lon="13.4669027839">
		<tag k="name" v="Mølldalen" />
		<tag k="natural" v="valley" />
		<tag k="place" v="locality" />
		<tag k="ssr:stedsnr" v="530328" />
	</node>
	<node id="-15232" lat="66.8795805593" lon="13.8408694547">
		<tag k="name" v="Trolldalen" />
		<tag k="natural" v="valley" />
		<tag k="place" v="locality" />
		<tag k="ssr:stedsnr" v="228525" />
	</node>
	<node id="-15231" lat="66.9073611093" lon="13.8151250102">
		<tag k="name" v="Svartevasshågen" />
		<tag k="natural" v="hill" />
		<tag k="place" v="locality" />
		<tag k="ssr:stedsnr" v="228509" />
	</node>
	<node id="-15226" lat="66.8429777793" lon="13.6709249902">
		<tag k="name" v="Klumpen" />
		<tag k="natural" v="hill" />
		<tag k="place" v="locality" />
		<tag k="ssr:stedsnr" v="227708" />
	</node>
	<node id="-15225" lat="66.8051361069" lon="13.2153138924">
		<tag k="name" v="Aletrabben" />
		<tag k="natural" v="valley" />
		<tag k="place" v="locality" />
		<tag k="ssr:stedsnr" v="227628" />
	</node>
	<node id="-15224" lat="66.8143000002" lon="13.3538694529">
		<tag k="name" v="Skjettanberget" />
		<tag k="natural" v="ridge" />
		<tag k="place" v="locality" />
		<tag k="ssr:stedsnr" v="227622" />
	</node>
	<node id="-15223" lat="66.8307055537" lon="13.3584666691">
		<tag k="name" v="Hamndalan" />
		<tag k="natural" v="valley" />
		<tag k="place" v="locality" />
		<tag k="ssr:stedsnr" v="227620" />
	</node>
	<node id="-15222" lat="66.6944055583" lon="13.7011194408">
		<tag k="name" v="Lien" />
		<tag k="natural" v="slope" />
		<tag k="place" v="locality" />
		<tag k="ssr:stedsnr" v="227455" />
	</node>
	<node id="-15213" lat="66.8949333313" lon="13.6858722183">
		<tag k="fixme" v="consider natural=peak for the most distinct mountains in the district" />
		<tag k="name" v="Blåtinden" />
		<tag k="natural" v="hill" />
		<tag k="place" v="locality" />
		<tag k="ssr:stedsnr" v="441929" />
	</node>
	<node id="-15208" lat="66.9258500003" lon="13.6789694545">
		<tag k="name" v="Sollifanget" />
		<tag k="natural" v="valley" />
		<tag k="place" v="locality" />
		<tag k="ssr:stedsnr" v="441903" />
	</node>
	<node id="-16529" lat="66.7250361103" lon="13.394447213">
		<tag k="name" v="Storlia" />
		<tag k="natural" v="slope" />
		<tag k="place" v="locality" />
		<tag k="ssr:stedsnr" v="530360" />
	</node>
	<node id="-15204" lat="66.9290638865" lon="13.638786118">
		<tag k="name" v="Mølndalen" />
		<tag k="natural" v="valley" />
		<tag k="place" v="locality" />
		<tag k="ssr:stedsnr" v="441874" />
	</node>
	<node id="-15196" lat="66.733099998" lon="13.9838000016">
		<tag k="fixme" v="consider natural=peak for the most distinct mountains in the district" />
		<tag k="name" v="Botntinden" />
		<tag k="natural" v="hill" />
		<tag k="place" v="locality" />
		<tag k="ssr:stedsnr" v="441492" />
	</node>
	<node id="-15195" lat="66.7099333323" lon="13.7721166657">
		<tag k="fixme" v="multiple name tags, choose one and add the other to alt_name; consider natural=peak for the most distinct mountains in the district" />
		<tag k="name" v="Sautinden;Vardtinden" />
		<tag k="natural" v="hill" />
		<tag k="place" v="locality" />
		<tag k="ssr:stedsnr" v="441476" />
	</node>
	<node id="-15193" lat="66.679133334" lon="13.7333055476">
		<tag k="fixme" v="consider natural=peak for the most distinct mountains in the district" />
		<tag k="name" v="Mannhauet" />
		<tag k="natural" v="hill" />
		<tag k="place" v="locality" />
		<tag k="ssr:stedsnr" v="441470" />
	</node>
	<node id="-15192" lat="66.8650833326" lon="13.8484083279">
		<tag k="fixme" v="consider natural=peak for the most distinct mountains in the district" />
		<tag k="name" v="Middagstinden" />
		<tag k="natural" v="hill" />
		<tag k="place" v="locality" />
		<tag k="ssr:stedsnr" v="441362" />
	</node>
	<node id="-15191" lat="66.7869946974" lon="13.7466893013">
		<tag k="name" v="Renndalen" />
		<tag k="natural" v="valley" />
		<tag k="place" v="locality" />
		<tag k="ssr:stedsnr" v="441306" />
	</node>
	<node id="-15189" lat="66.7595638907" lon="14.002438879">
		<tag k="fixme" v="consider natural=peak for the most distinct mountains in the district" />
		<tag k="name" v="Middagstuva" />
		<tag k="natural" v="hill" />
		<tag k="place" v="locality" />
		<tag k="ssr:stedsnr" v="441282" />
	</node>
	<node id="-15188" lat="66.7304555555" lon="13.6549777678">
		<tag k="fixme" v="consider natural=peak for the most distinct mountains in the district" />
		<tag k="name" v="Holandsfjellet" />
		<tag k="natural" v="hill" />
		<tag k="place" v="locality" />
		<tag k="ssr:stedsnr" v="441231" />
	</node>
	<node id="-15185" lat="66.9145750041" lon="13.8871833394">
		<tag k="name" v="Austerlian" />
		<tag k="natural" v="slope" />
		<tag k="place" v="locality" />
		<tag k="ssr:stedsnr" v="441180" />
	</node>
	<node id="-15182" lat="66.9309888854" lon="13.854686113">
		<tag k="fixme" v="consider natural=peak for the most distinct mountains in the district" />
		<tag k="name" v="Rundtinden" />
		<tag k="natural" v="hill" />
		<tag k="place" v="locality" />
		<tag k="ssr:stedsnr" v="441151" />
	</node>
	<node id="-15181" lat="66.8759527782" lon="13.7586361104">
		<tag k="alt_name" v="Rundhaugan" />
		<tag k="loc_name" v="Raudhaugan" />
		<tag k="name" v="Rundhågan" />
		<tag k="natural" v="hill" />
		<tag k="place" v="locality" />
		<tag k="ssr:stedsnr" v="441135" />
	</node>
	<node id="-15180" lat="66.900986108" lon="13.7906305659">
		<tag k="fixme" v="consider natural=peak for the most distinct mountains in the district" />
		<tag k="name" v="Keipan" />
		<tag k="natural" v="hill" />
		<tag k="place" v="locality" />
		<tag k="ssr:stedsnr" v="441129" />
	</node>
	<node id="-15178" lat="66.7388333342" lon="13.5679138997">
		<tag k="fixme" v="consider natural=peak for the most distinct mountains in the district" />
		<tag k="name" v="Åsen" />
		<tag k="natural" v="hill" />
		<tag k="place" v="locality" />
		<tag k="ssr:stedsnr" v="441121" />
	</node>
	<node id="-15172" lat="66.7875861102" lon="13.5798361071">
		<tag k="fixme" v="consider natural=peak for the most distinct mountains in the district" />
		<tag k="name" v="Nordfjellet" />
		<tag k="natural" v="hill" />
		<tag k="place" v="locality" />
		<tag k="ssr:stedsnr" v="441079" />
	</node>
	<node id="-15171" lat="66.788125" lon="13.5503277718">
		<tag k="fixme" v="consider natural=peak for the most distinct mountains in the district" />
		<tag k="name" v="Ingeborgkammen" />
		<tag k="natural" v="hill" />
		<tag k="place" v="locality" />
		<tag k="ssr:stedsnr" v="441077" />
	</node>
	<node id="-15169" lat="66.7662750016" lon="13.4322722202">
		<tag k="alt_name" v="Trollskardet" />
		<tag k="name" v="Trollskaret" />
		<tag k="natural" v="valley" />
		<tag k="place" v="locality" />
		<tag k="ssr:stedsnr" v="441049" />
	</node>
	<node id="-15166" lat="66.7837638909" lon="13.7056666673">
		<tag k="fixme" v="consider natural=peak for the most distinct mountains in the district" />
		<tag k="name" v="Kjelddalstinden" />
		<tag k="natural" v="hill" />
		<tag k="place" v="locality" />
		<tag k="ssr:stedsnr" v="440117" />
	</node>
	<node id="-15153" lat="66.8484944471" lon="13.833066662">
		<tag k="name" v="Køvdalen" />
		<tag k="natural" v="valley" />
		<tag k="place" v="locality" />
		<tag k="ssr:stedsnr" v="198322" />
	</node>
	<node id="-15142" lat="66.7255277736" lon="13.6936555598">
		<tag k="name" v="Lemman" />
		<tag k="natural" v="slope" />
		<tag k="place" v="locality" />
		<tag k="ssr:stedsnr" v="288383" />
	</node>
	<node id="-15141" lat="66.7275861149" lon="13.6641750079">
		<tag k="name" v="Ronlia" />
		<tag k="natural" v="slope" />
		<tag k="place" v="locality" />
		<tag k="ssr:stedsnr" v="288379" />
	</node>
	<node id="-15139" lat="66.7592611127" lon="13.8420666572">
		<tag k="name" v="Storskogen" />
		<tag k="natural" v="slope" />
		<tag k="place" v="locality" />
		<tag k="ssr:stedsnr" v="288045" />
	</node>
	<node id="-15136" lat="66.8311638893" lon="13.552405561">
		<tag k="name" v="Valen" />
		<tag k="place" v="locality" />
		<tag k="ssr:stedsnr" v="287797" />
	</node>
	<node id="-15135" lat="66.8336055534" lon="13.5712250091">
		<tag k="fixme" v="consider natural=peak for the most distinct mountains in the district" />
		<tag k="name" v="Litlskjerpa" />
		<tag k="natural" v="hill" />
		<tag k="place" v="locality" />
		<tag k="ssr:stedsnr" v="287794" />
	</node>
	<node id="-15133" lat="66.7255722199" lon="13.5927944453">
		<tag k="name" v="Nøvva" />
		<tag k="natural" v="ridge" />
		<tag k="place" v="locality" />
		<tag k="ssr:stedsnr" v="287787" />
	</node>
	<node id="-15132" lat="66.7250583312" lon="13.582947212">
		<tag k="name" v="Forsbakkan" />
		<tag k="natural" v="slope" />
		<tag k="place" v="locality" />
		<tag k="ssr:stedsnr" v="287784" />
	</node>
	<node id="-15130" lat="66.8023194462" lon="13.2237972312">
		<tag k="name" v="Stuhågen" />
		<tag k="natural" v="ridge" />
		<tag k="place" v="locality" />
		<tag k="ssr:stedsnr" v="287715" />
	</node>
	<node id="-15128" lat="66.7023861133" lon="13.4792666708">
		<tag k="name" v="Stirabben" />
		<tag k="natural" v="ridge" />
		<tag k="place" v="locality" />
		<tag k="ssr:stedsnr" v="287438" />
	</node>
	<node id="-15126" lat="66.7290611115" lon="13.3869472163">
		<tag k="name" v="Petterskarhågen" />
		<tag k="natural" v="ridge" />
		<tag k="place" v="locality" />
		<tag k="ssr:stedsnr" v="287370" />
	</node>
	<node id="-15124" lat="66.7297722225" lon="13.4009888807">
		<tag k="name" v="Brennhågen" />
		<tag k="natural" v="ridge" />
		<tag k="place" v="locality" />
		<tag k="ssr:stedsnr" v="287367" />
	</node>
	<node id="-15121" lat="66.8204305512" lon="13.4101138892">
		<tag k="name" v="Snekkarhågen" />
		<tag k="natural" v="hill" />
		<tag k="place" v="locality" />
		<tag k="ssr:stedsnr" v="287280" />
	</node>
	<node id="-15119" lat="66.7159777777" lon="13.4049666559">
		<tag k="name" v="Skygglia" />
		<tag k="natural" v="slope" />
		<tag k="place" v="locality" />
		<tag k="ssr:stedsnr" v="286393" />
	</node>
	<node id="-15118" lat="66.8801138878" lon="13.8283583433">
		<tag k="fixme" v="consider natural=peak for the most distinct mountains in the district" />
		<tag k="name" v="Storlihammaren" />
		<tag k="natural" v="hill" />
		<tag k="place" v="locality" />
		<tag k="ssr:stedsnr" v="167512" />
	</node>
	<node id="-15115" lat="66.7477166681" lon="13.5876138838">
		<tag k="fixme" v="consider natural=peak for the most distinct mountains in the district" />
		<tag k="name" v="Ospåsen" />
		<tag k="natural" v="hill" />
		<tag k="place" v="locality" />
		<tag k="ssr:stedsnr" v="166902" />
	</node>
	<node id="-15114" lat="66.7880277732" lon="13.5363472314">
		<tag k="name" v="Ramnfloget" />
		<tag k="natural" v="cliff" />
		<tag k="ssr:stedsnr" v="166779" />
	</node>
	<node id="-15113" lat="66.9132722222" lon="13.7932000056">
		<tag k="name" v="Per Mikkel hammaren" />
		<tag k="natural" v="hill" />
		<tag k="place" v="locality" />
		<tag k="ssr:stedsnr" v="166773" />
	</node>
	<node id="-15111" lat="66.7956027806" lon="13.5379916723">
		<tag k="name" v="Fribakkan" />
		<tag k="natural" v="slope" />
		<tag k="place" v="locality" />
		<tag k="ssr:stedsnr" v="166766" />
	</node>
	<node id="-15110" lat="66.799841662" lon="13.5762472308">
		<tag k="name" v="Ronfloget" />
		<tag k="natural" v="cliff" />
		<tag k="ssr:stedsnr" v="166764" />
	</node>
	<node id="-15108" lat="66.8618638859" lon="13.6407000068">
		<tag k="name" v="Mesøyhågen" />
		<tag k="natural" v="hill" />
		<tag k="place" v="locality" />
		<tag k="ssr:stedsnr" v="166757" />
	</node>
	<node id="-15102" lat="66.8062388842" lon="13.2188166757">
		<tag k="name" v="Bolgbørra" />
		<tag k="natural" v="valley" />
		<tag k="place" v="locality" />
		<tag k="ssr:stedsnr" v="166664" />
	</node>
	<node id="-15101" lat="66.7096222192" lon="13.7273583258">
		<tag k="name" v="Bulikollen" />
		<tag k="natural" v="ridge" />
		<tag k="place" v="locality" />
		<tag k="ssr:stedsnr" v="166456" />
	</node>
	<node id="-15098" lat="66.831052775" lon="13.4190305447">
		<tag k="name" v="Rabban" />
		<tag k="natural" v="ridge" />
		<tag k="place" v="locality" />
		<tag k="ssr:stedsnr" v="166296" />
	</node>
	<node id="-15097" lat="66.8457527804" lon="13.6748472256">
		<tag k="name" v="Hesthågen" />
		<tag k="natural" v="hill" />
		<tag k="place" v="locality" />
		<tag k="ssr:stedsnr" v="166275" />
	</node>
	<node id="-15095" lat="66.827177777" lon="13.4277194537">
		<tag k="name" v="Steinlia" />
		<tag k="natural" v="slope" />
		<tag k="place" v="locality" />
		<tag k="ssr:stedsnr" v="166268" />
	</node>
	<node id="-15088" lat="66.7122749958" lon="13.5813555493">
		<tag k="name" v="Gløsen" />
		<tag k="natural" v="ridge" />
		<tag k="place" v="locality" />
		<tag k="ssr:stedsnr" v="166159" />
	</node>
	<node id="-15086" lat="66.7135694412" lon="13.3928722185">
		<tag k="name" v="Trollhølan" />
		<tag k="natural" v="valley" />
		<tag k="place" v="locality" />
		<tag k="ssr:stedsnr" v="164453" />
	</node>
	<node id="-15085" lat="66.7568527796" lon="13.3052361094">
		<tag k="name" v="Lågfjellet" />
		<tag k="natural" v="ridge" />
		<tag k="place" v="locality" />
		<tag k="ssr:stedsnr" v="279742" />
	</node>
	<node id="-15084" lat="66.7697055578" lon="13.3184749903">
		<tag k="name" v="Snelia" />
		<tag k="natural" v="slope" />
		<tag k="place" v="locality" />
		<tag k="ssr:stedsnr" v="158762" />
	</node>
	<node id="-15083" lat="66.757011108" lon="13.3496805465">
		<tag k="name" v="Sethågdalen" />
		<tag k="natural" v="valley" />
		<tag k="place" v="locality" />
		<tag k="ssr:stedsnr" v="158759" />
	</node>
	<node id="-15082" lat="66.8366416693" lon="13.3954361054">
		<tag k="name" v="Skaghågen" />
		<tag k="natural" v="ridge" />
		<tag k="place" v="locality" />
		<tag k="ssr:stedsnr" v="279283" />
	</node>
	<node id="-15080" lat="66.8860527776" lon="13.6951166749">
		<tag k="fixme" v="consider natural=peak for the most distinct mountains in the district" />
		<tag k="name" v="Torsvikfjellet" />
		<tag k="natural" v="hill" />
		<tag k="place" v="locality" />
		<tag k="ssr:stedsnr" v="137910" />
	</node>
	<node id="-17121" lat="66.7324145855" lon="14.4173694477">
		<tag k="fixme" v="consider natural=peak for the most distinct mountains in the district" />
		<tag k="name" v="Skjelåtinden" />
		<tag k="natural" v="hill" />
		<tag k="place" v="locality" />
		<tag k="ssr:stedsnr" v="926422" />
	</node>
	<node id="-17119" lat="66.7309378631" lon="13.3809246978">
		<tag k="name" v="Kvitaberhågen" />
		<tag k="natural" v="ridge" />
		<tag k="place" v="locality" />
		<tag k="ssr:stedsnr" v="773355" />
	</node>
	<node id="-15070" lat="66.9325861115" lon="13.5707194558">
		<tag k="alt_name" v="Ørskroven" />
		<tag k="fixme" v="consider natural=peak for the most distinct mountains in the district" />
		<tag k="name" v="Skroven" />
		<tag k="natural" v="hill" />
		<tag k="place" v="locality" />
		<tag k="ssr:stedsnr" v="137837" />
	</node>
	<node id="-15068" lat="66.77104722" lon="13.7836500071">
		<tag k="fixme" v="consider natural=peak for the most distinct mountains in the district" />
		<tag k="name" v="Hjarta" />
		<tag k="natural" v="hill" />
		<tag k="place" v="locality" />
		<tag k="ssr:stedsnr" v="137276" />
	</node>
	<node id="-15067" lat="66.7618472242" lon="13.7619583236">
		<tag k="name" v="Kvitrona" />
		<tag k="place" v="locality" />
		<tag k="ssr:stedsnr" v="137272" />
	</node>
	<node id="-15065" lat="66.7570222226" lon="13.8979888871">
		<tag k="fixme" v="multiple name tags, choose one and add the other to alt_name; consider natural=peak for the most distinct mountains in the district" />
		<tag k="name" v="Bjærangsstaven;Staven" />
		<tag k="natural" v="hill" />
		<tag k="place" v="locality" />
		<tag k="ssr:stedsnr" v="137268" />
	</node>
	<node id="-15064" lat="66.769327775" lon="14.2124944475">
		<tag k="fixme" v="consider natural=peak for the most distinct mountains in the district" />
		<tag k="name" v="Kjerringa" />
		<tag k="natural" v="hill" />
		<tag k="place" v="locality" />
		<tag k="ssr:stedsnr" v="137262" />
	</node>
	<node id="-15062" lat="66.717730557" lon="13.6676472267">
		<tag k="alt_name" v="Brasethaugen" />
		<tag k="name" v="Brasetvikhågen" />
		<tag k="natural" v="hill" />
		<tag k="place" v="locality" />
		<tag k="ssr:stedsnr" v="137206" />
	</node>
	<node id="-15055" lat="66.7765944467" lon="13.516177785">
		<tag k="name" v="Storhaugen" />
		<tag k="natural" v="hill" />
		<tag k="place" v="locality" />
		<tag k="ssr:stedsnr" v="137029" />
	</node>
	<node id="-15052" lat="66.9123472243" lon="13.8036916655">
		<tag k="fixme" v="consider natural=peak for the most distinct mountains in the district" />
		<tag k="name" v="Ramnflåget" />
		<tag k="natural" v="hill" />
		<tag k="place" v="locality" />
		<tag k="ssr:stedsnr" v="137158" />
	</node>
	<node id="-15048" lat="66.9199194425" lon="13.8699194455">
		<tag k="fixme" v="consider natural=peak for the most distinct mountains in the district" />
		<tag k="name" v="Galtskartinden" />
		<tag k="natural" v="hill" />
		<tag k="place" v="locality" />
		<tag k="ssr:stedsnr" v="137143" />
	</node>
	<node id="-15044" lat="66.8758777787" lon="13.9130222225">
		<tag k="name" v="Botn" />
		<tag k="natural" v="valley" />
		<tag k="place" v="locality" />
		<tag k="ssr:stedsnr" v="137112" />
	</node>
	<node id="-17091" lat="66.8866305576" lon="13.8497888995">
		<tag k="name" v="Lysvassrabben" />
		<tag k="natural" v="ridge" />
		<tag k="place" v="locality" />
		<tag k="ssr:stedsnr" v="956515" />
	</node>
	<node id="-17090" lat="66.9123583315" lon="13.8289305575">
		<tag k="name" v="Mosheia" />
		<tag k="natural" v="hill" />
		<tag k="place" v="locality" />
		<tag k="ssr:stedsnr" v="956504" />
	</node>
	<node id="-17089" lat="66.7173222268" lon="13.6531333269">
		<tag k="name" v="Laushågdalen" />
		<tag k="natural" v="valley" />
		<tag k="place" v="locality" />
		<tag k="ssr:stedsnr" v="956448" />
	</node>
	<node id="-17087" lat="66.9343666656" lon="13.58821389">
		<tag k="name" v="Leira" />
		<tag k="place" v="locality" />
		<tag k="ssr:stedsnr" v="955861" />
	</node>
	<node id="-17086" lat="66.802836113" lon="13.5762888798">
		<tag k="name" v="Ronan" />
		<tag k="natural" v="slope" />
		<tag k="place" v="locality" />
		<tag k="ssr:stedsnr" v="955784" />
	</node>
	<node id="-17080" lat="66.8665138915" lon="13.7441833407">
		<tag k="name" v="Hattheia" />
		<tag k="natural" v="hill" />
		<tag k="place" v="locality" />
		<tag k="ssr:stedsnr" v="955713" />
	</node>
	<node id="-17077" lat="66.8070000042" lon="13.1966611039">
		<tag k="name" v="Trollskarrevva" />
		<tag k="natural" v="valley" />
		<tag k="place" v="locality" />
		<tag k="ssr:stedsnr" v="955651" />
	</node>
	<node id="-17076" lat="66.835894449" lon="13.8024666631">
		<tag k="name" v="Ronhågen" />
		<tag k="natural" v="ridge" />
		<tag k="place" v="locality" />
		<tag k="ssr:stedsnr" v="955498" />
	</node>
	<node id="-17075" lat="66.7084138908" lon="13.7406083444">
		<tag k="name" v="Stirabbdalen" />
		<tag k="natural" v="valley" />
		<tag k="place" v="locality" />
		<tag k="ssr:stedsnr" v="955462" />
	</node>
	<node id="-17074" lat="66.7326722194" lon="13.7405972193">
		<tag k="name" v="Djupvikdalen" />
		<tag k="natural" v="valley" />
		<tag k="place" v="locality" />
		<tag k="ssr:stedsnr" v="956424" />
	</node>
	<node id="-17072" lat="66.7461361135" lon="13.7932944415">
		<tag k="name" v="Svarthågen" />
		<tag k="natural" v="hill" />
		<tag k="place" v="locality" />
		<tag k="ssr:stedsnr" v="955390" />
	</node>
	<node id="-17071" lat="66.7102194482" lon="13.4539055564">
		<tag k="name" v="Ramnflogan" />
		<tag k="natural" v="cliff" />
		<tag k="ssr:stedsnr" v="955386" />
	</node>
	<node id="-15022" lat="66.9199277767" lon="13.5591999889">
		<tag k="name" v="Botnen" />
		<tag k="natural" v="valley" />
		<tag k="place" v="locality" />
		<tag k="ssr:stedsnr" v="259900" />
	</node>
	<node id="-17069" lat="66.7436583307" lon="13.7424833383">
		<tag k="name" v="Nonshågan" />
		<tag k="natural" v="hill" />
		<tag k="place" v="locality" />
		<tag k="ssr:stedsnr" v="955377" />
	</node>
	<node id="-17068" lat="66.743833334" lon="13.757052783">
		<tag k="name" v="Litlhågen" />
		<tag k="natural" v="ridge" />
		<tag k="place" v="locality" />
		<tag k="ssr:stedsnr" v="955376" />
	</node>
	<node id="-17067" lat="66.7398444461" lon="13.6982611175">
		<tag k="name" v="Yttermerkerabben" />
		<tag k="natural" v="hill" />
		<tag k="place" v="locality" />
		<tag k="ssr:stedsnr" v="955374" />
	</node>
	<node id="-17066" lat="66.7713027819" lon="13.3736722332">
		<tag k="name" v="Bjørnhågen" />
		<tag k="natural" v="ridge" />
		<tag k="place" v="locality" />
		<tag k="ssr:stedsnr" v="955373" />
	</node>
	<node id="-17065" lat="66.7313999988" lon="13.388347219">
		<tag k="name" v="Sørskarhågen" />
		<tag k="natural" v="ridge" />
		<tag k="place" v="locality" />
		<tag k="ssr:stedsnr" v="955330" />
	</node>
	<node id="-17064" lat="66.7320361091" lon="13.3819555614">
		<tag k="name" v="Langhågen" />
		<tag k="natural" v="ridge" />
		<tag k="place" v="locality" />
		<tag k="ssr:stedsnr" v="955328" />
	</node>
	<node id="-15015" lat="66.8327500033" lon="13.8269111227">
		<tag k="fixme" v="consider natural=peak for the most distinct mountains in the district" />
		<tag k="name" v="Rismålstinden" />
		<tag k="natural" v="hill" />
		<tag k="place" v="locality" />
		<tag k="ssr:stedsnr" v="259778" />
	</node>
	<node id="-17062" lat="66.7256138856" lon="13.3987583351">
		<tag k="name" v="Ramnskaret" />
		<tag k="natural" v="valley" />
		<tag k="place" v="locality" />
		<tag k="ssr:stedsnr" v="955318" />
	</node>
	<node id="-17059" lat="66.8316194488" lon="13.3959250038">
		<tag k="name" v="Skjelstadhågen" />
		<tag k="natural" v="hill" />
		<tag k="place" v="locality" />
		<tag k="ssr:stedsnr" v="955290" />
	</node>
	<node id="-17058" lat="66.7913194428" lon="13.404300003">
		<tag k="name" v="Ørnhågen" />
		<tag k="natural" v="hill" />
		<tag k="place" v="locality" />
		<tag k="ssr:stedsnr" v="955266" />
	</node>
	<node id="-17057" lat="66.796013891" lon="13.4304361218">
		<tag k="name" v="Bruddet" />
		<tag k="natural" v="valley" />
		<tag k="place" v="locality" />
		<tag k="ssr:stedsnr" v="955265" />
	</node>
	<node id="-17056" lat="66.8428749997" lon="13.4373722267">
		<tag k="name" v="Bremnesaksla" />
		<tag k="natural" v="ridge" />
		<tag k="place" v="locality" />
		<tag k="ssr:stedsnr" v="955261" />
	</node>
	<node id="-17054" lat="66.8169750044" lon="13.3969138937">
		<tag k="name" v="Kråkvikhågen" />
		<tag k="natural" v="hill" />
		<tag k="place" v="locality" />
		<tag k="ssr:stedsnr" v="955250" />
	</node>
	<node id="-15005" lat="66.7191722245" lon="13.8761222267">
		<tag k="alt_name" v="Dimdalen" />
		<tag k="name" v="Demdalen" />
		<tag k="natural" v="valley" />
		<tag k="place" v="locality" />
		<tag k="ssr:stedsnr" v="259470" />
	</node>
	<node id="-15004" lat="66.7450555515" lon="13.8757666567">
		<tag k="alt_name" v="Bjørnskardet" />
		<tag k="name" v="Bjørnskaret" />
		<tag k="natural" v="valley" />
		<tag k="place" v="locality" />
		<tag k="ssr:stedsnr" v="259366" />
	</node>
	<node id="-17050" lat="66.7112416683" lon="13.5182638843">
		<tag k="name" v="Munnervollan" />
		<tag k="natural" v="slope" />
		<tag k="place" v="locality" />
		<tag k="ssr:stedsnr" v="955176" />
	</node>
	<node id="-17049" lat="66.7188444423" lon="13.5872083373">
		<tag k="name" v="Høystaflata" />
		<tag k="place" v="locality" />
		<tag k="ssr:stedsnr" v="955170" />
	</node>
	<node id="-15000" lat="66.8384999966" lon="14.0692833397">
		<tag k="fixme" v="consider natural=peak for the most distinct mountains in the district" />
		<tag k="loc_name:smj" v="Ruffe" />
		<tag k="name" v="Ruffen" />
		<tag k="name:no" v="Ruffen" />
		<tag k="natural" v="hill" />
		<tag k="place" v="locality" />
		<tag k="ssr:stedsnr" v="259340" />
	</node>
	<node id="-17047" lat="66.6961472252" lon="13.5423999969">
		<tag k="name" v="Storlemman" />
		<tag k="natural" v="slope" />
		<tag k="place" v="locality" />
		<tag k="ssr:stedsnr" v="955148" />
	</node>
	<node id="-17046" lat="66.7500083338" lon="13.9023138813">
		<tag k="name" v="Stordalsfjellet" />
		<tag k="natural" v="cliff" />
		<tag k="ssr:stedsnr" v="955108" />
	</node>
	<node id="-14997" lat="66.7264999977" lon="13.6128361088">
		<tag k="name" v="Skålsvikdalen" />
		<tag k="natural" v="valley" />
		<tag k="place" v="locality" />
		<tag k="ssr:stedsnr" v="259198" />
	</node>
	<node id="-14995" lat="66.8783861149" lon="13.845883341">
		<tag k="name" v="Spilderdalen" />
		<tag k="natural" v="valley" />
		<tag k="place" v="locality" />
		<tag k="ssr:stedsnr" v="259142" />
	</node>
	<node id="-14993" lat="66.7863277743" lon="13.348452783">
		<tag k="name" v="Kjørråghågen" />
		<tag k="natural" v="hill" />
		<tag k="place" v="locality" />
		<tag k="ssr:stedsnr" v="259050" />
	</node>
	<node id="-14992" lat="66.791275" lon="13.9561500098">
		<tag k="fixme" v="consider natural=peak for the most distinct mountains in the district" />
		<tag k="name" v="Storreva" />
		<tag k="natural" v="hill" />
		<tag k="place" v="locality" />
		<tag k="ssr:stedsnr" v="259300" />
	</node>
	<node id="-17036" lat="66.755572219" lon="13.3655388879">
		<tag k="name" v="Rogndalen" />
		<tag k="natural" v="valley" />
		<tag k="place" v="locality" />
		<tag k="ssr:stedsnr" v="954338" />
	</node>
	<node id="-17031" lat="66.8530111113" lon="13.7044944518">
		<tag k="alt_name" v="Våtvikhaugen" />
		<tag k="name" v="Våtvikhalsen" />
		<tag k="natural" v="ridge" />
		<tag k="place" v="locality" />
		<tag k="ssr:stedsnr" v="874352" />
	</node>
	<node id="-14982" lat="66.7947333378" lon="14.0281499905">
		<tag k="name" v="Fykanlia" />
		<tag k="natural" v="slope" />
		<tag k="place" v="locality" />
		<tag k="ssr:stedsnr" v="77348" />
	</node>
	<node id="-14980" lat="66.7904027774" lon="13.7307111079">
		<tag k="fixme" v="consider natural=peak for the most distinct mountains in the district" />
		<tag k="name" v="Renndalstinden" />
		<tag k="natural" v="hill" />
		<tag k="place" v="locality" />
		<tag k="ssr:stedsnr" v="77328" />
	</node>
	<node id="-14979" lat="66.7786999992" lon="14.1054722202">
		<tag k="fixme" v="consider natural=peak for the most distinct mountains in the district" />
		<tag k="name" v="Synkhøgda" />
		<tag k="natural" v="hill" />
		<tag k="place" v="locality" />
		<tag k="ssr:stedsnr" v="77318" />
	</node>
	<node id="-14978" lat="66.7824722259" lon="14.0340944556">
		<tag k="name" v="Botn" />
		<tag k="natural" v="valley" />
		<tag k="place" v="locality" />
		<tag k="ssr:stedsnr" v="77316" />
	</node>
	<node id="-14975" lat="66.719266664" lon="13.6663138932">
		<tag k="name" v="Skarsbakken" />
		<tag k="natural" v="slope" />
		<tag k="place" v="locality" />
		<tag k="ssr:stedsnr" v="46414" />
	</node>
	<node id="-14974" lat="66.8678222221" lon="13.7364805629">
		<tag k="name" v="Brennberget" />
		<tag k="natural" v="slope" />
		<tag k="place" v="locality" />
		<tag k="ssr:stedsnr" v="45707" />
	</node>
	<node id="-14973" lat="66.8671305591" lon="13.7939944533">
		<tag k="name" v="Hanslappdalen" />
		<tag k="natural" v="valley" />
		<tag k="place" v="locality" />
		<tag k="ssr:stedsnr" v="45701" />
	</node>
	<node id="-14972" lat="66.9189638932" lon="13.4469083372">
		<tag k="name" v="Langedalen" />
		<tag k="natural" v="valley" />
		<tag k="place" v="locality" />
		<tag k="ssr:stedsnr" v="37274" />
	</node>
	<node id="-14971" lat="66.8779000018" lon="13.8233777806">
		<tag k="name" v="Storlia" />
		<tag k="natural" v="slope" />
		<tag k="place" v="locality" />
		<tag k="ssr:stedsnr" v="228529" />
	</node>
	<node id="-14969" lat="66.7188972259" lon="13.6574444484">
		<tag k="name" v="Bjørndalsrabben" />
		<tag k="natural" v="hill" />
		<tag k="place" v="locality" />
		<tag k="ssr:stedsnr" v="228450" />
	</node>
	<node id="-14968" lat="66.7194722259" lon="13.657569454">
		<tag k="name" v="Bjørndalen" />
		<tag k="natural" v="valley" />
		<tag k="place" v="locality" />
		<tag k="ssr:stedsnr" v="228430" />
	</node>
	<node id="-14967" lat="66.8350499998" lon="13.6896333398">
		<tag k="name" v="Ramnfloget" />
		<tag k="natural" v="cliff" />
		<tag k="ssr:stedsnr" v="227700" />
	</node>
	<node id="-14965" lat="66.7237611084" lon="13.5772166561">
		<tag k="name" v="Skålsvikheia" />
		<tag k="natural" v="hill" />
		<tag k="place" v="locality" />
		<tag k="ssr:stedsnr" v="227673" />
	</node>
	<node id="-14964" lat="66.8406111074" lon="13.8122361118">
		<tag k="name" v="Vasslia" />
		<tag k="natural" v="slope" />
		<tag k="place" v="locality" />
		<tag k="ssr:stedsnr" v="227498" />
	</node>
	<node id="-14962" lat="66.8273888875" lon="13.4905027678">
		<tag k="name" v="Slettbakkhågen" />
		<tag k="natural" v="ridge" />
		<tag k="place" v="locality" />
		<tag k="ssr:stedsnr" v="227277" />
	</node>
	<node id="-14961" lat="66.8291861077" lon="13.4215888962">
		<tag k="name" v="Molia" />
		<tag k="natural" v="slope" />
		<tag k="place" v="locality" />
		<tag k="ssr:stedsnr" v="227264" />
	</node>
	<node id="-14959" lat="66.7150444456" lon="13.5974611083">
		<tag k="name" v="Risdalen" />
		<tag k="natural" v="valley" />
		<tag k="place" v="locality" />
		<tag k="ssr:stedsnr" v="227152" />
	</node>
	<node id="-14958" lat="66.6989416693" lon="13.5208777791">
		<tag k="name" v="Grønland" />
		<tag k="natural" v="slope" />
		<tag k="place" v="locality" />
		<tag k="ssr:stedsnr" v="227146" />
	</node>
	<node id="-14957" lat="66.7627000015" lon="13.8456944339">
		<tag k="name" v="Storskogdalen" />
		<tag k="natural" v="valley" />
		<tag k="place" v="locality" />
		<tag k="ssr:stedsnr" v="227057" />
	</node>
	<node id="-14954" lat="66.8163027805" lon="13.799841675">
		<tag k="name" v="Reinsletta" />
		<tag k="place" v="locality" />
		<tag k="ssr:stedsnr" v="227031" />
	</node>
	<node id="-14953" lat="66.8266499984" lon="13.8559944517">
		<tag k="name" v="Sydhøgsetbakken" />
		<tag k="natural" v="ridge" />
		<tag k="place" v="locality" />
		<tag k="ssr:stedsnr" v="227027" />
	</node>
	<node id="-14952" lat="66.8243472257" lon="13.820972226">
		<tag k="name" v="Bjønnlia" />
		<tag k="natural" v="slope" />
		<tag k="place" v="locality" />
		<tag k="ssr:stedsnr" v="227025" />
	</node>
	<node id="-14950" lat="66.8827999987" lon="13.5794777858">
		<tag k="name" v="Sarvhammaren" />
		<tag k="natural" v="cliff" />
		<tag k="ssr:stedsnr" v="226902" />
	</node>
	<node id="-14947" lat="66.8390972191" lon="13.5657222202">
		<tag k="name" v="Ørntuva" />
		<tag k="natural" v="hill" />
		<tag k="place" v="locality" />
		<tag k="ssr:stedsnr" v="226818" />
	</node>
	<node id="-16988" lat="66.9024805545" lon="13.6747388858">
		<tag k="name" v="Småbakkan" />
		<tag k="natural" v="slope" />
		<tag k="place" v="locality" />
		<tag k="ssr:stedsnr" v="865935" />
	</node>
	<node id="-14938" lat="66.719741666" lon="13.440511112">
		<tag k="name" v="Blomlia" />
		<tag k="natural" v="slope" />
		<tag k="place" v="locality" />
		<tag k="ssr:stedsnr" v="225416" />
	</node>
	<node id="-14936" lat="66.9331333357" lon="13.5178694539">
		<tag k="alt_name" v="Kopparhaugen" />
		<tag k="name" v="Kopparhågan" />
		<tag k="natural" v="hill" />
		<tag k="place" v="locality" />
		<tag k="ssr:stedsnr" v="16850" />
	</node>
	<node id="-14928" lat="66.7774305557" lon="14.3206388912">
		<tag k="name" v="Skavldalen" />
		<tag k="natural" v="valley" />
		<tag k="place" v="locality" />
		<tag k="ssr:stedsnr" v="16352" />
	</node>
	<node id="-14926" lat="66.839202776" lon="13.8551583358">
		<tag k="fixme" v="consider natural=peak for the most distinct mountains in the district" />
		<tag k="name" v="Storskardtinden" />
		<tag k="natural" v="hill" />
		<tag k="place" v="locality" />
		<tag k="ssr:stedsnr" v="16305" />
	</node>
	<node id="-16971" lat="66.7662833372" lon="13.4205361178">
		<tag k="fixme" v="consider natural=peak for the most distinct mountains in the district" />
		<tag k="name" v="Salfjellet" />
		<tag k="natural" v="hill" />
		<tag k="place" v="locality" />
		<tag k="ssr:stedsnr" v="865077" />
	</node>
	<node id="-14922" lat="66.9035000029" lon="13.9577027787">
		<tag k="fixme" v="consider natural=peak for the most distinct mountains in the district" />
		<tag k="name" v="Kvittinden" />
		<tag k="natural" v="hill" />
		<tag k="place" v="locality" />
		<tag k="ssr:stedsnr" v="16114" />
	</node>
	<node id="-14920" lat="66.7919500041" lon="13.5639666738">
		<tag k="fixme" v="consider natural=peak for the most distinct mountains in the district" />
		<tag k="name" v="Stordalstinden" />
		<tag k="natural" v="hill" />
		<tag k="place" v="locality" />
		<tag k="ssr:stedsnr" v="16054" />
	</node>
	<node id="-14919" lat="66.7984472205" lon="13.6013277755">
		<tag k="name" v="Mellomdalen" />
		<tag k="natural" v="valley" />
		<tag k="place" v="locality" />
		<tag k="ssr:stedsnr" v="16044" />
	</node>
	<node id="-14917" lat="66.7713250028" lon="13.6862027839">
		<tag k="name" v="Følllia" />
		<tag k="natural" v="slope" />
		<tag k="place" v="locality" />
		<tag k="ssr:stedsnr" v="16034" />
	</node>
	<node id="-14915" lat="66.781580556" lon="13.6505222327">
		<tag k="fixme" v="consider natural=peak for the most distinct mountains in the district" />
		<tag k="name" v="Klemettinden" />
		<tag k="natural" v="hill" />
		<tag k="place" v="locality" />
		<tag k="ssr:stedsnr" v="16026" />
	</node>
	<node id="-16961" lat="66.8828583335" lon="13.8414805645">
		<tag k="fixme" v="consider natural=peak for the most distinct mountains in the district" />
		<tag k="name" v="Spilderdalsfjellet" />
		<tag k="natural" v="hill" />
		<tag k="place" v="locality" />
		<tag k="ssr:stedsnr" v="866132" />
	</node>
	<node id="-16960" lat="66.8805333296" lon="13.8715166551">
		<tag k="fixme" v="consider natural=peak for the most distinct mountains in the district" />
		<tag k="name" v="Stigen" />
		<tag k="natural" v="hill" />
		<tag k="place" v="locality" />
		<tag k="ssr:stedsnr" v="866126" />
	</node>
	<node id="-16959" lat="66.9019361093" lon="13.8222555549">
		<tag k="fixme" v="consider natural=peak for the most distinct mountains in the district" />
		<tag k="name" v="Keipen" />
		<tag k="natural" v="hill" />
		<tag k="place" v="locality" />
		<tag k="ssr:stedsnr" v="835500" />
	</node>
	<node id="-16958" lat="66.9205444471" lon="13.5406361076">
		<tag k="name" v="Korsnes" />
		<tag k="natural" v="slope" />
		<tag k="place" v="locality" />
		<tag k="ssr:stedsnr" v="834851" />
	</node>
	<node id="-14909" lat="66.731269441" lon="13.707277779">
		<tag k="name" v="Tverråglia" />
		<tag k="natural" v="slope" />
		<tag k="place" v="locality" />
		<tag k="ssr:stedsnr" v="227380" />
	</node>
	<node id="-14907" lat="66.712225001" lon="13.4722777682">
		<tag k="name" v="Rundhågen" />
		<tag k="natural" v="hill" />
		<tag k="place" v="locality" />
		<tag k="ssr:stedsnr" v="220433" />
	</node>
	<node id="-16954" lat="66.8008277776" lon="13.5518611118">
		<tag k="name" v="Ørnfloget" />
		<tag k="natural" v="cliff" />
		<tag k="ssr:stedsnr" v="834780" />
	</node>
	<node id="-14905" lat="66.7598805534" lon="13.3393666683">
		<tag k="fixme" v="consider natural=peak for the most distinct mountains in the district" />
		<tag k="name" v="Hustinden" />
		<tag k="natural" v="hill" />
		<tag k="ssr:stedsnr" v="219765" />
	</node>
	<node id="-14903" lat="66.7527888897" lon="13.3362249932">
		<tag k="name" v="Storhågen" />
		<tag k="natural" v="ridge" />
		<tag k="place" v="locality" />
		<tag k="ssr:stedsnr" v="219749" />
	</node>
	<node id="-16949" lat="66.738288886" lon="13.5889472284">
		<tag k="name" v="Grasåsen" />
		<tag k="natural" v="hill" />
		<tag k="place" v="locality" />
		<tag k="ssr:stedsnr" v="834697" />
	</node>
	<node id="-16948" lat="66.8590416644" lon="13.7667249912">
		<tag k="name" v="Dyrrabben" />
		<tag k="natural" v="ridge" />
		<tag k="place" v="locality" />
		<tag k="ssr:stedsnr" v="834693" />
	</node>
	<node id="-16947" lat="66.8073499972" lon="13.2227499931">
		<tag k="name" v="Aksla" />
		<tag k="natural" v="hill" />
		<tag k="place" v="locality" />
		<tag k="ssr:stedsnr" v="834684" />
	</node>
	<node id="-16946" lat="66.8731611073" lon="13.8101694328">
		<tag k="name" v="Setervollen" />
		<tag k="place" v="locality" />
		<tag k="ssr:stedsnr" v="834492" />
	</node>
	<node id="-16943" lat="66.8419027794" lon="13.4537638965">
		<tag k="name" v="Løyfta" />
		<tag k="natural" v="slope" />
		<tag k="place" v="locality" />
		<tag k="ssr:stedsnr" v="834289" />
	</node>
	<node id="-16942" lat="66.7264027745" lon="13.6734472179">
		<tag k="name" v="Munnervollan" />
		<tag k="natural" v="slope" />
		<tag k="place" v="locality" />
		<tag k="ssr:stedsnr" v="834396" />
	</node>
	<node id="-16939" lat="66.8251055563" lon="13.7756694428">
		<tag k="name" v="Bratten" />
		<tag k="natural" v="slope" />
		<tag k="place" v="locality" />
		<tag k="ssr:stedsnr" v="833752" />
	</node>
	<node id="-16938" lat="66.8151583373" lon="13.801202772">
		<tag k="name" v="Hellaren" />
		<tag k="place" v="locality" />
		<tag k="ssr:stedsnr" v="834033" />
	</node>
	<node id="-16937" lat="66.8248000047" lon="13.8546499932">
		<tag k="name" v="Gjerdbakken" />
		<tag k="natural" v="slope" />
		<tag k="place" v="locality" />
		<tag k="ssr:stedsnr" v="834027" />
	</node>
	<node id="-16934" lat="66.7540500021" lon="13.7148083317">
		<tag k="name" v="Kjerringberget" />
		<tag k="natural" v="slope" />
		<tag k="place" v="locality" />
		<tag k="ssr:stedsnr" v="833650" />
	</node>
	<node id="-16933" lat="66.8914999963" lon="13.770369455">
		<tag k="name" v="Stordalen" />
		<tag k="natural" v="valley" />
		<tag k="place" v="locality" />
		<tag k="ssr:stedsnr" v="833634" />
	</node>
	<node id="-16929" lat="66.7593944431" lon="13.3165500062">
		<tag k="name" v="Kvatårabben" />
		<tag k="natural" v="ridge" />
		<tag k="place" v="locality" />
		<tag k="ssr:stedsnr" v="825736" />
	</node>
	<node id="-16928" lat="66.735227781" lon="13.8935333344">
		<tag k="name" v="Innerrondalen" />
		<tag k="natural" v="valley" />
		<tag k="place" v="locality" />
		<tag k="ssr:stedsnr" v="810814" />
	</node>
	<node id="-16916" lat="66.9200722177" lon="13.6799916717">
		<tag k="fixme" v="consider natural=peak for the most distinct mountains in the district" />
		<tag k="name" v="Sollitinden" />
		<tag k="natural" v="hill" />
		<tag k="place" v="locality" />
		<tag k="ssr:stedsnr" v="805887" />
	</node>
	<node id="-16903" lat="66.8020555593" lon="13.7127805574">
		<tag k="name" v="Stordalen" />
		<tag k="natural" v="valley" />
		<tag k="place" v="locality" />
		<tag k="ssr:stedsnr" v="805767" />
	</node>
	<node id="-16899" lat="66.710149999" lon="13.7556194436">
		<tag k="fixme" v="consider natural=peak for the most distinct mountains in the district" />
		<tag k="name" v="Stirabbfjellet" />
		<tag k="natural" v="hill" />
		<tag k="place" v="locality" />
		<tag k="ssr:stedsnr" v="805494" />
	</node>
	<node id="-16898" lat="66.7051944452" lon="13.8180833222">
		<tag k="fixme" v="consider natural=peak for the most distinct mountains in the district" />
		<tag k="name" v="Helgelandsbukken" />
		<tag k="natural" v="hill" />
		<tag k="place" v="locality" />
		<tag k="ssr:stedsnr" v="805491" />
	</node>
	<node id="-16897" lat="66.7191999974" lon="14.2813500007">
		<tag k="fixme" v="consider natural=peak for the most distinct mountains in the district" />
		<tag k="loc_name:smj" v="Oarjjel Siekkistjåhkkå" />
		<tag k="name" v="Glomvassfjellet" />
		<tag k="name:no" v="Glomvassfjellet" />
		<tag k="natural" v="hill" />
		<tag k="place" v="locality" />
		<tag k="ssr:stedsnr" v="805458" />
	</node>
	<node id="-16893" lat="66.8513333327" lon="13.8420027818">
		<tag k="name" v="Botn" />
		<tag k="natural" v="valley" />
		<tag k="place" v="locality" />
		<tag k="ssr:stedsnr" v="805349" />
	</node>
	<node id="-16892" lat="66.8283972208" lon="13.8048611121">
		<tag k="alt_name" v="Bjørndalen" />
		<tag k="name" v="Bjønndalen" />
		<tag k="natural" v="valley" />
		<tag k="place" v="locality" />
		<tag k="ssr:stedsnr" v="805344" />
	</node>
	<node id="-16891" lat="66.860177781" lon="13.8044361093">
		<tag k="name" v="Storskardet" />
		<tag k="natural" v="valley" />
		<tag k="place" v="locality" />
		<tag k="ssr:stedsnr" v="805361" />
	</node>
	<node id="-16889" lat="66.8546777818" lon="13.7716361006">
		<tag k="fixme" v="consider natural=peak for the most distinct mountains in the district" />
		<tag k="name" v="Spilderhesten" />
		<tag k="natural" v="hill" />
		<tag k="place" v="locality" />
		<tag k="ssr:stedsnr" v="805358" />
	</node>
	<node id="-16888" lat="66.9191638915" lon="13.7481472198">
		<tag k="name" v="Kjelddalsbotnen" />
		<tag k="natural" v="valley" />
		<tag k="place" v="locality" />
		<tag k="ssr:stedsnr" v="805145" />
	</node>
	<node id="-16886" lat="66.8984777766" lon="13.7668972221">
		<tag k="alt_name" v="Mosvollskardet" />
		<tag k="name" v="Mosvollskaret" />
		<tag k="natural" v="valley" />
		<tag k="place" v="locality" />
		<tag k="ssr:stedsnr" v="805114" />
	</node>
	<node id="-16885" lat="66.7375555551" lon="13.6286000067">
		<tag k="name" v="Bjørndalen" />
		<tag k="natural" v="valley" />
		<tag k="place" v="locality" />
		<tag k="ssr:stedsnr" v="805113" />
	</node>
	<node id="-16879" lat="66.8156694413" lon="13.8033749977">
		<tag k="name" v="Heia" />
		<tag k="natural" v="hill" />
		<tag k="place" v="locality" />
		<tag k="ssr:stedsnr" v="805338" />
	</node>
	<node id="-16878" lat="66.82161944" lon="13.886752784">
		<tag k="alt_name" v="Holten, yt;Holten" />
		<tag k="fixme" v="consider natural=peak for the most distinct mountains in the district" />
		<tag k="name" v="Ytre Holten" />
		<tag k="natural" v="hill" />
		<tag k="place" v="locality" />
		<tag k="ssr:stedsnr" v="805330" />
	</node>
	<node id="-16877" lat="66.8114916656" lon="13.9147777832">
		<tag k="alt_name" v="Setvikhaugen" />
		<tag k="name" v="Setvikhågen" />
		<tag k="natural" v="hill" />
		<tag k="place" v="locality" />
		<tag k="ssr:stedsnr" v="805318" />
	</node>
	<node id="-16876" lat="66.8131222223" lon="13.9506805521">
		<tag k="alt_name" v="Norhaugen" />
		<tag k="name" v="Nordhågen" />
		<tag k="natural" v="hill" />
		<tag k="place" v="locality" />
		<tag k="ssr:stedsnr" v="805314" />
	</node>
	<node id="-16874" lat="66.7759083325" lon="13.730080552">
		<tag k="fixme" v="consider natural=peak for the most distinct mountains in the district" />
		<tag k="name" v="Ronsfjellet" />
		<tag k="natural" v="hill" />
		<tag k="place" v="locality" />
		<tag k="ssr:stedsnr" v="805288" />
	</node>
	<node id="-16868" lat="66.7298027768" lon="13.7458638933">
		<tag k="name" v="Stellan" />
		<tag k="natural" v="cliff" />
		<tag k="ssr:stedsnr" v="774442" />
	</node>
	<node id="-16863" lat="66.8034944441" lon="13.1989388825">
		<tag k="name" v="Lauve" />
		<tag k="natural" v="slope" />
		<tag k="place" v="locality" />
		<tag k="ssr:stedsnr" v="773620" />
	</node>
	<node id="-16862" lat="66.8025416669" lon="13.1869111201">
		<tag k="name" v="Kleppfiskbergan" />
		<tag k="natural" v="cliff" />
		<tag k="ssr:stedsnr" v="773618" />
	</node>
	<node id="-16861" lat="66.8194138908" lon="13.3479361182">
		<tag k="name" v="Ramnfloget" />
		<tag k="natural" v="cliff" />
		<tag k="ssr:stedsnr" v="773617" />
	</node>
	<node id="-16860" lat="66.8219138858" lon="13.3607166666">
		<tag k="name" v="Varhågen" />
		<tag k="natural" v="hill" />
		<tag k="place" v="locality" />
		<tag k="ssr:stedsnr" v="773609" />
	</node>
	<node id="-16859" lat="66.7179361153" lon="13.7330333279">
		<tag k="name" v="Fornesdalen" />
		<tag k="natural" v="valley" />
		<tag k="place" v="locality" />
		<tag k="ssr:stedsnr" v="773449" />
	</node>
	<node id="-16857" lat="66.8099222225" lon="13.2000472323">
		<tag k="name" v="Bromlia" />
		<tag k="natural" v="slope" />
		<tag k="place" v="locality" />
		<tag k="ssr:stedsnr" v="773582" />
	</node>
	<node id="-16856" lat="66.7049750031" lon="13.5163972244">
		<tag k="name" v="Rondalane" />
		<tag k="natural" v="valley" />
		<tag k="place" v="locality" />
		<tag k="ssr:stedsnr" v="773185" />
	</node>
	<node id="-16854" lat="66.7136833369" lon="13.5922305609">
		<tag k="fixme" v="consider natural=peak for the most distinct mountains in the district" />
		<tag k="name" v="Torvhågen" />
		<tag k="natural" v="hill" />
		<tag k="place" v="locality" />
		<tag k="ssr:stedsnr" v="773161" />
	</node>
	<node id="-16853" lat="66.7630222238" lon="13.8682888933">
		<tag k="name" v="Finnjorddalen" />
		<tag k="natural" v="valley" />
		<tag k="place" v="locality" />
		<tag k="ssr:stedsnr" v="773045" />
	</node>
	<node id="-16849" lat="66.7535333301" lon="13.6629611048">
		<tag k="name" v="Baklia" />
		<tag k="natural" v="slope" />
		<tag k="place" v="locality" />
		<tag k="ssr:stedsnr" v="772634" />
	</node>
	<node id="-16848" lat="66.8408750034" lon="13.568161117">
		<tag k="name" v="Stokken" />
		<tag k="place" v="locality" />
		<tag k="ssr:stedsnr" v="772789" />
	</node>
	<node id="-16847" lat="66.7625083319" lon="13.3704166748">
		<tag k="name" v="Grønnlia" />
		<tag k="natural" v="slope" />
		<tag k="place" v="locality" />
		<tag k="ssr:stedsnr" v="772379" />
	</node>
	<node id="-16846" lat="66.7583805528" lon="13.3633083318">
		<tag k="name" v="Krullbakkan" />
		<tag k="natural" v="slope" />
		<tag k="place" v="locality" />
		<tag k="ssr:stedsnr" v="772346" />
	</node>
	<node id="-16843" lat="66.7135750041" lon="13.4041111048">
		<tag k="fixme" v="consider natural=peak for the most distinct mountains in the district" />
		<tag k="name" v="Skygglihumpen" />
		<tag k="natural" v="hill" />
		<tag k="place" v="locality" />
		<tag k="ssr:stedsnr" v="771414" />
	</node>
	<node id="-16841" lat="66.7148583342" lon="13.4849277746">
		<tag k="name" v="Bjørnskarhågen" />
		<tag k="natural" v="hill" />
		<tag k="place" v="locality" />
		<tag k="ssr:stedsnr" v="766386" />
	</node>
	<node id="-16839" lat="66.7506166631" lon="13.3380749921">
		<tag k="name" v="Ytterlanghågen" />
		<tag k="natural" v="hill" />
		<tag k="place" v="locality" />
		<tag k="ssr:stedsnr" v="765726" />
	</node>
	<node id="-16837" lat="66.7604472249" lon="13.3481111128">
		<tag k="fixme" v="consider natural=peak for the most distinct mountains in the district" />
		<tag k="name" v="Brynjålstinden" />
		<tag k="natural" v="hill" />
		<tag k="ssr:stedsnr" v="764754" />
	</node>
	<node id="-16826" lat="66.8798138864" lon="13.6233499991">
		<tag k="name" v="Langhaugen" />
		<tag k="natural" v="hill" />
		<tag k="place" v="locality" />
		<tag k="ssr:stedsnr" v="744900" />
	</node>
	<node id="-16823" lat="66.9199972235" lon="13.6777305608">
		<tag k="fixme" v="consider natural=peak for the most distinct mountains in the district" />
		<tag k="name" v="Sollinakken" />
		<tag k="natural" v="hill" />
		<tag k="place" v="locality" />
		<tag k="ssr:stedsnr" v="744883" />
	</node>
	<node id="-16822" lat="66.9149027771" lon="13.5500194402">
		<tag k="fixme" v="consider natural=peak for the most distinct mountains in the district" />
		<tag k="name" v="Horntinden" />
		<tag k="natural" v="hill" />
		<tag k="place" v="locality" />
		<tag k="ssr:stedsnr" v="744881" />
	</node>
	<node id="-16819" lat="66.9285222186" lon="13.6511305466">
		<tag k="name" v="Bjørndalen" />
		<tag k="natural" v="valley" />
		<tag k="place" v="locality" />
		<tag k="ssr:stedsnr" v="744839" />
	</node>
	<node id="-16970" lat="66.7699194422" lon="13.5590777799">
		<tag k="alt_name" v="Aspåsen" />
		<tag k="fixme" v="consider natural=peak for the most distinct mountains in the district" />
		<tag k="name" v="Ospåsen" />
		<tag k="natural" v="hill" />
		<tag k="place" v="locality" />
		<tag k="ssr:stedsnr" v="865067" />
	</node>
	<node id="-16805" lat="66.7446138929" lon="13.8674277747">
		<tag k="alt_name" v="Bjørnskardtinden" />
		<tag k="fixme" v="consider natural=peak for the most distinct mountains in the district" />
		<tag k="name" v="Bjørnskartind" />
		<tag k="natural" v="hill" />
		<tag k="place" v="locality" />
		<tag k="ssr:stedsnr" v="744335" />
	</node>
	<node id="-16804" lat="66.8337361073" lon="13.910319448">
		<tag k="fixme" v="consider natural=peak for the most distinct mountains in the district" />
		<tag k="name" v="Tverrfjellet" />
		<tag k="natural" v="hill" />
		<tag k="place" v="locality" />
		<tag k="ssr:stedsnr" v="744298" />
	</node>
	<node id="-16801" lat="66.6863166671" lon="13.8153277765">
		<tag k="fixme" v="consider natural=peak for the most distinct mountains in the district" />
		<tag k="name" v="Møsbrømtuva" />
		<tag k="natural" v="hill" />
		<tag k="ssr:stedsnr" v="744437" />
	</node>
	<node id="-16800" lat="66.7710000032" lon="13.766486112">
		<tag k="fixme" v="consider natural=peak for the most distinct mountains in the district" />
		<tag k="name" v="Stortinden" />
		<tag k="natural" v="hill" />
		<tag k="place" v="locality" />
		<tag k="ssr:stedsnr" v="744252" />
	</node>
	<node id="-16799" lat="66.7694694412" lon="13.752230548">
		<tag k="name" v="Stortindskardet" />
		<tag k="natural" v="valley" />
		<tag k="place" v="locality" />
		<tag k="ssr:stedsnr" v="744249" />
	</node>
	<node id="-16797" lat="66.7448861095" lon="13.7746611099">
		<tag k="alt_name" v="Middagshaugen" />
		<tag k="name" v="Middagshågen" />
		<tag k="natural" v="hill" />
		<tag k="place" v="locality" />
		<tag k="ssr:stedsnr" v="744243" />
	</node>
	<node id="-16795" lat="66.6917749983" lon="13.7151388827">
		<tag k="fixme" v="consider natural=peak for the most distinct mountains in the district" />
		<tag k="name" v="Ristuva" />
		<tag k="natural" v="hill" />
		<tag k="place" v="locality" />
		<tag k="ssr:stedsnr" v="744164" />
	</node>
	<node id="-16794" lat="66.8182888921" lon="13.8506055648">
		<tag k="alt_name" v="Holten, in" />
		<tag k="fixme" v="consider natural=peak for the most distinct mountains in the district" />
		<tag k="name" v="Indre Holten" />
		<tag k="natural" v="hill" />
		<tag k="place" v="locality" />
		<tag k="ssr:stedsnr" v="744284" />
	</node>
	<node id="-16793" lat="66.9157500003" lon="13.8038583313">
		<tag k="name" v="Ruan" />
		<tag k="natural" v="valley" />
		<tag k="place" v="locality" />
		<tag k="ssr:stedsnr" v="744143" />
	</node>
	<node id="-16791" lat="66.7371666651" lon="13.7080527702">
		<tag k="name" v="Oljedalen" />
		<tag k="natural" v="valley" />
		<tag k="place" v="locality" />
		<tag k="ssr:stedsnr" v="744100" />
	</node>
	<node id="-16788" lat="66.7600583371" lon="13.3273805458">
		<tag k="fixme" v="consider natural=peak for the most distinct mountains in the district" />
		<tag k="name" v="Kvalkjeften" />
		<tag k="natural" v="hill" />
		<tag k="place" v="locality" />
		<tag k="ssr:stedsnr" v="744038" />
	</node>
	<node id="-16785" lat="66.7767611098" lon="13.6787888942">
		<tag k="name" v="Rabblia" />
		<tag k="natural" v="slope" />
		<tag k="place" v="locality" />
		<tag k="ssr:stedsnr" v="744023" />
	</node>
	<node id="-16780" lat="66.7180833331" lon="13.6561722278">
		<tag k="name" v="Almdalen" />
		<tag k="natural" v="valley" />
		<tag k="place" v="locality" />
		<tag k="ssr:stedsnr" v="652388" />
	</node>
	<node id="-16778" lat="66.8551694475" lon="13.701983333">
		<tag k="name" v="Vollvikrabben" />
		<tag k="natural" v="hill" />
		<tag k="place" v="locality" />
		<tag k="ssr:stedsnr" v="651840" />
	</node>
	<node id="-16777" lat="66.7565333306" lon="13.5753722157">
		<tag k="fixme" v="consider natural=peak for the most distinct mountains in the district" />
		<tag k="name" v="Halsoshågen" />
		<tag k="natural" v="hill" />
		<tag k="place" v="locality" />
		<tag k="ssr:stedsnr" v="651813" />
	</node>
	<node id="-16775" lat="66.7980166663" lon="13.5127611121">
		<tag k="name" v="Veltarfloget" />
		<tag k="natural" v="cliff" />
		<tag k="ssr:stedsnr" v="651789" />
	</node>
	<node id="-16774" lat="66.7998222236" lon="13.5155333351">
		<tag k="name" v="Tjyvholan" />
		<tag k="natural" v="valley" />
		<tag k="place" v="locality" />
		<tag k="ssr:stedsnr" v="651787" />
	</node>
	<node id="-16773" lat="66.9142083297" lon="13.7715666735">
		<tag k="name" v="Grønli" />
		<tag k="natural" v="slope" />
		<tag k="place" v="locality" />
		<tag k="ssr:stedsnr" v="651782" />
	</node>
	<node id="-16772" lat="66.799233337" lon="13.5245083364">
		<tag k="fixme" v="consider natural=peak for the most distinct mountains in the district" />
		<tag k="name" v="Forahågen" />
		<tag k="natural" v="hill" />
		<tag k="place" v="locality" />
		<tag k="ssr:stedsnr" v="651781" />
	</node>
	<node id="-16769" lat="66.8346611085" lon="13.5602166687">
		<tag k="name" v="Pålshågen" />
		<tag k="natural" v="hill" />
		<tag k="place" v="locality" />
		<tag k="ssr:stedsnr" v="651771" />
	</node>
	<node id="-16768" lat="66.8632027756" lon="13.7476694464">
		<tag k="name" v="Spildermoa" />
		<tag k="place" v="locality" />
		<tag k="ssr:stedsnr" v="651761" />
	</node>
	<node id="-16767" lat="66.7306749965" lon="13.6502388772">
		<tag k="fixme" v="consider natural=peak for the most distinct mountains in the district" />
		<tag k="name" v="Nattmålshøgda" />
		<tag k="natural" v="hill" />
		<tag k="place" v="locality" />
		<tag k="ssr:stedsnr" v="651754" />
	</node>
	<node id="-16764" lat="66.7451416687" lon="13.7304222142">
		<tag k="name" v="Nupan" />
		<tag k="natural" v="hill" />
		<tag k="place" v="locality" />
		<tag k="ssr:stedsnr" v="651398" />
	</node>
	<node id="-16762" lat="66.776905553" lon="13.3825888826">
		<tag k="name" v="Moan" />
		<tag k="place" v="locality" />
		<tag k="ssr:stedsnr" v="651384" />
	</node>
	<node id="-16759" lat="66.7250055517" lon="13.3888694497">
		<tag k="fixme" v="consider natural=peak for the most distinct mountains in the district" />
		<tag k="name" v="Tømmeråsen" />
		<tag k="natural" v="hill" />
		<tag k="place" v="locality" />
		<tag k="ssr:stedsnr" v="651346" />
	</node>
	<node id="-16758" lat="66.7316138855" lon="13.3991416732">
		<tag k="name" v="Nebjehågen" />
		<tag k="natural" v="hill" />
		<tag k="place" v="locality" />
		<tag k="ssr:stedsnr" v="651342" />
	</node>
	<node id="-16754" lat="66.8205249959" lon="13.4406111005">
		<tag k="name" v="Tinnfatbergan" />
		<tag k="natural" v="cliff" />
		<tag k="ssr:stedsnr" v="651279" />
	</node>
	<node id="-16753" lat="66.8250138871" lon="13.3648305479">
		<tag k="name" v="Varhågen" />
		<tag k="natural" v="hill" />
		<tag k="place" v="locality" />
		<tag k="ssr:stedsnr" v="651274" />
	</node>
	<node id="-16752" lat="66.8257111142" lon="13.3862555665">
		<tag k="name" v="Skinnstakkhågen" />
		<tag k="natural" v="hill" />
		<tag k="place" v="locality" />
		<tag k="ssr:stedsnr" v="651271" />
	</node>
	<node id="-16751" lat="66.8234833377" lon="13.3972777704">
		<tag k="name" v="Stanghågen" />
		<tag k="natural" v="hill" />
		<tag k="place" v="locality" />
		<tag k="ssr:stedsnr" v="651269" />
	</node>
	<node id="-16743" lat="66.870586108" lon="13.7165388981">
		<tag k="name" v="Aspdalen" />
		<tag k="natural" v="valley" />
		<tag k="place" v="locality" />
		<tag k="ssr:stedsnr" v="650299" />
	</node>
	<node id="-16742" lat="66.8793611121" lon="13.7716027866">
		<tag k="name" v="Hesthamran" />
		<tag k="natural" v="cliff" />
		<tag k="ssr:stedsnr" v="650479" />
	</node>
	<node id="-16741" lat="66.7192305561" lon="13.4066666728">
		<tag k="fixme" v="consider natural=peak for the most distinct mountains in the district" />
		<tag k="name" v="Torkilåsen" />
		<tag k="natural" v="hill" />
		<tag k="place" v="locality" />
		<tag k="ssr:stedsnr" v="649428" />
	</node>
	<node id="-16739" lat="66.7779222188" lon="13.3507888882">
		<tag k="name" v="Ramnflogan" />
		<tag k="natural" v="cliff" />
		<tag k="ssr:stedsnr" v="643732" />
	</node>
	<node id="-16738" lat="66.7553666695" lon="13.3430916668">
		<tag k="name" v="Kvannlidalen" />
		<tag k="natural" v="valley" />
		<tag k="place" v="locality" />
		<tag k="ssr:stedsnr" v="643716" />
	</node>
	<node id="-16737" lat="66.7570611105" lon="13.3164055622">
		<tag k="name" v="Bulia" />
		<tag k="natural" v="slope" />
		<tag k="place" v="locality" />
		<tag k="ssr:stedsnr" v="643715" />
	</node>
	<node id="-16726" lat="66.9303805567" lon="13.5799472226">
		<tag k="fixme" v="consider natural=peak for the most distinct mountains in the district" />
		<tag k="name" v="Medtinden" />
		<tag k="natural" v="hill" />
		<tag k="place" v="locality" />
		<tag k="ssr:stedsnr" v="623878" />
	</node>
	<node id="-16718" lat="66.6791083309" lon="14.165519453">
		<tag k="fixme" v="consider natural=peak for the most distinct mountains in the district" />
		<tag k="name" v="Terskaldfjellet" />
		<tag k="natural" v="hill" />
		<tag k="place" v="locality" />
		<tag k="ssr:stedsnr" v="623496" />
	</node>
	<node id="-16717" lat="66.7622888868" lon="14.2572166753">
		<tag k="fixme" v="consider natural=peak for the most distinct mountains in the district" />
		<tag k="name" v="Jordbrufjellet" />
		<tag k="natural" v="hill" />
		<tag k="place" v="locality" />
		<tag k="ssr:stedsnr" v="623384" />
	</node>
	<node id="-16716" lat="66.8378499986" lon="13.8011944491">
		<tag k="name" v="Neverdalen" />
		<tag k="natural" v="valley" />
		<tag k="place" v="locality" />
		<tag k="ssr:stedsnr" v="623366" />
	</node>
	<node id="-16715" lat="66.8555694424" lon="13.9167388853">
		<tag k="alt_name" v="Istinden, litle" />
		<tag k="fixme" v="consider natural=peak for the most distinct mountains in the district" />
		<tag k="name" v="Litle Istinden" />
		<tag k="natural" v="hill" />
		<tag k="place" v="locality" />
		<tag k="ssr:stedsnr" v="623360" />
	</node>
	<node id="-16713" lat="66.837283337" lon="13.8931722284">
		<tag k="fixme" v="consider natural=peak for the most distinct mountains in the district" />
		<tag k="name" v="Melkartuva" />
		<tag k="natural" v="hill" />
		<tag k="place" v="locality" />
		<tag k="ssr:stedsnr" v="623353" />
	</node>
	<node id="-16712" lat="66.8208972243" lon="13.8292083369">
		<tag k="name" v="Selstaddalen" />
		<tag k="natural" v="valley" />
		<tag k="place" v="locality" />
		<tag k="ssr:stedsnr" v="623342" />
	</node>
	<node id="-16694" lat="66.7844750008" lon="14.3068639004">
		<tag k="name" v="Kvitsteindalen" />
		<tag k="natural" v="valley" />
		<tag k="place" v="locality" />
		<tag k="ssr:stedsnr" v="622381" />
	</node>
	<node id="-16693" lat="66.8574805583" lon="13.7973000076">
		<tag k="fixme" v="consider natural=peak for the most distinct mountains in the district" />
		<tag k="name" v="Nordhesten" />
		<tag k="natural" v="hill" />
		<tag k="place" v="locality" />
		<tag k="ssr:stedsnr" v="622350" />
	</node>
	<node id="-16691" lat="66.7638416639" lon="14.0906527842">
		<tag k="name" v="Holmvassdalen" />
		<tag k="natural" v="valley" />
		<tag k="place" v="locality" />
		<tag k="ssr:stedsnr" v="622304" />
	</node>
	<node id="-16689" lat="66.6645250007" lon="13.6474416582">
		<tag k="fixme" v="consider natural=peak for the most distinct mountains in the district" />
		<tag k="name" v="Flatfjellet" />
		<tag k="natural" v="hill" />
		<tag k="place" v="locality" />
		<tag k="ssr:stedsnr" v="622297" />
	</node>
	<node id="-16687" lat="66.9183083325" lon="13.7790194547">
		<tag k="fixme" v="consider natural=peak for the most distinct mountains in the district" />
		<tag k="name" v="Svahella" />
		<tag k="natural" v="hill" />
		<tag k="place" v="locality" />
		<tag k="ssr:stedsnr" v="622180" />
	</node>
	<node id="-16686" lat="66.882352775" lon="13.8076527667">
		<tag k="fixme" v="consider natural=peak for the most distinct mountains in the district" />
		<tag k="name" v="Holmaksla" />
		<tag k="natural" v="hill" />
		<tag k="place" v="locality" />
		<tag k="ssr:stedsnr" v="622158" />
	</node>
	<node id="-16685" lat="66.8732749965" lon="13.7844833306">
		<tag k="name" v="Svelia" />
		<tag k="natural" v="slope" />
		<tag k="place" v="locality" />
		<tag k="ssr:stedsnr" v="622155" />
	</node>
	<node id="-16682" lat="66.8985805538" lon="13.840841675">
		<tag k="name" v="Holmhaugan" />
		<tag k="natural" v="hill" />
		<tag k="place" v="locality" />
		<tag k="ssr:stedsnr" v="622136" />
	</node>
	<node id="-16675" lat="66.7694333336" lon="13.4164472242">
		<tag k="fixme" v="consider natural=peak for the most distinct mountains in the district" />
		<tag k="name" v="Risnestinden" />
		<tag k="natural" v="hill" />
		<tag k="place" v="locality" />
		<tag k="ssr:stedsnr" v="622061" />
	</node>
	<node id="-16672" lat="66.7799944442" lon="13.588922233">
		<tag k="fixme" v="multiple name tags, choose one and add the other to alt_name" />
		<tag k="name" v="Kvanntovan;Rødhammaren" />
		<tag k="natural" v="hill" />
		<tag k="place" v="locality" />
		<tag k="ssr:stedsnr" v="622038" />
	</node>
	<node id="-16671" lat="66.7610026018" lon="13.2899966476">
		<tag k="fixme" v="consider natural=peak for the most distinct mountains in the district" />
		<tag k="name" v="Harfjelltinden" />
		<tag k="natural" v="hill" />
		<tag k="place" v="locality" />
		<tag k="ssr:stedsnr" v="622014" />
	</node>
	<node id="-16668" lat="66.7092749959" lon="13.8047027766">
		<tag k="fixme" v="consider natural=peak for the most distinct mountains in the district" />
		<tag k="name" v="Fonntinden" />
		<tag k="natural" v="hill" />
		<tag k="place" v="locality" />
		<tag k="ssr:stedsnr" v="622477" />
	</node>
	<node id="-16665" lat="66.6972027811" lon="13.5515388959">
		<tag k="name" v="Påljorda" />
		<tag k="natural" v="slope" />
		<tag k="place" v="locality" />
		<tag k="ssr:stedsnr" v="591902" />
	</node>
	<node id="-16663" lat="66.8636277762" lon="13.7361416727">
		<tag k="name" v="Remma" />
		<tag k="natural" v="ridge" />
		<tag k="place" v="locality" />
		<tag k="ssr:stedsnr" v="591731" />
	</node>
	<node id="-16658" lat="66.7291527792" lon="13.6987111062">
		<tag k="name" v="Hellarlia" />
		<tag k="natural" v="slope" />
		<tag k="place" v="locality" />
		<tag k="ssr:stedsnr" v="591384" />
	</node>
	<node id="-16657" lat="66.7318527781" lon="13.6556111184">
		<tag k="name" v="Ytterfjellet" />
		<tag k="natural" v="cliff" />
		<tag k="ssr:stedsnr" v="591379" />
	</node>
	<node id="-16654" lat="66.8478861132" lon="13.6656833273">
		<tag k="name" v="Floget" />
		<tag k="natural" v="hill" />
		<tag k="place" v="locality" />
		<tag k="ssr:stedsnr" v="591241" />
	</node>
	<node id="-16652" lat="66.7379527743" lon="13.8647138828">
		<tag k="name" v="Ressaksla" />
		<tag k="natural" v="ridge" />
		<tag k="place" v="locality" />
		<tag k="ssr:stedsnr" v="591063" />
	</node>
	<node id="-16651" lat="66.7617555594" lon="13.8184944473">
		<tag k="name" v="Dyrrabbdalen" />
		<tag k="natural" v="valley" />
		<tag k="place" v="locality" />
		<tag k="ssr:stedsnr" v="591056" />
	</node>
	<node id="-16647" lat="66.9267277735" lon="13.6343249948">
		<tag k="name" v="Mølndalen" />
		<tag k="natural" v="valley" />
		<tag k="place" v="locality" />
		<tag k="ssr:stedsnr" v="590846" />
	</node>
	<node id="-16645" lat="66.9439416657" lon="13.6045972136">
		<tag k="name" v="Sveliaksla" />
		<tag k="natural" v="ridge" />
		<tag k="place" v="locality" />
		<tag k="ssr:stedsnr" v="590838" />
	</node>
	<node id="-16644" lat="66.9477277757" lon="13.6150638814">
		<tag k="name" v="Ørnhammaren" />
		<tag k="natural" v="cliff" />
		<tag k="ssr:stedsnr" v="590837" />
	</node>
	<node id="-16640" lat="66.8458277747" lon="13.7706472277">
		<tag k="name" v="Sandådalen" />
		<tag k="natural" v="valley" />
		<tag k="place" v="locality" />
		<tag k="ssr:stedsnr" v="590748" />
	</node>
	<node id="-16636" lat="66.8065611104" lon="13.2229333429">
		<tag k="name" v="Smålien" />
		<tag k="natural" v="slope" />
		<tag k="place" v="locality" />
		<tag k="ssr:stedsnr" v="590685" />
	</node>
	<node id="-16635" lat="66.7577666674" lon="13.8294083254">
		<tag k="name" v="Øverflata" />
		<tag k="place" v="locality" />
		<tag k="ssr:stedsnr" v="591042" />
	</node>
	<node id="-16632" lat="66.8018527773" lon="13.1993055453">
		<tag k="name" v="Olslia" />
		<tag k="natural" v="slope" />
		<tag k="place" v="locality" />
		<tag k="ssr:stedsnr" v="590655" />
	</node>
	<node id="-16631" lat="66.7527944425" lon="13.6762694508">
		<tag k="name" v="Petterhågen" />
		<tag k="natural" v="hill" />
		<tag k="place" v="locality" />
		<tag k="ssr:stedsnr" v="590639" />
	</node>
	<node id="-16630" lat="66.8233861143" lon="13.3507333318">
		<tag k="name" v="Rishågen" />
		<tag k="natural" v="hill" />
		<tag k="place" v="locality" />
		<tag k="ssr:stedsnr" v="590633" />
	</node>
	<node id="-16623" lat="66.8339666695" lon="13.4119500015">
		<tag k="name" v="Kistaksla" />
		<tag k="natural" v="hill" />
		<tag k="place" v="locality" />
		<tag k="ssr:stedsnr" v="590316" />
	</node>
	<node id="-16622" lat="66.8527694481" lon="13.7127611151">
		<tag k="fixme" v="consider natural=peak for the most distinct mountains in the district" />
		<tag k="name" v="Ørntuva" />
		<tag k="natural" v="hill" />
		<tag k="place" v="locality" />
		<tag k="ssr:stedsnr" v="590198" />
	</node>
	<node id="-16619" lat="66.7396666624" lon="13.9738000098">
		<tag k="name" v="Øverkjølen" />
		<tag k="natural" v="ridge" />
		<tag k="place" v="locality" />
		<tag k="ssr:stedsnr" v="590170" />
	</node>
	<node id="-16618" lat="66.7472722216" lon="13.9565138891">
		<tag k="name" v="Smålifjellan" />
		<tag k="natural" v="cliff" />
		<tag k="ssr:stedsnr" v="590164" />
	</node>
	<node id="-16616" lat="66.718941663" lon="13.4663861193">
		<tag k="name" v="Nattmorshågen" />
		<tag k="natural" v="hill" />
		<tag k="place" v="locality" />
		<tag k="ssr:stedsnr" v="588363" />
	</node>
	<node id="-16614" lat="66.7556777796" lon="13.3360555648">
		<tag k="name" v="Gapsteinlidalen" />
		<tag k="natural" v="valley" />
		<tag k="place" v="locality" />
		<tag k="ssr:stedsnr" v="582749" />
	</node>
	<node id="-16613" lat="66.7509444475" lon="13.3553916669">
		<tag k="name" v="Innerlanghågen" />
		<tag k="natural" v="hill" />
		<tag k="place" v="locality" />
		<tag k="ssr:stedsnr" v="582748" />
	</node>
	<node id="-16609" lat="66.7202055544" lon="13.8192583307">
		<tag k="name" v="Storøyrdalen" />
		<tag k="natural" v="valley" />
		<tag k="place" v="locality" />
		<tag k="ssr:stedsnr" v="567790" />
	</node>
	<node id="-16595" lat="66.700372219" lon="13.5007333393">
		<tag k="fixme" v="consider natural=peak for the most distinct mountains in the district" />
		<tag k="name" v="Rismålstinden" />
		<tag k="natural" v="hill" />
		<tag k="place" v="locality" />
		<tag k="ssr:stedsnr" v="562758" />
	</node>
	<node id="-16581" lat="66.7244138912" lon="13.9565361062">
		<tag k="alt_name" v="Frukosttinden" />
		<tag k="fixme" v="consider natural=peak for the most distinct mountains in the district" />
		<tag k="name" v="Frokosttinden" />
		<tag k="natural" v="hill" />
		<tag k="place" v="locality" />
		<tag k="ssr:stedsnr" v="562483" />
	</node>
	<node id="-16580" lat="66.7162277801" lon="13.7854194376">
		<tag k="name" v="Tennøyrsdalen" />
		<tag k="natural" v="valley" />
		<tag k="place" v="locality" />
		<tag k="ssr:stedsnr" v="562480" />
	</node>
	<node id="-16578" lat="66.7431722221" lon="13.796272217">
		<tag k="fixme" v="consider natural=peak for the most distinct mountains in the district" />
		<tag k="name" v="Litltuva" />
		<tag k="natural" v="hill" />
		<tag k="place" v="locality" />
		<tag k="ssr:stedsnr" v="562360" />
	</node>
	<node id="-16576" lat="66.8330694468" lon="13.9919416678">
		<tag k="alt_name" v="Stinsfjellet" />
		<tag k="fixme" v="consider natural=peak for the most distinct mountains in the district" />
		<tag k="name" v="Steinsfjellet" />
		<tag k="natural" v="hill" />
		<tag k="place" v="locality" />
		<tag k="ssr:stedsnr" v="562334" />
	</node>
	<node id="-16574" lat="66.8154250001" lon="13.9135000059">
		<tag k="name" v="Setvikdalen" />
		<tag k="natural" v="valley" />
		<tag k="place" v="locality" />
		<tag k="ssr:stedsnr" v="562310" />
	</node>
	<node id="-16573" lat="66.8049333365" lon="14.1123277753">
		<tag k="fixme" v="consider natural=peak for the most distinct mountains in the district" />
		<tag k="loc_name:smj" v="Nábártjåhkkå" />
		<tag k="name" v="Navaren" />
		<tag k="name:no" v="Navaren" />
		<tag k="natural" v="hill" />
		<tag k="place" v="locality" />
		<tag k="ssr:stedsnr" v="562305" />
	</node>
	<node id="-16572" lat="66.7877222196" lon="13.8645722247">
		<tag k="fixme" v="consider natural=peak for the most distinct mountains in the district" />
		<tag k="name" v="Mugskogtinden" />
		<tag k="natural" v="hill" />
		<tag k="place" v="locality" />
		<tag k="ssr:stedsnr" v="562297" />
	</node>
	<node id="-16570" lat="66.6801833333" lon="13.7088166773">
		<tag k="fixme" v="consider natural=peak for the most distinct mountains in the district" />
		<tag k="name" v="Middagstinden" />
		<tag k="natural" v="hill" />
		<tag k="place" v="locality" />
		<tag k="ssr:stedsnr" v="562180" />
	</node>
	<node id="-16568" lat="66.9129000033" lon="13.826913891">
		<tag k="fixme" v="consider natural=peak for the most distinct mountains in the district" />
		<tag k="name" v="Hetta" />
		<tag k="natural" v="hill" />
		<tag k="place" v="locality" />
		<tag k="ssr:stedsnr" v="562170" />
	</node>
	<node id="-16563" lat="66.9133361147" lon="13.6736833415">
		<tag k="name" v="Nordsida" />
		<tag k="natural" v="slope" />
		<tag k="place" v="locality" />
		<tag k="ssr:stedsnr" v="562876" />
	</node>
	<node id="-16551" lat="66.7720805512" lon="13.7144972301">
		<tag k="fixme" v="consider natural=peak for the most distinct mountains in the district" />
		<tag k="name" v="Føllifjellet" />
		<tag k="natural" v="hill" />
		<tag k="place" v="locality" />
		<tag k="ssr:stedsnr" v="561046" />
	</node>
	<node id="-16547" lat="66.6714138913" lon="13.7046500058">
		<tag k="name" v="Vissendalen" />
		<tag k="natural" v="valley" />
		<tag k="place" v="locality" />
		<tag k="ssr:stedsnr" v="561319" />
	</node>
	<node id="-16540" lat="66.7477444402" lon="13.5628805572">
		<tag k="name" v="Sandågbakken" />
		<tag k="natural" v="slope" />
		<tag k="place" v="locality" />
		<tag k="ssr:stedsnr" v="530919" />
	</node>
	<node id="-16539" lat="66.9258166698" lon="13.6701611087">
		<tag k="name" v="Rørskogbakkan" />
		<tag k="natural" v="slope" />
		<tag k="place" v="locality" />
		<tag k="ssr:stedsnr" v="530872" />
	</node>
	<node id="-16537" lat="66.8578888891" lon="13.7159166699">
		<tag k="name" v="Steinbakken" />
		<tag k="natural" v="slope" />
		<tag k="place" v="locality" />
		<tag k="ssr:stedsnr" v="530837" />
	</node>
	<node id="-16535" lat="66.8742527813" lon="13.8226250045">
		<tag k="name" v="Storhågen" />
		<tag k="natural" v="hill" />
		<tag k="place" v="locality" />
		<tag k="ssr:stedsnr" v="530525" />
	</node>
	<node id="-16534" lat="66.8696194436" lon="13.8341194493">
		<tag k="name" v="Storrona" />
		<tag k="place" v="locality" />
		<tag k="ssr:stedsnr" v="530524" />
	</node>
	<node id="-16533" lat="66.8654111112" lon="13.8062666622">
		<tag k="name" v="Storbenken" />
		<tag k="natural" v="ridge" />
		<tag k="place" v="locality" />
		<tag k="ssr:stedsnr" v="530516" />
	</node>
	<node id="-16532" lat="66.801305558" lon="13.207922231">
		<tag k="name" v="Bubergan" />
		<tag k="natural" v="ridge" />
		<tag k="place" v="locality" />
		<tag k="ssr:stedsnr" v="530664" />
	</node>
	<node id="-15043" lat="66.8760999999" lon="13.8505916659">
		<tag k="fixme" v="consider natural=peak for the most distinct mountains in the district" />
		<tag k="name" v="Spilta" />
		<tag k="natural" v="hill" />
		<tag k="place" v="locality" />
		<tag k="ssr:stedsnr" v="137109" />
	</node>
	<node id="-16528" lat="66.7555027799" lon="13.8240416581">
		<tag k="name" v="Stordalen" />
		<tag k="natural" v="valley" />
		<tag k="place" v="locality" />
		<tag k="ssr:stedsnr" v="530056" />
	</node>
	<node id="-16526" lat="66.8432750019" lon="13.4399722246">
		<tag k="name" v="Engan" />
		<tag k="natural" v="slope" />
		<tag k="place" v="locality" />
		<tag k="ssr:stedsnr" v="530300" />
	</node>
	<node id="-16525" lat="66.8246305584" lon="13.3823333317">
		<tag k="name" v="Steinkleiva" />
		<tag k="natural" v="slope" />
		<tag k="place" v="locality" />
		<tag k="ssr:stedsnr" v="530299" />
	</node>
	<node id="-16523" lat="66.8208638858" lon="13.4131694511">
		<tag k="name" v="Olahågen" />
		<tag k="natural" v="hill" />
		<tag k="place" v="locality" />
		<tag k="ssr:stedsnr" v="530290" />
	</node>
	<node id="-16522" lat="66.8548805519" lon="13.711458326">
		<tag k="name" v="Storhågen" />
		<tag k="natural" v="ridge" />
		<tag k="place" v="locality" />
		<tag k="ssr:stedsnr" v="530261" />
	</node>
	<node id="-16521" lat="66.7445222206" lon="13.5394222187">
		<tag k="name" v="Ørntuva" />
		<tag k="natural" v="hill" />
		<tag k="place" v="locality" />
		<tag k="ssr:stedsnr" v="529974" />
	</node>
	<node id="-16520" lat="66.7590611121" lon="13.3753222228">
		<tag k="name" v="Helvedesflogan" />
		<tag k="natural" v="cliff" />
		<tag k="ssr:stedsnr" v="529322" />
	</node>
	<node id="-16519" lat="66.764011114" lon="13.4072777874">
		<tag k="name" v="Svinaksla" />
		<tag k="natural" v="ridge" />
		<tag k="place" v="locality" />
		<tag k="ssr:stedsnr" v="529314" />
	</node>
	<node id="-16518" lat="66.7118111083" lon="13.4999388971">
		<tag k="name" v="Ronkulen" />
		<tag k="natural" v="ridge" />
		<tag k="place" v="locality" />
		<tag k="ssr:stedsnr" v="523447" />
	</node>
	<node id="-16517" lat="66.7734500004" lon="13.3219194405">
		<tag k="name" v="Kattheia" />
		<tag k="natural" v="hill" />
		<tag k="place" v="locality" />
		<tag k="ssr:stedsnr" v="522730" />
	</node>
	<node id="-16516" lat="66.7567583333" lon="13.2993555547">
		<tag k="name" v="Lysedalen" />
		<tag k="natural" v="valley" />
		<tag k="place" v="locality" />
		<tag k="ssr:stedsnr" v="522716" />
	</node>
	<node id="-16514" lat="66.7190916711" lon="13.6523499918">
		<tag k="name" v="Lappdalen" />
		<tag k="natural" v="valley" />
		<tag k="place" v="locality" />
		<tag k="ssr:stedsnr" v="410427" />
	</node>
	<node id="-16508" lat="66.7301249968" lon="13.5977610993">
		<tag k="name" v="Forahågen" />
		<tag k="natural" v="hill" />
		<tag k="place" v="locality" />
		<tag k="ssr:stedsnr" v="409748" />
	</node>
	<node id="-16507" lat="66.7401666634" lon="13.6447999922">
		<tag k="name" v="Røyrstølia" />
		<tag k="natural" v="slope" />
		<tag k="place" v="locality" />
		<tag k="ssr:stedsnr" v="409688" />
	</node>
	<node id="-16506" lat="66.7857194436" lon="13.3549666763">
		<tag k="name" v="Rishågen" />
		<tag k="natural" v="hill" />
		<tag k="place" v="locality" />
		<tag k="ssr:stedsnr" v="409663" />
	</node>
	<node id="-16505" lat="66.8041416632" lon="13.2128583231">
		<tag k="name" v="Kvitlihågen" />
		<tag k="natural" v="ridge" />
		<tag k="place" v="locality" />
		<tag k="ssr:stedsnr" v="409637" />
	</node>
	<node id="-16503" lat="66.8166583364" lon="13.3535861151">
		<tag k="name" v="Bjørnurdhågen" />
		<tag k="natural" v="ridge" />
		<tag k="place" v="locality" />
		<tag k="ssr:stedsnr" v="409630" />
	</node>
	<node id="-16502" lat="66.8191805592" lon="13.3597000036">
		<tag k="name" v="Pershågen" />
		<tag k="natural" v="hill" />
		<tag k="place" v="locality" />
		<tag k="ssr:stedsnr" v="409624" />
	</node>
	<node id="-16499" lat="66.8462972222" lon="13.8169055466">
		<tag k="name" v="Mathågen" />
		<tag k="natural" v="hill" />
		<tag k="place" v="locality" />
		<tag k="ssr:stedsnr" v="409490" />
	</node>
	<node id="-16498" lat="66.6907638849" lon="13.6868777691">
		<tag k="name" v="Fonndalen" />
		<tag k="natural" v="valley" />
		<tag k="place" v="locality" />
		<tag k="ssr:stedsnr" v="409444" />
	</node>
	<node id="-16496" lat="66.7341138907" lon="13.9139388842">
		<tag k="name" v="Botnhågen" />
		<tag k="natural" v="ridge" />
		<tag k="place" v="locality" />
		<tag k="ssr:stedsnr" v="409189" />
	</node>
	<node id="-16490" lat="66.7149749977" lon="13.659074996">
		<tag k="name" v="Stidalen" />
		<tag k="natural" v="valley" />
		<tag k="place" v="locality" />
		<tag k="ssr:stedsnr" v="409408" />
	</node>
	<node id="-16488" lat="66.7126972177" lon="13.4379333363">
		<tag k="name" v="Mefjellet" />
		<tag k="natural" v="hill" />
		<tag k="place" v="locality" />
		<tag k="ssr:stedsnr" v="409380" />
	</node>
	<node id="-16486" lat="66.8274527796" lon="13.7807527727">
		<tag k="name" v="Varheidalen" />
		<tag k="natural" v="valley" />
		<tag k="place" v="locality" />
		<tag k="ssr:stedsnr" v="408739" />
	</node>
	<node id="-16485" lat="66.8208305584" lon="13.7950555565">
		<tag k="name" v="Storberget" />
		<tag k="natural" v="cliff" />
		<tag k="ssr:stedsnr" v="408661" />
	</node>
	<node id="-16484" lat="66.7506111111" lon="13.7138777847">
		<tag k="name" v="Svarthågan" />
		<tag k="natural" v="hill" />
		<tag k="place" v="locality" />
		<tag k="ssr:stedsnr" v="408645" />
	</node>
	<node id="-16478" lat="66.7569444437" lon="13.3538111143">
		<tag k="name" v="Ronlidalen" />
		<tag k="natural" v="valley" />
		<tag k="place" v="locality" />
		<tag k="ssr:stedsnr" v="401731" />
	</node>
	<node id="-16475" lat="66.7587472189" lon="13.3552055514">
		<tag k="name" v="Ausa" />
		<tag k="natural" v="valley" />
		<tag k="place" v="locality" />
		<tag k="ssr:stedsnr" v="400756" />
	</node>
	<node id="-16474" lat="66.8409944444" lon="13.4217305611">
		<tag k="name" v="Hestfloget" />
		<tag k="natural" v="cliff" />
		<tag k="ssr:stedsnr" v="400280" />
	</node>
	<node id="-16471" lat="66.7956694473" lon="13.8881694419">
		<tag k="name" v="Skarvhammeren" />
		<tag k="natural" v="cliff" />
		<tag k="ssr:stedsnr" v="387236" />
	</node>
	<node id="-16459" lat="66.8878972247" lon="13.597036107">
		<tag k="fixme" v="consider natural=peak for the most distinct mountains in the district" />
		<tag k="name" v="Nattmålstuva" />
		<tag k="natural" v="hill" />
		<tag k="place" v="locality" />
		<tag k="ssr:stedsnr" v="380907" />
	</node>
	<node id="-16456" lat="66.9142833308" lon="13.4431027851">
		<tag k="fixme" v="consider natural=peak for the most distinct mountains in the district" />
		<tag k="name" v="Husøygavlen" />
		<tag k="natural" v="hill" />
		<tag k="place" v="locality" />
		<tag k="ssr:stedsnr" v="380885" />
	</node>
	<node id="-16453" lat="66.938747222" lon="13.6374916701">
		<tag k="fixme" v="consider natural=peak for the most distinct mountains in the district" />
		<tag k="name" v="Skjeggen" />
		<tag k="natural" v="hill" />
		<tag k="place" v="locality" />
		<tag k="ssr:stedsnr" v="380849" />
	</node>
	<node id="-16444" lat="66.712744448" lon="13.7383749893">
		<tag k="fixme" v="consider natural=peak for the most distinct mountains in the district" />
		<tag k="name" v="Almlifjellet" />
		<tag k="natural" v="hill" />
		<tag k="place" v="locality" />
		<tag k="ssr:stedsnr" v="380508" />
	</node>
	<node id="-16442" lat="66.7160000048" lon="13.9869499912">
		<tag k="name" v="Tretten-null-tohøgda" />
		<tag k="natural" v="hill" />
		<tag k="place" v="locality" />
		<tag k="ssr:stedsnr" v="380503" />
	</node>
	<node id="-16440" lat="66.7477777738" lon="13.8852055503">
		<tag k="fixme" v="consider natural=peak for the most distinct mountains in the district" />
		<tag k="name" v="Motinden" />
		<tag k="natural" v="hill" />
		<tag k="ssr:stedsnr" v="380386" />
	</node>
	<node id="-16438" lat="66.8557583357" lon="13.9054833406">
		<tag k="fixme" v="consider natural=peak for the most distinct mountains in the district" />
		<tag k="name" v="Istinden" />
		<tag k="natural" v="hill" />
		<tag k="place" v="locality" />
		<tag k="ssr:stedsnr" v="380373" />
	</node>
	<node id="-16437" lat="66.8416611071" lon="14.0153555555">
		<tag k="alt_name" v="Granskardet" />
		<tag k="name" v="Granskaret" />
		<tag k="natural" v="valley" />
		<tag k="place" v="locality" />
		<tag k="ssr:stedsnr" v="380371" />
	</node>
	<node id="-16435" lat="66.7705888859" lon="13.8436166582">
		<tag k="fixme" v="consider natural=peak for the most distinct mountains in the district" />
		<tag k="name" v="Sætertindan" />
		<tag k="natural" v="hill" />
		<tag k="place" v="locality" />
		<tag k="ssr:stedsnr" v="380299" />
	</node>
	<node id="-16432" lat="66.7148750026" lon="13.6870694437">
		<tag k="name" v="Otervikhaugen" />
		<tag k="natural" v="hill" />
		<tag k="place" v="locality" />
		<tag k="ssr:stedsnr" v="380236" />
	</node>
	<node id="-16431" lat="66.7128166697" lon="13.4280472237">
		<tag k="fixme" v="consider natural=peak for the most distinct mountains in the district" />
		<tag k="name" v="Blåsfjellet" />
		<tag k="natural" v="hill" />
		<tag k="place" v="locality" />
		<tag k="ssr:stedsnr" v="380215" />
	</node>
	<node id="-16424" lat="66.8017694445" lon="13.5000472323">
		<tag k="alt_name" v="Lundhaugen" />
		<tag k="name" v="Lundhågen" />
		<tag k="natural" v="hill" />
		<tag k="place" v="locality" />
		<tag k="ssr:stedsnr" v="380120" />
	</node>
	<node id="-16422" lat="66.7898277797" lon="13.4216083283">
		<tag k="name" v="Storvarden" />
		<tag k="natural" v="hill" />
		<tag k="place" v="locality" />
		<tag k="ssr:stedsnr" v="380117" />
	</node>
	<node id="-16421" lat="66.8003222262" lon="13.6882777886">
		<tag k="fixme" v="consider natural=peak for the most distinct mountains in the district" />
		<tag k="name" v="Middagstinden" />
		<tag k="natural" v="hill" />
		<tag k="place" v="locality" />
		<tag k="ssr:stedsnr" v="380113" />
	</node>
	<node id="-16417" lat="66.787444444" lon="13.6056944383">
		<tag k="fixme" v="consider natural=peak for the most distinct mountains in the district" />
		<tag k="name" v="Vardtinden" />
		<tag k="natural" v="hill" />
		<tag k="place" v="locality" />
		<tag k="ssr:stedsnr" v="380089" />
	</node>
	<node id="-16413" lat="66.7952722256" lon="13.6048611091">
		<tag k="name" v="Indredalen" />
		<tag k="natural" v="valley" />
		<tag k="place" v="locality" />
		<tag k="ssr:stedsnr" v="380056" />
	</node>
	<node id="-16411" lat="66.764222218" lon="13.3589138848">
		<tag k="alt_name" v="Storsnødalen" />
		<tag k="name" v="Snydalen" />
		<tag k="natural" v="valley" />
		<tag k="place" v="locality" />
		<tag k="ssr:stedsnr" v="380052" />
	</node>
	<node id="-16405" lat="66.7375527751" lon="13.5578861058">
		<tag k="name" v="Tømmerberget" />
		<tag k="natural" v="slope" />
		<tag k="place" v="locality" />
		<tag k="ssr:stedsnr" v="348912" />
	</node>
	<node id="-16404" lat="66.7323916663" lon="13.5590861013">
		<tag k="name" v="Olshågen" />
		<tag k="natural" v="hill" />
		<tag k="place" v="locality" />
		<tag k="ssr:stedsnr" v="348906" />
	</node>
	<node id="-16399" lat="66.868550003" lon="13.7838583428">
		<tag k="name" v="Hekkelberget" />
		<tag k="natural" v="ridge" />
		<tag k="place" v="locality" />
		<tag k="ssr:stedsnr" v="348698" />
	</node>
	<node id="-16398" lat="66.8087111105" lon="13.1949083313">
		<tag k="name" v="Geithellaren" />
		<tag k="place" v="locality" />
		<tag k="ssr:stedsnr" v="348583" />
	</node>
	<node id="-16396" lat="66.730236112" lon="13.3886555591">
		<tag k="name" v="Nonshågen" />
		<tag k="natural" v="ridge" />
		<tag k="place" v="locality" />
		<tag k="ssr:stedsnr" v="348334" />
	</node>
	<node id="-16395" lat="66.8750472201" lon="13.8375638854">
		<tag k="name" v="Lukashågen" />
		<tag k="natural" v="hill" />
		<tag k="place" v="locality" />
		<tag k="ssr:stedsnr" v="348478" />
	</node>
	<node id="-16392" lat="66.7303472191" lon="13.6867388908">
		<tag k="name" v="Bulikollen" />
		<tag k="natural" v="ridge" />
		<tag k="place" v="locality" />
		<tag k="ssr:stedsnr" v="348395" />
	</node>
	<node id="-16391" lat="66.8424916689" lon="13.4485055535">
		<tag k="name" v="Bromlia" />
		<tag k="natural" v="slope" />
		<tag k="place" v="locality" />
		<tag k="ssr:stedsnr" v="348294" />
	</node>
	<node id="-16390" lat="66.7104166667" lon="13.5127694344">
		<tag k="name" v="Hatten" />
		<tag k="natural" v="ridge" />
		<tag k="place" v="locality" />
		<tag k="ssr:stedsnr" v="348176" />
	</node>
	<node id="-16389" lat="66.7208861153" lon="13.5883500115">
		<tag k="name" v="Skålsvikkjerringdalen" />
		<tag k="natural" v="valley" />
		<tag k="place" v="locality" />
		<tag k="ssr:stedsnr" v="348170" />
	</node>
	<node id="-16388" lat="66.7442888879" lon="13.8567555463">
		<tag k="name" v="Småtindene" />
		<tag k="natural" v="ridge" />
		<tag k="place" v="locality" />
		<tag k="ssr:stedsnr" v="348084" />
	</node>
	<node id="-16385" lat="66.7671722178" lon="13.5688500062">
		<tag k="name" v="Hella" />
		<tag k="place" v="locality" />
		<tag k="ssr:stedsnr" v="347835" />
	</node>
</osm>
