<?xml version="1.0" encoding="UTF-8"?>
<<<<<<< HEAD
<osm version="0.6" generator="osmapis">
	<node lat="66.77582777662998" lon="13.538394445110526" id="-10627">
		<tag k="cemetery" v="grave" />
		<tag k="name" v="Osa kirkegård" />
		<tag k="place" v="locality" />
		<tag k="ssr:stedsnr" v="105811" />
	</node>
	<node lat="66.8164027749307" lon="13.95864443586316" id="-10659">
=======
<osm generator="osmapis" version="0.6">
	<node id="-165533" lat="66.9479750006" lon="13.5537361183">
		<tag k="name" v="Rota" />
		<tag k="place" v="locality" />
		<tag k="ssr:stedsnr" v="744852" />
	</node>
	<node id="-165140" lat="66.7436833367" lon="13.577100004">
>>>>>>> e1d4bc35ff8a6074a6f2e91616a996b547c36f15
		<tag k="amenity" v="place_of_worship" />
		<tag k="denomination" v="lutheran" />
		<tag k="name" v="Glomfjord kirke" />
		<tag k="religion" v="christian" />
		<tag k="ssr:stedsnr" v="137299" />
	</node>
<<<<<<< HEAD
	<node lat="66.82353611414446" lon="13.406611102853505" id="-10718">
		<tag k="alt_name" v="Meløy" />
=======
	<node id="-164886" lat="66.7758277766" lon="13.5383944451">
		<tag k="cemetery" v="grave" />
		<tag k="name" v="Osa kirkegård" />
		<tag k="place" v="locality" />
		<tag k="ssr:stedsnr" v="105811" />
	</node>
	<node id="-165684" lat="66.7766222262" lon="13.451961101">
		<tag k="name" v="Helleristninger" />
		<tag k="place" v="locality" />
		<tag k="ssr:stedsnr" v="865118" />
	</node>
	<node id="-164783" lat="66.7541166621" lon="13.7522027855">
		<tag k="name" v="Bjærangssjøen" />
		<tag k="old_name" v="Bjerangssjøen;Bjærangsjyen" />
		<tag k="place" v="locality" />
		<tag k="ssr:stedsnr" v="77293" />
	</node>
	<node id="-164907" lat="66.8164027749" lon="13.9586444359">
>>>>>>> e1d4bc35ff8a6074a6f2e91616a996b547c36f15
		<tag k="amenity" v="place_of_worship" />
		<tag k="denomination" v="lutheran" />
		<tag k="name" v="Meløy kirke" />
		<tag k="religion" v="christian" />
		<tag k="ssr:stedsnr" v="259990" />
	</node>
	<node lat="66.7436833367493" lon="13.577100003994385" id="-10971">
		<tag k="amenity" v="place_of_worship" />
		<tag k="denomination" v="lutheran" />
		<tag k="name" v="Halsa kirke" />
		<tag k="religion" v="christian" />
		<tag k="ssr:stedsnr" v="380179" />
	</node>
<<<<<<< HEAD
	<node lat="66.90956111180611" lon="13.633613891203547" id="-11144">
=======
	<node id="-164263" lat="66.9095611118" lon="13.6336138912">
>>>>>>> e1d4bc35ff8a6074a6f2e91616a996b547c36f15
		<tag k="amenity" v="place_of_worship" />
		<tag k="denomination" v="lutheran" />
		<tag k="name" v="Fore kirke" />
		<tag k="religion" v="christian" />
		<tag k="ssr:stedsnr" v="684943" />
	</node>
<<<<<<< HEAD
	<node lat="66.77682248688271" lon="13.535083442287847" id="-11381">
=======
	<node id="-165541" lat="66.7768305591" lon="13.5350222318">
>>>>>>> e1d4bc35ff8a6074a6f2e91616a996b547c36f15
		<tag k="alt_name" v="Osa" />
		<tag k="amenity" v="place_of_worship" />
		<tag k="denomination" v="lutheran" />
		<tag k="name" v="Osa frikirke" />
		<tag k="religion" v="christian" />
		<tag k="ssr:stedsnr" v="752071" />
	</node>
<<<<<<< HEAD
	<node lat="66.75411666205706" lon="13.752202785464952" id="-11640">
		<tag k="name" v="Bjærangssjøen" />
		<tag k="old_name" v="Bjerangssjøen;Bjærangsjyen" />
		<tag k="place" v="locality" />
		<tag k="ssr:stedsnr" v="77293" />
	</node>
	<node lat="66.9479750006105" lon="13.553736118342776" id="-12418">
		<tag k="name" v="Rota" />
		<tag k="place" v="locality" />
		<tag k="ssr:stedsnr" v="744852" />
	</node>
	<node lat="66.77662222615261" lon="13.451961100952365" id="-12588">
		<tag k="name" v="Helleristninger" />
		<tag k="place" v="locality" />
		<tag k="ssr:stedsnr" v="865118" />
	</node>
=======
	<node id="-163748" lat="66.8235361141" lon="13.4066111029">
		<tag k="alt_name" v="Meløy" />
		<tag k="amenity" v="place_of_worship" />
		<tag k="denomination" v="lutheran" />
		<tag k="name" v="Meløy kirke" />
		<tag k="religion" v="christian" />
		<tag k="ssr:stedsnr" v="259990" />
	</node>
>>>>>>> e1d4bc35ff8a6074a6f2e91616a996b547c36f15
</osm>
