<?xml version="1.0" encoding="UTF-8"?>
<<<<<<< HEAD
<osm version="0.6" generator="osmapis">
	<node lat="66.7517916654448" lon="13.326936114493805" id="-10514">
		<tag k="alt_name" v="Olsvik" />
		<tag k="name" v="Olsvika" />
		<tag k="place" v="farm" />
		<tag k="ssr:stedsnr" v="16007" />
	</node>
	<node lat="66.7506583349495" lon="13.34386110655028" id="-10515">
		<tag k="fixme" v="consider place=hamlet" />
		<tag k="name" v="Herstad" />
		<tag k="place" v="farm" />
		<tag k="ssr:stedsnr" v="16009" />
	</node>
	<node lat="66.7724326488358" lon="13.621892785567178" id="-10516">
		<tag k="fixme" v="consider place=hamlet" />
		<tag k="name" v="Oldra" />
		<tag k="place" v="farm" />
		<tag k="ssr:stedsnr" v="16025" />
	</node>
	<node lat="66.78832777360955" lon="13.505805564039626" id="-10521">
		<tag k="name" v="Tindvika" />
		<tag k="place" v="farm" />
		<tag k="ssr:stedsnr" v="16072" />
	</node>
	<node lat="66.72508888799408" lon="13.412538884105327" id="-10528">
		<tag k="alt_name" v="Lia" />
		<tag k="name" v="Lien" />
		<tag k="place" v="farm" />
		<tag k="ssr:stedsnr" v="16127" />
	</node>
	<node lat="66.73283888670083" lon="13.893424988963979" id="-10534">
		<tag k="alt_name" v="Kilvika" />
		<tag k="name" v="Kilvik" />
		<tag k="place" v="farm" />
		<tag k="ssr:stedsnr" v="16464" />
	</node>
	<node lat="66.90406389025223" lon="13.647222229676974" id="-10538">
		<tag k="alt_name" v="Høgseth" />
		<tag k="name" v="Høgset" />
		<tag k="place" v="farm" />
		<tag k="ssr:stedsnr" v="16925" />
	</node>
	<node lat="66.86505555580806" lon="13.676138893268421" id="-10540">
		<tag k="name" v="Valøya" />
		<tag k="place" v="farm" />
		<tag k="ssr:stedsnr" v="16945" />
	</node>
	<node lat="66.83427744595714" lon="13.573762891455518" id="-10546">
		<tag k="fixme" v="consider place=hamlet" />
		<tag k="name" v="Skjerpa" />
		<tag k="place" v="farm" />
		<tag k="ssr:stedsnr" v="16981" />
	</node>
	<node lat="66.91466388668226" lon="13.706305549107618" id="-10552">
		<tag k="name" v="Aspen" />
		<tag k="place" v="farm" />
		<tag k="ssr:stedsnr" v="16880" />
	</node>
	<node lat="66.90987499710201" lon="13.637016672378625" id="-10554">
		<tag k="fixme" v="consider place=suburb, village or hamlet" />
		<tag k="name" v="Reipå" />
		<tag k="place" v="quarter" />
		<tag k="ssr:stedsnr" v="16885" />
	</node>
	<node lat="66.7075527757952" lon="13.72093332395625" id="-10558">
		<tag k="name" v="Svartisen" />
		<tag k="place" v="farm" />
		<tag k="ssr:stedsnr" v="21788" />
	</node>
	<node lat="66.73259166462695" lon="13.399036119865436" id="-10561">
		<tag k="name" v="Haugland" />
		<tag k="place" v="farm" />
		<tag k="ssr:stedsnr" v="287369" />
	</node>
	<node lat="66.75476666345195" lon="13.298761102528955" id="-10563">
		<tag k="name" v="Fjellmo" />
		<tag k="place" v="farm" />
		<tag k="ssr:stedsnr" v="36723" />
	</node>
	<node lat="66.74478888713362" lon="13.561908333439028" id="-10583">
		<tag k="name" v="Bekkemoen" />
		<tag k="place" v="farm" />
		<tag k="ssr:stedsnr" v="45922" />
	</node>
	<node lat="66.75248888608407" lon="13.315819448405977" id="-10587">
		<tag k="name" v="Ysvika" />
		<tag k="place" v="farm" />
		<tag k="ssr:stedsnr" v="77007" />
	</node>
	<node lat="66.751505556419" lon="13.361055554493161" id="-10588">
		<tag k="name" v="Rydvang" />
		<tag k="place" v="farm" />
		<tag k="ssr:stedsnr" v="77009" />
	</node>
	<node lat="66.76493333786706" lon="13.68769443882849" id="-10589">
		<tag k="name" v="Foravik" />
		<tag k="place" v="farm" />
		<tag k="ssr:stedsnr" v="77023" />
	</node>
	<node lat="66.80608889105372" lon="13.611363898523694" id="-10593">
		<tag k="name" v="Elvebakken" />
		<tag k="place" v="farm" />
		<tag k="ssr:stedsnr" v="77124" />
	</node>
	<node lat="66.76006388498816" lon="14.192675001813775" id="-10599">
		<tag k="name" v="Storglomvassbrakka" />
		<tag k="place" v="isolated_dwelling" />
		<tag k="ssr:stedsnr" v="77304" />
	</node>
	<node lat="66.83445042055348" lon="13.775414954645054" id="-10601">
		<tag k="alt_name" v="Neverdalen" />
		<tag k="fixme" v="consider place=hamlet" />
		<tag k="name" v="Neverdal" />
		<tag k="place" v="farm" />
		<tag k="ssr:stedsnr" v="77370" />
	</node>
	<node lat="66.73528055501869" lon="13.926880552951367" id="-10602">
		<tag k="name" v="Storjord" />
		<tag k="place" v="farm" />
		<tag k="ssr:stedsnr" v="77505" />
	</node>
	<node lat="66.73238055794549" lon="13.825111113925345" id="-10603">
		<tag k="fixme" v="multiple name tags, choose one and add the other to alt_name" />
		<tag k="name" v="Myra;Sletten" />
		<tag k="place" v="farm" />
		<tag k="ssr:stedsnr" v="77506" />
	</node>
	<node lat="66.8795745919339" lon="13.68072225640062" id="-10615">
		<tag k="fixme" v="consider place=hamlet" />
		<tag k="name" v="Torsvika" />
		<tag k="place" v="farm" />
		<tag k="ssr:stedsnr" v="77900" />
	</node>
	<node lat="66.87731146045769" lon="13.604708000260631" id="-10616">
		<tag k="alt_name" v="Teksmoen" />
		<tag k="fixme" v="consider place=hamlet" />
		<tag k="name" v="Teksmona" />
		<tag k="place" v="farm" />
		<tag k="ssr:stedsnr" v="77901" />
	</node>
	<node lat="66.86091389119144" lon="13.637263889936415" id="-10617">
		<tag k="name" v="Mesøy" />
		<tag k="place" v="farm" />
		<tag k="ssr:stedsnr" v="93419" />
	</node>
	<node lat="66.72974722439575" lon="13.55478612010358" id="-10622">
		<tag k="name" v="Skoglund" />
		<tag k="place" v="farm" />
		<tag k="ssr:stedsnr" v="105603" />
	</node>
	<node lat="66.82716666503701" lon="13.51401666455301" id="-10631">
		<tag k="name" v="Lillevik" />
		<tag k="place" v="farm" />
		<tag k="ssr:stedsnr" v="105782" />
	</node>
	<node lat="66.86832940449241" lon="13.721088994557105" id="-10636">
		<tag k="fixme" v="consider place=hamlet" />
		<tag k="name" v="Djupvik" />
		<tag k="place" v="farm" />
		<tag k="ssr:stedsnr" v="106394" />
	</node>
	<node lat="66.74744166363655" lon="13.565600006256384" id="-10643">
		<tag k="name" v="Porsmyr" />
		<tag k="place" v="farm" />
		<tag k="ssr:stedsnr" v="137144" />
	</node>
	<node lat="66.7588105875536" lon="13.653457763377409" id="-10647">
		<tag k="alt_name" v="Hugvik" />
		<tag k="name" v="Haugvika" />
		<tag k="place" v="farm" />
		<tag k="ssr:stedsnr" v="137003" />
	</node>
	<node lat="66.75554999903305" lon="13.395183340785392" id="-10648">
		<tag k="alt_name" v="Skardet" />
		<tag k="fixme" v="consider place=hamlet" />
		<tag k="name" v="Skaret" />
		<tag k="place" v="farm" />
		<tag k="ssr:stedsnr" v="137005" />
	</node>
	<node lat="66.72253333205437" lon="13.69391388400055" id="-10652">
		<tag k="alt_name" v="Skjerstøa" />
		<tag k="name" v="Skjerstøen" />
		<tag k="place" v="farm" />
		<tag k="ssr:stedsnr" v="137205" />
	</node>
	<node lat="66.81137777932584" lon="13.890350004079668" id="-10655">
		<tag k="fixme" v="consider place=hamlet" />
		<tag k="name" v="Setvika" />
		<tag k="place" v="farm" />
		<tag k="ssr:stedsnr" v="137308" />
	</node>
	<node lat="66.88946694796208" lon="13.653590265587269" id="-10666">
		<tag k="alt_name" v="Stien" />
		<tag k="fixme" v="consider place=hamlet" />
		<tag k="name" v="Stigen" />
		<tag k="place" v="farm" />
		<tag k="ssr:stedsnr" v="137913" />
	</node>
	<node lat="66.85201489685527" lon="13.69968931162288" id="-10668">
		<tag k="fixme" v="consider place=hamlet" />
		<tag k="name" v="Våtvika" />
		<tag k="place" v="farm" />
		<tag k="ssr:stedsnr" v="137931" />
	</node>
	<node lat="66.81796666526371" lon="13.803019450871552" id="-10671">
		<tag k="name" v="Vollbakken" />
		<tag k="place" v="isolated_dwelling" />
		<tag k="ssr:stedsnr" v="144245" />
	</node>
	<node lat="66.80083611301416" lon="13.776463894862209" id="-10676">
		<tag k="name" v="Hammaren" />
		<tag k="place" v="farm" />
		<tag k="ssr:stedsnr" v="258037" />
	</node>
	<node lat="66.73405105488385" lon="13.557474516735088" id="-10680">
		<tag k="name" v="Rebbåsen" />
		<tag k="place" v="farm" />
		<tag k="ssr:stedsnr" v="258144" />
	</node>
	<node lat="66.73176389174064" lon="13.905836106943122" id="-10697">
		<tag k="name" v="Søreng" />
		<tag k="place" v="farm" />
		<tag k="ssr:stedsnr" v="259478" />
	</node>
	<node lat="66.91250277954316" lon="13.715163890312267" id="-10714">
		<tag k="name" v="Sandvegen" />
		<tag k="place" v="farm" />
		<tag k="ssr:stedsnr" v="259882" />
	</node>
	<node lat="66.84244444123469" lon="13.639038886315545" id="-10716">
		<tag k="name" v="Langnesvika" />
		<tag k="place" v="farm" />
		<tag k="ssr:stedsnr" v="259983" />
	</node>
	<node lat="66.87699166719825" lon="13.68743054710167" id="-10720">
		<tag k="name" v="Torsvikskogen boligfelt" />
		<tag k="place" v="quarter" />
		<tag k="ssr:stedsnr" v="165270" />
	</node>
	<node lat="66.77633055540433" lon="13.533402789039833" id="-10721">
		<tag k="name" v="Haugmo" />
		<tag k="place" v="farm" />
		<tag k="ssr:stedsnr" v="165835" />
	</node>
	<node lat="66.73168332951859" lon="13.911922214138459" id="-10724">
		<tag k="name" v="Granheim" />
		<tag k="place" v="farm" />
		<tag k="ssr:stedsnr" v="166176" />
	</node>
	<node lat="66.83059721911451" lon="13.771377779146528" id="-10734">
		<tag k="name" v="Kveldsol" />
		<tag k="place" v="farm" />
		<tag k="ssr:stedsnr" v="166725" />
	</node>
	<node lat="66.74205555952035" lon="13.561761110101433" id="-10739">
		<tag k="name" v="Vollabakken boligfelt" />
		<tag k="place" v="quarter" />
		<tag k="ssr:stedsnr" v="166924" />
	</node>
	<node lat="66.75798476002701" lon="13.39354443056838" id="-10742">
		<tag k="name" v="Dyan" />
		<tag k="place" v="locality" />
		<tag k="ssr:stedsnr" v="198006" />
	</node>
	<node lat="66.77598818490968" lon="13.33169021706551" id="-10745">
		<tag k="alt_name" v="Kjørhaug" />
		<tag k="fixme" v="consider place=hamlet" />
		<tag k="name" v="Kjøråg" />
		<tag k="place" v="farm" />
		<tag k="ssr:stedsnr" v="198070" />
	</node>
	<node lat="66.80206666440132" lon="13.529591671717162" id="-10748">
		<tag k="name" v="Bakkan" />
		<tag k="place" v="farm" />
		<tag k="ssr:stedsnr" v="198104" />
	</node>
	<node lat="66.69453333395897" lon="13.601041677293507" id="-10755">
		<tag k="name" v="Odden" />
		<tag k="place" v="isolated_dwelling" />
		<tag k="ssr:stedsnr" v="198172" />
	</node>
	<node lat="66.80393055324723" lon="13.73361666929411" id="-10756">
		<tag k="alt_name" v="Seteren" />
		<tag k="name" v="Sætra" />
		<tag k="place" v="isolated_dwelling" />
		<tag k="ssr:stedsnr" v="198303" />
	</node>
	<node lat="66.82040521773884" lon="13.809112122189429" id="-10757">
		<tag k="fixme" v="consider place=hamlet" />
		<tag k="name" v="Selstad" />
		<tag k="place" v="farm" />
		<tag k="ssr:stedsnr" v="198312" />
	</node>
	<node lat="66.73478610752734" lon="13.884169445030862" id="-10760">
		<tag k="name" v="Moen" />
		<tag k="place" v="farm" />
		<tag k="ssr:stedsnr" v="198478" />
	</node>
	<node lat="66.73193668022877" lon="13.816236653879406" id="-10761">
		<tag k="fixme" v="consider place=hamlet" />
		<tag k="name" v="Sneland" />
		<tag k="place" v="farm" />
		<tag k="ssr:stedsnr" v="198481" />
	</node>
	<node lat="66.8832111146525" lon="13.632008325004623" id="-10769">
		<tag k="name" v="Nordbogen" />
		<tag k="place" v="farm" />
		<tag k="ssr:stedsnr" v="198921" />
	</node>
	<node lat="66.82171944056516" lon="13.35054999247231" id="-10771">
		<tag k="name" v="Tukthuset" />
		<tag k="place" v="hamlet" />
		<tag k="ssr:stedsnr" v="198975" />
	</node>
	<node lat="66.82124166942467" lon="13.402161106600804" id="-10772">
		<tag k="name" v="Nyheim" />
		<tag k="place" v="farm" />
		<tag k="ssr:stedsnr" v="198978" />
	</node>
	<node lat="66.82822140031028" lon="13.483235340001691" id="-10773">
		<tag k="alt_name" v="Røsshagen" />
=======
<osm generator="osmapis" version="0.6">
	<node id="-163837" lat="66.7325916646" lon="13.3990361199">
		<tag k="name" v="Haugland" />
		<tag k="place" v="farm" />
		<tag k="ssr:stedsnr" v="287369" />
	</node>
	<node id="-163828" lat="66.7420555595" lon="13.5617611101">
		<tag k="name" v="Vollabakken boligfelt" />
		<tag k="place" v="quarter" />
		<tag k="ssr:stedsnr" v="166924" />
	</node>
	<node id="-163824" lat="66.9101777775" lon="13.7466000014">
		<tag k="name" v="Marken" />
		<tag k="place" v="farm" />
		<tag k="ssr:stedsnr" v="166768" />
	</node>
	<node id="-163817" lat="66.8011555535" lon="13.2221805626">
		<tag k="name" v="Nystuen" />
		<tag k="place" v="farm" />
		<tag k="ssr:stedsnr" v="166674" />
	</node>
	<node id="-163812" lat="66.6963166663" lon="13.6796222306">
		<tag k="name" v="Vesteng" />
		<tag k="place" v="farm" />
		<tag k="ssr:stedsnr" v="166452" />
	</node>
	<node id="-163808" lat="66.8279555515" lon="13.4729583346">
		<tag k="name" v="Kvitlia" />
		<tag k="place" v="farm" />
		<tag k="ssr:stedsnr" v="166273" />
	</node>
	<node id="-163801" lat="66.7316833295" lon="13.9119222141">
		<tag k="name" v="Granheim" />
		<tag k="place" v="farm" />
		<tag k="ssr:stedsnr" v="166176" />
	</node>
	<node id="-165830" lat="66.7170699639" lon="14.2554308899">
		<tag k="name" v="Storglomvatnet" />
		<tag k="place" v="locality" />
		<tag k="ssr:stedsnr" v="1074158" />
	</node>
	<node id="-163781" lat="66.8113777793" lon="13.8903500041">
		<tag k="fixme" v="consider place=hamlet" />
		<tag k="name" v="Setvika" />
		<tag k="place" v="farm" />
		<tag k="ssr:stedsnr" v="137308" />
	</node>
	<node id="-165828" lat="66.9097863007" lon="13.5841403956">
		<tag k="fixme" v="consider place=hamlet" />
		<tag k="name" v="Øvre Sørfore" />
		<tag k="place" v="farm" />
		<tag k="ssr:stedsnr" v="1074093" />
	</node>
	<node id="-165827" lat="66.8748062113" lon="13.9094997292">
		<tag k="name" v="Indre Spilderdalen" />
		<tag k="place" v="locality" />
		<tag k="ssr:stedsnr" v="1073977" />
	</node>
	<node id="-165826" lat="66.8756911229" lon="13.8441105403">
		<tag k="name" v="Digermulen" />
		<tag k="place" v="locality" />
		<tag k="ssr:stedsnr" v="1073973" />
	</node>
	<node id="-165825" lat="66.8727523842" lon="13.8181551287">
		<tag k="name" v="Spilderdalen" />
		<tag k="place" v="locality" />
		<tag k="ssr:stedsnr" v="1073967" />
	</node>
	<node id="-165824" lat="66.8456126566" lon="13.7307158606">
		<tag k="fixme" v="consider place=hamlet" />
		<tag k="name" v="Eidbukt" />
		<tag k="place" v="farm" />
		<tag k="ssr:stedsnr" v="1073963" />
	</node>
	<node id="-165823" lat="66.8027451346" lon="13.5959439661">
		<tag k="fixme" v="consider place=hamlet" />
		<tag k="name" v="Vassdal" />
		<tag k="place" v="farm" />
		<tag k="ssr:stedsnr" v="1073947" />
	</node>
	<node id="-165822" lat="66.7806929058" lon="13.5415740483">
		<tag k="fixme" v="consider place=hamlet" />
		<tag k="name" v="Enga" />
		<tag k="place" v="farm" />
		<tag k="ssr:stedsnr" v="1073945" />
	</node>
	<node id="-165821" lat="66.7746392424" lon="13.5453314313">
		<tag k="fixme" v="consider place=hamlet" />
		<tag k="name" v="Osa" />
		<tag k="place" v="farm" />
		<tag k="ssr:stedsnr" v="1073944" />
	</node>
	<node id="-165820" lat="66.7670041662" lon="13.5422280035">
		<tag k="fixme" v="consider place=hamlet" />
		<tag k="name" v="Saura" />
		<tag k="place" v="farm" />
		<tag k="ssr:stedsnr" v="1073942" />
	</node>
	<node id="-165819" lat="66.7116995503" lon="13.5763914048">
		<tag k="name" v="Indre Skålsvika" />
		<tag k="place" v="locality" />
		<tag k="ssr:stedsnr" v="1073799" />
	</node>
	<node id="-165818" lat="66.7304272344" lon="13.7211808946">
		<tag k="name" v="Haugland" />
		<tag k="place" v="locality" />
		<tag k="ssr:stedsnr" v="1073797" />
	</node>
	<node id="-165816" lat="66.7719246407" lon="13.3103844344">
		<tag k="name" v="Kjørrågvika" />
		<tag k="place" v="locality" />
		<tag k="ssr:stedsnr" v="1073772" />
	</node>
	<node id="-165815" lat="66.7621068303" lon="13.2765161506">
		<tag k="name" v="Harfjellstrand" />
		<tag k="place" v="locality" />
		<tag k="ssr:stedsnr" v="1073771" />
	</node>
	<node id="-165814" lat="66.8007492319" lon="13.2265184211">
		<tag k="fixme" v="consider place=hamlet" />
		<tag k="name" v="Bolga" />
		<tag k="place" v="farm" />
		<tag k="ssr:stedsnr" v="1073769" />
	</node>
	<node id="-165813" lat="66.8003220407" lon="13.0820614064">
		<tag k="name" v="Snyen" />
		<tag k="place" v="locality" />
		<tag k="ssr:stedsnr" v="1073767" />
	</node>
	<node id="-165812" lat="66.697486184" lon="13.636322477">
		<tag k="name" v="Indre Renndalsvika" />
		<tag k="place" v="farm" />
		<tag k="ssr:stedsnr" v="981297" />
	</node>
	<node id="-165811" lat="66.6952515718" lon="13.6135424109">
		<tag k="name" v="Renndalsvika" />
		<tag k="place" v="farm" />
		<tag k="ssr:stedsnr" v="981296" />
	</node>
	<node id="-165810" lat="66.7939428953" lon="13.760213253">
		<tag k="name" v="Rendal" />
		<tag k="place" v="farm" />
		<tag k="ssr:stedsnr" v="981252" />
	</node>
	<node id="-163761" lat="66.7474416636" lon="13.5656000063">
		<tag k="name" v="Porsmyr" />
		<tag k="place" v="farm" />
		<tag k="ssr:stedsnr" v="137144" />
	</node>
	<node id="-165808" lat="66.8044854978" lon="13.7598804516">
		<tag k="name" v="Rendal" />
		<tag k="place" v="farm" />
		<tag k="ssr:stedsnr" v="981250" />
	</node>
	<node id="-163759" lat="66.9135011835" lon="13.764959166">
		<tag k="alt_name" v="Marken" />
		<tag k="fixme" v="consider place=hamlet" />
		<tag k="name" v="Marka" />
		<tag k="place" v="farm" />
		<tag k="ssr:stedsnr" v="137135" />
	</node>
	<node id="-165806" lat="66.783612706" lon="13.3727340055">
		<tag k="name" v="Åmnes" />
		<tag k="place" v="farm" />
		<tag k="ssr:stedsnr" v="981317" />
	</node>
	<node id="-165805" lat="66.6972711919" lon="13.6913803115">
		<tag k="name" v="Fonndalen" />
		<tag k="place" v="farm" />
		<tag k="ssr:stedsnr" v="981316" />
	</node>
	<node id="-163751" lat="66.7551277807" lon="13.5780888812">
		<tag k="name" v="Halsosa" />
		<tag k="place" v="farm" />
		<tag k="ssr:stedsnr" v="267177" />
	</node>
	<node id="-165795" lat="66.8585611082" lon="13.7389972215">
		<tag k="name" v="Brekkan" />
		<tag k="place" v="farm" />
		<tag k="ssr:stedsnr" v="955746" />
	</node>
	<node id="-163746" lat="66.8424444412" lon="13.6390388863">
		<tag k="name" v="Langnesvika" />
		<tag k="place" v="farm" />
		<tag k="ssr:stedsnr" v="259983" />
	</node>
	<node id="-163740" lat="66.8687777766" lon="13.7057944499">
		<tag k="name" v="Ørnes" />
		<tag k="place" v="village" />
		<tag k="ssr:stedsnr" v="259952" />
	</node>
	<node id="-163733" lat="66.9125027795" lon="13.7151638903">
		<tag k="name" v="Sandvegen" />
		<tag k="place" v="farm" />
		<tag k="ssr:stedsnr" v="259882" />
	</node>
	<node id="-165775" lat="66.7259749966" lon="13.4271888771">
		<tag k="name" v="Solum" />
		<tag k="place" v="farm" />
		<tag k="ssr:stedsnr" v="955322" />
	</node>
	<node id="-165772" lat="66.8308500029" lon="13.4022499952">
		<tag k="name" v="Bakken" />
		<tag k="place" v="farm" />
		<tag k="ssr:stedsnr" v="955291" />
	</node>
	<node id="-163719" lat="66.7317638917" lon="13.9058361069">
		<tag k="name" v="Søreng" />
		<tag k="place" v="farm" />
		<tag k="ssr:stedsnr" v="259478" />
	</node>
	<node id="-163713" lat="66.869336112" lon="13.7616638941">
		<tag k="alt_name" v="Kista" />
		<tag k="name" v="Kisten" />
		<tag k="place" v="isolated_dwelling" />
		<tag k="ssr:stedsnr" v="259360" />
	</node>
	<node id="-165756" lat="66.7538138894" lon="13.8267222295">
		<tag k="name" v="Gammel-seter" />
		<tag k="place" v="locality" />
		<tag k="ssr:stedsnr" v="955059" />
	</node>
	<node id="-165753" lat="66.7428379491" lon="13.5561821368">
		<tag k="fixme" v="consider place=hamlet" />
		<tag k="name" v="Halsa" />
		<tag k="place" v="farm" />
		<tag k="ssr:stedsnr" v="954942" />
	</node>
	<node id="-165752" lat="66.7701055544" lon="13.5439777682">
		<tag k="name" v="Bjørkvoll" />
		<tag k="place" v="farm" />
		<tag k="ssr:stedsnr" v="954827" />
	</node>
	<node id="-163703" lat="66.9079333369" lon="13.7075416669">
		<tag k="alt_name" v="Bjerkåsen" />
		<tag k="name" v="Bjørkåsen" />
		<tag k="place" v="farm" />
		<tag k="ssr:stedsnr" v="258928" />
	</node>
	<node id="-163702" lat="66.7340510549" lon="13.5574745167">
		<tag k="name" v="Rebbåsen" />
		<tag k="place" v="farm" />
		<tag k="ssr:stedsnr" v="258144" />
	</node>
	<node id="-165749" lat="66.7274333321" lon="13.4431638984">
		<tag k="name" v="Bjørkheim" />
		<tag k="place" v="farm" />
		<tag k="ssr:stedsnr" v="955424" />
	</node>
	<node id="-165747" lat="66.7175250024" lon="13.4733055513">
		<tag k="name" v="Nerstua" />
		<tag k="place" v="farm" />
		<tag k="ssr:stedsnr" v="953419" />
	</node>
	<node id="-165746" lat="66.7174472177" lon="13.4867444516">
		<tag k="name" v="Bergland" />
		<tag k="place" v="farm" />
		<tag k="ssr:stedsnr" v="953417" />
	</node>
	<node id="-163697" lat="66.800836113" lon="13.7764638949">
		<tag k="name" v="Hammaren" />
		<tag k="place" v="farm" />
		<tag k="ssr:stedsnr" v="258037" />
	</node>
	<node id="-163696" lat="66.7775888902" lon="13.3750694524">
		<tag k="name" v="Lyngstad" />
		<tag k="place" v="farm" />
		<tag k="ssr:stedsnr" v="258090" />
	</node>
	<node id="-163689" lat="66.760063885" lon="14.1926750018">
		<tag k="name" v="Storglomvassbrakka" />
		<tag k="place" v="isolated_dwelling" />
		<tag k="ssr:stedsnr" v="77304" />
	</node>
	<node id="-165731" lat="66.9244701516" lon="13.4405679405">
		<tag k="fixme" v="consider place=hamlet" />
		<tag k="name" v="Støtt" />
		<tag k="place" v="farm" />
		<tag k="ssr:stedsnr" v="866840" />
	</node>
	<node id="-165716" lat="66.7336583369" lon="13.7678499896">
		<tag k="name" v="Myrvang" />
		<tag k="place" v="farm" />
		<tag k="ssr:stedsnr" v="866355" />
	</node>
	<node id="-165709" lat="66.8166305581" lon="13.9440416607">
		<tag k="name" v="Glomfjord" />
		<tag k="place" v="village" />
		<tag k="ssr:stedsnr" v="866308" />
	</node>
	<node id="-163660" lat="66.7529805597" lon="13.568308344">
		<tag k="name" v="Myrvang" />
		<tag k="place" v="farm" />
		<tag k="ssr:stedsnr" v="226855" />
	</node>
	<node id="-165707" lat="66.7192527753" lon="13.4706722113">
		<tag k="fixme" v="consider place=hamlet" />
		<tag k="name" v="Ågskardet" />
		<tag k="place" v="village" />
		<tag k="ssr:stedsnr" v="866201" />
	</node>
	<node id="-165704" lat="66.8243492783" lon="13.4354680703">
		<tag k="alt_name" v="Venvika" />
		<tag k="fixme" v="consider place=hamlet" />
		<tag k="name" v="Venvik" />
		<tag k="place" v="farm" />
		<tag k="ssr:stedsnr" v="866072" />
	</node>
	<node id="-165703" lat="66.8243549121" lon="13.4082283467">
		<tag k="alt_name" v="Meløygård" />
		<tag k="fixme" v="consider place=hamlet" />
		<tag k="name" v="Meløygården" />
		<tag k="place" v="farm" />
		<tag k="ssr:stedsnr" v="866070" />
	</node>
	<node id="-163654" lat="66.8814027742" lon="13.6742527819">
		<tag k="name" v="Mølnvika boligfelt" />
		<tag k="place" v="quarter" />
		<tag k="ssr:stedsnr" v="226312" />
	</node>
	<node id="-165698" lat="66.8905472232" lon="13.6202583279">
		<tag k="name" v="Skipvik" />
		<tag k="place" v="farm" />
		<tag k="ssr:stedsnr" v="865925" />
	</node>
	<node id="-165695" lat="66.8785999967" lon="13.6057611094">
		<tag k="name" v="Nytun" />
		<tag k="place" v="farm" />
		<tag k="ssr:stedsnr" v="865913" />
	</node>
	<node id="-165694" lat="66.8832269588" lon="13.6638139381">
		<tag k="fixme" v="consider place=hamlet" />
		<tag k="name" v="Gjerset" />
		<tag k="place" v="farm" />
		<tag k="ssr:stedsnr" v="865910" />
	</node>
	<node id="-163644" lat="66.9040638903" lon="13.6472222297">
		<tag k="alt_name" v="Høgset" />
		<tag k="name" v="Høgseth" />
		<tag k="place" v="farm" />
		<tag k="ssr:stedsnr" v="16925" />
	</node>
	<node id="-165690" lat="66.7572583292" lon="13.7940499913">
		<tag k="alt_name" v="Bjerangen, l" />
		<tag k="name" v="Litle Bjerangen" />
		<tag k="place" v="farm" />
		<tag k="ssr:stedsnr" v="865347" />
	</node>
	<node id="-165687" lat="66.7328138902" lon="13.3976138796">
		<tag k="name" v="Haugvikhalsen" />
		<tag k="place" v="farm" />
		<tag k="ssr:stedsnr" v="865166" />
	</node>
	<node id="-165686" lat="66.8029500022" lon="13.6034083263">
		<tag k="alt_name" v="Vassdal, øvre" />
		<tag k="name" v="Øvre Vassdal" />
		<tag k="place" v="farm" />
		<tag k="ssr:stedsnr" v="865158" />
	</node>
	<node id="-163637" lat="66.725088888" lon="13.4125388841">
		<tag k="alt_name" v="Lia" />
		<tag k="name" v="Lien" />
		<tag k="place" v="farm" />
		<tag k="ssr:stedsnr" v="16127" />
	</node>
	<node id="-165680" lat="66.7790500001" lon="13.5546138948">
		<tag k="name" v="Lyngstad" />
		<tag k="place" v="farm" />
		<tag k="ssr:stedsnr" v="865050" />
	</node>
	<node id="-165679" lat="66.7628611138" lon="13.700502776">
		<tag k="name" v="Lundegård" />
		<tag k="place" v="farm" />
		<tag k="ssr:stedsnr" v="865043" />
	</node>
	<node id="-165678" lat="66.7547055565" lon="13.3110166601">
		<tag k="name" v="Buvika" />
		<tag k="place" v="farm" />
		<tag k="ssr:stedsnr" v="865025" />
	</node>
	<node id="-165677" lat="66.7541593307" lon="13.2942831837">
>>>>>>> e1d4bc35ff8a6074a6f2e91616a996b547c36f15
		<tag k="fixme" v="consider place=hamlet" />
		<tag k="name" v="Harfjell" />
		<tag k="place" v="farm" />
		<tag k="ssr:stedsnr" v="865021" />
	</node>
<<<<<<< HEAD
	<node lat="66.75512778074523" lon="13.578088881242197" id="-10775">
		<tag k="name" v="Halsosa" />
		<tag k="place" v="farm" />
		<tag k="ssr:stedsnr" v="267177" />
	</node>
	<node lat="66.75233610806356" lon="13.743574992466995" id="-10783">
		<tag k="name" v="Rystad" />
		<tag k="place" v="farm" />
		<tag k="ssr:stedsnr" v="226338" />
	</node>
	<node lat="66.77758889018948" lon="13.37506945240278" id="-10800">
		<tag k="name" v="Lyngstad" />
		<tag k="place" v="farm" />
		<tag k="ssr:stedsnr" v="258090" />
	</node>
	<node lat="66.90793333694252" lon="13.707541666920273" id="-10804">
		<tag k="alt_name" v="Bjerkåsen" />
		<tag k="name" v="Bjørkåsen" />
		<tag k="place" v="farm" />
		<tag k="ssr:stedsnr" v="258928" />
	</node>
	<node lat="66.80182385880252" lon="13.764969963250811" id="-10809">
		<tag k="fixme" v="consider place=hamlet" />
		<tag k="name" v="Renndalen" />
		<tag k="place" v="farm" />
		<tag k="ssr:stedsnr" v="259326" />
	</node>
	<node lat="66.86933611204846" lon="13.761663894064498" id="-10810">
		<tag k="alt_name" v="Kista" />
		<tag k="name" v="Kisten" />
		<tag k="place" v="isolated_dwelling" />
		<tag k="ssr:stedsnr" v="259360" />
	</node>
	<node lat="66.72226667147021" lon="13.512049989561236" id="-10816">
		<tag k="name" v="Sørgård" />
		<tag k="place" v="isolated_dwelling" />
		<tag k="ssr:stedsnr" v="259211" />
	</node>
	<node lat="66.71850000248152" lon="13.494902783363791" id="-10817">
		<tag k="name" v="Solstad" />
		<tag k="place" v="isolated_dwelling" />
		<tag k="ssr:stedsnr" v="259212" />
	</node>
	<node lat="66.71326632783223" lon="13.646164065931078" id="-10821">
		<tag k="fixme" v="consider place=hamlet" />
		<tag k="name" v="Braset" />
		<tag k="old_name" v="Braseth" />
		<tag k="place" v="farm" />
		<tag k="ssr:stedsnr" v="259228" />
	</node>
	<node lat="66.86877777663192" lon="13.705794449873299" id="-10827">
		<tag k="name" v="Ørnes" />
		<tag k="place" v="village" />
		<tag k="ssr:stedsnr" v="259952" />
	</node>
	<node lat="66.77319166910712" lon="13.564527787049423" id="-10853">
		<tag k="name" v="Dalmo" />
		<tag k="place" v="farm" />
		<tag k="ssr:stedsnr" v="287829" />
	</node>
	<node lat="66.76887777976772" lon="13.54730000574572" id="-10854">
		<tag k="name" v="Myrvang" />
		<tag k="place" v="farm" />
		<tag k="ssr:stedsnr" v="287832" />
	</node>
	<node lat="66.75585833155262" lon="13.658961118258096" id="-10855">
		<tag k="name" v="Nyheim" />
		<tag k="place" v="farm" />
		<tag k="ssr:stedsnr" v="287683" />
	</node>
	<node lat="66.7420083309917" lon="13.518202768666143" id="-10862">
		<tag k="name" v="Æsvika" />
		<tag k="place" v="farm" />
		<tag k="ssr:stedsnr" v="287935" />
	</node>
	<node lat="66.91410555161322" lon="13.092036121030555" id="-10868">
		<tag k="name" v="Kalsholmen" />
		<tag k="place" v="farm" />
		<tag k="ssr:stedsnr" v="288931" />
	</node>
	<node lat="66.71356416379294" lon="13.608804967856974" id="-10872">
		<tag k="alt_name" v="Sommarseth" />
		<tag k="fixme" v="consider place=hamlet" />
		<tag k="name" v="Sommarset" />
		<tag k="place" v="farm" />
		<tag k="ssr:stedsnr" v="319240" />
	</node>
	<node lat="66.75339166255773" lon="13.725383328641957" id="-10873">
		<tag k="name" v="Myra" />
		<tag k="place" v="farm" />
		<tag k="ssr:stedsnr" v="319289" />
	</node>
	<node lat="66.73152499880219" lon="13.842116671348894" id="-10882">
		<tag k="alt_name" v="Kvannålia" />
		<tag k="name" v="Kvanåli" />
		<tag k="place" v="farm" />
		<tag k="ssr:stedsnr" v="319486" />
	</node>
	<node lat="66.9139916666759" lon="13.682166663685408" id="-10898">
		<tag k="name" v="Rishaug" />
		<tag k="place" v="farm" />
		<tag k="ssr:stedsnr" v="468944" />
	</node>
	<node lat="66.79016388436165" lon="13.501211117407548" id="-10904">
		<tag k="name" v="Nordtun" />
		<tag k="place" v="hamlet" />
		<tag k="ssr:stedsnr" v="469353" />
	</node>
	<node lat="66.7263527825061" lon="13.43889165697257" id="-10905">
		<tag k="name" v="Granli" />
		<tag k="place" v="farm" />
		<tag k="ssr:stedsnr" v="469449" />
	</node>
	<node lat="66.8017472200444" lon="13.231141655242604" id="-10913">
		<tag k="name" v="Strand" />
		<tag k="place" v="farm" />
		<tag k="ssr:stedsnr" v="469700" />
	</node>
	<node lat="66.7713972266105" lon="13.607044440255315" id="-10917">
		<tag k="name" v="Vonheim" />
		<tag k="place" v="farm" />
		<tag k="ssr:stedsnr" v="469823" />
	</node>
	<node lat="66.81278908524014" lon="13.939438760480991" id="-10919">
		<tag k="alt_name" v="Haugvik" />
		<tag k="fixme" v="consider place=hamlet" />
		<tag k="name" v="Haugvika" />
		<tag k="place" v="farm" />
		<tag k="ssr:stedsnr" v="470026" />
	</node>
	<node lat="66.7428472212625" lon="13.572341662938825" id="-10923">
		<tag k="name" v="Skogmo" />
		<tag k="place" v="farm" />
		<tag k="ssr:stedsnr" v="469932" />
	</node>
	<node lat="66.7494749987941" lon="13.562949998021715" id="-10925">
		<tag k="name" v="Sørheim" />
		<tag k="place" v="farm" />
		<tag k="ssr:stedsnr" v="469950" />
	</node>
	<node lat="66.86264722473128" lon="13.741933322739209" id="-10932">
		<tag k="name" v="Moland" />
		<tag k="place" v="farm" />
		<tag k="ssr:stedsnr" v="470752" />
	</node>
	<node lat="66.78283888615397" lon="13.55679999815027" id="-10939">
		<tag k="name" v="Lavold" />
		<tag k="place" v="farm" />
		<tag k="ssr:stedsnr" v="347822" />
	</node>
	<node lat="66.75093610755356" lon="13.559997223399522" id="-10942">
		<tag k="name" v="Nymo" />
		<tag k="place" v="farm" />
		<tag k="ssr:stedsnr" v="347958" />
	</node>
	<node lat="66.86297778091323" lon="13.675258329726516" id="-10948">
		<tag k="name" v="Solheim" />
		<tag k="place" v="farm" />
		<tag k="ssr:stedsnr" v="348210" />
	</node>
	<node lat="66.82076666766515" lon="13.338383344432081" id="-10954">
		<tag k="name" v="Litl Herstrand" />
		<tag k="place" v="farm" />
		<tag k="ssr:stedsnr" v="348612" />
	</node>
	<node lat="66.81515277987529" lon="13.351827768933887" id="-10956">
		<tag k="name" v="Nybråten" />
		<tag k="place" v="farm" />
		<tag k="ssr:stedsnr" v="348618" />
	</node>
	<node lat="66.81929444601217" lon="13.415497230618044" id="-10964">
		<tag k="name" v="Meløysjøen" />
		<tag k="place" v="hamlet" />
		<tag k="ssr:stedsnr" v="380105" />
	</node>
	<node lat="66.81167221910879" lon="13.690949999563053" id="-10965">
		<tag k="name" v="Myrvoll" />
		<tag k="place" v="farm" />
		<tag k="ssr:stedsnr" v="380106" />
	</node>
	<node lat="66.80190833484296" lon="13.538461106781728" id="-10968">
		<tag k="name" v="Ørjosen" />
		<tag k="place" v="farm" />
		<tag k="ssr:stedsnr" v="380118" />
	</node>
	<node lat="66.74562777441493" lon="13.58922777717901" id="-10972">
		<tag k="name" v="Aspelund" />
		<tag k="place" v="farm" />
		<tag k="ssr:stedsnr" v="380180" />
	</node>
	<node lat="66.78112499910593" lon="13.347988888200135" id="-10974">
		<tag k="alt_name" v="Vikvoll" />
		<tag k="name" v="Vikvollen" />
		<tag k="place" v="farm" />
		<tag k="ssr:stedsnr" v="380060" />
	</node>
	<node lat="66.78428769415886" lon="13.355851849009495" id="-10975">
		<tag k="fixme" v="consider place=hamlet" />
		<tag k="name" v="Åmnes" />
		<tag k="place" v="farm" />
		<tag k="ssr:stedsnr" v="380062" />
	</node>
	<node lat="66.80979166343049" lon="13.936850009740137" id="-10998">
		<tag k="name" v="Glomfjord industripark" />
		<tag k="place" v="quarter" />
		<tag k="ssr:stedsnr" v="404905" />
	</node>
	<node lat="66.82173055705869" lon="13.350508323801042" id="-11010">
		<tag k="name" v="Stor-Herstrand" />
		<tag k="place" v="hamlet" />
		<tag k="ssr:stedsnr" v="409623" />
	</node>
	<node lat="66.73429722572018" lon="13.782041665650471" id="-11011">
		<tag k="name" v="Hølen" />
		<tag k="place" v="farm" />
		<tag k="ssr:stedsnr" v="409389" />
	</node>
	<node lat="66.94064999756736" lon="13.535797213640212" id="-11013">
		<tag k="name" v="Gåra" />
		<tag k="place" v="farm" />
		<tag k="ssr:stedsnr" v="409833" />
	</node>
	<node lat="66.76850833170543" lon="13.663119440693437" id="-11016">
		<tag k="alt_name" v="Kjelddal, yt" />
		<tag k="fixme" v="consider place=hamlet" />
		<tag k="name" v="Ytre Kjelddal" />
		<tag k="place" v="farm" />
		<tag k="ssr:stedsnr" v="441046" />
	</node>
	<node lat="66.81041245489516" lon="13.700429216108988" id="-11018">
		<tag k="fixme" v="consider place=hamlet" />
		<tag k="name" v="Sandvika" />
		<tag k="place" v="farm" />
		<tag k="ssr:stedsnr" v="441086" />
	</node>
	<node lat="66.72412143248954" lon="13.51459712977874" id="-11020">
		<tag k="alt_name" v="Korsvik" />
		<tag k="fixme" v="consider place=hamlet" />
		<tag k="name" v="Korsvika" />
		<tag k="place" v="farm" />
		<tag k="ssr:stedsnr" v="441215" />
	</node>
	<node lat="66.8027646893703" lon="13.538050820899995" id="-11022">
		<tag k="fixme" v="consider place=hamlet" />
		<tag k="name" v="Jenslund" />
		<tag k="place" v="farm" />
		<tag k="ssr:stedsnr" v="441111" />
	</node>
	<node lat="66.92156111193137" lon="13.626091670710531" id="-11035">
		<tag k="alt_name" v="Stormo" />
		<tag k="name" v="Stormoen" />
		<tag k="place" v="farm" />
		<tag k="ssr:stedsnr" v="441908" />
	</node>
	<node lat="66.83714166721887" lon="13.7720916656564" id="-11050">
		<tag k="amenity" v="school" />
		<tag k="name" v="Neverdal skole" />
		<tag k="ssr:stedsnr" v="469763" />
	</node>
	<node lat="66.8427250002036" lon="13.760263890709052" id="-11052">
		<tag k="name" v="Steingården" />
		<tag k="place" v="quarter" />
		<tag k="ssr:stedsnr" v="469766" />
	</node>
	<node lat="66.84394166290204" lon="13.757877769120457" id="-11053">
		<tag k="name" v="Sion" />
		<tag k="place" v="farm" />
		<tag k="ssr:stedsnr" v="469767" />
	</node>
	<node lat="66.77136666808637" lon="13.601547216353817" id="-11055">
		<tag k="name" v="Lundvoll" />
		<tag k="place" v="farm" />
		<tag k="ssr:stedsnr" v="469810" />
	</node>
	<node lat="66.80945277903288" lon="13.711077770023623" id="-11064">
		<tag k="name" v="Vestgård" />
		<tag k="place" v="farm" />
		<tag k="ssr:stedsnr" v="501103" />
	</node>
	<node lat="66.88240277388942" lon="13.723011101959568" id="-11068">
		<tag k="name" v="Åsmoen" />
		<tag k="place" v="farm" />
		<tag k="ssr:stedsnr" v="501134" />
	</node>
	<node lat="66.71442500103552" lon="13.663574995096639" id="-11075">
		<tag k="alt_name" v="Brasetvika" />
		<tag k="name" v="Brasetvik" />
		<tag k="place" v="farm" />
		<tag k="ssr:stedsnr" v="501227" />
	</node>
	<node lat="66.93748055336677" lon="13.575299998173042" id="-11083">
		<tag k="fixme" v="multiple name tags, choose one and add the other to alt_name" />
		<tag k="name" v="Steinvoll;Bolden" />
		<tag k="place" v="farm" />
		<tag k="ssr:stedsnr" v="501814" />
	</node>
	<node lat="66.84623102692684" lon="13.711910200687708" id="-11087">
		<tag k="alt_name" v="Borvik" />
		<tag k="fixme" v="consider place=hamlet" />
		<tag k="name" v="Borrvika" />
		<tag k="place" v="farm" />
		<tag k="ssr:stedsnr" v="501983" />
	</node>
	<node lat="66.82843344377125" lon="13.521294235593828" id="-11101">
		<tag k="alt_name" v="Risvika" />
		<tag k="fixme" v="consider place=hamlet" />
		<tag k="name" v="Risvik" />
		<tag k="place" v="farm" />
		<tag k="ssr:stedsnr" v="502983" />
	</node>
	<node lat="66.73238610847741" lon="13.908119450966261" id="-11103">
		<tag k="name" v="Myrvoll" />
		<tag k="place" v="farm" />
		<tag k="ssr:stedsnr" v="744450" />
	</node>
	<node lat="66.69420000023868" lon="13.829833324908165" id="-11104">
		<tag k="fixme" v="consider tourism=alpine_hut or tourism=chalet" />
		<tag k="name" v="Tåkeheimen" />
		<tag k="ssr:stedsnr" v="506778" />
		<tag k="tourism" v="wilderness_hut" />
	</node>
	<node lat="66.7427611118994" lon="13.640352773531353" id="-11133">
		<tag k="alt_name" v="Rødstø" />
		<tag k="name" v="Røyrstø" />
		<tag k="place" v="locality" />
		<tag k="ssr:stedsnr" v="684190" />
	</node>
	<node lat="66.93171111491566" lon="13.54682499505358" id="-11147">
		<tag k="fixme" v="consider place=hamlet" />
		<tag k="name" v="Øysund" />
		<tag k="place" v="farm" />
		<tag k="ssr:stedsnr" v="684860" />
	</node>
	<node lat="66.83747566139566" lon="13.56760496695928" id="-11152">
		<tag k="alt_name" v="Meløysund" />
		<tag k="fixme" v="consider place=hamlet" />
		<tag k="name" v="Meløysundet" />
		<tag k="place" v="farm" />
		<tag k="ssr:stedsnr" v="685000" />
	</node>
	<node lat="66.7748972238463" lon="13.54694723292351" id="-11161">
		<tag k="name" v="Osa mellem" />
		<tag k="place" v="farm" />
		<tag k="ssr:stedsnr" v="529825" />
	</node>
	<node lat="66.77330000330836" lon="13.551536120411079" id="-11164">
		<tag k="building" v="industrial" />
		<tag k="name" v="Osa sag" />
		<tag k="ssr:stedsnr" v="529832" />
	</node>
	<node lat="66.7354361125865" lon="13.584861103731276" id="-11182">
		<tag k="name" v="Nyrud" />
		<tag k="place" v="farm" />
		<tag k="ssr:stedsnr" v="561134" />
	</node>
	<node lat="66.91055833771627" lon="13.59640000518326" id="-11186">
		<tag k="name" v="Fore" />
		<tag k="place" v="isolated_dwelling" />
		<tag k="ssr:stedsnr" v="570503" />
	</node>
	<node lat="66.8600305533686" lon="13.63873055848925" id="-11189">
		<tag k="name" v="Mesøy" />
		<tag k="place" v="farm" />
		<tag k="ssr:stedsnr" v="578443" />
	</node>
	<node lat="66.9126581828041" lon="13.763621537981269" id="-11198">
		<tag k="name" v="Midttun" />
		<tag k="place" v="farm" />
		<tag k="ssr:stedsnr" v="590773" />
	</node>
	<node lat="66.74096388766104" lon="13.580502776158777" id="-11199">
		<tag k="name" v="Bråten" />
		<tag k="place" v="farm" />
		<tag k="ssr:stedsnr" v="590923" />
	</node>
	<node lat="66.91144444865759" lon="13.63028889227006" id="-11200">
		<tag k="amenity" v="school" />
		<tag k="name" v="Reipå skole" />
		<tag k="ssr:stedsnr" v="590853" />
	</node>
	<node lat="66.73094444377953" lon="13.757997214273228" id="-11204">
		<tag k="name" v="Skogli" />
		<tag k="place" v="farm" />
		<tag k="ssr:stedsnr" v="591368" />
	</node>
	<node lat="66.7556222223682" lon="13.557038879922375" id="-11208">
		<tag k="name" v="Storvika" />
		<tag k="place" v="farm" />
		<tag k="ssr:stedsnr" v="622006" />
	</node>
	<node lat="66.79487777760859" lon="14.100061118080513" id="-11229">
		<tag k="name" v="Nordre" />
		<tag k="place" v="isolated_dwelling" />
		<tag k="ssr:stedsnr" v="623327" />
	</node>
	<node lat="66.81958333239834" lon="13.40514721155341" id="-11236">
		<tag k="name" v="Småjord" />
		<tag k="place" v="farm" />
		<tag k="ssr:stedsnr" v="623972" />
	</node>
	<node lat="66.752391669161" lon="13.734974997306757" id="-11245">
		<tag k="name" v="Birkelund" />
		<tag k="place" v="farm" />
		<tag k="ssr:stedsnr" v="651303" />
	</node>
	<node lat="66.79773118799616" lon="13.506602028199275" id="-11259">
		<tag k="alt_name" v="Valla, øvre" />
		<tag k="fixme" v="consider place=hamlet" />
		<tag k="loc_name" v="Valla" />
		<tag k="name" v="Øvre Valla" />
		<tag k="place" v="farm" />
		<tag k="ssr:stedsnr" v="683110" />
	</node>
	<node lat="66.73258055638053" lon="13.928877781283855" id="-11268">
		<tag k="name" v="Storflaten" />
		<tag k="place" v="farm" />
		<tag k="ssr:stedsnr" v="683463" />
	</node>
	<node lat="66.73206666865977" lon="13.834508340420868" id="-11269">
		<tag k="name" v="Rabben" />
		<tag k="place" v="isolated_dwelling" />
		<tag k="ssr:stedsnr" v="683472" />
	</node>
	<node lat="66.876580556454" lon="13.599183340897952" id="-11272">
		<tag k="name" v="Solheim" />
		<tag k="place" v="farm" />
		<tag k="ssr:stedsnr" v="683900" />
	</node>
	<node lat="66.73101388691555" lon="13.758649991797084" id="-11280">
		<tag k="name" v="Storviknes" />
		<tag k="place" v="farm" />
		<tag k="ssr:stedsnr" v="684375" />
	</node>
	<node lat="66.78448055924825" lon="13.52939444530379" id="-11291">
		<tag k="name" v="Bakkemo" />
		<tag k="place" v="isolated_dwelling" />
		<tag k="ssr:stedsnr" v="692085" />
	</node>
	<node lat="66.81202778138838" lon="13.98040556118736" id="-11313">
		<tag k="name" v="Gjerdet boligfelt" />
		<tag k="place" v="quarter" />
		<tag k="ssr:stedsnr" v="895155" />
	</node>
	<node lat="66.86100555923356" lon="13.737088892340642" id="-11317">
		<tag k="name" v="Holmen" />
		<tag k="place" v="farm" />
		<tag k="ssr:stedsnr" v="895733" />
	</node>
	<node lat="66.69640833537329" lon="13.620252777824726" id="-11318">
		<tag k="name" v="Skoglund" />
		<tag k="place" v="farm" />
		<tag k="ssr:stedsnr" v="895902" />
	</node>
	<node lat="66.83732499807574" lon="13.770438894622133" id="-11323">
		<tag k="name" v="Neverdal boligfelt" />
		<tag k="place" v="quarter" />
		<tag k="ssr:stedsnr" v="707909" />
	</node>
	<node lat="66.87264166321644" lon="13.802494453796298" id="-11330">
		<tag k="name" v="Seterplassen" />
		<tag k="place" v="locality" />
		<tag k="ssr:stedsnr" v="712480" />
	</node>
	<node lat="66.91051944862069" lon="13.630430566951338" id="-11340">
		<tag k="name" v="Reipå boligfelt" />
		<tag k="place" v="quarter" />
		<tag k="ssr:stedsnr" v="726916" />
	</node>
	<node lat="66.77324721998401" lon="13.587424989527829" id="-11347">
		<tag k="name" v="Bråten" />
		<tag k="place" v="farm" />
		<tag k="ssr:stedsnr" v="744025" />
	</node>
	<node lat="66.78577777918755" lon="13.355252775738206" id="-11349">
		<tag k="landuse" v="aquaculture" />
		<tag k="name" v="Notsettet" />
		<tag k="ssr:stedsnr" v="744042" />
	</node>
	<node lat="66.79475833230428" lon="13.504386100351443" id="-11350">
		<tag k="name" v="Vallsjøen" />
		<tag k="place" v="farm" />
		<tag k="ssr:stedsnr" v="744049" />
	</node>
	<node lat="66.77839999802504" lon="13.337888889774792" id="-11351">
		<tag k="name" v="Breen" />
		<tag k="place" v="farm" />
		<tag k="ssr:stedsnr" v="744054" />
	</node>
	<node lat="66.72735740128381" lon="13.418887670757321" id="-11356">
		<tag k="fixme" v="consider place=hamlet" />
		<tag k="name" v="Åbotsvika" />
		<tag k="place" v="farm" />
		<tag k="ssr:stedsnr" v="744114" />
	</node>
	<node lat="66.74213333252881" lon="13.556363881693292" id="-11359">
		<tag k="name" v="Vollan" />
		<tag k="place" v="farm" />
		<tag k="ssr:stedsnr" v="744140" />
	</node>
	<node lat="66.71899702778617" lon="13.472549776185991" id="-11361">
		<tag k="name" v="Åg" />
		<tag k="place" v="farm" />
		<tag k="ssr:stedsnr" v="744177" />
	</node>
	<node lat="66.84650277697372" lon="13.750877782178305" id="-11366">
		<tag k="alt_name" v="Sandaa" />
		<tag k="fixme" v="consider place=hamlet" />
		<tag k="name" v="Sandåga" />
		<tag k="place" v="farm" />
		<tag k="ssr:stedsnr" v="744303" />
	</node>
	<node lat="66.73172777324675" lon="13.900761115973074" id="-11378">
		<tag k="name" v="Kilvik" />
		<tag k="place" v="hamlet" />
		<tag k="ssr:stedsnr" v="749809" />
	</node>
	<node lat="66.72109166274" lon="13.457091664131248" id="-11388">
		<tag k="name" v="Vollen" />
		<tag k="place" v="farm" />
		<tag k="ssr:stedsnr" v="771415" />
	</node>
	<node lat="66.7751777731482" lon="13.536886118413786" id="-11390">
		<tag k="name" v="Solheim" />
		<tag k="place" v="farm" />
		<tag k="ssr:stedsnr" v="772804" />
	</node>
	<node lat="66.71360277517205" lon="13.61117221370269" id="-11392">
		<tag k="name" v="Lillegård" />
		<tag k="place" v="farm" />
		<tag k="ssr:stedsnr" v="773171" />
	</node>
	<node lat="66.74606667007089" lon="13.564013880534441" id="-11401">
		<tag k="name" v="Jomyren" />
		<tag k="place" v="farm" />
		<tag k="ssr:stedsnr" v="773926" />
	</node>
	<node lat="66.91777499785684" lon="13.640105555340256" id="-11404">
		<tag k="name" v="Stormyra" />
		<tag k="place" v="farm" />
		<tag k="ssr:stedsnr" v="773829" />
	</node>
	<node lat="66.75498157065994" lon="13.687932757064702" id="-11410">
		<tag k="alt_name" v="Breidvika" />
		<tag k="fixme" v="consider place=hamlet" />
		<tag k="name" v="Breivika" />
=======
	<node id="-165676" lat="66.7505444431" lon="13.2747388882">
		<tag k="name" v="Vollvik" />
		<tag k="place" v="farm" />
		<tag k="ssr:stedsnr" v="865019" />
	</node>
	<node id="-165675" lat="66.7178527795" lon="13.4872027764">
		<tag k="name" v="Bukta" />
		<tag k="place" v="isolated_dwelling" />
		<tag k="ssr:stedsnr" v="866195" />
	</node>
	<node id="-163626" lat="66.7724326488" lon="13.6218927856">
		<tag k="fixme" v="consider place=hamlet" />
		<tag k="name" v="Oldra" />
		<tag k="place" v="farm" />
		<tag k="ssr:stedsnr" v="16025" />
	</node>
	<node id="-163625" lat="66.7506583349" lon="13.3438611066">
		<tag k="fixme" v="consider place=hamlet" />
		<tag k="name" v="Herstad" />
		<tag k="place" v="farm" />
		<tag k="ssr:stedsnr" v="16009" />
	</node>
	<node id="-163624" lat="66.7517916654" lon="13.3269361145">
		<tag k="alt_name" v="Olsvik" />
		<tag k="name" v="Olsvika" />
		<tag k="place" v="farm" />
		<tag k="ssr:stedsnr" v="16007" />
	</node>
	<node id="-163620" lat="66.7161361139" lon="13.4719333427">
		<tag k="name" v="Øverstua" />
		<tag k="place" v="farm" />
		<tag k="ssr:stedsnr" v="220436" />
	</node>
	<node id="-165665" lat="66.8004361108" lon="13.5419194362">
		<tag k="name" v="Sollund" />
		<tag k="place" v="farm" />
		<tag k="ssr:stedsnr" v="834773" />
	</node>
	<node id="-165662" lat="66.8131555538" lon="13.3474722141">
		<tag k="name" v="Sjøvoll" />
		<tag k="place" v="farm" />
		<tag k="ssr:stedsnr" v="834645" />
	</node>
	<node id="-165657" lat="66.8328250028" lon="13.3997833425">
		<tag k="leisure" v="pitch" />
		<tag k="name" v="Skagleira" />
		<tag k="ssr:stedsnr" v="834294" />
	</node>
	<node id="-165648" lat="66.7704027811" lon="13.5887444463">
		<tag k="name" v="Åsly" />
		<tag k="place" v="farm" />
		<tag k="ssr:stedsnr" v="833848" />
	</node>
	<node id="-165647" lat="66.7706916705" lon="13.5912944391">
		<tag k="name" v="Nyrud" />
		<tag k="place" v="farm" />
		<tag k="ssr:stedsnr" v="833836" />
	</node>
	<node id="-165642" lat="66.8466138917" lon="13.7389500082">
		<tag k="name" v="Eidbukt boligfelt" />
		<tag k="place" v="quarter" />
		<tag k="ssr:stedsnr" v="829910" />
	</node>
	<node id="-165638" lat="66.85010278" lon="13.7042111194">
		<tag k="name" v="Særvoll" />
		<tag k="place" v="farm" />
		<tag k="ssr:stedsnr" v="805933" />
	</node>
	<node id="-165637" lat="66.9084166625" lon="13.6745694472">
		<tag k="name" v="Frydenlund" />
		<tag k="place" v="farm" />
		<tag k="ssr:stedsnr" v="805929" />
	</node>
	<node id="-165634" lat="66.8816694465" lon="13.6755166597">
		<tag k="name" v="Mølnvika" />
		<tag k="place" v="farm" />
		<tag k="ssr:stedsnr" v="805912" />
	</node>
	<node id="-165631" lat="66.8785499988" lon="13.6057083438">
		<tag k="name" v="Haugen" />
		<tag k="place" v="farm" />
		<tag k="ssr:stedsnr" v="805902" />
	</node>
	<node id="-165627" lat="66.7508388913" lon="13.673263893">
		<tag k="name" v="Grønåsen" />
		<tag k="place" v="farm" />
		<tag k="ssr:stedsnr" v="805750" />
	</node>
	<node id="-165621" lat="66.9274662044" lon="13.6189222396">
		<tag k="fixme" v="consider place=hamlet" />
		<tag k="name" v="Dalen" />
		<tag k="place" v="farm" />
		<tag k="ssr:stedsnr" v="805854" />
	</node>
	<node id="-165619" lat="66.9342055521" lon="13.5478555542">
		<tag k="name" v="Øra" />
		<tag k="place" v="farm" />
		<tag k="ssr:stedsnr" v="805849" />
	</node>
	<node id="-165612" lat="66.7321444464" lon="13.8108499998">
		<tag k="name" v="Fagerli" />
		<tag k="place" v="farm" />
		<tag k="ssr:stedsnr" v="805508" />
	</node>
	<node id="-165602" lat="66.8573638926" lon="13.734550012">
		<tag k="alt_name" v="Spildra, nedre" />
		<tag k="fixme" v="consider place=hamlet" />
		<tag k="name" v="Nedre Spildra" />
		<tag k="place" v="farm" />
		<tag k="ssr:stedsnr" v="805360" />
	</node>
	<node id="-165599" lat="66.7307555662" lon="13.3906583129">
		<tag k="fixme" v="consider place=hamlet" />
		<tag k="name" v="Haugvika" />
		<tag k="place" v="farm" />
		<tag k="ssr:stedsnr" v="805123" />
	</node>
	<node id="-165584" lat="66.7670333293" lon="13.5510888775">
		<tag k="alt_name" v="Saura, øvre" />
		<tag k="loc_name" v="Saura" />
		<tag k="name" v="Øvre Saura" />
		<tag k="place" v="farm" />
		<tag k="ssr:stedsnr" v="805049" />
	</node>
	<node id="-165583" lat="66.7715944426" lon="13.6121055536">
		<tag k="name" v="Stranda" />
		<tag k="place" v="farm" />
		<tag k="ssr:stedsnr" v="805046" />
	</node>
	<node id="-165582" lat="66.7773944464" lon="13.5482750068">
		<tag k="name" v="Dalheim" />
		<tag k="place" v="farm" />
		<tag k="ssr:stedsnr" v="805035" />
	</node>
	<node id="-165578" lat="66.9177749979" lon="13.6401055553">
		<tag k="name" v="Stormyra" />
		<tag k="place" v="farm" />
		<tag k="ssr:stedsnr" v="773829" />
	</node>
	<node id="-165567" lat="66.7136027752" lon="13.6111722137">
		<tag k="name" v="Lillegård" />
		<tag k="place" v="farm" />
		<tag k="ssr:stedsnr" v="773171" />
	</node>
	<node id="-165563" lat="66.7558000028" lon="13.7746333281">
		<tag k="name" v="Søreng" />
		<tag k="place" v="farm" />
		<tag k="ssr:stedsnr" v="772837" />
	</node>
	<node id="-165562" lat="66.7690722223" lon="13.6651916611">
		<tag k="name" v="Angelsheim" />
		<tag k="place" v="farm" />
		<tag k="ssr:stedsnr" v="772646" />
	</node>
	<node id="-165556" lat="66.7210916627" lon="13.4570916641">
		<tag k="name" v="Vollen" />
		<tag k="place" v="farm" />
		<tag k="ssr:stedsnr" v="771415" />
	</node>
	<node id="-165554" lat="66.7791805558" lon="14.2898111139">
		<tag k="fixme" v="consider tourism=alpine_hut or tourism=chalet" />
		<tag k="name" v="Kvitsteindalsgammen" />
		<tag k="ssr:stedsnr" v="769182" />
		<tag k="tourism" v="wilderness_hut" />
	</node>
	<node id="-165550" lat="66.7721527741" lon="13.3312722139">
		<tag k="name" v="Enge" />
		<tag k="place" v="locality" />
		<tag k="ssr:stedsnr" v="764760" />
	</node>
	<node id="-165829" lat="66.877706095" lon="13.4530572444">
		<tag k="name" v="Gåsvær" />
		<tag k="place" v="locality" />
		<tag k="ssr:stedsnr" v="1074094" />
	</node>
	<node id="-165529" lat="66.9273583323" lon="13.5456722123">
		<tag k="name" v="Nerstranda" />
		<tag k="place" v="hamlet" />
		<tag k="ssr:stedsnr" v="744836" />
	</node>
	<node id="-165525" lat="66.8381769216" lon="13.620199343">
		<tag k="fixme" v="consider place=hamlet" />
		<tag k="name" v="Sildvika" />
		<tag k="place" v="farm" />
		<tag k="ssr:stedsnr" v="744989" />
	</node>
	<node id="-165519" lat="66.7323861085" lon="13.908119451">
		<tag k="name" v="Myrvoll" />
		<tag k="place" v="farm" />
		<tag k="ssr:stedsnr" v="744450" />
	</node>
	<node id="-165510" lat="66.7577941603" lon="13.7710365526">
		<tag k="fixme" v="consider place=hamlet" />
		<tag k="name" v="Bjærangen" />
		<tag k="place" v="farm" />
		<tag k="ssr:stedsnr" v="744245" />
	</node>
	<node id="-165508" lat="66.7189970278" lon="13.4725497762">
		<tag k="name" v="Åg" />
		<tag k="place" v="farm" />
		<tag k="ssr:stedsnr" v="744177" />
	</node>
	<node id="-165504" lat="66.7421333325" lon="13.5563638817">
		<tag k="name" v="Vollan" />
		<tag k="place" v="farm" />
		<tag k="ssr:stedsnr" v="744140" />
	</node>
	<node id="-165501" lat="66.7857777792" lon="13.3552527757">
		<tag k="landuse" v="aquaculture" />
		<tag k="name" v="Notsettet" />
		<tag k="ssr:stedsnr" v="744042" />
	</node>
	<node id="-165499" lat="66.77324722" lon="13.5874249895">
		<tag k="name" v="Bråten" />
		<tag k="place" v="farm" />
		<tag k="ssr:stedsnr" v="744025" />
	</node>
	<node id="-163775" lat="66.7538000046" lon="13.8327888849">
		<tag k="fixme" v="multiple name tags, choose one and add the other to alt_name" />
		<tag k="name" v="Gjerdasætra;Seter" />
		<tag k="place" v="locality" />
		<tag k="ssr:stedsnr" v="137259" />
	</node>
	<node id="-165494" lat="66.7527749983" lon="13.6308111054">
		<tag k="name" v="Bikset" />
		<tag k="place" v="farm" />
		<tag k="ssr:stedsnr" v="744002" />
	</node>
	<node id="-165488" lat="66.7800722261" lon="13.5539444433">
		<tag k="name" v="Fjeldset" />
		<tag k="place" v="farm" />
		<tag k="ssr:stedsnr" v="651799" />
	</node>
	<node id="-163773" lat="66.7225333321" lon="13.693913884">
		<tag k="alt_name" v="Skjerstøa" />
		<tag k="name" v="Skjerstøen" />
		<tag k="place" v="farm" />
		<tag k="ssr:stedsnr" v="137205" />
	</node>
	<node id="-165483" lat="66.9105388916" lon="13.7512916633">
		<tag k="name" v="Fredtun" />
		<tag k="place" v="farm" />
		<tag k="ssr:stedsnr" v="651779" />
	</node>
	<node id="-163772" lat="66.7917194467" lon="13.4997749908">
		<tag k="alt_name" v="Valla, nedre" />
		<tag k="fixme" v="consider place=hamlet" />
		<tag k="name" v="Nedre Valla" />
		<tag k="place" v="farm" />
		<tag k="ssr:stedsnr" v="137051" />
	</node>
	<node id="-165473" lat="66.7575361085" lon="13.7725388902">
		<tag k="name" v="Gjerdet" />
		<tag k="place" v="farm" />
		<tag k="ssr:stedsnr" v="651374" />
	</node>
	<node id="-165469" lat="66.8636555534" lon="13.7218472166">
		<tag k="name" v="Spildervika" />
		<tag k="place" v="farm" />
		<tag k="ssr:stedsnr" v="651251" />
	</node>
	<node id="-165467" lat="66.8742388896" lon="13.7092916696">
		<tag k="name" v="Skipperbyen boligfelt" />
		<tag k="place" v="quarter" />
		<tag k="ssr:stedsnr" v="651283" />
	</node>
	<node id="-165462" lat="66.7560055512" lon="13.8447083428">
		<tag k="name" v="Seter" />
		<tag k="place" v="locality" />
		<tag k="ssr:stedsnr" v="651052" />
	</node>
	<node id="-165452" lat="66.8187833364" lon="13.4152249913">
		<tag k="name" v="Sørsjøen" />
		<tag k="place" v="hamlet" />
		<tag k="ssr:stedsnr" v="647573" />
	</node>
	<node id="-165444" lat="66.8283222188" lon="13.4012749926">
		<tag k="alt_name" v="Dundermoen" />
		<tag k="name" v="Dundermo" />
		<tag k="place" v="farm" />
		<tag k="ssr:stedsnr" v="623985" />
	</node>
	<node id="-163766" lat="66.755549999" lon="13.3951833408">
		<tag k="alt_name" v="Skardet" />
		<tag k="fixme" v="consider place=hamlet" />
		<tag k="name" v="Skaret" />
		<tag k="place" v="farm" />
		<tag k="ssr:stedsnr" v="137005" />
	</node>
	<node id="-165441" lat="66.9097611073" lon="13.6113472184">
		<tag k="name" v="Bø" />
		<tag k="place" v="farm" />
		<tag k="ssr:stedsnr" v="623897" />
	</node>
	<node id="-163765" lat="66.7588105876" lon="13.6534577634">
		<tag k="alt_name" v="Hugvik" />
		<tag k="name" v="Haugvika" />
		<tag k="place" v="farm" />
		<tag k="ssr:stedsnr" v="137003" />
	</node>
	<node id="-165809" lat="66.7930622908" lon="13.7583912623">
		<tag k="name" v="Renndalen" />
		<tag k="place" v="farm" />
		<tag k="ssr:stedsnr" v="981251" />
	</node>
	<node id="-165807" lat="66.7833589165" lon="13.3633566703">
		<tag k="name" v="Åmnes" />
		<tag k="place" v="farm" />
		<tag k="ssr:stedsnr" v="981318" />
	</node>
	<node id="-165400" lat="66.7188998804" lon="13.5692246822">
		<tag k="alt_name" v="Skålsvik" />
		<tag k="fixme" v="consider place=hamlet" />
		<tag k="name" v="Skålsvika" />
		<tag k="place" v="farm" />
		<tag k="ssr:stedsnr" v="622235" />
	</node>
	<node id="-165395" lat="66.7272833378" lon="13.4141194435">
		<tag k="alt_name" v="Steinsland" />
		<tag k="name" v="Stensland" />
		<tag k="place" v="farm" />
		<tag k="ssr:stedsnr" v="622137" />
	</node>
	<node id="-165393" lat="66.7300194433" lon="13.3834527768">
		<tag k="name" v="Bekknes" />
		<tag k="place" v="farm" />
		<tag k="ssr:stedsnr" v="622135" />
	</node>
	<node id="-165382" lat="66.7556222224" lon="13.5570388799">
		<tag k="name" v="Storvika" />
		<tag k="place" v="farm" />
		<tag k="ssr:stedsnr" v="622006" />
	</node>
	<node id="-165381" lat="66.7326472239" lon="13.8789972255">
		<tag k="alt_name" v="Brattlia" />
		<tag k="name" v="Brattli" />
		<tag k="place" v="farm" />
		<tag k="ssr:stedsnr" v="622494" />
	</node>
	<node id="-165367" lat="66.7309444438" lon="13.7579972143">
		<tag k="name" v="Skogli" />
		<tag k="place" v="farm" />
		<tag k="ssr:stedsnr" v="591368" />
	</node>
	<node id="-165361" lat="66.9114444487" lon="13.6302888923">
		<tag k="amenity" v="school" />
		<tag k="name" v="Reipå skole" />
		<tag k="ssr:stedsnr" v="590853" />
	</node>
	<node id="-165355" lat="66.9379777816" lon="13.5312138892">
		<tag k="name" v="Strupen" />
		<tag k="place" v="farm" />
		<tag k="ssr:stedsnr" v="590833" />
	</node>
	<node id="-165354" lat="66.7844222183" lon="13.5320527883">
		<tag k="amenity" v="school" />
		<tag k="name" v="Enga skole" />
		<tag k="ssr:stedsnr" v="590800" />
	</node>
	<node id="-165353" lat="66.9126581828" lon="13.763621538">
		<tag k="name" v="Midttun" />
		<tag k="place" v="farm" />
		<tag k="ssr:stedsnr" v="590773" />
	</node>
	<node id="-165351" lat="66.7224805579" lon="13.5812083428">
		<tag k="name" v="Skålsviksetra" />
		<tag k="place" v="locality" />
		<tag k="ssr:stedsnr" v="590747" />
	</node>
	<node id="-165336" lat="66.7330305577" lon="13.3814416672">
		<tag k="name" v="Myrland" />
		<tag k="place" v="farm" />
		<tag k="ssr:stedsnr" v="590346" />
	</node>
	<node id="-165324" lat="66.8600305534" lon="13.6387305585">
		<tag k="name" v="Mesøy" />
		<tag k="place" v="farm" />
		<tag k="ssr:stedsnr" v="578443" />
	</node>
	<node id="-165319" lat="66.8403647163" lon="13.6675172144">
		<tag k="alt_name" v="Balset" />
		<tag k="fixme" v="consider place=hamlet" />
		<tag k="name" v="Ballset" />
		<tag k="place" v="farm" />
		<tag k="ssr:stedsnr" v="562978" />
	</node>
	<node id="-165318" lat="66.8272842096" lon="13.5104950323">
		<tag k="alt_name" v="Fagervik" />
		<tag k="fixme" v="consider place=hamlet" />
		<tag k="name" v="Fagervika" />
		<tag k="place" v="farm" />
		<tag k="ssr:stedsnr" v="562977" />
	</node>
	<node id="-165312" lat="66.853466667" lon="13.6643027776">
		<tag k="name" v="Litlhopen" />
		<tag k="place" v="farm" />
		<tag k="ssr:stedsnr" v="562949" />
	</node>
	<node id="-165295" lat="66.7324277745" lon="13.8647027685">
		<tag k="name" v="Flaten" />
		<tag k="place" v="farm" />
		<tag k="ssr:stedsnr" v="562492" />
	</node>
	<node id="-165294" lat="66.7338189769" lon="13.8088846604">
		<tag k="name" v="Fjellheim" />
		<tag k="place" v="farm" />
		<tag k="ssr:stedsnr" v="562491" />
	</node>
	<node id="-165291" lat="66.734594444" lon="13.7891555442">
		<tag k="name" v="Bergli" />
		<tag k="place" v="farm" />
		<tag k="ssr:stedsnr" v="562362" />
	</node>
	<node id="-165281" lat="66.7064888897" lon="13.4706583405">
		<tag k="alt_name" v="Bjørkenget" />
		<tag k="name" v="Bjørkeng" />
		<tag k="place" v="farm" />
		<tag k="ssr:stedsnr" v="562176" />
	</node>
	<node id="-165278" lat="66.9199388926" lon="13.6229527768">
		<tag k="name" v="Øde" />
		<tag k="place" v="farm" />
		<tag k="ssr:stedsnr" v="562890" />
	</node>
	<node id="-165276" lat="66.9098456157" lon="13.5738277667">
		<tag k="alt_name" v="Fore;Sørfore nedre" />
		<tag k="fixme" v="consider place=hamlet" />
		<tag k="name" v="Nedre Sørfore" />
		<tag k="place" v="farm" />
		<tag k="ssr:stedsnr" v="562880" />
	</node>
	<node id="-165274" lat="66.9151833307" lon="13.6697611027">
		<tag k="name" v="Teinhaug" />
		<tag k="place" v="farm" />
		<tag k="ssr:stedsnr" v="562873" />
	</node>
	<node id="-165265" lat="66.7123861109" lon="13.4711916591">
		<tag k="fixme" v="multiple name tags, choose one and add the other to alt_name" />
		<tag k="name" v="Heimgård;Vangstad" />
		<tag k="place" v="isolated_dwelling" />
		<tag k="ssr:stedsnr" v="561230" />
	</node>
	<node id="-165264" lat="66.7709166658" lon="13.63381389">
		<tag k="name" v="Åsjord" />
		<tag k="place" v="farm" />
		<tag k="ssr:stedsnr" v="561051" />
	</node>
	<node id="-165261" lat="66.7740111153" lon="13.5579055454">
		<tag k="name" v="Venset" />
		<tag k="place" v="farm" />
		<tag k="ssr:stedsnr" v="561038" />
	</node>
	<node id="-165258" lat="66.7354361126" lon="13.5848611037">
		<tag k="name" v="Nyrud" />
		<tag k="place" v="farm" />
		<tag k="ssr:stedsnr" v="561134" />
	</node>
	<node id="-165257" lat="66.752727781" lon="13.560180546">
		<tag k="name" v="Slettan" />
		<tag k="place" v="farm" />
		<tag k="ssr:stedsnr" v="561001" />
	</node>
	<node id="-165256" lat="66.7548416688" lon="13.7575472313">
		<tag k="name" v="Bjærangen" />
		<tag k="place" v="farm" />
		<tag k="ssr:stedsnr" v="540134" />
	</node>
	<node id="-165255" lat="66.7561083328" lon="13.7902555494">
		<tag k="name" v="Bjærangen" />
		<tag k="place" v="farm" />
		<tag k="ssr:stedsnr" v="540133" />
	</node>
	<node id="-165250" lat="66.9186111082" lon="13.6364861053">
		<tag k="name" v="Steinvei" />
		<tag k="place" v="farm" />
		<tag k="ssr:stedsnr" v="530847" />
	</node>
	<node id="-165248" lat="66.8534555538" lon="13.6965944546">
		<tag k="name" v="Vollvika" />
		<tag k="place" v="farm" />
		<tag k="ssr:stedsnr" v="530835" />
	</node>
	<node id="-165243" lat="66.7314833306" lon="13.4032000073">
		<tag k="name" v="Ytre Åbotsvik" />
		<tag k="place" v="hamlet" />
		<tag k="ssr:stedsnr" v="530369" />
	</node>
	<node id="-165225" lat="66.9309222251" lon="13.5519500027">
		<tag k="name" v="Luribakken" />
		<tag k="place" v="farm" />
		<tag k="ssr:stedsnr" v="409834" />
	</node>
	<node id="-165224" lat="66.9406499976" lon="13.5357972136">
		<tag k="name" v="Gåra" />
		<tag k="place" v="farm" />
		<tag k="ssr:stedsnr" v="409833" />
	</node>
	<node id="-165222" lat="66.9066749992" lon="13.6754527868">
		<tag k="name" v="Fredheim" />
		<tag k="place" v="farm" />
		<tag k="ssr:stedsnr" v="409761" />
	</node>
	<node id="-165216" lat="66.7998083303" lon="13.2153611009">
		<tag k="amenity" v="school" />
		<tag k="name" v="Bolga skole" />
		<tag k="ssr:stedsnr" v="409634" />
	</node>
	<node id="-165213" lat="66.8217305571" lon="13.3505083238">
		<tag k="name" v="Stor Herstrand" />
		<tag k="place" v="hamlet" />
		<tag k="ssr:stedsnr" v="409623" />
	</node>
	<node id="-165201" lat="66.7342972257" lon="13.7820416657">
		<tag k="name" v="Hølen" />
		<tag k="place" v="farm" />
		<tag k="ssr:stedsnr" v="409389" />
	</node>
	<node id="-165195" lat="66.7528916708" lon="13.7302416742">
		<tag k="name" v="Dale" />
>>>>>>> e1d4bc35ff8a6074a6f2e91616a996b547c36f15
		<tag k="place" v="farm" />
		<tag k="ssr:stedsnr" v="408316" />
	</node>
<<<<<<< HEAD
	<node lat="66.7307555662497" lon="13.390658312850055" id="-11419">
		<tag k="fixme" v="consider place=hamlet" />
		<tag k="name" v="Haugvika" />
		<tag k="place" v="farm" />
		<tag k="ssr:stedsnr" v="805123" />
	</node>
	<node lat="66.75030584920283" lon="13.67297879291854" id="-11420">
		<tag k="fixme" v="consider place=hamlet" />
		<tag k="name" v="Grønnåsen" />
		<tag k="place" v="farm" />
		<tag k="ssr:stedsnr" v="805159" />
	</node>
	<node lat="66.74700555292056" lon="13.617841667761013" id="-11421">
		<tag k="name" v="Åsvang" />
		<tag k="place" v="farm" />
		<tag k="ssr:stedsnr" v="805161" />
	</node>
	<node lat="66.77069167051634" lon="13.59129443910439" id="-11425">
		<tag k="name" v="Nyrud" />
		<tag k="place" v="farm" />
		<tag k="ssr:stedsnr" v="833836" />
	</node>
	<node lat="66.77040278108677" lon="13.588744446318193" id="-11426">
		<tag k="name" v="Åsly" />
		<tag k="place" v="farm" />
		<tag k="ssr:stedsnr" v="833848" />
	</node>
	<node lat="66.75291111309514" lon="13.297211111262438" id="-11428">
		<tag k="name" v="Stokkvika" />
		<tag k="place" v="farm" />
		<tag k="ssr:stedsnr" v="926016" />
	</node>
	<node lat="66.80765833049765" lon="13.714336107906767" id="-11432">
		<tag k="name" v="Østgård" />
		<tag k="place" v="farm" />
		<tag k="ssr:stedsnr" v="926099" />
	</node>
	<node lat="66.71843740723355" lon="13.527295208356596" id="-11437">
		<tag k="fixme" v="consider place=hamlet" />
		<tag k="name" v="Arhaug" />
=======
	<node id="-165189" lat="66.7515361129" lon="13.2850194456">
		<tag k="name" v="Bursvika" />
		<tag k="place" v="farm" />
		<tag k="ssr:stedsnr" v="401724" />
	</node>
	<node id="-165181" lat="66.8366886354" lon="13.3995128014">
		<tag k="fixme" v="consider place=hamlet" />
		<tag k="name" v="Skagen" />
		<tag k="place" v="farm" />
		<tag k="ssr:stedsnr" v="380994" />
	</node>
	<node id="-165153" lat="66.73293056" lon="13.7777944361">
		<tag k="name" v="Asplund" />
		<tag k="place" v="farm" />
		<tag k="ssr:stedsnr" v="380390" />
	</node>
	<node id="-165151" lat="66.8438721207" lon="13.7318159835">
		<tag k="alt_name" v="Eidbukta" />
		<tag k="fixme" v="consider place=hamlet" />
		<tag k="name" v="Eidbukt" />
		<tag k="place" v="farm" />
		<tag k="ssr:stedsnr" v="380378" />
	</node>
	<node id="-165145" lat="66.7135166653" lon="13.6307500004">
		<tag k="name" v="Bergset" />
		<tag k="old_name" v="Bergseth" />
		<tag k="place" v="farm" />
		<tag k="ssr:stedsnr" v="380246" />
	</node>
	<node id="-165141" lat="66.7456277744" lon="13.5892277772">
		<tag k="name" v="Aspelund" />
		<tag k="place" v="farm" />
		<tag k="ssr:stedsnr" v="380180" />
	</node>
	<node id="-165135" lat="66.8019083348" lon="13.5384611068">
		<tag k="name" v="Ørjosen" />
>>>>>>> e1d4bc35ff8a6074a6f2e91616a996b547c36f15
		<tag k="place" v="farm" />
		<tag k="ssr:stedsnr" v="380118" />
	</node>
<<<<<<< HEAD
	<node lat="66.71695000386686" lon="13.484311107337138" id="-11438">
		<tag k="name" v="Fredheim" />
		<tag k="place" v="farm" />
		<tag k="ssr:stedsnr" v="926231" />
	</node>
	<node lat="66.71250555659182" lon="13.708541675708085" id="-11440">
		<tag k="name" v="Engen" />
		<tag k="place" v="farm" />
		<tag k="ssr:stedsnr" v="926243" />
	</node>
	<node lat="66.73177221854941" lon="13.762233327349996" id="-11455">
		<tag k="alt_name" v="Storvika" />
		<tag k="name" v="Storvik" />
		<tag k="place" v="farm" />
		<tag k="ssr:stedsnr" v="927399" />
	</node>
	<node lat="66.90979444313494" lon="13.615802787200938" id="-11460">
		<tag k="name" v="Rydne" />
		<tag k="place" v="farm" />
		<tag k="ssr:stedsnr" v="927900" />
	</node>
	<node lat="66.82881110924652" lon="13.41332222260745" id="-11462">
		<tag k="alt_name" v="Tvenningan" />
		<tag k="name" v="Tvenningen" />
		<tag k="place" v="farm" />
		<tag k="ssr:stedsnr" v="927994" />
	</node>
	<node lat="66.73169166258168" lon="13.826791675314544" id="-11467">
		<tag k="amenity" v="school" />
		<tag k="name" v="Sneland skole" />
		<tag k="ssr:stedsnr" v="894176" />
	</node>
	<node lat="66.77791111551743" lon="13.5322888890979" id="-11479">
		<tag k="name" v="Engamo" />
		<tag k="place" v="farm" />
		<tag k="ssr:stedsnr" v="894830" />
	</node>
	<node lat="66.77757222463376" lon="13.453997215673699" id="-11485">
		<tag k="name" v="Nordhell" />
		<tag k="place" v="farm" />
		<tag k="ssr:stedsnr" v="926085" />
	</node>
	<node lat="66.86198608188747" lon="13.72441742985257" id="-11487">
		<tag k="alt_name" v="Spildra, øvre" />
		<tag k="fixme" v="consider place=hamlet" />
		<tag k="loc_name" v="Spildra" />
		<tag k="name" v="Øvre Spildra" />
		<tag k="place" v="farm" />
		<tag k="ssr:stedsnr" v="926362" />
	</node>
	<node lat="66.70755000217441" lon="13.720927772314827" id="-11490">
		<tag k="name" v="Engøyra" />
		<tag k="place" v="farm" />
		<tag k="ssr:stedsnr" v="926466" />
	</node>
	<node lat="66.88041944417043" lon="13.710024992050524" id="-11494">
		<tag k="name" v="Løvset" />
		<tag k="place" v="farm" />
		<tag k="ssr:stedsnr" v="926905" />
	</node>
	<node lat="66.84993333779254" lon="13.67772777839329" id="-11504">
		<tag k="name" v="Raudset" />
		<tag k="place" v="farm" />
		<tag k="ssr:stedsnr" v="927955" />
	</node>
	<node lat="66.74495555631488" lon="13.57175832850672" id="-11506">
		<tag k="name" v="Moan" />
		<tag k="place" v="isolated_dwelling" />
		<tag k="ssr:stedsnr" v="935076" />
	</node>
	<node lat="66.71744721766943" lon="13.486744451584329" id="-11512">
		<tag k="name" v="Bergland" />
		<tag k="place" v="farm" />
		<tag k="ssr:stedsnr" v="953417" />
	</node>
	<node lat="66.71752500236417" lon="13.473305551323794" id="-11513">
		<tag k="name" v="Nerstua" />
		<tag k="place" v="farm" />
		<tag k="ssr:stedsnr" v="953419" />
	</node>
	<node lat="66.77951389111323" lon="13.53855554937953" id="-11514">
		<tag k="name" v="Skogholt" />
		<tag k="place" v="farm" />
		<tag k="ssr:stedsnr" v="954815" />
	</node>
	<node lat="66.7744388867423" lon="13.542058326567664" id="-11515">
=======
	<node id="-165132" lat="66.8116722191" lon="13.6909499996">
		<tag k="name" v="Myrvoll" />
		<tag k="place" v="farm" />
		<tag k="ssr:stedsnr" v="380106" />
	</node>
	<node id="-165131" lat="66.819294446" lon="13.4154972306">
		<tag k="name" v="Meløysjøen" />
		<tag k="place" v="hamlet" />
		<tag k="ssr:stedsnr" v="380105" />
	</node>
	<node id="-165130" lat="66.8050833363" lon="13.2341861068">
		<tag k="fixme" v="consider place=suburb, village or hamlet" />
		<tag k="name" v="Bolga" />
		<tag k="place" v="quarter" />
		<tag k="ssr:stedsnr" v="380095" />
	</node>
	<node id="-165128" lat="66.7842876942" lon="13.355851849">
		<tag k="fixme" v="consider place=hamlet" />
		<tag k="name" v="Åmnes" />
		<tag k="place" v="farm" />
		<tag k="ssr:stedsnr" v="380062" />
	</node>
	<node id="-165127" lat="66.7811249991" lon="13.3479888882">
		<tag k="alt_name" v="Vikvoll" />
		<tag k="name" v="Vikvollen" />
		<tag k="place" v="farm" />
		<tag k="ssr:stedsnr" v="380060" />
	</node>
	<node id="-165122" lat="66.7666957149" lon="13.6696561561">
		<tag k="alt_name" v="Kjelddal, in;Kjelddal;Kildal" />
		<tag k="fixme" v="consider place=hamlet" />
		<tag k="name" v="Indre Kjelddal" />
		<tag k="place" v="farm" />
		<tag k="ssr:stedsnr" v="380046" />
	</node>
	<node id="-165120" lat="66.7565000025" lon="13.7676166579">
		<tag k="name" v="Bjærangen" />
		<tag k="place" v="farm" />
		<tag k="ssr:stedsnr" v="358133" />
	</node>
	<node id="-165119" lat="66.8520277803" lon="13.6748305553">
		<tag k="name" v="Nordre Raudset" />
		<tag k="place" v="farm" />
		<tag k="ssr:stedsnr" v="358127" />
	</node>
	<node id="-165114" lat="66.9385305568" lon="13.5673277872">
		<tag k="name" v="Linken" />
		<tag k="place" v="farm" />
		<tag k="ssr:stedsnr" v="348822" />
	</node>
	<node id="-165113" lat="66.84355833" lon="13.7602305529">
		<tag k="name" v="Nystad" />
		<tag k="place" v="farm" />
		<tag k="ssr:stedsnr" v="348729" />
	</node>
	<node id="-165109" lat="66.7756861114" lon="13.429058344">
		<tag k="name" v="Bjørklund" />
		<tag k="place" v="farm" />
		<tag k="ssr:stedsnr" v="348340" />
	</node>
	<node id="-165105" lat="66.7255499972" lon="13.4559777728">
		<tag k="name" v="Nordell" />
		<tag k="place" v="farm" />
		<tag k="ssr:stedsnr" v="348399" />
	</node>
	<node id="-165098" lat="66.7772250023" lon="13.5256694351">
		<tag k="name" v="Sletmo" />
		<tag k="place" v="farm" />
		<tag k="ssr:stedsnr" v="347843" />
	</node>
	<node id="-165751" lat="66.7744388867" lon="13.5420583266">
>>>>>>> e1d4bc35ff8a6074a6f2e91616a996b547c36f15
		<tag k="name" v="Nordgård" />
		<tag k="place" v="farm" />
		<tag k="ssr:stedsnr" v="954817" />
	</node>
<<<<<<< HEAD
	<node lat="66.7428379491084" lon="13.556182136842272" id="-11521">
		<tag k="fixme" v="consider place=hamlet" />
		<tag k="name" v="Halsa" />
		<tag k="place" v="farm" />
		<tag k="ssr:stedsnr" v="954942" />
	</node>
	<node lat="66.83085000285993" lon="13.402249995188205" id="-11528">
		<tag k="name" v="Bakken" />
		<tag k="place" v="farm" />
		<tag k="ssr:stedsnr" v="955291" />
	</node>
	<node lat="66.78365988889641" lon="13.3740098910788" id="-11534">
		<tag k="name" v="Åmnes" />
		<tag k="place" v="farm" />
		<tag k="ssr:stedsnr" v="981319" />
	</node>
	<node lat="66.78591731690028" lon="13.354476214078238" id="-11535">
		<tag k="name" v="Åmnes" />
		<tag k="place" v="farm" />
		<tag k="ssr:stedsnr" v="981320" />
	</node>
	<node lat="66.78223628152712" lon="13.350419490145612" id="-11536">
		<tag k="name" v="Haugen" />
		<tag k="place" v="farm" />
		<tag k="ssr:stedsnr" v="981321" />
	</node>
	<node lat="66.78065915173117" lon="13.371562382518366" id="-11537">
		<tag k="name" v="Åmnes" />
		<tag k="place" v="farm" />
		<tag k="ssr:stedsnr" v="981322" />
	</node>
	<node lat="66.78398562519949" lon="13.35820436691505" id="-11538">
		<tag k="name" v="Åmnes" />
		<tag k="place" v="farm" />
		<tag k="ssr:stedsnr" v="981323" />
	</node>
	<node lat="66.80095041976803" lon="13.77075010486999" id="-11539">
		<tag k="name" v="Rendal" />
		<tag k="place" v="farm" />
		<tag k="ssr:stedsnr" v="981219" />
	</node>
	<node lat="66.69575295200431" lon="13.69385809663895" id="-11549">
		<tag k="fixme" v="consider place=hamlet" />
		<tag k="name" v="Fonndalen" />
		<tag k="place" v="farm" />
		<tag k="ssr:stedsnr" v="16166" />
	</node>
	<node lat="66.69605000449288" lon="13.616899989766472" id="-11550">
		<tag k="alt_name" v="Slettnes" />
		<tag k="name" v="Slettneset" />
		<tag k="place" v="farm" />
		<tag k="ssr:stedsnr" v="16167" />
	</node>
	<node lat="66.70959828223899" lon="13.468372917875627" id="-11551">
		<tag k="name" v="Solvang" />
		<tag k="place" v="farm" />
		<tag k="ssr:stedsnr" v="16199" />
	</node>
	<node lat="66.80655278077555" lon="14.095052776744556" id="-11555">
		<tag k="alt_name" v="Navar, øvre" />
		<tag k="name" v="Øvre Navar" />
		<tag k="place" v="isolated_dwelling" />
		<tag k="ssr:stedsnr" v="16284" />
	</node>
	<node lat="66.83843842065824" lon="13.659866575780722" id="-11562">
		<tag k="fixme" v="consider place=hamlet" />
		<tag k="name" v="Ballsetvatnet" />
		<tag k="place" v="farm" />
		<tag k="ssr:stedsnr" v="16984" />
	</node>
	<node lat="66.82957499827337" lon="13.404730560437226" id="-11564">
		<tag k="name" v="Demma" />
		<tag k="place" v="farm" />
		<tag k="ssr:stedsnr" v="16988" />
	</node>
	<node lat="66.72458055125044" lon="13.684025000385882" id="-11585">
		<tag k="name" v="Brattland" />
		<tag k="place" v="farm" />
		<tag k="ssr:stedsnr" v="25441" />
	</node>
	<node lat="66.72450555545694" lon="13.432936113314522" id="-11593">
		<tag k="name" v="Nyrud" />
		<tag k="place" v="farm" />
		<tag k="ssr:stedsnr" v="44755" />
	</node>
	<node lat="66.91615832937725" lon="13.651180562260983" id="-11597">
		<tag k="name" v="Bakkemo" />
		<tag k="place" v="farm" />
		<tag k="ssr:stedsnr" v="44847" />
	</node>
	<node lat="66.73379999888577" lon="13.571805550705786" id="-11603">
		<tag k="name" v="Dalheim" />
		<tag k="place" v="farm" />
		<tag k="ssr:stedsnr" v="44922" />
	</node>
	<node lat="66.9145083319138" lon="13.712950009426114" id="-11608">
		<tag k="name" v="Solfall" />
		<tag k="place" v="farm" />
		<tag k="ssr:stedsnr" v="44966" />
	</node>
	<node lat="66.76705555774522" lon="13.535422215554657" id="-11630">
		<tag k="alt_name" v="Saura, nedre" />
		<tag k="name" v="Nedre Saura" />
		<tag k="place" v="farm" />
		<tag k="ssr:stedsnr" v="77047" />
	</node>
	<node lat="66.9071972235934" lon="13.79655278417531" id="-11633">
		<tag k="name" v="Vollen" />
		<tag k="place" v="locality" />
		<tag k="ssr:stedsnr" v="77133" />
	</node>
	<node lat="66.90606111428534" lon="13.718808331820474" id="-11638">
		<tag k="alt_name" v="Vassbakken" />
		<tag k="name" v="Vasshauet" />
		<tag k="place" v="farm" />
		<tag k="ssr:stedsnr" v="77182" />
	</node>
	<node lat="66.74773651814759" lon="13.533841616111832" id="-11639">
		<tag k="alt_name" v="Æsøy" />
		<tag k="fixme" v="consider place=hamlet" />
		<tag k="name" v="Esøya" />
		<tag k="place" v="farm" />
		<tag k="ssr:stedsnr" v="77184" />
	</node>
	<node lat="66.75376944741463" lon="13.800258323189732" id="-11641">
		<tag k="alt_name" v="Tverråga" />
		<tag k="name" v="Tverrå" />
		<tag k="place" v="farm" />
		<tag k="ssr:stedsnr" v="77296" />
	</node>
	<node lat="66.73398611529488" lon="13.783444449006675" id="-11643">
		<tag k="name" v="Brandsegg" />
		<tag k="place" v="farm" />
		<tag k="ssr:stedsnr" v="77395" />
	</node>
	<node lat="66.85928740190279" lon="13.637363604609817" id="-11661">
		<tag k="fixme" v="consider place=hamlet" />
		<tag k="name" v="Mesøy" />
		<tag k="place" v="farm" />
		<tag k="ssr:stedsnr" v="77959" />
	</node>
	<node lat="66.82594166339342" lon="13.411272219624296" id="-11664">
		<tag k="name" v="Steinvei" />
		<tag k="place" v="farm" />
		<tag k="ssr:stedsnr" v="77980" />
	</node>
	<node lat="66.82039444480262" lon="13.796411111020745" id="-11685">
		<tag k="name" v="Yttermarka" />
		<tag k="place" v="farm" />
		<tag k="ssr:stedsnr" v="105667" />
	</node>
	<node lat="66.7694138850644" lon="13.54816944195647" id="-11690">
		<tag k="name" v="Aspmo" />
		<tag k="place" v="farm" />
		<tag k="ssr:stedsnr" v="105824" />
	</node>
	<node lat="66.77439166816015" lon="13.539172219257999" id="-11691">
		<tag k="name" v="Grindskaret" />
		<tag k="place" v="farm" />
		<tag k="ssr:stedsnr" v="105825" />
	</node>
	<node lat="66.90776111458685" lon="13.57430556139994" id="-11701">
		<tag k="name" v="Bukta" />
		<tag k="place" v="farm" />
		<tag k="ssr:stedsnr" v="137866" />
	</node>
	<node lat="66.79171944672322" lon="13.499774990804044" id="-11707">
		<tag k="alt_name" v="Valla, nedre" />
		<tag k="fixme" v="consider place=hamlet" />
		<tag k="name" v="Nedre Valla" />
		<tag k="place" v="farm" />
		<tag k="ssr:stedsnr" v="137051" />
	</node>
	<node lat="66.91350118348026" lon="13.764959166011563" id="-11712">
		<tag k="alt_name" v="Marken" />
		<tag k="fixme" v="consider place=hamlet" />
		<tag k="name" v="Marka" />
		<tag k="place" v="farm" />
		<tag k="ssr:stedsnr" v="137135" />
	</node>
	<node lat="66.75380000456049" lon="13.832788884932107" id="-11720">
		<tag k="fixme" v="multiple name tags, choose one and add the other to alt_name" />
		<tag k="name" v="Gjerdasætra;Seter" />
		<tag k="place" v="locality" />
		<tag k="ssr:stedsnr" v="137259" />
	</node>
	<node lat="66.82059166685087" lon="13.356522217927898" id="-11749">
		<tag k="name" v="Arnestad" />
		<tag k="place" v="farm" />
		<tag k="ssr:stedsnr" v="137974" />
	</node>
	<node lat="66.8254527791392" lon="13.423566664721065" id="-11750">
		<tag k="alt_name" v="Dalbakken" />
		<tag k="name" v="Dalbakkan" />
		<tag k="place" v="farm" />
		<tag k="ssr:stedsnr" v="137981" />
	</node>
	<node lat="66.84788333352533" lon="13.753313887648817" id="-11755">
		<tag k="name" v="Sandå boligfelt" />
		<tag k="place" v="quarter" />
		<tag k="ssr:stedsnr" v="161894" />
	</node>
	<node lat="66.78128610927078" lon="13.530172229388576" id="-11759">
		<tag k="name" v="Breidablikk" />
		<tag k="place" v="farm" />
		<tag k="ssr:stedsnr" v="165839" />
	</node>
	<node lat="66.77086111164901" lon="13.546280561838252" id="-11760">
		<tag k="name" v="Osvang" />
		<tag k="place" v="farm" />
		<tag k="ssr:stedsnr" v="165847" />
	</node>
	<node lat="66.82795555150656" lon="13.472958334592132" id="-11763">
		<tag k="name" v="Kvitlia" />
		<tag k="place" v="farm" />
		<tag k="ssr:stedsnr" v="166273" />
	</node>
	<node lat="66.91473611314325" lon="13.675394450626106" id="-11768">
		<tag k="name" v="Fjellmo" />
		<tag k="place" v="farm" />
		<tag k="ssr:stedsnr" v="165964" />
	</node>
	<node lat="66.80115555352" lon="13.222180562624022" id="-11778">
		<tag k="name" v="Nystuen" />
		<tag k="place" v="farm" />
		<tag k="ssr:stedsnr" v="166674" />
	</node>
	<node lat="66.72424444055423" lon="13.45961388792882" id="-11781">
		<tag k="name" v="Nordeng" />
		<tag k="place" v="farm" />
		<tag k="ssr:stedsnr" v="166421" />
	</node>
	<node lat="66.69631666628216" lon="13.679622230556582" id="-11783">
		<tag k="name" v="Vesteng" />
		<tag k="place" v="farm" />
		<tag k="ssr:stedsnr" v="166452" />
	</node>
	<node lat="66.84639999880541" lon="13.74161111151669" id="-11785">
		<tag k="name" v="Nygård" />
		<tag k="place" v="hamlet" />
		<tag k="ssr:stedsnr" v="166733" />
	</node>
	<node lat="66.9101777775183" lon="13.746600001440731" id="-11790">
		<tag k="name" v="Marken" />
		<tag k="place" v="farm" />
		<tag k="ssr:stedsnr" v="166768" />
	</node>
	<node lat="66.92948889261316" lon="13.556455549629273" id="-11794">
		<tag k="name" v="Fjellheim" />
		<tag k="place" v="farm" />
		<tag k="ssr:stedsnr" v="166842" />
	</node>
	<node lat="66.8154166628703" lon="13.365283343773632" id="-11798">
		<tag k="name" v="Strand" />
		<tag k="place" v="farm" />
		<tag k="ssr:stedsnr" v="198089" />
	</node>
	<node lat="66.76277507540935" lon="13.464266668047102" id="-11803">
		<tag k="alt_name" v="Stamnes" />
		<tag k="fixme" v="consider place=hamlet" />
		<tag k="name" v="Stavnes" />
		<tag k="place" v="farm" />
		<tag k="ssr:stedsnr" v="198009" />
	</node>
	<node lat="66.75697777424354" lon="13.264447228832388" id="-11804">
		<tag k="alt_name" v="Nordhamna" />
		<tag k="name" v="Nordhamn" />
		<tag k="place" v="farm" />
		<tag k="ssr:stedsnr" v="198015" />
	</node>
	<node lat="66.77282499692396" lon="13.543847225053453" id="-11805">
		<tag k="alt_name" v="Osa" />
		<tag k="name" v="Osa indre" />
		<tag k="place" v="farm" />
		<tag k="ssr:stedsnr" v="198032" />
	</node>
	<node lat="66.71800969441996" lon="13.471242515809953" id="-11812">
		<tag k="fixme" v="consider place=hamlet" />
		<tag k="name" v="Åg" />
		<tag k="place" v="farm" />
		<tag k="ssr:stedsnr" v="198198" />
	</node>
	<node lat="66.80953611150825" lon="13.977249995789668" id="-11813">
		<tag k="alt_name" v="Glomen" />
		<tag k="fixme" v="consider place=hamlet" />
		<tag k="name" v="Glommen" />
		<tag k="place" v="farm" />
		<tag k="ssr:stedsnr" v="198284" />
	</node>
	<node lat="66.93959808078577" lon="13.532391859533599" id="-11819">
		<tag k="fixme" v="consider place=hamlet" />
		<tag k="name" v="Kunna" />
		<tag k="place" v="farm" />
		<tag k="ssr:stedsnr" v="198846" />
	</node>
	<node lat="66.9068555558297" lon="13.642763894310955" id="-11821">
		<tag k="name" v="Høgmo" />
		<tag k="place" v="farm" />
		<tag k="ssr:stedsnr" v="198938" />
	</node>
	<node lat="66.83944444779833" lon="13.413244440335294" id="-11823">
		<tag k="name" v="Nordstad" />
		<tag k="place" v="farm" />
		<tag k="ssr:stedsnr" v="198996" />
	</node>
	<node lat="66.80246944852077" lon="13.509788884737345" id="-11824">
		<tag k="name" v="Fokeng" />
		<tag k="place" v="isolated_dwelling" />
		<tag k="ssr:stedsnr" v="206378" />
	</node>
	<node lat="66.93742777588993" lon="13.560577776334707" id="-11827">
		<tag k="name" v="Kleiva" />
		<tag k="place" v="isolated_dwelling" />
		<tag k="ssr:stedsnr" v="206536" />
	</node>
	<node lat="66.71613611385447" lon="13.4719333427155" id="-11834">
		<tag k="name" v="Øverstua" />
		<tag k="place" v="farm" />
		<tag k="ssr:stedsnr" v="220436" />
	</node>
	<node lat="66.88140277415958" lon="13.67425278191334" id="-11837">
		<tag k="name" v="Mølnvika boligfelt" />
		<tag k="place" v="quarter" />
		<tag k="ssr:stedsnr" v="226312" />
	</node>
	<node lat="66.75298055971679" lon="13.568308344020235" id="-11842">
		<tag k="name" v="Myrvang" />
		<tag k="place" v="farm" />
		<tag k="ssr:stedsnr" v="226855" />
	</node>
	<node lat="66.83460833664385" lon="13.399930546017465" id="-11852">
		<tag k="name" v="Solhaug" />
		<tag k="place" v="farm" />
		<tag k="ssr:stedsnr" v="227305" />
	</node>
	<node lat="66.83763333473685" lon="13.65581665675532" id="-11866">
		<tag k="alt_name" v="Vatne" />
		<tag k="name" v="Vatnet" />
		<tag k="place" v="farm" />
		<tag k="ssr:stedsnr" v="227710" />
	</node>
	<node lat="66.91181667039379" lon="13.757486107297039" id="-11868">
		<tag k="name" v="Rydning" />
		<tag k="place" v="farm" />
		<tag k="ssr:stedsnr" v="227767" />
	</node>
	<node lat="66.75807778060765" lon="13.79436666951715" id="-11877">
		<tag k="name" v="Fjelltun" />
		<tag k="place" v="farm" />
		<tag k="ssr:stedsnr" v="287518" />
	</node>
	<node lat="66.83693611030533" lon="13.787369449225348" id="-11889">
		<tag k="name" v="Brennmoa" />
		<tag k="place" v="farm" />
		<tag k="ssr:stedsnr" v="287763" />
	</node>
	<node lat="66.83346944169814" lon="13.768344446507014" id="-11890">
		<tag k="name" v="Gulstad" />
		<tag k="place" v="farm" />
		<tag k="ssr:stedsnr" v="287764" />
	</node>
	<node lat="66.90853482013384" lon="13.622641469941346" id="-11892">
		<tag k="name" v="Reipåsjyen" />
		<tag k="place" v="locality" />
		<tag k="ssr:stedsnr" v="287865" />
	</node>
	<node lat="66.74639722054079" lon="13.568488890111066" id="-11893">
		<tag k="name" v="Nordmo" />
		<tag k="place" v="farm" />
		<tag k="ssr:stedsnr" v="287942" />
	</node>
	<node lat="66.90644166646574" lon="13.678688883638014" id="-11894">
		<tag k="name" v="Furuly" />
		<tag k="place" v="farm" />
		<tag k="ssr:stedsnr" v="287968" />
	</node>
	<node lat="66.81163055211228" lon="13.973616662732583" id="-11897">
		<tag k="name" v="Nerhylla boligfelt" />
		<tag k="place" v="quarter" />
		<tag k="ssr:stedsnr" v="288165" />
	</node>
	<node lat="66.90893889151396" lon="13.741297212039012" id="-11900">
		<tag k="alt_name" v="Nerenget" />
		<tag k="name" v="Nereng" />
		<tag k="place" v="farm" />
		<tag k="ssr:stedsnr" v="319182" />
	</node>
	<node lat="66.76659276828109" lon="13.294760563189115" id="-11901">
		<tag k="alt_name" v="Tinden" />
		<tag k="name" v="Tind" />
		<tag k="place" v="farm" />
		<tag k="ssr:stedsnr" v="319027" />
	</node>
	<node lat="66.80464167006903" lon="13.591002777476731" id="-11905">
		<tag k="name" v="Ytresjøen" />
		<tag k="place" v="farm" />
		<tag k="ssr:stedsnr" v="319123" />
	</node>
	<node lat="66.71398333684283" lon="13.47220556041247" id="-11908">
		<tag k="alt_name" v="Moen" />
		<tag k="name" v="Moa" />
		<tag k="place" v="farm" />
		<tag k="ssr:stedsnr" v="319225" />
	</node>
	<node lat="66.79699444803694" lon="13.502633322840015" id="-11911">
		<tag k="name" v="Landmarka" />
		<tag k="place" v="farm" />
		<tag k="ssr:stedsnr" v="319068" />
	</node>
	<node lat="66.77722500234773" lon="13.52566943511925" id="-11942">
		<tag k="name" v="Sletmo" />
		<tag k="place" v="farm" />
		<tag k="ssr:stedsnr" v="347843" />
	</node>
	<node lat="66.77568611144706" lon="13.429058343970043" id="-11946">
		<tag k="name" v="Bjørklund" />
		<tag k="place" v="farm" />
		<tag k="ssr:stedsnr" v="348340" />
	</node>
	<node lat="66.75520833205536" lon="13.646580561261747" id="-11947">
		<tag k="name" v="Myrvang" />
		<tag k="place" v="farm" />
		<tag k="ssr:stedsnr" v="348890" />
	</node>
	<node lat="66.7255499972192" lon="13.455977772803767" id="-11951">
		<tag k="name" v="Nordell" />
		<tag k="place" v="farm" />
		<tag k="ssr:stedsnr" v="348399" />
	</node>
	<node lat="66.84355832998246" lon="13.760230552932926" id="-11958">
		<tag k="name" v="Nystad" />
		<tag k="place" v="farm" />
		<tag k="ssr:stedsnr" v="348729" />
	</node>
	<node lat="66.9385305567744" lon="13.56732778719197" id="-11959">
		<tag k="name" v="Linken" />
		<tag k="place" v="farm" />
		<tag k="ssr:stedsnr" v="348822" />
	</node>
	<node lat="66.85202778030204" lon="13.674830555274282" id="-11962">
		<tag k="name" v="Nordre Raudset" />
		<tag k="place" v="farm" />
		<tag k="ssr:stedsnr" v="358127" />
	</node>
	<node lat="66.75650000248244" lon="13.767616657895802" id="-11963">
		<tag k="name" v="Bjærangen" />
		<tag k="place" v="farm" />
		<tag k="ssr:stedsnr" v="358133" />
	</node>
	<node lat="66.84387212068282" lon="13.731815983527367" id="-11966">
		<tag k="alt_name" v="Eidbukta" />
		<tag k="fixme" v="consider place=hamlet" />
		<tag k="name" v="Eidbukt" />
		<tag k="place" v="farm" />
		<tag k="ssr:stedsnr" v="380378" />
	</node>
	<node lat="66.73293055995893" lon="13.777794436110915" id="-11968">
		<tag k="name" v="Asplund" />
		<tag k="place" v="farm" />
		<tag k="ssr:stedsnr" v="380390" />
	</node>
	<node lat="66.76669571489485" lon="13.669656156115428" id="-11970">
		<tag k="alt_name" v="Kjelddal, in;Kjelddal;Kildal" />
		<tag k="fixme" v="consider place=hamlet" />
		<tag k="name" v="Indre Kjelddal" />
		<tag k="place" v="farm" />
		<tag k="ssr:stedsnr" v="380046" />
	</node>
	<node lat="66.80508333626261" lon="13.234186106836818" id="-11978">
		<tag k="fixme" v="consider place=suburb, village or hamlet" />
		<tag k="name" v="Bolga" />
		<tag k="place" v="quarter" />
		<tag k="ssr:stedsnr" v="380095" />
	</node>
	<node lat="66.71351666526463" lon="13.630750000378187" id="-11981">
		<tag k="name" v="Bergset" />
		<tag k="old_name" v="Bergseth" />
		<tag k="place" v="farm" />
		<tag k="ssr:stedsnr" v="380246" />
	</node>
	<node lat="66.83668863538892" lon="13.3995128014157" id="-11992">
		<tag k="fixme" v="consider place=hamlet" />
		<tag k="name" v="Skagen" />
		<tag k="place" v="farm" />
		<tag k="ssr:stedsnr" v="380994" />
	</node>
	<node lat="66.75153611293567" lon="13.285019445615887" id="-12003">
		<tag k="name" v="Bursvika" />
		<tag k="place" v="farm" />
		<tag k="ssr:stedsnr" v="401724" />
	</node>
	<node lat="66.75289167082744" lon="13.730241674228193" id="-12007">
		<tag k="name" v="Dale" />
		<tag k="place" v="farm" />
		<tag k="ssr:stedsnr" v="408316" />
	</node>
	<node lat="66.93092222506888" lon="13.55195000273878" id="-12017">
		<tag k="name" v="Luribakken" />
		<tag k="place" v="farm" />
		<tag k="ssr:stedsnr" v="409834" />
	</node>
	<node lat="66.79980833030763" lon="13.215361100913984" id="-12019">
		<tag k="amenity" v="school" />
		<tag k="name" v="Bolga skole" />
		<tag k="ssr:stedsnr" v="409634" />
	</node>
	<node lat="66.90667499920471" lon="13.675452786812732" id="-12023">
		<tag k="name" v="Fredheim" />
		<tag k="place" v="farm" />
		<tag k="ssr:stedsnr" v="409761" />
	</node>
	<node lat="66.91240833239631" lon="13.724700009415907" id="-12034">
		<tag k="name" v="Seterenga" />
		<tag k="place" v="farm" />
		<tag k="ssr:stedsnr" v="441167" />
	</node>
	<node lat="66.80576944087409" lon="13.596733341762059" id="-12037">
=======
	<node id="-165750" lat="66.7795138911" lon="13.5385555494">
		<tag k="name" v="Skogholt" />
		<tag k="place" v="farm" />
		<tag k="ssr:stedsnr" v="954815" />
	</node>
	<node id="-165054" lat="66.7315249988" lon="13.8421166713">
		<tag k="alt_name" v="Kvannålia" />
		<tag k="name" v="Kvanåli" />
		<tag k="place" v="farm" />
		<tag k="ssr:stedsnr" v="319486" />
	</node>
	<node id="-165045" lat="66.7533916626" lon="13.7253833286">
		<tag k="name" v="Myra" />
		<tag k="place" v="farm" />
		<tag k="ssr:stedsnr" v="319289" />
	</node>
	<node id="-165044" lat="66.7135641638" lon="13.6088049679">
		<tag k="alt_name" v="Sommarseth" />
		<tag k="fixme" v="consider place=hamlet" />
		<tag k="name" v="Sommarset" />
		<tag k="place" v="farm" />
		<tag k="ssr:stedsnr" v="319240" />
	</node>
	<node id="-165043" lat="66.7139833368" lon="13.4722055604">
		<tag k="alt_name" v="Moen" />
		<tag k="name" v="Moa" />
		<tag k="place" v="farm" />
		<tag k="ssr:stedsnr" v="319225" />
	</node>
	<node id="-165038" lat="66.7665927683" lon="13.2947605632">
		<tag k="alt_name" v="Tinden" />
		<tag k="name" v="Tind" />
		<tag k="place" v="farm" />
		<tag k="ssr:stedsnr" v="319027" />
	</node>
	<node id="-165037" lat="66.9089388915" lon="13.741297212">
		<tag k="alt_name" v="Nerenget" />
		<tag k="name" v="Nereng" />
		<tag k="place" v="farm" />
		<tag k="ssr:stedsnr" v="319182" />
	</node>
	<node id="-165031" lat="66.9374277759" lon="13.5605777763">
		<tag k="name" v="Kleiva" />
		<tag k="place" v="isolated_dwelling" />
		<tag k="ssr:stedsnr" v="206536" />
	</node>
	<node id="-165028" lat="66.8024694485" lon="13.5097888847">
		<tag k="name" v="Fokeng" />
		<tag k="place" v="isolated_dwelling" />
		<tag k="ssr:stedsnr" v="206378" />
	</node>
	<node id="-165026" lat="66.8394444478" lon="13.4132444403">
		<tag k="name" v="Nordstad" />
		<tag k="place" v="farm" />
		<tag k="ssr:stedsnr" v="198996" />
	</node>
	<node id="-165025" lat="66.8282214003" lon="13.48323534">
		<tag k="alt_name" v="Røsshagen" />
		<tag k="fixme" v="consider place=hamlet" />
		<tag k="name" v="Røshagen" />
		<tag k="place" v="farm" />
		<tag k="ssr:stedsnr" v="198981" />
	</node>
	<node id="-165024" lat="66.8212416694" lon="13.4021611066">
		<tag k="name" v="Nyheim" />
		<tag k="place" v="farm" />
		<tag k="ssr:stedsnr" v="198978" />
	</node>
	<node id="-165023" lat="66.8217194406" lon="13.3505499925">
		<tag k="name" v="Tukthuset" />
		<tag k="place" v="hamlet" />
		<tag k="ssr:stedsnr" v="198975" />
	</node>
	<node id="-165022" lat="66.9068555558" lon="13.6427638943">
		<tag k="name" v="Høgmo" />
		<tag k="place" v="farm" />
		<tag k="ssr:stedsnr" v="198938" />
	</node>
	<node id="-165019" lat="66.9163499999" lon="13.6598194525">
		<tag k="name" v="Solvang" />
		<tag k="place" v="farm" />
		<tag k="ssr:stedsnr" v="198894" />
	</node>
	<node id="-165011" lat="66.7319366802" lon="13.8162366539">
		<tag k="fixme" v="consider place=hamlet" />
		<tag k="name" v="Sneland" />
		<tag k="place" v="farm" />
		<tag k="ssr:stedsnr" v="198481" />
	</node>
	<node id="-165010" lat="66.7347861075" lon="13.884169445">
		<tag k="name" v="Moen" />
		<tag k="place" v="farm" />
		<tag k="ssr:stedsnr" v="198478" />
	</node>
	<node id="-165009" lat="66.7180096944" lon="13.4712425158">
		<tag k="fixme" v="consider place=hamlet" />
		<tag k="name" v="Åg" />
		<tag k="place" v="farm" />
		<tag k="ssr:stedsnr" v="198198" />
	</node>
	<node id="-165007" lat="66.694533334" lon="13.6010416773">
		<tag k="name" v="Odden" />
		<tag k="place" v="isolated_dwelling" />
		<tag k="ssr:stedsnr" v="198172" />
	</node>
	<node id="-165001" lat="66.8095361115" lon="13.9772499958">
		<tag k="alt_name" v="Glomen" />
		<tag k="fixme" v="consider place=hamlet" />
		<tag k="name" v="Glommen" />
		<tag k="place" v="farm" />
		<tag k="ssr:stedsnr" v="198284" />
	</node>
	<node id="-164998" lat="66.8154166629" lon="13.3652833438">
		<tag k="name" v="Strand" />
		<tag k="place" v="farm" />
		<tag k="ssr:stedsnr" v="198089" />
	</node>
	<node id="-164996" lat="66.7759881849" lon="13.3316902171">
		<tag k="alt_name" v="Kjørhaug" />
		<tag k="fixme" v="consider place=hamlet" />
		<tag k="name" v="Kjøråg" />
		<tag k="place" v="farm" />
		<tag k="ssr:stedsnr" v="198070" />
	</node>
	<node id="-164982" lat="66.9294888926" lon="13.5564555496">
		<tag k="name" v="Fjellheim" />
		<tag k="place" v="farm" />
		<tag k="ssr:stedsnr" v="166842" />
	</node>
	<node id="-164976" lat="66.7242444406" lon="13.4596138879">
		<tag k="name" v="Nordeng" />
		<tag k="place" v="farm" />
		<tag k="ssr:stedsnr" v="166421" />
	</node>
	<node id="-164972" lat="66.8463999988" lon="13.7416111115">
		<tag k="name" v="Nygård" />
		<tag k="place" v="hamlet" />
		<tag k="ssr:stedsnr" v="166733" />
	</node>
	<node id="-164971" lat="66.8305972191" lon="13.7713777791">
		<tag k="name" v="Kveldsol" />
		<tag k="place" v="farm" />
		<tag k="ssr:stedsnr" v="166725" />
	</node>
	<node id="-164963" lat="66.9147361131" lon="13.6753944506">
		<tag k="name" v="Fjellmo" />
		<tag k="place" v="farm" />
		<tag k="ssr:stedsnr" v="165964" />
	</node>
	<node id="-164962" lat="66.7708611116" lon="13.5462805618">
		<tag k="name" v="Osvang" />
		<tag k="place" v="farm" />
		<tag k="ssr:stedsnr" v="165847" />
	</node>
	<node id="-164961" lat="66.7812861093" lon="13.5301722294">
		<tag k="name" v="Breidablikk" />
		<tag k="place" v="farm" />
		<tag k="ssr:stedsnr" v="165839" />
	</node>
	<node id="-164960" lat="66.7763305554" lon="13.533402789">
		<tag k="name" v="Haugmo" />
		<tag k="place" v="farm" />
		<tag k="ssr:stedsnr" v="165835" />
	</node>
	<node id="-164957" lat="66.8769916672" lon="13.6874305471">
		<tag k="name" v="Torsvikskogen boligfelt" />
		<tag k="place" v="quarter" />
		<tag k="ssr:stedsnr" v="165270" />
	</node>
	<node id="-164955" lat="66.8478833335" lon="13.7533138876">
		<tag k="name" v="Sandå boligfelt" />
		<tag k="place" v="quarter" />
		<tag k="ssr:stedsnr" v="161894" />
	</node>
	<node id="-164950" lat="66.8179666653" lon="13.8030194509">
		<tag k="name" v="Vollbakken" />
		<tag k="place" v="isolated_dwelling" />
		<tag k="ssr:stedsnr" v="144245" />
	</node>
	<node id="-164946" lat="66.8254527791" lon="13.4235666647">
		<tag k="alt_name" v="Dalbakken" />
		<tag k="name" v="Dalbakkan" />
		<tag k="place" v="farm" />
		<tag k="ssr:stedsnr" v="137981" />
	</node>
	<node id="-164945" lat="66.8205916669" lon="13.3565222179">
		<tag k="name" v="Arnestad" />
		<tag k="place" v="farm" />
		<tag k="ssr:stedsnr" v="137974" />
	</node>
	<node id="-164940" lat="66.8520148969" lon="13.6996893116">
		<tag k="fixme" v="consider place=hamlet" />
		<tag k="name" v="Våtvika" />
		<tag k="place" v="farm" />
		<tag k="ssr:stedsnr" v="137931" />
	</node>
	<node id="-164938" lat="66.889466948" lon="13.6535902656">
		<tag k="alt_name" v="Stien" />
		<tag k="fixme" v="consider place=hamlet" />
		<tag k="name" v="Stigen" />
		<tag k="place" v="farm" />
		<tag k="ssr:stedsnr" v="137913" />
	</node>
	<node id="-164924" lat="66.9077611146" lon="13.5743055614">
		<tag k="name" v="Bukta" />
		<tag k="place" v="farm" />
		<tag k="ssr:stedsnr" v="137866" />
	</node>
	<node id="-164897" lat="66.8683294045" lon="13.7210889946">
		<tag k="fixme" v="consider place=hamlet" />
		<tag k="name" v="Djupvik" />
		<tag k="place" v="farm" />
		<tag k="ssr:stedsnr" v="106394" />
	</node>
	<node id="-164889" lat="66.7743916682" lon="13.5391722193">
		<tag k="name" v="Grindskaret" />
		<tag k="place" v="farm" />
		<tag k="ssr:stedsnr" v="105825" />
	</node>
	<node id="-164888" lat="66.7694138851" lon="13.548169442">
		<tag k="name" v="Aspmo" />
		<tag k="place" v="farm" />
		<tag k="ssr:stedsnr" v="105824" />
	</node>
	<node id="-164881" lat="66.827166665" lon="13.5140166646">
		<tag k="name" v="Lillevik" />
		<tag k="place" v="farm" />
		<tag k="ssr:stedsnr" v="105782" />
	</node>
	<node id="-164872" lat="66.8203944448" lon="13.796411111">
		<tag k="name" v="Yttermarka" />
		<tag k="place" v="farm" />
		<tag k="ssr:stedsnr" v="105667" />
	</node>
	<node id="-164869" lat="66.7297472244" lon="13.5547861201">
		<tag k="name" v="Skoglund" />
		<tag k="place" v="farm" />
		<tag k="ssr:stedsnr" v="105603" />
	</node>
	<node id="-164852" lat="66.8609138912" lon="13.6372638899">
		<tag k="name" v="Mesøy" />
		<tag k="place" v="farm" />
		<tag k="ssr:stedsnr" v="93419" />
	</node>
	<node id="-164847" lat="66.8259416634" lon="13.4112722196">
		<tag k="name" v="Steinvei" />
		<tag k="place" v="farm" />
		<tag k="ssr:stedsnr" v="77980" />
	</node>
	<node id="-164844" lat="66.8592874019" lon="13.6373636046">
		<tag k="fixme" v="consider place=hamlet" />
		<tag k="name" v="Mesøy" />
		<tag k="place" v="farm" />
		<tag k="ssr:stedsnr" v="77959" />
	</node>
	<node id="-164839" lat="66.8773114605" lon="13.6047080003">
		<tag k="alt_name" v="Teksmoen" />
		<tag k="fixme" v="consider place=hamlet" />
		<tag k="name" v="Teksmona" />
		<tag k="place" v="farm" />
		<tag k="ssr:stedsnr" v="77901" />
	</node>
	<node id="-164838" lat="66.8795745919" lon="13.6807222564">
		<tag k="fixme" v="consider place=hamlet" />
		<tag k="name" v="Torsvika" />
		<tag k="place" v="farm" />
		<tag k="ssr:stedsnr" v="77900" />
	</node>
	<node id="-164817" lat="66.7323805579" lon="13.8251111139">
		<tag k="fixme" v="multiple name tags, choose one and add the other to alt_name" />
		<tag k="name" v="Myra;Sletten" />
		<tag k="place" v="farm" />
		<tag k="ssr:stedsnr" v="77506" />
	</node>
	<node id="-164816" lat="66.735280555" lon="13.926880553">
		<tag k="name" v="Storjord" />
		<tag k="place" v="farm" />
		<tag k="ssr:stedsnr" v="77505" />
	</node>
	<node id="-164811" lat="66.7477365181" lon="13.5338416161">
		<tag k="alt_name" v="Æsøy" />
		<tag k="fixme" v="consider place=hamlet" />
		<tag k="name" v="Esøya" />
		<tag k="place" v="farm" />
		<tag k="ssr:stedsnr" v="77184" />
	</node>
	<node id="-164810" lat="66.9060611143" lon="13.7188083318">
		<tag k="alt_name" v="Vassbakken" />
		<tag k="name" v="Vasshauet" />
		<tag k="place" v="farm" />
		<tag k="ssr:stedsnr" v="77182" />
	</node>
	<node id="-165708" lat="66.7878055592" lon="14.0554555449">
		<tag k="alt_name" v="Nedre Navar" />
		<tag k="name" v="Navar, nedre" />
		<tag k="place" v="isolated_dwelling" />
		<tag k="ssr:stedsnr" v="866288" />
	</node>
	<node id="-164806" lat="66.9071972236" lon="13.7965527842">
		<tag k="name" v="Vollen" />
		<tag k="place" v="locality" />
		<tag k="ssr:stedsnr" v="77133" />
	</node>
	<node id="-164803" lat="66.8060888911" lon="13.6113638985">
		<tag k="name" v="Elvebakken" />
		<tag k="place" v="farm" />
		<tag k="ssr:stedsnr" v="77124" />
	</node>
	<node id="-164796" lat="66.7670555577" lon="13.5354222156">
		<tag k="alt_name" v="Saura, nedre" />
		<tag k="name" v="Nedre Saura" />
		<tag k="place" v="farm" />
		<tag k="ssr:stedsnr" v="77047" />
	</node>
	<node id="-164794" lat="66.7649333379" lon="13.6876944388">
		<tag k="name" v="Foravik" />
		<tag k="place" v="farm" />
		<tag k="ssr:stedsnr" v="77023" />
	</node>
	<node id="-164793" lat="66.7515055564" lon="13.3610555545">
		<tag k="name" v="Rydvang" />
		<tag k="place" v="farm" />
		<tag k="ssr:stedsnr" v="77009" />
	</node>
	<node id="-164792" lat="66.7524888861" lon="13.3158194484">
		<tag k="name" v="Ysvika" />
		<tag k="place" v="farm" />
		<tag k="ssr:stedsnr" v="77007" />
	</node>
	<node id="-164787" lat="66.7339861153" lon="13.783444449">
		<tag k="name" v="Brandsegg" />
		<tag k="place" v="farm" />
		<tag k="ssr:stedsnr" v="77395" />
	</node>
	<node id="-164785" lat="66.8344504206" lon="13.7754149546">
		<tag k="alt_name" v="Neverdalen" />
		<tag k="fixme" v="consider place=hamlet" />
		<tag k="name" v="Neverdal" />
		<tag k="place" v="farm" />
		<tag k="ssr:stedsnr" v="77370" />
	</node>
	<node id="-164784" lat="66.7537694474" lon="13.8002583232">
		<tag k="alt_name" v="Tverråga" />
		<tag k="name" v="Tverrå" />
		<tag k="place" v="farm" />
		<tag k="ssr:stedsnr" v="77296" />
	</node>
	<node id="-164779" lat="66.7447888871" lon="13.5619083334">
		<tag k="name" v="Bekkemoen" />
		<tag k="place" v="farm" />
		<tag k="ssr:stedsnr" v="45922" />
	</node>
	<node id="-163655" lat="66.7523361081" lon="13.7435749925">
		<tag k="name" v="Rystad" />
		<tag k="place" v="farm" />
		<tag k="ssr:stedsnr" v="226338" />
	</node>
	<node id="-164755" lat="66.9145083319" lon="13.7129500094">
		<tag k="name" v="Solfall" />
		<tag k="place" v="farm" />
		<tag k="ssr:stedsnr" v="44966" />
	</node>
	<node id="-164750" lat="66.7337999989" lon="13.5718055507">
		<tag k="name" v="Dalheim" />
		<tag k="place" v="farm" />
		<tag k="ssr:stedsnr" v="44922" />
	</node>
	<node id="-164745" lat="66.9161583294" lon="13.6511805623">
		<tag k="name" v="Bakkemo" />
		<tag k="place" v="farm" />
		<tag k="ssr:stedsnr" v="44847" />
	</node>
	<node id="-164738" lat="66.7245055555" lon="13.4329361133">
		<tag k="name" v="Nyrud" />
		<tag k="place" v="farm" />
		<tag k="ssr:stedsnr" v="44755" />
	</node>
	<node id="-164727" lat="66.7547666635" lon="13.2987611025">
		<tag k="name" v="Fjellmo" />
		<tag k="place" v="farm" />
		<tag k="ssr:stedsnr" v="36723" />
	</node>
	<node id="-164723" lat="66.7245805513" lon="13.6840250004">
		<tag k="name" v="Brattland" />
		<tag k="place" v="farm" />
		<tag k="ssr:stedsnr" v="25441" />
	</node>
	<node id="-164721" lat="66.7075527758" lon="13.720933324">
		<tag k="name" v="Svartisen" />
		<tag k="place" v="farm" />
		<tag k="ssr:stedsnr" v="21788" />
	</node>
	<node id="-164717" lat="66.9098749971" lon="13.6370166724">
		<tag k="fixme" v="consider place=suburb, village or hamlet" />
		<tag k="name" v="Reipå" />
		<tag k="place" v="quarter" />
		<tag k="ssr:stedsnr" v="16885" />
	</node>
	<node id="-164715" lat="66.9146638867" lon="13.7063055491">
		<tag k="name" v="Aspen" />
		<tag k="place" v="farm" />
		<tag k="ssr:stedsnr" v="16880" />
	</node>
	<node id="-164704" lat="66.8295749983" lon="13.4047305604">
		<tag k="name" v="Demma" />
		<tag k="place" v="farm" />
		<tag k="ssr:stedsnr" v="16988" />
	</node>
	<node id="-164702" lat="66.8384384207" lon="13.6598665758">
		<tag k="fixme" v="consider place=hamlet" />
		<tag k="name" v="Ballsetvatnet" />
		<tag k="place" v="farm" />
		<tag k="ssr:stedsnr" v="16984" />
	</node>
	<node id="-164700" lat="66.834277446" lon="13.5737628915">
		<tag k="fixme" v="consider place=hamlet" />
		<tag k="name" v="Skjerpa" />
		<tag k="place" v="farm" />
		<tag k="ssr:stedsnr" v="16981" />
	</node>
	<node id="-164694" lat="66.8650555558" lon="13.6761388933">
		<tag k="name" v="Valøya" />
		<tag k="place" v="farm" />
		<tag k="ssr:stedsnr" v="16945" />
	</node>
	<node id="-164684" lat="66.7328388867" lon="13.893424989">
		<tag k="alt_name" v="Kilvika" />
		<tag k="name" v="Kilvik" />
		<tag k="place" v="farm" />
		<tag k="ssr:stedsnr" v="16464" />
	</node>
	<node id="-164675" lat="66.8065527808" lon="14.0950527767">
		<tag k="alt_name" v="Navar, øvre" />
		<tag k="name" v="Øvre Navar" />
		<tag k="place" v="isolated_dwelling" />
		<tag k="ssr:stedsnr" v="16284" />
	</node>
	<node id="-164670" lat="66.7095416631" lon="13.4681277863">
		<tag k="name" v="Solvang" />
		<tag k="place" v="farm" />
		<tag k="ssr:stedsnr" v="16199" />
	</node>
	<node id="-164663" lat="66.7883277736" lon="13.505805564">
		<tag k="name" v="Tindvika" />
		<tag k="place" v="farm" />
		<tag k="ssr:stedsnr" v="16072" />
	</node>
	<node id="-164660" lat="66.6960500045" lon="13.6168999898">
		<tag k="alt_name" v="Slettnes" />
		<tag k="name" v="Slettneset" />
		<tag k="place" v="farm" />
		<tag k="ssr:stedsnr" v="16167" />
	</node>
	<node id="-164659" lat="66.695752952" lon="13.6938580966">
		<tag k="fixme" v="consider place=hamlet" />
		<tag k="name" v="Fonndalen" />
		<tag k="place" v="farm" />
		<tag k="ssr:stedsnr" v="16166" />
	</node>
	<node id="-164657" lat="66.8032848143" lon="13.7608486304">
		<tag k="name" v="Rendal" />
		<tag k="place" v="farm" />
		<tag k="ssr:stedsnr" v="981221" />
	</node>
	<node id="-164656" lat="66.8009504198" lon="13.7707501049">
		<tag k="name" v="Rendal" />
		<tag k="place" v="farm" />
		<tag k="ssr:stedsnr" v="981219" />
	</node>
	<node id="-164655" lat="66.7839856252" lon="13.3582043669">
		<tag k="name" v="Åmnes" />
		<tag k="place" v="farm" />
		<tag k="ssr:stedsnr" v="981323" />
	</node>
	<node id="-164654" lat="66.7806591517" lon="13.3715623825">
		<tag k="name" v="Åmnes" />
		<tag k="place" v="farm" />
		<tag k="ssr:stedsnr" v="981322" />
	</node>
	<node id="-164653" lat="66.7822362815" lon="13.3504194901">
		<tag k="name" v="Haugen" />
		<tag k="place" v="farm" />
		<tag k="ssr:stedsnr" v="981321" />
	</node>
	<node id="-164652" lat="66.7859173169" lon="13.3544762141">
		<tag k="name" v="Åmnes" />
		<tag k="place" v="farm" />
		<tag k="ssr:stedsnr" v="981320" />
	</node>
	<node id="-164651" lat="66.7836598889" lon="13.3740098911">
		<tag k="name" v="Åmnes" />
		<tag k="place" v="farm" />
		<tag k="ssr:stedsnr" v="981319" />
	</node>
	<node id="-164644" lat="66.8804194442" lon="13.7100249921">
		<tag k="name" v="Løvset" />
		<tag k="place" v="farm" />
		<tag k="ssr:stedsnr" v="926905" />
	</node>
	<node id="-164641" lat="66.716033335" lon="13.4741527696">
		<tag k="name" v="Mellastua" />
		<tag k="place" v="farm" />
		<tag k="ssr:stedsnr" v="948425" />
	</node>
	<node id="-164631" lat="66.9101027744" lon="13.7255611035">
		<tag k="name" v="Solhaug" />
		<tag k="place" v="farm" />
		<tag k="ssr:stedsnr" v="834966" />
	</node>
	<node id="-164630" lat="66.7468555557" lon="13.5879638963">
		<tag k="name" v="Halsa øst" />
		<tag k="place" v="farm" />
		<tag k="ssr:stedsnr" v="834922" />
	</node>
	<node id="-164629" lat="66.7420805577" lon="13.5779777696">
		<tag k="amenity" v="school" />
		<tag k="name" v="Halsa skole" />
		<tag k="ssr:stedsnr" v="834912" />
	</node>
	<node id="-164627" lat="66.732519446" lon="13.5665472134">
		<tag k="leisure" v="pitch" />
		<tag k="name" v="Halsa idrettsplass" />
		<tag k="ssr:stedsnr" v="834910" />
	</node>
	<node id="-164624" lat="66.713616664" lon="13.6571944548">
		<tag k="name" v="Lundli" />
		<tag k="place" v="farm" />
		<tag k="ssr:stedsnr" v="834408" />
	</node>
	<node id="-164616" lat="66.7324138848" lon="13.8620722258">
		<tag k="name" v="Reflaten" />
		<tag k="place" v="farm" />
		<tag k="ssr:stedsnr" v="834173" />
	</node>
	<node id="-164609" lat="66.7225446994" lon="13.4600587591">
		<tag k="alt_name" v="Enevik" />
		<tag k="fixme" v="consider place=hamlet" />
		<tag k="name" v="Engevik" />
		<tag k="place" v="farm" />
		<tag k="ssr:stedsnr" v="936463" />
	</node>
	<node id="-164607" lat="66.7449555563" lon="13.5717583285">
		<tag k="name" v="Moan" />
		<tag k="place" v="isolated_dwelling" />
		<tag k="ssr:stedsnr" v="935076" />
	</node>
	<node id="-165674" lat="66.697435156" lon="13.6373945863">
>>>>>>> e1d4bc35ff8a6074a6f2e91616a996b547c36f15
		<tag k="fixme" v="consider place=hamlet" />
		<tag k="name" v="Renndalsvika" />
		<tag k="place" v="farm" />
		<tag k="ssr:stedsnr" v="866173" />
	</node>
<<<<<<< HEAD
	<node lat="66.90991944180391" lon="13.646663891537814" id="-12055">
		<tag k="alt_name" v="Skardet" />
		<tag k="name" v="Skaret" />
		<tag k="place" v="farm" />
		<tag k="ssr:stedsnr" v="441896" />
	</node>
	<node lat="66.81908333740368" lon="13.349944444009452" id="-12065">
		<tag k="name" v="Herstranda" />
		<tag k="place" v="farm" />
		<tag k="ssr:stedsnr" v="441981" />
	</node>
	<node lat="66.75604896376773" lon="13.584558250566031" id="-12067">
		<tag k="fixme" v="consider place=hamlet" />
		<tag k="name" v="Halsosa" />
		<tag k="place" v="farm" />
		<tag k="ssr:stedsnr" v="501001" />
	</node>
	<node lat="66.75213610959918" lon="13.332686118859343" id="-12068">
		<tag k="alt_name" v="Herstadsjøen" />
		<tag k="name" v="Herstadsjyen" />
		<tag k="place" v="farm" />
		<tag k="ssr:stedsnr" v="501008" />
	</node>
	<node lat="66.76161944385747" lon="13.706502783907656" id="-12070">
		<tag k="name" v="Solbakken" />
		<tag k="place" v="farm" />
		<tag k="ssr:stedsnr" v="501021" />
	</node>
	<node lat="66.78161666992347" lon="13.536652770951582" id="-12072">
		<tag k="alt_name" v="Enga" />
		<tag k="name" v="Enga nedre" />
		<tag k="place" v="farm" />
		<tag k="ssr:stedsnr" v="501097" />
	</node>
	<node lat="66.77964722141536" lon="13.53421110700922" id="-12075">
		<tag k="alt_name" v="Engavågen" />
		<tag k="fixme" v="consider place=hamlet" />
		<tag k="name" v="Enga" />
		<tag k="place" v="village" />
		<tag k="ssr:stedsnr" v="501034" />
	</node>
	<node lat="66.77209166766318" lon="13.63056388557226" id="-12077">
		<tag k="alt_name" v="Isvolden" />
		<tag k="name" v="Isvollan" />
		<tag k="place" v="farm" />
		<tag k="ssr:stedsnr" v="501050" />
	</node>
	<node lat="66.9486916656163" lon="13.59793332541741" id="-12092">
		<tag k="alt_name" v="Kvarsset" />
		<tag k="name" v="Kvarset" />
		<tag k="place" v="isolated_dwelling" />
		<tag k="ssr:stedsnr" v="501845" />
	</node>
	<node lat="66.85736388702799" lon="13.708280561232552" id="-12095">
		<tag k="name" v="Spilderbukta" />
		<tag k="place" v="farm" />
		<tag k="ssr:stedsnr" v="501958" />
	</node>
	<node lat="66.90787222159275" lon="13.640369455671696" id="-12103">
		<tag k="alt_name" v="Moen" />
		<tag k="name" v="Moa" />
		<tag k="place" v="hamlet" />
		<tag k="ssr:stedsnr" v="502939" />
	</node>
	<node lat="66.73958055381726" lon="13.50733889222294" id="-12106">
		<tag k="alt_name" v="Forøya;Furøy" />
		<tag k="name" v="Forøy" />
		<tag k="place" v="farm" />
		<tag k="ssr:stedsnr" v="510087" />
	</node>
	<node lat="66.73148333064043" lon="13.403200007271582" id="-12120">
		<tag k="name" v="Ytre Åbotsvik" />
		<tag k="place" v="hamlet" />
		<tag k="ssr:stedsnr" v="530369" />
	</node>
	<node lat="66.80092777953149" lon="13.537536108821941" id="-12122">
		<tag k="name" v="Remma" />
		<tag k="place" v="farm" />
		<tag k="ssr:stedsnr" v="530770" />
	</node>
	<node lat="66.91109444186863" lon="13.75379165589759" id="-12123">
		<tag k="name" v="Lund" />
		<tag k="place" v="farm" />
		<tag k="ssr:stedsnr" v="530771" />
	</node>
	<node lat="66.91145833648277" lon="13.773377771488416" id="-12124">
		<tag k="name" v="Vivarli" />
		<tag k="place" v="farm" />
		<tag k="ssr:stedsnr" v="530772" />
	</node>
	<node lat="66.85345555384549" lon="13.696594454640195" id="-12127">
		<tag k="name" v="Vollvika" />
		<tag k="place" v="farm" />
		<tag k="ssr:stedsnr" v="530835" />
	</node>
	<node lat="66.90819722179566" lon="13.703505552762877" id="-12129">
		<tag k="name" v="Myreng" />
		<tag k="place" v="farm" />
		<tag k="ssr:stedsnr" v="530968" />
	</node>
	<node lat="66.91861110824102" lon="13.63648610525887" id="-12132">
		<tag k="name" v="Steinvei" />
		<tag k="place" v="farm" />
		<tag k="ssr:stedsnr" v="530847" />
	</node>
	<node lat="66.81241944299286" lon="13.976255564228632" id="-12133">
		<tag k="name" v="Øverhylla boligfelt" />
		<tag k="place" v="quarter" />
		<tag k="ssr:stedsnr" v="531166" />
	</node>
	<node lat="66.75610833280082" lon="13.790255549354528" id="-12134">
		<tag k="name" v="Bjærangen" />
		<tag k="place" v="farm" />
		<tag k="ssr:stedsnr" v="540133" />
	</node>
	<node lat="66.75484166879686" lon="13.757547231272886" id="-12135">
		<tag k="name" v="Bjærangen" />
		<tag k="place" v="farm" />
		<tag k="ssr:stedsnr" v="540134" />
	</node>
	<node lat="66.77401111530736" lon="13.557905545444402" id="-12136">
		<tag k="name" v="Venset" />
		<tag k="place" v="farm" />
		<tag k="ssr:stedsnr" v="561038" />
	</node>
	<node lat="66.77091666582193" lon="13.633813889985335" id="-12139">
		<tag k="name" v="Åsjord" />
		<tag k="place" v="farm" />
		<tag k="ssr:stedsnr" v="561051" />
	</node>
	<node lat="66.75272778095476" lon="13.560180546047963" id="-12143">
		<tag k="name" v="Slettan" />
		<tag k="place" v="farm" />
		<tag k="ssr:stedsnr" v="561001" />
	</node>
	<node lat="66.75149722658773" lon="13.338602768907615" id="-12144">
		<tag k="name" v="Hellberget" />
		<tag k="place" v="farm" />
		<tag k="ssr:stedsnr" v="561013" />
	</node>
	<node lat="66.79070278011979" lon="13.44552778732275" id="-12147">
		<tag k="fixme" v="consider place=hamlet" />
		<tag k="name" v="Grønnøya" />
		<tag k="place" v="farm" />
		<tag k="ssr:stedsnr" v="561102" />
	</node>
	<node lat="66.80475000286692" lon="13.225433337576863" id="-12148">
		<tag k="name" v="Vollan" />
		<tag k="place" v="farm" />
		<tag k="ssr:stedsnr" v="561105" />
	</node>
	<node lat="66.71238611089964" lon="13.471191659132314" id="-12151">
		<tag k="fixme" v="multiple name tags, choose one and add the other to alt_name" />
		<tag k="name" v="Heimgård;Vangstad" />
		<tag k="place" v="isolated_dwelling" />
		<tag k="ssr:stedsnr" v="561230" />
	</node>
	<node lat="66.70648888967715" lon="13.470658340453738" id="-12165">
		<tag k="alt_name" v="Bjørkenget" />
		<tag k="name" v="Bjørkeng" />
		<tag k="place" v="farm" />
		<tag k="ssr:stedsnr" v="562176" />
	</node>
	<node lat="66.7244055580057" lon="13.700863893413725" id="-12167">
		<tag k="fixme" v="consider place=hamlet" />
		<tag k="name" v="Holand" />
		<tag k="place" v="farm" />
		<tag k="ssr:stedsnr" v="562207" />
	</node>
	<node lat="66.73459444399204" lon="13.789155544185554" id="-12179">
		<tag k="name" v="Bergli" />
		<tag k="place" v="farm" />
		<tag k="ssr:stedsnr" v="562362" />
	</node>
	<node lat="66.73381897689471" lon="13.80888466044725" id="-12182">
		<tag k="name" v="Fjellheim" />
		<tag k="place" v="farm" />
		<tag k="ssr:stedsnr" v="562491" />
	</node>
	<node lat="66.73242777454513" lon="13.864702768501166" id="-12183">
		<tag k="name" v="Flaten" />
		<tag k="place" v="farm" />
		<tag k="ssr:stedsnr" v="562492" />
	</node>
	<node lat="66.90984561567731" lon="13.573827766668893" id="-12196">
		<tag k="alt_name" v="Fore;Sørfore nedre" />
		<tag k="fixme" v="consider place=hamlet" />
		<tag k="name" v="Nedre Sørfore" />
		<tag k="place" v="farm" />
		<tag k="ssr:stedsnr" v="562880" />
	</node>
	<node lat="66.91993889258187" lon="13.622952776800824" id="-12198">
		<tag k="name" v="Øde" />
		<tag k="place" v="farm" />
		<tag k="ssr:stedsnr" v="562890" />
	</node>
	<node lat="66.91518333073184" lon="13.669761102705786" id="-12209">
		<tag k="name" v="Teinhaug" />
		<tag k="place" v="farm" />
		<tag k="ssr:stedsnr" v="562873" />
	</node>
	<node lat="66.85346666697536" lon="13.664302777640788" id="-12213">
		<tag k="name" v="Litlhopen" />
		<tag k="place" v="farm" />
		<tag k="ssr:stedsnr" v="562949" />
	</node>
	<node lat="66.82728420959307" lon="13.51049503233682" id="-12215">
		<tag k="alt_name" v="Fagervik" />
		<tag k="fixme" v="consider place=hamlet" />
		<tag k="name" v="Fagervika" />
		<tag k="place" v="farm" />
		<tag k="ssr:stedsnr" v="562977" />
	</node>
	<node lat="66.84036471631437" lon="13.667517214356673" id="-12216">
		<tag k="alt_name" v="Balset" />
		<tag k="fixme" v="consider place=hamlet" />
		<tag k="name" v="Ballset" />
		<tag k="place" v="farm" />
		<tag k="ssr:stedsnr" v="562978" />
	</node>
	<node lat="66.73303055773656" lon="13.381441667211986" id="-12239">
		<tag k="name" v="Myrland" />
		<tag k="place" v="farm" />
		<tag k="ssr:stedsnr" v="590346" />
	</node>
	<node lat="66.72248055788017" lon="13.581208342827756" id="-12245">
		<tag k="name" v="Skålsviksetra" />
		<tag k="place" v="locality" />
		<tag k="ssr:stedsnr" v="590747" />
	</node>
	<node lat="66.9379777815638" lon="13.53121388917095" id="-12247">
		<tag k="name" v="Strupen" />
		<tag k="place" v="farm" />
		<tag k="ssr:stedsnr" v="590833" />
	</node>
	<node lat="66.78442221833974" lon="13.532052788347498" id="-12255">
		<tag k="amenity" v="school" />
		<tag k="name" v="Enga skole" />
		<tag k="ssr:stedsnr" v="590800" />
	</node>
	<node lat="66.7326472238667" lon="13.878997225540543" id="-12267">
		<tag k="alt_name" v="Brattlia" />
		<tag k="name" v="Brattli" />
		<tag k="place" v="farm" />
		<tag k="ssr:stedsnr" v="622494" />
	</node>
	<node lat="66.71889988041184" lon="13.569224682157222" id="-12271">
		<tag k="alt_name" v="Skålsvik" />
		<tag k="fixme" v="consider place=hamlet" />
		<tag k="name" v="Skålsvika" />
		<tag k="place" v="farm" />
		<tag k="ssr:stedsnr" v="622235" />
	</node>
	<node lat="66.73001944334086" lon="13.383452776760617" id="-12278">
		<tag k="name" v="Bekknes" />
		<tag k="place" v="farm" />
		<tag k="ssr:stedsnr" v="622135" />
	</node>
	<node lat="66.72728333775828" lon="13.414119443475622" id="-12280">
		<tag k="alt_name" v="Steinsland" />
		<tag k="name" v="Stensland" />
		<tag k="place" v="farm" />
		<tag k="ssr:stedsnr" v="622137" />
	</node>
	<node lat="66.90976110729784" lon="13.611347218384822" id="-12303">
		<tag k="name" v="Bø" />
		<tag k="place" v="farm" />
		<tag k="ssr:stedsnr" v="623897" />
	</node>
	<node lat="66.82832221884513" lon="13.401274992628117" id="-12304">
		<tag k="alt_name" v="Dundermoen" />
		<tag k="name" v="Dundermo" />
		<tag k="place" v="farm" />
		<tag k="ssr:stedsnr" v="623985" />
	</node>
	<node lat="66.93758333195966" lon="13.574777770451734" id="-12308">
		<tag k="name" v="Bolden" />
		<tag k="place" v="isolated_dwelling" />
		<tag k="ssr:stedsnr" v="631559" />
	</node>
	<node lat="66.81878333639588" lon="13.415224991347605" id="-12312">
		<tag k="name" v="Sørsjøen" />
		<tag k="place" v="hamlet" />
		<tag k="ssr:stedsnr" v="647573" />
	</node>
	<node lat="66.7560055512209" lon="13.84470834281936" id="-12317">
		<tag k="name" v="Seter" />
		<tag k="place" v="locality" />
		<tag k="ssr:stedsnr" v="651052" />
	</node>
	<node lat="66.86365555344689" lon="13.721847216569756" id="-12323">
		<tag k="name" v="Spildervika" />
		<tag k="place" v="farm" />
		<tag k="ssr:stedsnr" v="651251" />
	</node>
	<node lat="66.8742388895862" lon="13.709291669575583" id="-12328">
		<tag k="name" v="Skipperbyen boligfelt" />
		<tag k="place" v="quarter" />
		<tag k="ssr:stedsnr" v="651283" />
	</node>
	<node lat="66.7575361085135" lon="13.772538890152356" id="-12329">
		<tag k="name" v="Gjerdet" />
		<tag k="place" v="farm" />
		<tag k="ssr:stedsnr" v="651374" />
	</node>
	<node lat="66.91053889164525" lon="13.751291663312296" id="-12336">
		<tag k="name" v="Fredtun" />
		<tag k="place" v="farm" />
		<tag k="ssr:stedsnr" v="651779" />
	</node>
	<node lat="66.85749166858957" lon="13.722519446795863" id="-12342">
		<tag k="name" v="Megård" />
		<tag k="place" v="farm" />
		<tag k="ssr:stedsnr" v="651874" />
	</node>
	<node lat="66.78007222606088" lon="13.553944443273219" id="-12347">
		<tag k="name" v="Fjeldset" />
		<tag k="place" v="farm" />
		<tag k="ssr:stedsnr" v="651799" />
	</node>
	<node lat="66.92760833712187" lon="13.545419444084155" id="-12349">
		<tag k="name" v="Øisund" />
		<tag k="place" v="farm" />
		<tag k="ssr:stedsnr" v="662217" />
	</node>
	<node lat="66.78115833234493" lon="13.545894437991018" id="-12353">
		<tag k="name" v="Enga øvre" />
		<tag k="place" v="farm" />
		<tag k="ssr:stedsnr" v="711831" />
	</node>
	<node lat="66.78508611539243" lon="13.527083329977833" id="-12354">
		<tag k="name" v="Bakkelund" />
		<tag k="place" v="farm" />
		<tag k="ssr:stedsnr" v="711832" />
	</node>
	<node lat="66.79967499979146" lon="13.223433337381904" id="-12365">
		<tag k="name" v="Yttergården" />
		<tag k="place" v="farm" />
		<tag k="ssr:stedsnr" v="712660" />
	</node>
	<node lat="66.82576388615452" lon="13.359805552923605" id="-12369">
		<tag k="name" v="Fredvang" />
		<tag k="place" v="farm" />
		<tag k="ssr:stedsnr" v="712617" />
	</node>
	<node lat="66.90767222266369" lon="13.668961112148368" id="-12380">
		<tag k="name" v="Langmo" />
		<tag k="place" v="farm" />
		<tag k="ssr:stedsnr" v="712771" />
	</node>
	<node lat="66.7969361102631" lon="13.539144449295584" id="-12381">
		<tag k="name" v="Seteren" />
		<tag k="place" v="locality" />
		<tag k="ssr:stedsnr" v="712773" />
	</node>
	<node lat="66.75277499829906" lon="13.630811105379331" id="-12385">
		<tag k="name" v="Bikset" />
		<tag k="place" v="farm" />
		<tag k="ssr:stedsnr" v="744002" />
	</node>
	<node lat="66.75779416031625" lon="13.771036552634305" id="-12390">
		<tag k="fixme" v="consider place=hamlet" />
		<tag k="name" v="Bjærangen" />
		<tag k="place" v="farm" />
		<tag k="ssr:stedsnr" v="744245" />
	</node>
	<node lat="66.90959722096082" lon="13.619741657940635" id="-12403">
		<tag k="name" v="Heimland" />
		<tag k="place" v="farm" />
		<tag k="ssr:stedsnr" v="744877" />
	</node>
	<node lat="66.83817692158331" lon="13.620199342997635" id="-12410">
		<tag k="fixme" v="consider place=hamlet" />
		<tag k="name" v="Sildvika" />
		<tag k="place" v="farm" />
		<tag k="ssr:stedsnr" v="744989" />
	</node>
	<node lat="66.9273583323115" lon="13.545672212268816" id="-12414">
		<tag k="name" v="Nerstranda" />
		<tag k="place" v="hamlet" />
		<tag k="ssr:stedsnr" v="744836" />
	</node>
	<node lat="66.77215277407142" lon="13.331272213885567" id="-12430">
		<tag k="name" v="Enge" />
		<tag k="place" v="locality" />
		<tag k="ssr:stedsnr" v="764760" />
	</node>
	<node lat="66.77918055580764" lon="14.289811113863976" id="-12432">
		<tag k="fixme" v="consider tourism=alpine_hut or tourism=chalet" />
		<tag k="name" v="Kvitsteindalsgammen" />
		<tag k="ssr:stedsnr" v="769182" />
		<tag k="tourism" v="wilderness_hut" />
	</node>
	<node lat="66.93886666707216" lon="13.5347222151367" id="-12433">
		<tag k="name" v="Volden" />
		<tag k="place" v="farm" />
		<tag k="ssr:stedsnr" v="772853" />
	</node>
	<node lat="66.799433334971" lon="13.21977222327341" id="-12435">
		<tag k="name" v="Nygård" />
		<tag k="place" v="farm" />
		<tag k="ssr:stedsnr" v="773662" />
	</node>
	<node lat="66.76907222227953" lon="13.665191661104126" id="-12440">
		<tag k="name" v="Angelsheim" />
		<tag k="place" v="farm" />
		<tag k="ssr:stedsnr" v="772646" />
	</node>
	<node lat="66.75580000278255" lon="13.774633328050376" id="-12441">
		<tag k="name" v="Søreng" />
		<tag k="place" v="farm" />
		<tag k="ssr:stedsnr" v="772837" />
	</node>
	<node lat="66.75470833473258" lon="13.56962776747224" id="-12442">
		<tag k="name" v="Åsheim" />
		<tag k="place" v="farm" />
		<tag k="ssr:stedsnr" v="772950" />
	</node>
	<node lat="66.82454722598878" lon="13.400244450619022" id="-12449">
		<tag k="name" v="Skaret" />
		<tag k="place" v="farm" />
		<tag k="ssr:stedsnr" v="773276" />
	</node>
	<node lat="66.86384722071705" lon="13.743077772922968" id="-12456">
		<tag k="name" v="Jonsskogen" />
		<tag k="place" v="farm" />
		<tag k="ssr:stedsnr" v="773733" />
	</node>
	<node lat="66.77739444639461" lon="13.548275006752272" id="-12468">
		<tag k="name" v="Dalheim" />
		<tag k="place" v="farm" />
		<tag k="ssr:stedsnr" v="805035" />
	</node>
	<node lat="66.77122815855532" lon="13.595290918710715" id="-12469">
		<tag k="name" v="Stranda" />
		<tag k="place" v="farm" />
		<tag k="ssr:stedsnr" v="805046" />
	</node>
	<node lat="66.76703332933724" lon="13.551088877508276" id="-12470">
		<tag k="alt_name" v="Saura, øvre" />
		<tag k="loc_name" v="Saura" />
		<tag k="name" v="Øvre Saura" />
		<tag k="place" v="farm" />
		<tag k="ssr:stedsnr" v="805049" />
	</node>
	<node lat="66.85736389263744" lon="13.734550011961288" id="-12475">
		<tag k="alt_name" v="Spildra, nedre" />
		<tag k="fixme" v="consider place=hamlet" />
		<tag k="name" v="Nedre Spildra" />
		<tag k="place" v="farm" />
		<tag k="ssr:stedsnr" v="805360" />
	</node>
	<node lat="66.73214444639835" lon="13.810849999763422" id="-12485">
		<tag k="name" v="Fagerli" />
		<tag k="place" v="farm" />
		<tag k="ssr:stedsnr" v="805508" />
	</node>
	<node lat="66.87854999880747" lon="13.60570834378406" id="-12489">
		<tag k="name" v="Haugen" />
		<tag k="place" v="farm" />
		<tag k="ssr:stedsnr" v="805902" />
	</node>
	<node lat="66.8816694464699" lon="13.675516659713148" id="-12492">
		<tag k="name" v="Mølnvika" />
		<tag k="place" v="farm" />
		<tag k="ssr:stedsnr" v="805912" />
	</node>
	<node lat="66.90841666249558" lon="13.674569447155676" id="-12495">
		<tag k="name" v="Frydenlund" />
		<tag k="place" v="farm" />
		<tag k="ssr:stedsnr" v="805929" />
	</node>
	<node lat="66.75083889130899" lon="13.673263893026064" id="-12498">
		<tag k="name" v="Grønåsen" />
		<tag k="place" v="farm" />
		<tag k="ssr:stedsnr" v="805750" />
	</node>
	<node lat="66.93420555209043" lon="13.54785555420675" id="-12511">
		<tag k="name" v="Øra" />
		<tag k="place" v="farm" />
		<tag k="ssr:stedsnr" v="805849" />
	</node>
	<node lat="66.92746620435577" lon="13.618922239627194" id="-12513">
		<tag k="fixme" v="consider place=hamlet" />
		<tag k="name" v="Dalen" />
		<tag k="place" v="farm" />
		<tag k="ssr:stedsnr" v="805854" />
	</node>
	<node lat="66.85881388828318" lon="13.710091670385331" id="-12520">
		<tag k="alt_name" v="Korsneset" />
		<tag k="fixme" v="consider place=suburb, village or hamlet" />
		<tag k="name" v="Korsnes" />
		<tag k="place" v="quarter" />
		<tag k="ssr:stedsnr" v="805959" />
	</node>
	<node lat="66.87606539060599" lon="13.712101238395368" id="-12521">
		<tag k="alt_name" v="Mosvoll, øvre" />
		<tag k="fixme" v="consider place=hamlet" />
		<tag k="name" v="Øvre Mosvoll" />
		<tag k="place" v="farm" />
		<tag k="ssr:stedsnr" v="805962" />
	</node>
	<node lat="66.87733288511454" lon="13.703772775614885" id="-12522">
		<tag k="alt_name" v="Mosvoll, nedre" />
		<tag k="fixme" v="consider place=hamlet" />
		<tag k="name" v="Nedre Mosvoll" />
		<tag k="place" v="farm" />
		<tag k="ssr:stedsnr" v="805963" />
	</node>
	<node lat="66.85010278000269" lon="13.70421111943668" id="-12526">
		<tag k="name" v="Særvoll" />
		<tag k="place" v="farm" />
		<tag k="ssr:stedsnr" v="805933" />
	</node>
	<node lat="66.84661389172949" lon="13.738950008202087" id="-12530">
		<tag k="name" v="Eidbukt boligfelt" />
		<tag k="place" v="quarter" />
		<tag k="ssr:stedsnr" v="829910" />
	</node>
	<node lat="66.73241388482394" lon="13.862072225842324" id="-12540">
		<tag k="name" v="Reflaten" />
		<tag k="place" v="farm" />
		<tag k="ssr:stedsnr" v="834173" />
	</node>
	<node lat="66.83282500284723" lon="13.399783342480667" id="-12551">
		<tag k="leisure" v="pitch" />
		<tag k="name" v="Skagleira" />
		<tag k="ssr:stedsnr" v="834294" />
	</node>
	<node lat="66.71361666404714" lon="13.657194454849273" id="-12558">
		<tag k="name" v="Lundli" />
		<tag k="place" v="farm" />
		<tag k="ssr:stedsnr" v="834408" />
	</node>
	<node lat="66.81315555380566" lon="13.347472214078502" id="-12560">
		<tag k="name" v="Sjøvoll" />
=======
	<node id="-164601" lat="66.8288111092" lon="13.4133222226">
		<tag k="alt_name" v="Tvenningan" />
		<tag k="name" v="Tvenningen" />
		<tag k="place" v="farm" />
		<tag k="ssr:stedsnr" v="927994" />
	</node>
	<node id="-164600" lat="66.8499333378" lon="13.6777277784">
		<tag k="name" v="Raudset" />
		<tag k="place" v="farm" />
		<tag k="ssr:stedsnr" v="927955" />
	</node>
	<node id="-164598" lat="66.9097944431" lon="13.6158027872">
		<tag k="name" v="Rydne" />
		<tag k="place" v="farm" />
		<tag k="ssr:stedsnr" v="927900" />
	</node>
	<node id="-164587" lat="66.8773328851" lon="13.7037727756">
		<tag k="alt_name" v="Mosvoll, nedre" />
		<tag k="fixme" v="consider place=hamlet" />
		<tag k="name" v="Nedre Mosvoll" />
		<tag k="place" v="farm" />
		<tag k="ssr:stedsnr" v="805963" />
	</node>
	<node id="-164586" lat="66.8760653906" lon="13.7121012384">
		<tag k="alt_name" v="Mosvoll, øvre" />
		<tag k="fixme" v="consider place=hamlet" />
		<tag k="name" v="Øvre Mosvoll" />
		<tag k="place" v="farm" />
		<tag k="ssr:stedsnr" v="805962" />
	</node>
	<node id="-164585" lat="66.8588138883" lon="13.7100916704">
		<tag k="alt_name" v="Korsneset" />
		<tag k="fixme" v="consider place=suburb, village or hamlet" />
		<tag k="name" v="Korsnes" />
		<tag k="place" v="quarter" />
		<tag k="ssr:stedsnr" v="805959" />
	</node>
	<node id="-164578" lat="66.7470055529" lon="13.6178416678">
		<tag k="name" v="Åsvang" />
		<tag k="place" v="farm" />
		<tag k="ssr:stedsnr" v="805161" />
	</node>
	<node id="-164577" lat="66.7503058492" lon="13.6729787929">
		<tag k="fixme" v="consider place=hamlet" />
		<tag k="name" v="Grønnåsen" />
		<tag k="place" v="farm" />
		<tag k="ssr:stedsnr" v="805159" />
	</node>
	<node id="-164573" lat="66.7549815707" lon="13.6879327571">
		<tag k="alt_name" v="Breidvika" />
		<tag k="fixme" v="consider place=hamlet" />
		<tag k="name" v="Breivika" />
		<tag k="place" v="farm" />
		<tag k="ssr:stedsnr" v="805003" />
	</node>
	<node id="-164572" lat="66.7317722185" lon="13.7622333273">
		<tag k="alt_name" v="Storvika" />
		<tag k="name" v="Storvik" />
		<tag k="place" v="farm" />
		<tag k="ssr:stedsnr" v="927399" />
	</node>
	<node id="-164559" lat="66.7075500022" lon="13.7209277723">
		<tag k="name" v="Engøyra" />
		<tag k="place" v="farm" />
		<tag k="ssr:stedsnr" v="926466" />
	</node>
	<node id="-164556" lat="66.8619860819" lon="13.7244174299">
		<tag k="alt_name" v="Spildra, øvre" />
		<tag k="fixme" v="consider place=hamlet" />
		<tag k="loc_name" v="Spildra" />
		<tag k="name" v="Øvre Spildra" />
		<tag k="place" v="farm" />
		<tag k="ssr:stedsnr" v="926362" />
	</node>
	<node id="-164547" lat="66.7125055566" lon="13.7085416757">
		<tag k="name" v="Engen" />
		<tag k="place" v="farm" />
		<tag k="ssr:stedsnr" v="926243" />
	</node>
	<node id="-164546" lat="66.7169500039" lon="13.4843111073">
		<tag k="name" v="Fredheim" />
		<tag k="place" v="farm" />
		<tag k="ssr:stedsnr" v="926231" />
	</node>
	<node id="-164545" lat="66.7184374072" lon="13.5272952084">
		<tag k="fixme" v="consider place=hamlet" />
		<tag k="name" v="Arhaug" />
		<tag k="place" v="farm" />
		<tag k="ssr:stedsnr" v="926230" />
	</node>
	<node id="-164536" lat="66.8076583305" lon="13.7143361079">
		<tag k="name" v="Østgård" />
		<tag k="place" v="farm" />
		<tag k="ssr:stedsnr" v="926099" />
	</node>
	<node id="-164533" lat="66.7775722246" lon="13.4539972157">
		<tag k="name" v="Nordhell" />
		<tag k="place" v="farm" />
		<tag k="ssr:stedsnr" v="926085" />
	</node>
	<node id="-164530" lat="66.7529111131" lon="13.2972111113">
		<tag k="name" v="Stokkvika" />
		<tag k="place" v="farm" />
		<tag k="ssr:stedsnr" v="926016" />
	</node>
	<node id="-164521" lat="66.7460666701" lon="13.5640138805">
		<tag k="name" v="Jomyren" />
		<tag k="place" v="farm" />
		<tag k="ssr:stedsnr" v="773926" />
	</node>
	<node id="-164516" lat="66.799433335" lon="13.2197722233">
		<tag k="name" v="Nygård" />
		<tag k="place" v="farm" />
		<tag k="ssr:stedsnr" v="773662" />
	</node>
	<node id="-164513" lat="66.8638472207" lon="13.7430777729">
		<tag k="name" v="Jonsskogen" />
		<tag k="place" v="farm" />
		<tag k="ssr:stedsnr" v="773733" />
	</node>
	<node id="-164511" lat="66.824547226" lon="13.4002444506">
		<tag k="name" v="Skaret" />
		<tag k="place" v="farm" />
		<tag k="ssr:stedsnr" v="773276" />
	</node>
	<node id="-164506" lat="66.9388666671" lon="13.5347222151">
		<tag k="name" v="Volden" />
		<tag k="place" v="farm" />
		<tag k="ssr:stedsnr" v="772853" />
	</node>
	<node id="-164505" lat="66.7751777731" lon="13.5368861184">
		<tag k="name" v="Solheim" />
		<tag k="place" v="farm" />
		<tag k="ssr:stedsnr" v="772804" />
	</node>
	<node id="-164503" lat="66.7547083347" lon="13.5696277675">
		<tag k="name" v="Åsheim" />
		<tag k="place" v="farm" />
		<tag k="ssr:stedsnr" v="772950" />
	</node>
	<node id="-164501" lat="66.7317277732" lon="13.900761116">
		<tag k="name" v="Kilvik" />
		<tag k="place" v="hamlet" />
		<tag k="ssr:stedsnr" v="749809" />
	</node>
	<node id="-164497" lat="66.909597221" lon="13.6197416579">
		<tag k="name" v="Heimland" />
		<tag k="place" v="farm" />
		<tag k="ssr:stedsnr" v="744877" />
	</node>
	<node id="-164485" lat="66.846502777" lon="13.7508777822">
		<tag k="alt_name" v="Sandaa" />
		<tag k="fixme" v="consider place=hamlet" />
		<tag k="name" v="Sandåga" />
		<tag k="place" v="farm" />
		<tag k="ssr:stedsnr" v="744303" />
	</node>
	<node id="-164477" lat="66.778399998" lon="13.3378888898">
		<tag k="name" v="Breen" />
		<tag k="place" v="farm" />
		<tag k="ssr:stedsnr" v="744054" />
	</node>
	<node id="-164473" lat="66.7273574013" lon="13.4188876708">
		<tag k="fixme" v="consider place=hamlet" />
		<tag k="name" v="Åbotsvika" />
		<tag k="place" v="farm" />
		<tag k="ssr:stedsnr" v="744114" />
	</node>
	<node id="-164469" lat="66.6964083354" lon="13.6202527778">
		<tag k="name" v="Skoglund" />
		<tag k="place" v="farm" />
		<tag k="ssr:stedsnr" v="895902" />
	</node>
	<node id="-164468" lat="66.8610055592" lon="13.7370888923">
		<tag k="name" v="Holmen" />
		<tag k="place" v="farm" />
		<tag k="ssr:stedsnr" v="895733" />
	</node>
	<node id="-164462" lat="66.8120277814" lon="13.9804055612">
		<tag k="name" v="Gjerdet boligfelt" />
		<tag k="place" v="quarter" />
		<tag k="ssr:stedsnr" v="895155" />
	</node>
	<node id="-164449" lat="66.8257638862" lon="13.3598055529">
		<tag k="name" v="Fredvang" />
		<tag k="place" v="farm" />
		<tag k="ssr:stedsnr" v="712617" />
	</node>
	<node id="-164447" lat="66.7779111155" lon="13.5322888891">
		<tag k="name" v="Engamo" />
		<tag k="place" v="farm" />
		<tag k="ssr:stedsnr" v="894830" />
	</node>
	<node id="-164423" lat="66.7850861154" lon="13.52708333">
		<tag k="name" v="Bakkelund" />
		<tag k="place" v="farm" />
		<tag k="ssr:stedsnr" v="711832" />
	</node>
	<node id="-164422" lat="66.7811583323" lon="13.545894438">
		<tag k="name" v="Enga øvre" />
		<tag k="place" v="farm" />
		<tag k="ssr:stedsnr" v="711831" />
	</node>
	<node id="-164412" lat="66.8195833325" lon="13.4063305638">
		<tag k="name" v="Småjord" />
		<tag k="place" v="farm" />
		<tag k="ssr:stedsnr" v="894296" />
	</node>
	<node id="-164407" lat="66.7316916626" lon="13.8267916753">
		<tag k="amenity" v="school" />
		<tag k="name" v="Sneland skole" />
		<tag k="ssr:stedsnr" v="894176" />
	</node>
	<node id="-164402" lat="66.9085388907" lon="13.7176333383">
		<tag k="name" v="Seterenga" />
		<tag k="place" v="farm" />
		<tag k="ssr:stedsnr" v="889040" />
	</node>
	<node id="-164399" lat="66.813969445" lon="13.9721277814">
		<tag k="name" v="Bjerkelia boligfelt" />
		<tag k="place" v="quarter" />
		<tag k="ssr:stedsnr" v="886150" />
	</node>
	<node id="-164389" lat="66.7320666687" lon="13.8345083404">
		<tag k="name" v="Rabben" />
		<tag k="place" v="isolated_dwelling" />
		<tag k="ssr:stedsnr" v="683472" />
	</node>
	<node id="-164388" lat="66.7325805564" lon="13.9288777813">
		<tag k="name" v="Storflaten" />
		<tag k="place" v="farm" />
		<tag k="ssr:stedsnr" v="683463" />
	</node>
	<node id="-164374" lat="66.8574916686" lon="13.7225194468">
		<tag k="name" v="Megård" />
		<tag k="place" v="farm" />
		<tag k="ssr:stedsnr" v="651874" />
	</node>
	<node id="-164369" lat="66.7523916692" lon="13.7349749973">
		<tag k="name" v="Birkelund" />
		<tag k="place" v="farm" />
		<tag k="ssr:stedsnr" v="651303" />
	</node>
	<node id="-164365" lat="66.937583332" lon="13.5747777705">
		<tag k="name" v="Bolden" />
		<tag k="place" v="isolated_dwelling" />
		<tag k="ssr:stedsnr" v="631559" />
	</node>
	<node id="-164364" lat="66.9105194486" lon="13.630430567">
		<tag k="name" v="Reipå boligfelt" />
		<tag k="place" v="quarter" />
		<tag k="ssr:stedsnr" v="726916" />
	</node>
	<node id="-164363" lat="66.7948777776" lon="14.1000611181">
		<tag k="name" v="Nordre" />
		<tag k="place" v="isolated_dwelling" />
		<tag k="ssr:stedsnr" v="623327" />
	</node>
	<node id="-164348" lat="66.7969361103" lon="13.5391444493">
		<tag k="name" v="Seteren" />
		<tag k="place" v="locality" />
		<tag k="ssr:stedsnr" v="712773" />
	</node>
	<node id="-164347" lat="66.9076722227" lon="13.6689611121">
		<tag k="name" v="Langmo" />
		<tag k="place" v="farm" />
		<tag k="ssr:stedsnr" v="712771" />
	</node>
	<node id="-164346" lat="66.8726416632" lon="13.8024944538">
		<tag k="name" v="Seterplassen" />
		<tag k="place" v="locality" />
		<tag k="ssr:stedsnr" v="712480" />
	</node>
	<node id="-164342" lat="66.7996749998" lon="13.2234333374">
		<tag k="name" v="Yttergården" />
		<tag k="place" v="farm" />
		<tag k="ssr:stedsnr" v="712660" />
	</node>
	<node id="-164332" lat="66.7409638877" lon="13.5805027762">
		<tag k="name" v="Bråten" />
		<tag k="place" v="farm" />
		<tag k="ssr:stedsnr" v="590923" />
	</node>
	<node id="-164326" lat="66.8373249981" lon="13.7704388946">
		<tag k="name" v="Neverdal boligfelt" />
		<tag k="place" v="quarter" />
		<tag k="ssr:stedsnr" v="707909" />
	</node>
	<node id="-164324" lat="66.9105583377" lon="13.5964000052">
		<tag k="name" v="Fore" />
		<tag k="place" v="isolated_dwelling" />
		<tag k="ssr:stedsnr" v="570503" />
	</node>
	<node id="-164314" lat="66.724405558" lon="13.7008638934">
		<tag k="fixme" v="consider place=hamlet" />
		<tag k="name" v="Holand" />
		<tag k="place" v="farm" />
		<tag k="ssr:stedsnr" v="562207" />
	</node>
	<node id="-164302" lat="66.8047500029" lon="13.2254333376">
		<tag k="name" v="Vollan" />
		<tag k="place" v="farm" />
		<tag k="ssr:stedsnr" v="561105" />
	</node>
	<node id="-164301" lat="66.7907027801" lon="13.4455277873">
		<tag k="fixme" v="consider place=hamlet" />
		<tag k="name" v="Grønnøya" />
		<tag k="place" v="farm" />
		<tag k="ssr:stedsnr" v="561102" />
	</node>
	<node id="-164295" lat="66.7514972266" lon="13.3386027689">
		<tag k="name" v="Hellberget" />
		<tag k="place" v="farm" />
		<tag k="ssr:stedsnr" v="561013" />
	</node>
	<node id="-164293" lat="66.7844805592" lon="13.5293944453">
		<tag k="name" v="Bakkemo" />
		<tag k="place" v="isolated_dwelling" />
		<tag k="ssr:stedsnr" v="692085" />
	</node>
	<node id="-164290" lat="66.812419443" lon="13.9762555642">
		<tag k="name" v="Øverhylla boligfelt" />
		<tag k="place" v="quarter" />
		<tag k="ssr:stedsnr" v="531166" />
	</node>
	<node id="-164289" lat="66.9081972218" lon="13.7035055528">
		<tag k="name" v="Myreng" />
		<tag k="place" v="farm" />
		<tag k="ssr:stedsnr" v="530968" />
	</node>
	<node id="-164286" lat="66.9114583365" lon="13.7733777715">
		<tag k="name" v="Vivarli" />
		<tag k="place" v="farm" />
		<tag k="ssr:stedsnr" v="530772" />
	</node>
	<node id="-164285" lat="66.9110944419" lon="13.7537916559">
		<tag k="name" v="Lund" />
		<tag k="place" v="farm" />
		<tag k="ssr:stedsnr" v="530771" />
	</node>
	<node id="-164284" lat="66.8009277795" lon="13.5375361088">
		<tag k="name" v="Remma" />
		<tag k="place" v="farm" />
		<tag k="ssr:stedsnr" v="530770" />
	</node>
	<node id="-164276" lat="66.7733000033" lon="13.5515361204">
		<tag k="building" v="industrial" />
		<tag k="name" v="Osa sag" />
		<tag k="ssr:stedsnr" v="529832" />
	</node>
	<node id="-164273" lat="66.7748972238" lon="13.5469472329">
		<tag k="name" v="Osa mellem" />
		<tag k="place" v="farm" />
		<tag k="ssr:stedsnr" v="529825" />
	</node>
	<node id="-164269" lat="66.8374756614" lon="13.567604967">
		<tag k="alt_name" v="Meløysund" />
		<tag k="fixme" v="consider place=hamlet" />
		<tag k="name" v="Meløysundet" />
		<tag k="place" v="farm" />
		<tag k="ssr:stedsnr" v="685000" />
	</node>
	<node id="-164258" lat="66.9317111149" lon="13.5468249951">
		<tag k="fixme" v="consider place=hamlet" />
		<tag k="name" v="Øysund" />
		<tag k="place" v="farm" />
		<tag k="ssr:stedsnr" v="684860" />
	</node>
	<node id="-164250" lat="66.7310138869" lon="13.7586499918">
		<tag k="name" v="Storviknes" />
		<tag k="place" v="farm" />
		<tag k="ssr:stedsnr" v="684375" />
	</node>
	<node id="-164240" lat="66.7427611119" lon="13.6403527735">
		<tag k="alt_name" v="Rødstø" />
		<tag k="name" v="Røyrstø" />
		<tag k="place" v="locality" />
		<tag k="ssr:stedsnr" v="684190" />
	</node>
	<node id="-164236" lat="66.8765805565" lon="13.5991833409">
		<tag k="name" v="Solheim" />
		<tag k="place" v="farm" />
		<tag k="ssr:stedsnr" v="683900" />
	</node>
	<node id="-164221" lat="66.797731188" lon="13.5066020282">
		<tag k="alt_name" v="Valla, øvre" />
		<tag k="fixme" v="consider place=hamlet" />
		<tag k="loc_name" v="Valla" />
		<tag k="name" v="Øvre Valla" />
		<tag k="place" v="farm" />
		<tag k="ssr:stedsnr" v="683110" />
	</node>
	<node id="-164189" lat="66.809452779" lon="13.71107777">
		<tag k="name" v="Vestgård" />
		<tag k="place" v="farm" />
		<tag k="ssr:stedsnr" v="501103" />
	</node>
	<node id="-164181" lat="66.9276083371" lon="13.5454194441">
		<tag k="name" v="Øisund" />
		<tag k="place" v="farm" />
		<tag k="ssr:stedsnr" v="662217" />
	</node>
	<node id="-164180" lat="66.7947583323" lon="13.5043861004">
		<tag k="name" v="Vallsjøen" />
		<tag k="place" v="farm" />
		<tag k="ssr:stedsnr" v="744049" />
	</node>
	<node id="-164164" lat="66.7395805538" lon="13.5073388922">
		<tag k="alt_name" v="Forøya;Furøy" />
		<tag k="name" v="Forøy" />
		<tag k="place" v="farm" />
		<tag k="ssr:stedsnr" v="510087" />
	</node>
	<node id="-164159" lat="66.8097916634" lon="13.9368500097">
		<tag k="name" v="Glomfjord industripark" />
		<tag k="place" v="quarter" />
		<tag k="ssr:stedsnr" v="404905" />
	</node>
	<node id="-164157" lat="66.6942000002" lon="13.8298333249">
		<tag k="fixme" v="consider tourism=alpine_hut or tourism=chalet" />
		<tag k="name" v="Tåkeheimen" />
		<tag k="ssr:stedsnr" v="506778" />
		<tag k="tourism" v="wilderness_hut" />
	</node>
	<node id="-164152" lat="66.8284334438" lon="13.5212942356">
		<tag k="alt_name" v="Risvika" />
		<tag k="fixme" v="consider place=hamlet" />
		<tag k="name" v="Risvik" />
		<tag k="place" v="farm" />
		<tag k="ssr:stedsnr" v="502983" />
	</node>
	<node id="-164151" lat="66.9078722216" lon="13.6403694557">
		<tag k="alt_name" v="Moen" />
		<tag k="name" v="Moa" />
		<tag k="place" v="hamlet" />
		<tag k="ssr:stedsnr" v="502939" />
	</node>
	<node id="-164143" lat="66.9486916656" lon="13.5979333254">
		<tag k="alt_name" v="Kvarsset" />
		<tag k="name" v="Kvarset" />
		<tag k="place" v="isolated_dwelling" />
		<tag k="ssr:stedsnr" v="501845" />
	</node>
	<node id="-164141" lat="66.9374805534" lon="13.5752999982">
		<tag k="fixme" v="multiple name tags, choose one and add the other to alt_name" />
		<tag k="name" v="Bolden;Steinvoll" />
		<tag k="place" v="farm" />
		<tag k="ssr:stedsnr" v="501814" />
	</node>
	<node id="-164137" lat="66.8462310269" lon="13.7119102007">
		<tag k="alt_name" v="Borvik" />
		<tag k="fixme" v="consider place=hamlet" />
		<tag k="name" v="Borrvika" />
		<tag k="place" v="farm" />
		<tag k="ssr:stedsnr" v="501983" />
	</node>
	<node id="-164134" lat="66.857363887" lon="13.7082805612">
		<tag k="name" v="Spilderbukta" />
		<tag k="place" v="farm" />
		<tag k="ssr:stedsnr" v="501958" />
	</node>
	<node id="-164118" lat="66.714425001" lon="13.6635749951">
		<tag k="alt_name" v="Brasetvika" />
		<tag k="name" v="Brasetvik" />
		<tag k="place" v="farm" />
		<tag k="ssr:stedsnr" v="501227" />
	</node>
	<node id="-164115" lat="66.8824027739" lon="13.723011102">
		<tag k="name" v="Åsmoen" />
		<tag k="place" v="farm" />
		<tag k="ssr:stedsnr" v="501134" />
	</node>
	<node id="-164110" lat="66.7720916677" lon="13.6305638856">
		<tag k="alt_name" v="Isvolden" />
		<tag k="name" v="Isvollan" />
		<tag k="place" v="farm" />
		<tag k="ssr:stedsnr" v="501050" />
	</node>
	<node id="-164108" lat="66.7796472214" lon="13.534211107">
		<tag k="alt_name" v="Engavågen" />
		<tag k="fixme" v="consider place=hamlet" />
		<tag k="name" v="Enga" />
		<tag k="place" v="village" />
		<tag k="ssr:stedsnr" v="501034" />
	</node>
	<node id="-164106" lat="66.7816166699" lon="13.536652771">
		<tag k="alt_name" v="Enga" />
		<tag k="name" v="Enga nedre" />
		<tag k="place" v="farm" />
		<tag k="ssr:stedsnr" v="501097" />
	</node>
	<node id="-164101" lat="66.7616194439" lon="13.7065027839">
		<tag k="name" v="Solbakken" />
		<tag k="place" v="farm" />
		<tag k="ssr:stedsnr" v="501021" />
	</node>
	<node id="-164099" lat="66.7521361096" lon="13.3326861189">
		<tag k="alt_name" v="Herstadsjøen" />
		<tag k="name" v="Herstadsjyen" />
		<tag k="place" v="farm" />
		<tag k="ssr:stedsnr" v="501008" />
	</node>
	<node id="-164098" lat="66.7560489638" lon="13.5845582506">
		<tag k="fixme" v="consider place=hamlet" />
		<tag k="name" v="Halsosa" />
		<tag k="place" v="farm" />
		<tag k="ssr:stedsnr" v="501001" />
	</node>
	<node id="-164089" lat="66.8151527799" lon="13.3518277689">
		<tag k="name" v="Nybråten" />
		<tag k="place" v="farm" />
		<tag k="ssr:stedsnr" v="348618" />
	</node>
	<node id="-164087" lat="66.8207666677" lon="13.3383833444">
		<tag k="name" v="Litl Herstrand" />
		<tag k="place" v="farm" />
		<tag k="ssr:stedsnr" v="348612" />
	</node>
	<node id="-164081" lat="66.8629777809" lon="13.6752583297">
		<tag k="name" v="Solheim" />
		<tag k="place" v="farm" />
		<tag k="ssr:stedsnr" v="348210" />
	</node>
	<node id="-164079" lat="66.7509361076" lon="13.5599972234">
		<tag k="name" v="Nymo" />
		<tag k="place" v="farm" />
		<tag k="ssr:stedsnr" v="347958" />
	</node>
	<node id="-164075" lat="66.7828388862" lon="13.5567999982">
		<tag k="name" v="Lavold" />
		<tag k="place" v="farm" />
		<tag k="ssr:stedsnr" v="347822" />
	</node>
	<node id="-164063" lat="66.8046416701" lon="13.5910027775">
		<tag k="name" v="Ytresjøen" />
		<tag k="place" v="farm" />
		<tag k="ssr:stedsnr" v="319123" />
	</node>
	<node id="-164059" lat="66.796994448" lon="13.5026333228">
		<tag k="name" v="Landmarka" />
		<tag k="place" v="farm" />
		<tag k="ssr:stedsnr" v="319068" />
	</node>
	<node id="-164057" lat="66.8626472247" lon="13.7419333227">
		<tag k="name" v="Moland" />
		<tag k="place" v="farm" />
		<tag k="ssr:stedsnr" v="470752" />
	</node>
	<node id="-164046" lat="66.8127890852" lon="13.9394387605">
		<tag k="alt_name" v="Haugvik" />
		<tag k="fixme" v="consider place=hamlet" />
		<tag k="name" v="Haugvika" />
		<tag k="place" v="farm" />
		<tag k="ssr:stedsnr" v="470026" />
	</node>
	<node id="-164045" lat="66.7494749988" lon="13.562949998">
		<tag k="name" v="Sørheim" />
		<tag k="place" v="farm" />
		<tag k="ssr:stedsnr" v="469950" />
	</node>
	<node id="-164043" lat="66.7428472213" lon="13.5723416629">
		<tag k="name" v="Skogmo" />
>>>>>>> e1d4bc35ff8a6074a6f2e91616a996b547c36f15
		<tag k="place" v="farm" />
		<tag k="ssr:stedsnr" v="469932" />
	</node>
<<<<<<< HEAD
	<node lat="66.80043611083617" lon="13.541919436249973" id="-12570">
		<tag k="name" v="Sollund" />
		<tag k="place" v="farm" />
		<tag k="ssr:stedsnr" v="834773" />
	</node>
	<node lat="66.73251944600094" lon="13.566547213424982" id="-12574">
		<tag k="leisure" v="pitch" />
		<tag k="name" v="Halsa idrettsplass" />
		<tag k="ssr:stedsnr" v="834910" />
	</node>
	<node lat="66.74208055765662" lon="13.577977769569758" id="-12576">
		<tag k="amenity" v="school" />
		<tag k="name" v="Halsa skole" />
		<tag k="ssr:stedsnr" v="834912" />
	</node>
	<node lat="66.74685555565983" lon="13.587963896296053" id="-12577">
		<tag k="name" v="Halsa øst" />
		<tag k="place" v="farm" />
		<tag k="ssr:stedsnr" v="834922" />
	</node>
	<node lat="66.91010277444946" lon="13.72556110354205" id="-12578">
		<tag k="name" v="Solhaug" />
		<tag k="place" v="farm" />
		<tag k="ssr:stedsnr" v="834966" />
	</node>
	<node lat="66.75054444306285" lon="13.274738888234943" id="-12580">
		<tag k="name" v="Vollvik" />
		<tag k="place" v="farm" />
		<tag k="ssr:stedsnr" v="865019" />
	</node>
	<node lat="66.75415933072574" lon="13.29428318369268" id="-12581">
		<tag k="fixme" v="consider place=hamlet" />
		<tag k="name" v="Harfjell" />
		<tag k="place" v="farm" />
		<tag k="ssr:stedsnr" v="865021" />
	</node>
	<node lat="66.75470555648869" lon="13.311016660111068" id="-12582">
		<tag k="name" v="Buvika" />
		<tag k="place" v="farm" />
		<tag k="ssr:stedsnr" v="865025" />
	</node>
	<node lat="66.76286111380394" lon="13.700502775955085" id="-12583">
		<tag k="name" v="Lundegård" />
		<tag k="place" v="farm" />
		<tag k="ssr:stedsnr" v="865043" />
	</node>
	<node lat="66.77905000011089" lon="13.554613894826531" id="-12584">
		<tag k="name" v="Lyngstad" />
		<tag k="place" v="farm" />
		<tag k="ssr:stedsnr" v="865050" />
	</node>
	<node lat="66.80295000221145" lon="13.603408326260483" id="-12590">
		<tag k="alt_name" v="Vassdal, øvre" />
		<tag k="name" v="Øvre Vassdal" />
		<tag k="place" v="farm" />
		<tag k="ssr:stedsnr" v="865158" />
	</node>
	<node lat="66.7328138901748" lon="13.397613879634356" id="-12591">
		<tag k="name" v="Haugvikhalsen" />
		<tag k="place" v="farm" />
		<tag k="ssr:stedsnr" v="865166" />
	</node>
	<node lat="66.7572583291921" lon="13.794049991250002" id="-12594">
		<tag k="alt_name" v="Bjerangen, l" />
		<tag k="name" v="Litle Bjerangen" />
		<tag k="place" v="farm" />
		<tag k="ssr:stedsnr" v="865347" />
	</node>
	<node lat="66.8832269588419" lon="13.663813938146498" id="-12598">
		<tag k="fixme" v="consider place=hamlet" />
		<tag k="name" v="Gjerset" />
		<tag k="place" v="farm" />
		<tag k="ssr:stedsnr" v="865910" />
	</node>
	<node lat="66.87859999674374" lon="13.605761109441321" id="-12599">
		<tag k="name" v="Nytun" />
		<tag k="place" v="farm" />
		<tag k="ssr:stedsnr" v="865913" />
	</node>
	<node lat="66.89054722324525" lon="13.62025832791766" id="-12602">
		<tag k="name" v="Skipvik" />
		<tag k="place" v="farm" />
		<tag k="ssr:stedsnr" v="865925" />
	</node>
	<node lat="66.82435491208464" lon="13.408228346707336" id="-12607">
		<tag k="alt_name" v="Meløygård" />
		<tag k="fixme" v="consider place=hamlet" />
		<tag k="name" v="Meløygården" />
		<tag k="place" v="farm" />
		<tag k="ssr:stedsnr" v="866070" />
	</node>
	<node lat="66.82434927830235" lon="13.435468070291464" id="-12608">
		<tag k="alt_name" v="Venvika" />
		<tag k="fixme" v="consider place=hamlet" />
		<tag k="name" v="Venvik" />
		<tag k="place" v="farm" />
		<tag k="ssr:stedsnr" v="866072" />
	</node>
	<node lat="66.71785277954045" lon="13.48720277637891" id="-12613">
		<tag k="name" v="Bukta" />
		<tag k="place" v="isolated_dwelling" />
		<tag k="ssr:stedsnr" v="866195" />
	</node>
	<node lat="66.7192527753066" lon="13.470672211282555" id="-12614">
		<tag k="fixme" v="consider place=hamlet" />
		<tag k="name" v="Ågskardet" />
		<tag k="place" v="village" />
		<tag k="ssr:stedsnr" v="866201" />
	</node>
	<node lat="66.69743515602165" lon="13.637394586333407" id="-12617">
		<tag k="fixme" v="consider place=hamlet" />
		<tag k="name" v="Renndalsvika" />
		<tag k="place" v="farm" />
		<tag k="ssr:stedsnr" v="866173" />
	</node>
	<node lat="66.73365833691895" lon="13.76784998956548" id="-12622">
		<tag k="name" v="Myrvang" />
		<tag k="place" v="farm" />
		<tag k="ssr:stedsnr" v="866355" />
	</node>
	<node lat="66.78780555924507" lon="14.055455544947637" id="-12624">
		<tag k="alt_name" v="Nedre Navar" />
		<tag k="name" v="Navar, nedre" />
		<tag k="place" v="isolated_dwelling" />
		<tag k="ssr:stedsnr" v="866288" />
	</node>
	<node lat="66.81663055813901" lon="13.9440416607442" id="-12625">
		<tag k="name" v="Glomfjord" />
		<tag k="place" v="village" />
		<tag k="ssr:stedsnr" v="866308" />
	</node>
	<node lat="66.9244701515653" lon="13.440567940508412" id="-12643">
		<tag k="fixme" v="consider place=hamlet" />
		<tag k="name" v="Støtt" />
		<tag k="place" v="farm" />
		<tag k="ssr:stedsnr" v="866840" />
	</node>
	<node lat="66.81396944495788" lon="13.97212778135006" id="-12656">
		<tag k="name" v="Bjerkelia boligfelt" />
		<tag k="place" v="quarter" />
		<tag k="ssr:stedsnr" v="886150" />
	</node>
	<node lat="66.90853889072123" lon="13.717633338319075" id="-12658">
		<tag k="name" v="Seterenga" />
		<tag k="place" v="farm" />
		<tag k="ssr:stedsnr" v="889040" />
	</node>
	<node lat="66.72254469936298" lon="13.460058759105426" id="-12659">
		<tag k="alt_name" v="Enevik" />
		<tag k="fixme" v="consider place=hamlet" />
		<tag k="name" v="Engevik" />
		<tag k="place" v="farm" />
		<tag k="ssr:stedsnr" v="936463" />
	</node>
	<node lat="66.7160333350247" lon="13.47415276963409" id="-12664">
		<tag k="name" v="Mellastua" />
		<tag k="place" v="farm" />
		<tag k="ssr:stedsnr" v="948425" />
	</node>
	<node lat="66.77010555443152" lon="13.54397776817119" id="-12667">
		<tag k="name" v="Bjørkvoll" />
		<tag k="place" v="farm" />
		<tag k="ssr:stedsnr" v="954827" />
	</node>
	<node lat="66.75381388941338" lon="13.82672222954011" id="-12672">
		<tag k="name" v="Gammel-seter" />
		<tag k="place" v="locality" />
		<tag k="ssr:stedsnr" v="955059" />
	</node>
	<node lat="66.7259749965737" lon="13.427188877097088" id="-12679">
		<tag k="name" v="Solum" />
		<tag k="place" v="farm" />
		<tag k="ssr:stedsnr" v="955322" />
	</node>
	<node lat="66.72743333213575" lon="13.44316389839057" id="-12682">
		<tag k="name" v="Bjørkheim" />
		<tag k="place" v="farm" />
		<tag k="ssr:stedsnr" v="955424" />
	</node>
	<node lat="66.85856110822162" lon="13.738997221477245" id="-12693">
		<tag k="name" v="Brekkan" />
		<tag k="place" v="farm" />
		<tag k="ssr:stedsnr" v="955746" />
	</node>
	<node lat="66.80328481428037" lon="13.760848630357142" id="-12702">
		<tag k="name" v="Rendal" />
		<tag k="place" v="farm" />
		<tag k="ssr:stedsnr" v="981221" />
	</node>
	<node lat="66.6972711918839" lon="13.691380311496477" id="-12703">
		<tag k="name" v="Fonndalen" />
		<tag k="place" v="farm" />
		<tag k="ssr:stedsnr" v="981316" />
	</node>
	<node lat="66.78361270595222" lon="13.372734005531129" id="-12704">
		<tag k="name" v="Åmnes" />
		<tag k="place" v="farm" />
		<tag k="ssr:stedsnr" v="981317" />
	</node>
	<node lat="66.7833589164936" lon="13.363356670274845" id="-12705">
		<tag k="name" v="Åmnes" />
		<tag k="place" v="farm" />
		<tag k="ssr:stedsnr" v="981318" />
	</node>
	<node lat="66.80448549781197" lon="13.759880451628767" id="-12706">
		<tag k="name" v="Rendal" />
		<tag k="place" v="farm" />
		<tag k="ssr:stedsnr" v="981250" />
	</node>
	<node lat="66.79306229081025" lon="13.758391262305283" id="-12707">
		<tag k="name" v="Renndalen" />
		<tag k="place" v="farm" />
		<tag k="ssr:stedsnr" v="981251" />
	</node>
	<node lat="66.79394289527542" lon="13.760213253004112" id="-12708">
		<tag k="name" v="Rendal" />
		<tag k="place" v="farm" />
		<tag k="ssr:stedsnr" v="981252" />
	</node>
	<node lat="66.69525157176739" lon="13.613542410856812" id="-12709">
		<tag k="name" v="Renndalsvika" />
		<tag k="place" v="farm" />
		<tag k="ssr:stedsnr" v="981296" />
	</node>
	<node lat="66.69748618398937" lon="13.636322477031324" id="-12710">
		<tag k="name" v="Indre Renndalsvika" />
		<tag k="place" v="farm" />
		<tag k="ssr:stedsnr" v="981297" />
	</node>
	<node lat="66.80032204069238" lon="13.08206140640272" id="-12712">
		<tag k="name" v="Snyen" />
		<tag k="place" v="locality" />
		<tag k="ssr:stedsnr" v="1073767" />
	</node>
	<node lat="66.80074923190972" lon="13.226518421113152" id="-12713">
		<tag k="fixme" v="consider place=hamlet" />
		<tag k="name" v="Bolga" />
		<tag k="place" v="farm" />
		<tag k="ssr:stedsnr" v="1073769" />
	</node>
	<node lat="66.76210683029329" lon="13.276516150647046" id="-12714">
		<tag k="name" v="Harfjellstrand" />
		<tag k="place" v="locality" />
		<tag k="ssr:stedsnr" v="1073771" />
	</node>
	<node lat="66.77192464069503" lon="13.310384434359584" id="-12715">
		<tag k="name" v="Kjørrågvika" />
		<tag k="place" v="locality" />
		<tag k="ssr:stedsnr" v="1073772" />
	</node>
	<node lat="66.7304272343916" lon="13.721180894623439" id="-12717">
		<tag k="name" v="Haugland" />
		<tag k="place" v="locality" />
		<tag k="ssr:stedsnr" v="1073797" />
	</node>
	<node lat="66.7116995502509" lon="13.576391404791519" id="-12718">
		<tag k="name" v="Indre Skålsvika" />
		<tag k="place" v="locality" />
		<tag k="ssr:stedsnr" v="1073799" />
	</node>
	<node lat="66.84561265655024" lon="13.730715860554946" id="-12719">
		<tag k="fixme" v="consider place=hamlet" />
		<tag k="name" v="Eidbukt" />
		<tag k="place" v="farm" />
		<tag k="ssr:stedsnr" v="1073963" />
	</node>
	<node lat="66.87275238423963" lon="13.818155128664442" id="-12720">
		<tag k="name" v="Spilderdalen" />
		<tag k="place" v="locality" />
		<tag k="ssr:stedsnr" v="1073967" />
	</node>
	<node lat="66.87569112290383" lon="13.84411054028845" id="-12721">
		<tag k="name" v="Digermulen" />
		<tag k="place" v="locality" />
		<tag k="ssr:stedsnr" v="1073973" />
	</node>
	<node lat="66.8748062113428" lon="13.909499729235266" id="-12722">
		<tag k="name" v="Indre Spilderdalen" />
		<tag k="place" v="locality" />
		<tag k="ssr:stedsnr" v="1073977" />
	</node>
	<node lat="66.76700416619221" lon="13.54222800351745" id="-12723">
		<tag k="fixme" v="consider place=hamlet" />
		<tag k="name" v="Saura" />
		<tag k="place" v="farm" />
		<tag k="ssr:stedsnr" v="1073942" />
	</node>
	<node lat="66.77463924236929" lon="13.545331431275384" id="-12724">
		<tag k="fixme" v="consider place=hamlet" />
		<tag k="name" v="Osa" />
		<tag k="place" v="farm" />
		<tag k="ssr:stedsnr" v="1073944" />
	</node>
	<node lat="66.78069290584274" lon="13.541574048257" id="-12725">
		<tag k="fixme" v="consider place=hamlet" />
		<tag k="name" v="Enga" />
		<tag k="place" v="farm" />
		<tag k="ssr:stedsnr" v="1073945" />
	</node>
	<node lat="66.80274513460722" lon="13.595943966107995" id="-12726">
		<tag k="fixme" v="consider place=hamlet" />
		<tag k="name" v="Vassdal" />
		<tag k="place" v="farm" />
		<tag k="ssr:stedsnr" v="1073947" />
	</node>
	<node lat="66.90978630070751" lon="13.584140395551671" id="-12727">
		<tag k="fixme" v="consider place=hamlet" />
		<tag k="name" v="Øvre Sørfore" />
		<tag k="place" v="farm" />
		<tag k="ssr:stedsnr" v="1074093" />
	</node>
	<node lat="66.87770609497883" lon="13.453057244424267" id="-12728">
		<tag k="name" v="Gåsvær" />
		<tag k="place" v="locality" />
		<tag k="ssr:stedsnr" v="1074094" />
	</node>
	<node lat="66.71706996389268" lon="14.255430889924641" id="-12729">
		<tag k="name" v="Storglomvatnet" />
		<tag k="place" v="locality" />
		<tag k="ssr:stedsnr" v="1074158" />
	</node>
	<node lat="66.91830211518035" lon="13.662448419420217" id="-12732">
		<tag k="name" v="Solvoll" />
		<tag k="place" v="farm" />
		<tag k="ssr:stedsnr" v="1081563" />
=======
	<node id="-164040" lat="66.7713972266" lon="13.6070444403">
		<tag k="name" v="Vonheim" />
		<tag k="place" v="farm" />
		<tag k="ssr:stedsnr" v="469823" />
	</node>
	<node id="-164039" lat="66.7713666681" lon="13.6015472164">
		<tag k="name" v="Lundvoll" />
		<tag k="place" v="farm" />
		<tag k="ssr:stedsnr" v="469810" />
	</node>
	<node id="-164034" lat="66.8439416629" lon="13.7578777691">
		<tag k="name" v="Sion" />
		<tag k="place" v="farm" />
		<tag k="ssr:stedsnr" v="469767" />
	</node>
	<node id="-164033" lat="66.8427250002" lon="13.7602638907">
		<tag k="name" v="Steingården" />
		<tag k="place" v="quarter" />
		<tag k="ssr:stedsnr" v="469766" />
	</node>
	<node id="-164031" lat="66.8371416672" lon="13.7720916657">
		<tag k="amenity" v="school" />
		<tag k="name" v="Neverdal skole" />
		<tag k="ssr:stedsnr" v="469763" />
	</node>
	<node id="-164030" lat="66.80174722" lon="13.2311416552">
		<tag k="name" v="Strand" />
		<tag k="place" v="farm" />
		<tag k="ssr:stedsnr" v="469700" />
	</node>
	<node id="-164025" lat="66.7263527825" lon="13.438891657">
		<tag k="name" v="Granli" />
		<tag k="place" v="farm" />
		<tag k="ssr:stedsnr" v="469449" />
	</node>
	<node id="-164022" lat="66.7901638844" lon="13.5012111174">
		<tag k="name" v="Nordtun" />
		<tag k="place" v="hamlet" />
		<tag k="ssr:stedsnr" v="469353" />
	</node>
	<node id="-164013" lat="66.9139916667" lon="13.6821666637">
		<tag k="name" v="Rishaug" />
		<tag k="place" v="farm" />
		<tag k="ssr:stedsnr" v="468944" />
	</node>
	<node id="-164002" lat="66.8116305521" lon="13.9736166627">
		<tag k="name" v="Nerhylla boligfelt" />
		<tag k="place" v="quarter" />
		<tag k="ssr:stedsnr" v="288165" />
	</node>
	<node id="-164001" lat="66.9064416665" lon="13.6786888836">
		<tag k="name" v="Furuly" />
		<tag k="place" v="farm" />
		<tag k="ssr:stedsnr" v="287968" />
	</node>
	<node id="-163998" lat="66.8334694417" lon="13.7683444465">
		<tag k="name" v="Gulstad" />
		<tag k="place" v="farm" />
		<tag k="ssr:stedsnr" v="287764" />
	</node>
	<node id="-163997" lat="66.8369361103" lon="13.7873694492">
		<tag k="name" v="Brennmoa" />
		<tag k="place" v="farm" />
		<tag k="ssr:stedsnr" v="287763" />
	</node>
	<node id="-163995" lat="66.9085348201" lon="13.6226414699">
		<tag k="name" v="Reipåsjyen" />
		<tag k="place" v="locality" />
		<tag k="ssr:stedsnr" v="287865" />
	</node>
	<node id="-163994" lat="66.7731916691" lon="13.564527787">
		<tag k="name" v="Dalmo" />
		<tag k="place" v="farm" />
		<tag k="ssr:stedsnr" v="287829" />
	</node>
	<node id="-163993" lat="66.7580777806" lon="13.7943666695">
		<tag k="name" v="Fjelltun" />
		<tag k="place" v="farm" />
		<tag k="ssr:stedsnr" v="287518" />
	</node>
	<node id="-163974" lat="66.8018238588" lon="13.7649699633">
		<tag k="fixme" v="consider place=hamlet" />
		<tag k="name" v="Renndalen" />
		<tag k="place" v="farm" />
		<tag k="ssr:stedsnr" v="259326" />
	</node>
	<node id="-163970" lat="66.7132663278" lon="13.6461640659">
		<tag k="fixme" v="consider place=hamlet" />
		<tag k="name" v="Braset" />
		<tag k="old_name" v="Braseth" />
		<tag k="place" v="farm" />
		<tag k="ssr:stedsnr" v="259228" />
	</node>
	<node id="-163966" lat="66.7185000025" lon="13.4949027834">
		<tag k="name" v="Solstad" />
		<tag k="place" v="isolated_dwelling" />
		<tag k="ssr:stedsnr" v="259212" />
	</node>
	<node id="-163965" lat="66.7222666715" lon="13.5120499896">
		<tag k="name" v="Sørgård" />
		<tag k="place" v="isolated_dwelling" />
		<tag k="ssr:stedsnr" v="259211" />
	</node>
	<node id="-163940" lat="66.9118166704" lon="13.7574861073">
		<tag k="name" v="Rydning" />
		<tag k="place" v="farm" />
		<tag k="ssr:stedsnr" v="227767" />
	</node>
	<node id="-163939" lat="66.8376333347" lon="13.6558166568">
		<tag k="alt_name" v="Vatne" />
		<tag k="name" v="Vatnet" />
		<tag k="place" v="farm" />
		<tag k="ssr:stedsnr" v="227710" />
	</node>
	<node id="-163930" lat="66.8346083366" lon="13.399930546">
		<tag k="name" v="Solhaug" />
		<tag k="place" v="farm" />
		<tag k="ssr:stedsnr" v="227305" />
	</node>
	<node id="-163929" lat="66.8190833374" lon="13.349944444">
		<tag k="name" v="Herstranda" />
		<tag k="place" v="farm" />
		<tag k="ssr:stedsnr" v="441981" />
	</node>
	<node id="-163921" lat="66.9215611119" lon="13.6260916707">
		<tag k="alt_name" v="Stormo" />
		<tag k="name" v="Stormoen" />
		<tag k="place" v="farm" />
		<tag k="ssr:stedsnr" v="441908" />
	</node>
	<node id="-163919" lat="66.9099194418" lon="13.6466638915">
		<tag k="alt_name" v="Skardet" />
		<tag k="name" v="Skaret" />
		<tag k="place" v="farm" />
		<tag k="ssr:stedsnr" v="441896" />
	</node>
	<node id="-163899" lat="66.7241214325" lon="13.5145971298">
		<tag k="alt_name" v="Korsvik" />
		<tag k="fixme" v="consider place=hamlet" />
		<tag k="name" v="Korsvika" />
		<tag k="place" v="farm" />
		<tag k="ssr:stedsnr" v="441215" />
	</node>
	<node id="-163895" lat="66.9124083324" lon="13.7247000094">
		<tag k="name" v="Seterenga" />
		<tag k="place" v="farm" />
		<tag k="ssr:stedsnr" v="441167" />
	</node>
	<node id="-163889" lat="66.8057694409" lon="13.5967333418">
		<tag k="fixme" v="consider place=hamlet" />
		<tag k="name" v="Vassdalsvik" />
		<tag k="place" v="village" />
		<tag k="ssr:stedsnr" v="441116" />
	</node>
	<node id="-163888" lat="66.8027646894" lon="13.5380508209">
		<tag k="fixme" v="consider place=hamlet" />
		<tag k="name" v="Jenslund" />
		<tag k="place" v="farm" />
		<tag k="ssr:stedsnr" v="441111" />
	</node>
	<node id="-163886" lat="66.8104124549" lon="13.7004292161">
		<tag k="fixme" v="consider place=hamlet" />
		<tag k="name" v="Sandvika" />
		<tag k="place" v="farm" />
		<tag k="ssr:stedsnr" v="441086" />
	</node>
	<node id="-163880" lat="66.7685083317" lon="13.6631194407">
		<tag k="alt_name" v="Kjelddal, yt" />
		<tag k="fixme" v="consider place=hamlet" />
		<tag k="name" v="Ytre Kjelddal" />
		<tag k="place" v="farm" />
		<tag k="ssr:stedsnr" v="441046" />
	</node>
	<node id="-163876" lat="66.7552083321" lon="13.6465805613">
		<tag k="name" v="Myrvang" />
		<tag k="place" v="farm" />
		<tag k="ssr:stedsnr" v="348890" />
	</node>
	<node id="-163874" lat="66.8832111147" lon="13.632008325">
		<tag k="name" v="Nordbogen" />
		<tag k="place" v="farm" />
		<tag k="ssr:stedsnr" v="198921" />
	</node>
	<node id="-163873" lat="66.9395980808" lon="13.5323918595">
		<tag k="fixme" v="consider place=hamlet" />
		<tag k="name" v="Kunna" />
		<tag k="place" v="farm" />
		<tag k="ssr:stedsnr" v="198846" />
	</node>
	<node id="-163864" lat="66.8204052177" lon="13.8091121222">
		<tag k="fixme" v="consider place=hamlet" />
		<tag k="name" v="Selstad" />
		<tag k="place" v="farm" />
		<tag k="ssr:stedsnr" v="198312" />
	</node>
	<node id="-163863" lat="66.8039305532" lon="13.7336166693">
		<tag k="alt_name" v="Seteren" />
		<tag k="name" v="Sætra" />
		<tag k="place" v="isolated_dwelling" />
		<tag k="ssr:stedsnr" v="198303" />
	</node>
	<node id="-163860" lat="66.8020666644" lon="13.5295916717">
		<tag k="name" v="Bakkan" />
		<tag k="place" v="farm" />
		<tag k="ssr:stedsnr" v="198104" />
	</node>
	<node id="-163859" lat="66.7728249969" lon="13.5438472251">
		<tag k="alt_name" v="Osa" />
		<tag k="name" v="Osa indre" />
		<tag k="place" v="farm" />
		<tag k="ssr:stedsnr" v="198032" />
	</node>
	<node id="-163858" lat="66.7569777742" lon="13.2644472288">
		<tag k="alt_name" v="Nordhamna" />
		<tag k="name" v="Nordhamn" />
		<tag k="place" v="farm" />
		<tag k="ssr:stedsnr" v="198015" />
	</node>
	<node id="-163857" lat="66.7627750754" lon="13.464266668">
		<tag k="alt_name" v="Stamnes" />
		<tag k="fixme" v="consider place=hamlet" />
		<tag k="name" v="Stavnes" />
		<tag k="place" v="farm" />
		<tag k="ssr:stedsnr" v="198009" />
	</node>
	<node id="-163856" lat="66.75798476" lon="13.3935444306">
		<tag k="name" v="Dyan" />
		<tag k="place" v="locality" />
		<tag k="ssr:stedsnr" v="198006" />
	</node>
	<node id="-163855" lat="66.9141055516" lon="13.092036121">
		<tag k="name" v="Kalsholmen" />
		<tag k="place" v="farm" />
		<tag k="ssr:stedsnr" v="288931" />
	</node>
	<node id="-163850" lat="66.7463972205" lon="13.5684888901">
		<tag k="name" v="Nordmo" />
		<tag k="place" v="farm" />
		<tag k="ssr:stedsnr" v="287942" />
	</node>
	<node id="-163849" lat="66.742008331" lon="13.5182027687">
		<tag k="name" v="Æsvika" />
		<tag k="place" v="farm" />
		<tag k="ssr:stedsnr" v="287935" />
	</node>
	<node id="-165443" lat="66.8195833324" lon="13.4051472116">
		<tag k="name" v="Småjord" />
		<tag k="place" v="farm" />
		<tag k="ssr:stedsnr" v="623972" />
	</node>
	<node id="-163846" lat="66.7688777798" lon="13.5473000057">
		<tag k="name" v="Myrvang" />
		<tag k="place" v="farm" />
		<tag k="ssr:stedsnr" v="287832" />
	</node>
	<node id="-163843" lat="66.7558583316" lon="13.6589611183">
		<tag k="name" v="Nyheim" />
		<tag k="place" v="farm" />
		<tag k="ssr:stedsnr" v="287683" />
>>>>>>> e1d4bc35ff8a6074a6f2e91616a996b547c36f15
	</node>
</osm>
