<?xml version="1.0" encoding="UTF-8"?>
<osm generator="osmapis" version="0.6">
	<node id="-669695" lat="66.8866388853" lon="13.6411694388">
		<tag k="name" v="Teksmoklubben" />
		<tag k="natural" v="cape" />
		<tag k="ssr:stedsnr" v="348849" />
	</node>
	<node id="-669688" lat="66.8036555563" lon="13.2382833425">
		<tag k="fixme" v="consider seamark:type=rock or natural=shoal" />
		<tag k="name" v="Langskjæret" />
		<tag k="place" v="islet" />
		<tag k="ssr:stedsnr" v="348658" />
	</node>
	<node id="-669686" lat="66.7957388884" lon="13.2095194452">
		<tag k="fixme" v="consider seamark:type=rock or natural=shoal" />
		<tag k="name" v="Hans Hansaskjæran" />
		<tag k="place" v="islet" />
		<tag k="ssr:stedsnr" v="348635" />
	</node>
	<node id="-671723" lat="66.8880777753" lon="13.5851222318">
		<tag k="name" v="Steikfiskbergan" />
		<tag k="natural" v="cape" />
		<tag k="ssr:stedsnr" v="955755" />
	</node>
	<node id="-671720" lat="66.8327222253" lon="13.6740055651">
		<tag k="name" v="Glomnesodden" />
		<tag k="natural" v="cape" />
		<tag k="ssr:stedsnr" v="955716" />
	</node>
	<node id="-671718" lat="66.7952083349" lon="13.1964916772">
		<tag k="fixme" v="consider seamark:type=rock or natural=shoal" />
		<tag k="name" v="Elidaskjæret" />
		<tag k="place" v="islet" />
		<tag k="ssr:stedsnr" v="955662" />
	</node>
	<node id="-671717" lat="66.7951250037" lon="13.1847833242">
		<tag k="name" v="Tverrholman" />
		<tag k="place" v="islet" />
		<tag k="ssr:stedsnr" v="955657" />
	</node>
	<node id="-669663" lat="66.7561888935" lon="13.5565972148">
		<tag k="name" v="Storvikneset" />
		<tag k="natural" v="cape" />
		<tag k="ssr:stedsnr" v="347959" />
	</node>
	<node id="-671700" lat="66.7301638931" lon="13.4186777799">
		<tag k="name" v="Naustneset" />
		<tag k="natural" v="cape" />
		<tag k="ssr:stedsnr" v="955304" />
	</node>
	<node id="-669651" lat="66.7556666657" lon="13.2648972166">
		<tag k="name" v="Valen" />
		<tag k="natural" v="bay" />
		<tag k="ssr:stedsnr" v="340724" />
	</node>
	<node id="-669649" lat="66.8347527774" lon="13.147880563">
		<tag k="name" v="Skurven" />
		<tag k="natural" v="shoal" />
		<tag k="place" v="locality" />
		<tag k="ssr:stedsnr" v="328220" />
	</node>
	<node id="-671694" lat="66.8221805535" lon="13.4291333387">
		<tag k="bay" v="fjord" />
		<tag k="name" v="Knappbolten" />
		<tag k="natural" v="bay" />
		<tag k="ssr:stedsnr" v="955253" />
	</node>
	<node id="-669645" lat="66.7227166655" lon="13.7189305496">
		<tag k="bay" v="fjord" />
		<tag k="name" v="Holandsfjorden" />
		<tag k="natural" v="bay" />
		<tag k="ssr:stedsnr" v="324263" />
	</node>
	<node id="-671692" lat="66.8618333338" lon="13.7138305646">
		<tag k="name" v="Spilderneset" />
		<tag k="natural" v="cape" />
		<tag k="ssr:stedsnr" v="955234" />
	</node>
	<node id="-671691" lat="66.8586027775" lon="13.6755194558">
		<tag k="name" v="Mursteinvika" />
		<tag k="natural" v="bay" />
		<tag k="ssr:stedsnr" v="955201" />
	</node>
	<node id="-669640" lat="66.9085222224" lon="13.433491666">
		<tag k="name" v="Helløyholman" />
		<tag k="place" v="islet" />
		<tag k="ssr:stedsnr" v="320900" />
	</node>
	<node id="-669637" lat="66.9271861105" lon="13.467633326">
		<tag k="name" v="Bjørnholmen" />
		<tag k="place" v="islet" />
		<tag k="ssr:stedsnr" v="320866" />
	</node>
	<node id="-669636" lat="66.7863888871" lon="13.1059388939">
		<tag k="name" v="Ruskøya" />
		<tag k="place" v="island" />
		<tag k="ssr:stedsnr" v="320820" />
	</node>
	<node id="-669635" lat="66.7864499991" lon="13.0896166564">
		<tag k="alt_name" v="Hundgreinholmen, store" />
		<tag k="name" v="Store Hundgreinholmen" />
		<tag k="place" v="islet" />
		<tag k="ssr:stedsnr" v="320810" />
	</node>
	<node id="-669634" lat="66.7744777811" lon="13.1309722322">
		<tag k="alt_name" v="Nordlyngværet" />
		<tag k="name" v="Nordlyngvær" />
		<tag k="place" v="islet" />
		<tag k="ssr:stedsnr" v="320808" />
	</node>
	<node id="-671681" lat="66.8083500043" lon="13.8989000063">
		<tag k="name" v="Lauvvika" />
		<tag k="natural" v="bay" />
		<tag k="ssr:stedsnr" v="955002" />
	</node>
	<node id="-669632" lat="66.7845694427" lon="13.1302333397">
		<tag k="alt_name" v="Sauholmen" />
		<tag k="name" v="Sauøya" />
		<tag k="place" v="islet" />
		<tag k="ssr:stedsnr" v="320793" />
	</node>
	<node id="-671676" lat="66.8321166649" lon="13.7496666636">
		<tag k="name" v="Kråkvika" />
		<tag k="natural" v="bay" />
		<tag k="ssr:stedsnr" v="954743" />
	</node>
	<node id="-669627" lat="66.7509416701" lon="13.2488944549">
		<tag k="name" v="Hamnøya" />
		<tag k="place" v="island" />
		<tag k="ssr:stedsnr" v="320163" />
	</node>
	<node id="-669625" lat="66.8244055588" lon="13.4208666668">
		<tag k="name" v="Vågen" />
		<tag k="natural" v="bay" />
		<tag k="ssr:stedsnr" v="320105" />
	</node>
	<node id="-669624" lat="66.8610916701" lon="13.3001527772">
		<tag k="fixme" v="consider seamark:type=rock or natural=shoal" />
		<tag k="name" v="Kristofferskjæret" />
		<tag k="place" v="islet" />
		<tag k="ssr:stedsnr" v="319976" />
	</node>
	<node id="-669623" lat="67.0529388866" lon="13.3721333278">
		<tag k="name" v="Konskallen" />
		<tag k="natural" v="shoal" />
		<tag k="place" v="locality" />
		<tag k="ssr:stedsnr" v="319971" />
	</node>
	<node id="-669622" lat="66.8417527735" lon="13.2267805609">
		<tag k="name" v="Åmnesbardan" />
		<tag k="place" v="islet" />
		<tag k="ssr:stedsnr" v="319950" />
	</node>
	<node id="-669620" lat="66.8977305534" lon="13.593097229">
		<tag k="name" v="Foregrunnen" />
		<tag k="natural" v="shoal" />
		<tag k="place" v="locality" />
		<tag k="ssr:stedsnr" v="319940" />
	</node>
	<node id="-669619" lat="66.8748111153" lon="13.2921166618">
		<tag k="alt_name" v="Kvalrosskallen" />
		<tag k="name" v="Hvalrosskallan" />
		<tag k="natural" v="shoal" />
		<tag k="place" v="locality" />
		<tag k="ssr:stedsnr" v="319933" />
	</node>
	<node id="-669618" lat="66.8785583356" lon="13.48840556">
		<tag k="name" v="Naustholmen" />
		<tag k="place" v="islet" />
		<tag k="ssr:stedsnr" v="319925" />
	</node>
	<node id="-671665" lat="66.9284305568" lon="13.4895583369">
		<tag k="name" v="Støttsundet" />
		<tag k="natural" v="strait" />
		<tag k="ssr:stedsnr" v="947299" />
	</node>
	<node id="-671664" lat="66.9559527783" lon="13.4396111152">
		<tag k="name" v="Austergrunnen" />
		<tag k="natural" v="shoal" />
		<tag k="place" v="locality" />
		<tag k="ssr:stedsnr" v="936910" />
	</node>
	<node id="-669615" lat="66.9410222179" lon="13.5591333354">
		<tag k="name" v="Kunnsundet" />
		<tag k="natural" v="bay" />
		<tag k="ssr:stedsnr" v="319826" />
	</node>
	<node id="-671662" lat="66.9152972212" lon="13.0982444345">
		<tag k="name" v="Horbåen" />
		<tag k="place" v="locality" />
		<tag k="seamark:type" v="rock" />
		<tag k="ssr:stedsnr" v="935812" />
	</node>
	<node id="-671661" lat="66.8276250018" lon="13.1122166749">
		<tag k="name" v="Ostkistskallen" />
		<tag k="natural" v="shoal" />
		<tag k="place" v="locality" />
		<tag k="ssr:stedsnr" v="935597" />
	</node>
	<node id="-669612" lat="66.7866111128" lon="13.0377861141">
		<tag k="name" v="Knørrøydrægen" />
		<tag k="place" v="islet" />
		<tag k="ssr:stedsnr" v="319787" />
	</node>
	<node id="-671659" lat="66.7675750016" lon="13.100552774">
		<tag k="name" v="Lyngværgrunnen" />
		<tag k="natural" v="shoal" />
		<tag k="place" v="locality" />
		<tag k="ssr:stedsnr" v="934557" />
	</node>
	<node id="-671658" lat="66.7456583354" lon="13.5445166725">
		<tag k="name" v="Hamnbogen" />
		<tag k="natural" v="bay" />
		<tag k="ssr:stedsnr" v="931576" />
	</node>
	<node id="-671657" lat="66.8297305594" lon="13.3232861047">
		<tag k="name" v="Eggeløysa" />
		<tag k="place" v="islet" />
		<tag k="ssr:stedsnr" v="927999" />
	</node>
	<node id="-669608" lat="66.8368638897" lon="13.1983888777">
		<tag k="alt_name" v="Flatværet" />
		<tag k="name" v="Flatvær" />
		<tag k="place" v="island" />
		<tag k="ssr:stedsnr" v="319726" />
	</node>
	<node id="-669607" lat="66.9499055576" lon="13.2061416692">
		<tag k="name" v="Drillingen" />
		<tag k="natural" v="shoal" />
		<tag k="place" v="locality" />
		<tag k="ssr:stedsnr" v="319714" />
	</node>
	<node id="-669606" lat="66.9114611088" lon="12.9695500045">
		<tag k="name" v="Grunnmørelen" />
		<tag k="natural" v="shoal" />
		<tag k="place" v="locality" />
		<tag k="ssr:stedsnr" v="319705" />
	</node>
	<node id="-669605" lat="66.9074888869" lon="13.0169611001">
		<tag k="name" v="Djupmørelen" />
		<tag k="natural" v="shoal" />
		<tag k="place" v="locality" />
		<tag k="ssr:stedsnr" v="319702" />
	</node>
	<node id="-671652" lat="66.90263611" lon="13.5414527797">
		<tag k="name" v="Hornneset" />
		<tag k="natural" v="cape" />
		<tag k="ssr:stedsnr" v="927890" />
	</node>
	<node id="-671651" lat="66.7712694406" lon="13.0118944509">
		<tag k="alt_name" v="Stabban" />
		<tag k="name" v="Nordstabban" />
		<tag k="natural" v="shoal" />
		<tag k="place" v="locality" />
		<tag k="ssr:stedsnr" v="927782" />
	</node>
	<node id="-671650" lat="66.8096861085" lon="13.1636861189">
		<tag k="name" v="Skabbholmen" />
		<tag k="place" v="islet" />
		<tag k="ssr:stedsnr" v="927769" />
	</node>
	<node id="-669601" lat="66.8290444408" lon="13.7590555587">
		<tag k="alt_name" v="Bjønn-neset" />
		<tag k="name" v="Bjørnneset" />
		<tag k="natural" v="cape" />
		<tag k="ssr:stedsnr" v="319333" />
	</node>
	<node id="-671646" lat="66.8644222257" lon="13.5776361211">
		<tag k="alt_name" v="Teksmonskagen" />
		<tag k="name" v="Teksmoskagen" />
		<tag k="natural" v="cape" />
		<tag k="ssr:stedsnr" v="926962" />
	</node>
	<node id="-671645" lat="66.8644111076" lon="13.6602583368">
		<tag k="alt_name" v="Valøybukta" />
		<tag k="name" v="Yttervaløybukta" />
		<tag k="natural" v="bay" />
		<tag k="ssr:stedsnr" v="926951" />
	</node>
	<node id="-671644" lat="66.847000001" lon="13.4368388861">
		<tag k="alt_name" v="Brimneset" />
		<tag k="name" v="Bremneset" />
		<tag k="natural" v="cape" />
		<tag k="ssr:stedsnr" v="926944" />
	</node>
	<node id="-671643" lat="66.8483472197" lon="13.3350027838">
		<tag k="name" v="Olhåksaflua" />
		<tag k="natural" v="shoal" />
		<tag k="place" v="locality" />
		<tag k="ssr:stedsnr" v="926941" />
	</node>
	<node id="-671641" lat="66.9391083295" lon="13.3978361102">
		<tag k="fixme" v="consider seamark:type=rock or natural=shoal" />
		<tag k="name" v="Digerskjæran" />
		<tag k="place" v="islet" />
		<tag k="ssr:stedsnr" v="926872" />
	</node>
	<node id="-671640" lat="66.9343000007" lon="13.4550888975">
		<tag k="fixme" v="consider seamark:type=rock or natural=shoal" />
		<tag k="name" v="Bonnetskjæret" />
		<tag k="place" v="islet" />
		<tag k="ssr:stedsnr" v="926865" />
	</node>
	<node id="-671639" lat="66.931488887" lon="13.351452783">
		<tag k="name" v="Gåsholman" />
		<tag k="place" v="islet" />
		<tag k="ssr:stedsnr" v="926863" />
	</node>
	<node id="-671638" lat="66.9421305526" lon="13.2359777696">
		<tag k="fixme" v="consider seamark:type=rock or natural=shoal" />
		<tag k="name" v="Litle Flatskjæret" />
		<tag k="place" v="islet" />
		<tag k="ssr:stedsnr" v="926861" />
	</node>
	<node id="-671637" lat="66.9577944427" lon="13.2849250053">
		<tag k="name" v="Rørstabben" />
		<tag k="place" v="island" />
		<tag k="ssr:stedsnr" v="926817" />
	</node>
	<node id="-671636" lat="66.8222861075" lon="13.0773249978">
		<tag k="name" v="Vesholmryggen" />
		<tag k="natural" v="shoal" />
		<tag k="place" v="locality" />
		<tag k="ssr:stedsnr" v="926748" />
	</node>
	<node id="-671635" lat="66.9204222193" lon="13.1078277665">
		<tag k="fixme" v="consider seamark:type=rock or natural=shoal" />
		<tag k="name" v="Søre Seiskjæret" />
		<tag k="place" v="islet" />
		<tag k="ssr:stedsnr" v="926712" />
	</node>
	<node id="-671634" lat="66.925419441" lon="13.0687916709">
		<tag k="fixme" v="consider seamark:type=rock or natural=shoal" />
		<tag k="name" v="Nattmålsskjæret" />
		<tag k="place" v="islet" />
		<tag k="ssr:stedsnr" v="926713" />
	</node>
	<node id="-671633" lat="66.7238416688" lon="13.8138000069">
		<tag k="name" v="Storøyra" />
		<tag k="natural" v="cape" />
		<tag k="ssr:stedsnr" v="926472" />
	</node>
	<node id="-669579" lat="66.7602500017" lon="13.2708555588">
		<tag k="name" v="Frosvika" />
		<tag k="natural" v="bay" />
		<tag k="ssr:stedsnr" v="319029" />
	</node>
	<node id="-669577" lat="66.7338838704" lon="13.3804626241">
		<tag k="name" v="Ånhammaren" />
		<tag k="natural" v="cape" />
		<tag k="ssr:stedsnr" v="45342" />
	</node>
	<node id="-669575" lat="66.7330249978" lon="13.3947972247">
		<tag k="name" v="Haugvika" />
		<tag k="natural" v="bay" />
		<tag k="ssr:stedsnr" v="45340" />
	</node>
	<node id="-671621" lat="66.7130500025" lon="13.6934916716">
		<tag k="name" v="Otervika" />
		<tag k="natural" v="bay" />
		<tag k="ssr:stedsnr" v="926244" />
	</node>
	<node id="-671613" lat="66.7361305576" lon="13.5516555646">
		<tag k="name" v="Skipneset" />
		<tag k="natural" v="cape" />
		<tag k="ssr:stedsnr" v="926138" />
	</node>
	<node id="-669560" lat="66.7112916649" lon="13.6030694442">
		<tag k="name" v="Aspa" />
		<tag k="natural" v="cape" />
		<tag k="ssr:stedsnr" v="288143" />
	</node>
	<node id="-671604" lat="66.7878944431" lon="13.1541583346">
		<tag k="name" v="Skipparsøya" />
		<tag k="place" v="islet" />
		<tag k="ssr:stedsnr" v="927823" />
	</node>
	<node id="-671603" lat="66.7918749963" lon="13.0677194519">
		<tag k="alt_name" v="Ånhammaren" />
		<tag k="name" v="Ånhammaran" />
		<tag k="place" v="islet" />
		<tag k="ssr:stedsnr" v="927810" />
	</node>
	<node id="-671602" lat="66.7875666637" lon="13.1010111041">
		<tag k="name" v="Brakarøya" />
		<tag k="place" v="islet" />
		<tag k="ssr:stedsnr" v="927803" />
	</node>
	<node id="-671597" lat="66.9396055555" lon="13.4653694501">
		<tag k="name" v="Bonnetskjærgrunnen" />
		<tag k="natural" v="shoal" />
		<tag k="place" v="locality" />
		<tag k="ssr:stedsnr" v="874799" />
	</node>
	<node id="-671596" lat="66.8609833309" lon="13.6739222182">
		<tag k="alt_name" v="Innervaløybukta" />
		<tag k="name" v="Valøybukta" />
		<tag k="natural" v="bay" />
		<tag k="ssr:stedsnr" v="874517" />
	</node>
	<node id="-671594" lat="66.8294416703" lon="13.5515861133">
		<tag k="name" v="Gjersholmen" />
		<tag k="place" v="islet" />
		<tag k="ssr:stedsnr" v="866986" />
	</node>
	<node id="-671593" lat="66.8165249959" lon="13.2691388848">
		<tag k="fixme" v="consider seamark:type=rock or natural=shoal" />
		<tag k="name" v="Kalvskjæret" />
		<tag k="place" v="islet" />
		<tag k="ssr:stedsnr" v="866975" />
	</node>
	<node id="-671592" lat="66.8705305517" lon="13.6746666631">
		<tag k="name" v="Engøya" />
		<tag k="place" v="island" />
		<tag k="ssr:stedsnr" v="866971" />
	</node>
	<node id="-671591" lat="66.8521638847" lon="13.294952781">
		<tag k="fixme" v="consider seamark:type=rock or natural=shoal" />
		<tag k="name" v="Skarvskjæret" />
		<tag k="place" v="islet" />
		<tag k="ssr:stedsnr" v="866965" />
	</node>
	<node id="-669542" lat="66.7973416699" lon="13.2369611137">
		<tag k="fixme" v="consider seamark:type=rock or natural=shoal" />
		<tag k="name" v="Likskjæret" />
		<tag k="place" v="islet" />
		<tag k="ssr:stedsnr" v="287712" />
	</node>
	<node id="-669541" lat="66.8145638905" lon="13.3361250002">
		<tag k="name" v="Juvikholman" />
		<tag k="place" v="islet" />
		<tag k="ssr:stedsnr" v="287705" />
	</node>
	<node id="-671588" lat="66.9109888871" lon="13.3516666715">
		<tag k="name" v="Merra" />
		<tag k="place" v="island" />
		<tag k="ssr:stedsnr" v="866894" />
	</node>
	<node id="-671587" lat="66.9118055535" lon="13.5378250016">
		<tag k="alt_name" v="Mølvika" />
		<tag k="name" v="Mollvika" />
		<tag k="natural" v="bay" />
		<tag k="ssr:stedsnr" v="866886" />
	</node>
	<node id="-671586" lat="66.9049861082" lon="13.3643555659">
		<tag k="name" v="Hestholmen, store" />
		<tag k="place" v="islet" />
		<tag k="ssr:stedsnr" v="866874" />
	</node>
	<node id="-671585" lat="66.9429722236" lon="13.4924500073">
		<tag k="name" v="Oterbåan" />
		<tag k="natural" v="shoal" />
		<tag k="place" v="locality" />
		<tag k="ssr:stedsnr" v="866864" />
	</node>
	<node id="-671582" lat="66.9533388861" lon="13.5453361217">
		<tag k="alt_name" v="Saubergodden" />
		<tag k="name" v="Sauberget" />
		<tag k="natural" v="cape" />
		<tag k="ssr:stedsnr" v="866826" />
	</node>
	<node id="-671581" lat="66.7908666704" lon="13.1343861221">
		<tag k="name" v="Bolgværet" />
		<tag k="place" v="island" />
		<tag k="ssr:stedsnr" v="866815" />
	</node>
	<node id="-671580" lat="66.7937194451" lon="13.1978583353">
		<tag k="alt_name" v="Gåsholmen, store;Storgåsholmen" />
		<tag k="fixme" v="multiple name tags, choose one and add the other to alt_name" />
		<tag k="name" v="Gåsholman;Store Gåsholmen" />
		<tag k="place" v="islet" />
		<tag k="ssr:stedsnr" v="866814" />
	</node>
	<node id="-671579" lat="66.8011861137" lon="13.19077778">
		<tag k="name" v="Vikan" />
		<tag k="natural" v="bay" />
		<tag k="ssr:stedsnr" v="866803" />
	</node>
	<node id="-671578" lat="66.7772083299" lon="13.1476611029">
		<tag k="name" v="Sveøya" />
		<tag k="place" v="islet" />
		<tag k="ssr:stedsnr" v="866793" />
	</node>
	<node id="-671577" lat="66.7793083376" lon="13.1395500007">
		<tag k="name" v="Reinsøya" />
		<tag k="place" v="islet" />
		<tag k="ssr:stedsnr" v="866779" />
	</node>
	<node id="-671576" lat="66.8181333328" lon="13.0926444548">
		<tag k="name" v="Vesholmen" />
		<tag k="place" v="islet" />
		<tag k="ssr:stedsnr" v="866763" />
	</node>
	<node id="-671575" lat="67.0236416672" lon="13.1688722182">
		<tag k="name" v="Litlstabben" />
		<tag k="place" v="islet" />
		<tag k="ssr:stedsnr" v="866737" />
	</node>
	<node id="-671574" lat="66.8315250006" lon="13.0643277817">
		<tag k="name" v="Øvskallan" />
		<tag k="natural" v="shoal" />
		<tag k="place" v="locality" />
		<tag k="ssr:stedsnr" v="866731" />
	</node>
	<node id="-671573" lat="66.8260916704" lon="13.0211166562">
		<tag k="alt_name" v="Måøya, store" />
		<tag k="name" v="Stormåøya" />
		<tag k="place" v="islet" />
		<tag k="ssr:stedsnr" v="866729" />
	</node>
	<node id="-671572" lat="66.8311333297" lon="13.194236101">
		<tag k="alt_name" v="Skattholmen" />
		<tag k="name" v="Skatholmen" />
		<tag k="place" v="islet" />
		<tag k="ssr:stedsnr" v="866720" />
	</node>
	<node id="-671571" lat="66.8500722244" lon="13.0050055531">
		<tag k="alt_name" v="Kvalrosskallan" />
		<tag k="name" v="Hvalrosskallan" />
		<tag k="natural" v="shoal" />
		<tag k="place" v="locality" />
		<tag k="ssr:stedsnr" v="866711" />
	</node>
	<node id="-671570" lat="66.9231861152" lon="13.1352749984">
		<tag k="fixme" v="consider seamark:type=rock or natural=shoal" />
		<tag k="name" v="Toftskjæret" />
		<tag k="place" v="islet" />
		<tag k="ssr:stedsnr" v="866685" />
	</node>
	<node id="-671566" lat="66.8386166625" lon="13.7419027761">
		<tag k="name" v="Sandågvika" />
		<tag k="natural" v="bay" />
		<tag k="ssr:stedsnr" v="866335" />
	</node>
	<node id="-671562" lat="66.8212861129" lon="13.7879416681">
		<tag k="alt_name" v="Rorneset" />
		<tag k="name" v="Ronneset" />
		<tag k="natural" v="cape" />
		<tag k="ssr:stedsnr" v="866326" />
	</node>
	<node id="-671559" lat="66.7136777825" lon="13.6827111026">
		<tag k="alt_name" v="Enganeset;Engenneset" />
		<tag k="name" v="Engeneset" />
		<tag k="natural" v="cape" />
		<tag k="ssr:stedsnr" v="866210" />
	</node>
	<node id="-671550" lat="66.7934138924" lon="13.4154555574">
		<tag k="name" v="Storsand" />
		<tag k="natural" v="beach" />
		<tag k="place" v="locality" />
		<tag k="ssr:stedsnr" v="866086" />
	</node>
	<node id="-671549" lat="66.7916555516" lon="13.4679055538">
		<tag k="name" v="Hestøya" />
		<tag k="place" v="island" />
		<tag k="ssr:stedsnr" v="866082" />
	</node>
	<node id="-671546" lat="66.8105444454" lon="13.2266166694">
		<tag k="name" v="Bolgenden" />
		<tag k="natural" v="cape" />
		<tag k="ssr:stedsnr" v="866069" />
	</node>
	<node id="-671545" lat="66.7834194413" lon="13.4920916725">
		<tag k="bay" v="fjord" />
		<tag k="name" v="Olavågen" />
		<tag k="natural" v="bay" />
		<tag k="ssr:stedsnr" v="866056" />
	</node>
	<node id="-671540" lat="66.8772861141" lon="13.4615527886">
		<tag k="alt_name" v="Gåsværet" />
		<tag k="name" v="Gåsvær" />
		<tag k="place" v="island" />
		<tag k="ssr:stedsnr" v="865920" />
	</node>
	<node id="-671537" lat="66.8750500002" lon="13.5064416739">
		<tag k="fixme" v="multiple name tags, choose one and add the other to alt_name" />
		<tag k="name" v="Insteholmen;Østholmen" />
		<tag k="place" v="islet" />
		<tag k="ssr:stedsnr" v="865904" />
	</node>
	<node id="-671536" lat="66.844455556" lon="13.3248833379">
		<tag k="fixme" v="consider seamark:type=rock or natural=shoal" />
		<tag k="name" v="Kuven" />
		<tag k="place" v="islet" />
		<tag k="ssr:stedsnr" v="866949" />
	</node>
	<node id="-671535" lat="66.9668888875" lon="13.4524055499">
		<tag k="name" v="Horntindtaren" />
		<tag k="natural" v="shoal" />
		<tag k="place" v="locality" />
		<tag k="ssr:stedsnr" v="865822" />
	</node>
	<node id="-671532" lat="66.728375004" lon="13.437958335">
		<tag k="name" v="Skavika" />
		<tag k="natural" v="bay" />
		<tag k="ssr:stedsnr" v="865171" />
	</node>
	<node id="-671531" lat="66.7319992682" lon="13.4067909861">
		<tag k="alt_name" v="Tortenvika, yt" />
		<tag k="name" v="Tortenvika" />
		<tag k="natural" v="bay" />
		<tag k="ssr:stedsnr" v="865167" />
	</node>
	<node id="-671528" lat="66.80553889" lon="13.286172222">
		<tag k="name" v="Kubakkflua" />
		<tag k="natural" v="shoal" />
		<tag k="place" v="locality" />
		<tag k="ssr:stedsnr" v="865135" />
	</node>
	<node id="-671524" lat="66.7774444416" lon="13.4729638947">
		<tag k="name" v="Bogneset" />
		<tag k="natural" v="cape" />
		<tag k="ssr:stedsnr" v="865058" />
	</node>
	<node id="-671506" lat="66.864058338" lon="13.651269434">
		<tag k="name" v="Olderskogneset" />
		<tag k="natural" v="cape" />
		<tag k="ssr:stedsnr" v="834766" />
	</node>
	<node id="-671489" lat="66.7526916704" lon="13.3782999899">
		<tag k="name" v="Grønneset" />
		<tag k="natural" v="cape" />
		<tag k="ssr:stedsnr" v="834321" />
	</node>
	<node id="-671486" lat="66.8406083361" lon="13.3919111188">
		<tag k="fixme" v="consider seamark:type=rock or natural=shoal" />
		<tag k="name" v="Smørbøen" />
		<tag k="place" v="islet" />
		<tag k="ssr:stedsnr" v="834292" />
	</node>
	<node id="-671461" lat="66.8275194435" lon="13.3474944348">
		<tag k="name" v="Kvia" />
		<tag k="place" v="island" />
		<tag k="ssr:stedsnr" v="805989" />
	</node>
	<node id="-671459" lat="66.8683916656" lon="13.5741138822">
		<tag k="name" v="Skagvika" />
		<tag k="natural" v="bay" />
		<tag k="ssr:stedsnr" v="805970" />
	</node>
	<node id="-671455" lat="66.8475138876" lon="13.3574638875">
		<tag k="name" v="Sandøyan" />
		<tag k="place" v="islet" />
		<tag k="ssr:stedsnr" v="805948" />
	</node>
	<node id="-671451" lat="66.8945916638" lon="13.6320777855">
		<tag k="alt_name" v="Skipvikgrunnen" />
		<tag k="name" v="Skeivikgrunnen" />
		<tag k="natural" v="shoal" />
		<tag k="place" v="locality" />
		<tag k="ssr:stedsnr" v="805924" />
	</node>
	<node id="-671449" lat="66.8713000007" lon="13.4140972249">
		<tag k="name" v="Valholmen" />
		<tag k="place" v="islet" />
		<tag k="ssr:stedsnr" v="805909" />
	</node>
	<node id="-671448" lat="66.877391666" lon="13.4990527724">
		<tag k="name" v="Teistholmen" />
		<tag k="place" v="islet" />
		<tag k="ssr:stedsnr" v="805903" />
	</node>
	<node id="-671446" lat="66.8751805596" lon="13.6401972203">
		<tag k="name" v="Grytøya" />
		<tag k="place" v="islet" />
		<tag k="ssr:stedsnr" v="805899" />
	</node>
	<node id="-671445" lat="66.9175861118" lon="13.4259972335">
		<tag k="fixme" v="consider seamark:type=rock or natural=shoal" />
		<tag k="name" v="Eggeløysa" />
		<tag k="place" v="islet" />
		<tag k="ssr:stedsnr" v="805896" />
	</node>
	<node id="-671441" lat="66.9348333325" lon="13.4998027779">
		<tag k="name" v="Einneset" />
		<tag k="natural" v="cape" />
		<tag k="ssr:stedsnr" v="805862" />
	</node>
	<node id="-671440" lat="66.9221444425" lon="13.3417694491">
		<tag k="name" v="Hysryggen" />
		<tag k="natural" v="shoal" />
		<tag k="place" v="locality" />
		<tag k="ssr:stedsnr" v="805853" />
	</node>
	<node id="-671437" lat="66.9516333313" lon="13.40474445">
		<tag k="name" v="Støtt" />
		<tag k="place" v="island" />
		<tag k="ssr:stedsnr" v="805846" />
	</node>
	<node id="-671435" lat="66.9539166687" lon="13.2627305499">
		<tag k="name" v="Teistholmen" />
		<tag k="place" v="islet" />
		<tag k="ssr:stedsnr" v="805821" />
	</node>
	<node id="-671434" lat="66.9735388892" lon="13.282005546">
		<tag k="fixme" v="consider seamark:type=rock or natural=shoal" />
		<tag k="name" v="Nettskjæran" />
		<tag k="place" v="islet" />
		<tag k="ssr:stedsnr" v="805814" />
	</node>
	<node id="-671433" lat="66.7910250014" lon="13.1740527737">
		<tag k="name" v="Haverøya" />
		<tag k="place" v="islet" />
		<tag k="ssr:stedsnr" v="805803" />
	</node>
	<node id="-671432" lat="66.7741666638" lon="13.0877138865">
		<tag k="alt_name" v="Helløya, l" />
		<tag k="name" v="Litlhelløya" />
		<tag k="place" v="island" />
		<tag k="ssr:stedsnr" v="805782" />
	</node>
	<node id="-671431" lat="66.7699361114" lon="13.1121138956">
		<tag k="alt_name" v="Sørlyngværet" />
		<tag k="name" v="Sørlyngvær" />
		<tag k="place" v="islet" />
		<tag k="ssr:stedsnr" v="805771" />
	</node>
	<node id="-671429" lat="66.8130527735" lon="13.6484888934">
		<tag k="name" v="Digermulen" />
		<tag k="natural" v="cape" />
		<tag k="ssr:stedsnr" v="805766" />
	</node>
	<node id="-671427" lat="66.8173361145" lon="13.0436888842">
		<tag k="name" v="Nakkgrunnen" />
		<tag k="natural" v="shoal" />
		<tag k="place" v="locality" />
		<tag k="ssr:stedsnr" v="805756" />
	</node>
	<node id="-671425" lat="66.7946111112" lon="12.996094436">
		<tag k="name" v="Snybreigrunnen" />
		<tag k="natural" v="shoal" />
		<tag k="place" v="locality" />
		<tag k="ssr:stedsnr" v="805747" />
	</node>
	<node id="-671424" lat="66.8103250002" lon="13.0947861001">
		<tag k="fixme" v="consider seamark:type=rock or natural=shoal" />
		<tag k="name" v="Ternskjæran" />
		<tag k="place" v="islet" />
		<tag k="ssr:stedsnr" v="805738" />
	</node>
	<node id="-671423" lat="66.8264055559" lon="13.1890444379">
		<tag k="name" v="Trettholmen" />
		<tag k="place" v="islet" />
		<tag k="ssr:stedsnr" v="805724" />
	</node>
	<node id="-671422" lat="66.8544249977" lon="13.2057833372">
		<tag k="name" v="Mjågrunnen" />
		<tag k="natural" v="shoal" />
		<tag k="place" v="locality" />
		<tag k="ssr:stedsnr" v="805718" />
	</node>
	<node id="-671404" lat="66.7128555603" lon="13.6130527704">
		<tag k="name" v="Sommarsetvika" />
		<tag k="natural" v="bay" />
		<tag k="ssr:stedsnr" v="805205" />
	</node>
	<node id="-671395" lat="66.7336444426" lon="13.5564916598">
		<tag k="name" v="Rebbåsvika" />
		<tag k="natural" v="bay" />
		<tag k="ssr:stedsnr" v="805111" />
	</node>
	<node id="-671394" lat="66.8051027812" lon="13.3259222196">
		<tag k="name" v="Halvpundsteinen" />
		<tag k="natural" v="shoal" />
		<tag k="place" v="locality" />
		<tag k="ssr:stedsnr" v="805099" />
	</node>
	<node id="-671393" lat="66.7766722244" lon="13.4662333293">
		<tag k="name" v="Bogen" />
		<tag k="natural" v="bay" />
		<tag k="ssr:stedsnr" v="805078" />
	</node>
	<node id="-671392" lat="66.789866667" lon="13.4817277776">
		<tag k="name" v="Murholmen" />
		<tag k="place" v="islet" />
		<tag k="ssr:stedsnr" v="805063" />
	</node>
	<node id="-671391" lat="66.7855361115" lon="13.3596250041">
		<tag k="name" v="Strandvika" />
		<tag k="natural" v="bay" />
		<tag k="ssr:stedsnr" v="805060" />
	</node>
	<node id="-671380" lat="66.7160666656" lon="13.6722388932">
		<tag k="name" v="Brasetvikneset" />
		<tag k="natural" v="cape" />
		<tag k="ssr:stedsnr" v="774457" />
	</node>
	<node id="-671376" lat="66.914402775" lon="13.0914416555">
		<tag k="name" v="Kalsholmen" />
		<tag k="place" v="islet" />
		<tag k="ssr:stedsnr" v="773905" />
	</node>
	<node id="-671375" lat="66.7258638927" lon="13.5233805554">
		<tag k="name" v="Korsvikneset" />
		<tag k="natural" v="cape" />
		<tag k="ssr:stedsnr" v="773899" />
	</node>
	<node id="-671370" lat="66.8551083363" lon="13.6990416753">
		<tag k="name" v="Skjåholmsundet" />
		<tag k="natural" v="strait" />
		<tag k="ssr:stedsnr" v="773809" />
	</node>
	<node id="-669633" lat="66.7555472245" lon="13.0511361195">
		<tag k="alt_name" v="Madsskjeret, store" />
		<tag k="fixme" v="consider seamark:type=rock or natural=shoal" />
		<tag k="name" v="Stormadsskjær" />
		<tag k="place" v="islet" />
		<tag k="ssr:stedsnr" v="320802" />
	</node>
	<node id="-671356" lat="66.6993527798" lon="13.6815361013">
		<tag k="name" v="Fonndalsøyra" />
		<tag k="natural" v="beach" />
		<tag k="place" v="locality" />
		<tag k="ssr:stedsnr" v="773443" />
	</node>
	<node id="-669628" lat="66.7478194412" lon="13.5544777681">
		<tag k="name" v="Halsabukta" />
		<tag k="natural" v="bay" />
		<tag k="ssr:stedsnr" v="320185" />
	</node>
	<node id="-671334" lat="66.755927774" lon="13.4314361202">
		<tag k="name" v="Breivika" />
		<tag k="natural" v="bay" />
		<tag k="ssr:stedsnr" v="772340" />
	</node>
	<node id="-671329" lat="66.7554805525" lon="13.2601527684">
		<tag k="name" v="Jektholmen" />
		<tag k="natural" v="cape" />
		<tag k="ssr:stedsnr" v="765729" />
	</node>
	<node id="-671325" lat="66.9218083364" lon="13.4710444497">
		<tag k="name" v="Nordvalen" />
		<tag k="natural" v="bay" />
		<tag k="ssr:stedsnr" v="764263" />
	</node>
	<node id="-671324" lat="66.8862888885" lon="13.4534388873">
		<tag k="name" v="Gåsvær" />
		<tag k="place" v="island" />
		<tag k="ssr:stedsnr" v="753522" />
	</node>
	<node id="-671323" lat="66.8323611127" lon="13.1537555627">
		<tag k="name" v="Storbåen" />
		<tag k="place" v="locality" />
		<tag k="seamark:type" v="rock" />
		<tag k="ssr:stedsnr" v="753218" />
	</node>
	<node id="-671322" lat="66.8304027772" lon="13.1520583372">
		<tag k="name" v="Litlbåen" />
		<tag k="place" v="locality" />
		<tag k="seamark:type" v="rock" />
		<tag k="ssr:stedsnr" v="753215" />
	</node>
	<node id="-671320" lat="66.7969527813" lon="13.4485055456">
		<tag k="name" v="Grønnøybåen" />
		<tag k="natural" v="shoal" />
		<tag k="place" v="locality" />
		<tag k="ssr:stedsnr" v="752400" />
	</node>
	<node id="-671319" lat="66.8067305581" lon="13.5860138868">
		<tag k="name" v="Vassdalholmen" />
		<tag k="natural" v="cape" />
		<tag k="ssr:stedsnr" v="752382" />
	</node>
	<node id="-671312" lat="66.8167277774" lon="13.4018944363">
		<tag k="name" v="Vassvika" />
		<tag k="natural" v="bay" />
		<tag k="ssr:stedsnr" v="744974" />
	</node>
	<node id="-671311" lat="66.8168027763" lon="13.3177444405">
		<tag k="alt_name" v="Gjermundsholman, in" />
		<tag k="name" v="Indre Gjermundsholmen" />
		<tag k="place" v="islet" />
		<tag k="ssr:stedsnr" v="744968" />
	</node>
	<node id="-671310" lat="66.8602611068" lon="13.2807694473">
		<tag k="name" v="Henrikøya" />
		<tag k="place" v="islet" />
		<tag k="ssr:stedsnr" v="744963" />
	</node>
	<node id="-671308" lat="66.8450916661" lon="13.2820444337">
		<tag k="name" v="Sandværflua" />
		<tag k="natural" v="shoal" />
		<tag k="place" v="locality" />
		<tag k="ssr:stedsnr" v="744945" />
	</node>
	<node id="-671307" lat="66.879372219" lon="13.4481194487">
		<tag k="alt_name" v="Medøya, in" />
		<tag k="name" v="Innermedøya" />
		<tag k="place" v="island" />
		<tag k="ssr:stedsnr" v="744920" />
	</node>
	<node id="-671305" lat="66.9161805548" lon="13.4161472124">
		<tag k="name" v="Geitryggen" />
		<tag k="natural" v="shoal" />
		<tag k="place" v="locality" />
		<tag k="ssr:stedsnr" v="744899" />
	</node>
	<node id="-671304" lat="66.9065138906" lon="13.3548999907">
		<tag k="name" v="Kalan" />
		<tag k="place" v="islet" />
		<tag k="ssr:stedsnr" v="744886" />
	</node>
	<node id="-671300" lat="66.9000916712" lon="13.4150916602">
		<tag k="alt_name" v="Lomøya, l" />
		<tag k="name" v="Litle Lomøya" />
		<tag k="place" v="islet" />
		<tag k="ssr:stedsnr" v="744864" />
	</node>
	<node id="-671299" lat="66.9389555582" lon="13.4271527819">
		<tag k="fixme" v="consider seamark:type=rock or natural=shoal" />
		<tag k="name" v="Litle Sengsholmen" />
		<tag k="place" v="islet" />
		<tag k="ssr:stedsnr" v="744862" />
	</node>
	<node id="-671297" lat="66.9494166682" lon="13.3832305464">
		<tag k="name" v="Gåsholmflua" />
		<tag k="natural" v="shoal" />
		<tag k="place" v="locality" />
		<tag k="ssr:stedsnr" v="744850" />
	</node>
	<node id="-671295" lat="66.931002774" lon="13.5349888938">
		<tag k="name" v="Rognan" />
		<tag k="place" v="island" />
		<tag k="ssr:stedsnr" v="744837" />
	</node>
	<node id="-671293" lat="66.9561666645" lon="13.4011694378">
		<tag k="name" v="Vestergrunnen" />
		<tag k="natural" v="shoal" />
		<tag k="place" v="locality" />
		<tag k="ssr:stedsnr" v="744808" />
	</node>
	<node id="-671292" lat="66.9655611101" lon="13.5228527683">
		<tag k="name" v="Bolggrunnen" />
		<tag k="natural" v="shoal" />
		<tag k="place" v="locality" />
		<tag k="ssr:stedsnr" v="744805" />
	</node>
	<node id="-671291" lat="66.7932361126" lon="13.1245333331">
		<tag k="bay" v="fjord" />
		<tag k="name" v="Sandværflaget" />
		<tag k="natural" v="bay" />
		<tag k="ssr:stedsnr" v="744792" />
	</node>
	<node id="-671290" lat="66.7995583345" lon="13.1692833299">
		<tag k="fixme" v="consider seamark:type=rock or natural=shoal" />
		<tag k="name" v="Sandskjæran" />
		<tag k="place" v="islet" />
		<tag k="ssr:stedsnr" v="744786" />
	</node>
	<node id="-671289" lat="66.7655138863" lon="13.087886103">
		<tag k="name" v="Senholmen" />
		<tag k="place" v="islet" />
		<tag k="ssr:stedsnr" v="744771" />
	</node>
	<node id="-671288" lat="66.7831722244" lon="13.1153305481">
		<tag k="alt_name" v="Kalvholmen" />
		<tag k="name" v="Kalvøya" />
		<tag k="place" v="islet" />
		<tag k="ssr:stedsnr" v="744765" />
	</node>
	<node id="-671287" lat="66.8189666634" lon="13.1388527785">
		<tag k="fixme" v="consider seamark:type=rock or natural=shoal" />
		<tag k="name" v="Grønholmdrægen" />
		<tag k="place" v="islet" />
		<tag k="ssr:stedsnr" v="744747" />
	</node>
	<node id="-671286" lat="66.8367444442" lon="13.1843083241">
		<tag k="alt_name" v="Tørrgotskjeran" />
		<tag k="fixme" v="consider seamark:type=rock or natural=shoal" />
		<tag k="name" v="Tørrgåttskjæran" />
		<tag k="place" v="islet" />
		<tag k="ssr:stedsnr" v="744719" />
	</node>
	<node id="-671285" lat="66.8218250012" lon="12.897377771">
		<tag k="name" v="Romskallen" />
		<tag k="natural" v="shoal" />
		<tag k="place" v="locality" />
		<tag k="ssr:stedsnr" v="744720" />
	</node>
	<node id="-671284" lat="66.8309083297" lon="12.9497638883">
		<tag k="name" v="Moholmskaftet" />
		<tag k="natural" v="shoal" />
		<tag k="place" v="locality" />
		<tag k="ssr:stedsnr" v="744706" />
	</node>
	<node id="-671283" lat="66.8418194455" lon="13.0064388854">
		<tag k="name" v="Moholmstorbåen" />
		<tag k="natural" v="shoal" />
		<tag k="place" v="locality" />
		<tag k="ssr:stedsnr" v="744705" />
	</node>
	<node id="-671282" lat="66.8923777819" lon="12.9027527771">
		<tag k="alt_name" v="Torgrunnen, nordre" />
		<tag k="name" v="Nordtorgrunnen" />
		<tag k="natural" v="shoal" />
		<tag k="place" v="locality" />
		<tag k="ssr:stedsnr" v="744689" />
	</node>
	<node id="-671281" lat="66.9254916661" lon="13.1232027886">
		<tag k="name" v="Moholman" />
		<tag k="place" v="islet" />
		<tag k="ssr:stedsnr" v="744678" />
	</node>
	<node id="-671279" lat="66.7167250004" lon="13.7190027822">
		<tag k="alt_name" v="Skavik" />
		<tag k="name" v="Skavika" />
		<tag k="natural" v="bay" />
		<tag k="ssr:stedsnr" v="744449" />
	</node>
	<node id="-671271" lat="66.8162277778" lon="13.8003361023">
		<tag k="name" v="Neset" />
		<tag k="natural" v="cape" />
		<tag k="ssr:stedsnr" v="744287" />
	</node>
	<node id="-669617" lat="66.9502333351" lon="13.4933999888">
		<tag k="name" v="Rotkneet" />
		<tag k="natural" v="cape" />
		<tag k="ssr:stedsnr" v="319849" />
	</node>
	<node id="-669616" lat="66.9247249963" lon="13.3968222215">
		<tag k="fixme" v="consider seamark:type=rock or natural=shoal" />
		<tag k="name" v="Langskjæran" />
		<tag k="place" v="islet" />
		<tag k="ssr:stedsnr" v="319832" />
	</node>
	<node id="-671258" lat="66.7410527814" lon="13.5008138813">
		<tag k="name" v="Esvika" />
		<tag k="natural" v="bay" />
		<tag k="ssr:stedsnr" v="744123" />
	</node>
	<node id="-671253" lat="66.8050416711" lon="13.536441663">
		<tag k="fixme" v="multiple name tags, choose one and add the other to alt_name" />
		<tag k="name" v="Jenslundneset;Ørjosneset" />
		<tag k="natural" v="cape" />
		<tag k="ssr:stedsnr" v="744092" />
	</node>
	<node id="-671252" lat="66.7915611141" lon="13.225180559">
		<tag k="name" v="Geitøya" />
		<tag k="place" v="island" />
		<tag k="ssr:stedsnr" v="744080" />
	</node>
	<node id="-671251" lat="66.8039777805" lon="13.3455555594">
		<tag k="name" v="Hattbåen" />
		<tag k="natural" v="shoal" />
		<tag k="place" v="locality" />
		<tag k="ssr:stedsnr" v="744071" />
	</node>
	<node id="-671250" lat="66.7950388906" lon="13.4750250061">
		<tag k="fixme" v="consider seamark:type=rock or natural=shoal" />
		<tag k="name" v="Langskjæran" />
		<tag k="old_name" v="Langskjan" />
		<tag k="place" v="islet" />
		<tag k="ssr:stedsnr" v="744068" />
	</node>
	<node id="-669613" lat="66.9940527802" lon="13.4569916777">
		<tag k="name" v="Nordbreigrunnen" />
		<tag k="natural" v="shoal" />
		<tag k="place" v="locality" />
		<tag k="ssr:stedsnr" v="319802" />
	</node>
	<node id="-671241" lat="66.762175002" lon="13.7001222209">
		<tag k="alt_name" v="Slettneset" />
		<tag k="name" v="Slettnes" />
		<tag k="natural" v="cape" />
		<tag k="ssr:stedsnr" v="744019" />
	</node>
	<node id="-671240" lat="66.7552749541" lon="13.6990262317">
		<tag k="name" v="Breivika" />
		<tag k="natural" v="bay" />
		<tag k="ssr:stedsnr" v="744017" />
	</node>
	<node id="-671239" lat="66.7538194472" lon="13.3990555612">
		<tag k="name" v="Skarsodden" />
		<tag k="natural" v="cape" />
		<tag k="ssr:stedsnr" v="744003" />
	</node>
	<node id="-671233" lat="66.749177776" lon="13.5341055589">
		<tag k="name" v="Æsøyneset" />
		<tag k="natural" v="cape" />
		<tag k="ssr:stedsnr" v="712955" />
	</node>
	<node id="-671231" lat="66.6968527751" lon="13.6314472154">
		<tag k="name" v="Mølnvika" />
		<tag k="natural" v="bay" />
		<tag k="ssr:stedsnr" v="712902" />
	</node>
	<node id="-669610" lat="66.8078527819" lon="13.0892666567">
		<tag k="alt_name" v="Ramnholmen, l" />
		<tag k="name" v="Litlravnholmen" />
		<tag k="place" v="islet" />
		<tag k="ssr:stedsnr" v="319748" />
	</node>
	<node id="-671223" lat="66.8341861138" lon="13.7557222237">
		<tag k="name" v="Grønneset" />
		<tag k="natural" v="cape" />
		<tag k="ssr:stedsnr" v="712735" />
	</node>
	<node id="-669609" lat="66.8212222223" lon="12.9828472251">
		<tag k="fixme" v="consider seamark:type=rock or natural=shoal" />
		<tag k="name" v="Joskjæret" />
		<tag k="place" v="islet" />
		<tag k="ssr:stedsnr" v="319742" />
	</node>
	<node id="-671213" lat="66.8004111154" lon="13.2305722223">
		<tag k="name" v="Høystøen" />
		<tag k="natural" v="bay" />
		<tag k="ssr:stedsnr" v="712656" />
	</node>
	<node id="-671210" lat="66.8198555536" lon="13.3344888834">
		<tag k="name" v="Kleppfiskbergan" />
		<tag k="natural" v="cape" />
		<tag k="ssr:stedsnr" v="712618" />
	</node>
	<node id="-671209" lat="66.8338694447" lon="13.358255563">
		<tag k="name" v="Andholmen" />
		<tag k="natural" v="cape" />
		<tag k="ssr:stedsnr" v="712616" />
	</node>
	<node id="-671197" lat="66.8160805599" lon="13.4061388846">
		<tag k="name" v="Nyvarpneset" />
		<tag k="natural" v="cape" />
		<tag k="ssr:stedsnr" v="712221" />
	</node>
	<node id="-671195" lat="66.8476861121" lon="13.7033638858">
		<tag k="name" v="Servollodden" />
		<tag k="natural" v="cape" />
		<tag k="ssr:stedsnr" v="712168" />
	</node>
	<node id="-669603" lat="66.7261749991" lon="13.8633861042">
		<tag k="name" v="Hindsøyra" />
		<tag k="natural" v="cape" />
		<tag k="ssr:stedsnr" v="319478" />
	</node>
	<node id="-671183" lat="66.7531638917" lon="13.2701361181">
		<tag k="name" v="Silvik" />
		<tag k="natural" v="bay" />
		<tag k="ssr:stedsnr" v="704704" />
	</node>
	<node id="-671181" lat="66.9297749976" lon="13.4556722305">
		<tag k="name" v="Drægern" />
		<tag k="natural" v="cape" />
		<tag k="ssr:stedsnr" v="704275" />
	</node>
	<node id="-671178" lat="66.7172861101" lon="13.4785499938">
		<tag k="name" v="Ågbukta" />
		<tag k="natural" v="bay" />
		<tag k="ssr:stedsnr" v="693480" />
	</node>
	<node id="-671177" lat="66.8674333373" lon="13.7004000062">
		<tag k="fixme" v="consider seamark:type=rock or natural=shoal" />
		<tag k="name" v="Ørnesskjæret" />
		<tag k="place" v="islet" />
		<tag k="ssr:stedsnr" v="692465" />
	</node>
	<node id="-671175" lat="66.7778111108" lon="13.1585111107">
		<tag k="name" v="Lysgrunnen" />
		<tag k="natural" v="shoal" />
		<tag k="place" v="locality" />
		<tag k="ssr:stedsnr" v="691603" />
	</node>
	<node id="-671174" lat="66.8065277778" lon="13.9614527835">
		<tag k="name" v="Nordnøv" />
		<tag k="natural" v="cape" />
		<tag k="ssr:stedsnr" v="691244" />
	</node>
	<node id="-671173" lat="66.8016666633" lon="13.2433333292">
		<tag k="name" v="Stranda" />
		<tag k="natural" v="cape" />
		<tag k="ssr:stedsnr" v="688565" />
	</node>
	<node id="-671171" lat="66.8308676004" lon="13.5883047391">
		<tag k="alt_name" v="Skjærpa" />
		<tag k="name" v="Skjerpa" />
		<tag k="place" v="island" />
		<tag k="ssr:stedsnr" v="684998" />
	</node>
	<node id="-671169" lat="66.8204083301" lon="13.2886805472">
		<tag k="alt_name" v="Oterværet, in" />
		<tag k="name" v="Indre Otervær" />
		<tag k="place" v="island" />
		<tag k="ssr:stedsnr" v="684973" />
	</node>
	<node id="-671160" lat="66.7970027812" lon="13.160052773">
		<tag k="name" v="Sandvær" />
		<tag k="place" v="islet" />
		<tag k="ssr:stedsnr" v="684814" />
	</node>
	<node id="-671159" lat="66.789002774" lon="13.0776777683">
		<tag k="fixme" v="consider seamark:type=rock or natural=shoal" />
		<tag k="name" v="Småskjæran" />
		<tag k="place" v="islet" />
		<tag k="ssr:stedsnr" v="684809" />
	</node>
	<node id="-671158" lat="66.8269833326" lon="13.7650305626">
		<tag k="name" v="Djupvika" />
		<tag k="natural" v="bay" />
		<tag k="ssr:stedsnr" v="684772" />
	</node>
	<node id="-671155" lat="66.8011722215" lon="13.0650000097">
		<tag k="fixme" v="consider seamark:type=rock or natural=shoal" />
		<tag k="name" v="Joskjæret" />
		<tag k="place" v="islet" />
		<tag k="ssr:stedsnr" v="684759" />
	</node>
	<node id="-671154" lat="66.7949333299" lon="13.0846083283">
		<tag k="fixme" v="consider seamark:type=rock or natural=shoal" />
		<tag k="name" v="Burøyskjæret" />
		<tag k="place" v="islet" />
		<tag k="ssr:stedsnr" v="684758" />
	</node>
	<node id="-671153" lat="66.8253249982" lon="13.0992500111">
		<tag k="fixme" v="consider seamark:type=rock or natural=shoal" />
		<tag k="name" v="Ostkista" />
		<tag k="place" v="islet" />
		<tag k="ssr:stedsnr" v="684744" />
	</node>
	<node id="-671140" lat="66.7379194401" lon="13.5000250077">
		<tag k="name" v="Sørvika" />
		<tag k="natural" v="bay" />
		<tag k="ssr:stedsnr" v="684159" />
	</node>
	<node id="-671139" lat="66.8660388916" lon="13.3198527683">
		<tag k="alt_name" v="Brimholman" />
		<tag k="name" v="Bremholman" />
		<tag k="place" v="islet" />
		<tag k="ssr:stedsnr" v="683966" />
	</node>
	<node id="-671138" lat="66.8504333326" lon="13.231822217">
		<tag k="fixme" v="consider seamark:type=rock or natural=shoal" />
		<tag k="name" v="Varkgårdbalen" />
		<tag k="place" v="islet" />
		<tag k="ssr:stedsnr" v="683954" />
	</node>
	<node id="-671137" lat="66.8483083334" lon="13.3035694412">
		<tag k="name" v="Sandværbåen" />
		<tag k="natural" v="shoal" />
		<tag k="place" v="locality" />
		<tag k="ssr:stedsnr" v="683943" />
	</node>
	<node id="-671136" lat="66.8888388877" lon="13.6257111006">
		<tag k="alt_name" v="Skipvika;Skeivika" />
		<tag k="name" v="Skivika" />
		<tag k="natural" v="bay" />
		<tag k="ssr:stedsnr" v="683921" />
	</node>
	<node id="-671135" lat="66.8881944405" lon="13.5391583368">
		<tag k="alt_name" v="Pølsskallen" />
		<tag k="name" v="Pølskallen" />
		<tag k="natural" v="shoal" />
		<tag k="place" v="locality" />
		<tag k="ssr:stedsnr" v="683913" />
	</node>
	<node id="-671134" lat="66.8715027763" lon="13.4549638891">
		<tag k="name" v="Kobbholmen" />
		<tag k="place" v="islet" />
		<tag k="ssr:stedsnr" v="683906" />
	</node>
	<node id="-671132" lat="66.8745833313" lon="13.572858337">
		<tag k="name" v="Litlhestvika" />
		<tag k="natural" v="bay" />
		<tag k="ssr:stedsnr" v="683899" />
	</node>
	<node id="-671130" lat="66.9479333366" lon="13.457105565">
		<tag k="name" v="Seiskjæran" />
		<tag k="place" v="islet" />
		<tag k="ssr:stedsnr" v="683833" />
	</node>
	<node id="-671129" lat="66.9228361157" lon="13.3715805545">
		<tag k="name" v="Hundholmen" />
		<tag k="place" v="island" />
		<tag k="ssr:stedsnr" v="683819" />
	</node>
	<node id="-671128" lat="66.9596083358" lon="13.4686277844">
		<tag k="name" v="Fugløytaren" />
		<tag k="natural" v="shoal" />
		<tag k="place" v="locality" />
		<tag k="ssr:stedsnr" v="683801" />
	</node>
	<node id="-671127" lat="66.9330166686" lon="13.0876777737">
		<tag k="name" v="Skarvholmen" />
		<tag k="place" v="islet" />
		<tag k="ssr:stedsnr" v="683715" />
	</node>
	<node id="-669593" lat="66.7159166665" lon="13.5673000112">
		<tag k="name" v="Krakneset" />
		<tag k="natural" v="cape" />
		<tag k="ssr:stedsnr" v="319223" />
	</node>
	<node id="-671112" lat="66.8042666669" lon="13.5474249924">
		<tag k="name" v="Vargvika" />
		<tag k="natural" v="bay" />
		<tag k="ssr:stedsnr" v="683113" />
	</node>
	<node id="-671111" lat="66.8034305512" lon="13.5141888853">
		<tag k="alt_name" v="Gongstøneset" />
		<tag k="name" v="Gangstøen" />
		<tag k="natural" v="cape" />
		<tag k="ssr:stedsnr" v="683111" />
	</node>
	<node id="-671108" lat="66.8122111113" lon="13.284375005">
		<tag k="alt_name" v="Leikua, ytre" />
		<tag k="name" v="Ytterkua" />
		<tag k="place" v="islet" />
		<tag k="ssr:stedsnr" v="683101" />
	</node>
	<node id="-671107" lat="66.8060138874" lon="13.3176611215">
		<tag k="alt_name" v="Halvpundsholmen" />
		<tag k="name" v="Halvpundholmen" />
		<tag k="place" v="islet" />
		<tag k="ssr:stedsnr" v="683096" />
	</node>
	<node id="-671106" lat="66.804444441" lon="13.2358305628">
		<tag k="name" v="Pervika" />
		<tag k="natural" v="bay" />
		<tag k="ssr:stedsnr" v="683094" />
	</node>
	<node id="-671104" lat="66.7772333293" lon="13.2497861063">
		<tag k="bay" v="fjord" />
		<tag k="name" v="Bolgfjorden" />
		<tag k="natural" v="bay" />
		<tag k="ssr:stedsnr" v="683070" />
	</node>
	<node id="-669589" lat="66.7301500021" lon="13.4409361038">
		<tag k="name" v="Skavikholmen" />
		<tag k="place" v="islet" />
		<tag k="ssr:stedsnr" v="319136" />
	</node>
	<node id="-671100" lat="66.7729499962" lon="13.5194250051">
		<tag k="name" v="Klubben" />
		<tag k="natural" v="cape" />
		<tag k="ssr:stedsnr" v="683037" />
	</node>
	<node id="-671093" lat="66.7504138851" lon="13.3235222258">
		<tag k="fixme" v="consider seamark:type=rock or natural=shoal" />
		<tag k="name" v="Storskjæran" />
		<tag k="place" v="islet" />
		<tag k="ssr:stedsnr" v="658916" />
	</node>
	<node id="-669586" lat="66.8103222229" lon="13.3043138783">
		<tag k="fixme" v="consider seamark:type=rock or natural=shoal" />
		<tag k="name" v="Skarvskjæran" />
		<tag k="place" v="islet" />
		<tag k="ssr:stedsnr" v="319110" />
	</node>
	<node id="-669585" lat="66.8128111118" lon="13.6983555571">
		<tag k="name" v="Stampen" />
		<tag k="natural" v="bay" />
		<tag k="ssr:stedsnr" v="319103" />
	</node>
	<node id="-671075" lat="66.8353194401" lon="13.563163897">
		<tag k="name" v="Pålsvika" />
		<tag k="natural" v="bay" />
		<tag k="ssr:stedsnr" v="651774" />
	</node>
	<node id="-671070" lat="66.7967694437" lon="13.2102444447">
		<tag k="name" v="Naustneset" />
		<tag k="natural" v="cape" />
		<tag k="ssr:stedsnr" v="651661" />
	</node>
	<node id="-671063" lat="66.7893916664" lon="13.4586083354">
		<tag k="name" v="Butikkvågen" />
		<tag k="natural" v="bay" />
		<tag k="ssr:stedsnr" v="651349" />
	</node>
	<node id="-671053" lat="66.7192166682" lon="13.5285583439">
		<tag k="name" v="Arhaugklubben" />
		<tag k="natural" v="cape" />
		<tag k="ssr:stedsnr" v="651199" />
	</node>
	<node id="-671052" lat="66.729966666" lon="13.827544453">
		<tag k="name" v="Heggågneset" />
		<tag k="natural" v="cape" />
		<tag k="ssr:stedsnr" v="651181" />
	</node>
	<node id="-671043" lat="66.8723305586" lon="13.6792388924">
		<tag k="name" v="Engøyskaftet" />
		<tag k="natural" v="cape" />
		<tag k="ssr:stedsnr" v="650405" />
	</node>
	<node id="-671035" lat="66.7312638851" lon="13.4610444548">
		<tag k="fixme" v="multiple name tags, choose one and add the other to alt_name" />
		<tag k="name" v="Ansiktsholman;Storholmen" />
		<tag k="place" v="islet" />
		<tag k="ssr:stedsnr" v="632470" />
	</node>
	<node id="-671034" lat="66.8097083352" lon="13.8289861103">
		<tag k="name" v="Sildneset" />
		<tag k="natural" v="cape" />
		<tag k="ssr:stedsnr" v="627566" />
	</node>
	<node id="-671032" lat="66.8353861136" lon="13.3014361153">
		<tag k="alt_name" v="Meløyværet" />
		<tag k="name" v="Meløyvær" />
		<tag k="place" v="island" />
		<tag k="ssr:stedsnr" v="623988" />
	</node>
	<node id="-671027" lat="66.9034861123" lon="13.3659194494">
		<tag k="name" v="Hestholmen, l" />
		<tag k="place" v="islet" />
		<tag k="ssr:stedsnr" v="623889" />
	</node>
	<node id="-671026" lat="66.9074194417" lon="13.5526361074">
		<tag k="name" v="Hornvika" />
		<tag k="natural" v="bay" />
		<tag k="ssr:stedsnr" v="623887" />
	</node>
	<node id="-671024" lat="66.7801666711" lon="13.0655083261">
		<tag k="fixme" v="consider seamark:type=rock or natural=shoal" />
		<tag k="name" v="Svartskjæret" />
		<tag k="place" v="islet" />
		<tag k="ssr:stedsnr" v="623827" />
	</node>
	<node id="-671023" lat="66.7984916664" lon="13.1735916775">
		<tag k="alt_name" v="Bursøya, l" />
		<tag k="name" v="Litle Bursøya" />
		<tag k="place" v="islet" />
		<tag k="ssr:stedsnr" v="623824" />
	</node>
	<node id="-671022" lat="66.797841671" lon="13.1908888852">
		<tag k="fixme" v="multiple name tags, choose one and add the other to alt_name" />
		<tag k="name" v="Jonasholman;Tarholman" />
		<tag k="place" v="islet" />
		<tag k="ssr:stedsnr" v="623819" />
	</node>
	<node id="-671021" lat="66.7578305585" lon="13.0678666706">
		<tag k="alt_name" v="Bukkøya" />
		<tag k="name" v="Bukktollevøya" />
		<tag k="place" v="islet" />
		<tag k="ssr:stedsnr" v="623809" />
	</node>
	<node id="-671020" lat="66.8181249972" lon="13.1108638895">
		<tag k="name" v="Verholmen" />
		<tag k="place" v="islet" />
		<tag k="ssr:stedsnr" v="623790" />
	</node>
	<node id="-671019" lat="66.8073805569" lon="13.1772472276">
		<tag k="fixme" v="consider seamark:type=rock or natural=shoal" />
		<tag k="name" v="Kammerskjæran" />
		<tag k="place" v="islet" />
		<tag k="ssr:stedsnr" v="623778" />
	</node>
	<node id="-671018" lat="67.0226527737" lon="13.0994333403">
		<tag k="name" v="Ungen" />
		<tag k="natural" v="shoal" />
		<tag k="place" v="locality" />
		<tag k="ssr:stedsnr" v="623772" />
	</node>
	<node id="-671008" lat="66.7955277748" lon="13.8186055486">
		<tag k="name" v="Mugskogvika" />
		<tag k="natural" v="bay" />
		<tag k="ssr:stedsnr" v="623321" />
	</node>
	<node id="-671007" lat="66.7439361123" lon="13.4923611161">
		<tag k="alt_name" v="Forøya" />
		<tag k="name" v="Furøy" />
		<tag k="place" v="island" />
		<tag k="ssr:stedsnr" v="623182" />
	</node>
	<node id="-671006" lat="66.8886861131" lon="13.6472944401">
		<tag k="name" v="Stigsundet" />
		<tag k="natural" v="strait" />
		<tag k="ssr:stedsnr" v="622931" />
	</node>
	<node id="-671005" lat="66.8705388895" lon="13.446444437">
		<tag k="fixme" v="consider seamark:type=rock or natural=shoal" />
		<tag k="name" v="Merra" />
		<tag k="place" v="islet" />
		<tag k="ssr:stedsnr" v="622925" />
	</node>
	<node id="-671004" lat="66.8802333347" lon="13.5717611174">
		<tag k="name" v="Skarvvika" />
		<tag k="natural" v="bay" />
		<tag k="ssr:stedsnr" v="622920" />
	</node>
	<node id="-671003" lat="66.8999638869" lon="13.3967361203">
		<tag k="name" v="Risøya" />
		<tag k="place" v="islet" />
		<tag k="ssr:stedsnr" v="622914" />
	</node>
	<node id="-671002" lat="66.8781833317" lon="13.6485277824">
		<tag k="alt_name" v="Risøen" />
		<tag k="name" v="Risøya" />
		<tag k="place" v="island" />
		<tag k="ssr:stedsnr" v="622909" />
	</node>
	<node id="-671001" lat="66.9426861118" lon="13.4400277806">
		<tag k="fixme" v="consider seamark:type=rock or natural=shoal" />
		<tag k="name" v="Store Sengsholmen" />
		<tag k="place" v="islet" />
		<tag k="ssr:stedsnr" v="622860" />
	</node>
	<node id="-671000" lat="66.9504333302" lon="13.3916916715">
		<tag k="name" v="Hestflua" />
		<tag k="natural" v="shoal" />
		<tag k="place" v="locality" />
		<tag k="ssr:stedsnr" v="622836" />
	</node>
	<node id="-670998" lat="66.9538527756" lon="13.3762749881">
		<tag k="name" v="Gåsholmbåen" />
		<tag k="natural" v="shoal" />
		<tag k="place" v="locality" />
		<tag k="ssr:stedsnr" v="622803" />
	</node>
	<node id="-670997" lat="66.9726583331" lon="13.5459611163">
		<tag k="name" v="Meløygrunnen" />
		<tag k="natural" v="shoal" />
		<tag k="place" v="locality" />
		<tag k="ssr:stedsnr" v="622799" />
	</node>
	<node id="-670996" lat="66.8315166702" lon="13.2511916578">
		<tag k="name" v="Bukkøya" />
		<tag k="place" v="island" />
		<tag k="ssr:stedsnr" v="622760" />
	</node>
	<node id="-670995" lat="66.8405333342" lon="12.9346111181">
		<tag k="name" v="Hardbakkskallen" />
		<tag k="natural" v="shoal" />
		<tag k="place" v="locality" />
		<tag k="ssr:stedsnr" v="622724" />
	</node>
	<node id="-670994" lat="66.9352111089" lon="13.1550749884">
		<tag k="fixme" v="consider seamark:type=rock or natural=shoal" />
		<tag k="name" v="Ertnskjæran" />
		<tag k="place" v="islet" />
		<tag k="ssr:stedsnr" v="622718" />
	</node>
	<node id="-670993" lat="66.9663916685" lon="13.1213638921">
		<tag k="bay" v="fjord" />
		<tag k="name" v="Grønfjorden" />
		<tag k="natural" v="bay" />
		<tag k="ssr:stedsnr" v="622715" />
	</node>
	<node id="-670992" lat="66.8553694464" lon="12.888352767">
		<tag k="alt_name" v="Innertaren" />
		<tag k="name" v="Indretaren" />
		<tag k="natural" v="shoal" />
		<tag k="place" v="locality" />
		<tag k="ssr:stedsnr" v="622710" />
	</node>
	<node id="-670974" lat="66.7949111155" lon="13.4073972137">
		<tag k="fixme" v="consider seamark:type=rock or natural=shoal" />
		<tag k="name" v="Svartoksen" />
		<tag k="place" v="islet" />
		<tag k="ssr:stedsnr" v="622118" />
	</node>
	<node id="-670973" lat="66.7948194438" lon="13.4755722182">
		<tag k="name" v="Løktholmen" />
		<tag k="place" v="islet" />
		<tag k="ssr:stedsnr" v="622117" />
	</node>
	<node id="-670970" lat="66.7570361147" lon="13.7378861227">
		<tag k="bay" v="fjord" />
		<tag k="name" v="Bjærangfjorden" />
		<tag k="natural" v="bay" />
		<tag k="ssr:stedsnr" v="622054" />
	</node>
	<node id="-670958" lat="66.7132916696" lon="13.6584333337">
		<tag k="name" v="Naustvika" />
		<tag k="natural" v="bay" />
		<tag k="ssr:stedsnr" v="591397" />
	</node>
	<node id="-670954" lat="66.7323222244" lon="13.7722472303">
		<tag k="name" v="Storvika" />
		<tag k="natural" v="bay" />
		<tag k="ssr:stedsnr" v="591371" />
	</node>
	<node id="-670942" lat="66.9260111108" lon="13.5379638964">
		<tag k="name" v="Flaget" />
		<tag k="place" v="locality" />
		<tag k="ssr:stedsnr" v="590847" />
	</node>
	<node id="-670932" lat="66.7882638871" lon="13.3577083367">
		<tag k="name" v="Buskjæret" />
		<tag k="natural" v="cape" />
		<tag k="ssr:stedsnr" v="590699" />
	</node>
	<node id="-670931" lat="66.7998277813" lon="13.2366666683">
		<tag k="name" v="Mellaholmen" />
		<tag k="place" v="islet" />
		<tag k="ssr:stedsnr" v="590689" />
	</node>
	<node id="-670926" lat="66.8101111125" lon="13.2057361064">
		<tag k="name" v="Slåttstranda" />
		<tag k="natural" v="beach" />
		<tag k="place" v="locality" />
		<tag k="ssr:stedsnr" v="590599" />
	</node>
	<node id="-670924" lat="66.7784694439" lon="13.3891638997">
		<tag k="name" v="Vakkerlandet" />
		<tag k="natural" v="cape" />
		<tag k="ssr:stedsnr" v="590374" />
	</node>
	<node id="-670923" lat="66.7792916643" lon="13.4944305528">
		<tag k="name" v="Lauknesbukta" />
		<tag k="natural" v="bay" />
		<tag k="ssr:stedsnr" v="590370" />
	</node>
	<node id="-670922" lat="66.7831027771" lon="13.4289388968">
		<tag k="name" v="Øyneset" />
		<tag k="natural" v="cape" />
		<tag k="ssr:stedsnr" v="590358" />
	</node>
	<node id="-670921" lat="66.792713887" lon="13.4731666622">
		<tag k="name" v="Buskholmen" />
		<tag k="place" v="islet" />
		<tag k="ssr:stedsnr" v="590350" />
	</node>
	<node id="-670916" lat="66.824991667" lon="13.4806222315">
		<tag k="name" v="Røshagneset" />
		<tag k="natural" v="cape" />
		<tag k="ssr:stedsnr" v="590284" />
	</node>
	<node id="-670905" lat="66.7288749962" lon="13.456644446">
		<tag k="alt_name" v="Ansiktsneset" />
		<tag k="name" v="Ansiktneset" />
		<tag k="natural" v="cape" />
		<tag k="ssr:stedsnr" v="571459" />
	</node>
	<node id="-670904" lat="66.8429194436" lon="13.2717249913">
		<tag k="name" v="Smitskallen" />
		<tag k="natural" v="shoal" />
		<tag k="place" v="locality" />
		<tag k="ssr:stedsnr" v="570797" />
	</node>
	<node id="-669644" lat="66.9433333348" lon="13.5249999892">
		<tag k="name" v="Kunna" />
		<tag k="natural" v="cape" />
		<tag k="ssr:stedsnr" v="323579" />
	</node>
	<node id="-670896" lat="66.8190333292" lon="13.2728166762">
		<tag k="name" v="Kalven" />
		<tag k="place" v="islet" />
		<tag k="ssr:stedsnr" v="562963" />
	</node>
	<node id="-670895" lat="66.8226388877" lon="13.2790111093">
		<tag k="alt_name" v="Oterværet, yt" />
		<tag k="name" v="Ytre Otervær" />
		<tag k="old_name" v="Oterværet" />
		<tag k="place" v="island" />
		<tag k="ssr:stedsnr" v="562958" />
	</node>
	<node id="-670894" lat="66.8636777741" lon="13.2900277808">
		<tag k="name" v="Måsøyan" />
		<tag k="place" v="islet" />
		<tag k="ssr:stedsnr" v="562955" />
	</node>
	<node id="-670893" lat="66.8470750031" lon="13.4207777871">
		<tag k="name" v="Gullholmen" />
		<tag k="place" v="islet" />
		<tag k="ssr:stedsnr" v="562948" />
	</node>
	<node id="-670891" lat="66.8366194437" lon="13.2944416723">
		<tag k="alt_name" v="Årstokkværet" />
		<tag k="name" v="Olstokvær" />
		<tag k="place" v="island" />
		<tag k="ssr:stedsnr" v="562935" />
	</node>
	<node id="-670890" lat="66.8352999968" lon="13.2515277681">
		<tag k="name" v="Dyøya" />
		<tag k="place" v="island" />
		<tag k="ssr:stedsnr" v="562934" />
	</node>
	<node id="-670889" lat="66.9221916622" lon="13.4601694543">
		<tag k="name" v="Innerstøtt" />
		<tag k="place" v="island" />
		<tag k="ssr:stedsnr" v="562893" />
	</node>
	<node id="-670887" lat="66.9081138865" lon="13.3867777861">
		<tag k="fixme" v="consider seamark:type=rock or natural=shoal" />
		<tag k="name" v="Engelungen" />
		<tag k="place" v="islet" />
		<tag k="ssr:stedsnr" v="562883" />
	</node>
	<node id="-670883" lat="66.8995027787" lon="13.3483166746">
		<tag k="alt_name" v="Hallvardholman" />
		<tag k="name" v="Halvorholman" />
		<tag k="place" v="islet" />
		<tag k="ssr:stedsnr" v="562872" />
	</node>
	<node id="-670882" lat="66.9005444453" lon="13.4096777727">
		<tag k="alt_name" v="Lomøya, store" />
		<tag k="name" v="Store Lomøya" />
		<tag k="place" v="islet" />
		<tag k="ssr:stedsnr" v="562867" />
	</node>
	<node id="-670881" lat="66.9387444443" lon="13.3955388829">
		<tag k="fixme" v="consider seamark:type=rock or natural=shoal" />
		<tag k="name" v="Steinskjæret" />
		<tag k="place" v="islet" />
		<tag k="ssr:stedsnr" v="562865" />
	</node>
	<node id="-670880" lat="66.9370999968" lon="13.4759388919">
		<tag k="name" v="Stabbsundet" />
		<tag k="natural" v="strait" />
		<tag k="ssr:stedsnr" v="562863" />
	</node>
	<node id="-670879" lat="66.9338916709" lon="13.4263249918">
		<tag k="name" v="Svenningen" />
		<tag k="place" v="island" />
		<tag k="ssr:stedsnr" v="562849" />
	</node>
	<node id="-670878" lat="66.7912388911" lon="13.1125805659">
		<tag k="name" v="Steinsøya" />
		<tag k="place" v="islet" />
		<tag k="ssr:stedsnr" v="562808" />
	</node>
	<node id="-670877" lat="66.7915555573" lon="13.1867444363">
		<tag k="alt_name" v="Gåsholmen, l" />
		<tag k="name" v="Litlgåsholmen" />
		<tag k="place" v="islet" />
		<tag k="ssr:stedsnr" v="562804" />
	</node>
	<node id="-670876" lat="66.7925750016" lon="13.0279916572">
		<tag k="name" v="Knørrøyryggen" />
		<tag k="natural" v="shoal" />
		<tag k="place" v="locality" />
		<tag k="ssr:stedsnr" v="562799" />
	</node>
	<node id="-670875" lat="66.7847944491" lon="13.1445694345">
		<tag k="name" v="Esjeholmen" />
		<tag k="place" v="islet" />
		<tag k="ssr:stedsnr" v="562782" />
	</node>
	<node id="-670874" lat="66.8265944441" lon="13.3276222312">
		<tag k="name" v="Hamnøya" />
		<tag k="place" v="island" />
		<tag k="ssr:stedsnr" v="562772" />
	</node>
	<node id="-670872" lat="66.8023583333" lon="13.2058833322">
		<tag k="name" v="Bolga" />
		<tag k="place" v="island" />
		<tag k="ssr:stedsnr" v="562754" />
	</node>
	<node id="-670871" lat="66.7988083355" lon="13.0447638893">
		<tag k="alt_name" v="Snyen" />
		<tag k="name" v="Snyvær" />
		<tag k="place" v="island" />
		<tag k="ssr:stedsnr" v="562750" />
	</node>
	<node id="-670870" lat="67.0295000012" lon="13.1334611199">
		<tag k="name" v="Kråkskallen" />
		<tag k="natural" v="shoal" />
		<tag k="place" v="locality" />
		<tag k="ssr:stedsnr" v="562751" />
	</node>
	<node id="-670869" lat="66.7993305569" lon="13.1392527722">
		<tag k="name" v="Valøyan" />
		<tag k="place" v="islet" />
		<tag k="ssr:stedsnr" v="562745" />
	</node>
	<node id="-670868" lat="66.8023638861" lon="13.14313889">
		<tag k="name" v="Gammøya" />
		<tag k="place" v="islet" />
		<tag k="ssr:stedsnr" v="562743" />
	</node>
	<node id="-670867" lat="67.0086222234" lon="13.1235416721">
		<tag k="name" v="Raudholmen" />
		<tag k="place" v="islet" />
		<tag k="ssr:stedsnr" v="562735" />
	</node>
	<node id="-670866" lat="67.0164055554" lon="13.1380138818">
		<tag k="name" v="Litle Raudholmen" />
		<tag k="place" v="islet" />
		<tag k="ssr:stedsnr" v="562732" />
	</node>
	<node id="-670865" lat="66.8341333303" lon="13.0312638986">
		<tag k="name" v="Hella" />
		<tag k="natural" v="shoal" />
		<tag k="place" v="locality" />
		<tag k="ssr:stedsnr" v="562723" />
	</node>
	<node id="-670864" lat="66.8153361084" lon="12.9781277786">
		<tag k="name" v="Finnhelløya" />
		<tag k="place" v="islet" />
		<tag k="ssr:stedsnr" v="562719" />
	</node>
	<node id="-670863" lat="66.8244277747" lon="13.1430555527">
		<tag k="name" v="Storgrønholmen" />
		<tag k="place" v="islet" />
		<tag k="ssr:stedsnr" v="562713" />
	</node>
	<node id="-670862" lat="66.8850444446" lon="12.917013887">
		<tag k="alt_name" v="Torgrunnen, s" />
		<tag k="name" v="Sørtorgrunnen" />
		<tag k="natural" v="shoal" />
		<tag k="place" v="locality" />
		<tag k="ssr:stedsnr" v="562696" />
	</node>
	<node id="-670853" lat="66.8313944407" lon="13.7592138825">
		<tag k="alt_name" v="Neverdalsbukta" />
		<tag k="name" v="Søre Neverdalsbukta" />
		<tag k="natural" v="bay" />
		<tag k="ssr:stedsnr" v="562332" />
	</node>
	<node id="-670852" lat="66.810647222" lon="13.727866664">
		<tag k="alt_name" v="Sandviksholman" />
		<tag k="name" v="Sandvikholman" />
		<tag k="place" v="island" />
		<tag k="ssr:stedsnr" v="562321" />
	</node>
	<node id="-670841" lat="67.005947224" lon="13.5545583236">
		<tag k="name" v="Harfjellgrunnen" />
		<tag k="natural" v="shoal" />
		<tag k="place" v="locality" />
		<tag k="ssr:stedsnr" v="561964" />
	</node>
	<node id="-670838" lat="66.8775499984" lon="13.5728777756">
		<tag k="name" v="Storhestvika" />
		<tag k="natural" v="bay" />
		<tag k="ssr:stedsnr" v="561895" />
	</node>
	<node id="-670837" lat="66.955825003" lon="13.5061305652">
		<tag k="fixme" v="consider seamark:type=rock or natural=shoal" />
		<tag k="name" v="Fleinværskjæret" />
		<tag k="place" v="islet" />
		<tag k="ssr:stedsnr" v="561828" />
	</node>
	<node id="-670836" lat="66.9508416663" lon="13.252055558">
		<tag k="name" v="Rørstabben" />
		<tag k="place" v="islet" />
		<tag k="ssr:stedsnr" v="561820" />
	</node>
	<node id="-670835" lat="66.9858388856" lon="13.2433166701">
		<tag k="name" v="Nettskjærgrunnen" />
		<tag k="natural" v="shoal" />
		<tag k="place" v="locality" />
		<tag k="ssr:stedsnr" v="561812" />
	</node>
	<node id="-670834" lat="66.9794277771" lon="13.5371444552">
		<tag k="name" v="Fallet" />
		<tag k="natural" v="shoal" />
		<tag k="place" v="locality" />
		<tag k="ssr:stedsnr" v="561813" />
	</node>
	<node id="-670833" lat="66.990969442" lon="13.5060027669">
		<tag k="name" v="Støttkuven" />
		<tag k="place" v="islet" />
		<tag k="ssr:stedsnr" v="561811" />
	</node>
	<node id="-670832" lat="66.8057250018" lon="13.0405444554">
		<tag k="fixme" v="consider seamark:type=rock or natural=shoal" />
		<tag k="name" v="Meløya" />
		<tag k="place" v="islet" />
		<tag k="ssr:stedsnr" v="561754" />
	</node>
	<node id="-670831" lat="66.8056750045" lon="13.1075916657">
		<tag k="name" v="Rotholmen" />
		<tag k="place" v="islet" />
		<tag k="ssr:stedsnr" v="561752" />
	</node>
	<node id="-670830" lat="66.8099111102" lon="13.1081638836">
		<tag k="name" v="Skruvholmen" />
		<tag k="place" v="islet" />
		<tag k="ssr:stedsnr" v="561750" />
	</node>
	<node id="-670826" lat="66.7879138885" lon="13.3672277886">
		<tag k="alt_name" v="Lammholmen" />
		<tag k="name" v="Lamholmen" />
		<tag k="place" v="islet" />
		<tag k="ssr:stedsnr" v="561113" />
	</node>
	<node id="-670825" lat="66.8113861105" lon="13.3402722227">
		<tag k="name" v="Kjølsholmen" />
		<tag k="place" v="islet" />
		<tag k="ssr:stedsnr" v="561110" />
	</node>
	<node id="-670820" lat="66.7698861103" lon="13.5184916677">
		<tag k="name" v="Osaholmen" />
		<tag k="place" v="islet" />
		<tag k="ssr:stedsnr" v="561058" />
	</node>
	<node id="-670817" lat="66.7780666679" lon="13.5172944378">
		<tag k="name" v="Engavågen" />
		<tag k="natural" v="bay" />
		<tag k="ssr:stedsnr" v="561043" />
	</node>
	<node id="-670815" lat="66.7629111084" lon="13.695480563">
		<tag k="name" v="Slettnesbukta" />
		<tag k="natural" v="bay" />
		<tag k="ssr:stedsnr" v="561032" />
	</node>
	<node id="-671589" lat="66.8329249973" lon="13.3273888978">
		<tag k="name" v="Slåttøya" />
		<tag k="place" v="islet" />
		<tag k="ssr:stedsnr" v="866952" />
	</node>
	<node id="-670786" lat="66.7334166683" lon="13.3892222228">
		<tag k="name" v="Tømmervika" />
		<tag k="natural" v="bay" />
		<tag k="ssr:stedsnr" v="530367" />
	</node>
	<node id="-670781" lat="66.8203250035" lon="13.4283194347">
		<tag k="name" v="Vikaneset" />
		<tag k="natural" v="cape" />
		<tag k="ssr:stedsnr" v="530294" />
	</node>
	<node id="-670775" lat="66.7270250009" lon="13.8983444384">
		<tag k="name" v="Hellarneset" />
		<tag k="natural" v="cape" />
		<tag k="ssr:stedsnr" v="530180" />
	</node>
	<node id="-670769" lat="66.766927781" lon="13.5318083314">
		<tag k="name" v="Nordneset" />
		<tag k="natural" v="cape" />
		<tag k="ssr:stedsnr" v="529828" />
	</node>
	<node id="-669532" lat="66.8258805517" lon="13.4753277666">
		<tag k="name" v="Røshagvika" />
		<tag k="natural" v="bay" />
		<tag k="ssr:stedsnr" v="287298" />
	</node>
	<node id="-670758" lat="66.7484222196" lon="13.2556722148">
		<tag k="name" v="Bukkøyskallen" />
		<tag k="natural" v="shoal" />
		<tag k="place" v="locality" />
		<tag k="ssr:stedsnr" v="510554" />
	</node>
	<node id="-670757" lat="66.8429888871" lon="13.7206277735">
		<tag k="name" v="Eidbukta" />
		<tag k="natural" v="bay" />
		<tag k="ssr:stedsnr" v="510339" />
	</node>
	<node id="-670755" lat="66.7993364916" lon="13.0777549808">
		<tag k="name" v="Snyen" />
		<tag k="place" v="island" />
		<tag k="ssr:stedsnr" v="509625" />
	</node>
	<node id="-670749" lat="66.8149416671" lon="13.1143888944">
		<tag k="name" v="Beitålen" />
		<tag k="place" v="islet" />
		<tag k="ssr:stedsnr" v="502786" />
	</node>
	<node id="-670748" lat="66.8176083324" lon="13.0253333268">
		<tag k="alt_name" v="Skarvholmen, l" />
		<tag k="name" v="Litlskarvholmen" />
		<tag k="place" v="islet" />
		<tag k="ssr:stedsnr" v="502758" />
	</node>
	<node id="-670743" lat="66.8096388916" lon="13.9415388905">
		<tag k="name" v="Haugvika" />
		<tag k="natural" v="bay" />
		<tag k="ssr:stedsnr" v="502327" />
	</node>
	<node id="-670741" lat="66.8046166713" lon="13.9912777733">
		<tag k="alt_name" v="Bjørnstillet" />
		<tag k="name" v="Bjørnstedet" />
		<tag k="natural" v="cape" />
		<tag k="ssr:stedsnr" v="502313" />
	</node>
	<node id="-670736" lat="66.8349916692" lon="13.5667555529">
		<tag k="alt_name" v="Meløysund" />
		<tag k="name" v="Meløysundet" />
		<tag k="natural" v="strait" />
		<tag k="ssr:stedsnr" v="501998" />
	</node>
	<node id="-669528" lat="66.7294500029" lon="13.807758323">
		<tag k="name" v="Mannågneset" />
		<tag k="natural" v="cape" />
		<tag k="ssr:stedsnr" v="287184" />
	</node>
	<node id="-670733" lat="66.8614472192" lon="13.2364000022">
		<tag k="fixme" v="consider seamark:type=rock or natural=shoal" />
		<tag k="name" v="Svartskjæran" />
		<tag k="place" v="islet" />
		<tag k="ssr:stedsnr" v="501963" />
	</node>
	<node id="-670732" lat="67.00892778" lon="13.3309333384">
		<tag k="name" v="Søre Lausgrunnen" />
		<tag k="natural" v="shoal" />
		<tag k="place" v="locality" />
		<tag k="ssr:stedsnr" v="501962" />
	</node>
	<node id="-670730" lat="66.8435972239" lon="13.3161444355">
		<tag k="fixme" v="consider seamark:type=rock or natural=shoal" />
		<tag k="name" v="Svartoksen" />
		<tag k="place" v="islet" />
		<tag k="ssr:stedsnr" v="501946" />
	</node>
	<node id="-670729" lat="66.8400138888" lon="13.2517305507">
		<tag k="fixme" v="consider seamark:type=rock or natural=shoal" />
		<tag k="name" v="Grisan" />
		<tag k="place" v="islet" />
		<tag k="ssr:stedsnr" v="501938" />
	</node>
	<node id="-670728" lat="66.8955555592" lon="13.3888250096">
		<tag k="fixme" v="consider seamark:type=rock or natural=shoal" />
		<tag k="name" v="Risøyskjæran" />
		<tag k="place" v="islet" />
		<tag k="ssr:stedsnr" v="501920" />
	</node>
	<node id="-670727" lat="66.8793111085" lon="13.4403805567">
		<tag k="alt_name" v="Medøya, yt" />
		<tag k="name" v="Yttermedøya" />
		<tag k="place" v="island" />
		<tag k="ssr:stedsnr" v="501914" />
	</node>
	<node id="-670726" lat="66.874427778" lon="13.6162499888">
		<tag k="name" v="Nesan" />
		<tag k="natural" v="cape" />
		<tag k="ssr:stedsnr" v="501901" />
	</node>
	<node id="-670721" lat="66.751605556" lon="13.2594888786">
		<tag k="name" v="Bukkøya" />
		<tag k="place" v="island" />
		<tag k="ssr:stedsnr" v="501763" />
	</node>
	<node id="-670719" lat="66.8790666644" lon="13.4224749931">
		<tag k="name" v="Storøya" />
		<tag k="place" v="island" />
		<tag k="ssr:stedsnr" v="501760" />
	</node>
	<node id="-670716" lat="66.8063750036" lon="13.1587916602">
		<tag k="name" v="Langguraværet" />
		<tag k="place" v="island" />
		<tag k="ssr:stedsnr" v="501743" />
	</node>
	<node id="-670715" lat="66.8058166635" lon="13.1281555492">
		<tag k="fixme" v="consider seamark:type=rock or natural=shoal" />
		<tag k="name" v="Pålskjæran" />
		<tag k="place" v="islet" />
		<tag k="ssr:stedsnr" v="501730" />
	</node>
	<node id="-670714" lat="66.8052055578" lon="13.0814861099">
		<tag k="alt_name" v="Ramnholmen, store" />
		<tag k="name" v="Storravnholmen" />
		<tag k="place" v="islet" />
		<tag k="ssr:stedsnr" v="501724" />
	</node>
	<node id="-670713" lat="66.82163611" lon="13.1275111128">
		<tag k="fixme" v="consider seamark:type=rock or natural=shoal" />
		<tag k="name" v="Skomakaren" />
		<tag k="place" v="islet" />
		<tag k="ssr:stedsnr" v="501721" />
	</node>
	<node id="-670712" lat="66.8288749954" lon="13.0355083405">
		<tag k="name" v="Kjørva" />
		<tag k="place" v="islet" />
		<tag k="ssr:stedsnr" v="501715" />
	</node>
	<node id="-670711" lat="66.8301000023" lon="12.9877805627">
		<tag k="fixme" v="consider seamark:type=rock or natural=shoal" />
		<tag k="name" v="Nattmålskjæret" />
		<tag k="place" v="islet" />
		<tag k="ssr:stedsnr" v="501711" />
	</node>
	<node id="-670710" lat="66.8183499991" lon="12.9009527843">
		<tag k="name" v="Rumpa" />
		<tag k="natural" v="shoal" />
		<tag k="place" v="locality" />
		<tag k="ssr:stedsnr" v="501708" />
	</node>
	<node id="-670709" lat="66.909961107" lon="13.0636305534">
		<tag k="name" v="Trollskjærsteinen" />
		<tag k="natural" v="shoal" />
		<tag k="place" v="locality" />
		<tag k="ssr:stedsnr" v="501684" />
	</node>
	<node id="-670699" lat="66.722300004" lon="13.5042833303">
		<tag k="name" v="Storvika" />
		<tag k="natural" v="bay" />
		<tag k="ssr:stedsnr" v="501218" />
	</node>
	<node id="-670698" lat="66.730691663" lon="13.5025694446">
		<tag k="bay" v="fjord" />
		<tag k="name" v="Arhaugfjorden" />
		<tag k="natural" v="bay" />
		<tag k="ssr:stedsnr" v="501215" />
	</node>
	<node id="-670693" lat="66.8032277768" lon="13.4820527876">
		<tag k="name" v="Kjerkholmen" />
		<tag k="place" v="islet" />
		<tag k="ssr:stedsnr" v="501114" />
	</node>
	<node id="-670690" lat="66.7797472189" lon="13.4118694438">
		<tag k="fixme" v="multiple name tags, choose one and add the other to alt_name" />
		<tag k="name" v="Åmnessundet;Grønnøysundet" />
		<tag k="natural" v="strait" />
		<tag k="ssr:stedsnr" v="501093" />
	</node>
	<node id="-670687" lat="66.7783805561" lon="13.3788277671">
		<tag k="alt_name" v="Osan" />
		<tag k="name" v="Osen" />
		<tag k="natural" v="bay" />
		<tag k="ssr:stedsnr" v="501075" />
	</node>
	<node id="-670684" lat="66.775205558" lon="13.4802666704">
		<tag k="fixme" v="multiple name tags, choose one and add the other to alt_name; consider seamark:type=rock or natural=shoal" />
		<tag k="name" v="Stamnesskjæret;Stavnesskjæret" />
		<tag k="place" v="islet" />
		<tag k="ssr:stedsnr" v="501040" />
	</node>
	<node id="-670662" lat="66.7586361138" lon="13.5812833311">
		<tag k="name" v="Halsosholmen" />
		<tag k="place" v="islet" />
		<tag k="ssr:stedsnr" v="469913" />
	</node>
	<node id="-670658" lat="66.8557694453" lon="13.6688111189">
		<tag k="name" v="Litlhopen" />
		<tag k="natural" v="bay" />
		<tag k="ssr:stedsnr" v="469802" />
	</node>
	<node id="-670655" lat="66.8399000009" lon="13.61436112">
		<tag k="name" v="Langnesvika" />
		<tag k="natural" v="bay" />
		<tag k="ssr:stedsnr" v="469788" />
	</node>
	<node id="-670648" lat="66.7905361122" lon="13.2060888929">
		<tag k="name" v="Hestøyhumpen" />
		<tag k="place" v="islet" />
		<tag k="ssr:stedsnr" v="469669" />
	</node>
	<node id="-670646" lat="66.8049166691" lon="13.1894083278">
		<tag k="name" v="Blåbærvika" />
		<tag k="natural" v="bay" />
		<tag k="ssr:stedsnr" v="469657" />
	</node>
	<node id="-670640" lat="66.7768361114" lon="13.4882472183">
		<tag k="name" v="Lauknesgrunnen" />
		<tag k="natural" v="shoal" />
		<tag k="place" v="locality" />
		<tag k="ssr:stedsnr" v="469380" />
	</node>
	<node id="-670638" lat="66.7975611101" lon="13.4706916561">
		<tag k="fixme" v="consider seamark:type=rock or natural=shoal" />
		<tag k="name" v="Langskjæret" />
		<tag k="place" v="islet" />
		<tag k="ssr:stedsnr" v="469351" />
	</node>
	<node id="-670636" lat="66.820186109" lon="13.4185111218">
		<tag k="name" v="Skreddarvika" />
		<tag k="natural" v="bay" />
		<tag k="ssr:stedsnr" v="469252" />
	</node>
	<node id="-670634" lat="66.8440694457" lon="13.7164583447">
		<tag k="name" v="Aspvika" />
		<tag k="natural" v="bay" />
		<tag k="ssr:stedsnr" v="469186" />
	</node>
	<node id="-670625" lat="66.7507361085" lon="13.2884000092">
		<tag k="fixme" v="consider seamark:type=rock or natural=shoal" />
		<tag k="name" v="Harrfjellskjæret" />
		<tag k="place" v="islet" />
		<tag k="ssr:stedsnr" v="462245" />
	</node>
	<node id="-670623" lat="66.8405055511" lon="13.396169454">
		<tag k="fixme" v="consider seamark:type=rock or natural=shoal" />
		<tag k="name" v="Langskjæret" />
		<tag k="place" v="islet" />
		<tag k="ssr:stedsnr" v="461292" />
	</node>
	<node id="-670621" lat="66.8595611117" lon="13.2436111073">
		<tag k="name" v="Varkgård" />
		<tag k="place" v="island" />
		<tag k="ssr:stedsnr" v="450833" />
	</node>
	<node id="-670620" lat="66.8297916683" lon="13.1375000059">
		<tag k="name" v="Grønholmtaran" />
		<tag k="natural" v="shoal" />
		<tag k="place" v="locality" />
		<tag k="ssr:stedsnr" v="450597" />
	</node>
	<node id="-670619" lat="66.9638416659" lon="13.2519305579">
		<tag k="name" v="Båsgrunnen" />
		<tag k="natural" v="shoal" />
		<tag k="place" v="locality" />
		<tag k="ssr:stedsnr" v="449844" />
	</node>
	<node id="-670618" lat="66.7784583299" lon="13.047280558">
		<tag k="name" v="Småtaran" />
		<tag k="natural" v="shoal" />
		<tag k="place" v="locality" />
		<tag k="ssr:stedsnr" v="449602" />
	</node>
	<node id="-670617" lat="66.8066500031" lon="13.603133339">
		<tag k="name" v="Vassdalsvika" />
		<tag k="natural" v="bay" />
		<tag k="ssr:stedsnr" v="449390" />
	</node>
	<node id="-670616" lat="66.727752776" lon="13.7350749951">
		<tag k="name" v="Djupvika" />
		<tag k="natural" v="bay" />
		<tag k="ssr:stedsnr" v="446804" />
	</node>
	<node id="-670613" lat="66.8743972219" lon="13.7015444499">
		<tag k="name" v="Mosvollbukta" />
		<tag k="natural" v="bay" />
		<tag k="ssr:stedsnr" v="441970" />
	</node>
	<node id="-670612" lat="66.8680972216" lon="13.687986109">
		<tag k="name" v="Likholmen" />
		<tag k="place" v="islet" />
		<tag k="ssr:stedsnr" v="441959" />
	</node>
	<node id="-670611" lat="66.8347111101" lon="13.3484750078">
		<tag k="name" v="Brentholmen" />
		<tag k="place" v="islet" />
		<tag k="ssr:stedsnr" v="441951" />
	</node>
	<node id="-670609" lat="66.8821166693" lon="13.4534222141">
		<tag k="fixme" v="consider seamark:type=rock or natural=shoal" />
		<tag k="name" v="Klemningen" />
		<tag k="place" v="islet" />
		<tag k="ssr:stedsnr" v="441926" />
	</node>
	<node id="-670608" lat="66.8815499995" lon="13.5936222316">
		<tag k="name" v="Teksmona" />
		<tag k="place" v="island" />
		<tag k="ssr:stedsnr" v="441921" />
	</node>
	<node id="-670607" lat="66.9171194435" lon="13.3924055658">
		<tag k="alt_name" v="Vakthusleia" />
		<tag k="bay" v="fjord" />
		<tag k="name" v="Måøyleia" />
		<tag k="natural" v="bay" />
		<tag k="ssr:stedsnr" v="441909" />
	</node>
	<node id="-670603" lat="66.8990722214" lon="13.3613527876">
		<tag k="fixme" v="consider seamark:type=rock or natural=shoal" />
		<tag k="name" v="Treholmskjæran" />
		<tag k="place" v="islet" />
		<tag k="ssr:stedsnr" v="441894" />
	</node>
	<node id="-670602" lat="66.9438499968" lon="13.3927527808">
		<tag k="name" v="Makkskallen" />
		<tag k="natural" v="shoal" />
		<tag k="place" v="locality" />
		<tag k="ssr:stedsnr" v="441877" />
	</node>
	<node id="-670600" lat="66.9583333292" lon="13.3999999913">
		<tag k="name" v="Breitaren" />
		<tag k="natural" v="shoal" />
		<tag k="place" v="locality" />
		<tag k="ssr:stedsnr" v="441844" />
	</node>
	<node id="-670599" lat="66.790652782" lon="13.2102694473">
		<tag k="name" v="Hestøya" />
		<tag k="place" v="islet" />
		<tag k="ssr:stedsnr" v="441826" />
	</node>
	<node id="-670598" lat="66.7877527821" lon="13.0587444393">
		<tag k="name" v="Knørrøya" />
		<tag k="place" v="islet" />
		<tag k="ssr:stedsnr" v="441815" />
	</node>
	<node id="-670597" lat="66.7607055555" lon="13.0770999962">
		<tag k="name" v="Tollevøya" />
		<tag k="place" v="island" />
		<tag k="ssr:stedsnr" v="441808" />
	</node>
	<node id="-670596" lat="66.7684277808" lon="13.0864611169">
		<tag k="name" v="Perandersøya" />
		<tag k="place" v="islet" />
		<tag k="ssr:stedsnr" v="441799" />
	</node>
	<node id="-670595" lat="66.8118750032" lon="13.1941805629">
		<tag k="alt_name" v="Storravnsholmen" />
		<tag k="name" v="Storramnsholmen" />
		<tag k="place" v="islet" />
		<tag k="ssr:stedsnr" v="441776" />
	</node>
	<node id="-670594" lat="67.0069638888" lon="13.1049888988">
		<tag k="name" v="Buøya" />
		<tag k="place" v="islet" />
		<tag k="ssr:stedsnr" v="441766" />
	</node>
	<node id="-670593" lat="67.0247416627" lon="13.1927277862">
		<tag k="name" v="Grønstappen" />
		<tag k="place" v="islet" />
		<tag k="ssr:stedsnr" v="441762" />
	</node>
	<node id="-670592" lat="67.0214916702" lon="13.118944436">
		<tag k="name" v="Kråkan" />
		<tag k="place" v="islet" />
		<tag k="ssr:stedsnr" v="441759" />
	</node>
	<node id="-670591" lat="67.0213555568" lon="13.1614638896">
		<tag k="fixme" v="consider seamark:type=rock or natural=shoal" />
		<tag k="name" v="Seiskjæret" />
		<tag k="place" v="islet" />
		<tag k="ssr:stedsnr" v="441757" />
	</node>
	<node id="-670590" lat="66.8246499989" lon="13.0311444378">
		<tag k="alt_name" v="Skjervær" />
		<tag k="name" v="Skjærvær" />
		<tag k="place" v="island" />
		<tag k="ssr:stedsnr" v="441754" />
	</node>
	<node id="-670589" lat="66.8183138878" lon="12.9801388921">
		<tag k="alt_name" v="Finnskjerværet" />
		<tag k="loc_name" v="Finnskjærværet" />
		<tag k="name" v="Finnskjærvær" />
		<tag k="place" v="island" />
		<tag k="ssr:stedsnr" v="441751" />
	</node>
	<node id="-670588" lat="66.9299694434" lon="13.090994441">
		<tag k="name" v="Årnholmen" />
		<tag k="place" v="islet" />
		<tag k="ssr:stedsnr" v="441721" />
	</node>
	<node id="-670587" lat="66.9079361106" lon="13.1952944517">
		<tag k="name" v="Jonsgrunnen" />
		<tag k="natural" v="shoal" />
		<tag k="place" v="locality" />
		<tag k="ssr:stedsnr" v="441717" />
	</node>
	<node id="-670586" lat="66.8621666622" lon="12.8918083358">
		<tag k="name" v="Nordskolten" />
		<tag k="natural" v="shoal" />
		<tag k="place" v="locality" />
		<tag k="ssr:stedsnr" v="441715" />
	</node>
	<node id="-670575" lat="66.7279805559" lon="13.5487638878">
		<tag k="fixme" v="consider seamark:type=rock or natural=shoal" />
		<tag k="name" v="Kobbskjæret" />
		<tag k="place" v="islet" />
		<tag k="ssr:stedsnr" v="441204" />
	</node>
	<node id="-670563" lat="66.7954249986" lon="13.2550555645">
		<tag k="name" v="Bolgskallen" />
		<tag k="natural" v="shoal" />
		<tag k="place" v="locality" />
		<tag k="ssr:stedsnr" v="441104" />
	</node>
	<node id="-670562" lat="66.8141361078" lon="13.7054055529">
		<tag k="name" v="Ellingholmen" />
		<tag k="place" v="islet" />
		<tag k="ssr:stedsnr" v="441085" />
	</node>
	<node id="-670558" lat="66.7948805545" lon="13.49633333">
		<tag k="bay" v="fjord" />
		<tag k="name" v="Vallvågen" />
		<tag k="natural" v="bay" />
		<tag k="ssr:stedsnr" v="441062" />
	</node>
	<node id="-670555" lat="66.7727944458" lon="13.3088555536">
		<tag k="name" v="Kjørrågvika" />
		<tag k="natural" v="bay" />
		<tag k="ssr:stedsnr" v="440120" />
	</node>
	<node id="-670553" lat="66.7744583353" lon="13.3030638974">
		<tag k="fixme" v="multiple name tags, choose one and add the other to alt_name" />
		<tag k="name" v="Vikaholman;Kjørrågvikholman" />
		<tag k="place" v="islet" />
		<tag k="ssr:stedsnr" v="440116" />
	</node>
	<node id="-670552" lat="66.9419277756" lon="13.4389055582">
		<tag k="name" v="Sædingsholman" />
		<tag k="place" v="islet" />
		<tag k="ssr:stedsnr" v="479621" />
	</node>
	<node id="-670551" lat="66.8390972195" lon="13.5738527762">
		<tag k="name" v="Meløyneset" />
		<tag k="natural" v="cape" />
		<tag k="ssr:stedsnr" v="479616" />
	</node>
	<node id="-670549" lat="66.8243027784" lon="13.2878861213">
		<tag k="name" v="Oterværgrunnen" />
		<tag k="natural" v="shoal" />
		<tag k="place" v="locality" />
		<tag k="ssr:stedsnr" v="267797" />
	</node>
	<node id="-670548" lat="66.7821249974" lon="13.4346138774">
		<tag k="name" v="Lerosgrunnen" />
		<tag k="natural" v="shoal" />
		<tag k="place" v="locality" />
		<tag k="ssr:stedsnr" v="267384" />
	</node>
	<node id="-670546" lat="66.9250000003" lon="13.4416666564">
		<tag k="name" v="Svinholmen" />
		<tag k="place" v="islet" />
		<tag k="ssr:stedsnr" v="263577" />
	</node>
	<node id="-670545" lat="66.8379249995" lon="13.3675944342">
		<tag k="name" v="Andholmen" />
		<tag k="place" v="islet" />
		<tag k="ssr:stedsnr" v="259998" />
	</node>
	<node id="-670543" lat="66.8441583335" lon="13.6108972222">
		<tag k="name" v="Gjersodden" />
		<tag k="natural" v="cape" />
		<tag k="ssr:stedsnr" v="259985" />
	</node>
	<node id="-670541" lat="66.8326944467" lon="13.4562611169">
		<tag k="alt_name" v="Meløy" />
		<tag k="name" v="Meløya" />
		<tag k="place" v="island" />
		<tag k="ssr:stedsnr" v="259975" />
	</node>
	<node id="-670540" lat="66.8593472244" lon="13.601997228">
		<tag k="bay" v="fjord" />
		<tag k="name" v="Mesøyfjorden" />
		<tag k="natural" v="bay" />
		<tag k="ssr:stedsnr" v="259962" />
	</node>
	<node id="-670539" lat="66.8553111075" lon="13.2498000015">
		<tag k="name" v="Varkgård" />
		<tag k="place" v="island" />
		<tag k="ssr:stedsnr" v="259958" />
	</node>
	<node id="-670538" lat="66.8548277823" lon="13.2726694432">
		<tag k="name" v="Jakobholman" />
		<tag k="place" v="islet" />
		<tag k="ssr:stedsnr" v="259953" />
	</node>
	<node id="-670537" lat="66.8540166668" lon="13.5006944363">
		<tag k="name" v="Glomskallen" />
		<tag k="natural" v="shoal" />
		<tag k="place" v="locality" />
		<tag k="ssr:stedsnr" v="259954" />
	</node>
	<node id="-670534" lat="66.9271055545" lon="13.2880083311">
		<tag k="bay" v="fjord" />
		<tag k="name" v="Stabbfjorden" />
		<tag k="natural" v="bay" />
		<tag k="ssr:stedsnr" v="259871" />
	</node>
	<node id="-670532" lat="66.9570111122" lon="13.5639416606">
		<tag k="name" v="Sundskallan" />
		<tag k="natural" v="shoal" />
		<tag k="place" v="locality" />
		<tag k="ssr:stedsnr" v="259839" />
	</node>
	<node id="-670531" lat="66.7985944474" lon="13.1808666721">
		<tag k="alt_name" v="Bursøya, store" />
		<tag k="fixme" v="multiple name tags, choose one and add the other to alt_name" />
		<tag k="name" v="Bursøya;Store Bursøya" />
		<tag k="place" v="islet" />
		<tag k="ssr:stedsnr" v="259818" />
	</node>
	<node id="-670530" lat="66.7605749982" lon="13.0651805456">
		<tag k="name" v="Langholmen" />
		<tag k="place" v="islet" />
		<tag k="ssr:stedsnr" v="259806" />
	</node>
	<node id="-670529" lat="66.7631250037" lon="13.0927916664">
		<tag k="name" v="Måsøya" />
		<tag k="place" v="islet" />
		<tag k="ssr:stedsnr" v="259804" />
	</node>
	<node id="-670528" lat="66.754377781" lon="13.0532388862">
		<tag k="name" v="Madsskjærtaren" />
		<tag k="natural" v="shoal" />
		<tag k="place" v="locality" />
		<tag k="ssr:stedsnr" v="259802" />
	</node>
	<node id="-670527" lat="66.7548750037" lon="13.5477083419">
		<tag k="alt_name" v="Brimneset" />
		<tag k="name" v="Bremneset" />
		<tag k="natural" v="cape" />
		<tag k="ssr:stedsnr" v="259793" />
	</node>
	<node id="-670526" lat="66.804705556" lon="12.8839500036">
		<tag k="name" v="Kallgrunnrumpa" />
		<tag k="natural" v="shoal" />
		<tag k="place" v="locality" />
		<tag k="ssr:stedsnr" v="259785" />
	</node>
	<node id="-670525" lat="66.7598166652" lon="13.084755545">
		<tag k="name" v="Verholmen" />
		<tag k="place" v="islet" />
		<tag k="ssr:stedsnr" v="259781" />
	</node>
	<node id="-670523" lat="66.8112999976" lon="13.0129888899">
		<tag k="name" v="Litlmåøyskolten" />
		<tag k="natural" v="shoal" />
		<tag k="place" v="locality" />
		<tag k="ssr:stedsnr" v="259777" />
	</node>
	<node id="-670522" lat="66.8003611112" lon="13.1304499925">
		<tag k="name" v="Andersnilsaøya" />
		<tag k="place" v="islet" />
		<tag k="ssr:stedsnr" v="259759" />
	</node>
	<node id="-670521" lat="66.8110305517" lon="13.1468361169">
		<tag k="name" v="Kvalholmen" />
		<tag k="place" v="islet" />
		<tag k="ssr:stedsnr" v="259752" />
	</node>
	<node id="-670520" lat="66.822308333" lon="13.1214416685">
		<tag k="fixme" v="consider seamark:type=rock or natural=shoal" />
		<tag k="name" v="Luren" />
		<tag k="place" v="islet" />
		<tag k="ssr:stedsnr" v="259750" />
	</node>
	<node id="-670519" lat="66.8249861095" lon="13.0274111059">
		<tag k="name" v="Nakken" />
		<tag k="place" v="islet" />
		<tag k="ssr:stedsnr" v="259744" />
	</node>
	<node id="-670518" lat="66.8205138865" lon="13.026722215">
		<tag k="alt_name" v="Skarvholmen, store" />
		<tag k="name" v="Storskarvholmen" />
		<tag k="place" v="islet" />
		<tag k="ssr:stedsnr" v="259737" />
	</node>
	<node id="-670517" lat="66.8081944437" lon="12.8952777751">
		<tag k="alt_name" v="Kallgrunnen, s" />
		<tag k="name" v="Sørkallgrunnen" />
		<tag k="natural" v="shoal" />
		<tag k="place" v="locality" />
		<tag k="ssr:stedsnr" v="259731" />
	</node>
	<node id="-670516" lat="66.8639027741" lon="13.2096750108">
		<tag k="name" v="Olaryggen" />
		<tag k="natural" v="shoal" />
		<tag k="place" v="locality" />
		<tag k="ssr:stedsnr" v="259722" />
	</node>
	<node id="-670515" lat="66.9225694463" lon="13.0437638951">
		<tag k="name" v="Einaråsryggen" />
		<tag k="natural" v="shoal" />
		<tag k="place" v="locality" />
		<tag k="ssr:stedsnr" v="259709" />
	</node>
	<node id="-670514" lat="66.8708527762" lon="12.9475999925">
		<tag k="alt_name" v="Glosveet" />
		<tag k="name" v="Glossveet" />
		<tag k="natural" v="shoal" />
		<tag k="place" v="locality" />
		<tag k="ssr:stedsnr" v="259698" />
	</node>
	<node id="-670512" lat="66.8506750022" lon="13.2848944468">
		<tag k="name" v="Sandvær" />
		<tag k="place" v="island" />
		<tag k="ssr:stedsnr" v="259945" />
	</node>
	<node id="-670511" lat="66.8463583364" lon="13.2530361179">
		<tag k="name" v="Årnholmen" />
		<tag k="place" v="islet" />
		<tag k="ssr:stedsnr" v="259943" />
	</node>
	<node id="-670510" lat="66.8379944426" lon="13.3165499928">
		<tag k="name" v="Flatholman" />
		<tag k="place" v="islet" />
		<tag k="ssr:stedsnr" v="259940" />
	</node>
	<node id="-670508" lat="66.9176388861" lon="13.3523944343">
		<tag k="name" v="Måøyflua" />
		<tag k="natural" v="shoal" />
		<tag k="place" v="locality" />
		<tag k="ssr:stedsnr" v="259906" />
	</node>
	<node id="-670500" lat="66.8329944445" lon="13.7494583346">
		<tag k="name" v="Neverdalsneset" />
		<tag k="natural" v="cape" />
		<tag k="ssr:stedsnr" v="259339" />
	</node>
	<node id="-670495" lat="66.7226111113" lon="13.6763583306">
		<tag k="name" v="Holandsvika" />
		<tag k="natural" v="bay" />
		<tag k="ssr:stedsnr" v="259220" />
	</node>
	<node id="-670490" lat="66.7133249985" lon="13.5743138835">
		<tag k="name" v="Krakvika" />
		<tag k="natural" v="bay" />
		<tag k="ssr:stedsnr" v="259199" />
	</node>
	<node id="-670489" lat="66.7104277734" lon="13.5750972326">
		<tag k="alt_name" v="Ospeneset" />
		<tag k="name" v="Aspneset" />
		<tag k="natural" v="cape" />
		<tag k="ssr:stedsnr" v="259183" />
	</node>
	<node id="-670487" lat="66.7439416684" lon="13.52940277">
		<tag k="name" v="Esøya" />
		<tag k="place" v="island" />
		<tag k="ssr:stedsnr" v="259167" />
	</node>
	<node id="-670482" lat="66.7860666624" lon="13.4627583407">
		<tag k="alt_name" v="Svinøya" />
		<tag k="name" v="Svinøy" />
		<tag k="place" v="island" />
		<tag k="ssr:stedsnr" v="259071" />
	</node>
	<node id="-670479" lat="66.7964416646" lon="13.4907916581">
		<tag k="name" v="Skjåholmen" />
		<tag k="place" v="islet" />
		<tag k="ssr:stedsnr" v="259052" />
	</node>
	<node id="-670476" lat="66.983397224" lon="13.5079805468">
		<tag k="name" v="Lønnfallet" />
		<tag k="natural" v="shoal" />
		<tag k="place" v="locality" />
		<tag k="ssr:stedsnr" v="258807" />
	</node>
	<node id="-670475" lat="66.8055250009" lon="12.9738722124">
		<tag k="name" v="Trollskjærtåga" />
		<tag k="natural" v="shoal" />
		<tag k="place" v="locality" />
		<tag k="ssr:stedsnr" v="258761" />
	</node>
	<node id="-670472" lat="66.8043333366" lon="13.5009416748">
		<tag k="name" v="Laksbuneset" />
		<tag k="natural" v="cape" />
		<tag k="ssr:stedsnr" v="258135" />
	</node>
	<node id="-670471" lat="66.8080805516" lon="13.2883972322">
		<tag k="alt_name" v="Leikua, indre;Innerkua" />
		<tag k="fixme" v="multiple name tags, choose one and add the other to alt_name" />
		<tag k="name" v="Leikua;Indre Leikua" />
		<tag k="place" v="islet" />
		<tag k="ssr:stedsnr" v="258124" />
	</node>
	<node id="-670469" lat="66.7766694429" lon="13.2970500072">
		<tag k="name" v="Litlgrunnen" />
		<tag k="natural" v="shoal" />
		<tag k="place" v="locality" />
		<tag k="ssr:stedsnr" v="258088" />
	</node>
	<node id="-670464" lat="66.7668055522" lon="13.2601138996">
		<tag k="alt_name" v="Angerholmgrunnen" />
		<tag k="name" v="Angersholmgrunnen" />
		<tag k="natural" v="shoal" />
		<tag k="place" v="locality" />
		<tag k="ssr:stedsnr" v="258042" />
	</node>
	<node id="-670462" lat="66.7600166649" lon="13.628299993">
		<tag k="name" v="Djupvika" />
		<tag k="natural" v="bay" />
		<tag k="ssr:stedsnr" v="258004" />
	</node>
	<node id="-670460" lat="66.7292527777" lon="13.8802972204">
		<tag k="bay" v="fjord" />
		<tag k="name" v="Nordfjorden" />
		<tag k="natural" v="bay" />
		<tag k="ssr:stedsnr" v="239234" />
	</node>
	<node id="-670439" lat="66.7434916632" lon="13.5051749911">
		<tag k="name" v="Buskholmen" />
		<tag k="place" v="islet" />
		<tag k="ssr:stedsnr" v="227416" />
	</node>
	<node id="-670435" lat="66.7838138924" lon="13.4404888841">
		<tag k="name" v="Leirosneset" />
		<tag k="natural" v="cape" />
		<tag k="ssr:stedsnr" v="227370" />
	</node>
	<node id="-670434" lat="66.78499167" lon="13.4092972178">
		<tag k="name" v="Indre Kjeldnes" />
		<tag k="natural" v="cape" />
		<tag k="ssr:stedsnr" v="227344" />
	</node>
	<node id="-670430" lat="66.8175694464" lon="13.3931166781">
		<tag k="name" v="Kråkvika" />
		<tag k="natural" v="bay" />
		<tag k="ssr:stedsnr" v="227257" />
	</node>
	<node id="-670426" lat="66.8136333291" lon="13.8058999968">
		<tag k="name" v="Otervika" />
		<tag k="natural" v="bay" />
		<tag k="ssr:stedsnr" v="227049" />
	</node>
	<node id="-670425" lat="66.8102194442" lon="13.8432388818">
		<tag k="name" v="Sildnesbukta" />
		<tag k="natural" v="bay" />
		<tag k="ssr:stedsnr" v="227041" />
	</node>
	<node id="-670419" lat="66.9479750013" lon="13.5860611195">
		<tag k="name" v="Vedberget" />
		<tag k="natural" v="cape" />
		<tag k="ssr:stedsnr" v="226886" />
	</node>
	<node id="-670416" lat="66.8125777812" lon="13.7100694548">
		<tag k="name" v="Øya" />
		<tag k="place" v="islet" />
		<tag k="ssr:stedsnr" v="226784" />
	</node>
	<node id="-670414" lat="66.7777083333" lon="13.5022055492">
		<tag k="name" v="Brattsundet" />
		<tag k="natural" v="strait" />
		<tag k="ssr:stedsnr" v="226416" />
	</node>
	<node id="-670409" lat="66.7308916705" lon="13.8765916632">
		<tag k="name" v="Jakobhella" />
		<tag k="place" v="locality" />
		<tag k="seamark:type" v="rock" />
		<tag k="ssr:stedsnr" v="226171" />
	</node>
	<node id="-670399" lat="66.8265277794" lon="13.3086888878">
		<tag k="fixme" v="consider seamark:type=rock or natural=shoal" />
		<tag k="name" v="Ladteinen" />
		<tag k="place" v="islet" />
		<tag k="ssr:stedsnr" v="207801" />
	</node>
	<node id="-670398" lat="66.7504583293" lon="13.3235416623">
		<tag k="fixme" v="consider seamark:type=rock or natural=shoal" />
		<tag k="name" v="Storskjæret" />
		<tag k="place" v="islet" />
		<tag k="ssr:stedsnr" v="206526" />
	</node>
	<node id="-670397" lat="66.7637277787" lon="13.252291668">
		<tag k="name" v="Angersholman" />
		<tag k="place" v="islet" />
		<tag k="ssr:stedsnr" v="206524" />
	</node>
	<node id="-670395" lat="66.7383833347" lon="13.4605000015">
		<tag k="fixme" v="consider seamark:type=rock or natural=shoal" />
		<tag k="name" v="Kalvskjæret" />
		<tag k="place" v="islet" />
		<tag k="ssr:stedsnr" v="206102" />
	</node>
	<node id="-670390" lat="67.0005972232" lon="13.5692083263">
		<tag k="name" v="Søre Husegrunnen" />
		<tag k="natural" v="shoal" />
		<tag k="place" v="locality" />
		<tag k="ssr:stedsnr" v="198964" />
	</node>
	<node id="-670388" lat="66.8930166635" lon="13.2776555437">
		<tag k="name" v="Sørbreigrunnen" />
		<tag k="natural" v="shoal" />
		<tag k="place" v="locality" />
		<tag k="ssr:stedsnr" v="198934" />
	</node>
	<node id="-670387" lat="66.8841888874" lon="13.6354361156">
		<tag k="name" v="Nordvika" />
		<tag k="natural" v="bay" />
		<tag k="ssr:stedsnr" v="198922" />
	</node>
	<node id="-670383" lat="66.9313777738" lon="13.4000861009">
		<tag k="name" v="Brattholman" />
		<tag k="place" v="islet" />
		<tag k="ssr:stedsnr" v="198869" />
	</node>
	<node id="-670382" lat="66.7845111125" lon="13.1839250104">
		<tag k="fixme" v="consider seamark:type=rock or natural=shoal" />
		<tag k="name" v="Flyskjæran" />
		<tag k="place" v="islet" />
		<tag k="ssr:stedsnr" v="198779" />
	</node>
	<node id="-670381" lat="66.806211108" lon="13.1502861171">
		<tag k="name" v="Oltorsteinsøya" />
		<tag k="place" v="islet" />
		<tag k="ssr:stedsnr" v="198753" />
	</node>
	<node id="-670380" lat="66.7951027759" lon="13.0539249911">
		<tag k="fixme" v="consider seamark:type=rock or natural=shoal" />
		<tag k="name" v="Snysteinen" />
		<tag k="place" v="islet" />
		<tag k="ssr:stedsnr" v="198748" />
	</node>
	<node id="-670379" lat="67.0107750006" lon="13.1233111129">
		<tag k="name" v="Grøna" />
		<tag k="place" v="island" />
		<tag k="ssr:stedsnr" v="198741" />
	</node>
	<node id="-670378" lat="66.8200444461" lon="12.9933500027">
		<tag k="name" v="Finngammøya" />
		<tag k="place" v="islet" />
		<tag k="ssr:stedsnr" v="198736" />
	</node>
	<node id="-670377" lat="66.807747224" lon="12.975941657">
		<tag k="alt_name" v="Trollskjeret, l" />
		<tag k="fixme" v="consider seamark:type=rock or natural=shoal" />
		<tag k="name" v="Litltrollskjær" />
		<tag k="place" v="islet" />
		<tag k="ssr:stedsnr" v="198730" />
	</node>
	<node id="-670376" lat="66.9653888918" lon="13.203149999">
		<tag k="fixme" v="consider seamark:type=rock or natural=shoal" />
		<tag k="name" v="Meløya" />
		<tag k="place" v="islet" />
		<tag k="ssr:stedsnr" v="198703" />
	</node>
	<node id="-670375" lat="66.9184250003" lon="13.1703944554">
		<tag k="name" v="Ternholmlusa" />
		<tag k="natural" v="shoal" />
		<tag k="place" v="locality" />
		<tag k="ssr:stedsnr" v="198694" />
	</node>
	<node id="-670371" lat="66.9565722252" lon="13.4243222296">
		<tag k="name" v="Støttbreitaren" />
		<tag k="natural" v="shoal" />
		<tag k="place" v="locality" />
		<tag k="ssr:stedsnr" v="198821" />
	</node>
	<node id="-670370" lat="66.7904750043" lon="13.1411555602">
		<tag k="name" v="Greinholmen" />
		<tag k="place" v="islet" />
		<tag k="ssr:stedsnr" v="198804" />
	</node>
	<node id="-670369" lat="66.7881555595" lon="13.1693999893">
		<tag k="name" v="Hestøydrægen" />
		<tag k="place" v="islet" />
		<tag k="ssr:stedsnr" v="198803" />
	</node>
	<node id="-670364" lat="66.8100222212" lon="13.8781722196">
		<tag k="fixme" v="multiple name tags, choose one and add the other to alt_name" />
		<tag k="name" v="Lauvvika;Setvika" />
		<tag k="natural" v="bay" />
		<tag k="ssr:stedsnr" v="198296" />
	</node>
	<node id="-670335" lat="66.7058361129" lon="13.6666583283">
		<tag k="bay" v="fjord" />
		<tag k="name" v="Fonnfjorden" />
		<tag k="natural" v="bay" />
		<tag k="ssr:stedsnr" v="178245" />
	</node>
	<node id="-670333" lat="66.7156944415" lon="13.6924694381">
		<tag k="name" v="Oterhøla" />
		<tag k="natural" v="bay" />
		<tag k="ssr:stedsnr" v="167442" />
	</node>
	<node id="-670328" lat="66.8923388891" lon="13.6147222134">
		<tag k="name" v="Drevelodden" />
		<tag k="natural" v="cape" />
		<tag k="ssr:stedsnr" v="166869" />
	</node>
	<node id="-670319" lat="66.8303361083" lon="13.5535555653">
		<tag k="name" v="Gjersholmvalen" />
		<tag k="place" v="locality" />
		<tag k="ssr:stedsnr" v="166759" />
	</node>
	<node id="-670317" lat="66.8316388888" lon="13.5690333313">
		<tag k="name" v="Sørvika" />
		<tag k="natural" v="bay" />
		<tag k="ssr:stedsnr" v="166750" />
	</node>
	<node id="-670311" lat="66.7996388874" lon="13.2333694438">
		<tag k="name" v="Heimerholmen" />
		<tag k="place" v="islet" />
		<tag k="ssr:stedsnr" v="166671" />
	</node>
	<node id="-670310" lat="66.7982138879" lon="13.2368916777">
		<tag k="name" v="Borterholmen" />
		<tag k="place" v="islet" />
		<tag k="ssr:stedsnr" v="166670" />
	</node>
	<node id="-670305" lat="66.8113666631" lon="13.2073027698">
		<tag k="fixme" v="consider seamark:type=rock or natural=shoal" />
		<tag k="name" v="Slåttstrandskjæran" />
		<tag k="place" v="islet" />
		<tag k="ssr:stedsnr" v="166589" />
	</node>
	<node id="-670301" lat="66.729916668" lon="13.4617777861">
		<tag k="name" v="Litlholmen" />
		<tag k="place" v="islet" />
		<tag k="ssr:stedsnr" v="166423" />
	</node>
	<node id="-670299" lat="66.727725001" lon="13.7138749947">
		<tag k="name" v="Telvika" />
		<tag k="natural" v="bay" />
		<tag k="ssr:stedsnr" v="166415" />
	</node>
	<node id="-670294" lat="66.8461805577" lon="13.4649666722">
		<tag k="name" v="Møllneset" />
		<tag k="natural" v="cape" />
		<tag k="ssr:stedsnr" v="166297" />
	</node>
	<node id="-670289" lat="66.8237527747" lon="13.4281888809">
		<tag k="name" v="Straumen" />
		<tag k="natural" v="strait" />
		<tag k="ssr:stedsnr" v="166267" />
	</node>
	<node id="-670288" lat="66.8605027777" lon="13.7199833382">
		<tag k="fixme" v="consider seamark:type=rock or natural=shoal" />
		<tag k="name" v="Fugleskjæret" />
		<tag k="place" v="islet" />
		<tag k="ssr:stedsnr" v="166254" />
	</node>
	<node id="-670272" lat="66.7213583377" lon="13.4965777707">
		<tag k="name" v="Juvika" />
		<tag k="natural" v="bay" />
		<tag k="ssr:stedsnr" v="164470" />
	</node>
	<node id="-670267" lat="66.7551444437" lon="13.223497217">
		<tag k="bay" v="fjord" />
		<tag k="name" v="Svinværfjorden" />
		<tag k="natural" v="bay" />
		<tag k="ssr:stedsnr" v="158734" />
	</node>
	<node id="-670264" lat="66.8288222232" lon="13.1766916688">
		<tag k="name" v="Jarskallen" />
		<tag k="natural" v="shoal" />
		<tag k="place" v="locality" />
		<tag k="ssr:stedsnr" v="146237" />
	</node>
	<node id="-670263" lat="66.7810444419" lon="12.9747416618">
		<tag k="name" v="Litlgrunnen" />
		<tag k="natural" v="shoal" />
		<tag k="place" v="locality" />
		<tag k="ssr:stedsnr" v="145608" />
	</node>
	<node id="-670259" lat="66.8180333304" lon="13.2183805611">
		<tag k="fixme" v="consider seamark:type=rock or natural=shoal" />
		<tag k="name" v="Jabakkskjæran" />
		<tag k="place" v="islet" />
		<tag k="ssr:stedsnr" v="137983" />
	</node>
	<node id="-670256" lat="66.863911111" lon="13.3302194456">
		<tag k="alt_name" v="Brimholmtaren" />
		<tag k="name" v="Bremholmtaren" />
		<tag k="natural" v="shoal" />
		<tag k="place" v="locality" />
		<tag k="ssr:stedsnr" v="137968" />
	</node>
	<node id="-670255" lat="66.8556861068" lon="13.6976638874">
		<tag k="name" v="Skjåholmen" />
		<tag k="place" v="islet" />
		<tag k="ssr:stedsnr" v="137961" />
	</node>
	<node id="-670254" lat="66.846952775" lon="13.635052779">
		<tag k="name" v="Mesøya" />
		<tag k="place" v="island" />
		<tag k="ssr:stedsnr" v="137952" />
	</node>
	<node id="-670251" lat="66.8526111092" lon="13.6791222112">
		<tag k="name" v="Raudsetbukta" />
		<tag k="natural" v="bay" />
		<tag k="ssr:stedsnr" v="137928" />
	</node>
	<node id="-670248" lat="66.8726111102" lon="13.3753777789">
		<tag k="name" v="Gåsværbåen" />
		<tag k="natural" v="shoal" />
		<tag k="place" v="locality" />
		<tag k="ssr:stedsnr" v="137907" />
	</node>
	<node id="-670247" lat="66.875438888" lon="13.4766277777">
		<tag k="name" v="Bryggholmen" />
		<tag k="place" v="islet" />
		<tag k="ssr:stedsnr" v="137905" />
	</node>
	<node id="-670243" lat="66.9131722233" lon="13.3458499982">
		<tag k="name" v="Måøyskallen" />
		<tag k="natural" v="shoal" />
		<tag k="place" v="locality" />
		<tag k="ssr:stedsnr" v="137876" />
	</node>
	<node id="-670242" lat="66.9070333355" lon="13.4069361118">
		<tag k="name" v="Helløya" />
		<tag k="place" v="island" />
		<tag k="ssr:stedsnr" v="137872" />
	</node>
	<node id="-670239" lat="66.9638555597" lon="13.2758055518">
		<tag k="fixme" v="consider seamark:type=rock or natural=shoal" />
		<tag k="name" v="Båsan" />
		<tag k="place" v="islet" />
		<tag k="ssr:stedsnr" v="137801" />
	</node>
	<node id="-670238" lat="66.9725277773" lon="13.2564416558">
		<tag k="name" v="Båsgrunnen" />
		<tag k="natural" v="shoal" />
		<tag k="place" v="locality" />
		<tag k="ssr:stedsnr" v="137798" />
	</node>
	<node id="-670237" lat="66.7870055597" lon="13.121916665">
		<tag k="name" v="Brattinden" />
		<tag k="place" v="islet" />
		<tag k="ssr:stedsnr" v="137788" />
	</node>
	<node id="-670236" lat="66.7800666706" lon="13.0926555544">
		<tag k="fixme" v="consider seamark:type=rock or natural=shoal" />
		<tag k="name" v="Tjønnøyskjæran" />
		<tag k="place" v="islet" />
		<tag k="ssr:stedsnr" v="137782" />
	</node>
	<node id="-670235" lat="66.7803416673" lon="13.0148555486">
		<tag k="alt_name" v="Torkjellbåtaren" />
		<tag k="name" v="Torkelbåtaren" />
		<tag k="natural" v="shoal" />
		<tag k="place" v="locality" />
		<tag k="ssr:stedsnr" v="137779" />
	</node>
	<node id="-670234" lat="66.7821111096" lon="13.1669138936">
		<tag k="alt_name" v="Hellholmen" />
		<tag k="name" v="Helholmen" />
		<tag k="place" v="islet" />
		<tag k="ssr:stedsnr" v="137756" />
	</node>
	<node id="-670233" lat="66.7721249979" lon="12.9669666633">
		<tag k="name" v="Fallan" />
		<tag k="natural" v="shoal" />
		<tag k="place" v="locality" />
		<tag k="ssr:stedsnr" v="137754" />
	</node>
	<node id="-670232" lat="66.7753805583" lon="13.1065805503">
		<tag k="name" v="Helløykalven" />
		<tag k="place" v="islet" />
		<tag k="ssr:stedsnr" v="137748" />
	</node>
	<node id="-670231" lat="67.0036027784" lon="13.1108555445">
		<tag k="name" v="Grøna" />
		<tag k="place" v="islet" />
		<tag k="ssr:stedsnr" v="137721" />
	</node>
	<node id="-670230" lat="66.8169166647" lon="13.0165777753">
		<tag k="alt_name" v="Måøya, l" />
		<tag k="name" v="Litlmåøya" />
		<tag k="place" v="islet" />
		<tag k="ssr:stedsnr" v="137709" />
	</node>
	<node id="-670229" lat="66.8107000018" lon="12.9713833431">
		<tag k="alt_name" v="Trollskjeret, store" />
		<tag k="fixme" v="consider seamark:type=rock or natural=shoal" />
		<tag k="name" v="Stortrollskjær" />
		<tag k="place" v="islet" />
		<tag k="ssr:stedsnr" v="137707" />
	</node>
	<node id="-670228" lat="66.8380805595" lon="13.0023611228">
		<tag k="alt_name" v="Slynga, nordre" />
		<tag k="fixme" v="consider seamark:type=rock or natural=shoal" />
		<tag k="name" v="Nordslynga" />
		<tag k="place" v="islet" />
		<tag k="ssr:stedsnr" v="137694" />
	</node>
	<node id="-670227" lat="66.8355361101" lon="12.9909472237">
		<tag k="alt_name" v="Slynga, s" />
		<tag k="fixme" v="consider seamark:type=rock or natural=shoal" />
		<tag k="name" v="Sørslynga" />
		<tag k="place" v="islet" />
		<tag k="ssr:stedsnr" v="137693" />
	</node>
	<node id="-670226" lat="66.9973694438" lon="13.0860749934">
		<tag k="name" v="Storbåen" />
		<tag k="place" v="locality" />
		<tag k="seamark:type" v="rock" />
		<tag k="ssr:stedsnr" v="137681" />
	</node>
	<node id="-670225" lat="66.8882499994" lon="13.1164138893">
		<tag k="bay" v="fjord" />
		<tag k="name" v="Ternholmfjorden" />
		<tag k="natural" v="bay" />
		<tag k="ssr:stedsnr" v="137672" />
	</node>
	<node id="-670224" lat="66.7217888879" lon="13.7828027802">
		<tag k="name" v="Tennøyra" />
		<tag k="natural" v="cape" />
		<tag k="ssr:stedsnr" v="137479" />
	</node>
	<node id="-670223" lat="66.7296138881" lon="13.7930694403">
		<tag k="name" v="Halvkanneset" />
		<tag k="natural" v="cape" />
		<tag k="ssr:stedsnr" v="137477" />
	</node>
	<node id="-670197" lat="66.7420666639" lon="13.3616805576">
		<tag k="bay" v="fjord" />
		<tag k="name" v="Skarsfjorden" />
		<tag k="natural" v="bay" />
		<tag k="ssr:stedsnr" v="137124" />
	</node>
	<node id="-670190" lat="66.7971472188" lon="13.2292749968">
		<tag k="alt_name" v="Skjelliholmen" />
		<tag k="name" v="Skjeleholmen" />
		<tag k="place" v="islet" />
		<tag k="ssr:stedsnr" v="137080" />
	</node>
	<node id="-670188" lat="66.8019833369" lon="13.9703166568">
		<tag k="bay" v="fjord" />
		<tag k="name" v="Glomfjorden" />
		<tag k="natural" v="bay" />
		<tag k="ssr:stedsnr" v="137072" />
	</node>
	<node id="-670184" lat="66.7645611109" lon="13.5127277768">
		<tag k="name" v="Råholmen" />
		<tag k="place" v="islet" />
		<tag k="ssr:stedsnr" v="137040" />
	</node>
	<node id="-670182" lat="66.7765194466" lon="13.5047138832">
		<tag k="name" v="Brattholmen" />
		<tag k="place" v="islet" />
		<tag k="ssr:stedsnr" v="137032" />
	</node>
	<node id="-670175" lat="66.8011305561" lon="13.1822277793">
		<tag k="fixme" v="consider seamark:type=rock or natural=shoal" />
		<tag k="name" v="Langskjæret" />
		<tag k="place" v="islet" />
		<tag k="ssr:stedsnr" v="106655" />
	</node>
	<node id="-670161" lat="66.7656777752" lon="13.5387194469">
		<tag k="name" v="Sauraneset" />
		<tag k="natural" v="cape" />
		<tag k="ssr:stedsnr" v="105822" />
	</node>
	<node id="-670152" lat="66.8442555574" lon="13.7532305561">
		<tag k="name" v="Grytneset" />
		<tag k="natural" v="cape" />
		<tag k="ssr:stedsnr" v="105750" />
	</node>
	<node id="-670142" lat="66.7432666641" lon="13.4952805656">
		<tag k="name" v="Langneset" />
		<tag k="natural" v="cape" />
		<tag k="ssr:stedsnr" v="105428" />
	</node>
	<node id="-670140" lat="66.7780722184" lon="13.421672217">
		<tag k="name" v="Risneset" />
		<tag k="natural" v="cape" />
		<tag k="ssr:stedsnr" v="105381" />
	</node>
	<node id="-670138" lat="66.78864167" lon="13.4739416561">
		<tag k="name" v="Vannelivågen" />
		<tag k="natural" v="bay" />
		<tag k="ssr:stedsnr" v="105378" />
	</node>
	<node id="-670129" lat="66.9254638895" lon="13.4674694431">
		<tag k="name" v="Holten" />
		<tag k="natural" v="cape" />
		<tag k="ssr:stedsnr" v="97301" />
	</node>
	<node id="-670128" lat="66.9180249972" lon="13.4699083292">
		<tag k="name" v="Sørholmen" />
		<tag k="natural" v="cape" />
		<tag k="ssr:stedsnr" v="97293" />
	</node>
	<node id="-670127" lat="66.838122222" lon="13.3928277869">
		<tag k="name" v="Skagbergan" />
		<tag k="natural" v="cape" />
		<tag k="ssr:stedsnr" v="97289" />
	</node>
	<node id="-670125" lat="66.7293944471" lon="13.46825833">
		<tag k="fixme" v="consider seamark:type=rock or natural=shoal" />
		<tag k="name" v="Småskjæret" />
		<tag k="place" v="islet" />
		<tag k="ssr:stedsnr" v="86451" />
	</node>
	<node id="-670124" lat="66.9996472268" lon="13.0569888873">
		<tag k="name" v="Øvstskallen" />
		<tag k="natural" v="shoal" />
		<tag k="place" v="locality" />
		<tag k="ssr:stedsnr" v="85847" />
	</node>
	<node id="-670120" lat="66.8184694487" lon="13.3422638927">
		<tag k="name" v="Djupvika" />
		<tag k="natural" v="bay" />
		<tag k="ssr:stedsnr" v="77974" />
	</node>
	<node id="-670119" lat="66.8174277766" lon="13.3116749904">
		<tag k="alt_name" v="Gjermundsholman, yt;Gjermundsholman" />
		<tag k="name" v="Ytre Gjermundsholmen" />
		<tag k="place" v="islet" />
		<tag k="ssr:stedsnr" v="77969" />
	</node>
	<node id="-670117" lat="66.8657492086" lon="13.7167964397">
		<tag k="name" v="Djupvika" />
		<tag k="natural" v="bay" />
		<tag k="ssr:stedsnr" v="77957" />
	</node>
	<node id="-670116" lat="66.8360527742" lon="13.3414777856">
		<tag k="name" v="Olhåksaøya" />
		<tag k="place" v="islet" />
		<tag k="ssr:stedsnr" v="77945" />
	</node>
	<node id="-670115" lat="66.8845805583" lon="13.5771944347">
		<tag k="name" v="Finnvikvalen" />
		<tag k="natural" v="bay" />
		<tag k="ssr:stedsnr" v="77916" />
	</node>
	<node id="-670111" lat="66.9111527797" lon="13.3643805568">
		<tag k="name" v="Måøya" />
		<tag k="place" v="island" />
		<tag k="ssr:stedsnr" v="77892" />
	</node>
	<node id="-670109" lat="66.9013722245" lon="13.3692472227">
		<tag k="name" v="Æmårholmen" />
		<tag k="place" v="islet" />
		<tag k="ssr:stedsnr" v="77872" />
	</node>
	<node id="-670108" lat="66.8988583326" lon="13.4763194433">
		<tag k="alt_name" v="Støttafjorden" />
		<tag k="bay" v="fjord" />
		<tag k="name" v="Støttfjorden" />
		<tag k="natural" v="bay" />
		<tag k="ssr:stedsnr" v="77870" />
	</node>
	<node id="-670107" lat="66.9356250035" lon="13.2332666769">
		<tag k="name" v="Flatskjærlusa" />
		<tag k="natural" v="shoal" />
		<tag k="place" v="locality" />
		<tag k="ssr:stedsnr" v="77864" />
	</node>
	<node id="-670106" lat="66.9404611115" lon="13.2254416739">
		<tag k="fixme" v="consider seamark:type=rock or natural=shoal" />
		<tag k="name" v="Flatskjæret" />
		<tag k="place" v="islet" />
		<tag k="ssr:stedsnr" v="77858" />
	</node>
	<node id="-670105" lat="66.7782638888" lon="13.0022444421">
		<tag k="alt_name" v="Torkjellbåen" />
		<tag k="name" v="Torkelbåen" />
		<tag k="natural" v="shoal" />
		<tag k="place" v="locality" />
		<tag k="ssr:stedsnr" v="77804" />
	</node>
	<node id="-670104" lat="66.7987944444" lon="13.1050500048">
		<tag k="bay" v="fjord" />
		<tag k="name" v="Snyflaget" />
		<tag k="natural" v="bay" />
		<tag k="ssr:stedsnr" v="77800" />
	</node>
	<node id="-670102" lat="66.7818888853" lon="13.1062583215">
		<tag k="name" v="Tjønnøya" />
		<tag k="place" v="islet" />
		<tag k="ssr:stedsnr" v="77789" />
	</node>
	<node id="-670101" lat="66.827941669" lon="13.3388972133">
		<tag k="name" v="Bukkøya" />
		<tag k="place" v="island" />
		<tag k="ssr:stedsnr" v="77783" />
	</node>
	<node id="-670100" lat="66.8298833343" lon="13.2397027855">
		<tag k="name" v="Hamnøya" />
		<tag k="place" v="island" />
		<tag k="ssr:stedsnr" v="77782" />
	</node>
	<node id="-670099" lat="66.8965750028" lon="13.3747277718">
		<tag k="name" v="Hamnøya" />
		<tag k="place" v="island" />
		<tag k="ssr:stedsnr" v="77780" />
	</node>
	<node id="-670098" lat="66.8176472251" lon="12.9948527828">
		<tag k="fixme" v="consider seamark:type=rock or natural=shoal" />
		<tag k="name" v="Småskjæran" />
		<tag k="place" v="islet" />
		<tag k="ssr:stedsnr" v="77752" />
	</node>
	<node id="-670097" lat="66.8120527776" lon="12.8983166647">
		<tag k="alt_name" v="Kallgrunnen, nordre" />
		<tag k="name" v="Nordkallgrunnen" />
		<tag k="natural" v="shoal" />
		<tag k="place" v="locality" />
		<tag k="ssr:stedsnr" v="77750" />
	</node>
	<node id="-670096" lat="66.824936109" lon="13.1702249919">
		<tag k="name" v="Skaftet" />
		<tag k="natural" v="shoal" />
		<tag k="place" v="locality" />
		<tag k="ssr:stedsnr" v="77747" />
	</node>
	<node id="-670094" lat="66.9974527758" lon="13.1547277839">
		<tag k="name" v="Grønskallen" />
		<tag k="natural" v="shoal" />
		<tag k="place" v="locality" />
		<tag k="ssr:stedsnr" v="77720" />
	</node>
	<node id="-670093" lat="66.9549055596" lon="13.1621722209">
		<tag k="name" v="Mæløybreitaran" />
		<tag k="natural" v="shoal" />
		<tag k="place" v="locality" />
		<tag k="ssr:stedsnr" v="77717" />
	</node>
	<node id="-670092" lat="66.9130722191" lon="13.0656583252">
		<tag k="fixme" v="consider seamark:type=rock or natural=shoal" />
		<tag k="name" v="Trollskjæret" />
		<tag k="place" v="islet" />
		<tag k="ssr:stedsnr" v="77713" />
	</node>
	<node id="-670070" lat="66.7402472265" lon="13.4778861099">
		<tag k="name" v="Forøyodden" />
		<tag k="natural" v="cape" />
		<tag k="ssr:stedsnr" v="77166" />
	</node>
	<node id="-670064" lat="66.7896694447" lon="13.4038777883">
		<tag k="name" v="Einvika" />
		<tag k="natural" v="bay" />
		<tag k="ssr:stedsnr" v="77118" />
	</node>
	<node id="-670063" lat="66.7937416633" lon="13.4445138996">
		<tag k="name" v="Jektvika" />
		<tag k="natural" v="bay" />
		<tag k="ssr:stedsnr" v="77116" />
	</node>
	<node id="-670061" lat="66.7895805595" lon="13.2957388936">
		<tag k="bay" v="fjord" />
		<tag k="name" v="Meløyfjorden" />
		<tag k="natural" v="bay" />
		<tag k="ssr:stedsnr" v="77092" />
	</node>
	<node id="-670060" lat="66.7878111134" lon="13.3993416564">
		<tag k="alt_name" v="Kjellneset" />
		<tag k="name" v="Kjeldneset" />
		<tag k="natural" v="cape" />
		<tag k="ssr:stedsnr" v="77082" />
	</node>
	<node id="-670050" lat="66.7304694436" lon="13.507713898">
		<tag k="bay" v="fjord" />
		<tag k="name" v="Århaugfjorden" />
		<tag k="natural" v="bay" />
		<tag k="ssr:stedsnr" v="55604" />
	</node>
	<node id="-670041" lat="66.7847777799" lon="13.3461444369">
		<tag k="name" v="Finnvika" />
		<tag k="natural" v="bay" />
		<tag k="ssr:stedsnr" v="45643" />
	</node>
	<node id="-669611" lat="66.8572666697" lon="13.440172217">
		<tag k="bay" v="fjord" />
		<tag k="name" v="Gåsværfjorden" />
		<tag k="natural" v="bay" />
		<tag k="ssr:stedsnr" v="319772" />
	</node>
	<node id="-670038" lat="66.8111055578" lon="13.195930545">
		<tag k="name" v="Ramnsholmsanden" />
		<tag k="natural" v="strait" />
		<tag k="ssr:stedsnr" v="45580" />
	</node>
	<node id="-670029" lat="66.7779027738" lon="13.4067666758">
		<tag k="name" v="Haljesteinneset" />
		<tag k="natural" v="cape" />
		<tag k="ssr:stedsnr" v="45368" />
	</node>
	<node id="-670028" lat="66.8458722209" lon="13.4549611088">
		<tag k="name" v="Tømmerhella" />
		<tag k="natural" v="cape" />
		<tag k="ssr:stedsnr" v="45300" />
	</node>
	<node id="-670023" lat="66.7448749999" lon="13.5140166635">
		<tag k="name" v="Galtneset" />
		<tag k="natural" v="cape" />
		<tag k="ssr:stedsnr" v="44944" />
	</node>
	<node id="-670022" lat="66.7468999992" lon="13.5476888906">
		<tag k="name" v="Halsaneset" />
		<tag k="natural" v="cape" />
		<tag k="ssr:stedsnr" v="44935" />
	</node>
	<node id="-670020" lat="66.7404166627" lon="13.5430666711">
		<tag k="name" v="Skjellvika" />
		<tag k="natural" v="bay" />
		<tag k="ssr:stedsnr" v="44928" />
	</node>
	<node id="-670011" lat="66.8097333303" lon="13.8477555556">
		<tag k="name" v="Setsteinen" />
		<tag k="natural" v="cape" />
		<tag k="ssr:stedsnr" v="45033" />
	</node>
	<node id="-669999" lat="66.7250166632" lon="13.8504555533">
		<tag k="name" v="Hinsøyrbukta" />
		<tag k="natural" v="bay" />
		<tag k="ssr:stedsnr" v="44172" />
	</node>
	<node id="-669995" lat="66.9366722201" lon="13.4426805481">
		<tag k="name" v="Nordsvenningen" />
		<tag k="place" v="islet" />
		<tag k="ssr:stedsnr" v="37279" />
	</node>
	<node id="-669992" lat="66.8449305586" lon="13.4285972202">
		<tag k="name" v="Bremnessanden" />
		<tag k="natural" v="beach" />
		<tag k="place" v="locality" />
		<tag k="ssr:stedsnr" v="36254" />
	</node>
	<node id="-669990" lat="66.8219666635" lon="13.1442666548">
		<tag k="name" v="Litlgrønholmen" />
		<tag k="place" v="islet" />
		<tag k="ssr:stedsnr" v="25651" />
	</node>
	<node id="-669988" lat="66.7178361146" lon="13.7287833315">
		<tag k="name" v="Forneset" />
		<tag k="natural" v="cape" />
		<tag k="ssr:stedsnr" v="21806" />
	</node>
	<node id="-669985" lat="66.9299999991" lon="13.4583333218">
		<tag k="name" v="Taskholmen" />
		<tag k="place" v="islet" />
		<tag k="ssr:stedsnr" v="20597" />
	</node>
	<node id="-669982" lat="66.8441499966" lon="13.6178666681">
		<tag k="name" v="Gjersvika" />
		<tag k="natural" v="bay" />
		<tag k="ssr:stedsnr" v="16986" />
	</node>
	<node id="-669980" lat="66.8383861111" lon="13.6835472112">
		<tag k="name" v="Eidet" />
		<tag k="natural" v="strait" />
		<tag k="ssr:stedsnr" v="16983" />
	</node>
	<node id="-669978" lat="66.8411722253" lon="13.7277666731">
		<tag k="name" v="Glomneset" />
		<tag k="natural" v="cape" />
		<tag k="ssr:stedsnr" v="16980" />
	</node>
	<node id="-669977" lat="66.835261113" lon="13.6335222233">
		<tag k="name" v="Tommesvika" />
		<tag k="natural" v="bay" />
		<tag k="ssr:stedsnr" v="16977" />
	</node>
	<node id="-669976" lat="66.8247083322" lon="13.2952277886">
		<tag k="bay" v="fjord" />
		<tag k="name" v="Meløyværleia" />
		<tag k="natural" v="bay" />
		<tag k="ssr:stedsnr" v="16962" />
	</node>
	<node id="-669975" lat="67.0188749999" lon="13.3296722289">
		<tag k="name" v="Lausgrunnen" />
		<tag k="natural" v="shoal" />
		<tag k="place" v="locality" />
		<tag k="ssr:stedsnr" v="16960" />
	</node>
	<node id="-669974" lat="66.8575555541" lon="13.2757722109">
		<tag k="name" v="Mortenøya" />
		<tag k="place" v="islet" />
		<tag k="ssr:stedsnr" v="16948" />
	</node>
	<node id="-669970" lat="66.8852805593" lon="13.4903944352">
		<tag k="name" v="Farsholmen" />
		<tag k="place" v="islet" />
		<tag k="ssr:stedsnr" v="16908" />
	</node>
	<node id="-669969" lat="66.922919442" lon="13.4192638872">
		<tag k="name" v="Stegløya" />
		<tag k="place" v="islet" />
		<tag k="ssr:stedsnr" v="16899" />
	</node>
	<node id="-669968" lat="66.911988886" lon="13.3990611093">
		<tag k="name" v="Engeløya" />
		<tag k="place" v="island" />
		<tag k="ssr:stedsnr" v="16887" />
	</node>
	<node id="-669962" lat="66.7864805545" lon="13.1552416622">
		<tag k="name" v="Hestøya" />
		<tag k="place" v="islet" />
		<tag k="ssr:stedsnr" v="16838" />
	</node>
	<node id="-669961" lat="66.9634944437" lon="13.4275305636">
		<tag k="name" v="Breitarskoltan" />
		<tag k="natural" v="shoal" />
		<tag k="place" v="locality" />
		<tag k="ssr:stedsnr" v="16815" />
	</node>
	<node id="-669960" lat="66.978436109" lon="13.5278111173">
		<tag k="name" v="Rørbåan" />
		<tag k="natural" v="shoal" />
		<tag k="place" v="locality" />
		<tag k="ssr:stedsnr" v="16813" />
	</node>
	<node id="-669959" lat="66.7838055514" lon="13.090750005">
		<tag k="alt_name" v="Hundgreinholmen, l" />
		<tag k="name" v="Litle Hundgreinholmen" />
		<tag k="place" v="islet" />
		<tag k="ssr:stedsnr" v="16795" />
	</node>
	<node id="-669958" lat="66.7924416645" lon="13.094944438">
		<tag k="name" v="Grasholman" />
		<tag k="place" v="islet" />
		<tag k="ssr:stedsnr" v="16792" />
	</node>
	<node id="-669957" lat="66.7642638857" lon="13.0681111034">
		<tag k="name" v="Olderøya" />
		<tag k="place" v="island" />
		<tag k="ssr:stedsnr" v="16791" />
	</node>
	<node id="-669956" lat="66.7743638923" lon="13.0956444497">
		<tag k="alt_name" v="Helløya, store" />
		<tag k="name" v="Storhelløya" />
		<tag k="place" v="island" />
		<tag k="ssr:stedsnr" v="16775" />
	</node>
	<node id="-669955" lat="66.7723638889" lon="13.0645111033">
		<tag k="name" v="Sædingsholmen" />
		<tag k="place" v="islet" />
		<tag k="ssr:stedsnr" v="16767" />
	</node>
	<node id="-669954" lat="66.7709555547" lon="13.0748638886">
		<tag k="name" v="Flatøya" />
		<tag k="place" v="islet" />
		<tag k="ssr:stedsnr" v="16765" />
	</node>
	<node id="-669952" lat="66.8150972222" lon="13.1866111084">
		<tag k="alt_name" v="Litlravnsholmen" />
		<tag k="name" v="Litlramnsholmen" />
		<tag k="place" v="islet" />
		<tag k="ssr:stedsnr" v="16756" />
	</node>
	<node id="-669951" lat="67.0026444428" lon="13.1052249946">
		<tag k="name" v="Ersholmen" />
		<tag k="place" v="islet" />
		<tag k="ssr:stedsnr" v="16742" />
	</node>
	<node id="-669950" lat="67.012902778" lon="13.0906611127">
		<tag k="name" v="Buøysundstaren" />
		<tag k="natural" v="shoal" />
		<tag k="place" v="locality" />
		<tag k="ssr:stedsnr" v="16739" />
	</node>
	<node id="-669949" lat="66.810124998" lon="13.159838888">
		<tag k="name" v="Nordgammøya" />
		<tag k="place" v="islet" />
		<tag k="ssr:stedsnr" v="16736" />
	</node>
	<node id="-669948" lat="67.0148972233" lon="13.1234583241">
		<tag k="name" v="Grytøya" />
		<tag k="place" v="islet" />
		<tag k="ssr:stedsnr" v="16735" />
	</node>
	<node id="-669947" lat="66.835602776" lon="13.2082805648">
		<tag k="name" v="Grønholman" />
		<tag k="place" v="islet" />
		<tag k="ssr:stedsnr" v="16727" />
	</node>
	<node id="-669946" lat="66.8526083316" lon="13.0605694459">
		<tag k="fixme" v="multiple name tags, choose one and add the other to alt_name" />
		<tag k="name" v="Tarskjærstorbåen;Tarskjærbåen" />
		<tag k="natural" v="shoal" />
		<tag k="place" v="locality" />
		<tag k="ssr:stedsnr" v="16708" />
	</node>
	<node id="-669945" lat="66.8440972219" lon="13.0529027686">
		<tag k="fixme" v="consider seamark:type=rock or natural=shoal" />
		<tag k="name" v="Tarskjæret" />
		<tag k="place" v="islet" />
		<tag k="ssr:stedsnr" v="16700" />
	</node>
	<node id="-669944" lat="66.838691667" lon="12.9919138877">
		<tag k="name" v="Moholmen" />
		<tag k="place" v="islet" />
		<tag k="ssr:stedsnr" v="16699" />
	</node>
	<node id="-669943" lat="66.9241055568" lon="13.109913885">
		<tag k="fixme" v="consider seamark:type=rock or natural=shoal" />
		<tag k="name" v="Seiskjæret" />
		<tag k="place" v="islet" />
		<tag k="ssr:stedsnr" v="16694" />
	</node>
	<node id="-669938" lat="66.7239749998" lon="13.5614305559">
		<tag k="name" v="Storvika" />
		<tag k="natural" v="bay" />
		<tag k="ssr:stedsnr" v="16610" />
	</node>
	<node id="-671101" lat="66.7706027792" lon="13.5321722211">
		<tag k="name" v="Osavika" />
		<tag k="natural" v="bay" />
		<tag k="ssr:stedsnr" v="683042" />
	</node>
	<node id="-669922" lat="66.7301777734" lon="13.4498472261">
		<tag k="name" v="Sirineset" />
		<tag k="natural" v="cape" />
		<tag k="ssr:stedsnr" v="16118" />
	</node>
	<node id="-669921" lat="66.728499998" lon="13.4220249928">
		<tag k="name" v="Åbotsvika" />
		<tag k="natural" v="bay" />
		<tag k="ssr:stedsnr" v="16117" />
	</node>
	<node id="-669916" lat="66.812111108" lon="13.528169435">
		<tag k="name" v="Oksholmen" />
		<tag k="place" v="islet" />
		<tag k="ssr:stedsnr" v="16088" />
	</node>
	<node id="-669915" lat="66.8079500023" lon="13.2324166712">
		<tag k="name" v="Storvika" />
		<tag k="natural" v="bay" />
		<tag k="ssr:stedsnr" v="16085" />
	</node>
	<node id="-669914" lat="66.7886490579" lon="13.4301710801">
		<tag k="name" v="Grønnøya" />
		<tag k="place" v="island" />
		<tag k="ssr:stedsnr" v="16082" />
	</node>
	<node id="-669913" lat="66.7975388844" lon="13.2408027843">
		<tag k="name" v="Korsholmen" />
		<tag k="place" v="islet" />
		<tag k="ssr:stedsnr" v="16077" />
	</node>
	<node id="-669912" lat="66.7846666703" lon="13.5172388785">
		<tag k="alt_name" v="Vågsbotnen" />
		<tag k="name" v="Vågsbotn" />
		<tag k="natural" v="bay" />
		<tag k="ssr:stedsnr" v="16073" />
	</node>
	<node id="-669906" lat="66.7650277777" lon="13.5224972249">
		<tag k="name" v="Sauraholmen" />
		<tag k="place" v="islet" />
		<tag k="ssr:stedsnr" v="16036" />
	</node>
	<node id="-669904" lat="66.7731138922" lon="13.4990194487">
		<tag k="name" v="Buskholmen" />
		<tag k="place" v="islet" />
		<tag k="ssr:stedsnr" v="16031" />
	</node>
	<node id="-669898" lat="66.8355138876" lon="13.7548527816">
		<tag k="name" v="Nordre Neverdalsbukta" />
		<tag k="natural" v="bay" />
		<tag k="ssr:stedsnr" v="267296" />
	</node>
	<node id="-669851" lat="66.8529666704" lon="13.6952166619">
		<tag k="name" v="Våtvikneset" />
		<tag k="natural" v="cape" />
		<tag k="ssr:stedsnr" v="894855" />
	</node>
	<node id="-669850" lat="66.769297219" lon="13.5818916771">
		<tag k="name" v="Grønneset" />
		<tag k="natural" v="cape" />
		<tag k="ssr:stedsnr" v="894840" />
	</node>
	<node id="-669841" lat="66.832211113" lon="13.7453194532">
		<tag k="name" v="Nesodden" />
		<tag k="natural" v="cape" />
		<tag k="ssr:stedsnr" v="894747" />
	</node>
	<node id="-669839" lat="66.7937666687" lon="13.2177472333">
		<tag k="fixme" v="consider seamark:type=rock or natural=shoal" />
		<tag k="name" v="Hestøyskjæret" />
		<tag k="place" v="islet" />
		<tag k="ssr:stedsnr" v="894712" />
	</node>
	<node id="-669832" lat="66.7863611119" lon="13.4758972243">
		<tag k="name" v="Busundet" />
		<tag k="natural" v="bay" />
		<tag k="ssr:stedsnr" v="894411" />
	</node>
	<node id="-669825" lat="66.8153472193" lon="13.3850249937">
		<tag k="name" v="Kannholmen" />
		<tag k="natural" v="cape" />
		<tag k="ssr:stedsnr" v="894289" />
	</node>
	<node id="-669824" lat="66.8460305581" lon="13.7054944384">
		<tag k="name" v="Sildnesstranda" />
		<tag k="natural" v="beach" />
		<tag k="place" v="locality" />
		<tag k="ssr:stedsnr" v="894208" />
	</node>
	<node id="-669809" lat="66.8547833365" lon="13.6814638791">
		<tag k="name" v="Hopsklubben" />
		<tag k="natural" v="cape" />
		<tag k="ssr:stedsnr" v="409823" />
	</node>
	<node id="-669807" lat="66.8380111091" lon="13.5707166625">
		<tag k="name" v="Vika" />
		<tag k="natural" v="bay" />
		<tag k="ssr:stedsnr" v="409754" />
	</node>
	<node id="-669798" lat="66.8275499991" lon="13.3563999982">
		<tag k="name" v="Kvivalen" />
		<tag k="natural" v="bay" />
		<tag k="ssr:stedsnr" v="409617" />
	</node>
	<node id="-669794" lat="66.74370833" lon="13.4845777737">
		<tag k="name" v="Juvika" />
		<tag k="natural" v="bay" />
		<tag k="ssr:stedsnr" v="409410" />
	</node>
	<node id="-669779" lat="66.8448888881" lon="13.7069999918">
		<tag k="name" v="Ytterodden" />
		<tag k="natural" v="cape" />
		<tag k="ssr:stedsnr" v="408210" />
	</node>
	<node id="-669778" lat="66.8496250037" lon="13.699938881">
		<tag k="name" v="Gamneset" />
		<tag k="natural" v="cape" />
		<tag k="ssr:stedsnr" v="408206" />
	</node>
	<node id="-669775" lat="66.7220499981" lon="13.5005083347">
		<tag k="name" v="Juvikneset" />
		<tag k="natural" v="cape" />
		<tag k="ssr:stedsnr" v="402413" />
	</node>
	<node id="-669772" lat="66.9250305533" lon="13.462574999">
		<tag k="name" v="Leirvika" />
		<tag k="natural" v="bay" />
		<tag k="ssr:stedsnr" v="401269" />
	</node>
	<node id="-669769" lat="66.8230722232" lon="13.1605777773">
		<tag k="alt_name" v="Lille Grønnholmen" />
		<tag k="name" v="Litlgrønholmen" />
		<tag k="place" v="islet" />
		<tag k="ssr:stedsnr" v="389262" />
	</node>
	<node id="-669768" lat="66.8480333346" lon="13.2047666705">
		<tag k="bay" v="fjord" />
		<tag k="name" v="Bogen" />
		<tag k="natural" v="bay" />
		<tag k="ssr:stedsnr" v="388796" />
	</node>
	<node id="-669767" lat="66.9344611071" lon="13.4754388797">
		<tag k="name" v="Litlgrunnen" />
		<tag k="natural" v="shoal" />
		<tag k="place" v="locality" />
		<tag k="ssr:stedsnr" v="388786" />
	</node>
	<node id="-669766" lat="66.789758332" lon="13.1944638915">
		<tag k="name" v="Galten" />
		<tag k="natural" v="shoal" />
		<tag k="place" v="locality" />
		<tag k="ssr:stedsnr" v="388574" />
	</node>
	<node id="-669764" lat="66.7983972196" lon="13.9566555478">
		<tag k="name" v="Sørnøv" />
		<tag k="natural" v="cape" />
		<tag k="ssr:stedsnr" v="387225" />
	</node>
	<node id="-669761" lat="66.8707333328" lon="13.5737361213">
		<tag k="name" v="Myrvika" />
		<tag k="natural" v="bay" />
		<tag k="ssr:stedsnr" v="380961" />
	</node>
	<node id="-669760" lat="66.8614555551" lon="13.2681361148">
		<tag k="fixme" v="consider seamark:type=rock or natural=shoal" />
		<tag k="name" v="Båsan" />
		<tag k="place" v="islet" />
		<tag k="ssr:stedsnr" v="380958" />
	</node>
	<node id="-669759" lat="67.035416666" lon="13.2198361121">
		<tag k="name" v="Fallet" />
		<tag k="natural" v="shoal" />
		<tag k="place" v="locality" />
		<tag k="ssr:stedsnr" v="380955" />
	</node>
	<node id="-669758" lat="66.8543861111" lon="13.6724555489">
		<tag k="name" v="Hopen" />
		<tag k="natural" v="bay" />
		<tag k="ssr:stedsnr" v="380952" />
	</node>
	<node id="-669757" lat="66.8430472249" lon="13.3623305451">
		<tag k="fixme" v="consider seamark:type=rock or natural=shoal" />
		<tag k="name" v="Halvfasten" />
		<tag k="place" v="islet" />
		<tag k="ssr:stedsnr" v="380940" />
	</node>
	<node id="-669756" lat="66.8354499964" lon="13.301105551">
		<tag k="name" v="Meløyværet" />
		<tag k="place" v="islet" />
		<tag k="ssr:stedsnr" v="380931" />
	</node>
	<node id="-669755" lat="66.834955557" lon="13.2339388812">
		<tag k="name" v="Perøya" />
		<tag k="place" v="island" />
		<tag k="ssr:stedsnr" v="380928" />
	</node>
	<node id="-669754" lat="66.8846944416" lon="13.4445833227">
		<tag k="name" v="Markusbåen" />
		<tag k="natural" v="shoal" />
		<tag k="place" v="locality" />
		<tag k="ssr:stedsnr" v="380910" />
	</node>
	<node id="-669752" lat="66.8761333307" lon="13.490222229">
		<tag k="name" v="Kvaløya" />
		<tag k="place" v="island" />
		<tag k="ssr:stedsnr" v="380902" />
	</node>
	<node id="-669751" lat="66.9086972226" lon="13.44229167">
		<tag k="name" v="Stavnes" />
		<tag k="natural" v="cape" />
		<tag k="ssr:stedsnr" v="380886" />
	</node>
	<node id="-669749" lat="66.8971888849" lon="13.3080861142">
		<tag k="fixme" v="consider seamark:type=rock or natural=shoal" />
		<tag k="name" v="Kråka" />
		<tag k="place" v="islet" />
		<tag k="ssr:stedsnr" v="380876" />
	</node>
	<node id="-669748" lat="66.9333777808" lon="13.3739055561">
		<tag k="name" v="Sengsskjæran" />
		<tag k="place" v="islet" />
		<tag k="ssr:stedsnr" v="380866" />
	</node>
	<node id="-669746" lat="66.772727782" lon="13.1243027855">
		<tag k="alt_name" v="Storlyngværet" />
		<tag k="name" v="Storlyngvær" />
		<tag k="place" v="islet" />
		<tag k="ssr:stedsnr" v="380815" />
	</node>
	<node id="-669745" lat="66.7812749962" lon="13.4929999999">
		<tag k="name" v="Storøya" />
		<tag k="place" v="island" />
		<tag k="ssr:stedsnr" v="380795" />
	</node>
	<node id="-669744" lat="66.8130055553" lon="13.0862499919">
		<tag k="name" v="Skårholman" />
		<tag k="place" v="islet" />
		<tag k="ssr:stedsnr" v="380786" />
	</node>
	<node id="-669743" lat="66.7988638891" lon="13.1257777666">
		<tag k="name" v="Teistholmen" />
		<tag k="place" v="islet" />
		<tag k="ssr:stedsnr" v="380778" />
	</node>
	<node id="-669742" lat="66.7944111086" lon="13.0748361141">
		<tag k="name" v="Stabburet" />
		<tag k="place" v="islet" />
		<tag k="ssr:stedsnr" v="380775" />
	</node>
	<node id="-669741" lat="66.940219446" lon="13.1083889003">
		<tag k="name" v="Hjelmkollan" />
		<tag k="place" v="islet" />
		<tag k="ssr:stedsnr" v="380748" />
	</node>
	<node id="-669740" lat="66.9193750034" lon="13.0707583451">
		<tag k="name" v="Ternholman" />
		<tag k="place" v="island" />
		<tag k="ssr:stedsnr" v="380749" />
	</node>
	<node id="-669739" lat="66.9124638904" lon="13.0880583259">
		<tag k="name" v="Ternholmen" />
		<tag k="place" v="islet" />
		<tag k="ssr:stedsnr" v="380735" />
	</node>
	<node id="-669737" lat="66.7245472236" lon="13.8289638986">
		<tag k="name" v="Botteløyra" />
		<tag k="natural" v="cape" />
		<tag k="ssr:stedsnr" v="380504" />
	</node>
	<node id="-669728" lat="66.7543305528" lon="13.7284333373">
		<tag k="alt_name" v="Risnesodden" />
		<tag k="name" v="Risneset" />
		<tag k="natural" v="cape" />
		<tag k="ssr:stedsnr" v="380285" />
	</node>
	<node id="-669725" lat="66.7208500022" lon="13.5596527867">
		<tag k="alt_name" v="Skålvikneset" />
		<tag k="name" v="Skålsvikneset" />
		<tag k="natural" v="cape" />
		<tag k="ssr:stedsnr" v="380212" />
	</node>
	<node id="-669614" lat="66.9584111073" lon="13.5518583287">
		<tag k="name" v="Saubergskallen" />
		<tag k="natural" v="shoal" />
		<tag k="place" v="locality" />
		<tag k="ssr:stedsnr" v="319810" />
	</node>
	<node id="-669722" lat="66.7293749993" lon="13.4283194402">
		<tag k="name" v="Buskholmen" />
		<tag k="place" v="islet" />
		<tag k="ssr:stedsnr" v="380138" />
	</node>
	<node id="-669720" lat="66.8069027809" lon="13.5445861173">
		<tag k="name" v="Snerpo" />
		<tag k="place" v="islet" />
		<tag k="ssr:stedsnr" v="380123" />
	</node>
	<node id="-669709" lat="66.7860277758" lon="13.3683027859">
		<tag k="name" v="Holmvika" />
		<tag k="natural" v="bay" />
		<tag k="ssr:stedsnr" v="380058" />
	</node>
	<node id="-670039" lat="66.8168555575" lon="13.3431888988">
		<tag k="name" v="Juvika" />
		<tag k="natural" v="bay" />
		<tag k="ssr:stedsnr" v="45607" />
	</node>
	<node id="-669701" lat="66.709669444" lon="13.7097305509">
		<tag k="name" v="Litlvika" />
		<tag k="natural" v="bay" />
		<tag k="ssr:stedsnr" v="349479" />
	</node>
</osm>
