<?xml version="1.0" encoding="UTF-8"?>
<<<<<<< HEAD
<osm version="0.6" generator="osmapis">
	<node lat="66.7293083291486" lon="13.562988891385638" id="-10568">
		<tag k="name" v="Stormyran" />
		<tag k="natural" v="wetland" />
		<tag k="ssr:stedsnr" v="44583" />
	</node>
	<node lat="66.91269722022693" lon="13.701011116731939" id="-10575">
		<tag k="name" v="Stormyra" />
		<tag k="natural" v="wetland" />
		<tag k="ssr:stedsnr" v="44970" />
	</node>
	<node lat="66.75905277452584" lon="13.421677767098583" id="-10586">
		<tag k="name" v="Lemmyra" />
		<tag k="natural" v="wetland" />
		<tag k="ssr:stedsnr" v="77003" />
	</node>
	<node lat="66.79516666347834" lon="13.99013334238019" id="-10658">
		<tag k="name" v="Tennurda" />
		<tag k="natural" v="scree" />
		<tag k="ssr:stedsnr" v="137298" />
	</node>
	<node lat="66.91412500437579" lon="13.637347226311485" id="-10735">
		<tag k="name" v="Stormyra" />
		<tag k="natural" v="wetland" />
		<tag k="ssr:stedsnr" v="166863" />
	</node>
	<node lat="66.90222222090121" lon="13.71361667425415" id="-10740">
		<tag k="name" v="Kløftsteinen" />
		<tag k="natural" v="stone" />
		<tag k="ssr:stedsnr" v="166972" />
	</node>
	<node lat="66.66449999797015" lon="13.699383324062984" id="-10747">
		<tag k="name" v="Fonndalsbreen" />
		<tag k="natural" v="glacier" />
		<tag k="ssr:stedsnr" v="198268" />
	</node>
	<node lat="66.89841110887434" lon="13.72686389525118" id="-10749">
		<tag k="name" v="Båtsteinurda" />
		<tag k="natural" v="scree" />
		<tag k="ssr:stedsnr" v="198111" />
	</node>
	<node lat="66.86962778001377" lon="13.746255546114968" id="-10790">
		<tag k="name" v="Finnmyran" />
		<tag k="natural" v="wetland" />
		<tag k="ssr:stedsnr" v="227697" />
	</node>
	<node lat="66.94164166730982" lon="13.585916659650037" id="-10838">
		<tag k="name" v="Skogreina" />
		<tag k="place" v="locality" />
		<tag k="ssr:stedsnr" v="259854" />
	</node>
	<node lat="66.7926083339115" lon="13.438099995612546" id="-10850">
		<tag k="name" v="Stormyra" />
		<tag k="natural" v="wetland" />
		<tag k="ssr:stedsnr" v="287294" />
	</node>
	<node lat="66.79844444224804" lon="13.201650007291779" id="-10867">
		<tag k="name" v="Tarrholman" />
		<tag k="place" v="locality" />
		<tag k="ssr:stedsnr" v="288609" />
	</node>
	<node lat="66.85441388732833" lon="13.715002785588677" id="-10900">
		<tag k="name" v="Våtvikmyra" />
		<tag k="natural" v="wetland" />
		<tag k="ssr:stedsnr" v="469190" />
	</node>
	<node lat="66.77512500041931" lon="13.359294441976802" id="-10911">
		<tag k="name" v="Nesmyra" />
		<tag k="natural" v="wetland" />
		<tag k="ssr:stedsnr" v="469684" />
	</node>
	<node lat="66.80150833387837" lon="13.61531667328526" id="-10916">
		<tag k="name" v="Kalvhagen" />
		<tag k="place" v="locality" />
		<tag k="ssr:stedsnr" v="469797" />
	</node>
	<node lat="66.71549444521317" lon="13.62173887846528" id="-10928">
		<tag k="name" v="Sommarsetura" />
		<tag k="natural" v="scree" />
		<tag k="ssr:stedsnr" v="470130" />
	</node>
	<node lat="66.76022222422291" lon="13.742608326216637" id="-10955">
		<tag k="name" v="Myran" />
		<tag k="natural" v="wetland" />
		<tag k="ssr:stedsnr" v="348616" />
	</node>
	<node lat="66.90583889115373" lon="13.688797230399373" id="-10962">
=======
<osm generator="osmapis" version="0.6">
	<node id="-164736" lat="66.7293083291" lon="13.5629888914">
		<tag k="name" v="Stormyran" />
		<tag k="natural" v="wetland" />
		<tag k="ssr:stedsnr" v="44583" />
	</node>
	<node id="-164096" lat="66.9058388912" lon="13.6887972304">
		<tag k="name" v="Stormyra" />
		<tag k="natural" v="wetland" />
		<tag k="ssr:stedsnr" v="348961" />
	</node>
	<node id="-165374" lat="66.7194472229" lon="13.7715277681">
		<tag k="name" v="Stormyra" />
		<tag k="natural" v="wetland" />
		<tag k="ssr:stedsnr" v="591432" />
	</node>
	<node id="-165461" lat="66.7584388883" lon="13.8595944388">
		<tag k="name" v="Stumpan" />
		<tag k="place" v="locality" />
		<tag k="ssr:stedsnr" v="651045" />
	</node>
	<node id="-164522" lat="66.6983277805" lon="13.6507638951">
		<tag k="landuse" v="quarry" />
		<tag k="name" v="Rendalsvik gruber" />
		<tag k="ssr:stedsnr" v="773861" />
	</node>
	<node id="-163818" lat="66.9141250044" lon="13.6373472263">
		<tag k="name" v="Stormyra" />
		<tag k="natural" v="wetland" />
		<tag k="ssr:stedsnr" v="166863" />
	</node>
	<node id="-163834" lat="66.7926083339" lon="13.4380999956">
>>>>>>> e1d4bc35ff8a6074a6f2e91616a996b547c36f15
		<tag k="name" v="Stormyra" />
		<tag k="natural" v="wetland" />
		<tag k="ssr:stedsnr" v="348961" />
	</node>
<<<<<<< HEAD
	<node lat="66.7524583363126" lon="13.3670638876975" id="-11003">
		<tag k="name" v="Gjurbotnmyra" />
		<tag k="natural" v="wetland" />
		<tag k="ssr:stedsnr" v="409320" />
	</node>
	<node lat="66.69112777944314" lon="13.678508327935651" id="-11058">
		<tag k="name" v="Storjorda" />
=======
	<node id="-165624" lat="66.9147944451" lon="13.6519472291">
		<tag k="alt_name" v="Mossiengan" />
		<tag k="name" v="Måssiendan" />
		<tag k="place" v="locality" />
		<tag k="ssr:stedsnr" v="805876" />
	</node>
	<node id="-165623" lat="66.9087611106" lon="13.6023111101">
		<tag k="name" v="Kobbsteinan" />
		<tag k="natural" v="stone" />
		<tag k="ssr:stedsnr" v="805870" />
	</node>
	<node id="-163829" lat="66.9022222209" lon="13.7136166743">
		<tag k="name" v="Kløftsteinen" />
		<tag k="natural" v="stone" />
		<tag k="ssr:stedsnr" v="166972" />
	</node>
	<node id="-164350" lat="66.793177781" lon="13.5256166683">
		<tag k="name" v="Spjutsteinen" />
		<tag k="natural" v="stone" />
		<tag k="ssr:stedsnr" v="712783" />
	</node>
	<node id="-164906" lat="66.7951666635" lon="13.9901333424">
		<tag k="name" v="Tennurda" />
		<tag k="natural" v="scree" />
		<tag k="ssr:stedsnr" v="137298" />
	</node>
	<node id="-164335" lat="66.7387194442" lon="13.8248999909">
		<tag k="name" v="Snelandsmyran" />
>>>>>>> e1d4bc35ff8a6074a6f2e91616a996b547c36f15
		<tag k="natural" v="wetland" />
		<tag k="ssr:stedsnr" v="470414" />
	</node>
<<<<<<< HEAD
	<node lat="66.64245277528505" lon="13.69750556480638" id="-11076">
		<tag k="name" v="Svartisen" />
		<tag k="natural" v="glacier" />
		<tag k="ssr:stedsnr" v="501234" />
	</node>
	<node lat="66.93468611111818" lon="13.60131943970501" id="-11148">
		<tag k="landuse" v="meadow" />
		<tag k="name" v="Vollan" />
		<tag k="ssr:stedsnr" v="684865" />
	</node>
	<node lat="66.76288333250399" lon="13.277988888098895" id="-11155">
		<tag k="name" v="Frostvikurda" />
		<tag k="natural" v="scree" />
		<tag k="ssr:stedsnr" v="522712" />
	</node>
	<node lat="66.72030555293114" lon="13.390038885288206" id="-11158">
		<tag k="name" v="Haugvik" />
		<tag k="place" v="locality" />
		<tag k="ssr:stedsnr" v="529419" />
	</node>
	<node lat="66.75962499985616" lon="13.868694434129056" id="-11215">
		<tag k="name" v="Finnjorda" />
		<tag k="place" v="locality" />
		<tag k="ssr:stedsnr" v="622307" />
	</node>
	<node lat="66.71661111246753" lon="13.594244450779755" id="-11288">
		<tag k="name" v="Langmyra" />
=======
	<node id="-165358" lat="66.9396722257" lon="13.5933472174">
		<tag k="name" v="Myra" />
		<tag k="natural" v="wetland" />
		<tag k="ssr:stedsnr" v="590842" />
	</node>
	<node id="-165099" lat="66.7536638934" lon="13.8402916681">
		<tag k="name" v="Pilmyran" />
		<tag k="natural" v="wetland" />
		<tag k="ssr:stedsnr" v="348033" />
	</node>
	<node id="-164330" lat="66.8209666652" lon="13.8044805517">
		<tag k="name" v="Geitsteinen" />
		<tag k="natural" v="stone" />
		<tag k="ssr:stedsnr" v="712029" />
	</node>
	<node id="-164028" lat="66.7751250004" lon="13.359294442">
		<tag k="name" v="Nesmyra" />
		<tag k="natural" v="wetland" />
		<tag k="ssr:stedsnr" v="469684" />
	</node>
	<node id="-164078" lat="66.760291669" lon="13.7825194481">
		<tag k="name" v="Fjellinnermyra" />
		<tag k="natural" v="wetland" />
		<tag k="ssr:stedsnr" v="348028" />
	</node>
	<node id="-164965" lat="66.7582638854" lon="13.8668083305">
		<tag k="name" v="Finnsteinan" />
		<tag k="natural" v="stone" />
		<tag k="ssr:stedsnr" v="166038" />
	</node>
	<node id="-164836" lat="66.9124333364" lon="13.5979472342">
		<tag k="name" v="Forsmyran" />
>>>>>>> e1d4bc35ff8a6074a6f2e91616a996b547c36f15
		<tag k="natural" v="wetland" />
		<tag k="ssr:stedsnr" v="894190" />
	</node>
<<<<<<< HEAD
	<node lat="66.84360000082589" lon="13.444324996703523" id="-11292">
		<tag k="name" v="Nordmarka" />
		<tag k="place" v="locality" />
		<tag k="ssr:stedsnr" v="894302" />
	</node>
	<node lat="66.88435000442622" lon="13.79348332773951" id="-11296">
		<tag k="name" v="Steinkjerringa" />
		<tag k="natural" v="stone" />
		<tag k="ssr:stedsnr" v="894649" />
	</node>
	<node lat="66.75926666517796" lon="13.851830554953626" id="-11310">
=======
	<node id="-165346" lat="66.9072583309" lon="13.7171666744">
		<tag k="name" v="Myren" />
		<tag k="natural" v="wetland" />
		<tag k="ssr:stedsnr" v="590979" />
	</node>
	<node id="-163678" lat="66.86962778" lon="13.7462555461">
		<tag k="name" v="Finnmyran" />
		<tag k="natural" v="wetland" />
		<tag k="ssr:stedsnr" v="227697" />
	</node>
	<node id="-165085" lat="66.91683889" lon="13.6308805654">
>>>>>>> e1d4bc35ff8a6074a6f2e91616a996b547c36f15
		<tag k="name" v="Stormyra" />
		<tag k="natural" v="wetland" />
		<tag k="ssr:stedsnr" v="895030" />
	</node>
<<<<<<< HEAD
	<node lat="66.82096666516762" lon="13.804480551656876" id="-11325">
		<tag k="name" v="Geitsteinen" />
		<tag k="natural" v="stone" />
		<tag k="ssr:stedsnr" v="712029" />
	</node>
	<node lat="66.73871944417833" lon="13.824899990865298" id="-11328">
		<tag k="name" v="Snelandsmyran" />
		<tag k="natural" v="wetland" />
		<tag k="ssr:stedsnr" v="712080" />
	</node>
	<node lat="66.79317778100287" lon="13.525616668251581" id="-11338">
		<tag k="name" v="Spjutsteinen" />
		<tag k="natural" v="stone" />
		<tag k="ssr:stedsnr" v="712783" />
	</node>
	<node lat="66.82317777614492" lon="13.815161118236468" id="-11394">
		<tag k="name" v="Lomsteinen" />
		<tag k="natural" v="stone" />
		<tag k="ssr:stedsnr" v="773480" />
	</node>
	<node lat="66.92171944047847" lon="13.647508325706621" id="-11403">
		<tag k="name" v="Hellaura" />
		<tag k="natural" v="scree" />
		<tag k="ssr:stedsnr" v="773828" />
	</node>
	<node lat="66.69832778053492" lon="13.650763895142774" id="-11405">
		<tag k="landuse" v="quarry" />
		<tag k="name" v="Rendalsvik gruber" />
		<tag k="ssr:stedsnr" v="773861" />
	</node>
	<node lat="66.79683611304603" lon="13.948605564238386" id="-11557">
		<tag k="name" v="Håkjerringurda" />
		<tag k="natural" v="scree" />
		<tag k="ssr:stedsnr" v="16289" />
	</node>
	<node lat="66.82065833776623" lon="13.812369437649922" id="-11600">
		<tag k="name" v="Høgset" />
		<tag k="place" v="locality" />
		<tag k="ssr:stedsnr" v="45028" />
	</node>
	<node lat="66.69228333684885" lon="13.83045556127931" id="-11648">
=======
	<node id="-163804" lat="66.7574388917" lon="13.8046333441">
		<tag k="historic" v="shieling" />
		<tag k="name" v="Røyrn" />
		<tag k="place" v="locality" />
		<tag k="ssr:stedsnr" v="166053" />
	</node>
	<node id="-163803" lat="66.7577666698" lon="13.8104527806">
		<tag k="historic" v="shieling" />
		<tag k="name" v="Engan" />
		<tag k="place" v="locality" />
		<tag k="ssr:stedsnr" v="166052" />
	</node>
	<node id="-165227" lat="66.7628833325" lon="13.2779888881">
		<tag k="name" v="Frostvikurda" />
		<tag k="natural" v="scree" />
		<tag k="ssr:stedsnr" v="522712" />
	</node>
	<node id="-164677" lat="66.796836113" lon="13.9486055642">
		<tag k="name" v="Håkjerringurda" />
		<tag k="natural" v="scree" />
		<tag k="ssr:stedsnr" v="16289" />
	</node>
	<node id="-165333" lat="66.8270388888" lon="13.4564444342">
		<tag k="name" v="Stormyra" />
		<tag k="natural" v="wetland" />
		<tag k="ssr:stedsnr" v="590289" />
	</node>
	<node id="-164052" lat="66.6911277794" lon="13.6785083279">
		<tag k="name" v="Storjorda" />
		<tag k="natural" v="wetland" />
		<tag k="ssr:stedsnr" v="470414" />
	</node>
	<node id="-164259" lat="66.9346861111" lon="13.6013194397">
		<tag k="landuse" v="meadow" />
		<tag k="name" v="Vollan" />
		<tag k="ssr:stedsnr" v="684865" />
	</node>
	<node id="-165711" lat="66.8503416702" lon="13.9281416697">
		<tag k="name" v="Glombreen" />
		<tag k="natural" v="glacier" />
		<tag k="ssr:stedsnr" v="866329" />
	</node>
	<node id="-164814" lat="66.6922833368" lon="13.8304555613">
>>>>>>> e1d4bc35ff8a6074a6f2e91616a996b547c36f15
		<tag k="name" v="Litlbreen" />
		<tag k="natural" v="glacier" />
		<tag k="ssr:stedsnr" v="77492" />
	</node>
<<<<<<< HEAD
	<node lat="66.91243333638583" lon="13.597947234157486" id="-11658">
		<tag k="name" v="Forsmyran" />
		<tag k="natural" v="wetland" />
		<tag k="ssr:stedsnr" v="77882" />
	</node>
	<node lat="66.77437777489054" lon="13.352133321934659" id="-11673">
		<tag k="name" v="Øvsmyra" />
		<tag k="natural" v="wetland" />
		<tag k="ssr:stedsnr" v="97757" />
	</node>
	<node lat="66.77454166622259" lon="13.439522216469951" id="-11679">
		<tag k="name" v="Svartskogen" />
		<tag k="place" v="locality" />
		<tag k="ssr:stedsnr" v="105397" />
	</node>
	<node lat="66.75826388535556" lon="13.866808330519918" id="-11770">
		<tag k="name" v="Finnsteinan" />
		<tag k="natural" v="stone" />
		<tag k="ssr:stedsnr" v="166038" />
	</node>
	<node lat="66.75776666984393" lon="13.810452780644777" id="-11771">
		<tag k="historic" v="shieling" />
		<tag k="name" v="Engan" />
		<tag k="place" v="locality" />
		<tag k="ssr:stedsnr" v="166052" />
	</node>
	<node lat="66.75743889167312" lon="13.804633344063232" id="-11772">
		<tag k="historic" v="shieling" />
		<tag k="name" v="Røyrn" />
		<tag k="place" v="locality" />
		<tag k="ssr:stedsnr" v="166053" />
	</node>
	<node lat="66.75693055451522" lon="13.824577783590064" id="-11810">
		<tag k="fixme" v="multiple name tags, choose one and add the other to alt_name" />
		<tag k="historic" v="shieling" />
		<tag k="name" v="Nordsætra;Seter" />
=======
	<node id="-165577" lat="66.9217194405" lon="13.6475083257">
		<tag k="name" v="Hellaura" />
		<tag k="natural" v="scree" />
		<tag k="ssr:stedsnr" v="773828" />
	</node>
	<node id="-164424" lat="66.8843500044" lon="13.7934833277">
		<tag k="name" v="Steinkjerringa" />
		<tag k="natural" v="stone" />
		<tag k="ssr:stedsnr" v="894649" />
	</node>
	<node id="-164037" lat="66.8015083339" lon="13.6153166733">
		<tag k="name" v="Kalvhagen" />
		<tag k="place" v="locality" />
		<tag k="ssr:stedsnr" v="469797" />
	</node>
	<node id="-165316" lat="66.8190027758" lon="13.3662638785">
		<tag k="alt_name" v="Trollskogdyen" />
		<tag k="name" v="Trollskodyan" />
		<tag k="natural" v="wetland" />
		<tag k="ssr:stedsnr" v="562968" />
	</node>
	<node id="-163906" lat="66.6823861143" lon="13.7708027771">
		<tag k="name" v="Engabreen" />
		<tag k="natural" v="glacier" />
		<tag k="ssr:stedsnr" v="441471" />
	</node>
	<node id="-165697" lat="66.8982888919" lon="13.6537472341">
		<tag k="name" v="Stigurda" />
		<tag k="natural" v="scree" />
		<tag k="ssr:stedsnr" v="865924" />
	</node>
	<node id="-164867" lat="66.7745416662" lon="13.4395222165">
		<tag k="name" v="Svartskogen" />
		<tag k="place" v="locality" />
		<tag k="ssr:stedsnr" v="105397" />
	</node>
	<node id="-164413" lat="66.8436000008" lon="13.4443249967">
		<tag k="name" v="Nordmarka" />
>>>>>>> e1d4bc35ff8a6074a6f2e91616a996b547c36f15
		<tag k="place" v="locality" />
		<tag k="ssr:stedsnr" v="198247" />
	</node>
<<<<<<< HEAD
	<node lat="66.81247777890003" lon="13.968044451173489" id="-11830">
		<tag k="name" v="Stakkmyra" />
		<tag k="natural" v="wetland" />
		<tag k="ssr:stedsnr" v="219165" />
	</node>
	<node lat="66.87408333554143" lon="13.813177782287454" id="-11860">
		<tag k="name" v="Banmyra" />
		<tag k="natural" v="wetland" />
		<tag k="ssr:stedsnr" v="227511" />
	</node>
	<node lat="66.92073888576522" lon="13.848197224242977" id="-11899">
		<tag k="name" v="Lappsteinen" />
		<tag k="natural" v="stone" />
		<tag k="ssr:stedsnr" v="319180" />
	</node>
	<node lat="66.91683889002618" lon="13.63088056536028" id="-11933">
		<tag k="name" v="Stormyra" />
=======
	<node id="-165564" lat="66.7530916651" lon="13.7766138824">
		<tag k="name" v="Stormyra" />
		<tag k="natural" v="wetland" />
		<tag k="ssr:stedsnr" v="772966" />
	</node>
	<node id="-164408" lat="66.7166111125" lon="13.5942444508">
		<tag k="name" v="Langmyra" />
>>>>>>> e1d4bc35ff8a6074a6f2e91616a996b547c36f15
		<tag k="natural" v="wetland" />
		<tag k="ssr:stedsnr" v="320896" />
	</node>
<<<<<<< HEAD
	<node lat="66.76029166903604" lon="13.782519448123047" id="-11943">
		<tag k="name" v="Fjellinnermyra" />
=======
	<node id="-164791" lat="66.7590527745" lon="13.4216777671">
		<tag k="name" v="Lemmyra" />
>>>>>>> e1d4bc35ff8a6074a6f2e91616a996b547c36f15
		<tag k="natural" v="wetland" />
		<tag k="ssr:stedsnr" v="348028" />
	</node>
<<<<<<< HEAD
	<node lat="66.75366389337358" lon="13.840291668096993" id="-11944">
		<tag k="name" v="Pilmyran" />
		<tag k="natural" v="wetland" />
		<tag k="ssr:stedsnr" v="348033" />
	</node>
	<node lat="66.68238611431909" lon="13.770802777052362" id="-12044">
		<tag k="name" v="Engabreen" />
		<tag k="natural" v="glacier" />
		<tag k="ssr:stedsnr" v="441471" />
	</node>
	<node lat="66.7588277815692" lon="13.833611103126033" id="-12115">
		<tag k="name" v="Neversteinen" />
		<tag k="natural" v="stone" />
		<tag k="ssr:stedsnr" v="530045" />
	</node>
	<node lat="66.79162499722746" lon="13.833363895956667" id="-12170">
		<tag k="name" v="Mugskogen" />
		<tag k="place" v="locality" />
		<tag k="ssr:stedsnr" v="562290" />
	</node>
	<node lat="66.81900277583782" lon="13.366263878496724" id="-12221">
		<tag k="alt_name" v="Trollskogdyen" />
		<tag k="name" v="Trollskodyan" />
		<tag k="natural" v="wetland" />
		<tag k="ssr:stedsnr" v="562968" />
	</node>
	<node lat="66.82703888878392" lon="13.456444434189185" id="-12234">
		<tag k="name" v="Stormyra" />
		<tag k="natural" v="wetland" />
		<tag k="ssr:stedsnr" v="590289" />
	</node>
	<node lat="66.71944722294953" lon="13.77152776805842" id="-12242">
		<tag k="name" v="Stormyra" />
		<tag k="natural" v="wetland" />
		<tag k="ssr:stedsnr" v="591432" />
	</node>
	<node lat="66.93967222569256" lon="13.593347217367764" id="-12250">
		<tag k="name" v="Myra" />
		<tag k="natural" v="wetland" />
		<tag k="ssr:stedsnr" v="590842" />
	</node>
	<node lat="66.9072583309252" lon="13.717166674366362" id="-12257">
		<tag k="name" v="Myren" />
		<tag k="natural" v="wetland" />
		<tag k="ssr:stedsnr" v="590979" />
	</node>
	<node lat="66.71399722634031" lon="13.70841111577797" id="-12266">
		<tag k="name" v="Skavikmyra" />
		<tag k="natural" v="wetland" />
		<tag k="ssr:stedsnr" v="592445" />
	</node>
	<node lat="66.7584388882652" lon="13.859594438825075" id="-12316">
		<tag k="name" v="Stumpan" />
=======
	<node id="-164017" lat="66.8544138873" lon="13.7150027856">
		<tag k="name" v="Våtvikmyra" />
		<tag k="natural" v="wetland" />
		<tag k="ssr:stedsnr" v="469190" />
	</node>
	<node id="-164528" lat="66.7625444437" lon="13.7333527803">
		<tag k="name" v="Storrona" />
		<tag k="natural" v="scree" />
		<tag k="place" v="locality" />
		<tag k="ssr:stedsnr" v="774938" />
	</node>
	<node id="-164271" lat="66.7203055529" lon="13.3900388853">
		<tag k="name" v="Haugvik" />
		<tag k="place" v="locality" />
		<tag k="ssr:stedsnr" v="529419" />
	</node>
	<node id="-165036" lat="66.9207388858" lon="13.8481972242">
		<tag k="name" v="Lappsteinen" />
		<tag k="natural" v="stone" />
		<tag k="ssr:stedsnr" v="319180" />
	</node>
	<node id="-164011" lat="66.7984444422" lon="13.2016500073">
		<tag k="name" v="Tarrholman" />
		<tag k="place" v="locality" />
		<tag k="ssr:stedsnr" v="288609" />
	</node>
	<node id="-164856" lat="66.7743777749" lon="13.3521333219">
		<tag k="name" v="Øvsmyra" />
		<tag k="natural" v="wetland" />
		<tag k="ssr:stedsnr" v="97757" />
	</node>
	<node id="-163932" lat="66.8740833355" lon="13.8131777823">
		<tag k="name" v="Banmyra" />
		<tag k="natural" v="wetland" />
		<tag k="ssr:stedsnr" v="227511" />
	</node>
	<node id="-165797" lat="66.9102222199" lon="13.7911194507">
		<tag k="name" v="Finnsteinen" />
		<tag k="natural" v="stone" />
		<tag k="ssr:stedsnr" v="955781" />
	</node>
	<node id="-165283" lat="66.7916249972" lon="13.833363896">
		<tag k="name" v="Mugskogen" />
>>>>>>> e1d4bc35ff8a6074a6f2e91616a996b547c36f15
		<tag k="place" v="locality" />
		<tag k="ssr:stedsnr" v="651045" />
	</node>
<<<<<<< HEAD
	<node lat="66.75830833170122" lon="13.80283889879847" id="-12318">
		<tag k="name" v="Otersteinen" />
		<tag k="natural" v="stone" />
		<tag k="ssr:stedsnr" v="651078" />
	</node>
	<node lat="66.84011666407118" lon="13.767694440204805" id="-12372">
		<tag k="name" v="Fjellmyra" />
=======
	<node id="-164187" lat="66.7154944452" lon="13.6217388785">
		<tag k="name" v="Sommarsetura" />
		<tag k="natural" v="scree" />
		<tag k="ssr:stedsnr" v="470130" />
	</node>
	<node id="-164512" lat="66.8231777761" lon="13.8151611182">
		<tag k="name" v="Lomsteinen" />
		<tag k="natural" v="stone" />
		<tag k="ssr:stedsnr" v="773480" />
	</node>
	<node id="-163613" lat="66.8124777789" lon="13.9680444512">
		<tag k="name" v="Stakkmyra" />
>>>>>>> e1d4bc35ff8a6074a6f2e91616a996b547c36f15
		<tag k="natural" v="wetland" />
		<tag k="ssr:stedsnr" v="712732" />
	</node>
<<<<<<< HEAD
	<node lat="66.75309166506086" lon="13.776613882394722" id="-12439">
		<tag k="name" v="Stormyra" />
		<tag k="natural" v="wetland" />
		<tag k="ssr:stedsnr" v="772966" />
	</node>
	<node lat="66.76254444374342" lon="13.73335278031767" id="-12461">
		<tag k="name" v="Storrona" />
		<tag k="natural" v="scree" />
		<tag k="place" v="locality" />
		<tag k="ssr:stedsnr" v="774938" />
	</node>
	<node lat="66.90876111064449" lon="13.602311110108857" id="-12515">
		<tag k="name" v="Kobbsteinan" />
		<tag k="natural" v="stone" />
		<tag k="ssr:stedsnr" v="805870" />
	</node>
	<node lat="66.91479444513871" lon="13.65194722908936" id="-12516">
		<tag k="alt_name" v="Mossiengan" />
		<tag k="name" v="Måssiendan" />
=======
	<node id="-165404" lat="66.7596249999" lon="13.8686944341">
		<tag k="name" v="Finnjorda" />
		<tag k="place" v="locality" />
		<tag k="ssr:stedsnr" v="622307" />
	</node>
	<node id="-164633" lat="66.8850178235" lon="13.7462218982">
		<tag k="alt_name" v="Ørnessetra" />
		<tag k="historic" v="shieling" />
		<tag k="name" v="Ørnessætra" />
		<tag k="place" v="locality" />
		<tag k="ssr:stedsnr" v="866105" />
	</node>
	<node id="-165239" lat="66.7588277816" lon="13.8336111031">
		<tag k="name" v="Neversteinen" />
		<tag k="natural" v="stone" />
		<tag k="ssr:stedsnr" v="530045" />
	</node>
	<node id="-164119" lat="66.6424527753" lon="13.6975055648">
		<tag k="name" v="Svartisen" />
		<tag k="natural" v="glacier" />
		<tag k="ssr:stedsnr" v="501234" />
	</node>
	<node id="-163861" lat="66.8984111089" lon="13.7268638953">
		<tag k="name" v="Båtsteinurda" />
		<tag k="natural" v="scree" />
		<tag k="ssr:stedsnr" v="198111" />
	</node>
	<node id="-164756" lat="66.9126972202" lon="13.7010111167">
		<tag k="name" v="Stormyra" />
		<tag k="natural" v="wetland" />
		<tag k="ssr:stedsnr" v="44970" />
	</node>
	<node id="-163731" lat="66.9416416673" lon="13.5859166597">
		<tag k="name" v="Skogreina" />
>>>>>>> e1d4bc35ff8a6074a6f2e91616a996b547c36f15
		<tag k="place" v="locality" />
		<tag k="ssr:stedsnr" v="805876" />
	</node>
<<<<<<< HEAD
	<node lat="66.86817222668815" lon="13.791669441348638" id="-12565">
=======
	<node id="-164088" lat="66.7602222242" lon="13.7426083262">
		<tag k="name" v="Myran" />
		<tag k="natural" v="wetland" />
		<tag k="ssr:stedsnr" v="348616" />
	</node>
	<node id="-164625" lat="66.8681722267" lon="13.7916694413">
>>>>>>> e1d4bc35ff8a6074a6f2e91616a996b547c36f15
		<tag k="name" v="Sanden" />
		<tag k="natural" v="beach" />
		<tag k="ssr:stedsnr" v="834707" />
		<tag k="surface" v="sand" />
	</node>
<<<<<<< HEAD
	<node lat="66.89828889191563" lon="13.653747234065296" id="-12601">
		<tag k="name" v="Stigurda" />
		<tag k="natural" v="scree" />
		<tag k="ssr:stedsnr" v="865924" />
	</node>
	<node lat="66.8850178234968" lon="13.74622189817225" id="-12611">
		<tag k="alt_name" v="Ørnessetra" />
		<tag k="historic" v="shieling" />
		<tag k="name" v="Ørnessætra" />
		<tag k="place" v="locality" />
		<tag k="ssr:stedsnr" v="866105" />
	</node>
	<node lat="66.85034167015397" lon="13.92814166968728" id="-12627">
		<tag k="name" v="Glombreen" />
		<tag k="natural" v="glacier" />
		<tag k="ssr:stedsnr" v="866329" />
	</node>
	<node lat="66.91022221985722" lon="13.791119450668612" id="-12694">
		<tag k="name" v="Finnsteinen" />
		<tag k="natural" v="stone" />
		<tag k="ssr:stedsnr" v="955781" />
=======
	<node id="-164161" lat="66.7524583363" lon="13.3670638877">
		<tag k="name" v="Gjurbotnmyra" />
		<tag k="natural" v="wetland" />
		<tag k="ssr:stedsnr" v="409320" />
	</node>
	<node id="-164367" lat="66.7583083317" lon="13.8028388988">
		<tag k="name" v="Otersteinen" />
		<tag k="natural" v="stone" />
		<tag k="ssr:stedsnr" v="651078" />
	</node>
	<node id="-164757" lat="66.8206583378" lon="13.8123694376">
		<tag k="name" v="Høgset" />
		<tag k="place" v="locality" />
		<tag k="ssr:stedsnr" v="45028" />
	</node>
	<node id="-165000" lat="66.664499998" lon="13.6993833241">
		<tag k="name" v="Fonndalsbreen" />
		<tag k="natural" v="glacier" />
		<tag k="ssr:stedsnr" v="198268" />
	</node>
	<node id="-164999" lat="66.7569305545" lon="13.8245777836">
		<tag k="fixme" v="multiple name tags, choose one and add the other to alt_name" />
		<tag k="historic" v="shieling" />
		<tag k="name" v="Nordsætra;Seter" />
		<tag k="place" v="locality" />
		<tag k="ssr:stedsnr" v="198247" />
	</node>
	<node id="-164353" lat="66.8401166641" lon="13.7676944402">
		<tag k="name" v="Fjellmyra" />
		<tag k="natural" v="wetland" />
		<tag k="ssr:stedsnr" v="712732" />
	</node>
	<node id="-165379" lat="66.7139972263" lon="13.7084111158">
		<tag k="name" v="Skavikmyra" />
		<tag k="natural" v="wetland" />
		<tag k="ssr:stedsnr" v="592445" />
	</node>
	<node id="-164459" lat="66.7592666652" lon="13.851830555">
		<tag k="name" v="Stormyra" />
		<tag k="natural" v="wetland" />
		<tag k="ssr:stedsnr" v="895030" />
>>>>>>> e1d4bc35ff8a6074a6f2e91616a996b547c36f15
	</node>
</osm>
