<?xml version="1.0" encoding="UTF-8"?>
<<<<<<< HEAD
<osm version="0.6" generator="osmapis">
	<node lat="66.80167500296902" lon="13.563641662831515" id="-10524">
		<tag k="fixme" v="multiple name tags, choose one and add the other to alt_name" />
		<tag k="name" v="Gammalmunnåga;Mølnåga" />
		<tag k="ssr:stedsnr" v="16106" />
		<tag k="waterway" v="stream" />
	</node>
	<node lat="66.69795833332485" lon="13.741141670614011" id="-10532">
		<tag k="fixme" v="multiple name tags, choose one and add the other to alt_name" />
		<tag k="name" v="Engabrevatnet;Svartisvatnet" />
		<tag k="natural" v="water" />
		<tag k="ssr:stedsnr" v="16453" />
		<tag k="water" v="lake" />
	</node>
	<node lat="66.84433888684143" lon="13.46693333786321" id="-10539">
		<tag k="name" v="Mølnåga" />
		<tag k="ssr:stedsnr" v="16942" />
		<tag k="waterway" v="stream" />
	</node>
	<node lat="66.73396111335406" lon="13.831158329878043" id="-10566">
		<tag k="name" v="Heggåga" />
		<tag k="ssr:stedsnr" v="44164" />
		<tag k="waterway" v="stream" />
	</node>
	<node lat="66.74577777425557" lon="13.677547215908731" id="-10569">
		<tag k="name" v="Vassbotnet" />
=======
<osm generator="osmapis" version="0.6">
	<node id="-165376" lat="66.8599444487" lon="13.7323944383">
		<tag k="name" v="Kalvøyra" />
>>>>>>> e1d4bc35ff8a6074a6f2e91616a996b547c36f15
		<tag k="natural" v="beach" />
		<tag k="ssr:stedsnr" v="44645" />
	</node>
<<<<<<< HEAD
	<node lat="66.90853610941231" lon="13.805311105814054" id="-10585">
		<tag k="name" v="Galtskaråga" />
		<tag k="ssr:stedsnr" v="46498" />
		<tag k="waterway" v="stream" />
	</node>
	<node lat="66.70438889074568" lon="13.465338899350606" id="-10598">
		<tag k="name" v="Ågvatnet" />
		<tag k="natural" v="water" />
		<tag k="ssr:stedsnr" v="77201" />
	</node>
	<node lat="66.8032027800718" lon="13.607497215686477" id="-10626">
		<tag k="name" v="Vassdalselva" />
		<tag k="ssr:stedsnr" v="105807" />
		<tag k="waterway" v="river" />
	</node>
	<node lat="66.75139444129522" lon="13.869036110991086" id="-10634">
		<tag k="name" v="Bjørnskardåga" />
		<tag k="ssr:stedsnr" v="106035" />
		<tag k="waterway" v="stream" />
	</node>
	<node lat="66.83896944543679" lon="13.810008330254295" id="-10638">
		<tag k="name" v="Storskarselva" />
		<tag k="ssr:stedsnr" v="106489" />
		<tag k="waterway" v="stream" />
	</node>
	<node lat="66.87473033816045" lon="13.844526365372262" id="-10641">
		<tag k="name" v="Digermulen" />
		<tag k="natural" v="cape" />
		<tag k="ssr:stedsnr" v="137120" />
	</node>
	<node lat="66.91110000231757" lon="13.772613894650707" id="-10644">
		<tag k="name" v="Storneset" />
		<tag k="natural" v="cape" />
		<tag k="ssr:stedsnr" v="137154" />
	</node>
	<node lat="66.74893333108238" lon="13.624213891943679" id="-10645">
		<tag k="alt_name" v="Småvatnet" />
		<tag k="name" v="Småvatnan" />
=======
	<node id="-163839" lat="66.7631583316" lon="13.455927772">
		<tag k="name" v="Storelva" />
		<tag k="ssr:stedsnr" v="287342" />
		<tag k="waterway" v="stream" />
	</node>
	<node id="-164862" lat="66.7556666697" lon="13.387238894">
		<tag k="name" v="Skarselva" />
		<tag k="ssr:stedsnr" v="105353" />
		<tag k="waterway" v="stream" />
	</node>
	<node id="-165205" lat="66.7534222208" lon="13.7803972151">
		<tag k="name" v="Gardsåga" />
		<tag k="ssr:stedsnr" v="408913" />
		<tag k="waterway" v="stream" />
	</node>
	<node id="-164436" lat="66.8847638878" lon="13.7353749982">
		<tag k="name" v="Mosvollelva" />
		<tag k="ssr:stedsnr" v="712241" />
		<tag k="waterway" v="river" />
	</node>
	<node id="-165365" lat="66.7134333298" lon="13.6426888836">
		<tag k="name" v="Heståga" />
		<tag k="ssr:stedsnr" v="591127" />
		<tag k="waterway" v="stream" />
	</node>
	<node id="-165362" lat="66.6816222187" lon="13.6365583331">
		<tag k="name" v="Renndalsvikvatnet" />
		<tag k="natural" v="water" />
		<tag k="ssr:stedsnr" v="590882" />
		<tag k="water" v="lake" />
	</node>
	<node id="-164848" lat="66.8384694447" lon="13.4749361169">
		<tag k="name" v="Storvatnet" />
		<tag k="natural" v="water" />
		<tag k="ssr:stedsnr" v="77994" />
	</node>
	<node id="-165254" lat="66.7625444437" lon="13.7333527803">
		<tag k="name" v="Storåga" />
		<tag k="ssr:stedsnr" v="540287" />
		<tag k="waterway" v="stream" />
	</node>
	<node id="-165341" lat="66.7112361082" lon="13.4444444387">
		<tag k="name" v="Teppskarvatnet" />
>>>>>>> e1d4bc35ff8a6074a6f2e91616a996b547c36f15
		<tag k="natural" v="water" />
		<tag k="ssr:stedsnr" v="137157" />
	</node>
<<<<<<< HEAD
	<node lat="66.90365278035" lon="13.892024995558982" id="-10651">
		<tag k="name" v="Lysvatnet" />
=======
	<node id="-164316" lat="66.9081500015" lon="13.8298555483">
		<tag k="name" v="Svartvatnet" />
>>>>>>> e1d4bc35ff8a6074a6f2e91616a996b547c36f15
		<tag k="natural" v="water" />
		<tag k="ssr:stedsnr" v="137098" />
		<tag k="water" v="lake" />
	</node>
<<<<<<< HEAD
	<node lat="66.72840277751709" lon="13.650269453740657" id="-10654">
		<tag k="name" v="Nattmålsvatnet" />
		<tag k="natural" v="water" />
		<tag k="ssr:stedsnr" v="137209" />
	</node>
	<node lat="66.78000833098406" lon="13.567147225969329" id="-10678">
		<tag k="name" v="Oselva" />
		<tag k="ssr:stedsnr" v="258048" />
		<tag k="waterway" v="stream" />
	</node>
	<node lat="66.76871111433238" lon="13.407174992468057" id="-10682">
		<tag k="name" v="Tindvatnet" />
		<tag k="natural" v="water" />
		<tag k="ssr:stedsnr" v="258066" />
	</node>
	<node lat="66.76225278203496" lon="13.381488881025062" id="-10683">
		<tag k="name" v="Skarsvatnet" />
		<tag k="natural" v="water" />
		<tag k="ssr:stedsnr" v="258068" />
		<tag k="water" v="lake" />
	</node>
	<node lat="66.67309166256142" lon="13.692174992414618" id="-10685">
		<tag k="name" v="Fonndalsvatnet" />
		<tag k="natural" v="water" />
		<tag k="ssr:stedsnr" v="258318" />
	</node>
	<node lat="66.71739166691371" lon="13.799536121722745" id="-10696">
		<tag k="name" v="Bjørnstia" />
		<tag k="ssr:stedsnr" v="259472" />
		<tag k="waterway" v="stream" />
	</node>
	<node lat="66.81430555634493" lon="13.94286666247323" id="-10722">
=======
	<node id="-164315" lat="66.724713888" lon="13.6601472175">
		<tag k="name" v="Nattmålsåga" />
		<tag k="ssr:stedsnr" v="562214" />
		<tag k="waterway" v="stream" />
	</node>
	<node id="-163802" lat="66.8350361145" lon="13.3868194514">
		<tag k="name" v="Trondvollåga" />
		<tag k="ssr:stedsnr" v="166304" />
		<tag k="waterway" v="stream" />
	</node>
	<node id="-163663" lat="66.8276444421" lon="13.8286333363">
		<tag k="name" v="Rødlibekken" />
		<tag k="ssr:stedsnr" v="227023" />
		<tag k="waterway" v="stream" />
	</node>
	<node id="-163799" lat="66.8143055563" lon="13.9428666625">
>>>>>>> e1d4bc35ff8a6074a6f2e91616a996b547c36f15
		<tag k="name" v="Haugvikåga" />
		<tag k="ssr:stedsnr" v="166002" />
		<tag k="waterway" v="stream" />
	</node>
<<<<<<< HEAD
	<node lat="66.83503611450568" lon="13.38681945140784" id="-10726">
		<tag k="name" v="Trondvollåga" />
		<tag k="ssr:stedsnr" v="166304" />
		<tag k="waterway" v="stream" />
	</node>
	<node lat="66.7328611148792" lon="13.638402784055065" id="-10750">
		<tag k="name" v="Halsavatnet" />
		<tag k="natural" v="water" />
		<tag k="ssr:stedsnr" v="198113" />
	</node>
	<node lat="66.89428889123519" lon="13.823988888619157" id="-10752">
		<tag k="name" v="Matvatnet" />
		<tag k="natural" v="water" />
		<tag k="ssr:stedsnr" v="198118" />
		<tag k="water" v="lake" />
	</node>
	<node lat="66.88949166421173" lon="13.831649990422054" id="-10753">
		<tag k="name" v="Kattvatnet" />
=======
	<node id="-164265" lat="66.8470250021" lon="13.656075003">
		<tag k="name" v="Krokvatnet" />
		<tag k="natural" v="water" />
		<tag k="ssr:stedsnr" v="684947" />
	</node>
	<node id="-165329" lat="66.7205722231" lon="13.3929888892">
		<tag k="name" v="Segeråga" />
		<tag k="ssr:stedsnr" v="589381" />
		<tag k="waterway" v="stream" />
	</node>
	<node id="-165327" lat="66.7135277803" lon="13.4767777873">
		<tag k="name" v="Osen" />
		<tag k="natural" v="bay" />
		<tag k="ssr:stedsnr" v="584406" />
	</node>
	<node id="-164812" lat="66.7043888907" lon="13.4653388994">
		<tag k="name" v="Ågvatnet" />
		<tag k="natural" v="water" />
		<tag k="ssr:stedsnr" v="77201" />
	</node>
	<node id="-165475" lat="66.7754138884" lon="13.376969438">
		<tag k="name" v="Skjellbakkbekken" />
		<tag k="ssr:stedsnr" v="651386" />
		<tag k="waterway" v="stream" />
	</node>
	<node id="-165317" lat="66.831616668" lon="13.4354749995">
		<tag k="name" v="Molivatnet" />
>>>>>>> e1d4bc35ff8a6074a6f2e91616a996b547c36f15
		<tag k="natural" v="water" />
		<tag k="ssr:stedsnr" v="198128" />
	</node>
<<<<<<< HEAD
	<node lat="66.8381166630889" lon="13.406972231326106" id="-10779">
		<tag k="name" v="Osen" />
		<tag k="natural" v="bay" />
		<tag k="ssr:stedsnr" v="219279" />
	</node>
	<node lat="66.73399444137304" lon="13.856922217264446" id="-10781">
		<tag k="name" v="Kvannåga" />
		<tag k="ssr:stedsnr" v="226184" />
		<tag k="waterway" v="stream" />
	</node>
	<node lat="66.73338055879442" lon="13.842413884533114" id="-10782">
		<tag k="name" v="Dyrhammarbekken" />
		<tag k="ssr:stedsnr" v="226185" />
		<tag k="waterway" v="stream" />
	</node>
	<node lat="66.7062944487922" lon="13.479716662324053" id="-10787">
		<tag k="name" v="Kvanndalsbekken" />
		<tag k="ssr:stedsnr" v="227382" />
		<tag k="waterway" v="stream" />
	</node>
	<node lat="66.73921944781988" lon="13.763577780862985" id="-10788">
		<tag k="name" v="Skarsvatnan" />
=======
	<node id="-163778" lat="66.7640805557" lon="14.0940972224">
		<tag k="name" v="Holmdalselva" />
		<tag k="ssr:stedsnr" v="137269" />
		<tag k="waterway" v="stream" />
	</node>
	<node id="-164287" lat="66.9129972176" lon="13.7799222327">
		<tag k="name" v="Mølnåga" />
		<tag k="ssr:stedsnr" v="530774" />
		<tag k="waterway" v="stream" />
	</node>
	<node id="-163771" lat="66.7931555595" lon="13.5834277843">
		<tag k="name" v="Lomvatnet" />
		<tag k="natural" v="water" />
		<tag k="ssr:stedsnr" v="137047" />
	</node>
	<node id="-163770" lat="66.7702333328" lon="13.4370972298">
		<tag k="name" v="Svartskogvatnet" />
>>>>>>> e1d4bc35ff8a6074a6f2e91616a996b547c36f15
		<tag k="natural" v="water" />
		<tag k="ssr:stedsnr" v="227395" />
		<tag k="water" v="lake" />
	</node>
<<<<<<< HEAD
	<node lat="66.87233611495678" lon="13.822055555112474" id="-10811">
		<tag k="fixme" v="multiple name tags, choose one and add the other to alt_name" />
		<tag k="name" v="Spilderdalselva;Øyjordåga" />
		<tag k="ssr:stedsnr" v="259361" />
		<tag k="waterway" v="river" />
	</node>
	<node lat="66.87263055909132" lon="13.915869443224212" id="-10812">
		<tag k="name" v="Botnåga" />
		<tag k="ssr:stedsnr" v="259363" />
		<tag k="waterway" v="stream" />
	</node>
	<node lat="66.72238888775397" lon="13.64717778158318" id="-10820">
		<tag k="name" v="Hestskardvatnet" />
		<tag k="natural" v="water" />
		<tag k="ssr:stedsnr" v="259221" />
	</node>
	<node lat="66.74570833333397" lon="13.638588892205227" id="-10860">
		<tag k="name" v="Sandneset" />
		<tag k="natural" v="cape" />
		<tag k="ssr:stedsnr" v="287903" />
	</node>
	<node lat="66.90145833056664" lon="13.696269451075443" id="-10886">
		<tag k="name" v="Litlvatnet" />
		<tag k="natural" v="water" />
		<tag k="ssr:stedsnr" v="319942" />
	</node>
	<node lat="66.75983888480252" lon="13.773611116239309" id="-10899">
		<tag k="name" v="Bjærangselva" />
		<tag k="ssr:stedsnr" v="469039" />
		<tag k="waterway" v="river" />
	</node>
	<node lat="66.75058611184355" lon="13.740324997541151" id="-10922">
		<tag k="name" v="Sandåga" />
		<tag k="ssr:stedsnr" v="327216" />
		<tag k="waterway" v="stream" />
	</node>
	<node lat="66.86342778193357" lon="13.761283341403312" id="-10931">
		<tag k="name" v="Tømneset" />
=======
	<node id="-163763" lat="66.7489333311" lon="13.6242138919">
		<tag k="alt_name" v="Småvatnet" />
		<tag k="name" v="Småvatnan" />
		<tag k="natural" v="water" />
		<tag k="ssr:stedsnr" v="137157" />
	</node>
	<node id="-163762" lat="66.9111000023" lon="13.7726138947">
		<tag k="name" v="Storneset" />
		<tag k="natural" v="cape" />
		<tag k="ssr:stedsnr" v="137154" />
	</node>
	<node id="-163757" lat="66.8747303382" lon="13.8445263654">
		<tag k="name" v="Digermulen" />
		<tag k="natural" v="cape" />
		<tag k="ssr:stedsnr" v="137120" />
	</node>
	<node id="-165289" lat="66.8598305527" lon="13.8645805571">
		<tag k="alt_name" v="Rismålsvatnet, nedre" />
		<tag k="name" v="Nedre Rismålsvatnet" />
		<tag k="natural" v="water" />
		<tag k="ssr:stedsnr" v="562347" />
		<tag k="water" v="lake" />
	</node>
	<node id="-165800" lat="66.9121333368" lon="13.709566675">
		<tag k="name" v="Heståga" />
		<tag k="ssr:stedsnr" v="955979" />
		<tag k="waterway" v="stream" />
	</node>
	<node id="-164261" lat="66.9099972193" lon="13.6413638834">
		<tag k="name" v="Reipåga" />
		<tag k="ssr:stedsnr" v="684888" />
		<tag k="waterway" v="river" />
	</node>
	<node id="-164772" lat="66.846522223" lon="13.8142222154">
		<tag k="name" v="Ågnesan" />
>>>>>>> e1d4bc35ff8a6074a6f2e91616a996b547c36f15
		<tag k="natural" v="cape" />
		<tag k="ssr:stedsnr" v="470700" />
	</node>
<<<<<<< HEAD
	<node lat="66.77520278156773" lon="13.328286117964508" id="-10935">
		<tag k="name" v="Kjørågelva" />
		<tag k="ssr:stedsnr" v="340742" />
		<tag k="waterway" v="stream" />
	</node>
	<node lat="66.73231111139246" lon="13.919694442257741" id="-10945">
		<tag k="name" v="Storelva" />
		<tag k="ssr:stedsnr" v="348167" />
		<tag k="waterway" v="river" />
	</node>
	<node lat="66.78993055728051" lon="13.794255560067752" id="-10973">
		<tag k="name" v="Rundvatnet" />
		<tag k="natural" v="water" />
		<tag k="ssr:stedsnr" v="380307" />
	</node>
	<node lat="66.75342222080704" lon="13.780397215101965" id="-11000">
		<tag k="name" v="Gardsåga" />
		<tag k="ssr:stedsnr" v="408913" />
		<tag k="waterway" v="stream" />
	</node>
	<node lat="66.72393055362363" lon="13.447755559503523" id="-11006">
		<tag k="name" v="Engevikvatnet" />
=======
	<node id="-164768" lat="66.7359027756" lon="13.7792000033">
		<tag k="name" v="Merkeåga" />
		<tag k="ssr:stedsnr" v="45400" />
		<tag k="waterway" v="stream" />
	</node>
	<node id="-164767" lat="66.7308250039" lon="13.6977694348">
		<tag k="name" v="Nertverråga" />
		<tag k="ssr:stedsnr" v="45384" />
		<tag k="waterway" v="stream" />
	</node>
	<node id="-164227" lat="66.8803666637" lon="13.8188749987">
		<tag k="name" v="Lysvassåga" />
		<tag k="ssr:stedsnr" v="683142" />
		<tag k="waterway" v="stream" />
	</node>
	<node id="-164252" lat="66.7023888888" lon="14.1117833256">
		<tag k="loc_name:smj" v="Stuorra Klupmajávrre" />
		<tag k="name" v="Storglomvatnet" />
		<tag k="name:no" v="Storglomvatnet" />
>>>>>>> e1d4bc35ff8a6074a6f2e91616a996b547c36f15
		<tag k="natural" v="water" />
		<tag k="ssr:stedsnr" v="409411" />
		<tag k="water" v="lake" />
	</node>
<<<<<<< HEAD
	<node lat="66.76119166879367" lon="13.821933333611288" id="-11026">
		<tag k="name" v="Dyrrabekken" />
		<tag k="ssr:stedsnr" v="441287" />
		<tag k="waterway" v="stream" />
	</node>
	<node lat="66.81614444745968" lon="13.977416665533651" id="-11041">
		<tag k="name" v="Glomåga" />
		<tag k="ssr:stedsnr" v="461176" />
		<tag k="waterway" v="river" />
	</node>
	<node lat="66.86949166936911" lon="13.793866677478698" id="-11061">
		<tag k="name" v="Krinsvatnet" />
		<tag k="natural" v="water" />
		<tag k="ssr:stedsnr" v="470702" />
	</node>
	<node lat="66.89404166359577" lon="13.802472228692508" id="-11066">
		<tag k="name" v="Breifjellvatnet" />
=======
	<node id="-164246" lat="66.8211777803" lon="13.9806194391">
		<tag k="name" v="Hydrodammen" />
		<tag k="natural" v="water" />
		<tag k="ssr:stedsnr" v="684339" />
	</node>
	<node id="-165785" lat="66.7362138924" lon="13.7748500062">
		<tag k="name" v="Rondalsbekken" />
		<tag k="ssr:stedsnr" v="955394" />
		<tag k="waterway" v="stream" />
	</node>
	<node id="-164759" lat="66.7510888916" lon="13.8582250022">
		<tag k="name" v="Famnvedåga" />
		<tag k="ssr:stedsnr" v="45046" />
		<tag k="waterway" v="stream" />
	</node>
	<node id="-165782" lat="66.732541665" lon="13.7078694335">
		<tag k="name" v="Øvertverråga" />
		<tag k="ssr:stedsnr" v="955381" />
		<tag k="waterway" v="stream" />
	</node>
	<node id="-164245" lat="66.7864750012" lon="14.1014583355">
		<tag k="name" v="Halsvatnet" />
>>>>>>> e1d4bc35ff8a6074a6f2e91616a996b547c36f15
		<tag k="natural" v="water" />
		<tag k="ssr:stedsnr" v="501131" />
	</node>
<<<<<<< HEAD
	<node lat="66.89978610799193" lon="13.925849991550988" id="-11067">
		<tag k="name" v="Ternsteinan" />
		<tag k="place" v="islet" />
		<tag k="ssr:stedsnr" v="501132" />
	</node>
	<node lat="66.79971944344257" lon="14.09166666270142" id="-11093">
		<tag k="alt_name" v="Navarvatnet, nedre" />
		<tag k="name" v="Nedre Navarvatnet" />
=======
	<node id="-164242" lat="66.7447138919" lon="13.6375694395">
		<tag k="name" v="Grønåsvatnet" />
>>>>>>> e1d4bc35ff8a6074a6f2e91616a996b547c36f15
		<tag k="natural" v="water" />
		<tag k="ssr:stedsnr" v="502311" />
		<tag k="water" v="lake" />
	</node>
<<<<<<< HEAD
	<node lat="66.73962777487735" lon="14.298275006402982" id="-11099">
		<tag k="loc_name:smj" v="Rájjevákjåhkå" />
		<tag k="name" v="Glomåga" />
		<tag k="name:no" v="Glomåga" />
		<tag k="ssr:stedsnr" v="502683" />
		<tag k="waterway" v="river" />
	</node>
	<node lat="66.91488888957124" lon="13.690772217558662" id="-11102">
		<tag k="name" v="Kongersvollåga" />
		<tag k="ssr:stedsnr" v="502894" />
		<tag k="waterway" v="stream" />
	</node>
	<node lat="66.79831666615152" lon="13.61838055814692" id="-11107">
		<tag k="name" v="Vassdalsvatnet" />
		<tag k="natural" v="water" />
		<tag k="ssr:stedsnr" v="683057" />
	</node>
	<node lat="66.88036666367809" lon="13.81887499867021" id="-11115">
		<tag k="name" v="Lysvassåga" />
		<tag k="ssr:stedsnr" v="683142" />
		<tag k="waterway" v="stream" />
	</node>
	<node lat="66.90321389281624" lon="13.764194436555053" id="-11116">
		<tag k="name" v="Garnneset" />
		<tag k="natural" v="cape" />
		<tag k="ssr:stedsnr" v="683169" />
	</node>
	<node lat="66.78483333029581" lon="13.567247222784209" id="-11120">
=======
	<node id="-165763" lat="66.7727166635" lon="13.9803972161">
		<tag k="name" v="Stevatnet" />
		<tag k="natural" v="water" />
		<tag k="ssr:stedsnr" v="955187" />
		<tag k="water" v="lake" />
	</node>
	<node id="-164746" lat="66.9099250017" lon="13.610208345">
		<tag k="name" v="Strandåga" />
		<tag k="ssr:stedsnr" v="44854" />
		<tag k="waterway" v="stream" />
	</node>
	<node id="-164247" lat="66.8312722252" lon="14.0443249995">
		<tag k="name" v="Vatn-700" />
		<tag k="natural" v="water" />
		<tag k="ssr:stedsnr" v="684349" />
	</node>
	<node id="-164744" lat="66.9248916657" lon="13.6315416765">
		<tag k="name" v="Mølnåga" />
		<tag k="ssr:stedsnr" v="44845" />
		<tag k="waterway" v="stream" />
	</node>
	<node id="-164231" lat="66.8654666637" lon="13.7705638801">
		<tag k="name" v="Spildervatnet" />
		<tag k="natural" v="water" />
		<tag k="ssr:stedsnr" v="683349" />
		<tag k="water" v="lake" />
	</node>
	<node id="-164230" lat="66.8532055547" lon="13.8749222156">
		<tag k="alt_name" v="Rismålsvatnet, øvre" />
		<tag k="name" v="Øvre Rismålsvatnet" />
		<tag k="natural" v="water" />
		<tag k="ssr:stedsnr" v="683342" />
		<tag k="water" v="lake" />
	</node>
	<node id="-165253" lat="66.8781416684" lon="13.8645583318">
		<tag k="name" v="Kjåffiåga" />
		<tag k="ssr:stedsnr" v="531511" />
		<tag k="waterway" v="stream" />
	</node>
	<node id="-163715" lat="66.8726305591" lon="13.9158694432">
		<tag k="name" v="Botnåga" />
		<tag k="ssr:stedsnr" v="259363" />
		<tag k="waterway" v="stream" />
	</node>
	<node id="-163714" lat="66.872336115" lon="13.8220555551">
		<tag k="fixme" v="multiple name tags, choose one and add the other to alt_name" />
		<tag k="name" v="Spilderdalselva;Øyjordåga" />
		<tag k="ssr:stedsnr" v="259361" />
		<tag k="waterway" v="river" />
	</node>
	<node id="-164737" lat="66.7457777743" lon="13.6775472159">
		<tag k="name" v="Vassbotnet" />
		<tag k="natural" v="beach" />
		<tag k="ssr:stedsnr" v="44645" />
	</node>
	<node id="-164733" lat="66.7339611134" lon="13.8311583299">
		<tag k="name" v="Heggåga" />
		<tag k="ssr:stedsnr" v="44164" />
		<tag k="waterway" v="stream" />
	</node>
	<node id="-164732" lat="66.7227750043" lon="13.5971722277">
		<tag k="name" v="Tverråga" />
		<tag k="ssr:stedsnr" v="44750" />
		<tag k="waterway" v="stream" />
	</node>
	<node id="-163955" lat="66.762252782" lon="13.381488881">
		<tag k="name" v="Skarsvatnet" />
		<tag k="natural" v="water" />
		<tag k="ssr:stedsnr" v="258068" />
		<tag k="water" v="lake" />
	</node>
	<node id="-164214" lat="66.7848333303" lon="13.5672472228">
>>>>>>> e1d4bc35ff8a6074a6f2e91616a996b547c36f15
		<tag k="name" v="Storelva" />
		<tag k="ssr:stedsnr" v="683035" />
		<tag k="waterway" v="stream" />
	</node>
<<<<<<< HEAD
	<node lat="66.76079444643452" lon="14.162675002714881" id="-11123">
		<tag k="alt_name" v="Bolivatnet, nedre" />
		<tag k="name" v="Nedre Bolivatnet" />
		<tag k="natural" v="water" />
		<tag k="ssr:stedsnr" v="683287" />
	</node>
	<node lat="66.8532055547403" lon="13.87492221555812" id="-11124">
		<tag k="alt_name" v="Rismålsvatnet, øvre" />
		<tag k="name" v="Øvre Rismålsvatnet" />
=======
	<node id="-163699" lat="66.780008331" lon="13.567147226">
		<tag k="name" v="Oselva" />
		<tag k="ssr:stedsnr" v="258048" />
		<tag k="waterway" v="stream" />
	</node>
	<node id="-164210" lat="66.7396277749" lon="14.2982750064">
		<tag k="loc_name:smj" v="Rájjevákjåhkå" />
		<tag k="name" v="Glomåga" />
		<tag k="name:no" v="Glomåga" />
		<tag k="ssr:stedsnr" v="502683" />
		<tag k="waterway" v="river" />
	</node>
	<node id="-165096" lat="66.7752027816" lon="13.328286118">
		<tag k="name" v="Kjørågelva" />
		<tag k="ssr:stedsnr" v="340742" />
		<tag k="waterway" v="stream" />
	</node>
	<node id="-163693" lat="66.7905638905" lon="14.0049333412">
		<tag k="loc_name:smj" v="Fivkánjávrre" />
		<tag k="name" v="Fykanvatnet" />
		<tag k="name:no" v="Fykanvatnet" />
		<tag k="natural" v="water" />
		<tag k="ssr:stedsnr" v="77333" />
		<tag k="water" v="lake" />
	</node>
	<node id="-164197" lat="66.7385944481" lon="14.0947999975">
		<tag k="loc_name:smj" v="Suollujávrre" />
		<tag k="name" v="Holmvatnet" />
		<tag k="name:no" v="Holmvatnet" />
>>>>>>> e1d4bc35ff8a6074a6f2e91616a996b547c36f15
		<tag k="natural" v="water" />
		<tag k="ssr:stedsnr" v="683342" />
		<tag k="water" v="lake" />
	</node>
<<<<<<< HEAD
	<node lat="66.86546666368541" lon="13.77056388006591" id="-11125">
		<tag k="name" v="Spildervatnet" />
		<tag k="natural" v="water" />
		<tag k="ssr:stedsnr" v="683349" />
		<tag k="water" v="lake" />
	</node>
	<node lat="66.74471389193492" lon="13.637569439530475" id="-11135">
		<tag k="name" v="Grønåsvatnet" />
=======
	<node id="-164196" lat="66.6973194428" lon="13.7703805599">
		<tag k="name" v="Breirona" />
		<tag k="ssr:stedsnr" v="501458" />
		<tag k="waterway" v="stream" />
	</node>
	<node id="-163682" lat="66.8828277816" lon="13.852247227">
		<tag k="name" v="Tverråga" />
		<tag k="ssr:stedsnr" v="228526" />
		<tag k="waterway" v="stream" />
	</node>
	<node id="-164705" lat="66.8395833375" lon="13.5466777835">
		<tag k="name" v="Lomtjønna" />
		<tag k="natural" v="water" />
		<tag k="ssr:stedsnr" v="16999" />
	</node>
	<node id="-164387" lat="66.9032138928" lon="13.7641944366">
		<tag k="name" v="Garnneset" />
		<tag k="natural" v="cape" />
		<tag k="ssr:stedsnr" v="683169" />
	</node>
	<node id="-164188" lat="66.7137888882" lon="13.8809888933">
		<tag k="alt_name" v="Dimdalsfossen" />
		<tag k="name" v="Demdalsfossen" />
		<tag k="natural" v="waterfall" />
		<tag k="ssr:stedsnr" v="744446" />
	</node>
	<node id="-165209" lat="66.9119916642" lon="13.7181999973">
		<tag k="name" v="Seteråga" />
		<tag k="ssr:stedsnr" v="409973" />
		<tag k="waterway" v="stream" />
	</node>
	<node id="-165207" lat="66.7522444464" lon="13.9691222127">
		<tag k="name" v="Nordvatnet" />
>>>>>>> e1d4bc35ff8a6074a6f2e91616a996b547c36f15
		<tag k="natural" v="water" />
		<tag k="old_name" v="Grønnåsvatnet" />
		<tag k="ssr:stedsnr" v="684194" />
		<tag k="water" v="lake" />
	</node>
<<<<<<< HEAD
	<node lat="66.78647500119514" lon="14.101458335459307" id="-11137">
		<tag k="name" v="Halsvatnet" />
=======
	<node id="-165206" lat="66.7337666666" lon="13.8642861077">
		<tag k="name" v="Rebekken" />
		<tag k="ssr:stedsnr" v="409137" />
		<tag k="waterway" v="stream" />
	</node>
	<node id="-165717" lat="66.7718027746" lon="14.2581361213">
		<tag k="name" v="Litle Storglomvatnet" />
>>>>>>> e1d4bc35ff8a6074a6f2e91616a996b547c36f15
		<tag k="natural" v="water" />
		<tag k="ssr:stedsnr" v="684321" />
	</node>
<<<<<<< HEAD
	<node lat="66.8211777802962" lon="13.980619439090772" id="-11138">
		<tag k="name" v="Hydrodammen" />
=======
	<node id="-165204" lat="66.7239305536" lon="13.4477555595">
		<tag k="name" v="Engevikvatnet" />
>>>>>>> e1d4bc35ff8a6074a6f2e91616a996b547c36f15
		<tag k="natural" v="water" />
		<tag k="ssr:stedsnr" v="684339" />
	</node>
<<<<<<< HEAD
	<node lat="66.7023888888379" lon="14.111783325609014" id="-11140">
		<tag k="loc_name:smj" v="Stuorra Klupmajávrre" />
		<tag k="name" v="Storglomvatnet" />
		<tag k="name:no" v="Storglomvatnet" />
=======
	<node id="-165715" lat="66.8719361142" lon="13.8431583403">
		<tag k="name" v="Spilderdalsvatnet" />
>>>>>>> e1d4bc35ff8a6074a6f2e91616a996b547c36f15
		<tag k="natural" v="water" />
		<tag k="ssr:stedsnr" v="684475" />
		<tag k="water" v="lake" />
	</node>
<<<<<<< HEAD
	<node lat="66.84150278093247" lon="13.801277773068202" id="-11141">
		<tag k="name" v="Neverdalselva" />
		<tag k="ssr:stedsnr" v="684770" />
		<tag k="waterway" v="river" />
	</node>
	<node lat="66.84702500207506" lon="13.656075003034507" id="-11146">
		<tag k="name" v="Krokvatnet" />
=======
	<node id="-165199" lat="66.7656722212" lon="13.3714583395">
		<tag k="name" v="Snydalsåga" />
		<tag k="ssr:stedsnr" v="409367" />
		<tag k="waterway" v="stream" />
	</node>
	<node id="-164682" lat="66.6979583333" lon="13.7411416706">
		<tag k="fixme" v="multiple name tags, choose one and add the other to alt_name" />
		<tag k="name" v="Engabrevatnet;Svartisvatnet" />
>>>>>>> e1d4bc35ff8a6074a6f2e91616a996b547c36f15
		<tag k="natural" v="water" />
		<tag k="ssr:stedsnr" v="684947" />
	</node>
<<<<<<< HEAD
	<node lat="66.90999721927327" lon="13.641363883398821" id="-11150">
		<tag k="name" v="Reipåga" />
		<tag k="ssr:stedsnr" v="684888" />
		<tag k="waterway" v="river" />
	</node>
	<node lat="66.87814166835814" lon="13.864558331765293" id="-11178">
		<tag k="name" v="Kjåffiåga" />
		<tag k="ssr:stedsnr" v="531511" />
		<tag k="waterway" v="stream" />
	</node>
	<node lat="66.76254444374342" lon="13.73335278031767" id="-11179">
		<tag k="name" v="Storåga" />
		<tag k="ssr:stedsnr" v="540287" />
		<tag k="waterway" v="stream" />
	</node>
	<node lat="66.71352778028017" lon="13.47677778733932" id="-11190">
		<tag k="name" v="Osen" />
		<tag k="natural" v="bay" />
		<tag k="ssr:stedsnr" v="584406" />
	</node>
	<node lat="66.71123610820916" lon="13.44444443873893" id="-11196">
		<tag k="name" v="Teppskarvatnet" />
=======
	<node id="-163657" lat="66.7761138848" lon="13.4384666672">
		<tag k="name" v="Svartskogåga" />
		<tag k="ssr:stedsnr" v="226418" />
		<tag k="waterway" v="stream" />
	</node>
	<node id="-163653" lat="66.7333805588" lon="13.8424138845">
		<tag k="name" v="Dyrhammarbekken" />
		<tag k="ssr:stedsnr" v="226185" />
		<tag k="waterway" v="stream" />
	</node>
	<node id="-163652" lat="66.7339944414" lon="13.8569222173">
		<tag k="name" v="Kvannåga" />
		<tag k="ssr:stedsnr" v="226184" />
		<tag k="waterway" v="stream" />
	</node>
	<node id="-164674" lat="66.7937749985" lon="13.7738055537">
		<tag k="name" v="Fiskvatnet" />
		<tag k="natural" v="water" />
		<tag k="ssr:stedsnr" v="16283" />
	</node>
	<node id="-164673" lat="66.7755499961" lon="14.1280360993">
		<tag k="name" v="Synken" />
>>>>>>> e1d4bc35ff8a6074a6f2e91616a996b547c36f15
		<tag k="natural" v="water" />
		<tag k="ssr:stedsnr" v="590392" />
		<tag k="water" v="lake" />
	</node>
<<<<<<< HEAD
	<node lat="66.68986944611501" lon="13.559138895841253" id="-11207">
		<tag k="name" v="Storlemvatnet" />
=======
	<node id="-164380" lat="66.7983166662" lon="13.6183805581">
		<tag k="name" v="Vassdalsvatnet" />
		<tag k="natural" v="water" />
		<tag k="ssr:stedsnr" v="683057" />
	</node>
	<node id="-165182" lat="66.8382583336" lon="13.5340111009">
		<tag k="name" v="Migandlivatnet" />
		<tag k="natural" v="water" />
		<tag k="ssr:stedsnr" v="380999" />
	</node>
	<node id="-165691" lat="66.7831805576" lon="14.1499000065">
		<tag k="name" v="Namnlausvatnet" />
>>>>>>> e1d4bc35ff8a6074a6f2e91616a996b547c36f15
		<tag k="natural" v="water" />
		<tag k="ssr:stedsnr" v="591906" />
		<tag k="water" v="lake" />
	</node>
<<<<<<< HEAD
	<node lat="66.79555833551572" lon="13.571294447391718" id="-11212">
		<tag k="name" v="Litlvatnet" />
		<tag k="natural" v="water" />
		<tag k="ssr:stedsnr" v="622083" />
	</node>
	<node lat="66.93653611499126" lon="13.544452777554856" id="-11219">
		<tag k="name" v="Kunnvalen" />
		<tag k="place" v="locality" />
		<tag k="ssr:stedsnr" v="622822" />
	</node>
	<node lat="66.75842499882806" lon="13.429911102967802" id="-11239">
		<tag k="name" v="Breivikelva" />
		<tag k="ssr:stedsnr" v="650316" />
		<tag k="waterway" v="stream" />
	</node>
	<node lat="66.81195277717669" lon="13.892494447839232" id="-11242">
		<tag k="name" v="Setvikbekken" />
		<tag k="ssr:stedsnr" v="651002" />
		<tag k="waterway" v="stream" />
	</node>
	<node lat="66.77541388839735" lon="13.376969437951217" id="-11250">
		<tag k="name" v="Skjellbakkbekken" />
		<tag k="ssr:stedsnr" v="651386" />
		<tag k="waterway" v="stream" />
	</node>
	<node lat="66.84577500082287" lon="13.75984722654937" id="-11251">
		<tag k="name" v="Grytnesåga" />
		<tag k="ssr:stedsnr" v="651750" />
		<tag k="waterway" v="stream" />
	</node>
	<node lat="66.90801666403502" lon="13.84309721600441" id="-11254">
		<tag k="name" v="Botnåga" />
		<tag k="ssr:stedsnr" v="652449" />
		<tag k="waterway" v="stream" />
	</node>
	<node lat="66.71851944106419" lon="13.59768332900352" id="-11265">
		<tag k="name" v="Sommarsetvatnet" />
=======
	<node id="-163639" lat="66.7223194461" lon="13.651938889">
		<tag k="name" v="Svartåga" />
		<tag k="ssr:stedsnr" v="16210" />
		<tag k="waterway" v="stream" />
	</node>
	<node id="-164150" lat="66.9148888896" lon="13.6907722176">
		<tag k="name" v="Kongersvollåga" />
		<tag k="ssr:stedsnr" v="502894" />
		<tag k="waterway" v="stream" />
	</node>
	<node id="-163633" lat="66.801675003" lon="13.5636416628">
		<tag k="fixme" v="multiple name tags, choose one and add the other to alt_name" />
		<tag k="name" v="Gammalmunnåga;Mølnåga" />
		<tag k="ssr:stedsnr" v="16106" />
		<tag k="waterway" v="stream" />
	</node>
	<node id="-163623" lat="66.7392194478" lon="13.7635777809">
		<tag k="name" v="Skarsvatnan" />
		<tag k="natural" v="water" />
		<tag k="ssr:stedsnr" v="227395" />
		<tag k="water" v="lake" />
	</node>
	<node id="-163622" lat="66.7062944488" lon="13.4797166623">
		<tag k="name" v="Kvanndalsbekken" />
		<tag k="ssr:stedsnr" v="227382" />
		<tag k="waterway" v="stream" />
	</node>
	<node id="-165668" lat="66.8599999991" lon="13.7344916573">
		<tag k="name" v="Laksøyra" />
		<tag k="natural" v="beach" />
		<tag k="ssr:stedsnr" v="834750" />
	</node>
	<node id="-163718" lat="66.7173916669" lon="13.7995361217">
		<tag k="name" v="Bjørnstia" />
		<tag k="ssr:stedsnr" v="259472" />
		<tag k="waterway" v="stream" />
	</node>
	<node id="-163618" lat="66.7610222229" lon="13.3051833408">
		<tag k="name" v="Storvatnet" />
		<tag k="natural" v="water" />
		<tag k="ssr:stedsnr" v="219772" />
	</node>
	<node id="-163616" lat="66.7540444468" lon="13.3102416562">
		<tag k="name" v="Buvikelva" />
		<tag k="ssr:stedsnr" v="219757" />
		<tag k="waterway" v="stream" />
	</node>
	<node id="-163614" lat="66.8381166631" lon="13.4069722313">
		<tag k="name" v="Osen" />
		<tag k="natural" v="bay" />
		<tag k="ssr:stedsnr" v="219279" />
	</node>
	<node id="-164229" lat="66.7607944464" lon="14.1626750027">
		<tag k="alt_name" v="Bolivatnet, nedre" />
		<tag k="name" v="Nedre Bolivatnet" />
		<tag k="natural" v="water" />
		<tag k="ssr:stedsnr" v="683287" />
	</node>
	<node id="-165148" lat="66.7899305573" lon="13.7942555601">
		<tag k="name" v="Rundvatnet" />
		<tag k="natural" v="water" />
		<tag k="ssr:stedsnr" v="380307" />
	</node>
	<node id="-165653" lat="66.7047805518" lon="13.4743083395">
		<tag k="name" v="Jens Sørenslibekken" />
		<tag k="ssr:stedsnr" v="834384" />
		<tag k="waterway" v="stream" />
	</node>
	<node id="-165652" lat="66.7359000037" lon="13.7094111115">
		<tag k="name" v="Telvikåga" />
		<tag k="ssr:stedsnr" v="834381" />
		<tag k="waterway" v="stream" />
	</node>
	<node id="-165138" lat="66.9005305549" lon="13.8523138998">
		<tag k="name" v="Holmhaugtjønna" />
>>>>>>> e1d4bc35ff8a6074a6f2e91616a996b547c36f15
		<tag k="natural" v="water" />
		<tag k="ssr:stedsnr" v="683211" />
	</node>
<<<<<<< HEAD
	<node lat="66.83127222520922" lon="14.04432499950918" id="-11278">
		<tag k="name" v="Vatn-700" />
		<tag k="natural" v="water" />
		<tag k="ssr:stedsnr" v="684349" />
	</node>
	<node lat="66.83001944169035" lon="13.798252787722088" id="-11301">
		<tag k="name" v="Tverråga" />
		<tag k="ssr:stedsnr" v="894754" />
		<tag k="waterway" v="stream" />
	</node>
	<node lat="66.9053583373385" lon="13.806708333739445" id="-11306">
		<tag k="name" v="Søråga" />
		<tag k="ssr:stedsnr" v="894791" />
		<tag k="waterway" v="stream" />
	</node>
	<node lat="66.86468333273041" lon="13.761197232325125" id="-11316">
		<tag k="name" v="Gyltneset" />
		<tag k="natural" v="cape" />
		<tag k="ssr:stedsnr" v="895682" />
	</node>
	<node lat="66.78151666761094" lon="13.602691664635284" id="-11346">
		<tag k="name" v="Strandelva" />
		<tag k="ssr:stedsnr" v="744024" />
		<tag k="waterway" v="stream" />
	</node>
	<node lat="66.87586944757788" lon="13.746549990886553" id="-11355">
		<tag k="name" v="Lomtjønna" />
		<tag k="natural" v="water" />
		<tag k="ssr:stedsnr" v="744111" />
	</node>
	<node lat="66.83850555870444" lon="13.990258326769412" id="-11364">
		<tag k="alt_name" v="Glomvatnet, øvre" />
		<tag k="name" v="Øvre Glomvatnet" />
		<tag k="natural" v="water" />
		<tag k="ssr:stedsnr" v="744293" />
		<tag k="water" v="lake" />
	</node>
	<node lat="66.74018888480221" lon="13.55814444951431" id="-11400">
		<tag k="name" v="Småbekkan" />
		<tag k="ssr:stedsnr" v="773909" />
		<tag k="waterway" v="stream" />
	</node>
	<node lat="66.87859999610691" lon="13.811691672732266" id="-11408">
		<tag k="name" v="Lysvassfossen" />
		<tag k="natural" v="waterfall" />
		<tag k="ssr:stedsnr" v="774519" />
	</node>
	<node lat="66.7267999964896" lon="13.632941667383754" id="-11413">
		<tag k="name" v="Skålsvikvatnet" />
=======
	<node id="-164739" lat="66.8337249973" lon="13.5536249934">
		<tag k="name" v="Samuelsbekken" />
		<tag k="ssr:stedsnr" v="44767" />
		<tag k="waterway" v="stream" />
	</node>
	<node id="-164622" lat="66.7780777819" lon="13.3681694428">
		<tag k="name" v="Mølnåga" />
		<tag k="ssr:stedsnr" v="834366" />
		<tag k="waterway" v="stream" />
	</node>
	<node id="-165644" lat="66.8847611089" lon="13.7502749974">
		<tag k="name" v="Seterelva" />
		<tag k="ssr:stedsnr" v="833534" />
		<tag k="waterway" v="stream" />
	</node>
	<node id="-165643" lat="66.7575666643" lon="13.3812583242">
		<tag k="name" v="Vestvika" />
		<tag k="natural" v="bay" />
		<tag k="ssr:stedsnr" v="833348" />
	</node>
	<node id="-164617" lat="66.7313416663" lon="13.8075305594">
		<tag k="name" v="Mannåga" />
		<tag k="ssr:stedsnr" v="834176" />
		<tag k="waterway" v="stream" />
	</node>
	<node id="-164613" lat="66.7964694492" lon="13.9960249935">
		<tag k="name" v="Fykan" />
		<tag k="natural" v="cape" />
		<tag k="ssr:stedsnr" v="834207" />
	</node>
	<node id="-165124" lat="66.7647666679" lon="13.339572231">
		<tag k="name" v="Kjørrågvatnet" />
		<tag k="natural" v="water" />
		<tag k="ssr:stedsnr" v="380053" />
	</node>
	<node id="-164611" lat="66.8241805526" lon="13.7934027745">
		<tag k="name" v="Rondalsbekken" />
		<tag k="ssr:stedsnr" v="833666" />
		<tag k="waterway" v="stream" />
	</node>
	<node id="-165121" lat="66.7786749983" lon="13.6932777806">
		<tag k="name" v="Tverråga" />
		<tag k="ssr:stedsnr" v="380032" />
		<tag k="waterway" v="stream" />
	</node>
	<node id="-164086" lat="66.7323111114" lon="13.9196944423">
		<tag k="name" v="Storelva" />
		<tag k="ssr:stedsnr" v="348167" />
		<tag k="waterway" v="river" />
	</node>
	<node id="-165106" lat="66.8475361156" lon="13.8108222223">
		<tag k="name" v="Eiteråga" />
		<tag k="ssr:stedsnr" v="348473" />
		<tag k="waterway" v="stream" />
	</node>
	<node id="-165075" lat="66.7759194455" lon="14.070438899">
		<tag k="name" v="Fykanåga" />
		<tag k="ssr:stedsnr" v="320313" />
		<tag k="waterway" v="river" />
	</node>
	<node id="-164589" lat="66.8300166709" lon="13.4293666691">
		<tag k="name" v="Steinlivatnet" />
>>>>>>> e1d4bc35ff8a6074a6f2e91616a996b547c36f15
		<tag k="natural" v="water" />
		<tag k="ssr:stedsnr" v="805203" />
	</node>
<<<<<<< HEAD
	<node lat="66.74794444543666" lon="13.619111122485434" id="-11415">
		<tag k="name" v="Halsoselva" />
		<tag k="ssr:stedsnr" v="805001" />
		<tag k="waterway" v="stream" />
	</node>
	<node lat="66.87888055196815" lon="13.803736120001778" id="-11439">
		<tag k="name" v="Holmåga" />
		<tag k="ssr:stedsnr" v="926159" />
		<tag k="waterway" v="stream" />
	</node>
	<node lat="66.76678333471503" lon="13.802241656965824" id="-11443">
		<tag k="name" v="Mølnåga" />
		<tag k="ssr:stedsnr" v="926297" />
		<tag k="waterway" v="stream" />
	</node>
	<node lat="66.85215555486488" lon="13.834958328620809" id="-11445">
		<tag k="alt_name" v="Rismålselva" />
		<tag k="name" v="Botnåga" />
		<tag k="ssr:stedsnr" v="926342" />
		<tag k="waterway" v="stream" />
	</node>
	<node lat="66.84430277409653" lon="13.805830549186606" id="-11446">
		<tag k="name" v="Neverdalsvatnet" />
=======
	<node id="-165608" lat="66.7789916709" lon="14.29788333">
		<tag k="name" v="Skavldalselva" />
		<tag k="ssr:stedsnr" v="805394" />
		<tag k="waterway" v="river" />
	</node>
	<node id="-165093" lat="66.7505861118" lon="13.7403249975">
		<tag k="name" v="Sandåga" />
		<tag k="ssr:stedsnr" v="327216" />
		<tag k="waterway" v="stream" />
	</node>
	<node id="-164068" lat="66.7964999981" lon="14.000752784">
		<tag k="loc_name:smj" v="Fivkánjåhkå" />
		<tag k="name" v="Fykanåga" />
		<tag k="name:no" v="Fykanåga" />
		<tag k="ssr:stedsnr" v="327205" />
		<tag k="waterway" v="river" />
	</node>
	<node id="-164575" lat="66.7267999965" lon="13.6329416674">
		<tag k="name" v="Skålsvikvatnet" />
>>>>>>> e1d4bc35ff8a6074a6f2e91616a996b547c36f15
		<tag k="natural" v="water" />
		<tag k="ssr:stedsnr" v="926348" />
		<tag k="water" v="lake" />
	</node>
	<node lat="66.7965694468696" lon="13.634950008979125" id="-11484">
		<tag k="name" v="Austdalselva" />
		<tag k="ssr:stedsnr" v="926062" />
		<tag k="waterway" v="stream" />
	</node>
<<<<<<< HEAD
	<node lat="66.68822777442413" lon="13.68543056595104" id="-11501">
=======
	<node id="-164571" lat="66.6882277744" lon="13.685430566">
>>>>>>> e1d4bc35ff8a6074a6f2e91616a996b547c36f15
		<tag k="name" v="Fonndalselva" />
		<tag k="ssr:stedsnr" v="927220" />
		<tag k="waterway" v="river" />
	</node>
<<<<<<< HEAD
	<node lat="66.73621389244572" lon="13.774850006160895" id="-11526">
		<tag k="name" v="Rondalsbekken" />
		<tag k="ssr:stedsnr" v="955394" />
		<tag k="waterway" v="stream" />
	</node>
	<node lat="66.72231944605669" lon="13.651938889004114" id="-11540">
		<tag k="name" v="Svartåga" />
		<tag k="ssr:stedsnr" v="16210" />
		<tag k="waterway" v="stream" />
	</node>
	<node lat="66.77554999606475" lon="14.128036099308234" id="-11553">
		<tag k="name" v="Synken" />
=======
	<node id="-164056" lat="66.8694916694" lon="13.7938666775">
		<tag k="name" v="Krinsvatnet" />
		<tag k="natural" v="water" />
		<tag k="ssr:stedsnr" v="470702" />
	</node>
	<node id="-164055" lat="66.8634277819" lon="13.7612833414">
		<tag k="name" v="Tømneset" />
		<tag k="natural" v="cape" />
		<tag k="ssr:stedsnr" v="470700" />
	</node>
	<node id="-165076" lat="66.8154249973" lon="14.0962027783">
		<tag k="alt_name" v="Navarvatnet, øvre" />
		<tag k="name" v="Øvre Navarvatnet" />
>>>>>>> e1d4bc35ff8a6074a6f2e91616a996b547c36f15
		<tag k="natural" v="water" />
		<tag k="ssr:stedsnr" v="16269" />
		<tag k="water" v="lake" />
	</node>
<<<<<<< HEAD
	<node lat="66.79377499853857" lon="13.773805553709904" id="-11554">
		<tag k="name" v="Fiskvatnet" />
		<tag k="natural" v="water" />
		<tag k="ssr:stedsnr" v="16283" />
	</node>
	<node lat="66.83958333747874" lon="13.546677783478563" id="-11583">
		<tag k="name" v="Lomtjønna" />
		<tag k="natural" v="water" />
		<tag k="ssr:stedsnr" v="16999" />
	</node>
	<node lat="66.72277500428255" lon="13.597172227685247" id="-11592">
		<tag k="name" v="Tverråga" />
		<tag k="ssr:stedsnr" v="44750" />
		<tag k="waterway" v="stream" />
	</node>
	<node lat="66.83372499728421" lon="13.553624993361325" id="-11594">
		<tag k="name" v="Samuelsbekken" />
		<tag k="ssr:stedsnr" v="44767" />
		<tag k="waterway" v="stream" />
	</node>
	<node lat="66.92489166570518" lon="13.631541676464451" id="-11596">
		<tag k="name" v="Mølnåga" />
		<tag k="ssr:stedsnr" v="44845" />
		<tag k="waterway" v="stream" />
	</node>
	<node lat="66.9099250016833" lon="13.61020834504413" id="-11598">
		<tag k="name" v="Strandåga" />
		<tag k="ssr:stedsnr" v="44854" />
		<tag k="waterway" v="stream" />
	</node>
	<node lat="66.75108889157855" lon="13.858225002172887" id="-11602">
		<tag k="name" v="Famnvedåga" />
		<tag k="ssr:stedsnr" v="45046" />
		<tag k="waterway" v="stream" />
	</node>
	<node lat="66.7308250038712" lon="13.697769434813578" id="-11616">
		<tag k="name" v="Nertverråga" />
		<tag k="ssr:stedsnr" v="45384" />
		<tag k="waterway" v="stream" />
	</node>
	<node lat="66.73590277555017" lon="13.779200003320371" id="-11617">
		<tag k="name" v="Merkeåga" />
		<tag k="ssr:stedsnr" v="45400" />
		<tag k="waterway" v="stream" />
	</node>
	<node lat="66.8465222230263" lon="13.81422221538918" id="-11621">
		<tag k="name" v="Ågnesan" />
		<tag k="natural" v="cape" />
		<tag k="ssr:stedsnr" v="45500" />
	</node>
	<node lat="66.77316944668189" lon="13.681658336751024" id="-11629">
		<tag k="name" v="Føllielva" />
		<tag k="ssr:stedsnr" v="77044" />
		<tag k="waterway" v="stream" />
	</node>
	<node lat="66.7905638905031" lon="14.004933341184145" id="-11646">
		<tag k="loc_name:smj" v="Fivkánjávrre" />
		<tag k="name" v="Fykanvatnet" />
		<tag k="name:no" v="Fykanvatnet" />
		<tag k="natural" v="water" />
		<tag k="ssr:stedsnr" v="77333" />
		<tag k="water" v="lake" />
	</node>
	<node lat="66.8384694447366" lon="13.474936116896268" id="-11665">
		<tag k="name" v="Storvatnet" />
=======
	<node id="-165587" lat="66.7931527813" lon="13.789438883">
		<tag k="name" v="Varmvatnet" />
		<tag k="natural" v="water" />
		<tag k="ssr:stedsnr" v="805303" />
	</node>
	<node id="-165585" lat="66.7562111089" lon="13.8023583321">
		<tag k="name" v="Storåga" />
		<tag k="ssr:stedsnr" v="805268" />
		<tag k="waterway" v="river" />
	</node>
	<node id="-165581" lat="66.7479444454" lon="13.6191111225">
		<tag k="name" v="Halsoselva" />
		<tag k="ssr:stedsnr" v="805001" />
		<tag k="waterway" v="stream" />
	</node>
	<node id="-165579" lat="66.9075805514" lon="13.6494777696">
		<tag k="name" v="Tverråga" />
		<tag k="ssr:stedsnr" v="773842" />
		<tag k="waterway" v="stream" />
	</node>
	<node id="-164553" lat="66.8443027741" lon="13.8058305492">
		<tag k="name" v="Neverdalsvatnet" />
		<tag k="natural" v="water" />
		<tag k="ssr:stedsnr" v="926348" />
		<tag k="water" v="lake" />
	</node>
	<node id="-164552" lat="66.8521555549" lon="13.8349583286">
		<tag k="alt_name" v="Rismålselva" />
		<tag k="name" v="Botnåga" />
		<tag k="ssr:stedsnr" v="926342" />
		<tag k="waterway" v="stream" />
	</node>
	<node id="-164256" lat="66.8415027809" lon="13.8012777731">
		<tag k="name" v="Neverdalselva" />
		<tag k="ssr:stedsnr" v="684770" />
		<tag k="waterway" v="river" />
	</node>
	<node id="-164550" lat="66.7667833347" lon="13.802241657">
		<tag k="name" v="Mølnåga" />
		<tag k="ssr:stedsnr" v="926297" />
		<tag k="waterway" v="stream" />
	</node>
	<node id="-165067" lat="66.9014583306" lon="13.6962694511">
		<tag k="name" v="Litlvatnet" />
		<tag k="natural" v="water" />
		<tag k="ssr:stedsnr" v="319942" />
	</node>
	<node id="-164543" lat="66.878880552" lon="13.80373612">
		<tag k="name" v="Holmåga" />
		<tag k="ssr:stedsnr" v="926159" />
		<tag k="waterway" v="stream" />
	</node>
	<node id="-164532" lat="66.7965694469" lon="13.634950009">
		<tag k="name" v="Austdalselva" />
		<tag k="ssr:stedsnr" v="926062" />
		<tag k="waterway" v="stream" />
	</node>
	<node id="-164467" lat="66.8646833327" lon="13.7611972323">
		<tag k="name" v="Gyltneset" />
		<tag k="natural" v="cape" />
		<tag k="ssr:stedsnr" v="895682" />
	</node>
	<node id="-164526" lat="66.8785999961" lon="13.8116916727">
		<tag k="name" v="Lysvassfossen" />
		<tag k="natural" v="waterfall" />
		<tag k="ssr:stedsnr" v="774519" />
	</node>
	<node id="-164795" lat="66.7731694467" lon="13.6816583368">
		<tag k="name" v="Føllielva" />
		<tag k="ssr:stedsnr" v="77044" />
		<tag k="waterway" v="stream" />
	</node>
	<node id="-165033" lat="66.7365583348" lon="13.6850805513">
		<tag k="name" v="Lomvatnet" />
>>>>>>> e1d4bc35ff8a6074a6f2e91616a996b547c36f15
		<tag k="natural" v="water" />
		<tag k="ssr:stedsnr" v="77994" />
	</node>
<<<<<<< HEAD
	<node lat="66.75566666970153" lon="13.387238894046117" id="-11675">
		<tag k="name" v="Skarselva" />
		<tag k="ssr:stedsnr" v="105353" />
		<tag k="waterway" v="stream" />
	</node>
	<node lat="66.73941944104065" lon="13.63950278225164" id="-11687">
		<tag k="name" v="Røyrstøelva" />
		<tag k="ssr:stedsnr" v="105708" />
		<tag k="waterway" v="stream" />
	</node>
	<node lat="66.90604166962902" lon="13.788783344658134" id="-11692">
		<tag k="name" v="Neverneset" />
=======
	<node id="-164520" lat="66.7401888848" lon="13.5581444495">
		<tag k="name" v="Småbekkan" />
		<tag k="ssr:stedsnr" v="773909" />
		<tag k="waterway" v="stream" />
	</node>
	<node id="-164007" lat="66.8262833342" lon="13.8211111191">
		<tag k="name" v="Bjønnlibekken" />
		<tag k="ssr:stedsnr" v="288453" />
		<tag k="waterway" v="stream" />
	</node>
	<node id="-164517" lat="66.8656055556" lon="13.782011113">
		<tag k="name" v="Risholmen" />
		<tag k="place" v="islet" />
		<tag k="ssr:stedsnr" v="773676" />
	</node>
	<node id="-164000" lat="66.7457083333" lon="13.6385888922">
		<tag k="name" v="Sandneset" />
>>>>>>> e1d4bc35ff8a6074a6f2e91616a996b547c36f15
		<tag k="natural" v="cape" />
		<tag k="ssr:stedsnr" v="105787" />
	</node>
<<<<<<< HEAD
	<node lat="66.75129722231843" lon="13.753880556478226" id="-11693">
		<tag k="name" v="Sjøåga" />
		<tag k="ssr:stedsnr" v="106254" />
		<tag k="waterway" v="stream" />
	</node>
	<node lat="66.79833055355567" lon="13.21256389522566" id="-11697">
		<tag k="name" v="Tinnauerelva" />
		<tag k="ssr:stedsnr" v="106651" />
		<tag k="waterway" v="stream" />
	</node>
	<node lat="66.77023333279496" lon="13.43709722982232" id="-11705">
		<tag k="name" v="Svartskogvatnet" />
		<tag k="natural" v="water" />
		<tag k="ssr:stedsnr" v="137041" />
	</node>
	<node lat="66.79315555946822" lon="13.583427784253663" id="-11706">
		<tag k="name" v="Lomvatnet" />
		<tag k="natural" v="water" />
		<tag k="ssr:stedsnr" v="137047" />
	</node>
	<node lat="66.77067777747553" lon="14.355111106561187" id="-11714">
		<tag k="name" v="Skavldalsvatnet" />
		<tag k="natural" v="water" />
		<tag k="ssr:stedsnr" v="137381" />
		<tag k="water" v="lake" />
	</node>
	<node lat="66.76408055571953" lon="14.094097222437798" id="-11723">
		<tag k="name" v="Holmdalselva" />
		<tag k="ssr:stedsnr" v="137269" />
		<tag k="waterway" v="stream" />
	</node>
	<node lat="66.78856110780431" lon="13.75697500279697" id="-11726">
		<tag k="name" v="Renndalsvatnet" />
=======
	<node id="-163999" lat="66.8470388894" lon="13.7496222282">
		<tag k="name" v="Mølnåga" />
		<tag k="ssr:stedsnr" v="287773" />
		<tag k="waterway" v="stream" />
	</node>
	<node id="-165020" lat="66.9259916689" lon="13.6665277895">
		<tag k="name" v="Tverråga" />
		<tag k="ssr:stedsnr" v="198900" />
		<tag k="waterway" v="stream" />
	</node>
	<node id="-164498" lat="66.862602777" lon="13.6677333241">
		<tag k="name" v="Valøytjønna" />
		<tag k="natural" v="water" />
		<tag k="ssr:stedsnr" v="744957" />
	</node>
	<node id="-163983" lat="66.8161444475" lon="13.9774166655">
		<tag k="name" v="Glomåga" />
		<tag k="ssr:stedsnr" v="461176" />
		<tag k="waterway" v="river" />
	</node>
	<node id="-164205" lat="66.7997194434" lon="14.0916666627">
		<tag k="alt_name" v="Navarvatnet, nedre" />
		<tag k="name" v="Nedre Navarvatnet" />
		<tag k="natural" v="water" />
		<tag k="ssr:stedsnr" v="502311" />
		<tag k="water" v="lake" />
	</node>
	<node id="-163896" lat="66.9064250023" lon="13.7610222248">
		<tag k="alt_name" v="Markavatnet" />
		<tag k="name" v="Markvatnet" />
		<tag k="natural" v="water" />
		<tag k="ssr:stedsnr" v="441178" />
		<tag k="water" v="lake" />
	</node>
	<node id="-165003" lat="66.8137638903" lon="13.9633805622">
		<tag k="alt_name" v="Glomvatnet, l;Litle Glomvatnet" />
		<tag k="name" v="Litlglomvatnet" />
		<tag k="natural" v="water" />
		<tag k="ssr:stedsnr" v="198299" />
	</node>
	<node id="-164375" lat="66.9132388873" lon="13.6498972275">
		<tag k="name" v="Tverråga" />
		<tag k="ssr:stedsnr" v="651875" />
		<tag k="waterway" v="stream" />
	</node>
	<node id="-164483" lat="66.7848805583" lon="13.7751749954">
		<tag k="name" v="Langvatnet" />
>>>>>>> e1d4bc35ff8a6074a6f2e91616a996b547c36f15
		<tag k="natural" v="water" />
		<tag k="ssr:stedsnr" v="137287" />
		<tag k="water" v="lake" />
	</node>
	<node lat="66.82450277684539" lon="14.018552780965717" id="-11727">
		<tag k="name" v="Tidemannsvatnan" />
		<tag k="natural" v="water" />
		<tag k="ssr:stedsnr" v="137327" />
		<tag k="water" v="lake" />
	</node>
	<node lat="66.71235833667977" lon="13.52020277139195" id="-11769">
		<tag k="name" v="Åga" />
		<tag k="ssr:stedsnr" v="166188" />
		<tag k="waterway" v="stream" />
	</node>
	<node lat="66.86377499876004" lon="13.77184721584596" id="-11779">
		<tag k="name" v="Lasseneset" />
		<tag k="natural" v="cape" />
		<tag k="ssr:stedsnr" v="166692" />
	</node>
<<<<<<< HEAD
	<node lat="66.79249444546593" lon="13.629605554672322" id="-11806">
=======
	<node id="-164993" lat="66.7924944455" lon="13.6296055547">
>>>>>>> e1d4bc35ff8a6074a6f2e91616a996b547c36f15
		<tag k="name" v="Vassbotnelva" />
		<tag k="ssr:stedsnr" v="198051" />
		<tag k="waterway" v="stream" />
	</node>
<<<<<<< HEAD
	<node lat="66.87785833546484" lon="13.886538880080938" id="-11808">
=======
	<node id="-164992" lat="66.8778583355" lon="13.8865388801">
>>>>>>> e1d4bc35ff8a6074a6f2e91616a996b547c36f15
		<tag k="name" v="Sandneset" />
		<tag k="natural" v="cape" />
		<tag k="ssr:stedsnr" v="198136" />
	</node>
<<<<<<< HEAD
	<node lat="66.81376389025164" lon="13.96338056215241" id="-11815">
		<tag k="alt_name" v="Glomvatnet, l;Litle Glomvatnet" />
		<tag k="name" v="Litlglomvatnet" />
		<tag k="natural" v="water" />
		<tag k="ssr:stedsnr" v="198299" />
	</node>
	<node lat="66.925991668865" lon="13.666527789528384" id="-11822">
		<tag k="name" v="Tverråga" />
		<tag k="ssr:stedsnr" v="198900" />
		<tag k="waterway" v="stream" />
	</node>
	<node lat="66.76102222294939" lon="13.305183340801776" id="-11829">
		<tag k="name" v="Storvatnet" />
=======
	<node id="-164990" lat="66.8894916642" lon="13.8316499904">
		<tag k="name" v="Kattvatnet" />
		<tag k="natural" v="water" />
		<tag k="ssr:stedsnr" v="198128" />
	</node>
	<node id="-164989" lat="66.8942888912" lon="13.8239888886">
		<tag k="name" v="Matvatnet" />
>>>>>>> e1d4bc35ff8a6074a6f2e91616a996b547c36f15
		<tag k="natural" v="water" />
		<tag k="ssr:stedsnr" v="219772" />
	</node>
<<<<<<< HEAD
	<node lat="66.75404444676627" lon="13.31024165618204" id="-11832">
		<tag k="name" v="Buvikelva" />
		<tag k="ssr:stedsnr" v="219757" />
		<tag k="waterway" v="stream" />
	</node>
	<node lat="66.77611388479728" lon="13.438466667196371" id="-11839">
		<tag k="name" v="Svartskogåga" />
		<tag k="ssr:stedsnr" v="226418" />
		<tag k="waterway" v="stream" />
	</node>
	<node lat="66.82764444210723" lon="13.828633336312826" id="-11846">
		<tag k="name" v="Rødlibekken" />
		<tag k="ssr:stedsnr" v="227023" />
		<tag k="waterway" v="stream" />
	</node>
	<node lat="66.90905278188175" lon="13.681411110185596" id="-11867">
		<tag k="name" v="Tverråga" />
		<tag k="ssr:stedsnr" v="227961" />
		<tag k="waterway" v="stream" />
	</node>
	<node lat="66.91174166957124" lon="13.784691668080448" id="-11869">
		<tag k="name" v="Tvillingan" />
		<tag k="ssr:stedsnr" v="227771" />
		<tag k="waterway" v="stream" />
	</node>
	<node lat="66.88282778158876" lon="13.85224722695182" id="-11872">
		<tag k="name" v="Tverråga" />
		<tag k="ssr:stedsnr" v="228526" />
		<tag k="waterway" v="stream" />
	</node>
	<node lat="66.76315833158891" lon="13.455927771989018" id="-11882">
		<tag k="name" v="Storelva" />
		<tag k="ssr:stedsnr" v="287342" />
		<tag k="waterway" v="stream" />
	</node>
	<node lat="66.82628333421646" lon="13.821111119096264" id="-11886">
		<tag k="name" v="Bjønnlibekken" />
		<tag k="ssr:stedsnr" v="288453" />
		<tag k="waterway" v="stream" />
	</node>
	<node lat="66.84703888941911" lon="13.749622228160955" id="-11891">
		<tag k="name" v="Mølnåga" />
		<tag k="ssr:stedsnr" v="287773" />
		<tag k="waterway" v="stream" />
	</node>
	<node lat="66.73655833479799" lon="13.685080551285152" id="-11906">
		<tag k="name" v="Lomvatnet" />
=======
	<node id="-165498" lat="66.7815166676" lon="13.6026916646">
		<tag k="name" v="Strandelva" />
		<tag k="ssr:stedsnr" v="744024" />
		<tag k="waterway" v="stream" />
	</node>
	<node id="-165515" lat="66.8385055587" lon="13.9902583268">
		<tag k="alt_name" v="Glomvatnet, øvre" />
		<tag k="name" v="Øvre Glomvatnet" />
		<tag k="natural" v="water" />
		<tag k="ssr:stedsnr" v="744293" />
		<tag k="water" v="lake" />
	</node>
	<node id="-164472" lat="66.8758694476" lon="13.7465499909">
		<tag k="name" v="Lomtjønna" />
		<tag k="natural" v="water" />
		<tag k="ssr:stedsnr" v="744111" />
	</node>
	<node id="-164628" lat="66.7347166643" lon="13.5663749929">
		<tag k="name" v="Olsåga" />
		<tag k="ssr:stedsnr" v="834911" />
		<tag k="waterway" v="stream" />
	</node>
	<node id="-165493" lat="66.908016664" lon="13.843097216">
		<tag k="name" v="Botnåga" />
		<tag k="ssr:stedsnr" v="652449" />
		<tag k="waterway" v="stream" />
	</node>
	<node id="-163956" lat="66.6730916626" lon="13.6921749924">
		<tag k="name" v="Fonndalsvatnet" />
		<tag k="natural" v="water" />
		<tag k="ssr:stedsnr" v="258318" />
	</node>
	<node id="-165491" lat="66.9403888891" lon="13.5777138886">
		<tag k="name" v="Dalsåga" />
		<tag k="ssr:stedsnr" v="651852" />
		<tag k="waterway" v="stream" />
	</node>
	<node id="-163954" lat="66.7687111143" lon="13.4071749925">
		<tag k="name" v="Tindvatnet" />
>>>>>>> e1d4bc35ff8a6074a6f2e91616a996b547c36f15
		<tag k="natural" v="water" />
		<tag k="ssr:stedsnr" v="319132" />
	</node>
<<<<<<< HEAD
	<node lat="66.77591944547468" lon="14.070438898950497" id="-11916">
		<tag k="name" v="Fykanåga" />
		<tag k="ssr:stedsnr" v="320313" />
		<tag k="waterway" v="river" />
	</node>
	<node lat="66.81542499728792" lon="14.0962027783356" id="-11931">
		<tag k="alt_name" v="Navarvatnet, øvre" />
		<tag k="name" v="Øvre Navarvatnet" />
		<tag k="natural" v="water" />
		<tag k="ssr:stedsnr" v="320332" />
		<tag k="water" v="lake" />
	</node>
	<node lat="66.79649999814768" lon="14.000752784042461" id="-11940">
		<tag k="loc_name:smj" v="Fivkánjåhkå" />
		<tag k="name" v="Fykanåga" />
		<tag k="name:no" v="Fykanåga" />
		<tag k="ssr:stedsnr" v="327205" />
		<tag k="waterway" v="river" />
	</node>
	<node lat="66.84753611559309" lon="13.810822222257931" id="-11952">
		<tag k="name" v="Eiteråga" />
		<tag k="ssr:stedsnr" v="348473" />
		<tag k="waterway" v="stream" />
	</node>
	<node lat="66.77867499830104" lon="13.69327778059969" id="-11969">
		<tag k="name" v="Tverråga" />
		<tag k="ssr:stedsnr" v="380032" />
		<tag k="waterway" v="stream" />
	</node>
	<node lat="66.76476666788636" lon="13.339572231006771" id="-11972">
		<tag k="name" v="Kjørrågvatnet" />
		<tag k="natural" v="water" />
		<tag k="ssr:stedsnr" v="380053" />
	</node>
	<node lat="66.90053055487361" lon="13.85231389980005" id="-11975">
		<tag k="name" v="Holmhaugtjønna" />
		<tag k="natural" v="water" />
		<tag k="ssr:stedsnr" v="380132" />
	</node>
	<node lat="66.83825833359143" lon="13.534011100854901" id="-11993">
		<tag k="name" v="Migandlivatnet" />
		<tag k="natural" v="water" />
		<tag k="ssr:stedsnr" v="380999" />
	</node>
	<node lat="66.73376666657562" lon="13.864286107674326" id="-12011">
		<tag k="name" v="Rebekken" />
		<tag k="ssr:stedsnr" v="409137" />
		<tag k="waterway" v="stream" />
	</node>
	<node lat="66.75224444643709" lon="13.969122212707681" id="-12012">
		<tag k="name" v="Nordvatnet" />
		<tag k="natural" v="water" />
		<tag k="ssr:stedsnr" v="409175" />
		<tag k="water" v="lake" />
	</node>
	<node lat="66.76567222115506" lon="13.371458339543471" id="-12013">
		<tag k="name" v="Snydalsåga" />
		<tag k="ssr:stedsnr" v="409367" />
		<tag k="waterway" v="stream" />
	</node>
	<node lat="66.91199166423277" lon="13.718199997340195" id="-12026">
		<tag k="name" v="Seteråga" />
		<tag k="ssr:stedsnr" v="409973" />
		<tag k="waterway" v="stream" />
	</node>
	<node lat="66.90642500234748" lon="13.761022224816331" id="-12035">
		<tag k="alt_name" v="Markavatnet" />
		<tag k="name" v="Markvatnet" />
		<tag k="natural" v="water" />
		<tag k="ssr:stedsnr" v="441178" />
		<tag k="water" v="lake" />
	</node>
	<node lat="66.73586389091548" lon="13.656408329595024" id="-12039">
		<tag k="name" v="Klubbvatnet" />
		<tag k="natural" v="water" />
		<tag k="ssr:stedsnr" v="441126" />
	</node>
	<node lat="66.77497222293299" lon="13.574636105405531" id="-12074">
		<tag k="name" v="Sauråga" />
		<tag k="ssr:stedsnr" v="501033" />
		<tag k="waterway" v="stream" />
	</node>
	<node lat="66.76241110734703" lon="13.43814166752128" id="-12078">
		<tag k="alt_name" v="Stamnesvatnet" />
		<tag k="name" v="Stavnesvatnet" />
		<tag k="natural" v="water" />
		<tag k="ssr:stedsnr" v="501059" />
	</node>
	<node lat="66.697319442823" lon="13.770380559927485" id="-12082">
		<tag k="name" v="Breirona" />
		<tag k="ssr:stedsnr" v="501458" />
		<tag k="waterway" v="stream" />
	</node>
	<node lat="66.73859444813286" lon="14.094799997480845" id="-12083">
		<tag k="loc_name:smj" v="Suollujávrre" />
		<tag k="name" v="Holmvatnet" />
		<tag k="name:no" v="Holmvatnet" />
		<tag k="natural" v="water" />
		<tag k="ssr:stedsnr" v="501469" />
		<tag k="water" v="lake" />
	</node>
	<node lat="66.73043889302808" lon="13.679169451450493" id="-12121">
		<tag k="name" v="Gongskardåga" />
		<tag k="ssr:stedsnr" v="530423" />
		<tag k="waterway" v="stream" />
	</node>
	<node lat="66.9129972175913" lon="13.779922232736947" id="-12125">
		<tag k="name" v="Mølnåga" />
		<tag k="ssr:stedsnr" v="530774" />
		<tag k="waterway" v="stream" />
	</node>
	<node lat="66.90815000145011" lon="13.829855548321827" id="-12164">
		<tag k="name" v="Svartvatnet" />
=======
	<node id="-164371" lat="66.8471305583" lon="13.8268138853">
		<tag k="name" v="Køvdalsbekken" />
		<tag k="ssr:stedsnr" v="651521" />
		<tag k="waterway" v="stream" />
	</node>
	<node id="-164114" lat="66.899786108" lon="13.9258499916">
		<tag k="name" v="Ternsteinan" />
		<tag k="place" v="islet" />
		<tag k="ssr:stedsnr" v="501132" />
	</node>
	<node id="-164969" lat="66.8637749988" lon="13.7718472158">
		<tag k="name" v="Lasseneset" />
		<tag k="natural" v="cape" />
		<tag k="ssr:stedsnr" v="166692" />
	</node>
	<node id="-164967" lat="66.7123583367" lon="13.5202027714">
		<tag k="name" v="Åga" />
		<tag k="ssr:stedsnr" v="166188" />
		<tag k="waterway" v="stream" />
	</node>
	<node id="-163942" lat="66.9090527819" lon="13.6814111102">
		<tag k="name" v="Tverråga" />
		<tag k="ssr:stedsnr" v="227961" />
		<tag k="waterway" v="stream" />
	</node>
	<node id="-164113" lat="66.8940416636" lon="13.8024722287">
		<tag k="name" v="Breifjellvatnet" />
		<tag k="natural" v="water" />
		<tag k="ssr:stedsnr" v="501131" />
	</node>
	<node id="-164014" lat="66.7598388848" lon="13.7736111162">
		<tag k="name" v="Bjærangselva" />
		<tag k="ssr:stedsnr" v="469039" />
		<tag k="waterway" v="river" />
	</node>
	<node id="-165478" lat="66.8457750008" lon="13.7598472265">
		<tag k="name" v="Grytnesåga" />
		<tag k="ssr:stedsnr" v="651750" />
		<tag k="waterway" v="stream" />
	</node>
	<node id="-164283" lat="66.730438893" lon="13.6791694515">
		<tag k="name" v="Gongskardåga" />
		<tag k="ssr:stedsnr" v="530423" />
		<tag k="waterway" v="stream" />
	</node>
	<node id="-163941" lat="66.9117416696" lon="13.7846916681">
		<tag k="name" v="Tvillingan" />
		<tag k="ssr:stedsnr" v="227771" />
		<tag k="waterway" v="stream" />
	</node>
	<node id="-164442" lat="66.9053583373" lon="13.8067083337">
		<tag k="name" v="Søråga" />
		<tag k="ssr:stedsnr" v="894791" />
		<tag k="waterway" v="stream" />
	</node>
	<node id="-164439" lat="66.8300194417" lon="13.7982527877">
		<tag k="name" v="Tverråga" />
		<tag k="ssr:stedsnr" v="894754" />
		<tag k="waterway" v="stream" />
	</node>
	<node id="-165460" lat="66.8233694397" lon="13.8400666765">
		<tag k="name" v="Selstadelva" />
		<tag k="ssr:stedsnr" v="651030" />
		<tag k="waterway" v="river" />
	</node>
	<node id="-165459" lat="66.8119527772" lon="13.8924944478">
		<tag k="name" v="Setvikbekken" />
		<tag k="ssr:stedsnr" v="651002" />
		<tag k="waterway" v="stream" />
	</node>
	<node id="-164434" lat="66.8272500026" lon="13.4981277719">
		<tag k="name" v="Frøsen" />
		<tag k="ssr:stedsnr" v="712234" />
		<tag k="waterway" v="stream" />
	</node>
	<node id="-165457" lat="66.7447388883" lon="13.9727750016">
		<tag k="name" v="Sørvatnet" />
>>>>>>> e1d4bc35ff8a6074a6f2e91616a996b547c36f15
		<tag k="natural" v="water" />
		<tag k="ssr:stedsnr" v="562108" />
		<tag k="water" v="lake" />
	</node>
<<<<<<< HEAD
	<node lat="66.72471388802047" lon="13.660147217544695" id="-12168">
		<tag k="name" v="Nattmålsåga" />
		<tag k="ssr:stedsnr" v="562214" />
		<tag k="waterway" v="stream" />
	</node>
	<node lat="66.85983055266175" lon="13.864580557051381" id="-12177">
		<tag k="alt_name" v="Rismålsvatnet, nedre" />
		<tag k="name" v="Nedre Rismålsvatnet" />
=======
	<node id="-165456" lat="66.7584249988" lon="13.429911103">
		<tag k="name" v="Breivikelva" />
		<tag k="ssr:stedsnr" v="650316" />
		<tag k="waterway" v="stream" />
	</node>
	<node id="-164194" lat="66.7624111073" lon="13.4381416675">
		<tag k="alt_name" v="Stamnesvatnet" />
		<tag k="name" v="Stavnesvatnet" />
		<tag k="natural" v="water" />
		<tag k="ssr:stedsnr" v="501059" />
	</node>
	<node id="-165446" lat="66.836388893" lon="13.4946250021">
		<tag k="name" v="Litlvatnet" />
>>>>>>> e1d4bc35ff8a6074a6f2e91616a996b547c36f15
		<tag k="natural" v="water" />
		<tag k="ssr:stedsnr" v="562347" />
		<tag k="water" v="lake" />
	</node>
<<<<<<< HEAD
	<node lat="66.8316166680134" lon="13.435474999535856" id="-12222">
		<tag k="name" v="Molivatnet" />
=======
	<node id="-165442" lat="66.9213722192" lon="13.6134027777">
		<tag k="name" v="Lautjønna" />
>>>>>>> e1d4bc35ff8a6074a6f2e91616a996b547c36f15
		<tag k="natural" v="water" />
		<tag k="ssr:stedsnr" v="562970" />
	</node>
<<<<<<< HEAD
	<node lat="66.7205722230914" lon="13.392988889201991" id="-12229">
		<tag k="name" v="Segeråga" />
		<tag k="ssr:stedsnr" v="589381" />
		<tag k="waterway" v="stream" />
	</node>
	<node lat="66.6816222187093" lon="13.636558333118735" id="-12256">
		<tag k="name" v="Renndalsvikvatnet" />
		<tag k="natural" v="water" />
		<tag k="ssr:stedsnr" v="590882" />
		<tag k="water" v="lake" />
	</node>
	<node lat="66.71343332980753" lon="13.642688883556026" id="-12258">
		<tag k="name" v="Heståga" />
		<tag k="ssr:stedsnr" v="591127" />
		<tag k="waterway" v="stream" />
	</node>
	<node lat="66.85994444868284" lon="13.732394438334401" id="-12265">
		<tag k="name" v="Kalvøyra" />
		<tag k="natural" v="beach" />
		<tag k="ssr:stedsnr" v="591733" />
	</node>
	<node lat="66.7711111080616" lon="13.456094452171712" id="-12273">
		<tag k="alt_name" v="Litlvatnet" />
		<tag k="name" v="Litlstavnesvatnet" />
=======
	<node id="-164107" lat="66.7749722229" lon="13.5746361054">
		<tag k="name" v="Sauråga" />
		<tag k="ssr:stedsnr" v="501033" />
		<tag k="waterway" v="stream" />
	</node>
	<node id="-163902" lat="66.7611916688" lon="13.8219333336">
		<tag k="name" v="Dyrrabekken" />
		<tag k="ssr:stedsnr" v="441287" />
		<tag k="waterway" v="stream" />
	</node>
	<node id="-164923" lat="66.7706777775" lon="14.3551111066">
		<tag k="name" v="Skavldalsvatnet" />
		<tag k="natural" v="water" />
		<tag k="ssr:stedsnr" v="137381" />
		<tag k="water" v="lake" />
	</node>
	<node id="-164920" lat="66.7284027775" lon="13.6502694537">
		<tag k="name" v="Nattmålsvatnet" />
>>>>>>> e1d4bc35ff8a6074a6f2e91616a996b547c36f15
		<tag k="natural" v="water" />
		<tag k="ssr:stedsnr" v="622047" />
	</node>
<<<<<<< HEAD
	<node lat="66.72971388856911" lon="13.579613878210594" id="-12276">
		<tag k="name" v="Kobbskjærelva" />
		<tag k="ssr:stedsnr" v="622124" />
		<tag k="waterway" v="stream" />
	</node>
	<node lat="66.88910000228658" lon="13.816383327476899" id="-12277">
		<tag k="name" v="Suppevatnet" />
=======
	<node id="-164918" lat="66.9036527804" lon="13.8920249956">
		<tag k="name" v="Lysvatnet" />
>>>>>>> e1d4bc35ff8a6074a6f2e91616a996b547c36f15
		<tag k="natural" v="water" />
		<tag k="ssr:stedsnr" v="622133" />
		<tag k="water" v="lake" />
	</node>
<<<<<<< HEAD
	<node lat="66.88521944665878" lon="13.854511121585334" id="-12281">
		<tag k="fixme" v="multiple name tags, choose one and add the other to alt_name" />
		<tag k="name" v="Litlelysvatnet;Suppavatnet" />
=======
	<node id="-163891" lat="66.7358638909" lon="13.6564083296">
		<tag k="name" v="Klubbvatnet" />
>>>>>>> e1d4bc35ff8a6074a6f2e91616a996b547c36f15
		<tag k="natural" v="water" />
		<tag k="ssr:stedsnr" v="622146" />
	</node>
<<<<<<< HEAD
	<node lat="66.7506472202068" lon="14.176797218483312" id="-12285">
		<tag k="alt_name" v="Bolivatnet, øvre" />
		<tag k="name" v="Øvre Bolivatnet" />
		<tag k="natural" v="water" />
		<tag k="ssr:stedsnr" v="622299" />
	</node>
	<node lat="66.82284444154222" lon="13.824441663357163" id="-12290">
		<tag k="name" v="Selstadvatnet" />
=======
	<node id="-165426" lat="66.833080559" lon="13.8658416787">
		<tag k="name" v="Tverrfjellelva" />
		<tag k="ssr:stedsnr" v="623356" />
		<tag k="waterway" v="stream" />
	</node>
	<node id="-163969" lat="66.7223888878" lon="13.6471777816">
		<tag k="name" v="Hestskardvatnet" />
>>>>>>> e1d4bc35ff8a6074a6f2e91616a996b547c36f15
		<tag k="natural" v="water" />
		<tag k="ssr:stedsnr" v="259221" />
	</node>
<<<<<<< HEAD
	<node lat="66.83308055899175" lon="13.865841678712508" id="-12293">
		<tag k="name" v="Tverrfjellelva" />
		<tag k="ssr:stedsnr" v="623356" />
		<tag k="waterway" v="stream" />
	</node>
	<node lat="66.92137221918334" lon="13.613402777728716" id="-12299">
		<tag k="name" v="Lautjønna" />
		<tag k="natural" v="water" />
		<tag k="ssr:stedsnr" v="623907" />
	</node>
	<node lat="66.83638889296465" lon="13.494625002136273" id="-12306">
		<tag k="name" v="Litlvatnet" />
=======
	<node id="-165423" lat="66.8228444415" lon="13.8244416634">
		<tag k="name" v="Selstadvatnet" />
		<tag k="natural" v="water" />
		<tag k="ssr:stedsnr" v="623340" />
		<tag k="water" v="lake" />
	</node>
	<node id="-164908" lat="66.8245027768" lon="14.018552781">
		<tag k="name" v="Tidemannsvatnan" />
>>>>>>> e1d4bc35ff8a6074a6f2e91616a996b547c36f15
		<tag k="natural" v="water" />
		<tag k="ssr:stedsnr" v="623992" />
	</node>
<<<<<<< HEAD
	<node lat="66.82336943973463" lon="13.840066676498099" id="-12314">
		<tag k="name" v="Selstadelva" />
		<tag k="ssr:stedsnr" v="651030" />
		<tag k="waterway" v="river" />
	</node>
	<node lat="66.74473888830742" lon="13.972775001563978" id="-12319">
		<tag k="name" v="Sørvatnet" />
=======
	<node id="-164905" lat="66.7885611078" lon="13.7569750028">
		<tag k="name" v="Renndalsvatnet" />
>>>>>>> e1d4bc35ff8a6074a6f2e91616a996b547c36f15
		<tag k="natural" v="water" />
		<tag k="ssr:stedsnr" v="651168" />
		<tag k="water" v="lake" />
	</node>
<<<<<<< HEAD
	<node lat="66.8471305583118" lon="13.82681388526481" id="-12321">
		<tag k="name" v="Køvdalsbekken" />
		<tag k="ssr:stedsnr" v="651521" />
		<tag k="waterway" v="stream" />
	</node>
	<node lat="66.94038888907257" lon="13.577713888565086" id="-12340">
		<tag k="name" v="Dalsåga" />
		<tag k="ssr:stedsnr" v="651852" />
		<tag k="waterway" v="stream" />
	</node>
	<node lat="66.91323888734112" lon="13.649897227481151" id="-12343">
		<tag k="name" v="Tverråga" />
		<tag k="ssr:stedsnr" v="651875" />
		<tag k="waterway" v="stream" />
	</node>
	<node lat="66.82725000262342" lon="13.498127771941737" id="-12359">
		<tag k="name" v="Frøsen" />
		<tag k="ssr:stedsnr" v="712234" />
		<tag k="waterway" v="stream" />
	</node>
	<node lat="66.88476388776965" lon="13.735374998156976" id="-12361">
		<tag k="name" v="Mosvollelva" />
		<tag k="ssr:stedsnr" v="712241" />
		<tag k="waterway" v="river" />
	</node>
	<node lat="66.7848805582586" lon="13.775174995433904" id="-12394">
		<tag k="name" v="Langvatnet" />
=======
	<node id="-165414" lat="66.936536115" lon="13.5444527776">
		<tag k="name" v="Kunnvalen" />
		<tag k="natural" v="strait" />
		<tag k="ssr:stedsnr" v="622822" />
	</node>
	<node id="-164900" lat="66.7983305536" lon="13.2125638952">
		<tag k="name" v="Tinnauerelva" />
		<tag k="ssr:stedsnr" v="106651" />
		<tag k="waterway" v="stream" />
	</node>
	<node id="-164899" lat="66.8389694454" lon="13.8100083303">
		<tag k="name" v="Storskarselva" />
		<tag k="ssr:stedsnr" v="106489" />
		<tag k="waterway" v="stream" />
	</node>
	<node id="-164385" lat="66.7185194411" lon="13.597683329">
		<tag k="name" v="Sommarsetvatnet" />
>>>>>>> e1d4bc35ff8a6074a6f2e91616a996b547c36f15
		<tag k="natural" v="water" />
		<tag k="ssr:stedsnr" v="744258" />
	</node>
<<<<<<< HEAD
	<node lat="66.71378888822737" lon="13.88098889333676" id="-12397">
		<tag k="alt_name" v="Dimdalsfossen" />
		<tag k="name" v="Demdalsfossen" />
		<tag k="natural" v="waterfall" />
		<tag k="ssr:stedsnr" v="744446" />
	</node>
	<node lat="66.86260277704459" lon="13.667733324095197" id="-12422">
		<tag k="name" v="Valøytjønna" />
		<tag k="natural" v="water" />
		<tag k="ssr:stedsnr" v="744957" />
	</node>
	<node lat="66.8656055555721" lon="13.78201111299795" id="-12454">
		<tag k="name" v="Risholmen" />
		<tag k="place" v="islet" />
		<tag k="ssr:stedsnr" v="773676" />
	</node>
	<node lat="66.9075805513792" lon="13.649477769646642" id="-12458">
		<tag k="name" v="Tverråga" />
		<tag k="ssr:stedsnr" v="773842" />
		<tag k="waterway" v="stream" />
	</node>
	<node lat="66.75621110892126" lon="13.802358332131291" id="-12472">
		<tag k="name" v="Storåga" />
		<tag k="ssr:stedsnr" v="805268" />
		<tag k="waterway" v="river" />
	</node>
	<node lat="66.7789916708756" lon="14.297883330040444" id="-12477">
		<tag k="name" v="Skavldalselva" />
		<tag k="ssr:stedsnr" v="805394" />
		<tag k="waterway" v="river" />
	</node>
	<node lat="66.79315278130088" lon="13.789438883028055" id="-12478">
		<tag k="name" v="Varmvatnet" />
		<tag k="natural" v="water" />
		<tag k="ssr:stedsnr" v="805303" />
	</node>
	<node lat="66.90707222317397" lon="13.690597224961893" id="-12494">
		<tag k="name" v="Tømmeråga" />
		<tag k="ssr:stedsnr" v="805926" />
		<tag k="waterway" v="stream" />
	</node>
	<node lat="66.83001667090659" lon="13.429366669120364" id="-12524">
		<tag k="name" v="Steinlivatnet" />
=======
	<node id="-164895" lat="66.7512972223" lon="13.7538805565">
		<tag k="name" v="Sjøåga" />
		<tag k="ssr:stedsnr" v="106254" />
		<tag k="waterway" v="stream" />
	</node>
	<node id="-164892" lat="66.7513944413" lon="13.869036111">
		<tag k="name" v="Bjørnskardåga" />
		<tag k="ssr:stedsnr" v="106035" />
		<tag k="waterway" v="stream" />
	</node>
	<node id="-165402" lat="66.7506472202" lon="14.1767972185">
		<tag k="alt_name" v="Bolivatnet, øvre" />
		<tag k="name" v="Øvre Bolivatnet" />
>>>>>>> e1d4bc35ff8a6074a6f2e91616a996b547c36f15
		<tag k="natural" v="water" />
		<tag k="ssr:stedsnr" v="805978" />
	</node>
<<<<<<< HEAD
	<node lat="66.7575666642688" lon="13.381258324172295" id="-12532">
		<tag k="name" v="Vestvika" />
		<tag k="natural" v="bay" />
		<tag k="ssr:stedsnr" v="833348" />
	</node>
	<node lat="66.88476110889695" lon="13.75027499742053" id="-12533">
		<tag k="name" v="Seterelva" />
		<tag k="ssr:stedsnr" v="833534" />
		<tag k="waterway" v="stream" />
	</node>
	<node lat="66.824180552597" lon="13.793402774469316" id="-12537">
		<tag k="name" v="Rondalsbekken" />
		<tag k="ssr:stedsnr" v="833666" />
		<tag k="waterway" v="stream" />
	</node>
	<node lat="66.73134166634856" lon="13.807530559424743" id="-12544">
		<tag k="name" v="Mannåga" />
		<tag k="ssr:stedsnr" v="834176" />
		<tag k="waterway" v="stream" />
	</node>
	<node lat="66.77807778193086" lon="13.368169442764957" id="-12547">
		<tag k="name" v="Mølnåga" />
		<tag k="ssr:stedsnr" v="834366" />
		<tag k="waterway" v="stream" />
	</node>
	<node lat="66.7964694491707" lon="13.996024993509867" id="-12548">
		<tag k="name" v="Fykan" />
		<tag k="natural" v="cape" />
		<tag k="ssr:stedsnr" v="834207" />
	</node>
	<node lat="66.7359000037243" lon="13.709411111525892" id="-12554">
		<tag k="name" v="Telvikåga" />
		<tag k="ssr:stedsnr" v="834381" />
		<tag k="waterway" v="stream" />
	</node>
	<node lat="66.70478055181" lon="13.474308339454025" id="-12555">
		<tag k="name" v="Jens Sørenslibekken" />
		<tag k="ssr:stedsnr" v="834384" />
		<tag k="waterway" v="stream" />
	</node>
	<node lat="66.85999999914914" lon="13.734491657337712" id="-12567">
		<tag k="name" v="Laksøyra" />
		<tag k="natural" v="beach" />
		<tag k="ssr:stedsnr" v="834750" />
	</node>
	<node lat="66.7347166643232" lon="13.566374992883434" id="-12575">
		<tag k="name" v="Olsåga" />
		<tag k="ssr:stedsnr" v="834911" />
		<tag k="waterway" v="stream" />
	</node>
	<node lat="66.78318055759105" lon="14.149900006514297" id="-12595">
		<tag k="name" v="Namnlausvatnet" />
=======
	<node id="-165636" lat="66.9070722232" lon="13.690597225">
		<tag k="name" v="Tømmeråga" />
		<tag k="ssr:stedsnr" v="805926" />
		<tag k="waterway" v="stream" />
	</node>
	<node id="-163862" lat="66.7328611149" lon="13.6384027841">
		<tag k="name" v="Halsavatnet" />
		<tag k="natural" v="water" />
		<tag k="ssr:stedsnr" v="198113" />
	</node>
	<node id="-164885" lat="66.8032027801" lon="13.6074972157">
		<tag k="name" v="Vassdalselva" />
		<tag k="ssr:stedsnr" v="105807" />
		<tag k="waterway" v="river" />
	</node>
	<node id="-165396" lat="66.8852194467" lon="13.8545111216">
		<tag k="fixme" v="multiple name tags, choose one and add the other to alt_name" />
		<tag k="name" v="Litlelysvatnet;Suppavatnet" />
>>>>>>> e1d4bc35ff8a6074a6f2e91616a996b547c36f15
		<tag k="natural" v="water" />
		<tag k="ssr:stedsnr" v="865354" />
		<tag k="water" v="lake" />
	</node>
<<<<<<< HEAD
	<node lat="66.87193611420128" lon="13.843158340311152" id="-12621">
		<tag k="name" v="Spilderdalsvatnet" />
		<tag k="natural" v="water" />
		<tag k="ssr:stedsnr" v="866348" />
		<tag k="water" v="lake" />
	</node>
	<node lat="66.77180277460249" lon="14.258136121349544" id="-12623">
		<tag k="name" v="Litle Storglomvatnet" />
=======
	<node id="-164883" lat="66.9060416696" lon="13.7887833447">
		<tag k="name" v="Neverneset" />
		<tag k="natural" v="cape" />
		<tag k="ssr:stedsnr" v="105787" />
	</node>
	<node id="-165392" lat="66.8891000023" lon="13.8163833275">
		<tag k="name" v="Suppevatnet" />
>>>>>>> e1d4bc35ff8a6074a6f2e91616a996b547c36f15
		<tag k="natural" v="water" />
		<tag k="ssr:stedsnr" v="866375" />
		<tag k="water" v="lake" />
	</node>
	<node lat="66.77271666345476" lon="13.980397216075803" id="-12677">
		<tag k="name" v="Stevatnet" />
		<tag k="natural" v="water" />
		<tag k="ssr:stedsnr" v="955187" />
		<tag k="water" v="lake" />
	</node>
<<<<<<< HEAD
	<node lat="66.73254166504644" lon="13.707869433451746" id="-12687">
		<tag k="name" v="Øvertverråga" />
		<tag k="ssr:stedsnr" v="955381" />
		<tag k="waterway" v="stream" />
	</node>
	<node lat="66.9121333367664" lon="13.70956667504699" id="-12697">
		<tag k="name" v="Heståga" />
		<tag k="ssr:stedsnr" v="955979" />
		<tag k="waterway" v="stream" />
	</node>
=======
	<node id="-165391" lat="66.7297138886" lon="13.5796138782">
		<tag k="name" v="Kobbskjærelva" />
		<tag k="ssr:stedsnr" v="622124" />
		<tag k="waterway" v="stream" />
	</node>
	<node id="-164781" lat="66.9085361094" lon="13.8053111058">
		<tag k="name" v="Galtskaråga" />
		<tag k="ssr:stedsnr" v="46498" />
		<tag k="waterway" v="stream" />
	</node>
	<node id="-165388" lat="66.7955583355" lon="13.5712944474">
		<tag k="name" v="Litlvatnet" />
		<tag k="natural" v="water" />
		<tag k="ssr:stedsnr" v="622083" />
	</node>
	<node id="-164693" lat="66.8443388868" lon="13.4669333379">
		<tag k="name" v="Mølnåga" />
		<tag k="ssr:stedsnr" v="16942" />
		<tag k="waterway" v="stream" />
	</node>
	<node id="-164874" lat="66.739419441" lon="13.6395027823">
		<tag k="name" v="Røyrstøelva" />
		<tag k="ssr:stedsnr" v="105708" />
		<tag k="waterway" v="stream" />
	</node>
	<node id="-165385" lat="66.7711111081" lon="13.4560944522">
		<tag k="alt_name" v="Litlvatnet" />
		<tag k="name" v="Litlstavnesvatnet" />
		<tag k="natural" v="water" />
		<tag k="ssr:stedsnr" v="622047" />
	</node>
	<node id="-165378" lat="66.6898694461" lon="13.5591388958">
		<tag k="name" v="Storlemvatnet" />
		<tag k="natural" v="water" />
		<tag k="ssr:stedsnr" v="591906" />
		<tag k="water" v="lake" />
	</node>
>>>>>>> e1d4bc35ff8a6074a6f2e91616a996b547c36f15
</osm>
