<?xml version="1.0" encoding="UTF-8"?>
<<<<<<< HEAD
<osm version="0.6" generator="osmapis">
	<node lat="66.8786472207015" lon="13.881024995124477" id="-10688">
		<tag k="highway" v="path" />
		<tag k="name" v="Vintervegen" />
		<tag k="ssr:stedsnr" v="259135" />
	</node>
	<node lat="66.6936527791257" lon="13.695830552569074" id="-11203">
		<tag k="fixme" v="consider highway=path" />
		<tag k="highway" v="track" />
		<tag k="name" v="Høyskogvegen" />
		<tag k="ssr:stedsnr" v="591424" />
	</node>
	<node lat="66.8270111149901" lon="13.793991666910763" id="-11333">
=======
<osm generator="osmapis" version="0.6">
	<node id="-165373" lat="66.6936527791" lon="13.6958305526">
		<tag k="fixme" v="consider highway=path" />
		<tag k="highway" v="track" />
		<tag k="name" v="Høyskogvegen" />
		<tag k="ssr:stedsnr" v="591424" />
	</node>
	<node id="-165371" lat="66.7140333329" lon="13.6594666703">
		<tag k="highway" v="path" />
		<tag k="name" v="Stia" />
		<tag k="ssr:stedsnr" v="591393" />
	</node>
	<node id="-163706" lat="66.8786472207" lon="13.8810249951">
		<tag k="highway" v="path" />
		<tag k="name" v="Vintervegen" />
		<tag k="ssr:stedsnr" v="259135" />
	</node>
	<node id="-164341" lat="66.8016666682" lon="13.2336666593">
		<tag k="landuse" v="harbour" />
		<tag k="name" v="Hamna" />
		<tag k="seamark:type" v="harbour" />
		<tag k="ssr:stedsnr" v="712658" />
	</node>
	<node id="-164370" lat="66.6994361095" lon="13.7132666765">
		<tag k="highway" v="path" />
		<tag k="name" v="Prins Olavs veg" />
		<tag k="ssr:stedsnr" v="651460" />
	</node>
	<node id="-164780" lat="66.7171027747" lon="13.6740249898">
		<tag k="fixme" v="verify maritime location" />
		<tag k="mooring" v="yes" />
		<tag k="name" v="Vinterstøa" />
		<tag k="place" v="locality" />
		<tag k="ssr:stedsnr" v="46445" />
	</node>
	<node id="-165544" lat="66.8999138918" lon="13.3222805548">
		<tag k="name" v="Stabbleia" />
		<tag k="place" v="locality" />
		<tag k="ssr:stedsnr" v="752794" />
	</node>
	<node id="-164100" lat="66.7539421295" lon="13.2595624799">
		<tag k="man_made" v="quay" />
		<tag k="name" v="Åmøyhamn" />
		<tag k="place" v="locality" />
		<tag k="ssr:stedsnr" v="501009" />
	</node>
	<node id="-164451" lat="66.827011115" lon="13.7939916669">
>>>>>>> e1d4bc35ff8a6074a6f2e91616a996b547c36f15
		<tag k="man_made" v="cairn" />
		<tag k="name" v="Varden" />
		<tag k="place" v="locality" />
		<tag k="ssr:stedsnr" v="712630" />
	</node>
<<<<<<< HEAD
	<node lat="66.73738888680865" lon="13.59415000850864" id="-11530">
=======
	<node id="-165794" lat="66.7373888868" lon="13.5941500085">
>>>>>>> e1d4bc35ff8a6074a6f2e91616a996b547c36f15
		<tag k="fixme" v="consider highway=path" />
		<tag k="highway" v="track" />
		<tag k="name" v="Grasåsvegen" />
		<tag k="ssr:stedsnr" v="955745" />
	</node>
<<<<<<< HEAD
	<node lat="66.71710277466691" lon="13.674024989800019" id="-11624">
		<tag k="fixme" v="verify maritime location" />
		<tag k="mooring" v="yes" />
		<tag k="name" v="Vinterstøa" />
		<tag k="place" v="locality" />
		<tag k="ssr:stedsnr" v="46445" />
	</node>
	<node lat="66.75394212948783" lon="13.2595624799257" id="-12069">
		<tag k="man_made" v="quay" />
		<tag k="name" v="Åmøyhamn" />
		<tag k="place" v="locality" />
		<tag k="ssr:stedsnr" v="501009" />
	</node>
	<node lat="66.71403333286129" lon="13.659466670288735" id="-12262">
		<tag k="highway" v="path" />
		<tag k="name" v="Stia" />
		<tag k="ssr:stedsnr" v="591393" />
	</node>
	<node lat="66.69943610946726" lon="13.713266676477863" id="-12330">
		<tag k="highway" v="path" />
		<tag k="name" v="Prins Olavs veg" />
		<tag k="ssr:stedsnr" v="651460" />
	</node>
	<node lat="66.80166666821388" lon="13.233666659301687" id="-12364">
		<tag k="landuse" v="harbour" />
		<tag k="name" v="Hamna" />
		<tag k="seamark:type" v="harbour" />
		<tag k="ssr:stedsnr" v="712658" />
	</node>
	<node lat="66.89991389176664" lon="13.32228055475752" id="-12427">
		<tag k="name" v="Stabbleia" />
		<tag k="place" v="locality" />
		<tag k="ssr:stedsnr" v="752794" />
	</node>
=======
>>>>>>> e1d4bc35ff8a6074a6f2e91616a996b547c36f15
</osm>
