<?xml version="1.0" encoding="UTF-8"?>
<osm version="0.6" generator="osmapis">
	<node id="832618143" lat="68.5073672" lon="17.0744387" version="4" timestamp="2022-01-26T06:22:04Z" changeset="116610177" uid="3497659" user="NKA">
		<tag k="junction" v="yes" />
		<tag k="name" v="Lenvik vegkryss" />
		<tag k="ssr:stedsnr" v="571843" />
	</node>
	<node id="1581261271" lat="68.5396777" lon="17.2564499" version="2" timestamp="2022-07-05T08:08:43Z" changeset="123222468" uid="3497659" user="NKA">
		<tag k="name" v="Holmvatn" />
		<tag k="place" v="hamlet" />
		<tag k="ssr:stedsnr" v="748585" />
	</node>
	<node id="1581274278" lat="68.4637611" lon="17.2482555" version="3" timestamp="2022-07-05T08:08:43Z" changeset="123222468" uid="3497659" user="NKA">
		<tag k="name" v="Segelnes - Borjjasnjárga" />
		<tag k="name:no" v="Segelnes" />
		<tag k="name:se" v="Borjjasnjárga" />
		<tag k="place" v="isolated_dwelling" />
		<tag k="ssr:stedsnr" v="685481" />
	</node>
	<node id="1581286077" lat="68.5025597" lon="17.0804268" version="3" timestamp="2022-07-05T08:08:43Z" changeset="123222468" uid="3497659" user="NKA">
		<tag k="alt_name:no" v="Austervika;Østervik" />
		<tag k="loc_name:se" v="Eavsttárviika" />
		<tag k="name" v="Østervika" />
		<tag k="name:no" v="Østervika" />
		<tag k="place" v="hamlet" />
		<tag k="ssr:stedsnr" v="748618" />
	</node>
	<node id="1581301714" lat="68.5264757" lon="16.9955252" version="10" timestamp="2022-07-05T08:08:43Z" changeset="123222468" uid="3497659" user="NKA">
		<tag k="alt_name" v="Bogen i Ofoten" />
		<tag k="loc_name:no" v="Bogen i Ofoten" />
		<tag k="name" v="Bogen - Ránda" />
		<tag k="name:no" v="Bogen" />
		<tag k="name:se" v="Ránda" />
		<tag k="place" v="village" />
		<tag k="population" v="386" />
		<tag k="population:date" v="2021-01-01" />
		<tag k="ref:ssb_tettsted" v="7752" />
		<tag k="source:population" v="SSB - befolkning i tettstedet" />
		<tag k="ssr:stedsnr" v="930632" />
	</node>
	<node id="1581507619" lat="68.5113672" lon="16.9289317" version="4" timestamp="2022-07-05T08:08:43Z" changeset="123222468" uid="3497659" user="NKA">
		<tag k="alt_name" v="Dragvika" />
		<tag k="name" v="Dragvik" />
		<tag k="place" v="hamlet" />
		<tag k="ssr:stedsnr" v="202653" />
	</node>
	<node id="1675734480" lat="68.4588839" lon="16.6991337" version="3" timestamp="2022-07-05T08:08:43Z" changeset="123222468" uid="3497659" user="NKA">
		<tag k="name" v="Evenes - Evenášši" />
		<tag k="name:no" v="Evenes" />
		<tag k="name:se" v="Evenášši" />
		<tag k="place" v="village" />
		<tag k="ssr:stedsnr" v="571359" />
	</node>
	<node id="2959315629" lat="68.4631646" lon="16.6556576" version="2" timestamp="2022-07-05T08:08:43Z" changeset="123222468" uid="3497659" user="NKA">
		<tag k="name" v="Stunes - Stohponášši" />
		<tag k="name:no" v="Stunes" />
		<tag k="name:se" v="Stohponášši" />
		<tag k="place" v="hamlet" />
		<tag k="ssr:stedsnr" v="404453" />
	</node>
	<node id="3076895582" lat="68.4601427" lon="16.6251877" version="4" timestamp="2022-07-05T08:08:43Z" changeset="123222468" uid="3497659" user="NKA">
		<tag k="name" v="Tårstad - Durrák" />
		<tag k="name:no" v="Tårstad" />
		<tag k="name:se" v="Durrák" />
		<tag k="place" v="hamlet" />
		<tag k="ssr:stedsnr" v="17473" />
	</node>
	<node id="3077116966" lat="68.4568765" lon="16.6129509" version="2" timestamp="2022-07-05T08:08:43Z" changeset="123222468" uid="3497659" user="NKA">
		<tag k="name" v="Nøisomheten" />
		<tag k="place" v="farm" />
		<tag k="ssr:stedsnr" v="25319" />
	</node>
	<node id="3077116968" lat="68.4541067" lon="16.5841167" version="2" timestamp="2022-07-05T08:08:43Z" changeset="123222468" uid="3497659" user="NKA">
		<tag k="name" v="Viksletta" />
		<tag k="place" v="neighbourhood" />
		<tag k="ssr:stedsnr" v="927445" />
	</node>
	<node id="3091617039" lat="68.4808958" lon="16.8890999" version="8" timestamp="2022-07-05T08:08:43Z" changeset="123222468" uid="3497659" user="NKA">
		<tag k="name" v="Liland - Lidaláddi" />
		<tag k="name:no" v="Liland" />
		<tag k="name:se" v="Lidaláddi" />
		<tag k="place" v="village" />
		<tag k="population" v="313" />
		<tag k="population:date" v="2021-01-01" />
		<tag k="ref:ssb_tettsted" v="7751" />
		<tag k="source:population" v="SSB - befolkning i tettstedet" />
		<tag k="ssr:stedsnr" v="78512" />
	</node>
	<node id="3098372861" lat="68.5044297" lon="16.916262" version="2" timestamp="2022-07-05T08:08:43Z" changeset="123222468" uid="3497659" user="NKA">
		<tag k="name" v="Lakså" />
		<tag k="place" v="hamlet" />
		<tag k="ssr:stedsnr" v="20634" />
	</node>
	<node id="3145635467" lat="68.4603375" lon="17.2120474" version="2" timestamp="2022-07-05T08:08:43Z" changeset="123222468" uid="3497659" user="NKA">
		<tag k="name" v="Gammelveggen - Boaressiida" />
		<tag k="name:no" v="Gammelveggen" />
		<tag k="name:se" v="Boaressiida" />
		<tag k="place" v="isolated_dwelling" />
		<tag k="ssr:stedsnr" v="624972" />
	</node>
	<node id="3145635468" lat="68.4659412" lon="17.2478629" version="2" timestamp="2022-07-05T08:08:43Z" changeset="123222468" uid="3497659" user="NKA">
		<tag k="name" v="Veggen - Veaggu" />
		<tag k="name:no" v="Veggen" />
		<tag k="name:se" v="Veaggu" />
		<tag k="place" v="hamlet" />
		<tag k="ssr:stedsnr" v="381501" />
	</node>
	<node id="3209085861" lat="68.4899282" lon="16.718365" version="2" timestamp="2022-07-05T08:08:43Z" changeset="123222468" uid="3497659" user="NKA">
		<tag k="name" v="Nystad" />
		<tag k="place" v="farm" />
		<tag k="population" v="2" />
		<tag k="ssr:stedsnr" v="502379" />
	</node>
	<node id="3667208199" lat="68.5367458" lon="17.2161655" version="3" timestamp="2022-01-26T06:22:04Z" changeset="116610177" uid="3497659" user="NKA">
		<tag k="junction" v="yes" />
		<tag k="name" v="Grovfjord vegkryss" />
		<tag k="ssr:stedsnr" v="328450" />
	</node>
	<node id="9867641674" lat="68.5000154" lon="16.7567137" version="1" timestamp="2022-07-05T08:08:43Z" changeset="123222468" uid="3497659" user="NKA">
		<tag k="name" v="Fedreheim" />
		<tag k="place" v="farm" />
		<tag k="ssr:stedsnr" v="383976" />
	</node>
	<node id="9867641675" lat="68.4959352" lon="16.7543711" version="1" timestamp="2022-07-05T08:08:43Z" changeset="123222468" uid="3497659" user="NKA">
		<tag k="name" v="Skogås" />
		<tag k="place" v="farm" />
		<tag k="ssr:stedsnr" v="450340" />
	</node>
	<node id="9867641676" lat="68.5022138" lon="16.9125445" version="1" timestamp="2022-07-05T08:08:43Z" changeset="123222468" uid="3497659" user="NKA">
		<tag k="name" v="Olsborg" />
		<tag k="place" v="farm" />
		<tag k="ssr:stedsnr" v="450201" />
	</node>
	<node id="9867641677" lat="68.4751123" lon="16.8795477" version="1" timestamp="2022-07-05T08:08:43Z" changeset="123222468" uid="3497659" user="NKA">
		<tag k="name" v="Liland" />
		<tag k="place" v="farm" />
		<tag k="ssr:stedsnr" v="1076437" />
	</node>
	<node id="9867641678" lat="68.5083111" lon="16.7491083" version="1" timestamp="2022-07-05T08:08:43Z" changeset="123222468" uid="3497659" user="NKA">
		<tag k="name" v="Nordmarka - Geabarohtu" />
		<tag k="name:no" v="Nordmarka" />
		<tag k="name:se" v="Geabarohtu" />
		<tag k="place" v="farm" />
		<tag k="ssr:stedsnr" v="383949" />
	</node>
	<node id="9867641679" lat="68.4600056" lon="17.0235278" version="1" timestamp="2022-07-05T08:08:43Z" changeset="123222468" uid="3497659" user="NKA">
		<tag k="name" v="Utheim" />
		<tag k="place" v="farm" />
		<tag k="ssr:stedsnr" v="328182" />
	</node>
	<node id="9867641680" lat="68.5049177" lon="16.7408358" version="1" timestamp="2022-07-05T08:08:43Z" changeset="123222468" uid="3497659" user="NKA">
		<tag k="name" v="Nyheim" />
		<tag k="place" v="farm" />
		<tag k="ssr:stedsnr" v="323949" />
	</node>
	<node id="9867641681" lat="68.5032973" lon="16.9094168" version="1" timestamp="2022-07-05T08:08:43Z" changeset="123222468" uid="3497659" user="NKA">
		<tag k="name" v="Nyborg" />
		<tag k="place" v="farm" />
		<tag k="ssr:stedsnr" v="692185" />
	</node>
	<node id="9867641682" lat="68.4803182" lon="16.8849621" version="1" timestamp="2022-07-05T08:08:43Z" changeset="123222468" uid="3497659" user="NKA">
		<tag k="name" v="Bjørklund" />
		<tag k="place" v="farm" />
		<tag k="ssr:stedsnr" v="461609" />
	</node>
	<node id="9867641683" lat="68.5156278" lon="16.744511" version="1" timestamp="2022-07-05T08:08:43Z" changeset="123222468" uid="3497659" user="NKA">
		<tag k="name" v="Nordås" />
		<tag k="place" v="farm" />
		<tag k="ssr:stedsnr" v="263811" />
	</node>
	<node id="9867641684" lat="68.5039333" lon="16.9186084" version="1" timestamp="2022-07-05T08:08:43Z" changeset="123222468" uid="3497659" user="NKA">
		<tag k="name" v="Bjørkmo" />
		<tag k="place" v="farm" />
		<tag k="ssr:stedsnr" v="692184" />
	</node>
	<node id="9867641685" lat="68.5091223" lon="16.924361" version="1" timestamp="2022-07-05T08:08:43Z" changeset="123222468" uid="3497659" user="NKA">
		<tag k="name" v="Nyborg" />
		<tag k="place" v="farm" />
		<tag k="ssr:stedsnr" v="450794" />
	</node>
	<node id="9867641686" lat="68.5102462" lon="16.7488196" version="1" timestamp="2022-07-05T08:08:43Z" changeset="123222468" uid="3497659" user="NKA">
		<tag k="name" v="Dalhaugen" />
		<tag k="place" v="farm" />
		<tag k="ssr:stedsnr" v="263818" />
	</node>
	<node id="9867641687" lat="68.4967277" lon="16.8997333" version="1" timestamp="2022-07-05T08:08:43Z" changeset="123222468" uid="3497659" user="NKA">
		<tag k="name" v="Øvergaarden" />
		<tag k="place" v="farm" />
		<tag k="ssr:stedsnr" v="86239" />
	</node>
	<node id="9867641688" lat="68.5003204" lon="16.814074" version="1" timestamp="2022-07-05T08:08:43Z" changeset="123222468" uid="3497659" user="NKA">
		<tag k="alt_name" v="Osmarken" />
		<tag k="name" v="Osmarka" />
		<tag k="place" v="farm" />
		<tag k="ssr:stedsnr" v="262951" />
	</node>
	<node id="9867641689" lat="68.4631167" lon="17.2078805" version="1" timestamp="2022-07-05T08:08:43Z" changeset="123222468" uid="3497659" user="NKA">
		<tag k="name" v="Veggfjellet" />
		<tag k="place" v="farm" />
		<tag k="ssr:stedsnr" v="381502" />
	</node>
	<node id="9867641690" lat="68.4987223" lon="16.7510944" version="1" timestamp="2022-07-05T08:08:43Z" changeset="123222468" uid="3497659" user="NKA">
		<tag k="name" v="Finnhaugen - Čorru" />
		<tag k="name:no" v="Finnhaugen" />
		<tag k="name:se" v="Čorru" />
		<tag k="place" v="hamlet" />
		<tag k="ssr:stedsnr" v="101475" />
	</node>
	<node id="9867641691" lat="68.4591722" lon="16.7327861" version="1" timestamp="2022-07-05T08:08:43Z" changeset="123222468" uid="3497659" user="NKA">
		<tag k="name" v="Bergan" />
		<tag k="place" v="farm" />
		<tag k="ssr:stedsnr" v="78457" />
	</node>
	<node id="9867641692" lat="68.4804573" lon="16.9474795" version="1" timestamp="2022-07-05T08:08:43Z" changeset="123222468" uid="3497659" user="NKA">
		<tag k="name" v="Gammelgården" />
		<tag k="place" v="farm" />
		<tag k="ssr:stedsnr" v="463047" />
	</node>
	<node id="9867641693" lat="68.5348084" lon="16.7789167" version="1" timestamp="2022-07-05T08:08:43Z" changeset="123222468" uid="3497659" user="NKA">
		<tag k="alt_name" v="Solhaug" />
		<tag k="name" v="Sollihaug" />
		<tag k="place" v="farm" />
		<tag k="ssr:stedsnr" v="202790" />
	</node>
	<node id="9867641694" lat="68.5052333" lon="16.9156527" version="1" timestamp="2022-07-05T08:08:43Z" changeset="123222468" uid="3497659" user="NKA">
		<tag k="name" v="Fjellheim" />
		<tag k="place" v="farm" />
		<tag k="ssr:stedsnr" v="450199" />
	</node>
	<node id="9867641695" lat="68.4978971" lon="16.9132705" version="1" timestamp="2022-07-05T08:08:43Z" changeset="123222468" uid="3497659" user="NKA">
		<tag k="name" v="Leiros" />
		<tag k="place" v="farm" />
		<tag k="ssr:stedsnr" v="279581" />
	</node>
	<node id="9867641696" lat="68.5010528" lon="17.0797973" version="1" timestamp="2022-07-05T08:08:43Z" changeset="123222468" uid="3497659" user="NKA">
		<tag k="name" v="Østervika - Eavsttárviika" />
		<tag k="name:no" v="Østervika" />
		<tag k="name:se" v="Eavsttárviika" />
		<tag k="place" v="farm" />
		<tag k="ssr:stedsnr" v="987556" />
	</node>
	<node id="9867641697" lat="68.4867194" lon="16.9100111" version="1" timestamp="2022-07-05T08:08:43Z" changeset="123222468" uid="3497659" user="NKA">
		<tag k="name" v="Sunnbakk" />
		<tag k="place" v="farm" />
		<tag k="ssr:stedsnr" v="281059" />
	</node>
	<node id="9867641698" lat="68.5257083" lon="16.9904138" version="1" timestamp="2022-07-05T08:08:43Z" changeset="123222468" uid="3497659" user="NKA">
		<tag k="name" v="Strand" />
		<tag k="place" v="neighbourhood" />
		<tag k="ssr:stedsnr" v="389773" />
	</node>
	<node id="9867641699" lat="68.4917191" lon="16.8180759" version="1" timestamp="2022-07-05T08:08:43Z" changeset="123222468" uid="3497659" user="NKA">
		<tag k="name" v="Osvatnet" />
		<tag k="place" v="locality" />
		<tag k="ssr:stedsnr" v="1076429" />
	</node>
	<node id="9867641700" lat="68.4938778" lon="16.756825" version="1" timestamp="2022-07-05T08:08:43Z" changeset="123222468" uid="3497659" user="NKA">
		<tag k="name" v="Dalbakken" />
		<tag k="place" v="farm" />
		<tag k="ssr:stedsnr" v="874343" />
	</node>
	<node id="9867641701" lat="68.5114371" lon="17.0476243" version="1" timestamp="2022-07-05T08:08:43Z" changeset="123222468" uid="3497659" user="NKA">
		<tag k="name" v="Ljøra" />
		<tag k="place" v="farm" />
		<tag k="ssr:stedsnr" v="328888" />
	</node>
	<node id="9867641702" lat="68.4992961" lon="16.9107342" version="1" timestamp="2022-07-05T08:08:43Z" changeset="123222468" uid="3497659" user="NKA">
		<tag k="name" v="Moen" />
		<tag k="place" v="farm" />
		<tag k="ssr:stedsnr" v="146218" />
	</node>
	<node id="9867641703" lat="68.501" lon="16.7515751" version="1" timestamp="2022-07-05T08:08:43Z" changeset="123222468" uid="3497659" user="NKA">
		<tag k="historic" v="shieling" />
		<tag k="name" v="Goahtesadji" />
		<tag k="name:se" v="Goahtesadji" />
		<tag k="place" v="isolated_dwelling" />
		<tag k="ssr:stedsnr" v="874347" />
	</node>
	<node id="9867641704" lat="68.4985806" lon="16.9167194" version="1" timestamp="2022-07-05T08:08:43Z" changeset="123222468" uid="3497659" user="NKA">
		<tag k="name" v="Høytomt" />
		<tag k="place" v="farm" />
		<tag k="ssr:stedsnr" v="328193" />
	</node>
	<node id="9867641705" lat="68.4811084" lon="16.8844473" version="1" timestamp="2022-07-05T08:08:43Z" changeset="123222468" uid="3497659" user="NKA">
		<tag k="name" v="Birkelund" />
		<tag k="place" v="farm" />
		<tag k="ssr:stedsnr" v="342059" />
	</node>
	<node id="9867641706" lat="68.4986361" lon="16.9052833" version="1" timestamp="2022-07-05T08:08:43Z" changeset="123222468" uid="3497659" user="NKA">
		<tag k="name" v="Bjerkaas" />
		<tag k="place" v="farm" />
		<tag k="ssr:stedsnr" v="328207" />
	</node>
	<node id="9867641707" lat="68.5318474" lon="16.775476" version="1" timestamp="2022-07-05T08:08:43Z" changeset="123222468" uid="3497659" user="NKA">
		<tag k="alt_name" v="Sørkvitfors" />
		<tag k="loc_name" v="Kvitfors" />
		<tag k="name" v="Sør-Kvitfors" />
		<tag k="place" v="hamlet" />
		<tag k="ssr:stedsnr" v="869806" />
	</node>
	<node id="9867641708" lat="68.46491" lon="16.7763732" version="1" timestamp="2022-07-05T08:08:43Z" changeset="123222468" uid="3497659" user="NKA">
		<tag k="name" v="Lien" />
		<tag k="place" v="farm" />
		<tag k="ssr:stedsnr" v="642583" />
	</node>
	<node id="9867641709" lat="68.48335" lon="16.8941334" version="1" timestamp="2022-07-05T08:08:43Z" changeset="123222468" uid="3497659" user="NKA">
		<tag k="name" v="Bjellgam - Bealgápmá" />
		<tag k="name:no" v="Bjellgam" />
		<tag k="name:se" v="Bealgápmá" />
		<tag k="place" v="farm" />
		<tag k="ssr:stedsnr" v="77551" />
	</node>
	<node id="9867641710" lat="68.4804615" lon="16.940963" version="1" timestamp="2022-07-05T08:08:43Z" changeset="123222468" uid="3497659" user="NKA">
		<tag k="alt_name" v="Øyen" />
		<tag k="name" v="Øya" />
		<tag k="place" v="farm" />
		<tag k="ssr:stedsnr" v="928475" />
	</node>
	<node id="9867641711" lat="68.4985167" lon="16.7483416" version="1" timestamp="2022-07-05T08:08:43Z" changeset="123222468" uid="3497659" user="NKA">
		<tag k="name" v="Vesterheim" />
		<tag k="place" v="farm" />
		<tag k="ssr:stedsnr" v="570282" />
	</node>
	<node id="9867641712" lat="68.4982389" lon="16.7385917" version="1" timestamp="2022-07-05T08:08:43Z" changeset="123222468" uid="3497659" user="NKA">
		<tag k="name" v="Øverland" />
		<tag k="place" v="farm" />
		<tag k="ssr:stedsnr" v="814389" />
	</node>
	<node id="9867641713" lat="68.4805972" lon="16.7119221" version="1" timestamp="2022-07-05T08:08:43Z" changeset="123222468" uid="3497659" user="NKA">
		<tag k="name" v="Solvoll" />
		<tag k="place" v="farm" />
		<tag k="ssr:stedsnr" v="805446" />
	</node>
	<node id="9867641714" lat="68.5134417" lon="16.9345417" version="1" timestamp="2022-07-05T08:08:43Z" changeset="123222468" uid="3497659" user="NKA">
		<tag k="name" v="Løknes" />
		<tag k="place" v="farm" />
		<tag k="ssr:stedsnr" v="25805" />
	</node>
	<node id="9867641715" lat="68.4664706" lon="17.2521332" version="1" timestamp="2022-07-05T08:08:43Z" changeset="123222468" uid="3497659" user="NKA">
		<tag k="name" v="Gammelgården" />
		<tag k="place" v="farm" />
		<tag k="ssr:stedsnr" v="39064" />
	</node>
	<node id="9867641716" lat="68.516375" lon="16.7528417" version="1" timestamp="2022-07-05T08:08:43Z" changeset="123222468" uid="3497659" user="NKA">
		<tag k="name" v="Nordheim" />
		<tag k="place" v="farm" />
		<tag k="ssr:stedsnr" v="930825" />
	</node>
	<node id="9867641717" lat="68.4666396" lon="16.657261" version="1" timestamp="2022-07-05T08:08:43Z" changeset="123222468" uid="3497659" user="NKA">
		<tag k="name" v="Nordheim" />
		<tag k="place" v="farm" />
		<tag k="ssr:stedsnr" v="664522" />
	</node>
	<node id="9867641718" lat="68.5154722" lon="16.7413416" version="1" timestamp="2022-07-05T08:08:43Z" changeset="123222468" uid="3497659" user="NKA">
		<tag k="name" v="Elvebakken - Boalajoarkka" />
		<tag k="name:no" v="Elvebakken" />
		<tag k="name:se" v="Boalajoarkka" />
		<tag k="place" v="farm" />
		<tag k="ssr:stedsnr" v="725594" />
	</node>
	<node id="9867641719" lat="68.4868833" lon="16.7153" version="1" timestamp="2022-07-05T08:08:43Z" changeset="123222468" uid="3497659" user="NKA">
		<tag k="name" v="Sørås" />
		<tag k="place" v="farm" />
		<tag k="ssr:stedsnr" v="502381" />
	</node>
	<node id="9867641720" lat="68.4975756" lon="16.9055066" version="1" timestamp="2022-07-05T08:08:43Z" changeset="123222468" uid="3497659" user="NKA">
		<tag k="name" v="Osen" />
		<tag k="place" v="hamlet" />
		<tag k="ssr:stedsnr" v="78531" />
	</node>
	<node id="9867641721" lat="68.5263782" lon="16.7721641" version="1" timestamp="2022-07-05T08:08:43Z" changeset="123222468" uid="3497659" user="NKA">
		<tag k="name" v="Myrnes - Gállogieddi" />
		<tag k="name:no" v="Myrnes" />
		<tag k="name:se" v="Gállogieddi" />
		<tag k="place" v="farm" />
		<tag k="ssr:stedsnr" v="444783" />
	</node>
	<node id="9867641722" lat="68.4827055" lon="16.7040166" version="1" timestamp="2022-07-05T08:08:43Z" changeset="123222468" uid="3497659" user="NKA">
		<tag k="name" v="Myrland" />
		<tag k="place" v="farm" />
		<tag k="ssr:stedsnr" v="441434" />
	</node>
	<node id="9867641723" lat="68.4998972" lon="16.7505332" version="1" timestamp="2022-07-05T08:08:43Z" changeset="123222468" uid="3497659" user="NKA">
		<tag k="name" v="Finnhaug - Čorru" />
		<tag k="name:no" v="Finnhaug" />
		<tag k="name:se" v="Čorru" />
		<tag k="old_name:no" v="Finhaug" />
		<tag k="place" v="farm" />
		<tag k="ssr:stedsnr" v="328300" />
	</node>
	<node id="9867641724" lat="68.467425" lon="16.7867082" version="1" timestamp="2022-07-05T08:08:43Z" changeset="123222468" uid="3497659" user="NKA">
		<tag k="name" v="Dalen" />
		<tag k="place" v="farm" />
		<tag k="ssr:stedsnr" v="58647" />
	</node>
	<node id="9867641725" lat="68.4691167" lon="16.7035805" version="1" timestamp="2022-07-05T08:08:43Z" changeset="123222468" uid="3497659" user="NKA">
		<tag k="name" v="Nordvang" />
		<tag k="place" v="farm" />
		<tag k="ssr:stedsnr" v="259411" />
	</node>
	<node id="9867641726" lat="68.5357139" lon="17.1816945" version="1" timestamp="2022-07-05T08:08:43Z" changeset="123222468" uid="3497659" user="NKA">
		<tag k="name" v="Larsgamtuften" />
		<tag k="place" v="farm" />
		<tag k="ssr:stedsnr" v="449990" />
	</node>
	<node id="9867641727" lat="68.5242994" lon="16.9801087" version="1" timestamp="2022-07-05T08:08:43Z" changeset="123222468" uid="3497659" user="NKA">
		<tag k="name" v="Nystrand" />
		<tag k="place" v="farm" />
		<tag k="ssr:stedsnr" v="1072367" />
	</node>
	<node id="9867641728" lat="68.5357095" lon="17.0222345" version="1" timestamp="2022-07-05T08:08:43Z" changeset="123222468" uid="3497659" user="NKA">
		<tag k="name" v="Strand" />
		<tag k="place" v="farm" />
		<tag k="ssr:stedsnr" v="160033" />
	</node>
	<node id="9867641729" lat="68.4867278" lon="16.7341361" version="1" timestamp="2022-07-05T08:08:43Z" changeset="123222468" uid="3497659" user="NKA">
		<tag k="name" v="Tverrfjell" />
		<tag k="place" v="farm" />
		<tag k="ssr:stedsnr" v="927403" />
	</node>
	<node id="9867641730" lat="68.4676694" lon="16.6582418" version="1" timestamp="2022-07-05T08:08:43Z" changeset="123222468" uid="3497659" user="NKA">
		<tag k="alt_name" v="Breidgotta" />
		<tag k="name" v="Breigotta" />
		<tag k="place" v="farm" />
		<tag k="ssr:stedsnr" v="17445" />
	</node>
	<node id="9867641731" lat="68.4998083" lon="16.6469304" version="1" timestamp="2022-07-05T08:08:43Z" changeset="123222468" uid="3497659" user="NKA">
		<tag k="name" v="Heimås" />
		<tag k="place" v="farm" />
		<tag k="ssr:stedsnr" v="17413" />
	</node>
	<node id="9867641732" lat="68.4573417" lon="16.6030888" version="1" timestamp="2022-07-05T08:08:43Z" changeset="123222468" uid="3497659" user="NKA">
		<tag k="name" v="Bakken" />
		<tag k="place" v="farm" />
		<tag k="ssr:stedsnr" v="571311" />
	</node>
	<node id="9867641733" lat="68.4942264" lon="16.7430575" version="1" timestamp="2022-07-05T08:08:43Z" changeset="123222468" uid="3497659" user="NKA">
		<tag k="name" v="Evenesmarka" />
		<tag k="place" v="hamlet" />
		<tag k="ssr:stedsnr" v="745408" />
	</node>
	<node id="9867641734" lat="68.4591533" lon="17.1228631" version="1" timestamp="2022-07-05T08:08:43Z" changeset="123222468" uid="3497659" user="NKA">
		<tag k="name" v="Indre Brenna - Buollám" />
		<tag k="name:no" v="Indre Brenna" />
		<tag k="name:se" v="Buollám" />
		<tag k="place" v="farm" />
		<tag k="ssr:stedsnr" v="987805" />
	</node>
	<node id="9867641735" lat="68.4652485" lon="17.0355557" version="1" timestamp="2022-07-05T08:08:43Z" changeset="123222468" uid="3497659" user="NKA">
		<tag k="name" v="Forra - Fárru" />
		<tag k="name:no" v="Forra" />
		<tag k="name:se" v="Fárru" />
		<tag k="place" v="hamlet" />
		<tag k="ssr:stedsnr" v="199501" />
	</node>
	<node id="9867641736" lat="68.4630472" lon="17.1501944" version="1" timestamp="2022-07-05T08:08:43Z" changeset="123222468" uid="3497659" user="NKA">
		<tag k="name" v="Sætran" />
		<tag k="place" v="locality" />
		<tag k="ssr:stedsnr" v="949034" />
	</node>
	<node id="9867641737" lat="68.4600972" lon="16.5999806" version="1" timestamp="2022-07-05T08:08:43Z" changeset="123222468" uid="3497659" user="NKA">
		<tag k="name" v="Øverlandet" />
		<tag k="place" v="farm" />
		<tag k="ssr:stedsnr" v="571310" />
	</node>
	<node id="9867641738" lat="68.4738999" lon="16.7102327" version="1" timestamp="2022-07-05T08:08:43Z" changeset="123222468" uid="3497659" user="NKA">
		<tag k="name" v="Åsheim" />
		<tag k="place" v="farm" />
		<tag k="ssr:stedsnr" v="199418" />
	</node>
	<node id="9867641739" lat="68.5132011" lon="16.7548608" version="1" timestamp="2022-07-05T08:08:43Z" changeset="123222468" uid="3497659" user="NKA">
		<tag k="alt_name" v="Fjellakslen" />
		<tag k="name" v="Fjellaksla" />
		<tag k="place" v="farm" />
		<tag k="ssr:stedsnr" v="566828" />
	</node>
	<node id="9867641740" lat="68.4678139" lon="17.0696193" version="1" timestamp="2022-07-05T08:08:43Z" changeset="123222468" uid="3497659" user="NKA">
		<tag k="name" v="Lemmen" />
		<tag k="place" v="farm" />
		<tag k="ssr:stedsnr" v="17520" />
	</node>
	<node id="9867641741" lat="68.5022333" lon="16.7418916" version="1" timestamp="2022-07-05T08:08:43Z" changeset="123222468" uid="3497659" user="NKA">
		<tag k="alt_name" v="Lyngmoen" />
		<tag k="name" v="Lyngmo" />
		<tag k="place" v="farm" />
		<tag k="ssr:stedsnr" v="565943" />
	</node>
	<node id="9867641742" lat="68.4690278" lon="16.8200257" version="1" timestamp="2022-07-05T08:08:43Z" changeset="123222468" uid="3497659" user="NKA">
		<tag k="alt_name" v="Lilandskardet" />
		<tag k="name" v="Lilandskar" />
		<tag k="place" v="farm" />
		<tag k="ssr:stedsnr" v="563493" />
	</node>
	<node id="9867641743" lat="68.5126527" lon="16.7215721" version="1" timestamp="2022-07-05T08:08:43Z" changeset="123222468" uid="3497659" user="NKA">
		<tag k="alt_name" v="Fagerlid" />
		<tag k="name" v="Fagerli" />
		<tag k="place" v="farm" />
		<tag k="ssr:stedsnr" v="566824" />
	</node>
	<node id="9867641744" lat="68.4657722" lon="17.2251334" version="1" timestamp="2022-07-05T08:08:43Z" changeset="123222468" uid="3497659" user="NKA">
		<tag k="name" v="Lundvoll" />
		<tag k="place" v="farm" />
		<tag k="ssr:stedsnr" v="685488" />
	</node>
	<node id="9867641745" lat="68.4554611" lon="16.720075" version="1" timestamp="2022-07-05T08:08:43Z" changeset="123222468" uid="3497659" user="NKA">
		<tag k="name" v="Rørvika" />
		<tag k="place" v="hamlet" />
		<tag k="ssr:stedsnr" v="927446" />
	</node>
	<node id="9867641746" lat="68.528075" lon="16.7689832" version="1" timestamp="2022-07-05T08:08:43Z" changeset="123222468" uid="3497659" user="NKA">
		<tag k="name" v="Myrland" />
		<tag k="place" v="farm" />
		<tag k="ssr:stedsnr" v="664632" />
	</node>
	<node id="9867641747" lat="68.4646305" lon="16.6424306" version="1" timestamp="2022-07-05T08:08:43Z" changeset="123222468" uid="3497659" user="NKA">
		<tag k="name" v="Osvoll" />
		<tag k="place" v="farm" />
		<tag k="ssr:stedsnr" v="631260" />
	</node>
	<node id="9867641748" lat="68.4746" lon="16.673936" version="1" timestamp="2022-07-05T08:08:43Z" changeset="123222468" uid="3497659" user="NKA">
		<tag k="name" v="Brennhaugen" />
		<tag k="place" v="farm" />
		<tag k="ssr:stedsnr" v="684417" />
	</node>
	<node id="9867641749" lat="68.5246917" lon="16.7673695" version="1" timestamp="2022-07-05T08:08:43Z" changeset="123222468" uid="3497659" user="NKA">
		<tag k="alt_name" v="Vindal" />
		<tag k="name" v="Vinddal" />
		<tag k="place" v="farm" />
		<tag k="ssr:stedsnr" v="323792" />
	</node>
	<node id="9867641750" lat="68.5333498" lon="16.7789106" version="1" timestamp="2022-07-05T08:08:43Z" changeset="123222468" uid="3497659" user="NKA">
		<tag k="name" v="Fjellelva" />
		<tag k="place" v="farm" />
		<tag k="ssr:stedsnr" v="444772" />
	</node>
	<node id="9867641751" lat="68.5227222" lon="17.1506278" version="1" timestamp="2022-07-05T08:08:43Z" changeset="123222468" uid="3497659" user="NKA">
		<tag k="name" v="Susannadungan" />
		<tag k="place" v="farm" />
		<tag k="ssr:stedsnr" v="268908" />
	</node>
	<node id="9867641752" lat="68.4615938" lon="17.1680161" version="1" timestamp="2022-07-05T08:08:43Z" changeset="123222468" uid="3497659" user="NKA">
		<tag k="name" v="Sølvstein" />
		<tag k="place" v="farm" />
		<tag k="ssr:stedsnr" v="703657" />
	</node>
	<node id="9867641753" lat="68.4648778" lon="16.7800582" version="1" timestamp="2022-07-05T08:08:43Z" changeset="123222468" uid="3497659" user="NKA">
		<tag k="name" v="Haugen" />
		<tag k="place" v="farm" />
		<tag k="ssr:stedsnr" v="300551" />
	</node>
	<node id="9867641754" lat="68.5102611" lon="16.7487749" version="1" timestamp="2022-07-05T08:08:43Z" changeset="123222468" uid="3497659" user="NKA">
		<tag k="loc_name:no" v="Lavangseidet" />
		<tag k="name" v="Loabákáidi" />
		<tag k="name:se" v="Loabákáidi" />
		<tag k="place" v="quarter" />
		<tag k="ssr:stedsnr" v="422414" />
	</node>
	<node id="9867641755" lat="68.5318481" lon="17.0171567" version="1" timestamp="2022-07-05T08:08:43Z" changeset="123222468" uid="3497659" user="NKA">
		<tag k="name" v="Stuven" />
		<tag k="place" v="farm" />
		<tag k="ssr:stedsnr" v="645035" />
	</node>
	<node id="9867641756" lat="68.5204827" lon="16.9664963" version="1" timestamp="2022-07-05T08:08:43Z" changeset="123222468" uid="3497659" user="NKA">
		<tag k="name" v="Slettebakk" />
		<tag k="place" v="farm" />
		<tag k="ssr:stedsnr" v="572353" />
	</node>
	<node id="9867641757" lat="68.4610084" lon="16.6773833" version="1" timestamp="2022-07-05T08:08:43Z" changeset="123222468" uid="3497659" user="NKA">
		<tag k="name" v="Løvollen" />
		<tag k="place" v="farm" />
		<tag k="ssr:stedsnr" v="259452" />
	</node>
	<node id="9867641758" lat="68.4613237" lon="16.7417854" version="1" timestamp="2022-07-05T08:08:43Z" changeset="123222468" uid="3497659" user="NKA">
		<tag k="alt_name" v="Lien" />
		<tag k="name" v="Lia" />
		<tag k="place" v="farm" />
		<tag k="ssr:stedsnr" v="78458" />
	</node>
	<node id="9867641759" lat="68.5349457" lon="16.7771815" version="1" timestamp="2022-07-05T08:08:43Z" changeset="123222468" uid="3497659" user="NKA">
		<tag k="name" v="Moski" />
		<tag k="name:se" v="Moski" />
		<tag k="place" v="hamlet" />
		<tag k="ssr:stedsnr" v="222446" />
	</node>
	<node id="9867641760" lat="68.5117232" lon="16.7500243" version="1" timestamp="2022-07-05T08:08:43Z" changeset="123222468" uid="3497659" user="NKA">
		<tag k="name" v="Sommerbakken" />
		<tag k="place" v="farm" />
		<tag k="ssr:stedsnr" v="118604" />
	</node>
	<node id="9867641761" lat="68.5355334" lon="16.7790721" version="1" timestamp="2022-07-05T08:08:43Z" changeset="123222468" uid="3497659" user="NKA">
		<tag k="name" v="Nordheim" />
		<tag k="place" v="farm" />
		<tag k="ssr:stedsnr" v="903842" />
	</node>
	<node id="9867641762" lat="68.4950222" lon="16.7622168" version="1" timestamp="2022-07-05T08:08:43Z" changeset="123222468" uid="3497659" user="NKA">
		<tag k="name" v="Storbakken" />
		<tag k="place" v="farm" />
		<tag k="ssr:stedsnr" v="207327" />
	</node>
	<node id="9867641763" lat="68.5120765" lon="16.7426087" version="1" timestamp="2022-07-05T08:08:43Z" changeset="123222468" uid="3497659" user="NKA">
		<tag k="name" v="Dalshaugen" />
		<tag k="place" v="farm" />
		<tag k="ssr:stedsnr" v="1076428" />
	</node>
	<node id="9867641764" lat="68.5151111" lon="16.7292721" version="1" timestamp="2022-07-05T08:08:43Z" changeset="123222468" uid="3497659" user="NKA">
		<tag k="name" v="Nordbakk" />
		<tag k="place" v="farm" />
		<tag k="ssr:stedsnr" v="141789" />
	</node>
	<node id="9867641765" lat="68.5000972" lon="16.711911" version="1" timestamp="2022-07-05T08:08:43Z" changeset="123222468" uid="3497659" user="NKA">
		<tag k="name" v="Lundemo" />
		<tag k="place" v="farm" />
		<tag k="ssr:stedsnr" v="141957" />
	</node>
	<node id="9867641766" lat="68.4571764" lon="17.0216206" version="1" timestamp="2022-07-05T08:08:43Z" changeset="123222468" uid="3497659" user="NKA">
		<tag k="name" v="Tangås" />
		<tag k="place" v="farm" />
		<tag k="ssr:stedsnr" v="461675" />
	</node>
	<node id="9867641767" lat="68.4575528" lon="16.6943917" version="1" timestamp="2022-07-05T08:08:43Z" changeset="123222468" uid="3497659" user="NKA">
		<tag k="name" v="Lunnan" />
		<tag k="place" v="farm" />
		<tag k="ssr:stedsnr" v="571363" />
	</node>
	<node id="9867641768" lat="68.5139056" lon="16.7529695" version="1" timestamp="2022-07-05T08:08:43Z" changeset="123222468" uid="3497659" user="NKA">
		<tag k="name" v="Myrbakken" />
		<tag k="place" v="farm" />
		<tag k="ssr:stedsnr" v="58672" />
	</node>
	<node id="9867641769" lat="68.5126079" lon="17.0579817" version="1" timestamp="2022-07-05T08:08:43Z" changeset="123222468" uid="3497659" user="NKA">
		<tag k="name" v="Gulljorda" />
		<tag k="place" v="farm" />
		<tag k="ssr:stedsnr" v="631899" />
	</node>
	<node id="9867641770" lat="68.5094222" lon="17.0533583" version="1" timestamp="2022-07-05T08:08:43Z" changeset="123222468" uid="3497659" user="NKA">
		<tag k="name" v="Haugen" />
		<tag k="place" v="farm" />
		<tag k="ssr:stedsnr" v="814900" />
	</node>
	<node id="9867641771" lat="68.4672444" lon="16.7407806" version="1" timestamp="2022-07-05T08:08:43Z" changeset="123222468" uid="3497659" user="NKA">
		<tag k="name" v="Sætran" />
		<tag k="place" v="locality" />
		<tag k="ssr:stedsnr" v="543610" />
	</node>
	<node id="9867641772" lat="68.5185306" lon="17.1412862" version="1" timestamp="2022-07-05T08:08:43Z" changeset="123222468" uid="3497659" user="NKA">
		<tag k="name" v="Skjellhaugen" />
		<tag k="place" v="farm" />
		<tag k="ssr:stedsnr" v="571907" />
	</node>
	<node id="9867641773" lat="68.4920889" lon="16.7302779" version="1" timestamp="2022-07-05T08:08:43Z" changeset="123222468" uid="3497659" user="NKA">
		<tag k="name" v="Bergmark" />
		<tag k="place" v="farm" />
		<tag k="ssr:stedsnr" v="268345" />
	</node>
	<node id="9867641774" lat="68.5268162" lon="16.7765047" version="1" timestamp="2022-07-05T08:08:43Z" changeset="123222468" uid="3497659" user="NKA">
		<tag k="loc_name:se" v="Gállogieddi" />
		<tag k="name" v="Myrnes søndre" />
		<tag k="name:no" v="Myrnes søndre" />
		<tag k="place" v="farm" />
		<tag k="ssr:stedsnr" v="952631" />
	</node>
	<node id="9867641775" lat="68.4590503" lon="17.1135463" version="1" timestamp="2022-07-05T08:08:43Z" changeset="123222468" uid="3497659" user="NKA">
		<tag k="alt_name:no" v="Brenna ytre" />
		<tag k="name" v="Brenna - Buollám" />
		<tag k="name:no" v="Brenna" />
		<tag k="name:se" v="Buollám" />
		<tag k="place" v="farm" />
		<tag k="ssr:stedsnr" v="624974" />
	</node>
	<node id="9867641776" lat="68.4822056" lon="16.8860028" version="1" timestamp="2022-07-05T08:08:43Z" changeset="123222468" uid="3497659" user="NKA">
		<tag k="name" v="Bjellund" />
		<tag k="place" v="farm" />
		<tag k="ssr:stedsnr" v="684519" />
	</node>
	<node id="9867641777" lat="68.5124852" lon="17.0371914" version="1" timestamp="2022-07-05T08:08:43Z" changeset="123222468" uid="3497659" user="NKA">
		<tag k="alt_name:no" v="Lenvik" />
		<tag k="name" v="Lenvika - Leaŋgaviika" />
		<tag k="name:no" v="Lenvika" />
		<tag k="name:se" v="Leaŋgaviika" />
		<tag k="place" v="farm" />
		<tag k="ssr:stedsnr" v="987809" />
	</node>
	<node id="9867641778" lat="68.5100962" lon="17.0587654" version="1" timestamp="2022-07-05T08:08:43Z" changeset="123222468" uid="3497659" user="NKA">
		<tag k="name" v="Lenvika - Leaŋgaviika" />
		<tag k="name:no" v="Lenvika" />
		<tag k="name:se" v="Leaŋgaviika" />
		<tag k="place" v="hamlet" />
		<tag k="ssr:stedsnr" v="445643" />
	</node>
	<node id="9867641779" lat="68.4613434" lon="17.1667978" version="1" timestamp="2022-07-05T08:08:43Z" changeset="123222468" uid="3497659" user="NKA">
		<tag k="alt_name:no" v="Sølvsteinlien" />
		<tag k="name" v="Sølvsteinlia - Silbagoaluohkká" />
		<tag k="name:no" v="Sølvsteinlia" />
		<tag k="name:se" v="Silbagoaluohkká" />
		<tag k="place" v="hamlet" />
		<tag k="ssr:stedsnr" v="624506" />
	</node>
	<node id="9867641780" lat="68.4997361" lon="16.7017749" version="1" timestamp="2022-07-05T08:08:43Z" changeset="123222468" uid="3497659" user="NKA">
		<tag k="name" v="Skoglund" />
		<tag k="place" v="farm" />
		<tag k="ssr:stedsnr" v="449047" />
	</node>
	<node id="9867641781" lat="68.4637583" lon="17.2165251" version="1" timestamp="2022-07-05T08:08:43Z" changeset="123222468" uid="3497659" user="NKA">
		<tag k="name" v="Myrvoll" />
		<tag k="place" v="farm" />
		<tag k="ssr:stedsnr" v="78494" />
	</node>
	<node id="9867641782" lat="68.4574747" lon="17.1383504" version="1" timestamp="2022-07-05T08:08:43Z" changeset="123222468" uid="3497659" user="NKA">
		<tag k="name" v="Veggen - Veaggu" />
		<tag k="name:no" v="Veggen" />
		<tag k="name:se" v="Veaggu" />
		<tag k="place" v="farm" />
		<tag k="ssr:stedsnr" v="987808" />
	</node>
	<node id="9867641783" lat="68.4559422" lon="16.5953784" version="1" timestamp="2022-07-05T08:08:43Z" changeset="123222468" uid="3497659" user="NKA">
		<tag k="name" v="Skar - Skárddik" />
		<tag k="name:no" v="Skar" />
		<tag k="name:se" v="Skárddik" />
		<tag k="place" v="hamlet" />
		<tag k="ssr:stedsnr" v="969529" />
	</node>
	<node id="9867641784" lat="68.4699275" lon="17.0863836" version="1" timestamp="2022-07-05T08:08:43Z" changeset="123222468" uid="3497659" user="NKA">
		<tag k="name" v="Botnmarka" />
		<tag k="place" v="hamlet" />
		<tag k="ssr:stedsnr" v="685495" />
	</node>
	<node id="9867641785" lat="68.5239917" lon="17.1546202" version="1" timestamp="2022-07-05T08:08:43Z" changeset="123222468" uid="3497659" user="NKA">
		<tag k="alt_name" v="Lenvikmark" />
		<tag k="name" v="Lenvikmarka" />
		<tag k="place" v="farm" />
		<tag k="ssr:stedsnr" v="207897" />
	</node>
	<node id="9867641786" lat="68.4909889" lon="17.0985055" version="1" timestamp="2022-07-05T08:08:43Z" changeset="123222468" uid="3497659" user="NKA">
		<tag k="name" v="Østervikstranda" />
		<tag k="place" v="farm" />
		<tag k="ssr:stedsnr" v="441534" />
	</node>
	<node id="9867641787" lat="68.4824121" lon="17.1100945" version="1" timestamp="2022-07-05T08:08:43Z" changeset="123222468" uid="3497659" user="NKA">
		<tag k="loc_name:se" v="Boahttan" />
		<tag k="name" v="Botn" />
		<tag k="name:no" v="Botn" />
		<tag k="place" v="hamlet" />
		<tag k="ssr:stedsnr" v="441527" />
	</node>
	<node id="9867641788" lat="68.4758444" lon="16.6984529" version="1" timestamp="2022-07-05T08:08:43Z" changeset="123222468" uid="3497659" user="NKA">
		<tag k="name" v="Fredly" />
		<tag k="place" v="farm" />
		<tag k="ssr:stedsnr" v="502431" />
	</node>
	<node id="9867641789" lat="68.5346785" lon="17.0063563" version="1" timestamp="2022-07-05T08:08:43Z" changeset="123222468" uid="3497659" user="NKA">
		<tag k="name" v="Østgård" />
		<tag k="place" v="farm" />
		<tag k="ssr:stedsnr" v="221069" />
	</node>
	<node id="9867641790" lat="68.5037555" lon="17.080475" version="1" timestamp="2022-07-05T08:08:43Z" changeset="123222468" uid="3497659" user="NKA">
		<tag k="name" v="Brekka" />
		<tag k="place" v="farm" />
		<tag k="ssr:stedsnr" v="571847" />
	</node>
	<node id="9867641791" lat="68.4610583" lon="17.1750333" version="1" timestamp="2022-07-05T08:08:43Z" changeset="123222468" uid="3497659" user="NKA">
		<tag k="name" v="Steinmoen" />
		<tag k="place" v="farm" />
		<tag k="ssr:stedsnr" v="273101" />
	</node>
	<node id="9867641792" lat="68.4927472" lon="16.6501722" version="1" timestamp="2022-07-05T08:08:43Z" changeset="123222468" uid="3497659" user="NKA">
		<tag k="name" v="Kvassåsen" />
		<tag k="place" v="farm" />
		<tag k="ssr:stedsnr" v="320383" />
	</node>
	<node id="9867641793" lat="68.4656889" lon="17.2311195" version="1" timestamp="2022-07-05T08:08:43Z" changeset="123222468" uid="3497659" user="NKA">
		<tag k="name" v="Stimoen - Áidarasbákti" />
		<tag k="name:no" v="Stimoen" />
		<tag k="name:se" v="Áidarasbákti" />
		<tag k="place" v="farm" />
		<tag k="ssr:stedsnr" v="928462" />
	</node>
	<node id="9867641794" lat="68.5285194" lon="16.7683723" version="1" timestamp="2022-07-05T08:08:43Z" changeset="123222468" uid="3497659" user="NKA">
		<tag k="name" v="Myrnes - Várivuolli" />
		<tag k="name:no" v="Myrnes" />
		<tag k="name:se" v="Várivuolli" />
		<tag k="place" v="hamlet" />
		<tag k="ssr:stedsnr" v="404462" />
	</node>
	<node id="9867641795" lat="68.4940694" lon="16.6302028" version="1" timestamp="2022-07-05T08:08:43Z" changeset="123222468" uid="3497659" user="NKA">
		<tag k="alt_name" v="Høyaas vestre" />
		<tag k="name" v="Høgås" />
		<tag k="place" v="farm" />
		<tag k="ssr:stedsnr" v="320376" />
	</node>
	<node id="9867641796" lat="68.5316317" lon="16.7700514" version="1" timestamp="2022-07-05T08:08:43Z" changeset="123222468" uid="3497659" user="NKA">
		<tag k="name" v="Storelven" />
		<tag k="place" v="farm" />
		<tag k="ssr:stedsnr" v="296842" />
	</node>
	<node id="9867641797" lat="68.4892556" lon="16.6407834" version="1" timestamp="2022-07-05T08:08:43Z" changeset="123222468" uid="3497659" user="NKA">
		<tag k="alt_name" v="Trollkjerka" />
		<tag k="name" v="Trollkirka" />
		<tag k="place" v="locality" />
		<tag k="ssr:stedsnr" v="259376" />
	</node>
	<node id="9867641798" lat="68.5141036" lon="17.0168819" version="1" timestamp="2022-07-05T08:08:43Z" changeset="123222468" uid="3497659" user="NKA">
		<tag k="name" v="Kleiva" />
		<tag k="place" v="farm" />
		<tag k="ssr:stedsnr" v="141633" />
	</node>
	<node id="9867641799" lat="68.4681389" lon="16.7938946" version="1" timestamp="2022-07-05T08:08:43Z" changeset="123222468" uid="3497659" user="NKA">
		<tag k="name" v="Sommarvik" />
		<tag k="place" v="farm" />
		<tag k="ssr:stedsnr" v="179615" />
	</node>
	<node id="9867641800" lat="68.4938" lon="16.7722167" version="1" timestamp="2022-07-05T08:08:43Z" changeset="123222468" uid="3497659" user="NKA">
		<tag k="name" v="Slettvold" />
		<tag k="place" v="farm" />
		<tag k="ssr:stedsnr" v="146302" />
	</node>
	<node id="9867641801" lat="68.5181166" lon="16.8934279" version="1" timestamp="2022-07-05T08:08:43Z" changeset="123222468" uid="3497659" user="NKA">
		<tag k="name" v="Gamman" />
		<tag k="place" v="locality" />
		<tag k="ssr:stedsnr" v="464052" />
	</node>
	<node id="9867641802" lat="68.4975889" lon="16.6391862" version="1" timestamp="2022-07-05T08:08:43Z" changeset="123222468" uid="3497659" user="NKA">
		<tag k="name" v="Høyaas østre" />
		<tag k="place" v="isolated_dwelling" />
		<tag k="ssr:stedsnr" v="100432" />
	</node>
	<node id="9867641803" lat="68.532761" lon="17.1835481" version="1" timestamp="2022-07-05T08:08:43Z" changeset="123222468" uid="3497659" user="NKA">
		<tag k="name" v="Snubba - Duorga" />
		<tag k="name:no" v="Snubba" />
		<tag k="name:se" v="Duorga" />
		<tag k="place" v="hamlet" />
		<tag k="ssr:stedsnr" v="748597" />
	</node>
	<node id="9867641804" lat="68.4839202" lon="16.9025409" version="1" timestamp="2022-07-05T08:08:43Z" changeset="123222468" uid="3497659" user="NKA">
		<tag k="name" v="Bergli" />
		<tag k="place" v="farm" />
		<tag k="ssr:stedsnr" v="99067" />
	</node>
	<node id="9867641805" lat="68.5027695" lon="16.8065139" version="1" timestamp="2022-07-05T08:08:43Z" changeset="123222468" uid="3497659" user="NKA">
		<tag k="name" v="Engsvoll" />
		<tag k="place" v="farm" />
		<tag k="ssr:stedsnr" v="24025" />
	</node>
	<node id="9867641806" lat="68.4666111" lon="16.700264" version="1" timestamp="2022-07-05T08:08:43Z" changeset="123222468" uid="3497659" user="NKA">
		<tag k="name" v="Berg" />
		<tag k="place" v="farm" />
		<tag k="ssr:stedsnr" v="199442" />
	</node>
	<node id="9867641807" lat="68.4603555" lon="16.5940223" version="1" timestamp="2022-07-05T08:08:43Z" changeset="123222468" uid="3497659" user="NKA">
		<tag k="name" v="Nymo" />
		<tag k="place" v="farm" />
		<tag k="ssr:stedsnr" v="450306" />
	</node>
	<node id="9867641808" lat="68.4665854" lon="16.7826213" version="1" timestamp="2022-07-05T08:08:43Z" changeset="123222468" uid="3497659" user="NKA">
		<tag k="name" v="Sommarvika" />
		<tag k="place" v="hamlet" />
		<tag k="ssr:stedsnr" v="441412" />
	</node>
	<node id="9867641809" lat="68.4932273" lon="16.7318897" version="1" timestamp="2022-07-05T08:08:43Z" changeset="123222468" uid="3497659" user="NKA">
		<tag k="name" v="Daleng" />
		<tag k="place" v="farm" />
		<tag k="ssr:stedsnr" v="571356" />
	</node>
	<node id="9867641810" lat="68.4581184" lon="17.114752" version="1" timestamp="2022-07-05T08:08:43Z" changeset="123222468" uid="3497659" user="NKA">
		<tag k="name" v="Granmo" />
		<tag k="place" v="farm" />
		<tag k="ssr:stedsnr" v="442973" />
	</node>
	<node id="9867641811" lat="68.5228785" lon="16.7667296" version="1" timestamp="2022-07-05T08:08:43Z" changeset="123222468" uid="3497659" user="NKA">
		<tag k="name" v="Fjellkroken - Várremoski" />
		<tag k="name:no" v="Fjellkroken" />
		<tag k="name:se" v="Várremoski" />
		<tag k="place" v="farm" />
		<tag k="ssr:stedsnr" v="987800" />
	</node>
	<node id="9867641812" lat="68.5013277" lon="16.8145583" version="1" timestamp="2022-07-05T08:08:43Z" changeset="123222468" uid="3497659" user="NKA">
		<tag k="name" v="Bjørkli" />
		<tag k="place" v="farm" />
		<tag k="ssr:stedsnr" v="813028" />
	</node>
	<node id="9867641813" lat="68.5501431" lon="17.2331289" version="1" timestamp="2022-07-05T08:08:43Z" changeset="123222468" uid="3497659" user="NKA">
		<tag k="name" v="Bogmarka" />
		<tag k="place" v="locality" />
		<tag k="ssr:stedsnr" v="1076439" />
	</node>
	<node id="9867641814" lat="68.5195314" lon="17.0084528" version="1" timestamp="2022-07-05T08:08:43Z" changeset="123222468" uid="3497659" user="NKA">
		<tag k="name" v="Bergvik" />
		<tag k="place" v="farm" />
		<tag k="ssr:stedsnr" v="946649" />
	</node>
	<node id="9867641815" lat="68.4667916" lon="16.7838973" version="1" timestamp="2022-07-05T08:08:43Z" changeset="123222468" uid="3497659" user="NKA">
		<tag k="name" v="Stranda" />
		<tag k="place" v="farm" />
		<tag k="ssr:stedsnr" v="725569" />
	</node>
	<node id="9867641816" lat="68.5107528" lon="16.9298638" version="1" timestamp="2022-07-05T08:08:43Z" changeset="123222468" uid="3497659" user="NKA">
		<tag k="name" v="Fagertun" />
		<tag k="place" v="farm" />
		<tag k="ssr:stedsnr" v="753776" />
	</node>
	<node id="9867641817" lat="68.4861222" lon="16.8943638" version="1" timestamp="2022-07-05T08:08:43Z" changeset="123222468" uid="3497659" user="NKA">
		<tag k="alt_name" v="Bjønnli" />
		<tag k="name" v="Høgda" />
		<tag k="place" v="farm" />
		<tag k="ssr:stedsnr" v="380564" />
	</node>
	<node id="9867641818" lat="68.5094361" lon="16.927075" version="1" timestamp="2022-07-05T08:08:43Z" changeset="123222468" uid="3497659" user="NKA">
		<tag k="name" v="Bratteng" />
		<tag k="place" v="farm" />
		<tag k="ssr:stedsnr" v="207789" />
	</node>
	<node id="9867641819" lat="68.4697257" lon="16.8572694" version="1" timestamp="2022-07-05T08:08:43Z" changeset="123222468" uid="3497659" user="NKA">
		<tag k="name" v="Vollen" />
		<tag k="place" v="hamlet" />
		<tag k="ssr:stedsnr" v="321473" />
	</node>
	<node id="9867641820" lat="68.4816777" lon="16.8923194" version="1" timestamp="2022-07-05T08:08:43Z" changeset="123222468" uid="3497659" user="NKA">
		<tag k="name" v="Solberg" />
		<tag k="place" v="farm" />
		<tag k="ssr:stedsnr" v="39056" />
	</node>
	<node id="9867641821" lat="68.48885" lon="16.9034389" version="1" timestamp="2022-07-05T08:08:43Z" changeset="123222468" uid="3497659" user="NKA">
		<tag k="name" v="Godliåsen" />
		<tag k="place" v="isolated_dwelling" />
		<tag k="ssr:stedsnr" v="259516" />
	</node>
	<node id="9867641822" lat="68.4770448" lon="16.9082357" version="1" timestamp="2022-07-05T08:08:43Z" changeset="123222468" uid="3497659" user="NKA">
		<tag k="name" v="Rydneset" />
		<tag k="place" v="farm" />
		<tag k="ssr:stedsnr" v="888050" />
	</node>
	<node id="9867641823" lat="68.4863495" lon="16.9096744" version="1" timestamp="2022-07-05T08:08:43Z" changeset="123222468" uid="3497659" user="NKA">
		<tag k="name" v="Øysundet" />
		<tag k="place" v="farm" />
		<tag k="ssr:stedsnr" v="684521" />
	</node>
	<node id="9867641824" lat="68.5118111" lon="16.9294277" version="1" timestamp="2022-07-05T08:08:43Z" changeset="123222468" uid="3497659" user="NKA">
		<tag k="name" v="Mellomgård" />
		<tag k="place" v="farm" />
		<tag k="ssr:stedsnr" v="875789" />
	</node>
	<node id="9811618034" lat="68.535039" lon="16.765932" version="1" timestamp="2022-06-12T03:51:03Z" changeset="122263495" uid="3296383" user="Reitstoen_import" />
	<node id="9811618039" lat="68.5350461" lon="16.7661191" version="1" timestamp="2022-06-12T03:51:03Z" changeset="122263495" uid="3296383" user="Reitstoen_import" />
	<node id="3124470125" lat="68.4804145" lon="16.9441324" version="1" timestamp="2014-10-11T18:06:51Z" changeset="26009855" uid="2383827" user="Messy Unicorn_import" />
	<node id="3124470128" lat="68.4804735" lon="16.9443791" version="1" timestamp="2014-10-11T18:06:51Z" changeset="26009855" uid="2383827" user="Messy Unicorn_import" />
	<node id="3124470130" lat="68.480505" lon="16.9435852" version="1" timestamp="2014-10-11T18:06:51Z" changeset="26009855" uid="2383827" user="Messy Unicorn_import" />
	<node id="3124470132" lat="68.4805719" lon="16.9432311" version="1" timestamp="2014-10-11T18:06:51Z" changeset="26009855" uid="2383827" user="Messy Unicorn_import" />
	<node id="3124470136" lat="68.4806388" lon="16.9444113" version="1" timestamp="2014-10-11T18:06:51Z" changeset="26009855" uid="2383827" user="Messy Unicorn_import" />
	<node id="3124470138" lat="68.4806933" lon="16.9442049" version="1" timestamp="2014-10-11T18:06:51Z" changeset="26009855" uid="2383827" user="Messy Unicorn_import" />
	<node id="3124470141" lat="68.4807332" lon="16.9431507" version="1" timestamp="2014-10-11T18:06:51Z" changeset="26009855" uid="2383827" user="Messy Unicorn_import" />
	<node id="3124470147" lat="68.4807937" lon="16.9443336" version="1" timestamp="2014-10-11T18:06:51Z" changeset="26009855" uid="2383827" user="Messy Unicorn_import" />
	<node id="3124470153" lat="68.4808625" lon="16.944516" version="1" timestamp="2014-10-11T18:06:51Z" changeset="26009855" uid="2383827" user="Messy Unicorn_import" />
	<node id="3124470156" lat="68.4808829" lon="16.9429914" version="1" timestamp="2014-10-11T18:06:51Z" changeset="26009855" uid="2383827" user="Messy Unicorn_import" />
	<node id="3124470157" lat="68.4809688" lon="16.9430247" version="1" timestamp="2014-10-11T18:06:51Z" changeset="26009855" uid="2383827" user="Messy Unicorn_import" />
	<node id="3124470158" lat="68.4809806" lon="16.943647" version="1" timestamp="2014-10-11T18:06:51Z" changeset="26009855" uid="2383827" user="Messy Unicorn_import" />
	<node id="3124470159" lat="68.4809826" lon="16.944736" version="1" timestamp="2014-10-11T18:06:51Z" changeset="26009855" uid="2383827" user="Messy Unicorn_import" />
	<node id="3124470160" lat="68.4809845" lon="16.9431749" version="1" timestamp="2014-10-11T18:06:51Z" changeset="26009855" uid="2383827" user="Messy Unicorn_import" />
	<node id="3124470161" lat="68.4809885" lon="16.9441083" version="1" timestamp="2014-10-11T18:06:51Z" changeset="26009855" uid="2383827" user="Messy Unicorn_import" />
	<node id="3124470163" lat="68.4810131" lon="16.9442812" version="1" timestamp="2014-10-11T18:06:51Z" changeset="26009855" uid="2383827" user="Messy Unicorn_import" />
	<node id="3124470164" lat="68.4810377" lon="16.9444677" version="1" timestamp="2014-10-11T18:06:51Z" changeset="26009855" uid="2383827" user="Messy Unicorn_import" />
	<node id="3124470165" lat="68.4810377" lon="16.9446609" version="1" timestamp="2014-10-11T18:06:51Z" changeset="26009855" uid="2383827" user="Messy Unicorn_import" />
	<way id="1023147758" version="2" timestamp="2022-06-12T03:51:10Z" changeset="122263499" uid="3296383" user="Reitstoen_import">
		<tag k="bridge" v="yes" />
		<tag k="highway" v="path" />
		<tag k="layer" v="1" />
		<tag k="loc_name:no" v="Kvitforsbrua" />
		<tag k="name" v="Jonnerovvi" />
		<tag k="name:se" v="Jonnerovvi" />
		<tag k="ssr:stedsnr" v="300434" />
		<nd ref="9811618034" />
		<nd ref="9811618039" />
	</way>
	<way id="307339241" version="2" timestamp="2015-04-03T16:59:58Z" changeset="29956108" uid="1069176" user="landfahrer">
		<nd ref="3124470163" />
		<nd ref="3124470164" />
		<nd ref="3124470165" />
		<nd ref="3124470159" />
		<nd ref="3124470153" />
		<nd ref="3124470147" />
		<nd ref="3124470138" />
		<nd ref="3124470136" />
	</way>
	<way id="336446297" version="1" timestamp="2015-04-03T16:59:55Z" changeset="29956108" uid="1069176" user="landfahrer">
		<nd ref="3124470156" />
		<nd ref="3124470157" />
	</way>
	<way id="336446309" version="1" timestamp="2015-04-03T16:59:56Z" changeset="29956108" uid="1069176" user="landfahrer">
		<nd ref="3124470157" />
		<nd ref="3124470160" />
		<nd ref="3124470158" />
		<nd ref="3124470161" />
		<nd ref="3124470163" />
	</way>
	<way id="336446311" version="1" timestamp="2015-04-03T16:59:56Z" changeset="29956108" uid="1069176" user="landfahrer">
		<nd ref="3124470136" />
		<nd ref="3124470128" />
		<nd ref="3124470125" />
		<nd ref="3124470130" />
		<nd ref="3124470132" />
		<nd ref="3124470141" />
		<nd ref="3124470156" />
	</way>
	<relation id="4758106" version="3" timestamp="2022-07-05T08:08:43Z" changeset="123222468" uid="3497659" user="NKA">
		<tag k="alt_name" v="Fossmo" />
		<tag k="landuse" v="farmyard" />
		<tag k="name" v="Forsmo" />
		<tag k="place" v="farm" />
		<tag k="ssr:stedsnr" v="381514" />
		<tag k="type" v="multipolygon" />
		<member type="way" ref="336446297" role="outer" />
		<member type="way" ref="336446311" role="outer" />
		<member type="way" ref="307339241" role="outer" />
		<member type="way" ref="336446309" role="outer" />
	</relation>
</osm>
