<?xml version="1.0" encoding="UTF-8"?>
<osm generator="osmapis" version="0.6">
	<node id="-155963" lat="61.447336113" lon="8.80471944526">
		<tag k="name" v="Bygdinvegen" />
		<tag k="ssr:date" v="2019-05-30" />
		<tag k="ssr:gruppe" v="veg" />
		<tag k="ssr:hovedgruppe" v="infrastruktur" />
		<tag k="ssr:stedsnr" v="423914" />
		<tag k="ssr:type" v="adressenavn" />
	</node>
	<node id="-157170" lat="60.5908609473" lon="9.63819281559">
		<tag k="fixme" v="multiple name tags, choose one and add the other to alt_name" />
		<tag k="name" v="Austlandet;Østlandet" />
		<tag k="ssr:date" v="2018-01-09" />
		<tag k="ssr:gruppe" v="administrativeIndelinger" />
		<tag k="ssr:hovedgruppe" v="offentligAdministrasjon" />
		<tag k="ssr:stedsnr" v="974775" />
		<tag k="ssr:type" v="annenAdministrativInndeling" />
	</node>
	<node id="-155016" lat="61.1256416625" lon="8.57166944535">
		<tag k="name" v="Vang kommune" />
		<tag k="ssr:date" v="2016-05-10" />
		<tag k="ssr:gruppe" v="administrativeIndelinger" />
		<tag k="ssr:hovedgruppe" v="offentligAdministrasjon" />
		<tag k="ssr:stedsnr" v="329698" />
		<tag k="ssr:type" v="kommune" />
	</node>
	<node id="-155269" lat="61.1474049151" lon="8.86337233256">
		<tag k="name" v="Ellestadvegen" />
		<tag k="ssr:date" v="2019-05-30" />
		<tag k="ssr:gruppe" v="veg" />
		<tag k="ssr:hovedgruppe" v="infrastruktur" />
		<tag k="ssr:stedsnr" v="1016488" />
		<tag k="ssr:type" v="adressenavn" />
	</node>
	<node id="-155268" lat="61.1065951439" lon="8.60516635196">
		<tag k="name" v="Solsteinslie" />
		<tag k="ssr:date" v="2019-05-30" />
		<tag k="ssr:gruppe" v="veg" />
		<tag k="ssr:hovedgruppe" v="infrastruktur" />
		<tag k="ssr:stedsnr" v="1016271" />
		<tag k="ssr:type" v="adressenavn" />
	</node>
	<node id="-155267" lat="61.0954228309" lon="8.67755634232">
		<tag k="name" v="Gamlestølsvike" />
		<tag k="ssr:date" v="2019-05-30" />
		<tag k="ssr:gruppe" v="veg" />
		<tag k="ssr:hovedgruppe" v="infrastruktur" />
		<tag k="ssr:stedsnr" v="1016174" />
		<tag k="ssr:type" v="adressenavn" />
	</node>
	<node id="-155266" lat="61.3717890172" lon="8.38093502875">
		<tag k="name" v="Bygdin" />
		<tag k="ssr:date" v="2019-05-30" />
		<tag k="ssr:gruppe" v="veg" />
		<tag k="ssr:hovedgruppe" v="infrastruktur" />
		<tag k="ssr:stedsnr" v="1016158" />
		<tag k="ssr:type" v="adressenavn" />
	</node>
</osm>
