<?xml version="1.0" encoding="UTF-8"?>
<osm generator="osmapis" version="0.6">
	<node id="-810365" lat="70.6350694796" lon="29.7208959955">
		<tag k="name" v="Båtsfjord kommune" />
		<tag k="ssr:date" v="2016-05-10" />
		<tag k="ssr:gruppe" v="administrativeIndelinger" />
		<tag k="ssr:hovedgruppe" v="offentligAdministrasjon" />
		<tag k="ssr:stedsnr" v="148531" />
		<tag k="ssr:type" v="kommune" />
	</node>
	<node id="-810298" lat="70.726133365" lon="29.8010015422">
		<tag k="name" v="Kolneset" />
		<tag k="ssr:date" v="2016-05-10" />
		<tag k="ssr:gruppe" v="navigasjon" />
		<tag k="ssr:hovedgruppe" v="infrastruktur" />
		<tag k="ssr:stedsnr" v="20465" />
		<tag k="ssr:type" v="fyrlykt" />
	</node>
	<node id="-810521" lat="70.6570639213" lon="29.7891987494">
		<tag k="name" v="Skrovneset" />
		<tag k="ssr:date" v="2016-05-10" />
		<tag k="ssr:gruppe" v="navigasjon" />
		<tag k="ssr:hovedgruppe" v="infrastruktur" />
		<tag k="ssr:stedsnr" v="627497" />
		<tag k="ssr:type" v="fyrlykt" />
	</node>
	<node id="-810456" lat="70.5448361614" lon="30.6291787893">
		<tag k="name" v="Hamningberg" />
		<tag k="ssr:date" v="2016-05-10" />
		<tag k="ssr:gruppe" v="navigasjon" />
		<tag k="ssr:hovedgruppe" v="infrastruktur" />
		<tag k="ssr:stedsnr" v="512390" />
		<tag k="ssr:type" v="fyrlykt" />
	</node>
	<node id="-810487" lat="70.6322194782" lon="29.731465441">
		<tag k="name" v="Båtsfjord" />
		<tag k="ssr:date" v="2016-05-10" />
		<tag k="ssr:gruppe" v="navigasjon" />
		<tag k="ssr:hovedgruppe" v="infrastruktur" />
		<tag k="ssr:stedsnr" v="571942" />
		<tag k="ssr:type" v="fyrlykt" />
	</node>
	<node id="-810422" lat="70.7680555863" lon="30.1166653021">
		<tag k="name" v="Storgrunnsbakken" />
		<tag k="ssr:date" v="2016-05-10" />
		<tag k="ssr:gruppe" v="verne-OgBruksområder" />
		<tag k="ssr:hovedgruppe" v="offentligAdministrasjon" />
		<tag k="ssr:stedsnr" v="449262" />
		<tag k="ssr:type" v="soneinndelingTilHavs" />
	</node>
	<node id="-810670" lat="68.4849327361" lon="16.2297866207">
		<tag k="fixme" v="multiple name tags, choose one and add the other to alt_name" />
		<tag k="name" v="Nord-Noreg;Nord-Norge" />
		<tag k="ssr:date" v="2017-05-18" />
		<tag k="ssr:gruppe" v="administrativeIndelinger" />
		<tag k="ssr:hovedgruppe" v="offentligAdministrasjon" />
		<tag k="ssr:stedsnr" v="976106" />
		<tag k="ssr:type" v="annenAdministrativInndeling" />
	</node>
	<node id="-810603" lat="70.5325111546" lon="30.1472373941">
		<tag k="name" v="Syltefjord" />
		<tag k="ssr:date" v="2016-05-11" />
		<tag k="ssr:gruppe" v="navigasjon" />
		<tag k="ssr:hovedgruppe" v="infrastruktur" />
		<tag k="ssr:stedsnr" v="816378" />
		<tag k="ssr:type" v="fyrlykt" />
	</node>
	<node id="-810359" lat="70.7680555882" lon="29.9999986925">
		<tag k="name" v="Korsnesbakken" />
		<tag k="ssr:date" v="2016-05-10" />
		<tag k="ssr:gruppe" v="verne-OgBruksområder" />
		<tag k="ssr:hovedgruppe" v="offentligAdministrasjon" />
		<tag k="ssr:stedsnr" v="145427" />
		<tag k="ssr:type" v="soneinndelingTilHavs" />
	</node>
	<node id="-810535" lat="70.7072528147" lon="30.0788152915">
		<tag k="name" v="Makkaur" />
		<tag k="old_name" v="Makkaur fyr" />
		<tag k="ssr:date" v="2016-05-11" />
		<tag k="ssr:gruppe" v="navigasjon" />
		<tag k="ssr:hovedgruppe" v="infrastruktur" />
		<tag k="ssr:stedsnr" v="687034" />
		<tag k="ssr:type" v="fyrstasjon" />
	</node>
	<node id="-810358" lat="70.8513889205" lon="30.5499984426">
		<tag k="name" v="Øverbanken" />
		<tag k="ssr:date" v="2016-05-10" />
		<tag k="ssr:gruppe" v="verne-OgBruksområder" />
		<tag k="ssr:hovedgruppe" v="offentligAdministrasjon" />
		<tag k="ssr:stedsnr" v="145426" />
		<tag k="ssr:type" v="soneinndelingTilHavs" />
	</node>
</osm>
