<?xml version="1.0" encoding="UTF-8"?>
<osm version="0.6" generator="osmapis">
	<node id="290808232" lat="66.0811222" lon="12.5827813" version="3" timestamp="2022-07-16T11:48:37Z" changeset="123686984" uid="3497659" user="NKA">
		<tag k="name" v="Bjørn" />
		<tag k="place" v="village" />
		<tag k="ssr:stedsnr" v="528930" />
	</node>
	<node id="2524474369" lat="66.0390804" lon="12.4443833" version="2" timestamp="2022-07-16T11:48:37Z" changeset="123686984" uid="3497659" user="NKA">
		<tag k="alt_name" v="Teistad" />
		<tag k="name" v="Teigstad" />
		<tag k="place" v="hamlet" />
		<tag k="ssr:stedsnr" v="683992" />
	</node>
	<node id="2524516385" lat="66.1269024" lon="12.6144527" version="2" timestamp="2022-07-16T11:48:37Z" changeset="123686984" uid="3497659" user="NKA">
		<tag k="alt_name" v="Berfjord" />
		<tag k="name" v="Berfjorden" />
		<tag k="place" v="hamlet" />
		<tag k="ssr:stedsnr" v="15583" />
	</node>
	<node id="4889890332" lat="66.0465833" lon="12.3630251" version="2" timestamp="2022-07-16T11:48:37Z" changeset="123686984" uid="3497659" user="NKA">
		<tag k="name" v="Hagen" />
		<tag k="place" v="locality" />
		<tag k="ssr:stedsnr" v="622991" />
	</node>
	<node id="6186648999" lat="66.2234078" lon="12.5808024" version="2" timestamp="2022-07-16T11:48:37Z" changeset="123686984" uid="3497659" user="NKA">
		<tag k="name" v="Stakkstøa" />
		<tag k="place" v="farm" />
		<tag k="ssr:stedsnr" v="470756" />
	</node>
	<node id="6205774431" lat="66.1089579" lon="12.4907897" version="5" timestamp="2022-07-16T11:48:37Z" changeset="123686984" uid="3497659" user="NKA">
		<tag k="alt_name" v="Solfjellsjyen;Dønna" />
		<tag k="name" v="Solfjellsjøen" />
		<tag k="place" v="village" />
		<tag k="population" v="272" />
		<tag k="population:date" v="2021-01-01" />
		<tag k="ref:ssb_tettsted" v="7901" />
		<tag k="source:population" v="SSB - befolkning i tettstedet" />
		<tag k="ssr:stedsnr" v="865581" />
	</node>
	<node id="6205774465" lat="66.1670357" lon="12.344343" version="2" timestamp="2022-07-16T11:48:37Z" changeset="123686984" uid="3497659" user="NKA">
		<tag k="alt_name" v="Vandved;Vandve gård" />
		<tag k="name" v="Vandve" />
		<tag k="place" v="hamlet" />
		<tag k="ssr:stedsnr" v="318588" />
	</node>
	<node id="6205774485" lat="66.1494118" lon="12.7271143" version="2" timestamp="2022-07-16T11:48:37Z" changeset="123686984" uid="3497659" user="NKA">
		<tag k="name" v="Sandåker" />
		<tag k="place" v="hamlet" />
		<tag k="ssr:stedsnr" v="743205" />
	</node>
	<node id="7575157429" lat="66.1715635" lon="12.3750597" version="2" timestamp="2022-07-16T11:48:37Z" changeset="123686984" uid="3497659" user="NKA">
		<tag k="name" v="Havstein" />
		<tag k="place" v="hamlet" />
		<tag k="ssr:stedsnr" v="980543" />
	</node>
	<node id="8890064151" lat="66.085632" lon="12.4482145" version="2" timestamp="2022-07-16T11:48:37Z" changeset="123686984" uid="3497659" user="NKA">
		<tag k="alt_name" v="Hølen" />
		<tag k="name" v="Høla" />
		<tag k="place" v="hamlet" />
		<tag k="ssr:stedsnr" v="743938" />
	</node>
	<node id="9891438586" lat="66.1711305" lon="12.5591785" version="1" timestamp="2022-07-16T11:48:37Z" changeset="123686984" uid="3497659" user="NKA">
		<tag k="name" v="Nygård" />
		<tag k="place" v="farm" />
		<tag k="ssr:stedsnr" v="836386" />
	</node>
	<node id="9891438587" lat="66.046454" lon="12.4901349" version="1" timestamp="2022-07-16T11:48:37Z" changeset="123686984" uid="3497659" user="NKA">
		<tag k="name" v="Nyrud" />
		<tag k="place" v="farm" />
		<tag k="ssr:stedsnr" v="532494" />
	</node>
	<node id="9891438588" lat="66.0296917" lon="12.5239084" version="1" timestamp="2022-07-16T11:48:37Z" changeset="123686984" uid="3497659" user="NKA">
		<tag k="name" v="Sildheim" />
		<tag k="place" v="isolated_dwelling" />
		<tag k="ssr:stedsnr" v="896788" />
	</node>
	<node id="9891438589" lat="66.1505257" lon="12.3958161" version="1" timestamp="2022-07-16T11:48:37Z" changeset="123686984" uid="3497659" user="NKA">
		<tag k="name" v="Haugen øvre" />
		<tag k="place" v="farm" />
		<tag k="ssr:stedsnr" v="834298" />
	</node>
	<node id="9891438590" lat="66.0731167" lon="12.5772527" version="1" timestamp="2022-07-16T11:48:37Z" changeset="123686984" uid="3497659" user="NKA">
		<tag k="name" v="Sjøbakk" />
		<tag k="place" v="farm" />
		<tag k="ssr:stedsnr" v="532373" />
	</node>
	<node id="9891438591" lat="66.055206" lon="12.5152834" version="1" timestamp="2022-07-16T11:48:37Z" changeset="123686984" uid="3497659" user="NKA">
		<tag k="name" v="Fjellvang" />
		<tag k="place" v="farm" />
		<tag k="ssr:stedsnr" v="410591" />
	</node>
	<node id="9891438592" lat="66.1066017" lon="12.4746399" version="1" timestamp="2022-07-16T11:48:37Z" changeset="123686984" uid="3497659" user="NKA">
		<tag k="name" v="Sørvika" />
		<tag k="place" v="farm" />
		<tag k="ssr:stedsnr" v="440549" />
	</node>
	<node id="9891438593" lat="66.2071906" lon="12.602364" version="1" timestamp="2022-07-16T11:48:37Z" changeset="123686984" uid="3497659" user="NKA">
		<tag k="name" v="Vonheim" />
		<tag k="place" v="farm" />
		<tag k="ssr:stedsnr" v="955652" />
	</node>
	<node id="9891438594" lat="66.1739836" lon="12.5449785" version="1" timestamp="2022-07-16T11:48:37Z" changeset="123686984" uid="3497659" user="NKA">
		<tag k="name" v="Stavseng" />
		<tag k="place" v="village" />
		<tag k="ssr:stedsnr" v="926648" />
	</node>
	<node id="9891438595" lat="66.2051496" lon="12.5886888" version="1" timestamp="2022-07-16T11:48:37Z" changeset="123686984" uid="3497659" user="NKA">
		<tag k="name" v="Dønnes" />
		<tag k="place" v="hamlet" />
		<tag k="ssr:stedsnr" v="926622" />
	</node>
	<node id="9891438596" lat="66.0501351" lon="12.5006809" version="1" timestamp="2022-07-16T11:48:37Z" changeset="123686984" uid="3497659" user="NKA">
		<tag k="name" v="Dalmo" />
		<tag k="place" v="farm" />
		<tag k="ssr:stedsnr" v="410540" />
	</node>
	<node id="9891438597" lat="66.1492107" lon="12.5516118" version="1" timestamp="2022-07-16T11:48:37Z" changeset="123686984" uid="3497659" user="NKA">
		<tag k="name" v="Innerhopan" />
		<tag k="place" v="farm" />
		<tag k="ssr:stedsnr" v="835254" />
	</node>
	<node id="9891438598" lat="66.0947726" lon="12.5915739" version="1" timestamp="2022-07-16T11:48:37Z" changeset="123686984" uid="3497659" user="NKA">
		<tag k="name" v="Lundgård" />
		<tag k="place" v="farm" />
		<tag k="ssr:stedsnr" v="288403" />
	</node>
	<node id="9891438599" lat="66.0913532" lon="12.5893043" version="1" timestamp="2022-07-16T11:48:37Z" changeset="123686984" uid="3497659" user="NKA">
		<tag k="alt_name" v="Bjørnsgård" />
		<tag k="name" v="Bjørngården" />
		<tag k="place" v="farm" />
		<tag k="ssr:stedsnr" v="815716" />
	</node>
	<node id="9891438600" lat="66.0772861" lon="12.4501131" version="1" timestamp="2022-07-16T11:48:37Z" changeset="123686984" uid="3497659" user="NKA">
		<tag k="name" v="Vatnmo" />
		<tag k="place" v="farm" />
		<tag k="ssr:stedsnr" v="288246" />
	</node>
	<node id="9891438601" lat="66.1051756" lon="12.4748309" version="1" timestamp="2022-07-16T11:48:37Z" changeset="123686984" uid="3497659" user="NKA">
		<tag k="name" v="Aasen Sørviken" />
		<tag k="place" v="farm" />
		<tag k="ssr:stedsnr" v="407267" />
	</node>
	<node id="9891438602" lat="66.1118528" lon="12.564986" version="1" timestamp="2022-07-16T11:48:37Z" changeset="123686984" uid="3497659" user="NKA">
		<tag k="name" v="Bakken" />
		<tag k="place" v="farm" />
		<tag k="ssr:stedsnr" v="349399" />
	</node>
	<node id="9891438603" lat="66.1582077" lon="12.4347327" version="1" timestamp="2022-07-16T11:48:37Z" changeset="123686984" uid="3497659" user="NKA">
		<tag k="alt_name" v="Volneset" />
		<tag k="name" v="Volnes" />
		<tag k="place" v="hamlet" />
		<tag k="ssr:stedsnr" v="621642" />
	</node>
	<node id="9891438604" lat="66.0983565" lon="12.5287078" version="1" timestamp="2022-07-16T11:48:37Z" changeset="123686984" uid="3497659" user="NKA">
		<tag k="name" v="Stranda" />
		<tag k="place" v="farm" />
		<tag k="ssr:stedsnr" v="349417" />
	</node>
	<node id="9891438605" lat="66.1138944" lon="12.494236" version="1" timestamp="2022-07-16T11:48:37Z" changeset="123686984" uid="3497659" user="NKA">
		<tag k="name" v="Kulvikja" />
		<tag k="place" v="hamlet" />
		<tag k="ssr:stedsnr" v="164107" />
	</node>
	<node id="9891438606" lat="66.1628837" lon="12.5532168" version="1" timestamp="2022-07-16T11:48:37Z" changeset="123686984" uid="3497659" user="NKA">
		<tag k="name" v="Remman" />
		<tag k="place" v="farm" />
		<tag k="ssr:stedsnr" v="289376" />
	</node>
	<node id="9891438607" lat="66.0495389" lon="12.4987361" version="1" timestamp="2022-07-16T11:48:37Z" changeset="123686984" uid="3497659" user="NKA">
		<tag k="name" v="Bakkajord" />
		<tag k="place" v="farm" />
		<tag k="ssr:stedsnr" v="471530" />
	</node>
	<node id="9891438608" lat="66.1733028" lon="12.5648956" version="1" timestamp="2022-07-16T11:48:37Z" changeset="123686984" uid="3497659" user="NKA">
		<tag k="name" v="Lundvang" />
		<tag k="place" v="farm" />
		<tag k="ssr:stedsnr" v="896444" />
	</node>
	<node id="9891438609" lat="66.1793166" lon="12.5440818" version="1" timestamp="2022-07-16T11:48:37Z" changeset="123686984" uid="3497659" user="NKA">
		<tag k="name" v="Vang" />
		<tag k="place" v="farm" />
		<tag k="ssr:stedsnr" v="470385" />
	</node>
	<node id="9891438610" lat="66.0778623" lon="12.432435" version="1" timestamp="2022-07-16T11:48:37Z" changeset="123686984" uid="3497659" user="NKA">
		<tag k="alt_name" v="Engan" />
		<tag k="name" v="Enga" />
		<tag k="place" v="farm" />
		<tag k="ssr:stedsnr" v="379931" />
	</node>
	<node id="9891438611" lat="66.1714615" lon="12.3718454" version="1" timestamp="2022-07-16T11:48:37Z" changeset="123686984" uid="3497659" user="NKA">
		<tag k="name" v="Rønningen" />
		<tag k="place" v="farm" />
		<tag k="ssr:stedsnr" v="228634" />
	</node>
	<node id="9891438612" lat="66.1614564" lon="12.6010784" version="1" timestamp="2022-07-16T11:48:37Z" changeset="123686984" uid="3497659" user="NKA">
		<tag k="name" v="Nyrud" />
		<tag k="place" v="farm" />
		<tag k="ssr:stedsnr" v="895248" />
	</node>
	<node id="9891438613" lat="66.1716649" lon="12.7294882" version="1" timestamp="2022-07-16T11:48:37Z" changeset="123686984" uid="3497659" user="NKA">
		<tag k="name" v="Sund" />
		<tag k="place" v="hamlet" />
		<tag k="ssr:stedsnr" v="804791" />
	</node>
	<node id="9891438614" lat="66.0870606" lon="12.3582046" version="1" timestamp="2022-07-16T11:48:37Z" changeset="123686984" uid="3497659" user="NKA">
		<tag k="name" v="Ivarstøa" />
		<tag k="place" v="farm" />
		<tag k="ssr:stedsnr" v="166292" />
	</node>
	<node id="9891438615" lat="66.156925" lon="12.7073083" version="1" timestamp="2022-07-16T11:48:37Z" changeset="123686984" uid="3497659" user="NKA">
		<tag k="name" v="Granheim" />
		<tag k="place" v="farm" />
		<tag k="ssr:stedsnr" v="895220" />
	</node>
	<node id="9891438616" lat="66.1488486" lon="12.5727952" version="1" timestamp="2022-07-16T11:48:37Z" changeset="123686984" uid="3497659" user="NKA">
		<tag k="name" v="Torud" />
		<tag k="place" v="farm" />
		<tag k="ssr:stedsnr" v="379603" />
	</node>
	<node id="9891441117" lat="66.0360448" lon="12.3253412" version="1" timestamp="2022-07-16T11:48:37Z" changeset="123686984" uid="3497659" user="NKA">
		<tag k="name" v="Åkvika" />
		<tag k="place" v="farm" />
		<tag k="ssr:stedsnr" v="1081574" />
	</node>
	<node id="9891441118" lat="66.1456764" lon="12.710952" version="1" timestamp="2022-07-16T11:48:37Z" changeset="123686984" uid="3497659" user="NKA">
		<tag k="alt_name" v="Kjellsvikja" />
		<tag k="name" v="Kjellsvika" />
		<tag k="place" v="farm" />
		<tag k="ssr:stedsnr" v="561598" />
	</node>
	<node id="9891441119" lat="66.1689528" lon="12.7314805" version="1" timestamp="2022-07-16T11:48:37Z" changeset="123686984" uid="3497659" user="NKA">
		<tag k="name" v="Vollen" />
		<tag k="place" v="farm" />
		<tag k="ssr:stedsnr" v="775327" />
	</node>
	<node id="9891441120" lat="66.1739935" lon="12.46121" version="1" timestamp="2022-07-16T11:48:37Z" changeset="123686984" uid="3497659" user="NKA">
		<tag k="name" v="Breivika" />
		<tag k="place" v="farm" />
		<tag k="ssr:stedsnr" v="410421" />
	</node>
	<node id="9891441121" lat="66.1691639" lon="12.7193249" version="1" timestamp="2022-07-16T11:48:37Z" changeset="123686984" uid="3497659" user="NKA">
		<tag k="name" v="Ryddheim" />
		<tag k="place" v="farm" />
		<tag k="ssr:stedsnr" v="653336" />
	</node>
	<node id="9891441122" lat="66.051847" lon="12.507773" version="1" timestamp="2022-07-16T11:48:37Z" changeset="123686984" uid="3497659" user="NKA">
		<tag k="name" v="Fredheim" />
		<tag k="place" v="farm" />
		<tag k="ssr:stedsnr" v="957501" />
	</node>
	<node id="9891441123" lat="66.0255889" lon="12.5351083" version="1" timestamp="2022-07-16T11:48:37Z" changeset="123686984" uid="3497659" user="NKA">
		<tag k="name" v="Øyvollen" />
		<tag k="place" v="farm" />
		<tag k="ssr:stedsnr" v="592774" />
	</node>
	<node id="9891441124" lat="66.2183889" lon="12.5966334" version="1" timestamp="2022-07-16T11:48:37Z" changeset="123686984" uid="3497659" user="NKA">
		<tag k="name" v="Nordøyvågen" />
		<tag k="place" v="hamlet" />
		<tag k="ssr:stedsnr" v="561653" />
	</node>
	<node id="9891441125" lat="66.1735976" lon="12.7222996" version="1" timestamp="2022-07-16T11:48:37Z" changeset="123686984" uid="3497659" user="NKA">
		<tag k="name" v="Strømsneset" />
		<tag k="place" v="farm" />
		<tag k="ssr:stedsnr" v="592404" />
	</node>
	<node id="9891441126" lat="66.1581239" lon="12.7063128" version="1" timestamp="2022-07-16T11:48:37Z" changeset="123686984" uid="3497659" user="NKA">
		<tag k="name" v="Breivika" />
		<tag k="place" v="hamlet" />
		<tag k="ssr:stedsnr" v="561575" />
	</node>
	<node id="9891441127" lat="66.0495139" lon="12.5712223" version="1" timestamp="2022-07-16T11:48:37Z" changeset="123686984" uid="3497659" user="NKA">
		<tag k="name" v="Skorptangen" />
		<tag k="place" v="farm" />
		<tag k="ssr:stedsnr" v="390679" />
	</node>
	<node id="9891441128" lat="66.182407" lon="12.7175144" version="1" timestamp="2022-07-16T11:48:37Z" changeset="123686984" uid="3497659" user="NKA">
		<tag k="alt_name" v="Hov" />
		<tag k="name" v="Vågen" />
		<tag k="place" v="farm" />
		<tag k="ssr:stedsnr" v="561672" />
	</node>
	<node id="9891441129" lat="66.0366543" lon="12.4370495" version="1" timestamp="2022-07-16T11:48:37Z" changeset="123686984" uid="3497659" user="NKA">
		<tag k="alt_name" v="Teigstadvikja" />
		<tag k="name" v="Teistadvika" />
		<tag k="place" v="farm" />
		<tag k="ssr:stedsnr" v="379982" />
	</node>
	<node id="9891441130" lat="66.0872863" lon="12.5876663" version="1" timestamp="2022-07-16T11:48:37Z" changeset="123686984" uid="3497659" user="NKA">
		<tag k="name" v="Bjørn" />
		<tag k="place" v="farm" />
		<tag k="ssr:stedsnr" v="990370" />
	</node>
	<node id="9891441131" lat="66.1647537" lon="12.5607966" version="1" timestamp="2022-07-16T11:48:37Z" changeset="123686984" uid="3497659" user="NKA">
		<tag k="name" v="Åkerøya" />
		<tag k="place" v="farm" />
		<tag k="ssr:stedsnr" v="990315" />
	</node>
	<node id="9891441132" lat="66.1509695" lon="12.3887575" version="1" timestamp="2022-07-16T11:48:37Z" changeset="123686984" uid="3497659" user="NKA">
		<tag k="name" v="Slapøya" />
		<tag k="place" v="farm" />
		<tag k="ssr:stedsnr" v="990339" />
	</node>
	<node id="9891441133" lat="66.1764504" lon="12.5629748" version="1" timestamp="2022-07-16T11:48:37Z" changeset="123686984" uid="3497659" user="NKA">
		<tag k="name" v="Bø" />
		<tag k="place" v="farm" />
		<tag k="ssr:stedsnr" v="990317" />
	</node>
	<node id="9891441134" lat="66.1394073" lon="12.4958952" version="1" timestamp="2022-07-16T11:48:37Z" changeset="123686984" uid="3497659" user="NKA">
		<tag k="name" v="Kjeøya" />
		<tag k="place" v="farm" />
		<tag k="ssr:stedsnr" v="990350" />
	</node>
	<node id="9891441135" lat="66.1723464" lon="12.5703563" version="1" timestamp="2022-07-16T11:48:37Z" changeset="123686984" uid="3497659" user="NKA">
		<tag k="name" v="Stuåsen" />
		<tag k="place" v="neighbourhood" />
		<tag k="ssr:stedsnr" v="957414" />
	</node>
	<node id="9891441136" lat="66.1479" lon="12.54335" version="1" timestamp="2022-07-16T11:48:37Z" changeset="123686984" uid="3497659" user="NKA">
		<tag k="name" v="Kveldro" />
		<tag k="place" v="farm" />
		<tag k="ssr:stedsnr" v="956269" />
	</node>
	<node id="9891441137" lat="66.0859957" lon="12.3701722" version="1" timestamp="2022-07-16T11:48:37Z" changeset="123686984" uid="3497659" user="NKA">
		<tag k="name" v="Øvergården" />
		<tag k="place" v="farm" />
		<tag k="ssr:stedsnr" v="956281" />
	</node>
	<node id="9891441138" lat="66.0363341" lon="12.3227204" version="1" timestamp="2022-07-16T11:48:37Z" changeset="123686984" uid="3497659" user="NKA">
		<tag k="name" v="Solstrand" />
		<tag k="place" v="farm" />
		<tag k="ssr:stedsnr" v="107659" />
	</node>
	<node id="9891441139" lat="66.1721528" lon="12.7226139" version="1" timestamp="2022-07-16T11:48:37Z" changeset="123686984" uid="3497659" user="NKA">
		<tag k="name" v="Sundsvågjen" />
		<tag k="place" v="locality" />
		<tag k="ssr:stedsnr" v="289357" />
	</node>
	<node id="9891441140" lat="66.0894296" lon="12.4387154" version="1" timestamp="2022-07-16T11:48:37Z" changeset="123686984" uid="3497659" user="NKA">
		<tag k="name" v="Breistrand" />
		<tag k="place" v="farm" />
		<tag k="ssr:stedsnr" v="804566" />
	</node>
	<node id="9891441141" lat="66.1891972" lon="12.6282277" version="1" timestamp="2022-07-16T11:48:37Z" changeset="123686984" uid="3497659" user="NKA">
		<tag k="name" v="Jeppvikja" />
		<tag k="place" v="farm" />
		<tag k="ssr:stedsnr" v="349725" />
	</node>
	<node id="9891441142" lat="66.1925668" lon="12.4896436" version="1" timestamp="2022-07-16T11:48:37Z" changeset="123686984" uid="3497659" user="NKA">
		<tag k="name" v="Remman" />
		<tag k="place" v="farm" />
		<tag k="ssr:stedsnr" v="773631" />
	</node>
	<node id="9891441143" lat="66.22217" lon="12.5942775" version="1" timestamp="2022-07-16T11:48:37Z" changeset="123686984" uid="3497659" user="NKA">
		<tag k="name" v="Nordvoll" />
		<tag k="place" v="farm" />
		<tag k="ssr:stedsnr" v="228788" />
	</node>
	<node id="9891441144" lat="66.0922147" lon="12.6321419" version="1" timestamp="2022-07-16T11:48:37Z" changeset="123686984" uid="3497659" user="NKA">
		<tag k="alt_name" v="Engesvik" />
		<tag k="name" v="Engesvika" />
		<tag k="place" v="farm" />
		<tag k="ssr:stedsnr" v="743947" />
	</node>
	<node id="9891441145" lat="66.1903087" lon="12.6259137" version="1" timestamp="2022-07-16T11:48:37Z" changeset="123686984" uid="3497659" user="NKA">
		<tag k="alt_name" v="Vardavika" />
		<tag k="name" v="Valvikja" />
		<tag k="place" v="farm" />
		<tag k="ssr:stedsnr" v="744644" />
	</node>
	<node id="9891441146" lat="66.2126224" lon="12.5656962" version="1" timestamp="2022-07-16T11:48:37Z" changeset="123686984" uid="3497659" user="NKA">
		<tag k="alt_name" v="Skardtun" />
		<tag k="name" v="Skartun" />
		<tag k="place" v="farm" />
		<tag k="ssr:stedsnr" v="775693" />
	</node>
	<node id="9891441147" lat="66.086" lon="12.4676001" version="1" timestamp="2022-07-16T11:48:37Z" changeset="123686984" uid="3497659" user="NKA">
		<tag k="name" v="Strauma" />
		<tag k="place" v="farm" />
		<tag k="ssr:stedsnr" v="804949" />
	</node>
	<node id="9891441148" lat="66.1441162" lon="12.7054825" version="1" timestamp="2022-07-16T11:48:37Z" changeset="123686984" uid="3497659" user="NKA">
		<tag k="name" v="Kopardal" />
		<tag k="place" v="hamlet" />
		<tag k="ssr:stedsnr" v="682654" />
	</node>
	<node id="9891441149" lat="66.1764397" lon="12.5369282" version="1" timestamp="2022-07-16T11:48:37Z" changeset="123686984" uid="3497659" user="NKA">
		<tag k="alt_name" v="Stavsengvika" />
		<tag k="name" v="Stavsengvikja" />
		<tag k="place" v="hamlet" />
		<tag k="ssr:stedsnr" v="683643" />
	</node>
	<node id="9891441150" lat="66.1279522" lon="12.3008085" version="1" timestamp="2022-07-16T11:48:37Z" changeset="123686984" uid="3497659" user="NKA">
		<tag k="name" v="Nygård" />
		<tag k="place" v="farm" />
		<tag k="ssr:stedsnr" v="410884" />
	</node>
	<node id="9891441151" lat="66.1302111" lon="12.5569638" version="1" timestamp="2022-07-16T11:48:37Z" changeset="123686984" uid="3497659" user="NKA">
		<tag k="alt_name" v="Kjellneset" />
		<tag k="name" v="Kjellsneset" />
		<tag k="place" v="farm" />
		<tag k="ssr:stedsnr" v="682568" />
	</node>
	<node id="9891441152" lat="66.1503959" lon="12.3979414" version="1" timestamp="2022-07-16T11:48:37Z" changeset="123686984" uid="3497659" user="NKA">
		<tag k="name" v="Haugen nedre" />
		<tag k="place" v="farm" />
		<tag k="ssr:stedsnr" v="45308" />
	</node>
	<node id="9891441153" lat="66.1911416" lon="12.4790638" version="1" timestamp="2022-07-16T11:48:37Z" changeset="123686984" uid="3497659" user="NKA">
		<tag k="name" v="Bakken" />
		<tag k="place" v="farm" />
		<tag k="ssr:stedsnr" v="591633" />
	</node>
	<node id="9891441154" lat="66.1492055" lon="12.3965443" version="1" timestamp="2022-07-16T11:48:37Z" changeset="123686984" uid="3497659" user="NKA">
		<tag k="name" v="Bakken" />
		<tag k="place" v="farm" />
		<tag k="ssr:stedsnr" v="531323" />
	</node>
	<node id="9891441155" lat="66.1633945" lon="12.6138639" version="1" timestamp="2022-07-16T11:48:37Z" changeset="123686984" uid="3497659" user="NKA">
		<tag k="name" v="Gleinsvik" />
		<tag k="place" v="farm" />
		<tag k="ssr:stedsnr" v="76579" />
	</node>
	<node id="9891441156" lat="66.0786666" lon="12.5800943" version="1" timestamp="2022-07-16T11:48:37Z" changeset="123686984" uid="3497659" user="NKA">
		<tag k="name" v="Hestvika" />
		<tag k="place" v="farm" />
		<tag k="ssr:stedsnr" v="512755" />
	</node>
	<node id="9891441157" lat="66.1670444" lon="12.6950668" version="1" timestamp="2022-07-16T11:48:37Z" changeset="123686984" uid="3497659" user="NKA">
		<tag k="name" v="Skjelvikmoen" />
		<tag k="place" v="farm" />
		<tag k="ssr:stedsnr" v="76589" />
	</node>
	<node id="9891441158" lat="66.1712705" lon="12.5685724" version="1" timestamp="2022-07-16T11:48:37Z" changeset="123686984" uid="3497659" user="NKA">
		<tag k="name" v="Åker" />
		<tag k="place" v="village" />
		<tag k="ssr:stedsnr" v="16625" />
	</node>
	<node id="9891441159" lat="66.1375702" lon="12.3018294" version="1" timestamp="2022-07-16T11:48:37Z" changeset="123686984" uid="3497659" user="NKA">
		<tag k="name" v="Øygård" />
		<tag k="place" v="farm" />
		<tag k="ssr:stedsnr" v="289946" />
	</node>
	<node id="9891441160" lat="66.190475" lon="12.6179111" version="1" timestamp="2022-07-16T11:48:37Z" changeset="123686984" uid="3497659" user="NKA">
		<tag k="alt_name" v="Møllovikja" />
		<tag k="name" v="Mellomvika" />
		<tag k="place" v="farm" />
		<tag k="ssr:stedsnr" v="501641" />
	</node>
	<node id="9891441161" lat="66.1928973" lon="12.4846528" version="1" timestamp="2022-07-16T11:48:37Z" changeset="123686984" uid="3497659" user="NKA">
		<tag k="name" v="Lomshågjen" />
		<tag k="place" v="farm" />
		<tag k="ssr:stedsnr" v="470657" />
	</node>
	<node id="9891441162" lat="66.0861611" lon="12.4196778" version="1" timestamp="2022-07-16T11:48:37Z" changeset="123686984" uid="3497659" user="NKA">
		<tag k="name" v="Skogrinda" />
		<tag k="place" v="farm" />
		<tag k="ssr:stedsnr" v="197586" />
	</node>
	<node id="9891441163" lat="66.0872966" lon="12.3722051" version="1" timestamp="2022-07-16T11:48:37Z" changeset="123686984" uid="3497659" user="NKA">
		<tag k="name" v="Grindstad" />
		<tag k="place" v="farm" />
		<tag k="ssr:stedsnr" v="471258" />
	</node>
	<node id="9891441164" lat="66.1974733" lon="12.6139764" version="1" timestamp="2022-07-16T11:48:37Z" changeset="123686984" uid="3497659" user="NKA">
		<tag k="name" v="Nord-Åkvika" />
		<tag k="place" v="hamlet" />
		<tag k="ssr:stedsnr" v="501860" />
	</node>
	<node id="9891441165" lat="66.1808167" lon="12.467925" version="1" timestamp="2022-07-16T11:48:37Z" changeset="123686984" uid="3497659" user="NKA">
		<tag k="name" v="Lyngheim" />
		<tag k="place" v="locality" />
		<tag k="ssr:stedsnr" v="470447" />
	</node>
	<node id="9891441166" lat="66.1515685" lon="12.6990068" version="1" timestamp="2022-07-16T11:48:37Z" changeset="123686984" uid="3497659" user="NKA">
		<tag k="name" v="Nymoen" />
		<tag k="place" v="farm" />
		<tag k="ssr:stedsnr" v="379582" />
	</node>
	<node id="9891441167" lat="66.0543381" lon="12.5164701" version="1" timestamp="2022-07-16T11:48:37Z" changeset="123686984" uid="3497659" user="NKA">
		<tag k="name" v="Hestad" />
		<tag k="place" v="hamlet" />
		<tag k="ssr:stedsnr" v="980259" />
	</node>
	<node id="9891441168" lat="66.1095444" lon="12.4974694" version="1" timestamp="2022-07-16T11:48:37Z" changeset="123686984" uid="3497659" user="NKA">
		<tag k="name" v="Skjøråsen" />
		<tag k="place" v="neighbourhood" />
		<tag k="ssr:stedsnr" v="467097" />
	</node>
	<node id="9891441169" lat="66.1916968" lon="12.4822853" version="1" timestamp="2022-07-16T11:48:37Z" changeset="123686984" uid="3497659" user="NKA">
		<tag k="name" v="Rølvåg" />
		<tag k="place" v="hamlet" />
		<tag k="ssr:stedsnr" v="379659" />
	</node>
	<node id="9891441170" lat="66.1404637" lon="12.297268" version="1" timestamp="2022-07-16T11:48:37Z" changeset="123686984" uid="3497659" user="NKA">
		<tag k="name" v="Solhaug" />
		<tag k="place" v="farm" />
		<tag k="ssr:stedsnr" v="106276" />
	</node>
	<node id="9891441171" lat="66.1107639" lon="12.504639" version="1" timestamp="2022-07-16T11:48:37Z" changeset="123686984" uid="3497659" user="NKA">
		<tag k="name" v="Risnes" />
		<tag k="place" v="farm" />
		<tag k="ssr:stedsnr" v="379539" />
	</node>
	<node id="9891441172" lat="66.1632535" lon="12.6132635" version="1" timestamp="2022-07-16T11:48:37Z" changeset="123686984" uid="3497659" user="NKA">
		<tag k="name" v="Moen" />
		<tag k="place" v="farm" />
		<tag k="ssr:stedsnr" v="350340" />
	</node>
	<node id="9891441173" lat="66.1600594" lon="12.7932988" version="1" timestamp="2022-07-16T11:48:37Z" changeset="123686984" uid="3497659" user="NKA">
		<tag k="name" v="Moen" />
		<tag k="place" v="farm" />
		<tag k="ssr:stedsnr" v="835921" />
	</node>
	<node id="9891441174" lat="66.1487989" lon="12.7391419" version="1" timestamp="2022-07-16T11:48:37Z" changeset="123686984" uid="3497659" user="NKA">
		<tag k="name" v="Moen" />
		<tag k="place" v="farm" />
		<tag k="ssr:stedsnr" v="896201" />
	</node>
	<node id="9891441175" lat="66.1924628" lon="12.5864259" version="1" timestamp="2022-07-16T11:48:37Z" changeset="123686984" uid="3497659" user="NKA">
		<tag k="name" v="Åsvoll" />
		<tag k="place" v="farm" />
		<tag k="ssr:stedsnr" v="319671" />
	</node>
	<node id="9891441176" lat="66.157342" lon="12.6109578" version="1" timestamp="2022-07-16T11:48:37Z" changeset="123686984" uid="3497659" user="NKA">
		<tag k="name" v="Glein" />
		<tag k="place" v="village" />
		<tag k="ssr:stedsnr" v="318586" />
	</node>
	<node id="9891441177" lat="66.0967668" lon="12.4718855" version="1" timestamp="2022-07-16T11:48:37Z" changeset="123686984" uid="3497659" user="NKA">
		<tag k="name" v="Korsmo" />
		<tag k="place" v="hamlet" />
		<tag k="ssr:stedsnr" v="774294" />
	</node>
	<node id="9891441178" lat="66.2170961" lon="12.5794446" version="1" timestamp="2022-07-16T11:48:37Z" changeset="123686984" uid="3497659" user="NKA">
		<tag k="name" v="Heimland" />
		<tag k="place" v="farm" />
		<tag k="ssr:stedsnr" v="955730" />
	</node>
	<node id="9891441179" lat="66.0425306" lon="12.328439" version="1" timestamp="2022-07-16T11:48:37Z" changeset="123686984" uid="3497659" user="NKA">
		<tag k="name" v="Smedvika" />
		<tag k="place" v="farm" />
		<tag k="ssr:stedsnr" v="926969" />
	</node>
	<node id="9891441180" lat="66.1545139" lon="12.7955555" version="1" timestamp="2022-07-16T11:48:37Z" changeset="123686984" uid="3497659" user="NKA">
		<tag k="name" v="Rundten" />
		<tag k="place" v="farm" />
		<tag k="ssr:stedsnr" v="531918" />
	</node>
	<node id="9891441181" lat="66.1347941" lon="12.5190542" version="1" timestamp="2022-07-16T11:48:37Z" changeset="123686984" uid="3497659" user="NKA">
		<tag k="name" v="Skei" />
		<tag k="place" v="hamlet" />
		<tag k="ssr:stedsnr" v="318617" />
	</node>
	<node id="9891441182" lat="66.0935222" lon="12.3657242" version="1" timestamp="2022-07-16T11:48:37Z" changeset="123686984" uid="3497659" user="NKA">
		<tag k="alt_name" v="Skagavalen" />
		<tag k="name" v="Valen" />
		<tag k="place" v="farm" />
		<tag k="ssr:stedsnr" v="941273" />
	</node>
	<node id="9891441183" lat="66.1104431" lon="12.5617174" version="1" timestamp="2022-07-16T11:48:37Z" changeset="123686984" uid="3497659" user="NKA">
		<tag k="alt_name" v="Hildset" />
		<tag k="name" v="Hilset" />
		<tag k="place" v="hamlet" />
		<tag k="ssr:stedsnr" v="926547" />
	</node>
	<node id="9891441184" lat="66.2012694" lon="12.5488555" version="1" timestamp="2022-07-16T11:48:37Z" changeset="123686984" uid="3497659" user="NKA">
		<tag k="alt_name" v="Torsvikberget" />
		<tag k="name" v="Torsvikjaberget" />
		<tag k="place" v="farm" />
		<tag k="ssr:stedsnr" v="804699" />
	</node>
	<node id="9891441185" lat="66.1296111" lon="12.306" version="1" timestamp="2022-07-16T11:48:37Z" changeset="123686984" uid="3497659" user="NKA">
		<tag k="name" v="Nordøya" />
		<tag k="place" v="farm" />
		<tag k="ssr:stedsnr" v="471881" />
	</node>
	<node id="9891441186" lat="66.1426972" lon="12.2956388" version="1" timestamp="2022-07-16T11:48:37Z" changeset="123686984" uid="3497659" user="NKA">
		<tag k="name" v="Havsundet" />
		<tag k="place" v="farm" />
		<tag k="ssr:stedsnr" v="106284" />
	</node>
	<node id="9891441187" lat="66.1787194" lon="12.4867528" version="1" timestamp="2022-07-16T11:48:37Z" changeset="123686984" uid="3497659" user="NKA">
		<tag k="name" v="Solvang" />
		<tag k="place" v="farm" />
		<tag k="ssr:stedsnr" v="470445" />
	</node>
	<node id="9891441188" lat="66.039538" lon="12.522294" version="1" timestamp="2022-07-16T11:48:37Z" changeset="123686984" uid="3497659" user="NKA">
		<tag k="alt_name" v="Skorpen" />
		<tag k="name" v="Skorpa" />
		<tag k="place" v="farm" />
		<tag k="ssr:stedsnr" v="258887" />
	</node>
	<node id="9891441189" lat="66.1350278" lon="12.5421111" version="1" timestamp="2022-07-16T11:48:37Z" changeset="123686984" uid="3497659" user="NKA">
		<tag k="alt_name" v="Rødsdalen" />
		<tag k="name" v="Røsdalen" />
		<tag k="place" v="farm" />
		<tag k="ssr:stedsnr" v="804626" />
	</node>
	<node id="9891441190" lat="66.0287873" lon="12.5237335" version="1" timestamp="2022-07-16T11:48:37Z" changeset="123686984" uid="3497659" user="NKA">
		<tag k="name" v="Vangen" />
		<tag k="place" v="isolated_dwelling" />
		<tag k="ssr:stedsnr" v="592803" />
	</node>
	<node id="9891441191" lat="66.1661167" lon="12.5635555" version="1" timestamp="2022-07-16T11:48:37Z" changeset="123686984" uid="3497659" user="NKA">
		<tag k="name" v="Hauan" />
		<tag k="place" v="neighbourhood" />
		<tag k="ssr:stedsnr" v="168378" />
	</node>
	<node id="9891441192" lat="66.0503609" lon="12.504894" version="1" timestamp="2022-07-16T11:48:37Z" changeset="123686984" uid="3497659" user="NKA">
		<tag k="name" v="Elvheim" />
		<tag k="place" v="farm" />
		<tag k="ssr:stedsnr" v="168496" />
	</node>
	<node id="9891441193" lat="66.1614853" lon="12.5538043" version="1" timestamp="2022-07-16T11:48:37Z" changeset="123686984" uid="3497659" user="NKA">
		<tag k="name" v="Halvbakken" />
		<tag k="place" v="isolated_dwelling" />
		<tag k="ssr:stedsnr" v="168368" />
	</node>
	<node id="9891441194" lat="66.0967937" lon="12.5205255" version="1" timestamp="2022-07-16T11:48:37Z" changeset="123686984" uid="3497659" user="NKA">
		<tag k="name" v="Holandsstranda" />
		<tag k="place" v="farm" />
		<tag k="ssr:stedsnr" v="501517" />
	</node>
	<node id="9891441195" lat="66.056275" lon="12.3869139" version="1" timestamp="2022-07-16T11:48:37Z" changeset="123686984" uid="3497659" user="NKA">
		<tag k="name" v="Kroken" />
		<tag k="place" v="locality" />
		<tag k="ssr:stedsnr" v="168418" />
	</node>
	<node id="9891441196" lat="66.142875" lon="12.3234473" version="1" timestamp="2022-07-16T11:48:37Z" changeset="123686984" uid="3497659" user="NKA">
		<tag k="alt_name" v="Skogstad" />
		<tag k="name" v="Risneset" />
		<tag k="place" v="farm" />
		<tag k="ssr:stedsnr" v="561620" />
	</node>
	<node id="9891441197" lat="66.0389996" lon="12.4535883" version="1" timestamp="2022-07-16T11:48:37Z" changeset="123686984" uid="3497659" user="NKA">
		<tag k="name" v="Teigstadvollen" />
		<tag k="place" v="farm" />
		<tag k="ssr:stedsnr" v="471515" />
	</node>
	<node id="9891441198" lat="66.1946833" lon="12.5042" version="1" timestamp="2022-07-16T11:48:37Z" changeset="123686984" uid="3497659" user="NKA">
		<tag k="name" v="Nordheim" />
		<tag k="place" v="farm" />
		<tag k="ssr:stedsnr" v="166635" />
	</node>
	<node id="9891441199" lat="66.1561083" lon="12.6058112" version="1" timestamp="2022-07-16T11:48:37Z" changeset="123686984" uid="3497659" user="NKA">
		<tag k="name" v="Vestermyra" />
		<tag k="place" v="farm" />
		<tag k="ssr:stedsnr" v="167277" />
	</node>
	<node id="9891441200" lat="66.0238509" lon="12.4967653" version="1" timestamp="2022-07-16T11:48:37Z" changeset="123686984" uid="3497659" user="NKA">
		<tag k="name" v="Lisslauvøya" />
		<tag k="place" v="farm" />
		<tag k="ssr:stedsnr" v="990376" />
	</node>
	<node id="9891441201" lat="66.069446" lon="12.4048314" version="1" timestamp="2022-07-16T11:48:37Z" changeset="123686984" uid="3497659" user="NKA">
		<tag k="name" v="Myrland" />
		<tag k="place" v="farm" />
		<tag k="ssr:stedsnr" v="287457" />
	</node>
	<node id="9891441202" lat="66.1288694" lon="12.5430945" version="1" timestamp="2022-07-16T11:48:37Z" changeset="123686984" uid="3497659" user="NKA">
		<tag k="name" v="Kammarka" />
		<tag k="place" v="farm" />
		<tag k="ssr:stedsnr" v="379480" />
	</node>
	<node id="9891441203" lat="66.1249942" lon="12.4891789" version="1" timestamp="2022-07-16T11:48:37Z" changeset="123686984" uid="3497659" user="NKA">
		<tag k="alt_name" v="Leirvika" />
		<tag k="name" v="Leirvikja" />
		<tag k="place" v="farm" />
		<tag k="ssr:stedsnr" v="136541" />
	</node>
	<node id="9891441204" lat="66.07955" lon="12.4431306" version="1" timestamp="2022-07-16T11:48:37Z" changeset="123686984" uid="3497659" user="NKA">
		<tag k="name" v="Hølvollen" />
		<tag k="place" v="farm" />
		<tag k="ssr:stedsnr" v="136937" />
	</node>
	<node id="9891441205" lat="66.122825" lon="12.5599667" version="1" timestamp="2022-07-16T11:48:37Z" changeset="123686984" uid="3497659" user="NKA">
		<tag k="alt_name" v="Litlvika" />
		<tag k="name" v="Vågsvikja" />
		<tag k="place" v="farm" />
		<tag k="ssr:stedsnr" v="46943" />
	</node>
	<node id="9891441206" lat="66.1467058" lon="12.57656" version="1" timestamp="2022-07-16T11:48:37Z" changeset="123686984" uid="3497659" user="NKA">
		<tag k="name" v="Hilstad" />
		<tag k="place" v="farm" />
		<tag k="ssr:stedsnr" v="531264" />
	</node>
	<node id="9891441207" lat="66.181575" lon="12.7002695" version="1" timestamp="2022-07-16T11:48:37Z" changeset="123686984" uid="3497659" user="NKA">
		<tag k="alt_name" v="Børsvika" />
		<tag k="name" v="Børdsvikja" />
		<tag k="place" v="isolated_dwelling" />
		<tag k="ssr:stedsnr" v="76663" />
	</node>
	<node id="9891441208" lat="66.1835006" lon="12.5329" version="1" timestamp="2022-07-16T11:48:37Z" changeset="123686984" uid="3497659" user="NKA">
		<tag k="name" v="Juvågjen" />
		<tag k="place" v="farm" />
		<tag k="ssr:stedsnr" v="955642" />
	</node>
	<node id="9891441209" lat="66.0925722" lon="12.3558999" version="1" timestamp="2022-07-16T11:48:37Z" changeset="123686984" uid="3497659" user="NKA">
		<tag k="name" v="Valstad" />
		<tag k="place" v="farm" />
		<tag k="ssr:stedsnr" v="76574" />
	</node>
	<node id="9891441210" lat="66.2089486" lon="12.5917735" version="1" timestamp="2022-07-16T11:48:37Z" changeset="123686984" uid="3497659" user="NKA">
		<tag k="name" v="Røytvollen" />
		<tag k="place" v="farm" />
		<tag k="ssr:stedsnr" v="319617" />
	</node>
	<node id="9891441211" lat="66.0878639" lon="12.5907444" version="1" timestamp="2022-07-16T11:48:37Z" changeset="123686984" uid="3497659" user="NKA">
		<tag k="alt_name" v="Myren" />
		<tag k="name" v="Myra" />
		<tag k="place" v="farm" />
		<tag k="ssr:stedsnr" v="622942" />
	</node>
	<node id="9891441212" lat="66.1940307" lon="12.6174001" version="1" timestamp="2022-07-16T11:48:37Z" changeset="123686984" uid="3497659" user="NKA">
		<tag k="name" v="Åkvika" />
		<tag k="place" v="farm" />
		<tag k="ssr:stedsnr" v="543888" />
	</node>
	<node id="9891441213" lat="66.1743944" lon="12.5569464" version="1" timestamp="2022-07-16T11:48:37Z" changeset="123686984" uid="3497659" user="NKA">
		<tag k="alt_name" v="Nedrebø" />
		<tag k="name" v="Nerbø" />
		<tag k="place" v="farm" />
		<tag k="ssr:stedsnr" v="16627" />
	</node>
	<node id="9891441214" lat="66.155364" lon="12.7984577" version="1" timestamp="2022-07-16T11:48:37Z" changeset="123686984" uid="3497659" user="NKA">
		<tag k="name" v="Bortigården" />
		<tag k="place" v="farm" />
		<tag k="ssr:stedsnr" v="410920" />
	</node>
	<node id="9891441215" lat="66.1886957" lon="12.4663853" version="1" timestamp="2022-07-16T11:48:37Z" changeset="123686984" uid="3497659" user="NKA">
		<tag k="name" v="Klumpan" />
		<tag k="place" v="farm" />
		<tag k="ssr:stedsnr" v="16638" />
	</node>
	<node id="9891441216" lat="66.1639555" lon="12.549725" version="1" timestamp="2022-07-16T11:48:37Z" changeset="123686984" uid="3497659" user="NKA">
		<tag k="name" v="Nordvikja" />
		<tag k="place" v="farm" />
		<tag k="ssr:stedsnr" v="836333" />
	</node>
	<node id="9891441217" lat="66.1274032" lon="12.3007028" version="1" timestamp="2022-07-16T11:48:37Z" changeset="123686984" uid="3497659" user="NKA">
		<tag k="name" v="Sørøya" />
		<tag k="place" v="hamlet" />
		<tag k="ssr:stedsnr" v="925570" />
	</node>
	<node id="9891441218" lat="66.1799925" lon="12.6245325" version="1" timestamp="2022-07-16T11:48:37Z" changeset="123686984" uid="3497659" user="NKA">
		<tag k="name" v="Sigerstad" />
		<tag k="place" v="hamlet" />
		<tag k="ssr:stedsnr" v="16623" />
	</node>
	<node id="9891441219" lat="66.1354306" lon="12.5105916" version="1" timestamp="2022-07-16T11:48:37Z" changeset="123686984" uid="3497659" user="NKA">
		<tag k="alt_name" v="Skeissjøen" />
		<tag k="name" v="Skeissjyen" />
		<tag k="place" v="farm" />
		<tag k="ssr:stedsnr" v="15639" />
	</node>
	<node id="9891441220" lat="66.1712419" lon="12.6202747" version="1" timestamp="2022-07-16T11:48:37Z" changeset="123686984" uid="3497659" user="NKA">
		<tag k="name" v="Kleivan" />
		<tag k="place" v="farm" />
		<tag k="ssr:stedsnr" v="16624" />
	</node>
	<node id="9891441221" lat="66.1437692" lon="12.3950154" version="1" timestamp="2022-07-16T11:48:37Z" changeset="123686984" uid="3497659" user="NKA">
		<tag k="name" v="Engen" />
		<tag k="place" v="farm" />
		<tag k="ssr:stedsnr" v="774326" />
	</node>
	<node id="9891441222" lat="66.1572643" lon="12.6084754" version="1" timestamp="2022-07-16T11:48:37Z" changeset="123686984" uid="3497659" user="NKA">
		<tag k="name" v="Teian" />
		<tag k="place" v="farm" />
		<tag k="ssr:stedsnr" v="834277" />
	</node>
	<node id="9891441223" lat="66.1001191" lon="12.5131674" version="1" timestamp="2022-07-16T11:48:37Z" changeset="123686984" uid="3497659" user="NKA">
		<tag k="name" v="Olfoten" />
		<tag k="place" v="hamlet" />
		<tag k="ssr:stedsnr" v="15570" />
	</node>
	<node id="9891441224" lat="66.1219224" lon="12.5067386" version="1" timestamp="2022-07-16T11:48:37Z" changeset="123686984" uid="3497659" user="NKA">
		<tag k="name" v="Nordvikja" />
		<tag k="place" v="farm" />
		<tag k="ssr:stedsnr" v="289934" />
	</node>
	<node id="9891441225" lat="66.0352472" lon="12.5510834" version="1" timestamp="2022-07-16T11:48:37Z" changeset="123686984" uid="3497659" user="NKA">
		<tag k="alt_name" v="Sætra" />
		<tag k="name" v="Setra" />
		<tag k="place" v="locality" />
		<tag k="ssr:stedsnr" v="76869" />
	</node>
	<node id="9891441226" lat="66.2097202" lon="12.5608505" version="1" timestamp="2022-07-16T11:48:37Z" changeset="123686984" uid="3497659" user="NKA">
		<tag k="name" v="Skredingan" />
		<tag k="place" v="farm" />
		<tag k="ssr:stedsnr" v="76643" />
	</node>
	<node id="9891441227" lat="66.1438667" lon="12.3005667" version="1" timestamp="2022-07-16T11:48:37Z" changeset="123686984" uid="3497659" user="NKA">
		<tag k="name" v="Merkebakken" />
		<tag k="place" v="farm" />
		<tag k="ssr:stedsnr" v="835289" />
	</node>
	<node id="9891441228" lat="66.2156361" lon="12.5723444" version="1" timestamp="2022-07-16T11:48:37Z" changeset="123686984" uid="3497659" user="NKA">
		<tag k="name" v="Hammarvik" />
		<tag k="place" v="hamlet" />
		<tag k="ssr:stedsnr" v="411683" />
	</node>
	<node id="9891441229" lat="66.0819922" lon="12.4458899" version="1" timestamp="2022-07-16T11:48:37Z" changeset="123686984" uid="3497659" user="NKA">
		<tag k="name" v="Slættvika" />
		<tag k="place" v="farm" />
		<tag k="ssr:stedsnr" v="451748" />
	</node>
	<node id="9891441230" lat="66.1500111" lon="12.3879501" version="1" timestamp="2022-07-16T11:48:37Z" changeset="123686984" uid="3497659" user="NKA">
		<tag k="name" v="Remman" />
		<tag k="place" v="farm" />
		<tag k="ssr:stedsnr" v="834303" />
	</node>
	<node id="9891441231" lat="66.1553802" lon="12.6193778" version="1" timestamp="2022-07-16T11:48:37Z" changeset="123686984" uid="3497659" user="NKA">
		<tag k="name" v="Klipa" />
		<tag k="place" v="isolated_dwelling" />
		<tag k="ssr:stedsnr" v="409279" />
	</node>
	<node id="9891441232" lat="66.1072361" lon="12.4799722" version="1" timestamp="2022-07-16T11:48:37Z" changeset="123686984" uid="3497659" user="NKA">
		<tag k="alt_name" v="Mevikja;Meviken" />
		<tag k="name" v="Medvika" />
		<tag k="place" v="farm" />
		<tag k="ssr:stedsnr" v="289075" />
	</node>
	<node id="9891441233" lat="66.0900376" lon="12.6091701" version="1" timestamp="2022-07-16T11:48:37Z" changeset="123686984" uid="3497659" user="NKA">
		<tag k="alt_name" v="Breidlandet" />
		<tag k="name" v="Breiland" />
		<tag k="place" v="hamlet" />
		<tag k="ssr:stedsnr" v="501947" />
	</node>
	<node id="9891441234" lat="66.1984165" lon="12.5325725" version="1" timestamp="2022-07-16T11:48:37Z" changeset="123686984" uid="3497659" user="NKA">
		<tag k="alt_name" v="Strømmen" />
		<tag k="name" v="Straumen" />
		<tag k="place" v="farm" />
		<tag k="ssr:stedsnr" v="267850" />
	</node>
	<node id="9891441235" lat="66.0531944" lon="12.513375" version="1" timestamp="2022-07-16T11:48:37Z" changeset="123686984" uid="3497659" user="NKA">
		<tag k="name" v="Sletten" />
		<tag k="place" v="farm" />
		<tag k="ssr:stedsnr" v="350516" />
	</node>
	<node id="9891441236" lat="66.1396606" lon="12.298285" version="1" timestamp="2022-07-16T11:48:37Z" changeset="123686984" uid="3497659" user="NKA">
		<tag k="name" v="Holmen" />
		<tag k="place" v="farm" />
		<tag k="ssr:stedsnr" v="288260" />
	</node>
	<node id="9891441237" lat="66.1782973" lon="12.5081666" version="1" timestamp="2022-07-16T11:48:37Z" changeset="123686984" uid="3497659" user="NKA">
		<tag k="name" v="Tuvhågjen" />
		<tag k="place" v="farm" />
		<tag k="ssr:stedsnr" v="349466" />
	</node>
	<node id="9891441238" lat="66.1429083" lon="12.303925" version="1" timestamp="2022-07-16T11:48:37Z" changeset="123686984" uid="3497659" user="NKA">
		<tag k="name" v="Valheim" />
		<tag k="place" v="farm" />
		<tag k="ssr:stedsnr" v="227293" />
	</node>
	<node id="9891441239" lat="66.1997611" lon="12.6090333" version="1" timestamp="2022-07-16T11:48:37Z" changeset="123686984" uid="3497659" user="NKA">
		<tag k="name" v="Solheim" />
		<tag k="place" v="farm" />
		<tag k="ssr:stedsnr" v="228703" />
	</node>
	<node id="9891441240" lat="66.0326898" lon="12.3303393" version="1" timestamp="2022-07-16T11:48:37Z" changeset="123686984" uid="3497659" user="NKA">
		<tag k="name" v="Sør-Åkvika" />
		<tag k="place" v="hamlet" />
		<tag k="ssr:stedsnr" v="440664" />
	</node>
	<node id="9891441241" lat="66.137877" lon="12.6140821" version="1" timestamp="2022-07-16T11:48:37Z" changeset="123686984" uid="3497659" user="NKA">
		<tag k="alt_name" v="Gullstad" />
		<tag k="name" v="Gulstad" />
		<tag k="place" v="farm" />
		<tag k="ssr:stedsnr" v="743525" />
	</node>
	<node id="9891441242" lat="66.0904583" lon="12.4405" version="1" timestamp="2022-07-16T11:48:37Z" changeset="123686984" uid="3497659" user="NKA">
		<tag k="name" v="Nordgården" />
		<tag k="place" v="farm" />
		<tag k="ssr:stedsnr" v="228249" />
	</node>
	<node id="9891441243" lat="66.1128821" lon="12.6046617" version="1" timestamp="2022-07-16T11:48:37Z" changeset="123686984" uid="3497659" user="NKA">
		<tag k="name" v="Dalsvåg" />
		<tag k="place" v="farm" />
		<tag k="ssr:stedsnr" v="500637" />
	</node>
	<node id="9891441244" lat="66.154024" lon="12.7907792" version="1" timestamp="2022-07-16T11:48:37Z" changeset="123686984" uid="3497659" user="NKA">
		<tag k="name" v="Sørvollen" />
		<tag k="place" v="farm" />
		<tag k="ssr:stedsnr" v="652191" />
	</node>
	<node id="9891441245" lat="66.1461953" lon="12.7208835" version="1" timestamp="2022-07-16T11:48:37Z" changeset="123686984" uid="3497659" user="NKA">
		<tag k="name" v="Kopardal" />
		<tag k="place" v="farm" />
		<tag k="ssr:stedsnr" v="980272" />
	</node>
	<node id="9891441246" lat="66.1642502" lon="12.5540789" version="1" timestamp="2022-07-16T11:48:37Z" changeset="123686984" uid="3497659" user="NKA">
		<tag k="name" v="Vakkervollan" />
		<tag k="place" v="farm" />
		<tag k="ssr:stedsnr" v="775335" />
	</node>
	<node id="9891441247" lat="66.1703944" lon="12.3359472" version="1" timestamp="2022-07-16T11:48:37Z" changeset="123686984" uid="3497659" user="NKA">
		<tag k="name" v="Partan" />
		<tag k="place" v="hamlet" />
		<tag k="ssr:stedsnr" v="713702" />
	</node>
	<node id="9891441248" lat="66.1652528" lon="12.3404461" version="1" timestamp="2022-07-16T11:48:37Z" changeset="123686984" uid="3497659" user="NKA">
		<tag k="name" v="Bakkely" />
		<tag k="place" v="farm" />
		<tag k="ssr:stedsnr" v="713708" />
	</node>
	<node id="9891441249" lat="66.2160975" lon="12.6041957" version="1" timestamp="2022-07-16T11:48:37Z" changeset="123686984" uid="3497659" user="NKA">
		<tag k="name" v="Sandvikja" />
		<tag k="place" v="farm" />
		<tag k="ssr:stedsnr" v="713761" />
	</node>
	<node id="9891441250" lat="66.0650694" lon="12.5551091" version="1" timestamp="2022-07-16T11:48:37Z" changeset="123686984" uid="3497659" user="NKA">
		<tag k="name" v="Storvik" />
		<tag k="place" v="farm" />
		<tag k="ssr:stedsnr" v="653594" />
	</node>
	<node id="9891441251" lat="66.181245" lon="12.7195859" version="1" timestamp="2022-07-16T11:48:37Z" changeset="123686984" uid="3497659" user="NKA">
		<tag k="alt_name" v="Hov" />
		<tag k="name" v="Haugen" />
		<tag k="place" v="hamlet" />
		<tag k="ssr:stedsnr" v="865011" />
	</node>
	<node id="9891441252" lat="66.1758701" lon="12.6966998" version="1" timestamp="2022-07-16T11:48:37Z" changeset="123686984" uid="3497659" user="NKA">
		<tag k="alt_name" v="Nersjyen" />
		<tag k="name" v="Hovsvågen" />
		<tag k="place" v="farm" />
		<tag k="ssr:stedsnr" v="682636" />
	</node>
	<node id="9891441253" lat="66.1604659" lon="12.6985813" version="1" timestamp="2022-07-16T11:48:37Z" changeset="123686984" uid="3497659" user="NKA">
		<tag k="name" v="Sjøveien" />
		<tag k="place" v="farm" />
		<tag k="ssr:stedsnr" v="713231" />
	</node>
	<node id="9891441254" lat="66.1516389" lon="12.7306666" version="1" timestamp="2022-07-16T11:48:37Z" changeset="123686984" uid="3497659" user="NKA">
		<tag k="name" v="Nordmyra" />
		<tag k="place" v="farm" />
		<tag k="ssr:stedsnr" v="471857" />
	</node>
	<node id="9891441255" lat="66.1480222" lon="12.7349195" version="1" timestamp="2022-07-16T11:48:37Z" changeset="123686984" uid="3497659" user="NKA">
		<tag k="name" v="Nerstua" />
		<tag k="place" v="farm" />
		<tag k="ssr:stedsnr" v="714859" />
	</node>
	<node id="9891441256" lat="66.2133972" lon="12.6050223" version="1" timestamp="2022-07-16T11:48:37Z" changeset="123686984" uid="3497659" user="NKA">
		<tag k="name" v="Mannvikja" />
		<tag k="place" v="hamlet" />
		<tag k="ssr:stedsnr" v="652720" />
	</node>
	<node id="9891441257" lat="66.1611824" lon="12.70113" version="1" timestamp="2022-07-16T11:48:37Z" changeset="123686984" uid="3497659" user="NKA">
		<tag k="name" v="Breivikgården" />
		<tag k="place" v="farm" />
		<tag k="ssr:stedsnr" v="470212" />
	</node>
	<node id="9891441258" lat="66.1484277" lon="12.6959693" version="1" timestamp="2022-07-16T11:48:37Z" changeset="123686984" uid="3497659" user="NKA">
		<tag k="name" v="Aspås" />
		<tag k="place" v="farm" />
		<tag k="ssr:stedsnr" v="318600" />
	</node>
	<node id="9891441259" lat="66.1599308" lon="12.7755995" version="1" timestamp="2022-07-16T11:48:37Z" changeset="123686984" uid="3497659" user="NKA">
		<tag k="name" v="Trøa" />
		<tag k="place" v="farm" />
		<tag k="ssr:stedsnr" v="409247" />
	</node>
	<node id="9891441260" lat="66.1697837" lon="12.7279242" version="1" timestamp="2022-07-16T11:48:37Z" changeset="123686984" uid="3497659" user="NKA">
		<tag k="name" v="Gården" />
		<tag k="place" v="farm" />
		<tag k="ssr:stedsnr" v="350326" />
	</node>
	<node id="9891441261" lat="66.1471945" lon="12.728689" version="1" timestamp="2022-07-16T11:48:37Z" changeset="123686984" uid="3497659" user="NKA">
		<tag k="name" v="Andgården" />
		<tag k="place" v="farm" />
		<tag k="ssr:stedsnr" v="531874" />
	</node>
	<node id="9891441262" lat="66.1455048" lon="12.7120989" version="1" timestamp="2022-07-16T11:48:37Z" changeset="123686984" uid="3497659" user="NKA">
		<tag k="name" v="Kopardalsgården" />
		<tag k="place" v="farm" />
		<tag k="ssr:stedsnr" v="773267" />
	</node>
	<node id="9891441263" lat="66.2093811" lon="12.6082393" version="1" timestamp="2022-07-16T11:48:37Z" changeset="123686984" uid="3497659" user="NKA">
		<tag k="name" v="Snekkvikja" />
		<tag k="place" v="farm" />
		<tag k="ssr:stedsnr" v="288606" />
	</node>
	<node id="9891441264" lat="66.1818482" lon="12.7154142" version="1" timestamp="2022-07-16T11:48:37Z" changeset="123686984" uid="3497659" user="NKA">
		<tag k="name" v="Hov" />
		<tag k="place" v="farm" />
		<tag k="ssr:stedsnr" v="990337" />
	</node>
	<node id="9891441265" lat="66.1226151" lon="12.4110231" version="1" timestamp="2022-07-16T11:48:37Z" changeset="123686984" uid="3497659" user="NKA">
		<tag k="name" v="Ramnøya" />
		<tag k="place" v="locality" />
		<tag k="ssr:stedsnr" v="990348" />
	</node>
	<node id="9891441266" lat="66.1465145" lon="12.7222219" version="1" timestamp="2022-07-16T11:48:37Z" changeset="123686984" uid="3497659" user="NKA">
		<tag k="name" v="Ekran" />
		<tag k="place" v="farm" />
		<tag k="ssr:stedsnr" v="76210" />
	</node>
	<node id="9891441267" lat="66.1794465" lon="12.7146281" version="1" timestamp="2022-07-16T11:48:37Z" changeset="123686984" uid="3497659" user="NKA">
		<tag k="name" v="Hovsgården" />
		<tag k="place" v="farm" />
		<tag k="ssr:stedsnr" v="957378" />
	</node>
	<node id="9891441268" lat="66.1591735" lon="12.7889419" version="1" timestamp="2022-07-16T11:48:37Z" changeset="123686984" uid="3497659" user="NKA">
		<tag k="name" v="Horn" />
		<tag k="place" v="hamlet" />
		<tag k="ssr:stedsnr" v="743198" />
	</node>
	<node id="9891441269" lat="66.1778945" lon="12.68805" version="1" timestamp="2022-07-16T11:48:37Z" changeset="123686984" uid="3497659" user="NKA">
		<tag k="name" v="Bortersjyen" />
		<tag k="place" v="farm" />
		<tag k="ssr:stedsnr" v="107396" />
	</node>
	<node id="9891441270" lat="66.1452361" lon="12.7249611" version="1" timestamp="2022-07-16T11:48:37Z" changeset="123686984" uid="3497659" user="NKA">
		<tag k="name" v="Nerekran" />
		<tag k="place" v="farm" />
		<tag k="ssr:stedsnr" v="289903" />
	</node>
	<node id="9891441271" lat="66.1909696" lon="12.6170932" version="1" timestamp="2022-07-16T11:48:37Z" changeset="123686984" uid="3497659" user="NKA">
		<tag k="name" v="Alfheim" />
		<tag k="place" v="farm" />
		<tag k="ssr:stedsnr" v="106681" />
	</node>
	<node id="9891441272" lat="66.1597912" lon="12.697121" version="1" timestamp="2022-07-16T11:48:37Z" changeset="123686984" uid="3497659" user="NKA">
		<tag k="name" v="Sjyhågjen" />
		<tag k="place" v="farm" />
		<tag k="ssr:stedsnr" v="106258" />
	</node>
	<node id="9891441273" lat="66.1455689" lon="12.580893" version="1" timestamp="2022-07-16T11:48:37Z" changeset="123686984" uid="3497659" user="NKA">
		<tag k="name" v="Solvoll" />
		<tag k="place" v="farm" />
		<tag k="ssr:stedsnr" v="106262" />
	</node>
	<node id="9891441274" lat="66.1573698" lon="12.790973" version="1" timestamp="2022-07-16T11:48:37Z" changeset="123686984" uid="3497659" user="NKA">
		<tag k="name" v="Teigen" />
		<tag k="place" v="farm" />
		<tag k="ssr:stedsnr" v="46921" />
	</node>
	<node id="9891441275" lat="66.1566249" lon="12.7800839" version="1" timestamp="2022-07-16T11:48:37Z" changeset="123686984" uid="3497659" user="NKA">
		<tag k="name" v="Gården" />
		<tag k="place" v="farm" />
		<tag k="ssr:stedsnr" v="531222" />
	</node>
	<node id="9891441276" lat="66.1855232" lon="12.3435465" version="1" timestamp="2022-07-16T11:48:37Z" changeset="123686984" uid="3497659" user="NKA">
		<tag k="name" v="Liss-Vandve" />
		<tag k="place" v="farm" />
		<tag k="ssr:stedsnr" v="990347" />
	</node>
	<node id="9891441277" lat="66.1577861" lon="12.7754444" version="1" timestamp="2022-07-16T11:48:37Z" changeset="123686984" uid="3497659" user="NKA">
		<tag k="name" v="Nyheim" />
		<tag k="place" v="farm" />
		<tag k="ssr:stedsnr" v="45225" />
	</node>
	<node id="9891441278" lat="66.138378" lon="12.2990423" version="1" timestamp="2022-07-16T11:48:37Z" changeset="123686984" uid="3497659" user="NKA">
		<tag k="name" v="Inner Havsund" />
		<tag k="place" v="farm" />
		<tag k="ssr:stedsnr" v="774929" />
	</node>
	<node id="9891441279" lat="66.1379444" lon="12.5303111" version="1" timestamp="2022-07-16T11:48:37Z" changeset="123686984" uid="3497659" user="NKA">
		<tag k="name" v="Sommarås" />
		<tag k="place" v="farm" />
		<tag k="ssr:stedsnr" v="318618" />
	</node>
	<node id="9891441280" lat="66.1493889" lon="12.3263556" version="1" timestamp="2022-07-16T11:48:37Z" changeset="123686984" uid="3497659" user="NKA">
		<tag k="name" v="Setermoen" />
		<tag k="place" v="farm" />
		<tag k="ssr:stedsnr" v="713316" />
	</node>
	<node id="9891441281" lat="66.1469638" lon="12.7368873" version="1" timestamp="2022-07-16T11:48:37Z" changeset="123686984" uid="3497659" user="NKA">
		<tag k="name" v="Kronborg" />
		<tag k="place" v="farm" />
		<tag k="ssr:stedsnr" v="714857" />
	</node>
	<node id="9891441282" lat="66.1770169" lon="12.5593815" version="1" timestamp="2022-07-16T11:48:37Z" changeset="123686984" uid="3497659" user="NKA">
		<tag k="name" v="Skardet" />
		<tag k="place" v="farm" />
		<tag k="ssr:stedsnr" v="957405" />
	</node>
	<node id="9891441283" lat="66.1560108" lon="12.3094581" version="1" timestamp="2022-07-16T11:48:37Z" changeset="123686984" uid="3497659" user="NKA">
		<tag k="name" v="Strand" />
		<tag k="place" v="isolated_dwelling" />
		<tag k="ssr:stedsnr" v="692621" />
	</node>
	<node id="9891441284" lat="66.1305022" lon="12.6062718" version="1" timestamp="2022-07-16T11:48:37Z" changeset="123686984" uid="3497659" user="NKA">
		<tag k="name" v="Gjesfjorden" />
		<tag k="place" v="hamlet" />
		<tag k="ssr:stedsnr" v="197558" />
	</node>
	<node id="9891441285" lat="66.0540861" lon="12.5141889" version="1" timestamp="2022-07-16T11:48:37Z" changeset="123686984" uid="3497659" user="NKA">
		<tag k="name" v="Solheim" />
		<tag k="place" v="farm" />
		<tag k="ssr:stedsnr" v="46650" />
	</node>
	<node id="9891441286" lat="66.2019458" lon="12.5543141" version="1" timestamp="2022-07-16T11:48:37Z" changeset="123686984" uid="3497659" user="NKA">
		<tag k="alt_name" v="Torsvik" />
		<tag k="name" v="Torsvikja" />
		<tag k="place" v="farm" />
		<tag k="ssr:stedsnr" v="874861" />
	</node>
	<node id="9891441287" lat="66.1794222" lon="12.5013334" version="1" timestamp="2022-07-16T11:48:37Z" changeset="123686984" uid="3497659" user="NKA">
		<tag k="name" v="Titternes" />
		<tag k="place" v="hamlet" />
		<tag k="ssr:stedsnr" v="865694" />
	</node>
	<node id="9891441288" lat="66.1612424" lon="12.3427943" version="1" timestamp="2022-07-16T11:48:37Z" changeset="123686984" uid="3497659" user="NKA">
		<tag k="name" v="Bergly" />
		<tag k="place" v="farm" />
		<tag k="ssr:stedsnr" v="258584" />
	</node>
	<node id="9891441289" lat="66.1014737" lon="12.5163901" version="1" timestamp="2022-07-16T11:48:37Z" changeset="123686984" uid="3497659" user="NKA">
		<tag k="name" v="Vollen" />
		<tag k="place" v="farm" />
		<tag k="ssr:stedsnr" v="743535" />
	</node>
	<node id="9891441290" lat="66.1002162" lon="12.5544291" version="1" timestamp="2022-07-16T11:48:37Z" changeset="123686984" uid="3497659" user="NKA">
		<tag k="name" v="Holand" />
		<tag k="place" v="farm" />
		<tag k="ssr:stedsnr" v="865553" />
	</node>
	<node id="9891441291" lat="66.1064611" lon="12.5707" version="1" timestamp="2022-07-16T11:48:37Z" changeset="123686984" uid="3497659" user="NKA">
		<tag k="name" v="Breimo" />
		<tag k="place" v="farm" />
		<tag k="ssr:stedsnr" v="835379" />
	</node>
	<node id="9891441292" lat="66.1548864" lon="12.6051039" version="1" timestamp="2022-07-16T11:48:37Z" changeset="123686984" uid="3497659" user="NKA">
		<tag k="name" v="Monshågjen" />
		<tag k="place" v="farm" />
		<tag k="ssr:stedsnr" v="652230" />
	</node>
	<node id="9891441293" lat="66.10555" lon="12.660989" version="1" timestamp="2022-07-16T11:48:37Z" changeset="123686984" uid="3497659" user="NKA">
		<tag k="alt_name" v="Hangbjørn" />
		<tag k="name" v="Nordbjørn" />
		<tag k="place" v="locality" />
		<tag k="ssr:stedsnr" v="622529" />
	</node>
	<node id="9891441294" lat="66.1126463" lon="12.5771256" version="1" timestamp="2022-07-16T11:48:37Z" changeset="123686984" uid="3497659" user="NKA">
		<tag k="name" v="Myrstad" />
		<tag k="place" v="farm" />
		<tag k="ssr:stedsnr" v="835358" />
	</node>
	<node id="9891441295" lat="66.0258666" lon="12.495461" version="1" timestamp="2022-07-16T11:48:37Z" changeset="123686984" uid="3497659" user="NKA">
		<tag k="name" v="Sandvalen" />
		<tag k="place" v="locality" />
		<tag k="ssr:stedsnr" v="168748" />
	</node>
	<node id="9891441296" lat="66.0632918" lon="12.5508426" version="1" timestamp="2022-07-16T11:48:37Z" changeset="123686984" uid="3497659" user="NKA">
		<tag k="name" v="Bråtland" />
		<tag k="place" v="farm" />
		<tag k="ssr:stedsnr" v="168573" />
	</node>
	<node id="9891441297" lat="66.0346148" lon="12.5148962" version="1" timestamp="2022-07-16T11:48:37Z" changeset="123686984" uid="3497659" user="NKA">
		<tag k="alt_name" v="Skorpen;Husvika" />
		<tag k="name" v="Husvikja" />
		<tag k="place" v="isolated_dwelling" />
		<tag k="ssr:stedsnr" v="355005" />
	</node>
	<node id="9891441298" lat="66.0662805" lon="12.5596982" version="1" timestamp="2022-07-16T11:48:37Z" changeset="123686984" uid="3497659" user="NKA">
		<tag k="name" v="Nysted" />
		<tag k="place" v="farm" />
		<tag k="ssr:stedsnr" v="46659" />
	</node>
	<node id="9891441299" lat="66.0494968" lon="12.5020061" version="1" timestamp="2022-07-16T11:48:37Z" changeset="123686984" uid="3497659" user="NKA">
		<tag k="name" v="Elvmo" />
		<tag k="place" v="farm" />
		<tag k="ssr:stedsnr" v="896580" />
	</node>
	<node id="9891441300" lat="66.0838694" lon="12.3659668" version="1" timestamp="2022-07-16T11:48:37Z" changeset="123686984" uid="3497659" user="NKA">
		<tag k="name" v="Skaga" />
		<tag k="place" v="hamlet" />
		<tag k="ssr:stedsnr" v="561539" />
	</node>
	<node id="9891441301" lat="66.0597118" lon="12.5391843" version="1" timestamp="2022-07-16T11:48:37Z" changeset="123686984" uid="3497659" user="NKA">
		<tag k="name" v="Grindvollen" />
		<tag k="place" v="farm" />
		<tag k="ssr:stedsnr" v="107600" />
	</node>
	<node id="9891441302" lat="66.0579136" lon="12.5329047" version="1" timestamp="2022-07-16T11:48:37Z" changeset="123686984" uid="3497659" user="NKA">
		<tag k="name" v="Veslero" />
		<tag k="place" v="farm" />
		<tag k="ssr:stedsnr" v="289646" />
	</node>
	<node id="9891441303" lat="66.1473301" lon="12.3885262" version="1" timestamp="2022-07-16T11:48:37Z" changeset="123686984" uid="3497659" user="NKA">
		<tag k="name" v="Floten" />
		<tag k="place" v="farm" />
		<tag k="ssr:stedsnr" v="834304" />
	</node>
	<node id="9891441304" lat="66.0401417" lon="12.4686249" version="1" timestamp="2022-07-16T11:48:37Z" changeset="123686984" uid="3497659" user="NKA">
		<tag k="name" v="Brennvikja" />
		<tag k="place" v="farm" />
		<tag k="ssr:stedsnr" v="289561" />
	</node>
	<node id="9891441305" lat="66.0207669" lon="12.4810603" version="1" timestamp="2022-07-16T11:48:37Z" changeset="123686984" uid="3497659" user="NKA">
		<tag k="name" v="Ormsøya" />
		<tag k="place" v="locality" />
		<tag k="ssr:stedsnr" v="990375" />
	</node>
	<node id="9891441306" lat="66.0430118" lon="12.3423253" version="1" timestamp="2022-07-16T11:48:37Z" changeset="123686984" uid="3497659" user="NKA">
		<tag k="name" v="Einvika" />
		<tag k="place" v="farm" />
		<tag k="ssr:stedsnr" v="440996" />
	</node>
	<node id="9891441307" lat="66.136596" lon="12.5557207" version="1" timestamp="2022-07-16T11:48:37Z" changeset="123686984" uid="3497659" user="NKA">
		<tag k="name" v="Våg" />
		<tag k="place" v="hamlet" />
		<tag k="ssr:stedsnr" v="682659" />
	</node>
	<node id="9891441308" lat="66.189308" lon="12.4741787" version="1" timestamp="2022-07-16T11:48:37Z" changeset="123686984" uid="3497659" user="NKA">
		<tag k="name" v="Nausttofta" />
		<tag k="place" v="farm" />
		<tag k="ssr:stedsnr" v="106615" />
	</node>
	<node id="9891441309" lat="66.1914264" lon="12.4835025" version="1" timestamp="2022-07-16T11:48:37Z" changeset="123686984" uid="3497659" user="NKA">
		<tag k="name" v="Nordstad" />
		<tag k="place" v="farm" />
		<tag k="ssr:stedsnr" v="106662" />
	</node>
	<node id="9891441310" lat="66.1813198" lon="12.5193201" version="1" timestamp="2022-07-16T11:48:37Z" changeset="123686984" uid="3497659" user="NKA">
		<tag k="name" v="Sletten" />
		<tag k="place" v="farm" />
		<tag k="ssr:stedsnr" v="106407" />
	</node>
	<node id="9891441311" lat="66.2085278" lon="12.5615749" version="1" timestamp="2022-07-16T11:48:37Z" changeset="123686984" uid="3497659" user="NKA">
		<tag k="alt_name" v="Brandsneset" />
		<tag k="name" v="Brandsnes" />
		<tag k="place" v="hamlet" />
		<tag k="ssr:stedsnr" v="319622" />
	</node>
	<node id="9891441312" lat="66.0915784" lon="12.4511391" version="1" timestamp="2022-07-16T11:48:37Z" changeset="123686984" uid="3497659" user="NKA">
		<tag k="name" v="Breistrandvika" />
		<tag k="place" v="farm" />
		<tag k="ssr:stedsnr" v="743544" />
	</node>
	<node id="9891441313" lat="66.0804583" lon="12.3436528" version="1" timestamp="2022-07-16T11:48:37Z" changeset="123686984" uid="3497659" user="NKA">
		<tag k="name" v="Neset" />
		<tag k="place" v="farm" />
		<tag k="ssr:stedsnr" v="653275" />
	</node>
	<node id="9891441314" lat="66.1386278" lon="12.5525135" version="1" timestamp="2022-07-16T11:48:37Z" changeset="123686984" uid="3497659" user="NKA">
		<tag k="name" v="Nyheim" />
		<tag k="place" v="farm" />
		<tag k="ssr:stedsnr" v="652882" />
	</node>
	<node id="9891441315" lat="66.1065642" lon="12.4769555" version="1" timestamp="2022-07-16T11:48:37Z" changeset="123686984" uid="3497659" user="NKA">
		<tag k="name" v="Solfjellsjøen" />
		<tag k="place" v="farm" />
		<tag k="ssr:stedsnr" v="753434" />
	</node>
	<node id="9891441316" lat="66.0764778" lon="12.5824223" version="1" timestamp="2022-07-16T11:48:37Z" changeset="123686984" uid="3497659" user="NKA">
		<tag k="alt_name" v="Stranden" />
		<tag k="name" v="Finnstranda" />
		<tag k="place" v="farm" />
		<tag k="ssr:stedsnr" v="501952" />
	</node>
	<node id="9891441317" lat="66.0616263" lon="12.5426895" version="1" timestamp="2022-07-16T11:48:37Z" changeset="123686984" uid="3497659" user="NKA">
		<tag k="name" v="Stenberg" />
		<tag k="place" v="farm" />
		<tag k="ssr:stedsnr" v="714543" />
	</node>
	<node id="9891441318" lat="66.1517222" lon="12.5422194" version="1" timestamp="2022-07-16T11:48:37Z" changeset="123686984" uid="3497659" user="NKA">
		<tag k="name" v="Hopan" />
		<tag k="place" v="farm" />
		<tag k="ssr:stedsnr" v="15602" />
	</node>
	<node id="9891441319" lat="66.0885" lon="12.4537388" version="1" timestamp="2022-07-16T11:48:37Z" changeset="123686984" uid="3497659" user="NKA">
		<tag k="name" v="Hølhaugen" />
		<tag k="place" v="farm" />
		<tag k="ssr:stedsnr" v="209737" />
	</node>
	<node id="9891441320" lat="66.1634" lon="12.3473751" version="1" timestamp="2022-07-16T11:48:37Z" changeset="123686984" uid="3497659" user="NKA">
		<tag k="name" v="Jektvikja" />
		<tag k="place" v="farm" />
		<tag k="ssr:stedsnr" v="895648" />
	</node>
	<node id="9891441321" lat="66.1042889" lon="12.4907196" version="1" timestamp="2022-07-16T11:48:37Z" changeset="123686984" uid="3497659" user="NKA">
		<tag k="name" v="Gjerdet" />
		<tag k="place" v="farm" />
		<tag k="ssr:stedsnr" v="500627" />
	</node>
	<node id="9891441322" lat="66.0779806" lon="12.5777917" version="1" timestamp="2022-07-16T11:48:37Z" changeset="123686984" uid="3497659" user="NKA">
		<tag k="name" v="Sørbjørn" />
		<tag k="place" v="farm" />
		<tag k="ssr:stedsnr" v="468339" />
	</node>
	<node id="9891441323" lat="66.0264029" lon="12.3637568" version="1" timestamp="2022-07-16T11:48:37Z" changeset="123686984" uid="3497659" user="NKA">
		<tag k="name" v="Skard" />
		<tag k="place" v="farm" />
		<tag k="ssr:stedsnr" v="622867" />
	</node>
	<node id="9891441324" lat="66.0842195" lon="12.3635" version="1" timestamp="2022-07-16T11:48:37Z" changeset="123686984" uid="3497659" user="NKA">
		<tag k="name" v="Lynghaugen" />
		<tag k="place" v="farm" />
		<tag k="ssr:stedsnr" v="834285" />
	</node>
	<node id="9891441325" lat="66.0920444" lon="12.4596138" version="1" timestamp="2022-07-16T11:48:37Z" changeset="123686984" uid="3497659" user="NKA">
		<tag k="alt_name" v="Almvik" />
		<tag k="name" v="Flekkan" />
		<tag k="place" v="farm" />
		<tag k="ssr:stedsnr" v="561935" />
	</node>
	<node id="9891441326" lat="66.1783027" lon="12.5679939" version="1" timestamp="2022-07-16T11:48:37Z" changeset="123686984" uid="3497659" user="NKA">
		<tag k="name" v="Øvrebø" />
		<tag k="place" v="farm" />
		<tag k="ssr:stedsnr" v="561673" />
	</node>
	<node id="9891441327" lat="66.0645778" lon="12.396961" version="1" timestamp="2022-07-16T11:48:37Z" changeset="123686984" uid="3497659" user="NKA">
		<tag k="name" v="Sandstrak" />
		<tag k="place" v="hamlet" />
		<tag k="ssr:stedsnr" v="622959" />
	</node>
	<node id="9891441328" lat="66.0869333" lon="12.4263305" version="1" timestamp="2022-07-16T11:48:37Z" changeset="123686984" uid="3497659" user="NKA">
		<tag k="name" v="Øyvågen" />
		<tag k="place" v="farm" />
		<tag k="ssr:stedsnr" v="148746" />
	</node>
	<node id="9891441329" lat="66.0870302" lon="12.3646046" version="1" timestamp="2022-07-16T11:48:37Z" changeset="123686984" uid="3497659" user="NKA">
		<tag k="name" v="Vollbakken" />
		<tag k="place" v="neighbourhood" />
		<tag k="ssr:stedsnr" v="895265" />
	</node>
	<node id="9891441330" lat="66.1101331" lon="12.5163596" version="1" timestamp="2022-07-16T11:48:37Z" changeset="123686984" uid="3497659" user="NKA">
		<tag k="name" v="Solfjell" />
		<tag k="place" v="farm" />
		<tag k="ssr:stedsnr" v="136565" />
	</node>
</osm>
