<?xml version="1.0" encoding="UTF-8"?>
<osm generator="osmapis" version="0.6">
	<node id="-3712" lat="59.0750666656" lon="5.39703055217">
		<tag k="alt_name" v="Kalveneset" />
		<tag k="name" v="Kalveneset lykt" />
		<tag k="old_name" v="Kalvaneset" />
		<tag k="ssr:date" v="2016-05-10" />
		<tag k="ssr:gruppe" v="navigasjon" />
		<tag k="ssr:hovedgruppe" v="infrastruktur" />
		<tag k="ssr:stedsnr" v="547417" />
		<tag k="ssr:type" v="fyrlykt" />
	</node>
	<node id="-3456" lat="59.0462666657" lon="5.452994453">
		<tag k="alt_name" v="Gjerdholmen" />
		<tag k="name" v="Gjerdholmen lykt" />
		<tag k="ssr:date" v="2016-05-10" />
		<tag k="ssr:gruppe" v="navigasjon" />
		<tag k="ssr:hovedgruppe" v="infrastruktur" />
		<tag k="ssr:stedsnr" v="486508" />
		<tag k="ssr:type" v="fyrlykt" />
	</node>
	<node id="-3323" lat="59.0585388885" lon="5.39317778352">
		<tag k="name" v="Revingsundet, nedre" />
		<tag k="ssr:date" v="2016-05-10" />
		<tag k="ssr:gruppe" v="navigasjon" />
		<tag k="ssr:hovedgruppe" v="infrastruktur" />
		<tag k="ssr:stedsnr" v="222933" />
		<tag k="ssr:type" v="lanterne" />
	</node>
	<node id="-3696" lat="59.0616388887" lon="5.40158054838">
		<tag k="name" v="Fyrveien" />
		<tag k="ssr:date" v="2019-05-30" />
		<tag k="ssr:gruppe" v="veg" />
		<tag k="ssr:hovedgruppe" v="infrastruktur" />
		<tag k="ssr:stedsnr" v="423078" />
		<tag k="ssr:type" v="adressenavn" />
	</node>
	<node id="-3431" lat="59.0580472216" lon="5.41181666742">
		<tag k="name" v="Binholmen" />
		<tag k="ssr:date" v="2019-05-30" />
		<tag k="ssr:gruppe" v="veg" />
		<tag k="ssr:hovedgruppe" v="infrastruktur" />
		<tag k="ssr:stedsnr" v="405508" />
		<tag k="ssr:type" v="adressenavn" />
	</node>
	<node id="-3814" lat="59.0631706714" lon="5.40398482956">
		<tag k="name" v="Melingsgarden" />
		<tag k="ssr:date" v="2019-05-30" />
		<tag k="ssr:gruppe" v="veg" />
		<tag k="ssr:hovedgruppe" v="infrastruktur" />
		<tag k="ssr:stedsnr" v="1028882" />
		<tag k="ssr:type" v="adressenavn" />
	</node>
	<node id="-3429" lat="59.055888892" lon="5.41916111869">
		<tag k="name" v="Duøy nordpynt" />
		<tag k="ssr:date" v="2016-05-10" />
		<tag k="ssr:gruppe" v="navigasjon" />
		<tag k="ssr:hovedgruppe" v="infrastruktur" />
		<tag k="ssr:stedsnr" v="404770" />
		<tag k="ssr:type" v="lanterne" />
	</node>
	<node id="-3545" lat="59.0528722218" lon="5.43104444779">
		<tag k="name" v="Vardholmskaget lanterne" />
		<tag k="ssr:date" v="2016-05-11" />
		<tag k="ssr:gruppe" v="navigasjon" />
		<tag k="ssr:hovedgruppe" v="infrastruktur" />
		<tag k="ssr:stedsnr" v="851473" />
		<tag k="ssr:type" v="lanterne" />
	</node>
	<node id="-3416" lat="59.0539213082" lon="5.39877465372">
		<tag k="alt_name" v="Ystebø" />
		<tag k="name" v="Ydstebø" />
		<tag k="old_name" v="Ystabø" />
		<tag k="ssr:date" v="2020-09-03" />
		<tag k="ssr:gruppe" v="navigasjon" />
		<tag k="ssr:hovedgruppe" v="infrastruktur" />
		<tag k="ssr:stedsnr" v="486486" />
		<tag k="ssr:type" v="fyrlykt" />
	</node>
	<node id="-3796" lat="59.0564888847" lon="5.41356666716">
		<tag k="name" v="Fonnøyholmen" />
		<tag k="ssr:date" v="2016-05-11" />
		<tag k="ssr:gruppe" v="navigasjon" />
		<tag k="ssr:hovedgruppe" v="infrastruktur" />
		<tag k="ssr:stedsnr" v="950939" />
		<tag k="ssr:type" v="lanterne" />
	</node>
	<node id="-3788" lat="59.0946277798" lon="5.50368889467">
		<tag k="name" v="Sveinane varde" />
		<tag k="ssr:date" v="2016-05-11" />
		<tag k="ssr:gruppe" v="navigasjon" />
		<tag k="ssr:hovedgruppe" v="infrastruktur" />
		<tag k="ssr:stedsnr" v="950614" />
		<tag k="ssr:type" v="lanterne" />
	</node>
	<node id="-3659" lat="59.0545972207" lon="5.42416388555">
		<tag k="name" v="Klauagrunnen lanterne" />
		<tag k="ssr:date" v="2016-05-10" />
		<tag k="ssr:gruppe" v="navigasjon" />
		<tag k="ssr:hovedgruppe" v="infrastruktur" />
		<tag k="ssr:stedsnr" v="343815" />
		<tag k="ssr:type" v="lanterne" />
	</node>
	<node id="-3401" lat="59.0109166674" lon="5.36754722631">
		<tag k="name" v="Vestre Imsen lanterne" />
		<tag k="ssr:date" v="2016-05-10" />
		<tag k="ssr:gruppe" v="navigasjon" />
		<tag k="ssr:hovedgruppe" v="infrastruktur" />
		<tag k="ssr:stedsnr" v="465945" />
		<tag k="ssr:type" v="lanterne" />
	</node>
	<node id="-3400" lat="59.0571750043" lon="5.39426389642">
		<tag k="name" v="Heggerholmen" />
		<tag k="ssr:date" v="2016-05-10" />
		<tag k="ssr:gruppe" v="navigasjon" />
		<tag k="ssr:hovedgruppe" v="infrastruktur" />
		<tag k="ssr:stedsnr" v="465827" />
		<tag k="ssr:type" v="lanterne" />
	</node>
	<node id="-3632" lat="59.0477749995" lon="5.45357221404">
		<tag k="name" v="Busholmflu" />
		<tag k="ssr:date" v="2016-05-10" />
		<tag k="ssr:gruppe" v="navigasjon" />
		<tag k="ssr:hovedgruppe" v="infrastruktur" />
		<tag k="ssr:stedsnr" v="161950" />
		<tag k="ssr:type" v="lanterne" />
	</node>
	<node id="-3630" lat="59.0594333303" lon="5.40633056122">
		<tag k="name" v="Nordre Elsegrunnen lanterne" />
		<tag k="ssr:date" v="2016-05-10" />
		<tag k="ssr:gruppe" v="navigasjon" />
		<tag k="ssr:hovedgruppe" v="infrastruktur" />
		<tag k="ssr:stedsnr" v="161936" />
		<tag k="ssr:type" v="lanterne" />
	</node>
	<node id="-3501" lat="59.0602666693" lon="5.40364166796">
		<tag k="name" v="Rossøy" />
		<tag k="ssr:date" v="2016-05-11" />
		<tag k="ssr:gruppe" v="navigasjon" />
		<tag k="ssr:hovedgruppe" v="infrastruktur" />
		<tag k="ssr:stedsnr" v="890955" />
		<tag k="ssr:type" v="lanterne" />
	</node>
	<node id="-3750" lat="59.0647083355" lon="5.40544721679">
		<tag k="name" v="Kvitsøy kommune" />
		<tag k="old_name" v="Kvitingsøy" />
		<tag k="ssr:date" v="2016-05-11" />
		<tag k="ssr:gruppe" v="administrativeIndelinger" />
		<tag k="ssr:hovedgruppe" v="offentligAdministrasjon" />
		<tag k="ssr:stedsnr" v="752802" />
		<tag k="ssr:type" v="kommune" />
	</node>
	<node id="-3621" lat="59.0742595563" lon="5.44133852678">
		<tag k="name" v="Jartholmen lanterne" />
		<tag k="ssr:date" v="2016-12-28" />
		<tag k="ssr:gruppe" v="navigasjon" />
		<tag k="ssr:hovedgruppe" v="infrastruktur" />
		<tag k="ssr:stedsnr" v="142982" />
		<tag k="ssr:type" v="lanterne" />
	</node>
	<node id="-3357" lat="59.0553611071" lon="5.42289722944">
		<tag k="name" v="Klauaskjer" />
		<tag k="ssr:date" v="2016-05-10" />
		<tag k="ssr:gruppe" v="navigasjon" />
		<tag k="ssr:hovedgruppe" v="infrastruktur" />
		<tag k="ssr:stedsnr" v="161765" />
		<tag k="ssr:type" v="lanterne" />
	</node>
	<node id="-3739" lat="59.0534277747" lon="5.42581943917">
		<tag k="name" v="Flisagrunnen lanterne" />
		<tag k="ssr:date" v="2016-05-10" />
		<tag k="ssr:gruppe" v="navigasjon" />
		<tag k="ssr:hovedgruppe" v="infrastruktur" />
		<tag k="ssr:stedsnr" v="646759" />
		<tag k="ssr:type" v="lanterne" />
	</node>
	<node id="-3348" lat="59.0411722251" lon="5.42177499371">
		<tag k="alt_name" v="Sandholmen" />
		<tag k="name" v="Sandholmen lykt" />
		<tag k="ssr:date" v="2016-05-10" />
		<tag k="ssr:gruppe" v="navigasjon" />
		<tag k="ssr:hovedgruppe" v="infrastruktur" />
		<tag k="ssr:stedsnr" v="244532" />
		<tag k="ssr:type" v="fyrlykt" />
	</node>
	<node id="-3474" lat="59.0592416638" lon="5.4020055514">
		<tag k="name" v="Rossøy" />
		<tag k="ssr:date" v="2019-05-30" />
		<tag k="ssr:gruppe" v="veg" />
		<tag k="ssr:hovedgruppe" v="infrastruktur" />
		<tag k="ssr:stedsnr" v="585059" />
		<tag k="ssr:type" v="adressenavn" />
	</node>
	<node id="-3715" lat="59.0620388874" lon="5.40008889204">
		<tag k="alt_name" v="Kvitsøy" />
		<tag k="name" v="Kvitsøy fyr" />
		<tag k="ssr:date" v="2016-05-10" />
		<tag k="ssr:gruppe" v="navigasjon" />
		<tag k="ssr:hovedgruppe" v="infrastruktur" />
		<tag k="ssr:stedsnr" v="547524" />
		<tag k="ssr:type" v="fyrstasjon" />
	</node>
	<node id="-3467" lat="59.0466631659" lon="5.40733966778">
		<tag k="alt_name" v="Piggskjeret;Piggskjeret lykt" />
		<tag k="name" v="Piggskjer lykt" />
		<tag k="ssr:date" v="2016-11-29" />
		<tag k="ssr:gruppe" v="navigasjon" />
		<tag k="ssr:hovedgruppe" v="infrastruktur" />
		<tag k="ssr:stedsnr" v="571652" />
		<tag k="ssr:type" v="fyrlykt" />
	</node>
	<node id="-3720" lat="59.0547305521" lon="5.42181110661">
		<tag k="name" v="Krossholmen lanterne" />
		<tag k="ssr:date" v="2016-05-10" />
		<tag k="ssr:gruppe" v="navigasjon" />
		<tag k="ssr:hovedgruppe" v="infrastruktur" />
		<tag k="ssr:stedsnr" v="586789" />
		<tag k="ssr:type" v="lanterne" />
	</node>
	<node id="-3589" lat="59.0572694455" lon="5.39739444884">
		<tag k="name" v="Revingsundet, øvre" />
		<tag k="ssr:date" v="2016-05-10" />
		<tag k="ssr:gruppe" v="navigasjon" />
		<tag k="ssr:hovedgruppe" v="infrastruktur" />
		<tag k="ssr:stedsnr" v="101823" />
		<tag k="ssr:type" v="lanterne" />
	</node>
	<node id="-3588" lat="59.0610499985" lon="5.43068332517">
		<tag k="name" v="Stevelsgrunnen lanterne" />
		<tag k="ssr:date" v="2016-05-10" />
		<tag k="ssr:gruppe" v="navigasjon" />
		<tag k="ssr:hovedgruppe" v="infrastruktur" />
		<tag k="ssr:stedsnr" v="101798" />
		<tag k="ssr:type" v="lanterne" />
	</node>
	<node id="-3459" lat="59.0560135885" lon="5.39770784561">
		<tag k="alt_name" v="Grønningsnagget" />
		<tag k="name" v="Grøningsnaget lanterne" />
		<tag k="ssr:date" v="2016-11-29" />
		<tag k="ssr:gruppe" v="navigasjon" />
		<tag k="ssr:hovedgruppe" v="infrastruktur" />
		<tag k="ssr:stedsnr" v="525776" />
		<tag k="ssr:type" v="lanterne" />
	</node>
</osm>
