<?xml version="1.0" encoding="UTF-8"?>
<osm version="0.6" generator="osmapis">
	<node lat="59.050072223518896" lon="5.384888885802754" id="-1493">
		<tag k="alt_name" v="Svortingen, l" />
		<tag k="name" v="Litle Svortingen" />
		<tag k="place" v="islet" />
		<tag k="ssr:date" v="2016-05-10" />
		<tag k="ssr:gruppe" v="kystkontur" />
		<tag k="ssr:hovedgruppe" v="sjø" />
		<tag k="ssr:stedsnr" v="1482" />
		<tag k="ssr:type" v="holmeISjø" />
	</node>
	<node lat="59.05415832987579" lon="5.4181055475898035" id="-1494">
		<tag k="name" v="Duøya" />
		<tag k="place" v="islet" />
		<tag k="ssr:date" v="2021-06-08" />
		<tag k="ssr:gruppe" v="kystkontur" />
		<tag k="ssr:hovedgruppe" v="sjø" />
		<tag k="ssr:stedsnr" v="1486" />
		<tag k="ssr:type" v="holmeISjø" />
	</node>
	<node lat="59.06123333466694" lon="5.472638880471179" id="-1495">
		<tag k="alt_name" v="Trættholmskjeret;Trættholmskjera" />
		<tag k="fixme" v="consider seamark:type=rock or natural=shoal" />
		<tag k="name" v="Trettholmskjera" />
		<tag k="place" v="islet" />
		<tag k="ssr:date" v="2016-05-10" />
		<tag k="ssr:gruppe" v="grunnerISjø" />
		<tag k="ssr:hovedgruppe" v="sjø" />
		<tag k="ssr:stedsnr" v="2801" />
		<tag k="ssr:type" v="skjærISjø" />
	</node>
	<node lat="59.066361106969985" lon="5.509661116728595" id="-1496">
		<tag k="name" v="Stakken" />
		<tag k="natural" v="shoal" />
		<tag k="place" v="locality" />
		<tag k="ssr:date" v="2021-06-08" />
		<tag k="ssr:gruppe" v="grunnerISjø" />
		<tag k="ssr:hovedgruppe" v="sjø" />
		<tag k="ssr:stedsnr" v="2803" />
		<tag k="ssr:type" v="grunneISjø" />
	</node>
	<node lat="59.08310555799514" lon="5.46495833078139" id="-1497">
		<tag k="fixme" v="consider seamark:type=rock or natural=shoal" />
		<tag k="name" v="Stora Mele" />
		<tag k="place" v="islet" />
		<tag k="ssr:date" v="2021-06-08" />
		<tag k="ssr:gruppe" v="grunnerISjø" />
		<tag k="ssr:hovedgruppe" v="sjø" />
		<tag k="ssr:stedsnr" v="28805" />
		<tag k="ssr:type" v="skjærISjø" />
	</node>
	<node lat="59.067374998884034" lon="5.468636104460226" id="-1498">
		<tag k="fixme" v="consider seamark:type=rock or natural=shoal" />
		<tag k="name" v="Helleskjeret" />
		<tag k="place" v="islet" />
		<tag k="ssr:date" v="2016-05-10" />
		<tag k="ssr:gruppe" v="grunnerISjø" />
		<tag k="ssr:hovedgruppe" v="sjø" />
		<tag k="ssr:stedsnr" v="40713" />
		<tag k="ssr:type" v="skjærISjø" />
	</node>
	<node lat="59.06421111173361" lon="5.458716670537901" id="-1499">
		<tag k="name" v="Nygrunnen" />
		<tag k="natural" v="shoal" />
		<tag k="place" v="locality" />
		<tag k="ssr:date" v="2016-05-10" />
		<tag k="ssr:gruppe" v="grunnerISjø" />
		<tag k="ssr:hovedgruppe" v="sjø" />
		<tag k="ssr:stedsnr" v="40714" />
		<tag k="ssr:type" v="grunneISjø" />
	</node>
	<node lat="59.02566944526401" lon="5.421502786347502" id="-1500">
		<tag k="name" v="Tollusen" />
		<tag k="natural" v="shoal" />
		<tag k="place" v="locality" />
		<tag k="ssr:date" v="2016-05-10" />
		<tag k="ssr:gruppe" v="grunnerISjø" />
		<tag k="ssr:hovedgruppe" v="sjø" />
		<tag k="ssr:stedsnr" v="41525" />
		<tag k="ssr:type" v="grunneISjø" />
	</node>
	<node lat="59.07717777429233" lon="5.432061107925337" id="-1501">
		<tag k="fixme" v="consider seamark:type=rock or natural=shoal" />
		<tag k="name" v="Skota" />
		<tag k="place" v="islet" />
		<tag k="ssr:date" v="2016-05-10" />
		<tag k="ssr:gruppe" v="grunnerISjø" />
		<tag k="ssr:hovedgruppe" v="sjø" />
		<tag k="ssr:stedsnr" v="237261" />
		<tag k="ssr:type" v="skjærISjø" />
	</node>
	<node lat="59.056205559241164" lon="5.404677775593354" id="-1502">
		<tag k="fixme" v="consider seamark:type=rock or natural=shoal" />
		<tag k="name" v="Nordra Rossøyskjera" />
		<tag k="place" v="islet" />
		<tag k="ssr:date" v="2016-05-10" />
		<tag k="ssr:gruppe" v="grunnerISjø" />
		<tag k="ssr:hovedgruppe" v="sjø" />
		<tag k="ssr:stedsnr" v="42581" />
		<tag k="ssr:type" v="skjærISjø" />
	</node>
	<node lat="59.053980555875185" lon="5.4009500066388805" id="-1503">
		<tag k="fixme" v="consider seamark:type=rock or natural=shoal" />
		<tag k="name" v="Steinskjeret" />
		<tag k="place" v="islet" />
		<tag k="ssr:date" v="2016-05-10" />
		<tag k="ssr:gruppe" v="grunnerISjø" />
		<tag k="ssr:hovedgruppe" v="sjø" />
		<tag k="ssr:stedsnr" v="42582" />
		<tag k="ssr:type" v="skjærISjø" />
	</node>
	<node lat="59.072536112002375" lon="5.391952779996743" id="-1504">
		<tag k="name" v="Knutagrunnen" />
		<tag k="natural" v="shoal" />
		<tag k="place" v="locality" />
		<tag k="ssr:date" v="2016-05-10" />
		<tag k="ssr:gruppe" v="grunnerISjø" />
		<tag k="ssr:hovedgruppe" v="sjø" />
		<tag k="ssr:stedsnr" v="237454" />
		<tag k="ssr:type" v="grunneISjø" />
	</node>
	<node lat="59.06089722365671" lon="5.416369441617908" id="-1505">
		<tag k="name" v="Vollsøya" />
		<tag k="place" v="quarter" />
		<tag k="ssr:date" v="2016-05-10" />
		<tag k="ssr:gruppe" v="bebyggelsesområder" />
		<tag k="ssr:hovedgruppe" v="bebyggelse" />
		<tag k="ssr:stedsnr" v="237544" />
		<tag k="ssr:type" v="boligfelt" />
	</node>
	<node lat="59.04761666532161" lon="5.4537111197026595" id="-1506">
		<tag k="name" v="Bussholmflua" />
		<tag k="natural" v="shoal" />
		<tag k="place" v="locality" />
		<tag k="ssr:date" v="2016-05-10" />
		<tag k="ssr:gruppe" v="grunnerISjø" />
		<tag k="ssr:hovedgruppe" v="sjø" />
		<tag k="ssr:stedsnr" v="237656" />
		<tag k="ssr:type" v="grunneISjø" />
	</node>
	<node lat="59.0120555531637" lon="5.371313894182951" id="-1507">
		<tag k="fixme" v="consider seamark:type=rock or natural=shoal" />
		<tag k="name" v="Kobbalorten" />
		<tag k="place" v="islet" />
		<tag k="ssr:date" v="2016-05-10" />
		<tag k="ssr:gruppe" v="grunnerISjø" />
		<tag k="ssr:hovedgruppe" v="sjø" />
		<tag k="ssr:stedsnr" v="55576" />
		<tag k="ssr:type" v="skjærISjø" />
	</node>
	<node lat="59.04960833587535" lon="5.4457222225596675" id="-1508">
		<tag k="name" v="Rasmussen" />
		<tag k="natural" v="shoal" />
		<tag k="place" v="locality" />
		<tag k="ssr:date" v="2016-05-10" />
		<tag k="ssr:gruppe" v="grunnerISjø" />
		<tag k="ssr:hovedgruppe" v="sjø" />
		<tag k="ssr:stedsnr" v="55605" />
		<tag k="ssr:type" v="grunneISjø" />
	</node>
	<node lat="59.05553888526258" lon="5.391697230688619" id="-1509">
		<tag k="name" v="Kalvholmen" />
		<tag k="place" v="islet" />
		<tag k="ssr:date" v="2021-06-08" />
		<tag k="ssr:gruppe" v="kystkontur" />
		<tag k="ssr:hovedgruppe" v="sjø" />
		<tag k="ssr:stedsnr" v="62473" />
		<tag k="ssr:type" v="holmeISjø" />
	</node>
	<node lat="59.07717777689132" lon="5.414461118451632" id="-1510">
		<tag k="name" v="Nordholmen" />
		<tag k="place" v="islet" />
		<tag k="ssr:date" v="2021-06-08" />
		<tag k="ssr:gruppe" v="kystkontur" />
		<tag k="ssr:hovedgruppe" v="sjø" />
		<tag k="ssr:stedsnr" v="62479" />
		<tag k="ssr:type" v="holmeISjø" />
	</node>
	<node lat="59.03491110960098" lon="5.4228638844676915" id="-1511">
		<tag k="name" v="Nordra Hogga" />
		<tag k="place" v="islet" />
		<tag k="ssr:date" v="2021-06-08" />
		<tag k="ssr:gruppe" v="kystkontur" />
		<tag k="ssr:hovedgruppe" v="sjø" />
		<tag k="ssr:stedsnr" v="62491" />
		<tag k="ssr:type" v="holmeISjø" />
	</node>
	<node lat="59.0532694455686" lon="5.442905559618768" id="-1512">
		<tag k="name" v="Krågøyosen" />
		<tag k="natural" v="strait" />
		<tag k="ssr:date" v="2021-06-08" />
		<tag k="ssr:gruppe" v="kystkontur" />
		<tag k="ssr:hovedgruppe" v="sjø" />
		<tag k="ssr:stedsnr" v="244519" />
		<tag k="ssr:type" v="sundISjø" />
	</node>
	<node lat="59.04306110873405" lon="5.397769445453359" id="-1513">
		<tag k="name" v="Vestra Buøya" />
		<tag k="place" v="island" />
		<tag k="ssr:date" v="2021-06-08" />
		<tag k="ssr:gruppe" v="kystkontur" />
		<tag k="ssr:hovedgruppe" v="sjø" />
		<tag k="ssr:stedsnr" v="244523" />
		<tag k="ssr:type" v="øyISjø" />
	</node>
	<node lat="59.04538961698144" lon="5.417362658938395" id="-1514">
		<tag k="name" v="Svartabeistet" />
		<tag k="place" v="islet" />
		<tag k="ssr:date" v="2021-06-02" />
		<tag k="ssr:gruppe" v="kystkontur" />
		<tag k="ssr:hovedgruppe" v="sjø" />
		<tag k="ssr:stedsnr" v="244531" />
		<tag k="ssr:type" v="holmeISjø" />
	</node>
	<node lat="59.07888889209742" lon="5.43214721873535" id="-1516">
		<tag k="name" v="Skarsteingrunnen" />
		<tag k="place" v="locality" />
		<tag k="seamark:type" v="rock" />
		<tag k="ssr:date" v="2021-06-08" />
		<tag k="ssr:gruppe" v="grunnerISjø" />
		<tag k="ssr:hovedgruppe" v="sjø" />
		<tag k="ssr:stedsnr" v="85505" />
		<tag k="ssr:type" v="båeISjø" />
	</node>
	<node lat="59.07970555783867" lon="5.439658341639156" id="-1517">
		<tag k="name" v="Fjæraflua" />
		<tag k="natural" v="shoal" />
		<tag k="place" v="locality" />
		<tag k="ssr:date" v="2021-06-08" />
		<tag k="ssr:gruppe" v="grunnerISjø" />
		<tag k="ssr:hovedgruppe" v="sjø" />
		<tag k="ssr:stedsnr" v="85507" />
		<tag k="ssr:type" v="grunneISjø" />
	</node>
	<node lat="59.08450555804159" lon="5.488338887661827" id="-1518">
		<tag k="name" v="Keila" />
		<tag k="natural" v="bay" />
		<tag k="ssr:date" v="2016-05-10" />
		<tag k="ssr:gruppe" v="kystkontur" />
		<tag k="ssr:hovedgruppe" v="sjø" />
		<tag k="ssr:stedsnr" v="101663" />
		<tag k="ssr:type" v="vikISjø" />
	</node>
	<node lat="59.0679194405389" lon="5.472769440935623" id="-1519">
		<tag k="fixme" v="consider seamark:type=rock or natural=shoal" />
		<tag k="name" v="Sandøyskjera" />
		<tag k="place" v="islet" />
		<tag k="ssr:date" v="2016-05-10" />
		<tag k="ssr:gruppe" v="grunnerISjø" />
		<tag k="ssr:hovedgruppe" v="sjø" />
		<tag k="ssr:stedsnr" v="101668" />
		<tag k="ssr:type" v="skjærISjø" />
	</node>
	<node lat="59.06974166388295" lon="5.435174996098424" id="-1521">
		<tag k="name" v="Humraurda" />
		<tag k="natural" v="scree" />
		<tag k="ssr:date" v="2016-05-10" />
		<tag k="ssr:gruppe" v="løsmasseavsetninger" />
		<tag k="ssr:hovedgruppe" v="markslag" />
		<tag k="ssr:stedsnr" v="101971" />
		<tag k="ssr:type" v="ur" />
	</node>
	<node lat="59.059047225284694" lon="5.406633328338276" id="-1522">
		<tag k="name" v="Elsene" />
		<tag k="natural" v="shoal" />
		<tag k="place" v="locality" />
		<tag k="ssr:date" v="2016-05-10" />
		<tag k="ssr:gruppe" v="grunnerISjø" />
		<tag k="ssr:hovedgruppe" v="sjø" />
		<tag k="ssr:stedsnr" v="103613" />
		<tag k="ssr:type" v="grunneISjø" />
	</node>
	<node lat="59.0545222231051" lon="5.40260277973934" id="-1523">
		<tag k="fixme" v="consider seamark:type=rock or natural=shoal" />
		<tag k="name" v="Søra Rossøyskjera" />
		<tag k="place" v="islet" />
		<tag k="ssr:date" v="2016-05-10" />
		<tag k="ssr:gruppe" v="grunnerISjø" />
		<tag k="ssr:hovedgruppe" v="sjø" />
		<tag k="ssr:stedsnr" v="103614" />
		<tag k="ssr:type" v="skjærISjø" />
	</node>
	<node lat="59.05338055395397" lon="5.411080563769991" id="-1524">
		<tag k="fixme" v="consider seamark:type=rock or natural=shoal" />
		<tag k="name" v="Nordra Gulaskjer" />
		<tag k="place" v="islet" />
		<tag k="ssr:date" v="2016-05-10" />
		<tag k="ssr:gruppe" v="grunnerISjø" />
		<tag k="ssr:hovedgruppe" v="sjø" />
		<tag k="ssr:stedsnr" v="103615" />
		<tag k="ssr:type" v="skjærISjø" />
	</node>
	<node lat="59.057550551583205" lon="5.417547504958398" id="-1525">
		<tag k="amenity" v="ferry_terminal" />
		<tag k="name" v="Kvitsøy ferjekai" />
		<tag k="ssr:date" v="2017-09-21" />
		<tag k="ssr:gruppe" v="sjøfart" />
		<tag k="ssr:hovedgruppe" v="infrastruktur" />
		<tag k="ssr:stedsnr" v="108510" />
		<tag k="ssr:type" v="ferjekai" />
	</node>
	<node lat="59.06453332962354" lon="5.435730554812657" id="-1526">
		<tag k="name" v="Krågøyvågen" />
		<tag k="natural" v="bay" />
		<tag k="ssr:date" v="2016-05-10" />
		<tag k="ssr:gruppe" v="kystkontur" />
		<tag k="ssr:hovedgruppe" v="sjø" />
		<tag k="ssr:stedsnr" v="114970" />
		<tag k="ssr:type" v="vågISjø" />
	</node>
	<node lat="59.060158337218304" lon="5.389394444891203" id="-1527">
		<tag k="name" v="Hesthagneset" />
		<tag k="natural" v="cape" />
		<tag k="ssr:date" v="2016-05-10" />
		<tag k="ssr:gruppe" v="kystkontur" />
		<tag k="ssr:hovedgruppe" v="sjø" />
		<tag k="ssr:stedsnr" v="116402" />
		<tag k="ssr:type" v="nesISjø" />
	</node>
	<node lat="59.04608333496008" lon="5.398219440643414" id="-1528">
		<tag k="name" v="Mattisfluene" />
		<tag k="natural" v="shoal" />
		<tag k="place" v="locality" />
		<tag k="ssr:date" v="2016-05-10" />
		<tag k="ssr:gruppe" v="grunnerISjø" />
		<tag k="ssr:hovedgruppe" v="sjø" />
		<tag k="ssr:stedsnr" v="116910" />
		<tag k="ssr:type" v="grunneISjø" />
	</node>
	<node lat="59.042392371123924" lon="5.4030527911779584" id="-1529">
		<tag k="name" v="Austra Buøya" />
		<tag k="place" v="island" />
		<tag k="ssr:date" v="2021-06-08" />
		<tag k="ssr:gruppe" v="kystkontur" />
		<tag k="ssr:hovedgruppe" v="sjø" />
		<tag k="ssr:stedsnr" v="122476" />
		<tag k="ssr:type" v="øyISjø" />
	</node>
	<node lat="59.04080555688503" lon="5.448955563986173" id="-1530">
		<tag k="name" v="Gjerdholmen" />
		<tag k="place" v="islet" />
		<tag k="ssr:date" v="2021-06-08" />
		<tag k="ssr:gruppe" v="kystkontur" />
		<tag k="ssr:hovedgruppe" v="sjø" />
		<tag k="ssr:stedsnr" v="122481" />
		<tag k="ssr:type" v="holmeISjø" />
	</node>
	<node lat="59.00045833690556" lon="5.3914916660123575" id="-1532">
		<tag k="name" v="Higlafluene" />
		<tag k="place" v="locality" />
		<tag k="seamark:type" v="rock" />
		<tag k="ssr:date" v="2021-06-08" />
		<tag k="ssr:gruppe" v="grunnerISjø" />
		<tag k="ssr:hovedgruppe" v="sjø" />
		<tag k="ssr:stedsnr" v="146564" />
		<tag k="ssr:type" v="båeISjø" />
	</node>
	<node lat="59.07358610821947" lon="5.439313889847372" id="-1533">
		<tag k="name" v="Jartholmen" />
		<tag k="place" v="islet" />
		<tag k="ssr:date" v="2021-06-08" />
		<tag k="ssr:gruppe" v="kystkontur" />
		<tag k="ssr:hovedgruppe" v="sjø" />
		<tag k="ssr:stedsnr" v="146568" />
		<tag k="ssr:type" v="holmeISjø" />
	</node>
	<node lat="59.07453889241561" lon="5.489480556575354" id="-1534">
		<tag k="name" v="Søraustra Ternøybukta" />
		<tag k="natural" v="bay" />
		<tag k="ssr:date" v="2016-05-10" />
		<tag k="ssr:gruppe" v="kystkontur" />
		<tag k="ssr:hovedgruppe" v="sjø" />
		<tag k="ssr:stedsnr" v="161623" />
		<tag k="ssr:type" v="vikISjø" />
	</node>
	<node lat="59.06289166967332" lon="5.473566663479145" id="-1535">
		<tag k="fixme" v="consider seamark:type=rock or natural=shoal" />
		<tag k="name" v="Prestsloen" />
		<tag k="place" v="islet" />
		<tag k="ssr:date" v="2016-05-10" />
		<tag k="ssr:gruppe" v="grunnerISjø" />
		<tag k="ssr:hovedgruppe" v="sjø" />
		<tag k="ssr:stedsnr" v="161642" />
		<tag k="ssr:type" v="skjærISjø" />
	</node>
	<node lat="59.07281111110685" lon="5.397650005692579" id="-1536">
		<tag k="name" v="Ramsen" />
		<tag k="natural" v="cape" />
		<tag k="ssr:date" v="2016-05-10" />
		<tag k="ssr:gruppe" v="kystkontur" />
		<tag k="ssr:hovedgruppe" v="sjø" />
		<tag k="ssr:stedsnr" v="161648" />
		<tag k="ssr:type" v="nesISjø" />
	</node>
	<node lat="59.07270000397745" lon="5.470725000552855" id="-1537">
		<tag k="name" v="Nordra Raunabukta" />
		<tag k="natural" v="bay" />
		<tag k="ssr:date" v="2016-05-10" />
		<tag k="ssr:gruppe" v="kystkontur" />
		<tag k="ssr:hovedgruppe" v="sjø" />
		<tag k="ssr:stedsnr" v="161649" />
		<tag k="ssr:type" v="vikISjø" />
	</node>
	<node lat="59.073436114241254" lon="5.4733222220220465" id="-1538">
		<tag k="name" v="Kobbavågen" />
		<tag k="natural" v="bay" />
		<tag k="ssr:date" v="2016-05-10" />
		<tag k="ssr:gruppe" v="kystkontur" />
		<tag k="ssr:hovedgruppe" v="sjø" />
		<tag k="ssr:stedsnr" v="161650" />
		<tag k="ssr:type" v="vikISjø" />
	</node>
	<node lat="59.07121389309981" lon="5.434847216206038" id="-1541">
		<tag k="name" v="Bratthammar" />
		<tag k="natural" v="cape" />
		<tag k="ssr:date" v="2016-05-10" />
		<tag k="ssr:gruppe" v="kystkontur" />
		<tag k="ssr:hovedgruppe" v="sjø" />
		<tag k="ssr:stedsnr" v="161956" />
		<tag k="ssr:type" v="nesISjø" />
	</node>
	<node lat="59.072358337447284" lon="5.4299972297880865" id="-1542">
		<tag k="name" v="Vadvika" />
		<tag k="natural" v="bay" />
		<tag k="ssr:date" v="2016-05-10" />
		<tag k="ssr:gruppe" v="kystkontur" />
		<tag k="ssr:hovedgruppe" v="sjø" />
		<tag k="ssr:stedsnr" v="161958" />
		<tag k="ssr:type" v="vikISjø" />
	</node>
	<node lat="59.004199995837936" lon="5.410666667243362" id="-1543">
		<tag k="name" v="Hugasundet" />
		<tag k="natural" v="strait" />
		<tag k="ssr:date" v="2016-05-10" />
		<tag k="ssr:gruppe" v="kystkontur" />
		<tag k="ssr:hovedgruppe" v="sjø" />
		<tag k="ssr:stedsnr" v="162524" />
		<tag k="ssr:type" v="sundISjø" />
	</node>
	<node lat="59.04213055287995" lon="5.421291662030929" id="-1544">
		<tag k="name" v="Sandholmen" />
		<tag k="place" v="islet" />
		<tag k="ssr:date" v="2016-05-10" />
		<tag k="ssr:gruppe" v="kystkontur" />
		<tag k="ssr:hovedgruppe" v="sjø" />
		<tag k="ssr:stedsnr" v="162713" />
		<tag k="ssr:type" v="holmeISjø" />
	</node>
	<node lat="59.05247222062064" lon="5.4580416689348015" id="-1545">
		<tag k="name" v="Bussholmvika" />
		<tag k="natural" v="bay" />
		<tag k="ssr:date" v="2016-05-10" />
		<tag k="ssr:gruppe" v="kystkontur" />
		<tag k="ssr:hovedgruppe" v="sjø" />
		<tag k="ssr:stedsnr" v="176622" />
		<tag k="ssr:type" v="vikISjø" />
	</node>
	<node lat="59.032302779686745" lon="5.3969222281343905" id="-1546">
		<tag k="name" v="Søre Sparholmvågen" />
		<tag k="natural" v="bay" />
		<tag k="ssr:date" v="2016-05-10" />
		<tag k="ssr:gruppe" v="kystkontur" />
		<tag k="ssr:hovedgruppe" v="sjø" />
		<tag k="ssr:stedsnr" v="176577" />
		<tag k="ssr:type" v="vikISjø" />
	</node>
	<node lat="59.0412277768349" lon="5.397194436131642" id="-1547">
		<tag k="alt_name" v="Grunnungskjer, nordre" />
		<tag k="fixme" v="consider seamark:type=rock or natural=shoal" />
		<tag k="name" v="Nordra Grunnungskjer" />
		<tag k="place" v="islet" />
		<tag k="ssr:date" v="2016-05-10" />
		<tag k="ssr:gruppe" v="grunnerISjø" />
		<tag k="ssr:hovedgruppe" v="sjø" />
		<tag k="ssr:stedsnr" v="183450" />
		<tag k="ssr:type" v="skjærISjø" />
	</node>
	<node lat="59.040527779517134" lon="5.406633329245289" id="-1548">
		<tag k="alt_name" v="Hestskjeret, s" />
		<tag k="fixme" v="consider seamark:type=rock or natural=shoal" />
		<tag k="name" v="Søra Hestaskjeret" />
		<tag k="place" v="islet" />
		<tag k="ssr:date" v="2016-05-10" />
		<tag k="ssr:gruppe" v="grunnerISjø" />
		<tag k="ssr:hovedgruppe" v="sjø" />
		<tag k="ssr:stedsnr" v="183453" />
		<tag k="ssr:type" v="skjærISjø" />
	</node>
	<node lat="59.06518055609948" lon="5.472041658545382" id="-1549">
		<tag k="name" v="Lyngholmen" />
		<tag k="place" v="islet" />
		<tag k="ssr:date" v="2016-05-10" />
		<tag k="ssr:gruppe" v="kystkontur" />
		<tag k="ssr:hovedgruppe" v="sjø" />
		<tag k="ssr:stedsnr" v="184799" />
		<tag k="ssr:type" v="holmeISjø" />
	</node>
	<node lat="58.997147221318" lon="5.417969446563722" id="-1550">
		<tag k="name" v="Larsboen" />
		<tag k="place" v="locality" />
		<tag k="seamark:type" v="rock" />
		<tag k="ssr:date" v="2021-06-08" />
		<tag k="ssr:gruppe" v="grunnerISjø" />
		<tag k="ssr:hovedgruppe" v="sjø" />
		<tag k="ssr:stedsnr" v="208585" />
		<tag k="ssr:type" v="båeISjø" />
	</node>
	<node lat="59.07873610847307" lon="5.490413897072479" id="-1551">
		<tag k="fixme" v="consider seamark:type=rock or natural=shoal" />
		<tag k="name" v="Ternøyskjeret" />
		<tag k="place" v="islet" />
		<tag k="ssr:date" v="2016-05-10" />
		<tag k="ssr:gruppe" v="grunnerISjø" />
		<tag k="ssr:hovedgruppe" v="sjø" />
		<tag k="ssr:stedsnr" v="222613" />
		<tag k="ssr:type" v="skjærISjø" />
	</node>
	<node lat="59.07031666493663" lon="5.466361109757781" id="-1552">
		<tag k="fixme" v="consider seamark:type=rock or natural=shoal" />
		<tag k="name" v="Måkaskjera" />
		<tag k="place" v="islet" />
		<tag k="ssr:date" v="2016-05-10" />
		<tag k="ssr:gruppe" v="grunnerISjø" />
		<tag k="ssr:hovedgruppe" v="sjø" />
		<tag k="ssr:stedsnr" v="222672" />
		<tag k="ssr:type" v="skjærISjø" />
	</node>
	<node lat="59.06136388469925" lon="5.385866667100768" id="-1554">
		<tag k="alt_name" v="Revingskjeret" />
		<tag k="fixme" v="consider seamark:type=rock or natural=shoal" />
		<tag k="name" v="Revingsskjeret" />
		<tag k="place" v="islet" />
		<tag k="ssr:date" v="2016-05-10" />
		<tag k="ssr:gruppe" v="grunnerISjø" />
		<tag k="ssr:hovedgruppe" v="sjø" />
		<tag k="ssr:stedsnr" v="237408" />
		<tag k="ssr:type" v="skjærISjø" />
	</node>
	<node lat="59.045452776967814" lon="5.395841667992055" id="-1555">
		<tag k="fixme" v="consider seamark:type=rock or natural=shoal" />
		<tag k="name" v="Trivardaskjer" />
		<tag k="place" v="islet" />
		<tag k="ssr:date" v="2016-05-10" />
		<tag k="ssr:gruppe" v="grunnerISjø" />
		<tag k="ssr:hovedgruppe" v="sjø" />
		<tag k="ssr:stedsnr" v="237926" />
		<tag k="ssr:type" v="skjærISjø" />
	</node>
	<node lat="59.03976388820802" lon="5.389774997803035" id="-1556">
		<tag k="name" v="Buøyflua" />
		<tag k="natural" v="shoal" />
		<tag k="place" v="locality" />
		<tag k="ssr:date" v="2016-05-10" />
		<tag k="ssr:gruppe" v="grunnerISjø" />
		<tag k="ssr:hovedgruppe" v="sjø" />
		<tag k="ssr:stedsnr" v="237929" />
		<tag k="ssr:type" v="grunneISjø" />
	</node>
	<node lat="59.04376111203433" lon="5.439002769066597" id="-1557">
		<tag k="name" v="Hansagrunnen" />
		<tag k="natural" v="shoal" />
		<tag k="place" v="locality" />
		<tag k="ssr:date" v="2016-05-10" />
		<tag k="ssr:gruppe" v="grunnerISjø" />
		<tag k="ssr:hovedgruppe" v="sjø" />
		<tag k="ssr:stedsnr" v="237990" />
		<tag k="ssr:type" v="grunneISjø" />
	</node>
	<node lat="59.04976388991103" lon="5.403469450993522" id="-1558">
		<tag k="name" v="Hansholmen" />
		<tag k="place" v="islet" />
		<tag k="ssr:date" v="2016-05-10" />
		<tag k="ssr:gruppe" v="kystkontur" />
		<tag k="ssr:hovedgruppe" v="sjø" />
		<tag k="ssr:stedsnr" v="237880" />
		<tag k="ssr:type" v="holmeISjø" />
	</node>
	<node lat="59.046833329304825" lon="5.407386120148051" id="-1559">
		<tag k="name" v="Piggskjer" />
		<tag k="place" v="islet" />
		<tag k="ssr:date" v="2016-05-10" />
		<tag k="ssr:gruppe" v="kystkontur" />
		<tag k="ssr:hovedgruppe" v="sjø" />
		<tag k="ssr:stedsnr" v="237885" />
		<tag k="ssr:type" v="holmeISjø" />
	</node>
	<node lat="59.06737846605026" lon="5.433631282483155" id="-1560">
		<tag k="alt_name" v="Kvitsøen;Vidding" />
		<tag k="fixme" v="consider place=hamlet" />
		<tag k="name" v="Kviting" />
		<tag k="place" v="farm" />
		<tag k="ssr:date" v="2019-03-27" />
		<tag k="ssr:gruppe" v="gardsbebyggelse" />
		<tag k="ssr:hovedgruppe" v="bebyggelse" />
		<tag k="ssr:stedsnr" v="244504" />
		<tag k="ssr:type" v="gard" />
	</node>
	<node lat="59.05513333484155" lon="5.46470000434971" id="-1561">
		<tag k="name" v="Oksholmen" />
		<tag k="place" v="islet" />
		<tag k="ssr:date" v="2021-06-08" />
		<tag k="ssr:gruppe" v="kystkontur" />
		<tag k="ssr:hovedgruppe" v="sjø" />
		<tag k="ssr:stedsnr" v="244515" />
		<tag k="ssr:type" v="holmeISjø" />
	</node>
	<node lat="59.064463885802105" lon="5.467033332669055" id="-1562">
		<tag k="name" v="Sandholmen" />
		<tag k="place" v="islet" />
		<tag k="ssr:date" v="2021-06-08" />
		<tag k="ssr:gruppe" v="kystkontur" />
		<tag k="ssr:hovedgruppe" v="sjø" />
		<tag k="ssr:stedsnr" v="244488" />
		<tag k="ssr:type" v="holmeISjø" />
	</node>
	<node lat="59.03514166636711" lon="5.401683335731949" id="-1563">
		<tag k="name" v="Austre Sparholmen" />
		<tag k="place" v="islet" />
		<tag k="ssr:date" v="2021-06-08" />
		<tag k="ssr:gruppe" v="kystkontur" />
		<tag k="ssr:hovedgruppe" v="sjø" />
		<tag k="ssr:stedsnr" v="453799" />
		<tag k="ssr:type" v="holmeISjø" />
	</node>
	<node lat="58.99540278010123" lon="5.355441667732617" id="-1564">
		<tag k="name" v="Skoraflua" />
		<tag k="place" v="locality" />
		<tag k="seamark:type" v="rock" />
		<tag k="ssr:date" v="2021-06-08" />
		<tag k="ssr:gruppe" v="grunnerISjø" />
		<tag k="ssr:hovedgruppe" v="sjø" />
		<tag k="ssr:stedsnr" v="269617" />
		<tag k="ssr:type" v="båeISjø" />
	</node>
	<node lat="59.04459444246999" lon="5.469111107929225" id="-1565">
		<tag k="name" v="Gåsholmen" />
		<tag k="place" v="islet" />
		<tag k="ssr:date" v="2021-06-08" />
		<tag k="ssr:gruppe" v="kystkontur" />
		<tag k="ssr:hovedgruppe" v="sjø" />
		<tag k="ssr:stedsnr" v="271814" />
		<tag k="ssr:type" v="holmeISjø" />
	</node>
	<node lat="59.04735832968199" lon="5.376261107213799" id="-1566">
		<tag k="name" v="Søra Svortingflua" />
		<tag k="natural" v="shoal" />
		<tag k="place" v="locality" />
		<tag k="ssr:date" v="2016-05-10" />
		<tag k="ssr:gruppe" v="grunnerISjø" />
		<tag k="ssr:hovedgruppe" v="sjø" />
		<tag k="ssr:stedsnr" v="282389" />
		<tag k="ssr:type" v="grunneISjø" />
	</node>
	<node lat="59.05559444603381" lon="5.413152771639526" id="-1567">
		<tag k="fixme" v="consider seamark:type=rock or natural=shoal" />
		<tag k="name" v="Midtra Fånøyskjeret" />
		<tag k="place" v="islet" />
		<tag k="ssr:date" v="2016-05-10" />
		<tag k="ssr:gruppe" v="grunnerISjø" />
		<tag k="ssr:hovedgruppe" v="sjø" />
		<tag k="ssr:stedsnr" v="285610" />
		<tag k="ssr:type" v="skjærISjø" />
	</node>
	<node lat="59.07281666366798" lon="5.416994439000119" id="-1568">
		<tag k="name" v="Nordbøvågen" />
		<tag k="natural" v="bay" />
		<tag k="ssr:date" v="2016-05-10" />
		<tag k="ssr:gruppe" v="kystkontur" />
		<tag k="ssr:hovedgruppe" v="sjø" />
		<tag k="ssr:stedsnr" v="296977" />
		<tag k="ssr:type" v="vågISjø" />
	</node>
	<node lat="59.0190694449998" lon="5.376188893206735" id="-1569">
		<tag k="name" v="Midgrunnen" />
		<tag k="natural" v="shoal" />
		<tag k="place" v="locality" />
		<tag k="ssr:date" v="2016-05-10" />
		<tag k="ssr:gruppe" v="grunnerISjø" />
		<tag k="ssr:hovedgruppe" v="sjø" />
		<tag k="ssr:stedsnr" v="298586" />
		<tag k="ssr:type" v="grunneISjø" />
	</node>
	<node lat="59.01042500410758" lon="5.382447214942387" id="-1570">
		<tag k="fixme" v="consider seamark:type=rock or natural=shoal" />
		<tag k="name" v="Seiaskjera" />
		<tag k="place" v="islet" />
		<tag k="ssr:date" v="2016-05-10" />
		<tag k="ssr:gruppe" v="grunnerISjø" />
		<tag k="ssr:hovedgruppe" v="sjø" />
		<tag k="ssr:stedsnr" v="298591" />
		<tag k="ssr:type" v="skjærISjø" />
	</node>
	<node lat="59.04693333042219" lon="5.410688888718369" id="-1571">
		<tag k="name" v="Vardholmen" />
		<tag k="place" v="islet" />
		<tag k="ssr:date" v="2016-05-10" />
		<tag k="ssr:gruppe" v="kystkontur" />
		<tag k="ssr:hovedgruppe" v="sjø" />
		<tag k="ssr:stedsnr" v="298873" />
		<tag k="ssr:type" v="holmeISjø" />
	</node>
	<node lat="59.04069166374333" lon="5.429777777754583" id="-1572">
		<tag k="name" v="Peragrunnane" />
		<tag k="natural" v="shoal" />
		<tag k="place" v="locality" />
		<tag k="ssr:date" v="2016-05-10" />
		<tag k="ssr:gruppe" v="grunnerISjø" />
		<tag k="ssr:hovedgruppe" v="sjø" />
		<tag k="ssr:stedsnr" v="298984" />
		<tag k="ssr:type" v="grunneISjø" />
	</node>
	<node lat="59.05760555404" lon="5.436188886492927" id="-1573">
		<tag k="name" v="Hestholmen" />
		<tag k="place" v="islet" />
		<tag k="ssr:date" v="2021-06-08" />
		<tag k="ssr:gruppe" v="kystkontur" />
		<tag k="ssr:hovedgruppe" v="sjø" />
		<tag k="ssr:stedsnr" v="304310" />
		<tag k="ssr:type" v="holmeISjø" />
	</node>
	<node lat="59.080413890663074" lon="5.506697217877011" id="-1574">
		<tag k="name" v="Terneboane" />
		<tag k="natural" v="shoal" />
		<tag k="place" v="locality" />
		<tag k="ssr:date" v="2021-06-08" />
		<tag k="ssr:gruppe" v="grunnerISjø" />
		<tag k="ssr:hovedgruppe" v="sjø" />
		<tag k="ssr:stedsnr" v="304872" />
		<tag k="ssr:type" v="grunneISjø" />
	</node>
	<node lat="59.0507444465336" lon="5.4155972188284265" id="-1575">
		<tag k="name" v="Langholmen" />
		<tag k="place" v="islet" />
		<tag k="ssr:date" v="2016-05-10" />
		<tag k="ssr:gruppe" v="kystkontur" />
		<tag k="ssr:hovedgruppe" v="sjø" />
		<tag k="ssr:stedsnr" v="305506" />
		<tag k="ssr:type" v="holmeISjø" />
	</node>
	<node lat="59.030938892377115" lon="5.42580556151987" id="-1576">
		<tag k="name" v="Søra Hogga" />
		<tag k="place" v="islet" />
		<tag k="ssr:date" v="2021-06-08" />
		<tag k="ssr:gruppe" v="kystkontur" />
		<tag k="ssr:hovedgruppe" v="sjø" />
		<tag k="ssr:stedsnr" v="305522" />
		<tag k="ssr:type" v="holmeISjø" />
	</node>
	<node lat="59.03597856991005" lon="5.409239209796039" id="-1577">
		<tag k="fixme" v="consider seamark:type=rock or natural=shoal" />
		<tag k="name" v="Stabben" />
		<tag k="place" v="islet" />
		<tag k="ssr:date" v="2018-10-01" />
		<tag k="ssr:gruppe" v="grunnerISjø" />
		<tag k="ssr:hovedgruppe" v="sjø" />
		<tag k="ssr:stedsnr" v="305523" />
		<tag k="ssr:type" v="skjærISjø" />
	</node>
	<node lat="59.0743805579011" lon="5.414997222592961" id="-1578">
		<tag k="name" v="Nordholmsundet" />
		<tag k="natural" v="strait" />
		<tag k="ssr:date" v="2016-05-10" />
		<tag k="ssr:gruppe" v="kystkontur" />
		<tag k="ssr:hovedgruppe" v="sjø" />
		<tag k="ssr:stedsnr" v="465677" />
		<tag k="ssr:type" v="sundISjø" />
	</node>
	<node lat="59.072647226110426" lon="5.402136116356023" id="-1579">
		<tag k="name" v="Tønneskjergrunnen" />
		<tag k="natural" v="shoal" />
		<tag k="place" v="locality" />
		<tag k="ssr:date" v="2016-05-10" />
		<tag k="ssr:gruppe" v="grunnerISjø" />
		<tag k="ssr:hovedgruppe" v="sjø" />
		<tag k="ssr:stedsnr" v="465686" />
		<tag k="ssr:type" v="grunneISjø" />
	</node>
	<node lat="59.070541663072504" lon="5.463038882394762" id="-1580">
		<tag k="fixme" v="consider seamark:type=rock or natural=shoal" />
		<tag k="name" v="Sandøysloen" />
		<tag k="place" v="islet" />
		<tag k="ssr:date" v="2016-05-10" />
		<tag k="ssr:gruppe" v="grunnerISjø" />
		<tag k="ssr:hovedgruppe" v="sjø" />
		<tag k="ssr:stedsnr" v="465693" />
		<tag k="ssr:type" v="skjærISjø" />
	</node>
	<node lat="59.07793056005183" lon="5.489830558517578" id="-1581">
		<tag k="name" v="Austra Ternøybukta" />
		<tag k="natural" v="bay" />
		<tag k="ssr:date" v="2016-05-10" />
		<tag k="ssr:gruppe" v="kystkontur" />
		<tag k="ssr:hovedgruppe" v="sjø" />
		<tag k="ssr:stedsnr" v="465642" />
		<tag k="ssr:type" v="vikISjø" />
	</node>
	<node lat="59.07273611437306" lon="5.489541672975653" id="-1582">
		<tag k="name" v="Grasskjersundet" />
		<tag k="natural" v="strait" />
		<tag k="ssr:date" v="2016-05-10" />
		<tag k="ssr:gruppe" v="kystkontur" />
		<tag k="ssr:hovedgruppe" v="sjø" />
		<tag k="ssr:stedsnr" v="465651" />
		<tag k="ssr:type" v="sundISjø" />
	</node>
	<node lat="59.1085250022542" lon="5.401886103862963" id="-1583">
		<tag k="name" v="Sedegrunnen" />
		<tag k="natural" v="shoal" />
		<tag k="place" v="locality" />
		<tag k="ssr:date" v="2016-05-10" />
		<tag k="ssr:gruppe" v="grunnerISjø" />
		<tag k="ssr:hovedgruppe" v="sjø" />
		<tag k="ssr:stedsnr" v="465701" />
		<tag k="ssr:type" v="grunneISjø" />
	</node>
	<node lat="59.06064999957049" lon="5.433794452020705" id="-1584">
		<tag k="name" v="Skitsloen" />
		<tag k="natural" v="shoal" />
		<tag k="place" v="locality" />
		<tag k="ssr:date" v="2016-05-10" />
		<tag k="ssr:gruppe" v="grunnerISjø" />
		<tag k="ssr:hovedgruppe" v="sjø" />
		<tag k="ssr:stedsnr" v="465957" />
		<tag k="ssr:type" v="grunneISjø" />
	</node>
	<node lat="59.06137500399868" lon="5.43139999707131" id="-1587">
		<tag k="name" v="Stevelsgrunnen" />
		<tag k="natural" v="shoal" />
		<tag k="place" v="locality" />
		<tag k="ssr:date" v="2016-05-10" />
		<tag k="ssr:gruppe" v="grunnerISjø" />
		<tag k="ssr:hovedgruppe" v="sjø" />
		<tag k="ssr:stedsnr" v="465953" />
		<tag k="ssr:type" v="grunneISjø" />
	</node>
	<node lat="59.02745555902114" lon="5.436400007431821" id="-1588">
		<tag k="name" v="Tormodflua" />
		<tag k="natural" v="shoal" />
		<tag k="place" v="locality" />
		<tag k="ssr:date" v="2016-05-10" />
		<tag k="ssr:gruppe" v="grunnerISjø" />
		<tag k="ssr:hovedgruppe" v="sjø" />
		<tag k="ssr:stedsnr" v="466534" />
		<tag k="ssr:type" v="grunneISjø" />
	</node>
	<node lat="59.06225555913593" lon="5.402438884416947" id="-1589">
		<tag k="alt_name" v="Ystabøhamn" />
		<tag k="name" v="Ydstebøhamn" />
		<tag k="place" v="village" />
		<tag k="ssr:date" v="2016-05-10" />
		<tag k="ssr:gruppe" v="bebyggelsesområder" />
		<tag k="ssr:hovedgruppe" v="bebyggelse" />
		<tag k="ssr:stedsnr" v="329369" />
		<tag k="ssr:type" v="tettsted" />
	</node>
	<node lat="59.05284166698607" lon="5.4000583383701635" id="-1590">
		<tag k="name" v="Bladøya" />
		<tag k="place" v="islet" />
		<tag k="ssr:date" v="2016-05-10" />
		<tag k="ssr:gruppe" v="kystkontur" />
		<tag k="ssr:hovedgruppe" v="sjø" />
		<tag k="ssr:stedsnr" v="343392" />
		<tag k="ssr:type" v="holmeISjø" />
	</node>
	<node lat="59.06155555844601" lon="5.4021305488465945" id="-1592">
		<tag k="name" v="Hålandsstranden" />
		<tag k="natural" v="beach" />
		<tag k="ssr:date" v="2016-05-10" />
		<tag k="ssr:gruppe" v="kystkontur" />
		<tag k="ssr:hovedgruppe" v="sjø" />
		<tag k="ssr:stedsnr" v="343864" />
		<tag k="ssr:type" v="strandISjø" />
	</node>
	<node lat="59.05889722268742" lon="5.40771388278025" id="-1593">
		<tag k="name" v="Neset" />
		<tag k="natural" v="cape" />
		<tag k="ssr:date" v="2016-05-10" />
		<tag k="ssr:gruppe" v="kystkontur" />
		<tag k="ssr:hovedgruppe" v="sjø" />
		<tag k="ssr:stedsnr" v="343866" />
		<tag k="ssr:type" v="nesISjø" />
	</node>
	<node lat="59.05701944726345" lon="5.429269439685051" id="-1594">
		<tag k="name" v="Skarvaskjergrunnen" />
		<tag k="place" v="locality" />
		<tag k="seamark:type" v="rock" />
		<tag k="ssr:date" v="2016-05-10" />
		<tag k="ssr:gruppe" v="grunnerISjø" />
		<tag k="ssr:hovedgruppe" v="sjø" />
		<tag k="ssr:stedsnr" v="343875" />
		<tag k="ssr:type" v="båeISjø" />
	</node>
	<node lat="59.052430558046936" lon="5.4244583366590975" id="-1595">
		<tag k="name" v="Flisagrunnane" />
		<tag k="natural" v="shoal" />
		<tag k="place" v="locality" />
		<tag k="ssr:date" v="2016-05-10" />
		<tag k="ssr:gruppe" v="grunnerISjø" />
		<tag k="ssr:hovedgruppe" v="sjø" />
		<tag k="ssr:stedsnr" v="344452" />
		<tag k="ssr:type" v="grunneISjø" />
	</node>
	<node lat="59.02932222118074" lon="5.396730557621682" id="-1596">
		<tag k="name" v="Sugga" />
		<tag k="place" v="locality" />
		<tag k="seamark:type" v="rock" />
		<tag k="ssr:date" v="2016-05-10" />
		<tag k="ssr:gruppe" v="grunnerISjø" />
		<tag k="ssr:hovedgruppe" v="sjø" />
		<tag k="ssr:stedsnr" v="358611" />
		<tag k="ssr:type" v="båeISjø" />
	</node>
	<node lat="59.02970833484781" lon="5.385355555812666" id="-1597">
		<tag k="name" v="Sjoalandsfluene" />
		<tag k="natural" v="shoal" />
		<tag k="place" v="locality" />
		<tag k="ssr:date" v="2016-05-10" />
		<tag k="ssr:gruppe" v="grunnerISjø" />
		<tag k="ssr:hovedgruppe" v="sjø" />
		<tag k="ssr:stedsnr" v="358612" />
		<tag k="ssr:type" v="grunneISjø" />
	</node>
	<node lat="59.026286110611906" lon="5.379072228642727" id="-1598">
		<tag k="name" v="Midflua" />
		<tag k="natural" v="shoal" />
		<tag k="place" v="locality" />
		<tag k="ssr:date" v="2016-05-10" />
		<tag k="ssr:gruppe" v="grunnerISjø" />
		<tag k="ssr:hovedgruppe" v="sjø" />
		<tag k="ssr:stedsnr" v="358614" />
		<tag k="ssr:type" v="grunneISjø" />
	</node>
	<node lat="59.03804722236261" lon="5.446308335237132" id="-1599">
		<tag k="fixme" v="consider seamark:type=rock or natural=shoal" />
		<tag k="name" v="Gjerdholmskota" />
		<tag k="place" v="islet" />
		<tag k="ssr:date" v="2016-05-10" />
		<tag k="ssr:gruppe" v="grunnerISjø" />
		<tag k="ssr:hovedgruppe" v="sjø" />
		<tag k="ssr:stedsnr" v="358658" />
		<tag k="ssr:type" v="skjærISjø" />
	</node>
	<node lat="59.05039722198925" lon="5.457544440793471" id="-1600">
		<tag k="name" v="Bussholmen" />
		<tag k="place" v="islet" />
		<tag k="ssr:date" v="2021-06-08" />
		<tag k="ssr:gruppe" v="kystkontur" />
		<tag k="ssr:hovedgruppe" v="sjø" />
		<tag k="ssr:stedsnr" v="365504" />
		<tag k="ssr:type" v="holmeISjø" />
	</node>
	<node lat="59.05954999802777" lon="5.432394441914394" id="-1601">
		<tag k="name" v="Fle" />
		<tag k="natural" v="strait" />
		<tag k="ssr:date" v="2016-05-10" />
		<tag k="ssr:gruppe" v="kystkontur" />
		<tag k="ssr:hovedgruppe" v="sjø" />
		<tag k="ssr:stedsnr" v="365505" />
		<tag k="ssr:type" v="sundISjø" />
	</node>
	<node lat="59.06582221829421" lon="5.424758327595056" id="-1602">
		<tag k="name" v="Langøy" />
		<tag k="place" v="island" />
		<tag k="ssr:date" v="2021-06-08" />
		<tag k="ssr:gruppe" v="kystkontur" />
		<tag k="ssr:hovedgruppe" v="sjø" />
		<tag k="ssr:stedsnr" v="365489" />
		<tag k="ssr:type" v="øyISjø" />
	</node>
	<node lat="59.04898055535529" lon="5.394461111384444" id="-1603">
		<tag k="name" v="Nordre Skodholmen" />
		<tag k="place" v="islet" />
		<tag k="ssr:date" v="2021-06-08" />
		<tag k="ssr:gruppe" v="kystkontur" />
		<tag k="ssr:hovedgruppe" v="sjø" />
		<tag k="ssr:stedsnr" v="365493" />
		<tag k="ssr:type" v="holmeISjø" />
	</node>
	<node lat="59.065927781907426" lon="5.3903083351458285" id="-1604">
		<tag k="name" v="Klavanesholmane" />
		<tag k="place" v="islet" />
		<tag k="ssr:date" v="2021-06-08" />
		<tag k="ssr:gruppe" v="kystkontur" />
		<tag k="ssr:hovedgruppe" v="sjø" />
		<tag k="ssr:stedsnr" v="365500" />
		<tag k="ssr:type" v="holmeISjø" />
	</node>
	<node lat="59.06589444086413" lon="5.3903805605181505" id="-1605">
		<tag k="alt_name" v="Nordre Kalvanesholmen" />
		<tag k="name" v="Nordre Klavanesholmen" />
		<tag k="place" v="islet" />
		<tag k="ssr:date" v="2016-05-10" />
		<tag k="ssr:gruppe" v="kystkontur" />
		<tag k="ssr:hovedgruppe" v="sjø" />
		<tag k="ssr:stedsnr" v="478984" />
		<tag k="ssr:type" v="holmeISjø" />
	</node>
	<node lat="59.057244440747844" lon="5.394552771414732" id="-1606">
		<tag k="name" v="Hegerholmen" />
		<tag k="place" v="islet" />
		<tag k="ssr:date" v="2016-05-10" />
		<tag k="ssr:gruppe" v="kystkontur" />
		<tag k="ssr:hovedgruppe" v="sjø" />
		<tag k="ssr:stedsnr" v="479396" />
		<tag k="ssr:type" v="holmeISjø" />
	</node>
	<node lat="59.05561944675516" lon="5.454838891728584" id="-1607">
		<tag k="name" v="Nordre Bussholmgrunnen" />
		<tag k="natural" v="shoal" />
		<tag k="place" v="locality" />
		<tag k="ssr:date" v="2016-05-10" />
		<tag k="ssr:gruppe" v="grunnerISjø" />
		<tag k="ssr:hovedgruppe" v="sjø" />
		<tag k="ssr:stedsnr" v="479638" />
		<tag k="ssr:type" v="grunneISjø" />
	</node>
	<node lat="59.0496833326985" lon="5.490325004159921" id="-1608">
		<tag k="name" v="Krågefluene" />
		<tag k="natural" v="shoal" />
		<tag k="place" v="locality" />
		<tag k="ssr:date" v="2016-05-10" />
		<tag k="ssr:gruppe" v="grunnerISjø" />
		<tag k="ssr:hovedgruppe" v="sjø" />
		<tag k="ssr:stedsnr" v="479643" />
		<tag k="ssr:type" v="grunneISjø" />
	</node>
	<node lat="59.05083333790306" lon="5.408991670511398" id="-1609">
		<tag k="name" v="Gulaflæ" />
		<tag k="natural" v="bay" />
		<tag k="ssr:date" v="2016-05-10" />
		<tag k="ssr:gruppe" v="kystkontur" />
		<tag k="ssr:hovedgruppe" v="sjø" />
		<tag k="ssr:stedsnr" v="479892" />
		<tag k="ssr:type" v="vågISjø" />
	</node>
	<node lat="59.052202774029695" lon="5.415236112028705" id="-1610">
		<tag k="fixme" v="consider seamark:type=rock or natural=shoal" />
		<tag k="name" v="Bringebærskjeret" />
		<tag k="place" v="islet" />
		<tag k="ssr:date" v="2016-05-10" />
		<tag k="ssr:gruppe" v="grunnerISjø" />
		<tag k="ssr:hovedgruppe" v="sjø" />
		<tag k="ssr:stedsnr" v="479899" />
		<tag k="ssr:type" v="skjærISjø" />
	</node>
	<node lat="59.043927781815896" lon="5.434622228114629" id="-1611">
		<tag k="name" v="Gjertholmfluene" />
		<tag k="natural" v="shoal" />
		<tag k="place" v="locality" />
		<tag k="ssr:date" v="2016-05-10" />
		<tag k="ssr:gruppe" v="grunnerISjø" />
		<tag k="ssr:hovedgruppe" v="sjø" />
		<tag k="ssr:stedsnr" v="479990" />
		<tag k="ssr:type" v="grunneISjø" />
	</node>
	<node lat="58.99093055141935" lon="5.415150002460793" id="-1612">
		<tag k="fixme" v="consider seamark:type=rock or natural=shoal" />
		<tag k="name" v="Håboen" />
		<tag k="place" v="islet" />
		<tag k="ssr:date" v="2021-06-08" />
		<tag k="ssr:gruppe" v="grunnerISjø" />
		<tag k="ssr:hovedgruppe" v="sjø" />
		<tag k="ssr:stedsnr" v="485091" />
		<tag k="ssr:type" v="skjærISjø" />
	</node>
	<node lat="59.07233888832967" lon="5.439163897284828" id="-1613">
		<tag k="name" v="Søre Jartholmgrunnen" />
		<tag k="natural" v="shoal" />
		<tag k="place" v="locality" />
		<tag k="ssr:date" v="2016-05-10" />
		<tag k="ssr:gruppe" v="grunnerISjø" />
		<tag k="ssr:hovedgruppe" v="sjø" />
		<tag k="ssr:stedsnr" v="403310" />
		<tag k="ssr:type" v="grunneISjø" />
	</node>
	<node lat="59.051027774589826" lon="5.381422228654583" id="-1614">
		<tag k="name" v="Svortingsloen" />
		<tag k="natural" v="shoal" />
		<tag k="place" v="locality" />
		<tag k="ssr:date" v="2016-05-10" />
		<tag k="ssr:gruppe" v="grunnerISjø" />
		<tag k="ssr:hovedgruppe" v="sjø" />
		<tag k="ssr:stedsnr" v="403384" />
		<tag k="ssr:type" v="grunneISjø" />
	</node>
	<node lat="59.06424721953509" lon="5.464280564148574" id="-1615">
		<tag k="name" v="Sandholmtarane" />
		<tag k="natural" v="shoal" />
		<tag k="place" v="locality" />
		<tag k="ssr:date" v="2016-05-10" />
		<tag k="ssr:gruppe" v="grunnerISjø" />
		<tag k="ssr:hovedgruppe" v="sjø" />
		<tag k="ssr:stedsnr" v="404678" />
		<tag k="ssr:type" v="grunneISjø" />
	</node>
	<node lat="59.02243888605113" lon="5.419119447756667" id="-1616">
		<tag k="name" v="Nordre Raudholmgrunnen" />
		<tag k="natural" v="shoal" />
		<tag k="place" v="locality" />
		<tag k="ssr:date" v="2016-05-10" />
		<tag k="ssr:gruppe" v="grunnerISjø" />
		<tag k="ssr:hovedgruppe" v="sjø" />
		<tag k="ssr:stedsnr" v="405533" />
		<tag k="ssr:type" v="grunneISjø" />
	</node>
	<node lat="59.018094446843165" lon="5.418072217787149" id="-1617">
		<tag k="name" v="Turre Raudholmgrunnene" />
		<tag k="natural" v="shoal" />
		<tag k="place" v="locality" />
		<tag k="ssr:date" v="2016-05-10" />
		<tag k="ssr:gruppe" v="grunnerISjø" />
		<tag k="ssr:hovedgruppe" v="sjø" />
		<tag k="ssr:stedsnr" v="405534" />
		<tag k="ssr:type" v="grunneISjø" />
	</node>
	<node lat="59.01794721878616" lon="5.409477772669608" id="-1618">
		<tag k="name" v="Nordre Longe" />
		<tag k="natural" v="shoal" />
		<tag k="place" v="locality" />
		<tag k="ssr:date" v="2016-05-10" />
		<tag k="ssr:gruppe" v="grunnerISjø" />
		<tag k="ssr:hovedgruppe" v="sjø" />
		<tag k="ssr:stedsnr" v="405541" />
		<tag k="ssr:type" v="grunneISjø" />
	</node>
	<node lat="59.00830555837493" lon="5.403827774554638" id="-1619">
		<tag k="fixme" v="consider seamark:type=rock or natural=shoal" />
		<tag k="name" v="Hugen" />
		<tag k="place" v="islet" />
		<tag k="ssr:date" v="2021-06-08" />
		<tag k="ssr:gruppe" v="grunnerISjø" />
		<tag k="ssr:hovedgruppe" v="sjø" />
		<tag k="ssr:stedsnr" v="486462" />
		<tag k="ssr:type" v="skjærISjø" />
	</node>
	<node lat="59.01353055639842" lon="5.390644436891548" id="-1620">
		<tag k="name" v="Magerøya" />
		<tag k="place" v="islet" />
		<tag k="ssr:date" v="2016-05-10" />
		<tag k="ssr:gruppe" v="kystkontur" />
		<tag k="ssr:hovedgruppe" v="sjø" />
		<tag k="ssr:stedsnr" v="486463" />
		<tag k="ssr:type" v="holmeISjø" />
	</node>
	<node lat="59.04515000138787" lon="5.406322220630601" id="-1622">
		<tag k="name" v="Buøyflæet" />
		<tag k="natural" v="bay" />
		<tag k="ssr:date" v="2016-05-10" />
		<tag k="ssr:gruppe" v="kystkontur" />
		<tag k="ssr:hovedgruppe" v="sjø" />
		<tag k="ssr:stedsnr" v="419899" />
		<tag k="ssr:type" v="vågISjø" />
	</node>
	<node lat="59.04667221916365" lon="5.396744443681279" id="-1623">
		<tag k="name" v="Styrmannsskjer" />
		<tag k="place" v="islet" />
		<tag k="ssr:date" v="2016-05-10" />
		<tag k="ssr:gruppe" v="kystkontur" />
		<tag k="ssr:hovedgruppe" v="sjø" />
		<tag k="ssr:stedsnr" v="419914" />
		<tag k="ssr:type" v="holmeISjø" />
	</node>
	<node lat="58.9680888868667" lon="5.414166663075834" id="-1624">
		<tag k="bay" v="fjord" />
		<tag k="name" v="Håsteinsfjorden" />
		<tag k="natural" v="bay" />
		<tag k="ssr:date" v="2021-06-08" />
		<tag k="ssr:gruppe" v="farvann" />
		<tag k="ssr:hovedgruppe" v="sjø" />
		<tag k="ssr:stedsnr" v="425114" />
		<tag k="ssr:type" v="fjord" />
	</node>
	<node lat="59.07074166413022" lon="5.563047228124893" id="-1625">
		<tag k="bay" v="fjord" />
		<tag k="name" v="Kvitsøyfjorden" />
		<tag k="natural" v="bay" />
		<tag k="ssr:date" v="2021-06-08" />
		<tag k="ssr:gruppe" v="farvann" />
		<tag k="ssr:hovedgruppe" v="sjø" />
		<tag k="ssr:stedsnr" v="427782" />
		<tag k="ssr:type" v="fjord" />
	</node>
	<node lat="59.00419166662475" lon="5.348411107067697" id="-1626">
		<tag k="name" v="Imsagrunnen" />
		<tag k="place" v="locality" />
		<tag k="seamark:type" v="rock" />
		<tag k="ssr:date" v="2021-06-08" />
		<tag k="ssr:gruppe" v="grunnerISjø" />
		<tag k="ssr:hovedgruppe" v="sjø" />
		<tag k="ssr:stedsnr" v="450613" />
		<tag k="ssr:type" v="båeISjø" />
	</node>
	<node lat="59.05327499790661" lon="5.384361104505415" id="-1627">
		<tag k="fixme" v="consider seamark:type=rock or natural=shoal" />
		<tag k="name" v="Saltskjeret" />
		<tag k="place" v="islet" />
		<tag k="ssr:date" v="2016-05-10" />
		<tag k="ssr:gruppe" v="grunnerISjø" />
		<tag k="ssr:hovedgruppe" v="sjø" />
		<tag k="ssr:stedsnr" v="464410" />
		<tag k="ssr:type" v="skjærISjø" />
	</node>
	<node lat="59.053411107823415" lon="5.397938893257468" id="-1628">
		<tag k="name" v="Saggaskjersundet" />
		<tag k="natural" v="strait" />
		<tag k="ssr:date" v="2016-05-10" />
		<tag k="ssr:gruppe" v="kystkontur" />
		<tag k="ssr:hovedgruppe" v="sjø" />
		<tag k="ssr:stedsnr" v="466636" />
		<tag k="ssr:type" v="sundISjø" />
	</node>
	<node lat="59.01678611200291" lon="5.37714443795261" id="-1629">
		<tag k="name" v="Begholmgrunnen" />
		<tag k="natural" v="shoal" />
		<tag k="place" v="locality" />
		<tag k="ssr:date" v="2016-05-10" />
		<tag k="ssr:gruppe" v="grunnerISjø" />
		<tag k="ssr:hovedgruppe" v="sjø" />
		<tag k="ssr:stedsnr" v="480615" />
		<tag k="ssr:type" v="grunneISjø" />
	</node>
	<node lat="59.07493611031562" lon="5.433608336881156" id="-1630">
		<tag k="name" v="Nordre Hestholmen" />
		<tag k="place" v="islet" />
		<tag k="ssr:date" v="2021-06-08" />
		<tag k="ssr:gruppe" v="kystkontur" />
		<tag k="ssr:hovedgruppe" v="sjø" />
		<tag k="ssr:stedsnr" v="486490" />
		<tag k="ssr:type" v="holmeISjø" />
	</node>
	<node lat="59.05936486572553" lon="5.385209519166054" id="-1631">
		<tag k="name" v="Revingen" />
		<tag k="place" v="islet" />
		<tag k="ssr:date" v="2021-06-08" />
		<tag k="ssr:gruppe" v="kystkontur" />
		<tag k="ssr:hovedgruppe" v="sjø" />
		<tag k="ssr:stedsnr" v="486492" />
		<tag k="ssr:type" v="holmeISjø" />
	</node>
	<node lat="59.04510277703831" lon="5.393630559186083" id="-1632">
		<tag k="name" v="Søre Skodholmen" />
		<tag k="place" v="islet" />
		<tag k="ssr:date" v="2021-06-08" />
		<tag k="ssr:gruppe" v="kystkontur" />
		<tag k="ssr:hovedgruppe" v="sjø" />
		<tag k="ssr:stedsnr" v="486504" />
		<tag k="ssr:type" v="holmeISjø" />
	</node>
	<node lat="59.06543332941151" lon="5.47189166992962" id="-1634">
		<tag k="name" v="Austholmane" />
		<tag k="place" v="island" />
		<tag k="ssr:date" v="2021-06-08" />
		<tag k="ssr:gruppe" v="kystkontur" />
		<tag k="ssr:hovedgruppe" v="sjø" />
		<tag k="ssr:stedsnr" v="510602" />
		<tag k="ssr:type" v="øygruppeISjø" />
	</node>
	<node lat="59.049577778163936" lon="5.37745556159011" id="-1635">
		<tag k="fixme" v="consider seamark:type=rock or natural=shoal" />
		<tag k="name" v="Storaskjeret" />
		<tag k="place" v="islet" />
		<tag k="ssr:date" v="2016-05-10" />
		<tag k="ssr:gruppe" v="grunnerISjø" />
		<tag k="ssr:hovedgruppe" v="sjø" />
		<tag k="ssr:stedsnr" v="525418" />
		<tag k="ssr:type" v="skjærISjø" />
	</node>
	<node lat="59.01091666684517" lon="5.404616660110611" id="-1637">
		<tag k="name" v="Hugaskodsundet" />
		<tag k="natural" v="strait" />
		<tag k="ssr:date" v="2016-05-10" />
		<tag k="ssr:gruppe" v="kystkontur" />
		<tag k="ssr:hovedgruppe" v="sjø" />
		<tag k="ssr:stedsnr" v="526513" />
		<tag k="ssr:type" v="sundISjø" />
	</node>
	<node lat="59.06811388700859" lon="5.421516672510553" id="-1638">
		<tag k="alt_name" v="Kjørkjesundet" />
		<tag k="name" v="Kyrkjesundet" />
		<tag k="natural" v="strait" />
		<tag k="ssr:date" v="2016-05-10" />
		<tag k="ssr:gruppe" v="kystkontur" />
		<tag k="ssr:hovedgruppe" v="sjø" />
		<tag k="ssr:stedsnr" v="539964" />
		<tag k="ssr:type" v="sundISjø" />
	</node>
	<node lat="59.05565000053031" lon="5.4252055525829475" id="-1639">
		<tag k="name" v="Klaua" />
		<tag k="natural" v="cape" />
		<tag k="ssr:date" v="2016-05-10" />
		<tag k="ssr:gruppe" v="kystkontur" />
		<tag k="ssr:hovedgruppe" v="sjø" />
		<tag k="ssr:stedsnr" v="539885" />
		<tag k="ssr:type" v="nesISjø" />
	</node>
	<node lat="59.01265000099123" lon="5.394169452347123" id="-1640">
		<tag k="fixme" v="consider seamark:type=rock or natural=shoal" />
		<tag k="name" v="Magerøyskota" />
		<tag k="place" v="islet" />
		<tag k="ssr:date" v="2016-05-10" />
		<tag k="ssr:gruppe" v="grunnerISjø" />
		<tag k="ssr:hovedgruppe" v="sjø" />
		<tag k="ssr:stedsnr" v="540604" />
		<tag k="ssr:type" v="skjærISjø" />
	</node>
	<node lat="59.04559722174514" lon="5.4023166683202115" id="-1641">
		<tag k="fixme" v="consider seamark:type=rock or natural=shoal" />
		<tag k="name" v="Søra Lyngskjer" />
		<tag k="place" v="islet" />
		<tag k="ssr:date" v="2016-05-10" />
		<tag k="ssr:gruppe" v="grunnerISjø" />
		<tag k="ssr:hovedgruppe" v="sjø" />
		<tag k="ssr:stedsnr" v="540902" />
		<tag k="ssr:type" v="skjærISjø" />
	</node>
	<node lat="59.049600001815406" lon="5.411600002803765" id="-1643">
		<tag k="name" v="Ugløya" />
		<tag k="place" v="islet" />
		<tag k="ssr:date" v="2021-06-08" />
		<tag k="ssr:gruppe" v="kystkontur" />
		<tag k="ssr:hovedgruppe" v="sjø" />
		<tag k="ssr:stedsnr" v="547513" />
		<tag k="ssr:type" v="holmeISjø" />
	</node>
	<node lat="59.02950007544684" lon="5.395231729800959" id="-1645">
		<tag k="name" v="Sparholmtåa" />
		<tag k="place" v="islet" />
		<tag k="ssr:date" v="2018-09-04" />
		<tag k="ssr:gruppe" v="kystkontur" />
		<tag k="ssr:hovedgruppe" v="sjø" />
		<tag k="ssr:stedsnr" v="547526" />
		<tag k="ssr:type" v="holmeISjø" />
	</node>
	<node lat="59.01109999593929" lon="5.377672220764865" id="-1646">
		<tag k="name" v="Kvitholmen" />
		<tag k="place" v="islet" />
		<tag k="ssr:date" v="2016-05-10" />
		<tag k="ssr:gruppe" v="kystkontur" />
		<tag k="ssr:hovedgruppe" v="sjø" />
		<tag k="ssr:stedsnr" v="547483" />
		<tag k="ssr:type" v="holmeISjø" />
	</node>
	<node lat="58.990741665436005" lon="5.365513887029707" id="-1647">
		<tag k="name" v="Vestre Råsa" />
		<tag k="place" v="locality" />
		<tag k="seamark:type" v="rock" />
		<tag k="ssr:date" v="2021-06-08" />
		<tag k="ssr:gruppe" v="grunnerISjø" />
		<tag k="ssr:hovedgruppe" v="sjø" />
		<tag k="ssr:stedsnr" v="572621" />
		<tag k="ssr:type" v="båeISjø" />
	</node>
	<node lat="59.070994441075534" lon="5.374483334005114" id="-1648">
		<tag k="bay" v="fjord" />
		<tag k="name" v="Kyrkjereksteren" />
		<tag k="natural" v="bay" />
		<tag k="ssr:date" v="2021-06-08" />
		<tag k="ssr:gruppe" v="farvann" />
		<tag k="ssr:hovedgruppe" v="sjø" />
		<tag k="ssr:stedsnr" v="695763" />
		<tag k="ssr:type" v="fjord" />
	</node>
	<node lat="59.057702779141664" lon="5.420088887165585" id="-1649">
		<tag k="fixme" v="consider seamark:type=rock or natural=shoal" />
		<tag k="name" v="Kobbasloane" />
		<tag k="place" v="islet" />
		<tag k="ssr:date" v="2016-05-10" />
		<tag k="ssr:gruppe" v="grunnerISjø" />
		<tag k="ssr:hovedgruppe" v="sjø" />
		<tag k="ssr:stedsnr" v="586842" />
		<tag k="ssr:type" v="skjærISjø" />
	</node>
	<node lat="59.057911114957534" lon="5.393888885659822" id="-1650">
		<tag k="name" v="Hegerholmgrunnen" />
		<tag k="natural" v="shoal" />
		<tag k="place" v="locality" />
		<tag k="ssr:date" v="2016-05-10" />
		<tag k="ssr:gruppe" v="grunnerISjø" />
		<tag k="ssr:hovedgruppe" v="sjø" />
		<tag k="ssr:stedsnr" v="601398" />
		<tag k="ssr:type" v="grunneISjø" />
	</node>
	<node lat="59.07624166710704" lon="5.487702774115172" id="-1651">
		<tag k="name" v="Ternøya" />
		<tag k="place" v="island" />
		<tag k="ssr:date" v="2021-06-08" />
		<tag k="ssr:gruppe" v="kystkontur" />
		<tag k="ssr:hovedgruppe" v="sjø" />
		<tag k="ssr:stedsnr" v="607842" />
		<tag k="ssr:type" v="øyISjø" />
	</node>
	<node lat="59.021280553816645" lon="5.370097220182042" id="-1652">
		<tag k="name" v="Vestre Gjerdholmane" />
		<tag k="place" v="islet" />
		<tag k="ssr:date" v="2021-06-08" />
		<tag k="ssr:gruppe" v="kystkontur" />
		<tag k="ssr:hovedgruppe" v="sjø" />
		<tag k="ssr:stedsnr" v="608519" />
		<tag k="ssr:type" v="holmeISjø" />
	</node>
	<node lat="59.009383332374156" lon="5.373130551098837" id="-1653">
		<tag k="name" v="Snorkla" />
		<tag k="place" v="locality" />
		<tag k="seamark:type" v="rock" />
		<tag k="ssr:date" v="2021-06-08" />
		<tag k="ssr:gruppe" v="grunnerISjø" />
		<tag k="ssr:hovedgruppe" v="sjø" />
		<tag k="ssr:stedsnr" v="631541" />
		<tag k="ssr:type" v="båeISjø" />
	</node>
	<node lat="59.00246666822128" lon="5.366888897135011" id="-1654">
		<tag k="name" v="Kobbafluene" />
		<tag k="place" v="locality" />
		<tag k="seamark:type" v="rock" />
		<tag k="ssr:date" v="2021-06-08" />
		<tag k="ssr:gruppe" v="grunnerISjø" />
		<tag k="ssr:hovedgruppe" v="sjø" />
		<tag k="ssr:stedsnr" v="631586" />
		<tag k="ssr:type" v="båeISjø" />
	</node>
	<node lat="59.07400833144017" lon="5.484802771004706" id="-1655">
		<tag k="name" v="Sørvestra Ternøybukta" />
		<tag k="natural" v="bay" />
		<tag k="ssr:date" v="2016-05-10" />
		<tag k="ssr:gruppe" v="kystkontur" />
		<tag k="ssr:hovedgruppe" v="sjø" />
		<tag k="ssr:stedsnr" v="646673" />
		<tag k="ssr:type" v="vikISjø" />
	</node>
	<node lat="59.06018055217122" lon="5.406374998045972" id="-1656">
		<tag k="fixme" v="consider seamark:type=rock or natural=shoal" />
		<tag k="name" v="Skjeret" />
		<tag k="place" v="islet" />
		<tag k="ssr:date" v="2016-05-10" />
		<tag k="ssr:gruppe" v="grunnerISjø" />
		<tag k="ssr:hovedgruppe" v="sjø" />
		<tag k="ssr:stedsnr" v="646816" />
		<tag k="ssr:type" v="skjærISjø" />
	</node>
	<node lat="59.064519440811985" lon="5.427058336201375" id="-1657">
		<tag k="name" v="Leirvik" />
		<tag k="natural" v="bay" />
		<tag k="ssr:date" v="2016-05-10" />
		<tag k="ssr:gruppe" v="kystkontur" />
		<tag k="ssr:hovedgruppe" v="sjø" />
		<tag k="ssr:stedsnr" v="646823" />
		<tag k="ssr:type" v="vikISjø" />
	</node>
	<node lat="59.05676944523356" lon="5.430569436049841" id="-1658">
		<tag k="fixme" v="consider seamark:type=rock or natural=shoal" />
		<tag k="name" v="Skarvaskjer" />
		<tag k="place" v="islet" />
		<tag k="ssr:date" v="2016-05-10" />
		<tag k="ssr:gruppe" v="grunnerISjø" />
		<tag k="ssr:hovedgruppe" v="sjø" />
		<tag k="ssr:stedsnr" v="646826" />
		<tag k="ssr:type" v="skjærISjø" />
	</node>
	<node lat="59.02711110685046" lon="5.4232555565915135" id="-1659">
		<tag k="name" v="Søra Hoggaflua" />
		<tag k="natural" v="shoal" />
		<tag k="place" v="locality" />
		<tag k="ssr:date" v="2016-05-10" />
		<tag k="ssr:gruppe" v="grunnerISjø" />
		<tag k="ssr:hovedgruppe" v="sjø" />
		<tag k="ssr:stedsnr" v="647516" />
		<tag k="ssr:type" v="grunneISjø" />
	</node>
	<node lat="59.05587777816906" lon="5.387366667631995" id="-1660">
		<tag k="name" v="Flatholmskota" />
		<tag k="natural" v="cape" />
		<tag k="ssr:date" v="2016-05-10" />
		<tag k="ssr:gruppe" v="kystkontur" />
		<tag k="ssr:hovedgruppe" v="sjø" />
		<tag k="ssr:stedsnr" v="648625" />
		<tag k="ssr:type" v="nesISjø" />
	</node>
	<node lat="59.05289444394014" lon="5.388361118534717" id="-1661">
		<tag k="fixme" v="consider seamark:type=rock or natural=shoal" />
		<tag k="name" v="Sjogbiten" />
		<tag k="place" v="islet" />
		<tag k="ssr:date" v="2016-05-10" />
		<tag k="ssr:gruppe" v="grunnerISjø" />
		<tag k="ssr:hovedgruppe" v="sjø" />
		<tag k="ssr:stedsnr" v="648598" />
		<tag k="ssr:type" v="skjærISjø" />
	</node>
	<node lat="59.06032221909425" lon="5.437180563129125" id="-1662">
		<tag k="fixme" v="consider seamark:type=rock or natural=shoal" />
		<tag k="name" v="Austra Hestaskjer" />
		<tag k="place" v="islet" />
		<tag k="ssr:date" v="2016-05-11" />
		<tag k="ssr:gruppe" v="grunnerISjø" />
		<tag k="ssr:hovedgruppe" v="sjø" />
		<tag k="ssr:stedsnr" v="708953" />
		<tag k="ssr:type" v="skjærISjø" />
	</node>
	<node lat="59.056326607101816" lon="5.398234881065686" id="-1664">
		<tag k="name" v="Grøningsnaget" />
		<tag k="natural" v="cape" />
		<tag k="ssr:date" v="2016-11-29" />
		<tag k="ssr:gruppe" v="kystkontur" />
		<tag k="ssr:hovedgruppe" v="sjø" />
		<tag k="ssr:stedsnr" v="709615" />
		<tag k="ssr:type" v="nesISjø" />
	</node>
	<node lat="59.05480833468134" lon="5.412641668118059" id="-1665">
		<tag k="fixme" v="consider seamark:type=rock or natural=shoal" />
		<tag k="name" v="Søra Fånøyskjeret" />
		<tag k="place" v="islet" />
		<tag k="ssr:date" v="2016-05-11" />
		<tag k="ssr:gruppe" v="grunnerISjø" />
		<tag k="ssr:hovedgruppe" v="sjø" />
		<tag k="ssr:stedsnr" v="709618" />
		<tag k="ssr:type" v="skjærISjø" />
	</node>
	<node lat="59.06388889202944" lon="5.440130551126077" id="-1666">
		<tag k="name" v="Krågøy" />
		<tag k="place" v="island" />
		<tag k="ssr:date" v="2021-06-08" />
		<tag k="ssr:gruppe" v="kystkontur" />
		<tag k="ssr:hovedgruppe" v="sjø" />
		<tag k="ssr:stedsnr" v="668486" />
		<tag k="ssr:type" v="øyISjø" />
	</node>
	<node lat="59.025483335691284" lon="5.38832777674089" id="-1667">
		<tag k="name" v="Måneboane" />
		<tag k="natural" v="shoal" />
		<tag k="place" v="locality" />
		<tag k="ssr:date" v="2021-06-08" />
		<tag k="ssr:gruppe" v="grunnerISjø" />
		<tag k="ssr:hovedgruppe" v="sjø" />
		<tag k="ssr:stedsnr" v="669508" />
		<tag k="ssr:type" v="grunneISjø" />
	</node>
	<node lat="59.08900000387503" lon="5.490411106685548" id="-1668">
		<tag k="fixme" v="consider seamark:type=rock or natural=shoal" />
		<tag k="name" v="Kobbsloen" />
		<tag k="place" v="islet" />
		<tag k="ssr:date" v="2016-05-11" />
		<tag k="ssr:gruppe" v="grunnerISjø" />
		<tag k="ssr:hovedgruppe" v="sjø" />
		<tag k="ssr:stedsnr" v="890671" />
		<tag k="ssr:type" v="skjærISjø" />
	</node>
	<node lat="59.07323889228858" lon="5.489263884823784" id="-1669">
		<tag k="fixme" v="consider seamark:type=rock or natural=shoal" />
		<tag k="name" v="Nordra Grasskjer" />
		<tag k="place" v="islet" />
		<tag k="ssr:date" v="2016-05-11" />
		<tag k="ssr:gruppe" v="grunnerISjø" />
		<tag k="ssr:hovedgruppe" v="sjø" />
		<tag k="ssr:stedsnr" v="890683" />
		<tag k="ssr:type" v="skjærISjø" />
	</node>
	<node lat="59.015244448189485" lon="5.419033336738276" id="-1670">
		<tag k="fixme" v="consider seamark:type=rock or natural=shoal" />
		<tag k="name" v="Nordra Raudholmskadet" />
		<tag k="place" v="islet" />
		<tag k="ssr:date" v="2016-05-11" />
		<tag k="ssr:gruppe" v="grunnerISjø" />
		<tag k="ssr:hovedgruppe" v="sjø" />
		<tag k="ssr:stedsnr" v="891528" />
		<tag k="ssr:type" v="skjærISjø" />
	</node>
	<node lat="59.03570833253524" lon="5.396252773351582" id="-1671">
		<tag k="name" v="Nordre Sparholmen" />
		<tag k="place" v="islet" />
		<tag k="ssr:date" v="2021-06-08" />
		<tag k="ssr:gruppe" v="kystkontur" />
		<tag k="ssr:hovedgruppe" v="sjø" />
		<tag k="ssr:stedsnr" v="695772" />
		<tag k="ssr:type" v="holmeISjø" />
	</node>
	<node lat="59.06526388579509" lon="5.49215556001317" id="-1672">
		<tag k="name" v="Fjæreskjerfluene" />
		<tag k="natural" v="shoal" />
		<tag k="place" v="locality" />
		<tag k="ssr:date" v="2016-05-11" />
		<tag k="ssr:gruppe" v="grunnerISjø" />
		<tag k="ssr:hovedgruppe" v="sjø" />
		<tag k="ssr:stedsnr" v="707642" />
		<tag k="ssr:type" v="grunneISjø" />
	</node>
	<node lat="59.04691110967763" lon="5.3923749990715395" id="-1673">
		<tag k="name" v="Skridgrunnen" />
		<tag k="natural" v="shoal" />
		<tag k="place" v="locality" />
		<tag k="ssr:date" v="2016-05-11" />
		<tag k="ssr:gruppe" v="grunnerISjø" />
		<tag k="ssr:hovedgruppe" v="sjø" />
		<tag k="ssr:stedsnr" v="709585" />
		<tag k="ssr:type" v="grunneISjø" />
	</node>
	<node lat="59.018724996398205" lon="5.426252783570598" id="-1674">
		<tag k="name" v="Pittersen" />
		<tag k="natural" v="shoal" />
		<tag k="place" v="locality" />
		<tag k="ssr:date" v="2016-05-11" />
		<tag k="ssr:gruppe" v="grunnerISjø" />
		<tag k="ssr:hovedgruppe" v="sjø" />
		<tag k="ssr:stedsnr" v="709526" />
		<tag k="ssr:type" v="grunneISjø" />
	</node>
	<node lat="59.05754722078685" lon="5.397977774762042" id="-1675">
		<tag k="name" v="Grøningen" />
		<tag k="place" v="islet" />
		<tag k="ssr:date" v="2016-05-11" />
		<tag k="ssr:gruppe" v="kystkontur" />
		<tag k="ssr:hovedgruppe" v="sjø" />
		<tag k="ssr:stedsnr" v="721978" />
		<tag k="ssr:type" v="holmeISjø" />
	</node>
	<node lat="59.07093875376816" lon="5.408414927719418" id="-1676">
		<tag k="name" v="Saltvik" />
		<tag k="natural" v="bay" />
		<tag k="ssr:date" v="2019-04-08" />
		<tag k="ssr:gruppe" v="kystkontur" />
		<tag k="ssr:hovedgruppe" v="sjø" />
		<tag k="ssr:stedsnr" v="721986" />
		<tag k="ssr:type" v="vikISjø" />
	</node>
	<node lat="59.070597226605344" lon="5.393675008080867" id="-1677">
		<tag k="name" v="Gløv" />
		<tag k="natural" v="bay" />
		<tag k="ssr:date" v="2016-05-11" />
		<tag k="ssr:gruppe" v="kystkontur" />
		<tag k="ssr:hovedgruppe" v="sjø" />
		<tag k="ssr:stedsnr" v="722422" />
		<tag k="ssr:type" v="vikISjø" />
	</node>
	<node lat="59.061447218399174" lon="5.389505564038725" id="-1678">
		<tag k="fixme" v="consider seamark:type=rock or natural=shoal" />
		<tag k="name" v="Springarskjeret" />
		<tag k="place" v="islet" />
		<tag k="ssr:date" v="2016-05-11" />
		<tag k="ssr:gruppe" v="grunnerISjø" />
		<tag k="ssr:hovedgruppe" v="sjø" />
		<tag k="ssr:stedsnr" v="722438" />
		<tag k="ssr:type" v="skjærISjø" />
	</node>
	<node lat="59.06624444134383" lon="5.392369452289283" id="-1679">
		<tag k="name" v="Skiftesvik" />
		<tag k="natural" v="bay" />
		<tag k="ssr:date" v="2016-05-11" />
		<tag k="ssr:gruppe" v="kystkontur" />
		<tag k="ssr:hovedgruppe" v="sjø" />
		<tag k="ssr:stedsnr" v="722443" />
		<tag k="ssr:type" v="vikISjø" />
	</node>
	<node lat="59.04624722163533" lon="5.409627781594533" id="-1680">
		<tag k="name" v="Vardholmgrunnen" />
		<tag k="natural" v="shoal" />
		<tag k="place" v="locality" />
		<tag k="ssr:date" v="2016-05-11" />
		<tag k="ssr:gruppe" v="grunnerISjø" />
		<tag k="ssr:hovedgruppe" v="sjø" />
		<tag k="ssr:stedsnr" v="722909" />
		<tag k="ssr:type" v="grunneISjø" />
	</node>
	<node lat="59.06627221964184" lon="5.410138882197362" id="-1681">
		<tag k="name" v="Kvitsøy" />
		<tag k="place" v="island" />
		<tag k="ssr:date" v="2021-06-08" />
		<tag k="ssr:gruppe" v="kystkontur" />
		<tag k="ssr:hovedgruppe" v="sjø" />
		<tag k="ssr:stedsnr" v="729473" />
		<tag k="ssr:type" v="øyISjø" />
	</node>
	<node lat="59.06889296145809" lon="5.413131549545694" id="-1682">
		<tag k="alt_name" v="Norbø" />
		<tag k="fixme" v="consider place=hamlet" />
		<tag k="name" v="Nordbø" />
		<tag k="place" v="farm" />
		<tag k="ssr:date" v="2021-08-18" />
		<tag k="ssr:gruppe" v="gardsbebyggelse" />
		<tag k="ssr:hovedgruppe" v="bebyggelse" />
		<tag k="ssr:stedsnr" v="729476" />
		<tag k="ssr:type" v="gard" />
	</node>
	<node lat="59.05850555942259" lon="5.39330278012549" id="-1683">
		<tag k="name" v="Kalvhagneset" />
		<tag k="natural" v="cape" />
		<tag k="ssr:date" v="2016-05-11" />
		<tag k="ssr:gruppe" v="kystkontur" />
		<tag k="ssr:hovedgruppe" v="sjø" />
		<tag k="ssr:stedsnr" v="905420" />
		<tag k="ssr:type" v="nesISjø" />
	</node>
	<node lat="59.06167499668478" lon="5.387736107486786" id="-1684">
		<tag k="fixme" v="consider seamark:type=rock or natural=shoal" />
		<tag k="name" v="Gullskjer" />
		<tag k="place" v="islet" />
		<tag k="ssr:date" v="2016-05-11" />
		<tag k="ssr:gruppe" v="grunnerISjø" />
		<tag k="ssr:hovedgruppe" v="sjø" />
		<tag k="ssr:stedsnr" v="905478" />
		<tag k="ssr:type" v="skjærISjø" />
	</node>
	<node lat="59.01579167009884" lon="5.3904777763812675" id="-1685">
		<tag k="name" v="Magerøysloane" />
		<tag k="place" v="locality" />
		<tag k="seamark:type" v="rock" />
		<tag k="ssr:date" v="2016-05-11" />
		<tag k="ssr:gruppe" v="grunnerISjø" />
		<tag k="ssr:hovedgruppe" v="sjø" />
		<tag k="ssr:stedsnr" v="905629" />
		<tag k="ssr:type" v="båeISjø" />
	</node>
	<node lat="59.01072500278857" lon="5.36683611602202" id="-1686">
		<tag k="name" v="Imsakeila" />
		<tag k="natural" v="bay" />
		<tag k="ssr:date" v="2016-05-11" />
		<tag k="ssr:gruppe" v="kystkontur" />
		<tag k="ssr:hovedgruppe" v="sjø" />
		<tag k="ssr:stedsnr" v="905635" />
		<tag k="ssr:type" v="vikISjø" />
	</node>
	<node lat="59.04703876815503" lon="5.453264886785306" id="-1687">
		<tag k="name" v="Gjerdholmsundet" />
		<tag k="natural" v="strait" />
		<tag k="ssr:date" v="2018-09-05" />
		<tag k="ssr:gruppe" v="kystkontur" />
		<tag k="ssr:hovedgruppe" v="sjø" />
		<tag k="ssr:stedsnr" v="905676" />
		<tag k="ssr:type" v="sundISjø" />
	</node>
	<node lat="59.061238889078936" lon="5.491886110955724" id="-1688">
		<tag k="name" v="Seisbofluene" />
		<tag k="natural" v="shoal" />
		<tag k="place" v="locality" />
		<tag k="ssr:date" v="2016-05-11" />
		<tag k="ssr:gruppe" v="grunnerISjø" />
		<tag k="ssr:hovedgruppe" v="sjø" />
		<tag k="ssr:stedsnr" v="905677" />
		<tag k="ssr:type" v="grunneISjø" />
	</node>
	<node lat="59.043619442874125" lon="5.4152750066638085" id="-1689">
		<tag k="name" v="Svartabeistgrunnane" />
		<tag k="natural" v="shoal" />
		<tag k="place" v="locality" />
		<tag k="ssr:date" v="2016-05-11" />
		<tag k="ssr:gruppe" v="grunnerISjø" />
		<tag k="ssr:hovedgruppe" v="sjø" />
		<tag k="ssr:stedsnr" v="905895" />
		<tag k="ssr:type" v="grunneISjø" />
	</node>
	<node lat="59.042966666217175" lon="5.400899997904203" id="-1690">
		<tag k="name" v="Buøyvad" />
		<tag k="natural" v="strait" />
		<tag k="ssr:date" v="2016-05-11" />
		<tag k="ssr:gruppe" v="kystkontur" />
		<tag k="ssr:hovedgruppe" v="sjø" />
		<tag k="ssr:stedsnr" v="905929" />
		<tag k="ssr:type" v="sundISjø" />
	</node>
	<node lat="59.042438890832386" lon="5.394500001351113" id="-1691">
		<tag k="fixme" v="consider seamark:type=rock or natural=shoal" />
		<tag k="name" v="Buøyskjera" />
		<tag k="place" v="islet" />
		<tag k="ssr:date" v="2016-05-11" />
		<tag k="ssr:gruppe" v="grunnerISjø" />
		<tag k="ssr:hovedgruppe" v="sjø" />
		<tag k="ssr:stedsnr" v="905930" />
		<tag k="ssr:type" v="skjærISjø" />
	</node>
	<node lat="59.03942499842339" lon="5.400205563765714" id="-1692">
		<tag k="fixme" v="consider seamark:type=rock or natural=shoal" />
		<tag k="name" v="Høgaskjer" />
		<tag k="place" v="islet" />
		<tag k="ssr:date" v="2016-05-11" />
		<tag k="ssr:gruppe" v="grunnerISjø" />
		<tag k="ssr:hovedgruppe" v="sjø" />
		<tag k="ssr:stedsnr" v="905932" />
		<tag k="ssr:type" v="skjærISjø" />
	</node>
	<node lat="59.06979999956817" lon="5.439602770480405" id="-1693">
		<tag k="name" v="Ronen" />
		<tag k="natural" v="hill" />
		<tag k="place" v="locality" />
		<tag k="ssr:date" v="2016-05-11" />
		<tag k="ssr:gruppe" v="høyder" />
		<tag k="ssr:hovedgruppe" v="terreng" />
		<tag k="ssr:stedsnr" v="906635" />
		<tag k="ssr:type" v="berg" />
	</node>
	<node lat="59.07491666637492" lon="5.396819450251094" id="-1694">
		<tag k="name" v="Kalvaneset" />
		<tag k="place" v="islet" />
		<tag k="ssr:date" v="2016-05-11" />
		<tag k="ssr:gruppe" v="kystkontur" />
		<tag k="ssr:hovedgruppe" v="sjø" />
		<tag k="ssr:stedsnr" v="767308" />
		<tag k="ssr:type" v="holmeISjø" />
	</node>
	<node lat="59.05225277456973" lon="5.380924992385552" id="-1695">
		<tag k="name" v="Saltskjerflua" />
		<tag k="natural" v="shoal" />
		<tag k="place" v="locality" />
		<tag k="ssr:date" v="2016-05-11" />
		<tag k="ssr:gruppe" v="grunnerISjø" />
		<tag k="ssr:hovedgruppe" v="sjø" />
		<tag k="ssr:stedsnr" v="767397" />
		<tag k="ssr:type" v="grunneISjø" />
	</node>
	<node lat="59.07848055903763" lon="5.485655559758264" id="-1696">
		<tag k="fixme" v="consider seamark:type=rock or natural=shoal" />
		<tag k="name" v="Ternøykeipen" />
		<tag k="place" v="islet" />
		<tag k="ssr:date" v="2016-05-11" />
		<tag k="ssr:gruppe" v="grunnerISjø" />
		<tag k="ssr:hovedgruppe" v="sjø" />
		<tag k="ssr:stedsnr" v="768646" />
		<tag k="ssr:type" v="skjærISjø" />
	</node>
	<node lat="59.0142611098987" lon="5.418872225955991" id="-1697">
		<tag k="name" v="Grytesundet" />
		<tag k="natural" v="strait" />
		<tag k="ssr:date" v="2016-05-11" />
		<tag k="ssr:gruppe" v="kystkontur" />
		<tag k="ssr:hovedgruppe" v="sjø" />
		<tag k="ssr:stedsnr" v="769513" />
		<tag k="ssr:type" v="sundISjø" />
	</node>
	<node lat="59.006016668194086" lon="5.368797224081829" id="-1698">
		<tag k="name" v="Snorkla" />
		<tag k="natural" v="shoal" />
		<tag k="place" v="locality" />
		<tag k="ssr:date" v="2016-05-11" />
		<tag k="ssr:gruppe" v="grunnerISjø" />
		<tag k="ssr:hovedgruppe" v="sjø" />
		<tag k="ssr:stedsnr" v="769527" />
		<tag k="ssr:type" v="grunneISjø" />
	</node>
	<node lat="59.058550004264646" lon="5.397563889144608" id="-1699">
		<tag k="bridge" v="yes" />
		<tag k="layer" v="1" />
		<tag k="name" v="Grønningen" />
		<tag k="ssr:date" v="2016-05-11" />
		<tag k="ssr:gruppe" v="samferdselsanlegg" />
		<tag k="ssr:hovedgruppe" v="infrastruktur" />
		<tag k="ssr:stedsnr" v="775470" />
		<tag k="ssr:type" v="bru" />
	</node>
	<node lat="59.01178055623653" lon="5.39068888974718" id="-1700">
		<tag k="name" v="Higlasundet" />
		<tag k="natural" v="strait" />
		<tag k="ssr:date" v="2016-05-11" />
		<tag k="ssr:gruppe" v="kystkontur" />
		<tag k="ssr:hovedgruppe" v="sjø" />
		<tag k="ssr:stedsnr" v="783606" />
		<tag k="ssr:type" v="sundISjø" />
	</node>
	<node lat="59.00900833458625" lon="5.3790416587340575" id="-1701">
		<tag k="fixme" v="consider seamark:type=rock or natural=shoal" />
		<tag k="name" v="Glepsa" />
		<tag k="place" v="islet" />
		<tag k="ssr:date" v="2016-05-11" />
		<tag k="ssr:gruppe" v="grunnerISjø" />
		<tag k="ssr:hovedgruppe" v="sjø" />
		<tag k="ssr:stedsnr" v="783607" />
		<tag k="ssr:type" v="skjærISjø" />
	</node>
	<node lat="59.0428805545131" lon="5.4091249958431495" id="-1702">
		<tag k="name" v="Nordre Stokkagrunnane" />
		<tag k="natural" v="shoal" />
		<tag k="place" v="locality" />
		<tag k="ssr:date" v="2016-05-11" />
		<tag k="ssr:gruppe" v="grunnerISjø" />
		<tag k="ssr:hovedgruppe" v="sjø" />
		<tag k="ssr:stedsnr" v="783902" />
		<tag k="ssr:type" v="grunneISjø" />
	</node>
	<node lat="59.07206110879689" lon="5.427097223338666" id="-1703">
		<tag k="name" v="Hellesøy" />
		<tag k="natural" v="cape" />
		<tag k="ssr:date" v="2021-06-08" />
		<tag k="ssr:gruppe" v="kystkontur" />
		<tag k="ssr:hovedgruppe" v="sjø" />
		<tag k="ssr:stedsnr" v="911485" />
		<tag k="ssr:type" v="halvøyISjø" />
	</node>
	<node lat="59.07189167108453" lon="5.432036117635241" id="-1704">
		<tag k="name" v="Krossøy" />
		<tag k="place" v="island" />
		<tag k="ssr:date" v="2021-06-08" />
		<tag k="ssr:gruppe" v="kystkontur" />
		<tag k="ssr:hovedgruppe" v="sjø" />
		<tag k="ssr:stedsnr" v="911487" />
		<tag k="ssr:type" v="øyISjø" />
	</node>
	<node lat="59.11718888471795" lon="5.256133336662501" id="-1705">
		<tag k="bay" v="fjord" />
		<tag k="name" v="Skudenesfjorden" />
		<tag k="natural" v="bay" />
		<tag k="ssr:date" v="2021-06-08" />
		<tag k="ssr:gruppe" v="farvann" />
		<tag k="ssr:hovedgruppe" v="sjø" />
		<tag k="ssr:stedsnr" v="911414" />
		<tag k="ssr:type" v="fjord" />
	</node>
	<node lat="59.043719440387505" lon="5.407311111490224" id="-1706">
		<tag k="alt_name" v="Hestskjeret, nordre" />
		<tag k="fixme" v="consider seamark:type=rock or natural=shoal" />
		<tag k="name" v="Nordra Hestaskjeret" />
		<tag k="place" v="islet" />
		<tag k="ssr:date" v="2016-05-11" />
		<tag k="ssr:gruppe" v="grunnerISjø" />
		<tag k="ssr:hovedgruppe" v="sjø" />
		<tag k="ssr:stedsnr" v="912525" />
		<tag k="ssr:type" v="skjærISjø" />
	</node>
	<node lat="59.07311944247918" lon="5.401022223705388" id="-1707">
		<tag k="fixme" v="consider seamark:type=rock or natural=shoal" />
		<tag k="name" v="Tønneskjer" />
		<tag k="place" v="islet" />
		<tag k="ssr:date" v="2016-05-11" />
		<tag k="ssr:gruppe" v="grunnerISjø" />
		<tag k="ssr:hovedgruppe" v="sjø" />
		<tag k="ssr:stedsnr" v="829683" />
		<tag k="ssr:type" v="skjærISjø" />
	</node>
	<node lat="59.07185277471391" lon="5.404263886265146" id="-1708">
		<tag k="fixme" v="consider seamark:type=rock or natural=shoal" />
		<tag k="name" v="Nettskjer" />
		<tag k="place" v="islet" />
		<tag k="ssr:date" v="2016-05-11" />
		<tag k="ssr:gruppe" v="grunnerISjø" />
		<tag k="ssr:hovedgruppe" v="sjø" />
		<tag k="ssr:stedsnr" v="829685" />
		<tag k="ssr:type" v="skjærISjø" />
	</node>
	<node lat="59.07242777998616" lon="5.471627777227273" id="-1709">
		<tag k="name" v="Raunaneset" />
		<tag k="natural" v="cape" />
		<tag k="ssr:date" v="2016-05-11" />
		<tag k="ssr:gruppe" v="kystkontur" />
		<tag k="ssr:hovedgruppe" v="sjø" />
		<tag k="ssr:stedsnr" v="829691" />
		<tag k="ssr:type" v="nesISjø" />
	</node>
	<node lat="59.072780557813466" lon="5.431663895568208" id="-1710">
		<tag k="name" v="Aslakstø" />
		<tag k="natural" v="bay" />
		<tag k="ssr:date" v="2016-05-11" />
		<tag k="ssr:gruppe" v="kystkontur" />
		<tag k="ssr:hovedgruppe" v="sjø" />
		<tag k="ssr:stedsnr" v="829969" />
		<tag k="ssr:type" v="vikISjø" />
	</node>
	<node lat="59.07723333094421" lon="5.420986110416763" id="-1712">
		<tag k="name" v="Knarrholmen" />
		<tag k="place" v="islet" />
		<tag k="ssr:date" v="2016-05-11" />
		<tag k="ssr:gruppe" v="kystkontur" />
		<tag k="ssr:hovedgruppe" v="sjø" />
		<tag k="ssr:stedsnr" v="843984" />
		<tag k="ssr:type" v="holmeISjø" />
	</node>
	<node lat="59.03433610854765" lon="5.394374994635051" id="-1713">
		<tag k="name" v="Grottasund" />
		<tag k="natural" v="strait" />
		<tag k="ssr:date" v="2016-05-11" />
		<tag k="ssr:gruppe" v="kystkontur" />
		<tag k="ssr:hovedgruppe" v="sjø" />
		<tag k="ssr:stedsnr" v="844614" />
		<tag k="ssr:type" v="sundISjø" />
	</node>
	<node lat="59.050183337852594" lon="5.40663333863298" id="-1714">
		<tag k="name" v="Helleskjergrunnen" />
		<tag k="natural" v="shoal" />
		<tag k="place" v="locality" />
		<tag k="ssr:date" v="2016-05-11" />
		<tag k="ssr:gruppe" v="grunnerISjø" />
		<tag k="ssr:hovedgruppe" v="sjø" />
		<tag k="ssr:stedsnr" v="844893" />
		<tag k="ssr:type" v="grunneISjø" />
	</node>
	<node lat="59.00841111465545" lon="5.387294448478835" id="-1715">
		<tag k="name" v="Higgelen" />
		<tag k="place" v="island" />
		<tag k="ssr:date" v="2021-06-08" />
		<tag k="ssr:gruppe" v="kystkontur" />
		<tag k="ssr:hovedgruppe" v="sjø" />
		<tag k="ssr:stedsnr" v="851414" />
		<tag k="ssr:type" v="øyISjø" />
	</node>
	<node lat="59.061017053384674" lon="5.3963348714002795" id="-1716">
		<tag k="alt_name" v="Ystabø" />
		<tag k="fixme" v="consider place=hamlet" />
		<tag k="name" v="Ydstebø" />
		<tag k="place" v="farm" />
		<tag k="ssr:date" v="2019-03-27" />
		<tag k="ssr:gruppe" v="gardsbebyggelse" />
		<tag k="ssr:hovedgruppe" v="bebyggelse" />
		<tag k="ssr:stedsnr" v="851438" />
		<tag k="ssr:type" v="gard" />
	</node>
	<node lat="58.984286114336875" lon="5.407986112772661" id="-1718">
		<tag k="name" v="Håboflua" />
		<tag k="place" v="locality" />
		<tag k="seamark:type" v="rock" />
		<tag k="ssr:date" v="2021-06-08" />
		<tag k="ssr:gruppe" v="grunnerISjø" />
		<tag k="ssr:hovedgruppe" v="sjø" />
		<tag k="ssr:stedsnr" v="875576" />
		<tag k="ssr:type" v="båeISjø" />
	</node>
	<node lat="59.058005552162044" lon="5.422972224824988" id="-1719">
		<tag k="fixme" v="consider seamark:type=rock or natural=shoal" />
		<tag k="name" v="Stillene" />
		<tag k="place" v="islet" />
		<tag k="ssr:date" v="2016-05-11" />
		<tag k="ssr:gruppe" v="grunnerISjø" />
		<tag k="ssr:hovedgruppe" v="sjø" />
		<tag k="ssr:stedsnr" v="890810" />
		<tag k="ssr:type" v="skjærISjø" />
	</node>
	<node lat="59.06057500425356" lon="5.430086108971134" id="-1721">
		<tag k="name" v="Vindnesgrunnen" />
		<tag k="natural" v="shoal" />
		<tag k="place" v="locality" />
		<tag k="ssr:date" v="2016-05-11" />
		<tag k="ssr:gruppe" v="grunnerISjø" />
		<tag k="ssr:hovedgruppe" v="sjø" />
		<tag k="ssr:stedsnr" v="890959" />
		<tag k="ssr:type" v="grunneISjø" />
	</node>
	<node lat="59.05791666691075" lon="5.406436118243284" id="-1722">
		<tag k="fixme" v="consider seamark:type=rock or natural=shoal" />
		<tag k="name" v="Flataskjer" />
		<tag k="place" v="islet" />
		<tag k="ssr:date" v="2016-05-11" />
		<tag k="ssr:gruppe" v="grunnerISjø" />
		<tag k="ssr:hovedgruppe" v="sjø" />
		<tag k="ssr:stedsnr" v="890849" />
		<tag k="ssr:type" v="skjærISjø" />
	</node>
	<node lat="59.057769439979985" lon="5.402386109208274" id="-1723">
		<tag k="alt_name" v="Rossøya" />
		<tag k="name" v="Rossøyna" />
		<tag k="place" v="island" />
		<tag k="ssr:date" v="2016-05-11" />
		<tag k="ssr:gruppe" v="kystkontur" />
		<tag k="ssr:hovedgruppe" v="sjø" />
		<tag k="ssr:stedsnr" v="903976" />
		<tag k="ssr:type" v="øyISjø" />
	</node>
	<node lat="59.033424998937335" lon="5.427986115238034" id="-1724">
		<tag k="name" v="Skitgrunnane" />
		<tag k="natural" v="shoal" />
		<tag k="place" v="locality" />
		<tag k="ssr:date" v="2016-05-11" />
		<tag k="ssr:gruppe" v="grunnerISjø" />
		<tag k="ssr:hovedgruppe" v="sjø" />
		<tag k="ssr:stedsnr" v="905658" />
		<tag k="ssr:type" v="grunneISjø" />
	</node>
	<node lat="59.04055785634256" lon="5.396631078605675" id="-1725">
		<tag k="alt_name" v="Grunnungsskjera" />
		<tag k="fixme" v="consider seamark:type=rock or natural=shoal" />
		<tag k="name" v="Grunnungskjera" />
		<tag k="place" v="islet" />
		<tag k="ssr:date" v="2017-08-29" />
		<tag k="ssr:gruppe" v="grunnerISjø" />
		<tag k="ssr:hovedgruppe" v="sjø" />
		<tag k="ssr:stedsnr" v="905902" />
		<tag k="ssr:type" v="skjærISjø" />
	</node>
	<node lat="59.08187221986794" lon="5.46454444326086" id="-1726">
		<tag k="name" v="Litla Mele" />
		<tag k="natural" v="shoal" />
		<tag k="place" v="locality" />
		<tag k="ssr:date" v="2021-06-08" />
		<tag k="ssr:gruppe" v="grunnerISjø" />
		<tag k="ssr:hovedgruppe" v="sjø" />
		<tag k="ssr:stedsnr" v="911843" />
		<tag k="ssr:type" v="grunneISjø" />
	</node>
	<node lat="59.05439444089201" lon="5.431569446847926" id="-1727">
		<tag k="name" v="Vardholmen" />
		<tag k="place" v="islet" />
		<tag k="ssr:date" v="2016-05-11" />
		<tag k="ssr:gruppe" v="kystkontur" />
		<tag k="ssr:hovedgruppe" v="sjø" />
		<tag k="ssr:stedsnr" v="912500" />
		<tag k="ssr:type" v="holmeISjø" />
	</node>
	<node lat="59.05967777908787" lon="5.470950005379975" id="-1728">
		<tag k="alt_name" v="Trættholmen" />
		<tag k="name" v="Trettholmen" />
		<tag k="place" v="islet" />
		<tag k="ssr:date" v="2016-05-11" />
		<tag k="ssr:gruppe" v="kystkontur" />
		<tag k="ssr:hovedgruppe" v="sjø" />
		<tag k="ssr:stedsnr" v="912831" />
		<tag k="ssr:type" v="holmeISjø" />
	</node>
	<node lat="59.07800277918236" lon="5.4871888805550855" id="-1729">
		<tag k="name" v="Nordra Ternøybukta" />
		<tag k="natural" v="bay" />
		<tag k="ssr:date" v="2016-05-11" />
		<tag k="ssr:gruppe" v="kystkontur" />
		<tag k="ssr:hovedgruppe" v="sjø" />
		<tag k="ssr:stedsnr" v="950611" />
		<tag k="ssr:type" v="vikISjø" />
	</node>
	<node lat="59.05894721857193" lon="5.4050027810441295" id="-1731">
		<tag k="fixme" v="consider seamark:type=rock or natural=shoal" />
		<tag k="name" v="Engelen" />
		<tag k="place" v="islet" />
		<tag k="ssr:date" v="2016-05-11" />
		<tag k="ssr:gruppe" v="grunnerISjø" />
		<tag k="ssr:hovedgruppe" v="sjø" />
		<tag k="ssr:stedsnr" v="950814" />
		<tag k="ssr:type" v="skjærISjø" />
	</node>
	<node lat="59.063147226085334" lon="5.42259444596205" id="-1732">
		<tag k="fixme" v="consider seamark:type=rock or natural=shoal" />
		<tag k="name" v="Terneskjer" />
		<tag k="place" v="islet" />
		<tag k="ssr:date" v="2016-05-11" />
		<tag k="ssr:gruppe" v="grunnerISjø" />
		<tag k="ssr:hovedgruppe" v="sjø" />
		<tag k="ssr:stedsnr" v="950830" />
		<tag k="ssr:type" v="skjærISjø" />
	</node>
	<node lat="59.05533610976585" lon="5.422986102828001" id="-1733">
		<tag k="fixme" v="consider seamark:type=rock or natural=shoal" />
		<tag k="name" v="Klauaskjera" />
		<tag k="place" v="islet" />
		<tag k="ssr:date" v="2016-05-11" />
		<tag k="ssr:gruppe" v="grunnerISjø" />
		<tag k="ssr:hovedgruppe" v="sjø" />
		<tag k="ssr:stedsnr" v="951434" />
		<tag k="ssr:type" v="skjærISjø" />
	</node>
	<node lat="59.00618055873264" lon="5.387233326279334" id="-1734">
		<tag k="name" v="Higlasanden" />
		<tag k="natural" v="beach" />
		<tag k="ssr:date" v="2016-05-11" />
		<tag k="ssr:gruppe" v="kystkontur" />
		<tag k="ssr:hovedgruppe" v="sjø" />
		<tag k="ssr:stedsnr" v="951439" />
		<tag k="ssr:type" v="strandISjø" />
	</node>
	<node lat="59.049252775917154" lon="5.3970499971949115" id="-1735">
		<tag k="fixme" v="consider seamark:type=rock or natural=shoal" />
		<tag k="name" v="Sutleskjer" />
		<tag k="place" v="islet" />
		<tag k="ssr:date" v="2016-05-11" />
		<tag k="ssr:gruppe" v="grunnerISjø" />
		<tag k="ssr:hovedgruppe" v="sjø" />
		<tag k="ssr:stedsnr" v="952572" />
		<tag k="ssr:type" v="skjærISjø" />
	</node>
	<node lat="59.04706389005012" lon="5.399494437841638" id="-1736">
		<tag k="name" v="Søre Torholmen" />
		<tag k="place" v="islet" />
		<tag k="ssr:date" v="2016-05-11" />
		<tag k="ssr:gruppe" v="kystkontur" />
		<tag k="ssr:hovedgruppe" v="sjø" />
		<tag k="ssr:stedsnr" v="965918" />
		<tag k="ssr:type" v="holmeISjø" />
	</node>
	<node lat="59.0480607695524" lon="5.398640258937777" id="-1737">
		<tag k="name" v="Nordre Torholmen" />
		<tag k="place" v="islet" />
		<tag k="ssr:date" v="2018-10-01" />
		<tag k="ssr:gruppe" v="kystkontur" />
		<tag k="ssr:hovedgruppe" v="sjø" />
		<tag k="ssr:stedsnr" v="965921" />
		<tag k="ssr:type" v="holmeISjø" />
	</node>
	<node lat="59.047000002539974" lon="5.402674993726894" id="-1738">
		<tag k="fixme" v="consider seamark:type=rock or natural=shoal" />
		<tag k="name" v="Grasskjer" />
		<tag k="place" v="islet" />
		<tag k="ssr:date" v="2016-05-11" />
		<tag k="ssr:gruppe" v="grunnerISjø" />
		<tag k="ssr:hovedgruppe" v="sjø" />
		<tag k="ssr:stedsnr" v="965922" />
		<tag k="ssr:type" v="skjærISjø" />
	</node>
	<node lat="59.04794166921623" lon="5.4006416736757625" id="-1739">
		<tag k="name" v="Austre Torholmen" />
		<tag k="place" v="islet" />
		<tag k="ssr:date" v="2016-05-11" />
		<tag k="ssr:gruppe" v="kystkontur" />
		<tag k="ssr:hovedgruppe" v="sjø" />
		<tag k="ssr:stedsnr" v="965886" />
		<tag k="ssr:type" v="holmeISjø" />
	</node>
	<node lat="59.05136666362112" lon="5.403247224872793" id="-1740">
		<tag k="name" v="Konta" />
		<tag k="place" v="locality" />
		<tag k="seamark:type" v="rock" />
		<tag k="ssr:date" v="2016-05-11" />
		<tag k="ssr:gruppe" v="grunnerISjø" />
		<tag k="ssr:hovedgruppe" v="sjø" />
		<tag k="ssr:stedsnr" v="965888" />
		<tag k="ssr:type" v="båeISjø" />
	</node>
	<node lat="59.043605558008124" lon="5.420055562354985" id="-1741">
		<tag k="name" v="Ole-Bertelane" />
		<tag k="natural" v="shoal" />
		<tag k="place" v="locality" />
		<tag k="ssr:date" v="2016-05-11" />
		<tag k="ssr:gruppe" v="grunnerISjø" />
		<tag k="ssr:hovedgruppe" v="sjø" />
		<tag k="ssr:stedsnr" v="965893" />
		<tag k="ssr:type" v="grunneISjø" />
	</node>
	<node lat="59.04728055610407" lon="5.413149997774762" id="-1742">
		<tag k="name" v="Terneskjera" />
		<tag k="place" v="islet" />
		<tag k="ssr:date" v="2016-05-11" />
		<tag k="ssr:gruppe" v="kystkontur" />
		<tag k="ssr:hovedgruppe" v="sjø" />
		<tag k="ssr:stedsnr" v="965898" />
		<tag k="ssr:type" v="holmeISjø" />
	</node>
	<node lat="59.01108888848231" lon="5.405644444701717" id="-1743">
		<tag k="fixme" v="consider seamark:type=rock or natural=shoal" />
		<tag k="name" v="Hugaskoda" />
		<tag k="place" v="islet" />
		<tag k="ssr:date" v="2021-06-08" />
		<tag k="ssr:gruppe" v="grunnerISjø" />
		<tag k="ssr:hovedgruppe" v="sjø" />
		<tag k="ssr:stedsnr" v="1325" />
		<tag k="ssr:type" v="skjærISjø" />
	</node>
	<node lat="59.01197500134473" lon="5.373536116440144" id="-1744">
		<tag k="name" v="Austre Imsen" />
		<tag k="place" v="islet" />
		<tag k="ssr:date" v="2021-06-08" />
		<tag k="ssr:gruppe" v="kystkontur" />
		<tag k="ssr:hovedgruppe" v="sjø" />
		<tag k="ssr:stedsnr" v="1451" />
		<tag k="ssr:type" v="holmeISjø" />
	</node>
	<node lat="59.07150833060199" lon="5.4729500010754215" id="-1745">
		<tag k="name" v="Sandøya" />
		<tag k="place" v="island" />
		<tag k="ssr:date" v="2021-06-08" />
		<tag k="ssr:gruppe" v="kystkontur" />
		<tag k="ssr:hovedgruppe" v="sjø" />
		<tag k="ssr:stedsnr" v="1868" />
		<tag k="ssr:type" v="øyISjø" />
	</node>
	<node lat="59.07065555436475" lon="5.429527783114905" id="-1746">
		<tag k="name" v="Vintrahamn" />
		<tag k="natural" v="bay" />
		<tag k="ssr:date" v="2016-05-10" />
		<tag k="ssr:gruppe" v="kystkontur" />
		<tag k="ssr:hovedgruppe" v="sjø" />
		<tag k="ssr:stedsnr" v="39272" />
		<tag k="ssr:type" v="vikISjø" />
	</node>
	<node lat="59.07641111543415" lon="5.484172229821118" id="-1747">
		<tag k="name" v="Skorpesundet" />
		<tag k="natural" v="strait" />
		<tag k="ssr:date" v="2016-05-10" />
		<tag k="ssr:gruppe" v="kystkontur" />
		<tag k="ssr:hovedgruppe" v="sjø" />
		<tag k="ssr:stedsnr" v="40648" />
		<tag k="ssr:type" v="sundISjø" />
	</node>
	<node lat="59.087627780659176" lon="5.490166660128505" id="-1748">
		<tag k="name" v="Skarvaberget" />
		<tag k="natural" v="cape" />
		<tag k="ssr:date" v="2016-05-10" />
		<tag k="ssr:gruppe" v="kystkontur" />
		<tag k="ssr:hovedgruppe" v="sjø" />
		<tag k="ssr:stedsnr" v="40651" />
		<tag k="ssr:type" v="nesISjø" />
	</node>
	<node lat="59.0569361113443" lon="5.41805555367156" id="-1749">
		<tag k="name" v="Betjenargrunnen" />
		<tag k="place" v="locality" />
		<tag k="seamark:type" v="rock" />
		<tag k="ssr:date" v="2016-05-10" />
		<tag k="ssr:gruppe" v="grunnerISjø" />
		<tag k="ssr:hovedgruppe" v="sjø" />
		<tag k="ssr:stedsnr" v="40854" />
		<tag k="ssr:type" v="båeISjø" />
	</node>
	<node lat="59.061401787660714" lon="5.409650949397763" id="-1750">
		<tag k="fixme" v="consider place=hamlet" />
		<tag k="name" v="Naustvoll" />
		<tag k="place" v="farm" />
		<tag k="ssr:date" v="2019-03-27" />
		<tag k="ssr:gruppe" v="gardsbebyggelse" />
		<tag k="ssr:hovedgruppe" v="bebyggelse" />
		<tag k="ssr:stedsnr" v="54974" />
		<tag k="ssr:type" v="gard" />
	</node>
	<node lat="59.0640527810163" lon="5.389491673500407" id="-1751">
		<tag k="alt_name" v="Midtre Kalvanesholmen" />
		<tag k="name" v="Midtre Klavanesholmane" />
		<tag k="place" v="islet" />
		<tag k="ssr:date" v="2016-05-10" />
		<tag k="ssr:gruppe" v="kystkontur" />
		<tag k="ssr:hovedgruppe" v="sjø" />
		<tag k="ssr:stedsnr" v="54981" />
		<tag k="ssr:type" v="holmeISjø" />
	</node>
	<node lat="59.06001388705682" lon="5.390038888637988" id="-1752">
		<tag k="name" v="Steinvik" />
		<tag k="natural" v="bay" />
		<tag k="ssr:date" v="2016-05-10" />
		<tag k="ssr:gruppe" v="kystkontur" />
		<tag k="ssr:hovedgruppe" v="sjø" />
		<tag k="ssr:stedsnr" v="55381" />
		<tag k="ssr:type" v="vikISjø" />
	</node>
	<node lat="59.03291388694905" lon="5.402091675217904" id="-1753">
		<tag k="name" v="Leiasundet" />
		<tag k="natural" v="strait" />
		<tag k="ssr:date" v="2016-05-10" />
		<tag k="ssr:gruppe" v="kystkontur" />
		<tag k="ssr:hovedgruppe" v="sjø" />
		<tag k="ssr:stedsnr" v="55599" />
		<tag k="ssr:type" v="sundISjø" />
	</node>
	<node lat="59.03215000097902" lon="5.42116110873926" id="-1754">
		<tag k="name" v="Byttegrunnen" />
		<tag k="natural" v="shoal" />
		<tag k="place" v="locality" />
		<tag k="ssr:date" v="2016-05-10" />
		<tag k="ssr:gruppe" v="grunnerISjø" />
		<tag k="ssr:hovedgruppe" v="sjø" />
		<tag k="ssr:stedsnr" v="55600" />
		<tag k="ssr:type" v="grunneISjø" />
	</node>
	<node lat="59.04953333453943" lon="5.405602772653491" id="-1755">
		<tag k="fixme" v="consider seamark:type=rock or natural=shoal" />
		<tag k="name" v="Nordra Helleskjer" />
		<tag k="place" v="islet" />
		<tag k="ssr:date" v="2016-05-10" />
		<tag k="ssr:gruppe" v="grunnerISjø" />
		<tag k="ssr:hovedgruppe" v="sjø" />
		<tag k="ssr:stedsnr" v="55884" />
		<tag k="ssr:type" v="skjærISjø" />
	</node>
	<node lat="59.04809166633788" lon="5.409644452336869" id="-1756">
		<tag k="fixme" v="consider seamark:type=rock or natural=shoal" />
		<tag k="name" v="Vardholmsteinen" />
		<tag k="place" v="islet" />
		<tag k="ssr:date" v="2016-05-10" />
		<tag k="ssr:gruppe" v="grunnerISjø" />
		<tag k="ssr:hovedgruppe" v="sjø" />
		<tag k="ssr:stedsnr" v="55889" />
		<tag k="ssr:type" v="skjærISjø" />
	</node>
	<node lat="59.040638888184304" lon="5.402538892816116" id="-1757">
		<tag k="name" v="Haltarvika" />
		<tag k="natural" v="bay" />
		<tag k="ssr:date" v="2016-05-10" />
		<tag k="ssr:gruppe" v="kystkontur" />
		<tag k="ssr:hovedgruppe" v="sjø" />
		<tag k="ssr:stedsnr" v="55898" />
		<tag k="ssr:type" v="vikISjø" />
	</node>
	<node lat="59.074719447644036" lon="5.438724993882118" id="-1758">
		<tag k="name" v="Jartholmgrunnane" />
		<tag k="natural" v="shoal" />
		<tag k="place" v="locality" />
		<tag k="ssr:date" v="2016-05-10" />
		<tag k="ssr:gruppe" v="grunnerISjø" />
		<tag k="ssr:hovedgruppe" v="sjø" />
		<tag k="ssr:stedsnr" v="57578" />
		<tag k="ssr:type" v="grunneISjø" />
	</node>
	<node lat="59.06911388823706" lon="5.4411749983401885" id="-1759">
		<tag k="name" v="Krågøytåa" />
		<tag k="natural" v="cape" />
		<tag k="ssr:date" v="2016-05-10" />
		<tag k="ssr:gruppe" v="kystkontur" />
		<tag k="ssr:hovedgruppe" v="sjø" />
		<tag k="ssr:stedsnr" v="57580" />
		<tag k="ssr:type" v="nesISjø" />
	</node>
	<node lat="59.07188889246425" lon="5.394219437321258" id="-1760">
		<tag k="name" v="Avlaupet" />
		<tag k="natural" v="bay" />
		<tag k="ssr:date" v="2016-05-10" />
		<tag k="ssr:gruppe" v="kystkontur" />
		<tag k="ssr:hovedgruppe" v="sjø" />
		<tag k="ssr:stedsnr" v="59497" />
		<tag k="ssr:type" v="vikISjø" />
	</node>
	<node lat="59.02392778067065" lon="5.39994445148634" id="-1761">
		<tag k="name" v="Sparholmosen" />
		<tag k="natural" v="strait" />
		<tag k="ssr:date" v="2021-06-08" />
		<tag k="ssr:gruppe" v="kystkontur" />
		<tag k="ssr:hovedgruppe" v="sjø" />
		<tag k="ssr:stedsnr" v="62494" />
		<tag k="ssr:type" v="sundISjø" />
	</node>
	<node lat="59.059516662240924" lon="5.496013887069038" id="-1762">
		<tag k="fixme" v="consider seamark:type=rock or natural=shoal" />
		<tag k="name" v="Seisbo" />
		<tag k="place" v="islet" />
		<tag k="ssr:date" v="2021-06-08" />
		<tag k="ssr:gruppe" v="grunnerISjø" />
		<tag k="ssr:hovedgruppe" v="sjø" />
		<tag k="ssr:stedsnr" v="62832" />
		<tag k="ssr:type" v="skjærISjø" />
	</node>
	<node lat="59.08532222042946" lon="5.4700916665491235" id="-1763">
		<tag k="name" v="Fjærboflua" />
		<tag k="place" v="locality" />
		<tag k="seamark:type" v="rock" />
		<tag k="ssr:date" v="2021-06-08" />
		<tag k="ssr:gruppe" v="grunnerISjø" />
		<tag k="ssr:hovedgruppe" v="sjø" />
		<tag k="ssr:stedsnr" v="89777" />
		<tag k="ssr:type" v="båeISjø" />
	</node>
	<node lat="59.03350283080248" lon="5.3950312350154475" id="-1764">
		<tag k="name" v="Midtre Sparholmen" />
		<tag k="old_name" v="Sparholmen" />
		<tag k="place" v="islet" />
		<tag k="ssr:date" v="2021-06-08" />
		<tag k="ssr:gruppe" v="kystkontur" />
		<tag k="ssr:hovedgruppe" v="sjø" />
		<tag k="ssr:stedsnr" v="89786" />
		<tag k="ssr:type" v="holmeISjø" />
	</node>
	<node lat="59.0072666655132" lon="5.408133336159972" id="-1766">
		<tag k="name" v="Søraustre Hugagrunnen" />
		<tag k="natural" v="shoal" />
		<tag k="place" v="locality" />
		<tag k="ssr:date" v="2016-05-10" />
		<tag k="ssr:gruppe" v="grunnerISjø" />
		<tag k="ssr:hovedgruppe" v="sjø" />
		<tag k="ssr:stedsnr" v="102576" />
		<tag k="ssr:type" v="grunneISjø" />
	</node>
	<node lat="59.020944442321024" lon="5.419327784350637" id="-1767">
		<tag k="name" v="Flate Raudholmgrunnen" />
		<tag k="natural" v="shoal" />
		<tag k="place" v="locality" />
		<tag k="ssr:date" v="2016-05-10" />
		<tag k="ssr:gruppe" v="grunnerISjø" />
		<tag k="ssr:hovedgruppe" v="sjø" />
		<tag k="ssr:stedsnr" v="102583" />
		<tag k="ssr:type" v="grunneISjø" />
	</node>
	<node lat="59.016947222452096" lon="5.417861107807422" id="-1768">
		<tag k="name" v="Syvertsen" />
		<tag k="natural" v="shoal" />
		<tag k="place" v="locality" />
		<tag k="ssr:date" v="2016-05-10" />
		<tag k="ssr:gruppe" v="grunnerISjø" />
		<tag k="ssr:hovedgruppe" v="sjø" />
		<tag k="ssr:stedsnr" v="102585" />
		<tag k="ssr:type" v="grunneISjø" />
	</node>
	<node lat="59.057574997106606" lon="5.408672230801708" id="-1769">
		<tag k="fixme" v="consider seamark:type=rock or natural=shoal" />
		<tag k="name" v="Kalvaskjerklubben" />
		<tag k="place" v="islet" />
		<tag k="ssr:date" v="2016-05-10" />
		<tag k="ssr:gruppe" v="grunnerISjø" />
		<tag k="ssr:hovedgruppe" v="sjø" />
		<tag k="ssr:stedsnr" v="101854" />
		<tag k="ssr:type" v="skjærISjø" />
	</node>
	<node lat="59.05061944666329" lon="5.389072220509228" id="-1770">
		<tag k="fixme" v="consider seamark:type=rock or natural=shoal" />
		<tag k="name" v="Harholmskatet" />
		<tag k="place" v="islet" />
		<tag k="ssr:date" v="2016-05-10" />
		<tag k="ssr:gruppe" v="grunnerISjø" />
		<tag k="ssr:hovedgruppe" v="sjø" />
		<tag k="ssr:stedsnr" v="103595" />
		<tag k="ssr:type" v="skjærISjø" />
	</node>
	<node lat="59.0383222219542" lon="5.403897213793961" id="-1771">
		<tag k="fixme" v="consider seamark:type=rock or natural=shoal" />
		<tag k="name" v="Sparholmskjeret" />
		<tag k="place" v="islet" />
		<tag k="ssr:date" v="2016-05-10" />
		<tag k="ssr:gruppe" v="grunnerISjø" />
		<tag k="ssr:hovedgruppe" v="sjø" />
		<tag k="ssr:stedsnr" v="103621" />
		<tag k="ssr:type" v="skjærISjø" />
	</node>
	<node lat="59.06760000172297" lon="5.42794167175797" id="-1772">
		<tag k="name" v="Leiasundet" />
		<tag k="natural" v="strait" />
		<tag k="ssr:date" v="2016-05-10" />
		<tag k="ssr:gruppe" v="kystkontur" />
		<tag k="ssr:hovedgruppe" v="sjø" />
		<tag k="ssr:stedsnr" v="114978" />
		<tag k="ssr:type" v="sundISjø" />
	</node>
	<node lat="59.06304722225479" lon="5.388516666699011" id="-1773">
		<tag k="alt_name" v="Søre Kalvanesholmen" />
		<tag k="name" v="Søre Klavanesholmen" />
		<tag k="place" v="islet" />
		<tag k="ssr:date" v="2016-05-10" />
		<tag k="ssr:gruppe" v="kystkontur" />
		<tag k="ssr:hovedgruppe" v="sjø" />
		<tag k="ssr:stedsnr" v="114985" />
		<tag k="ssr:type" v="holmeISjø" />
	</node>
	<node lat="59.0581999978289" lon="5.388780550575346" id="-1774">
		<tag k="alt_name" v="Flatholmen" />
		<tag k="name" v="Fladholmen" />
		<tag k="place" v="islet" />
		<tag k="ssr:date" v="2016-05-10" />
		<tag k="ssr:gruppe" v="kystkontur" />
		<tag k="ssr:hovedgruppe" v="sjø" />
		<tag k="ssr:stedsnr" v="114986" />
		<tag k="ssr:type" v="holmeISjø" />
	</node>
	<node lat="59.064386111906714" lon="5.430999996272763" id="-1775">
		<tag k="name" v="Steinkors" />
		<tag k="ssr:date" v="2016-05-10" />
		<tag k="ssr:gruppe" v="kulturminner" />
		<tag k="ssr:hovedgruppe" v="kultur" />
		<tag k="ssr:stedsnr" v="114966" />
		<tag k="ssr:type" v="severdighet" />
		<tag k="tourism" v="attraction" />
	</node>
	<node lat="59.057633330454344" lon="5.390394446164203" id="-1776">
		<tag k="name" v="Gåsaskjer" />
		<tag k="natural" v="strait" />
		<tag k="ssr:date" v="2016-05-10" />
		<tag k="ssr:gruppe" v="kystkontur" />
		<tag k="ssr:hovedgruppe" v="sjø" />
		<tag k="ssr:stedsnr" v="116455" />
		<tag k="ssr:type" v="sundISjø" />
	</node>
	<node lat="59.06064722459246" lon="5.385294445940486" id="-1777">
		<tag k="name" v="Revingsnakken" />
		<tag k="natural" v="cape" />
		<tag k="ssr:date" v="2016-05-10" />
		<tag k="ssr:gruppe" v="kystkontur" />
		<tag k="ssr:hovedgruppe" v="sjø" />
		<tag k="ssr:stedsnr" v="116397" />
		<tag k="ssr:type" v="nesISjø" />
	</node>
	<node lat="59.053177775215694" lon="5.431080560507022" id="-1778">
		<tag k="name" v="Vardholmskaget" />
		<tag k="natural" v="shoal" />
		<tag k="place" v="locality" />
		<tag k="ssr:date" v="2016-05-10" />
		<tag k="ssr:gruppe" v="grunnerISjø" />
		<tag k="ssr:hovedgruppe" v="sjø" />
		<tag k="ssr:stedsnr" v="116863" />
		<tag k="ssr:type" v="grunneISjø" />
	</node>
	<node lat="59.052108330315356" lon="5.405422223930129" id="-1779">
		<tag k="fixme" v="consider seamark:type=rock or natural=shoal" />
		<tag k="name" v="Ådnøyskjeret" />
		<tag k="place" v="islet" />
		<tag k="ssr:date" v="2016-05-10" />
		<tag k="ssr:gruppe" v="grunnerISjø" />
		<tag k="ssr:hovedgruppe" v="sjø" />
		<tag k="ssr:stedsnr" v="116869" />
		<tag k="ssr:type" v="skjærISjø" />
	</node>
	<node lat="59.042380556631024" lon="5.405041661615114" id="-1780">
		<tag k="name" v="Hestaskjervika" />
		<tag k="natural" v="bay" />
		<tag k="ssr:date" v="2016-05-10" />
		<tag k="ssr:gruppe" v="kystkontur" />
		<tag k="ssr:hovedgruppe" v="sjø" />
		<tag k="ssr:stedsnr" v="116890" />
		<tag k="ssr:type" v="vikISjø" />
	</node>
	<node lat="59.047833337607685" lon="5.426680555621703" id="-1781">
		<tag k="name" v="Fluarholmgrunnen" />
		<tag k="natural" v="shoal" />
		<tag k="place" v="locality" />
		<tag k="ssr:date" v="2016-05-10" />
		<tag k="ssr:gruppe" v="grunnerISjø" />
		<tag k="ssr:hovedgruppe" v="sjø" />
		<tag k="ssr:stedsnr" v="116984" />
		<tag k="ssr:type" v="grunneISjø" />
	</node>
	<node lat="59.045527776943786" lon="5.433636113454987" id="-1782">
		<tag k="name" v="Kåregrunnane" />
		<tag k="natural" v="shoal" />
		<tag k="place" v="locality" />
		<tag k="ssr:date" v="2016-05-10" />
		<tag k="ssr:gruppe" v="grunnerISjø" />
		<tag k="ssr:hovedgruppe" v="sjø" />
		<tag k="ssr:stedsnr" v="116987" />
		<tag k="ssr:type" v="grunneISjø" />
	</node>
	<node lat="59.07011389075032" lon="5.400552775351129" id="-1783">
		<tag k="name" v="Flatholmen" />
		<tag k="place" v="islet" />
		<tag k="ssr:date" v="2016-05-10" />
		<tag k="ssr:gruppe" v="kystkontur" />
		<tag k="ssr:hovedgruppe" v="sjø" />
		<tag k="ssr:stedsnr" v="119533" />
		<tag k="ssr:type" v="holmeISjø" />
	</node>
	<node lat="59.079858336416045" lon="5.482530551321762" id="-1784">
		<tag k="alt_name" v="Skorpeskjera" />
		<tag k="fixme" v="consider seamark:type=rock or natural=shoal" />
		<tag k="name" v="Eimeskjera" />
		<tag k="place" v="islet" />
		<tag k="ssr:date" v="2017-01-30" />
		<tag k="ssr:gruppe" v="grunnerISjø" />
		<tag k="ssr:hovedgruppe" v="sjø" />
		<tag k="ssr:stedsnr" v="122842" />
		<tag k="ssr:type" v="skjærISjø" />
	</node>
	<node lat="59.04775277367645" lon="5.382288886825278" id="-1785">
		<tag k="alt_name" v="Svortingen, store" />
		<tag k="name" v="Store Svortingen" />
		<tag k="place" v="islet" />
		<tag k="ssr:date" v="2016-05-10" />
		<tag k="ssr:gruppe" v="kystkontur" />
		<tag k="ssr:hovedgruppe" v="sjø" />
		<tag k="ssr:stedsnr" v="122456" />
		<tag k="ssr:type" v="holmeISjø" />
	</node>
	<node lat="59.048122221526086" lon="5.421508330438866" id="-1786">
		<tag k="name" v="Fluarholmen" />
		<tag k="place" v="islet" />
		<tag k="ssr:date" v="2021-06-08" />
		<tag k="ssr:gruppe" v="kystkontur" />
		<tag k="ssr:hovedgruppe" v="sjø" />
		<tag k="ssr:stedsnr" v="122461" />
		<tag k="ssr:type" v="holmeISjø" />
	</node>
	<node lat="59.07047499742866" lon="5.389936104786598" id="-1787">
		<tag k="name" v="Nyggjet" />
		<tag k="place" v="islet" />
		<tag k="ssr:date" v="2021-06-08" />
		<tag k="ssr:gruppe" v="kystkontur" />
		<tag k="ssr:hovedgruppe" v="sjø" />
		<tag k="ssr:stedsnr" v="122463" />
		<tag k="ssr:type" v="holmeISjø" />
	</node>
	<node lat="59.071955552895666" lon="5.488141673694837" id="-1788">
		<tag k="alt_name" v="Søra Grasskjer" />
		<tag k="fixme" v="consider seamark:type=rock or natural=shoal" />
		<tag k="name" v="Grasskjer" />
		<tag k="place" v="islet" />
		<tag k="ssr:date" v="2016-05-10" />
		<tag k="ssr:gruppe" v="grunnerISjø" />
		<tag k="ssr:hovedgruppe" v="sjø" />
		<tag k="ssr:stedsnr" v="122852" />
		<tag k="ssr:type" v="skjærISjø" />
	</node>
	<node lat="59.06890833754272" lon="5.483444444315969" id="-1789">
		<tag k="fixme" v="consider seamark:type=rock or natural=shoal" />
		<tag k="name" v="Fjæraskjer" />
		<tag k="place" v="islet" />
		<tag k="ssr:date" v="2016-05-10" />
		<tag k="ssr:gruppe" v="grunnerISjø" />
		<tag k="ssr:hovedgruppe" v="sjø" />
		<tag k="ssr:stedsnr" v="122854" />
		<tag k="ssr:type" v="skjærISjø" />
	</node>
	<node lat="59.058216663713836" lon="5.415969452094396" id="-1790">
		<tag k="name" v="Vollsøya" />
		<tag k="place" v="island" />
		<tag k="ssr:date" v="2021-06-08" />
		<tag k="ssr:gruppe" v="kystkontur" />
		<tag k="ssr:hovedgruppe" v="sjø" />
		<tag k="ssr:stedsnr" v="146556" />
		<tag k="ssr:type" v="øyISjø" />
	</node>
	<node lat="59.066897218591315" lon="5.429480564630154" id="-1791">
		<tag k="fixme" v="consider place=suburb, village or hamlet" />
		<tag k="name" v="Leiasund" />
		<tag k="place" v="quarter" />
		<tag k="ssr:date" v="2016-05-10" />
		<tag k="ssr:gruppe" v="bebyggelsesområder" />
		<tag k="ssr:hovedgruppe" v="bebyggelse" />
		<tag k="ssr:stedsnr" v="161333" />
		<tag k="ssr:type" v="tettbebyggelse" />
	</node>
	<node lat="59.0610194483102" lon="5.406461107127002" id="-1792">
		<tag k="name" v="Skjeravågen" />
		<tag k="natural" v="bay" />
		<tag k="ssr:date" v="2016-05-10" />
		<tag k="ssr:gruppe" v="kystkontur" />
		<tag k="ssr:hovedgruppe" v="sjø" />
		<tag k="ssr:stedsnr" v="161412" />
		<tag k="ssr:type" v="vikISjø" />
	</node>
	<node lat="59.05028055559168" lon="5.414963891740125" id="-1793">
		<tag k="name" v="Austre Langholmen" />
		<tag k="place" v="islet" />
		<tag k="ssr:date" v="2016-05-10" />
		<tag k="ssr:gruppe" v="kystkontur" />
		<tag k="ssr:hovedgruppe" v="sjø" />
		<tag k="ssr:stedsnr" v="161423" />
		<tag k="ssr:type" v="holmeISjø" />
	</node>
	<node lat="59.06402221844616" lon="5.438683342137537" id="-1795">
		<tag k="man_made" v="tower" />
		<tag k="name" v="Kvitsøy kringkaster" />
		<tag k="ssr:date" v="2016-05-10" />
		<tag k="ssr:gruppe" v="kommunikasjon" />
		<tag k="ssr:hovedgruppe" v="infrastruktur" />
		<tag k="ssr:stedsnr" v="161944" />
		<tag k="ssr:type" v="tV-Radio-EllerMobiltelefontårn" />
		<tag k="tower:type" v="communications" />
	</node>
	<node lat="59.03792221803948" lon="5.397522227455037" id="-1796">
		<tag k="name" v="Søra Buøysundet" />
		<tag k="natural" v="strait" />
		<tag k="ssr:date" v="2016-05-10" />
		<tag k="ssr:gruppe" v="kystkontur" />
		<tag k="ssr:hovedgruppe" v="sjø" />
		<tag k="ssr:stedsnr" v="163602" />
		<tag k="ssr:type" v="sundISjø" />
	</node>
	<node lat="59.07393055741831" lon="5.393972230370682" id="-1797">
		<tag k="name" v="Øyarvikpynten" />
		<tag k="natural" v="cape" />
		<tag k="ssr:date" v="2016-05-10" />
		<tag k="ssr:gruppe" v="kystkontur" />
		<tag k="ssr:hovedgruppe" v="sjø" />
		<tag k="ssr:stedsnr" v="176401" />
		<tag k="ssr:type" v="nesISjø" />
	</node>
	<node lat="59.034202779599426" lon="5.418383341240206" id="-1798">
		<tag k="name" v="Hoggafluene" />
		<tag k="natural" v="shoal" />
		<tag k="place" v="locality" />
		<tag k="ssr:date" v="2016-05-10" />
		<tag k="ssr:gruppe" v="grunnerISjø" />
		<tag k="ssr:hovedgruppe" v="sjø" />
		<tag k="ssr:stedsnr" v="176600" />
		<tag k="ssr:type" v="grunneISjø" />
	</node>
	<node lat="59.05642222318049" lon="5.424222226189487" id="-1799">
		<tag k="alt_name" v="Klauavågane" />
		<tag k="name" v="Klauvvågane" />
		<tag k="natural" v="bay" />
		<tag k="ssr:date" v="2016-05-10" />
		<tag k="ssr:gruppe" v="kystkontur" />
		<tag k="ssr:hovedgruppe" v="sjø" />
		<tag k="ssr:stedsnr" v="183423" />
		<tag k="ssr:type" v="vikISjø" />
	</node>
	<node lat="59.088183335410704" lon="5.496891662570551" id="-1800">
		<tag k="alt_name" v="Kjerringholmen;Store Kjerringa" />
		<tag k="name" v="Stora Kjeringa" />
		<tag k="place" v="islet" />
		<tag k="ssr:date" v="2016-05-10" />
		<tag k="ssr:gruppe" v="kystkontur" />
		<tag k="ssr:hovedgruppe" v="sjø" />
		<tag k="ssr:stedsnr" v="183310" />
		<tag k="ssr:type" v="holmeISjø" />
	</node>
	<node lat="59.005088885861625" lon="5.388986117649128" id="-1801">
		<tag k="name" v="Higlagrunnen" />
		<tag k="place" v="locality" />
		<tag k="seamark:type" v="rock" />
		<tag k="ssr:date" v="2021-06-08" />
		<tag k="ssr:gruppe" v="grunnerISjø" />
		<tag k="ssr:hovedgruppe" v="sjø" />
		<tag k="ssr:stedsnr" v="207567" />
		<tag k="ssr:type" v="båeISjø" />
	</node>
	<node lat="59.05610000395066" lon="5.3828249915870625" id="-1802">
		<tag k="fixme" v="consider seamark:type=rock or natural=shoal" />
		<tag k="name" v="Revingsloane" />
		<tag k="place" v="islet" />
		<tag k="ssr:date" v="2016-05-10" />
		<tag k="ssr:gruppe" v="grunnerISjø" />
		<tag k="ssr:hovedgruppe" v="sjø" />
		<tag k="ssr:stedsnr" v="222387" />
		<tag k="ssr:type" v="skjærISjø" />
	</node>
	<node lat="59.08430000359004" lon="5.490088892293853" id="-1803">
		<tag k="name" v="Gulenakken" />
		<tag k="natural" v="cape" />
		<tag k="ssr:date" v="2016-05-10" />
		<tag k="ssr:gruppe" v="kystkontur" />
		<tag k="ssr:hovedgruppe" v="sjø" />
		<tag k="ssr:stedsnr" v="222637" />
		<tag k="ssr:type" v="nesISjø" />
	</node>
	<node lat="59.08581666926002" lon="5.49194166172702" id="-1804">
		<tag k="name" v="Eimebukta" />
		<tag k="natural" v="bay" />
		<tag k="ssr:date" v="2016-05-10" />
		<tag k="ssr:gruppe" v="kystkontur" />
		<tag k="ssr:hovedgruppe" v="sjø" />
		<tag k="ssr:stedsnr" v="222640" />
		<tag k="ssr:type" v="vikISjø" />
	</node>
	<node lat="59.072027778796944" lon="5.422961118563504" id="-1805">
		<tag k="name" v="Salthyrna" />
		<tag k="natural" v="cape" />
		<tag k="ssr:date" v="2016-05-10" />
		<tag k="ssr:gruppe" v="kystkontur" />
		<tag k="ssr:hovedgruppe" v="sjø" />
		<tag k="ssr:stedsnr" v="222654" />
		<tag k="ssr:type" v="nesISjø" />
	</node>
	<node lat="59.0545611102619" lon="5.4082527731007115" id="-1806">
		<tag k="name" v="Ådnøya" />
		<tag k="place" v="island" />
		<tag k="ssr:date" v="2016-05-10" />
		<tag k="ssr:gruppe" v="kystkontur" />
		<tag k="ssr:hovedgruppe" v="sjø" />
		<tag k="ssr:stedsnr" v="222666" />
		<tag k="ssr:type" v="øyISjø" />
	</node>
	<node lat="59.06196944626255" lon="5.430727784399823" id="-1807">
		<tag k="name" v="Stevelsholmflua" />
		<tag k="place" v="locality" />
		<tag k="seamark:type" v="rock" />
		<tag k="ssr:date" v="2016-05-10" />
		<tag k="ssr:gruppe" v="grunnerISjø" />
		<tag k="ssr:hovedgruppe" v="sjø" />
		<tag k="ssr:stedsnr" v="222831" />
		<tag k="ssr:type" v="båeISjø" />
	</node>
	<node lat="59.06020278068561" lon="5.428641659890329" id="-1808">
		<tag k="name" v="Olskårsvikane" />
		<tag k="natural" v="bay" />
		<tag k="ssr:date" v="2016-05-10" />
		<tag k="ssr:gruppe" v="kystkontur" />
		<tag k="ssr:hovedgruppe" v="sjø" />
		<tag k="ssr:stedsnr" v="222833" />
		<tag k="ssr:type" v="vikISjø" />
	</node>
	<node lat="59.068938890517835" lon="5.427280556210468" id="-1809">
		<tag k="name" v="Vad" />
		<tag k="natural" v="strait" />
		<tag k="ssr:date" v="2016-05-10" />
		<tag k="ssr:gruppe" v="kystkontur" />
		<tag k="ssr:hovedgruppe" v="sjø" />
		<tag k="ssr:stedsnr" v="222964" />
		<tag k="ssr:type" v="sundISjø" />
	</node>
	<node lat="59.01188889094026" lon="5.417622223336054" id="-1810">
		<tag k="name" v="Gunnaren" />
		<tag k="natural" v="shoal" />
		<tag k="place" v="locality" />
		<tag k="ssr:date" v="2016-05-10" />
		<tag k="ssr:gruppe" v="grunnerISjø" />
		<tag k="ssr:hovedgruppe" v="sjø" />
		<tag k="ssr:stedsnr" v="223527" />
		<tag k="ssr:type" v="grunneISjø" />
	</node>
	<node lat="59.00794999593941" lon="5.395533330617607" id="-1811">
		<tag k="name" v="Hoggafluene" />
		<tag k="natural" v="shoal" />
		<tag k="place" v="locality" />
		<tag k="ssr:date" v="2016-05-10" />
		<tag k="ssr:gruppe" v="grunnerISjø" />
		<tag k="ssr:hovedgruppe" v="sjø" />
		<tag k="ssr:stedsnr" v="223533" />
		<tag k="ssr:type" v="grunneISjø" />
	</node>
	<node lat="59.051666663701056" lon="5.398872217853182" id="-1812">
		<tag k="name" v="Bladøyskatet" />
		<tag k="place" v="islet" />
		<tag k="ssr:date" v="2016-05-10" />
		<tag k="ssr:gruppe" v="kystkontur" />
		<tag k="ssr:hovedgruppe" v="sjø" />
		<tag k="ssr:stedsnr" v="224560" />
		<tag k="ssr:type" v="holmeISjø" />
	</node>
	<node lat="59.05546111294934" lon="5.388544447117559" id="-1813">
		<tag k="fixme" v="consider seamark:type=rock or natural=shoal" />
		<tag k="name" v="Gulaskjer" />
		<tag k="place" v="islet" />
		<tag k="ssr:date" v="2016-05-10" />
		<tag k="ssr:gruppe" v="grunnerISjø" />
		<tag k="ssr:hovedgruppe" v="sjø" />
		<tag k="ssr:stedsnr" v="224587" />
		<tag k="ssr:type" v="skjærISjø" />
	</node>
	<node lat="59.03711389297649" lon="5.4037444384021045" id="-1814">
		<tag k="fixme" v="consider seamark:type=rock or natural=shoal" />
		<tag k="name" v="Harangskjera" />
		<tag k="place" v="islet" />
		<tag k="ssr:date" v="2016-05-10" />
		<tag k="ssr:gruppe" v="grunnerISjø" />
		<tag k="ssr:hovedgruppe" v="sjø" />
		<tag k="ssr:stedsnr" v="224593" />
		<tag k="ssr:type" v="skjærISjø" />
	</node>
	<node lat="59.07442777470007" lon="5.441163891952042" id="-1815">
		<tag k="name" v="Austre Jartholmgrunnen" />
		<tag k="natural" v="shoal" />
		<tag k="place" v="locality" />
		<tag k="ssr:date" v="2016-05-10" />
		<tag k="ssr:gruppe" v="grunnerISjø" />
		<tag k="ssr:hovedgruppe" v="sjø" />
		<tag k="ssr:stedsnr" v="282301" />
		<tag k="ssr:type" v="grunneISjø" />
	</node>
	<node lat="59.074141670470965" lon="5.499647228820296" id="-1816">
		<tag k="name" v="Austre Nygrunnen" />
		<tag k="natural" v="shoal" />
		<tag k="place" v="locality" />
		<tag k="ssr:date" v="2016-05-10" />
		<tag k="ssr:gruppe" v="grunnerISjø" />
		<tag k="ssr:hovedgruppe" v="sjø" />
		<tag k="ssr:stedsnr" v="283633" />
		<tag k="ssr:type" v="grunneISjø" />
	</node>
	<node lat="59.07384722631018" lon="5.412661119331349" id="-1817">
		<tag k="name" v="Tjørnavika" />
		<tag k="natural" v="bay" />
		<tag k="ssr:date" v="2016-05-10" />
		<tag k="ssr:gruppe" v="kystkontur" />
		<tag k="ssr:hovedgruppe" v="sjø" />
		<tag k="ssr:stedsnr" v="283668" />
		<tag k="ssr:type" v="vikISjø" />
	</node>
	<node lat="59.05809444538045" lon="5.408930548835341" id="-1818">
		<tag k="name" v="Straumsund" />
		<tag k="natural" v="strait" />
		<tag k="ssr:date" v="2016-05-10" />
		<tag k="ssr:gruppe" v="kystkontur" />
		<tag k="ssr:hovedgruppe" v="sjø" />
		<tag k="ssr:stedsnr" v="283830" />
		<tag k="ssr:type" v="sundISjø" />
	</node>
	<node lat="59.060666663721044" lon="5.401855549435902" id="-1819">
		<tag k="fixme" v="consider seamark:type=rock or natural=shoal" />
		<tag k="name" v="Skjåskjeret" />
		<tag k="place" v="islet" />
		<tag k="ssr:date" v="2016-05-10" />
		<tag k="ssr:gruppe" v="grunnerISjø" />
		<tag k="ssr:hovedgruppe" v="sjø" />
		<tag k="ssr:stedsnr" v="283834" />
		<tag k="ssr:type" v="skjærISjø" />
	</node>
	<node lat="59.06034722605999" lon="5.40496110783437" id="-1820">
		<tag k="name" v="Haganeset" />
		<tag k="natural" v="cape" />
		<tag k="ssr:date" v="2016-05-10" />
		<tag k="ssr:gruppe" v="kystkontur" />
		<tag k="ssr:hovedgruppe" v="sjø" />
		<tag k="ssr:stedsnr" v="283838" />
		<tag k="ssr:type" v="nesISjø" />
	</node>
	<node lat="59.05741388755533" lon="5.431183340495694" id="-1821">
		<tag k="name" v="Skarvagrunnen" />
		<tag k="place" v="locality" />
		<tag k="seamark:type" v="rock" />
		<tag k="ssr:date" v="2016-05-10" />
		<tag k="ssr:gruppe" v="grunnerISjø" />
		<tag k="ssr:hovedgruppe" v="sjø" />
		<tag k="ssr:stedsnr" v="283850" />
		<tag k="ssr:type" v="båeISjø" />
	</node>
	<node lat="59.06354166769472" lon="5.388569451173316" id="-1822">
		<tag k="name" v="Djupasund" />
		<tag k="natural" v="strait" />
		<tag k="ssr:date" v="2016-05-10" />
		<tag k="ssr:gruppe" v="kystkontur" />
		<tag k="ssr:hovedgruppe" v="sjø" />
		<tag k="ssr:stedsnr" v="283958" />
		<tag k="ssr:type" v="sundISjø" />
	</node>
	<node lat="59.0500916666511" lon="5.394955555935268" id="-1823">
		<tag k="fixme" v="consider seamark:type=rock or natural=shoal" />
		<tag k="name" v="Skotholmnakken" />
		<tag k="place" v="islet" />
		<tag k="ssr:date" v="2016-05-10" />
		<tag k="ssr:gruppe" v="grunnerISjø" />
		<tag k="ssr:hovedgruppe" v="sjø" />
		<tag k="ssr:stedsnr" v="285569" />
		<tag k="ssr:type" v="skjærISjø" />
	</node>
	<node lat="59.05134166399356" lon="5.384633341787565" id="-1824">
		<tag k="fixme" v="consider seamark:type=rock or natural=shoal" />
		<tag k="name" v="Sivåta" />
		<tag k="place" v="islet" />
		<tag k="ssr:date" v="2016-05-10" />
		<tag k="ssr:gruppe" v="grunnerISjø" />
		<tag k="ssr:hovedgruppe" v="sjø" />
		<tag k="ssr:stedsnr" v="285572" />
		<tag k="ssr:type" v="skjærISjø" />
	</node>
	<node lat="59.066591662221455" lon="5.440633331362248" id="-1825">
		<tag k="name" v="Skotahamn" />
		<tag k="natural" v="bay" />
		<tag k="ssr:date" v="2016-05-10" />
		<tag k="ssr:gruppe" v="kystkontur" />
		<tag k="ssr:hovedgruppe" v="sjø" />
		<tag k="ssr:stedsnr" v="299617" />
		<tag k="ssr:type" v="vikISjø" />
	</node>
	<node lat="59.07026110765697" lon="5.437127776063725" id="-1826">
		<tag k="name" v="Galtaneset" />
		<tag k="natural" v="cape" />
		<tag k="ssr:date" v="2016-05-10" />
		<tag k="ssr:gruppe" v="kystkontur" />
		<tag k="ssr:hovedgruppe" v="sjø" />
		<tag k="ssr:stedsnr" v="299621" />
		<tag k="ssr:type" v="nesISjø" />
	</node>
	<node lat="59.05791667044787" lon="5.463188881578722" id="-1827">
		<tag k="name" v="Nordre Oksholmgrunnen" />
		<tag k="natural" v="shoal" />
		<tag k="place" v="locality" />
		<tag k="ssr:date" v="2016-05-10" />
		<tag k="ssr:gruppe" v="grunnerISjø" />
		<tag k="ssr:hovedgruppe" v="sjø" />
		<tag k="ssr:stedsnr" v="298634" />
		<tag k="ssr:type" v="grunneISjø" />
	</node>
	<node lat="59.05596944474624" lon="5.417286103497583" id="-1828">
		<tag k="name" v="Duøydyna" />
		<tag k="place" v="locality" />
		<tag k="seamark:type" v="rock" />
		<tag k="ssr:date" v="2016-05-10" />
		<tag k="ssr:gruppe" v="grunnerISjø" />
		<tag k="ssr:hovedgruppe" v="sjø" />
		<tag k="ssr:stedsnr" v="298836" />
		<tag k="ssr:type" v="båeISjø" />
	</node>
	<node lat="59.054105551989984" lon="5.421038895263289" id="-1829">
		<tag k="name" v="Krossholmen" />
		<tag k="place" v="islet" />
		<tag k="ssr:date" v="2016-05-10" />
		<tag k="ssr:gruppe" v="kystkontur" />
		<tag k="ssr:hovedgruppe" v="sjø" />
		<tag k="ssr:stedsnr" v="298842" />
		<tag k="ssr:type" v="holmeISjø" />
	</node>
	<node lat="59.046177779304635" lon="5.426608325833093" id="-1830">
		<tag k="name" v="Sandholmflua" />
		<tag k="place" v="locality" />
		<tag k="seamark:type" v="rock" />
		<tag k="ssr:date" v="2016-05-10" />
		<tag k="ssr:gruppe" v="grunnerISjø" />
		<tag k="ssr:hovedgruppe" v="sjø" />
		<tag k="ssr:stedsnr" v="298855" />
		<tag k="ssr:type" v="båeISjø" />
	</node>
	<node lat="59.04880277526939" lon="5.4005861089296525" id="-1831">
		<tag k="name" v="Søra Risøysundet" />
		<tag k="natural" v="strait" />
		<tag k="ssr:date" v="2016-05-10" />
		<tag k="ssr:gruppe" v="kystkontur" />
		<tag k="ssr:hovedgruppe" v="sjø" />
		<tag k="ssr:stedsnr" v="298862" />
		<tag k="ssr:type" v="sundISjø" />
	</node>
	<node lat="59.047041666251104" lon="5.40808056380757" id="-1832">
		<tag k="name" v="Piggskjergrunnen" />
		<tag k="natural" v="shoal" />
		<tag k="place" v="locality" />
		<tag k="ssr:date" v="2016-05-10" />
		<tag k="ssr:gruppe" v="grunnerISjø" />
		<tag k="ssr:hovedgruppe" v="sjø" />
		<tag k="ssr:stedsnr" v="298869" />
		<tag k="ssr:type" v="grunneISjø" />
	</node>
	<node lat="59.06939444304356" lon="5.401149996359449" id="-1833">
		<tag k="name" v="Flatholmgrunnen" />
		<tag k="natural" v="shoal" />
		<tag k="place" v="locality" />
		<tag k="ssr:date" v="2016-05-10" />
		<tag k="ssr:gruppe" v="grunnerISjø" />
		<tag k="ssr:hovedgruppe" v="sjø" />
		<tag k="ssr:stedsnr" v="301491" />
		<tag k="ssr:type" v="grunneISjø" />
	</node>
	<node lat="59.06318851624213" lon="5.406391496449312" id="-1834">
		<tag k="fixme" v="consider place=hamlet" />
		<tag k="name" v="Meling" />
		<tag k="place" v="farm" />
		<tag k="ssr:date" v="2019-03-27" />
		<tag k="ssr:gruppe" v="gardsbebyggelse" />
		<tag k="ssr:hovedgruppe" v="bebyggelse" />
		<tag k="ssr:stedsnr" v="304468" />
		<tag k="ssr:type" v="gard" />
	</node>
	<node lat="58.989991662907755" lon="5.370816673332545" id="-1835">
		<tag k="name" v="Austre Råsa" />
		<tag k="place" v="locality" />
		<tag k="seamark:type" v="rock" />
		<tag k="ssr:date" v="2021-06-08" />
		<tag k="ssr:gruppe" v="grunnerISjø" />
		<tag k="ssr:hovedgruppe" v="sjø" />
		<tag k="ssr:stedsnr" v="329578" />
		<tag k="ssr:type" v="båeISjø" />
	</node>
	<node lat="59.07290555205637" lon="5.4248055495974885" id="-1836">
		<tag k="name" v="Sildaberget" />
		<tag k="natural" v="cape" />
		<tag k="ssr:date" v="2016-05-10" />
		<tag k="ssr:gruppe" v="kystkontur" />
		<tag k="ssr:hovedgruppe" v="sjø" />
		<tag k="ssr:stedsnr" v="343365" />
		<tag k="ssr:type" v="nesISjø" />
	</node>
	<node lat="59.045141666112194" lon="5.379861105892276" id="-1837">
		<tag k="name" v="Kalvskinnbåen" />
		<tag k="natural" v="shoal" />
		<tag k="place" v="locality" />
		<tag k="ssr:date" v="2016-05-10" />
		<tag k="ssr:gruppe" v="grunnerISjø" />
		<tag k="ssr:hovedgruppe" v="sjø" />
		<tag k="ssr:stedsnr" v="343372" />
		<tag k="ssr:type" v="grunneISjø" />
	</node>
	<node lat="59.06020277861236" lon="5.387766671192959" id="-1838">
		<tag k="alt_name" v="Revingsundet" />
		<tag k="name" v="Revingssundet" />
		<tag k="natural" v="strait" />
		<tag k="ssr:date" v="2016-05-10" />
		<tag k="ssr:gruppe" v="kystkontur" />
		<tag k="ssr:hovedgruppe" v="sjø" />
		<tag k="ssr:stedsnr" v="343378" />
		<tag k="ssr:type" v="sundISjø" />
	</node>
	<node lat="59.07865555757131" lon="5.475177785430261" id="-1839">
		<tag k="name" v="Bekaren" />
		<tag k="place" v="locality" />
		<tag k="seamark:type" v="rock" />
		<tag k="ssr:date" v="2016-05-10" />
		<tag k="ssr:gruppe" v="grunnerISjø" />
		<tag k="ssr:hovedgruppe" v="sjø" />
		<tag k="ssr:stedsnr" v="343668" />
		<tag k="ssr:type" v="båeISjø" />
	</node>
	<node lat="59.074102777038405" lon="5.399208332472373" id="-1840">
		<tag k="fixme" v="consider seamark:type=rock or natural=shoal" />
		<tag k="name" v="Kobbskjer" />
		<tag k="place" v="islet" />
		<tag k="ssr:date" v="2016-05-10" />
		<tag k="ssr:gruppe" v="grunnerISjø" />
		<tag k="ssr:hovedgruppe" v="sjø" />
		<tag k="ssr:stedsnr" v="343715" />
		<tag k="ssr:type" v="skjærISjø" />
	</node>
	<node lat="59.071633329315404" lon="5.409961102936943" id="-1841">
		<tag k="name" v="Hesthagneset" />
		<tag k="natural" v="cape" />
		<tag k="ssr:date" v="2019-04-08" />
		<tag k="ssr:gruppe" v="kystkontur" />
		<tag k="ssr:hovedgruppe" v="sjø" />
		<tag k="ssr:stedsnr" v="343716" />
		<tag k="ssr:type" v="nesISjø" />
	</node>
	<node lat="59.07140555683454" lon="5.469758326561098" id="-1842">
		<tag k="name" v="Søra Raunabukta" />
		<tag k="natural" v="bay" />
		<tag k="ssr:date" v="2016-05-10" />
		<tag k="ssr:gruppe" v="kystkontur" />
		<tag k="ssr:hovedgruppe" v="sjø" />
		<tag k="ssr:stedsnr" v="343727" />
		<tag k="ssr:type" v="vikISjø" />
	</node>
	<node lat="59.02494999965552" lon="5.4257444464641456" id="-1843">
		<tag k="name" v="Seiagrunnen" />
		<tag k="natural" v="shoal" />
		<tag k="place" v="locality" />
		<tag k="ssr:date" v="2016-05-10" />
		<tag k="ssr:gruppe" v="grunnerISjø" />
		<tag k="ssr:hovedgruppe" v="sjø" />
		<tag k="ssr:stedsnr" v="344530" />
		<tag k="ssr:type" v="grunneISjø" />
	</node>
	<node lat="59.02121667097136" lon="5.435772223687856" id="-1844">
		<tag k="name" v="Leiaboskadet" />
		<tag k="natural" v="shoal" />
		<tag k="place" v="locality" />
		<tag k="ssr:date" v="2016-05-10" />
		<tag k="ssr:gruppe" v="grunnerISjø" />
		<tag k="ssr:hovedgruppe" v="sjø" />
		<tag k="ssr:stedsnr" v="344532" />
		<tag k="ssr:type" v="grunneISjø" />
	</node>
	<node lat="59.015225001428966" lon="5.410861109940747" id="-1845">
		<tag k="name" v="Hålandsgrunnen" />
		<tag k="natural" v="shoal" />
		<tag k="place" v="locality" />
		<tag k="ssr:date" v="2016-05-10" />
		<tag k="ssr:gruppe" v="grunnerISjø" />
		<tag k="ssr:hovedgruppe" v="sjø" />
		<tag k="ssr:stedsnr" v="344535" />
		<tag k="ssr:type" v="grunneISjø" />
	</node>
	<node lat="59.04708055887779" lon="5.390072229667142" id="-1846">
		<tag k="fixme" v="consider seamark:type=rock or natural=shoal" />
		<tag k="name" v="Nonskjer" />
		<tag k="place" v="islet" />
		<tag k="ssr:date" v="2016-05-10" />
		<tag k="ssr:gruppe" v="grunnerISjø" />
		<tag k="ssr:hovedgruppe" v="sjø" />
		<tag k="ssr:stedsnr" v="345527" />
		<tag k="ssr:type" v="skjærISjø" />
	</node>
	<node lat="59.063824998663826" lon="5.390302786411486" id="-1847">
		<tag k="name" v="Klavanessundet" />
		<tag k="natural" v="strait" />
		<tag k="ssr:date" v="2016-05-10" />
		<tag k="ssr:gruppe" v="kystkontur" />
		<tag k="ssr:hovedgruppe" v="sjø" />
		<tag k="ssr:stedsnr" v="358428" />
		<tag k="ssr:type" v="sundISjø" />
	</node>
	<node lat="59.02121388687667" lon="5.3751083294975155" id="-1848">
		<tag k="fixme" v="consider seamark:type=rock or natural=shoal" />
		<tag k="name" v="Gjerdholmsloen" />
		<tag k="place" v="islet" />
		<tag k="ssr:date" v="2016-05-10" />
		<tag k="ssr:gruppe" v="grunnerISjø" />
		<tag k="ssr:hovedgruppe" v="sjø" />
		<tag k="ssr:stedsnr" v="358618" />
		<tag k="ssr:type" v="skjærISjø" />
	</node>
	<node lat="59.01288055986395" lon="5.377363891247339" id="-1849">
		<tag k="fixme" v="consider seamark:type=rock or natural=shoal" />
		<tag k="name" v="Blåmannen" />
		<tag k="place" v="islet" />
		<tag k="ssr:date" v="2016-05-10" />
		<tag k="ssr:gruppe" v="grunnerISjø" />
		<tag k="ssr:hovedgruppe" v="sjø" />
		<tag k="ssr:stedsnr" v="358621" />
		<tag k="ssr:type" v="skjærISjø" />
	</node>
	<node lat="59.05443888895028" lon="5.433080558247096" id="-1850">
		<tag k="name" v="Vardholmsundet" />
		<tag k="natural" v="strait" />
		<tag k="ssr:date" v="2016-05-10" />
		<tag k="ssr:gruppe" v="kystkontur" />
		<tag k="ssr:hovedgruppe" v="sjø" />
		<tag k="ssr:stedsnr" v="358865" />
		<tag k="ssr:type" v="sundISjø" />
	</node>
	<node lat="59.04819722611137" lon="5.417047215173647" id="-1851">
		<tag k="name" v="Kvitabeistet" />
		<tag k="place" v="islet" />
		<tag k="ssr:date" v="2016-05-10" />
		<tag k="ssr:gruppe" v="kystkontur" />
		<tag k="ssr:hovedgruppe" v="sjø" />
		<tag k="ssr:stedsnr" v="358884" />
		<tag k="ssr:type" v="holmeISjø" />
	</node>
	<node lat="59.055779249531376" lon="5.4191820529707195" id="-1852">
		<tag k="name" v="Duøyklubben" />
		<tag k="place" v="islet" />
		<tag k="ssr:date" v="2016-12-28" />
		<tag k="ssr:gruppe" v="kystkontur" />
		<tag k="ssr:hovedgruppe" v="sjø" />
		<tag k="ssr:stedsnr" v="358886" />
		<tag k="ssr:type" v="holmeISjø" />
	</node>
	<node lat="59.05953610685149" lon="5.412672223062697" id="-1853">
		<tag k="name" v="Naustvoll" />
		<tag k="place" v="quarter" />
		<tag k="ssr:date" v="2016-05-10" />
		<tag k="ssr:gruppe" v="bebyggelsesområder" />
		<tag k="ssr:hovedgruppe" v="bebyggelse" />
		<tag k="ssr:stedsnr" v="359566" />
		<tag k="ssr:type" v="boligfelt" />
	</node>
	<node lat="59.00938333383841" lon="5.420269443056786" id="-1854">
		<tag k="name" v="Søra Raudholmskadet" />
		<tag k="place" v="locality" />
		<tag k="seamark:type" v="rock" />
		<tag k="ssr:date" v="2021-06-08" />
		<tag k="ssr:gruppe" v="grunnerISjø" />
		<tag k="ssr:hovedgruppe" v="sjø" />
		<tag k="ssr:stedsnr" v="365463" />
		<tag k="ssr:type" v="båeISjø" />
	</node>
	<node lat="59.076216671009" lon="5.4822055568346215" id="-1855">
		<tag k="name" v="Skorpe" />
		<tag k="place" v="islet" />
		<tag k="ssr:date" v="2016-05-10" />
		<tag k="ssr:gruppe" v="kystkontur" />
		<tag k="ssr:hovedgruppe" v="sjø" />
		<tag k="ssr:stedsnr" v="365875" />
		<tag k="ssr:type" v="holmeISjø" />
	</node>
	<node lat="59.050980557231256" lon="5.377500000172816" id="-1856">
		<tag k="name" v="Nordra Svortingflua" />
		<tag k="natural" v="shoal" />
		<tag k="place" v="locality" />
		<tag k="ssr:date" v="2016-05-10" />
		<tag k="ssr:gruppe" v="grunnerISjø" />
		<tag k="ssr:hovedgruppe" v="sjø" />
		<tag k="ssr:stedsnr" v="403373" />
		<tag k="ssr:type" v="grunneISjø" />
	</node>
	<node lat="59.07591944090467" lon="5.417055560074253" id="-1857">
		<tag k="name" v="Nordholmkeila" />
		<tag k="natural" v="strait" />
		<tag k="ssr:date" v="2016-05-10" />
		<tag k="ssr:gruppe" v="kystkontur" />
		<tag k="ssr:hovedgruppe" v="sjø" />
		<tag k="ssr:stedsnr" v="404628" />
		<tag k="ssr:type" v="sundISjø" />
	</node>
	<node lat="59.08494722311423" lon="5.479805547813267" id="-1858">
		<tag k="name" v="Keipflua" />
		<tag k="natural" v="shoal" />
		<tag k="place" v="locality" />
		<tag k="ssr:date" v="2016-05-10" />
		<tag k="ssr:gruppe" v="grunnerISjø" />
		<tag k="ssr:hovedgruppe" v="sjø" />
		<tag k="ssr:stedsnr" v="404650" />
		<tag k="ssr:type" v="grunneISjø" />
	</node>
	<node lat="59.083386107391014" lon="5.48323056153695" id="-1859">
		<tag k="name" v="Eimeflua" />
		<tag k="natural" v="shoal" />
		<tag k="place" v="locality" />
		<tag k="ssr:date" v="2016-05-10" />
		<tag k="ssr:gruppe" v="grunnerISjø" />
		<tag k="ssr:hovedgruppe" v="sjø" />
		<tag k="ssr:stedsnr" v="404652" />
		<tag k="ssr:type" v="grunneISjø" />
	</node>
	<node lat="59.058650001021334" lon="5.415050005047515" id="-1861">
		<tag k="name" v="Sandrenna" />
		<tag k="natural" v="bay" />
		<tag k="ssr:date" v="2016-05-10" />
		<tag k="ssr:gruppe" v="kystkontur" />
		<tag k="ssr:hovedgruppe" v="sjø" />
		<tag k="ssr:stedsnr" v="404822" />
		<tag k="ssr:type" v="vikISjø" />
	</node>
	<node lat="59.06231111053966" lon="5.431738891667347" id="-1862">
		<tag k="name" v="Stevelsholmen" />
		<tag k="place" v="islet" />
		<tag k="ssr:date" v="2016-05-10" />
		<tag k="ssr:gruppe" v="kystkontur" />
		<tag k="ssr:hovedgruppe" v="sjø" />
		<tag k="ssr:stedsnr" v="404966" />
		<tag k="ssr:type" v="holmeISjø" />
	</node>
	<node lat="59.07813888511695" lon="5.414397216499735" id="-1864">
		<tag k="name" v="Nordholmgrunnen" />
		<tag k="natural" v="shoal" />
		<tag k="place" v="locality" />
		<tag k="ssr:date" v="2016-05-10" />
		<tag k="ssr:gruppe" v="grunnerISjø" />
		<tag k="ssr:hovedgruppe" v="sjø" />
		<tag k="ssr:stedsnr" v="419262" />
		<tag k="ssr:type" v="grunneISjø" />
	</node>
	<node lat="59.035594446267275" lon="5.399858331339409" id="-1865">
		<tag k="name" v="Nordre Sparholmvågen" />
		<tag k="natural" v="bay" />
		<tag k="ssr:date" v="2016-05-10" />
		<tag k="ssr:gruppe" v="kystkontur" />
		<tag k="ssr:hovedgruppe" v="sjø" />
		<tag k="ssr:stedsnr" v="419601" />
		<tag k="ssr:type" v="vikISjø" />
	</node>
	<node lat="59.03617222487039" lon="5.406127775267337" id="-1866">
		<tag k="name" v="Stabbagrunnen" />
		<tag k="natural" v="shoal" />
		<tag k="place" v="locality" />
		<tag k="ssr:date" v="2016-05-10" />
		<tag k="ssr:gruppe" v="grunnerISjø" />
		<tag k="ssr:hovedgruppe" v="sjø" />
		<tag k="ssr:stedsnr" v="419621" />
		<tag k="ssr:type" v="grunneISjø" />
	</node>
	<node lat="59.0334333308167" lon="5.40228056153221" id="-1867">
		<tag k="fixme" v="consider seamark:type=rock or natural=shoal" />
		<tag k="name" v="Leisten" />
		<tag k="place" v="islet" />
		<tag k="ssr:date" v="2016-05-10" />
		<tag k="ssr:gruppe" v="grunnerISjø" />
		<tag k="ssr:hovedgruppe" v="sjø" />
		<tag k="ssr:stedsnr" v="419623" />
		<tag k="ssr:type" v="skjærISjø" />
	</node>
	<node lat="59.058205551487944" lon="5.472197224446942" id="-1868">
		<tag k="alt_name" v="Trættholmsloane" />
		<tag k="fixme" v="consider seamark:type=rock or natural=shoal" />
		<tag k="name" v="Trettholmsloane" />
		<tag k="place" v="islet" />
		<tag k="ssr:date" v="2016-05-10" />
		<tag k="ssr:gruppe" v="grunnerISjø" />
		<tag k="ssr:hovedgruppe" v="sjø" />
		<tag k="ssr:stedsnr" v="419644" />
		<tag k="ssr:type" v="skjærISjø" />
	</node>
	<node lat="59.05167222000263" lon="5.42083889444725" id="-1869">
		<tag k="fixme" v="consider seamark:type=rock or natural=shoal" />
		<tag k="name" v="Skaskjera" />
		<tag k="place" v="islet" />
		<tag k="ssr:date" v="2016-05-10" />
		<tag k="ssr:gruppe" v="grunnerISjø" />
		<tag k="ssr:hovedgruppe" v="sjø" />
		<tag k="ssr:stedsnr" v="419860" />
		<tag k="ssr:type" v="skjærISjø" />
	</node>
	<node lat="59.054850000568194" lon="5.437888894180027" id="-1870">
		<tag k="name" v="Hestholmvågane" />
		<tag k="natural" v="bay" />
		<tag k="ssr:date" v="2016-05-10" />
		<tag k="ssr:gruppe" v="kystkontur" />
		<tag k="ssr:hovedgruppe" v="sjø" />
		<tag k="ssr:stedsnr" v="419864" />
		<tag k="ssr:type" v="vikISjø" />
	</node>
	<node lat="59.049941665183994" lon="5.426480554311252" id="-1871">
		<tag k="name" v="Kanelesgrunnane" />
		<tag k="natural" v="shoal" />
		<tag k="place" v="locality" />
		<tag k="ssr:date" v="2016-05-10" />
		<tag k="ssr:gruppe" v="grunnerISjø" />
		<tag k="ssr:hovedgruppe" v="sjø" />
		<tag k="ssr:stedsnr" v="419869" />
		<tag k="ssr:type" v="grunneISjø" />
	</node>
	<node lat="59.050866670919326" lon="5.39982776873658" id="-1872">
		<tag k="name" v="Nordra Risøysundet" />
		<tag k="natural" v="strait" />
		<tag k="ssr:date" v="2016-05-10" />
		<tag k="ssr:gruppe" v="kystkontur" />
		<tag k="ssr:hovedgruppe" v="sjø" />
		<tag k="ssr:stedsnr" v="419875" />
		<tag k="ssr:type" v="sundISjø" />
	</node>
	<node lat="59.015169448554964" lon="5.377522216116322" id="-1874">
		<tag k="name" v="Begholmen" />
		<tag k="place" v="islet" />
		<tag k="ssr:date" v="2021-06-08" />
		<tag k="ssr:gruppe" v="kystkontur" />
		<tag k="ssr:hovedgruppe" v="sjø" />
		<tag k="ssr:stedsnr" v="426474" />
		<tag k="ssr:type" v="holmeISjø" />
	</node>
	<node lat="59.03022777976122" lon="5.395344445000754" id="-1876">
		<tag k="name" v="Søre Sparholmen" />
		<tag k="place" v="islet" />
		<tag k="ssr:date" v="2021-06-08" />
		<tag k="ssr:gruppe" v="kystkontur" />
		<tag k="ssr:hovedgruppe" v="sjø" />
		<tag k="ssr:stedsnr" v="513788" />
		<tag k="ssr:type" v="holmeISjø" />
	</node>
	<node lat="59.06871944452847" lon="5.407594448729128" id="-1877">
		<tag k="name" v="Sandvågen" />
		<tag k="natural" v="bay" />
		<tag k="ssr:date" v="2016-05-10" />
		<tag k="ssr:gruppe" v="kystkontur" />
		<tag k="ssr:hovedgruppe" v="sjø" />
		<tag k="ssr:stedsnr" v="525663" />
		<tag k="ssr:type" v="vikISjø" />
	</node>
	<node lat="59.071402781102535" lon="5.475555560512556" id="-1878">
		<tag k="name" v="Hyttevågen" />
		<tag k="natural" v="bay" />
		<tag k="ssr:date" v="2016-05-10" />
		<tag k="ssr:gruppe" v="kystkontur" />
		<tag k="ssr:hovedgruppe" v="sjø" />
		<tag k="ssr:stedsnr" v="525672" />
		<tag k="ssr:type" v="vikISjø" />
	</node>
	<node lat="59.06239999958233" lon="5.436283334828872" id="-1879">
		<tag k="fixme" v="consider seamark:type=rock or natural=shoal" />
		<tag k="name" v="Krågøyskjeret" />
		<tag k="place" v="islet" />
		<tag k="ssr:date" v="2016-05-10" />
		<tag k="ssr:gruppe" v="grunnerISjø" />
		<tag k="ssr:hovedgruppe" v="sjø" />
		<tag k="ssr:stedsnr" v="525944" />
		<tag k="ssr:type" v="skjærISjø" />
	</node>
	<node lat="59.02166667061054" lon="5.430166664761523" id="-1880">
		<tag k="name" v="Leiabofluene" />
		<tag k="natural" v="shoal" />
		<tag k="place" v="locality" />
		<tag k="ssr:date" v="2016-05-10" />
		<tag k="ssr:gruppe" v="grunnerISjø" />
		<tag k="ssr:hovedgruppe" v="sjø" />
		<tag k="ssr:stedsnr" v="526578" />
		<tag k="ssr:type" v="grunneISjø" />
	</node>
	<node lat="59.04636111556421" lon="5.386500004415947" id="-1881">
		<tag k="name" v="Makrelleia" />
		<tag k="place" v="locality" />
		<tag k="ssr:date" v="2016-05-10" />
		<tag k="ssr:gruppe" v="sjøfart" />
		<tag k="ssr:hovedgruppe" v="infrastruktur" />
		<tag k="ssr:stedsnr" v="527594" />
		<tag k="ssr:type" v="farledSkipslei" />
	</node>
	<node lat="59.04883889328799" lon="5.385158337813879" id="-1882">
		<tag k="name" v="Svortingskota" />
		<tag k="natural" v="cape" />
		<tag k="ssr:date" v="2016-05-10" />
		<tag k="ssr:gruppe" v="kystkontur" />
		<tag k="ssr:hovedgruppe" v="sjø" />
		<tag k="ssr:stedsnr" v="527596" />
		<tag k="ssr:type" v="nesISjø" />
	</node>
	<node lat="59.07504722142781" lon="5.396908329312406" id="-1883">
		<tag k="name" v="Kalvanes" />
		<tag k="natural" v="cape" />
		<tag k="ssr:date" v="2016-05-10" />
		<tag k="ssr:gruppe" v="kystkontur" />
		<tag k="ssr:hovedgruppe" v="sjø" />
		<tag k="ssr:stedsnr" v="539985" />
		<tag k="ssr:type" v="nesISjø" />
	</node>
	<node lat="59.07629166340959" lon="5.42758055529807" id="-1884">
		<tag k="fixme" v="consider seamark:type=rock or natural=shoal" />
		<tag k="name" v="Harangskjer" />
		<tag k="place" v="islet" />
		<tag k="ssr:date" v="2016-05-10" />
		<tag k="ssr:gruppe" v="grunnerISjø" />
		<tag k="ssr:hovedgruppe" v="sjø" />
		<tag k="ssr:stedsnr" v="540259" />
		<tag k="ssr:type" v="skjærISjø" />
	</node>
	<node lat="59.067633332219984" lon="5.392152783211744" id="-1885">
		<tag k="name" v="Tausahola" />
		<tag k="natural" v="bay" />
		<tag k="ssr:date" v="2016-05-10" />
		<tag k="ssr:gruppe" v="kystkontur" />
		<tag k="ssr:hovedgruppe" v="sjø" />
		<tag k="ssr:stedsnr" v="540432" />
		<tag k="ssr:type" v="vikISjø" />
	</node>
	<node lat="59.03459722134064" lon="5.4137555613102935" id="-1886">
		<tag k="name" v="Midtgrunnen" />
		<tag k="natural" v="shoal" />
		<tag k="place" v="locality" />
		<tag k="ssr:date" v="2016-05-10" />
		<tag k="ssr:gruppe" v="grunnerISjø" />
		<tag k="ssr:hovedgruppe" v="sjø" />
		<tag k="ssr:stedsnr" v="540624" />
		<tag k="ssr:type" v="grunneISjø" />
	</node>
	<node lat="59.05009166662448" lon="5.46467222025995" id="-1887">
		<tag k="name" v="Stølane" />
		<tag k="natural" v="shoal" />
		<tag k="place" v="locality" />
		<tag k="ssr:date" v="2016-05-10" />
		<tag k="ssr:gruppe" v="grunnerISjø" />
		<tag k="ssr:hovedgruppe" v="sjø" />
		<tag k="ssr:stedsnr" v="540641" />
		<tag k="ssr:type" v="grunneISjø" />
	</node>
	<node lat="59.02002777750791" lon="5.366150000241341" id="-1888">
		<tag k="fixme" v="consider seamark:type=rock or natural=shoal" />
		<tag k="name" v="Gjerdholmskjeret" />
		<tag k="place" v="islet" />
		<tag k="ssr:date" v="2016-05-10" />
		<tag k="ssr:gruppe" v="grunnerISjø" />
		<tag k="ssr:hovedgruppe" v="sjø" />
		<tag k="ssr:stedsnr" v="540597" />
		<tag k="ssr:type" v="skjærISjø" />
	</node>
	<node lat="59.06813888850848" lon="5.400969437855131" id="-1889">
		<tag k="name" v="Løssihola" />
		<tag k="natural" v="bay" />
		<tag k="ssr:date" v="2016-05-10" />
		<tag k="ssr:gruppe" v="kystkontur" />
		<tag k="ssr:hovedgruppe" v="sjø" />
		<tag k="ssr:stedsnr" v="544484" />
		<tag k="ssr:type" v="vikISjø" />
	</node>
	<node lat="59.03323611095927" lon="5.423091661621221" id="-1890">
		<tag k="name" v="Midtra Hogga" />
		<tag k="place" v="islet" />
		<tag k="ssr:date" v="2021-06-08" />
		<tag k="ssr:gruppe" v="kystkontur" />
		<tag k="ssr:hovedgruppe" v="sjø" />
		<tag k="ssr:stedsnr" v="547528" />
		<tag k="ssr:type" v="holmeISjø" />
	</node>
	<node lat="59.01629166898755" lon="5.367886102247245" id="-1891">
		<tag k="fixme" v="consider seamark:type=rock or natural=shoal" />
		<tag k="name" v="Smørfadet" />
		<tag k="place" v="islet" />
		<tag k="ssr:date" v="2021-06-08" />
		<tag k="ssr:gruppe" v="grunnerISjø" />
		<tag k="ssr:hovedgruppe" v="sjø" />
		<tag k="ssr:stedsnr" v="547533" />
		<tag k="ssr:type" v="skjærISjø" />
	</node>
	<node lat="59.090861112174366" lon="5.501994442789248" id="-1893">
		<tag k="name" v="Kjerringfluene" />
		<tag k="place" v="locality" />
		<tag k="seamark:type" v="rock" />
		<tag k="ssr:date" v="2021-06-08" />
		<tag k="ssr:gruppe" v="grunnerISjø" />
		<tag k="ssr:hovedgruppe" v="sjø" />
		<tag k="ssr:stedsnr" v="570526" />
		<tag k="ssr:type" v="båeISjø" />
	</node>
	<node lat="59.05726666513621" lon="5.409855546981806" id="-1896">
		<tag k="fixme" v="consider seamark:type=rock or natural=shoal" />
		<tag k="name" v="Sysselskjer" />
		<tag k="place" v="islet" />
		<tag k="ssr:date" v="2016-05-10" />
		<tag k="ssr:gruppe" v="grunnerISjø" />
		<tag k="ssr:hovedgruppe" v="sjø" />
		<tag k="ssr:stedsnr" v="586836" />
		<tag k="ssr:type" v="skjærISjø" />
	</node>
	<node lat="59.069369440755" lon="5.429400003240201" id="-1897">
		<tag k="bridge" v="yes" />
		<tag k="layer" v="1" />
		<tag k="name" v="Vinterhavn" />
		<tag k="ssr:date" v="2016-05-10" />
		<tag k="ssr:gruppe" v="samferdselsanlegg" />
		<tag k="ssr:hovedgruppe" v="infrastruktur" />
		<tag k="ssr:stedsnr" v="593469" />
		<tag k="ssr:type" v="bru" />
	</node>
	<node lat="59.05811111225433" lon="5.396888895123386" id="-1898">
		<tag k="alt_name" v="Ystabøsundet" />
		<tag k="name" v="Ydstebøsundet" />
		<tag k="natural" v="strait" />
		<tag k="ssr:date" v="2016-05-10" />
		<tag k="ssr:gruppe" v="kystkontur" />
		<tag k="ssr:hovedgruppe" v="sjø" />
		<tag k="ssr:stedsnr" v="601441" />
		<tag k="ssr:type" v="sundISjø" />
	</node>
	<node lat="59.01568333051685" lon="5.381755555535604" id="-1899">
		<tag k="fixme" v="consider seamark:type=rock or natural=shoal" />
		<tag k="name" v="Begholmskjeret" />
		<tag k="place" v="islet" />
		<tag k="ssr:date" v="2016-05-10" />
		<tag k="ssr:gruppe" v="grunnerISjø" />
		<tag k="ssr:hovedgruppe" v="sjø" />
		<tag k="ssr:stedsnr" v="601592" />
		<tag k="ssr:type" v="skjærISjø" />
	</node>
	<node lat="59.05358055256466" lon="5.461766674495948" id="-1900">
		<tag k="name" v="Oksholmsundet" />
		<tag k="natural" v="strait" />
		<tag k="ssr:date" v="2016-05-10" />
		<tag k="ssr:gruppe" v="kystkontur" />
		<tag k="ssr:hovedgruppe" v="sjø" />
		<tag k="ssr:stedsnr" v="601639" />
		<tag k="ssr:type" v="sundISjø" />
	</node>
	<node lat="59.05646944683184" lon="5.437947229681553" id="-1901">
		<tag k="name" v="Paradisbukta" />
		<tag k="natural" v="bay" />
		<tag k="ssr:date" v="2016-05-10" />
		<tag k="ssr:gruppe" v="kystkontur" />
		<tag k="ssr:hovedgruppe" v="sjø" />
		<tag k="ssr:stedsnr" v="601859" />
		<tag k="ssr:type" v="vikISjø" />
	</node>
	<node lat="59.0695250016234" lon="5.438127770867783" id="-1902">
		<tag k="name" v="Ronavika" />
		<tag k="natural" v="bay" />
		<tag k="ssr:date" v="2016-05-10" />
		<tag k="ssr:gruppe" v="kystkontur" />
		<tag k="ssr:hovedgruppe" v="sjø" />
		<tag k="ssr:stedsnr" v="602616" />
		<tag k="ssr:type" v="vikISjø" />
	</node>
	<node lat="59.0676666695035" lon="5.441813887442354" id="-1903">
		<tag k="fixme" v="consider seamark:type=rock or natural=shoal" />
		<tag k="name" v="Nordra Krågøyskjer" />
		<tag k="place" v="islet" />
		<tag k="ssr:date" v="2016-05-10" />
		<tag k="ssr:gruppe" v="grunnerISjø" />
		<tag k="ssr:hovedgruppe" v="sjø" />
		<tag k="ssr:stedsnr" v="602618" />
		<tag k="ssr:type" v="skjærISjø" />
	</node>
	<node lat="59.06781944661488" lon="5.404038887228538" id="-1904">
		<tag k="fixme" v="consider seamark:type=rock or natural=shoal" />
		<tag k="name" v="Indra Kobbskjer" />
		<tag k="place" v="islet" />
		<tag k="ssr:date" v="2016-05-10" />
		<tag k="ssr:gruppe" v="grunnerISjø" />
		<tag k="ssr:hovedgruppe" v="sjø" />
		<tag k="ssr:stedsnr" v="604494" />
		<tag k="ssr:type" v="skjærISjø" />
	</node>
	<node lat="59.077113884901415" lon="5.424494445877684" id="-1905">
		<tag k="fixme" v="consider seamark:type=rock or natural=shoal" />
		<tag k="name" v="Leiaskjer" />
		<tag k="place" v="islet" />
		<tag k="ssr:date" v="2016-05-10" />
		<tag k="ssr:gruppe" v="grunnerISjø" />
		<tag k="ssr:hovedgruppe" v="sjø" />
		<tag k="ssr:stedsnr" v="607485" />
		<tag k="ssr:type" v="skjærISjø" />
	</node>
	<node lat="59.077930558664235" lon="5.433588895151154" id="-1906">
		<tag k="name" v="Skarstein" />
		<tag k="place" v="islet" />
		<tag k="ssr:date" v="2021-06-08" />
		<tag k="ssr:gruppe" v="kystkontur" />
		<tag k="ssr:hovedgruppe" v="sjø" />
		<tag k="ssr:stedsnr" v="607488" />
		<tag k="ssr:type" v="holmeISjø" />
	</node>
	<node lat="59.07067777452034" lon="5.417394447169443" id="-1907">
		<tag k="name" v="Aurvika" />
		<tag k="natural" v="bay" />
		<tag k="ssr:date" v="2016-05-10" />
		<tag k="ssr:gruppe" v="kystkontur" />
		<tag k="ssr:hovedgruppe" v="sjø" />
		<tag k="ssr:stedsnr" v="607489" />
		<tag k="ssr:type" v="vikISjø" />
	</node>
	<node lat="59.00728333028499" lon="5.377411113926989" id="-1908">
		<tag k="name" v="Higlane" />
		<tag k="place" v="island" />
		<tag k="ssr:date" v="2016-05-10" />
		<tag k="ssr:gruppe" v="kystkontur" />
		<tag k="ssr:hovedgruppe" v="sjø" />
		<tag k="ssr:stedsnr" v="608463" />
		<tag k="ssr:type" v="øyISjø" />
	</node>
	<node lat="59.05014166612826" lon="5.400236108099401" id="-1909">
		<tag k="name" v="Risøya" />
		<tag k="place" v="island" />
		<tag k="ssr:date" v="2021-06-08" />
		<tag k="ssr:gruppe" v="kystkontur" />
		<tag k="ssr:hovedgruppe" v="sjø" />
		<tag k="ssr:stedsnr" v="631580" />
		<tag k="ssr:type" v="øyISjø" />
	</node>
	<node lat="59.050147219207375" lon="5.390499998792103" id="-1910">
		<tag k="name" v="Harholmen" />
		<tag k="place" v="islet" />
		<tag k="ssr:date" v="2016-05-10" />
		<tag k="ssr:gruppe" v="kystkontur" />
		<tag k="ssr:hovedgruppe" v="sjø" />
		<tag k="ssr:stedsnr" v="646401" />
		<tag k="ssr:type" v="holmeISjø" />
	</node>
	<node lat="59.05828055740882" lon="5.411738884390344" id="-1911">
		<tag k="name" v="Hønsavika" />
		<tag k="natural" v="bay" />
		<tag k="ssr:date" v="2016-05-10" />
		<tag k="ssr:gruppe" v="kystkontur" />
		<tag k="ssr:hovedgruppe" v="sjø" />
		<tag k="ssr:stedsnr" v="646820" />
		<tag k="ssr:type" v="vikISjø" />
	</node>
	<node lat="59.06083333360693" lon="5.423777777860882" id="-1913">
		<tag k="name" v="Brandholmane" />
		<tag k="place" v="islet" />
		<tag k="ssr:date" v="2016-05-10" />
		<tag k="ssr:gruppe" v="kystkontur" />
		<tag k="ssr:hovedgruppe" v="sjø" />
		<tag k="ssr:stedsnr" v="646947" />
		<tag k="ssr:type" v="holmeISjø" />
	</node>
	<node lat="59.06125277730426" lon="5.439683328268005" id="-1914">
		<tag k="name" v="Krågøyvika" />
		<tag k="natural" v="bay" />
		<tag k="ssr:date" v="2016-05-10" />
		<tag k="ssr:gruppe" v="kystkontur" />
		<tag k="ssr:hovedgruppe" v="sjø" />
		<tag k="ssr:stedsnr" v="646956" />
		<tag k="ssr:type" v="vikISjø" />
	</node>
	<node lat="59.015636112245325" lon="5.403949997675628" id="-1915">
		<tag k="name" v="Hugaskodgrunnane" />
		<tag k="natural" v="shoal" />
		<tag k="place" v="locality" />
		<tag k="ssr:date" v="2016-05-10" />
		<tag k="ssr:gruppe" v="grunnerISjø" />
		<tag k="ssr:hovedgruppe" v="sjø" />
		<tag k="ssr:stedsnr" v="647523" />
		<tag k="ssr:type" v="grunneISjø" />
	</node>
	<node lat="59.055958337277254" lon="5.414197225843048" id="-1916">
		<tag k="fixme" v="consider seamark:type=rock or natural=shoal" />
		<tag k="name" v="Nordra Fånøyskjeret" />
		<tag k="place" v="islet" />
		<tag k="ssr:date" v="2016-05-10" />
		<tag k="ssr:gruppe" v="grunnerISjø" />
		<tag k="ssr:hovedgruppe" v="sjø" />
		<tag k="ssr:stedsnr" v="648630" />
		<tag k="ssr:type" v="skjærISjø" />
	</node>
	<node lat="59.05294999614764" lon="5.409783335970968" id="-1917">
		<tag k="fixme" v="consider seamark:type=rock or natural=shoal" />
		<tag k="name" v="Søra Gulaskjer" />
		<tag k="place" v="islet" />
		<tag k="ssr:date" v="2016-05-10" />
		<tag k="ssr:gruppe" v="grunnerISjø" />
		<tag k="ssr:hovedgruppe" v="sjø" />
		<tag k="ssr:stedsnr" v="648635" />
		<tag k="ssr:type" v="skjærISjø" />
	</node>
	<node lat="59.060622217756546" lon="5.39213888754649" id="-1918">
		<tag k="name" v="Vikane" />
		<tag k="natural" v="bay" />
		<tag k="ssr:date" v="2016-05-10" />
		<tag k="ssr:gruppe" v="kystkontur" />
		<tag k="ssr:hovedgruppe" v="sjø" />
		<tag k="ssr:stedsnr" v="661416" />
		<tag k="ssr:type" v="vikISjø" />
	</node>
	<node lat="59.0652666681121" lon="5.3894861077615115" id="-1919">
		<tag k="name" v="Grunnasund" />
		<tag k="natural" v="strait" />
		<tag k="ssr:date" v="2016-05-10" />
		<tag k="ssr:gruppe" v="kystkontur" />
		<tag k="ssr:hovedgruppe" v="sjø" />
		<tag k="ssr:stedsnr" v="661418" />
		<tag k="ssr:type" v="sundISjø" />
	</node>
	<node lat="59.054886108300266" lon="5.424516671030189" id="-1920">
		<tag k="name" v="Klauagrunnane" />
		<tag k="natural" v="shoal" />
		<tag k="place" v="locality" />
		<tag k="ssr:date" v="2016-05-10" />
		<tag k="ssr:gruppe" v="grunnerISjø" />
		<tag k="ssr:hovedgruppe" v="sjø" />
		<tag k="ssr:stedsnr" v="661885" />
		<tag k="ssr:type" v="grunneISjø" />
	</node>
	<node lat="59.05833888899479" lon="5.416461118005296" id="-1921">
		<tag k="name" v="Vollsøya" />
		<tag k="place" v="quarter" />
		<tag k="ssr:date" v="2016-05-10" />
		<tag k="ssr:gruppe" v="bebyggelsesområder" />
		<tag k="ssr:hovedgruppe" v="bebyggelse" />
		<tag k="ssr:stedsnr" v="662548" />
		<tag k="ssr:type" v="industriområde" />
	</node>
	<node lat="59.01785000004737" lon="5.39371388496196" id="-1922">
		<tag k="name" v="Magerøyflua" />
		<tag k="natural" v="shoal" />
		<tag k="place" v="locality" />
		<tag k="ssr:date" v="2016-05-10" />
		<tag k="ssr:gruppe" v="grunnerISjø" />
		<tag k="ssr:hovedgruppe" v="sjø" />
		<tag k="ssr:stedsnr" v="662629" />
		<tag k="ssr:type" v="grunneISjø" />
	</node>
	<node lat="59.048630552084184" lon="5.404738882896643" id="-1923">
		<tag k="fixme" v="consider seamark:type=rock or natural=shoal" />
		<tag k="name" v="Søra Helleskjer" />
		<tag k="place" v="islet" />
		<tag k="ssr:date" v="2016-05-10" />
		<tag k="ssr:gruppe" v="grunnerISjø" />
		<tag k="ssr:hovedgruppe" v="sjø" />
		<tag k="ssr:stedsnr" v="662880" />
		<tag k="ssr:type" v="skjærISjø" />
	</node>
	<node lat="59.04182222368586" lon="5.408869439551974" id="-1924">
		<tag k="name" v="Stokken" />
		<tag k="place" v="islet" />
		<tag k="ssr:date" v="2016-05-10" />
		<tag k="ssr:gruppe" v="kystkontur" />
		<tag k="ssr:hovedgruppe" v="sjø" />
		<tag k="ssr:stedsnr" v="662896" />
		<tag k="ssr:type" v="holmeISjø" />
	</node>
	<node lat="59.05132777723615" lon="5.406758335749593" id="-1925">
		<tag k="fixme" v="consider seamark:type=rock or natural=shoal" />
		<tag k="name" v="Nordra Lyngskjer" />
		<tag k="place" v="islet" />
		<tag k="ssr:date" v="2016-05-10" />
		<tag k="ssr:gruppe" v="grunnerISjø" />
		<tag k="ssr:hovedgruppe" v="sjø" />
		<tag k="ssr:stedsnr" v="662872" />
		<tag k="ssr:type" v="skjærISjø" />
	</node>
	<node lat="59.08637499594337" lon="5.48736111214219" id="-1926">
		<tag k="name" v="Eime" />
		<tag k="place" v="island" />
		<tag k="ssr:date" v="2016-05-10" />
		<tag k="ssr:gruppe" v="kystkontur" />
		<tag k="ssr:hovedgruppe" v="sjø" />
		<tag k="ssr:stedsnr" v="668370" />
		<tag k="ssr:type" v="øyISjø" />
	</node>
	<node lat="59.09481110926272" lon="5.503905560101484" id="-1927">
		<tag k="fixme" v="consider seamark:type=rock or natural=shoal" />
		<tag k="name" v="Sveina" />
		<tag k="place" v="islet" />
		<tag k="ssr:date" v="2021-06-08" />
		<tag k="ssr:gruppe" v="grunnerISjø" />
		<tag k="ssr:hovedgruppe" v="sjø" />
		<tag k="ssr:stedsnr" v="669298" />
		<tag k="ssr:type" v="skjærISjø" />
	</node>
	<node lat="59.03479166710961" lon="5.403969438436041" id="-1928">
		<tag k="fixme" v="consider seamark:type=rock or natural=shoal" />
		<tag k="name" v="Suggeryggen" />
		<tag k="place" v="islet" />
		<tag k="ssr:date" v="2016-05-11" />
		<tag k="ssr:gruppe" v="grunnerISjø" />
		<tag k="ssr:hovedgruppe" v="sjø" />
		<tag k="ssr:stedsnr" v="722635" />
		<tag k="ssr:type" v="skjærISjø" />
	</node>
	<node lat="59.05069721841383" lon="5.421900005828107" id="-1929">
		<tag k="name" v="Saragrunnane" />
		<tag k="natural" v="shoal" />
		<tag k="place" v="locality" />
		<tag k="ssr:date" v="2016-05-11" />
		<tag k="ssr:gruppe" v="grunnerISjø" />
		<tag k="ssr:hovedgruppe" v="sjø" />
		<tag k="ssr:stedsnr" v="722890" />
		<tag k="ssr:type" v="grunneISjø" />
	</node>
	<node lat="59.07367221885671" lon="5.395638892940976" id="-1930">
		<tag k="name" v="Øyarvik" />
		<tag k="natural" v="bay" />
		<tag k="ssr:date" v="2016-05-11" />
		<tag k="ssr:gruppe" v="kystkontur" />
		<tag k="ssr:hovedgruppe" v="sjø" />
		<tag k="ssr:stedsnr" v="726515" />
		<tag k="ssr:type" v="vikISjø" />
	</node>
	<node lat="59.01358333343976" lon="5.421402780118088" id="-1931">
		<tag k="name" v="Raudholmen" />
		<tag k="place" v="islet" />
		<tag k="ssr:date" v="2021-06-08" />
		<tag k="ssr:gruppe" v="kystkontur" />
		<tag k="ssr:hovedgruppe" v="sjø" />
		<tag k="ssr:stedsnr" v="729448" />
		<tag k="ssr:type" v="holmeISjø" />
	</node>
	<node lat="59.087219447341575" lon="5.4822500010941635" id="-1932">
		<tag k="alt_name" v="Eimeskåta" />
		<tag k="name" v="Eimeskota" />
		<tag k="place" v="islet" />
		<tag k="ssr:date" v="2016-05-11" />
		<tag k="ssr:gruppe" v="kystkontur" />
		<tag k="ssr:hovedgruppe" v="sjø" />
		<tag k="ssr:stedsnr" v="729358" />
		<tag k="ssr:type" v="holmeISjø" />
	</node>
	<node lat="59.0399305581188" lon="5.396072223357285" id="-1933">
		<tag k="alt_name" v="Grunnungskjer, s" />
		<tag k="fixme" v="consider seamark:type=rock or natural=shoal" />
		<tag k="name" v="Søra Grunnungskjer" />
		<tag k="place" v="islet" />
		<tag k="ssr:date" v="2016-05-11" />
		<tag k="ssr:gruppe" v="grunnerISjø" />
		<tag k="ssr:hovedgruppe" v="sjø" />
		<tag k="ssr:stedsnr" v="729486" />
		<tag k="ssr:type" v="skjærISjø" />
	</node>
	<node lat="59.052374997361554" lon="5.412441666477352" id="-1935">
		<tag k="name" v="Vestre Langholmen" />
		<tag k="place" v="islet" />
		<tag k="ssr:date" v="2016-05-11" />
		<tag k="ssr:gruppe" v="kystkontur" />
		<tag k="ssr:hovedgruppe" v="sjø" />
		<tag k="ssr:stedsnr" v="767410" />
		<tag k="ssr:type" v="holmeISjø" />
	</node>
	<node lat="59.0740194471157" lon="5.428305551887304" id="-1936">
		<tag k="name" v="Skjermen" />
		<tag k="natural" v="bay" />
		<tag k="ssr:date" v="2016-05-11" />
		<tag k="ssr:gruppe" v="kystkontur" />
		<tag k="ssr:hovedgruppe" v="sjø" />
		<tag k="ssr:stedsnr" v="768366" />
		<tag k="ssr:type" v="vikISjø" />
	</node>
	<node lat="59.076247222085726" lon="5.492727779576503" id="-1937">
		<tag k="name" v="Austra Ternøyflua" />
		<tag k="natural" v="shoal" />
		<tag k="place" v="locality" />
		<tag k="ssr:date" v="2016-05-11" />
		<tag k="ssr:gruppe" v="grunnerISjø" />
		<tag k="ssr:hovedgruppe" v="sjø" />
		<tag k="ssr:stedsnr" v="768656" />
		<tag k="ssr:type" v="grunneISjø" />
	</node>
	<node lat="59.08923888453641" lon="5.497497222861946" id="-1938">
		<tag k="name" v="Nodel" />
		<tag k="natural" v="shoal" />
		<tag k="place" v="locality" />
		<tag k="ssr:date" v="2016-05-11" />
		<tag k="ssr:gruppe" v="grunnerISjø" />
		<tag k="ssr:hovedgruppe" v="sjø" />
		<tag k="ssr:stedsnr" v="768676" />
		<tag k="ssr:type" v="grunneISjø" />
	</node>
	<node lat="59.0877083363633" lon="5.495502774723288" id="-1939">
		<tag k="alt_name" v="Litla Kjerringa" />
		<tag k="fixme" v="consider seamark:type=rock or natural=shoal" />
		<tag k="name" v="Litla Kjeringa" />
		<tag k="place" v="islet" />
		<tag k="ssr:date" v="2016-05-11" />
		<tag k="ssr:gruppe" v="grunnerISjø" />
		<tag k="ssr:hovedgruppe" v="sjø" />
		<tag k="ssr:stedsnr" v="768680" />
		<tag k="ssr:type" v="skjærISjø" />
	</node>
	<node lat="59.066911113692136" lon="5.472316674181334" id="-1940">
		<tag k="name" v="Lyngholmflæet" />
		<tag k="natural" v="bay" />
		<tag k="ssr:date" v="2016-05-11" />
		<tag k="ssr:gruppe" v="kystkontur" />
		<tag k="ssr:hovedgruppe" v="sjø" />
		<tag k="ssr:stedsnr" v="768682" />
		<tag k="ssr:type" v="vågISjø" />
	</node>
	<node lat="59.06601388879005" lon="5.472041662554775" id="-1941">
		<tag k="fixme" v="consider seamark:type=rock or natural=shoal" />
		<tag k="name" v="Lyngholmskjeret" />
		<tag k="place" v="islet" />
		<tag k="ssr:date" v="2016-05-11" />
		<tag k="ssr:gruppe" v="grunnerISjø" />
		<tag k="ssr:hovedgruppe" v="sjø" />
		<tag k="ssr:stedsnr" v="768683" />
		<tag k="ssr:type" v="skjærISjø" />
	</node>
	<node lat="59.07836111300283" lon="5.48053332858777" id="-1942">
		<tag k="name" v="Skorpeflua" />
		<tag k="natural" v="shoal" />
		<tag k="place" v="locality" />
		<tag k="ssr:date" v="2016-05-11" />
		<tag k="ssr:gruppe" v="grunnerISjø" />
		<tag k="ssr:hovedgruppe" v="sjø" />
		<tag k="ssr:stedsnr" v="768635" />
		<tag k="ssr:type" v="grunneISjø" />
	</node>
	<node lat="59.05804166284551" lon="5.410925001028958" id="-1943">
		<tag k="name" v="Binnholmen" />
		<tag k="place" v="islet" />
		<tag k="ssr:date" v="2016-05-11" />
		<tag k="ssr:gruppe" v="kystkontur" />
		<tag k="ssr:hovedgruppe" v="sjø" />
		<tag k="ssr:stedsnr" v="768852" />
		<tag k="ssr:type" v="holmeISjø" />
	</node>
	<node lat="59.06256388876434" lon="5.420088881770616" id="-1944">
		<tag k="name" v="Kuneset" />
		<tag k="natural" v="cape" />
		<tag k="ssr:date" v="2016-05-11" />
		<tag k="ssr:gruppe" v="kystkontur" />
		<tag k="ssr:hovedgruppe" v="sjø" />
		<tag k="ssr:stedsnr" v="768856" />
		<tag k="ssr:type" v="nesISjø" />
	</node>
	<node lat="59.061463893147014" lon="5.435891661360727" id="-1945">
		<tag k="name" v="Krågøyskjergrunnen" />
		<tag k="natural" v="shoal" />
		<tag k="place" v="locality" />
		<tag k="ssr:date" v="2016-05-11" />
		<tag k="ssr:gruppe" v="grunnerISjø" />
		<tag k="ssr:hovedgruppe" v="sjø" />
		<tag k="ssr:stedsnr" v="768960" />
		<tag k="ssr:type" v="grunneISjø" />
	</node>
	<node lat="59.05438333737656" lon="5.397627778071479" id="-1946">
		<tag k="fixme" v="consider seamark:type=rock or natural=shoal" />
		<tag k="name" v="Saggaskjer" />
		<tag k="place" v="islet" />
		<tag k="ssr:date" v="2016-05-11" />
		<tag k="ssr:gruppe" v="grunnerISjø" />
		<tag k="ssr:hovedgruppe" v="sjø" />
		<tag k="ssr:stedsnr" v="770586" />
		<tag k="ssr:type" v="skjærISjø" />
	</node>
	<node lat="59.05554167069124" lon="5.404416672627149" id="-1947">
		<tag k="fixme" v="consider seamark:type=rock or natural=shoal" />
		<tag k="name" v="Midtra Rossøyskjera" />
		<tag k="place" v="islet" />
		<tag k="ssr:date" v="2016-05-11" />
		<tag k="ssr:gruppe" v="grunnerISjø" />
		<tag k="ssr:hovedgruppe" v="sjø" />
		<tag k="ssr:stedsnr" v="770590" />
		<tag k="ssr:type" v="skjærISjø" />
	</node>
	<node lat="59.05930833071032" lon="5.393777770295975" id="-1948">
		<tag k="name" v="Langåkervika" />
		<tag k="natural" v="bay" />
		<tag k="ssr:date" v="2016-05-11" />
		<tag k="ssr:gruppe" v="kystkontur" />
		<tag k="ssr:hovedgruppe" v="sjø" />
		<tag k="ssr:stedsnr" v="783440" />
		<tag k="ssr:type" v="vikISjø" />
	</node>
	<node lat="59.05518333322887" lon="5.460274999412939" id="-1949">
		<tag k="name" v="Oksholmsloane" />
		<tag k="natural" v="shoal" />
		<tag k="place" v="locality" />
		<tag k="ssr:date" v="2016-05-11" />
		<tag k="ssr:gruppe" v="grunnerISjø" />
		<tag k="ssr:hovedgruppe" v="sjø" />
		<tag k="ssr:stedsnr" v="783645" />
		<tag k="ssr:type" v="grunneISjø" />
	</node>
	<node lat="59.031658332597466" lon="5.385430552542375" id="-1950">
		<tag k="fixme" v="consider seamark:type=rock or natural=shoal" />
		<tag k="name" v="Sjoaland" />
		<tag k="place" v="islet" />
		<tag k="ssr:date" v="2021-06-08" />
		<tag k="ssr:gruppe" v="grunnerISjø" />
		<tag k="ssr:hovedgruppe" v="sjø" />
		<tag k="ssr:stedsnr" v="790503" />
		<tag k="ssr:type" v="skjærISjø" />
	</node>
	<node lat="59.03427652818935" lon="5.398716703056917" id="-1951">
		<tag k="name" v="Sparholmane" />
		<tag k="place" v="islet" />
		<tag k="ssr:date" v="2018-09-04" />
		<tag k="ssr:gruppe" v="kystkontur" />
		<tag k="ssr:hovedgruppe" v="sjø" />
		<tag k="ssr:stedsnr" v="790504" />
		<tag k="ssr:type" v="holmegruppeISjø" />
	</node>
	<node lat="59.0297388894576" lon="5.425319441711859" id="-1952">
		<tag k="fixme" v="consider seamark:type=rock or natural=shoal" />
		<tag k="name" v="Hugaskota" />
		<tag k="place" v="islet" />
		<tag k="ssr:date" v="2016-05-11" />
		<tag k="ssr:gruppe" v="grunnerISjø" />
		<tag k="ssr:hovedgruppe" v="sjø" />
		<tag k="ssr:stedsnr" v="790508" />
		<tag k="ssr:type" v="skjærISjø" />
	</node>
	<node lat="59.01033888636232" lon="5.368427781871916" id="-1953">
		<tag k="name" v="Vestre Imsen" />
		<tag k="place" v="islet" />
		<tag k="ssr:date" v="2021-06-08" />
		<tag k="ssr:gruppe" v="kystkontur" />
		<tag k="ssr:hovedgruppe" v="sjø" />
		<tag k="ssr:stedsnr" v="790510" />
		<tag k="ssr:type" v="holmeISjø" />
	</node>
	<node lat="59.070816665171876" lon="5.402888880916907" id="-1954">
		<tag k="name" v="Hålandsvika" />
		<tag k="natural" v="bay" />
		<tag k="ssr:date" v="2016-05-11" />
		<tag k="ssr:gruppe" v="kystkontur" />
		<tag k="ssr:hovedgruppe" v="sjø" />
		<tag k="ssr:stedsnr" v="790491" />
		<tag k="ssr:type" v="vikISjø" />
	</node>
	<node lat="59.07526388546104" lon="5.418711118488427" id="-1955">
		<tag k="name" v="Aurvik" />
		<tag k="natural" v="bay" />
		<tag k="ssr:date" v="2016-05-11" />
		<tag k="ssr:gruppe" v="kystkontur" />
		<tag k="ssr:hovedgruppe" v="sjø" />
		<tag k="ssr:stedsnr" v="829390" />
		<tag k="ssr:type" v="vikISjø" />
	</node>
	<node lat="59.06031806238995" lon="5.381535112955107" id="-1956">
		<tag k="name" v="Revingsgrunnen" />
		<tag k="natural" v="shoal" />
		<tag k="place" v="locality" />
		<tag k="ssr:date" v="2018-10-08" />
		<tag k="ssr:gruppe" v="grunnerISjø" />
		<tag k="ssr:hovedgruppe" v="sjø" />
		<tag k="ssr:stedsnr" v="829409" />
		<tag k="ssr:type" v="grunneISjø" />
	</node>
	<node lat="59.05978333692193" lon="5.42973333169426" id="-1957">
		<tag k="fixme" v="consider seamark:type=rock or natural=shoal" />
		<tag k="name" v="Vindnes" />
		<tag k="place" v="islet" />
		<tag k="ssr:date" v="2016-05-11" />
		<tag k="ssr:gruppe" v="grunnerISjø" />
		<tag k="ssr:hovedgruppe" v="sjø" />
		<tag k="ssr:stedsnr" v="829783" />
		<tag k="ssr:type" v="skjærISjø" />
	</node>
	<node lat="59.086988892067296" lon="5.483788884718023" id="-1958">
		<tag k="name" v="Skotasundet" />
		<tag k="natural" v="strait" />
		<tag k="ssr:date" v="2016-05-11" />
		<tag k="ssr:gruppe" v="kystkontur" />
		<tag k="ssr:hovedgruppe" v="sjø" />
		<tag k="ssr:stedsnr" v="829643" />
		<tag k="ssr:type" v="sundISjø" />
	</node>
	<node lat="59.07231666619933" lon="5.482061109649888" id="-1959">
		<tag k="name" v="Sandøyosen" />
		<tag k="natural" v="strait" />
		<tag k="ssr:date" v="2016-05-11" />
		<tag k="ssr:gruppe" v="kystkontur" />
		<tag k="ssr:hovedgruppe" v="sjø" />
		<tag k="ssr:stedsnr" v="829657" />
		<tag k="ssr:type" v="sundISjø" />
	</node>
	<node lat="59.05804444463076" lon="5.40776666137234" id="-1960">
		<tag k="fixme" v="consider seamark:type=rock or natural=shoal" />
		<tag k="name" v="Litlingen" />
		<tag k="place" v="islet" />
		<tag k="ssr:date" v="2016-05-11" />
		<tag k="ssr:gruppe" v="grunnerISjø" />
		<tag k="ssr:hovedgruppe" v="sjø" />
		<tag k="ssr:stedsnr" v="829836" />
		<tag k="ssr:type" v="skjærISjø" />
	</node>
	<node lat="59.01452221996021" lon="5.420816674255487" id="-1961">
		<tag k="name" v="Raudholmbukta" />
		<tag k="natural" v="bay" />
		<tag k="ssr:date" v="2016-05-11" />
		<tag k="ssr:gruppe" v="kystkontur" />
		<tag k="ssr:hovedgruppe" v="sjø" />
		<tag k="ssr:stedsnr" v="830498" />
		<tag k="ssr:type" v="vikISjø" />
	</node>
	<node lat="59.024324995923465" lon="5.450722224031864" id="-1962">
		<tag k="name" v="Indra Leiaboflua" />
		<tag k="natural" v="shoal" />
		<tag k="place" v="locality" />
		<tag k="ssr:date" v="2016-05-11" />
		<tag k="ssr:gruppe" v="grunnerISjø" />
		<tag k="ssr:hovedgruppe" v="sjø" />
		<tag k="ssr:stedsnr" v="830512" />
		<tag k="ssr:type" v="grunneISjø" />
	</node>
	<node lat="59.05657778044627" lon="5.407397223710892" id="-1963">
		<tag k="fixme" v="consider seamark:type=rock or natural=shoal" />
		<tag k="name" v="Kalvaskjer" />
		<tag k="place" v="islet" />
		<tag k="ssr:date" v="2016-05-11" />
		<tag k="ssr:gruppe" v="grunnerISjø" />
		<tag k="ssr:hovedgruppe" v="sjø" />
		<tag k="ssr:stedsnr" v="831568" />
		<tag k="ssr:type" v="skjærISjø" />
	</node>
	<node lat="58.999913887447114" lon="5.422733330467589" id="-1964">
		<tag k="name" v="Hidleboen" />
		<tag k="place" v="locality" />
		<tag k="seamark:type" v="rock" />
		<tag k="ssr:date" v="2021-06-08" />
		<tag k="ssr:gruppe" v="grunnerISjø" />
		<tag k="ssr:hovedgruppe" v="sjø" />
		<tag k="ssr:stedsnr" v="935596" />
		<tag k="ssr:type" v="båeISjø" />
	</node>
	<node lat="59.013180551588746" lon="5.383291665244433" id="-1965">
		<tag k="name" v="Begholmflæet" />
		<tag k="natural" v="bay" />
		<tag k="ssr:date" v="2016-05-11" />
		<tag k="ssr:gruppe" v="kystkontur" />
		<tag k="ssr:hovedgruppe" v="sjø" />
		<tag k="ssr:stedsnr" v="844624" />
		<tag k="ssr:type" v="vågISjø" />
	</node>
	<node lat="59.059877782004484" lon="5.393194436042101" id="-1966">
		<tag k="name" v="Kvernhusvika" />
		<tag k="natural" v="bay" />
		<tag k="ssr:date" v="2016-05-11" />
		<tag k="ssr:gruppe" v="kystkontur" />
		<tag k="ssr:hovedgruppe" v="sjø" />
		<tag k="ssr:stedsnr" v="844438" />
		<tag k="ssr:type" v="vikISjø" />
	</node>
	<node lat="59.05393888925769" lon="5.452847225951076" id="-1967">
		<tag k="name" v="Søra Bussholmflua" />
		<tag k="natural" v="shoal" />
		<tag k="place" v="locality" />
		<tag k="ssr:date" v="2016-05-11" />
		<tag k="ssr:gruppe" v="grunnerISjø" />
		<tag k="ssr:hovedgruppe" v="sjø" />
		<tag k="ssr:stedsnr" v="844664" />
		<tag k="ssr:type" v="grunneISjø" />
	</node>
	<node lat="59.06404444048425" lon="5.416391662568391" id="-1968">
		<tag k="alt_name" v="Kvitsøy;Kvitsøy Kjyrkje" />
		<tag k="amenity" v="place_of_worship" />
		<tag k="denomination" v="lutheran" />
		<tag k="name" v="Kvitsøy kirke" />
		<tag k="religion" v="christian" />
		<tag k="ssr:date" v="2016-05-11" />
		<tag k="ssr:gruppe" v="kulturinstitusjoner" />
		<tag k="ssr:hovedgruppe" v="kultur" />
		<tag k="ssr:stedsnr" v="851437" />
		<tag k="ssr:type" v="kirke" />
	</node>
	<node lat="59.05380832965329" lon="5.381180553199576" id="-1969">
		<tag k="name" v="Saltskjergrunnen" />
		<tag k="natural" v="shoal" />
		<tag k="place" v="locality" />
		<tag k="ssr:date" v="2016-05-11" />
		<tag k="ssr:gruppe" v="grunnerISjø" />
		<tag k="ssr:hovedgruppe" v="sjø" />
		<tag k="ssr:stedsnr" v="889395" />
		<tag k="ssr:type" v="grunneISjø" />
	</node>
	<node lat="59.059461108488335" lon="5.41093611388626" id="-1970">
		<tag k="name" v="Naustvollvågen" />
		<tag k="natural" v="bay" />
		<tag k="ssr:date" v="2016-05-11" />
		<tag k="ssr:gruppe" v="kystkontur" />
		<tag k="ssr:hovedgruppe" v="sjø" />
		<tag k="ssr:stedsnr" v="889400" />
		<tag k="ssr:type" v="vikISjø" />
	</node>
	<node lat="59.04857222026474" lon="5.379116659083335" id="-1971">
		<tag k="fixme" v="consider seamark:type=rock or natural=shoal" />
		<tag k="name" v="Rundaskjeret" />
		<tag k="place" v="islet" />
		<tag k="ssr:date" v="2016-05-11" />
		<tag k="ssr:gruppe" v="grunnerISjø" />
		<tag k="ssr:hovedgruppe" v="sjø" />
		<tag k="ssr:stedsnr" v="889389" />
		<tag k="ssr:type" v="skjærISjø" />
	</node>
	<node lat="59.02276666697024" lon="5.436572216582978" id="-1972">
		<tag k="fixme" v="consider seamark:type=rock or natural=shoal" />
		<tag k="name" v="Leiaboen" />
		<tag k="place" v="islet" />
		<tag k="ssr:date" v="2021-06-08" />
		<tag k="ssr:gruppe" v="grunnerISjø" />
		<tag k="ssr:hovedgruppe" v="sjø" />
		<tag k="ssr:stedsnr" v="938784" />
		<tag k="ssr:type" v="skjærISjø" />
	</node>
	<node lat="59.074305554218206" lon="5.425325005646637" id="-1973">
		<tag k="name" v="Revet" />
		<tag k="place" v="locality" />
		<tag k="seamark:type" v="rock" />
		<tag k="ssr:date" v="2016-05-11" />
		<tag k="ssr:gruppe" v="grunnerISjø" />
		<tag k="ssr:hovedgruppe" v="sjø" />
		<tag k="ssr:stedsnr" v="950396" />
		<tag k="ssr:type" v="båeISjø" />
	</node>
	<node lat="59.067844447485875" lon="5.38911110472443" id="-1974">
		<tag k="name" v="Søra Nyggjeflua" />
		<tag k="natural" v="shoal" />
		<tag k="place" v="locality" />
		<tag k="ssr:date" v="2016-05-11" />
		<tag k="ssr:gruppe" v="grunnerISjø" />
		<tag k="ssr:hovedgruppe" v="sjø" />
		<tag k="ssr:stedsnr" v="950330" />
		<tag k="ssr:type" v="grunneISjø" />
	</node>
	<node lat="59.05743888672544" lon="5.412891659449577" id="-1975">
		<tag k="fixme" v="consider seamark:type=rock or natural=shoal" />
		<tag k="name" v="Nåleputa" />
		<tag k="place" v="islet" />
		<tag k="ssr:date" v="2016-05-11" />
		<tag k="ssr:gruppe" v="grunnerISjø" />
		<tag k="ssr:hovedgruppe" v="sjø" />
		<tag k="ssr:stedsnr" v="950820" />
		<tag k="ssr:type" v="skjærISjø" />
	</node>
	<node lat="59.065108336220476" lon="5.4223194378169" id="-1976">
		<tag k="fixme" v="consider seamark:type=rock or natural=shoal" />
		<tag k="name" v="Lyngskjera" />
		<tag k="place" v="islet" />
		<tag k="ssr:date" v="2016-05-11" />
		<tag k="ssr:gruppe" v="grunnerISjø" />
		<tag k="ssr:hovedgruppe" v="sjø" />
		<tag k="ssr:stedsnr" v="950822" />
		<tag k="ssr:type" v="skjærISjø" />
	</node>
	<node lat="59.067202781657976" lon="5.421419448504716" id="-1977">
		<tag k="fixme" v="consider seamark:type=rock or natural=shoal" />
		<tag k="name" v="Torneskjer" />
		<tag k="place" v="islet" />
		<tag k="ssr:date" v="2016-05-11" />
		<tag k="ssr:gruppe" v="grunnerISjø" />
		<tag k="ssr:hovedgruppe" v="sjø" />
		<tag k="ssr:stedsnr" v="950824" />
		<tag k="ssr:type" v="skjærISjø" />
	</node>
	<node lat="59.06820833757441" lon="5.459580548735796" id="-1978">
		<tag k="name" v="Gamlegrunnen" />
		<tag k="natural" v="shoal" />
		<tag k="place" v="locality" />
		<tag k="ssr:date" v="2016-05-11" />
		<tag k="ssr:gruppe" v="grunnerISjø" />
		<tag k="ssr:hovedgruppe" v="sjø" />
		<tag k="ssr:stedsnr" v="950670" />
		<tag k="ssr:type" v="grunneISjø" />
	</node>
	<node lat="59.05411944542203" lon="5.403675006504613" id="-1981">
		<tag k="fixme" v="consider seamark:type=rock or natural=shoal" />
		<tag k="name" v="Bjørnskjeret" />
		<tag k="place" v="islet" />
		<tag k="ssr:date" v="2016-05-11" />
		<tag k="ssr:gruppe" v="grunnerISjø" />
		<tag k="ssr:hovedgruppe" v="sjø" />
		<tag k="ssr:stedsnr" v="952592" />
		<tag k="ssr:type" v="skjærISjø" />
	</node>
	<node lat="59.05497222093024" lon="5.410113884717445" id="-1982">
		<tag k="name" v="Litla Ådnøya" />
		<tag k="place" v="islet" />
		<tag k="ssr:date" v="2016-05-11" />
		<tag k="ssr:gruppe" v="kystkontur" />
		<tag k="ssr:hovedgruppe" v="sjø" />
		<tag k="ssr:stedsnr" v="952594" />
		<tag k="ssr:type" v="holmeISjø" />
	</node>
	<node lat="59.065728779022656" lon="5.398673052222968" id="-1983">
		<tag k="fixme" v="consider place=hamlet" />
		<tag k="name" v="Håland" />
		<tag k="place" v="farm" />
		<tag k="ssr:date" v="2019-03-27" />
		<tag k="ssr:gruppe" v="gardsbebyggelse" />
		<tag k="ssr:hovedgruppe" v="bebyggelse" />
		<tag k="ssr:stedsnr" v="964972" />
		<tag k="ssr:type" v="gard" />
	</node>
	<node lat="59.075108331398894" lon="5.4208944384550986" id="-1984">
		<tag k="name" v="Sauholmen" />
		<tag k="place" v="islet" />
		<tag k="ssr:date" v="2016-05-11" />
		<tag k="ssr:gruppe" v="kystkontur" />
		<tag k="ssr:hovedgruppe" v="sjø" />
		<tag k="ssr:stedsnr" v="964974" />
		<tag k="ssr:type" v="holmeISjø" />
	</node>
	<node lat="59.0785083345583" lon="5.428152776770924" id="-1985">
		<tag k="name" v="Hellesøyflua" />
		<tag k="natural" v="shoal" />
		<tag k="place" v="locality" />
		<tag k="ssr:date" v="2016-05-11" />
		<tag k="ssr:gruppe" v="grunnerISjø" />
		<tag k="ssr:hovedgruppe" v="sjø" />
		<tag k="ssr:stedsnr" v="965281" />
		<tag k="ssr:type" v="grunneISjø" />
	</node>
	<node lat="59.08161880837853" lon="5.489658885889062" id="-1986">
		<tag k="name" v="Eimesundet" />
		<tag k="natural" v="strait" />
		<tag k="ssr:date" v="2016-11-24" />
		<tag k="ssr:gruppe" v="kystkontur" />
		<tag k="ssr:hovedgruppe" v="sjø" />
		<tag k="ssr:stedsnr" v="972957" />
		<tag k="ssr:type" v="sundISjø" />
	</node>
	<node lat="59.058611660284086" lon="5.471706642643226" id="-1987">
		<tag k="alt_name" v="Trættholmsundet" />
		<tag k="name" v="Trettholmsundet" />
		<tag k="natural" v="strait" />
		<tag k="ssr:date" v="2016-11-24" />
		<tag k="ssr:gruppe" v="kystkontur" />
		<tag k="ssr:hovedgruppe" v="sjø" />
		<tag k="ssr:stedsnr" v="972958" />
		<tag k="ssr:type" v="sundISjø" />
	</node>
	<node lat="59.03877437373454" lon="5.3959861295008515" id="-1988">
		<tag k="alt_name" v="Søra Drabben" />
		<tag k="fixme" v="consider seamark:type=rock or natural=shoal" />
		<tag k="name" v="Austre Drabben" />
		<tag k="place" v="islet" />
		<tag k="ssr:date" v="2017-08-29" />
		<tag k="ssr:gruppe" v="grunnerISjø" />
		<tag k="ssr:hovedgruppe" v="sjø" />
		<tag k="ssr:stedsnr" v="977825" />
		<tag k="ssr:type" v="skjærISjø" />
	</node>
	<node lat="59.03898310142589" lon="5.394542093420465" id="-1989">
		<tag k="alt_name" v="Nordra Drabben" />
		<tag k="fixme" v="consider seamark:type=rock or natural=shoal" />
		<tag k="name" v="Vestre Drabben" />
		<tag k="place" v="islet" />
		<tag k="ssr:date" v="2017-08-29" />
		<tag k="ssr:gruppe" v="grunnerISjø" />
		<tag k="ssr:hovedgruppe" v="sjø" />
		<tag k="ssr:stedsnr" v="977826" />
		<tag k="ssr:type" v="skjærISjø" />
	</node>
</osm>
