<?xml version="1.0" encoding="UTF-8"?>
<osm version="0.6" generator="osmapis">
	<node id="54738666" lat="61.665391" lon="8.1846444" version="6" timestamp="2022-02-01T16:51:09Z" changeset="116876628" uid="3497659" user="NKA">
		<tag k="junction" v="yes" />
		<tag k="name" v="Vegaskjelet" />
		<tag k="ssr:stedsnr" v="418680" />
	</node>
	<node id="54739272" lat="61.8377146" lon="8.5684104" version="11" timestamp="2022-03-31T05:17:57Z" changeset="119141262" uid="3497659" user="NKA">
		<tag k="alt_name" v="Fossbergom" />
		<tag k="name" v="Lom" />
		<tag k="name:ru" v="Лом" />
		<tag k="place" v="village" />
		<tag k="population" v="830" />
		<tag k="population:date" v="2021-01-01" />
		<tag k="ref:ssb_tettsted" v="1551" />
		<tag k="source:population" v="SSB - befolkning i tettstedet" />
		<tag k="ssr:stedsnr" v="616011" />
	</node>
	<node id="252423746" lat="61.8485622" lon="8.8053587" version="2" timestamp="2022-03-31T05:17:57Z" changeset="119141262" uid="3497659" user="NKA">
		<tag k="name" v="Garmo" />
		<tag k="place" v="village" />
		<tag k="ssr:stedsnr" v="799041" />
	</node>
	<node id="1334329215" lat="61.8755011" lon="8.7051855" version="2" timestamp="2022-03-31T05:17:57Z" changeset="119141262" uid="3497659" user="NKA">
		<tag k="name" v="Flatmogrendi" />
		<tag k="place" v="hamlet" />
		<tag k="ssr:stedsnr" v="556143" />
	</node>
	<node id="2305564626" lat="61.7482015" lon="8.619288" version="4" timestamp="2022-03-31T05:17:57Z" changeset="119141262" uid="3497659" user="NKA">
		<tag k="historic" v="shieling" />
		<tag k="name" v="Fossætren" />
		<tag k="place" v="hamlet" />
		<tag k="ssr:stedsnr" v="799102" />
	</node>
	<node id="2388206946" lat="61.7490833" lon="8.416364" version="2" timestamp="2022-03-31T05:17:57Z" changeset="119141262" uid="3497659" user="NKA">
		<tag k="name" v="Bakkom" />
		<tag k="place" v="farm" />
		<tag k="ssr:stedsnr" v="10176" />
	</node>
	<node id="2388206948" lat="61.720875" lon="8.4412472" version="2" timestamp="2022-03-31T05:17:57Z" changeset="119141262" uid="3497659" user="NKA">
		<tag k="historic" v="shieling" />
		<tag k="name" v="Visdalssætren" />
		<tag k="place" v="hamlet" />
		<tag k="ssr:stedsnr" v="192172" />
	</node>
	<node id="3708588036" lat="61.6483166" lon="8.1052389" version="3" timestamp="2022-03-31T05:17:57Z" changeset="119141262" uid="3497659" user="NKA">
		<tag k="name" v="Hansbue" />
		<tag k="place" v="isolated_dwelling" />
		<tag k="ssr:stedsnr" v="555150" />
	</node>
	<node id="3708588041" lat="61.8677689" lon="8.6903166" version="3" timestamp="2022-03-31T05:17:57Z" changeset="119141262" uid="3497659" user="NKA">
		<tag k="name" v="Måsåmyrbakkjen" />
		<tag k="place" v="isolated_dwelling" />
		<tag k="ssr:stedsnr" v="903944" />
	</node>
	<node id="3708588049" lat="61.8673695" lon="8.52155" version="3" timestamp="2022-03-31T05:17:57Z" changeset="119141262" uid="3497659" user="NKA">
		<tag k="name" v="Storåe" />
		<tag k="place" v="isolated_dwelling" />
		<tag k="ssr:stedsnr" v="296117" />
	</node>
	<node id="3708588051" lat="61.7099334" lon="8.3120473" version="3" timestamp="2022-03-31T05:17:57Z" changeset="119141262" uid="3497659" user="NKA">
		<tag k="name" v="Veslhalsen" />
		<tag k="place" v="isolated_dwelling" />
		<tag k="ssr:stedsnr" v="843339" />
	</node>
	<node id="3708588052" lat="61.8596018" lon="8.8489729" version="3" timestamp="2022-03-31T05:17:57Z" changeset="119141262" uid="3497659" user="NKA">
		<tag k="name" v="Vesløygarden" />
		<tag k="place" v="isolated_dwelling" />
		<tag k="ssr:stedsnr" v="617331" />
	</node>
	<node id="3708600842" lat="61.8723165" lon="8.7327697" version="3" timestamp="2022-03-31T05:17:57Z" changeset="119141262" uid="3497659" user="NKA">
		<tag k="name" v="Liasagje" />
		<tag k="place" v="locality" />
		<tag k="ssr:stedsnr" v="175940" />
	</node>
	<node id="3708600844" lat="61.6873544" lon="8.1563168" version="3" timestamp="2022-03-31T05:17:57Z" changeset="119141262" uid="3497659" user="NKA">
		<tag k="historic" v="shieling" />
		<tag k="name" v="Prestsætre" />
		<tag k="place" v="isolated_dwelling" />
		<tag k="ssr:stedsnr" v="556291" />
	</node>
	<node id="3708602775" lat="61.7719278" lon="8.4478111" version="3" timestamp="2022-03-31T05:17:57Z" changeset="119141262" uid="3497659" user="NKA">
		<tag k="historic" v="shieling" />
		<tag k="name" v="Andvordssætre" />
		<tag k="place" v="isolated_dwelling" />
		<tag k="ssr:stedsnr" v="114080" />
	</node>
	<node id="3708602776" lat="61.6636145" lon="8.1511703" version="3" timestamp="2022-03-31T05:17:57Z" changeset="119141262" uid="3497659" user="NKA">
		<tag k="historic" v="shieling" />
		<tag k="name" v="Aukrustsætre" />
		<tag k="place" v="isolated_dwelling" />
		<tag k="ssr:stedsnr" v="373191" />
	</node>
	<node id="3708602777" lat="61.6858695" lon="8.1522166" version="3" timestamp="2022-03-31T05:17:57Z" changeset="119141262" uid="3497659" user="NKA">
		<tag k="historic" v="shieling" />
		<tag k="name" v="Aukrustsætre" />
		<tag k="place" v="isolated_dwelling" />
		<tag k="ssr:stedsnr" v="374252" />
	</node>
	<node id="3708602778" lat="61.7756778" lon="8.4684111" version="3" timestamp="2022-03-31T05:17:57Z" changeset="119141262" uid="3497659" user="NKA">
		<tag k="historic" v="shieling" />
		<tag k="name" v="Aukrustsætre" />
		<tag k="place" v="isolated_dwelling" />
		<tag k="ssr:stedsnr" v="175093" />
	</node>
	<node id="3708602779" lat="61.9127055" lon="8.6467972" version="3" timestamp="2022-03-31T05:17:57Z" changeset="119141262" uid="3497659" user="NKA">
		<tag k="historic" v="shieling" />
		<tag k="name" v="Bakken uppi-sætre" />
		<tag k="place" v="isolated_dwelling" />
		<tag k="ssr:stedsnr" v="660535" />
	</node>
	<node id="3708602780" lat="61.7519527" lon="8.4275528" version="3" timestamp="2022-03-31T05:17:57Z" changeset="119141262" uid="3497659" user="NKA">
		<tag k="alt_name" v="Bakkesætre" />
		<tag k="historic" v="shieling" />
		<tag k="name" v="Bakkesætri" />
		<tag k="place" v="isolated_dwelling" />
		<tag k="ssr:stedsnr" v="617974" />
	</node>
	<node id="3708602781" lat="61.6976028" lon="8.2280139" version="3" timestamp="2022-03-31T05:17:57Z" changeset="119141262" uid="3497659" user="NKA">
		<tag k="historic" v="shieling" />
		<tag k="name" v="Blomlisætre" />
		<tag k="place" v="isolated_dwelling" />
		<tag k="ssr:stedsnr" v="253273" />
	</node>
	<node id="3708602782" lat="61.6809611" lon="8.1438694" version="3" timestamp="2022-03-31T05:17:57Z" changeset="119141262" uid="3497659" user="NKA">
		<tag k="historic" v="shieling" />
		<tag k="name" v="Borgasætre" />
		<tag k="place" v="isolated_dwelling" />
		<tag k="ssr:stedsnr" v="435260" />
	</node>
	<node id="3708602783" lat="61.7143222" lon="8.2081167" version="3" timestamp="2022-03-31T05:17:57Z" changeset="119141262" uid="3497659" user="NKA">
		<tag k="historic" v="shieling" />
		<tag k="name" v="Brandsarsætre" />
		<tag k="place" v="isolated_dwelling" />
		<tag k="ssr:stedsnr" v="903579" />
	</node>
	<node id="3708602784" lat="61.9390167" lon="8.8657056" version="3" timestamp="2022-03-31T05:17:57Z" changeset="119141262" uid="3497659" user="NKA">
		<tag k="alt_name" v="Breistulen" />
		<tag k="historic" v="shieling" />
		<tag k="name" v="Breidstulen" />
		<tag k="place" v="hamlet" />
		<tag k="ssr:stedsnr" v="739110" />
	</node>
	<node id="3708602785" lat="61.6105278" lon="8.0426612" version="3" timestamp="2022-03-31T05:17:57Z" changeset="119141262" uid="3497659" user="NKA">
		<tag k="historic" v="shieling" />
		<tag k="name" v="Breidsæterstulen" />
		<tag k="place" v="isolated_dwelling" />
		<tag k="ssr:stedsnr" v="70448" />
	</node>
	<node id="3708602786" lat="61.7726167" lon="8.454575" version="3" timestamp="2022-03-31T05:17:57Z" changeset="119141262" uid="3497659" user="NKA">
		<tag k="historic" v="shieling" />
		<tag k="name" v="Brekkøysætre" />
		<tag k="place" v="isolated_dwelling" />
		<tag k="ssr:stedsnr" v="175096" />
	</node>
	<node id="3708602787" lat="61.6607972" lon="8.0178833" version="3" timestamp="2022-03-31T05:17:57Z" changeset="119141262" uid="3497659" user="NKA">
		<tag k="historic" v="shieling" />
		<tag k="name" v="Brustugusætre" />
		<tag k="place" v="isolated_dwelling" />
		<tag k="ssr:stedsnr" v="53721" />
	</node>
	<node id="3708602788" lat="61.8393445" lon="8.8315111" version="3" timestamp="2022-03-31T05:17:57Z" changeset="119141262" uid="3497659" user="NKA">
		<tag k="alt_name" v="Byrsætre" />
		<tag k="historic" v="shieling" />
		<tag k="name" v="Byrsætri" />
		<tag k="place" v="isolated_dwelling" />
		<tag k="ssr:stedsnr" v="174031" />
	</node>
	<node id="3708602789" lat="61.9384028" lon="8.8630194" version="3" timestamp="2022-03-31T05:17:57Z" changeset="119141262" uid="3497659" user="NKA">
		<tag k="historic" v="shieling" />
		<tag k="name" v="Bøjesætren" />
		<tag k="place" v="isolated_dwelling" />
		<tag k="ssr:stedsnr" v="175736" />
	</node>
	<node id="3708602790" lat="61.9392639" lon="8.8660611" version="3" timestamp="2022-03-31T05:17:57Z" changeset="119141262" uid="3497659" user="NKA">
		<tag k="historic" v="shieling" />
		<tag k="name" v="Bølesætre" />
		<tag k="place" v="isolated_dwelling" />
		<tag k="ssr:stedsnr" v="357715" />
	</node>
	<node id="3708602791" lat="61.776225" lon="8.469664" version="3" timestamp="2022-03-31T05:17:57Z" changeset="119141262" uid="3497659" user="NKA">
		<tag k="historic" v="shieling" />
		<tag k="name" v="Bøsætre" />
		<tag k="place" v="isolated_dwelling" />
		<tag k="ssr:stedsnr" v="964135" />
	</node>
	<node id="3708602792" lat="61.6775895" lon="8.1461387" version="3" timestamp="2022-03-31T05:17:57Z" changeset="119141262" uid="3497659" user="NKA">
		<tag k="alt_name" v="Krokasætre" />
		<tag k="historic" v="shieling" />
		<tag k="name" v="Tykkjesætre" />
		<tag k="place" v="isolated_dwelling" />
		<tag k="ssr:stedsnr" v="131217" />
	</node>
	<node id="3708602793" lat="61.62925" lon="8.0465751" version="3" timestamp="2022-03-31T05:17:57Z" changeset="119141262" uid="3497659" user="NKA">
		<tag k="historic" v="shieling" />
		<tag k="name" v="Dumstulen" />
		<tag k="place" v="isolated_dwelling" />
		<tag k="ssr:stedsnr" v="616428" />
	</node>
	<node id="3708602794" lat="61.8324639" lon="8.7871306" version="3" timestamp="2022-03-31T05:17:57Z" changeset="119141262" uid="3497659" user="NKA">
		<tag k="alt_name" v="Eklesætre" />
		<tag k="historic" v="shieling" />
		<tag k="name" v="Eklesætri" />
		<tag k="place" v="hamlet" />
		<tag k="ssr:stedsnr" v="963020" />
	</node>
	<node id="3708602795" lat="61.6555695" lon="8.1818889" version="3" timestamp="2022-03-31T05:17:57Z" changeset="119141262" uid="3497659" user="NKA">
		<tag k="historic" v="shieling" />
		<tag k="name" v="Ekressætre" />
		<tag k="place" v="isolated_dwelling" />
		<tag k="ssr:stedsnr" v="418674" />
	</node>
	<node id="3708602796" lat="61.7713278" lon="8.4448722" version="3" timestamp="2022-03-31T05:17:57Z" changeset="119141262" uid="3497659" user="NKA">
		<tag k="alt_name" v="Engjom" />
		<tag k="historic" v="shieling" />
		<tag k="name" v="Engom" />
		<tag k="place" v="isolated_dwelling" />
		<tag k="ssr:stedsnr" v="374998" />
	</node>
	<node id="3708602797" lat="61.7737417" lon="8.4671556" version="3" timestamp="2022-03-31T05:17:57Z" changeset="119141262" uid="3497659" user="NKA">
		<tag k="historic" v="shieling" />
		<tag k="name" v="Flåsætre" />
		<tag k="place" v="isolated_dwelling" />
		<tag k="ssr:stedsnr" v="660112" />
	</node>
	<node id="3708602799" lat="61.7496444" lon="8.6185667" version="3" timestamp="2022-03-31T05:17:57Z" changeset="119141262" uid="3497659" user="NKA">
		<tag k="historic" v="shieling" />
		<tag k="loc_name" v="Fossætre" />
		<tag k="name" v="Fossætri" />
		<tag k="place" v="isolated_dwelling" />
		<tag k="ssr:stedsnr" v="860279" />
	</node>
	<node id="3708602800" lat="61.8315138" lon="8.6430973" version="3" timestamp="2022-03-31T05:17:57Z" changeset="119141262" uid="3497659" user="NKA">
		<tag k="historic" v="shieling" />
		<tag k="name" v="Frøysesætre" />
		<tag k="place" v="isolated_dwelling" />
		<tag k="ssr:stedsnr" v="878845" />
	</node>
	<node id="3708602801" lat="61.6204139" lon="8.1787694" version="3" timestamp="2022-03-31T05:17:57Z" changeset="119141262" uid="3497659" user="NKA">
		<tag k="historic" v="shieling" />
		<tag k="name" v="Geitsætre" />
		<tag k="place" v="isolated_dwelling" />
		<tag k="ssr:stedsnr" v="313064" />
	</node>
	<node id="3708602802" lat="61.6904666" lon="8.166339" version="3" timestamp="2022-03-31T05:17:57Z" changeset="119141262" uid="3497659" user="NKA">
		<tag k="alt_name" v="Glåmbakkjen" />
		<tag k="historic" v="shieling" />
		<tag k="name" v="Glåmbakken" />
		<tag k="place" v="isolated_dwelling" />
		<tag k="ssr:stedsnr" v="131225" />
	</node>
	<node id="3708602803" lat="61.7685056" lon="8.4345445" version="3" timestamp="2022-03-31T05:17:57Z" changeset="119141262" uid="3497659" user="NKA">
		<tag k="alt_name" v="Glømsdalsøygarden" />
		<tag k="historic" v="shieling" />
		<tag k="name" v="Glømsdalslitløygarden" />
		<tag k="place" v="isolated_dwelling" />
		<tag k="ssr:stedsnr" v="617995" />
	</node>
	<node id="3708602804" lat="61.7728611" lon="8.4464111" version="3" timestamp="2022-03-31T05:17:57Z" changeset="119141262" uid="3497659" user="NKA">
		<tag k="historic" v="shieling" />
		<tag k="name" v="Glømsdalssætre" />
		<tag k="place" v="isolated_dwelling" />
		<tag k="ssr:stedsnr" v="964122" />
	</node>
	<node id="3708602805" lat="61.8707473" lon="8.8183555" version="3" timestamp="2022-03-31T05:17:57Z" changeset="119141262" uid="3497659" user="NKA">
		<tag k="historic" v="shieling" />
		<tag k="name" v="Grønsætre" />
		<tag k="place" v="isolated_dwelling" />
		<tag k="ssr:stedsnr" v="54262" />
	</node>
	<node id="3708602806" lat="61.8718472" lon="8.82035" version="3" timestamp="2022-03-31T05:17:57Z" changeset="119141262" uid="3497659" user="NKA">
		<tag k="alt_name" v="Grønsætren" />
		<tag k="historic" v="shieling" />
		<tag k="name" v="Grønsætri" />
		<tag k="place" v="isolated_dwelling" />
		<tag k="ssr:stedsnr" v="556130" />
	</node>
	<node id="3708602807" lat="61.9392639" lon="8.8707472" version="3" timestamp="2022-03-31T05:17:57Z" changeset="119141262" uid="3497659" user="NKA">
		<tag k="historic" v="shieling" />
		<tag k="name" v="Gupphågåsætre" />
		<tag k="place" v="isolated_dwelling" />
		<tag k="ssr:stedsnr" v="599735" />
	</node>
	<node id="3708602808" lat="61.7772528" lon="8.4761444" version="3" timestamp="2022-03-31T05:17:57Z" changeset="119141262" uid="3497659" user="NKA">
		<tag k="historic" v="shieling" />
		<tag k="name" v="Gutubøsætre" />
		<tag k="place" v="isolated_dwelling" />
		<tag k="ssr:stedsnr" v="782084" />
	</node>
	<node id="3708602809" lat="61.6679306" lon="8.4335167" version="3" timestamp="2022-03-31T05:17:57Z" changeset="119141262" uid="3497659" user="NKA">
		<tag k="historic" v="shieling" />
		<tag k="name" v="Heimresætre" />
		<tag k="place" v="isolated_dwelling" />
		<tag k="ssr:stedsnr" v="313206" />
	</node>
	<node id="3708602810" lat="61.6795972" lon="8.2318638" version="3" timestamp="2022-03-31T05:17:57Z" changeset="119141262" uid="3497659" user="NKA">
		<tag k="historic" v="shieling" />
		<tag k="name" v="Heimsetren" />
		<tag k="place" v="hamlet" />
		<tag k="ssr:stedsnr" v="131201" />
	</node>
	<node id="3708602811" lat="61.8309889" lon="8.8538805" version="3" timestamp="2022-03-31T05:17:57Z" changeset="119141262" uid="3497659" user="NKA">
		<tag k="historic" v="shieling" />
		<tag k="name" v="Hesthågåsætre" />
		<tag k="place" v="isolated_dwelling" />
		<tag k="ssr:stedsnr" v="696581" />
	</node>
	<node id="3708602812" lat="61.7152834" lon="8.202875" version="3" timestamp="2022-03-31T05:17:57Z" changeset="119141262" uid="3497659" user="NKA">
		<tag k="historic" v="shieling" />
		<tag k="name" v="Hosarsætre" />
		<tag k="place" v="isolated_dwelling" />
		<tag k="ssr:stedsnr" v="963613" />
	</node>
	<node id="3708602813" lat="61.7050556" lon="8.1842334" version="3" timestamp="2022-03-31T05:17:57Z" changeset="119141262" uid="3497659" user="NKA">
		<tag k="historic" v="shieling" />
		<tag k="name" v="Hovdestulen" />
		<tag k="place" v="isolated_dwelling" />
		<tag k="ssr:stedsnr" v="799140" />
	</node>
	<node id="3708602814" lat="61.9177361" lon="8.6527389" version="3" timestamp="2022-03-31T05:17:57Z" changeset="119141262" uid="3497659" user="NKA">
		<tag k="historic" v="shieling" />
		<tag k="name" v="Hågåsætre" />
		<tag k="place" v="isolated_dwelling" />
		<tag k="ssr:stedsnr" v="539492" />
	</node>
	<node id="3708602816" lat="61.9171695" lon="8.6620805" version="3" timestamp="2022-03-31T05:17:57Z" changeset="119141262" uid="3497659" user="NKA">
		<tag k="historic" v="shieling" />
		<tag k="name" v="Kjekasætre" />
		<tag k="place" v="isolated_dwelling" />
		<tag k="ssr:stedsnr" v="357490" />
	</node>
	<node id="3708602817" lat="61.7387" lon="8.8691834" version="3" timestamp="2022-03-31T05:17:57Z" changeset="119141262" uid="3497659" user="NKA">
		<tag k="historic" v="shieling" />
		<tag k="name" v="Kjestadstugu" />
		<tag k="place" v="isolated_dwelling" />
		<tag k="ssr:stedsnr" v="617936" />
	</node>
	<node id="3708602818" lat="61.8333084" lon="8.6473805" version="3" timestamp="2022-03-31T05:17:57Z" changeset="119141262" uid="3497659" user="NKA">
		<tag k="historic" v="shieling" />
		<tag k="name" v="Kjæstadsætre" />
		<tag k="place" v="isolated_dwelling" />
		<tag k="ssr:stedsnr" v="210862" />
	</node>
	<node id="3708602819" lat="61.9400472" lon="8.8675195" version="3" timestamp="2022-03-31T05:17:57Z" changeset="119141262" uid="3497659" user="NKA">
		<tag k="historic" v="shieling" />
		<tag k="name" v="Kolstad sætre" />
		<tag k="place" v="isolated_dwelling" />
		<tag k="ssr:stedsnr" v="660723" />
	</node>
	<node id="3708602820" lat="61.665113" lon="8.1511661" version="3" timestamp="2022-03-31T05:17:57Z" changeset="119141262" uid="3497659" user="NKA">
		<tag k="historic" v="shieling" />
		<tag k="name" v="Krokasætre" />
		<tag k="place" v="isolated_dwelling" />
		<tag k="ssr:stedsnr" v="131195" />
	</node>
	<node id="3708602821" lat="61.7142722" lon="8.2050751" version="3" timestamp="2022-03-31T05:17:57Z" changeset="119141262" uid="3497659" user="NKA">
		<tag k="historic" v="shieling" />
		<tag k="name" v="Kummesætre" />
		<tag k="place" v="isolated_dwelling" />
		<tag k="ssr:stedsnr" v="539569" />
	</node>
	<node id="3708602822" lat="61.7119317" lon="8.2315677" version="3" timestamp="2022-03-31T05:17:57Z" changeset="119141262" uid="3497659" user="NKA">
		<tag k="alt_name" v="Kveinndalen" />
		<tag k="historic" v="shieling" />
		<tag k="name" v="Kvanndalen" />
		<tag k="place" v="isolated_dwelling" />
		<tag k="ssr:stedsnr" v="373125" />
	</node>
	<node id="3708602823" lat="61.6485861" lon="8.1051249" version="3" timestamp="2022-03-31T05:17:57Z" changeset="119141262" uid="3497659" user="NKA">
		<tag k="historic" v="shieling" />
		<tag k="name" v="Kvålssætre" />
		<tag k="place" v="isolated_dwelling" />
		<tag k="ssr:stedsnr" v="357686" />
	</node>
	<node id="3708602824" lat="61.8295056" lon="8.6372139" version="3" timestamp="2022-03-31T05:17:57Z" changeset="119141262" uid="3497659" user="NKA">
		<tag k="historic" v="shieling" />
		<tag k="name" v="Kvålssætre" />
		<tag k="place" v="isolated_dwelling" />
		<tag k="ssr:stedsnr" v="28875" />
	</node>
	<node id="3708603025" lat="61.8240611" lon="8.6117584" version="3" timestamp="2022-03-31T05:17:57Z" changeset="119141262" uid="3497659" user="NKA">
		<tag k="historic" v="shieling" />
		<tag k="name" v="Labben" />
		<tag k="place" v="isolated_dwelling" />
		<tag k="ssr:stedsnr" v="131215" />
	</node>
	<node id="3708603026" lat="61.7701639" lon="8.3911694" version="3" timestamp="2022-03-31T05:17:57Z" changeset="119141262" uid="3497659" user="NKA">
		<tag k="alt_name" v="Leiksætre" />
		<tag k="historic" v="shieling" />
		<tag k="name" v="Leiksæter" />
		<tag k="place" v="isolated_dwelling" />
		<tag k="ssr:stedsnr" v="10997" />
	</node>
	<node id="3708603027" lat="61.7011805" lon="8.2341805" version="3" timestamp="2022-03-31T05:17:57Z" changeset="119141262" uid="3497659" user="NKA">
		<tag k="historic" v="shieling" />
		<tag k="name" v="Leiråsen" />
		<tag k="place" v="isolated_dwelling" />
		<tag k="ssr:stedsnr" v="720764" />
	</node>
	<node id="3708603028" lat="61.7051" lon="8.2409695" version="3" timestamp="2022-03-31T05:17:57Z" changeset="119141262" uid="3497659" user="NKA">
		<tag k="historic" v="shieling" />
		<tag k="name" v="Leiråssætre" />
		<tag k="place" v="isolated_dwelling" />
		<tag k="ssr:stedsnr" v="738139" />
	</node>
	<node id="3708603029" lat="61.8838972" lon="8.7974945" version="3" timestamp="2022-03-31T05:17:57Z" changeset="119141262" uid="3497659" user="NKA">
		<tag k="alt_name" v="Liasætren" />
		<tag k="historic" v="shieling" />
		<tag k="name" v="Liasætrin" />
		<tag k="place" v="hamlet" />
		<tag k="ssr:stedsnr" v="435140" />
	</node>
	<node id="3708603030" lat="61.7014528" lon="8.2375445" version="3" timestamp="2022-03-31T05:17:57Z" changeset="119141262" uid="3497659" user="NKA">
		<tag k="historic" v="shieling" />
		<tag k="name" v="Lundsætre" />
		<tag k="place" v="isolated_dwelling" />
		<tag k="ssr:stedsnr" v="720776" />
	</node>
	<node id="3708603031" lat="61.7167723" lon="8.2223223" version="3" timestamp="2022-03-31T05:17:57Z" changeset="119141262" uid="3497659" user="NKA">
		<tag k="historic" v="shieling" />
		<tag k="name" v="Maurstadsætre" />
		<tag k="place" v="isolated_dwelling" />
		<tag k="ssr:stedsnr" v="781576" />
	</node>
	<node id="3708603032" lat="61.8325889" lon="8.6432556" version="3" timestamp="2022-03-31T05:17:57Z" changeset="119141262" uid="3497659" user="NKA">
		<tag k="alt_name" v="Meadalssætren" />
		<tag k="historic" v="shieling" />
		<tag k="name" v="Meadalssætrin" />
		<tag k="place" v="hamlet" />
		<tag k="ssr:stedsnr" v="356022" />
	</node>
	<node id="3708603033" lat="61.91685" lon="8.6375251" version="3" timestamp="2022-03-31T05:17:57Z" changeset="119141262" uid="3497659" user="NKA">
		<tag k="historic" v="shieling" />
		<tag k="name" v="Midtre Ramstad sætre" />
		<tag k="place" v="isolated_dwelling" />
		<tag k="ssr:stedsnr" v="903498" />
	</node>
	<node id="3708603034" lat="61.7486028" lon="8.9341861" version="3" timestamp="2022-03-31T05:17:57Z" changeset="119141262" uid="3497659" user="NKA">
		<tag k="historic" v="shieling" />
		<tag k="name" v="Mosætre" />
		<tag k="place" v="isolated_dwelling" />
		<tag k="ssr:stedsnr" v="707352" />
	</node>
	<node id="3708603035" lat="61.6984306" lon="8.3140917" version="3" timestamp="2022-03-31T05:17:57Z" changeset="119141262" uid="3497659" user="NKA">
		<tag k="historic" v="shieling" />
		<tag k="name" v="Mytingje" />
		<tag k="place" v="isolated_dwelling" />
		<tag k="ssr:stedsnr" v="192150" />
	</node>
	<node id="3708603036" lat="61.6666861" lon="8.1358167" version="3" timestamp="2022-03-31T05:17:57Z" changeset="119141262" uid="3497659" user="NKA">
		<tag k="historic" v="shieling" />
		<tag k="name" v="Måfå" />
		<tag k="place" v="isolated_dwelling" />
		<tag k="ssr:stedsnr" v="859182" />
	</node>
	<node id="3708603037" lat="61.9304695" lon="8.7779529" version="3" timestamp="2022-03-31T05:17:57Z" changeset="119141262" uid="3497659" user="NKA">
		<tag k="historic" v="shieling" />
		<tag k="name" v="Nedre Håvesætre" />
		<tag k="place" v="isolated_dwelling" />
		<tag k="ssr:stedsnr" v="903713" />
	</node>
	<node id="3708603038" lat="61.7154528" lon="8.2220279" version="3" timestamp="2022-03-31T05:17:57Z" changeset="119141262" uid="3497659" user="NKA">
		<tag k="historic" v="shieling" />
		<tag k="name" v="Nerholsætre" />
		<tag k="place" v="isolated_dwelling" />
		<tag k="ssr:stedsnr" v="843573" />
	</node>
	<node id="3708603039" lat="61.771475" lon="8.4392083" version="3" timestamp="2022-03-31T05:17:57Z" changeset="119141262" uid="3497659" user="NKA">
		<tag k="historic" v="shieling" />
		<tag k="name" v="Nerhovde" />
		<tag k="place" v="isolated_dwelling" />
		<tag k="ssr:stedsnr" v="235075" />
	</node>
	<node id="3708603040" lat="61.7727083" lon="8.4481723" version="3" timestamp="2022-03-31T05:17:57Z" changeset="119141262" uid="3497659" user="NKA">
		<tag k="alt_name" v="Nerhovde" />
		<tag k="historic" v="shieling" />
		<tag k="name" v="Nerhovdsætri" />
		<tag k="place" v="isolated_dwelling" />
		<tag k="ssr:stedsnr" v="132000" />
	</node>
	<node id="3708603041" lat="61.7156944" lon="8.2159001" version="3" timestamp="2022-03-31T05:17:57Z" changeset="119141262" uid="3497659" user="NKA">
		<tag k="historic" v="shieling" />
		<tag k="name" v="Nerstulen" />
		<tag k="place" v="isolated_dwelling" />
		<tag k="ssr:stedsnr" v="175557" />
	</node>
	<node id="3708603042" lat="61.7186778" lon="8.203725" version="3" timestamp="2022-03-31T05:17:57Z" changeset="119141262" uid="3497659" user="NKA">
		<tag k="historic" v="shieling" />
		<tag k="name" v="Netosætre" />
		<tag k="place" v="isolated_dwelling" />
		<tag k="ssr:stedsnr" v="70132" />
	</node>
	<node id="3708603043" lat="61.9403083" lon="8.8618666" version="3" timestamp="2022-03-31T05:17:57Z" changeset="119141262" uid="3497659" user="NKA">
		<tag k="historic" v="shieling" />
		<tag k="name" v="Nigard Bøje sætre" />
		<tag k="place" v="isolated_dwelling" />
		<tag k="ssr:stedsnr" v="963758" />
	</node>
	<node id="3708603044" lat="61.9297437" lon="8.7782495" version="3" timestamp="2022-03-31T05:17:57Z" changeset="119141262" uid="3497659" user="NKA">
		<tag k="historic" v="shieling" />
		<tag k="name" v="Nistugun Rudsar" />
		<tag k="place" v="isolated_dwelling" />
		<tag k="ssr:stedsnr" v="478729" />
	</node>
	<node id="3708603045" lat="61.9288" lon="8.7739027" version="3" timestamp="2022-03-31T05:17:57Z" changeset="119141262" uid="3497659" user="NKA">
		<tag k="historic" v="shieling" />
		<tag k="name" v="Nordgard Rudsar" />
		<tag k="place" v="isolated_dwelling" />
		<tag k="ssr:stedsnr" v="114740" />
	</node>
	<node id="3708603046" lat="61.6561389" lon="8.1839418" version="3" timestamp="2022-03-31T05:17:57Z" changeset="119141262" uid="3497659" user="NKA">
		<tag k="historic" v="shieling" />
		<tag k="name" v="Nordistugun" />
		<tag k="place" v="isolated_dwelling" />
		<tag k="ssr:stedsnr" v="964686" />
	</node>
	<node id="3708603047" lat="61.9161139" lon="8.6462722" version="3" timestamp="2022-03-31T05:17:57Z" changeset="119141262" uid="3497659" user="NKA">
		<tag k="historic" v="shieling" />
		<tag k="name" v="Nordre Bakken sætre" />
		<tag k="place" v="isolated_dwelling" />
		<tag k="ssr:stedsnr" v="296493" />
	</node>
	<node id="3708603048" lat="61.9375833" lon="8.8866223" version="3" timestamp="2022-03-31T05:17:57Z" changeset="119141262" uid="3497659" user="NKA">
		<tag k="historic" v="shieling" />
		<tag k="name" v="Nordre Bustad sætre" />
		<tag k="place" v="isolated_dwelling" />
		<tag k="ssr:stedsnr" v="843334" />
	</node>
	<node id="3708603049" lat="61.9125528" lon="8.6467528" version="3" timestamp="2022-03-31T05:17:57Z" changeset="119141262" uid="3497659" user="NKA">
		<tag k="alt_name" v="Norstulen" />
		<tag k="historic" v="shieling" />
		<tag k="name" v="Nordstulen" />
		<tag k="place" v="isolated_dwelling" />
		<tag k="ssr:stedsnr" v="435939" />
	</node>
	<node id="3708603050" lat="61.8067305" lon="8.9146417" version="3" timestamp="2022-03-31T05:17:57Z" changeset="119141262" uid="3497659" user="NKA">
		<tag k="alt_name" v="Nordsætren" />
		<tag k="historic" v="shieling" />
		<tag k="name" v="Nordsætrin" />
		<tag k="place" v="hamlet" />
		<tag k="ssr:stedsnr" v="616443" />
	</node>
	<node id="3708603051" lat="61.6618862" lon="8.018739" version="3" timestamp="2022-03-31T05:17:57Z" changeset="119141262" uid="3497659" user="NKA">
		<tag k="historic" v="shieling" />
		<tag k="name" v="Nyhussætre" />
		<tag k="place" v="isolated_dwelling" />
		<tag k="ssr:stedsnr" v="842711" />
	</node>
	<node id="3708603052" lat="61.8715666" lon="8.8200416" version="3" timestamp="2022-03-31T05:17:57Z" changeset="119141262" uid="3497659" user="NKA">
		<tag k="historic" v="shieling" />
		<tag k="name" v="Nyrnessætre" />
		<tag k="place" v="isolated_dwelling" />
		<tag k="ssr:stedsnr" v="660256" />
	</node>
	<node id="3708603053" lat="61.7541194" lon="8.9384833" version="3" timestamp="2022-03-31T05:17:57Z" changeset="119141262" uid="3497659" user="NKA">
		<tag k="alt_name" v="Nåvårsæter;Nåvårsætren" />
		<tag k="historic" v="shieling" />
		<tag k="name" v="Nåvårsætrin" />
		<tag k="place" v="hamlet" />
		<tag k="ssr:stedsnr" v="435451" />
	</node>
	<node id="3708603054" lat="61.6367417" lon="8.0502723" version="3" timestamp="2022-03-31T05:17:57Z" changeset="119141262" uid="3497659" user="NKA">
		<tag k="historic" v="shieling" />
		<tag k="name" v="Nørdre Bakkebergsætre" />
		<tag k="place" v="isolated_dwelling" />
		<tag k="ssr:stedsnr" v="904675" />
	</node>
	<node id="3708603055" lat="61.8304222" lon="8.8063667" version="3" timestamp="2022-03-31T05:17:57Z" changeset="119141262" uid="3497659" user="NKA">
		<tag k="alt_name" v="Bjørnalii, nordre" />
		<tag k="historic" v="shieling" />
		<tag k="name" v="Nørdre Bjønnalie" />
		<tag k="place" v="isolated_dwelling" />
		<tag k="ssr:stedsnr" v="10022" />
	</node>
	<node id="3708603056" lat="61.7174889" lon="8.2155499" version="3" timestamp="2022-03-31T05:17:57Z" changeset="119141262" uid="3497659" user="NKA">
		<tag k="historic" v="shieling" />
		<tag k="name" v="Nørdre Gjeilosætre" />
		<tag k="place" v="isolated_dwelling" />
		<tag k="ssr:stedsnr" v="235608" />
	</node>
	<node id="3708603057" lat="61.6628502" lon="8.0240844" version="3" timestamp="2022-03-31T05:17:57Z" changeset="119141262" uid="3497659" user="NKA">
		<tag k="alt_name" v="Høydalen, nordre" />
		<tag k="historic" v="shieling" />
		<tag k="name" v="Nørdre Høydalen" />
		<tag k="place" v="hamlet" />
		<tag k="ssr:stedsnr" v="799503" />
	</node>
	<node id="3708603058" lat="61.7036583" lon="8.2209222" version="3" timestamp="2022-03-31T05:17:57Z" changeset="119141262" uid="3497659" user="NKA">
		<tag k="historic" v="shieling" />
		<tag k="name" v="Nørdre Kvammesætre" />
		<tag k="place" v="isolated_dwelling" />
		<tag k="ssr:stedsnr" v="192146" />
	</node>
	<node id="3708603059" lat="61.9383972" lon="8.8672278" version="3" timestamp="2022-03-31T05:17:57Z" changeset="119141262" uid="3497659" user="NKA">
		<tag k="historic" v="shieling" />
		<tag k="name" v="Nørdre Ramstad" />
		<tag k="place" v="isolated_dwelling" />
		<tag k="ssr:stedsnr" v="418704" />
	</node>
	<node id="3708603060" lat="61.703575" lon="8.1922666" version="3" timestamp="2022-03-31T05:17:57Z" changeset="119141262" uid="3497659" user="NKA">
		<tag k="historic" v="shieling" />
		<tag k="name" v="Nørstnes-hågåsætre" />
		<tag k="place" v="isolated_dwelling" />
		<tag k="ssr:stedsnr" v="113484" />
	</node>
	<node id="3708603061" lat="61.7151556" lon="8.2142194" version="3" timestamp="2022-03-31T05:17:57Z" changeset="119141262" uid="3497659" user="NKA">
		<tag k="historic" v="shieling" />
		<tag k="name" v="Nørstnessætre" />
		<tag k="place" v="isolated_dwelling" />
		<tag k="ssr:stedsnr" v="903552" />
	</node>
	<node id="3708603062" lat="61.9366945" lon="8.8842277" version="3" timestamp="2022-03-31T05:17:57Z" changeset="119141262" uid="3497659" user="NKA">
		<tag k="alt_name" v="Gjerdingodden" />
		<tag k="historic" v="shieling" />
		<tag k="name" v="Odden" />
		<tag k="place" v="isolated_dwelling" />
		<tag k="ssr:stedsnr" v="921128" />
	</node>
	<node id="3708603063" lat="61.6373472" lon="8.0515305" version="3" timestamp="2022-03-31T05:17:57Z" changeset="119141262" uid="3497659" user="NKA">
		<tag k="historic" v="shieling" />
		<tag k="name" v="Opphaugsætre" />
		<tag k="place" v="isolated_dwelling" />
		<tag k="ssr:stedsnr" v="115658" />
	</node>
	<node id="3708603064" lat="61.8302166" lon="8.8618222" version="3" timestamp="2022-03-31T05:17:57Z" changeset="119141262" uid="3497659" user="NKA">
		<tag k="historic" v="shieling" />
		<tag k="name" v="Oppigard Garmosætre" />
		<tag k="place" v="isolated_dwelling" />
		<tag k="ssr:stedsnr" v="210600" />
	</node>
	<node id="3708603065" lat="61.7158333" lon="8.2194361" version="3" timestamp="2022-03-31T05:17:57Z" changeset="119141262" uid="3497659" user="NKA">
		<tag k="historic" v="shieling" />
		<tag k="name" v="Prestjordsætre" />
		<tag k="place" v="isolated_dwelling" />
		<tag k="ssr:stedsnr" v="721551" />
	</node>
	<node id="3708603067" lat="61.7196361" lon="8.4039861" version="3" timestamp="2022-03-31T05:17:57Z" changeset="119141262" uid="3497659" user="NKA">
		<tag k="historic" v="shieling" />
		<tag k="name" v="Raudbergstulsætren" />
		<tag k="place" v="isolated_dwelling" />
		<tag k="ssr:stedsnr" v="920146" />
	</node>
	<node id="3708603068" lat="61.9305556" lon="8.7817806" version="3" timestamp="2022-03-31T05:17:57Z" changeset="119141262" uid="3497659" user="NKA">
		<tag k="historic" v="shieling" />
		<tag k="name" v="Rudsarsætren" />
		<tag k="place" v="isolated_dwelling" />
		<tag k="ssr:stedsnr" v="175726" />
	</node>
	<node id="3708603069" lat="61.6427056" lon="8.1001807" version="3" timestamp="2022-03-31T05:17:57Z" changeset="119141262" uid="3497659" user="NKA">
		<tag k="historic" v="shieling" />
		<tag k="name" v="Rustasætre" />
		<tag k="place" v="isolated_dwelling" />
		<tag k="ssr:stedsnr" v="10192" />
	</node>
	<node id="3708603070" lat="61.9311084" lon="8.7926278" version="3" timestamp="2022-03-31T05:17:57Z" changeset="119141262" uid="3497659" user="NKA">
		<tag k="historic" v="shieling" />
		<tag k="name" v="Selbu" />
		<tag k="place" v="isolated_dwelling" />
		<tag k="ssr:stedsnr" v="436873" />
	</node>
	<node id="3708603071" lat="61.6995639" lon="8.2364167" version="3" timestamp="2022-03-31T05:17:57Z" changeset="119141262" uid="3497659" user="NKA">
		<tag k="historic" v="shieling" />
		<tag k="name" v="Skamsdalssætre" />
		<tag k="place" v="isolated_dwelling" />
		<tag k="ssr:stedsnr" v="435159" />
	</node>
	<node id="3708603072" lat="61.8312806" lon="8.6377028" version="3" timestamp="2022-03-31T05:17:57Z" changeset="119141262" uid="3497659" user="NKA">
		<tag k="historic" v="shieling" />
		<tag k="name" v="Skånsarsætre" />
		<tag k="place" v="isolated_dwelling" />
		<tag k="ssr:stedsnr" v="635806" />
	</node>
	<node id="3708603073" lat="61.8402334" lon="8.6584334" version="3" timestamp="2022-03-31T05:17:57Z" changeset="119141262" uid="3497659" user="NKA">
		<tag k="alt_name" v="Skårådalssætre" />
		<tag k="historic" v="shieling" />
		<tag k="name" v="Skårådalssætri" />
		<tag k="place" v="isolated_dwelling" />
		<tag k="ssr:stedsnr" v="356007" />
	</node>
	<node id="3708603074" lat="61.8311666" lon="8.6460361" version="3" timestamp="2022-03-31T05:17:57Z" changeset="119141262" uid="3497659" user="NKA">
		<tag k="historic" v="shieling" />
		<tag k="name" v="Slettasætre" />
		<tag k="place" v="isolated_dwelling" />
		<tag k="ssr:stedsnr" v="514799" />
	</node>
	<node id="3708603075" lat="61.7211723" lon="8.7288611" version="3" timestamp="2022-03-31T05:17:57Z" changeset="119141262" uid="3497659" user="NKA">
		<tag k="historic" v="shieling" />
		<tag k="name" v="Smådalssætren" />
		<tag k="place" v="isolated_dwelling" />
		<tag k="ssr:stedsnr" v="131093" />
	</node>
	<node id="3708603076" lat="61.7423306" lon="8.8775001" version="3" timestamp="2022-03-31T05:17:57Z" changeset="119141262" uid="3497659" user="NKA">
		<tag k="alt_name" v="Smørlii" />
		<tag k="historic" v="shieling" />
		<tag k="name" v="Smørlie" />
		<tag k="place" v="hamlet" />
		<tag k="ssr:stedsnr" v="860957" />
	</node>
	<node id="3708603077" lat="61.7173583" lon="8.2114862" version="3" timestamp="2022-03-31T05:17:57Z" changeset="119141262" uid="3497659" user="NKA">
		<tag k="historic" v="shieling" />
		<tag k="name" v="Soglosætre" />
		<tag k="place" v="isolated_dwelling" />
		<tag k="ssr:stedsnr" v="721549" />
	</node>
	<node id="3708603078" lat="61.8355333" lon="8.651539" version="3" timestamp="2022-03-31T05:17:57Z" changeset="119141262" uid="3497659" user="NKA">
		<tag k="alt_name" v="Stamstadsætre" />
		<tag k="historic" v="shieling" />
		<tag k="name" v="Stamstadsætri" />
		<tag k="place" v="isolated_dwelling" />
		<tag k="ssr:stedsnr" v="253002" />
	</node>
	<node id="3708603079" lat="61.9172223" lon="8.6543918" version="3" timestamp="2022-03-31T05:17:57Z" changeset="119141262" uid="3497659" user="NKA">
		<tag k="historic" v="shieling" />
		<tag k="name" v="Staurustøygardsætre" />
		<tag k="place" v="isolated_dwelling" />
		<tag k="ssr:stedsnr" v="721508" />
	</node>
	<node id="3708603080" lat="61.8742361" lon="8.5317972" version="3" timestamp="2022-03-31T05:17:57Z" changeset="119141262" uid="3497659" user="NKA">
		<tag k="historic" v="shieling" />
		<tag k="name" v="Stavåsen" />
		<tag k="place" v="isolated_dwelling" />
		<tag k="ssr:stedsnr" v="131104" />
	</node>
	<node id="3708603081" lat="61.7139611" lon="8.2145306" version="3" timestamp="2022-03-31T05:17:57Z" changeset="119141262" uid="3497659" user="NKA">
		<tag k="historic" v="shieling" />
		<tag k="name" v="Stusnessætre" />
		<tag k="place" v="isolated_dwelling" />
		<tag k="ssr:stedsnr" v="357538" />
	</node>
	<node id="3708603082" lat="61.8221861" lon="8.5904972" version="3" timestamp="2022-03-31T05:17:57Z" changeset="119141262" uid="3497659" user="NKA">
		<tag k="historic" v="shieling" />
		<tag k="name" v="Stymme" />
		<tag k="place" v="isolated_dwelling" />
		<tag k="ssr:stedsnr" v="495237" />
	</node>
	<node id="3708603083" lat="61.8132092" lon="8.6414609" version="3" timestamp="2022-03-31T05:17:57Z" changeset="119141262" uid="3497659" user="NKA">
		<tag k="alt_name" v="Svartlii" />
		<tag k="historic" v="shieling" />
		<tag k="name" v="Svartlie" />
		<tag k="place" v="isolated_dwelling" />
		<tag k="ssr:stedsnr" v="859227" />
	</node>
	<node id="3708603084" lat="61.9298417" lon="8.7739638" version="3" timestamp="2022-03-31T05:17:57Z" changeset="119141262" uid="3497659" user="NKA">
		<tag k="historic" v="shieling" />
		<tag k="name" v="Sveine" />
		<tag k="place" v="isolated_dwelling" />
		<tag k="ssr:stedsnr" v="478726" />
	</node>
	<node id="3708603085" lat="61.65535" lon="8.1851722" version="3" timestamp="2022-03-31T05:17:57Z" changeset="119141262" uid="3497659" user="NKA">
		<tag k="historic" v="shieling" />
		<tag k="name" v="Synstnessætre" />
		<tag k="place" v="isolated_dwelling" />
		<tag k="ssr:stedsnr" v="721682" />
	</node>
	<node id="3708603086" lat="61.7972722" lon="8.6139751" version="3" timestamp="2022-03-31T05:17:57Z" changeset="119141262" uid="3497659" user="NKA">
		<tag k="historic" v="shieling" />
		<tag k="name" v="Sålell" />
		<tag k="place" v="hamlet" />
		<tag k="ssr:stedsnr" v="253237" />
	</node>
	<node id="3708603087" lat="61.8266833" lon="8.8226944" version="3" timestamp="2022-03-31T05:17:57Z" changeset="119141262" uid="3497659" user="NKA">
		<tag k="alt_name" v="Bjørnalii, s" />
		<tag k="historic" v="shieling" />
		<tag k="name" v="Søre Bjønnalie" />
		<tag k="place" v="isolated_dwelling" />
		<tag k="ssr:stedsnr" v="799013" />
	</node>
	<node id="3708603088" lat="61.8325556" lon="8.8547028" version="3" timestamp="2022-03-31T05:17:57Z" changeset="119141262" uid="3497659" user="NKA">
		<tag k="historic" v="shieling" />
		<tag k="name" v="Søre Garmosætre" />
		<tag k="place" v="isolated_dwelling" />
		<tag k="ssr:stedsnr" v="939592" />
	</node>
	<node id="3708603089" lat="61.6605666" lon="8.0573556" version="3" timestamp="2022-03-31T05:17:57Z" changeset="119141262" uid="3497659" user="NKA">
		<tag k="alt_name" v="Søre Høydalssætren;Høydalen, s" />
		<tag k="historic" v="shieling" />
		<tag k="name" v="Søre Høydalen" />
		<tag k="place" v="isolated_dwelling" />
		<tag k="ssr:stedsnr" v="131465" />
	</node>
	<node id="3708603090" lat="61.7062278" lon="8.2259639" version="3" timestamp="2022-03-31T05:17:57Z" changeset="119141262" uid="3497659" user="NKA">
		<tag k="historic" v="shieling" />
		<tag k="name" v="Søre Kvammesætre" />
		<tag k="place" v="isolated_dwelling" />
		<tag k="ssr:stedsnr" v="616120" />
	</node>
	<node id="3708603091" lat="61.7763389" lon="8.4716861" version="3" timestamp="2022-03-31T05:17:57Z" changeset="119141262" uid="3497659" user="NKA">
		<tag k="historic" v="shieling" />
		<tag k="name" v="Sørhovde" />
		<tag k="place" v="hamlet" />
		<tag k="ssr:stedsnr" v="314224" />
	</node>
	<node id="3708603092" lat="61.916825" lon="8.6595833" version="3" timestamp="2022-03-31T05:17:57Z" changeset="119141262" uid="3497659" user="NKA">
		<tag k="historic" v="shieling" />
		<tag k="name" v="Sørstulen" />
		<tag k="place" v="hamlet" />
		<tag k="ssr:stedsnr" v="132880" />
	</node>
	<node id="3708603093" lat="61.7499972" lon="8.4202639" version="3" timestamp="2022-03-31T05:17:57Z" changeset="119141262" uid="3497659" user="NKA">
		<tag k="historic" v="shieling" />
		<tag k="name" v="Tussheim" />
		<tag k="place" v="isolated_dwelling" />
		<tag k="ssr:stedsnr" v="478401" />
	</node>
	<node id="3708603095" lat="61.67435" lon="8.1381" version="3" timestamp="2022-03-31T05:17:57Z" changeset="119141262" uid="3497659" user="NKA">
		<tag k="alt_name" v="Ulvåt" />
		<tag k="historic" v="shieling" />
		<tag k="name" v="Ulvot" />
		<tag k="place" v="isolated_dwelling" />
		<tag k="ssr:stedsnr" v="799229" />
	</node>
	<node id="3708603096" lat="61.6590305" lon="8.1844889" version="3" timestamp="2022-03-31T05:17:57Z" changeset="119141262" uid="3497659" user="NKA">
		<tag k="historic" v="shieling" />
		<tag k="name" v="Uppistugun Synstnessætre" />
		<tag k="place" v="isolated_dwelling" />
		<tag k="ssr:stedsnr" v="297701" />
	</node>
	<node id="3708603097" lat="61.8200972" lon="8.6344445" version="3" timestamp="2022-03-31T05:17:57Z" changeset="119141262" uid="3497659" user="NKA">
		<tag k="alt_name" v="Vamhaug sæter" />
		<tag k="historic" v="shieling" />
		<tag k="name" v="Vamhaug" />
		<tag k="place" v="isolated_dwelling" />
		<tag k="ssr:stedsnr" v="252202" />
	</node>
	<node id="3708603098" lat="61.9303194" lon="8.7801389" version="3" timestamp="2022-03-31T05:17:57Z" changeset="119141262" uid="3497659" user="NKA">
		<tag k="historic" v="shieling" />
		<tag k="name" v="Vangsbakkjen" />
		<tag k="place" v="isolated_dwelling" />
		<tag k="ssr:stedsnr" v="903714" />
	</node>
	<node id="3708603099" lat="61.9418806" lon="8.8668639" version="3" timestamp="2022-03-31T05:17:57Z" changeset="119141262" uid="3497659" user="NKA">
		<tag k="historic" v="shieling" />
		<tag k="name" v="Vangsætren" />
		<tag k="place" v="isolated_dwelling" />
		<tag k="ssr:stedsnr" v="903726" />
	</node>
	<node id="3708603100" lat="61.6686472" lon="8.1319833" version="3" timestamp="2022-03-31T05:17:57Z" changeset="119141262" uid="3497659" user="NKA">
		<tag k="historic" v="shieling" />
		<tag k="name" v="Vassenden" />
		<tag k="place" v="isolated_dwelling" />
		<tag k="ssr:stedsnr" v="798198" />
	</node>
	<node id="3708603101" lat="61.6883417" lon="8.1584445" version="3" timestamp="2022-03-31T05:17:57Z" changeset="119141262" uid="3497659" user="NKA">
		<tag k="historic" v="shieling" />
		<tag k="name" v="Vekkjesætre" />
		<tag k="place" v="isolated_dwelling" />
		<tag k="ssr:stedsnr" v="71251" />
	</node>
	<node id="3708603102" lat="61.7007556" lon="8.2828806" version="3" timestamp="2022-03-31T05:17:57Z" changeset="119141262" uid="3497659" user="NKA">
		<tag k="historic" v="shieling" />
		<tag k="name" v="Vesløygarden" />
		<tag k="place" v="isolated_dwelling" />
		<tag k="ssr:stedsnr" v="131132" />
	</node>
	<node id="3708603104" lat="61.7724778" lon="8.4638194" version="3" timestamp="2022-03-31T05:17:57Z" changeset="119141262" uid="3497659" user="NKA">
		<tag k="historic" v="shieling" />
		<tag k="name" v="Vågåsarsætre" />
		<tag k="place" v="isolated_dwelling" />
		<tag k="ssr:stedsnr" v="357111" />
	</node>
	<node id="3708603105" lat="61.7743861" lon="8.4687861" version="3" timestamp="2022-03-31T05:17:57Z" changeset="119141262" uid="3497659" user="NKA">
		<tag k="historic" v="shieling" />
		<tag k="name" v="Vågåsarøygardsætre" />
		<tag k="place" v="isolated_dwelling" />
		<tag k="ssr:stedsnr" v="478101" />
	</node>
	<node id="3708603106" lat="61.7065333" lon="8.2451501" version="3" timestamp="2022-03-31T05:17:57Z" changeset="119141262" uid="3497659" user="NKA">
		<tag k="historic" v="shieling" />
		<tag k="name" v="Vålvålsætre" />
		<tag k="place" v="isolated_dwelling" />
		<tag k="ssr:stedsnr" v="313151" />
	</node>
	<node id="3708603107" lat="61.6567271" lon="8.1835529" version="3" timestamp="2022-03-31T05:17:57Z" changeset="119141262" uid="3497659" user="NKA">
		<tag k="historic" v="shieling" />
		<tag k="name" v="Ytterdalssætre" />
		<tag k="place" v="isolated_dwelling" />
		<tag k="ssr:stedsnr" v="434181" />
	</node>
	<node id="3708603108" lat="61.6622389" lon="8.019925" version="3" timestamp="2022-03-31T05:17:57Z" changeset="119141262" uid="3497659" user="NKA">
		<tag k="historic" v="shieling" />
		<tag k="name" v="Åkerjordsætre" />
		<tag k="place" v="isolated_dwelling" />
		<tag k="ssr:stedsnr" v="357681" />
	</node>
	<node id="3708603109" lat="61.9167972" lon="8.6463361" version="3" timestamp="2022-03-31T05:17:57Z" changeset="119141262" uid="3497659" user="NKA">
		<tag k="historic" v="shieling" />
		<tag k="name" v="Øvre Bakken sætre" />
		<tag k="place" v="isolated_dwelling" />
		<tag k="ssr:stedsnr" v="296494" />
	</node>
	<node id="3708603110" lat="61.9305889" lon="8.7734028" version="3" timestamp="2022-03-31T05:17:57Z" changeset="119141262" uid="3497659" user="NKA">
		<tag k="historic" v="shieling" />
		<tag k="name" v="Øvre Hjeltar" />
		<tag k="place" v="isolated_dwelling" />
		<tag k="ssr:stedsnr" v="903710" />
	</node>
	<node id="3708603111" lat="61.9369417" lon="8.8830334" version="3" timestamp="2022-03-31T05:17:57Z" changeset="119141262" uid="3497659" user="NKA">
		<tag k="historic" v="shieling" />
		<tag k="name" v="Øvre Håve sætre" />
		<tag k="place" v="isolated_dwelling" />
		<tag k="ssr:stedsnr" v="782317" />
	</node>
	<node id="3708603112" lat="61.9123389" lon="8.6501612" version="3" timestamp="2022-03-31T05:17:57Z" changeset="119141262" uid="3497659" user="NKA">
		<tag k="historic" v="shieling" />
		<tag k="name" v="Øygardsætre" />
		<tag k="place" v="isolated_dwelling" />
		<tag k="ssr:stedsnr" v="357576" />
	</node>
	<node id="3712365843" lat="61.7490679" lon="8.3849426" version="2" timestamp="2022-03-31T05:17:57Z" changeset="119141262" uid="3497659" user="NKA">
		<tag k="name" v="Røysheim" />
		<tag k="place" v="farm" />
		<tag k="ssr:stedsnr" v="738188" />
	</node>
	<node id="3712462291" lat="61.6756778" lon="8.7349667" version="2" timestamp="2022-03-31T05:17:57Z" changeset="119141262" uid="3497659" user="NKA">
		<tag k="name" v="Grønbue" />
		<tag k="place" v="isolated_dwelling" />
		<tag k="ssr:stedsnr" v="495093" />
	</node>
	<node id="6236538541" lat="61.7207309" lon="8.3484503" version="2" timestamp="2022-03-31T05:17:57Z" changeset="119141262" uid="3497659" user="NKA">
		<tag k="alt_name" v="Bøverdal" />
		<tag k="name" v="Galdesanden" />
		<tag k="place" v="quarter" />
		<tag k="ssr:stedsnr" v="859124" />
	</node>
	<node id="9625551189" lat="61.7556685" lon="8.3911892" version="1" timestamp="2022-03-31T05:17:57Z" changeset="119141262" uid="3497659" user="NKA">
		<tag k="name" v="Gaupar" />
		<tag k="place" v="farm" />
		<tag k="ssr:stedsnr" v="984399" />
	</node>
	<node id="9625551190" lat="61.8237678" lon="8.5270574" version="1" timestamp="2022-03-31T05:17:57Z" changeset="119141262" uid="3497659" user="NKA">
		<tag k="name" v="Marstein" />
		<tag k="place" v="hamlet" />
		<tag k="ssr:stedsnr" v="984386" />
	</node>
	<node id="9625551191" lat="61.8182993" lon="8.4935553" version="1" timestamp="2022-03-31T05:17:57Z" changeset="119141262" uid="3497659" user="NKA">
		<tag k="name" v="Aukrust" />
		<tag k="place" v="hamlet" />
		<tag k="ssr:stedsnr" v="984381" />
	</node>
	<node id="9625551192" lat="61.8146297" lon="8.5128459" version="1" timestamp="2022-03-31T05:17:57Z" changeset="119141262" uid="3497659" user="NKA">
		<tag k="name" v="Nørjordet" />
		<tag k="place" v="farm" />
		<tag k="ssr:stedsnr" v="984366" />
	</node>
	<node id="9625551193" lat="61.747675" lon="8.4149806" version="1" timestamp="2022-03-31T05:17:57Z" changeset="119141262" uid="3497659" user="NKA">
		<tag k="name" v="Tande" />
		<tag k="place" v="farm" />
		<tag k="ssr:stedsnr" v="963492" />
	</node>
	<node id="9625551194" lat="61.8024573" lon="8.4478831" version="1" timestamp="2022-03-31T05:17:57Z" changeset="119141262" uid="3497659" user="NKA">
		<tag k="name" v="Oksle" />
		<tag k="place" v="farm" />
		<tag k="ssr:stedsnr" v="964035" />
	</node>
	<node id="9625551195" lat="61.7940666" lon="8.4432278" version="1" timestamp="2022-03-31T05:17:57Z" changeset="119141262" uid="3497659" user="NKA">
		<tag k="alt_name" v="Ule" />
		<tag k="name" v="Urdi" />
		<tag k="place" v="farm" />
		<tag k="ssr:stedsnr" v="920953" />
	</node>
	<node id="9625551196" lat="61.7520344" lon="8.3983951" version="1" timestamp="2022-03-31T05:17:57Z" changeset="119141262" uid="3497659" user="NKA">
		<tag k="alt_name" v="Øyjordet" />
		<tag k="name" v="Øyjordi" />
		<tag k="place" v="farm" />
		<tag k="ssr:stedsnr" v="921961" />
	</node>
	<node id="9625551197" lat="61.8163848" lon="8.4854757" version="1" timestamp="2022-03-31T05:17:57Z" changeset="119141262" uid="3497659" user="NKA">
		<tag k="alt_name" v="Gutebø" />
		<tag k="name" v="Gutubø" />
		<tag k="place" v="farm" />
		<tag k="ssr:stedsnr" v="920209" />
	</node>
	<node id="9625551198" lat="61.8149445" lon="8.5082918" version="1" timestamp="2022-03-31T05:17:57Z" changeset="119141262" uid="3497659" user="NKA">
		<tag k="name" v="Kvemillom" />
		<tag k="place" v="farm" />
		<tag k="ssr:stedsnr" v="815156" />
	</node>
	<node id="9625551199" lat="61.7159584" lon="8.2107749" version="1" timestamp="2022-03-31T05:17:57Z" changeset="119141262" uid="3497659" user="NKA">
		<tag k="name" v="Neto" />
		<tag k="place" v="hamlet" />
		<tag k="ssr:stedsnr" v="903555" />
	</node>
	<node id="9625551200" lat="61.8233151" lon="8.5164797" version="1" timestamp="2022-03-31T05:17:57Z" changeset="119141262" uid="3497659" user="NKA">
		<tag k="name" v="Øverbø" />
		<tag k="place" v="farm" />
		<tag k="ssr:stedsnr" v="799233" />
	</node>
	<node id="9625551201" lat="61.7875944" lon="8.4476418" version="1" timestamp="2022-03-31T05:17:57Z" changeset="119141262" uid="3497659" user="NKA">
		<tag k="alt_name" v="Vekkjøygarden" />
		<tag k="name" v="Vesløygarden" />
		<tag k="place" v="farm" />
		<tag k="ssr:stedsnr" v="799995" />
	</node>
	<node id="9625551202" lat="61.720325" lon="8.3365306" version="1" timestamp="2022-03-31T05:17:57Z" changeset="119141262" uid="3497659" user="NKA">
		<tag k="name" v="Nordgard Galde" />
		<tag k="place" v="farm" />
		<tag k="ssr:stedsnr" v="781329" />
	</node>
	<node id="9625551203" lat="61.811325" lon="8.4725445" version="1" timestamp="2022-03-31T05:17:57Z" changeset="119141262" uid="3497659" user="NKA">
		<tag k="alt_name" v="Krøkjehaugen" />
		<tag k="name" v="Vålvål" />
		<tag k="place" v="farm" />
		<tag k="ssr:stedsnr" v="738246" />
	</node>
	<node id="9625551204" lat="61.7282666" lon="8.3659306" version="1" timestamp="2022-03-31T05:17:57Z" changeset="119141262" uid="3497659" user="NKA">
		<tag k="name" v="Vollakvee" />
		<tag k="place" v="farm" />
		<tag k="ssr:stedsnr" v="781267" />
	</node>
	<node id="9625551205" lat="61.8038829" lon="8.4486634" version="1" timestamp="2022-03-31T05:17:57Z" changeset="119141262" uid="3497659" user="NKA">
		<tag k="name" v="Åmillom" />
		<tag k="place" v="farm" />
		<tag k="ssr:stedsnr" v="678918" />
	</node>
	<node id="9625551206" lat="61.8162528" lon="8.5087139" version="1" timestamp="2022-03-31T05:17:57Z" changeset="119141262" uid="3497659" user="NKA">
		<tag k="name" v="Haugro" />
		<tag k="place" v="farm" />
		<tag k="ssr:stedsnr" v="693171" />
	</node>
	<node id="9625551207" lat="61.7689481" lon="8.4236677" version="1" timestamp="2022-03-31T05:17:57Z" changeset="119141262" uid="3497659" user="NKA">
		<tag k="name" v="Glømsdal" />
		<tag k="place" v="farm" />
		<tag k="ssr:stedsnr" v="617994" />
	</node>
	<node id="9625551208" lat="61.7312557" lon="8.3750569" version="1" timestamp="2022-03-31T05:17:57Z" changeset="119141262" uid="3497659" user="NKA">
		<tag k="name" v="Repp" />
		<tag k="place" v="farm" />
		<tag k="ssr:stedsnr" v="616148" />
	</node>
	<node id="9625551209" lat="61.8090833" lon="8.4711139" version="1" timestamp="2022-03-31T05:17:57Z" changeset="119141262" uid="3497659" user="NKA">
		<tag k="name" v="Løkøye" />
		<tag k="place" v="farm" />
		<tag k="ssr:stedsnr" v="616220" />
	</node>
	<node id="9625551210" lat="61.8175948" lon="8.4959513" version="1" timestamp="2022-03-31T05:17:57Z" changeset="119141262" uid="3497659" user="NKA">
		<tag k="alt_name" v="Aukrust" />
		<tag k="name" v="Nordgard Aukrust" />
		<tag k="place" v="farm" />
		<tag k="ssr:stedsnr" v="495229" />
	</node>
	<node id="9625551211" lat="61.6859944" lon="8.2478583" version="1" timestamp="2022-03-31T05:17:57Z" changeset="119141262" uid="3497659" user="NKA">
		<tag k="name" v="Vesllihaugen" />
		<tag k="place" v="farm" />
		<tag k="ssr:stedsnr" v="598718" />
	</node>
	<node id="9625551212" lat="61.7997176" lon="8.4438886" version="1" timestamp="2022-03-31T05:17:57Z" changeset="119141262" uid="3497659" user="NKA">
		<tag k="name" v="Borgen" />
		<tag k="place" v="farm" />
		<tag k="ssr:stedsnr" v="478028" />
	</node>
	<node id="9625551213" lat="61.7007833" lon="8.2826529" version="1" timestamp="2022-03-31T05:17:57Z" changeset="119141262" uid="3497659" user="NKA">
		<tag k="historic" v="shieling" />
		<tag k="name" v="Heimesætri" />
		<tag k="place" v="isolated_dwelling" />
		<tag k="ssr:stedsnr" v="495158" />
	</node>
	<node id="9625551214" lat="61.7070583" lon="8.4444416" version="1" timestamp="2022-03-31T05:17:57Z" changeset="119141262" uid="3497659" user="NKA">
		<tag k="name" v="Langstulen" />
		<tag k="place" v="isolated_dwelling" />
		<tag k="ssr:stedsnr" v="313244" />
	</node>
	<node id="9625551215" lat="61.7289214" lon="8.3715706" version="1" timestamp="2022-03-31T05:17:57Z" changeset="119141262" uid="3497659" user="NKA">
		<tag k="name" v="Mundgjelsøygarden" />
		<tag k="place" v="farm" />
		<tag k="ssr:stedsnr" v="374183" />
	</node>
	<node id="9625551216" lat="61.6850305" lon="8.2362278" version="1" timestamp="2022-03-31T05:17:57Z" changeset="119141262" uid="3497659" user="NKA">
		<tag k="name" v="Midtlie" />
		<tag k="place" v="farm" />
		<tag k="ssr:stedsnr" v="295744" />
	</node>
	<node id="9625568617" lat="61.7148527" lon="8.3015222" version="1" timestamp="2022-03-31T05:17:57Z" changeset="119141262" uid="3497659" user="NKA">
		<tag k="name" v="Rustahaugen" />
		<tag k="place" v="locality" />
		<tag k="ssr:stedsnr" v="296280" />
	</node>
	<node id="9625568618" lat="61.7217094" lon="8.3538691" version="1" timestamp="2022-03-31T05:17:57Z" changeset="119141262" uid="3497659" user="NKA">
		<tag k="name" v="Galdbygde" />
		<tag k="place" v="hamlet" />
		<tag k="ssr:stedsnr" v="253185" />
	</node>
	<node id="9625568619" lat="61.8205996" lon="8.5091236" version="1" timestamp="2022-03-31T05:17:57Z" changeset="119141262" uid="3497659" user="NKA">
		<tag k="name" v="Vekkje" />
		<tag k="place" v="farm" />
		<tag k="ssr:stedsnr" v="253261" />
	</node>
	<node id="9625568620" lat="61.7259222" lon="8.2840306" version="1" timestamp="2022-03-31T05:17:57Z" changeset="119141262" uid="3497659" user="NKA">
		<tag k="name" v="Runningsgrende" />
		<tag k="place" v="hamlet" />
		<tag k="ssr:stedsnr" v="131163" />
	</node>
	<node id="9625568621" lat="61.8027694" lon="8.4507138" version="1" timestamp="2022-03-31T05:17:57Z" changeset="119141262" uid="3497659" user="NKA">
		<tag k="name" v="Kløvvollein" />
		<tag k="place" v="locality" />
		<tag k="ssr:stedsnr" v="54044" />
	</node>
	<node id="9625568622" lat="61.7230572" lon="8.3315703" version="1" timestamp="2022-03-31T05:17:57Z" changeset="119141262" uid="3497659" user="NKA">
		<tag k="alt_name" v="Bakkeberg Nordistugun" />
		<tag k="name" v="Nordistugun Bakkeberg" />
		<tag k="place" v="farm" />
		<tag k="ssr:stedsnr" v="985307" />
	</node>
	<node id="9625568623" lat="61.6846906" lon="8.2332709" version="1" timestamp="2022-03-31T05:17:57Z" changeset="119141262" uid="3497659" user="NKA">
		<tag k="alt_name" v="Storlie nedre" />
		<tag k="name" v="Nedre Storlie" />
		<tag k="place" v="farm" />
		<tag k="ssr:stedsnr" v="598713" />
	</node>
	<node id="9625568624" lat="61.8108367" lon="8.4888586" version="1" timestamp="2022-03-31T05:17:57Z" changeset="119141262" uid="3497659" user="NKA">
		<tag k="name" v="Vågåsarøygarden" />
		<tag k="place" v="farm" />
		<tag k="ssr:stedsnr" v="555196" />
	</node>
	<node id="9625568625" lat="61.7240056" lon="8.3357305" version="1" timestamp="2022-03-31T05:17:57Z" changeset="119141262" uid="3497659" user="NKA">
		<tag k="alt_name" v="Bakkeberg Uppistugun" />
		<tag k="name" v="Uppistugun Bakkeberg" />
		<tag k="place" v="farm" />
		<tag k="ssr:stedsnr" v="842307" />
	</node>
	<node id="9625568626" lat="61.7294916" lon="8.4243084" version="1" timestamp="2022-03-31T05:17:57Z" changeset="119141262" uid="3497659" user="NKA">
		<tag k="name" v="Lauvbakkjen" />
		<tag k="place" v="isolated_dwelling" />
		<tag k="ssr:stedsnr" v="539396" />
	</node>
	<node id="9625568627" lat="61.6998256" lon="8.2803051" version="1" timestamp="2022-03-31T05:17:57Z" changeset="119141262" uid="3497659" user="NKA">
		<tag k="name" v="Vesleøygarden" />
		<tag k="place" v="farm" />
		<tag k="ssr:stedsnr" v="539308" />
	</node>
	<node id="9625568628" lat="61.8677416" lon="8.5167833" version="1" timestamp="2022-03-31T05:17:57Z" changeset="119141262" uid="3497659" user="NKA">
		<tag k="name" v="Staurustgrende" />
		<tag k="place" v="hamlet" />
		<tag k="ssr:stedsnr" v="903134" />
	</node>
	<node id="9625568629" lat="61.8501166" lon="8.7032056" version="1" timestamp="2022-03-31T05:17:57Z" changeset="119141262" uid="3497659" user="NKA">
		<tag k="name" v="Graffershaugen" />
		<tag k="place" v="farm" />
		<tag k="ssr:stedsnr" v="939781" />
	</node>
	<node id="9625568630" lat="61.7080167" lon="8.4406861" version="1" timestamp="2022-03-31T05:17:57Z" changeset="119141262" uid="3497659" user="NKA">
		<tag k="name" v="Gokkerbue" />
		<tag k="place" v="isolated_dwelling" />
		<tag k="ssr:stedsnr" v="799156" />
	</node>
	<node id="9625568631" lat="61.8631083" lon="8.6176139" version="1" timestamp="2022-03-31T05:17:57Z" changeset="119141262" uid="3497659" user="NKA">
		<tag k="name" v="Søre Grjotheim" />
		<tag k="place" v="farm" />
		<tag k="ssr:stedsnr" v="781158" />
	</node>
	<node id="9625568632" lat="61.8483556" lon="8.5317056" version="1" timestamp="2022-03-31T05:17:57Z" changeset="119141262" uid="3497659" user="NKA">
		<tag k="name" v="Nørder-Vike" />
		<tag k="place" v="farm" />
		<tag k="ssr:stedsnr" v="513473" />
	</node>
	<node id="9625568633" lat="61.8613033" lon="8.8273665" version="1" timestamp="2022-03-31T05:17:57Z" changeset="119141262" uid="3497659" user="NKA">
		<tag k="alt_name" v="Veslsætri" />
		<tag k="name" v="Veslsætre" />
		<tag k="place" v="farm" />
		<tag k="ssr:stedsnr" v="313105" />
	</node>
	<node id="9625568634" lat="61.8707806" lon="8.7798722" version="1" timestamp="2022-03-31T05:17:57Z" changeset="119141262" uid="3497659" user="NKA">
		<tag k="alt_name" v="Søre Botten" />
		<tag k="name" v="Søre Botn" />
		<tag k="place" v="farm" />
		<tag k="ssr:stedsnr" v="150438" />
	</node>
	<node id="9625568635" lat="61.664775" lon="8.121175" version="1" timestamp="2022-03-31T05:17:57Z" changeset="119141262" uid="3497659" user="NKA">
		<tag k="name" v="Bergehytta" />
		<tag k="place" v="isolated_dwelling" />
		<tag k="ssr:stedsnr" v="495221" />
	</node>
	<node id="9625568636" lat="61.6610528" lon="8.1571861" version="1" timestamp="2022-03-31T05:17:57Z" changeset="119141262" uid="3497659" user="NKA">
		<tag k="historic" v="shieling" />
		<tag k="name" v="Bakkebergsætre" />
		<tag k="place" v="isolated_dwelling" />
		<tag k="ssr:stedsnr" v="738205" />
	</node>
	<node id="9625568637" lat="61.69125" lon="8.1700501" version="1" timestamp="2022-03-31T05:17:57Z" changeset="119141262" uid="3497659" user="NKA">
		<tag k="name" v="Presthytta" />
		<tag k="place" v="isolated_dwelling" />
		<tag k="ssr:stedsnr" v="295765" />
	</node>
	<node id="9625568638" lat="61.8071111" lon="8.9406834" version="1" timestamp="2022-03-31T05:17:57Z" changeset="119141262" uid="3497659" user="NKA">
		<tag k="name" v="Rolvbue" />
		<tag k="place" v="locality" />
		<tag k="ssr:stedsnr" v="539397" />
	</node>
	<node id="9625568639" lat="61.80055" lon="8.9274833" version="1" timestamp="2022-03-31T05:17:57Z" changeset="119141262" uid="3497659" user="NKA">
		<tag k="name" v="Briminaustet" />
		<tag k="place" v="locality" />
		<tag k="ssr:stedsnr" v="660444" />
	</node>
	<node id="9625568640" lat="61.8708096" lon="8.7779268" version="1" timestamp="2022-03-31T05:17:57Z" changeset="119141262" uid="3497659" user="NKA">
		<tag k="name" v="Botn" />
		<tag k="place" v="hamlet" />
		<tag k="ssr:stedsnr" v="984395" />
	</node>
	<node id="9625568641" lat="61.8684889" lon="8.6884778" version="1" timestamp="2022-03-31T05:17:57Z" changeset="119141262" uid="3497659" user="NKA">
		<tag k="name" v="Stolpein" />
		<tag k="place" v="isolated_dwelling" />
		<tag k="ssr:stedsnr" v="964775" />
	</node>
	<node id="9625568642" lat="61.8694861" lon="8.6708334" version="1" timestamp="2022-03-31T05:17:57Z" changeset="119141262" uid="3497659" user="NKA">
		<tag k="name" v="Nørdre Øverli" />
		<tag k="place" v="farm" />
		<tag k="ssr:stedsnr" v="964774" />
	</node>
	<node id="9625568643" lat="61.84805" lon="8.7991249" version="1" timestamp="2022-03-31T05:17:57Z" changeset="119141262" uid="3497659" user="NKA">
		<tag k="name" v="Søre Uppistugun Frisvoll" />
		<tag k="place" v="farm" />
		<tag k="ssr:stedsnr" v="939651" />
	</node>
	<node id="9625568644" lat="61.861825" lon="8.6332972" version="1" timestamp="2022-03-31T05:17:57Z" changeset="119141262" uid="3497659" user="NKA">
		<tag k="name" v="Nørdre Kollen" />
		<tag k="place" v="farm" />
		<tag k="ssr:stedsnr" v="904812" />
	</node>
	<node id="9625568645" lat="61.8580889" lon="8.7008945" version="1" timestamp="2022-03-31T05:17:57Z" changeset="119141262" uid="3497659" user="NKA">
		<tag k="name" v="Grafferskollen" />
		<tag k="place" v="farm" />
		<tag k="ssr:stedsnr" v="904954" />
	</node>
	<node id="9625568646" lat="61.8730985" lon="8.7632776" version="1" timestamp="2022-03-31T05:17:57Z" changeset="119141262" uid="3497659" user="NKA">
		<tag k="alt_name" v="Lii, s;Søre Lie" />
		<tag k="name" v="Søre Lii" />
		<tag k="place" v="hamlet" />
		<tag k="ssr:stedsnr" v="799120" />
	</node>
	<node id="9625568647" lat="61.8474693" lon="8.8135284" version="1" timestamp="2022-03-31T05:17:57Z" changeset="119141262" uid="3497659" user="NKA">
		<tag k="name" v="Garmostrædet" />
		<tag k="place" v="farm" />
		<tag k="ssr:stedsnr" v="756528" />
	</node>
	<node id="9625568648" lat="61.8630694" lon="8.6882334" version="1" timestamp="2022-03-31T05:17:57Z" changeset="119141262" uid="3497659" user="NKA">
		<tag k="name" v="Honn" />
		<tag k="place" v="farm" />
		<tag k="ssr:stedsnr" v="798061" />
	</node>
	<node id="9625568649" lat="61.8564805" lon="8.8322723" version="1" timestamp="2022-03-31T05:17:57Z" changeset="119141262" uid="3497659" user="NKA">
		<tag k="alt_name" v="Garmosøygarden" />
		<tag k="name" v="Øygarden" />
		<tag k="place" v="farm" />
		<tag k="ssr:stedsnr" v="738049" />
	</node>
	<node id="9625568650" lat="61.8458473" lon="8.8433973" version="1" timestamp="2022-03-31T05:17:57Z" changeset="119141262" uid="3497659" user="NKA">
		<tag k="name" v="Nørdre Byrkveen" />
		<tag k="place" v="farm" />
		<tag k="ssr:stedsnr" v="756538" />
	</node>
	<node id="9625568651" lat="61.855925" lon="8.7958167" version="1" timestamp="2022-03-31T05:17:57Z" changeset="119141262" uid="3497659" user="NKA">
		<tag k="name" v="Frisvollskogen" />
		<tag k="place" v="quarter" />
		<tag k="ssr:stedsnr" v="738044" />
	</node>
	<node id="9625568652" lat="61.8730389" lon="8.69715" version="1" timestamp="2022-03-31T05:17:57Z" changeset="119141262" uid="3497659" user="NKA">
		<tag k="name" v="Moen" />
		<tag k="place" v="farm" />
		<tag k="ssr:stedsnr" v="738136" />
	</node>
	<node id="9625568653" lat="61.8705361" lon="8.7844306" version="1" timestamp="2022-03-31T05:17:57Z" changeset="119141262" uid="3497659" user="NKA">
		<tag k="alt_name" v="Grasdalsmoen" />
		<tag k="name" v="Moen" />
		<tag k="place" v="farm" />
		<tag k="ssr:stedsnr" v="677071" />
	</node>
	<node id="9625568654" lat="61.8509167" lon="8.8121334" version="1" timestamp="2022-03-31T05:17:57Z" changeset="119141262" uid="3497659" user="NKA">
		<tag k="name" v="Nordgard Garmo" />
		<tag k="place" v="farm" />
		<tag k="ssr:stedsnr" v="696537" />
	</node>
	<node id="9625568655" lat="61.8466361" lon="8.8185695" version="1" timestamp="2022-03-31T05:17:57Z" changeset="119141262" uid="3497659" user="NKA">
		<tag k="alt_name" v="Fyrun" />
		<tag k="name" v="Fyru" />
		<tag k="place" v="farm" />
		<tag k="ssr:stedsnr" v="313048" />
	</node>
	<node id="9625568656" lat="61.8494192" lon="8.7688032" version="1" timestamp="2022-03-31T05:17:57Z" changeset="119141262" uid="3497659" user="NKA">
		<tag k="name" v="Flåteigen" />
		<tag k="place" v="farm" />
		<tag k="ssr:stedsnr" v="514647" />
	</node>
	<node id="9625568657" lat="61.8584333" lon="8.6996833" version="1" timestamp="2022-03-31T05:17:57Z" changeset="119141262" uid="3497659" user="NKA">
		<tag k="name" v="Nedre Kollen" />
		<tag k="place" v="farm" />
		<tag k="ssr:stedsnr" v="357921" />
	</node>
	<node id="9625568658" lat="61.8453916" lon="8.7842222" version="1" timestamp="2022-03-31T05:17:57Z" changeset="119141262" uid="3497659" user="NKA">
		<tag k="name" v="Eklestugu" />
		<tag k="place" v="farm" />
		<tag k="ssr:stedsnr" v="253049" />
	</node>
	<node id="9625568659" lat="61.6569416" lon="7.9952916" version="1" timestamp="2022-03-31T05:17:57Z" changeset="119141262" uid="3497659" user="NKA">
		<tag k="name" v="Asbjørnhytta" />
		<tag k="place" v="isolated_dwelling" />
		<tag k="ssr:stedsnr" v="495477" />
	</node>
	<node id="9625568660" lat="61.8323679" lon="8.5598303" version="1" timestamp="2022-03-31T05:17:57Z" changeset="119141262" uid="3497659" user="NKA">
		<tag k="name" v="Øy" />
		<tag k="place" v="farm" />
		<tag k="ssr:stedsnr" v="984365" />
	</node>
	<node id="9625568661" lat="61.7171889" lon="8.3073194" version="1" timestamp="2022-03-31T05:17:57Z" changeset="119141262" uid="3497659" user="NKA">
		<tag k="name" v="Brukvee" />
		<tag k="place" v="farm" />
		<tag k="ssr:stedsnr" v="963392" />
	</node>
	<node id="9625568662" lat="61.7825833" lon="8.4360445" version="1" timestamp="2022-03-31T05:17:57Z" changeset="119141262" uid="3497659" user="NKA">
		<tag k="name" v="Stein" />
		<tag k="place" v="farm" />
		<tag k="ssr:stedsnr" v="920993" />
	</node>
	<node id="9625568663" lat="61.7167194" lon="8.3165306" version="1" timestamp="2022-03-31T05:17:57Z" changeset="119141262" uid="3497659" user="NKA">
		<tag k="name" v="Uppistugun Slålien" />
		<tag k="place" v="farm" />
		<tag k="ssr:stedsnr" v="963397" />
	</node>
	<node id="9625568664" lat="61.7177053" lon="8.3010121" version="1" timestamp="2022-03-31T05:17:57Z" changeset="119141262" uid="3497659" user="NKA">
		<tag k="name" v="Ruste" />
		<tag k="place" v="farm" />
		<tag k="ssr:stedsnr" v="920157" />
	</node>
	<node id="9625568665" lat="61.8161" lon="8.5096251" version="1" timestamp="2022-03-31T05:17:57Z" changeset="119141262" uid="3497659" user="NKA">
		<tag k="alt_name" v="Nørjordskvee" />
		<tag k="name" v="Kvei" />
		<tag k="place" v="farm" />
		<tag k="ssr:stedsnr" v="920210" />
	</node>
	<node id="9625568666" lat="61.7130722" lon="8.3312305" version="1" timestamp="2022-03-31T05:17:57Z" changeset="119141262" uid="3497659" user="NKA">
		<tag k="name" v="Horten" />
		<tag k="place" v="farm" />
		<tag k="ssr:stedsnr" v="903287" />
	</node>
	<node id="9625568667" lat="61.7119695" lon="8.3144806" version="1" timestamp="2022-03-31T05:17:57Z" changeset="119141262" uid="3497659" user="NKA">
		<tag k="alt_name" v="Leirmo nødre" />
		<tag k="name" v="Leirmoen" />
		<tag k="place" v="farm" />
		<tag k="ssr:stedsnr" v="920139" />
	</node>
	<node id="9625568668" lat="61.8120629" lon="8.464556" version="1" timestamp="2022-03-31T05:17:57Z" changeset="119141262" uid="3497659" user="NKA">
		<tag k="name" v="Kvamme" />
		<tag k="place" v="farm" />
		<tag k="ssr:stedsnr" v="800944" />
	</node>
	<node id="9625568669" lat="61.7213913" lon="8.3294647" version="1" timestamp="2022-03-31T05:17:57Z" changeset="119141262" uid="3497659" user="NKA">
		<tag k="name" v="Upphaug" />
		<tag k="place" v="farm" />
		<tag k="ssr:stedsnr" v="903323" />
	</node>
	<node id="9625568670" lat="61.7472028" lon="8.3922667" version="1" timestamp="2022-03-31T05:17:57Z" changeset="119141262" uid="3497659" user="NKA">
		<tag k="alt_name" v="Hoftakroken" />
		<tag k="name" v="Kroken" />
		<tag k="place" v="farm" />
		<tag k="ssr:stedsnr" v="738191" />
	</node>
	<node id="9625568671" lat="61.7497667" lon="8.405175" version="1" timestamp="2022-03-31T05:17:57Z" changeset="119141262" uid="3497659" user="NKA">
		<tag k="name" v="Sletten" />
		<tag k="place" v="farm" />
		<tag k="ssr:stedsnr" v="782369" />
	</node>
	<node id="9625568672" lat="61.6865944" lon="8.23825" version="1" timestamp="2022-03-31T05:17:57Z" changeset="119141262" uid="3497659" user="NKA">
		<tag k="name" v="Øverlie" />
		<tag k="place" v="locality" />
		<tag k="ssr:stedsnr" v="738236" />
	</node>
	<node id="9625568673" lat="61.6907834" lon="8.2694473" version="1" timestamp="2022-03-31T05:17:57Z" changeset="119141262" uid="3497659" user="NKA">
		<tag k="name" v="Juvstulen" />
		<tag k="place" v="farm" />
		<tag k="ssr:stedsnr" v="616222" />
	</node>
	<node id="9625568674" lat="61.7843639" lon="8.4505806" version="1" timestamp="2022-03-31T05:17:57Z" changeset="119141262" uid="3497659" user="NKA">
		<tag k="name" v="Bergheim" />
		<tag k="place" v="farm" />
		<tag k="ssr:stedsnr" v="678986" />
	</node>
	<node id="9625568675" lat="61.7118024" lon="8.3115907" version="1" timestamp="2022-03-31T05:17:57Z" changeset="119141262" uid="3497659" user="NKA">
		<tag k="alt_name" v="Åmot" />
		<tag k="name" v="Åmoten" />
		<tag k="place" v="farm" />
		<tag k="ssr:stedsnr" v="616128" />
	</node>
	<node id="9625568676" lat="61.7121333" lon="8.3407029" version="1" timestamp="2022-03-31T05:17:57Z" changeset="119141262" uid="3497659" user="NKA">
		<tag k="name" v="Slettede" />
		<tag k="place" v="farm" />
		<tag k="ssr:stedsnr" v="616127" />
	</node>
	<node id="9625568677" lat="61.8563889" lon="8.5095945" version="1" timestamp="2022-03-31T05:17:57Z" changeset="119141262" uid="3497659" user="NKA">
		<tag k="name" v="Nordistugun Synstnes" />
		<tag k="place" v="farm" />
		<tag k="ssr:stedsnr" v="513469" />
	</node>
	<node id="9625568678" lat="61.6860667" lon="8.2416445" version="1" timestamp="2022-03-31T05:17:57Z" changeset="119141262" uid="3497659" user="NKA">
		<tag k="name" v="Haugli" />
		<tag k="place" v="farm" />
		<tag k="ssr:stedsnr" v="356749" />
	</node>
	<node id="9625568679" lat="61.7230528" lon="8.367775" version="1" timestamp="2022-03-31T05:17:57Z" changeset="119141262" uid="3497659" user="NKA">
		<tag k="name" v="Myre" />
		<tag k="place" v="farm" />
		<tag k="ssr:stedsnr" v="313165" />
	</node>
	<node id="9625568680" lat="61.7517416" lon="8.3821583" version="1" timestamp="2022-03-31T05:17:57Z" changeset="119141262" uid="3497659" user="NKA">
		<tag k="name" v="Hoftaskjeillen" />
		<tag k="place" v="locality" />
		<tag k="ssr:stedsnr" v="296460" />
	</node>
	<node id="9625568681" lat="61.7154806" lon="8.3150584" version="1" timestamp="2022-03-31T05:17:57Z" changeset="119141262" uid="3497659" user="NKA">
		<tag k="name" v="Søre Slålien" />
		<tag k="place" v="farm" />
		<tag k="ssr:stedsnr" v="296319" />
	</node>
	<node id="9625568682" lat="61.8228667" lon="8.4996389" version="1" timestamp="2022-03-31T05:17:57Z" changeset="119141262" uid="3497659" user="NKA">
		<tag k="name" v="Slettom" />
		<tag k="place" v="farm" />
		<tag k="ssr:stedsnr" v="147952" />
	</node>
	<node id="9625568683" lat="61.7076203" lon="8.2996536" version="1" timestamp="2022-03-31T05:17:57Z" changeset="119141262" uid="3497659" user="NKA">
		<tag k="name" v="Brenna" />
		<tag k="place" v="farm" />
		<tag k="ssr:stedsnr" v="373114" />
	</node>
	<node id="9625568684" lat="61.7190806" lon="8.4332028" version="1" timestamp="2022-03-31T05:17:57Z" changeset="119141262" uid="3497659" user="NKA">
		<tag k="name" v="Persøygarden" />
		<tag k="place" v="locality" />
		<tag k="ssr:stedsnr" v="721422" />
	</node>
	<node id="9625568685" lat="61.82785" lon="8.5412499" version="1" timestamp="2022-03-31T05:17:57Z" changeset="119141262" uid="3497659" user="NKA">
		<tag k="name" v="Nedre Haugen" />
		<tag k="place" v="farm" />
		<tag k="ssr:stedsnr" v="936126" />
	</node>
	<node id="9625568686" lat="61.8218445" lon="8.5074833" version="1" timestamp="2022-03-31T05:17:57Z" changeset="119141262" uid="3497659" user="NKA">
		<tag k="alt_name" v="Kvåle, nedre" />
		<tag k="name" v="Nedre Kvåle" />
		<tag k="place" v="farm" />
		<tag k="ssr:stedsnr" v="799231" />
	</node>
	<node id="9625568687" lat="61.8187059" lon="8.5298578" version="1" timestamp="2022-03-31T05:17:57Z" changeset="119141262" uid="3497659" user="NKA">
		<tag k="name" v="Husom" />
		<tag k="place" v="farm" />
		<tag k="ssr:stedsnr" v="738235" />
	</node>
	<node id="9625568688" lat="61.8402028" lon="8.5517334" version="1" timestamp="2022-03-31T05:17:57Z" changeset="119141262" uid="3497659" user="NKA">
		<tag k="name" v="Trondsonstugu" />
		<tag k="place" v="farm" />
		<tag k="ssr:stedsnr" v="756426" />
	</node>
	<node id="9625568689" lat="61.8672017" lon="8.7183138" version="1" timestamp="2022-03-31T05:17:57Z" changeset="119141262" uid="3497659" user="NKA">
		<tag k="alt_name" v="Stadsviki, øvre" />
		<tag k="name" v="Øvre Stasvikje" />
		<tag k="place" v="farm" />
		<tag k="ssr:stedsnr" v="677073" />
	</node>
	<node id="9625568690" lat="61.7658898" lon="8.4207116" version="1" timestamp="2022-03-31T05:17:57Z" changeset="119141262" uid="3497659" user="NKA">
		<tag k="alt_name" v="Kleivslette" />
		<tag k="name" v="Kleivsletti" />
		<tag k="place" v="farm" />
		<tag k="ssr:stedsnr" v="738998" />
	</node>
	<node id="9625568691" lat="61.8490583" lon="8.6212111" version="1" timestamp="2022-03-31T05:17:57Z" changeset="119141262" uid="3497659" user="NKA">
		<tag k="name" v="Bryn" />
		<tag k="place" v="farm" />
		<tag k="ssr:stedsnr" v="252027" />
	</node>
	<node id="9625568692" lat="61.8151299" lon="8.4805344" version="1" timestamp="2022-03-31T05:17:57Z" changeset="119141262" uid="3497659" user="NKA">
		<tag k="name" v="Bø" />
		<tag k="place" v="farm" />
		<tag k="ssr:stedsnr" v="313234" />
	</node>
	<node id="9625568693" lat="61.8375194" lon="8.5516055" version="1" timestamp="2022-03-31T05:17:57Z" changeset="119141262" uid="3497659" user="NKA">
		<tag k="name" v="Kroken" />
		<tag k="place" v="farm" />
		<tag k="ssr:stedsnr" v="799011" />
	</node>
	<node id="9625568694" lat="61.8279992" lon="8.5375525" version="1" timestamp="2022-03-31T05:17:57Z" changeset="119141262" uid="3497659" user="NKA">
		<tag k="alt_name" v="Torekvei" />
		<tag k="name" v="Torekvee" />
		<tag k="place" v="farm" />
		<tag k="ssr:stedsnr" v="71021" />
	</node>
	<node id="9625568695" lat="61.6877472" lon="8.2519556" version="1" timestamp="2022-03-31T05:17:57Z" changeset="119141262" uid="3497659" user="NKA">
		<tag k="alt_name" v="Veslelia" />
		<tag k="loc_name" v="Vesllie;Vetllie" />
		<tag k="name" v="Vesllii" />
		<tag k="place" v="farm" />
		<tag k="ssr:stedsnr" v="920219" />
	</node>
	<node id="9625568696" lat="61.7232407" lon="8.3460582" version="1" timestamp="2022-03-31T05:17:57Z" changeset="119141262" uid="3497659" user="NKA">
		<tag k="alt_name" v="Galde" />
		<tag k="name" v="Sygard Galde" />
		<tag k="place" v="farm" />
		<tag k="ssr:stedsnr" v="859122" />
	</node>
	<node id="9625568697" lat="61.8604861" lon="8.8308861" version="1" timestamp="2022-03-31T05:17:57Z" changeset="119141262" uid="3497659" user="NKA">
		<tag k="name" v="Søre Veslsætre" />
		<tag k="place" v="farm" />
		<tag k="ssr:stedsnr" v="418293" />
	</node>
	<node id="9625568698" lat="61.8616861" lon="8.8260944" version="1" timestamp="2022-03-31T05:17:57Z" changeset="119141262" uid="3497659" user="NKA">
		<tag k="name" v="Nørdre Veslsætre" />
		<tag k="place" v="farm" />
		<tag k="ssr:stedsnr" v="599286" />
	</node>
	<node id="9625568699" lat="61.7125433" lon="8.314296" version="1" timestamp="2022-03-31T05:17:57Z" changeset="119141262" uid="3497659" user="NKA">
		<tag k="name" v="Slåligrende" />
		<tag k="place" v="quarter" />
		<tag k="ssr:stedsnr" v="70134" />
	</node>
	<node id="9625568700" lat="61.7499663" lon="8.3873836" version="1" timestamp="2022-03-31T05:17:57Z" changeset="119141262" uid="3497659" user="NKA">
		<tag k="name" v="Hoft" />
		<tag k="place" v="farm" />
		<tag k="ssr:stedsnr" v="192973" />
	</node>
	<node id="9625568701" lat="61.8137455" lon="8.5017507" version="1" timestamp="2022-03-31T05:17:57Z" changeset="119141262" uid="3497659" user="NKA">
		<tag k="name" v="Vågåsar" />
		<tag k="place" v="farm" />
		<tag k="ssr:stedsnr" v="192259" />
	</node>
	<node id="9625568702" lat="61.7161" lon="8.3198778" version="1" timestamp="2022-03-31T05:17:57Z" changeset="119141262" uid="3497659" user="NKA">
		<tag k="name" v="Kristenstugun" />
		<tag k="place" v="isolated_dwelling" />
		<tag k="ssr:stedsnr" v="721295" />
	</node>
	<node id="9625568703" lat="61.7124194" lon="8.3154611" version="1" timestamp="2022-03-31T05:17:57Z" changeset="119141262" uid="3497659" user="NKA">
		<tag k="name" v="Søre Leirmo" />
		<tag k="place" v="farm" />
		<tag k="ssr:stedsnr" v="843338" />
	</node>
	<node id="9625568704" lat="61.724329" lon="8.2514114" version="1" timestamp="2022-03-31T05:17:57Z" changeset="119141262" uid="3497659" user="NKA">
		<tag k="name" v="Flekken" />
		<tag k="place" v="locality" />
		<tag k="ssr:stedsnr" v="617204" />
	</node>
	<node id="9625568705" lat="61.7263333" lon="8.2805501" version="1" timestamp="2022-03-31T05:17:57Z" changeset="119141262" uid="3497659" user="NKA">
		<tag k="name" v="Åkerjordet" />
		<tag k="place" v="farm" />
		<tag k="ssr:stedsnr" v="843300" />
	</node>
	<node id="9625568706" lat="61.7151222" lon="8.3200305" version="1" timestamp="2022-03-31T05:17:57Z" changeset="119141262" uid="3497659" user="NKA">
		<tag k="name" v="Systugun Slålien" />
		<tag k="place" v="farm" />
		<tag k="ssr:stedsnr" v="842345" />
	</node>
	<node id="9625568707" lat="61.7960695" lon="8.4438555" version="1" timestamp="2022-03-31T05:17:57Z" changeset="119141262" uid="3497659" user="NKA">
		<tag k="name" v="Vangen" />
		<tag k="place" v="farm" />
		<tag k="ssr:stedsnr" v="843041" />
	</node>
	<node id="9625568708" lat="61.7167526" lon="8.3124032" version="1" timestamp="2022-03-31T05:17:57Z" changeset="119141262" uid="3497659" user="NKA">
		<tag k="name" v="Slålien" />
		<tag k="place" v="farm" />
		<tag k="ssr:stedsnr" v="660369" />
	</node>
	<node id="9625568709" lat="61.7656583" lon="8.4040473" version="1" timestamp="2022-03-31T05:17:57Z" changeset="119141262" uid="3497659" user="NKA">
		<tag k="name" v="Uppigard Sulheim" />
		<tag k="place" v="farm" />
		<tag k="ssr:stedsnr" v="660422" />
	</node>
	<node id="9625568710" lat="61.8175817" lon="8.5199523" version="1" timestamp="2022-03-31T05:17:57Z" changeset="119141262" uid="3497659" user="NKA">
		<tag k="name" v="Ofigsbø" />
		<tag k="place" v="farm" />
		<tag k="ssr:stedsnr" v="556267" />
	</node>
	<node id="9625568711" lat="61.7831408" lon="8.440995" version="1" timestamp="2022-03-31T05:17:57Z" changeset="119141262" uid="3497659" user="NKA">
		<tag k="alt_name" v="Brekkøyi" />
		<tag k="name" v="Brekkøye" />
		<tag k="place" v="farm" />
		<tag k="ssr:stedsnr" v="556990" />
	</node>
	<node id="9625568712" lat="61.7592116" lon="8.3971193" version="1" timestamp="2022-03-31T05:17:57Z" changeset="119141262" uid="3497659" user="NKA">
		<tag k="alt_name" v="Skjærve" />
		<tag k="name" v="Skjerve" />
		<tag k="place" v="farm" />
		<tag k="ssr:stedsnr" v="843413" />
	</node>
	<node id="9625568713" lat="61.8220274" lon="8.5040763" version="1" timestamp="2022-03-31T05:17:57Z" changeset="119141262" uid="3497659" user="NKA">
		<tag k="alt_name" v="Kvåle, øvre" />
		<tag k="name" v="Kvåle" />
		<tag k="place" v="farm" />
		<tag k="ssr:stedsnr" v="556253" />
	</node>
	<node id="9625568714" lat="61.7357417" lon="8.3786222" version="1" timestamp="2022-03-31T05:17:57Z" changeset="119141262" uid="3497659" user="NKA">
		<tag k="name" v="Kleivbakkjen" />
		<tag k="place" v="locality" />
		<tag k="ssr:stedsnr" v="418244" />
	</node>
	<node id="9625568715" lat="61.8114834" lon="8.4810806" version="1" timestamp="2022-03-31T05:17:57Z" changeset="119141262" uid="3497659" user="NKA">
		<tag k="name" v="Sygard Krøkje" />
		<tag k="place" v="farm" />
		<tag k="ssr:stedsnr" v="418033" />
	</node>
	<node id="9625568716" lat="61.6830584" lon="8.4423138" version="1" timestamp="2022-03-31T05:17:57Z" changeset="119141262" uid="3497659" user="NKA">
		<tag k="name" v="Klebberbue" />
		<tag k="place" v="locality" />
		<tag k="ssr:stedsnr" v="539465" />
	</node>
	<node id="9625568717" lat="61.8121806" lon="8.4713501" version="1" timestamp="2022-03-31T05:17:57Z" changeset="119141262" uid="3497659" user="NKA">
		<tag k="name" v="Nerkrøkje" />
		<tag k="place" v="farm" />
		<tag k="ssr:stedsnr" v="418031" />
	</node>
	<node id="9625568718" lat="61.6818944" lon="8.2315389" version="1" timestamp="2022-03-31T05:17:57Z" changeset="119141262" uid="3497659" user="NKA">
		<tag k="name" v="Nordli" />
		<tag k="place" v="farm" />
		<tag k="ssr:stedsnr" v="538749" />
	</node>
	<node id="9625568719" lat="61.8066262" lon="8.455166" version="1" timestamp="2022-03-31T05:17:57Z" changeset="119141262" uid="3497659" user="NKA">
		<tag k="name" v="Kvamsøygarden" />
		<tag k="place" v="farm" />
		<tag k="ssr:stedsnr" v="539026" />
	</node>
	<node id="9625568720" lat="61.7497583" lon="8.3753612" version="1" timestamp="2022-03-31T05:17:57Z" changeset="119141262" uid="3497659" user="NKA">
		<tag k="name" v="Røysheimskjeillen" />
		<tag k="place" v="locality" />
		<tag k="ssr:stedsnr" v="357468" />
	</node>
	<node id="9625568721" lat="61.8635096" lon="8.4844581" version="1" timestamp="2022-03-31T05:17:57Z" changeset="119141262" uid="3497659" user="NKA">
		<tag k="alt_name" v="Resvollen" />
		<tag k="name" v="Resvollan" />
		<tag k="place" v="farm" />
		<tag k="ssr:stedsnr" v="71124" />
	</node>
	<node id="9625568722" lat="61.7258459" lon="8.2871066" version="1" timestamp="2022-03-31T05:17:57Z" changeset="119141262" uid="3497659" user="NKA">
		<tag k="name" v="Nyhus" />
		<tag k="place" v="farm" />
		<tag k="ssr:stedsnr" v="357313" />
	</node>
	<node id="9625568723" lat="61.8576187" lon="8.504658" version="1" timestamp="2022-03-31T05:17:57Z" changeset="119141262" uid="3497659" user="NKA">
		<tag k="name" v="Skogstad" />
		<tag k="place" v="farm" />
		<tag k="ssr:stedsnr" v="900804" />
	</node>
	<node id="9625568724" lat="61.86805" lon="8.5120643" version="1" timestamp="2022-03-31T05:17:57Z" changeset="119141262" uid="3497659" user="NKA">
		<tag k="name" v="Staurust" />
		<tag k="place" v="farm" />
		<tag k="ssr:stedsnr" v="131121" />
	</node>
	<node id="9625568725" lat="61.8580885" lon="8.4999015" version="1" timestamp="2022-03-31T05:17:57Z" changeset="119141262" uid="3497659" user="NKA">
		<tag k="name" v="Ospebakkjen" />
		<tag k="place" v="farm" />
		<tag k="ssr:stedsnr" v="657787" />
	</node>
	<node id="9625568726" lat="61.8567166" lon="8.4992084" version="1" timestamp="2022-03-31T05:17:57Z" changeset="119141262" uid="3497659" user="NKA">
		<tag k="name" v="Gran" />
		<tag k="place" v="farm" />
		<tag k="ssr:stedsnr" v="920104" />
	</node>
	<node id="9625568727" lat="61.8498889" lon="8.7263749" version="1" timestamp="2022-03-31T05:17:57Z" changeset="119141262" uid="3497659" user="NKA">
		<tag k="name" v="Stokke" />
		<tag k="place" v="farm" />
		<tag k="ssr:stedsnr" v="514763" />
	</node>
	<node id="9625568728" lat="61.8533805" lon="8.5136834" version="1" timestamp="2022-03-31T05:17:57Z" changeset="119141262" uid="3497659" user="NKA">
		<tag k="name" v="Ekre" />
		<tag k="place" v="farm" />
		<tag k="ssr:stedsnr" v="859080" />
	</node>
	<node id="9625568729" lat="61.8123055" lon="8.4685805" version="1" timestamp="2022-03-31T05:17:57Z" changeset="119141262" uid="3497659" user="NKA">
		<tag k="name" v="Sygard Kvamme" />
		<tag k="place" v="farm" />
		<tag k="ssr:stedsnr" v="357028" />
	</node>
	<node id="9625568730" lat="61.8520139" lon="8.6192223" version="1" timestamp="2022-03-31T05:17:57Z" changeset="119141262" uid="3497659" user="NKA">
		<tag k="name" v="Duvdalen" />
		<tag k="place" v="farm" />
		<tag k="ssr:stedsnr" v="373064" />
	</node>
	<node id="9625568731" lat="61.7209055" lon="8.3553473" version="1" timestamp="2022-03-31T05:17:57Z" changeset="119141262" uid="3497659" user="NKA">
		<tag k="name" v="Heggjeruste" />
		<tag k="place" v="farm" />
		<tag k="ssr:stedsnr" v="114284" />
	</node>
	<node id="9625568732" lat="61.7243396" lon="8.3465554" version="1" timestamp="2022-03-31T05:17:57Z" changeset="119141262" uid="3497659" user="NKA">
		<tag k="name" v="Uppigard Galde" />
		<tag k="place" v="farm" />
		<tag k="ssr:stedsnr" v="175306" />
	</node>
	<node id="9625568733" lat="61.7305194" lon="8.3734416" version="1" timestamp="2022-03-31T05:17:57Z" changeset="119141262" uid="3497659" user="NKA">
		<tag k="name" v="Nørdre Repp" />
		<tag k="place" v="farm" />
		<tag k="ssr:stedsnr" v="114268" />
	</node>
	<node id="9625568734" lat="61.8589083" lon="8.5001805" version="1" timestamp="2022-03-31T05:17:57Z" changeset="119141262" uid="3497659" user="NKA">
		<tag k="name" v="Byskjede" />
		<tag k="place" v="farm" />
		<tag k="ssr:stedsnr" v="111780" />
	</node>
	<node id="9625568735" lat="61.793527" lon="8.4485831" version="1" timestamp="2022-03-31T05:17:57Z" changeset="119141262" uid="3497659" user="NKA">
		<tag k="name" v="Flå" />
		<tag k="place" v="farm" />
		<tag k="ssr:stedsnr" v="71967" />
	</node>
	<node id="9625568736" lat="61.8576611" lon="8.5005556" version="1" timestamp="2022-03-31T05:17:57Z" changeset="119141262" uid="3497659" user="NKA">
		<tag k="name" v="Øvre Stusnes" />
		<tag k="place" v="farm" />
		<tag k="ssr:stedsnr" v="171813" />
	</node>
	<node id="9625568737" lat="61.807075" lon="8.4510445" version="1" timestamp="2022-03-31T05:17:57Z" changeset="119141262" uid="3497659" user="NKA">
		<tag k="name" v="Kvamshågån" />
		<tag k="place" v="locality" />
		<tag k="ssr:stedsnr" v="54040" />
	</node>
	<node id="9625568738" lat="61.8111972" lon="8.4632112" version="1" timestamp="2022-03-31T05:17:57Z" changeset="119141262" uid="3497659" user="NKA">
		<tag k="name" v="Nordgard Kvamme" />
		<tag k="place" v="farm" />
		<tag k="ssr:stedsnr" v="54039" />
	</node>
	<node id="9625568739" lat="61.7126873" lon="8.3464575" version="1" timestamp="2022-03-31T05:17:57Z" changeset="119141262" uid="3497659" user="NKA">
		<tag k="name" v="Storhaugen" />
		<tag k="place" v="farm" />
		<tag k="ssr:stedsnr" v="10138" />
	</node>
	<node id="9625568740" lat="61.7317666" lon="8.3761083" version="1" timestamp="2022-03-31T05:17:57Z" changeset="119141262" uid="3497659" user="NKA">
		<tag k="name" v="Søre Repp" />
		<tag k="place" v="farm" />
		<tag k="ssr:stedsnr" v="53267" />
	</node>
	<node id="9625568741" lat="61.7204736" lon="8.2426924" version="1" timestamp="2022-03-31T05:17:57Z" changeset="119141262" uid="3497659" user="NKA">
		<tag k="alt_name" v="Kvandalsvoll" />
		<tag k="name" v="Kvanndalsvollan" />
		<tag k="place" v="farm" />
		<tag k="ssr:stedsnr" v="373132" />
	</node>
	<node id="9625568742" lat="61.6879498" lon="8.2623525" version="1" timestamp="2022-03-31T05:17:57Z" changeset="119141262" uid="3497659" user="NKA">
		<tag k="name" v="Leirdalen" />
		<tag k="place" v="farm" />
		<tag k="ssr:stedsnr" v="313224" />
	</node>
	<node id="9625568743" lat="61.7530445" lon="8.3990638" version="1" timestamp="2022-03-31T05:17:57Z" changeset="119141262" uid="3497659" user="NKA">
		<tag k="name" v="Søre Øyjordet" />
		<tag k="place" v="farm" />
		<tag k="ssr:stedsnr" v="721385" />
	</node>
	<node id="9625568744" lat="61.7023389" lon="8.2831277" version="1" timestamp="2022-03-31T05:17:57Z" changeset="119141262" uid="3497659" user="NKA">
		<tag k="name" v="Røvshusbakkjen" />
		<tag k="place" v="farm" />
		<tag k="ssr:stedsnr" v="114386" />
	</node>
	<node id="9625568745" lat="61.6923834" lon="8.2689112" version="1" timestamp="2022-03-31T05:17:57Z" changeset="119141262" uid="3497659" user="NKA">
		<tag k="name" v="Bakken" />
		<tag k="place" v="farm" />
		<tag k="ssr:stedsnr" v="10240" />
	</node>
	<node id="9625568746" lat="61.6561121" lon="8.6731738" version="1" timestamp="2022-03-31T05:17:57Z" changeset="119141262" uid="3497659" user="NKA">
		<tag k="name" v="Bergenussbue" />
		<tag k="place" v="locality" />
		<tag k="ssr:stedsnr" v="70868" />
	</node>
	<node id="9625568747" lat="61.8514222" lon="8.7270751" version="1" timestamp="2022-03-31T05:17:57Z" changeset="119141262" uid="3497659" user="NKA">
		<tag k="name" v="Molykkja" />
		<tag k="place" v="farm" />
		<tag k="ssr:stedsnr" v="393745" />
	</node>
	<node id="9625568748" lat="61.6320805" lon="8.4053028" version="1" timestamp="2022-03-31T05:17:57Z" changeset="119141262" uid="3497659" user="NKA">
		<tag k="alt_name" v="Sygard, heimi" />
		<tag k="name" v="Heimi Sygard" />
		<tag k="place" v="locality" />
		<tag k="ssr:stedsnr" v="10053" />
	</node>
	<node id="9625568749" lat="61.830625" lon="8.5393277" version="1" timestamp="2022-03-31T05:17:57Z" changeset="119141262" uid="3497659" user="NKA">
		<tag k="alt_name" v="Øvre Haugen" />
		<tag k="name" v="Haugen" />
		<tag k="place" v="farm" />
		<tag k="ssr:stedsnr" v="71025" />
	</node>
	<node id="9625568750" lat="61.8071667" lon="8.9400666" version="1" timestamp="2022-03-31T05:17:57Z" changeset="119141262" uid="3497659" user="NKA">
		<tag k="name" v="Hjeltarbue" />
		<tag k="place" v="locality" />
		<tag k="ssr:stedsnr" v="407647" />
	</node>
	<node id="9625568751" lat="61.8195945" lon="8.532025" version="1" timestamp="2022-03-31T05:17:57Z" changeset="119141262" uid="3497659" user="NKA">
		<tag k="name" v="Teigen" />
		<tag k="place" v="farm" />
		<tag k="ssr:stedsnr" v="936136" />
	</node>
	<node id="9625568752" lat="61.8281073" lon="8.5468083" version="1" timestamp="2022-03-31T05:17:57Z" changeset="119141262" uid="3497659" user="NKA">
		<tag k="alt_name" v="Øyøygard" />
		<tag k="name" v="Øyøygarden" />
		<tag k="place" v="farm" />
		<tag k="ssr:stedsnr" v="71019" />
	</node>
	<node id="9625568753" lat="61.8346111" lon="8.5523112" version="1" timestamp="2022-03-31T05:17:57Z" changeset="119141262" uid="3497659" user="NKA">
		<tag k="alt_name" v="Søre Andvord;Andvord, s" />
		<tag k="name" v="Sygard Andvord" />
		<tag k="place" v="farm" />
		<tag k="ssr:stedsnr" v="738013" />
	</node>
	<node id="9625568754" lat="61.8388927" lon="8.5771075" version="1" timestamp="2022-03-31T05:17:57Z" changeset="119141262" uid="3497659" user="NKA">
		<tag k="name" v="Gjeisar" />
		<tag k="place" v="farm" />
		<tag k="ssr:stedsnr" v="799007" />
	</node>
	<node id="9625568755" lat="61.8402321" lon="8.5752055" version="1" timestamp="2022-03-31T05:17:57Z" changeset="119141262" uid="3497659" user="NKA">
		<tag k="name" v="Gjeisarhaugen" />
		<tag k="place" v="neighbourhood" />
		<tag k="ssr:stedsnr" v="574488" />
	</node>
	<node id="9625568756" lat="61.8464974" lon="8.5949152" version="1" timestamp="2022-03-31T05:17:57Z" changeset="119141262" uid="3497659" user="NKA">
		<tag k="name" v="Blakar" />
		<tag k="place" v="farm" />
		<tag k="ssr:stedsnr" v="859019" />
	</node>
	<node id="9625568757" lat="61.8427916" lon="8.6006777" version="1" timestamp="2022-03-31T05:17:57Z" changeset="119141262" uid="3497659" user="NKA">
		<tag k="alt_name" v="Veslhagen" />
		<tag k="name" v="Veslhågån" />
		<tag k="place" v="farm" />
		<tag k="ssr:stedsnr" v="495009" />
	</node>
	<node id="9625568758" lat="61.8406214" lon="8.5876409" version="1" timestamp="2022-03-31T05:17:57Z" changeset="119141262" uid="3497659" user="NKA">
		<tag k="name" v="Helstad" />
		<tag k="place" v="farm" />
		<tag k="ssr:stedsnr" v="556010" />
	</node>
	<node id="9625568759" lat="61.8347557" lon="8.5651797" version="1" timestamp="2022-03-31T05:17:57Z" changeset="119141262" uid="3497659" user="NKA">
		<tag k="alt_name" v="Fossbergi" />
		<tag k="name" v="Fossbergom" />
		<tag k="place" v="quarter" />
		<tag k="ssr:stedsnr" v="495013" />
	</node>
	<node id="9625568760" lat="61.8423695" lon="8.5886945" version="1" timestamp="2022-03-31T05:17:57Z" changeset="119141262" uid="3497659" user="NKA">
		<tag k="alt_name" v="Kjørri" />
		<tag k="name" v="Kjørre" />
		<tag k="place" v="farm" />
		<tag k="ssr:stedsnr" v="374010" />
	</node>
	<node id="9625568761" lat="61.6568972" lon="8.1588723" version="1" timestamp="2022-03-31T05:17:57Z" changeset="119141262" uid="3497659" user="NKA">
		<tag k="name" v="Reinshytta" />
		<tag k="place" v="isolated_dwelling" />
		<tag k="ssr:stedsnr" v="115674" />
	</node>
	<node id="9625568762" lat="61.8692" lon="8.8079029" version="1" timestamp="2022-03-31T05:17:57Z" changeset="119141262" uid="3497659" user="NKA">
		<tag k="alt_name" v="Løyfti" />
		<tag k="name" v="Øvre Løyfte" />
		<tag k="place" v="farm" />
		<tag k="ssr:stedsnr" v="131088" />
	</node>
	<node id="9625568763" lat="61.8494473" lon="8.7329432" version="1" timestamp="2022-03-31T05:17:57Z" changeset="119141262" uid="3497659" user="NKA">
		<tag k="name" v="Lyngvesøygarden" />
		<tag k="place" v="farm" />
		<tag k="ssr:stedsnr" v="90753" />
	</node>
	<node id="9625568764" lat="61.8495" lon="8.7137417" version="1" timestamp="2022-03-31T05:17:57Z" changeset="119141262" uid="3497659" user="NKA">
		<tag k="name" v="Haug" />
		<tag k="place" v="farm" />
		<tag k="ssr:stedsnr" v="131063" />
	</node>
	<node id="9625568765" lat="61.8468423" lon="8.7784833" version="1" timestamp="2022-03-31T05:17:57Z" changeset="119141262" uid="3497659" user="NKA">
		<tag k="name" v="Ekle" />
		<tag k="place" v="hamlet" />
		<tag k="ssr:stedsnr" v="984343" />
	</node>
	<node id="9625568766" lat="61.8518111" lon="8.7149417" version="1" timestamp="2022-03-31T05:17:57Z" changeset="119141262" uid="3497659" user="NKA">
		<tag k="name" v="Turrmoen" />
		<tag k="place" v="farm" />
		<tag k="ssr:stedsnr" v="90756" />
	</node>
	<node id="9625568767" lat="61.8504241" lon="8.8029097" version="1" timestamp="2022-03-31T05:17:57Z" changeset="119141262" uid="3497659" user="NKA">
		<tag k="name" v="Frisvoll" />
		<tag k="place" v="hamlet" />
		<tag k="ssr:stedsnr" v="984342" />
	</node>
	<node id="9625568768" lat="61.8495972" lon="8.6148362" version="1" timestamp="2022-03-31T05:17:57Z" changeset="119141262" uid="3497659" user="NKA">
		<tag k="name" v="Hellkvee" />
		<tag k="place" v="farm" />
		<tag k="ssr:stedsnr" v="28075" />
	</node>
	<node id="9625568769" lat="61.8430611" lon="8.7840194" version="1" timestamp="2022-03-31T05:17:57Z" changeset="119141262" uid="3497659" user="NKA">
		<tag k="alt_name" v="Storøygard" />
		<tag k="name" v="Storøygarden" />
		<tag k="place" v="locality" />
		<tag k="ssr:stedsnr" v="71026" />
	</node>
	<node id="9625568770" lat="61.8757884" lon="8.7005098" version="1" timestamp="2022-03-31T05:17:57Z" changeset="119141262" uid="3497659" user="NKA">
		<tag k="name" v="Flatmo" />
		<tag k="place" v="farm" />
		<tag k="ssr:stedsnr" v="71133" />
	</node>
	<node id="9625568771" lat="61.8731861" lon="8.7536556" version="1" timestamp="2022-03-31T05:17:57Z" changeset="119141262" uid="3497659" user="NKA">
		<tag k="name" v="Søre Vikje" />
		<tag k="place" v="farm" />
		<tag k="ssr:stedsnr" v="29456" />
	</node>
	<node id="9625568772" lat="61.8508889" lon="8.6218722" version="1" timestamp="2022-03-31T05:17:57Z" changeset="119141262" uid="3497659" user="NKA">
		<tag k="name" v="Berget" />
		<tag k="place" v="farm" />
		<tag k="ssr:stedsnr" v="28051" />
	</node>
	<node id="9625568773" lat="61.8609917" lon="8.6354977" version="1" timestamp="2022-03-31T05:17:57Z" changeset="119141262" uid="3497659" user="NKA">
		<tag k="name" v="Kollen" />
		<tag k="place" v="hamlet" />
		<tag k="ssr:stedsnr" v="70075" />
	</node>
	<node id="9625568774" lat="61.8671234" lon="8.7228034" version="1" timestamp="2022-03-31T05:17:57Z" changeset="119141262" uid="3497659" user="NKA">
		<tag k="name" v="Turtum" />
		<tag k="place" v="farm" />
		<tag k="ssr:stedsnr" v="70065" />
	</node>
	<node id="9625568775" lat="61.8712361" lon="8.6627334" version="1" timestamp="2022-03-31T05:17:57Z" changeset="119141262" uid="3497659" user="NKA">
		<tag k="name" v="Nørdre Bakkjen" />
		<tag k="place" v="farm" />
		<tag k="ssr:stedsnr" v="904805" />
	</node>
	<node id="9625568776" lat="61.8674084" lon="8.6732834" version="1" timestamp="2022-03-31T05:17:57Z" changeset="119141262" uid="3497659" user="NKA">
		<tag k="name" v="Olsonstugu" />
		<tag k="place" v="farm" />
		<tag k="ssr:stedsnr" v="10083" />
	</node>
	<node id="9625568777" lat="61.8495361" lon="8.6251083" version="1" timestamp="2022-03-31T05:17:57Z" changeset="119141262" uid="3497659" user="NKA">
		<tag k="alt_name" v="Blakarsmoen" />
		<tag k="name" v="Moen" />
		<tag k="place" v="farm" />
		<tag k="ssr:stedsnr" v="799046" />
	</node>
	<node id="9625568778" lat="61.8512778" lon="8.6253306" version="1" timestamp="2022-03-31T05:17:57Z" changeset="119141262" uid="3497659" user="NKA">
		<tag k="alt_name" v="Frøysehågein" />
		<tag k="name" v="Hågån" />
		<tag k="place" v="farm" />
		<tag k="ssr:stedsnr" v="10034" />
	</node>
	<node id="9625568779" lat="61.8556059" lon="8.6577113" version="1" timestamp="2022-03-31T05:17:57Z" changeset="119141262" uid="3497659" user="NKA">
		<tag k="name" v="Kjæstad" />
		<tag k="place" v="farm" />
		<tag k="ssr:stedsnr" v="859073" />
	</node>
	<node id="9625568780" lat="61.8478195" lon="8.6106056" version="1" timestamp="2022-03-31T05:17:57Z" changeset="119141262" uid="3497659" user="NKA">
		<tag k="name" v="Nørdre Slette" />
		<tag k="place" v="farm" />
		<tag k="ssr:stedsnr" v="878143" />
	</node>
	<node id="9625568781" lat="61.8523389" lon="8.6288334" version="1" timestamp="2022-03-31T05:17:57Z" changeset="119141262" uid="3497659" user="NKA">
		<tag k="name" v="Svajordet" />
		<tag k="place" v="farm" />
		<tag k="ssr:stedsnr" v="878826" />
	</node>
	<node id="9625568782" lat="61.8484811" lon="8.7885417" version="1" timestamp="2022-03-31T05:17:57Z" changeset="119141262" uid="3497659" user="NKA">
		<tag k="name" v="Einarsvoll" />
		<tag k="place" v="farm" />
		<tag k="ssr:stedsnr" v="738061" />
	</node>
	<node id="9625568783" lat="61.8702416" lon="8.8044584" version="1" timestamp="2022-03-31T05:17:57Z" changeset="119141262" uid="3497659" user="NKA">
		<tag k="name" v="Søre Jota" />
		<tag k="place" v="farm" />
		<tag k="ssr:stedsnr" v="878384" />
	</node>
	<node id="9625568784" lat="61.8498306" lon="8.7175028" version="1" timestamp="2022-03-31T05:17:57Z" changeset="119141262" uid="3497659" user="NKA">
		<tag k="alt_name" v="Rudningi" />
		<tag k="name" v="Nørdre Runningje" />
		<tag k="place" v="farm" />
		<tag k="ssr:stedsnr" v="738063" />
	</node>
	<node id="9625568785" lat="61.8677494" lon="8.6868392" version="1" timestamp="2022-03-31T05:17:57Z" changeset="119141262" uid="3497659" user="NKA">
		<tag k="name" v="Gaukstad" />
		<tag k="place" v="farm" />
		<tag k="ssr:stedsnr" v="192071" />
	</node>
	<node id="9625568786" lat="61.8691949" lon="8.669597" version="1" timestamp="2022-03-31T05:17:57Z" changeset="119141262" uid="3497659" user="NKA">
		<tag k="alt_name" v="Lii, nordre;Nørdre Lie" />
		<tag k="name" v="Nørdre Lii" />
		<tag k="place" v="hamlet" />
		<tag k="ssr:stedsnr" v="192136" />
	</node>
	<node id="9625568787" lat="61.8512526" lon="8.7671391" version="1" timestamp="2022-03-31T05:17:57Z" changeset="119141262" uid="3497659" user="NKA">
		<tag k="name" v="Brimiskjellen" />
		<tag k="place" v="farm" />
		<tag k="ssr:stedsnr" v="192061" />
	</node>
	<node id="9625568788" lat="61.8466472" lon="8.7312555" version="1" timestamp="2022-03-31T05:17:57Z" changeset="119141262" uid="3497659" user="NKA">
		<tag k="name" v="Skogøygarden" />
		<tag k="place" v="locality" />
		<tag k="ssr:stedsnr" v="635728" />
	</node>
	<node id="9625568789" lat="61.8553889" lon="8.6394389" version="1" timestamp="2022-03-31T05:17:57Z" changeset="119141262" uid="3497659" user="NKA">
		<tag k="name" v="Søre Stronde" />
		<tag k="place" v="locality" />
		<tag k="ssr:stedsnr" v="635786" />
	</node>
	<node id="9625568790" lat="61.8493278" lon="8.7287611" version="1" timestamp="2022-03-31T05:17:57Z" changeset="119141262" uid="3497659" user="NKA">
		<tag k="name" v="Øygarden" />
		<tag k="place" v="farm" />
		<tag k="ssr:stedsnr" v="495070" />
	</node>
	<node id="9625568791" lat="61.8648056" lon="8.6702194" version="1" timestamp="2022-03-31T05:17:57Z" changeset="119141262" uid="3497659" user="NKA">
		<tag k="name" v="Rust" />
		<tag k="place" v="farm" />
		<tag k="ssr:stedsnr" v="556080" />
	</node>
	<node id="9625568792" lat="61.8484889" lon="8.6125666" version="1" timestamp="2022-03-31T05:17:57Z" changeset="119141262" uid="3497659" user="NKA">
		<tag k="alt_name" v="Sletti" />
		<tag k="name" v="Søre Slette" />
		<tag k="place" v="farm" />
		<tag k="ssr:stedsnr" v="555031" />
	</node>
	<node id="9625568793" lat="61.8783862" lon="8.7030139" version="1" timestamp="2022-03-31T05:17:57Z" changeset="119141262" uid="3497659" user="NKA">
		<tag k="name" v="Høgbrenna" />
		<tag k="place" v="farm" />
		<tag k="ssr:stedsnr" v="843599" />
	</node>
	<node id="9625568794" lat="61.846" lon="8.8456195" version="1" timestamp="2022-03-31T05:17:57Z" changeset="119141262" uid="3497659" user="NKA">
		<tag k="name" v="Nedre Byrkveen" />
		<tag k="place" v="farm" />
		<tag k="ssr:stedsnr" v="453561" />
	</node>
	<node id="9625568795" lat="61.8485083" lon="8.7228083" version="1" timestamp="2022-03-31T05:17:57Z" changeset="119141262" uid="3497659" user="NKA">
		<tag k="name" v="Reite" />
		<tag k="place" v="farm" />
		<tag k="ssr:stedsnr" v="454803" />
	</node>
	<node id="9625568796" lat="61.9297639" lon="8.7757416" version="1" timestamp="2022-03-31T05:17:57Z" changeset="119141262" uid="3497659" user="NKA">
		<tag k="alt_name" v="Sterringje" />
		<tag k="name" v="Sterringi" />
		<tag k="place" v="hamlet" />
		<tag k="ssr:stedsnr" v="374897" />
	</node>
	<node id="9625568797" lat="61.8483417" lon="8.8150805" version="1" timestamp="2022-03-31T05:17:57Z" changeset="119141262" uid="3497659" user="NKA">
		<tag k="name" v="Oppigard Garmo" />
		<tag k="place" v="farm" />
		<tag k="ssr:stedsnr" v="453549" />
	</node>
	<node id="9625568798" lat="61.8435861" lon="8.6031501" version="1" timestamp="2022-03-31T05:17:57Z" changeset="119141262" uid="3497659" user="NKA">
		<tag k="name" v="Blakarstugu" />
		<tag k="place" v="farm" />
		<tag k="ssr:stedsnr" v="313009" />
	</node>
	<node id="9625568799" lat="61.8732111" lon="8.7225639" version="1" timestamp="2022-03-31T05:17:57Z" changeset="119141262" uid="3497659" user="NKA">
		<tag k="alt_name" v="Marstein" />
		<tag k="name" v="Nørdre Marstein" />
		<tag k="place" v="farm" />
		<tag k="ssr:stedsnr" v="253142" />
	</node>
	<node id="9625568800" lat="61.7198093" lon="8.2622317" version="1" timestamp="2022-03-31T05:17:57Z" changeset="119141262" uid="3497659" user="NKA">
		<tag k="name" v="Skamsdalen" />
		<tag k="place" v="farm" />
		<tag k="ssr:stedsnr" v="435186" />
	</node>
	<node id="9625568801" lat="61.7254777" lon="8.2975001" version="1" timestamp="2022-03-31T05:17:57Z" changeset="119141262" uid="3497659" user="NKA">
		<tag k="alt_name" v="Brustugu" />
		<tag k="name" v="Brustugun" />
		<tag k="place" v="farm" />
		<tag k="ssr:stedsnr" v="252123" />
	</node>
	<node id="9625568802" lat="61.7161306" lon="8.3082112" version="1" timestamp="2022-03-31T05:17:57Z" changeset="119141262" uid="3497659" user="NKA">
		<tag k="name" v="Nordre Slålien" />
		<tag k="place" v="farm" />
		<tag k="ssr:stedsnr" v="357334" />
	</node>
	<node id="9625568803" lat="61.8484278" lon="8.6101377" version="1" timestamp="2022-03-31T05:17:57Z" changeset="119141262" uid="3497659" user="NKA">
		<tag k="name" v="Øvergrende" />
		<tag k="place" v="hamlet" />
		<tag k="ssr:stedsnr" v="392054" />
	</node>
	<node id="9625568804" lat="61.8152444" lon="8.5110806" version="1" timestamp="2022-03-31T05:17:57Z" changeset="119141262" uid="3497659" user="NKA">
		<tag k="alt_name" v="Nørjordet, nedre" />
		<tag k="name" v="Nedre Nørjordet" />
		<tag k="place" v="farm" />
		<tag k="ssr:stedsnr" v="252214" />
	</node>
	<node id="9625568805" lat="61.8651678" lon="8.7131831" version="1" timestamp="2022-03-31T05:17:57Z" changeset="119141262" uid="3497659" user="NKA">
		<tag k="name" v="Barlund" />
		<tag k="place" v="farm" />
		<tag k="ssr:stedsnr" v="373057" />
	</node>
	<node id="9625568806" lat="61.8603451" lon="8.4864326" version="1" timestamp="2022-03-31T05:17:57Z" changeset="119141262" uid="3497659" user="NKA">
		<tag k="name" v="Nørstnes" />
		<tag k="place" v="farm" />
		<tag k="ssr:stedsnr" v="252084" />
	</node>
	<node id="9625568807" lat="61.7238289" lon="8.2781069" version="1" timestamp="2022-03-31T05:17:57Z" changeset="119141262" uid="3497659" user="NKA">
		<tag k="name" v="Runningom" />
		<tag k="place" v="farm" />
		<tag k="ssr:stedsnr" v="235336" />
	</node>
	<node id="9625568808" lat="61.8132834" lon="8.484575" version="1" timestamp="2022-03-31T05:17:57Z" changeset="119141262" uid="3497659" user="NKA">
		<tag k="name" v="Gutubøteigen" />
		<tag k="place" v="farm" />
		<tag k="ssr:stedsnr" v="131224" />
	</node>
	<node id="9625568809" lat="61.8233391" lon="8.5062814" version="1" timestamp="2022-03-31T05:17:57Z" changeset="119141262" uid="3497659" user="NKA">
		<tag k="alt_name" v="Kvålshagen" />
		<tag k="name" v="Kvålshågån" />
		<tag k="place" v="farm" />
		<tag k="ssr:stedsnr" v="920206" />
	</node>
	<node id="9625568810" lat="61.8161167" lon="8.4929334" version="1" timestamp="2022-03-31T05:17:57Z" changeset="119141262" uid="3497659" user="NKA">
		<tag k="name" v="Nørdre Aukrust" />
		<tag k="place" v="farm" />
		<tag k="ssr:stedsnr" v="632935" />
	</node>
	<node id="9625568811" lat="61.675275" lon="8.4391223" version="1" timestamp="2022-03-31T05:17:57Z" changeset="119141262" uid="3497659" user="NKA">
		<tag k="name" v="Bleikstulen" />
		<tag k="place" v="isolated_dwelling" />
		<tag k="ssr:stedsnr" v="617243" />
	</node>
	<node id="9625568812" lat="61.8134889" lon="8.4743333" version="1" timestamp="2022-03-31T05:17:57Z" changeset="119141262" uid="3497659" user="NKA">
		<tag k="name" v="Nordgard Krøkje" />
		<tag k="place" v="farm" />
		<tag k="ssr:stedsnr" v="660027" />
	</node>
	<node id="9625568813" lat="61.865" lon="8.8023334" version="1" timestamp="2022-03-31T05:17:57Z" changeset="119141262" uid="3497659" user="NKA">
		<tag k="alt_name" v="Torstugu" />
		<tag k="name" v="Torsstugu" />
		<tag k="place" v="farm" />
		<tag k="ssr:stedsnr" v="252079" />
	</node>
	<node id="9625568814" lat="61.8720639" lon="8.6678278" version="1" timestamp="2022-03-31T05:17:57Z" changeset="119141262" uid="3497659" user="NKA">
		<tag k="alt_name" v="Søre Bakkjen" />
		<tag k="name" v="Bakken" />
		<tag k="place" v="farm" />
		<tag k="ssr:stedsnr" v="253137" />
	</node>
	<node id="9625568815" lat="61.8481473" lon="8.6012805" version="1" timestamp="2022-03-31T05:17:57Z" changeset="119141262" uid="3497659" user="NKA">
		<tag k="alt_name" v="Stamstad" />
		<tag k="name" v="Sygard Stamstad" />
		<tag k="place" v="farm" />
		<tag k="ssr:stedsnr" v="252032" />
	</node>
	<node id="9625568816" lat="61.8663584" lon="8.6907361" version="1" timestamp="2022-03-31T05:17:57Z" changeset="119141262" uid="3497659" user="NKA">
		<tag k="name" v="Furuheim" />
		<tag k="place" v="farm" />
		<tag k="ssr:stedsnr" v="252059" />
	</node>
	<node id="9625568817" lat="61.8549778" lon="8.800289" version="1" timestamp="2022-03-31T05:17:57Z" changeset="119141262" uid="3497659" user="NKA">
		<tag k="name" v="Gjeilhaugen" />
		<tag k="place" v="quarter" />
		<tag k="ssr:stedsnr" v="210673" />
	</node>
	<node id="9625568818" lat="61.8736084" lon="8.7250777" version="1" timestamp="2022-03-31T05:17:57Z" changeset="119141262" uid="3497659" user="NKA">
		<tag k="name" v="Søre Marstein" />
		<tag k="place" v="farm" />
		<tag k="ssr:stedsnr" v="236963" />
	</node>
	<node id="9625568819" lat="61.8582611" lon="8.6965639" version="1" timestamp="2022-03-31T05:17:57Z" changeset="119141262" uid="3497659" user="NKA">
		<tag k="name" v="Kollen" />
		<tag k="place" v="hamlet" />
		<tag k="ssr:stedsnr" v="10045" />
	</node>
	<node id="9625568820" lat="61.8653167" lon="8.6778444" version="1" timestamp="2022-03-31T05:17:57Z" changeset="119141262" uid="3497659" user="NKA">
		<tag k="name" v="Søre Sveine" />
		<tag k="place" v="farm" />
		<tag k="ssr:stedsnr" v="115784" />
	</node>
	<node id="9625568821" lat="61.9331778" lon="8.5729779" version="1" timestamp="2022-03-31T05:17:57Z" changeset="119141262" uid="3497659" user="NKA">
		<tag k="name" v="Råkåhytta" />
		<tag k="place" v="isolated_dwelling" />
		<tag k="ssr:stedsnr" v="860909" />
	</node>
	<node id="9625568822" lat="61.8979713" lon="8.7316554" version="1" timestamp="2022-03-31T05:17:57Z" changeset="119141262" uid="3497659" user="NKA">
		<tag k="alt_name" v="Snauskallbue" />
		<tag k="name" v="Snauskallbui" />
		<tag k="place" v="locality" />
		<tag k="ssr:stedsnr" v="920941" />
	</node>
	<node id="9625568823" lat="61.8468305" lon="8.5385723" version="1" timestamp="2022-03-31T05:17:57Z" changeset="119141262" uid="3497659" user="NKA">
		<tag k="name" v="Sør-Vike" />
		<tag k="place" v="farm" />
		<tag k="ssr:stedsnr" v="877437" />
	</node>
	<node id="9625568824" lat="61.8390778" lon="8.5471333" version="1" timestamp="2022-03-31T05:17:57Z" changeset="119141262" uid="3497659" user="NKA">
		<tag k="alt_name" v="Eggi" />
		<tag k="name" v="Øver-Eggje" />
		<tag k="place" v="farm" />
		<tag k="ssr:stedsnr" v="738015" />
	</node>
	<node id="9625568825" lat="61.8334834" lon="8.5505527" version="1" timestamp="2022-03-31T05:17:57Z" changeset="119141262" uid="3497659" user="NKA">
		<tag k="name" v="Andvordsjordet" />
		<tag k="place" v="quarter" />
		<tag k="ssr:stedsnr" v="875160" />
	</node>
	<node id="9625568826" lat="61.84365" lon="8.848625" version="1" timestamp="2022-03-31T05:17:57Z" changeset="119141262" uid="3497659" user="NKA">
		<tag k="name" v="Bjørgen" />
		<tag k="place" v="farm" />
		<tag k="ssr:stedsnr" v="192312" />
	</node>
	<node id="9625568827" lat="61.84375" lon="8.5488472" version="1" timestamp="2022-03-31T05:17:57Z" changeset="119141262" uid="3497659" user="NKA">
		<tag k="alt_name" v="Svei" />
		<tag k="name" v="Svee" />
		<tag k="place" v="farm" />
		<tag k="ssr:stedsnr" v="192039" />
	</node>
	<node id="9625568828" lat="61.8862" lon="8.7021306" version="1" timestamp="2022-03-31T05:17:57Z" changeset="119141262" uid="3497659" user="NKA">
		<tag k="name" v="Kvammen" />
		<tag k="place" v="isolated_dwelling" />
		<tag k="ssr:stedsnr" v="860117" />
	</node>
	<node id="9625568829" lat="61.8321139" lon="8.557939" version="1" timestamp="2022-03-31T05:17:57Z" changeset="119141262" uid="3497659" user="NKA">
		<tag k="alt_name" v="Øy" />
		<tag k="name" v="Nørderøy" />
		<tag k="place" v="farm" />
		<tag k="ssr:stedsnr" v="192030" />
	</node>
	<node id="9625568830" lat="61.8531398" lon="8.6328603" version="1" timestamp="2022-03-31T05:17:57Z" changeset="119141262" uid="3497659" user="NKA">
		<tag k="name" v="Frøyse" />
		<tag k="place" v="farm" />
		<tag k="ssr:stedsnr" v="859049" />
	</node>
	<node id="9625568831" lat="61.8512656" lon="8.7366495" version="1" timestamp="2022-03-31T05:17:57Z" changeset="119141262" uid="3497659" user="NKA">
		<tag k="name" v="Fyrustugu" />
		<tag k="place" v="farm" />
		<tag k="ssr:stedsnr" v="696772" />
	</node>
	<node id="9625568832" lat="61.8650139" lon="8.6726166" version="1" timestamp="2022-03-31T05:17:57Z" changeset="119141262" uid="3497659" user="NKA">
		<tag k="name" v="Nørdre Sveine" />
		<tag k="place" v="farm" />
		<tag k="ssr:stedsnr" v="843827" />
	</node>
	<node id="9625568833" lat="61.8606889" lon="8.6591916" version="1" timestamp="2022-03-31T05:17:57Z" changeset="119141262" uid="3497659" user="NKA">
		<tag k="alt_name" v="Sandviki" />
		<tag k="name" v="Sandvikje" />
		<tag k="place" v="farm" />
		<tag k="ssr:stedsnr" v="555073" />
	</node>
	<node id="9625568834" lat="61.8202676" lon="8.5339512" version="1" timestamp="2022-03-31T05:17:57Z" changeset="119141262" uid="3497659" user="NKA">
		<tag k="name" v="Juland" />
		<tag k="place" v="farm" />
		<tag k="ssr:stedsnr" v="556265" />
	</node>
	<node id="9625568835" lat="61.8513306" lon="8.7094306" version="1" timestamp="2022-03-31T05:17:57Z" changeset="119141262" uid="3497659" user="NKA">
		<tag k="alt_name" v="Øyi" />
		<tag k="name" v="Øye" />
		<tag k="place" v="farm" />
		<tag k="ssr:stedsnr" v="555058" />
	</node>
	<node id="9625568836" lat="61.8455612" lon="8.5427806" version="1" timestamp="2022-03-31T05:17:57Z" changeset="119141262" uid="3497659" user="NKA">
		<tag k="alt_name" v="Vesløyi" />
		<tag k="name" v="Vesløye" />
		<tag k="place" v="farm" />
		<tag k="ssr:stedsnr" v="555033" />
	</node>
	<node id="9625568837" lat="61.8801778" lon="8.7425055" version="1" timestamp="2022-03-31T05:17:57Z" changeset="119141262" uid="3497659" user="NKA">
		<tag k="name" v="Barlundlykkja" />
		<tag k="place" v="locality" />
		<tag k="ssr:stedsnr" v="313113" />
	</node>
	<node id="9625568838" lat="61.8469306" lon="8.8069528" version="1" timestamp="2022-03-31T05:17:57Z" changeset="119141262" uid="3497659" user="NKA">
		<tag k="alt_name" v="Frisvollmoen" />
		<tag k="name" v="Moen" />
		<tag k="place" v="farm" />
		<tag k="ssr:stedsnr" v="374054" />
	</node>
	<node id="9625568839" lat="61.6738528" lon="8.7608556" version="1" timestamp="2022-03-31T05:17:57Z" changeset="119141262" uid="3497659" user="NKA">
		<tag k="name" v="Stallhytta" />
		<tag k="place" v="isolated_dwelling" />
		<tag k="ssr:stedsnr" v="313908" />
	</node>
	<node id="9625568840" lat="61.8448417" lon="8.6037666" version="1" timestamp="2022-03-31T05:17:57Z" changeset="119141262" uid="3497659" user="NKA">
		<tag k="name" v="Torkjellstugu" />
		<tag k="place" v="farm" />
		<tag k="ssr:stedsnr" v="817241" />
	</node>
	<node id="9625568841" lat="61.7477389" lon="8.4096417" version="1" timestamp="2022-03-31T05:17:57Z" changeset="119141262" uid="3497659" user="NKA">
		<tag k="alt_name" v="Kringlehaugen" />
		<tag k="name" v="Kringelhaugen" />
		<tag k="place" v="farm" />
		<tag k="ssr:stedsnr" v="860209" />
	</node>
	<node id="9625568842" lat="61.7256944" lon="8.2784139" version="1" timestamp="2022-03-31T05:17:57Z" changeset="119141262" uid="3497659" user="NKA">
		<tag k="name" v="Runningshaugen" />
		<tag k="place" v="farm" />
		<tag k="ssr:stedsnr" v="175312" />
	</node>
	<node id="9625568843" lat="61.726475" lon="8.2861806" version="1" timestamp="2022-03-31T05:17:57Z" changeset="119141262" uid="3497659" user="NKA">
		<tag k="name" v="Runningen" />
		<tag k="place" v="farm" />
		<tag k="ssr:stedsnr" v="131167" />
	</node>
	<node id="9625568844" lat="61.8479056" lon="8.6187722" version="1" timestamp="2022-03-31T05:17:57Z" changeset="119141262" uid="3497659" user="NKA">
		<tag k="name" v="Randen" />
		<tag k="place" v="farm" />
		<tag k="ssr:stedsnr" v="738038" />
	</node>
	<node id="9625568845" lat="61.8492029" lon="8.6026111" version="1" timestamp="2022-03-31T05:17:57Z" changeset="119141262" uid="3497659" user="NKA">
		<tag k="name" v="Nørdre Stronde" />
		<tag k="place" v="locality" />
		<tag k="ssr:stedsnr" v="210045" />
	</node>
	<node id="9625568846" lat="61.8576361" lon="8.6910111" version="1" timestamp="2022-03-31T05:17:57Z" changeset="119141262" uid="3497659" user="NKA">
		<tag k="name" v="Søre Rådsbakken" />
		<tag k="place" v="farm" />
		<tag k="ssr:stedsnr" v="661090" />
	</node>
	<node id="9625568847" lat="61.8453944" lon="8.7184057" version="1" timestamp="2022-03-31T05:17:57Z" changeset="119141262" uid="3497659" user="NKA">
		<tag k="name" v="Øvstøygarden" />
		<tag k="place" v="locality" />
		<tag k="ssr:stedsnr" v="150716" />
	</node>
	<node id="9625568848" lat="61.8734438" lon="8.7494268" version="1" timestamp="2022-03-31T05:17:57Z" changeset="119141262" uid="3497659" user="NKA">
		<tag k="name" v="Nørdre Vikje" />
		<tag k="place" v="farm" />
		<tag k="ssr:stedsnr" v="150437" />
	</node>
	<node id="9625568849" lat="61.8498695" lon="8.7201445" version="1" timestamp="2022-03-31T05:17:57Z" changeset="119141262" uid="3497659" user="NKA">
		<tag k="name" v="Runningje" />
		<tag k="place" v="farm" />
		<tag k="ssr:stedsnr" v="272748" />
	</node>
	<node id="9625568850" lat="61.8564544" lon="8.804584" version="1" timestamp="2022-03-31T05:17:57Z" changeset="119141262" uid="3497659" user="NKA">
		<tag k="name" v="Nørdre Odde" />
		<tag k="place" v="farm" />
		<tag k="ssr:stedsnr" v="149491" />
	</node>
	<node id="9625568851" lat="61.8512722" lon="8.813736" version="1" timestamp="2022-03-31T05:17:57Z" changeset="119141262" uid="3497659" user="NKA">
		<tag k="name" v="Systugun Garmo" />
		<tag k="place" v="farm" />
		<tag k="ssr:stedsnr" v="149518" />
	</node>
	<node id="9625568852" lat="61.8304139" lon="8.5435583" version="1" timestamp="2022-03-31T05:17:57Z" changeset="119141262" uid="3497659" user="NKA">
		<tag k="name" v="Lyuengje" />
		<tag k="place" v="farm" />
		<tag k="ssr:stedsnr" v="147141" />
	</node>
	<node id="9625568853" lat="61.8607972" lon="8.8292751" version="1" timestamp="2022-03-31T05:17:57Z" changeset="119141262" uid="3497659" user="NKA">
		<tag k="name" v="Midtre Veslsætre" />
		<tag k="place" v="farm" />
		<tag k="ssr:stedsnr" v="114319" />
	</node>
	<node id="9625568854" lat="61.8355612" lon="8.5516188" version="1" timestamp="2022-03-31T05:17:57Z" changeset="119141262" uid="3497659" user="NKA">
		<tag k="name" v="Andvordstrædet" />
		<tag k="place" v="quarter" />
		<tag k="ssr:stedsnr" v="88395" />
	</node>
	<node id="9625568855" lat="61.849325" lon="8.7537917" version="1" timestamp="2022-03-31T05:17:57Z" changeset="119141262" uid="3497659" user="NKA">
		<tag k="name" v="Søre Lyngve" />
		<tag k="place" v="farm" />
		<tag k="ssr:stedsnr" v="89644" />
	</node>
	<node id="9625568856" lat="61.928525" lon="8.7619416" version="1" timestamp="2022-03-31T05:17:57Z" changeset="119141262" uid="3497659" user="NKA">
		<tag k="name" v="Reinskinn" />
		<tag k="place" v="isolated_dwelling" />
		<tag k="ssr:stedsnr" v="71901" />
	</node>
	<node id="9625568857" lat="61.8545527" lon="8.8693388" version="1" timestamp="2022-03-31T05:17:57Z" changeset="119141262" uid="3497659" user="NKA">
		<tag k="name" v="Hagen" />
		<tag k="place" v="farm" />
		<tag k="ssr:stedsnr" v="271581" />
	</node>
	<node id="9625568858" lat="61.8418556" lon="8.690075" version="1" timestamp="2022-03-31T05:17:57Z" changeset="119141262" uid="3497659" user="NKA">
		<tag k="name" v="Gamelsætri" />
		<tag k="place" v="locality" />
		<tag k="ssr:stedsnr" v="71004" />
	</node>
	<node id="9625568859" lat="61.8692139" lon="8.6682638" version="1" timestamp="2022-03-31T05:17:57Z" changeset="119141262" uid="3497659" user="NKA">
		<tag k="name" v="Søre Øverli" />
		<tag k="place" v="farm" />
		<tag k="ssr:stedsnr" v="54802" />
	</node>
	<node id="9625568860" lat="61.9552639" lon="8.5852916" version="1" timestamp="2022-03-31T05:17:57Z" changeset="119141262" uid="3497659" user="NKA">
		<tag k="name" v="Falkefangarbui" />
		<tag k="place" v="isolated_dwelling" />
		<tag k="ssr:stedsnr" v="10908" />
	</node>
	<node id="9625568861" lat="61.717775" lon="8.7158528" version="1" timestamp="2022-03-31T05:17:57Z" changeset="119141262" uid="3497659" user="NKA">
		<tag k="name" v="Ormehaugen" />
		<tag k="place" v="locality" />
		<tag k="ssr:stedsnr" v="10077" />
	</node>
	<node id="9625568862" lat="61.8704416" lon="8.7248138" version="1" timestamp="2022-03-31T05:17:57Z" changeset="119141262" uid="3497659" user="NKA">
		<tag k="name" v="Turtumøygarden" />
		<tag k="place" v="farm" />
		<tag k="ssr:stedsnr" v="10081" />
	</node>
	<node id="9625568863" lat="61.8481516" lon="8.7695599" version="1" timestamp="2022-03-31T05:17:57Z" changeset="119141262" uid="3497659" user="NKA">
		<tag k="alt_name" v="Søre Brimi;Brimi, s" />
		<tag k="name" v="Sygard Brimi" />
		<tag k="place" v="farm" />
		<tag k="ssr:stedsnr" v="10049" />
	</node>
	<node id="9625568864" lat="61.8651701" lon="8.7180187" version="1" timestamp="2022-03-31T05:17:57Z" changeset="119141262" uid="3497659" user="NKA">
		<tag k="alt_name" v="Stadsviki, nedre" />
		<tag k="name" v="Nedre Stasvikje" />
		<tag k="place" v="farm" />
		<tag k="ssr:stedsnr" v="10078" />
	</node>
	<node id="9625568865" lat="61.8462278" lon="8.7442221" version="1" timestamp="2022-03-31T05:17:57Z" changeset="119141262" uid="3497659" user="NKA">
		<tag k="name" v="Hidemstrædet" />
		<tag k="place" v="farm" />
		<tag k="ssr:stedsnr" v="10054" />
	</node>
	<node id="9625568866" lat="61.8457278" lon="8.8302722" version="1" timestamp="2022-03-31T05:17:57Z" changeset="119141262" uid="3497659" user="NKA">
		<tag k="name" v="Brekka" />
		<tag k="place" v="farm" />
		<tag k="ssr:stedsnr" v="10048" />
	</node>
	<node id="9625568867" lat="61.8482785" lon="8.5988313" version="1" timestamp="2022-03-31T05:17:57Z" changeset="119141262" uid="3497659" user="NKA">
		<tag k="name" v="Stamstad" />
		<tag k="place" v="hamlet" />
		<tag k="ssr:stedsnr" v="984362" />
	</node>
	<node id="9625568868" lat="61.8573067" lon="8.6870783" version="1" timestamp="2022-03-31T05:17:57Z" changeset="119141262" uid="3497659" user="NKA">
		<tag k="name" v="Nørdre Rådsbakken" />
		<tag k="place" v="farm" />
		<tag k="ssr:stedsnr" v="987367" />
	</node>
	<node id="9625568869" lat="61.8355921" lon="8.548764" version="1" timestamp="2022-03-31T05:17:57Z" changeset="119141262" uid="3497659" user="NKA">
		<tag k="name" v="Andvord" />
		<tag k="place" v="farm" />
		<tag k="ssr:stedsnr" v="984387" />
	</node>
	<node id="9625568870" lat="61.7650955" lon="8.4032278" version="1" timestamp="2022-03-31T05:17:57Z" changeset="119141262" uid="3497659" user="NKA">
		<tag k="name" v="Sulheim" />
		<tag k="place" v="hamlet" />
		<tag k="ssr:stedsnr" v="984400" />
	</node>
	<node id="9625568871" lat="61.8734045" lon="8.7039366" version="1" timestamp="2022-03-31T05:17:57Z" changeset="119141262" uid="3497659" user="NKA">
		<tag k="name" v="Haukdalen" />
		<tag k="place" v="farm" />
		<tag k="ssr:stedsnr" v="964917" />
	</node>
	<node id="9625568872" lat="61.8738731" lon="8.7236774" version="1" timestamp="2022-03-31T05:17:57Z" changeset="119141262" uid="3497659" user="NKA">
		<tag k="name" v="Marstein" />
		<tag k="place" v="farm" />
		<tag k="ssr:stedsnr" v="984392" />
	</node>
	<node id="9625568873" lat="61.7092277" lon="8.3032945" version="1" timestamp="2022-03-31T05:17:57Z" changeset="119141262" uid="3497659" user="NKA">
		<tag k="name" v="Åmotlykkja" />
		<tag k="place" v="locality" />
		<tag k="ssr:stedsnr" v="963390" />
	</node>
	<node id="9625568874" lat="61.8553111" lon="8.5120779" version="1" timestamp="2022-03-31T05:17:57Z" changeset="119141262" uid="3497659" user="NKA">
		<tag k="name" v="Sygard Synstnes" />
		<tag k="place" v="farm" />
		<tag k="ssr:stedsnr" v="816433" />
	</node>
	<node id="9625568875" lat="61.8676555" lon="8.8141723" version="1" timestamp="2022-03-31T05:17:57Z" changeset="119141262" uid="3497659" user="NKA">
		<tag k="name" v="Jotvesløygarden" />
		<tag k="place" v="locality" />
		<tag k="ssr:stedsnr" v="782235" />
	</node>
	<node id="9625568876" lat="61.8414007" lon="8.5703804" version="1" timestamp="2022-03-31T05:17:57Z" changeset="119141262" uid="3497659" user="NKA">
		<tag k="name" v="Prestøye" />
		<tag k="place" v="neighbourhood" />
		<tag k="ssr:stedsnr" v="756253" />
	</node>
	<node id="9625568877" lat="61.7136416" lon="8.3384139" version="1" timestamp="2022-03-31T05:17:57Z" changeset="119141262" uid="3497659" user="NKA">
		<tag k="name" v="Juvstad" />
		<tag k="place" v="farm" />
		<tag k="ssr:stedsnr" v="781287" />
	</node>
	<node id="9625568878" lat="61.847497" lon="8.6040975" version="1" timestamp="2022-03-31T05:17:57Z" changeset="119141262" uid="3497659" user="NKA">
		<tag k="name" v="Haugom" />
		<tag k="place" v="farm" />
		<tag k="ssr:stedsnr" v="738034" />
	</node>
	<node id="9625568879" lat="61.8532778" lon="8.7243222" version="1" timestamp="2022-03-31T05:17:57Z" changeset="119141262" uid="3497659" user="NKA">
		<tag k="name" v="Bjørkli" />
		<tag k="place" v="farm" />
		<tag k="ssr:stedsnr" v="738052" />
	</node>
	<node id="9625568880" lat="61.76495" lon="8.6188333" version="1" timestamp="2022-03-31T05:17:57Z" changeset="119141262" uid="3497659" user="NKA">
		<tag k="name" v="Illmyrbråtet" />
		<tag k="place" v="locality" />
		<tag k="ssr:stedsnr" v="678230" />
	</node>
	<node id="9625568881" lat="61.8562278" lon="8.5102779" version="1" timestamp="2022-03-31T05:17:57Z" changeset="119141262" uid="3497659" user="NKA">
		<tag k="name" v="Uppistugun Synstnes" />
		<tag k="place" v="farm" />
		<tag k="ssr:stedsnr" v="695448" />
	</node>
	<node id="9625568882" lat="61.8742576" lon="8.7456749" version="1" timestamp="2022-03-31T05:17:57Z" changeset="119141262" uid="3497659" user="NKA">
		<tag k="name" v="Vamsæter" />
		<tag k="place" v="farm" />
		<tag k="ssr:stedsnr" v="617153" />
	</node>
	<node id="9625568883" lat="61.824225" lon="8.5316862" version="1" timestamp="2022-03-31T05:17:57Z" changeset="119141262" uid="3497659" user="NKA">
		<tag k="alt_name" v="Søre Marstein;Marstein, s" />
		<tag k="name" v="Sygard Marstein" />
		<tag k="place" v="farm" />
		<tag k="ssr:stedsnr" v="617254" />
	</node>
	<node id="9625568884" lat="61.8704475" lon="8.5053427" version="1" timestamp="2022-03-31T05:17:57Z" changeset="119141262" uid="3497659" user="NKA">
		<tag k="alt_name" v="Bakkjen" />
		<tag k="name" v="Bakken" />
		<tag k="place" v="farm" />
		<tag k="ssr:stedsnr" v="536796" />
	</node>
	<node id="9625568885" lat="61.7205417" lon="8.3396889" version="1" timestamp="2022-03-31T05:17:57Z" changeset="119141262" uid="3497659" user="NKA">
		<tag k="name" v="Nigard Galde" />
		<tag k="place" v="farm" />
		<tag k="ssr:stedsnr" v="599316" />
	</node>
	<node id="9625568886" lat="61.6971833" lon="8.4514055" version="1" timestamp="2022-03-31T05:17:57Z" changeset="119141262" uid="3497659" user="NKA">
		<tag k="historic" v="shieling" />
		<tag k="name" v="Smiugjelsøygarden" />
		<tag k="place" v="isolated_dwelling" />
		<tag k="ssr:stedsnr" v="495239" />
	</node>
	<node id="9625568887" lat="61.8197861" lon="8.4984001" version="1" timestamp="2022-03-31T05:17:57Z" changeset="119141262" uid="3497659" user="NKA">
		<tag k="name" v="Sygard Aukrust" />
		<tag k="place" v="farm" />
		<tag k="ssr:stedsnr" v="511936" />
	</node>
	<node id="9625568888" lat="61.7281663" lon="8.3587116" version="1" timestamp="2022-03-31T05:17:57Z" changeset="119141262" uid="3497659" user="NKA">
		<tag k="name" v="Mundgjel" />
		<tag k="place" v="farm" />
		<tag k="ssr:stedsnr" v="374180" />
	</node>
	<node id="9625568889" lat="61.8673262" lon="8.7908587" version="1" timestamp="2022-03-31T05:17:57Z" changeset="119141262" uid="3497659" user="NKA">
		<tag k="name" v="Grasdalen" />
		<tag k="place" v="farm" />
		<tag k="ssr:stedsnr" v="434077" />
	</node>
	<node id="9625568890" lat="61.8258528" lon="8.5289251" version="1" timestamp="2022-03-31T05:17:57Z" changeset="119141262" uid="3497659" user="NKA">
		<tag k="alt_name" v="Marsteinsvee" />
		<tag k="name" v="Svei" />
		<tag k="place" v="farm" />
		<tag k="ssr:stedsnr" v="374033" />
	</node>
	<node id="9625568891" lat="61.8229778" lon="8.5251166" version="1" timestamp="2022-03-31T05:17:57Z" changeset="119141262" uid="3497659" user="NKA">
		<tag k="name" v="Nordgard Marstein" />
		<tag k="place" v="farm" />
		<tag k="ssr:stedsnr" v="329146" />
	</node>
	<node id="9625568892" lat="61.8525695" lon="8.7164305" version="1" timestamp="2022-03-31T05:17:57Z" changeset="119141262" uid="3497659" user="NKA">
		<tag k="name" v="Granrud" />
		<tag k="place" v="farm" />
		<tag k="ssr:stedsnr" v="313040" />
	</node>
	<node id="9625568893" lat="61.8532945" lon="8.518014" version="1" timestamp="2022-03-31T05:17:57Z" changeset="119141262" uid="3497659" user="NKA">
		<tag k="name" v="Gjerdet" />
		<tag k="place" v="farm" />
		<tag k="ssr:stedsnr" v="28448" />
	</node>
	<node id="9625568894" lat="61.8459805" lon="8.8358612" version="1" timestamp="2022-03-31T05:17:57Z" changeset="119141262" uid="3497659" user="NKA">
		<tag k="name" v="Nyhus" />
		<tag k="place" v="farm" />
		<tag k="ssr:stedsnr" v="149530" />
	</node>
	<node id="9625568895" lat="61.8524806" lon="8.6442945" version="1" timestamp="2022-03-31T05:17:57Z" changeset="119141262" uid="3497659" user="NKA">
		<tag k="alt_name" v="Skånsar, øvre" />
		<tag k="name" v="Øvre Skånsar" />
		<tag k="place" v="farm" />
		<tag k="ssr:stedsnr" v="495105" />
	</node>
	<node id="9625568896" lat="61.9630889" lon="8.5366917" version="1" timestamp="2022-03-31T05:17:57Z" changeset="119141262" uid="3497659" user="NKA">
		<tag k="name" v="Vassmillom" />
		<tag k="place" v="locality" />
		<tag k="ssr:stedsnr" v="192911" />
	</node>
	<node id="9625568897" lat="61.7042816" lon="8.2853976" version="1" timestamp="2022-03-31T05:17:57Z" changeset="119141262" uid="3497659" user="NKA">
		<tag k="name" v="Elvesæter" />
		<tag k="place" v="farm" />
		<tag k="ssr:stedsnr" v="984397" />
	</node>
	<node id="9625568898" lat="61.7216889" lon="8.3422506" version="1" timestamp="2022-03-31T05:17:57Z" changeset="119141262" uid="3497659" user="NKA">
		<tag k="name" v="Galde" />
		<tag k="place" v="farm" />
		<tag k="ssr:stedsnr" v="984398" />
	</node>
	<node id="9625568899" lat="61.7234261" lon="8.3332905" version="1" timestamp="2022-03-31T05:17:57Z" changeset="119141262" uid="3497659" user="NKA">
		<tag k="name" v="Bakkeberg" />
		<tag k="place" v="farm" />
		<tag k="ssr:stedsnr" v="799167" />
	</node>
	<node id="9625568900" lat="61.8527889" lon="8.7146667" version="1" timestamp="2022-03-31T05:17:57Z" changeset="119141262" uid="3497659" user="NKA">
		<tag k="name" v="Grindstugu" />
		<tag k="place" v="farm" />
		<tag k="ssr:stedsnr" v="818783" />
	</node>
	<node id="9625568901" lat="61.7469917" lon="8.4175528" version="1" timestamp="2022-03-31T05:17:57Z" changeset="119141262" uid="3497659" user="NKA">
		<tag k="name" v="Lunna" />
		<tag k="place" v="farm" />
		<tag k="ssr:stedsnr" v="418433" />
	</node>
	<node id="9625568902" lat="61.8515917" lon="8.7350138" version="1" timestamp="2022-03-31T05:17:57Z" changeset="119141262" uid="3497659" user="NKA">
		<tag k="name" v="Orderøygarden" />
		<tag k="place" v="farm" />
		<tag k="ssr:stedsnr" v="575745" />
	</node>
	<node id="9625568903" lat="61.8633222" lon="8.4833927" version="1" timestamp="2022-03-31T05:17:57Z" changeset="119141262" uid="3497659" user="NKA">
		<tag k="name" v="Nørstnesstugu" />
		<tag k="place" v="farm" />
		<tag k="ssr:stedsnr" v="960760" />
	</node>
	<node id="9625568904" lat="61.8554756" lon="8.5096094" version="1" timestamp="2022-03-31T05:17:57Z" changeset="119141262" uid="3497659" user="NKA">
		<tag k="name" v="Synstnes" />
		<tag k="place" v="hamlet" />
		<tag k="ssr:stedsnr" v="984388" />
	</node>
	<node id="9625568905" lat="61.8585361" lon="8.4960778" version="1" timestamp="2022-03-31T05:17:57Z" changeset="119141262" uid="3497659" user="NKA">
		<tag k="name" v="Felup" />
		<tag k="place" v="farm" />
		<tag k="ssr:stedsnr" v="778788" />
	</node>
	<node id="9625568906" lat="61.8604833" lon="8.4941834" version="1" timestamp="2022-03-31T05:17:57Z" changeset="119141262" uid="3497659" user="NKA">
		<tag k="name" v="Nørstneshågån" />
		<tag k="place" v="farm" />
		<tag k="ssr:stedsnr" v="738132" />
	</node>
	<node id="9625568907" lat="61.8589361" lon="8.5043677" version="1" timestamp="2022-03-31T05:17:57Z" changeset="119141262" uid="3497659" user="NKA">
		<tag k="name" v="Stusnes" />
		<tag k="place" v="farm" />
		<tag k="ssr:stedsnr" v="555079" />
	</node>
	<node id="9625568908" lat="61.8598639" lon="8.497125" version="1" timestamp="2022-03-31T05:17:57Z" changeset="119141262" uid="3497659" user="NKA">
		<tag k="name" v="Bjørke" />
		<tag k="place" v="farm" />
		<tag k="ssr:stedsnr" v="616082" />
	</node>
	<node id="9625568909" lat="61.857334" lon="8.6888603" version="1" timestamp="2022-03-31T05:17:57Z" changeset="119141262" uid="3497659" user="NKA">
		<tag k="name" v="Rådsbakken" />
		<tag k="place" v="locality" />
		<tag k="ssr:stedsnr" v="313042" />
	</node>
	<node id="9625568910" lat="61.8673666" lon="8.516914" version="1" timestamp="2022-03-31T05:17:57Z" changeset="119141262" uid="3497659" user="NKA">
		<tag k="name" v="Bergon" />
		<tag k="place" v="farm" />
		<tag k="ssr:stedsnr" v="374128" />
	</node>
	<node id="9625568911" lat="61.8718527" lon="8.7750584" version="1" timestamp="2022-03-31T05:17:57Z" changeset="119141262" uid="3497659" user="NKA">
		<tag k="name" v="Randen" />
		<tag k="place" v="farm" />
		<tag k="ssr:stedsnr" v="313125" />
	</node>
	<node id="9625568912" lat="61.8650528" lon="8.6881388" version="1" timestamp="2022-03-31T05:17:57Z" changeset="119141262" uid="3497659" user="NKA">
		<tag k="name" v="Skjerpingstad" />
		<tag k="place" v="farm" />
		<tag k="ssr:stedsnr" v="236778" />
	</node>
	<node id="9625568913" lat="61.8393611" lon="8.5515584" version="1" timestamp="2022-03-31T05:17:57Z" changeset="119141262" uid="3497659" user="NKA">
		<tag k="name" v="Ner-Eggje" />
		<tag k="place" v="farm" />
		<tag k="ssr:stedsnr" v="210438" />
	</node>
	<node id="9625568914" lat="61.8349606" lon="8.5504976" version="1" timestamp="2022-03-31T05:17:57Z" changeset="119141262" uid="3497659" user="NKA">
		<tag k="name" v="Uppigard Andvord" />
		<tag k="place" v="farm" />
		<tag k="ssr:stedsnr" v="26164" />
	</node>
	<node id="9625568915" lat="61.6850547" lon="8.2393274" version="1" timestamp="2022-03-31T05:17:57Z" changeset="119141262" uid="3497659" user="NKA">
		<tag k="alt_name" v="Storlie øvre" />
		<tag k="name" v="Øvre Storlie" />
		<tag k="place" v="farm" />
		<tag k="ssr:stedsnr" v="477763" />
	</node>
	<node id="9625568916" lat="61.6630742" lon="8.0391392" version="1" timestamp="2022-03-31T05:17:57Z" changeset="119141262" uid="3497659" user="NKA">
		<tag k="historic" v="shieling" />
		<tag k="loc_name" v="Høydalssætren;Høydalen" />
		<tag k="name" v="Høydalssæteren" />
		<tag k="place" v="isolated_dwelling" />
		<tag k="ssr:stedsnr" v="357680" />
	</node>
	<node id="9625568917" lat="61.6268777" lon="8.18275" version="1" timestamp="2022-03-31T05:17:57Z" changeset="119141262" uid="3497659" user="NKA">
		<tag k="name" v="Veslbue" />
		<tag k="place" v="isolated_dwelling" />
		<tag k="ssr:stedsnr" v="435076" />
	</node>
	<node id="9625568918" lat="61.82465" lon="8.5215806" version="1" timestamp="2022-03-31T05:17:57Z" changeset="119141262" uid="3497659" user="NKA">
		<tag k="alt_name" v="Marstein, øvre;Marstein" />
		<tag k="name" v="Øvre Marstein" />
		<tag k="place" v="farm" />
		<tag k="ssr:stedsnr" v="435257" />
	</node>
	<node id="9625568919" lat="61.8541527" lon="8.8496231" version="1" timestamp="2022-03-31T05:17:57Z" changeset="119141262" uid="3497659" user="NKA">
		<tag k="name" v="Veslodden" />
		<tag k="place" v="farm" />
		<tag k="ssr:stedsnr" v="392577" />
	</node>
	<node id="9625568920" lat="61.9574128" lon="8.6486408" version="1" timestamp="2022-03-31T05:17:57Z" changeset="119141262" uid="3497659" user="NKA">
		<tag k="name" v="Gråhøbui" />
		<tag k="place" v="locality" />
		<tag k="ssr:stedsnr" v="435912" />
	</node>
	<node id="9625568921" lat="61.8125777" lon="8.4735473" version="1" timestamp="2022-03-31T05:17:57Z" changeset="119141262" uid="3497659" user="NKA">
		<tag k="name" v="Krøkje" />
		<tag k="place" v="hamlet" />
		<tag k="ssr:stedsnr" v="373224" />
	</node>
	<node id="9625568922" lat="61.8704362" lon="8.8025418" version="1" timestamp="2022-03-31T05:17:57Z" changeset="119141262" uid="3497659" user="NKA">
		<tag k="name" v="Nørdre Jota" />
		<tag k="place" v="farm" />
		<tag k="ssr:stedsnr" v="434079" />
	</node>
	<node id="9625568923" lat="61.84765" lon="8.7758944" version="1" timestamp="2022-03-31T05:17:57Z" changeset="119141262" uid="3497659" user="NKA">
		<tag k="alt_name" v="Nordre Ekle;Ekle, nordre" />
		<tag k="name" v="Nørdre Ekle" />
		<tag k="place" v="farm" />
		<tag k="ssr:stedsnr" v="313054" />
	</node>
	<node id="9625568924" lat="61.8457472" lon="8.7598639" version="1" timestamp="2022-03-31T05:17:57Z" changeset="119141262" uid="3497659" user="NKA">
		<tag k="name" v="Nystuen" />
		<tag k="place" v="locality" />
		<tag k="ssr:stedsnr" v="89646" />
	</node>
	<node id="9625568925" lat="61.7647904" lon="8.4037468" version="1" timestamp="2022-03-31T05:17:57Z" changeset="119141262" uid="3497659" user="NKA">
		<tag k="alt_name" v="Sulheim" />
		<tag k="name" v="Nigard Sulheim" />
		<tag k="place" v="farm" />
		<tag k="ssr:stedsnr" v="374991" />
	</node>
	<node id="9625568926" lat="61.824925" lon="8.5236056" version="1" timestamp="2022-03-31T05:17:57Z" changeset="119141262" uid="3497659" user="NKA">
		<tag k="alt_name" v="Trædet" />
		<tag k="name" v="Marsteintrædet" />
		<tag k="place" v="farm" />
		<tag k="ssr:stedsnr" v="435036" />
	</node>
	<node id="9625568927" lat="61.8528806" lon="8.5187916" version="1" timestamp="2022-03-31T05:17:57Z" changeset="119141262" uid="3497659" user="NKA">
		<tag k="name" v="Bakkejordet" />
		<tag k="place" v="farm" />
		<tag k="ssr:stedsnr" v="373074" />
	</node>
	<node id="9625568928" lat="61.7239049" lon="8.2730636" version="1" timestamp="2022-03-31T05:17:57Z" changeset="119141262" uid="3497659" user="NKA">
		<tag k="alt_name" v="Storøygard" />
		<tag k="name" v="Storøygarden" />
		<tag k="place" v="farm" />
		<tag k="ssr:stedsnr" v="374193" />
	</node>
	<node id="9625568929" lat="61.8496734" lon="8.6913697" version="1" timestamp="2022-03-31T05:17:57Z" changeset="119141262" uid="3497659" user="NKA">
		<tag k="name" v="Graffer" />
		<tag k="place" v="hamlet" />
		<tag k="ssr:stedsnr" v="131061" />
	</node>
	<node id="9625568930" lat="61.8701361" lon="8.5085444" version="1" timestamp="2022-03-31T05:17:57Z" changeset="119141262" uid="3497659" user="NKA">
		<tag k="name" v="Staurustøygarden" />
		<tag k="place" v="farm" />
		<tag k="ssr:stedsnr" v="435123" />
	</node>
	<node id="9625568931" lat="61.867325" lon="8.7956195" version="1" timestamp="2022-03-31T05:17:57Z" changeset="119141262" uid="3497659" user="NKA">
		<tag k="name" v="Grønbakkjen" />
		<tag k="place" v="locality" />
		<tag k="ssr:stedsnr" v="393432" />
	</node>
	<node id="9625568932" lat="61.8555361" lon="8.8388667" version="1" timestamp="2022-03-31T05:17:57Z" changeset="119141262" uid="3497659" user="NKA">
		<tag k="alt_name" v="Urdi" />
		<tag k="name" v="Ule" />
		<tag k="place" v="farm" />
		<tag k="ssr:stedsnr" v="435058" />
	</node>
	<node id="9625568933" lat="61.8611511" lon="8.5347064" version="1" timestamp="2022-03-31T05:17:57Z" changeset="119141262" uid="3497659" user="NKA">
		<tag k="name" v="Staurustberget" />
		<tag k="place" v="locality" />
		<tag k="ssr:stedsnr" v="374082" />
	</node>
	<node id="9625568934" lat="61.8487778" lon="8.6109167" version="1" timestamp="2022-03-31T05:17:57Z" changeset="119141262" uid="3497659" user="NKA">
		<tag k="name" v="Haugomkvee" />
		<tag k="place" v="farm" />
		<tag k="ssr:stedsnr" v="392144" />
	</node>
	<node id="9625568935" lat="61.8083139" lon="8.4531528" version="1" timestamp="2022-03-31T05:17:57Z" changeset="119141262" uid="3497659" user="NKA">
		<tag k="name" v="Vålvål" />
		<tag k="place" v="locality" />
		<tag k="ssr:stedsnr" v="296019" />
	</node>
	<node id="9625568936" lat="61.8703175" lon="8.8035199" version="1" timestamp="2022-03-31T05:17:57Z" changeset="119141262" uid="3497659" user="NKA">
		<tag k="loc_name" v="Gjota" />
		<tag k="name" v="Jota" />
		<tag k="place" v="locality" />
		<tag k="ssr:stedsnr" v="987033" />
	</node>
	<node id="9625568937" lat="61.8262855" lon="8.5443578" version="1" timestamp="2022-03-31T05:17:57Z" changeset="119141262" uid="3497659" user="NKA">
		<tag k="alt_name" v="Sørhågå" />
		<tag k="name" v="Sørhågån" />
		<tag k="place" v="farm" />
		<tag k="ssr:stedsnr" v="253021" />
	</node>
	<node id="9625568938" lat="61.8298204" lon="8.5544435" version="1" timestamp="2022-03-31T05:17:57Z" changeset="119141262" uid="3497659" user="NKA">
		<tag k="name" v="Andberg" />
		<tag k="place" v="farm" />
		<tag k="ssr:stedsnr" v="920029" />
	</node>
	<node id="9625568939" lat="61.837543" lon="8.5722607" version="1" timestamp="2022-03-31T05:17:57Z" changeset="119141262" uid="3497659" user="NKA">
		<tag k="name" v="Ulstad" />
		<tag k="place" v="farm" />
		<tag k="ssr:stedsnr" v="984364" />
	</node>
	<node id="9625568940" lat="61.8233135" lon="8.5386312" version="1" timestamp="2022-03-31T05:17:57Z" changeset="119141262" uid="3497659" user="NKA">
		<tag k="alt_name" v="Hågå" />
		<tag k="name" v="Hågån" />
		<tag k="place" v="farm" />
		<tag k="ssr:stedsnr" v="678245" />
	</node>
	<node id="9625568941" lat="61.8270527" lon="8.5325555" version="1" timestamp="2022-03-31T05:17:57Z" changeset="119141262" uid="3497659" user="NKA">
		<tag k="name" v="Grindstugu" />
		<tag k="place" v="farm" />
		<tag k="ssr:stedsnr" v="693158" />
	</node>
	<node id="9625568942" lat="61.8288277" lon="8.5405722" version="1" timestamp="2022-03-31T05:17:57Z" changeset="119141262" uid="3497659" user="NKA">
		<tag k="name" v="Jordet" />
		<tag k="place" v="farm" />
		<tag k="ssr:stedsnr" v="495030" />
	</node>
	<node id="9625568943" lat="61.8412083" lon="8.5509029" version="1" timestamp="2022-03-31T05:17:57Z" changeset="119141262" uid="3497659" user="NKA">
		<tag k="name" v="Prestegardsskogen" />
		<tag k="place" v="quarter" />
		<tag k="ssr:stedsnr" v="495021" />
	</node>
	<node id="9625568944" lat="61.8194834" lon="8.5742195" version="1" timestamp="2022-03-31T05:17:57Z" changeset="119141262" uid="3497659" user="NKA">
		<tag k="name" v="Andbergsgammeløygarden" />
		<tag k="place" v="locality" />
		<tag k="ssr:stedsnr" v="513457" />
	</node>
	<node id="9625568945" lat="61.8321329" lon="8.5477762" version="1" timestamp="2022-03-31T05:17:57Z" changeset="119141262" uid="3497659" user="NKA">
		<tag k="alt_name" v="Nordre Andvord;Andvord, nordre" />
		<tag k="name" v="Nordgard Andvord" />
		<tag k="place" v="farm" />
		<tag k="ssr:stedsnr" v="435018" />
	</node>
	<node id="9625568946" lat="61.8336361" lon="8.5620194" version="1" timestamp="2022-03-31T05:17:57Z" changeset="119141262" uid="3497659" user="NKA">
		<tag k="name" v="Steine" />
		<tag k="place" v="farm" />
		<tag k="ssr:stedsnr" v="435033" />
	</node>
	<node id="9625568947" lat="61.8392419" lon="8.5828068" version="1" timestamp="2022-03-31T05:17:57Z" changeset="119141262" uid="3497659" user="NKA">
		<tag k="name" v="Skjæsar" />
		<tag k="place" v="farm" />
		<tag k="ssr:stedsnr" v="616007" />
	</node>
	<node id="9625568948" lat="61.8723463" lon="8.7682486" version="1" timestamp="2022-03-31T05:17:57Z" changeset="119141262" uid="3497659" user="NKA">
		<tag k="name" v="Sæterdalen" />
		<tag k="place" v="hamlet" />
		<tag k="ssr:stedsnr" v="984393" />
	</node>
	<node id="9625568949" lat="61.8532906" lon="8.6446083" version="1" timestamp="2022-03-31T05:17:57Z" changeset="119141262" uid="3497659" user="NKA">
		<tag k="name" v="Skånsar" />
		<tag k="place" v="farm" />
		<tag k="ssr:stedsnr" v="984351" />
	</node>
	<node id="9625568950" lat="61.8487404" lon="8.7653285" version="1" timestamp="2022-03-31T05:17:57Z" changeset="119141262" uid="3497659" user="NKA">
		<tag k="name" v="Brimi" />
		<tag k="place" v="hamlet" />
		<tag k="ssr:stedsnr" v="984344" />
	</node>
	<node id="9625568951" lat="61.8524056" lon="8.6265555" version="1" timestamp="2022-03-31T05:17:57Z" changeset="119141262" uid="3497659" user="NKA">
		<tag k="name" v="Svaet" />
		<tag k="place" v="farm" />
		<tag k="ssr:stedsnr" v="939049" />
	</node>
	<node id="9625568952" lat="61.9032611" lon="8.7759555" version="1" timestamp="2022-03-31T05:17:57Z" changeset="119141262" uid="3497659" user="NKA">
		<tag k="name" v="Rundhaugbui" />
		<tag k="place" v="isolated_dwelling" />
		<tag k="ssr:stedsnr" v="920943" />
	</node>
	<node id="9625568953" lat="61.7770472" lon="8.6236112" version="1" timestamp="2022-03-31T05:17:57Z" changeset="119141262" uid="3497659" user="NKA">
		<tag k="name" v="Skjenarvollan" />
		<tag k="place" v="locality" />
		<tag k="ssr:stedsnr" v="921226" />
	</node>
	<node id="9625568954" lat="61.8541167" lon="8.6435111" version="1" timestamp="2022-03-31T05:17:57Z" changeset="119141262" uid="3497659" user="NKA">
		<tag k="alt_name" v="Skånsar, nedre;Skånsar" />
		<tag k="name" v="Nedre Skånsar" />
		<tag k="place" v="farm" />
		<tag k="ssr:stedsnr" v="920088" />
	</node>
	<node id="9625568955" lat="61.7278805" lon="8.844975" version="1" timestamp="2022-03-31T05:17:57Z" changeset="119141262" uid="3497659" user="NKA">
		<tag k="name" v="Eklebui" />
		<tag k="place" v="isolated_dwelling" />
		<tag k="ssr:stedsnr" v="920971" />
	</node>
	<node id="9625568956" lat="61.8506917" lon="8.6094306" version="1" timestamp="2022-03-31T05:17:57Z" changeset="119141262" uid="3497659" user="NKA">
		<tag k="name" v="Synstad" />
		<tag k="place" v="farm" />
		<tag k="ssr:stedsnr" v="920041" />
	</node>
	<node id="9625568957" lat="61.8499805" lon="8.6162805" version="1" timestamp="2022-03-31T05:17:57Z" changeset="119141262" uid="3497659" user="NKA">
		<tag k="alt_name" v="Søre Kveom" />
		<tag k="name" v="Kveom" />
		<tag k="place" v="farm" />
		<tag k="ssr:stedsnr" v="920035" />
	</node>
	<node id="9625568958" lat="61.851325" lon="8.7303583" version="1" timestamp="2022-03-31T05:17:57Z" changeset="119141262" uid="3497659" user="NKA">
		<tag k="alt_name" v="Bruøygard" />
		<tag k="name" v="Bruøygarden" />
		<tag k="place" v="farm" />
		<tag k="ssr:stedsnr" v="920061" />
	</node>
	<node id="9625568959" lat="61.8448944" lon="8.8270917" version="1" timestamp="2022-03-31T05:17:57Z" changeset="119141262" uid="3497659" user="NKA">
		<tag k="alt_name" v="Flaten" />
		<tag k="name" v="Sagflaten" />
		<tag k="place" v="farm" />
		<tag k="ssr:stedsnr" v="920052" />
	</node>
	<node id="9625568960" lat="61.8733494" lon="8.746669" version="1" timestamp="2022-03-31T05:17:57Z" changeset="119141262" uid="3497659" user="NKA">
		<tag k="name" v="Nystugu" />
		<tag k="place" v="farm" />
		<tag k="ssr:stedsnr" v="903962" />
	</node>
	<node id="9625568961" lat="61.8611972" lon="8.6107416" version="1" timestamp="2022-03-31T05:17:57Z" changeset="119141262" uid="3497659" user="NKA">
		<tag k="name" v="Nørdre Grjotheim" />
		<tag k="place" v="farm" />
		<tag k="ssr:stedsnr" v="903146" />
	</node>
	<node id="9625568962" lat="61.8497583" lon="8.753339" version="1" timestamp="2022-03-31T05:17:57Z" changeset="119141262" uid="3497659" user="NKA">
		<tag k="name" v="Nordistugun Lyngve" />
		<tag k="place" v="farm" />
		<tag k="ssr:stedsnr" v="817633" />
	</node>
	<node id="9625568963" lat="61.8454667" lon="8.8196918" version="1" timestamp="2022-03-31T05:17:57Z" changeset="119141262" uid="3497659" user="NKA">
		<tag k="name" v="Langøygard" />
		<tag k="place" v="farm" />
		<tag k="ssr:stedsnr" v="817528" />
	</node>
	<node id="9625568964" lat="61.8730282" lon="8.7515876" version="1" timestamp="2022-03-31T05:17:57Z" changeset="119141262" uid="3497659" user="NKA">
		<tag k="alt_name" v="Viki" />
		<tag k="name" v="Vikje" />
		<tag k="place" v="hamlet" />
		<tag k="ssr:stedsnr" v="799134" />
	</node>
	<node id="9625568965" lat="61.875375" lon="8.7067916" version="1" timestamp="2022-03-31T05:17:57Z" changeset="119141262" uid="3497659" user="NKA">
		<tag k="name" v="Teigen" />
		<tag k="place" v="farm" />
		<tag k="ssr:stedsnr" v="799133" />
	</node>
	<node id="9625568966" lat="61.8732584" lon="8.7667528" version="1" timestamp="2022-03-31T05:17:57Z" changeset="119141262" uid="3497659" user="NKA">
		<tag k="name" v="Nørdre Sæterdalen" />
		<tag k="place" v="farm" />
		<tag k="ssr:stedsnr" v="757438" />
	</node>
	<node id="9625568967" lat="61.8538973" lon="8.6299111" version="1" timestamp="2022-03-31T05:17:57Z" changeset="119141262" uid="3497659" user="NKA">
		<tag k="name" v="Frøysestugu" />
		<tag k="place" v="farm" />
		<tag k="ssr:stedsnr" v="738095" />
	</node>
	<node id="9625568968" lat="61.8536083" lon="8.8037778" version="1" timestamp="2022-03-31T05:17:57Z" changeset="119141262" uid="3497659" user="NKA">
		<tag k="name" v="Kvehaugen" />
		<tag k="place" v="farm" />
		<tag k="ssr:stedsnr" v="756683" />
	</node>
	<node id="9625568969" lat="61.8610455" lon="8.6114716" version="1" timestamp="2022-03-31T05:17:57Z" changeset="119141262" uid="3497659" user="NKA">
		<tag k="name" v="Grjotheim" />
		<tag k="place" v="hamlet" />
		<tag k="ssr:stedsnr" v="738088" />
	</node>
	<node id="9625568970" lat="61.8494945" lon="8.8018221" version="1" timestamp="2022-03-31T05:17:57Z" changeset="119141262" uid="3497659" user="NKA">
		<tag k="alt_name" v="Frisvoll" />
		<tag k="name" v="Systugun Frisvoll" />
		<tag k="place" v="farm" />
		<tag k="ssr:stedsnr" v="738053" />
	</node>
	<node id="9625568971" lat="61.8469487" lon="8.82533" version="1" timestamp="2022-03-31T05:17:57Z" changeset="119141262" uid="3497659" user="NKA">
		<tag k="name" v="Hesthagen" />
		<tag k="place" v="farm" />
		<tag k="ssr:stedsnr" v="738057" />
	</node>
	<node id="9625568972" lat="61.8727861" lon="8.7689528" version="1" timestamp="2022-03-31T05:17:57Z" changeset="119141262" uid="3497659" user="NKA">
		<tag k="alt_name" v="Sæterdalen" />
		<tag k="name" v="Søre Sæterdalen" />
		<tag k="place" v="farm" />
		<tag k="ssr:stedsnr" v="738124" />
	</node>
	<node id="9625568973" lat="61.8645505" lon="8.6724593" version="1" timestamp="2022-03-31T05:17:57Z" changeset="119141262" uid="3497659" user="NKA">
		<tag k="name" v="Sveine" />
		<tag k="place" v="farm" />
		<tag k="ssr:stedsnr" v="678074" />
	</node>
	<node id="9625568974" lat="61.8423277" lon="8.7729972" version="1" timestamp="2022-03-31T05:17:57Z" changeset="119141262" uid="3497659" user="NKA">
		<tag k="alt_name" v="Uppheim" />
		<tag k="name" v="Oppheim" />
		<tag k="place" v="farm" />
		<tag k="ssr:stedsnr" v="738001" />
	</node>
	<node id="9625568975" lat="61.8399834" lon="8.6801417" version="1" timestamp="2022-03-31T05:17:57Z" changeset="119141262" uid="3497659" user="NKA">
		<tag k="name" v="Nysætri" />
		<tag k="place" v="locality" />
		<tag k="ssr:stedsnr" v="677006" />
	</node>
	<node id="9625568976" lat="61.8470034" lon="8.8535946" version="1" timestamp="2022-03-31T05:17:57Z" changeset="119141262" uid="3497659" user="NKA">
		<tag k="alt_name" v="Søre Byre" />
		<tag k="name" v="Byre" />
		<tag k="place" v="farm" />
		<tag k="ssr:stedsnr" v="616265" />
	</node>
	<node id="9625568977" lat="61.8715639" lon="8.7770148" version="1" timestamp="2022-03-31T05:17:57Z" changeset="119141262" uid="3497659" user="NKA">
		<tag k="alt_name" v="Botn;Nørdre Botten" />
		<tag k="name" v="Nørdre Botn" />
		<tag k="place" v="farm" />
		<tag k="ssr:stedsnr" v="617144" />
	</node>
	<node id="9625568978" lat="61.6888778" lon="8.8346445" version="1" timestamp="2022-03-31T05:17:57Z" changeset="119141262" uid="3497659" user="NKA">
		<tag k="name" v="Heranosbue" />
		<tag k="place" v="isolated_dwelling" />
		<tag k="ssr:stedsnr" v="616063" />
	</node>
	<node id="9625568979" lat="61.8465111" lon="8.8292973" version="1" timestamp="2022-03-31T05:17:57Z" changeset="119141262" uid="3497659" user="NKA">
		<tag k="name" v="Utsikten" />
		<tag k="place" v="isolated_dwelling" />
		<tag k="ssr:stedsnr" v="574578" />
	</node>
	<node id="9625568980" lat="61.8507723" lon="8.8011556" version="1" timestamp="2022-03-31T05:17:57Z" changeset="119141262" uid="3497659" user="NKA">
		<tag k="name" v="Nørdre Nedre Frisvoll" />
		<tag k="place" v="farm" />
		<tag k="ssr:stedsnr" v="574683" />
	</node>
	<node id="9625568981" lat="61.8452917" lon="8.782339" version="1" timestamp="2022-03-31T05:17:57Z" changeset="119141262" uid="3497659" user="NKA">
		<tag k="alt_name" v="Ekle, s" />
		<tag k="name" v="Søre Ekle" />
		<tag k="place" v="farm" />
		<tag k="ssr:stedsnr" v="495065" />
	</node>
	<node id="9625568982" lat="61.8763156" lon="8.703644" version="1" timestamp="2022-03-31T05:17:57Z" changeset="119141262" uid="3497659" user="NKA">
		<tag k="name" v="Brenna" />
		<tag k="place" v="farm" />
		<tag k="ssr:stedsnr" v="556141" />
	</node>
	<node id="9625568983" lat="61.8561944" lon="8.8027472" version="1" timestamp="2022-03-31T05:17:57Z" changeset="119141262" uid="3497659" user="NKA">
		<tag k="name" v="Hammerdalen" />
		<tag k="place" v="farm" />
		<tag k="ssr:stedsnr" v="495046" />
	</node>
	<node id="9625568984" lat="61.8699583" lon="8.6643944" version="1" timestamp="2022-03-31T05:17:57Z" changeset="119141262" uid="3497659" user="NKA">
		<tag k="alt_name" v="Haugen, nedre" />
		<tag k="name" v="Nedre Haugen" />
		<tag k="place" v="farm" />
		<tag k="ssr:stedsnr" v="495097" />
	</node>
	<node id="9625568985" lat="61.8443694" lon="8.7652778" version="1" timestamp="2022-03-31T05:17:57Z" changeset="119141262" uid="3497659" user="NKA">
		<tag k="alt_name" v="Biløygard" />
		<tag k="name" v="Biløygarden" />
		<tag k="place" v="farm" />
		<tag k="ssr:stedsnr" v="495076" />
	</node>
	<node id="9625568986" lat="61.8492096" lon="8.7629819" version="1" timestamp="2022-03-31T05:17:57Z" changeset="119141262" uid="3497659" user="NKA">
		<tag k="alt_name" v="Nordre Brimi;Brimi, nordre;Brimi;Nørder-Brimi" />
		<tag k="name" v="Nørdre Brimi" />
		<tag k="place" v="farm" />
		<tag k="ssr:stedsnr" v="495059" />
	</node>
	<node id="9625568987" lat="61.7275611" lon="8.640975" version="1" timestamp="2022-03-31T05:17:57Z" changeset="119141262" uid="3497659" user="NKA">
		<tag k="name" v="Finnshalshytta" />
		<tag k="place" v="isolated_dwelling" />
		<tag k="ssr:stedsnr" v="435111" />
	</node>
	<node id="9625568988" lat="61.8663498" lon="8.6803952" version="1" timestamp="2022-03-31T05:17:57Z" changeset="119141262" uid="3497659" user="NKA">
		<tag k="name" v="Sjurgard" />
		<tag k="place" v="farm" />
		<tag k="ssr:stedsnr" v="435094" />
	</node>
	<node id="9625568989" lat="61.866024" lon="8.7963888" version="1" timestamp="2022-03-31T05:17:57Z" changeset="119141262" uid="3497659" user="NKA">
		<tag k="name" v="Grøna" />
		<tag k="place" v="hamlet" />
		<tag k="ssr:stedsnr" v="434076" />
	</node>
	<node id="9625568990" lat="61.8539363" lon="8.6374571" version="1" timestamp="2022-03-31T05:17:57Z" changeset="119141262" uid="3497659" user="NKA">
		<tag k="name" v="Kvåle" />
		<tag k="place" v="farm" />
		<tag k="ssr:stedsnr" v="434070" />
	</node>
	<node id="9625568991" lat="61.70525" lon="8.7273" version="1" timestamp="2022-03-31T05:17:57Z" changeset="119141262" uid="3497659" user="NKA">
		<tag k="name" v="Sætrin" />
		<tag k="place" v="locality" />
		<tag k="ssr:stedsnr" v="374074" />
	</node>
	<node id="9625568992" lat="61.8663111" lon="8.758314" version="1" timestamp="2022-03-31T05:17:57Z" changeset="119141262" uid="3497659" user="NKA">
		<tag k="name" v="Nord-Sandom" />
		<tag k="place" v="farm" />
		<tag k="ssr:stedsnr" v="393433" />
	</node>
	<node id="9625568993" lat="61.8750317" lon="8.7091531" version="1" timestamp="2022-03-31T05:17:57Z" changeset="119141262" uid="3497659" user="NKA">
		<tag k="alt_name" v="Rusti" />
		<tag k="name" v="Ruste" />
		<tag k="place" v="farm" />
		<tag k="ssr:stedsnr" v="253139" />
	</node>
	<node id="9625568994" lat="61.8691766" lon="8.67059" version="1" timestamp="2022-03-31T05:17:57Z" changeset="119141262" uid="3497659" user="NKA">
		<tag k="name" v="Øverli" />
		<tag k="place" v="farm" />
		<tag k="ssr:stedsnr" v="374132" />
	</node>
	<node id="9625568995" lat="61.8505" lon="8.7342056" version="1" timestamp="2022-03-31T05:17:57Z" changeset="119141262" uid="3497659" user="NKA">
		<tag k="name" v="Mo" />
		<tag k="place" v="farm" />
		<tag k="ssr:stedsnr" v="71051" />
	</node>
	<node id="9625568996" lat="61.8495583" lon="8.771039" version="1" timestamp="2022-03-31T05:17:57Z" changeset="119141262" uid="3497659" user="NKA">
		<tag k="name" v="Bakke" />
		<tag k="place" v="farm" />
		<tag k="ssr:stedsnr" v="210653" />
	</node>
	<node id="9625568997" lat="61.8483834" lon="8.7982555" version="1" timestamp="2022-03-31T05:17:57Z" changeset="119141262" uid="3497659" user="NKA">
		<tag k="name" v="Nørdre Uppistugun Frisvoll" />
		<tag k="place" v="farm" />
		<tag k="ssr:stedsnr" v="878677" />
	</node>
	<node id="9625568998" lat="61.8614087" lon="8.6374307" version="1" timestamp="2022-03-31T05:17:57Z" changeset="119141262" uid="3497659" user="NKA">
		<tag k="name" v="Søre Kollen" />
		<tag k="place" v="farm" />
		<tag k="ssr:stedsnr" v="661787" />
	</node>
	<node id="9625568999" lat="61.8643694" lon="8.6640611" version="1" timestamp="2022-03-31T05:17:57Z" changeset="119141262" uid="3497659" user="NKA">
		<tag k="name" v="Blekastad" />
		<tag k="place" v="farm" />
		<tag k="ssr:stedsnr" v="192088" />
	</node>
	<node id="9625569000" lat="61.8500222" lon="8.7517668" version="1" timestamp="2022-03-31T05:17:57Z" changeset="119141262" uid="3497659" user="NKA">
		<tag k="name" v="Hidem" />
		<tag k="place" v="farm" />
		<tag k="ssr:stedsnr" v="635608" />
	</node>
	<node id="9625569001" lat="61.8693555" lon="8.6605499" version="1" timestamp="2022-03-31T05:17:57Z" changeset="119141262" uid="3497659" user="NKA">
		<tag k="alt_name" v="Haugen, øvre" />
		<tag k="name" v="Øvre Haugen" />
		<tag k="place" v="farm" />
		<tag k="ssr:stedsnr" v="435104" />
	</node>
	<node id="9625569002" lat="61.8457392" lon="8.7561782" version="1" timestamp="2022-03-31T05:17:57Z" changeset="119141262" uid="3497659" user="NKA">
		<tag k="alt_name" v="Laingen" />
		<tag k="name" v="Laingje" />
		<tag k="place" v="farm" />
		<tag k="ssr:stedsnr" v="495073" />
	</node>
	<node id="9625569003" lat="61.849353" lon="8.7495757" version="1" timestamp="2022-03-31T05:17:57Z" changeset="119141262" uid="3497659" user="NKA">
		<tag k="name" v="Lyngve" />
		<tag k="place" v="hamlet" />
		<tag k="ssr:stedsnr" v="984345" />
	</node>
	<node id="9625569004" lat="61.8515084" lon="8.6356444" version="1" timestamp="2022-03-31T05:17:57Z" changeset="119141262" uid="3497659" user="NKA">
		<tag k="name" v="Kvålsstugu" />
		<tag k="place" v="locality" />
		<tag k="ssr:stedsnr" v="939811" />
	</node>
	<node id="9625569005" lat="61.8493055" lon="8.7006722" version="1" timestamp="2022-03-31T05:17:57Z" changeset="119141262" uid="3497659" user="NKA">
		<tag k="name" v="Langbakkjen" />
		<tag k="place" v="farm" />
		<tag k="ssr:stedsnr" v="818782" />
	</node>
	<node id="9625569006" lat="61.8453889" lon="8.6092972" version="1" timestamp="2022-03-31T05:17:57Z" changeset="119141262" uid="3497659" user="NKA">
		<tag k="name" v="Mork" />
		<tag k="place" v="farm" />
		<tag k="ssr:stedsnr" v="574043" />
	</node>
	<node id="9625569007" lat="61.8532027" lon="8.6523722" version="1" timestamp="2022-03-31T05:17:57Z" changeset="119141262" uid="3497659" user="NKA">
		<tag k="name" v="Kjæstadplassen" />
		<tag k="place" v="locality" />
		<tag k="ssr:stedsnr" v="514750" />
	</node>
	<node id="9625569008" lat="61.8500066" lon="8.7496743" version="1" timestamp="2022-03-31T05:17:57Z" changeset="119141262" uid="3497659" user="NKA">
		<tag k="alt_name" v="Lyngve" />
		<tag k="name" v="Nordgard Lyngve" />
		<tag k="place" v="farm" />
		<tag k="ssr:stedsnr" v="555054" />
	</node>
	<node id="9625569009" lat="61.8535805" lon="8.7220833" version="1" timestamp="2022-03-31T05:17:57Z" changeset="119141262" uid="3497659" user="NKA">
		<tag k="alt_name" v="Ulmo" />
		<tag k="name" v="Urdmo" />
		<tag k="place" v="farm" />
		<tag k="ssr:stedsnr" v="495051" />
	</node>
	<node id="9625569010" lat="61.8624027" lon="8.6725528" version="1" timestamp="2022-03-31T05:17:57Z" changeset="119141262" uid="3497659" user="NKA">
		<tag k="name" v="Sveinhaugen" />
		<tag k="place" v="farm" />
		<tag k="ssr:stedsnr" v="495086" />
	</node>
	<node id="9625569011" lat="61.8491167" lon="8.7444055" version="1" timestamp="2022-03-31T05:17:57Z" changeset="119141262" uid="3497659" user="NKA">
		<tag k="name" v="Lyngheim" />
		<tag k="place" v="farm" />
		<tag k="ssr:stedsnr" v="332734" />
	</node>
	<node id="9625569012" lat="61.8533084" lon="8.7189084" version="1" timestamp="2022-03-31T05:17:57Z" changeset="119141262" uid="3497659" user="NKA">
		<tag k="name" v="Teigen" />
		<tag k="place" v="farm" />
		<tag k="ssr:stedsnr" v="332771" />
	</node>
	<node id="9625569013" lat="61.855451" lon="8.6478638" version="1" timestamp="2022-03-31T05:17:57Z" changeset="119141262" uid="3497659" user="NKA">
		<tag k="name" v="Rostad" />
		<tag k="place" v="farm" />
		<tag k="ssr:stedsnr" v="313091" />
	</node>
	<node id="9625569014" lat="61.8676965" lon="8.7128869" version="1" timestamp="2022-03-31T05:17:57Z" changeset="119141262" uid="3497659" user="NKA">
		<tag k="name" v="Nyøygard" />
		<tag k="place" v="farm" />
		<tag k="ssr:stedsnr" v="70060" />
	</node>
	<node id="9625569015" lat="61.8551361" lon="8.8714" version="1" timestamp="2022-03-31T05:17:57Z" changeset="119141262" uid="3497659" user="NKA">
		<tag k="alt_name" v="Konglehaugen" />
		<tag k="name" v="Haugen" />
		<tag k="place" v="farm" />
		<tag k="ssr:stedsnr" v="556362" />
	</node>
	<node id="9625569016" lat="61.847175" lon="8.5985417" version="1" timestamp="2022-03-31T05:17:57Z" changeset="119141262" uid="3497659" user="NKA">
		<tag k="name" v="Nordgard Stamstad" />
		<tag k="place" v="farm" />
		<tag k="ssr:stedsnr" v="574263" />
	</node>
	<node id="9625569017" lat="61.8318222" lon="8.8533972" version="1" timestamp="2022-03-31T05:17:57Z" changeset="119141262" uid="3497659" user="NKA">
		<tag k="name" v="Kleppdalen" />
		<tag k="place" v="hamlet" />
		<tag k="ssr:stedsnr" v="252235" />
	</node>
	<node id="9625569018" lat="61.8541161" lon="8.8641763" version="1" timestamp="2022-03-31T05:17:57Z" changeset="119141262" uid="3497659" user="NKA">
		<tag k="name" v="Nyrnes" />
		<tag k="place" v="farm" />
		<tag k="ssr:stedsnr" v="71331" />
	</node>
	<node id="9625569019" lat="61.8209972" lon="8.5127167" version="1" timestamp="2022-03-31T05:17:57Z" changeset="119141262" uid="3497659" user="NKA">
		<tag k="name" v="Klepp" />
		<tag k="place" v="farm" />
		<tag k="ssr:stedsnr" v="632166" />
	</node>
	<node id="9625569020" lat="61.8141917" lon="8.5157251" version="1" timestamp="2022-03-31T05:17:57Z" changeset="119141262" uid="3497659" user="NKA">
		<tag k="alt_name" v="Nørjordet, øvre" />
		<tag k="name" v="Øvre Nørjordet" />
		<tag k="place" v="farm" />
		<tag k="ssr:stedsnr" v="555201" />
	</node>
	<node id="9625569021" lat="61.8179636" lon="8.5270361" version="1" timestamp="2022-03-31T05:17:57Z" changeset="119141262" uid="3497659" user="NKA">
		<tag k="alt_name" v="Strindi" />
		<tag k="name" v="Strinde" />
		<tag k="place" v="farm" />
		<tag k="ssr:stedsnr" v="617256" />
	</node>
	<node id="9625569022" lat="61.8518472" lon="8.5215416" version="1" timestamp="2022-03-31T05:17:57Z" changeset="119141262" uid="3497659" user="NKA">
		<tag k="name" v="Knutstugu" />
		<tag k="place" v="farm" />
		<tag k="ssr:stedsnr" v="374044" />
	</node>
	<node id="9625569023" lat="61.8383278" lon="8.5505472" version="1" timestamp="2022-03-31T05:17:57Z" changeset="119141262" uid="3497659" user="NKA">
		<tag k="name" v="Eggjastugu" />
		<tag k="place" v="isolated_dwelling" />
		<tag k="ssr:stedsnr" v="938493" />
	</node>
	<node id="9625569024" lat="61.8477769" lon="8.53609" version="1" timestamp="2022-03-31T05:17:57Z" changeset="119141262" uid="3497659" user="NKA">
		<tag k="name" v="Vike" />
		<tag k="place" v="farm" />
		<tag k="ssr:stedsnr" v="616030" />
	</node>
	<node id="9625569025" lat="61.8341694" lon="8.5614028" version="1" timestamp="2022-03-31T05:17:57Z" changeset="119141262" uid="3497659" user="NKA">
		<tag k="name" v="Sør-Øy" />
		<tag k="place" v="farm" />
		<tag k="ssr:stedsnr" v="572178" />
	</node>
	<node id="9625569026" lat="61.9711916" lon="8.5664505" version="1" timestamp="2022-03-31T05:17:57Z" changeset="119141262" uid="3497659" user="NKA">
		<tag k="name" v="Rygghøbui" />
		<tag k="place" v="locality" />
		<tag k="ssr:stedsnr" v="556891" />
	</node>
	<node id="9625569027" lat="61.839864" lon="8.5619957" version="1" timestamp="2022-03-31T05:17:57Z" changeset="119141262" uid="3497659" user="NKA">
		<tag k="name" v="Lom prestegard" />
		<tag k="place" v="farm" />
		<tag k="ssr:stedsnr" v="391509" />
	</node>
	<node id="9625569028" lat="61.8274361" lon="8.5340945" version="1" timestamp="2022-03-31T05:17:57Z" changeset="119141262" uid="3497659" user="NKA">
		<tag k="name" v="Tykket" />
		<tag k="place" v="farm" />
		<tag k="ssr:stedsnr" v="313024" />
	</node>
</osm>
