<?xml version="1.0" encoding="UTF-8"?>
<osm generator="osmapis" version="0.6">
	<node id="-29479" lat="59.7603527822" lon="9.47215833866">
		<tag k="natural" v="water" />
		<tag k="old_name" v="Nedre Nipetovatnet;Nipetovatna, nedre" />
		<tag k="ssr:date" v="2019-12-27" />
		<tag k="ssr:gruppe" v="stilleståendeVann" />
		<tag k="ssr:hovedgruppe" v="ferskvann" />
		<tag k="ssr:stedsnr" v="354765" />
		<tag k="ssr:type" v="tjern" />
	</node>
	<node id="-28418" lat="59.7697555576" lon="9.55843333792">
		<tag k="loc_name" v="Rundåsen" />
		<tag k="natural" v="hill" />
		<tag k="place" v="locality" />
		<tag k="ssr:date" v="2019-12-27" />
		<tag k="ssr:gruppe" v="høyder" />
		<tag k="ssr:hovedgruppe" v="terreng" />
		<tag k="ssr:stedsnr" v="283639" />
		<tag k="ssr:type" v="haug" />
	</node>
	<node id="-29820" lat="59.7910722244" lon="9.34811112">
		<tag k="natural" v="water" />
		<tag k="old_name" v="Gampedalsvatnet" />
		<tag k="ssr:date" v="2019-12-27" />
		<tag k="ssr:gruppe" v="stilleståendeVann" />
		<tag k="ssr:hovedgruppe" v="ferskvann" />
		<tag k="ssr:stedsnr" v="770625" />
		<tag k="ssr:type" v="tjern" />
	</node>
	<node id="-28698" lat="59.8612527805" lon="9.69597776956">
		<tag k="old_name" v="Holtefjell" />
		<tag k="place" v="isolated_dwelling" />
		<tag k="ssr:date" v="2019-12-27" />
		<tag k="ssr:gruppe" v="bolighus" />
		<tag k="ssr:hovedgruppe" v="bebyggelse" />
		<tag k="ssr:stedsnr" v="671658" />
		<tag k="ssr:type" v="fritidsbolig" />
	</node>
	<node id="-29242" lat="59.8755694417" lon="9.51992777874">
		<tag k="old_name" v="Tangen" />
		<tag k="place" v="locality" />
		<tag k="ssr:date" v="2019-12-27" />
		<tag k="ssr:gruppe" v="bolighus" />
		<tag k="ssr:hovedgruppe" v="bebyggelse" />
		<tag k="ssr:stedsnr" v="112893" />
		<tag k="ssr:type" v="gammelBosettingsplass" />
	</node>
</osm>
