<?xml version="1.0" encoding="UTF-8"?>
<osm generator="osmapis" version="0.6">
	<node id="-279133" lat="59.8882722226" lon="9.33552777412">
		<tag k="name" v="GrÃ¥livegen" />
		<tag k="ssr:date" v="2019-12-27" />
		<tag k="ssr:gruppe" v="veg" />
		<tag k="ssr:hovedgruppe" v="infrastruktur" />
		<tag k="ssr:stedsnr" v="302352" />
		<tag k="ssr:type" v="vegstrekning" />
	</node>
	<node id="-280667" lat="59.8337319087" lon="9.35133473973">
		<tag k="name" v="Mjovasstangen" />
		<tag k="ssr:date" v="2019-12-27" />
		<tag k="ssr:gruppe" v="veg" />
		<tag k="ssr:hovedgruppe" v="infrastruktur" />
		<tag k="ssr:stedsnr" v="1035194" />
		<tag k="ssr:type" v="adressenavn" />
	</node>
	<node id="-280666" lat="59.760874123" lon="9.60002048605">
		<tag k="name" v="Kvearhagan" />
		<tag k="ssr:date" v="2019-12-27" />
		<tag k="ssr:gruppe" v="veg" />
		<tag k="ssr:hovedgruppe" v="infrastruktur" />
		<tag k="ssr:stedsnr" v="1035068" />
		<tag k="ssr:type" v="adressenavn" />
	</node>
	<node id="-279032" lat="59.9062333333" lon="9.67853888491">
		<tag k="name" v="Lybekkvegen" />
		<tag k="ssr:date" v="2019-12-27" />
		<tag k="ssr:gruppe" v="veg" />
		<tag k="ssr:hovedgruppe" v="infrastruktur" />
		<tag k="ssr:stedsnr" v="116333" />
		<tag k="ssr:type" v="vegstrekning" />
	</node>
	<node id="-279030" lat="59.8981277763" lon="9.67043888356">
		<tag k="name" v="Langtjernsetervegen" />
		<tag k="ssr:date" v="2019-12-27" />
		<tag k="ssr:gruppe" v="veg" />
		<tag k="ssr:hovedgruppe" v="infrastruktur" />
		<tag k="ssr:stedsnr" v="116318" />
		<tag k="ssr:type" v="vegstrekning" />
	</node>
	<node id="-279027" lat="59.8438305522" lon="9.60821666618">
		<tag k="name" v="Damtjernvegen" />
		<tag k="ssr:date" v="2019-12-27" />
		<tag k="ssr:gruppe" v="veg" />
		<tag k="ssr:hovedgruppe" v="infrastruktur" />
		<tag k="ssr:stedsnr" v="116115" />
		<tag k="ssr:type" v="adressenavn" />
	</node>
	<node id="-280111" lat="59.9023750001" lon="9.39507221997">
		<tag k="name" v="Svarteflagvegen" />
		<tag k="ssr:date" v="2019-12-27" />
		<tag k="ssr:gruppe" v="veg" />
		<tag k="ssr:hovedgruppe" v="infrastruktur" />
		<tag k="ssr:stedsnr" v="343219" />
		<tag k="ssr:type" v="vegstrekning" />
	</node>
	<node id="-279757" lat="59.8838573337" lon="9.25635112608">
		<tag k="name" v="Nybufeltet" />
		<tag k="ssr:date" v="2019-12-27" />
		<tag k="ssr:gruppe" v="veg" />
		<tag k="ssr:hovedgruppe" v="infrastruktur" />
		<tag k="ssr:stedsnr" v="1035126" />
		<tag k="ssr:type" v="adressenavn" />
	</node>
	<node id="-279756" lat="59.8438703848" lon="9.31241117047">
		<tag k="name" v="Kunstelvvegen" />
		<tag k="ssr:date" v="2019-12-27" />
		<tag k="ssr:gruppe" v="veg" />
		<tag k="ssr:hovedgruppe" v="infrastruktur" />
		<tag k="ssr:stedsnr" v="1035118" />
		<tag k="ssr:type" v="adressenavn" />
	</node>
	<node id="-279755" lat="59.8339531779" lon="9.5824898741">
		<tag k="name" v="Smiuberget" />
		<tag k="ssr:date" v="2019-12-27" />
		<tag k="ssr:gruppe" v="veg" />
		<tag k="ssr:hovedgruppe" v="infrastruktur" />
		<tag k="ssr:stedsnr" v="1035017" />
		<tag k="ssr:type" v="adressenavn" />
	</node>
	<node id="-280679" lat="59.9116896876" lon="10.7581882267">
		<tag k="name" v="Viken fylke" />
		<tag k="ssr:date" v="2020-01-13" />
		<tag k="ssr:gruppe" v="administrativeIndelinger" />
		<tag k="ssr:hovedgruppe" v="offentligAdministrasjon" />
		<tag k="ssr:stedsnr" v="1074403" />
		<tag k="ssr:type" v="fylke" />
	</node>
	<node id="-279297" lat="59.8328333332" lon="9.58308055145">
		<tag k="name" v="Flesberg kommune" />
		<tag k="ssr:date" v="2019-12-27" />
		<tag k="ssr:gruppe" v="administrativeIndelinger" />
		<tag k="ssr:hovedgruppe" v="offentligAdministrasjon" />
		<tag k="ssr:stedsnr" v="449316" />
		<tag k="ssr:type" v="kommune" />
	</node>
</osm>
