<?xml version="1.0" encoding="UTF-8"?>
<osm generator="osmapis" version="0.6">
	<node id="-26098" lat="60.1587767657" lon="10.2494601453">
		<tag k="name" v="Benterudstranda" />
		<tag k="old_name" v="Benterudbredden" />
		<tag k="ssr:date" v="2020-05-28" />
		<tag k="ssr:gruppe" v="veg" />
		<tag k="ssr:hovedgruppe" v="infrastruktur" />
		<tag k="ssr:stedsnr" v="983697" />
		<tag k="ssr:type" v="adressenavn" />
	</node>
	<node id="-26076" lat="60.4297603479" lon="9.99033141456">
		<tag k="name" v="Halvorselvlia" />
		<tag k="ssr:date" v="2019-12-27" />
		<tag k="ssr:gruppe" v="veg" />
		<tag k="ssr:hovedgruppe" v="infrastruktur" />
		<tag k="ssr:stedsnr" v="975277" />
		<tag k="ssr:type" v="adressenavn" />
	</node>
	<node id="-26075" lat="60.4369911727" lon="9.97661514644">
		<tag k="name" v="Strandeelvlia" />
		<tag k="ssr:date" v="2019-12-27" />
		<tag k="ssr:gruppe" v="veg" />
		<tag k="ssr:hovedgruppe" v="infrastruktur" />
		<tag k="ssr:stedsnr" v="975276" />
		<tag k="ssr:type" v="adressenavn" />
	</node>
	<node id="-25674" lat="60.2105325058" lon="9.93453902272">
		<tag k="name" v="Kittelsbymasta" />
		<tag k="ssr:date" v="2019-12-27" />
		<tag k="ssr:gruppe" v="energi" />
		<tag k="ssr:hovedgruppe" v="infrastruktur" />
		<tag k="ssr:stedsnr" v="757649" />
		<tag k="ssr:type" v="kraftledning" />
	</node>
	<node id="-21944" lat="60.0601388852" lon="9.96644721495">
		<tag k="name" v="Gravermoveien" />
		<tag k="ssr:date" v="2019-12-27" />
		<tag k="ssr:gruppe" v="veg" />
		<tag k="ssr:hovedgruppe" v="infrastruktur" />
		<tag k="ssr:stedsnr" v="424927" />
		<tag k="ssr:type" v="adressenavn" />
	</node>
	<node id="-23461" lat="60.4435288124" lon="9.98019161062">
		<tag k="name" v="Fisketjern" />
		<tag k="ssr:date" v="2019-12-27" />
		<tag k="ssr:gruppe" v="veg" />
		<tag k="ssr:hovedgruppe" v="infrastruktur" />
		<tag k="ssr:stedsnr" v="983702" />
		<tag k="ssr:type" v="adressenavn" />
	</node>
	<node id="-23460" lat="60.4474936776" lon="9.95726432655">
		<tag k="name" v="Vikersetra" />
		<tag k="ssr:date" v="2019-12-27" />
		<tag k="ssr:gruppe" v="veg" />
		<tag k="ssr:hovedgruppe" v="infrastruktur" />
		<tag k="ssr:stedsnr" v="983701" />
		<tag k="ssr:type" v="adressenavn" />
	</node>
	<node id="-23458" lat="60.3509461394" lon="10.022626433">
		<tag k="name" v="Bjønnefaret" />
		<tag k="ssr:date" v="2019-12-27" />
		<tag k="ssr:gruppe" v="veg" />
		<tag k="ssr:hovedgruppe" v="infrastruktur" />
		<tag k="ssr:stedsnr" v="983423" />
		<tag k="ssr:type" v="adressenavn" />
	</node>
	<node id="-23453" lat="60.3747936445" lon="9.99325101941">
		<tag k="name" v="Høgfjell" />
		<tag k="ssr:date" v="2019-12-27" />
		<tag k="ssr:gruppe" v="veg" />
		<tag k="ssr:hovedgruppe" v="infrastruktur" />
		<tag k="ssr:stedsnr" v="975269" />
		<tag k="ssr:type" v="adressenavn" />
	</node>
	<node id="-20883" lat="60.635363892" lon="9.99928333362">
		<tag k="name" v="Gråhattveien" />
		<tag k="ssr:date" v="2019-12-27" />
		<tag k="ssr:gruppe" v="veg" />
		<tag k="ssr:hovedgruppe" v="infrastruktur" />
		<tag k="ssr:stedsnr" v="239289" />
		<tag k="ssr:type" v="adressenavn" />
	</node>
	<node id="-26264" lat="60.1193970012" lon="10.3781474735">
		<tag k="name" v="Gyllaveien" />
		<tag k="ssr:date" v="2020-02-18" />
		<tag k="ssr:gruppe" v="veg" />
		<tag k="ssr:hovedgruppe" v="infrastruktur" />
		<tag k="ssr:stedsnr" v="1075327" />
		<tag k="ssr:type" v="adressenavn" />
	</node>
	<node id="-21854" lat="60.2320222229" lon="10.2469666645">
		<tag k="name" v="Randsfjordbanen" />
		<tag k="ssr:date" v="2019-12-27" />
		<tag k="ssr:gruppe" v="bane" />
		<tag k="ssr:hovedgruppe" v="infrastruktur" />
		<tag k="ssr:stedsnr" v="511795" />
		<tag k="ssr:type" v="banestrekning" />
	</node>
	<node id="-24921" lat="60.1202972264" lon="10.2330944451">
		<tag k="name" v="Gamle Holeveien" />
		<tag k="ssr:date" v="2019-12-27" />
		<tag k="ssr:gruppe" v="veg" />
		<tag k="ssr:hovedgruppe" v="infrastruktur" />
		<tag k="ssr:stedsnr" v="391288" />
		<tag k="ssr:type" v="adressenavn" />
	</node>
	<node id="-22355" lat="60.1599916684" lon="10.34089444">
		<tag k="name" v="Holsledningen" />
		<tag k="ssr:date" v="2019-12-27" />
		<tag k="ssr:gruppe" v="energi" />
		<tag k="ssr:hovedgruppe" v="infrastruktur" />
		<tag k="ssr:stedsnr" v="570854" />
		<tag k="ssr:type" v="kraftledning" />
	</node>
	<node id="-25424" lat="60.291674998" lon="10.048794446">
		<tag k="name" v="Ringerike" />
		<tag k="ssr:date" v="2019-12-27" />
		<tag k="ssr:gruppe" v="terrengområder" />
		<tag k="ssr:hovedgruppe" v="terreng" />
		<tag k="ssr:stedsnr" v="630844" />
		<tag k="ssr:type" v="landskapsområde" />
	</node>
	<node id="-22341" lat="60.2096611147" lon="9.87863888878">
		<tag k="name" v="Skalpliveien" />
		<tag k="ssr:date" v="2019-12-27" />
		<tag k="ssr:gruppe" v="veg" />
		<tag k="ssr:hovedgruppe" v="infrastruktur" />
		<tag k="ssr:stedsnr" v="697165" />
		<tag k="ssr:type" v="vegstrekning" />
	</node>
	<node id="-24196" lat="60.3734888909" lon="9.81952221811">
		<tag k="name" v="Aureveien" />
		<tag k="ssr:date" v="2019-12-27" />
		<tag k="ssr:gruppe" v="veg" />
		<tag k="ssr:hovedgruppe" v="infrastruktur" />
		<tag k="ssr:stedsnr" v="150986" />
		<tag k="ssr:type" v="adressenavn" />
	</node>
	<node id="-22247" lat="60.1682194469" lon="10.2714694508">
		<tag k="name" v="Dr. Bryhns vei" />
		<tag k="ssr:date" v="2019-12-27" />
		<tag k="ssr:gruppe" v="veg" />
		<tag k="ssr:hovedgruppe" v="infrastruktur" />
		<tag k="ssr:stedsnr" v="692697" />
		<tag k="ssr:type" v="adressenavn" />
	</node>
	<node id="-25211" lat="60.1601777767" lon="10.2565972172">
		<tag k="name" v="Ringerike kommune" />
		<tag k="ssr:date" v="2019-12-27" />
		<tag k="ssr:gruppe" v="administrativeIndelinger" />
		<tag k="ssr:hovedgruppe" v="offentligAdministrasjon" />
		<tag k="ssr:stedsnr" v="570713" />
		<tag k="ssr:type" v="kommune" />
	</node>
	<node id="-26292" lat="60.2498266093" lon="9.7491127359">
		<tag k="name" v="Haugerudkleiva" />
		<tag k="ssr:date" v="2020-09-01" />
		<tag k="ssr:gruppe" v="veg" />
		<tag k="ssr:hovedgruppe" v="infrastruktur" />
		<tag k="ssr:stedsnr" v="1078107" />
		<tag k="ssr:type" v="adressenavn" />
	</node>
	<node id="-26277" lat="60.1752681906" lon="10.3355757679">
		<tag k="name" v="Skibrua" />
		<tag k="ssr:date" v="2020-06-02" />
		<tag k="ssr:gruppe" v="veg" />
		<tag k="ssr:hovedgruppe" v="infrastruktur" />
		<tag k="ssr:stedsnr" v="1077109" />
		<tag k="ssr:type" v="adressenavn" />
	</node>
	<node id="-26276" lat="60.2753988311" lon="9.83003753293">
		<tag k="name" v="Rudsseterveien" />
		<tag k="ssr:date" v="2020-06-02" />
		<tag k="ssr:gruppe" v="veg" />
		<tag k="ssr:hovedgruppe" v="infrastruktur" />
		<tag k="ssr:stedsnr" v="1077108" />
		<tag k="ssr:type" v="adressenavn" />
	</node>
	<node id="-26275" lat="60.384099848" lon="10.0210835126">
		<tag k="name" v="Hugeråsveien" />
		<tag k="ssr:date" v="2020-06-02" />
		<tag k="ssr:gruppe" v="veg" />
		<tag k="ssr:hovedgruppe" v="infrastruktur" />
		<tag k="ssr:stedsnr" v="1077107" />
		<tag k="ssr:type" v="adressenavn" />
	</node>
	<node id="-23199" lat="60.2222472211" lon="10.3145861059">
		<tag k="name" v="Viulpensen" />
		<tag k="ssr:date" v="2019-12-27" />
		<tag k="ssr:gruppe" v="bane" />
		<tag k="ssr:hovedgruppe" v="infrastruktur" />
		<tag k="ssr:stedsnr" v="937985" />
		<tag k="ssr:type" v="banestrekning" />
	</node>
	<node id="-26268" lat="60.4923826699" lon="9.97686073341">
		<tag k="name" v="Killingtjernhaugen" />
		<tag k="ssr:date" v="2020-03-12" />
		<tag k="ssr:gruppe" v="veg" />
		<tag k="ssr:hovedgruppe" v="infrastruktur" />
		<tag k="ssr:stedsnr" v="1075984" />
		<tag k="ssr:type" v="adressenavn" />
	</node>
	<node id="-26267" lat="60.0978871285" lon="10.5686575926">
		<tag k="name" v="Styggedalsveien" />
		<tag k="ssr:date" v="2020-02-18" />
		<tag k="ssr:gruppe" v="veg" />
		<tag k="ssr:hovedgruppe" v="infrastruktur" />
		<tag k="ssr:stedsnr" v="1075331" />
		<tag k="ssr:type" v="adressenavn" />
	</node>
	<node id="-26266" lat="60.0908344621" lon="10.4343659763">
		<tag k="name" v="Nibbi" />
		<tag k="ssr:date" v="2020-02-18" />
		<tag k="ssr:gruppe" v="veg" />
		<tag k="ssr:hovedgruppe" v="infrastruktur" />
		<tag k="ssr:stedsnr" v="1075330" />
		<tag k="ssr:type" v="adressenavn" />
	</node>
	<node id="-26265" lat="60.0800072778" lon="10.4265800084">
		<tag k="name" v="Stormyr" />
		<tag k="ssr:date" v="2020-02-18" />
		<tag k="ssr:gruppe" v="veg" />
		<tag k="ssr:hovedgruppe" v="infrastruktur" />
		<tag k="ssr:stedsnr" v="1075329" />
		<tag k="ssr:type" v="adressenavn" />
	</node>
	<node id="-21144" lat="60.0801027797" lon="10.4513333271">
		<tag k="name" v="Noreledningen" />
		<tag k="ssr:date" v="2019-12-27" />
		<tag k="ssr:gruppe" v="energi" />
		<tag k="ssr:hovedgruppe" v="infrastruktur" />
		<tag k="ssr:stedsnr" v="270898" />
		<tag k="ssr:type" v="kraftledning" />
	</node>
	<node id="-26263" lat="60.0887358059" lon="10.4464827512">
		<tag k="name" v="Nibbitjern" />
		<tag k="ssr:date" v="2020-02-13" />
		<tag k="ssr:gruppe" v="veg" />
		<tag k="ssr:hovedgruppe" v="infrastruktur" />
		<tag k="ssr:stedsnr" v="1075095" />
		<tag k="ssr:type" v="adressenavn" />
	</node>
	<node id="-26262" lat="60.1000456004" lon="10.4271585396">
		<tag k="name" v="Lauvlibrenna" />
		<tag k="ssr:date" v="2020-02-13" />
		<tag k="ssr:gruppe" v="veg" />
		<tag k="ssr:hovedgruppe" v="infrastruktur" />
		<tag k="ssr:stedsnr" v="1075094" />
		<tag k="ssr:type" v="adressenavn" />
	</node>
	<node id="-26261" lat="60.1040057022" lon="10.4045216272">
		<tag k="name" v="Skjennungslia" />
		<tag k="ssr:date" v="2020-02-13" />
		<tag k="ssr:gruppe" v="veg" />
		<tag k="ssr:hovedgruppe" v="infrastruktur" />
		<tag k="ssr:stedsnr" v="1075092" />
		<tag k="ssr:type" v="adressenavn" />
	</node>
	<node id="-26260" lat="60.1022723127" lon="10.3900765857">
		<tag k="name" v="Huken" />
		<tag k="ssr:date" v="2020-02-13" />
		<tag k="ssr:gruppe" v="veg" />
		<tag k="ssr:hovedgruppe" v="infrastruktur" />
		<tag k="ssr:stedsnr" v="1075091" />
		<tag k="ssr:type" v="adressenavn" />
	</node>
	<node id="-26259" lat="60.1067082088" lon="10.423075448">
		<tag k="name" v="Stubbdalsflaka" />
		<tag k="ssr:date" v="2020-02-13" />
		<tag k="ssr:gruppe" v="veg" />
		<tag k="ssr:hovedgruppe" v="infrastruktur" />
		<tag k="ssr:stedsnr" v="1075093" />
		<tag k="ssr:type" v="adressenavn" />
	</node>
	<node id="-26258" lat="60.154422655" lon="10.3727496961">
		<tag k="name" v="Nedre Flagveien" />
		<tag k="ssr:date" v="2020-02-13" />
		<tag k="ssr:gruppe" v="veg" />
		<tag k="ssr:hovedgruppe" v="infrastruktur" />
		<tag k="ssr:stedsnr" v="1075089" />
		<tag k="ssr:type" v="adressenavn" />
	</node>
	<node id="-26257" lat="60.0932326155" lon="10.3811545874">
		<tag k="name" v="Gyrihaugen" />
		<tag k="ssr:date" v="2020-02-13" />
		<tag k="ssr:gruppe" v="veg" />
		<tag k="ssr:hovedgruppe" v="infrastruktur" />
		<tag k="ssr:stedsnr" v="1075090" />
		<tag k="ssr:type" v="adressenavn" />
	</node>
	<node id="-26256" lat="60.1480543526" lon="10.389234901">
		<tag k="name" v="Øvre Flagveien" />
		<tag k="ssr:date" v="2020-02-13" />
		<tag k="ssr:gruppe" v="veg" />
		<tag k="ssr:hovedgruppe" v="infrastruktur" />
		<tag k="ssr:stedsnr" v="1075088" />
		<tag k="ssr:type" v="adressenavn" />
	</node>
	<node id="-26255" lat="60.0827966809" lon="10.4008434951">
		<tag k="name" v="Skardtjernsveien" />
		<tag k="ssr:date" v="2020-02-11" />
		<tag k="ssr:gruppe" v="veg" />
		<tag k="ssr:hovedgruppe" v="infrastruktur" />
		<tag k="ssr:stedsnr" v="1075060" />
		<tag k="ssr:type" v="adressenavn" />
	</node>
	<node id="-26254" lat="60.120350749" lon="10.3865736409">
		<tag k="name" v="Gaupeskardveien" />
		<tag k="ssr:date" v="2020-02-11" />
		<tag k="ssr:gruppe" v="veg" />
		<tag k="ssr:hovedgruppe" v="infrastruktur" />
		<tag k="ssr:stedsnr" v="1075051" />
		<tag k="ssr:type" v="adressenavn" />
	</node>
	<node id="-26253" lat="60.124110897" lon="10.4021744753">
		<tag k="name" v="Lauvliveien" />
		<tag k="ssr:date" v="2020-02-11" />
		<tag k="ssr:gruppe" v="veg" />
		<tag k="ssr:hovedgruppe" v="infrastruktur" />
		<tag k="ssr:stedsnr" v="1075050" />
		<tag k="ssr:type" v="adressenavn" />
	</node>
	<node id="-26252" lat="60.100687945" lon="10.5061446611">
		<tag k="name" v="Smeddalsveien" />
		<tag k="ssr:date" v="2020-02-11" />
		<tag k="ssr:gruppe" v="veg" />
		<tag k="ssr:hovedgruppe" v="infrastruktur" />
		<tag k="ssr:stedsnr" v="1075049" />
		<tag k="ssr:type" v="adressenavn" />
	</node>
	<node id="-26251" lat="60.0347242054" lon="10.515597894">
		<tag k="name" v="Søttjernveien" />
		<tag k="ssr:date" v="2020-02-11" />
		<tag k="ssr:gruppe" v="veg" />
		<tag k="ssr:hovedgruppe" v="infrastruktur" />
		<tag k="ssr:stedsnr" v="1075048" />
		<tag k="ssr:type" v="adressenavn" />
	</node>
	<node id="-26250" lat="60.0255132753" lon="10.5019324454">
		<tag k="name" v="Dammyrdalsveien" />
		<tag k="ssr:date" v="2020-02-11" />
		<tag k="ssr:gruppe" v="veg" />
		<tag k="ssr:hovedgruppe" v="infrastruktur" />
		<tag k="ssr:stedsnr" v="1075047" />
		<tag k="ssr:type" v="adressenavn" />
	</node>
	<node id="-26249" lat="60.0977144581" lon="10.5688292315">
		<tag k="name" v="Gransvikveien" />
		<tag k="ssr:date" v="2020-02-11" />
		<tag k="ssr:gruppe" v="veg" />
		<tag k="ssr:hovedgruppe" v="infrastruktur" />
		<tag k="ssr:stedsnr" v="1075045" />
		<tag k="ssr:type" v="adressenavn" />
	</node>
	<node id="-26248" lat="60.058095886" lon="10.5524339646">
		<tag k="name" v="Nye Heggelivei" />
		<tag k="ssr:date" v="2020-02-11" />
		<tag k="ssr:gruppe" v="veg" />
		<tag k="ssr:hovedgruppe" v="infrastruktur" />
		<tag k="ssr:stedsnr" v="1075044" />
		<tag k="ssr:type" v="adressenavn" />
	</node>
	<node id="-26247" lat="60.0756436443" lon="10.5798044628">
		<tag k="name" v="Langliveien" />
		<tag k="ssr:date" v="2020-02-11" />
		<tag k="ssr:gruppe" v="veg" />
		<tag k="ssr:hovedgruppe" v="infrastruktur" />
		<tag k="ssr:stedsnr" v="1075043" />
		<tag k="ssr:type" v="adressenavn" />
	</node>
	<node id="-26246" lat="60.1093150186" lon="10.4705031425">
		<tag k="name" v="Kuvliveien" />
		<tag k="ssr:date" v="2020-02-11" />
		<tag k="ssr:gruppe" v="veg" />
		<tag k="ssr:hovedgruppe" v="infrastruktur" />
		<tag k="ssr:stedsnr" v="1075041" />
		<tag k="ssr:type" v="adressenavn" />
	</node>
	<node id="-26245" lat="60.0385605719" lon="10.5219557565">
		<tag k="name" v="Gråseterveien" />
		<tag k="ssr:date" v="2020-02-11" />
		<tag k="ssr:gruppe" v="veg" />
		<tag k="ssr:hovedgruppe" v="infrastruktur" />
		<tag k="ssr:stedsnr" v="1075046" />
		<tag k="ssr:type" v="adressenavn" />
	</node>
	<node id="-26244" lat="60.1251371036" lon="10.4795246559">
		<tag k="name" v="Haukveien" />
		<tag k="ssr:date" v="2020-02-11" />
		<tag k="ssr:gruppe" v="veg" />
		<tag k="ssr:hovedgruppe" v="infrastruktur" />
		<tag k="ssr:stedsnr" v="1075040" />
		<tag k="ssr:type" v="adressenavn" />
	</node>
	<node id="-26243" lat="60.1248884744" lon="10.4824833665">
		<tag k="name" v="Spålsveien" />
		<tag k="ssr:date" v="2020-02-11" />
		<tag k="ssr:gruppe" v="veg" />
		<tag k="ssr:hovedgruppe" v="infrastruktur" />
		<tag k="ssr:stedsnr" v="1075039" />
		<tag k="ssr:type" v="adressenavn" />
	</node>
	<node id="-26242" lat="60.1246380643" lon="10.4049687112">
		<tag k="name" v="Damtjern" />
		<tag k="ssr:date" v="2020-02-11" />
		<tag k="ssr:gruppe" v="veg" />
		<tag k="ssr:hovedgruppe" v="infrastruktur" />
		<tag k="ssr:stedsnr" v="1075037" />
		<tag k="ssr:type" v="adressenavn" />
	</node>
	<node id="-26241" lat="60.1391776792" lon="10.5922503845">
		<tag k="name" v="Fagerliveien" />
		<tag k="ssr:date" v="2020-02-11" />
		<tag k="ssr:gruppe" v="veg" />
		<tag k="ssr:hovedgruppe" v="infrastruktur" />
		<tag k="ssr:stedsnr" v="1075036" />
		<tag k="ssr:type" v="adressenavn" />
	</node>
	<node id="-26240" lat="60.1544555391" lon="10.5076850525">
		<tag k="name" v="Spålen" />
		<tag k="ssr:date" v="2020-02-11" />
		<tag k="ssr:gruppe" v="veg" />
		<tag k="ssr:hovedgruppe" v="infrastruktur" />
		<tag k="ssr:stedsnr" v="1075035" />
		<tag k="ssr:type" v="adressenavn" />
	</node>
	<node id="-26239" lat="60.1401532795" lon="10.5947646443">
		<tag k="name" v="Katnosvegen" />
		<tag k="ssr:date" v="2020-02-11" />
		<tag k="ssr:gruppe" v="veg" />
		<tag k="ssr:hovedgruppe" v="infrastruktur" />
		<tag k="ssr:stedsnr" v="1075034" />
		<tag k="ssr:type" v="adressenavn" />
	</node>
	<node id="-26238" lat="60.1749316601" lon="10.4925797272">
		<tag k="name" v="Store Sindera" />
		<tag k="ssr:date" v="2020-02-11" />
		<tag k="ssr:gruppe" v="veg" />
		<tag k="ssr:hovedgruppe" v="infrastruktur" />
		<tag k="ssr:stedsnr" v="1075033" />
		<tag k="ssr:type" v="adressenavn" />
	</node>
	<node id="-26237" lat="60.1253693459" lon="10.4071417843">
		<tag k="name" v="Storflåtaveien" />
		<tag k="ssr:date" v="2020-02-11" />
		<tag k="ssr:gruppe" v="veg" />
		<tag k="ssr:hovedgruppe" v="infrastruktur" />
		<tag k="ssr:stedsnr" v="1075038" />
		<tag k="ssr:type" v="adressenavn" />
	</node>
	<node id="-26236" lat="60.1577169358" lon="10.4239467876">
		<tag k="name" v="Svarttjerna" />
		<tag k="ssr:date" v="2020-02-11" />
		<tag k="ssr:gruppe" v="veg" />
		<tag k="ssr:hovedgruppe" v="infrastruktur" />
		<tag k="ssr:stedsnr" v="1075031" />
		<tag k="ssr:type" v="adressenavn" />
	</node>
	<node id="-26235" lat="60.1575802848" lon="10.4693616136">
		<tag k="name" v="Steinbuveien" />
		<tag k="ssr:date" v="2020-02-11" />
		<tag k="ssr:gruppe" v="veg" />
		<tag k="ssr:hovedgruppe" v="infrastruktur" />
		<tag k="ssr:stedsnr" v="1075030" />
		<tag k="ssr:type" v="adressenavn" />
	</node>
	<node id="-26234" lat="60.1591586365" lon="10.4508196111">
		<tag k="name" v="Vambuveien" />
		<tag k="ssr:date" v="2020-02-11" />
		<tag k="ssr:gruppe" v="veg" />
		<tag k="ssr:hovedgruppe" v="infrastruktur" />
		<tag k="ssr:stedsnr" v="1075029" />
		<tag k="ssr:type" v="adressenavn" />
	</node>
	<node id="-26233" lat="60.1873153168" lon="10.4497356192">
		<tag k="name" v="Mosjøen" />
		<tag k="ssr:date" v="2020-02-11" />
		<tag k="ssr:gruppe" v="veg" />
		<tag k="ssr:hovedgruppe" v="infrastruktur" />
		<tag k="ssr:stedsnr" v="1075028" />
		<tag k="ssr:type" v="adressenavn" />
	</node>
	<node id="-26232" lat="60.1583779803" lon="10.4342632727">
		<tag k="name" v="Tvetjerna" />
		<tag k="ssr:date" v="2020-02-11" />
		<tag k="ssr:gruppe" v="veg" />
		<tag k="ssr:hovedgruppe" v="infrastruktur" />
		<tag k="ssr:stedsnr" v="1075027" />
		<tag k="ssr:type" v="adressenavn" />
	</node>
	<node id="-26231" lat="60.1801463391" lon="10.4703516851">
		<tag k="name" v="Djupvatnet" />
		<tag k="ssr:date" v="2020-02-11" />
		<tag k="ssr:gruppe" v="veg" />
		<tag k="ssr:hovedgruppe" v="infrastruktur" />
		<tag k="ssr:stedsnr" v="1075025" />
		<tag k="ssr:type" v="adressenavn" />
	</node>
	<node id="-26230" lat="60.1686072163" lon="10.4292301744">
		<tag k="name" v="Uglaveien" />
		<tag k="ssr:date" v="2020-02-11" />
		<tag k="ssr:gruppe" v="veg" />
		<tag k="ssr:hovedgruppe" v="infrastruktur" />
		<tag k="ssr:stedsnr" v="1075026" />
		<tag k="ssr:type" v="adressenavn" />
	</node>
	<node id="-26229" lat="60.1895445687" lon="10.4230167296">
		<tag k="name" v="Nyseterveien" />
		<tag k="ssr:date" v="2020-02-11" />
		<tag k="ssr:gruppe" v="veg" />
		<tag k="ssr:hovedgruppe" v="infrastruktur" />
		<tag k="ssr:stedsnr" v="1075024" />
		<tag k="ssr:type" v="adressenavn" />
	</node>
	<node id="-26228" lat="60.1760952963" lon="10.4285460097">
		<tag k="name" v="Øyangen" />
		<tag k="ssr:date" v="2020-02-11" />
		<tag k="ssr:gruppe" v="veg" />
		<tag k="ssr:hovedgruppe" v="infrastruktur" />
		<tag k="ssr:stedsnr" v="1075022" />
		<tag k="ssr:type" v="adressenavn" />
	</node>
	<node id="-26227" lat="60.1645054767" lon="10.3633851631">
		<tag k="name" v="Rognestein" />
		<tag k="ssr:date" v="2020-02-11" />
		<tag k="ssr:gruppe" v="veg" />
		<tag k="ssr:hovedgruppe" v="infrastruktur" />
		<tag k="ssr:stedsnr" v="1075020" />
		<tag k="ssr:type" v="adressenavn" />
	</node>
	<node id="-26226" lat="60.1693320173" lon="10.3760210841">
		<tag k="name" v="Brodahlgrenda" />
		<tag k="ssr:date" v="2020-02-11" />
		<tag k="ssr:gruppe" v="veg" />
		<tag k="ssr:hovedgruppe" v="infrastruktur" />
		<tag k="ssr:stedsnr" v="1075019" />
		<tag k="ssr:type" v="adressenavn" />
	</node>
	<node id="-26225" lat="60.1702953254" lon="10.3895610969">
		<tag k="name" v="Svein Gulbrandsens vei" />
		<tag k="ssr:date" v="2020-02-11" />
		<tag k="ssr:gruppe" v="veg" />
		<tag k="ssr:hovedgruppe" v="infrastruktur" />
		<tag k="ssr:stedsnr" v="1075021" />
		<tag k="ssr:type" v="adressenavn" />
	</node>
	<node id="-26224" lat="60.1723885666" lon="10.4098914469">
		<tag k="name" v="Kolltjern" />
		<tag k="ssr:date" v="2020-02-11" />
		<tag k="ssr:gruppe" v="veg" />
		<tag k="ssr:hovedgruppe" v="infrastruktur" />
		<tag k="ssr:stedsnr" v="1075018" />
		<tag k="ssr:type" v="adressenavn" />
	</node>
	<node id="-26223" lat="60.1687673126" lon="10.400778886">
		<tag k="name" v="Ringkollia" />
		<tag k="ssr:date" v="2020-02-11" />
		<tag k="ssr:gruppe" v="veg" />
		<tag k="ssr:hovedgruppe" v="infrastruktur" />
		<tag k="ssr:stedsnr" v="1075017" />
		<tag k="ssr:type" v="adressenavn" />
	</node>
	<node id="-26222" lat="60.1720978006" lon="10.3803545273">
		<tag k="name" v="Honerudseterveien" />
		<tag k="ssr:date" v="2020-02-11" />
		<tag k="ssr:gruppe" v="veg" />
		<tag k="ssr:hovedgruppe" v="infrastruktur" />
		<tag k="ssr:stedsnr" v="1075014" />
		<tag k="ssr:type" v="adressenavn" />
	</node>
	<node id="-26221" lat="60.175572748" lon="10.3872783314">
		<tag k="name" v="Bølgensetra" />
		<tag k="ssr:date" v="2020-02-11" />
		<tag k="ssr:gruppe" v="veg" />
		<tag k="ssr:hovedgruppe" v="infrastruktur" />
		<tag k="ssr:stedsnr" v="1075015" />
		<tag k="ssr:type" v="adressenavn" />
	</node>
	<node id="-26220" lat="60.1589088319" lon="10.3834949853">
		<tag k="name" v="Marteseterveien" />
		<tag k="ssr:date" v="2020-02-11" />
		<tag k="ssr:gruppe" v="veg" />
		<tag k="ssr:hovedgruppe" v="infrastruktur" />
		<tag k="ssr:stedsnr" v="1075011" />
		<tag k="ssr:type" v="adressenavn" />
	</node>
	<node id="-26219" lat="60.1577893403" lon="10.3711064298">
		<tag k="name" v="Røstjernveien" />
		<tag k="ssr:date" v="2020-02-11" />
		<tag k="ssr:gruppe" v="veg" />
		<tag k="ssr:hovedgruppe" v="infrastruktur" />
		<tag k="ssr:stedsnr" v="1075010" />
		<tag k="ssr:type" v="adressenavn" />
	</node>
	<node id="-26218" lat="60.1736864903" lon="10.3787087646">
		<tag k="name" v="Damåshøgda" />
		<tag k="ssr:date" v="2020-02-11" />
		<tag k="ssr:gruppe" v="veg" />
		<tag k="ssr:hovedgruppe" v="infrastruktur" />
		<tag k="ssr:stedsnr" v="1075013" />
		<tag k="ssr:type" v="adressenavn" />
	</node>
	<node id="-26217" lat="60.1540806514" lon="10.3754196343">
		<tag k="name" v="Jaklefoss" />
		<tag k="ssr:date" v="2020-02-11" />
		<tag k="ssr:gruppe" v="veg" />
		<tag k="ssr:hovedgruppe" v="infrastruktur" />
		<tag k="ssr:stedsnr" v="1075009" />
		<tag k="ssr:type" v="adressenavn" />
	</node>
	<node id="-26216" lat="60.1790346376" lon="10.4106811373">
		<tag k="name" v="Gulbrandstjern" />
		<tag k="ssr:date" v="2020-02-11" />
		<tag k="ssr:gruppe" v="veg" />
		<tag k="ssr:hovedgruppe" v="infrastruktur" />
		<tag k="ssr:stedsnr" v="1075008" />
		<tag k="ssr:type" v="adressenavn" />
	</node>
	<node id="-26215" lat="60.1787813047" lon="10.3972932007">
		<tag k="name" v="Stigsrudsetra" />
		<tag k="ssr:date" v="2020-02-11" />
		<tag k="ssr:gruppe" v="veg" />
		<tag k="ssr:hovedgruppe" v="infrastruktur" />
		<tag k="ssr:stedsnr" v="1075007" />
		<tag k="ssr:type" v="adressenavn" />
	</node>
	<node id="-26214" lat="60.1663587948" lon="10.4009466817">
		<tag k="name" v="Ringkolltoppen" />
		<tag k="ssr:date" v="2020-02-11" />
		<tag k="ssr:gruppe" v="veg" />
		<tag k="ssr:hovedgruppe" v="infrastruktur" />
		<tag k="ssr:stedsnr" v="1075005" />
		<tag k="ssr:type" v="adressenavn" />
	</node>
	<node id="-26213" lat="60.1506703071" lon="10.386409159">
		<tag k="name" v="Ringkollseterstien" />
		<tag k="ssr:date" v="2020-02-11" />
		<tag k="ssr:gruppe" v="veg" />
		<tag k="ssr:hovedgruppe" v="infrastruktur" />
		<tag k="ssr:stedsnr" v="1075004" />
		<tag k="ssr:type" v="adressenavn" />
	</node>
	<node id="-26212" lat="60.1511837823" lon="10.3845393919">
		<tag k="name" v="Håvardssetra" />
		<tag k="ssr:date" v="2020-02-11" />
		<tag k="ssr:gruppe" v="veg" />
		<tag k="ssr:hovedgruppe" v="infrastruktur" />
		<tag k="ssr:stedsnr" v="1075006" />
		<tag k="ssr:type" v="adressenavn" />
	</node>
	<node id="-26211" lat="60.1448564613" lon="10.4214816793">
		<tag k="name" v="Høgåsen" />
		<tag k="ssr:date" v="2020-02-11" />
		<tag k="ssr:gruppe" v="veg" />
		<tag k="ssr:hovedgruppe" v="infrastruktur" />
		<tag k="ssr:stedsnr" v="1075003" />
		<tag k="ssr:type" v="adressenavn" />
	</node>
	<node id="-26210" lat="60.1466301229" lon="10.4092928557">
		<tag k="name" v="Høgkollen" />
		<tag k="ssr:date" v="2020-02-11" />
		<tag k="ssr:gruppe" v="veg" />
		<tag k="ssr:hovedgruppe" v="infrastruktur" />
		<tag k="ssr:stedsnr" v="1075002" />
		<tag k="ssr:type" v="adressenavn" />
	</node>
	<node id="-26209" lat="60.148220939" lon="10.3896201724">
		<tag k="name" v="Borgerseterveien" />
		<tag k="ssr:date" v="2020-02-11" />
		<tag k="ssr:gruppe" v="veg" />
		<tag k="ssr:hovedgruppe" v="infrastruktur" />
		<tag k="ssr:stedsnr" v="1075000" />
		<tag k="ssr:type" v="adressenavn" />
	</node>
	<node id="-26208" lat="60.1480442433" lon="10.3893425436">
		<tag k="name" v="Gamle Høgåsveien" />
		<tag k="ssr:date" v="2020-02-11" />
		<tag k="ssr:gruppe" v="veg" />
		<tag k="ssr:hovedgruppe" v="infrastruktur" />
		<tag k="ssr:stedsnr" v="1075001" />
		<tag k="ssr:type" v="adressenavn" />
	</node>
	<node id="-26207" lat="60.1814409538" lon="9.91269657341">
		<tag k="name" v="Høgholleia" />
		<tag k="ssr:date" v="2020-02-11" />
		<tag k="ssr:gruppe" v="veg" />
		<tag k="ssr:hovedgruppe" v="infrastruktur" />
		<tag k="ssr:stedsnr" v="1074998" />
		<tag k="ssr:type" v="adressenavn" />
	</node>
	<node id="-26206" lat="60.156478267" lon="10.3728354134">
		<tag k="name" v="Langtjernveien" />
		<tag k="ssr:date" v="2020-02-11" />
		<tag k="ssr:gruppe" v="veg" />
		<tag k="ssr:hovedgruppe" v="infrastruktur" />
		<tag k="ssr:stedsnr" v="1074999" />
		<tag k="ssr:type" v="adressenavn" />
	</node>
	<node id="-26205" lat="60.1936584303" lon="9.96398474944">
		<tag k="name" v="Modalsseterveien" />
		<tag k="ssr:date" v="2020-02-11" />
		<tag k="ssr:gruppe" v="veg" />
		<tag k="ssr:hovedgruppe" v="infrastruktur" />
		<tag k="ssr:stedsnr" v="1074997" />
		<tag k="ssr:type" v="adressenavn" />
	</node>
	<node id="-26204" lat="60.2033870374" lon="9.99510133033">
		<tag k="name" v="Kølabonnveien" />
		<tag k="ssr:date" v="2020-02-11" />
		<tag k="ssr:gruppe" v="veg" />
		<tag k="ssr:hovedgruppe" v="infrastruktur" />
		<tag k="ssr:stedsnr" v="1074995" />
		<tag k="ssr:type" v="adressenavn" />
	</node>
	<node id="-26203" lat="60.2053921381" lon="10.0172450537">
		<tag k="name" v="Rolvestøverveien" />
		<tag k="ssr:date" v="2020-02-11" />
		<tag k="ssr:gruppe" v="veg" />
		<tag k="ssr:hovedgruppe" v="infrastruktur" />
		<tag k="ssr:stedsnr" v="1074994" />
		<tag k="ssr:type" v="adressenavn" />
	</node>
	<node id="-26202" lat="60.2055664213" lon="10.0376377079">
		<tag k="name" v="Gulstøverseterveien" />
		<tag k="ssr:date" v="2020-02-11" />
		<tag k="ssr:gruppe" v="veg" />
		<tag k="ssr:hovedgruppe" v="infrastruktur" />
		<tag k="ssr:stedsnr" v="1074993" />
		<tag k="ssr:type" v="adressenavn" />
	</node>
	<node id="-26201" lat="60.212975691" lon="9.96862993081">
		<tag k="name" v="Bekkelyveien" />
		<tag k="ssr:date" v="2020-02-11" />
		<tag k="ssr:gruppe" v="veg" />
		<tag k="ssr:hovedgruppe" v="infrastruktur" />
		<tag k="ssr:stedsnr" v="1074996" />
		<tag k="ssr:type" v="adressenavn" />
	</node>
	<node id="-26200" lat="60.2081743586" lon="9.97682428406">
		<tag k="name" v="Sessrudveien" />
		<tag k="ssr:date" v="2020-02-11" />
		<tag k="ssr:gruppe" v="veg" />
		<tag k="ssr:hovedgruppe" v="infrastruktur" />
		<tag k="ssr:stedsnr" v="1074991" />
		<tag k="ssr:type" v="adressenavn" />
	</node>
	<node id="-26199" lat="60.1984526502" lon="10.1227512256">
		<tag k="name" v="Butjernveien" />
		<tag k="ssr:date" v="2020-02-11" />
		<tag k="ssr:gruppe" v="veg" />
		<tag k="ssr:hovedgruppe" v="infrastruktur" />
		<tag k="ssr:stedsnr" v="1074989" />
		<tag k="ssr:type" v="adressenavn" />
	</node>
	<node id="-26198" lat="60.0616881892" lon="9.9972446301">
		<tag k="name" v="Stortjernåsveien" />
		<tag k="ssr:date" v="2020-02-11" />
		<tag k="ssr:gruppe" v="veg" />
		<tag k="ssr:hovedgruppe" v="infrastruktur" />
		<tag k="ssr:stedsnr" v="1074988" />
		<tag k="ssr:type" v="adressenavn" />
	</node>
	<node id="-26197" lat="60.2013563035" lon="10.0835057675">
		<tag k="name" v="Hjelmerudveien" />
		<tag k="ssr:date" v="2020-02-11" />
		<tag k="ssr:gruppe" v="veg" />
		<tag k="ssr:hovedgruppe" v="infrastruktur" />
		<tag k="ssr:stedsnr" v="1074987" />
		<tag k="ssr:type" v="adressenavn" />
	</node>
	<node id="-26196" lat="60.2054759536" lon="10.0400163692">
		<tag k="name" v="Gunhildåsveien" />
		<tag k="ssr:date" v="2020-02-11" />
		<tag k="ssr:gruppe" v="veg" />
		<tag k="ssr:hovedgruppe" v="infrastruktur" />
		<tag k="ssr:stedsnr" v="1074990" />
		<tag k="ssr:type" v="adressenavn" />
	</node>
	<node id="-26195" lat="60.1293923072" lon="9.97115846807">
		<tag k="name" v="Nakkerudvollen" />
		<tag k="ssr:date" v="2020-02-11" />
		<tag k="ssr:gruppe" v="veg" />
		<tag k="ssr:hovedgruppe" v="infrastruktur" />
		<tag k="ssr:stedsnr" v="1074985" />
		<tag k="ssr:type" v="adressenavn" />
	</node>
	<node id="-26194" lat="60.1159389991" lon="9.98112599833">
		<tag k="name" v="Stormyrveien" />
		<tag k="ssr:date" v="2020-02-11" />
		<tag k="ssr:gruppe" v="veg" />
		<tag k="ssr:hovedgruppe" v="infrastruktur" />
		<tag k="ssr:stedsnr" v="1074984" />
		<tag k="ssr:type" v="adressenavn" />
	</node>
	<node id="-26193" lat="60.1006129423" lon="10.0644775281">
		<tag k="name" v="Bleikmyrveien" />
		<tag k="ssr:date" v="2020-02-11" />
		<tag k="ssr:gruppe" v="veg" />
		<tag k="ssr:hovedgruppe" v="infrastruktur" />
		<tag k="ssr:stedsnr" v="1074983" />
		<tag k="ssr:type" v="adressenavn" />
	</node>
	<node id="-26192" lat="60.198364073" lon="10.1055037515">
		<tag k="name" v="Tronrudveien" />
		<tag k="ssr:date" v="2020-02-11" />
		<tag k="ssr:gruppe" v="veg" />
		<tag k="ssr:hovedgruppe" v="infrastruktur" />
		<tag k="ssr:stedsnr" v="1074986" />
		<tag k="ssr:type" v="adressenavn" />
	</node>
	<node id="-26191" lat="60.1305121527" lon="10.0251213699">
		<tag k="name" v="Gruveveien" />
		<tag k="ssr:date" v="2020-02-11" />
		<tag k="ssr:gruppe" v="veg" />
		<tag k="ssr:hovedgruppe" v="infrastruktur" />
		<tag k="ssr:stedsnr" v="1074981" />
		<tag k="ssr:type" v="adressenavn" />
	</node>
	<node id="-26190" lat="60.1166616271" lon="10.0676225659">
		<tag k="name" v="Ullerenveien" />
		<tag k="ssr:date" v="2020-02-11" />
		<tag k="ssr:gruppe" v="veg" />
		<tag k="ssr:hovedgruppe" v="infrastruktur" />
		<tag k="ssr:stedsnr" v="1074982" />
		<tag k="ssr:type" v="adressenavn" />
	</node>
	<node id="-26189" lat="60.0953735859" lon="10.0275002025">
		<tag k="name" v="Væleren" />
		<tag k="ssr:date" v="2020-02-11" />
		<tag k="ssr:gruppe" v="veg" />
		<tag k="ssr:hovedgruppe" v="infrastruktur" />
		<tag k="ssr:stedsnr" v="1074979" />
		<tag k="ssr:type" v="adressenavn" />
	</node>
	<node id="-26188" lat="60.1565998738" lon="10.1762884167">
		<tag k="name" v="Mastedalsveien" />
		<tag k="ssr:date" v="2020-02-11" />
		<tag k="ssr:gruppe" v="veg" />
		<tag k="ssr:hovedgruppe" v="infrastruktur" />
		<tag k="ssr:stedsnr" v="1074978" />
		<tag k="ssr:type" v="adressenavn" />
	</node>
	<node id="-26187" lat="60.1040919106" lon="9.99473095857">
		<tag k="name" v="Berggardsvollveien" />
		<tag k="ssr:date" v="2020-02-11" />
		<tag k="ssr:gruppe" v="veg" />
		<tag k="ssr:hovedgruppe" v="infrastruktur" />
		<tag k="ssr:stedsnr" v="1074980" />
		<tag k="ssr:type" v="adressenavn" />
	</node>
	<node id="-26186" lat="60.1711778058" lon="10.4173196319">
		<tag k="name" v="Østerdamsveien" />
		<tag k="ssr:date" v="2020-02-11" />
		<tag k="ssr:gruppe" v="veg" />
		<tag k="ssr:hovedgruppe" v="infrastruktur" />
		<tag k="ssr:stedsnr" v="1075023" />
		<tag k="ssr:type" v="adressenavn" />
	</node>
	<node id="-26185" lat="59.9116896876" lon="10.7581882267">
		<tag k="name" v="Viken fylke" />
		<tag k="ssr:date" v="2020-01-13" />
		<tag k="ssr:gruppe" v="administrativeIndelinger" />
		<tag k="ssr:hovedgruppe" v="offentligAdministrasjon" />
		<tag k="ssr:stedsnr" v="1074403" />
		<tag k="ssr:type" v="fylke" />
	</node>
	<node id="-26184" lat="60.087175814" lon="10.0999987381">
		<tag k="name" v="Sagtomta" />
		<tag k="ssr:date" v="2019-12-27" />
		<tag k="ssr:gruppe" v="veg" />
		<tag k="ssr:hovedgruppe" v="infrastruktur" />
		<tag k="ssr:stedsnr" v="1073894" />
		<tag k="ssr:type" v="adressenavn" />
	</node>
	<node id="-26183" lat="60.2744474605" lon="10.1849283624">
		<tag k="name" v="Ole Nilsedalens vei" />
		<tag k="ssr:date" v="2019-12-27" />
		<tag k="ssr:gruppe" v="veg" />
		<tag k="ssr:hovedgruppe" v="infrastruktur" />
		<tag k="ssr:stedsnr" v="1073617" />
		<tag k="ssr:type" v="adressenavn" />
	</node>
	<node id="-26182" lat="60.2193088776" lon="9.88825486354">
		<tag k="name" v="Skalpelivegen" />
		<tag k="ssr:date" v="2019-12-27" />
		<tag k="ssr:gruppe" v="veg" />
		<tag k="ssr:hovedgruppe" v="infrastruktur" />
		<tag k="ssr:stedsnr" v="1073257" />
		<tag k="ssr:type" v="vegstrekning" />
	</node>
	<node id="-26178" lat="60.2535474599" lon="9.9349321391">
		<tag k="name" v="Tyttebærstien" />
		<tag k="ssr:date" v="2019-12-27" />
		<tag k="ssr:gruppe" v="veg" />
		<tag k="ssr:hovedgruppe" v="infrastruktur" />
		<tag k="ssr:stedsnr" v="1046109" />
		<tag k="ssr:type" v="adressenavn" />
	</node>
	<node id="-26177" lat="60.253260546" lon="9.93398933017">
		<tag k="name" v="Tyttebærsvingen" />
		<tag k="ssr:date" v="2019-12-27" />
		<tag k="ssr:gruppe" v="veg" />
		<tag k="ssr:hovedgruppe" v="infrastruktur" />
		<tag k="ssr:stedsnr" v="1046108" />
		<tag k="ssr:type" v="adressenavn" />
	</node>
	<node id="-26176" lat="60.1673232476" lon="10.2556582277">
		<tag k="name" v="Brutorget" />
		<tag k="ssr:date" v="2019-12-27" />
		<tag k="ssr:gruppe" v="veg" />
		<tag k="ssr:hovedgruppe" v="infrastruktur" />
		<tag k="ssr:stedsnr" v="1036445" />
		<tag k="ssr:type" v="adressenavn" />
	</node>
	<node id="-23103" lat="60.169716665" lon="10.2168305544">
		<tag k="name" v="Bergensbanen" />
		<tag k="ssr:date" v="2019-12-27" />
		<tag k="ssr:gruppe" v="bane" />
		<tag k="ssr:hovedgruppe" v="infrastruktur" />
		<tag k="ssr:stedsnr" v="815010" />
		<tag k="ssr:type" v="banestrekning" />
	</node>
	<node id="-21560" lat="60.165163887" lon="10.2415944481">
		<tag k="name" v="Johnsebakken" />
		<tag k="ssr:date" v="2019-12-27" />
		<tag k="ssr:gruppe" v="veg" />
		<tag k="ssr:hovedgruppe" v="infrastruktur" />
		<tag k="ssr:stedsnr" v="329326" />
		<tag k="ssr:type" v="adressenavn" />
	</node>
	<node id="-25610" lat="60.2175944402" lon="10.37244444">
		<tag k="name" v="Kistefossveien" />
		<tag k="ssr:date" v="2019-12-27" />
		<tag k="ssr:gruppe" v="veg" />
		<tag k="ssr:hovedgruppe" v="infrastruktur" />
		<tag k="ssr:stedsnr" v="755795" />
		<tag k="ssr:type" v="adressenavn" />
	</node>
</osm>
