<?xml version="1.0" encoding="UTF-8"?>
<<<<<<< HEAD
<osm version="0.6" generator="osmapis">
	<node lat="61.292175002043955" lon="10.729538889480363" id="-32894">
		<tag k="name" v="Gravmyra" />
=======
<osm generator="osmapis" version="0.6">
	<node id="-378363" lat="61.2084305528" lon="10.4627222132">
		<tag k="name" v="Nystugua" />
		<tag k="place" v="locality" />
		<tag k="ssr:stedsnr" v="223570" />
	</node>
	<node id="-378362" lat="61.4107472252" lon="10.5832000072">
		<tag k="name" v="Hølmyra" />
		<tag k="natural" v="wetland" />
		<tag k="ssr:stedsnr" v="221906" />
	</node>
	<node id="-378865" lat="61.3688611102" lon="10.445958342">
		<tag k="name" v="Svarthaugmyra" />
		<tag k="natural" v="wetland" />
		<tag k="ssr:stedsnr" v="951065" />
	</node>
	<node id="-378862" lat="61.3552555567" lon="10.4638638933">
		<tag k="name" v="Bakkomslåtten" />
		<tag k="place" v="locality" />
		<tag k="ssr:stedsnr" v="949623" />
	</node>
	<node id="-378859" lat="61.3753722189" lon="10.5603027838">
		<tag k="landuse" v="meadow" />
		<tag k="name" v="Gillebuslæen" />
		<tag k="ssr:stedsnr" v="949262" />
	</node>
	<node id="-378337" lat="61.3374999963" lon="10.680680557">
		<tag k="name" v="Veiddhavna" />
		<tag k="place" v="locality" />
		<tag k="ssr:stedsnr" v="284171" />
	</node>
	<node id="-379360" lat="61.3113527784" lon="10.2618444387">
		<tag k="name" v="Brånån" />
		<tag k="place" v="locality" />
		<tag k="ssr:stedsnr" v="603516" />
	</node>
	<node id="-378195" lat="61.2164138894" lon="10.4468361103">
		<tag k="name" v="Nerjordet" />
		<tag k="place" v="locality" />
		<tag k="ssr:stedsnr" v="223647" />
	</node>
	<node id="-379358" lat="61.3315833328" lon="10.4847361066">
		<tag k="name" v="Trollmyra" />
		<tag k="natural" v="wetland" />
		<tag k="ssr:stedsnr" v="603394" />
	</node>
	<node id="-378845" lat="61.2883166701" lon="10.5441277822">
		<tag k="name" v="Bottrudmyra" />
		<tag k="natural" v="wetland" />
		<tag k="ssr:stedsnr" v="918305" />
	</node>
	<node id="-379355" lat="61.2934888891" lon="10.458633335">
		<tag k="name" v="Tangmyra" />
		<tag k="natural" v="wetland" />
		<tag k="ssr:stedsnr" v="595508" />
	</node>
	<node id="-378330" lat="61.3531111081" lon="10.333650003">
		<tag k="name" v="Brånåmyra" />
		<tag k="natural" v="wetland" />
		<tag k="ssr:stedsnr" v="282856" />
	</node>
	<node id="-378841" lat="61.3345888929" lon="10.220825009">
		<tag k="name" v="Åsan" />
		<tag k="place" v="locality" />
		<tag k="ssr:stedsnr" v="907819" />
	</node>
	<node id="-378328" lat="61.3120027785" lon="10.4480083393">
		<tag k="name" v="Torvmyra" />
		<tag k="natural" v="wetland" />
		<tag k="ssr:stedsnr" v="282763" />
	</node>
	<node id="-379350" lat="61.2027250042" lon="10.423597222">
		<tag k="landuse" v="landfill" />
		<tag k="name" v="Tverrslaget" />
		<tag k="ssr:stedsnr" v="587596" />
	</node>
	<node id="-378837" lat="61.3724944421" lon="10.4804444484">
		<tag k="landuse" v="meadow" />
		<tag k="name" v="Glømmeslæen" />
		<tag k="ssr:stedsnr" v="888269" />
	</node>
	<node id="-379347" lat="61.2893250036" lon="10.2554555465">
		<tag k="landuse" v="quarry" />
		<tag k="name" v="Holoberget" />
		<tag k="ssr:stedsnr" v="587429" />
	</node>
	<node id="-379339" lat="61.3198805543" lon="10.6873027806">
		<tag k="name" v="Langmyra" />
		<tag k="natural" v="wetland" />
		<tag k="ssr:stedsnr" v="586158" />
	</node>
	<node id="-378821" lat="61.2189583293" lon="10.4984944428">
		<tag k="landuse" v="quarry" />
		<tag k="name" v="Sandstulgruva" />
		<tag k="ssr:stedsnr" v="949292" />
	</node>
	<node id="-379332" lat="61.2229888892" lon="10.5165833407">
		<tag k="name" v="Lunnstadmyra" />
		<tag k="natural" v="wetland" />
		<tag k="ssr:stedsnr" v="585285" />
	</node>
	<node id="-379329" lat="61.2989083336" lon="10.4533416648">
		<tag k="name" v="Geitbergmyra" />
		<tag k="natural" v="wetland" />
		<tag k="ssr:stedsnr" v="584805" />
	</node>
	<node id="-378302" lat="61.2946083303" lon="10.3241861123">
		<tag k="landuse" v="quarry" />
		<tag k="name" v="Steinberget" />
		<tag k="ssr:stedsnr" v="162511" />
	</node>
	<node id="-378299" lat="61.3353944446" lon="10.4587527703">
		<tag k="name" v="Langmyra" />
		<tag k="natural" v="wetland" />
		<tag k="ssr:stedsnr" v="162253" />
	</node>
	<node id="-378298" lat="61.3652944469" lon="10.3562416733">
		<tag k="name" v="Stormyra" />
		<tag k="natural" v="wetland" />
		<tag k="ssr:stedsnr" v="162318" />
	</node>
	<node id="-378295" lat="61.3081222249" lon="10.3746111082">
		<tag k="name" v="Torvmyra" />
		<tag k="natural" v="wetland" />
		<tag k="ssr:stedsnr" v="160761" />
	</node>
	<node id="-378294" lat="61.3007527791" lon="10.3726666636">
		<tag k="name" v="Akselmyra" />
		<tag k="natural" v="wetland" />
		<tag k="ssr:stedsnr" v="160756" />
	</node>
	<node id="-379310" lat="61.3656694407" lon="10.489533332">
		<tag k="loc_name" v="Gumpa" />
		<tag k="name" v="Gompa" />
		<tag k="natural" v="wetland" />
		<tag k="ssr:stedsnr" v="554331" />
	</node>
	<node id="-378795" lat="61.2795555542" lon="10.4289972274">
		<tag k="name" v="Rønningen" />
		<tag k="place" v="locality" />
		<tag k="ssr:stedsnr" v="828507" />
	</node>
	<node id="-378282" lat="61.3897388847" lon="10.5005444492">
		<tag k="name" v="Vargøymyra" />
		<tag k="natural" v="wetland" />
		<tag k="ssr:stedsnr" v="129308" />
	</node>
	<node id="-378182" lat="61.3701722194" lon="10.3951666686">
		<tag k="name" v="Ståkåmyra" />
		<tag k="natural" v="wetland" />
		<tag k="ssr:stedsnr" v="223004" />
	</node>
	<node id="-378786" lat="61.3276916672" lon="10.2089527848">
		<tag k="name" v="Langmyra" />
		<tag k="natural" v="wetland" />
		<tag k="ssr:stedsnr" v="786848" />
	</node>
	<node id="-378785" lat="61.3556499992" lon="10.2388694364">
		<tag k="name" v="Innleggen" />
		<tag k="place" v="locality" />
		<tag k="ssr:stedsnr" v="786816" />
	</node>
	<node id="-378269" lat="61.3555222213" lon="10.4455499989">
		<tag k="name" v="Kattsteinen" />
		<tag k="natural" v="stone" />
		<tag k="ssr:stedsnr" v="99707" />
	</node>
	<node id="-378267" lat="61.3090027794" lon="10.5769111113">
		<tag k="name" v="Lykkebotmyra" />
		<tag k="natural" v="wetland" />
		<tag k="ssr:stedsnr" v="99561" />
	</node>
	<node id="-379284" lat="61.1886472217" lon="10.4226083399">
		<tag k="name" v="Svenskerud" />
		<tag k="place" v="locality" />
		<tag k="ssr:stedsnr" v="526525" />
	</node>
	<node id="-379280" lat="61.3727722221" lon="10.3163555609">
		<tag k="name" v="Korsbekkmyra" />
>>>>>>> e1d4bc35ff8a6074a6f2e91616a996b547c36f15
		<tag k="natural" v="wetland" />
		<tag k="ssr:stedsnr" v="8414" />
	</node>
<<<<<<< HEAD
	<node lat="61.211377776607534" lon="10.45101667036078" id="-32914">
		<tag k="name" v="Kråkroa" />
		<tag k="place" v="locality" />
		<tag k="ssr:stedsnr" v="40617" />
	</node>
	<node lat="61.25488611538083" lon="10.437961107998506" id="-32918">
		<tag k="landuse" v="quarry" />
		<tag k="name" v="Jevnegruva" />
		<tag k="ssr:stedsnr" v="41209" />
	</node>
	<node lat="61.314277780901385" lon="10.254361110521799" id="-32938">
		<tag k="name" v="Hestmyra" />
=======
	<node id="-379279" lat="61.3500583372" lon="10.4501027847">
		<tag k="name" v="Gravåskjørkja" />
		<tag k="natural" v="stone" />
		<tag k="ssr:stedsnr" v="526256" />
	</node>
	<node id="-378759" lat="61.3203222183" lon="10.3749416735">
		<tag k="name" v="Steinkloppmyra" />
>>>>>>> e1d4bc35ff8a6074a6f2e91616a996b547c36f15
		<tag k="natural" v="wetland" />
		<tag k="ssr:stedsnr" v="240560" />
	</node>
<<<<<<< HEAD
	<node lat="61.349258336696295" lon="10.204774992504662" id="-32939">
		<tag k="name" v="Langmyra" />
=======
	<node id="-379269" lat="61.2450916656" lon="10.7243138835">
		<tag k="name" v="Holman" />
>>>>>>> e1d4bc35ff8a6074a6f2e91616a996b547c36f15
		<tag k="place" v="locality" />
		<tag k="ssr:stedsnr" v="240824" />
	</node>
<<<<<<< HEAD
	<node lat="61.36783610922821" lon="10.22586111985854" id="-32958">
		<tag k="name" v="Hesjamyra" />
		<tag k="natural" v="wetland" />
		<tag k="ssr:stedsnr" v="84838" />
	</node>
	<node lat="61.30900277935824" lon="10.576911111310697" id="-32961">
		<tag k="name" v="Lykkebotmyra" />
=======
	<node id="-378756" lat="61.3508500035" lon="10.3342277833">
		<tag k="name" v="Karihaugmyra" />
		<tag k="natural" v="wetland" />
		<tag k="ssr:stedsnr" v="767875" />
	</node>
	<node id="-379267" lat="61.2950055545" lon="10.4885333271">
		<tag k="landuse" v="peat_cutting" />
		<tag k="name" v="Torvhusa" />
		<tag k="ssr:stedsnr" v="524660" />
	</node>
	<node id="-379266" lat="61.2867527766" lon="10.4879000021">
		<tag k="name" v="Malmyra" />
>>>>>>> e1d4bc35ff8a6074a6f2e91616a996b547c36f15
		<tag k="natural" v="wetland" />
		<tag k="ssr:stedsnr" v="99561" />
	</node>
<<<<<<< HEAD
	<node lat="61.35552222134933" lon="10.445549998911066" id="-32963">
		<tag k="name" v="Kattsteinen" />
		<tag k="natural" v="stone" />
		<tag k="ssr:stedsnr" v="99707" />
	</node>
	<node lat="61.191886109344" lon="10.424502768555095" id="-32977">
=======
	<node id="-379263" lat="61.3615583344" lon="10.4960888955">
>>>>>>> e1d4bc35ff8a6074a6f2e91616a996b547c36f15
		<tag k="landuse" v="meadow" />
		<tag k="name" v="Bakksvea" />
		<tag k="ssr:stedsnr" v="102627" />
	</node>
<<<<<<< HEAD
	<node lat="61.263286110257134" lon="10.515038897424281" id="-33022">
		<tag k="alt_name" v="Raumyra" />
		<tag k="name" v="Raudmyra" />
		<tag k="natural" v="wetland" />
		<tag k="ssr:stedsnr" v="129478" />
	</node>
	<node lat="61.389738884726974" lon="10.500544449195832" id="-33023">
		<tag k="name" v="Vargøymyra" />
		<tag k="natural" v="wetland" />
		<tag k="ssr:stedsnr" v="129308" />
	</node>
	<node lat="61.365294446900165" lon="10.356241673334912" id="-33032">
		<tag k="name" v="Stormyra" />
=======
	<node id="-379262" lat="61.3664944434" lon="10.2592388927">
		<tag k="name" v="Kapelrudmoen" />
		<tag k="place" v="locality" />
		<tag k="ssr:stedsnr" v="524260" />
	</node>
	<node id="-378742" lat="61.2953527773" lon="10.2327000048">
		<tag k="name" v="Hongsinnlegginga" />
		<tag k="place" v="locality" />
		<tag k="ssr:stedsnr" v="907869" />
	</node>
	<node id="-379253" lat="61.2809583315" lon="10.4565972282">
		<tag k="name" v="Nordjordsmyra" />
>>>>>>> e1d4bc35ff8a6074a6f2e91616a996b547c36f15
		<tag k="natural" v="wetland" />
		<tag k="ssr:stedsnr" v="162318" />
	</node>
<<<<<<< HEAD
	<node lat="61.33539444459549" lon="10.458752770294012" id="-33033">
=======
	<node id="-378227" lat="61.3492583367" lon="10.2047749925">
>>>>>>> e1d4bc35ff8a6074a6f2e91616a996b547c36f15
		<tag k="name" v="Langmyra" />
		<tag k="natural" v="wetland" />
		<tag k="ssr:stedsnr" v="162253" />
	</node>
<<<<<<< HEAD
	<node lat="61.294608330282394" lon="10.324186112256244" id="-33036">
		<tag k="landuse" v="quarry" />
		<tag k="name" v="Steinberget" />
		<tag k="ssr:stedsnr" v="162511" />
	</node>
	<node lat="61.34898888508526" lon="10.581538886382384" id="-33040">
		<tag k="name" v="Slåsbergmyra" />
=======
	<node id="-378224" lat="61.3142777809" lon="10.2543611105">
		<tag k="name" v="Hestmyra" />
>>>>>>> e1d4bc35ff8a6074a6f2e91616a996b547c36f15
		<tag k="natural" v="wetland" />
		<tag k="ssr:stedsnr" v="179421" />
	</node>
<<<<<<< HEAD
	<node lat="61.35557221890701" lon="10.222652774139414" id="-33043">
		<tag k="name" v="Torsteinsmyra" />
=======
	<node id="-378733" lat="61.2953222241" lon="10.379688885">
		<tag k="name" v="Hesthågåmyra" />
>>>>>>> e1d4bc35ff8a6074a6f2e91616a996b547c36f15
		<tag k="natural" v="wetland" />
		<tag k="ssr:stedsnr" v="179808" />
	</node>
<<<<<<< HEAD
	<node lat="61.22055277459789" lon="10.51754721278638" id="-33068">
		<tag k="name" v="Rugga" />
		<tag k="natural" v="stone" />
		<tag k="ssr:stedsnr" v="221302" />
	</node>
	<node lat="61.19704444775934" lon="10.502144440656288" id="-33070">
		<tag k="name" v="Øvre Lemyra" />
=======
	<node id="-378214" lat="61.2548861154" lon="10.437961108">
		<tag k="landuse" v="quarry" />
		<tag k="name" v="Jevnegruva" />
		<tag k="ssr:stedsnr" v="41209" />
	</node>
	<node id="-379232" lat="61.3035416644" lon="10.4840638932">
		<tag k="name" v="Kloppmyra" />
>>>>>>> e1d4bc35ff8a6074a6f2e91616a996b547c36f15
		<tag k="natural" v="wetland" />
		<tag k="ssr:stedsnr" v="221321" />
	</node>
<<<<<<< HEAD
	<node lat="61.312594445812195" lon="10.587905564934532" id="-33073">
		<tag k="name" v="Flågåmyra" />
=======
	<node id="-378713" lat="61.3155777791" lon="10.353869445">
		<tag k="name" v="Jenthaugmyra" />
>>>>>>> e1d4bc35ff8a6074a6f2e91616a996b547c36f15
		<tag k="natural" v="wetland" />
		<tag k="ssr:stedsnr" v="221509" />
	</node>
	<node lat="61.410747225204695" lon="10.583200007221143" id="-33077">
		<tag k="name" v="Hølmyra" />
		<tag k="natural" v="wetland" />
		<tag k="ssr:stedsnr" v="221906" />
	</node>
<<<<<<< HEAD
	<node lat="61.37017221942081" lon="10.395166668573252" id="-33079">
		<tag k="name" v="Ståkåmyra" />
		<tag k="natural" v="wetland" />
		<tag k="ssr:stedsnr" v="223004" />
	</node>
	<node lat="61.324049998920465" lon="10.726463881080305" id="-33085">
=======
	<node id="-378197" lat="61.3240499989" lon="10.7264638811">
>>>>>>> e1d4bc35ff8a6074a6f2e91616a996b547c36f15
		<tag k="name" v="Bergeslåa" />
		<tag k="place" v="locality" />
		<tag k="ssr:stedsnr" v="223847" />
	</node>
<<<<<<< HEAD
	<node lat="61.264138885376155" lon="10.546911110022773" id="-33097">
		<tag k="name" v="Lisåsan" />
		<tag k="place" v="locality" />
		<tag k="ssr:stedsnr" v="282297" />
	</node>
	<node lat="61.30208333029359" lon="10.55723889611831" id="-33118">
		<tag k="name" v="Tråppbergmyra" />
=======
	<node id="-378707" lat="61.3828944409" lon="10.34533334">
		<tag k="name" v="Slettmyra" />
		<tag k="place" v="locality" />
		<tag k="ssr:stedsnr" v="889286" />
	</node>
	<node id="-378194" lat="61.2541361144" lon="10.6540611205">
		<tag k="name" v="Austmyra" />
		<tag k="natural" v="wetland" />
		<tag k="ssr:stedsnr" v="223516" />
	</node>
	<node id="-378699" lat="61.2828583348" lon="10.5095444384">
		<tag k="name" v="Svartåsmyra" />
>>>>>>> e1d4bc35ff8a6074a6f2e91616a996b547c36f15
		<tag k="natural" v="wetland" />
		<tag k="ssr:stedsnr" v="463533" />
	</node>
<<<<<<< HEAD
	<node lat="61.39423055995672" lon="10.523680549432953" id="-33126">
		<tag k="name" v="Raubergmyra" />
		<tag k="natural" v="wetland" />
		<tag k="ssr:stedsnr" v="463996" />
	</node>
	<node lat="61.29453670815807" lon="10.495633116509172" id="-33138">
		<tag k="name" v="Stormyra" />
		<tag k="natural" v="wetland" />
		<tag k="ssr:stedsnr" v="311322" />
	</node>
	<node lat="61.263694444095805" lon="10.646508332032225" id="-33149">
		<tag k="name" v="Langmyra" />
=======
	<node id="-378186" lat="61.2576361071" lon="10.4333138904">
		<tag k="landuse" v="quarry" />
		<tag k="name" v="Haugsgruva" />
		<tag k="ssr:stedsnr" v="223211" />
	</node>
	<node id="-378694" lat="61.3022611139" lon="10.7953222222">
		<tag k="name" v="Stormyra" />
		<tag k="natural" v="wetland" />
		<tag k="ssr:stedsnr" v="884680" />
	</node>
	<node id="-378174" lat="61.292175002" lon="10.7295388895">
		<tag k="name" v="Gravmyra" />
		<tag k="natural" v="wetland" />
		<tag k="ssr:stedsnr" v="8414" />
	</node>
	<node id="-379196" lat="61.2833499959" lon="10.4853138968">
		<tag k="name" v="Malmen" />
		<tag k="natural" v="wetland" />
		<tag k="ssr:stedsnr" v="403674" />
	</node>
	<node id="-379195" lat="61.3521972223" lon="10.3820416684">
		<tag k="name" v="Stormyra" />
>>>>>>> e1d4bc35ff8a6074a6f2e91616a996b547c36f15
		<tag k="natural" v="wetland" />
		<tag k="ssr:stedsnr" v="466511" />
	</node>
<<<<<<< HEAD
	<node lat="61.232641670409684" lon="10.455852783512766" id="-33155">
		<tag k="name" v="Joenget" />
		<tag k="place" v="locality" />
		<tag k="ssr:stedsnr" v="466822" />
	</node>
	<node lat="61.2194055528663" lon="10.515705547587867" id="-33160">
		<tag k="name" v="Ilsæterurda" />
		<tag k="natural" v="scree" />
		<tag k="ssr:stedsnr" v="342296" />
	</node>
	<node lat="61.22240299694338" lon="10.527835600625957" id="-33168">
		<tag k="name" v="Andtjønnsmyra" />
=======
	<node id="-379193" lat="61.3929694424" lon="10.4636083305">
		<tag k="name" v="Jutulsteinen" />
		<tag k="natural" v="stone" />
		<tag k="ssr:stedsnr" v="403542" />
	</node>
	<node id="-378165" lat="61.3125944458" lon="10.5879055649">
		<tag k="name" v="Flågåmyra" />
>>>>>>> e1d4bc35ff8a6074a6f2e91616a996b547c36f15
		<tag k="natural" v="wetland" />
		<tag k="ssr:stedsnr" v="342645" />
	</node>
<<<<<<< HEAD
	<node lat="61.36868055565314" lon="10.330944442724308" id="-33170">
		<tag k="name" v="Raumyra" />
		<tag k="natural" v="wetland" />
		<tag k="ssr:stedsnr" v="344321" />
	</node>
	<node lat="61.28334999587897" lon="10.485313896754336" id="-33193">
		<tag k="name" v="Malmen" />
		<tag k="natural" v="wetland" />
		<tag k="ssr:stedsnr" v="403674" />
	</node>
	<node lat="61.313413886638635" lon="10.682436113112628" id="-33196">
		<tag k="name" v="Styggmyra" />
		<tag k="natural" v="wetland" />
		<tag k="ssr:stedsnr" v="405321" />
	</node>
	<node lat="61.316736112791865" lon="10.705308325019526" id="-33197">
		<tag k="name" v="Svartdalsslåttan" />
=======
	<node id="-378590" lat="61.2963138843" lon="10.5498027864">
		<tag k="name" v="Hesjamyra" />
		<tag k="natural" v="wetland" />
		<tag k="ssr:stedsnr" v="706832" />
	</node>
	<node id="-378160" lat="61.1970444478" lon="10.5021444407">
		<tag k="name" v="Øvre Lemyra" />
		<tag k="natural" v="wetland" />
		<tag k="ssr:stedsnr" v="221321" />
	</node>
	<node id="-378156" lat="61.2205527746" lon="10.5175472128">
		<tag k="name" v="Rugga" />
		<tag k="natural" v="stone" />
		<tag k="ssr:stedsnr" v="221302" />
	</node>
	<node id="-378660" lat="61.2780305559" lon="10.4931194433">
		<tag k="name" v="Grønslålyua" />
>>>>>>> e1d4bc35ff8a6074a6f2e91616a996b547c36f15
		<tag k="place" v="locality" />
		<tag k="ssr:stedsnr" v="405323" />
	</node>
<<<<<<< HEAD
	<node lat="61.29883611508102" lon="10.231830554946757" id="-33203">
		<tag k="name" v="Gonstadlykkja" />
=======
	<node id="-378502" lat="61.310236107" lon="10.6994833405">
		<tag k="name" v="Krukslåa" />
		<tag k="place" v="locality" />
		<tag k="ssr:stedsnr" v="465173" />
	</node>
	<node id="-378308" lat="61.2641388854" lon="10.54691111">
		<tag k="name" v="Lisåsan" />
		<tag k="place" v="locality" />
		<tag k="ssr:stedsnr" v="282297" />
	</node>
	<node id="-378656" lat="61.2872638889" lon="10.4216388841">
		<tag k="name" v="Haugalykkja" />
>>>>>>> e1d4bc35ff8a6074a6f2e91616a996b547c36f15
		<tag k="place" v="locality" />
		<tag k="ssr:stedsnr" v="422904" />
	</node>
<<<<<<< HEAD
	<node lat="61.206597217769385" lon="10.50712222364403" id="-33220">
		<tag k="name" v="Langmyra" />
		<tag k="natural" v="wetland" />
		<tag k="ssr:stedsnr" v="492147" />
	</node>
	<node lat="61.31023610696967" lon="10.699483340460164" id="-33245">
		<tag k="name" v="Krukslåa" />
		<tag k="place" v="locality" />
		<tag k="ssr:stedsnr" v="465173" />
	</node>
	<node lat="61.37828888891119" lon="10.316869448723079" id="-33247">
		<tag k="name" v="Neverlangmyra" />
=======
	<node id="-378648" lat="61.31238611" lon="10.4977611172">
		<tag k="alt_name" v="Grøtåsmyra" />
		<tag k="name" v="Grøtåsmyrane" />
>>>>>>> e1d4bc35ff8a6074a6f2e91616a996b547c36f15
		<tag k="natural" v="wetland" />
		<tag k="ssr:stedsnr" v="466334" />
	</node>
<<<<<<< HEAD
	<node lat="61.206763885244584" lon="10.475727785932055" id="-33249">
		<tag k="name" v="Veslemyra" />
		<tag k="natural" v="wetland" />
		<tag k="ssr:stedsnr" v="466560" />
	</node>
	<node lat="61.44408888925785" lon="10.699375003750747" id="-33273">
		<tag k="historic" v="shieling" />
		<tag k="name" v="Glømmevollen" />
=======
	<node id="-379268" lat="61.2629972189" lon="10.7340777796">
		<tag k="name" v="Blekkmyra" />
		<tag k="natural" v="wetland" />
		<tag k="ssr:stedsnr" v="524736" />
	</node>
	<node id="-379157" lat="61.191555558" lon="10.4132333394">
		<tag k="name" v="Kjøyllbekksvea" />
>>>>>>> e1d4bc35ff8a6074a6f2e91616a996b547c36f15
		<tag k="place" v="locality" />
		<tag k="ssr:stedsnr" v="676350" />
	</node>
<<<<<<< HEAD
	<node lat="61.280958331462244" lon="10.456597228227414" id="-33303">
		<tag k="name" v="Nordjordsmyra" />
=======
	<node id="-378643" lat="61.2639805528" lon="10.3297583358">
		<tag k="name" v="Kneppmyra" />
>>>>>>> e1d4bc35ff8a6074a6f2e91616a996b547c36f15
		<tag k="natural" v="wetland" />
		<tag k="ssr:stedsnr" v="524461" />
	</node>
<<<<<<< HEAD
	<node lat="61.29500555454571" lon="10.488533327133437" id="-33306">
		<tag k="landuse" v="peat_cutting" />
		<tag k="name" v="Torvhusa" />
		<tag k="ssr:stedsnr" v="524660" />
	</node>
	<node lat="61.286752776585516" lon="10.487900002122252" id="-33307">
		<tag k="name" v="Malmyra" />
		<tag k="natural" v="wetland" />
		<tag k="ssr:stedsnr" v="524656" />
	</node>
	<node lat="61.26559444542397" lon="10.483988888683859" id="-33308">
		<tag k="name" v="Furtholoa" />
		<tag k="natural" v="wetland" />
		<tag k="ssr:stedsnr" v="524806" />
	</node>
	<node lat="61.18864722174577" lon="10.422608339935483" id="-33317">
		<tag k="name" v="Svenskerud" />
=======
	<node id="-378642" lat="61.2901361149" lon="10.4541861133">
		<tag k="name" v="Tangen" />
		<tag k="natural" v="beach" />
		<tag k="ssr:stedsnr" v="716531" />
		<tag k="surface" v="sand" />
	</node>
	<node id="-378495" lat="61.3549527794" lon="10.2156138933">
		<tag k="name" v="Hundrelassmyra" />
		<tag k="natural" v="wetland" />
		<tag k="ssr:stedsnr" v="664836" />
	</node>
	<node id="-378635" lat="61.3704916697" lon="10.3402083373">
		<tag k="name" v="Bjørkebrua" />
>>>>>>> e1d4bc35ff8a6074a6f2e91616a996b547c36f15
		<tag k="place" v="locality" />
		<tag k="ssr:stedsnr" v="526525" />
	</node>
<<<<<<< HEAD
	<node lat="61.36566944074623" lon="10.489533332043532" id="-33334">
		<tag k="loc_name" v="Gumpa" />
		<tag k="name" v="Gompa" />
=======
	<node id="-378634" lat="61.3808527766" lon="10.3208888856">
		<tag k="name" v="Lappahushølet" />
>>>>>>> e1d4bc35ff8a6074a6f2e91616a996b547c36f15
		<tag k="natural" v="wetland" />
		<tag k="ssr:stedsnr" v="554331" />
	</node>
<<<<<<< HEAD
	<node lat="61.29890833356899" lon="10.453341664848049" id="-33352">
		<tag k="name" v="Geitbergmyra" />
=======
	<node id="-379143" lat="61.2224029969" lon="10.5278356006">
		<tag k="name" v="Andtjønnsmyra" />
>>>>>>> e1d4bc35ff8a6074a6f2e91616a996b547c36f15
		<tag k="natural" v="wetland" />
		<tag k="ssr:stedsnr" v="584805" />
	</node>
<<<<<<< HEAD
	<node lat="61.293488889140555" lon="10.458633335030838" id="-33366">
		<tag k="name" v="Tangmyra" />
=======
	<node id="-378625" lat="61.3189305595" lon="10.2513527754">
		<tag k="name" v="Stormyra" />
>>>>>>> e1d4bc35ff8a6074a6f2e91616a996b547c36f15
		<tag k="natural" v="wetland" />
		<tag k="ssr:stedsnr" v="595508" />
	</node>
<<<<<<< HEAD
	<node lat="61.3315833327509" lon="10.484736106574786" id="-33368">
		<tag k="name" v="Trollmyra" />
		<tag k="natural" v="wetland" />
		<tag k="ssr:stedsnr" v="603394" />
	</node>
	<node lat="61.31238610997065" lon="10.497761117176063" id="-33383">
		<tag k="alt_name" v="Grøtåsmyra" />
		<tag k="name" v="Grøtåsmyrane" />
		<tag k="natural" v="wetland" />
		<tag k="ssr:stedsnr" v="615244" />
	</node>
	<node lat="61.22944444170273" lon="10.507544452307984" id="-33399">
		<tag k="name" v="Hestmyra" />
		<tag k="natural" v="wetland" />
		<tag k="ssr:stedsnr" v="645311" />
	</node>
	<node lat="61.28726388887604" lon="10.42163888409681" id="-33401">
		<tag k="name" v="Haugalykkja" />
		<tag k="place" v="locality" />
		<tag k="ssr:stedsnr" v="645510" />
	</node>
	<node lat="61.27803055589716" lon="10.493119443288778" id="-33403">
		<tag k="name" v="Grønslålyua" />
=======
	<node id="-379133" lat="61.2194055529" lon="10.5157055476">
		<tag k="name" v="Ilsæterurda" />
		<tag k="natural" v="scree" />
		<tag k="ssr:stedsnr" v="342296" />
	</node>
	<node id="-378619" lat="61.2788666694" lon="10.3941722287">
		<tag k="name" v="Dalsenget" />
		<tag k="place" v="locality" />
		<tag k="ssr:stedsnr" v="708609" />
	</node>
	<node id="-378751" lat="61.260172218" lon="10.5404888901">
		<tag k="name" v="Brennåsmyra" />
		<tag k="natural" v="wetland" />
		<tag k="ssr:stedsnr" v="767316" />
	</node>
	<node id="-378616" lat="61.2091111119" lon="10.4421083256">
		<tag k="name" v="Skogalykkja" />
>>>>>>> e1d4bc35ff8a6074a6f2e91616a996b547c36f15
		<tag k="place" v="locality" />
		<tag k="ssr:stedsnr" v="645680" />
	</node>
<<<<<<< HEAD
	<node lat="61.29631388434029" lon="10.549802786357557" id="-33407">
		<tag k="name" v="Hesjamyra" />
=======
	<node id="-378610" lat="61.3339944446" lon="10.3988249952">
		<tag k="name" v="Raumyra" />
>>>>>>> e1d4bc35ff8a6074a6f2e91616a996b547c36f15
		<tag k="natural" v="wetland" />
		<tag k="ssr:stedsnr" v="706832" />
	</node>
<<<<<<< HEAD
	<node lat="61.2901083347536" lon="10.436361105353292" id="-33423">
		<tag k="name" v="Slåtten" />
		<tag k="place" v="locality" />
		<tag k="ssr:stedsnr" v="707549" />
	</node>
	<node lat="61.319122221015704" lon="10.668841668216334" id="-33426">
=======
	<node id="-378609" lat="61.3276444487" lon="10.4292805516">
		<tag k="name" v="Hølmyra" />
		<tag k="natural" v="wetland" />
		<tag k="ssr:stedsnr" v="708260" />
	</node>
	<node id="-378606" lat="61.319122221" lon="10.6688416682">
>>>>>>> e1d4bc35ff8a6074a6f2e91616a996b547c36f15
		<tag k="name" v="Krokmyra" />
		<tag k="natural" v="wetland" />
		<tag k="ssr:stedsnr" v="708182" />
	</node>
<<<<<<< HEAD
	<node lat="61.29610277640903" lon="10.391986103377215" id="-33431">
		<tag k="name" v="Hjelldekken" />
=======
	<node id="-378602" lat="61.2936083365" lon="10.7696666683">
		<tag k="name" v="Åstdals-slåttan" />
>>>>>>> e1d4bc35ff8a6074a6f2e91616a996b547c36f15
		<tag k="place" v="locality" />
		<tag k="ssr:stedsnr" v="655588" />
	</node>
<<<<<<< HEAD
	<node lat="61.209111111920286" lon="10.442108325561282" id="-33432">
		<tag k="name" v="Skogalykkja" />
		<tag k="place" v="locality" />
		<tag k="ssr:stedsnr" v="708555" />
	</node>
	<node lat="61.19688333439819" lon="10.424077776117706" id="-33434">
		<tag k="name" v="Midtbrenna" />
		<tag k="place" v="locality" />
		<tag k="ssr:stedsnr" v="708574" />
	</node>
	<node lat="61.27886666941945" lon="10.394172228685802" id="-33436">
		<tag k="name" v="Dalsenget" />
=======
	<node id="-378601" lat="61.2901083348" lon="10.4363611054">
		<tag k="name" v="Slåtten" />
		<tag k="place" v="locality" />
		<tag k="ssr:stedsnr" v="707549" />
	</node>
	<node id="-379004" lat="61.1918861093" lon="10.4245027686">
		<tag k="landuse" v="meadow" />
		<tag k="name" v="Bakksvea" />
		<tag k="ssr:stedsnr" v="102627" />
	</node>
	<node id="-379108" lat="61.2941638844" lon="10.4931777825">
		<tag k="name" v="Stormyra" />
		<tag k="natural" v="wetland" />
		<tag k="ssr:stedsnr" v="311322" />
	</node>
	<node id="-379102" lat="61.2893861152" lon="10.2323361086">
		<tag k="name" v="Kampamyra" />
		<tag k="natural" v="wetland" />
		<tag k="ssr:stedsnr" v="300894" />
	</node>
	<node id="-378589" lat="61.272269444" lon="10.4968944439">
		<tag k="name" v="Lisåsan" />
>>>>>>> e1d4bc35ff8a6074a6f2e91616a996b547c36f15
		<tag k="place" v="locality" />
		<tag k="ssr:stedsnr" v="708609" />
	</node>
<<<<<<< HEAD
	<node lat="61.354952779375324" lon="10.215613893273936" id="-33438">
		<tag k="name" v="Hundrelassmyra" />
=======
	<node id="-379099" lat="61.387263885" lon="10.6454583388">
		<tag k="name" v="Skytilmyra" />
>>>>>>> e1d4bc35ff8a6074a6f2e91616a996b547c36f15
		<tag k="natural" v="wetland" />
		<tag k="ssr:stedsnr" v="664836" />
	</node>
<<<<<<< HEAD
	<node lat="61.22000000422744" lon="10.496961113540303" id="-33465">
		<tag k="landuse" v="quarry" />
		<tag k="name" v="Bjørgegruva" />
		<tag k="ssr:stedsnr" v="706307" />
	</node>
	<node lat="61.226500001644816" lon="10.488833329450747" id="-33466">
=======
	<node id="-378580" lat="61.2265000016" lon="10.4888333295">
>>>>>>> e1d4bc35ff8a6074a6f2e91616a996b547c36f15
		<tag k="historic" v="shieling" />
		<tag k="name" v="Solbergsætra" />
		<tag k="place" v="locality" />
		<tag k="ssr:stedsnr" v="706315" />
	</node>
<<<<<<< HEAD
	<node lat="61.27226944400498" lon="10.496894443922614" id="-33471">
		<tag k="name" v="Lisåsan" />
		<tag k="place" v="locality" />
		<tag k="ssr:stedsnr" v="706815" />
	</node>
	<node lat="61.2936083364887" lon="10.769666668293663" id="-33474">
		<tag k="name" v="Åstdals-slåttan" />
		<tag k="place" v="locality" />
		<tag k="ssr:stedsnr" v="707765" />
	</node>
	<node lat="61.32764444872276" lon="10.429280551566968" id="-33475">
		<tag k="name" v="Hølmyra" />
=======
	<node id="-378579" lat="61.2200000042" lon="10.4969611135">
		<tag k="landuse" v="quarry" />
		<tag k="name" v="Bjørgegruva" />
		<tag k="ssr:stedsnr" v="706307" />
	</node>
	<node id="-378563" lat="61.2655944454" lon="10.4839888887">
		<tag k="name" v="Furtholoa" />
		<tag k="natural" v="wetland" />
		<tag k="ssr:stedsnr" v="524806" />
	</node>
	<node id="-379585" lat="61.2809249963" lon="10.464805556">
		<tag k="name" v="Rundslåtten" />
		<tag k="place" v="locality" />
		<tag k="ssr:stedsnr" v="959501" />
	</node>
	<node id="-379072" lat="61.2047083362" lon="10.4862777735">
		<tag k="name" v="Stormyra" />
		<tag k="natural" v="wetland" />
		<tag k="ssr:stedsnr" v="189906" />
	</node>
	<node id="-379578" lat="61.3758666644" lon="10.3422916669">
		<tag k="name" v="Langkloppmyra" />
		<tag k="natural" v="wetland" />
		<tag k="ssr:stedsnr" v="951296" />
	</node>
	<node id="-379063" lat="61.3555722189" lon="10.2226527741">
		<tag k="name" v="Torsteinsmyra" />
>>>>>>> e1d4bc35ff8a6074a6f2e91616a996b547c36f15
		<tag k="natural" v="wetland" />
		<tag k="ssr:stedsnr" v="708260" />
	</node>
<<<<<<< HEAD
	<node lat="61.33399444462345" lon="10.398824995175698" id="-33476">
		<tag k="name" v="Raumyra" />
		<tag k="natural" v="wetland" />
		<tag k="ssr:stedsnr" v="708266" />
	</node>
	<node lat="61.31893055946229" lon="10.251352775434915" id="-33483">
		<tag k="name" v="Stormyra" />
=======
	<node id="-379061" lat="61.3489888851" lon="10.5815388864">
		<tag k="name" v="Slåsbergmyra" />
		<tag k="natural" v="wetland" />
		<tag k="ssr:stedsnr" v="179421" />
	</node>
	<node id="-379060" lat="61.2936083331" lon="10.3751333348">
		<tag k="name" v="Hesthågån" />
		<tag k="place" v="locality" />
		<tag k="ssr:stedsnr" v="170590" />
	</node>
	<node id="-378539" lat="61.4440888893" lon="10.6993750038">
		<tag k="historic" v="shieling" />
		<tag k="name" v="Glømmevollen" />
		<tag k="place" v="locality" />
		<tag k="ssr:stedsnr" v="676350" />
	</node>
	<node id="-379562" lat="61.3314055529" lon="10.2224000007">
		<tag k="name" v="Kringletjønnmyra" />
>>>>>>> e1d4bc35ff8a6074a6f2e91616a996b547c36f15
		<tag k="natural" v="wetland" />
		<tag k="ssr:stedsnr" v="708930" />
	</node>
<<<<<<< HEAD
	<node lat="61.295322224057884" lon="10.379688884972381" id="-33485">
		<tag k="name" v="Hesthågåmyra" />
=======
	<node id="-379045" lat="61.1966944485" lon="10.4972888809">
		<tag k="name" v="Nedre Lemyra" />
>>>>>>> e1d4bc35ff8a6074a6f2e91616a996b547c36f15
		<tag k="natural" v="wetland" />
		<tag k="ssr:stedsnr" v="716604" />
	</node>
<<<<<<< HEAD
	<node lat="61.2901361148879" lon="10.45418611329199" id="-33486">
		<tag k="name" v="Tangen" />
		<tag k="natural" v="beach" />
		<tag k="ssr:stedsnr" v="716531" />
		<tag k="surface" v="sand" />
	</node>
	<node lat="61.26017221804642" lon="10.540488890066912" id="-33512">
		<tag k="name" v="Brennåsmyra" />
=======
	<node id="-379555" lat="61.2449222223" lon="10.7044472134">
		<tag k="name" v="Venåsbekkene" />
		<tag k="natural" v="wetland" />
		<tag k="ssr:stedsnr" v="857147" />
	</node>
	<node id="-379333" lat="61.221458331" lon="10.5950222169">
		<tag k="name" v="Kjellsmyrene" />
>>>>>>> e1d4bc35ff8a6074a6f2e91616a996b547c36f15
		<tag k="natural" v="wetland" />
		<tag k="ssr:stedsnr" v="585286" />
	</node>
<<<<<<< HEAD
	<node lat="61.29535277727564" lon="10.232700004834461" id="-33527">
		<tag k="name" v="Hongsinnlegginga" />
=======
	<node id="-379546" lat="61.3071749977" lon="10.2861555556">
		<tag k="name" v="Vassrudmoen" />
>>>>>>> e1d4bc35ff8a6074a6f2e91616a996b547c36f15
		<tag k="place" v="locality" />
		<tag k="ssr:stedsnr" v="907869" />
	</node>
<<<<<<< HEAD
	<node lat="61.358149998497915" lon="10.558022218725961" id="-33530">
		<tag k="name" v="Djupsmyra" />
		<tag k="natural" v="wetland" />
		<tag k="ssr:stedsnr" v="786456" />
	</node>
	<node lat="61.355649999198796" lon="10.238869436378634" id="-33531">
		<tag k="name" v="Innleggen" />
		<tag k="place" v="locality" />
		<tag k="ssr:stedsnr" v="786816" />
	</node>
	<node lat="61.32769166723126" lon="10.208952784835045" id="-33532">
		<tag k="name" v="Langmyra" />
		<tag k="natural" v="wetland" />
		<tag k="ssr:stedsnr" v="786848" />
	</node>
	<node lat="61.36659999642842" lon="10.433825007857731" id="-33535">
		<tag k="name" v="Saumyra" />
		<tag k="natural" v="wetland" />
		<tag k="ssr:stedsnr" v="797300" />
	</node>
	<node lat="61.279555554158364" lon="10.428997227372463" id="-33568">
		<tag k="name" v="Rønningen" />
=======
	<node id="-379544" lat="61.2921111129" lon="10.4692472262">
		<tag k="name" v="Millersmyra" />
		<tag k="natural" v="wetland" />
		<tag k="ssr:stedsnr" v="838560" />
	</node>
	<node id="-378820" lat="61.3325388929" lon="10.4318027712">
		<tag k="name" v="Storstein" />
		<tag k="natural" v="stone" />
		<tag k="ssr:stedsnr" v="944738" />
	</node>
	<node id="-379532" lat="61.364655557" lon="10.3330194518">
		<tag k="name" v="Vollen" />
		<tag k="place" v="locality" />
		<tag k="ssr:stedsnr" v="830293" />
	</node>
	<node id="-378507" lat="61.2067638852" lon="10.4757277859">
		<tag k="name" v="Veslemyra" />
		<tag k="natural" v="wetland" />
		<tag k="ssr:stedsnr" v="466560" />
	</node>
	<node id="-378505" lat="61.2636944441" lon="10.646508332">
		<tag k="name" v="Langmyra" />
		<tag k="natural" v="wetland" />
		<tag k="ssr:stedsnr" v="466511" />
	</node>
	<node id="-379014" lat="61.4081111121" lon="10.5246194472">
		<tag k="name" v="Torvmyra" />
		<tag k="natural" v="wetland" />
		<tag k="ssr:stedsnr" v="118962" />
	</node>
	<node id="-379525" lat="61.3039750031" lon="10.3852027843">
		<tag k="name" v="Kloppmyra" />
		<tag k="natural" v="wetland" />
		<tag k="ssr:stedsnr" v="828752" />
	</node>
	<node id="-379011" lat="61.3546416671" lon="10.5435805485">
		<tag k="name" v="Storstein" />
		<tag k="natural" v="stone" />
		<tag k="ssr:stedsnr" v="118390" />
	</node>
	<node id="-379519" lat="61.2529083316" lon="10.4929361111">
		<tag k="name" v="Vesleslåa" />
		<tag k="place" v="locality" />
		<tag k="ssr:stedsnr" v="828633" />
	</node>
	<node id="-379006" lat="61.3286000011" lon="10.2639027784">
		<tag k="name" v="Skålan" />
		<tag k="place" v="locality" />
		<tag k="ssr:stedsnr" v="102898" />
	</node>
	<node id="-379516" lat="61.2521083352" lon="10.5093555594">
		<tag k="name" v="Slæen" />
>>>>>>> e1d4bc35ff8a6074a6f2e91616a996b547c36f15
		<tag k="place" v="locality" />
		<tag k="ssr:stedsnr" v="828507" />
	</node>
<<<<<<< HEAD
	<node lat="61.364655557041964" lon="10.33301945176124" id="-33576">
		<tag k="name" v="Vollen" />
=======
	<node id="-378490" lat="61.2988361151" lon="10.2318305549">
		<tag k="name" v="Gonstadlykkja" />
>>>>>>> e1d4bc35ff8a6074a6f2e91616a996b547c36f15
		<tag k="place" v="locality" />
		<tag k="ssr:stedsnr" v="830293" />
	</node>
<<<<<<< HEAD
	<node lat="61.37249444213479" lon="10.480444448359039" id="-33608">
		<tag k="landuse" v="meadow" />
		<tag k="name" v="Glømmeslæen" />
		<tag k="ssr:stedsnr" v="888269" />
	</node>
	<node lat="61.33458889285946" lon="10.22082500897218" id="-33618">
		<tag k="name" v="Åsan" />
=======
	<node id="-378999" lat="61.2580166684" lon="10.4440694421">
		<tag k="name" v="Skei" />
		<tag k="place" v="locality" />
		<tag k="ssr:stedsnr" v="102270" />
	</node>
	<node id="-378485" lat="61.3167361128" lon="10.705308325">
		<tag k="name" v="Svartdalsslåttan" />
>>>>>>> e1d4bc35ff8a6074a6f2e91616a996b547c36f15
		<tag k="place" v="locality" />
		<tag k="ssr:stedsnr" v="907819" />
	</node>
<<<<<<< HEAD
	<node lat="61.288316670117844" lon="10.544127782233089" id="-33624">
		<tag k="name" v="Bottrudmyra" />
=======
	<node id="-378484" lat="61.3134138866" lon="10.6824361131">
		<tag k="name" v="Styggmyra" />
>>>>>>> e1d4bc35ff8a6074a6f2e91616a996b547c36f15
		<tag k="natural" v="wetland" />
		<tag k="ssr:stedsnr" v="918305" />
	</node>
<<<<<<< HEAD
	<node lat="61.21895832933641" lon="10.498494442837654" id="-33636">
		<tag k="landuse" v="quarry" />
		<tag k="name" v="Sandstulgruva" />
		<tag k="ssr:stedsnr" v="949292" />
	</node>
	<node lat="61.375866664376005" lon="10.342291666854537" id="-33649">
		<tag k="name" v="Langkloppmyra" />
		<tag k="natural" v="wetland" />
		<tag k="ssr:stedsnr" v="951296" />
	</node>
	<node lat="61.21997222631632" lon="10.488041668872455" id="-33726">
=======
	<node id="-379507" lat="61.3694111094" lon="10.4914694378">
		<tag k="landuse" v="meadow" />
		<tag k="name" v="Børkjeslæen" />
		<tag k="ssr:stedsnr" v="828302" />
	</node>
	<node id="-378984" lat="61.2199722263" lon="10.4880416689">
>>>>>>> e1d4bc35ff8a6074a6f2e91616a996b547c36f15
		<tag k="historic" v="shieling" />
		<tag k="name" v="Bjørgesætra" />
		<tag k="place" v="locality" />
		<tag k="ssr:stedsnr" v="100291" />
	</node>
<<<<<<< HEAD
	<node lat="61.25801666844571" lon="10.444069442126226" id="-33737">
		<tag k="name" v="Skei" />
		<tag k="place" v="locality" />
		<tag k="ssr:stedsnr" v="102270" />
	</node>
	<node lat="61.32860000108667" lon="10.263902778390703" id="-33742">
		<tag k="name" v="Skålan" />
=======
	<node id="-379494" lat="61.2850111144" lon="10.7505583346">
		<tag k="alt_name" v="Farbergsætervangen" />
		<tag k="historic" v="shieling" />
		<tag k="name" v="Farbergvangen" />
		<tag k="place" v="locality" />
		<tag k="ssr:stedsnr" v="797378" />
	</node>
	<node id="-379492" lat="61.3665999964" lon="10.4338250079">
		<tag k="name" v="Saumyra" />
		<tag k="natural" v="wetland" />
		<tag k="ssr:stedsnr" v="797300" />
	</node>
	<node id="-378975" lat="61.3678361092" lon="10.2258611199">
		<tag k="name" v="Hesjamyra" />
		<tag k="natural" v="wetland" />
		<tag k="ssr:stedsnr" v="84838" />
	</node>
	<node id="-379474" lat="61.3581499985" lon="10.5580222187">
		<tag k="name" v="Djupsmyra" />
		<tag k="natural" v="wetland" />
		<tag k="ssr:stedsnr" v="786456" />
	</node>
	<node id="-378617" lat="61.1968833344" lon="10.4240777761">
		<tag k="name" v="Midtbrenna" />
		<tag k="place" v="locality" />
		<tag k="ssr:stedsnr" v="708574" />
	</node>
	<node id="-379469" lat="61.2372611122" lon="10.4536833288">
		<tag k="name" v="Midtjordet" />
		<tag k="place" v="locality" />
		<tag k="ssr:stedsnr" v="769797" />
	</node>
	<node id="-379464" lat="61.3291277789" lon="10.4510972246">
		<tag k="name" v="Skåetjønnmyra" />
		<tag k="natural" v="wetland" />
		<tag k="ssr:stedsnr" v="769251" />
	</node>
	<node id="-379457" lat="61.2690361078" lon="10.5473027715">
		<tag k="name" v="Steinmyra" />
		<tag k="natural" v="wetland" />
		<tag k="ssr:stedsnr" v="767627" />
	</node>
	<node id="-378378" lat="61.3020833303" lon="10.5572388961">
		<tag k="name" v="Tråppbergmyra" />
		<tag k="natural" v="wetland" />
		<tag k="ssr:stedsnr" v="463533" />
	</node>
	<node id="-379446" lat="61.2827805519" lon="10.4278916595">
		<tag k="name" v="Bergelykkja" />
>>>>>>> e1d4bc35ff8a6074a6f2e91616a996b547c36f15
		<tag k="place" v="locality" />
		<tag k="ssr:stedsnr" v="102898" />
	</node>
<<<<<<< HEAD
	<node lat="61.35464166705393" lon="10.543580548524329" id="-33746">
		<tag k="name" v="Storstein" />
		<tag k="natural" v="stone" />
		<tag k="ssr:stedsnr" v="118390" />
	</node>
	<node lat="61.40811111207907" lon="10.524619447166126" id="-33749">
		<tag k="name" v="Torvmyra" />
=======
	<node id="-378926" lat="61.2113777766" lon="10.4510166704">
		<tag k="name" v="Kråkroa" />
		<tag k="place" v="locality" />
		<tag k="ssr:stedsnr" v="40617" />
	</node>
	<node id="-378413" lat="61.2065972178" lon="10.5071222236">
		<tag k="name" v="Langmyra" />
>>>>>>> e1d4bc35ff8a6074a6f2e91616a996b547c36f15
		<tag k="natural" v="wetland" />
		<tag k="ssr:stedsnr" v="118962" />
	</node>
<<<<<<< HEAD
	<node lat="61.19669444853042" lon="10.497288880858386" id="-33774">
		<tag k="name" v="Nedre Lemyra" />
=======
	<node id="-378407" lat="61.3686805557" lon="10.3309444427">
		<tag k="name" v="Raumyra" />
>>>>>>> e1d4bc35ff8a6074a6f2e91616a996b547c36f15
		<tag k="natural" v="wetland" />
		<tag k="ssr:stedsnr" v="160296" />
	</node>
<<<<<<< HEAD
	<node lat="61.30075277913309" lon="10.37266666364005" id="-33783">
		<tag k="name" v="Akselmyra" />
=======
	<node id="-378406" lat="61.3525972186" lon="10.4695555551">
		<tag k="name" v="Høgmyra" />
>>>>>>> e1d4bc35ff8a6074a6f2e91616a996b547c36f15
		<tag k="natural" v="wetland" />
		<tag k="ssr:stedsnr" v="160756" />
	</node>
<<<<<<< HEAD
	<node lat="61.30812222491667" lon="10.37461110815041" id="-33784">
		<tag k="name" v="Torvmyra" />
		<tag k="natural" v="wetland" />
		<tag k="ssr:stedsnr" v="160761" />
	</node>
	<node lat="61.29360833308165" lon="10.375133334757649" id="-33797">
		<tag k="name" v="Hesthågån" />
		<tag k="place" v="locality" />
		<tag k="ssr:stedsnr" v="170590" />
	</node>
	<node lat="61.204708336183074" lon="10.48627777354824" id="-33802">
		<tag k="name" v="Stormyra" />
=======
	<node id="-378405" lat="61.3259972241" lon="10.4046916706">
		<tag k="name" v="Torvmyra" />
		<tag k="natural" v="wetland" />
		<tag k="ssr:stedsnr" v="344272" />
	</node>
	<node id="-379420" lat="61.2961027764" lon="10.3919861034">
		<tag k="name" v="Hjelldekken" />
		<tag k="place" v="locality" />
		<tag k="ssr:stedsnr" v="655588" />
	</node>
	<node id="-378395" lat="61.2326416704" lon="10.4558527835">
		<tag k="name" v="Joenget" />
		<tag k="place" v="locality" />
		<tag k="ssr:stedsnr" v="466822" />
	</node>
	<node id="-378392" lat="61.3782888889" lon="10.3168694487">
		<tag k="name" v="Neverlangmyra" />
		<tag k="natural" v="wetland" />
		<tag k="ssr:stedsnr" v="466334" />
	</node>
	<node id="-379032" lat="61.2632861103" lon="10.5150388974">
		<tag k="alt_name" v="Raumyra" />
		<tag k="name" v="Raudmyra" />
		<tag k="natural" v="wetland" />
		<tag k="ssr:stedsnr" v="129478" />
	</node>
	<node id="-378382" lat="61.39423056" lon="10.5236805494">
		<tag k="name" v="Raubergmyra" />
>>>>>>> e1d4bc35ff8a6074a6f2e91616a996b547c36f15
		<tag k="natural" v="wetland" />
		<tag k="ssr:stedsnr" v="189906" />
	</node>
<<<<<<< HEAD
	<node lat="61.387263885044675" lon="10.645458338821939" id="-33819">
		<tag k="name" v="Skytilmyra" />
=======
	<node id="-379402" lat="61.2294444417" lon="10.5075444523">
		<tag k="name" v="Hestmyra" />
>>>>>>> e1d4bc35ff8a6074a6f2e91616a996b547c36f15
		<tag k="natural" v="wetland" />
		<tag k="ssr:stedsnr" v="216635" />
	</node>
<<<<<<< HEAD
	<node lat="61.216413889381656" lon="10.446836110342023" id="-33832">
		<tag k="name" v="Nerjordet" />
		<tag k="place" v="locality" />
		<tag k="ssr:stedsnr" v="223647" />
	</node>
	<node lat="61.25763610707968" lon="10.433313890374114" id="-33834">
		<tag k="landuse" v="quarry" />
		<tag k="name" v="Haugsgruva" />
		<tag k="ssr:stedsnr" v="223211" />
	</node>
	<node lat="61.25413611443562" lon="10.654061120485816" id="-33838">
		<tag k="name" v="Austmyra" />
=======
	<node id="-379399" lat="61.2139499973" lon="10.5032111127">
		<tag k="name" v="Torvmyra" />
>>>>>>> e1d4bc35ff8a6074a6f2e91616a996b547c36f15
		<tag k="natural" v="wetland" />
		<tag k="ssr:stedsnr" v="223516" />
	</node>
<<<<<<< HEAD
	<node lat="61.20843055275343" lon="10.462722213161197" id="-33841">
		<tag k="name" v="Nystugua" />
		<tag k="place" v="locality" />
		<tag k="ssr:stedsnr" v="223570" />
	</node>
	<node lat="61.353111108109175" lon="10.333650003001893" id="-33856">
		<tag k="name" v="Brånåmyra" />
		<tag k="natural" v="wetland" />
		<tag k="ssr:stedsnr" v="282856" />
	</node>
	<node lat="61.31200277852515" lon="10.4480083392954" id="-33858">
		<tag k="name" v="Torvmyra" />
		<tag k="natural" v="wetland" />
		<tag k="ssr:stedsnr" v="282763" />
	</node>
	<node lat="61.33749999625701" lon="10.680680556962447" id="-33861">
		<tag k="name" v="Veiddhavna" />
		<tag k="place" v="locality" />
		<tag k="ssr:stedsnr" v="284171" />
	</node>
	<node lat="61.2893861151762" lon="10.232336108587614" id="-33871">
		<tag k="name" v="Kampamyra" />
		<tag k="natural" v="wetland" />
		<tag k="ssr:stedsnr" v="300894" />
	</node>
	<node lat="61.325997224105805" lon="10.404691670587386" id="-33897">
		<tag k="name" v="Torvmyra" />
		<tag k="natural" v="wetland" />
		<tag k="ssr:stedsnr" v="344272" />
	</node>
	<node lat="61.352597218551104" lon="10.469555555089935" id="-33898">
		<tag k="name" v="Høgmyra" />
		<tag k="natural" v="wetland" />
		<tag k="ssr:stedsnr" v="344274" />
	</node>
	<node lat="61.19155555798331" lon="10.4132333394232" id="-33901">
		<tag k="name" v="Kjøyllbekksvea" />
		<tag k="place" v="locality" />
		<tag k="ssr:stedsnr" v="344642" />
	</node>
	<node lat="61.392969442449626" lon="10.463608330504984" id="-33948">
		<tag k="name" v="Jutulsteinen" />
		<tag k="natural" v="stone" />
		<tag k="ssr:stedsnr" v="403542" />
	</node>
	<node lat="61.35219722226712" lon="10.382041668439905" id="-33950">
		<tag k="name" v="Stormyra" />
		<tag k="natural" v="wetland" />
		<tag k="ssr:stedsnr" v="403634" />
	</node>
	<node lat="61.303541664354185" lon="10.484063893192651" id="-33980">
		<tag k="name" v="Kloppmyra" />
		<tag k="natural" v="wetland" />
		<tag k="ssr:stedsnr" v="433271" />
	</node>
	<node lat="61.36649444343251" lon="10.259238892716958" id="-33997">
		<tag k="name" v="Kapelrudmoen" />
		<tag k="place" v="locality" />
		<tag k="ssr:stedsnr" v="524260" />
	</node>
	<node lat="61.36155833444166" lon="10.49608889545422" id="-33998">
		<tag k="landuse" v="meadow" />
		<tag k="name" v="Lånkeslåttan" />
		<tag k="ssr:stedsnr" v="524276" />
	</node>
	<node lat="61.262997218888714" lon="10.73407777957182" id="-34013">
		<tag k="name" v="Blekkmyra" />
		<tag k="natural" v="wetland" />
		<tag k="ssr:stedsnr" v="524736" />
	</node>
	<node lat="61.245091665602324" lon="10.72431388348063" id="-34015">
		<tag k="name" v="Holman" />
		<tag k="place" v="locality" />
		<tag k="ssr:stedsnr" v="524741" />
	</node>
	<node lat="61.37277222210529" lon="10.316355560924832" id="-34020">
		<tag k="name" v="Korsbekkmyra" />
		<tag k="natural" v="wetland" />
		<tag k="ssr:stedsnr" v="526300" />
	</node>
	<node lat="61.35005833722263" lon="10.450102784689333" id="-34024">
		<tag k="name" v="Gravåskjørkja" />
		<tag k="natural" v="stone" />
		<tag k="ssr:stedsnr" v="526256" />
	</node>
	<node lat="61.22298888919237" lon="10.516583340696902" id="-34047">
		<tag k="name" v="Lunnstadmyra" />
		<tag k="natural" v="wetland" />
		<tag k="ssr:stedsnr" v="585285" />
	</node>
	<node lat="61.2214583310227" lon="10.59502221690511" id="-34048">
		<tag k="name" v="Kjellsmyrene" />
		<tag k="natural" v="wetland" />
		<tag k="ssr:stedsnr" v="585286" />
	</node>
	<node lat="61.3198805542911" lon="10.68730278058114" id="-34051">
		<tag k="name" v="Langmyra" />
		<tag k="natural" v="wetland" />
		<tag k="ssr:stedsnr" v="586158" />
	</node>
	<node lat="61.380852776639685" lon="10.320888885572517" id="-34057">
		<tag k="name" v="Lappahushølet" />
		<tag k="natural" v="wetland" />
		<tag k="ssr:stedsnr" v="587334" />
	</node>
	<node lat="61.37049166967016" lon="10.340208337309525" id="-34058">
		<tag k="name" v="Bjørkebrua" />
		<tag k="place" v="locality" />
		<tag k="ssr:stedsnr" v="587341" />
	</node>
	<node lat="61.28932500360011" lon="10.255455546520489" id="-34059">
		<tag k="landuse" v="quarry" />
		<tag k="name" v="Holoberget" />
		<tag k="ssr:stedsnr" v="587429" />
	</node>
	<node lat="61.20272500420269" lon="10.423597221979572" id="-34063">
		<tag k="landuse" v="landfill" />
		<tag k="name" v="Tverrslaget" />
		<tag k="ssr:stedsnr" v="587596" />
	</node>
	<node lat="61.26398055278747" lon="10.329758335839164" id="-34067">
		<tag k="name" v="Kneppmyra" />
		<tag k="natural" v="wetland" />
		<tag k="ssr:stedsnr" v="600034" />
	</node>
	<node lat="61.31135277836639" lon="10.26184443874956" id="-34070">
		<tag k="name" v="Brånån" />
		<tag k="place" v="locality" />
		<tag k="ssr:stedsnr" v="603516" />
	</node>
	<node lat="61.21394999725473" lon="10.503211112672938" id="-34095">
		<tag k="name" v="Torvmyra" />
		<tag k="natural" v="wetland" />
		<tag k="ssr:stedsnr" v="645299" />
	</node>
	<node lat="61.282780551881" lon="10.427891659473575" id="-34161">
		<tag k="name" v="Bergelykkja" />
		<tag k="place" v="locality" />
		<tag k="ssr:stedsnr" v="767522" />
	</node>
	<node lat="61.26903610784649" lon="10.547302771490074" id="-34164">
		<tag k="name" v="Steinmyra" />
		<tag k="natural" v="wetland" />
		<tag k="ssr:stedsnr" v="767627" />
	</node>
	<node lat="61.35085000348308" lon="10.334227783337502" id="-34167">
		<tag k="name" v="Karihaugmyra" />
		<tag k="natural" v="wetland" />
		<tag k="ssr:stedsnr" v="767875" />
	</node>
	<node lat="61.32912777885291" lon="10.451097224575646" id="-34171">
		<tag k="name" v="Skåetjønnmyra" />
		<tag k="natural" v="wetland" />
		<tag k="ssr:stedsnr" v="769251" />
	</node>
	<node lat="61.320322218261055" lon="10.374941673478418" id="-34172">
		<tag k="name" v="Steinkloppmyra" />
		<tag k="natural" v="wetland" />
		<tag k="ssr:stedsnr" v="769261" />
	</node>
	<node lat="61.23726111217211" lon="10.45368332882887" id="-34177">
		<tag k="name" v="Midtjordet" />
		<tag k="place" v="locality" />
		<tag k="ssr:stedsnr" v="769797" />
	</node>
	<node lat="61.28501111437277" lon="10.750558334571538" id="-34195">
		<tag k="alt_name" v="Farbergsætervangen" />
		<tag k="historic" v="shieling" />
		<tag k="name" v="Farbergvangen" />
		<tag k="place" v="locality" />
		<tag k="ssr:stedsnr" v="797378" />
	</node>
	<node lat="61.36941110944361" lon="10.491469437786703" id="-34216">
		<tag k="landuse" v="meadow" />
		<tag k="name" v="Børkjeslæen" />
		<tag k="ssr:stedsnr" v="828302" />
	</node>
	<node lat="61.25290833163752" lon="10.492936111104246" id="-34218">
		<tag k="name" v="Vesleslåa" />
		<tag k="place" v="locality" />
		<tag k="ssr:stedsnr" v="828633" />
	</node>
	<node lat="61.25210833520273" lon="10.509355559401145" id="-34223">
		<tag k="name" v="Slæen" />
		<tag k="place" v="locality" />
		<tag k="ssr:stedsnr" v="828593" />
	</node>
	<node lat="61.30397500313545" lon="10.38520278430284" id="-34225">
		<tag k="name" v="Kloppmyra" />
		<tag k="natural" v="wetland" />
		<tag k="ssr:stedsnr" v="828752" />
	</node>
	<node lat="61.29211111293407" lon="10.469247226169513" id="-34239">
		<tag k="name" v="Millersmyra" />
		<tag k="natural" v="wetland" />
		<tag k="ssr:stedsnr" v="838560" />
	</node>
	<node lat="61.30717499767175" lon="10.286155555634673" id="-34240">
		<tag k="name" v="Vassrudmoen" />
		<tag k="place" v="locality" />
		<tag k="ssr:stedsnr" v="847535" />
	</node>
	<node lat="61.24492222234206" lon="10.704447213394108" id="-34248">
		<tag k="name" v="Venåsbekkene" />
		<tag k="natural" v="wetland" />
		<tag k="ssr:stedsnr" v="857147" />
	</node>
	<node lat="61.33140555293232" lon="10.222400000713508" id="-34254">
		<tag k="name" v="Kringletjønnmyra" />
		<tag k="natural" v="wetland" />
		<tag k="ssr:stedsnr" v="857952" />
	</node>
	<node lat="61.30226111390621" lon="10.795322222225138" id="-34269">
		<tag k="name" v="Stormyra" />
		<tag k="natural" v="wetland" />
		<tag k="ssr:stedsnr" v="884680" />
	</node>
	<node lat="61.28285833479251" lon="10.509544438416976" id="-34274">
		<tag k="name" v="Svartåsmyra" />
		<tag k="natural" v="wetland" />
		<tag k="ssr:stedsnr" v="888672" />
	</node>
	<node lat="61.382894440863545" lon="10.345333339971978" id="-34281">
		<tag k="name" v="Slettmyra" />
		<tag k="place" v="locality" />
		<tag k="ssr:stedsnr" v="889286" />
	</node>
	<node lat="61.31557777913454" lon="10.353869445011442" id="-34287">
		<tag k="name" v="Jenthaugmyra" />
		<tag k="natural" v="wetland" />
		<tag k="ssr:stedsnr" v="889414" />
	</node>
	<node lat="61.33253889288158" lon="10.431802771188513" id="-34290">
		<tag k="name" v="Storstein" />
		<tag k="natural" v="stone" />
		<tag k="ssr:stedsnr" v="944738" />
	</node>
	<node lat="61.37537221886521" lon="10.5603027838394" id="-34292">
		<tag k="landuse" v="meadow" />
		<tag k="name" v="Gillebuslæen" />
		<tag k="ssr:stedsnr" v="949262" />
	</node>
	<node lat="61.35525555671903" lon="10.46386389332184" id="-34301">
		<tag k="name" v="Bakkomslåtten" />
		<tag k="place" v="locality" />
		<tag k="ssr:stedsnr" v="949623" />
	</node>
	<node lat="61.36886111016309" lon="10.445958342046154" id="-34304">
		<tag k="name" v="Svarthaugmyra" />
		<tag k="natural" v="wetland" />
		<tag k="ssr:stedsnr" v="951065" />
	</node>
	<node lat="61.28092499629356" lon="10.464805555976612" id="-34314">
		<tag k="name" v="Rundslåtten" />
		<tag k="place" v="locality" />
		<tag k="ssr:stedsnr" v="959501" />
	</node>
=======
>>>>>>> e1d4bc35ff8a6074a6f2e91616a996b547c36f15
</osm>
