<?xml version="1.0" encoding="UTF-8"?>
<osm generator="osmapis" version="0.6">
	<node id="-376832" lat="61.3281472247" lon="10.506661118">
		<tag k="name" v="Storsletta" />
		<tag k="place" v="locality" />
		<tag k="ssr:stedsnr" v="300429" />
	</node>
	<node id="-376830" lat="61.1962083364" lon="10.4428944471">
		<tag k="name" v="Ormsteinshaugen" />
		<tag k="natural" v="hill" />
		<tag k="place" v="locality" />
		<tag k="ssr:stedsnr" v="466593" />
	</node>
	<node id="-376828" lat="61.1992444484" lon="10.4249472264">
		<tag k="name" v="Veslebekksvea" />
		<tag k="place" v="locality" />
		<tag k="ssr:stedsnr" v="466585" />
	</node>
	<node id="-376823" lat="61.3771444415" lon="10.4207027723">
		<tag k="name" v="Søkkelia" />
		<tag k="natural" v="slope" />
		<tag k="place" v="locality" />
		<tag k="ssr:stedsnr" v="466073" />
	</node>
	<node id="-377899" lat="61.2066333376" lon="10.4629527767">
		<tag k="name" v="Gjerdet" />
		<tag k="place" v="locality" />
		<tag k="ssr:stedsnr" v="769555" />
	</node>
	<node id="-376819" lat="61.34400278" lon="10.3493944423">
		<tag k="name" v="Blesterhaugen" />
		<tag k="natural" v="hill" />
		<tag k="place" v="locality" />
		<tag k="ssr:stedsnr" v="464846" />
	</node>
	<node id="-376818" lat="61.3230805546" lon="10.3102916627">
		<tag k="name" v="Tutruddalen" />
		<tag k="natural" v="valley" />
		<tag k="place" v="locality" />
		<tag k="ssr:stedsnr" v="464335" />
	</node>
	<node id="-377841" lat="61.3984611082" lon="10.5316777783">
		<tag k="name" v="Svartberget" />
		<tag k="natural" v="hill" />
		<tag k="place" v="locality" />
		<tag k="ssr:stedsnr" v="645972" />
	</node>
	<node id="-377840" lat="61.238655557" lon="10.4988000074">
		<tag k="name" v="Vabakken" />
		<tag k="natural" v="slope" />
		<tag k="place" v="locality" />
		<tag k="ssr:stedsnr" v="645652" />
	</node>
	<node id="-377839" lat="61.2509472195" lon="10.4817888852">
		<tag k="name" v="Veslelyudokka" />
		<tag k="natural" v="valley" />
		<tag k="place" v="locality" />
		<tag k="ssr:stedsnr" v="645645" />
	</node>
	<node id="-377943" lat="61.3925666647" lon="10.5945833371">
		<tag k="name" v="Strangstadfjellet" />
		<tag k="natural" v="hill" />
		<tag k="place" v="locality" />
		<tag k="ssr:stedsnr" v="828334" />
	</node>
	<node id="-376811" lat="61.2651861084" lon="10.4926416654">
		<tag k="name" v="Høghaugen" />
		<tag k="natural" v="hill" />
		<tag k="place" v="locality" />
		<tag k="ssr:stedsnr" v="463825" />
	</node>
	<node id="-377058" lat="61.2547333334" lon="10.7566277686">
		<tag k="fixme" v="consider natural=peak for the most distinct mountains in the district" />
		<tag k="name" v="Hynnåsen" />
		<tag k="natural" v="hill" />
		<tag k="place" v="locality" />
		<tag k="ssr:stedsnr" v="580703" />
	</node>
	<node id="-376805" lat="61.3898499971" lon="10.3673611147">
		<tag k="name" v="Roperen" />
		<tag k="natural" v="hill" />
		<tag k="place" v="locality" />
		<tag k="ssr:stedsnr" v="459639" />
	</node>
	<node id="-377828" lat="61.3517138929" lon="10.2402638815">
		<tag k="name" v="Svartberget" />
		<tag k="natural" v="cliff" />
		<tag k="ssr:stedsnr" v="645215" />
	</node>
	<node id="-376803" lat="61.3163333365" lon="10.5446833346">
		<tag k="fixme" v="consider natural=peak for the most distinct mountains in the district" />
		<tag k="name" v="Kjerringknappen" />
		<tag k="natural" v="hill" />
		<tag k="place" v="locality" />
		<tag k="ssr:stedsnr" v="251322" />
	</node>
	<node id="-376802" lat="61.300705552" lon="10.7055388901">
		<tag k="name" v="Gardfesthaugen" />
		<tag k="natural" v="hill" />
		<tag k="place" v="locality" />
		<tag k="ssr:stedsnr" v="250273" />
	</node>
	<node id="-377825" lat="61.4157722265" lon="10.7072555617">
		<tag k="fixme" v="consider natural=peak for the most distinct mountains in the district" />
		<tag k="name" v="Skardkampen" />
		<tag k="natural" v="hill" />
		<tag k="place" v="locality" />
		<tag k="ssr:stedsnr" v="615308" />
	</node>
	<node id="-377624" lat="61.2473138897" lon="10.5171416746">
		<tag k="name" v="Måsåberget" />
		<tag k="place" v="locality" />
		<tag k="ssr:stedsnr" v="403599" />
	</node>
	<node id="-377310" lat="61.2664499972" lon="10.2763055524">
		<tag k="name" v="Salthushaugen" />
		<tag k="natural" v="hill" />
		<tag k="place" v="locality" />
		<tag k="ssr:stedsnr" v="965421" />
	</node>
	<node id="-377820" lat="61.3059111112" lon="10.6667583338">
		<tag k="alt_name" v="Hulderhaugen" />
		<tag k="name" v="Huldrehaugen" />
		<tag k="natural" v="hill" />
		<tag k="place" v="locality" />
		<tag k="ssr:stedsnr" v="615249" />
	</node>
	<node id="-377306" lat="61.3673027803" lon="10.3128333321">
		<tag k="name" v="Svarthaugbakken" />
		<tag k="natural" v="slope" />
		<tag k="place" v="locality" />
		<tag k="ssr:stedsnr" v="951309" />
	</node>
	<node id="-376793" lat="61.4137416688" lon="10.5516111177">
		<tag k="name" v="Høgsete" />
		<tag k="natural" v="hill" />
		<tag k="place" v="locality" />
		<tag k="ssr:stedsnr" v="221905" />
	</node>
	<node id="-377304" lat="61.288366664" lon="10.2532166738">
		<tag k="name" v="Øygardshaugen" />
		<tag k="natural" v="hill" />
		<tag k="place" v="locality" />
		<tag k="ssr:stedsnr" v="951426" />
	</node>
	<node id="-376899" lat="61.3811222263" lon="10.7131583385">
		<tag k="name" v="Høgåsen" />
		<tag k="natural" v="hill" />
		<tag k="place" v="locality" />
		<tag k="ssr:stedsnr" v="519681" />
	</node>
	<node id="-377300" lat="61.3383666653" lon="10.706186104">
		<tag k="name" v="Bøsæterlia" />
		<tag k="natural" v="slope" />
		<tag k="place" v="locality" />
		<tag k="ssr:stedsnr" v="951166" />
	</node>
	<node id="-377298" lat="61.3680611086" lon="10.4392999936">
		<tag k="name" v="Saumyrbakken" />
		<tag k="natural" v="slope" />
		<tag k="place" v="locality" />
		<tag k="ssr:stedsnr" v="951066" />
	</node>
	<node id="-377805" lat="61.3939583348" lon="10.5090388831">
		<tag k="alt_name" v="Rauberget" />
		<tag k="fixme" v="consider natural=peak for the most distinct mountains in the district" />
		<tag k="name" v="Raudberget" />
		<tag k="natural" v="hill" />
		<tag k="place" v="locality" />
		<tag k="ssr:stedsnr" v="614320" />
	</node>
	<node id="-377292" lat="61.3768305583" lon="10.4812666578">
		<tag k="fixme" v="consider natural=peak for the most distinct mountains in the district" />
		<tag k="name" v="Prestgardsåsen" />
		<tag k="natural" v="hill" />
		<tag k="place" v="locality" />
		<tag k="ssr:stedsnr" v="949277" />
	</node>
	<node id="-376778" lat="61.2385583347" lon="10.4641944462">
		<tag k="name" v="Roabakken" />
		<tag k="natural" v="slope" />
		<tag k="place" v="locality" />
		<tag k="ssr:stedsnr" v="284842" />
	</node>
	<node id="-376775" lat="61.1942805556" lon="10.4291888933">
		<tag k="name" v="Skriubakken" />
		<tag k="natural" v="slope" />
		<tag k="place" v="locality" />
		<tag k="ssr:stedsnr" v="284578" />
	</node>
	<node id="-377286" lat="61.3461222209" lon="10.3329777732">
		<tag k="alt_name" v="Klevknappen" />
		<tag k="name" v="Klevaknappen" />
		<tag k="natural" v="hill" />
		<tag k="place" v="locality" />
		<tag k="ssr:stedsnr" v="918972" />
	</node>
	<node id="-376773" lat="61.2077694464" lon="10.4684416738">
		<tag k="name" v="Tømmerbakken" />
		<tag k="natural" v="slope" />
		<tag k="place" v="locality" />
		<tag k="ssr:stedsnr" v="284549" />
	</node>
	<node id="-377793" lat="61.3127083351" lon="10.2784472171">
		<tag k="name" v="Gullskodalen" />
		<tag k="natural" v="valley" />
		<tag k="place" v="locality" />
		<tag k="ssr:stedsnr" v="603519" />
	</node>
	<node id="-377791" lat="61.3361472192" lon="10.5121277767">
		<tag k="name" v="Brettbakken" />
		<tag k="natural" v="slope" />
		<tag k="place" v="locality" />
		<tag k="ssr:stedsnr" v="603396" />
	</node>
	<node id="-377278" lat="61.2847666641" lon="10.5544388965">
		<tag k="alt_name" v="Botilhaugen" />
		<tag k="name" v="Bottrudhaugen" />
		<tag k="natural" v="hill" />
		<tag k="place" v="locality" />
		<tag k="ssr:stedsnr" v="918307" />
	</node>
	<node id="-376847" lat="61.31718056" lon="10.2572222197">
		<tag k="name" v="Hekkelfjellet" />
		<tag k="natural" v="hill" />
		<tag k="place" v="locality" />
		<tag k="ssr:stedsnr" v="361564" />
	</node>
	<node id="-377276" lat="61.292511114" lon="10.6692027834">
		<tag k="name" v="Veslelia" />
		<tag k="natural" v="slope" />
		<tag k="place" v="locality" />
		<tag k="ssr:stedsnr" v="918304" />
	</node>
	<node id="-377275" lat="61.2342222185" lon="10.6621055588">
		<tag k="alt_name" v="Kriksfjell" />
		<tag k="fixme" v="consider natural=peak for the most distinct mountains in the district" />
		<tag k="name" v="Kriksfjellet" />
		<tag k="natural" v="hill" />
		<tag k="place" v="locality" />
		<tag k="ssr:stedsnr" v="918156" />
	</node>
	<node id="-377786" lat="61.2804361108" lon="10.4584388856">
		<tag k="name" v="Hjellbakken" />
		<tag k="natural" v="slope" />
		<tag k="place" v="locality" />
		<tag k="ssr:stedsnr" v="594503" />
	</node>
	<node id="-376761" lat="61.2602583337" lon="10.5037805558">
		<tag k="name" v="Haugan" />
		<tag k="natural" v="hill" />
		<tag k="place" v="locality" />
		<tag k="ssr:stedsnr" v="282822" />
	</node>
	<node id="-377673" lat="61.4073249985" lon="10.6241583381">
		<tag k="fixme" v="consider natural=peak for the most distinct mountains in the district" />
		<tag k="name" v="Jogrimshøgda" />
		<tag k="natural" v="hill" />
		<tag k="place" v="locality" />
		<tag k="ssr:stedsnr" v="433308" />
	</node>
	<node id="-377268" lat="61.3763277797" lon="10.5435249959">
		<tag k="name" v="Grunneshaugan" />
		<tag k="natural" v="ridge" />
		<tag k="place" v="locality" />
		<tag k="ssr:stedsnr" v="888255" />
	</node>
	<node id="-377264" lat="61.3601083322" lon="10.4448833322">
		<tag k="fixme" v="consider natural=peak for the most distinct mountains in the district" />
		<tag k="name" v="Vakkeråsen" />
		<tag k="natural" v="hill" />
		<tag k="place" v="locality" />
		<tag k="ssr:stedsnr" v="949629" />
	</node>
	<node id="-376751" lat="61.3556416656" lon="10.3654000004">
		<tag k="name" v="Bytjønnsletta" />
		<tag k="place" v="locality" />
		<tag k="ssr:stedsnr" v="282623" />
	</node>
	<node id="-377262" lat="61.2915083326" lon="10.4322277869">
		<tag k="name" v="Varpbakken" />
		<tag k="natural" v="slope" />
		<tag k="place" v="locality" />
		<tag k="ssr:stedsnr" v="949481" />
	</node>
	<node id="-376749" lat="61.3865833356" lon="10.4452055502">
		<tag k="name" v="Kalvberget" />
		<tag k="natural" v="cliff" />
		<tag k="ssr:stedsnr" v="282556" />
	</node>
	<node id="-376748" lat="61.3912583363" lon="10.4737111059">
		<tag k="name" v="Gravdalan" />
		<tag k="natural" v="valley" />
		<tag k="place" v="locality" />
		<tag k="ssr:stedsnr" v="282555" />
	</node>
	<node id="-377766" lat="61.243016666" lon="10.5184250009">
		<tag k="fixme" v="consider natural=peak for the most distinct mountains in the district" />
		<tag k="name" v="Buåsen" />
		<tag k="natural" v="hill" />
		<tag k="place" v="locality" />
		<tag k="ssr:stedsnr" v="585594" />
	</node>
	<node id="-377251" lat="61.2906194479" lon="10.7487055603">
		<tag k="fixme" v="consider natural=peak for the most distinct mountains in the district" />
		<tag k="name" v="Søre-Gardfesthaugen" />
		<tag k="natural" v="hill" />
		<tag k="place" v="locality" />
		<tag k="ssr:stedsnr" v="944731" />
	</node>
	<node id="-377760" lat="61.3111944447" lon="10.5862638836">
		<tag k="name" v="Måsårabben" />
		<tag k="place" v="locality" />
		<tag k="ssr:stedsnr" v="584555" />
	</node>
	<node id="-376836" lat="61.4005111103" lon="10.5432694406">
		<tag k="name" v="Svartberget" />
		<tag k="natural" v="ridge" />
		<tag k="place" v="locality" />
		<tag k="ssr:stedsnr" v="519675" />
	</node>
	<node id="-376733" lat="61.264469441" lon="10.6964694469">
		<tag k="name" v="Purkebekklia" />
		<tag k="natural" v="slope" />
		<tag k="place" v="locality" />
		<tag k="ssr:stedsnr" v="162510" />
	</node>
	<node id="-376732" lat="61.3322555598" lon="10.3915916731">
		<tag k="name" v="Veslesæterhaugen" />
		<tag k="natural" v="hill" />
		<tag k="place" v="locality" />
		<tag k="ssr:stedsnr" v="162262" />
	</node>
	<node id="-377241" lat="61.390400001" lon="10.3848138964">
		<tag k="alt_name" v="Råkfjellet" />
		<tag k="name" v="Rokfjellet" />
		<tag k="natural" v="hill" />
		<tag k="place" v="locality" />
		<tag k="ssr:stedsnr" v="858327" />
	</node>
	<node id="-377240" lat="61.3955916653" lon="10.4485611155">
		<tag k="alt_name" v="Våsdalsknappen" />
		<tag k="fixme" v="consider natural=peak for the most distinct mountains in the district" />
		<tag k="name" v="Vålsdalsknappen" />
		<tag k="natural" v="hill" />
		<tag k="place" v="locality" />
		<tag k="ssr:stedsnr" v="858325" />
	</node>
	<node id="-377238" lat="61.3822916656" lon="10.5808638956">
		<tag k="alt_name" v="Åstkjørkja" />
		<tag k="fixme" v="consider natural=peak for the most distinct mountains in the district" />
		<tag k="name" v="Åstkyrkja" />
		<tag k="natural" v="hill" />
		<tag k="place" v="locality" />
		<tag k="ssr:stedsnr" v="858312" />
	</node>
	<node id="-376724" lat="61.2839833323" lon="10.4298888916">
		<tag k="name" v="Fleskebakken" />
		<tag k="natural" v="slope" />
		<tag k="place" v="locality" />
		<tag k="ssr:stedsnr" v="160459" />
	</node>
	<node id="-377233" lat="61.2863444468" lon="10.4719055568">
		<tag k="name" v="Korssletta" />
		<tag k="place" v="locality" />
		<tag k="ssr:stedsnr" v="837515" />
	</node>
	<node id="-377744" lat="61.4038249962" lon="10.6738666647">
		<tag k="name" v="Skjelfjellet" />
		<tag k="natural" v="hill" />
		<tag k="place" v="locality" />
		<tag k="ssr:stedsnr" v="554337" />
	</node>
	<node id="-377496" lat="61.4086444427" lon="10.5203722135">
		<tag k="name" v="Rundhaugen" />
		<tag k="natural" v="hill" />
		<tag k="place" v="locality" />
		<tag k="ssr:stedsnr" v="179976" />
	</node>
	<node id="-377740" lat="61.3845999995" lon="10.4162499909">
		<tag k="alt_name" v="Skinfjellet" />
		<tag k="name" v="Skinnfjellet" />
		<tag k="natural" v="hill" />
		<tag k="place" v="locality" />
		<tag k="ssr:stedsnr" v="554329" />
	</node>
	<node id="-377720" lat="61.3248416666" lon="10.2527861186">
		<tag k="name" v="Trolldalen" />
		<tag k="natural" v="valley" />
		<tag k="place" v="locality" />
		<tag k="ssr:stedsnr" v="526881" />
	</node>
	<node id="-377736" lat="61.2946861121" lon="10.3679583284">
		<tag k="name" v="Skjønsbergaksla" />
		<tag k="natural" v="hill" />
		<tag k="place" v="locality" />
		<tag k="ssr:stedsnr" v="554298" />
	</node>
	<node id="-376711" lat="61.3528055522" lon="10.228808342">
		<tag k="name" v="Per-sletta" />
		<tag k="place" v="locality" />
		<tag k="ssr:stedsnr" v="118809" />
	</node>
	<node id="-376710" lat="61.3460777772" lon="10.5284249995">
		<tag k="name" v="Grunnesbakken" />
		<tag k="natural" v="slope" />
		<tag k="place" v="locality" />
		<tag k="ssr:stedsnr" v="118408" />
	</node>
	<node id="-377510" lat="61.2312138925" lon="10.6001750018">
		<tag k="alt_name" v="Reinsfjell" />
		<tag k="fixme" v="consider natural=peak for the most distinct mountains in the district" />
		<tag k="name" v="Reinsfjellet" />
		<tag k="natural" v="hill" />
		<tag k="place" v="locality" />
		<tag k="ssr:stedsnr" v="190169" />
	</node>
	<node id="-376982" lat="61.3717222204" lon="10.4503944518">
		<tag k="name" v="Svarthaugen" />
		<tag k="natural" v="hill" />
		<tag k="place" v="locality" />
		<tag k="ssr:stedsnr" v="736305" />
	</node>
	<node id="-376705" lat="61.201263891" lon="10.5063472158">
		<tag k="name" v="Flatbergan" />
		<tag k="natural" v="hill" />
		<tag k="place" v="locality" />
		<tag k="ssr:stedsnr" v="100311" />
	</node>
	<node id="-376703" lat="61.2293499993" lon="10.4868444397">
		<tag k="name" v="Geitryggen" />
		<tag k="natural" v="ridge" />
		<tag k="place" v="locality" />
		<tag k="ssr:stedsnr" v="100304" />
	</node>
	<node id="-376700" lat="61.356763892" lon="10.3886027751">
		<tag k="name" v="Brennhaugan" />
		<tag k="natural" v="hill" />
		<tag k="place" v="locality" />
		<tag k="ssr:stedsnr" v="99704" />
	</node>
	<node id="-376698" lat="61.2550805563" lon="10.4143500023">
		<tag k="name" v="Øljadokka" />
		<tag k="natural" v="valley" />
		<tag k="place" v="locality" />
		<tag k="ssr:stedsnr" v="99458" />
	</node>
	<node id="-376696" lat="61.2549499968" lon="10.419080559">
		<tag k="name" v="Sundstugua" />
		<tag k="place" v="locality" />
		<tag k="ssr:stedsnr" v="99452" />
	</node>
	<node id="-376695" lat="61.3929888895" lon="10.5888250065">
		<tag k="name" v="Tauterslåa" />
		<tag k="natural" v="valley" />
		<tag k="place" v="locality" />
		<tag k="ssr:stedsnr" v="95613" />
	</node>
	<node id="-377718" lat="61.2241861114" lon="10.4521666599">
		<tag k="name" v="Merradalen" />
		<tag k="natural" v="valley" />
		<tag k="place" v="locality" />
		<tag k="ssr:stedsnr" v="526634" />
	</node>
	<node id="-377713" lat="61.3705638847" lon="10.3200416669">
		<tag k="name" v="Brånån" />
		<tag k="natural" v="hill" />
		<tag k="place" v="locality" />
		<tag k="ssr:stedsnr" v="526304" />
	</node>
	<node id="-377710" lat="61.3502805522" lon="10.4478694412">
		<tag k="name" v="Grønåsbakken" />
		<tag k="natural" v="hill" />
		<tag k="place" v="locality" />
		<tag k="ssr:stedsnr" v="526255" />
	</node>
	<node id="-377709" lat="61.2923055599" lon="10.3218111084">
		<tag k="name" v="Nephølskampen" />
		<tag k="natural" v="hill" />
		<tag k="place" v="locality" />
		<tag k="ssr:stedsnr" v="526507" />
	</node>
	<node id="-377707" lat="61.263427781" lon="10.4375499946">
		<tag k="name" v="Smiubakken" />
		<tag k="natural" v="slope" />
		<tag k="place" v="locality" />
		<tag k="ssr:stedsnr" v="526214" />
	</node>
	<node id="-377193" lat="61.3623527788" lon="10.3498111071">
		<tag k="name" v="Peisteinhaugen" />
		<tag k="natural" v="hill" />
		<tag k="place" v="locality" />
		<tag k="ssr:stedsnr" v="769312" />
	</node>
	<node id="-377703" lat="61.2974277753" lon="10.3296250068">
		<tag k="name" v="Godalen" />
		<tag k="natural" v="valley" />
		<tag k="place" v="locality" />
		<tag k="ssr:stedsnr" v="525334" />
	</node>
	<node id="-377187" lat="61.2418222196" lon="10.4902111112">
		<tag k="name" v="Tjønnhaugan" />
		<tag k="natural" v="hill" />
		<tag k="place" v="locality" />
		<tag k="ssr:stedsnr" v="767655" />
	</node>
	<node id="-377186" lat="61.2494361151" lon="10.6618277794">
		<tag k="name" v="Bjønnlia" />
		<tag k="natural" v="slope" />
		<tag k="place" v="locality" />
		<tag k="ssr:stedsnr" v="767473" />
	</node>
	<node id="-377185" lat="61.2198611105" lon="10.5445722153">
		<tag k="name" v="Tjuvdokka" />
		<tag k="natural" v="valley" />
		<tag k="place" v="locality" />
		<tag k="ssr:stedsnr" v="767330" />
	</node>
	<node id="-377696" lat="61.3848277767" lon="10.5820027864">
		<tag k="name" v="Åstlia" />
		<tag k="natural" v="slope" />
		<tag k="place" v="locality" />
		<tag k="ssr:stedsnr" v="524298" />
	</node>
	<node id="-376720" lat="61.2686722256" lon="10.4452111102">
		<tag k="name" v="Svingberget" />
		<tag k="natural" v="cliff" />
		<tag k="ssr:stedsnr" v="160014" />
	</node>
	<node id="-377182" lat="61.2238361133" lon="10.5144638889">
		<tag k="fixme" v="consider natural=peak for the most distinct mountains in the district" />
		<tag k="name" v="Midtåsen" />
		<tag k="natural" v="hill" />
		<tag k="place" v="locality" />
		<tag k="ssr:stedsnr" v="767315" />
	</node>
	<node id="-377693" lat="61.3693388893" lon="10.2874750011">
		<tag k="name" v="Styggdalen" />
		<tag k="natural" v="valley" />
		<tag k="place" v="locality" />
		<tag k="ssr:stedsnr" v="524257" />
	</node>
	<node id="-377692" lat="61.3579805587" lon="10.5229444409">
		<tag k="fixme" v="consider natural=peak for the most distinct mountains in the district" />
		<tag k="name" v="Bjørkåsen" />
		<tag k="natural" v="hill" />
		<tag k="place" v="locality" />
		<tag k="ssr:stedsnr" v="524239" />
	</node>
	<node id="-377179" lat="61.3747472218" lon="10.2966416617">
		<tag k="name" v="Rolldalen" />
		<tag k="natural" v="valley" />
		<tag k="place" v="locality" />
		<tag k="ssr:stedsnr" v="767277" />
	</node>
	<node id="-377689" lat="61.3108722241" lon="10.5384027791">
		<tag k="name" v="Storhaugen" />
		<tag k="natural" v="hill" />
		<tag k="place" v="locality" />
		<tag k="ssr:stedsnr" v="524481" />
	</node>
	<node id="-376664" lat="61.2364111103" lon="10.7436250002">
		<tag k="name" v="Matfarhaugen" />
		<tag k="natural" v="hill" />
		<tag k="place" v="locality" />
		<tag k="ssr:stedsnr" v="68712" />
	</node>
	<node id="-377686" lat="61.2772694423" lon="10.4549916649">
		<tag k="name" v="Kolbotn" />
		<tag k="place" v="locality" />
		<tag k="ssr:stedsnr" v="524462" />
	</node>
	<node id="-377684" lat="61.269475" lon="10.8242083335">
		<tag k="name" v="Skolldalen" />
		<tag k="natural" v="valley" />
		<tag k="place" v="locality" />
		<tag k="ssr:stedsnr" v="524738" />
	</node>
	<node id="-376974" lat="61.242194444" lon="10.6672777826">
		<tag k="alt_name" v="Venåsen" />
		<tag k="fixme" v="consider natural=peak for the most distinct mountains in the district" />
		<tag k="name" v="Venåsane" />
		<tag k="natural" v="hill" />
		<tag k="place" v="locality" />
		<tag k="ssr:stedsnr" v="493152" />
	</node>
	<node id="-377170" lat="61.3017666624" lon="10.4893583404">
		<tag k="name" v="Kloppmyrbakken" />
		<tag k="natural" v="slope" />
		<tag k="place" v="locality" />
		<tag k="ssr:stedsnr" v="907547" />
	</node>
	<node id="-377144" lat="61.2885166699" lon="10.2910472241">
		<tag k="name" v="Kornsvedalen" />
		<tag k="natural" v="valley" />
		<tag k="place" v="locality" />
		<tag k="ssr:stedsnr" v="889406" />
	</node>
	<node id="-376654" lat="61.3449805567" lon="10.5710916734">
		<tag k="name" v="Slåsberglia" />
		<tag k="natural" v="hill" />
		<tag k="place" v="locality" />
		<tag k="ssr:stedsnr" v="240460" />
	</node>
	<node id="-376653" lat="61.3395583375" lon="10.4959944392">
		<tag k="name" v="Hulderhaugen" />
		<tag k="natural" v="hill" />
		<tag k="place" v="locality" />
		<tag k="ssr:stedsnr" v="240450" />
	</node>
	<node id="-376652" lat="61.2914388859" lon="10.3148500078">
		<tag k="name" v="Høgberget" />
		<tag k="place" v="locality" />
		<tag k="ssr:stedsnr" v="41512" />
	</node>
	<node id="-377675" lat="61.3850555517" lon="10.6258944525">
		<tag k="alt_name" v="Skytilhaugen" />
		<tag k="name" v="Skyttilhaugen" />
		<tag k="natural" v="hill" />
		<tag k="place" v="locality" />
		<tag k="ssr:stedsnr" v="433315" />
	</node>
	<node id="-376650" lat="61.2926527766" lon="10.3432333265">
		<tag k="name" v="Brekkekampen" />
		<tag k="natural" v="hill" />
		<tag k="place" v="locality" />
		<tag k="ssr:stedsnr" v="41507" />
	</node>
	<node id="-376649" lat="61.2802277738" lon="10.3190638825">
		<tag k="name" v="Tverrberget" />
		<tag k="natural" v="ridge" />
		<tag k="place" v="locality" />
		<tag k="ssr:stedsnr" v="41454" />
	</node>
	<node id="-377501" lat="61.2106277764" lon="10.5431333389">
		<tag k="fixme" v="consider natural=peak for the most distinct mountains in the district" />
		<tag k="name" v="Slåsæterfjellet" />
		<tag k="natural" v="hill" />
		<tag k="place" v="locality" />
		<tag k="ssr:stedsnr" v="189164" />
	</node>
	<node id="-377671" lat="61.3290472267" lon="10.6345944354">
		<tag k="alt_name" v="Embjørghaugen" />
		<tag k="name" v="Ømbjørgberget" />
		<tag k="natural" v="hill" />
		<tag k="place" v="locality" />
		<tag k="ssr:stedsnr" v="433292" />
	</node>
	<node id="-377670" lat="61.3197694487" lon="10.3686361185">
		<tag k="name" v="Smørkampen" />
		<tag k="natural" v="hill" />
		<tag k="place" v="locality" />
		<tag k="ssr:stedsnr" v="433288" />
	</node>
	<node id="-377669" lat="61.3193111106" lon="10.5908777733">
		<tag k="fixme" v="consider natural=peak for the most distinct mountains in the district" />
		<tag k="name" v="Svartberget" />
		<tag k="natural" v="hill" />
		<tag k="place" v="locality" />
		<tag k="ssr:stedsnr" v="433285" />
	</node>
	<node id="-376644" lat="61.2344777781" lon="10.5071138858">
		<tag k="name" v="Hafjellsnuen" />
		<tag k="place" v="locality" />
		<tag k="ssr:stedsnr" v="39562" />
	</node>
	<node id="-377155" lat="61.3669638877" lon="10.4445250009">
		<tag k="fixme" v="consider natural=peak for the most distinct mountains in the district" />
		<tag k="name" v="Steinåsen" />
		<tag k="natural" v="hill" />
		<tag k="place" v="locality" />
		<tag k="ssr:stedsnr" v="891088" />
	</node>
	<node id="-377666" lat="61.3001138932" lon="10.6145111124">
		<tag k="alt_name" v="Brennlihøgda" />
		<tag k="name" v="Høghaugen" />
		<tag k="natural" v="hill" />
		<tag k="place" v="locality" />
		<tag k="ssr:stedsnr" v="433275" />
	</node>
	<node id="-377152" lat="61.2132944489" lon="10.4705972225">
		<tag k="name" v="Ladderudbakken" />
		<tag k="natural" v="slope" />
		<tag k="place" v="locality" />
		<tag k="ssr:stedsnr" v="890139" />
	</node>
	<node id="-377151" lat="61.3625055589" lon="10.1920416731">
		<tag k="name" v="Veslefjellet" />
		<tag k="natural" v="hill" />
		<tag k="place" v="locality" />
		<tag k="ssr:stedsnr" v="889841" />
	</node>
	<node id="-376638" lat="61.3983527738" lon="10.4598138852">
		<tag k="name" v="Vargøydalen" />
		<tag k="natural" v="valley" />
		<tag k="place" v="locality" />
		<tag k="ssr:stedsnr" v="39509" />
	</node>
	<node id="-377149" lat="61.2592138862" lon="10.7189166748">
		<tag k="name" v="Raubakken" />
		<tag k="natural" v="slope" />
		<tag k="place" v="locality" />
		<tag k="ssr:stedsnr" v="889758" />
	</node>
	<node id="-376636" lat="61.4392055538" lon="10.6575722272">
		<tag k="loc_name" v="Slettharland" />
		<tag k="name" v="Sletthaland" />
		<tag k="place" v="locality" />
		<tag k="ssr:stedsnr" v="39152" />
	</node>
	<node id="-377147" lat="61.2829194413" lon="10.4318361053">
		<tag k="name" v="Urdsbakkan" />
		<tag k="natural" v="slope" />
		<tag k="place" v="locality" />
		<tag k="ssr:stedsnr" v="889519" />
	</node>
	<node id="-376634" lat="61.3269638845" lon="10.3069777846">
		<tag k="name" v="Tutrudkampen" />
		<tag k="natural" v="hill" />
		<tag k="place" v="locality" />
		<tag k="ssr:stedsnr" v="39263" />
	</node>
	<node id="-377656" lat="61.2297222265" lon="10.6983611039">
		<tag k="fixme" v="consider natural=peak for the most distinct mountains in the district" />
		<tag k="name" v="Svartåsen" />
		<tag k="natural" v="hill" />
		<tag k="place" v="locality" />
		<tag k="ssr:stedsnr" v="433159" />
	</node>
	<node id="-377655" lat="61.2310249999" lon="10.5252805639">
		<tag k="fixme" v="consider natural=peak for the most distinct mountains in the district" />
		<tag k="name" v="Hafjell" />
		<tag k="natural" v="hill" />
		<tag k="place" v="locality" />
		<tag k="ssr:stedsnr" v="433158" />
	</node>
	<node id="-376628" lat="61.1974972184" lon="10.4194166726">
		<tag k="name" v="Tusjeguttberget" />
		<tag k="natural" v="hill" />
		<tag k="place" v="locality" />
		<tag k="ssr:stedsnr" v="223669" />
	</node>
	<node id="-377651" lat="61.2496027755" lon="10.6121805511">
		<tag k="alt_name" v="Veslefjell" />
		<tag k="fixme" v="consider natural=peak for the most distinct mountains in the district" />
		<tag k="name" v="Veslefjellet" />
		<tag k="natural" v="hill" />
		<tag k="place" v="locality" />
		<tag k="ssr:stedsnr" v="432127" />
	</node>
	<node id="-377138" lat="61.3078166693" lon="10.2962277824">
		<tag k="name" v="Kolhusvollen" />
		<tag k="place" v="locality" />
		<tag k="ssr:stedsnr" v="889249" />
	</node>
	<node id="-376625" lat="61.2564111086" lon="10.6560083379">
		<tag k="name" v="Austmyrhaugen" />
		<tag k="natural" v="hill" />
		<tag k="place" v="locality" />
		<tag k="ssr:stedsnr" v="223515" />
	</node>
	<node id="-376623" lat="61.2771972191" lon="10.342441675">
		<tag k="name" v="Dresshølet" />
		<tag k="place" v="locality" />
		<tag k="ssr:stedsnr" v="223479" />
	</node>
	<node id="-377646" lat="61.2808805521" lon="10.4689833308">
		<tag k="name" v="Systunlyusletta" />
		<tag k="place" v="locality" />
		<tag k="ssr:stedsnr" v="412474" />
	</node>
	<node id="-376621" lat="61.3697916657" lon="10.3254722188">
		<tag k="name" v="Svarthaugmorka" />
		<tag k="natural" v="slope" />
		<tag k="place" v="locality" />
		<tag k="ssr:stedsnr" v="223326" />
	</node>
	<node id="-376620" lat="61.3769583327" lon="10.3059777712">
		<tag k="name" v="Tjuruhjellhaugen" />
		<tag k="natural" v="hill" />
		<tag k="place" v="locality" />
		<tag k="ssr:stedsnr" v="223319" />
	</node>
	<node id="-377735" lat="61.2968194461" lon="10.7011861177">
		<tag k="name" v="Brennhaugen" />
		<tag k="natural" v="hill" />
		<tag k="place" v="locality" />
		<tag k="ssr:stedsnr" v="554297" />
	</node>
	<node id="-377308" lat="61.2024638855" lon="10.4556888908">
		<tag k="name" v="Halvorsvea" />
		<tag k="place" v="locality" />
		<tag k="ssr:stedsnr" v="951569" />
	</node>
	<node id="-377638" lat="61.1852472202" lon="10.4172638802">
		<tag k="name" v="Nilsstugubakken" />
		<tag k="natural" v="slope" />
		<tag k="place" v="locality" />
		<tag k="ssr:stedsnr" v="405595" />
	</node>
	<node id="-376613" lat="61.4241277798" lon="10.67234722">
		<tag k="fixme" v="consider natural=peak for the most distinct mountains in the district" />
		<tag k="name" v="Høgfjellet" />
		<tag k="natural" v="hill" />
		<tag k="place" v="locality" />
		<tag k="ssr:stedsnr" v="9312" />
	</node>
	<node id="-377124" lat="61.3093527814" lon="10.528391658">
		<tag k="name" v="Gammellia" />
		<tag k="natural" v="slope" />
		<tag k="place" v="locality" />
		<tag k="ssr:stedsnr" v="884666" />
	</node>
	<node id="-377734" lat="61.3164833308" lon="10.6598666589">
		<tag k="alt_name" v="Estenshaugen" />
		<tag k="name" v="Øysteinhaugen" />
		<tag k="natural" v="hill" />
		<tag k="place" v="locality" />
		<tag k="ssr:stedsnr" v="554294" />
	</node>
	<node id="-377122" lat="61.401616664" lon="10.6977055499">
		<tag k="name" v="Åstlia" />
		<tag k="natural" v="slope" />
		<tag k="place" v="locality" />
		<tag k="ssr:stedsnr" v="883729" />
	</node>
	<node id="-376608" lat="61.3317333351" lon="10.7761694446">
		<tag k="alt_name" v="Kaldholsæterhaugan" />
		<tag k="fixme" v="consider natural=peak for the most distinct mountains in the district" />
		<tag k="name" v="Kaldholsæterhaugane" />
		<tag k="natural" v="hill" />
		<tag k="place" v="locality" />
		<tag k="ssr:stedsnr" v="8433" />
	</node>
	<node id="-377118" lat="61.3119138877" lon="10.6480444515">
		<tag k="alt_name" v="Bjønnåsen" />
		<tag k="fixme" v="consider natural=peak for the most distinct mountains in the district" />
		<tag k="name" v="Bjørnåsen" />
		<tag k="natural" v="hill" />
		<tag k="place" v="locality" />
		<tag k="ssr:stedsnr" v="676257" />
	</node>
	<node id="-377629" lat="61.2255083298" lon="10.5376027747">
		<tag k="name" v="Kvitsteinen" />
		<tag k="place" v="locality" />
		<tag k="ssr:stedsnr" v="403679" />
	</node>
	<node id="-377660" lat="61.2521277819" lon="10.6706750094">
		<tag k="name" v="Knidalen" />
		<tag k="natural" v="valley" />
		<tag k="place" v="locality" />
		<tag k="ssr:stedsnr" v="433458" />
	</node>
	<node id="-376603" lat="61.2595361119" lon="10.4854750019">
		<tag k="name" v="Lyusveknappen" />
		<tag k="natural" v="hill" />
		<tag k="place" v="locality" />
		<tag k="ssr:stedsnr" v="221811" />
	</node>
	<node id="-377626" lat="61.3881472245" lon="10.4560611097">
		<tag k="name" v="Rostvangen" />
		<tag k="place" v="locality" />
		<tag k="ssr:stedsnr" v="403544" />
	</node>
	<node id="-376600" lat="61.3195951796" lon="10.3987331842">
		<tag k="fixme" v="consider natural=peak for the most distinct mountains in the district" />
		<tag k="name" v="Hundbergslia" />
		<tag k="natural" v="hill" />
		<tag k="old_name" v="Hundbergslien" />
		<tag k="place" v="locality" />
		<tag k="ssr:stedsnr" v="221750" />
	</node>
	<node id="-376598" lat="61.3830805562" lon="10.4589333367">
		<tag k="name" v="Rundhaugen" />
		<tag k="natural" v="hill" />
		<tag k="place" v="locality" />
		<tag k="ssr:stedsnr" v="221579" />
	</node>
	<node id="-377063" lat="61.2768472181" lon="10.4583111138">
		<tag k="name" v="Kalvlyudalen" />
		<tag k="natural" v="valley" />
		<tag k="place" v="locality" />
		<tag k="ssr:stedsnr" v="585490" />
	</node>
	<node id="-377616" lat="61.3622388849" lon="10.3494888837">
		<tag k="name" v="Peissteinhaugen" />
		<tag k="natural" v="hill" />
		<tag k="place" v="locality" />
		<tag k="ssr:stedsnr" v="397641" />
	</node>
	<node id="-377102" lat="61.2815916676" lon="10.351997223">
		<tag k="name" v="Høgberget" />
		<tag k="natural" v="ridge" />
		<tag k="place" v="locality" />
		<tag k="ssr:stedsnr" v="647462" />
	</node>
	<node id="-377101" lat="61.2667500023" lon="10.4553611118">
		<tag k="name" v="Øverlisdalen" />
		<tag k="natural" v="valley" />
		<tag k="place" v="locality" />
		<tag k="ssr:stedsnr" v="647258" />
	</node>
	<node id="-377148" lat="61.2769111121" lon="10.4302194374">
		<tag k="name" v="Ryssdalen" />
		<tag k="natural" v="valley" />
		<tag k="place" v="locality" />
		<tag k="ssr:stedsnr" v="889533" />
	</node>
	<node id="-377099" lat="61.1887166656" lon="10.4473888891">
		<tag k="name" v="Tutreholen" />
		<tag k="natural" v="ridge" />
		<tag k="place" v="locality" />
		<tag k="ssr:stedsnr" v="647519" />
	</node>
	<node id="-377098" lat="61.3647249957" lon="10.3230694408">
		<tag k="name" v="Breinom" />
		<tag k="place" v="locality" />
		<tag k="ssr:stedsnr" v="647322" />
	</node>
	<node id="-376584" lat="61.3714499978" lon="10.5579166655">
		<tag k="name" v="Grotjønndalen" />
		<tag k="natural" v="valley" />
		<tag k="place" v="locality" />
		<tag k="ssr:stedsnr" v="221260" />
	</node>
	<node id="-377388" lat="61.4236305539" lon="10.6593499922">
		<tag k="name" v="Skardtjønndalen" />
		<tag k="natural" v="valley" />
		<tag k="place" v="locality" />
		<tag k="ssr:stedsnr" v="69353" />
	</node>
	<node id="-377604" lat="61.3454111154" lon="10.6025611115">
		<tag k="alt_name" v="Akksjøknappen" />
		<tag k="fixme" v="consider natural=peak for the most distinct mountains in the district" />
		<tag k="name" v="Akksjøkampen" />
		<tag k="natural" v="hill" />
		<tag k="place" v="locality" />
		<tag k="ssr:stedsnr" v="372314" />
	</node>
	<node id="-377091" lat="61.3577305577" lon="10.4556777819">
		<tag k="fixme" v="consider natural=peak for the most distinct mountains in the district" />
		<tag k="name" v="Blårysjåsen" />
		<tag k="natural" v="hill" />
		<tag k="place" v="locality" />
		<tag k="ssr:stedsnr" v="645657" />
	</node>
	<node id="-377601" lat="61.4363722255" lon="10.806383339">
		<tag k="name" v="Eldådalen" />
		<tag k="natural" v="valley" />
		<tag k="place" v="locality" />
		<tag k="ssr:stedsnr" v="371424" />
	</node>
	<node id="-377598" lat="61.2731083296" lon="10.3300499912">
		<tag k="name" v="Sæterberga" />
		<tag k="natural" v="hill" />
		<tag k="place" v="locality" />
		<tag k="ssr:stedsnr" v="358048" />
	</node>
	<node id="-377084" lat="61.3565361141" lon="10.1858861032">
		<tag k="name" v="Roåkerknappen" />
		<tag k="natural" v="hill" />
		<tag k="place" v="locality" />
		<tag k="ssr:stedsnr" v="725815" />
	</node>
	<node id="-377727" lat="61.2071527757" lon="10.553422227">
		<tag k="alt_name" v="Skardet" />
		<tag k="name" v="Kvannskardet" />
		<tag k="natural" v="valley" />
		<tag k="place" v="locality" />
		<tag k="ssr:stedsnr" v="553920" />
	</node>
	<node id="-377677" lat="61.2783416667" lon="10.803247217">
		<tag k="fixme" v="consider natural=peak for the most distinct mountains in the district" />
		<tag k="name" v="Hynnlia" />
		<tag k="natural" v="hill" />
		<tag k="place" v="locality" />
		<tag k="ssr:stedsnr" v="433361" />
	</node>
	<node id="-377590" lat="61.3390333378" lon="10.7802666603">
		<tag k="name" v="Rundhaugen" />
		<tag k="natural" v="hill" />
		<tag k="place" v="locality" />
		<tag k="ssr:stedsnr" v="344828" />
	</node>
	<node id="-376617" lat="61.3138527739" lon="10.6300666619">
		<tag k="name" v="Bainerbakken" />
		<tag k="natural" v="slope" />
		<tag k="place" v="locality" />
		<tag k="ssr:stedsnr" v="223175" />
	</node>
	<node id="-377585" lat="61.2470083353" lon="10.4108388859">
		<tag k="name" v="Dokkskålen" />
		<tag k="place" v="locality" />
		<tag k="ssr:stedsnr" v="344157" />
	</node>
	<node id="-377582" lat="61.3801250005" lon="10.4430555646">
		<tag k="name" v="Høgda" />
		<tag k="natural" v="hill" />
		<tag k="place" v="locality" />
		<tag k="ssr:stedsnr" v="344067" />
	</node>
	<node id="-377578" lat="61.2616333374" lon="10.5325444447">
		<tag k="fixme" v="consider natural=peak for the most distinct mountains in the district" />
		<tag k="name" v="Brennåsen" />
		<tag k="natural" v="hill" />
		<tag k="place" v="locality" />
		<tag k="ssr:stedsnr" v="342795" />
	</node>
	<node id="-377127" lat="61.338580557" lon="10.2644000059">
		<tag k="name" v="Høgberget" />
		<tag k="place" v="locality" />
		<tag k="ssr:stedsnr" v="887895" />
	</node>
	<node id="-377232" lat="61.2933555541" lon="10.4761166698">
		<tag k="name" v="Lortbusset" />
		<tag k="place" v="locality" />
		<tag k="ssr:stedsnr" v="837505" />
	</node>
	<node id="-377062" lat="61.3897222266" lon="10.4596916636">
		<tag k="name" v="Lortbakken" />
		<tag k="natural" v="slope" />
		<tag k="place" v="locality" />
		<tag k="ssr:stedsnr" v="585528" />
	</node>
	<node id="-377573" lat="61.3879972214" lon="10.438250006">
		<tag k="alt_name" v="Våsdalsfjellet" />
		<tag k="name" v="Vålsdalsfjellet" />
		<tag k="natural" v="hill" />
		<tag k="place" v="locality" />
		<tag k="ssr:stedsnr" v="342498" />
	</node>
	<node id="-377060" lat="61.2935083315" lon="10.5842888853">
		<tag k="name" v="Blautmyrhaugen" />
		<tag k="natural" v="hill" />
		<tag k="place" v="locality" />
		<tag k="ssr:stedsnr" v="584857" />
	</node>
	<node id="-377059" lat="61.2554611082" lon="10.4095388907">
		<tag k="name" v="Pottaskhusbakken" />
		<tag k="natural" v="slope" />
		<tag k="place" v="locality" />
		<tag k="ssr:stedsnr" v="584459" />
	</node>
	<node id="-377641" lat="61.3294888847" lon="10.2611722313">
		<tag k="name" v="Klema" />
		<tag k="place" v="locality" />
		<tag k="ssr:stedsnr" v="405890" />
	</node>
	<node id="-377567" lat="61.3379805574" lon="10.3272111032">
		<tag k="name" v="Tjønndalen" />
		<tag k="natural" v="valley" />
		<tag k="place" v="locality" />
		<tag k="ssr:stedsnr" v="342302" />
	</node>
	<node id="-377637" lat="61.2000305584" lon="10.464916667">
		<tag k="name" v="Ådalshaugan" />
		<tag k="natural" v="ridge" />
		<tag k="place" v="locality" />
		<tag k="ssr:stedsnr" v="405576" />
	</node>
	<node id="-377052" lat="61.3697750019" lon="10.6606333425">
		<tag k="name" v="Hybeln" />
		<tag k="place" v="locality" />
		<tag k="ssr:stedsnr" v="579707" />
	</node>
	<node id="-376954" lat="61.2477416704" lon="10.5349972218">
		<tag k="name" v="Moksjølia" />
		<tag k="natural" v="slope" />
		<tag k="place" v="locality" />
		<tag k="ssr:stedsnr" v="675151" />
	</node>
	<node id="-377050" lat="61.1952416674" lon="10.4264583328">
		<tag k="name" v="Brennsvea" />
		<tag k="place" v="locality" />
		<tag k="ssr:stedsnr" v="708576" />
	</node>
	<node id="-377561" lat="61.2904666632" lon="10.29920833">
		<tag k="alt_name" v="Vardkampen" />
		<tag k="fixme" v="consider natural=peak for the most distinct mountains in the district" />
		<tag k="name" v="Vardekampen" />
		<tag k="natural" v="hill" />
		<tag k="place" v="locality" />
		<tag k="ssr:stedsnr" v="312734" />
	</node>
	<node id="-377047" lat="61.2947500042" lon="10.333541665">
		<tag k="name" v="Svartberget" />
		<tag k="natural" v="hill" />
		<tag k="place" v="locality" />
		<tag k="ssr:stedsnr" v="708508" />
	</node>
	<node id="-377046" lat="61.2789499975" lon="10.3286749941">
		<tag k="name" v="Kjerringbakken" />
		<tag k="natural" v="slope" />
		<tag k="place" v="locality" />
		<tag k="ssr:stedsnr" v="708470" />
	</node>
	<node id="-377557" lat="61.4219750022" lon="10.600255561">
		<tag k="fixme" v="consider natural=peak for the most distinct mountains in the district" />
		<tag k="name" v="Gråurda" />
		<tag k="natural" v="hill" />
		<tag k="place" v="locality" />
		<tag k="ssr:stedsnr" v="312326" />
	</node>
	<node id="-377044" lat="61.3761388931" lon="10.3134833277">
		<tag k="name" v="Korsberga" />
		<tag k="natural" v="hill" />
		<tag k="place" v="locality" />
		<tag k="ssr:stedsnr" v="708313" />
	</node>
	<node id="-377043" lat="61.3204222251" lon="10.3799333305">
		<tag k="name" v="Trolldalen" />
		<tag k="natural" v="valley" />
		<tag k="place" v="locality" />
		<tag k="ssr:stedsnr" v="708268" />
	</node>
	<node id="-377039" lat="61.3180805589" lon="10.6511166591">
		<tag k="name" v="Gorrtjønnsbakken" />
		<tag k="natural" v="slope" />
		<tag k="place" v="locality" />
		<tag k="ssr:stedsnr" v="708187" />
	</node>
	<node id="-377005" lat="61.3439888854" lon="10.2088166725">
		<tag k="name" v="Grønåsen" />
		<tag k="natural" v="hill" />
		<tag k="place" v="locality" />
		<tag k="ssr:stedsnr" v="543804" />
	</node>
	<node id="-377037" lat="61.2424583379" lon="10.4148277689">
		<tag k="name" v="Vikbergan" />
		<tag k="natural" v="cliff" />
		<tag k="ssr:stedsnr" v="708180" />
	</node>
	<node id="-377036" lat="61.3826555536" lon="10.4345611019">
		<tag k="name" v="Skardkampen" />
		<tag k="natural" v="hill" />
		<tag k="place" v="locality" />
		<tag k="ssr:stedsnr" v="708090" />
	</node>
	<node id="-377031" lat="61.2848472245" lon="10.3985222302">
		<tag k="name" v="Skåedalen" />
		<tag k="natural" v="valley" />
		<tag k="place" v="locality" />
		<tag k="ssr:stedsnr" v="707505" />
	</node>
	<node id="-377541" lat="61.2845194431" lon="10.6792277812">
		<tag k="name" v="Gravhaugen" />
		<tag k="natural" v="hill" />
		<tag k="place" v="locality" />
		<tag k="ssr:stedsnr" v="311324" />
	</node>
	<node id="-377539" lat="61.2390194456" lon="10.4010333424">
		<tag k="fixme" v="consider natural=peak for the most distinct mountains in the district" />
		<tag k="name" v="Brånån" />
		<tag k="natural" v="hill" />
		<tag k="place" v="locality" />
		<tag k="ssr:stedsnr" v="311311" />
	</node>
	<node id="-377537" lat="61.2451027785" lon="10.631986102">
		<tag k="alt_name" v="Hitfjell" />
		<tag k="fixme" v="consider natural=peak for the most distinct mountains in the district" />
		<tag k="name" v="Hitfjellet" />
		<tag k="natural" v="hill" />
		<tag k="place" v="locality" />
		<tag k="ssr:stedsnr" v="311168" />
	</node>
	<node id="-377024" lat="61.2903805535" lon="10.5401222214">
		<tag k="name" v="Skålåsen" />
		<tag k="natural" v="hill" />
		<tag k="place" v="locality" />
		<tag k="ssr:stedsnr" v="706846" />
	</node>
	<node id="-377535" lat="61.2430138891" lon="10.541158342">
		<tag k="fixme" v="consider natural=peak for the most distinct mountains in the district" />
		<tag k="name" v="Høgåsen" />
		<tag k="natural" v="hill" />
		<tag k="place" v="locality" />
		<tag k="ssr:stedsnr" v="311161" />
	</node>
	<node id="-377533" lat="61.3093583344" lon="10.2198805586">
		<tag k="name" v="Blessomlia" />
		<tag k="natural" v="slope" />
		<tag k="place" v="locality" />
		<tag k="ssr:stedsnr" v="300891" />
	</node>
	<node id="-377532" lat="61.3472361119" lon="10.381599998">
		<tag k="fixme" v="consider natural=peak for the most distinct mountains in the district" />
		<tag k="name" v="Varpåsen" />
		<tag k="natural" v="hill" />
		<tag k="place" v="locality" />
		<tag k="ssr:stedsnr" v="216572" />
	</node>
	<node id="-377016" lat="61.2657111131" lon="10.3944472245">
		<tag k="name" v="Dansedokka" />
		<tag k="place" v="locality" />
		<tag k="ssr:stedsnr" v="706405" />
	</node>
	<node id="-377013" lat="61.2014388847" lon="10.4832222209">
		<tag k="name" v="Fleskesletta" />
		<tag k="place" v="locality" />
		<tag k="ssr:stedsnr" v="706319" />
	</node>
	<node id="-377522" lat="61.2775777819" lon="10.3302944454">
		<tag k="alt_name" v="Langberget" />
		<tag k="name" v="Langberga" />
		<tag k="natural" v="hill" />
		<tag k="place" v="locality" />
		<tag k="ssr:stedsnr" v="190883" />
	</node>
	<node id="-377009" lat="61.3195777778" lon="10.4804777811">
		<tag k="name" v="Veslehaugen" />
		<tag k="natural" v="hill" />
		<tag k="place" v="locality" />
		<tag k="ssr:stedsnr" v="701751" />
	</node>
	<node id="-377520" lat="61.2743916667" lon="10.7256777863">
		<tag k="fixme" v="consider natural=peak for the most distinct mountains in the district" />
		<tag k="name" v="Dølåsen" />
		<tag k="natural" v="hill" />
		<tag k="place" v="locality" />
		<tag k="ssr:stedsnr" v="190400" />
	</node>
	<node id="-377564" lat="61.3013611112" lon="10.6502555561">
		<tag k="name" v="Hemhaugen" />
		<tag k="natural" v="hill" />
		<tag k="place" v="locality" />
		<tag k="ssr:stedsnr" v="342293" />
	</node>
	<node id="-377002" lat="61.288277774" lon="10.4072416651">
		<tag k="name" v="Bjønnbakken" />
		<tag k="natural" v="slope" />
		<tag k="place" v="locality" />
		<tag k="ssr:stedsnr" v="534605" />
	</node>
	<node id="-377543" lat="61.3752249983" lon="10.497469452">
		<tag k="fixme" v="consider natural=peak for the most distinct mountains in the district" />
		<tag k="name" v="Digeråsen" />
		<tag k="natural" v="hill" />
		<tag k="place" v="locality" />
		<tag k="ssr:stedsnr" v="311360" />
	</node>
	<node id="-377512" lat="61.3105694473" lon="10.616488888">
		<tag k="name" v="Mjøvasslia" />
		<tag k="natural" v="slope" />
		<tag k="place" v="locality" />
		<tag k="ssr:stedsnr" v="190270" />
	</node>
	<node id="-378022" lat="61.3012722213" lon="10.5171888943">
		<tag k="fixme" v="consider natural=peak for the most distinct mountains in the district" />
		<tag k="name" v="Kringleåsen" />
		<tag k="natural" v="hill" />
		<tag k="place" v="locality" />
		<tag k="ssr:stedsnr" v="968618" />
	</node>
	<node id="-378021" lat="61.3200361106" lon="10.5672444495">
		<tag k="name" v="Brettdalshøgda" />
		<tag k="natural" v="hill" />
		<tag k="place" v="locality" />
		<tag k="ssr:stedsnr" v="968585" />
	</node>
	<node id="-376996" lat="61.3513333353" lon="10.3454861118">
		<tag k="name" v="Rålia" />
		<tag k="natural" v="slope" />
		<tag k="place" v="locality" />
		<tag k="ssr:stedsnr" v="524807" />
	</node>
	<node id="-376993" lat="61.2526944449" lon="10.4804722192">
		<tag k="name" v="Dalan" />
		<tag k="natural" v="valley" />
		<tag k="place" v="locality" />
		<tag k="ssr:stedsnr" v="524622" />
	</node>
	<node id="-376992" lat="61.3567472192" lon="10.3741833386">
		<tag k="name" v="Glomstadbakkan" />
		<tag k="natural" v="slope" />
		<tag k="place" v="locality" />
		<tag k="ssr:stedsnr" v="524620" />
	</node>
	<node id="-376990" lat="61.3460194444" lon="10.3704972291">
		<tag k="name" v="Geitryggen" />
		<tag k="place" v="locality" />
		<tag k="ssr:stedsnr" v="524618" />
	</node>
	<node id="-376989" lat="61.2679027802" lon="10.3783750086">
		<tag k="name" v="Kleiva" />
		<tag k="place" v="locality" />
		<tag k="ssr:stedsnr" v="524383" />
	</node>
	<node id="-377417" lat="61.2967500016" lon="10.3061499939">
		<tag k="name" v="Spjutvollen" />
		<tag k="place" v="locality" />
		<tag k="ssr:stedsnr" v="100293" />
	</node>
	<node id="-376986" lat="61.2764666673" lon="10.4416333357">
		<tag k="name" v="Djupdalen" />
		<tag k="natural" v="valley" />
		<tag k="place" v="locality" />
		<tag k="ssr:stedsnr" v="524450" />
	</node>
	<node id="-378009" lat="61.270908329" lon="10.4527555577">
		<tag k="name" v="Rønningsbakken" />
		<tag k="natural" v="slope" />
		<tag k="place" v="locality" />
		<tag k="ssr:stedsnr" v="951249" />
	</node>
	<node id="-378008" lat="61.3765499962" lon="10.4499444425">
		<tag k="name" v="Revhaugan" />
		<tag k="natural" v="hill" />
		<tag k="place" v="locality" />
		<tag k="ssr:stedsnr" v="951068" />
	</node>
	<node id="-377494" lat="61.3409250032" lon="10.533088896">
		<tag k="fixme" v="consider natural=peak for the most distinct mountains in the district" />
		<tag k="name" v="Steinåsen" />
		<tag k="natural" v="hill" />
		<tag k="place" v="locality" />
		<tag k="ssr:stedsnr" v="179451" />
	</node>
	<node id="-377999" lat="61.4092055585" lon="10.567405563">
		<tag k="alt_name" v="Herratind" />
		<tag k="fixme" v="consider natural=peak for the most distinct mountains in the district" />
		<tag k="name" v="Heratinden" />
		<tag k="natural" v="hill" />
		<tag k="ssr:stedsnr" v="858348" />
	</node>
	<node id="-377486" lat="61.3330305597" lon="10.3431305481">
		<tag k="name" v="Fagerlidalen" />
		<tag k="natural" v="valley" />
		<tag k="place" v="locality" />
		<tag k="ssr:stedsnr" v="162342" />
	</node>
	<node id="-377996" lat="61.3097499997" lon="10.6764694369">
		<tag k="fixme" v="consider natural=peak for the most distinct mountains in the district" />
		<tag k="name" v="Brennåsen" />
		<tag k="natural" v="hill" />
		<tag k="place" v="locality" />
		<tag k="ssr:stedsnr" v="858271" />
	</node>
	<node id="-376970" lat="61.3773027798" lon="10.6613111089">
		<tag k="name" v="Gråkorphaugen" />
		<tag k="natural" v="hill" />
		<tag k="place" v="locality" />
		<tag k="ssr:stedsnr" v="676299" />
	</node>
	<node id="-377367" lat="61.3300638932" lon="10.2659999955">
		<tag k="name" v="Hujoberget" />
		<tag k="natural" v="slope" />
		<tag k="place" v="locality" />
		<tag k="ssr:stedsnr" v="41878" />
	</node>
	<node id="-376968" lat="61.321072226" lon="10.5032388918">
		<tag k="name" v="Storhaugen" />
		<tag k="natural" v="hill" />
		<tag k="place" v="locality" />
		<tag k="ssr:stedsnr" v="676280" />
	</node>
	<node id="-377622" lat="61.2135166705" lon="10.4806055476">
		<tag k="name" v="Høghaugen" />
		<tag k="natural" v="hill" />
		<tag k="place" v="locality" />
		<tag k="ssr:stedsnr" v="403300" />
	</node>
	<node id="-377474" lat="61.2664583357" lon="10.5419166729">
		<tag k="name" v="Steinmyrhaugen" />
		<tag k="natural" v="hill" />
		<tag k="place" v="locality" />
		<tag k="ssr:stedsnr" v="160292" />
	</node>
	<node id="-377985" lat="61.3172694465" lon="10.2117638947">
		<tag k="name" v="Purkeskinnet" />
		<tag k="place" v="locality" />
		<tag k="ssr:stedsnr" v="847900" />
	</node>
	<node id="-377984" lat="61.322744443" lon="10.235869443">
		<tag k="name" v="Musdalen" />
		<tag k="natural" v="valley" />
		<tag k="place" v="locality" />
		<tag k="ssr:stedsnr" v="847886" />
	</node>
	<node id="-377983" lat="61.3282805563" lon="10.23238889">
		<tag k="name" v="Høgsvea" />
		<tag k="natural" v="hill" />
		<tag k="place" v="locality" />
		<tag k="ssr:stedsnr" v="847884" />
	</node>
	<node id="-376958" lat="61.2572055533" lon="10.674730552">
		<tag k="name" v="Koltjønnlia" />
		<tag k="natural" v="slope" />
		<tag k="old_name" v="Koltjørnlia" />
		<tag k="place" v="locality" />
		<tag k="ssr:stedsnr" v="675492" />
	</node>
	<node id="-376853" lat="61.2817027796" lon="10.6490361042">
		<tag k="name" v="Storlia" />
		<tag k="natural" v="slope" />
		<tag k="place" v="locality" />
		<tag k="ssr:stedsnr" v="493268" />
	</node>
	<node id="-377466" lat="61.27238333" lon="10.6109055617">
		<tag k="name" v="Sjøsæterfjellet" />
		<tag k="natural" v="hill" />
		<tag k="place" v="locality" />
		<tag k="ssr:stedsnr" v="129494" />
	</node>
	<node id="-377484" lat="61.2664694439" lon="10.7448638813">
		<tag k="name" v="Gjæsbakken" />
		<tag k="natural" v="hill" />
		<tag k="place" v="locality" />
		<tag k="ssr:stedsnr" v="160738" />
	</node>
	<node id="-377143" lat="61.285194442" lon="10.2710583312">
		<tag k="name" v="Lindrudberget" />
		<tag k="natural" v="hill" />
		<tag k="place" v="locality" />
		<tag k="ssr:stedsnr" v="889404" />
	</node>
	<node id="-376949" lat="61.3576444435" lon="10.2130249907">
		<tag k="name" v="Slåbakkhaugen" />
		<tag k="natural" v="hill" />
		<tag k="place" v="locality" />
		<tag k="ssr:stedsnr" v="482823" />
	</node>
	<node id="-376947" lat="61.2663249967" lon="10.2849888933">
		<tag k="name" v="Blårysjhaugen" />
		<tag k="natural" v="hill" />
		<tag k="place" v="locality" />
		<tag k="ssr:stedsnr" v="479405" />
	</node>
	<node id="-377448" lat="61.3578111103" lon="10.1979972159">
		<tag k="name" v="Botterudhaugen" />
		<tag k="natural" v="hill" />
		<tag k="place" v="locality" />
		<tag k="ssr:stedsnr" v="118835" />
	</node>
	<node id="-377966" lat="61.2871611123" lon="10.3264472286">
		<tag k="name" v="Ryggberga" />
		<tag k="natural" v="ridge" />
		<tag k="place" v="locality" />
		<tag k="ssr:stedsnr" v="830490" />
	</node>
	<node id="-377452" lat="61.3337472255" lon="10.5206111195">
		<tag k="name" v="Keikslia" />
		<tag k="natural" v="slope" />
		<tag k="place" v="locality" />
		<tag k="ssr:stedsnr" v="128371" />
	</node>
	<node id="-377963" lat="61.3714166669" lon="10.3180749916">
		<tag k="name" v="Korsbekkbakken" />
		<tag k="natural" v="slope" />
		<tag k="place" v="locality" />
		<tag k="ssr:stedsnr" v="830288" />
	</node>
	<node id="-376938" lat="61.1964694419" lon="10.4621861144">
		<tag k="name" v="Skålsletta" />
		<tag k="place" v="locality" />
		<tag k="ssr:stedsnr" v="466552" />
	</node>
	<node id="-377960" lat="61.2566277773" lon="10.4286083381">
		<tag k="name" v="Jevnesletta" />
		<tag k="place" v="locality" />
		<tag k="ssr:stedsnr" v="830192" />
	</node>
	<node id="-377447" lat="61.3515166702" lon="10.1950638816">
		<tag k="name" v="Åbbortjønnhaugen" />
		<tag k="natural" v="hill" />
		<tag k="place" v="locality" />
		<tag k="ssr:stedsnr" v="118834" />
	</node>
	<node id="-377958" lat="61.3537888867" lon="10.3192611041">
		<tag k="name" v="Glømmedalen" />
		<tag k="natural" v="valley" />
		<tag k="place" v="locality" />
		<tag k="ssr:stedsnr" v="828807" />
	</node>
	<node id="-377688" lat="61.3076305573" lon="10.5622388899">
		<tag k="name" v="Storsletta" />
		<tag k="place" v="locality" />
		<tag k="ssr:stedsnr" v="524479" />
	</node>
	<node id="-376932" lat="61.2928722189" lon="10.5239694533">
		<tag k="fixme" v="consider natural=peak for the most distinct mountains in the district" />
		<tag k="name" v="Svartåsen" />
		<tag k="natural" v="hill" />
		<tag k="place" v="locality" />
		<tag k="ssr:stedsnr" v="463525" />
	</node>
	<node id="-377955" lat="61.3527027803" lon="10.4608111035">
		<tag k="fixme" v="consider natural=peak for the most distinct mountains in the district" />
		<tag k="name" v="Gravåsen" />
		<tag k="natural" v="hill" />
		<tag k="place" v="locality" />
		<tag k="ssr:stedsnr" v="828643" />
	</node>
	<node id="-376930" lat="61.31753889" lon="10.5003222195">
		<tag k="name" v="Grøtåslia" />
		<tag k="natural" v="slope" />
		<tag k="place" v="locality" />
		<tag k="ssr:stedsnr" v="665594" />
	</node>
	<node id="-377923" lat="61.37365278" lon="10.4085888865">
		<tag k="name" v="Søkkelia" />
		<tag k="natural" v="slope" />
		<tag k="place" v="locality" />
		<tag k="ssr:stedsnr" v="797295" />
	</node>
	<node id="-377826" lat="61.3996416644" lon="10.5829194392">
		<tag k="name" v="Goppollfjellet" />
		<tag k="natural" v="hill" />
		<tag k="place" v="locality" />
		<tag k="ssr:stedsnr" v="632752" />
	</node>
	<node id="-377947" lat="61.2762638879" lon="10.4488805547">
		<tag k="name" v="Geitryggen" />
		<tag k="natural" v="ridge" />
		<tag k="place" v="locality" />
		<tag k="ssr:stedsnr" v="828502" />
	</node>
	<node id="-377125" lat="61.2550388899" lon="10.6418416598">
		<tag k="name" v="Høgåsen" />
		<tag k="natural" v="hill" />
		<tag k="place" v="locality" />
		<tag k="ssr:stedsnr" v="884678" />
	</node>
	<node id="-376921" lat="61.269986109" lon="10.3049833355">
		<tag k="name" v="Djupdalen" />
		<tag k="natural" v="valley" />
		<tag k="place" v="locality" />
		<tag k="ssr:stedsnr" v="419031" />
	</node>
	<node id="-377432" lat="61.2676805516" lon="10.4481305623">
		<tag k="name" v="Mesteinsletta" />
		<tag k="place" v="locality" />
		<tag k="ssr:stedsnr" v="102315" />
	</node>
	<node id="-376919" lat="61.33383889" lon="10.4258805551">
		<tag k="name" v="Hulderhaugen" />
		<tag k="natural" v="hill" />
		<tag k="place" v="locality" />
		<tag k="ssr:stedsnr" v="405269" />
	</node>
	<node id="-377941" lat="61.4031250014" lon="10.5479750027">
		<tag k="name" v="Uksbåsen" />
		<tag k="natural" v="valley" />
		<tag k="place" v="locality" />
		<tag k="ssr:stedsnr" v="828318" />
	</node>
	<node id="-377940" lat="61.3809638885" lon="10.5169333346">
		<tag k="name" v="Buåsen" />
		<tag k="natural" v="hill" />
		<tag k="place" v="locality" />
		<tag k="ssr:stedsnr" v="828303" />
	</node>
	<node id="-376914" lat="61.2819472235" lon="10.6016194478">
		<tag k="name" v="Smilen" />
		<tag k="natural" v="slope" />
		<tag k="place" v="locality" />
		<tag k="ssr:stedsnr" v="405165" />
	</node>
	<node id="-377425" lat="61.3668499986" lon="10.4212833379">
		<tag k="name" v="Geitberget" />
		<tag k="natural" v="hill" />
		<tag k="place" v="locality" />
		<tag k="ssr:stedsnr" v="102070" />
	</node>
	<node id="-377423" lat="61.2860138885" lon="10.6928361142">
		<tag k="name" v="Gjæslia" />
		<tag k="natural" v="slope" />
		<tag k="place" v="locality" />
		<tag k="ssr:stedsnr" v="101303" />
	</node>
	<node id="-377444" lat="61.3422777757" lon="10.5919694458">
		<tag k="name" v="Modokkhaugen" />
		<tag k="natural" v="hill" />
		<tag k="place" v="locality" />
		<tag k="ssr:stedsnr" v="118395" />
	</node>
	<node id="-376909" lat="61.2666111131" lon="10.3693861146">
		<tag k="name" v="Kolsletta" />
		<tag k="place" v="locality" />
		<tag k="ssr:stedsnr" v="403411" />
	</node>
	<node id="-376907" lat="61.3763583303" lon="10.4883749947">
		<tag k="name" v="Knarkebakken" />
		<tag k="natural" v="slope" />
		<tag k="place" v="locality" />
		<tag k="ssr:stedsnr" v="403277" />
	</node>
	<node id="-377930" lat="61.4533722191" lon="10.6843583242">
		<tag k="fixme" v="consider natural=peak for the most distinct mountains in the district" />
		<tag k="name" v="Saubufjellet" />
		<tag k="natural" v="hill" />
		<tag k="place" v="locality" />
		<tag k="ssr:stedsnr" v="797333" />
	</node>
	<node id="-377929" lat="61.408777777" lon="10.4887555629">
		<tag k="alt_name" v="Tyvikampen" />
		<tag k="fixme" v="consider natural=peak for the most distinct mountains in the district" />
		<tag k="name" v="Tyvedkampen" />
		<tag k="natural" v="hill" />
		<tag k="place" v="locality" />
		<tag k="ssr:stedsnr" v="797326" />
	</node>
	<node id="-377100" lat="61.2676138884" lon="10.4450694391">
		<tag k="name" v="Fallet" />
		<tag k="natural" v="cliff" />
		<tag k="ssr:stedsnr" v="647254" />
	</node>
	<node id="-377414" lat="61.4507138909" lon="10.6340777737">
		<tag k="name" v="Veslefjellet" />
		<tag k="natural" v="hill" />
		<tag k="place" v="locality" />
		<tag k="ssr:stedsnr" v="100177" />
	</node>
	<node id="-376900" lat="61.4399111081" lon="10.6828527817">
		<tag k="name" v="Nordre Lauvsalen" />
		<tag k="place" v="locality" />
		<tag k="ssr:stedsnr" v="403172" />
	</node>
	<node id="-377411" lat="61.3899527771" lon="10.5425111104">
		<tag k="name" v="Veslefjell" />
		<tag k="natural" v="hill" />
		<tag k="place" v="locality" />
		<tag k="ssr:stedsnr" v="99340" />
	</node>
	<node id="-377410" lat="61.4474194447" lon="10.6666361097">
		<tag k="name" v="Saubulia" />
		<tag k="natural" v="slope" />
		<tag k="place" v="locality" />
		<tag k="ssr:stedsnr" v="95628" />
	</node>
	<node id="-377409" lat="61.3253333337" lon="10.494736113">
		<tag k="fixme" v="consider natural=peak for the most distinct mountains in the district" />
		<tag k="name" v="Høgåsen" />
		<tag k="natural" v="hill" />
		<tag k="place" v="locality" />
		<tag k="ssr:stedsnr" v="94761" />
	</node>
	<node id="-376895" lat="61.4309000031" lon="10.6292361188">
		<tag k="alt_name" v="Nordre Halandshøgda" />
		<tag k="name" v="Hallandshøgda" />
		<tag k="natural" v="hill" />
		<tag k="place" v="locality" />
		<tag k="ssr:stedsnr" v="372375" />
	</node>
	<node id="-377261" lat="61.2858861121" lon="10.3953416726">
		<tag k="name" v="Lånkehaugen" />
		<tag k="natural" v="hill" />
		<tag k="place" v="locality" />
		<tag k="ssr:stedsnr" v="949440" />
	</node>
	<node id="-376892" lat="61.2723749998" lon="10.6295222274">
		<tag k="fixme" v="consider natural=peak for the most distinct mountains in the district" />
		<tag k="name" v="Snauskallen" />
		<tag k="natural" v="hill" />
		<tag k="place" v="locality" />
		<tag k="ssr:stedsnr" v="371464" />
	</node>
	<node id="-377287" lat="61.4221916641" lon="10.5617222263">
		<tag k="alt_name" v="Høgtind" />
		<tag k="fixme" v="consider natural=peak for the most distinct mountains in the district" />
		<tag k="name" v="Høgtinden" />
		<tag k="natural" v="hill" />
		<tag k="ssr:stedsnr" v="919317" />
	</node>
	<node id="-377398" lat="61.4040555553" lon="10.7535027856">
		<tag k="fixme" v="consider natural=peak for the most distinct mountains in the district" />
		<tag k="name" v="Lyngkampen" />
		<tag k="natural" v="hill" />
		<tag k="place" v="locality" />
		<tag k="ssr:stedsnr" v="69455" />
	</node>
	<node id="-376881" lat="61.3299083364" lon="10.61729722">
		<tag k="alt_name" v="Åstdalssæterhøa" />
		<tag k="fixme" v="consider natural=peak for the most distinct mountains in the district" />
		<tag k="name" v="Åstdalsæterhøgda" />
		<tag k="natural" v="hill" />
		<tag k="place" v="locality" />
		<tag k="ssr:stedsnr" v="494268" />
	</node>
	<node id="-377903" lat="61.2686194471" lon="10.3218611201">
		<tag k="name" v="Svartberget" />
		<tag k="natural" v="slope" />
		<tag k="place" v="locality" />
		<tag k="ssr:stedsnr" v="783030" />
	</node>
	<node id="-376936" lat="61.2595027822" lon="10.634502783">
		<tag k="fixme" v="consider natural=peak for the most distinct mountains in the district" />
		<tag k="name" v="Vesleåsen" />
		<tag k="natural" v="hill" />
		<tag k="place" v="locality" />
		<tag k="ssr:stedsnr" v="466510" />
	</node>
	<node id="-377181" lat="61.2278805583" lon="10.505419437">
		<tag k="fixme" v="consider natural=peak for the most distinct mountains in the district" />
		<tag k="name" v="Kringleåsen" />
		<tag k="natural" v="hill" />
		<tag k="place" v="locality" />
		<tag k="ssr:stedsnr" v="767314" />
	</node>
	<node id="-377900" lat="61.1851750009" lon="10.4196250076">
		<tag k="name" v="Sveabakken" />
		<tag k="natural" v="slope" />
		<tag k="place" v="locality" />
		<tag k="ssr:stedsnr" v="769570" />
	</node>
	<node id="-376587" lat="61.3238583351" lon="10.3022722295">
		<tag k="name" v="Langberga" />
		<tag k="natural" v="cliff" />
		<tag k="ssr:stedsnr" v="221300" />
	</node>
	<node id="-377898" lat="61.2824527747" lon="10.2489861086">
		<tag k="name" v="Sæterhaugen" />
		<tag k="natural" v="hill" />
		<tag k="place" v="locality" />
		<tag k="ssr:stedsnr" v="769421" />
	</node>
	<node id="-377095" lat="61.3653472255" lon="10.4059305596">
		<tag k="name" v="Flatsæterberget" />
		<tag k="natural" v="hill" />
		<tag k="place" v="locality" />
		<tag k="ssr:stedsnr" v="647145" />
	</node>
	<node id="-377894" lat="61.3427222195" lon="10.6076000019">
		<tag k="name" v="Falkberget" />
		<tag k="natural" v="hill" />
		<tag k="place" v="locality" />
		<tag k="ssr:stedsnr" v="769159" />
	</node>
	<node id="-377892" lat="61.2689305581" lon="10.5202722207">
		<tag k="name" v="Lunnhuslykkja" />
		<tag k="place" v="locality" />
		<tag k="ssr:stedsnr" v="767836" />
	</node>
	<node id="-377888" lat="61.2651333361" lon="10.5799138871">
		<tag k="fixme" v="consider natural=peak for the most distinct mountains in the district" />
		<tag k="name" v="Hemåsen" />
		<tag k="natural" v="hill" />
		<tag k="place" v="locality" />
		<tag k="ssr:stedsnr" v="767625" />
	</node>
	<node id="-377008" lat="61.372358333" lon="10.3601027745">
		<tag k="name" v="Skistulen" />
		<tag k="place" v="locality" />
		<tag k="ssr:stedsnr" v="701646" />
	</node>
	<node id="-377886" lat="61.3096333303" lon="10.4563416576">
		<tag k="name" v="Bokketjønnbakken" />
		<tag k="natural" v="hill" />
		<tag k="place" v="locality" />
		<tag k="ssr:stedsnr" v="767773" />
	</node>
	<node id="-377157" lat="61.378461111" lon="10.303513882">
		<tag k="name" v="Sagdalen" />
		<tag k="natural" v="valley" />
		<tag k="place" v="locality" />
		<tag k="ssr:stedsnr" v="891345" />
	</node>
	<node id="-377775" lat="61.3494916695" lon="10.6620444485">
		<tag k="name" v="Skjønsbergslåa" />
		<tag k="natural" v="valley" />
		<tag k="place" v="locality" />
		<tag k="ssr:stedsnr" v="587183" />
	</node>
	<node id="-377879" lat="61.4003444436" lon="10.4480694528">
		<tag k="name" v="Knappslåa" />
		<tag k="natural" v="valley" />
		<tag k="place" v="locality" />
		<tag k="ssr:stedsnr" v="767555" />
	</node>
	<node id="-377433" lat="61.3742722199" lon="10.3219194467">
		<tag k="name" v="Setolbakken" />
		<tag k="natural" v="slope" />
		<tag k="place" v="locality" />
		<tag k="ssr:stedsnr" v="102368" />
	</node>
	<node id="-376902" lat="61.2243027802" lon="10.5667666606">
		<tag k="name" v="Saltbakken" />
		<tag k="natural" v="slope" />
		<tag k="place" v="locality" />
		<tag k="ssr:stedsnr" v="403312" />
	</node>
	<node id="-377362" lat="61.3558222192" lon="10.6082361202">
		<tag k="name" v="Knapptjønnhaugan" />
		<tag k="natural" v="hill" />
		<tag k="place" v="locality" />
		<tag k="ssr:stedsnr" v="41175" />
	</node>
	<node id="-377360" lat="61.1908527746" lon="10.4142250009">
		<tag k="name" v="Ensbybergan" />
		<tag k="natural" v="ridge" />
		<tag k="place" v="locality" />
		<tag k="ssr:stedsnr" v="40633" />
	</node>
	<node id="-377871" lat="61.3060611105" lon="10.5975444372">
		<tag k="name" v="Brandskjønnhaugen" />
		<tag k="natural" v="hill" />
		<tag k="place" v="locality" />
		<tag k="ssr:stedsnr" v="762698" />
	</node>
	<node id="-376846" lat="61.3138111079" lon="10.2840944462">
		<tag k="name" v="Høgberget" />
		<tag k="place" v="locality" />
		<tag k="ssr:stedsnr" v="361555" />
	</node>
	<node id="-377869" lat="61.3524527804" lon="10.342952786">
		<tag k="name" v="Karihaugen" />
		<tag k="natural" v="hill" />
		<tag k="place" v="locality" />
		<tag k="ssr:stedsnr" v="761775" />
	</node>
	<node id="-377356" lat="61.30575" lon="10.5515583307">
		<tag k="name" v="Tråppberget" />
		<tag k="natural" v="hill" />
		<tag k="place" v="locality" />
		<tag k="ssr:stedsnr" v="39488" />
	</node>
	<node id="-377866" lat="61.2966722189" lon="10.5631305563">
		<tag k="fixme" v="consider natural=peak for the most distinct mountains in the district" />
		<tag k="name" v="Høgåsen" />
		<tag k="natural" v="hill" />
		<tag k="place" v="locality" />
		<tag k="ssr:stedsnr" v="738781" />
	</node>
	<node id="-376841" lat="61.2851888882" lon="10.368458324">
		<tag k="name" v="Velteberga" />
		<tag k="natural" v="cliff" />
		<tag k="ssr:stedsnr" v="344617" />
	</node>
	<node id="-377772" lat="61.3704500005" lon="10.43503055">
		<tag k="name" v="Hestskobakken" />
		<tag k="natural" v="slope" />
		<tag k="place" v="locality" />
		<tag k="ssr:stedsnr" v="587078" />
	</node>
	<node id="-377862" lat="61.3622138845" lon="10.3283333344">
		<tag k="alt_name" v="Haugan" />
		<tag k="name" v="Vangsberget" />
		<tag k="natural" v="hill" />
		<tag k="place" v="locality" />
		<tag k="ssr:stedsnr" v="736979" />
	</node>
	<node id="-377348" lat="61.3680277746" lon="10.5641277729">
		<tag k="name" v="Grotjønnhaugen" />
		<tag k="natural" v="hill" />
		<tag k="place" v="locality" />
		<tag k="ssr:stedsnr" v="39240" />
	</node>
	<node id="-376833" lat="61.3468972179" lon="10.4926972218">
		<tag k="name" v="Kåmmårhaugen" />
		<tag k="natural" v="hill" />
		<tag k="place" v="locality" />
		<tag k="ssr:stedsnr" v="300469" />
	</node>
</osm>
