<?xml version="1.0" encoding="UTF-8"?>
<<<<<<< HEAD
<osm version="0.6" generator="osmapis">
	<node lat="61.43920000328405" lon="10.680424998509936" id="-32905">
		<tag k="highway" v="path" />
		<tag k="name" v="Ståkåvegen" />
		<tag k="ssr:stedsnr" v="9333" />
	</node>
	<node lat="61.34585833101872" lon="10.421997223511065" id="-32911">
		<tag k="ford" v="yes" />
		<tag k="name" v="Måråbeitvadet" />
		<tag k="place" v="locality" />
		<tag k="ssr:stedsnr" v="39610" />
	</node>
	<node lat="61.354905554453545" lon="10.44700000636031" id="-32912">
		<tag k="ford" v="yes" />
		<tag k="name" v="Vakkeråsvadet" />
		<tag k="place" v="locality" />
		<tag k="ssr:stedsnr" v="39616" />
	</node>
	<node lat="61.25451944620574" lon="10.434727784123634" id="-32927">
		<tag k="alt_name" v="Søndre Bryn" />
=======
<osm generator="osmapis" version="0.6">
	<node id="-378368" lat="61.2908305525" lon="10.4291527731">
		<tag k="junction" v="yes" />
		<tag k="name" v="Korsbakken" />
		<tag k="place" v="locality" />
		<tag k="ssr:stedsnr" v="250262" />
	</node>
	<node id="-378366" lat="61.2540833375" lon="10.4329638944">
		<tag k="alt_name" v="Søndre Brynså" />
		<tag k="bridge" v="yes" />
		<tag k="layer" v="1" />
		<tag k="name" v="Søre Brynså" />
		<tag k="ssr:stedsnr" v="228014" />
	</node>
	<node id="-378365" lat="61.2746277791" lon="10.3929805639">
		<tag k="bridge" v="yes" />
		<tag k="layer" v="1" />
		<tag k="name" v="Kramperud" />
		<tag k="ssr:stedsnr" v="228002" />
	</node>
	<node id="-378364" lat="61.2044388931" lon="10.4464361041">
		<tag k="ford" v="yes" />
		<tag k="name" v="Nedre vadet" />
		<tag k="place" v="locality" />
		<tag k="ssr:stedsnr" v="223575" />
	</node>
	<node id="-378875" lat="61.2619749977" lon="10.6063833297">
		<tag k="junction" v="yes" />
		<tag k="name" v="Sjøsæterkrysset" />
		<tag k="place" v="locality" />
		<tag k="ssr:stedsnr" v="951512" />
	</node>
	<node id="-378349" lat="61.242624999" lon="10.4363999995">
		<tag k="bridge" v="yes" />
		<tag k="layer" v="1" />
		<tag k="name" v="Granrud" />
		<tag k="ssr:stedsnr" v="289001" />
	</node>
	<node id="-378344" lat="61.1923194431" lon="10.4395361173">
		<tag k="highway" v="path" />
		<tag k="name" v="Turthaugvegen" />
		<tag k="ssr:stedsnr" v="284579" />
	</node>
	<node id="-378339" lat="61.2624972235" lon="10.4507638935">
		<tag k="highway" v="path" />
		<tag k="name" v="Vammen" />
		<tag k="ssr:stedsnr" v="284273" />
	</node>
	<node id="-378839" lat="61.2570638867" lon="10.413488894">
		<tag k="highway" v="path" />
		<tag k="name" v="Skogsbakken" />
		<tag k="ssr:stedsnr" v="888404" />
	</node>
	<node id="-378325" lat="61.2894833334" lon="10.8080500064">
		<tag k="junction" v="yes" />
		<tag k="name" v="Kaldholsæterkrysset" />
		<tag k="place" v="locality" />
		<tag k="ssr:stedsnr" v="282737" />
	</node>
	<node id="-379348" lat="61.2486027733" lon="10.4586416751">
		<tag k="junction" v="yes" />
		<tag k="name" v="Molbosmoget" />
		<tag k="place" v="locality" />
		<tag k="ssr:stedsnr" v="587786" />
	</node>
	<node id="-379335" lat="61.2449194429" lon="10.5322694396">
		<tag k="highway" v="path" />
		<tag k="name" v="Hitråket" />
		<tag k="ssr:stedsnr" v="585597" />
	</node>
	<node id="-378309" lat="61.3896277801" lon="10.5770222261">
		<tag k="highway" v="path" />
		<tag k="name" v="Tauterråket" />
		<tag k="ssr:stedsnr" v="282308" />
	</node>
	<node id="-378304" lat="61.2324277769" lon="10.4430861057">
		<tag k="bridge" v="yes" />
		<tag k="layer" v="1" />
		<tag k="name" v="Mo" />
		<tag k="ssr:stedsnr" v="168005" />
	</node>
	<node id="-378303" lat="61.240361109" lon="10.4292277779">
		<tag k="bridge" v="yes" />
		<tag k="layer" v="1" />
		<tag k="name" v="Granrudmoen" />
		<tag k="ssr:stedsnr" v="168004" />
	</node>
	<node id="-378291" lat="61.2637555596" lon="10.5847861147">
		<tag k="junction" v="yes" />
		<tag k="name" v="Liendkrysset" />
		<tag k="place" v="locality" />
		<tag k="ssr:stedsnr" v="160578" />
	</node>
	<node id="-378799" lat="61.3693583355" lon="10.2828888842">
		<tag k="bridge" v="yes" />
		<tag k="layer" v="1" />
		<tag k="name" v="Rola" />
		<tag k="ssr:stedsnr" v="835024" />
	</node>
	<node id="-378798" lat="61.2564972185" lon="10.4266361065">
		<tag k="bridge" v="yes" />
		<tag k="layer" v="1" />
		<tag k="name" v="Brynså nordre" />
		<tag k="ssr:stedsnr" v="835014" />
	</node>
	<node id="-378275" lat="61.276141663" lon="10.442886115">
		<tag k="fixme" v="consider highway=path" />
		<tag k="highway" v="track" />
		<tag k="name" v="Nedre Slettvegen" />
		<tag k="ssr:stedsnr" v="100510" />
	</node>
	<node id="-378270" lat="61.2984333339" lon="10.4097500019">
		<tag k="highway" v="path" />
		<tag k="name" v="Rotvegen" />
		<tag k="ssr:stedsnr" v="99820" />
	</node>
	<node id="-379287" lat="61.3364916687" lon="10.2446722204">
		<tag k="highway" v="path" />
		<tag k="name" v="Brattråket" />
		<tag k="ssr:stedsnr" v="526879" />
	</node>
	<node id="-378764" lat="61.3117222218" lon="10.3025111095">
>>>>>>> e1d4bc35ff8a6074a6f2e91616a996b547c36f15
		<tag k="bridge" v="yes" />
		<tag k="layer" v="1" />
		<tag k="name" v="Søre Bryn" />
		<tag k="ssr:stedsnr" v="46008" />
	</node>
	<node lat="61.27730833273356" lon="10.386927778213337" id="-32928">
		<tag k="bridge" v="yes" />
		<tag k="layer" v="1" />
		<tag k="name" v="Blomberg" />
		<tag k="ssr:stedsnr" v="46009" />
	</node>
	<node lat="61.25834167029819" lon="10.442127775115752" id="-32929">
		<tag k="alt_name" v="Søndre Brynså" />
		<tag k="bridge" v="yes" />
		<tag k="layer" v="1" />
		<tag k="name" v="Søre Brynså" />
		<tag k="ssr:stedsnr" v="46010" />
	</node>
	<node lat="61.31218332965159" lon="10.299241675843867" id="-32930">
		<tag k="bridge" v="yes" />
		<tag k="layer" v="1" />
		<tag k="name" v="Tretten" />
		<tag k="ssr:stedsnr" v="46022" />
	</node>
<<<<<<< HEAD
	<node lat="61.32050278005408" lon="10.559366659761485" id="-32932">
=======
	<node id="-379270" lat="61.2747138882" lon="10.4443888979">
>>>>>>> e1d4bc35ff8a6074a6f2e91616a996b547c36f15
		<tag k="highway" v="path" />
		<tag k="name" v="Brettdalsråket" />
		<tag k="ssr:stedsnr" v="58588" />
	</node>
<<<<<<< HEAD
	<node lat="61.27614166301268" lon="10.442886114959935" id="-32969">
		<tag k="fixme" v="consider highway=path" />
		<tag k="highway" v="track" />
		<tag k="name" v="Nedre Slettvegen" />
		<tag k="ssr:stedsnr" v="100510" />
	</node>
	<node lat="61.25243055895817" lon="10.527044451788646" id="-32970">
=======
	<node id="-379258" lat="61.3916027796" lon="10.4545555488">
>>>>>>> e1d4bc35ff8a6074a6f2e91616a996b547c36f15
		<tag k="highway" v="path" />
		<tag k="name" v="Vintervegen" />
		<tag k="ssr:stedsnr" v="100607" />
	</node>
<<<<<<< HEAD
	<node lat="61.20796944802905" lon="10.433680559766078" id="-32976">
=======
	<node id="-378744" lat="61.3255305531" lon="10.2935611093">
>>>>>>> e1d4bc35ff8a6074a6f2e91616a996b547c36f15
		<tag k="junction" v="yes" />
		<tag k="name" v="Bruvoll" />
		<tag k="place" v="locality" />
		<tag k="ssr:stedsnr" v="102611" />
	</node>
	<node lat="61.207494446146356" lon="10.429863895138759" id="-32978">
		<tag k="bridge" v="yes" />
		<tag k="layer" v="1" />
		<tag k="name" v="Sagåa" />
		<tag k="ssr:stedsnr" v="107022" />
	</node>
<<<<<<< HEAD
	<node lat="61.36213611354521" lon="10.306274992099096" id="-32979">
		<tag k="bridge" v="yes" />
		<tag k="layer" v="1" />
		<tag k="name" v="Vedum" />
		<tag k="ssr:stedsnr" v="107027" />
	</node>
	<node lat="61.29083055249347" lon="10.42915277308239" id="-32987">
=======
	<node id="-378743" lat="61.2786861147" lon="10.7612138828">
>>>>>>> e1d4bc35ff8a6074a6f2e91616a996b547c36f15
		<tag k="junction" v="yes" />
		<tag k="name" v="Korsbakken" />
		<tag k="place" v="locality" />
		<tag k="ssr:stedsnr" v="250262" />
	</node>
<<<<<<< HEAD
	<node lat="61.240361108968905" lon="10.42922777788275" id="-33038">
=======
	<node id="-378734" lat="61.3631611089" lon="10.2573833373">
>>>>>>> e1d4bc35ff8a6074a6f2e91616a996b547c36f15
		<tag k="bridge" v="yes" />
		<tag k="layer" v="1" />
		<tag k="name" v="Granrudmoen" />
		<tag k="ssr:stedsnr" v="168004" />
	</node>
<<<<<<< HEAD
	<node lat="61.23242777694834" lon="10.44308610574934" id="-33039">
=======
	<node id="-379453" lat="61.2693000035" lon="10.3780611143">
		<tag k="fixme" v="consider highway=path" />
		<tag k="highway" v="track" />
		<tag k="name" v="Krokkleiva" />
		<tag k="ssr:stedsnr" v="767424" />
	</node>
	<node id="-378732" lat="61.2613055542" lon="10.433275008">
>>>>>>> e1d4bc35ff8a6074a6f2e91616a996b547c36f15
		<tag k="bridge" v="yes" />
		<tag k="layer" v="1" />
		<tag k="name" v="Mo" />
		<tag k="ssr:stedsnr" v="168005" />
	</node>
<<<<<<< HEAD
	<node lat="61.27868611471174" lon="10.76121388282808" id="-33064">
		<tag k="junction" v="yes" />
		<tag k="name" v="Korsen" />
=======
	<node id="-378208" lat="61.3549055545" lon="10.4470000064">
		<tag k="ford" v="yes" />
		<tag k="name" v="Vakkeråsvadet" />
>>>>>>> e1d4bc35ff8a6074a6f2e91616a996b547c36f15
		<tag k="place" v="locality" />
		<tag k="ssr:stedsnr" v="216686" />
	</node>
<<<<<<< HEAD
	<node lat="61.27462777914476" lon="10.392980563895366" id="-33087">
		<tag k="bridge" v="yes" />
		<tag k="layer" v="1" />
		<tag k="name" v="Kramperud" />
		<tag k="ssr:stedsnr" v="228002" />
	</node>
	<node lat="61.38962778005949" lon="10.577022226130047" id="-33099">
		<tag k="highway" v="path" />
		<tag k="name" v="Tauterråket" />
		<tag k="ssr:stedsnr" v="282308" />
	</node>
	<node lat="61.26249722354135" lon="10.45076389346447" id="-33111">
		<tag k="highway" v="path" />
		<tag k="name" v="Vammen" />
		<tag k="ssr:stedsnr" v="284273" />
	</node>
	<node lat="61.19231944308971" lon="10.439536117263353" id="-33115">
		<tag k="highway" v="path" />
		<tag k="name" v="Turthaugvegen" />
		<tag k="ssr:stedsnr" v="284579" />
	</node>
	<node lat="61.36859444788346" lon="10.680794447773033" id="-33140">
=======
	<node id="-378207" lat="61.345858331" lon="10.4219972235">
		<tag k="ford" v="yes" />
		<tag k="name" v="Måråbeitvadet" />
		<tag k="place" v="locality" />
		<tag k="ssr:stedsnr" v="39610" />
	</node>
	<node id="-378203" lat="61.2136083305" lon="10.49524444">
		<tag k="name" v="Vintersletta" />
		<tag k="place" v="locality" />
		<tag k="ssr:stedsnr" v="39271" />
	</node>
	<node id="-378714" lat="61.278338892" lon="10.4431194487">
		<tag k="fixme" v="consider highway=path" />
		<tag k="highway" v="track" />
		<tag k="name" v="Øvre Slettvegen" />
		<tag k="ssr:stedsnr" v="889516" />
	</node>
	<node id="-378702" lat="61.3126194465" lon="10.4364944409">
>>>>>>> e1d4bc35ff8a6074a6f2e91616a996b547c36f15
		<tag k="ford" v="yes" />
		<tag k="name" v="Sandbakkvadet" />
		<tag k="place" v="locality" />
		<tag k="ssr:stedsnr" v="311373" />
	</node>
	<node lat="61.21991110690137" lon="10.508113891771707" id="-33161">
		<tag k="name" v="Lunnstaden" />
		<tag k="place" v="locality" />
		<tag k="ssr:stedsnr" v="342298" />
	</node>
<<<<<<< HEAD
	<node lat="61.252494444904734" lon="10.435433335197585" id="-33176">
=======
	<node id="-379213" lat="61.2759361128" lon="10.3901916682">
>>>>>>> e1d4bc35ff8a6074a6f2e91616a996b547c36f15
		<tag k="bridge" v="yes" />
		<tag k="layer" v="1" />
		<tag k="name" v="Langvik" />
		<tag k="ssr:stedsnr" v="350003" />
	</node>
	<node lat="61.32363055467741" lon="10.585361107841923" id="-33185">
		<tag k="highway" v="path" />
		<tag k="name" v="Akksjøsæterråket" />
		<tag k="ssr:stedsnr" v="482580" />
	</node>
<<<<<<< HEAD
	<node lat="61.32130277458845" lon="10.289847221575691" id="-33199">
=======
	<node id="-379212" lat="61.3116666707" lon="10.3019388827">
>>>>>>> e1d4bc35ff8a6074a6f2e91616a996b547c36f15
		<tag k="bridge" v="yes" />
		<tag k="layer" v="1" />
		<tag k="name" v="Bådstø" />
		<tag k="ssr:stedsnr" v="410002" />
	</node>
<<<<<<< HEAD
	<node lat="61.303158336323555" lon="10.302486118825845" id="-33200">
=======
	<node id="-379211" lat="61.3031583363" lon="10.3024861188">
>>>>>>> e1d4bc35ff8a6074a6f2e91616a996b547c36f15
		<tag k="bridge" v="yes" />
		<tag k="layer" v="1" />
		<tag k="name" v="Holmen" />
		<tag k="ssr:stedsnr" v="410003" />
	</node>
<<<<<<< HEAD
	<node lat="61.31166667066378" lon="10.301938882678442" id="-33201">
=======
	<node id="-379210" lat="61.3213027746" lon="10.2898472216">
>>>>>>> e1d4bc35ff8a6074a6f2e91616a996b547c36f15
		<tag k="bridge" v="yes" />
		<tag k="layer" v="1" />
		<tag k="name" v="Mobekk" />
		<tag k="ssr:stedsnr" v="410006" />
	</node>
<<<<<<< HEAD
	<node lat="61.217786109296526" lon="10.50562778364305" id="-33244">
		<tag k="junction" v="yes" />
		<tag k="name" v="Vesleslåa" />
		<tag k="place" v="locality" />
		<tag k="ssr:stedsnr" v="464305" />
	</node>
	<node lat="61.315286106743436" lon="10.29765555229089" id="-33260">
=======
	<node id="-379008" lat="61.2074944461" lon="10.4298638951">
		<tag k="bridge" v="yes" />
		<tag k="layer" v="1" />
		<tag k="name" v="Sagåa" />
		<tag k="ssr:stedsnr" v="107022" />
	</node>
	<node id="-378154" lat="61.2185111116" lon="10.5131111126">
		<tag k="name" v="Nordre Lunnstaden" />
		<tag k="place" v="locality" />
		<tag k="ssr:stedsnr" v="221297" />
	</node>
	<node id="-379164" lat="61.1922777765" lon="10.4144805571">
		<tag k="bridge" v="yes" />
		<tag k="layer" v="1" />
		<tag k="name" v="Ensbymoen" />
		<tag k="ssr:stedsnr" v="350001" />
	</node>
	<node id="-379163" lat="61.2354333296" lon="10.4450194455">
>>>>>>> e1d4bc35ff8a6074a6f2e91616a996b547c36f15
		<tag k="bridge" v="yes" />
		<tag k="layer" v="1" />
		<tag k="name" v="Moksa" />
		<tag k="ssr:stedsnr" v="471004" />
	</node>
<<<<<<< HEAD
	<node lat="61.19982222012387" lon="10.41921666733636" id="-33261">
		<tag k="bridge" v="yes" />
		<tag k="layer" v="1" />
		<tag k="name" v="Andersstuen" />
		<tag k="ssr:stedsnr" v="471006" />
	</node>
	<node lat="61.29757500147308" lon="10.4032027818683" id="-33262">
		<tag k="bridge" v="yes" />
		<tag k="layer" v="1" />
		<tag k="name" v="Skådenå" />
		<tag k="ssr:stedsnr" v="471021" />
	</node>
	<node lat="61.33649166872383" lon="10.244672220380938" id="-33320">
		<tag k="highway" v="path" />
		<tag k="name" v="Brattråket" />
		<tag k="ssr:stedsnr" v="526879" />
	</node>
	<node lat="61.24491944292698" lon="10.532269439550202" id="-33355">
		<tag k="highway" v="path" />
		<tag k="name" v="Hitråket" />
		<tag k="ssr:stedsnr" v="585597" />
	</node>
	<node lat="61.20656666777181" lon="10.431936117822696" id="-33362">
=======
	<node id="-379162" lat="61.2941611085" lon="10.2716194385">
		<tag k="bridge" v="yes" />
		<tag k="layer" v="1" />
		<tag k="name" v="Musa" />
		<tag k="ssr:stedsnr" v="349031" />
	</node>
	<node id="-379161" lat="61.3220527752" lon="10.2621444473">
		<tag k="fixme" v="consider highway=path" />
		<tag k="highway" v="track" />
		<tag k="name" v="Trolldalsvegen" />
		<tag k="ssr:stedsnr" v="344941" />
	</node>
	<node id="-379156" lat="61.2228444417" lon="10.444319451">
		<tag k="name" v="Brettingen" />
		<tag k="place" v="locality" />
		<tag k="ssr:stedsnr" v="344630" />
	</node>
	<node id="-378641" lat="61.2960527748" lon="10.4132444511">
		<tag k="junction" v="yes" />
		<tag k="name" v="Båsen" />
		<tag k="place" v="locality" />
		<tag k="ssr:stedsnr" v="716624" />
	</node>
	<node id="-378639" lat="61.2325749973" lon="10.4429166609">
>>>>>>> e1d4bc35ff8a6074a6f2e91616a996b547c36f15
		<tag k="bridge" v="yes" />
		<tag k="layer" v="1" />
		<tag k="name" v="Midtskog" />
		<tag k="ssr:stedsnr" v="592004" />
	</node>
<<<<<<< HEAD
	<node lat="61.35917777360067" lon="10.287588879535905" id="-33363">
=======
	<node id="-378638" lat="61.3591777736" lon="10.2875888795">
>>>>>>> e1d4bc35ff8a6074a6f2e91616a996b547c36f15
		<tag k="bridge" v="yes" />
		<tag k="layer" v="1" />
		<tag k="name" v="Ledum" />
		<tag k="ssr:stedsnr" v="592005" />
	</node>
<<<<<<< HEAD
	<node lat="61.232574997329124" lon="10.442916660923625" id="-33364">
=======
	<node id="-378637" lat="61.2065666678" lon="10.4319361178">
>>>>>>> e1d4bc35ff8a6074a6f2e91616a996b547c36f15
		<tag k="bridge" v="yes" />
		<tag k="layer" v="1" />
		<tag k="name" v="Mo" />
		<tag k="ssr:stedsnr" v="592007" />
	</node>
<<<<<<< HEAD
	<node lat="61.33577778100366" lon="10.299738882507528" id="-33395">
		<tag k="alt_name" v="Tårstadkrysset" />
		<tag k="junction" v="yes" />
		<tag k="name" v="Torstadkrysset" />
=======
	<node id="-378623" lat="61.2992472214" lon="10.7543944424">
		<tag k="ford" v="yes" />
		<tag k="name" v="Lisvadet" />
>>>>>>> e1d4bc35ff8a6074a6f2e91616a996b547c36f15
		<tag k="place" v="locality" />
		<tag k="ssr:stedsnr" v="645295" />
	</node>
<<<<<<< HEAD
	<node lat="61.34938332912649" lon="10.430138887524054" id="-33406">
		<tag k="ford" v="yes" />
		<tag k="name" v="Syddvadet" />
=======
	<node id="-379134" lat="61.2199111069" lon="10.5081138918">
		<tag k="name" v="Lunnstaden" />
>>>>>>> e1d4bc35ff8a6074a6f2e91616a996b547c36f15
		<tag k="place" v="locality" />
		<tag k="ssr:stedsnr" v="706646" />
	</node>
<<<<<<< HEAD
	<node lat="61.19138333544587" lon="10.433930561764585" id="-33413">
		<tag k="name" v="Hågåhjørnet" />
=======
	<node id="-378608" lat="61.2735833303" lon="10.4585694376">
		<tag k="name" v="Storlunnen" />
>>>>>>> e1d4bc35ff8a6074a6f2e91616a996b547c36f15
		<tag k="place" v="locality" />
		<tag k="ssr:stedsnr" v="647583" />
	</node>
<<<<<<< HEAD
	<node lat="61.24815277421706" lon="10.77372500486236" id="-33417">
=======
	<node id="-378603" lat="61.2481527742" lon="10.7737250049">
>>>>>>> e1d4bc35ff8a6074a6f2e91616a996b547c36f15
		<tag k="highway" v="path" />
		<tag k="name" v="Torevegen" />
		<tag k="ssr:stedsnr" v="707771" />
	</node>
<<<<<<< HEAD
	<node lat="61.273583330329686" lon="10.458569437649667" id="-33428">
		<tag k="name" v="Storlunnen" />
=======
	<node id="-379112" lat="61.3685944479" lon="10.6807944478">
		<tag k="ford" v="yes" />
		<tag k="name" v="Sandbakkvadet" />
>>>>>>> e1d4bc35ff8a6074a6f2e91616a996b547c36f15
		<tag k="place" v="locality" />
		<tag k="ssr:stedsnr" v="708242" />
	</node>
<<<<<<< HEAD
	<node lat="61.29924722139452" lon="10.754394442425966" id="-33481">
=======
	<node id="-378587" lat="61.3493833291" lon="10.4301388875">
>>>>>>> e1d4bc35ff8a6074a6f2e91616a996b547c36f15
		<tag k="ford" v="yes" />
		<tag k="name" v="Lisvadet" />
		<tag k="place" v="locality" />
<<<<<<< HEAD
		<tag k="ssr:stedsnr" v="708807" />
	</node>
	<node lat="61.261305554198145" lon="10.43327500797891" id="-33484">
=======
		<tag k="ssr:stedsnr" v="706646" />
	</node>
	<node id="-378566" lat="61.2725444402" lon="10.4457805591">
		<tag k="highway" v="path" />
		<tag k="name" v="Kalvløypet" />
		<tag k="ssr:stedsnr" v="525031" />
	</node>
	<node id="-379583" lat="61.3187888882" lon="10.2993555571">
		<tag k="alt_name" v="Søndre Stav" />
>>>>>>> e1d4bc35ff8a6074a6f2e91616a996b547c36f15
		<tag k="bridge" v="yes" />
		<tag k="layer" v="1" />
		<tag k="name" v="Brynså nordre" />
		<tag k="ssr:stedsnr" v="714016" />
	</node>
<<<<<<< HEAD
	<node lat="61.29605277479739" lon="10.413244451067559" id="-33488">
		<tag k="junction" v="yes" />
		<tag k="name" v="Båsen" />
		<tag k="place" v="locality" />
		<tag k="ssr:stedsnr" v="716624" />
	</node>
	<node lat="61.30102221877561" lon="10.443730554750125" id="-33518">
		<tag k="amenity" v="parking" />
		<tag k="name" v="Lunninga" />
		<tag k="ssr:stedsnr" v="767792" />
	</node>
	<node lat="61.31172222180045" lon="10.302511109548714" id="-33528">
		<tag k="bridge" v="yes" />
		<tag k="layer" v="1" />
		<tag k="name" v="Mobekk" />
		<tag k="ssr:stedsnr" v="774007" />
	</node>
	<node lat="61.3354333353129" lon="10.764380553263633" id="-33580">
=======
	<node id="-379582" lat="61.2583722261" lon="10.4289027837">
		<tag k="bridge" v="yes" />
		<tag k="layer" v="1" />
		<tag k="name" v="Bryn nordre" />
		<tag k="ssr:stedsnr" v="957010" />
	</node>
	<node id="-379059" lat="61.2218583365" lon="10.4448972265">
		<tag k="bridge" v="yes" />
		<tag k="layer" v="1" />
		<tag k="name" v="Fossegården" />
		<tag k="ssr:stedsnr" v="168001" />
	</node>
	<node id="-379057" lat="61.3242083345" lon="10.7504444513">
		<tag k="highway" v="path" />
		<tag k="name" v="Kaldholsæterråket" />
		<tag k="ssr:stedsnr" v="162831" />
	</node>
	<node id="-379554" lat="61.3088111131" lon="10.5069472292">
		<tag k="highway" v="path" />
		<tag k="name" v="Vedemsliråket" />
		<tag k="ssr:stedsnr" v="848556" />
	</node>
	<node id="-379541" lat="61.3354333353" lon="10.7643805533">
>>>>>>> e1d4bc35ff8a6074a6f2e91616a996b547c36f15
		<tag k="highway" v="path" />
		<tag k="name" v="Lyngtjønnråket" />
		<tag k="ssr:stedsnr" v="830823" />
	</node>
<<<<<<< HEAD
	<node lat="61.25706388665882" lon="10.413488894011115" id="-33609">
		<tag k="highway" v="path" />
		<tag k="name" v="Skogsbakken" />
		<tag k="ssr:stedsnr" v="888404" />
	</node>
	<node lat="61.278338891985335" lon="10.44311944868704" id="-33611">
		<tag k="fixme" v="consider highway=path" />
		<tag k="highway" v="track" />
		<tag k="name" v="Øvre Slettvegen" />
		<tag k="ssr:stedsnr" v="889516" />
	</node>
	<node lat="61.36316110893151" lon="10.257383337309163" id="-33616">
		<tag k="bridge" v="yes" />
		<tag k="layer" v="1" />
		<tag k="name" v="Botterudåa" />
		<tag k="ssr:stedsnr" v="896009" />
	</node>
	<node lat="61.2619749977402" lon="10.606383329676406" id="-33648">
=======
	<node id="-378512" lat="61.2975750015" lon="10.4032027819">
		<tag k="bridge" v="yes" />
		<tag k="layer" v="1" />
		<tag k="name" v="Skådenå" />
		<tag k="ssr:stedsnr" v="471021" />
	</node>
	<node id="-378511" lat="61.1998222201" lon="10.4192166673">
		<tag k="bridge" v="yes" />
		<tag k="layer" v="1" />
		<tag k="name" v="Andersstuen" />
		<tag k="ssr:stedsnr" v="471006" />
	</node>
	<node id="-378510" lat="61.3152861067" lon="10.2976555523">
		<tag k="bridge" v="yes" />
		<tag k="layer" v="1" />
		<tag k="name" v="Moksa" />
		<tag k="ssr:stedsnr" v="471004" />
	</node>
	<node id="-379529" lat="61.2740416638" lon="10.4551583305">
		<tag k="name" v="Steinskålen" />
		<tag k="place" v="locality" />
		<tag k="ssr:stedsnr" v="830208" />
	</node>
	<node id="-378501" lat="61.2177861093" lon="10.5056277836">
>>>>>>> e1d4bc35ff8a6074a6f2e91616a996b547c36f15
		<tag k="junction" v="yes" />
		<tag k="name" v="Sjøsæterkrysset" />
		<tag k="place" v="locality" />
<<<<<<< HEAD
		<tag k="ssr:stedsnr" v="951512" />
	</node>
	<node lat="61.258372226090536" lon="10.42890278372142" id="-33653">
=======
		<tag k="ssr:stedsnr" v="464305" />
	</node>
	<node id="-379524" lat="61.297697218" lon="10.7934000019">
		<tag k="highway" v="path" />
		<tag k="name" v="Kaldholsætervegen" />
		<tag k="ssr:stedsnr" v="828734" />
	</node>
	<node id="-379009" lat="61.3621361135" lon="10.3062749921">
>>>>>>> e1d4bc35ff8a6074a6f2e91616a996b547c36f15
		<tag k="bridge" v="yes" />
		<tag k="layer" v="1" />
		<tag k="name" v="Bryn nordre" />
		<tag k="ssr:stedsnr" v="957010" />
	</node>
<<<<<<< HEAD
	<node lat="61.21360833049238" lon="10.495244439974005" id="-33682">
		<tag k="name" v="Vintersletta" />
		<tag k="place" v="locality" />
		<tag k="ssr:stedsnr" v="39271" />
	</node>
	<node lat="61.278194443873936" lon="10.386138884686392" id="-33732">
=======
	<node id="-379520" lat="61.3570944426" lon="10.3763861198">
		<tag k="highway" v="path" />
		<tag k="name" v="Nørdre Brennlivegen" />
		<tag k="ssr:stedsnr" v="828634" />
	</node>
	<node id="-379005" lat="61.2781944439" lon="10.3861388847">
>>>>>>> e1d4bc35ff8a6074a6f2e91616a996b547c36f15
		<tag k="junction" v="yes" />
		<tag k="name" v="Oddvang" />
		<tag k="place" v="locality" />
		<tag k="ssr:stedsnr" v="102649" />
	</node>
<<<<<<< HEAD
	<node lat="61.263755559582584" lon="10.5847861147451" id="-33782">
=======
	<node id="-379003" lat="61.207969448" lon="10.4336805598">
>>>>>>> e1d4bc35ff8a6074a6f2e91616a996b547c36f15
		<tag k="junction" v="yes" />
		<tag k="name" v="Liendkrysset" />
		<tag k="place" v="locality" />
<<<<<<< HEAD
		<tag k="ssr:stedsnr" v="160578" />
	</node>
	<node lat="61.32420833446699" lon="10.75044445133459" id="-33793">
=======
		<tag k="ssr:stedsnr" v="102611" />
	</node>
	<node id="-378486" lat="61.332872222" lon="10.4552888957">
		<tag k="highway" v="path" />
		<tag k="name" v="Svartsæterråket" />
		<tag k="ssr:stedsnr" v="405264" />
	</node>
	<node id="-378988" lat="61.252430559" lon="10.5270444518">
		<tag k="highway" v="path" />
		<tag k="name" v="Vintervegen" />
		<tag k="ssr:stedsnr" v="100607" />
	</node>
	<node id="-378981" lat="61.3060000011" lon="10.426447227">
>>>>>>> e1d4bc35ff8a6074a6f2e91616a996b547c36f15
		<tag k="highway" v="path" />
		<tag k="name" v="Kaldholsæterråket" />
		<tag k="ssr:stedsnr" v="162831" />
	</node>
<<<<<<< HEAD
	<node lat="61.221858336506415" lon="10.444897226528791" id="-33796">
=======
	<node id="-379470" lat="61.351488892" lon="10.2605222181">
>>>>>>> e1d4bc35ff8a6074a6f2e91616a996b547c36f15
		<tag k="bridge" v="yes" />
		<tag k="layer" v="1" />
		<tag k="name" v="Fossegården" />
		<tag k="ssr:stedsnr" v="168001" />
	</node>
<<<<<<< HEAD
	<node lat="61.21851111163771" lon="10.513111112594476" id="-33821">
		<tag k="name" v="Nordre Lunnstaden" />
		<tag k="place" v="locality" />
		<tag k="ssr:stedsnr" v="221297" />
	</node>
	<node lat="61.20443889310476" lon="10.446436104083098" id="-33842">
		<tag k="ford" v="yes" />
		<tag k="name" v="Nedre vadet" />
		<tag k="place" v="locality" />
		<tag k="ssr:stedsnr" v="223575" />
	</node>
	<node lat="61.254083337460244" lon="10.432963894440983" id="-33843">
		<tag k="alt_name" v="Søndre Brynså" />
=======
	<node id="-379459" lat="61.3010222188" lon="10.4437305548">
		<tag k="amenity" v="parking" />
		<tag k="name" v="Lunninga" />
		<tag k="ssr:stedsnr" v="767792" />
	</node>
	<node id="-378941" lat="61.3205027801" lon="10.5593666598">
		<tag k="highway" v="path" />
		<tag k="name" v="Brettdalsråket" />
		<tag k="ssr:stedsnr" v="58588" />
	</node>
	<node id="-378939" lat="61.3121833297" lon="10.2992416758">
>>>>>>> e1d4bc35ff8a6074a6f2e91616a996b547c36f15
		<tag k="bridge" v="yes" />
		<tag k="layer" v="1" />
		<tag k="name" v="Søre Brynså" />
		<tag k="ssr:stedsnr" v="228014" />
	</node>
<<<<<<< HEAD
	<node lat="61.289483333365595" lon="10.80805000641869" id="-33849">
		<tag k="junction" v="yes" />
		<tag k="name" v="Kaldholsæterkrysset" />
		<tag k="place" v="locality" />
		<tag k="ssr:stedsnr" v="282737" />
	</node>
	<node lat="61.242624999045596" lon="10.436399999474427" id="-33864">
=======
	<node id="-378938" lat="61.2583416703" lon="10.4421277751">
		<tag k="alt_name" v="Søndre Brynså" />
>>>>>>> e1d4bc35ff8a6074a6f2e91616a996b547c36f15
		<tag k="bridge" v="yes" />
		<tag k="layer" v="1" />
		<tag k="name" v="Granrud" />
		<tag k="ssr:stedsnr" v="289001" />
	</node>
<<<<<<< HEAD
	<node lat="61.32383332973909" lon="10.32427222015246" id="-33865">
=======
	<node id="-378937" lat="61.2773083327" lon="10.3869277782">
>>>>>>> e1d4bc35ff8a6074a6f2e91616a996b547c36f15
		<tag k="bridge" v="yes" />
		<tag k="layer" v="1" />
		<tag k="name" v="Prestgarden" />
		<tag k="ssr:stedsnr" v="289020" />
	</node>
<<<<<<< HEAD
	<node lat="61.318897221825665" lon="10.299058334704817" id="-33866">
=======
	<node id="-378936" lat="61.2545194462" lon="10.4347277841">
		<tag k="alt_name" v="Søndre Bryn" />
>>>>>>> e1d4bc35ff8a6074a6f2e91616a996b547c36f15
		<tag k="bridge" v="yes" />
		<tag k="layer" v="1" />
		<tag k="name" v="Stav" />
		<tag k="ssr:stedsnr" v="289022" />
	</node>
<<<<<<< HEAD
	<node lat="61.222844441655724" lon="10.444319451002645" id="-33900">
		<tag k="name" v="Brettingen" />
=======
	<node id="-379443" lat="61.3127111136" lon="10.301622223">
		<tag k="junction" v="yes" />
		<tag k="name" v="Brustad" />
>>>>>>> e1d4bc35ff8a6074a6f2e91616a996b547c36f15
		<tag k="place" v="locality" />
		<tag k="ssr:stedsnr" v="344630" />
	</node>
<<<<<<< HEAD
	<node lat="61.32205277523941" lon="10.26214444725482" id="-33905">
		<tag k="fixme" v="consider highway=path" />
		<tag k="highway" v="track" />
		<tag k="name" v="Trolldalsvegen" />
		<tag k="ssr:stedsnr" v="344941" />
	</node>
	<node lat="61.29416110851146" lon="10.27161943846447" id="-33906">
=======
	<node id="-379442" lat="61.2162861154" lon="10.5121472141">
		<tag k="name" v="Søre Lunnstaden" />
		<tag k="place" v="locality" />
		<tag k="ssr:stedsnr" v="767298" />
	</node>
	<node id="-378412" lat="61.2524944449" lon="10.4354333352">
>>>>>>> e1d4bc35ff8a6074a6f2e91616a996b547c36f15
		<tag k="bridge" v="yes" />
		<tag k="layer" v="1" />
		<tag k="name" v="Musa" />
		<tag k="ssr:stedsnr" v="349031" />
	</node>
<<<<<<< HEAD
	<node lat="61.23543332963717" lon="10.445019445456708" id="-33907">
		<tag k="bridge" v="yes" />
		<tag k="layer" v="1" />
		<tag k="name" v="Aasletten" />
		<tag k="ssr:stedsnr" v="349039" />
	</node>
	<node lat="61.19227777651393" lon="10.414480557138548" id="-33908">
		<tag k="bridge" v="yes" />
		<tag k="layer" v="1" />
		<tag k="name" v="Ensbymoen" />
		<tag k="ssr:stedsnr" v="350001" />
	</node>
	<node lat="61.332872221997945" lon="10.455288895693627" id="-33958">
=======
	<node id="-378403" lat="61.3236305547" lon="10.5853611078">
		<tag k="highway" v="path" />
		<tag k="name" v="Akksjøsæterråket" />
		<tag k="ssr:stedsnr" v="482580" />
	</node>
	<node id="-378912" lat="61.4392000033" lon="10.6804249985">
>>>>>>> e1d4bc35ff8a6074a6f2e91616a996b547c36f15
		<tag k="highway" v="path" />
		<tag k="name" v="Svartsæterråket" />
		<tag k="ssr:stedsnr" v="405264" />
	</node>
<<<<<<< HEAD
	<node lat="61.27593611280531" lon="10.390191668241894" id="-33965">
=======
	<node id="-379419" lat="61.2433388866" lon="10.4608388815">
>>>>>>> e1d4bc35ff8a6074a6f2e91616a996b547c36f15
		<tag k="bridge" v="yes" />
		<tag k="layer" v="1" />
		<tag k="name" v="Odden" />
		<tag k="ssr:stedsnr" v="410022" />
	</node>
<<<<<<< HEAD
	<node lat="61.39160277963476" lon="10.454555548777783" id="-34012">
		<tag k="highway" v="path" />
		<tag k="name" v="Laukamstegan" />
		<tag k="ssr:stedsnr" v="524500" />
	</node>
	<node lat="61.27254444015157" lon="10.445780559092723" id="-34016">
		<tag k="highway" v="path" />
		<tag k="name" v="Kalvløypet" />
		<tag k="ssr:stedsnr" v="525031" />
	</node>
	<node lat="61.27471388817575" lon="10.444388897925187" id="-34017">
		<tag k="highway" v="path" />
		<tag k="name" v="Rugsvevegen" />
		<tag k="ssr:stedsnr" v="525034" />
	</node>
	<node lat="61.248602773251925" lon="10.458641675102394" id="-34064">
		<tag k="junction" v="yes" />
		<tag k="name" v="Molbosmoget" />
=======
	<node id="-379417" lat="61.1913833354" lon="10.4339305618">
		<tag k="name" v="Hågåhjørnet" />
>>>>>>> e1d4bc35ff8a6074a6f2e91616a996b547c36f15
		<tag k="place" v="locality" />
		<tag k="ssr:stedsnr" v="587786" />
	</node>
<<<<<<< HEAD
	<node lat="61.245091668990796" lon="10.490161113455095" id="-34097">
		<tag k="name" v="Lunnstaden" />
=======
	<node id="-379415" lat="61.2008000042" lon="10.4568944497">
		<tag k="ford" v="yes" />
		<tag k="name" v="Øvre vadet" />
>>>>>>> e1d4bc35ff8a6074a6f2e91616a996b547c36f15
		<tag k="place" v="locality" />
		<tag k="ssr:stedsnr" v="645643" />
	</node>
<<<<<<< HEAD
	<node lat="61.20113888673172" lon="10.469472215347281" id="-34110">
=======
	<node id="-379414" lat="61.2011388867" lon="10.4694722153">
>>>>>>> e1d4bc35ff8a6074a6f2e91616a996b547c36f15
		<tag k="ford" v="yes" />
		<tag k="name" v="Åbakken" />
		<tag k="place" v="locality" />
		<tag k="ssr:stedsnr" v="647546" />
	</node>
<<<<<<< HEAD
	<node lat="61.200800004155425" lon="10.456894449667715" id="-34111">
		<tag k="ford" v="yes" />
		<tag k="name" v="Øvre vadet" />
		<tag k="place" v="locality" />
		<tag k="ssr:stedsnr" v="647547" />
	</node>
	<node lat="61.24333888663431" lon="10.460838881482907" id="-34116">
=======
	<node id="-379406" lat="61.245091669" lon="10.4901611135">
		<tag k="name" v="Lunnstaden" />
		<tag k="place" v="locality" />
		<tag k="ssr:stedsnr" v="645643" />
	</node>
	<node id="-378376" lat="61.3188972218" lon="10.2990583347">
		<tag k="bridge" v="yes" />
		<tag k="layer" v="1" />
		<tag k="name" v="Stav" />
		<tag k="ssr:stedsnr" v="289022" />
	</node>
	<node id="-378375" lat="61.3238333297" lon="10.3242722202">
>>>>>>> e1d4bc35ff8a6074a6f2e91616a996b547c36f15
		<tag k="bridge" v="yes" />
		<tag k="layer" v="1" />
		<tag k="name" v="Mosåa" />
		<tag k="ssr:stedsnr" v="653020" />
	</node>
<<<<<<< HEAD
	<node lat="61.32553055309138" lon="10.29356110932894" id="-34146">
=======
	<node id="-379397" lat="61.335777781" lon="10.2997388825">
		<tag k="alt_name" v="Tårstadkrysset" />
>>>>>>> e1d4bc35ff8a6074a6f2e91616a996b547c36f15
		<tag k="junction" v="yes" />
		<tag k="name" v="Brattbakken" />
		<tag k="place" v="locality" />
		<tag k="ssr:stedsnr" v="765920" />
	</node>
<<<<<<< HEAD
	<node lat="61.21628611541563" lon="10.512147214056075" id="-34147">
		<tag k="name" v="Søre Lunnstaden" />
		<tag k="place" v="locality" />
		<tag k="ssr:stedsnr" v="767298" />
	</node>
	<node lat="61.26930000345549" lon="10.378061114321964" id="-34154">
		<tag k="fixme" v="consider highway=path" />
		<tag k="highway" v="track" />
		<tag k="name" v="Krokkleiva" />
		<tag k="ssr:stedsnr" v="767424" />
	</node>
	<node lat="61.31271111356898" lon="10.301622223015157" id="-34159">
		<tag k="junction" v="yes" />
		<tag k="name" v="Brustad" />
		<tag k="place" v="locality" />
		<tag k="ssr:stedsnr" v="767379" />
	</node>
	<node lat="61.351488892007076" lon="10.26052221810453" id="-34178">
		<tag k="bridge" v="yes" />
		<tag k="layer" v="1" />
		<tag k="name" v="Vik" />
		<tag k="ssr:stedsnr" v="774029" />
	</node>
	<node lat="61.35709444259768" lon="10.376386119804893" id="-34219">
		<tag k="highway" v="path" />
		<tag k="name" v="Nørdre Brennlivegen" />
		<tag k="ssr:stedsnr" v="828634" />
	</node>
	<node lat="61.29769721797695" lon="10.793400001862773" id="-34224">
		<tag k="highway" v="path" />
		<tag k="name" v="Kaldholsætervegen" />
		<tag k="ssr:stedsnr" v="828734" />
	</node>
	<node lat="61.274041663798535" lon="10.45515833049403" id="-34228">
		<tag k="name" v="Steinskålen" />
		<tag k="place" v="locality" />
		<tag k="ssr:stedsnr" v="830208" />
	</node>
	<node lat="61.25649721851768" lon="10.426636106451083" id="-34235">
		<tag k="bridge" v="yes" />
		<tag k="layer" v="1" />
		<tag k="name" v="Brynså nordre" />
		<tag k="ssr:stedsnr" v="835014" />
	</node>
	<node lat="61.3693583355014" lon="10.282888884193342" id="-34236">
		<tag k="bridge" v="yes" />
		<tag k="layer" v="1" />
		<tag k="name" v="Rola" />
		<tag k="ssr:stedsnr" v="835024" />
	</node>
	<node lat="61.30881111309738" lon="10.506947229242137" id="-34246">
		<tag k="highway" v="path" />
		<tag k="name" v="Vedemsliråket" />
		<tag k="ssr:stedsnr" v="848556" />
	</node>
	<node lat="61.31261944654208" lon="10.436494440854338" id="-34277">
		<tag k="ford" v="yes" />
		<tag k="name" v="Vadet" />
		<tag k="place" v="locality" />
		<tag k="ssr:stedsnr" v="888779" />
	</node>
	<node lat="61.31878888817147" lon="10.299355557132767" id="-34313">
		<tag k="alt_name" v="Søndre Stav" />
		<tag k="bridge" v="yes" />
		<tag k="layer" v="1" />
		<tag k="name" v="Søre Stav" />
		<tag k="ssr:stedsnr" v="957022" />
	</node>
=======
>>>>>>> e1d4bc35ff8a6074a6f2e91616a996b547c36f15
</osm>
