<?xml version="1.0" encoding="UTF-8"?>
<<<<<<< HEAD
<osm version="0.6" generator="osmapis">
	<node lat="61.246558329681946" lon="10.5802666680882" id="-32891">
		<tag k="name" v="Hitbekken" />
		<tag k="ssr:stedsnr" v="8142" />
		<tag k="waterway" v="stream" />
	</node>
	<node lat="61.24339166420827" lon="10.46236944702816" id="-32893">
		<tag k="name" v="Mosåa" />
		<tag k="ssr:stedsnr" v="8155" />
		<tag k="waterway" v="river" />
	</node>
	<node lat="61.31012222299972" lon="10.621450004348384" id="-32895">
		<tag k="name" v="Mjøvatnet" />
		<tag k="natural" v="water" />
		<tag k="ssr:stedsnr" v="8301" />
	</node>
	<node lat="61.311297226704866" lon="10.35701110948558" id="-32896">
		<tag k="name" v="Rindtjønnet" />
		<tag k="natural" v="water" />
		<tag k="ssr:stedsnr" v="8305" />
	</node>
	<node lat="61.39395000297355" lon="10.43740000709059" id="-32897">
		<tag k="name" v="Knapptjønnet" />
		<tag k="natural" v="water" />
		<tag k="ssr:stedsnr" v="8347" />
	</node>
	<node lat="61.26608611239865" lon="10.366211105643515" id="-32900">
		<tag k="name" v="Kattåa" />
		<tag k="ssr:stedsnr" v="8516" />
		<tag k="waterway" v="stream" />
	</node>
	<node lat="61.262952775438656" lon="10.601155551369462" id="-32921">
		<tag k="name" v="Løyptjønnet" />
		<tag k="natural" v="water" />
		<tag k="ssr:stedsnr" v="41511" />
	</node>
	<node lat="61.319686113157225" lon="10.24527499552525" id="-32925">
		<tag k="name" v="Bolstadtjønnet" />
		<tag k="natural" v="water" />
		<tag k="ssr:stedsnr" v="41875" />
	</node>
	<node lat="61.30079166228749" lon="10.290880551148582" id="-32931">
		<tag k="name" v="Auromsreset" />
		<tag k="ssr:stedsnr" v="58638" />
		<tag k="waterway" v="rapids" />
	</node>
	<node lat="61.27286944665407" lon="10.706269446262006" id="-32940">
		<tag k="name" v="Kvannbekken" />
		<tag k="ssr:stedsnr" v="68503" />
		<tag k="waterway" v="stream" />
	</node>
	<node lat="61.28055833126076" lon="10.457194435054884" id="-32942">
		<tag k="alt_name" v="Brynsåa, nordre;Nordre Brynsåa" />
		<tag k="name" v="Nørdre Brynsåa" />
		<tag k="ssr:stedsnr" v="68514" />
		<tag k="waterway" v="stream" />
	</node>
	<node lat="61.33591389298682" lon="10.239136103658765" id="-32949">
		<tag k="name" v="Kverntjønnet" />
		<tag k="natural" v="water" />
		<tag k="ssr:stedsnr" v="68947" />
	</node>
	<node lat="61.31313888580596" lon="10.662491675338766" id="-32951">
		<tag k="alt_name" v="Estensvatnet" />
		<tag k="name" v="Øysteinvatnet" />
		<tag k="natural" v="water" />
		<tag k="ssr:stedsnr" v="69289" />
	</node>
	<node lat="61.37062200266194" lon="10.74285605943204" id="-32953">
		<tag k="name" v="Bulona" />
=======
<osm generator="osmapis" version="0.6">
	<node id="-379392" lat="61.3358000016" lon="10.7484749938">
		<tag k="name" v="Lyngåa" />
		<tag k="ssr:stedsnr" v="615398" />
		<tag k="waterway" v="river" />
	</node>
	<node id="-379391" lat="61.3472583363" lon="10.3987083296">
		<tag k="name" v="Kalvbekken" />
		<tag k="ssr:stedsnr" v="615263" />
		<tag k="waterway" v="stream" />
	</node>
	<node id="-379390" lat="61.3505388883" lon="10.4847555598">
		<tag k="name" v="Bjørtjønnet" />
		<tag k="natural" v="water" />
		<tag k="ssr:stedsnr" v="615261" />
	</node>
	<node id="-379389" lat="61.3419333319" lon="10.505472222">
		<tag k="name" v="Bretta" />
		<tag k="ssr:stedsnr" v="615254" />
		<tag k="waterway" v="stream" />
	</node>
	<node id="-379384" lat="61.2442361116" lon="10.7200722136">
		<tag k="name" v="Venåsbekken" />
		<tag k="ssr:stedsnr" v="614750" />
		<tag k="waterway" v="stream" />
	</node>
	<node id="-379383" lat="61.2984277768" lon="10.8214472214">
		<tag k="name" v="Skolla" />
		<tag k="ssr:stedsnr" v="614746" />
		<tag k="waterway" v="stream" />
	</node>
	<node id="-378870" lat="61.3270361083" lon="10.3980500031">
		<tag k="name" v="Tjønnmellom" />
		<tag k="natural" v="strait" />
		<tag k="ssr:stedsnr" v="951260" />
	</node>
	<node id="-379049" lat="61.2543416709" lon="10.511924998">
		<tag k="name" v="Blæsterfalla" />
		<tag k="ssr:stedsnr" v="160820" />
		<tag k="waterway" v="rapids" />
	</node>
	<node id="-379379" lat="61.2680500039" lon="10.7032472227">
		<tag k="name" v="Purkebekken" />
		<tag k="ssr:stedsnr" v="614493" />
		<tag k="waterway" v="stream" />
	</node>
	<node id="-378497" lat="61.2971444464" lon="10.2496638954">
		<tag k="name" v="Musa" />
		<tag k="ssr:stedsnr" v="664599" />
		<tag k="waterway" v="stream" />
	</node>
	<node id="-379377" lat="61.2653861155" lon="10.4536194358">
		<tag k="alt_name" v="Brynsåa, s" />
		<tag k="name" v="Søre Brynsåa" />
		<tag k="ssr:stedsnr" v="614489" />
		<tag k="waterway" v="stream" />
	</node>
	<node id="-378351" lat="61.276058332" lon="10.5019222174">
		<tag k="name" v="Mattisbekken" />
		<tag k="ssr:stedsnr" v="190511" />
		<tag k="waterway" v="stream" />
	</node>
	<node id="-378350" lat="61.2236055594" lon="10.5910361033">
		<tag k="name" v="Kjellsbekken" />
		<tag k="ssr:stedsnr" v="189151" />
		<tag k="waterway" v="stream" />
	</node>
	<node id="-378383" lat="61.2945499998" lon="10.6238388954">
		<tag k="name" v="Elghølen" />
>>>>>>> e1d4bc35ff8a6074a6f2e91616a996b547c36f15
		<tag k="natural" v="water" />
		<tag k="ssr:stedsnr" v="69441" />
	</node>
<<<<<<< HEAD
	<node lat="61.26644999696534" lon="10.559111111069226" id="-32971">
		<tag k="name" v="Hemre Liendbekken" />
		<tag k="ssr:stedsnr" v="100613" />
		<tag k="waterway" v="stream" />
	</node>
	<node lat="61.365372220511006" lon="10.526822216738658" id="-33004">
		<tag k="alt_name" v="Grunnesvatnet" />
		<tag k="name" v="Grunnvatnet" />
		<tag k="natural" v="water" />
		<tag k="ssr:stedsnr" v="251342" />
		<tag k="water" v="lake" />
	</node>
	<node lat="61.37853973153295" lon="10.609894563823422" id="-33007">
		<tag k="alt_name" v="Åstavatnet, nedre;Ner-Åstvatnet" />
		<tag k="name" v="Nedre Åstavatnet" />
		<tag k="natural" v="water" />
		<tag k="ssr:stedsnr" v="251332" />
		<tag k="water" v="lake" />
	</node>
	<node lat="61.38953055743729" lon="10.686249994956151" id="-33009">
		<tag k="alt_name" v="Åstavatnet, øvre;Øver-Åstvatnet" />
		<tag k="name" v="Øvre Åstavatnet" />
		<tag k="natural" v="water" />
		<tag k="ssr:stedsnr" v="251354" />
		<tag k="water" v="lake" />
	</node>
	<node lat="61.42114722297563" lon="10.657644441753936" id="-33010">
		<tag k="name" v="Skardtjønnet" />
=======
	<node id="-379372" lat="61.4116111093" lon="10.6171555488">
		<tag k="name" v="Gyritjønnet" />
		<tag k="natural" v="water" />
		<tag k="ssr:stedsnr" v="614307" />
	</node>
	<node id="-379565" lat="61.3151527735" lon="10.364833327">
		<tag k="name" v="Svarttjønnet" />
>>>>>>> e1d4bc35ff8a6074a6f2e91616a996b547c36f15
		<tag k="natural" v="water" />
		<tag k="ssr:stedsnr" v="858275" />
	</node>
<<<<<<< HEAD
	<node lat="61.36183943808845" lon="10.780661525858063" id="-33011">
		<tag k="alt_name" v="Lyngtjørna, østre" />
		<tag k="name" v="Østre Lyngtjørna" />
		<tag k="natural" v="water" />
		<tag k="ssr:stedsnr" v="251425" />
	</node>
	<node lat="61.291041665785166" lon="10.282194447289099" id="-33013">
		<tag k="alt_name" v="Hovdfossen" />
		<tag k="name" v="Hovdefossen" />
		<tag k="ssr:stedsnr" v="251792" />
		<tag k="waterway" v="rapids" />
	</node>
	<node lat="61.36276111356173" lon="10.496147213255153" id="-33024">
		<tag k="name" v="Grunnesåa" />
		<tag k="ssr:stedsnr" v="129311" />
		<tag k="waterway" v="river" />
	</node>
	<node lat="61.398141668319575" lon="10.664291659172607" id="-33025">
		<tag k="name" v="Skjela" />
		<tag k="ssr:stedsnr" v="129326" />
		<tag k="waterway" v="stream" />
	</node>
	<node lat="61.32543055245212" lon="10.66981388224663" id="-33031">
		<tag k="name" v="Ukstjønnet" />
		<tag k="natural" v="water" />
		<tag k="ssr:stedsnr" v="162160" />
	</node>
	<node lat="61.2236055594264" lon="10.59103610331925" id="-33046">
		<tag k="name" v="Kjellsbekken" />
		<tag k="ssr:stedsnr" v="189151" />
		<tag k="waterway" v="stream" />
	</node>
	<node lat="61.20057777417264" lon="10.459024999595762" id="-33048">
		<tag k="name" v="Sagåa" />
		<tag k="ssr:stedsnr" v="189903" />
		<tag k="waterway" v="river" />
	</node>
	<node lat="61.402927774655424" lon="10.50539166533479" id="-33052">
		<tag k="name" v="Tromstjønnet" />
		<tag k="natural" v="water" />
		<tag k="ssr:stedsnr" v="190324" />
	</node>
	<node lat="61.27605833201639" lon="10.50192221735316" id="-33055">
		<tag k="name" v="Mattisbekken" />
		<tag k="ssr:stedsnr" v="190511" />
		<tag k="waterway" v="stream" />
	</node>
	<node lat="61.32200172644322" lon="10.293054306953497" id="-33066">
		<tag k="name" v="Båtstøtjønnet" />
		<tag k="natural" v="water" />
		<tag k="ssr:stedsnr" v="219933" />
	</node>
	<node lat="61.223444445386065" lon="10.48677223051042" id="-33069">
		<tag k="name" v="Stubberudbekken" />
		<tag k="ssr:stedsnr" v="221305" />
		<tag k="waterway" v="stream" />
	</node>
	<node lat="61.22138610734085" lon="10.550102775340292" id="-33071">
		<tag k="name" v="Stulsbekken" />
		<tag k="ssr:stedsnr" v="221324" />
		<tag k="waterway" v="stream" />
	</node>
	<node lat="61.252991670679194" lon="10.512102773376341" id="-33075">
		<tag k="name" v="Nørdre Slåbekken" />
		<tag k="ssr:stedsnr" v="221588" />
		<tag k="waterway" v="stream" />
	</node>
	<node lat="61.367627774473505" lon="10.331030556201593" id="-33083">
		<tag k="name" v="Raumyrkroken" />
		<tag k="place" v="locality" />
		<tag k="ssr:stedsnr" v="223334" />
	</node>
	<node lat="61.26071111200918" lon="10.694627782296577" id="-33084">
		<tag k="name" v="Koltjønnbekken" />
		<tag k="ssr:stedsnr" v="223514" />
		<tag k="waterway" v="stream" />
	</node>
	<node lat="61.28903888829318" lon="10.44991944982449" id="-33089">
		<tag k="name" v="Klukkerhølet" />
		<tag k="place" v="locality" />
		<tag k="ssr:stedsnr" v="231588" />
	</node>
	<node lat="61.29958610963365" lon="10.335613888711173" id="-33094">
		<tag k="name" v="Rinna" />
		<tag k="ssr:stedsnr" v="282285" />
		<tag k="waterway" v="stream" />
	</node>
	<node lat="61.38927500348285" lon="10.561669442960124" id="-33095">
		<tag k="name" v="Vesleøya" />
		<tag k="place" v="islet" />
		<tag k="ssr:stedsnr" v="282291" />
	</node>
	<node lat="61.355113892531165" lon="10.408333325747819" id="-33101">
		<tag k="name" v="Brennlitjønnet" />
		<tag k="natural" v="water" />
		<tag k="ssr:stedsnr" v="282632" />
	</node>
	<node lat="61.281844442190156" lon="10.499758325868433" id="-33103">
		<tag k="name" v="Indre Brynsåa" />
		<tag k="ssr:stedsnr" v="282666" />
		<tag k="waterway" v="stream" />
	</node>
	<node lat="61.194300002423574" lon="10.408444451063916" id="-33107">
		<tag k="name" v="Ensbyfallan" />
		<tag k="ssr:stedsnr" v="283591" />
		<tag k="waterway" v="rapids" />
	</node>
	<node lat="61.19425833217247" lon="10.40877500294496" id="-33108">
		<tag k="name" v="Ensbyteinlagan" />
		<tag k="place" v="locality" />
		<tag k="ssr:stedsnr" v="283606" />
	</node>
	<node lat="61.315405552322076" lon="10.650322225648258" id="-33109">
		<tag k="name" v="Estensbekken" />
		<tag k="ssr:stedsnr" v="284183" />
		<tag k="waterway" v="stream" />
	</node>
	<node lat="61.335811113366894" lon="10.581977774887301" id="-33122">
		<tag k="name" v="Bokketjønnan" />
		<tag k="natural" v="water" />
		<tag k="ssr:stedsnr" v="300582" />
		<tag k="water" v="lake" />
	</node>
	<node lat="61.29454999980547" lon="10.62383889537125" id="-33127">
		<tag k="name" v="Elghølen" />
		<tag k="natural" v="water" />
		<tag k="ssr:stedsnr" v="464299" />
		<tag k="water" v="lake" />
	</node>
	<node lat="61.27594722555043" lon="10.341699996607723" id="-33132">
		<tag k="name" v="Storaurevika" />
		<tag k="natural" v="bay" />
		<tag k="ssr:stedsnr" v="465438" />
	</node>
	<node lat="61.333413890610586" lon="10.547616660442879" id="-33144">
		<tag k="name" v="Brettdalsvatnet" />
		<tag k="natural" v="water" />
		<tag k="ssr:stedsnr" v="312273" />
	</node>
	<node lat="61.3316111099541" lon="10.454763894186385" id="-33146">
		<tag k="name" v="Skåetjønna" />
		<tag k="natural" v="water" />
		<tag k="ssr:stedsnr" v="312287" />
	</node>
	<node lat="61.19643610905822" lon="10.437452785169853" id="-33153">
		<tag k="name" v="Kveskroken" />
		<tag k="place" v="locality" />
		<tag k="ssr:stedsnr" v="466590" />
	</node>
	<node lat="61.343494448825616" lon="10.344624995051571" id="-33157">
		<tag k="name" v="Åkvisla" />
		<tag k="ssr:stedsnr" v="519639" />
		<tag k="waterway" v="stream" />
	</node>
	<node lat="61.26729722276663" lon="10.634425005628517" id="-33158">
		<tag k="name" v="Haugstjønna" />
		<tag k="natural" v="water" />
		<tag k="ssr:stedsnr" v="337712" />
	</node>
	<node lat="61.399908332277434" lon="10.549669447552526" id="-33164">
		<tag k="name" v="Uksbåsbekken" />
		<tag k="ssr:stedsnr" v="342305" />
		<tag k="waterway" v="stream" />
	</node>
	<node lat="61.39021111249893" lon="10.562333325644884" id="-33165">
		<tag k="name" v="Storøya" />
		<tag k="place" v="island" />
		<tag k="ssr:stedsnr" v="342306" />
	</node>
	<node lat="61.40988055156292" lon="10.544450000158985" id="-33169">
		<tag k="name" v="Fjellbekken" />
		<tag k="ssr:stedsnr" v="342904" />
		<tag k="waterway" v="stream" />
	</node>
	<node lat="61.20197500410927" lon="10.422372224048877" id="-33175">
		<tag k="name" v="Dølkjøylla" />
		<tag k="natural" v="spring" />
		<tag k="ssr:stedsnr" v="344586" />
	</node>
	<node lat="61.290061111767976" lon="10.60348888581426" id="-33180">
		<tag k="name" v="Gåssjøen" />
		<tag k="natural" v="water" />
		<tag k="ssr:stedsnr" v="372275" />
	</node>
	<node lat="61.323144448505964" lon="10.600113890555763" id="-33186">
		<tag k="name" v="Svartbergtjønnet" />
		<tag k="natural" v="water" />
		<tag k="ssr:stedsnr" v="397737" />
	</node>
	<node lat="61.39111389052219" lon="10.566441665253544" id="-33190">
		<tag k="name" v="Hatten" />
		<tag k="place" v="islet" />
		<tag k="ssr:stedsnr" v="403306" />
	</node>
	<node lat="61.34366944669827" lon="10.349569450350783" id="-33195">
		<tag k="name" v="Kjerringhølen" />
		<tag k="natural" v="water" />
		<tag k="ssr:stedsnr" v="403829" />
		<tag k="water" v="lake" />
	</node>
	<node lat="61.29510000051574" lon="10.514458328107892" id="-33210">
		<tag k="name" v="Storåsbekken" />
		<tag k="ssr:stedsnr" v="433274" />
		<tag k="waterway" v="stream" />
	</node>
	<node lat="61.2894361114099" lon="10.324097228333825" id="-33219">
		<tag k="name" v="Rinda" />
		<tag k="ssr:stedsnr" v="433778" />
		<tag k="waterway" v="stream" />
	</node>
	<node lat="61.24814166750471" lon="10.561522215656659" id="-33223">
		<tag k="alt_name" v="Rautjønnbekken" />
		<tag k="name" v="Raudtjørnbekken" />
		<tag k="ssr:stedsnr" v="493146" />
		<tag k="waterway" v="stream" />
	</node>
	<node lat="61.39285277514933" lon="10.707041674801703" id="-33228">
		<tag k="name" v="Saltbelgen" />
		<tag k="natural" v="water" />
		<tag k="ssr:stedsnr" v="493333" />
	</node>
	<node lat="61.38425833556318" lon="10.639927782334135" id="-33258">
		<tag k="alt_name" v="Skytilen" />
		<tag k="name" v="Skyttilen" />
		<tag k="natural" v="water" />
		<tag k="ssr:stedsnr" v="675328" />
	</node>
	<node lat="61.192605555888804" lon="10.44388334134007" id="-33265">
		<tag k="alt_name" v="Kvæsa" />
		<tag k="name" v="Kvesa" />
		<tag k="ssr:stedsnr" v="675937" />
		<tag k="waterway" v="river" />
	</node>
	<node lat="61.341930551602566" lon="10.691311109116336" id="-33269">
		<tag k="alt_name" v="Øvreåsta" />
		<tag k="name" v="Øver-Åsta" />
		<tag k="ssr:stedsnr" v="676277" />
		<tag k="waterway" v="river" />
	</node>
	<node lat="61.41330000048766" lon="10.58763888744793" id="-33272">
		<tag k="name" v="Tautertjønnet" />
		<tag k="natural" v="water" />
		<tag k="ssr:stedsnr" v="676334" />
	</node>
	<node lat="61.29823889015895" lon="10.224433329385416" id="-33275">
		<tag k="alt_name" v="Blesse-bekken" />
		<tag k="name" v="Blesumbekken" />
		<tag k="ssr:stedsnr" v="676753" />
		<tag k="waterway" v="stream" />
	</node>
	<node lat="61.28413055442423" lon="10.339658341381062" id="-33276">
		<tag k="name" v="Igletjønnet" />
		<tag k="natural" v="water" />
		<tag k="ssr:stedsnr" v="676754" />
	</node>
	<node lat="61.2286055524814" lon="10.577541664003466" id="-33280">
		<tag k="alt_name" v="Svarttjønnet" />
		<tag k="name" v="Svarttjørnet" />
		<tag k="natural" v="water" />
		<tag k="ssr:stedsnr" v="493170" />
	</node>
	<node lat="61.368025004461785" lon="10.556719439885002" id="-33282">
		<tag k="name" v="Grotjønnet" />
		<tag k="natural" v="water" />
		<tag k="ssr:stedsnr" v="493318" />
	</node>
	<node lat="61.3015241904536" lon="10.552985603380868" id="-33302">
		<tag k="name" v="Tråppbergtjønnan" />
		<tag k="natural" v="water" />
		<tag k="ssr:stedsnr" v="519709" />
		<tag k="water" v="lake" />
	</node>
	<node lat="61.28415278221493" lon="10.437488880149791" id="-33305">
		<tag k="name" v="Sæterbekken" />
		<tag k="ssr:stedsnr" v="524466" />
		<tag k="waterway" v="stream" />
	</node>
	<node lat="61.366841669021426" lon="10.319511116465256" id="-33315">
		<tag k="name" v="Vedemselva" />
		<tag k="ssr:stedsnr" v="526309" />
		<tag k="waterway" v="river" />
	</node>
	<node lat="61.253063891418726" lon="10.422480553254552" id="-33318">
		<tag k="name" v="Blæstervika" />
		<tag k="natural" v="bay" />
		<tag k="ssr:stedsnr" v="526782" />
	</node>
	<node lat="61.24434166666169" lon="10.428719446452561" id="-33319">
		<tag k="name" v="Rybakkøya" />
		<tag k="natural" v="cape" />
		<tag k="ssr:stedsnr" v="526783" />
	</node>
	<node lat="61.38393055687439" lon="10.309594442486613" id="-33328">
		<tag k="name" v="Rolla" />
		<tag k="ssr:stedsnr" v="553886" />
		<tag k="waterway" v="river" />
	</node>
	<node lat="61.3450805585017" lon="10.385186110431182" id="-33329">
		<tag k="name" v="Moksa" />
		<tag k="ssr:stedsnr" v="554313" />
		<tag k="waterway" v="river" />
	</node>
	<node lat="61.363883336651696" lon="10.333061119168606" id="-33330">
		<tag k="name" v="Teppa" />
		<tag k="place" v="locality" />
		<tag k="ssr:stedsnr" v="554319" />
	</node>
	<node lat="61.38564722627472" lon="10.535747222145806" id="-33331">
		<tag k="name" v="Goppollåa" />
		<tag k="ssr:stedsnr" v="554325" />
		<tag k="waterway" v="stream" />
	</node>
	<node lat="61.35294444570021" lon="10.59121944953833" id="-33333">
		<tag k="name" v="Akksjøen" />
		<tag k="natural" v="water" />
		<tag k="ssr:stedsnr" v="554330" />
		<tag k="water" v="lake" />
	</node>
	<node lat="61.25931666683509" lon="10.61161666380646" id="-33341">
		<tag k="alt_name" v="Moksjøen, øvre;Øver-Moksjøen" />
		<tag k="name" v="Øvre Moksjøen" />
		<tag k="natural" v="water" />
		<tag k="ssr:stedsnr" v="554480" />
	</node>
	<node lat="61.3859055555838" lon="10.386133327014033" id="-33350">
		<tag k="name" v="Grautauget" />
		<tag k="natural" v="water" />
		<tag k="ssr:stedsnr" v="580610" />
	</node>
	<node lat="61.26836667006947" lon="10.575038898262155" id="-33356">
		<tag k="name" v="Indre Liendbekken" />
		<tag k="ssr:stedsnr" v="585606" />
		<tag k="waterway" v="stream" />
	</node>
	<node lat="61.24349722160164" lon="10.748472213513246" id="-33357">
		<tag k="name" v="Storsanden" />
		<tag k="natural" v="bay" />
		<tag k="ssr:stedsnr" v="585745" />
	</node>
	<node lat="61.327197218058714" lon="10.368030559122854" id="-33358">
		<tag k="name" v="Hundtjønnbekken" />
		<tag k="ssr:stedsnr" v="587304" />
		<tag k="waterway" v="stream" />
	</node>
	<node lat="61.36751944575644" lon="10.315555564865146" id="-33359">
		<tag k="name" v="Korsbekken" />
		<tag k="ssr:stedsnr" v="587345" />
		<tag k="waterway" v="stream" />
	</node>
	<node lat="61.18628610715811" lon="10.428566668137705" id="-33360">
		<tag k="name" v="Kallykkjebekken" />
		<tag k="ssr:stedsnr" v="587551" />
		<tag k="waterway" v="stream" />
	</node>
	<node lat="61.33450000118142" lon="10.592058324512701" id="-33370">
		<tag k="name" v="Indre Bretta" />
		<tag k="ssr:stedsnr" v="603561" />
		<tag k="waterway" v="stream" />
	</node>
	<node lat="61.41161110929366" lon="10.617155548803868" id="-33374">
		<tag k="name" v="Gyritjønnet" />
		<tag k="natural" v="water" />
		<tag k="ssr:stedsnr" v="614307" />
	</node>
	<node lat="61.24423611158978" lon="10.72007221362618" id="-33379">
		<tag k="name" v="Venåsbekken" />
		<tag k="ssr:stedsnr" v="614750" />
		<tag k="waterway" v="stream" />
	</node>
	<node lat="61.341933331887" lon="10.50547222200707" id="-33385">
		<tag k="name" v="Bretta" />
		<tag k="ssr:stedsnr" v="615254" />
		<tag k="waterway" v="stream" />
	</node>
	<node lat="61.350538888289535" lon="10.484755559750004" id="-33386">
		<tag k="name" v="Bjørtjønnet" />
		<tag k="natural" v="water" />
		<tag k="ssr:stedsnr" v="615261" />
	</node>
	<node lat="61.33580000164904" lon="10.748474993751925" id="-33388">
		<tag k="name" v="Lyngåa" />
		<tag k="ssr:stedsnr" v="615398" />
		<tag k="waterway" v="river" />
	</node>
	<node lat="61.3463638914366" lon="10.259683335728177" id="-33392">
=======
	<node id="-378961" lat="61.2799527775" lon="10.6214055582">
		<tag k="name" v="Rulltjønnet" />
		<tag k="natural" v="water" />
		<tag k="ssr:stedsnr" v="69274" />
	</node>
	<node id="-379364" lat="61.2148138932" lon="10.5595166663">
		<tag k="name" v="Fjellbekken" />
		<tag k="ssr:stedsnr" v="614188" />
		<tag k="waterway" v="stream" />
	</node>
	<node id="-378851" lat="61.3752666639" lon="10.6424888845">
		<tag k="alt_name" v="Skytilbekken" />
		<tag k="name" v="Skyttilbekken" />
		<tag k="ssr:stedsnr" v="918364" />
		<tag k="waterway" v="stream" />
	</node>
	<node id="-379362" lat="61.3570972258" lon="10.2018027686">
		<tag k="name" v="Roåkerbekken" />
		<tag k="ssr:stedsnr" v="603826" />
		<tag k="waterway" v="stream" />
	</node>
	<node id="-378336" lat="61.3730472232" lon="10.4625833317">
		<tag k="name" v="Søre Sundhaugen" />
		<tag k="place" v="island" />
		<tag k="ssr:stedsnr" v="284062" />
	</node>
	<node id="-378334" lat="61.1942583322" lon="10.4087750029">
		<tag k="name" v="Ensbyteinlagan" />
		<tag k="place" v="locality" />
		<tag k="ssr:stedsnr" v="283606" />
	</node>
	<node id="-379357" lat="61.3310472222" lon="10.5654611193">
		<tag k="name" v="Gunnhildtjønnet" />
		<tag k="natural" v="water" />
		<tag k="ssr:stedsnr" v="603376" />
	</node>
	<node id="-379353" lat="61.3187666672" lon="10.2862583355">
		<tag k="name" v="Krakvollen" />
		<tag k="natural" v="beach" />
		<tag k="ssr:stedsnr" v="587935" />
	</node>
	<node id="-378327" lat="61.3132694463" lon="10.3842500063">
		<tag k="name" v="Hundbergsbekken" />
		<tag k="ssr:stedsnr" v="282761" />
		<tag k="waterway" v="stream" />
	</node>
	<node id="-378838" lat="61.3665888874" lon="10.5313527847">
		<tag k="name" v="Storodden" />
		<tag k="natural" v="cape" />
		<tag k="ssr:stedsnr" v="888270" />
	</node>
	<node id="-379349" lat="61.3132388895" lon="10.7641222295">
		<tag k="name" v="Lyngåkroken" />
		<tag k="place" v="locality" />
		<tag k="ssr:stedsnr" v="587822" />
	</node>
	<node id="-378835" lat="61.4065972258" lon="10.5392472284">
		<tag k="name" v="Fjelltjønnet" />
		<tag k="natural" v="water" />
		<tag k="ssr:stedsnr" v="884614" />
	</node>
	<node id="-379346" lat="61.1862861072" lon="10.4285666681">
		<tag k="name" v="Kallykkjebekken" />
		<tag k="ssr:stedsnr" v="587551" />
		<tag k="waterway" v="stream" />
	</node>
	<node id="-378321" lat="61.3590833324" lon="10.4619666622">
		<tag k="name" v="Våsjøbekken" />
		<tag k="ssr:stedsnr" v="282637" />
		<tag k="waterway" v="stream" />
	</node>
	<node id="-378320" lat="61.3551138925" lon="10.4083333257">
		<tag k="name" v="Brennlitjønnet" />
		<tag k="natural" v="water" />
		<tag k="ssr:stedsnr" v="282632" />
	</node>
	<node id="-378831" lat="61.2464861071" lon="10.5205861179">
		<tag k="name" v="Nysæterbekken" />
		<tag k="ssr:stedsnr" v="949575" />
		<tag k="waterway" v="stream" />
	</node>
	<node id="-379342" lat="61.2390972243" lon="10.435619439">
		<tag k="name" v="Aronsvekjølla" />
		<tag k="natural" v="spring" />
		<tag k="ssr:stedsnr" v="587164" />
	</node>
	<node id="-379341" lat="61.3639194455" lon="10.4181777729">
		<tag k="name" v="Svarttjønnet" />
		<tag k="natural" v="water" />
		<tag k="ssr:stedsnr" v="587083" />
	</node>
	<node id="-378416" lat="61.3231750025" lon="10.5256277744">
		<tag k="name" v="Nordre Keikslitjønnet" />
		<tag k="natural" v="water" />
		<tag k="ssr:stedsnr" v="361459" />
	</node>
	<node id="-378827" lat="61.2918166692" lon="10.2809555635">
		<tag k="name" v="Hovdøya" />
		<tag k="place" v="island" />
		<tag k="ssr:stedsnr" v="949352" />
	</node>
	<node id="-379338" lat="61.2434972216" lon="10.7484722135">
		<tag k="name" v="Storsanden" />
		<tag k="natural" v="bay" />
		<tag k="ssr:stedsnr" v="585745" />
	</node>
	<node id="-379337" lat="61.2479777795" lon="10.4814638961">
		<tag k="name" v="Skurgrasbekken" />
		<tag k="ssr:stedsnr" v="585642" />
		<tag k="waterway" v="stream" />
	</node>
	<node id="-379336" lat="61.2683666701" lon="10.5750388983">
		<tag k="name" v="Indre Liendbekken" />
		<tag k="ssr:stedsnr" v="585606" />
		<tag k="waterway" v="stream" />
	</node>
	<node id="-378822" lat="61.3918111079" lon="10.5519666664">
		<tag k="name" v="Storvika" />
		<tag k="natural" v="bay" />
		<tag k="ssr:stedsnr" v="949296" />
	</node>
	<node id="-378529" lat="61.1926055559" lon="10.4438833413">
		<tag k="alt_name" v="Kvæsa" />
		<tag k="name" v="Kvesa" />
		<tag k="ssr:stedsnr" v="675937" />
		<tag k="waterway" v="river" />
	</node>
	<node id="-378818" lat="61.3766694412" lon="10.5924444491">
		<tag k="name" v="Doktertjønnet" />
		<tag k="natural" v="water" />
		<tag k="ssr:stedsnr" v="944685" />
	</node>
	<node id="-378305" lat="61.2995861096" lon="10.3356138887">
		<tag k="name" v="Rinna" />
		<tag k="ssr:stedsnr" v="282285" />
		<tag k="waterway" v="stream" />
	</node>
	<node id="-379327" lat="61.3859055556" lon="10.386133327">
		<tag k="name" v="Grautauget" />
		<tag k="natural" v="water" />
		<tag k="ssr:stedsnr" v="580610" />
	</node>
	<node id="-379322" lat="61.4175111076" lon="10.4865305516">
		<tag k="name" v="Vesle Tromsa" />
		<tag k="ssr:stedsnr" v="554967" />
		<tag k="waterway" v="stream" />
	</node>
	<node id="-378297" lat="61.3254305525" lon="10.6698138822">
		<tag k="name" v="Ukstjønnet" />
		<tag k="natural" v="water" />
		<tag k="ssr:stedsnr" v="162160" />
	</node>
	<node id="-378296" lat="61.4598777806" lon="10.6781111152">
		<tag k="name" v="Søre Eldåtjønn" />
		<tag k="natural" v="water" />
		<tag k="ssr:stedsnr" v="160953" />
	</node>
	<node id="-378805" lat="61.3282888919" lon="10.4044194462">
		<tag k="name" v="Hundtjønna" />
		<tag k="natural" v="water" />
		<tag k="ssr:stedsnr" v="858306" />
	</node>
	<node id="-378782" lat="61.3234833306" lon="10.3139333353">
		<tag k="name" v="Moksa" />
		<tag k="ssr:stedsnr" v="918952" />
		<tag k="waterway" v="river" />
	</node>
	<node id="-379314" lat="61.2593166668" lon="10.6116166638">
		<tag k="alt_name" v="Moksjøen, øvre;Øver-Moksjøen" />
		<tag k="name" v="Øvre Moksjøen" />
		<tag k="natural" v="water" />
		<tag k="ssr:stedsnr" v="554480" />
	</node>
	<node id="-379313" lat="61.4231000014" lon="10.6146194504">
		<tag k="name" v="Gråurdtjønnet" />
		<tag k="natural" v="water" />
		<tag k="ssr:stedsnr" v="554350" />
	</node>
	<node id="-379309" lat="61.3529444457" lon="10.5912194495">
		<tag k="name" v="Akksjøen" />
		<tag k="natural" v="water" />
		<tag k="ssr:stedsnr" v="554330" />
		<tag k="water" v="lake" />
	</node>
	<node id="-378284" lat="61.3981416683" lon="10.6642916592">
		<tag k="name" v="Skjela" />
		<tag k="ssr:stedsnr" v="129326" />
		<tag k="waterway" v="stream" />
	</node>
	<node id="-379307" lat="61.3856472263" lon="10.5357472221">
		<tag k="name" v="Goppollåa" />
		<tag k="ssr:stedsnr" v="554325" />
		<tag k="waterway" v="stream" />
	</node>
	<node id="-379306" lat="61.3450805585" lon="10.3851861104">
		<tag k="name" v="Moksa" />
		<tag k="ssr:stedsnr" v="554313" />
		<tag k="waterway" v="river" />
	</node>
	<node id="-378251" lat="61.3653722205" lon="10.5268222167">
		<tag k="alt_name" v="Grunnesvatnet" />
		<tag k="name" v="Grunnvatnet" />
		<tag k="natural" v="water" />
		<tag k="ssr:stedsnr" v="251342" />
		<tag k="water" v="lake" />
	</node>
	<node id="-378534" lat="61.3419305516" lon="10.6913111091">
		<tag k="alt_name" v="Øvreåsta" />
		<tag k="name" v="Øver-Åsta" />
		<tag k="ssr:stedsnr" v="676277" />
		<tag k="waterway" v="river" />
	</node>
	<node id="-379300" lat="61.430199998" lon="10.7026500038">
		<tag k="alt_name" v="Halansbekken" />
		<tag k="name" v="Hallansbekken" />
		<tag k="ssr:stedsnr" v="554369" />
		<tag k="waterway" v="stream" />
	</node>
	<node id="-378783" lat="61.3463472229" lon="10.646077783">
		<tag k="alt_name" v="Nedreåsta" />
		<tag k="name" v="Ner-Åsta" />
		<tag k="ssr:stedsnr" v="919271" />
		<tag k="waterway" v="river" />
	</node>
	<node id="-379294" lat="61.3839305569" lon="10.3095944425">
		<tag k="name" v="Rolla" />
		<tag k="ssr:stedsnr" v="553886" />
		<tag k="waterway" v="river" />
	</node>
	<node id="-379292" lat="61.2614833328" lon="10.6874527741">
		<tag k="name" v="Koltjønnet" />
		<tag k="natural" v="water" />
		<tag k="ssr:stedsnr" v="553472" />
	</node>
	<node id="-379290" lat="61.2170138854" lon="10.5704611099">
		<tag k="alt_name" v="Okstjørnbekken" />
		<tag k="name" v="Ukstjønnbekken" />
		<tag k="ssr:stedsnr" v="553153" />
		<tag k="waterway" v="stream" />
	</node>
	<node id="-378521" lat="61.2223638898" lon="10.6299500068">
		<tag k="name" v="Kriksvika" />
		<tag k="natural" v="bay" />
		<tag k="ssr:stedsnr" v="675197" />
	</node>
	<node id="-378258" lat="61.2910416658" lon="10.2821944473">
		<tag k="alt_name" v="Hovdfossen" />
		<tag k="name" v="Hovdefossen" />
		<tag k="ssr:stedsnr" v="251792" />
		<tag k="waterway" v="rapids" />
	</node>
	<node id="-378179" lat="61.2440444417" lon="10.7616972257">
		<tag k="name" v="Augbekken" />
		<tag k="ssr:stedsnr" v="8743" />
		<tag k="waterway" v="stream" />
	</node>
	<node id="-378768" lat="61.2424750016" lon="10.4725305631">
		<tag k="name" v="Lysa" />
		<tag k="ssr:stedsnr" v="918161" />
		<tag k="waterway" v="stream" />
	</node>
	<node id="-378255" lat="61.3618394381" lon="10.7806615259">
		<tag k="alt_name" v="Lyngtjørna, østre" />
		<tag k="name" v="Østre Lyngtjørna" />
		<tag k="natural" v="water" />
		<tag k="ssr:stedsnr" v="251425" />
	</node>
	<node id="-378765" lat="61.2191333352" lon="10.5633972262">
		<tag k="alt_name" v="Okstjørnet" />
		<tag k="name" v="Ukstjønnet" />
		<tag k="natural" v="water" />
		<tag k="ssr:stedsnr" v="917137" />
	</node>
	<node id="-378252" lat="61.3895305574" lon="10.686249995">
		<tag k="alt_name" v="Åstavatnet, øvre;Øver-Åstvatnet" />
		<tag k="name" v="Øvre Åstavatnet" />
		<tag k="natural" v="water" />
		<tag k="ssr:stedsnr" v="251354" />
		<tag k="water" v="lake" />
	</node>
	<node id="-378763" lat="61.2766111075" lon="10.3492250058">
		<tag k="name" v="Vesleaurevika" />
		<tag k="natural" v="bay" />
		<tag k="ssr:stedsnr" v="769467" />
	</node>
	<node id="-378762" lat="61.295605556" lon="10.6833111101">
		<tag k="name" v="Vesle-Auge" />
		<tag k="natural" v="water" />
		<tag k="ssr:stedsnr" v="769317" />
	</node>
	<node id="-378249" lat="61.3785397315" lon="10.6098945638">
		<tag k="alt_name" v="Åstavatnet, nedre;Ner-Åstvatnet" />
		<tag k="name" v="Nedre Åstavatnet" />
		<tag k="natural" v="water" />
		<tag k="ssr:stedsnr" v="251332" />
		<tag k="water" v="lake" />
	</node>
	<node id="-378689" lat="61.2841305544" lon="10.3396583414">
		<tag k="name" v="Igletjønnet" />
		<tag k="natural" v="water" />
		<tag k="ssr:stedsnr" v="676754" />
	</node>
	<node id="-378688" lat="61.2982388902" lon="10.2244333294">
		<tag k="alt_name" v="Blesse-bekken" />
		<tag k="name" v="Blesumbekken" />
		<tag k="ssr:stedsnr" v="676753" />
		<tag k="waterway" v="stream" />
	</node>
	<node id="-378976" lat="61.3688222226" lon="10.4120194453">
		<tag k="name" v="Ståkåmyrtjønnet" />
		<tag k="natural" v="water" />
		<tag k="ssr:stedsnr" v="94654" />
	</node>
	<node id="-378746" lat="61.3674444454" lon="10.2820277702">
		<tag k="name" v="Mågålineset" />
		<tag k="natural" v="cape" />
		<tag k="ssr:stedsnr" v="767275" />
	</node>
	<node id="-379044" lat="61.291386113" lon="10.2791833343">
		<tag k="name" v="Veslefossen" />
		<tag k="ssr:stedsnr" v="160364" />
		<tag k="waterway" v="rapids" />
	</node>
	<node id="-379255" lat="61.2841527822" lon="10.4374888801">
		<tag k="name" v="Sæterbekken" />
		<tag k="ssr:stedsnr" v="524466" />
		<tag k="waterway" v="stream" />
	</node>
	<node id="-378229" lat="61.2728694467" lon="10.7062694463">
		<tag k="name" v="Kvannbekken" />
		<tag k="ssr:stedsnr" v="68503" />
		<tag k="waterway" v="stream" />
	</node>
	<node id="-378740" lat="61.3556111095" lon="10.206347214">
		<tag k="name" v="Slåbekken" />
		<tag k="ssr:stedsnr" v="907801" />
		<tag k="waterway" v="stream" />
	</node>
	<node id="-379250" lat="61.3550027748" lon="10.3219111157">
		<tag k="name" v="Glømmebekken" />
		<tag k="ssr:stedsnr" v="433967" />
		<tag k="waterway" v="stream" />
	</node>
	<node id="-379248" lat="61.2894361114" lon="10.3240972283">
		<tag k="name" v="Rinda" />
		<tag k="ssr:stedsnr" v="433778" />
		<tag k="waterway" v="stream" />
	</node>
	<node id="-379504" lat="61.3008638925" lon="10.5904277851">
		<tag k="name" v="Brandskjønnbekken" />
		<tag k="ssr:stedsnr" v="823682" />
		<tag k="waterway" v="stream" />
	</node>
	<node id="-379282" lat="61.366841669" lon="10.3195111165">
		<tag k="name" v="Vedemselva" />
		<tag k="ssr:stedsnr" v="526309" />
		<tag k="waterway" v="river" />
	</node>
	<node id="-378157" lat="61.2234444454" lon="10.4867722305">
		<tag k="name" v="Stubberudbekken" />
		<tag k="ssr:stedsnr" v="221305" />
		<tag k="waterway" v="stream" />
	</node>
	<node id="-378729" lat="61.2056722264" lon="10.4411888827">
		<tag k="name" v="Kjærlighetsfossen" />
		<tag k="natural" v="waterfall" />
		<tag k="ssr:stedsnr" v="891571" />
	</node>
	<node id="-379452" lat="61.2736036906" lon="10.394083292">
		<tag k="alt_name" v="Kramprudsvika" />
		<tag k="name" v="Kramperudsvika" />
		<tag k="natural" v="bay" />
		<tag k="ssr:stedsnr" v="767418" />
	</node>
	<node id="-378513" lat="61.2292722183" lon="10.6378166722">
		<tag k="name" v="Kriksbekken" />
		<tag k="ssr:stedsnr" v="736164" />
		<tag k="waterway" v="stream" />
	</node>
	<node id="-378210" lat="61.2935916675" lon="10.562547219">
		<tag k="name" v="Rognhaugtjønnet" />
		<tag k="natural" v="water" />
		<tag k="ssr:stedsnr" v="39814" />
	</node>
	<node id="-379233" lat="61.2951000005" lon="10.5144583281">
		<tag k="name" v="Storåsbekken" />
		<tag k="ssr:stedsnr" v="433274" />
		<tag k="waterway" v="stream" />
	</node>
	<node id="-378718" lat="61.2575000007" lon="10.735733338">
		<tag k="name" v="Hynnoset" />
		<tag k="natural" v="bay" />
		<tag k="ssr:stedsnr" v="889760" />
	</node>
	<node id="-378170" lat="61.3458805531" lon="10.3483916696">
		<tag k="name" v="Øvre Åkvislebekken" />
		<tag k="ssr:stedsnr" v="221800" />
		<tag k="waterway" v="stream" />
	</node>
	<node id="-378852" lat="61.4104055585" lon="10.5193166732">
		<tag k="name" v="Tverråa" />
		<tag k="ssr:stedsnr" v="918964" />
		<tag k="waterway" v="stream" />
	</node>
	<node id="-378710" lat="61.2585111132" lon="10.5725527794">
		<tag k="name" v="Moksjøbekken" />
		<tag k="ssr:stedsnr" v="889323" />
		<tag k="waterway" v="stream" />
	</node>
	<node id="-379218" lat="61.2434861111" lon="10.6970166668">
		<tag k="name" v="Midtbekken" />
		<tag k="ssr:stedsnr" v="432126" />
		<tag k="waterway" v="stream" />
	</node>
	<node id="-378595" lat="61.3463638914" lon="10.2596833357">
>>>>>>> e1d4bc35ff8a6074a6f2e91616a996b547c36f15
		<tag k="name" v="Kvennbekken" />
		<tag k="ssr:stedsnr" v="707269" />
		<tag k="waterway" v="stream" />
	</node>
<<<<<<< HEAD
	<node lat="61.270600004065116" lon="10.397311118983287" id="-33396">
		<tag k="name" v="Gillebufjorden" />
		<tag k="natural" v="water" />
		<tag k="ssr:stedsnr" v="645407" />
		<tag k="water" v="lake" />
	</node>
	<node lat="61.389758331530366" lon="10.701891664372774" id="-33397">
		<tag k="name" v="Saltbelgsåa" />
		<tag k="ssr:stedsnr" v="645172" />
		<tag k="waterway" v="stream" />
	</node>
	<node lat="61.254838889229795" lon="10.495394436103958" id="-33408">
		<tag k="name" v="Storfallet" />
		<tag k="natural" v="waterfall" />
		<tag k="ssr:stedsnr" v="706839" />
	</node>
	<node lat="61.364299995727336" lon="10.430688886070628" id="-33409">
		<tag k="name" v="Saumyrbekken" />
		<tag k="ssr:stedsnr" v="647092" />
		<tag k="waterway" v="stream" />
	</node>
	<node lat="61.37674166267226" lon="10.46711388301047" id="-33410">
		<tag k="name" v="Sjursbekken" />
		<tag k="ssr:stedsnr" v="647095" />
		<tag k="waterway" v="stream" />
	</node>
	<node lat="61.32698333263408" lon="10.602122215775397" id="-33412">
		<tag k="name" v="Slåtjønnet" />
		<tag k="natural" v="water" />
		<tag k="ssr:stedsnr" v="647193" />
	</node>
	<node lat="61.35071389113764" lon="10.272852780571391" id="-33418">
		<tag k="name" v="Botterudodden" />
		<tag k="natural" v="cape" />
		<tag k="ssr:stedsnr" v="707253" />
	</node>
	<node lat="61.27533610812388" lon="10.448391673679517" id="-33422">
		<tag k="name" v="Norsebekkhølet" />
		<tag k="place" v="locality" />
		<tag k="ssr:stedsnr" v="707531" />
	</node>
	<node lat="61.239130552325726" lon="10.704161105938505" id="-33446">
		<tag k="name" v="Grytfjellbekken" />
		<tag k="ssr:stedsnr" v="675167" />
		<tag k="waterway" v="stream" />
	</node>
	<node lat="61.222363889824535" lon="10.62995000684237" id="-33447">
		<tag k="name" v="Kriksvika" />
		<tag k="natural" v="bay" />
		<tag k="ssr:stedsnr" v="675197" />
	</node>
	<node lat="61.38691111220861" lon="10.602830559262475" id="-33448">
		<tag k="name" v="Stortautra" />
		<tag k="ssr:stedsnr" v="675349" />
		<tag k="waterway" v="stream" />
	</node>
	<node lat="61.389577773942555" lon="10.587541665330995" id="-33449">
		<tag k="alt_name" v="Vesle Tautra" />
		<tag k="name" v="Vesltautra" />
		<tag k="ssr:stedsnr" v="675351" />
		<tag k="waterway" v="stream" />
	</node>
	<node lat="61.3016694476957" lon="10.40496666444875" id="-33472">
		<tag k="name" v="Skåeåa" />
		<tag k="ssr:stedsnr" v="706770" />
		<tag k="waterway" v="stream" />
	</node>
	<node lat="61.35725555986805" lon="10.182638890487507" id="-33490">
		<tag k="name" v="Knapptjønnet" />
		<tag k="natural" v="water" />
		<tag k="ssr:stedsnr" v="725816" />
	</node>
	<node lat="61.297508329703156" lon="10.67519999469794" id="-33494">
		<tag k="alt_name" v="Stor-Auge" />
		<tag k="name" v="Augan" />
=======
	<node id="-378192" lat="61.260711112" lon="10.6946277823">
		<tag k="name" v="Koltjønnbekken" />
		<tag k="ssr:stedsnr" v="223514" />
		<tag k="waterway" v="stream" />
	</node>
	<node id="-378703" lat="61.2565944451" lon="10.5192472177">
		<tag k="name" v="Kroklon" />
		<tag k="natural" v="water" />
		<tag k="ssr:stedsnr" v="888824" />
		<tag k="water" v="lake" />
	</node>
	<node id="-378190" lat="61.3676277745" lon="10.3310305562">
		<tag k="name" v="Raumyrkroken" />
		<tag k="place" v="locality" />
		<tag k="ssr:stedsnr" v="223334" />
	</node>
	<node id="-378701" lat="61.3095277739" lon="10.3742638866">
		<tag k="name" v="Svarttjønnet" />
		<tag k="natural" v="water" />
		<tag k="ssr:stedsnr" v="888771" />
	</node>
	<node id="-378700" lat="61.2233527786" lon="10.5311083357">
		<tag k="name" v="Steintjønnet" />
		<tag k="natural" v="water" />
		<tag k="ssr:stedsnr" v="888686" />
	</node>
	<node id="-378338" lat="61.3154055523" lon="10.6503222256">
		<tag k="name" v="Estensbekken" />
		<tag k="ssr:stedsnr" v="284183" />
		<tag k="waterway" v="stream" />
	</node>
	<node id="-378697" lat="61.2747916676" lon="10.4165416597">
		<tag k="name" v="Hovsåa" />
		<tag k="ssr:stedsnr" v="888387" />
		<tag k="waterway" v="stream" />
	</node>
	<node id="-379207" lat="61.1841666682" lon="10.4156527783">
		<tag k="name" v="Sanna" />
		<tag k="place" v="locality" />
		<tag k="ssr:stedsnr" v="405596" />
	</node>
	<node id="-378940" lat="61.2947833315" lon="10.4111722155">
		<tag k="name" v="Båsbekken" />
		<tag k="ssr:stedsnr" v="48546" />
		<tag k="waterway" v="stream" />
	</node>
	<node id="-378691" lat="61.2519194445" lon="10.435663896">
		<tag k="name" v="Trælvika" />
		<tag k="natural" v="bay" />
		<tag k="ssr:stedsnr" v="883796" />
	</node>
	<node id="-378177" lat="61.4013111127" lon="10.4974861054">
		<tag k="name" v="Laukamsbekken" />
		<tag k="ssr:stedsnr" v="221980" />
		<tag k="waterway" v="stream" />
	</node>
	<node id="-379200" lat="61.2576333325" lon="10.5227111179">
		<tag k="name" v="Mosåa" />
		<tag k="ssr:stedsnr" v="403848" />
		<tag k="waterway" v="river" />
	</node>
	<node id="-378687" lat="61.4133000005" lon="10.5876388874">
		<tag k="name" v="Tautertjønnet" />
		<tag k="natural" v="water" />
		<tag k="ssr:stedsnr" v="676334" />
	</node>
	<node id="-379198" lat="61.3624833352" lon="10.183436114">
		<tag k="name" v="Martintjønnet" />
		<tag k="natural" v="water" />
		<tag k="ssr:stedsnr" v="403843" />
	</node>
	<node id="-378173" lat="61.3112972267" lon="10.3570111095">
		<tag k="name" v="Rindtjønnet" />
		<tag k="natural" v="water" />
		<tag k="ssr:stedsnr" v="8305" />
	</node>
	<node id="-378172" lat="61.310122223" lon="10.6214500043">
		<tag k="name" v="Mjøvatnet" />
		<tag k="natural" v="water" />
		<tag k="ssr:stedsnr" v="8301" />
	</node>
	<node id="-378360" lat="61.3532527817" lon="10.6123111165">
		<tag k="name" v="Knapptjønna" />
		<tag k="natural" v="water" />
		<tag k="ssr:stedsnr" v="216620" />
	</node>
	<node id="-378681" lat="61.3842583356" lon="10.6399277823">
		<tag k="alt_name" v="Skytilen" />
		<tag k="name" v="Skyttilen" />
		<tag k="natural" v="water" />
		<tag k="ssr:stedsnr" v="675328" />
	</node>
	<node id="-378679" lat="61.2391305523" lon="10.7041611059">
		<tag k="name" v="Grytfjellbekken" />
		<tag k="ssr:stedsnr" v="675167" />
		<tag k="waterway" v="stream" />
	</node>
	<node id="-379189" lat="61.3983277771" lon="10.5693499951">
		<tag k="name" v="Kjøllbekken" />
		<tag k="ssr:stedsnr" v="403298" />
		<tag k="waterway" v="stream" />
	</node>
	<node id="-378164" lat="61.2804833295" lon="10.4447277854">
		<tag k="name" v="Finnsbekken" />
		<tag k="ssr:stedsnr" v="221499" />
		<tag k="waterway" v="stream" />
	</node>
	<node id="-379186" lat="61.3231444485" lon="10.6001138906">
		<tag k="name" v="Svartbergtjønnet" />
		<tag k="natural" v="water" />
		<tag k="ssr:stedsnr" v="397737" />
	</node>
	<node id="-379185" lat="61.2791222227" lon="10.5925527864">
		<tag k="name" v="Smiltjønnet" />
		<tag k="natural" v="water" />
		<tag k="ssr:stedsnr" v="397718" />
	</node>
	<node id="-379182" lat="61.3919129438" lon="10.5606687498">
		<tag k="name" v="Goppollvatnet" />
>>>>>>> e1d4bc35ff8a6074a6f2e91616a996b547c36f15
		<tag k="natural" v="water" />
		<tag k="ssr:stedsnr" v="372347" />
		<tag k="water" v="lake" />
	</node>
<<<<<<< HEAD
	<node lat="61.229905551718886" lon="10.830463894643284" id="-33505">
		<tag k="name" v="Åsta" />
		<tag k="ssr:stedsnr" v="736725" />
		<tag k="waterway" v="river" />
	</node>
	<node lat="61.35912499614023" lon="10.286269446283873" id="-33508">
		<tag k="name" v="Sagodden" />
		<tag k="natural" v="cape" />
		<tag k="ssr:stedsnr" v="767201" />
	</node>
	<node lat="61.35078333292747" lon="10.253783328724476" id="-33513">
		<tag k="name" v="Botterudbekken" />
		<tag k="ssr:stedsnr" v="767218" />
		<tag k="waterway" v="stream" />
	</node>
	<node lat="61.235886111820555" lon="10.562794451388108" id="-33515">
		<tag k="name" v="Høgåsbekken" />
		<tag k="ssr:stedsnr" v="767646" />
		<tag k="waterway" v="stream" />
	</node>
	<node lat="61.295605556026395" lon="10.68331111007737" id="-33522">
		<tag k="name" v="Vesle-Auge" />
		<tag k="natural" v="water" />
		<tag k="ssr:stedsnr" v="769317" />
	</node>
	<node lat="61.351294447766875" lon="10.54823889633978" id="-33529">
		<tag k="name" v="Vatn-tjønna" />
		<tag k="natural" v="water" />
		<tag k="ssr:stedsnr" v="786455" />
	</node>
	<node lat="61.25061389185882" lon="10.699991667569366" id="-33533">
		<tag k="name" v="Storåsbekken" />
		<tag k="ssr:stedsnr" v="796126" />
		<tag k="waterway" v="stream" />
	</node>
	<node lat="61.294936115577734" lon="10.264302780219381" id="-33536">
		<tag k="name" v="Musa" />
		<tag k="ssr:stedsnr" v="797762" />
		<tag k="waterway" v="river" />
	</node>
	<node lat="61.4146333311923" lon="10.605505563138333" id="-33539">
		<tag k="name" v="Tittertjønna" />
		<tag k="natural" v="water" />
		<tag k="ssr:stedsnr" v="798293" />
	</node>
	<node lat="61.21913333520053" lon="10.563397226232922" id="-33542">
		<tag k="alt_name" v="Okstjørnet" />
		<tag k="name" v="Ukstjønnet" />
		<tag k="natural" v="water" />
		<tag k="ssr:stedsnr" v="917137" />
	</node>
	<node lat="61.375266663855214" lon="10.642488884476425" id="-33549">
		<tag k="alt_name" v="Skytilbekken" />
		<tag k="name" v="Skyttilbekken" />
		<tag k="ssr:stedsnr" v="918364" />
		<tag k="waterway" v="stream" />
	</node>
	<node lat="61.346347222859514" lon="10.646077782971986" id="-33560">
		<tag k="alt_name" v="Nedreåsta" />
		<tag k="name" v="Ner-Åsta" />
		<tag k="ssr:stedsnr" v="919271" />
		<tag k="waterway" v="river" />
	</node>
	<node lat="61.27305555180569" lon="10.317961118556719" id="-33583">
		<tag k="name" v="Gåsøya" />
		<tag k="place" v="island" />
		<tag k="ssr:stedsnr" v="843026" />
	</node>
	<node lat="61.248627780312866" lon="10.739827770390384" id="-33586">
		<tag k="name" v="Hornsjøen" />
		<tag k="natural" v="water" />
		<tag k="ssr:stedsnr" v="857736" />
		<tag k="water" v="lake" />
	</node>
	<node lat="61.32828889189814" lon="10.404419446220096" id="-33589">
		<tag k="name" v="Hundtjønna" />
		<tag k="natural" v="water" />
		<tag k="ssr:stedsnr" v="858306" />
	</node>
	<node lat="61.31515277352558" lon="10.364833326964533" id="-33595">
		<tag k="name" v="Svarttjønnet" />
		<tag k="natural" v="water" />
		<tag k="ssr:stedsnr" v="858275" />
	</node>
	<node lat="61.31047222225079" lon="10.427247214612212" id="-33596">
		<tag k="name" v="Skåeåa" />
		<tag k="ssr:stedsnr" v="858276" />
		<tag k="waterway" v="stream" />
	</node>
	<node lat="61.40659722584581" lon="10.539247228391856" id="-33605">
		<tag k="name" v="Fjelltjønnet" />
		<tag k="natural" v="water" />
		<tag k="ssr:stedsnr" v="884614" />
	</node>
	<node lat="61.2056722263673" lon="10.441188882659938" id="-33615">
		<tag k="name" v="Kjærlighetsfossen" />
		<tag k="natural" v="waterfall" />
		<tag k="ssr:stedsnr" v="891571" />
	</node>
	<node lat="61.35561110952998" lon="10.206347214017184" id="-33619">
		<tag k="name" v="Slåbekken" />
		<tag k="ssr:stedsnr" v="907801" />
		<tag k="waterway" v="stream" />
	</node>
	<node lat="61.24247500160325" lon="10.47253056307496" id="-33622">
		<tag k="name" v="Lysa" />
		<tag k="ssr:stedsnr" v="918161" />
		<tag k="waterway" v="stream" />
	</node>
	<node lat="61.32348333058885" lon="10.313933335340225" id="-33631">
		<tag k="name" v="Moksa" />
		<tag k="ssr:stedsnr" v="918952" />
		<tag k="waterway" v="river" />
	</node>
	<node lat="61.41040555848679" lon="10.519316673172696" id="-33632">
		<tag k="name" v="Tverråa" />
		<tag k="ssr:stedsnr" v="918964" />
		<tag k="waterway" v="stream" />
	</node>
	<node lat="61.39181110788793" lon="10.551966666358734" id="-33637">
		<tag k="name" v="Storvika" />
		<tag k="natural" v="bay" />
		<tag k="ssr:stedsnr" v="949296" />
	</node>
	<node lat="61.25240277528607" lon="10.44425832605407" id="-33651">
		<tag k="name" v="Storkjølla" />
		<tag k="natural" v="spring" />
		<tag k="ssr:stedsnr" v="951788" />
	</node>
	<node lat="61.24660277632154" lon="10.431580564475347" id="-33652">
		<tag k="name" v="Strømshuguet" />
		<tag k="natural" v="cape" />
		<tag k="ssr:stedsnr" v="951836" />
	</node>
	<node lat="61.442758331701825" lon="10.924841658937417" id="-33660">
		<tag k="alt_name" v="Nordre Eldåa;Eldåa, nordre" />
		<tag k="name" v="Nørdre Eldåa" />
		<tag k="ssr:stedsnr" v="7435" />
		<tag k="waterway" v="river" />
	</node>
	<node lat="61.39927777463347" lon="10.620858338393251" id="-33665">
		<tag k="name" v="Titterbekken" />
		<tag k="ssr:stedsnr" v="8341" />
		<tag k="waterway" v="stream" />
	</node>
	<node lat="61.244044441650885" lon="10.761697225733156" id="-33670">
		<tag k="name" v="Augbekken" />
		<tag k="ssr:stedsnr" v="8743" />
		<tag k="waterway" v="stream" />
	</node>
	<node lat="61.288788886353856" lon="10.280327771912884" id="-33683">
		<tag k="name" v="Bjørnstadøya" />
		<tag k="place" v="island" />
		<tag k="ssr:stedsnr" v="39350" />
	</node>
	<node lat="61.29359166750503" lon="10.562547219009735" id="-33690">
		<tag k="name" v="Rognhaugtjønnet" />
		<tag k="natural" v="water" />
		<tag k="ssr:stedsnr" v="39814" />
	</node>
	<node lat="61.29478333151068" lon="10.411172215455524" id="-33697">
		<tag k="name" v="Båsbekken" />
		<tag k="ssr:stedsnr" v="48546" />
		<tag k="waterway" v="stream" />
	</node>
	<node lat="61.22537500189291" lon="10.56493610427318" id="-33702">
		<tag k="alt_name" v="Malmtjønnet" />
		<tag k="name" v="Malmtjørnet" />
		<tag k="natural" v="water" />
		<tag k="ssr:stedsnr" v="69171" />
	</node>
	<node lat="61.279952777455286" lon="10.621405558232851" id="-33705">
		<tag k="name" v="Rulltjønnet" />
		<tag k="natural" v="water" />
		<tag k="ssr:stedsnr" v="69274" />
	</node>
	<node lat="61.39242222367902" lon="10.43650555025504" id="-33707">
		<tag k="name" v="Måsåmyrtjønna" />
		<tag k="natural" v="water" />
		<tag k="ssr:stedsnr" v="69344" />
	</node>
	<node lat="61.3336555536082" lon="10.733049992111724" id="-33710">
		<tag k="alt_name" v="Nordre Bøsætertjønn" />
		<tag k="name" v="Bøsætertjørna" />
		<tag k="natural" v="water" />
		<tag k="ssr:stedsnr" v="69424" />
	</node>
	<node lat="61.36882222256458" lon="10.41201944534706" id="-33717">
		<tag k="name" v="Ståkåmyrtjønnet" />
		<tag k="natural" v="water" />
		<tag k="ssr:stedsnr" v="94654" />
	</node>
	<node lat="61.38840277965076" lon="10.55701943866595" id="-33720">
		<tag k="name" v="Jehansberget" />
		<tag k="place" v="islet" />
		<tag k="ssr:stedsnr" v="99344" />
	</node>
	<node lat="61.32719999752301" lon="10.673344450465413" id="-33735">
		<tag k="name" v="Uksbekken" />
		<tag k="ssr:stedsnr" v="102189" />
		<tag k="waterway" v="stream" />
	</node>
	<node lat="61.26594722506486" lon="10.661358329290186" id="-33741">
		<tag k="name" v="Langmyrbekken" />
		<tag k="ssr:stedsnr" v="102565" />
		<tag k="waterway" v="stream" />
	</node>
	<node lat="61.23677500458622" lon="10.400263879895059" id="-33753">
		<tag k="alt_name" v="Rundvatnet" />
		<tag k="name" v="Brånåtjørnet" />
		<tag k="natural" v="water" />
		<tag k="ssr:stedsnr" v="129162" />
	</node>
	<node lat="61.23419722253359" lon="10.693013887469679" id="-33755">
		<tag k="name" v="Kruggrenna" />
		<tag k="ssr:stedsnr" v="129166" />
		<tag k="waterway" v="stream" />
	</node>
	<node lat="61.23804166781035" lon="10.65371667189918" id="-33756">
		<tag k="alt_name" v="Krikstjønnet" />
		<tag k="name" v="Krikstjørnet" />
		<tag k="natural" v="water" />
		<tag k="ssr:stedsnr" v="129169" />
	</node>
	<node lat="61.232741671063216" lon="10.4370611119802" id="-33757">
		<tag k="loc_name" v="Gudbrandsdalslågen" />
		<tag k="name" v="Lågen" />
		<tag k="ssr:stedsnr" v="129173" />
		<tag k="waterway" v="river" />
	</node>
	<node lat="61.3589472254125" lon="10.552497217755958" id="-33767">
		<tag k="name" v="Hølbekken" />
		<tag k="ssr:stedsnr" v="155631" />
		<tag k="waterway" v="stream" />
	</node>
	<node lat="61.326680551983884" lon="10.390652770218413" id="-33768">
		<tag k="name" v="Nedre Hundtjønnet" />
		<tag k="natural" v="water" />
		<tag k="ssr:stedsnr" v="155762" />
	</node>
	<node lat="61.36504999640126" lon="10.562369452162882" id="-33771">
		<tag k="name" v="Djupsåa" />
		<tag k="ssr:stedsnr" v="160258" />
		<tag k="waterway" v="river" />
	</node>
	<node lat="61.287183335991365" lon="10.274386104236978" id="-33776">
		<tag k="name" v="Bjørnstadåa" />
		<tag k="ssr:stedsnr" v="160362" />
		<tag k="waterway" v="stream" />
	</node>
	<node lat="61.29138611298477" lon="10.279183334332089" id="-33777">
		<tag k="name" v="Veslefossen" />
		<tag k="ssr:stedsnr" v="160364" />
		<tag k="waterway" v="rapids" />
	</node>
	<node lat="61.45987778059342" lon="10.678111115234437" id="-33786">
		<tag k="name" v="Søre Eldåtjønn" />
		<tag k="natural" v="water" />
		<tag k="ssr:stedsnr" v="160953" />
	</node>
	<node lat="61.254341670857286" lon="10.51192499799904" id="-33788">
		<tag k="name" v="Blæsterfalla" />
		<tag k="ssr:stedsnr" v="160820" />
		<tag k="waterway" v="rapids" />
	</node>
	<node lat="61.40063888774809" lon="10.511911103242657" id="-33789">
		<tag k="name" v="Flåtåmobekken" />
		<tag k="ssr:stedsnr" v="160992" />
		<tag k="waterway" v="stream" />
	</node>
	<node lat="61.39870833092071" lon="10.485825007834023" id="-33790">
		<tag k="name" v="Vesle Tromstjønnet" />
		<tag k="natural" v="water" />
		<tag k="ssr:stedsnr" v="160994" />
	</node>
	<node lat="61.18668611467813" lon="10.415172221818372" id="-33794">
		<tag k="name" v="Stygghølet" />
		<tag k="place" v="locality" />
		<tag k="ssr:stedsnr" v="162591" />
	</node>
	<node lat="61.25103055602592" lon="10.4304777827487" id="-33803">
		<tag k="alt_name" v="Jevnfjorden;Jevnefjorden" />
		<tag k="name" v="Jemnefjorden" />
		<tag k="natural" v="water" />
		<tag k="ssr:stedsnr" v="190141" />
		<tag k="water" v="lake" />
	</node>
	<node lat="61.30642222540874" lon="10.652855548650331" id="-33807">
=======
	<node id="-378333" lat="61.1943000024" lon="10.4084444511">
		<tag k="name" v="Ensbyfallan" />
		<tag k="ssr:stedsnr" v="283591" />
		<tag k="waterway" v="rapids" />
	</node>
	<node id="-379180" lat="61.410472223" lon="10.6610861147">
		<tag k="name" v="Skjeltjønnet" />
		<tag k="natural" v="water" />
		<tag k="ssr:stedsnr" v="372338" />
	</node>
	<node id="-379179" lat="61.3689303171" lon="10.5887500696">
		<tag k="name" v="Djupen" />
		<tag k="natural" v="water" />
		<tag k="ssr:stedsnr" v="372328" />
		<tag k="water" v="lake" />
	</node>
	<node id="-379178" lat="61.3772388929" lon="10.4578000063">
		<tag k="alt_name" v="Våsjøen" />
		<tag k="name" v="Vålsjøen" />
		<tag k="natural" v="water" />
		<tag k="ssr:stedsnr" v="372325" />
		<tag k="water" v="lake" />
	</node>
	<node id="-378665" lat="61.3767416627" lon="10.467113883">
		<tag k="name" v="Sjursbekken" />
		<tag k="ssr:stedsnr" v="647095" />
		<tag k="waterway" v="stream" />
	</node>
	<node id="-379176" lat="61.2571499973" lon="10.5425055637">
		<tag k="alt_name" v="Moksjøen, nedre" />
		<tag k="name" v="Nedre Moksjøen" />
		<tag k="natural" v="water" />
		<tag k="ssr:stedsnr" v="372486" />
	</node>
	<node id="-379175" lat="61.3154305546" lon="10.6408138911">
		<tag k="name" v="Gorrtjønnet" />
		<tag k="natural" v="water" />
		<tag k="ssr:stedsnr" v="372294" />
	</node>
	<node id="-378150" lat="61.3220017264" lon="10.293054307">
		<tag k="name" v="Båtstøtjønnet" />
		<tag k="natural" v="water" />
		<tag k="ssr:stedsnr" v="219933" />
	</node>
	<node id="-379173" lat="61.2900611118" lon="10.6034888858">
		<tag k="name" v="Gåssjøen" />
		<tag k="natural" v="water" />
		<tag k="ssr:stedsnr" v="372275" />
	</node>
	<node id="-378658" lat="61.3836944471" lon="10.43399166">
		<tag k="name" v="Skardtjønnet" />
		<tag k="natural" v="water" />
		<tag k="ssr:stedsnr" v="645533" />
	</node>
	<node id="-379167" lat="61.3592333366" lon="10.4903111108">
		<tag k="name" v="Lånkebulona" />
		<tag k="natural" v="water" />
		<tag k="ssr:stedsnr" v="361499" />
		<tag k="water" v="lake" />
	</node>
	<node id="-379592" lat="61.2998361108" lon="10.2940527745">
		<tag k="name" v="Trælvika" />
		<tag k="natural" v="bay" />
		<tag k="ssr:stedsnr" v="968649" />
	</node>
	<node id="-378653" lat="61.3572555599" lon="10.1826388905">
		<tag k="name" v="Knapptjønnet" />
		<tag k="natural" v="water" />
		<tag k="ssr:stedsnr" v="725816" />
	</node>
	<node id="-379159" lat="61.3277138917" lon="10.7404944502">
		<tag k="name" v="Søre Bøsætertjønn" />
		<tag k="natural" v="water" />
		<tag k="ssr:stedsnr" v="344829" />
	</node>
	<node id="-378645" lat="61.3345000012" lon="10.5920583245">
		<tag k="name" v="Indre Bretta" />
		<tag k="ssr:stedsnr" v="603561" />
		<tag k="waterway" v="stream" />
	</node>
	<node id="-378644" lat="61.3583944425" lon="10.5873250001">
		<tag k="name" v="Akksjøbekken" />
		<tag k="ssr:stedsnr" v="603413" />
		<tag k="waterway" v="stream" />
	</node>
	<node id="-379154" lat="61.2019750041" lon="10.422372224">
		<tag k="name" v="Dølkjøylla" />
		<tag k="natural" v="spring" />
		<tag k="ssr:stedsnr" v="344586" />
	</node>
	<node id="-379181" lat="61.3962194412" lon="10.6399194392">
		<tag k="name" v="Jogrimen" />
		<tag k="natural" v="water" />
		<tag k="ssr:stedsnr" v="372343" />
	</node>
	<node id="-379148" lat="61.3794972267" lon="10.4547055601">
		<tag k="name" v="Nørdre Sundhaugen" />
		<tag k="place" v="island" />
		<tag k="ssr:stedsnr" v="344060" />
	</node>
	<node id="-379147" lat="61.4098805516" lon="10.5444500002">
		<tag k="name" v="Fjellbekken" />
		<tag k="ssr:stedsnr" v="342904" />
		<tag k="waterway" v="stream" />
	</node>
	<node id="-379145" lat="61.347524999" lon="10.342797213">
		<tag k="name" v="Nedre Åkvislebekken" />
		<tag k="ssr:stedsnr" v="342791" />
		<tag k="waterway" v="stream" />
	</node>
	<node id="-379144" lat="61.2450222215" lon="10.7352500013">
		<tag k="name" v="Vassenden" />
		<tag k="natural" v="bay" />
		<tag k="ssr:stedsnr" v="342720" />
	</node>
	<node id="-378629" lat="61.2896638878" lon="10.5837972243">
		<tag k="name" v="Rognhaugbekken" />
		<tag k="ssr:stedsnr" v="584859" />
		<tag k="waterway" v="stream" />
	</node>
	<node id="-378989" lat="61.266449997" lon="10.5591111111">
		<tag k="name" v="Hemre Liendbekken" />
		<tag k="ssr:stedsnr" v="100613" />
		<tag k="waterway" v="stream" />
	</node>
	<node id="-378326" lat="61.2535749987" lon="10.7978194514">
		<tag k="name" v="Merrehølen" />
		<tag k="place" v="locality" />
		<tag k="ssr:stedsnr" v="282741" />
	</node>
	<node id="-379137" lat="61.3902111125" lon="10.5623333256">
		<tag k="name" v="Storøya" />
		<tag k="place" v="island" />
		<tag k="ssr:stedsnr" v="342306" />
	</node>
	<node id="-379136" lat="61.3999083323" lon="10.5496694476">
		<tag k="name" v="Uksbåsbekken" />
		<tag k="ssr:stedsnr" v="342305" />
		<tag k="waterway" v="stream" />
	</node>
	<node id="-379131" lat="61.2672972228" lon="10.6344250056">
		<tag k="name" v="Haugstjønna" />
		<tag k="natural" v="water" />
		<tag k="ssr:stedsnr" v="337712" />
	</node>
	<node id="-378426" lat="61.3680250045" lon="10.5567194399">
		<tag k="name" v="Grotjønnet" />
		<tag k="natural" v="water" />
		<tag k="ssr:stedsnr" v="493318" />
	</node>
	<node id="-379126" lat="61.4636361091" lon="10.6622111141">
		<tag k="name" v="Eldåtjønna" />
		<tag k="natural" v="water" />
		<tag k="ssr:stedsnr" v="312351" />
	</node>
	<node id="-378153" lat="61.3744444461" lon="10.4843722209">
		<tag k="name" v="Knarkebakktjønnet" />
		<tag k="natural" v="water" />
		<tag k="ssr:stedsnr" v="221276" />
	</node>
	<node id="-379124" lat="61.33161111" lon="10.4547638942">
		<tag k="name" v="Skåetjønna" />
		<tag k="natural" v="water" />
		<tag k="ssr:stedsnr" v="312287" />
	</node>
	<node id="-379122" lat="61.3334138906" lon="10.5476166604">
		<tag k="name" v="Brettdalsvatnet" />
		<tag k="natural" v="water" />
		<tag k="ssr:stedsnr" v="312273" />
	</node>
	<node id="-379121" lat="61.3118555537" lon="10.6956861063">
		<tag k="name" v="Svartdalsbekken" />
		<tag k="ssr:stedsnr" v="312261" />
		<tag k="waterway" v="stream" />
	</node>
	<node id="-378664" lat="61.3642999957" lon="10.4306888861">
		<tag k="name" v="Saumyrbekken" />
		<tag k="ssr:stedsnr" v="647092" />
		<tag k="waterway" v="stream" />
	</node>
	<node id="-378600" lat="61.2753361081" lon="10.4483916737">
		<tag k="name" v="Norsebekkhølet" />
		<tag k="place" v="locality" />
		<tag k="ssr:stedsnr" v="707531" />
	</node>
	<node id="-378289" lat="61.3650499964" lon="10.5623694522">
		<tag k="name" v="Djupsåa" />
		<tag k="ssr:stedsnr" v="160258" />
		<tag k="waterway" v="river" />
	</node>
	<node id="-378323" lat="61.2818444422" lon="10.4997583259">
		<tag k="name" v="Indre Brynsåa" />
		<tag k="ssr:stedsnr" v="282666" />
		<tag k="waterway" v="stream" />
	</node>
	<node id="-378593" lat="61.3507138911" lon="10.2728527806">
		<tag k="name" v="Botterudodden" />
		<tag k="natural" v="cape" />
		<tag k="ssr:stedsnr" v="707253" />
	</node>
	<node id="-378591" lat="61.2548388892" lon="10.4953944361">
		<tag k="name" v="Storfallet" />
		<tag k="natural" v="waterfall" />
		<tag k="ssr:stedsnr" v="706839" />
	</node>
	<node id="-378588" lat="61.3016694477" lon="10.4049666644">
		<tag k="name" v="Skåeåa" />
		<tag k="ssr:stedsnr" v="706770" />
		<tag k="waterway" v="stream" />
	</node>
	<node id="-378161" lat="61.2213861073" lon="10.5501027753">
		<tag k="name" v="Stulsbekken" />
		<tag k="ssr:stedsnr" v="221324" />
		<tag k="waterway" v="stream" />
	</node>
	<node id="-379096" lat="61.3769416629" lon="10.2557083297">
		<tag k="name" v="Losna" />
		<tag k="natural" v="water" />
		<tag k="ssr:stedsnr" v="190995" />
		<tag k="water" v="lake" />
	</node>
	<node id="-379087" lat="61.4529555537" lon="10.6984638812">
		<tag k="name" v="Glømmebekken" />
		<tag k="ssr:stedsnr" v="190349" />
		<tag k="waterway" v="stream" />
	</node>
	<node id="-379084" lat="61.4029277747" lon="10.5053916653">
		<tag k="name" v="Tromstjønnet" />
		<tag k="natural" v="water" />
		<tag k="ssr:stedsnr" v="190324" />
	</node>
	<node id="-378571" lat="61.398361111" lon="10.4303361052">
		<tag k="name" v="Skardtjønnan" />
		<tag k="natural" v="water" />
		<tag k="ssr:stedsnr" v="736315" />
		<tag k="water" v="lake" />
	</node>
	<node id="-378231" lat="61.2805583313" lon="10.4571944351">
		<tag k="alt_name" v="Brynsåa, nordre;Nordre Brynsåa" />
		<tag k="name" v="Nørdre Brynsåa" />
		<tag k="ssr:stedsnr" v="68514" />
		<tag k="waterway" v="stream" />
	</node>
	<node id="-378568" lat="61.2530638914" lon="10.4224805533">
		<tag k="name" v="Blæstervika" />
		<tag k="natural" v="bay" />
		<tag k="ssr:stedsnr" v="526782" />
	</node>
	<node id="-379591" lat="61.306038885" lon="10.2981166742">
		<tag k="name" v="Sundhaugen" />
		<tag k="natural" v="cape" />
		<tag k="ssr:stedsnr" v="968646" />
	</node>
	<node id="-379075" lat="61.251030556" lon="10.4304777827">
		<tag k="alt_name" v="Jevnfjorden" />
		<tag k="name" v="Jemnefjorden" />
		<tag k="place" v="locality" />
		<tag k="ssr:stedsnr" v="190141" />
	</node>
	<node id="-378562" lat="61.3548055571" lon="10.4571305547">
		<tag k="name" v="Storlonen" />
		<tag k="natural" v="water" />
		<tag k="ssr:stedsnr" v="524623" />
		<tag k="water" v="lake" />
	</node>
	<node id="-378315" lat="61.2593111079" lon="10.4176722309">
		<tag k="name" v="Jevnefjorden" />
		<tag k="place" v="locality" />
		<tag k="ssr:stedsnr" v="282420" />
	</node>
	<node id="-379071" lat="61.2005777742" lon="10.4590249996">
		<tag k="name" v="Sagåa" />
		<tag k="ssr:stedsnr" v="189903" />
		<tag k="waterway" v="river" />
	</node>
	<node id="-379581" lat="61.2466027763" lon="10.4315805645">
		<tag k="name" v="Strømshuguet" />
		<tag k="natural" v="cape" />
		<tag k="ssr:stedsnr" v="951836" />
	</node>
	<node id="-379580" lat="61.2524027753" lon="10.4442583261">
		<tag k="name" v="Storkjølla" />
		<tag k="natural" v="spring" />
		<tag k="ssr:stedsnr" v="951788" />
	</node>
	<node id="-379066" lat="61.3358111134" lon="10.5819777749">
		<tag k="name" v="Bokketjønnan" />
		<tag k="natural" v="water" />
		<tag k="ssr:stedsnr" v="300582" />
		<tag k="water" v="lake" />
	</node>
	<node id="-378551" lat="61.4403861132" lon="10.6124194464">
		<tag k="name" v="Gråurdtjønnbekken" />
		<tag k="ssr:stedsnr" v="524157" />
		<tag k="waterway" v="stream" />
	</node>
	<node id="-379191" lat="61.3873888867" lon="10.4724055499">
		<tag k="name" v="Vargøybekken" />
		<tag k="ssr:stedsnr" v="403587" />
		<tag k="waterway" v="stream" />
	</node>
	<node id="-379081" lat="61.3064222254" lon="10.6528555487">
>>>>>>> e1d4bc35ff8a6074a6f2e91616a996b547c36f15
		<tag k="name" v="Helgetjønnet" />
		<tag k="natural" v="water" />
		<tag k="ssr:stedsnr" v="190273" />
	</node>
<<<<<<< HEAD
	<node lat="61.452955553709444" lon="10.698463881192252" id="-33810">
		<tag k="name" v="Glømmebekken" />
		<tag k="ssr:stedsnr" v="190349" />
		<tag k="waterway" v="stream" />
	</node>
	<node lat="61.37694166293438" lon="10.255708329711386" id="-33813">
		<tag k="name" v="Losna" />
		<tag k="natural" v="water" />
		<tag k="ssr:stedsnr" v="190995" />
		<tag k="water" v="lake" />
	</node>
	<node lat="61.35325278166454" lon="10.612311116530192" id="-33818">
		<tag k="name" v="Knapptjønna" />
		<tag k="natural" v="water" />
		<tag k="ssr:stedsnr" v="216620" />
	</node>
	<node lat="61.374444446123185" lon="10.484372220865406" id="-33820">
		<tag k="name" v="Knarkebakktjønnet" />
		<tag k="natural" v="water" />
		<tag k="ssr:stedsnr" v="221276" />
	</node>
	<node lat="61.28048332951732" lon="10.444727785371704" id="-33825">
		<tag k="name" v="Finnsbekken" />
		<tag k="ssr:stedsnr" v="221499" />
		<tag k="waterway" v="stream" />
	</node>
	<node lat="61.40131111270039" lon="10.497486105393733" id="-33830">
		<tag k="name" v="Laukamsbekken" />
		<tag k="ssr:stedsnr" v="221980" />
		<tag k="waterway" v="stream" />
	</node>
	<node lat="61.34588055313792" lon="10.348391669598799" id="-33831">
		<tag k="name" v="Øvre Åkvislebekken" />
		<tag k="ssr:stedsnr" v="221800" />
		<tag k="waterway" v="stream" />
	</node>
	<node lat="61.30946666855612" lon="10.301038887370876" id="-33848">
		<tag k="name" v="Lybekkstrømmen" />
		<tag k="ssr:stedsnr" v="282360" />
		<tag k="waterway" v="rapids" />
	</node>
	<node lat="61.25357499868148" lon="10.797819451431323" id="-33850">
		<tag k="name" v="Merrehølen" />
		<tag k="place" v="locality" />
		<tag k="ssr:stedsnr" v="282741" />
	</node>
	<node lat="61.35908333235532" lon="10.46196666221583" id="-33853">
		<tag k="name" v="Våsjøbekken" />
		<tag k="ssr:stedsnr" v="282637" />
		<tag k="waterway" v="stream" />
	</node>
	<node lat="61.313269446320525" lon="10.384250006263493" id="-33857">
		<tag k="name" v="Hundbergsbekken" />
		<tag k="ssr:stedsnr" v="282761" />
		<tag k="waterway" v="stream" />
	</node>
	<node lat="61.37304722319718" lon="10.462583331727144" id="-33860">
		<tag k="name" v="Søre Sundhaugen" />
		<tag k="place" v="island" />
		<tag k="ssr:stedsnr" v="284062" />
	</node>
	<node lat="61.31185555368798" lon="10.695686106324414" id="-33882">
		<tag k="name" v="Svartdalsbekken" />
		<tag k="ssr:stedsnr" v="312261" />
		<tag k="waterway" v="stream" />
	</node>
	<node lat="61.46363610913899" lon="10.662211114070685" id="-33883">
		<tag k="name" v="Eldåtjønna" />
		<tag k="natural" v="water" />
		<tag k="ssr:stedsnr" v="312351" />
	</node>
	<node lat="61.24502222145685" lon="10.735250001349934" id="-33888">
		<tag k="name" v="Vassenden" />
		<tag k="natural" v="bay" />
		<tag k="ssr:stedsnr" v="342720" />
	</node>
	<node lat="61.347524999048005" lon="10.34279721304291" id="-33889">
		<tag k="name" v="Nedre Åkvislebekken" />
		<tag k="ssr:stedsnr" v="342791" />
		<tag k="waterway" v="stream" />
	</node>
	<node lat="61.37949722668496" lon="10.454705560088453" id="-33892">
		<tag k="name" v="Nørdre Sundhaugen" />
		<tag k="place" v="island" />
		<tag k="ssr:stedsnr" v="344060" />
	</node>
	<node lat="61.375402775895616" lon="10.446186105915551" id="-33893">
		<tag k="name" v="Kjøllåsbekken" />
		<tag k="ssr:stedsnr" v="344063" />
		<tag k="waterway" v="stream" />
	</node>
	<node lat="61.327713891725566" lon="10.740494450182883" id="-33903">
		<tag k="name" v="Søre Bøsætertjønn" />
		<tag k="natural" v="water" />
		<tag k="ssr:stedsnr" v="344829" />
	</node>
	<node lat="61.32317500251374" lon="10.525627774355625" id="-33910">
		<tag k="name" v="Nordre Keikslitjønnet" />
		<tag k="natural" v="water" />
		<tag k="ssr:stedsnr" v="361459" />
	</node>
	<node lat="61.35923333658694" lon="10.490311110776783" id="-33911">
		<tag k="name" v="Lånkebulona" />
		<tag k="natural" v="water" />
		<tag k="ssr:stedsnr" v="361499" />
		<tag k="water" v="lake" />
	</node>
	<node lat="61.31543055459017" lon="10.640813891062125" id="-33919">
		<tag k="name" v="Gorrtjønnet" />
		<tag k="natural" v="water" />
		<tag k="ssr:stedsnr" v="372294" />
	</node>
	<node lat="61.37723889292394" lon="10.457800006328712" id="-33923">
		<tag k="alt_name" v="Våsjøen" />
		<tag k="name" v="Vålsjøen" />
		<tag k="natural" v="water" />
		<tag k="ssr:stedsnr" v="372325" />
		<tag k="water" v="lake" />
	</node>
	<node lat="61.368930317056005" lon="10.588750069583591" id="-33924">
		<tag k="name" v="Djupen" />
		<tag k="natural" v="water" />
		<tag k="ssr:stedsnr" v="372328" />
		<tag k="water" v="lake" />
	</node>
	<node lat="61.41047222301768" lon="10.661086114732306" id="-33925">
		<tag k="name" v="Skjeltjønnet" />
		<tag k="natural" v="water" />
		<tag k="ssr:stedsnr" v="372338" />
	</node>
	<node lat="61.396219441211926" lon="10.639919439195582" id="-33926">
		<tag k="name" v="Jogrimen" />
		<tag k="natural" v="water" />
		<tag k="ssr:stedsnr" v="372343" />
	</node>
	<node lat="61.39191294380351" lon="10.560668749805963" id="-33927">
		<tag k="name" v="Goppollvatnet" />
		<tag k="natural" v="water" />
		<tag k="ssr:stedsnr" v="372347" />
		<tag k="water" v="lake" />
	</node>
	<node lat="61.25714999727714" lon="10.542505563717222" id="-33928">
		<tag k="alt_name" v="Moksjøen, nedre" />
		<tag k="name" v="Nedre Moksjøen" />
		<tag k="natural" v="water" />
		<tag k="ssr:stedsnr" v="372486" />
	</node>
	<node lat="61.357147662157466" lon="10.763956607325735" id="-33931">
		<tag k="alt_name" v="Lyngtjørna, vestre" />
		<tag k="name" v="Vestre Lyngtjørna" />
		<tag k="natural" v="water" />
		<tag k="ssr:stedsnr" v="372429" />
	</node>
	<node lat="61.27912222273491" lon="10.592552786400597" id="-33932">
		<tag k="name" v="Smiltjønnet" />
		<tag k="natural" v="water" />
		<tag k="ssr:stedsnr" v="397718" />
	</node>
	<node lat="61.36248333517495" lon="10.183436113985517" id="-33934">
		<tag k="name" v="Martintjønnet" />
		<tag k="natural" v="water" />
		<tag k="ssr:stedsnr" v="403843" />
	</node>
	<node lat="61.25763333254424" lon="10.522711117933017" id="-33936">
		<tag k="name" v="Mosåa" />
		<tag k="ssr:stedsnr" v="403848" />
		<tag k="waterway" v="river" />
	</node>
	<node lat="61.39832777707021" lon="10.569349995054436" id="-33941">
		<tag k="name" v="Kjøllbekken" />
		<tag k="ssr:stedsnr" v="403298" />
		<tag k="waterway" v="stream" />
	</node>
	<node lat="61.38738888669463" lon="10.472405549880987" id="-33946">
		<tag k="name" v="Vargøybekken" />
		<tag k="ssr:stedsnr" v="403587" />
		<tag k="waterway" v="stream" />
	</node>
	<node lat="61.252249996377515" lon="10.739655561013052" id="-33952">
		<tag k="name" v="Killingholmen" />
		<tag k="place" v="islet" />
		<tag k="ssr:stedsnr" v="403761" />
	</node>
	<node lat="61.36562221885436" lon="10.414138891720022" id="-33953">
		<tag k="name" v="Flatsætertjønnet" />
		<tag k="natural" v="water" />
		<tag k="ssr:stedsnr" v="405071" />
	</node>
	<node lat="61.320686113436764" lon="10.624275007393553" id="-33957">
		<tag k="name" v="Revholbekken" />
		<tag k="ssr:stedsnr" v="405167" />
		<tag k="waterway" v="stream" />
	</node>
	<node lat="61.18416666816444" lon="10.415652778295202" id="-33963">
		<tag k="name" v="Sanna" />
		<tag k="place" v="locality" />
		<tag k="ssr:stedsnr" v="405596" />
	</node>
	<node lat="61.24348611109273" lon="10.697016666768857" id="-33970">
		<tag k="name" v="Midtbekken" />
		<tag k="ssr:stedsnr" v="432126" />
		<tag k="waterway" v="stream" />
	</node>
	<node lat="61.355002774790904" lon="10.321911115668469" id="-33988">
		<tag k="name" v="Glømmebekken" />
		<tag k="ssr:stedsnr" v="433967" />
		<tag k="waterway" v="stream" />
	</node>
	<node lat="61.261325000792496" lon="10.762777778449092" id="-33990">
		<tag k="alt_name" v="Hynnåa" />
		<tag k="name" v="Hynna" />
		<tag k="ssr:stedsnr" v="495779" />
		<tag k="waterway" v="river" />
	</node>
	<node lat="61.24874166893805" lon="10.504294435552534" id="-33992">
		<tag k="name" v="Søre Slåbekken" />
		<tag k="ssr:stedsnr" v="524619" />
		<tag k="waterway" v="stream" />
	</node>
	<node lat="61.3548055570572" lon="10.457130554670767" id="-33995">
		<tag k="name" v="Storlonen" />
		<tag k="natural" v="water" />
		<tag k="ssr:stedsnr" v="524623" />
		<tag k="water" v="lake" />
	</node>
	<node lat="61.44038611315713" lon="10.6124194463516" id="-33999">
		<tag k="name" v="Gråurdtjønnbekken" />
		<tag k="ssr:stedsnr" v="524157" />
		<tag k="waterway" v="stream" />
	</node>
	<node lat="61.21701388543213" lon="10.57046110987243" id="-34027">
		<tag k="alt_name" v="Okstjørnbekken" />
		<tag k="name" v="Ukstjønnbekken" />
		<tag k="ssr:stedsnr" v="553153" />
		<tag k="waterway" v="stream" />
	</node>
	<node lat="61.42310000139578" lon="10.614619450388325" id="-34031">
		<tag k="name" v="Gråurdtjønnet" />
		<tag k="natural" v="water" />
		<tag k="ssr:stedsnr" v="554350" />
	</node>
	<node lat="61.43019999796483" lon="10.702650003847022" id="-34032">
		<tag k="alt_name" v="Halansbekken" />
		<tag k="name" v="Hallansbekken" />
		<tag k="ssr:stedsnr" v="554369" />
		<tag k="waterway" v="stream" />
	</node>
	<node lat="61.26148333275861" lon="10.687452774121637" id="-34034">
		<tag k="name" v="Koltjønnet" />
		<tag k="natural" v="water" />
		<tag k="ssr:stedsnr" v="553472" />
	</node>
	<node lat="61.417511107555534" lon="10.48653055156729" id="-34041">
		<tag k="name" v="Vesle Tromsa" />
		<tag k="ssr:stedsnr" v="554967" />
		<tag k="waterway" v="stream" />
	</node>
	<node lat="61.28966388782794" lon="10.583797224315001" id="-34044">
		<tag k="name" v="Rognhaugbekken" />
		<tag k="ssr:stedsnr" v="584859" />
		<tag k="waterway" v="stream" />
	</node>
	<node lat="61.24797777947607" lon="10.48146389610266" id="-34050">
		<tag k="name" v="Skurgrasbekken" />
		<tag k="ssr:stedsnr" v="585642" />
		<tag k="waterway" v="stream" />
	</node>
	<node lat="61.36391944550963" lon="10.4181777728768" id="-34053">
		<tag k="name" v="Svarttjønnet" />
		<tag k="natural" v="water" />
		<tag k="ssr:stedsnr" v="587083" />
	</node>
	<node lat="61.23909722429489" lon="10.435619438964412" id="-34054">
		<tag k="name" v="Aronsvekjølla" />
		<tag k="natural" v="spring" />
		<tag k="ssr:stedsnr" v="587164" />
	</node>
	<node lat="61.31323888945384" lon="10.764122229461655" id="-34065">
		<tag k="name" v="Lyngåkroken" />
		<tag k="place" v="locality" />
		<tag k="ssr:stedsnr" v="587822" />
	</node>
	<node lat="61.318766667219286" lon="10.286258335487693" id="-34066">
		<tag k="name" v="Krakvollen" />
		<tag k="natural" v="beach" />
		<tag k="ssr:stedsnr" v="587935" />
	</node>
	<node lat="61.331047222240436" lon="10.565461119299659" id="-34068">
		<tag k="name" v="Gunnhildtjønnet" />
=======
	<node id="-378548" lat="61.352291664" lon="10.6856444503">
		<tag k="name" v="Høvrebutjønnet" />
		<tag k="natural" v="water" />
		<tag k="ssr:stedsnr" v="736300" />
	</node>
	<node id="-378547" lat="61.2975083297" lon="10.6751999947">
		<tag k="alt_name" v="Stor-Auge" />
		<tag k="name" v="Augan" />
		<tag k="natural" v="water" />
		<tag k="ssr:stedsnr" v="736294" />
	</node>
	<node id="-378545" lat="61.2976749982" lon="10.6631666678">
		<tag k="name" v="Gjæsa" />
		<tag k="ssr:stedsnr" v="736263" />
		<tag k="waterway" v="river" />
	</node>
	<node id="-378219" lat="61.2629527754" lon="10.6011555514">
		<tag k="name" v="Løyptjønnet" />
		<tag k="natural" v="water" />
		<tag k="ssr:stedsnr" v="41511" />
	</node>
	<node id="-378312" lat="61.3094666686" lon="10.3010388874">
		<tag k="name" v="Lybekkstrømmen" />
		<tag k="ssr:stedsnr" v="282360" />
		<tag k="waterway" v="rapids" />
	</node>
	<node id="-379566" lat="61.3104722223" lon="10.4272472146">
		<tag k="name" v="Skåeåa" />
		<tag k="ssr:stedsnr" v="858276" />
		<tag k="waterway" v="stream" />
	</node>
	<node id="-378253" lat="61.421147223" lon="10.6576444418">
		<tag k="name" v="Skardtjønnet" />
		<tag k="natural" v="water" />
		<tag k="ssr:stedsnr" v="251362" />
	</node>
	<node id="-379563" lat="61.2820861121" lon="10.6777722188">
		<tag k="name" v="Gravtjønnet" />
		<tag k="natural" v="water" />
		<tag k="ssr:stedsnr" v="858261" />
	</node>
	<node id="-379050" lat="61.4006388877" lon="10.5119111032">
		<tag k="name" v="Flåtåmobekken" />
		<tag k="ssr:stedsnr" v="160992" />
		<tag k="waterway" v="stream" />
	</node>
	<node id="-379561" lat="61.3268916681" lon="10.2399944377">
		<tag k="name" v="Mustjønnet" />
		<tag k="natural" v="water" />
		<tag k="ssr:stedsnr" v="857951" />
	</node>
	<node id="-379558" lat="61.2486277803" lon="10.7398277704">
		<tag k="name" v="Hornsjøen" />
		<tag k="natural" v="water" />
		<tag k="ssr:stedsnr" v="857736" />
		<tag k="water" v="lake" />
	</node>
	<node id="-379556" lat="61.2171694448" lon="10.6197194421">
		<tag k="alt_name" v="Holman" />
		<tag k="name" v="Holma" />
		<tag k="place" v="islet" />
		<tag k="ssr:stedsnr" v="857185" />
	</node>
	<node id="-379043" lat="61.287183336" lon="10.2743861042">
		<tag k="name" v="Bjørnstadåa" />
		<tag k="ssr:stedsnr" v="160362" />
		<tag k="waterway" v="stream" />
	</node>
	<node id="-378788" lat="61.2949361156" lon="10.2643027802">
		<tag k="name" v="Musa" />
		<tag k="ssr:stedsnr" v="797762" />
		<tag k="waterway" v="river" />
	</node>
	<node id="-379040" lat="61.326680552" lon="10.3906527702">
		<tag k="name" v="Nedre Hundtjønnet" />
		<tag k="natural" v="water" />
		<tag k="ssr:stedsnr" v="155762" />
	</node>
	<node id="-379039" lat="61.3589472254" lon="10.5524972178">
		<tag k="name" v="Hølbekken" />
		<tag k="ssr:stedsnr" v="155631" />
		<tag k="waterway" v="stream" />
	</node>
	<node id="-379550" lat="61.332891665" lon="10.2228333381">
		<tag k="name" v="Kringeltjønnet" />
		<tag k="natural" v="water" />
		<tag k="ssr:stedsnr" v="847860" />
		<tag k="water" v="pond" />
	</node>
	<node id="-378525" lat="61.3895777739" lon="10.5875416653">
		<tag k="alt_name" v="Vesle Tautra" />
		<tag k="name" v="Vesltautra" />
		<tag k="ssr:stedsnr" v="675351" />
		<tag k="waterway" v="stream" />
	</node>
	<node id="-378524" lat="61.3869111122" lon="10.6028305593">
		<tag k="name" v="Stortautra" />
		<tag k="ssr:stedsnr" v="675349" />
		<tag k="waterway" v="stream" />
	</node>
	<node id="-379545" lat="61.2730555518" lon="10.3179611186">
		<tag k="name" v="Gåsøya" />
		<tag k="place" v="island" />
		<tag k="ssr:stedsnr" v="843026" />
	</node>
	<node id="-379543" lat="61.2857888893" lon="10.4625888856">
		<tag k="name" v="Sæterbekken" />
		<tag k="ssr:stedsnr" v="837502" />
		<tag k="waterway" v="stream" />
	</node>
	<node id="-378167" lat="61.2529916707" lon="10.5121027734">
		<tag k="name" v="Nørdre Slåbekken" />
		<tag k="ssr:stedsnr" v="221588" />
		<tag k="waterway" v="stream" />
	</node>
	<node id="-379025" lat="61.2327416711" lon="10.437061112">
		<tag k="loc_name" v="Gudbrandsdalslågen" />
		<tag k="name" v="Lågen" />
		<tag k="ssr:stedsnr" v="129173" />
		<tag k="waterway" v="river" />
	</node>
	<node id="-379024" lat="61.2380416678" lon="10.6537166719">
		<tag k="alt_name" v="Krikstjønnet" />
		<tag k="name" v="Krikstjørnet" />
		<tag k="natural" v="water" />
		<tag k="ssr:stedsnr" v="129169" />
	</node>
	<node id="-379023" lat="61.2341972225" lon="10.6930138875">
		<tag k="name" v="Kruggrenna" />
		<tag k="ssr:stedsnr" v="129166" />
		<tag k="waterway" v="stream" />
	</node>
	<node id="-379021" lat="61.2367750046" lon="10.4002638799">
		<tag k="alt_name" v="Rundvatnet" />
		<tag k="name" v="Brånåtjørnet" />
		<tag k="natural" v="water" />
		<tag k="ssr:stedsnr" v="129162" />
	</node>
	<node id="-378306" lat="61.3892750035" lon="10.561669443">
		<tag k="name" v="Vesleøya" />
		<tag k="place" v="islet" />
		<tag k="ssr:stedsnr" v="282291" />
	</node>
	<node id="-379053" lat="61.3987083309" lon="10.4858250078">
		<tag k="name" v="Vesle Tromstjønnet" />
		<tag k="natural" v="water" />
		<tag k="ssr:stedsnr" v="160994" />
	</node>
	<node id="-379522" lat="61.3459472223" lon="10.4221499998">
		<tag k="name" v="Syddlonan" />
		<tag k="natural" v="water" />
		<tag k="ssr:stedsnr" v="828638" />
		<tag k="water" v="lake" />
	</node>
	<node id="-379521" lat="61.3537833294" lon="10.4383999989">
		<tag k="name" v="Kroklonen" />
		<tag k="natural" v="water" />
		<tag k="ssr:stedsnr" v="828635" />
		<tag k="water" v="lake" />
	</node>
	<node id="-378496" lat="61.3113515196" lon="10.2449990795">
		<tag k="name" v="Steinbekken" />
		<tag k="ssr:stedsnr" v="664501" />
		<tag k="waterway" v="stream" />
	</node>
	<node id="-378491" lat="61.3015241905" lon="10.5529856034">
		<tag k="name" v="Tråppbergtjønnan" />
		<tag k="natural" v="water" />
		<tag k="ssr:stedsnr" v="519709" />
		<tag k="water" v="lake" />
	</node>
	<node id="-379002" lat="61.2659472251" lon="10.6613583293">
		<tag k="name" v="Langmyrbekken" />
		<tag k="ssr:stedsnr" v="102565" />
		<tag k="waterway" v="stream" />
	</node>
	<node id="-378559" lat="61.2487416689" lon="10.5042944356">
		<tag k="name" v="Søre Slåbekken" />
		<tag k="ssr:stedsnr" v="524619" />
		<tag k="waterway" v="stream" />
	</node>
	<node id="-378900" lat="61.2433916642" lon="10.462369447">
		<tag k="name" v="Mosåa" />
		<tag k="ssr:stedsnr" v="8155" />
		<tag k="waterway" v="river" />
	</node>
	<node id="-379510" lat="61.2007694478" lon="10.4894611116">
		<tag k="alt_name" v="Bagstadåa" />
		<tag k="name" v="Bakstadåa" />
		<tag k="ssr:stedsnr" v="828327" />
		<tag k="waterway" v="stream" />
	</node>
	<node id="-378997" lat="61.3271999975" lon="10.6733444505">
		<tag k="name" v="Uksbekken" />
		<tag k="ssr:stedsnr" v="102189" />
		<tag k="waterway" v="stream" />
	</node>
	<node id="-378483" lat="61.3206861134" lon="10.6242750074">
		<tag k="name" v="Revholbekken" />
		<tag k="ssr:stedsnr" v="405167" />
		<tag k="waterway" v="stream" />
	</node>
	<node id="-378481" lat="61.3436694467" lon="10.3495694504">
		<tag k="name" v="Kjerringhølen" />
		<tag k="natural" v="water" />
		<tag k="ssr:stedsnr" v="403829" />
		<tag k="water" v="lake" />
	</node>
	<node id="-379201" lat="61.3656222189" lon="10.4141388917">
		<tag k="name" v="Flatsætertjønnet" />
		<tag k="natural" v="water" />
		<tag k="ssr:stedsnr" v="405071" />
	</node>
	<node id="-378479" lat="61.2522499964" lon="10.739655561">
		<tag k="name" v="Killingholmen" />
		<tag k="place" v="islet" />
		<tag k="ssr:stedsnr" v="403761" />
	</node>
	<node id="-379501" lat="61.4146333312" lon="10.6055055631">
		<tag k="name" v="Tittertjønna" />
		<tag k="natural" v="water" />
		<tag k="ssr:stedsnr" v="798293" />
	</node>
	<node id="-378469" lat="61.3911138905" lon="10.5664416653">
		<tag k="name" v="Hatten" />
		<tag k="place" v="islet" />
		<tag k="ssr:stedsnr" v="403306" />
	</node>
	<node id="-378980" lat="61.3884027797" lon="10.5570194387">
		<tag k="name" v="Jehansberget" />
		<tag k="place" v="islet" />
		<tag k="ssr:stedsnr" v="99344" />
	</node>
	<node id="-378466" lat="61.3638833367" lon="10.3330611192">
		<tag k="name" v="Teppa" />
		<tag k="place" v="locality" />
		<tag k="ssr:stedsnr" v="554319" />
	</node>
	<node id="-378464" lat="61.3571476622" lon="10.7639566073">
		<tag k="alt_name" v="Lyngtjørna, vestre" />
		<tag k="name" v="Vestre Lyngtjørna" />
		<tag k="natural" v="water" />
		<tag k="ssr:stedsnr" v="372429" />
	</node>
	<node id="-379149" lat="61.3754027759" lon="10.4461861059">
		<tag k="name" v="Kjøllåsbekken" />
		<tag k="ssr:stedsnr" v="344063" />
		<tag k="waterway" v="stream" />
	</node>
	<node id="-378810" lat="61.393805553" lon="10.5745722163">
		<tag k="name" v="Tauterslåvika" />
		<tag k="natural" v="bay" />
		<tag k="ssr:stedsnr" v="858353" />
	</node>
	<node id="-378457" lat="61.2613250008" lon="10.7627777784">
		<tag k="alt_name" v="Hynnåa" />
		<tag k="name" v="Hynna" />
		<tag k="ssr:stedsnr" v="495779" />
		<tag k="waterway" v="river" />
	</node>
	<node id="-379479" lat="61.2506138919" lon="10.6999916676">
		<tag k="name" v="Storåsbekken" />
		<tag k="ssr:stedsnr" v="796126" />
		<tag k="waterway" v="stream" />
	</node>
	<node id="-378965" lat="61.3706220027" lon="10.7428560594">
		<tag k="name" v="Bulona" />
		<tag k="natural" v="water" />
		<tag k="ssr:stedsnr" v="69441" />
	</node>
	<node id="-379475" lat="61.3498222239" lon="10.5870027841">
		<tag k="name" v="Akksjøkjølla" />
		<tag k="ssr:stedsnr" v="786465" />
		<tag k="waterway" v="stream" />
	</node>
	<node id="-378962" lat="61.3131388858" lon="10.6624916753">
		<tag k="alt_name" v="Estensvatnet" />
		<tag k="name" v="Øysteinvatnet" />
		<tag k="natural" v="water" />
		<tag k="ssr:stedsnr" v="69289" />
	</node>
	<node id="-379473" lat="61.3512944478" lon="10.5482388963">
		<tag k="name" v="Vatn-tjønna" />
		<tag k="natural" v="water" />
		<tag k="ssr:stedsnr" v="786455" />
	</node>
	<node id="-378958" lat="61.3336555536" lon="10.7330499921">
		<tag k="alt_name" v="Nordre Bøsætertjønn" />
		<tag k="name" v="Bøsætertjørna" />
		<tag k="natural" v="water" />
		<tag k="ssr:stedsnr" v="69424" />
	</node>
	<node id="-379405" lat="61.2706000041" lon="10.397311119">
		<tag k="name" v="Gillebufjorden" />
		<tag k="place" v="locality" />
		<tag k="ssr:stedsnr" v="645407" />
	</node>
	<node id="-378955" lat="61.3924222237" lon="10.4365055503">
		<tag k="name" v="Måsåmyrtjønna" />
>>>>>>> e1d4bc35ff8a6074a6f2e91616a996b547c36f15
		<tag k="natural" v="water" />
		<tag k="ssr:stedsnr" v="69344" />
	</node>
<<<<<<< HEAD
	<node lat="61.35839444245878" lon="10.587325000081329" id="-34069">
		<tag k="name" v="Akksjøbekken" />
		<tag k="ssr:stedsnr" v="603413" />
		<tag k="waterway" v="stream" />
	</node>
	<node lat="61.35709722583789" lon="10.201802768603251" id="-34073">
		<tag k="name" v="Roåkerbekken" />
		<tag k="ssr:stedsnr" v="603826" />
		<tag k="waterway" v="stream" />
	</node>
	<node lat="61.21481389323583" lon="10.559516666326992" id="-34076">
		<tag k="name" v="Fjellbekken" />
		<tag k="ssr:stedsnr" v="614188" />
		<tag k="waterway" v="stream" />
	</node>
	<node lat="61.265386115462114" lon="10.453619435751884" id="-34082">
		<tag k="alt_name" v="Brynsåa, s" />
		<tag k="name" v="Søre Brynsåa" />
		<tag k="ssr:stedsnr" v="614489" />
		<tag k="waterway" v="stream" />
	</node>
	<node lat="61.2984277767767" lon="10.821447221430095" id="-34084">
		<tag k="name" v="Skolla" />
		<tag k="ssr:stedsnr" v="614746" />
		<tag k="waterway" v="stream" />
	</node>
	<node lat="61.26805000392126" lon="10.703247222689347" id="-34085">
		<tag k="name" v="Purkebekken" />
		<tag k="ssr:stedsnr" v="614493" />
		<tag k="waterway" v="stream" />
	</node>
	<node lat="61.347258336340424" lon="10.39870832964458" id="-34088">
		<tag k="name" v="Kalvbekken" />
		<tag k="ssr:stedsnr" v="615263" />
		<tag k="waterway" v="stream" />
	</node>
	<node lat="61.383694447120405" lon="10.433991660013648" id="-34092">
		<tag k="name" v="Skardtjønnet" />
		<tag k="natural" v="water" />
		<tag k="ssr:stedsnr" v="645533" />
	</node>
	<node lat="61.220102779011825" lon="10.48272222943919" id="-34094">
		<tag k="name" v="Bjørgebekken" />
		<tag k="ssr:stedsnr" v="645296" />
		<tag k="waterway" v="stream" />
	</node>
	<node lat="61.36947777420354" lon="10.401627779246484" id="-34104">
		<tag k="name" v="Gåløybekken" />
		<tag k="ssr:stedsnr" v="647008" />
		<tag k="waterway" v="stream" />
	</node>
	<node lat="61.21637500373994" lon="10.476161107207284" id="-34107">
		<tag k="name" v="Skalmstadbekken" />
		<tag k="ssr:stedsnr" v="647162" />
		<tag k="waterway" v="stream" />
	</node>
	<node lat="61.311351519606866" lon="10.244999079456326" id="-34117">
		<tag k="name" v="Steinbekken" />
		<tag k="ssr:stedsnr" v="664501" />
		<tag k="waterway" v="stream" />
	</node>
	<node lat="61.29714444636311" lon="10.249663895397076" id="-34118">
		<tag k="name" v="Musa" />
		<tag k="ssr:stedsnr" v="664599" />
		<tag k="waterway" v="stream" />
	</node>
	<node lat="61.22927221829441" lon="10.637816672210844" id="-34126">
		<tag k="name" v="Kriksbekken" />
		<tag k="ssr:stedsnr" v="736164" />
		<tag k="waterway" v="stream" />
	</node>
	<node lat="61.35229166399755" lon="10.68564445027697" id="-34127">
		<tag k="name" v="Høvrebutjønnet" />
		<tag k="natural" v="water" />
		<tag k="ssr:stedsnr" v="736300" />
	</node>
	<node lat="61.31951666237018" lon="10.536247221932081" id="-34128">
		<tag k="name" v="Keiktjønnet" />
		<tag k="natural" v="water" />
		<tag k="ssr:stedsnr" v="736302" />
	</node>
	<node lat="61.39836111104469" lon="10.430336105196073" id="-34129">
		<tag k="name" v="Skardtjønnan" />
		<tag k="natural" v="water" />
		<tag k="ssr:stedsnr" v="736315" />
		<tag k="water" v="lake" />
	</node>
	<node lat="61.297674998158904" lon="10.663166667814272" id="-34131">
		<tag k="name" v="Gjæsa" />
		<tag k="ssr:stedsnr" v="736263" />
		<tag k="waterway" v="river" />
	</node>
	<node lat="61.39268611490028" lon="10.400044451411206" id="-34141">
=======
	<node id="-378953" lat="61.2253750019" lon="10.5649361043">
		<tag k="alt_name" v="Malmtjønnet" />
		<tag k="name" v="Malmtjørnet" />
		<tag k="natural" v="water" />
		<tag k="ssr:stedsnr" v="69171" />
	</node>
	<node id="-378636" lat="61.3675194458" lon="10.3155555649">
		<tag k="name" v="Korsbekken" />
		<tag k="ssr:stedsnr" v="587345" />
		<tag k="waterway" v="stream" />
	</node>
	<node id="-378950" lat="61.335913893" lon="10.2391361037">
		<tag k="name" v="Kverntjønnet" />
		<tag k="natural" v="water" />
		<tag k="ssr:stedsnr" v="68947" />
	</node>
	<node id="-379458" lat="61.2358861118" lon="10.5627944514">
		<tag k="name" v="Høgåsbekken" />
		<tag k="ssr:stedsnr" v="767646" />
		<tag k="waterway" v="stream" />
	</node>
	<node id="-379455" lat="61.2729083374" lon="10.5737750078">
		<tag k="name" v="Imerttjønnet" />
		<tag k="natural" v="water" />
		<tag k="ssr:stedsnr" v="767622" />
	</node>
	<node id="-378942" lat="61.3007916623" lon="10.2908805511">
		<tag k="name" v="Auromsreset" />
		<tag k="ssr:stedsnr" v="58638" />
		<tag k="waterway" v="rapids" />
	</node>
	<node id="-378549" lat="61.3195166624" lon="10.5362472219">
		<tag k="name" v="Keiktjønnet" />
		<tag k="natural" v="water" />
		<tag k="ssr:stedsnr" v="736302" />
	</node>
	<node id="-378428" lat="61.3928527751" lon="10.7070416748">
		<tag k="name" v="Saltbelgen" />
		<tag k="natural" v="water" />
		<tag k="ssr:stedsnr" v="493333" />
	</node>
	<node id="-378880" lat="61.3442055534" lon="10.5579083363">
		<tag k="name" v="Fjørkentjønnet" />
		<tag k="natural" v="water" />
		<tag k="ssr:stedsnr" v="968462" />
	</node>
	<node id="-379572" lat="61.381615219" lon="10.7574024864">
		<tag k="name" v="Lyngen" />
		<tag k="natural" v="water" />
		<tag k="ssr:stedsnr" v="858437" />
		<tag k="water" v="lake" />
	</node>
	<node id="-378934" lat="61.3196861132" lon="10.2452749955">
		<tag k="name" v="Bolstadtjønnet" />
		<tag k="natural" v="water" />
		<tag k="ssr:stedsnr" v="41875" />
	</node>
	<node id="-379445" lat="61.3507833329" lon="10.2537833287">
		<tag k="name" v="Botterudbekken" />
		<tag k="ssr:stedsnr" v="767218" />
		<tag k="waterway" v="stream" />
	</node>
	<node id="-379444" lat="61.3591249961" lon="10.2862694463">
		<tag k="name" v="Sagodden" />
		<tag k="natural" v="cape" />
		<tag k="ssr:stedsnr" v="767201" />
	</node>
	<node id="-378419" lat="61.2481416675" lon="10.5615222157">
		<tag k="alt_name" v="Rautjønnbekken" />
		<tag k="name" v="Raudtjørnbekken" />
		<tag k="ssr:stedsnr" v="493146" />
		<tag k="waterway" v="stream" />
	</node>
	<node id="-378283" lat="61.3627611136" lon="10.4961472133">
		<tag k="name" v="Grunnesåa" />
		<tag k="ssr:stedsnr" v="129311" />
		<tag k="waterway" v="river" />
	</node>
	<node id="-379440" lat="61.3435611082" lon="10.6805944453">
		<tag k="name" v="Lorttjønnet" />
		<tag k="natural" v="water" />
		<tag k="ssr:stedsnr" v="762721" />
	</node>
	<node id="-378632" lat="61.3271972181" lon="10.3680305591">
		<tag k="name" v="Hundtjønnbekken" />
		<tag k="ssr:stedsnr" v="587304" />
		<tag k="waterway" v="stream" />
	</node>
	<node id="-379438" lat="61.3926861149" lon="10.4000444514">
>>>>>>> e1d4bc35ff8a6074a6f2e91616a996b547c36f15
		<tag k="name" v="Klufttjønnet" />
		<tag k="natural" v="water" />
		<tag k="ssr:stedsnr" v="762621" />
	</node>
<<<<<<< HEAD
	<node lat="61.343561108210125" lon="10.680594445281699" id="-34142">
		<tag k="name" v="Lorttjønnet" />
		<tag k="natural" v="water" />
		<tag k="ssr:stedsnr" v="762721" />
	</node>
	<node lat="61.25750000070676" lon="10.73573333798362" id="-34145">
		<tag k="name" v="Hynnoset" />
		<tag k="natural" v="bay" />
		<tag k="ssr:stedsnr" v="889760" />
	</node>
	<node lat="61.27360369061925" lon="10.394083292041977" id="-34153">
		<tag k="alt_name" v="Kramprudsvika" />
		<tag k="name" v="Kramperudsvika" />
		<tag k="natural" v="bay" />
		<tag k="ssr:stedsnr" v="767418" />
	</node>
	<node lat="61.36744444536365" lon="10.282027770233993" id="-34157">
		<tag k="name" v="Mågålineset" />
		<tag k="natural" v="cape" />
		<tag k="ssr:stedsnr" v="767275" />
	</node>
	<node lat="61.27290833736784" lon="10.573775007843105" id="-34162">
		<tag k="name" v="Imerttjønnet" />
		<tag k="natural" v="water" />
		<tag k="ssr:stedsnr" v="767622" />
	</node>
	<node lat="61.27661110752619" lon="10.349225005831446" id="-34174">
		<tag k="name" v="Vesleaurevika" />
		<tag k="natural" v="bay" />
		<tag k="ssr:stedsnr" v="769467" />
	</node>
	<node lat="61.349822223877844" lon="10.587002784133913" id="-34182">
		<tag k="name" v="Akksjøkjølla" />
		<tag k="ssr:stedsnr" v="786465" />
		<tag k="waterway" v="stream" />
	</node>
	<node lat="61.30086389250328" lon="10.590427785086439" id="-34211">
		<tag k="name" v="Brandskjønnbekken" />
		<tag k="ssr:stedsnr" v="823682" />
		<tag k="waterway" v="stream" />
	</node>
	<node lat="61.20076944778486" lon="10.489461111625968" id="-34213">
		<tag k="alt_name" v="Bagstadåa" />
		<tag k="name" v="Bakstadåa" />
		<tag k="ssr:stedsnr" v="828327" />
		<tag k="waterway" v="stream" />
	</node>
	<node lat="61.35378332937936" lon="10.438399998856994" id="-34220">
		<tag k="name" v="Kroklonen" />
		<tag k="natural" v="water" />
		<tag k="ssr:stedsnr" v="828635" />
		<tag k="water" v="lake" />
	</node>
	<node lat="61.34594722234837" lon="10.422149999775545" id="-34221">
		<tag k="name" v="Syddlonan" />
		<tag k="natural" v="water" />
		<tag k="ssr:stedsnr" v="828638" />
		<tag k="water" v="lake" />
	</node>
	<node lat="61.28578888925546" lon="10.462588885567882" id="-34237">
		<tag k="name" v="Sæterbekken" />
		<tag k="ssr:stedsnr" v="837502" />
		<tag k="waterway" v="stream" />
	</node>
	<node lat="61.3328916650029" lon="10.222833338103968" id="-34242">
		<tag k="name" v="Kringeltjønnet" />
		<tag k="natural" v="water" />
		<tag k="ssr:stedsnr" v="847860" />
		<tag k="water" v="pond" />
	</node>
	<node lat="61.23899166473092" lon="10.566974997647094" id="-34249">
		<tag k="alt_name" v="Rautjønnet" />
		<tag k="name" v="Raudtjørnet" />
		<tag k="natural" v="water" />
		<tag k="ssr:stedsnr" v="857163" />
	</node>
	<node lat="61.21716944477696" lon="10.619719442075699" id="-34250">
		<tag k="alt_name" v="Holman" />
		<tag k="name" v="Holma" />
		<tag k="place" v="islet" />
		<tag k="ssr:stedsnr" v="857185" />
	</node>
	<node lat="61.32689166811002" lon="10.2399944377378" id="-34253">
		<tag k="name" v="Mustjønnet" />
		<tag k="natural" v="water" />
		<tag k="ssr:stedsnr" v="857951" />
	</node>
	<node lat="61.282086112141975" lon="10.677772218835667" id="-34258">
		<tag k="name" v="Gravtjønnet" />
		<tag k="natural" v="water" />
		<tag k="ssr:stedsnr" v="858261" />
	</node>
	<node lat="61.3938055530317" lon="10.57457221629784" id="-34260">
		<tag k="name" v="Tauterslåvika" />
		<tag k="natural" v="bay" />
		<tag k="ssr:stedsnr" v="858353" />
	</node>
	<node lat="61.38161521901008" lon="10.757402486362407" id="-34261">
		<tag k="name" v="Lyngen" />
		<tag k="natural" v="water" />
		<tag k="ssr:stedsnr" v="858437" />
		<tag k="water" v="lake" />
	</node>
	<node lat="61.25191944448043" lon="10.435663895970666" id="-34266">
		<tag k="name" v="Trælvika" />
		<tag k="natural" v="bay" />
		<tag k="ssr:stedsnr" v="883796" />
	</node>
	<node lat="61.366588887368785" lon="10.5313527847438" id="-34270">
		<tag k="name" v="Storodden" />
		<tag k="natural" v="cape" />
		<tag k="ssr:stedsnr" v="888270" />
	</node>
	<node lat="61.27479166757052" lon="10.416541659732715" id="-34272">
		<tag k="name" v="Hovsåa" />
		<tag k="ssr:stedsnr" v="888387" />
		<tag k="waterway" v="stream" />
	</node>
	<node lat="61.22335277859697" lon="10.531108335668506" id="-34275">
		<tag k="name" v="Steintjønnet" />
		<tag k="natural" v="water" />
		<tag k="ssr:stedsnr" v="888686" />
	</node>
	<node lat="61.3095277739418" lon="10.37426388662992" id="-34276">
		<tag k="name" v="Svarttjønnet" />
		<tag k="natural" v="water" />
		<tag k="ssr:stedsnr" v="888771" />
	</node>
	<node lat="61.25659444512789" lon="10.519247217730893" id="-34278">
		<tag k="name" v="Kroklon" />
		<tag k="natural" v="water" />
		<tag k="ssr:stedsnr" v="888824" />
		<tag k="water" v="lake" />
	</node>
	<node lat="61.25851111319201" lon="10.57255277936154" id="-34284">
		<tag k="name" v="Moksjøbekken" />
		<tag k="ssr:stedsnr" v="889323" />
		<tag k="waterway" v="stream" />
	</node>
	<node lat="61.376669441215284" lon="10.592444449098046" id="-34289">
		<tag k="name" v="Doktertjønnet" />
		<tag k="natural" v="water" />
		<tag k="ssr:stedsnr" v="944685" />
	</node>
	<node lat="61.291816669160966" lon="10.280955563481056" id="-34296">
		<tag k="name" v="Hovdøya" />
		<tag k="place" v="island" />
		<tag k="ssr:stedsnr" v="949352" />
	</node>
	<node lat="61.24648610712343" lon="10.520586117932801" id="-34300">
		<tag k="name" v="Nysæterbekken" />
		<tag k="ssr:stedsnr" v="949575" />
		<tag k="waterway" v="stream" />
	</node>
	<node lat="61.32703610832954" lon="10.398050003107858" id="-34309">
		<tag k="name" v="Tjønnmellom" />
		<tag k="place" v="locality" />
		<tag k="ssr:stedsnr" v="951260" />
	</node>
	<node lat="61.3442055533701" lon="10.557908336259311" id="-34319">
		<tag k="name" v="Fjørkentjønnet" />
		<tag k="natural" v="water" />
		<tag k="ssr:stedsnr" v="968462" />
	</node>
	<node lat="61.306038885036436" lon="10.29811667415787" id="-34321">
		<tag k="name" v="Sundhaugen" />
		<tag k="natural" v="cape" />
		<tag k="ssr:stedsnr" v="968646" />
	</node>
	<node lat="61.29983611080291" lon="10.294052774460296" id="-34322">
		<tag k="name" v="Trælvika" />
		<tag k="natural" v="bay" />
		<tag k="ssr:stedsnr" v="968649" />
	</node>
	<node lat="61.355939043407" lon="10.19375459918412" id="-34323">
		<tag k="name" v="Åbbortjønnet" />
		<tag k="natural" v="water" />
		<tag k="ssr:stedsnr" v="968857" />
=======
	<node id="-378569" lat="61.2443416667" lon="10.4287194465">
		<tag k="name" v="Rybakkøya" />
		<tag k="natural" v="cape" />
		<tag k="ssr:stedsnr" v="526783" />
	</node>
	<node id="-378802" lat="61.2389916647" lon="10.5669749976">
		<tag k="alt_name" v="Rautjønnet" />
		<tag k="name" v="Raudtjørnet" />
		<tag k="natural" v="water" />
		<tag k="ssr:stedsnr" v="857163" />
	</node>
	<node id="-378402" lat="61.3434944488" lon="10.3446249951">
		<tag k="name" v="Åkvisla" />
		<tag k="ssr:stedsnr" v="519639" />
		<tag k="waterway" v="stream" />
	</node>
	<node id="-378917" lat="61.2887888864" lon="10.2803277719">
		<tag k="name" v="Bjørnstadøya" />
		<tag k="place" v="island" />
		<tag k="ssr:stedsnr" v="39350" />
	</node>
	<node id="-379426" lat="61.2299055517" lon="10.8304638946">
		<tag k="name" v="Åsta" />
		<tag k="ssr:stedsnr" v="736725" />
		<tag k="waterway" v="river" />
	</node>
	<node id="-379056" lat="61.1866861147" lon="10.4151722218">
		<tag k="name" v="Stygghølet" />
		<tag k="place" v="locality" />
		<tag k="ssr:stedsnr" v="162591" />
	</node>
	<node id="-378397" lat="61.1964361091" lon="10.4374527852">
		<tag k="name" v="Kveskroken" />
		<tag k="place" v="locality" />
		<tag k="ssr:stedsnr" v="466590" />
	</node>
	<node id="-378543" lat="61.2286055525" lon="10.577541664">
		<tag k="alt_name" v="Svarttjønnet" />
		<tag k="name" v="Svarttjørnet" />
		<tag k="natural" v="water" />
		<tag k="ssr:stedsnr" v="493170" />
	</node>
	<node id="-378904" lat="61.393950003" lon="10.4374000071">
		<tag k="name" v="Knapptjønnet" />
		<tag k="natural" v="water" />
		<tag k="ssr:stedsnr" v="8347" />
	</node>
	<node id="-378903" lat="61.3992777746" lon="10.6208583384">
		<tag k="name" v="Titterbekken" />
		<tag k="ssr:stedsnr" v="8341" />
		<tag k="waterway" v="stream" />
	</node>
	<node id="-378390" lat="61.2759472256" lon="10.3416999966">
		<tag k="name" v="Storaurevika" />
		<tag k="natural" v="bay" />
		<tag k="ssr:stedsnr" v="465438" />
	</node>
	<node id="-379413" lat="61.3269833326" lon="10.6021222158">
		<tag k="name" v="Slåtjønnet" />
		<tag k="natural" v="water" />
		<tag k="ssr:stedsnr" v="647193" />
	</node>
	<node id="-379412" lat="61.3694777742" lon="10.4016277792">
		<tag k="name" v="Gåløybekken" />
		<tag k="ssr:stedsnr" v="647008" />
		<tag k="waterway" v="stream" />
	</node>
	<node id="-379411" lat="61.2163750037" lon="10.4761611072">
		<tag k="name" v="Skalmstadbekken" />
		<tag k="ssr:stedsnr" v="647162" />
		<tag k="waterway" v="stream" />
	</node>
	<node id="-378898" lat="61.2465583297" lon="10.5802666681">
		<tag k="name" v="Hitbekken" />
		<tag k="ssr:stedsnr" v="8142" />
		<tag k="waterway" v="stream" />
	</node>
	<node id="-378895" lat="61.4427583317" lon="10.9248416589">
		<tag k="alt_name" v="Nordre Eldåa;Eldåa, nordre" />
		<tag k="name" v="Nørdre Eldåa" />
		<tag k="ssr:stedsnr" v="7435" />
		<tag k="waterway" v="river" />
	</node>
	<node id="-378893" lat="61.2660861124" lon="10.3662111056">
		<tag k="name" v="Kattåa" />
		<tag k="ssr:stedsnr" v="8516" />
		<tag k="waterway" v="stream" />
	</node>
	<node id="-378199" lat="61.2890388883" lon="10.4499194498">
		<tag k="name" v="Klukkerhølet" />
		<tag k="place" v="locality" />
		<tag k="ssr:stedsnr" v="231588" />
	</node>
	<node id="-379398" lat="61.220102779" lon="10.4827222294">
		<tag k="name" v="Bjørgebekken" />
		<tag k="ssr:stedsnr" v="645296" />
		<tag k="waterway" v="stream" />
	</node>
	<node id="-379395" lat="61.3897583315" lon="10.7018916644">
		<tag k="name" v="Saltbelgsåa" />
		<tag k="ssr:stedsnr" v="645172" />
		<tag k="waterway" v="stream" />
>>>>>>> e1d4bc35ff8a6074a6f2e91616a996b547c36f15
	</node>
	<node id="-378881" lat="61.3559390434" lon="10.1937545992">
		<tag k="name" v="Åbbortjønnet" />
		<tag k="natural" v="water" />
		<tag k="ssr:stedsnr" v="968857" />
	</node>
</osm>
