<?xml version="1.0" encoding="UTF-8"?>
<osm version="0.6" generator="osmapis">
	<node lat="61.23571944795824" lon="10.445897214683221" id="-42470">
		<tag k="name" v="Åsletta" />
		<tag k="place" v="farm" />
		<tag k="ssr:stedsnr" v="8152" />
	</node>
	<node lat="61.26273333141448" lon="10.57384443813829" id="-42476">
		<tag k="historic" v="shieling" />
		<tag k="name" v="Veslsætra" />
		<tag k="place" v="isolated_dwelling" />
		<tag k="ssr:stedsnr" v="8505" />
	</node>
	<node lat="61.27045450925932" lon="10.42027788689421" id="-42477">
		<tag k="fixme" v="consider place=hamlet" />
		<tag k="name" v="Bergom" />
		<tag k="place" v="farm" />
		<tag k="ssr:stedsnr" v="8514" />
	</node>
	<node lat="61.24993816165291" lon="10.417167209464514" id="-42479">
		<tag k="fixme" v="consider place=hamlet" />
		<tag k="name" v="Rusta" />
		<tag k="place" v="farm" />
		<tag k="ssr:stedsnr" v="8494" />
	</node>
	<node lat="61.324852774190866" lon="10.332075001655639" id="-42481">
		<tag k="alt_name" v="Børkerud" />
		<tag k="name" v="Borkerud" />
		<tag k="place" v="farm" />
		<tag k="ssr:stedsnr" v="8945" />
	</node>
	<node lat="61.33217222044876" lon="10.314258331262959" id="-42484">
		<tag k="name" v="Steinsåker" />
		<tag k="place" v="farm" />
		<tag k="ssr:stedsnr" v="39260" />
	</node>
	<node lat="61.267472222193774" lon="10.505916665578983" id="-42491">
		<tag k="name" v="Nerlisætra" />
		<tag k="place" v="farm" />
		<tag k="ssr:stedsnr" v="39810" />
	</node>
	<node lat="61.21906666736653" lon="10.452488884164604" id="-42493">
		<tag k="name" v="Sygardsjordet" />
		<tag k="place" v="locality" />
		<tag k="ssr:stedsnr" v="40619" />
	</node>
	<node lat="61.22096111373423" lon="10.459858338753085" id="-42494">
		<tag k="name" v="Ilhaugen" />
		<tag k="place" v="farm" />
		<tag k="ssr:stedsnr" v="40677" />
	</node>
	<node lat="61.26943055586936" lon="10.421972228743801" id="-42495">
		<tag k="name" v="Skarpjordet" />
		<tag k="place" v="farm" />
		<tag k="ssr:stedsnr" v="41223" />
	</node>
	<node lat="61.25961389274421" lon="10.460027775230442" id="-42497">
		<tag k="name" v="Brattli" />
		<tag k="place" v="farm" />
		<tag k="ssr:stedsnr" v="41210" />
	</node>
	<node lat="61.28803888450659" lon="10.257605557410555" id="-42501">
		<tag k="name" v="Heimkollen" />
		<tag k="place" v="locality" />
		<tag k="ssr:stedsnr" v="41417" />
	</node>
	<node lat="61.33896666937993" lon="10.295872229196128" id="-42502">
		<tag k="name" v="Granom" />
		<tag k="place" v="farm" />
		<tag k="ssr:stedsnr" v="41926" />
	</node>
	<node lat="61.30434444145761" lon="10.270263880752882" id="-42513">
		<tag k="name" v="Skybergsrønningen" />
		<tag k="place" v="isolated_dwelling" />
		<tag k="ssr:stedsnr" v="240639" />
	</node>
	<node lat="61.303413890697634" lon="10.262216668569158" id="-42514">
		<tag k="name" v="Haugen" />
		<tag k="place" v="farm" />
		<tag k="ssr:stedsnr" v="240640" />
	</node>
	<node lat="61.303266664435405" lon="10.260624995050913" id="-42515">
		<tag k="name" v="Øvre Berg" />
		<tag k="place" v="farm" />
		<tag k="ssr:stedsnr" v="240557" />
	</node>
	<node lat="61.279286111487394" lon="10.3900861171372" id="-42519">
		<tag k="name" v="Steinsli" />
		<tag k="place" v="farm" />
		<tag k="ssr:stedsnr" v="68512" />
	</node>
	<node lat="61.26276602778437" lon="10.38736329632641" id="-42521">
		<tag k="alt_name" v="Nørdre Strømsødegården;Nørdre Strømsøygarden" />
		<tag k="fixme" v="consider place=hamlet" />
		<tag k="name" v="Øygarden" />
		<tag k="place" v="farm" />
		<tag k="ssr:stedsnr" v="68499" />
	</node>
	<node lat="61.26710833277863" lon="10.385986117830637" id="-42522">
		<tag k="name" v="Bjerke" />
		<tag k="place" v="farm" />
		<tag k="ssr:stedsnr" v="68500" />
	</node>
	<node lat="61.200111112882645" lon="10.428800000896183" id="-42523">
		<tag k="name" v="Nordby" />
		<tag k="place" v="farm" />
		<tag k="ssr:stedsnr" v="68908" />
	</node>
	<node lat="61.193588890442555" lon="10.421527786686722" id="-42524">
		<tag k="alt_name" v="Ensbybakken" />
		<tag k="name" v="Einsbybakken" />
		<tag k="place" v="farm" />
		<tag k="ssr:stedsnr" v="68918" />
	</node>
	<node lat="61.3318333353653" lon="10.28690554974263" id="-42525">
		<tag k="alt_name" v="Hestneset" />
		<tag k="name" v="Hesteneset" />
		<tag k="place" v="farm" />
		<tag k="ssr:stedsnr" v="68939" />
	</node>
	<node lat="61.33715833247549" lon="10.305663880577528" id="-42526">
		<tag k="alt_name" v="Steinset" />
		<tag k="name" v="Skogheim" />
		<tag k="place" v="farm" />
		<tag k="ssr:stedsnr" v="68946" />
	</node>
	<node lat="61.364650003192274" lon="10.29323054852602" id="-42528">
		<tag k="alt_name" v="Mågåli, søre;Sørli" />
		<tag k="name" v="Søre Mågåli" />
		<tag k="place" v="farm" />
		<tag k="ssr:stedsnr" v="68989" />
	</node>
	<node lat="61.30636944880524" lon="10.452361108505285" id="-42530">
		<tag k="historic" v="shieling" />
		<tag k="name" v="Steinsætra" />
		<tag k="place" v="isolated_dwelling" />
		<tag k="ssr:stedsnr" v="69293" />
	</node>
	<node lat="61.28004722579662" lon="10.82680000205113" id="-42532">
		<tag k="historic" v="shieling" />
		<tag k="name" v="Snultra" />
		<tag k="place" v="isolated_dwelling" />
		<tag k="ssr:stedsnr" v="69397" />
	</node>
	<node lat="61.29038247471491" lon="10.332882029876147" id="-42533">
		<tag k="alt_name" v="Rindal" />
		<tag k="fixme" v="consider place=hamlet" />
		<tag k="name" v="Rinddal" />
		<tag k="place" v="farm" />
		<tag k="ssr:stedsnr" v="69780" />
	</node>
	<node lat="61.296769442249946" lon="10.32074722257404" id="-42534">
		<tag k="name" v="Kløv" />
		<tag k="place" v="farm" />
		<tag k="ssr:stedsnr" v="69783" />
	</node>
	<node lat="61.273911271921406" lon="10.304353677714513" id="-42535">
		<tag k="fixme" v="consider place=hamlet" />
		<tag k="name" v="Krokfossen" />
		<tag k="place" v="farm" />
		<tag k="ssr:stedsnr" v="69884" />
	</node>
	<node lat="61.32176744334331" lon="10.324210246355165" id="-42544">
		<tag k="fixme" v="consider place=hamlet" />
		<tag k="name" v="Prestgarden" />
		<tag k="place" v="farm" />
		<tag k="ssr:stedsnr" v="100309" />
	</node>
	<node lat="61.320341670088055" lon="10.322338894299552" id="-42546">
		<tag k="name" v="Brekken" />
		<tag k="place" v="farm" />
		<tag k="ssr:stedsnr" v="100314" />
	</node>
	<node lat="61.22424166863572" lon="10.461386103599718" id="-42551">
		<tag k="name" v="Haverlykkja" />
		<tag k="place" v="farm" />
		<tag k="ssr:stedsnr" v="101661" />
	</node>
	<node lat="61.23997355265035" lon="10.5166005447121" id="-42559">
		<tag k="historic" v="shieling" />
		<tag k="name" v="Nysætra" />
		<tag k="place" v="isolated_dwelling" />
		<tag k="ssr:stedsnr" v="250153" />
	</node>
	<node lat="61.244489796325865" lon="10.458241870016254" id="-42560">
		<tag k="fixme" v="consider place=hamlet" />
		<tag k="name" v="Nermo" />
		<tag k="place" v="farm" />
		<tag k="ssr:stedsnr" v="250128" />
	</node>
	<node lat="61.248777774828646" lon="10.43891111652333" id="-42561">
		<tag k="name" v="Ruglykkja" />
		<tag k="place" v="farm" />
		<tag k="ssr:stedsnr" v="250133" />
	</node>
	<node lat="61.22708333511319" lon="10.469305562522036" id="-42562">
		<tag k="name" v="Buenget" />
		<tag k="place" v="farm" />
		<tag k="ssr:stedsnr" v="250162" />
	</node>
	<node lat="61.22623611535513" lon="10.544661104198028" id="-42563">
		<tag k="name" v="Pellestova" />
		<tag k="ssr:stedsnr" v="250163" />
		<tag k="tourism" v="hotel" />
	</node>
	<node lat="61.21528333073146" lon="10.45696944057323" id="-42564">
		<tag k="name" v="Solli" />
		<tag k="place" v="farm" />
		<tag k="ssr:stedsnr" v="250183" />
	</node>
	<node lat="61.21512778033787" lon="10.472936107913371" id="-42565">
		<tag k="name" v="Dølda" />
		<tag k="place" v="farm" />
		<tag k="ssr:stedsnr" v="250189" />
	</node>
	<node lat="61.28888767531254" lon="10.39521440712469" id="-42567">
		<tag k="fixme" v="consider place=hamlet" />
		<tag k="name" v="Olstad" />
		<tag k="place" v="farm" />
		<tag k="ssr:stedsnr" v="250263" />
	</node>
	<node lat="61.26152885926213" lon="10.429794235155105" id="-42569">
		<tag k="fixme" v="consider place=hamlet" />
		<tag k="name" v="Haug" />
		<tag k="place" v="farm" />
		<tag k="ssr:stedsnr" v="250463" />
	</node>
	<node lat="61.252694821842056" lon="10.457333850689842" id="-42570">
		<tag k="alt_name" v="Jitustad" />
		<tag k="fixme" v="consider place=hamlet" />
		<tag k="name" v="Jutulstad" />
		<tag k="place" v="farm" />
		<tag k="ssr:stedsnr" v="250465" />
	</node>
	<node lat="61.25835277867716" lon="10.36919445206749" id="-42571">
		<tag k="historic" v="shieling" />
		<tag k="name" v="Liasætra" />
		<tag k="place" v="isolated_dwelling" />
		<tag k="ssr:stedsnr" v="250478" />
	</node>
	<node lat="61.20415277482375" lon="10.457366672466955" id="-42573">
		<tag k="alt_name" v="Bagstadøygarden;Øygarden" />
		<tag k="name" v="Bakstadøygarden" />
		<tag k="place" v="farm" />
		<tag k="ssr:stedsnr" v="250902" />
	</node>
	<node lat="61.33434997549057" lon="10.31454160146403" id="-42576">
		<tag k="fixme" v="consider place=hamlet" />
		<tag k="name" v="Tande" />
		<tag k="place" v="farm" />
		<tag k="ssr:stedsnr" v="250936" />
	</node>
	<node lat="61.34484245359206" lon="10.270256632314737" id="-42577">
		<tag k="fixme" v="consider place=hamlet" />
		<tag k="name" v="Øygarden" />
		<tag k="old_name" v="Vike-Ødegaarden" />
		<tag k="place" v="farm" />
		<tag k="ssr:stedsnr" v="250968" />
	</node>
	<node lat="61.35402893232248" lon="10.247307016333258" id="-42578">
		<tag k="fixme" v="consider place=hamlet" />
		<tag k="name" v="Høglia" />
		<tag k="place" v="farm" />
		<tag k="ssr:stedsnr" v="250977" />
	</node>
	<node lat="61.23444999681364" lon="10.461283330235863" id="-42579">
		<tag k="name" v="Kaldhol" />
		<tag k="old_name" v="Nordre Kaldhol" />
		<tag k="place" v="farm" />
		<tag k="ssr:stedsnr" v="119306" />
	</node>
	<node lat="61.36939166368543" lon="10.246258331659757" id="-42580">
		<tag k="alt_name" v="Myrenget" />
		<tag k="name" v="Myrliuenget" />
		<tag k="place" v="farm" />
		<tag k="ssr:stedsnr" v="250985" />
	</node>
	<node lat="61.21875000302051" lon="10.47006945363056" id="-42581">
		<tag k="name" v="Simenrud" />
		<tag k="place" v="farm" />
		<tag k="ssr:stedsnr" v="251171" />
	</node>
	<node lat="61.38425555818567" lon="10.448805548788142" id="-42582">
		<tag k="alt_name" v="Våsdalen" />
		<tag k="historic" v="shieling" />
		<tag k="name" v="Vålsdalen" />
		<tag k="place" v="isolated_dwelling" />
		<tag k="ssr:stedsnr" v="251338" />
	</node>
	<node lat="61.322561112464975" lon="10.439641675383232" id="-42585">
		<tag k="name" v="Pølen" />
		<tag k="place" v="hamlet" />
		<tag k="ssr:stedsnr" v="251325" />
	</node>
	<node lat="61.318283333358586" lon="10.763658331661853" id="-42587">
		<tag k="historic" v="shieling" />
		<tag k="name" v="Kaldholsætra" />
		<tag k="place" v="isolated_dwelling" />
		<tag k="ssr:stedsnr" v="251409" />
	</node>
	<node lat="61.28715066592711" lon="10.301936047264471" id="-42591">
		<tag k="alt_name" v="Mellemberg" />
		<tag k="fixme" v="consider place=hamlet" />
		<tag k="name" v="Mellomberg" />
		<tag k="place" v="farm" />
		<tag k="ssr:stedsnr" v="251791" />
	</node>
	<node lat="61.30098055595115" lon="10.24064999921321" id="-42593">
		<tag k="name" v="Gonstad" />
		<tag k="place" v="farm" />
		<tag k="ssr:stedsnr" v="251813" />
	</node>
	<node lat="61.302856179321985" lon="10.30446491958781" id="-42594">
		<tag k="fixme" v="consider place=hamlet" />
		<tag k="name" v="Holmen" />
		<tag k="place" v="farm" />
		<tag k="ssr:stedsnr" v="251820" />
	</node>
	<node lat="61.298809938085164" lon="10.278529622357718" id="-42595">
		<tag k="alt_name" v="Lågåton" />
		<tag k="fixme" v="consider place=hamlet" />
		<tag k="name" v="Lagatun" />
		<tag k="place" v="farm" />
		<tag k="ssr:stedsnr" v="251826" />
	</node>
	<node lat="61.28483637977006" lon="10.273726011738306" id="-42596">
		<tag k="alt_name" v="Lindrud" />
		<tag k="fixme" v="consider place=hamlet" />
		<tag k="name" v="Linderud" />
		<tag k="place" v="farm" />
		<tag k="ssr:stedsnr" v="251778" />
	</node>
	<node lat="61.35131485555061" lon="10.296848855201139" id="-42597">
		<tag k="fixme" v="consider place=hamlet" />
		<tag k="name" v="Laukam" />
		<tag k="place" v="farm" />
		<tag k="ssr:stedsnr" v="251975" />
	</node>
	<node lat="61.21339722228962" lon="10.43835833311395" id="-42598">
		<tag k="name" v="Langsvea" />
		<tag k="place" v="locality" />
		<tag k="ssr:stedsnr" v="128149" />
	</node>
	<node lat="61.21080000349465" lon="10.46783888118325" id="-42599">
		<tag k="name" v="Brenna" />
		<tag k="place" v="farm" />
		<tag k="ssr:stedsnr" v="128150" />
	</node>
	<node lat="61.40120832961329" lon="10.719400008250075" id="-42600">
		<tag k="name" v="Steinhytta" />
		<tag k="place" v="isolated_dwelling" />
		<tag k="ssr:stedsnr" v="129421" />
	</node>
	<node lat="61.31568055915969" lon="10.32974444760491" id="-42605">
		<tag k="alt_name" v="Langgardshågån" />
		<tag k="name" v="Hågån" />
		<tag k="place" v="farm" />
		<tag k="ssr:stedsnr" v="129808" />
	</node>
	<node lat="61.271031940042526" lon="10.314056055134785" id="-42606">
		<tag k="fixme" v="consider place=hamlet" />
		<tag k="name" v="Nordlia" />
		<tag k="place" v="farm" />
		<tag k="ssr:stedsnr" v="129853" />
	</node>
	<node lat="61.303622218303666" lon="10.240625002322593" id="-42607">
		<tag k="name" v="Winge turisthotell" />
		<tag k="ssr:stedsnr" v="129786" />
		<tag k="tourism" v="hotel" />
	</node>
	<node lat="61.34999421286323" lon="10.263240282079762" id="-42608">
		<tag k="fixme" v="consider place=hamlet" />
		<tag k="name" v="Botterud" />
		<tag k="place" v="farm" />
		<tag k="ssr:stedsnr" v="129976" />
	</node>
	<node lat="61.267563889538245" lon="10.42005832665077" id="-42609">
		<tag k="name" v="Svingen" />
		<tag k="place" v="farm" />
		<tag k="ssr:stedsnr" v="311531" />
	</node>
	<node lat="61.25891111257277" lon="10.454477778646051" id="-42616">
		<tag k="name" v="Li" />
		<tag k="place" v="farm" />
		<tag k="ssr:stedsnr" v="166316" />
	</node>
	<node lat="61.30771388937289" lon="10.258355547909392" id="-42620">
		<tag k="name" v="Bakkom" />
		<tag k="place" v="farm" />
		<tag k="ssr:stedsnr" v="179607" />
	</node>
	<node lat="61.29848611036837" lon="10.264986116696013" id="-42621">
		<tag k="name" v="Solby" />
		<tag k="place" v="farm" />
		<tag k="ssr:stedsnr" v="179614" />
	</node>
	<node lat="61.191407255499925" lon="10.420385391093179" id="-42626">
		<tag k="alt_name" v="Ensby" />
		<tag k="fixme" v="consider place=hamlet" />
		<tag k="name" v="Einsby" />
		<tag k="place" v="farm" />
		<tag k="ssr:stedsnr" v="189921" />
	</node>
	<node lat="61.227491509804935" lon="10.450802883782954" id="-42628">
		<tag k="alt_name" v="Mokrud" />
		<tag k="fixme" v="consider place=hamlet" />
		<tag k="name" v="Måkrud" />
		<tag k="place" v="farm" />
		<tag k="ssr:stedsnr" v="190160" />
	</node>
	<node lat="61.371808333011195" lon="10.578200003261315" id="-42630">
		<tag k="historic" v="shieling" />
		<tag k="name" v="Djupslia" />
		<tag k="place" v="isolated_dwelling" />
		<tag k="ssr:stedsnr" v="190317" />
	</node>
	<node lat="61.27997777929062" lon="10.357366661467216" id="-42632">
		<tag k="name" v="Rustberg" />
		<tag k="place" v="farm" />
		<tag k="ssr:stedsnr" v="190262" />
	</node>
	<node lat="61.302216664031235" lon="10.232130556519705" id="-42635">
		<tag k="alt_name" v="Galtrudhaugen" />
		<tag k="name" v="Haug" />
		<tag k="place" v="farm" />
		<tag k="ssr:stedsnr" v="190809" />
	</node>
	<node lat="61.30468571927775" lon="10.25460666279768" id="-42636">
		<tag k="fixme" v="consider place=hamlet" />
		<tag k="name" v="Elstad" />
		<tag k="place" v="farm" />
		<tag k="ssr:stedsnr" v="190819" />
	</node>
	<node lat="61.26682255546172" lon="10.335640160045319" id="-42637">
		<tag k="fixme" v="consider place=hamlet" />
		<tag k="name" v="Rognstad" />
		<tag k="place" v="farm" />
		<tag k="ssr:stedsnr" v="190857" />
	</node>
	<node lat="61.34696389062394" lon="10.287602778962617" id="-42638">
		<tag k="name" v="Rønningen" />
		<tag k="place" v="farm" />
		<tag k="ssr:stedsnr" v="190967" />
	</node>
	<node lat="61.370168541017534" lon="10.302130701830311" id="-42639">
		<tag k="alt_name" v="Ljøsbakken" />
		<tag k="fixme" v="consider place=hamlet" />
		<tag k="name" v="Lysbakken" />
		<tag k="place" v="farm" />
		<tag k="ssr:stedsnr" v="190968" />
	</node>
	<node lat="61.36483055915271" lon="10.312205547375989" id="-42640">
		<tag k="name" v="Skogli" />
		<tag k="place" v="farm" />
		<tag k="ssr:stedsnr" v="190969" />
	</node>
	<node lat="61.40801666470027" lon="10.471241665194372" id="-42641">
		<tag k="alt_name" v="Svarttangslia" />
		<tag k="historic" v="shieling" />
		<tag k="name" v="Svartangslia" />
		<tag k="place" v="isolated_dwelling" />
		<tag k="ssr:stedsnr" v="191307" />
	</node>
	<node lat="61.289050003967795" lon="10.265763895246062" id="-42642">
		<tag k="name" v="Øygarden" />
		<tag k="place" v="farm" />
		<tag k="ssr:stedsnr" v="191704" />
	</node>
	<node lat="61.27301110837636" lon="10.37841110368771" id="-42651">
		<tag k="name" v="Trångrud" />
		<tag k="place" v="farm" />
		<tag k="ssr:stedsnr" v="221391" />
	</node>
	<node lat="61.33745000216605" lon="10.260391667371536" id="-42665">
		<tag k="name" v="Vikbergan" />
		<tag k="place" v="locality" />
		<tag k="ssr:stedsnr" v="223905" />
	</node>
	<node lat="61.29926254553042" lon="10.263478458765142" id="-42667">
		<tag k="alt_name" v="Nedre Berg" />
		<tag k="fixme" v="consider place=hamlet" />
		<tag k="name" v="Berg" />
		<tag k="place" v="farm" />
		<tag k="ssr:stedsnr" v="494771" />
	</node>
	<node lat="61.30830000234148" lon="10.265830563692209" id="-42669">
		<tag k="name" v="Granli" />
		<tag k="place" v="farm" />
		<tag k="ssr:stedsnr" v="494774" />
	</node>
	<node lat="61.2470333361855" lon="10.442708341139829" id="-42670">
		<tag k="name" v="Granrudmoen" />
		<tag k="place" v="quarter" />
		<tag k="ssr:stedsnr" v="451107" />
	</node>
	<node lat="61.2630861114139" lon="10.416408329121708" id="-42671">
		<tag k="fixme" v="consider place=suburb, village or hamlet" />
		<tag k="name" v="Øyer" />
		<tag k="place" v="quarter" />
		<tag k="ssr:stedsnr" v="273174" />
	</node>
	<node lat="61.32106111527026" lon="10.333111103266475" id="-42675">
		<tag k="name" v="Haugen" />
		<tag k="place" v="farm" />
		<tag k="ssr:stedsnr" v="282293" />
	</node>
	<node lat="61.27015555244168" lon="10.39275834233415" id="-42677">
		<tag k="name" v="Purkeøygarden" />
		<tag k="place" v="farm" />
		<tag k="ssr:stedsnr" v="282409" />
	</node>
	<node lat="61.38299444731664" lon="10.372269435469521" id="-42681">
		<tag k="historic" v="shieling" />
		<tag k="name" v="Slåsætra" />
		<tag k="place" v="isolated_dwelling" />
		<tag k="ssr:stedsnr" v="282602" />
	</node>
	<node lat="61.284402778731405" lon="10.814680557203802" id="-42683">
		<tag k="historic" v="shieling" />
		<tag k="name" v="Smestadsætra" />
		<tag k="place" v="isolated_dwelling" />
		<tag k="ssr:stedsnr" v="282734" />
	</node>
	<node lat="61.21771944723266" lon="10.46566666090112" id="-42684">
		<tag k="name" v="Rusta" />
		<tag k="place" v="farm" />
		<tag k="ssr:stedsnr" v="283102" />
	</node>
	<node lat="61.231158329268595" lon="10.47511944162228" id="-42685">
		<tag k="name" v="Gunnerheimen" />
		<tag k="place" v="locality" />
		<tag k="ssr:stedsnr" v="283578" />
	</node>
	<node lat="61.364836111994826" lon="10.31059722979955" id="-42689">
		<tag k="name" v="Vedumstugua" />
		<tag k="place" v="farm" />
		<tag k="ssr:stedsnr" v="284329" />
	</node>
	<node lat="61.27672222355961" lon="10.392452773576268" id="-42691">
		<tag k="name" v="Bollvika" />
		<tag k="place" v="farm" />
		<tag k="ssr:stedsnr" v="284604" />
	</node>
	<node lat="61.196172222340635" lon="10.424211110014266" id="-42692">
		<tag k="name" v="Perstu" />
		<tag k="place" v="farm" />
		<tag k="ssr:stedsnr" v="284576" />
	</node>
	<node lat="61.27555277568034" lon="10.40743610652079" id="-42695">
		<tag k="name" v="Bergset" />
		<tag k="place" v="farm" />
		<tag k="ssr:stedsnr" v="292582" />
	</node>
	<node lat="61.285269529149886" lon="10.263444225294663" id="-42698">
		<tag k="name" v="Bjørnstad" />
		<tag k="place" v="hamlet" />
		<tag k="ssr:stedsnr" v="463372" />
	</node>
	<node lat="61.36219166558073" lon="10.198786114017159" id="-42699">
		<tag k="historic" v="shieling" />
		<tag k="name" v="Roåker" />
		<tag k="place" v="isolated_dwelling" />
		<tag k="ssr:stedsnr" v="463787" />
	</node>
	<node lat="61.4024583351991" lon="10.492727784506725" id="-42704">
		<tag k="name" v="Laukamslæen" />
		<tag k="place" v="locality" />
		<tag k="ssr:stedsnr" v="463993" />
	</node>
	<node lat="61.316205552042156" lon="10.327338895412156" id="-42708">
		<tag k="name" v="Solstad" />
		<tag k="place" v="farm" />
		<tag k="ssr:stedsnr" v="464384" />
	</node>
	<node lat="61.3058833335286" lon="10.315194436337903" id="-42709">
		<tag k="name" v="Solbergbakken" />
		<tag k="place" v="farm" />
		<tag k="ssr:stedsnr" v="464393" />
	</node>
	<node lat="61.29097500244763" lon="10.35560832691226" id="-42710">
		<tag k="name" v="Høgberg" />
		<tag k="place" v="locality" />
		<tag k="ssr:stedsnr" v="465434" />
	</node>
	<node lat="61.28455686038274" lon="10.291343730917468" id="-42713">
		<tag k="fixme" v="consider place=hamlet" />
		<tag k="name" v="Rogndalsvea" />
		<tag k="place" v="farm" />
		<tag k="ssr:stedsnr" v="465384" />
	</node>
	<node lat="61.23249722319343" lon="10.445061105145246" id="-42714">
		<tag k="name" v="Åberg" />
		<tag k="place" v="locality" />
		<tag k="ssr:stedsnr" v="466157" />
	</node>
	<node lat="61.237228696732856" lon="10.44409990246038" id="-42715">
		<tag k="fixme" v="consider place=hamlet" />
		<tag k="name" v="Aronsvea" />
		<tag k="place" v="farm" />
		<tag k="ssr:stedsnr" v="311179" />
	</node>
	<node lat="61.26236511326363" lon="10.440834435310038" id="-42720">
		<tag k="name" v="Bryn" />
		<tag k="place" v="hamlet" />
		<tag k="ssr:stedsnr" v="311517" />
	</node>
	<node lat="61.32036388808852" lon="10.423922215204799" id="-42721">
		<tag k="name" v="Gammelpølen" />
		<tag k="place" v="locality" />
		<tag k="ssr:stedsnr" v="466299" />
	</node>
	<node lat="61.27274433476082" lon="10.30917424919375" id="-42722">
		<tag k="fixme" v="consider place=hamlet" />
		<tag k="name" v="Bårdseng" />
		<tag k="place" v="farm" />
		<tag k="ssr:stedsnr" v="311893" />
	</node>
	<node lat="61.329463892862" lon="10.649155558073657" id="-42724">
		<tag k="alt_name" v="Åstdalsætra" />
		<tag k="historic" v="shieling" />
		<tag k="name" v="Åstdalssætra" />
		<tag k="place" v="isolated_dwelling" />
		<tag k="ssr:stedsnr" v="312286" />
	</node>
	<node lat="61.28660401017427" lon="10.336997320562462" id="-42729">
		<tag k="fixme" v="consider place=hamlet" />
		<tag k="name" v="Skard" />
		<tag k="place" v="farm" />
		<tag k="ssr:stedsnr" v="312733" />
	</node>
	<node lat="61.32539167100078" lon="10.27384444822867" id="-42735">
		<tag k="name" v="Stalenget" />
		<tag k="place" v="locality" />
		<tag k="ssr:stedsnr" v="466939" />
	</node>
	<node lat="61.25770277933301" lon="10.401269450945206" id="-42741">
		<tag k="name" v="Smerud" />
		<tag k="place" v="farm" />
		<tag k="ssr:stedsnr" v="342407" />
	</node>
	<node lat="61.28017777989631" lon="10.366094444096776" id="-42750">
		<tag k="name" v="Svarverstugua" />
		<tag k="place" v="farm" />
		<tag k="ssr:stedsnr" v="344610" />
	</node>
	<node lat="61.285116670874174" lon="10.379352777432016" id="-42752">
		<tag k="name" v="Bratt" />
		<tag k="place" v="farm" />
		<tag k="ssr:stedsnr" v="344618" />
	</node>
	<node lat="61.278244443900014" lon="10.387558324768147" id="-42753">
		<tag k="name" v="Blomberg" />
		<tag k="place" v="farm" />
		<tag k="ssr:stedsnr" v="344622" />
	</node>
	<node lat="61.278819523858836" lon="10.418071553982672" id="-42758">
		<tag k="name" v="Hov" />
		<tag k="place" v="farm" />
		<tag k="ssr:stedsnr" v="371472" />
	</node>
	<node lat="61.448839981227415" lon="10.642341800603253" id="-42760">
		<tag k="alt_name" v="Eldåhytta" />
		<tag k="name" v="Eldåbua" />
		<tag k="place" v="locality" />
		<tag k="ssr:stedsnr" v="372367" />
	</node>
	<node lat="61.28319721810354" lon="10.260902774022044" id="-42762">
		<tag k="name" v="Hågåbakken" />
		<tag k="place" v="farm" />
		<tag k="ssr:stedsnr" v="372766" />
	</node>
	<node lat="61.27811943027813" lon="10.270160305865952" id="-42763">
		<tag k="fixme" v="consider place=hamlet" />
		<tag k="name" v="Brennom" />
		<tag k="place" v="farm" />
		<tag k="ssr:stedsnr" v="494864" />
	</node>
	<node lat="61.34890277614529" lon="10.293458339865682" id="-42766">
		<tag k="name" v="Bergmo" />
		<tag k="place" v="isolated_dwelling" />
		<tag k="ssr:stedsnr" v="403210" />
	</node>
	<node lat="61.35355555730926" lon="10.267527779789635" id="-42767">
		<tag k="name" v="Vik" />
		<tag k="place" v="locality" />
		<tag k="ssr:stedsnr" v="403211" />
	</node>
	<node lat="61.3436638867415" lon="10.26705277989903" id="-42768">
		<tag k="alt_name" v="Søristuen" />
		<tag k="name" v="Søre Øygarden" />
		<tag k="place" v="farm" />
		<tag k="ssr:stedsnr" v="403221" />
	</node>
	<node lat="61.251163887050915" lon="10.46194721605691" id="-42777">
		<tag k="name" v="Jutulstadhaugen" />
		<tag k="place" v="isolated_dwelling" />
		<tag k="ssr:stedsnr" v="405793" />
	</node>
	<node lat="61.29173332918147" lon="10.395208323930936" id="-42781">
		<tag k="name" v="Olstadjordet" />
		<tag k="place" v="farm" />
		<tag k="ssr:stedsnr" v="412539" />
	</node>
	<node lat="61.23853333123917" lon="10.471422230877158" id="-42783">
		<tag k="name" v="Oppheim" />
		<tag k="place" v="farm" />
		<tag k="ssr:stedsnr" v="432135" />
	</node>
	<node lat="61.366558333216425" lon="10.468172221771317" id="-42784">
		<tag k="historic" v="shieling" />
		<tag k="name" v="Bollstulen" />
		<tag k="old_name" v="Vollstulen" />
		<tag k="place" v="isolated_dwelling" />
		<tag k="ssr:stedsnr" v="433305" />
	</node>
	<node lat="61.39695277864456" lon="10.47648888120002" id="-42786">
		<tag k="historic" v="shieling" />
		<tag k="name" v="Kaldbekken" />
		<tag k="place" v="isolated_dwelling" />
		<tag k="ssr:stedsnr" v="433312" />
	</node>
	<node lat="61.40721111187737" lon="10.517530555196688" id="-42788">
		<tag k="historic" v="shieling" />
		<tag k="name" v="Ledemsslæen" />
		<tag k="place" v="isolated_dwelling" />
		<tag k="ssr:stedsnr" v="433325" />
	</node>
	<node lat="61.32939167005164" lon="10.388922220555324" id="-42791">
		<tag k="historic" v="shieling" />
		<tag k="name" v="Søre Veslesætra" />
		<tag k="old_name" v="Vestsætra" />
		<tag k="place" v="isolated_dwelling" />
		<tag k="ssr:stedsnr" v="433277" />
	</node>
	<node lat="61.33794959981206" lon="10.419652455396754" id="-42792">
		<tag k="historic" v="shieling" />
		<tag k="name" v="Sydda" />
		<tag k="place" v="isolated_dwelling" />
		<tag k="ssr:stedsnr" v="433281" />
	</node>
	<node lat="61.267699997389215" lon="10.624802775035272" id="-42796">
		<tag k="historic" v="shieling" />
		<tag k="name" v="Sjøsætra" />
		<tag k="place" v="isolated_dwelling" />
		<tag k="ssr:stedsnr" v="433476" />
	</node>
	<node lat="61.30650998531438" lon="10.30905857114176" id="-42797">
		<tag k="alt_name" v="Solberg" />
		<tag k="fixme" v="consider place=hamlet" />
		<tag k="name" v="Solbjørg" />
		<tag k="place" v="farm" />
		<tag k="ssr:stedsnr" v="433803" />
	</node>
	<node lat="61.24621666632163" lon="10.469358330368403" id="-42800">
		<tag k="name" v="Berge" />
		<tag k="place" v="farm" />
		<tag k="ssr:stedsnr" v="493140" />
	</node>
	<node lat="61.244555551936756" lon="10.439186118493472" id="-42801">
		<tag k="name" v="Granrud" />
		<tag k="place" v="farm" />
		<tag k="ssr:stedsnr" v="493141" />
	</node>
	<node lat="61.30176666228307" lon="10.671561106062923" id="-42804">
		<tag k="alt_name" v="Augesætra" />
		<tag k="historic" v="shieling" />
		<tag k="name" v="Augsætra" />
		<tag k="place" v="isolated_dwelling" />
		<tag k="ssr:stedsnr" v="493284" />
	</node>
	<node lat="61.28223875525277" lon="10.370289589477956" id="-42805">
		<tag k="name" v="Gillebu" />
		<tag k="place" v="hamlet" />
		<tag k="ssr:stedsnr" v="493263" />
	</node>
	<node lat="61.402438234622004" lon="10.552932935341909" id="-42806">
		<tag k="name" v="Uksbåsen" />
		<tag k="place" v="farm" />
		<tag k="ssr:stedsnr" v="493329" />
	</node>
	<node lat="61.39408888867352" lon="10.666866673745261" id="-42808">
		<tag k="name" v="Skjelbua" />
		<tag k="place" v="isolated_dwelling" />
		<tag k="ssr:stedsnr" v="493334" />
	</node>
	<node lat="61.35637777333688" lon="10.401472228199074" id="-42809">
		<tag k="name" v="Brennlia" />
		<tag k="place" v="hamlet" />
		<tag k="ssr:stedsnr" v="493313" />
	</node>
	<node lat="61.249994618421525" lon="10.425512126813837" id="-42810">
		<tag k="fixme" v="consider place=hamlet" />
		<tag k="name" v="Langlykkja" />
		<tag k="place" v="farm" />
		<tag k="ssr:stedsnr" v="493457" />
	</node>
	<node lat="61.25733333015073" lon="10.443349995227171" id="-42811">
		<tag k="name" v="Stein" />
		<tag k="place" v="farm" />
		<tag k="ssr:stedsnr" v="493463" />
	</node>
	<node lat="61.36024367305469" lon="10.307418752734494" id="-42812">
		<tag k="alt_name" v="Enge" />
		<tag k="fixme" v="consider place=hamlet" />
		<tag k="name" v="Engje" />
		<tag k="place" v="farm" />
		<tag k="ssr:stedsnr" v="493968" />
	</node>
	<node lat="61.36753610796571" lon="10.2932166677524" id="-42813">
		<tag k="alt_name" v="Mågåli, midtre;Mågåli;Midt-Mågåli" />
		<tag k="name" v="Midtre Mågåli" />
		<tag k="place" v="farm" />
		<tag k="ssr:stedsnr" v="493996" />
	</node>
	<node lat="61.31389134004718" lon="10.553708127678838" id="-42814">
		<tag k="historic" v="shieling" />
		<tag k="name" v="Vedemslia" />
		<tag k="place" v="isolated_dwelling" />
		<tag k="ssr:stedsnr" v="494234" />
	</node>
	<node lat="61.32900000039423" lon="10.364652773862106" id="-42815">
		<tag k="alt_name" v="Graanstulen" />
		<tag k="historic" v="shieling" />
		<tag k="name" v="Fossumssætra" />
		<tag k="place" v="isolated_dwelling" />
		<tag k="ssr:stedsnr" v="494252" />
	</node>
	<node lat="61.331122220282275" lon="10.718780557579594" id="-42816">
		<tag k="historic" v="shieling" />
		<tag k="name" v="Bøsætra" />
		<tag k="place" v="isolated_dwelling" />
		<tag k="ssr:stedsnr" v="494382" />
	</node>
	<node lat="61.29179796405915" lon="10.266598281365763" id="-42817">
		<tag k="fixme" v="consider place=hamlet" />
		<tag k="name" v="Musdalslia" />
		<tag k="place" v="farm" />
		<tag k="ssr:stedsnr" v="494725" />
	</node>
	<node lat="61.28278888724844" lon="10.294563896859101" id="-42818">
		<tag k="alt_name" v="Rinheim" />
		<tag k="name" v="Rindheim" />
		<tag k="place" v="farm" />
		<tag k="ssr:stedsnr" v="494739" />
	</node>
	<node lat="61.30419999597415" lon="10.234169449562279" id="-42819">
		<tag k="name" v="Opptun" />
		<tag k="place" v="farm" />
		<tag k="ssr:stedsnr" v="494759" />
	</node>
	<node lat="61.30110580607241" lon="10.254486615430856" id="-42820">
		<tag k="name" v="Hong" />
		<tag k="place" v="hamlet" />
		<tag k="ssr:stedsnr" v="494760" />
	</node>
	<node lat="61.289644440428326" lon="10.263716667012742" id="-42821">
		<tag k="name" v="Midtle" />
		<tag k="place" v="locality" />
		<tag k="ssr:stedsnr" v="449389" />
	</node>
	<node lat="61.26938888526649" lon="10.383213890928806" id="-42822">
		<tag k="name" v="Kolbustugua" />
		<tag k="place" v="farm" />
		<tag k="ssr:stedsnr" v="463421" />
	</node>
	<node lat="61.3288638853302" lon="10.346874991450127" id="-42827">
		<tag k="historic" v="shieling" />
		<tag k="name" v="Prestgardshemsætra" />
		<tag k="place" v="isolated_dwelling" />
		<tag k="ssr:stedsnr" v="466365" />
	</node>
	<node lat="61.18372500107733" lon="10.417586102081414" id="-42829">
		<tag k="name" v="Nilsstugua" />
		<tag k="place" v="locality" />
		<tag k="ssr:stedsnr" v="466573" />
	</node>
	<node lat="61.240611108256466" lon="10.463619448302053" id="-42831">
		<tag k="name" v="Sørhaugen" />
		<tag k="place" v="isolated_dwelling" />
		<tag k="ssr:stedsnr" v="466814" />
	</node>
	<node lat="61.22980366414771" lon="10.470087054036226" id="-42832">
		<tag k="alt_name" v="Nestingshagan;Nestinghågån" />
		<tag k="name" v="Nestingshågån" />
		<tag k="place" v="locality" />
		<tag k="ssr:stedsnr" v="675186" />
	</node>
	<node lat="61.22535833509762" lon="10.64815278446276" id="-42833">
		<tag k="alt_name" v="Reina, in;Reina" />
		<tag k="name" v="Indre Reina" />
		<tag k="place" v="hamlet" />
		<tag k="ssr:stedsnr" v="675189" />
	</node>
	<node lat="61.21981546323728" lon="10.464688653578184" id="-42834">
		<tag k="fixme" v="consider place=hamlet" />
		<tag k="name" v="Lauvlia" />
		<tag k="place" v="farm" />
		<tag k="ssr:stedsnr" v="675194" />
	</node>
	<node lat="61.289271930730685" lon="10.386767816146609" id="-42835">
		<tag k="alt_name" v="Melum" />
		<tag k="fixme" v="consider place=hamlet" />
		<tag k="name" v="Mælum" />
		<tag k="place" v="farm" />
		<tag k="ssr:stedsnr" v="675293" />
	</node>
	<node lat="61.29305131250112" lon="10.3958443025187" id="-42836">
		<tag k="fixme" v="consider place=hamlet" />
		<tag k="name" v="Kråbøl" />
		<tag k="place" v="farm" />
		<tag k="ssr:stedsnr" v="675314" />
	</node>
	<node lat="61.32045277822977" lon="10.27201943845043" id="-42842">
		<tag k="name" v="Stavslibakken" />
		<tag k="place" v="farm" />
		<tag k="ssr:stedsnr" v="675952" />
	</node>
	<node lat="61.32115000080571" lon="10.335111120125179" id="-42843">
		<tag k="name" v="Øvsteng" />
		<tag k="place" v="farm" />
		<tag k="ssr:stedsnr" v="675955" />
	</node>
	<node lat="61.3352722221059" lon="10.56187778485816" id="-42846">
		<tag k="name" v="Brettdalen" />
		<tag k="place" v="hamlet" />
		<tag k="ssr:stedsnr" v="676273" />
	</node>
	<node lat="61.340521156954814" lon="10.492017572983734" id="-42847">
		<tag k="historic" v="shieling" />
		<tag k="name" v="Svartsætra" />
		<tag k="place" v="isolated_dwelling" />
		<tag k="ssr:stedsnr" v="676274" />
	</node>
	<node lat="61.34521389244207" lon="10.524530553158494" id="-42849">
		<tag k="historic" v="shieling" />
		<tag k="name" v="Nysætra" />
		<tag k="place" v="isolated_dwelling" />
		<tag k="ssr:stedsnr" v="676278" />
	</node>
	<node lat="61.284233335410036" lon="10.264433326799645" id="-42853">
		<tag k="name" v="Bjørnstad" />
		<tag k="place" v="farm" />
		<tag k="ssr:stedsnr" v="676750" />
	</node>
	<node lat="61.305922225311996" lon="10.257819437065756" id="-42857">
		<tag k="name" v="Steinbakken" />
		<tag k="place" v="farm" />
		<tag k="ssr:stedsnr" v="482606" />
	</node>
	<node lat="61.38142777589262" lon="10.377186106961535" id="-42860">
		<tag k="historic" v="shieling" />
		<tag k="name" v="Slåsætra" />
		<tag k="place" v="isolated_dwelling" />
		<tag k="ssr:stedsnr" v="493307" />
	</node>
	<node lat="61.27994444708537" lon="10.366719442210213" id="-42863">
		<tag k="name" v="Vollen" />
		<tag k="place" v="farm" />
		<tag k="ssr:stedsnr" v="493269" />
	</node>
	<node lat="61.25966255771551" lon="10.4243180767858" id="-42864">
		<tag k="alt_name" v="Jevne" />
		<tag k="fixme" v="consider place=hamlet" />
		<tag k="name" v="Jemne" />
		<tag k="place" v="farm" />
		<tag k="ssr:stedsnr" v="493467" />
	</node>
	<node lat="61.263767845534346" lon="10.454636615871197" id="-42865">
		<tag k="fixme" v="consider place=hamlet" />
		<tag k="name" v="Øverli" />
		<tag k="place" v="farm" />
		<tag k="ssr:stedsnr" v="493476" />
	</node>
	<node lat="61.264879031001385" lon="10.382350797763804" id="-42866">
		<tag k="fixme" v="consider place=hamlet" />
		<tag k="name" v="Lia" />
		<tag k="place" v="farm" />
		<tag k="ssr:stedsnr" v="493479" />
	</node>
	<node lat="61.27003294062802" lon="10.380965543754995" id="-42867">
		<tag k="fixme" v="consider place=hamlet" />
		<tag k="name" v="Kolbu" />
		<tag k="place" v="farm" />
		<tag k="ssr:stedsnr" v="493481" />
	</node>
	<node lat="61.2676666694424" lon="10.441919441267418" id="-42868">
		<tag k="name" v="Dal" />
		<tag k="place" v="farm" />
		<tag k="ssr:stedsnr" v="493483" />
	</node>
	<node lat="61.26364272291675" lon="10.421443520528106" id="-42869">
		<tag k="fixme" v="consider place=hamlet" />
		<tag k="name" v="Moshus" />
		<tag k="place" v="farm" />
		<tag k="ssr:stedsnr" v="493485" />
	</node>
	<node lat="61.2731564953071" lon="10.415548167640585" id="-42870">
		<tag k="fixme" v="consider place=hamlet" />
		<tag k="name" v="Solheim" />
		<tag k="place" v="farm" />
		<tag k="ssr:stedsnr" v="493490" />
	</node>
	<node lat="61.318996207916854" lon="10.298124226256828" id="-42871">
		<tag k="fixme" v="consider place=hamlet" />
		<tag k="name" v="Stav" />
		<tag k="place" v="farm" />
		<tag k="ssr:stedsnr" v="493947" />
	</node>
	<node lat="61.32070358074669" lon="10.207059450607664" id="-42872">
		<tag k="alt_name" v="Musdalsætra" />
		<tag k="historic" v="shieling" />
		<tag k="name" v="Musdalssætra" />
		<tag k="place" v="isolated_dwelling" />
		<tag k="ssr:stedsnr" v="493948" />
	</node>
	<node lat="61.32036278331225" lon="10.328090154176852" id="-42873">
		<tag k="fixme" v="consider place=hamlet" />
		<tag k="name" v="Simengard" />
		<tag k="place" v="farm" />
		<tag k="ssr:stedsnr" v="493951" />
	</node>
	<node lat="61.31103055311677" lon="10.272533324362849" id="-42874">
		<tag k="name" v="Nysvea" />
		<tag k="place" v="farm" />
		<tag k="ssr:stedsnr" v="493832" />
	</node>
	<node lat="61.34615062875507" lon="10.29790086164969" id="-42875">
		<tag k="alt_name" v="Børke, nordre;Nord-Børkje" />
		<tag k="fixme" v="consider place=hamlet" />
		<tag k="name" v="Nordre Børke" />
		<tag k="place" v="farm" />
		<tag k="ssr:stedsnr" v="493962" />
	</node>
	<node lat="61.31658055259652" lon="10.369247227691453" id="-42876">
		<tag k="alt_name" v="Smørkampen" />
		<tag k="historic" v="shieling" />
		<tag k="name" v="Smørkampsætra" />
		<tag k="place" v="isolated_dwelling" />
		<tag k="ssr:stedsnr" v="494265" />
	</node>
	<node lat="61.382425002529374" lon="10.747047223661184" id="-42878">
		<tag k="fixme" v="consider tourism=alpine_hut or tourism=chalet" />
		<tag k="name" v="Lyngbua" />
		<tag k="ssr:stedsnr" v="510819" />
		<tag k="tourism" v="wilderness_hut" />
	</node>
	<node lat="61.34411110881405" lon="10.30148610181619" id="-42889">
		<tag k="name" v="Brubakken" />
		<tag k="place" v="farm" />
		<tag k="ssr:stedsnr" v="524809" />
	</node>
	<node lat="61.265927776732894" lon="10.439752770599748" id="-42891">
		<tag k="name" v="Midtli" />
		<tag k="place" v="farm" />
		<tag k="ssr:stedsnr" v="526212" />
	</node>
	<node lat="61.29648333427236" lon="10.277319449158043" id="-42902">
		<tag k="name" v="Nordre Hovde" />
		<tag k="place" v="farm" />
		<tag k="ssr:stedsnr" v="543608" />
	</node>
	<node lat="61.301713890087676" lon="10.233250002289601" id="-42904">
		<tag k="name" v="Galtrud" />
		<tag k="place" v="locality" />
		<tag k="ssr:stedsnr" v="543875" />
	</node>
	<node lat="61.374421105987835" lon="10.24371533954696" id="-42905">
		<tag k="fixme" v="consider place=hamlet" />
		<tag k="name" v="Pålsrud" />
		<tag k="place" v="farm" />
		<tag k="ssr:stedsnr" v="553997" />
	</node>
	<node lat="61.372269442045614" lon="10.252491659585303" id="-42906">
		<tag k="alt_name" v="Pålsrudmoen" />
		<tag k="name" v="Moen" />
		<tag k="place" v="farm" />
		<tag k="ssr:stedsnr" v="553999" />
	</node>
	<node lat="61.369550833379336" lon="10.374387647175475" id="-42914">
		<tag k="historic" v="shieling" />
		<tag k="name" v="Glømmesætra" />
		<tag k="place" v="isolated_dwelling" />
		<tag k="ssr:stedsnr" v="554334" />
	</node>
	<node lat="61.30543889002106" lon="10.636072215947936" id="-42915">
		<tag k="name" v="Brennlia" />
		<tag k="place" v="hamlet" />
		<tag k="ssr:stedsnr" v="554291" />
	</node>
	<node lat="61.29036389056638" lon="10.38148610752457" id="-42919">
		<tag k="name" v="Høystad" />
		<tag k="place" v="farm" />
		<tag k="ssr:stedsnr" v="554299" />
	</node>
	<node lat="61.300300000888576" lon="10.213780555975836" id="-42921">
		<tag k="alt_name" v="Ingridskogen" />
		<tag k="name" v="Ingeridskogen" />
		<tag k="place" v="hamlet" />
		<tag k="ssr:stedsnr" v="554806" />
	</node>
	<node lat="61.29250949160458" lon="10.255687331934288" id="-42922">
		<tag k="fixme" v="consider place=hamlet" />
		<tag k="name" v="Bergslia" />
		<tag k="place" v="farm" />
		<tag k="ssr:stedsnr" v="554785" />
	</node>
	<node lat="61.284522226606704" lon="10.31331111562159" id="-42923">
		<tag k="name" v="Helset" />
		<tag k="place" v="farm" />
		<tag k="ssr:stedsnr" v="554794" />
	</node>
	<node lat="61.34281015860072" lon="10.229037423681147" id="-42924">
		<tag k="alt_name" v="Djupdalssætra" />
		<tag k="historic" v="shieling" />
		<tag k="name" v="Djupdalen" />
		<tag k="place" v="isolated_dwelling" />
		<tag k="ssr:stedsnr" v="554970" />
	</node>
	<node lat="61.35309847662088" lon="10.30779842075619" id="-42925">
		<tag k="alt_name" v="Johnsgard nordistugun" />
		<tag k="fixme" v="consider place=hamlet" />
		<tag k="name" v="Jonsgard" />
		<tag k="place" v="farm" />
		<tag k="ssr:stedsnr" v="554974" />
	</node>
	<node lat="61.351777773991905" lon="10.24999165849951" id="-42926">
		<tag k="alt_name" v="Toresgard" />
		<tag k="name" v="Høgvik" />
		<tag k="place" v="farm" />
		<tag k="ssr:stedsnr" v="554984" />
	</node>
	<node lat="61.280058329665124" lon="10.359186116348674" id="-42940">
		<tag k="name" v="Rustberg" />
		<tag k="ssr:stedsnr" v="587622" />
		<tag k="tourism" v="camp_site" />
	</node>
	<node lat="61.27457499558537" lon="10.28213611291682" id="-42946">
		<tag k="name" v="Skuggen" />
		<tag k="place" v="isolated_dwelling" />
		<tag k="ssr:stedsnr" v="600348" />
	</node>
	<node lat="61.2894888855771" lon="10.715680554311191" id="-42950">
		<tag k="name" v="Grava" />
		<tag k="place" v="hamlet" />
		<tag k="ssr:stedsnr" v="614259" />
	</node>
	<node lat="61.28904475365232" lon="10.37568316798566" id="-42951">
		<tag k="name" v="Skjønsberg" />
		<tag k="place" v="hamlet" />
		<tag k="ssr:stedsnr" v="614262" />
	</node>
	<node lat="61.27447159168447" lon="10.369074104195917" id="-42952">
		<tag k="alt_name" v="Lågårud" />
		<tag k="fixme" v="consider place=hamlet" />
		<tag k="name" v="Lagerud" />
		<tag k="place" v="farm" />
		<tag k="ssr:stedsnr" v="614269" />
	</node>
	<node lat="61.27273303665477" lon="10.381313014482732" id="-42955">
		<tag k="name" v="Lunheim" />
		<tag k="place" v="farm" />
		<tag k="ssr:stedsnr" v="614500" />
	</node>
	<node lat="61.273207928494344" lon="10.468844654908073" id="-42956">
		<tag k="alt_name" v="Brynsætra" />
		<tag k="historic" v="shieling" />
		<tag k="name" v="Brynssætra" />
		<tag k="place" v="isolated_dwelling" />
		<tag k="ssr:stedsnr" v="614502" />
	</node>
	<node lat="61.27208610674777" lon="10.431416664691396" id="-42957">
		<tag k="name" v="Nordjordet" />
		<tag k="place" v="farm" />
		<tag k="ssr:stedsnr" v="614503" />
	</node>
	<node lat="61.268286106954456" lon="10.27494444990119" id="-42959">
		<tag k="historic" v="shieling" />
		<tag k="name" v="Sveasætra" />
		<tag k="place" v="isolated_dwelling" />
		<tag k="ssr:stedsnr" v="614858" />
	</node>
	<node lat="61.26991667000293" lon="10.273441668202127" id="-42960">
		<tag k="historic" v="shieling" />
		<tag k="name" v="Lassesætra" />
		<tag k="place" v="isolated_dwelling" />
		<tag k="ssr:stedsnr" v="614860" />
	</node>
	<node lat="61.33507222036189" lon="10.293730553401245" id="-42961">
		<tag k="alt_name" v="Kolobekken" />
		<tag k="name" v="Kålåbekken" />
		<tag k="place" v="farm" />
		<tag k="ssr:stedsnr" v="614948" />
	</node>
	<node lat="61.344663885470794" lon="10.26668054798402" id="-42970">
		<tag k="name" v="Nørdre Øygarden" />
		<tag k="place" v="farm" />
		<tag k="ssr:stedsnr" v="707268" />
	</node>
	<node lat="61.32003055940795" lon="10.332130562355268" id="-42977">
		<tag k="name" v="Veslehågån" />
		<tag k="place" v="farm" />
		<tag k="ssr:stedsnr" v="645307" />
	</node>
	<node lat="61.2023555550991" lon="10.49121110182117" id="-42979">
		<tag k="name" v="Hunderhytta" />
		<tag k="place" v="locality" />
		<tag k="ssr:stedsnr" v="645312" />
	</node>
	<node lat="61.275402773458794" lon="10.426866671441987" id="-42981">
		<tag k="name" v="Krukhaugen" />
		<tag k="place" v="farm" />
		<tag k="ssr:stedsnr" v="645512" />
	</node>
	<node lat="61.3335861077057" lon="10.253955564087091" id="-42993">
		<tag k="historic" v="shieling" />
		<tag k="name" v="Viksætra" />
		<tag k="place" v="isolated_dwelling" />
		<tag k="ssr:stedsnr" v="647898" />
	</node>
	<node lat="61.338386113909856" lon="10.293641675321082" id="-42994">
		<tag k="name" v="Midtvoll" />
		<tag k="place" v="farm" />
		<tag k="ssr:stedsnr" v="647939" />
	</node>
	<node lat="61.32009722488106" lon="10.28039167317661" id="-42995">
		<tag k="name" v="Granro" />
		<tag k="place" v="isolated_dwelling" />
		<tag k="ssr:stedsnr" v="647941" />
	</node>
	<node lat="61.323072219260546" lon="10.33494999751807" id="-42999">
		<tag k="name" v="Hågåbakken" />
		<tag k="place" v="farm" />
		<tag k="ssr:stedsnr" v="707333" />
	</node>
	<node lat="61.32302499697727" lon="10.32893333458855" id="-43000">
		<tag k="name" v="Prestgardshaugen" />
		<tag k="place" v="farm" />
		<tag k="ssr:stedsnr" v="707334" />
	</node>
	<node lat="61.292511109242966" lon="10.264241674108314" id="-43001">
		<tag k="name" v="Musdalslia" />
		<tag k="place" v="farm" />
		<tag k="ssr:stedsnr" v="707435" />
	</node>
	<node lat="61.3368138888561" lon="10.339161102539428" id="-43009">
		<tag k="name" v="Nilsholmen" />
		<tag k="place" v="locality" />
		<tag k="ssr:stedsnr" v="708338" />
	</node>
	<node lat="61.28753610950816" lon="10.389480550000624" id="-43010">
		<tag k="name" v="Roa" />
		<tag k="place" v="farm" />
		<tag k="ssr:stedsnr" v="655502" />
	</node>
	<node lat="61.247647219130286" lon="10.466574996272493" id="-43017">
		<tag k="name" v="Brenna" />
		<tag k="place" v="farm" />
		<tag k="ssr:stedsnr" v="708802" />
	</node>
	<node lat="61.301163885492095" lon="10.224416668359948" id="-43019">
		<tag k="historic" v="shieling" />
		<tag k="name" v="Fubbrud" />
		<tag k="place" v="isolated_dwelling" />
		<tag k="ssr:stedsnr" v="664908" />
	</node>
	<node lat="61.36848231265726" lon="10.752126777094485" id="-43022">
		<tag k="fixme" v="consider tourism=alpine_hut or tourism=chalet" />
		<tag k="name" v="Bulonhytta" />
		<tag k="ssr:stedsnr" v="890968" />
		<tag k="tourism" v="wilderness_hut" />
	</node>
	<node lat="61.2460194450482" lon="10.408313890201871" id="-43024">
		<tag k="name" v="Dokksætra" />
		<tag k="place" v="locality" />
		<tag k="ssr:stedsnr" v="891184" />
	</node>
	<node lat="61.26317778150535" lon="10.476772217787437" id="-43030">
		<tag k="alt_name" v="Øverli hemsætra" />
		<tag k="historic" v="shieling" />
		<tag k="name" v="Øverlisætra" />
		<tag k="place" v="isolated_dwelling" />
		<tag k="ssr:stedsnr" v="675503" />
	</node>
	<node lat="61.27025489127333" lon="10.435051747982548" id="-43031">
		<tag k="name" v="Vedem" />
		<tag k="place" v="hamlet" />
		<tag k="ssr:stedsnr" v="675513" />
	</node>
	<node lat="61.25872499927415" lon="10.440877768790706" id="-43033">
		<tag k="name" v="Brynssvea" />
		<tag k="place" v="farm" />
		<tag k="ssr:stedsnr" v="675498" />
	</node>
	<node lat="61.25500000446035" lon="10.378572221791481" id="-43034">
		<tag k="alt_name" v="Berdonslia" />
		<tag k="historic" v="shieling" />
		<tag k="name" v="Berdonslisætra" />
		<tag k="place" v="isolated_dwelling" />
		<tag k="ssr:stedsnr" v="675499" />
	</node>
	<node lat="61.371747224150496" lon="10.297733334954609" id="-43035">
		<tag k="name" v="Mågålihågån" />
		<tag k="place" v="farm" />
		<tag k="ssr:stedsnr" v="675995" />
	</node>
	<node lat="61.37872221959726" lon="10.374916675576296" id="-43036">
		<tag k="historic" v="shieling" />
		<tag k="name" v="Vedemssætra" />
		<tag k="place" v="isolated_dwelling" />
		<tag k="ssr:stedsnr" v="676292" />
	</node>
	<node lat="61.31612167597828" lon="10.312131608051782" id="-43038">
		<tag k="fixme" v="consider place=hamlet" />
		<tag k="name" v="Mo" />
		<tag k="place" v="farm" />
		<tag k="ssr:stedsnr" v="676801" />
	</node>
	<node lat="61.287680557892514" lon="10.33370833460084" id="-43040">
		<tag k="name" v="Klevenberg" />
		<tag k="place" v="farm" />
		<tag k="ssr:stedsnr" v="891521" />
	</node>
	<node lat="61.284575001282796" lon="10.38123332461758" id="-43041">
		<tag k="name" v="Brattland" />
		<tag k="place" v="farm" />
		<tag k="ssr:stedsnr" v="891617" />
	</node>
	<node lat="61.33063610902005" lon="10.269872220303654" id="-43042">
		<tag k="name" v="Vikmoen" />
		<tag k="place" v="locality" />
		<tag k="ssr:stedsnr" v="891894" />
	</node>
	<node lat="61.31846388688246" lon="10.274347217311174" id="-43043">
		<tag k="name" v="Heggeroa" />
		<tag k="place" v="locality" />
		<tag k="ssr:stedsnr" v="891944" />
	</node>
	<node lat="61.3356999994219" lon="10.269047218587906" id="-43044">
		<tag k="name" v="Nordre Vike" />
		<tag k="place" v="farm" />
		<tag k="ssr:stedsnr" v="704873" />
	</node>
	<node lat="61.26397778074364" lon="10.40747777097242" id="-43048">
		<tag k="name" v="Vestheim" />
		<tag k="place" v="farm" />
		<tag k="ssr:stedsnr" v="706404" />
	</node>
	<node lat="61.305673713734656" lon="10.756484230717163" id="-43060">
		<tag k="name" v="Lyngåbua" />
		<tag k="place" v="locality" />
		<tag k="ssr:stedsnr" v="708806" />
	</node>
	<node lat="61.320630557846684" lon="10.280786119782388" id="-43062">
		<tag k="name" v="Granlund" />
		<tag k="place" v="farm" />
		<tag k="ssr:stedsnr" v="708927" />
	</node>
	<node lat="61.27849444141395" lon="10.399024992527606" id="-43067">
		<tag k="name" v="Austli" />
		<tag k="place" v="farm" />
		<tag k="ssr:stedsnr" v="716596" />
	</node>
	<node lat="61.217875547899006" lon="10.459960661491406" id="-43072">
		<tag k="fixme" v="consider place=hamlet" />
		<tag k="name" v="Skalmstad" />
		<tag k="place" v="farm" />
		<tag k="ssr:stedsnr" v="736177" />
	</node>
	<node lat="61.28009674896219" lon="10.411813027680727" id="-43073">
		<tag k="fixme" v="consider place=hamlet" />
		<tag k="name" v="Bøbakken" />
		<tag k="place" v="farm" />
		<tag k="ssr:stedsnr" v="736279" />
	</node>
	<node lat="61.38126751183462" lon="10.53033551994857" id="-43076">
		<tag k="alt_name" v="Grunnsætra" />
		<tag k="historic" v="shieling" />
		<tag k="name" v="Grunna" />
		<tag k="place" v="isolated_dwelling" />
		<tag k="ssr:stedsnr" v="736308" />
	</node>
	<node lat="61.40263333781371" lon="10.621769442790354" id="-43077">
		<tag k="historic" v="shieling" />
		<tag k="name" v="Tittersætra" />
		<tag k="place" v="isolated_dwelling" />
		<tag k="ssr:stedsnr" v="736319" />
	</node>
	<node lat="61.385102781268316" lon="10.636336119924502" id="-43078">
		<tag k="historic" v="shieling" />
		<tag k="name" v="Skyttilsætra" />
		<tag k="place" v="isolated_dwelling" />
		<tag k="ssr:stedsnr" v="736321" />
	</node>
	<node lat="61.2738087910828" lon="10.778399195870366" id="-43079">
		<tag k="name" v="Sagbua" />
		<tag k="place" v="locality" />
		<tag k="ssr:stedsnr" v="736370" />
	</node>
	<node lat="61.266900002850576" lon="10.791008333037617" id="-43080">
		<tag k="name" v="Åstbua" />
		<tag k="place" v="isolated_dwelling" />
		<tag k="ssr:stedsnr" v="736372" />
	</node>
	<node lat="61.254563888441496" lon="10.448794445492217" id="-43081">
		<tag k="name" v="Nordheim" />
		<tag k="place" v="farm" />
		<tag k="ssr:stedsnr" v="736470" />
	</node>
	<node lat="61.25889815304113" lon="10.399545611708962" id="-43082">
		<tag k="fixme" v="consider place=hamlet" />
		<tag k="name" v="Flatstulen" />
		<tag k="place" v="farm" />
		<tag k="ssr:stedsnr" v="736475" />
	</node>
	<node lat="61.30854134760947" lon="10.312836166113893" id="-43083">
		<tag k="alt_name" v="Fonstad" />
		<tag k="fixme" v="consider place=hamlet" />
		<tag k="name" v="Fonnstad" />
		<tag k="place" v="farm" />
		<tag k="ssr:stedsnr" v="736819" />
	</node>
	<node lat="61.314343217479106" lon="10.326934562497991" id="-43084">
		<tag k="fixme" v="consider place=hamlet" />
		<tag k="name" v="Bleka" />
		<tag k="place" v="farm" />
		<tag k="ssr:stedsnr" v="736822" />
	</node>
	<node lat="61.23761666703935" lon="10.475474994605774" id="-43086">
		<tag k="landuse" v="winter_sports" />
		<tag k="name" v="Hafjell alpinsenter" />
		<tag k="piste:type" v="downhill" />
		<tag k="ssr:stedsnr" v="753815" />
	</node>
	<node lat="61.33084167013392" lon="10.328311118392643" id="-43089">
		<tag k="name" v="Hjelmstadstugua" />
		<tag k="place" v="farm" />
		<tag k="ssr:stedsnr" v="767305" />
	</node>
	<node lat="61.288616664195516" lon="10.276627786261862" id="-43094">
		<tag k="name" v="Sveom" />
		<tag k="place" v="farm" />
		<tag k="ssr:stedsnr" v="767408" />
	</node>
	<node lat="61.251727774203026" lon="10.415597230298541" id="-43099">
		<tag k="name" v="Sveajordet" />
		<tag k="place" v="farm" />
		<tag k="ssr:stedsnr" v="769150" />
	</node>
	<node lat="61.25566666321357" lon="10.468047231050953" id="-43100">
		<tag k="name" v="Skansen" />
		<tag k="place" v="farm" />
		<tag k="ssr:stedsnr" v="769213" />
	</node>
	<node lat="61.300541665538894" lon="10.244536109943372" id="-43104">
		<tag k="name" v="Nordjordet" />
		<tag k="place" v="farm" />
		<tag k="ssr:stedsnr" v="907578" />
	</node>
	<node lat="61.23146666374795" lon="10.466527772708705" id="-43114">
		<tag k="name" v="Lykkja" />
		<tag k="place" v="farm" />
		<tag k="ssr:stedsnr" v="797153" />
	</node>
	<node lat="61.29451666724385" lon="10.256147223511853" id="-43117">
		<tag k="name" v="Holoa" />
		<tag k="place" v="farm" />
		<tag k="ssr:stedsnr" v="797765" />
	</node>
	<node lat="61.30293055155491" lon="10.320502773014708" id="-43118">
		<tag k="name" v="Kolsvea" />
		<tag k="place" v="farm" />
		<tag k="ssr:stedsnr" v="797802" />
	</node>
	<node lat="61.24982777463068" lon="10.587216672579247" id="-43120">
		<tag k="name" v="Hita" />
		<tag k="place" v="hamlet" />
		<tag k="ssr:stedsnr" v="799790" />
	</node>
	<node lat="61.25948333764752" lon="10.412366660844677" id="-43121">
		<tag k="name" v="Brandborg" />
		<tag k="place" v="farm" />
		<tag k="ssr:stedsnr" v="914466" />
	</node>
	<node lat="61.20944444892285" lon="10.43184721464522" id="-43123">
		<tag k="alt_name" v="Sletta" />
		<tag k="name" v="Midtskog" />
		<tag k="place" v="farm" />
		<tag k="ssr:stedsnr" v="917144" />
	</node>
	<node lat="61.32905829122079" lon="10.306907608811954" id="-43124">
		<tag k="fixme" v="consider place=hamlet" />
		<tag k="name" v="Svehaugen" />
		<tag k="place" v="farm" />
		<tag k="ssr:stedsnr" v="917935" />
	</node>
	<node lat="61.2383583310145" lon="10.425747219669333" id="-43125">
		<tag k="alt_name" v="Hauglykkja" />
		<tag k="name" v="Klopphauglykkja" />
		<tag k="place" v="farm" />
		<tag k="ssr:stedsnr" v="918141" />
	</node>
	<node lat="61.22078015422857" lon="10.457011278376827" id="-43126">
		<tag k="fixme" v="consider place=hamlet" />
		<tag k="name" v="Ile" />
		<tag k="place" v="farm" />
		<tag k="ssr:stedsnr" v="918180" />
	</node>
	<node lat="61.353930554462835" lon="10.359602781387732" id="-43127">
		<tag k="alt_name" v="Veslestulen" />
		<tag k="name" v="Veslstølen" />
		<tag k="place" v="locality" />
		<tag k="ssr:stedsnr" v="918350" />
	</node>
	<node lat="61.372588887101" lon="10.611391657479533" id="-43128">
		<tag k="name" v="Nedreåsta" />
		<tag k="place" v="isolated_dwelling" />
		<tag k="ssr:stedsnr" v="918363" />
	</node>
	<node lat="61.256238891803264" lon="10.432244443472761" id="-43130">
		<tag k="alt_name" v="Jemnhagen" />
		<tag k="name" v="Jemnhågån" />
		<tag k="place" v="farm" />
		<tag k="ssr:stedsnr" v="918532" />
	</node>
	<node lat="61.254536597288464" lon="10.457012546536497" id="-43131">
		<tag k="fixme" v="consider place=hamlet" />
		<tag k="name" v="Bottrud" />
		<tag k="place" v="farm" />
		<tag k="ssr:stedsnr" v="918533" />
	</node>
	<node lat="61.25960000108554" lon="10.442855557211784" id="-43132">
		<tag k="name" v="Holme" />
		<tag k="place" v="farm" />
		<tag k="ssr:stedsnr" v="918536" />
	</node>
	<node lat="61.26495277939689" lon="10.538627782717086" id="-43133">
		<tag k="name" v="Steinmyrhaugen" />
		<tag k="place" v="isolated_dwelling" />
		<tag k="ssr:stedsnr" v="918537" />
	</node>
	<node lat="61.26253747860932" lon="10.492801771671926" id="-43134">
		<tag k="historic" v="shieling" />
		<tag k="name" v="Lisætra" />
		<tag k="place" v="isolated_dwelling" />
		<tag k="ssr:stedsnr" v="918540" />
	</node>
	<node lat="61.25630278161975" lon="10.405494437861245" id="-43135">
		<tag k="name" v="Slettjordet" />
		<tag k="place" v="farm" />
		<tag k="ssr:stedsnr" v="918543" />
	</node>
	<node lat="61.2685833326112" lon="10.440844445880208" id="-43136">
		<tag k="name" v="Dalbu" />
		<tag k="place" v="farm" />
		<tag k="ssr:stedsnr" v="918549" />
	</node>
	<node lat="61.35071258111466" lon="10.309177495186573" id="-43137">
		<tag k="fixme" v="consider place=hamlet" />
		<tag k="name" v="Glømme" />
		<tag k="place" v="farm" />
		<tag k="ssr:stedsnr" v="918971" />
	</node>
	<node lat="61.36458333091399" lon="10.25755276944823" id="-43139">
		<tag k="alt_name" v="Lognset" />
		<tag k="name" v="Langset" />
		<tag k="place" v="farm" />
		<tag k="ssr:stedsnr" v="918994" />
	</node>
	<node lat="61.340016823178935" lon="10.60393000617388" id="-43141">
		<tag k="historic" v="shieling" />
		<tag k="name" v="Akksjøsætra" />
		<tag k="place" v="isolated_dwelling" />
		<tag k="ssr:stedsnr" v="919272" />
	</node>
	<node lat="61.30003159047037" lon="10.266737424782352" id="-43142">
		<tag k="alt_name" v="Offigstad" />
		<tag k="fixme" v="consider place=hamlet" />
		<tag k="name" v="Ofigstad" />
		<tag k="place" v="farm" />
		<tag k="ssr:stedsnr" v="919764" />
	</node>
	<node lat="61.302471208753545" lon="10.27349157254907" id="-43143">
		<tag k="fixme" v="consider place=hamlet" />
		<tag k="name" v="Skyberg" />
		<tag k="place" v="farm" />
		<tag k="ssr:stedsnr" v="919767" />
	</node>
	<node lat="61.36279444025451" lon="10.258977778471767" id="-43144">
		<tag k="name" v="Bekken" />
		<tag k="place" v="isolated_dwelling" />
		<tag k="ssr:stedsnr" v="828268" />
	</node>
	<node lat="61.307977774841625" lon="10.306449999855122" id="-43146">
		<tag k="name" v="Tautrom" />
		<tag k="place" v="farm" />
		<tag k="ssr:stedsnr" v="828370" />
	</node>
	<node lat="61.26805238377183" lon="10.387606687910028" id="-43149">
		<tag k="fixme" v="consider place=hamlet" />
		<tag k="name" v="Nymoen" />
		<tag k="place" v="farm" />
		<tag k="ssr:stedsnr" v="828407" />
	</node>
	<node lat="61.29071388985781" lon="10.389416668114889" id="-43150">
		<tag k="name" v="Nylund" />
		<tag k="place" v="farm" />
		<tag k="ssr:stedsnr" v="828487" />
	</node>
	<node lat="61.2794611143327" lon="10.36324722379916" id="-43157">
		<tag k="name" v="Tolstad" />
		<tag k="place" v="farm" />
		<tag k="ssr:stedsnr" v="830591" />
	</node>
	<node lat="61.21164722499874" lon="10.45588889707148" id="-43158">
		<tag k="name" v="Asplund" />
		<tag k="place" v="farm" />
		<tag k="ssr:stedsnr" v="830623" />
	</node>
	<node lat="61.23938611030452" lon="10.462499996657762" id="-43159">
		<tag k="building" v="industrial" />
		<tag k="name" v="Lilletorvet" />
		<tag k="ssr:stedsnr" v="830816" />
	</node>
	<node lat="61.24513333019281" lon="10.452311102165629" id="-43161">
		<tag k="name" v="Lillenermo" />
		<tag k="place" v="farm" />
		<tag k="ssr:stedsnr" v="830824" />
	</node>
	<node lat="61.35868055416345" lon="10.20231388751098" id="-43164">
		<tag k="name" v="Roåker" />
		<tag k="place" v="hamlet" />
		<tag k="ssr:stedsnr" v="847850" />
	</node>
	<node lat="61.37043333073855" lon="10.308436110122656" id="-43167">
		<tag k="name" v="Bakkesvea" />
		<tag k="place" v="farm" />
		<tag k="ssr:stedsnr" v="857976" />
	</node>
	<node lat="61.36936111338361" lon="10.291086116550822" id="-43168">
		<tag k="alt_name" v="Mågåli, nordre;Nord-Mågåli" />
		<tag k="name" v="Nordre Mågåli" />
		<tag k="place" v="farm" />
		<tag k="ssr:stedsnr" v="857993" />
	</node>
	<node lat="61.363255554442176" lon="10.37603889499058" id="-43171">
		<tag k="historic" v="shieling" />
		<tag k="name" v="Strandesætra" />
		<tag k="place" v="isolated_dwelling" />
		<tag k="ssr:stedsnr" v="858319" />
	</node>
	<node lat="61.24921388545239" lon="10.469958894102875" id="-43177">
		<tag k="fixme" v="consider place=hamlet" />
		<tag k="name" v="Haugen" />
		<tag k="place" v="farm" />
		<tag k="ssr:stedsnr" v="858488" />
	</node>
	<node lat="61.25826150737689" lon="10.415557500966633" id="-43178">
		<tag k="alt_name" v="Sundgard" />
		<tag k="fixme" v="consider place=hamlet" />
		<tag k="name" v="Sundgarden" />
		<tag k="place" v="farm" />
		<tag k="ssr:stedsnr" v="858493" />
	</node>
	<node lat="61.30885960817345" lon="10.326720751315772" id="-43179">
		<tag k="alt_name" v="Søre Strangstad" />
		<tag k="name" v="Strangstad" />
		<tag k="place" v="farm" />
		<tag k="ssr:stedsnr" v="858825" />
	</node>
	<node lat="61.31321388812595" lon="10.267430560321195" id="-43180">
		<tag k="name" v="Storsvea" />
		<tag k="place" v="farm" />
		<tag k="ssr:stedsnr" v="858829" />
	</node>
	<node lat="61.28058333472883" lon="10.2725499967136" id="-43181">
		<tag k="name" v="Bjørnhaug" />
		<tag k="place" v="farm" />
		<tag k="ssr:stedsnr" v="858877" />
	</node>
	<node lat="61.27446388901071" lon="10.281480563557025" id="-43182">
		<tag k="name" v="Høybakken" />
		<tag k="place" v="isolated_dwelling" />
		<tag k="ssr:stedsnr" v="858878" />
	</node>
	<node lat="61.295718765445365" lon="10.274325311786228" id="-43183">
		<tag k="alt_name" v="Søre Hovde" />
		<tag k="fixme" v="consider place=hamlet" />
		<tag k="name" v="Hovde" />
		<tag k="place" v="farm" />
		<tag k="ssr:stedsnr" v="858785" />
	</node>
	<node lat="61.297440654029465" lon="10.266989665676107" id="-43184">
		<tag k="fixme" v="consider place=hamlet" />
		<tag k="name" v="Musdalen" />
		<tag k="place" v="village" />
		<tag k="ssr:stedsnr" v="858786" />
	</node>
	<node lat="61.27882753645796" lon="10.274896864965303" id="-43193">
		<tag k="fixme" v="consider place=hamlet" />
		<tag k="name" v="Bakken" />
		<tag k="place" v="farm" />
		<tag k="ssr:stedsnr" v="891422" />
	</node>
	<node lat="61.20875555137788" lon="10.445052783028496" id="-43194">
		<tag k="name" v="Skogen" />
		<tag k="place" v="farm" />
		<tag k="ssr:stedsnr" v="891570" />
	</node>
	<node lat="61.271591663256444" lon="10.341008328000234" id="-43197">
		<tag k="name" v="Gurisvea" />
		<tag k="place" v="farm" />
		<tag k="ssr:stedsnr" v="904010" />
	</node>
	<node lat="61.24098566667871" lon="10.457909608520328" id="-43200">
		<tag k="name" v="Mo" />
		<tag k="place" v="hamlet" />
		<tag k="ssr:stedsnr" v="918153" />
	</node>
	<node lat="61.28358896672257" lon="10.407897205730178" id="-43206">
		<tag k="name" v="Skåe" />
		<tag k="place" v="hamlet" />
		<tag k="ssr:stedsnr" v="918310" />
	</node>
	<node lat="61.284847218828524" lon="10.46403610580085" id="-43207">
		<tag k="historic" v="shieling" />
		<tag k="name" v="Vedemsætra" />
		<tag k="old_name" v="Vedemsætrene" />
		<tag k="place" v="isolated_dwelling" />
		<tag k="ssr:stedsnr" v="918312" />
	</node>
	<node lat="61.29109999644806" lon="10.348561108709387" id="-43208">
		<tag k="alt_name" v="Nordhagen" />
		<tag k="name" v="Nordhågån" />
		<tag k="place" v="farm" />
		<tag k="ssr:stedsnr" v="918319" />
	</node>
	<node lat="61.27926388953633" lon="10.281974999029487" id="-43209">
		<tag k="name" v="Sletta" />
		<tag k="place" v="farm" />
		<tag k="ssr:stedsnr" v="918898" />
	</node>
	<node lat="61.30012778228298" lon="10.320666667747906" id="-43218">
		<tag k="name" v="Stalsbjørsvea" />
		<tag k="place" v="farm" />
		<tag k="ssr:stedsnr" v="949297" />
	</node>
	<node lat="61.28599722550127" lon="10.40982500812173" id="-43219">
		<tag k="name" v="Teige" />
		<tag k="place" v="farm" />
		<tag k="ssr:stedsnr" v="949432" />
	</node>
	<node lat="61.22860277493239" lon="10.471369452964705" id="-43224">
		<tag k="name" v="Høgset" />
		<tag k="place" v="farm" />
		<tag k="ssr:stedsnr" v="951135" />
	</node>
	<node lat="61.255433328984694" lon="10.44795832810226" id="-43225">
		<tag k="name" v="Trodalen" />
		<tag k="place" v="farm" />
		<tag k="ssr:stedsnr" v="951204" />
	</node>
	<node lat="61.365999998491894" lon="10.310852771310643" id="-43226">
		<tag k="name" v="Brenna" />
		<tag k="place" v="farm" />
		<tag k="ssr:stedsnr" v="951307" />
	</node>
	<node lat="61.27963610971647" lon="10.280738892412849" id="-43230">
		<tag k="name" v="Svea" />
		<tag k="place" v="farm" />
		<tag k="ssr:stedsnr" v="951406" />
	</node>
	<node lat="61.19384722198332" lon="10.415566658198125" id="-43234">
		<tag k="name" v="Teinlagsvea" />
		<tag k="place" v="farm" />
		<tag k="ssr:stedsnr" v="957591" />
	</node>
	<node lat="61.212972701389624" lon="10.475329612403543" id="-43237">
		<tag k="name" v="Bomhytta" />
		<tag k="place" v="isolated_dwelling" />
		<tag k="ssr:stedsnr" v="974682" />
	</node>
	<node lat="61.22202805634027" lon="10.525100824473833" id="-43238">
		<tag k="name" v="Ilsetra" />
		<tag k="ssr:stedsnr" v="988932" />
		<tag k="tourism" v="hotel" />
	</node>
	<node lat="61.21664324900677" lon="10.451279060884419" id="-43239">
		<tag k="fixme" v="consider place=hamlet" />
		<tag k="name" v="Hunder" />
		<tag k="place" v="farm" />
		<tag k="ssr:stedsnr" v="7185" />
	</node>
	<node lat="61.20647222477092" lon="10.518433326754467" id="-43241">
		<tag k="historic" v="shieling" />
		<tag k="name" v="Slåsætra" />
		<tag k="place" v="isolated_dwelling" />
		<tag k="ssr:stedsnr" v="7916" />
	</node>
	<node lat="61.2460555553439" lon="10.425425001660976" id="-43242">
		<tag k="name" v="Rybakken" />
		<tag k="place" v="farm" />
		<tag k="ssr:stedsnr" v="8141" />
	</node>
	<node lat="61.33294743041412" lon="10.414946914697362" id="-43243">
		<tag k="historic" v="shieling" />
		<tag k="name" v="Holmsætra" />
		<tag k="place" v="isolated_dwelling" />
		<tag k="ssr:stedsnr" v="8326" />
	</node>
	<node lat="61.402813891499285" lon="10.520558341843644" id="-43244">
		<tag k="alt_name" v="Flåtåmo-slæen" />
		<tag k="historic" v="shieling" />
		<tag k="name" v="Flåtåmoslæen" />
		<tag k="place" v="isolated_dwelling" />
		<tag k="ssr:stedsnr" v="8338" />
	</node>
	<node lat="61.305836114452006" lon="10.76910277341835" id="-43246">
		<tag k="name" v="Perbua" />
		<tag k="place" v="isolated_dwelling" />
		<tag k="ssr:stedsnr" v="8423" />
	</node>
	<node lat="61.279226045720016" lon="10.405990266689658" id="-43248">
		<tag k="fixme" v="consider place=hamlet" />
		<tag k="name" v="Bø" />
		<tag k="place" v="farm" />
		<tag k="ssr:stedsnr" v="8521" />
	</node>
	<node lat="61.31631111177289" lon="10.270319445920236" id="-43249">
		<tag k="name" v="Langsvea" />
		<tag k="place" v="farm" />
		<tag k="ssr:stedsnr" v="8825" />
	</node>
	<node lat="61.27709017429814" lon="10.287235652042417" id="-43251">
		<tag k="fixme" v="consider place=hamlet" />
		<tag k="name" v="Linlykkja" />
		<tag k="old_name" v="Lilykkja" />
		<tag k="place" v="farm" />
		<tag k="ssr:stedsnr" v="8876" />
	</node>
	<node lat="61.276308197847776" lon="10.316346049134854" id="-43252">
		<tag k="alt_name" v="Søre Skarmoen" />
		<tag k="fixme" v="consider place=hamlet" />
		<tag k="name" v="Skardsmoen" />
		<tag k="place" v="farm" />
		<tag k="ssr:stedsnr" v="8880" />
	</node>
	<node lat="61.35827777881359" lon="10.295155550637105" id="-43253">
		<tag k="name" v="Engejordet" />
		<tag k="place" v="farm" />
		<tag k="ssr:stedsnr" v="8972" />
	</node>
	<node lat="61.257650000627535" lon="10.785580564406402" id="-43254">
		<tag k="name" v="Hynna" />
		<tag k="place" v="hamlet" />
		<tag k="ssr:stedsnr" v="9359" />
	</node>
	<node lat="61.28451944248717" lon="10.256794449560976" id="-43255">
		<tag k="name" v="Hågån" />
		<tag k="place" v="farm" />
		<tag k="ssr:stedsnr" v="9752" />
	</node>
	<node lat="61.30166666892006" lon="10.304600005364993" id="-43256">
		<tag k="name" v="Nygard" />
		<tag k="place" v="farm" />
		<tag k="ssr:stedsnr" v="9762" />
	</node>
	<node lat="61.34017500304895" lon="10.295266673262638" id="-43257">
		<tag k="name" v="Kleiva" />
		<tag k="place" v="isolated_dwelling" />
		<tag k="ssr:stedsnr" v="39181" />
	</node>
	<node lat="61.27360277575366" lon="10.418838880685069" id="-43258">
		<tag k="name" v="Klukkerhågån" />
		<tag k="place" v="farm" />
		<tag k="ssr:stedsnr" v="39365" />
	</node>
	<node lat="61.26047499835385" lon="10.411049997441102" id="-43259">
		<tag k="name" v="Strømsjordet" />
		<tag k="place" v="farm" />
		<tag k="ssr:stedsnr" v="39382" />
	</node>
	<node lat="61.25516111083071" lon="10.411725006865902" id="-43260">
		<tag k="name" v="Sletthaugen" />
		<tag k="place" v="farm" />
		<tag k="ssr:stedsnr" v="39385" />
	</node>
	<node lat="61.27038221849724" lon="10.44029634462522" id="-43261">
		<tag k="name" v="Vedemsdalen" />
		<tag k="place" v="farm" />
		<tag k="ssr:stedsnr" v="39022" />
	</node>
	<node lat="61.286844445833" lon="10.4078499960402" id="-43267">
		<tag k="name" v="Høglia" />
		<tag k="place" v="farm" />
		<tag k="ssr:stedsnr" v="39448" />
	</node>
	<node lat="61.23524999768807" lon="10.443586120240269" id="-43273">
		<tag k="amenity" v="school" />
		<tag k="name" v="Øyer ungdomsskole" />
		<tag k="ssr:stedsnr" v="41153" />
	</node>
	<node lat="61.266255551944596" lon="10.457127775973255" id="-43275">
		<tag k="name" v="Snurubakken" />
		<tag k="place" v="locality" />
		<tag k="ssr:stedsnr" v="41255" />
	</node>
	<node lat="61.24684999618038" lon="10.450036114438346" id="-43278">
		<tag k="name" v="Enge" />
		<tag k="place" v="farm" />
		<tag k="ssr:stedsnr" v="68123" />
	</node>
	<node lat="61.24243583365644" lon="10.420621055110992" id="-43279">
		<tag k="fixme" v="consider place=hamlet" />
		<tag k="name" v="Vika" />
		<tag k="place" v="farm" />
		<tag k="ssr:stedsnr" v="68142" />
	</node>
	<node lat="61.373100003527746" lon="10.298033335287561" id="-43281">
		<tag k="name" v="Nordjordet" />
		<tag k="place" v="farm" />
		<tag k="ssr:stedsnr" v="69000" />
	</node>
	<node lat="61.28707499682384" lon="10.359472222164321" id="-43283">
		<tag k="name" v="Hasli" />
		<tag k="place" v="farm" />
		<tag k="ssr:stedsnr" v="69255" />
	</node>
	<node lat="61.288313073043284" lon="10.350632274774517" id="-43284">
		<tag k="fixme" v="consider place=hamlet" />
		<tag k="name" v="Kvam" />
		<tag k="place" v="farm" />
		<tag k="ssr:stedsnr" v="69256" />
	</node>
	<node lat="61.39586666301214" lon="10.46971666183622" id="-43286">
		<tag k="alt_name" v="Raubergsletta" />
		<tag k="historic" v="shieling" />
		<tag k="name" v="Raudbergsletta" />
		<tag k="place" v="isolated_dwelling" />
		<tag k="ssr:stedsnr" v="69343" />
	</node>
	<node lat="61.43426435555195" lon="10.656220774996024" id="-43289">
		<tag k="alt_name" v="Hallandshytta;Halandshytta" />
		<tag k="fixme" v="consider tourism=alpine_hut or tourism=chalet" />
		<tag k="name" v="Harlandshytta" />
		<tag k="ssr:stedsnr" v="69364" />
		<tag k="tourism" v="wilderness_hut" />
	</node>
	<node lat="61.323605558494314" lon="10.30887500687465" id="-43291">
		<tag k="name" v="Tutrud" />
		<tag k="place" v="farm" />
		<tag k="ssr:stedsnr" v="69948" />
	</node>
	<node lat="61.32450277883588" lon="10.326549998281015" id="-43292">
		<tag k="name" v="Åa" />
		<tag k="place" v="farm" />
		<tag k="ssr:stedsnr" v="69951" />
	</node>
	<node lat="61.344241670920745" lon="10.311250002474575" id="-43293">
		<tag k="alt_name" v="Klevahaugen" />
		<tag k="name" v="Klevhaugen" />
		<tag k="place" v="farm" />
		<tag k="ssr:stedsnr" v="69961" />
	</node>
	<node lat="61.35305548028262" lon="10.289268541168614" id="-43294">
		<tag k="fixme" v="consider place=hamlet" />
		<tag k="name" v="Flåtåmo" />
		<tag k="place" v="farm" />
		<tag k="ssr:stedsnr" v="69968" />
	</node>
	<node lat="61.359819526251556" lon="10.25887306080905" id="-43296">
		<tag k="fixme" v="consider place=hamlet" />
		<tag k="name" v="Sprekkenhus" />
		<tag k="place" v="farm" />
		<tag k="ssr:stedsnr" v="69986" />
	</node>
	<node lat="61.25706388794317" lon="10.403122223242953" id="-43302">
		<tag k="name" v="Nordre Slettjordet" />
		<tag k="place" v="farm" />
		<tag k="ssr:stedsnr" v="99457" />
	</node>
	<node lat="61.33244722090953" lon="10.326772227817438" id="-43305">
		<tag k="name" v="Tandhågån" />
		<tag k="place" v="farm" />
		<tag k="ssr:stedsnr" v="100287" />
	</node>
	<node lat="61.275363892615566" lon="10.394408327187096" id="-43308">
		<tag k="amenity" v="school" />
		<tag k="name" v="Vidarheim" />
		<tag k="ssr:stedsnr" v="100478" />
	</node>
	<node lat="61.31731666420213" lon="10.316608333418232" id="-43309">
		<tag k="name" v="Gråv" />
		<tag k="place" v="farm" />
		<tag k="ssr:stedsnr" v="100347" />
	</node>
	<node lat="61.258291668739716" lon="10.398963893607487" id="-43310">
		<tag k="name" v="Bortmillom" />
		<tag k="place" v="farm" />
		<tag k="ssr:stedsnr" v="100441" />
	</node>
	<node lat="61.35191111492104" lon="10.30564444341274" id="-43311">
		<tag k="name" v="Systugun Johnsgard" />
		<tag k="place" v="farm" />
		<tag k="ssr:stedsnr" v="100801" />
	</node>
	<node lat="61.2530833328992" lon="10.417186102128253" id="-43313">
		<tag k="name" v="Dokka" />
		<tag k="place" v="locality" />
		<tag k="ssr:stedsnr" v="102177" />
	</node>
	<node lat="61.31984444183395" lon="10.670524998486368" id="-43314">
		<tag k="name" v="Hovsmyrbakkbua" />
		<tag k="place" v="locality" />
		<tag k="ssr:stedsnr" v="102186" />
	</node>
	<node lat="61.232533328931765" lon="10.449216665809107" id="-43316">
		<tag k="name" v="Myromstugua" />
		<tag k="place" v="farm" />
		<tag k="ssr:stedsnr" v="102157" />
	</node>
	<node lat="61.25508055675537" lon="10.464161113400053" id="-43318">
		<tag k="name" v="Riseng" />
		<tag k="place" v="farm" />
		<tag k="ssr:stedsnr" v="102247" />
	</node>
	<node lat="61.2844805586188" lon="10.30375555229853" id="-43320">
		<tag k="name" v="Brentnes" />
		<tag k="place" v="locality" />
		<tag k="ssr:stedsnr" v="102562" />
	</node>
	<node lat="61.333433331819386" lon="10.291363884016162" id="-43323">
		<tag k="name" v="Haugland" />
		<tag k="place" v="farm" />
		<tag k="ssr:stedsnr" v="102935" />
	</node>
	<node lat="61.307605556636545" lon="10.247877774859052" id="-43325">
		<tag k="name" v="Elstadlykkja" />
		<tag k="place" v="farm" />
		<tag k="ssr:stedsnr" v="118575" />
	</node>
	<node lat="61.25465833053533" lon="10.718219452617548" id="-43330">
		<tag k="name" v="Hornsjø høyfjellshotell" />
		<tag k="ssr:stedsnr" v="130337" />
		<tag k="tourism" v="hotel" />
	</node>
	<node lat="61.19793055789489" lon="10.426933330834226" id="-43332">
		<tag k="alt_name" v="Ensbybrenna" />
		<tag k="name" v="Einsbybrenna" />
		<tag k="place" v="farm" />
		<tag k="ssr:stedsnr" v="128917" />
	</node>
	<node lat="61.242458354313214" lon="10.446593970206465" id="-43334">
		<tag k="fixme" v="consider place=hamlet" />
		<tag k="name" v="Slettmoen" />
		<tag k="place" v="farm" />
		<tag k="ssr:stedsnr" v="129164" />
	</node>
	<node lat="61.225847221291076" lon="10.48615833109469" id="-43338">
		<tag k="historic" v="shieling" />
		<tag k="name" v="Nestingsætra" />
		<tag k="place" v="isolated_dwelling" />
		<tag k="ssr:stedsnr" v="129176" />
	</node>
	<node lat="61.23384722067695" lon="10.479811117853634" id="-43339">
		<tag k="historic" v="shieling" />
		<tag k="name" v="Kaldholsætra" />
		<tag k="place" v="isolated_dwelling" />
		<tag k="ssr:stedsnr" v="129177" />
	</node>
	<node lat="61.22149440467376" lon="10.447586609845974" id="-43340">
		<tag k="alt_name" v="Fossegarden" />
		<tag k="fixme" v="consider place=hamlet" />
		<tag k="name" v="Fossøygarden" />
		<tag k="place" v="farm" />
		<tag k="ssr:stedsnr" v="129184" />
	</node>
	<node lat="61.224807631837095" lon="10.466725352793656" id="-43341">
		<tag k="fixme" v="consider place=hamlet" />
		<tag k="name" v="Bjørge" />
		<tag k="place" v="farm" />
		<tag k="ssr:stedsnr" v="129190" />
	</node>
	<node lat="61.28350733605637" lon="10.390265479889212" id="-43342">
		<tag k="name" v="Lånke" />
		<tag k="place" v="hamlet" />
		<tag k="ssr:stedsnr" v="129274" />
	</node>
	<node lat="61.269330558499945" lon="10.370361115882698" id="-43343">
		<tag k="name" v="Kampen" />
		<tag k="place" v="farm" />
		<tag k="ssr:stedsnr" v="129486" />
	</node>
	<node lat="61.25337548696487" lon="10.409753165299684" id="-43344">
		<tag k="fixme" v="consider place=hamlet" />
		<tag k="name" v="Svea" />
		<tag k="place" v="farm" />
		<tag k="ssr:stedsnr" v="129469" />
	</node>
	<node lat="61.27637325868104" lon="10.42211180631834" id="-43346">
		<tag k="fixme" v="consider place=hamlet" />
		<tag k="name" v="Kruke" />
		<tag k="place" v="farm" />
		<tag k="ssr:stedsnr" v="129496" />
	</node>
	<node lat="61.35918889190394" lon="10.296633340810324" id="-43349">
		<tag k="name" v="Engelund" />
		<tag k="place" v="isolated_dwelling" />
		<tag k="ssr:stedsnr" v="160180" />
	</node>
	<node lat="61.314755556420764" lon="10.30659999458564" id="-43355">
		<tag k="amenity" v="school" />
		<tag k="name" v="Aurvoll skole" />
		<tag k="ssr:stedsnr" v="160338" />
	</node>
	<node lat="61.27484166899515" lon="10.3911027765343" id="-43358">
		<tag k="name" v="Odden" />
		<tag k="ssr:stedsnr" v="160375" />
		<tag k="tourism" v="camp_site" />
	</node>
	<node lat="61.343213886396846" lon="10.30505834244592" id="-43365">
		<tag k="name" v="Sustad" />
		<tag k="place" v="farm" />
		<tag k="ssr:stedsnr" v="160861" />
	</node>
	<node lat="61.345522221670464" lon="10.266341662327356" id="-43375">
		<tag k="name" v="Øvre Øygarden" />
		<tag k="place" v="farm" />
		<tag k="ssr:stedsnr" v="180301" />
	</node>
	<node lat="61.21235277589285" lon="10.468897218279519" id="-43380">
		<tag k="name" v="Rønningen" />
		<tag k="place" v="farm" />
		<tag k="ssr:stedsnr" v="189162" />
	</node>
	<node lat="61.32777155684572" lon="10.31919233933466" id="-43381">
		<tag k="alt_name" v="Tårstad" />
		<tag k="fixme" v="consider place=hamlet" />
		<tag k="name" v="Torstad" />
		<tag k="place" v="farm" />
		<tag k="ssr:stedsnr" v="189947" />
	</node>
	<node lat="61.20584166870346" lon="10.428669448336787" id="-43382">
		<tag k="name" v="Berg" />
		<tag k="place" v="farm" />
		<tag k="ssr:stedsnr" v="189901" />
	</node>
	<node lat="61.22804321818711" lon="10.455305328077557" id="-43385">
		<tag k="fixme" v="consider place=hamlet" />
		<tag k="name" v="Grimsrud" />
		<tag k="place" v="farm" />
		<tag k="ssr:stedsnr" v="190157" />
	</node>
	<node lat="61.400463889574766" lon="10.640966671465563" id="-43386">
		<tag k="historic" v="shieling" />
		<tag k="name" v="Jogrimslia" />
		<tag k="place" v="isolated_dwelling" />
		<tag k="ssr:stedsnr" v="190327" />
	</node>
	<node lat="61.29616110991595" lon="10.612311115186603" id="-43389">
		<tag k="historic" v="shieling" />
		<tag k="name" v="Gullbringen" />
		<tag k="old_name" v="Gullbringa;Guldbringen" />
		<tag k="place" v="isolated_dwelling" />
		<tag k="ssr:stedsnr" v="190291" />
	</node>
	<node lat="61.403641668138455" lon="10.60653610721648" id="-43390">
		<tag k="alt_name" v="Tautern" />
		<tag k="historic" v="shieling" />
		<tag k="name" v="Tauteren" />
		<tag k="place" v="isolated_dwelling" />
		<tag k="ssr:stedsnr" v="190348" />
	</node>
	<node lat="61.36678333633259" lon="10.255491675128642" id="-43393">
		<tag k="alt_name" v="Kapelrud" />
		<tag k="name" v="Kappelrud" />
		<tag k="place" v="farm" />
		<tag k="ssr:stedsnr" v="190982" />
	</node>
	<node lat="61.37173333301367" lon="10.302186106343886" id="-43395">
		<tag k="name" v="Bakkestugua" />
		<tag k="place" v="farm" />
		<tag k="ssr:stedsnr" v="190999" />
	</node>
	<node lat="61.34313332987749" lon="10.295819447867764" id="-43396">
		<tag k="alt_name" v="Børkjestugua" />
		<tag k="name" v="Børkestugua" />
		<tag k="place" v="farm" />
		<tag k="ssr:stedsnr" v="190954" />
	</node>
	<node lat="61.276568507807625" lon="10.279101975244211" id="-43397">
		<tag k="fixme" v="consider place=hamlet" />
		<tag k="name" v="Rugsvea" />
		<tag k="place" v="farm" />
		<tag k="ssr:stedsnr" v="191833" />
	</node>
	<node lat="61.25262777735105" lon="10.449322226383469" id="-43398">
		<tag k="name" v="Sørheim" />
		<tag k="place" v="farm" />
		<tag k="ssr:stedsnr" v="208773" />
	</node>
	<node lat="61.29996666644593" lon="10.353497226484135" id="-43404">
		<tag k="historic" v="shieling" />
		<tag k="name" v="Kvamsætra" />
		<tag k="place" v="isolated_dwelling" />
		<tag k="ssr:stedsnr" v="221309" />
	</node>
	<node lat="61.30113610695291" lon="10.342400001578152" id="-43405">
		<tag k="name" v="Veslestulen" />
		<tag k="place" v="locality" />
		<tag k="ssr:stedsnr" v="221311" />
	</node>
	<node lat="61.28504722610594" lon="10.411369449099938" id="-43408">
		<tag k="name" v="Oppheim" />
		<tag k="place" v="farm" />
		<tag k="ssr:stedsnr" v="221463" />
	</node>
	<node lat="61.29749166417281" lon="10.44881388882497" id="-43410">
		<tag k="name" v="Bårdstulen" />
		<tag k="place" v="locality" />
		<tag k="ssr:stedsnr" v="221761" />
	</node>
	<node lat="61.2558916670533" lon="10.464702779302778" id="-43416">
		<tag k="name" v="Solberg" />
		<tag k="place" v="farm" />
		<tag k="ssr:stedsnr" v="223213" />
	</node>
	<node lat="61.22148889005064" lon="10.46515278639102" id="-43420">
		<tag k="name" v="Liom" />
		<tag k="place" v="farm" />
		<tag k="ssr:stedsnr" v="223134" />
	</node>
	<node lat="61.233466667081494" lon="10.44577500234178" id="-43421">
		<tag k="name" v="Myrvoll" />
		<tag k="place" v="farm" />
		<tag k="ssr:stedsnr" v="223150" />
	</node>
	<node lat="61.358561113666546" lon="10.347347217320824" id="-43425">
		<tag k="name" v="Glømmebrenna" />
		<tag k="place" v="locality" />
		<tag k="ssr:stedsnr" v="282857" />
	</node>
	<node lat="61.30653333594205" lon="10.326797221028736" id="-43426">
		<tag k="name" v="Strangstadstugua" />
		<tag k="place" v="farm" />
		<tag k="ssr:stedsnr" v="282396" />
	</node>
	<node lat="61.31450277442698" lon="10.328852778380377" id="-43427">
		<tag k="name" v="Øverjordet" />
		<tag k="place" v="farm" />
		<tag k="ssr:stedsnr" v="282340" />
	</node>
	<node lat="61.30635833371247" lon="10.320627769019094" id="-43428">
		<tag k="name" v="Monslykkja" />
		<tag k="place" v="farm" />
		<tag k="ssr:stedsnr" v="282352" />
	</node>
	<node lat="61.23744444457893" lon="10.48581110445583" id="-43435">
		<tag k="historic" v="shieling" />
		<tag k="name" v="Jaersætra" />
		<tag k="place" v="isolated_dwelling" />
		<tag k="ssr:stedsnr" v="282644" />
	</node>
	<node lat="61.22223888486153" lon="10.461350002763538" id="-43440">
		<tag k="name" v="Ilhågån" />
		<tag k="place" v="farm" />
		<tag k="ssr:stedsnr" v="283646" />
	</node>
	<node lat="61.27462222325153" lon="10.296222226320424" id="-43448">
		<tag k="name" v="Linlykkjejordet" />
		<tag k="place" v="isolated_dwelling" />
		<tag k="ssr:stedsnr" v="297399" />
	</node>
	<node lat="61.27226111163401" lon="10.327608337815736" id="-43449">
		<tag k="name" v="Sæter" />
		<tag k="place" v="farm" />
		<tag k="ssr:stedsnr" v="297049" />
	</node>
	<node lat="61.24414444128985" lon="10.471572225912064" id="-43454">
		<tag k="name" v="Svegarden" />
		<tag k="place" v="farm" />
		<tag k="ssr:stedsnr" v="311162" />
	</node>
	<node lat="61.289175002573" lon="10.36402221887489" id="-43456">
		<tag k="name" v="Bergaust" />
		<tag k="place" v="farm" />
		<tag k="ssr:stedsnr" v="311340" />
	</node>
	<node lat="61.366319716243495" lon="10.251570350032868" id="-43458">
		<tag k="fixme" v="consider place=hamlet" />
		<tag k="name" v="Romundgard" />
		<tag k="place" v="farm" />
		<tag k="ssr:stedsnr" v="311994" />
	</node>
	<node lat="61.31397221965195" lon="10.26133333462009" id="-43459">
		<tag k="name" v="Hanssvea" />
		<tag k="place" v="farm" />
		<tag k="ssr:stedsnr" v="311837" />
	</node>
	<node lat="61.31219003505722" lon="10.311204272476987" id="-43460">
		<tag k="alt_name" v="Melum" />
		<tag k="fixme" v="consider place=hamlet" />
		<tag k="name" v="Mælum" />
		<tag k="place" v="farm" />
		<tag k="ssr:stedsnr" v="311840" />
	</node>
	<node lat="61.320917953179645" lon="10.318474840716036" id="-43461">
		<tag k="fixme" v="consider place=hamlet" />
		<tag k="name" v="Fossum" />
		<tag k="place" v="farm" />
		<tag k="ssr:stedsnr" v="311962" />
	</node>
	<node lat="61.33037796038651" lon="10.322289855172798" id="-43462">
		<tag k="fixme" v="consider place=hamlet" />
		<tag k="name" v="Hjelmstad" />
		<tag k="place" v="farm" />
		<tag k="ssr:stedsnr" v="311963" />
	</node>
	<node lat="61.27692222545172" lon="10.720294438019774" id="-43465">
		<tag k="alt_name" v="Pålsmyrbua" />
		<tag k="name" v="Pålsbakkhytta" />
		<tag k="place" v="isolated_dwelling" />
		<tag k="ssr:stedsnr" v="312361" />
	</node>
	<node lat="61.31438333302975" lon="10.300572213380283" id="-43466">
		<tag k="name" v="Tretten" />
		<tag k="place" v="village" />
		<tag k="ssr:stedsnr" v="329083" />
	</node>
	<node lat="61.27645277762115" lon="10.417624997602328" id="-43468">
		<tag k="name" v="Bjørkli" />
		<tag k="place" v="farm" />
		<tag k="ssr:stedsnr" v="342439" />
	</node>
	<node lat="61.23417222364819" lon="10.445436120080664" id="-43473">
		<tag k="name" v="Solvang" />
		<tag k="ssr:stedsnr" v="344140" />
		<tag k="tourism" v="hotel" />
	</node>
	<node lat="61.36473888903084" lon="10.376888898096418" id="-43477">
		<tag k="name" v="Vangakvea" />
		<tag k="place" v="locality" />
		<tag k="ssr:stedsnr" v="344068" />
	</node>
	<node lat="61.293549999753175" lon="10.286719435500894" id="-43482">
		<tag k="name" v="Kampen" />
		<tag k="place" v="isolated_dwelling" />
		<tag k="ssr:stedsnr" v="344430" />
	</node>
	<node lat="61.324011107527134" lon="10.273638892877921" id="-43487">
		<tag k="name" v="Sætasvea" />
		<tag k="place" v="locality" />
		<tag k="ssr:stedsnr" v="344933" />
	</node>
	<node lat="61.273011109971" lon="10.338308340662271" id="-43492">
		<tag k="name" v="Svea" />
		<tag k="place" v="farm" />
		<tag k="ssr:stedsnr" v="358032" />
	</node>
	<node lat="61.243350001029086" lon="10.4678472207839" id="-43498">
		<tag k="name" v="Lyseng" />
		<tag k="place" v="farm" />
		<tag k="ssr:stedsnr" v="371131" />
	</node>
	<node lat="61.237054039843855" lon="10.46247784678606" id="-43499">
		<tag k="alt_name" v="Jaer" />
		<tag k="fixme" v="consider place=hamlet" />
		<tag k="name" v="Jar" />
		<tag k="place" v="farm" />
		<tag k="ssr:stedsnr" v="371145" />
	</node>
	<node lat="61.283177778659486" lon="10.417516661079361" id="-43501">
		<tag k="alt_name" v="Lundstad" />
		<tag k="name" v="Bøshaugen" />
		<tag k="place" v="farm" />
		<tag k="ssr:stedsnr" v="372282" />
	</node>
	<node lat="61.205603260915574" lon="10.46018424643093" id="-43503">
		<tag k="alt_name" v="Bagstad" />
		<tag k="fixme" v="consider place=hamlet" />
		<tag k="name" v="Bakstad" />
		<tag k="place" v="farm" />
		<tag k="ssr:stedsnr" v="371923" />
	</node>
	<node lat="61.34112691338942" lon="10.3130407321389" id="-43504">
		<tag k="fixme" v="consider place=hamlet" />
		<tag k="name" v="Kleva" />
		<tag k="place" v="farm" />
		<tag k="ssr:stedsnr" v="371952" />
	</node>
	<node lat="61.252472225887" lon="10.44870000335418" id="-43512">
		<tag k="name" v="Bakken" />
		<tag k="place" v="farm" />
		<tag k="ssr:stedsnr" v="372491" />
	</node>
	<node lat="61.251636111206885" lon="10.43703054702333" id="-43513">
		<tag k="name" v="Langvik" />
		<tag k="place" v="farm" />
		<tag k="ssr:stedsnr" v="372494" />
	</node>
	<node lat="61.25769000714723" lon="10.487700616113747" id="-43518">
		<tag k="name" v="Bottrudlyua" />
		<tag k="place" v="locality" />
		<tag k="ssr:stedsnr" v="403844" />
	</node>
	<node lat="61.33267222316326" lon="10.32096944992128" id="-43521">
		<tag k="name" v="Øverbu" />
		<tag k="place" v="isolated_dwelling" />
		<tag k="ssr:stedsnr" v="403289" />
	</node>
	<node lat="61.318144441136944" lon="10.304350004481465" id="-43522">
		<tag k="name" v="Stavshaugen" />
		<tag k="place" v="farm" />
		<tag k="ssr:stedsnr" v="403292" />
	</node>
	<node lat="61.33770000049041" lon="10.319183324780436" id="-43523">
		<tag k="name" v="Krukhaugen" />
		<tag k="place" v="farm" />
		<tag k="ssr:stedsnr" v="403294" />
	</node>
	<node lat="61.32448055217702" lon="10.320327786635564" id="-43527">
		<tag k="name" v="Frydenlund" />
		<tag k="place" v="farm" />
		<tag k="ssr:stedsnr" v="403314" />
	</node>
	<node lat="61.2684472185864" lon="10.384180564678784" id="-43528">
		<tag k="name" v="Ringen" />
		<tag k="place" v="farm" />
		<tag k="ssr:stedsnr" v="403415" />
	</node>
	<node lat="61.263860639374926" lon="10.424635377927956" id="-43537">
		<tag k="fixme" v="consider place=hamlet" />
		<tag k="name" v="Øyer prestegard" />
		<tag k="place" v="farm" />
		<tag k="ssr:stedsnr" v="405197" />
	</node>
	<node lat="61.23816667013458" lon="10.442899996682373" id="-43538">
		<tag k="amenity" v="school" />
		<tag k="name" v="Solvang barneskole" />
		<tag k="ssr:stedsnr" v="405137" />
	</node>
	<node lat="61.27909166931689" lon="10.304727786158358" id="-43543">
		<tag k="name" v="Nørdre Skarmoen" />
		<tag k="place" v="locality" />
		<tag k="ssr:stedsnr" v="405477" />
	</node>
	<node lat="61.30311111284182" lon="10.241500003721072" id="-43551">
		<tag k="name" v="Winge" />
		<tag k="place" v="farm" />
		<tag k="ssr:stedsnr" v="422622" />
	</node>
	<node lat="61.22380000333342" lon="10.488705547913604" id="-43555">
		<tag k="historic" v="shieling" />
		<tag k="name" v="Stubberudsætra" />
		<tag k="place" v="isolated_dwelling" />
		<tag k="ssr:stedsnr" v="432161" />
	</node>
	<node lat="61.223863885014225" lon="10.547969437699962" id="-43556">
		<tag k="historic" v="shieling" />
		<tag k="name" v="Hundersætra" />
		<tag k="place" v="isolated_dwelling" />
		<tag k="ssr:stedsnr" v="432162" />
	</node>
	<node lat="61.330808331162515" lon="10.306838888922478" id="-43557">
		<tag k="alt_name" v="Midt-Moen" />
		<tag k="name" v="Midtmoen" />
		<tag k="place" v="farm" />
		<tag k="ssr:stedsnr" v="432938" />
	</node>
	<node lat="61.23030938634311" lon="10.461646050138652" id="-43558">
		<tag k="fixme" v="consider place=hamlet" />
		<tag k="name" v="Nestingen" />
		<tag k="place" v="farm" />
		<tag k="ssr:stedsnr" v="433151" />
	</node>
	<node lat="61.21928611444792" lon="10.46877500285458" id="-43561">
		<tag k="fixme" v="multiple name tags, choose one and add the other to alt_name" />
		<tag k="name" v="Bjørgesætra;Høyby" />
		<tag k="old_name" v="Høiby" />
		<tag k="place" v="farm" />
		<tag k="ssr:stedsnr" v="433166" />
	</node>
	<node lat="61.281616668328944" lon="10.420972230905628" id="-43562">
		<tag k="name" v="Hågålykkja" />
		<tag k="place" v="farm" />
		<tag k="ssr:stedsnr" v="433254" />
	</node>
	<node lat="61.29375833173183" lon="10.720880553372691" id="-43565">
		<tag k="historic" v="shieling" />
		<tag k="name" v="Gardfestsætra" />
		<tag k="place" v="isolated_dwelling" />
		<tag k="ssr:stedsnr" v="433371" />
	</node>
	<node lat="61.25781110867294" lon="10.4634999909287" id="-43566">
		<tag k="name" v="Lykkja" />
		<tag k="place" v="farm" />
		<tag k="ssr:stedsnr" v="433455" />
	</node>
	<node lat="61.25322737166391" lon="10.718501692980889" id="-43568">
		<tag k="historic" v="shieling" />
		<tag k="name" v="Hornsjø" />
		<tag k="place" v="isolated_dwelling" />
		<tag k="ssr:stedsnr" v="433464" />
	</node>
	<node lat="61.27168610835115" lon="10.338794447430143" id="-43569">
		<tag k="alt_name" v="Lønnberg" />
		<tag k="name" v="Lønberg" />
		<tag k="place" v="farm" />
		<tag k="ssr:stedsnr" v="433860" />
	</node>
	<node lat="61.34445067272932" lon="10.292662559255582" id="-43570">
		<tag k="fixme" v="consider place=hamlet" />
		<tag k="name" v="Sandvik" />
		<tag k="place" v="farm" />
		<tag k="ssr:stedsnr" v="433958" />
	</node>
	<node lat="61.35613888954224" lon="10.268605554746223" id="-43572">
		<tag k="name" v="Bottheim" />
		<tag k="place" v="farm" />
		<tag k="ssr:stedsnr" v="433982" />
	</node>
	<node lat="61.344949999176755" lon="10.286994452056623" id="-43579">
		<tag k="name" v="Sandviksberget" />
		<tag k="place" v="farm" />
		<tag k="ssr:stedsnr" v="524194" />
	</node>
	<node lat="61.436891667493065" lon="10.670574999466211" id="-43583">
		<tag k="name" v="Gammellægret" />
		<tag k="place" v="locality" />
		<tag k="ssr:stedsnr" v="524158" />
	</node>
	<node lat="61.35849444204685" lon="10.263555555841387" id="-43584">
		<tag k="name" v="Sprekkenhusmoen" />
		<tag k="place" v="locality" />
		<tag k="ssr:stedsnr" v="524213" />
	</node>
	<node lat="61.310736110198114" lon="10.321988896429842" id="-43586">
		<tag k="name" v="Sletten" />
		<tag k="place" v="farm" />
		<tag k="ssr:stedsnr" v="524331" />
	</node>
	<node lat="61.26633333259262" lon="10.419294444736236" id="-43590">
		<tag k="alt_name" v="Klukkargarden" />
		<tag k="name" v="Klukkergarden" />
		<tag k="place" v="farm" />
		<tag k="ssr:stedsnr" v="524365" />
	</node>
	<node lat="61.27053889031108" lon="10.411055552112796" id="-43591">
		<tag k="name" v="Hemen" />
		<tag k="place" v="locality" />
		<tag k="ssr:stedsnr" v="524367" />
	</node>
	<node lat="61.28246944718736" lon="10.420041660618633" id="-43602">
		<tag k="name" v="Åsheim" />
		<tag k="place" v="farm" />
		<tag k="ssr:stedsnr" v="525548" />
	</node>
	<node lat="61.20103888647086" lon="10.421697214646182" id="-43604">
		<tag k="name" v="Andersstugua" />
		<tag k="place" v="farm" />
		<tag k="ssr:stedsnr" v="526584" />
	</node>
	<node lat="61.23059166809775" lon="10.452686102780744" id="-43608">
		<tag k="name" v="Sørlia" />
		<tag k="place" v="quarter" />
		<tag k="ssr:stedsnr" v="526631" />
	</node>
	<node lat="61.21334444354423" lon="10.456897216224567" id="-43611">
		<tag k="name" v="Svea" />
		<tag k="place" v="farm" />
		<tag k="ssr:stedsnr" v="553165" />
	</node>
	<node lat="61.27462222273358" lon="10.409538885793175" id="-43612">
		<tag k="name" v="Engjom" />
		<tag k="place" v="farm" />
		<tag k="ssr:stedsnr" v="553481" />
	</node>
	<node lat="61.231947226612384" lon="10.46284444457445" id="-43618">
		<tag k="name" v="Solberg" />
		<tag k="place" v="farm" />
		<tag k="ssr:stedsnr" v="554158" />
	</node>
	<node lat="61.23449812148885" lon="10.461948338661033" id="-43619">
		<tag k="fixme" v="consider place=hamlet" />
		<tag k="name" v="Kaldhol" />
		<tag k="place" v="farm" />
		<tag k="ssr:stedsnr" v="554159" />
	</node>
	<node lat="61.30144166870446" lon="10.307411118713798" id="-43620">
		<tag k="name" v="Nordgard" />
		<tag k="place" v="farm" />
		<tag k="ssr:stedsnr" v="554828" />
	</node>
	<node lat="61.30339059835312" lon="10.289073564428087" id="-43621">
		<tag k="fixme" v="consider place=hamlet" />
		<tag k="name" v="Vassrud" />
		<tag k="place" v="farm" />
		<tag k="ssr:stedsnr" v="554831" />
	</node>
	<node lat="61.302847533365295" lon="10.282063246123238" id="-43622">
		<tag k="fixme" v="consider place=hamlet" />
		<tag k="name" v="Aurom" />
		<tag k="place" v="farm" />
		<tag k="ssr:stedsnr" v="554834" />
	</node>
	<node lat="61.342789990000824" lon="10.298865716662204" id="-43623">
		<tag k="alt_name" v="Børke, søre;Sør-Børke" />
		<tag k="fixme" v="consider place=hamlet" />
		<tag k="name" v="Søre Børke" />
		<tag k="place" v="farm" />
		<tag k="ssr:stedsnr" v="554966" />
	</node>
	<node lat="61.33175278065883" lon="10.303647226283395" id="-43628">
		<tag k="name" v="Nørdre Moen" />
		<tag k="place" v="farm" />
		<tag k="ssr:stedsnr" v="585273" />
	</node>
	<node lat="61.33420277545861" lon="10.328827780249883" id="-43629">
		<tag k="name" v="Granheim" />
		<tag k="place" v="farm" />
		<tag k="ssr:stedsnr" v="585283" />
	</node>
	<node lat="61.379630555536515" lon="10.356619439714844" id="-43639">
		<tag k="historic" v="shieling" />
		<tag k="name" v="Bakkestugusætra" />
		<tag k="place" v="isolated_dwelling" />
		<tag k="ssr:stedsnr" v="587329" />
	</node>
	<node lat="61.28985277849213" lon="10.303419444938564" id="-43643">
		<tag k="name" v="Hågålykkja" />
		<tag k="place" v="farm" />
		<tag k="ssr:stedsnr" v="587532" />
	</node>
	<node lat="61.29407222520537" lon="10.305330561098177" id="-43644">
		<tag k="name" v="Stubsvea" />
		<tag k="place" v="locality" />
		<tag k="ssr:stedsnr" v="587535" />
	</node>
	<node lat="61.28500000381366" lon="10.380205561903644" id="-43645">
		<tag k="name" v="Nordlund" />
		<tag k="place" v="farm" />
		<tag k="ssr:stedsnr" v="587627" />
	</node>
	<node lat="61.30554999910895" lon="10.234783324493208" id="-43655">
		<tag k="name" v="Opptun" />
		<tag k="place" v="isolated_dwelling" />
		<tag k="ssr:stedsnr" v="603896" />
	</node>
	<node lat="61.24942700408092" lon="10.449784907352074" id="-43657">
		<tag k="fixme" v="consider place=hamlet" />
		<tag k="name" v="Moen" />
		<tag k="place" v="farm" />
		<tag k="ssr:stedsnr" v="614126" />
	</node>
	<node lat="61.2357160455551" lon="10.425523682923187" id="-43658">
		<tag k="alt_name" v="Klophaugen" />
		<tag k="fixme" v="consider place=hamlet" />
		<tag k="name" v="Klopphaugen" />
		<tag k="place" v="farm" />
		<tag k="ssr:stedsnr" v="614133" />
	</node>
	<node lat="61.28074722256437" lon="10.392163885469007" id="-43660">
		<tag k="name" v="Bakkelund" />
		<tag k="place" v="farm" />
		<tag k="ssr:stedsnr" v="614273" />
	</node>
	<node lat="61.28710833464721" lon="10.444175007169763" id="-43661">
		<tag k="historic" v="shieling" />
		<tag k="name" v="Høvresætra" />
		<tag k="place" v="isolated_dwelling" />
		<tag k="ssr:stedsnr" v="614274" />
	</node>
	<node lat="61.25774722013684" lon="10.449072228614538" id="-43662">
		<tag k="name" v="Nerli" />
		<tag k="place" v="farm" />
		<tag k="ssr:stedsnr" v="614479" />
	</node>
	<node lat="61.260594441179755" lon="10.456699991286296" id="-43663">
		<tag k="name" v="Jordbakken" />
		<tag k="place" v="farm" />
		<tag k="ssr:stedsnr" v="614480" />
	</node>
	<node lat="61.258456674321415" lon="10.455332219932922" id="-43664">
		<tag k="name" v="Li" />
		<tag k="place" v="hamlet" />
		<tag k="ssr:stedsnr" v="614482" />
	</node>
	<node lat="61.2603277754705" lon="10.391466659234027" id="-43666">
		<tag k="name" v="Bjørkheim" />
		<tag k="place" v="farm" />
		<tag k="ssr:stedsnr" v="614491" />
	</node>
	<node lat="61.36845000260004" lon="10.248225004115755" id="-43669">
		<tag k="alt_name" v="Solhjem" />
		<tag k="name" v="Solheim" />
		<tag k="place" v="farm" />
		<tag k="ssr:stedsnr" v="614986" />
	</node>
	<node lat="61.36429435285674" lon="10.30245898867469" id="-43670">
		<tag k="fixme" v="consider place=hamlet" />
		<tag k="name" v="Vedem" />
		<tag k="place" v="farm" />
		<tag k="ssr:stedsnr" v="614990" />
	</node>
	<node lat="61.301248981162715" lon="10.327479848285813" id="-43672">
		<tag k="fixme" v="consider place=hamlet" />
		<tag k="name" v="Kråbøl" />
		<tag k="old_name" v="Kårbøl" />
		<tag k="place" v="farm" />
		<tag k="ssr:stedsnr" v="615767" />
	</node>
	<node lat="61.30488888849361" lon="10.324244445069153" id="-43673">
		<tag k="name" v="Nilsenget" />
		<tag k="place" v="farm" />
		<tag k="ssr:stedsnr" v="615768" />
	</node>
	<node lat="61.30038333521195" lon="10.32679999081154" id="-43679">
		<tag k="name" v="Kråbølstugua" />
		<tag k="place" v="farm" />
		<tag k="ssr:stedsnr" v="645300" />
	</node>
	<node lat="61.31196388464737" lon="10.324077779736479" id="-43684">
		<tag k="name" v="Nørdre Strangstad" />
		<tag k="place" v="farm" />
		<tag k="ssr:stedsnr" v="645361" />
	</node>
	<node lat="61.26205833229083" lon="10.387944436378245" id="-43685">
		<tag k="name" v="Skog" />
		<tag k="place" v="farm" />
		<tag k="ssr:stedsnr" v="646449" />
	</node>
	<node lat="61.2574694467524" lon="10.391713888277927" id="-43686">
		<tag k="name" v="Flatstulsbakken" />
		<tag k="place" v="farm" />
		<tag k="ssr:stedsnr" v="646450" />
	</node>
	<node lat="61.21975555311974" lon="10.467622220781553" id="-43689">
		<tag k="name" v="Sveen" />
		<tag k="place" v="farm" />
		<tag k="ssr:stedsnr" v="647160" />
	</node>
	<node lat="61.18756110821809" lon="10.415713898008171" id="-43697">
		<tag k="name" v="Kallykkja" />
		<tag k="place" v="locality" />
		<tag k="ssr:stedsnr" v="647570" />
	</node>
	<node lat="61.23166388905275" lon="10.4699083248476" id="-43698">
		<tag k="name" v="Larshågån" />
		<tag k="place" v="farm" />
		<tag k="ssr:stedsnr" v="647670" />
	</node>
	<node lat="61.297969442723165" lon="10.273161104984732" id="-43703">
		<tag k="name" v="Rønningen" />
		<tag k="place" v="farm" />
		<tag k="ssr:stedsnr" v="725556" />
	</node>
	<node lat="61.303052775775285" lon="10.237091674982844" id="-43704">
		<tag k="name" v="Stor-Galtrud" />
		<tag k="place" v="farm" />
		<tag k="ssr:stedsnr" v="725896" />
	</node>
	<node lat="61.20470555623623" lon="10.435858333861928" id="-43705">
		<tag k="alt_name" v="Sagstugua" />
		<tag k="name" v="Sagstua" />
		<tag k="place" v="isolated_dwelling" />
		<tag k="ssr:stedsnr" v="735911" />
	</node>
	<node lat="61.33528031437946" lon="10.267838616718594" id="-43706">
		<tag k="fixme" v="consider place=hamlet" />
		<tag k="name" v="Vike" />
		<tag k="place" v="farm" />
		<tag k="ssr:stedsnr" v="735944" />
	</node>
	<node lat="61.32899722450521" lon="10.286808331524517" id="-43707">
		<tag k="alt_name" v="Mortenstugua" />
		<tag k="name" v="Mortensstugua" />
		<tag k="place" v="farm" />
		<tag k="ssr:stedsnr" v="735945" />
	</node>
	<node lat="61.2452444460033" lon="10.502300005797284" id="-43708">
		<tag k="historic" v="shieling" />
		<tag k="name" v="Mosætra" />
		<tag k="place" v="isolated_dwelling" />
		<tag k="ssr:stedsnr" v="736139" />
	</node>
	<node lat="61.275913306833225" lon="10.39667592267991" id="-43713">
		<tag k="fixme" v="consider place=hamlet" />
		<tag k="name" v="Kramperud" />
		<tag k="place" v="farm" />
		<tag k="ssr:stedsnr" v="736484" />
	</node>
	<node lat="61.29998949617" lon="10.30980192056002" id="-43715">
		<tag k="alt_name" v="Stalsbjør" />
		<tag k="fixme" v="consider place=hamlet" />
		<tag k="name" v="Stalsbjørg" />
		<tag k="place" v="farm" />
		<tag k="ssr:stedsnr" v="736807" />
	</node>
	<node lat="61.28218888554407" lon="10.273661107535169" id="-43717">
		<tag k="alt_name" v="Aspelund" />
		<tag k="name" v="Asplund" />
		<tag k="place" v="farm" />
		<tag k="ssr:stedsnr" v="737741" />
	</node>
	<node lat="61.28655833218459" lon="10.255699997318004" id="-43718">
		<tag k="name" v="Bjørnstadjordet" />
		<tag k="place" v="farm" />
		<tag k="ssr:stedsnr" v="737743" />
	</node>
	<node lat="61.28876666690293" lon="10.308058324489366" id="-43719">
		<tag k="name" v="Hågå" />
		<tag k="place" v="farm" />
		<tag k="ssr:stedsnr" v="737752" />
	</node>
	<node lat="61.28315084753307" lon="10.278160107999797" id="-43720">
		<tag k="fixme" v="consider place=hamlet" />
		<tag k="name" v="Holsteinstad" />
		<tag k="place" v="farm" />
		<tag k="ssr:stedsnr" v="737756" />
	</node>
	<node lat="61.31290185189255" lon="10.39280096749704" id="-43726">
		<tag k="alt_name" v="Hundbergsætra;Hundbergslia" />
		<tag k="historic" v="shieling" />
		<tag k="name" v="Hundberget" />
		<tag k="old_name" v="Hundbjerg;Hunberget;Hundbergsli Sre;Hundbergslisætrene" />
		<tag k="place" v="isolated_dwelling" />
		<tag k="ssr:stedsnr" v="766271" />
	</node>
	<node lat="61.31976666285796" lon="10.311236107200319" id="-43731">
		<tag k="name" v="Fossli" />
		<tag k="place" v="farm" />
		<tag k="ssr:stedsnr" v="767322" />
	</node>
	<node lat="61.265072222757304" lon="10.412730557748018" id="-43734">
		<tag k="amenity" v="townhall" />
		<tag k="name" v="Tingberg" />
		<tag k="ssr:stedsnr" v="767413" />
	</node>
	<node lat="61.39288332911427" lon="10.352474997822311" id="-43739">
		<tag k="historic" v="shieling" />
		<tag k="name" v="Tretteslæen" />
		<tag k="place" v="isolated_dwelling" />
		<tag k="ssr:stedsnr" v="767272" />
	</node>
	<node lat="61.351138889311116" lon="10.332330560773197" id="-43751">
		<tag k="name" v="Glømmebua" />
		<tag k="place" v="locality" />
		<tag k="ssr:stedsnr" v="767876" />
	</node>
	<node lat="61.22181944771003" lon="10.466825006808024" id="-43752">
		<tag k="name" v="Ilsveen" />
		<tag k="place" v="farm" />
		<tag k="ssr:stedsnr" v="768133" />
	</node>
	<node lat="61.28774166700746" lon="10.308202774144197" id="-43756">
		<tag k="name" v="Moheim" />
		<tag k="place" v="farm" />
		<tag k="ssr:stedsnr" v="769501" />
	</node>
	<node lat="61.35699474639047" lon="10.308712802079173" id="-43763">
		<tag k="fixme" v="consider place=hamlet" />
		<tag k="name" v="Glomstad" />
		<tag k="place" v="farm" />
		<tag k="ssr:stedsnr" v="797963" />
	</node>
	<node lat="61.270627781864555" lon="10.295144442387405" id="-43764">
		<tag k="name" v="Krokhaugen" />
		<tag k="place" v="locality" />
		<tag k="ssr:stedsnr" v="783393" />
	</node>
	<node lat="61.31155555285097" lon="10.332013884191806" id="-43768">
		<tag k="name" v="Strangstadlia" />
		<tag k="place" v="farm" />
		<tag k="ssr:stedsnr" v="792363" />
	</node>
	<node lat="61.24202222150063" lon="10.425708333067279" id="-43769">
		<tag k="alt_name" v="Skriua" />
		<tag k="name" v="Viksvea" />
		<tag k="place" v="farm" />
		<tag k="ssr:stedsnr" v="796135" />
	</node>
	<node lat="61.23512036416674" lon="10.466611324678512" id="-43770">
		<tag k="fixme" v="consider place=hamlet" />
		<tag k="name" v="Råbøl" />
		<tag k="place" v="farm" />
		<tag k="ssr:stedsnr" v="796139" />
	</node>
	<node lat="61.21135833473983" lon="10.462763891059796" id="-43771">
		<tag k="name" v="Rugsvea" />
		<tag k="place" v="farm" />
		<tag k="ssr:stedsnr" v="796181" />
	</node>
	<node lat="61.25379937160959" lon="10.406887768340054" id="-43772">
		<tag k="fixme" v="consider place=hamlet" />
		<tag k="name" v="Sletta" />
		<tag k="place" v="farm" />
		<tag k="ssr:stedsnr" v="796466" />
	</node>
	<node lat="61.26393888884444" lon="10.498619444363605" id="-43773">
		<tag k="name" v="Nermo fjellstue" />
		<tag k="place" v="isolated_dwelling" />
		<tag k="ssr:stedsnr" v="796473" />
	</node>
	<node lat="61.265061111554715" lon="10.439413879688914" id="-43774">
		<tag k="name" v="Åset" />
		<tag k="place" v="farm" />
		<tag k="ssr:stedsnr" v="796485" />
	</node>
	<node lat="61.26912529167354" lon="10.579849152688382" id="-43775">
		<tag k="historic" v="shieling" />
		<tag k="name" v="Lienden" />
		<tag k="place" v="isolated_dwelling" />
		<tag k="ssr:stedsnr" v="796490" />
	</node>
	<node lat="61.27173466419771" lon="10.425053659599467" id="-43776">
		<tag k="alt_name" v="Høvren" />
		<tag k="name" v="Høvre" />
		<tag k="place" v="hamlet" />
		<tag k="ssr:stedsnr" v="796492" />
	</node>
	<node lat="61.29061388879119" lon="10.562866659944136" id="-43777">
		<tag k="historic" v="shieling" />
		<tag k="name" v="Rognhaugen" />
		<tag k="place" v="isolated_dwelling" />
		<tag k="ssr:stedsnr" v="797243" />
	</node>
	<node lat="61.25717499913824" lon="10.821349996840468" id="-43778">
		<tag k="name" v="Gammelskolla" />
		<tag k="place" v="hamlet" />
		<tag k="ssr:stedsnr" v="797368" />
	</node>
	<node lat="61.29139444116162" lon="10.400008333325987" id="-43780">
		<tag k="name" v="Oppdal" />
		<tag k="place" v="farm" />
		<tag k="ssr:stedsnr" v="797263" />
	</node>
	<node lat="61.32342777637979" lon="10.675591659048681" id="-43781">
		<tag k="historic" v="shieling" />
		<tag k="name" v="Blekasætra" />
		<tag k="place" v="isolated_dwelling" />
		<tag k="ssr:stedsnr" v="797285" />
	</node>
	<node lat="61.330819445076486" lon="10.519777785189829" id="-43782">
		<tag k="historic" v="shieling" />
		<tag k="name" v="Keiken" />
		<tag k="place" v="isolated_dwelling" />
		<tag k="ssr:stedsnr" v="797290" />
	</node>
	<node lat="61.385966028692394" lon="10.357015634056335" id="-43784">
		<tag k="alt_name" v="Veslsætra" />
		<tag k="historic" v="shieling" />
		<tag k="name" v="Nørdre Veslesætra" />
		<tag k="place" v="isolated_dwelling" />
		<tag k="ssr:stedsnr" v="797310" />
	</node>
	<node lat="61.256466670907095" lon="10.468794437786919" id="-43787">
		<tag k="name" v="Lyusvea" />
		<tag k="place" v="farm" />
		<tag k="ssr:stedsnr" v="797462" />
	</node>
	<node lat="61.251158764285144" lon="10.450077764476529" id="-43788">
		<tag k="fixme" v="consider place=hamlet" />
		<tag k="name" v="Øvermoen" />
		<tag k="place" v="farm" />
		<tag k="ssr:stedsnr" v="797467" />
	</node>
	<node lat="61.322877649985905" lon="10.274349250123871" id="-43789">
		<tag k="fixme" v="consider place=hamlet" />
		<tag k="name" v="Stavslia" />
		<tag k="place" v="farm" />
		<tag k="ssr:stedsnr" v="797931" />
	</node>
	<node lat="61.35950000004796" lon="10.19607778336148" id="-43790">
		<tag k="historic" v="shieling" />
		<tag k="name" v="Roåker" />
		<tag k="place" v="isolated_dwelling" />
		<tag k="ssr:stedsnr" v="797985" />
	</node>
	<node lat="61.360561628776175" lon="10.290799827980061" id="-43791">
		<tag k="fixme" v="consider place=hamlet" />
		<tag k="name" v="Ledem" />
		<tag k="place" v="farm" />
		<tag k="ssr:stedsnr" v="797989" />
	</node>
	<node lat="61.369647223159056" lon="10.283369444419874" id="-43792">
		<tag k="name" v="Brudal" />
		<tag k="place" v="farm" />
		<tag k="ssr:stedsnr" v="797991" />
	</node>
	<node lat="61.279300000820214" lon="10.280777771849445" id="-43793">
		<tag k="name" v="Holstein" />
		<tag k="place" v="farm" />
		<tag k="ssr:stedsnr" v="798838" />
	</node>
	<node lat="61.3726250000058" lon="10.583238886854469" id="-43794">
		<tag k="fixme" v="consider tourism=alpine_hut or tourism=chalet" />
		<tag k="name" v="Djupslia" />
		<tag k="ssr:stedsnr" v="814802" />
		<tag k="tourism" v="wilderness_hut" />
	</node>
	<node lat="61.352519441749415" lon="10.249458337505684" id="-43799">
		<tag k="name" v="Midtlia" />
		<tag k="place" v="farm" />
		<tag k="ssr:stedsnr" v="828202" />
	</node>
	<node lat="61.217494448443524" lon="10.46904444764979" id="-43810">
		<tag k="name" v="Bekkelund" />
		<tag k="place" v="farm" />
		<tag k="ssr:stedsnr" v="830119" />
	</node>
	<node lat="61.279688886192154" lon="10.340180554069617" id="-43815">
		<tag k="name" v="Modokka" />
		<tag k="place" v="locality" />
		<tag k="ssr:stedsnr" v="830446" />
	</node>
	<node lat="61.2227555517069" lon="10.463386113197972" id="-43816">
		<tag k="name" v="Snippen" />
		<tag k="place" v="farm" />
		<tag k="ssr:stedsnr" v="830670" />
	</node>
	<node lat="61.23971666964871" lon="10.421988890129109" id="-43817">
		<tag k="name" v="Glotten" />
		<tag k="place" v="farm" />
		<tag k="ssr:stedsnr" v="830796" />
	</node>
	<node lat="61.244055552119" lon="10.426266665710958" id="-43818">
		<tag k="name" v="Linde" />
		<tag k="place" v="farm" />
		<tag k="ssr:stedsnr" v="830797" />
	</node>
	<node lat="61.310091663830434" lon="10.260430547313296" id="-43825">
		<tag k="name" v="Dokkalykkja" />
		<tag k="place" v="locality" />
		<tag k="ssr:stedsnr" v="847537" />
	</node>
	<node lat="61.29889197689336" lon="10.270207386416626" id="-43827">
		<tag k="fixme" v="consider place=hamlet" />
		<tag k="name" v="Holen" />
		<tag k="place" v="farm" />
		<tag k="ssr:stedsnr" v="847636" />
	</node>
	<node lat="61.26261527558129" lon="10.317748838565661" id="-43831">
		<tag k="historic" v="shieling" />
		<tag k="name" v="Smedpersætra" />
		<tag k="place" v="isolated_dwelling" />
		<tag k="ssr:stedsnr" v="858854" />
	</node>
	<node lat="61.215422223730506" lon="10.497527774817186" id="-43835">
		<tag k="historic" v="shieling" />
		<tag k="name" v="Sandstulen" />
		<tag k="place" v="isolated_dwelling" />
		<tag k="ssr:stedsnr" v="857198" />
	</node>
	<node lat="61.33658333641159" lon="10.318705555942199" id="-43836">
		<tag k="name" v="Tandlykkja" />
		<tag k="place" v="farm" />
		<tag k="ssr:stedsnr" v="857948" />
	</node>
	<node lat="61.227797992110915" lon="10.459830461839724" id="-43839">
		<tag k="fixme" v="consider place=hamlet" />
		<tag k="name" v="Stubberud" />
		<tag k="place" v="farm" />
		<tag k="ssr:stedsnr" v="858159" />
	</node>
	<node lat="61.28587500412886" lon="10.382447223249399" id="-43840">
		<tag k="name" v="Nordeng" />
		<tag k="place" v="farm" />
		<tag k="ssr:stedsnr" v="858251" />
	</node>
	<node lat="61.29058888533412" lon="10.51379167438737" id="-43841">
		<tag k="historic" v="shieling" />
		<tag k="name" v="Svartåsen" />
		<tag k="place" v="isolated_dwelling" />
		<tag k="ssr:stedsnr" v="858254" />
	</node>
	<node lat="61.27584444516772" lon="10.392172218704147" id="-43846">
		<tag k="name" v="Odden" />
		<tag k="place" v="farm" />
		<tag k="ssr:stedsnr" v="858524" />
	</node>
	<node lat="61.317159195770486" lon="10.321074076974" id="-43847">
		<tag k="fixme" v="consider place=hamlet" />
		<tag k="name" v="Langgard" />
		<tag k="place" v="farm" />
		<tag k="ssr:stedsnr" v="858939" />
	</node>
	<node lat="61.34986667045434" lon="10.28738334086182" id="-43848">
		<tag k="name" v="Strande" />
		<tag k="place" v="farm" />
		<tag k="ssr:stedsnr" v="858956" />
	</node>
	<node lat="61.27449444107692" lon="10.40716666784044" id="-43855">
		<tag k="name" v="Gunnerstugu" />
		<tag k="place" v="locality" />
		<tag k="ssr:stedsnr" v="888385" />
	</node>
	<node lat="61.27349999990312" lon="10.376475000387117" id="-43857">
		<tag k="name" v="Kåje" />
		<tag k="place" v="farm" />
		<tag k="ssr:stedsnr" v="888390" />
	</node>
	<node lat="61.357191665445704" lon="10.289369453159603" id="-43864">
		<tag k="name" v="Grønlund" />
		<tag k="place" v="isolated_dwelling" />
		<tag k="ssr:stedsnr" v="889232" />
	</node>
	<node lat="61.3642416683645" lon="10.288144449929037" id="-43866">
		<tag k="name" v="Nerli" />
		<tag k="place" v="farm" />
		<tag k="ssr:stedsnr" v="889291" />
	</node>
	<node lat="61.371486107700676" lon="10.250983332440617" id="-43867">
		<tag k="name" v="Vesleøygarden" />
		<tag k="place" v="locality" />
		<tag k="ssr:stedsnr" v="889296" />
	</node>
	<node lat="61.31363055937525" lon="10.331952775608308" id="-43877">
		<tag k="name" v="Nybakken" />
		<tag k="place" v="farm" />
		<tag k="ssr:stedsnr" v="949330" />
	</node>
	<node lat="61.308088889486875" lon="10.332036116905163" id="-43878">
		<tag k="name" v="Strangstadhågån" />
		<tag k="place" v="farm" />
		<tag k="ssr:stedsnr" v="949348" />
	</node>
	<node lat="61.314169445881035" lon="10.346413898175074" id="-43879">
		<tag k="name" v="Blekahemsætra" />
		<tag k="place" v="locality" />
		<tag k="ssr:stedsnr" v="949350" />
	</node>
	<node lat="61.257683333698125" lon="10.403133327118422" id="-43881">
		<tag k="amenity" v="kindergarten" />
		<tag k="name" v="Vestlund" />
		<tag k="ssr:stedsnr" v="949376" />
	</node>
	<node lat="61.335086111339294" lon="10.270238889398668" id="-43886">
		<tag k="name" v="Søre Vike" />
		<tag k="place" v="farm" />
		<tag k="ssr:stedsnr" v="949713" />
	</node>
	<node lat="61.31277777926235" lon="10.392708339563512" id="-43887">
		<tag k="alt_name" v="Søndre Hundberget" />
		<tag k="historic" v="shieling" />
		<tag k="name" v="Søre Hundberget" />
		<tag k="place" v="isolated_dwelling" />
		<tag k="ssr:stedsnr" v="949725" />
	</node>
	<node lat="61.28904444071435" lon="10.340391662972163" id="-43894">
		<tag k="name" v="Brekke" />
		<tag k="place" v="farm" />
		<tag k="ssr:stedsnr" v="951460" />
	</node>
	<node lat="61.293138887112875" lon="10.401505559997005" id="-43899">
		<tag k="amenity" v="nursing_home" />
		<tag k="name" v="Sølvskottberget" />
		<tag k="ssr:stedsnr" v="959581" />
	</node>
	<node lat="61.2740305566645" lon="10.258930549354728" id="-43901">
		<tag k="historic" v="shieling" />
		<tag k="name" v="Svartsvesætra" />
		<tag k="place" v="isolated_dwelling" />
		<tag k="ssr:stedsnr" v="965426" />
	</node>
	<node lat="61.313861108992825" lon="10.319263887008534" id="-43902">
		<tag k="name" v="Lykkjom" />
		<tag k="place" v="farm" />
		<tag k="ssr:stedsnr" v="966284" />
	</node>
	<node lat="61.226354809662666" lon="10.512055925985822" id="-43908">
		<tag k="amenity" v="cafe" />
		<tag k="name" v="Gaiastova" />
		<tag k="ssr:stedsnr" v="970839" />
	</node>
	<node lat="61.256646642034376" lon="10.376762052546248" id="-43909">
		<tag k="name" v="Berdonslia" />
		<tag k="place" v="locality" />
		<tag k="ssr:stedsnr" v="985863" />
	</node>
	<node lat="61.26068459262159" lon="10.409016674155263" id="-43910">
		<tag k="fixme" v="consider place=hamlet" />
		<tag k="name" v="Strøm" />
		<tag k="place" v="farm" />
		<tag k="ssr:stedsnr" v="985864" />
	</node>
	<node lat="61.32096494862958" lon="10.291109305128709" id="-43911">
		<tag k="fixme" v="consider place=hamlet" />
		<tag k="name" v="Båtstø" />
		<tag k="place" v="farm" />
		<tag k="ssr:stedsnr" v="985897" />
	</node>
	<node lat="61.367196548752304" lon="10.292068513036725" id="-43912">
		<tag k="fixme" v="consider place=hamlet" />
		<tag k="name" v="Mågåli" />
		<tag k="place" v="farm" />
		<tag k="ssr:stedsnr" v="985899" />
	</node>
	<node lat="61.29525142573818" lon="10.2679965160494" id="-43913">
		<tag k="name" v="Dulven" />
		<tag k="place" v="locality" />
		<tag k="ssr:stedsnr" v="985924" />
	</node>
	<node lat="61.43435979785783" lon="10.66062126341044" id="-43914">
		<tag k="loc_name" v="Hardland;Halland" />
		<tag k="name" v="Harland" />
		<tag k="place" v="locality" />
		<tag k="ssr:stedsnr" v="987528" />
	</node>
	<node lat="61.28603997522116" lon="10.348206169706984" id="-44126">
		<tag k="name" v="Kvamsmoen" />
		<tag k="old_name" v="Kvam fjøstomt" />
		<tag k="place" v="farm" />
		<tag k="ssr:stedsnr" v="1082884" />
	</node>
	<node lat="61.23367777347467" lon="10.426822215263876" id="-44128">
		<tag k="name" v="Svarverud" />
		<tag k="place" v="farm" />
		<tag k="ssr:stedsnr" v="797150" />
	</node>
	<node lat="61.234011113025005" lon="10.429983340050178" id="-44129">
		<tag k="name" v="Myrom" />
		<tag k="place" v="farm" />
		<tag k="ssr:stedsnr" v="675175" />
	</node>
</osm>
