<?xml version="1.0" encoding="UTF-8"?>
<osm version="0.6" generator="osmapis">
	<node lat="61.273477774124686" lon="10.438177777351255" id="-22383">
		<tag k="name" v="Breigutua" />
		<tag k="place" v="locality" />
		<tag k="ssr:stedsnr" v="221025" />
	</node>
	<node lat="61.313813888912634" lon="10.301761102047974" id="-22709">
		<tag k="amenity" v="community_centre" />
		<tag k="name" v="Tretten samfunnshus" />
		<tag k="ssr:stedsnr" v="706355" />
	</node>
	<node lat="61.26623055812527" lon="10.422161111669057" id="-22768">
		<tag k="amenity" v="place_of_worship" />
		<tag k="denomination" v="lutheran" />
		<tag k="name" v="Øyer kirke" />
		<tag k="religion" v="christian" />
		<tag k="ssr:stedsnr" v="675514" />
	</node>
	<node lat="61.31766666682401" lon="10.305563886699229" id="-22946">
		<tag k="amenity" v="place_of_worship" />
		<tag k="denomination" v="lutheran" />
		<tag k="name" v="Tretten kirke" />
		<tag k="religion" v="christian" />
		<tag k="ssr:stedsnr" v="918951" />
	</node>
	<node lat="61.18921388550303" lon="10.424158341890958" id="-23012">
		<tag k="name" v="Johansletta" />
		<tag k="place" v="locality" />
		<tag k="ssr:stedsnr" v="41584" />
	</node>
	<node lat="61.300177777392186" lon="10.260780564046705" id="-23185">
		<tag k="cemetery" v="grave" />
		<tag k="name" v="Kjørkjehaugen" />
		<tag k="place" v="locality" />
		<tag k="ssr:stedsnr" v="300626" />
	</node>
	<node lat="61.29671389083868" lon="10.271169449761329" id="-23285">
		<tag k="name" v="Offigstadhaugen" />
		<tag k="place" v="locality" />
		<tag k="ssr:stedsnr" v="422625" />
	</node>
	<node lat="61.303841669270206" lon="10.261636117112763" id="-23499">
		<tag k="name" v="Rabben" />
		<tag k="place" v="locality" />
		<tag k="ssr:stedsnr" v="786644" />
	</node>
	<node lat="61.3187444454572" lon="10.297127778945585" id="-23607">
		<tag k="name" v="Stavsplassen" />
		<tag k="place" v="locality" />
		<tag k="ssr:stedsnr" v="947917" />
	</node>
	<node lat="61.22343333542048" lon="10.459544444785626" id="-23615">
		<tag k="amenity" v="place_of_worship" />
		<tag k="fixme" v="specify religion=*, denomination=*, building=* etc" />
		<tag k="name" v="Sørbygda misjonshus" />
		<tag k="ssr:stedsnr" v="951676" />
	</node>
</osm>
