<?xml version="1.0" encoding="UTF-8"?>
<osm version="0.6" generator="osmapis">
	<node lat="61.423898033492414" lon="12.265113265154833" id="-39995">
		<tag k="name" v="Flenengvegen" />
		<tag k="ssr:date" v="2019-12-27" />
		<tag k="ssr:gruppe" v="veg" />
		<tag k="ssr:hovedgruppe" v="infrastruktur" />
		<tag k="ssr:stedsnr" v="222824" />
		<tag k="ssr:type" v="adressenavn" />
	</node>
	<node lat="61.178309010150144" lon="12.45126130510688" id="-40014">
		<tag k="name" v="Vestsjøbergsvegen" />
		<tag k="ssr:date" v="2019-12-27" />
		<tag k="ssr:gruppe" v="veg" />
		<tag k="ssr:hovedgruppe" v="infrastruktur" />
		<tag k="ssr:stedsnr" v="224648" />
		<tag k="ssr:type" v="adressenavn" />
	</node>
	<node lat="61.41092852616941" lon="11.923828795168163" id="-40030">
		<tag k="name" v="Brennvegen" />
		<tag k="ssr:date" v="2019-12-27" />
		<tag k="ssr:gruppe" v="veg" />
		<tag k="ssr:hovedgruppe" v="infrastruktur" />
		<tag k="ssr:stedsnr" v="40839" />
		<tag k="ssr:type" v="adressenavn" />
	</node>
	<node lat="61.08880699333664" lon="11.997014915319921" id="-40031">
		<tag k="name" v="Gamle Kjernmovegen" />
		<tag k="ssr:date" v="2019-12-27" />
		<tag k="ssr:gruppe" v="veg" />
		<tag k="ssr:hovedgruppe" v="infrastruktur" />
		<tag k="ssr:stedsnr" v="40846" />
		<tag k="ssr:type" v="adressenavn" />
	</node>
	<node lat="61.08442263544531" lon="12.450770005805946" id="-40039">
		<tag k="name" v="Nord-Dahlsvegen" />
		<tag k="ssr:date" v="2019-12-27" />
		<tag k="ssr:gruppe" v="veg" />
		<tag k="ssr:hovedgruppe" v="infrastruktur" />
		<tag k="ssr:stedsnr" v="41648" />
		<tag k="ssr:type" v="adressenavn" />
	</node>
	<node lat="61.462818315868475" lon="12.25983538433315" id="-40071">
		<tag k="name" v="Rabbkjølvegen" />
		<tag k="ssr:date" v="2019-12-27" />
		<tag k="ssr:gruppe" v="veg" />
		<tag k="ssr:hovedgruppe" v="infrastruktur" />
		<tag k="ssr:stedsnr" v="53988" />
		<tag k="ssr:type" v="adressenavn" />
	</node>
	<node lat="61.46670630060231" lon="12.55257732415399" id="-40098">
		<tag k="name" v="Abbortjønnvegen" />
		<tag k="ssr:date" v="2019-12-27" />
		<tag k="ssr:gruppe" v="veg" />
		<tag k="ssr:hovedgruppe" v="infrastruktur" />
		<tag k="ssr:stedsnr" v="57113" />
		<tag k="ssr:type" v="adressenavn" />
	</node>
	<node lat="61.420799560039576" lon="12.105321759258809" id="-40099">
		<tag k="name" v="Tågmyrvegen" />
		<tag k="ssr:date" v="2019-12-27" />
		<tag k="ssr:gruppe" v="veg" />
		<tag k="ssr:hovedgruppe" v="infrastruktur" />
		<tag k="ssr:stedsnr" v="57177" />
		<tag k="ssr:type" v="adressenavn" />
	</node>
	<node lat="61.37166846599054" lon="12.313336053998043" id="-40123">
		<tag k="name" v="Ørsjøsætervegen" />
		<tag k="ssr:date" v="2019-12-27" />
		<tag k="ssr:gruppe" v="veg" />
		<tag k="ssr:hovedgruppe" v="infrastruktur" />
		<tag k="ssr:stedsnr" v="59120" />
		<tag k="ssr:type" v="adressenavn" />
	</node>
	<node lat="61.0872115515783" lon="11.990485252041148" id="-40241">
		<tag k="name" v="Håbergsvegen" />
		<tag k="ssr:date" v="2019-12-27" />
		<tag k="ssr:gruppe" v="veg" />
		<tag k="ssr:hovedgruppe" v="infrastruktur" />
		<tag k="ssr:stedsnr" v="101509" />
		<tag k="ssr:type" v="adressenavn" />
	</node>
	<node lat="61.129048271477686" lon="12.085090067834782" id="-40261">
		<tag k="name" v="Manasovegen" />
		<tag k="ssr:date" v="2019-12-27" />
		<tag k="ssr:gruppe" v="veg" />
		<tag k="ssr:hovedgruppe" v="infrastruktur" />
		<tag k="ssr:stedsnr" v="102695" />
		<tag k="ssr:type" v="adressenavn" />
	</node>
	<node lat="61.51058969055336" lon="12.245090268710376" id="-40302">
		<tag k="name" v="Høglandvegen" />
		<tag k="ssr:date" v="2019-12-27" />
		<tag k="ssr:gruppe" v="veg" />
		<tag k="ssr:hovedgruppe" v="infrastruktur" />
		<tag k="ssr:stedsnr" v="235864" />
		<tag k="ssr:type" v="adressenavn" />
	</node>
	<node lat="61.22542164340758" lon="11.83193118269319" id="-40386">
		<tag k="name" v="Vollmovegen" />
		<tag k="ssr:date" v="2019-12-27" />
		<tag k="ssr:gruppe" v="veg" />
		<tag k="ssr:hovedgruppe" v="infrastruktur" />
		<tag k="ssr:stedsnr" v="118123" />
		<tag k="ssr:type" v="adressenavn" />
	</node>
	<node lat="61.45257729763714" lon="12.056497625619466" id="-40387">
		<tag k="name" v="Smeiedalsvegen" />
		<tag k="ssr:date" v="2019-12-27" />
		<tag k="ssr:gruppe" v="veg" />
		<tag k="ssr:hovedgruppe" v="infrastruktur" />
		<tag k="ssr:stedsnr" v="118205" />
		<tag k="ssr:type" v="adressenavn" />
	</node>
	<node lat="61.3269914767631" lon="11.881075470810215" id="-40388">
		<tag k="name" v="Slettåsvegen" />
		<tag k="ssr:date" v="2019-12-27" />
		<tag k="ssr:gruppe" v="veg" />
		<tag k="ssr:hovedgruppe" v="infrastruktur" />
		<tag k="ssr:stedsnr" v="118218" />
		<tag k="ssr:type" v="adressenavn" />
	</node>
	<node lat="61.331651837906165" lon="12.24092208625634" id="-40398">
		<tag k="name" v="Rustadvegen" />
		<tag k="ssr:date" v="2019-12-27" />
		<tag k="ssr:gruppe" v="veg" />
		<tag k="ssr:hovedgruppe" v="infrastruktur" />
		<tag k="ssr:stedsnr" v="237180" />
		<tag k="ssr:type" v="adressenavn" />
	</node>
	<node lat="61.223770665714746" lon="11.83472565757802" id="-40399">
		<tag k="name" v="Osskogen" />
		<tag k="ssr:date" v="2019-12-27" />
		<tag k="ssr:gruppe" v="veg" />
		<tag k="ssr:hovedgruppe" v="infrastruktur" />
		<tag k="ssr:stedsnr" v="237181" />
		<tag k="ssr:type" v="adressenavn" />
	</node>
	<node lat="61.2412812462025" lon="12.023140659591558" id="-40415">
		<tag k="name" v="Gløttvollvegen" />
		<tag k="ssr:date" v="2019-12-27" />
		<tag k="ssr:gruppe" v="veg" />
		<tag k="ssr:hovedgruppe" v="infrastruktur" />
		<tag k="ssr:stedsnr" v="119870" />
		<tag k="ssr:type" v="adressenavn" />
	</node>
	<node lat="61.560819783438205" lon="11.964938359074516" id="-40498">
		<tag k="name" v="Øvre Håen" />
		<tag k="ssr:date" v="2019-12-27" />
		<tag k="ssr:gruppe" v="veg" />
		<tag k="ssr:hovedgruppe" v="infrastruktur" />
		<tag k="ssr:stedsnr" v="239135" />
		<tag k="ssr:type" v="adressenavn" />
	</node>
	<node lat="61.11505823726283" lon="11.96733265007187" id="-40509">
		<tag k="name" v="Sollia" />
		<tag k="ssr:date" v="2019-12-27" />
		<tag k="ssr:gruppe" v="veg" />
		<tag k="ssr:hovedgruppe" v="infrastruktur" />
		<tag k="ssr:stedsnr" v="239214" />
		<tag k="ssr:type" v="adressenavn" />
	</node>
	<node lat="61.384057836352156" lon="12.684453547919928" id="-40510">
		<tag k="name" v="Skårvegen" />
		<tag k="ssr:date" v="2019-12-27" />
		<tag k="ssr:gruppe" v="veg" />
		<tag k="ssr:hovedgruppe" v="infrastruktur" />
		<tag k="ssr:stedsnr" v="239228" />
		<tag k="ssr:type" v="adressenavn" />
	</node>
	<node lat="61.239168668737726" lon="12.602399749091537" id="-40538">
		<tag k="name" v="Nessætervegen" />
		<tag k="ssr:date" v="2019-12-27" />
		<tag k="ssr:gruppe" v="veg" />
		<tag k="ssr:hovedgruppe" v="infrastruktur" />
		<tag k="ssr:stedsnr" v="240535" />
		<tag k="ssr:type" v="adressenavn" />
	</node>
	<node lat="61.359278872558455" lon="12.292803584834843" id="-40540">
		<tag k="name" v="Feltvegen" />
		<tag k="ssr:date" v="2019-12-27" />
		<tag k="ssr:gruppe" v="veg" />
		<tag k="ssr:hovedgruppe" v="infrastruktur" />
		<tag k="ssr:stedsnr" v="141485" />
		<tag k="ssr:type" v="adressenavn" />
	</node>
	<node lat="61.12879913283239" lon="11.97755973290102" id="-40553">
		<tag k="name" v="Mellomgårdvegen" />
		<tag k="ssr:date" v="2019-12-27" />
		<tag k="ssr:gruppe" v="veg" />
		<tag k="ssr:hovedgruppe" v="infrastruktur" />
		<tag k="ssr:stedsnr" v="241223" />
		<tag k="ssr:type" v="adressenavn" />
	</node>
	<node lat="61.20203537070218" lon="11.854052042469206" id="-40554">
		<tag k="name" v="Lyngbakken" />
		<tag k="ssr:date" v="2019-12-27" />
		<tag k="ssr:gruppe" v="veg" />
		<tag k="ssr:hovedgruppe" v="infrastruktur" />
		<tag k="ssr:stedsnr" v="241225" />
		<tag k="ssr:type" v="adressenavn" />
	</node>
	<node lat="61.047021823628306" lon="12.59635271210007" id="-40607">
		<tag k="name" v="Elvdalsvegen" />
		<tag k="ssr:date" v="2019-12-27" />
		<tag k="ssr:gruppe" v="veg" />
		<tag k="ssr:hovedgruppe" v="infrastruktur" />
		<tag k="ssr:stedsnr" v="161813" />
		<tag k="ssr:type" v="adressenavn" />
	</node>
	<node lat="61.132948455041706" lon="12.11151276715238" id="-40681">
		<tag k="name" v="Bastbergsvegen" />
		<tag k="ssr:date" v="2019-12-27" />
		<tag k="ssr:gruppe" v="veg" />
		<tag k="ssr:hovedgruppe" v="infrastruktur" />
		<tag k="ssr:stedsnr" v="176806" />
		<tag k="ssr:type" v="adressenavn" />
	</node>
	<node lat="61.36420291597828" lon="12.243982312614111" id="-40927">
		<tag k="name" v="Buflovegen" />
		<tag k="ssr:date" v="2019-12-27" />
		<tag k="ssr:gruppe" v="veg" />
		<tag k="ssr:hovedgruppe" v="infrastruktur" />
		<tag k="ssr:stedsnr" v="222817" />
		<tag k="ssr:type" v="adressenavn" />
	</node>
	<node lat="61.26121504940025" lon="12.322697520708303" id="-40950">
		<tag k="name" v="Parkvegen" />
		<tag k="ssr:date" v="2019-12-27" />
		<tag k="ssr:gruppe" v="veg" />
		<tag k="ssr:hovedgruppe" v="infrastruktur" />
		<tag k="ssr:stedsnr" v="479196" />
		<tag k="ssr:type" v="adressenavn" />
	</node>
	<node lat="61.191131338836605" lon="12.479880459542446" id="-41002">
		<tag k="name" v="Bjønnsvegen" />
		<tag k="ssr:date" v="2019-12-27" />
		<tag k="ssr:gruppe" v="veg" />
		<tag k="ssr:hovedgruppe" v="infrastruktur" />
		<tag k="ssr:stedsnr" v="237799" />
		<tag k="ssr:type" v="adressenavn" />
	</node>
	<node lat="61.31656527997391" lon="12.259936148058689" id="-41117">
		<tag k="name" v="Flendalsvegen" />
		<tag k="ssr:date" v="2019-12-27" />
		<tag k="ssr:gruppe" v="veg" />
		<tag k="ssr:hovedgruppe" v="infrastruktur" />
		<tag k="ssr:stedsnr" v="451097" />
		<tag k="ssr:type" v="adressenavn" />
	</node>
	<node lat="61.152690398804154" lon="11.948129743176382" id="-41127">
		<tag k="name" v="Nordre Ifarnesveg" />
		<tag k="ssr:date" v="2019-12-27" />
		<tag k="ssr:gruppe" v="veg" />
		<tag k="ssr:hovedgruppe" v="infrastruktur" />
		<tag k="ssr:stedsnr" v="282184" />
		<tag k="ssr:type" v="adressenavn" />
	</node>
	<node lat="61.381329504367194" lon="12.693565850249634" id="-41270">
		<tag k="name" v="Storfossvegen" />
		<tag k="ssr:date" v="2019-12-27" />
		<tag k="ssr:gruppe" v="veg" />
		<tag k="ssr:hovedgruppe" v="infrastruktur" />
		<tag k="ssr:stedsnr" v="300241" />
		<tag k="ssr:type" v="adressenavn" />
	</node>
	<node lat="61.21873955933578" lon="12.239488818533298" id="-41281">
		<tag k="name" v="Grøndalsvegen" />
		<tag k="ssr:date" v="2019-12-27" />
		<tag k="ssr:gruppe" v="veg" />
		<tag k="ssr:hovedgruppe" v="infrastruktur" />
		<tag k="ssr:stedsnr" v="300808" />
		<tag k="ssr:type" v="adressenavn" />
	</node>
	<node lat="61.3870640398113" lon="12.679297628173837" id="-41298">
		<tag k="name" v="Lassbekkvegen" />
		<tag k="ssr:date" v="2019-12-27" />
		<tag k="ssr:gruppe" v="veg" />
		<tag k="ssr:hovedgruppe" v="infrastruktur" />
		<tag k="ssr:stedsnr" v="302249" />
		<tag k="ssr:type" v="adressenavn" />
	</node>
	<node lat="61.399328937152525" lon="12.04187288274906" id="-41302">
		<tag k="name" v="Hovdevegen" />
		<tag k="ssr:date" v="2019-12-27" />
		<tag k="ssr:gruppe" v="veg" />
		<tag k="ssr:hovedgruppe" v="infrastruktur" />
		<tag k="ssr:stedsnr" v="302741" />
		<tag k="ssr:type" v="adressenavn" />
	</node>
	<node lat="61.37544457311741" lon="11.954226682878438" id="-41303">
		<tag k="name" v="Kaklestripa" />
		<tag k="ssr:date" v="2019-12-27" />
		<tag k="ssr:gruppe" v="veg" />
		<tag k="ssr:hovedgruppe" v="infrastruktur" />
		<tag k="ssr:stedsnr" v="302749" />
		<tag k="ssr:type" v="adressenavn" />
	</node>
	<node lat="61.3840321144625" lon="11.989023507343644" id="-41411">
		<tag k="name" v="Tøråsvegen" />
		<tag k="ssr:date" v="2019-12-27" />
		<tag k="ssr:gruppe" v="veg" />
		<tag k="ssr:hovedgruppe" v="infrastruktur" />
		<tag k="ssr:stedsnr" v="329278" />
		<tag k="ssr:type" v="adressenavn" />
	</node>
	<node lat="61.10701766791892" lon="11.975641094042027" id="-41443">
		<tag k="name" v="Næringsvegen" />
		<tag k="ssr:date" v="2019-12-27" />
		<tag k="ssr:gruppe" v="veg" />
		<tag k="ssr:hovedgruppe" v="infrastruktur" />
		<tag k="ssr:stedsnr" v="344660" />
		<tag k="ssr:type" v="adressenavn" />
	</node>
	<node lat="61.49364442457952" lon="12.116431030194942" id="-41488">
		<tag k="name" v="Gammelsætervegen" />
		<tag k="ssr:date" v="2019-12-27" />
		<tag k="ssr:gruppe" v="veg" />
		<tag k="ssr:hovedgruppe" v="infrastruktur" />
		<tag k="ssr:stedsnr" v="357085" />
		<tag k="ssr:type" v="adressenavn" />
	</node>
	<node lat="61.43237633501247" lon="12.070566834511292" id="-41515">
		<tag k="name" v="Volfeltvegen" />
		<tag k="ssr:date" v="2019-12-27" />
		<tag k="ssr:gruppe" v="veg" />
		<tag k="ssr:hovedgruppe" v="infrastruktur" />
		<tag k="ssr:stedsnr" v="357967" />
		<tag k="ssr:type" v="adressenavn" />
	</node>
	<node lat="61.17489108643405" lon="12.74634000922017" id="-41519">
		<tag k="name" v="Sagvegen" />
		<tag k="ssr:date" v="2019-12-27" />
		<tag k="ssr:gruppe" v="veg" />
		<tag k="ssr:hovedgruppe" v="infrastruktur" />
		<tag k="ssr:stedsnr" v="358225" />
		<tag k="ssr:type" v="adressenavn" />
	</node>
	<node lat="61.17496678753613" lon="12.148602221867852" id="-41706">
		<tag k="name" v="Multmyrvegen" />
		<tag k="ssr:date" v="2019-12-27" />
		<tag k="ssr:gruppe" v="veg" />
		<tag k="ssr:hovedgruppe" v="infrastruktur" />
		<tag k="ssr:stedsnr" v="404203" />
		<tag k="ssr:type" v="adressenavn" />
	</node>
	<node lat="61.48838698623657" lon="11.916695631826853" id="-41710">
		<tag k="name" v="Eltdalsfjellvegen" />
		<tag k="ssr:date" v="2019-12-27" />
		<tag k="ssr:gruppe" v="veg" />
		<tag k="ssr:hovedgruppe" v="infrastruktur" />
		<tag k="ssr:stedsnr" v="404812" />
		<tag k="ssr:type" v="adressenavn" />
	</node>
	<node lat="61.230656852095144" lon="12.664678088593254" id="-41775">
		<tag k="name" v="Tannånesvegen" />
		<tag k="ssr:date" v="2019-12-27" />
		<tag k="ssr:gruppe" v="veg" />
		<tag k="ssr:hovedgruppe" v="infrastruktur" />
		<tag k="ssr:stedsnr" v="421202" />
		<tag k="ssr:type" v="adressenavn" />
	</node>
	<node lat="61.2687937836871" lon="12.314651962886611" id="-41776">
		<tag k="name" v="Tjønnvegen" />
		<tag k="ssr:date" v="2019-12-27" />
		<tag k="ssr:gruppe" v="veg" />
		<tag k="ssr:hovedgruppe" v="infrastruktur" />
		<tag k="ssr:stedsnr" v="421204" />
		<tag k="ssr:type" v="adressenavn" />
	</node>
	<node lat="61.22586918733927" lon="11.828165108412085" id="-41941">
		<tag k="name" v="Rubbholvegen" />
		<tag k="ssr:date" v="2019-12-27" />
		<tag k="ssr:gruppe" v="veg" />
		<tag k="ssr:hovedgruppe" v="infrastruktur" />
		<tag k="ssr:stedsnr" v="661175" />
		<tag k="ssr:type" v="adressenavn" />
	</node>
	<node lat="61.24921046298672" lon="12.035155366303421" id="-41949">
		<tag k="name" v="Bergliteigen" />
		<tag k="ssr:date" v="2019-12-27" />
		<tag k="ssr:gruppe" v="veg" />
		<tag k="ssr:hovedgruppe" v="infrastruktur" />
		<tag k="ssr:stedsnr" v="661796" />
		<tag k="ssr:type" v="adressenavn" />
	</node>
	<node lat="61.305452929414166" lon="12.236746397228144" id="-41985">
		<tag k="name" v="Alpinvegen" />
		<tag k="ssr:date" v="2019-12-27" />
		<tag k="ssr:gruppe" v="veg" />
		<tag k="ssr:hovedgruppe" v="infrastruktur" />
		<tag k="ssr:stedsnr" v="662850" />
		<tag k="ssr:type" v="adressenavn" />
	</node>
	<node lat="61.55423948474855" lon="12.21423423468069" id="-41998">
		<tag k="name" v="Veltbekkvegen" />
		<tag k="ssr:date" v="2019-12-27" />
		<tag k="ssr:gruppe" v="veg" />
		<tag k="ssr:hovedgruppe" v="infrastruktur" />
		<tag k="ssr:stedsnr" v="664132" />
		<tag k="ssr:type" v="adressenavn" />
	</node>
	<node lat="61.529555487275736" lon="12.14203671498664" id="-42067">
		<tag k="name" v="Gløtsjøvegen" />
		<tag k="ssr:date" v="2019-12-27" />
		<tag k="ssr:gruppe" v="veg" />
		<tag k="ssr:hovedgruppe" v="infrastruktur" />
		<tag k="ssr:stedsnr" v="665874" />
		<tag k="ssr:type" v="adressenavn" />
	</node>
	<node lat="61.36666512923842" lon="12.670611125814535" id="-42127">
		<tag k="name" v="Hollåsvegen" />
		<tag k="ssr:date" v="2019-12-27" />
		<tag k="ssr:gruppe" v="veg" />
		<tag k="ssr:hovedgruppe" v="infrastruktur" />
		<tag k="ssr:stedsnr" v="666729" />
		<tag k="ssr:type" v="adressenavn" />
	</node>
	<node lat="61.3046174389213" lon="12.247441292905966" id="-42129">
		<tag k="name" v="Caravanvegen" />
		<tag k="ssr:date" v="2019-12-27" />
		<tag k="ssr:gruppe" v="veg" />
		<tag k="ssr:hovedgruppe" v="infrastruktur" />
		<tag k="ssr:stedsnr" v="480866" />
		<tag k="ssr:type" v="adressenavn" />
	</node>
	<node lat="61.46421899601714" lon="12.248311177770976" id="-42140">
		<tag k="name" v="Slettengvegen" />
		<tag k="ssr:date" v="2019-12-27" />
		<tag k="ssr:gruppe" v="veg" />
		<tag k="ssr:hovedgruppe" v="infrastruktur" />
		<tag k="ssr:stedsnr" v="482223" />
		<tag k="ssr:type" v="adressenavn" />
	</node>
	<node lat="61.62096091246722" lon="11.88715925961828" id="-42142">
		<tag k="name" v="Øymyrvegen" />
		<tag k="ssr:date" v="2019-12-27" />
		<tag k="ssr:gruppe" v="veg" />
		<tag k="ssr:hovedgruppe" v="infrastruktur" />
		<tag k="ssr:stedsnr" v="482127" />
		<tag k="ssr:type" v="adressenavn" />
	</node>
	<node lat="61.236265583600584" lon="12.630060190709683" id="-42281">
		<tag k="name" v="Nesvollberget" />
		<tag k="ssr:date" v="2019-12-27" />
		<tag k="ssr:gruppe" v="veg" />
		<tag k="ssr:hovedgruppe" v="infrastruktur" />
		<tag k="ssr:stedsnr" v="525221" />
		<tag k="ssr:type" v="adressenavn" />
	</node>
	<node lat="61.35116481336021" lon="12.245367791161826" id="-42294">
		<tag k="name" v="Fuglsjøvegen" />
		<tag k="ssr:date" v="2019-12-27" />
		<tag k="ssr:gruppe" v="veg" />
		<tag k="ssr:hovedgruppe" v="infrastruktur" />
		<tag k="ssr:stedsnr" v="525826" />
		<tag k="ssr:type" v="adressenavn" />
	</node>
	<node lat="61.264970402108055" lon="12.430576325708978" id="-42301">
		<tag k="name" v="Myrsjøbergsvegen" />
		<tag k="ssr:date" v="2019-12-27" />
		<tag k="ssr:gruppe" v="veg" />
		<tag k="ssr:hovedgruppe" v="infrastruktur" />
		<tag k="ssr:stedsnr" v="527340" />
		<tag k="ssr:type" v="adressenavn" />
	</node>
	<node lat="61.26717488909717" lon="12.479763252869247" id="-42413">
		<tag k="name" v="Skjæråsvegen" />
		<tag k="ssr:date" v="2019-12-27" />
		<tag k="ssr:gruppe" v="veg" />
		<tag k="ssr:hovedgruppe" v="infrastruktur" />
		<tag k="ssr:stedsnr" v="539578" />
		<tag k="ssr:type" v="adressenavn" />
	</node>
	<node lat="61.18950729960208" lon="12.19917384690806" id="-42439">
		<tag k="name" v="Vålfallvegen" />
		<tag k="ssr:date" v="2019-12-27" />
		<tag k="ssr:gruppe" v="veg" />
		<tag k="ssr:hovedgruppe" v="infrastruktur" />
		<tag k="ssr:stedsnr" v="542129" />
		<tag k="ssr:type" v="adressenavn" />
	</node>
	<node lat="61.5234502919812" lon="12.066986881886264" id="-42458">
		<tag k="name" v="Lokvegen" />
		<tag k="ssr:date" v="2019-12-27" />
		<tag k="ssr:gruppe" v="veg" />
		<tag k="ssr:hovedgruppe" v="infrastruktur" />
		<tag k="ssr:stedsnr" v="544226" />
		<tag k="ssr:type" v="adressenavn" />
	</node>
	<node lat="61.30437689502536" lon="12.245105013839046" id="-42586">
		<tag k="name" v="Ole G. vegen" />
		<tag k="ssr:date" v="2019-12-27" />
		<tag k="ssr:gruppe" v="veg" />
		<tag k="ssr:hovedgruppe" v="infrastruktur" />
		<tag k="ssr:stedsnr" v="587666" />
		<tag k="ssr:type" v="adressenavn" />
	</node>
	<node lat="61.549480352003215" lon="12.075489801156301" id="-42603">
		<tag k="name" v="Sandbekklivegen" />
		<tag k="ssr:date" v="2019-12-27" />
		<tag k="ssr:gruppe" v="veg" />
		<tag k="ssr:hovedgruppe" v="infrastruktur" />
		<tag k="ssr:stedsnr" v="600256" />
		<tag k="ssr:type" v="adressenavn" />
	</node>
	<node lat="61.41998266880496" lon="12.142987135804008" id="-42629">
		<tag k="name" v="Stenmovegen" />
		<tag k="ssr:date" v="2019-12-27" />
		<tag k="ssr:gruppe" v="veg" />
		<tag k="ssr:hovedgruppe" v="infrastruktur" />
		<tag k="ssr:stedsnr" v="603208" />
		<tag k="ssr:type" v="adressenavn" />
	</node>
	<node lat="61.05449931263557" lon="12.601489671604112" id="-42631">
		<tag k="name" v="Synnaåvegen" />
		<tag k="ssr:date" v="2019-12-27" />
		<tag k="ssr:gruppe" v="veg" />
		<tag k="ssr:hovedgruppe" v="infrastruktur" />
		<tag k="ssr:stedsnr" v="603214" />
		<tag k="ssr:type" v="adressenavn" />
	</node>
	<node lat="61.27703997646082" lon="12.165823916042978" id="-42638">
		<tag k="name" v="Grønsætervegen" />
		<tag k="ssr:date" v="2019-12-27" />
		<tag k="ssr:gruppe" v="veg" />
		<tag k="ssr:hovedgruppe" v="infrastruktur" />
		<tag k="ssr:stedsnr" v="603725" />
		<tag k="ssr:type" v="adressenavn" />
	</node>
	<node lat="61.382861537913236" lon="12.687204312265532" id="-42652">
		<tag k="name" v="Litlfossvegen" />
		<tag k="ssr:date" v="2019-12-27" />
		<tag k="ssr:gruppe" v="veg" />
		<tag k="ssr:hovedgruppe" v="infrastruktur" />
		<tag k="ssr:stedsnr" v="605258" />
		<tag k="ssr:type" v="adressenavn" />
	</node>
	<node lat="61.41471894121777" lon="12.12974844934516" id="-42771">
		<tag k="name" v="Eltdalsvegen" />
		<tag k="ssr:date" v="2019-12-27" />
		<tag k="ssr:gruppe" v="veg" />
		<tag k="ssr:hovedgruppe" v="infrastruktur" />
		<tag k="ssr:stedsnr" v="646806" />
		<tag k="ssr:type" v="adressenavn" />
	</node>
	<node lat="61.41470699889802" lon="12.129684874764674" id="-42812">
		<tag k="name" v="Høgåsvegen" />
		<tag k="ssr:date" v="2019-12-27" />
		<tag k="ssr:gruppe" v="veg" />
		<tag k="ssr:hovedgruppe" v="infrastruktur" />
		<tag k="ssr:stedsnr" v="694746" />
		<tag k="ssr:type" v="adressenavn" />
	</node>
	<node lat="61.39040161542665" lon="12.669632637789581" id="-42889">
		<tag k="name" v="Moen" />
		<tag k="ssr:date" v="2019-12-27" />
		<tag k="ssr:gruppe" v="veg" />
		<tag k="ssr:hovedgruppe" v="infrastruktur" />
		<tag k="ssr:stedsnr" v="665238" />
		<tag k="ssr:type" v="adressenavn" />
	</node>
	<node lat="61.132925020887" lon="12.111555780054662" id="-43010">
		<tag k="name" v="Nordholtvegen" />
		<tag k="ssr:date" v="2019-12-27" />
		<tag k="ssr:gruppe" v="veg" />
		<tag k="ssr:hovedgruppe" v="infrastruktur" />
		<tag k="ssr:stedsnr" v="707218" />
		<tag k="ssr:type" v="adressenavn" />
	</node>
	<node lat="61.24436663752499" lon="12.048643761509144" id="-43011">
		<tag k="name" v="Nerigardsvegen" />
		<tag k="ssr:date" v="2019-12-27" />
		<tag k="ssr:gruppe" v="veg" />
		<tag k="ssr:hovedgruppe" v="infrastruktur" />
		<tag k="ssr:stedsnr" v="707223" />
		<tag k="ssr:type" v="adressenavn" />
	</node>
	<node lat="61.30570811658505" lon="12.244424200309183" id="-43037">
		<tag k="name" v="Hotellvegen" />
		<tag k="ssr:date" v="2019-12-27" />
		<tag k="ssr:gruppe" v="veg" />
		<tag k="ssr:hovedgruppe" v="infrastruktur" />
		<tag k="ssr:stedsnr" v="709634" />
		<tag k="ssr:type" v="adressenavn" />
	</node>
	<node lat="61.255733924898344" lon="12.064305206846923" id="-43101">
		<tag k="name" v="Andreassætervegen" />
		<tag k="ssr:date" v="2019-12-27" />
		<tag k="ssr:gruppe" v="veg" />
		<tag k="ssr:hovedgruppe" v="infrastruktur" />
		<tag k="ssr:stedsnr" v="722878" />
		<tag k="ssr:type" v="adressenavn" />
	</node>
	<node lat="61.37677011600426" lon="11.954190709411971" id="-43111">
		<tag k="name" v="Slettavegen" />
		<tag k="ssr:date" v="2019-12-27" />
		<tag k="ssr:gruppe" v="veg" />
		<tag k="ssr:hovedgruppe" v="infrastruktur" />
		<tag k="ssr:stedsnr" v="724205" />
		<tag k="ssr:type" v="adressenavn" />
	</node>
	<node lat="61.18212358863329" lon="12.510284958243629" id="-43138">
		<tag k="name" v="Kvennåsvegen" />
		<tag k="ssr:date" v="2019-12-27" />
		<tag k="ssr:gruppe" v="veg" />
		<tag k="ssr:hovedgruppe" v="infrastruktur" />
		<tag k="ssr:stedsnr" v="726230" />
		<tag k="ssr:type" v="adressenavn" />
	</node>
	<node lat="61.46641049089164" lon="11.998405645481002" id="-43152">
		<tag k="name" v="Kjølsætervegen" />
		<tag k="ssr:date" v="2019-12-27" />
		<tag k="ssr:gruppe" v="veg" />
		<tag k="ssr:hovedgruppe" v="infrastruktur" />
		<tag k="ssr:stedsnr" v="726803" />
		<tag k="ssr:type" v="adressenavn" />
	</node>
	<node lat="61.29754602169793" lon="12.590953071631645" id="-43172">
		<tag k="name" v="Skjærhollvegen" />
		<tag k="ssr:date" v="2019-12-27" />
		<tag k="ssr:gruppe" v="veg" />
		<tag k="ssr:hovedgruppe" v="infrastruktur" />
		<tag k="ssr:stedsnr" v="891547" />
		<tag k="ssr:type" v="adressenavn" />
	</node>
	<node lat="61.06736094132577" lon="12.638739555453984" id="-43308">
		<tag k="name" v="Bustadvegen" />
		<tag k="ssr:date" v="2019-12-27" />
		<tag k="ssr:gruppe" v="veg" />
		<tag k="ssr:hovedgruppe" v="infrastruktur" />
		<tag k="ssr:stedsnr" v="768848" />
		<tag k="ssr:type" v="adressenavn" />
	</node>
	<node lat="61.14388545224322" lon="12.088644709284202" id="-43309">
		<tag k="name" v="Galavegen" />
		<tag k="ssr:date" v="2019-12-27" />
		<tag k="ssr:gruppe" v="veg" />
		<tag k="ssr:hovedgruppe" v="infrastruktur" />
		<tag k="ssr:stedsnr" v="768853" />
		<tag k="ssr:type" v="adressenavn" />
	</node>
	<node lat="61.419916227894845" lon="12.37779164398256" id="-43353">
		<tag k="name" v="Bakksætervegen" />
		<tag k="ssr:date" v="2019-12-27" />
		<tag k="ssr:gruppe" v="veg" />
		<tag k="ssr:hovedgruppe" v="infrastruktur" />
		<tag k="ssr:stedsnr" v="782917" />
		<tag k="ssr:type" v="adressenavn" />
	</node>
	<node lat="61.26220051309187" lon="12.341124966265397" id="-43377">
		<tag k="name" v="Sørlivegen" />
		<tag k="ssr:date" v="2019-12-27" />
		<tag k="ssr:gruppe" v="veg" />
		<tag k="ssr:hovedgruppe" v="infrastruktur" />
		<tag k="ssr:stedsnr" v="785210" />
		<tag k="ssr:type" v="adressenavn" />
	</node>
	<node lat="61.30414586189525" lon="12.236471608194986" id="-43537">
		<tag k="name" v="Bakkebyvegen" />
		<tag k="ssr:date" v="2019-12-27" />
		<tag k="ssr:gruppe" v="veg" />
		<tag k="ssr:hovedgruppe" v="infrastruktur" />
		<tag k="ssr:stedsnr" v="905865" />
		<tag k="ssr:type" v="adressenavn" />
	</node>
	<node lat="61.39461065352292" lon="12.030914296986314" id="-43560">
		<tag k="name" v="Hattvegen" />
		<tag k="ssr:date" v="2019-12-27" />
		<tag k="ssr:gruppe" v="veg" />
		<tag k="ssr:hovedgruppe" v="infrastruktur" />
		<tag k="ssr:stedsnr" v="815684" />
		<tag k="ssr:type" v="adressenavn" />
	</node>
	<node lat="61.118267808079615" lon="12.063692546108745" id="-43600">
		<tag k="name" v="Storsvevegen" />
		<tag k="ssr:date" v="2019-12-27" />
		<tag k="ssr:gruppe" v="veg" />
		<tag k="ssr:hovedgruppe" v="infrastruktur" />
		<tag k="ssr:stedsnr" v="828717" />
		<tag k="ssr:type" v="adressenavn" />
	</node>
	<node lat="61.47425364051188" lon="11.94911566802569" id="-43621">
		<tag k="name" v="Morvegen" />
		<tag k="ssr:date" v="2019-12-27" />
		<tag k="ssr:gruppe" v="veg" />
		<tag k="ssr:hovedgruppe" v="infrastruktur" />
		<tag k="ssr:stedsnr" v="909243" />
		<tag k="ssr:type" v="adressenavn" />
	</node>
	<node lat="61.403875010573614" lon="11.959189893773734" id="-43687">
		<tag k="name" v="Stenersætervegen" />
		<tag k="ssr:date" v="2019-12-27" />
		<tag k="ssr:gruppe" v="veg" />
		<tag k="ssr:hovedgruppe" v="infrastruktur" />
		<tag k="ssr:stedsnr" v="846194" />
		<tag k="ssr:type" v="adressenavn" />
	</node>
	<node lat="61.304515468225546" lon="12.757181174004616" id="-43817">
		<tag k="name" v="Gjervollsætervegen" />
		<tag k="ssr:date" v="2019-12-27" />
		<tag k="ssr:gruppe" v="veg" />
		<tag k="ssr:hovedgruppe" v="infrastruktur" />
		<tag k="ssr:stedsnr" v="889849" />
		<tag k="ssr:type" v="adressenavn" />
	</node>
	<node lat="61.298407727314604" lon="12.279753536655482" id="-43920">
		<tag k="name" v="Kvernbergvegen" />
		<tag k="ssr:date" v="2019-12-27" />
		<tag k="ssr:gruppe" v="veg" />
		<tag k="ssr:hovedgruppe" v="infrastruktur" />
		<tag k="ssr:stedsnr" v="909252" />
		<tag k="ssr:type" v="adressenavn" />
	</node>
	<node lat="61.26121504940025" lon="12.322697520708303" id="-43921">
		<tag k="name" v="Knettvegen" />
		<tag k="ssr:date" v="2019-12-27" />
		<tag k="ssr:gruppe" v="veg" />
		<tag k="ssr:hovedgruppe" v="infrastruktur" />
		<tag k="ssr:stedsnr" v="909254" />
		<tag k="ssr:type" v="adressenavn" />
	</node>
	<node lat="61.4186993097241" lon="12.138661576643132" id="-43922">
		<tag k="name" v="Kongsbakken" />
		<tag k="ssr:date" v="2019-12-27" />
		<tag k="ssr:gruppe" v="veg" />
		<tag k="ssr:hovedgruppe" v="infrastruktur" />
		<tag k="ssr:stedsnr" v="909256" />
		<tag k="ssr:type" v="adressenavn" />
	</node>
	<node lat="61.30795421053944" lon="12.467222340231567" id="-43923">
		<tag k="name" v="Løbergsætervegen" />
		<tag k="ssr:date" v="2019-12-27" />
		<tag k="ssr:gruppe" v="veg" />
		<tag k="ssr:hovedgruppe" v="infrastruktur" />
		<tag k="ssr:stedsnr" v="909257" />
		<tag k="ssr:type" v="adressenavn" />
	</node>
	<node lat="61.1489428718027" lon="12.129135337350286" id="-43924">
		<tag k="name" v="Østre Tørbergsvegen" />
		<tag k="ssr:date" v="2019-12-27" />
		<tag k="ssr:gruppe" v="veg" />
		<tag k="ssr:hovedgruppe" v="infrastruktur" />
		<tag k="ssr:stedsnr" v="909152" />
		<tag k="ssr:type" v="adressenavn" />
	</node>
	<node lat="61.065793146498535" lon="12.582845246845213" id="-43925">
		<tag k="name" v="Østaflovegen" />
		<tag k="ssr:date" v="2019-12-27" />
		<tag k="ssr:gruppe" v="veg" />
		<tag k="ssr:hovedgruppe" v="infrastruktur" />
		<tag k="ssr:stedsnr" v="909154" />
		<tag k="ssr:type" v="adressenavn" />
	</node>
	<node lat="61.374029075139475" lon="12.242386737608985" id="-43933">
		<tag k="name" v="Kansbekkvegen" />
		<tag k="ssr:date" v="2019-12-27" />
		<tag k="ssr:gruppe" v="veg" />
		<tag k="ssr:hovedgruppe" v="infrastruktur" />
		<tag k="ssr:stedsnr" v="909760" />
		<tag k="ssr:type" v="adressenavn" />
	</node>
	<node lat="61.08880699333664" lon="11.997014915319921" id="-43934">
		<tag k="name" v="Kjernmolia" />
		<tag k="ssr:date" v="2019-12-27" />
		<tag k="ssr:gruppe" v="veg" />
		<tag k="ssr:hovedgruppe" v="infrastruktur" />
		<tag k="ssr:stedsnr" v="909772" />
		<tag k="ssr:type" v="adressenavn" />
	</node>
	<node lat="61.189852494166786" lon="12.009148370461581" id="-44038">
		<tag k="name" v="Munksjøbergsvegen" />
		<tag k="ssr:date" v="2019-12-27" />
		<tag k="ssr:gruppe" v="veg" />
		<tag k="ssr:hovedgruppe" v="infrastruktur" />
		<tag k="ssr:stedsnr" v="950216" />
		<tag k="ssr:type" v="adressenavn" />
	</node>
	<node lat="61.38226144895372" lon="12.246458037992447" id="-44080">
		<tag k="name" v="Flenåsvegen" />
		<tag k="ssr:date" v="2019-12-27" />
		<tag k="ssr:gruppe" v="veg" />
		<tag k="ssr:hovedgruppe" v="infrastruktur" />
		<tag k="ssr:stedsnr" v="963643" />
		<tag k="ssr:type" v="adressenavn" />
	</node>
	<node lat="61.193746023821525" lon="12.454399019534893" id="-44104">
		<tag k="name" v="Nyskogvegen" />
		<tag k="ssr:date" v="2019-12-27" />
		<tag k="ssr:gruppe" v="veg" />
		<tag k="ssr:hovedgruppe" v="infrastruktur" />
		<tag k="ssr:stedsnr" v="965195" />
		<tag k="ssr:type" v="adressenavn" />
	</node>
	<node lat="61.33213140033843" lon="12.276790572261648" id="-44105">
		<tag k="name" v="Opsethvegen" />
		<tag k="ssr:date" v="2019-12-27" />
		<tag k="ssr:gruppe" v="veg" />
		<tag k="ssr:hovedgruppe" v="infrastruktur" />
		<tag k="ssr:stedsnr" v="965201" />
		<tag k="ssr:type" v="adressenavn" />
	</node>
	<node lat="61.233407447140706" lon="11.921648332546468" id="-44111">
		<tag k="name" v="Bergsetvegen" />
		<tag k="ssr:date" v="2019-12-27" />
		<tag k="ssr:gruppe" v="veg" />
		<tag k="ssr:hovedgruppe" v="infrastruktur" />
		<tag k="ssr:stedsnr" v="965812" />
		<tag k="ssr:type" v="adressenavn" />
	</node>
	<node lat="61.601014456659705" lon="11.933744482187802" id="-44152">
		<tag k="name" v="Sennsjøvika hytteområde" />
		<tag k="ssr:date" v="2019-12-27" />
		<tag k="ssr:gruppe" v="veg" />
		<tag k="ssr:hovedgruppe" v="infrastruktur" />
		<tag k="ssr:stedsnr" v="1004014" />
		<tag k="ssr:type" v="adressenavn" />
	</node>
	<node lat="61.26071281539029" lon="12.334172328352027" id="-44153">
		<tag k="name" v="Solskiva hyttegrend" />
		<tag k="ssr:date" v="2019-12-27" />
		<tag k="ssr:gruppe" v="veg" />
		<tag k="ssr:hovedgruppe" v="infrastruktur" />
		<tag k="ssr:stedsnr" v="1004016" />
		<tag k="ssr:type" v="adressenavn" />
	</node>
	<node lat="61.31966347489478" lon="12.289879050976163" id="-44154">
		<tag k="name" v="Bjønnåsen hyttegrend" />
		<tag k="ssr:date" v="2019-12-27" />
		<tag k="ssr:gruppe" v="veg" />
		<tag k="ssr:hovedgruppe" v="infrastruktur" />
		<tag k="ssr:stedsnr" v="1004017" />
		<tag k="ssr:type" v="adressenavn" />
	</node>
	<node lat="61.254788032532566" lon="12.530165763242952" id="-44155">
		<tag k="name" v="Sagene Ring" />
		<tag k="ssr:date" v="2019-12-27" />
		<tag k="ssr:gruppe" v="veg" />
		<tag k="ssr:hovedgruppe" v="infrastruktur" />
		<tag k="ssr:stedsnr" v="1004123" />
		<tag k="ssr:type" v="adressenavn" />
	</node>
	<node lat="61.25550222426714" lon="12.512709235028748" id="-44156">
		<tag k="name" v="Grønstadvegen" />
		<tag k="ssr:date" v="2019-12-27" />
		<tag k="ssr:gruppe" v="veg" />
		<tag k="ssr:hovedgruppe" v="infrastruktur" />
		<tag k="ssr:stedsnr" v="1004129" />
		<tag k="ssr:type" v="adressenavn" />
	</node>
	<node lat="61.25552665177686" lon="12.51262076478742" id="-44157">
		<tag k="name" v="Solbakkvegen" />
		<tag k="ssr:date" v="2019-12-27" />
		<tag k="ssr:gruppe" v="veg" />
		<tag k="ssr:hovedgruppe" v="infrastruktur" />
		<tag k="ssr:stedsnr" v="1004132" />
		<tag k="ssr:type" v="adressenavn" />
	</node>
	<node lat="61.25488665354" lon="12.515749991390672" id="-44158">
		<tag k="name" v="Haugvegen" />
		<tag k="ssr:date" v="2019-12-27" />
		<tag k="ssr:gruppe" v="veg" />
		<tag k="ssr:hovedgruppe" v="infrastruktur" />
		<tag k="ssr:stedsnr" v="1004135" />
		<tag k="ssr:type" v="adressenavn" />
	</node>
	<node lat="61.2546196229874" lon="12.52082466848817" id="-44159">
		<tag k="name" v="Skogheimsvingen" />
		<tag k="ssr:date" v="2019-12-27" />
		<tag k="ssr:gruppe" v="veg" />
		<tag k="ssr:hovedgruppe" v="infrastruktur" />
		<tag k="ssr:stedsnr" v="1004139" />
		<tag k="ssr:type" v="adressenavn" />
	</node>
	<node lat="61.47681492010502" lon="12.129252206071623" id="-44160">
		<tag k="name" v="Bittermarkvegen" />
		<tag k="ssr:date" v="2019-12-27" />
		<tag k="ssr:gruppe" v="veg" />
		<tag k="ssr:hovedgruppe" v="infrastruktur" />
		<tag k="ssr:stedsnr" v="1004316" />
		<tag k="ssr:type" v="adressenavn" />
	</node>
	<node lat="61.521443487243275" lon="12.224543654059394" id="-44161">
		<tag k="name" v="Storkjeldkanken" />
		<tag k="ssr:date" v="2019-12-27" />
		<tag k="ssr:gruppe" v="veg" />
		<tag k="ssr:hovedgruppe" v="infrastruktur" />
		<tag k="ssr:stedsnr" v="1004028" />
		<tag k="ssr:type" v="adressenavn" />
	</node>
	<node lat="61.13460457055304" lon="12.105612641986404" id="-44162">
		<tag k="name" v="Slaaensvegen" />
		<tag k="ssr:date" v="2019-12-27" />
		<tag k="ssr:gruppe" v="veg" />
		<tag k="ssr:hovedgruppe" v="infrastruktur" />
		<tag k="ssr:stedsnr" v="1004090" />
		<tag k="ssr:type" v="adressenavn" />
	</node>
	<node lat="61.315161424811784" lon="12.25046909931759" id="-44163">
		<tag k="name" v="Kjellåsvegen" />
		<tag k="ssr:date" v="2019-12-27" />
		<tag k="ssr:gruppe" v="veg" />
		<tag k="ssr:hovedgruppe" v="infrastruktur" />
		<tag k="ssr:stedsnr" v="1004816" />
		<tag k="ssr:type" v="adressenavn" />
	</node>
	<node lat="61.32366409016225" lon="12.2593787641587" id="-44164">
		<tag k="name" v="Knutsbakken" />
		<tag k="ssr:date" v="2019-12-27" />
		<tag k="ssr:gruppe" v="veg" />
		<tag k="ssr:hovedgruppe" v="infrastruktur" />
		<tag k="ssr:stedsnr" v="1004819" />
		<tag k="ssr:type" v="adressenavn" />
	</node>
	<node lat="61.31818103158737" lon="12.265624665539779" id="-44165">
		<tag k="name" v="Krokvegen" />
		<tag k="ssr:date" v="2019-12-27" />
		<tag k="ssr:gruppe" v="veg" />
		<tag k="ssr:hovedgruppe" v="infrastruktur" />
		<tag k="ssr:stedsnr" v="1004827" />
		<tag k="ssr:type" v="adressenavn" />
	</node>
	<node lat="61.3163693196546" lon="12.264450953276114" id="-44166">
		<tag k="name" v="Hagebekkvegen" />
		<tag k="ssr:date" v="2019-12-27" />
		<tag k="ssr:gruppe" v="veg" />
		<tag k="ssr:hovedgruppe" v="infrastruktur" />
		<tag k="ssr:stedsnr" v="1004830" />
		<tag k="ssr:type" v="adressenavn" />
	</node>
	<node lat="61.30930743987608" lon="12.260003079567806" id="-44167">
		<tag k="name" v="Bekkevegen" />
		<tag k="ssr:date" v="2019-12-27" />
		<tag k="ssr:gruppe" v="veg" />
		<tag k="ssr:hovedgruppe" v="infrastruktur" />
		<tag k="ssr:stedsnr" v="1004879" />
		<tag k="ssr:type" v="adressenavn" />
	</node>
	<node lat="61.254434587878556" lon="12.530042469544403" id="-44168">
		<tag k="name" v="Kirkevegen" />
		<tag k="ssr:date" v="2019-12-27" />
		<tag k="ssr:gruppe" v="veg" />
		<tag k="ssr:hovedgruppe" v="infrastruktur" />
		<tag k="ssr:stedsnr" v="1005037" />
		<tag k="ssr:type" v="adressenavn" />
	</node>
	<node lat="61.30186333548045" lon="12.278761147950764" id="-44169">
		<tag k="name" v="Østlia" />
		<tag k="ssr:date" v="2019-12-27" />
		<tag k="ssr:gruppe" v="veg" />
		<tag k="ssr:hovedgruppe" v="infrastruktur" />
		<tag k="ssr:stedsnr" v="1005072" />
		<tag k="ssr:type" v="adressenavn" />
	</node>
	<node lat="61.3059550031968" lon="12.252743229356975" id="-44170">
		<tag k="name" v="Setervegen" />
		<tag k="ssr:date" v="2019-12-27" />
		<tag k="ssr:gruppe" v="veg" />
		<tag k="ssr:hovedgruppe" v="infrastruktur" />
		<tag k="ssr:stedsnr" v="1004776" />
		<tag k="ssr:type" v="adressenavn" />
	</node>
	<node lat="61.313081769621945" lon="12.268812158627254" id="-44171">
		<tag k="name" v="Skredderbakken" />
		<tag k="ssr:date" v="2019-12-27" />
		<tag k="ssr:gruppe" v="veg" />
		<tag k="ssr:hovedgruppe" v="infrastruktur" />
		<tag k="ssr:stedsnr" v="1004780" />
		<tag k="ssr:type" v="adressenavn" />
	</node>
	<node lat="61.31700639812211" lon="12.254070243848583" id="-44172">
		<tag k="name" v="Slettmovegen" />
		<tag k="ssr:date" v="2019-12-27" />
		<tag k="ssr:gruppe" v="veg" />
		<tag k="ssr:hovedgruppe" v="infrastruktur" />
		<tag k="ssr:stedsnr" v="1004784" />
		<tag k="ssr:type" v="adressenavn" />
	</node>
	<node lat="61.30498871098794" lon="12.25404928045822" id="-44173">
		<tag k="name" v="Mobekkvegen" />
		<tag k="ssr:date" v="2019-12-27" />
		<tag k="ssr:gruppe" v="veg" />
		<tag k="ssr:hovedgruppe" v="infrastruktur" />
		<tag k="ssr:stedsnr" v="1004788" />
		<tag k="ssr:type" v="adressenavn" />
	</node>
	<node lat="61.30554297796919" lon="12.25335276944496" id="-44174">
		<tag k="name" v="Mosevegen" />
		<tag k="ssr:date" v="2019-12-27" />
		<tag k="ssr:gruppe" v="veg" />
		<tag k="ssr:hovedgruppe" v="infrastruktur" />
		<tag k="ssr:stedsnr" v="1004791" />
		<tag k="ssr:type" v="adressenavn" />
	</node>
	<node lat="61.30534427036802" lon="12.255253117852032" id="-44175">
		<tag k="name" v="Mostupet" />
		<tag k="ssr:date" v="2019-12-27" />
		<tag k="ssr:gruppe" v="veg" />
		<tag k="ssr:hovedgruppe" v="infrastruktur" />
		<tag k="ssr:stedsnr" v="1004795" />
		<tag k="ssr:type" v="adressenavn" />
	</node>
	<node lat="61.25933377529102" lon="12.32478185056375" id="-44176">
		<tag k="name" v="Gamle Plassvegen" />
		<tag k="ssr:date" v="2019-12-27" />
		<tag k="ssr:gruppe" v="veg" />
		<tag k="ssr:hovedgruppe" v="infrastruktur" />
		<tag k="ssr:stedsnr" v="1005114" />
		<tag k="ssr:type" v="adressenavn" />
	</node>
	<node lat="61.25570212769069" lon="12.333327544873232" id="-44177">
		<tag k="name" v="Industrivegen" />
		<tag k="ssr:date" v="2019-12-27" />
		<tag k="ssr:gruppe" v="veg" />
		<tag k="ssr:hovedgruppe" v="infrastruktur" />
		<tag k="ssr:stedsnr" v="1005123" />
		<tag k="ssr:type" v="adressenavn" />
	</node>
	<node lat="61.421536205045975" lon="12.139777606351416" id="-44178">
		<tag k="name" v="Muggoppvegen" />
		<tag k="ssr:date" v="2019-12-27" />
		<tag k="ssr:gruppe" v="veg" />
		<tag k="ssr:hovedgruppe" v="infrastruktur" />
		<tag k="ssr:stedsnr" v="1005173" />
		<tag k="ssr:type" v="adressenavn" />
	</node>
	<node lat="61.30731625383436" lon="12.253664611418573" id="-44179">
		<tag k="name" v="Vestadbakken" />
		<tag k="ssr:date" v="2019-12-27" />
		<tag k="ssr:gruppe" v="veg" />
		<tag k="ssr:hovedgruppe" v="infrastruktur" />
		<tag k="ssr:stedsnr" v="1005178" />
		<tag k="ssr:type" v="adressenavn" />
	</node>
	<node lat="61.31215517648264" lon="12.25929663778106" id="-44180">
		<tag k="name" v="Vestadjordet" />
		<tag k="ssr:date" v="2019-12-27" />
		<tag k="ssr:gruppe" v="veg" />
		<tag k="ssr:hovedgruppe" v="infrastruktur" />
		<tag k="ssr:stedsnr" v="1005181" />
		<tag k="ssr:type" v="adressenavn" />
	</node>
	<node lat="61.28967493460739" lon="12.27779168735765" id="-44181">
		<tag k="name" v="Vestsidevegen" />
		<tag k="ssr:date" v="2019-12-27" />
		<tag k="ssr:gruppe" v="veg" />
		<tag k="ssr:hovedgruppe" v="infrastruktur" />
		<tag k="ssr:stedsnr" v="1005186" />
		<tag k="ssr:type" v="adressenavn" />
	</node>
	<node lat="61.31548333088957" lon="12.26422221497785" id="-44280">
		<tag k="name" v="Trysil kommune" />
		<tag k="ssr:date" v="2019-12-27" />
		<tag k="ssr:gruppe" v="administrativeIndelinger" />
		<tag k="ssr:hovedgruppe" v="offentligAdministrasjon" />
		<tag k="ssr:stedsnr" v="25287" />
		<tag k="ssr:type" v="kommune" />
	</node>
	<node lat="61.28938845546098" lon="12.207664849602168" id="-44429">
		<tag k="name" v="Blestkjølvegen" />
		<tag k="ssr:date" v="2019-12-27" />
		<tag k="ssr:gruppe" v="veg" />
		<tag k="ssr:hovedgruppe" v="infrastruktur" />
		<tag k="ssr:stedsnr" v="55792" />
		<tag k="ssr:type" v="adressenavn" />
	</node>
	<node lat="61.23663233019169" lon="12.781032844506388" id="-44460">
		<tag k="name" v="Mobergsvegen" />
		<tag k="ssr:date" v="2019-12-27" />
		<tag k="ssr:gruppe" v="veg" />
		<tag k="ssr:hovedgruppe" v="infrastruktur" />
		<tag k="ssr:stedsnr" v="59227" />
		<tag k="ssr:type" v="adressenavn" />
	</node>
	<node lat="61.31620277516449" lon="12.25942778135468" id="-44564">
		<tag k="name" v="Trysil" />
		<tag k="ssr:date" v="2019-12-27" />
		<tag k="ssr:gruppe" v="terrengområder" />
		<tag k="ssr:hovedgruppe" v="terreng" />
		<tag k="ssr:stedsnr" v="86718" />
		<tag k="ssr:type" v="landskapsområde" />
	</node>
	<node lat="61.39910566336733" lon="12.159339640297839" id="-44595">
		<tag k="name" v="Eltmunningsvegen" />
		<tag k="ssr:date" v="2019-12-27" />
		<tag k="ssr:gruppe" v="veg" />
		<tag k="ssr:hovedgruppe" v="infrastruktur" />
		<tag k="ssr:stedsnr" v="100795" />
		<tag k="ssr:type" v="adressenavn" />
	</node>
	<node lat="61.405717263776666" lon="12.068090670939513" id="-44717">
		<tag k="name" v="Vasskjeldbakken" />
		<tag k="ssr:date" v="2019-12-27" />
		<tag k="ssr:gruppe" v="veg" />
		<tag k="ssr:hovedgruppe" v="infrastruktur" />
		<tag k="ssr:stedsnr" v="118130" />
		<tag k="ssr:type" v="adressenavn" />
	</node>
	<node lat="61.489777503239345" lon="12.253297807878297" id="-44740">
		<tag k="name" v="Langgårdvegen" />
		<tag k="ssr:date" v="2019-12-27" />
		<tag k="ssr:gruppe" v="veg" />
		<tag k="ssr:hovedgruppe" v="infrastruktur" />
		<tag k="ssr:stedsnr" v="120221" />
		<tag k="ssr:type" v="adressenavn" />
	</node>
	<node lat="61.52243352399807" lon="12.06810256840916" id="-44745">
		<tag k="name" v="Kjøva" />
		<tag k="ssr:date" v="2019-12-27" />
		<tag k="ssr:gruppe" v="veg" />
		<tag k="ssr:hovedgruppe" v="infrastruktur" />
		<tag k="ssr:stedsnr" v="120768" />
		<tag k="ssr:type" v="adressenavn" />
	</node>
	<node lat="61.24865484500997" lon="12.56151073915125" id="-44748">
		<tag k="name" v="Jeanvegen" />
		<tag k="ssr:date" v="2019-12-27" />
		<tag k="ssr:gruppe" v="veg" />
		<tag k="ssr:hovedgruppe" v="infrastruktur" />
		<tag k="ssr:stedsnr" v="120743" />
		<tag k="ssr:type" v="adressenavn" />
	</node>
	<node lat="61.31482949019874" lon="12.26370830159985" id="-44902">
		<tag k="name" v="Korsbergsvegen" />
		<tag k="ssr:date" v="2019-12-27" />
		<tag k="ssr:gruppe" v="veg" />
		<tag k="ssr:hovedgruppe" v="infrastruktur" />
		<tag k="ssr:stedsnr" v="162566" />
		<tag k="ssr:type" v="adressenavn" />
	</node>
	<node lat="61.52305218768066" lon="12.504894568414121" id="-44983">
		<tag k="name" v="Sundløfstuguvegen" />
		<tag k="ssr:date" v="2019-12-27" />
		<tag k="ssr:gruppe" v="veg" />
		<tag k="ssr:hovedgruppe" v="infrastruktur" />
		<tag k="ssr:stedsnr" v="175383" />
		<tag k="ssr:type" v="adressenavn" />
	</node>
	<node lat="61.453723998130926" lon="12.138811175150554" id="-45008">
		<tag k="name" v="Løpsætervegen" />
		<tag k="ssr:date" v="2019-12-27" />
		<tag k="ssr:gruppe" v="veg" />
		<tag k="ssr:hovedgruppe" v="infrastruktur" />
		<tag k="ssr:stedsnr" v="175937" />
		<tag k="ssr:type" v="adressenavn" />
	</node>
	<node lat="61.35420778355843" lon="11.94335836487214" id="-45030">
		<tag k="name" v="Baggroa" />
		<tag k="ssr:date" v="2019-12-27" />
		<tag k="ssr:gruppe" v="veg" />
		<tag k="ssr:hovedgruppe" v="infrastruktur" />
		<tag k="ssr:stedsnr" v="176843" />
		<tag k="ssr:type" v="adressenavn" />
	</node>
	<node lat="61.118811742983574" lon="12.063673607100963" id="-45049">
		<tag k="name" v="Vestre Tørbergsvegen" />
		<tag k="ssr:date" v="2019-12-27" />
		<tag k="ssr:gruppe" v="veg" />
		<tag k="ssr:hovedgruppe" v="infrastruktur" />
		<tag k="ssr:stedsnr" v="178140" />
		<tag k="ssr:type" v="adressenavn" />
	</node>
	<node lat="61.154681720472276" lon="11.90460784929383" id="-45091">
		<tag k="name" v="Granbergvegen" />
		<tag k="ssr:date" v="2019-12-27" />
		<tag k="ssr:gruppe" v="veg" />
		<tag k="ssr:hovedgruppe" v="infrastruktur" />
		<tag k="ssr:stedsnr" v="180783" />
		<tag k="ssr:type" v="adressenavn" />
	</node>
	<node lat="61.24703065495193" lon="12.015181204179514" id="-45234">
		<tag k="name" v="Vestbyvegen" />
		<tag k="ssr:date" v="2019-12-27" />
		<tag k="ssr:gruppe" v="veg" />
		<tag k="ssr:hovedgruppe" v="infrastruktur" />
		<tag k="ssr:stedsnr" v="269070" />
		<tag k="ssr:type" v="adressenavn" />
	</node>
	<node lat="61.402919945641" lon="12.073970411370553" id="-45247">
		<tag k="name" v="Damsætervegen" />
		<tag k="ssr:date" v="2019-12-27" />
		<tag k="ssr:gruppe" v="veg" />
		<tag k="ssr:hovedgruppe" v="infrastruktur" />
		<tag k="ssr:stedsnr" v="269654" />
		<tag k="ssr:type" v="adressenavn" />
	</node>
	<node lat="61.2535725925082" lon="12.053850472468216" id="-45274">
		<tag k="name" v="Livollvegen" />
		<tag k="ssr:date" v="2019-12-27" />
		<tag k="ssr:gruppe" v="veg" />
		<tag k="ssr:hovedgruppe" v="infrastruktur" />
		<tag k="ssr:stedsnr" v="283683" />
		<tag k="ssr:type" v="adressenavn" />
	</node>
	<node lat="61.26818917068198" lon="12.485498035275906" id="-45276">
		<tag k="name" v="Kvernmosætervegen" />
		<tag k="ssr:date" v="2019-12-27" />
		<tag k="ssr:gruppe" v="veg" />
		<tag k="ssr:hovedgruppe" v="infrastruktur" />
		<tag k="ssr:stedsnr" v="284416" />
		<tag k="ssr:type" v="adressenavn" />
	</node>
	<node lat="61.26216814569882" lon="12.825322242072168" id="-45352">
		<tag k="name" v="Østsidevegen" />
		<tag k="ssr:date" v="2019-12-27" />
		<tag k="ssr:gruppe" v="veg" />
		<tag k="ssr:hovedgruppe" v="infrastruktur" />
		<tag k="ssr:stedsnr" v="297568" />
		<tag k="ssr:type" v="adressenavn" />
	</node>
	<node lat="61.24927666651538" lon="12.5616905820974" id="-45362">
		<tag k="name" v="Rønningsflovegen" />
		<tag k="ssr:date" v="2019-12-27" />
		<tag k="ssr:gruppe" v="veg" />
		<tag k="ssr:hovedgruppe" v="infrastruktur" />
		<tag k="ssr:stedsnr" v="298179" />
		<tag k="ssr:type" v="adressenavn" />
	</node>
	<node lat="61.184263870964124" lon="11.866010179488372" id="-45367">
		<tag k="name" v="Blikstadvegen" />
		<tag k="ssr:date" v="2019-12-27" />
		<tag k="ssr:gruppe" v="veg" />
		<tag k="ssr:hovedgruppe" v="infrastruktur" />
		<tag k="ssr:stedsnr" v="298766" />
		<tag k="ssr:type" v="adressenavn" />
	</node>
	<node lat="61.082123916593126" lon="11.980554876050839" id="-45397">
		<tag k="name" v="Grøtbekklia" />
		<tag k="ssr:date" v="2019-12-27" />
		<tag k="ssr:gruppe" v="veg" />
		<tag k="ssr:hovedgruppe" v="infrastruktur" />
		<tag k="ssr:stedsnr" v="300769" />
		<tag k="ssr:type" v="adressenavn" />
	</node>
	<node lat="61.47692312339294" lon="12.129855524056174" id="-45419">
		<tag k="name" v="Kittillivegen" />
		<tag k="ssr:date" v="2019-12-27" />
		<tag k="ssr:gruppe" v="veg" />
		<tag k="ssr:hovedgruppe" v="infrastruktur" />
		<tag k="ssr:stedsnr" v="302757" />
		<tag k="ssr:type" v="adressenavn" />
	</node>
	<node lat="61.30321578901533" lon="12.23402622571486" id="-45420">
		<tag k="name" v="Knettsætervegen" />
		<tag k="ssr:date" v="2019-12-27" />
		<tag k="ssr:gruppe" v="veg" />
		<tag k="ssr:hovedgruppe" v="infrastruktur" />
		<tag k="ssr:stedsnr" v="302760" />
		<tag k="ssr:type" v="adressenavn" />
	</node>
	<node lat="61.345154537180555" lon="12.22236683594444" id="-45511">
		<tag k="name" v="Løvåsvegen" />
		<tag k="ssr:date" v="2019-12-27" />
		<tag k="ssr:gruppe" v="veg" />
		<tag k="ssr:hovedgruppe" v="infrastruktur" />
		<tag k="ssr:stedsnr" v="329448" />
		<tag k="ssr:type" v="adressenavn" />
	</node>
	<node lat="61.40109384895239" lon="12.17880418114851" id="-45539">
		<tag k="name" v="Myrvollvegen" />
		<tag k="ssr:date" v="2019-12-27" />
		<tag k="ssr:gruppe" v="veg" />
		<tag k="ssr:hovedgruppe" v="infrastruktur" />
		<tag k="ssr:stedsnr" v="343194" />
		<tag k="ssr:type" v="adressenavn" />
	</node>
	<node lat="61.55858713782599" lon="11.96431956788128" id="-45545">
		<tag k="name" v="Nedre Håen" />
		<tag k="ssr:date" v="2019-12-27" />
		<tag k="ssr:gruppe" v="veg" />
		<tag k="ssr:hovedgruppe" v="infrastruktur" />
		<tag k="ssr:stedsnr" v="343197" />
		<tag k="ssr:type" v="adressenavn" />
	</node>
	<node lat="61.184325775069425" lon="12.529397000343495" id="-45566">
		<tag k="name" v="Nordlivegen" />
		<tag k="ssr:date" v="2019-12-27" />
		<tag k="ssr:gruppe" v="veg" />
		<tag k="ssr:hovedgruppe" v="infrastruktur" />
		<tag k="ssr:stedsnr" v="345740" />
		<tag k="ssr:type" v="adressenavn" />
	</node>
	<node lat="61.087240746994034" lon="11.99061402425361" id="-45646">
		<tag k="name" v="Osensjøvegen" />
		<tag k="ssr:date" v="2019-12-27" />
		<tag k="ssr:gruppe" v="veg" />
		<tag k="ssr:hovedgruppe" v="infrastruktur" />
		<tag k="ssr:stedsnr" v="358179" />
		<tag k="ssr:type" v="adressenavn" />
	</node>
	<node lat="61.24911047642165" lon="12.045099102246112" id="-45647">
		<tag k="name" v="Oppigardsvegen" />
		<tag k="ssr:date" v="2019-12-27" />
		<tag k="ssr:gruppe" v="veg" />
		<tag k="ssr:hovedgruppe" v="infrastruktur" />
		<tag k="ssr:stedsnr" v="358192" />
		<tag k="ssr:type" v="adressenavn" />
	</node>
	<node lat="61.236337657048466" lon="12.77122354297807" id="-45663">
		<tag k="name" v="Storbekken" />
		<tag k="ssr:date" v="2019-12-27" />
		<tag k="ssr:gruppe" v="veg" />
		<tag k="ssr:hovedgruppe" v="infrastruktur" />
		<tag k="ssr:stedsnr" v="360194" />
		<tag k="ssr:type" v="adressenavn" />
	</node>
	<node lat="61.177884025821804" lon="12.446789601434517" id="-45664">
		<tag k="name" v="Sætrevegen" />
		<tag k="ssr:date" v="2019-12-27" />
		<tag k="ssr:gruppe" v="veg" />
		<tag k="ssr:hovedgruppe" v="infrastruktur" />
		<tag k="ssr:stedsnr" v="360197" />
		<tag k="ssr:type" v="adressenavn" />
	</node>
	<node lat="61.13634127643299" lon="12.106626076545588" id="-45669">
		<tag k="name" v="Ensrudvegen" />
		<tag k="ssr:date" v="2019-12-27" />
		<tag k="ssr:gruppe" v="veg" />
		<tag k="ssr:hovedgruppe" v="infrastruktur" />
		<tag k="ssr:stedsnr" v="360451" />
		<tag k="ssr:type" v="adressenavn" />
	</node>
	<node lat="61.524879040864235" lon="12.077758896868959" id="-45706">
		<tag k="name" v="Jotvegen" />
		<tag k="ssr:date" v="2019-12-27" />
		<tag k="ssr:gruppe" v="veg" />
		<tag k="ssr:hovedgruppe" v="infrastruktur" />
		<tag k="ssr:stedsnr" v="362786" />
		<tag k="ssr:type" v="adressenavn" />
	</node>
	<node lat="61.27955277793425" lon="12.043991665964011" id="-45819">
		<tag k="name" v="Nye Livollvegen" />
		<tag k="ssr:date" v="2019-12-27" />
		<tag k="ssr:gruppe" v="veg" />
		<tag k="ssr:hovedgruppe" v="infrastruktur" />
		<tag k="ssr:stedsnr" v="390295" />
		<tag k="ssr:type" v="vegstrekning" />
	</node>
	<node lat="61.27432707482376" lon="12.304907337554873" id="-45853">
		<tag k="name" v="Helgavegen" />
		<tag k="ssr:date" v="2019-12-27" />
		<tag k="ssr:gruppe" v="veg" />
		<tag k="ssr:hovedgruppe" v="infrastruktur" />
		<tag k="ssr:stedsnr" v="405660" />
		<tag k="ssr:type" v="adressenavn" />
	</node>
	<node lat="61.116210134842035" lon="11.984942414819516" id="-45865">
		<tag k="name" v="Jerpenvegen" />
		<tag k="ssr:date" v="2019-12-27" />
		<tag k="ssr:gruppe" v="veg" />
		<tag k="ssr:hovedgruppe" v="infrastruktur" />
		<tag k="ssr:stedsnr" v="406023" />
		<tag k="ssr:type" v="adressenavn" />
	</node>
	<node lat="61.38335129528423" lon="12.722486674220914" id="-45908">
		<tag k="name" v="Fulufjellvegen" />
		<tag k="ssr:date" v="2019-12-27" />
		<tag k="ssr:gruppe" v="veg" />
		<tag k="ssr:hovedgruppe" v="infrastruktur" />
		<tag k="ssr:stedsnr" v="418645" />
		<tag k="ssr:type" v="adressenavn" />
	</node>
	<node lat="61.22443769154683" lon="11.833771533099537" id="-45941">
		<tag k="name" v="Skinnarodden" />
		<tag k="ssr:date" v="2019-12-27" />
		<tag k="ssr:gruppe" v="veg" />
		<tag k="ssr:hovedgruppe" v="infrastruktur" />
		<tag k="ssr:stedsnr" v="419237" />
		<tag k="ssr:type" v="adressenavn" />
	</node>
	<node lat="61.52576360839853" lon="12.08441004015623" id="-45942">
		<tag k="name" v="Sennsjøvegen" />
		<tag k="ssr:date" v="2019-12-27" />
		<tag k="ssr:gruppe" v="veg" />
		<tag k="ssr:hovedgruppe" v="infrastruktur" />
		<tag k="ssr:stedsnr" v="419239" />
		<tag k="ssr:type" v="adressenavn" />
	</node>
	<node lat="61.34293538985928" lon="11.92603853634973" id="-45955">
		<tag k="name" v="Tenåsvegen" />
		<tag k="ssr:date" v="2019-12-27" />
		<tag k="ssr:gruppe" v="veg" />
		<tag k="ssr:hovedgruppe" v="infrastruktur" />
		<tag k="ssr:stedsnr" v="421199" />
		<tag k="ssr:type" v="adressenavn" />
	</node>
	<node lat="61.466220971154925" lon="12.5555862234638" id="-45961">
		<tag k="name" v="Granvollvegen" />
		<tag k="ssr:date" v="2019-12-27" />
		<tag k="ssr:gruppe" v="veg" />
		<tag k="ssr:hovedgruppe" v="infrastruktur" />
		<tag k="ssr:stedsnr" v="421840" />
		<tag k="ssr:type" v="adressenavn" />
	</node>
	<node lat="61.13301090398849" lon="12.110996126363263" id="-45963">
		<tag k="name" v="Hallgeir Brendens veg" />
		<tag k="ssr:date" v="2019-12-27" />
		<tag k="ssr:gruppe" v="veg" />
		<tag k="ssr:hovedgruppe" v="infrastruktur" />
		<tag k="ssr:stedsnr" v="421780" />
		<tag k="ssr:type" v="adressenavn" />
	</node>
	<node lat="61.51852977564576" lon="12.506330880149559" id="-45993">
		<tag k="name" v="Holmbekkvegen" />
		<tag k="ssr:date" v="2019-12-27" />
		<tag k="ssr:gruppe" v="veg" />
		<tag k="ssr:hovedgruppe" v="infrastruktur" />
		<tag k="ssr:stedsnr" v="423782" />
		<tag k="ssr:type" v="adressenavn" />
	</node>
	<node lat="61.06446422100742" lon="12.5925364057018" id="-46117">
		<tag k="name" v="Vestigardsvegen" />
		<tag k="ssr:date" v="2019-12-27" />
		<tag k="ssr:gruppe" v="veg" />
		<tag k="ssr:hovedgruppe" v="infrastruktur" />
		<tag k="ssr:stedsnr" v="482131" />
		<tag k="ssr:type" v="adressenavn" />
	</node>
	<node lat="61.3050731357597" lon="12.242365178113355" id="-46118">
		<tag k="name" v="Velkomstvegen" />
		<tag k="ssr:date" v="2019-12-27" />
		<tag k="ssr:gruppe" v="veg" />
		<tag k="ssr:hovedgruppe" v="infrastruktur" />
		<tag k="ssr:stedsnr" v="482135" />
		<tag k="ssr:type" v="adressenavn" />
	</node>
	<node lat="61.50692558360137" lon="12.511710627715967" id="-46295">
		<tag k="name" v="Gammelbruvegen" />
		<tag k="ssr:date" v="2019-12-27" />
		<tag k="ssr:gruppe" v="veg" />
		<tag k="ssr:hovedgruppe" v="infrastruktur" />
		<tag k="ssr:stedsnr" v="525838" />
		<tag k="ssr:type" v="adressenavn" />
	</node>
	<node lat="61.07216608662623" lon="12.46296719862061" id="-46390">
		<tag k="name" v="Skjærbergsvegen" />
		<tag k="ssr:date" v="2019-12-27" />
		<tag k="ssr:gruppe" v="veg" />
		<tag k="ssr:hovedgruppe" v="infrastruktur" />
		<tag k="ssr:stedsnr" v="540230" />
		<tag k="ssr:type" v="adressenavn" />
	</node>
	<node lat="61.62114134060771" lon="11.887306084782875" id="-46406">
		<tag k="name" v="Nærøyvegen" />
		<tag k="ssr:date" v="2019-12-27" />
		<tag k="ssr:gruppe" v="veg" />
		<tag k="ssr:hovedgruppe" v="infrastruktur" />
		<tag k="ssr:stedsnr" v="540201" />
		<tag k="ssr:type" v="adressenavn" />
	</node>
	<node lat="61.1055128144646" lon="11.983772847115127" id="-46427">
		<tag k="name" v="Vesleoshaugen" />
		<tag k="ssr:date" v="2019-12-27" />
		<tag k="ssr:gruppe" v="veg" />
		<tag k="ssr:hovedgruppe" v="infrastruktur" />
		<tag k="ssr:stedsnr" v="542132" />
		<tag k="ssr:type" v="adressenavn" />
	</node>
	<node lat="61.249222214572356" lon="12.023632488158771" id="-46444">
		<tag k="name" v="Ulvsjøvegen" />
		<tag k="ssr:date" v="2019-12-27" />
		<tag k="ssr:gruppe" v="veg" />
		<tag k="ssr:hovedgruppe" v="infrastruktur" />
		<tag k="ssr:stedsnr" v="543248" />
		<tag k="ssr:type" v="adressenavn" />
	</node>
	<node lat="61.24893824586994" lon="12.036601678150287" id="-46446">
		<tag k="name" v="Grinddalsvegen" />
		<tag k="ssr:date" v="2019-12-27" />
		<tag k="ssr:gruppe" v="veg" />
		<tag k="ssr:hovedgruppe" v="infrastruktur" />
		<tag k="ssr:stedsnr" v="543790" />
		<tag k="ssr:type" v="adressenavn" />
	</node>
	<node lat="61.107279428983375" lon="11.979148541704808" id="-46464">
		<tag k="name" v="Kattjernvegen" />
		<tag k="ssr:date" v="2019-12-27" />
		<tag k="ssr:gruppe" v="veg" />
		<tag k="ssr:hovedgruppe" v="infrastruktur" />
		<tag k="ssr:stedsnr" v="544775" />
		<tag k="ssr:type" v="adressenavn" />
	</node>
	<node lat="61.10760454408839" lon="11.989439441817481" id="-46724">
		<tag k="name" v="Skolevegen" />
		<tag k="ssr:date" v="2019-12-27" />
		<tag k="ssr:gruppe" v="veg" />
		<tag k="ssr:hovedgruppe" v="infrastruktur" />
		<tag k="ssr:stedsnr" v="600243" />
		<tag k="ssr:type" v="adressenavn" />
	</node>
	<node lat="61.26162664573405" lon="12.821123172227553" id="-46725">
		<tag k="name" v="Sagmovegen" />
		<tag k="ssr:date" v="2019-12-27" />
		<tag k="ssr:gruppe" v="veg" />
		<tag k="ssr:hovedgruppe" v="infrastruktur" />
		<tag k="ssr:stedsnr" v="600246" />
		<tag k="ssr:type" v="adressenavn" />
	</node>
	<node lat="61.171998486739774" lon="12.163548510353204" id="-46758">
		<tag k="name" v="Varahollsvegen" />
		<tag k="ssr:date" v="2019-12-27" />
		<tag k="ssr:gruppe" v="veg" />
		<tag k="ssr:hovedgruppe" v="infrastruktur" />
		<tag k="ssr:stedsnr" v="603129" />
		<tag k="ssr:type" v="adressenavn" />
	</node>
	<node lat="61.17198216238552" lon="12.751490299615455" id="-46765">
		<tag k="name" v="Grenserøysvegen" />
		<tag k="ssr:date" v="2019-12-27" />
		<tag k="ssr:gruppe" v="veg" />
		<tag k="ssr:hovedgruppe" v="infrastruktur" />
		<tag k="ssr:stedsnr" v="603778" />
		<tag k="ssr:type" v="adressenavn" />
	</node>
	<node lat="61.13080518808541" lon="12.093715611698322" id="-46789">
		<tag k="name" v="Matvegen" />
		<tag k="ssr:date" v="2019-12-27" />
		<tag k="ssr:gruppe" v="veg" />
		<tag k="ssr:hovedgruppe" v="infrastruktur" />
		<tag k="ssr:stedsnr" v="605256" />
		<tag k="ssr:type" v="adressenavn" />
	</node>
	<node lat="61.38387934920229" lon="12.684087801567847" id="-46805">
		<tag k="name" v="Haugenvegen" />
		<tag k="ssr:date" v="2019-12-27" />
		<tag k="ssr:gruppe" v="veg" />
		<tag k="ssr:hovedgruppe" v="infrastruktur" />
		<tag k="ssr:stedsnr" v="605739" />
		<tag k="ssr:type" v="adressenavn" />
	</node>
	<node lat="61.40650465172205" lon="12.075830436612202" id="-47015">
		<tag k="name" v="Skjærvegen" />
		<tag k="ssr:date" v="2019-12-27" />
		<tag k="ssr:gruppe" v="veg" />
		<tag k="ssr:hovedgruppe" v="infrastruktur" />
		<tag k="ssr:stedsnr" v="660274" />
		<tag k="ssr:type" v="adressenavn" />
	</node>
	<node lat="61.137071449210346" lon="12.105860550967098" id="-47156">
		<tag k="name" v="Skolehusvegen" />
		<tag k="ssr:date" v="2019-12-27" />
		<tag k="ssr:gruppe" v="veg" />
		<tag k="ssr:hovedgruppe" v="infrastruktur" />
		<tag k="ssr:stedsnr" v="722245" />
		<tag k="ssr:type" v="adressenavn" />
	</node>
	<node lat="61.26986594042044" lon="12.325013444162723" id="-47167">
		<tag k="name" v="Bergulvholet" />
		<tag k="ssr:date" v="2019-12-27" />
		<tag k="ssr:gruppe" v="veg" />
		<tag k="ssr:hovedgruppe" v="infrastruktur" />
		<tag k="ssr:stedsnr" v="722830" />
		<tag k="ssr:type" v="adressenavn" />
	</node>
	<node lat="61.1911385354744" lon="12.481049194043697" id="-47187">
		<tag k="name" v="Lysvegen" />
		<tag k="ssr:date" v="2019-12-27" />
		<tag k="ssr:gruppe" v="veg" />
		<tag k="ssr:hovedgruppe" v="infrastruktur" />
		<tag k="ssr:stedsnr" v="724949" />
		<tag k="ssr:type" v="adressenavn" />
	</node>
	<node lat="61.191316171925784" lon="12.482916186298768" id="-47206">
		<tag k="name" v="Gutua" />
		<tag k="ssr:date" v="2019-12-27" />
		<tag k="ssr:gruppe" v="veg" />
		<tag k="ssr:hovedgruppe" v="infrastruktur" />
		<tag k="ssr:stedsnr" v="725723" />
		<tag k="ssr:type" v="adressenavn" />
	</node>
	<node lat="61.554023660864374" lon="12.216204359850813" id="-47231">
		<tag k="name" v="Hærslettvegen" />
		<tag k="ssr:date" v="2019-12-27" />
		<tag k="ssr:gruppe" v="veg" />
		<tag k="ssr:hovedgruppe" v="infrastruktur" />
		<tag k="ssr:stedsnr" v="727761" />
		<tag k="ssr:type" v="adressenavn" />
	</node>
	<node lat="61.341481865452444" lon="12.220417065583169" id="-47380">
		<tag k="name" v="Fageråsvegen" />
		<tag k="ssr:date" v="2019-12-27" />
		<tag k="ssr:gruppe" v="veg" />
		<tag k="ssr:hovedgruppe" v="infrastruktur" />
		<tag k="ssr:stedsnr" v="754290" />
		<tag k="ssr:type" v="adressenavn" />
	</node>
	<node lat="61.229278142910935" lon="11.890210810084174" id="-47528">
		<tag k="name" v="Baksjøbergsvegen" />
		<tag k="ssr:date" v="2019-12-27" />
		<tag k="ssr:gruppe" v="veg" />
		<tag k="ssr:hovedgruppe" v="infrastruktur" />
		<tag k="ssr:stedsnr" v="783820" />
		<tag k="ssr:type" v="adressenavn" />
	</node>
	<node lat="61.17416655623133" lon="12.73925224435219" id="-47545">
		<tag k="name" v="Vestre Flermovegen" />
		<tag k="ssr:date" v="2019-12-27" />
		<tag k="ssr:gruppe" v="veg" />
		<tag k="ssr:hovedgruppe" v="infrastruktur" />
		<tag k="ssr:stedsnr" v="785130" />
		<tag k="ssr:type" v="adressenavn" />
	</node>
	<node lat="61.22610972449291" lon="11.830445152135846" id="-47573">
		<tag k="name" v="Moldbergsvegen" />
		<tag k="ssr:date" v="2019-12-27" />
		<tag k="ssr:gruppe" v="veg" />
		<tag k="ssr:hovedgruppe" v="infrastruktur" />
		<tag k="ssr:stedsnr" v="787217" />
		<tag k="ssr:type" v="adressenavn" />
	</node>
	<node lat="61.30763460889059" lon="12.288370675197418" id="-47576">
		<tag k="name" v="Lundbergsvegen" />
		<tag k="ssr:date" v="2019-12-27" />
		<tag k="ssr:gruppe" v="veg" />
		<tag k="ssr:hovedgruppe" v="infrastruktur" />
		<tag k="ssr:stedsnr" v="787238" />
		<tag k="ssr:type" v="adressenavn" />
	</node>
	<node lat="61.265800274967475" lon="12.401577627252822" id="-47744">
		<tag k="name" v="Nordbøvegen" />
		<tag k="ssr:date" v="2019-12-27" />
		<tag k="ssr:gruppe" v="veg" />
		<tag k="ssr:hovedgruppe" v="infrastruktur" />
		<tag k="ssr:stedsnr" v="829188" />
		<tag k="ssr:type" v="adressenavn" />
	</node>
	<node lat="61.236043156076086" lon="12.633918586298908" id="-47745">
		<tag k="name" v="Myrhaugvegen" />
		<tag k="ssr:date" v="2019-12-27" />
		<tag k="ssr:gruppe" v="veg" />
		<tag k="ssr:hovedgruppe" v="infrastruktur" />
		<tag k="ssr:stedsnr" v="829194" />
		<tag k="ssr:type" v="adressenavn" />
	</node>
	<node lat="61.225517558357126" lon="12.69060280300783" id="-47772">
		<tag k="name" v="Flermovegen" />
		<tag k="ssr:date" v="2019-12-27" />
		<tag k="ssr:gruppe" v="veg" />
		<tag k="ssr:hovedgruppe" v="infrastruktur" />
		<tag k="ssr:stedsnr" v="829842" />
		<tag k="ssr:type" v="adressenavn" />
	</node>
	<node lat="61.3735597717636" lon="12.013821721990745" id="-47843">
		<tag k="name" v="Nyslåttvegen" />
		<tag k="ssr:date" v="2019-12-27" />
		<tag k="ssr:gruppe" v="veg" />
		<tag k="ssr:hovedgruppe" v="infrastruktur" />
		<tag k="ssr:stedsnr" v="842674" />
		<tag k="ssr:type" v="adressenavn" />
	</node>
	<node lat="61.36006402481325" lon="12.295422824127373" id="-47859">
		<tag k="name" v="Støpvegen" />
		<tag k="ssr:date" v="2019-12-27" />
		<tag k="ssr:gruppe" v="veg" />
		<tag k="ssr:hovedgruppe" v="infrastruktur" />
		<tag k="ssr:stedsnr" v="843720" />
		<tag k="ssr:type" v="adressenavn" />
	</node>
	<node lat="61.37307246014364" lon="11.954299162089326" id="-47894">
		<tag k="name" v="Vangsvegen" />
		<tag k="ssr:date" v="2019-12-27" />
		<tag k="ssr:gruppe" v="veg" />
		<tag k="ssr:hovedgruppe" v="infrastruktur" />
		<tag k="ssr:stedsnr" v="846123" />
		<tag k="ssr:type" v="adressenavn" />
	</node>
	<node lat="61.41613914295623" lon="12.614873050986661" id="-48148">
		<tag k="name" v="Drevdalsvegen" />
		<tag k="ssr:date" v="2019-12-27" />
		<tag k="ssr:gruppe" v="veg" />
		<tag k="ssr:hovedgruppe" v="infrastruktur" />
		<tag k="ssr:stedsnr" v="950810" />
		<tag k="ssr:type" v="adressenavn" />
	</node>
	<node lat="61.26121504940025" lon="12.322697520708303" id="-48149">
		<tag k="name" v="Brubakken" />
		<tag k="ssr:date" v="2019-12-27" />
		<tag k="ssr:gruppe" v="veg" />
		<tag k="ssr:hovedgruppe" v="infrastruktur" />
		<tag k="ssr:stedsnr" v="950815" />
		<tag k="ssr:type" v="adressenavn" />
	</node>
	<node lat="61.632274389800024" lon="11.860378810559062" id="-48155">
		<tag k="name" v="Nordre Øybekken" />
		<tag k="ssr:date" v="2019-12-27" />
		<tag k="ssr:gruppe" v="veg" />
		<tag k="ssr:hovedgruppe" v="infrastruktur" />
		<tag k="ssr:stedsnr" v="951668" />
		<tag k="ssr:type" v="adressenavn" />
	</node>
	<node lat="61.42695395987248" lon="12.142336366946877" id="-48265">
		<tag k="name" v="Strandvegen" />
		<tag k="ssr:date" v="2019-12-27" />
		<tag k="ssr:gruppe" v="veg" />
		<tag k="ssr:hovedgruppe" v="infrastruktur" />
		<tag k="ssr:stedsnr" v="967180" />
		<tag k="ssr:type" v="adressenavn" />
	</node>
	<node lat="61.07540669800212" lon="12.574391208673362" id="-48300">
		<tag k="name" v="Rundflovegen" />
		<tag k="ssr:date" v="2019-12-27" />
		<tag k="ssr:gruppe" v="veg" />
		<tag k="ssr:hovedgruppe" v="infrastruktur" />
		<tag k="ssr:stedsnr" v="969047" />
		<tag k="ssr:type" v="adressenavn" />
	</node>
	<node lat="61.317858515994025" lon="12.260054169610129" id="-48321">
		<tag k="name" v="Bergevegen" />
		<tag k="ssr:date" v="2019-12-27" />
		<tag k="ssr:gruppe" v="veg" />
		<tag k="ssr:hovedgruppe" v="infrastruktur" />
		<tag k="ssr:stedsnr" v="980790" />
		<tag k="ssr:type" v="adressenavn" />
	</node>
	<node lat="61.065726995443846" lon="12.580119523106776" id="-48322">
		<tag k="name" v="Borveggvegen" />
		<tag k="ssr:date" v="2019-12-27" />
		<tag k="ssr:gruppe" v="veg" />
		<tag k="ssr:hovedgruppe" v="infrastruktur" />
		<tag k="ssr:stedsnr" v="980791" />
		<tag k="ssr:type" v="adressenavn" />
	</node>
	<node lat="61.27441829002462" lon="12.30642415984695" id="-48323">
		<tag k="name" v="Bygdervegen" />
		<tag k="ssr:date" v="2019-12-27" />
		<tag k="ssr:gruppe" v="veg" />
		<tag k="ssr:hovedgruppe" v="infrastruktur" />
		<tag k="ssr:stedsnr" v="980792" />
		<tag k="ssr:type" v="adressenavn" />
	</node>
	<node lat="61.134165459345766" lon="12.501993496063246" id="-48324">
		<tag k="name" v="Galåsvegen" />
		<tag k="ssr:date" v="2019-12-27" />
		<tag k="ssr:gruppe" v="veg" />
		<tag k="ssr:hovedgruppe" v="infrastruktur" />
		<tag k="ssr:stedsnr" v="980793" />
		<tag k="ssr:type" v="adressenavn" />
	</node>
	<node lat="61.246721258653224" lon="12.292128877806084" id="-48325">
		<tag k="name" v="Gamle Trysilvegen" />
		<tag k="ssr:date" v="2019-12-27" />
		<tag k="ssr:gruppe" v="veg" />
		<tag k="ssr:hovedgruppe" v="infrastruktur" />
		<tag k="ssr:stedsnr" v="980794" />
		<tag k="ssr:type" v="adressenavn" />
	</node>
	<node lat="61.268798404870516" lon="12.47582528301897" id="-48326">
		<tag k="name" v="Gjetsjøbergsvegen" />
		<tag k="ssr:date" v="2019-12-27" />
		<tag k="ssr:gruppe" v="veg" />
		<tag k="ssr:hovedgruppe" v="infrastruktur" />
		<tag k="ssr:stedsnr" v="980795" />
		<tag k="ssr:type" v="adressenavn" />
	</node>
	<node lat="61.256736264419374" lon="12.015804479284915" id="-48327">
		<tag k="name" v="Granlivegen" />
		<tag k="ssr:date" v="2019-12-27" />
		<tag k="ssr:gruppe" v="veg" />
		<tag k="ssr:hovedgruppe" v="infrastruktur" />
		<tag k="ssr:stedsnr" v="980796" />
		<tag k="ssr:type" v="adressenavn" />
	</node>
	<node lat="61.27085652059096" lon="12.462645755113009" id="-48328">
		<tag k="name" v="Grønlivegen" />
		<tag k="ssr:date" v="2019-12-27" />
		<tag k="ssr:gruppe" v="veg" />
		<tag k="ssr:hovedgruppe" v="infrastruktur" />
		<tag k="ssr:stedsnr" v="980797" />
		<tag k="ssr:type" v="adressenavn" />
	</node>
	<node lat="61.296865387445834" lon="12.76562863372401" id="-48329">
		<tag k="name" v="Hollsætervegen" />
		<tag k="ssr:date" v="2019-12-27" />
		<tag k="ssr:gruppe" v="veg" />
		<tag k="ssr:hovedgruppe" v="infrastruktur" />
		<tag k="ssr:stedsnr" v="980798" />
		<tag k="ssr:type" v="adressenavn" />
	</node>
	<node lat="61.25405972817681" lon="12.532817731302876" id="-48330">
		<tag k="name" v="Ljørdalsvegen" />
		<tag k="ssr:date" v="2019-12-27" />
		<tag k="ssr:gruppe" v="veg" />
		<tag k="ssr:hovedgruppe" v="infrastruktur" />
		<tag k="ssr:stedsnr" v="980799" />
		<tag k="ssr:type" v="adressenavn" />
	</node>
	<node lat="61.10743468187385" lon="11.98370493726407" id="-48331">
		<tag k="name" v="Osensjøen vest" />
		<tag k="ssr:date" v="2019-12-27" />
		<tag k="ssr:gruppe" v="veg" />
		<tag k="ssr:hovedgruppe" v="infrastruktur" />
		<tag k="ssr:stedsnr" v="980800" />
		<tag k="ssr:type" v="adressenavn" />
	</node>
	<node lat="61.26045844456117" lon="12.31274025147975" id="-48332">
		<tag k="name" v="Nysætervegen" />
		<tag k="ssr:date" v="2019-12-27" />
		<tag k="ssr:gruppe" v="veg" />
		<tag k="ssr:hovedgruppe" v="infrastruktur" />
		<tag k="ssr:stedsnr" v="980801" />
		<tag k="ssr:type" v="adressenavn" />
	</node>
	<node lat="61.10743468187385" lon="11.98370493726407" id="-48333">
		<tag k="name" v="Osensjøen øst" />
		<tag k="ssr:date" v="2019-12-27" />
		<tag k="ssr:gruppe" v="veg" />
		<tag k="ssr:hovedgruppe" v="infrastruktur" />
		<tag k="ssr:stedsnr" v="980802" />
		<tag k="ssr:type" v="adressenavn" />
	</node>
	<node lat="61.31110200384564" lon="12.251086958619567" id="-48334">
		<tag k="name" v="Skyttervegen" />
		<tag k="ssr:date" v="2019-12-27" />
		<tag k="ssr:gruppe" v="veg" />
		<tag k="ssr:hovedgruppe" v="infrastruktur" />
		<tag k="ssr:stedsnr" v="980803" />
		<tag k="ssr:type" v="adressenavn" />
	</node>
	<node lat="61.305730008837756" lon="12.242552174652443" id="-48335">
		<tag k="name" v="Snarvegen" />
		<tag k="ssr:date" v="2019-12-27" />
		<tag k="ssr:gruppe" v="veg" />
		<tag k="ssr:hovedgruppe" v="infrastruktur" />
		<tag k="ssr:stedsnr" v="980804" />
		<tag k="ssr:type" v="adressenavn" />
	</node>
	<node lat="61.18962618437894" lon="12.457239775943034" id="-48336">
		<tag k="name" v="Solevegen" />
		<tag k="ssr:date" v="2019-12-27" />
		<tag k="ssr:gruppe" v="veg" />
		<tag k="ssr:hovedgruppe" v="infrastruktur" />
		<tag k="ssr:stedsnr" v="980805" />
		<tag k="ssr:type" v="adressenavn" />
	</node>
	<node lat="61.129916013813684" lon="12.50613884020862" id="-48337">
		<tag k="name" v="Stampen" />
		<tag k="ssr:date" v="2019-12-27" />
		<tag k="ssr:gruppe" v="veg" />
		<tag k="ssr:hovedgruppe" v="infrastruktur" />
		<tag k="ssr:stedsnr" v="980806" />
		<tag k="ssr:type" v="adressenavn" />
	</node>
	<node lat="61.35853340985794" lon="12.244906589133576" id="-48338">
		<tag k="name" v="Stenbakkvegen" />
		<tag k="ssr:date" v="2019-12-27" />
		<tag k="ssr:gruppe" v="veg" />
		<tag k="ssr:hovedgruppe" v="infrastruktur" />
		<tag k="ssr:stedsnr" v="980807" />
		<tag k="ssr:type" v="adressenavn" />
	</node>
	<node lat="61.132557256299094" lon="11.974003609433053" id="-48339">
		<tag k="name" v="Stenbergvegen" />
		<tag k="ssr:date" v="2019-12-27" />
		<tag k="ssr:gruppe" v="veg" />
		<tag k="ssr:hovedgruppe" v="infrastruktur" />
		<tag k="ssr:stedsnr" v="980808" />
		<tag k="ssr:type" v="adressenavn" />
	</node>
	<node lat="61.35400011337399" lon="12.244844168236735" id="-48340">
		<tag k="name" v="Stenfloåsen" />
		<tag k="ssr:date" v="2019-12-27" />
		<tag k="ssr:gruppe" v="veg" />
		<tag k="ssr:hovedgruppe" v="infrastruktur" />
		<tag k="ssr:stedsnr" v="980809" />
		<tag k="ssr:type" v="adressenavn" />
	</node>
	<node lat="61.256122449802554" lon="12.812216112428175" id="-48341">
		<tag k="name" v="Støavegen" />
		<tag k="ssr:date" v="2019-12-27" />
		<tag k="ssr:gruppe" v="veg" />
		<tag k="ssr:hovedgruppe" v="infrastruktur" />
		<tag k="ssr:stedsnr" v="980810" />
		<tag k="ssr:type" v="adressenavn" />
	</node>
	<node lat="61.23744344654947" lon="12.760271932267953" id="-48342">
		<tag k="name" v="Støsætervegen" />
		<tag k="ssr:date" v="2019-12-27" />
		<tag k="ssr:gruppe" v="veg" />
		<tag k="ssr:hovedgruppe" v="infrastruktur" />
		<tag k="ssr:stedsnr" v="980811" />
		<tag k="ssr:type" v="adressenavn" />
	</node>
	<node lat="61.57582742213234" lon="12.190692770216717" id="-48343">
		<tag k="name" v="Støtrisvegen" />
		<tag k="ssr:date" v="2019-12-27" />
		<tag k="ssr:gruppe" v="veg" />
		<tag k="ssr:hovedgruppe" v="infrastruktur" />
		<tag k="ssr:stedsnr" v="980812" />
		<tag k="ssr:type" v="adressenavn" />
	</node>
	<node lat="61.63045300763901" lon="11.863276536955075" id="-48344">
		<tag k="name" v="Søndre Øybekken" />
		<tag k="ssr:date" v="2019-12-27" />
		<tag k="ssr:gruppe" v="veg" />
		<tag k="ssr:hovedgruppe" v="infrastruktur" />
		<tag k="ssr:stedsnr" v="980813" />
		<tag k="ssr:type" v="adressenavn" />
	</node>
	<node lat="61.19290973632217" lon="11.858917375938493" id="-48345">
		<tag k="name" v="Sønsthagen" />
		<tag k="ssr:date" v="2019-12-27" />
		<tag k="ssr:gruppe" v="veg" />
		<tag k="ssr:hovedgruppe" v="infrastruktur" />
		<tag k="ssr:stedsnr" v="980814" />
		<tag k="ssr:type" v="adressenavn" />
	</node>
	<node lat="61.30672888892917" lon="12.239125540305615" id="-48346">
		<tag k="name" v="Torggata" />
		<tag k="ssr:date" v="2019-12-27" />
		<tag k="ssr:gruppe" v="veg" />
		<tag k="ssr:hovedgruppe" v="infrastruktur" />
		<tag k="ssr:stedsnr" v="980815" />
		<tag k="ssr:type" v="adressenavn" />
	</node>
	<node lat="61.28761404725517" lon="12.21826732387788" id="-48347">
		<tag k="name" v="Trysilfjellvegen" />
		<tag k="ssr:date" v="2019-12-27" />
		<tag k="ssr:gruppe" v="veg" />
		<tag k="ssr:hovedgruppe" v="infrastruktur" />
		<tag k="ssr:stedsnr" v="980816" />
		<tag k="ssr:type" v="adressenavn" />
	</node>
	<node lat="61.056006362721654" lon="11.949751568408029" id="-48348">
		<tag k="name" v="Trysilvegen" />
		<tag k="ssr:date" v="2019-12-27" />
		<tag k="ssr:gruppe" v="veg" />
		<tag k="ssr:hovedgruppe" v="infrastruktur" />
		<tag k="ssr:stedsnr" v="980817" />
		<tag k="ssr:type" v="adressenavn" />
	</node>
	<node lat="61.305909942318145" lon="12.240797202671533" id="-48349">
		<tag k="name" v="Vikinggrenda" />
		<tag k="ssr:date" v="2019-12-27" />
		<tag k="ssr:gruppe" v="veg" />
		<tag k="ssr:hovedgruppe" v="infrastruktur" />
		<tag k="ssr:stedsnr" v="980818" />
		<tag k="ssr:type" v="adressenavn" />
	</node>
	<node lat="61.306227357667886" lon="12.242536512340555" id="-48350">
		<tag k="name" v="Vikingvegen" />
		<tag k="ssr:date" v="2019-12-27" />
		<tag k="ssr:gruppe" v="veg" />
		<tag k="ssr:hovedgruppe" v="infrastruktur" />
		<tag k="ssr:stedsnr" v="980819" />
		<tag k="ssr:type" v="adressenavn" />
	</node>
	<node lat="61.26141267352695" lon="12.499334189984992" id="-48351">
		<tag k="name" v="Østre Trysilvegen" />
		<tag k="ssr:date" v="2019-12-27" />
		<tag k="ssr:gruppe" v="veg" />
		<tag k="ssr:hovedgruppe" v="infrastruktur" />
		<tag k="ssr:stedsnr" v="980820" />
		<tag k="ssr:type" v="adressenavn" />
	</node>
	<node lat="61.301325951607765" lon="12.261909142572925" id="-48356">
		<tag k="name" v="Desetvegen" />
		<tag k="ssr:date" v="2019-12-27" />
		<tag k="ssr:gruppe" v="veg" />
		<tag k="ssr:hovedgruppe" v="infrastruktur" />
		<tag k="ssr:stedsnr" v="1004148" />
		<tag k="ssr:type" v="adressenavn" />
	</node>
	<node lat="61.31317705310886" lon="12.269199227347743" id="-48357">
		<tag k="name" v="Antonsbakken" />
		<tag k="ssr:date" v="2019-12-27" />
		<tag k="ssr:gruppe" v="veg" />
		<tag k="ssr:hovedgruppe" v="infrastruktur" />
		<tag k="ssr:stedsnr" v="1004149" />
		<tag k="ssr:type" v="adressenavn" />
	</node>
	<node lat="61.53174439087379" lon="12.257999444122698" id="-48358">
		<tag k="name" v="Skardlivegen" />
		<tag k="ssr:date" v="2019-12-27" />
		<tag k="ssr:gruppe" v="veg" />
		<tag k="ssr:hovedgruppe" v="infrastruktur" />
		<tag k="ssr:stedsnr" v="1004022" />
		<tag k="ssr:type" v="adressenavn" />
	</node>
	<node lat="61.527553251022574" lon="12.254747026905697" id="-48359">
		<tag k="name" v="Elgshøvegen" />
		<tag k="ssr:date" v="2019-12-27" />
		<tag k="ssr:gruppe" v="veg" />
		<tag k="ssr:hovedgruppe" v="infrastruktur" />
		<tag k="ssr:stedsnr" v="1004023" />
		<tag k="ssr:type" v="adressenavn" />
	</node>
	<node lat="61.49253247602202" lon="11.89287696514091" id="-48360">
		<tag k="name" v="Lågfjellet" />
		<tag k="ssr:date" v="2019-12-27" />
		<tag k="ssr:gruppe" v="veg" />
		<tag k="ssr:hovedgruppe" v="infrastruktur" />
		<tag k="ssr:stedsnr" v="1004024" />
		<tag k="ssr:type" v="adressenavn" />
	</node>
	<node lat="61.49379931994191" lon="11.909413126874197" id="-48361">
		<tag k="name" v="Trysilknuts fjellsenter" />
		<tag k="ssr:date" v="2019-12-27" />
		<tag k="ssr:gruppe" v="veg" />
		<tag k="ssr:hovedgruppe" v="infrastruktur" />
		<tag k="ssr:stedsnr" v="1004025" />
		<tag k="ssr:type" v="adressenavn" />
	</node>
	<node lat="61.51052478737525" lon="12.234274300071561" id="-48362">
		<tag k="name" v="Grasbekkåsen" />
		<tag k="ssr:date" v="2019-12-27" />
		<tag k="ssr:gruppe" v="veg" />
		<tag k="ssr:hovedgruppe" v="infrastruktur" />
		<tag k="ssr:stedsnr" v="1004026" />
		<tag k="ssr:type" v="adressenavn" />
	</node>
	<node lat="61.19807170410652" lon="11.887998263325938" id="-48363">
		<tag k="name" v="Hammeren hytteområde" />
		<tag k="ssr:date" v="2019-12-27" />
		<tag k="ssr:gruppe" v="veg" />
		<tag k="ssr:hovedgruppe" v="infrastruktur" />
		<tag k="ssr:stedsnr" v="1004030" />
		<tag k="ssr:type" v="adressenavn" />
	</node>
	<node lat="61.473956633490644" lon="11.97333997760648" id="-48364">
		<tag k="name" v="Røsjøvegen" />
		<tag k="ssr:date" v="2019-12-27" />
		<tag k="ssr:gruppe" v="veg" />
		<tag k="ssr:hovedgruppe" v="infrastruktur" />
		<tag k="ssr:stedsnr" v="1004032" />
		<tag k="ssr:type" v="adressenavn" />
	</node>
	<node lat="61.47465876842339" lon="11.964789423127094" id="-48365">
		<tag k="name" v="Fjellverden Øst" />
		<tag k="ssr:date" v="2019-12-27" />
		<tag k="ssr:gruppe" v="veg" />
		<tag k="ssr:hovedgruppe" v="infrastruktur" />
		<tag k="ssr:stedsnr" v="1004034" />
		<tag k="ssr:type" v="adressenavn" />
	</node>
	<node lat="61.47815445960723" lon="11.971367857981264" id="-48366">
		<tag k="name" v="Embret Bjørnsens veg" />
		<tag k="ssr:date" v="2019-12-27" />
		<tag k="ssr:gruppe" v="veg" />
		<tag k="ssr:hovedgruppe" v="infrastruktur" />
		<tag k="ssr:stedsnr" v="1004038" />
		<tag k="ssr:type" v="adressenavn" />
	</node>
	<node lat="61.11298029762764" lon="11.99110314668541" id="-48367">
		<tag k="name" v="Østenheden" />
		<tag k="ssr:date" v="2019-12-27" />
		<tag k="ssr:gruppe" v="veg" />
		<tag k="ssr:hovedgruppe" v="infrastruktur" />
		<tag k="ssr:stedsnr" v="1004039" />
		<tag k="ssr:type" v="adressenavn" />
	</node>
	<node lat="61.16486866769008" lon="11.933745019077467" id="-48368">
		<tag k="name" v="Røbuknappen hytteområde" />
		<tag k="ssr:date" v="2019-12-27" />
		<tag k="ssr:gruppe" v="veg" />
		<tag k="ssr:hovedgruppe" v="infrastruktur" />
		<tag k="ssr:stedsnr" v="1004041" />
		<tag k="ssr:type" v="adressenavn" />
	</node>
	<node lat="61.20862005631112" lon="11.889159481893058" id="-48369">
		<tag k="name" v="Lektningsmoen hytteområde" />
		<tag k="ssr:date" v="2019-12-27" />
		<tag k="ssr:gruppe" v="veg" />
		<tag k="ssr:hovedgruppe" v="infrastruktur" />
		<tag k="ssr:stedsnr" v="1004042" />
		<tag k="ssr:type" v="adressenavn" />
	</node>
	<node lat="61.153102764715165" lon="11.943076719228662" id="-48370">
		<tag k="name" v="Gresgarn hyttegrend" />
		<tag k="ssr:date" v="2019-12-27" />
		<tag k="ssr:gruppe" v="veg" />
		<tag k="ssr:hovedgruppe" v="infrastruktur" />
		<tag k="ssr:stedsnr" v="1004043" />
		<tag k="ssr:type" v="adressenavn" />
	</node>
	<node lat="61.383245511777474" lon="12.712705578837944" id="-48371">
		<tag k="name" v="Stortjønnteigen hytteområde" />
		<tag k="ssr:date" v="2019-12-27" />
		<tag k="ssr:gruppe" v="veg" />
		<tag k="ssr:hovedgruppe" v="infrastruktur" />
		<tag k="ssr:stedsnr" v="1004045" />
		<tag k="ssr:type" v="adressenavn" />
	</node>
	<node lat="61.10662050852031" lon="11.992813118855638" id="-48372">
		<tag k="name" v="Sameia hytteområde" />
		<tag k="ssr:date" v="2019-12-27" />
		<tag k="ssr:gruppe" v="veg" />
		<tag k="ssr:hovedgruppe" v="infrastruktur" />
		<tag k="ssr:stedsnr" v="1004046" />
		<tag k="ssr:type" v="adressenavn" />
	</node>
	<node lat="61.102586218592066" lon="11.999502196406834" id="-48373">
		<tag k="name" v="Brendens hytteområde" />
		<tag k="ssr:date" v="2019-12-27" />
		<tag k="ssr:gruppe" v="veg" />
		<tag k="ssr:hovedgruppe" v="infrastruktur" />
		<tag k="ssr:stedsnr" v="1004048" />
		<tag k="ssr:type" v="adressenavn" />
	</node>
	<node lat="61.11417990738426" lon="11.98814402044407" id="-48374">
		<tag k="name" v="Osensjøen hyttegrend" />
		<tag k="ssr:date" v="2019-12-27" />
		<tag k="ssr:gruppe" v="veg" />
		<tag k="ssr:hovedgruppe" v="infrastruktur" />
		<tag k="ssr:stedsnr" v="1004049" />
		<tag k="ssr:type" v="adressenavn" />
	</node>
	<node lat="61.40222881960083" lon="12.648724363789963" id="-48375">
		<tag k="name" v="Kvernåa hytteområde" />
		<tag k="ssr:date" v="2019-12-27" />
		<tag k="ssr:gruppe" v="veg" />
		<tag k="ssr:hovedgruppe" v="infrastruktur" />
		<tag k="ssr:stedsnr" v="1004050" />
		<tag k="ssr:type" v="adressenavn" />
	</node>
	<node lat="61.39114002561166" lon="12.69790452716265" id="-48376">
		<tag k="name" v="Hoelskogen" />
		<tag k="ssr:date" v="2019-12-27" />
		<tag k="ssr:gruppe" v="veg" />
		<tag k="ssr:hovedgruppe" v="infrastruktur" />
		<tag k="ssr:stedsnr" v="1004051" />
		<tag k="ssr:type" v="adressenavn" />
	</node>
	<node lat="61.38527206569107" lon="12.700212650257914" id="-48377">
		<tag k="name" v="Brattegga hytteområde" />
		<tag k="ssr:date" v="2019-12-27" />
		<tag k="ssr:gruppe" v="veg" />
		<tag k="ssr:hovedgruppe" v="infrastruktur" />
		<tag k="ssr:stedsnr" v="1004053" />
		<tag k="ssr:type" v="adressenavn" />
	</node>
	<node lat="61.39524559584878" lon="12.756912595808767" id="-48378">
		<tag k="name" v="Fulufjellet hytteområde" />
		<tag k="ssr:date" v="2019-12-27" />
		<tag k="ssr:gruppe" v="veg" />
		<tag k="ssr:hovedgruppe" v="infrastruktur" />
		<tag k="ssr:stedsnr" v="1004055" />
		<tag k="ssr:type" v="adressenavn" />
	</node>
	<node lat="61.60742953805101" lon="12.063609078719498" id="-48379">
		<tag k="name" v="Røsætervegen" />
		<tag k="ssr:date" v="2019-12-27" />
		<tag k="ssr:gruppe" v="veg" />
		<tag k="ssr:hovedgruppe" v="infrastruktur" />
		<tag k="ssr:stedsnr" v="1004056" />
		<tag k="ssr:type" v="adressenavn" />
	</node>
	<node lat="61.314574638029356" lon="12.615588593779128" id="-48380">
		<tag k="name" v="Ryskdalen hytteområde" />
		<tag k="ssr:date" v="2019-12-27" />
		<tag k="ssr:gruppe" v="veg" />
		<tag k="ssr:hovedgruppe" v="infrastruktur" />
		<tag k="ssr:stedsnr" v="1004058" />
		<tag k="ssr:type" v="adressenavn" />
	</node>
	<node lat="61.3269038248209" lon="12.577188865862045" id="-48381">
		<tag k="name" v="Solberglia hytteområde" />
		<tag k="ssr:date" v="2019-12-27" />
		<tag k="ssr:gruppe" v="veg" />
		<tag k="ssr:hovedgruppe" v="infrastruktur" />
		<tag k="ssr:stedsnr" v="1004059" />
		<tag k="ssr:type" v="adressenavn" />
	</node>
	<node lat="61.22548184737068" lon="12.703124155766885" id="-48382">
		<tag k="name" v="Bjønnbekkmora hytteområde" />
		<tag k="ssr:date" v="2019-12-27" />
		<tag k="ssr:gruppe" v="veg" />
		<tag k="ssr:hovedgruppe" v="infrastruktur" />
		<tag k="ssr:stedsnr" v="1004062" />
		<tag k="ssr:type" v="adressenavn" />
	</node>
	<node lat="61.32465214103761" lon="12.268897657202027" id="-48383">
		<tag k="name" v="Nordbergsvegen" />
		<tag k="ssr:date" v="2019-12-27" />
		<tag k="ssr:gruppe" v="veg" />
		<tag k="ssr:hovedgruppe" v="infrastruktur" />
		<tag k="ssr:stedsnr" v="1004066" />
		<tag k="ssr:type" v="adressenavn" />
	</node>
	<node lat="61.25038926065957" lon="11.998638947303885" id="-48384">
		<tag k="name" v="Tallåssætervegen" />
		<tag k="ssr:date" v="2019-12-27" />
		<tag k="ssr:gruppe" v="veg" />
		<tag k="ssr:hovedgruppe" v="infrastruktur" />
		<tag k="ssr:stedsnr" v="1004067" />
		<tag k="ssr:type" v="adressenavn" />
	</node>
	<node lat="61.151515511934" lon="12.550780243797385" id="-48385">
		<tag k="name" v="Åsavegen" />
		<tag k="ssr:date" v="2019-12-27" />
		<tag k="ssr:gruppe" v="veg" />
		<tag k="ssr:hovedgruppe" v="infrastruktur" />
		<tag k="ssr:stedsnr" v="1003903" />
		<tag k="ssr:type" v="adressenavn" />
	</node>
	<node lat="61.296869554445784" lon="12.242213418653924" id="-48386">
		<tag k="name" v="Golfvegen" />
		<tag k="ssr:date" v="2019-12-27" />
		<tag k="ssr:gruppe" v="veg" />
		<tag k="ssr:hovedgruppe" v="infrastruktur" />
		<tag k="ssr:stedsnr" v="1003991" />
		<tag k="ssr:type" v="adressenavn" />
	</node>
	<node lat="61.3265005858351" lon="12.144967884381893" id="-48387">
		<tag k="name" v="Juuls veg" />
		<tag k="ssr:date" v="2019-12-27" />
		<tag k="ssr:gruppe" v="veg" />
		<tag k="ssr:hovedgruppe" v="infrastruktur" />
		<tag k="ssr:stedsnr" v="1003992" />
		<tag k="ssr:type" v="adressenavn" />
	</node>
	<node lat="61.32550740678012" lon="12.143786426307248" id="-48388">
		<tag k="name" v="Ingvalds veg" />
		<tag k="ssr:date" v="2019-12-27" />
		<tag k="ssr:gruppe" v="veg" />
		<tag k="ssr:hovedgruppe" v="infrastruktur" />
		<tag k="ssr:stedsnr" v="1003993" />
		<tag k="ssr:type" v="adressenavn" />
	</node>
	<node lat="61.324322894259616" lon="12.141304657859651" id="-48389">
		<tag k="name" v="Kjells veg" />
		<tag k="ssr:date" v="2019-12-27" />
		<tag k="ssr:gruppe" v="veg" />
		<tag k="ssr:hovedgruppe" v="infrastruktur" />
		<tag k="ssr:stedsnr" v="1003995" />
		<tag k="ssr:type" v="adressenavn" />
	</node>
	<node lat="61.30226473638627" lon="12.23508841547932" id="-48390">
		<tag k="name" v="Storstenvegen" />
		<tag k="ssr:date" v="2019-12-27" />
		<tag k="ssr:gruppe" v="veg" />
		<tag k="ssr:hovedgruppe" v="infrastruktur" />
		<tag k="ssr:stedsnr" v="1003996" />
		<tag k="ssr:type" v="adressenavn" />
	</node>
	<node lat="61.32909544450327" lon="12.148233027283576" id="-48391">
		<tag k="name" v="Fageråsringen" />
		<tag k="ssr:date" v="2019-12-27" />
		<tag k="ssr:gruppe" v="veg" />
		<tag k="ssr:hovedgruppe" v="infrastruktur" />
		<tag k="ssr:stedsnr" v="1003999" />
		<tag k="ssr:type" v="adressenavn" />
	</node>
	<node lat="61.253890650832" lon="12.115975674461566" id="-48392">
		<tag k="name" v="Trysilsætra" />
		<tag k="ssr:date" v="2019-12-27" />
		<tag k="ssr:gruppe" v="veg" />
		<tag k="ssr:hovedgruppe" v="infrastruktur" />
		<tag k="ssr:stedsnr" v="1004001" />
		<tag k="ssr:type" v="adressenavn" />
	</node>
	<node lat="61.48079209562888" lon="11.945091421025962" id="-48393">
		<tag k="name" v="Fjellmora hytteområde" />
		<tag k="ssr:date" v="2022-04-07" />
		<tag k="ssr:gruppe" v="veg" />
		<tag k="ssr:hovedgruppe" v="infrastruktur" />
		<tag k="ssr:stedsnr" v="1004003" />
		<tag k="ssr:type" v="adressenavn" />
	</node>
	<node lat="61.32189536872752" lon="12.494229953391676" id="-48394">
		<tag k="name" v="Grønbergsvegen" />
		<tag k="ssr:date" v="2019-12-27" />
		<tag k="ssr:gruppe" v="veg" />
		<tag k="ssr:hovedgruppe" v="infrastruktur" />
		<tag k="ssr:stedsnr" v="1004004" />
		<tag k="ssr:type" v="adressenavn" />
	</node>
	<node lat="61.32591698367316" lon="12.564127975351616" id="-48395">
		<tag k="name" v="Solberglivegen" />
		<tag k="ssr:date" v="2019-12-27" />
		<tag k="ssr:gruppe" v="veg" />
		<tag k="ssr:hovedgruppe" v="infrastruktur" />
		<tag k="ssr:stedsnr" v="1004005" />
		<tag k="ssr:type" v="adressenavn" />
	</node>
	<node lat="61.31345318119277" lon="12.617844842754876" id="-48396">
		<tag k="name" v="Ryskbergvegen" />
		<tag k="ssr:date" v="2019-12-27" />
		<tag k="ssr:gruppe" v="veg" />
		<tag k="ssr:hovedgruppe" v="infrastruktur" />
		<tag k="ssr:stedsnr" v="1004007" />
		<tag k="ssr:type" v="adressenavn" />
	</node>
	<node lat="61.28689248756905" lon="12.221562542234256" id="-48397">
		<tag k="name" v="Mosætervegen" />
		<tag k="ssr:date" v="2019-12-27" />
		<tag k="ssr:gruppe" v="veg" />
		<tag k="ssr:hovedgruppe" v="infrastruktur" />
		<tag k="ssr:stedsnr" v="1004008" />
		<tag k="ssr:type" v="adressenavn" />
	</node>
	<node lat="61.278282060468875" lon="12.232701118979977" id="-48398">
		<tag k="name" v="Trysilfjell hytteområde" />
		<tag k="ssr:date" v="2019-12-27" />
		<tag k="ssr:gruppe" v="veg" />
		<tag k="ssr:hovedgruppe" v="infrastruktur" />
		<tag k="ssr:stedsnr" v="1004009" />
		<tag k="ssr:type" v="adressenavn" />
	</node>
	<node lat="61.2894139974574" lon="12.203448710123254" id="-48399">
		<tag k="name" v="Håvi Solsiden" />
		<tag k="ssr:date" v="2019-12-27" />
		<tag k="ssr:gruppe" v="veg" />
		<tag k="ssr:hovedgruppe" v="infrastruktur" />
		<tag k="ssr:stedsnr" v="1004011" />
		<tag k="ssr:type" v="adressenavn" />
	</node>
	<node lat="61.28938845546098" lon="12.207664849602168" id="-48400">
		<tag k="name" v="Kubekksætervegen" />
		<tag k="ssr:date" v="2019-12-27" />
		<tag k="ssr:gruppe" v="veg" />
		<tag k="ssr:hovedgruppe" v="infrastruktur" />
		<tag k="ssr:stedsnr" v="1004012" />
		<tag k="ssr:type" v="adressenavn" />
	</node>
	<node lat="61.13719383329007" lon="12.50280072059412" id="-48401">
		<tag k="name" v="Grønengvegen" />
		<tag k="ssr:date" v="2019-12-27" />
		<tag k="ssr:gruppe" v="veg" />
		<tag k="ssr:hovedgruppe" v="infrastruktur" />
		<tag k="ssr:stedsnr" v="1004013" />
		<tag k="ssr:type" v="adressenavn" />
	</node>
	<node lat="61.32275480019476" lon="12.15255517425852" id="-48402">
		<tag k="name" v="Fageråsen" />
		<tag k="ssr:date" v="2019-12-27" />
		<tag k="ssr:gruppe" v="veg" />
		<tag k="ssr:hovedgruppe" v="infrastruktur" />
		<tag k="ssr:stedsnr" v="1004018" />
		<tag k="ssr:type" v="adressenavn" />
	</node>
	<node lat="61.53088804060057" lon="12.201905014182815" id="-48403">
		<tag k="name" v="Gnolla" />
		<tag k="ssr:date" v="2019-12-27" />
		<tag k="ssr:gruppe" v="veg" />
		<tag k="ssr:hovedgruppe" v="infrastruktur" />
		<tag k="ssr:stedsnr" v="1004019" />
		<tag k="ssr:type" v="adressenavn" />
	</node>
	<node lat="61.538328182588195" lon="12.256365132483488" id="-48404">
		<tag k="name" v="Rundhøvegen" />
		<tag k="ssr:date" v="2019-12-27" />
		<tag k="ssr:gruppe" v="veg" />
		<tag k="ssr:hovedgruppe" v="infrastruktur" />
		<tag k="ssr:stedsnr" v="1004020" />
		<tag k="ssr:type" v="adressenavn" />
	</node>
	<node lat="61.17530250234464" lon="12.153692815542463" id="-48405">
		<tag k="name" v="Mortensvegen" />
		<tag k="ssr:date" v="2019-12-27" />
		<tag k="ssr:gruppe" v="veg" />
		<tag k="ssr:hovedgruppe" v="infrastruktur" />
		<tag k="ssr:stedsnr" v="1004105" />
		<tag k="ssr:type" v="adressenavn" />
	</node>
	<node lat="61.30920410632645" lon="12.249178142958836" id="-48406">
		<tag k="name" v="Fjellvangvegen" />
		<tag k="ssr:date" v="2019-12-27" />
		<tag k="ssr:gruppe" v="veg" />
		<tag k="ssr:hovedgruppe" v="infrastruktur" />
		<tag k="ssr:stedsnr" v="1004111" />
		<tag k="ssr:type" v="adressenavn" />
	</node>
	<node lat="61.294070805701715" lon="12.27070652922018" id="-48407">
		<tag k="name" v="Vestmovegen" />
		<tag k="ssr:date" v="2019-12-27" />
		<tag k="ssr:gruppe" v="veg" />
		<tag k="ssr:hovedgruppe" v="infrastruktur" />
		<tag k="ssr:stedsnr" v="1004113" />
		<tag k="ssr:type" v="adressenavn" />
	</node>
	<node lat="61.254646890836646" lon="12.52154493425013" id="-48408">
		<tag k="name" v="Dalborgvegen" />
		<tag k="ssr:date" v="2019-12-27" />
		<tag k="ssr:gruppe" v="veg" />
		<tag k="ssr:hovedgruppe" v="infrastruktur" />
		<tag k="ssr:stedsnr" v="1004116" />
		<tag k="ssr:type" v="adressenavn" />
	</node>
	<node lat="61.255978290452276" lon="12.529729360819644" id="-48409">
		<tag k="name" v="Stangkjølvegen" />
		<tag k="ssr:date" v="2019-12-27" />
		<tag k="ssr:gruppe" v="veg" />
		<tag k="ssr:hovedgruppe" v="infrastruktur" />
		<tag k="ssr:stedsnr" v="1004119" />
		<tag k="ssr:type" v="adressenavn" />
	</node>
	<node lat="61.30014532156091" lon="12.28078110568428" id="-48410">
		<tag k="name" v="Steggfallet" />
		<tag k="ssr:date" v="2019-12-27" />
		<tag k="ssr:gruppe" v="veg" />
		<tag k="ssr:hovedgruppe" v="infrastruktur" />
		<tag k="ssr:stedsnr" v="1004153" />
		<tag k="ssr:type" v="adressenavn" />
	</node>
	<node lat="61.24992154472696" lon="12.029907047649502" id="-48411">
		<tag k="name" v="Gobakkvegen" />
		<tag k="ssr:date" v="2019-12-27" />
		<tag k="ssr:gruppe" v="veg" />
		<tag k="ssr:hovedgruppe" v="infrastruktur" />
		<tag k="ssr:stedsnr" v="1004170" />
		<tag k="ssr:type" v="adressenavn" />
	</node>
	<node lat="61.32289062325762" lon="12.259644483415792" id="-48412">
		<tag k="name" v="Nystedsvingen" />
		<tag k="ssr:date" v="2019-12-27" />
		<tag k="ssr:gruppe" v="veg" />
		<tag k="ssr:hovedgruppe" v="infrastruktur" />
		<tag k="ssr:stedsnr" v="1004798" />
		<tag k="ssr:type" v="adressenavn" />
	</node>
	<node lat="61.31182216272011" lon="12.270079812258436" id="-48413">
		<tag k="name" v="Liavegen" />
		<tag k="ssr:date" v="2019-12-27" />
		<tag k="ssr:gruppe" v="veg" />
		<tag k="ssr:hovedgruppe" v="infrastruktur" />
		<tag k="ssr:stedsnr" v="1004802" />
		<tag k="ssr:type" v="adressenavn" />
	</node>
	<node lat="61.31431754038737" lon="12.270285178777641" id="-48414">
		<tag k="name" v="Lundevegen" />
		<tag k="ssr:date" v="2019-12-27" />
		<tag k="ssr:gruppe" v="veg" />
		<tag k="ssr:hovedgruppe" v="infrastruktur" />
		<tag k="ssr:stedsnr" v="1004807" />
		<tag k="ssr:type" v="adressenavn" />
	</node>
	<node lat="61.31414466548272" lon="12.264891582856729" id="-48415">
		<tag k="name" v="Løkjavegen" />
		<tag k="ssr:date" v="2019-12-27" />
		<tag k="ssr:gruppe" v="veg" />
		<tag k="ssr:hovedgruppe" v="infrastruktur" />
		<tag k="ssr:stedsnr" v="1004810" />
		<tag k="ssr:type" v="adressenavn" />
	</node>
	<node lat="61.30482359026397" lon="12.257598514333738" id="-48416">
		<tag k="name" v="Mobakken" />
		<tag k="ssr:date" v="2019-12-27" />
		<tag k="ssr:gruppe" v="veg" />
		<tag k="ssr:hovedgruppe" v="infrastruktur" />
		<tag k="ssr:stedsnr" v="1004813" />
		<tag k="ssr:type" v="adressenavn" />
	</node>
	<node lat="61.254717254258026" lon="12.523724552699331" id="-48417">
		<tag k="name" v="Villavegen" />
		<tag k="ssr:date" v="2019-12-27" />
		<tag k="ssr:gruppe" v="veg" />
		<tag k="ssr:hovedgruppe" v="infrastruktur" />
		<tag k="ssr:stedsnr" v="1005041" />
		<tag k="ssr:type" v="adressenavn" />
	</node>
	<node lat="61.30757491803468" lon="12.260552245457093" id="-48418">
		<tag k="name" v="Smestadjordet" />
		<tag k="ssr:date" v="2019-12-27" />
		<tag k="ssr:gruppe" v="veg" />
		<tag k="ssr:hovedgruppe" v="infrastruktur" />
		<tag k="ssr:stedsnr" v="1004759" />
		<tag k="ssr:type" v="adressenavn" />
	</node>
	<node lat="61.323225664500335" lon="12.267889584091085" id="-48419">
		<tag k="name" v="Stensethvegen" />
		<tag k="ssr:date" v="2019-12-27" />
		<tag k="ssr:gruppe" v="veg" />
		<tag k="ssr:hovedgruppe" v="infrastruktur" />
		<tag k="ssr:stedsnr" v="1004763" />
		<tag k="ssr:type" v="adressenavn" />
	</node>
	<node lat="61.30851232906878" lon="12.27250812811194" id="-48420">
		<tag k="name" v="Storvegen" />
		<tag k="ssr:date" v="2019-12-27" />
		<tag k="ssr:gruppe" v="veg" />
		<tag k="ssr:hovedgruppe" v="infrastruktur" />
		<tag k="ssr:stedsnr" v="1004765" />
		<tag k="ssr:type" v="adressenavn" />
	</node>
	<node lat="61.306773964087576" lon="12.251850125628101" id="-48421">
		<tag k="name" v="Tyristubben" />
		<tag k="ssr:date" v="2019-12-27" />
		<tag k="ssr:gruppe" v="veg" />
		<tag k="ssr:hovedgruppe" v="infrastruktur" />
		<tag k="ssr:stedsnr" v="1004768" />
		<tag k="ssr:type" v="adressenavn" />
	</node>
	<node lat="61.30559624982479" lon="12.25221234307334" id="-48422">
		<tag k="name" v="Rustmyrvegen" />
		<tag k="ssr:date" v="2019-12-27" />
		<tag k="ssr:gruppe" v="veg" />
		<tag k="ssr:hovedgruppe" v="infrastruktur" />
		<tag k="ssr:stedsnr" v="1004771" />
		<tag k="ssr:type" v="adressenavn" />
	</node>
	<node lat="61.319519029787784" lon="12.266939746155167" id="-48423">
		<tag k="name" v="Haugavegen" />
		<tag k="ssr:date" v="2019-12-27" />
		<tag k="ssr:gruppe" v="veg" />
		<tag k="ssr:hovedgruppe" v="infrastruktur" />
		<tag k="ssr:stedsnr" v="1004834" />
		<tag k="ssr:type" v="adressenavn" />
	</node>
	<node lat="61.303430643588705" lon="12.258347828511473" id="-48424">
		<tag k="name" v="Høgeggvegen" />
		<tag k="ssr:date" v="2019-12-27" />
		<tag k="ssr:gruppe" v="veg" />
		<tag k="ssr:hovedgruppe" v="infrastruktur" />
		<tag k="ssr:stedsnr" v="1004838" />
		<tag k="ssr:type" v="adressenavn" />
	</node>
	<node lat="61.31700639812211" lon="12.254070243848583" id="-48425">
		<tag k="name" v="Kilebanen" />
		<tag k="ssr:date" v="2019-12-27" />
		<tag k="ssr:gruppe" v="veg" />
		<tag k="ssr:hovedgruppe" v="infrastruktur" />
		<tag k="ssr:stedsnr" v="1004841" />
		<tag k="ssr:type" v="adressenavn" />
	</node>
	<node lat="61.31077149446698" lon="12.270918937144202" id="-48426">
		<tag k="name" v="Gamlevegen" />
		<tag k="ssr:date" v="2019-12-27" />
		<tag k="ssr:gruppe" v="veg" />
		<tag k="ssr:hovedgruppe" v="infrastruktur" />
		<tag k="ssr:stedsnr" v="1004846" />
		<tag k="ssr:type" v="adressenavn" />
	</node>
	<node lat="61.30847104917604" lon="12.252551352468107" id="-48427">
		<tag k="name" v="Granlysvingen" />
		<tag k="ssr:date" v="2019-12-27" />
		<tag k="ssr:gruppe" v="veg" />
		<tag k="ssr:hovedgruppe" v="infrastruktur" />
		<tag k="ssr:stedsnr" v="1004849" />
		<tag k="ssr:type" v="adressenavn" />
	</node>
	<node lat="61.32053994920979" lon="12.262726112987384" id="-48428">
		<tag k="name" v="Grindbakken" />
		<tag k="ssr:date" v="2019-12-27" />
		<tag k="ssr:gruppe" v="veg" />
		<tag k="ssr:hovedgruppe" v="infrastruktur" />
		<tag k="ssr:stedsnr" v="1004852" />
		<tag k="ssr:type" v="adressenavn" />
	</node>
	<node lat="61.32318522809587" lon="12.267844519509206" id="-48429">
		<tag k="name" v="Grindbekkvegen" />
		<tag k="ssr:date" v="2019-12-27" />
		<tag k="ssr:gruppe" v="veg" />
		<tag k="ssr:hovedgruppe" v="infrastruktur" />
		<tag k="ssr:stedsnr" v="1004856" />
		<tag k="ssr:type" v="adressenavn" />
	</node>
	<node lat="61.32208454841258" lon="12.260742854076609" id="-48430">
		<tag k="name" v="Buskvegen" />
		<tag k="ssr:date" v="2019-12-27" />
		<tag k="ssr:gruppe" v="veg" />
		<tag k="ssr:hovedgruppe" v="infrastruktur" />
		<tag k="ssr:stedsnr" v="1004862" />
		<tag k="ssr:type" v="adressenavn" />
	</node>
	<node lat="61.3062145465343" lon="12.249674985401004" id="-48431">
		<tag k="name" v="Enervegen" />
		<tag k="ssr:date" v="2019-12-27" />
		<tag k="ssr:gruppe" v="veg" />
		<tag k="ssr:hovedgruppe" v="infrastruktur" />
		<tag k="ssr:stedsnr" v="1004867" />
		<tag k="ssr:type" v="adressenavn" />
	</node>
	<node lat="61.31363718010366" lon="12.264408329314175" id="-48432">
		<tag k="name" v="Størksvegen" />
		<tag k="ssr:date" v="2019-12-27" />
		<tag k="ssr:gruppe" v="veg" />
		<tag k="ssr:hovedgruppe" v="infrastruktur" />
		<tag k="ssr:stedsnr" v="1005075" />
		<tag k="ssr:type" v="adressenavn" />
	</node>
	<node lat="61.25828990168614" lon="12.327962515828487" id="-48433">
		<tag k="name" v="Movegen" />
		<tag k="ssr:date" v="2019-12-27" />
		<tag k="ssr:gruppe" v="veg" />
		<tag k="ssr:hovedgruppe" v="infrastruktur" />
		<tag k="ssr:stedsnr" v="1005078" />
		<tag k="ssr:type" v="adressenavn" />
	</node>
	<node lat="61.257892876041375" lon="12.327521199474914" id="-48434">
		<tag k="name" v="Nymovegen" />
		<tag k="ssr:date" v="2019-12-27" />
		<tag k="ssr:gruppe" v="veg" />
		<tag k="ssr:hovedgruppe" v="infrastruktur" />
		<tag k="ssr:stedsnr" v="1005084" />
		<tag k="ssr:type" v="adressenavn" />
	</node>
	<node lat="61.258607861331086" lon="12.32873565985755" id="-48435">
		<tag k="name" v="Østbakkvegen" />
		<tag k="ssr:date" v="2019-12-27" />
		<tag k="ssr:gruppe" v="veg" />
		<tag k="ssr:hovedgruppe" v="infrastruktur" />
		<tag k="ssr:stedsnr" v="1005090" />
		<tag k="ssr:type" v="adressenavn" />
	</node>
	<node lat="61.254008413446755" lon="12.52692431660912" id="-48436">
		<tag k="name" v="Ny Jord-vegen" />
		<tag k="ssr:date" v="2019-12-27" />
		<tag k="ssr:gruppe" v="veg" />
		<tag k="ssr:hovedgruppe" v="infrastruktur" />
		<tag k="ssr:stedsnr" v="1004969" />
		<tag k="ssr:type" v="adressenavn" />
	</node>
	<node lat="61.3121259781924" lon="12.268544278433277" id="-48437">
		<tag k="name" v="Sørhusjordet" />
		<tag k="ssr:date" v="2019-12-27" />
		<tag k="ssr:gruppe" v="veg" />
		<tag k="ssr:hovedgruppe" v="infrastruktur" />
		<tag k="ssr:stedsnr" v="1005050" />
		<tag k="ssr:type" v="adressenavn" />
	</node>
	<node lat="61.30360887922396" lon="12.254940131459913" id="-48438">
		<tag k="name" v="Gullarvegen" />
		<tag k="ssr:date" v="2019-12-27" />
		<tag k="ssr:gruppe" v="veg" />
		<tag k="ssr:hovedgruppe" v="infrastruktur" />
		<tag k="ssr:stedsnr" v="1005053" />
		<tag k="ssr:type" v="adressenavn" />
	</node>
	<node lat="61.30791426347215" lon="12.250372503540394" id="-48439">
		<tag k="name" v="Vestadbakkvegen" />
		<tag k="ssr:date" v="2019-12-27" />
		<tag k="ssr:gruppe" v="veg" />
		<tag k="ssr:hovedgruppe" v="infrastruktur" />
		<tag k="ssr:stedsnr" v="1005058" />
		<tag k="ssr:type" v="adressenavn" />
	</node>
	<node lat="61.25439637016878" lon="12.520743599861792" id="-48440">
		<tag k="name" v="Landsvegen" />
		<tag k="ssr:date" v="2019-12-27" />
		<tag k="ssr:gruppe" v="veg" />
		<tag k="ssr:hovedgruppe" v="infrastruktur" />
		<tag k="ssr:stedsnr" v="1005060" />
		<tag k="ssr:type" v="adressenavn" />
	</node>
	<node lat="61.30319827159991" lon="12.278003063878892" id="-48441">
		<tag k="name" v="Moensvingen" />
		<tag k="ssr:date" v="2019-12-27" />
		<tag k="ssr:gruppe" v="veg" />
		<tag k="ssr:hovedgruppe" v="infrastruktur" />
		<tag k="ssr:stedsnr" v="1005063" />
		<tag k="ssr:type" v="adressenavn" />
	</node>
	<node lat="61.30161389046879" lon="12.27877529071834" id="-48442">
		<tag k="name" v="Rypbekken" />
		<tag k="ssr:date" v="2019-12-27" />
		<tag k="ssr:gruppe" v="veg" />
		<tag k="ssr:hovedgruppe" v="infrastruktur" />
		<tag k="ssr:stedsnr" v="1005068" />
		<tag k="ssr:type" v="adressenavn" />
	</node>
	<node lat="61.26075215175396" lon="12.321218562877569" id="-48443">
		<tag k="name" v="Karlslundvegen" />
		<tag k="ssr:date" v="2019-12-27" />
		<tag k="ssr:gruppe" v="veg" />
		<tag k="ssr:hovedgruppe" v="infrastruktur" />
		<tag k="ssr:stedsnr" v="1005130" />
		<tag k="ssr:type" v="adressenavn" />
	</node>
	<node lat="61.41511571570774" lon="12.128827717037028" id="-48444">
		<tag k="name" v="Åkerlykkja" />
		<tag k="ssr:date" v="2019-12-27" />
		<tag k="ssr:gruppe" v="veg" />
		<tag k="ssr:hovedgruppe" v="infrastruktur" />
		<tag k="ssr:stedsnr" v="1005134" />
		<tag k="ssr:type" v="adressenavn" />
	</node>
	<node lat="61.26508107905758" lon="12.319559881010097" id="-48445">
		<tag k="name" v="Furuvegen" />
		<tag k="ssr:date" v="2019-12-27" />
		<tag k="ssr:gruppe" v="veg" />
		<tag k="ssr:hovedgruppe" v="infrastruktur" />
		<tag k="ssr:stedsnr" v="1005144" />
		<tag k="ssr:type" v="adressenavn" />
	</node>
	<node lat="61.42314660012473" lon="12.138223750019103" id="-48446">
		<tag k="name" v="Skogvegen" />
		<tag k="ssr:date" v="2019-12-27" />
		<tag k="ssr:gruppe" v="veg" />
		<tag k="ssr:hovedgruppe" v="infrastruktur" />
		<tag k="ssr:stedsnr" v="1005147" />
		<tag k="ssr:type" v="adressenavn" />
	</node>
	<node lat="61.42032937497671" lon="12.143112904107214" id="-48447">
		<tag k="name" v="Støengvegen" />
		<tag k="ssr:date" v="2019-12-27" />
		<tag k="ssr:gruppe" v="veg" />
		<tag k="ssr:hovedgruppe" v="infrastruktur" />
		<tag k="ssr:stedsnr" v="1005153" />
		<tag k="ssr:type" v="adressenavn" />
	</node>
	<node lat="61.421326440003824" lon="12.140867468557422" id="-48448">
		<tag k="name" v="Tybassvegen" />
		<tag k="ssr:date" v="2019-12-27" />
		<tag k="ssr:gruppe" v="veg" />
		<tag k="ssr:hovedgruppe" v="infrastruktur" />
		<tag k="ssr:stedsnr" v="1005157" />
		<tag k="ssr:type" v="adressenavn" />
	</node>
	<node lat="61.31489551418055" lon="12.25272705462752" id="-48449">
		<tag k="name" v="Vikabakken" />
		<tag k="ssr:date" v="2019-12-27" />
		<tag k="ssr:gruppe" v="veg" />
		<tag k="ssr:hovedgruppe" v="infrastruktur" />
		<tag k="ssr:stedsnr" v="1005160" />
		<tag k="ssr:type" v="adressenavn" />
	</node>
	<node lat="61.31436739022491" lon="12.254258243067259" id="-48450">
		<tag k="name" v="Vikavegen" />
		<tag k="ssr:date" v="2019-12-27" />
		<tag k="ssr:gruppe" v="veg" />
		<tag k="ssr:hovedgruppe" v="infrastruktur" />
		<tag k="ssr:stedsnr" v="1005164" />
		<tag k="ssr:type" v="adressenavn" />
	</node>
	<node lat="61.41502527693851" lon="12.13850805023281" id="-48451">
		<tag k="name" v="Gammelvegen" />
		<tag k="ssr:date" v="2019-12-27" />
		<tag k="ssr:gruppe" v="veg" />
		<tag k="ssr:hovedgruppe" v="infrastruktur" />
		<tag k="ssr:stedsnr" v="1005168" />
		<tag k="ssr:type" v="adressenavn" />
	</node>
	<node lat="61.25599643662944" lon="12.330052221087543" id="-48452">
		<tag k="name" v="Knettmovegen" />
		<tag k="ssr:date" v="2019-12-27" />
		<tag k="ssr:gruppe" v="veg" />
		<tag k="ssr:hovedgruppe" v="infrastruktur" />
		<tag k="ssr:stedsnr" v="1005096" />
		<tag k="ssr:type" v="adressenavn" />
	</node>
	<node lat="61.26075215175396" lon="12.321218562877569" id="-48453">
		<tag k="name" v="Langørvegen" />
		<tag k="ssr:date" v="2019-12-27" />
		<tag k="ssr:gruppe" v="veg" />
		<tag k="ssr:hovedgruppe" v="infrastruktur" />
		<tag k="ssr:stedsnr" v="1005103" />
		<tag k="ssr:type" v="adressenavn" />
	</node>
	<node lat="61.263244889738935" lon="12.320414103930828" id="-48454">
		<tag k="name" v="Meierivegen" />
		<tag k="ssr:date" v="2019-12-27" />
		<tag k="ssr:gruppe" v="veg" />
		<tag k="ssr:hovedgruppe" v="infrastruktur" />
		<tag k="ssr:stedsnr" v="1005107" />
		<tag k="ssr:type" v="adressenavn" />
	</node>
	<node lat="61.2648356369846" lon="12.318595045060658" id="-48455">
		<tag k="name" v="Idrettsvegen" />
		<tag k="ssr:date" v="2019-12-27" />
		<tag k="ssr:gruppe" v="veg" />
		<tag k="ssr:hovedgruppe" v="infrastruktur" />
		<tag k="ssr:stedsnr" v="1005119" />
		<tag k="ssr:type" v="adressenavn" />
	</node>
	<node lat="60.795248707246294" lon="11.082591224285064" id="-48457">
		<tag k="name" v="Innlandet fylke" />
		<tag k="ssr:date" v="2022-01-03" />
		<tag k="ssr:gruppe" v="administrativeIndelinger" />
		<tag k="ssr:hovedgruppe" v="offentligAdministrasjon" />
		<tag k="ssr:stedsnr" v="1074406" />
		<tag k="ssr:type" v="fylke" />
	</node>
	<node lat="61.324271362640374" lon="12.248040381915294" id="-48489">
		<tag k="name" v="Spjutnesvegen" />
		<tag k="ssr:date" v="2021-07-29" />
		<tag k="ssr:gruppe" v="veg" />
		<tag k="ssr:hovedgruppe" v="infrastruktur" />
		<tag k="ssr:stedsnr" v="1081823" />
		<tag k="ssr:type" v="adressenavn" />
	</node>
	<node lat="61.32465693482948" lon="12.27186084564424" id="-48490">
		<tag k="name" v="Hammerstadvegen" />
		<tag k="ssr:date" v="2021-08-12" />
		<tag k="ssr:gruppe" v="veg" />
		<tag k="ssr:hovedgruppe" v="infrastruktur" />
		<tag k="ssr:stedsnr" v="1081931" />
		<tag k="ssr:type" v="adressenavn" />
	</node>
	<node lat="61.32355073888157" lon="12.271156485001788" id="-48491">
		<tag k="name" v="Bygderberget" />
		<tag k="ssr:date" v="2021-08-12" />
		<tag k="ssr:gruppe" v="veg" />
		<tag k="ssr:hovedgruppe" v="infrastruktur" />
		<tag k="ssr:stedsnr" v="1081929" />
		<tag k="ssr:type" v="adressenavn" />
	</node>
	<node lat="61.32402316864368" lon="12.272991260461955" id="-48492">
		<tag k="name" v="Bækerkvea" />
		<tag k="ssr:date" v="2021-08-12" />
		<tag k="ssr:gruppe" v="veg" />
		<tag k="ssr:hovedgruppe" v="infrastruktur" />
		<tag k="ssr:stedsnr" v="1081932" />
		<tag k="ssr:type" v="adressenavn" />
	</node>
	<node lat="61.49052622566473" lon="11.925673817542433" id="-48496">
		<tag k="name" v="Litlåsvegen" />
		<tag k="ssr:date" v="2021-11-04" />
		<tag k="ssr:gruppe" v="veg" />
		<tag k="ssr:hovedgruppe" v="infrastruktur" />
		<tag k="ssr:stedsnr" v="1082818" />
		<tag k="ssr:type" v="adressenavn" />
	</node>
	<node lat="61.49651290958675" lon="11.916620166419047" id="-48497">
		<tag k="name" v="Ryprustvegen" />
		<tag k="ssr:date" v="2021-11-04" />
		<tag k="ssr:gruppe" v="veg" />
		<tag k="ssr:hovedgruppe" v="infrastruktur" />
		<tag k="ssr:stedsnr" v="1082819" />
		<tag k="ssr:type" v="adressenavn" />
	</node>
	<node lat="61.492652790871034" lon="11.924704627167708" id="-48498">
		<tag k="name" v="Bjønnskardet" />
		<tag k="ssr:date" v="2021-11-04" />
		<tag k="ssr:gruppe" v="veg" />
		<tag k="ssr:hovedgruppe" v="infrastruktur" />
		<tag k="ssr:stedsnr" v="1082820" />
		<tag k="ssr:type" v="adressenavn" />
	</node>
	<node lat="61.492206525718224" lon="11.923815114786452" id="-48499">
		<tag k="name" v="Blikubakken" />
		<tag k="ssr:date" v="2021-11-04" />
		<tag k="ssr:gruppe" v="veg" />
		<tag k="ssr:hovedgruppe" v="infrastruktur" />
		<tag k="ssr:stedsnr" v="1082821" />
		<tag k="ssr:type" v="adressenavn" />
	</node>
	<node lat="61.49433291768717" lon="11.923146453376662" id="-48500">
		<tag k="name" v="Rognollen" />
		<tag k="ssr:date" v="2022-01-31" />
		<tag k="ssr:gruppe" v="veg" />
		<tag k="ssr:hovedgruppe" v="infrastruktur" />
		<tag k="ssr:stedsnr" v="1083571" />
		<tag k="ssr:type" v="adressenavn" />
	</node>
	<node lat="61.49453064413661" lon="11.918447439297339" id="-48501">
		<tag k="name" v="Grendestubben" />
		<tag k="ssr:date" v="2022-01-31" />
		<tag k="ssr:gruppe" v="veg" />
		<tag k="ssr:hovedgruppe" v="infrastruktur" />
		<tag k="ssr:stedsnr" v="1083573" />
		<tag k="ssr:type" v="adressenavn" />
	</node>
	<node lat="61.494383665068504" lon="11.923042206202362" id="-48502">
		<tag k="name" v="Høvegen" />
		<tag k="ssr:date" v="2022-01-31" />
		<tag k="ssr:gruppe" v="veg" />
		<tag k="ssr:hovedgruppe" v="infrastruktur" />
		<tag k="ssr:stedsnr" v="1083572" />
		<tag k="ssr:type" v="adressenavn" />
	</node>
	<node lat="61.31909509276626" lon="12.275022902598563" id="-48505">
		<tag k="name" v="Jonsbakken" />
		<tag k="ssr:date" v="2022-02-02" />
		<tag k="ssr:gruppe" v="veg" />
		<tag k="ssr:hovedgruppe" v="infrastruktur" />
		<tag k="ssr:stedsnr" v="1083610" />
		<tag k="ssr:type" v="adressenavn" />
	</node>
	<node lat="61.391206504888494" lon="12.665461140491722" id="-48506">
		<tag k="name" v="Kvennbekkegga" />
		<tag k="ssr:date" v="2022-02-02" />
		<tag k="ssr:gruppe" v="veg" />
		<tag k="ssr:hovedgruppe" v="infrastruktur" />
		<tag k="ssr:stedsnr" v="1083607" />
		<tag k="ssr:type" v="adressenavn" />
	</node>
	<node lat="61.31914658575277" lon="12.27501145654718" id="-48507">
		<tag k="name" v="Asbjørns veg" />
		<tag k="ssr:date" v="2022-02-02" />
		<tag k="ssr:gruppe" v="veg" />
		<tag k="ssr:hovedgruppe" v="infrastruktur" />
		<tag k="ssr:stedsnr" v="1083608" />
		<tag k="ssr:type" v="adressenavn" />
	</node>
	<node lat="61.320227888891445" lon="12.273841988327584" id="-48508">
		<tag k="name" v="Arildsvingen" />
		<tag k="ssr:date" v="2022-02-02" />
		<tag k="ssr:gruppe" v="veg" />
		<tag k="ssr:hovedgruppe" v="infrastruktur" />
		<tag k="ssr:stedsnr" v="1083609" />
		<tag k="ssr:type" v="adressenavn" />
	</node>
	<node lat="61.55744172395944" lon="12.217042193089632" id="-48509">
		<tag k="name" v="Mimmis veg" />
		<tag k="ssr:date" v="2022-02-02" />
		<tag k="ssr:gruppe" v="veg" />
		<tag k="ssr:hovedgruppe" v="infrastruktur" />
		<tag k="ssr:stedsnr" v="1083611" />
		<tag k="ssr:type" v="adressenavn" />
	</node>
	<node lat="61.55809739980076" lon="12.223296031958647" id="-48510">
		<tag k="name" v="Minas veg" />
		<tag k="ssr:date" v="2022-02-02" />
		<tag k="ssr:gruppe" v="veg" />
		<tag k="ssr:hovedgruppe" v="infrastruktur" />
		<tag k="ssr:stedsnr" v="1083612" />
		<tag k="ssr:type" v="adressenavn" />
	</node>
	<node lat="61.32582809363354" lon="12.134226862140002" id="-48511">
		<tag k="name" v="Ellefs veg" />
		<tag k="ssr:date" v="2022-02-02" />
		<tag k="ssr:gruppe" v="veg" />
		<tag k="ssr:hovedgruppe" v="infrastruktur" />
		<tag k="ssr:stedsnr" v="1083613" />
		<tag k="ssr:type" v="adressenavn" />
	</node>
	<node lat="61.32583986811189" lon="12.134261691810575" id="-48512">
		<tag k="name" v="Ingeborgs veg" />
		<tag k="ssr:date" v="2022-02-02" />
		<tag k="ssr:gruppe" v="veg" />
		<tag k="ssr:hovedgruppe" v="infrastruktur" />
		<tag k="ssr:stedsnr" v="1083615" />
		<tag k="ssr:type" v="adressenavn" />
	</node>
	<node lat="61.32765578516154" lon="12.131726571821511" id="-48513">
		<tag k="name" v="Gunvors veg" />
		<tag k="ssr:date" v="2022-02-02" />
		<tag k="ssr:gruppe" v="veg" />
		<tag k="ssr:hovedgruppe" v="infrastruktur" />
		<tag k="ssr:stedsnr" v="1083614" />
		<tag k="ssr:type" v="adressenavn" />
	</node>
	<node lat="61.55674393757027" lon="12.214396951417834" id="-48514">
		<tag k="name" v="Bugranvegen" />
		<tag k="ssr:date" v="2022-02-02" />
		<tag k="ssr:gruppe" v="veg" />
		<tag k="ssr:hovedgruppe" v="infrastruktur" />
		<tag k="ssr:stedsnr" v="1083616" />
		<tag k="ssr:type" v="adressenavn" />
	</node>
	<node lat="61.32266648599555" lon="12.272017692156558" id="-48515">
		<tag k="name" v="Øvre Bygderberget" />
		<tag k="ssr:date" v="2022-02-02" />
		<tag k="ssr:gruppe" v="veg" />
		<tag k="ssr:hovedgruppe" v="infrastruktur" />
		<tag k="ssr:stedsnr" v="1083619" />
		<tag k="ssr:type" v="adressenavn" />
	</node>
	<node lat="61.558409686765756" lon="12.222247225598078" id="-48516">
		<tag k="name" v="Skaftvegen" />
		<tag k="ssr:date" v="2022-02-02" />
		<tag k="ssr:gruppe" v="veg" />
		<tag k="ssr:hovedgruppe" v="infrastruktur" />
		<tag k="ssr:stedsnr" v="1083617" />
		<tag k="ssr:type" v="adressenavn" />
	</node>
	<node lat="61.31571582255338" lon="12.259304017136724" id="-48517">
		<tag k="name" v="Flomvollen" />
		<tag k="ssr:date" v="2022-02-02" />
		<tag k="ssr:gruppe" v="veg" />
		<tag k="ssr:hovedgruppe" v="infrastruktur" />
		<tag k="ssr:stedsnr" v="1083618" />
		<tag k="ssr:type" v="adressenavn" />
	</node>
</osm>
