<?xml version="1.0" encoding="UTF-8"?>
<osm generator="osmapis" version="0.6">
	<node id="-195581" lat="60.4809666685" lon="8.7946194461">
		<tag k="name" v="Nysetervegen" />
		<tag k="ssr:date" v="2016-05-10" />
		<tag k="ssr:gruppe" v="veg" />
		<tag k="ssr:hovedgruppe" v="infrastruktur" />
		<tag k="ssr:stedsnr" v="542311" />
		<tag k="ssr:type" v="vegstrekning" />
	</node>
	<node id="-195703" lat="60.2664694456" lon="8.69905277574">
		<tag k="name" v="Allmannavegen" />
		<tag k="ssr:date" v="2016-05-10" />
		<tag k="ssr:gruppe" v="veg" />
		<tag k="ssr:hovedgruppe" v="infrastruktur" />
		<tag k="ssr:stedsnr" v="584797" />
		<tag k="ssr:type" v="vegstrekning" />
	</node>
	<node id="-194579" lat="60.2072273037" lon="8.99451545509">
		<tag k="name" v="Stakkhaugvegen" />
		<tag k="ssr:date" v="2019-05-30" />
		<tag k="ssr:gruppe" v="veg" />
		<tag k="ssr:hovedgruppe" v="infrastruktur" />
		<tag k="ssr:stedsnr" v="983579" />
		<tag k="ssr:type" v="adressenavn" />
	</node>
	<node id="-194410" lat="60.2681388869" lon="8.98192500034">
		<tag k="name" v="Øygardsgrendvegen" />
		<tag k="ssr:date" v="2016-05-10" />
		<tag k="ssr:gruppe" v="veg" />
		<tag k="ssr:hovedgruppe" v="infrastruktur" />
		<tag k="ssr:stedsnr" v="362713" />
		<tag k="ssr:type" v="vegstrekning" />
	</node>
	<node id="-196633" lat="60.2663326606" lon="8.93025492943">
		<tag k="name" v="Høvdevegen" />
		<tag k="ssr:date" v="2019-05-30" />
		<tag k="ssr:gruppe" v="veg" />
		<tag k="ssr:hovedgruppe" v="infrastruktur" />
		<tag k="ssr:stedsnr" v="981085" />
		<tag k="ssr:type" v="adressenavn" />
	</node>
	<node id="-195302" lat="60.2754916636" lon="8.75412777757">
		<tag k="name" v="Grønneflåtabekken" />
		<tag k="ssr:date" v="2016-05-10" />
		<tag k="ssr:gruppe" v="veg" />
		<tag k="ssr:hovedgruppe" v="infrastruktur" />
		<tag k="ssr:stedsnr" v="422138" />
		<tag k="ssr:type" v="vegstrekning" />
	</node>
	<node id="-196581" lat="60.2483666685" lon="8.68608611195">
		<tag k="name" v="Nysetervegen" />
		<tag k="ssr:date" v="2016-05-11" />
		<tag k="ssr:gruppe" v="veg" />
		<tag k="ssr:hovedgruppe" v="infrastruktur" />
		<tag k="ssr:stedsnr" v="950593" />
		<tag k="ssr:type" v="vegstrekning" />
	</node>
	<node id="-196574" lat="60.1695472241" lon="9.15110277329">
		<tag k="name" v="Lauvbrennavegen" />
		<tag k="ssr:date" v="2016-05-11" />
		<tag k="ssr:gruppe" v="veg" />
		<tag k="ssr:hovedgruppe" v="infrastruktur" />
		<tag k="ssr:stedsnr" v="950111" />
		<tag k="ssr:type" v="vegstrekning" />
	</node>
	<node id="-195421" lat="60.2547805513" lon="9.05071389565">
		<tag k="name" v="Eggedalsvegen" />
		<tag k="ssr:date" v="2016-05-10" />
		<tag k="ssr:gruppe" v="veg" />
		<tag k="ssr:hovedgruppe" v="infrastruktur" />
		<tag k="ssr:stedsnr" v="463809" />
		<tag k="ssr:type" v="vegstrekning" />
	</node>
	<node id="-195154" lat="60.2670583335" lon="8.94635277321">
		<tag k="name" v="Nore og Uvdal kommune" />
		<tag k="ssr:date" v="2016-05-10" />
		<tag k="ssr:gruppe" v="administrativeIndelinger" />
		<tag k="ssr:hovedgruppe" v="offentligAdministrasjon" />
		<tag k="ssr:stedsnr" v="208749" />
		<tag k="ssr:type" v="kommune" />
	</node>
	<node id="-195874" lat="60.271152781" lon="8.75860554661">
		<tag k="name" v="Kirkebygdvegen" />
		<tag k="ssr:date" v="2016-05-10" />
		<tag k="ssr:gruppe" v="veg" />
		<tag k="ssr:hovedgruppe" v="infrastruktur" />
		<tag k="ssr:stedsnr" v="664124" />
		<tag k="ssr:type" v="vegstrekning" />
	</node>
	<node id="-194888" lat="60.3672166624" lon="8.89446666849">
		<tag k="name" v="Slåttlivegen" />
		<tag k="ssr:date" v="2016-05-10" />
		<tag k="ssr:gruppe" v="veg" />
		<tag k="ssr:hovedgruppe" v="infrastruktur" />
		<tag k="ssr:stedsnr" v="118157" />
		<tag k="ssr:type" v="vegstrekning" />
	</node>
	<node id="-194372" lat="60.188277781" lon="9.11262221326">
		<tag k="name" v="Verjedalsvegen" />
		<tag k="ssr:date" v="2016-05-10" />
		<tag k="ssr:gruppe" v="veg" />
		<tag k="ssr:hovedgruppe" v="infrastruktur" />
		<tag k="ssr:stedsnr" v="343023" />
		<tag k="ssr:type" v="vegstrekning" />
	</node>
	<node id="-196163" lat="60.1487111125" lon="9.09723056329">
		<tag k="name" v="Bubekkvegen" />
		<tag k="ssr:date" v="2016-05-11" />
		<tag k="ssr:gruppe" v="veg" />
		<tag k="ssr:hovedgruppe" v="infrastruktur" />
		<tag k="ssr:stedsnr" v="785035" />
		<tag k="ssr:type" v="vegstrekning" />
	</node>
	<node id="-196619" lat="60.5908609473" lon="9.63819281559">
		<tag k="fixme" v="multiple name tags, choose one and add the other to alt_name" />
		<tag k="name" v="Austlandet;Østlandet" />
		<tag k="ssr:date" v="2018-01-09" />
		<tag k="ssr:gruppe" v="administrativeIndelinger" />
		<tag k="ssr:hovedgruppe" v="offentligAdministrasjon" />
		<tag k="ssr:stedsnr" v="974775" />
		<tag k="ssr:type" v="annenAdministrativInndeling" />
	</node>
	<node id="-194224" lat="60.2784111098" lon="8.86904444185">
		<tag k="name" v="Haugfossvegen" />
		<tag k="ssr:date" v="2016-05-10" />
		<tag k="ssr:gruppe" v="veg" />
		<tag k="ssr:hovedgruppe" v="infrastruktur" />
		<tag k="ssr:stedsnr" v="284393" />
		<tag k="ssr:type" v="vegstrekning" />
	</node>
	<node id="-196008" lat="60.1546444448" lon="8.98090556111">
		<tag k="name" v="Juvsgrendvegen" />
		<tag k="ssr:date" v="2016-05-11" />
		<tag k="ssr:gruppe" v="veg" />
		<tag k="ssr:hovedgruppe" v="infrastruktur" />
		<tag k="ssr:stedsnr" v="709023" />
		<tag k="ssr:type" v="vegstrekning" />
	</node>
	<node id="-194598" lat="60.2343110709" lon="8.89467844106">
		<tag k="name" v="Utsiktsvegen" />
		<tag k="ssr:date" v="2019-05-30" />
		<tag k="ssr:gruppe" v="veg" />
		<tag k="ssr:hovedgruppe" v="infrastruktur" />
		<tag k="ssr:stedsnr" v="983694" />
		<tag k="ssr:type" v="adressenavn" />
	</node>
	<node id="-194597" lat="60.2407219408" lon="8.90654114255">
		<tag k="name" v="Øvre Hansetjønn" />
		<tag k="ssr:date" v="2019-05-30" />
		<tag k="ssr:gruppe" v="veg" />
		<tag k="ssr:hovedgruppe" v="infrastruktur" />
		<tag k="ssr:stedsnr" v="983693" />
		<tag k="ssr:type" v="adressenavn" />
	</node>
	<node id="-194596" lat="60.2395089032" lon="8.9052985247">
		<tag k="name" v="Nedre Hansetjønn" />
		<tag k="ssr:date" v="2019-05-30" />
		<tag k="ssr:gruppe" v="veg" />
		<tag k="ssr:hovedgruppe" v="infrastruktur" />
		<tag k="ssr:stedsnr" v="983692" />
		<tag k="ssr:type" v="adressenavn" />
	</node>
	<node id="-194595" lat="60.4671698932" lon="8.72262259981">
		<tag k="name" v="Fetenvegen" />
		<tag k="ssr:date" v="2019-05-30" />
		<tag k="ssr:gruppe" v="veg" />
		<tag k="ssr:hovedgruppe" v="infrastruktur" />
		<tag k="ssr:stedsnr" v="983605" />
		<tag k="ssr:type" v="adressenavn" />
	</node>
	<node id="-194594" lat="60.3908204191" lon="8.64828405931">
		<tag k="name" v="Finntøppsletta" />
		<tag k="ssr:date" v="2019-05-30" />
		<tag k="ssr:gruppe" v="veg" />
		<tag k="ssr:hovedgruppe" v="infrastruktur" />
		<tag k="ssr:stedsnr" v="983603" />
		<tag k="ssr:type" v="adressenavn" />
	</node>
	<node id="-194593" lat="60.2207974193" lon="8.43981734301">
		<tag k="name" v="Vikstul" />
		<tag k="ssr:date" v="2019-05-30" />
		<tag k="ssr:gruppe" v="veg" />
		<tag k="ssr:hovedgruppe" v="infrastruktur" />
		<tag k="ssr:stedsnr" v="983602" />
		<tag k="ssr:type" v="adressenavn" />
	</node>
	<node id="-194592" lat="60.2733004055" lon="7.64619274083">
		<tag k="name" v="Byen" />
		<tag k="ssr:date" v="2019-05-30" />
		<tag k="ssr:gruppe" v="veg" />
		<tag k="ssr:hovedgruppe" v="infrastruktur" />
		<tag k="ssr:stedsnr" v="983600" />
		<tag k="ssr:type" v="adressenavn" />
	</node>
	<node id="-194591" lat="60.300701416" lon="8.34161519646">
		<tag k="name" v="Solheimstulen" />
		<tag k="ssr:date" v="2019-05-30" />
		<tag k="ssr:gruppe" v="veg" />
		<tag k="ssr:hovedgruppe" v="infrastruktur" />
		<tag k="ssr:stedsnr" v="983601" />
		<tag k="ssr:type" v="adressenavn" />
	</node>
	<node id="-194590" lat="60.3611086529" lon="8.13119328195">
		<tag k="name" v="Hein" />
		<tag k="ssr:date" v="2019-05-30" />
		<tag k="ssr:gruppe" v="veg" />
		<tag k="ssr:hovedgruppe" v="infrastruktur" />
		<tag k="ssr:stedsnr" v="983599" />
		<tag k="ssr:type" v="adressenavn" />
	</node>
	<node id="-194589" lat="60.26390647" lon="8.81367288371">
		<tag k="name" v="Kyllesdalsvegen" />
		<tag k="ssr:date" v="2019-05-30" />
		<tag k="ssr:gruppe" v="veg" />
		<tag k="ssr:hovedgruppe" v="infrastruktur" />
		<tag k="ssr:stedsnr" v="983598" />
		<tag k="ssr:type" v="adressenavn" />
	</node>
	<node id="-194588" lat="60.2390407249" lon="8.90353011671">
		<tag k="name" v="Nedre Heimtjønnbekken" />
		<tag k="ssr:date" v="2019-05-30" />
		<tag k="ssr:gruppe" v="veg" />
		<tag k="ssr:hovedgruppe" v="infrastruktur" />
		<tag k="ssr:stedsnr" v="983597" />
		<tag k="ssr:type" v="adressenavn" />
	</node>
	<node id="-194587" lat="60.2367826202" lon="8.89766805887">
		<tag k="name" v="Osebekken" />
		<tag k="ssr:date" v="2019-05-30" />
		<tag k="ssr:gruppe" v="veg" />
		<tag k="ssr:hovedgruppe" v="infrastruktur" />
		<tag k="ssr:stedsnr" v="983595" />
		<tag k="ssr:type" v="adressenavn" />
	</node>
	<node id="-194586" lat="60.2346884862" lon="8.89505641384">
		<tag k="name" v="Langemyrhaugen" />
		<tag k="ssr:date" v="2019-05-30" />
		<tag k="ssr:gruppe" v="veg" />
		<tag k="ssr:hovedgruppe" v="infrastruktur" />
		<tag k="ssr:stedsnr" v="983594" />
		<tag k="ssr:type" v="adressenavn" />
	</node>
	<node id="-194585" lat="60.2300652458" lon="8.89622663875">
		<tag k="name" v="Hallandssetre" />
		<tag k="ssr:date" v="2019-05-30" />
		<tag k="ssr:gruppe" v="veg" />
		<tag k="ssr:hovedgruppe" v="infrastruktur" />
		<tag k="ssr:stedsnr" v="983593" />
		<tag k="ssr:type" v="adressenavn" />
	</node>
	<node id="-194584" lat="60.2312530619" lon="8.89959907218">
		<tag k="name" v="Langemyr" />
		<tag k="ssr:date" v="2019-05-30" />
		<tag k="ssr:gruppe" v="veg" />
		<tag k="ssr:hovedgruppe" v="infrastruktur" />
		<tag k="ssr:stedsnr" v="983591" />
		<tag k="ssr:type" v="adressenavn" />
	</node>
	<node id="-194583" lat="60.2537276917" lon="8.97878952986">
		<tag k="name" v="Grånåsetvegen" />
		<tag k="ssr:date" v="2019-05-30" />
		<tag k="ssr:gruppe" v="veg" />
		<tag k="ssr:hovedgruppe" v="infrastruktur" />
		<tag k="ssr:stedsnr" v="983584" />
		<tag k="ssr:type" v="adressenavn" />
	</node>
	<node id="-194582" lat="60.2524979088" lon="8.98095826471">
		<tag k="name" v="Vedalsvegen" />
		<tag k="ssr:date" v="2019-05-30" />
		<tag k="ssr:gruppe" v="veg" />
		<tag k="ssr:hovedgruppe" v="infrastruktur" />
		<tag k="ssr:stedsnr" v="983583" />
		<tag k="ssr:type" v="adressenavn" />
	</node>
	<node id="-194581" lat="60.4654099083" lon="8.73494466027">
		<tag k="name" v="Lysløypevegen" />
		<tag k="ssr:date" v="2019-05-30" />
		<tag k="ssr:gruppe" v="veg" />
		<tag k="ssr:hovedgruppe" v="infrastruktur" />
		<tag k="ssr:stedsnr" v="983582" />
		<tag k="ssr:type" v="adressenavn" />
	</node>
	<node id="-195860" lat="60.2603527786" lon="8.97658055398">
		<tag k="name" v="Hallandsvegen" />
		<tag k="ssr:date" v="2016-05-10" />
		<tag k="ssr:gruppe" v="veg" />
		<tag k="ssr:hovedgruppe" v="infrastruktur" />
		<tag k="ssr:stedsnr" v="646917" />
		<tag k="ssr:type" v="vegstrekning" />
	</node>
	<node id="-194580" lat="60.4644553963" lon="8.74269878125">
		<tag k="name" v="Hytteberget" />
		<tag k="ssr:date" v="2019-05-30" />
		<tag k="ssr:gruppe" v="veg" />
		<tag k="ssr:hovedgruppe" v="infrastruktur" />
		<tag k="ssr:stedsnr" v="983581" />
		<tag k="ssr:type" v="adressenavn" />
	</node>
	<node id="-194578" lat="60.2000166358" lon="8.98679669042">
		<tag k="name" v="Grovesetervegen" />
		<tag k="ssr:date" v="2019-05-30" />
		<tag k="ssr:gruppe" v="veg" />
		<tag k="ssr:hovedgruppe" v="infrastruktur" />
		<tag k="ssr:stedsnr" v="983578" />
		<tag k="ssr:type" v="adressenavn" />
	</node>
	<node id="-194577" lat="60.1469442311" lon="9.0651177955">
		<tag k="name" v="Vehusdalen" />
		<tag k="ssr:date" v="2019-05-30" />
		<tag k="ssr:gruppe" v="veg" />
		<tag k="ssr:hovedgruppe" v="infrastruktur" />
		<tag k="ssr:stedsnr" v="983577" />
		<tag k="ssr:type" v="adressenavn" />
	</node>
	<node id="-196632" lat="60.330587536" lon="9.0156464318">
		<tag k="name" v="Skjønnemarka" />
		<tag k="ssr:date" v="2019-05-30" />
		<tag k="ssr:gruppe" v="veg" />
		<tag k="ssr:hovedgruppe" v="infrastruktur" />
		<tag k="ssr:stedsnr" v="981080" />
		<tag k="ssr:type" v="adressenavn" />
	</node>
	<node id="-196621" lat="60.4315476477" lon="8.73314949493">
		<tag k="name" v="Vestlivegen" />
		<tag k="ssr:date" v="2019-05-30" />
		<tag k="ssr:gruppe" v="veg" />
		<tag k="ssr:hovedgruppe" v="infrastruktur" />
		<tag k="ssr:stedsnr" v="975493" />
		<tag k="ssr:type" v="adressenavn" />
	</node>
	<node id="-194243" lat="60.281936113" lon="9.05883888798">
		<tag k="name" v="Eggedalsvegen" />
		<tag k="ssr:date" v="2016-05-10" />
		<tag k="ssr:gruppe" v="veg" />
		<tag k="ssr:hovedgruppe" v="infrastruktur" />
		<tag k="ssr:stedsnr" v="300606" />
		<tag k="ssr:type" v="vegstrekning" />
	</node>
	<node id="-195594" lat="60.2631666673" lon="9.00272777583">
		<tag k="name" v="Borgegrendvegen" />
		<tag k="ssr:date" v="2016-05-10" />
		<tag k="ssr:gruppe" v="veg" />
		<tag k="ssr:hovedgruppe" v="infrastruktur" />
		<tag k="ssr:stedsnr" v="544700" />
		<tag k="ssr:type" v="vegstrekning" />
	</node>
	<node id="-195592" lat="60.3892944448" lon="8.52380834159">
		<tag k="name" v="Smådølvegen" />
		<tag k="ssr:date" v="2016-05-10" />
		<tag k="ssr:gruppe" v="veg" />
		<tag k="ssr:hovedgruppe" v="infrastruktur" />
		<tag k="ssr:stedsnr" v="544299" />
		<tag k="ssr:type" v="vegstrekning" />
	</node>
	<node id="-194566" lat="60.1394749968" lon="9.0384027751">
		<tag k="name" v="Skoganvegen" />
		<tag k="ssr:date" v="2016-05-11" />
		<tag k="ssr:gruppe" v="veg" />
		<tag k="ssr:hovedgruppe" v="infrastruktur" />
		<tag k="ssr:stedsnr" v="891038" />
		<tag k="ssr:type" v="vegstrekning" />
	</node>
	<node id="-195458" lat="60.2692083309" lon="9.00647223052">
		<tag k="name" v="Nordre Borge" />
		<tag k="ssr:date" v="2016-05-10" />
		<tag k="ssr:gruppe" v="veg" />
		<tag k="ssr:hovedgruppe" v="infrastruktur" />
		<tag k="ssr:stedsnr" v="484678" />
		<tag k="ssr:type" v="vegstrekning" />
	</node>
</osm>
