<?xml version="1.0" encoding="UTF-8"?>
<osm version="0.6" generator="osmapis">
	<node id="5758169122" lat="64.6858157" lon="13.2115223" version="1" timestamp="2018-07-13T08:49:42Z" changeset="60679339" uid="8524080" user="Entur AS | Bjørn Lie Rapp" />
	<node id="5758176844" lat="64.6861969" lon="13.2113429" version="1" timestamp="2018-07-13T08:50:44Z" changeset="60679339" uid="8524080" user="Entur AS | Bjørn Lie Rapp" />
	<node id="5758176845" lat="64.6855825" lon="13.2116259" version="2" timestamp="2019-01-06T16:34:24Z" changeset="66074126" uid="32112" user="SverigeFan" />
	<node id="5758176846" lat="64.6854114" lon="13.2117097" version="1" timestamp="2018-07-13T08:50:44Z" changeset="60679339" uid="8524080" user="Entur AS | Bjørn Lie Rapp" />
	<node id="3353604876" lat="64.731728" lon="13.2644745" version="3" timestamp="2019-01-06T16:34:24Z" changeset="66074126" uid="32112" user="SverigeFan" />
	<node id="5758187778" lat="64.7315771" lon="13.2641805" version="2" timestamp="2019-01-06T16:34:24Z" changeset="66074126" uid="32112" user="SverigeFan" />
	<node id="5758169125" lat="64.7919464" lon="13.3751521" version="1" timestamp="2018-07-13T08:49:42Z" changeset="60679339" uid="8524080" user="Entur AS | Bjørn Lie Rapp" />
	<node id="5758186944" lat="64.7918158" lon="13.3750623" version="1" timestamp="2018-07-13T08:53:17Z" changeset="60679339" uid="8524080" user="Entur AS | Bjørn Lie Rapp" />
	<node id="5758185067" lat="64.8593608" lon="13.4149921" version="1" timestamp="2018-07-13T08:52:51Z" changeset="60679339" uid="8524080" user="Entur AS | Bjørn Lie Rapp" />
	<node id="5758185074" lat="64.8593349" lon="13.4150844" version="1" timestamp="2018-07-13T08:52:51Z" changeset="60679339" uid="8524080" user="Entur AS | Bjørn Lie Rapp" />
	<node id="5758187409" lat="64.8182718" lon="13.6234303" version="2" timestamp="2022-01-24T21:00:15Z" changeset="116559033" uid="3497659" user="NKA" />
	<node id="5758187598" lat="64.8183791" lon="13.6233738" version="1" timestamp="2018-07-13T08:53:29Z" changeset="60679339" uid="8524080" user="Entur AS | Bjørn Lie Rapp" />
	<node id="5758188595" lat="64.8562497" lon="13.4220783" version="1" timestamp="2018-07-13T08:53:45Z" changeset="60679516" uid="8524080" user="Entur AS | Bjørn Lie Rapp" />
	<node id="5758188596" lat="64.8561796" lon="13.4219875" version="1" timestamp="2018-07-13T08:53:45Z" changeset="60679516" uid="8524080" user="Entur AS | Bjørn Lie Rapp" />
	<node id="5758185639" lat="64.8623369" lon="13.57524" version="1" timestamp="2018-07-13T08:53:00Z" changeset="60679339" uid="8524080" user="Entur AS | Bjørn Lie Rapp" />
	<node id="5758187600" lat="64.8622048" lon="13.5755213" version="2" timestamp="2022-01-24T21:00:15Z" changeset="116559033" uid="3497659" user="NKA" />
	<node id="5758187599" lat="64.847858" lon="13.5979427" version="1" timestamp="2018-07-13T08:53:29Z" changeset="60679339" uid="8524080" user="Entur AS | Bjørn Lie Rapp" />
	<node id="5758187771" lat="64.8479875" lon="13.5978413" version="1" timestamp="2018-07-13T08:53:30Z" changeset="60679339" uid="8524080" user="Entur AS | Bjørn Lie Rapp" />
	<node id="5758185649" lat="64.8854022" lon="13.5633974" version="1" timestamp="2018-07-13T08:53:00Z" changeset="60679339" uid="8524080" user="Entur AS | Bjørn Lie Rapp" />
	<node id="5758185679" lat="64.8857715" lon="13.5632284" version="1" timestamp="2018-07-13T08:53:02Z" changeset="60679339" uid="8524080" user="Entur AS | Bjørn Lie Rapp" />
	<node id="5758186348" lat="64.8957917" lon="13.559523" version="1" timestamp="2018-07-13T08:53:07Z" changeset="60679339" uid="8524080" user="Entur AS | Bjørn Lie Rapp" />
	<node id="5758186350" lat="64.8958484" lon="13.559942" version="2" timestamp="2019-01-06T18:06:25Z" changeset="66076535" uid="32112" user="SverigeFan" />
	<node id="5758186351" lat="64.8960299" lon="13.5611456" version="1" timestamp="2018-07-13T08:53:07Z" changeset="60679339" uid="8524080" user="Entur AS | Bjørn Lie Rapp" />
	<node id="5758186434" lat="64.8961557" lon="13.5619903" version="1" timestamp="2018-07-13T08:53:09Z" changeset="60679339" uid="8524080" user="Entur AS | Bjørn Lie Rapp" />
	<node id="5758185713" lat="64.9126637" lon="13.5572731" version="2" timestamp="2019-01-06T18:06:25Z" changeset="66076535" uid="32112" user="SverigeFan" />
	<node id="5758185778" lat="64.9130013" lon="13.5576973" version="2" timestamp="2019-01-06T18:06:25Z" changeset="66076535" uid="32112" user="SverigeFan" />
	<node id="5758185779" lat="64.9378606" lon="13.5885339" version="1" timestamp="2018-07-13T08:53:04Z" changeset="60679339" uid="8524080" user="Entur AS | Bjørn Lie Rapp" />
	<node id="5758186112" lat="64.9378989" lon="13.5883855" version="1" timestamp="2018-07-13T08:53:07Z" changeset="60679339" uid="8524080" user="Entur AS | Bjørn Lie Rapp" />
	<node id="5758186435" lat="64.8909178" lon="13.6339312" version="1" timestamp="2018-07-13T08:53:09Z" changeset="60679339" uid="8524080" user="Entur AS | Bjørn Lie Rapp" />
	<node id="5758186547" lat="64.8908889" lon="13.6343023" version="1" timestamp="2018-07-13T08:53:12Z" changeset="60679339" uid="8524080" user="Entur AS | Bjørn Lie Rapp" />
	<node id="5758186548" lat="64.8813296" lon="13.7519297" version="1" timestamp="2018-07-13T08:53:12Z" changeset="60679339" uid="8524080" user="Entur AS | Bjørn Lie Rapp" />
	<node id="5758186587" lat="64.8813293" lon="13.7520262" version="1" timestamp="2018-07-13T08:53:12Z" changeset="60679339" uid="8524080" user="Entur AS | Bjørn Lie Rapp" />
	<node id="5758186588" lat="64.882705" lon="13.8121978" version="1" timestamp="2018-07-13T08:53:12Z" changeset="60679339" uid="8524080" user="Entur AS | Bjørn Lie Rapp" />
	<node id="5758186868" lat="64.8826998" lon="13.8123311" version="1" timestamp="2018-07-13T08:53:15Z" changeset="60679339" uid="8524080" user="Entur AS | Bjørn Lie Rapp" />
	<node id="5758186895" lat="64.879747" lon="13.8431615" version="1" timestamp="2018-07-13T08:53:16Z" changeset="60679339" uid="8524080" user="Entur AS | Bjørn Lie Rapp" />
	<node id="5758186937" lat="64.8796156" lon="13.8435529" version="1" timestamp="2018-07-13T08:53:17Z" changeset="60679339" uid="8524080" user="Entur AS | Bjørn Lie Rapp" />
	<node id="5758186869" lat="64.8761899" lon="13.9715067" version="3" timestamp="2022-01-24T21:00:15Z" changeset="116559033" uid="3497659" user="NKA" />
	<node id="5758186892" lat="64.876066" lon="13.9714918" version="2" timestamp="2018-11-07T21:05:50Z" changeset="64273945" uid="32112" user="SverigeFan" />
	<way id="370690408" version="4" timestamp="2022-01-24T21:00:15Z" changeset="116559033" uid="3497659" user="NKA">
		<tag k="bridge" v="yes" />
		<tag k="highway" v="secondary" />
		<tag k="layer" v="1" />
		<tag k="maxspeed" v="80" />
		<tag k="name" v="Terskelbrua" />
		<tag k="ref" v="7022" />
		<tag k="ssr:stedsnr" v="229903" />
		<tag k="surface" v="concrete" />
		<nd ref="5758185713" />
		<nd ref="5758185778" />
	</way>
	<way id="371098522" version="4" timestamp="2022-01-24T21:00:15Z" changeset="116559033" uid="3497659" user="NKA">
		<tag k="bridge" v="yes" />
		<tag k="highway" v="secondary" />
		<tag k="layer" v="1" />
		<tag k="maxspeed" v="80" />
		<tag k="name" v="Vestre Hovdbrua" />
		<tag k="ref" v="7024" />
		<tag k="ssr:stedsnr" v="229904" />
		<nd ref="5758186348" />
		<nd ref="5758186350" />
	</way>
	<way id="542543029" version="3" timestamp="2022-01-24T21:00:15Z" changeset="116559033" uid="3497659" user="NKA">
		<tag k="bridge" v="yes" />
		<tag k="highway" v="secondary" />
		<tag k="layer" v="1" />
		<tag k="maxspeed" v="50" />
		<tag k="name" v="Røyrvikbrua" />
		<tag k="ref" v="7016" />
		<tag k="ssr:stedsnr" v="350919" />
		<nd ref="5758185649" />
		<nd ref="5758185679" />
	</way>
	<way id="572699244" version="4" timestamp="2022-01-24T21:00:15Z" changeset="116559033" uid="3497659" user="NKA">
		<tag k="bridge" v="yes" />
		<tag k="highway" v="secondary" />
		<tag k="layer" v="1" />
		<tag k="maxspeed" v="80" />
		<tag k="name" v="Tunnsjøelvbrua" />
		<tag k="ref" v="7026" />
		<tag k="ssr:stedsnr" v="775908" />
		<tag k="surface" v="asphalt" />
		<nd ref="5758169122" />
		<nd ref="5758176844" />
	</way>
	<way id="572699246" version="4" timestamp="2022-01-24T21:00:15Z" changeset="116559033" uid="3497659" user="NKA">
		<tag k="bridge" v="yes" />
		<tag k="highway" v="secondary" />
		<tag k="layer" v="1" />
		<tag k="maxspeed" v="80" />
		<tag k="name" v="Tunnsjøflybrua" />
		<tag k="ref" v="7026" />
		<tag k="ssr:stedsnr" v="350893" />
		<tag k="surface" v="asphalt" />
		<nd ref="5758176846" />
		<nd ref="5758176845" />
	</way>
	<way id="607636084" version="3" timestamp="2022-01-24T21:00:15Z" changeset="116559033" uid="3497659" user="NKA">
		<tag k="bridge" v="yes" />
		<tag k="highway" v="secondary" />
		<tag k="layer" v="1" />
		<tag k="maxspeed" v="80" />
		<tag k="name" v="Møkkelvikelvbrua" />
		<tag k="ref" v="7026" />
		<tag k="ssr:stedsnr" v="350891" />
		<tag k="surface" v="asphalt" />
		<nd ref="5758187778" />
		<nd ref="3353604876" />
	</way>
	<way id="607636087" version="3" timestamp="2022-01-24T21:00:15Z" changeset="116559033" uid="3497659" user="NKA">
		<tag k="bridge" v="yes" />
		<tag k="highway" v="secondary" />
		<tag k="layer" v="1" />
		<tag k="maxspeed" v="80" />
		<tag k="name" v="Rørvasselvbrua" />
		<tag k="ref" v="7026" />
		<tag k="ssr:stedsnr" v="654936" />
		<tag k="surface" v="asphalt" />
		<nd ref="5758186944" />
		<nd ref="5758169125" />
	</way>
	<way id="607636093" version="2" timestamp="2022-01-24T21:00:15Z" changeset="116559033" uid="3497659" user="NKA">
		<tag k="bridge" v="yes" />
		<tag k="highway" v="secondary" />
		<tag k="layer" v="1" />
		<tag k="maxspeed" v="80" />
		<tag k="name" v="Gjersvikbrua" />
		<tag k="ref" v="7026" />
		<tag k="ssr:stedsnr" v="350904" />
		<nd ref="5758188596" />
		<nd ref="5758188595" />
	</way>
	<way id="607636140" version="2" timestamp="2022-01-24T21:00:15Z" changeset="116559033" uid="3497659" user="NKA">
		<tag k="bridge" v="yes" />
		<tag k="highway" v="secondary" />
		<tag k="layer" v="1" />
		<tag k="maxspeed" v="80" />
		<tag k="name" v="Storbekkbrua" />
		<tag k="ref" v="7024" />
		<tag k="ssr:stedsnr" v="168914" />
		<nd ref="5758186548" />
		<nd ref="5758186587" />
	</way>
	<way id="607636163" version="2" timestamp="2022-01-24T21:00:15Z" changeset="116559033" uid="3497659" user="NKA">
		<tag k="bridge" v="yes" />
		<tag k="highway" v="secondary" />
		<tag k="layer" v="1" />
		<tag k="maxspeed" v="80" />
		<tag k="name" v="Østre Hovdbrua" />
		<tag k="ref" v="7024" />
		<tag k="ssr:stedsnr" v="897878" />
		<nd ref="5758186351" />
		<nd ref="5758186434" />
	</way>
	<way id="607636382" version="2" timestamp="2022-01-24T21:00:15Z" changeset="116559033" uid="3497659" user="NKA">
		<tag k="bridge" v="yes" />
		<tag k="highway" v="primary" />
		<tag k="layer" v="1" />
		<tag k="maxspeed" v="80" />
		<tag k="name" v="Sagbekkbrua" />
		<tag k="ref" v="773" />
		<tag k="ssr:stedsnr" v="472920" />
		<nd ref="5758185067" />
		<nd ref="5758185074" />
	</way>
	<way id="607636384" version="2" timestamp="2022-01-24T21:00:15Z" changeset="116559033" uid="3497659" user="NKA">
		<tag k="bridge" v="yes" />
		<tag k="highway" v="secondary" />
		<tag k="layer" v="1" />
		<tag k="maxspeed" v="80" />
		<tag k="name" v="Sagvikmarkbrua" />
		<tag k="ref" v="7016" />
		<tag k="ssr:stedsnr" v="229933" />
		<nd ref="5758187600" />
		<nd ref="5758185639" />
	</way>
	<way id="607636385" version="2" timestamp="2022-01-24T21:00:15Z" changeset="116559033" uid="3497659" user="NKA">
		<tag k="bridge" v="yes" />
		<tag k="highway" v="secondary" />
		<tag k="layer" v="1" />
		<tag k="maxspeed" v="80" />
		<tag k="name" v="Vestre Skånalibrua" />
		<tag k="ref" v="7022" />
		<tag k="ssr:stedsnr" v="411911" />
		<nd ref="5758185779" />
		<nd ref="5758186112" />
	</way>
	<way id="607636387" version="2" timestamp="2022-01-24T21:00:15Z" changeset="116559033" uid="3497659" user="NKA">
		<tag k="bridge" v="yes" />
		<tag k="highway" v="secondary" />
		<tag k="layer" v="1" />
		<tag k="maxspeed" v="80" />
		<tag k="name" v="Hudningselvbrua" />
		<tag k="ref" v="7024" />
		<tag k="ssr:stedsnr" v="108903" />
		<nd ref="5758186435" />
		<nd ref="5758186547" />
	</way>
	<way id="607636388" version="2" timestamp="2022-01-24T21:00:15Z" changeset="116559033" uid="3497659" user="NKA">
		<tag k="bridge" v="yes" />
		<tag k="highway" v="secondary" />
		<tag k="layer" v="1" />
		<tag k="maxspeed" v="80" />
		<tag k="name" v="Litlelvbrua" />
		<tag k="ref" v="7024" />
		<tag k="ssr:stedsnr" v="593890" />
		<nd ref="5758186588" />
		<nd ref="5758186868" />
	</way>
	<way id="607636389" version="2" timestamp="2022-01-24T21:00:15Z" changeset="116559033" uid="3497659" user="NKA">
		<tag k="bridge" v="yes" />
		<tag k="highway" v="secondary" />
		<tag k="layer" v="1" />
		<tag k="maxspeed" v="80" />
		<tag k="name" v="Vallervassbrua" />
		<tag k="ref" v="7024" />
		<tag k="ssr:stedsnr" v="654932" />
		<nd ref="5758186869" />
		<nd ref="5758186892" />
	</way>
	<way id="607636391" version="2" timestamp="2022-01-24T21:00:15Z" changeset="116559033" uid="3497659" user="NKA">
		<tag k="bridge" v="yes" />
		<tag k="highway" v="secondary" />
		<tag k="layer" v="1" />
		<tag k="maxspeed" v="80" />
		<tag k="name" v="Reinselvbrua" />
		<tag k="ref" v="7024" />
		<tag k="ssr:stedsnr" v="715916" />
		<nd ref="5758186895" />
		<nd ref="5758186937" />
	</way>
	<way id="607636393" version="2" timestamp="2022-01-24T21:00:15Z" changeset="116559033" uid="3497659" user="NKA">
		<tag k="bridge" v="yes" />
		<tag k="highway" v="secondary" />
		<tag k="layer" v="1" />
		<tag k="maxspeed" v="80" />
		<tag k="name" v="Nyvikelvbrua" />
		<tag k="ref" v="7016" />
		<tag k="ssr:stedsnr" v="593914" />
		<nd ref="5758187409" />
		<nd ref="5758187598" />
	</way>
	<way id="607636394" version="2" timestamp="2022-01-24T21:00:15Z" changeset="116559033" uid="3497659" user="NKA">
		<tag k="bridge" v="yes" />
		<tag k="highway" v="secondary" />
		<tag k="layer" v="1" />
		<tag k="maxspeed" v="80" />
		<tag k="name" v="Storbekkbrua" />
		<tag k="ref" v="7016" />
		<tag k="ssr:stedsnr" v="532927" />
		<nd ref="5758187599" />
		<nd ref="5758187771" />
	</way>
</osm>
