<?xml version="1.0" encoding="UTF-8"?>
<osm generator="osmapis" version="0.6">
	<node id="-750877" lat="69.0734555586" lon="17.4003138757">
		<tag k="name" v="Dyrøya" />
		<tag k="ssr:date" v="2016-05-11" />
		<tag k="ssr:gruppe" v="navigasjon" />
		<tag k="ssr:hovedgruppe" v="infrastruktur" />
		<tag k="ssr:stedsnr" v="928015" />
		<tag k="ssr:type" v="fyrlykt" />
	</node>
	<node id="-750457" lat="69.0895444444" lon="17.5932972116">
		<tag k="name" v="Dyrøy bro, østre" />
		<tag k="ssr:date" v="2016-05-10" />
		<tag k="ssr:gruppe" v="navigasjon" />
		<tag k="ssr:hovedgruppe" v="infrastruktur" />
		<tag k="ssr:stedsnr" v="635511" />
		<tag k="ssr:type" v="fyrlykt" />
	</node>
	<node id="-750963" lat="68.4849327361" lon="16.2297866207">
		<tag k="fixme" v="multiple name tags, choose one and add the other to alt_name" />
		<tag k="name" v="Nord-Noreg;Nord-Norge" />
		<tag k="ssr:date" v="2017-05-18" />
		<tag k="ssr:gruppe" v="administrativeIndelinger" />
		<tag k="ssr:hovedgruppe" v="offentligAdministrasjon" />
		<tag k="ssr:stedsnr" v="976106" />
		<tag k="ssr:type" v="annenAdministrativInndeling" />
	</node>
	<node id="-750737" lat="69.0915388897" lon="17.6909472288">
		<tag k="name" v="Dyrøy kommune" />
		<tag k="ssr:date" v="2016-05-11" />
		<tag k="ssr:gruppe" v="administrativeIndelinger" />
		<tag k="ssr:hovedgruppe" v="offentligAdministrasjon" />
		<tag k="ssr:stedsnr" v="814935" />
		<tag k="ssr:type" v="kommune" />
	</node>
	<node id="-749741" lat="69.0844485926" lon="17.702829501">
		<tag k="name" v="Kjosen" />
		<tag k="ssr:date" v="2019-05-30" />
		<tag k="ssr:gruppe" v="veg" />
		<tag k="ssr:hovedgruppe" v="infrastruktur" />
		<tag k="ssr:stedsnr" v="1010117" />
		<tag k="ssr:type" v="adressenavn" />
	</node>
	<node id="-749772" lat="69.0896833368" lon="17.5910360991">
		<tag k="name" v="Dyrøy bro" />
		<tag k="ssr:date" v="2016-05-10" />
		<tag k="ssr:gruppe" v="navigasjon" />
		<tag k="ssr:hovedgruppe" v="infrastruktur" />
		<tag k="ssr:stedsnr" v="29518" />
		<tag k="ssr:type" v="fyrlykt" />
	</node>
	<node id="-750828" lat="68.9968694473" lon="17.4745999909">
		<tag k="name" v="Kastnesskjæret" />
		<tag k="old_name" v="Kastnesskjær" />
		<tag k="ssr:date" v="2016-05-11" />
		<tag k="ssr:gruppe" v="navigasjon" />
		<tag k="ssr:hovedgruppe" v="infrastruktur" />
		<tag k="ssr:stedsnr" v="876817" />
		<tag k="ssr:type" v="fyrlykt" />
	</node>
</osm>
