<?xml version="1.0" encoding="UTF-8"?>
<osm generator="osmapis" version="0.6">
	<node id="-139775" lat="60.6332472198" lon="10.5344972286">
		<tag k="name" v="Røste" />
		<tag k="railway" v="halt" />
		<tag k="ssr:stedsnr" v="480200" />
		<tag k="train" v="yes" />
	</node>
	<node id="-138877" lat="60.8461277736" lon="10.3372138925">
		<tag k="junction" v="yes" />
		<tag k="name" v="Mørkgangsvingen" />
		<tag k="place" v="locality" />
		<tag k="ssr:stedsnr" v="344703" />
	</node>
	<node id="-139865" lat="60.6797666691" lon="10.3745583301">
		<tag k="landuse" v="industrial" />
		<tag k="name" v="Skrankefoss" />
		<tag k="power" v="plant" />
		<tag k="ssr:stedsnr" v="492295" />
	</node>
	<node id="-139583" lat="60.5973166711" lon="10.4494916628">
		<tag k="highway" v="path" />
		<tag k="name" v="Storstigen" />
		<tag k="ssr:stedsnr" v="238237" />
	</node>
	<node id="-139326" lat="60.6484583376" lon="10.4127888976">
		<tag k="name" v="Storvelta" />
		<tag k="place" v="locality" />
		<tag k="ssr:stedsnr" v="116245" />
	</node>
	<node id="-140273" lat="60.7072527768" lon="10.3496111042">
		<tag k="alt_name" v="Hov" />
		<tag k="name" v="Hov stasjon" />
		<tag k="railway" v="station" />
		<tag k="ssr:stedsnr" v="674369" />
		<tag k="train" v="yes" />
	</node>
	<node id="-140399" lat="60.7879222197" lon="10.3109250014">
		<tag k="highway" v="path" />
		<tag k="name" v="Løpa" />
		<tag k="ssr:stedsnr" v="723849" />
	</node>
	<node id="-138734" lat="60.7728222251" lon="10.3735499971">
		<tag k="bridge" v="yes" />
		<tag k="layer" v="1" />
		<tag k="name" v="Lifoss" />
		<tag k="ssr:stedsnr" v="289162" />
	</node>
	<node id="-138733" lat="60.8287499964" lon="10.2881944402">
		<tag k="bridge" v="yes" />
		<tag k="layer" v="1" />
		<tag k="name" v="Landås" />
		<tag k="ssr:stedsnr" v="289150" />
	</node>
	<node id="-138859" lat="60.8143277773" lon="10.3182861137">
		<tag k="fixme" v="consider highway=path" />
		<tag k="highway" v="track" />
		<tag k="name" v="Traktorvegen" />
		<tag k="ssr:stedsnr" v="344078" />
	</node>
	<node id="-140648" lat="60.6021527764" lon="10.3552027788">
		<tag k="highway" v="path" />
		<tag k="name" v="Sjellvegen" />
		<tag k="ssr:stedsnr" v="845605" />
	</node>
	<node id="-140644" lat="60.5432555524" lon="10.2689944386">
		<tag k="name" v="Kjensvevelta" />
		<tag k="place" v="locality" />
		<tag k="ssr:stedsnr" v="845548" />
	</node>
	<node id="-139491" lat="60.58859444" lon="10.2846888901">
		<tag k="highway" v="path" />
		<tag k="name" v="Sætervegen" />
		<tag k="ssr:stedsnr" v="177594" />
	</node>
	<node id="-140512" lat="60.6815250042" lon="10.3782527833">
		<tag k="name" v="Skrankefossvelta" />
		<tag k="place" v="locality" />
		<tag k="ssr:stedsnr" v="784401" />
	</node>
	<node id="-139327" lat="60.6450777806" lon="10.4350111163">
		<tag k="name" v="Kulhyttevelta" />
		<tag k="place" v="locality" />
		<tag k="ssr:stedsnr" v="116247" />
	</node>
	<node id="-140823" lat="60.8126999994" lon="10.3474638936">
		<tag k="highway" v="path" />
		<tag k="name" v="Gjøvikvegen" />
		<tag k="ssr:stedsnr" v="951088" />
	</node>
	<node id="-139482" lat="60.5418138867" lon="10.2653333271">
		<tag k="name" v="Åsbråtåvelta" />
		<tag k="place" v="locality" />
		<tag k="ssr:stedsnr" v="177494" />
	</node>
	<node id="-139097" lat="60.6794611089" lon="10.3710666689">
		<tag k="alt_name" v="Fall" />
		<tag k="name" v="Fall stasjon" />
		<tag k="railway" v="station" />
		<tag k="ssr:stedsnr" v="7321" />
		<tag k="train" v="yes" />
	</node>
	<node id="-140501" lat="60.5731611116" lon="10.439005564">
		<tag k="highway" v="path" />
		<tag k="name" v="Østresandsetervegen" />
		<tag k="ssr:stedsnr" v="784155" />
	</node>
	<node id="-140114" lat="60.5996083375" lon="10.3470361165">
		<tag k="fixme" v="consider highway=path" />
		<tag k="highway" v="track" />
		<tag k="name" v="Gamlevegen" />
		<tag k="ssr:stedsnr" v="601524" />
	</node>
	<node id="-140387" lat="60.7211722218" lon="10.3793861114">
		<tag k="highway" v="path" />
		<tag k="name" v="Haugerudvegen" />
		<tag k="ssr:stedsnr" v="723378" />
	</node>
	<node id="-140748" lat="60.5483583337" lon="10.1182999932">
		<tag k="name" v="Monsebråten" />
		<tag k="place" v="locality" />
		<tag k="ssr:stedsnr" v="905825" />
	</node>
	<node id="-140363" lat="60.6671833374" lon="10.3618583253">
		<tag k="bridge" v="yes" />
		<tag k="layer" v="1" />
		<tag k="name" v="Fall" />
		<tag k="ssr:stedsnr" v="714130" />
	</node>
	<node id="-139199" lat="60.7183999972" lon="10.4212583315">
		<tag k="name" v="Risbrytervelta" />
		<tag k="place" v="locality" />
		<tag k="ssr:stedsnr" v="56391" />
	</node>
	<node id="-139160" lat="60.7185222213" lon="10.4409138844">
		<tag k="name" v="Landvelta" />
		<tag k="place" v="locality" />
		<tag k="ssr:stedsnr" v="40416" />
	</node>
	<node id="-138948" lat="60.6231944483" lon="10.4892555485">
		<tag k="alt_name" v="Trevatn" />
		<tag k="name" v="Trevatn stasjon" />
		<tag k="railway" v="station" />
		<tag k="ssr:stedsnr" v="371208" />
		<tag k="train" v="yes" />
	</node>
	<node id="-140611" lat="60.612399996" lon="10.2639694399">
		<tag k="fixme" v="consider highway=path" />
		<tag k="highway" v="track" />
		<tag k="name" v="Gullbergsvegen" />
		<tag k="ssr:stedsnr" v="830527" />
	</node>
	<node id="-139329" lat="60.6432416622" lon="10.4079777847">
		<tag k="highway" v="path" />
		<tag k="name" v="Noravegen" />
		<tag k="ssr:stedsnr" v="116253" />
	</node>
	<node id="-140224" lat="60.6228388864" lon="10.4312638826">
		<tag k="highway" v="path" />
		<tag k="name" v="Halmrastsetervegen" />
		<tag k="ssr:stedsnr" v="662218" />
	</node>
	<node id="-140223" lat="60.6051083299" lon="10.4832888824">
		<tag k="ford" v="yes" />
		<tag k="name" v="Tølløfvadet" />
		<tag k="place" v="locality" />
		<tag k="ssr:stedsnr" v="662215" />
	</node>
	<node id="-139198" lat="60.799500002" lon="10.1822499957">
		<tag k="name" v="Odnes stasjon" />
		<tag k="railway" v="station" />
		<tag k="ssr:stedsnr" v="56364" />
		<tag k="train" v="yes" />
	</node>
	<node id="-139963" lat="60.6341611132" lon="10.3903250019">
		<tag k="junction" v="yes" />
		<tag k="name" v="Kongen" />
		<tag k="place" v="locality" />
		<tag k="ssr:stedsnr" v="541290" />
	</node>
	<node id="-140217" lat="60.540830552" lon="10.1227555591">
		<tag k="bridge" v="yes" />
		<tag k="layer" v="1" />
		<tag k="name" v="Vassenden" />
		<tag k="ssr:stedsnr" v="653163" />
	</node>
	<node id="-140216" lat="60.710255553" lon="10.3367916717">
		<tag k="bridge" v="yes" />
		<tag k="layer" v="1" />
		<tag k="name" v="Minne" />
		<tag k="ssr:stedsnr" v="653156" />
	</node>
	<node id="-139316" lat="60.7808138882" lon="10.3677444399">
		<tag k="bridge" v="yes" />
		<tag k="layer" v="1" />
		<tag k="name" v="Sevald" />
		<tag k="ssr:stedsnr" v="107132" />
	</node>
	<node id="-139062" lat="60.6476111144" lon="10.1315805621">
		<tag k="name" v="Sandungvelta" />
		<tag k="place" v="locality" />
		<tag k="ssr:stedsnr" v="891790" />
	</node>
	<node id="-139572" lat="60.683350001" lon="10.3576027699">
		<tag k="bridge" v="yes" />
		<tag k="layer" v="1" />
		<tag k="name" v="Fryal" />
		<tag k="ssr:stedsnr" v="228167" />
	</node>
	<node id="-140851" lat="60.7191777779" lon="10.4084833406">
		<tag k="name" v="Løkvelta" />
		<tag k="place" v="locality" />
		<tag k="ssr:stedsnr" v="966409" />
	</node>
	<node id="-140850" lat="60.68233056" lon="10.4102138826">
		<tag k="highway" v="path" />
		<tag k="name" v="Valdresvegen" />
		<tag k="ssr:stedsnr" v="966406" />
	</node>
	<node id="-139827" lat="60.7338361146" lon="10.3871888902">
		<tag k="name" v="Rudsvevelta" />
		<tag k="place" v="locality" />
		<tag k="ssr:stedsnr" v="480378" />
	</node>
	<node id="-139951" lat="60.6401027814" lon="10.1473972284">
		<tag k="name" v="Nårumsvelta" />
		<tag k="place" v="locality" />
		<tag k="ssr:stedsnr" v="541085" />
	</node>
	<node id="-140203" lat="60.7393638884" lon="10.4128861112">
		<tag k="highway" v="path" />
		<tag k="name" v="Gamlevegen" />
		<tag k="ssr:stedsnr" v="647406" />
	</node>
	<node id="-139816" lat="60.6464000044" lon="10.4277805635">
		<tag k="name" v="Storlunnevelta" />
		<tag k="place" v="locality" />
		<tag k="ssr:stedsnr" v="480228" />
	</node>
	<node id="-140327" lat="60.5969388893" lon="10.4489444385">
		<tag k="highway" v="path" />
		<tag k="name" v="Storstigen" />
		<tag k="ssr:stedsnr" v="694787" />
	</node>
	<node id="-139814" lat="60.8058472186" lon="10.2202666747">
		<tag k="bridge" v="yes" />
		<tag k="layer" v="1" />
		<tag k="name" v="Kronborg" />
		<tag k="ssr:stedsnr" v="471169" />
	</node>
	<node id="-139441" lat="60.8193083296" lon="10.30897777">
		<tag k="alt_name" v="Granumsvaet" />
		<tag k="ford" v="yes" />
		<tag k="name" v="Granumsvadet" />
		<tag k="place" v="locality" />
		<tag k="ssr:stedsnr" v="162084" />
	</node>
	<node id="-139065" lat="60.8165444488" lon="10.3653138897">
		<tag k="bridge" v="yes" />
		<tag k="layer" v="1" />
		<tag k="name" v="Sevalelva" />
		<tag k="ssr:stedsnr" v="896169" />
	</node>
	<node id="-139041" lat="60.7374388888" lon="10.3785888898">
		<tag k="junction" v="yes" />
		<tag k="name" v="Hovdevegskillet" />
		<tag k="place" v="locality" />
		<tag k="ssr:stedsnr" v="890392" />
	</node>
	<node id="-139038" lat="60.6110250017" lon="10.3641916617">
		<tag k="bridge" v="yes" />
		<tag k="layer" v="1" />
		<tag k="name" v="Øksne" />
		<tag k="ssr:stedsnr" v="410167" />
	</node>
	<node id="-139037" lat="60.6288750011" lon="10.4885805532">
		<tag k="bridge" v="yes" />
		<tag k="layer" v="1" />
		<tag k="name" v="Skjerra" />
		<tag k="ssr:stedsnr" v="410168" />
	</node>
	<node id="-139036" lat="60.5985555566" lon="10.3010333298">
		<tag k="bridge" v="yes" />
		<tag k="layer" v="1" />
		<tag k="name" v="Lomsdal" />
		<tag k="ssr:stedsnr" v="410163" />
	</node>
	<node id="-139035" lat="60.743669442" lon="10.2281555631">
		<tag k="bridge" v="yes" />
		<tag k="layer" v="1" />
		<tag k="name" v="Nordråk" />
		<tag k="ssr:stedsnr" v="410161" />
	</node>
	<node id="-139034" lat="60.6676638918" lon="10.3632750051">
		<tag k="bridge" v="yes" />
		<tag k="layer" v="1" />
		<tag k="name" v="Fall" />
		<tag k="ssr:stedsnr" v="410160" />
	</node>
	<node id="-139545" lat="60.5632611094" lon="10.3704305587">
		<tag k="highway" v="path" />
		<tag k="name" v="Setervegen" />
		<tag k="ssr:stedsnr" v="214169" />
	</node>
	<node id="-140824" lat="60.6727833312" lon="10.1494861064">
		<tag k="junction" v="yes" />
		<tag k="name" v="Bjørlisætervegskillet" />
		<tag k="place" v="locality" />
		<tag k="ssr:stedsnr" v="951129" />
	</node>
	<node id="-139927" lat="60.5834166684" lon="10.3343444463">
		<tag k="man_made" v="quay" />
		<tag k="name" v="Engerbrygga" />
		<tag k="place" v="locality" />
		<tag k="ssr:stedsnr" v="526444" />
	</node>
	<node id="-138774" lat="60.5818083334" lon="10.2650972255">
		<tag k="highway" v="path" />
		<tag k="name" v="Haugsætervegen" />
		<tag k="ssr:stedsnr" v="299460" />
	</node>
	<node id="-139225" lat="60.6676027812" lon="10.3572222299">
		<tag k="man_made" v="quay" />
		<tag k="name" v="Holmen brygge" />
		<tag k="place" v="locality" />
		<tag k="ssr:stedsnr" v="56719" />
	</node>
	<node id="-138900" lat="60.7262444427" lon="10.3952388848">
		<tag k="name" v="Engelsåsvelta" />
		<tag k="place" v="locality" />
		<tag k="ssr:stedsnr" v="359399" />
	</node>
	<node id="-139792" lat="60.747363889" lon="10.3992777839">
		<tag k="highway" v="path" />
		<tag k="name" v="Vintervegen" />
		<tag k="ssr:stedsnr" v="465369" />
	</node>
	<node id="-139928" lat="60.780841666" lon="10.3677361104">
		<tag k="alt_name" v="Hasvoldseterbrua" />
		<tag k="bridge" v="yes" />
		<tag k="layer" v="1" />
		<tag k="name" v="Hasvalsæterbrua" />
		<tag k="ssr:stedsnr" v="526474" />
	</node>
	<node id="-139659" lat="60.7484361131" lon="10.2392277825">
		<tag k="aeroway" v="airstrip" />
		<tag k="name" v="Husodden flyplass" />
		<tag k="ssr:stedsnr" v="415095" />
	</node>
	<node id="-138889" lat="60.8427277795" lon="10.344025">
		<tag k="highway" v="path" />
		<tag k="name" v="Hyttemyrvegen" />
		<tag k="ssr:stedsnr" v="359067" />
	</node>
	<node id="-138888" lat="60.6704249977" lon="10.3611888918">
		<tag k="bridge" v="yes" />
		<tag k="layer" v="1" />
		<tag k="name" v="Fall" />
		<tag k="ssr:stedsnr" v="349196" />
	</node>
	<node id="-139584" lat="60.6048805515" lon="10.457441673">
		<tag k="highway" v="path" />
		<tag k="name" v="Setervegen" />
		<tag k="ssr:stedsnr" v="238239" />
	</node>
	<node id="-139947" lat="60.7194361148" lon="10.3385611118">
		<tag k="bridge" v="yes" />
		<tag k="layer" v="1" />
		<tag k="name" v="Lauselva" />
		<tag k="ssr:stedsnr" v="532150" />
	</node>
</osm>
