<?xml version="1.0" encoding="UTF-8"?>
<osm generator="osmapis" version="0.6">
	<node id="-139259" lat="60.7111250008" lon="10.243441663">
		<tag k="name" v="Flatlibekken" />
		<tag k="ssr:stedsnr" v="7797" />
		<tag k="waterway" v="stream" />
	</node>
	<node id="-139258" lat="60.7182965989" lon="10.0055328929">
		<tag k="name" v="Buvatnet" />
		<tag k="natural" v="water" />
		<tag k="ssr:stedsnr" v="7782" />
		<tag k="water" v="lake" />
	</node>
	<node id="-139257" lat="60.7202134026" lon="10.0271941403">
		<tag k="name" v="Bergevatnet" />
		<tag k="natural" v="water" />
		<tag k="ssr:stedsnr" v="7781" />
		<tag k="water" v="lake" />
	</node>
	<node id="-139255" lat="60.7269499981" lon="10.0510027696">
		<tag k="name" v="Sæterputten" />
		<tag k="natural" v="water" />
		<tag k="ssr:stedsnr" v="7769" />
	</node>
	<node id="-139247" lat="60.6791027807" lon="10.1205555492">
		<tag k="name" v="Hotellbekken" />
		<tag k="ssr:stedsnr" v="7716" />
		<tag k="waterway" v="stream" />
	</node>
	<node id="-139245" lat="60.7046972249" lon="10.1788138871">
		<tag k="name" v="Hønefoss" />
		<tag k="natural" v="waterfall" />
		<tag k="ssr:stedsnr" v="7683" />
	</node>
	<node id="-139244" lat="60.6914991027" lon="10.1414718139">
		<tag k="alt_name" v="Tobakkstjenn" />
		<tag k="name" v="Tobakktjernet" />
		<tag k="natural" v="water" />
		<tag k="ssr:stedsnr" v="7676" />
	</node>
	<node id="-139243" lat="60.6963219914" lon="10.1471322084">
		<tag k="alt_name" v="Knapptjenn" />
		<tag k="name" v="Knapptjernet" />
		<tag k="natural" v="water" />
		<tag k="ssr:stedsnr" v="7675" />
	</node>
	<node id="-139236" lat="60.5722440505" lon="10.2603577854">
		<tag k="alt_name" v="Steffatjenn" />
		<tag k="name" v="Steffetjerna" />
		<tag k="natural" v="water" />
		<tag k="ssr:stedsnr" v="7595" />
	</node>
	<node id="-139234" lat="60.5941032564" lon="10.1930356728">
		<tag k="alt_name" v="Lomsdalsætertjenn" />
		<tag k="name" v="Sætertjernet" />
		<tag k="natural" v="water" />
		<tag k="ssr:stedsnr" v="7580" />
	</node>
	<node id="-139233" lat="60.5979173038" lon="10.2328100394">
		<tag k="alt_name" v="Tretjennsbekken" />
		<tag k="name" v="Tretjernbekken" />
		<tag k="ssr:stedsnr" v="7575" />
		<tag k="waterway" v="stream" />
	</node>
	<node id="-139231" lat="60.542950002" lon="10.2208500083">
		<tag k="alt_name" v="Sandtjennbekken" />
		<tag k="name" v="Sandtjernbekken" />
		<tag k="ssr:stedsnr" v="7546" />
		<tag k="waterway" v="stream" />
	</node>
	<node id="-139217" lat="60.5997100795" lon="10.5368474988">
		<tag k="alt_name" v="Hågårtjenn" />
		<tag k="name" v="Hågårtjernet" />
		<tag k="natural" v="water" />
		<tag k="ssr:stedsnr" v="7188" />
	</node>
	<node id="-139216" lat="60.5479459783" lon="10.3643364799">
		<tag k="alt_name" v="Langtjenn" />
		<tag k="name" v="Langtjernet" />
		<tag k="natural" v="water" />
		<tag k="ssr:stedsnr" v="7132" />
	</node>
	<node id="-139202" lat="60.7067527788" lon="10.5117805631">
		<tag k="alt_name" v="Skjærsjøen" />
		<tag k="name" v="Skjersjøen" />
		<tag k="natural" v="water" />
		<tag k="ssr:stedsnr" v="431436" />
	</node>
	<node id="-139189" lat="60.6291444474" lon="10.0375277838">
		<tag k="alt_name" v="Gråhattjernet" />
		<tag k="name" v="Gråhattjern" />
		<tag k="natural" v="water" />
		<tag k="ssr:stedsnr" v="432611" />
	</node>
	<node id="-139188" lat="60.6420213225" lon="10.545211029">
		<tag k="name" v="Veitjernsbekken" />
		<tag k="ssr:stedsnr" v="346254" />
		<tag k="waterway" v="stream" />
	</node>
	<node id="-139186" lat="60.686686109" lon="10.067555563">
		<tag k="name" v="Eintjennsbekken" />
		<tag k="ssr:stedsnr" v="891965" />
		<tag k="waterway" v="stream" />
	</node>
	<node id="-139183" lat="60.6266138863" lon="10.0840472159">
		<tag k="name" v="Drittodden" />
		<tag k="natural" v="cape" />
		<tag k="ssr:stedsnr" v="891787" />
	</node>
	<node id="-139179" lat="60.7395583314" lon="10.3619583244">
		<tag k="name" v="Veltabekken" />
		<tag k="ssr:stedsnr" v="891736" />
		<tag k="waterway" v="stream" />
	</node>
	<node id="-139175" lat="60.6247972225" lon="10.306175009">
		<tag k="name" v="Smaltjennet" />
		<tag k="natural" v="water" />
		<tag k="ssr:stedsnr" v="891568" />
	</node>
	<node id="-139174" lat="60.6128499989" lon="10.2834833369">
		<tag k="name" v="Grællerudbekken" />
		<tag k="ssr:stedsnr" v="891552" />
		<tag k="waterway" v="stream" />
	</node>
	<node id="-139172" lat="60.7167305594" lon="10.1925250083">
		<tag k="name" v="Lønfiske" />
		<tag k="natural" v="water" />
		<tag k="ssr:stedsnr" v="891290" />
	</node>
	<node id="-139170" lat="60.6319222239" lon="10.2314083286">
		<tag k="name" v="Bustiviltjenn" />
		<tag k="natural" v="water" />
		<tag k="ssr:stedsnr" v="891117" />
	</node>
	<node id="-139154" lat="60.7321083342" lon="10.1013277725">
		<tag k="name" v="Lauholmen" />
		<tag k="place" v="islet" />
		<tag k="ssr:stedsnr" v="405895" />
	</node>
	<node id="-139151" lat="60.6444944427" lon="10.0841694532">
		<tag k="name" v="Laddøyrtjenn" />
		<tag k="natural" v="water" />
		<tag k="ssr:stedsnr" v="405809" />
	</node>
	<node id="-139150" lat="60.6289166703" lon="10.0773333402">
		<tag k="name" v="Bjønnsund" />
		<tag k="natural" v="strait" />
		<tag k="ssr:stedsnr" v="405803" />
	</node>
	<node id="-139149" lat="60.6359333292" lon="10.0752916584">
		<tag k="name" v="Sandodden" />
		<tag k="natural" v="cape" />
		<tag k="ssr:stedsnr" v="405800" />
	</node>
	<node id="-139133" lat="60.6285861107" lon="10.4879027825">
		<tag k="name" v="Elveoset" />
		<tag k="natural" v="bay" />
		<tag k="ssr:stedsnr" v="405322" />
	</node>
	<node id="-139130" lat="60.7003833356" lon="10.1981777758">
		<tag k="name" v="Bjønnhølbekken" />
		<tag k="ssr:stedsnr" v="405199" />
		<tag k="waterway" v="stream" />
	</node>
	<node id="-139127" lat="60.6705555556" lon="10.0634555535">
		<tag k="name" v="Krokvassauget" />
		<tag k="natural" v="bay" />
		<tag k="ssr:stedsnr" v="404982" />
	</node>
	<node id="-139123" lat="60.5716388912" lon="10.2547555617">
		<tag k="name" v="Røyrtjennsputten" />
		<tag k="natural" v="water" />
		<tag k="ssr:stedsnr" v="404400" />
		<tag k="water" v="pond" />
	</node>
	<node id="-139119" lat="60.8739055591" lon="10.2815972232">
		<tag k="name" v="Evjeputten" />
		<tag k="natural" v="water" />
		<tag k="ssr:stedsnr" v="403699" />
	</node>
	<node id="-139097" lat="60.7343111103" lon="10.0430111063">
		<tag k="name" v="Nyvatnet" />
		<tag k="natural" v="water" />
		<tag k="ssr:stedsnr" v="371787" />
	</node>
	<node id="-139094" lat="60.6704138851" lon="10.0295166668">
		<tag k="alt_name" v="Damtjennsbekken" />
		<tag k="name" v="Damlibekken" />
		<tag k="ssr:stedsnr" v="371736" />
		<tag k="waterway" v="stream" />
	</node>
	<node id="-139093" lat="60.6679861083" lon="10.1507305552">
		<tag k="name" v="Sandungselva" />
		<tag k="ssr:stedsnr" v="371730" />
		<tag k="waterway" v="river" />
	</node>
	<node id="-139092" lat="60.6339305578" lon="10.2766083404">
		<tag k="alt_name" v="Svarttjenna" />
		<tag k="name" v="Svarttjerna" />
		<tag k="natural" v="water" />
		<tag k="ssr:stedsnr" v="371686" />
	</node>
	<node id="-139087" lat="60.6339249973" lon="10.1118777845">
		<tag k="alt_name" v="Lønnfisket" />
		<tag k="name" v="Løynfisket" />
		<tag k="natural" v="water" />
		<tag k="ssr:stedsnr" v="371624" />
	</node>
	<node id="-139083" lat="60.598436115" lon="10.3171555569">
		<tag k="name" v="Kleivodden" />
		<tag k="natural" v="cape" />
		<tag k="ssr:stedsnr" v="371580" />
	</node>
	<node id="-139077" lat="60.6997972225" lon="10.408277779">
		<tag k="name" v="Skjegga" />
		<tag k="ssr:stedsnr" v="371332" />
		<tag k="waterway" v="stream" />
	</node>
	<node id="-139076" lat="60.7018583289" lon="10.4171472181">
		<tag k="alt_name" v="Madstjenn" />
		<tag k="name" v="Masstjernet" />
		<tag k="natural" v="water" />
		<tag k="ssr:stedsnr" v="371330" />
	</node>
	<node id="-139074" lat="60.6558409779" lon="10.3857126038">
		<tag k="alt_name" v="Vardtjenna" />
		<tag k="name" v="Vardtjerna" />
		<tag k="natural" v="water" />
		<tag k="ssr:stedsnr" v="371243" />
		<tag k="water" v="lake" />
	</node>
	<node id="-139068" lat="60.5585833314" lon="10.3839527855">
		<tag k="alt_name" v="Hollingdalstjenna" />
		<tag k="name" v="Hallingdalstjerna" />
		<tag k="natural" v="water" />
		<tag k="ssr:stedsnr" v="371122" />
	</node>
	<node id="-139064" lat="60.6630333337" lon="10.4470388846">
		<tag k="name" v="Sagbekken" />
		<tag k="ssr:stedsnr" v="370356" />
		<tag k="waterway" v="stream" />
	</node>
	<node id="-138889" lat="60.8443222183" lon="10.2787138946">
		<tag k="name" v="Rugsvebekken" />
		<tag k="ssr:stedsnr" v="299159" />
		<tag k="waterway" v="stream" />
	</node>
	<node id="-139060" lat="60.603363888" lon="10.482905563">
		<tag k="name" v="Sandbekken" />
		<tag k="ssr:stedsnr" v="370228" />
		<tag k="waterway" v="stream" />
	</node>
	<node id="-139055" lat="60.7245888862" lon="9.99121666009">
		<tag k="name" v="Skøllsjøen" />
		<tag k="natural" v="water" />
		<tag k="ssr:stedsnr" v="361091" />
	</node>
	<node id="-139052" lat="60.5937506594" lon="10.141012497">
		<tag k="alt_name" v="Abbortjenn" />
		<tag k="name" v="Abbortjern" />
		<tag k="natural" v="water" />
		<tag k="ssr:stedsnr" v="359897" />
	</node>
	<node id="-139049" lat="60.5526361129" lon="10.1155972286">
		<tag k="name" v="Grytfossen" />
		<tag k="natural" v="waterfall" />
		<tag k="ssr:stedsnr" v="359831" />
	</node>
	<node id="-139048" lat="60.6230527811" lon="10.0846111065">
		<tag k="name" v="Selsjøtjennet" />
		<tag k="natural" v="water" />
		<tag k="ssr:stedsnr" v="359808" />
	</node>
	<node id="-139047" lat="60.6192833368" lon="10.0845944498">
		<tag k="name" v="Storsøvassbekken" />
		<tag k="ssr:stedsnr" v="359806" />
		<tag k="waterway" v="stream" />
	</node>
	<node id="-139039" lat="60.6939138876" lon="10.345499994">
		<tag k="name" v="Søgardslandet" />
		<tag k="natural" v="beach" />
		<tag k="ssr:stedsnr" v="359649" />
	</node>
	<node id="-139031" lat="60.5499833295" lon="10.2957444527">
		<tag k="name" v="Bøleodden" />
		<tag k="natural" v="cape" />
		<tag k="ssr:stedsnr" v="359526" />
	</node>
	<node id="-139009" lat="60.798013888" lon="10.1406638917">
		<tag k="name" v="Hengslet" />
		<tag k="place" v="locality" />
		<tag k="ssr:stedsnr" v="348259" />
	</node>
	<node id="-139006" lat="60.6360805527" lon="10.0890861168">
		<tag k="name" v="Potetholma" />
		<tag k="place" v="islet" />
		<tag k="ssr:stedsnr" v="344798" />
	</node>
	<node id="-139005" lat="60.6393444407" lon="10.0496916632">
		<tag k="name" v="Den pene bekken" />
		<tag k="ssr:stedsnr" v="344794" />
		<tag k="waterway" v="stream" />
	</node>
	<node id="-139004" lat="60.6300704406" lon="10.1263166134">
		<tag k="alt_name" v="Totjennsputta" />
		<tag k="name" v="Totjernsputta" />
		<tag k="natural" v="water" />
		<tag k="ssr:stedsnr" v="344790" />
		<tag k="water" v="pond" />
	</node>
	<node id="-139000" lat="60.7506611101" lon="10.3623472203">
		<tag k="name" v="Bikkjebekken" />
		<tag k="ssr:stedsnr" v="344749" />
		<tag k="waterway" v="stream" />
	</node>
	<node id="-138990" lat="60.5651638904" lon="10.2696166739">
		<tag k="alt_name" v="Karustjenn;Karusstjenn" />
		<tag k="name" v="Karustjern" />
		<tag k="natural" v="water" />
		<tag k="ssr:stedsnr" v="344455" />
	</node>
	<node id="-138989" lat="60.5691249988" lon="10.2573972172">
		<tag k="name" v="Røyrtjenn" />
		<tag k="natural" v="water" />
		<tag k="ssr:stedsnr" v="344454" />
	</node>
	<node id="-138982" lat="60.7190174027" lon="10.1611510643">
		<tag k="alt_name" v="Beintvika" />
		<tag k="name" v="Bentvika" />
		<tag k="natural" v="bay" />
		<tag k="ssr:stedsnr" v="344258" />
	</node>
	<node id="-138979" lat="60.6760583335" lon="10.0511222274">
		<tag k="name" v="Lortpullen" />
		<tag k="natural" v="water" />
		<tag k="ssr:stedsnr" v="344963" />
	</node>
	<node id="-138977" lat="60.6812638844" lon="10.0493111144">
		<tag k="alt_name" v="Kvitbergstjennbekken" />
		<tag k="name" v="Kvitbergstjernbekken" />
		<tag k="ssr:stedsnr" v="344961" />
		<tag k="waterway" v="stream" />
	</node>
	<node id="-138972" lat="60.5600055519" lon="10.4401972178">
		<tag k="name" v="Svartbekken" />
		<tag k="ssr:stedsnr" v="335448" />
		<tag k="waterway" v="stream" />
	</node>
	<node id="-138966" lat="60.7675500011" lon="10.3214416642">
		<tag k="name" v="Knottbekken" />
		<tag k="ssr:stedsnr" v="313745" />
		<tag k="waterway" v="stream" />
	</node>
	<node id="-138954" lat="60.7175888884" lon="10.1300555532">
		<tag k="alt_name" v="Fjøltjenn" />
		<tag k="name" v="Fjøltjernet" />
		<tag k="natural" v="water" />
		<tag k="ssr:stedsnr" v="310802" />
	</node>
	<node id="-138948" lat="60.7475500712" lon="10.179730319">
		<tag k="alt_name" v="Kaldingen, vesle;Kaldingen" />
		<tag k="name" v="Vesle Kaldingen" />
		<tag k="natural" v="water" />
		<tag k="ssr:stedsnr" v="310758" />
	</node>
	<node id="-138946" lat="60.6737555535" lon="10.0786222288">
		<tag k="name" v="Skålvatnet" />
		<tag k="natural" v="water" />
		<tag k="ssr:stedsnr" v="310723" />
	</node>
	<node id="-138944" lat="60.6684699654" lon="10.2374137043">
		<tag k="alt_name" v="Vatnetjenn" />
		<tag k="name" v="Vatnetjernet" />
		<tag k="natural" v="water" />
		<tag k="ssr:stedsnr" v="310719" />
	</node>
	<node id="-138941" lat="60.6850527778" lon="10.0983527837">
		<tag k="name" v="Aurlibekken" />
		<tag k="ssr:stedsnr" v="310693" />
		<tag k="waterway" v="stream" />
	</node>
	<node id="-138939" lat="60.6110500033" lon="10.1552083281">
		<tag k="alt_name" v="Haratjenn" />
		<tag k="name" v="Haratjernet" />
		<tag k="natural" v="water" />
		<tag k="ssr:stedsnr" v="310673" />
	</node>
	<node id="-138938" lat="60.651249998" lon="10.1837750043">
		<tag k="name" v="Askvikfløyta" />
		<tag k="natural" v="water" />
		<tag k="ssr:stedsnr" v="310651" />
		<tag k="water" v="lake" />
	</node>
	<node id="-140985" lat="60.623455557" lon="10.0901000008">
		<tag k="name" v="Veltsøvassvika" />
		<tag k="natural" v="bay" />
		<tag k="ssr:stedsnr" v="966834" />
	</node>
	<node id="-138936" lat="60.5817500004" lon="10.1195416688">
		<tag k="alt_name" v="Dalevatnet, s;Søndre Dalevatnet;Søndre Dalavatnet" />
		<tag k="name" v="Søre Dalavatnet" />
		<tag k="natural" v="water" />
		<tag k="ssr:stedsnr" v="310619" />
	</node>
	<node id="-138935" lat="60.5815527809" lon="10.1869527866">
		<tag k="name" v="Lauvlivassbekken" />
		<tag k="ssr:stedsnr" v="310616" />
		<tag k="waterway" v="stream" />
	</node>
	<node id="-138934" lat="60.5665166657" lon="10.2659694517">
		<tag k="alt_name" v="Purketjenn" />
		<tag k="name" v="Purketjernet" />
		<tag k="natural" v="water" />
		<tag k="ssr:stedsnr" v="310613" />
	</node>
	<node id="-138933" lat="60.5643916626" lon="10.1946249981">
		<tag k="alt_name" v="Flåtjernet, store" />
		<tag k="name" v="Store Flåtjenn" />
		<tag k="natural" v="water" />
		<tag k="ssr:stedsnr" v="310602" />
	</node>
	<node id="-138931" lat="60.571652777" lon="10.2383916582">
		<tag k="alt_name" v="Maurtjernet, nordre" />
		<tag k="name" v="Vesle Maurtjenn" />
		<tag k="natural" v="water" />
		<tag k="ssr:stedsnr" v="310596" />
	</node>
	<node id="-138929" lat="60.5851111079" lon="10.1714750027">
		<tag k="alt_name" v="Breitjenn" />
		<tag k="name" v="Breidtjernet" />
		<tag k="natural" v="water" />
		<tag k="ssr:stedsnr" v="310565" />
	</node>
	<node id="-140976" lat="60.5457972238" lon="10.2490222307">
		<tag k="name" v="Dumpidalsputten" />
		<tag k="natural" v="water" />
		<tag k="ssr:stedsnr" v="966522" />
		<tag k="water" v="pond" />
	</node>
	<node id="-140960" lat="60.6165527747" lon="10.1977472167">
		<tag k="name" v="Rundtjennsbekken" />
		<tag k="ssr:stedsnr" v="966078" />
		<tag k="waterway" v="stream" />
	</node>
	<node id="-138910" lat="60.6078749955" lon="10.517455561">
		<tag k="alt_name" v="Svarttjenn" />
		<tag k="name" v="Svarttjern" />
		<tag k="natural" v="water" />
		<tag k="ssr:stedsnr" v="310197" />
	</node>
	<node id="-138909" lat="60.609272219" lon="10.4733111107">
		<tag k="name" v="Svartbekken" />
		<tag k="ssr:stedsnr" v="310194" />
		<tag k="waterway" v="stream" />
	</node>
	<node id="-138908" lat="60.6138000011" lon="10.3981888942">
		<tag k="alt_name" v="Gåstjenn" />
		<tag k="name" v="Gåstjerna" />
		<tag k="natural" v="water" />
		<tag k="ssr:stedsnr" v="310192" />
	</node>
	<node id="-140950" lat="60.7683138933" lon="10.3934138917">
		<tag k="name" v="Rudsseterløken" />
		<tag k="ssr:stedsnr" v="951396" />
		<tag k="waterway" v="stream" />
	</node>
	<node id="-138900" lat="60.7059555544" lon="10.329519449">
		<tag k="name" v="Moeslandet" />
		<tag k="natural" v="cape" />
		<tag k="ssr:stedsnr" v="299653" />
	</node>
	<node id="-140947" lat="60.6248222224" lon="10.5076749965">
		<tag k="name" v="Korsbekken" />
		<tag k="ssr:stedsnr" v="951315" />
		<tag k="waterway" v="stream" />
	</node>
	<node id="-138898" lat="60.5890111117" lon="10.2667833272">
		<tag k="name" v="Engemyrbekken" />
		<tag k="ssr:stedsnr" v="299580" />
		<tag k="waterway" v="stream" />
	</node>
	<node id="-140944" lat="60.6959833304" lon="10.0109055598">
		<tag k="name" v="Stolpetjennsbekken" />
		<tag k="ssr:stedsnr" v="949103" />
		<tag k="waterway" v="stream" />
	</node>
	<node id="-140943" lat="60.5494472215" lon="10.3877111078">
		<tag k="name" v="Skjelvarmputten" />
		<tag k="natural" v="water" />
		<tag k="ssr:stedsnr" v="942183" />
	</node>
	<node id="-140939" lat="60.7663111104" lon="10.1849333422">
		<tag k="alt_name" v="Rosttjernet, l;Vesle Rosttjenn" />
		<tag k="name" v="Lille Rosttjernet" />
		<tag k="natural" v="water" />
		<tag k="ssr:stedsnr" v="920736" />
	</node>
	<node id="-140937" lat="60.7548499972" lon="10.1129833243">
		<tag k="name" v="Haramyrbekken" />
		<tag k="ssr:stedsnr" v="920733" />
		<tag k="waterway" v="stream" />
	</node>
	<node id="-138860" lat="60.8334111104" lon="10.2681638977">
		<tag k="name" v="Fløytene" />
		<tag k="natural" v="water" />
		<tag k="ssr:stedsnr" v="298165" />
		<tag k="water" v="lake" />
	</node>
	<node id="-138880" lat="60.5604416651" lon="10.1820833373">
		<tag k="name" v="Endelausmyrputten" />
		<tag k="natural" v="water" />
		<tag k="ssr:stedsnr" v="298831" />
	</node>
	<node id="-138878" lat="60.7650500038" lon="10.3064666684">
		<tag k="name" v="Putten" />
		<tag k="natural" v="water" />
		<tag k="ssr:stedsnr" v="298804" />
	</node>
	<node id="-140925" lat="60.5410416706" lon="10.3522166732">
		<tag k="alt_name" v="Øytjenn" />
		<tag k="name" v="Øytjernet" />
		<tag k="natural" v="water" />
		<tag k="ssr:stedsnr" v="917890" />
	</node>
	<node id="-140923" lat="60.726311112" lon="10.0680861049">
		<tag k="alt_name" v="Purkvassbekken" />
		<tag k="name" v="Purkvadbekken" />
		<tag k="ssr:stedsnr" v="917765" />
		<tag k="waterway" v="stream" />
	</node>
	<node id="-138874" lat="60.6140250037" lon="10.0717666641">
		<tag k="alt_name" v="Grautvatna" />
		<tag k="name" v="Grautvatn" />
		<tag k="natural" v="water" />
		<tag k="ssr:stedsnr" v="298761" />
	</node>
	<node id="-138873" lat="60.6174916696" lon="10.1260138842">
		<tag k="name" v="Noratangen" />
		<tag k="natural" v="cape" />
		<tag k="ssr:stedsnr" v="298755" />
	</node>
	<node id="-140920" lat="60.73877778" lon="10.217458338">
		<tag k="name" v="Nordråkselva" />
		<tag k="ssr:stedsnr" v="917753" />
		<tag k="waterway" v="stream" />
	</node>
	<node id="-140919" lat="60.685913887" lon="10.2673944388">
		<tag k="name" v="Lidammen" />
		<tag k="natural" v="water" />
		<tag k="ssr:stedsnr" v="917731" />
	</node>
	<node id="-140916" lat="60.6690027782" lon="10.2542416638">
		<tag k="name" v="Arnsveputten" />
		<tag k="natural" v="water" />
		<tag k="ssr:stedsnr" v="917699" />
	</node>
	<node id="-140915" lat="60.6642000034" lon="10.287927769">
		<tag k="alt_name" v="Velttjenn" />
		<tag k="name" v="Vesletjernet" />
		<tag k="natural" v="water" />
		<tag k="ssr:stedsnr" v="917698" />
	</node>
	<node id="-140914" lat="60.6674166652" lon="10.282686115">
		<tag k="alt_name" v="Damtjenn" />
		<tag k="name" v="Damtjernet" />
		<tag k="natural" v="water" />
		<tag k="ssr:stedsnr" v="917695" />
	</node>
	<node id="-140908" lat="60.6109000042" lon="10.1965055577">
		<tag k="alt_name" v="Rundtjenn" />
		<tag k="name" v="Rundtjernet" />
		<tag k="natural" v="water" />
		<tag k="ssr:stedsnr" v="917643" />
	</node>
	<node id="-140907" lat="60.6178055568" lon="10.2265833302">
		<tag k="name" v="Lomsdalselva" />
		<tag k="ssr:stedsnr" v="917642" />
		<tag k="waterway" v="river" />
	</node>
	<node id="-138858" lat="60.6226222257" lon="10.1480750052">
		<tag k="name" v="Lekkerbekken" />
		<tag k="ssr:stedsnr" v="298085" />
		<tag k="waterway" v="stream" />
	</node>
	<node id="-140905" lat="60.65156855" lon="10.1169460481">
		<tag k="alt_name" v="Store Sandungen" />
		<tag k="name" v="Storsandungen" />
		<tag k="natural" v="water" />
		<tag k="ssr:stedsnr" v="917614" />
		<tag k="water" v="lake" />
	</node>
	<node id="-140901" lat="60.5813249964" lon="10.1330833384">
		<tag k="alt_name" v="Maurtjenn" />
		<tag k="name" v="Maurtjernet" />
		<tag k="natural" v="water" />
		<tag k="ssr:stedsnr" v="917591" />
	</node>
	<node id="-140900" lat="60.5643027787" lon="10.1886027756">
		<tag k="alt_name" v="Flåtjernet, vesle;Vesle Flåtjenn" />
		<tag k="name" v="Vesle Flåtjernet" />
		<tag k="natural" v="water" />
		<tag k="ssr:stedsnr" v="917576" />
	</node>
	<node id="-140898" lat="60.5836766469" lon="10.1636224912">
		<tag k="alt_name" v="Grågåstjernet, s;Søndre Grågåstjenn" />
		<tag k="name" v="Søre Grågåstjenn" />
		<tag k="natural" v="water" />
		<tag k="ssr:stedsnr" v="917543" />
	</node>
	<node id="-140895" lat="60.5648111073" lon="10.2074638968">
		<tag k="alt_name" v="Kabustjenn" />
		<tag k="name" v="Kabustjernet" />
		<tag k="natural" v="water" />
		<tag k="ssr:stedsnr" v="917507" />
	</node>
	<node id="-138846" lat="60.6299027786" lon="10.0737694405">
		<tag k="name" v="Epla" />
		<tag k="natural" v="cape" />
		<tag k="ssr:stedsnr" v="284817" />
	</node>
	<node id="-140893" lat="60.5497944404" lon="10.1921555522">
		<tag k="alt_name" v="Øytjernet, austre;Østre Øytjenn" />
		<tag k="name" v="Østre Øytjernet" />
		<tag k="natural" v="water" />
		<tag k="ssr:stedsnr" v="917486" />
	</node>
	<node id="-140892" lat="60.5472027822" lon="10.1964499959">
		<tag k="alt_name" v="Øytjennsbekken" />
		<tag k="name" v="Øytjernbekken" />
		<tag k="ssr:stedsnr" v="917487" />
		<tag k="waterway" v="stream" />
	</node>
	<node id="-138841" lat="60.7224333368" lon="10.189188891">
		<tag k="name" v="Lønnfiskevann" />
		<tag k="natural" v="water" />
		<tag k="ssr:stedsnr" v="284277" />
	</node>
	<node id="-138852" lat="60.7156583324" lon="10.3027833386">
		<tag k="name" v="Ilodden" />
		<tag k="natural" v="cape" />
		<tag k="ssr:stedsnr" v="284795" />
	</node>
	<node id="-138836" lat="60.6499555537" lon="10.1785750053">
		<tag k="name" v="Rompetjennet" />
		<tag k="natural" v="water" />
		<tag k="ssr:stedsnr" v="284065" />
	</node>
	<node id="-138834" lat="60.6535111097" lon="10.1185083284">
		<tag k="name" v="Drepen" />
		<tag k="place" v="islet" />
		<tag k="ssr:stedsnr" v="283964" />
	</node>
	<node id="-140881" lat="60.5836138907" lon="10.4017972261">
		<tag k="alt_name" v="Sandsætertjenn" />
		<tag k="name" v="Sætertjernet" />
		<tag k="natural" v="water" />
		<tag k="ssr:stedsnr" v="917131" />
	</node>
	<node id="-140880" lat="60.5533444441" lon="10.3849555497">
		<tag k="alt_name" v="Store Holmetjenn" />
		<tag k="name" v="Holmetjernet" />
		<tag k="natural" v="water" />
		<tag k="ssr:stedsnr" v="917105" />
	</node>
	<node id="-140878" lat="60.7218944435" lon="10.0025083371">
		<tag k="name" v="Sikholmen" />
		<tag k="place" v="islet" />
		<tag k="ssr:stedsnr" v="907080" />
	</node>
	<node id="-140866" lat="60.5914500007" lon="10.1751805608">
		<tag k="name" v="Breitjennsbekken" />
		<tag k="ssr:stedsnr" v="905506" />
		<tag k="waterway" v="stream" />
	</node>
	<node id="-140859" lat="60.7153666652" lon="10.3773611116">
		<tag k="name" v="Tjernsrudtjernet" />
		<tag k="natural" v="water" />
		<tag k="ssr:stedsnr" v="905366" />
	</node>
	<node id="-140855" lat="60.6362499985" lon="10.5027749984">
		<tag k="alt_name" v="Bågårudtjenn" />
		<tag k="name" v="Bågårudtjennet" />
		<tag k="natural" v="water" />
		<tag k="ssr:stedsnr" v="905231" />
	</node>
	<node id="-140849" lat="60.6944694415" lon="10.1870500025">
		<tag k="name" v="Kompelifløyta" />
		<tag k="natural" v="water" />
		<tag k="ssr:stedsnr" v="905118" />
		<tag k="water" v="lake" />
	</node>
	<node id="-140845" lat="60.7584527801" lon="10.2895555602">
		<tag k="alt_name" v="Attjenn" />
		<tag k="name" v="Attjernet" />
		<tag k="natural" v="water" />
		<tag k="ssr:stedsnr" v="859712" />
	</node>
	<node id="-140829" lat="60.6935381658" lon="10.0192126836">
		<tag k="alt_name" v="Stolpetjenn;Stolpetjern" />
		<tag k="name" v="Stolpetjernet" />
		<tag k="natural" v="water" />
		<tag k="ssr:stedsnr" v="857716" />
	</node>
	<node id="-140828" lat="60.6902111136" lon="10.1933527804">
		<tag k="alt_name" v="Ormetjennsbekken;Ormtjernsbekken" />
		<tag k="name" v="Ormetjernsbekken" />
		<tag k="ssr:stedsnr" v="857703" />
		<tag k="waterway" v="stream" />
	</node>
	<node id="-140826" lat="60.6304002643" lon="10.2922648126">
		<tag k="alt_name" v="Gravtjenn;Gravtjern" />
		<tag k="name" v="Gravtjernet" />
		<tag k="natural" v="water" />
		<tag k="ssr:stedsnr" v="857684" />
	</node>
	<node id="-140825" lat="60.5784416699" lon="10.1905416744">
		<tag k="name" v="Kringlevassbekken" />
		<tag k="ssr:stedsnr" v="857615" />
		<tag k="waterway" v="stream" />
	</node>
	<node id="-140824" lat="60.5746388913" lon="10.2061333358">
		<tag k="name" v="Kringlevatnet" />
		<tag k="natural" v="water" />
		<tag k="ssr:stedsnr" v="857613" />
	</node>
	<node id="-140819" lat="60.5593104643" lon="10.1702502731">
		<tag k="alt_name" v="Hornslisvetjenn;Hornslisvetjern" />
		<tag k="name" v="Hornslitjernet" />
		<tag k="natural" v="water" />
		<tag k="ssr:stedsnr" v="857534" />
	</node>
	<node id="-140815" lat="60.648837066" lon="10.4647935529">
		<tag k="name" v="Tretjerna" />
		<tag k="natural" v="water" />
		<tag k="ssr:stedsnr" v="857292" />
		<tag k="water" v="lake" />
	</node>
	<node id="-140814" lat="60.628742443" lon="10.4057390129">
		<tag k="alt_name" v="Abbortjenn" />
		<tag k="name" v="Abbortjern" />
		<tag k="natural" v="water" />
		<tag k="ssr:stedsnr" v="857276" />
	</node>
	<node id="-140810" lat="60.557750004" lon="10.3700722151">
		<tag k="alt_name" v="Øytjenn;Øytjern" />
		<tag k="name" v="Øytjernet" />
		<tag k="natural" v="water" />
		<tag k="ssr:stedsnr" v="857134" />
	</node>
	<node id="-138839" lat="60.7246416623" lon="10.1332999971">
		<tag k="name" v="Hollandshølen" />
		<tag k="place" v="locality" />
		<tag k="ssr:stedsnr" v="284269" />
	</node>
	<node id="-140808" lat="60.6726611101" lon="10.1828749987">
		<tag k="name" v="Lygna" />
		<tag k="ssr:stedsnr" v="856919" />
		<tag k="waterway" v="river" />
	</node>
	<node id="-140803" lat="60.6651027761" lon="10.2034611042">
		<tag k="name" v="Dritmyrbekken" />
		<tag k="ssr:stedsnr" v="856730" />
		<tag k="waterway" v="stream" />
	</node>
	<node id="-140800" lat="60.660836542" lon="10.2570057607">
		<tag k="alt_name" v="Svarttjenn;Svarttjern" />
		<tag k="name" v="Svarttjernet" />
		<tag k="natural" v="water" />
		<tag k="ssr:stedsnr" v="856673" />
	</node>
	<node id="-140794" lat="60.5853951069" lon="10.4312500603">
		<tag k="alt_name" v="Bjørvatnet, s;Søndre Bjørvatnet" />
		<tag k="name" v="Søre Bjørvatnet" />
		<tag k="natural" v="water" />
		<tag k="ssr:stedsnr" v="856197" />
		<tag k="water" v="lake" />
	</node>
	<node id="-140792" lat="60.5663532171" lon="10.4567460514">
		<tag k="alt_name" v="Nordre Tretjenn;Nordre Tretjern" />
		<tag k="name" v="Tretjerna" />
		<tag k="natural" v="water" />
		<tag k="ssr:stedsnr" v="856138" />
	</node>
	<node id="-140789" lat="60.5655333319" lon="10.1376722237">
		<tag k="name" v="Togmyrputten" />
		<tag k="natural" v="water" />
		<tag k="ssr:stedsnr" v="845916" />
		<tag k="water" v="pond" />
	</node>
	<node id="-140788" lat="60.600908332" lon="10.174819443">
		<tag k="alt_name" v="Bergetjernsbekken" />
		<tag k="name" v="Bergetjennsbekken" />
		<tag k="ssr:stedsnr" v="845911" />
		<tag k="waterway" v="stream" />
	</node>
	<node id="-140784" lat="60.5536972226" lon="10.1918749952">
		<tag k="alt_name" v="Hjerterostjenn" />
		<tag k="name" v="Hjerterostjern" />
		<tag k="natural" v="water" />
		<tag k="ssr:stedsnr" v="845897" />
	</node>
	<node id="-140783" lat="60.5678444481" lon="10.201963886">
		<tag k="alt_name" v="Tolvtjernsputta" />
		<tag k="name" v="Tolvtjennsputta" />
		<tag k="natural" v="water" />
		<tag k="ssr:stedsnr" v="845896" />
		<tag k="water" v="lake" />
	</node>
	<node id="-140779" lat="60.6209666654" lon="10.0968166601">
		<tag k="name" v="Vesle Søvatnet" />
		<tag k="natural" v="water" />
		<tag k="ssr:stedsnr" v="845845" />
	</node>
	<node id="-140778" lat="60.5954944412" lon="10.1164888803">
		<tag k="name" v="Bjønndalsbekken" />
		<tag k="ssr:stedsnr" v="845843" />
		<tag k="waterway" v="stream" />
	</node>
	<node id="-140777" lat="60.5916444445" lon="10.114061105">
		<tag k="alt_name" v="Grevlingtjern" />
		<tag k="name" v="Grevlingtjenn" />
		<tag k="natural" v="water" />
		<tag k="ssr:stedsnr" v="845844" />
	</node>
	<node id="-140776" lat="60.5919472227" lon="10.0808805542">
		<tag k="alt_name" v="Briskjeternsbekken" />
		<tag k="name" v="Briskjetjennsbekken" />
		<tag k="ssr:stedsnr" v="845842" />
		<tag k="waterway" v="stream" />
	</node>
	<node id="-140770" lat="60.5876388931" lon="10.3390027795">
		<tag k="name" v="Sandbergbekken" />
		<tag k="ssr:stedsnr" v="845601" />
		<tag k="waterway" v="stream" />
	</node>
	<node id="-140765" lat="60.602416671" lon="10.5279583358">
		<tag k="name" v="Skvalabekken" />
		<tag k="ssr:stedsnr" v="845429" />
		<tag k="waterway" v="stream" />
	</node>
	<node id="-140764" lat="60.7270166676" lon="10.3665888943">
		<tag k="name" v="Sagdammen" />
		<tag k="natural" v="water" />
		<tag k="ssr:stedsnr" v="845413" />
	</node>
	<node id="-140758" lat="60.6813805597" lon="10.3741916626">
		<tag k="name" v="Fløyta" />
		<tag k="natural" v="water" />
		<tag k="ssr:stedsnr" v="845377" />
		<tag k="water" v="lake" />
	</node>
	<node id="-140751" lat="60.5995777781" lon="10.4202111157">
		<tag k="alt_name" v="Lille Kaldtjenn" />
		<tag k="name" v="Lille Kaldtjern" />
		<tag k="natural" v="water" />
		<tag k="ssr:stedsnr" v="845206" />
	</node>
	<node id="-140750" lat="60.5881583352" lon="10.3994083344">
		<tag k="name" v="Bikkjeputten" />
		<tag k="natural" v="water" />
		<tag k="ssr:stedsnr" v="845203" />
		<tag k="water" v="pond" />
	</node>
	<node id="-140743" lat="60.6335416634" lon="10.0896277802">
		<tag k="name" v="Store Rosund" />
		<tag k="natural" v="strait" />
		<tag k="ssr:stedsnr" v="830786" />
	</node>
	<node id="-140742" lat="60.6392992831" lon="10.0712956505">
		<tag k="name" v="Bredviktjenn" />
		<tag k="natural" v="water" />
		<tag k="ssr:stedsnr" v="830784" />
	</node>
	<node id="-140736" lat="60.6007388903" lon="10.2662527799">
		<tag k="name" v="Haugkvernhusbekken" />
		<tag k="ssr:stedsnr" v="830569" />
		<tag k="waterway" v="stream" />
	</node>
	<node id="-140731" lat="60.7569777733" lon="10.3997861179">
		<tag k="name" v="Sjellmyrbekken" />
		<tag k="ssr:stedsnr" v="830374" />
		<tag k="waterway" v="stream" />
	</node>
	<node id="-140708" lat="60.6752916668" lon="10.2766916707">
		<tag k="alt_name" v="Midttjenn" />
		<tag k="name" v="Midttjernet" />
		<tag k="natural" v="water" />
		<tag k="ssr:stedsnr" v="796748" />
	</node>
	<node id="-140707" lat="60.6767000022" lon="10.294613895">
		<tag k="fixme" v="multiple name tags, choose one and add the other to alt_name" />
		<tag k="name" v="Bjørlielva;Oddelva" />
		<tag k="ssr:stedsnr" v="796743" />
		<tag k="waterway" v="stream" />
	</node>
	<node id="-140705" lat="60.7041250018" lon="10.254805563">
		<tag k="name" v="Kumpelibekken" />
		<tag k="ssr:stedsnr" v="796725" />
		<tag k="waterway" v="stream" />
	</node>
	<node id="-140703" lat="60.6180861078" lon="10.1015388962">
		<tag k="alt_name" v="Tyrihjelltjenn" />
		<tag k="name" v="Tyrihjelltjernet" />
		<tag k="natural" v="water" />
		<tag k="ssr:stedsnr" v="796662" />
	</node>
	<node id="-140702" lat="60.6187777738" lon="10.1296305628">
		<tag k="alt_name" v="Dalavatnet, nordre" />
		<tag k="name" v="Nordre Dalavatnet" />
		<tag k="natural" v="water" />
		<tag k="ssr:stedsnr" v="796661" />
	</node>
	<node id="-140701" lat="60.6481888881" lon="10.2673333259">
		<tag k="alt_name" v="Gunnersvetjenn" />
		<tag k="name" v="Grunnerssvetjerna" />
		<tag k="natural" v="water" />
		<tag k="ssr:stedsnr" v="796646" />
	</node>
	<node id="-140700" lat="60.6479388911" lon="10.2144083384">
		<tag k="alt_name" v="Hulderbekken" />
		<tag k="name" v="Huldrebekken" />
		<tag k="ssr:stedsnr" v="796643" />
		<tag k="waterway" v="stream" />
	</node>
	<node id="-140697" lat="60.5698777821" lon="10.0926527781">
		<tag k="name" v="Stormyrbekken" />
		<tag k="ssr:stedsnr" v="796611" />
		<tag k="waterway" v="stream" />
	</node>
	<node id="-140696" lat="60.5779666675" lon="10.0991722138">
		<tag k="alt_name" v="Flåtjenn" />
		<tag k="name" v="Flåtjernet" />
		<tag k="natural" v="water" />
		<tag k="ssr:stedsnr" v="796610" />
	</node>
	<node id="-140695" lat="60.5683444415" lon="10.2647583258">
		<tag k="alt_name" v="Gulsetjenn" />
		<tag k="name" v="Gulsetjernet" />
		<tag k="natural" v="water" />
		<tag k="ssr:stedsnr" v="796600" />
	</node>
	<node id="-140691" lat="60.5419746002" lon="10.2314595585">
		<tag k="alt_name" v="Tretjernet, s;Søndre Tretjenn;Søre Tretjenn" />
		<tag k="name" v="Søre Tretjern" />
		<tag k="natural" v="water" />
		<tag k="ssr:stedsnr" v="796553" />
	</node>
	<node id="-140690" lat="60.5456166704" lon="10.1110916741">
		<tag k="alt_name" v="Aurtjernet" />
		<tag k="name" v="Aurtjern" />
		<tag k="natural" v="water" />
		<tag k="ssr:stedsnr" v="796549" />
	</node>
	<node id="-140689" lat="60.5576388924" lon="10.2721777757">
		<tag k="name" v="Åbortjernbekken" />
		<tag k="ssr:stedsnr" v="796528" />
		<tag k="waterway" v="stream" />
	</node>
	<node id="-140688" lat="60.558600003" lon="10.2232305486">
		<tag k="alt_name" v="Luddetjernet" />
		<tag k="name" v="Luddetjenn" />
		<tag k="natural" v="water" />
		<tag k="ssr:stedsnr" v="796525" />
	</node>
	<node id="-140687" lat="60.5517611069" lon="10.1871944425">
		<tag k="alt_name" v="Øytjernet, vestre;Vestre Øytjenn" />
		<tag k="name" v="Vestre Øytjernet" />
		<tag k="natural" v="water" />
		<tag k="ssr:stedsnr" v="796509" />
	</node>
	<node id="-140685" lat="60.7207750023" lon="10.4036777731">
		<tag k="name" v="Løkbekken" />
		<tag k="ssr:stedsnr" v="796423" />
		<tag k="waterway" v="stream" />
	</node>
	<node id="-140683" lat="60.724694443" lon="10.4631055512">
		<tag k="alt_name" v="Blekktjernet, s;Søndre Blekktjernet;Blekjetjern søndre" />
		<tag k="name" v="Søre Blekktjernet" />
		<tag k="natural" v="water" />
		<tag k="ssr:stedsnr" v="796411" />
	</node>
	<node id="-140676" lat="60.644800003" lon="10.4186055606">
		<tag k="name" v="Nora" />
		<tag k="natural" v="strait" />
		<tag k="ssr:stedsnr" v="796267" />
	</node>
	<node id="-140668" lat="60.659349999" lon="10.430627784">
		<tag k="alt_name" v="Lønnfiske" />
		<tag k="name" v="Lønfisket" />
		<tag k="natural" v="water" />
		<tag k="ssr:stedsnr" v="795294" />
	</node>
	<node id="-140667" lat="60.5753472207" lon="10.479030564">
		<tag k="alt_name" v="Sandsetertjenn" />
		<tag k="name" v="Sandsætertjernet" />
		<tag k="natural" v="water" />
		<tag k="ssr:stedsnr" v="795189" />
	</node>
	<node id="-140630" lat="60.5893750024" lon="10.4784055638">
		<tag k="name" v="Gillemyrbekken" />
		<tag k="ssr:stedsnr" v="784247" />
		<tag k="waterway" v="stream" />
	</node>
	<node id="-140618" lat="60.5670333307" lon="10.1765388975">
		<tag k="name" v="Jevnbreddebekken" />
		<tag k="ssr:stedsnr" v="769892" />
		<tag k="waterway" v="stream" />
	</node>
	<node id="-140602" lat="60.7326277738" lon="10.2308083355">
		<tag k="name" v="Sæterbekken" />
		<tag k="ssr:stedsnr" v="769240" />
		<tag k="waterway" v="stream" />
	</node>
	<node id="-140598" lat="60.5608166644" lon="10.1310305468">
		<tag k="name" v="Fløaputten" />
		<tag k="natural" v="water" />
		<tag k="ssr:stedsnr" v="768854" />
		<tag k="water" v="pond" />
	</node>
	<node id="-140597" lat="60.6758249981" lon="10.1472555524">
		<tag k="name" v="Klukkersæterbekken" />
		<tag k="ssr:stedsnr" v="768126" />
		<tag k="waterway" v="stream" />
	</node>
	<node id="-140592" lat="60.763891664" lon="10.1720500067">
		<tag k="alt_name" v="Rundtjenn;Rundtjern" />
		<tag k="name" v="Rundtjernet" />
		<tag k="natural" v="water" />
		<tag k="ssr:stedsnr" v="737736" />
	</node>
	<node id="-140571" lat="60.7210555553" lon="10.0855027869">
		<tag k="name" v="Øktmyrbekken" />
		<tag k="ssr:stedsnr" v="735786" />
		<tag k="waterway" v="stream" />
	</node>
	<node id="-140559" lat="60.621900003" lon="10.2740333368">
		<tag k="alt_name" v="Stokktjennbekken" />
		<tag k="name" v="Stokktjernbekken" />
		<tag k="ssr:stedsnr" v="735666" />
		<tag k="waterway" v="stream" />
	</node>
	<node id="-140557" lat="60.6592554001" lon="10.0843604451">
		<tag k="alt_name" v="Høgbrenntjernet;Høgbrenntjenn" />
		<tag k="name" v="Høgbrenntjern" />
		<tag k="natural" v="water" />
		<tag k="ssr:stedsnr" v="735639" />
	</node>
	<node id="-140555" lat="60.6382749995" lon="10.3047916645">
		<tag k="name" v="Kvernbekken" />
		<tag k="ssr:stedsnr" v="735614" />
		<tag k="waterway" v="stream" />
	</node>
	<node id="-140554" lat="60.5753413322" lon="10.1267569189">
		<tag k="alt_name" v="Langspæltjennet" />
		<tag k="name" v="Langspæltjernet" />
		<tag k="natural" v="water" />
		<tag k="ssr:stedsnr" v="735603" />
	</node>
	<node id="-140550" lat="60.5862277752" lon="10.1186722274">
		<tag k="alt_name" v="Meungen" />
		<tag k="name" v="Medungen" />
		<tag k="natural" v="water" />
		<tag k="ssr:stedsnr" v="735549" />
	</node>
	<node id="-140544" lat="60.7105333349" lon="10.4162500031">
		<tag k="alt_name" v="Skjeggumvatn" />
		<tag k="name" v="Skjeggom" />
		<tag k="natural" v="water" />
		<tag k="ssr:stedsnr" v="735373" />
	</node>
	<node id="-140535" lat="60.6474055545" lon="10.4896527801">
		<tag k="name" v="Skjerra" />
		<tag k="ssr:stedsnr" v="735260" />
		<tag k="waterway" v="river" />
	</node>
	<node id="-140532" lat="60.6207861076" lon="10.5276972299">
		<tag k="alt_name" v="Svarttjennsbekken" />
		<tag k="name" v="Svarttjernbekken" />
		<tag k="ssr:stedsnr" v="735219" />
		<tag k="waterway" v="stream" />
	</node>
	<node id="-140529" lat="60.5704818084" lon="10.4108790289">
		<tag k="alt_name" v="Holotjenn;Holotjern" />
		<tag k="name" v="Holotjernet" />
		<tag k="natural" v="water" />
		<tag k="ssr:stedsnr" v="735130" />
	</node>
	<node id="-140528" lat="60.5548722211" lon="10.39279722">
		<tag k="alt_name" v="Rasmusputten" />
		<tag k="name" v="Rasmusputtane" />
		<tag k="natural" v="water" />
		<tag k="ssr:stedsnr" v="735103" />
	</node>
	<node id="-140521" lat="60.5638444445" lon="10.2005333412">
		<tag k="name" v="Bursintjenn" />
		<tag k="natural" v="water" />
		<tag k="ssr:stedsnr" v="723842" />
	</node>
	<node id="-140513" lat="60.6758194447" lon="10.1174694499">
		<tag k="name" v="Jensveberga" />
		<tag k="ssr:stedsnr" v="723948" />
		<tag k="waterway" v="stream" />
	</node>
	<node id="-140512" lat="60.5707944468" lon="10.3325444506">
		<tag k="name" v="Kristenstubekken" />
		<tag k="ssr:stedsnr" v="723436" />
		<tag k="waterway" v="stream" />
	</node>
	<node id="-140508" lat="60.6525416648" lon="10.4099722308">
		<tag k="name" v="Djupvika" />
		<tag k="natural" v="bay" />
		<tag k="ssr:stedsnr" v="723286" />
	</node>
	<node id="-140504" lat="60.6159611111" lon="10.3988750065">
		<tag k="name" v="Gåstjenn" />
		<tag k="natural" v="water" />
		<tag k="ssr:stedsnr" v="723237" />
	</node>
	<node id="-140496" lat="60.6238027797" lon="10.4819277761">
		<tag k="name" v="Veltvatnet" />
		<tag k="natural" v="bay" />
		<tag k="ssr:stedsnr" v="723231" />
	</node>
	<node id="-140488" lat="60.6893222193" lon="10.1369833371">
		<tag k="name" v="Firekantputten" />
		<tag k="natural" v="water" />
		<tag k="ssr:stedsnr" v="723116" />
		<tag k="water" v="pond" />
	</node>
	<node id="-140484" lat="60.6704361106" lon="10.0684361157">
		<tag k="name" v="Veslevatnet" />
		<tag k="natural" v="water" />
		<tag k="ssr:stedsnr" v="708983" />
	</node>
	<node id="-140483" lat="60.6897722244" lon="10.0368166749">
		<tag k="name" v="Bjønndalsputta" />
		<tag k="natural" v="water" />
		<tag k="ssr:stedsnr" v="708963" />
		<tag k="water" v="pond" />
	</node>
	<node id="-140482" lat="60.7044222195" lon="10.0391416593">
		<tag k="name" v="Kvitingsløken" />
		<tag k="natural" v="water" />
		<tag k="ssr:stedsnr" v="708959" />
		<tag k="water" v="lake" />
	</node>
	<node id="-140481" lat="60.662016666" lon="10.111694438">
		<tag k="name" v="Storsandungselva" />
		<tag k="ssr:stedsnr" v="708944" />
		<tag k="waterway" v="river" />
	</node>
	<node id="-140479" lat="60.7262984417" lon="10.1079458385">
		<tag k="name" v="Lille Grevsjøen" />
		<tag k="natural" v="water" />
		<tag k="ssr:stedsnr" v="708871" />
		<tag k="water" v="lake" />
	</node>
	<node id="-140478" lat="60.7292611127" lon="10.1007777828">
		<tag k="name" v="Oterbækholmen" />
		<tag k="place" v="islet" />
		<tag k="ssr:stedsnr" v="708870" />
	</node>
	<node id="-140477" lat="60.7480194465" lon="10.1245833392">
		<tag k="name" v="Telemarken" />
		<tag k="place" v="islet" />
		<tag k="ssr:stedsnr" v="708865" />
	</node>
	<node id="-140469" lat="60.5742083301" lon="10.2604444396">
		<tag k="name" v="Vesle Steffatjenn" />
		<tag k="natural" v="water" />
		<tag k="ssr:stedsnr" v="708444" />
	</node>
	<node id="-140463" lat="60.7074666702" lon="10.1970722183">
		<tag k="name" v="Totjennsbekken" />
		<tag k="ssr:stedsnr" v="708258" />
		<tag k="waterway" v="stream" />
	</node>
	<node id="-140461" lat="60.8221277769" lon="10.3336444461">
		<tag k="name" v="Revodden" />
		<tag k="natural" v="cape" />
		<tag k="ssr:stedsnr" v="708113" />
	</node>
	<node id="-140454" lat="60.8105499996" lon="10.2517861063">
		<tag k="name" v="Hølsæterbekken" />
		<tag k="ssr:stedsnr" v="708037" />
		<tag k="waterway" v="stream" />
	</node>
	<node id="-140443" lat="60.8658111111" lon="10.30736112">
		<tag k="alt_name" v="Evjebekken" />
		<tag k="name" v="Evjeelva" />
		<tag k="ssr:stedsnr" v="677539" />
		<tag k="waterway" v="river" />
	</node>
	<node id="-140431" lat="60.7291999956" lon="10.1472222166">
		<tag k="alt_name" v="Andtjenn" />
		<tag k="name" v="Andtjernet" />
		<tag k="natural" v="water" />
		<tag k="ssr:stedsnr" v="674780" />
	</node>
	<node id="-140420" lat="60.6937750038" lon="10.06593889">
		<tag k="alt_name" v="Kvitingsauget" />
		<tag k="name" v="Kvitingsauga" />
		<tag k="natural" v="water" />
		<tag k="ssr:stedsnr" v="674707" />
	</node>
	<node id="-140417" lat="60.6187138914" lon="10.152666673">
		<tag k="name" v="Lekkerbekken" />
		<tag k="ssr:stedsnr" v="674681" />
		<tag k="waterway" v="stream" />
	</node>
	<node id="-140414" lat="60.5709777806" lon="10.227674993">
		<tag k="name" v="Nora" />
		<tag k="natural" v="water" />
		<tag k="ssr:stedsnr" v="674591" />
	</node>
	<node id="-140413" lat="60.5659750029" lon="10.2227750034">
		<tag k="alt_name" v="Bergetjenn" />
		<tag k="name" v="Bergtjernet" />
		<tag k="natural" v="water" />
		<tag k="ssr:stedsnr" v="674587" />
	</node>
	<node id="-140411" lat="60.5935138906" lon="10.1531555604">
		<tag k="alt_name" v="Medalsgrandalstjenn" />
		<tag k="name" v="Medalsgrandalstjernet" />
		<tag k="natural" v="water" />
		<tag k="ssr:stedsnr" v="674585" />
	</node>
	<node id="-140410" lat="60.6040000033" lon="10.1206555648">
		<tag k="name" v="Trollhalvorsputten" />
		<tag k="natural" v="water" />
		<tag k="ssr:stedsnr" v="674579" />
	</node>
	<node id="-140407" lat="60.5863666657" lon="10.1584361134">
		<tag k="alt_name" v="Grågåstjernet, nordre;Grågåstjenn" />
		<tag k="name" v="Nordre Grågåstjernet" />
		<tag k="natural" v="water" />
		<tag k="ssr:stedsnr" v="674561" />
	</node>
	<node id="-140401" lat="60.5495111098" lon="10.2212777847">
		<tag k="alt_name" v="Gamle Sandtjenn" />
		<tag k="name" v="Gamlesandtjernet" />
		<tag k="natural" v="water" />
		<tag k="ssr:stedsnr" v="674507" />
	</node>
	<node id="-140400" lat="60.5547638856" lon="10.1497555504">
		<tag k="alt_name" v="Dragbekken, vestre" />
		<tag k="name" v="Vestre Dragbekken" />
		<tag k="ssr:stedsnr" v="674502" />
		<tag k="waterway" v="stream" />
	</node>
	<node id="-140388" lat="60.6006249973" lon="10.425619443">
		<tag k="alt_name" v="Bjørvatnet, nordre" />
		<tag k="name" v="Nordre Bjørvatn" />
		<tag k="natural" v="water" />
		<tag k="ssr:stedsnr" v="674195" />
		<tag k="water" v="lake" />
	</node>
	<node id="-140387" lat="60.5652166657" lon="10.4201888928">
		<tag k="alt_name" v="Kimtjenn" />
		<tag k="name" v="Kimtjernet" />
		<tag k="natural" v="water" />
		<tag k="ssr:stedsnr" v="674142" />
	</node>
	<node id="-140386" lat="60.5566638877" lon="10.3611777834">
		<tag k="alt_name" v="Grimtjenn" />
		<tag k="name" v="Grimtjernet" />
		<tag k="natural" v="water" />
		<tag k="ssr:stedsnr" v="674127" />
	</node>
	<node id="-140384" lat="60.5696021942" lon="10.2726786899">
		<tag k="alt_name" v="Steffatjennsbekken" />
		<tag k="fixme" v="multiple name tags, choose one and add the other to alt_name" />
		<tag k="name" v="Bjørnerudbekken;Steffatjernsbekken" />
		<tag k="ssr:stedsnr" v="674605" />
		<tag k="waterway" v="stream" />
	</node>
	<node id="-140383" lat="60.7185499986" lon="10.0697166709">
		<tag k="name" v="Langvassbekken" />
		<tag k="ssr:stedsnr" v="664396" />
		<tag k="waterway" v="stream" />
	</node>
	<node id="-140372" lat="60.5942277765" lon="10.0868222296">
		<tag k="name" v="Ølbågåtjennsbekken" />
		<tag k="ssr:stedsnr" v="662798" />
		<tag k="waterway" v="stream" />
	</node>
	<node id="-140371" lat="60.5978444421" lon="10.0926999936">
		<tag k="name" v="Brennhaugtjenn" />
		<tag k="natural" v="water" />
		<tag k="ssr:stedsnr" v="662797" />
	</node>
	<node id="-140366" lat="60.54446667" lon="10.2774666643">
		<tag k="name" v="Bølebekken" />
		<tag k="ssr:stedsnr" v="662520" />
		<tag k="waterway" v="stream" />
	</node>
	<node id="-140357" lat="60.6029972178" lon="10.5132055627">
		<tag k="name" v="Langtjennsbekken" />
		<tag k="ssr:stedsnr" v="662388" />
		<tag k="waterway" v="stream" />
	</node>
	<node id="-140350" lat="60.645578025" lon="10.4656827759">
		<tag k="alt_name" v="Søndre Tretjenn;Søre Tretjenn" />
		<tag k="name" v="Søre Tretjern" />
		<tag k="natural" v="water" />
		<tag k="ssr:stedsnr" v="662244" />
	</node>
	<node id="-140349" lat="60.6493120313" lon="10.4656598661">
		<tag k="name" v="Midtre Tretjenn" />
		<tag k="natural" v="water" />
		<tag k="ssr:stedsnr" v="662245" />
	</node>
	<node id="-140809" lat="60.546094447" lon="10.3783083337">
		<tag k="name" v="Tretjerna" />
		<tag k="natural" v="water" />
		<tag k="ssr:stedsnr" v="857125" />
	</node>
	<node id="-140338" lat="60.7213166638" lon="10.1064833264">
		<tag k="name" v="Veltgrevsjøvika" />
		<tag k="natural" v="bay" />
		<tag k="ssr:stedsnr" v="647897" />
	</node>
	<node id="-140335" lat="60.6429083301" lon="10.0624666745">
		<tag k="name" v="Svartvassbekken" />
		<tag k="ssr:stedsnr" v="647773" />
		<tag k="waterway" v="stream" />
	</node>
	<node id="-140316" lat="60.5565361094" lon="10.3903722305">
		<tag k="name" v="Rasmusputten" />
		<tag k="natural" v="water" />
		<tag k="ssr:stedsnr" v="638180" />
		<tag k="water" v="pond" />
	</node>
	<node id="-140313" lat="60.5640972211" lon="10.4761333391">
		<tag k="name" v="Nordsetertjenn" />
		<tag k="natural" v="water" />
		<tag k="ssr:stedsnr" v="637468" />
	</node>
	<node id="-140307" lat="60.8252019041" lon="10.3157833496">
		<tag k="name" v="Landåsvatnet" />
		<tag k="natural" v="water" />
		<tag k="ssr:stedsnr" v="616598" />
		<tag k="water" v="lake" />
	</node>
	<node id="-140301" lat="60.6931077444" lon="10.2047316">
		<tag k="alt_name" v="Ormetjernet" />
		<tag k="name" v="Ormetjenn" />
		<tag k="natural" v="water" />
		<tag k="ssr:stedsnr" v="614718" />
	</node>
	<node id="-140300" lat="60.7180626813" lon="10.0400511442">
		<tag k="alt_name" v="Spellhustjenn;Spellhustjern" />
		<tag k="name" v="Spellhustjernet" />
		<tag k="natural" v="water" />
		<tag k="ssr:stedsnr" v="613798" />
	</node>
	<node id="-140290" lat="60.672839692" lon="10.2430265836">
		<tag k="alt_name" v="Årtjenn" />
		<tag k="name" v="Årtjernet" />
		<tag k="natural" v="water" />
		<tag k="ssr:stedsnr" v="613722" />
	</node>
	<node id="-140289" lat="60.6748879181" lon="10.2837652716">
		<tag k="alt_name" v="Hemtjenn;Hemtjern" />
		<tag k="name" v="Hemtjernet" />
		<tag k="natural" v="water" />
		<tag k="ssr:stedsnr" v="613718" />
	</node>
	<node id="-140287" lat="60.6663245347" lon="10.2375273233">
		<tag k="alt_name" v="Trolldalstjenn;Trolldalstjern" />
		<tag k="name" v="Trolldalstjernet" />
		<tag k="natural" v="water" />
		<tag k="ssr:stedsnr" v="613701" />
	</node>
	<node id="-140284" lat="60.6956500037" lon="10.0866277781">
		<tag k="alt_name" v="Aurli, vesle" />
		<tag k="name" v="Vesle Aurli" />
		<tag k="natural" v="water" />
		<tag k="ssr:stedsnr" v="613690" />
	</node>
	<node id="-140282" lat="60.6991999983" lon="10.0536249953">
		<tag k="name" v="Kvitingen" />
		<tag k="natural" v="water" />
		<tag k="ssr:stedsnr" v="613685" />
		<tag k="water" v="lake" />
	</node>
	<node id="-140279" lat="60.6282910475" lon="10.1943577343">
		<tag k="name" v="Lomsjøen" />
		<tag k="natural" v="water" />
		<tag k="ssr:stedsnr" v="613668" />
		<tag k="water" v="lake" />
	</node>
	<node id="-140278" lat="60.6191500009" lon="10.12273333">
		<tag k="name" v="Nora" />
		<tag k="natural" v="water" />
		<tag k="ssr:stedsnr" v="613652" />
	</node>
	<node id="-140277" lat="60.6337250026" lon="10.0858249914">
		<tag k="name" v="Selsjøen" />
		<tag k="natural" v="water" />
		<tag k="ssr:stedsnr" v="613624" />
		<tag k="water" v="lake" />
	</node>
	<node id="-140276" lat="60.6354933023" lon="10.2946993288">
		<tag k="alt_name" v="Kølhustjenn;Kølhustjern" />
		<tag k="name" v="Kolhustjernet" />
		<tag k="natural" v="water" />
		<tag k="ssr:stedsnr" v="613620" />
	</node>
	<node id="-140274" lat="60.5570027814" lon="10.1072027744">
		<tag k="name" v="Øyvasselva" />
		<tag k="ssr:stedsnr" v="613601" />
		<tag k="waterway" v="river" />
	</node>
	<node id="-140270" lat="60.5994111123" lon="10.1219388943">
		<tag k="name" v="Meita" />
		<tag k="natural" v="water" />
		<tag k="ssr:stedsnr" v="613572" />
	</node>
	<node id="-140268" lat="60.5618055598" lon="10.2672888887">
		<tag k="alt_name" v="Åbbortjenn" />
		<tag k="name" v="Åbortjernet" />
		<tag k="natural" v="water" />
		<tag k="ssr:stedsnr" v="613535" />
	</node>
	<node id="-140267" lat="60.5608361154" lon="10.2051611044">
		<tag k="alt_name" v="Plomtjenn" />
		<tag k="name" v="Plomtjernet" />
		<tag k="natural" v="water" />
		<tag k="ssr:stedsnr" v="613529" />
	</node>
	<node id="-140266" lat="60.5511166658" lon="10.169538887">
		<tag k="alt_name" v="Dragbekken, austre" />
		<tag k="name" v="Østre Dragbekken" />
		<tag k="ssr:stedsnr" v="613512" />
		<tag k="waterway" v="stream" />
	</node>
	<node id="-140257" lat="60.6131999983" lon="10.4221138976">
		<tag k="name" v="Kimtjernet" />
		<tag k="natural" v="water" />
		<tag k="ssr:stedsnr" v="613200" />
	</node>
	<node id="-140254" lat="60.5802659887" lon="10.3750876648">
		<tag k="name" v="Sandstjerna" />
		<tag k="natural" v="water" />
		<tag k="ssr:stedsnr" v="613160" />
		<tag k="water" v="lake" />
	</node>
	<node id="-140252" lat="60.7333972208" lon="10.0088333418">
		<tag k="name" v="Hovdevatn" />
		<tag k="natural" v="water" />
		<tag k="ssr:stedsnr" v="603064" />
	</node>
	<node id="-140244" lat="60.5946191252" lon="10.2193612295">
		<tag k="alt_name" v="Plomtjenn" />
		<tag k="name" v="Plomtjern" />
		<tag k="natural" v="water" />
		<tag k="ssr:stedsnr" v="601871" />
	</node>
	<node id="-140243" lat="60.7956916639" lon="10.3600611086">
		<tag k="name" v="Vesleelva" />
		<tag k="ssr:stedsnr" v="601868" />
		<tag k="waterway" v="stream" />
	</node>
	<node id="-140239" lat="60.6274444405" lon="10.0924888885">
		<tag k="name" v="Monsvika" />
		<tag k="natural" v="bay" />
		<tag k="ssr:stedsnr" v="601791" />
	</node>
	<node id="-140233" lat="60.56158206" lon="10.2635811666">
		<tag k="name" v="Svartputten" />
		<tag k="natural" v="water" />
		<tag k="ssr:stedsnr" v="601480" />
	</node>
	<node id="-140232" lat="60.5622416626" lon="10.2274333345">
		<tag k="alt_name" v="Bergetjernsbekken" />
		<tag k="name" v="Bergetjennsbekken" />
		<tag k="ssr:stedsnr" v="601471" />
		<tag k="waterway" v="stream" />
	</node>
	<node id="-140230" lat="60.5431666688" lon="10.3323138965">
		<tag k="name" v="Esperumsbekken" />
		<tag k="ssr:stedsnr" v="601389" />
		<tag k="waterway" v="stream" />
	</node>
	<node id="-140214" lat="60.6212583315" lon="10.4808500056">
		<tag k="name" v="Svartbekkvika" />
		<tag k="natural" v="bay" />
		<tag k="ssr:stedsnr" v="601048" />
	</node>
	<node id="-140213" lat="60.6734750022" lon="10.0566638946">
		<tag k="name" v="Lortpullvika" />
		<tag k="natural" v="bay" />
		<tag k="ssr:stedsnr" v="587966" />
	</node>
	<node id="-140212" lat="60.7084000025" lon="10.1083777829">
		<tag k="name" v="Opinbekken" />
		<tag k="ssr:stedsnr" v="587957" />
		<tag k="waterway" v="stream" />
	</node>
	<node id="-140211" lat="60.5896111121" lon="10.1455416657">
		<tag k="name" v="Skutsæterbekken" />
		<tag k="ssr:stedsnr" v="587911" />
		<tag k="waterway" v="stream" />
	</node>
	<node id="-140210" lat="60.6347333355" lon="10.0812722145">
		<tag k="name" v="Århanaholmen" />
		<tag k="place" v="islet" />
		<tag k="ssr:stedsnr" v="587793" />
	</node>
	<node id="-140206" lat="60.7501249996" lon="10.3564305588">
		<tag k="name" v="Fløyten" />
		<tag k="place" v="locality" />
		<tag k="ssr:stedsnr" v="587747" />
	</node>
	<node id="-140193" lat="60.6491750015" lon="10.1900500019">
		<tag k="name" v="Askvikfløytdammen" />
		<tag k="ssr:stedsnr" v="587104" />
		<tag k="waterway" v="dam" />
	</node>
	<node id="-140190" lat="60.6674388929" lon="10.1024277701">
		<tag k="name" v="Puttbekken" />
		<tag k="ssr:stedsnr" v="586987" />
		<tag k="waterway" v="stream" />
	</node>
	<node id="-140184" lat="60.7721722219" lon="10.3863111196">
		<tag k="name" v="Løkoset" />
		<tag k="natural" v="bay" />
		<tag k="ssr:stedsnr" v="585425" />
	</node>
	<node id="-140171" lat="60.7967936472" lon="10.1808215411">
		<tag k="name" v="Odnes" />
		<tag k="natural" v="cape" />
		<tag k="ssr:stedsnr" v="555529" />
	</node>
	<node id="-140168" lat="60.7101749969" lon="10.1962361032">
		<tag k="alt_name" v="Totjenna;Totjerna" />
		<tag k="name" v="Totjernet" />
		<tag k="natural" v="water" />
		<tag k="ssr:stedsnr" v="553812" />
	</node>
	<node id="-140167" lat="60.7139305548" lon="10.1804333351">
		<tag k="alt_name" v="Åbbårn;Abbortjern" />
		<tag k="loc_name" v="Abbortjenn" />
		<tag k="name" v="Åboren" />
		<tag k="natural" v="water" />
		<tag k="ssr:stedsnr" v="553811" />
	</node>
	<node id="-140164" lat="60.7171981137" lon="10.1586055464">
		<tag k="alt_name" v="Stortjenn;Stortjern" />
		<tag k="name" v="Stortjernet" />
		<tag k="natural" v="water" />
		<tag k="ssr:stedsnr" v="553793" />
	</node>
	<node id="-140162" lat="60.7044750023" lon="10.0071916653">
		<tag k="name" v="Skjellbreida" />
		<tag k="natural" v="water" />
		<tag k="ssr:stedsnr" v="553733" />
	</node>
	<node id="-140160" lat="60.6341574712" lon="10.2828312988">
		<tag k="alt_name" v="Stokktjenn;Stokktjern" />
		<tag k="name" v="Stokktjernet" />
		<tag k="natural" v="water" />
		<tag k="ssr:stedsnr" v="553701" />
	</node>
	<node id="-140156" lat="60.6062416674" lon="10.081736113">
		<tag k="alt_name" v="Ølbågåtjenn;Albågåtjern" />
		<tag k="name" v="Olbågåtjernet" />
		<tag k="natural" v="water" />
		<tag k="ssr:stedsnr" v="553673" />
	</node>
	<node id="-140155" lat="60.6574999957" lon="10.3027527688">
		<tag k="name" v="Askvikbekken" />
		<tag k="ssr:stedsnr" v="553665" />
		<tag k="waterway" v="stream" />
	</node>
	<node id="-140154" lat="60.6584694407" lon="10.1116861021">
		<tag k="alt_name" v="Kalbufløyten" />
		<tag k="name" v="Kollbufløyta" />
		<tag k="natural" v="water" />
		<tag k="ssr:stedsnr" v="553662" />
		<tag k="water" v="lake" />
	</node>
	<node id="-140152" lat="60.6372277743" lon="10.06520555">
		<tag k="name" v="Svartvatna" />
		<tag k="natural" v="water" />
		<tag k="ssr:stedsnr" v="553644" />
		<tag k="water" v="lake" />
	</node>
	<node id="-140150" lat="60.6364909218" lon="10.2884805874">
		<tag k="alt_name" v="Kroktjenn;Kroktjern" />
		<tag k="name" v="Kroktjernet" />
		<tag k="natural" v="water" />
		<tag k="ssr:stedsnr" v="553627" />
	</node>
	<node id="-140147" lat="60.5702416679" lon="10.2245611136">
		<tag k="name" v="Kalvsjøen" />
		<tag k="natural" v="water" />
		<tag k="ssr:stedsnr" v="553597" />
	</node>
	<node id="-140145" lat="60.5434698624" lon="10.2326201673">
		<tag k="alt_name" v="Tretjernet, midtre;Midtre Tretjenn" />
		<tag k="name" v="Midtre Tretjern" />
		<tag k="natural" v="water" />
		<tag k="ssr:stedsnr" v="553556" />
	</node>
	<node id="-140144" lat="60.729427026" lon="10.1278037566">
		<tag k="alt_name" v="Vesletjennet" />
		<tag k="name" v="Vesletjernet" />
		<tag k="natural" v="water" />
		<tag k="ssr:stedsnr" v="553554" />
	</node>
	<node id="-140143" lat="60.5583550702" lon="10.1516519025">
		<tag k="alt_name" v="Aurtjernet, s;Søndre Auretjenn;Søre Auretjenn" />
		<tag k="name" v="Søre Auretjern" />
		<tag k="natural" v="water" />
		<tag k="ssr:stedsnr" v="553515" />
	</node>
	<node id="-140141" lat="60.5543683625" lon="10.2406273854">
		<tag k="alt_name" v="Gravdalstjernet, s;Søndre Gravdalstjenn;Søre Gravdalstjenn" />
		<tag k="name" v="Søre Gravdalstjern" />
		<tag k="natural" v="water" />
		<tag k="ssr:stedsnr" v="553498" />
	</node>
	<node id="-140140" lat="60.7295055572" lon="10.4642805567">
		<tag k="alt_name" v="Blekktjernet, n;Blekjetjern nordre" />
		<tag k="name" v="Nordre Blekktjernet" />
		<tag k="natural" v="water" />
		<tag k="ssr:stedsnr" v="553400" />
	</node>
	<node id="-140134" lat="60.7304935994" lon="10.1016906232">
		<tag k="alt_name" v="Store Grevsjøen" />
		<tag k="name" v="Grevssjøen" />
		<tag k="natural" v="water" />
		<tag k="ssr:stedsnr" v="552802" />
		<tag k="water" v="lake" />
	</node>
	<node id="-140130" lat="60.6808505621" lon="10.2663467331">
		<tag k="alt_name" v="Oddtjenn;Oddtjern" />
		<tag k="name" v="Oddtjernet" />
		<tag k="natural" v="water" />
		<tag k="ssr:stedsnr" v="552764" />
	</node>
	<node id="-140129" lat="60.6786166666" lon="10.217838894">
		<tag k="alt_name" v="Røyrtjernet, vestre" />
		<tag k="name" v="Vestre Røyrtjernet" />
		<tag k="natural" v="water" />
		<tag k="ssr:stedsnr" v="552758" />
	</node>
	<node id="-140125" lat="60.6001305573" lon="10.503175003">
		<tag k="alt_name" v="Tretjennsmyrene;Tretjernsmyrene" />
		<tag k="name" v="Tretjernmyrene" />
		<tag k="natural" v="water" />
		<tag k="ssr:stedsnr" v="552203" />
	</node>
	<node id="-140124" lat="60.5802222194" lon="10.4083500083">
		<tag k="name" v="Kleivputten" />
		<tag k="natural" v="water" />
		<tag k="ssr:stedsnr" v="552162" />
	</node>
	<node id="-140121" lat="60.730958333" lon="9.9958555596">
		<tag k="name" v="Skarbekken" />
		<tag k="ssr:stedsnr" v="543095" />
		<tag k="waterway" v="stream" />
	</node>
	<node id="-140120" lat="60.593508335" lon="10.1828999967">
		<tag k="name" v="Bekkemøtet" />
		<tag k="place" v="locality" />
		<tag k="ssr:stedsnr" v="541912" />
	</node>
	<node id="-140119" lat="60.5938638913" lon="10.1470888849">
		<tag k="name" v="Løken" />
		<tag k="natural" v="water" />
		<tag k="ssr:stedsnr" v="541910" />
	</node>
	<node id="-140101" lat="60.6267250043" lon="10.1938361116">
		<tag k="name" v="Breivikodden" />
		<tag k="natural" v="cape" />
		<tag k="ssr:stedsnr" v="541511" />
	</node>
	<node id="-140100" lat="60.5383722183" lon="10.2635055597">
		<tag k="alt_name" v="Vesletjenn;Vesletjern" />
		<tag k="name" v="Vesletjernet" />
		<tag k="natural" v="water" />
		<tag k="ssr:stedsnr" v="541508" />
	</node>
	<node id="-140095" lat="60.676111113" lon="10.4100166689">
		<tag k="name" v="Vassendlandet" />
		<tag k="natural" v="beach" />
		<tag k="ssr:stedsnr" v="541391" />
	</node>
	<node id="-140093" lat="60.6805694468" lon="10.4211555634">
		<tag k="name" v="Lortvika" />
		<tag k="natural" v="bay" />
		<tag k="ssr:stedsnr" v="541387" />
	</node>
	<node id="-140084" lat="60.6338129401" lon="10.446637356">
		<tag k="alt_name" v="Trevatn" />
		<tag k="name" v="Midtre Trevatn" />
		<tag k="natural" v="water" />
		<tag k="ssr:stedsnr" v="541249" />
		<tag k="water" v="lake" />
	</node>
	<node id="-140077" lat="60.5790527818" lon="10.4359083402">
		<tag k="alt_name" v="Lustjennbekken" />
		<tag k="name" v="Lustjernsbekken" />
		<tag k="ssr:stedsnr" v="541154" />
		<tag k="waterway" v="stream" />
	</node>
	<node id="-140076" lat="60.5831444483" lon="10.4762277727">
		<tag k="name" v="Svartbekken" />
		<tag k="ssr:stedsnr" v="541146" />
		<tag k="waterway" v="stream" />
	</node>
	<node id="-140072" lat="60.5976138885" lon="10.2447777772">
		<tag k="name" v="Gulmosemyrbekken" />
		<tag k="ssr:stedsnr" v="541072" />
		<tag k="waterway" v="stream" />
	</node>
	<node id="-140069" lat="60.6554017624" lon="10.0698541344">
		<tag k="name" v="Kapitteltjenn" />
		<tag k="natural" v="water" />
		<tag k="ssr:stedsnr" v="527000" />
	</node>
	<node id="-140068" lat="60.6969666665" lon="10.0573694422">
		<tag k="name" v="Storholmen" />
		<tag k="place" v="islet" />
		<tag k="ssr:stedsnr" v="526972" />
	</node>
	<node id="-140067" lat="60.6886111098" lon="10.041397214">
		<tag k="name" v="Skoputta" />
		<tag k="natural" v="water" />
		<tag k="ssr:stedsnr" v="526967" />
		<tag k="water" v="pond" />
	</node>
	<node id="-140064" lat="60.575981932" lon="10.1433854561">
		<tag k="alt_name" v="Tolvtjennputta" />
		<tag k="name" v="Tolvtjernsputta" />
		<tag k="natural" v="water" />
		<tag k="ssr:stedsnr" v="526914" />
		<tag k="water" v="lake" />
	</node>
	<node id="-140063" lat="60.6387416685" lon="10.0975138926">
		<tag k="name" v="Buskjæra" />
		<tag k="natural" v="bay" />
		<tag k="ssr:stedsnr" v="526792" />
	</node>
	<node id="-140062" lat="60.6397888902" lon="10.0894333253">
		<tag k="name" v="Ølsund" />
		<tag k="natural" v="strait" />
		<tag k="ssr:stedsnr" v="526791" />
	</node>
	<node id="-140054" lat="60.6320328882" lon="10.3044288718">
		<tag k="alt_name" v="Slåttmyrtjenn" />
		<tag k="name" v="Slåttmyrtjern" />
		<tag k="natural" v="water" />
		<tag k="ssr:stedsnr" v="526545" />
	</node>
	<node id="-140041" lat="60.6404472265" lon="10.2171888942">
		<tag k="alt_name" v="Gammelsetertjern" />
		<tag k="name" v="Gammelsætertjenn" />
		<tag k="natural" v="water" />
		<tag k="ssr:stedsnr" v="526091" />
	</node>
	<node id="-140036" lat="60.7270295418" lon="10.1611149373">
		<tag k="alt_name" v="Rødnestjenn" />
		<tag k="name" v="Rødnestjernet" />
		<tag k="natural" v="water" />
		<tag k="ssr:stedsnr" v="505494" />
	</node>
	<node id="-140030" lat="60.8048059612" lon="10.3067675795">
		<tag k="alt_name" v="Svarttjenn;Svarttjern" />
		<tag k="name" v="Svarttjernet" />
		<tag k="natural" v="water" />
		<tag k="ssr:stedsnr" v="494648" />
	</node>
	<node id="-140026" lat="60.7826098641" lon="10.3218620724">
		<tag k="alt_name" v="Gjøtjenn;Gjøtjern" />
		<tag k="name" v="Gjøtjernet" />
		<tag k="natural" v="water" />
		<tag k="ssr:stedsnr" v="494619" />
	</node>
	<node id="-140019" lat="60.7259111095" lon="10.1186666748">
		<tag k="alt_name" v="Grevsjøelva" />
		<tag k="name" v="Grevssjøelva" />
		<tag k="ssr:stedsnr" v="492771" />
		<tag k="waterway" v="river" />
	</node>
	<node id="-140016" lat="60.7464111068" lon="10.2435083295">
		<tag k="name" v="Husodden" />
		<tag k="natural" v="cape" />
		<tag k="ssr:stedsnr" v="492747" />
	</node>
	<node id="-140014" lat="60.6858916656" lon="10.1574722214">
		<tag k="alt_name" v="Tobakktjennsbekken" />
		<tag k="name" v="Tobakktjernsbekken" />
		<tag k="ssr:stedsnr" v="492733" />
		<tag k="waterway" v="stream" />
	</node>
	<node id="-140011" lat="60.7068861097" lon="10.0264138911">
		<tag k="name" v="Myrsjøen" />
		<tag k="natural" v="water" />
		<tag k="ssr:stedsnr" v="492703" />
	</node>
	<node id="-140008" lat="60.6922527747" lon="10.0756166577">
		<tag k="alt_name" v="Aurli, store" />
		<tag k="name" v="Store Aurli" />
		<tag k="natural" v="water" />
		<tag k="ssr:stedsnr" v="492681" />
	</node>
	<node id="-140005" lat="60.6214798175" lon="10.3147283668">
		<tag k="alt_name" v="Veslesætertjenna" />
		<tag k="name" v="Veslsætertjerna" />
		<tag k="natural" v="water" />
		<tag k="ssr:stedsnr" v="492654" />
	</node>
	<node id="-140004" lat="60.6160527801" lon="10.2469305574">
		<tag k="name" v="Tørrvassbekken" />
		<tag k="ssr:stedsnr" v="492628" />
		<tag k="waterway" v="stream" />
	</node>
	<node id="-140001" lat="60.6318749964" lon="10.0805305519">
		<tag k="name" v="Storholmen" />
		<tag k="place" v="islet" />
		<tag k="ssr:stedsnr" v="492597" />
	</node>
	<node id="-140000" lat="60.6411362551" lon="10.2925203054">
		<tag k="alt_name" v="Orrfugltjenn;Orrfugltjern" />
		<tag k="name" v="Orrfugltjernet" />
		<tag k="natural" v="water" />
		<tag k="ssr:stedsnr" v="492594" />
	</node>
	<node id="-139997" lat="60.5339348543" lon="10.3433405337">
		<tag k="alt_name" v="Heimtjenn;Heimtjern" />
		<tag k="name" v="Heimtjernet" />
		<tag k="natural" v="water" />
		<tag k="ssr:stedsnr" v="492502" />
	</node>
	<node id="-139996" lat="60.5364611117" lon="10.1245722255">
		<tag k="name" v="Brennodden" />
		<tag k="natural" v="cape" />
		<tag k="ssr:stedsnr" v="492500" />
	</node>
	<node id="-139995" lat="60.5618562919" lon="10.2344306093">
		<tag k="alt_name" v="Gravdalstjernet, nordre;Nordre Gravdalstjenn" />
		<tag k="name" v="Nordre Gravdalstjern" />
		<tag k="natural" v="water" />
		<tag k="ssr:stedsnr" v="492494" />
	</node>
	<node id="-139994" lat="60.5539038103" lon="10.2067488755">
		<tag k="alt_name" v="Sandtjernet, s;Søndre Sandtjernet;Vesle Sandtjenn;Vesle Sandtjern" />
		<tag k="name" v="Søre Sandtjernet" />
		<tag k="natural" v="water" />
		<tag k="ssr:stedsnr" v="492490" />
	</node>
	<node id="-139993" lat="60.5571749991" lon="10.1160472206">
		<tag k="name" v="Dalavasselva" />
		<tag k="ssr:stedsnr" v="492467" />
		<tag k="waterway" v="river" />
	</node>
	<node id="-139990" lat="60.6905027739" lon="10.3947777785">
		<tag k="alt_name" v="Sedøla" />
		<tag k="name" v="Sedølsbekken" />
		<tag k="ssr:stedsnr" v="492354" />
		<tag k="waterway" v="stream" />
	</node>
	<node id="-139987" lat="60.6510354975" lon="10.4144884659">
		<tag k="name" v="Trevatna" />
		<tag k="natural" v="water" />
		<tag k="ssr:stedsnr" v="492280" />
		<tag k="water" v="lake" />
	</node>
	<node id="-139981" lat="60.6358222251" lon="10.3965277712">
		<tag k="name" v="Vesleelva" />
		<tag k="ssr:stedsnr" v="492195" />
		<tag k="waterway" v="stream" />
	</node>
	<node id="-139976" lat="60.5758277748" lon="10.3477499982">
		<tag k="name" v="Engerbekken" />
		<tag k="ssr:stedsnr" v="492116" />
		<tag k="waterway" v="stream" />
	</node>
	<node id="-139975" lat="60.5687500002" lon="10.3979972251">
		<tag k="alt_name" v="Grimsetertjenn" />
		<tag k="name" v="Grimsætertjernet" />
		<tag k="natural" v="water" />
		<tag k="ssr:stedsnr" v="492105" />
	</node>
	<node id="-139974" lat="60.5517731648" lon="10.3674032281">
		<tag k="alt_name" v="Dagertjernet;Dagertjenn;Dragertjenn" />
		<tag k="name" v="Dagertjern" />
		<tag k="natural" v="water" />
		<tag k="ssr:stedsnr" v="492091" />
	</node>
	<node id="-139973" lat="60.5445152047" lon="10.3617795098">
		<tag k="alt_name" v="Teintjenn;Teintjern" />
		<tag k="name" v="Teintjernet" />
		<tag k="natural" v="water" />
		<tag k="ssr:stedsnr" v="492072" />
	</node>
	<node id="-139969" lat="60.6754583308" lon="10.0936555605">
		<tag k="name" v="Skålvassbekken" />
		<tag k="ssr:stedsnr" v="480977" />
		<tag k="waterway" v="stream" />
	</node>
	<node id="-139967" lat="60.5666472242" lon="10.2442333267">
		<tag k="alt_name" v="Killingtjenn" />
		<tag k="name" v="Killingtjern" />
		<tag k="natural" v="water" />
		<tag k="ssr:stedsnr" v="480906" />
	</node>
	<node id="-139965" lat="60.5553972178" lon="10.1582166593">
		<tag k="alt_name" v="Gråskalltjennet" />
		<tag k="name" v="Gråskalltjernet" />
		<tag k="natural" v="water" />
		<tag k="ssr:stedsnr" v="480874" />
	</node>
	<node id="-139961" lat="60.6266138863" lon="10.0840472159">
		<tag k="name" v="Drittodden" />
		<tag k="natural" v="cape" />
		<tag k="ssr:stedsnr" v="480815" />
	</node>
	<node id="-139955" lat="60.6060499958" lon="10.3660416597">
		<tag k="name" v="Øksneelva" />
		<tag k="ssr:stedsnr" v="480559" />
		<tag k="waterway" v="stream" />
	</node>
	<node id="-139946" lat="60.7097305595" lon="10.4139583287">
		<tag k="alt_name" v="Føltjenn" />
		<tag k="name" v="Føltjern" />
		<tag k="natural" v="water" />
		<tag k="ssr:stedsnr" v="480346" />
	</node>
	<node id="-139942" lat="60.6687388895" lon="10.4079666708">
		<tag k="name" v="Trevassdammen" />
		<tag k="ssr:stedsnr" v="480239" />
		<tag k="waterway" v="dam" />
	</node>
	<node id="-139940" lat="60.6420833293" lon="10.4166166668">
		<tag k="name" v="Marsteinvika" />
		<tag k="natural" v="bay" />
		<tag k="ssr:stedsnr" v="480231" />
	</node>
	<node id="-139934" lat="60.6330500009" lon="10.0876833414">
		<tag k="name" v="Granholmen" />
		<tag k="place" v="islet" />
		<tag k="ssr:stedsnr" v="466796" />
	</node>
	<node id="-139933" lat="60.6376972238" lon="10.0856361165">
		<tag k="name" v="Båtbordodden" />
		<tag k="natural" v="cape" />
		<tag k="ssr:stedsnr" v="466792" />
	</node>
	<node id="-139932" lat="60.6363416626" lon="10.0820638942">
		<tag k="name" v="Likallen" />
		<tag k="place" v="islet" />
		<tag k="ssr:stedsnr" v="466791" />
	</node>
	<node id="-139931" lat="60.6462861109" lon="10.1225388815">
		<tag k="name" v="Aquabulu" />
		<tag k="natural" v="bay" />
		<tag k="ssr:stedsnr" v="466790" />
	</node>
	<node id="-139930" lat="60.6307694476" lon="10.093391672">
		<tag k="name" v="Elgeodden" />
		<tag k="natural" v="cape" />
		<tag k="ssr:stedsnr" v="466787" />
	</node>
	<node id="-139923" lat="60.7541749958" lon="10.1594999948">
		<tag k="name" v="Brattlielva" />
		<tag k="ssr:stedsnr" v="466285" />
		<tag k="waterway" v="stream" />
	</node>
	<node id="-139920" lat="60.6527666709" lon="10.1208805532">
		<tag k="name" v="Storholmen" />
		<tag k="place" v="islet" />
		<tag k="ssr:stedsnr" v="465950" />
	</node>
	<node id="-139919" lat="60.7607833304" lon="10.3420166585">
		<tag k="name" v="Marenputten" />
		<tag k="natural" v="water" />
		<tag k="ssr:stedsnr" v="465932" />
		<tag k="water" v="pond" />
	</node>
	<node id="-139916" lat="60.7720555548" lon="10.3720333374">
		<tag k="name" v="Lifossen" />
		<tag k="natural" v="waterfall" />
		<tag k="ssr:stedsnr" v="465377" />
	</node>
	<node id="-139909" lat="60.6671944418" lon="10.1631027818">
		<tag k="name" v="Hofsfoss" />
		<tag k="natural" v="waterfall" />
		<tag k="ssr:stedsnr" v="465064" />
	</node>
	<node id="-139906" lat="60.632697226" lon="10.2629694423">
		<tag k="name" v="Osphaugbekken" />
		<tag k="ssr:stedsnr" v="466546" />
		<tag k="waterway" v="stream" />
	</node>
	<node id="-139902" lat="60.5583583336" lon="10.4543583395">
		<tag k="alt_name" v="Tretjenna" />
		<tag k="name" v="Tretjerna" />
		<tag k="natural" v="water" />
		<tag k="ssr:stedsnr" v="456445" />
	</node>
	<node id="-139888" lat="60.7634583346" lon="10.1854888815">
		<tag k="alt_name" v="Rosttjernet, store;Store Rosttjenn;Store Rosttjern" />
		<tag k="name" v="Store Rosttjernet" />
		<tag k="natural" v="water" />
		<tag k="ssr:stedsnr" v="434706" />
	</node>
	<node id="-139880" lat="60.7764297043" lon="10.3806969081">
		<tag k="alt_name" v="Gåstjenn;Gåstjern" />
		<tag k="name" v="Gåstjernet" />
		<tag k="natural" v="water" />
		<tag k="ssr:stedsnr" v="434043" />
	</node>
	<node id="-139879" lat="60.7133500023" lon="10.0602277727">
		<tag k="alt_name" v="Øktmyrtjenn;Øktmyrtjern" />
		<tag k="name" v="Øktmyrtjernet" />
		<tag k="natural" v="water" />
		<tag k="ssr:stedsnr" v="432796" />
	</node>
	<node id="-139876" lat="60.7282845619" lon="10.193492534">
		<tag k="alt_name" v="Tretjenna;Tretjern" />
		<tag k="name" v="Tretjernet" />
		<tag k="natural" v="water" />
		<tag k="ssr:stedsnr" v="432768" />
	</node>
	<node id="-139869" lat="60.6134111119" lon="10.1876305577">
		<tag k="name" v="Styggedalsbekken" />
		<tag k="ssr:stedsnr" v="432642" />
		<tag k="waterway" v="stream" />
	</node>
	<node id="-139866" lat="60.7986305573" lon="10.2172500059">
		<tag k="alt_name" v="Årnes" />
		<tag k="name" v="Ånes" />
		<tag k="natural" v="cape" />
		<tag k="ssr:stedsnr" v="434661" />
	</node>
	<node id="-139859" lat="60.7649361136" lon="10.1272250053">
		<tag k="name" v="Svartbekken" />
		<tag k="ssr:stedsnr" v="434621" />
		<tag k="waterway" v="stream" />
	</node>
	<node id="-139855" lat="60.569223165" lon="10.2388674595">
		<tag k="alt_name" v="Maurtjernet, s;Store Maurtjenn" />
		<tag k="name" v="Store Maurtjern" />
		<tag k="natural" v="water" />
		<tag k="ssr:stedsnr" v="432582" />
	</node>
	<node id="-139853" lat="60.5701111122" lon="10.193722228">
		<tag k="alt_name" v="Bursintjernsbekken" />
		<tag k="loc_name" v="Bursintjennbekken" />
		<tag k="name" v="Bursinbekken" />
		<tag k="ssr:stedsnr" v="432575" />
		<tag k="waterway" v="stream" />
	</node>
	<node id="-139849" lat="60.5582126949" lon="10.1058292917">
		<tag k="alt_name" v="Øytjenn;Øytjern" />
		<tag k="name" v="Øytjernet" />
		<tag k="natural" v="water" />
		<tag k="ssr:stedsnr" v="432491" />
	</node>
	<node id="-139841" lat="60.6824156563" lon="10.0437773868">
		<tag k="alt_name" v="Kvitbergtjenn;Kvitbergtjern" />
		<tag k="name" v="Kvitbergstjernet" />
		<tag k="natural" v="water" />
		<tag k="ssr:stedsnr" v="431709" />
	</node>
	<node id="-139840" lat="60.686961417" lon="10.0640214759">
		<tag k="alt_name" v="Eintjenn;Eintjern" />
		<tag k="name" v="Eintjernet" />
		<tag k="natural" v="water" />
		<tag k="ssr:stedsnr" v="431708" />
	</node>
	<node id="-139838" lat="60.6072249988" lon="10.4130277812">
		<tag k="alt_name" v="Kaldtjenn;Kaldtjern" />
		<tag k="name" v="Kaldtjerna" />
		<tag k="natural" v="water" />
		<tag k="ssr:stedsnr" v="431237" />
	</node>
	<node id="-139836" lat="60.5929104598" lon="10.4274100921">
		<tag k="alt_name" v="Bjørvatnet, midtre" />
		<tag k="name" v="Midtre Bjørvatn" />
		<tag k="natural" v="water" />
		<tag k="ssr:stedsnr" v="431227" />
		<tag k="water" v="lake" />
	</node>
	<node id="-139835" lat="60.5729638878" lon="10.4262249988">
		<tag k="name" v="Bjørvasselva" />
		<tag k="ssr:stedsnr" v="431176" />
		<tag k="waterway" v="river" />
	</node>
	<node id="-139834" lat="60.6488780578" lon="10.0417929781">
		<tag k="name" v="Søre Øyvatnet" />
		<tag k="natural" v="water" />
		<tag k="ssr:stedsnr" v="432620" />
		<tag k="water" v="lake" />
	</node>
	<node id="-139833" lat="60.5745250016" lon="10.2462861094">
		<tag k="name" v="Sæterputten" />
		<tag k="natural" v="water" />
		<tag k="ssr:stedsnr" v="420907" />
	</node>
	<node id="-139826" lat="60.62344722" lon="10.0637055469">
		<tag k="name" v="Bergegrautvatn" />
		<tag k="natural" v="water" />
		<tag k="ssr:stedsnr" v="420822" />
	</node>
	<node id="-139817" lat="60.5897638887" lon="10.3568416581">
		<tag k="name" v="Ballerudbekken" />
		<tag k="ssr:stedsnr" v="420599" />
		<tag k="waterway" v="stream" />
	</node>
	<node id="-139814" lat="60.5471238075" lon="10.2073342598">
		<tag k="alt_name" v="Ormtjenn" />
		<tag k="name" v="Ormetjern" />
		<tag k="natural" v="water" />
		<tag k="ssr:stedsnr" v="420532" />
	</node>
	<node id="-139783" lat="60.6711361115" lon="10.2420083257">
		<tag k="name" v="Vesle Årtjenn" />
		<tag k="natural" v="water" />
		<tag k="ssr:stedsnr" v="420057" />
	</node>
	<node id="-139774" lat="60.7779638931" lon="10.2164833331">
		<tag k="name" v="Rostadvika" />
		<tag k="natural" v="bay" />
		<tag k="ssr:stedsnr" v="252599" />
	</node>
	<node id="-139769" lat="60.7084578953" lon="10.1512893903">
		<tag k="alt_name" v="Kumyrtjenn" />
		<tag k="name" v="Kumyrtjernet" />
		<tag k="natural" v="water" />
		<tag k="ssr:stedsnr" v="250790" />
	</node>
	<node id="-139766" lat="60.7033999998" lon="10.2642861172">
		<tag k="name" v="Patterudbekken" />
		<tag k="ssr:stedsnr" v="250705" />
		<tag k="waterway" v="stream" />
	</node>
	<node id="-139765" lat="60.6098961731" lon="10.1625656404">
		<tag k="alt_name" v="Bergetjenn" />
		<tag k="name" v="Bergetjernet" />
		<tag k="natural" v="water" />
		<tag k="ssr:stedsnr" v="250662" />
	</node>
	<node id="-139763" lat="60.5712249966" lon="10.2131388843">
		<tag k="name" v="Kjerringmigen" />
		<tag k="natural" v="water" />
		<tag k="ssr:stedsnr" v="250589" />
	</node>
	<node id="-139761" lat="60.5924123937" lon="10.1504832498">
		<tag k="alt_name" v="Skutsætertjenn" />
		<tag k="name" v="Skutsætertjernet" />
		<tag k="natural" v="water" />
		<tag k="ssr:stedsnr" v="250581" />
	</node>
	<node id="-139760" lat="60.6008916692" lon="10.1973583395">
		<tag k="name" v="Brennbekken" />
		<tag k="ssr:stedsnr" v="250571" />
		<tag k="waterway" v="stream" />
	</node>
	<node id="-139757" lat="60.7373472254" lon="10.3551999911">
		<tag k="name" v="Lauselva" />
		<tag k="ssr:stedsnr" v="250449" />
		<tag k="waterway" v="river" />
	</node>
	<node id="-139748" lat="60.5944315837" lon="10.5030968071">
		<tag k="alt_name" v="Langtjenn" />
		<tag k="name" v="Langtjern" />
		<tag k="natural" v="water" />
		<tag k="ssr:stedsnr" v="250180" />
	</node>
	<node id="-139747" lat="60.6264203335" lon="10.3105701052">
		<tag k="alt_name" v="Kroktjenn" />
		<tag k="name" v="Kroktjernet" />
		<tag k="natural" v="water" />
		<tag k="ssr:stedsnr" v="249895" />
	</node>
	<node id="-139746" lat="60.7201527764" lon="10.054355554">
		<tag k="name" v="Langvatnet" />
		<tag k="natural" v="water" />
		<tag k="ssr:stedsnr" v="249774" />
		<tag k="water" v="lake" />
	</node>
	<node id="-139744" lat="60.7404638853" lon="10.2443000058">
		<tag k="name" v="Tjuvholmen" />
		<tag k="place" v="islet" />
		<tag k="ssr:stedsnr" v="249750" />
	</node>
	<node id="-139740" lat="60.6791748663" lon="10.274432619">
		<tag k="alt_name" v="Gunhildtjenn" />
		<tag k="name" v="Gunhildtjernet" />
		<tag k="natural" v="water" />
		<tag k="ssr:stedsnr" v="249716" />
	</node>
	<node id="-139734" lat="60.6419500021" lon="10.1494805629">
		<tag k="alt_name" v="Stortjennbekken" />
		<tag k="name" v="Stortjernbekken" />
		<tag k="ssr:stedsnr" v="249624" />
		<tag k="waterway" v="stream" />
	</node>
	<node id="-139727" lat="60.824505553" lon="10.2288111181">
		<tag k="name" v="Skrankeholmen" />
		<tag k="place" v="island" />
		<tag k="ssr:stedsnr" v="238981" />
	</node>
	<node id="-139726" lat="60.7602222218" lon="10.3468666656">
		<tag k="name" v="Svinningen" />
		<tag k="natural" v="water" />
		<tag k="ssr:stedsnr" v="238932" />
		<tag k="water" v="lake" />
	</node>
	<node id="-139724" lat="60.5800694473" lon="10.2094305588">
		<tag k="name" v="Grønnmalen" />
		<tag k="natural" v="water" />
		<tag k="ssr:stedsnr" v="238903" />
	</node>
	<node id="-139720" lat="60.7939111083" lon="10.3459777846">
		<tag k="name" v="Sæterbekken" />
		<tag k="ssr:stedsnr" v="238878" />
		<tag k="waterway" v="stream" />
	</node>
	<node id="-139709" lat="60.6665667776" lon="10.4150748528">
		<tag k="name" v="Nordre Trevatn" />
		<tag k="natural" v="water" />
		<tag k="ssr:stedsnr" v="238275" />
		<tag k="water" v="lake" />
	</node>
	<node id="-139701" lat="60.5823277794" lon="10.4406222241">
		<tag k="alt_name" v="Lustjenn" />
		<tag k="name" v="Lustjern" />
		<tag k="natural" v="water" />
		<tag k="ssr:stedsnr" v="238154" />
	</node>
	<node id="-139694" lat="60.6963861133" lon="10.0471277849">
		<tag k="name" v="Bjønndalsvika" />
		<tag k="natural" v="bay" />
		<tag k="ssr:stedsnr" v="223979" />
	</node>
	<node id="-139692" lat="60.7269277806" lon="10.1050916655">
		<tag k="name" v="Storholmen" />
		<tag k="natural" v="cape" />
		<tag k="ssr:stedsnr" v="223908" />
	</node>
	<node id="-139690" lat="60.6284027818" lon="10.0806861127">
		<tag k="name" v="Gråmerra" />
		<tag k="place" v="islet" />
		<tag k="ssr:stedsnr" v="223804" />
	</node>
	<node id="-139689" lat="60.6332277744" lon="10.0913888944">
		<tag k="name" v="Vesle Rosund" />
		<tag k="natural" v="strait" />
		<tag k="ssr:stedsnr" v="223796" />
	</node>
	<node id="-139679" lat="60.7183694475" lon="10.1588444495">
		<tag k="alt_name" v="Beintholmen" />
		<tag k="name" v="Bentholmen" />
		<tag k="place" v="islet" />
		<tag k="ssr:stedsnr" v="223256" />
	</node>
	<node id="-139674" lat="60.6679166668" lon="10.1489499986">
		<tag k="name" v="Høgfossen" />
		<tag k="natural" v="waterfall" />
		<tag k="ssr:stedsnr" v="223071" />
	</node>
	<node id="-139670" lat="60.80888333" lon="10.1239388871">
		<tag k="name" v="Skøyenveita" />
		<tag k="natural" v="water" />
		<tag k="old_name" v="Skøienveita" />
		<tag k="ssr:stedsnr" v="221555" />
		<tag k="water" v="lake" />
	</node>
	<node id="-139658" lat="60.7905083358" lon="10.3268111157">
		<tag k="name" v="Bergebekken" />
		<tag k="ssr:stedsnr" v="191615" />
		<tag k="waterway" v="stream" />
	</node>
	<node id="-139651" lat="60.6797611094" lon="10.2193500023">
		<tag k="alt_name" v="Røyrtjernet, fremre" />
		<tag k="name" v="Fremre Røyrtjernet" />
		<tag k="natural" v="water" />
		<tag k="ssr:stedsnr" v="189708" />
	</node>
	<node id="-139646" lat="60.6530611096" lon="10.2362638923">
		<tag k="alt_name" v="Primtjenn" />
		<tag k="name" v="Primtjernet" />
		<tag k="natural" v="water" />
		<tag k="ssr:stedsnr" v="189606" />
	</node>
	<node id="-139645" lat="60.6456777812" lon="10.1455499916">
		<tag k="alt_name" v="Lønnfiskebekken" />
		<tag k="name" v="Lønfiskebekken" />
		<tag k="ssr:stedsnr" v="189597" />
		<tag k="waterway" v="stream" />
	</node>
	<node id="-139644" lat="60.5793999977" lon="10.1842638914">
		<tag k="name" v="Lauvlivatnet" />
		<tag k="natural" v="water" />
		<tag k="ssr:stedsnr" v="189573" />
	</node>
	<node id="-139643" lat="60.5683749962" lon="10.2177750073">
		<tag k="alt_name" v="Henrikstjenn" />
		<tag k="name" v="Henriktjernet" />
		<tag k="natural" v="water" />
		<tag k="ssr:stedsnr" v="189561" />
	</node>
	<node id="-139641" lat="60.5883638859" lon="10.0829833398">
		<tag k="alt_name" v="Oksetjenn" />
		<tag k="name" v="Oksetjernet" />
		<tag k="natural" v="water" />
		<tag k="ssr:stedsnr" v="189533" />
	</node>
	<node id="-139640" lat="60.5884416661" lon="10.1255222181">
		<tag k="name" v="Bergevatnet" />
		<tag k="natural" v="water" />
		<tag k="ssr:stedsnr" v="189526" />
	</node>
	<node id="-139637" lat="60.5541000041" lon="10.2294999975">
		<tag k="alt_name" v="Skautrustjernet" />
		<tag k="name" v="Skauterudstjenn" />
		<tag k="natural" v="water" />
		<tag k="ssr:stedsnr" v="189492" />
	</node>
	<node id="-139636" lat="60.6913166675" lon="10.4859277814">
		<tag k="name" v="Hølbekken" />
		<tag k="ssr:stedsnr" v="189344" />
		<tag k="waterway" v="stream" />
	</node>
	<node id="-139635" lat="60.6895361127" lon="10.4699305492">
		<tag k="name" v="Svartbekken" />
		<tag k="ssr:stedsnr" v="189339" />
		<tag k="waterway" v="stream" />
	</node>
	<node id="-139628" lat="60.6054638922" lon="10.4999527769">
		<tag k="alt_name" v="Geittjenn" />
		<tag k="name" v="Geittjernet" />
		<tag k="natural" v="water" />
		<tag k="ssr:stedsnr" v="189170" />
	</node>
	<node id="-139627" lat="60.5886203763" lon="10.384818456">
		<tag k="alt_name" v="Svarttjenn" />
		<tag k="name" v="Svarttjernet" />
		<tag k="natural" v="water" />
		<tag k="ssr:stedsnr" v="189148" />
	</node>
	<node id="-139626" lat="60.5730305571" lon="10.3755527812">
		<tag k="name" v="Demma" />
		<tag k="place" v="locality" />
		<tag k="ssr:stedsnr" v="189140" />
	</node>
	<node id="-139625" lat="60.5735000001" lon="10.4174861164">
		<tag k="alt_name" v="Holmetjenn" />
		<tag k="loc_name" v="Holmetjernet" />
		<tag k="name" v="Homletjernet" />
		<tag k="natural" v="water" />
		<tag k="ssr:stedsnr" v="189138" />
	</node>
	<node id="-139624" lat="60.5652388847" lon="10.4762694394">
		<tag k="alt_name" v="Nordsetertjenn" />
		<tag k="name" v="Nordsætertjernet" />
		<tag k="natural" v="water" />
		<tag k="ssr:stedsnr" v="189121" />
	</node>
	<node id="-139623" lat="60.6820527786" lon="10.2038805506">
		<tag k="alt_name" v="Eiltjenn" />
		<tag k="name" v="Eiltjernet" />
		<tag k="natural" v="water" />
		<tag k="ssr:stedsnr" v="188771" />
	</node>
	<node id="-139622" lat="60.6868000023" lon="10.2226111199">
		<tag k="alt_name" v="Masputta" />
		<tag k="name" v="Masputtane" />
		<tag k="natural" v="water" />
		<tag k="ssr:stedsnr" v="188770" />
		<tag k="water" v="lake" />
	</node>
	<node id="-139617" lat="60.7602388886" lon="10.3010999955">
		<tag k="name" v="Kløvstadputten" />
		<tag k="natural" v="water" />
		<tag k="ssr:stedsnr" v="177864" />
	</node>
	<node id="-139616" lat="60.7709611078" lon="10.280352784">
		<tag k="name" v="Vesleelva" />
		<tag k="ssr:stedsnr" v="177857" />
		<tag k="waterway" v="stream" />
	</node>
	<node id="-139591" lat="60.6362055536" lon="10.4160694524">
		<tag k="name" v="Lønnfiske" />
		<tag k="natural" v="water" />
		<tag k="ssr:stedsnr" v="177262" />
	</node>
	<node id="-139585" lat="60.7028666711" lon="10.166422215">
		<tag k="name" v="Kumyrbekken" />
		<tag k="ssr:stedsnr" v="177113" />
		<tag k="waterway" v="stream" />
	</node>
	<node id="-139584" lat="60.6915277761" lon="10.1527583382">
		<tag k="name" v="Furukalltjenn" />
		<tag k="natural" v="water" />
		<tag k="ssr:stedsnr" v="177110" />
	</node>
	<node id="-139581" lat="60.6666611091" lon="10.052508332">
		<tag k="name" v="Fløyta" />
		<tag k="natural" v="water" />
		<tag k="ssr:stedsnr" v="162999" />
	</node>
	<node id="-139580" lat="60.669905554" lon="10.0739166728">
		<tag k="name" v="Bjønnputta" />
		<tag k="natural" v="water" />
		<tag k="ssr:stedsnr" v="162991" />
		<tag k="water" v="lake" />
	</node>
	<node id="-139579" lat="60.7117833303" lon="10.0217861155">
		<tag k="name" v="Elgputten" />
		<tag k="natural" v="water" />
		<tag k="ssr:stedsnr" v="162973" />
	</node>
	<node id="-139571" lat="60.6068333363" lon="10.2661305496">
		<tag k="name" v="Fløyta" />
		<tag k="natural" v="water" />
		<tag k="ssr:stedsnr" v="162605" />
	</node>
	<node id="-139560" lat="60.6210972199" lon="10.5488500028">
		<tag k="name" v="Åsvika" />
		<tag k="natural" v="bay" />
		<tag k="ssr:stedsnr" v="145215" />
	</node>
	<node id="-139558" lat="60.7207000044" lon="10.1982583399">
		<tag k="alt_name" v="Skarpsnotjenn" />
		<tag k="name" v="Skarpsno" />
		<tag k="natural" v="water" />
		<tag k="ssr:stedsnr" v="141495" />
	</node>
	<node id="-139557" lat="60.5773027808" lon="10.2417638886">
		<tag k="alt_name" v="Haugsætertjenn" />
		<tag k="name" v="Sætertjernet" />
		<tag k="natural" v="water" />
		<tag k="ssr:stedsnr" v="141492" />
	</node>
	<node id="-139556" lat="60.7637231723" lon="10.1634310138">
		<tag k="alt_name" v="Langtjenn;Langtjern" />
		<tag k="name" v="Langtjernet" />
		<tag k="natural" v="water" />
		<tag k="ssr:stedsnr" v="131749" />
	</node>
	<node id="-139553" lat="60.796679935" lon="10.3123333807">
		<tag k="alt_name" v="Gåstjenn;Gåstjern" />
		<tag k="name" v="Gåstjernet" />
		<tag k="natural" v="water" />
		<tag k="ssr:stedsnr" v="130643" />
	</node>
	<node id="-139543" lat="60.6756586213" lon="10.0362266282">
		<tag k="alt_name" v="Damtjenn;Damtjern" />
		<tag k="name" v="Damtjernet" />
		<tag k="natural" v="water" />
		<tag k="ssr:stedsnr" v="128729" />
	</node>
	<node id="-139542" lat="60.6748111068" lon="10.2657083409">
		<tag k="alt_name" v="Stortjenn" />
		<tag k="name" v="Stortjernet" />
		<tag k="natural" v="water" />
		<tag k="ssr:stedsnr" v="128721" />
	</node>
	<node id="-139541" lat="60.6724749971" lon="10.056650005">
		<tag k="name" v="Krokvatnet" />
		<tag k="natural" v="water" />
		<tag k="ssr:stedsnr" v="128713" />
	</node>
	<node id="-139540" lat="60.6703416678" lon="10.1245333305">
		<tag k="alt_name" v="Vesle Sandungen" />
		<tag k="name" v="Veslsandungen" />
		<tag k="natural" v="water" />
		<tag k="ssr:stedsnr" v="128712" />
	</node>
	<node id="-139539" lat="60.6638500032" lon="10.2285166741">
		<tag k="alt_name" v="Kaldtjenn" />
		<tag k="name" v="Kaldtjernet" />
		<tag k="natural" v="water" />
		<tag k="ssr:stedsnr" v="128705" />
	</node>
	<node id="-139534" lat="60.6335335604" lon="10.1440143018">
		<tag k="alt_name" v="Stortjenn;Stortjern" />
		<tag k="name" v="Stortjernet" />
		<tag k="natural" v="water" />
		<tag k="ssr:stedsnr" v="128659" />
	</node>
	<node id="-139532" lat="60.7210999973" lon="10.3383833277">
		<tag k="name" v="Lauselva" />
		<tag k="ssr:stedsnr" v="128802" />
		<tag k="waterway" v="stream" />
	</node>
	<node id="-139521" lat="60.7480500017" lon="10.2315861035">
		<tag k="name" v="Settonsvika" />
		<tag k="natural" v="bay" />
		<tag k="ssr:stedsnr" v="128755" />
	</node>
	<node id="-139518" lat="60.5779888859" lon="10.2207833371">
		<tag k="alt_name" v="Totjenna" />
		<tag k="name" v="Totjerna" />
		<tag k="natural" v="water" />
		<tag k="ssr:stedsnr" v="128593" />
		<tag k="water" v="lake" />
	</node>
	<node id="-139514" lat="60.5859027741" lon="10.2185805602">
		<tag k="alt_name" v="Tretjenna" />
		<tag k="name" v="Tretjerna" />
		<tag k="natural" v="water" />
		<tag k="ssr:stedsnr" v="128550" />
		<tag k="water" v="lake" />
	</node>
	<node id="-139511" lat="60.6098043978" lon="10.147884733">
		<tag k="alt_name" v="Skutsæterbergetjenn;Skusæterbergetjern" />
		<tag k="name" v="Skutsæterbergtjernet" />
		<tag k="natural" v="water" />
		<tag k="ssr:stedsnr" v="128645" />
	</node>
	<node id="-139510" lat="60.6125888904" lon="10.2128638808">
		<tag k="name" v="Neverbekken" />
		<tag k="ssr:stedsnr" v="128642" />
		<tag k="waterway" v="stream" />
	</node>
	<node id="-139509" lat="60.6077666663" lon="10.2593916621">
		<tag k="name" v="Lomsdalsfløyta" />
		<tag k="place" v="locality" />
		<tag k="ssr:stedsnr" v="128631" />
	</node>
	<node id="-139508" lat="60.6671888909" lon="10.3121833274">
		<tag k="name" v="Sirimyrbekken" />
		<tag k="ssr:stedsnr" v="128624" />
		<tag k="waterway" v="stream" />
	</node>
	<node id="-139503" lat="60.7174361108" lon="10.432713884">
		<tag k="name" v="Grytbekken" />
		<tag k="ssr:stedsnr" v="128406" />
		<tag k="waterway" v="stream" />
	</node>
	<node id="-139497" lat="60.5463670227" lon="10.2359221103">
		<tag k="alt_name" v="Tretjernet, nordre;Nordre Tretjenn" />
		<tag k="name" v="Nordre Tretjern" />
		<tag k="natural" v="water" />
		<tag k="ssr:stedsnr" v="128542" />
	</node>
	<node id="-139495" lat="60.5569346469" lon="10.2133203807">
		<tag k="alt_name" v="Sandtjernet, nordre;Store Sandtjern" />
		<tag k="loc_name" v="Store Sandtjenn" />
		<tag k="name" v="Nordre Sandtjernet" />
		<tag k="natural" v="water" />
		<tag k="ssr:stedsnr" v="128507" />
	</node>
	<node id="-139491" lat="60.6227861083" lon="10.4178388831">
		<tag k="name" v="Kimbekken" />
		<tag k="ssr:stedsnr" v="128194" />
		<tag k="waterway" v="stream" />
	</node>
	<node id="-139485" lat="60.5672388868" lon="10.4072138936">
		<tag k="name" v="Halvnyttebekken" />
		<tag k="ssr:stedsnr" v="128102" />
		<tag k="waterway" v="stream" />
	</node>
	<node id="-139483" lat="60.7104499997" lon="10.3191888937">
		<tag k="name" v="Kong Katt" />
		<tag k="natural" v="cape" />
		<tag k="ssr:stedsnr" v="117641" />
	</node>
	<node id="-139482" lat="60.7006111121" lon="10.3374944431">
		<tag k="name" v="Kråkvika" />
		<tag k="natural" v="bay" />
		<tag k="ssr:stedsnr" v="117633" />
	</node>
	<node id="-139480" lat="60.5488000013" lon="10.2255055644">
		<tag k="alt_name" v="Totjenna" />
		<tag k="name" v="Totjerna" />
		<tag k="natural" v="water" />
		<tag k="ssr:stedsnr" v="117500" />
		<tag k="water" v="lake" />
	</node>
	<node id="-139473" lat="60.5822249971" lon="10.3744388828">
		<tag k="alt_name" v="Store Sandtjenn" />
		<tag k="name" v="Store Sandtjern" />
		<tag k="natural" v="water" />
		<tag k="ssr:stedsnr" v="117173" />
	</node>
	<node id="-139469" lat="60.5880472236" lon="10.1008638911">
		<tag k="alt_name" v="Oksetjernsbekken" />
		<tag k="name" v="Oksetjennsbekken" />
		<tag k="ssr:stedsnr" v="116791" />
		<tag k="waterway" v="stream" />
	</node>
	<node id="-139468" lat="60.6007388905" lon="10.116574996">
		<tag k="name" v="Styggedalsbekken" />
		<tag k="ssr:stedsnr" v="116789" />
		<tag k="waterway" v="stream" />
	</node>
	<node id="-139462" lat="60.5628781865" lon="10.245497892">
		<tag k="alt_name" v="Bjørnlitjenn" />
		<tag k="name" v="Bjørnlitjern" />
		<tag k="natural" v="water" />
		<tag k="ssr:stedsnr" v="116476" />
	</node>
	<node id="-139454" lat="60.6515837123" lon="10.4622110787">
		<tag k="alt_name" v="Nordre Tretjenn" />
		<tag k="name" v="Nordre Tretjern" />
		<tag k="natural" v="water" />
		<tag k="ssr:stedsnr" v="116272" />
	</node>
	<node id="-139445" lat="60.6485222214" lon="10.5280833275">
		<tag k="name" v="Sørlibekken" />
		<tag k="ssr:stedsnr" v="116225" />
		<tag k="waterway" v="stream" />
	</node>
	<node id="-139443" lat="60.593822219" lon="10.3743138941">
		<tag k="name" v="Skaugerudsputten" />
		<tag k="natural" v="water" />
		<tag k="ssr:stedsnr" v="116183" />
		<tag k="water" v="pond" />
	</node>
	<node id="-139438" lat="60.6745194465" lon="10.053625001">
		<tag k="name" v="Lortpullbekken" />
		<tag k="ssr:stedsnr" v="102966" />
		<tag k="waterway" v="stream" />
	</node>
	<node id="-139437" lat="60.6725416631" lon="10.0336694422">
		<tag k="name" v="Damtjennsløken" />
		<tag k="natural" v="water" />
		<tag k="ssr:stedsnr" v="102965" />
		<tag k="water" v="lake" />
	</node>
	<node id="-139433" lat="60.6497250489" lon="10.0682224492">
		<tag k="name" v="Flåtåtjenn" />
		<tag k="natural" v="water" />
		<tag k="ssr:stedsnr" v="102798" />
	</node>
	<node id="-139426" lat="60.744550004" lon="10.4366722211">
		<tag k="name" v="Sorgenfribekken" />
		<tag k="ssr:stedsnr" v="101391" />
		<tag k="waterway" v="stream" />
	</node>
	<node id="-139409" lat="60.7713166677" lon="10.1535944519">
		<tag k="name" v="Rønningsbekken" />
		<tag k="ssr:stedsnr" v="70634" />
		<tag k="waterway" v="stream" />
	</node>
	<node id="-139406" lat="60.829072223" lon="10.2430027726">
		<tag k="name" v="Landåselva" />
		<tag k="ssr:stedsnr" v="70580" />
		<tag k="waterway" v="river" />
	</node>
	<node id="-139404" lat="60.8045206338" lon="10.2995207122">
		<tag k="alt_name" v="Brokslitjenn" />
		<tag k="name" v="Brokslitjernet" />
		<tag k="natural" v="water" />
		<tag k="ssr:stedsnr" v="70689" />
	</node>
	<node id="-139398" lat="60.7611250045" lon="10.3698749964">
		<tag k="alt_name" v="Breskebekken" />
		<tag k="name" v="Briskebekken" />
		<tag k="ssr:stedsnr" v="70077" />
		<tag k="waterway" v="stream" />
	</node>
	<node id="-139397" lat="60.7104111103" lon="10.1817861126">
		<tag k="alt_name" v="Væltvatnet" />
		<tag k="name" v="Veslevatnet" />
		<tag k="natural" v="water" />
		<tag k="ssr:stedsnr" v="68804" />
	</node>
	<node id="-139396" lat="60.7064999983" lon="10.1228472141">
		<tag k="name" v="Åpenbekken" />
		<tag k="ssr:stedsnr" v="68803" />
		<tag k="waterway" v="stream" />
	</node>
	<node id="-139392" lat="60.6112638857" lon="10.0982555525">
		<tag k="alt_name" v="Sørvatnet, store;Storsøvatnet;Store Søvatnet" />
		<tag k="name" v="Store Sørvatnet" />
		<tag k="natural" v="water" />
		<tag k="ssr:stedsnr" v="68678" />
	</node>
	<node id="-139389" lat="60.5435027798" lon="10.2466305546">
		<tag k="name" v="Gravåa" />
		<tag k="ssr:stedsnr" v="68573" />
		<tag k="waterway" v="stream" />
	</node>
	<node id="-139385" lat="60.5614067911" lon="10.1553231972">
		<tag k="alt_name" v="Aurtjernet, nordre;Nordre Auretjenn" />
		<tag k="name" v="Nordre Auretjern" />
		<tag k="natural" v="water" />
		<tag k="ssr:stedsnr" v="68538" />
	</node>
	<node id="-139377" lat="60.680233329" lon="10.3916611042">
		<tag k="name" v="Fallselva" />
		<tag k="ssr:stedsnr" v="68337" />
		<tag k="waterway" v="river" />
	</node>
	<node id="-139372" lat="60.5703608581" lon="10.1490676664">
		<tag k="alt_name" v="Spettmyrbergetjenn;Spettmyrbergetjern" />
		<tag k="name" v="Spettmyrbergetjernet" />
		<tag k="natural" v="water" />
		<tag k="old_name" v="Sperttmyrbergtjernet" />
		<tag k="ssr:stedsnr" v="68609" />
	</node>
	<node id="-139366" lat="60.6889611145" lon="10.12915834">
		<tag k="alt_name" v="Hemtjenn" />
		<tag k="name" v="Heimtjernet" />
		<tag k="natural" v="water" />
		<tag k="ssr:stedsnr" v="67749" />
	</node>
	<node id="-139364" lat="60.6724" lon="10.3088638868">
		<tag k="name" v="Brakarlibekken" />
		<tag k="ssr:stedsnr" v="67733" />
		<tag k="waterway" v="stream" />
	</node>
	<node id="-139363" lat="60.659391665" lon="10.0394277828">
		<tag k="name" v="Krokvassbekken" />
		<tag k="ssr:stedsnr" v="67667" />
		<tag k="waterway" v="stream" />
	</node>
	<node id="-139362" lat="60.6466555528" lon="10.107358335">
		<tag k="name" v="Selsjøbekken" />
		<tag k="ssr:stedsnr" v="67655" />
		<tag k="waterway" v="stream" />
	</node>
	<node id="-139360" lat="60.6411499982" lon="10.2309805571">
		<tag k="name" v="Skutbekken" />
		<tag k="ssr:stedsnr" v="67649" />
		<tag k="waterway" v="stream" />
	</node>
	<node id="-139358" lat="60.6410888871" lon="10.2812805552">
		<tag k="name" v="Langtjernet" />
		<tag k="natural" v="water" />
		<tag k="ssr:stedsnr" v="67639" />
	</node>
	<node id="-139354" lat="60.723952778" lon="9.99652777577">
		<tag k="name" v="Skøllsjøbekken" />
		<tag k="ssr:stedsnr" v="58097" />
		<tag k="waterway" v="stream" />
	</node>
	<node id="-139352" lat="60.7483638865" lon="10.2862750012">
		<tag k="alt_name" v="Flattjenn" />
		<tag k="name" v="Flattjern" />
		<tag k="ssr:stedsnr" v="56860" />
		<tag k="waterway" v="stream" />
	</node>
	<node id="-139350" lat="60.7679388845" lon="10.3034027726">
		<tag k="name" v="Puttmyrbekken" />
		<tag k="ssr:stedsnr" v="56848" />
		<tag k="waterway" v="stream" />
	</node>
	<node id="-139349" lat="60.6044277735" lon="10.1049666613">
		<tag k="alt_name" v="Stjernetjenn" />
		<tag k="name" v="Stjernetjern" />
		<tag k="natural" v="water" />
		<tag k="ssr:stedsnr" v="56804" />
	</node>
	<node id="-140984" lat="60.6722111114" lon="10.2863916732">
		<tag k="name" v="Atalfløyta" />
		<tag k="natural" v="water" />
		<tag k="ssr:stedsnr" v="966714" />
		<tag k="water" v="lake" />
	</node>
	<node id="-139339" lat="60.6053333296" lon="10.3501277744">
		<tag k="name" v="Sjellbekken" />
		<tag k="ssr:stedsnr" v="56570" />
		<tag k="waterway" v="stream" />
	</node>
	<node id="-139329" lat="60.6018055577" lon="10.503083341">
		<tag k="alt_name" v="Tretjenna" />
		<tag k="name" v="Tretjerna" />
		<tag k="natural" v="water" />
		<tag k="ssr:stedsnr" v="56408" />
		<tag k="water" v="lake" />
	</node>
	<node id="-139327" lat="60.578219449" lon="10.4927888807">
		<tag k="alt_name" v="Tretjenna" />
		<tag k="name" v="Tretjerna" />
		<tag k="natural" v="water" />
		<tag k="ssr:stedsnr" v="56402" />
		<tag k="water" v="lake" />
	</node>
	<node id="-139324" lat="60.7017083304" lon="10.3345694382">
		<tag k="name" v="Fagerlundsodden" />
		<tag k="natural" v="cape" />
		<tag k="ssr:stedsnr" v="56649" />
	</node>
	<node id="-139320" lat="60.5791916648" lon="10.4304361196">
		<tag k="name" v="Sandsvadfløyta" />
		<tag k="natural" v="water" />
		<tag k="ssr:stedsnr" v="56150" />
		<tag k="water" v="lake" />
	</node>
	<node id="-139318" lat="60.5789333315" lon="10.3748222254">
		<tag k="alt_name" v="Lille Sandtjenn" />
		<tag k="name" v="Lille Sandtjern" />
		<tag k="natural" v="water" />
		<tag k="ssr:stedsnr" v="56145" />
	</node>
	<node id="-139311" lat="60.8288999984" lon="10.288705556">
		<tag k="name" v="Landåsdammen" />
		<tag k="ssr:stedsnr" v="56114" />
		<tag k="waterway" v="dam" />
	</node>
	<node id="-139308" lat="60.6345833359" lon="10.0708416641">
		<tag k="name" v="Svartvassvika" />
		<tag k="natural" v="bay" />
		<tag k="ssr:stedsnr" v="41808" />
	</node>
	<node id="-139306" lat="60.6413111115" lon="10.0359999956">
		<tag k="name" v="Vesle Dytthøltjenn" />
		<tag k="natural" v="water" />
		<tag k="ssr:stedsnr" v="41773" />
	</node>
	<node id="-139305" lat="60.6303972179" lon="10.086877769">
		<tag k="name" v="Rokoa" />
		<tag k="place" v="islet" />
		<tag k="ssr:stedsnr" v="41769" />
	</node>
	<node id="-139300" lat="60.7379888861" lon="10.3555777737">
		<tag k="name" v="Saghølen" />
		<tag k="place" v="locality" />
		<tag k="ssr:stedsnr" v="41719" />
	</node>
	<node id="-139297" lat="60.6251711274" lon="10.4846624948">
		<tag k="alt_name" v="Søndre Trevatn" />
		<tag k="name" v="Søre Trevatn" />
		<tag k="natural" v="bay" />
		<tag k="ssr:stedsnr" v="41327" />
	</node>
	<node id="-139296" lat="60.6266805598" lon="10.490691673">
		<tag k="name" v="Tjerevika" />
		<tag k="natural" v="bay" />
		<tag k="ssr:stedsnr" v="41325" />
	</node>
	<node id="-139289" lat="60.6523138845" lon="10.0606666633">
		<tag k="name" v="Kapitteltjennbekken" />
		<tag k="ssr:stedsnr" v="40998" />
		<tag k="waterway" v="stream" />
	</node>
	<node id="-139288" lat="60.659977774" lon="10.0789249936">
		<tag k="name" v="Putta" />
		<tag k="natural" v="water" />
		<tag k="ssr:stedsnr" v="40990" />
	</node>
	<node id="-139287" lat="60.6637194405" lon="10.0661583287">
		<tag k="name" v="Skjekjetjenn" />
		<tag k="natural" v="water" />
		<tag k="ssr:stedsnr" v="40989" />
	</node>
	<node id="-139275" lat="60.7597578551" lon="10.1442316721">
		<tag k="alt_name" v="Brattlitjenn" />
		<tag k="name" v="Brattlitjernet" />
		<tag k="natural" v="water" />
		<tag k="ssr:stedsnr" v="10746" />
	</node>
	<node id="-139273" lat="60.7527045219" lon="10.1675374727">
		<tag k="alt_name" v="Store Kallingen" />
		<tag k="name" v="Storkaldingen" />
		<tag k="natural" v="water" />
		<tag k="ssr:stedsnr" v="9727" />
		<tag k="water" v="lake" />
	</node>
	<node id="-139266" lat="60.7692249985" lon="10.2521166735">
		<tag k="name" v="Steinsrudelva" />
		<tag k="ssr:stedsnr" v="9631" />
		<tag k="waterway" v="stream" />
	</node>
</osm>
