<?xml version="1.0" encoding="UTF-8"?>
<osm generator="osmapis" version="0.6">
	<node id="-555002" lat="62.452455558" lon="6.43685833303">
		<tag k="fixme" v="consider natural=peak for the most distinct mountains in the district" />
		<tag k="name" v="Emblemsfjellet" />
		<tag k="natural" v="hill" />
		<tag k="place" v="locality" />
		<tag k="ssr:stedsnr" v="687333" />
	</node>
	<node id="-555001" lat="62.4971444407" lon="6.26269721329">
		<tag k="fixme" v="consider natural=peak for the most distinct mountains in the district" />
		<tag k="name" v="Skulen" />
		<tag k="natural" v="hill" />
		<tag k="place" v="locality" />
		<tag k="ssr:stedsnr" v="687316" />
	</node>
	<node id="-554483" lat="62.5071527771" lon="6.36360277142">
		<tag k="name" v="Storkleiva" />
		<tag k="natural" v="hill" />
		<tag k="place" v="locality" />
		<tag k="ssr:stedsnr" v="12151" />
	</node>
	<node id="-554482" lat="62.5046722191" lon="6.25001943801">
		<tag k="fixme" v="consider natural=peak for the most distinct mountains in the district" />
		<tag k="name" v="Rørene" />
		<tag k="natural" v="hill" />
		<tag k="place" v="locality" />
		<tag k="ssr:stedsnr" v="12148" />
	</node>
	<node id="-554323" lat="62.4517166677" lon="6.37961945115">
		<tag k="fixme" v="consider natural=peak for the most distinct mountains in the district" />
		<tag k="name" v="Høgelia" />
		<tag k="natural" v="hill" />
		<tag k="place" v="locality" />
		<tag k="ssr:stedsnr" v="375041" />
	</node>
	<node id="-554974" lat="62.4391555557" lon="6.41137500821">
		<tag k="name" v="Nordalen" />
		<tag k="natural" v="valley" />
		<tag k="place" v="locality" />
		<tag k="ssr:stedsnr" v="644995" />
	</node>
	<node id="-554973" lat="62.4586138897" lon="6.25933888103">
		<tag k="name" v="Kyrkjeskaret" />
		<tag k="natural" v="valley" />
		<tag k="place" v="locality" />
		<tag k="ssr:stedsnr" v="644985" />
	</node>
	<node id="-554969" lat="62.4978722247" lon="6.23307500779">
		<tag k="name" v="Halsen" />
		<tag k="natural" v="valley" />
		<tag k="place" v="locality" />
		<tag k="ssr:stedsnr" v="644967" />
	</node>
	<node id="-555257" lat="62.4431916689" lon="6.45704444604">
		<tag k="name" v="Legene" />
		<tag k="natural" v="slope" />
		<tag k="place" v="locality" />
		<tag k="ssr:stedsnr" v="949000" />
	</node>
	<node id="-554956" lat="62.4614333355" lon="6.3740472186">
		<tag k="name" v="Langhaugen" />
		<tag k="natural" v="hill" />
		<tag k="place" v="locality" />
		<tag k="ssr:stedsnr" v="644623" />
	</node>
	<node id="-555170" lat="62.4614111141" lon="6.42035832611">
		<tag k="fixme" v="consider natural=peak for the most distinct mountains in the district" />
		<tag k="name" v="Rambjøra" />
		<tag k="natural" v="hill" />
		<tag k="place" v="locality" />
		<tag k="ssr:stedsnr" v="860008" />
	</node>
	<node id="-554953" lat="62.4713416678" lon="6.10642221545">
		<tag k="name" v="Kathammaren" />
		<tag k="natural" v="cliff" />
		<tag k="ssr:stedsnr" v="644608" />
	</node>
	<node id="-554951" lat="62.5149416681" lon="6.44256388161">
		<tag k="name" v="Svahaugen" />
		<tag k="natural" v="hill" />
		<tag k="place" v="locality" />
		<tag k="ssr:stedsnr" v="644593" />
	</node>
	<node id="-554950" lat="62.4524472181" lon="6.54115000711">
		<tag k="name" v="Moldsvora" />
		<tag k="natural" v="valley" />
		<tag k="place" v="locality" />
		<tag k="ssr:stedsnr" v="644583" />
	</node>
	<node id="-554949" lat="62.5118055544" lon="6.42003334125">
		<tag k="name" v="Storhaugen" />
		<tag k="natural" v="hill" />
		<tag k="place" v="locality" />
		<tag k="ssr:stedsnr" v="644573" />
	</node>
	<node id="-554947" lat="62.4334499985" lon="6.36572223109">
		<tag k="name" v="Skitnedalen" />
		<tag k="natural" v="valley" />
		<tag k="place" v="locality" />
		<tag k="ssr:stedsnr" v="643620" />
	</node>
	<node id="-554944" lat="62.4681888887" lon="6.10704999586">
		<tag k="name" v="Olsfjellet" />
		<tag k="natural" v="hill" />
		<tag k="place" v="locality" />
		<tag k="ssr:stedsnr" v="634597" />
	</node>
	<node id="-554943" lat="62.5117222218" lon="6.29816389281">
		<tag k="fixme" v="consider natural=peak for the most distinct mountains in the district" />
		<tag k="name" v="Haukåsen" />
		<tag k="natural" v="hill" />
		<tag k="place" v="locality" />
		<tag k="ssr:stedsnr" v="618151" />
	</node>
	<node id="-554941" lat="62.5030083319" lon="6.2808888809">
		<tag k="fixme" v="consider natural=peak for the most distinct mountains in the district" />
		<tag k="name" v="Myklebosthornet" />
		<tag k="natural" v="hill" />
		<tag k="place" v="locality" />
		<tag k="ssr:stedsnr" v="618119" />
	</node>
	<node id="-554936" lat="62.4815972236" lon="6.41044444993">
		<tag k="alt_name" v="Middagsnut;Middagstuva" />
		<tag k="fixme" v="consider natural=peak for the most distinct mountains in the district" />
		<tag k="name" v="Middagstua" />
		<tag k="natural" v="hill" />
		<tag k="place" v="locality" />
		<tag k="ssr:stedsnr" v="617251" />
	</node>
	<node id="-554935" lat="62.4462250024" lon="6.5303527787">
		<tag k="name" v="Magerholmdalen" />
		<tag k="natural" v="valley" />
		<tag k="place" v="locality" />
		<tag k="ssr:stedsnr" v="617102" />
	</node>
	<node id="-554909" lat="62.4425055521" lon="6.38790000381">
		<tag k="name" v="Dyfta" />
		<tag k="natural" v="valley" />
		<tag k="place" v="locality" />
		<tag k="ssr:stedsnr" v="583984" />
	</node>
	<node id="-554908" lat="62.4959972218" lon="6.27446110701">
		<tag k="name" v="Stigen" />
		<tag k="natural" v="slope" />
		<tag k="place" v="locality" />
		<tag k="ssr:stedsnr" v="583979" />
	</node>
	<node id="-554907" lat="62.5033944401" lon="6.36791943745">
		<tag k="name" v="Bruarøra" />
		<tag k="natural" v="ridge" />
		<tag k="place" v="locality" />
		<tag k="ssr:stedsnr" v="583977" />
	</node>
	<node id="-554905" lat="62.4586555569" lon="6.45828611238">
		<tag k="name" v="Heiane" />
		<tag k="natural" v="hill" />
		<tag k="place" v="locality" />
		<tag k="ssr:stedsnr" v="583959" />
	</node>
	<node id="-554392" lat="62.4716111079" lon="6.24596667579">
		<tag k="fixme" v="consider natural=peak for the most distinct mountains in the district" />
		<tag k="name" v="Fredsberg" />
		<tag k="natural" v="hill" />
		<tag k="place" v="locality" />
		<tag k="ssr:stedsnr" v="887681" />
	</node>
	<node id="-554389" lat="62.4536194429" lon="6.37884445003">
		<tag k="name" v="Klipeskarhaugen" />
		<tag k="natural" v="hill" />
		<tag k="place" v="locality" />
		<tag k="ssr:stedsnr" v="887628" />
	</node>
	<node id="-554386" lat="62.4678777799" lon="6.31919722883">
		<tag k="fixme" v="consider natural=peak for the most distinct mountains in the district" />
		<tag k="name" v="Kyrkjehaugen" />
		<tag k="natural" v="hill" />
		<tag k="place" v="locality" />
		<tag k="ssr:stedsnr" v="887608" />
	</node>
	<node id="-554383" lat="62.4643361123" lon="6.28830833754">
		<tag k="alt_name" v="Hatleåsen" />
		<tag k="fixme" v="consider natural=peak for the most distinct mountains in the district" />
		<tag k="name" v="Hatlaåsen" />
		<tag k="natural" v="hill" />
		<tag k="place" v="locality" />
		<tag k="ssr:stedsnr" v="887591" />
	</node>
	<node id="-554893" lat="62.5026694475" lon="6.22880555158">
		<tag k="name" v="Eidshaugen" />
		<tag k="natural" v="hill" />
		<tag k="place" v="locality" />
		<tag k="ssr:stedsnr" v="583569" />
	</node>
	<node id="-554892" lat="62.4988277808" lon="6.20525834247">
		<tag k="name" v="Storhaugen" />
		<tag k="natural" v="hill" />
		<tag k="place" v="locality" />
		<tag k="ssr:stedsnr" v="583564" />
	</node>
	<node id="-554891" lat="62.4807444461" lon="6.39626943772">
		<tag k="name" v="Bingsdalen" />
		<tag k="natural" v="valley" />
		<tag k="old_name" v="Bringsdalen" />
		<tag k="place" v="locality" />
		<tag k="ssr:stedsnr" v="583550" />
	</node>
	<node id="-554378" lat="62.4505861152" lon="6.35727776919">
		<tag k="name" v="Skothaugen" />
		<tag k="natural" v="hill" />
		<tag k="place" v="locality" />
		<tag k="ssr:stedsnr" v="887582" />
	</node>
	<node id="-554377" lat="62.4741527775" lon="6.38217221399">
		<tag k="fixme" v="consider natural=peak for the most distinct mountains in the district" />
		<tag k="name" v="Skothaugen" />
		<tag k="natural" v="hill" />
		<tag k="place" v="locality" />
		<tag k="ssr:stedsnr" v="887578" />
	</node>
	<node id="-554376" lat="62.4526083324" lon="6.46724722325">
		<tag k="name" v="Breiskaret" />
		<tag k="natural" v="valley" />
		<tag k="place" v="locality" />
		<tag k="ssr:stedsnr" v="887563" />
	</node>
	<node id="-554887" lat="62.4548583331" lon="6.37175278383">
		<tag k="fixme" v="consider natural=peak for the most distinct mountains in the district" />
		<tag k="name" v="Spjelkavikfjellet" />
		<tag k="natural" v="hill" />
		<tag k="place" v="locality" />
		<tag k="ssr:stedsnr" v="582643" />
	</node>
	<node id="-554374" lat="62.4595861134" lon="6.36617222946">
		<tag k="name" v="Skoghaugen" />
		<tag k="natural" v="hill" />
		<tag k="place" v="locality" />
		<tag k="ssr:stedsnr" v="887557" />
	</node>
	<node id="-554877" lat="62.5097638868" lon="6.24216666586">
		<tag k="fixme" v="consider natural=peak for the most distinct mountains in the district" />
		<tag k="name" v="Husefjellet" />
		<tag k="natural" v="hill" />
		<tag k="place" v="locality" />
		<tag k="ssr:stedsnr" v="557168" />
	</node>
	<node id="-554874" lat="62.5057305562" lon="6.27873332377">
		<tag k="fixme" v="consider natural=peak for the most distinct mountains in the district" />
		<tag k="name" v="Rotnakken" />
		<tag k="natural" v="hill" />
		<tag k="place" v="locality" />
		<tag k="ssr:stedsnr" v="557122" />
	</node>
	<node id="-554359" lat="62.4673499974" lon="6.50477221832">
		<tag k="name" v="Gråsteinsegga" />
		<tag k="natural" v="ridge" />
		<tag k="place" v="locality" />
		<tag k="ssr:stedsnr" v="402722" />
	</node>
	<node id="-554358" lat="62.4702611128" lon="6.10601389291">
		<tag k="fixme" v="consider natural=peak for the most distinct mountains in the district" />
		<tag k="name" v="Storhaugen" />
		<tag k="natural" v="hill" />
		<tag k="place" v="locality" />
		<tag k="ssr:stedsnr" v="402714" />
	</node>
	<node id="-555241" lat="62.4444805597" lon="6.35788889667">
		<tag k="name" v="Breivikhaugen" />
		<tag k="natural" v="hill" />
		<tag k="place" v="locality" />
		<tag k="ssr:stedsnr" v="948653" />
	</node>
	<node id="-554868" lat="62.4596222255" lon="6.09981111336">
		<tag k="fixme" v="consider natural=peak for the most distinct mountains in the district" />
		<tag k="name" v="Sukkertoppen" />
		<tag k="natural" v="hill" />
		<tag k="place" v="locality" />
		<tag k="ssr:stedsnr" v="556941" />
	</node>
	<node id="-554348" lat="62.435077774" lon="6.4093638805">
		<tag k="name" v="Haugane" />
		<tag k="natural" v="hill" />
		<tag k="place" v="locality" />
		<tag k="ssr:stedsnr" v="402584" />
	</node>
	<node id="-554346" lat="62.4370472243" lon="6.40457222431">
		<tag k="name" v="Flåhamrane" />
		<tag k="natural" v="cliff" />
		<tag k="ssr:stedsnr" v="402564" />
	</node>
	<node id="-554345" lat="62.4230694439" lon="6.38756110459">
		<tag k="name" v="Skarvehammaren" />
		<tag k="natural" v="cliff" />
		<tag k="ssr:stedsnr" v="402552" />
	</node>
	<node id="-554851" lat="62.4426611083" lon="6.48734166452">
		<tag k="fixme" v="consider natural=peak for the most distinct mountains in the district" />
		<tag k="name" v="Brunskarnakkane" />
		<tag k="natural" v="hill" />
		<tag k="place" v="locality" />
		<tag k="ssr:stedsnr" v="525566" />
	</node>
	<node id="-554850" lat="62.4456277784" lon="6.37441945219">
		<tag k="name" v="Grødalen" />
		<tag k="natural" v="valley" />
		<tag k="place" v="locality" />
		<tag k="ssr:stedsnr" v="524000" />
	</node>
	<node id="-554847" lat="62.4726888901" lon="6.36415556421">
		<tag k="name" v="Brauta" />
		<tag k="natural" v="slope" />
		<tag k="place" v="locality" />
		<tag k="ssr:stedsnr" v="523983" />
	</node>
	<node id="-554330" lat="62.5134388852" lon="6.2954999947">
		<tag k="name" v="Tua" />
		<tag k="natural" v="hill" />
		<tag k="place" v="locality" />
		<tag k="ssr:stedsnr" v="375145" />
	</node>
	<node id="-554841" lat="62.457244441" lon="6.4891666703">
		<tag k="name" v="Kubbane" />
		<tag k="natural" v="ridge" />
		<tag k="place" v="locality" />
		<tag k="ssr:stedsnr" v="523950" />
	</node>
	<node id="-554328" lat="62.5032777756" lon="6.24478888126">
		<tag k="name" v="Ramneskaret" />
		<tag k="natural" v="valley" />
		<tag k="place" v="locality" />
		<tag k="ssr:stedsnr" v="375106" />
	</node>
	<node id="-554839" lat="62.5077777749" lon="6.27521389769">
		<tag k="name" v="Sætredalen" />
		<tag k="natural" v="valley" />
		<tag k="place" v="locality" />
		<tag k="ssr:stedsnr" v="523750" />
	</node>
	<node id="-554838" lat="62.476430559" lon="6.17230555619">
		<tag k="name" v="Ravneskaret" />
		<tag k="natural" v="valley" />
		<tag k="place" v="locality" />
		<tag k="ssr:stedsnr" v="523747" />
	</node>
	<node id="-554835" lat="62.4534416644" lon="6.38974723177">
		<tag k="name" v="Kløvningane" />
		<tag k="natural" v="valley" />
		<tag k="place" v="locality" />
		<tag k="ssr:stedsnr" v="523707" />
	</node>
	<node id="-554834" lat="62.4481555595" lon="6.41131388196">
		<tag k="fixme" v="consider natural=peak for the most distinct mountains in the district" />
		<tag k="name" v="Høgkubben" />
		<tag k="natural" v="hill" />
		<tag k="place" v="locality" />
		<tag k="ssr:stedsnr" v="523704" />
	</node>
	<node id="-555235" lat="62.4982250014" lon="6.20948610572">
		<tag k="name" v="Svehaugen" />
		<tag k="natural" v="hill" />
		<tag k="place" v="locality" />
		<tag k="ssr:stedsnr" v="948628" />
	</node>
	<node id="-554831" lat="62.4522083345" lon="6.52418610724">
		<tag k="fixme" v="consider natural=peak for the most distinct mountains in the district" />
		<tag k="name" v="Vassnakken" />
		<tag k="natural" v="hill" />
		<tag k="place" v="locality" />
		<tag k="ssr:stedsnr" v="523686" />
	</node>
	<node id="-554828" lat="62.4774833371" lon="6.21679444578">
		<tag k="name" v="Gangstøvikbakken" />
		<tag k="natural" v="slope" />
		<tag k="place" v="locality" />
		<tag k="ssr:stedsnr" v="523667" />
	</node>
	<node id="-554303" lat="62.4557166668" lon="6.37037222416">
		<tag k="name" v="Kollen" />
		<tag k="natural" v="hill" />
		<tag k="place" v="locality" />
		<tag k="ssr:stedsnr" v="341998" />
	</node>
	<node id="-554301" lat="62.4577861155" lon="6.38281389383">
		<tag k="name" v="Lyhaugen" />
		<tag k="natural" v="hill" />
		<tag k="place" v="locality" />
		<tag k="ssr:stedsnr" v="341981" />
	</node>
	<node id="-554300" lat="62.4878611074" lon="6.40796389741">
		<tag k="name" v="Brauta" />
		<tag k="natural" v="slope" />
		<tag k="place" v="locality" />
		<tag k="ssr:stedsnr" v="341972" />
	</node>
	<node id="-554293" lat="62.4421472192" lon="6.30135555796">
		<tag k="name" v="Engelskberget" />
		<tag k="natural" v="hill" />
		<tag k="place" v="locality" />
		<tag k="ssr:stedsnr" v="341688" />
	</node>
	<node id="-554291" lat="62.4417527777" lon="6.53810554783">
		<tag k="name" v="Sætreheia" />
		<tag k="natural" v="slope" />
		<tag k="place" v="locality" />
		<tag k="ssr:stedsnr" v="341682" />
	</node>
	<node id="-554290" lat="62.4336472243" lon="6.45323332495">
		<tag k="name" v="Trysethaugen" />
		<tag k="natural" v="hill" />
		<tag k="place" v="locality" />
		<tag k="ssr:stedsnr" v="341675" />
	</node>
	<node id="-554800" lat="62.5108416701" lon="6.39939444022">
		<tag k="name" v="Ellingshaugen" />
		<tag k="natural" v="hill" />
		<tag k="place" v="locality" />
		<tag k="ssr:stedsnr" v="497133" />
	</node>
	<node id="-554285" lat="62.4739583302" lon="6.39348611174">
		<tag k="fixme" v="consider natural=peak for the most distinct mountains in the district" />
		<tag k="name" v="Hatlenausa" />
		<tag k="natural" v="hill" />
		<tag k="place" v="locality" />
		<tag k="ssr:stedsnr" v="341643" />
	</node>
	<node id="-554284" lat="62.4415388868" lon="6.36268610232">
		<tag k="name" v="Urdalen" />
		<tag k="natural" v="valley" />
		<tag k="place" v="locality" />
		<tag k="ssr:stedsnr" v="341614" />
	</node>
	<node id="-554375" lat="62.4521222256" lon="6.46293055115">
		<tag k="name" v="Breiskarnakken" />
		<tag k="natural" v="hill" />
		<tag k="place" v="locality" />
		<tag k="ssr:stedsnr" v="887562" />
	</node>
	<node id="-554277" lat="62.5092083331" lon="6.24214999596">
		<tag k="name" v="Midtifjellet" />
		<tag k="natural" v="hill" />
		<tag k="place" v="locality" />
		<tag k="ssr:stedsnr" v="341566" />
	</node>
	<node id="-554268" lat="62.5113027762" lon="6.3104611187">
		<tag k="name" v="Nakken" />
		<tag k="natural" v="hill" />
		<tag k="place" v="locality" />
		<tag k="ssr:stedsnr" v="315170" />
	</node>
	<node id="-554267" lat="62.5074277791" lon="6.2676805483">
		<tag k="name" v="Timbreskarhaugen" />
		<tag k="natural" v="valley" />
		<tag k="place" v="locality" />
		<tag k="ssr:stedsnr" v="315129" />
	</node>
	<node id="-554769" lat="62.4839027762" lon="6.41332777736">
		<tag k="name" v="Ospenakken" />
		<tag k="natural" v="ridge" />
		<tag k="place" v="locality" />
		<tag k="ssr:stedsnr" v="463654" />
	</node>
	<node id="-554763" lat="62.4749111091" lon="6.16602777103">
		<tag k="name" v="Kniven" />
		<tag k="natural" v="ridge" />
		<tag k="place" v="locality" />
		<tag k="ssr:stedsnr" v="462987" />
	</node>
	<node id="-554762" lat="62.4673083358" lon="6.10496945069">
		<tag k="name" v="Meskaret" />
		<tag k="natural" v="valley" />
		<tag k="place" v="locality" />
		<tag k="ssr:stedsnr" v="462985" />
	</node>
	<node id="-554761" lat="62.4684194431" lon="6.33379166895">
		<tag k="fixme" v="consider natural=peak for the most distinct mountains in the district" />
		<tag k="name" v="Åsemulen" />
		<tag k="natural" v="hill" />
		<tag k="place" v="locality" />
		<tag k="ssr:stedsnr" v="462969" />
	</node>
	<node id="-554760" lat="62.4968361129" lon="6.27094722611">
		<tag k="name" v="Reset" />
		<tag k="natural" v="ridge" />
		<tag k="place" v="locality" />
		<tag k="ssr:stedsnr" v="462964" />
	</node>
	<node id="-554239" lat="62.4600749999" lon="6.1339138798">
		<tag k="name" v="Hessaskaret" />
		<tag k="natural" v="valley" />
		<tag k="place" v="locality" />
		<tag k="ssr:stedsnr" v="281942" />
	</node>
	<node id="-554238" lat="62.4614361134" lon="6.12005556095">
		<tag k="name" v="Kleivane" />
		<tag k="natural" v="hill" />
		<tag k="place" v="locality" />
		<tag k="ssr:stedsnr" v="281708" />
	</node>
	<node id="-554749" lat="62.4864805569" lon="6.42975833396">
		<tag k="name" v="Sætrenakken" />
		<tag k="natural" v="ridge" />
		<tag k="place" v="locality" />
		<tag k="ssr:stedsnr" v="462564" />
	</node>
	<node id="-554745" lat="62.4850999975" lon="6.42234722058">
		<tag k="name" v="Sætrenakken" />
		<tag k="natural" v="ridge" />
		<tag k="place" v="locality" />
		<tag k="ssr:stedsnr" v="462515" />
	</node>
	<node id="-554231" lat="62.4642694418" lon="6.35296666053">
		<tag k="name" v="Aspehaugen" />
		<tag k="natural" v="hill" />
		<tag k="place" v="locality" />
		<tag k="ssr:stedsnr" v="281620" />
	</node>
	<node id="-555254" lat="62.5016305544" lon="6.34800556371">
		<tag k="name" v="Bøskaret" />
		<tag k="natural" v="valley" />
		<tag k="place" v="locality" />
		<tag k="ssr:stedsnr" v="948987" />
	</node>
	<node id="-554226" lat="62.4662499993" lon="6.26998054895">
		<tag k="name" v="Vandberg" />
		<tag k="natural" v="hill" />
		<tag k="place" v="locality" />
		<tag k="ssr:stedsnr" v="280977" />
	</node>
	<node id="-554736" lat="62.5114583317" lon="6.4200166585">
		<tag k="name" v="Fjellsenden" />
		<tag k="natural" v="hill" />
		<tag k="place" v="locality" />
		<tag k="ssr:stedsnr" v="436172" />
	</node>
	<node id="-554221" lat="62.4655444403" lon="6.45020278026">
		<tag k="name" v="Nevregylet" />
		<tag k="natural" v="gorge" />
		<tag k="ssr:stedsnr" v="280618" />
	</node>
	<node id="-554220" lat="62.4477861124" lon="6.44818611609">
		<tag k="name" v="Bjørnenakken" />
		<tag k="natural" v="ridge" />
		<tag k="place" v="locality" />
		<tag k="ssr:stedsnr" v="280566" />
	</node>
	<node id="-554217" lat="62.4400277801" lon="6.52287221592">
		<tag k="name" v="Blånibba" />
		<tag k="natural" v="hill" />
		<tag k="place" v="locality" />
		<tag k="ssr:stedsnr" v="280561" />
	</node>
	<node id="-554728" lat="62.4387496006" lon="6.48733115226">
		<tag k="fixme" v="consider natural=peak for the most distinct mountains in the district" />
		<tag k="name" v="Storenakken" />
		<tag k="natural" v="hill" />
		<tag k="place" v="locality" />
		<tag k="ssr:stedsnr" v="435108" />
	</node>
	<node id="-555238" lat="62.4631583363" lon="6.31174444461">
		<tag k="name" v="Åsehaugen" />
		<tag k="natural" v="hill" />
		<tag k="place" v="locality" />
		<tag k="ssr:stedsnr" v="948638" />
	</node>
	<node id="-555237" lat="62.5123888928" lon="6.23939167216">
		<tag k="name" v="Storhylla" />
		<tag k="place" v="locality" />
		<tag k="ssr:stedsnr" v="948635" />
	</node>
	<node id="-555236" lat="62.4992916635" lon="6.19111943908">
		<tag k="name" v="Leitahaugen" />
		<tag k="natural" v="hill" />
		<tag k="place" v="locality" />
		<tag k="ssr:stedsnr" v="948631" />
	</node>
	<node id="-554723" lat="62.4561583293" lon="6.35188611967">
		<tag k="name" v="Klubben" />
		<tag k="natural" v="hill" />
		<tag k="place" v="locality" />
		<tag k="ssr:stedsnr" v="422104" />
	</node>
	<node id="-555234" lat="62.4327361126" lon="6.3863222132">
		<tag k="name" v="Kvernhusdalen" />
		<tag k="natural" v="valley" />
		<tag k="place" v="locality" />
		<tag k="ssr:stedsnr" v="948620" />
	</node>
	<node id="-555233" lat="62.4612777779" lon="6.32347221899">
		<tag k="name" v="Geileberget" />
		<tag k="natural" v="hill" />
		<tag k="place" v="locality" />
		<tag k="ssr:stedsnr" v="948609" />
	</node>
	<node id="-555230" lat="62.4982249995" lon="6.18353333157">
		<tag k="name" v="Purkeskylet" />
		<tag k="natural" v="slope" />
		<tag k="place" v="locality" />
		<tag k="ssr:stedsnr" v="948588" />
	</node>
	<node id="-555228" lat="62.5083583298" lon="6.27515277637">
		<tag k="name" v="Sætrehaugen" />
		<tag k="natural" v="hill" />
		<tag k="place" v="locality" />
		<tag k="ssr:stedsnr" v="948577" />
	</node>
	<node id="-554703" lat="62.4979388881" lon="6.25776945231">
		<tag k="name" v="Skuldalen" />
		<tag k="natural" v="valley" />
		<tag k="place" v="locality" />
		<tag k="ssr:stedsnr" v="253233" />
	</node>
	<node id="-555207" lat="62.4753246898" lon="6.16801895929">
		<tag k="fixme" v="consider natural=peak for the most distinct mountains in the district" />
		<tag k="name" v="Aksla" />
		<tag k="natural" v="hill" />
		<tag k="place" v="locality" />
		<tag k="ssr:stedsnr" v="921926" />
	</node>
	<node id="-554687" lat="62.442486113" lon="6.40519445244">
		<tag k="name" v="Alldalen" />
		<tag k="natural" v="valley" />
		<tag k="place" v="locality" />
		<tag k="ssr:stedsnr" v="220997" />
	</node>
	<node id="-554686" lat="62.4292861101" lon="6.4833111104">
		<tag k="name" v="Kvalen" />
		<tag k="natural" v="hill" />
		<tag k="place" v="locality" />
		<tag k="ssr:stedsnr" v="220995" />
	</node>
	<node id="-554682" lat="62.475019446" lon="6.22024165838">
		<tag k="name" v="Fagerlia" />
		<tag k="natural" v="slope" />
		<tag k="place" v="locality" />
		<tag k="ssr:stedsnr" v="220962" />
	</node>
	<node id="-554356" lat="62.4492527768" lon="6.36604443487">
		<tag k="name" v="Langdalen" />
		<tag k="natural" v="valley" />
		<tag k="place" v="locality" />
		<tag k="ssr:stedsnr" v="402654" />
	</node>
	<node id="-555189" lat="62.4368222258" lon="6.35041944456">
		<tag k="name" v="Lilleberget" />
		<tag k="natural" v="hill" />
		<tag k="place" v="locality" />
		<tag k="ssr:stedsnr" v="881173" />
	</node>
	<node id="-554676" lat="62.447027774" lon="6.38192221743">
		<tag k="name" v="Rasmushjellen" />
		<tag k="place" v="locality" />
		<tag k="ssr:stedsnr" v="220685" />
	</node>
	<node id="-554675" lat="62.4434138853" lon="6.40349167533">
		<tag k="name" v="Ramskredhamrane" />
		<tag k="natural" v="cliff" />
		<tag k="ssr:stedsnr" v="220682" />
	</node>
	<node id="-554674" lat="62.4551944452" lon="6.47631389263">
		<tag k="fixme" v="consider natural=peak for the most distinct mountains in the district" />
		<tag k="name" v="Høgekubben" />
		<tag k="natural" v="hill" />
		<tag k="place" v="locality" />
		<tag k="ssr:stedsnr" v="220672" />
	</node>
	<node id="-554673" lat="62.4537916632" lon="6.45927500656">
		<tag k="name" v="Emblemsdalen" />
		<tag k="natural" v="valley" />
		<tag k="place" v="locality" />
		<tag k="ssr:stedsnr" v="220670" />
	</node>
	<node id="-555181" lat="62.4373416708" lon="6.34767777997">
		<tag k="name" v="Rabben" />
		<tag k="natural" v="hill" />
		<tag k="place" v="locality" />
		<tag k="ssr:stedsnr" v="861042" />
	</node>
	<node id="-554666" lat="62.4715277738" lon="6.29503889746">
		<tag k="alt_name" v="Leirstadnakken" />
		<tag k="fixme" v="consider natural=peak for the most distinct mountains in the district" />
		<tag k="name" v="Lerstadnakken" />
		<tag k="natural" v="hill" />
		<tag k="place" v="locality" />
		<tag k="ssr:stedsnr" v="220593" />
	</node>
	<node id="-554665" lat="62.4646055591" lon="6.43395556202">
		<tag k="name" v="Blombakkane" />
		<tag k="natural" v="slope" />
		<tag k="place" v="locality" />
		<tag k="ssr:stedsnr" v="220589" />
	</node>
	<node id="-555174" lat="62.4874861136" lon="6.43369722228">
		<tag k="fixme" v="consider natural=peak for the most distinct mountains in the district" />
		<tag k="name" v="Kjølen" />
		<tag k="natural" v="hill" />
		<tag k="place" v="locality" />
		<tag k="ssr:stedsnr" v="860281" />
	</node>
	<node id="-555121" lat="62.4618722211" lon="6.45379999163">
		<tag k="fixme" v="consider natural=peak for the most distinct mountains in the district" />
		<tag k="name" v="Spjelkavikfjellet" />
		<tag k="natural" v="hill" />
		<tag k="place" v="locality" />
		<tag k="ssr:stedsnr" v="809348" />
	</node>
	<node id="-554660" lat="62.463833333" lon="6.10250000573">
		<tag k="name" v="Storskaret" />
		<tag k="natural" v="valley" />
		<tag k="place" v="locality" />
		<tag k="ssr:stedsnr" v="220627" />
	</node>
	<node id="-554658" lat="62.4944138861" lon="6.17648056477">
		<tag k="name" v="Fjellsenden" />
		<tag k="natural" v="ridge" />
		<tag k="place" v="locality" />
		<tag k="ssr:stedsnr" v="220611" />
	</node>
	<node id="-555159" lat="62.4397499988" lon="6.54774999415">
		<tag k="name" v="Skabakken" />
		<tag k="natural" v="slope" />
		<tag k="place" v="locality" />
		<tag k="ssr:stedsnr" v="840938" />
	</node>
	<node id="-554646" lat="62.4950277818" lon="6.17938332767">
		<tag k="alt_name" v="Kverven" />
		<tag k="fixme" v="consider natural=peak for the most distinct mountains in the district" />
		<tag k="name" v="Kverveaksla" />
		<tag k="natural" v="hill" />
		<tag k="place" v="locality" />
		<tag k="ssr:stedsnr" v="193985" />
	</node>
	<node id="-555157" lat="62.435666668" lon="6.47796944575">
		<tag k="fixme" v="consider natural=peak for the most distinct mountains in the district" />
		<tag k="name" v="Akslanakken" />
		<tag k="natural" v="hill" />
		<tag k="place" v="locality" />
		<tag k="ssr:stedsnr" v="829572" />
	</node>
	<node id="-554644" lat="62.4736027786" lon="6.39693056382">
		<tag k="name" v="Bjørkedalen" />
		<tag k="natural" v="valley" />
		<tag k="place" v="locality" />
		<tag k="ssr:stedsnr" v="193015" />
	</node>
	<node id="-555152" lat="62.4376500002" lon="6.41107221772">
		<tag k="name" v="Nausa" />
		<tag k="natural" v="hill" />
		<tag k="place" v="locality" />
		<tag k="ssr:stedsnr" v="827976" />
	</node>
	<node id="-555150" lat="62.4343472184" lon="6.32649444931">
		<tag k="name" v="Kråkhaugen" />
		<tag k="natural" v="hill" />
		<tag k="place" v="locality" />
		<tag k="ssr:stedsnr" v="827962" />
	</node>
	<node id="-555149" lat="62.4323027744" lon="6.32284444329">
		<tag k="name" v="Raudeberg" />
		<tag k="natural" v="hill" />
		<tag k="place" v="locality" />
		<tag k="ssr:stedsnr" v="827959" />
	</node>
	<node id="-555148" lat="62.464622226" lon="6.35776388156">
		<tag k="name" v="Scottsborg" />
		<tag k="natural" v="hill" />
		<tag k="place" v="locality" />
		<tag k="ssr:stedsnr" v="827955" />
	</node>
	<node id="-555031" lat="62.5034694427" lon="6.25737499167">
		<tag k="name" v="Skaret" />
		<tag k="natural" v="valley" />
		<tag k="place" v="locality" />
		<tag k="ssr:stedsnr" v="705954" />
	</node>
	<node id="-555143" lat="62.4755416677" lon="6.24036666896">
		<tag k="fixme" v="consider natural=peak for the most distinct mountains in the district" />
		<tag k="name" v="Husafjellet" />
		<tag k="natural" v="hill" />
		<tag k="place" v="locality" />
		<tag k="ssr:stedsnr" v="827707" />
	</node>
	<node id="-555139" lat="62.4639222198" lon="6.22943054632">
		<tag k="name" v="Skotteberget" />
		<tag k="natural" v="hill" />
		<tag k="place" v="locality" />
		<tag k="ssr:stedsnr" v="827643" />
	</node>
	<node id="-555137" lat="62.4622999965" lon="6.41845832406">
		<tag k="name" v="Storfonna" />
		<tag k="natural" v="valley" />
		<tag k="place" v="locality" />
		<tag k="ssr:stedsnr" v="827630" />
	</node>
	<node id="-555136" lat="62.4790833291" lon="6.40997223107">
		<tag k="name" v="Plettedalen" />
		<tag k="natural" v="valley" />
		<tag k="place" v="locality" />
		<tag k="ssr:stedsnr" v="827627" />
	</node>
	<node id="-554621" lat="62.5015972232" lon="6.24387499435">
		<tag k="fixme" v="consider natural=peak for the most distinct mountains in the district" />
		<tag k="name" v="Nøringen" />
		<tag k="natural" v="hill" />
		<tag k="place" v="locality" />
		<tag k="ssr:stedsnr" v="159958" />
	</node>
	<node id="-554614" lat="62.4979611155" lon="6.324086114">
		<tag k="name" v="Vikedalen" />
		<tag k="natural" v="valley" />
		<tag k="place" v="locality" />
		<tag k="ssr:stedsnr" v="159596" />
	</node>
	<node id="-555125" lat="62.5112388924" lon="6.29355833488">
		<tag k="name" v="Brendetua" />
		<tag k="natural" v="hill" />
		<tag k="place" v="locality" />
		<tag k="ssr:stedsnr" v="827546" />
	</node>
	<node id="-555198" lat="62.4707305569" lon="6.19754999811">
		<tag k="name" v="Volsdalen" />
		<tag k="natural" v="valley" />
		<tag k="place" v="locality" />
		<tag k="ssr:stedsnr" v="906218" />
	</node>
	<node id="-554609" lat="62.510441669" lon="6.28124166665">
		<tag k="fixme" v="consider natural=peak for the most distinct mountains in the district" />
		<tag k="name" v="Lorgjanakken" />
		<tag k="natural" v="hill" />
		<tag k="place" v="locality" />
		<tag k="ssr:stedsnr" v="159557" />
	</node>
	<node id="-554607" lat="62.4604555558" lon="6.38855277823">
		<tag k="name" v="Myrnakken" />
		<tag k="natural" v="ridge" />
		<tag k="place" v="locality" />
		<tag k="ssr:stedsnr" v="159635" />
	</node>
	<node id="-554605" lat="62.488172219" lon="6.43481944683">
		<tag k="fixme" v="consider natural=peak for the most distinct mountains in the district" />
		<tag k="name" v="Hollnakken" />
		<tag k="natural" v="hill" />
		<tag k="place" v="locality" />
		<tag k="ssr:stedsnr" v="159621" />
	</node>
	<node id="-554602" lat="62.456875313" lon="6.13275847281">
		<tag k="name" v="Naustberget" />
		<tag k="natural" v="hill" />
		<tag k="place" v="locality" />
		<tag k="ssr:stedsnr" v="158680" />
	</node>
	<node id="-555101" lat="62.4650527821" lon="6.09651110498">
		<tag k="name" v="Gullhaugane" />
		<tag k="natural" v="hill" />
		<tag k="place" v="locality" />
		<tag k="ssr:stedsnr" v="784190" />
	</node>
	<node id="-555023" lat="62.4403833349" lon="6.30972221851">
		<tag k="name" v="Notaberget" />
		<tag k="natural" v="hill" />
		<tag k="place" v="locality" />
		<tag k="ssr:stedsnr" v="705688" />
	</node>
	<node id="-554251" lat="62.4758194424" lon="6.2067194456">
		<tag k="name" v="Kråkeskar" />
		<tag k="natural" v="hill" />
		<tag k="place" v="locality" />
		<tag k="ssr:stedsnr" v="299234" />
	</node>
	<node id="-554581" lat="62.4597249977" lon="6.15095834324">
		<tag k="name" v="Olsvikskaret" />
		<tag k="natural" v="valley" />
		<tag k="place" v="locality" />
		<tag k="ssr:stedsnr" v="117042" />
	</node>
	<node id="-555090" lat="62.4313416647" lon="6.49052777056">
		<tag k="name" v="Akselhaugen" />
		<tag k="natural" v="hill" />
		<tag k="place" v="locality" />
		<tag k="ssr:stedsnr" v="766706" />
	</node>
	<node id="-554339" lat="62.5091861129" lon="6.24950277227">
		<tag k="name" v="Hjellane" />
		<tag k="place" v="locality" />
		<tag k="ssr:stedsnr" v="401940" />
	</node>
	<node id="-555088" lat="62.4497361091" lon="6.36234444863">
		<tag k="name" v="Langhaugen" />
		<tag k="natural" v="hill" />
		<tag k="place" v="locality" />
		<tag k="ssr:stedsnr" v="766635" />
	</node>
	<node id="-555086" lat="62.4649888907" lon="6.46106110337">
		<tag k="name" v="Svartorven" />
		<tag k="natural" v="slope" />
		<tag k="place" v="locality" />
		<tag k="ssr:stedsnr" v="766629" />
	</node>
	<node id="-555085" lat="62.4449527775" lon="6.46200555838">
		<tag k="name" v="Rotenakken" />
		<tag k="natural" v="hill" />
		<tag k="place" v="locality" />
		<tag k="ssr:stedsnr" v="766622" />
	</node>
	<node id="-554572" lat="62.4440194441" lon="6.37555556189">
		<tag k="name" v="Stigen" />
		<tag k="natural" v="valley" />
		<tag k="place" v="locality" />
		<tag k="ssr:stedsnr" v="98988" />
	</node>
	<node id="-555083" lat="62.4534249985" lon="6.35210000437">
		<tag k="name" v="Brokkedalen" />
		<tag k="natural" v="valley" />
		<tag k="place" v="locality" />
		<tag k="ssr:stedsnr" v="766582" />
	</node>
	<node id="-555082" lat="62.5054166649" lon="6.2359972208">
		<tag k="name" v="Bunesbotn" />
		<tag k="natural" v="valley" />
		<tag k="place" v="locality" />
		<tag k="ssr:stedsnr" v="766570" />
	</node>
	<node id="-555081" lat="62.5008416638" lon="6.21860555133">
		<tag k="name" v="Skjervane" />
		<tag k="natural" v="hill" />
		<tag k="place" v="locality" />
		<tag k="ssr:stedsnr" v="766567" />
	</node>
	<node id="-554567" lat="62.4451722241" lon="6.42041110827">
		<tag k="name" v="Sætredalen" />
		<tag k="natural" v="valley" />
		<tag k="place" v="locality" />
		<tag k="ssr:stedsnr" v="98630" />
	</node>
	<node id="-554566" lat="62.4454305541" lon="6.37536944737">
		<tag k="name" v="Søre Nakken" />
		<tag k="natural" v="ridge" />
		<tag k="place" v="locality" />
		<tag k="ssr:stedsnr" v="98629" />
	</node>
	<node id="-554562" lat="62.4459194464" lon="6.38615277788">
		<tag k="name" v="Svarthammaren" />
		<tag k="natural" v="cliff" />
		<tag k="ssr:stedsnr" v="98625" />
	</node>
	<node id="-554561" lat="62.452372222" lon="6.41093889003">
		<tag k="name" v="Middagsskaret" />
		<tag k="natural" v="valley" />
		<tag k="place" v="locality" />
		<tag k="ssr:stedsnr" v="98623" />
	</node>
	<node id="-554560" lat="62.435933337" lon="6.50776667382">
		<tag k="name" v="Magerholmdalen" />
		<tag k="natural" v="valley" />
		<tag k="place" v="locality" />
		<tag k="ssr:stedsnr" v="98610" />
	</node>
	<node id="-554559" lat="62.437013889" lon="6.49973055862">
		<tag k="name" v="Skallehammaren" />
		<tag k="natural" v="cliff" />
		<tag k="ssr:stedsnr" v="98611" />
	</node>
	<node id="-554557" lat="62.4771722196" lon="6.38382500103">
		<tag k="name" v="Olsvikdalane" />
		<tag k="natural" v="valley" />
		<tag k="place" v="locality" />
		<tag k="ssr:stedsnr" v="98576" />
	</node>
	<node id="-555067" lat="62.4480138891" lon="6.41123889215">
		<tag k="alt_name" v="Blindheimfjellet" />
		<tag k="fixme" v="consider natural=peak for the most distinct mountains in the district" />
		<tag k="name" v="Blindheimsfjellet" />
		<tag k="natural" v="hill" />
		<tag k="place" v="locality" />
		<tag k="ssr:stedsnr" v="739056" />
	</node>
	<node id="-554554" lat="62.4410944443" lon="6.3895638961">
		<tag k="name" v="Ospadalen" />
		<tag k="natural" v="valley" />
		<tag k="place" v="locality" />
		<tag k="ssr:stedsnr" v="98563" />
	</node>
	<node id="-554552" lat="62.4988944444" lon="6.30044722463">
		<tag k="fixme" v="consider natural=peak for the most distinct mountains in the district" />
		<tag k="name" v="Storfarhaugen" />
		<tag k="natural" v="hill" />
		<tag k="place" v="locality" />
		<tag k="ssr:stedsnr" v="98557" />
	</node>
	<node id="-554551" lat="62.4722194402" lon="6.49208054708">
		<tag k="name" v="Vasstrandlia" />
		<tag k="natural" v="slope" />
		<tag k="place" v="locality" />
		<tag k="ssr:stedsnr" v="98553" />
	</node>
	<node id="-555061" lat="62.4663694443" lon="6.10377499683">
		<tag k="fixme" v="consider natural=peak for the most distinct mountains in the district" />
		<tag k="name" v="Pilen" />
		<tag k="natural" v="hill" />
		<tag k="place" v="locality" />
		<tag k="ssr:stedsnr" v="738953" />
	</node>
	<node id="-555012" lat="62.4623277743" lon="6.49502221777">
		<tag k="name" v="Langevassberget" />
		<tag k="natural" v="slope" />
		<tag k="place" v="locality" />
		<tag k="ssr:stedsnr" v="705597" />
	</node>
	<node id="-555272" lat="62.4621859813" lon="6.32081697348">
		<tag k="name" v="Geilehaugen" />
		<tag k="natural" v="hill" />
		<tag k="place" v="locality" />
		<tag k="ssr:stedsnr" v="971338" />
	</node>
	<node id="-555053" lat="62.4365388848" lon="6.48150000212">
		<tag k="fixme" v="consider natural=peak for the most distinct mountains in the district" />
		<tag k="name" v="Lillenakken" />
		<tag k="natural" v="hill" />
		<tag k="place" v="locality" />
		<tag k="ssr:stedsnr" v="726613" />
	</node>
	<node id="-554540" lat="62.5076444436" lon="6.24310277772">
		<tag k="name" v="Hestehoven" />
		<tag k="natural" v="hill" />
		<tag k="place" v="locality" />
		<tag k="ssr:stedsnr" v="72127" />
	</node>
	<node id="-555185" lat="62.50052778" lon="6.33583055945">
		<tag k="name" v="Vikanakken" />
		<tag k="natural" v="hill" />
		<tag k="place" v="locality" />
		<tag k="ssr:stedsnr" v="870926" />
	</node>
	<node id="-555040" lat="62.5150777762" lon="6.29381944655">
		<tag k="name" v="Leitet" />
		<tag k="natural" v="valley" />
		<tag k="place" v="locality" />
		<tag k="ssr:stedsnr" v="718356" />
	</node>
	<node id="-554520" lat="62.4632666624" lon="6.44416944308">
		<tag k="fixme" v="consider natural=peak for the most distinct mountains in the district" />
		<tag k="name" v="Geitnosa" />
		<tag k="natural" v="hill" />
		<tag k="place" v="locality" />
		<tag k="ssr:stedsnr" v="38972" />
	</node>
	<node id="-554519" lat="62.4479944432" lon="6.37504166136">
		<tag k="name" v="Botnen" />
		<tag k="natural" v="valley" />
		<tag k="place" v="locality" />
		<tag k="ssr:stedsnr" v="38969" />
	</node>
	<node id="-554518" lat="62.4596527814" lon="6.40638888743">
		<tag k="name" v="Myrdalen" />
		<tag k="natural" v="valley" />
		<tag k="place" v="locality" />
		<tag k="ssr:stedsnr" v="38968" />
	</node>
	<node id="-554517" lat="62.4904138908" lon="6.42756943467">
		<tag k="name" v="Lia" />
		<tag k="natural" v="slope" />
		<tag k="place" v="locality" />
		<tag k="ssr:stedsnr" v="38966" />
	</node>
	<node id="-554516" lat="62.447955558" lon="6.3669694476">
		<tag k="name" v="Nordre Nakken" />
		<tag k="natural" v="ridge" />
		<tag k="place" v="locality" />
		<tag k="ssr:stedsnr" v="38701" />
	</node>
	<node id="-554514" lat="62.4724500018" lon="6.14143889391">
		<tag k="name" v="Storhaugen" />
		<tag k="natural" v="hill" />
		<tag k="place" v="locality" />
		<tag k="ssr:stedsnr" v="38691" />
	</node>
	<node id="-555025" lat="62.4430027779" lon="6.41678332817">
		<tag k="name" v="Bjønnalågja" />
		<tag k="place" v="locality" />
		<tag k="ssr:stedsnr" v="705703" />
	</node>
	<node id="-555024" lat="62.442100003" lon="6.41224999749">
		<tag k="fixme" v="consider natural=peak for the most distinct mountains in the district" />
		<tag k="name" v="Raudefjellet" />
		<tag k="natural" v="hill" />
		<tag k="place" v="locality" />
		<tag k="ssr:stedsnr" v="705702" />
	</node>
	<node id="-554840" lat="62.4599722251" lon="6.41213611141">
		<tag k="fixme" v="consider natural=peak for the most distinct mountains in the district" />
		<tag k="name" v="Kambane" />
		<tag k="natural" v="hill" />
		<tag k="place" v="locality" />
		<tag k="ssr:stedsnr" v="523948" />
	</node>
	<node id="-554506" lat="62.4800472236" lon="6.39953611142">
		<tag k="fixme" v="consider natural=peak for the most distinct mountains in the district" />
		<tag k="name" v="Bingsdalsheia" />
		<tag k="natural" v="hill" />
		<tag k="old_name" v="Bringsdalsheia" />
		<tag k="place" v="locality" />
		<tag k="ssr:stedsnr" v="38582" />
	</node>
	<node id="-554505" lat="62.4760333349" lon="6.39507222712">
		<tag k="fixme" v="consider natural=peak for the most distinct mountains in the district" />
		<tag k="name" v="Holsfjellet" />
		<tag k="natural" v="hill" />
		<tag k="place" v="locality" />
		<tag k="ssr:stedsnr" v="38578" />
	</node>
	<node id="-554501" lat="62.4358611073" lon="6.50966667555">
		<tag k="name" v="Skurstønakken" />
		<tag k="natural" v="ridge" />
		<tag k="place" v="locality" />
		<tag k="ssr:stedsnr" v="38546" />
	</node>
	<node id="-554500" lat="62.4927972247" lon="6.25389167097">
		<tag k="name" v="Vardehaugen" />
		<tag k="natural" v="hill" />
		<tag k="place" v="locality" />
		<tag k="ssr:stedsnr" v="38518" />
	</node>
	<node id="-554497" lat="62.4695000038" lon="6.10646666958">
		<tag k="name" v="Drevikskaret" />
		<tag k="natural" v="valley" />
		<tag k="place" v="locality" />
		<tag k="ssr:stedsnr" v="36573" />
	</node>
</osm>
