<?xml version="1.0" encoding="UTF-8"?>
<osm generator="osmapis" version="0.6">
	<node id="-554911" lat="62.4486249993" lon="6.38848888874">
		<tag k="name" v="Holtane" />
		<tag k="place" v="locality" />
		<tag k="ssr:stedsnr" v="583998" />
	</node>
	<node id="-554555" lat="62.4957083297" lon="6.19058055413">
		<tag k="name" v="Fjellsmyra" />
		<tag k="natural" v="wetland" />
		<tag k="ssr:stedsnr" v="98569" />
	</node>
	<node id="-554746" lat="62.511716668" lon="6.274849992">
		<tag k="name" v="Nakkemyra" />
		<tag k="natural" v="wetland" />
		<tag k="ssr:stedsnr" v="462519" />
	</node>
	<node id="-554329" lat="62.507763886" lon="6.39807222646">
		<tag k="name" v="Årsetmyrane" />
		<tag k="natural" v="wetland" />
		<tag k="ssr:stedsnr" v="375116" />
	</node>
	<node id="-554679" lat="62.439291669" lon="6.3476666675">
		<tag k="name" v="Rabbeura" />
		<tag k="natural" v="scree" />
		<tag k="ssr:stedsnr" v="220935" />
	</node>
	<node id="-554390" lat="62.4571555553" lon="6.37339999354">
		<tag k="name" v="Bulegene" />
		<tag k="place" v="locality" />
		<tag k="ssr:stedsnr" v="887630" />
	</node>
	<node id="-554611" lat="62.4946638921" lon="6.29504444197">
		<tag k="name" v="Myklebustura" />
		<tag k="natural" v="scree" />
		<tag k="ssr:stedsnr" v="159575" />
	</node>
	<node id="-555251" lat="62.5096055515" lon="6.26379166714">
		<tag k="name" v="Legene" />
		<tag k="natural" v="wetland" />
		<tag k="ssr:stedsnr" v="948961" />
	</node>
	<node id="-555016" lat="62.4464666641" lon="6.36533611502">
		<tag k="name" v="Nesgjerdet" />
		<tag k="place" v="locality" />
		<tag k="ssr:stedsnr" v="705625" />
	</node>
	<node id="-554766" lat="62.4369722186" lon="6.44021110873">
		<tag k="name" v="Gullmyra" />
		<tag k="natural" v="wetland" />
		<tag k="ssr:stedsnr" v="462620" />
	</node>
	<node id="-554604" lat="62.5106555576" lon="6.28796111834">
		<tag k="name" v="Mørkeskogen" />
		<tag k="place" v="locality" />
		<tag k="ssr:stedsnr" v="159617" />
	</node>
	<node id="-554635" lat="62.4704500001" lon="6.27587500851">
		<tag k="name" v="Leirstadurene" />
		<tag k="natural" v="scree" />
		<tag k="ssr:stedsnr" v="179161" />
	</node>
	<node id="-554568" lat="62.4641222245" lon="6.41185832502">
		<tag k="name" v="Storura" />
		<tag k="natural" v="scree" />
		<tag k="ssr:stedsnr" v="98937" />
	</node>
	<node id="-554283" lat="62.4835555518" lon="6.37690278306">
		<tag k="name" v="Hovdeland" />
		<tag k="natural" v="wetland" />
		<tag k="ssr:stedsnr" v="341603" />
	</node>
	<node id="-554822" lat="62.5021833309" lon="6.2453722176">
		<tag k="name" v="Nøringsmyra" />
		<tag k="natural" v="wetland" />
		<tag k="ssr:stedsnr" v="523581" />
	</node>
	<node id="-555153" lat="62.4870694412" lon="6.43167500018">
		<tag k="name" v="Høgemyra" />
		<tag k="natural" v="wetland" />
		<tag k="ssr:stedsnr" v="827988" />
	</node>
	<node id="-555190" lat="62.5173194413" lon="6.4335027748">
		<tag k="name" v="Ura" />
		<tag k="natural" v="scree" />
		<tag k="ssr:stedsnr" v="900347" />
	</node>
	<node id="-554594" lat="62.5090055548" lon="6.41612776851">
		<tag k="name" v="Stokkemyrane" />
		<tag k="natural" v="wetland" />
		<tag k="ssr:stedsnr" v="133139" />
	</node>
	<node id="-554859" lat="62.4193444455" lon="6.39769722929">
		<tag k="name" v="Røysene" />
		<tag k="natural" v="scree" />
		<tag k="ssr:stedsnr" v="541011" />
	</node>
</osm>
