<?xml version="1.0" encoding="UTF-8"?>
<osm generator="osmapis" version="0.6">
	<node id="-554623" lat="62.4764499999" lon="6.17933332639">
		<tag k="name" v="Rundskue" />
		<tag k="ssr:stedsnr" v="159969" />
		<tag k="tourism" v="viewpoint" />
	</node>
	<node id="-554558" lat="62.4662972198" lon="6.22378056089">
		<tag k="name" v="Borgundgavlen" />
		<tag k="place" v="locality" />
		<tag k="ssr:stedsnr" v="98602" />
	</node>
	<node id="-554243" lat="62.4922194419" lon="6.27171388745">
		<tag k="amenity" v="place_of_worship" />
		<tag k="denomination" v="lutheran" />
		<tag k="name" v="Ellingsøy kyrkje" />
		<tag k="religion" v="christian" />
		<tag k="ssr:stedsnr" v="284283" />
	</node>
	<node id="-554556" lat="62.4721083357" lon="6.1569194377">
		<tag k="name" v="Ålesund museum" />
		<tag k="ssr:stedsnr" v="98572" />
		<tag k="tourism" v="attraction" />
	</node>
	<node id="-555035" lat="62.4748638892" lon="6.2320916759">
		<tag k="alt_name" v="Krematoriet" />
		<tag k="amenity" v="place_of_worship" />
		<tag k="fixme" v="specify religion=*, denomination=*, building=* etc" />
		<tag k="name" v="Ålesund Krematorium" />
		<tag k="ssr:stedsnr" v="706926" />
	</node>
	<node id="-555130" lat="62.4680638928" lon="6.23442222787">
		<tag k="name" v="Sunnmøre museum" />
		<tag k="ssr:stedsnr" v="827589" />
		<tag k="tourism" v="museum" />
	</node>
	<node id="-554617" lat="62.4721666711" lon="6.22941944145">
		<tag k="cemetery" v="grave" />
		<tag k="name" v="Nørve kirkegård" />
		<tag k="place" v="locality" />
		<tag k="ssr:stedsnr" v="159935" />
	</node>
	<node id="-554678" lat="62.4665861124" lon="6.23766388573">
		<tag k="name" v="Kaupangen" />
		<tag k="ssr:stedsnr" v="220748" />
		<tag k="tourism" v="attraction" />
	</node>
	<node id="-554805" lat="62.4714305593" lon="6.18863611363">
		<tag k="alt_name" v="Volsdalens kirke;Volsdalen" />
		<tag k="amenity" v="place_of_worship" />
		<tag k="denomination" v="lutheran" />
		<tag k="name" v="Volsdalen kirke" />
		<tag k="religion" v="christian" />
		<tag k="ssr:stedsnr" v="505348" />
	</node>
	<node id="-554225" lat="62.5022999974" lon="6.22306944673">
		<tag k="name" v="Draget" />
		<tag k="place" v="locality" />
		<tag k="ssr:stedsnr" v="280968" />
	</node>
	<node id="-554701" lat="62.466326845" lon="6.23389555559">
		<tag k="alt_name" v="Borgund kirke;Borgund" />
		<tag k="amenity" v="place_of_worship" />
		<tag k="denomination" v="lutheran" />
		<tag k="name" v="Borgund kyrkje" />
		<tag k="religion" v="christian" />
		<tag k="ssr:stedsnr" v="253018" />
	</node>
	<node id="-554242" lat="62.4677254786" lon="6.34783142482">
		<tag k="amenity" v="place_of_worship" />
		<tag k="denomination" v="lutheran" />
		<tag k="name" v="Spjelkavik kyrkje" />
		<tag k="religion" v="christian" />
		<tag k="ssr:stedsnr" v="284275" />
	</node>
	<node id="-554915" lat="62.4658194423" lon="6.11058334222">
		<tag k="amenity" v="place_of_worship" />
		<tag k="denomination" v="lutheran" />
		<tag k="name" v="Skarbøvik kirke" />
		<tag k="religion" v="christian" />
		<tag k="ssr:stedsnr" v="586225" />
	</node>
	<node id="-554754" lat="62.4711777749" lon="6.14571389873">
		<tag k="amenity" v="place_of_worship" />
		<tag k="denomination" v="lutheran" />
		<tag k="name" v="Ålesund kirke" />
		<tag k="religion" v="christian" />
		<tag k="ssr:stedsnr" v="461650" />
	</node>
</osm>
