<?xml version="1.0" encoding="UTF-8"?>
<osm generator="osmapis" version="0.6">
	<node id="-555008" lat="62.4475361131" lon="6.28836111469">
		<tag k="name" v="Nørdre Tjeldneset" />
		<tag k="natural" v="cape" />
		<tag k="ssr:stedsnr" v="704596" />
	</node>
	<node id="-555007" lat="62.4702722225" lon="6.36473054637">
		<tag k="bridge" v="yes" />
		<tag k="layer" v="1" />
		<tag k="name" v="Breivikbrua" />
		<tag k="ssr:stedsnr" v="703459" />
	</node>
	<node id="-555006" lat="62.4639527735" lon="6.3029388806">
		<tag k="layer" v="-1" />
		<tag k="name" v="Åsestrandundergangen" />
		<tag k="ssr:stedsnr" v="703046" />
		<tag k="tunnel" v="yes" />
	</node>
	<node id="-555004" lat="62.4615611139" lon="6.30433333442">
		<tag k="name" v="Åsestranda" />
		<tag k="natural" v="beach" />
		<tag k="place" v="locality" />
		<tag k="ssr:stedsnr" v="695589" />
	</node>
	<node id="-555003" lat="62.4716694438" lon="6.12587221719">
		<tag k="name" v="Steinvågsundet" />
		<tag k="natural" v="strait" />
		<tag k="ssr:stedsnr" v="687343" />
	</node>
	<node id="-555002" lat="62.452455558" lon="6.43685833303">
		<tag k="fixme" v="consider natural=peak for the most distinct mountains in the district" />
		<tag k="name" v="Emblemsfjellet" />
		<tag k="natural" v="hill" />
		<tag k="place" v="locality" />
		<tag k="ssr:stedsnr" v="687333" />
	</node>
	<node id="-555001" lat="62.4971444407" lon="6.26269721329">
		<tag k="fixme" v="consider natural=peak for the most distinct mountains in the district" />
		<tag k="name" v="Skulen" />
		<tag k="natural" v="hill" />
		<tag k="place" v="locality" />
		<tag k="ssr:stedsnr" v="687316" />
	</node>
	<node id="-555000" lat="62.4918527803" lon="6.19203332917">
		<tag k="name" v="Hovset" />
		<tag k="place" v="farm" />
		<tag k="ssr:stedsnr" v="678978" />
	</node>
	<node id="-554999" lat="62.4580556305" lon="6.1187795322">
		<tag k="fixme" v="consider place=hamlet" />
		<tag k="name" v="Hessa" />
		<tag k="place" v="farm" />
		<tag k="ssr:stedsnr" v="678931" />
	</node>
	<node id="-554998" lat="62.4950753606" lon="6.30621537047">
		<tag k="fixme" v="consider place=hamlet" />
		<tag k="name" v="Sperre" />
		<tag k="place" v="farm" />
		<tag k="ssr:stedsnr" v="678207" />
	</node>
	<node id="-554997" lat="62.4955496093" lon="6.32331020468">
		<tag k="name" v="Vik" />
		<tag k="place" v="farm" />
		<tag k="ssr:stedsnr" v="678201" />
	</node>
	<node id="-554996" lat="62.4384238196" lon="6.40404743491">
		<tag k="fixme" v="consider place=hamlet" />
		<tag k="name" v="Øygarden" />
		<tag k="place" v="farm" />
		<tag k="ssr:stedsnr" v="678046" />
	</node>
	<node id="-554995" lat="62.4702749983" lon="6.36801051019">
		<tag k="alt_name" v="Holen;Hol" />
		<tag k="name" v="Ytterholen" />
		<tag k="place" v="farm" />
		<tag k="ssr:stedsnr" v="678018" />
	</node>
	<node id="-554994" lat="62.4608354397" lon="6.26770321111">
		<tag k="alt_name" v="Ytre Hatlen" />
		<tag k="name" v="Ytre Hatlane" />
		<tag k="place" v="hamlet" />
		<tag k="ssr:stedsnr" v="678009" />
	</node>
	<node id="-554993" lat="62.4602750028" lon="6.36199723027">
		<tag k="name" v="Spjelkavik" />
		<tag k="place" v="village" />
		<tag k="ssr:stedsnr" v="678008" />
	</node>
	<node id="-554992" lat="62.4580916139" lon="6.36839807538">
		<tag k="fixme" v="consider place=hamlet" />
		<tag k="name" v="Gjerdet" />
		<tag k="place" v="farm" />
		<tag k="ssr:stedsnr" v="678007" />
	</node>
	<node id="-554991" lat="62.4482444482" lon="6.28590555767">
		<tag k="name" v="Opplandsflua" />
		<tag k="natural" v="shoal" />
		<tag k="place" v="locality" />
		<tag k="ssr:stedsnr" v="665807" />
	</node>
	<node id="-554990" lat="62.4724749967" lon="6.23542222374">
		<tag k="name" v="Store-Nørve" />
		<tag k="place" v="isolated_dwelling" />
		<tag k="ssr:stedsnr" v="665170" />
	</node>
	<node id="-554989" lat="62.4811305536" lon="6.37381945029">
		<tag k="name" v="Jørgengården" />
		<tag k="place" v="farm" />
		<tag k="ssr:stedsnr" v="663495" />
	</node>
	<node id="-554988" lat="62.4909472218" lon="6.18943888323">
		<tag k="fixme" v="consider seamark:type=rock or natural=shoal" />
		<tag k="name" v="Tangskjeret" />
		<tag k="place" v="islet" />
		<tag k="ssr:stedsnr" v="663386" />
	</node>
	<node id="-554987" lat="62.4904611128" lon="6.27404999437">
		<tag k="name" v="Kvalsteinneset" />
		<tag k="natural" v="cape" />
		<tag k="ssr:stedsnr" v="663367" />
	</node>
	<node id="-554986" lat="62.4705972242" lon="6.15149444622">
		<tag k="name" v="Brusundet" />
		<tag k="natural" v="strait" />
		<tag k="ssr:stedsnr" v="663197" />
	</node>
	<node id="-554985" lat="62.4717805549" lon="6.11466388775">
		<tag k="name" v="Barnsrævene" />
		<tag k="natural" v="shoal" />
		<tag k="place" v="locality" />
		<tag k="ssr:stedsnr" v="663007" />
	</node>
	<node id="-554983" lat="62.4839055555" lon="6.31722222199">
		<tag k="name" v="Kalvøysundet" />
		<tag k="natural" v="strait" />
		<tag k="ssr:stedsnr" v="658976" />
	</node>
	<node id="-554982" lat="62.4603583311" lon="6.16793054733">
		<tag k="name" v="Slinningsholmen" />
		<tag k="place" v="islet" />
		<tag k="ssr:stedsnr" v="658781" />
	</node>
	<node id="-554980" lat="62.4864555551" lon="6.39874444264">
		<tag k="alt_name" v="Allvika" />
		<tag k="name" v="Alvika" />
		<tag k="natural" v="bay" />
		<tag k="ssr:stedsnr" v="658453" />
	</node>
	<node id="-554979" lat="62.51038333" lon="6.4524972227">
		<tag k="name" v="Roteflua" />
		<tag k="natural" v="shoal" />
		<tag k="place" v="locality" />
		<tag k="ssr:stedsnr" v="658437" />
	</node>
	<node id="-554978" lat="62.5099666642" lon="6.35655555821">
		<tag k="name" v="Ramsvikneset" />
		<tag k="natural" v="cape" />
		<tag k="ssr:stedsnr" v="657368" />
	</node>
	<node id="-554975" lat="62.4622527805" lon="6.08588055972">
		<tag k="alt_name" v="Snegleværet" />
		<tag k="name" v="Snegleværholmen" />
		<tag k="place" v="islet" />
		<tag k="ssr:stedsnr" v="645279" />
	</node>
	<node id="-554974" lat="62.4391555557" lon="6.41137500821">
		<tag k="name" v="Nordalen" />
		<tag k="natural" v="valley" />
		<tag k="place" v="locality" />
		<tag k="ssr:stedsnr" v="644995" />
	</node>
	<node id="-554973" lat="62.4586138897" lon="6.25933888103">
		<tag k="name" v="Kyrkjeskaret" />
		<tag k="natural" v="valley" />
		<tag k="place" v="locality" />
		<tag k="ssr:stedsnr" v="644985" />
	</node>
	<node id="-554972" lat="62.4402305556" lon="6.35433610876">
		<tag k="name" v="Gurivika" />
		<tag k="natural" v="bay" />
		<tag k="ssr:stedsnr" v="644983" />
	</node>
	<node id="-554971" lat="62.4692364419" lon="6.14058970227">
		<tag k="alt_name" v="Skutevika" />
		<tag k="name" v="Skutvika" />
		<tag k="natural" v="bay" />
		<tag k="ssr:stedsnr" v="644980" />
	</node>
	<node id="-554970" lat="62.4705305556" lon="6.24275278681">
		<tag k="name" v="Verpet" />
		<tag k="natural" v="bay" />
		<tag k="ssr:stedsnr" v="644979" />
	</node>
	<node id="-554969" lat="62.4978722247" lon="6.23307500779">
		<tag k="name" v="Halsen" />
		<tag k="natural" v="valley" />
		<tag k="place" v="locality" />
		<tag k="ssr:stedsnr" v="644967" />
	</node>
	<node id="-554968" lat="62.4336027794" lon="6.4995222276">
		<tag k="name" v="Paraten" />
		<tag k="place" v="farm" />
		<tag k="ssr:stedsnr" v="644956" />
	</node>
	<node id="-554967" lat="62.4368083314" lon="6.30775833138">
		<tag k="name" v="Grueneset" />
		<tag k="natural" v="cape" />
		<tag k="ssr:stedsnr" v="644954" />
	</node>
	<node id="-554966" lat="62.5130499984" lon="6.27092222844">
		<tag k="name" v="Vågane" />
		<tag k="natural" v="bay" />
		<tag k="ssr:stedsnr" v="644953" />
	</node>
	<node id="-554965" lat="62.5122666682" lon="6.25403334226">
		<tag k="name" v="Porseneset" />
		<tag k="natural" v="cape" />
		<tag k="ssr:stedsnr" v="644706" />
	</node>
	<node id="-554964" lat="62.4722750008" lon="6.13053611607">
		<tag k="name" v="Sildegarnsholmen" />
		<tag k="place" v="islet" />
		<tag k="ssr:stedsnr" v="644703" />
	</node>
	<node id="-554963" lat="62.4442861102" lon="6.32048054717">
		<tag k="name" v="Seljeholmen" />
		<tag k="place" v="islet" />
		<tag k="ssr:stedsnr" v="644658" />
	</node>
	<node id="-554962" lat="62.4704611086" lon="6.22036389842">
		<tag k="name" v="Magdevågneset" />
		<tag k="natural" v="cape" />
		<tag k="ssr:stedsnr" v="644639" />
	</node>
	<node id="-554961" lat="62.4708027779" lon="6.21979166207">
		<tag k="name" v="Sørnesvågen" />
		<tag k="natural" v="bay" />
		<tag k="ssr:stedsnr" v="644640" />
	</node>
	<node id="-554960" lat="62.4656166689" lon="6.21391111736">
		<tag k="alt_name" v="Langholmen" />
		<tag k="name" v="Svinholmen" />
		<tag k="place" v="islet" />
		<tag k="ssr:stedsnr" v="644638" />
	</node>
	<node id="-554959" lat="62.4808722204" lon="6.21919165732">
		<tag k="fixme" v="consider seamark:type=rock or natural=shoal" />
		<tag k="name" v="Gangstøskjeret" />
		<tag k="place" v="islet" />
		<tag k="ssr:stedsnr" v="644631" />
	</node>
	<node id="-554958" lat="62.4781472226" lon="6.22422778551">
		<tag k="name" v="Gangstøvika" />
		<tag k="natural" v="bay" />
		<tag k="ssr:stedsnr" v="644628" />
	</node>
	<node id="-554957" lat="62.441144449" lon="6.35488889726">
		<tag k="name" v="Holmeneset" />
		<tag k="natural" v="cape" />
		<tag k="ssr:stedsnr" v="644626" />
	</node>
	<node id="-554956" lat="62.4614333355" lon="6.3740472186">
		<tag k="name" v="Langhaugen" />
		<tag k="natural" v="hill" />
		<tag k="place" v="locality" />
		<tag k="ssr:stedsnr" v="644623" />
	</node>
	<node id="-554955" lat="62.4770944447" lon="6.37632500807">
		<tag k="name" v="Olsvikbekken" />
		<tag k="ssr:stedsnr" v="644622" />
		<tag k="waterway" v="stream" />
	</node>
	<node id="-554954" lat="62.4726972215" lon="6.37160000633">
		<tag k="highway" v="path" />
		<tag k="name" v="Holsstigen" />
		<tag k="ssr:stedsnr" v="644621" />
	</node>
	<node id="-554953" lat="62.4713416678" lon="6.10642221545">
		<tag k="name" v="Kathammaren" />
		<tag k="natural" v="cliff" />
		<tag k="ssr:stedsnr" v="644608" />
	</node>
	<node id="-554952" lat="62.4721055586" lon="6.23541943517">
		<tag k="alt_name" v="Høgskolen i Ålesund" />
		<tag k="amenity" v="university" />
		<tag k="name" v="NTNU i Ålesund" />
		<tag k="old_name" v="Møre og Romsdal tekniske skole" />
		<tag k="ssr:stedsnr" v="644605" />
	</node>
	<node id="-554951" lat="62.5149416681" lon="6.44256388161">
		<tag k="name" v="Svahaugen" />
		<tag k="natural" v="hill" />
		<tag k="place" v="locality" />
		<tag k="ssr:stedsnr" v="644593" />
	</node>
	<node id="-554950" lat="62.4524472181" lon="6.54115000711">
		<tag k="name" v="Moldsvora" />
		<tag k="natural" v="valley" />
		<tag k="place" v="locality" />
		<tag k="ssr:stedsnr" v="644583" />
	</node>
	<node id="-554949" lat="62.5118055544" lon="6.42003334125">
		<tag k="name" v="Storhaugen" />
		<tag k="natural" v="hill" />
		<tag k="place" v="locality" />
		<tag k="ssr:stedsnr" v="644573" />
	</node>
	<node id="-554948" lat="62.5128500023" lon="6.24817500351">
		<tag k="name" v="Sjøbuvika" />
		<tag k="natural" v="bay" />
		<tag k="ssr:stedsnr" v="644558" />
	</node>
	<node id="-554947" lat="62.4334499985" lon="6.36572223109">
		<tag k="name" v="Skitnedalen" />
		<tag k="natural" v="valley" />
		<tag k="place" v="locality" />
		<tag k="ssr:stedsnr" v="643620" />
	</node>
	<node id="-554946" lat="62.471813889" lon="6.38521943597">
		<tag k="layer" v="-1" />
		<tag k="name" v="Hatlebøundergangen" />
		<tag k="ssr:stedsnr" v="642448" />
		<tag k="tunnel" v="yes" />
	</node>
	<node id="-554945" lat="62.4420972181" lon="6.37313612017">
		<tag k="bridge" v="yes" />
		<tag k="layer" v="1" />
		<tag k="name" v="Knutgardsbrua" />
		<tag k="ssr:stedsnr" v="642019" />
	</node>
	<node id="-554944" lat="62.4681888887" lon="6.10704999586">
		<tag k="name" v="Olsfjellet" />
		<tag k="natural" v="hill" />
		<tag k="place" v="locality" />
		<tag k="ssr:stedsnr" v="634597" />
	</node>
	<node id="-554943" lat="62.5117222218" lon="6.29816389281">
		<tag k="fixme" v="consider natural=peak for the most distinct mountains in the district" />
		<tag k="name" v="Haukåsen" />
		<tag k="natural" v="hill" />
		<tag k="place" v="locality" />
		<tag k="ssr:stedsnr" v="618151" />
	</node>
	<node id="-554942" lat="62.5107416635" lon="6.25159999316">
		<tag k="name" v="Nordvika" />
		<tag k="place" v="farm" />
		<tag k="ssr:stedsnr" v="618150" />
	</node>
	<node id="-554941" lat="62.5030083319" lon="6.2808888809">
		<tag k="fixme" v="consider natural=peak for the most distinct mountains in the district" />
		<tag k="name" v="Myklebosthornet" />
		<tag k="natural" v="hill" />
		<tag k="place" v="locality" />
		<tag k="ssr:stedsnr" v="618119" />
	</node>
	<node id="-554940" lat="62.4952194484" lon="6.20674722307">
		<tag k="alt_name" v="Rimavika" />
		<tag k="name" v="Remavika" />
		<tag k="natural" v="bay" />
		<tag k="ssr:stedsnr" v="617988" />
	</node>
	<node id="-554939" lat="62.4471583334" lon="6.1325111177">
		<tag k="bay" v="fjord" />
		<tag k="name" v="Hessafjorden" />
		<tag k="natural" v="bay" />
		<tag k="ssr:stedsnr" v="617955" />
	</node>
	<node id="-554938" lat="62.459116665" lon="6.11829167022">
		<tag k="name" v="Hessa" />
		<tag k="place" v="island" />
		<tag k="ssr:stedsnr" v="617941" />
	</node>
	<node id="-554937" lat="62.475478725" lon="6.40811124992">
		<tag k="alt_name" v="Reiten" />
		<tag k="fixme" v="consider place=hamlet" />
		<tag k="name" v="Reitane" />
		<tag k="place" v="farm" />
		<tag k="ssr:stedsnr" v="617253" />
	</node>
	<node id="-554936" lat="62.4815972236" lon="6.41044444993">
		<tag k="alt_name" v="Middagsnut;Middagstuva" />
		<tag k="fixme" v="consider natural=peak for the most distinct mountains in the district" />
		<tag k="name" v="Middagstua" />
		<tag k="natural" v="hill" />
		<tag k="place" v="locality" />
		<tag k="ssr:stedsnr" v="617251" />
	</node>
	<node id="-554935" lat="62.4462250024" lon="6.5303527787">
		<tag k="name" v="Magerholmdalen" />
		<tag k="natural" v="valley" />
		<tag k="place" v="locality" />
		<tag k="ssr:stedsnr" v="617102" />
	</node>
	<node id="-554934" lat="62.4373535208" lon="6.46735042951">
		<tag k="fixme" v="consider place=hamlet" />
		<tag k="name" v="Østrem" />
		<tag k="place" v="farm" />
		<tag k="ssr:stedsnr" v="617101" />
	</node>
	<node id="-554933" lat="62.4343670436" lon="6.4720041116">
		<tag k="fixme" v="consider place=hamlet" />
		<tag k="name" v="Aksla" />
		<tag k="place" v="farm" />
		<tag k="ssr:stedsnr" v="617098" />
	</node>
	<node id="-554932" lat="62.4325815553" lon="6.50254070801">
		<tag k="name" v="Magerholm" />
		<tag k="place" v="hamlet" />
		<tag k="ssr:stedsnr" v="617084" />
	</node>
	<node id="-554931" lat="62.4319638923" lon="6.35148610981">
		<tag k="name" v="Vegsundet" />
		<tag k="natural" v="strait" />
		<tag k="ssr:stedsnr" v="617049" />
	</node>
	<node id="-554930" lat="62.4730479706" lon="6.40144977903">
		<tag k="fixme" v="consider place=hamlet" />
		<tag k="name" v="Rødset" />
		<tag k="place" v="farm" />
		<tag k="ssr:stedsnr" v="617018" />
	</node>
	<node id="-554929" lat="62.4553722198" lon="6.29305556386">
		<tag k="bay" v="fjord" />
		<tag k="name" v="Åsefjorden" />
		<tag k="natural" v="bay" />
		<tag k="ssr:stedsnr" v="617012" />
	</node>
	<node id="-554928" lat="62.4554222212" lon="6.34719721859">
		<tag k="name" v="Nesholmen" />
		<tag k="place" v="islet" />
		<tag k="ssr:stedsnr" v="617010" />
	</node>
	<node id="-554926" lat="62.4376083345" lon="6.46960555001">
		<tag k="name" v="Østrem" />
		<tag k="place" v="farm" />
		<tag k="ssr:stedsnr" v="605303" />
	</node>
	<node id="-554925" lat="62.4964166633" lon="6.35775276864">
		<tag k="name" v="Hagevika" />
		<tag k="natural" v="bay" />
		<tag k="ssr:stedsnr" v="602406" />
	</node>
	<node id="-554924" lat="62.4737083319" lon="6.16099721529">
		<tag k="leisure" v="park" />
		<tag k="name" v="Byparken" />
		<tag k="ssr:stedsnr" v="602198" />
	</node>
	<node id="-554922" lat="62.4706611147" lon="6.15905555405">
		<tag k="name" v="Kippervika" />
		<tag k="natural" v="bay" />
		<tag k="ssr:stedsnr" v="602039" />
	</node>
	<node id="-554921" lat="62.4632138911" lon="6.16259722082">
		<tag k="name" v="Friarvika" />
		<tag k="natural" v="bay" />
		<tag k="ssr:stedsnr" v="602033" />
	</node>
	<node id="-554919" lat="62.4513666635" lon="6.31069721369">
		<tag k="name" v="Bjørnholmgrunnen" />
		<tag k="natural" v="shoal" />
		<tag k="place" v="locality" />
		<tag k="ssr:stedsnr" v="597711" />
	</node>
	<node id="-554918" lat="62.4510750028" lon="6.27261666261">
		<tag k="name" v="Skarsteingrunnen" />
		<tag k="natural" v="shoal" />
		<tag k="place" v="locality" />
		<tag k="ssr:stedsnr" v="597664" />
	</node>
	<node id="-554917" lat="62.5015749991" lon="6.43042778287">
		<tag k="fixme" v="consider seamark:type=rock or natural=shoal" />
		<tag k="name" v="Indre Kalvskjeret" />
		<tag k="place" v="islet" />
		<tag k="ssr:stedsnr" v="598453" />
	</node>
	<node id="-554916" lat="62.4629809226" lon="6.31253297572">
		<tag k="aeroway" v="airstrip" />
		<tag k="name" v="Ålesund helikopterplass, Ålesund sjukehus" />
		<tag k="ssr:stedsnr" v="587526" />
	</node>
	<node id="-554915" lat="62.4658194423" lon="6.11058334222">
		<tag k="amenity" v="place_of_worship" />
		<tag k="denomination" v="lutheran" />
		<tag k="name" v="Skarbøvik kirke" />
		<tag k="religion" v="christian" />
		<tag k="ssr:stedsnr" v="586225" />
	</node>
	<node id="-554914" lat="62.4960750014" lon="6.2503083401">
		<tag k="bridge" v="yes" />
		<tag k="layer" v="1" />
		<tag k="name" v="Grytebustbrua" />
		<tag k="ssr:stedsnr" v="586019" />
	</node>
	<node id="-554913" lat="62.4724722253" lon="6.12596389761">
		<tag k="name" v="Steinvågneset" />
		<tag k="natural" v="cape" />
		<tag k="ssr:stedsnr" v="584689" />
	</node>
	<node id="-554912" lat="62.4660972245" lon="6.06577221722">
		<tag k="name" v="Nordtaren" />
		<tag k="natural" v="shoal" />
		<tag k="place" v="locality" />
		<tag k="ssr:stedsnr" v="584307" />
	</node>
	<node id="-554911" lat="62.4486249993" lon="6.38848888874">
		<tag k="name" v="Holtane" />
		<tag k="place" v="locality" />
		<tag k="ssr:stedsnr" v="583998" />
	</node>
	<node id="-554910" lat="62.4309638861" lon="6.44586111177">
		<tag k="name" v="Storelva" />
		<tag k="ssr:stedsnr" v="583997" />
		<tag k="waterway" v="river" />
	</node>
	<node id="-554909" lat="62.4425055521" lon="6.38790000381">
		<tag k="name" v="Dyfta" />
		<tag k="natural" v="valley" />
		<tag k="place" v="locality" />
		<tag k="ssr:stedsnr" v="583984" />
	</node>
	<node id="-554908" lat="62.4959972218" lon="6.27446110701">
		<tag k="name" v="Stigen" />
		<tag k="natural" v="slope" />
		<tag k="place" v="locality" />
		<tag k="ssr:stedsnr" v="583979" />
	</node>
	<node id="-554907" lat="62.5033944401" lon="6.36791943745">
		<tag k="name" v="Bruarøra" />
		<tag k="natural" v="ridge" />
		<tag k="place" v="locality" />
		<tag k="ssr:stedsnr" v="583977" />
	</node>
	<node id="-554906" lat="62.4613972199" lon="6.16106389717">
		<tag k="building" v="industrial" />
		<tag k="name" v="Remane" />
		<tag k="ssr:stedsnr" v="583969" />
	</node>
	<node id="-554905" lat="62.4586555569" lon="6.45828611238">
		<tag k="name" v="Heiane" />
		<tag k="natural" v="hill" />
		<tag k="place" v="locality" />
		<tag k="ssr:stedsnr" v="583959" />
	</node>
	<node id="-554904" lat="62.469013887" lon="6.25441667349">
		<tag k="name" v="Gåseidvika" />
		<tag k="natural" v="bay" />
		<tag k="ssr:stedsnr" v="583949" />
	</node>
	<node id="-554903" lat="62.4486027812" lon="6.2744888831">
		<tag k="fixme" v="consider seamark:type=rock or natural=shoal" />
		<tag k="name" v="Skarsteinane" />
		<tag k="place" v="islet" />
		<tag k="ssr:stedsnr" v="583942" />
	</node>
	<node id="-554902" lat="62.4712611089" lon="6.15198889344">
		<tag k="name" v="Ålesundet" />
		<tag k="natural" v="strait" />
		<tag k="ssr:stedsnr" v="583655" />
	</node>
	<node id="-554901" lat="62.4729055536" lon="6.28742499933">
		<tag k="alt_name" v="Leirstadsundet" />
		<tag k="name" v="Lerstadsundet" />
		<tag k="natural" v="strait" />
		<tag k="ssr:stedsnr" v="583651" />
	</node>
	<node id="-554900" lat="62.4424166676" lon="6.41124166863">
		<tag k="name" v="Puskeelva" />
		<tag k="ssr:stedsnr" v="583611" />
		<tag k="waterway" v="stream" />
	</node>
	<node id="-554899" lat="62.4492611092" lon="6.46314166301">
		<tag k="historic" v="shieling" />
		<tag k="name" v="Auresætra" />
		<tag k="place" v="locality" />
		<tag k="ssr:stedsnr" v="583595" />
	</node>
	<node id="-554898" lat="62.4315166678" lon="6.42913889475">
		<tag k="name" v="Jaktevika" />
		<tag k="natural" v="bay" />
		<tag k="ssr:stedsnr" v="583594" />
	</node>
	<node id="-554897" lat="62.4343838593" lon="6.46037677559">
		<tag k="alt_name" v="Nedregota" />
		<tag k="fixme" v="consider place=hamlet" />
		<tag k="name" v="Nedregotten" />
		<tag k="place" v="farm" />
		<tag k="ssr:stedsnr" v="583590" />
	</node>
	<node id="-554896" lat="62.4642250024" lon="6.23150832956">
		<tag k="man_made" v="quay" />
		<tag k="name" v="Borgundkaia" />
		<tag k="place" v="locality" />
		<tag k="ssr:stedsnr" v="583585" />
	</node>
	<node id="-554895" lat="62.459794449" lon="6.28621667372">
		<tag k="name" v="Hatlevika" />
		<tag k="natural" v="bay" />
		<tag k="ssr:stedsnr" v="583578" />
	</node>
	<node id="-554894" lat="62.4771361118" lon="6.41462222569">
		<tag k="name" v="Reitegjerdet" />
		<tag k="place" v="farm" />
		<tag k="ssr:stedsnr" v="583572" />
	</node>
	<node id="-554893" lat="62.5026694475" lon="6.22880555158">
		<tag k="name" v="Eidshaugen" />
		<tag k="natural" v="hill" />
		<tag k="place" v="locality" />
		<tag k="ssr:stedsnr" v="583569" />
	</node>
	<node id="-554892" lat="62.4988277808" lon="6.20525834247">
		<tag k="name" v="Storhaugen" />
		<tag k="natural" v="hill" />
		<tag k="place" v="locality" />
		<tag k="ssr:stedsnr" v="583564" />
	</node>
	<node id="-554891" lat="62.4807444461" lon="6.39626943772">
		<tag k="name" v="Bingsdalen" />
		<tag k="natural" v="valley" />
		<tag k="old_name" v="Bringsdalen" />
		<tag k="place" v="locality" />
		<tag k="ssr:stedsnr" v="583550" />
	</node>
	<node id="-554890" lat="62.4669527753" lon="6.18787222894">
		<tag k="name" v="Lampeholmen" />
		<tag k="place" v="islet" />
		<tag k="ssr:stedsnr" v="583547" />
	</node>
	<node id="-554889" lat="62.5115805561" lon="6.2636444453">
		<tag k="name" v="Storvikneset" />
		<tag k="natural" v="cape" />
		<tag k="ssr:stedsnr" v="583523" />
	</node>
	<node id="-554888" lat="62.4579361095" lon="6.15965833595">
		<tag k="name" v="Røringneset" />
		<tag k="natural" v="cape" />
		<tag k="ssr:stedsnr" v="582700" />
	</node>
	<node id="-554887" lat="62.4548583331" lon="6.37175278383">
		<tag k="fixme" v="consider natural=peak for the most distinct mountains in the district" />
		<tag k="name" v="Spjelkavikfjellet" />
		<tag k="natural" v="hill" />
		<tag k="place" v="locality" />
		<tag k="ssr:stedsnr" v="582643" />
	</node>
	<node id="-554886" lat="62.4710611073" lon="6.15964443559">
		<tag k="bridge" v="yes" />
		<tag k="layer" v="1" />
		<tag k="name" v="Sjøgatebrua" />
		<tag k="ssr:stedsnr" v="581028" />
	</node>
	<node id="-554885" lat="62.4699499986" lon="6.24233610347">
		<tag k="bridge" v="yes" />
		<tag k="layer" v="1" />
		<tag k="name" v="Skuggebrua" />
		<tag k="ssr:stedsnr" v="581022" />
	</node>
	<node id="-554884" lat="62.4319361114" lon="6.50254444325">
		<tag k="amenity" v="ferry_terminal" />
		<tag k="name" v="Magerholm ferjekai" />
		<tag k="ssr:stedsnr" v="580253" />
	</node>
	<node id="-554883" lat="62.4574333334" lon="6.35764166731">
		<tag k="bridge" v="yes" />
		<tag k="layer" v="1" />
		<tag k="name" v="Vikabrua" />
		<tag k="ssr:stedsnr" v="573303" />
	</node>
	<node id="-554882" lat="62.5123755509" lon="6.2450826557">
		<tag k="name" v="Nes" />
		<tag k="place" v="farm" />
		<tag k="ssr:stedsnr" v="571036" />
	</node>
	<node id="-554881" lat="62.4611444463" lon="6.28516110911">
		<tag k="alt_name" v="Hatlane, indre" />
		<tag k="name" v="Indre Hatlane" />
		<tag k="place" v="hamlet" />
		<tag k="ssr:stedsnr" v="566334" />
	</node>
	<node id="-554879" lat="62.5127555594" lon="6.23897777823">
		<tag k="name" v="Sandvika" />
		<tag k="natural" v="bay" />
		<tag k="ssr:stedsnr" v="557242" />
	</node>
	<node id="-554878" lat="62.5142750033" lon="6.41365000296">
		<tag k="name" v="Kobbholmen" />
		<tag k="place" v="islet" />
		<tag k="ssr:stedsnr" v="557176" />
	</node>
	<node id="-554877" lat="62.5097638868" lon="6.24216666586">
		<tag k="fixme" v="consider natural=peak for the most distinct mountains in the district" />
		<tag k="name" v="Husefjellet" />
		<tag k="natural" v="hill" />
		<tag k="place" v="locality" />
		<tag k="ssr:stedsnr" v="557168" />
	</node>
	<node id="-554876" lat="62.5120180278" lon="6.2445514903">
		<tag k="fixme" v="consider place=hamlet" />
		<tag k="name" v="Nes" />
		<tag k="place" v="farm" />
		<tag k="ssr:stedsnr" v="557166" />
	</node>
	<node id="-554875" lat="62.5067638851" lon="6.33138611434">
		<tag k="name" v="Volstadvika" />
		<tag k="natural" v="bay" />
		<tag k="ssr:stedsnr" v="557126" />
	</node>
	<node id="-554874" lat="62.5057305562" lon="6.27873332377">
		<tag k="fixme" v="consider natural=peak for the most distinct mountains in the district" />
		<tag k="name" v="Rotnakken" />
		<tag k="natural" v="hill" />
		<tag k="place" v="locality" />
		<tag k="ssr:stedsnr" v="557122" />
	</node>
	<node id="-554873" lat="62.4379988896" lon="6.37869636383">
		<tag k="name" v="Lillevatnet" />
		<tag k="natural" v="water" />
		<tag k="ssr:stedsnr" v="557038" />
	</node>
	<node id="-554872" lat="62.4318920926" lon="6.39264985595">
		<tag k="fixme" v="consider place=hamlet" />
		<tag k="name" v="Eikenosvågen" />
		<tag k="place" v="farm" />
		<tag k="ssr:stedsnr" v="557037" />
	</node>
	<node id="-554871" lat="62.430861115" lon="6.38291944513">
		<tag k="name" v="Ramsvika" />
		<tag k="natural" v="bay" />
		<tag k="ssr:stedsnr" v="557032" />
	</node>
	<node id="-554870" lat="62.4423316015" lon="6.44383241871">
		<tag k="alt_name" v="Røssevoll" />
		<tag k="fixme" v="consider place=hamlet" />
		<tag k="name" v="Røssevollen" />
		<tag k="place" v="farm" />
		<tag k="ssr:stedsnr" v="557028" />
	</node>
	<node id="-554869" lat="62.4693222225" lon="6.19510000807">
		<tag k="name" v="Volsdalsberga" />
		<tag k="natural" v="cape" />
		<tag k="ssr:stedsnr" v="556950" />
	</node>
	<node id="-554868" lat="62.4596222255" lon="6.09981111336">
		<tag k="fixme" v="consider natural=peak for the most distinct mountains in the district" />
		<tag k="name" v="Sukkertoppen" />
		<tag k="natural" v="hill" />
		<tag k="place" v="locality" />
		<tag k="ssr:stedsnr" v="556941" />
	</node>
	<node id="-554867" lat="62.4944774481" lon="6.35071440473">
		<tag k="name" v="Bjørgeholmen" />
		<tag k="place" v="islet" />
		<tag k="ssr:stedsnr" v="556293" />
	</node>
	<node id="-554866" lat="62.4850000002" lon="6.39333332678">
		<tag k="alt_name" v="Alvik;Allvik" />
		<tag k="fixme" v="consider place=hamlet" />
		<tag k="name" v="Alvika" />
		<tag k="place" v="farm" />
		<tag k="ssr:stedsnr" v="556288" />
	</node>
	<node id="-554865" lat="62.4803250018" lon="6.2914333392">
		<tag k="name" v="Kalven" />
		<tag k="place" v="islet" />
		<tag k="ssr:stedsnr" v="556274" />
	</node>
	<node id="-554864" lat="62.4981999993" lon="6.22288333976">
		<tag k="name" v="Straumane" />
		<tag k="natural" v="strait" />
		<tag k="ssr:stedsnr" v="556218" />
	</node>
	<node id="-554863" lat="62.4545222179" lon="6.53955555555">
		<tag k="name" v="Svartevatnet" />
		<tag k="natural" v="water" />
		<tag k="ssr:stedsnr" v="556045" />
	</node>
	<node id="-554862" lat="62.4536027741" lon="6.44587500754">
		<tag k="alt_name" v="Oksenøya" />
		<tag k="name" v="Uksenøya" />
		<tag k="place" v="island" />
		<tag k="ssr:stedsnr" v="556002" />
	</node>
	<node id="-554861" lat="62.4637111073" lon="6.12417222864">
		<tag k="name" v="Vikanesflua" />
		<tag k="natural" v="shoal" />
		<tag k="place" v="locality" />
		<tag k="ssr:stedsnr" v="542019" />
	</node>
	<node id="-554860" lat="62.4654583314" lon="6.34019721344">
		<tag k="name" v="Vindgård" />
		<tag k="old_name" v="Vingard" />
		<tag k="place" v="farm" />
		<tag k="ssr:stedsnr" v="541683" />
	</node>
	<node id="-554859" lat="62.4193444455" lon="6.39769722929">
		<tag k="name" v="Røysene" />
		<tag k="natural" v="scree" />
		<tag k="ssr:stedsnr" v="541011" />
	</node>
	<node id="-554857" lat="62.4320833312" lon="6.33971388423">
		<tag k="name" v="Tjørekoppflua" />
		<tag k="natural" v="shoal" />
		<tag k="place" v="locality" />
		<tag k="ssr:stedsnr" v="538193" />
	</node>
	<node id="-554856" lat="62.4344833293" lon="6.34076110668">
		<tag k="name" v="Terneskjerflua" />
		<tag k="natural" v="shoal" />
		<tag k="place" v="locality" />
		<tag k="ssr:stedsnr" v="538192" />
	</node>
	<node id="-554855" lat="62.4412249986" lon="6.31067778047">
		<tag k="name" v="Tørleneset" />
		<tag k="natural" v="cape" />
		<tag k="ssr:stedsnr" v="537662" />
	</node>
	<node id="-554854" lat="62.454208333" lon="6.26389444772">
		<tag k="name" v="Hatleflua" />
		<tag k="natural" v="shoal" />
		<tag k="place" v="locality" />
		<tag k="ssr:stedsnr" v="536813" />
	</node>
	<node id="-554852" lat="62.470725" lon="6.18167777501">
		<tag k="bridge" v="yes" />
		<tag k="layer" v="1" />
		<tag k="name" v="Sjøbanebroa" />
		<tag k="ssr:stedsnr" v="526037" />
	</node>
	<node id="-554851" lat="62.4426611083" lon="6.48734166452">
		<tag k="fixme" v="consider natural=peak for the most distinct mountains in the district" />
		<tag k="name" v="Brunskarnakkane" />
		<tag k="natural" v="hill" />
		<tag k="place" v="locality" />
		<tag k="ssr:stedsnr" v="525566" />
	</node>
	<node id="-554850" lat="62.4456277784" lon="6.37441945219">
		<tag k="name" v="Grødalen" />
		<tag k="natural" v="valley" />
		<tag k="place" v="locality" />
		<tag k="ssr:stedsnr" v="524000" />
	</node>
	<node id="-554849" lat="62.4693916658" lon="6.26634443741">
		<tag k="name" v="Kroken" />
		<tag k="natural" v="bay" />
		<tag k="ssr:stedsnr" v="523987" />
	</node>
	<node id="-554848" lat="62.4652305526" lon="6.12010555005">
		<tag k="name" v="Osholmen" />
		<tag k="place" v="islet" />
		<tag k="ssr:stedsnr" v="523985" />
	</node>
	<node id="-554847" lat="62.4726888901" lon="6.36415556421">
		<tag k="name" v="Brauta" />
		<tag k="natural" v="slope" />
		<tag k="place" v="locality" />
		<tag k="ssr:stedsnr" v="523983" />
	</node>
	<node id="-554846" lat="62.4539250034" lon="6.10649444329">
		<tag k="name" v="Korsvika" />
		<tag k="natural" v="bay" />
		<tag k="ssr:stedsnr" v="523982" />
	</node>
	<node id="-554845" lat="62.4572027746" lon="6.24371111368">
		<tag k="name" v="Tjuvholmen" />
		<tag k="place" v="islet" />
		<tag k="ssr:stedsnr" v="523975" />
	</node>
	<node id="-554844" lat="62.4973277736" lon="6.21722777007">
		<tag k="name" v="Dalsvika" />
		<tag k="natural" v="bay" />
		<tag k="ssr:stedsnr" v="523973" />
	</node>
	<node id="-554843" lat="62.4978944403" lon="6.25545277946">
		<tag k="name" v="Nausa" />
		<tag k="place" v="farm" />
		<tag k="ssr:stedsnr" v="523959" />
	</node>
	<node id="-554842" lat="62.4651327522" lon="6.24382030291">
		<tag k="fixme" v="consider place=hamlet" />
		<tag k="name" v="Klokkarsundet" />
		<tag k="place" v="farm" />
		<tag k="ssr:stedsnr" v="523954" />
	</node>
	<node id="-554841" lat="62.457244441" lon="6.4891666703">
		<tag k="name" v="Kubbane" />
		<tag k="natural" v="ridge" />
		<tag k="place" v="locality" />
		<tag k="ssr:stedsnr" v="523950" />
	</node>
	<node id="-554840" lat="62.4599722251" lon="6.41213611141">
		<tag k="fixme" v="consider natural=peak for the most distinct mountains in the district" />
		<tag k="name" v="Kambane" />
		<tag k="natural" v="hill" />
		<tag k="place" v="locality" />
		<tag k="ssr:stedsnr" v="523948" />
	</node>
	<node id="-554839" lat="62.5077777749" lon="6.27521389769">
		<tag k="name" v="Sætredalen" />
		<tag k="natural" v="valley" />
		<tag k="place" v="locality" />
		<tag k="ssr:stedsnr" v="523750" />
	</node>
	<node id="-554838" lat="62.476430559" lon="6.17230555619">
		<tag k="name" v="Ravneskaret" />
		<tag k="natural" v="valley" />
		<tag k="place" v="locality" />
		<tag k="ssr:stedsnr" v="523747" />
	</node>
	<node id="-554837" lat="62.4766166645" lon="6.25724167479">
		<tag k="alt_name" v="Vågen" />
		<tag k="name" v="Klungrevågen" />
		<tag k="natural" v="bay" />
		<tag k="ssr:stedsnr" v="523743" />
	</node>
	<node id="-554836" lat="62.4354305514" lon="6.47003334172">
		<tag k="name" v="Sirigrova" />
		<tag k="ssr:stedsnr" v="523711" />
		<tag k="waterway" v="stream" />
	</node>
	<node id="-554835" lat="62.4534416644" lon="6.38974723177">
		<tag k="name" v="Kløvningane" />
		<tag k="natural" v="valley" />
		<tag k="place" v="locality" />
		<tag k="ssr:stedsnr" v="523707" />
	</node>
	<node id="-554834" lat="62.4481555595" lon="6.41131388196">
		<tag k="fixme" v="consider natural=peak for the most distinct mountains in the district" />
		<tag k="name" v="Høgkubben" />
		<tag k="natural" v="hill" />
		<tag k="place" v="locality" />
		<tag k="ssr:stedsnr" v="523704" />
	</node>
	<node id="-554833" lat="62.4324499961" lon="6.48567499551">
		<tag k="name" v="Brennhaug" />
		<tag k="place" v="farm" />
		<tag k="ssr:stedsnr" v="523691" />
	</node>
	<node id="-554832" lat="62.4330611145" lon="6.48912777873">
		<tag k="name" v="Kristenplassen" />
		<tag k="place" v="farm" />
		<tag k="ssr:stedsnr" v="523690" />
	</node>
	<node id="-554831" lat="62.4522083345" lon="6.52418610724">
		<tag k="fixme" v="consider natural=peak for the most distinct mountains in the district" />
		<tag k="name" v="Vassnakken" />
		<tag k="natural" v="hill" />
		<tag k="place" v="locality" />
		<tag k="ssr:stedsnr" v="523686" />
	</node>
	<node id="-554830" lat="62.4745694473" lon="6.22586665988">
		<tag k="leisure" v="pitch" />
		<tag k="name" v="Nørvebana" />
		<tag k="ssr:stedsnr" v="523677" />
	</node>
	<node id="-554829" lat="62.4546277782" lon="6.09802777517">
		<tag k="name" v="Kvalneset" />
		<tag k="natural" v="cape" />
		<tag k="ssr:stedsnr" v="523668" />
	</node>
	<node id="-554828" lat="62.4774833371" lon="6.21679444578">
		<tag k="name" v="Gangstøvikbakken" />
		<tag k="natural" v="slope" />
		<tag k="place" v="locality" />
		<tag k="ssr:stedsnr" v="523667" />
	</node>
	<node id="-554827" lat="62.4444527735" lon="6.35350555101">
		<tag k="name" v="Naustvågholmen" />
		<tag k="place" v="islet" />
		<tag k="ssr:stedsnr" v="523663" />
	</node>
	<node id="-554826" lat="62.4938166643" lon="6.37027499654">
		<tag k="name" v="Årsetneset" />
		<tag k="natural" v="cape" />
		<tag k="ssr:stedsnr" v="523623" />
	</node>
	<node id="-554825" lat="62.5082783307" lon="6.3179836424">
		<tag k="fixme" v="consider place=hamlet" />
		<tag k="name" v="Nedre Volstad" />
		<tag k="place" v="farm" />
		<tag k="ssr:stedsnr" v="523614" />
	</node>
	<node id="-554824" lat="62.4330833331" lon="6.37231665715">
		<tag k="name" v="Vegsundstranda" />
		<tag k="natural" v="beach" />
		<tag k="place" v="locality" />
		<tag k="ssr:stedsnr" v="523604" />
	</node>
	<node id="-554823" lat="62.5117333341" lon="6.23498889701">
		<tag k="alt_name" v="Langeneset" />
		<tag k="name" v="Langesnagen" />
		<tag k="natural" v="cape" />
		<tag k="ssr:stedsnr" v="523587" />
	</node>
	<node id="-554822" lat="62.5021833309" lon="6.2453722176">
		<tag k="name" v="Nøringsmyra" />
		<tag k="natural" v="wetland" />
		<tag k="ssr:stedsnr" v="523581" />
	</node>
	<node id="-554821" lat="62.4699916712" lon="6.29993889581">
		<tag k="fixme" v="consider place=suburb, village or hamlet" />
		<tag k="name" v="Lerstad" />
		<tag k="place" v="quarter" />
		<tag k="ssr:stedsnr" v="523007" />
	</node>
	<node id="-554820" lat="62.4584944405" lon="6.13064165904">
		<tag k="amenity" v="school" />
		<tag k="name" v="Hessa skole" />
		<tag k="old_name" v="Heissa skole" />
		<tag k="ssr:stedsnr" v="522670" />
	</node>
	<node id="-554819" lat="62.4703055554" lon="6.20899722175">
		<tag k="layer" v="-1" />
		<tag k="name" v="Hundsværundergangen" />
		<tag k="ssr:stedsnr" v="521469" />
		<tag k="tunnel" v="yes" />
	</node>
	<node id="-554818" lat="62.4380055591" lon="6.36085556098">
		<tag k="layer" v="-1" />
		<tag k="name" v="Østre Blindheimsundergangen" />
		<tag k="ssr:stedsnr" v="521451" />
		<tag k="tunnel" v="yes" />
	</node>
	<node id="-554817" lat="62.47846667" lon="6.42928611882">
		<tag k="bridge" v="yes" />
		<tag k="layer" v="1" />
		<tag k="name" v="Rødsetstrandbrua" />
		<tag k="ssr:stedsnr" v="521432" />
	</node>
	<node id="-554816" lat="62.4569972226" lon="6.36273333486">
		<tag k="layer" v="-1" />
		<tag k="name" v="Myrabakkundergangen" />
		<tag k="ssr:stedsnr" v="521041" />
		<tag k="tunnel" v="yes" />
	</node>
	<node id="-554815" lat="62.4634611114" lon="6.30780000398">
		<tag k="layer" v="-1" />
		<tag k="name" v="Snopenesundergangen" />
		<tag k="ssr:stedsnr" v="521039" />
		<tag k="tunnel" v="yes" />
	</node>
	<node id="-554811" lat="62.4634027784" lon="6.35634721812">
		<tag k="layer" v="-1" />
		<tag k="name" v="Moatunnelen" />
		<tag k="ssr:stedsnr" v="512322" />
		<tag k="tunnel" v="yes" />
	</node>
	<node id="-554810" lat="62.4444138882" lon="6.3602222128">
		<tag k="bridge" v="yes" />
		<tag k="layer" v="1" />
		<tag k="name" v="Bjørngjerdebrua" />
		<tag k="ssr:stedsnr" v="512320" />
	</node>
	<node id="-554809" lat="62.4433249977" lon="6.36214722671">
		<tag k="bridge" v="yes" />
		<tag k="layer" v="1" />
		<tag k="name" v="Blindheimsbrua" />
		<tag k="ssr:stedsnr" v="512314" />
	</node>
	<node id="-554808" lat="62.470652774" lon="6.24465277776">
		<tag k="name" v="Nørvasundet" />
		<tag k="natural" v="strait" />
		<tag k="ssr:stedsnr" v="512116" />
	</node>
	<node id="-554807" lat="62.4996555574" lon="6.22651667539">
		<tag k="name" v="Eidsvågen" />
		<tag k="natural" v="bay" />
		<tag k="ssr:stedsnr" v="506920" />
	</node>
	<node id="-554806" lat="62.4691444412" lon="6.24968055836">
		<tag k="layer" v="-1" />
		<tag k="name" v="Skuggetunnelen" />
		<tag k="ssr:stedsnr" v="506522" />
		<tag k="tunnel" v="yes" />
	</node>
	<node id="-554805" lat="62.4714305593" lon="6.18863611363">
		<tag k="alt_name" v="Volsdalens kirke;Volsdalen" />
		<tag k="amenity" v="place_of_worship" />
		<tag k="denomination" v="lutheran" />
		<tag k="name" v="Volsdalen kirke" />
		<tag k="religion" v="christian" />
		<tag k="ssr:stedsnr" v="505348" />
	</node>
	<node id="-554804" lat="62.5099194484" lon="6.37656944454">
		<tag k="name" v="Dalsvika" />
		<tag k="natural" v="bay" />
		<tag k="ssr:stedsnr" v="497170" />
	</node>
	<node id="-554803" lat="62.5085055533" lon="6.23478333698">
		<tag k="name" v="Bunes" />
		<tag k="natural" v="cape" />
		<tag k="ssr:stedsnr" v="497165" />
	</node>
	<node id="-554802" lat="62.5022000026" lon="6.31676111618">
		<tag k="name" v="Kleiva" />
		<tag k="place" v="locality" />
		<tag k="ssr:stedsnr" v="497136" />
	</node>
	<node id="-554801" lat="62.5087277735" lon="6.30123332886">
		<tag k="name" v="Rimane" />
		<tag k="place" v="locality" />
		<tag k="ssr:stedsnr" v="497135" />
	</node>
	<node id="-554800" lat="62.5108416701" lon="6.39939444022">
		<tag k="name" v="Ellingshaugen" />
		<tag k="natural" v="hill" />
		<tag k="place" v="locality" />
		<tag k="ssr:stedsnr" v="497133" />
	</node>
	<node id="-554799" lat="62.5067166646" lon="6.33640277821">
		<tag k="name" v="Lyngneset" />
		<tag k="natural" v="cape" />
		<tag k="ssr:stedsnr" v="497130" />
	</node>
	<node id="-554798" lat="62.4865583343" lon="6.20307222643">
		<tag k="name" v="Skallen" />
		<tag k="natural" v="shoal" />
		<tag k="place" v="locality" />
		<tag k="ssr:stedsnr" v="496998" />
	</node>
	<node id="-554797" lat="62.4654972215" lon="6.11406666276">
		<tag k="name" v="Skarbøvik" />
		<tag k="place" v="village" />
		<tag k="ssr:stedsnr" v="496948" />
	</node>
	<node id="-554796" lat="62.4917249996" lon="6.42296388123">
		<tag k="name" v="Storneset" />
		<tag k="natural" v="cape" />
		<tag k="ssr:stedsnr" v="496255" />
	</node>
	<node id="-554795" lat="62.4927805595" lon="6.37354999076">
		<tag k="name" v="Årsetvika" />
		<tag k="natural" v="bay" />
		<tag k="ssr:stedsnr" v="496250" />
	</node>
	<node id="-554794" lat="62.4827256765" lon="6.30580930865">
		<tag k="name" v="Lille Kalvøya" />
		<tag k="place" v="islet" />
		<tag k="ssr:stedsnr" v="496248" />
	</node>
	<node id="-554793" lat="62.4969777764" lon="6.34185556162">
		<tag k="fixme" v="consider place=hamlet" />
		<tag k="name" v="Hagen" />
		<tag k="place" v="farm" />
		<tag k="ssr:stedsnr" v="496204" />
	</node>
	<node id="-554792" lat="62.5243611138" lon="6.28714444474">
		<tag k="bay" v="fjord" />
		<tag k="name" v="Grytafjorden" />
		<tag k="natural" v="bay" />
		<tag k="ssr:stedsnr" v="496165" />
	</node>
	<node id="-554791" lat="62.4287305592" lon="6.40004165682">
		<tag k="alt_name" v="Hamnevika" />
		<tag k="name" v="Hamnevik" />
		<tag k="place" v="farm" />
		<tag k="ssr:stedsnr" v="496089" />
	</node>
	<node id="-554790" lat="62.417897218" lon="6.37558611088">
		<tag k="alt_name" v="Flisholmen" />
		<tag k="name" v="Flisnesholmen" />
		<tag k="place" v="islet" />
		<tag k="ssr:stedsnr" v="496074" />
	</node>
	<node id="-554789" lat="62.4292277735" lon="6.44353611342">
		<tag k="name" v="Klebergshammaren" />
		<tag k="natural" v="cape" />
		<tag k="ssr:stedsnr" v="496063" />
	</node>
	<node id="-554788" lat="62.4444077687" lon="6.29815805146">
		<tag k="fixme" v="consider place=hamlet" />
		<tag k="name" v="Humla" />
		<tag k="place" v="farm" />
		<tag k="ssr:stedsnr" v="496057" />
	</node>
	<node id="-554787" lat="62.4567500005" lon="6.52343055481">
		<tag k="name" v="Sætrevatnet" />
		<tag k="natural" v="water" />
		<tag k="ssr:stedsnr" v="496049" />
	</node>
	<node id="-554786" lat="62.4365134488" lon="6.47393588553">
		<tag k="alt_name" v="Reiten" />
		<tag k="fixme" v="consider place=hamlet" />
		<tag k="name" v="Reitane" />
		<tag k="place" v="farm" />
		<tag k="ssr:stedsnr" v="496040" />
	</node>
	<node id="-554785" lat="62.4454222216" lon="6.4840666684">
		<tag k="name" v="Østremselva" />
		<tag k="ssr:stedsnr" v="496035" />
		<tag k="waterway" v="stream" />
	</node>
	<node id="-554784" lat="62.4707090694" lon="6.29038009046">
		<tag k="alt_name" v="Leirstad" />
		<tag k="fixme" v="consider place=hamlet" />
		<tag k="name" v="Lerstad" />
		<tag k="place" v="farm" />
		<tag k="ssr:stedsnr" v="496014" />
	</node>
	<node id="-554783" lat="62.467868037" lon="6.24920756391">
		<tag k="name" v="Gåseid" />
		<tag k="place" v="suburb" />
		<tag k="ssr:stedsnr" v="496013" />
	</node>
	<node id="-554782" lat="62.4514444482" lon="6.34491388855">
		<tag k="name" v="Digerneset" />
		<tag k="natural" v="cape" />
		<tag k="ssr:stedsnr" v="496007" />
	</node>
	<node id="-554778" lat="62.4473666705" lon="6.27541943595">
		<tag k="name" v="Kavlevika" />
		<tag k="natural" v="bay" />
		<tag k="ssr:stedsnr" v="483824" />
	</node>
	<node id="-554777" lat="62.4803083327" lon="6.26833888789">
		<tag k="name" v="Utaforneset" />
		<tag k="natural" v="cape" />
		<tag k="ssr:stedsnr" v="483192" />
	</node>
	<node id="-554775" lat="62.4956972243" lon="6.17295000024">
		<tag k="name" v="Moldeneset" />
		<tag k="natural" v="cape" />
		<tag k="ssr:stedsnr" v="481427" />
	</node>
	<node id="-554774" lat="62.4965194417" lon="6.21655277817">
		<tag k="name" v="Joholmen" />
		<tag k="place" v="islet" />
		<tag k="ssr:stedsnr" v="481404" />
	</node>
	<node id="-554773" lat="62.4714000032" lon="6.23928610353">
		<tag k="name" v="Store-Nørve" />
		<tag k="place" v="isolated_dwelling" />
		<tag k="ssr:stedsnr" v="481252" />
	</node>
	<node id="-554772" lat="62.4737916691" lon="6.14695832653">
		<tag k="name" v="Molja" />
		<tag k="place" v="locality" />
		<tag k="seamark:type" v="rock" />
		<tag k="ssr:stedsnr" v="481210" />
	</node>
	<node id="-554771" lat="62.4683361114" lon="6.13067499376">
		<tag k="name" v="Aspholet" />
		<tag k="natural" v="bay" />
		<tag k="ssr:stedsnr" v="481015" />
	</node>
	<node id="-554770" lat="62.463477779" lon="6.3295305548">
		<tag k="amenity" v="school" />
		<tag k="name" v="Åse skole" />
		<tag k="old_name" v="Åse Ungdomsskole" />
		<tag k="ssr:stedsnr" v="463659" />
	</node>
	<node id="-554769" lat="62.4839027762" lon="6.41332777736">
		<tag k="name" v="Ospenakken" />
		<tag k="natural" v="ridge" />
		<tag k="place" v="locality" />
		<tag k="ssr:stedsnr" v="463654" />
	</node>
	<node id="-554768" lat="62.4674333323" lon="6.11681110933">
		<tag k="name" v="Notholmen" />
		<tag k="place" v="islet" />
		<tag k="ssr:stedsnr" v="462665" />
	</node>
	<node id="-554767" lat="62.4301527788" lon="6.46434444865">
		<tag k="name" v="Kråkevika" />
		<tag k="natural" v="bay" />
		<tag k="ssr:stedsnr" v="462622" />
	</node>
	<node id="-554766" lat="62.4369722186" lon="6.44021110873">
		<tag k="name" v="Gullmyra" />
		<tag k="natural" v="wetland" />
		<tag k="ssr:stedsnr" v="462620" />
	</node>
	<node id="-554765" lat="62.445466666" lon="6.36996667603">
		<tag k="name" v="Stovedalselva" />
		<tag k="ssr:stedsnr" v="462617" />
		<tag k="waterway" v="stream" />
	</node>
	<node id="-554764" lat="62.4715166635" lon="6.47326944423">
		<tag k="name" v="Vasstrand" />
		<tag k="place" v="farm" />
		<tag k="ssr:stedsnr" v="462604" />
	</node>
	<node id="-554763" lat="62.4749111091" lon="6.16602777103">
		<tag k="name" v="Kniven" />
		<tag k="natural" v="ridge" />
		<tag k="place" v="locality" />
		<tag k="ssr:stedsnr" v="462987" />
	</node>
	<node id="-554762" lat="62.4673083358" lon="6.10496945069">
		<tag k="name" v="Meskaret" />
		<tag k="natural" v="valley" />
		<tag k="place" v="locality" />
		<tag k="ssr:stedsnr" v="462985" />
	</node>
	<node id="-554761" lat="62.4684194431" lon="6.33379166895">
		<tag k="fixme" v="consider natural=peak for the most distinct mountains in the district" />
		<tag k="name" v="Åsemulen" />
		<tag k="natural" v="hill" />
		<tag k="place" v="locality" />
		<tag k="ssr:stedsnr" v="462969" />
	</node>
	<node id="-554760" lat="62.4968361129" lon="6.27094722611">
		<tag k="name" v="Reset" />
		<tag k="natural" v="ridge" />
		<tag k="place" v="locality" />
		<tag k="ssr:stedsnr" v="462964" />
	</node>
	<node id="-554759" lat="62.4958305598" lon="6.21165000711">
		<tag k="name" v="Haugen" />
		<tag k="place" v="farm" />
		<tag k="ssr:stedsnr" v="462960" />
	</node>
	<node id="-554758" lat="62.4434416705" lon="6.51945833765">
		<tag k="name" v="Eiteråna" />
		<tag k="ssr:stedsnr" v="462945" />
		<tag k="waterway" v="stream" />
	</node>
	<node id="-554757" lat="62.4407083361" lon="6.35662223151">
		<tag k="fixme" v="consider place=hamlet" />
		<tag k="name" v="Skytterholm" />
		<tag k="place" v="farm" />
		<tag k="ssr:stedsnr" v="462005" />
	</node>
	<node id="-554756" lat="62.434558335" lon="6.29982777568">
		<tag k="name" v="Hankeneset" />
		<tag k="natural" v="cape" />
		<tag k="ssr:stedsnr" v="461701" />
	</node>
	<node id="-554755" lat="62.4431305594" lon="6.28847499492">
		<tag k="name" v="Søre Tjeldneset" />
		<tag k="natural" v="cape" />
		<tag k="ssr:stedsnr" v="461658" />
	</node>
	<node id="-554754" lat="62.4711777749" lon="6.14571389873">
		<tag k="amenity" v="place_of_worship" />
		<tag k="denomination" v="lutheran" />
		<tag k="name" v="Ålesund kirke" />
		<tag k="religion" v="christian" />
		<tag k="ssr:stedsnr" v="461650" />
	</node>
	<node id="-554753" lat="62.476194442" lon="6.40944167636">
		<tag k="layer" v="-1" />
		<tag k="name" v="Rødsetreitundergangen" />
		<tag k="ssr:stedsnr" v="461467" />
		<tag k="tunnel" v="yes" />
	</node>
	<node id="-554752" lat="62.4702916655" lon="6.35664722859">
		<tag k="bridge" v="yes" />
		<tag k="layer" v="1" />
		<tag k="name" v="Holsbrua" />
		<tag k="ssr:stedsnr" v="461434" />
	</node>
	<node id="-554751" lat="62.4603676133" lon="6.36917084412">
		<tag k="amenity" v="school" />
		<tag k="name" v="Spjelkavik barneskole" />
		<tag k="old_name" v="Spjelkavik skole" />
		<tag k="ssr:stedsnr" v="462569" />
	</node>
	<node id="-554750" lat="62.5120499983" lon="6.45032222292">
		<tag k="name" v="Rotebukta" />
		<tag k="natural" v="bay" />
		<tag k="ssr:stedsnr" v="462566" />
	</node>
	<node id="-554749" lat="62.4864805569" lon="6.42975833396">
		<tag k="name" v="Sætrenakken" />
		<tag k="natural" v="ridge" />
		<tag k="place" v="locality" />
		<tag k="ssr:stedsnr" v="462564" />
	</node>
	<node id="-554748" lat="62.4683888894" lon="6.18459722039">
		<tag k="amenity" v="school" />
		<tag k="name" v="Ålesund videregående skole, avd. Volsdalsberga" />
		<tag k="old_name" v="Ålesund maritime skoler" />
		<tag k="ssr:stedsnr" v="462544" />
	</node>
	<node id="-554747" lat="62.4921861155" lon="6.25070555628">
		<tag k="alt_name" v="Bjorsholmen" />
		<tag k="name" v="Bjørsholmen" />
		<tag k="place" v="islet" />
		<tag k="ssr:stedsnr" v="462522" />
	</node>
	<node id="-554746" lat="62.511716668" lon="6.274849992">
		<tag k="name" v="Nakkemyra" />
		<tag k="natural" v="wetland" />
		<tag k="ssr:stedsnr" v="462519" />
	</node>
	<node id="-554745" lat="62.4850999975" lon="6.42234722058">
		<tag k="name" v="Sætrenakken" />
		<tag k="natural" v="ridge" />
		<tag k="place" v="locality" />
		<tag k="ssr:stedsnr" v="462515" />
	</node>
	<node id="-554744" lat="62.4436250007" lon="6.31048055008">
		<tag k="bridge" v="yes" />
		<tag k="layer" v="1" />
		<tag k="name" v="Humlebrua" />
		<tag k="ssr:stedsnr" v="461099" />
	</node>
	<node id="-554743" lat="62.4372999959" lon="6.35621944968">
		<tag k="layer" v="-1" />
		<tag k="name" v="Søndre Blindheimsundergangen" />
		<tag k="ssr:stedsnr" v="461046" />
		<tag k="tunnel" v="yes" />
	</node>
	<node id="-554740" lat="62.4471111124" lon="6.35783056392">
		<tag k="layer" v="-1" />
		<tag k="name" v="Blindheimstunnelen" />
		<tag k="ssr:stedsnr" v="452309" />
		<tag k="tunnel" v="yes" />
	</node>
	<node id="-554738" lat="62.4340166695" lon="6.51670834112">
		<tag k="name" v="Eiteråna" />
		<tag k="ssr:stedsnr" v="445336" />
		<tag k="waterway" v="stream" />
	</node>
	<node id="-554737" lat="62.4665722227" lon="6.09453888369">
		<tag k="name" v="Sandvika" />
		<tag k="natural" v="bay" />
		<tag k="ssr:stedsnr" v="436667" />
	</node>
	<node id="-554736" lat="62.5114583317" lon="6.4200166585">
		<tag k="name" v="Fjellsenden" />
		<tag k="natural" v="hill" />
		<tag k="place" v="locality" />
		<tag k="ssr:stedsnr" v="436172" />
	</node>
	<node id="-554735" lat="62.4556194424" lon="6.51381111937">
		<tag k="historic" v="shieling" />
		<tag k="name" v="Østremssætra" />
		<tag k="place" v="locality" />
		<tag k="ssr:stedsnr" v="436044" />
	</node>
	<node id="-554734" lat="62.4622150264" lon="6.25598281932">
		<tag k="alt_name" v="Ratvik, ytre" />
		<tag k="fixme" v="consider place=hamlet" />
		<tag k="name" v="Ratvika" />
		<tag k="place" v="farm" />
		<tag k="ssr:stedsnr" v="436026" />
	</node>
	<node id="-554733" lat="62.4603944479" lon="6.1595833395">
		<tag k="name" v="Slinningen" />
		<tag k="place" v="suburb" />
		<tag k="ssr:stedsnr" v="435979" />
	</node>
	<node id="-554732" lat="62.4895861152" lon="6.2765555533">
		<tag k="name" v="Kvalsteinskjeret" />
		<tag k="natural" v="cape" />
		<tag k="ssr:stedsnr" v="435272" />
	</node>
	<node id="-554731" lat="62.4982017687" lon="6.38243111185">
		<tag k="fixme" v="consider place=hamlet" />
		<tag k="name" v="Årset" />
		<tag k="place" v="farm" />
		<tag k="ssr:stedsnr" v="435269" />
	</node>
	<node id="-554730" lat="62.4964611095" lon="6.39635833033">
		<tag k="fixme" v="consider seamark:type=rock or natural=shoal" />
		<tag k="name" v="Klippfiskholmane" />
		<tag k="place" v="islet" />
		<tag k="ssr:stedsnr" v="435270" />
	</node>
	<node id="-554729" lat="62.4983947104" lon="6.35023972009">
		<tag k="fixme" v="consider place=hamlet" />
		<tag k="name" v="Bjørge" />
		<tag k="place" v="farm" />
		<tag k="ssr:stedsnr" v="435228" />
	</node>
	<node id="-554728" lat="62.4387496006" lon="6.48733115226">
		<tag k="fixme" v="consider natural=peak for the most distinct mountains in the district" />
		<tag k="name" v="Storenakken" />
		<tag k="natural" v="hill" />
		<tag k="place" v="locality" />
		<tag k="ssr:stedsnr" v="435108" />
	</node>
	<node id="-554725" lat="62.4481944453" lon="6.29308333598">
		<tag k="name" v="Krokholmen" />
		<tag k="place" v="islet" />
		<tag k="ssr:stedsnr" v="423099" />
	</node>
	<node id="-554724" lat="62.4821055594" lon="6.2942638951">
		<tag k="name" v="Lille Kalven" />
		<tag k="place" v="islet" />
		<tag k="ssr:stedsnr" v="422155" />
	</node>
	<node id="-554723" lat="62.4561583293" lon="6.35188611967">
		<tag k="name" v="Klubben" />
		<tag k="natural" v="hill" />
		<tag k="place" v="locality" />
		<tag k="ssr:stedsnr" v="422104" />
	</node>
	<node id="-554722" lat="62.4930416681" lon="6.32245833983">
		<tag k="name" v="Stavleie" />
		<tag k="natural" v="cape" />
		<tag k="ssr:stedsnr" v="421377" />
	</node>
	<node id="-554721" lat="62.4896555576" lon="6.35015833336">
		<tag k="name" v="Seljevika" />
		<tag k="natural" v="bay" />
		<tag k="ssr:stedsnr" v="421374" />
	</node>
	<node id="-554720" lat="62.4883944453" lon="6.35479444476">
		<tag k="name" v="Plassevika" />
		<tag k="natural" v="bay" />
		<tag k="ssr:stedsnr" v="421373" />
	</node>
	<node id="-554719" lat="62.4695055535" lon="6.14779445349">
		<tag k="man_made" v="quay" />
		<tag k="name" v="Prestebrygga" />
		<tag k="place" v="locality" />
		<tag k="ssr:stedsnr" v="421036" />
	</node>
	<node id="-554718" lat="62.4731361071" lon="6.12724444454">
		<tag k="name" v="Steinvågflua" />
		<tag k="natural" v="shoal" />
		<tag k="place" v="locality" />
		<tag k="ssr:stedsnr" v="421009" />
	</node>
	<node id="-554717" lat="62.4747888901" lon="6.1233583273">
		<tag k="name" v="Skarbøvikflua" />
		<tag k="natural" v="shoal" />
		<tag k="place" v="locality" />
		<tag k="ssr:stedsnr" v="421007" />
	</node>
	<node id="-554716" lat="62.4606972238" lon="6.29998332421">
		<tag k="name" v="Snopeneset" />
		<tag k="natural" v="cape" />
		<tag k="ssr:stedsnr" v="420128" />
	</node>
	<node id="-554715" lat="62.4932055569" lon="6.38324443806">
		<tag k="alt_name" v="Årsetholmen" />
		<tag k="name" v="Lyngholmen" />
		<tag k="place" v="islet" />
		<tag k="ssr:stedsnr" v="416361" />
	</node>
	<node id="-554714" lat="62.4387055526" lon="6.34891388209">
		<tag k="name" v="Rabbenes" />
		<tag k="place" v="isolated_dwelling" />
		<tag k="ssr:stedsnr" v="416178" />
	</node>
	<node id="-554713" lat="62.4329777745" lon="6.33957778379">
		<tag k="name" v="Tjørekoppen" />
		<tag k="natural" v="shoal" />
		<tag k="place" v="locality" />
		<tag k="ssr:stedsnr" v="416175" />
	</node>
	<node id="-554712" lat="62.4890222229" lon="6.17552222802">
		<tag k="name" v="Kobbholmflua" />
		<tag k="natural" v="shoal" />
		<tag k="place" v="locality" />
		<tag k="ssr:stedsnr" v="415714" />
	</node>
	<node id="-554711" lat="62.5120500024" lon="6.35941943479">
		<tag k="fixme" v="consider seamark:type=rock or natural=shoal" />
		<tag k="name" v="Toppskjeret" />
		<tag k="place" v="islet" />
		<tag k="ssr:stedsnr" v="415378" />
	</node>
	<node id="-554710" lat="62.4416000043" lon="6.40969999105">
		<tag k="name" v="Byteelva" />
		<tag k="ssr:stedsnr" v="263357" />
		<tag k="waterway" v="river" />
	</node>
	<node id="-554709" lat="62.4812837979" lon="6.14011045289">
		<tag k="fixme" v="consider seamark:type=rock or natural=shoal" />
		<tag k="name" v="Olsskjeret" />
		<tag k="place" v="islet" />
		<tag k="ssr:stedsnr" v="254990" />
	</node>
	<node id="-554708" lat="62.4922472211" lon="6.19972499783">
		<tag k="name" v="Langeneset" />
		<tag k="natural" v="cape" />
		<tag k="ssr:stedsnr" v="254982" />
	</node>
	<node id="-554707" lat="62.518455557" lon="6.44549167597">
		<tag k="name" v="Nørdrerusta" />
		<tag k="natural" v="cape" />
		<tag k="ssr:stedsnr" v="254163" />
	</node>
	<node id="-554706" lat="62.5117416705" lon="6.26646943617">
		<tag k="name" v="Makkevågane" />
		<tag k="natural" v="bay" />
		<tag k="ssr:stedsnr" v="254157" />
	</node>
	<node id="-554705" lat="62.4437166686" lon="6.51718333249">
		<tag k="historic" v="shieling" />
		<tag k="name" v="Magerholmsætra" />
		<tag k="place" v="locality" />
		<tag k="ssr:stedsnr" v="254038" />
	</node>
	<node id="-554704" lat="62.472566668" lon="6.34567776911">
		<tag k="name" v="Breivika" />
		<tag k="place" v="quarter" />
		<tag k="ssr:stedsnr" v="253259" />
	</node>
	<node id="-554703" lat="62.4979388881" lon="6.25776945231">
		<tag k="name" v="Skuldalen" />
		<tag k="natural" v="valley" />
		<tag k="place" v="locality" />
		<tag k="ssr:stedsnr" v="253233" />
	</node>
	<node id="-554702" lat="62.4959103064" lon="6.23853014243">
		<tag k="fixme" v="consider place=hamlet" />
		<tag k="name" v="Grimstad" />
		<tag k="place" v="farm" />
		<tag k="ssr:stedsnr" v="253223" />
	</node>
	<node id="-554701" lat="62.466326845" lon="6.23389555559">
		<tag k="alt_name" v="Borgund kirke;Borgund" />
		<tag k="amenity" v="place_of_worship" />
		<tag k="denomination" v="lutheran" />
		<tag k="name" v="Borgund kyrkje" />
		<tag k="religion" v="christian" />
		<tag k="ssr:stedsnr" v="253018" />
	</node>
	<node id="-554700" lat="62.4499106391" lon="6.31215269369">
		<tag k="alt_name" v="Bjønnholmen" />
		<tag k="name" v="Bjørnholmen" />
		<tag k="place" v="islet" />
		<tag k="ssr:stedsnr" v="253005" />
	</node>
	<node id="-554698" lat="62.4609694415" lon="6.32996666298">
		<tag k="name" v="Ura" />
		<tag k="place" v="isolated_dwelling" />
		<tag k="ssr:stedsnr" v="240218" />
	</node>
	<node id="-554697" lat="62.4739694477" lon="6.1565694365">
		<tag k="junction" v="yes" />
		<tag k="name" v="Korsen" />
		<tag k="place" v="locality" />
		<tag k="ssr:stedsnr" v="238184" />
	</node>
	<node id="-554696" lat="62.4589166643" lon="6.24296110883">
		<tag k="name" v="Lilleprikka" />
		<tag k="place" v="locality" />
		<tag k="seamark:type" v="rock" />
		<tag k="ssr:stedsnr" v="238116" />
	</node>
	<node id="-554695" lat="62.4694222202" lon="6.15294444161">
		<tag k="man_made" v="quay" />
		<tag k="name" v="Storneskaia" />
		<tag k="place" v="locality" />
		<tag k="ssr:stedsnr" v="238032" />
	</node>
	<node id="-554694" lat="62.4663638921" lon="6.1156333283">
		<tag k="name" v="Skarbøvikane" />
		<tag k="natural" v="bay" />
		<tag k="ssr:stedsnr" v="238008" />
	</node>
	<node id="-554693" lat="62.4381232668" lon="6.44489691835">
		<tag k="fixme" v="consider place=hamlet" />
		<tag k="name" v="Emblem" />
		<tag k="place" v="farm" />
		<tag k="ssr:stedsnr" v="234801" />
	</node>
	<node id="-554692" lat="62.4307611115" lon="6.4369722314">
		<tag k="name" v="Sandane" />
		<tag k="natural" v="beach" />
		<tag k="place" v="locality" />
		<tag k="ssr:stedsnr" v="233983" />
	</node>
	<node id="-554691" lat="62.4417388876" lon="6.35961666142">
		<tag k="name" v="Blindheimsvågen" />
		<tag k="natural" v="bay" />
		<tag k="ssr:stedsnr" v="233814" />
	</node>
	<node id="-554689" lat="62.4706999998" lon="6.12473888265">
		<tag k="bridge" v="yes" />
		<tag k="layer" v="1" />
		<tag k="name" v="Steinvågbrua" />
		<tag k="ssr:stedsnr" v="225009" />
	</node>
	<node id="-554688" lat="62.4587222182" lon="6.35528611693">
		<tag k="bridge" v="yes" />
		<tag k="layer" v="1" />
		<tag k="name" v="Sandingbrua" />
		<tag k="ssr:stedsnr" v="223050" />
	</node>
	<node id="-554687" lat="62.442486113" lon="6.40519445244">
		<tag k="name" v="Alldalen" />
		<tag k="natural" v="valley" />
		<tag k="place" v="locality" />
		<tag k="ssr:stedsnr" v="220997" />
	</node>
	<node id="-554686" lat="62.4292861101" lon="6.4833111104">
		<tag k="name" v="Kvalen" />
		<tag k="natural" v="hill" />
		<tag k="place" v="locality" />
		<tag k="ssr:stedsnr" v="220995" />
	</node>
	<node id="-554685" lat="62.4355416704" lon="6.34181388248">
		<tag k="name" v="Vegsundvika" />
		<tag k="natural" v="bay" />
		<tag k="ssr:stedsnr" v="220993" />
	</node>
	<node id="-554684" lat="62.464241667" lon="6.24974999905">
		<tag k="name" v="Grønvika" />
		<tag k="natural" v="bay" />
		<tag k="ssr:stedsnr" v="220988" />
	</node>
	<node id="-554683" lat="62.4417611105" lon="6.4266888931">
		<tag k="name" v="Høgda" />
		<tag k="place" v="isolated_dwelling" />
		<tag k="ssr:stedsnr" v="220971" />
	</node>
	<node id="-554682" lat="62.475019446" lon="6.22024165838">
		<tag k="name" v="Fagerlia" />
		<tag k="natural" v="slope" />
		<tag k="place" v="locality" />
		<tag k="ssr:stedsnr" v="220962" />
	</node>
	<node id="-554681" lat="62.4688055531" lon="6.18243055928">
		<tag k="name" v="Sunnmørshallen" />
		<tag k="natural" v="cape" />
		<tag k="ssr:stedsnr" v="220944" />
	</node>
	<node id="-554680" lat="62.5122416679" lon="6.40773333969">
		<tag k="name" v="Båtvika" />
		<tag k="natural" v="bay" />
		<tag k="ssr:stedsnr" v="220939" />
	</node>
	<node id="-554679" lat="62.439291669" lon="6.3476666675">
		<tag k="name" v="Rabbeura" />
		<tag k="natural" v="scree" />
		<tag k="ssr:stedsnr" v="220935" />
	</node>
	<node id="-554678" lat="62.4665861124" lon="6.23766388573">
		<tag k="name" v="Kaupangen" />
		<tag k="ssr:stedsnr" v="220748" />
		<tag k="tourism" v="attraction" />
	</node>
	<node id="-554677" lat="62.5009888923" lon="6.19778610861">
		<tag k="name" v="Sandvikane" />
		<tag k="natural" v="bay" />
		<tag k="ssr:stedsnr" v="220735" />
	</node>
	<node id="-554676" lat="62.447027774" lon="6.38192221743">
		<tag k="name" v="Rasmushjellen" />
		<tag k="place" v="locality" />
		<tag k="ssr:stedsnr" v="220685" />
	</node>
	<node id="-554675" lat="62.4434138853" lon="6.40349167533">
		<tag k="name" v="Ramskredhamrane" />
		<tag k="natural" v="cliff" />
		<tag k="ssr:stedsnr" v="220682" />
	</node>
	<node id="-554674" lat="62.4551944452" lon="6.47631389263">
		<tag k="fixme" v="consider natural=peak for the most distinct mountains in the district" />
		<tag k="name" v="Høgekubben" />
		<tag k="natural" v="hill" />
		<tag k="place" v="locality" />
		<tag k="ssr:stedsnr" v="220672" />
	</node>
	<node id="-554673" lat="62.4537916632" lon="6.45927500656">
		<tag k="name" v="Emblemsdalen" />
		<tag k="natural" v="valley" />
		<tag k="place" v="locality" />
		<tag k="ssr:stedsnr" v="220670" />
	</node>
	<node id="-554672" lat="62.4292722204" lon="6.4404722192">
		<tag k="name" v="Krokaneset" />
		<tag k="natural" v="cape" />
		<tag k="ssr:stedsnr" v="220659" />
	</node>
	<node id="-554671" lat="62.4723111157" lon="6.31914444689">
		<tag k="name" v="Nakkevika" />
		<tag k="natural" v="bay" />
		<tag k="ssr:stedsnr" v="220656" />
	</node>
	<node id="-554669" lat="62.4693722255" lon="6.20504721977">
		<tag k="name" v="Nørvevika" />
		<tag k="natural" v="bay" />
		<tag k="ssr:stedsnr" v="220649" />
	</node>
	<node id="-554668" lat="62.4629333333" lon="6.19622499094">
		<tag k="name" v="Tyskholmrumpa" />
		<tag k="place" v="islet" />
		<tag k="ssr:stedsnr" v="220647" />
	</node>
	<node id="-554667" lat="62.46921944" lon="6.18254999467">
		<tag k="name" v="Volsdalsneset" />
		<tag k="natural" v="cape" />
		<tag k="ssr:stedsnr" v="220598" />
	</node>
	<node id="-554666" lat="62.4715277738" lon="6.29503889746">
		<tag k="alt_name" v="Leirstadnakken" />
		<tag k="fixme" v="consider natural=peak for the most distinct mountains in the district" />
		<tag k="name" v="Lerstadnakken" />
		<tag k="natural" v="hill" />
		<tag k="place" v="locality" />
		<tag k="ssr:stedsnr" v="220593" />
	</node>
	<node id="-554665" lat="62.4646055591" lon="6.43395556202">
		<tag k="name" v="Blombakkane" />
		<tag k="natural" v="slope" />
		<tag k="place" v="locality" />
		<tag k="ssr:stedsnr" v="220589" />
	</node>
	<node id="-554664" lat="62.4929527821" lon="6.31189166631">
		<tag k="name" v="Sperrevika" />
		<tag k="natural" v="bay" />
		<tag k="ssr:stedsnr" v="220587" />
	</node>
	<node id="-554663" lat="62.4901444472" lon="6.29900833693">
		<tag k="alt_name" v="Bendiksnaget" />
		<tag k="name" v="Diriksnagen" />
		<tag k="natural" v="cape" />
		<tag k="ssr:stedsnr" v="220570" />
	</node>
	<node id="-554662" lat="62.4416527736" lon="6.35618889858">
		<tag k="name" v="Storevågen" />
		<tag k="natural" v="bay" />
		<tag k="ssr:stedsnr" v="220636" />
	</node>
	<node id="-554661" lat="62.4697638882" lon="6.39616945323">
		<tag k="name" v="Kjøyrevika" />
		<tag k="natural" v="bay" />
		<tag k="ssr:stedsnr" v="220631" />
	</node>
	<node id="-554660" lat="62.463833333" lon="6.10250000573">
		<tag k="name" v="Storskaret" />
		<tag k="natural" v="valley" />
		<tag k="place" v="locality" />
		<tag k="ssr:stedsnr" v="220627" />
	</node>
	<node id="-554659" lat="62.5058444468" lon="6.23159443911">
		<tag k="alt_name" v="Bunesbukta" />
		<tag k="name" v="Bunesvika" />
		<tag k="natural" v="bay" />
		<tag k="ssr:stedsnr" v="220615" />
	</node>
	<node id="-554658" lat="62.4944138861" lon="6.17648056477">
		<tag k="name" v="Fjellsenden" />
		<tag k="natural" v="ridge" />
		<tag k="place" v="locality" />
		<tag k="ssr:stedsnr" v="220611" />
	</node>
	<node id="-554657" lat="62.4939361116" lon="6.20296944864">
		<tag k="name" v="Klubbeneset" />
		<tag k="natural" v="cape" />
		<tag k="ssr:stedsnr" v="220609" />
	</node>
	<node id="-554656" lat="62.5083638929" lon="6.44344999634">
		<tag k="alt_name" v="Vindsneset" />
		<tag k="name" v="Vindneset" />
		<tag k="natural" v="cape" />
		<tag k="ssr:stedsnr" v="220608" />
	</node>
	<node id="-554655" lat="62.4470277765" lon="6.28939165929">
		<tag k="name" v="Gardvika" />
		<tag k="natural" v="bay" />
		<tag k="ssr:stedsnr" v="219700" />
	</node>
	<node id="-554654" lat="62.4397194478" lon="6.5272555501">
		<tag k="historic" v="shieling" />
		<tag k="name" v="Hessebergsætra" />
		<tag k="place" v="locality" />
		<tag k="ssr:stedsnr" v="219653" />
	</node>
	<node id="-554653" lat="62.4603388903" lon="6.35767221519">
		<tag k="bridge" v="yes" />
		<tag k="layer" v="1" />
		<tag k="name" v="Liljedahlbrua" />
		<tag k="ssr:stedsnr" v="218077" />
	</node>
	<node id="-554652" lat="62.4705194439" lon="6.32388888826">
		<tag k="bridge" v="yes" />
		<tag k="layer" v="1" />
		<tag k="name" v="Nakkevikgangbrua" />
		<tag k="ssr:stedsnr" v="218073" />
	</node>
	<node id="-554651" lat="62.4377420349" lon="6.41672429313">
		<tag k="fixme" v="consider place=hamlet" />
		<tag k="name" v="Eikenosa" />
		<tag k="place" v="farm" />
		<tag k="ssr:stedsnr" v="202319" />
	</node>
	<node id="-554650" lat="62.4687666627" lon="6.24736944309">
		<tag k="name" v="Skuggen" />
		<tag k="place" v="hamlet" />
		<tag k="ssr:stedsnr" v="202315" />
	</node>
	<node id="-554649" lat="62.4226166637" lon="6.37722778446">
		<tag k="name" v="Vågane" />
		<tag k="natural" v="bay" />
		<tag k="ssr:stedsnr" v="202160" />
	</node>
	<node id="-554648" lat="62.4997194485" lon="6.38381666903">
		<tag k="name" v="Årset" />
		<tag k="place" v="farm" />
		<tag k="ssr:stedsnr" v="194226" />
	</node>
	<node id="-554647" lat="62.5159388875" lon="6.27259445217">
		<tag k="name" v="Vågeneset" />
		<tag k="natural" v="cape" />
		<tag k="ssr:stedsnr" v="194172" />
	</node>
	<node id="-554646" lat="62.4950277818" lon="6.17938332767">
		<tag k="alt_name" v="Kverven" />
		<tag k="fixme" v="consider natural=peak for the most distinct mountains in the district" />
		<tag k="name" v="Kverveaksla" />
		<tag k="natural" v="hill" />
		<tag k="place" v="locality" />
		<tag k="ssr:stedsnr" v="193985" />
	</node>
	<node id="-554645" lat="62.4517277802" lon="6.08737500543">
		<tag k="alt_name" v="Bresen" />
		<tag k="name" v="Brisen" />
		<tag k="natural" v="shoal" />
		<tag k="place" v="locality" />
		<tag k="ssr:stedsnr" v="193949" />
	</node>
	<node id="-554644" lat="62.4736027786" lon="6.39693056382">
		<tag k="name" v="Bjørkedalen" />
		<tag k="natural" v="valley" />
		<tag k="place" v="locality" />
		<tag k="ssr:stedsnr" v="193015" />
	</node>
	<node id="-554643" lat="62.4614916668" lon="6.24423611516">
		<tag k="name" v="Ratvika" />
		<tag k="natural" v="bay" />
		<tag k="ssr:stedsnr" v="193006" />
	</node>
	<node id="-554642" lat="62.4722582067" lon="6.15489888405">
		<tag k="name" v="Ålesund" />
		<tag k="place" v="town" />
		<tag k="ssr:stedsnr" v="192945" />
	</node>
	<node id="-554641" lat="62.49120556" lon="6.38912499944">
		<tag k="alt_name" v="Storflua" />
		<tag k="name" v="Storfluda" />
		<tag k="natural" v="shoal" />
		<tag k="place" v="locality" />
		<tag k="ssr:stedsnr" v="192252" />
	</node>
	<node id="-554640" lat="62.492463486" lon="6.29025786814">
		<tag k="alt_name" v="Myklebost" />
		<tag k="fixme" v="consider place=hamlet" />
		<tag k="name" v="Myklebust" />
		<tag k="place" v="farm" />
		<tag k="ssr:stedsnr" v="192216" />
	</node>
	<node id="-554639" lat="62.436425003" lon="6.46631388983">
		<tag k="name" v="Østrem" />
		<tag k="place" v="farm" />
		<tag k="ssr:stedsnr" v="181274" />
	</node>
	<node id="-554638" lat="62.4383583363" lon="6.47134444584">
		<tag k="name" v="Østrem" />
		<tag k="place" v="farm" />
		<tag k="ssr:stedsnr" v="181270" />
	</node>
	<node id="-554637" lat="62.4275444443" lon="6.39710276941">
		<tag k="name" v="Hamnevika" />
		<tag k="natural" v="bay" />
		<tag k="ssr:stedsnr" v="180013" />
	</node>
	<node id="-554636" lat="62.4832111097" lon="6.27119722503">
		<tag k="name" v="Svinøygrunnen" />
		<tag k="natural" v="shoal" />
		<tag k="place" v="locality" />
		<tag k="ssr:stedsnr" v="179166" />
	</node>
	<node id="-554635" lat="62.4704500001" lon="6.27587500851">
		<tag k="name" v="Leirstadurene" />
		<tag k="natural" v="scree" />
		<tag k="ssr:stedsnr" v="179161" />
	</node>
	<node id="-554633" lat="62.4871250018" lon="6.33483333827">
		<tag k="name" v="Lauvholmsundet" />
		<tag k="natural" v="strait" />
		<tag k="ssr:stedsnr" v="178380" />
	</node>
	<node id="-554632" lat="62.469291667" lon="6.12297778507">
		<tag k="name" v="Vasshaug" />
		<tag k="place" v="quarter" />
		<tag k="ssr:stedsnr" v="178019" />
	</node>
	<node id="-554631" lat="62.4825722251" lon="6.14540278098">
		<tag k="name" v="Olsskjerbåen" />
		<tag k="natural" v="shoal" />
		<tag k="place" v="locality" />
		<tag k="ssr:stedsnr" v="172855" />
	</node>
	<node id="-554630" lat="62.4812500014" lon="6.28628610249">
		<tag k="name" v="Indre Svinøysundet" />
		<tag k="natural" v="strait" />
		<tag k="ssr:stedsnr" v="172481" />
	</node>
	<node id="-554629" lat="62.5072361099" lon="6.33393054842">
		<tag k="name" v="Krokane" />
		<tag k="natural" v="bay" />
		<tag k="ssr:stedsnr" v="172358" />
	</node>
	<node id="-554628" lat="62.4791888896" lon="6.18804166914">
		<tag k="name" v="Siem" />
		<tag k="place" v="isolated_dwelling" />
		<tag k="ssr:stedsnr" v="165222" />
	</node>
	<node id="-554627" lat="62.4648611086" lon="6.39524999548">
		<tag k="bridge" v="yes" />
		<tag k="layer" v="1" />
		<tag k="name" v="Årsetelvbrua" />
		<tag k="ssr:stedsnr" v="162040" />
	</node>
	<node id="-554626" lat="62.4358361069" lon="6.44929166937">
		<tag k="bridge" v="yes" />
		<tag k="layer" v="1" />
		<tag k="name" v="Ebbebrua" />
		<tag k="ssr:stedsnr" v="162027" />
	</node>
	<node id="-554625" lat="62.4726750031" lon="6.2336583347">
		<tag k="amenity" v="school" />
		<tag k="name" v="Fagskolen i Ålesund" />
		<tag k="ssr:stedsnr" v="161196" />
	</node>
	<node id="-554624" lat="62.4670527741" lon="6.41786110357">
		<tag k="name" v="Uraneset" />
		<tag k="natural" v="cape" />
		<tag k="ssr:stedsnr" v="159971" />
	</node>
	<node id="-554623" lat="62.4764499999" lon="6.17933332639">
		<tag k="name" v="Rundskue" />
		<tag k="ssr:stedsnr" v="159969" />
		<tag k="tourism" v="viewpoint" />
	</node>
	<node id="-554622" lat="62.5073194463" lon="6.43432778092">
		<tag k="name" v="Leirvika" />
		<tag k="natural" v="bay" />
		<tag k="ssr:stedsnr" v="159963" />
	</node>
	<node id="-554621" lat="62.5015972232" lon="6.24387499435">
		<tag k="fixme" v="consider natural=peak for the most distinct mountains in the district" />
		<tag k="name" v="Nøringen" />
		<tag k="natural" v="hill" />
		<tag k="place" v="locality" />
		<tag k="ssr:stedsnr" v="159958" />
	</node>
	<node id="-554620" lat="62.4375965706" lon="6.34699327625">
		<tag k="alt_name" v="Vegsundrabben" />
		<tag k="fixme" v="consider place=hamlet" />
		<tag k="name" v="Rabben" />
		<tag k="place" v="farm" />
		<tag k="ssr:stedsnr" v="159956" />
	</node>
	<node id="-554619" lat="62.4332888934" lon="6.30674444729">
		<tag k="name" v="Glettneset" />
		<tag k="natural" v="cape" />
		<tag k="ssr:stedsnr" v="159951" />
	</node>
	<node id="-554618" lat="62.4332638923" lon="6.33660278683">
		<tag k="alt_name" v="Hatleneset" />
		<tag k="name" v="Hatlabakkneset" />
		<tag k="natural" v="cape" />
		<tag k="ssr:stedsnr" v="159944" />
	</node>
	<node id="-554617" lat="62.4721666711" lon="6.22941944145">
		<tag k="cemetery" v="grave" />
		<tag k="name" v="Nørve kirkegård" />
		<tag k="place" v="locality" />
		<tag k="ssr:stedsnr" v="159935" />
	</node>
	<node id="-554616" lat="62.48986667" lon="6.41193333986">
		<tag k="name" v="Skjervikbukta" />
		<tag k="natural" v="bay" />
		<tag k="ssr:stedsnr" v="159728" />
	</node>
	<node id="-554615" lat="62.4637416624" lon="6.12231110286">
		<tag k="name" v="Vikaneset" />
		<tag k="natural" v="cape" />
		<tag k="ssr:stedsnr" v="159717" />
	</node>
	<node id="-554614" lat="62.4979611155" lon="6.324086114">
		<tag k="name" v="Vikedalen" />
		<tag k="natural" v="valley" />
		<tag k="place" v="locality" />
		<tag k="ssr:stedsnr" v="159596" />
	</node>
	<node id="-554613" lat="62.4858638894" lon="6.31368610912">
		<tag k="fixme" v="consider seamark:type=rock or natural=shoal" />
		<tag k="name" v="Kalvøyskjeret" />
		<tag k="place" v="islet" />
		<tag k="ssr:stedsnr" v="159591" />
	</node>
	<node id="-554612" lat="62.4918888857" lon="6.34950000999">
		<tag k="name" v="Søre Bjørgeholmsundet" />
		<tag k="natural" v="strait" />
		<tag k="ssr:stedsnr" v="159589" />
	</node>
	<node id="-554611" lat="62.4946638921" lon="6.29504444197">
		<tag k="name" v="Myklebustura" />
		<tag k="natural" v="scree" />
		<tag k="ssr:stedsnr" v="159575" />
	</node>
	<node id="-554610" lat="62.4931277797" lon="6.25060278045">
		<tag k="name" v="Leiteneset" />
		<tag k="natural" v="cape" />
		<tag k="ssr:stedsnr" v="159568" />
	</node>
	<node id="-554609" lat="62.510441669" lon="6.28124166665">
		<tag k="fixme" v="consider natural=peak for the most distinct mountains in the district" />
		<tag k="name" v="Lorgjanakken" />
		<tag k="natural" v="hill" />
		<tag k="place" v="locality" />
		<tag k="ssr:stedsnr" v="159557" />
	</node>
	<node id="-554608" lat="62.4390583367" lon="6.36154999121">
		<tag k="name" v="Holmevatnet" />
		<tag k="natural" v="water" />
		<tag k="ssr:stedsnr" v="159684" />
	</node>
	<node id="-554607" lat="62.4604555558" lon="6.38855277823">
		<tag k="name" v="Myrnakken" />
		<tag k="natural" v="ridge" />
		<tag k="place" v="locality" />
		<tag k="ssr:stedsnr" v="159635" />
	</node>
	<node id="-554606" lat="62.5145980235" lon="6.45453601805">
		<tag k="fixme" v="consider place=hamlet" />
		<tag k="name" v="Taftesund" />
		<tag k="place" v="farm" />
		<tag k="ssr:stedsnr" v="159624" />
	</node>
	<node id="-554605" lat="62.488172219" lon="6.43481944683">
		<tag k="fixme" v="consider natural=peak for the most distinct mountains in the district" />
		<tag k="name" v="Hollnakken" />
		<tag k="natural" v="hill" />
		<tag k="place" v="locality" />
		<tag k="ssr:stedsnr" v="159621" />
	</node>
	<node id="-554604" lat="62.5106555576" lon="6.28796111834">
		<tag k="name" v="Mørkeskogen" />
		<tag k="place" v="locality" />
		<tag k="ssr:stedsnr" v="159617" />
	</node>
	<node id="-554603" lat="62.4417777743" lon="6.32954167503">
		<tag k="name" v="Jaktevika" />
		<tag k="natural" v="bay" />
		<tag k="ssr:stedsnr" v="159607" />
	</node>
	<node id="-554602" lat="62.456875313" lon="6.13275847281">
		<tag k="name" v="Naustberget" />
		<tag k="natural" v="hill" />
		<tag k="place" v="locality" />
		<tag k="ssr:stedsnr" v="158680" />
	</node>
	<node id="-554601" lat="62.4404805522" lon="6.36258611688">
		<tag k="bridge" v="yes" />
		<tag k="layer" v="1" />
		<tag k="name" v="Heimdalsbrua" />
		<tag k="ssr:stedsnr" v="157382" />
	</node>
	<node id="-554600" lat="62.436569442" lon="6.44452500217">
		<tag k="layer" v="-1" />
		<tag k="name" v="Skillingsgardundergangen" />
		<tag k="ssr:stedsnr" v="157037" />
		<tag k="tunnel" v="yes" />
	</node>
	<node id="-554599" lat="62.470394447" lon="6.20081667031">
		<tag k="bridge" v="yes" />
		<tag k="layer" v="1" />
		<tag k="name" v="Nørvebrua" />
		<tag k="ssr:stedsnr" v="157014" />
	</node>
	<node id="-554598" lat="62.4345416683" lon="6.39981388703">
		<tag k="bridge" v="yes" />
		<tag k="layer" v="1" />
		<tag k="name" v="Hatleholgangbrua" />
		<tag k="ssr:stedsnr" v="157011" />
	</node>
	<node id="-554596" lat="62.4922250031" lon="6.1763472133">
		<tag k="layer" v="-1" />
		<tag k="name" v="Valderøytunnelen" />
		<tag k="ssr:stedsnr" v="148347" />
		<tag k="tunnel" v="yes" />
	</node>
	<node id="-554595" lat="62.4772249999" lon="6.37388055845">
		<tag k="fixme" v="consider place=suburb, village or hamlet" />
		<tag k="name" v="Olsvika" />
		<tag k="place" v="quarter" />
		<tag k="ssr:stedsnr" v="146125" />
	</node>
	<node id="-554594" lat="62.5090055548" lon="6.41612776851">
		<tag k="name" v="Stokkemyrane" />
		<tag k="natural" v="wetland" />
		<tag k="ssr:stedsnr" v="133139" />
	</node>
	<node id="-554593" lat="62.4520277793" lon="6.11218611602">
		<tag k="alt_name" v="Korsflua" />
		<tag k="name" v="Korsfluda" />
		<tag k="natural" v="shoal" />
		<tag k="place" v="locality" />
		<tag k="ssr:stedsnr" v="132949" />
	</node>
	<node id="-554592" lat="62.455499998" lon="6.43091389106">
		<tag k="alt_name" v="Blindheimsvatnet" />
		<tag k="loc_name" v="Strøkevatnet" />
		<tag k="name" v="Strokevatnet" />
		<tag k="natural" v="water" />
		<tag k="ssr:stedsnr" v="132043" />
	</node>
	<node id="-554591" lat="62.462816665" lon="6.33733055006">
		<tag k="fixme" v="consider place=suburb, village or hamlet" />
		<tag k="loc_name" v="Furumyra" />
		<tag k="name" v="Furmyra" />
		<tag k="place" v="quarter" />
		<tag k="ssr:stedsnr" v="132005" />
	</node>
	<node id="-554590" lat="62.4640695558" lon="6.3738424411">
		<tag k="name" v="Lillevatnet" />
		<tag k="natural" v="water" />
		<tag k="ssr:stedsnr" v="132003" />
	</node>
	<node id="-554589" lat="62.4534472201" lon="6.1027000036">
		<tag k="name" v="Kvalen" />
		<tag k="place" v="islet" />
		<tag k="ssr:stedsnr" v="131964" />
	</node>
	<node id="-554588" lat="62.4496444427" lon="6.34738332547">
		<tag k="name" v="Remvika" />
		<tag k="natural" v="bay" />
		<tag k="ssr:stedsnr" v="119108" />
	</node>
	<node id="-554587" lat="62.442308333" lon="6.33389999834">
		<tag k="fixme" v="consider seamark:type=rock or natural=shoal" />
		<tag k="name" v="Tørleskjera" />
		<tag k="place" v="islet" />
		<tag k="ssr:stedsnr" v="119103" />
	</node>
	<node id="-554586" lat="62.48888056" lon="6.27310556099">
		<tag k="name" v="Kvalsteinflua" />
		<tag k="natural" v="shoal" />
		<tag k="place" v="locality" />
		<tag k="ssr:stedsnr" v="117408" />
	</node>
	<node id="-554585" lat="62.4637555552" lon="6.20629444686">
		<tag k="fixme" v="consider seamark:type=rock or natural=shoal" />
		<tag k="name" v="Purka" />
		<tag k="place" v="islet" />
		<tag k="ssr:stedsnr" v="117283" />
	</node>
	<node id="-554584" lat="62.4713453409" lon="6.20558033243">
		<tag k="fixme" v="consider place=hamlet" />
		<tag k="loc_name" v="Lillenørve" />
		<tag k="name" v="Litle Nørve" />
		<tag k="place" v="farm" />
		<tag k="ssr:stedsnr" v="117280" />
	</node>
	<node id="-554583" lat="62.4596499976" lon="6.25507500074">
		<tag k="name" v="Bogneset" />
		<tag k="place" v="isolated_dwelling" />
		<tag k="ssr:stedsnr" v="117140" />
	</node>
	<node id="-554582" lat="62.463519448" lon="6.25361388176">
		<tag k="fixme" v="consider natural=beach + surface=sand" />
		<tag k="leisure" v="swimming_area" />
		<tag k="name" v="Prinsen friluftsbad" />
		<tag k="place" v="locality" />
		<tag k="ssr:stedsnr" v="117138" />
	</node>
	<node id="-554581" lat="62.4597249977" lon="6.15095834324">
		<tag k="name" v="Olsvikskaret" />
		<tag k="natural" v="valley" />
		<tag k="place" v="locality" />
		<tag k="ssr:stedsnr" v="117042" />
	</node>
	<node id="-554580" lat="62.4458972235" lon="6.35343333916">
		<tag k="name" v="Breivika" />
		<tag k="natural" v="bay" />
		<tag k="ssr:stedsnr" v="112790" />
	</node>
	<node id="-554579" lat="62.4919166686" lon="6.278149991">
		<tag k="bridge" v="yes" />
		<tag k="layer" v="1" />
		<tag k="name" v="Kvalsteinbrua" />
		<tag k="ssr:stedsnr" v="101023" />
	</node>
	<node id="-554578" lat="62.4285750038" lon="6.41201110933">
		<tag k="bridge" v="yes" />
		<tag k="layer" v="1" />
		<tag k="name" v="Flisnesgangbrua" />
		<tag k="ssr:stedsnr" v="101021" />
	</node>
	<node id="-554576" lat="62.4406444404" lon="6.51719721434">
		<tag k="name" v="Eiteråa" />
		<tag k="ssr:stedsnr" v="99942" />
		<tag k="waterway" v="stream" />
	</node>
	<node id="-554575" lat="62.4653972218" lon="6.26743610282">
		<tag k="name" v="Ratvikvatnet" />
		<tag k="natural" v="water" />
		<tag k="ssr:stedsnr" v="99689" />
		<tag k="water" v="lake" />
	</node>
	<node id="-554574" lat="62.4759666704" lon="6.19858055542">
		<tag k="man_made" v="tower" />
		<tag k="name" v="Ålesund radio" />
		<tag k="ssr:stedsnr" v="99603" />
		<tag k="tower:type" v="communications" />
	</node>
	<node id="-554573" lat="62.4304333309" lon="6.46795834071">
		<tag k="name" v="Ospavika" />
		<tag k="natural" v="bay" />
		<tag k="ssr:stedsnr" v="98996" />
	</node>
	<node id="-554572" lat="62.4440194441" lon="6.37555556189">
		<tag k="name" v="Stigen" />
		<tag k="natural" v="valley" />
		<tag k="place" v="locality" />
		<tag k="ssr:stedsnr" v="98988" />
	</node>
	<node id="-554571" lat="62.4686527775" lon="6.22449444673">
		<tag k="name" v="Sørneset" />
		<tag k="natural" v="cape" />
		<tag k="ssr:stedsnr" v="98955" />
	</node>
	<node id="-554570" lat="62.4980444401" lon="6.17868888823">
		<tag k="name" v="Moldvika" />
		<tag k="natural" v="bay" />
		<tag k="ssr:stedsnr" v="98946" />
	</node>
	<node id="-554569" lat="62.4407722233" lon="6.39654165817">
		<tag k="name" v="Byteelva" />
		<tag k="ssr:stedsnr" v="98941" />
		<tag k="waterway" v="stream" />
	</node>
	<node id="-554568" lat="62.4641222245" lon="6.41185832502">
		<tag k="name" v="Storura" />
		<tag k="natural" v="scree" />
		<tag k="ssr:stedsnr" v="98937" />
	</node>
	<node id="-554567" lat="62.4451722241" lon="6.42041110827">
		<tag k="name" v="Sætredalen" />
		<tag k="natural" v="valley" />
		<tag k="place" v="locality" />
		<tag k="ssr:stedsnr" v="98630" />
	</node>
	<node id="-554566" lat="62.4454305541" lon="6.37536944737">
		<tag k="name" v="Søre Nakken" />
		<tag k="natural" v="ridge" />
		<tag k="place" v="locality" />
		<tag k="ssr:stedsnr" v="98629" />
	</node>
	<node id="-554565" lat="62.4451555512" lon="6.40592499429">
		<tag k="historic" v="shieling" />
		<tag k="name" v="Rabbesætra" />
		<tag k="place" v="locality" />
		<tag k="ssr:stedsnr" v="98626" />
	</node>
	<node id="-554564" lat="62.4219861099" lon="6.38588889402">
		<tag k="name" v="Grøtvikneset" />
		<tag k="natural" v="cape" />
		<tag k="ssr:stedsnr" v="98551" />
	</node>
	<node id="-554563" lat="62.4936166663" lon="6.23825556331">
		<tag k="name" v="Storholmen" />
		<tag k="place" v="islet" />
		<tag k="ssr:stedsnr" v="98545" />
	</node>
	<node id="-554562" lat="62.4459194464" lon="6.38615277788">
		<tag k="name" v="Svarthammaren" />
		<tag k="natural" v="cliff" />
		<tag k="ssr:stedsnr" v="98625" />
	</node>
	<node id="-554561" lat="62.452372222" lon="6.41093889003">
		<tag k="name" v="Middagsskaret" />
		<tag k="natural" v="valley" />
		<tag k="place" v="locality" />
		<tag k="ssr:stedsnr" v="98623" />
	</node>
	<node id="-554560" lat="62.435933337" lon="6.50776667382">
		<tag k="name" v="Magerholmdalen" />
		<tag k="natural" v="valley" />
		<tag k="place" v="locality" />
		<tag k="ssr:stedsnr" v="98610" />
	</node>
	<node id="-554559" lat="62.437013889" lon="6.49973055862">
		<tag k="name" v="Skallehammaren" />
		<tag k="natural" v="cliff" />
		<tag k="ssr:stedsnr" v="98611" />
	</node>
	<node id="-554558" lat="62.4662972198" lon="6.22378056089">
		<tag k="name" v="Borgundgavlen" />
		<tag k="place" v="locality" />
		<tag k="ssr:stedsnr" v="98602" />
	</node>
	<node id="-554557" lat="62.4771722196" lon="6.38382500103">
		<tag k="name" v="Olsvikdalane" />
		<tag k="natural" v="valley" />
		<tag k="place" v="locality" />
		<tag k="ssr:stedsnr" v="98576" />
	</node>
	<node id="-554556" lat="62.4721083357" lon="6.1569194377">
		<tag k="name" v="Ålesund museum" />
		<tag k="ssr:stedsnr" v="98572" />
		<tag k="tourism" v="attraction" />
	</node>
	<node id="-554555" lat="62.4957083297" lon="6.19058055413">
		<tag k="name" v="Fjellsmyra" />
		<tag k="natural" v="wetland" />
		<tag k="ssr:stedsnr" v="98569" />
	</node>
	<node id="-554554" lat="62.4410944443" lon="6.3895638961">
		<tag k="name" v="Ospadalen" />
		<tag k="natural" v="valley" />
		<tag k="place" v="locality" />
		<tag k="ssr:stedsnr" v="98563" />
	</node>
	<node id="-554553" lat="62.4626333296" lon="6.30378333179">
		<tag k="fixme" v="consider place=suburb, village or hamlet" />
		<tag k="name" v="Åsestranda" />
		<tag k="place" v="quarter" />
		<tag k="ssr:stedsnr" v="98560" />
	</node>
	<node id="-554552" lat="62.4988944444" lon="6.30044722463">
		<tag k="fixme" v="consider natural=peak for the most distinct mountains in the district" />
		<tag k="name" v="Storfarhaugen" />
		<tag k="natural" v="hill" />
		<tag k="place" v="locality" />
		<tag k="ssr:stedsnr" v="98557" />
	</node>
	<node id="-554551" lat="62.4722194402" lon="6.49208054708">
		<tag k="name" v="Vasstrandlia" />
		<tag k="natural" v="slope" />
		<tag k="place" v="locality" />
		<tag k="ssr:stedsnr" v="98553" />
	</node>
	<node id="-554550" lat="62.4346815665" lon="6.30721247938">
		<tag k="alt_name" v="Ytste Hanken" />
		<tag k="fixme" v="consider place=hamlet" />
		<tag k="name" v="Hanken" />
		<tag k="place" v="farm" />
		<tag k="ssr:stedsnr" v="98032" />
	</node>
	<node id="-554549" lat="62.445411113" lon="6.27356388446">
		<tag k="name" v="Buneset" />
		<tag k="natural" v="cape" />
		<tag k="ssr:stedsnr" v="97692" />
	</node>
	<node id="-554548" lat="62.4411611154" lon="6.37812222837">
		<tag k="layer" v="-1" />
		<tag k="name" v="Syvermarkundergangen" />
		<tag k="ssr:stedsnr" v="97053" />
		<tag k="tunnel" v="yes" />
	</node>
	<node id="-554547" lat="62.4356194423" lon="6.45314722522">
		<tag k="layer" v="-1" />
		<tag k="name" v="Storebruundergangen" />
		<tag k="ssr:stedsnr" v="97054" />
		<tag k="tunnel" v="yes" />
	</node>
	<node id="-554546" lat="62.4345055529" lon="6.35030833011">
		<tag k="amenity" v="nursing_home" />
		<tag k="name" v="Vegsund psykiatriske senter" />
		<tag k="old_name" v="Vegsund Pleieheim" />
		<tag k="ssr:stedsnr" v="97638" />
	</node>
	<node id="-554545" lat="62.4680694467" lon="6.27149443989">
		<tag k="layer" v="-1" />
		<tag k="name" v="Lerstadundergangen" />
		<tag k="ssr:stedsnr" v="96488" />
		<tag k="tunnel" v="yes" />
	</node>
	<node id="-554544" lat="62.4366388866" lon="6.35076388823">
		<tag k="name" v="Lilleberget" />
		<tag k="place" v="farm" />
		<tag k="ssr:stedsnr" v="92187" />
	</node>
	<node id="-554543" lat="62.4718138873" lon="6.23856944223">
		<tag k="name" v="Djupvikvatnet" />
		<tag k="natural" v="water" />
		<tag k="ssr:stedsnr" v="88922" />
		<tag k="water" v="lake" />
	</node>
	<node id="-554542" lat="62.5110666634" lon="6.3912194523">
		<tag k="name" v="Årsetvika" />
		<tag k="natural" v="bay" />
		<tag k="ssr:stedsnr" v="81941" />
	</node>
	<node id="-554541" lat="62.4709027786" lon="6.13493056366">
		<tag k="bridge" v="yes" />
		<tag k="layer" v="1" />
		<tag k="name" v="Brooklynbroa" />
		<tag k="ssr:stedsnr" v="80034" />
	</node>
	<node id="-554540" lat="62.5076444436" lon="6.24310277772">
		<tag k="name" v="Hestehoven" />
		<tag k="natural" v="hill" />
		<tag k="place" v="locality" />
		<tag k="ssr:stedsnr" v="72127" />
	</node>
	<node id="-554539" lat="62.5009305574" lon="6.23647777217">
		<tag k="name" v="Botnen" />
		<tag k="place" v="farm" />
		<tag k="ssr:stedsnr" v="72124" />
	</node>
	<node id="-554538" lat="62.4521916682" lon="6.47259722353">
		<tag k="historic" v="shieling" />
		<tag k="name" v="Emblemssætra" />
		<tag k="place" v="locality" />
		<tag k="ssr:stedsnr" v="72056" />
	</node>
	<node id="-554537" lat="62.4361638928" lon="6.43598332402">
		<tag k="name" v="Emblem" />
		<tag k="place" v="hamlet" />
		<tag k="ssr:stedsnr" v="72041" />
	</node>
	<node id="-554536" lat="62.493727776" lon="6.36183611644">
		<tag k="name" v="Årsetvågen" />
		<tag k="natural" v="bay" />
		<tag k="ssr:stedsnr" v="71262" />
	</node>
	<node id="-554535" lat="62.4881972244" lon="6.33545277572">
		<tag k="name" v="Lauvholmen" />
		<tag k="place" v="islet" />
		<tag k="ssr:stedsnr" v="71255" />
	</node>
	<node id="-554534" lat="62.480565052" lon="6.27437344025">
		<tag k="name" v="Svinøya" />
		<tag k="place" v="islet" />
		<tag k="ssr:stedsnr" v="71250" />
	</node>
	<node id="-554533" lat="62.4942146478" lon="6.2699865563">
		<tag k="fixme" v="consider place=hamlet" />
		<tag k="name" v="Slotsvik" />
		<tag k="place" v="farm" />
		<tag k="ssr:stedsnr" v="71220" />
	</node>
	<node id="-554532" lat="62.4194305523" lon="6.38990276976">
		<tag k="name" v="Flisneset" />
		<tag k="natural" v="cape" />
		<tag k="ssr:stedsnr" v="71064" />
	</node>
	<node id="-554531" lat="62.4999694422" lon="6.38269166441">
		<tag k="name" v="Store Årset" />
		<tag k="place" v="farm" />
		<tag k="ssr:stedsnr" v="60298" />
	</node>
	<node id="-554530" lat="62.4748971663" lon="6.23793492625">
		<tag k="fixme" v="consider place=hamlet" />
		<tag k="name" v="Nørvegjerdet" />
		<tag k="place" v="farm" />
		<tag k="ssr:stedsnr" v="58197" />
	</node>
	<node id="-554529" lat="62.4656831264" lon="6.10684540101">
		<tag k="fixme" v="consider place=hamlet" />
		<tag k="name" v="Skarbø" />
		<tag k="place" v="farm" />
		<tag k="ssr:stedsnr" v="56020" />
	</node>
	<node id="-554528" lat="62.493336113" lon="6.37196944825">
		<tag k="name" v="Åkresvika" />
		<tag k="natural" v="bay" />
		<tag k="ssr:stedsnr" v="54105" />
	</node>
	<node id="-554527" lat="62.4747944467" lon="6.32873332385">
		<tag k="name" v="Ytre Breivika" />
		<tag k="natural" v="bay" />
		<tag k="ssr:stedsnr" v="51974" />
	</node>
	<node id="-554525" lat="62.4423257185" lon="6.35400623964">
		<tag k="fixme" v="consider place=hamlet" />
		<tag k="loc_name" v="Blindheimsneset" />
		<tag k="name" v="Blindheimsnes" />
		<tag k="place" v="farm" />
		<tag k="ssr:stedsnr" v="50992" />
	</node>
	<node id="-554524" lat="62.4334222191" lon="6.35726666064">
		<tag k="bridge" v="yes" />
		<tag k="layer" v="1" />
		<tag k="name" v="Vegsundbrua" />
		<tag k="ssr:stedsnr" v="42006" />
	</node>
	<node id="-554522" lat="62.4325055561" lon="6.39104999179">
		<tag k="layer" v="-1" />
		<tag k="name" v="Ramsvikundergangen" />
		<tag k="ssr:stedsnr" v="41034" />
		<tag k="tunnel" v="yes" />
	</node>
	<node id="-554521" lat="62.470666663" lon="6.16604165814">
		<tag k="name" v="Buholmen" />
		<tag k="place" v="islet" />
		<tag k="ssr:stedsnr" v="38976" />
	</node>
	<node id="-554520" lat="62.4632666624" lon="6.44416944308">
		<tag k="fixme" v="consider natural=peak for the most distinct mountains in the district" />
		<tag k="name" v="Geitnosa" />
		<tag k="natural" v="hill" />
		<tag k="place" v="locality" />
		<tag k="ssr:stedsnr" v="38972" />
	</node>
	<node id="-554519" lat="62.4479944432" lon="6.37504166136">
		<tag k="name" v="Botnen" />
		<tag k="natural" v="valley" />
		<tag k="place" v="locality" />
		<tag k="ssr:stedsnr" v="38969" />
	</node>
	<node id="-554518" lat="62.4596527814" lon="6.40638888743">
		<tag k="name" v="Myrdalen" />
		<tag k="natural" v="valley" />
		<tag k="place" v="locality" />
		<tag k="ssr:stedsnr" v="38968" />
	</node>
	<node id="-554517" lat="62.4904138908" lon="6.42756943467">
		<tag k="name" v="Lia" />
		<tag k="natural" v="slope" />
		<tag k="place" v="locality" />
		<tag k="ssr:stedsnr" v="38966" />
	</node>
	<node id="-554516" lat="62.447955558" lon="6.3669694476">
		<tag k="name" v="Nordre Nakken" />
		<tag k="natural" v="ridge" />
		<tag k="place" v="locality" />
		<tag k="ssr:stedsnr" v="38701" />
	</node>
	<node id="-554515" lat="62.4319361124" lon="6.49333888801">
		<tag k="name" v="Magerholmvik" />
		<tag k="place" v="farm" />
		<tag k="ssr:stedsnr" v="38700" />
	</node>
	<node id="-554514" lat="62.4724500018" lon="6.14143889391">
		<tag k="name" v="Storhaugen" />
		<tag k="natural" v="hill" />
		<tag k="place" v="locality" />
		<tag k="ssr:stedsnr" v="38691" />
	</node>
	<node id="-554513" lat="62.4542916662" lon="6.0931666623">
		<tag k="name" v="Langeneset" />
		<tag k="natural" v="cape" />
		<tag k="ssr:stedsnr" v="38689" />
	</node>
	<node id="-554512" lat="62.4747277747" lon="6.23907777949">
		<tag k="amenity" v="school" />
		<tag k="name" v="Larsgården skole" />
		<tag k="ssr:stedsnr" v="38676" />
	</node>
	<node id="-554511" lat="62.4672638928" lon="6.23786944739">
		<tag k="name" v="Katavågen" />
		<tag k="natural" v="bay" />
		<tag k="ssr:stedsnr" v="38671" />
	</node>
	<node id="-554510" lat="62.4464944464" lon="6.40284999519">
		<tag k="name" v="Blindheimsætra" />
		<tag k="place" v="isolated_dwelling" />
		<tag k="ssr:stedsnr" v="38639" />
	</node>
	<node id="-554509" lat="62.4501083366" lon="6.30281666416">
		<tag k="alt_name" v="Svarteskjera" />
		<tag k="fixme" v="consider seamark:type=rock or natural=shoal" />
		<tag k="name" v="Svarteskjeret" />
		<tag k="place" v="islet" />
		<tag k="ssr:stedsnr" v="38631" />
	</node>
	<node id="-554508" lat="62.428341669" lon="6.44287778327">
		<tag k="fixme" v="consider seamark:type=rock or natural=shoal" />
		<tag k="name" v="Tangskjæret" />
		<tag k="place" v="islet" />
		<tag k="ssr:stedsnr" v="38612" />
	</node>
	<node id="-554507" lat="62.4692694414" lon="6.18060833256">
		<tag k="alt_name" v="Kjerringa" />
		<tag k="name" v="Kjerringodden" />
		<tag k="natural" v="cape" />
		<tag k="ssr:stedsnr" v="38600" />
	</node>
	<node id="-554506" lat="62.4800472236" lon="6.39953611142">
		<tag k="fixme" v="consider natural=peak for the most distinct mountains in the district" />
		<tag k="name" v="Bingsdalsheia" />
		<tag k="natural" v="hill" />
		<tag k="old_name" v="Bringsdalsheia" />
		<tag k="place" v="locality" />
		<tag k="ssr:stedsnr" v="38582" />
	</node>
	<node id="-554505" lat="62.4760333349" lon="6.39507222712">
		<tag k="fixme" v="consider natural=peak for the most distinct mountains in the district" />
		<tag k="name" v="Holsfjellet" />
		<tag k="natural" v="hill" />
		<tag k="place" v="locality" />
		<tag k="ssr:stedsnr" v="38578" />
	</node>
	<node id="-554504" lat="62.5026666659" lon="6.4308750081">
		<tag k="name" v="Kyra" />
		<tag k="place" v="islet" />
		<tag k="ssr:stedsnr" v="38575" />
	</node>
	<node id="-554503" lat="62.4996638893" lon="6.2335916609">
		<tag k="name" v="Botnasanden" />
		<tag k="natural" v="bay" />
		<tag k="ssr:stedsnr" v="38562" />
	</node>
	<node id="-554502" lat="62.5018722243" lon="6.23509721877">
		<tag k="name" v="Straumsvika" />
		<tag k="place" v="farm" />
		<tag k="ssr:stedsnr" v="38560" />
	</node>
	<node id="-554501" lat="62.4358611073" lon="6.50966667555">
		<tag k="name" v="Skurstønakken" />
		<tag k="natural" v="ridge" />
		<tag k="place" v="locality" />
		<tag k="ssr:stedsnr" v="38546" />
	</node>
	<node id="-554500" lat="62.4927972247" lon="6.25389167097">
		<tag k="name" v="Vardehaugen" />
		<tag k="natural" v="hill" />
		<tag k="place" v="locality" />
		<tag k="ssr:stedsnr" v="38518" />
	</node>
	<node id="-554499" lat="62.4378305541" lon="6.35774999335">
		<tag k="amenity" v="school" />
		<tag k="name" v="Blindheim barneskole" />
		<tag k="old_name" v="Blindheim skole" />
		<tag k="ssr:stedsnr" v="36645" />
	</node>
	<node id="-554498" lat="62.4367555557" lon="6.31431111988">
		<tag k="name" v="Grønvika" />
		<tag k="natural" v="bay" />
		<tag k="ssr:stedsnr" v="36643" />
	</node>
	<node id="-554497" lat="62.4695000038" lon="6.10646666958">
		<tag k="name" v="Drevikskaret" />
		<tag k="natural" v="valley" />
		<tag k="place" v="locality" />
		<tag k="ssr:stedsnr" v="36573" />
	</node>
	<node id="-554496" lat="62.4356194477" lon="6.45334166744">
		<tag k="bridge" v="yes" />
		<tag k="layer" v="1" />
		<tag k="name" v="Storebrua" />
		<tag k="ssr:stedsnr" v="36020" />
	</node>
	<node id="-554493" lat="62.4328640381" lon="6.40181796008">
		<tag k="fixme" v="consider place=hamlet" />
		<tag k="name" v="Hatleholen" />
		<tag k="place" v="farm" />
		<tag k="ssr:stedsnr" v="28541" />
	</node>
	<node id="-554492" lat="62.4654611071" lon="6.3470472306">
		<tag k="fixme" v="consider place=suburb, village or hamlet" />
		<tag k="name" v="Moa" />
		<tag k="place" v="quarter" />
		<tag k="ssr:stedsnr" v="28538" />
	</node>
	<node id="-554491" lat="62.4611361129" lon="6.28004166489">
		<tag k="name" v="Hatlane" />
		<tag k="place" v="suburb" />
		<tag k="ssr:stedsnr" v="27979" />
	</node>
	<node id="-554490" lat="62.5139809668" lon="6.30895192754">
		<tag k="fixme" v="consider place=hamlet" />
		<tag k="loc_name" v="Lorga" />
		<tag k="name" v="Lorgja" />
		<tag k="place" v="farm" />
		<tag k="ssr:stedsnr" v="25886" />
	</node>
	<node id="-554489" lat="62.4945388849" lon="6.32888888515">
		<tag k="fixme" v="consider place=suburb, village or hamlet" />
		<tag k="name" v="Vik" />
		<tag k="place" v="quarter" />
		<tag k="ssr:stedsnr" v="25139" />
	</node>
	<node id="-554488" lat="62.4707457008" lon="6.37844828744">
		<tag k="name" v="Fremmerholen" />
		<tag k="old_name" v="Fremmerholmen" />
		<tag k="place" v="farm" />
		<tag k="ssr:stedsnr" v="20319" />
	</node>
	<node id="-554487" lat="62.4855222226" lon="6.37764722301">
		<tag k="name" v="Hovdeneset" />
		<tag k="natural" v="cape" />
		<tag k="ssr:stedsnr" v="20317" />
	</node>
	<node id="-554486" lat="62.4113027739" lon="6.38644999226">
		<tag k="bay" v="fjord" />
		<tag k="name" v="Flisfjorden" />
		<tag k="natural" v="bay" />
		<tag k="ssr:stedsnr" v="20165" />
	</node>
	<node id="-554485" lat="62.5110611106" lon="6.35946666335">
		<tag k="name" v="Trollneset" />
		<tag k="natural" v="cape" />
		<tag k="ssr:stedsnr" v="12185" />
	</node>
	<node id="-554484" lat="62.5035049105" lon="6.40223702713">
		<tag k="fixme" v="consider place=hamlet" />
		<tag k="name" v="Stokke" />
		<tag k="place" v="farm" />
		<tag k="ssr:stedsnr" v="12153" />
	</node>
	<node id="-554483" lat="62.5071527771" lon="6.36360277142">
		<tag k="name" v="Storkleiva" />
		<tag k="natural" v="hill" />
		<tag k="place" v="locality" />
		<tag k="ssr:stedsnr" v="12151" />
	</node>
	<node id="-554482" lat="62.5046722191" lon="6.25001943801">
		<tag k="fixme" v="consider natural=peak for the most distinct mountains in the district" />
		<tag k="name" v="Rørene" />
		<tag k="natural" v="hill" />
		<tag k="place" v="locality" />
		<tag k="ssr:stedsnr" v="12148" />
	</node>
	<node id="-554481" lat="62.4976374237" lon="6.20760711086">
		<tag k="fixme" v="consider place=hamlet" />
		<tag k="name" v="Hov" />
		<tag k="place" v="farm" />
		<tag k="ssr:stedsnr" v="11985" />
	</node>
	<node id="-554480" lat="62.4408786081" lon="6.3156296099">
		<tag k="fixme" v="consider place=hamlet" />
		<tag k="name" v="Tørla" />
		<tag k="place" v="farm" />
		<tag k="ssr:stedsnr" v="11051" />
	</node>
	<node id="-554479" lat="62.4503805519" lon="6.44025278426">
		<tag k="historic" v="shieling" />
		<tag k="name" v="Eikenossætra" />
		<tag k="place" v="locality" />
		<tag k="ssr:stedsnr" v="11049" />
	</node>
	<node id="-554478" lat="62.456708336" lon="6.14627777913">
		<tag k="fixme" v="consider seamark:type=rock or natural=shoal" />
		<tag k="name" v="Tangskjeret" />
		<tag k="place" v="islet" />
		<tag k="ssr:stedsnr" v="10956" />
	</node>
	<node id="-554477" lat="62.4643250019" lon="6.14433054847">
		<tag k="name" v="Aspevågen" />
		<tag k="natural" v="bay" />
		<tag k="ssr:stedsnr" v="10954" />
	</node>
	<node id="-554476" lat="62.4832972195" lon="6.34418056491">
		<tag k="name" v="Fangstholmen" />
		<tag k="place" v="islet" />
		<tag k="ssr:stedsnr" v="10236" />
	</node>
	<node id="-554475" lat="62.4860666691" lon="6.32416943784">
		<tag k="name" v="Vikholmen" />
		<tag k="old_name" v="Lauvholmen" />
		<tag k="place" v="islet" />
		<tag k="ssr:stedsnr" v="10234" />
	</node>
	<node id="-554474" lat="62.47876389" lon="6.28821666309">
		<tag k="fixme" v="consider seamark:type=rock or natural=shoal" />
		<tag k="name" v="Kalvskjeret" />
		<tag k="place" v="islet" />
		<tag k="ssr:stedsnr" v="10232" />
	</node>
	<node id="-554473" lat="62.4763333313" lon="6.34584722419">
		<tag k="name" v="Hestholmen" />
		<tag k="place" v="islet" />
		<tag k="ssr:stedsnr" v="10220" />
	</node>
	<node id="-554472" lat="62.4730138912" lon="6.32537777849">
		<tag k="name" v="Nakken" />
		<tag k="natural" v="cape" />
		<tag k="ssr:stedsnr" v="10217" />
	</node>
	<node id="-554471" lat="62.4286472246" lon="6.38944722462">
		<tag k="name" v="Furholmen" />
		<tag k="place" v="islet" />
		<tag k="ssr:stedsnr" v="10095" />
	</node>
	<node id="-554470" lat="62.4739832867" lon="6.15681386235">
		<tag k="name" v="Per Bolstads plass" />
		<tag k="place" v="square" />
		<tag k="ssr:stedsnr" v="991321" />
	</node>
	<node id="-554469" lat="62.4752311743" lon="6.15633154295">
		<tag k="name" v="Familien Steinfelds plass" />
		<tag k="place" v="square" />
		<tag k="ssr:stedsnr" v="991311" />
	</node>
	<node id="-554468" lat="62.4718777212" lon="6.15177964334">
		<tag k="name" v="Aksel Holms plass" />
		<tag k="place" v="square" />
		<tag k="ssr:stedsnr" v="991310" />
	</node>
	<node id="-554467" lat="62.4629939096" lon="6.36418110195">
		<tag k="leisure" v="park" />
		<tag k="name" v="Mittetparken" />
		<tag k="ssr:stedsnr" v="991309" />
	</node>
	<node id="-554466" lat="62.470660468" lon="6.15331228973">
		<tag k="name" v="Karl Eriksens plass" />
		<tag k="place" v="square" />
		<tag k="ssr:stedsnr" v="991308" />
	</node>
	<node id="-554465" lat="62.4742975524" lon="6.15459604036">
		<tag k="man_made" v="quay" />
		<tag k="name" v="Skateflukaia" />
		<tag k="place" v="locality" />
		<tag k="ssr:stedsnr" v="991304" />
	</node>
	<node id="-554464" lat="62.4698975086" lon="6.14894115614">
		<tag k="man_made" v="quay" />
		<tag k="name" v="Brøggerplana" />
		<tag k="place" v="locality" />
		<tag k="ssr:stedsnr" v="991305" />
	</node>
	<node id="-554463" lat="62.4734451168" lon="6.15331868983">
		<tag k="man_made" v="quay" />
		<tag k="name" v="Brunholmkaia" />
		<tag k="place" v="locality" />
		<tag k="ssr:stedsnr" v="991303" />
	</node>
	<node id="-554462" lat="62.4711580252" lon="6.15128546602">
		<tag k="name" v="Apotekertorget" />
		<tag k="place" v="square" />
		<tag k="ssr:stedsnr" v="991301" />
	</node>
	<node id="-554461" lat="62.472281127" lon="6.14120324488">
		<tag k="name" v="Statsråd Daaes plass" />
		<tag k="place" v="square" />
		<tag k="ssr:stedsnr" v="991300" />
	</node>
	<node id="-554460" lat="62.4696908357" lon="6.12617905148">
		<tag k="name" v="Olav Tryggvasons plass" />
		<tag k="place" v="square" />
		<tag k="ssr:stedsnr" v="991298" />
	</node>
	<node id="-554459" lat="62.4722383214" lon="6.15429881766">
		<tag k="name" v="Dronning Sonjas plass" />
		<tag k="place" v="square" />
		<tag k="ssr:stedsnr" v="991225" />
	</node>
	<node id="-554458" lat="62.4710669691" lon="6.15471948833">
		<tag k="name" v="Joachim H. Rønnebergs plass" />
		<tag k="place" v="square" />
		<tag k="ssr:stedsnr" v="990823" />
	</node>
	<node id="-554456" lat="62.4997067837" lon="6.21572702062">
		<tag k="name" v="Hovlia" />
		<tag k="place" v="quarter" />
		<tag k="ssr:stedsnr" v="987300" />
	</node>
	<node id="-554455" lat="62.4438672612" lon="6.27384569614">
		<tag k="name" v="Humlesundet" />
		<tag k="natural" v="strait" />
		<tag k="ssr:stedsnr" v="703935" />
	</node>
	<node id="-554454" lat="62.4942928777" lon="6.34812453685">
		<tag k="fixme" v="consider place=hamlet" />
		<tag k="name" v="Bjørgeholmen" />
		<tag k="place" v="farm" />
		<tag k="ssr:stedsnr" v="982376" />
	</node>
	<node id="-554453" lat="62.4942406861" lon="6.32718573686">
		<tag k="fixme" v="consider place=hamlet" />
		<tag k="name" v="Vik" />
		<tag k="place" v="farm" />
		<tag k="ssr:stedsnr" v="982375" />
	</node>
	<node id="-554452" lat="62.4808578411" lon="6.27719326712">
		<tag k="fixme" v="consider place=hamlet" />
		<tag k="name" v="Svinøya" />
		<tag k="place" v="farm" />
		<tag k="ssr:stedsnr" v="982374" />
	</node>
	<node id="-554451" lat="62.4873256164" lon="6.34470948355">
		<tag k="fixme" v="consider place=hamlet" />
		<tag k="name" v="Langøya" />
		<tag k="place" v="farm" />
		<tag k="ssr:stedsnr" v="982372" />
	</node>
	<node id="-554450" lat="62.4832788688" lon="6.30670973125">
		<tag k="fixme" v="consider place=hamlet" />
		<tag k="name" v="Lille Kalvøya" />
		<tag k="place" v="farm" />
		<tag k="ssr:stedsnr" v="982371" />
	</node>
	<node id="-554449" lat="62.4640065458" lon="6.19941978388">
		<tag k="name" v="Tyskholmen " />
		<tag k="place" v="locality" />
		<tag k="ssr:stedsnr" v="982362" />
	</node>
	<node id="-554444" lat="62.4695553778" lon="6.11369243015">
		<tag k="name" v="Skarbøvik" />
		<tag k="place" v="locality" />
		<tag k="ssr:stedsnr" v="982355" />
	</node>
	<node id="-554443" lat="62.462575813" lon="6.16473223661">
		<tag k="fixme" v="consider place=hamlet" />
		<tag k="name" v="Slinningen" />
		<tag k="place" v="farm" />
		<tag k="ssr:stedsnr" v="982276" />
	</node>
	<node id="-554441" lat="62.4464720736" lon="6.26932483341">
		<tag k="fixme" v="consider place=hamlet" />
		<tag k="name" v="Kalven" />
		<tag k="place" v="farm" />
		<tag k="ssr:stedsnr" v="982273" />
	</node>
	<node id="-554440" lat="62.4611460403" lon="6.33910519072">
		<tag k="fixme" v="consider place=hamlet" />
		<tag k="name" v="Furmyr" />
		<tag k="place" v="farm" />
		<tag k="ssr:stedsnr" v="982271" />
	</node>
	<node id="-554439" lat="62.4670466086" lon="6.32589083371">
		<tag k="fixme" v="consider place=hamlet" />
		<tag k="name" v="Åse" />
		<tag k="place" v="farm" />
		<tag k="ssr:stedsnr" v="982267" />
	</node>
	<node id="-554438" lat="62.4612698164" lon="6.28820103827">
		<tag k="name" v="Hatlevik" />
		<tag k="place" v="locality" />
		<tag k="ssr:stedsnr" v="982265" />
	</node>
	<node id="-554437" lat="62.459192868" lon="6.2738410094">
		<tag k="name" v="Hatlen" />
		<tag k="place" v="hamlet" />
		<tag k="ssr:stedsnr" v="982263" />
	</node>
	<node id="-554436" lat="62.4646989645" lon="6.25237844923">
		<tag k="fixme" v="consider place=hamlet" />
		<tag k="name" v="Grønvika" />
		<tag k="place" v="farm" />
		<tag k="ssr:stedsnr" v="982262" />
	</node>
	<node id="-554435" lat="62.4653186123" lon="6.23505974745">
		<tag k="fixme" v="consider place=hamlet" />
		<tag k="name" v="Borgund" />
		<tag k="place" v="farm" />
		<tag k="ssr:stedsnr" v="982260" />
	</node>
	<node id="-554434" lat="62.4685699902" lon="6.24345395423">
		<tag k="fixme" v="consider place=hamlet" />
		<tag k="name" v="Skuggen" />
		<tag k="place" v="farm" />
		<tag k="ssr:stedsnr" v="982258" />
	</node>
	<node id="-554433" lat="62.4692937159" lon="6.24476896047">
		<tag k="fixme" v="consider place=hamlet" />
		<tag k="name" v="Skuggeli" />
		<tag k="place" v="farm" />
		<tag k="ssr:stedsnr" v="982256" />
	</node>
	<node id="-554432" lat="62.467750493" lon="6.25219264346">
		<tag k="fixme" v="consider place=hamlet" />
		<tag k="name" v="Gåseid" />
		<tag k="place" v="farm" />
		<tag k="ssr:stedsnr" v="982255" />
	</node>
	<node id="-554431" lat="62.4720295715" lon="6.31656142315">
		<tag k="fixme" v="consider place=hamlet" />
		<tag k="name" v="Nakken" />
		<tag k="place" v="farm" />
		<tag k="ssr:stedsnr" v="982254" />
	</node>
	<node id="-554430" lat="62.4727324277" lon="6.345544052">
		<tag k="fixme" v="consider place=hamlet" />
		<tag k="name" v="Breivika" />
		<tag k="place" v="farm" />
		<tag k="ssr:stedsnr" v="982253" />
	</node>
	<node id="-554429" lat="62.4715508923" lon="6.37813168568">
		<tag k="fixme" v="consider place=hamlet" />
		<tag k="name" v="Holen" />
		<tag k="place" v="farm" />
		<tag k="ssr:stedsnr" v="982251" />
	</node>
	<node id="-554428" lat="62.4563773866" lon="6.36321535872">
		<tag k="fixme" v="consider place=hamlet" />
		<tag k="name" v="Spjelkavik" />
		<tag k="place" v="farm" />
		<tag k="ssr:stedsnr" v="982250" />
	</node>
	<node id="-554427" lat="62.4553640609" lon="6.35423567398">
		<tag k="name" v="Spjelkaviknes" />
		<tag k="place" v="locality" />
		<tag k="ssr:stedsnr" v="982248" />
	</node>
	<node id="-554426" lat="62.4471230696" lon="6.35570757933">
		<tag k="fixme" v="consider place=hamlet" />
		<tag k="name" v="Breivika" />
		<tag k="place" v="farm" />
		<tag k="ssr:stedsnr" v="982246" />
	</node>
	<node id="-554424" lat="62.4189577538" lon="6.37618696796">
		<tag k="alt_name" v="Flisholm" />
		<tag k="name" v="Flisholmen" />
		<tag k="place" v="locality" />
		<tag k="ssr:stedsnr" v="982241" />
	</node>
	<node id="-554423" lat="62.4300607511" lon="6.39425541807">
		<tag k="name" v="Eikenosvågen" />
		<tag k="natural" v="bay" />
		<tag k="ssr:stedsnr" v="982235" />
	</node>
	<node id="-554422" lat="62.4335759965" lon="6.50382135401">
		<tag k="fixme" v="consider place=hamlet" />
		<tag k="name" v="Magerholm" />
		<tag k="place" v="farm" />
		<tag k="ssr:stedsnr" v="982234" />
	</node>
	<node id="-554420" lat="62.4822875051" lon="6.30501068323">
		<tag k="name" v="Lille Kalvøya" />
		<tag k="place" v="farm" />
		<tag k="ssr:stedsnr" v="1073303" />
	</node>
	<node id="-554419" lat="62.481862998" lon="6.30751499702">
		<tag k="name" v="Lille Kalvøya" />
		<tag k="place" v="farm" />
		<tag k="ssr:stedsnr" v="1073301" />
	</node>
	<node id="-554418" lat="62.4755380287" lon="6.20072476532">
		<tag k="name" v="Lillenørve" />
		<tag k="place" v="farm" />
		<tag k="ssr:stedsnr" v="1073300" />
	</node>
	<node id="-554417" lat="62.472358165" lon="6.20758670335">
		<tag k="name" v="Lillenørve" />
		<tag k="place" v="farm" />
		<tag k="ssr:stedsnr" v="1073299" />
	</node>
	<node id="-554416" lat="62.4651765338" lon="6.40266241042">
		<tag k="name" v="Lillestølen" />
		<tag k="place" v="farm" />
		<tag k="ssr:stedsnr" v="1073298" />
	</node>
	<node id="-554412" lat="62.4773350612" lon="6.47152931967">
		<tag k="name" v="Brusdalsvatnet" />
		<tag k="natural" v="water" />
		<tag k="ssr:stedsnr" v="678244" />
		<tag k="water" v="lake" />
	</node>
	<node id="-554408" lat="62.4382333342" lon="6.3434138973">
		<tag k="bridge" v="yes" />
		<tag k="layer" v="1" />
		<tag k="name" v="Tjørsundbrua" />
		<tag k="ssr:stedsnr" v="892004" />
	</node>
	<node id="-554407" lat="62.461572221" lon="6.36067776897">
		<tag k="bridge" v="yes" />
		<tag k="layer" v="1" />
		<tag k="name" v="Puntlærbrua" />
		<tag k="ssr:stedsnr" v="890046" />
	</node>
	<node id="-554406" lat="62.4663249995" lon="6.23969722692">
		<tag k="bridge" v="yes" />
		<tag k="layer" v="1" />
		<tag k="name" v="Katevågbrua" />
		<tag k="ssr:stedsnr" v="890044" />
	</node>
	<node id="-554405" lat="62.4364249964" lon="6.45538333069">
		<tag k="bridge" v="yes" />
		<tag k="layer" v="1" />
		<tag k="name" v="Hjellhaugbrua" />
		<tag k="ssr:stedsnr" v="890036" />
	</node>
	<node id="-554404" lat="62.4649583322" lon="6.34315277895">
		<tag k="junction" v="yes" />
		<tag k="name" v="Vindgårdskiftet" />
		<tag k="place" v="locality" />
		<tag k="ssr:stedsnr" v="888726" />
	</node>
	<node id="-554403" lat="62.469133332" lon="6.11224167326">
		<tag k="name" v="Steinvåg" />
		<tag k="place" v="isolated_dwelling" />
		<tag k="ssr:stedsnr" v="888254" />
	</node>
	<node id="-554402" lat="62.4388083341" lon="6.3340611152">
		<tag k="alt_name" v="Risholmvika" />
		<tag k="name" v="Årvika" />
		<tag k="natural" v="bay" />
		<tag k="ssr:stedsnr" v="887996" />
	</node>
	<node id="-554401" lat="62.4551944448" lon="6.33939444091">
		<tag k="name" v="Knappen" />
		<tag k="place" v="islet" />
		<tag k="ssr:stedsnr" v="887992" />
	</node>
	<node id="-554400" lat="62.4306805531" lon="6.37679166774">
		<tag k="name" v="Sveneset" />
		<tag k="natural" v="cape" />
		<tag k="ssr:stedsnr" v="887990" />
	</node>
	<node id="-554399" lat="62.4697400142" lon="6.2158736148">
		<tag k="alt_name" v="Kolvika" />
		<tag k="name" v="Kollvika" />
		<tag k="natural" v="bay" />
		<tag k="ssr:stedsnr" v="887982" />
	</node>
	<node id="-554398" lat="62.4741416684" lon="6.22790554695">
		<tag k="amenity" v="school" />
		<tag k="name" v="Fagerlia" />
		<tag k="ssr:stedsnr" v="887981" />
	</node>
	<node id="-554397" lat="62.4939972265" lon="6.3828388926">
		<tag k="name" v="Flæna" />
		<tag k="place" v="islet" />
		<tag k="ssr:stedsnr" v="887974" />
	</node>
	<node id="-554396" lat="62.4980444427" lon="6.28087499765">
		<tag k="name" v="Liamyra" />
		<tag k="ssr:stedsnr" v="887966" />
		<tag k="waterway" v="dam" />
	</node>
	<node id="-554395" lat="62.5155083347" lon="6.29235000851">
		<tag k="name" v="Båtvika" />
		<tag k="natural" v="bay" />
		<tag k="ssr:stedsnr" v="887959" />
	</node>
	<node id="-554394" lat="62.4479472221" lon="6.29303055318">
		<tag k="name" v="Krokneset" />
		<tag k="natural" v="cape" />
		<tag k="ssr:stedsnr" v="887944" />
	</node>
	<node id="-554393" lat="62.4730444469" lon="6.25221110967">
		<tag k="name" v="Stabburvågen" />
		<tag k="natural" v="bay" />
		<tag k="ssr:stedsnr" v="887682" />
	</node>
	<node id="-554392" lat="62.4716111079" lon="6.24596667579">
		<tag k="fixme" v="consider natural=peak for the most distinct mountains in the district" />
		<tag k="name" v="Fredsberg" />
		<tag k="natural" v="hill" />
		<tag k="place" v="locality" />
		<tag k="ssr:stedsnr" v="887681" />
	</node>
	<node id="-554391" lat="62.4718000003" lon="6.28823611127">
		<tag k="alt_name" v="Leirstadvika" />
		<tag k="name" v="Lerstadvika" />
		<tag k="natural" v="bay" />
		<tag k="ssr:stedsnr" v="887678" />
	</node>
	<node id="-554390" lat="62.4571555553" lon="6.37339999354">
		<tag k="name" v="Bulegene" />
		<tag k="place" v="locality" />
		<tag k="ssr:stedsnr" v="887630" />
	</node>
	<node id="-554389" lat="62.4536194429" lon="6.37884445003">
		<tag k="name" v="Klipeskarhaugen" />
		<tag k="natural" v="hill" />
		<tag k="place" v="locality" />
		<tag k="ssr:stedsnr" v="887628" />
	</node>
	<node id="-554388" lat="62.446086111" lon="6.44612778608">
		<tag k="name" v="Røssevollelva" />
		<tag k="ssr:stedsnr" v="887613" />
		<tag k="waterway" v="river" />
	</node>
	<node id="-554387" lat="62.4523805512" lon="6.51081388222">
		<tag k="fixme" v="consider highway=path" />
		<tag k="highway" v="track" />
		<tag k="name" v="Sætrevegen" />
		<tag k="ssr:stedsnr" v="887612" />
	</node>
	<node id="-554386" lat="62.4678777799" lon="6.31919722883">
		<tag k="fixme" v="consider natural=peak for the most distinct mountains in the district" />
		<tag k="name" v="Kyrkjehaugen" />
		<tag k="natural" v="hill" />
		<tag k="place" v="locality" />
		<tag k="ssr:stedsnr" v="887608" />
	</node>
	<node id="-554385" lat="62.4311138928" lon="6.43228610565">
		<tag k="name" v="Osehaugen" />
		<tag k="place" v="farm" />
		<tag k="ssr:stedsnr" v="887609" />
	</node>
	<node id="-554384" lat="62.4778055574" lon="6.19708332363">
		<tag k="name" v="Storvika" />
		<tag k="natural" v="bay" />
		<tag k="ssr:stedsnr" v="887595" />
	</node>
	<node id="-554383" lat="62.4643361123" lon="6.28830833754">
		<tag k="alt_name" v="Hatleåsen" />
		<tag k="fixme" v="consider natural=peak for the most distinct mountains in the district" />
		<tag k="name" v="Hatlaåsen" />
		<tag k="natural" v="hill" />
		<tag k="place" v="locality" />
		<tag k="ssr:stedsnr" v="887591" />
	</node>
	<node id="-554382" lat="62.4398916651" lon="6.33563334253">
		<tag k="name" v="Risholmen" />
		<tag k="place" v="islet" />
		<tag k="ssr:stedsnr" v="887586" />
	</node>
	<node id="-554381" lat="62.4381138846" lon="6.34014167576">
		<tag k="alt_name" v="Snutholmen" />
		<tag k="name" v="Tjørsundholmen" />
		<tag k="place" v="islet" />
		<tag k="ssr:stedsnr" v="887584" />
	</node>
	<node id="-554380" lat="62.4569222214" lon="6.35039722411">
		<tag k="name" v="Spjelkavikneset" />
		<tag k="natural" v="cape" />
		<tag k="ssr:stedsnr" v="887583" />
	</node>
	<node id="-554379" lat="62.4743836518" lon="6.36411262635">
		<tag k="fixme" v="consider place=hamlet" />
		<tag k="name" v="Olsvikfeta" />
		<tag k="place" v="farm" />
		<tag k="ssr:stedsnr" v="887581" />
	</node>
	<node id="-554378" lat="62.4505861152" lon="6.35727776919">
		<tag k="name" v="Skothaugen" />
		<tag k="natural" v="hill" />
		<tag k="place" v="locality" />
		<tag k="ssr:stedsnr" v="887582" />
	</node>
	<node id="-554377" lat="62.4741527775" lon="6.38217221399">
		<tag k="fixme" v="consider natural=peak for the most distinct mountains in the district" />
		<tag k="name" v="Skothaugen" />
		<tag k="natural" v="hill" />
		<tag k="place" v="locality" />
		<tag k="ssr:stedsnr" v="887578" />
	</node>
	<node id="-554376" lat="62.4526083324" lon="6.46724722325">
		<tag k="name" v="Breiskaret" />
		<tag k="natural" v="valley" />
		<tag k="place" v="locality" />
		<tag k="ssr:stedsnr" v="887563" />
	</node>
	<node id="-554375" lat="62.4521222256" lon="6.46293055115">
		<tag k="name" v="Breiskarnakken" />
		<tag k="natural" v="hill" />
		<tag k="place" v="locality" />
		<tag k="ssr:stedsnr" v="887562" />
	</node>
	<node id="-554374" lat="62.4595861134" lon="6.36617222946">
		<tag k="name" v="Skoghaugen" />
		<tag k="natural" v="hill" />
		<tag k="place" v="locality" />
		<tag k="ssr:stedsnr" v="887557" />
	</node>
	<node id="-554373" lat="62.4714222258" lon="6.36869165859">
		<tag k="name" v="Ytterholen" />
		<tag k="place" v="farm" />
		<tag k="ssr:stedsnr" v="887553" />
	</node>
	<node id="-554372" lat="62.4947138881" lon="6.24315833412">
		<tag k="alt_name" v="Grytebostvika" />
		<tag k="name" v="Grytebustvika" />
		<tag k="natural" v="bay" />
		<tag k="ssr:stedsnr" v="887550" />
	</node>
	<node id="-554371" lat="62.4954694447" lon="6.34651667521">
		<tag k="name" v="Nordre Bjørgeholmsundet" />
		<tag k="natural" v="strait" />
		<tag k="ssr:stedsnr" v="887543" />
	</node>
	<node id="-554370" lat="62.4188138863" lon="6.39501388921">
		<tag k="name" v="Bjønnavika" />
		<tag k="natural" v="bay" />
		<tag k="ssr:stedsnr" v="887539" />
	</node>
	<node id="-554369" lat="62.4966638927" lon="6.25074443539">
		<tag k="name" v="Grytebustelva" />
		<tag k="ssr:stedsnr" v="887537" />
		<tag k="waterway" v="stream" />
	</node>
	<node id="-554368" lat="62.4377250011" lon="6.31408888549">
		<tag k="name" v="Tørlevågen" />
		<tag k="natural" v="bay" />
		<tag k="ssr:stedsnr" v="886691" />
	</node>
	<node id="-554367" lat="62.4709083362" lon="6.23751388602">
		<tag k="layer" v="-1" />
		<tag k="name" v="Nørvasundundergangen" />
		<tag k="ssr:stedsnr" v="886043" />
		<tag k="tunnel" v="yes" />
	</node>
	<node id="-554366" lat="62.4701472181" lon="6.24359722975">
		<tag k="bridge" v="yes" />
		<tag k="layer" v="1" />
		<tag k="name" v="Nørvasundbrua" />
		<tag k="ssr:stedsnr" v="886027" />
	</node>
	<node id="-554364" lat="62.5142083356" lon="6.41626110688">
		<tag k="name" v="Stokkevika" />
		<tag k="natural" v="bay" />
		<tag k="ssr:stedsnr" v="476410" />
	</node>
	<node id="-554363" lat="62.5067993673" lon="6.31920626038">
		<tag k="name" v="Volstad" />
		<tag k="place" v="hamlet" />
		<tag k="ssr:stedsnr" v="254107" />
	</node>
	<node id="-554362" lat="62.4661666665" lon="6.29606944992">
		<tag k="layer" v="-1" />
		<tag k="name" v="Hatlaåstunnelen" />
		<tag k="ssr:stedsnr" v="407002" />
		<tag k="tunnel" v="yes" />
	</node>
	<node id="-554361" lat="62.4795777803" lon="6.18730555701">
		<tag k="landuse" v="harbour" />
		<tag k="name" v="Flatholmen havn" />
		<tag k="seamark:type" v="harbour" />
		<tag k="ssr:stedsnr" v="404677" />
	</node>
	<node id="-554360" lat="62.4422111146" lon="6.4764555622">
		<tag k="highway" v="path" />
		<tag k="name" v="Sætervegen" />
		<tag k="ssr:stedsnr" v="402941" />
	</node>
	<node id="-554359" lat="62.4673499974" lon="6.50477221832">
		<tag k="name" v="Gråsteinsegga" />
		<tag k="natural" v="ridge" />
		<tag k="place" v="locality" />
		<tag k="ssr:stedsnr" v="402722" />
	</node>
	<node id="-554358" lat="62.4702611128" lon="6.10601389291">
		<tag k="fixme" v="consider natural=peak for the most distinct mountains in the district" />
		<tag k="name" v="Storhaugen" />
		<tag k="natural" v="hill" />
		<tag k="place" v="locality" />
		<tag k="ssr:stedsnr" v="402714" />
	</node>
	<node id="-554357" lat="62.474213891" lon="6.1697750092">
		<tag k="name" v="Nørvøya" />
		<tag k="place" v="island" />
		<tag k="ssr:stedsnr" v="402706" />
	</node>
	<node id="-554356" lat="62.4492527768" lon="6.36604443487">
		<tag k="name" v="Langdalen" />
		<tag k="natural" v="valley" />
		<tag k="place" v="locality" />
		<tag k="ssr:stedsnr" v="402654" />
	</node>
	<node id="-554355" lat="62.4325812435" lon="6.43046886528">
		<tag k="fixme" v="consider place=hamlet" />
		<tag k="name" v="Emblemsvåg" />
		<tag k="place" v="farm" />
		<tag k="ssr:stedsnr" v="402642" />
	</node>
	<node id="-554354" lat="62.430519447" lon="6.43898888258">
		<tag k="name" v="Emblemssanden" />
		<tag k="natural" v="beach" />
		<tag k="place" v="locality" />
		<tag k="ssr:stedsnr" v="402637" />
	</node>
	<node id="-554353" lat="62.4699638932" lon="6.18186666536">
		<tag k="name" v="Volsdalsvågen" />
		<tag k="natural" v="bay" />
		<tag k="ssr:stedsnr" v="402625" />
	</node>
	<node id="-554352" lat="62.4684555512" lon="6.18003055771">
		<tag k="name" v="Skrivaren" />
		<tag k="place" v="islet" />
		<tag k="ssr:stedsnr" v="402626" />
	</node>
	<node id="-554351" lat="62.4441888915" lon="6.35278056447">
		<tag k="name" v="Naustvågen" />
		<tag k="natural" v="bay" />
		<tag k="ssr:stedsnr" v="402617" />
	</node>
	<node id="-554350" lat="62.4713055541" lon="6.38633889678">
		<tag k="name" v="Hatlebøen" />
		<tag k="place" v="farm" />
		<tag k="ssr:stedsnr" v="402610" />
	</node>
	<node id="-554349" lat="62.4950166678" lon="6.23311667542">
		<tag k="name" v="Grimstadsundet" />
		<tag k="natural" v="strait" />
		<tag k="ssr:stedsnr" v="402593" />
	</node>
	<node id="-554348" lat="62.435077774" lon="6.4093638805">
		<tag k="name" v="Haugane" />
		<tag k="natural" v="hill" />
		<tag k="place" v="locality" />
		<tag k="ssr:stedsnr" v="402584" />
	</node>
	<node id="-554347" lat="62.4977833363" lon="6.41909722818">
		<tag k="fixme" v="consider seamark:type=rock or natural=shoal" />
		<tag k="name" v="Klippfiskskjera" />
		<tag k="place" v="islet" />
		<tag k="ssr:stedsnr" v="402571" />
	</node>
	<node id="-554346" lat="62.4370472243" lon="6.40457222431">
		<tag k="name" v="Flåhamrane" />
		<tag k="natural" v="cliff" />
		<tag k="ssr:stedsnr" v="402564" />
	</node>
	<node id="-554345" lat="62.4230694439" lon="6.38756110459">
		<tag k="name" v="Skarvehammaren" />
		<tag k="natural" v="cliff" />
		<tag k="ssr:stedsnr" v="402552" />
	</node>
	<node id="-554344" lat="62.4975944416" lon="6.26557777019">
		<tag k="name" v="Skuledalsdemma" />
		<tag k="ssr:stedsnr" v="402548" />
		<tag k="waterway" v="dam" />
	</node>
	<node id="-554343" lat="62.5112166699" lon="6.23553333476">
		<tag k="name" v="Larsholmen" />
		<tag k="place" v="islet" />
		<tag k="ssr:stedsnr" v="402545" />
	</node>
	<node id="-554342" lat="62.4882833302" lon="6.4015555489">
		<tag k="alt_name" v="Allvikneset" />
		<tag k="name" v="Alvikneset" />
		<tag k="natural" v="cape" />
		<tag k="ssr:stedsnr" v="402538" />
	</node>
	<node id="-554341" lat="62.4346638879" lon="6.3904416645">
		<tag k="name" v="Byteelva" />
		<tag k="ssr:stedsnr" v="401978" />
		<tag k="waterway" v="stream" />
	</node>
	<node id="-554340" lat="62.4931750029" lon="6.25838611804">
		<tag k="name" v="Finnvika" />
		<tag k="place" v="farm" />
		<tag k="ssr:stedsnr" v="401955" />
	</node>
	<node id="-554339" lat="62.5091861129" lon="6.24950277227">
		<tag k="name" v="Hjellane" />
		<tag k="place" v="locality" />
		<tag k="ssr:stedsnr" v="401940" />
	</node>
	<node id="-554338" lat="62.4593722206" lon="6.2775388885">
		<tag k="name" v="Indre Hatlen" />
		<tag k="place" v="village" />
		<tag k="ssr:stedsnr" v="400688" />
	</node>
	<node id="-554337" lat="62.4742666677" lon="6.16412777742">
		<tag k="fixme" v="consider tourism=alpine_hut or tourism=chalet" />
		<tag k="name" v="Fjellstua" />
		<tag k="ssr:stedsnr" v="400629" />
		<tag k="tourism" v="wilderness_hut" />
	</node>
	<node id="-554336" lat="62.4681277811" lon="6.25757778485">
		<tag k="layer" v="-1" />
		<tag k="name" v="Gåseidvikundergangen" />
		<tag k="ssr:stedsnr" v="400481" />
		<tag k="tunnel" v="yes" />
	</node>
	<node id="-554335" lat="62.4419777748" lon="6.36287222946">
		<tag k="layer" v="-1" />
		<tag k="name" v="Urdalsundergangen" />
		<tag k="ssr:stedsnr" v="400471" />
		<tag k="tunnel" v="yes" />
	</node>
	<node id="-554334" lat="62.4715666667" lon="6.23416389671">
		<tag k="layer" v="-1" />
		<tag k="name" v="Sørnesundergangen" />
		<tag k="ssr:stedsnr" v="400050" />
		<tag k="tunnel" v="yes" />
	</node>
	<node id="-554333" lat="62.4953222179" lon="6.19881667234">
		<tag k="fixme" v="consider place=suburb, village or hamlet" />
		<tag k="name" v="Hovland" />
		<tag k="place" v="quarter" />
		<tag k="ssr:stedsnr" v="384358" />
	</node>
	<node id="-554332" lat="62.4600499971" lon="6.40500000834">
		<tag k="name" v="Årsetelva" />
		<tag k="ssr:stedsnr" v="384349" />
		<tag k="waterway" v="river" />
	</node>
	<node id="-554331" lat="62.5150138872" lon="6.29986666149">
		<tag k="alt_name" v="Myra" />
		<tag k="name" v="Lorgja" />
		<tag k="place" v="farm" />
		<tag k="ssr:stedsnr" v="375147" />
	</node>
	<node id="-554330" lat="62.5134388852" lon="6.2954999947">
		<tag k="name" v="Tua" />
		<tag k="natural" v="hill" />
		<tag k="place" v="locality" />
		<tag k="ssr:stedsnr" v="375145" />
	</node>
	<node id="-554329" lat="62.507763886" lon="6.39807222646">
		<tag k="name" v="Årsetmyrane" />
		<tag k="natural" v="wetland" />
		<tag k="ssr:stedsnr" v="375116" />
	</node>
	<node id="-554328" lat="62.5032777756" lon="6.24478888126">
		<tag k="name" v="Ramneskaret" />
		<tag k="natural" v="valley" />
		<tag k="place" v="locality" />
		<tag k="ssr:stedsnr" v="375106" />
	</node>
	<node id="-554327" lat="62.4991583333" lon="6.40999167573">
		<tag k="name" v="Stokkeholmen" />
		<tag k="place" v="islet" />
		<tag k="ssr:stedsnr" v="375084" />
	</node>
	<node id="-554326" lat="62.442777087" lon="6.36764918063">
		<tag k="fixme" v="consider place=hamlet" />
		<tag k="name" v="Blindheim" />
		<tag k="place" v="farm" />
		<tag k="ssr:stedsnr" v="375047" />
	</node>
	<node id="-554325" lat="62.4404805593" lon="6.35676112027">
		<tag k="name" v="Skyttarholm" />
		<tag k="natural" v="cape" />
		<tag k="ssr:stedsnr" v="375045" />
	</node>
	<node id="-554324" lat="62.4501777734" lon="6.45155000298">
		<tag k="historic" v="shieling" />
		<tag k="name" v="Røssevollssætra" />
		<tag k="place" v="locality" />
		<tag k="ssr:stedsnr" v="375043" />
	</node>
	<node id="-554323" lat="62.4517166677" lon="6.37961945115">
		<tag k="fixme" v="consider natural=peak for the most distinct mountains in the district" />
		<tag k="name" v="Høgelia" />
		<tag k="natural" v="hill" />
		<tag k="place" v="locality" />
		<tag k="ssr:stedsnr" v="375041" />
	</node>
	<node id="-554322" lat="62.4489333352" lon="6.35537500467">
		<tag k="name" v="Breivika" />
		<tag k="place" v="quarter" />
		<tag k="ssr:stedsnr" v="375040" />
	</node>
	<node id="-554321" lat="62.4519777823" lon="6.51405556239">
		<tag k="historic" v="shieling" />
		<tag k="name" v="Akslasætra" />
		<tag k="place" v="locality" />
		<tag k="ssr:stedsnr" v="375037" />
	</node>
	<node id="-554320" lat="62.4688055546" lon="6.17120277703">
		<tag k="alt_name" v="Bollholmen" />
		<tag k="name" v="Bålholmen" />
		<tag k="place" v="islet" />
		<tag k="ssr:stedsnr" v="374961" />
	</node>
	<node id="-554319" lat="62.4878418158" lon="6.34954490044">
		<tag k="name" v="Langøya" />
		<tag k="place" v="island" />
		<tag k="ssr:stedsnr" v="374258" />
	</node>
	<node id="-554318" lat="62.4817694452" lon="6.37248334266">
		<tag k="name" v="Kolla" />
		<tag k="place" v="farm" />
		<tag k="ssr:stedsnr" v="374243" />
	</node>
	<node id="-554317" lat="62.4776457818" lon="6.37604031563">
		<tag k="alt_name" v="Olsvik" />
		<tag k="fixme" v="consider place=hamlet" />
		<tag k="name" v="Olsvika" />
		<tag k="place" v="farm" />
		<tag k="ssr:stedsnr" v="374241" />
	</node>
	<node id="-554314" lat="62.4803694469" lon="6.28339445194">
		<tag k="name" v="Sommarsneset" />
		<tag k="natural" v="cape" />
		<tag k="ssr:stedsnr" v="361169" />
	</node>
	<node id="-554313" lat="62.4739388869" lon="6.18869165875">
		<tag k="name" v="Fjelltun" />
		<tag k="place" v="isolated_dwelling" />
		<tag k="ssr:stedsnr" v="359209" />
	</node>
	<node id="-554312" lat="62.4568166656" lon="6.25995277732">
		<tag k="name" v="Slevika" />
		<tag k="natural" v="bay" />
		<tag k="ssr:stedsnr" v="359123" />
	</node>
	<node id="-554311" lat="62.4571499972" lon="6.25125278471">
		<tag k="name" v="Apalvika" />
		<tag k="natural" v="bay" />
		<tag k="ssr:stedsnr" v="359119" />
	</node>
	<node id="-554310" lat="62.4657194446" lon="6.12345555546">
		<tag k="name" v="Kvenna" />
		<tag k="natural" v="shoal" />
		<tag k="place" v="locality" />
		<tag k="ssr:stedsnr" v="359020" />
	</node>
	<node id="-554309" lat="62.4614605347" lon="6.11112233977">
		<tag k="name" v="Åsen" />
		<tag k="place" v="locality" />
		<tag k="ssr:stedsnr" v="359012" />
	</node>
	<node id="-554308" lat="62.4774972238" lon="6.28307499028">
		<tag k="name" v="Flua" />
		<tag k="natural" v="shoal" />
		<tag k="place" v="locality" />
		<tag k="ssr:stedsnr" v="354973" />
	</node>
	<node id="-554307" lat="62.4838861136" lon="6.37283888377">
		<tag k="name" v="Ytre Hovdenes" />
		<tag k="natural" v="cape" />
		<tag k="ssr:stedsnr" v="354472" />
	</node>
	<node id="-554306" lat="62.4344250001" lon="6.42478055798">
		<tag k="building" v="industrial" />
		<tag k="industrial" v="factory" />
		<tag k="name" v="Spilka Industri AS" />
		<tag k="ssr:stedsnr" v="345993" />
	</node>
	<node id="-554305" lat="62.451488888" lon="6.08659999676">
		<tag k="name" v="Valleflua" />
		<tag k="natural" v="shoal" />
		<tag k="place" v="locality" />
		<tag k="ssr:stedsnr" v="342512" />
	</node>
	<node id="-554304" lat="62.4637444447" lon="6.07139721305">
		<tag k="name" v="Skarvøyflua" />
		<tag k="natural" v="shoal" />
		<tag k="place" v="locality" />
		<tag k="ssr:stedsnr" v="342284" />
	</node>
	<node id="-554303" lat="62.4557166668" lon="6.37037222416">
		<tag k="name" v="Kollen" />
		<tag k="natural" v="hill" />
		<tag k="place" v="locality" />
		<tag k="ssr:stedsnr" v="341998" />
	</node>
	<node id="-554302" lat="62.4688166672" lon="6.11586387989">
		<tag k="name" v="Storvika" />
		<tag k="natural" v="bay" />
		<tag k="ssr:stedsnr" v="341991" />
	</node>
	<node id="-554301" lat="62.4577861155" lon="6.38281389383">
		<tag k="name" v="Lyhaugen" />
		<tag k="natural" v="hill" />
		<tag k="place" v="locality" />
		<tag k="ssr:stedsnr" v="341981" />
	</node>
	<node id="-554300" lat="62.4878611074" lon="6.40796389741">
		<tag k="name" v="Brauta" />
		<tag k="natural" v="slope" />
		<tag k="place" v="locality" />
		<tag k="ssr:stedsnr" v="341972" />
	</node>
	<node id="-554299" lat="62.475947218" lon="6.19416388852">
		<tag k="leisure" v="pitch" />
		<tag k="name" v="Kråmyra" />
		<tag k="ssr:stedsnr" v="341966" />
	</node>
	<node id="-554298" lat="62.4964527758" lon="6.22678334027">
		<tag k="name" v="Hella" />
		<tag k="natural" v="cape" />
		<tag k="ssr:stedsnr" v="341960" />
	</node>
	<node id="-554297" lat="62.4376666679" lon="6.3383083237">
		<tag k="name" v="Kjerringsundet" />
		<tag k="natural" v="strait" />
		<tag k="ssr:stedsnr" v="341950" />
	</node>
	<node id="-554296" lat="62.4610114261" lon="6.13973816784">
		<tag k="name" v="Lillevika" />
		<tag k="place" v="farm" />
		<tag k="ssr:stedsnr" v="341738" />
	</node>
	<node id="-554295" lat="62.4676527804" lon="6.2986777768">
		<tag k="name" v="Lerstadvatnet" />
		<tag k="natural" v="water" />
		<tag k="ssr:stedsnr" v="341733" />
		<tag k="water" v="lake" />
	</node>
	<node id="-554294" lat="62.466505557" lon="6.25972500618">
		<tag k="name" v="Indre Gåseid" />
		<tag k="place" v="village" />
		<tag k="ssr:stedsnr" v="341730" />
	</node>
	<node id="-554293" lat="62.4421472192" lon="6.30135555796">
		<tag k="name" v="Engelskberget" />
		<tag k="natural" v="hill" />
		<tag k="place" v="locality" />
		<tag k="ssr:stedsnr" v="341688" />
	</node>
	<node id="-554292" lat="62.4476499978" lon="6.30953055665">
		<tag k="name" v="Notholmen" />
		<tag k="place" v="islet" />
		<tag k="ssr:stedsnr" v="341685" />
	</node>
	<node id="-554291" lat="62.4417527777" lon="6.53810554783">
		<tag k="name" v="Sætreheia" />
		<tag k="natural" v="slope" />
		<tag k="place" v="locality" />
		<tag k="ssr:stedsnr" v="341682" />
	</node>
	<node id="-554290" lat="62.4336472243" lon="6.45323332495">
		<tag k="name" v="Trysethaugen" />
		<tag k="natural" v="hill" />
		<tag k="place" v="locality" />
		<tag k="ssr:stedsnr" v="341675" />
	</node>
	<node id="-554289" lat="62.4641805572" lon="6.31310833777">
		<tag k="amenity" v="hospital" />
		<tag k="name" v="Ålesund sjukehus" />
		<tag k="old_name" v="Fylkessjukehuset" />
		<tag k="ssr:stedsnr" v="341670" />
	</node>
	<node id="-554288" lat="62.4645472254" lon="6.2182916567">
		<tag k="name" v="Lilleborgund" />
		<tag k="place" v="islet" />
		<tag k="ssr:stedsnr" v="341660" />
	</node>
	<node id="-554287" lat="62.4679111078" lon="6.18626666736">
		<tag k="name" v="Stolpevika" />
		<tag k="natural" v="bay" />
		<tag k="ssr:stedsnr" v="341657" />
	</node>
	<node id="-554286" lat="62.4397777779" lon="6.34710000238">
		<tag k="fixme" v="consider seamark:type=rock or natural=shoal" />
		<tag k="name" v="Rabbeflua" />
		<tag k="place" v="islet" />
		<tag k="ssr:stedsnr" v="341653" />
	</node>
	<node id="-554285" lat="62.4739583302" lon="6.39348611174">
		<tag k="fixme" v="consider natural=peak for the most distinct mountains in the district" />
		<tag k="name" v="Hatlenausa" />
		<tag k="natural" v="hill" />
		<tag k="place" v="locality" />
		<tag k="ssr:stedsnr" v="341643" />
	</node>
	<node id="-554284" lat="62.4415388868" lon="6.36268610232">
		<tag k="name" v="Urdalen" />
		<tag k="natural" v="valley" />
		<tag k="place" v="locality" />
		<tag k="ssr:stedsnr" v="341614" />
	</node>
	<node id="-554283" lat="62.4835555518" lon="6.37690278306">
		<tag k="name" v="Hovdeland" />
		<tag k="natural" v="wetland" />
		<tag k="ssr:stedsnr" v="341603" />
	</node>
	<node id="-554282" lat="62.4650277796" lon="6.50424444673">
		<tag k="name" v="Hesteskarvatnet" />
		<tag k="natural" v="water" />
		<tag k="ssr:stedsnr" v="341599" />
	</node>
	<node id="-554281" lat="62.4297805568" lon="6.38341111667">
		<tag k="name" v="Kyrkjeneset" />
		<tag k="natural" v="cape" />
		<tag k="ssr:stedsnr" v="341588" />
	</node>
	<node id="-554280" lat="62.4939555543" lon="6.27870277431">
		<tag k="name" v="Kvalsteinelva" />
		<tag k="ssr:stedsnr" v="341585" />
		<tag k="waterway" v="stream" />
	</node>
	<node id="-554279" lat="62.5134472188" lon="6.24638334225">
		<tag k="name" v="Hatleneset" />
		<tag k="natural" v="cape" />
		<tag k="ssr:stedsnr" v="341575" />
	</node>
	<node id="-554278" lat="62.5090416707" lon="6.2581666581">
		<tag k="highway" v="path" />
		<tag k="name" v="Lillegjerdsstigen" />
		<tag k="ssr:stedsnr" v="341568" />
	</node>
	<node id="-554277" lat="62.5092083331" lon="6.24214999596">
		<tag k="name" v="Midtifjellet" />
		<tag k="natural" v="hill" />
		<tag k="place" v="locality" />
		<tag k="ssr:stedsnr" v="341566" />
	</node>
	<node id="-554276" lat="62.437755553" lon="6.34271943855">
		<tag k="name" v="Tjørsundet" />
		<tag k="natural" v="strait" />
		<tag k="ssr:stedsnr" v="340671" />
	</node>
	<node id="-554275" lat="62.4681194451" lon="6.2630250039">
		<tag k="bridge" v="yes" />
		<tag k="layer" v="1" />
		<tag k="name" v="Gåseidnesbrua" />
		<tag k="ssr:stedsnr" v="339022" />
	</node>
	<node id="-554274" lat="62.4340583317" lon="6.46544167288">
		<tag k="bridge" v="yes" />
		<tag k="layer" v="1" />
		<tag k="name" v="Siribrua" />
		<tag k="ssr:stedsnr" v="339012" />
	</node>
	<node id="-554272" lat="62.4420305596" lon="6.36281388019">
		<tag k="bridge" v="yes" />
		<tag k="layer" v="1" />
		<tag k="name" v="Urdalsbrua" />
		<tag k="ssr:stedsnr" v="330326" />
	</node>
	<node id="-554271" lat="62.5113310068" lon="6.44620585283">
		<tag k="fixme" v="consider place=hamlet" />
		<tag k="name" v="Rot" />
		<tag k="place" v="farm" />
		<tag k="ssr:stedsnr" v="315178" />
	</node>
	<node id="-554270" lat="62.5165305519" lon="6.43502500252">
		<tag k="name" v="Ljørusta" />
		<tag k="natural" v="cape" />
		<tag k="ssr:stedsnr" v="315175" />
	</node>
	<node id="-554269" lat="62.5150091915" lon="6.3099053083">
		<tag k="name" v="Lorga" />
		<tag k="natural" v="cape" />
		<tag k="ssr:stedsnr" v="315173" />
	</node>
	<node id="-554268" lat="62.5113027762" lon="6.3104611187">
		<tag k="name" v="Nakken" />
		<tag k="natural" v="hill" />
		<tag k="place" v="locality" />
		<tag k="ssr:stedsnr" v="315170" />
	</node>
	<node id="-554267" lat="62.5074277791" lon="6.2676805483">
		<tag k="name" v="Timbreskarhaugen" />
		<tag k="natural" v="valley" />
		<tag k="place" v="locality" />
		<tag k="ssr:stedsnr" v="315129" />
	</node>
	<node id="-554266" lat="62.482211115" lon="6.18482500585">
		<tag k="name" v="Flatholmen" />
		<tag k="place" v="islet" />
		<tag k="ssr:stedsnr" v="314992" />
	</node>
	<node id="-554265" lat="62.4705723262" lon="6.10968957238">
		<tag k="fixme" v="consider place=hamlet" />
		<tag k="name" v="Drevik" />
		<tag k="place" v="farm" />
		<tag k="ssr:stedsnr" v="314915" />
	</node>
	<node id="-554264" lat="62.4752833366" lon="6.20290832763">
		<tag k="alt_name" v="Nørvøya" />
		<tag k="name" v="Nørve" />
		<tag k="place" v="island" />
		<tag k="ssr:stedsnr" v="314913" />
	</node>
	<node id="-554263" lat="62.4916027772" lon="6.31396389052">
		<tag k="name" v="Sperreholmen" />
		<tag k="place" v="islet" />
		<tag k="ssr:stedsnr" v="314264" />
	</node>
	<node id="-554262" lat="62.4742388922" lon="6.28744444125">
		<tag k="alt_name" v="Leirstadholmen" />
		<tag k="name" v="Lerstadholmen" />
		<tag k="place" v="islet" />
		<tag k="ssr:stedsnr" v="314245" />
	</node>
	<node id="-554261" lat="62.4343138869" lon="6.35788888071">
		<tag k="fixme" v="consider place=hamlet" />
		<tag k="name" v="Vegsundet" />
		<tag k="place" v="village" />
		<tag k="ssr:stedsnr" v="314039" />
	</node>
	<node id="-554260" lat="62.465749996" lon="6.32641665764">
		<tag k="fixme" v="consider place=suburb, village or hamlet" />
		<tag k="name" v="Åse" />
		<tag k="place" v="quarter" />
		<tag k="ssr:stedsnr" v="314016" />
	</node>
	<node id="-554259" lat="62.4464833292" lon="6.2693138982">
		<tag k="alt_name" v="Kavelen;Kavlen" />
		<tag k="name" v="Kalven" />
		<tag k="place" v="islet" />
		<tag k="ssr:stedsnr" v="314009" />
	</node>
	<node id="-554258" lat="62.4533388887" lon="6.3486250096">
		<tag k="name" v="Leitavågen" />
		<tag k="natural" v="bay" />
		<tag k="ssr:stedsnr" v="314008" />
	</node>
	<node id="-554257" lat="62.462823446" lon="6.35465379763">
		<tag k="alt_name" v="Nedregården" />
		<tag k="fixme" v="consider place=hamlet" />
		<tag k="name" v="Nergarden" />
		<tag k="place" v="farm" />
		<tag k="ssr:stedsnr" v="314004" />
	</node>
	<node id="-554256" lat="62.4597555594" lon="6.49608610848">
		<tag k="name" v="Langevatnet" />
		<tag k="natural" v="water" />
		<tag k="ssr:stedsnr" v="314003" />
	</node>
	<node id="-554254" lat="62.4545749971" lon="6.34042778371">
		<tag k="name" v="Knappegrunnen" />
		<tag k="natural" v="shoal" />
		<tag k="place" v="locality" />
		<tag k="ssr:stedsnr" v="301102" />
	</node>
	<node id="-554253" lat="62.464772221" lon="6.19430556497">
		<tag k="name" v="Tyskholmbåane" />
		<tag k="natural" v="shoal" />
		<tag k="place" v="locality" />
		<tag k="ssr:stedsnr" v="56221" />
	</node>
	<node id="-554252" lat="62.4927027765" lon="6.20041943848">
		<tag k="name" v="Langenesvika" />
		<tag k="natural" v="cape" />
		<tag k="ssr:stedsnr" v="299426" />
	</node>
	<node id="-554251" lat="62.4758194424" lon="6.2067194456">
		<tag k="name" v="Kråkeskar" />
		<tag k="natural" v="hill" />
		<tag k="place" v="locality" />
		<tag k="ssr:stedsnr" v="299234" />
	</node>
	<node id="-554250" lat="62.4951833358" lon="6.41938334044">
		<tag k="name" v="Drogeflua" />
		<tag k="natural" v="shoal" />
		<tag k="place" v="locality" />
		<tag k="ssr:stedsnr" v="295442" />
	</node>
	<node id="-554249" lat="62.4248694426" lon="6.4306583384">
		<tag k="name" v="Seieggen" />
		<tag k="place" v="locality" />
		<tag k="ssr:stedsnr" v="294998" />
	</node>
	<node id="-554248" lat="62.4636083335" lon="6.35918056227">
		<tag k="name" v="Nybø" />
		<tag k="place" v="isolated_dwelling" />
		<tag k="ssr:stedsnr" v="294982" />
	</node>
	<node id="-554247" lat="62.5082722254" lon="6.2365944349">
		<tag k="name" v="Bunes" />
		<tag k="place" v="farm" />
		<tag k="ssr:stedsnr" v="294678" />
	</node>
	<node id="-554245" lat="62.5142500035" lon="6.31284166492">
		<tag k="name" v="Murvikneset" />
		<tag k="natural" v="cape" />
		<tag k="ssr:stedsnr" v="293395" />
	</node>
	<node id="-554244" lat="62.47036944" lon="6.23024166145">
		<tag k="layer" v="-1" />
		<tag k="name" v="Sørnestunnelen" />
		<tag k="ssr:stedsnr" v="285002" />
		<tag k="tunnel" v="yes" />
	</node>
	<node id="-554243" lat="62.4922194419" lon="6.27171388745">
		<tag k="amenity" v="place_of_worship" />
		<tag k="denomination" v="lutheran" />
		<tag k="name" v="Ellingsøy kyrkje" />
		<tag k="religion" v="christian" />
		<tag k="ssr:stedsnr" v="284283" />
	</node>
	<node id="-554242" lat="62.4677254786" lon="6.34783142482">
		<tag k="amenity" v="place_of_worship" />
		<tag k="denomination" v="lutheran" />
		<tag k="name" v="Spjelkavik kyrkje" />
		<tag k="religion" v="christian" />
		<tag k="ssr:stedsnr" v="284275" />
	</node>
	<node id="-554241" lat="62.4589083326" lon="6.3557166613">
		<tag k="bridge" v="yes" />
		<tag k="layer" v="1" />
		<tag k="name" v="Kraftverksbrua" />
		<tag k="ssr:stedsnr" v="284040" />
	</node>
	<node id="-554240" lat="62.4746805597" lon="6.15529721775">
		<tag k="name" v="Margit Johnsens plass" />
		<tag k="place" v="square" />
		<tag k="ssr:stedsnr" v="283074" />
	</node>
	<node id="-554239" lat="62.4600749999" lon="6.1339138798">
		<tag k="name" v="Hessaskaret" />
		<tag k="natural" v="valley" />
		<tag k="place" v="locality" />
		<tag k="ssr:stedsnr" v="281942" />
	</node>
	<node id="-554238" lat="62.4614361134" lon="6.12005556095">
		<tag k="name" v="Kleivane" />
		<tag k="natural" v="hill" />
		<tag k="place" v="locality" />
		<tag k="ssr:stedsnr" v="281708" />
	</node>
	<node id="-554237" lat="62.4465722221" lon="6.50816665717">
		<tag k="name" v="Sætreelva" />
		<tag k="ssr:stedsnr" v="281707" />
		<tag k="waterway" v="stream" />
	</node>
	<node id="-554236" lat="62.4678416685" lon="6.14237777726">
		<tag k="man_made" v="quay" />
		<tag k="name" v="Skutvikpiren" />
		<tag k="place" v="locality" />
		<tag k="ssr:stedsnr" v="281698" />
	</node>
	<node id="-554235" lat="62.469158335" lon="6.26112777486">
		<tag k="fixme" v="consider place=hamlet" />
		<tag k="name" v="Gåseidneset" />
		<tag k="place" v="farm" />
		<tag k="ssr:stedsnr" v="281687" />
	</node>
	<node id="-554234" lat="62.4624361118" lon="6.25041388339">
		<tag k="name" v="Ratvikholmen" />
		<tag k="place" v="islet" />
		<tag k="ssr:stedsnr" v="281682" />
	</node>
	<node id="-554233" lat="62.4472722247" lon="6.36785554701">
		<tag k="name" v="Breivikelva" />
		<tag k="ssr:stedsnr" v="281650" />
		<tag k="waterway" v="stream" />
	</node>
	<node id="-554232" lat="62.4335750019" lon="6.45088333215">
		<tag k="name" v="Trollfossen" />
		<tag k="natural" v="waterfall" />
		<tag k="ssr:stedsnr" v="281626" />
	</node>
	<node id="-554231" lat="62.4642694418" lon="6.35296666053">
		<tag k="name" v="Aspehaugen" />
		<tag k="natural" v="hill" />
		<tag k="place" v="locality" />
		<tag k="ssr:stedsnr" v="281620" />
	</node>
	<node id="-554230" lat="62.4689085391" lon="6.20844749963">
		<tag k="name" v="Lilleholmen" />
		<tag k="place" v="islet" />
		<tag k="ssr:stedsnr" v="281614" />
	</node>
	<node id="-554229" lat="62.4800472208" lon="6.369208341">
		<tag k="name" v="Langneset" />
		<tag k="natural" v="cape" />
		<tag k="ssr:stedsnr" v="281584" />
	</node>
	<node id="-554228" lat="62.4782222208" lon="6.3719222189">
		<tag k="name" v="Storknappen" />
		<tag k="natural" v="cape" />
		<tag k="ssr:stedsnr" v="281582" />
	</node>
	<node id="-554227" lat="62.4786805588" lon="6.20375277116">
		<tag k="name" v="Malurken" />
		<tag k="place" v="islet" />
		<tag k="ssr:stedsnr" v="280987" />
	</node>
	<node id="-554226" lat="62.4662499993" lon="6.26998054895">
		<tag k="name" v="Vandberg" />
		<tag k="natural" v="hill" />
		<tag k="place" v="locality" />
		<tag k="ssr:stedsnr" v="280977" />
	</node>
	<node id="-554225" lat="62.5022999974" lon="6.22306944673">
		<tag k="name" v="Draget" />
		<tag k="place" v="locality" />
		<tag k="ssr:stedsnr" v="280968" />
	</node>
	<node id="-554224" lat="62.5075194417" lon="6.28775832878">
		<tag k="name" v="Vatnet" />
		<tag k="natural" v="water" />
		<tag k="ssr:stedsnr" v="280949" />
		<tag k="water" v="lake" />
	</node>
	<node id="-554223" lat="62.4563555581" lon="6.41518055875">
		<tag k="name" v="Gamlesætra" />
		<tag k="place" v="isolated_dwelling" />
		<tag k="ssr:stedsnr" v="280630" />
	</node>
	<node id="-554222" lat="62.4589888926" lon="6.44260556423">
		<tag k="name" v="Høgstølvatnet" />
		<tag k="natural" v="water" />
		<tag k="ssr:stedsnr" v="280620" />
		<tag k="water" v="lake" />
	</node>
	<node id="-554221" lat="62.4655444403" lon="6.45020278026">
		<tag k="name" v="Nevregylet" />
		<tag k="natural" v="gorge" />
		<tag k="ssr:stedsnr" v="280618" />
	</node>
	<node id="-554220" lat="62.4477861124" lon="6.44818611609">
		<tag k="name" v="Bjørnenakken" />
		<tag k="natural" v="ridge" />
		<tag k="place" v="locality" />
		<tag k="ssr:stedsnr" v="280566" />
	</node>
	<node id="-554219" lat="62.5167055594" lon="6.43215833164">
		<tag k="name" v="Sandvikskarvika" />
		<tag k="natural" v="bay" />
		<tag k="ssr:stedsnr" v="280567" />
	</node>
	<node id="-554218" lat="62.4386972225" lon="6.3497472262">
		<tag k="name" v="Vegsundrabben" />
		<tag k="place" v="farm" />
		<tag k="ssr:stedsnr" v="280565" />
	</node>
	<node id="-554217" lat="62.4400277801" lon="6.52287221592">
		<tag k="name" v="Blånibba" />
		<tag k="natural" v="hill" />
		<tag k="place" v="locality" />
		<tag k="ssr:stedsnr" v="280561" />
	</node>
	<node id="-554216" lat="62.4389694438" lon="6.34220554727">
		<tag k="name" v="Tjørsundet" />
		<tag k="natural" v="strait" />
		<tag k="ssr:stedsnr" v="280553" />
	</node>
	<node id="-554215" lat="62.4312111148" lon="6.37295277678">
		<tag k="name" v="Notholmen" />
		<tag k="place" v="islet" />
		<tag k="ssr:stedsnr" v="280554" />
	</node>
	<node id="-554214" lat="62.4227500013" lon="6.40490000425">
		<tag k="alt_name" v="Rotaneset" />
		<tag k="name" v="Rotavikneset" />
		<tag k="natural" v="cape" />
		<tag k="ssr:stedsnr" v="280551" />
	</node>
	<node id="-554213" lat="62.4266166705" lon="6.38625277201">
		<tag k="alt_name" v="Eikenosvågen" />
		<tag k="name" v="Eikenosvågane" />
		<tag k="natural" v="bay" />
		<tag k="ssr:stedsnr" v="280550" />
	</node>
	<node id="-554212" lat="62.4902500004" lon="6.27227500493">
		<tag k="name" v="Erikneset" />
		<tag k="natural" v="cape" />
		<tag k="ssr:stedsnr" v="280549" />
	</node>
	<node id="-554211" lat="62.4754944433" lon="6.1508722208">
		<tag k="man_made" v="quay" />
		<tag k="name" v="Skansekaia" />
		<tag k="place" v="locality" />
		<tag k="ssr:stedsnr" v="279694" />
	</node>
	<node id="-554210" lat="62.4674416631" lon="6.27149166117">
		<tag k="layer" v="-1" />
		<tag k="name" v="Vandbergundergangen" />
		<tag k="ssr:stedsnr" v="278529" />
		<tag k="tunnel" v="yes" />
	</node>
	<node id="-555273" lat="62.4644409451" lon="6.36496268253">
		<tag k="leisure" v="park" />
		<tag k="name" v="Kanalparken" />
		<tag k="ssr:stedsnr" v="972937" />
	</node>
	<node id="-555272" lat="62.4621859813" lon="6.32081697348">
		<tag k="name" v="Geilehaugen" />
		<tag k="natural" v="hill" />
		<tag k="place" v="locality" />
		<tag k="ssr:stedsnr" v="971338" />
	</node>
	<node id="-555271" lat="62.4615034821" lon="6.3241605331">
		<tag k="name" v="Geilevika" />
		<tag k="natural" v="bay" />
		<tag k="ssr:stedsnr" v="971337" />
	</node>
	<node id="-555269" lat="62.4373499956" lon="6.4706555492">
		<tag k="name" v="Østrem" />
		<tag k="place" v="farm" />
		<tag k="ssr:stedsnr" v="969273" />
	</node>
	<node id="-555268" lat="62.475180147" lon="6.22841043564">
		<tag k="fixme" v="consider place=hamlet" />
		<tag k="name" v="Nørve" />
		<tag k="place" v="farm" />
		<tag k="ssr:stedsnr" v="968163" />
	</node>
	<node id="-555267" lat="62.4780361128" lon="6.20220277388">
		<tag k="name" v="Malurkneset" />
		<tag k="natural" v="cape" />
		<tag k="ssr:stedsnr" v="966223" />
	</node>
	<node id="-555266" lat="62.4754138905" lon="6.15476111406">
		<tag k="name" v="Skansen" />
		<tag k="natural" v="cape" />
		<tag k="ssr:stedsnr" v="966186" />
	</node>
	<node id="-555265" lat="62.4624138875" lon="6.17091667158">
		<tag k="name" v="Slinningstangflua" />
		<tag k="natural" v="shoal" />
		<tag k="place" v="locality" />
		<tag k="ssr:stedsnr" v="966029" />
	</node>
	<node id="-555264" lat="62.468605555" lon="6.11925834015">
		<tag k="name" v="Steinvågen" />
		<tag k="natural" v="bay" />
		<tag k="ssr:stedsnr" v="966014" />
	</node>
	<node id="-555263" lat="62.4735500003" lon="6.11901389296">
		<tag k="name" v="Steinvåggrunnane" />
		<tag k="natural" v="shoal" />
		<tag k="place" v="locality" />
		<tag k="ssr:stedsnr" v="966011" />
	</node>
	<node id="-555262" lat="62.4498666703" lon="6.31212222611">
		<tag k="name" v="Bjørnholmane" />
		<tag k="place" v="islet" />
		<tag k="ssr:stedsnr" v="964554" />
	</node>
	<node id="-555261" lat="62.517016665" lon="6.45622499224">
		<tag k="name" v="Sjølneset" />
		<tag k="natural" v="cape" />
		<tag k="ssr:stedsnr" v="962404" />
	</node>
	<node id="-555260" lat="62.5137333333" lon="6.24110278739">
		<tag k="name" v="Sauevikflua" />
		<tag k="natural" v="shoal" />
		<tag k="place" v="locality" />
		<tag k="ssr:stedsnr" v="961673" />
	</node>
	<node id="-555259" lat="62.4633111067" lon="6.35573333088">
		<tag k="bridge" v="yes" />
		<tag k="layer" v="1" />
		<tag k="name" v="Nedregårdsbrua" />
		<tag k="ssr:stedsnr" v="951045" />
	</node>
	<node id="-555258" lat="62.4609694435" lon="6.35929443644">
		<tag k="bridge" v="yes" />
		<tag k="layer" v="1" />
		<tag k="name" v="Mittetskogbrua" />
		<tag k="ssr:stedsnr" v="951039" />
	</node>
	<node id="-555257" lat="62.4431916689" lon="6.45704444604">
		<tag k="name" v="Legene" />
		<tag k="natural" v="slope" />
		<tag k="place" v="locality" />
		<tag k="ssr:stedsnr" v="949000" />
	</node>
	<node id="-555256" lat="62.4679666634" lon="6.25619444355">
		<tag k="name" v="Einevika" />
		<tag k="natural" v="bay" />
		<tag k="ssr:stedsnr" v="948990" />
	</node>
	<node id="-555255" lat="62.4643555577" lon="6.20833611997">
		<tag k="fixme" v="consider seamark:type=rock or natural=shoal" />
		<tag k="name" v="Galtene" />
		<tag k="place" v="islet" />
		<tag k="ssr:stedsnr" v="948988" />
	</node>
	<node id="-555254" lat="62.5016305544" lon="6.34800556371">
		<tag k="name" v="Bøskaret" />
		<tag k="natural" v="valley" />
		<tag k="place" v="locality" />
		<tag k="ssr:stedsnr" v="948987" />
	</node>
	<node id="-555253" lat="62.4584472195" lon="6.24716111122">
		<tag k="name" v="Kjerringholmen" />
		<tag k="place" v="islet" />
		<tag k="ssr:stedsnr" v="948984" />
	</node>
	<node id="-555252" lat="62.5021388916" lon="6.21260833045">
		<tag k="name" v="Brattstø" />
		<tag k="natural" v="bay" />
		<tag k="ssr:stedsnr" v="948979" />
	</node>
	<node id="-555251" lat="62.5096055515" lon="6.26379166714">
		<tag k="name" v="Legene" />
		<tag k="natural" v="wetland" />
		<tag k="ssr:stedsnr" v="948961" />
	</node>
	<node id="-555250" lat="62.4433083344" lon="6.28661667532">
		<tag k="name" v="Tennholmen" />
		<tag k="place" v="islet" />
		<tag k="ssr:stedsnr" v="948957" />
	</node>
	<node id="-555249" lat="62.4663111122" lon="6.12768332573">
		<tag k="name" v="Kvennaneset" />
		<tag k="natural" v="cape" />
		<tag k="ssr:stedsnr" v="948746" />
	</node>
	<node id="-555248" lat="62.478008334" lon="6.24349166469">
		<tag k="landuse" v="industrial" />
		<tag k="name" v="Nørve sekundærstasjon" />
		<tag k="power" v="plant" />
		<tag k="ssr:stedsnr" v="948745" />
	</node>
	<node id="-555247" lat="62.4727833346" lon="6.24802222085">
		<tag k="name" v="Klokkarvågen" />
		<tag k="natural" v="bay" />
		<tag k="ssr:stedsnr" v="948743" />
	</node>
	<node id="-555246" lat="62.4662166643" lon="6.23973332763">
		<tag k="name" v="Klokkarsundet" />
		<tag k="natural" v="strait" />
		<tag k="ssr:stedsnr" v="948731" />
	</node>
	<node id="-555245" lat="62.4450222181" lon="6.32443610282">
		<tag k="fixme" v="consider seamark:type=rock or natural=shoal" />
		<tag k="name" v="Tørleskjera" />
		<tag k="place" v="islet" />
		<tag k="ssr:stedsnr" v="948691" />
	</node>
	<node id="-555244" lat="62.448700003" lon="6.31043332633">
		<tag k="name" v="Midtiholmen" />
		<tag k="place" v="islet" />
		<tag k="ssr:stedsnr" v="948688" />
	</node>
	<node id="-555243" lat="62.4708277798" lon="6.45702222241">
		<tag k="name" v="Kvennaneset" />
		<tag k="natural" v="cape" />
		<tag k="ssr:stedsnr" v="948684" />
	</node>
	<node id="-555242" lat="62.4685694477" lon="6.2029555571">
		<tag k="name" v="Nørveneset" />
		<tag k="natural" v="cape" />
		<tag k="ssr:stedsnr" v="948666" />
	</node>
	<node id="-555241" lat="62.4444805597" lon="6.35788889667">
		<tag k="name" v="Breivikhaugen" />
		<tag k="natural" v="hill" />
		<tag k="place" v="locality" />
		<tag k="ssr:stedsnr" v="948653" />
	</node>
	<node id="-555240" lat="62.4575861118" lon="6.35345000778">
		<tag k="name" v="Spjelkavika" />
		<tag k="natural" v="bay" />
		<tag k="ssr:stedsnr" v="948649" />
	</node>
	<node id="-555239" lat="62.4685222224" lon="6.37460278073">
		<tag k="amenity" v="school" />
		<tag k="name" v="Borgund videregående skole" />
		<tag k="old_name" v="Borgund Yrkesskole" />
		<tag k="ssr:stedsnr" v="948647" />
	</node>
	<node id="-555238" lat="62.4631583363" lon="6.31174444461">
		<tag k="name" v="Åsehaugen" />
		<tag k="natural" v="hill" />
		<tag k="place" v="locality" />
		<tag k="ssr:stedsnr" v="948638" />
	</node>
	<node id="-555237" lat="62.5123888928" lon="6.23939167216">
		<tag k="name" v="Storhylla" />
		<tag k="place" v="locality" />
		<tag k="ssr:stedsnr" v="948635" />
	</node>
	<node id="-555236" lat="62.4992916635" lon="6.19111943908">
		<tag k="name" v="Leitahaugen" />
		<tag k="natural" v="hill" />
		<tag k="place" v="locality" />
		<tag k="ssr:stedsnr" v="948631" />
	</node>
	<node id="-555235" lat="62.4982250014" lon="6.20948610572">
		<tag k="name" v="Svehaugen" />
		<tag k="natural" v="hill" />
		<tag k="place" v="locality" />
		<tag k="ssr:stedsnr" v="948628" />
	</node>
	<node id="-555234" lat="62.4327361126" lon="6.3863222132">
		<tag k="name" v="Kvernhusdalen" />
		<tag k="natural" v="valley" />
		<tag k="place" v="locality" />
		<tag k="ssr:stedsnr" v="948620" />
	</node>
	<node id="-555233" lat="62.4612777779" lon="6.32347221899">
		<tag k="name" v="Geileberget" />
		<tag k="natural" v="hill" />
		<tag k="place" v="locality" />
		<tag k="ssr:stedsnr" v="948609" />
	</node>
	<node id="-555232" lat="62.496466663" lon="6.38120834271">
		<tag k="alt_name" v="Indre Årsetvågen" />
		<tag k="name" v="Indre Årsetvåg" />
		<tag k="natural" v="bay" />
		<tag k="ssr:stedsnr" v="948603" />
	</node>
	<node id="-555231" lat="62.4286194485" lon="6.38630000149">
		<tag k="name" v="Klungerholmane" />
		<tag k="place" v="islet" />
		<tag k="ssr:stedsnr" v="948594" />
	</node>
	<node id="-555230" lat="62.4982249995" lon="6.18353333157">
		<tag k="name" v="Purkeskylet" />
		<tag k="natural" v="slope" />
		<tag k="place" v="locality" />
		<tag k="ssr:stedsnr" v="948588" />
	</node>
	<node id="-555229" lat="62.4926583321" lon="6.24517223084">
		<tag k="name" v="Naustholmen" />
		<tag k="place" v="islet" />
		<tag k="ssr:stedsnr" v="948586" />
	</node>
	<node id="-555228" lat="62.5083583298" lon="6.27515277637">
		<tag k="name" v="Sætrehaugen" />
		<tag k="natural" v="hill" />
		<tag k="place" v="locality" />
		<tag k="ssr:stedsnr" v="948577" />
	</node>
	<node id="-555227" lat="62.4327611105" lon="6.34222778134">
		<tag k="name" v="Vegsundneset" />
		<tag k="natural" v="cape" />
		<tag k="ssr:stedsnr" v="947660" />
	</node>
	<node id="-555226" lat="62.4705277801" lon="6.32396667015">
		<tag k="bridge" v="yes" />
		<tag k="layer" v="1" />
		<tag k="name" v="Nakkevikbrua" />
		<tag k="ssr:stedsnr" v="947096" />
	</node>
	<node id="-555225" lat="62.4697749955" lon="6.30926665956">
		<tag k="bridge" v="yes" />
		<tag k="layer" v="1" />
		<tag k="name" v="Lerstadgangbrua" />
		<tag k="ssr:stedsnr" v="947089" />
	</node>
	<node id="-555224" lat="62.5151083367" lon="6.45987499525">
		<tag k="name" v="Taftasundet" />
		<tag k="natural" v="strait" />
		<tag k="ssr:stedsnr" v="946827" />
	</node>
	<node id="-555223" lat="62.4703472201" lon="6.19424443625">
		<tag k="bridge" v="yes" />
		<tag k="layer" v="1" />
		<tag k="name" v="Bergabrua" />
		<tag k="ssr:stedsnr" v="946018" />
	</node>
	<node id="-555222" lat="62.5123805576" lon="6.38904167478">
		<tag k="name" v="Årsetneset" />
		<tag k="natural" v="cape" />
		<tag k="ssr:stedsnr" v="922234" />
	</node>
	<node id="-555221" lat="62.5145833375" lon="6.45726944863">
		<tag k="fixme" v="consider place=hamlet" />
		<tag k="name" v="Taftasundet" />
		<tag k="place" v="village" />
		<tag k="ssr:stedsnr" v="922177" />
	</node>
	<node id="-555220" lat="62.5155083361" lon="6.28136944568">
		<tag k="name" v="Svorshamna" />
		<tag k="natural" v="bay" />
		<tag k="ssr:stedsnr" v="922170" />
	</node>
	<node id="-555219" lat="62.5068416658" lon="6.35103888989">
		<tag k="name" v="Ramsvika" />
		<tag k="natural" v="bay" />
		<tag k="ssr:stedsnr" v="922140" />
	</node>
	<node id="-555218" lat="62.5016757282" lon="6.23057053127">
		<tag k="fixme" v="consider place=hamlet" />
		<tag k="name" v="Hovseidet" />
		<tag k="place" v="farm" />
		<tag k="ssr:stedsnr" v="922134" />
	</node>
	<node id="-555217" lat="62.4756959058" lon="6.25349131995">
		<tag k="alt_name" v="Larsgarden" />
		<tag k="fixme" v="consider place=hamlet" />
		<tag k="name" v="Larsgården" />
		<tag k="place" v="farm" />
		<tag k="ssr:stedsnr" v="921241" />
	</node>
	<node id="-555216" lat="62.4345916632" lon="6.30161944948">
		<tag k="name" v="Honkane" />
		<tag k="natural" v="cape" />
		<tag k="ssr:stedsnr" v="921050" />
	</node>
	<node id="-555215" lat="62.4359833303" lon="6.34886388456">
		<tag k="name" v="Rabbevågen" />
		<tag k="natural" v="bay" />
		<tag k="ssr:stedsnr" v="921040" />
	</node>
	<node id="-555214" lat="62.4482472222" lon="6.43556944191">
		<tag k="name" v="Røssevollsvatnet" />
		<tag k="natural" v="water" />
		<tag k="ssr:stedsnr" v="921036" />
	</node>
	<node id="-555213" lat="62.464794563" lon="6.40331658174">
		<tag k="fixme" v="consider place=hamlet" />
		<tag k="name" v="Lillestølen" />
		<tag k="place" v="farm" />
		<tag k="ssr:stedsnr" v="921033" />
	</node>
	<node id="-555212" lat="62.4716762018" lon="6.47570027459">
		<tag k="fixme" v="consider place=hamlet" />
		<tag k="name" v="Vasstranda" />
		<tag k="place" v="farm" />
		<tag k="ssr:stedsnr" v="921034" />
	</node>
	<node id="-555211" lat="62.4564222267" lon="6.42666111195">
		<tag k="name" v="Bigtonhytta" />
		<tag k="place" v="isolated_dwelling" />
		<tag k="ssr:stedsnr" v="921006" />
	</node>
	<node id="-555210" lat="62.4614388905" lon="6.13508054631">
		<tag k="name" v="Olsvika" />
		<tag k="natural" v="bay" />
		<tag k="ssr:stedsnr" v="921944" />
	</node>
	<node id="-555208" lat="62.4686111082" lon="6.09143055693">
		<tag k="name" v="Tueneset" />
		<tag k="natural" v="cape" />
		<tag k="ssr:stedsnr" v="921929" />
	</node>
	<node id="-555207" lat="62.4753246898" lon="6.16801895929">
		<tag k="fixme" v="consider natural=peak for the most distinct mountains in the district" />
		<tag k="name" v="Aksla" />
		<tag k="natural" v="hill" />
		<tag k="place" v="locality" />
		<tag k="ssr:stedsnr" v="921926" />
	</node>
	<node id="-555203" lat="62.4603722234" lon="6.3594472157">
		<tag k="name" v="Gamleelva" />
		<tag k="ssr:stedsnr" v="906688" />
		<tag k="waterway" v="river" />
	</node>
	<node id="-555202" lat="62.4830527818" lon="6.37153333932">
		<tag k="name" v="Hellevika" />
		<tag k="natural" v="bay" />
		<tag k="ssr:stedsnr" v="906574" />
	</node>
	<node id="-555201" lat="62.4898500031" lon="6.19336667345">
		<tag k="name" v="Langenesflua" />
		<tag k="natural" v="shoal" />
		<tag k="place" v="locality" />
		<tag k="ssr:stedsnr" v="906421" />
	</node>
	<node id="-555200" lat="62.488486115" lon="6.34158332684">
		<tag k="name" v="Oterneset" />
		<tag k="natural" v="cape" />
		<tag k="ssr:stedsnr" v="906396" />
	</node>
	<node id="-555199" lat="62.4815444461" lon="6.19213055226">
		<tag k="name" v="Flatholmgrunnane" />
		<tag k="natural" v="shoal" />
		<tag k="place" v="locality" />
		<tag k="ssr:stedsnr" v="906234" />
	</node>
	<node id="-555198" lat="62.4707305569" lon="6.19754999811">
		<tag k="name" v="Volsdalen" />
		<tag k="natural" v="valley" />
		<tag k="place" v="locality" />
		<tag k="ssr:stedsnr" v="906218" />
	</node>
	<node id="-555196" lat="62.4799055546" lon="6.36040000544">
		<tag k="fixme" v="consider seamark:type=rock or natural=shoal" />
		<tag k="name" v="Morkolla" />
		<tag k="place" v="islet" />
		<tag k="ssr:stedsnr" v="901982" />
	</node>
	<node id="-555195" lat="62.4277222226" lon="6.47462777662">
		<tag k="name" v="Akslaflua" />
		<tag k="natural" v="shoal" />
		<tag k="place" v="locality" />
		<tag k="ssr:stedsnr" v="901964" />
	</node>
	<node id="-555194" lat="62.4502777778" lon="6.25853334054">
		<tag k="name" v="Kavleskallane" />
		<tag k="natural" v="shoal" />
		<tag k="place" v="locality" />
		<tag k="ssr:stedsnr" v="901672" />
	</node>
	<node id="-555193" lat="62.4995861088" lon="6.18178888222">
		<tag k="name" v="Gildreneset" />
		<tag k="natural" v="cape" />
		<tag k="ssr:stedsnr" v="901659" />
	</node>
	<node id="-555191" lat="62.4772805513" lon="6.37171389158">
		<tag k="name" v="Olsvika" />
		<tag k="natural" v="bay" />
		<tag k="ssr:stedsnr" v="901463" />
	</node>
	<node id="-555190" lat="62.5173194413" lon="6.4335027748">
		<tag k="name" v="Ura" />
		<tag k="natural" v="scree" />
		<tag k="ssr:stedsnr" v="900347" />
	</node>
	<node id="-555189" lat="62.4368222258" lon="6.35041944456">
		<tag k="name" v="Lilleberget" />
		<tag k="natural" v="hill" />
		<tag k="place" v="locality" />
		<tag k="ssr:stedsnr" v="881173" />
	</node>
	<node id="-555187" lat="62.44598889" lon="6.35820554582">
		<tag k="bridge" v="yes" />
		<tag k="layer" v="1" />
		<tag k="name" v="Furutunbrua" />
		<tag k="ssr:stedsnr" v="877339" />
	</node>
	<node id="-555186" lat="62.4607944443" lon="6.35961388998">
		<tag k="bridge" v="yes" />
		<tag k="layer" v="1" />
		<tag k="name" v="Nedrevollbrua" />
		<tag k="ssr:stedsnr" v="877338" />
	</node>
	<node id="-555185" lat="62.50052778" lon="6.33583055945">
		<tag k="name" v="Vikanakken" />
		<tag k="natural" v="hill" />
		<tag k="place" v="locality" />
		<tag k="ssr:stedsnr" v="870926" />
	</node>
	<node id="-555184" lat="62.4483666637" lon="6.30995555554">
		<tag k="name" v="Humleholmane" />
		<tag k="place" v="islet" />
		<tag k="ssr:stedsnr" v="870352" />
	</node>
	<node id="-555183" lat="62.4334111154" lon="6.5170111136">
		<tag k="name" v="Uksane" />
		<tag k="natural" v="cape" />
		<tag k="ssr:stedsnr" v="870350" />
	</node>
	<node id="-555182" lat="62.442783333" lon="6.35419167448">
		<tag k="name" v="Blindheimsneset" />
		<tag k="natural" v="cape" />
		<tag k="ssr:stedsnr" v="861060" />
	</node>
	<node id="-555181" lat="62.4373416708" lon="6.34767777997">
		<tag k="name" v="Rabben" />
		<tag k="natural" v="hill" />
		<tag k="place" v="locality" />
		<tag k="ssr:stedsnr" v="861042" />
	</node>
	<node id="-555180" lat="62.4461888898" lon="6.50319444643">
		<tag k="name" v="Melsvatnet" />
		<tag k="natural" v="water" />
		<tag k="ssr:stedsnr" v="861037" />
	</node>
	<node id="-555179" lat="62.4417638879" lon="6.42670555755">
		<tag k="name" v="Ivar Aasen-hytta" />
		<tag k="place" v="isolated_dwelling" />
		<tag k="ssr:stedsnr" v="861033" />
	</node>
	<node id="-555178" lat="62.4457916631" lon="6.29101389718">
		<tag k="name" v="Humla" />
		<tag k="place" v="island" />
		<tag k="ssr:stedsnr" v="861010" />
	</node>
	<node id="-555177" lat="62.4833777787" lon="6.21657221297">
		<tag k="name" v="Brattholmen" />
		<tag k="place" v="islet" />
		<tag k="ssr:stedsnr" v="860996" />
	</node>
	<node id="-555176" lat="62.4660055575" lon="6.20606388541">
		<tag k="name" v="Hundsvær" />
		<tag k="place" v="islet" />
		<tag k="ssr:stedsnr" v="860962" />
	</node>
	<node id="-555175" lat="62.4638833315" lon="6.09425832938">
		<tag k="alt_name" v="Gullhaugvika" />
		<tag k="name" v="Gulhaugvikane" />
		<tag k="natural" v="bay" />
		<tag k="ssr:stedsnr" v="860961" />
	</node>
	<node id="-555174" lat="62.4874861136" lon="6.43369722228">
		<tag k="fixme" v="consider natural=peak for the most distinct mountains in the district" />
		<tag k="name" v="Kjølen" />
		<tag k="natural" v="hill" />
		<tag k="place" v="locality" />
		<tag k="ssr:stedsnr" v="860281" />
	</node>
	<node id="-555173" lat="62.4945333377" lon="6.23308889793">
		<tag k="name" v="Grimstadholmane" />
		<tag k="place" v="islet" />
		<tag k="ssr:stedsnr" v="860222" />
	</node>
	<node id="-555172" lat="62.4370022799" lon="6.53326373161">
		<tag k="fixme" v="consider place=hamlet" />
		<tag k="name" v="Hesseberg" />
		<tag k="place" v="farm" />
		<tag k="ssr:stedsnr" v="860094" />
	</node>
	<node id="-555171" lat="62.427172221" lon="6.40761667292">
		<tag k="name" v="Skråvika" />
		<tag k="place" v="farm" />
		<tag k="ssr:stedsnr" v="860070" />
	</node>
	<node id="-555170" lat="62.4614111141" lon="6.42035832611">
		<tag k="fixme" v="consider natural=peak for the most distinct mountains in the district" />
		<tag k="name" v="Rambjøra" />
		<tag k="natural" v="hill" />
		<tag k="place" v="locality" />
		<tag k="ssr:stedsnr" v="860008" />
	</node>
	<node id="-555168" lat="62.434805555" lon="6.32007222085">
		<tag k="name" v="Inste Hanken" />
		<tag k="place" v="farm" />
		<tag k="ssr:stedsnr" v="847111" />
	</node>
	<node id="-555167" lat="62.4937805595" lon="6.21024443717">
		<tag k="name" v="Kalderhaugflua" />
		<tag k="natural" v="shoal" />
		<tag k="place" v="locality" />
		<tag k="ssr:stedsnr" v="846378" />
	</node>
	<node id="-555165" lat="62.4701194429" lon="6.17265276891">
		<tag k="name" v="Fagervika" />
		<tag k="natural" v="bay" />
		<tag k="ssr:stedsnr" v="845043" />
	</node>
	<node id="-555164" lat="62.4646305556" lon="6.11731389665">
		<tag k="name" v="Osevågen" />
		<tag k="natural" v="bay" />
		<tag k="ssr:stedsnr" v="845025" />
	</node>
	<node id="-555163" lat="62.5002361152" lon="6.42261944261">
		<tag k="fixme" v="consider seamark:type=rock or natural=shoal" />
		<tag k="name" v="Ytre Kalvskjeret" />
		<tag k="place" v="islet" />
		<tag k="ssr:stedsnr" v="841444" />
	</node>
	<node id="-555162" lat="62.4790777811" lon="6.32821389709">
		<tag k="name" v="Revet" />
		<tag k="natural" v="shoal" />
		<tag k="place" v="locality" />
		<tag k="ssr:stedsnr" v="840969" />
	</node>
	<node id="-555161" lat="62.4312861134" lon="6.4979666669">
		<tag k="name" v="Magerholmsvika" />
		<tag k="natural" v="bay" />
		<tag k="ssr:stedsnr" v="840941" />
	</node>
	<node id="-555160" lat="62.4355805583" lon="6.53491387965">
		<tag k="name" v="Hessebergneset" />
		<tag k="natural" v="cape" />
		<tag k="ssr:stedsnr" v="840940" />
	</node>
	<node id="-555159" lat="62.4397499988" lon="6.54774999415">
		<tag k="name" v="Skabakken" />
		<tag k="natural" v="slope" />
		<tag k="place" v="locality" />
		<tag k="ssr:stedsnr" v="840938" />
	</node>
	<node id="-555158" lat="62.5178305573" lon="6.32237222461">
		<tag k="name" v="Lorgaungana" />
		<tag k="place" v="locality" />
		<tag k="seamark:type" v="rock" />
		<tag k="ssr:stedsnr" v="840346" />
	</node>
	<node id="-555157" lat="62.435666668" lon="6.47796944575">
		<tag k="fixme" v="consider natural=peak for the most distinct mountains in the district" />
		<tag k="name" v="Akslanakken" />
		<tag k="natural" v="hill" />
		<tag k="place" v="locality" />
		<tag k="ssr:stedsnr" v="829572" />
	</node>
	<node id="-555156" lat="62.4625638888" lon="6.11421388906">
		<tag k="alt_name" v="Osvåg" />
		<tag k="name" v="Osane" />
		<tag k="place" v="isolated_dwelling" />
		<tag k="ssr:stedsnr" v="828269" />
	</node>
	<node id="-555155" lat="62.4357194486" lon="6.51411389532">
		<tag k="name" v="Eiteråna" />
		<tag k="ssr:stedsnr" v="827999" />
		<tag k="waterway" v="stream" />
	</node>
	<node id="-555154" lat="62.4328555547" lon="6.46510832886">
		<tag k="name" v="Midthaug" />
		<tag k="place" v="farm" />
		<tag k="ssr:stedsnr" v="827997" />
	</node>
	<node id="-555153" lat="62.4870694412" lon="6.43167500018">
		<tag k="name" v="Høgemyra" />
		<tag k="natural" v="wetland" />
		<tag k="ssr:stedsnr" v="827988" />
	</node>
	<node id="-555152" lat="62.4376500002" lon="6.41107221772">
		<tag k="name" v="Nausa" />
		<tag k="natural" v="hill" />
		<tag k="place" v="locality" />
		<tag k="ssr:stedsnr" v="827976" />
	</node>
	<node id="-555151" lat="62.5029055598" lon="6.43236667512">
		<tag k="fixme" v="consider seamark:type=rock or natural=shoal" />
		<tag k="name" v="Kalven" />
		<tag k="place" v="islet" />
		<tag k="ssr:stedsnr" v="827969" />
	</node>
	<node id="-555150" lat="62.4343472184" lon="6.32649444931">
		<tag k="name" v="Kråkhaugen" />
		<tag k="natural" v="hill" />
		<tag k="place" v="locality" />
		<tag k="ssr:stedsnr" v="827962" />
	</node>
	<node id="-555149" lat="62.4323027744" lon="6.32284444329">
		<tag k="name" v="Raudeberg" />
		<tag k="natural" v="hill" />
		<tag k="place" v="locality" />
		<tag k="ssr:stedsnr" v="827959" />
	</node>
	<node id="-555148" lat="62.464622226" lon="6.35776388156">
		<tag k="name" v="Scottsborg" />
		<tag k="natural" v="hill" />
		<tag k="place" v="locality" />
		<tag k="ssr:stedsnr" v="827955" />
	</node>
	<node id="-555147" lat="62.5110583289" lon="6.26047221742">
		<tag k="name" v="Storvika" />
		<tag k="natural" v="bay" />
		<tag k="ssr:stedsnr" v="827952" />
	</node>
	<node id="-555146" lat="62.4550666634" lon="6.08600000307">
		<tag k="name" v="Valleflua" />
		<tag k="place" v="locality" />
		<tag k="seamark:type" v="rock" />
		<tag k="ssr:stedsnr" v="827722" />
	</node>
	<node id="-555145" lat="62.4779555517" lon="6.2648972253">
		<tag k="alt_name" v="Ytre Svinøysundet" />
		<tag k="name" v="Svinøysundet" />
		<tag k="natural" v="strait" />
		<tag k="ssr:stedsnr" v="827715" />
	</node>
	<node id="-555144" lat="62.476486112" lon="6.27340000061">
		<tag k="name" v="Svinøyholmane" />
		<tag k="place" v="islet" />
		<tag k="ssr:stedsnr" v="827709" />
	</node>
	<node id="-555143" lat="62.4755416677" lon="6.24036666896">
		<tag k="fixme" v="consider natural=peak for the most distinct mountains in the district" />
		<tag k="name" v="Husafjellet" />
		<tag k="natural" v="hill" />
		<tag k="place" v="locality" />
		<tag k="ssr:stedsnr" v="827707" />
	</node>
	<node id="-555142" lat="62.4429833295" lon="6.30945833317">
		<tag k="name" v="Humlesundet" />
		<tag k="natural" v="strait" />
		<tag k="ssr:stedsnr" v="827660" />
	</node>
	<node id="-555141" lat="62.4653694455" lon="6.46825556231">
		<tag k="name" v="Bassenget" />
		<tag k="ssr:stedsnr" v="827653" />
		<tag k="waterway" v="dam" />
	</node>
	<node id="-555140" lat="62.44740278" lon="6.54163889378">
		<tag k="highway" v="path" />
		<tag k="name" v="Styggestigen" />
		<tag k="ssr:stedsnr" v="827652" />
	</node>
	<node id="-555139" lat="62.4639222198" lon="6.22943054632">
		<tag k="name" v="Skotteberget" />
		<tag k="natural" v="hill" />
		<tag k="place" v="locality" />
		<tag k="ssr:stedsnr" v="827643" />
	</node>
	<node id="-555138" lat="62.4713111076" lon="6.19025832896">
		<tag k="amenity" v="school" />
		<tag k="name" v="Volsdalen skole" />
		<tag k="old_name" v="Volsdalens skole" />
		<tag k="ssr:stedsnr" v="827635" />
	</node>
	<node id="-555137" lat="62.4622999965" lon="6.41845832406">
		<tag k="name" v="Storfonna" />
		<tag k="natural" v="valley" />
		<tag k="place" v="locality" />
		<tag k="ssr:stedsnr" v="827630" />
	</node>
	<node id="-555136" lat="62.4790833291" lon="6.40997223107">
		<tag k="name" v="Plettedalen" />
		<tag k="natural" v="valley" />
		<tag k="place" v="locality" />
		<tag k="ssr:stedsnr" v="827627" />
	</node>
	<node id="-555135" lat="62.5059333372" lon="6.4363027709">
		<tag k="name" v="Dyrøysundet" />
		<tag k="natural" v="strait" />
		<tag k="ssr:stedsnr" v="827621" />
	</node>
	<node id="-555134" lat="62.4904027773" lon="6.17270833451">
		<tag k="name" v="Kobbholmane" />
		<tag k="place" v="island" />
		<tag k="ssr:stedsnr" v="827618" />
	</node>
	<node id="-555133" lat="62.4831833321" lon="6.20877500552">
		<tag k="fixme" v="consider seamark:type=rock or natural=shoal" />
		<tag k="name" v="Skarveskjeret" />
		<tag k="place" v="islet" />
		<tag k="ssr:stedsnr" v="827608" />
	</node>
	<node id="-555132" lat="62.5087638878" lon="6.42718888241">
		<tag k="name" v="Brendehaug" />
		<tag k="place" v="farm" />
		<tag k="ssr:stedsnr" v="827604" />
	</node>
	<node id="-555131" lat="62.4753722263" lon="6.33610554934">
		<tag k="name" v="Grautneset" />
		<tag k="natural" v="cape" />
		<tag k="ssr:stedsnr" v="827592" />
	</node>
	<node id="-555130" lat="62.4680638928" lon="6.23442222787">
		<tag k="name" v="Sunnmøre museum" />
		<tag k="ssr:stedsnr" v="827589" />
		<tag k="tourism" v="museum" />
	</node>
	<node id="-555129" lat="62.4388305575" lon="6.31305276966">
		<tag k="name" v="Tørlevågen" />
		<tag k="natural" v="bay" />
		<tag k="ssr:stedsnr" v="827572" />
	</node>
	<node id="-555128" lat="62.4269277746" lon="6.41771667333">
		<tag k="alt_name" v="Brudaholmen" />
		<tag k="name" v="Brudholmen" />
		<tag k="place" v="islet" />
		<tag k="ssr:stedsnr" v="827567" />
	</node>
	<node id="-555127" lat="62.4916292615" lon="6.27677155417">
		<tag k="fixme" v="consider place=hamlet" />
		<tag k="name" v="Kvalstein" />
		<tag k="place" v="farm" />
		<tag k="ssr:stedsnr" v="827558" />
	</node>
	<node id="-555126" lat="62.5150194458" lon="6.28798610839">
		<tag k="name" v="Tjørvika" />
		<tag k="natural" v="bay" />
		<tag k="ssr:stedsnr" v="827545" />
	</node>
	<node id="-555125" lat="62.5112388924" lon="6.29355833488">
		<tag k="name" v="Brendetua" />
		<tag k="natural" v="hill" />
		<tag k="place" v="locality" />
		<tag k="ssr:stedsnr" v="827546" />
	</node>
	<node id="-555124" lat="62.4370583313" lon="6.35989722689">
		<tag k="bridge" v="yes" />
		<tag k="layer" v="1" />
		<tag k="name" v="Tørlevegbrua" />
		<tag k="ssr:stedsnr" v="825381" />
	</node>
	<node id="-555123" lat="62.4708138888" lon="6.15171665723">
		<tag k="bridge" v="yes" />
		<tag k="layer" v="1" />
		<tag k="name" v="Hellebrua" />
		<tag k="ssr:stedsnr" v="825012" />
	</node>
	<node id="-555122" lat="62.4570166701" lon="6.11880555551">
		<tag k="name" v="Hessa" />
		<tag k="place" v="suburb" />
		<tag k="ssr:stedsnr" v="814166" />
	</node>
	<node id="-555121" lat="62.4618722211" lon="6.45379999163">
		<tag k="fixme" v="consider natural=peak for the most distinct mountains in the district" />
		<tag k="name" v="Spjelkavikfjellet" />
		<tag k="natural" v="hill" />
		<tag k="place" v="locality" />
		<tag k="ssr:stedsnr" v="809348" />
	</node>
	<node id="-555120" lat="62.4349638876" lon="6.37610834077">
		<tag k="fixme" v="consider place=suburb, village or hamlet" />
		<tag k="name" v="Myrland" />
		<tag k="place" v="quarter" />
		<tag k="ssr:stedsnr" v="809346" />
	</node>
	<node id="-555119" lat="62.4302555534" lon="6.42808055649">
		<tag k="name" v="Emblemsvågen" />
		<tag k="natural" v="bay" />
		<tag k="ssr:stedsnr" v="809163" />
	</node>
	<node id="-555118" lat="62.5060288075" lon="6.41921624963">
		<tag k="fixme" v="consider place=hamlet" />
		<tag k="name" v="Stokkereitane" />
		<tag k="place" v="farm" />
		<tag k="ssr:stedsnr" v="801139" />
	</node>
	<node id="-555117" lat="62.5016388906" lon="6.43049999527">
		<tag k="name" v="Reitholmen" />
		<tag k="place" v="islet" />
		<tag k="ssr:stedsnr" v="801137" />
	</node>
	<node id="-555116" lat="62.4785638925" lon="6.17231666961">
		<tag k="name" v="Verpingsvika" />
		<tag k="natural" v="bay" />
		<tag k="ssr:stedsnr" v="800994" />
	</node>
	<node id="-555115" lat="62.4936111153" lon="6.17724444227">
		<tag k="name" v="Ellingsøya" />
		<tag k="place" v="island" />
		<tag k="ssr:stedsnr" v="800988" />
	</node>
	<node id="-555114" lat="62.5171416696" lon="6.30766110952">
		<tag k="fixme" v="consider seamark:type=rock or natural=shoal" />
		<tag k="name" v="Båtvikskjeret" />
		<tag k="place" v="islet" />
		<tag k="ssr:stedsnr" v="800181" />
	</node>
	<node id="-555113" lat="62.43555278" lon="6.31890000888">
		<tag k="alt_name" v="Hankøya" />
		<tag k="name" v="Tørla" />
		<tag k="place" v="island" />
		<tag k="ssr:stedsnr" v="800048" />
	</node>
	<node id="-555112" lat="62.4725541534" lon="6.3888672177">
		<tag k="fixme" v="consider place=hamlet" />
		<tag k="name" v="Hatlen" />
		<tag k="place" v="farm" />
		<tag k="ssr:stedsnr" v="800022" />
	</node>
	<node id="-555111" lat="62.4588444463" lon="6.47321943711">
		<tag k="historic" v="shieling" />
		<tag k="name" v="Gamle Emblemssætra" />
		<tag k="place" v="locality" />
		<tag k="ssr:stedsnr" v="800006" />
	</node>
	<node id="-555110" lat="62.4572305595" lon="6.08726111562">
		<tag k="name" v="Stavneset" />
		<tag k="natural" v="cape" />
		<tag k="ssr:stedsnr" v="799969" />
	</node>
	<node id="-555109" lat="62.4667249985" lon="6.15420833358">
		<tag k="name" v="Aspa" />
		<tag k="place" v="islet" />
		<tag k="ssr:stedsnr" v="799965" />
	</node>
	<node id="-555108" lat="62.4630861079" lon="6.16920276872">
		<tag k="fixme" v="multiple name tags, choose one and add the other to alt_name" />
		<tag k="name" v="Slinningsodden;Slinningsneset" />
		<tag k="natural" v="cape" />
		<tag k="old_name" v="Slinningsnesset" />
		<tag k="ssr:stedsnr" v="799964" />
	</node>
	<node id="-555107" lat="62.4971362906" lon="6.4200684974">
		<tag k="name" v="Drogene" />
		<tag k="place" v="island" />
		<tag k="ssr:stedsnr" v="799250" />
	</node>
	<node id="-555106" lat="62.4966865072" lon="6.24952759796">
		<tag k="alt_name" v="Grytebost" />
		<tag k="fixme" v="consider place=hamlet" />
		<tag k="name" v="Grytebust" />
		<tag k="place" v="farm" />
		<tag k="ssr:stedsnr" v="799200" />
	</node>
	<node id="-555104" lat="62.4886249995" lon="6.34797778334">
		<tag k="name" v="Leirneset" />
		<tag k="natural" v="cape" />
		<tag k="ssr:stedsnr" v="784411" />
	</node>
	<node id="-555103" lat="62.4693805584" lon="6.21758610202">
		<tag k="alt_name" v="Kolvikflaket" />
		<tag k="name" v="Kollvikflaket" />
		<tag k="natural" v="shoal" />
		<tag k="place" v="locality" />
		<tag k="ssr:stedsnr" v="784249" />
	</node>
	<node id="-555102" lat="62.4739944443" lon="6.15250833504">
		<tag k="name" v="Vågen" />
		<tag k="natural" v="bay" />
		<tag k="ssr:stedsnr" v="784201" />
	</node>
	<node id="-555101" lat="62.4650527821" lon="6.09651110498">
		<tag k="name" v="Gullhaugane" />
		<tag k="natural" v="hill" />
		<tag k="place" v="locality" />
		<tag k="ssr:stedsnr" v="784190" />
	</node>
	<node id="-555100" lat="62.4852694407" lon="6.38093055916">
		<tag k="name" v="Indre Hovdenes" />
		<tag k="natural" v="cape" />
		<tag k="ssr:stedsnr" v="780400" />
	</node>
	<node id="-555099" lat="62.4927472264" lon="6.32914444298">
		<tag k="name" v="Vikeneset" />
		<tag k="natural" v="cape" />
		<tag k="ssr:stedsnr" v="780360" />
	</node>
	<node id="-555098" lat="62.4294361079" lon="6.48756111307">
		<tag k="name" v="Kvalsflua" />
		<tag k="natural" v="shoal" />
		<tag k="place" v="locality" />
		<tag k="ssr:stedsnr" v="779948" />
	</node>
	<node id="-555097" lat="62.4446611142" lon="6.27300833564">
		<tag k="name" v="Kavlesundet" />
		<tag k="natural" v="strait" />
		<tag k="ssr:stedsnr" v="779665" />
	</node>
	<node id="-555096" lat="62.5200305524" lon="6.31770278172">
		<tag k="name" v="Løflua" />
		<tag k="place" v="locality" />
		<tag k="seamark:type" v="rock" />
		<tag k="ssr:stedsnr" v="779358" />
	</node>
	<node id="-555095" lat="62.4448444457" lon="6.36667222489">
		<tag k="bridge" v="yes" />
		<tag k="layer" v="1" />
		<tag k="name" v="Geilebrua" />
		<tag k="ssr:stedsnr" v="769045" />
	</node>
	<node id="-555094" lat="62.4648250013" lon="6.38316667419">
		<tag k="bridge" v="yes" />
		<tag k="layer" v="1" />
		<tag k="name" v="Fremmerholbrua" />
		<tag k="ssr:stedsnr" v="769040" />
	</node>
	<node id="-555093" lat="62.4708083315" lon="6.11147500291">
		<tag k="name" v="Drevika" />
		<tag k="natural" v="bay" />
		<tag k="ssr:stedsnr" v="766974" />
	</node>
	<node id="-555092" lat="62.4980555586" lon="6.32376110799">
		<tag k="name" v="Vikelva" />
		<tag k="ssr:stedsnr" v="766960" />
		<tag k="waterway" v="stream" />
	</node>
	<node id="-555091" lat="62.4600055534" lon="6.37330833362">
		<tag k="name" v="Hjellen" />
		<tag k="place" v="farm" />
		<tag k="ssr:stedsnr" v="766945" />
	</node>
	<node id="-555090" lat="62.4313416647" lon="6.49052777056">
		<tag k="name" v="Akselhaugen" />
		<tag k="natural" v="hill" />
		<tag k="place" v="locality" />
		<tag k="ssr:stedsnr" v="766706" />
	</node>
	<node id="-555089" lat="62.470347224" lon="6.25601943837">
		<tag k="name" v="Gåseidholmane" />
		<tag k="place" v="islet" />
		<tag k="ssr:stedsnr" v="766685" />
	</node>
	<node id="-555088" lat="62.4497361091" lon="6.36234444863">
		<tag k="name" v="Langhaugen" />
		<tag k="natural" v="hill" />
		<tag k="place" v="locality" />
		<tag k="ssr:stedsnr" v="766635" />
	</node>
	<node id="-555087" lat="62.4681637376" lon="6.43990087059">
		<tag k="historic" v="shieling" />
		<tag k="name" v="Prestesætra" />
		<tag k="place" v="locality" />
		<tag k="ssr:stedsnr" v="766630" />
	</node>
	<node id="-555086" lat="62.4649888907" lon="6.46106110337">
		<tag k="name" v="Svartorven" />
		<tag k="natural" v="slope" />
		<tag k="place" v="locality" />
		<tag k="ssr:stedsnr" v="766629" />
	</node>
	<node id="-555085" lat="62.4449527775" lon="6.46200555838">
		<tag k="name" v="Rotenakken" />
		<tag k="natural" v="hill" />
		<tag k="place" v="locality" />
		<tag k="ssr:stedsnr" v="766622" />
	</node>
	<node id="-555084" lat="62.4697583368" lon="6.23312500387">
		<tag k="name" v="Nørvasundet" />
		<tag k="natural" v="strait" />
		<tag k="ssr:stedsnr" v="766606" />
	</node>
	<node id="-555083" lat="62.4534249985" lon="6.35210000437">
		<tag k="name" v="Brokkedalen" />
		<tag k="natural" v="valley" />
		<tag k="place" v="locality" />
		<tag k="ssr:stedsnr" v="766582" />
	</node>
	<node id="-555082" lat="62.5054166649" lon="6.2359972208">
		<tag k="name" v="Bunesbotn" />
		<tag k="natural" v="valley" />
		<tag k="place" v="locality" />
		<tag k="ssr:stedsnr" v="766570" />
	</node>
	<node id="-555081" lat="62.5008416638" lon="6.21860555133">
		<tag k="name" v="Skjervane" />
		<tag k="natural" v="hill" />
		<tag k="place" v="locality" />
		<tag k="ssr:stedsnr" v="766567" />
	</node>
	<node id="-555080" lat="62.4354999977" lon="6.35879722496">
		<tag k="bridge" v="yes" />
		<tag k="layer" v="1" />
		<tag k="name" v="Fjøshaugbrua" />
		<tag k="ssr:stedsnr" v="764423" />
	</node>
	<node id="-555079" lat="62.4696472221" lon="6.24126667252">
		<tag k="bridge" v="yes" />
		<tag k="layer" v="1" />
		<tag k="name" v="Borgundbrua" />
		<tag k="ssr:stedsnr" v="764084" />
	</node>
	<node id="-555078" lat="62.4727722195" lon="6.36586110945">
		<tag k="layer" v="-1" />
		<tag k="name" v="Retiroundergangen" />
		<tag k="ssr:stedsnr" v="764045" />
		<tag k="tunnel" v="yes" />
	</node>
	<node id="-555077" lat="62.4979333338" lon="6.22250555377">
		<tag k="bridge" v="yes" />
		<tag k="layer" v="1" />
		<tag k="name" v="Kapteinhusbrua" />
		<tag k="ssr:stedsnr" v="764017" />
	</node>
	<node id="-555076" lat="62.4979333338" lon="6.22250555377">
		<tag k="bridge" v="yes" />
		<tag k="layer" v="1" />
		<tag k="name" v="Eidsvågbrua" />
		<tag k="ssr:stedsnr" v="764015" />
	</node>
	<node id="-555075" lat="62.4917083307" lon="6.32754167448">
		<tag k="fixme" v="consider seamark:type=rock or natural=shoal" />
		<tag k="name" v="Glettskjeret" />
		<tag k="place" v="islet" />
		<tag k="ssr:stedsnr" v="766545" />
	</node>
	<node id="-555074" lat="62.5062372145" lon="6.32030817316">
		<tag k="fixme" v="consider place=hamlet" />
		<tag k="name" v="Øvre Volstad" />
		<tag k="place" v="farm" />
		<tag k="ssr:stedsnr" v="766541" />
	</node>
	<node id="-555073" lat="62.4958500007" lon="6.36863333549">
		<tag k="alt_name" v="Ytre Årsetvågen" />
		<tag k="name" v="Ytre Årsetvåg" />
		<tag k="natural" v="bay" />
		<tag k="ssr:stedsnr" v="766538" />
	</node>
	<node id="-555072" lat="62.485302776" lon="6.39488334004">
		<tag k="name" v="Tangneset" />
		<tag k="natural" v="cape" />
		<tag k="ssr:stedsnr" v="766512" />
	</node>
	<node id="-555071" lat="62.4709444406" lon="6.17629999491">
		<tag k="layer" v="-1" />
		<tag k="name" v="Ellingsøytunnelen" />
		<tag k="ssr:stedsnr" v="755330" />
		<tag k="tunnel" v="yes" />
	</node>
	<node id="-555070" lat="62.4554555591" lon="6.25059166436">
		<tag k="name" v="Bogneset" />
		<tag k="natural" v="cape" />
		<tag k="ssr:stedsnr" v="748329" />
	</node>
	<node id="-555069" lat="62.4898833305" lon="6.16714722143">
		<tag k="name" v="Lykjelsholmen" />
		<tag k="old_name" v="Nykkeholmen" />
		<tag k="place" v="islet" />
		<tag k="ssr:stedsnr" v="739988" />
	</node>
	<node id="-555068" lat="62.4920527808" lon="6.16606945147">
		<tag k="alt_name" v="Kverveodden;Kvervodden" />
		<tag k="name" v="Kverve" />
		<tag k="natural" v="cape" />
		<tag k="ssr:stedsnr" v="739986" />
	</node>
	<node id="-555067" lat="62.4480138891" lon="6.41123889215">
		<tag k="alt_name" v="Blindheimfjellet" />
		<tag k="fixme" v="consider natural=peak for the most distinct mountains in the district" />
		<tag k="name" v="Blindheimsfjellet" />
		<tag k="natural" v="hill" />
		<tag k="place" v="locality" />
		<tag k="ssr:stedsnr" v="739056" />
	</node>
	<node id="-555066" lat="62.4517725642" lon="6.34856897418">
		<tag k="alt_name" v="Rimvika" />
		<tag k="fixme" v="consider place=hamlet" />
		<tag k="name" v="Remvika" />
		<tag k="place" v="farm" />
		<tag k="ssr:stedsnr" v="739053" />
	</node>
	<node id="-555065" lat="62.4669944409" lon="6.46331388983">
		<tag k="alt_name" v="Kvennaneselva" />
		<tag k="name" v="Vasstrandelva" />
		<tag k="ssr:stedsnr" v="739028" />
		<tag k="waterway" v="stream" />
	</node>
	<node id="-555064" lat="62.4719944476" lon="6.23977499355">
		<tag k="loc_name" v="Nørvasund" />
		<tag k="name" v="Nørvasundet" />
		<tag k="place" v="suburb" />
		<tag k="ssr:stedsnr" v="739013" />
	</node>
	<node id="-555063" lat="62.4564416663" lon="6.10113056493">
		<tag k="name" v="Sævollen" />
		<tag k="place" v="farm" />
		<tag k="ssr:stedsnr" v="738962" />
	</node>
	<node id="-555062" lat="62.463791179" lon="6.19814435167">
		<tag k="name" v="Tyskholmen" />
		<tag k="place" v="islet" />
		<tag k="ssr:stedsnr" v="738963" />
	</node>
	<node id="-555061" lat="62.4663694443" lon="6.10377499683">
		<tag k="fixme" v="consider natural=peak for the most distinct mountains in the district" />
		<tag k="name" v="Pilen" />
		<tag k="natural" v="hill" />
		<tag k="place" v="locality" />
		<tag k="ssr:stedsnr" v="738953" />
	</node>
	<node id="-555060" lat="62.4693027762" lon="6.0674944405">
		<tag k="alt_name" v="Erkneflua" />
		<tag k="name" v="Erknefluda" />
		<tag k="natural" v="shoal" />
		<tag k="place" v="locality" />
		<tag k="ssr:stedsnr" v="738952" />
	</node>
	<node id="-555059" lat="62.4714194404" lon="6.13872221678">
		<tag k="name" v="Aspøya" />
		<tag k="place" v="island" />
		<tag k="ssr:stedsnr" v="738950" />
	</node>
	<node id="-555058" lat="62.4826472199" lon="6.23892499366">
		<tag k="name" v="Stabben" />
		<tag k="natural" v="shoal" />
		<tag k="place" v="locality" />
		<tag k="ssr:stedsnr" v="738254" />
	</node>
	<node id="-555057" lat="62.4881694463" lon="6.25394722576">
		<tag k="alt_name" v="Vardeflua" />
		<tag k="name" v="Vardefluda" />
		<tag k="natural" v="shoal" />
		<tag k="place" v="locality" />
		<tag k="ssr:stedsnr" v="738255" />
	</node>
	<node id="-555056" lat="62.4823833312" lon="6.33490555846">
		<tag k="name" v="Kavringen" />
		<tag k="place" v="islet" />
		<tag k="ssr:stedsnr" v="738228" />
	</node>
	<node id="-555055" lat="62.4232206451" lon="6.39775225327">
		<tag k="alt_name" v="Flisnes" />
		<tag k="fixme" v="consider place=hamlet" />
		<tag k="name" v="Flisneset" />
		<tag k="place" v="farm" />
		<tag k="ssr:stedsnr" v="738074" />
	</node>
	<node id="-555053" lat="62.4365388848" lon="6.48150000212">
		<tag k="fixme" v="consider natural=peak for the most distinct mountains in the district" />
		<tag k="name" v="Lillenakken" />
		<tag k="natural" v="hill" />
		<tag k="place" v="locality" />
		<tag k="ssr:stedsnr" v="726613" />
	</node>
	<node id="-555052" lat="62.4605055555" lon="6.33297777309">
		<tag k="name" v="Bakkenes" />
		<tag k="natural" v="cape" />
		<tag k="ssr:stedsnr" v="726175" />
	</node>
	<node id="-555051" lat="62.449105559" lon="6.30209722678">
		<tag k="name" v="Langskjerflua" />
		<tag k="natural" v="shoal" />
		<tag k="place" v="locality" />
		<tag k="ssr:stedsnr" v="726099" />
	</node>
	<node id="-555050" lat="62.4525888906" lon="6.35966944892">
		<tag k="name" v="Myrvoll" />
		<tag k="place" v="isolated_dwelling" />
		<tag k="ssr:stedsnr" v="726096" />
	</node>
	<node id="-555049" lat="62.4701083334" lon="6.16320277024">
		<tag k="man_made" v="quay" />
		<tag k="name" v="Meierikaia" />
		<tag k="place" v="locality" />
		<tag k="ssr:stedsnr" v="724033" />
	</node>
	<node id="-555048" lat="62.463319442" lon="6.12252223088">
		<tag k="name" v="Kleivevågen" />
		<tag k="natural" v="bay" />
		<tag k="ssr:stedsnr" v="724022" />
	</node>
	<node id="-555047" lat="62.4592388852" lon="6.28960277951">
		<tag k="name" v="Hatleholmen" />
		<tag k="place" v="islet" />
		<tag k="ssr:stedsnr" v="723139" />
	</node>
	<node id="-555046" lat="62.474344448" lon="6.34932500825">
		<tag k="name" v="Indre Breivika" />
		<tag k="natural" v="bay" />
		<tag k="ssr:stedsnr" v="719968" />
	</node>
	<node id="-555045" lat="62.4278388883" lon="6.44908054967">
		<tag k="name" v="Klebergsflua" />
		<tag k="natural" v="shoal" />
		<tag k="place" v="locality" />
		<tag k="ssr:stedsnr" v="719956" />
	</node>
	<node id="-555044" lat="62.5123638917" lon="6.40250832919">
		<tag k="name" v="Stokkeneset" />
		<tag k="natural" v="cape" />
		<tag k="ssr:stedsnr" v="719394" />
	</node>
	<node id="-555043" lat="62.4906194414" lon="6.41741111262">
		<tag k="name" v="Juvika" />
		<tag k="natural" v="bay" />
		<tag k="ssr:stedsnr" v="719425" />
	</node>
	<node id="-555042" lat="62.507202776" lon="6.1973111057">
		<tag k="name" v="Gildrenesfluene" />
		<tag k="natural" v="shoal" />
		<tag k="place" v="locality" />
		<tag k="ssr:stedsnr" v="718646" />
	</node>
	<node id="-555041" lat="62.5132944453" lon="6.27042777348">
		<tag k="name" v="Vikholmane" />
		<tag k="place" v="islet" />
		<tag k="ssr:stedsnr" v="718642" />
	</node>
	<node id="-555040" lat="62.5150777762" lon="6.29381944655">
		<tag k="name" v="Leitet" />
		<tag k="natural" v="valley" />
		<tag k="place" v="locality" />
		<tag k="ssr:stedsnr" v="718356" />
	</node>
	<node id="-555039" lat="62.4614111076" lon="6.35262499545">
		<tag k="bridge" v="yes" />
		<tag k="layer" v="1" />
		<tag k="name" v="Langelandsbrua" />
		<tag k="ssr:stedsnr" v="708062" />
	</node>
	<node id="-555038" lat="62.4604444467" lon="6.35955555233">
		<tag k="bridge" v="yes" />
		<tag k="layer" v="1" />
		<tag k="name" v="Solvangbrua" />
		<tag k="ssr:stedsnr" v="708060" />
	</node>
	<node id="-555037" lat="62.470183336" lon="6.15112500652">
		<tag k="bridge" v="yes" />
		<tag k="layer" v="1" />
		<tag k="name" v="Torghallbroa" />
		<tag k="ssr:stedsnr" v="708052" />
	</node>
	<node id="-555035" lat="62.4748638892" lon="6.2320916759">
		<tag k="alt_name" v="Krematoriet" />
		<tag k="amenity" v="place_of_worship" />
		<tag k="fixme" v="specify religion=*, denomination=*, building=* etc" />
		<tag k="name" v="Ålesund Krematorium" />
		<tag k="ssr:stedsnr" v="706926" />
	</node>
	<node id="-555034" lat="62.4607666702" lon="6.0685861034">
		<tag k="alt_name" v="Sydtaren" />
		<tag k="name" v="Sørtaren" />
		<tag k="natural" v="shoal" />
		<tag k="place" v="locality" />
		<tag k="ssr:stedsnr" v="706290" />
	</node>
	<node id="-555033" lat="62.4622305534" lon="6.1141833276">
		<tag k="aerialway" v="gondola" />
		<tag k="name" v="Osen" />
		<tag k="ssr:stedsnr" v="705980" />
	</node>
	<node id="-555032" lat="62.477833335" lon="6.44055278146">
		<tag k="name" v="Reiten" />
		<tag k="place" v="farm" />
		<tag k="ssr:stedsnr" v="705973" />
	</node>
	<node id="-555031" lat="62.5034694427" lon="6.25737499167">
		<tag k="name" v="Skaret" />
		<tag k="natural" v="valley" />
		<tag k="place" v="locality" />
		<tag k="ssr:stedsnr" v="705954" />
	</node>
	<node id="-555030" lat="62.4387916672" lon="6.51340834151">
		<tag k="name" v="Plassen" />
		<tag k="place" v="isolated_dwelling" />
		<tag k="ssr:stedsnr" v="705943" />
	</node>
	<node id="-555029" lat="62.5143361146" lon="6.29169999067">
		<tag k="name" v="Lunberg" />
		<tag k="place" v="farm" />
		<tag k="ssr:stedsnr" v="705938" />
	</node>
	<node id="-555028" lat="62.4439444444" lon="6.31583611213">
		<tag k="name" v="Tørlevika" />
		<tag k="natural" v="bay" />
		<tag k="ssr:stedsnr" v="705741" />
	</node>
	<node id="-555027" lat="62.495002778" lon="6.28836667295">
		<tag k="name" v="Myklebustelva" />
		<tag k="ssr:stedsnr" v="705738" />
		<tag k="waterway" v="stream" />
	</node>
	<node id="-555026" lat="62.4734305521" lon="6.15329999065">
		<tag k="name" v="Brunholmen" />
		<tag k="place" v="islet" />
		<tag k="ssr:stedsnr" v="705732" />
	</node>
	<node id="-555025" lat="62.4430027779" lon="6.41678332817">
		<tag k="name" v="Bjønnalågja" />
		<tag k="place" v="locality" />
		<tag k="ssr:stedsnr" v="705703" />
	</node>
	<node id="-555024" lat="62.442100003" lon="6.41224999749">
		<tag k="fixme" v="consider natural=peak for the most distinct mountains in the district" />
		<tag k="name" v="Raudefjellet" />
		<tag k="natural" v="hill" />
		<tag k="place" v="locality" />
		<tag k="ssr:stedsnr" v="705702" />
	</node>
	<node id="-555023" lat="62.4403833349" lon="6.30972221851">
		<tag k="name" v="Notaberget" />
		<tag k="natural" v="hill" />
		<tag k="place" v="locality" />
		<tag k="ssr:stedsnr" v="705688" />
	</node>
	<node id="-555022" lat="62.4382554634" lon="6.44310701438">
		<tag k="name" v="Skillingen" />
		<tag k="place" v="farm" />
		<tag k="ssr:stedsnr" v="705674" />
	</node>
	<node id="-555021" lat="62.4309861131" lon="6.45874722622">
		<tag k="alt_name" v="Østremsvika" />
		<tag k="name" v="Naustvika" />
		<tag k="natural" v="bay" />
		<tag k="ssr:stedsnr" v="705671" />
	</node>
	<node id="-555020" lat="62.4679305564" lon="6.22590277242">
		<tag k="name" v="Toskesundet" />
		<tag k="natural" v="strait" />
		<tag k="ssr:stedsnr" v="705667" />
	</node>
	<node id="-555019" lat="62.475938889" lon="6.18400554738">
		<tag k="leisure" v="pitch" />
		<tag k="name" v="Aksla stadion" />
		<tag k="ssr:stedsnr" v="705656" />
	</node>
	<node id="-555018" lat="62.4590999964" lon="6.4534194534">
		<tag k="name" v="Auststølvatnet" />
		<tag k="natural" v="water" />
		<tag k="ssr:stedsnr" v="705631" />
		<tag k="water" v="lake" />
	</node>
	<node id="-555017" lat="62.4471833302" lon="6.30494167465">
		<tag k="fixme" v="multiple name tags, choose one and add the other to alt_name" />
		<tag k="name" v="Humlevika;Sandvågen" />
		<tag k="natural" v="bay" />
		<tag k="ssr:stedsnr" v="705627" />
	</node>
	<node id="-555016" lat="62.4464666641" lon="6.36533611502">
		<tag k="name" v="Nesgjerdet" />
		<tag k="place" v="locality" />
		<tag k="ssr:stedsnr" v="705625" />
	</node>
	<node id="-555015" lat="62.4678194404" lon="6.30244999425">
		<tag k="alt_name" v="Leirstadvatnet" />
		<tag k="name" v="Lerstadvatnet" />
		<tag k="natural" v="water" />
		<tag k="ssr:stedsnr" v="705617" />
		<tag k="water" v="lake" />
	</node>
	<node id="-555014" lat="62.4922722193" lon="6.36567777222">
		<tag k="name" v="Årsetsundet" />
		<tag k="natural" v="strait" />
		<tag k="ssr:stedsnr" v="705606" />
	</node>
	<node id="-555013" lat="62.4325111143" lon="6.37885277959">
		<tag k="alt_name" v="Kvernesvågen" />
		<tag k="name" v="Kvernhusvågen" />
		<tag k="natural" v="bay" />
		<tag k="ssr:stedsnr" v="705600" />
	</node>
	<node id="-555012" lat="62.4623277743" lon="6.49502221777">
		<tag k="name" v="Langevassberget" />
		<tag k="natural" v="slope" />
		<tag k="place" v="locality" />
		<tag k="ssr:stedsnr" v="705597" />
	</node>
	<node id="-555011" lat="62.4926444458" lon="6.26672499867">
		<tag k="name" v="Slotsvika" />
		<tag k="natural" v="bay" />
		<tag k="ssr:stedsnr" v="705593" />
	</node>
	<node id="-555010" lat="62.4851527822" lon="6.38305555236">
		<tag k="name" v="Hovdevika" />
		<tag k="natural" v="bay" />
		<tag k="ssr:stedsnr" v="705583" />
	</node>
	<node id="-555009" lat="62.507883337" lon="6.26090555688">
		<tag k="highway" v="path" />
		<tag k="name" v="Storegjerdsstigen" />
		<tag k="ssr:stedsnr" v="705581" />
	</node>
</osm>
