<?xml version="1.0" encoding="UTF-8"?>
<osm generator="osmapis" version="0.6">
	<node id="-553770" lat="62.455499998" lon="6.43091389106">
		<tag k="alt_name" v="Blindheimsvatnet" />
		<tag k="loc_name" v="Strøkevatnet" />
		<tag k="name" v="Strokevatnet" />
		<tag k="natural" v="water" />
		<tag k="ssr:stedsnr" v="132043" />
	</node>
	<node id="-553721" lat="62.4718138873" lon="6.23856944223">
		<tag k="name" v="Djupvikvatnet" />
		<tag k="natural" v="water" />
		<tag k="ssr:stedsnr" v="88922" />
		<tag k="water" v="lake" />
	</node>
	<node id="-553463" lat="62.4939555543" lon="6.27870277431">
		<tag k="name" v="Kvalsteinelva" />
		<tag k="ssr:stedsnr" v="341585" />
		<tag k="waterway" v="stream" />
	</node>
	<node id="-554358" lat="62.4461888898" lon="6.50319444643">
		<tag k="name" v="Melsvatnet" />
		<tag k="natural" v="water" />
		<tag k="ssr:stedsnr" v="861037" />
	</node>
	<node id="-553965" lat="62.4567500005" lon="6.52343055481">
		<tag k="name" v="Sætrevatnet" />
		<tag k="natural" v="water" />
		<tag k="ssr:stedsnr" v="496049" />
	</node>
	<node id="-553963" lat="62.4454222216" lon="6.4840666684">
		<tag k="name" v="Østremselva" />
		<tag k="ssr:stedsnr" v="496035" />
		<tag k="waterway" v="stream" />
	</node>
	<node id="-554088" lat="62.4309638861" lon="6.44586111177">
		<tag k="name" v="Storelva" />
		<tag k="ssr:stedsnr" v="583997" />
		<tag k="waterway" v="river" />
	</node>
	<node id="-553571" lat="62.446086111" lon="6.44612778608">
		<tag k="name" v="Røssevollelva" />
		<tag k="ssr:stedsnr" v="887613" />
		<tag k="waterway" v="river" />
	</node>
	<node id="-553439" lat="62.4597555594" lon="6.49608610848">
		<tag k="name" v="Langevatnet" />
		<tag k="natural" v="water" />
		<tag k="ssr:stedsnr" v="314003" />
	</node>
	<node id="-554078" lat="62.4424166676" lon="6.41124166863">
		<tag k="name" v="Puskeelva" />
		<tag k="ssr:stedsnr" v="583611" />
		<tag k="waterway" v="stream" />
	</node>
	<node id="-554333" lat="62.4357194486" lon="6.51411389532">
		<tag k="name" v="Eiteråna" />
		<tag k="ssr:stedsnr" v="827999" />
		<tag k="waterway" v="stream" />
	</node>
	<node id="-553943" lat="62.445466666" lon="6.36996667603">
		<tag k="name" v="Stovedalselva" />
		<tag k="ssr:stedsnr" v="462617" />
		<tag k="waterway" v="stream" />
	</node>
	<node id="-553465" lat="62.4650277796" lon="6.50424444673">
		<tag k="name" v="Hesteskarvatnet" />
		<tag k="natural" v="water" />
		<tag k="ssr:stedsnr" v="341599" />
	</node>
	<node id="-554196" lat="62.4590999964" lon="6.4534194534">
		<tag k="name" v="Auststølvatnet" />
		<tag k="natural" v="water" />
		<tag k="ssr:stedsnr" v="705631" />
		<tag k="water" v="lake" />
	</node>
	<node id="-554193" lat="62.4678194404" lon="6.30244999425">
		<tag k="alt_name" v="Leirstadvatnet" />
		<tag k="name" v="Lerstadvatnet" />
		<tag k="natural" v="water" />
		<tag k="ssr:stedsnr" v="705617" />
		<tag k="water" v="lake" />
	</node>
	<node id="-553552" lat="62.4966638927" lon="6.25074443539">
		<tag k="name" v="Grytebustelva" />
		<tag k="ssr:stedsnr" v="887537" />
		<tag k="waterway" v="stream" />
	</node>
	<node id="-554319" lat="62.4653694455" lon="6.46825556231">
		<tag k="name" v="Bassenget" />
		<tag k="ssr:stedsnr" v="827653" />
		<tag k="waterway" v="dam" />
	</node>
	<node id="-553420" lat="62.4465722221" lon="6.50816665717">
		<tag k="name" v="Sætreelva" />
		<tag k="ssr:stedsnr" v="281707" />
		<tag k="waterway" v="stream" />
	</node>
	<node id="-553417" lat="62.4624361118" lon="6.25041388339">
		<tag k="name" v="Ratvikholmen" />
		<tag k="place" v="islet" />
		<tag k="ssr:stedsnr" v="281682" />
	</node>
	<node id="-553416" lat="62.4472722247" lon="6.36785554701">
		<tag k="name" v="Breivikelva" />
		<tag k="ssr:stedsnr" v="281650" />
		<tag k="waterway" v="stream" />
	</node>
	<node id="-553415" lat="62.4335750019" lon="6.45088333215">
		<tag k="name" v="Trollfossen" />
		<tag k="natural" v="waterfall" />
		<tag k="ssr:stedsnr" v="281626" />
	</node>
	<node id="-554051" lat="62.4379988896" lon="6.37869636383">
		<tag k="name" v="Litlevatnet" />
		<tag k="natural" v="water" />
		<tag k="ssr:stedsnr" v="557038" />
	</node>
	<node id="-553410" lat="62.4786805588" lon="6.20375277116">
		<tag k="name" v="Malurken" />
		<tag k="place" v="islet" />
		<tag k="ssr:stedsnr" v="280987" />
	</node>
	<node id="-553407" lat="62.5075194417" lon="6.28775832878">
		<tag k="name" v="Vatnet" />
		<tag k="natural" v="water" />
		<tag k="ssr:stedsnr" v="280949" />
		<tag k="water" v="lake" />
	</node>
	<node id="-553405" lat="62.4589888926" lon="6.44260556423">
		<tag k="name" v="Høgstølvatnet" />
		<tag k="natural" v="water" />
		<tag k="ssr:stedsnr" v="280620" />
		<tag k="water" v="lake" />
	</node>
	<node id="-553916" lat="62.4340166695" lon="6.51670834112">
		<tag k="name" v="Eiteråna" />
		<tag k="ssr:stedsnr" v="445336" />
		<tag k="waterway" v="stream" />
	</node>
	<node id="-553786" lat="62.4390583367" lon="6.36154999121">
		<tag k="name" v="Holmevatnet" />
		<tag k="natural" v="water" />
		<tag k="ssr:stedsnr" v="159684" />
	</node>
	<node id="-554041" lat="62.4545222179" lon="6.53955555555">
		<tag k="name" v="Svartevatnet" />
		<tag k="natural" v="water" />
		<tag k="ssr:stedsnr" v="556045" />
	</node>
	<node id="-553527" lat="62.4975944416" lon="6.26557777019">
		<tag k="name" v="Skuledalsdemma" />
		<tag k="ssr:stedsnr" v="402548" />
		<tag k="waterway" v="dam" />
	</node>
	<node id="-554422" lat="62.448700003" lon="6.31043332633">
		<tag k="name" v="Midtiholmen" />
		<tag k="place" v="islet" />
		<tag k="ssr:stedsnr" v="948688" />
	</node>
	<node id="-554420" lat="62.4685694477" lon="6.2029555571">
		<tag k="name" v="Nørveneset" />
		<tag k="natural" v="cape" />
		<tag k="ssr:stedsnr" v="948666" />
	</node>
	<node id="-553395" lat="62.4902500004" lon="6.27227500493">
		<tag k="name" v="Erikneset" />
		<tag k="natural" v="cape" />
		<tag k="ssr:stedsnr" v="280549" />
	</node>
	<node id="-554205" lat="62.495002778" lon="6.28836667295">
		<tag k="name" v="Myklebustelva" />
		<tag k="ssr:stedsnr" v="705738" />
		<tag k="waterway" v="stream" />
	</node>
	<node id="-553515" lat="62.4600499971" lon="6.40500000834">
		<tag k="name" v="Årsetelva" />
		<tag k="ssr:stedsnr" v="384349" />
		<tag k="waterway" v="river" />
	</node>
	<node id="-554026" lat="62.4652305526" lon="6.12010555005">
		<tag k="name" v="Osholmen" />
		<tag k="place" v="islet" />
		<tag k="ssr:stedsnr" v="523985" />
	</node>
	<node id="-554409" lat="62.4286194485" lon="6.38630000149">
		<tag k="name" v="Klungerholmane" />
		<tag k="place" v="islet" />
		<tag k="ssr:stedsnr" v="948594" />
	</node>
	<node id="-553768" lat="62.4640638905" lon="6.37384445195">
		<tag k="name" v="Litlevatnet" />
		<tag k="natural" v="water" />
		<tag k="ssr:stedsnr" v="132003" />
	</node>
	<node id="-553524" lat="62.4346638879" lon="6.3904416645">
		<tag k="name" v="Byteelva" />
		<tag k="ssr:stedsnr" v="401978" />
		<tag k="waterway" v="stream" />
	</node>
	<node id="-553936" lat="62.4434416705" lon="6.51945833765">
		<tag k="name" v="Eiteråna" />
		<tag k="ssr:stedsnr" v="462945" />
		<tag k="waterway" v="stream" />
	</node>
	<node id="-553888" lat="62.4416000043" lon="6.40969999105">
		<tag k="name" v="Byteelva" />
		<tag k="ssr:stedsnr" v="263357" />
		<tag k="waterway" v="river" />
	</node>
	<node id="-554014" lat="62.4354305514" lon="6.47003334172">
		<tag k="name" v="Sirigrova" />
		<tag k="ssr:stedsnr" v="523711" />
		<tag k="waterway" v="stream" />
	</node>
	<node id="-554270" lat="62.4980555586" lon="6.32376110799">
		<tag k="name" v="Vikelva" />
		<tag k="ssr:stedsnr" v="766960" />
		<tag k="waterway" v="stream" />
	</node>
	<node id="-553754" lat="62.4406444404" lon="6.51719721434">
		<tag k="name" v="Eiteråa" />
		<tag k="ssr:stedsnr" v="99942" />
		<tag k="waterway" v="stream" />
	</node>
	<node id="-553753" lat="62.4653972218" lon="6.26743610282">
		<tag k="name" v="Ratvikvatnet" />
		<tag k="natural" v="water" />
		<tag k="ssr:stedsnr" v="99689" />
		<tag k="water" v="lake" />
	</node>
	<node id="-554392" lat="62.4482472222" lon="6.43556944191">
		<tag k="name" v="Røssevollsvatnet" />
		<tag k="natural" v="water" />
		<tag k="ssr:stedsnr" v="921036" />
	</node>
	<node id="-554133" lat="62.4770944447" lon="6.37632500807">
		<tag k="name" v="Olsvikbekken" />
		<tag k="ssr:stedsnr" v="644622" />
		<tag k="waterway" v="stream" />
	</node>
	<node id="-553747" lat="62.4407722233" lon="6.39654165817">
		<tag k="name" v="Byteelva" />
		<tag k="ssr:stedsnr" v="98941" />
		<tag k="waterway" v="stream" />
	</node>
	<node id="-554381" lat="62.4603722234" lon="6.3594472157">
		<tag k="name" v="Gamleelva" />
		<tag k="ssr:stedsnr" v="906688" />
		<tag k="waterway" v="river" />
	</node>
	<node id="-554431" lat="62.4584472195" lon="6.24716111122">
		<tag k="name" v="Kjerringholmen" />
		<tag k="place" v="islet" />
		<tag k="ssr:stedsnr" v="948984" />
	</node>
	<node id="-553478" lat="62.4676527804" lon="6.2986777768">
		<tag k="name" v="Lerstadvatnet" />
		<tag k="natural" v="water" />
		<tag k="ssr:stedsnr" v="341733" />
		<tag k="water" v="lake" />
	</node>
	<node id="-554243" lat="62.4669944409" lon="6.46331388983">
		<tag k="alt_name" v="Kvennaneselva" />
		<tag k="name" v="Vasstrandelva" />
		<tag k="ssr:stedsnr" v="739028" />
		<tag k="waterway" v="stream" />
	</node>
	<node id="-553579" lat="62.4980444427" lon="6.28087499765">
		<tag k="name" v="Liamyra" />
		<tag k="ssr:stedsnr" v="887966" />
		<tag k="waterway" v="dam" />
	</node>
</osm>
