<?xml version="1.0" encoding="UTF-8"?>
<osm generator="osmapis" version="0.6">
	<node id="-554449" lat="62.4615034821" lon="6.3241605331">
		<tag k="name" v="Geilevika" />
		<tag k="natural" v="bay" />
		<tag k="ssr:stedsnr" v="971337" />
	</node>
	<node id="-554445" lat="62.4780361128" lon="6.20220277388">
		<tag k="name" v="Malurkneset" />
		<tag k="natural" v="cape" />
		<tag k="ssr:stedsnr" v="966223" />
	</node>
	<node id="-554444" lat="62.4754138905" lon="6.15476111406">
		<tag k="name" v="Skansen" />
		<tag k="natural" v="cape" />
		<tag k="ssr:stedsnr" v="966186" />
	</node>
	<node id="-554443" lat="62.4624138875" lon="6.17091667158">
		<tag k="name" v="Slinningstangflua" />
		<tag k="natural" v="shoal" />
		<tag k="place" v="locality" />
		<tag k="ssr:stedsnr" v="966029" />
	</node>
	<node id="-554442" lat="62.468605555" lon="6.11925834015">
		<tag k="name" v="Steinvågen" />
		<tag k="natural" v="bay" />
		<tag k="ssr:stedsnr" v="966014" />
	</node>
	<node id="-554441" lat="62.4735500003" lon="6.11901389296">
		<tag k="name" v="Steinvåggrunnane" />
		<tag k="natural" v="shoal" />
		<tag k="place" v="locality" />
		<tag k="ssr:stedsnr" v="966011" />
	</node>
	<node id="-554440" lat="62.4498666703" lon="6.31212222611">
		<tag k="name" v="Bjørnholmane" />
		<tag k="place" v="islet" />
		<tag k="ssr:stedsnr" v="964554" />
	</node>
	<node id="-554439" lat="62.517016665" lon="6.45622499224">
		<tag k="name" v="Sjølneset" />
		<tag k="natural" v="cape" />
		<tag k="ssr:stedsnr" v="962404" />
	</node>
	<node id="-554438" lat="62.5137333333" lon="6.24110278739">
		<tag k="name" v="Sauevikflua" />
		<tag k="natural" v="shoal" />
		<tag k="place" v="locality" />
		<tag k="ssr:stedsnr" v="961673" />
	</node>
	<node id="-554434" lat="62.4679666634" lon="6.25619444355">
		<tag k="name" v="Einevika" />
		<tag k="natural" v="bay" />
		<tag k="ssr:stedsnr" v="948990" />
	</node>
	<node id="-554433" lat="62.4643555577" lon="6.20833611997">
		<tag k="fixme" v="consider seamark:type=rock or natural=shoal" />
		<tag k="name" v="Galtene" />
		<tag k="place" v="islet" />
		<tag k="ssr:stedsnr" v="948988" />
	</node>
	<node id="-554430" lat="62.5021388916" lon="6.21260833045">
		<tag k="name" v="Brattstø" />
		<tag k="natural" v="bay" />
		<tag k="ssr:stedsnr" v="948979" />
	</node>
	<node id="-554428" lat="62.4433083344" lon="6.28661667532">
		<tag k="name" v="Tennholmen" />
		<tag k="place" v="islet" />
		<tag k="ssr:stedsnr" v="948957" />
	</node>
	<node id="-554427" lat="62.4663111122" lon="6.12768332573">
		<tag k="name" v="Kvennaneset" />
		<tag k="natural" v="cape" />
		<tag k="ssr:stedsnr" v="948746" />
	</node>
	<node id="-554425" lat="62.4727833346" lon="6.24802222085">
		<tag k="name" v="Klokkarvågen" />
		<tag k="natural" v="bay" />
		<tag k="ssr:stedsnr" v="948743" />
	</node>
	<node id="-554424" lat="62.4662166643" lon="6.23973332763">
		<tag k="name" v="Klokkarsundet" />
		<tag k="natural" v="strait" />
		<tag k="ssr:stedsnr" v="948731" />
	</node>
	<node id="-554423" lat="62.4450222181" lon="6.32443610282">
		<tag k="fixme" v="consider seamark:type=rock or natural=shoal" />
		<tag k="name" v="Tørleskjera" />
		<tag k="place" v="islet" />
		<tag k="ssr:stedsnr" v="948691" />
	</node>
	<node id="-554421" lat="62.4708277798" lon="6.45702222241">
		<tag k="name" v="Kvennaneset" />
		<tag k="natural" v="cape" />
		<tag k="ssr:stedsnr" v="948684" />
	</node>
	<node id="-554418" lat="62.4575861118" lon="6.35345000778">
		<tag k="name" v="Spjelkavika" />
		<tag k="natural" v="bay" />
		<tag k="ssr:stedsnr" v="948649" />
	</node>
	<node id="-554410" lat="62.496466663" lon="6.38120834271">
		<tag k="alt_name" v="Indre Årsetvågen" />
		<tag k="name" v="Indre Årsetvåg" />
		<tag k="natural" v="bay" />
		<tag k="ssr:stedsnr" v="948603" />
	</node>
	<node id="-554407" lat="62.4926583321" lon="6.24517223084">
		<tag k="name" v="Naustholmen" />
		<tag k="place" v="islet" />
		<tag k="ssr:stedsnr" v="948586" />
	</node>
	<node id="-554405" lat="62.4327611105" lon="6.34222778134">
		<tag k="name" v="Vegsundneset" />
		<tag k="natural" v="cape" />
		<tag k="ssr:stedsnr" v="947660" />
	</node>
	<node id="-554402" lat="62.5151083367" lon="6.45987499525">
		<tag k="name" v="Taftasundet" />
		<tag k="natural" v="strait" />
		<tag k="ssr:stedsnr" v="946827" />
	</node>
	<node id="-554400" lat="62.5123805576" lon="6.38904167478">
		<tag k="name" v="Årsetneset" />
		<tag k="natural" v="cape" />
		<tag k="ssr:stedsnr" v="922234" />
	</node>
	<node id="-554398" lat="62.5155083361" lon="6.28136944568">
		<tag k="name" v="Svorshamna" />
		<tag k="natural" v="bay" />
		<tag k="ssr:stedsnr" v="922170" />
	</node>
	<node id="-554397" lat="62.5068416658" lon="6.35103888989">
		<tag k="name" v="Ramsvika" />
		<tag k="natural" v="bay" />
		<tag k="ssr:stedsnr" v="922140" />
	</node>
	<node id="-554394" lat="62.4345916632" lon="6.30161944948">
		<tag k="name" v="Honkane" />
		<tag k="natural" v="cape" />
		<tag k="ssr:stedsnr" v="921050" />
	</node>
	<node id="-554393" lat="62.4359833303" lon="6.34886388456">
		<tag k="name" v="Rabbevågen" />
		<tag k="natural" v="bay" />
		<tag k="ssr:stedsnr" v="921040" />
	</node>
	<node id="-554388" lat="62.4614388905" lon="6.13508054631">
		<tag k="name" v="Olsvika" />
		<tag k="natural" v="bay" />
		<tag k="ssr:stedsnr" v="921944" />
	</node>
	<node id="-554386" lat="62.4686111082" lon="6.09143055693">
		<tag k="name" v="Tueneset" />
		<tag k="natural" v="cape" />
		<tag k="ssr:stedsnr" v="921929" />
	</node>
	<node id="-554380" lat="62.4830527818" lon="6.37153333932">
		<tag k="name" v="Hellevika" />
		<tag k="natural" v="bay" />
		<tag k="ssr:stedsnr" v="906574" />
	</node>
	<node id="-554379" lat="62.4898500031" lon="6.19336667345">
		<tag k="name" v="Langenesflua" />
		<tag k="natural" v="shoal" />
		<tag k="place" v="locality" />
		<tag k="ssr:stedsnr" v="906421" />
	</node>
	<node id="-554378" lat="62.488486115" lon="6.34158332684">
		<tag k="name" v="Oterneset" />
		<tag k="natural" v="cape" />
		<tag k="ssr:stedsnr" v="906396" />
	</node>
	<node id="-554377" lat="62.4815444461" lon="6.19213055226">
		<tag k="name" v="Flatholmgrunnane" />
		<tag k="natural" v="shoal" />
		<tag k="place" v="locality" />
		<tag k="ssr:stedsnr" v="906234" />
	</node>
	<node id="-554374" lat="62.4799055546" lon="6.36040000544">
		<tag k="fixme" v="consider seamark:type=rock or natural=shoal" />
		<tag k="name" v="Morkolla" />
		<tag k="place" v="islet" />
		<tag k="ssr:stedsnr" v="901982" />
	</node>
	<node id="-554373" lat="62.4277222226" lon="6.47462777662">
		<tag k="name" v="Akslaflua" />
		<tag k="natural" v="shoal" />
		<tag k="place" v="locality" />
		<tag k="ssr:stedsnr" v="901964" />
	</node>
	<node id="-554372" lat="62.4502777778" lon="6.25853334054">
		<tag k="name" v="Kavleskallane" />
		<tag k="natural" v="shoal" />
		<tag k="place" v="locality" />
		<tag k="ssr:stedsnr" v="901672" />
	</node>
	<node id="-554371" lat="62.4995861088" lon="6.18178888222">
		<tag k="name" v="Gildreneset" />
		<tag k="natural" v="cape" />
		<tag k="ssr:stedsnr" v="901659" />
	</node>
	<node id="-554369" lat="62.4772805513" lon="6.37171389158">
		<tag k="name" v="Olsvika" />
		<tag k="natural" v="bay" />
		<tag k="ssr:stedsnr" v="901463" />
	</node>
	<node id="-554362" lat="62.4483666637" lon="6.30995555554">
		<tag k="name" v="Humleholmane" />
		<tag k="place" v="islet" />
		<tag k="ssr:stedsnr" v="870352" />
	</node>
	<node id="-554361" lat="62.4334111154" lon="6.5170111136">
		<tag k="name" v="Uksane" />
		<tag k="natural" v="cape" />
		<tag k="ssr:stedsnr" v="870350" />
	</node>
	<node id="-554360" lat="62.442783333" lon="6.35419167448">
		<tag k="name" v="Blindheimsneset" />
		<tag k="natural" v="cape" />
		<tag k="ssr:stedsnr" v="861060" />
	</node>
	<node id="-554356" lat="62.4457916631" lon="6.29101389718">
		<tag k="name" v="Humla" />
		<tag k="place" v="island" />
		<tag k="ssr:stedsnr" v="861010" />
	</node>
	<node id="-554355" lat="62.4833777787" lon="6.21657221297">
		<tag k="name" v="Brattholmen" />
		<tag k="place" v="islet" />
		<tag k="ssr:stedsnr" v="860996" />
	</node>
	<node id="-554354" lat="62.4660055575" lon="6.20606388541">
		<tag k="name" v="Hundsvær" />
		<tag k="place" v="islet" />
		<tag k="ssr:stedsnr" v="860962" />
	</node>
	<node id="-554353" lat="62.4638833315" lon="6.09425832938">
		<tag k="alt_name" v="Gullhaugvika" />
		<tag k="name" v="Gulhaugvikane" />
		<tag k="natural" v="bay" />
		<tag k="ssr:stedsnr" v="860961" />
	</node>
	<node id="-554351" lat="62.4945333377" lon="6.23308889793">
		<tag k="name" v="Grimstadholmane" />
		<tag k="place" v="islet" />
		<tag k="ssr:stedsnr" v="860222" />
	</node>
	<node id="-554345" lat="62.4937805595" lon="6.21024443717">
		<tag k="name" v="Kalderhaugflua" />
		<tag k="natural" v="shoal" />
		<tag k="place" v="locality" />
		<tag k="ssr:stedsnr" v="846378" />
	</node>
	<node id="-554343" lat="62.4701194429" lon="6.17265276891">
		<tag k="name" v="Fagervika" />
		<tag k="natural" v="bay" />
		<tag k="ssr:stedsnr" v="845043" />
	</node>
	<node id="-554342" lat="62.4646305556" lon="6.11731389665">
		<tag k="name" v="Osevågen" />
		<tag k="natural" v="bay" />
		<tag k="ssr:stedsnr" v="845025" />
	</node>
	<node id="-554341" lat="62.5002361152" lon="6.42261944261">
		<tag k="fixme" v="consider seamark:type=rock or natural=shoal" />
		<tag k="name" v="Ytre Kalvskjeret" />
		<tag k="place" v="islet" />
		<tag k="ssr:stedsnr" v="841444" />
	</node>
	<node id="-554340" lat="62.4790777811" lon="6.32821389709">
		<tag k="name" v="Revet" />
		<tag k="natural" v="shoal" />
		<tag k="place" v="locality" />
		<tag k="ssr:stedsnr" v="840969" />
	</node>
	<node id="-554339" lat="62.4312861134" lon="6.4979666669">
		<tag k="name" v="Magerholmsvika" />
		<tag k="natural" v="bay" />
		<tag k="ssr:stedsnr" v="840941" />
	</node>
	<node id="-554338" lat="62.4355805583" lon="6.53491387965">
		<tag k="name" v="Hessebergneset" />
		<tag k="natural" v="cape" />
		<tag k="ssr:stedsnr" v="840940" />
	</node>
	<node id="-554336" lat="62.5178305573" lon="6.32237222461">
		<tag k="name" v="Lorgaungana" />
		<tag k="place" v="locality" />
		<tag k="seamark:type" v="rock" />
		<tag k="ssr:stedsnr" v="840346" />
	</node>
	<node id="-554329" lat="62.5029055598" lon="6.43236667512">
		<tag k="fixme" v="consider seamark:type=rock or natural=shoal" />
		<tag k="name" v="Kalven" />
		<tag k="place" v="islet" />
		<tag k="ssr:stedsnr" v="827969" />
	</node>
	<node id="-554325" lat="62.5110583289" lon="6.26047221742">
		<tag k="name" v="Storvika" />
		<tag k="natural" v="bay" />
		<tag k="ssr:stedsnr" v="827952" />
	</node>
	<node id="-554324" lat="62.4550666634" lon="6.08600000307">
		<tag k="name" v="Valleflua" />
		<tag k="place" v="locality" />
		<tag k="seamark:type" v="rock" />
		<tag k="ssr:stedsnr" v="827722" />
	</node>
	<node id="-554323" lat="62.4779555517" lon="6.2648972253">
		<tag k="alt_name" v="Ytre Svinøysundet" />
		<tag k="name" v="Svinøysundet" />
		<tag k="natural" v="strait" />
		<tag k="ssr:stedsnr" v="827715" />
	</node>
	<node id="-554322" lat="62.476486112" lon="6.27340000061">
		<tag k="name" v="Svinøyholmane" />
		<tag k="place" v="islet" />
		<tag k="ssr:stedsnr" v="827709" />
	</node>
	<node id="-554320" lat="62.4429833295" lon="6.30945833317">
		<tag k="name" v="Humlesundet" />
		<tag k="natural" v="strait" />
		<tag k="ssr:stedsnr" v="827660" />
	</node>
	<node id="-554313" lat="62.5059333372" lon="6.4363027709">
		<tag k="name" v="Dyrøysundet" />
		<tag k="natural" v="strait" />
		<tag k="ssr:stedsnr" v="827621" />
	</node>
	<node id="-554312" lat="62.4904027773" lon="6.17270833451">
		<tag k="name" v="Kobbholmane" />
		<tag k="place" v="island" />
		<tag k="ssr:stedsnr" v="827618" />
	</node>
	<node id="-554311" lat="62.4831833321" lon="6.20877500552">
		<tag k="fixme" v="consider seamark:type=rock or natural=shoal" />
		<tag k="name" v="Skarveskjeret" />
		<tag k="place" v="islet" />
		<tag k="ssr:stedsnr" v="827608" />
	</node>
	<node id="-554309" lat="62.4753722263" lon="6.33610554934">
		<tag k="name" v="Grautneset" />
		<tag k="natural" v="cape" />
		<tag k="ssr:stedsnr" v="827592" />
	</node>
	<node id="-554307" lat="62.4388305575" lon="6.31305276966">
		<tag k="name" v="Tørlevågen" />
		<tag k="natural" v="bay" />
		<tag k="ssr:stedsnr" v="827572" />
	</node>
	<node id="-554306" lat="62.4269277746" lon="6.41771667333">
		<tag k="alt_name" v="Brudaholmen" />
		<tag k="name" v="Brudholmen" />
		<tag k="place" v="islet" />
		<tag k="ssr:stedsnr" v="827567" />
	</node>
	<node id="-554304" lat="62.5150194458" lon="6.28798610839">
		<tag k="name" v="Tjørvika" />
		<tag k="natural" v="bay" />
		<tag k="ssr:stedsnr" v="827545" />
	</node>
	<node id="-554297" lat="62.4302555534" lon="6.42808055649">
		<tag k="name" v="Emblemsvågen" />
		<tag k="natural" v="bay" />
		<tag k="ssr:stedsnr" v="809163" />
	</node>
	<node id="-554295" lat="62.5016388906" lon="6.43049999527">
		<tag k="name" v="Reitholmen" />
		<tag k="place" v="islet" />
		<tag k="ssr:stedsnr" v="801137" />
	</node>
	<node id="-554294" lat="62.4785638925" lon="6.17231666961">
		<tag k="name" v="Verpingsvika" />
		<tag k="natural" v="bay" />
		<tag k="ssr:stedsnr" v="800994" />
	</node>
	<node id="-554293" lat="62.4936111153" lon="6.17724444227">
		<tag k="name" v="Ellingsøya" />
		<tag k="place" v="island" />
		<tag k="ssr:stedsnr" v="800988" />
	</node>
	<node id="-554292" lat="62.5171416696" lon="6.30766110952">
		<tag k="fixme" v="consider seamark:type=rock or natural=shoal" />
		<tag k="name" v="Båtvikskjeret" />
		<tag k="place" v="islet" />
		<tag k="ssr:stedsnr" v="800181" />
	</node>
	<node id="-554291" lat="62.43555278" lon="6.31890000888">
		<tag k="alt_name" v="Hankøya" />
		<tag k="name" v="Tørla" />
		<tag k="place" v="island" />
		<tag k="ssr:stedsnr" v="800048" />
	</node>
	<node id="-554288" lat="62.4572305595" lon="6.08726111562">
		<tag k="name" v="Stavneset" />
		<tag k="natural" v="cape" />
		<tag k="ssr:stedsnr" v="799969" />
	</node>
	<node id="-554287" lat="62.4667249985" lon="6.15420833358">
		<tag k="name" v="Aspa" />
		<tag k="place" v="islet" />
		<tag k="ssr:stedsnr" v="799965" />
	</node>
	<node id="-554286" lat="62.4630861079" lon="6.16920276872">
		<tag k="fixme" v="multiple name tags, choose one and add the other to alt_name" />
		<tag k="name" v="Slinningsodden;Slinningsneset" />
		<tag k="natural" v="cape" />
		<tag k="old_name" v="Slinningsnesset" />
		<tag k="ssr:stedsnr" v="799964" />
	</node>
	<node id="-554285" lat="62.4971362906" lon="6.4200684974">
		<tag k="name" v="Drogene" />
		<tag k="place" v="island" />
		<tag k="ssr:stedsnr" v="799250" />
	</node>
	<node id="-554282" lat="62.4886249995" lon="6.34797778334">
		<tag k="name" v="Leirneset" />
		<tag k="natural" v="cape" />
		<tag k="ssr:stedsnr" v="784411" />
	</node>
	<node id="-554281" lat="62.4693805584" lon="6.21758610202">
		<tag k="alt_name" v="Kolvikflaket" />
		<tag k="name" v="Kollvikflaket" />
		<tag k="natural" v="shoal" />
		<tag k="place" v="locality" />
		<tag k="ssr:stedsnr" v="784249" />
	</node>
	<node id="-554280" lat="62.4739944443" lon="6.15250833504">
		<tag k="name" v="Vågen" />
		<tag k="natural" v="bay" />
		<tag k="ssr:stedsnr" v="784201" />
	</node>
	<node id="-554278" lat="62.4852694407" lon="6.38093055916">
		<tag k="name" v="Indre Hovdenes" />
		<tag k="natural" v="cape" />
		<tag k="ssr:stedsnr" v="780400" />
	</node>
	<node id="-554277" lat="62.4927472264" lon="6.32914444298">
		<tag k="name" v="Vikeneset" />
		<tag k="natural" v="cape" />
		<tag k="ssr:stedsnr" v="780360" />
	</node>
	<node id="-554276" lat="62.4294361079" lon="6.48756111307">
		<tag k="name" v="Kvalsflua" />
		<tag k="natural" v="shoal" />
		<tag k="place" v="locality" />
		<tag k="ssr:stedsnr" v="779948" />
	</node>
	<node id="-554275" lat="62.4446611142" lon="6.27300833564">
		<tag k="name" v="Kavlesundet" />
		<tag k="natural" v="strait" />
		<tag k="ssr:stedsnr" v="779665" />
	</node>
	<node id="-554274" lat="62.5200305524" lon="6.31770278172">
		<tag k="name" v="Løflua" />
		<tag k="place" v="locality" />
		<tag k="seamark:type" v="rock" />
		<tag k="ssr:stedsnr" v="779358" />
	</node>
	<node id="-554271" lat="62.4708083315" lon="6.11147500291">
		<tag k="name" v="Drevika" />
		<tag k="natural" v="bay" />
		<tag k="ssr:stedsnr" v="766974" />
	</node>
	<node id="-554267" lat="62.470347224" lon="6.25601943837">
		<tag k="name" v="Gåseidholmane" />
		<tag k="place" v="islet" />
		<tag k="ssr:stedsnr" v="766685" />
	</node>
	<node id="-554262" lat="62.4697583368" lon="6.23312500387">
		<tag k="name" v="Nørvasundet" />
		<tag k="natural" v="strait" />
		<tag k="ssr:stedsnr" v="766606" />
	</node>
	<node id="-554253" lat="62.4917083307" lon="6.32754167448">
		<tag k="fixme" v="consider seamark:type=rock or natural=shoal" />
		<tag k="name" v="Glettskjeret" />
		<tag k="place" v="islet" />
		<tag k="ssr:stedsnr" v="766545" />
	</node>
	<node id="-554251" lat="62.4958500007" lon="6.36863333549">
		<tag k="alt_name" v="Ytre Årsetvågen" />
		<tag k="name" v="Ytre Årsetvåg" />
		<tag k="natural" v="bay" />
		<tag k="ssr:stedsnr" v="766538" />
	</node>
	<node id="-554250" lat="62.485302776" lon="6.39488334004">
		<tag k="name" v="Tangneset" />
		<tag k="natural" v="cape" />
		<tag k="ssr:stedsnr" v="766512" />
	</node>
	<node id="-554248" lat="62.4554555591" lon="6.25059166436">
		<tag k="name" v="Bogneset" />
		<tag k="natural" v="cape" />
		<tag k="ssr:stedsnr" v="748329" />
	</node>
	<node id="-554247" lat="62.4898833305" lon="6.16714722143">
		<tag k="name" v="Lykjelsholmen" />
		<tag k="old_name" v="Nykkeholmen" />
		<tag k="place" v="islet" />
		<tag k="ssr:stedsnr" v="739988" />
	</node>
	<node id="-554246" lat="62.4920527808" lon="6.16606945147">
		<tag k="alt_name" v="Kverveodden;Kvervodden" />
		<tag k="name" v="Kverve" />
		<tag k="natural" v="cape" />
		<tag k="ssr:stedsnr" v="739986" />
	</node>
	<node id="-554240" lat="62.463791179" lon="6.19814435167">
		<tag k="name" v="Tyskholmen" />
		<tag k="place" v="islet" />
		<tag k="ssr:stedsnr" v="738963" />
	</node>
	<node id="-554238" lat="62.4693027762" lon="6.0674944405">
		<tag k="alt_name" v="Erkneflua" />
		<tag k="name" v="Erknefluda" />
		<tag k="natural" v="shoal" />
		<tag k="place" v="locality" />
		<tag k="ssr:stedsnr" v="738952" />
	</node>
	<node id="-554237" lat="62.4714194404" lon="6.13872221678">
		<tag k="name" v="Aspøya" />
		<tag k="place" v="island" />
		<tag k="ssr:stedsnr" v="738950" />
	</node>
	<node id="-554236" lat="62.4826472199" lon="6.23892499366">
		<tag k="name" v="Stabben" />
		<tag k="natural" v="shoal" />
		<tag k="place" v="locality" />
		<tag k="ssr:stedsnr" v="738254" />
	</node>
	<node id="-554235" lat="62.4881694463" lon="6.25394722576">
		<tag k="alt_name" v="Vardeflua" />
		<tag k="name" v="Vardefluda" />
		<tag k="natural" v="shoal" />
		<tag k="place" v="locality" />
		<tag k="ssr:stedsnr" v="738255" />
	</node>
	<node id="-554234" lat="62.4823833312" lon="6.33490555846">
		<tag k="name" v="Kavringen" />
		<tag k="place" v="islet" />
		<tag k="ssr:stedsnr" v="738228" />
	</node>
	<node id="-554230" lat="62.4605055555" lon="6.33297777309">
		<tag k="name" v="Bakkenes" />
		<tag k="natural" v="cape" />
		<tag k="ssr:stedsnr" v="726175" />
	</node>
	<node id="-554229" lat="62.449105559" lon="6.30209722678">
		<tag k="name" v="Langskjerflua" />
		<tag k="natural" v="shoal" />
		<tag k="place" v="locality" />
		<tag k="ssr:stedsnr" v="726099" />
	</node>
	<node id="-554226" lat="62.463319442" lon="6.12252223088">
		<tag k="name" v="Kleivevågen" />
		<tag k="natural" v="bay" />
		<tag k="ssr:stedsnr" v="724022" />
	</node>
	<node id="-554225" lat="62.4592388852" lon="6.28960277951">
		<tag k="name" v="Hatleholmen" />
		<tag k="place" v="islet" />
		<tag k="ssr:stedsnr" v="723139" />
	</node>
	<node id="-554224" lat="62.474344448" lon="6.34932500825">
		<tag k="name" v="Indre Breivika" />
		<tag k="natural" v="bay" />
		<tag k="ssr:stedsnr" v="719968" />
	</node>
	<node id="-554223" lat="62.4278388883" lon="6.44908054967">
		<tag k="name" v="Klebergsflua" />
		<tag k="natural" v="shoal" />
		<tag k="place" v="locality" />
		<tag k="ssr:stedsnr" v="719956" />
	</node>
	<node id="-554222" lat="62.5123638917" lon="6.40250832919">
		<tag k="name" v="Stokkeneset" />
		<tag k="natural" v="cape" />
		<tag k="ssr:stedsnr" v="719394" />
	</node>
	<node id="-554221" lat="62.4906194414" lon="6.41741111262">
		<tag k="name" v="Juvika" />
		<tag k="natural" v="bay" />
		<tag k="ssr:stedsnr" v="719425" />
	</node>
	<node id="-554220" lat="62.507202776" lon="6.1973111057">
		<tag k="name" v="Gildrenesfluene" />
		<tag k="natural" v="shoal" />
		<tag k="place" v="locality" />
		<tag k="ssr:stedsnr" v="718646" />
	</node>
	<node id="-554219" lat="62.5132944453" lon="6.27042777348">
		<tag k="name" v="Vikholmane" />
		<tag k="place" v="islet" />
		<tag k="ssr:stedsnr" v="718642" />
	</node>
	<node id="-554212" lat="62.4607666702" lon="6.0685861034">
		<tag k="alt_name" v="Sydtaren" />
		<tag k="name" v="Sørtaren" />
		<tag k="natural" v="shoal" />
		<tag k="place" v="locality" />
		<tag k="ssr:stedsnr" v="706290" />
	</node>
	<node id="-554206" lat="62.4439444444" lon="6.31583611213">
		<tag k="name" v="Tørlevika" />
		<tag k="natural" v="bay" />
		<tag k="ssr:stedsnr" v="705741" />
	</node>
	<node id="-554204" lat="62.4734305521" lon="6.15329999065">
		<tag k="name" v="Brunholmen" />
		<tag k="place" v="islet" />
		<tag k="ssr:stedsnr" v="705732" />
	</node>
	<node id="-554199" lat="62.4309861131" lon="6.45874722622">
		<tag k="alt_name" v="Østremsvika" />
		<tag k="name" v="Naustvika" />
		<tag k="natural" v="bay" />
		<tag k="ssr:stedsnr" v="705671" />
	</node>
	<node id="-554198" lat="62.4679305564" lon="6.22590277242">
		<tag k="name" v="Toskesundet" />
		<tag k="natural" v="strait" />
		<tag k="ssr:stedsnr" v="705667" />
	</node>
	<node id="-554195" lat="62.4471833302" lon="6.30494167465">
		<tag k="fixme" v="multiple name tags, choose one and add the other to alt_name" />
		<tag k="name" v="Humlevika;Sandvågen" />
		<tag k="natural" v="bay" />
		<tag k="ssr:stedsnr" v="705627" />
	</node>
	<node id="-554192" lat="62.4922722193" lon="6.36567777222">
		<tag k="name" v="Årsetsundet" />
		<tag k="natural" v="strait" />
		<tag k="ssr:stedsnr" v="705606" />
	</node>
	<node id="-554191" lat="62.4325111143" lon="6.37885277959">
		<tag k="alt_name" v="Kvernesvågen" />
		<tag k="name" v="Kvernhusvågen" />
		<tag k="natural" v="bay" />
		<tag k="ssr:stedsnr" v="705600" />
	</node>
	<node id="-554189" lat="62.4926444458" lon="6.26672499867">
		<tag k="name" v="Slotsvika" />
		<tag k="natural" v="bay" />
		<tag k="ssr:stedsnr" v="705593" />
	</node>
	<node id="-554188" lat="62.4851527822" lon="6.38305555236">
		<tag k="name" v="Hovdevika" />
		<tag k="natural" v="bay" />
		<tag k="ssr:stedsnr" v="705583" />
	</node>
	<node id="-554186" lat="62.4475361131" lon="6.28836111469">
		<tag k="name" v="Nørdre Tjeldneset" />
		<tag k="natural" v="cape" />
		<tag k="ssr:stedsnr" v="704596" />
	</node>
	<node id="-554182" lat="62.4615611139" lon="6.30433333442">
		<tag k="name" v="Åsestranda" />
		<tag k="natural" v="beach" />
		<tag k="place" v="locality" />
		<tag k="ssr:stedsnr" v="695589" />
	</node>
	<node id="-554181" lat="62.4716694438" lon="6.12587221719">
		<tag k="name" v="Steinvågsundet" />
		<tag k="natural" v="strait" />
		<tag k="ssr:stedsnr" v="687343" />
	</node>
	<node id="-554169" lat="62.4482444482" lon="6.28590555767">
		<tag k="name" v="Opplandsflua" />
		<tag k="natural" v="shoal" />
		<tag k="place" v="locality" />
		<tag k="ssr:stedsnr" v="665807" />
	</node>
	<node id="-554166" lat="62.4909472218" lon="6.18943888323">
		<tag k="fixme" v="consider seamark:type=rock or natural=shoal" />
		<tag k="name" v="Tangskjeret" />
		<tag k="place" v="islet" />
		<tag k="ssr:stedsnr" v="663386" />
	</node>
	<node id="-554165" lat="62.4904611128" lon="6.27404999437">
		<tag k="name" v="Kvalsteinneset" />
		<tag k="natural" v="cape" />
		<tag k="ssr:stedsnr" v="663367" />
	</node>
	<node id="-554164" lat="62.4705972242" lon="6.15149444622">
		<tag k="name" v="Brusundet" />
		<tag k="natural" v="strait" />
		<tag k="ssr:stedsnr" v="663197" />
	</node>
	<node id="-554163" lat="62.4717805549" lon="6.11466388775">
		<tag k="name" v="Barnsrævene" />
		<tag k="natural" v="shoal" />
		<tag k="place" v="locality" />
		<tag k="ssr:stedsnr" v="663007" />
	</node>
	<node id="-554161" lat="62.4839055555" lon="6.31722222199">
		<tag k="name" v="Kalvøysundet" />
		<tag k="natural" v="strait" />
		<tag k="ssr:stedsnr" v="658976" />
	</node>
	<node id="-554160" lat="62.4603583311" lon="6.16793054733">
		<tag k="name" v="Slinningsholmen" />
		<tag k="place" v="islet" />
		<tag k="ssr:stedsnr" v="658781" />
	</node>
	<node id="-554158" lat="62.4864555551" lon="6.39874444264">
		<tag k="alt_name" v="Allvika" />
		<tag k="name" v="Alvika" />
		<tag k="natural" v="bay" />
		<tag k="ssr:stedsnr" v="658453" />
	</node>
	<node id="-554157" lat="62.51038333" lon="6.4524972227">
		<tag k="name" v="Roteflua" />
		<tag k="natural" v="shoal" />
		<tag k="place" v="locality" />
		<tag k="ssr:stedsnr" v="658437" />
	</node>
	<node id="-554156" lat="62.5099666642" lon="6.35655555821">
		<tag k="name" v="Ramsvikneset" />
		<tag k="natural" v="cape" />
		<tag k="ssr:stedsnr" v="657368" />
	</node>
	<node id="-554153" lat="62.4622527805" lon="6.08588055972">
		<tag k="alt_name" v="Snegleværet" />
		<tag k="name" v="Snegleværholmen" />
		<tag k="place" v="islet" />
		<tag k="ssr:stedsnr" v="645279" />
	</node>
	<node id="-554150" lat="62.4402305556" lon="6.35433610876">
		<tag k="name" v="Gurivika" />
		<tag k="natural" v="bay" />
		<tag k="ssr:stedsnr" v="644983" />
	</node>
	<node id="-554149" lat="62.4692364419" lon="6.14058970227">
		<tag k="alt_name" v="Skutevika" />
		<tag k="name" v="Skutvika" />
		<tag k="natural" v="bay" />
		<tag k="ssr:stedsnr" v="644980" />
	</node>
	<node id="-554148" lat="62.4705305556" lon="6.24275278681">
		<tag k="name" v="Verpet" />
		<tag k="natural" v="bay" />
		<tag k="ssr:stedsnr" v="644979" />
	</node>
	<node id="-554145" lat="62.4368083314" lon="6.30775833138">
		<tag k="name" v="Grueneset" />
		<tag k="natural" v="cape" />
		<tag k="ssr:stedsnr" v="644954" />
	</node>
	<node id="-554144" lat="62.5130499984" lon="6.27092222844">
		<tag k="name" v="Vågane" />
		<tag k="natural" v="bay" />
		<tag k="ssr:stedsnr" v="644953" />
	</node>
	<node id="-554143" lat="62.5122666682" lon="6.25403334226">
		<tag k="name" v="Porseneset" />
		<tag k="natural" v="cape" />
		<tag k="ssr:stedsnr" v="644706" />
	</node>
	<node id="-554142" lat="62.4722750008" lon="6.13053611607">
		<tag k="name" v="Sildegarnsholmen" />
		<tag k="place" v="islet" />
		<tag k="ssr:stedsnr" v="644703" />
	</node>
	<node id="-554141" lat="62.4442861102" lon="6.32048054717">
		<tag k="name" v="Seljeholmen" />
		<tag k="place" v="islet" />
		<tag k="ssr:stedsnr" v="644658" />
	</node>
	<node id="-554140" lat="62.4704611086" lon="6.22036389842">
		<tag k="name" v="Magdevågneset" />
		<tag k="natural" v="cape" />
		<tag k="ssr:stedsnr" v="644639" />
	</node>
	<node id="-554139" lat="62.4708027779" lon="6.21979166207">
		<tag k="name" v="Sørnesvågen" />
		<tag k="natural" v="bay" />
		<tag k="ssr:stedsnr" v="644640" />
	</node>
	<node id="-554138" lat="62.4656166689" lon="6.21391111736">
		<tag k="alt_name" v="Langholmen" />
		<tag k="name" v="Svinholmen" />
		<tag k="place" v="islet" />
		<tag k="ssr:stedsnr" v="644638" />
	</node>
	<node id="-554137" lat="62.4808722204" lon="6.21919165732">
		<tag k="fixme" v="consider seamark:type=rock or natural=shoal" />
		<tag k="name" v="Gangstøskjeret" />
		<tag k="place" v="islet" />
		<tag k="ssr:stedsnr" v="644631" />
	</node>
	<node id="-554136" lat="62.4781472226" lon="6.22422778551">
		<tag k="name" v="Gangstøvika" />
		<tag k="natural" v="bay" />
		<tag k="ssr:stedsnr" v="644628" />
	</node>
	<node id="-554135" lat="62.441144449" lon="6.35488889726">
		<tag k="name" v="Holmeneset" />
		<tag k="natural" v="cape" />
		<tag k="ssr:stedsnr" v="644626" />
	</node>
	<node id="-554126" lat="62.5128500023" lon="6.24817500351">
		<tag k="name" v="Sjøbuvika" />
		<tag k="natural" v="bay" />
		<tag k="ssr:stedsnr" v="644558" />
	</node>
	<node id="-554118" lat="62.4952194484" lon="6.20674722307">
		<tag k="alt_name" v="Rimavika" />
		<tag k="name" v="Remavika" />
		<tag k="natural" v="bay" />
		<tag k="ssr:stedsnr" v="617988" />
	</node>
	<node id="-554117" lat="62.4471583334" lon="6.1325111177">
		<tag k="bay" v="fjord" />
		<tag k="name" v="Hessafjorden" />
		<tag k="natural" v="bay" />
		<tag k="ssr:stedsnr" v="617955" />
	</node>
	<node id="-554116" lat="62.459116665" lon="6.11829167022">
		<tag k="name" v="Hessa" />
		<tag k="place" v="island" />
		<tag k="ssr:stedsnr" v="617941" />
	</node>
	<node id="-554109" lat="62.4319638923" lon="6.35148610981">
		<tag k="name" v="Vegsundet" />
		<tag k="natural" v="strait" />
		<tag k="ssr:stedsnr" v="617049" />
	</node>
	<node id="-554107" lat="62.4553722198" lon="6.29305556386">
		<tag k="bay" v="fjord" />
		<tag k="name" v="Åsefjorden" />
		<tag k="natural" v="bay" />
		<tag k="ssr:stedsnr" v="617012" />
	</node>
	<node id="-554106" lat="62.4554222212" lon="6.34719721859">
		<tag k="name" v="Nesholmen" />
		<tag k="place" v="islet" />
		<tag k="ssr:stedsnr" v="617010" />
	</node>
	<node id="-554103" lat="62.4964166633" lon="6.35775276864">
		<tag k="name" v="Hagevika" />
		<tag k="natural" v="bay" />
		<tag k="ssr:stedsnr" v="602406" />
	</node>
	<node id="-554100" lat="62.4706611147" lon="6.15905555405">
		<tag k="name" v="Kippervika" />
		<tag k="natural" v="bay" />
		<tag k="ssr:stedsnr" v="602039" />
	</node>
	<node id="-554099" lat="62.4632138911" lon="6.16259722082">
		<tag k="name" v="Friarvika" />
		<tag k="natural" v="bay" />
		<tag k="ssr:stedsnr" v="602033" />
	</node>
	<node id="-554097" lat="62.4513666635" lon="6.31069721369">
		<tag k="name" v="Bjørnholmgrunnen" />
		<tag k="natural" v="shoal" />
		<tag k="place" v="locality" />
		<tag k="ssr:stedsnr" v="597711" />
	</node>
	<node id="-554096" lat="62.4510750028" lon="6.27261666261">
		<tag k="name" v="Skarsteingrunnen" />
		<tag k="natural" v="shoal" />
		<tag k="place" v="locality" />
		<tag k="ssr:stedsnr" v="597664" />
	</node>
	<node id="-554095" lat="62.5015749991" lon="6.43042778287">
		<tag k="fixme" v="consider seamark:type=rock or natural=shoal" />
		<tag k="name" v="Indre Kalvskjeret" />
		<tag k="place" v="islet" />
		<tag k="ssr:stedsnr" v="598453" />
	</node>
	<node id="-554091" lat="62.4724722253" lon="6.12596389761">
		<tag k="name" v="Steinvågneset" />
		<tag k="natural" v="cape" />
		<tag k="ssr:stedsnr" v="584689" />
	</node>
	<node id="-554090" lat="62.4660972245" lon="6.06577221722">
		<tag k="name" v="Nordtaren" />
		<tag k="natural" v="shoal" />
		<tag k="place" v="locality" />
		<tag k="ssr:stedsnr" v="584307" />
	</node>
	<node id="-554082" lat="62.469013887" lon="6.25441667349">
		<tag k="name" v="Gåseidvika" />
		<tag k="natural" v="bay" />
		<tag k="ssr:stedsnr" v="583949" />
	</node>
	<node id="-554081" lat="62.4486027812" lon="6.2744888831">
		<tag k="fixme" v="consider seamark:type=rock or natural=shoal" />
		<tag k="name" v="Skarsteinane" />
		<tag k="place" v="islet" />
		<tag k="ssr:stedsnr" v="583942" />
	</node>
	<node id="-554080" lat="62.4712611089" lon="6.15198889344">
		<tag k="name" v="Ålesundet" />
		<tag k="natural" v="strait" />
		<tag k="ssr:stedsnr" v="583655" />
	</node>
	<node id="-554079" lat="62.4729055536" lon="6.28742499933">
		<tag k="alt_name" v="Leirstadsundet" />
		<tag k="name" v="Lerstadsundet" />
		<tag k="natural" v="strait" />
		<tag k="ssr:stedsnr" v="583651" />
	</node>
	<node id="-554076" lat="62.4315166678" lon="6.42913889475">
		<tag k="name" v="Jaktevika" />
		<tag k="natural" v="bay" />
		<tag k="ssr:stedsnr" v="583594" />
	</node>
	<node id="-554073" lat="62.459794449" lon="6.28621667372">
		<tag k="name" v="Hatlevika" />
		<tag k="natural" v="bay" />
		<tag k="ssr:stedsnr" v="583578" />
	</node>
	<node id="-554068" lat="62.4669527753" lon="6.18787222894">
		<tag k="name" v="Lampeholmen" />
		<tag k="place" v="islet" />
		<tag k="ssr:stedsnr" v="583547" />
	</node>
	<node id="-554067" lat="62.5115805561" lon="6.2636444453">
		<tag k="name" v="Storvikneset" />
		<tag k="natural" v="cape" />
		<tag k="ssr:stedsnr" v="583523" />
	</node>
	<node id="-554066" lat="62.4579361095" lon="6.15965833595">
		<tag k="name" v="Røringneset" />
		<tag k="natural" v="cape" />
		<tag k="ssr:stedsnr" v="582700" />
	</node>
	<node id="-554057" lat="62.5127555594" lon="6.23897777823">
		<tag k="name" v="Sandvika" />
		<tag k="natural" v="bay" />
		<tag k="ssr:stedsnr" v="557242" />
	</node>
	<node id="-554056" lat="62.5142750033" lon="6.41365000296">
		<tag k="name" v="Kobbholmen" />
		<tag k="place" v="islet" />
		<tag k="ssr:stedsnr" v="557176" />
	</node>
	<node id="-554053" lat="62.5067638851" lon="6.33138611434">
		<tag k="name" v="Volstadvika" />
		<tag k="natural" v="bay" />
		<tag k="ssr:stedsnr" v="557126" />
	</node>
	<node id="-554049" lat="62.430861115" lon="6.38291944513">
		<tag k="name" v="Ramsvika" />
		<tag k="natural" v="bay" />
		<tag k="ssr:stedsnr" v="557032" />
	</node>
	<node id="-554047" lat="62.4693222225" lon="6.19510000807">
		<tag k="name" v="Volsdalsberga" />
		<tag k="natural" v="cape" />
		<tag k="ssr:stedsnr" v="556950" />
	</node>
	<node id="-554045" lat="62.4944774481" lon="6.35071440473">
		<tag k="name" v="Bjørgeholmen" />
		<tag k="place" v="islet" />
		<tag k="ssr:stedsnr" v="556293" />
	</node>
	<node id="-554043" lat="62.4803250018" lon="6.2914333392">
		<tag k="name" v="Kalven" />
		<tag k="place" v="islet" />
		<tag k="ssr:stedsnr" v="556274" />
	</node>
	<node id="-554042" lat="62.4981999993" lon="6.22288333976">
		<tag k="name" v="Straumane" />
		<tag k="natural" v="strait" />
		<tag k="ssr:stedsnr" v="556218" />
	</node>
	<node id="-554040" lat="62.4536027741" lon="6.44587500754">
		<tag k="alt_name" v="Oksenøya" />
		<tag k="name" v="Uksenøya" />
		<tag k="place" v="island" />
		<tag k="ssr:stedsnr" v="556002" />
	</node>
	<node id="-554039" lat="62.4637111073" lon="6.12417222864">
		<tag k="name" v="Vikanesflua" />
		<tag k="natural" v="shoal" />
		<tag k="place" v="locality" />
		<tag k="ssr:stedsnr" v="542019" />
	</node>
	<node id="-554035" lat="62.4320833312" lon="6.33971388423">
		<tag k="name" v="Tjørekoppflua" />
		<tag k="natural" v="shoal" />
		<tag k="place" v="locality" />
		<tag k="ssr:stedsnr" v="538193" />
	</node>
	<node id="-554034" lat="62.4344833293" lon="6.34076110668">
		<tag k="name" v="Terneskjerflua" />
		<tag k="natural" v="shoal" />
		<tag k="place" v="locality" />
		<tag k="ssr:stedsnr" v="538192" />
	</node>
	<node id="-554033" lat="62.4412249986" lon="6.31067778047">
		<tag k="name" v="Tørleneset" />
		<tag k="natural" v="cape" />
		<tag k="ssr:stedsnr" v="537662" />
	</node>
	<node id="-554032" lat="62.454208333" lon="6.26389444772">
		<tag k="name" v="Hatleflua" />
		<tag k="natural" v="shoal" />
		<tag k="place" v="locality" />
		<tag k="ssr:stedsnr" v="536813" />
	</node>
	<node id="-554027" lat="62.4693916658" lon="6.26634443741">
		<tag k="name" v="Kroken" />
		<tag k="natural" v="bay" />
		<tag k="ssr:stedsnr" v="523987" />
	</node>
	<node id="-554024" lat="62.4539250034" lon="6.10649444329">
		<tag k="name" v="Korsvika" />
		<tag k="natural" v="bay" />
		<tag k="ssr:stedsnr" v="523982" />
	</node>
	<node id="-554023" lat="62.4572027746" lon="6.24371111368">
		<tag k="name" v="Tjuvholmen" />
		<tag k="place" v="islet" />
		<tag k="ssr:stedsnr" v="523975" />
	</node>
	<node id="-554022" lat="62.4973277736" lon="6.21722777007">
		<tag k="name" v="Dalsvika" />
		<tag k="natural" v="bay" />
		<tag k="ssr:stedsnr" v="523973" />
	</node>
	<node id="-554015" lat="62.4766166645" lon="6.25724167479">
		<tag k="alt_name" v="Vågen" />
		<tag k="name" v="Klungrevågen" />
		<tag k="natural" v="bay" />
		<tag k="ssr:stedsnr" v="523743" />
	</node>
	<node id="-554007" lat="62.4546277782" lon="6.09802777517">
		<tag k="name" v="Kvalneset" />
		<tag k="natural" v="cape" />
		<tag k="ssr:stedsnr" v="523668" />
	</node>
	<node id="-554005" lat="62.4444527735" lon="6.35350555101">
		<tag k="name" v="Naustvågholmen" />
		<tag k="place" v="islet" />
		<tag k="ssr:stedsnr" v="523663" />
	</node>
	<node id="-554004" lat="62.4938166643" lon="6.37027499654">
		<tag k="name" v="Årsetneset" />
		<tag k="natural" v="cape" />
		<tag k="ssr:stedsnr" v="523623" />
	</node>
	<node id="-554002" lat="62.4330833331" lon="6.37231665715">
		<tag k="name" v="Vegsundstranda" />
		<tag k="natural" v="beach" />
		<tag k="place" v="locality" />
		<tag k="ssr:stedsnr" v="523604" />
	</node>
	<node id="-554001" lat="62.5117333341" lon="6.23498889701">
		<tag k="alt_name" v="Langeneset" />
		<tag k="name" v="Langesnagen" />
		<tag k="natural" v="cape" />
		<tag k="ssr:stedsnr" v="523587" />
	</node>
	<node id="-553986" lat="62.470652774" lon="6.24465277776">
		<tag k="name" v="Nørvasundet" />
		<tag k="natural" v="strait" />
		<tag k="ssr:stedsnr" v="512116" />
	</node>
	<node id="-553985" lat="62.4996555574" lon="6.22651667539">
		<tag k="name" v="Eidsvågen" />
		<tag k="natural" v="bay" />
		<tag k="ssr:stedsnr" v="506920" />
	</node>
	<node id="-553982" lat="62.5099194484" lon="6.37656944454">
		<tag k="name" v="Dalsvika" />
		<tag k="natural" v="bay" />
		<tag k="ssr:stedsnr" v="497170" />
	</node>
	<node id="-553981" lat="62.5085055533" lon="6.23478333698">
		<tag k="name" v="Bunes" />
		<tag k="natural" v="cape" />
		<tag k="ssr:stedsnr" v="497165" />
	</node>
	<node id="-553977" lat="62.5067166646" lon="6.33640277821">
		<tag k="name" v="Lyngneset" />
		<tag k="natural" v="cape" />
		<tag k="ssr:stedsnr" v="497130" />
	</node>
	<node id="-553976" lat="62.4865583343" lon="6.20307222643">
		<tag k="name" v="Skallen" />
		<tag k="natural" v="shoal" />
		<tag k="place" v="locality" />
		<tag k="ssr:stedsnr" v="496998" />
	</node>
	<node id="-553974" lat="62.4917249996" lon="6.42296388123">
		<tag k="name" v="Storneset" />
		<tag k="natural" v="cape" />
		<tag k="ssr:stedsnr" v="496255" />
	</node>
	<node id="-553973" lat="62.4927805595" lon="6.37354999076">
		<tag k="name" v="Årsetvika" />
		<tag k="natural" v="bay" />
		<tag k="ssr:stedsnr" v="496250" />
	</node>
	<node id="-553972" lat="62.4827256765" lon="6.30580930865">
		<tag k="alt_name" v="Litle-Kalvøya;Litle Kalvøya" />
		<tag k="name" v="Litlekalvøya" />
		<tag k="place" v="islet" />
		<tag k="ssr:stedsnr" v="496248" />
	</node>
	<node id="-553970" lat="62.5243611138" lon="6.28714444474">
		<tag k="bay" v="fjord" />
		<tag k="name" v="Grytafjorden" />
		<tag k="natural" v="bay" />
		<tag k="ssr:stedsnr" v="496165" />
	</node>
	<node id="-553968" lat="62.417897218" lon="6.37558611088">
		<tag k="alt_name" v="Flisholmen" />
		<tag k="name" v="Flisnesholmen" />
		<tag k="place" v="islet" />
		<tag k="ssr:stedsnr" v="496074" />
	</node>
	<node id="-553967" lat="62.4292277735" lon="6.44353611342">
		<tag k="name" v="Klebergshammaren" />
		<tag k="natural" v="cape" />
		<tag k="ssr:stedsnr" v="496063" />
	</node>
	<node id="-553960" lat="62.4514444482" lon="6.34491388855">
		<tag k="name" v="Digerneset" />
		<tag k="natural" v="cape" />
		<tag k="ssr:stedsnr" v="496007" />
	</node>
	<node id="-553956" lat="62.4473666705" lon="6.27541943595">
		<tag k="name" v="Kavlevika" />
		<tag k="natural" v="bay" />
		<tag k="ssr:stedsnr" v="483824" />
	</node>
	<node id="-553955" lat="62.4803083327" lon="6.26833888789">
		<tag k="name" v="Utaforneset" />
		<tag k="natural" v="cape" />
		<tag k="ssr:stedsnr" v="483192" />
	</node>
	<node id="-553953" lat="62.4956972243" lon="6.17295000024">
		<tag k="name" v="Moldeneset" />
		<tag k="natural" v="cape" />
		<tag k="ssr:stedsnr" v="481427" />
	</node>
	<node id="-553952" lat="62.4965194417" lon="6.21655277817">
		<tag k="name" v="Joholmen" />
		<tag k="place" v="islet" />
		<tag k="ssr:stedsnr" v="481404" />
	</node>
	<node id="-553950" lat="62.4737916691" lon="6.14695832653">
		<tag k="name" v="Molja" />
		<tag k="place" v="locality" />
		<tag k="seamark:type" v="rock" />
		<tag k="ssr:stedsnr" v="481210" />
	</node>
	<node id="-553949" lat="62.4683361114" lon="6.13067499376">
		<tag k="name" v="Aspholet" />
		<tag k="natural" v="bay" />
		<tag k="ssr:stedsnr" v="481015" />
	</node>
	<node id="-553946" lat="62.4674333323" lon="6.11681110933">
		<tag k="name" v="Notholmen" />
		<tag k="place" v="islet" />
		<tag k="ssr:stedsnr" v="462665" />
	</node>
	<node id="-553945" lat="62.4301527788" lon="6.46434444865">
		<tag k="name" v="Kråkevika" />
		<tag k="natural" v="bay" />
		<tag k="ssr:stedsnr" v="462622" />
	</node>
	<node id="-553934" lat="62.434558335" lon="6.29982777568">
		<tag k="name" v="Hankeneset" />
		<tag k="natural" v="cape" />
		<tag k="ssr:stedsnr" v="461701" />
	</node>
	<node id="-553933" lat="62.4431305594" lon="6.28847499492">
		<tag k="name" v="Søre Tjeldneset" />
		<tag k="natural" v="cape" />
		<tag k="ssr:stedsnr" v="461658" />
	</node>
	<node id="-553928" lat="62.5120499983" lon="6.45032222292">
		<tag k="name" v="Rotebukta" />
		<tag k="natural" v="bay" />
		<tag k="ssr:stedsnr" v="462566" />
	</node>
	<node id="-553925" lat="62.4921861155" lon="6.25070555628">
		<tag k="alt_name" v="Bjorsholmen" />
		<tag k="name" v="Bjørsholmen" />
		<tag k="place" v="islet" />
		<tag k="ssr:stedsnr" v="462522" />
	</node>
	<node id="-553915" lat="62.4665722227" lon="6.09453888369">
		<tag k="name" v="Sandvika" />
		<tag k="natural" v="bay" />
		<tag k="ssr:stedsnr" v="436667" />
	</node>
	<node id="-553910" lat="62.4895861152" lon="6.2765555533">
		<tag k="name" v="Kvalsteinskjeret" />
		<tag k="natural" v="cape" />
		<tag k="ssr:stedsnr" v="435272" />
	</node>
	<node id="-553908" lat="62.4964611095" lon="6.39635833033">
		<tag k="fixme" v="consider seamark:type=rock or natural=shoal" />
		<tag k="name" v="Klippfiskholmane" />
		<tag k="place" v="islet" />
		<tag k="ssr:stedsnr" v="435270" />
	</node>
	<node id="-553903" lat="62.4481944453" lon="6.29308333598">
		<tag k="name" v="Krokholmen" />
		<tag k="place" v="islet" />
		<tag k="ssr:stedsnr" v="423099" />
	</node>
	<node id="-553902" lat="62.4821055594" lon="6.2942638951">
		<tag k="name" v="Litle Kalven" />
		<tag k="place" v="islet" />
		<tag k="ssr:stedsnr" v="422155" />
	</node>
	<node id="-553900" lat="62.4930416681" lon="6.32245833983">
		<tag k="name" v="Stavleie" />
		<tag k="natural" v="cape" />
		<tag k="ssr:stedsnr" v="421377" />
	</node>
	<node id="-553899" lat="62.4896555576" lon="6.35015833336">
		<tag k="name" v="Seljevika" />
		<tag k="natural" v="bay" />
		<tag k="ssr:stedsnr" v="421374" />
	</node>
	<node id="-553898" lat="62.4883944453" lon="6.35479444476">
		<tag k="name" v="Plassevika" />
		<tag k="natural" v="bay" />
		<tag k="ssr:stedsnr" v="421373" />
	</node>
	<node id="-553896" lat="62.4731361071" lon="6.12724444454">
		<tag k="name" v="Steinvågflua" />
		<tag k="natural" v="shoal" />
		<tag k="place" v="locality" />
		<tag k="ssr:stedsnr" v="421009" />
	</node>
	<node id="-553895" lat="62.4747888901" lon="6.1233583273">
		<tag k="name" v="Skarbøvikflua" />
		<tag k="natural" v="shoal" />
		<tag k="place" v="locality" />
		<tag k="ssr:stedsnr" v="421007" />
	</node>
	<node id="-553894" lat="62.4606972238" lon="6.29998332421">
		<tag k="name" v="Snopeneset" />
		<tag k="natural" v="cape" />
		<tag k="ssr:stedsnr" v="420128" />
	</node>
	<node id="-553893" lat="62.4932055569" lon="6.38324443806">
		<tag k="alt_name" v="Årsetholmen" />
		<tag k="name" v="Lyngholmen" />
		<tag k="place" v="islet" />
		<tag k="ssr:stedsnr" v="416361" />
	</node>
	<node id="-553891" lat="62.4329777745" lon="6.33957778379">
		<tag k="name" v="Tjørekoppen" />
		<tag k="natural" v="shoal" />
		<tag k="place" v="locality" />
		<tag k="ssr:stedsnr" v="416175" />
	</node>
	<node id="-553890" lat="62.4890222229" lon="6.17552222802">
		<tag k="name" v="Kobbholmflua" />
		<tag k="natural" v="shoal" />
		<tag k="place" v="locality" />
		<tag k="ssr:stedsnr" v="415714" />
	</node>
	<node id="-553889" lat="62.5120500024" lon="6.35941943479">
		<tag k="fixme" v="consider seamark:type=rock or natural=shoal" />
		<tag k="name" v="Toppskjeret" />
		<tag k="place" v="islet" />
		<tag k="ssr:stedsnr" v="415378" />
	</node>
	<node id="-553887" lat="62.4812837979" lon="6.14011045289">
		<tag k="fixme" v="consider seamark:type=rock or natural=shoal" />
		<tag k="name" v="Olsskjeret" />
		<tag k="place" v="islet" />
		<tag k="ssr:stedsnr" v="254990" />
	</node>
	<node id="-553886" lat="62.4922472211" lon="6.19972499783">
		<tag k="name" v="Langeneset" />
		<tag k="natural" v="cape" />
		<tag k="ssr:stedsnr" v="254982" />
	</node>
	<node id="-553885" lat="62.518455557" lon="6.44549167597">
		<tag k="name" v="Nørdrerusta" />
		<tag k="natural" v="cape" />
		<tag k="ssr:stedsnr" v="254163" />
	</node>
	<node id="-553884" lat="62.5117416705" lon="6.26646943617">
		<tag k="name" v="Makkevågane" />
		<tag k="natural" v="bay" />
		<tag k="ssr:stedsnr" v="254157" />
	</node>
	<node id="-553878" lat="62.4499106391" lon="6.31215269369">
		<tag k="alt_name" v="Bjønnholmen" />
		<tag k="name" v="Bjørnholmen" />
		<tag k="place" v="islet" />
		<tag k="ssr:stedsnr" v="253005" />
	</node>
	<node id="-553874" lat="62.4589166643" lon="6.24296110883">
		<tag k="name" v="Litleprikken" />
		<tag k="place" v="locality" />
		<tag k="seamark:type" v="rock" />
		<tag k="ssr:stedsnr" v="238116" />
	</node>
	<node id="-553872" lat="62.4663638921" lon="6.1156333283">
		<tag k="name" v="Skarbøvikane" />
		<tag k="natural" v="bay" />
		<tag k="ssr:stedsnr" v="238008" />
	</node>
	<node id="-553870" lat="62.4307611115" lon="6.4369722314">
		<tag k="name" v="Sandane" />
		<tag k="natural" v="beach" />
		<tag k="place" v="locality" />
		<tag k="ssr:stedsnr" v="233983" />
	</node>
	<node id="-553869" lat="62.4417388876" lon="6.35961666142">
		<tag k="name" v="Blindheimsvågen" />
		<tag k="natural" v="bay" />
		<tag k="ssr:stedsnr" v="233814" />
	</node>
	<node id="-553863" lat="62.4355416704" lon="6.34181388248">
		<tag k="name" v="Vegsundvika" />
		<tag k="natural" v="bay" />
		<tag k="ssr:stedsnr" v="220993" />
	</node>
	<node id="-553862" lat="62.464241667" lon="6.24974999905">
		<tag k="name" v="Grønvika" />
		<tag k="natural" v="bay" />
		<tag k="ssr:stedsnr" v="220988" />
	</node>
	<node id="-553859" lat="62.4688055531" lon="6.18243055928">
		<tag k="name" v="Sunnmørshallen" />
		<tag k="natural" v="cape" />
		<tag k="ssr:stedsnr" v="220944" />
	</node>
	<node id="-553858" lat="62.5122416679" lon="6.40773333969">
		<tag k="name" v="Båtvika" />
		<tag k="natural" v="bay" />
		<tag k="ssr:stedsnr" v="220939" />
	</node>
	<node id="-553855" lat="62.5009888923" lon="6.19778610861">
		<tag k="name" v="Sandvikane" />
		<tag k="natural" v="bay" />
		<tag k="ssr:stedsnr" v="220735" />
	</node>
	<node id="-553850" lat="62.4292722204" lon="6.4404722192">
		<tag k="name" v="Krokaneset" />
		<tag k="natural" v="cape" />
		<tag k="ssr:stedsnr" v="220659" />
	</node>
	<node id="-553849" lat="62.4723111157" lon="6.31914444689">
		<tag k="name" v="Nakkevika" />
		<tag k="natural" v="bay" />
		<tag k="ssr:stedsnr" v="220656" />
	</node>
	<node id="-553847" lat="62.4693722255" lon="6.20504721977">
		<tag k="name" v="Nørvevika" />
		<tag k="natural" v="bay" />
		<tag k="ssr:stedsnr" v="220649" />
	</node>
	<node id="-553846" lat="62.4629333333" lon="6.19622499094">
		<tag k="name" v="Tyskholmrumpa" />
		<tag k="place" v="islet" />
		<tag k="ssr:stedsnr" v="220647" />
	</node>
	<node id="-553845" lat="62.46921944" lon="6.18254999467">
		<tag k="name" v="Volsdalsneset" />
		<tag k="natural" v="cape" />
		<tag k="ssr:stedsnr" v="220598" />
	</node>
	<node id="-553842" lat="62.4929527821" lon="6.31189166631">
		<tag k="name" v="Sperrevika" />
		<tag k="natural" v="bay" />
		<tag k="ssr:stedsnr" v="220587" />
	</node>
	<node id="-553841" lat="62.4901444472" lon="6.29900833693">
		<tag k="alt_name" v="Bendiksnaget" />
		<tag k="name" v="Diriksnagen" />
		<tag k="natural" v="cape" />
		<tag k="ssr:stedsnr" v="220570" />
	</node>
	<node id="-553840" lat="62.4416527736" lon="6.35618889858">
		<tag k="name" v="Storevågen" />
		<tag k="natural" v="bay" />
		<tag k="ssr:stedsnr" v="220636" />
	</node>
	<node id="-553839" lat="62.4697638882" lon="6.39616945323">
		<tag k="name" v="Kjøyrevika" />
		<tag k="natural" v="bay" />
		<tag k="ssr:stedsnr" v="220631" />
	</node>
	<node id="-553837" lat="62.5058444468" lon="6.23159443911">
		<tag k="alt_name" v="Bunesbukta" />
		<tag k="name" v="Bunesvika" />
		<tag k="natural" v="bay" />
		<tag k="ssr:stedsnr" v="220615" />
	</node>
	<node id="-553835" lat="62.4939361116" lon="6.20296944864">
		<tag k="name" v="Klubbeneset" />
		<tag k="natural" v="cape" />
		<tag k="ssr:stedsnr" v="220609" />
	</node>
	<node id="-553834" lat="62.5083638929" lon="6.44344999634">
		<tag k="alt_name" v="Vindsneset" />
		<tag k="name" v="Vindneset" />
		<tag k="natural" v="cape" />
		<tag k="ssr:stedsnr" v="220608" />
	</node>
	<node id="-553833" lat="62.4470277765" lon="6.28939165929">
		<tag k="name" v="Gardvika" />
		<tag k="natural" v="bay" />
		<tag k="ssr:stedsnr" v="219700" />
	</node>
	<node id="-553827" lat="62.4226166637" lon="6.37722778446">
		<tag k="name" v="Vågane" />
		<tag k="natural" v="bay" />
		<tag k="ssr:stedsnr" v="202160" />
	</node>
	<node id="-553825" lat="62.5159388875" lon="6.27259445217">
		<tag k="name" v="Vågeneset" />
		<tag k="natural" v="cape" />
		<tag k="ssr:stedsnr" v="194172" />
	</node>
	<node id="-553823" lat="62.4517277802" lon="6.08737500543">
		<tag k="alt_name" v="Bresen" />
		<tag k="name" v="Brisen" />
		<tag k="natural" v="shoal" />
		<tag k="place" v="locality" />
		<tag k="ssr:stedsnr" v="193949" />
	</node>
	<node id="-553821" lat="62.4614916668" lon="6.24423611516">
		<tag k="name" v="Ratvika" />
		<tag k="natural" v="bay" />
		<tag k="ssr:stedsnr" v="193006" />
	</node>
	<node id="-553819" lat="62.49120556" lon="6.38912499944">
		<tag k="alt_name" v="Storflua" />
		<tag k="name" v="Storfluda" />
		<tag k="natural" v="shoal" />
		<tag k="place" v="locality" />
		<tag k="ssr:stedsnr" v="192252" />
	</node>
	<node id="-553815" lat="62.4275444443" lon="6.39710276941">
		<tag k="name" v="Hamnevika" />
		<tag k="natural" v="bay" />
		<tag k="ssr:stedsnr" v="180013" />
	</node>
	<node id="-553814" lat="62.4832111097" lon="6.27119722503">
		<tag k="name" v="Svinøygrunnen" />
		<tag k="natural" v="shoal" />
		<tag k="place" v="locality" />
		<tag k="ssr:stedsnr" v="179166" />
	</node>
	<node id="-553811" lat="62.4871250018" lon="6.33483333827">
		<tag k="name" v="Lauvholmsundet" />
		<tag k="natural" v="strait" />
		<tag k="ssr:stedsnr" v="178380" />
	</node>
	<node id="-553809" lat="62.4825722251" lon="6.14540278098">
		<tag k="name" v="Olsskjerbåen" />
		<tag k="natural" v="shoal" />
		<tag k="place" v="locality" />
		<tag k="ssr:stedsnr" v="172855" />
	</node>
	<node id="-553808" lat="62.4812500014" lon="6.28628610249">
		<tag k="name" v="Indre Svinøysundet" />
		<tag k="natural" v="strait" />
		<tag k="ssr:stedsnr" v="172481" />
	</node>
	<node id="-553807" lat="62.5072361099" lon="6.33393054842">
		<tag k="name" v="Krokane" />
		<tag k="natural" v="bay" />
		<tag k="ssr:stedsnr" v="172358" />
	</node>
	<node id="-553802" lat="62.4670527741" lon="6.41786110357">
		<tag k="name" v="Uraneset" />
		<tag k="natural" v="cape" />
		<tag k="ssr:stedsnr" v="159971" />
	</node>
	<node id="-553800" lat="62.5073194463" lon="6.43432778092">
		<tag k="name" v="Leirvika" />
		<tag k="natural" v="bay" />
		<tag k="ssr:stedsnr" v="159963" />
	</node>
	<node id="-553797" lat="62.4332888934" lon="6.30674444729">
		<tag k="name" v="Glettneset" />
		<tag k="natural" v="cape" />
		<tag k="ssr:stedsnr" v="159951" />
	</node>
	<node id="-553796" lat="62.4332638923" lon="6.33660278683">
		<tag k="alt_name" v="Hatleneset" />
		<tag k="name" v="Hatlabakkneset" />
		<tag k="natural" v="cape" />
		<tag k="ssr:stedsnr" v="159944" />
	</node>
	<node id="-553794" lat="62.48986667" lon="6.41193333986">
		<tag k="name" v="Skjervikbukta" />
		<tag k="natural" v="bay" />
		<tag k="ssr:stedsnr" v="159728" />
	</node>
	<node id="-553793" lat="62.4637416624" lon="6.12231110286">
		<tag k="name" v="Vikaneset" />
		<tag k="natural" v="cape" />
		<tag k="ssr:stedsnr" v="159717" />
	</node>
	<node id="-553791" lat="62.4858638894" lon="6.31368610912">
		<tag k="fixme" v="consider seamark:type=rock or natural=shoal" />
		<tag k="name" v="Kalvøyskjeret" />
		<tag k="place" v="islet" />
		<tag k="ssr:stedsnr" v="159591" />
	</node>
	<node id="-553790" lat="62.4918888857" lon="6.34950000999">
		<tag k="name" v="Søre Bjørgeholmsundet" />
		<tag k="natural" v="strait" />
		<tag k="ssr:stedsnr" v="159589" />
	</node>
	<node id="-553788" lat="62.4931277797" lon="6.25060278045">
		<tag k="name" v="Leiteneset" />
		<tag k="natural" v="cape" />
		<tag k="ssr:stedsnr" v="159568" />
	</node>
	<node id="-553781" lat="62.4417777743" lon="6.32954167503">
		<tag k="name" v="Jaktevika" />
		<tag k="natural" v="bay" />
		<tag k="ssr:stedsnr" v="159607" />
	</node>
	<node id="-553771" lat="62.4520277793" lon="6.11218611602">
		<tag k="alt_name" v="Korsflua" />
		<tag k="name" v="Korsfluda" />
		<tag k="natural" v="shoal" />
		<tag k="place" v="locality" />
		<tag k="ssr:stedsnr" v="132949" />
	</node>
	<node id="-553767" lat="62.4534472201" lon="6.1027000036">
		<tag k="name" v="Kvalen" />
		<tag k="place" v="islet" />
		<tag k="ssr:stedsnr" v="131964" />
	</node>
	<node id="-553766" lat="62.4496444427" lon="6.34738332547">
		<tag k="name" v="Remvika" />
		<tag k="natural" v="bay" />
		<tag k="ssr:stedsnr" v="119108" />
	</node>
	<node id="-553765" lat="62.442308333" lon="6.33389999834">
		<tag k="fixme" v="consider seamark:type=rock or natural=shoal" />
		<tag k="name" v="Tørleskjera" />
		<tag k="place" v="islet" />
		<tag k="ssr:stedsnr" v="119103" />
	</node>
	<node id="-553764" lat="62.48888056" lon="6.27310556099">
		<tag k="name" v="Kvalsteinflua" />
		<tag k="natural" v="shoal" />
		<tag k="place" v="locality" />
		<tag k="ssr:stedsnr" v="117408" />
	</node>
	<node id="-553763" lat="62.4637555552" lon="6.20629444686">
		<tag k="fixme" v="consider seamark:type=rock or natural=shoal" />
		<tag k="name" v="Purka" />
		<tag k="place" v="islet" />
		<tag k="ssr:stedsnr" v="117283" />
	</node>
	<node id="-553758" lat="62.4458972235" lon="6.35343333916">
		<tag k="name" v="Breivika" />
		<tag k="natural" v="bay" />
		<tag k="ssr:stedsnr" v="112790" />
	</node>
	<node id="-553751" lat="62.4304333309" lon="6.46795834071">
		<tag k="name" v="Ospavika" />
		<tag k="natural" v="bay" />
		<tag k="ssr:stedsnr" v="98996" />
	</node>
	<node id="-553749" lat="62.4686527775" lon="6.22449444673">
		<tag k="name" v="Sørneset" />
		<tag k="natural" v="cape" />
		<tag k="ssr:stedsnr" v="98955" />
	</node>
	<node id="-553748" lat="62.4980444401" lon="6.17868888823">
		<tag k="name" v="Moldvika" />
		<tag k="natural" v="bay" />
		<tag k="ssr:stedsnr" v="98946" />
	</node>
	<node id="-553742" lat="62.4219861099" lon="6.38588889402">
		<tag k="name" v="Grøtvikneset" />
		<tag k="natural" v="cape" />
		<tag k="ssr:stedsnr" v="98551" />
	</node>
	<node id="-553741" lat="62.4936166663" lon="6.23825556331">
		<tag k="name" v="Storholmen" />
		<tag k="place" v="islet" />
		<tag k="ssr:stedsnr" v="98545" />
	</node>
	<node id="-553727" lat="62.445411113" lon="6.27356388446">
		<tag k="name" v="Buneset" />
		<tag k="natural" v="cape" />
		<tag k="ssr:stedsnr" v="97692" />
	</node>
	<node id="-553720" lat="62.5110666634" lon="6.3912194523">
		<tag k="name" v="Årsetvika" />
		<tag k="natural" v="bay" />
		<tag k="ssr:stedsnr" v="81941" />
	</node>
	<node id="-553714" lat="62.493727776" lon="6.36183611644">
		<tag k="name" v="Årsetvågen" />
		<tag k="natural" v="bay" />
		<tag k="ssr:stedsnr" v="71262" />
	</node>
	<node id="-553713" lat="62.4881972244" lon="6.33545277572">
		<tag k="name" v="Lauvholmen" />
		<tag k="place" v="islet" />
		<tag k="ssr:stedsnr" v="71255" />
	</node>
	<node id="-553712" lat="62.480565052" lon="6.27437344025">
		<tag k="name" v="Svinøya" />
		<tag k="place" v="islet" />
		<tag k="ssr:stedsnr" v="71250" />
	</node>
	<node id="-553710" lat="62.4194305523" lon="6.38990276976">
		<tag k="name" v="Flisneset" />
		<tag k="natural" v="cape" />
		<tag k="ssr:stedsnr" v="71064" />
	</node>
	<node id="-553706" lat="62.493336113" lon="6.37196944825">
		<tag k="name" v="Åkresvika" />
		<tag k="natural" v="bay" />
		<tag k="ssr:stedsnr" v="54105" />
	</node>
	<node id="-553705" lat="62.4747944467" lon="6.32873332385">
		<tag k="name" v="Ytre Breivika" />
		<tag k="natural" v="bay" />
		<tag k="ssr:stedsnr" v="51974" />
	</node>
	<node id="-553699" lat="62.470666663" lon="6.16604165814">
		<tag k="name" v="Buholmen" />
		<tag k="place" v="islet" />
		<tag k="ssr:stedsnr" v="38976" />
	</node>
	<node id="-553691" lat="62.4542916662" lon="6.0931666623">
		<tag k="name" v="Langeneset" />
		<tag k="natural" v="cape" />
		<tag k="ssr:stedsnr" v="38689" />
	</node>
	<node id="-553689" lat="62.4672638928" lon="6.23786944739">
		<tag k="name" v="Katavågen" />
		<tag k="natural" v="bay" />
		<tag k="ssr:stedsnr" v="38671" />
	</node>
	<node id="-553687" lat="62.4501083366" lon="6.30281666416">
		<tag k="alt_name" v="Svarteskjera" />
		<tag k="fixme" v="consider seamark:type=rock or natural=shoal" />
		<tag k="name" v="Svarteskjeret" />
		<tag k="place" v="islet" />
		<tag k="ssr:stedsnr" v="38631" />
	</node>
	<node id="-553686" lat="62.428341669" lon="6.44287778327">
		<tag k="fixme" v="consider seamark:type=rock or natural=shoal" />
		<tag k="name" v="Tangskjæret" />
		<tag k="place" v="islet" />
		<tag k="ssr:stedsnr" v="38612" />
	</node>
	<node id="-553685" lat="62.4692694414" lon="6.18060833256">
		<tag k="alt_name" v="Kjerringa" />
		<tag k="name" v="Kjerringodden" />
		<tag k="natural" v="cape" />
		<tag k="ssr:stedsnr" v="38600" />
	</node>
	<node id="-553682" lat="62.5026666659" lon="6.4308750081">
		<tag k="name" v="Kyra" />
		<tag k="place" v="islet" />
		<tag k="ssr:stedsnr" v="38575" />
	</node>
	<node id="-553681" lat="62.4996638893" lon="6.2335916609">
		<tag k="name" v="Botnasanden" />
		<tag k="natural" v="bay" />
		<tag k="ssr:stedsnr" v="38562" />
	</node>
	<node id="-553676" lat="62.4367555557" lon="6.31431111988">
		<tag k="name" v="Grønvika" />
		<tag k="natural" v="bay" />
		<tag k="ssr:stedsnr" v="36643" />
	</node>
	<node id="-553665" lat="62.4855222226" lon="6.37764722301">
		<tag k="name" v="Hovdeneset" />
		<tag k="natural" v="cape" />
		<tag k="ssr:stedsnr" v="20317" />
	</node>
	<node id="-553664" lat="62.4113027739" lon="6.38644999226">
		<tag k="bay" v="fjord" />
		<tag k="name" v="Flisfjorden" />
		<tag k="natural" v="bay" />
		<tag k="ssr:stedsnr" v="20165" />
	</node>
	<node id="-553663" lat="62.5110611106" lon="6.35946666335">
		<tag k="name" v="Trollneset" />
		<tag k="natural" v="cape" />
		<tag k="ssr:stedsnr" v="12185" />
	</node>
	<node id="-553656" lat="62.456708336" lon="6.14627777913">
		<tag k="fixme" v="consider seamark:type=rock or natural=shoal" />
		<tag k="name" v="Tangskjeret" />
		<tag k="place" v="islet" />
		<tag k="ssr:stedsnr" v="10956" />
	</node>
	<node id="-553655" lat="62.4643250019" lon="6.14433054847">
		<tag k="name" v="Aspevågen" />
		<tag k="natural" v="bay" />
		<tag k="ssr:stedsnr" v="10954" />
	</node>
	<node id="-553654" lat="62.4832972195" lon="6.34418056491">
		<tag k="name" v="Fangstholmen" />
		<tag k="place" v="islet" />
		<tag k="ssr:stedsnr" v="10236" />
	</node>
	<node id="-553653" lat="62.4860666691" lon="6.32416943784">
		<tag k="name" v="Vikholmen" />
		<tag k="old_name" v="Lauvholmen" />
		<tag k="place" v="islet" />
		<tag k="ssr:stedsnr" v="10234" />
	</node>
	<node id="-553652" lat="62.47876389" lon="6.28821666309">
		<tag k="fixme" v="consider seamark:type=rock or natural=shoal" />
		<tag k="name" v="Kalvskjeret" />
		<tag k="place" v="islet" />
		<tag k="ssr:stedsnr" v="10232" />
	</node>
	<node id="-553651" lat="62.4763333313" lon="6.34584722419">
		<tag k="name" v="Hestholmen" />
		<tag k="place" v="islet" />
		<tag k="ssr:stedsnr" v="10220" />
	</node>
	<node id="-553650" lat="62.4730138912" lon="6.32537777849">
		<tag k="name" v="Nakken" />
		<tag k="natural" v="cape" />
		<tag k="ssr:stedsnr" v="10217" />
	</node>
	<node id="-553649" lat="62.4286472246" lon="6.38944722462">
		<tag k="name" v="Furholmen" />
		<tag k="place" v="islet" />
		<tag k="ssr:stedsnr" v="10095" />
	</node>
	<node id="-553628" lat="62.4438672612" lon="6.27384569614">
		<tag k="name" v="Humlesundet" />
		<tag k="natural" v="strait" />
		<tag k="ssr:stedsnr" v="703935" />
	</node>
	<node id="-553596" lat="62.4300607511" lon="6.39425541807">
		<tag k="name" v="Eikenosvågen" />
		<tag k="natural" v="bay" />
		<tag k="ssr:stedsnr" v="982235" />
	</node>
	<node id="-553585" lat="62.4388083341" lon="6.3340611152">
		<tag k="alt_name" v="Risholmvika" />
		<tag k="name" v="Årvika" />
		<tag k="natural" v="bay" />
		<tag k="ssr:stedsnr" v="887996" />
	</node>
	<node id="-553584" lat="62.4551944448" lon="6.33939444091">
		<tag k="name" v="Knappen" />
		<tag k="place" v="islet" />
		<tag k="ssr:stedsnr" v="887992" />
	</node>
	<node id="-553583" lat="62.4306805531" lon="6.37679166774">
		<tag k="name" v="Sveneset" />
		<tag k="natural" v="cape" />
		<tag k="ssr:stedsnr" v="887990" />
	</node>
	<node id="-553582" lat="62.4697400142" lon="6.2158736148">
		<tag k="alt_name" v="Kolvika" />
		<tag k="name" v="Kollvika" />
		<tag k="natural" v="bay" />
		<tag k="ssr:stedsnr" v="887982" />
	</node>
	<node id="-553580" lat="62.4939972265" lon="6.3828388926">
		<tag k="name" v="Flæna" />
		<tag k="place" v="islet" />
		<tag k="ssr:stedsnr" v="887974" />
	</node>
	<node id="-553578" lat="62.5155083347" lon="6.29235000851">
		<tag k="name" v="Båtvika" />
		<tag k="natural" v="bay" />
		<tag k="ssr:stedsnr" v="887959" />
	</node>
	<node id="-553577" lat="62.4479472221" lon="6.29303055318">
		<tag k="name" v="Krokneset" />
		<tag k="natural" v="cape" />
		<tag k="ssr:stedsnr" v="887944" />
	</node>
	<node id="-553576" lat="62.4730444469" lon="6.25221110967">
		<tag k="name" v="Stabburvågen" />
		<tag k="natural" v="bay" />
		<tag k="ssr:stedsnr" v="887682" />
	</node>
	<node id="-553574" lat="62.4718000003" lon="6.28823611127">
		<tag k="alt_name" v="Leirstadvika" />
		<tag k="name" v="Lerstadvika" />
		<tag k="natural" v="bay" />
		<tag k="ssr:stedsnr" v="887678" />
	</node>
	<node id="-553567" lat="62.4778055574" lon="6.19708332363">
		<tag k="name" v="Storvika" />
		<tag k="natural" v="bay" />
		<tag k="ssr:stedsnr" v="887595" />
	</node>
	<node id="-553565" lat="62.4398916651" lon="6.33563334253">
		<tag k="name" v="Risholmen" />
		<tag k="place" v="islet" />
		<tag k="ssr:stedsnr" v="887586" />
	</node>
	<node id="-553564" lat="62.4381138846" lon="6.34014167576">
		<tag k="alt_name" v="Snutholmen" />
		<tag k="name" v="Tjørsundholmen" />
		<tag k="place" v="islet" />
		<tag k="ssr:stedsnr" v="887584" />
	</node>
	<node id="-553563" lat="62.4569222214" lon="6.35039722411">
		<tag k="name" v="Spjelkavikneset" />
		<tag k="natural" v="cape" />
		<tag k="ssr:stedsnr" v="887583" />
	</node>
	<node id="-553555" lat="62.4947138881" lon="6.24315833412">
		<tag k="alt_name" v="Grytebostvika" />
		<tag k="name" v="Grytebustvika" />
		<tag k="natural" v="bay" />
		<tag k="ssr:stedsnr" v="887550" />
	</node>
	<node id="-553554" lat="62.4954694447" lon="6.34651667521">
		<tag k="name" v="Nordre Bjørgeholmsundet" />
		<tag k="natural" v="strait" />
		<tag k="ssr:stedsnr" v="887543" />
	</node>
	<node id="-553553" lat="62.4188138863" lon="6.39501388921">
		<tag k="name" v="Bjønnavika" />
		<tag k="natural" v="bay" />
		<tag k="ssr:stedsnr" v="887539" />
	</node>
	<node id="-553551" lat="62.4377250011" lon="6.31408888549">
		<tag k="name" v="Tørlevågen" />
		<tag k="natural" v="bay" />
		<tag k="ssr:stedsnr" v="886691" />
	</node>
	<node id="-553547" lat="62.5142083356" lon="6.41626110688">
		<tag k="name" v="Stokkevika" />
		<tag k="natural" v="bay" />
		<tag k="ssr:stedsnr" v="476410" />
	</node>
	<node id="-553540" lat="62.474213891" lon="6.1697750092">
		<tag k="name" v="Nørvøya" />
		<tag k="place" v="island" />
		<tag k="ssr:stedsnr" v="402706" />
	</node>
	<node id="-553537" lat="62.430519447" lon="6.43898888258">
		<tag k="name" v="Emblemssanden" />
		<tag k="natural" v="beach" />
		<tag k="place" v="locality" />
		<tag k="ssr:stedsnr" v="402637" />
	</node>
	<node id="-553536" lat="62.4699638932" lon="6.18186666536">
		<tag k="name" v="Volsdalsvågen" />
		<tag k="natural" v="bay" />
		<tag k="ssr:stedsnr" v="402625" />
	</node>
	<node id="-553535" lat="62.4684555512" lon="6.18003055771">
		<tag k="name" v="Skrivaren" />
		<tag k="place" v="islet" />
		<tag k="ssr:stedsnr" v="402626" />
	</node>
	<node id="-553534" lat="62.4441888915" lon="6.35278056447">
		<tag k="name" v="Naustvågen" />
		<tag k="natural" v="bay" />
		<tag k="ssr:stedsnr" v="402617" />
	</node>
	<node id="-553532" lat="62.4950166678" lon="6.23311667542">
		<tag k="name" v="Grimstadsundet" />
		<tag k="natural" v="strait" />
		<tag k="ssr:stedsnr" v="402593" />
	</node>
	<node id="-553530" lat="62.4977833363" lon="6.41909722818">
		<tag k="fixme" v="consider seamark:type=rock or natural=shoal" />
		<tag k="name" v="Klippfiskskjera" />
		<tag k="place" v="islet" />
		<tag k="ssr:stedsnr" v="402571" />
	</node>
	<node id="-553526" lat="62.5112166699" lon="6.23553333476">
		<tag k="name" v="Larsholmen" />
		<tag k="place" v="islet" />
		<tag k="ssr:stedsnr" v="402545" />
	</node>
	<node id="-553525" lat="62.4882833302" lon="6.4015555489">
		<tag k="alt_name" v="Allvikneset" />
		<tag k="name" v="Alvikneset" />
		<tag k="natural" v="cape" />
		<tag k="ssr:stedsnr" v="402538" />
	</node>
	<node id="-553510" lat="62.4991583333" lon="6.40999167573">
		<tag k="name" v="Stokkeholmen" />
		<tag k="place" v="islet" />
		<tag k="ssr:stedsnr" v="375084" />
	</node>
	<node id="-553508" lat="62.4404805593" lon="6.35676112027">
		<tag k="name" v="Skyttarholm" />
		<tag k="natural" v="cape" />
		<tag k="ssr:stedsnr" v="375045" />
	</node>
	<node id="-553503" lat="62.4688055546" lon="6.17120277703">
		<tag k="alt_name" v="Bollholmen" />
		<tag k="name" v="Bålholmen" />
		<tag k="place" v="islet" />
		<tag k="ssr:stedsnr" v="374961" />
	</node>
	<node id="-553502" lat="62.4878418158" lon="6.34954490044">
		<tag k="name" v="Langøya" />
		<tag k="place" v="island" />
		<tag k="ssr:stedsnr" v="374258" />
	</node>
	<node id="-553497" lat="62.4803694469" lon="6.28339445194">
		<tag k="name" v="Sommarsneset" />
		<tag k="natural" v="cape" />
		<tag k="ssr:stedsnr" v="361169" />
	</node>
	<node id="-553495" lat="62.4568166656" lon="6.25995277732">
		<tag k="name" v="Slevika" />
		<tag k="natural" v="bay" />
		<tag k="ssr:stedsnr" v="359123" />
	</node>
	<node id="-553494" lat="62.4571499972" lon="6.25125278471">
		<tag k="name" v="Apalvika" />
		<tag k="natural" v="bay" />
		<tag k="ssr:stedsnr" v="359119" />
	</node>
	<node id="-553493" lat="62.4657194446" lon="6.12345555546">
		<tag k="name" v="Kvenna" />
		<tag k="natural" v="shoal" />
		<tag k="place" v="locality" />
		<tag k="ssr:stedsnr" v="359020" />
	</node>
	<node id="-553491" lat="62.4774972238" lon="6.28307499028">
		<tag k="name" v="Flua" />
		<tag k="natural" v="shoal" />
		<tag k="place" v="locality" />
		<tag k="ssr:stedsnr" v="354973" />
	</node>
	<node id="-553490" lat="62.4838861136" lon="6.37283888377">
		<tag k="name" v="Ytre Hovdenes" />
		<tag k="natural" v="cape" />
		<tag k="ssr:stedsnr" v="354472" />
	</node>
	<node id="-553488" lat="62.451488888" lon="6.08659999676">
		<tag k="name" v="Valleflua" />
		<tag k="natural" v="shoal" />
		<tag k="place" v="locality" />
		<tag k="ssr:stedsnr" v="342512" />
	</node>
	<node id="-553487" lat="62.4637444447" lon="6.07139721305">
		<tag k="name" v="Skarvøyflua" />
		<tag k="natural" v="shoal" />
		<tag k="place" v="locality" />
		<tag k="ssr:stedsnr" v="342284" />
	</node>
	<node id="-553485" lat="62.4688166672" lon="6.11586387989">
		<tag k="name" v="Storvika" />
		<tag k="natural" v="bay" />
		<tag k="ssr:stedsnr" v="341991" />
	</node>
	<node id="-553481" lat="62.4964527758" lon="6.22678334027">
		<tag k="name" v="Hella" />
		<tag k="natural" v="cape" />
		<tag k="ssr:stedsnr" v="341960" />
	</node>
	<node id="-553480" lat="62.4376666679" lon="6.3383083237">
		<tag k="name" v="Kjerringsundet" />
		<tag k="natural" v="strait" />
		<tag k="ssr:stedsnr" v="341950" />
	</node>
	<node id="-553475" lat="62.4476499978" lon="6.30953055665">
		<tag k="name" v="Notholmen" />
		<tag k="place" v="islet" />
		<tag k="ssr:stedsnr" v="341685" />
	</node>
	<node id="-553471" lat="62.4645472254" lon="6.2182916567">
		<tag k="name" v="Litleborgund" />
		<tag k="place" v="islet" />
		<tag k="ssr:stedsnr" v="341660" />
	</node>
	<node id="-553470" lat="62.4679111078" lon="6.18626666736">
		<tag k="name" v="Stolpevika" />
		<tag k="natural" v="bay" />
		<tag k="ssr:stedsnr" v="341657" />
	</node>
	<node id="-553469" lat="62.4397777779" lon="6.34710000238">
		<tag k="fixme" v="consider seamark:type=rock or natural=shoal" />
		<tag k="name" v="Rabbeflua" />
		<tag k="place" v="islet" />
		<tag k="ssr:stedsnr" v="341653" />
	</node>
	<node id="-553464" lat="62.4297805568" lon="6.38341111667">
		<tag k="name" v="Kyrkjeneset" />
		<tag k="natural" v="cape" />
		<tag k="ssr:stedsnr" v="341588" />
	</node>
	<node id="-553462" lat="62.5134472188" lon="6.24638334225">
		<tag k="name" v="Hatleneset" />
		<tag k="natural" v="cape" />
		<tag k="ssr:stedsnr" v="341575" />
	</node>
	<node id="-553459" lat="62.437755553" lon="6.34271943855">
		<tag k="name" v="Tjørsundet" />
		<tag k="natural" v="strait" />
		<tag k="ssr:stedsnr" v="340671" />
	</node>
	<node id="-553453" lat="62.5165305519" lon="6.43502500252">
		<tag k="name" v="Ljørusta" />
		<tag k="natural" v="cape" />
		<tag k="ssr:stedsnr" v="315175" />
	</node>
	<node id="-553452" lat="62.5150091915" lon="6.3099053083">
		<tag k="name" v="Lorga" />
		<tag k="natural" v="cape" />
		<tag k="ssr:stedsnr" v="315173" />
	</node>
	<node id="-553449" lat="62.482211115" lon="6.18482500585">
		<tag k="name" v="Flatholmen" />
		<tag k="place" v="islet" />
		<tag k="ssr:stedsnr" v="314992" />
	</node>
	<node id="-553447" lat="62.4752833366" lon="6.20290832763">
		<tag k="alt_name" v="Nørvøya" />
		<tag k="name" v="Nørve" />
		<tag k="place" v="island" />
		<tag k="ssr:stedsnr" v="314913" />
	</node>
	<node id="-553446" lat="62.4916027772" lon="6.31396389052">
		<tag k="name" v="Sperreholmen" />
		<tag k="place" v="islet" />
		<tag k="ssr:stedsnr" v="314264" />
	</node>
	<node id="-553445" lat="62.4742388922" lon="6.28744444125">
		<tag k="alt_name" v="Leirstadholmen" />
		<tag k="name" v="Lerstadholmen" />
		<tag k="place" v="islet" />
		<tag k="ssr:stedsnr" v="314245" />
	</node>
	<node id="-553442" lat="62.4464833292" lon="6.2693138982">
		<tag k="alt_name" v="Kavelen;Kavlen" />
		<tag k="name" v="Kalven" />
		<tag k="place" v="islet" />
		<tag k="ssr:stedsnr" v="314009" />
	</node>
	<node id="-553441" lat="62.4533388887" lon="6.3486250096">
		<tag k="name" v="Leitavågen" />
		<tag k="natural" v="bay" />
		<tag k="ssr:stedsnr" v="314008" />
	</node>
	<node id="-553437" lat="62.4545749971" lon="6.34042778371">
		<tag k="name" v="Knappegrunnen" />
		<tag k="natural" v="shoal" />
		<tag k="place" v="locality" />
		<tag k="ssr:stedsnr" v="301102" />
	</node>
	<node id="-553436" lat="62.464772221" lon="6.19430556497">
		<tag k="name" v="Tyskholmbåane" />
		<tag k="natural" v="shoal" />
		<tag k="place" v="locality" />
		<tag k="ssr:stedsnr" v="56221" />
	</node>
	<node id="-553435" lat="62.4927027765" lon="6.20041943848">
		<tag k="name" v="Langenesvika" />
		<tag k="natural" v="cape" />
		<tag k="ssr:stedsnr" v="299426" />
	</node>
	<node id="-553433" lat="62.4951833358" lon="6.41938334044">
		<tag k="name" v="Drogeflua" />
		<tag k="natural" v="shoal" />
		<tag k="place" v="locality" />
		<tag k="ssr:stedsnr" v="295442" />
	</node>
	<node id="-553432" lat="62.4248694426" lon="6.4306583384">
		<tag k="name" v="Seieggen" />
		<tag k="place" v="locality" />
		<tag k="ssr:stedsnr" v="294998" />
	</node>
	<node id="-553428" lat="62.5142500035" lon="6.31284166492">
		<tag k="name" v="Murvikneset" />
		<tag k="natural" v="cape" />
		<tag k="ssr:stedsnr" v="293395" />
	</node>
	<node id="-553413" lat="62.4689750037" lon="6.20873054893">
		<tag k="fixme" v="multiple name tags, choose one and add the other to alt_name" />
		<tag k="name" v="Litleholmen;Nørveholmen" />
		<tag k="place" v="islet" />
		<tag k="ssr:stedsnr" v="281614" />
	</node>
	<node id="-553412" lat="62.4800472208" lon="6.369208341">
		<tag k="name" v="Langneset" />
		<tag k="natural" v="cape" />
		<tag k="ssr:stedsnr" v="281584" />
	</node>
	<node id="-553411" lat="62.4782222208" lon="6.3719222189">
		<tag k="name" v="Storknappen" />
		<tag k="natural" v="cape" />
		<tag k="ssr:stedsnr" v="281582" />
	</node>
	<node id="-553402" lat="62.5167055594" lon="6.43215833164">
		<tag k="name" v="Sandvikskarvika" />
		<tag k="natural" v="bay" />
		<tag k="ssr:stedsnr" v="280567" />
	</node>
	<node id="-553399" lat="62.4389694438" lon="6.34220554727">
		<tag k="name" v="Tjørsundet" />
		<tag k="natural" v="strait" />
		<tag k="ssr:stedsnr" v="280553" />
	</node>
	<node id="-553398" lat="62.4312111148" lon="6.37295277678">
		<tag k="name" v="Notholmen" />
		<tag k="place" v="islet" />
		<tag k="ssr:stedsnr" v="280554" />
	</node>
	<node id="-553397" lat="62.4227500013" lon="6.40490000425">
		<tag k="alt_name" v="Rotaneset" />
		<tag k="name" v="Rotavikneset" />
		<tag k="natural" v="cape" />
		<tag k="ssr:stedsnr" v="280551" />
	</node>
	<node id="-553396" lat="62.4266166705" lon="6.38625277201">
		<tag k="alt_name" v="Eikenosvågen" />
		<tag k="name" v="Eikenosvågane" />
		<tag k="natural" v="bay" />
		<tag k="ssr:stedsnr" v="280550" />
	</node>
</osm>
