<?xml version="1.0" encoding="UTF-8"?>
<osm generator="osmapis" version="0.6">
	<node id="-553984" lat="62.4691444412" lon="6.24968055836">
		<tag k="layer" v="-1" />
		<tag k="name" v="Skuggetunnelen" />
		<tag k="ssr:stedsnr" v="506522" />
		<tag k="tunnel" v="yes" />
	</node>
	<node id="-553458" lat="62.4681194451" lon="6.2630250039">
		<tag k="bridge" v="yes" />
		<tag k="layer" v="1" />
		<tag k="name" v="Gåseidnesbrua" />
		<tag k="ssr:stedsnr" v="339022" />
	</node>
	<node id="-553457" lat="62.4340583317" lon="6.46544167288">
		<tag k="bridge" v="yes" />
		<tag k="layer" v="1" />
		<tag k="name" v="Siribrua" />
		<tag k="ssr:stedsnr" v="339012" />
	</node>
	<node id="-553455" lat="62.4420305596" lon="6.36281388019">
		<tag k="bridge" v="yes" />
		<tag k="layer" v="1" />
		<tag k="name" v="Urdalsbrua" />
		<tag k="ssr:stedsnr" v="330326" />
	</node>
	<node id="-554062" lat="62.4319361114" lon="6.50254444325">
		<tag k="amenity" v="ferry_terminal" />
		<tag k="name" v="Magerholm ferjekai" />
		<tag k="ssr:stedsnr" v="580253" />
	</node>
	<node id="-553424" lat="62.4589083326" lon="6.3557166613">
		<tag k="bridge" v="yes" />
		<tag k="layer" v="1" />
		<tag k="name" v="Kraftverksbrua" />
		<tag k="ssr:stedsnr" v="284040" />
	</node>
	<node id="-553549" lat="62.4701472181" lon="6.24359722975">
		<tag k="bridge" v="yes" />
		<tag k="layer" v="1" />
		<tag k="name" v="Nørvasundbrua" />
		<tag k="ssr:stedsnr" v="886027" />
	</node>
	<node id="-553931" lat="62.476194442" lon="6.40944167636">
		<tag k="layer" v="-1" />
		<tag k="name" v="Rødsetreitundergangen" />
		<tag k="ssr:stedsnr" v="461467" />
		<tag k="tunnel" v="yes" />
	</node>
	<node id="-553930" lat="62.4702916655" lon="6.35664722859">
		<tag k="bridge" v="yes" />
		<tag k="layer" v="1" />
		<tag k="name" v="Holsbrua" />
		<tag k="ssr:stedsnr" v="461434" />
	</node>
	<node id="-554437" lat="62.4633111067" lon="6.35573333088">
		<tag k="bridge" v="yes" />
		<tag k="layer" v="1" />
		<tag k="name" v="Nedregårdsbrua" />
		<tag k="ssr:stedsnr" v="951045" />
	</node>
	<node id="-554436" lat="62.4609694435" lon="6.35929443644">
		<tag k="bridge" v="yes" />
		<tag k="layer" v="1" />
		<tag k="name" v="Mittetskogbrua" />
		<tag k="ssr:stedsnr" v="951039" />
	</node>
	<node id="-553922" lat="62.4436250007" lon="6.31048055008">
		<tag k="bridge" v="yes" />
		<tag k="layer" v="1" />
		<tag k="name" v="Humlebrua" />
		<tag k="ssr:stedsnr" v="461099" />
	</node>
	<node id="-553921" lat="62.4372999959" lon="6.35621944968">
		<tag k="layer" v="-1" />
		<tag k="name" v="Søndre Blindheimsundergangen" />
		<tag k="ssr:stedsnr" v="461046" />
		<tag k="tunnel" v="yes" />
	</node>
	<node id="-553918" lat="62.4471111124" lon="6.35783056392">
		<tag k="layer" v="-1" />
		<tag k="name" v="Blindheimstunnelen" />
		<tag k="ssr:stedsnr" v="452309" />
		<tag k="tunnel" v="yes" />
	</node>
	<node id="-554426" lat="62.478008334" lon="6.24349166469">
		<tag k="landuse" v="industrial" />
		<tag k="name" v="Nørve sekundærstasjon" />
		<tag k="power" v="plant" />
		<tag k="ssr:stedsnr" v="948745" />
	</node>
	<node id="-553394" lat="62.4754944433" lon="6.1508722208">
		<tag k="man_made" v="quay" />
		<tag k="name" v="Skansekaia" />
		<tag k="place" v="locality" />
		<tag k="ssr:stedsnr" v="279694" />
	</node>
	<node id="-553393" lat="62.4674416631" lon="6.27149166117">
		<tag k="layer" v="-1" />
		<tag k="name" v="Vandbergundergangen" />
		<tag k="ssr:stedsnr" v="278529" />
		<tag k="tunnel" v="yes" />
	</node>
	<node id="-553897" lat="62.4695055535" lon="6.14779445349">
		<tag k="man_made" v="quay" />
		<tag k="name" v="Prestebrygga" />
		<tag k="place" v="locality" />
		<tag k="ssr:stedsnr" v="421036" />
	</node>
	<node id="-554404" lat="62.4705277801" lon="6.32396667015">
		<tag k="bridge" v="yes" />
		<tag k="layer" v="1" />
		<tag k="name" v="Nakkevikbrua" />
		<tag k="ssr:stedsnr" v="947096" />
	</node>
	<node id="-554403" lat="62.4697749955" lon="6.30926665956">
		<tag k="bridge" v="yes" />
		<tag k="layer" v="1" />
		<tag k="name" v="Lerstadgangbrua" />
		<tag k="ssr:stedsnr" v="947089" />
	</node>
	<node id="-554401" lat="62.4703472201" lon="6.19424443625">
		<tag k="bridge" v="yes" />
		<tag k="layer" v="1" />
		<tag k="name" v="Bergabrua" />
		<tag k="ssr:stedsnr" v="946018" />
	</node>
	<node id="-553875" lat="62.4739694477" lon="6.1565694365">
		<tag k="junction" v="yes" />
		<tag k="name" v="Korsen" />
		<tag k="place" v="locality" />
		<tag k="ssr:stedsnr" v="238184" />
	</node>
	<node id="-553873" lat="62.4694222202" lon="6.15294444161">
		<tag k="man_made" v="quay" />
		<tag k="name" v="Storneskaia" />
		<tag k="place" v="locality" />
		<tag k="ssr:stedsnr" v="238032" />
	</node>
	<node id="-553867" lat="62.4706999998" lon="6.12473888265">
		<tag k="bridge" v="yes" />
		<tag k="layer" v="1" />
		<tag k="name" v="Steinvågbrua" />
		<tag k="ssr:stedsnr" v="225009" />
	</node>
	<node id="-553866" lat="62.4587222182" lon="6.35528611693">
		<tag k="bridge" v="yes" />
		<tag k="layer" v="1" />
		<tag k="name" v="Sandingbrua" />
		<tag k="ssr:stedsnr" v="223050" />
	</node>
	<node id="-554365" lat="62.44598889" lon="6.35820554582">
		<tag k="bridge" v="yes" />
		<tag k="layer" v="1" />
		<tag k="name" v="Furutunbrua" />
		<tag k="ssr:stedsnr" v="877339" />
	</node>
	<node id="-554364" lat="62.4607944443" lon="6.35961388998">
		<tag k="bridge" v="yes" />
		<tag k="layer" v="1" />
		<tag k="name" v="Nedrevollbrua" />
		<tag k="ssr:stedsnr" v="877338" />
	</node>
	<node id="-553831" lat="62.4603388903" lon="6.35767221519">
		<tag k="bridge" v="yes" />
		<tag k="layer" v="1" />
		<tag k="name" v="Liljedahlbrua" />
		<tag k="ssr:stedsnr" v="218077" />
	</node>
	<node id="-553830" lat="62.4705194439" lon="6.32388888826">
		<tag k="bridge" v="yes" />
		<tag k="layer" v="1" />
		<tag k="name" v="Nakkevikgangbrua" />
		<tag k="ssr:stedsnr" v="218073" />
	</node>
	<node id="-554318" lat="62.44740278" lon="6.54163889378">
		<tag k="highway" v="path" />
		<tag k="name" v="Styggestigen" />
		<tag k="ssr:stedsnr" v="827652" />
	</node>
	<node id="-553805" lat="62.4648611086" lon="6.39524999548">
		<tag k="bridge" v="yes" />
		<tag k="layer" v="1" />
		<tag k="name" v="Årsetelvbrua" />
		<tag k="ssr:stedsnr" v="162040" />
	</node>
	<node id="-553804" lat="62.4358361069" lon="6.44929166937">
		<tag k="bridge" v="yes" />
		<tag k="layer" v="1" />
		<tag k="name" v="Ebbebrua" />
		<tag k="ssr:stedsnr" v="162027" />
	</node>
	<node id="-554302" lat="62.4370583313" lon="6.35989722689">
		<tag k="bridge" v="yes" />
		<tag k="layer" v="1" />
		<tag k="name" v="Tørlevegbrua" />
		<tag k="ssr:stedsnr" v="825381" />
	</node>
	<node id="-554301" lat="62.4708138888" lon="6.15171665723">
		<tag k="bridge" v="yes" />
		<tag k="layer" v="1" />
		<tag k="name" v="Hellebrua" />
		<tag k="ssr:stedsnr" v="825012" />
	</node>
	<node id="-553779" lat="62.4404805522" lon="6.36258611688">
		<tag k="bridge" v="yes" />
		<tag k="layer" v="1" />
		<tag k="name" v="Heimdalsbrua" />
		<tag k="ssr:stedsnr" v="157382" />
	</node>
	<node id="-553778" lat="62.436569442" lon="6.44452500217">
		<tag k="layer" v="-1" />
		<tag k="name" v="Skillingsgardundergangen" />
		<tag k="ssr:stedsnr" v="157037" />
		<tag k="tunnel" v="yes" />
	</node>
	<node id="-553777" lat="62.470394447" lon="6.20081667031">
		<tag k="bridge" v="yes" />
		<tag k="layer" v="1" />
		<tag k="name" v="Nørvebrua" />
		<tag k="ssr:stedsnr" v="157014" />
	</node>
	<node id="-553776" lat="62.4345416683" lon="6.39981388703">
		<tag k="bridge" v="yes" />
		<tag k="layer" v="1" />
		<tag k="name" v="Hatleholgangbrua" />
		<tag k="ssr:stedsnr" v="157011" />
	</node>
	<node id="-553774" lat="62.4922250031" lon="6.1763472133">
		<tag k="layer" v="-1" />
		<tag k="name" v="Valderøytunnelen" />
		<tag k="ssr:stedsnr" v="148347" />
		<tag k="tunnel" v="yes" />
	</node>
	<node id="-554273" lat="62.4448444457" lon="6.36667222489">
		<tag k="bridge" v="yes" />
		<tag k="layer" v="1" />
		<tag k="name" v="Geilebrua" />
		<tag k="ssr:stedsnr" v="769045" />
	</node>
	<node id="-554272" lat="62.4648250013" lon="6.38316667419">
		<tag k="bridge" v="yes" />
		<tag k="layer" v="1" />
		<tag k="name" v="Fremmerholbrua" />
		<tag k="ssr:stedsnr" v="769040" />
	</node>
	<node id="-553757" lat="62.4919166686" lon="6.278149991">
		<tag k="bridge" v="yes" />
		<tag k="layer" v="1" />
		<tag k="name" v="Kvalsteinbrua" />
		<tag k="ssr:stedsnr" v="101023" />
	</node>
	<node id="-553756" lat="62.4285750038" lon="6.41201110933">
		<tag k="bridge" v="yes" />
		<tag k="layer" v="1" />
		<tag k="name" v="Flisnesgangbrua" />
		<tag k="ssr:stedsnr" v="101021" />
	</node>
	<node id="-553752" lat="62.4759666704" lon="6.19858055542">
		<tag k="man_made" v="tower" />
		<tag k="name" v="Ålesund radio" />
		<tag k="ssr:stedsnr" v="99603" />
		<tag k="tower:type" v="communications" />
	</node>
	<node id="-553518" lat="62.4419777748" lon="6.36287222946">
		<tag k="layer" v="-1" />
		<tag k="name" v="Urdalsundergangen" />
		<tag k="ssr:stedsnr" v="400471" />
		<tag k="tunnel" v="yes" />
	</node>
	<node id="-554258" lat="62.4354999977" lon="6.35879722496">
		<tag k="bridge" v="yes" />
		<tag k="layer" v="1" />
		<tag k="name" v="Fjøshaugbrua" />
		<tag k="ssr:stedsnr" v="764423" />
	</node>
	<node id="-554257" lat="62.4696472221" lon="6.24126667252">
		<tag k="bridge" v="yes" />
		<tag k="layer" v="1" />
		<tag k="name" v="Borgundbrua" />
		<tag k="ssr:stedsnr" v="764084" />
	</node>
	<node id="-554256" lat="62.4727722195" lon="6.36586110945">
		<tag k="layer" v="-1" />
		<tag k="name" v="Retiroundergangen" />
		<tag k="ssr:stedsnr" v="764045" />
		<tag k="tunnel" v="yes" />
	</node>
	<node id="-554255" lat="62.4979333338" lon="6.22250555377">
		<tag k="bridge" v="yes" />
		<tag k="layer" v="1" />
		<tag k="name" v="Kapteinhusbrua" />
		<tag k="ssr:stedsnr" v="764017" />
	</node>
	<node id="-554254" lat="62.4979333338" lon="6.22250555377">
		<tag k="bridge" v="yes" />
		<tag k="layer" v="1" />
		<tag k="name" v="Eidsvågbrua" />
		<tag k="ssr:stedsnr" v="764015" />
	</node>
	<node id="-554249" lat="62.4709444406" lon="6.17629999491">
		<tag k="layer" v="-1" />
		<tag k="name" v="Ellingsøytunnelen" />
		<tag k="ssr:stedsnr" v="755330" />
		<tag k="tunnel" v="yes" />
	</node>
	<node id="-553726" lat="62.4411611154" lon="6.37812222837">
		<tag k="layer" v="-1" />
		<tag k="name" v="Syvermarkundergangen" />
		<tag k="ssr:stedsnr" v="97053" />
		<tag k="tunnel" v="yes" />
	</node>
	<node id="-553725" lat="62.4356194423" lon="6.45314722522">
		<tag k="layer" v="-1" />
		<tag k="name" v="Storebruundergangen" />
		<tag k="ssr:stedsnr" v="97054" />
		<tag k="tunnel" v="yes" />
	</node>
	<node id="-553723" lat="62.4680694467" lon="6.27149443989">
		<tag k="layer" v="-1" />
		<tag k="name" v="Lerstadundergangen" />
		<tag k="ssr:stedsnr" v="96488" />
		<tag k="tunnel" v="yes" />
	</node>
	<node id="-553719" lat="62.4709027786" lon="6.13493056366">
		<tag k="bridge" v="yes" />
		<tag k="layer" v="1" />
		<tag k="name" v="Brooklynbroa" />
		<tag k="ssr:stedsnr" v="80034" />
	</node>
	<node id="-554227" lat="62.4701083334" lon="6.16320277024">
		<tag k="man_made" v="quay" />
		<tag k="name" v="Meierikaia" />
		<tag k="place" v="locality" />
		<tag k="ssr:stedsnr" v="724033" />
	</node>
	<node id="-553427" lat="62.47036944" lon="6.23024166145">
		<tag k="layer" v="-1" />
		<tag k="name" v="Sørnestunnelen" />
		<tag k="ssr:stedsnr" v="285002" />
		<tag k="tunnel" v="yes" />
	</node>
	<node id="-554217" lat="62.4614111076" lon="6.35262499545">
		<tag k="bridge" v="yes" />
		<tag k="layer" v="1" />
		<tag k="name" v="Langelandsbrua" />
		<tag k="ssr:stedsnr" v="708062" />
	</node>
	<node id="-554216" lat="62.4604444467" lon="6.35955555233">
		<tag k="bridge" v="yes" />
		<tag k="layer" v="1" />
		<tag k="name" v="Solvangbrua" />
		<tag k="ssr:stedsnr" v="708060" />
	</node>
	<node id="-554215" lat="62.470183336" lon="6.15112500652">
		<tag k="bridge" v="yes" />
		<tag k="layer" v="1" />
		<tag k="name" v="Torghallbroa" />
		<tag k="ssr:stedsnr" v="708052" />
	</node>
	<node id="-553702" lat="62.4334222191" lon="6.35726666064">
		<tag k="bridge" v="yes" />
		<tag k="layer" v="1" />
		<tag k="name" v="Vegsundbrua" />
		<tag k="ssr:stedsnr" v="42006" />
	</node>
	<node id="-553700" lat="62.4325055561" lon="6.39104999179">
		<tag k="layer" v="-1" />
		<tag k="name" v="Ramsvikundergangen" />
		<tag k="ssr:stedsnr" v="41034" />
		<tag k="tunnel" v="yes" />
	</node>
	<node id="-554211" lat="62.4622305534" lon="6.1141833276">
		<tag k="aerialway" v="gondola" />
		<tag k="name" v="Osen" />
		<tag k="ssr:stedsnr" v="705980" />
	</node>
	<node id="-553674" lat="62.4356194477" lon="6.45334166744">
		<tag k="bridge" v="yes" />
		<tag k="layer" v="1" />
		<tag k="name" v="Storebrua" />
		<tag k="ssr:stedsnr" v="36020" />
	</node>
	<node id="-554185" lat="62.4702722225" lon="6.36473054637">
		<tag k="bridge" v="yes" />
		<tag k="layer" v="1" />
		<tag k="name" v="Breivikbrua" />
		<tag k="ssr:stedsnr" v="703459" />
	</node>
	<node id="-554184" lat="62.4639527735" lon="6.3029388806">
		<tag k="layer" v="-1" />
		<tag k="name" v="Åsestrandundergangen" />
		<tag k="ssr:stedsnr" v="703046" />
		<tag k="tunnel" v="yes" />
	</node>
	<node id="-553419" lat="62.4678416685" lon="6.14237777726">
		<tag k="man_made" v="quay" />
		<tag k="name" v="Skutvikpiren" />
		<tag k="place" v="locality" />
		<tag k="ssr:stedsnr" v="281698" />
	</node>
	<node id="-553640" lat="62.4742975524" lon="6.15459604036">
		<tag k="man_made" v="quay" />
		<tag k="name" v="Skateflukaia" />
		<tag k="place" v="locality" />
		<tag k="ssr:stedsnr" v="991304" />
	</node>
	<node id="-553639" lat="62.4698975086" lon="6.14894115614">
		<tag k="man_made" v="quay" />
		<tag k="name" v="Brøggerplana" />
		<tag k="place" v="locality" />
		<tag k="ssr:stedsnr" v="991305" />
	</node>
	<node id="-553637" lat="62.4734451168" lon="6.15331868983">
		<tag k="man_made" v="quay" />
		<tag k="name" v="Brunholmkaia" />
		<tag k="place" v="locality" />
		<tag k="ssr:stedsnr" v="991303" />
	</node>
	<node id="-554132" lat="62.4726972215" lon="6.37160000633">
		<tag k="highway" v="path" />
		<tag k="name" v="Holsstigen" />
		<tag k="ssr:stedsnr" v="644621" />
	</node>
	<node id="-554124" lat="62.471813889" lon="6.38521943597">
		<tag k="layer" v="-1" />
		<tag k="name" v="Hatlebøundergangen" />
		<tag k="ssr:stedsnr" v="642448" />
		<tag k="tunnel" v="yes" />
	</node>
	<node id="-554123" lat="62.4420972181" lon="6.37313612017">
		<tag k="bridge" v="yes" />
		<tag k="layer" v="1" />
		<tag k="name" v="Knutgardsbrua" />
		<tag k="ssr:stedsnr" v="642019" />
	</node>
	<node id="-553591" lat="62.4382333342" lon="6.3434138973">
		<tag k="bridge" v="yes" />
		<tag k="layer" v="1" />
		<tag k="name" v="Tjørsundbrua" />
		<tag k="ssr:stedsnr" v="892004" />
	</node>
	<node id="-553590" lat="62.461572221" lon="6.36067776897">
		<tag k="bridge" v="yes" />
		<tag k="layer" v="1" />
		<tag k="name" v="Puntlærbrua" />
		<tag k="ssr:stedsnr" v="890046" />
	</node>
	<node id="-553589" lat="62.4663249995" lon="6.23969722692">
		<tag k="bridge" v="yes" />
		<tag k="layer" v="1" />
		<tag k="name" v="Katevågbrua" />
		<tag k="ssr:stedsnr" v="890044" />
	</node>
	<node id="-553588" lat="62.4364249964" lon="6.45538333069">
		<tag k="bridge" v="yes" />
		<tag k="layer" v="1" />
		<tag k="name" v="Hjellhaugbrua" />
		<tag k="ssr:stedsnr" v="890036" />
	</node>
	<node id="-553587" lat="62.4649583322" lon="6.34315277895">
		<tag k="junction" v="yes" />
		<tag k="name" v="Vindgårdskiftet" />
		<tag k="place" v="locality" />
		<tag k="ssr:stedsnr" v="888726" />
	</node>
	<node id="-554094" lat="62.4629809226" lon="6.31253297572">
		<tag k="aeroway" v="airstrip" />
		<tag k="name" v="Ålesund helikopterplass, Ålesund sjukehus" />
		<tag k="ssr:stedsnr" v="587526" />
	</node>
	<node id="-554092" lat="62.4960750014" lon="6.2503083401">
		<tag k="bridge" v="yes" />
		<tag k="layer" v="1" />
		<tag k="name" v="Grytebustbrua" />
		<tag k="ssr:stedsnr" v="586019" />
	</node>
	<node id="-553570" lat="62.4523805512" lon="6.51081388222">
		<tag k="fixme" v="consider highway=path" />
		<tag k="highway" v="track" />
		<tag k="name" v="Sætrevegen" />
		<tag k="ssr:stedsnr" v="887612" />
	</node>
	<node id="-554074" lat="62.4642250024" lon="6.23150832956">
		<tag k="man_made" v="quay" />
		<tag k="name" v="Borgundkaia" />
		<tag k="place" v="locality" />
		<tag k="ssr:stedsnr" v="583585" />
	</node>
	<node id="-554064" lat="62.4710611073" lon="6.15964443559">
		<tag k="bridge" v="yes" />
		<tag k="layer" v="1" />
		<tag k="name" v="Sjøgatebrua" />
		<tag k="ssr:stedsnr" v="581028" />
	</node>
	<node id="-554063" lat="62.4699499986" lon="6.24233610347">
		<tag k="bridge" v="yes" />
		<tag k="layer" v="1" />
		<tag k="name" v="Skuggebrua" />
		<tag k="ssr:stedsnr" v="581022" />
	</node>
	<node id="-553550" lat="62.4709083362" lon="6.23751388602">
		<tag k="layer" v="-1" />
		<tag k="name" v="Nørvasundundergangen" />
		<tag k="ssr:stedsnr" v="886043" />
		<tag k="tunnel" v="yes" />
	</node>
	<node id="-554061" lat="62.4574333334" lon="6.35764166731">
		<tag k="bridge" v="yes" />
		<tag k="layer" v="1" />
		<tag k="name" v="Vikabrua" />
		<tag k="ssr:stedsnr" v="573303" />
	</node>
	<node id="-553545" lat="62.4661666665" lon="6.29606944992">
		<tag k="layer" v="-1" />
		<tag k="name" v="Hatlaåstunnelen" />
		<tag k="ssr:stedsnr" v="407002" />
		<tag k="tunnel" v="yes" />
	</node>
	<node id="-553544" lat="62.4795777803" lon="6.18730555701">
		<tag k="landuse" v="harbour" />
		<tag k="name" v="Flatholmen havn" />
		<tag k="seamark:type" v="harbour" />
		<tag k="ssr:stedsnr" v="404677" />
	</node>
	<node id="-553543" lat="62.4422111146" lon="6.4764555622">
		<tag k="highway" v="path" />
		<tag k="name" v="Sætervegen" />
		<tag k="ssr:stedsnr" v="402941" />
	</node>
	<node id="-553519" lat="62.4681277811" lon="6.25757778485">
		<tag k="layer" v="-1" />
		<tag k="name" v="Gåseidvikundergangen" />
		<tag k="ssr:stedsnr" v="400481" />
		<tag k="tunnel" v="yes" />
	</node>
	<node id="-554030" lat="62.470725" lon="6.18167777501">
		<tag k="bridge" v="yes" />
		<tag k="layer" v="1" />
		<tag k="name" v="Sjøbanebroa" />
		<tag k="ssr:stedsnr" v="526037" />
	</node>
	<node id="-553517" lat="62.4715666667" lon="6.23416389671">
		<tag k="layer" v="-1" />
		<tag k="name" v="Sørnesundergangen" />
		<tag k="ssr:stedsnr" v="400050" />
		<tag k="tunnel" v="yes" />
	</node>
	<node id="-553997" lat="62.4703055554" lon="6.20899722175">
		<tag k="layer" v="-1" />
		<tag k="name" v="Hundsværundergangen" />
		<tag k="ssr:stedsnr" v="521469" />
		<tag k="tunnel" v="yes" />
	</node>
	<node id="-553996" lat="62.4380055591" lon="6.36085556098">
		<tag k="layer" v="-1" />
		<tag k="name" v="Østre Blindheimsundergangen" />
		<tag k="ssr:stedsnr" v="521451" />
		<tag k="tunnel" v="yes" />
	</node>
	<node id="-553995" lat="62.47846667" lon="6.42928611882">
		<tag k="bridge" v="yes" />
		<tag k="layer" v="1" />
		<tag k="name" v="Rødsetstrandbrua" />
		<tag k="ssr:stedsnr" v="521432" />
	</node>
	<node id="-553994" lat="62.4569972226" lon="6.36273333486">
		<tag k="layer" v="-1" />
		<tag k="name" v="Myrabakkundergangen" />
		<tag k="ssr:stedsnr" v="521041" />
		<tag k="tunnel" v="yes" />
	</node>
	<node id="-553993" lat="62.4634611114" lon="6.30780000398">
		<tag k="layer" v="-1" />
		<tag k="name" v="Snopenesundergangen" />
		<tag k="ssr:stedsnr" v="521039" />
		<tag k="tunnel" v="yes" />
	</node>
	<node id="-553989" lat="62.4634027784" lon="6.35634721812">
		<tag k="layer" v="-1" />
		<tag k="name" v="Moatunnelen" />
		<tag k="ssr:stedsnr" v="512322" />
		<tag k="tunnel" v="yes" />
	</node>
	<node id="-553988" lat="62.4444138882" lon="6.3602222128">
		<tag k="bridge" v="yes" />
		<tag k="layer" v="1" />
		<tag k="name" v="Bjørngjerdebrua" />
		<tag k="ssr:stedsnr" v="512320" />
	</node>
	<node id="-553987" lat="62.4433249977" lon="6.36214722671">
		<tag k="bridge" v="yes" />
		<tag k="layer" v="1" />
		<tag k="name" v="Blindheimsbrua" />
		<tag k="ssr:stedsnr" v="512314" />
	</node>
</osm>
