<?xml version="1.0" encoding="UTF-8"?>
<osm generator="osmapis" version="0.6">
	<node id="-553472" lat="62.4641805572" lon="6.31310833777">
		<tag k="amenity" v="hospital" />
		<tag k="name" v="Ålesund sjukehus" />
		<tag k="old_name" v="Fylkessjukehuset" />
		<tag k="ssr:stedsnr" v="341670" />
	</node>
	<node id="-553980" lat="62.5022000026" lon="6.31676111618">
		<tag k="name" v="Kleiva" />
		<tag k="place" v="locality" />
		<tag k="ssr:stedsnr" v="497136" />
	</node>
	<node id="-553979" lat="62.5087277735" lon="6.30123332886">
		<tag k="name" v="Rimane" />
		<tag k="place" v="locality" />
		<tag k="ssr:stedsnr" v="497135" />
	</node>
	<node id="-553975" lat="62.4654972215" lon="6.11406666276">
		<tag k="name" v="Skarbøvik" />
		<tag k="place" v="village" />
		<tag k="ssr:stedsnr" v="496948" />
	</node>
	<node id="-553971" lat="62.4969777764" lon="6.34185556162">
		<tag k="fixme" v="consider place=hamlet" />
		<tag k="name" v="Hagen" />
		<tag k="place" v="farm" />
		<tag k="ssr:stedsnr" v="496204" />
	</node>
	<node id="-553969" lat="62.4287305592" lon="6.40004165682">
		<tag k="alt_name" v="Hamnevika" />
		<tag k="name" v="Hamnevik" />
		<tag k="place" v="farm" />
		<tag k="ssr:stedsnr" v="496089" />
	</node>
	<node id="-553966" lat="62.4444077687" lon="6.29815805146">
		<tag k="fixme" v="consider place=hamlet" />
		<tag k="name" v="Humla" />
		<tag k="place" v="farm" />
		<tag k="ssr:stedsnr" v="496057" />
	</node>
	<node id="-553731" lat="62.4626333296" lon="6.30378333179">
		<tag k="fixme" v="consider place=suburb, village or hamlet" />
		<tag k="name" v="Åsestranda" />
		<tag k="place" v="quarter" />
		<tag k="ssr:stedsnr" v="98560" />
	</node>
	<node id="-553964" lat="62.4365134488" lon="6.47393588553">
		<tag k="alt_name" v="Reiten" />
		<tag k="fixme" v="consider place=hamlet" />
		<tag k="name" v="Reitane" />
		<tag k="place" v="farm" />
		<tag k="ssr:stedsnr" v="496040" />
	</node>
	<node id="-553962" lat="62.4707090694" lon="6.29038009046">
		<tag k="alt_name" v="Leirstad" />
		<tag k="fixme" v="consider place=hamlet" />
		<tag k="name" v="Lerstad" />
		<tag k="place" v="farm" />
		<tag k="ssr:stedsnr" v="496014" />
	</node>
	<node id="-553961" lat="62.467868037" lon="6.24920756391">
		<tag k="name" v="Gåseid" />
		<tag k="place" v="suburb" />
		<tag k="ssr:stedsnr" v="496013" />
	</node>
	<node id="-553448" lat="62.4705723262" lon="6.10968957238">
		<tag k="fixme" v="consider place=hamlet" />
		<tag k="name" v="Drevik" />
		<tag k="place" v="farm" />
		<tag k="ssr:stedsnr" v="314915" />
	</node>
	<node id="-553444" lat="62.4343138869" lon="6.35788888071">
		<tag k="fixme" v="consider place=hamlet" />
		<tag k="name" v="Vegsundet" />
		<tag k="place" v="village" />
		<tag k="ssr:stedsnr" v="314039" />
	</node>
	<node id="-553443" lat="62.465749996" lon="6.32641665764">
		<tag k="fixme" v="consider place=suburb, village or hamlet" />
		<tag k="name" v="Åse" />
		<tag k="place" v="quarter" />
		<tag k="ssr:stedsnr" v="314016" />
	</node>
	<node id="-553509" lat="62.442777087" lon="6.36764918063">
		<tag k="fixme" v="consider place=hamlet" />
		<tag k="name" v="Blindheim" />
		<tag k="place" v="farm" />
		<tag k="ssr:stedsnr" v="375047" />
	</node>
	<node id="-553440" lat="62.462823446" lon="6.35465379763">
		<tag k="alt_name" v="Nedregården" />
		<tag k="fixme" v="consider place=hamlet" />
		<tag k="name" v="Nergarden" />
		<tag k="place" v="farm" />
		<tag k="ssr:stedsnr" v="314004" />
	</node>
	<node id="-553951" lat="62.4714000032" lon="6.23928610353">
		<tag k="name" v="Store-Nørve" />
		<tag k="place" v="isolated_dwelling" />
		<tag k="ssr:stedsnr" v="481252" />
	</node>
	<node id="-553948" lat="62.463477779" lon="6.3295305548">
		<tag k="amenity" v="school" />
		<tag k="name" v="Åse skole" />
		<tag k="old_name" v="Åse Ungdomsskole" />
		<tag k="ssr:stedsnr" v="463659" />
	</node>
	<node id="-553431" lat="62.4636083335" lon="6.35918056227">
		<tag k="name" v="Nybø" />
		<tag k="place" v="isolated_dwelling" />
		<tag k="ssr:stedsnr" v="294982" />
	</node>
	<node id="-553942" lat="62.4715166635" lon="6.47326944423">
		<tag k="name" v="Vasstrand" />
		<tag k="place" v="farm" />
		<tag k="ssr:stedsnr" v="462604" />
	</node>
	<node id="-554451" lat="62.4644409451" lon="6.36496268253">
		<tag k="leisure" v="park" />
		<tag k="name" v="Kanalparken" />
		<tag k="ssr:stedsnr" v="972937" />
	</node>
	<node id="-553937" lat="62.4958305598" lon="6.21165000711">
		<tag k="name" v="Haugen" />
		<tag k="place" v="farm" />
		<tag k="ssr:stedsnr" v="462960" />
	</node>
	<node id="-554447" lat="62.4373499956" lon="6.4706555492">
		<tag k="name" v="Østrem" />
		<tag k="place" v="farm" />
		<tag k="ssr:stedsnr" v="969273" />
	</node>
	<node id="-554446" lat="62.475180147" lon="6.22841043564">
		<tag k="fixme" v="consider place=hamlet" />
		<tag k="name" v="Nørve" />
		<tag k="place" v="farm" />
		<tag k="ssr:stedsnr" v="968163" />
	</node>
	<node id="-553423" lat="62.4746805597" lon="6.15529721775">
		<tag k="name" v="Margit Johnsens plass" />
		<tag k="place" v="square" />
		<tag k="ssr:stedsnr" v="283074" />
	</node>
	<node id="-553418" lat="62.469158335" lon="6.26112777486">
		<tag k="fixme" v="consider place=hamlet" />
		<tag k="name" v="Gåseidneset" />
		<tag k="place" v="farm" />
		<tag k="ssr:stedsnr" v="281687" />
	</node>
	<node id="-553929" lat="62.4603676133" lon="6.36917084412">
		<tag k="amenity" v="school" />
		<tag k="name" v="Spjelkavik barneskole" />
		<tag k="old_name" v="Spjelkavik skole" />
		<tag k="ssr:stedsnr" v="462569" />
	</node>
	<node id="-553926" lat="62.4683888894" lon="6.18459722039">
		<tag k="amenity" v="school" />
		<tag k="name" v="Ålesund videregående skole, avd. Volsdalsberga" />
		<tag k="old_name" v="Ålesund maritime skoler" />
		<tag k="ssr:stedsnr" v="462544" />
	</node>
	<node id="-553406" lat="62.4563555581" lon="6.41518055875">
		<tag k="name" v="Gamlesætra" />
		<tag k="place" v="isolated_dwelling" />
		<tag k="ssr:stedsnr" v="280630" />
	</node>
	<node id="-553913" lat="62.4556194424" lon="6.51381111937">
		<tag k="historic" v="shieling" />
		<tag k="name" v="Østremssætra" />
		<tag k="place" v="locality" />
		<tag k="ssr:stedsnr" v="436044" />
	</node>
	<node id="-553912" lat="62.4622150264" lon="6.25598281932">
		<tag k="alt_name" v="Ratvik, ytre" />
		<tag k="fixme" v="consider place=hamlet" />
		<tag k="name" v="Ratvika" />
		<tag k="place" v="farm" />
		<tag k="ssr:stedsnr" v="436026" />
	</node>
	<node id="-553911" lat="62.4603944479" lon="6.1595833395">
		<tag k="name" v="Slinningen" />
		<tag k="place" v="suburb" />
		<tag k="ssr:stedsnr" v="435979" />
	</node>
	<node id="-553909" lat="62.4982017687" lon="6.38243111185">
		<tag k="fixme" v="consider place=hamlet" />
		<tag k="name" v="Årset" />
		<tag k="place" v="farm" />
		<tag k="ssr:stedsnr" v="435269" />
	</node>
	<node id="-553907" lat="62.4983947104" lon="6.35023972009">
		<tag k="fixme" v="consider place=hamlet" />
		<tag k="name" v="Bjørge" />
		<tag k="place" v="farm" />
		<tag k="ssr:stedsnr" v="435228" />
	</node>
	<node id="-554417" lat="62.4685222224" lon="6.37460278073">
		<tag k="amenity" v="school" />
		<tag k="name" v="Borgund videregående skole" />
		<tag k="old_name" v="Borgund Yrkesskole" />
		<tag k="ssr:stedsnr" v="948647" />
	</node>
	<node id="-553892" lat="62.4387055526" lon="6.34891388209">
		<tag k="name" v="Rabbenes" />
		<tag k="place" v="isolated_dwelling" />
		<tag k="ssr:stedsnr" v="416178" />
	</node>
	<node id="-553798" lat="62.4375965706" lon="6.34699327625">
		<tag k="alt_name" v="Vegsundrabben" />
		<tag k="fixme" v="consider place=hamlet" />
		<tag k="name" v="Rabben" />
		<tag k="place" v="farm" />
		<tag k="ssr:stedsnr" v="159956" />
	</node>
	<node id="-553883" lat="62.4437166686" lon="6.51718333249">
		<tag k="historic" v="shieling" />
		<tag k="name" v="Magerholmsætra" />
		<tag k="place" v="locality" />
		<tag k="ssr:stedsnr" v="254038" />
	</node>
	<node id="-554399" lat="62.5145833375" lon="6.45726944863">
		<tag k="fixme" v="consider place=hamlet" />
		<tag k="name" v="Taftasundet" />
		<tag k="place" v="village" />
		<tag k="ssr:stedsnr" v="922177" />
	</node>
	<node id="-554396" lat="62.5016757282" lon="6.23057053127">
		<tag k="fixme" v="consider place=hamlet" />
		<tag k="name" v="Hovseidet" />
		<tag k="place" v="farm" />
		<tag k="ssr:stedsnr" v="922134" />
	</node>
	<node id="-554395" lat="62.4756959058" lon="6.25349131995">
		<tag k="alt_name" v="Larsgarden" />
		<tag k="fixme" v="consider place=hamlet" />
		<tag k="name" v="Larsgården" />
		<tag k="place" v="farm" />
		<tag k="ssr:stedsnr" v="921241" />
	</node>
	<node id="-553882" lat="62.472566668" lon="6.34567776911">
		<tag k="name" v="Breivika" />
		<tag k="place" v="quarter" />
		<tag k="ssr:stedsnr" v="253259" />
	</node>
	<node id="-553880" lat="62.4959103064" lon="6.23853014243">
		<tag k="fixme" v="consider place=hamlet" />
		<tag k="name" v="Grimstad" />
		<tag k="place" v="farm" />
		<tag k="ssr:stedsnr" v="253223" />
	</node>
	<node id="-554391" lat="62.464794563" lon="6.40331658174">
		<tag k="fixme" v="consider place=hamlet" />
		<tag k="name" v="Litlestølen" />
		<tag k="place" v="farm" />
		<tag k="ssr:stedsnr" v="921033" />
	</node>
	<node id="-554390" lat="62.4716762018" lon="6.47570027459">
		<tag k="fixme" v="consider place=hamlet" />
		<tag k="name" v="Vasstranda" />
		<tag k="place" v="farm" />
		<tag k="ssr:stedsnr" v="921034" />
	</node>
	<node id="-554389" lat="62.4564222267" lon="6.42666111195">
		<tag k="name" v="Bigtonhytta" />
		<tag k="place" v="isolated_dwelling" />
		<tag k="ssr:stedsnr" v="921006" />
	</node>
	<node id="-553876" lat="62.4609694415" lon="6.32996666298">
		<tag k="name" v="Ura" />
		<tag k="place" v="isolated_dwelling" />
		<tag k="ssr:stedsnr" v="240218" />
	</node>
	<node id="-553454" lat="62.5113310068" lon="6.44620585283">
		<tag k="fixme" v="consider place=hamlet" />
		<tag k="name" v="Rot" />
		<tag k="place" v="farm" />
		<tag k="ssr:stedsnr" v="315178" />
	</node>
	<node id="-553871" lat="62.4381232668" lon="6.44489691835">
		<tag k="fixme" v="consider place=hamlet" />
		<tag k="name" v="Emblem" />
		<tag k="place" v="farm" />
		<tag k="ssr:stedsnr" v="234801" />
	</node>
	<node id="-553538" lat="62.4325812435" lon="6.43046886528">
		<tag k="fixme" v="consider place=hamlet" />
		<tag k="name" v="Emblemsvåg" />
		<tag k="place" v="farm" />
		<tag k="ssr:stedsnr" v="402642" />
	</node>
	<node id="-553861" lat="62.4417611105" lon="6.4266888931">
		<tag k="name" v="Høgda" />
		<tag k="place" v="isolated_dwelling" />
		<tag k="ssr:stedsnr" v="220971" />
	</node>
	<node id="-554357" lat="62.4417638879" lon="6.42670555755">
		<tag k="name" v="Ivar Aasen-hytta" />
		<tag k="place" v="isolated_dwelling" />
		<tag k="ssr:stedsnr" v="861033" />
	</node>
	<node id="-554350" lat="62.4370022799" lon="6.53326373161">
		<tag k="fixme" v="consider place=hamlet" />
		<tag k="name" v="Hesseberg" />
		<tag k="place" v="farm" />
		<tag k="ssr:stedsnr" v="860094" />
	</node>
	<node id="-554349" lat="62.427172221" lon="6.40761667292">
		<tag k="name" v="Skråvika" />
		<tag k="place" v="farm" />
		<tag k="ssr:stedsnr" v="860070" />
	</node>
	<node id="-554346" lat="62.434805555" lon="6.32007222085">
		<tag k="name" v="Inste Hanken" />
		<tag k="place" v="farm" />
		<tag k="ssr:stedsnr" v="847111" />
	</node>
	<node id="-553832" lat="62.4397194478" lon="6.5272555501">
		<tag k="historic" v="shieling" />
		<tag k="name" v="Hessebergsætra" />
		<tag k="place" v="locality" />
		<tag k="ssr:stedsnr" v="219653" />
	</node>
	<node id="-553829" lat="62.4377420349" lon="6.41672429313">
		<tag k="fixme" v="consider place=hamlet" />
		<tag k="name" v="Eikenosa" />
		<tag k="place" v="farm" />
		<tag k="ssr:stedsnr" v="202319" />
	</node>
	<node id="-553828" lat="62.4687666627" lon="6.24736944309">
		<tag k="name" v="Skuggen" />
		<tag k="place" v="hamlet" />
		<tag k="ssr:stedsnr" v="202315" />
	</node>
	<node id="-553826" lat="62.4997194485" lon="6.38381666903">
		<tag k="name" v="Årset" />
		<tag k="place" v="farm" />
		<tag k="ssr:stedsnr" v="194226" />
	</node>
	<node id="-554334" lat="62.4625638888" lon="6.11421388906">
		<tag k="alt_name" v="Osvåg" />
		<tag k="name" v="Osane" />
		<tag k="place" v="isolated_dwelling" />
		<tag k="ssr:stedsnr" v="828269" />
	</node>
	<node id="-554332" lat="62.4328555547" lon="6.46510832886">
		<tag k="name" v="Midthaug" />
		<tag k="place" v="farm" />
		<tag k="ssr:stedsnr" v="827997" />
	</node>
	<node id="-553818" lat="62.492463486" lon="6.29025786814">
		<tag k="alt_name" v="Myklebost" />
		<tag k="fixme" v="consider place=hamlet" />
		<tag k="name" v="Myklebust" />
		<tag k="place" v="farm" />
		<tag k="ssr:stedsnr" v="192216" />
	</node>
	<node id="-553817" lat="62.436425003" lon="6.46631388983">
		<tag k="name" v="Østrem" />
		<tag k="place" v="farm" />
		<tag k="ssr:stedsnr" v="181274" />
	</node>
	<node id="-553816" lat="62.4383583363" lon="6.47134444584">
		<tag k="name" v="Østrem" />
		<tag k="place" v="farm" />
		<tag k="ssr:stedsnr" v="181270" />
	</node>
	<node id="-553810" lat="62.469291667" lon="6.12297778507">
		<tag k="name" v="Vasshaug" />
		<tag k="place" v="quarter" />
		<tag k="ssr:stedsnr" v="178019" />
	</node>
	<node id="-554296" lat="62.5060288075" lon="6.41921624963">
		<tag k="fixme" v="consider place=hamlet" />
		<tag k="name" v="Stokkereitane" />
		<tag k="place" v="farm" />
		<tag k="ssr:stedsnr" v="801139" />
	</node>
	<node id="-553806" lat="62.4791888896" lon="6.18804166914">
		<tag k="name" v="Siem" />
		<tag k="place" v="isolated_dwelling" />
		<tag k="ssr:stedsnr" v="165222" />
	</node>
	<node id="-554316" lat="62.4713111076" lon="6.19025832896">
		<tag k="amenity" v="school" />
		<tag k="name" v="Volsdalen skole" />
		<tag k="old_name" v="Volsdalens skole" />
		<tag k="ssr:stedsnr" v="827635" />
	</node>
	<node id="-553803" lat="62.4726750031" lon="6.2336583347">
		<tag k="amenity" v="school" />
		<tag k="name" v="Fagskolen i Ålesund" />
		<tag k="ssr:stedsnr" v="161196" />
	</node>
	<node id="-553612" lat="62.4670466086" lon="6.32589083371">
		<tag k="fixme" v="consider place=hamlet" />
		<tag k="name" v="Åse" />
		<tag k="place" v="farm" />
		<tag k="ssr:stedsnr" v="982267" />
	</node>
	<node id="-554310" lat="62.5087638878" lon="6.42718888241">
		<tag k="name" v="Brendehaug" />
		<tag k="place" v="farm" />
		<tag k="ssr:stedsnr" v="827604" />
	</node>
	<node id="-554305" lat="62.4916292615" lon="6.27677155417">
		<tag k="fixme" v="consider place=hamlet" />
		<tag k="name" v="Kvalstein" />
		<tag k="place" v="farm" />
		<tag k="ssr:stedsnr" v="827558" />
	</node>
	<node id="-554300" lat="62.4570166701" lon="6.11880555551">
		<tag k="name" v="Hessa" />
		<tag k="place" v="suburb" />
		<tag k="ssr:stedsnr" v="814166" />
	</node>
	<node id="-554298" lat="62.4349638876" lon="6.37610834077">
		<tag k="fixme" v="consider place=suburb, village or hamlet" />
		<tag k="name" v="Myrland" />
		<tag k="place" v="quarter" />
		<tag k="ssr:stedsnr" v="809346" />
	</node>
	<node id="-553784" lat="62.5145980235" lon="6.45453601805">
		<tag k="fixme" v="consider place=hamlet" />
		<tag k="name" v="Taftesund" />
		<tag k="place" v="farm" />
		<tag k="ssr:stedsnr" v="159624" />
	</node>
	<node id="-554290" lat="62.4725541534" lon="6.3888672177">
		<tag k="fixme" v="consider place=hamlet" />
		<tag k="name" v="Hatlen" />
		<tag k="place" v="farm" />
		<tag k="ssr:stedsnr" v="800022" />
	</node>
	<node id="-554289" lat="62.4588444463" lon="6.47321943711">
		<tag k="historic" v="shieling" />
		<tag k="name" v="Gamle Emblemssætra" />
		<tag k="place" v="locality" />
		<tag k="ssr:stedsnr" v="800006" />
	</node>
	<node id="-553608" lat="62.4653186123" lon="6.23505974745">
		<tag k="fixme" v="consider place=hamlet" />
		<tag k="name" v="Borgund" />
		<tag k="place" v="farm" />
		<tag k="ssr:stedsnr" v="982260" />
	</node>
	<node id="-553773" lat="62.4772249999" lon="6.37388055845">
		<tag k="fixme" v="consider place=suburb, village or hamlet" />
		<tag k="name" v="Olsvika" />
		<tag k="place" v="quarter" />
		<tag k="ssr:stedsnr" v="146125" />
	</node>
	<node id="-554284" lat="62.4966865072" lon="6.24952759796">
		<tag k="alt_name" v="Grytebost" />
		<tag k="fixme" v="consider place=hamlet" />
		<tag k="name" v="Grytebust" />
		<tag k="place" v="farm" />
		<tag k="ssr:stedsnr" v="799200" />
	</node>
	<node id="-553769" lat="62.462816665" lon="6.33733055006">
		<tag k="fixme" v="consider place=suburb, village or hamlet" />
		<tag k="loc_name" v="Furumyra" />
		<tag k="name" v="Furmyra" />
		<tag k="place" v="quarter" />
		<tag k="ssr:stedsnr" v="132005" />
	</node>
	<node id="-553762" lat="62.4713453409" lon="6.20558033243">
		<tag k="fixme" v="consider place=hamlet" />
		<tag k="name" v="Litle Nørve" />
		<tag k="place" v="farm" />
		<tag k="ssr:stedsnr" v="117280" />
	</node>
	<node id="-553761" lat="62.4596499976" lon="6.25507500074">
		<tag k="name" v="Bogneset" />
		<tag k="place" v="isolated_dwelling" />
		<tag k="ssr:stedsnr" v="117140" />
	</node>
	<node id="-553760" lat="62.463519448" lon="6.25361388176">
		<tag k="fixme" v="consider natural=beach + surface=sand" />
		<tag k="leisure" v="swimming_area" />
		<tag k="name" v="Prinsen friluftsbad" />
		<tag k="place" v="locality" />
		<tag k="ssr:stedsnr" v="117138" />
	</node>
	<node id="-554269" lat="62.4600055534" lon="6.37330833362">
		<tag k="name" v="Hjellen" />
		<tag k="place" v="farm" />
		<tag k="ssr:stedsnr" v="766945" />
	</node>
	<node id="-554265" lat="62.4681637376" lon="6.43990087059">
		<tag k="historic" v="shieling" />
		<tag k="name" v="Prestesætra" />
		<tag k="place" v="locality" />
		<tag k="ssr:stedsnr" v="766630" />
	</node>
	<node id="-553603" lat="62.4727324277" lon="6.345544052">
		<tag k="fixme" v="consider place=hamlet" />
		<tag k="name" v="Breivika" />
		<tag k="place" v="farm" />
		<tag k="ssr:stedsnr" v="982253" />
	</node>
	<node id="-553743" lat="62.4451555512" lon="6.40592499429">
		<tag k="historic" v="shieling" />
		<tag k="name" v="Rabbesætra" />
		<tag k="place" v="locality" />
		<tag k="ssr:stedsnr" v="98626" />
	</node>
	<node id="-554252" lat="62.5062372145" lon="6.32030817316">
		<tag k="fixme" v="consider place=hamlet" />
		<tag k="name" v="Øvre Volstad" />
		<tag k="place" v="farm" />
		<tag k="ssr:stedsnr" v="766541" />
	</node>
	<node id="-554244" lat="62.4517725642" lon="6.34856897418">
		<tag k="alt_name" v="Rimvika" />
		<tag k="fixme" v="consider place=hamlet" />
		<tag k="name" v="Remvika" />
		<tag k="place" v="farm" />
		<tag k="ssr:stedsnr" v="739053" />
	</node>
	<node id="-553430" lat="62.5082722254" lon="6.2365944349">
		<tag k="name" v="Bunes" />
		<tag k="place" v="farm" />
		<tag k="ssr:stedsnr" v="294678" />
	</node>
	<node id="-554242" lat="62.4719944476" lon="6.23977499355">
		<tag k="loc_name" v="Nørvasund" />
		<tag k="name" v="Nørvasundet" />
		<tag k="place" v="suburb" />
		<tag k="ssr:stedsnr" v="739013" />
	</node>
	<node id="-554241" lat="62.4564416663" lon="6.10113056493">
		<tag k="name" v="Sævollen" />
		<tag k="place" v="farm" />
		<tag k="ssr:stedsnr" v="738962" />
	</node>
	<node id="-553728" lat="62.4346815665" lon="6.30721247938">
		<tag k="alt_name" v="Ytste Hanken" />
		<tag k="fixme" v="consider place=hamlet" />
		<tag k="name" v="Hanken" />
		<tag k="place" v="farm" />
		<tag k="ssr:stedsnr" v="98032" />
	</node>
	<node id="-553600" lat="62.4553640609" lon="6.35423567398">
		<tag k="name" v="Spjelkaviknes" />
		<tag k="place" v="locality" />
		<tag k="ssr:stedsnr" v="982248" />
	</node>
	<node id="-553724" lat="62.4345055529" lon="6.35030833011">
		<tag k="amenity" v="nursing_home" />
		<tag k="name" v="Vegsund psykiatriske senter" />
		<tag k="old_name" v="Vegsund Pleieheim" />
		<tag k="ssr:stedsnr" v="97638" />
	</node>
	<node id="-553514" lat="62.5150138872" lon="6.29986666149">
		<tag k="alt_name" v="Myra" />
		<tag k="name" v="Lorgja" />
		<tag k="place" v="farm" />
		<tag k="ssr:stedsnr" v="375147" />
	</node>
	<node id="-553722" lat="62.4366388866" lon="6.35076388823">
		<tag k="name" v="Lilleberget" />
		<tag k="place" v="farm" />
		<tag k="ssr:stedsnr" v="92187" />
	</node>
	<node id="-554233" lat="62.4232206451" lon="6.39775225327">
		<tag k="alt_name" v="Flisnes" />
		<tag k="fixme" v="consider place=hamlet" />
		<tag k="name" v="Flisneset" />
		<tag k="place" v="farm" />
		<tag k="ssr:stedsnr" v="738074" />
	</node>
	<node id="-553717" lat="62.5009305574" lon="6.23647777217">
		<tag k="name" v="Botnen" />
		<tag k="place" v="farm" />
		<tag k="ssr:stedsnr" v="72124" />
	</node>
	<node id="-554228" lat="62.4525888906" lon="6.35966944892">
		<tag k="name" v="Myrvoll" />
		<tag k="place" v="isolated_dwelling" />
		<tag k="ssr:stedsnr" v="726096" />
	</node>
	<node id="-553715" lat="62.4361638928" lon="6.43598332402">
		<tag k="name" v="Emblem" />
		<tag k="place" v="hamlet" />
		<tag k="ssr:stedsnr" v="72041" />
	</node>
	<node id="-553711" lat="62.4942146478" lon="6.2699865563">
		<tag k="fixme" v="consider place=hamlet" />
		<tag k="name" v="Slotsvik" />
		<tag k="place" v="farm" />
		<tag k="ssr:stedsnr" v="71220" />
	</node>
	<node id="-553709" lat="62.4999694422" lon="6.38269166441">
		<tag k="name" v="Store Årset" />
		<tag k="place" v="farm" />
		<tag k="ssr:stedsnr" v="60298" />
	</node>
	<node id="-553708" lat="62.4748971663" lon="6.23793492625">
		<tag k="fixme" v="consider place=hamlet" />
		<tag k="name" v="Nørvegjerdet" />
		<tag k="place" v="farm" />
		<tag k="ssr:stedsnr" v="58197" />
	</node>
	<node id="-553707" lat="62.4656831264" lon="6.10684540101">
		<tag k="fixme" v="consider place=hamlet" />
		<tag k="name" v="Skarbø" />
		<tag k="place" v="farm" />
		<tag k="ssr:stedsnr" v="56020" />
	</node>
	<node id="-553703" lat="62.4423257185" lon="6.35400623964">
		<tag k="fixme" v="consider place=hamlet" />
		<tag k="loc_name" v="Blindheimsneset" />
		<tag k="name" v="Blindheimsnes" />
		<tag k="place" v="farm" />
		<tag k="ssr:stedsnr" v="50992" />
	</node>
	<node id="-554210" lat="62.477833335" lon="6.44055278146">
		<tag k="name" v="Reiten" />
		<tag k="place" v="farm" />
		<tag k="ssr:stedsnr" v="705973" />
	</node>
	<node id="-553688" lat="62.4464944464" lon="6.40284999519">
		<tag k="name" v="Blindheimsætra" />
		<tag k="place" v="isolated_dwelling" />
		<tag k="ssr:stedsnr" v="38639" />
	</node>
	<node id="-554208" lat="62.4387916672" lon="6.51340834151">
		<tag k="name" v="Plassen" />
		<tag k="place" v="isolated_dwelling" />
		<tag k="ssr:stedsnr" v="705943" />
	</node>
	<node id="-554207" lat="62.5143361146" lon="6.29169999067">
		<tag k="name" v="Lunberg" />
		<tag k="place" v="farm" />
		<tag k="ssr:stedsnr" v="705938" />
	</node>
	<node id="-553693" lat="62.4319361124" lon="6.49333888801">
		<tag k="name" v="Magerholmvik" />
		<tag k="place" v="farm" />
		<tag k="ssr:stedsnr" v="38700" />
	</node>
	<node id="-553690" lat="62.4747277747" lon="6.23907777949">
		<tag k="amenity" v="school" />
		<tag k="name" v="Larsgården skole" />
		<tag k="ssr:stedsnr" v="38676" />
	</node>
	<node id="-553935" lat="62.4407083361" lon="6.35662223151">
		<tag k="fixme" v="consider place=hamlet" />
		<tag k="name" v="Skytterholm" />
		<tag k="place" v="farm" />
		<tag k="ssr:stedsnr" v="462005" />
	</node>
	<node id="-554200" lat="62.4382554634" lon="6.44310701438">
		<tag k="name" v="Skillingen" />
		<tag k="place" v="farm" />
		<tag k="ssr:stedsnr" v="705674" />
	</node>
	<node id="-554197" lat="62.475938889" lon="6.18400554738">
		<tag k="leisure" v="pitch" />
		<tag k="name" v="Aksla stadion" />
		<tag k="ssr:stedsnr" v="705656" />
	</node>
	<node id="-553680" lat="62.5018722243" lon="6.23509721877">
		<tag k="name" v="Straumsvika" />
		<tag k="place" v="farm" />
		<tag k="ssr:stedsnr" v="38560" />
	</node>
	<node id="-553677" lat="62.4378305541" lon="6.35774999335">
		<tag k="amenity" v="school" />
		<tag k="name" v="Blindheim barneskole" />
		<tag k="old_name" v="Blindheim skole" />
		<tag k="ssr:stedsnr" v="36645" />
	</node>
	<node id="-553671" lat="62.4328640381" lon="6.40181796008">
		<tag k="fixme" v="consider place=hamlet" />
		<tag k="name" v="Hatleholen" />
		<tag k="place" v="farm" />
		<tag k="ssr:stedsnr" v="28541" />
	</node>
	<node id="-553670" lat="62.4654611071" lon="6.3470472306">
		<tag k="fixme" v="consider place=suburb, village or hamlet" />
		<tag k="name" v="Moa" />
		<tag k="place" v="quarter" />
		<tag k="ssr:stedsnr" v="28538" />
	</node>
	<node id="-553669" lat="62.4611361129" lon="6.28004166489">
		<tag k="name" v="Hatlane" />
		<tag k="place" v="suburb" />
		<tag k="ssr:stedsnr" v="27979" />
	</node>
	<node id="-553668" lat="62.5139809668" lon="6.30895192754">
		<tag k="fixme" v="consider place=hamlet" />
		<tag k="loc_name" v="Lorga" />
		<tag k="name" v="Lorgja" />
		<tag k="place" v="farm" />
		<tag k="ssr:stedsnr" v="25886" />
	</node>
	<node id="-553667" lat="62.4945388849" lon="6.32888888515">
		<tag k="fixme" v="consider place=suburb, village or hamlet" />
		<tag k="name" v="Vik" />
		<tag k="place" v="quarter" />
		<tag k="ssr:stedsnr" v="25139" />
	</node>
	<node id="-554178" lat="62.4918527803" lon="6.19203332917">
		<tag k="name" v="Hovset" />
		<tag k="place" v="farm" />
		<tag k="ssr:stedsnr" v="678978" />
	</node>
	<node id="-554177" lat="62.4580556305" lon="6.1187795322">
		<tag k="fixme" v="consider place=hamlet" />
		<tag k="name" v="Hessa" />
		<tag k="place" v="farm" />
		<tag k="ssr:stedsnr" v="678931" />
	</node>
	<node id="-554176" lat="62.4950753606" lon="6.30621537047">
		<tag k="fixme" v="consider place=hamlet" />
		<tag k="name" v="Sperre" />
		<tag k="place" v="farm" />
		<tag k="ssr:stedsnr" v="678207" />
	</node>
	<node id="-554175" lat="62.4955496093" lon="6.32331020468">
		<tag k="name" v="Vik" />
		<tag k="place" v="farm" />
		<tag k="ssr:stedsnr" v="678201" />
	</node>
	<node id="-554174" lat="62.4384238196" lon="6.40404743491">
		<tag k="fixme" v="consider place=hamlet" />
		<tag k="name" v="Øygarden" />
		<tag k="place" v="farm" />
		<tag k="ssr:stedsnr" v="678046" />
	</node>
	<node id="-554173" lat="62.4702749983" lon="6.36801051019">
		<tag k="alt_name" v="Holen;Hol" />
		<tag k="name" v="Ytterholen" />
		<tag k="place" v="farm" />
		<tag k="ssr:stedsnr" v="678018" />
	</node>
	<node id="-554172" lat="62.4608354397" lon="6.26770321111">
		<tag k="alt_name" v="Ytre Hatlen" />
		<tag k="name" v="Ytre Hatlane" />
		<tag k="place" v="hamlet" />
		<tag k="ssr:stedsnr" v="678009" />
	</node>
	<node id="-554171" lat="62.4602750028" lon="6.36199723027">
		<tag k="name" v="Spjelkavik" />
		<tag k="place" v="village" />
		<tag k="ssr:stedsnr" v="678008" />
	</node>
	<node id="-553658" lat="62.4408786081" lon="6.3156296099">
		<tag k="fixme" v="consider place=hamlet" />
		<tag k="name" v="Tørla" />
		<tag k="place" v="farm" />
		<tag k="ssr:stedsnr" v="11051" />
	</node>
	<node id="-553657" lat="62.4503805519" lon="6.44025278426">
		<tag k="historic" v="shieling" />
		<tag k="name" v="Eikenossætra" />
		<tag k="place" v="locality" />
		<tag k="ssr:stedsnr" v="11049" />
	</node>
	<node id="-554168" lat="62.4724749967" lon="6.23542222374">
		<tag k="name" v="Store-Nørve" />
		<tag k="place" v="isolated_dwelling" />
		<tag k="ssr:stedsnr" v="665170" />
	</node>
	<node id="-554167" lat="62.4811305536" lon="6.37381945029">
		<tag k="name" v="Jørgengården" />
		<tag k="place" v="farm" />
		<tag k="ssr:stedsnr" v="663495" />
	</node>
	<node id="-553648" lat="62.4739832867" lon="6.15681386235">
		<tag k="name" v="Per Bolstads plass" />
		<tag k="place" v="square" />
		<tag k="ssr:stedsnr" v="991321" />
	</node>
	<node id="-553647" lat="62.4707538148" lon="6.15128518886">
		<tag k="name" v="Skipperplassen" />
		<tag k="place" v="square" />
		<tag k="ssr:stedsnr" v="991312" />
	</node>
	<node id="-553646" lat="62.4752311743" lon="6.15633154295">
		<tag k="name" v="Familien Steinfelds plass" />
		<tag k="place" v="square" />
		<tag k="ssr:stedsnr" v="991311" />
	</node>
	<node id="-553645" lat="62.4718777212" lon="6.15177964334">
		<tag k="name" v="Aksel Holms plass" />
		<tag k="place" v="square" />
		<tag k="ssr:stedsnr" v="991310" />
	</node>
	<node id="-553644" lat="62.4629939096" lon="6.36418110195">
		<tag k="leisure" v="park" />
		<tag k="name" v="Mittetparken" />
		<tag k="ssr:stedsnr" v="991309" />
	</node>
	<node id="-553643" lat="62.470660468" lon="6.15331228973">
		<tag k="name" v="Karl Eriksens plass" />
		<tag k="place" v="square" />
		<tag k="ssr:stedsnr" v="991308" />
	</node>
	<node id="-553642" lat="62.4714648988" lon="6.15884406694">
		<tag k="name" v="Harald Torsviks plass" />
		<tag k="place" v="square" />
		<tag k="ssr:stedsnr" v="991307" />
	</node>
	<node id="-553641" lat="62.4711943009" lon="6.16011178389">
		<tag k="name" v="Kiperviktorget" />
		<tag k="place" v="square" />
		<tag k="ssr:stedsnr" v="991306" />
	</node>
	<node id="-553638" lat="62.4710180152" lon="6.15234673903">
		<tag k="name" v="Lorkenestorget" />
		<tag k="place" v="square" />
		<tag k="ssr:stedsnr" v="991302" />
	</node>
	<node id="-553636" lat="62.4711580252" lon="6.15128546602">
		<tag k="name" v="Apotekertorget" />
		<tag k="place" v="square" />
		<tag k="ssr:stedsnr" v="991301" />
	</node>
	<node id="-553635" lat="62.472281127" lon="6.14120324488">
		<tag k="name" v="Statsråd Daaes plass" />
		<tag k="place" v="square" />
		<tag k="ssr:stedsnr" v="991300" />
	</node>
	<node id="-554146" lat="62.4336027794" lon="6.4995222276">
		<tag k="name" v="Paraten" />
		<tag k="place" v="farm" />
		<tag k="ssr:stedsnr" v="644956" />
	</node>
	<node id="-553633" lat="62.4696908357" lon="6.12617905148">
		<tag k="name" v="Olav Tryggvasons plass" />
		<tag k="place" v="square" />
		<tag k="ssr:stedsnr" v="991298" />
	</node>
	<node id="-553632" lat="62.4722383214" lon="6.15429881766">
		<tag k="name" v="Dronning Sonjas plass" />
		<tag k="place" v="square" />
		<tag k="ssr:stedsnr" v="991225" />
	</node>
	<node id="-553631" lat="62.4710669691" lon="6.15471948833">
		<tag k="name" v="Joachim H. Rønnebergs plass" />
		<tag k="place" v="square" />
		<tag k="ssr:stedsnr" v="990823" />
	</node>
	<node id="-553629" lat="62.4997067837" lon="6.21572702062">
		<tag k="name" v="Hovlia" />
		<tag k="place" v="quarter" />
		<tag k="ssr:stedsnr" v="987300" />
	</node>
	<node id="-553627" lat="62.4942928777" lon="6.34812453685">
		<tag k="fixme" v="consider place=hamlet" />
		<tag k="name" v="Bjørgeholmen" />
		<tag k="place" v="farm" />
		<tag k="ssr:stedsnr" v="982376" />
	</node>
	<node id="-553626" lat="62.4942406861" lon="6.32718573686">
		<tag k="fixme" v="consider place=hamlet" />
		<tag k="name" v="Vik" />
		<tag k="place" v="farm" />
		<tag k="ssr:stedsnr" v="982375" />
	</node>
	<node id="-553625" lat="62.4808578411" lon="6.27719326712">
		<tag k="fixme" v="consider place=hamlet" />
		<tag k="name" v="Svinøya" />
		<tag k="place" v="farm" />
		<tag k="ssr:stedsnr" v="982374" />
	</node>
	<node id="-553624" lat="62.4873256164" lon="6.34470948355">
		<tag k="fixme" v="consider place=hamlet" />
		<tag k="name" v="Langøya" />
		<tag k="place" v="farm" />
		<tag k="ssr:stedsnr" v="982372" />
	</node>
	<node id="-553623" lat="62.4832788688" lon="6.30670973125">
		<tag k="fixme" v="consider place=hamlet" />
		<tag k="name" v="Litlekalvøya" />
		<tag k="place" v="farm" />
		<tag k="ssr:stedsnr" v="982371" />
	</node>
	<node id="-553622" lat="62.4640065458" lon="6.19941978388">
		<tag k="name" v="Tyskholmen " />
		<tag k="place" v="locality" />
		<tag k="ssr:stedsnr" v="982362" />
	</node>
	<node id="-554130" lat="62.4721055586" lon="6.23541943517">
		<tag k="alt_name" v="Høgskolen i Ålesund" />
		<tag k="amenity" v="university" />
		<tag k="name" v="NTNU i Ålesund" />
		<tag k="old_name" v="Møre og Romsdal tekniske skole" />
		<tag k="ssr:stedsnr" v="644605" />
	</node>
	<node id="-553617" lat="62.4695553778" lon="6.11369243015">
		<tag k="name" v="Skarbøvik" />
		<tag k="place" v="locality" />
		<tag k="ssr:stedsnr" v="982355" />
	</node>
	<node id="-553616" lat="62.462575813" lon="6.16473223661">
		<tag k="fixme" v="consider place=hamlet" />
		<tag k="name" v="Slinningen" />
		<tag k="place" v="farm" />
		<tag k="ssr:stedsnr" v="982276" />
	</node>
	<node id="-553496" lat="62.4739388869" lon="6.18869165875">
		<tag k="name" v="Fjelltun" />
		<tag k="place" v="isolated_dwelling" />
		<tag k="ssr:stedsnr" v="359209" />
	</node>
	<node id="-553614" lat="62.4464720736" lon="6.26932483341">
		<tag k="fixme" v="consider place=hamlet" />
		<tag k="name" v="Kalven" />
		<tag k="place" v="farm" />
		<tag k="ssr:stedsnr" v="982273" />
	</node>
	<node id="-553613" lat="62.4611460403" lon="6.33910519072">
		<tag k="fixme" v="consider place=hamlet" />
		<tag k="name" v="Furmyr" />
		<tag k="place" v="farm" />
		<tag k="ssr:stedsnr" v="982271" />
	</node>
	<node id="-553634" lat="62.4727221849" lon="6.15662855149">
		<tag k="name" v="St Olavs plass" />
		<tag k="place" v="square" />
		<tag k="ssr:stedsnr" v="991299" />
	</node>
	<node id="-553611" lat="62.4612698164" lon="6.28820103827">
		<tag k="name" v="Hatlevik" />
		<tag k="place" v="locality" />
		<tag k="ssr:stedsnr" v="982265" />
	</node>
	<node id="-553610" lat="62.459192868" lon="6.2738410094">
		<tag k="name" v="Hatlen" />
		<tag k="place" v="hamlet" />
		<tag k="ssr:stedsnr" v="982263" />
	</node>
	<node id="-553609" lat="62.4646989645" lon="6.25237844923">
		<tag k="fixme" v="consider place=hamlet" />
		<tag k="name" v="Grønvika" />
		<tag k="place" v="farm" />
		<tag k="ssr:stedsnr" v="982262" />
	</node>
	<node id="-554120" lat="62.5107416635" lon="6.25159999316">
		<tag k="name" v="Nordvika" />
		<tag k="place" v="farm" />
		<tag k="ssr:stedsnr" v="618150" />
	</node>
	<node id="-553607" lat="62.4685699902" lon="6.24345395423">
		<tag k="fixme" v="consider place=hamlet" />
		<tag k="name" v="Skuggen" />
		<tag k="place" v="farm" />
		<tag k="ssr:stedsnr" v="982258" />
	</node>
	<node id="-553606" lat="62.4692937159" lon="6.24476896047">
		<tag k="fixme" v="consider place=hamlet" />
		<tag k="name" v="Skuggeli" />
		<tag k="place" v="farm" />
		<tag k="ssr:stedsnr" v="982256" />
	</node>
	<node id="-553605" lat="62.467750493" lon="6.25219264346">
		<tag k="fixme" v="consider place=hamlet" />
		<tag k="name" v="Gåseid" />
		<tag k="place" v="farm" />
		<tag k="ssr:stedsnr" v="982255" />
	</node>
	<node id="-553604" lat="62.4720295715" lon="6.31656142315">
		<tag k="fixme" v="consider place=hamlet" />
		<tag k="name" v="Nakken" />
		<tag k="place" v="farm" />
		<tag k="ssr:stedsnr" v="982254" />
	</node>
	<node id="-554115" lat="62.475478725" lon="6.40811124992">
		<tag k="alt_name" v="Reiten" />
		<tag k="fixme" v="consider place=hamlet" />
		<tag k="name" v="Reitane" />
		<tag k="place" v="farm" />
		<tag k="ssr:stedsnr" v="617253" />
	</node>
	<node id="-553602" lat="62.4715508923" lon="6.37813168568">
		<tag k="fixme" v="consider place=hamlet" />
		<tag k="name" v="Holen" />
		<tag k="place" v="farm" />
		<tag k="ssr:stedsnr" v="982251" />
	</node>
	<node id="-553601" lat="62.4563773866" lon="6.36321535872">
		<tag k="fixme" v="consider place=hamlet" />
		<tag k="name" v="Spjelkavik" />
		<tag k="place" v="farm" />
		<tag k="ssr:stedsnr" v="982250" />
	</node>
	<node id="-554112" lat="62.4373535208" lon="6.46735042951">
		<tag k="fixme" v="consider place=hamlet" />
		<tag k="name" v="Østrem" />
		<tag k="place" v="farm" />
		<tag k="ssr:stedsnr" v="617101" />
	</node>
	<node id="-554111" lat="62.4343670436" lon="6.4720041116">
		<tag k="fixme" v="consider place=hamlet" />
		<tag k="name" v="Aksla" />
		<tag k="place" v="farm" />
		<tag k="ssr:stedsnr" v="617098" />
	</node>
	<node id="-554110" lat="62.4325815553" lon="6.50254070801">
		<tag k="name" v="Magerholm" />
		<tag k="place" v="hamlet" />
		<tag k="ssr:stedsnr" v="617084" />
	</node>
	<node id="-553597" lat="62.4189577538" lon="6.37618696796">
		<tag k="alt_name" v="Flisholm" />
		<tag k="name" v="Flisholmen" />
		<tag k="place" v="locality" />
		<tag k="ssr:stedsnr" v="982241" />
	</node>
	<node id="-554108" lat="62.4730479706" lon="6.40144977903">
		<tag k="fixme" v="consider place=hamlet" />
		<tag k="name" v="Rødset" />
		<tag k="place" v="farm" />
		<tag k="ssr:stedsnr" v="617018" />
	</node>
	<node id="-553595" lat="62.4335759965" lon="6.50382135401">
		<tag k="fixme" v="consider place=hamlet" />
		<tag k="name" v="Magerholm" />
		<tag k="place" v="farm" />
		<tag k="ssr:stedsnr" v="982234" />
	</node>
	<node id="-554104" lat="62.4376083345" lon="6.46960555001">
		<tag k="name" v="Østrem" />
		<tag k="place" v="farm" />
		<tag k="ssr:stedsnr" v="605303" />
	</node>
	<node id="-554102" lat="62.4737083319" lon="6.16099721529">
		<tag k="leisure" v="park" />
		<tag k="name" v="Byparken" />
		<tag k="ssr:stedsnr" v="602198" />
	</node>
	<node id="-553662" lat="62.5035049105" lon="6.40223702713">
		<tag k="fixme" v="consider place=hamlet" />
		<tag k="name" v="Stokke" />
		<tag k="place" v="farm" />
		<tag k="ssr:stedsnr" v="12153" />
	</node>
	<node id="-553586" lat="62.469133332" lon="6.11224167326">
		<tag k="name" v="Steinvåg" />
		<tag k="place" v="isolated_dwelling" />
		<tag k="ssr:stedsnr" v="888254" />
	</node>
	<node id="-553599" lat="62.4471230696" lon="6.35570757933">
		<tag k="fixme" v="consider place=hamlet" />
		<tag k="name" v="Breivika" />
		<tag k="place" v="farm" />
		<tag k="ssr:stedsnr" v="982246" />
	</node>
	<node id="-553581" lat="62.4741416684" lon="6.22790554695">
		<tag k="amenity" v="school" />
		<tag k="name" v="Fagerlia" />
		<tag k="ssr:stedsnr" v="887981" />
	</node>
	<node id="-554084" lat="62.4613972199" lon="6.16106389717">
		<tag k="building" v="industrial" />
		<tag k="name" v="Remane" />
		<tag k="ssr:stedsnr" v="583969" />
	</node>
	<node id="-553659" lat="62.4976374237" lon="6.20760711086">
		<tag k="fixme" v="consider place=hamlet" />
		<tag k="name" v="Hov" />
		<tag k="place" v="farm" />
		<tag k="ssr:stedsnr" v="11985" />
	</node>
	<node id="-553568" lat="62.4311138928" lon="6.43228610565">
		<tag k="name" v="Osehaugen" />
		<tag k="place" v="farm" />
		<tag k="ssr:stedsnr" v="887609" />
	</node>
	<node id="-554077" lat="62.4492611092" lon="6.46314166301">
		<tag k="historic" v="shieling" />
		<tag k="name" v="Auresætra" />
		<tag k="place" v="locality" />
		<tag k="ssr:stedsnr" v="583595" />
	</node>
	<node id="-554170" lat="62.4580916139" lon="6.36839807538">
		<tag k="fixme" v="consider place=hamlet" />
		<tag k="name" v="Gjerdet" />
		<tag k="place" v="farm" />
		<tag k="ssr:stedsnr" v="678007" />
	</node>
	<node id="-553562" lat="62.4743836518" lon="6.36411262635">
		<tag k="fixme" v="consider place=hamlet" />
		<tag k="name" v="Olsvikfeta" />
		<tag k="place" v="farm" />
		<tag k="ssr:stedsnr" v="887581" />
	</node>
	<node id="-554072" lat="62.4771361118" lon="6.41462222569">
		<tag k="name" v="Reitegjerdet" />
		<tag k="place" v="farm" />
		<tag k="ssr:stedsnr" v="583572" />
	</node>
	<node id="-553401" lat="62.4386972225" lon="6.3497472262">
		<tag k="name" v="Vegsundrabben" />
		<tag k="place" v="farm" />
		<tag k="ssr:stedsnr" v="280565" />
	</node>
	<node id="-553556" lat="62.4714222258" lon="6.36869165859">
		<tag k="name" v="Ytterholen" />
		<tag k="place" v="farm" />
		<tag k="ssr:stedsnr" v="887553" />
	</node>
	<node id="-553666" lat="62.4707457008" lon="6.37844828744">
		<tag k="name" v="Fremmerholen" />
		<tag k="old_name" v="Fremmerholmen" />
		<tag k="place" v="farm" />
		<tag k="ssr:stedsnr" v="20319" />
	</node>
	<node id="-554060" lat="62.5123755509" lon="6.2450826557">
		<tag k="name" v="Nes" />
		<tag k="place" v="farm" />
		<tag k="ssr:stedsnr" v="571036" />
	</node>
	<node id="-554059" lat="62.4611444463" lon="6.28516110911">
		<tag k="alt_name" v="Hatlane, indre" />
		<tag k="name" v="Indre Hatlane" />
		<tag k="place" v="hamlet" />
		<tag k="ssr:stedsnr" v="566334" />
	</node>
	<node id="-553546" lat="62.5067993673" lon="6.31920626038">
		<tag k="name" v="Volstad" />
		<tag k="place" v="hamlet" />
		<tag k="ssr:stedsnr" v="254107" />
	</node>
	<node id="-554075" lat="62.4343838593" lon="6.46037677559">
		<tag k="alt_name" v="Nedregota" />
		<tag k="fixme" v="consider place=hamlet" />
		<tag k="name" v="Nedregotten" />
		<tag k="place" v="farm" />
		<tag k="ssr:stedsnr" v="583590" />
	</node>
	<node id="-554054" lat="62.5120180278" lon="6.2445514903">
		<tag k="fixme" v="consider place=hamlet" />
		<tag k="name" v="Nes" />
		<tag k="place" v="farm" />
		<tag k="ssr:stedsnr" v="557166" />
	</node>
	<node id="-554050" lat="62.4318920926" lon="6.39264985595">
		<tag k="fixme" v="consider place=hamlet" />
		<tag k="name" v="Eikenosvågen" />
		<tag k="place" v="farm" />
		<tag k="ssr:stedsnr" v="557037" />
	</node>
	<node id="-554048" lat="62.4423316015" lon="6.44383241871">
		<tag k="alt_name" v="Røssevoll" />
		<tag k="fixme" v="consider place=hamlet" />
		<tag k="name" v="Røssevollen" />
		<tag k="place" v="farm" />
		<tag k="ssr:stedsnr" v="557028" />
	</node>
	<node id="-553533" lat="62.4713055541" lon="6.38633889678">
		<tag k="name" v="Hatlebøen" />
		<tag k="place" v="farm" />
		<tag k="ssr:stedsnr" v="402610" />
	</node>
	<node id="-554044" lat="62.4850000002" lon="6.39333332678">
		<tag k="alt_name" v="Alvik;Allvik" />
		<tag k="fixme" v="consider place=hamlet" />
		<tag k="name" v="Alvika" />
		<tag k="place" v="farm" />
		<tag k="ssr:stedsnr" v="556288" />
	</node>
	<node id="-554038" lat="62.4654583314" lon="6.34019721344">
		<tag k="name" v="Vindgård" />
		<tag k="old_name" v="Vingard" />
		<tag k="place" v="farm" />
		<tag k="ssr:stedsnr" v="541683" />
	</node>
	<node id="-553523" lat="62.4931750029" lon="6.25838611804">
		<tag k="name" v="Finnvika" />
		<tag k="place" v="farm" />
		<tag k="ssr:stedsnr" v="401955" />
	</node>
	<node id="-553521" lat="62.4593722206" lon="6.2775388885">
		<tag k="name" v="Indre Hatlen" />
		<tag k="place" v="village" />
		<tag k="ssr:stedsnr" v="400688" />
	</node>
	<node id="-553520" lat="62.4742666677" lon="6.16412777742">
		<tag k="fixme" v="consider tourism=alpine_hut or tourism=chalet" />
		<tag k="name" v="Fjellstua" />
		<tag k="ssr:stedsnr" v="400629" />
		<tag k="tourism" v="wilderness_hut" />
	</node>
	<node id="-553516" lat="62.4953222179" lon="6.19881667234">
		<tag k="fixme" v="consider place=suburb, village or hamlet" />
		<tag k="name" v="Hovland" />
		<tag k="place" v="quarter" />
		<tag k="ssr:stedsnr" v="384358" />
	</node>
	<node id="-553716" lat="62.4521916682" lon="6.47259722353">
		<tag k="historic" v="shieling" />
		<tag k="name" v="Emblemssætra" />
		<tag k="place" v="locality" />
		<tag k="ssr:stedsnr" v="72056" />
	</node>
	<node id="-553820" lat="62.4722582067" lon="6.15489888405">
		<tag k="name" v="Ålesund" />
		<tag k="place" v="town" />
		<tag k="ssr:stedsnr" v="192945" />
	</node>
	<node id="-554021" lat="62.4978944403" lon="6.25545277946">
		<tag k="name" v="Nausa" />
		<tag k="place" v="farm" />
		<tag k="ssr:stedsnr" v="523959" />
	</node>
	<node id="-554020" lat="62.4651327522" lon="6.24382030291">
		<tag k="fixme" v="consider place=hamlet" />
		<tag k="name" v="Klokkarsundet" />
		<tag k="place" v="farm" />
		<tag k="ssr:stedsnr" v="523954" />
	</node>
	<node id="-553507" lat="62.4501777734" lon="6.45155000298">
		<tag k="historic" v="shieling" />
		<tag k="name" v="Røssevollssætra" />
		<tag k="place" v="locality" />
		<tag k="ssr:stedsnr" v="375043" />
	</node>
	<node id="-553505" lat="62.4489333352" lon="6.35537500467">
		<tag k="name" v="Breivika" />
		<tag k="place" v="quarter" />
		<tag k="ssr:stedsnr" v="375040" />
	</node>
	<node id="-553504" lat="62.4519777823" lon="6.51405556239">
		<tag k="historic" v="shieling" />
		<tag k="name" v="Akslasætra" />
		<tag k="place" v="locality" />
		<tag k="ssr:stedsnr" v="375037" />
	</node>
	<node id="-553501" lat="62.4817694452" lon="6.37248334266">
		<tag k="name" v="Kolla" />
		<tag k="place" v="farm" />
		<tag k="ssr:stedsnr" v="374243" />
	</node>
	<node id="-553500" lat="62.4776457818" lon="6.37604031563">
		<tag k="alt_name" v="Olsvik" />
		<tag k="fixme" v="consider place=hamlet" />
		<tag k="name" v="Olsvika" />
		<tag k="place" v="farm" />
		<tag k="ssr:stedsnr" v="374241" />
	</node>
	<node id="-554011" lat="62.4324499961" lon="6.48567499551">
		<tag k="name" v="Brennhaug" />
		<tag k="place" v="farm" />
		<tag k="ssr:stedsnr" v="523691" />
	</node>
	<node id="-554010" lat="62.4330611145" lon="6.48912777873">
		<tag k="name" v="Kristenplassen" />
		<tag k="place" v="farm" />
		<tag k="ssr:stedsnr" v="523690" />
	</node>
	<node id="-554008" lat="62.4745694473" lon="6.22586665988">
		<tag k="leisure" v="pitch" />
		<tag k="name" v="Nørvebana" />
		<tag k="ssr:stedsnr" v="523677" />
	</node>
	<node id="-553492" lat="62.4614605347" lon="6.11112233977">
		<tag k="name" v="Åsen" />
		<tag k="place" v="locality" />
		<tag k="ssr:stedsnr" v="359012" />
	</node>
	<node id="-554003" lat="62.5082783307" lon="6.3179836424">
		<tag k="fixme" v="consider place=hamlet" />
		<tag k="name" v="Nedre Volstad" />
		<tag k="place" v="farm" />
		<tag k="ssr:stedsnr" v="523614" />
	</node>
	<node id="-553489" lat="62.4344250001" lon="6.42478055798">
		<tag k="building" v="industrial" />
		<tag k="industrial" v="factory" />
		<tag k="name" v="Spilka Industri AS" />
		<tag k="ssr:stedsnr" v="345993" />
	</node>
	<node id="-553999" lat="62.4699916712" lon="6.29993889581">
		<tag k="fixme" v="consider place=suburb, village or hamlet" />
		<tag k="name" v="Lerstad" />
		<tag k="place" v="quarter" />
		<tag k="ssr:stedsnr" v="523007" />
	</node>
	<node id="-553998" lat="62.4584944405" lon="6.13064165904">
		<tag k="amenity" v="school" />
		<tag k="name" v="Hessa skole" />
		<tag k="old_name" v="Heissa skole" />
		<tag k="ssr:stedsnr" v="522670" />
	</node>
	<node id="-553482" lat="62.475947218" lon="6.19416388852">
		<tag k="leisure" v="pitch" />
		<tag k="name" v="Kråmyra" />
		<tag k="ssr:stedsnr" v="341966" />
	</node>
	<node id="-553479" lat="62.4610114261" lon="6.13973816784">
		<tag k="name" v="Litlevika" />
		<tag k="place" v="farm" />
		<tag k="ssr:stedsnr" v="341738" />
	</node>
	<node id="-553477" lat="62.466505557" lon="6.25972500618">
		<tag k="name" v="Indre Gåseid" />
		<tag k="place" v="village" />
		<tag k="ssr:stedsnr" v="341730" />
	</node>
</osm>
