<?xml version="1.0" encoding="UTF-8"?>
<osm version="0.6" generator="osmapis">
	<node id="27161499" lat="59.9271271" lon="11.5387329" version="5" timestamp="2022-02-01T07:28:18Z" changeset="116853439" uid="3497659" user="NKA">
		<tag k="junction" v="yes" />
		<tag k="name" v="Auten" />
		<tag k="ssr:stedsnr" v="40616" />
	</node>
	<node id="31314972" lat="59.9503653" lon="11.3901017" version="5" timestamp="2022-02-01T07:28:18Z" changeset="116853439" uid="3497659" user="NKA">
		<tag k="junction" v="yes" />
		<tag k="name" v="Verket" />
		<tag k="ssr:stedsnr" v="543287" />
	</node>
	<node id="32615347" lat="59.886993" lon="11.5607378" version="8" timestamp="2022-02-01T07:28:18Z" changeset="116853439" uid="3497659" user="NKA">
		<tag k="junction" v="yes" />
		<tag k="name" v="Bliksrud" />
		<tag k="ssr:stedsnr" v="480637" />
	</node>
	<node id="32616448" lat="59.8443673" lon="11.7177276" version="7" timestamp="2022-02-01T07:28:18Z" changeset="116853439" uid="3497659" user="NKA">
		<tag k="junction" v="yes" />
		<tag k="name" v="Tangen" />
		<tag k="ssr:stedsnr" v="59189" />
	</node>
	<node id="247799105" lat="59.628538" lon="11.515713" version="7" timestamp="2022-02-01T07:28:18Z" changeset="116853439" uid="3497659" user="NKA">
		<tag k="junction" v="yes" />
		<tag k="name" v="Ydersbotn" />
		<tag k="ssr:stedsnr" v="483304" />
	</node>
	<node id="247802303" lat="59.7194115" lon="11.4328861" version="6" timestamp="2022-02-01T07:28:18Z" changeset="116853439" uid="3497659" user="NKA">
		<tag k="junction" v="yes" />
		<tag k="name" v="Torper" />
		<tag k="ssr:stedsnr" v="326117" />
	</node>
	<node id="1293016994" lat="59.9287433" lon="11.546464" version="4" timestamp="2022-02-01T07:28:18Z" changeset="116853439" uid="3497659" user="NKA">
		<tag k="junction" v="yes" />
		<tag k="name" v="Nordby" />
		<tag k="ssr:stedsnr" v="586605" />
	</node>
	<node id="1293017835" lat="59.925247" lon="11.539972" version="4" timestamp="2022-02-01T07:28:18Z" changeset="116853439" uid="3497659" user="NKA">
		<tag k="junction" v="yes" />
		<tag k="name" v="Våler" />
		<tag k="ssr:stedsnr" v="768609" />
	</node>
	<node id="1435936575" lat="59.7868478" lon="11.4911227" version="5" timestamp="2022-02-01T07:28:18Z" changeset="116853439" uid="3497659" user="NKA">
		<tag k="junction" v="yes" />
		<tag k="name" v="Sandum" />
		<tag k="ssr:stedsnr" v="360774" />
	</node>
	<node id="1613216110" lat="59.929094" lon="11.418376" version="4" timestamp="2022-02-01T07:28:18Z" changeset="116853439" uid="3497659" user="NKA">
		<tag k="junction" v="yes" />
		<tag k="name" v="Stubbjarbotnen" />
		<tag k="ssr:stedsnr" v="283970" />
	</node>
	<node id="1613216114" lat="59.9333857" lon="11.3971251" version="6" timestamp="2022-02-01T07:28:18Z" changeset="116853439" uid="3497659" user="NKA">
		<tag k="junction" v="yes" />
		<tag k="name" v="Korsmo" />
		<tag k="ssr:stedsnr" v="646966" />
	</node>
	<node id="2620017749" lat="59.9205226" lon="11.6447315" version="3" timestamp="2022-02-01T07:28:18Z" changeset="116853439" uid="3497659" user="NKA">
		<tag k="junction" v="yes" />
		<tag k="name" v="Postilltoppen" />
		<tag k="ssr:stedsnr" v="360621" />
	</node>
	<node id="2721290600" lat="59.8789692" lon="11.563024" version="2" timestamp="2022-02-01T07:28:18Z" changeset="116853439" uid="3497659" user="NKA">
		<tag k="junction" v="yes" />
		<tag k="name" v="Trandumsvingen" />
		<tag k="ssr:stedsnr" v="177634" />
	</node>
	<node id="2893814862" lat="59.819815" lon="11.486622" version="4" timestamp="2022-02-01T07:28:18Z" changeset="116853439" uid="3497659" user="NKA">
		<tag k="junction" v="yes" />
		<tag k="name" v="Fosser" />
		<tag k="ssr:stedsnr" v="905152" />
	</node>
	<node id="2974977266" lat="59.7874234" lon="11.5222097" version="3" timestamp="2022-02-01T07:28:18Z" changeset="116853439" uid="3497659" user="NKA">
		<tag k="junction" v="yes" />
		<tag k="name" v="Nerby" />
		<tag k="ssr:stedsnr" v="343220" />
	</node>
	<node id="3351562698" lat="59.8188562" lon="11.5217684" version="5" timestamp="2022-02-01T07:28:18Z" changeset="116853439" uid="3497659" user="NKA">
		<tag k="junction" v="yes" />
		<tag k="name" v="Øsken" />
		<tag k="ssr:stedsnr" v="237135" />
	</node>
	<node id="3351938993" lat="59.837804" lon="11.552787" version="3" timestamp="2022-02-01T07:28:18Z" changeset="116853439" uid="3497659" user="NKA">
		<tag k="junction" v="yes" />
		<tag k="name" v="Ilebekk" />
		<tag k="ssr:stedsnr" v="831868" />
	</node>
	<node id="3361680578" lat="59.8047206" lon="11.3933996" version="3" timestamp="2022-02-01T07:28:18Z" changeset="116853439" uid="3497659" user="NKA">
		<tag k="junction" v="yes" />
		<tag k="name" v="Mo" />
		<tag k="ssr:stedsnr" v="965940" />
	</node>
	<node id="3363072906" lat="59.746644" lon="11.435102" version="3" timestamp="2022-02-01T07:28:18Z" changeset="116853439" uid="3497659" user="NKA">
		<tag k="junction" v="yes" />
		<tag k="name" v="Holsjaren" />
		<tag k="ssr:stedsnr" v="750120" />
	</node>
	<node id="3375104176" lat="59.706836" lon="11.617017" version="3" timestamp="2022-02-01T07:28:18Z" changeset="116853439" uid="3497659" user="NKA">
		<tag k="junction" v="yes" />
		<tag k="name" v="Kølabonnkrysset" />
		<tag k="ssr:stedsnr" v="706799" />
	</node>
	<node id="3381854779" lat="59.706384" lon="11.5352891" version="4" timestamp="2022-02-01T07:28:18Z" changeset="116853439" uid="3497659" user="NKA">
		<tag k="junction" v="yes" />
		<tag k="name" v="Skogheim" />
		<tag k="ssr:stedsnr" v="403773" />
	</node>
	<node id="3407635566" lat="59.777134" lon="11.675142" version="3" timestamp="2022-02-01T07:28:18Z" changeset="116853439" uid="3497659" user="NKA">
		<tag k="junction" v="yes" />
		<tag k="name" v="Kolstadvika" />
		<tag k="ssr:stedsnr" v="846884" />
	</node>
	<node id="3634214834" lat="59.8502516" lon="11.5807126" version="2" timestamp="2022-02-01T07:28:18Z" changeset="116853439" uid="3497659" user="NKA">
		<tag k="junction" v="yes" />
		<tag k="name" v="Lang" />
		<tag k="ssr:stedsnr" v="362278" />
	</node>
	<node id="3922496825" lat="59.941291" lon="11.807874" version="5" timestamp="2022-02-01T07:28:18Z" changeset="116853439" uid="3497659" user="NKA">
		<tag k="junction" v="yes" />
		<tag k="name" v="Øysetvegskillet" />
		<tag k="ssr:stedsnr" v="908413" />
	</node>
	<node id="5779613577" lat="59.7013376" lon="11.8905357" version="2" timestamp="2022-02-01T07:28:18Z" changeset="116853439" uid="3497659" user="NKA">
		<tag k="junction" v="yes" />
		<tag k="name" v="Kubrua" />
		<tag k="ssr:stedsnr" v="172038" />
	</node>
	<node id="5779616320" lat="59.738851" lon="11.8040981" version="2" timestamp="2022-02-01T07:28:18Z" changeset="116853439" uid="3497659" user="NKA">
		<tag k="junction" v="yes" />
		<tag k="name" v="Eidet" />
		<tag k="ssr:stedsnr" v="475757" />
	</node>
	<node id="6229017615" lat="59.7368167" lon="11.8184306" version="1" timestamp="2019-01-23T08:49:16Z" changeset="66561879" uid="633013" user="Honning">
		<tag k="name" v="Østre Bøen" />
		<tag k="place" v="farm" />
		<tag k="ssr:stedsnr" v="657013" />
	</node>
	<node id="6229017616" lat="59.718725" lon="11.7921472" version="1" timestamp="2019-01-23T08:49:16Z" changeset="66561879" uid="633013" user="Honning">
		<tag k="name" v="Dalheim" />
		<tag k="place" v="farm" />
		<tag k="ssr:stedsnr" v="657112" />
	</node>
	<node id="6229017617" lat="59.729425" lon="11.8152639" version="2" timestamp="2019-01-24T16:48:02Z" changeset="66607564" uid="633013" user="Honning">
		<tag k="name" v="Kirkerud" />
		<tag k="place" v="hamlet" />
		<tag k="ssr:stedsnr" v="367627" />
	</node>
	<node id="6229017618" lat="59.7025306" lon="11.7131194" version="1" timestamp="2019-01-23T08:49:16Z" changeset="66561879" uid="633013" user="Honning">
		<tag k="name" v="Nordgardslund" />
		<tag k="place" v="locality" />
		<tag k="ssr:stedsnr" v="368333" />
	</node>
	<node id="6229017619" lat="59.7449083" lon="11.8059917" version="1" timestamp="2019-01-23T08:49:16Z" changeset="66561879" uid="633013" user="Honning">
		<tag k="name" v="Steinby" />
		<tag k="place" v="farm" />
		<tag k="ssr:stedsnr" v="657147" />
	</node>
	<node id="6229017620" lat="59.7272472" lon="11.7454583" version="1" timestamp="2019-01-23T08:49:16Z" changeset="66561879" uid="633013" user="Honning">
		<tag k="historic" v="shieling" />
		<tag k="name" v="Eikestadsetra" />
		<tag k="place" v="locality" />
		<tag k="ssr:stedsnr" v="354166" />
	</node>
	<node id="6229017621" lat="59.6982861" lon="11.9372528" version="1" timestamp="2019-01-23T08:49:16Z" changeset="66561879" uid="633013" user="Honning">
		<tag k="name" v="Østtukun" />
		<tag k="place" v="hamlet" />
		<tag k="ssr:stedsnr" v="368437" />
	</node>
	<node id="6229017622" lat="59.6547361" lon="11.8509333" version="2" timestamp="2020-10-03T11:29:54Z" changeset="91898944" uid="5198133" user="Wulfmorn">
		<tag k="alt_name" v="Mellem-Flaten" />
		<tag k="name" v="Mellom-Flaten" />
		<tag k="place" v="locality" />
		<tag k="ssr:stedsnr" v="657178" />
	</node>
	<node id="6229017623" lat="59.7769546" lon="11.9285457" version="2" timestamp="2020-01-16T19:22:54Z" changeset="79662946" uid="5198133" user="Wulfmorn">
		<tag k="name" v="Lukashytta" />
		<tag k="place" v="locality" />
		<tag k="ssr:stedsnr" v="370263" />
	</node>
	<node id="6229017624" lat="59.7218639" lon="11.7915528" version="1" timestamp="2019-01-23T08:49:16Z" changeset="66561879" uid="633013" user="Honning">
		<tag k="name" v="Haukebølenga" />
		<tag k="place" v="farm" />
		<tag k="ssr:stedsnr" v="475005" />
	</node>
	<node id="6229017625" lat="59.7518639" lon="11.8152111" version="1" timestamp="2019-01-23T08:49:16Z" changeset="66561879" uid="633013" user="Honning">
		<tag k="name" v="Sør-Tukun" />
		<tag k="place" v="farm" />
		<tag k="ssr:stedsnr" v="475037" />
	</node>
	<node id="6229017626" lat="59.7524972" lon="11.8157972" version="1" timestamp="2019-01-23T08:49:16Z" changeset="66561879" uid="633013" user="Honning">
		<tag k="name" v="Nord-Tukun" />
		<tag k="place" v="farm" />
		<tag k="ssr:stedsnr" v="475041" />
	</node>
	<node id="6229017627" lat="59.7430667" lon="11.8156111" version="1" timestamp="2019-01-23T08:49:16Z" changeset="66561879" uid="633013" user="Honning">
		<tag k="alt_name" v="Torneby;Torneby østre" />
		<tag k="name" v="Østre Torneby" />
		<tag k="place" v="farm" />
		<tag k="ssr:stedsnr" v="671691" />
	</node>
	<node id="6229017628" lat="59.7586111" lon="11.8218333" version="1" timestamp="2019-01-23T08:49:16Z" changeset="66561879" uid="633013" user="Honning">
		<tag k="alt_name" v="Trandem søndre" />
		<tag k="name" v="Sør-Trandum" />
		<tag k="place" v="farm" />
		<tag k="ssr:stedsnr" v="672372" />
	</node>
	<node id="6229017629" lat="59.7611444" lon="11.8194472" version="1" timestamp="2019-01-23T08:49:16Z" changeset="66561879" uid="633013" user="Honning">
		<tag k="alt_name" v="Øgarden" />
		<tag k="name" v="Ødegården" />
		<tag k="place" v="farm" />
		<tag k="ssr:stedsnr" v="672381" />
	</node>
	<node id="6229017630" lat="59.7283806" lon="11.785725" version="1" timestamp="2019-01-23T08:49:17Z" changeset="66561879" uid="633013" user="Honning">
		<tag k="name" v="Odden" />
		<tag k="place" v="isolated_dwelling" />
		<tag k="ssr:stedsnr" v="914649" />
	</node>
	<node id="6229017631" lat="59.7165222" lon="11.7526528" version="1" timestamp="2019-01-23T08:49:17Z" changeset="66561879" uid="633013" user="Honning">
		<tag k="historic" v="shieling" />
		<tag k="name" v="Den brente setra" />
		<tag k="place" v="locality" />
		<tag k="ssr:stedsnr" v="718246" />
	</node>
	<node id="6229017632" lat="59.7464528" lon="11.8114278" version="1" timestamp="2019-01-23T08:49:17Z" changeset="66561879" uid="633013" user="Honning">
		<tag k="name" v="Nord-Steinby" />
		<tag k="place" v="farm" />
		<tag k="ssr:stedsnr" v="718038" />
	</node>
	<node id="6229017634" lat="59.7157972" lon="11.8013639" version="1" timestamp="2019-01-23T08:49:17Z" changeset="66561879" uid="633013" user="Honning">
		<tag k="name" v="Sletten" />
		<tag k="place" v="farm" />
		<tag k="ssr:stedsnr" v="475240" />
	</node>
	<node id="6229017635" lat="59.7739295" lon="11.8092268" version="2" timestamp="2021-05-04T05:01:34Z" changeset="104092178" uid="3497659" user="NKA">
		<tag k="name" v="Rømskog sag" />
		<tag k="place" v="locality" />
		<tag k="ssr:stedsnr" v="718151" />
	</node>
	<node id="6229017636" lat="59.6509828" lon="11.8513872" version="2" timestamp="2019-01-24T16:48:02Z" changeset="66607564" uid="633013" user="Honning">
		<tag k="name" v="Flaten" />
		<tag k="place" v="locality" />
		<tag k="ssr:stedsnr" v="982295" />
	</node>
	<node id="6229017637" lat="59.7449" lon="11.8227611" version="2" timestamp="2019-01-24T17:04:18Z" changeset="66608000" uid="633013" user="Honning">
		<tag k="name" v="Skolestua" />
		<tag k="place" v="locality" />
		<tag k="ssr:stedsnr" v="718169" />
	</node>
	<node id="6229017638" lat="59.7516611" lon="11.9008583" version="1" timestamp="2019-01-23T08:49:17Z" changeset="66561879" uid="633013" user="Honning">
		<tag k="name" v="Karistua" />
		<tag k="place" v="isolated_dwelling" />
		<tag k="ssr:stedsnr" v="915210" />
	</node>
	<node id="6229017639" lat="59.6988167" lon="11.9369055" version="1" timestamp="2019-01-23T08:49:17Z" changeset="66561879" uid="633013" user="Honning">
		<tag k="name" v="Oppstua" />
		<tag k="place" v="farm" />
		<tag k="ssr:stedsnr" v="718173" />
	</node>
	<node id="6229017640" lat="59.77305" lon="11.8168889" version="1" timestamp="2019-01-23T08:49:17Z" changeset="66561879" uid="633013" user="Honning">
		<tag k="alt_name" v="Nord-Klubben" />
		<tag k="name" v="Nordklubben" />
		<tag k="place" v="farm" />
		<tag k="ssr:stedsnr" v="5402" />
	</node>
	<node id="6229017641" lat="59.7368417" lon="11.81345" version="1" timestamp="2019-01-23T08:49:17Z" changeset="66561879" uid="633013" user="Honning">
		<tag k="alt_name" v="Mellem Bøen" />
		<tag k="name" v="Mellom-Bøen" />
		<tag k="place" v="farm" />
		<tag k="ssr:stedsnr" v="51009" />
	</node>
	<node id="6229017642" lat="59.6630944" lon="11.8359278" version="1" timestamp="2019-01-23T08:49:17Z" changeset="66561879" uid="633013" user="Honning">
		<tag k="name" v="Os" />
		<tag k="place" v="farm" />
		<tag k="ssr:stedsnr" v="732271" />
	</node>
	<node id="6229017643" lat="59.6469167" lon="11.7620861" version="1" timestamp="2019-01-23T08:49:17Z" changeset="66561879" uid="633013" user="Honning">
		<tag k="alt_name" v="Nordstusetra" />
		<tag k="loc_name" v="Flatasetra" />
		<tag k="name" v="Flatasætra" />
		<tag k="place" v="isolated_dwelling" />
		<tag k="ssr:stedsnr" v="732275" />
	</node>
	<node id="6229017644" lat="59.7598111" lon="11.8207611" version="1" timestamp="2019-01-23T08:49:17Z" changeset="66561879" uid="633013" user="Honning">
		<tag k="alt_name" v="Trandem nordre" />
		<tag k="name" v="Nord-Trandum" />
		<tag k="place" v="farm" />
		<tag k="ssr:stedsnr" v="915378" />
	</node>
	<node id="6229017645" lat="59.7661278" lon="11.8812194" version="1" timestamp="2019-01-23T08:49:17Z" changeset="66561879" uid="633013" user="Honning">
		<tag k="name" v="Langemåsåstua" />
		<tag k="place" v="isolated_dwelling" />
		<tag k="ssr:stedsnr" v="51075" />
	</node>
	<node id="6229017646" lat="59.7521055" lon="11.8157187" version="1" timestamp="2019-01-23T08:49:17Z" changeset="66561879" uid="633013" user="Honning">
		<tag k="name" v="Tukun" />
		<tag k="place" v="hamlet" />
		<tag k="ssr:stedsnr" v="732399" />
	</node>
	<node id="6229017647" lat="59.7275222" lon="11.7482194" version="1" timestamp="2019-01-23T08:49:17Z" changeset="66561879" uid="633013" user="Honning">
		<tag k="alt_name" v="Eikestaden" />
		<tag k="name" v="Eikestad" />
		<tag k="place" v="isolated_dwelling" />
		<tag k="ssr:stedsnr" v="732658" />
	</node>
	<node id="6229017648" lat="59.7154278" lon="11.7997139" version="1" timestamp="2019-01-23T08:49:18Z" changeset="66561879" uid="633013" user="Honning">
		<tag k="alt_name" v="Sandum" />
		<tag k="name" v="Sør-Sandum" />
		<tag k="place" v="farm" />
		<tag k="ssr:stedsnr" v="732677" />
	</node>
	<node id="6229017649" lat="59.7468611" lon="11.8239056" version="1" timestamp="2019-01-23T08:49:18Z" changeset="66561879" uid="633013" user="Honning">
		<tag k="name" v="Moserud" />
		<tag k="place" v="farm" />
		<tag k="ssr:stedsnr" v="51163" />
	</node>
	<node id="6229017650" lat="59.7553917" lon="11.8186611" version="1" timestamp="2019-01-23T08:49:18Z" changeset="66561879" uid="633013" user="Honning">
		<tag k="alt_name" v="Trandem vestre" />
		<tag k="name" v="Vest-Trandum" />
		<tag k="place" v="farm" />
		<tag k="ssr:stedsnr" v="778197" />
	</node>
	<node id="6229017651" lat="59.7303944" lon="11.7713917" version="1" timestamp="2019-01-23T08:49:18Z" changeset="66561879" uid="633013" user="Honning">
		<tag k="name" v="Kopperud" />
		<tag k="place" v="farm" />
		<tag k="ssr:stedsnr" v="779004" />
	</node>
	<node id="6229017652" lat="59.7168694" lon="11.7978083" version="1" timestamp="2019-01-23T08:49:18Z" changeset="66561879" uid="633013" user="Honning">
		<tag k="name" v="Nord-Sandum" />
		<tag k="place" v="farm" />
		<tag k="ssr:stedsnr" v="51269" />
	</node>
	<node id="6229017653" lat="59.6991" lon="11.9152583" version="1" timestamp="2019-01-23T08:49:18Z" changeset="66561879" uid="633013" user="Honning">
		<tag k="name" v="Gravlidalen" />
		<tag k="place" v="isolated_dwelling" />
		<tag k="ssr:stedsnr" v="793433" />
	</node>
	<node id="6229017654" lat="59.7343778" lon="11.9038639" version="1" timestamp="2019-01-23T08:49:18Z" changeset="66561879" uid="633013" user="Honning">
		<tag k="alt_name" v="Fallet" />
		<tag k="historic" v="shieling" />
		<tag k="name" v="Ertevassfallet" />
		<tag k="place" v="locality" />
		<tag k="ssr:stedsnr" v="65414" />
	</node>
	<node id="6229017655" lat="59.7259139" lon="11.8514583" version="1" timestamp="2019-01-23T08:49:18Z" changeset="66561879" uid="633013" user="Honning">
		<tag k="alt_name" v="Enga" />
		<tag k="name" v="Kurøenga" />
		<tag k="place" v="farm" />
		<tag k="ssr:stedsnr" v="65416" />
	</node>
	<node id="6229017656" lat="59.6967972" lon="11.7995806" version="1" timestamp="2019-01-23T08:49:18Z" changeset="66561879" uid="633013" user="Honning">
		<tag k="name" v="Strand" />
		<tag k="place" v="farm" />
		<tag k="ssr:stedsnr" v="793335" />
	</node>
	<node id="6229017657" lat="59.7440583" lon="11.8058306" version="1" timestamp="2019-01-23T08:49:18Z" changeset="66561879" uid="633013" user="Honning">
		<tag k="name" v="Tørnby" />
		<tag k="place" v="hamlet" />
		<tag k="ssr:stedsnr" v="793706" />
	</node>
	<node id="6229017658" lat="59.7224611" lon="11.7773361" version="1" timestamp="2019-01-23T08:49:18Z" changeset="66561879" uid="633013" user="Honning">
		<tag k="name" v="Jerpeset" />
		<tag k="place" v="locality" />
		<tag k="ssr:stedsnr" v="111001" />
	</node>
	<node id="6229017659" lat="59.7105667" lon="11.8017972" version="1" timestamp="2019-01-23T08:49:18Z" changeset="66561879" uid="633013" user="Honning">
		<tag k="name" v="Sundsrud" />
		<tag k="place" v="farm" />
		<tag k="ssr:stedsnr" v="293279" />
	</node>
	<node id="6229017660" lat="59.7684056" lon="11.8202028" version="1" timestamp="2019-01-23T08:49:18Z" changeset="66561879" uid="633013" user="Honning">
		<tag k="name" v="Libakk" />
		<tag k="place" v="farm" />
		<tag k="ssr:stedsnr" v="111088" />
	</node>
	<node id="6229017662" lat="59.6419972" lon="11.7686583" version="1" timestamp="2019-01-23T08:49:18Z" changeset="66561879" uid="633013" user="Honning">
		<tag k="name" v="Andreassetra" />
		<tag k="place" v="locality" />
		<tag k="ssr:stedsnr" v="840121" />
	</node>
	<node id="6229017663" lat="59.7731389" lon="11.819" version="1" timestamp="2019-01-23T08:49:18Z" changeset="66561879" uid="633013" user="Honning">
		<tag k="name" v="Spilhaug" />
		<tag k="place" v="farm" />
		<tag k="ssr:stedsnr" v="111141" />
	</node>
	<node id="6229017664" lat="59.7496417" lon="11.8249417" version="1" timestamp="2019-01-23T08:49:18Z" changeset="66561879" uid="633013" user="Honning">
		<tag k="name" v="Myrvollbråten" />
		<tag k="place" v="farm" />
		<tag k="ssr:stedsnr" v="840159" />
	</node>
	<node id="6229017665" lat="59.7476306" lon="11.8264806" version="1" timestamp="2019-01-23T08:49:18Z" changeset="66561879" uid="633013" user="Honning">
		<tag k="name" v="Nordre Myrvoll" />
		<tag k="place" v="farm" />
		<tag k="ssr:stedsnr" v="840161" />
	</node>
	<node id="6229017666" lat="59.665625" lon="11.7625583" version="1" timestamp="2019-01-23T08:49:18Z" changeset="66561879" uid="633013" user="Honning">
		<tag k="name" v="Karsby" />
		<tag k="place" v="isolated_dwelling" />
		<tag k="ssr:stedsnr" v="853260" />
	</node>
	<node id="6229017667" lat="59.7120306" lon="11.80105" version="1" timestamp="2019-01-23T08:49:19Z" changeset="66561879" uid="633013" user="Honning">
		<tag k="alt_name" v="Haugen" />
		<tag k="name" v="Sundsrudhaugen" />
		<tag k="place" v="farm" />
		<tag k="ssr:stedsnr" v="853338" />
	</node>
	<node id="6229017668" lat="59.7085056" lon="11.8027833" version="1" timestamp="2019-01-23T08:49:19Z" changeset="66561879" uid="633013" user="Honning">
		<tag k="alt_name" v="Søgarden" />
		<tag k="name" v="Sundsrud" />
		<tag k="place" v="farm" />
		<tag k="ssr:stedsnr" v="853345" />
	</node>
	<node id="6229017669" lat="59.6505194" lon="11.8494222" version="1" timestamp="2019-01-23T08:49:19Z" changeset="66561879" uid="633013" user="Honning">
		<tag k="name" v="Bråten" />
		<tag k="place" v="farm" />
		<tag k="ssr:stedsnr" v="854043" />
	</node>
	<node id="6229017670" lat="59.682675" lon="11.8166667" version="1" timestamp="2019-01-23T08:49:19Z" changeset="66561879" uid="633013" user="Honning">
		<tag k="name" v="Nes" />
		<tag k="place" v="farm" />
		<tag k="ssr:stedsnr" v="854323" />
	</node>
	<node id="6229017671" lat="59.7381194" lon="11.799425" version="1" timestamp="2019-01-23T08:49:19Z" changeset="66561879" uid="633013" user="Honning">
		<tag k="name" v="Sand" />
		<tag k="place" v="farm" />
		<tag k="ssr:stedsnr" v="124562" />
	</node>
	<node id="6229017672" lat="59.7457111" lon="11.800825" version="1" timestamp="2019-01-23T08:49:19Z" changeset="66561879" uid="633013" user="Honning">
		<tag k="name" v="Haga" />
		<tag k="place" v="farm" />
		<tag k="ssr:stedsnr" v="854661" />
	</node>
	<node id="6229017673" lat="59.7799111" lon="11.8123694" version="1" timestamp="2019-01-23T08:49:19Z" changeset="66561879" uid="633013" user="Honning">
		<tag k="alt_name" v="Trandumseter" />
		<tag k="loc_name" v="Trandumsetra" />
		<tag k="name" v="Trandumsætra" />
		<tag k="place" v="farm" />
		<tag k="ssr:stedsnr" v="126436" />
	</node>
	<node id="6229017674" lat="59.6974763" lon="11.857901" version="1" timestamp="2019-01-23T08:49:19Z" changeset="66561879" uid="633013" user="Honning">
		<tag k="name" v="Nedre Ringsby" />
		<tag k="old_name" v="Ringsbu" />
		<tag k="place" v="farm" />
		<tag k="ssr:stedsnr" v="161253" />
	</node>
	<node id="6229017675" lat="59.7130944" lon="11.8000528" version="1" timestamp="2019-01-23T08:49:19Z" changeset="66561879" uid="633013" user="Honning">
		<tag k="name" v="Krokvoll" />
		<tag k="place" v="farm" />
		<tag k="ssr:stedsnr" v="900108" />
	</node>
	<node id="6229017676" lat="59.726975" lon="11.7844528" version="1" timestamp="2019-01-23T08:49:19Z" changeset="66561879" uid="633013" user="Honning">
		<tag k="name" v="Nord-Ramberg" />
		<tag k="place" v="farm" />
		<tag k="ssr:stedsnr" v="172004" />
	</node>
	<node id="6229017677" lat="59.7322972" lon="11.774575" version="1" timestamp="2019-01-23T08:49:19Z" changeset="66561879" uid="633013" user="Honning">
		<tag k="name" v="Kopperudsetra" />
		<tag k="place" v="farm" />
		<tag k="ssr:stedsnr" v="172006" />
	</node>
	<node id="6229017678" lat="59.6536083" lon="11.8601417" version="1" timestamp="2019-01-23T08:49:19Z" changeset="66561879" uid="633013" user="Honning">
		<tag k="name" v="Husa" />
		<tag k="place" v="farm" />
		<tag k="ssr:stedsnr" v="900139" />
	</node>
	<node id="6229017679" lat="59.6980722" lon="11.9396695" version="1" timestamp="2019-01-23T08:49:19Z" changeset="66561879" uid="633013" user="Honning">
		<tag k="name" v="Nedstua" />
		<tag k="place" v="farm" />
		<tag k="ssr:stedsnr" v="900183" />
	</node>
	<node id="6229017680" lat="59.7589194" lon="11.8259028" version="1" timestamp="2019-01-23T08:49:19Z" changeset="66561879" uid="633013" user="Honning">
		<tag k="name" v="Lykkja" />
		<tag k="place" v="farm" />
		<tag k="ssr:stedsnr" v="172143" />
	</node>
	<node id="6229017681" lat="59.755275" lon="11.8175694" version="1" timestamp="2019-01-23T08:49:19Z" changeset="66561879" uid="633013" user="Honning">
		<tag k="loc_name" v="Trandem" />
		<tag k="name" v="Trandum" />
		<tag k="place" v="hamlet" />
		<tag k="ssr:stedsnr" v="429360" />
	</node>
	<node id="6229017682" lat="59.754825" lon="11.8199833" version="1" timestamp="2019-01-23T08:49:19Z" changeset="66561879" uid="633013" user="Honning">
		<tag k="alt_name" v="Moen, øvre" />
		<tag k="name" v="Øvre Moen" />
		<tag k="place" v="farm" />
		<tag k="ssr:stedsnr" v="186403" />
	</node>
	<node id="6229017683" lat="59.7233083" lon="11.8517889" version="1" timestamp="2019-01-23T08:49:19Z" changeset="66561879" uid="633013" user="Honning">
		<tag k="name" v="Sandvika" />
		<tag k="place" v="farm" />
		<tag k="ssr:stedsnr" v="914422" />
	</node>
	<node id="6229017684" lat="59.7634472" lon="11.8167222" version="1" timestamp="2019-01-23T08:49:19Z" changeset="66561879" uid="633013" user="Honning">
		<tag k="name" v="Haugen" />
		<tag k="place" v="farm" />
		<tag k="ssr:stedsnr" v="186449" />
	</node>
	<node id="6229017985" lat="59.7067278" lon="11.93335" version="1" timestamp="2019-01-23T08:49:20Z" changeset="66561879" uid="633013" user="Honning">
		<tag k="name" v="Teigen" />
		<tag k="place" v="isolated_dwelling" />
		<tag k="ssr:stedsnr" v="186455" />
	</node>
	<node id="6229017986" lat="59.7465389" lon="11.8254278" version="2" timestamp="2019-01-24T16:48:02Z" changeset="66607564" uid="633013" user="Honning">
		<tag k="name" v="Myrvoll" />
		<tag k="place" v="hamlet" />
		<tag k="ssr:stedsnr" v="186705" />
	</node>
	<node id="6229017988" lat="59.733528" lon="11.7797966" version="1" timestamp="2019-01-23T08:49:20Z" changeset="66561879" uid="633013" user="Honning">
		<tag k="alt_name" v="Torkildsbråten;Bråten;Tørnbybråten" />
		<tag k="name" v="Torkelsbråten" />
		<tag k="old_name" v="Torkelsbraaten eller Tørnbybraaten;Braaten;Torkelsbraaten eller Tørnbybraaten" />
		<tag k="place" v="farm" />
		<tag k="ssr:stedsnr" v="950626" />
	</node>
	<node id="6229017990" lat="59.674325" lon="11.7271278" version="1" timestamp="2019-01-23T08:49:20Z" changeset="66561879" uid="633013" user="Honning">
		<tag k="name" v="Engemåsakoia" />
		<tag k="place" v="isolated_dwelling" />
		<tag k="ssr:stedsnr" v="961076" />
	</node>
	<node id="6229017991" lat="59.6795528" lon="11.6637722" version="1" timestamp="2019-01-23T08:49:20Z" changeset="66561879" uid="633013" user="Honning">
		<tag k="name" v="Risenkoia" />
		<tag k="place" v="isolated_dwelling" />
		<tag k="ssr:stedsnr" v="961113" />
	</node>
	<node id="6229017992" lat="59.6989611" lon="11.861575" version="1" timestamp="2019-01-23T08:49:20Z" changeset="66561879" uid="633013" user="Honning">
		<tag k="name" v="Øvre Ringsby" />
		<tag k="place" v="farm" />
		<tag k="ssr:stedsnr" v="233050" />
	</node>
	<node id="6229017993" lat="59.7489722" lon="11.9106861" version="1" timestamp="2019-01-23T08:49:20Z" changeset="66561879" uid="633013" user="Honning">
		<tag k="alt_name" v="Marisætra" />
		<tag k="historic" v="shieling" />
		<tag k="name" v="Marisetra" />
		<tag k="place" v="locality" />
		<tag k="ssr:stedsnr" v="307374" />
	</node>
	<node id="6229017994" lat="59.7365806" lon="11.813" version="1" timestamp="2019-01-23T08:49:20Z" changeset="66561879" uid="633013" user="Honning">
		<tag k="name" v="Vestre Bøen" />
		<tag k="place" v="farm" />
		<tag k="ssr:stedsnr" v="233180" />
	</node>
	<node id="6229017995" lat="59.6594556" lon="11.8606555" version="1" timestamp="2019-01-23T08:49:20Z" changeset="66561879" uid="633013" user="Honning">
		<tag k="name" v="Enger" />
		<tag k="place" v="farm" />
		<tag k="ssr:stedsnr" v="247057" />
	</node>
	<node id="6229017996" lat="59.7709833" lon="11.8197778" version="1" timestamp="2019-01-23T08:49:20Z" changeset="66561879" uid="633013" user="Honning">
		<tag k="alt_name" v="Sør-Klubben" />
		<tag k="name" v="Sørklubben" />
		<tag k="place" v="farm" />
		<tag k="ssr:stedsnr" v="248407" />
	</node>
	<node id="6229017997" lat="59.72075" lon="11.8045528" version="1" timestamp="2019-01-23T08:49:20Z" changeset="66561879" uid="633013" user="Honning">
		<tag k="name" v="Nordre Haukenes" />
		<tag k="place" v="farm" />
		<tag k="ssr:stedsnr" v="415008" />
	</node>
	<node id="6229017998" lat="59.725725" lon="11.7844917" version="1" timestamp="2019-01-23T08:49:20Z" changeset="66561879" uid="633013" user="Honning">
		<tag k="alt_name" v="Ramberg" />
		<tag k="name" v="Sør-Ramberg" />
		<tag k="place" v="farm" />
		<tag k="ssr:stedsnr" v="64620" />
	</node>
	<node id="6229017999" lat="59.6452583" lon="11.7632111" version="1" timestamp="2019-01-23T08:49:20Z" changeset="66561879" uid="633013" user="Honning">
		<tag k="name" v="Haugerberget" />
		<tag k="place" v="isolated_dwelling" />
		<tag k="ssr:stedsnr" v="415197" />
	</node>
	<node id="6229018000" lat="59.6519194" lon="11.8519556" version="1" timestamp="2019-01-23T08:49:20Z" changeset="66561879" uid="633013" user="Honning">
		<tag k="alt_name" v="Flaten" />
		<tag k="name" v="Flatahaugen" />
		<tag k="place" v="farm" />
		<tag k="ssr:stedsnr" v="423118" />
	</node>
	<node id="6229018001" lat="59.7195194" lon="11.8342639" version="1" timestamp="2019-01-23T08:49:20Z" changeset="66561879" uid="633013" user="Honning">
		<tag k="alt_name" v="Kurøen" />
		<tag k="name" v="Kurøy" />
		<tag k="place" v="farm" />
		<tag k="ssr:stedsnr" v="428614" />
	</node>
	<node id="6229018002" lat="59.7634639" lon="11.821425" version="1" timestamp="2019-01-23T08:49:21Z" changeset="66561879" uid="633013" user="Honning">
		<tag k="name" v="Bråten" />
		<tag k="place" v="farm" />
		<tag k="ssr:stedsnr" v="429382" />
	</node>
	<node id="6229018003" lat="59.7353778" lon="11.8133611" version="1" timestamp="2019-01-23T08:49:21Z" changeset="66561879" uid="633013" user="Honning">
		<tag k="alt_name" v="Bøen" />
		<tag k="name" v="Søndre Bøen" />
		<tag k="place" v="farm" />
		<tag k="ssr:stedsnr" v="792613" />
	</node>
	<node id="6229018004" lat="59.7678528" lon="11.8098944" version="1" timestamp="2019-01-23T08:49:21Z" changeset="66561879" uid="633013" user="Honning">
		<tag k="name" v="Nylenda" />
		<tag k="place" v="farm" />
		<tag k="ssr:stedsnr" v="429390" />
	</node>
	<node id="6229018005" lat="59.7439" lon="11.806975" version="1" timestamp="2019-01-23T08:49:21Z" changeset="66561879" uid="633013" user="Honning">
		<tag k="name" v="Østre Tørnby" />
		<tag k="place" v="farm" />
		<tag k="ssr:stedsnr" v="482384" />
	</node>
	<node id="6229018006" lat="59.6626222" lon="11.7247194" version="1" timestamp="2019-01-23T08:49:21Z" changeset="66561879" uid="633013" user="Honning">
		<tag k="name" v="Galgebakken" />
		<tag k="place" v="isolated_dwelling" />
		<tag k="ssr:stedsnr" v="489307" />
	</node>
	<node id="6229018007" lat="59.7383028" lon="11.7633278" version="1" timestamp="2019-01-23T08:49:21Z" changeset="66561879" uid="633013" user="Honning">
		<tag k="name" v="Sørsaga" />
		<tag k="place" v="farm" />
		<tag k="ssr:stedsnr" v="65617" />
	</node>
	<node id="6229018008" lat="59.7226361" lon="11.7957445" version="1" timestamp="2019-01-23T08:49:21Z" changeset="66561879" uid="633013" user="Honning">
		<tag k="alt_name" v="Engen" />
		<tag k="name" v="Enga" />
		<tag k="place" v="farm" />
		<tag k="ssr:stedsnr" v="489663" />
	</node>
	<node id="6229018009" lat="59.7392389" lon="11.7636361" version="1" timestamp="2019-01-23T08:49:21Z" changeset="66561879" uid="633013" user="Honning">
		<tag k="name" v="Mellomsaga" />
		<tag k="place" v="farm" />
		<tag k="ssr:stedsnr" v="489668" />
	</node>
	<node id="6229018010" lat="59.7562" lon="11.8136528" version="1" timestamp="2019-01-23T08:49:21Z" changeset="66561879" uid="633013" user="Honning">
		<tag k="name" v="Nordby" />
		<tag k="place" v="farm" />
		<tag k="ssr:stedsnr" v="490370" />
	</node>
	<node id="6229018011" lat="59.6981501" lon="11.8600262" version="1" timestamp="2019-01-23T08:49:21Z" changeset="66561879" uid="633013" user="Honning">
		<tag k="alt_name" v="Ringsbu" />
		<tag k="name" v="Ringsby" />
		<tag k="place" v="hamlet" />
		<tag k="ssr:stedsnr" v="525419" />
	</node>
	<node id="6229018013" lat="59.7759222" lon="11.8767528" version="1" timestamp="2019-01-23T08:49:21Z" changeset="66561879" uid="633013" user="Honning">
		<tag k="historic" v="shieling" />
		<tag k="name" v="Flinttjennsetrene" />
		<tag k="place" v="locality" />
		<tag k="ssr:stedsnr" v="293045" />
	</node>
	<node id="6229018014" lat="59.7140111" lon="11.8008056" version="1" timestamp="2019-01-23T08:49:21Z" changeset="66561879" uid="633013" user="Honning">
		<tag k="name" v="Lønnberg" />
		<tag k="place" v="farm" />
		<tag k="ssr:stedsnr" v="536217" />
	</node>
	<node id="6229018015" lat="59.713163" lon="11.7854863" version="1" timestamp="2019-01-23T08:49:21Z" changeset="66561879" uid="633013" user="Honning">
		<tag k="alt_name" v="Vestli" />
		<tag k="name" v="Vestby" />
		<tag k="place" v="farm" />
		<tag k="ssr:stedsnr" v="549351" />
	</node>
	<node id="6229018016" lat="59.7052528" lon="11.8049444" version="1" timestamp="2019-01-23T08:49:21Z" changeset="66561879" uid="633013" user="Honning">
		<tag k="alt_name" v="Hagan" />
		<tag k="name" v="Haga" />
		<tag k="place" v="farm" />
		<tag k="ssr:stedsnr" v="549349" />
	</node>
	<node id="6229018017" lat="59.7193472" lon="11.8050944" version="1" timestamp="2019-01-23T08:49:21Z" changeset="66561879" uid="633013" user="Honning">
		<tag k="alt_name" v="Haukenes" />
		<tag k="name" v="Østre Haukenes" />
		<tag k="place" v="farm" />
		<tag k="ssr:stedsnr" v="549621" />
	</node>
	<node id="6229018018" lat="59.6859194" lon="11.8018722" version="1" timestamp="2019-01-23T08:49:21Z" changeset="66561879" uid="633013" user="Honning">
		<tag k="name" v="Bunes" />
		<tag k="place" v="farm" />
		<tag k="ssr:stedsnr" v="550335" />
	</node>
	<node id="6229018019" lat="59.7053083" lon="11.853225" version="1" timestamp="2019-01-23T08:49:22Z" changeset="66561879" uid="633013" user="Honning">
		<tag k="name" v="Hytta" />
		<tag k="place" v="isolated_dwelling" />
		<tag k="ssr:stedsnr" v="550411" />
	</node>
	<node id="6229018020" lat="59.7836056" lon="11.8069083" version="1" timestamp="2019-01-23T08:49:22Z" changeset="66561879" uid="633013" user="Honning">
		<tag k="name" v="Delingsby" />
		<tag k="place" v="farm" />
		<tag k="ssr:stedsnr" v="550454" />
	</node>
	<node id="6229018021" lat="59.7418111" lon="11.7476667" version="1" timestamp="2019-01-23T08:49:22Z" changeset="66561879" uid="633013" user="Honning">
		<tag k="historic" v="shieling" />
		<tag k="name" v="Damtjennsetra" />
		<tag k="place" v="locality" />
		<tag k="ssr:stedsnr" v="596140" />
	</node>
	<node id="6229018022" lat="59.7212444" lon="11.7953444" version="1" timestamp="2019-01-23T08:49:22Z" changeset="66561879" uid="633013" user="Honning">
		<tag k="name" v="Haukebøl" />
		<tag k="place" v="farm" />
		<tag k="ssr:stedsnr" v="596141" />
	</node>
	<node id="6229018023" lat="59.7178528" lon="11.7946694" version="2" timestamp="2019-01-24T16:48:03Z" changeset="66607564" uid="633013" user="Honning">
		<tag k="name" v="Skjønhaug" />
		<tag k="place" v="hamlet" />
		<tag k="ssr:stedsnr" v="307659" />
	</node>
	<node id="6229018024" lat="59.7403639" lon="11.8247444" version="1" timestamp="2019-01-23T08:49:22Z" changeset="66561879" uid="633013" user="Honning">
		<tag k="name" v="Haugbakk" />
		<tag k="place" v="farm" />
		<tag k="ssr:stedsnr" v="307695" />
	</node>
	<node id="6229018025" lat="59.76565" lon="11.9196139" version="1" timestamp="2019-01-23T08:49:22Z" changeset="66561879" uid="633013" user="Honning">
		<tag k="name" v="Røvassfallvika" />
		<tag k="place" v="isolated_dwelling" />
		<tag k="ssr:stedsnr" v="309268" />
	</node>
	<node id="6229018026" lat="59.6557359" lon="11.8601453" version="3" timestamp="2020-10-03T11:29:54Z" changeset="91898944" uid="5198133" user="Wulfmorn">
		<tag k="name" v="Trosterud" />
		<tag k="place" v="hamlet" />
		<tag k="ssr:stedsnr" v="610069" />
	</node>
	<node id="6229018027" lat="59.6635" lon="11.8304917" version="2" timestamp="2019-01-24T16:48:03Z" changeset="66607564" uid="633013" user="Honning">
		<tag k="name" v="Nybru" />
		<tag k="place" v="hamlet" />
		<tag k="ssr:stedsnr" v="3244" />
	</node>
	<node id="6229018028" lat="59.7222611" lon="11.9057111" version="1" timestamp="2019-01-23T08:49:22Z" changeset="66561879" uid="633013" user="Honning">
		<tag k="name" v="Hebakken" />
		<tag k="place" v="isolated_dwelling" />
		<tag k="ssr:stedsnr" v="610459" />
	</node>
	<node id="6229018029" lat="59.7339444" lon="11.7759532" version="2" timestamp="2019-01-24T16:48:03Z" changeset="66607564" uid="633013" user="Honning">
		<tag k="name" v="Nordli" />
		<tag k="place" v="hamlet" />
		<tag k="ssr:stedsnr" v="610659" />
	</node>
	<node id="6229018030" lat="59.7432111" lon="11.7626639" version="1" timestamp="2019-01-23T08:49:22Z" changeset="66561879" uid="633013" user="Honning">
		<tag k="alt_name" v="Nord-saga;Saga nordre" />
		<tag k="name" v="Nordsaga" />
		<tag k="place" v="farm" />
		<tag k="ssr:stedsnr" v="610704" />
	</node>
	<node id="6229018031" lat="59.7515361" lon="11.8195278" version="1" timestamp="2019-01-23T08:49:22Z" changeset="66561879" uid="633013" user="Honning">
		<tag k="alt_name" v="Moen, nedre;Ned-Moen" />
		<tag k="name" v="Nedre Moen" />
		<tag k="place" v="farm" />
		<tag k="ssr:stedsnr" v="611395" />
	</node>
	<node id="6229018032" lat="59.7677472" lon="11.8202889" version="1" timestamp="2019-01-23T08:49:22Z" changeset="66561879" uid="633013" user="Honning">
		<tag k="name" v="Lia" />
		<tag k="place" v="farm" />
		<tag k="ssr:stedsnr" v="611435" />
	</node>
	<node id="6229018033" lat="59.7708778" lon="11.7715611" version="1" timestamp="2019-01-23T08:49:22Z" changeset="66561879" uid="633013" user="Honning">
		<tag k="alt_name" v="Tukusætra" />
		<tag k="name" v="Tukusetra" />
		<tag k="place" v="farm" />
		<tag k="ssr:stedsnr" v="611436" />
	</node>
	<node id="6255747042" lat="59.6418694" lon="11.7194695" version="1" timestamp="2019-02-03T14:30:07Z" changeset="66877579" uid="633013" user="Honning">
		<tag k="name" v="Fredheim" />
		<tag k="place" v="isolated_dwelling" />
		<tag k="ssr:stedsnr" v="963605" />
	</node>
	<node id="7897276596" lat="59.9186036" lon="11.5317969" version="2" timestamp="2022-02-01T07:28:18Z" changeset="116853439" uid="3497659" user="NKA">
		<tag k="junction" v="yes" />
		<tag k="name" v="Lierfoss" />
		<tag k="ssr:stedsnr" v="283604" />
	</node>
	<node id="9465227403" lat="59.9409496" lon="11.4317355" version="1" timestamp="2022-02-01T07:28:18Z" changeset="116853439" uid="3497659" user="NKA">
		<tag k="junction" v="yes" />
		<tag k="name" v="Finstadbru" />
		<tag k="ssr:stedsnr" v="725264" />
	</node>
	<node id="9465227415" lat="59.6811687" lon="11.8680582" version="1" timestamp="2022-02-01T07:28:18Z" changeset="116853439" uid="3497659" user="NKA">
		<tag k="name" v="Grevlingdråga" />
		<tag k="place" v="locality" />
		<tag k="ssr:stedsnr" v="293219" />
	</node>
	<node id="2379204716" lat="59.9333238" lon="11.4394868" version="2" timestamp="2022-02-01T07:28:18Z" changeset="116853439" uid="3497659" user="NKA" />
	<node id="2379204718" lat="59.9332272" lon="11.4391372" version="2" timestamp="2022-02-01T07:28:18Z" changeset="116853439" uid="3497659" user="NKA" />
	<node id="2379204719" lat="59.9333402" lon="11.4394986" version="2" timestamp="2022-02-01T07:28:18Z" changeset="116853439" uid="3497659" user="NKA" />
	<node id="2379204720" lat="59.9332348" lon="11.4390668" version="2" timestamp="2022-02-01T07:28:18Z" changeset="116853439" uid="3497659" user="NKA" />
	<node id="2379204721" lat="59.9333168" lon="11.4388692" version="2" timestamp="2022-02-01T07:28:18Z" changeset="116853439" uid="3497659" user="NKA" />
	<node id="2379204722" lat="59.9332932" lon="11.4394485" version="2" timestamp="2022-02-01T07:28:18Z" changeset="116853439" uid="3497659" user="NKA" />
	<node id="2379204724" lat="59.9332475" lon="11.4390132" version="2" timestamp="2022-02-01T07:28:18Z" changeset="116853439" uid="3497659" user="NKA" />
	<node id="2379204726" lat="59.9332537" lon="11.4389868" version="2" timestamp="2022-02-01T07:28:18Z" changeset="116853439" uid="3497659" user="NKA" />
	<node id="2379204728" lat="59.9332652" lon="11.4393937" version="2" timestamp="2022-02-01T07:28:18Z" changeset="116853439" uid="3497659" user="NKA" />
	<node id="2379204729" lat="59.9335495" lon="11.4389939" version="2" timestamp="2022-02-01T07:28:18Z" changeset="116853439" uid="3497659" user="NKA" />
	<node id="2379204732" lat="59.9335577" lon="11.4393191" version="2" timestamp="2022-02-01T07:28:18Z" changeset="116853439" uid="3497659" user="NKA" />
	<node id="2379204733" lat="59.9333514" lon="11.4388406" version="2" timestamp="2022-02-01T07:28:18Z" changeset="116853439" uid="3497659" user="NKA" />
	<node id="2379204735" lat="59.9332433" lon="11.4393248" version="2" timestamp="2022-02-01T07:28:18Z" changeset="116853439" uid="3497659" user="NKA" />
	<node id="2379204736" lat="59.9335747" lon="11.4391623" version="2" timestamp="2022-02-01T07:28:18Z" changeset="116853439" uid="3497659" user="NKA" />
	<node id="2379204737" lat="59.9333921" lon="11.4388269" version="2" timestamp="2022-02-01T07:28:18Z" changeset="116853439" uid="3497659" user="NKA" />
	<node id="2379204738" lat="59.9332285" lon="11.4392302" version="2" timestamp="2022-02-01T07:28:18Z" changeset="116853439" uid="3497659" user="NKA" />
	<node id="2379204739" lat="59.9335692" lon="11.4392619" version="2" timestamp="2022-02-01T07:28:18Z" changeset="116853439" uid="3497659" user="NKA" />
	<node id="2379204741" lat="59.9334341" lon="11.438833" version="2" timestamp="2022-02-01T07:28:18Z" changeset="116853439" uid="3497659" user="NKA" />
	<node id="2379204744" lat="59.9332811" lon="11.4389209" version="2" timestamp="2022-02-01T07:28:18Z" changeset="116853439" uid="3497659" user="NKA" />
	<node id="2379204750" lat="59.9335392" lon="11.4389688" version="2" timestamp="2022-02-01T07:28:18Z" changeset="116853439" uid="3497659" user="NKA" />
	<node id="2379204752" lat="59.9334811" lon="11.4388659" version="2" timestamp="2022-02-01T07:28:18Z" changeset="116853439" uid="3497659" user="NKA" />
	<node id="2379204754" lat="59.9335173" lon="11.4389161" version="2" timestamp="2022-02-01T07:28:18Z" changeset="116853439" uid="3497659" user="NKA" />
	<node id="2379204757" lat="59.9335525" lon="11.4393448" version="2" timestamp="2022-02-01T07:28:18Z" changeset="116853439" uid="3497659" user="NKA" />
	<node id="2379204759" lat="59.9334925" lon="11.4394699" version="2" timestamp="2022-02-01T07:28:18Z" changeset="116853439" uid="3497659" user="NKA" />
	<node id="2379204761" lat="59.9335674" lon="11.4390741" version="2" timestamp="2022-02-01T07:28:18Z" changeset="116853439" uid="3497659" user="NKA" />
	<node id="2379204762" lat="59.9334502" lon="11.4395079" version="2" timestamp="2022-02-01T07:28:18Z" changeset="116853439" uid="3497659" user="NKA" />
	<node id="2379204764" lat="59.9334016" lon="11.4395223" version="2" timestamp="2022-02-01T07:28:18Z" changeset="116853439" uid="3497659" user="NKA" />
	<node id="2379204766" lat="59.9335273" lon="11.4394133" version="2" timestamp="2022-02-01T07:28:18Z" changeset="116853439" uid="3497659" user="NKA" />
	<node id="2379204767" lat="59.9333594" lon="11.4395125" version="2" timestamp="2022-02-01T07:28:18Z" changeset="116853439" uid="3497659" user="NKA" />
	<node id="2379204768" lat="59.9335078" lon="11.439445" version="2" timestamp="2022-02-01T07:28:18Z" changeset="116853439" uid="3497659" user="NKA" />
	<node id="6233742176" lat="59.7720383" lon="11.8098414" version="1" timestamp="2019-01-24T17:15:39Z" changeset="66608366" uid="633013" user="Honning" />
	<node id="6233742177" lat="59.7725649" lon="11.8094069" version="1" timestamp="2019-01-24T17:15:39Z" changeset="66608366" uid="633013" user="Honning" />
	<node id="6233742178" lat="59.7737289" lon="11.8088543" version="1" timestamp="2019-01-24T17:15:39Z" changeset="66608366" uid="633013" user="Honning" />
	<node id="6233742179" lat="59.7740827" lon="11.8090475" version="1" timestamp="2019-01-24T17:15:39Z" changeset="66608366" uid="633013" user="Honning" />
	<node id="6233742180" lat="59.7745201" lon="11.8089241" version="1" timestamp="2019-01-24T17:15:39Z" changeset="66608366" uid="633013" user="Honning" />
	<node id="6233742181" lat="59.7746471" lon="11.8090796" version="1" timestamp="2019-01-24T17:15:39Z" changeset="66608366" uid="633013" user="Honning" />
	<node id="6233742172" lat="59.7744661" lon="11.8105978" version="1" timestamp="2019-01-24T17:15:39Z" changeset="66608366" uid="633013" user="Honning" />
	<node id="6233742173" lat="59.7736992" lon="11.8124324" version="1" timestamp="2019-01-24T17:15:39Z" changeset="66608366" uid="633013" user="Honning" />
	<node id="6233742174" lat="59.7726378" lon="11.8136233" version="1" timestamp="2019-01-24T17:15:39Z" changeset="66608366" uid="633013" user="Honning" />
	<node id="6233742175" lat="59.772303" lon="11.8121964" version="1" timestamp="2019-01-24T17:15:39Z" changeset="66608366" uid="633013" user="Honning" />
	<way id="229301527" version="6" timestamp="2022-02-01T07:28:18Z" changeset="116853439" uid="3497659" user="NKA">
		<tag k="highway" v="primary" />
		<tag k="junction" v="roundabout" />
		<tag k="lanes" v="1" />
		<tag k="maxspeed" v="60" />
		<tag k="name" v="Finstadkrysset" />
		<tag k="oneway" v="yes" />
		<tag k="ref" v="170" />
		<tag k="ssr:stedsnr" v="465965" />
		<tag k="surface" v="asphalt" />
		<nd ref="2379204736" />
		<nd ref="2379204761" />
		<nd ref="2379204729" />
		<nd ref="2379204750" />
		<nd ref="2379204754" />
		<nd ref="2379204752" />
		<nd ref="2379204741" />
		<nd ref="2379204737" />
		<nd ref="2379204733" />
		<nd ref="2379204721" />
		<nd ref="2379204744" />
		<nd ref="2379204726" />
		<nd ref="2379204724" />
		<nd ref="2379204720" />
		<nd ref="2379204718" />
		<nd ref="2379204738" />
		<nd ref="2379204735" />
		<nd ref="2379204728" />
		<nd ref="2379204722" />
		<nd ref="2379204716" />
		<nd ref="2379204719" />
		<nd ref="2379204767" />
		<nd ref="2379204764" />
		<nd ref="2379204762" />
		<nd ref="2379204759" />
		<nd ref="2379204768" />
		<nd ref="2379204766" />
		<nd ref="2379204757" />
		<nd ref="2379204732" />
		<nd ref="2379204739" />
		<nd ref="2379204736" />
	</way>
	<way id="665903546" version="1" timestamp="2019-01-24T17:15:39Z" changeset="66608366" uid="633013" user="Honning">
		<tag k="alt_name" v="Tjernmoen" />
		<tag k="landuse" v="industrial" />
		<tag k="name" v="Nedgropa" />
		<tag k="ssr:stedsnr" v="66398" />
		<nd ref="6233742181" />
		<nd ref="6233742180" />
		<nd ref="6233742179" />
		<nd ref="6233742178" />
		<nd ref="6233742177" />
		<nd ref="6233742176" />
		<nd ref="6233742175" />
		<nd ref="6233742174" />
		<nd ref="6233742173" />
		<nd ref="6233742172" />
		<nd ref="6233742181" />
	</way>
</osm>
