<?xml version="1.0" encoding="UTF-8"?>
<osm version="0.6" generator="osmapis">
	<node lat="62.30431351017574" lon="5.654270557356369" id="-6009">
		<tag k="name" v="Steinsholmskjeret" />
		<tag k="ssr:date" v="2020-09-08" />
		<tag k="ssr:gruppe" v="navigasjon" />
		<tag k="ssr:hovedgruppe" v="infrastruktur" />
		<tag k="ssr:stedsnr" v="10545" />
		<tag k="ssr:type" v="fyrlykt" />
	</node>
	<node lat="62.29480277656483" lon="5.537933326806783" id="-6022">
		<tag k="name" v="Kråkedjupet" />
		<tag k="ssr:date" v="2016-05-10" />
		<tag k="ssr:gruppe" v="sjøbunn" />
		<tag k="ssr:hovedgruppe" v="sjø" />
		<tag k="ssr:stedsnr" v="234716" />
		<tag k="ssr:type" v="havdyp" />
	</node>
	<node lat="62.329330987466214" lon="5.700568792505678" id="-6029">
		<tag k="name" v="Frøystadtoppen" />
		<tag k="ssr:date" v="2019-05-31" />
		<tag k="ssr:gruppe" v="veg" />
		<tag k="ssr:hovedgruppe" v="infrastruktur" />
		<tag k="ssr:stedsnr" v="237523" />
		<tag k="ssr:type" v="adressenavn" />
	</node>
	<node lat="62.408511106810415" lon="5.468225001164129" id="-6044">
		<tag k="name" v="Geitmardjupet" />
		<tag k="ssr:date" v="2016-05-10" />
		<tag k="ssr:gruppe" v="sjøbunn" />
		<tag k="ssr:hovedgruppe" v="sjø" />
		<tag k="ssr:stedsnr" v="71707" />
		<tag k="ssr:type" v="havdyp" />
	</node>
	<node lat="62.33515717339211" lon="5.673435606390575" id="-6066">
		<tag k="name" v="Bergsneset" />
		<tag k="ssr:date" v="2019-05-31" />
		<tag k="ssr:gruppe" v="veg" />
		<tag k="ssr:hovedgruppe" v="infrastruktur" />
		<tag k="ssr:stedsnr" v="100959" />
		<tag k="ssr:type" v="adressenavn" />
	</node>
	<node lat="62.332027325248575" lon="5.665352052081377" id="-6067">
		<tag k="name" v="Verket" />
		<tag k="ssr:date" v="2019-05-31" />
		<tag k="ssr:gruppe" v="veg" />
		<tag k="ssr:hovedgruppe" v="infrastruktur" />
		<tag k="ssr:stedsnr" v="100975" />
		<tag k="ssr:type" v="adressenavn" />
	</node>
	<node lat="62.294014062728436" lon="5.712899986230598" id="-6069">
		<tag k="name" v="Sandvikvegen" />
		<tag k="ssr:date" v="2019-05-31" />
		<tag k="ssr:gruppe" v="veg" />
		<tag k="ssr:hovedgruppe" v="infrastruktur" />
		<tag k="ssr:stedsnr" v="101448" />
		<tag k="ssr:type" v="adressenavn" />
	</node>
	<node lat="62.3453145303728" lon="5.600642708205129" id="-6070">
		<tag k="name" v="Teigelia" />
		<tag k="ssr:date" v="2019-05-31" />
		<tag k="ssr:gruppe" v="veg" />
		<tag k="ssr:hovedgruppe" v="infrastruktur" />
		<tag k="ssr:stedsnr" v="101449" />
		<tag k="ssr:type" v="adressenavn" />
	</node>
	<node lat="62.322918012660466" lon="5.688696329086677" id="-6071">
		<tag k="name" v="Skinnesvegen" />
		<tag k="ssr:date" v="2019-05-31" />
		<tag k="ssr:gruppe" v="veg" />
		<tag k="ssr:hovedgruppe" v="infrastruktur" />
		<tag k="ssr:stedsnr" v="101479" />
		<tag k="ssr:type" v="adressenavn" />
	</node>
	<node lat="62.33018596992656" lon="5.70551078750319" id="-6072">
		<tag k="name" v="Grønfjellsvegen" />
		<tag k="ssr:date" v="2019-05-31" />
		<tag k="ssr:gruppe" v="veg" />
		<tag k="ssr:hovedgruppe" v="infrastruktur" />
		<tag k="ssr:stedsnr" v="101481" />
		<tag k="ssr:type" v="adressenavn" />
	</node>
	<node lat="62.40458888774816" lon="5.624380565153656" id="-6085">
		<tag k="name" v="Goksøyr" />
		<tag k="ssr:date" v="2016-05-10" />
		<tag k="ssr:gruppe" v="navigasjon" />
		<tag k="ssr:hovedgruppe" v="infrastruktur" />
		<tag k="ssr:stedsnr" v="132670" />
		<tag k="ssr:type" v="fyrlykt" />
	</node>
	<node lat="62.73392710705581" lon="7.14918030614603" id="-6105">
		<tag k="alt_name" v="Møre og Romsdal" />
		<tag k="name" v="Møre og Romsdal fylke" />
		<tag k="ssr:date" v="2021-09-21" />
		<tag k="ssr:gruppe" v="administrativeIndelinger" />
		<tag k="ssr:hovedgruppe" v="offentligAdministrasjon" />
		<tag k="ssr:stedsnr" v="145583" />
		<tag k="ssr:type" v="fylke" />
	</node>
	<node lat="62.24209657810833" lon="5.783281917364616" id="-6126">
		<tag k="name" v="Feirelivegen" />
		<tag k="ssr:date" v="2019-05-31" />
		<tag k="ssr:gruppe" v="veg" />
		<tag k="ssr:hovedgruppe" v="infrastruktur" />
		<tag k="ssr:stedsnr" v="222972" />
		<tag k="ssr:type" v="adressenavn" />
	</node>
	<node lat="62.337732028693914" lon="5.636573078757655" id="-6127">
		<tag k="name" v="Pettervågen" />
		<tag k="ssr:date" v="2019-05-31" />
		<tag k="ssr:gruppe" v="veg" />
		<tag k="ssr:hovedgruppe" v="infrastruktur" />
		<tag k="ssr:stedsnr" v="222976" />
		<tag k="ssr:type" v="adressenavn" />
	</node>
	<node lat="62.328668821891945" lon="5.6539725854132" id="-6128">
		<tag k="name" v="Gjerdet" />
		<tag k="ssr:date" v="2019-05-31" />
		<tag k="ssr:gruppe" v="veg" />
		<tag k="ssr:hovedgruppe" v="infrastruktur" />
		<tag k="ssr:stedsnr" v="222990" />
		<tag k="ssr:type" v="adressenavn" />
	</node>
	<node lat="62.36352689557186" lon="5.676196668661088" id="-6157">
		<tag k="name" v="Remøy" />
		<tag k="ssr:date" v="2019-05-31" />
		<tag k="ssr:gruppe" v="veg" />
		<tag k="ssr:hovedgruppe" v="infrastruktur" />
		<tag k="ssr:stedsnr" v="283403" />
		<tag k="ssr:type" v="adressenavn" />
	</node>
	<node lat="62.3609645096921" lon="5.637823281210734" id="-6158">
		<tag k="name" v="Sævik" />
		<tag k="ssr:date" v="2019-05-31" />
		<tag k="ssr:gruppe" v="veg" />
		<tag k="ssr:hovedgruppe" v="infrastruktur" />
		<tag k="ssr:stedsnr" v="283407" />
		<tag k="ssr:type" v="adressenavn" />
	</node>
	<node lat="62.29255476026375" lon="5.715361880886668" id="-6162">
		<tag k="name" v="Sandvika" />
		<tag k="ssr:date" v="2019-05-31" />
		<tag k="ssr:gruppe" v="veg" />
		<tag k="ssr:hovedgruppe" v="infrastruktur" />
		<tag k="ssr:stedsnr" v="283390" />
		<tag k="ssr:type" v="adressenavn" />
	</node>
	<node lat="62.328162506360016" lon="5.6320175553307825" id="-6180">
		<tag k="name" v="Storetua" />
		<tag k="ssr:date" v="2019-05-31" />
		<tag k="ssr:gruppe" v="veg" />
		<tag k="ssr:hovedgruppe" v="infrastruktur" />
		<tag k="ssr:stedsnr" v="298075" />
		<tag k="ssr:type" v="adressenavn" />
	</node>
	<node lat="62.3311790479641" lon="5.636251568199803" id="-6181">
		<tag k="name" v="Mikkelhaugen" />
		<tag k="ssr:date" v="2019-05-31" />
		<tag k="ssr:gruppe" v="veg" />
		<tag k="ssr:hovedgruppe" v="infrastruktur" />
		<tag k="ssr:stedsnr" v="298078" />
		<tag k="ssr:type" v="adressenavn" />
	</node>
	<node lat="62.333428134580764" lon="5.658726286682118" id="-6183">
		<tag k="name" v="Bergsvegen" />
		<tag k="ssr:date" v="2019-05-31" />
		<tag k="ssr:gruppe" v="veg" />
		<tag k="ssr:hovedgruppe" v="infrastruktur" />
		<tag k="ssr:stedsnr" v="300009" />
		<tag k="ssr:type" v="adressenavn" />
	</node>
	<node lat="62.322677748160956" lon="5.630586181321253" id="-6186">
		<tag k="name" v="Toftestøvegen" />
		<tag k="ssr:date" v="2019-05-31" />
		<tag k="ssr:gruppe" v="veg" />
		<tag k="ssr:hovedgruppe" v="infrastruktur" />
		<tag k="ssr:stedsnr" v="464893" />
		<tag k="ssr:type" v="adressenavn" />
	</node>
	<node lat="62.3224814216528" lon="5.634817147096062" id="-6200">
		<tag k="name" v="Grønhaugvegen" />
		<tag k="ssr:date" v="2019-05-31" />
		<tag k="ssr:gruppe" v="veg" />
		<tag k="ssr:hovedgruppe" v="infrastruktur" />
		<tag k="ssr:stedsnr" v="343912" />
		<tag k="ssr:type" v="adressenavn" />
	</node>
	<node lat="62.33094352369474" lon="5.654202559792615" id="-6201">
		<tag k="name" v="Grusholvegen" />
		<tag k="ssr:date" v="2019-05-31" />
		<tag k="ssr:gruppe" v="veg" />
		<tag k="ssr:hovedgruppe" v="infrastruktur" />
		<tag k="ssr:stedsnr" v="343997" />
		<tag k="ssr:type" v="adressenavn" />
	</node>
	<node lat="62.31559967892766" lon="5.582395423731792" id="-6217">
		<tag k="alt_name" v="Flåvær" />
		<tag k="name" v="Flåvær fyr" />
		<tag k="ssr:date" v="2019-02-12" />
		<tag k="ssr:gruppe" v="navigasjon" />
		<tag k="ssr:hovedgruppe" v="infrastruktur" />
		<tag k="ssr:stedsnr" v="375535" />
		<tag k="ssr:type" v="fyrstasjon" />
	</node>
	<node lat="62.34230029576494" lon="5.631214423404249" id="-6232">
		<tag k="name" v="Holmefjordvegen" />
		<tag k="ssr:date" v="2019-05-31" />
		<tag k="ssr:gruppe" v="veg" />
		<tag k="ssr:hovedgruppe" v="infrastruktur" />
		<tag k="ssr:stedsnr" v="419088" />
		<tag k="ssr:type" v="adressenavn" />
	</node>
	<node lat="62.326487795762155" lon="5.6373377705796965" id="-6233">
		<tag k="name" v="Myklebustvegen" />
		<tag k="ssr:date" v="2019-05-31" />
		<tag k="ssr:gruppe" v="veg" />
		<tag k="ssr:hovedgruppe" v="infrastruktur" />
		<tag k="ssr:stedsnr" v="419089" />
		<tag k="ssr:type" v="adressenavn" />
	</node>
	<node lat="62.29877360633769" lon="5.750051412032769" id="-6243">
		<tag k="name" v="Bymannen" />
		<tag k="ssr:date" v="2020-09-08" />
		<tag k="ssr:gruppe" v="navigasjon" />
		<tag k="ssr:hovedgruppe" v="infrastruktur" />
		<tag k="ssr:stedsnr" v="436754" />
		<tag k="ssr:type" v="fyrlykt" />
	</node>
	<node lat="62.325688894556436" lon="5.644051104514373" id="-6254">
		<tag k="name" v="Sjukeheimsvegen" />
		<tag k="ssr:date" v="2019-05-31" />
		<tag k="ssr:gruppe" v="veg" />
		<tag k="ssr:hovedgruppe" v="infrastruktur" />
		<tag k="ssr:stedsnr" v="464903" />
		<tag k="ssr:type" v="adressenavn" />
	</node>
	<node lat="62.22503840656919" lon="5.788242328203323" id="-6255">
		<tag k="name" v="Jøsokbakken" />
		<tag k="ssr:date" v="2019-05-31" />
		<tag k="ssr:gruppe" v="veg" />
		<tag k="ssr:hovedgruppe" v="infrastruktur" />
		<tag k="ssr:stedsnr" v="465465" />
		<tag k="ssr:type" v="adressenavn" />
	</node>
	<node lat="62.28009936427608" lon="5.819125561852766" id="-6256">
		<tag k="name" v="Nedre Dragsund" />
		<tag k="ssr:date" v="2019-05-31" />
		<tag k="ssr:gruppe" v="veg" />
		<tag k="ssr:hovedgruppe" v="infrastruktur" />
		<tag k="ssr:stedsnr" v="465470" />
		<tag k="ssr:type" v="adressenavn" />
	</node>
	<node lat="62.24561480739408" lon="5.781936285527861" id="-6257">
		<tag k="name" v="Botnevegen" />
		<tag k="ssr:date" v="2019-05-31" />
		<tag k="ssr:gruppe" v="veg" />
		<tag k="ssr:hovedgruppe" v="infrastruktur" />
		<tag k="ssr:stedsnr" v="465478" />
		<tag k="ssr:type" v="adressenavn" />
	</node>
	<node lat="62.224204041955375" lon="5.8005162421259815" id="-6258">
		<tag k="name" v="Rosskarvegen" />
		<tag k="ssr:date" v="2019-05-31" />
		<tag k="ssr:gruppe" v="veg" />
		<tag k="ssr:hovedgruppe" v="infrastruktur" />
		<tag k="ssr:stedsnr" v="465479" />
		<tag k="ssr:type" v="adressenavn" />
	</node>
	<node lat="62.33471795926561" lon="5.6535537284048045" id="-6266">
		<tag k="name" v="Nedre Bergslia" />
		<tag k="ssr:date" v="2019-05-31" />
		<tag k="ssr:gruppe" v="veg" />
		<tag k="ssr:hovedgruppe" v="infrastruktur" />
		<tag k="ssr:stedsnr" v="482006" />
		<tag k="ssr:type" v="adressenavn" />
	</node>
	<node lat="62.33319099955463" lon="5.723448207463208" id="-6310">
		<tag k="name" v="Steinsvikvegen" />
		<tag k="ssr:date" v="2019-05-31" />
		<tag k="ssr:gruppe" v="veg" />
		<tag k="ssr:hovedgruppe" v="infrastruktur" />
		<tag k="ssr:stedsnr" v="525471" />
		<tag k="ssr:type" v="adressenavn" />
	</node>
	<node lat="62.33891075445428" lon="5.636698527594894" id="-6311">
		<tag k="name" v="Hennabakken" />
		<tag k="ssr:date" v="2019-05-31" />
		<tag k="ssr:gruppe" v="veg" />
		<tag k="ssr:hovedgruppe" v="infrastruktur" />
		<tag k="ssr:stedsnr" v="525978" />
		<tag k="ssr:type" v="adressenavn" />
	</node>
	<node lat="62.33809544601678" lon="5.635401694847101" id="-6312">
		<tag k="name" v="Jordmor Helgas veg" />
		<tag k="ssr:date" v="2019-05-31" />
		<tag k="ssr:gruppe" v="veg" />
		<tag k="ssr:hovedgruppe" v="infrastruktur" />
		<tag k="ssr:stedsnr" v="525979" />
		<tag k="ssr:type" v="adressenavn" />
	</node>
	<node lat="62.37774960883728" lon="5.628126004946387" id="-6322">
		<tag k="name" v="Rundesund" />
		<tag k="ssr:date" v="2020-09-08" />
		<tag k="ssr:gruppe" v="navigasjon" />
		<tag k="ssr:hovedgruppe" v="infrastruktur" />
		<tag k="ssr:stedsnr" v="556664" />
		<tag k="ssr:type" v="fyrlykt" />
	</node>
	<node lat="62.32346271058504" lon="5.645389756431629" id="-6344">
		<tag k="name" v="Evangervegen" />
		<tag k="ssr:date" v="2019-05-31" />
		<tag k="ssr:gruppe" v="veg" />
		<tag k="ssr:hovedgruppe" v="infrastruktur" />
		<tag k="ssr:stedsnr" v="585891" />
		<tag k="ssr:type" v="adressenavn" />
	</node>
	<node lat="62.27199246147234" lon="5.825839134078706" id="-6346">
		<tag k="name" v="Hestholmen" />
		<tag k="ssr:date" v="2019-05-31" />
		<tag k="ssr:gruppe" v="veg" />
		<tag k="ssr:hovedgruppe" v="infrastruktur" />
		<tag k="ssr:stedsnr" v="586497" />
		<tag k="ssr:type" v="adressenavn" />
	</node>
	<node lat="62.32793672782538" lon="5.633673592303651" id="-6347">
		<tag k="name" v="Øvre Myklebust" />
		<tag k="ssr:date" v="2019-05-31" />
		<tag k="ssr:gruppe" v="veg" />
		<tag k="ssr:hovedgruppe" v="infrastruktur" />
		<tag k="ssr:stedsnr" v="601055" />
		<tag k="ssr:type" v="adressenavn" />
	</node>
	<node lat="62.349483523363126" lon="5.679939515023428" id="-6388">
		<tag k="name" v="Leitet" />
		<tag k="ssr:date" v="2019-05-31" />
		<tag k="ssr:gruppe" v="veg" />
		<tag k="ssr:hovedgruppe" v="infrastruktur" />
		<tag k="ssr:stedsnr" v="646429" />
		<tag k="ssr:type" v="adressenavn" />
	</node>
	<node lat="62.32273481834752" lon="5.672668411781283" id="-6391">
		<tag k="name" v="Mjølstadnesvegen" />
		<tag k="ssr:date" v="2019-05-31" />
		<tag k="ssr:gruppe" v="veg" />
		<tag k="ssr:hovedgruppe" v="infrastruktur" />
		<tag k="ssr:stedsnr" v="707987" />
		<tag k="ssr:type" v="adressenavn" />
	</node>
	<node lat="62.333714672897834" lon="5.660178867809884" id="-6396">
		<tag k="name" v="Rabbegjerdet" />
		<tag k="ssr:date" v="2019-05-31" />
		<tag k="ssr:gruppe" v="veg" />
		<tag k="ssr:hovedgruppe" v="infrastruktur" />
		<tag k="ssr:stedsnr" v="664007" />
		<tag k="ssr:type" v="adressenavn" />
	</node>
	<node lat="62.58333333393754" lon="5.229166659389737" id="-6398">
		<tag k="name" v="Vestre Kroken" />
		<tag k="ssr:date" v="2019-09-12" />
		<tag k="ssr:gruppe" v="sjøbunn" />
		<tag k="ssr:hovedgruppe" v="sjø" />
		<tag k="ssr:stedsnr" v="709663" />
		<tag k="ssr:type" v="undersjøiskVegg" />
	</node>
	<node lat="62.55333333432911" lon="5.483333340651388" id="-6399">
		<tag k="name" v="Flåskallen" />
		<tag k="ssr:date" v="2019-09-12" />
		<tag k="ssr:gruppe" v="sjøbunn" />
		<tag k="ssr:hovedgruppe" v="sjø" />
		<tag k="ssr:stedsnr" v="709665" />
		<tag k="ssr:type" v="bakketoppISjø" />
	</node>
	<node lat="62.34317029190407" lon="5.696619338772992" id="-6401">
		<tag k="name" v="Leine" />
		<tag k="ssr:date" v="2019-05-31" />
		<tag k="ssr:gruppe" v="veg" />
		<tag k="ssr:hovedgruppe" v="infrastruktur" />
		<tag k="ssr:stedsnr" v="890481" />
		<tag k="ssr:type" v="adressenavn" />
	</node>
	<node lat="62.283640837954785" lon="5.798765701330078" id="-6426">
		<tag k="name" v="Skyttenesvegen" />
		<tag k="ssr:date" v="2019-05-31" />
		<tag k="ssr:gruppe" v="veg" />
		<tag k="ssr:hovedgruppe" v="infrastruktur" />
		<tag k="ssr:stedsnr" v="708466" />
		<tag k="ssr:type" v="adressenavn" />
	</node>
	<node lat="62.2954866696546" lon="5.679474372640049" id="-6427">
		<tag k="name" v="Munkestranda" />
		<tag k="ssr:date" v="2019-05-31" />
		<tag k="ssr:gruppe" v="veg" />
		<tag k="ssr:hovedgruppe" v="infrastruktur" />
		<tag k="ssr:stedsnr" v="708469" />
		<tag k="ssr:type" v="adressenavn" />
	</node>
	<node lat="62.32875975024376" lon="5.632337961345259" id="-6434">
		<tag k="name" v="Gamle Myklebustveg" />
		<tag k="ssr:date" v="2019-05-31" />
		<tag k="ssr:gruppe" v="veg" />
		<tag k="ssr:hovedgruppe" v="infrastruktur" />
		<tag k="ssr:stedsnr" v="723069" />
		<tag k="ssr:type" v="adressenavn" />
	</node>
	<node lat="62.32974151576368" lon="5.632225780213334" id="-6435">
		<tag k="name" v="Dalavegen" />
		<tag k="ssr:date" v="2019-05-31" />
		<tag k="ssr:gruppe" v="veg" />
		<tag k="ssr:hovedgruppe" v="infrastruktur" />
		<tag k="ssr:stedsnr" v="723070" />
		<tag k="ssr:type" v="adressenavn" />
	</node>
	<node lat="62.33347229126079" lon="5.659320714320941" id="-6438">
		<tag k="name" v="Sletteholmyra" />
		<tag k="ssr:date" v="2019-05-31" />
		<tag k="ssr:gruppe" v="veg" />
		<tag k="ssr:hovedgruppe" v="infrastruktur" />
		<tag k="ssr:stedsnr" v="725023" />
		<tag k="ssr:type" v="adressenavn" />
	</node>
	<node lat="62.35817599268452" lon="5.6147650212527545" id="-6444">
		<tag k="name" v="Grønholmen" />
		<tag k="ssr:date" v="2020-09-08" />
		<tag k="ssr:gruppe" v="navigasjon" />
		<tag k="ssr:hovedgruppe" v="infrastruktur" />
		<tag k="ssr:stedsnr" v="739627" />
		<tag k="ssr:type" v="fyrlykt" />
	</node>
	<node lat="62.39663055883602" lon="5.662805559429647" id="-6448">
		<tag k="name" v="Runde molo" />
		<tag k="ssr:date" v="2016-05-11" />
		<tag k="ssr:gruppe" v="navigasjon" />
		<tag k="ssr:hovedgruppe" v="infrastruktur" />
		<tag k="ssr:stedsnr" v="739649" />
		<tag k="ssr:type" v="fyrlykt" />
	</node>
	<node lat="62.33725476469319" lon="5.61203412579006" id="-6454">
		<tag k="name" v="Igesundvegen" />
		<tag k="ssr:date" v="2019-05-31" />
		<tag k="ssr:gruppe" v="veg" />
		<tag k="ssr:hovedgruppe" v="infrastruktur" />
		<tag k="ssr:stedsnr" v="907028" />
		<tag k="ssr:type" v="adressenavn" />
	</node>
	<node lat="62.278782972355216" lon="5.825681342053057" id="-6471">
		<tag k="name" v="Myrvågvegen" />
		<tag k="ssr:date" v="2019-05-31" />
		<tag k="ssr:gruppe" v="veg" />
		<tag k="ssr:hovedgruppe" v="infrastruktur" />
		<tag k="ssr:stedsnr" v="768420" />
		<tag k="ssr:type" v="adressenavn" />
	</node>
	<node lat="62.322851813284416" lon="5.631204129186804" id="-6473">
		<tag k="name" v="Nedre Sørlia" />
		<tag k="ssr:date" v="2019-05-31" />
		<tag k="ssr:gruppe" v="veg" />
		<tag k="ssr:hovedgruppe" v="infrastruktur" />
		<tag k="ssr:stedsnr" v="768902" />
		<tag k="ssr:type" v="adressenavn" />
	</node>
	<node lat="62.340653324554886" lon="5.629912872162459" id="-6475">
		<tag k="name" v="Tollåsbakken" />
		<tag k="ssr:date" v="2019-05-31" />
		<tag k="ssr:gruppe" v="veg" />
		<tag k="ssr:hovedgruppe" v="infrastruktur" />
		<tag k="ssr:stedsnr" v="783057" />
		<tag k="ssr:type" v="adressenavn" />
	</node>
	<node lat="62.3369159916152" lon="5.627624906438961" id="-6505">
		<tag k="name" v="Huldalsvegen" />
		<tag k="ssr:date" v="2019-05-31" />
		<tag k="ssr:gruppe" v="veg" />
		<tag k="ssr:hovedgruppe" v="infrastruktur" />
		<tag k="ssr:stedsnr" v="829974" />
		<tag k="ssr:type" v="adressenavn" />
	</node>
	<node lat="62.27624240590738" lon="5.805278866057308" id="-6527">
		<tag k="name" v="Dragsundvegen" />
		<tag k="ssr:date" v="2019-05-31" />
		<tag k="ssr:gruppe" v="veg" />
		<tag k="ssr:hovedgruppe" v="infrastruktur" />
		<tag k="ssr:stedsnr" v="890515" />
		<tag k="ssr:type" v="adressenavn" />
	</node>
	<node lat="62.36854724260466" lon="5.668712777016494" id="-6556">
		<tag k="name" v="Myrane" />
		<tag k="ssr:date" v="2019-05-31" />
		<tag k="ssr:gruppe" v="veg" />
		<tag k="ssr:hovedgruppe" v="infrastruktur" />
		<tag k="ssr:stedsnr" v="950441" />
		<tag k="ssr:type" v="adressenavn" />
	</node>
	<node lat="62.23794174978326" lon="5.7771584346344325" id="-6558">
		<tag k="name" v="Blikhamrane" />
		<tag k="ssr:date" v="2019-05-31" />
		<tag k="ssr:gruppe" v="veg" />
		<tag k="ssr:hovedgruppe" v="infrastruktur" />
		<tag k="ssr:stedsnr" v="950977" />
		<tag k="ssr:type" v="adressenavn" />
	</node>
	<node lat="62.32375511259851" lon="5.647383621275827" id="-6559">
		<tag k="name" v="Eggesbøvegen" />
		<tag k="ssr:date" v="2019-05-31" />
		<tag k="ssr:gruppe" v="veg" />
		<tag k="ssr:hovedgruppe" v="infrastruktur" />
		<tag k="ssr:stedsnr" v="950878" />
		<tag k="ssr:type" v="adressenavn" />
	</node>
	<node lat="62.34091995864751" lon="5.63378982761378" id="-6562">
		<tag k="name" v="Rådhusgata" />
		<tag k="ssr:date" v="2019-05-31" />
		<tag k="ssr:gruppe" v="veg" />
		<tag k="ssr:hovedgruppe" v="infrastruktur" />
		<tag k="ssr:stedsnr" v="965088" />
		<tag k="ssr:type" v="adressenavn" />
	</node>
	<node lat="62.336587764345396" lon="5.6589252536061005" id="-6564">
		<tag k="name" v="Øvre Bergslia" />
		<tag k="ssr:date" v="2019-05-31" />
		<tag k="ssr:gruppe" v="veg" />
		<tag k="ssr:hovedgruppe" v="infrastruktur" />
		<tag k="ssr:stedsnr" v="967021" />
		<tag k="ssr:type" v="adressenavn" />
	</node>
	<node lat="62.363910358483146" lon="5.5603622473563235" id="-6587">
		<tag k="name" v="Kvalsvik molo" />
		<tag k="ssr:date" v="2020-09-01" />
		<tag k="ssr:gruppe" v="navigasjon" />
		<tag k="ssr:hovedgruppe" v="infrastruktur" />
		<tag k="ssr:stedsnr" v="11627" />
		<tag k="ssr:type" v="lanterne" />
	</node>
	<node lat="62.41294007070436" lon="5.586879097826883" id="-6598">
		<tag k="alt_name" v="Runde" />
		<tag k="name" v="Runde fyr" />
		<tag k="ssr:date" v="2019-02-12" />
		<tag k="ssr:gruppe" v="navigasjon" />
		<tag k="ssr:hovedgruppe" v="infrastruktur" />
		<tag k="ssr:stedsnr" v="11666" />
		<tag k="ssr:type" v="fyrstasjon" />
	</node>
	<node lat="62.27836582067433" lon="5.802713344092575" id="-6617">
		<tag k="name" v="Myrvågtoppen" />
		<tag k="ssr:date" v="2019-05-31" />
		<tag k="ssr:gruppe" v="veg" />
		<tag k="ssr:hovedgruppe" v="infrastruktur" />
		<tag k="ssr:stedsnr" v="40459" />
		<tag k="ssr:type" v="adressenavn" />
	</node>
	<node lat="62.324722002321565" lon="5.626301528801711" id="-6621">
		<tag k="name" v="Øvre Sørlia" />
		<tag k="ssr:date" v="2019-05-31" />
		<tag k="ssr:gruppe" v="veg" />
		<tag k="ssr:hovedgruppe" v="infrastruktur" />
		<tag k="ssr:stedsnr" v="40902" />
		<tag k="ssr:type" v="adressenavn" />
	</node>
	<node lat="62.3254071320839" lon="5.661038283222705" id="-6622">
		<tag k="name" v="Gjertnesvegen" />
		<tag k="ssr:date" v="2019-05-31" />
		<tag k="ssr:gruppe" v="veg" />
		<tag k="ssr:hovedgruppe" v="infrastruktur" />
		<tag k="ssr:stedsnr" v="40999" />
		<tag k="ssr:type" v="adressenavn" />
	</node>
	<node lat="62.33308180592952" lon="5.635574403395121" id="-6626">
		<tag k="name" v="Solbakkvegen" />
		<tag k="ssr:date" v="2019-05-31" />
		<tag k="ssr:gruppe" v="veg" />
		<tag k="ssr:hovedgruppe" v="infrastruktur" />
		<tag k="ssr:stedsnr" v="55070" />
		<tag k="ssr:type" v="adressenavn" />
	</node>
	<node lat="62.3284954282229" lon="5.632486915705925" id="-6627">
		<tag k="name" v="Storebakken" />
		<tag k="ssr:date" v="2019-05-31" />
		<tag k="ssr:gruppe" v="veg" />
		<tag k="ssr:hovedgruppe" v="infrastruktur" />
		<tag k="ssr:stedsnr" v="55072" />
		<tag k="ssr:type" v="adressenavn" />
	</node>
	<node lat="62.33624770645857" lon="5.655992749130277" id="-6629">
		<tag k="name" v="Lisjeheida" />
		<tag k="ssr:date" v="2019-05-31" />
		<tag k="ssr:gruppe" v="veg" />
		<tag k="ssr:hovedgruppe" v="infrastruktur" />
		<tag k="ssr:stedsnr" v="58029" />
		<tag k="ssr:type" v="adressenavn" />
	</node>
	<node lat="62.32230721458081" lon="5.644002878214135" id="-6630">
		<tag k="name" v="Storesteinråsa" />
		<tag k="ssr:date" v="2019-05-31" />
		<tag k="ssr:gruppe" v="veg" />
		<tag k="ssr:hovedgruppe" v="infrastruktur" />
		<tag k="ssr:stedsnr" v="58035" />
		<tag k="ssr:type" v="adressenavn" />
	</node>
	<node lat="62.32229183739054" lon="5.642708966861816" id="-6631">
		<tag k="name" v="Markvegen" />
		<tag k="ssr:date" v="2019-05-31" />
		<tag k="ssr:gruppe" v="veg" />
		<tag k="ssr:hovedgruppe" v="infrastruktur" />
		<tag k="ssr:stedsnr" v="58037" />
		<tag k="ssr:type" v="adressenavn" />
	</node>
	<node lat="62.32864047964901" lon="5.592132005165276" id="-6639">
		<tag k="name" v="Kyrkjeholmen" />
		<tag k="ssr:date" v="2020-09-08" />
		<tag k="ssr:gruppe" v="navigasjon" />
		<tag k="ssr:hovedgruppe" v="infrastruktur" />
		<tag k="ssr:stedsnr" v="72557" />
		<tag k="ssr:type" v="fyrlykt" />
	</node>
	<node lat="62.337794620034614" lon="5.636361184387552" id="-6659">
		<tag k="name" v="Nørvågvegen" />
		<tag k="ssr:date" v="2019-05-31" />
		<tag k="ssr:gruppe" v="veg" />
		<tag k="ssr:hovedgruppe" v="infrastruktur" />
		<tag k="ssr:stedsnr" v="100982" />
		<tag k="ssr:type" v="adressenavn" />
	</node>
	<node lat="62.27946315116182" lon="5.813865935111238" id="-6660">
		<tag k="name" v="Dragsundflata" />
		<tag k="ssr:date" v="2019-05-31" />
		<tag k="ssr:gruppe" v="veg" />
		<tag k="ssr:hovedgruppe" v="infrastruktur" />
		<tag k="ssr:stedsnr" v="101485" />
		<tag k="ssr:type" v="adressenavn" />
	</node>
	<node lat="62.341685539822336" lon="5.633858806742034" id="-6665">
		<tag k="name" v="Holmsildgata" />
		<tag k="ssr:date" v="2019-05-31" />
		<tag k="ssr:gruppe" v="veg" />
		<tag k="ssr:hovedgruppe" v="infrastruktur" />
		<tag k="ssr:stedsnr" v="116086" />
		<tag k="ssr:type" v="adressenavn" />
	</node>
	<node lat="62.3194888881013" lon="5.622094443616421" id="-6697">
		<tag k="name" v="Vikedjupet" />
		<tag k="ssr:date" v="2016-05-10" />
		<tag k="ssr:gruppe" v="sjøbunn" />
		<tag k="ssr:hovedgruppe" v="sjø" />
		<tag k="ssr:stedsnr" v="158334" />
		<tag k="ssr:type" v="søkkISjø" />
	</node>
	<node lat="62.27999654908861" lon="5.767905763713127" id="-6711">
		<tag k="name" v="Aurvågvegen" />
		<tag k="ssr:date" v="2019-05-31" />
		<tag k="ssr:gruppe" v="veg" />
		<tag k="ssr:hovedgruppe" v="infrastruktur" />
		<tag k="ssr:stedsnr" v="161433" />
		<tag k="ssr:type" v="adressenavn" />
	</node>
	<node lat="62.33690037151768" lon="5.627876896877105" id="-6714">
		<tag k="name" v="Bernmarka" />
		<tag k="ssr:date" v="2019-05-31" />
		<tag k="ssr:gruppe" v="veg" />
		<tag k="ssr:hovedgruppe" v="infrastruktur" />
		<tag k="ssr:stedsnr" v="161977" />
		<tag k="ssr:type" v="adressenavn" />
	</node>
	<node lat="62.323602172149975" lon="5.64866247942402" id="-6715">
		<tag k="name" v="Breidnesvegen" />
		<tag k="ssr:date" v="2019-05-31" />
		<tag k="ssr:gruppe" v="veg" />
		<tag k="ssr:hovedgruppe" v="infrastruktur" />
		<tag k="ssr:stedsnr" v="161985" />
		<tag k="ssr:type" v="adressenavn" />
	</node>
	<node lat="62.334591231115006" lon="5.63550412649062" id="-6723">
		<tag k="name" v="Vågsgata" />
		<tag k="ssr:date" v="2019-05-31" />
		<tag k="ssr:gruppe" v="veg" />
		<tag k="ssr:hovedgruppe" v="infrastruktur" />
		<tag k="ssr:stedsnr" v="177044" />
		<tag k="ssr:type" v="adressenavn" />
	</node>
	<node lat="62.34095696373498" lon="5.63220000539461" id="-6725">
		<tag k="name" v="Kjøpmannsgata" />
		<tag k="ssr:date" v="2019-05-31" />
		<tag k="ssr:gruppe" v="veg" />
		<tag k="ssr:hovedgruppe" v="infrastruktur" />
		<tag k="ssr:stedsnr" v="179020" />
		<tag k="ssr:type" v="adressenavn" />
	</node>
	<node lat="62.334882089004104" lon="5.685248320191625" id="-6726">
		<tag k="name" v="Leinevegen" />
		<tag k="ssr:date" v="2019-05-31" />
		<tag k="ssr:gruppe" v="veg" />
		<tag k="ssr:hovedgruppe" v="infrastruktur" />
		<tag k="ssr:stedsnr" v="180431" />
		<tag k="ssr:type" v="adressenavn" />
	</node>
	<node lat="62.27281666296768" lon="5.844399997301922" id="-6727">
		<tag k="name" v="Lille Hestholmflu" />
		<tag k="old_name" v="Hestholmflu, l" />
		<tag k="ssr:date" v="2016-05-10" />
		<tag k="ssr:gruppe" v="navigasjon" />
		<tag k="ssr:hovedgruppe" v="infrastruktur" />
		<tag k="ssr:stedsnr" v="192194" />
		<tag k="ssr:type" v="fyrlykt" />
	</node>
	<node lat="62.401043741418356" lon="5.655573234653199" id="-6783">
		<tag k="name" v="Langeneset" />
		<tag k="ssr:date" v="2019-05-31" />
		<tag k="ssr:gruppe" v="veg" />
		<tag k="ssr:hovedgruppe" v="infrastruktur" />
		<tag k="ssr:stedsnr" v="283401" />
		<tag k="ssr:type" v="adressenavn" />
	</node>
	<node lat="62.34220427710256" lon="5.638767751011073" id="-6784">
		<tag k="name" v="Vågsholmvegen" />
		<tag k="ssr:date" v="2019-05-31" />
		<tag k="ssr:gruppe" v="veg" />
		<tag k="ssr:hovedgruppe" v="infrastruktur" />
		<tag k="ssr:stedsnr" v="283446" />
		<tag k="ssr:type" v="adressenavn" />
	</node>
	<node lat="62.34174166836059" lon="5.631613884711619" id="-6811">
		<tag k="name" v="Herøy kommune" />
		<tag k="ssr:date" v="2016-05-10" />
		<tag k="ssr:gruppe" v="administrativeIndelinger" />
		<tag k="ssr:hovedgruppe" v="offentligAdministrasjon" />
		<tag k="ssr:stedsnr" v="328544" />
		<tag k="ssr:type" v="kommune" />
	</node>
	<node lat="62.3035276271909" lon="5.727256665151053" id="-6824">
		<tag k="name" v="Grøndalsvegen" />
		<tag k="ssr:date" v="2019-05-31" />
		<tag k="ssr:gruppe" v="veg" />
		<tag k="ssr:hovedgruppe" v="infrastruktur" />
		<tag k="ssr:stedsnr" v="343425" />
		<tag k="ssr:type" v="adressenavn" />
	</node>
	<node lat="62.342306275870754" lon="5.5941469338610785" id="-6825">
		<tag k="name" v="Myravegen" />
		<tag k="ssr:date" v="2019-05-31" />
		<tag k="ssr:gruppe" v="veg" />
		<tag k="ssr:hovedgruppe" v="infrastruktur" />
		<tag k="ssr:stedsnr" v="343431" />
		<tag k="ssr:type" v="adressenavn" />
	</node>
	<node lat="62.3576170479469" lon="5.6742971626148995" id="-6826">
		<tag k="name" v="Voldsundvegen" />
		<tag k="ssr:date" v="2019-05-31" />
		<tag k="ssr:gruppe" v="veg" />
		<tag k="ssr:hovedgruppe" v="infrastruktur" />
		<tag k="ssr:stedsnr" v="343434" />
		<tag k="ssr:type" v="adressenavn" />
	</node>
	<node lat="62.40196534711334" lon="5.6364861903694035" id="-6827">
		<tag k="name" v="Goksøyrvegen" />
		<tag k="ssr:date" v="2019-05-31" />
		<tag k="ssr:gruppe" v="veg" />
		<tag k="ssr:hovedgruppe" v="infrastruktur" />
		<tag k="ssr:stedsnr" v="343438" />
		<tag k="ssr:type" v="adressenavn" />
	</node>
	<node lat="62.269140791150335" lon="5.813806334410714" id="-6828">
		<tag k="name" v="Kjeldsundvegen" />
		<tag k="ssr:date" v="2019-05-31" />
		<tag k="ssr:gruppe" v="veg" />
		<tag k="ssr:hovedgruppe" v="infrastruktur" />
		<tag k="ssr:stedsnr" v="343471" />
		<tag k="ssr:type" v="adressenavn" />
	</node>
	<node lat="62.60333333592899" lon="5.2333333366790935" id="-6829">
		<tag k="name" v="Barmeggene" />
		<tag k="ssr:date" v="2019-09-11" />
		<tag k="ssr:gruppe" v="sjøbunn" />
		<tag k="ssr:hovedgruppe" v="sjø" />
		<tag k="ssr:stedsnr" v="345652" />
		<tag k="ssr:type" v="eggISjø" />
	</node>
	<node lat="62.32799772227856" lon="5.635787195705418" id="-6835">
		<tag k="name" v="Ospenesvegen" />
		<tag k="ssr:date" v="2019-05-31" />
		<tag k="ssr:gruppe" v="veg" />
		<tag k="ssr:hovedgruppe" v="infrastruktur" />
		<tag k="ssr:stedsnr" v="358083" />
		<tag k="ssr:type" v="adressenavn" />
	</node>
	<node lat="62.32758487571557" lon="5.267522956801407" id="-6856">
		<tag k="alt_name" v="Svinøy" />
		<tag k="name" v="Svinøy fyr" />
		<tag k="old_name" v="Svinøya fyr" />
		<tag k="ssr:date" v="2019-02-12" />
		<tag k="ssr:gruppe" v="navigasjon" />
		<tag k="ssr:hovedgruppe" v="infrastruktur" />
		<tag k="ssr:stedsnr" v="375558" />
		<tag k="ssr:type" v="fyrstasjon" />
	</node>
	<node lat="62.344629625287226" lon="5.599929496306431" id="-6870">
		<tag k="name" v="Teigenesvegen" />
		<tag k="ssr:date" v="2019-05-31" />
		<tag k="ssr:gruppe" v="veg" />
		<tag k="ssr:hovedgruppe" v="infrastruktur" />
		<tag k="ssr:stedsnr" v="404426" />
		<tag k="ssr:type" v="adressenavn" />
	</node>
	<node lat="62.27860465342834" lon="5.743300844358426" id="-6873">
		<tag k="name" v="Tjørvågvegen" />
		<tag k="ssr:date" v="2019-05-31" />
		<tag k="ssr:gruppe" v="veg" />
		<tag k="ssr:hovedgruppe" v="infrastruktur" />
		<tag k="ssr:stedsnr" v="404416" />
		<tag k="ssr:type" v="adressenavn" />
	</node>
	<node lat="62.23488717735931" lon="5.801670530247326" id="-6876">
		<tag k="name" v="Kleppeåsen" />
		<tag k="ssr:date" v="2019-05-31" />
		<tag k="ssr:gruppe" v="veg" />
		<tag k="ssr:hovedgruppe" v="infrastruktur" />
		<tag k="ssr:stedsnr" v="404470" />
		<tag k="ssr:type" v="adressenavn" />
	</node>
	<node lat="62.33258177611184" lon="5.661240398470114" id="-6877">
		<tag k="name" v="Borgarhaugvegen" />
		<tag k="ssr:date" v="2019-05-31" />
		<tag k="ssr:gruppe" v="veg" />
		<tag k="ssr:hovedgruppe" v="infrastruktur" />
		<tag k="ssr:stedsnr" v="404959" />
		<tag k="ssr:type" v="adressenavn" />
	</node>
	<node lat="62.339402342614356" lon="5.6263992685501725" id="-6878">
		<tag k="name" v="Buråsa" />
		<tag k="ssr:date" v="2019-05-31" />
		<tag k="ssr:gruppe" v="veg" />
		<tag k="ssr:hovedgruppe" v="infrastruktur" />
		<tag k="ssr:stedsnr" v="404970" />
		<tag k="ssr:type" v="adressenavn" />
	</node>
	<node lat="62.34107107752017" lon="5.626263588566928" id="-6879">
		<tag k="name" v="Kleivaneset" />
		<tag k="ssr:date" v="2019-05-31" />
		<tag k="ssr:gruppe" v="veg" />
		<tag k="ssr:hovedgruppe" v="infrastruktur" />
		<tag k="ssr:stedsnr" v="404975" />
		<tag k="ssr:type" v="adressenavn" />
	</node>
	<node lat="62.32264804577449" lon="5.645495713722816" id="-6889">
		<tag k="name" v="Valvegen" />
		<tag k="ssr:date" v="2019-05-31" />
		<tag k="ssr:gruppe" v="veg" />
		<tag k="ssr:hovedgruppe" v="infrastruktur" />
		<tag k="ssr:stedsnr" v="422034" />
		<tag k="ssr:type" v="adressenavn" />
	</node>
	<node lat="62.30979166643757" lon="5.609733327566185" id="-6896">
		<tag k="name" v="Klubben" />
		<tag k="ssr:date" v="2016-05-10" />
		<tag k="ssr:gruppe" v="navigasjon" />
		<tag k="ssr:hovedgruppe" v="infrastruktur" />
		<tag k="ssr:stedsnr" v="435584" />
		<tag k="ssr:type" v="fyrlykt" />
	</node>
	<node lat="62.30791459261983" lon="5.738479357653603" id="-6938">
		<tag k="name" v="Bondestokksund" />
		<tag k="ssr:date" v="2019-05-31" />
		<tag k="ssr:gruppe" v="veg" />
		<tag k="ssr:hovedgruppe" v="infrastruktur" />
		<tag k="ssr:stedsnr" v="525440" />
		<tag k="ssr:type" v="adressenavn" />
	</node>
	<node lat="62.2948313417506" lon="5.603204102133848" id="-6939">
		<tag k="name" v="Tarbergvegen" />
		<tag k="ssr:date" v="2019-05-31" />
		<tag k="ssr:gruppe" v="veg" />
		<tag k="ssr:hovedgruppe" v="infrastruktur" />
		<tag k="ssr:stedsnr" v="525443" />
		<tag k="ssr:type" v="adressenavn" />
	</node>
	<node lat="62.3270370842183" lon="5.645010694909723" id="-6940">
		<tag k="name" v="Demingane" />
		<tag k="ssr:date" v="2019-05-31" />
		<tag k="ssr:gruppe" v="veg" />
		<tag k="ssr:hovedgruppe" v="infrastruktur" />
		<tag k="ssr:stedsnr" v="525946" />
		<tag k="ssr:type" v="adressenavn" />
	</node>
	<node lat="62.32361883594425" lon="5.636009458376121" id="-6941">
		<tag k="name" v="Kvithaugsmyra" />
		<tag k="ssr:date" v="2019-05-31" />
		<tag k="ssr:gruppe" v="veg" />
		<tag k="ssr:hovedgruppe" v="infrastruktur" />
		<tag k="ssr:stedsnr" v="525878" />
		<tag k="ssr:type" v="adressenavn" />
	</node>
	<node lat="62.336475001607006" lon="5.7445222178056135" id="-6963">
		<tag k="name" v="Torvikholmen" />
		<tag k="ssr:date" v="2016-05-10" />
		<tag k="ssr:gruppe" v="navigasjon" />
		<tag k="ssr:hovedgruppe" v="infrastruktur" />
		<tag k="ssr:stedsnr" v="556826" />
		<tag k="ssr:type" v="fyrlykt" />
	</node>
	<node lat="62.32600306728514" lon="5.7009386373317685" id="-6975">
		<tag k="name" v="Frøystadvågvegen" />
		<tag k="ssr:date" v="2019-05-31" />
		<tag k="ssr:gruppe" v="veg" />
		<tag k="ssr:hovedgruppe" v="infrastruktur" />
		<tag k="ssr:stedsnr" v="586489" />
		<tag k="ssr:type" v="adressenavn" />
	</node>
	<node lat="62.327024718663026" lon="5.636013775771001" id="-6984">
		<tag k="name" v="Vatnevegen" />
		<tag k="ssr:date" v="2019-05-31" />
		<tag k="ssr:gruppe" v="veg" />
		<tag k="ssr:hovedgruppe" v="infrastruktur" />
		<tag k="ssr:stedsnr" v="601066" />
		<tag k="ssr:type" v="adressenavn" />
	</node>
	<node lat="62.332834744048185" lon="5.653257284462292" id="-6986">
		<tag k="name" v="Bendalsvegen" />
		<tag k="ssr:date" v="2019-05-31" />
		<tag k="ssr:gruppe" v="veg" />
		<tag k="ssr:hovedgruppe" v="infrastruktur" />
		<tag k="ssr:stedsnr" v="603013" />
		<tag k="ssr:type" v="adressenavn" />
	</node>
	<node lat="62.280366629967915" lon="5.73782304074031" id="-7021">
		<tag k="name" v="Strynehaugen" />
		<tag k="ssr:date" v="2019-05-31" />
		<tag k="ssr:gruppe" v="veg" />
		<tag k="ssr:hovedgruppe" v="infrastruktur" />
		<tag k="ssr:stedsnr" v="646421" />
		<tag k="ssr:type" v="adressenavn" />
	</node>
	<node lat="62.34557613465857" lon="5.696293464050535" id="-7022">
		<tag k="name" v="Støylavegen" />
		<tag k="ssr:date" v="2019-05-31" />
		<tag k="ssr:gruppe" v="veg" />
		<tag k="ssr:hovedgruppe" v="infrastruktur" />
		<tag k="ssr:stedsnr" v="646438" />
		<tag k="ssr:type" v="adressenavn" />
	</node>
	<node lat="62.2831884591984" lon="5.73079551710109" id="-7023">
		<tag k="name" v="Tjørvågane" />
		<tag k="ssr:date" v="2019-05-31" />
		<tag k="ssr:gruppe" v="veg" />
		<tag k="ssr:hovedgruppe" v="infrastruktur" />
		<tag k="ssr:stedsnr" v="646448" />
		<tag k="ssr:type" v="adressenavn" />
	</node>
	<node lat="62.238358880709555" lon="5.744345762863757" id="-7024">
		<tag k="name" v="Leikongvegen" />
		<tag k="ssr:date" v="2019-05-31" />
		<tag k="ssr:gruppe" v="veg" />
		<tag k="ssr:hovedgruppe" v="infrastruktur" />
		<tag k="ssr:stedsnr" v="646462" />
		<tag k="ssr:type" v="adressenavn" />
	</node>
	<node lat="62.33810690104588" lon="5.627289149289225" id="-7026">
		<tag k="name" v="Nygardsvegen" />
		<tag k="ssr:date" v="2019-05-31" />
		<tag k="ssr:gruppe" v="veg" />
		<tag k="ssr:hovedgruppe" v="infrastruktur" />
		<tag k="ssr:stedsnr" v="646984" />
		<tag k="ssr:type" v="adressenavn" />
	</node>
	<node lat="62.326393523246956" lon="5.638000781269515" id="-7038">
		<tag k="name" v="Svingen" />
		<tag k="ssr:date" v="2019-05-31" />
		<tag k="ssr:gruppe" v="veg" />
		<tag k="ssr:hovedgruppe" v="infrastruktur" />
		<tag k="ssr:stedsnr" v="723065" />
		<tag k="ssr:type" v="adressenavn" />
	</node>
	<node lat="62.33859605365581" lon="5.627405787481472" id="-7060">
		<tag k="name" v="Nedre Huldalsveg" />
		<tag k="ssr:date" v="2019-05-31" />
		<tag k="ssr:gruppe" v="veg" />
		<tag k="ssr:hovedgruppe" v="infrastruktur" />
		<tag k="ssr:stedsnr" v="889975" />
		<tag k="ssr:type" v="adressenavn" />
	</node>
	<node lat="62.32651453786016" lon="5.664580360797782" id="-7061">
		<tag k="name" v="Stridestraumvegen" />
		<tag k="ssr:date" v="2019-05-31" />
		<tag k="ssr:gruppe" v="veg" />
		<tag k="ssr:hovedgruppe" v="infrastruktur" />
		<tag k="ssr:stedsnr" v="889977" />
		<tag k="ssr:type" v="adressenavn" />
	</node>
	<node lat="62.30271961219459" lon="5.727711807998479" id="-7062">
		<tag k="name" v="Prestegardsvegen" />
		<tag k="ssr:date" v="2019-05-31" />
		<tag k="ssr:gruppe" v="veg" />
		<tag k="ssr:hovedgruppe" v="infrastruktur" />
		<tag k="ssr:stedsnr" v="768429" />
		<tag k="ssr:type" v="adressenavn" />
	</node>
	<node lat="62.21499865771045" lon="5.7907721476621274" id="-7064">
		<tag k="name" v="Jøsokvegen" />
		<tag k="ssr:date" v="2019-05-31" />
		<tag k="ssr:gruppe" v="veg" />
		<tag k="ssr:hovedgruppe" v="infrastruktur" />
		<tag k="ssr:stedsnr" v="768466" />
		<tag k="ssr:type" v="adressenavn" />
	</node>
	<node lat="62.34007560887594" lon="5.6246056497161305" id="-7066">
		<tag k="name" v="Kleivalia" />
		<tag k="ssr:date" v="2019-05-31" />
		<tag k="ssr:gruppe" v="veg" />
		<tag k="ssr:hovedgruppe" v="infrastruktur" />
		<tag k="ssr:stedsnr" v="768974" />
		<tag k="ssr:type" v="adressenavn" />
	</node>
	<node lat="62.34064453263181" lon="5.631048248929293" id="-7067">
		<tag k="name" v="Djupedalen" />
		<tag k="ssr:date" v="2019-05-31" />
		<tag k="ssr:gruppe" v="veg" />
		<tag k="ssr:hovedgruppe" v="infrastruktur" />
		<tag k="ssr:stedsnr" v="768982" />
		<tag k="ssr:type" v="adressenavn" />
	</node>
	<node lat="62.406374964010084" lon="5.658762839721176" id="-7100">
		<tag k="name" v="Langenes" />
		<tag k="ssr:date" v="2020-09-10" />
		<tag k="ssr:gruppe" v="navigasjon" />
		<tag k="ssr:hovedgruppe" v="infrastruktur" />
		<tag k="ssr:stedsnr" v="800652" />
		<tag k="ssr:type" v="fyrlykt" />
	</node>
	<node lat="62.320486112084" lon="5.720219441691247" id="-7101">
		<tag k="name" v="Røyresund" />
		<tag k="old_name" v="Røyrasundet" />
		<tag k="ssr:date" v="2016-05-11" />
		<tag k="ssr:gruppe" v="navigasjon" />
		<tag k="ssr:hovedgruppe" v="infrastruktur" />
		<tag k="ssr:stedsnr" v="800756" />
		<tag k="ssr:type" v="fyrlykt" />
	</node>
	<node lat="62.30429121778913" lon="5.7307425825800875" id="-7127">
		<tag k="name" v="Prestemyrane" />
		<tag k="ssr:date" v="2019-05-31" />
		<tag k="ssr:gruppe" v="veg" />
		<tag k="ssr:hovedgruppe" v="infrastruktur" />
		<tag k="ssr:stedsnr" v="829442" />
		<tag k="ssr:type" v="adressenavn" />
	</node>
	<node lat="62.30882658196" lon="5.680021112590822" id="-7128">
		<tag k="name" v="Nautøya" />
		<tag k="ssr:date" v="2019-05-31" />
		<tag k="ssr:gruppe" v="veg" />
		<tag k="ssr:hovedgruppe" v="infrastruktur" />
		<tag k="ssr:stedsnr" v="829446" />
		<tag k="ssr:type" v="adressenavn" />
	</node>
	<node lat="62.361412756737224" lon="5.631779165505546" id="-7129">
		<tag k="name" v="Sævik Nedre" />
		<tag k="ssr:date" v="2019-05-31" />
		<tag k="ssr:gruppe" v="veg" />
		<tag k="ssr:hovedgruppe" v="infrastruktur" />
		<tag k="ssr:stedsnr" v="829460" />
		<tag k="ssr:type" v="adressenavn" />
	</node>
	<node lat="62.24705136121532" lon="5.781700978214153" id="-7130">
		<tag k="name" v="Leikong" />
		<tag k="ssr:date" v="2019-05-31" />
		<tag k="ssr:gruppe" v="veg" />
		<tag k="ssr:hovedgruppe" v="infrastruktur" />
		<tag k="ssr:stedsnr" v="829491" />
		<tag k="ssr:type" v="adressenavn" />
	</node>
	<node lat="62.24452683320681" lon="5.760828451960154" id="-7131">
		<tag k="name" v="Leikongbakkane" />
		<tag k="ssr:date" v="2019-05-31" />
		<tag k="ssr:gruppe" v="veg" />
		<tag k="ssr:hovedgruppe" v="infrastruktur" />
		<tag k="ssr:stedsnr" v="829494" />
		<tag k="ssr:type" v="adressenavn" />
	</node>
	<node lat="62.33313599265448" lon="5.651915779023356" id="-7139">
		<tag k="name" v="Lisjebøvegen" />
		<tag k="ssr:date" v="2019-05-31" />
		<tag k="ssr:gruppe" v="veg" />
		<tag k="ssr:hovedgruppe" v="infrastruktur" />
		<tag k="ssr:stedsnr" v="847040" />
		<tag k="ssr:type" v="adressenavn" />
	</node>
	<node lat="62.28014499642149" lon="5.756904774335293" id="-7187">
		<tag k="name" v="Kalveneset" />
		<tag k="ssr:date" v="2019-05-31" />
		<tag k="ssr:gruppe" v="veg" />
		<tag k="ssr:hovedgruppe" v="infrastruktur" />
		<tag k="ssr:stedsnr" v="950429" />
		<tag k="ssr:type" v="adressenavn" />
	</node>
	<node lat="62.34073714189953" lon="5.692987881112297" id="-7188">
		<tag k="name" v="Indre Leine" />
		<tag k="ssr:date" v="2019-05-31" />
		<tag k="ssr:gruppe" v="veg" />
		<tag k="ssr:hovedgruppe" v="infrastruktur" />
		<tag k="ssr:stedsnr" v="950449" />
		<tag k="ssr:type" v="adressenavn" />
	</node>
	<node lat="62.26386292732202" lon="5.795933960730565" id="-7190">
		<tag k="name" v="Djupvikvegen" />
		<tag k="ssr:date" v="2019-05-31" />
		<tag k="ssr:gruppe" v="veg" />
		<tag k="ssr:hovedgruppe" v="infrastruktur" />
		<tag k="ssr:stedsnr" v="950471" />
		<tag k="ssr:type" v="adressenavn" />
	</node>
	<node lat="62.32474354058803" lon="5.627327413652309" id="-7191">
		<tag k="name" v="Vikevegen" />
		<tag k="ssr:date" v="2019-05-31" />
		<tag k="ssr:gruppe" v="veg" />
		<tag k="ssr:hovedgruppe" v="infrastruktur" />
		<tag k="ssr:stedsnr" v="950868" />
		<tag k="ssr:type" v="adressenavn" />
	</node>
	<node lat="62.32848057589643" lon="5.648853920028936" id="-7192">
		<tag k="name" v="Selvågvegen" />
		<tag k="ssr:date" v="2019-05-31" />
		<tag k="ssr:gruppe" v="veg" />
		<tag k="ssr:hovedgruppe" v="infrastruktur" />
		<tag k="ssr:stedsnr" v="950970" />
		<tag k="ssr:type" v="adressenavn" />
	</node>
	<node lat="62.33449503438578" lon="5.665692281935101" id="-7193">
		<tag k="name" v="Buholmvegen" />
		<tag k="ssr:date" v="2019-05-31" />
		<tag k="ssr:gruppe" v="veg" />
		<tag k="ssr:hovedgruppe" v="infrastruktur" />
		<tag k="ssr:stedsnr" v="950971" />
		<tag k="ssr:type" v="adressenavn" />
	</node>
	<node lat="62.23715977772412" lon="5.775395034701768" id="-7194">
		<tag k="name" v="Langåsen" />
		<tag k="ssr:date" v="2019-05-31" />
		<tag k="ssr:gruppe" v="veg" />
		<tag k="ssr:hovedgruppe" v="infrastruktur" />
		<tag k="ssr:stedsnr" v="950975" />
		<tag k="ssr:type" v="adressenavn" />
	</node>
	<node lat="62.229932992640755" lon="5.815490208543944" id="-7239">
		<tag k="name" v="Måløysund" />
		<tag k="ssr:date" v="2020-09-14" />
		<tag k="ssr:gruppe" v="navigasjon" />
		<tag k="ssr:hovedgruppe" v="infrastruktur" />
		<tag k="ssr:stedsnr" v="1078243" />
		<tag k="ssr:type" v="lanterne" />
	</node>
	<node lat="62.34566333258698" lon="5.694833854907169" id="-7241">
		<tag k="name" v="Leinebøvegen" />
		<tag k="ssr:date" v="2020-11-03" />
		<tag k="ssr:gruppe" v="veg" />
		<tag k="ssr:hovedgruppe" v="infrastruktur" />
		<tag k="ssr:stedsnr" v="1078795" />
		<tag k="ssr:type" v="adressenavn" />
	</node>
	<node lat="62.32692360521807" lon="5.670317331117684" id="-7242">
		<tag k="name" v="Gjertnesmarka" />
		<tag k="ssr:date" v="2020-11-04" />
		<tag k="ssr:gruppe" v="veg" />
		<tag k="ssr:hovedgruppe" v="infrastruktur" />
		<tag k="ssr:stedsnr" v="1078796" />
		<tag k="ssr:type" v="adressenavn" />
	</node>
	<node lat="62.326642730054516" lon="5.679116746145474" id="-7243">
		<tag k="name" v="Gjertnesåsen" />
		<tag k="ssr:date" v="2021-02-03" />
		<tag k="ssr:gruppe" v="veg" />
		<tag k="ssr:hovedgruppe" v="infrastruktur" />
		<tag k="ssr:stedsnr" v="1079853" />
		<tag k="ssr:type" v="adressenavn" />
	</node>
	<node lat="62.33791457117257" lon="5.657100294421169" id="-7246">
		<tag k="name" v="Reitevatnet" />
		<tag k="ssr:date" v="2021-10-13" />
		<tag k="ssr:gruppe" v="veg" />
		<tag k="ssr:hovedgruppe" v="infrastruktur" />
		<tag k="ssr:stedsnr" v="1082578" />
		<tag k="ssr:type" v="adressenavn" />
	</node>
</osm>
