<?xml version="1.0" encoding="UTF-8"?>
<<<<<<< HEAD
<osm version="0.6" generator="osmapis">
	<node lat="58.556316669083884" lon="8.452297218108598" id="-28764">
		<tag k="historic" v="boundary_stone" />
		<tag k="man_made" v="cairn" />
		<tag k="name" v="Lauvraksteinen" />
		<tag k="place" v="locality" />
		<tag k="ssr:stedsnr" v="235626" />
	</node>
	<node lat="58.5446222237782" lon="8.657405560082188" id="-28771">
		<tag k="historic" v="boundary_stone" />
		<tag k="man_made" v="cairn" />
		<tag k="name" v="Stabbesteinen" />
		<tag k="place" v="locality" />
		<tag k="ssr:stedsnr" v="235800" />
	</node>
	<node lat="58.570060565974444" lon="8.444982879699765" id="-29142">
		<tag k="alt_name" v="Skiftesteinen" />
		<tag k="historic" v="boundary_stone" />
		<tag k="man_made" v="cairn" />
		<tag k="name" v="Kobbusteinen" />
		<tag k="place" v="locality" />
		<tag k="ssr:stedsnr" v="234232" />
	</node>
	<node lat="58.623236109115446" lon="8.436258335353166" id="-29279">
		<tag k="historic" v="boundary_stone" />
		<tag k="man_made" v="cairn" />
		<tag k="name" v="Endestaven" />
		<tag k="place" v="locality" />
		<tag k="ssr:stedsnr" v="295476" />
	</node>
	<node lat="58.652977774970815" lon="8.124786107064256" id="-29486">
=======
<osm generator="osmapis" version="0.6">
	<node id="-527066" lat="58.5446222238" lon="8.65740556008">
		<tag k="historic" v="boundary_stone" />
		<tag k="man_made" v="cairn" />
		<tag k="name" v="Stabbesteinen" />
		<tag k="place" v="locality" />
		<tag k="ssr:stedsnr" v="235800" />
	</node>
	<node id="-528249" lat="58.485161109" lon="8.44638888997">
		<tag k="historic" v="boundary_stone" />
		<tag k="man_made" v="cairn" />
		<tag k="name" v="Blautekjerrsteinen" />
		<tag k="place" v="locality" />
		<tag k="ssr:stedsnr" v="717707" />
	</node>
	<node id="-531224" lat="58.6292222216" lon="8.37025277015">
		<tag k="fixme" v="specify shooting=range, clay_pigeon etc" />
		<tag k="leisure" v="pitch" />
		<tag k="name" v="Mykland skytebane" />
		<tag k="sport" v="shooting" />
		<tag k="ssr:stedsnr" v="962331" />
	</node>
	<node id="-527055" lat="58.5563166691" lon="8.45229721811">
		<tag k="historic" v="boundary_stone" />
		<tag k="man_made" v="cairn" />
		<tag k="name" v="Lauvraksteinen" />
		<tag k="place" v="locality" />
		<tag k="ssr:stedsnr" v="235626" />
	</node>
	<node id="-527506" lat="58.6767722191" lon="8.50147222315">
		<tag k="historic" v="boundary_stone" />
		<tag k="man_made" v="cairn" />
		<tag k="name" v="Urnipsteinen" />
		<tag k="place" v="locality" />
		<tag k="ssr:stedsnr" v="456407" />
	</node>
	<node id="-528817" lat="58.6586388902" lon="8.29854722509">
		<tag k="historic" v="boundary_stone" />
		<tag k="man_made" v="cairn" />
		<tag k="name" v="Ronnebergsteinen" />
		<tag k="place" v="locality" />
		<tag k="ssr:stedsnr" v="841621" />
	</node>
	<node id="-527920" lat="58.6446055543" lon="8.60106667012">
		<tag k="historic" v="boundary_stone" />
		<tag k="man_made" v="cairn" />
		<tag k="name" v="Skurkmyrsteinen" />
		<tag k="place" v="locality" />
		<tag k="ssr:stedsnr" v="659081" />
	</node>
	<node id="-531311" lat="58.4749444439" lon="8.5342583326">
>>>>>>> e1d4bc35ff8a6074a6f2e91616a996b547c36f15
		<tag k="historic" v="boundary_stone" />
		<tag k="man_made" v="cairn" />
		<tag k="name" v="Fotvarden" />
		<tag k="place" v="locality" />
		<tag k="ssr:stedsnr" v="879892" />
	</node>
<<<<<<< HEAD
	<node lat="58.49903684152808" lon="8.50167470094002" id="-29594">
		<tag k="historic" v="boundary_stone" />
		<tag k="man_made" v="cairn" />
		<tag k="name" v="Sandtjennrøysa" />
		<tag k="place" v="locality" />
		<tag k="ssr:stedsnr" v="413442" />
	</node>
	<node lat="58.6767722191095" lon="8.501472223153138" id="-29700">
=======
	<node id="-527374" lat="58.6232361091" lon="8.43625833535">
		<tag k="historic" v="boundary_stone" />
		<tag k="man_made" v="cairn" />
		<tag k="name" v="Endestaven" />
		<tag k="place" v="locality" />
		<tag k="ssr:stedsnr" v="295476" />
	</node>
	<node id="-527819" lat="58.4898972197" lon="8.49974165855">
		<tag k="historic" v="boundary_stone" />
		<tag k="man_made" v="cairn" />
		<tag k="name" v="Høgsteinen" />
		<tag k="place" v="locality" />
		<tag k="ssr:stedsnr" v="515993" />
	</node>
	<node id="-528777" lat="58.6276388872" lon="8.14023888854">
		<tag k="historic" v="boundary_stone" />
		<tag k="man_made" v="cairn" />
		<tag k="name" v="Skrellen" />
		<tag k="place" v="locality" />
		<tag k="ssr:stedsnr" v="790225" />
	</node>
	<node id="-527880" lat="58.5057555552" lon="8.50244721437">
		<tag k="historic" v="boundary_stone" />
		<tag k="man_made" v="cairn" />
		<tag k="name" v="Tollesteinen" />
		<tag k="place" v="locality" />
		<tag k="ssr:stedsnr" v="656419" />
	</node>
	<node id="-530214" lat="58.4990368415" lon="8.50167470094">
>>>>>>> e1d4bc35ff8a6074a6f2e91616a996b547c36f15
		<tag k="historic" v="boundary_stone" />
		<tag k="man_made" v="cairn" />
		<tag k="name" v="Sandtjennrøysa" />
		<tag k="place" v="locality" />
		<tag k="ssr:stedsnr" v="413442" />
	</node>
<<<<<<< HEAD
	<node lat="58.644605554335705" lon="8.60106667011756" id="-30067">
		<tag k="historic" v="boundary_stone" />
		<tag k="man_made" v="cairn" />
		<tag k="name" v="Skurkmyrsteinen" />
		<tag k="place" v="locality" />
		<tag k="ssr:stedsnr" v="659081" />
	</node>
	<node lat="58.620219447635854" lon="8.163847214539542" id="-30403">
		<tag k="fixme" v="consider boundary=protected_area and relevant protect_class if not nature reserve" />
		<tag k="leisure" v="nature_reserve" />
		<tag k="name" v="Langebergsheia-Mannfallknuten naturreservat" />
		<tag k="ssr:stedsnr" v="910896" />
	</node>
	<node lat="58.65863889015639" lon="8.298547225087907" id="-30506">
		<tag k="historic" v="boundary_stone" />
		<tag k="man_made" v="cairn" />
		<tag k="name" v="Ronnebergsteinen" />
		<tag k="place" v="locality" />
		<tag k="ssr:stedsnr" v="841621" />
	</node>
	<node lat="58.489897219720326" lon="8.499741658554392" id="-31892">
		<tag k="historic" v="boundary_stone" />
		<tag k="man_made" v="cairn" />
		<tag k="name" v="Høgsteinen" />
		<tag k="place" v="locality" />
		<tag k="ssr:stedsnr" v="515993" />
=======
	<node id="-526961" lat="58.570060566" lon="8.4449828797">
		<tag k="alt_name" v="Skiftesteinen" />
		<tag k="historic" v="boundary_stone" />
		<tag k="man_made" v="cairn" />
		<tag k="name" v="Kobbusteinen" />
		<tag k="place" v="locality" />
		<tag k="ssr:stedsnr" v="234232" />
	</node>
	<node id="-528675" lat="58.6202194476" lon="8.16384721454">
		<tag k="fixme" v="consider boundary=protected_area and relevant protect_class if not nature reserve" />
		<tag k="leisure" v="nature_reserve" />
		<tag k="name" v="Langebergsheia-Mannfallknuten naturreservat" />
		<tag k="ssr:stedsnr" v="910896" />
	</node>
	<node id="-530607" lat="58.6432805558" lon="8.23366389734">
		<tag k="historic" v="boundary_stone" />
		<tag k="man_made" v="cairn" />
		<tag k="name" v="Kvitilhella" />
		<tag k="place" v="locality" />
		<tag k="ssr:stedsnr" v="597225" />
	</node>
	<node id="-527663" lat="58.652977775" lon="8.12478610706">
		<tag k="historic" v="boundary_stone" />
		<tag k="man_made" v="cairn" />
		<tag k="name" v="Karpussteinen" />
		<tag k="place" v="locality" />
		<tag k="ssr:stedsnr" v="477545" />
>>>>>>> e1d4bc35ff8a6074a6f2e91616a996b547c36f15
	</node>
</osm>
