<?xml version="1.0" encoding="UTF-8"?>
<osm version="0.6" generator="osmapis">
	<node lat="58.50281389111089" lon="8.541769443925599" id="-26821">
		<tag k="fixme" v="consider place=hamlet" />
		<tag k="name" v="Haugås" />
		<tag k="place" v="farm" />
		<tag k="ssr:stedsnr" v="524" />
	</node>
	<node lat="58.62269591559883" lon="8.648151299136691" id="-26826">
		<tag k="alt_name" v="Rundtjern" />
		<tag k="name" v="Lille Rundetjønn" />
		<tag k="place" v="locality" />
		<tag k="ssr:stedsnr" v="764" />
	</node>
	<node lat="58.60479722390121" lon="8.686213896283373" id="-26827">
		<tag k="fixme" v="consider place=hamlet" />
		<tag k="name" v="Fjelldalen" />
		<tag k="place" v="farm" />
		<tag k="ssr:stedsnr" v="796" />
	</node>
	<node lat="58.6038583296371" lon="8.626313886506859" id="-26828">
		<tag k="name" v="Homstøl" />
		<tag k="place" v="farm" />
		<tag k="ssr:stedsnr" v="799" />
	</node>
	<node lat="58.58893055815951" lon="8.232502778847312" id="-26832">
		<tag k="fixme" v="consider place=hamlet" />
		<tag k="name" v="Liane" />
		<tag k="place" v="farm" />
		<tag k="ssr:stedsnr" v="1188" />
	</node>
	<node lat="58.54026944035153" lon="8.43196111762634" id="-26833">
		<tag k="fixme" v="consider place=hamlet" />
		<tag k="name" v="Lauvrak" />
		<tag k="place" v="farm" />
		<tag k="ssr:stedsnr" v="1199" />
	</node>
	<node lat="58.60364166633531" lon="8.576461112133154" id="-26834">
		<tag k="fixme" v="consider place=hamlet" />
		<tag k="name" v="Dyngedal" />
		<tag k="place" v="farm" />
		<tag k="ssr:stedsnr" v="1790" />
	</node>
	<node lat="58.61856389307919" lon="8.733402781805623" id="-26836">
		<tag k="fixme" v="consider place=hamlet" />
		<tag k="name" v="Haugsjå" />
		<tag k="place" v="farm" />
		<tag k="ssr:stedsnr" v="1799" />
	</node>
	<node lat="58.53719722673524" lon="8.464247230651893" id="-26839">
		<tag k="name" v="Øygarden" />
		<tag k="place" v="farm" />
		<tag k="ssr:stedsnr" v="231009" />
	</node>
	<node lat="58.51928889203683" lon="8.441863893553908" id="-26841">
		<tag k="amenity" v="school" />
		<tag k="name" v="Solhøgda" />
		<tag k="ssr:stedsnr" v="231023" />
	</node>
	<node lat="58.64045832902881" lon="8.296925000512953" id="-26861">
		<tag k="name" v="Vallheim" />
		<tag k="place" v="isolated_dwelling" />
		<tag k="ssr:stedsnr" v="234151" />
	</node>
	<node lat="58.68399444820106" lon="8.268397214746606" id="-26874">
		<tag k="name" v="Plassen" />
		<tag k="place" v="locality" />
		<tag k="ssr:stedsnr" v="234541" />
	</node>
	<node lat="58.61031666809488" lon="8.613711108387145" id="-26904">
		<tag k="name" v="Joensplass" />
		<tag k="place" v="locality" />
		<tag k="ssr:stedsnr" v="235242" />
	</node>
	<node lat="58.4822222190938" lon="8.642272230143334" id="-26939">
		<tag k="name" v="Nybu" />
		<tag k="place" v="isolated_dwelling" />
		<tag k="ssr:stedsnr" v="34206" />
	</node>
	<node lat="58.499341666890984" lon="8.618025006763078" id="-26947">
		<tag k="name" v="Ovelandsheia" />
		<tag k="place" v="quarter" />
		<tag k="ssr:stedsnr" v="39571" />
	</node>
	<node lat="58.62423333158003" lon="8.185141663950684" id="-26967">
		<tag k="name" v="Beresundhytta" />
		<tag k="place" v="isolated_dwelling" />
		<tag k="ssr:stedsnr" v="52518" />
	</node>
	<node lat="58.614986111655995" lon="8.304613882142675" id="-26999">
		<tag k="name" v="Espeland" />
		<tag k="place" v="locality" />
		<tag k="ssr:stedsnr" v="53471" />
	</node>
	<node lat="58.509695243391974" lon="8.685614549542496" id="-27020">
		<tag k="name" v="Svorttjernsmyra" />
		<tag k="place" v="farm" />
		<tag k="ssr:stedsnr" v="61485" />
	</node>
	<node lat="58.554939605479746" lon="8.633926182220183" id="-27023">
		<tag k="alt_name" v="Dale, østre" />
		<tag k="fixme" v="consider place=hamlet" />
		<tag k="name" v="Østre Dale" />
		<tag k="place" v="farm" />
		<tag k="ssr:stedsnr" v="61620" />
	</node>
	<node lat="58.497736113608156" lon="8.542277771698348" id="-27025">
		<tag k="name" v="Småmyrene" />
		<tag k="place" v="farm" />
		<tag k="ssr:stedsnr" v="61690" />
	</node>
	<node lat="58.581650002131475" lon="8.52597222804289" id="-27026">
		<tag k="fixme" v="consider place=hamlet" />
		<tag k="name" v="Hørsdal" />
		<tag k="place" v="farm" />
		<tag k="ssr:stedsnr" v="61805" />
	</node>
	<node lat="58.59002222279782" lon="8.55407222875638" id="-27028">
		<tag k="name" v="Kokkehaugen" />
		<tag k="place" v="farm" />
		<tag k="ssr:stedsnr" v="61813" />
	</node>
	<node lat="58.591280553300074" lon="8.631094440871875" id="-27029">
		<tag k="name" v="Kjempetjenn" />
		<tag k="old_name" v="Kjempetjern" />
		<tag k="place" v="farm" />
		<tag k="ssr:stedsnr" v="61818" />
	</node>
	<node lat="58.6304583359987" lon="8.252191670261737" id="-27032">
		<tag k="name" v="Steane" />
		<tag k="place" v="isolated_dwelling" />
		<tag k="ssr:stedsnr" v="62369" />
	</node>
	<node lat="58.52748611294778" lon="8.637788896146379" id="-27035">
		<tag k="name" v="Bomsholmen" />
		<tag k="place" v="farm" />
		<tag k="ssr:stedsnr" v="62705" />
	</node>
	<node lat="58.52873333678022" lon="8.603447223904729" id="-27036">
		<tag k="name" v="Risland" />
		<tag k="place" v="farm" />
		<tag k="ssr:stedsnr" v="62709" />
	</node>
	<node lat="58.648688888403555" lon="8.521602780355712" id="-27041">
		<tag k="fixme" v="consider place=hamlet" />
		<tag k="name" v="Oland" />
		<tag k="place" v="farm" />
		<tag k="ssr:stedsnr" v="62982" />
	</node>
	<node lat="58.59504166783103" lon="8.345513880976242" id="-27046">
		<tag k="name" v="Steane" />
		<tag k="place" v="locality" />
		<tag k="ssr:stedsnr" v="243147" />
	</node>
	<node lat="58.657138893340026" lon="8.117933324810863" id="-27048">
		<tag k="alt_name" v="Frikstad" />
		<tag k="fixme" v="consider place=hamlet" />
		<tag k="name" v="Frigstad" />
		<tag k="place" v="farm" />
		<tag k="ssr:stedsnr" v="243273" />
	</node>
	<node lat="58.604441665325254" lon="8.217963894059917" id="-27051">
		<tag k="fixme" v="consider place=hamlet" />
		<tag k="name" v="Tveit" />
		<tag k="place" v="farm" />
		<tag k="ssr:stedsnr" v="243322" />
	</node>
	<node lat="58.616988886200026" lon="8.396613894758145" id="-27052">
		<tag k="fixme" v="consider place=hamlet" />
		<tag k="name" v="Svenes" />
		<tag k="place" v="farm" />
		<tag k="ssr:stedsnr" v="243330" />
	</node>
	<node lat="58.552331468730976" lon="8.711097214139643" id="-27056">
		<tag k="name" v="Bjønnum" />
		<tag k="place" v="farm" />
		<tag k="ssr:stedsnr" v="243662" />
	</node>
	<node lat="58.543449996656854" lon="8.637736113004543" id="-27060">
		<tag k="alt_name" v="Bøygehagen" />
		<tag k="name" v="Bøygehaven" />
		<tag k="place" v="farm" />
		<tag k="ssr:stedsnr" v="243671" />
	</node>
	<node lat="58.54219444647796" lon="8.727913887511313" id="-27061">
		<tag k="fixme" v="consider place=hamlet" />
		<tag k="name" v="Seljestøl" />
		<tag k="place" v="farm" />
		<tag k="ssr:stedsnr" v="243677" />
	</node>
	<node lat="58.49482500093204" lon="8.602649992923876" id="-27067">
		<tag k="name" v="Svinevika" />
		<tag k="place" v="farm" />
		<tag k="ssr:stedsnr" v="81040" />
	</node>
	<node lat="58.514547224489796" lon="8.629874995923617" id="-27078">
		<tag k="fixme" v="consider place=hamlet" />
		<tag k="name" v="Mjølhus" />
		<tag k="place" v="village" />
		<tag k="ssr:stedsnr" v="92978" />
	</node>
	<node lat="58.53237222510507" lon="8.691297229027745" id="-27082">
		<tag k="name" v="Sagebakken" />
		<tag k="place" v="farm" />
		<tag k="ssr:stedsnr" v="94064" />
	</node>
	<node lat="58.50864722652342" lon="8.551602786282732" id="-27084">
		<tag k="name" v="Nordli" />
		<tag k="place" v="farm" />
		<tag k="ssr:stedsnr" v="94087" />
	</node>
	<node lat="58.57875832927632" lon="8.695505562545344" id="-27087">
		<tag k="name" v="Vallemonen" />
		<tag k="place" v="locality" />
		<tag k="ssr:stedsnr" v="94171" />
	</node>
	<node lat="58.54429722144216" lon="8.679813885874859" id="-27090">
		<tag k="name" v="Kringlemyr" />
		<tag k="place" v="locality" />
		<tag k="ssr:stedsnr" v="94212" />
	</node>
	<node lat="58.67224722442918" lon="8.325522218394124" id="-27105">
		<tag k="name" v="Høgda" />
		<tag k="place" v="isolated_dwelling" />
		<tag k="ssr:stedsnr" v="112632" />
	</node>
	<node lat="58.63566761660922" lon="8.294152323113178" id="-27107">
		<tag k="name" v="Rønningen" />
		<tag k="place" v="farm" />
		<tag k="ssr:stedsnr" v="113118" />
	</node>
	<node lat="58.684365594051734" lon="8.274750396984132" id="-27118">
		<tag k="fixme" v="consider place=hamlet" />
		<tag k="name" v="Auestad" />
		<tag k="place" v="farm" />
		<tag k="ssr:stedsnr" v="113509" />
	</node>
	<node lat="58.491677780850935" lon="8.429991662525298" id="-27158">
		<tag k="fixme" v="consider place=hamlet" />
		<tag k="name" v="Ørteland" />
		<tag k="place" v="farm" />
		<tag k="ssr:stedsnr" v="121425" />
	</node>
	<node lat="58.57488333029641" lon="8.263555555276518" id="-27161">
		<tag k="fixme" v="consider place=hamlet" />
		<tag k="name" v="Skripeland" />
		<tag k="place" v="farm" />
		<tag k="ssr:stedsnr" v="122114" />
	</node>
	<node lat="58.52400000431269" lon="8.65092776951367" id="-27163">
		<tag k="fixme" v="consider place=hamlet" />
		<tag k="name" v="Ustad" />
		<tag k="place" v="farm" />
		<tag k="ssr:stedsnr" v="122703" />
	</node>
	<node lat="58.62811666424252" lon="8.523577778564674" id="-27166">
		<tag k="name" v="Heldalsmo" />
		<tag k="place" v="hamlet" />
		<tag k="ssr:stedsnr" v="147119" />
	</node>
	<node lat="58.505680553850475" lon="8.59173054906075" id="-27168">
		<tag k="name" v="Tollmoen" />
		<tag k="place" v="farm" />
		<tag k="ssr:stedsnr" v="155049" />
	</node>
	<node lat="58.5124861085464" lon="8.391738896960778" id="-27178">
		<tag k="name" v="Plassen" />
		<tag k="place" v="locality" />
		<tag k="ssr:stedsnr" v="171074" />
	</node>
	<node lat="58.65149722181528" lon="8.305822218504892" id="-27247">
		<tag k="fixme" v="consider place=hamlet" />
		<tag k="name" v="Røyseland" />
		<tag k="place" v="farm" />
		<tag k="ssr:stedsnr" v="183248" />
	</node>
	<node lat="58.63326666500133" lon="8.213808325153176" id="-27249">
		<tag k="fixme" v="consider place=hamlet" />
		<tag k="name" v="Mjåland" />
		<tag k="place" v="farm" />
		<tag k="ssr:stedsnr" v="183343" />
	</node>
	<node lat="58.523763886815516" lon="8.676941662011588" id="-27254">
		<tag k="alt_name" v="Hurvedal" />
		<tag k="name" v="Horvedal" />
		<tag k="place" v="farm" />
		<tag k="ssr:stedsnr" v="183718" />
	</node>
	<node lat="58.52965277753983" lon="8.683241663695911" id="-27255">
		<tag k="alt_name" v="Nygård" />
		<tag k="name" v="Nygard" />
		<tag k="place" v="farm" />
		<tag k="ssr:stedsnr" v="183719" />
	</node>
	<node lat="58.52277777468087" lon="8.692830548473921" id="-27256">
		<tag k="name" v="Seljåsen" />
		<tag k="place" v="farm" />
		<tag k="ssr:stedsnr" v="183724" />
	</node>
	<node lat="58.52094722647762" lon="8.62803611449568" id="-27257">
		<tag k="alt_name" v="Rynnemyr" />
		<tag k="name" v="Runnemyr" />
		<tag k="place" v="farm" />
		<tag k="ssr:stedsnr" v="183734" />
	</node>
	<node lat="58.48427222492319" lon="8.626394451420756" id="-27259">
		<tag k="name" v="Øvre Messel" />
		<tag k="place" v="farm" />
		<tag k="ssr:stedsnr" v="263045" />
	</node>
	<node lat="58.51646111411871" lon="8.62908610586973" id="-27262">
		<tag k="leisure" v="pitch" />
		<tag k="name" v="Kringla" />
		<tag k="ssr:stedsnr" v="268450" />
	</node>
	<node lat="58.47883451757099" lon="8.6641106943274" id="-27265">
		<tag k="name" v="Kringlemyr" />
		<tag k="place" v="farm" />
		<tag k="ssr:stedsnr" v="216043" />
	</node>
	<node lat="58.52869949729956" lon="8.652577673624869" id="-27276">
		<tag k="name" v="Brubakken" />
		<tag k="place" v="farm" />
		<tag k="ssr:stedsnr" v="216178" />
	</node>
	<node lat="58.64645555229072" lon="8.192780553224209" id="-27289">
		<tag k="name" v="Bratteland" />
		<tag k="place" v="isolated_dwelling" />
		<tag k="ssr:stedsnr" v="233007" />
	</node>
	<node lat="58.69637222421337" lon="8.146433328039386" id="-27294">
		<tag k="name" v="Verdalsbua" />
		<tag k="place" v="locality" />
		<tag k="ssr:stedsnr" v="233888" />
	</node>
	<node lat="58.52069444657305" lon="8.728097224138109" id="-27360">
		<tag k="name" v="Eikelia" />
		<tag k="place" v="locality" />
		<tag k="ssr:stedsnr" v="243739" />
	</node>
	<node lat="58.49981666477622" lon="8.425869436222163" id="-27362">
		<tag k="fixme" v="consider place=hamlet" />
		<tag k="name" v="Koveland" />
		<tag k="place" v="farm" />
		<tag k="ssr:stedsnr" v="244005" />
	</node>
	<node lat="58.64229166838827" lon="8.49758889364036" id="-27369">
		<tag k="name" v="Røyli" />
		<tag k="place" v="farm" />
		<tag k="ssr:stedsnr" v="244998" />
	</node>
	<node lat="58.50030000013331" lon="8.585813883690896" id="-27375">
		<tag k="name" v="Fjellmoen" />
		<tag k="place" v="isolated_dwelling" />
		<tag k="ssr:stedsnr" v="459080" />
	</node>
	<node lat="58.52121944377754" lon="8.641183335273116" id="-27384">
		<tag k="name" v="Bruselia" />
		<tag k="place" v="farm" />
		<tag k="ssr:stedsnr" v="459198" />
	</node>
	<node lat="58.49339721870508" lon="8.581138883633496" id="-27387">
		<tag k="name" v="Kleivene" />
		<tag k="place" v="farm" />
		<tag k="ssr:stedsnr" v="276013" />
	</node>
	<node lat="58.58051333682392" lon="8.715841885417046" id="-27400">
		<tag k="name" v="Rønningen" />
		<tag k="place" v="farm" />
		<tag k="ssr:stedsnr" v="276376" />
	</node>
	<node lat="58.608527773749564" lon="8.392302783262414" id="-27472">
		<tag k="fixme" v="consider place=hamlet" />
		<tag k="name" v="Haugland" />
		<tag k="place" v="farm" />
		<tag k="ssr:stedsnr" v="304313" />
	</node>
	<node lat="58.55614444851181" lon="8.68152500663791" id="-27478">
		<tag k="name" v="Eivindstad" />
		<tag k="place" v="farm" />
		<tag k="ssr:stedsnr" v="304668" />
	</node>
	<node lat="58.55247238042417" lon="8.699453714376421" id="-27479">
		<tag k="name" v="Råna" />
		<tag k="place" v="farm" />
		<tag k="ssr:stedsnr" v="304670" />
	</node>
	<node lat="58.54101666356175" lon="8.628244442426672" id="-27480">
		<tag k="alt_name" v="Jusbulia;Jøsbulien" />
		<tag k="name" v="Jøsbulia" />
		<tag k="place" v="farm" />
		<tag k="ssr:stedsnr" v="304677" />
	</node>
	<node lat="58.505386108484366" lon="8.584786114605745" id="-27490">
		<tag k="name" v="Einerkjerr" />
		<tag k="place" v="farm" />
		<tag k="ssr:stedsnr" v="337050" />
	</node>
	<node lat="58.51175555547495" lon="8.658349993853692" id="-27492">
		<tag k="name" v="Solbakken" />
		<tag k="place" v="farm" />
		<tag k="ssr:stedsnr" v="337092" />
	</node>
	<node lat="58.51745240312046" lon="8.435898597922298" id="-27519">
		<tag k="name" v="Langemyr" />
		<tag k="place" v="farm" />
		<tag k="ssr:stedsnr" v="353103" />
	</node>
	<node lat="58.55364444858228" lon="8.631177785783946" id="-27579">
		<tag k="name" v="Kvernås" />
		<tag k="place" v="farm" />
		<tag k="ssr:stedsnr" v="356824" />
	</node>
	<node lat="58.635747219326504" lon="8.161005549597254" id="-27588">
		<tag k="name" v="Skreløa" />
		<tag k="place" v="locality" />
		<tag k="ssr:stedsnr" v="476063" />
	</node>
	<node lat="58.55219444128547" lon="8.53676666908851" id="-27662">
		<tag k="fixme" v="consider place=hamlet" />
		<tag k="name" v="Bratteland" />
		<tag k="place" v="farm" />
		<tag k="ssr:stedsnr" v="364661" />
	</node>
	<node lat="58.49747499953681" lon="8.596458330071936" id="-27664">
		<tag k="alt_name" v="Kjerringvik" />
		<tag k="name" v="Kjerringvika" />
		<tag k="place" v="farm" />
		<tag k="ssr:stedsnr" v="364715" />
	</node>
	<node lat="58.53417222012219" lon="8.69862500306049" id="-27677">
		<tag k="fixme" v="consider place=hamlet" />
		<tag k="name" v="Lyngrott" />
		<tag k="place" v="farm" />
		<tag k="ssr:stedsnr" v="365696" />
	</node>
	<node lat="58.53960555969238" lon="8.684269446023956" id="-27678">
		<tag k="fixme" v="consider place=hamlet" />
		<tag k="name" v="Solheim" />
		<tag k="place" v="farm" />
		<tag k="ssr:stedsnr" v="365700" />
	</node>
	<node lat="58.520674997331895" lon="8.662958334278882" id="-27685">
		<tag k="alt_name" v="Hurvedal" />
		<tag k="fixme" v="consider place=hamlet" />
		<tag k="name" v="Horvedal" />
		<tag k="place" v="farm" />
		<tag k="ssr:stedsnr" v="365747" />
	</node>
	<node lat="58.50195277378248" lon="8.64836666416363" id="-27693">
		<tag k="name" v="Blakstadheia" />
		<tag k="place" v="quarter" />
		<tag k="ssr:stedsnr" v="395978" />
	</node>
	<node lat="58.48572222399637" lon="8.617038885098458" id="-27708">
		<tag k="name" v="Ovelandsneset" />
		<tag k="place" v="farm" />
		<tag k="ssr:stedsnr" v="398209" />
	</node>
	<node lat="58.46474722325067" lon="8.609727773892018" id="-27712">
		<tag k="fixme" v="consider place=hamlet" />
		<tag k="name" v="Reiersøl" />
		<tag k="place" v="farm" />
		<tag k="ssr:stedsnr" v="485620" />
	</node>
	<node lat="58.58581944240911" lon="8.331802783538278" id="-27724">
		<tag k="alt_name" v="Lauvrak, ytre" />
		<tag k="fixme" v="consider place=hamlet" />
		<tag k="name" v="Ytre Lauvrak" />
		<tag k="place" v="farm" />
		<tag k="ssr:stedsnr" v="486158" />
	</node>
	<node lat="58.63893545793096" lon="8.29472855140103" id="-27725">
		<tag k="name" v="Valle" />
		<tag k="place" v="farm" />
		<tag k="ssr:stedsnr" v="486271" />
	</node>
	<node lat="58.53641944543173" lon="8.663202772650566" id="-27742">
		<tag k="name" v="Heimdal" />
		<tag k="place" v="farm" />
		<tag k="ssr:stedsnr" v="486714" />
	</node>
	<node lat="58.51363889014368" lon="8.639030563131156" id="-27746">
		<tag k="alt_name" v="Hurvenes" />
		<tag k="fixme" v="consider place=hamlet" />
		<tag k="name" v="Horvenes" />
		<tag k="place" v="farm" />
		<tag k="ssr:stedsnr" v="486745" />
	</node>
	<node lat="58.51674894803544" lon="8.689906330596308" id="-27747">
		<tag k="name" v="Råmarkåsen" />
		<tag k="place" v="farm" />
		<tag k="ssr:stedsnr" v="486751" />
	</node>
	<node lat="58.51735555281848" lon="8.724913895694622" id="-27748">
		<tag k="name" v="Grandalen" />
		<tag k="place" v="farm" />
		<tag k="ssr:stedsnr" v="486752" />
	</node>
	<node lat="58.57804166245082" lon="8.713141673617105" id="-27750">
		<tag k="fixme" v="consider place=hamlet" />
		<tag k="name" v="Bøylestad" />
		<tag k="place" v="farm" />
		<tag k="ssr:stedsnr" v="486880" />
	</node>
	<node lat="58.530813888390604" lon="8.464491665457757" id="-27759">
		<tag k="name" v="Nordheim" />
		<tag k="place" v="farm" />
		<tag k="ssr:stedsnr" v="414004" />
	</node>
	<node lat="58.608524999759844" lon="8.595275003601097" id="-27804">
		<tag k="name" v="Røysland" />
		<tag k="place" v="farm" />
		<tag k="ssr:stedsnr" v="417193" />
	</node>
	<node lat="58.541516662679506" lon="8.532388889009198" id="-27828">
		<tag k="name" v="Ramnåsen" />
		<tag k="place" v="farm" />
		<tag k="ssr:stedsnr" v="425658" />
	</node>
	<node lat="58.54662222599401" lon="8.718841673344869" id="-27830">
		<tag k="name" v="Buåsen" />
		<tag k="place" v="farm" />
		<tag k="ssr:stedsnr" v="425663" />
	</node>
	<node lat="58.48133610692389" lon="8.675630551207968" id="-27831">
		<tag k="name" v="Lia" />
		<tag k="place" v="farm" />
		<tag k="ssr:stedsnr" v="425664" />
	</node>
	<node lat="58.60785277951935" lon="8.605866667623348" id="-27832">
		<tag k="alt_name" v="Grønkleiv" />
		<tag k="name" v="Grønnkleiv" />
		<tag k="place" v="farm" />
		<tag k="ssr:stedsnr" v="425807" />
	</node>
	<node lat="58.5862083316335" lon="8.635774995586601" id="-27833">
		<tag k="name" v="Myglestue" />
		<tag k="place" v="farm" />
		<tag k="ssr:stedsnr" v="425842" />
	</node>
	<node lat="58.60164999651179" lon="8.729211109154146" id="-27834">
		<tag k="alt_name" v="Skottkjerra" />
		<tag k="name" v="Skotkjerra" />
		<tag k="place" v="locality" />
		<tag k="ssr:stedsnr" v="425844" />
	</node>
	<node lat="58.643194447284664" lon="8.405916672148058" id="-27841">
		<tag k="fixme" v="consider place=hamlet" />
		<tag k="name" v="Flateland" />
		<tag k="place" v="farm" />
		<tag k="ssr:stedsnr" v="426251" />
	</node>
	<node lat="58.66376111372988" lon="8.012944448695853" id="-27849">
		<tag k="name" v="Brenne" />
		<tag k="place" v="isolated_dwelling" />
		<tag k="ssr:stedsnr" v="426516" />
	</node>
	<node lat="58.53816207290713" lon="8.481441485279873" id="-27853">
		<tag k="alt_name" v="Skåtet" />
		<tag k="name" v="Skotet" />
		<tag k="place" v="farm" />
		<tag k="ssr:stedsnr" v="426686" />
	</node>
	<node lat="58.53201149037568" lon="8.698516198593643" id="-27855">
		<tag k="name" v="Jordet" />
		<tag k="place" v="isolated_dwelling" />
		<tag k="ssr:stedsnr" v="426689" />
	</node>
	<node lat="58.53297499574755" lon="8.664594440323802" id="-27857">
		<tag k="fixme" v="consider place=hamlet" />
		<tag k="name" v="Espeland" />
		<tag k="place" v="farm" />
		<tag k="ssr:stedsnr" v="426693" />
	</node>
	<node lat="58.501488886319216" lon="8.577952778627985" id="-27867">
		<tag k="name" v="Riberås" />
		<tag k="place" v="quarter" />
		<tag k="ssr:stedsnr" v="459075" />
	</node>
	<node lat="58.60198611062343" lon="8.672963883758062" id="-27873">
		<tag k="name" v="Øygarden" />
		<tag k="place" v="locality" />
		<tag k="ssr:stedsnr" v="459170" />
	</node>
	<node lat="58.49751591382437" lon="8.453762422483843" id="-27944">
		<tag k="alt_name" v="Tveiter" />
		<tag k="name" v="Tveiten" />
		<tag k="place" v="farm" />
		<tag k="ssr:stedsnr" v="485380" />
	</node>
	<node lat="58.650491665329454" lon="8.054666665252077" id="-27951">
		<tag k="name" v="Øygardshytta" />
		<tag k="place" v="isolated_dwelling" />
		<tag k="ssr:stedsnr" v="486512" />
	</node>
	<node lat="58.50832327665976" lon="8.665230837463335" id="-27952">
		<tag k="name" v="Yttertjenn" />
		<tag k="place" v="isolated_dwelling" />
		<tag k="ssr:stedsnr" v="486522" />
	</node>
	<node lat="58.509774997874246" lon="8.657125003579768" id="-27953">
		<tag k="name" v="Hoskuldsplass" />
		<tag k="place" v="farm" />
		<tag k="ssr:stedsnr" v="486525" />
	</node>
	<node lat="58.571527777743725" lon="8.48054445222515" id="-27960">
		<tag k="fixme" v="consider place=hamlet" />
		<tag k="name" v="Hinnebu" />
		<tag k="place" v="farm" />
		<tag k="ssr:stedsnr" v="486862" />
	</node>
	<node lat="58.57402221778335" lon="8.532505549760472" id="-27962">
		<tag k="fixme" v="consider place=hamlet" />
		<tag k="name" v="Båseland" />
		<tag k="place" v="farm" />
		<tag k="ssr:stedsnr" v="486868" />
	</node>
	<node lat="58.48795833089114" lon="8.59845833198215" id="-27966">
		<tag k="name" v="Evjevollen" />
		<tag k="place" v="farm" />
		<tag k="ssr:stedsnr" v="519013" />
	</node>
	<node lat="58.55456944212446" lon="8.692936106017921" id="-27967">
		<tag k="name" v="Skyttemyr" />
		<tag k="place" v="farm" />
		<tag k="ssr:stedsnr" v="519202" />
	</node>
	<node lat="58.51908055624568" lon="8.63760000507455" id="-27969">
		<tag k="name" v="Mjølhusmyra" />
		<tag k="place" v="farm" />
		<tag k="ssr:stedsnr" v="519216" />
	</node>
	<node lat="58.63146389149562" lon="8.75265556037479" id="-27973">
		<tag k="name" v="Steinsmyr" />
		<tag k="place" v="locality" />
		<tag k="ssr:stedsnr" v="519316" />
	</node>
	<node lat="58.49489722046587" lon="8.404908336959162" id="-27984">
		<tag k="name" v="Holtebu sag" />
		<tag k="place" v="locality" />
		<tag k="ssr:stedsnr" v="535721" />
	</node>
	<node lat="58.6174138908006" lon="8.391869439987078" id="-28013">
		<tag k="name" v="Sveneshaugen" />
		<tag k="place" v="quarter" />
		<tag k="ssr:stedsnr" v="538019" />
	</node>
	<node lat="58.54504722190751" lon="8.534827772453626" id="-28049">
		<tag k="name" v="Brattelandseidet" />
		<tag k="place" v="farm" />
		<tag k="ssr:stedsnr" v="546624" />
	</node>
	<node lat="58.598888886259026" lon="8.672122228304826" id="-28055">
		<tag k="fixme" v="consider place=hamlet" />
		<tag k="name" v="Gauperå" />
		<tag k="place" v="farm" />
		<tag k="ssr:stedsnr" v="546828" />
	</node>
	<node lat="58.627819448385125" lon="8.665116666361044" id="-28056">
		<tag k="fixme" v="consider place=hamlet" />
		<tag k="name" v="Olsbu" />
		<tag k="place" v="farm" />
		<tag k="ssr:stedsnr" v="546724" />
	</node>
	<node lat="58.61805556767799" lon="8.619111805715033" id="-28058">
		<tag k="name" v="Olashage" />
		<tag k="place" v="farm" />
		<tag k="ssr:stedsnr" v="546780" />
	</node>
	<node lat="58.66104999661625" lon="8.073588897255444" id="-28065">
		<tag k="name" v="Vatneplassen" />
		<tag k="place" v="isolated_dwelling" />
		<tag k="ssr:stedsnr" v="547550" />
	</node>
	<node lat="58.56618610730755" lon="8.693519449245162" id="-28067">
		<tag k="fixme" v="consider place=hamlet" />
		<tag k="name" v="Langeid" />
		<tag k="place" v="farm" />
		<tag k="ssr:stedsnr" v="547677" />
	</node>
	<node lat="58.56971666850735" lon="8.529416673703897" id="-28071">
		<tag k="fixme" v="consider place=hamlet" />
		<tag k="name" v="Nesland" />
		<tag k="place" v="farm" />
		<tag k="ssr:stedsnr" v="547886" />
	</node>
	<node lat="58.50883055411076" lon="8.6643222173337" id="-28076">
		<tag k="name" v="Solås" />
		<tag k="place" v="farm" />
		<tag k="ssr:stedsnr" v="580029" />
	</node>
	<node lat="58.506549997230216" lon="8.663955547687706" id="-28078">
		<tag k="name" v="Ljosland" />
		<tag k="place" v="farm" />
		<tag k="ssr:stedsnr" v="580035" />
	</node>
	<node lat="58.46987777967793" lon="8.60690000031483" id="-28089">
		<tag k="name" v="Lillestø" />
		<tag k="place" v="farm" />
		<tag k="ssr:stedsnr" v="595853" />
	</node>
	<node lat="58.68164722062027" lon="8.216788892561583" id="-28119">
		<tag k="name" v="Plassen" />
		<tag k="place" v="locality" />
		<tag k="ssr:stedsnr" v="598605" />
	</node>
	<node lat="58.683477775331774" lon="8.3664722237424" id="-28148">
		<tag k="fixme" v="consider place=hamlet" />
		<tag k="name" v="Mo" />
		<tag k="place" v="farm" />
		<tag k="ssr:stedsnr" v="607321" />
	</node>
	<node lat="58.507822225645725" lon="8.630186114867964" id="-28150">
		<tag k="fixme" v="consider place=suburb, village or hamlet" />
		<tag k="name" v="Osedalen" />
		<tag k="place" v="quarter" />
		<tag k="ssr:stedsnr" v="607508" />
	</node>
	<node lat="58.5528138897045" lon="8.532713892269362" id="-28159">
		<tag k="name" v="Øygarden" />
		<tag k="place" v="farm" />
		<tag k="ssr:stedsnr" v="607647" />
	</node>
	<node lat="58.50340555124459" lon="8.600944436990428" id="-28168">
		<tag k="name" v="Borås" />
		<tag k="place" v="farm" />
		<tag k="ssr:stedsnr" v="701053" />
	</node>
	<node lat="58.49613610816517" lon="8.579444442923995" id="-28170">
		<tag k="name" v="Rustenberg" />
		<tag k="place" v="farm" />
		<tag k="ssr:stedsnr" v="701102" />
	</node>
	<node lat="58.52894166643782" lon="8.740499995862185" id="-28180">
		<tag k="name" v="Haugland" />
		<tag k="place" v="farm" />
		<tag k="ssr:stedsnr" v="701432" />
	</node>
	<node lat="58.486186115280155" lon="8.595916672566643" id="-28184">
		<tag k="fixme" v="multiple name tags, choose one and add the other to alt_name" />
		<tag k="name" v="Indre Neset;Neset" />
		<tag k="place" v="farm" />
		<tag k="ssr:stedsnr" v="640007" />
	</node>
	<node lat="58.483877776435826" lon="8.621916665918604" id="-28193">
		<tag k="name" v="Øvre Messel" />
		<tag k="place" v="farm" />
		<tag k="ssr:stedsnr" v="640241" />
	</node>
	<node lat="58.52116666330295" lon="8.442330547857361" id="-28198">
		<tag k="name" v="Kjennheia" />
		<tag k="place" v="farm" />
		<tag k="ssr:stedsnr" v="656010" />
	</node>
	<node lat="58.70460277985299" lon="8.211258334327463" id="-28222">
		<tag k="name" v="Bleiksbu" />
		<tag k="place" v="locality" />
		<tag k="ssr:stedsnr" v="658697" />
	</node>
	<node lat="58.48435000167749" lon="8.62662499911925" id="-28275">
		<tag k="name" v="Messel" />
		<tag k="place" v="farm" />
		<tag k="ssr:stedsnr" v="667638" />
	</node>
	<node lat="58.50212222179876" lon="8.437433328392526" id="-28276">
		<tag k="name" v="Rønningen" />
		<tag k="place" v="farm" />
		<tag k="ssr:stedsnr" v="668003" />
	</node>
	<node lat="58.670736107239954" lon="8.327994439657243" id="-28285">
		<tag k="name" v="Åstveit" />
		<tag k="place" v="farm" />
		<tag k="ssr:stedsnr" v="668318" />
	</node>
	<node lat="58.499640534483014" lon="8.644545010726318" id="-28290">
		<tag k="name" v="Blakstad" />
		<tag k="place" v="farm" />
		<tag k="ssr:stedsnr" v="668534" />
	</node>
	<node lat="58.49131944247242" lon="8.59713611419839" id="-28299">
		<tag k="name" v="Nesodden" />
		<tag k="place" v="farm" />
		<tag k="ssr:stedsnr" v="701016" />
	</node>
	<node lat="58.51653333501653" lon="8.442461116267818" id="-28314">
		<tag k="name" v="Kroken" />
		<tag k="place" v="farm" />
		<tag k="ssr:stedsnr" v="899128" />
	</node>
	<node lat="58.516008332424605" lon="8.544727784252952" id="-28321">
		<tag k="name" v="Uvassbua" />
		<tag k="place" v="locality" />
		<tag k="ssr:stedsnr" v="899420" />
	</node>
	<node lat="58.69579721937737" lon="8.113513883462014" id="-28334">
		<tag k="name" v="Øygardsbua" />
		<tag k="place" v="locality" />
		<tag k="ssr:stedsnr" v="719875" />
	</node>
	<node lat="58.511891663017316" lon="8.692600000542608" id="-28377">
		<tag k="name" v="Engemyr" />
		<tag k="place" v="farm" />
		<tag k="ssr:stedsnr" v="729505" />
	</node>
	<node lat="58.5005333331924" lon="8.579269445993837" id="-28378">
		<tag k="alt_name" v="Froland Verk" />
		<tag k="fixme" v="consider place=hamlet" />
		<tag k="name" v="Frolands verk" />
		<tag k="place" v="village" />
		<tag k="ssr:stedsnr" v="729522" />
	</node>
	<node lat="58.59589339303767" lon="8.624100684037257" id="-28382">
		<tag k="fixme" v="consider place=hamlet" />
		<tag k="name" v="Jomås" />
		<tag k="place" v="farm" />
		<tag k="ssr:stedsnr" v="729839" />
	</node>
	<node lat="58.57753888504395" lon="8.751733325786807" id="-28386">
		<tag k="alt_name" v="Flottjenndalen" />
		<tag k="name" v="Flottjerndalen" />
		<tag k="place" v="locality" />
		<tag k="ssr:stedsnr" v="729867" />
	</node>
	<node lat="58.537008333641126" lon="8.638808339615544" id="-28389">
		<tag k="name" v="Langemyr" />
		<tag k="place" v="farm" />
		<tag k="ssr:stedsnr" v="729706" />
	</node>
	<node lat="58.53189999573812" lon="8.708294436529833" id="-28390">
		<tag k="name" v="Nøkkstjenn" />
		<tag k="place" v="locality" />
		<tag k="ssr:stedsnr" v="729719" />
	</node>
	<node lat="58.50871225223136" lon="8.551607912337417" id="-28391">
		<tag k="name" v="Huset" />
		<tag k="place" v="farm" />
		<tag k="ssr:stedsnr" v="729770" />
	</node>
	<node lat="58.66208333244821" lon="8.508319450210792" id="-28393">
		<tag k="name" v="Hammen" />
		<tag k="place" v="isolated_dwelling" />
		<tag k="ssr:stedsnr" v="729966" />
	</node>
	<node lat="58.69487499902371" lon="8.06126110636645" id="-28403">
		<tag k="name" v="Befjellbua" />
		<tag k="place" v="locality" />
		<tag k="ssr:stedsnr" v="901915" />
	</node>
	<node lat="58.62493610965861" lon="8.478155553854567" id="-28411">
		<tag k="name" v="Åsvang" />
		<tag k="place" v="farm" />
		<tag k="ssr:stedsnr" v="902039" />
	</node>
	<node lat="58.65556388537176" lon="8.096255557257157" id="-28459">
		<tag k="name" v="Vang" />
		<tag k="place" v="isolated_dwelling" />
		<tag k="ssr:stedsnr" v="902983" />
	</node>
	<node lat="58.50123055219178" lon="8.603841660741042" id="-28489">
		<tag k="name" v="Heståsen" />
		<tag k="place" v="farm" />
		<tag k="ssr:stedsnr" v="762054" />
	</node>
	<node lat="58.50707777740832" lon="8.648438893649617" id="-28500">
		<tag k="name" v="Blakstad næringspark" />
		<tag k="place" v="quarter" />
		<tag k="ssr:stedsnr" v="766188" />
	</node>
	<node lat="58.60722222158999" lon="8.198674997589388" id="-28547">
		<tag k="name" v="Høgevoll" />
		<tag k="place" v="farm" />
		<tag k="ssr:stedsnr" v="781500" />
	</node>
	<node lat="58.489091648444195" lon="8.593780579831938" id="-28563">
		<tag k="name" v="Neset" />
		<tag k="place" v="farm" />
		<tag k="ssr:stedsnr" v="910676" />
	</node>
	<node lat="58.50682222575578" lon="8.394522221920278" id="-28566">
		<tag k="fixme" v="consider place=hamlet" />
		<tag k="name" v="Espestøl" />
		<tag k="place" v="farm" />
		<tag k="ssr:stedsnr" v="911002" />
	</node>
	<node lat="58.60202221941222" lon="8.418069452615429" id="-28568">
		<tag k="name" v="Hynnekleiv" />
		<tag k="place" v="hamlet" />
		<tag k="ssr:stedsnr" v="911162" />
	</node>
	<node lat="58.50355555956142" lon="8.639819445993021" id="-28580">
		<tag k="name" v="Stien" />
		<tag k="place" v="farm" />
		<tag k="ssr:stedsnr" v="911529" />
	</node>
	<node lat="58.58394166986856" lon="8.473016675017728" id="-28589">
		<tag k="fixme" v="consider place=hamlet" />
		<tag k="name" v="Rosæ" />
		<tag k="place" v="farm" />
		<tag k="ssr:stedsnr" v="789837" />
	</node>
	<node lat="58.60020901159191" lon="8.6413813547327" id="-28590">
		<tag k="name" v="Sagmyra" />
		<tag k="place" v="farm" />
		<tag k="ssr:stedsnr" v="789842" />
	</node>
	<node lat="58.62852778055698" lon="8.59849722408589" id="-28593">
		<tag k="fixme" v="consider place=hamlet" />
		<tag k="name" v="Omdal" />
		<tag k="place" v="farm" />
		<tag k="ssr:stedsnr" v="789763" />
	</node>
	<node lat="58.528608332871336" lon="8.682219452674333" id="-28612">
		<tag k="name" v="Tjennbonnen" />
		<tag k="place" v="farm" />
		<tag k="ssr:stedsnr" v="790743" />
	</node>
	<node lat="58.68565555973052" lon="8.041191668526283" id="-28617">
		<tag k="name" v="Ånnebua" />
		<tag k="place" v="isolated_dwelling" />
		<tag k="ssr:stedsnr" v="911624" />
	</node>
	<node lat="58.558047220254004" lon="8.692111110853274" id="-28620">
		<tag k="name" v="Skyttemyr" />
		<tag k="place" v="farm" />
		<tag k="ssr:stedsnr" v="911638" />
	</node>
	<node lat="58.646374996362724" lon="8.620244442362658" id="-28621">
		<tag k="fixme" v="consider place=hamlet" />
		<tag k="name" v="Øyrås" />
		<tag k="place" v="farm" />
		<tag k="ssr:stedsnr" v="911969" />
	</node>
	<node lat="58.55599166296955" lon="8.607613888001644" id="-28626">
		<tag k="fixme" v="consider place=hamlet" />
		<tag k="name" v="Løvjomås" />
		<tag k="place" v="village" />
		<tag k="ssr:stedsnr" v="813134" />
	</node>
	<node lat="58.4762277749948" lon="8.617249995786894" id="-28641">
		<tag k="name" v="Ålia" />
		<tag k="place" v="farm" />
		<tag k="ssr:stedsnr" v="823182" />
	</node>
	<node lat="58.497908332540376" lon="8.633988884849668" id="-28643">
		<tag k="name" v="Rødlende" />
		<tag k="place" v="farm" />
		<tag k="ssr:stedsnr" v="823194" />
	</node>
	<node lat="58.60948888776797" lon="8.7050500058838" id="-28648">
		<tag k="name" v="Kringsjå" />
		<tag k="place" v="isolated_dwelling" />
		<tag k="ssr:stedsnr" v="823310" />
	</node>
	<node lat="58.63261666926274" lon="8.103130558655923" id="-28649">
		<tag k="name" v="Førevatn" />
		<tag k="place" v="neighbourhood" />
		<tag k="ssr:stedsnr" v="829219" />
	</node>
	<node lat="58.56917777689537" lon="8.583269444031743" id="-28686">
		<tag k="name" v="Nordli" />
		<tag k="place" v="farm" />
		<tag k="ssr:stedsnr" v="842106" />
	</node>
	<node lat="58.501740708774214" lon="8.59402755592738" id="-28736">
		<tag k="alt_name" v="Tre" />
		<tag k="fixme" v="consider place=hamlet" />
		<tag k="name" v="Træ" />
		<tag k="place" v="farm" />
		<tag k="ssr:stedsnr" v="850530" />
	</node>
	<node lat="58.49856111295555" lon="8.579477783242483" id="-28740">
		<tag k="name" v="Seden" />
		<tag k="place" v="farm" />
		<tag k="ssr:stedsnr" v="850685" />
	</node>
	<node lat="58.51645277570252" lon="8.617850007009764" id="-28747">
		<tag k="name" v="Stien" />
		<tag k="place" v="farm" />
		<tag k="ssr:stedsnr" v="851715" />
	</node>
	<node lat="58.47957222354679" lon="8.624958332994899" id="-28749">
		<tag k="fixme" v="consider place=hamlet" />
		<tag k="name" v="Nedre Messel" />
		<tag k="place" v="farm" />
		<tag k="ssr:stedsnr" v="931037" />
	</node>
	<node lat="58.605283336611784" lon="8.433950000114459" id="-28765">
		<tag k="name" v="Skjersæ" />
		<tag k="place" v="neighbourhood" />
		<tag k="ssr:stedsnr" v="891270" />
	</node>
	<node lat="58.67002500324741" lon="8.044638885185023" id="-28776">
		<tag k="name" v="Åshams øygard" />
		<tag k="place" v="locality" />
		<tag k="ssr:stedsnr" v="901056" />
	</node>
	<node lat="58.585950003753865" lon="8.474272221903213" id="-28794">
		<tag k="name" v="Plassen" />
		<tag k="place" v="locality" />
		<tag k="ssr:stedsnr" v="902412" />
	</node>
	<node lat="58.511852774944956" lon="8.658888895275817" id="-28844">
		<tag k="name" v="Hillebu" />
		<tag k="place" v="farm" />
		<tag k="ssr:stedsnr" v="911513" />
	</node>
	<node lat="58.5254749980937" lon="8.647513890062724" id="-28858">
		<tag k="name" v="Prestegården" />
		<tag k="place" v="farm" />
		<tag k="ssr:stedsnr" v="944214" />
	</node>
	<node lat="58.58299166996471" lon="8.721022219146759" id="-28866">
		<tag k="name" v="Vålandsmyr" />
		<tag k="place" v="farm" />
		<tag k="ssr:stedsnr" v="944295" />
	</node>
	<node lat="58.527616665927404" lon="8.453086117296612" id="-28872">
		<tag k="building" v="industrial" />
		<tag k="name" v="Myrene bruk" />
		<tag k="ssr:stedsnr" v="960012" />
	</node>
	<node lat="58.645686109602416" lon="8.3305972201543" id="-28888">
		<tag k="fixme" v="consider place=hamlet" />
		<tag k="name" v="Øygarden" />
		<tag k="place" v="farm" />
		<tag k="ssr:stedsnr" v="962145" />
	</node>
	<node lat="58.64942222121678" lon="8.162052774479472" id="-28896">
		<tag k="name" v="Kile" />
		<tag k="place" v="isolated_dwelling" />
		<tag k="ssr:stedsnr" v="962503" />
	</node>
	<node lat="58.660711113318776" lon="8.24707777218205" id="-28905">
		<tag k="name" v="Vangen" />
		<tag k="place" v="farm" />
		<tag k="ssr:stedsnr" v="962694" />
	</node>
	<node lat="58.54847778128417" lon="8.268686112733935" id="-28919">
		<tag k="name" v="Lille Uldal" />
		<tag k="place" v="farm" />
		<tag k="ssr:stedsnr" v="963190" />
	</node>
	<node lat="58.66984090794739" lon="8.327773034667624" id="-28940">
		<tag k="fixme" v="consider place=hamlet" />
		<tag k="name" v="Ormstveit" />
		<tag k="place" v="farm" />
		<tag k="ssr:stedsnr" v="971489" />
	</node>
	<node lat="58.60151201449062" lon="8.41693178783894" id="-28941">
		<tag k="fixme" v="consider place=hamlet" />
		<tag k="name" v="Hønnekleiv" />
		<tag k="place" v="farm" />
		<tag k="ssr:stedsnr" v="971490" />
	</node>
	<node lat="58.49762936867537" lon="8.454119256228628" id="-28942">
		<tag k="fixme" v="consider place=hamlet" />
		<tag k="name" v="Tveiten" />
		<tag k="place" v="farm" />
		<tag k="ssr:stedsnr" v="971498" />
	</node>
	<node lat="58.49390691126348" lon="8.457021130129567" id="-28943">
		<tag k="name" v="Trantelien" />
		<tag k="place" v="locality" />
		<tag k="ssr:stedsnr" v="971501" />
	</node>
	<node lat="58.58078404301338" lon="8.71409655920732" id="-28944">
		<tag k="name" v="Solvang" />
		<tag k="place" v="farm" />
		<tag k="ssr:stedsnr" v="982694" />
	</node>
	<node lat="58.60058989104778" lon="8.259598365539743" id="-28948">
		<tag k="name" v="Bustaden" />
		<tag k="place" v="locality" />
		<tag k="ssr:stedsnr" v="337" />
	</node>
	<node lat="58.539318950827294" lon="8.668602950283578" id="-28950">
		<tag k="name" v="Stoet" />
		<tag k="place" v="farm" />
		<tag k="ssr:stedsnr" v="672" />
	</node>
	<node lat="58.47871666453263" lon="8.569699994673545" id="-28951">
		<tag k="fixme" v="consider place=hamlet" />
		<tag k="name" v="Augland" />
		<tag k="place" v="farm" />
		<tag k="ssr:stedsnr" v="676" />
	</node>
	<node lat="58.49963055545549" lon="8.641627782491888" id="-28955">
		<tag k="name" v="Mjølhus" />
		<tag k="place" v="farm" />
		<tag k="ssr:stedsnr" v="1724" />
	</node>
	<node lat="58.621922218717785" lon="8.591530552982075" id="-28956">
		<tag k="name" v="Omdalsmoen" />
		<tag k="place" v="farm" />
		<tag k="ssr:stedsnr" v="769" />
	</node>
	<node lat="58.57558055957102" lon="8.543938885061076" id="-28970">
		<tag k="name" v="Veråsdalen" />
		<tag k="place" v="farm" />
		<tag k="ssr:stedsnr" v="1824" />
	</node>
	<node lat="58.58374721942708" lon="8.550316663728488" id="-28971">
		<tag k="fixme" v="consider place=hamlet" />
		<tag k="name" v="Søysdal" />
		<tag k="place" v="farm" />
		<tag k="ssr:stedsnr" v="1825" />
	</node>
	<node lat="58.66210000031959" lon="8.160880554199688" id="-28974">
		<tag k="fixme" v="consider place=hamlet" />
		<tag k="name" v="Mjåvatn" />
		<tag k="place" v="farm" />
		<tag k="ssr:stedsnr" v="26658" />
	</node>
	<node lat="58.49666388988297" lon="8.582022223704211" id="-28975">
		<tag k="name" v="Rustenberg" />
		<tag k="place" v="farm" />
		<tag k="ssr:stedsnr" v="34066" />
	</node>
	<node lat="58.494150003677966" lon="8.662716658240294" id="-28988">
		<tag k="name" v="Langemyr" />
		<tag k="place" v="farm" />
		<tag k="ssr:stedsnr" v="34041" />
	</node>
	<node lat="58.487342091788975" lon="8.663320073678232" id="-28989">
		<tag k="name" v="Nikkelverket" />
		<tag k="place" v="quarter" />
		<tag k="ssr:stedsnr" v="34044" />
	</node>
	<node lat="58.50294167107209" lon="8.665386116358754" id="-28990">
		<tag k="name" v="Tersmyr" />
		<tag k="place" v="farm" />
		<tag k="ssr:stedsnr" v="34051" />
	</node>
	<node lat="58.70029166564103" lon="8.165466665963375" id="-29004">
		<tag k="name" v="Vervassheia" />
		<tag k="place" v="neighbourhood" />
		<tag k="ssr:stedsnr" v="40241" />
	</node>
	<node lat="58.455116667926625" lon="8.607972225590112" id="-29019">
		<tag k="name" v="Reinum" />
		<tag k="place" v="farm" />
		<tag k="ssr:stedsnr" v="49854" />
	</node>
	<node lat="58.66551111177908" lon="8.162397230467253" id="-29053">
		<tag k="name" v="Venemyr" />
		<tag k="place" v="farm" />
		<tag k="ssr:stedsnr" v="52544" />
	</node>
	<node lat="58.684430551354495" lon="8.296119449985156" id="-29068">
		<tag k="name" v="Lisle Auestad" />
		<tag k="place" v="locality" />
		<tag k="ssr:stedsnr" v="52853" />
	</node>
	<node lat="58.545088888493055" lon="8.536819441000691" id="-29098">
		<tag k="name" v="Osevollen" />
		<tag k="place" v="farm" />
		<tag k="ssr:stedsnr" v="53657" />
	</node>
	<node lat="58.46870277861412" lon="8.562005552020022" id="-29119">
		<tag k="fixme" v="consider place=hamlet" />
		<tag k="name" v="Mørløs" />
		<tag k="place" v="farm" />
		<tag k="ssr:stedsnr" v="61643" />
	</node>
	<node lat="58.47609143031825" lon="8.617627579469335" id="-29120">
		<tag k="fixme" v="consider place=hamlet" />
		<tag k="name" v="Ålia" />
		<tag k="place" v="farm" />
		<tag k="ssr:stedsnr" v="61661" />
	</node>
	<node lat="58.491066666043814" lon="8.62235277722391" id="-29121">
		<tag k="fixme" v="consider place=hamlet" />
		<tag k="name" v="Oveland" />
		<tag k="place" v="farm" />
		<tag k="ssr:stedsnr" v="61663" />
	</node>
	<node lat="58.537724760460556" lon="8.63835839199631" id="-29123">
		<tag k="name" v="Nordbø" />
		<tag k="place" v="farm" />
		<tag k="ssr:stedsnr" v="61667" />
	</node>
	<node lat="58.51328888597604" lon="8.718130553019776" id="-29124">
		<tag k="name" v="Liane" />
		<tag k="place" v="isolated_dwelling" />
		<tag k="ssr:stedsnr" v="61729" />
	</node>
	<node lat="58.683531886072416" lon="8.27598455031455" id="-29127">
		<tag k="alt_name" v="Austad" />
		<tag k="name" v="Auestad" />
		<tag k="place" v="farm" />
		<tag k="ssr:stedsnr" v="61442" />
	</node>
	<node lat="58.538738886419935" lon="8.489680558000765" id="-29130">
		<tag k="fixme" v="consider place=hamlet" />
		<tag k="name" v="Mjåvatn" />
		<tag k="place" v="village" />
		<tag k="ssr:stedsnr" v="61673" />
	</node>
	<node lat="58.493019446074285" lon="8.587519436475969" id="-29131">
		<tag k="alt_name" v="Blakenberg" />
		<tag k="name" v="Blankenberg" />
		<tag k="place" v="farm" />
		<tag k="ssr:stedsnr" v="61677" />
	</node>
	<node lat="58.58202820509789" lon="8.662339501930019" id="-29133">
		<tag k="alt_name" v="Songelien" />
		<tag k="fixme" v="consider place=hamlet" />
		<tag k="name" v="Songelia" />
		<tag k="place" v="farm" />
		<tag k="ssr:stedsnr" v="61856" />
	</node>
	<node lat="58.63502222655049" lon="8.565936110134711" id="-29137">
		<tag k="name" v="Frivoll" />
		<tag k="place" v="farm" />
		<tag k="ssr:stedsnr" v="62783" />
	</node>
	<node lat="58.541972226221375" lon="8.249005562979372" id="-29138">
		<tag k="alt_name" v="Treldalen" />
		<tag k="name" v="Trældalen" />
		<tag k="place" v="farm" />
		<tag k="ssr:stedsnr" v="62236" />
	</node>
	<node lat="58.6387777742339" lon="8.330966658160735" id="-29141">
		<tag k="fixme" v="consider place=hamlet" />
		<tag k="name" v="Belland" />
		<tag k="place" v="farm" />
		<tag k="ssr:stedsnr" v="62247" />
	</node>
	<node lat="58.622877775138946" lon="8.367999996626745" id="-29142">
		<tag k="name" v="Ås" />
		<tag k="place" v="farm" />
		<tag k="ssr:stedsnr" v="62347" />
	</node>
	<node lat="58.51871944534428" lon="8.637894450594276" id="-29148">
		<tag k="name" v="Lia" />
		<tag k="place" v="farm" />
		<tag k="ssr:stedsnr" v="62735" />
	</node>
	<node lat="58.51398888872765" lon="8.668241665513571" id="-29150">
		<tag k="name" v="Plassen" />
		<tag k="place" v="farm" />
		<tag k="ssr:stedsnr" v="62739" />
	</node>
	<node lat="58.51336944820747" lon="8.697736110124167" id="-29151">
		<tag k="name" v="Engekjerra" />
		<tag k="place" v="farm" />
		<tag k="ssr:stedsnr" v="62741" />
	</node>
	<node lat="58.664780559748145" lon="8.492241673867468" id="-29155">
		<tag k="fixme" v="consider tourism=alpine_hut or tourism=chalet" />
		<tag k="name" v="Olandsbu" />
		<tag k="ssr:stedsnr" v="85815" />
		<tag k="tourism" v="wilderness_hut" />
	</node>
	<node lat="58.616899997491025" lon="8.521311110567424" id="-29199">
		<tag k="name" v="Kroktveit" />
		<tag k="place" v="locality" />
		<tag k="ssr:stedsnr" v="113128" />
	</node>
	<node lat="58.650841667271045" lon="8.618916662872271" id="-29268">
		<tag k="name" v="Steløa" />
		<tag k="place" v="locality" />
		<tag k="ssr:stedsnr" v="113866" />
	</node>
	<node lat="58.551673504552184" lon="8.634230670045943" id="-29305">
		<tag k="alt_name" v="Dalsmo" />
		<tag k="name" v="Dalsmonen" />
		<tag k="place" v="farm" />
		<tag k="ssr:stedsnr" v="121644" />
	</node>
	<node lat="58.550644443460754" lon="8.61457499208379" id="-29307">
		<tag k="name" v="Bujordet" />
		<tag k="place" v="farm" />
		<tag k="ssr:stedsnr" v="121649" />
	</node>
	<node lat="58.51250010349723" lon="8.587643300560794" id="-29310">
		<tag k="name" v="Flaten" />
		<tag k="place" v="isolated_dwelling" />
		<tag k="ssr:stedsnr" v="122721" />
	</node>
	<node lat="58.61419166961279" lon="8.353263890095029" id="-29317">
		<tag k="name" v="Liansplassen" />
		<tag k="place" v="isolated_dwelling" />
		<tag k="ssr:stedsnr" v="122351" />
	</node>
	<node lat="58.507838890332586" lon="8.623555553487558" id="-29327">
		<tag k="fixme" v="consider place=hamlet" />
		<tag k="name" v="Songe" />
		<tag k="place" v="farm" />
		<tag k="ssr:stedsnr" v="122493" />
	</node>
	<node lat="58.643759873489685" lon="8.054441899867216" id="-29329">
		<tag k="alt_name" v="Øvre Liene" />
		<tag k="fixme" v="consider place=hamlet" />
		<tag k="name" v="Liane" />
		<tag k="place" v="farm" />
		<tag k="ssr:stedsnr" v="122544" />
	</node>
	<node lat="58.59911388556499" lon="8.616452776178049" id="-29334">
		<tag k="name" v="Leikvangen" />
		<tag k="place" v="farm" />
		<tag k="ssr:stedsnr" v="122826" />
	</node>
	<node lat="58.57544630604151" lon="8.645401290227747" id="-29350">
		<tag k="fixme" v="multiple name tags, choose one and add the other to alt_name" />
		<tag k="name" v="Muserå;Sleikbekk" />
		<tag k="place" v="farm" />
		<tag k="ssr:stedsnr" v="122851" />
	</node>
	<node lat="58.48194722484199" lon="8.67058611898" id="-29354">
		<tag k="name" v="Skinnaren nedre" />
		<tag k="place" v="farm" />
		<tag k="ssr:stedsnr" v="155022" />
	</node>
	<node lat="58.50346666783064" lon="8.587841675178037" id="-29360">
		<tag k="name" v="Rughagen" />
		<tag k="place" v="farm" />
		<tag k="ssr:stedsnr" v="155073" />
	</node>
	<node lat="58.517208334100786" lon="8.650513893957102" id="-29375">
		<tag k="name" v="Fidje" />
		<tag k="place" v="farm" />
		<tag k="ssr:stedsnr" v="155232" />
	</node>
	<node lat="58.51004722045345" lon="8.60571944260488" id="-29377">
		<tag k="name" v="Tveitstrand" />
		<tag k="place" v="farm" />
		<tag k="ssr:stedsnr" v="155237" />
	</node>
	<node lat="58.471197225318285" lon="8.613711111270007" id="-29382">
		<tag k="name" v="Reiersøl planteskole" />
		<tag k="place" v="locality" />
		<tag k="ssr:stedsnr" v="170881" />
	</node>
	<node lat="58.627763888445536" lon="8.275733335158282" id="-29405">
		<tag k="name" v="Lillemykland" />
		<tag k="place" v="farm" />
		<tag k="ssr:stedsnr" v="173317" />
	</node>
	<node lat="58.65743333660351" lon="8.108680555181977" id="-29427">
		<tag k="name" v="Sørli" />
		<tag k="place" v="farm" />
		<tag k="ssr:stedsnr" v="173963" />
	</node>
	<node lat="58.57524167023013" lon="8.540266668652949" id="-29436">
		<tag k="name" v="Jenses plass" />
		<tag k="place" v="locality" />
		<tag k="ssr:stedsnr" v="174067" />
	</node>
	<node lat="58.54110833439125" lon="8.483761114547342" id="-29455">
		<tag k="name" v="Skotet" />
		<tag k="place" v="farm" />
		<tag k="ssr:stedsnr" v="174496" />
	</node>
	<node lat="58.5671999960137" lon="8.584961107992713" id="-29480">
		<tag k="name" v="Holmen" />
		<tag k="place" v="farm" />
		<tag k="ssr:stedsnr" v="175081" />
	</node>
	<node lat="58.55399444551848" lon="8.265316668003885" id="-29487">
		<tag k="fixme" v="consider place=hamlet" />
		<tag k="name" v="Uldal" />
		<tag k="place" v="farm" />
		<tag k="ssr:stedsnr" v="182229" />
	</node>
	<node lat="58.55060338374742" lon="8.635874625548789" id="-29493">
		<tag k="name" v="Dalskleiva" />
		<tag k="place" v="farm" />
		<tag k="ssr:stedsnr" v="182640" />
	</node>
	<node lat="58.51193151739951" lon="8.593752104027415" id="-29494">
		<tag k="fixme" v="consider place=hamlet" />
		<tag k="name" v="Tveiten" />
		<tag k="place" v="farm" />
		<tag k="ssr:stedsnr" v="182727" />
	</node>
	<node lat="58.475205711346916" lon="8.621614000122372" id="-29496">
		<tag k="alt_name" v="Høyvoll;Nedre Høgvoll" />
		<tag k="name" v="Høgvoll, nedre" />
		<tag k="place" v="farm" />
		<tag k="ssr:stedsnr" v="182663" />
	</node>
	<node lat="58.493861111171114" lon="8.632647229020858" id="-29497">
		<tag k="fixme" v="consider place=hamlet" />
		<tag k="name" v="Nedre Blakstad" />
		<tag k="place" v="farm" />
		<tag k="ssr:stedsnr" v="182673" />
	</node>
	<node lat="58.48597981748161" lon="8.637624746466155" id="-29498">
		<tag k="name" v="Heidalen" />
		<tag k="place" v="farm" />
		<tag k="ssr:stedsnr" v="182674" />
	</node>
	<node lat="58.6259666688789" lon="8.541836103810196" id="-29501">
		<tag k="fixme" v="consider place=hamlet" />
		<tag k="name" v="Sparsås" />
		<tag k="place" v="farm" />
		<tag k="ssr:stedsnr" v="182742" />
	</node>
	<node lat="58.6025696358541" lon="8.663104277310685" id="-29504">
		<tag k="name" v="Fjellmyra" />
		<tag k="place" v="locality" />
		<tag k="ssr:stedsnr" v="182779" />
	</node>
	<node lat="58.66945832885827" lon="8.24981666422696" id="-29512">
		<tag k="alt_name" v="Lauvrak;Lauvrak øvre" />
		<tag k="fixme" v="consider place=hamlet" />
		<tag k="name" v="Øvre Lauvrak" />
		<tag k="place" v="farm" />
		<tag k="ssr:stedsnr" v="183267" />
	</node>
	<node lat="58.56444215355847" lon="8.638845188258657" id="-29516">
		<tag k="name" v="Berget" />
		<tag k="place" v="farm" />
		<tag k="ssr:stedsnr" v="183618" />
	</node>
	<node lat="58.53060277690829" lon="8.654638884181365" id="-29517">
		<tag k="name" v="Froland" />
		<tag k="place" v="farm" />
		<tag k="ssr:stedsnr" v="183677" />
	</node>
	<node lat="58.66048055422321" lon="8.061136118787493" id="-29520">
		<tag k="fixme" v="consider place=hamlet" />
		<tag k="name" v="Vatne" />
		<tag k="place" v="farm" />
		<tag k="ssr:stedsnr" v="183483" />
	</node>
	<node lat="58.6125416683603" lon="8.59017778378112" id="-29523">
		<tag k="name" v="Bilitt" />
		<tag k="place" v="farm" />
		<tag k="ssr:stedsnr" v="183824" />
	</node>
	<node lat="58.572641664310034" lon="8.630191672447847" id="-29526">
		<tag k="alt_name" v="Myglerød" />
		<tag k="name" v="Møglerød" />
		<tag k="place" v="farm" />
		<tag k="ssr:stedsnr" v="183858" />
	</node>
	<node lat="58.6100055522228" lon="8.48186944456816" id="-29533">
		<tag k="fixme" v="consider place=hamlet" />
		<tag k="name" v="Lauvland" />
		<tag k="place" v="farm" />
		<tag k="ssr:stedsnr" v="183761" />
	</node>
	<node lat="58.50018034381077" lon="8.644061571046366" id="-29536">
		<tag k="fixme" v="consider place=hamlet" />
		<tag k="name" v="Øvre Blakstad" />
		<tag k="place" v="farm" />
		<tag k="ssr:stedsnr" v="203047" />
	</node>
	<node lat="58.479249996738176" lon="8.673152780540127" id="-29538">
		<tag k="name" v="Skuggestøl nedre" />
		<tag k="place" v="farm" />
		<tag k="ssr:stedsnr" v="216019" />
	</node>
	<node lat="58.57499444443426" lon="8.748233327470722" id="-29561">
		<tag k="name" v="Herselkleiva" />
		<tag k="place" v="locality" />
		<tag k="ssr:stedsnr" v="276394" />
	</node>
	<node lat="58.52164166533241" lon="8.720066662086348" id="-29569">
		<tag k="name" v="Tverrmyr" />
		<tag k="place" v="locality" />
		<tag k="ssr:stedsnr" v="276439" />
	</node>
	<node lat="58.499586113927435" lon="8.667622221255304" id="-29572">
		<tag k="name" v="Fagerlia" />
		<tag k="place" v="farm" />
		<tag k="ssr:stedsnr" v="277029" />
	</node>
	<node lat="58.48926666351565" lon="8.627150000747347" id="-29576">
		<tag k="name" v="Ferjestaden" />
		<tag k="place" v="farm" />
		<tag k="ssr:stedsnr" v="277191" />
	</node>
	<node lat="58.486122220449126" lon="8.612927777683344" id="-29577">
		<tag k="name" v="Sundheim" />
		<tag k="place" v="farm" />
		<tag k="ssr:stedsnr" v="277193" />
	</node>
	<node lat="58.48546278440175" lon="8.62730424863457" id="-29579">
		<tag k="name" v="Rønningen" />
		<tag k="place" v="farm" />
		<tag k="ssr:stedsnr" v="277195" />
	</node>
	<node lat="58.46709722432284" lon="8.605666672058854" id="-29590">
		<tag k="name" v="Kleivene" />
		<tag k="place" v="farm" />
		<tag k="ssr:stedsnr" v="292861" />
	</node>
	<node lat="58.646783335322574" lon="8.336588884731851" id="-29625">
		<tag k="name" v="Terkelssag" />
		<tag k="place" v="locality" />
		<tag k="ssr:stedsnr" v="295359" />
	</node>
	<node lat="58.61176944604659" lon="8.363102785930366" id="-29627">
		<tag k="name" v="Tereleikløa" />
		<tag k="place" v="locality" />
		<tag k="ssr:stedsnr" v="295452" />
	</node>
	<node lat="58.54206389275137" lon="8.509813889904015" id="-29656">
		<tag k="name" v="Gjuvatsli" />
		<tag k="place" v="farm" />
		<tag k="ssr:stedsnr" v="295619" />
	</node>
	<node lat="58.557211108241816" lon="8.604094435920402" id="-29692">
		<tag k="name" v="Bones" />
		<tag k="place" v="farm" />
		<tag k="ssr:stedsnr" v="296680" />
	</node>
	<node lat="58.50486844447048" lon="8.459568265947825" id="-29704">
		<tag k="fixme" v="consider place=hamlet" />
		<tag k="name" v="Håland" />
		<tag k="place" v="farm" />
		<tag k="ssr:stedsnr" v="304004" />
	</node>
	<node lat="58.56122777932794" lon="8.606794436010311" id="-29714">
		<tag k="name" v="Byttingsmyra" />
		<tag k="place" v="farm" />
		<tag k="ssr:stedsnr" v="304640" />
	</node>
	<node lat="58.54503055177845" lon="8.691177770849109" id="-29722">
		<tag k="name" v="Venemyr" />
		<tag k="place" v="farm" />
		<tag k="ssr:stedsnr" v="304688" />
	</node>
	<node lat="58.528991668967585" lon="8.74051944292281" id="-29723">
		<tag k="name" v="Rønningen" />
		<tag k="place" v="farm" />
		<tag k="ssr:stedsnr" v="304733" />
	</node>
	<node lat="58.519216665734625" lon="8.644997215118968" id="-29725">
		<tag k="name" v="Skreddarhagen" />
		<tag k="place" v="farm" />
		<tag k="ssr:stedsnr" v="304747" />
	</node>
	<node lat="58.62353042993369" lon="8.6198338786985" id="-29727">
		<tag k="name" v="Knuten" />
		<tag k="place" v="farm" />
		<tag k="ssr:stedsnr" v="304771" />
	</node>
	<node lat="58.62899721932825" lon="8.533136103775291" id="-29732">
		<tag k="name" v="Solhaug" />
		<tag k="place" v="farm" />
		<tag k="ssr:stedsnr" v="304978" />
	</node>
	<node lat="58.59748332910454" lon="8.673330560045512" id="-29734">
		<tag k="name" v="Gauperåmyra" />
		<tag k="place" v="farm" />
		<tag k="ssr:stedsnr" v="304864" />
	</node>
	<node lat="58.559997223825086" lon="8.613505547208606" id="-29735">
		<tag k="name" v="Østre Løvjomås" />
		<tag k="place" v="farm" />
		<tag k="ssr:stedsnr" v="327283" />
	</node>
	<node lat="58.51056667034062" lon="8.632586102496369" id="-29736">
		<tag k="name" v="Sagstuen" />
		<tag k="place" v="farm" />
		<tag k="ssr:stedsnr" v="337234" />
	</node>
	<node lat="58.480122220792296" lon="8.66873611184718" id="-29740">
		<tag k="name" v="Skuggestøl øvre" />
		<tag k="place" v="farm" />
		<tag k="ssr:stedsnr" v="337021" />
	</node>
	<node lat="58.62623333311777" lon="8.73190277834472" id="-29750">
		<tag k="name" v="Lunde" />
		<tag k="place" v="farm" />
		<tag k="ssr:stedsnr" v="337298" />
	</node>
	<node lat="58.50967777956367" lon="8.42906944595894" id="-29770">
		<tag k="name" v="Solhaug" />
		<tag k="place" v="isolated_dwelling" />
		<tag k="ssr:stedsnr" v="353086" />
	</node>
	<node lat="58.502325002092434" lon="8.433555561096162" id="-29771">
		<tag k="name" v="Plassen" />
		<tag k="place" v="locality" />
		<tag k="ssr:stedsnr" v="353093" />
	</node>
	<node lat="58.67453611532972" lon="8.159527776482532" id="-29843">
		<tag k="name" v="Tønnebrekk" />
		<tag k="place" v="farm" />
		<tag k="ssr:stedsnr" v="356591" />
	</node>
	<node lat="58.668719445422816" lon="8.124852774987414" id="-29863">
		<tag k="fixme" v="consider place=hamlet" />
		<tag k="name" v="Risdal" />
		<tag k="place" v="farm" />
		<tag k="ssr:stedsnr" v="364293" />
	</node>
	<node lat="58.61791731910972" lon="8.447045221820787" id="-29870">
		<tag k="name" v="Fivedalen" />
		<tag k="place" v="locality" />
		<tag k="ssr:stedsnr" v="364345" />
	</node>
	<node lat="58.500812421213915" lon="8.609569998441051" id="-29871">
		<tag k="name" v="Kleivene" />
		<tag k="place" v="farm" />
		<tag k="ssr:stedsnr" v="364534" />
	</node>
	<node lat="58.544684060652536" lon="8.635854407628257" id="-29872">
		<tag k="alt_name" v="Trollemoen" />
		<tag k="name" v="Trollmoen" />
		<tag k="place" v="farm" />
		<tag k="ssr:stedsnr" v="364673" />
	</node>
	<node lat="58.50764722227761" lon="8.560247217339619" id="-29876">
		<tag k="name" v="Høllen" />
		<tag k="place" v="farm" />
		<tag k="ssr:stedsnr" v="364756" />
	</node>
	<node lat="58.62797778060367" lon="8.522805550261129" id="-29881">
		<tag k="loc_name" v="Heldalmo" />
		<tag k="name" v="Helldalsmo" />
		<tag k="place" v="isolated_dwelling" />
		<tag k="ssr:stedsnr" v="364780" />
	</node>
	<node lat="58.631949995915" lon="8.287952784761323" id="-29892">
		<tag k="fixme" v="consider place=hamlet" />
		<tag k="name" v="Mykland" />
		<tag k="place" v="village" />
		<tag k="ssr:stedsnr" v="365381" />
	</node>
	<node lat="58.517947221696225" lon="8.650799992748311" id="-29894">
		<tag k="fixme" v="consider place=hamlet" />
		<tag k="name" v="Fidje" />
		<tag k="place" v="farm" />
		<tag k="ssr:stedsnr" v="365750" />
	</node>
	<node lat="58.64344167094397" lon="8.574963896738522" id="-29897">
		<tag k="fixme" v="consider place=hamlet" />
		<tag k="name" v="Moripen" />
		<tag k="place" v="farm" />
		<tag k="ssr:stedsnr" v="365976" />
	</node>
	<node lat="58.55555832900103" lon="8.6077694449353" id="-29900">
		<tag k="name" v="Vestre Løvjomås" />
		<tag k="place" v="farm" />
		<tag k="ssr:stedsnr" v="388259" />
	</node>
	<node lat="58.487266662954376" lon="8.616102786027433" id="-29910">
		<tag k="name" v="Haugen" />
		<tag k="place" v="farm" />
		<tag k="ssr:stedsnr" v="398218" />
	</node>
	<node lat="58.502036115476145" lon="8.65525555111932" id="-29911">
		<tag k="name" v="Nybu" />
		<tag k="place" v="farm" />
		<tag k="ssr:stedsnr" v="398221" />
	</node>
	<node lat="58.56348888582934" lon="8.728458332046682" id="-29912">
		<tag k="name" v="Gravningen" />
		<tag k="place" v="locality" />
		<tag k="ssr:stedsnr" v="398288" />
	</node>
	<node lat="58.486994441255995" lon="8.62483056376052" id="-29926">
		<tag k="fixme" v="consider place=hamlet" />
		<tag k="name" v="Øvre Messel" />
		<tag k="place" v="farm" />
		<tag k="ssr:stedsnr" v="400252" />
	</node>
	<node lat="58.65912222019198" lon="8.154116664210342" id="-29961">
		<tag k="name" v="Gjømle" />
		<tag k="place" v="farm" />
		<tag k="ssr:stedsnr" v="416554" />
	</node>
	<node lat="58.66793333482681" lon="8.25161388929602" id="-29981">
		<tag k="name" v="Haugen" />
		<tag k="place" v="farm" />
		<tag k="ssr:stedsnr" v="416675" />
	</node>
	<node lat="58.59714167096966" lon="8.55109166707616" id="-30004">
		<tag k="name" v="Gjødselmyrplassen" />
		<tag k="place" v="locality" />
		<tag k="ssr:stedsnr" v="417450" />
	</node>
	<node lat="58.54248611410525" lon="8.701352774837863" id="-30032">
		<tag k="name" v="Bukkemyra" />
		<tag k="place" v="farm" />
		<tag k="ssr:stedsnr" v="425670" />
	</node>
	<node lat="58.50352499608331" lon="8.660874992986871" id="-30038">
		<tag k="name" v="Nybu" />
		<tag k="place" v="farm" />
		<tag k="ssr:stedsnr" v="425492" />
	</node>
	<node lat="58.499862436199116" lon="8.455387455547024" id="-30042">
		<tag k="name" v="Tveiten" />
		<tag k="place" v="farm" />
		<tag k="ssr:stedsnr" v="426011" />
	</node>
	<node lat="58.63960833013196" lon="8.163911117581167" id="-30045">
		<tag k="fixme" v="consider place=hamlet" />
		<tag k="name" v="Nystøl" />
		<tag k="place" v="farm" />
		<tag k="ssr:stedsnr" v="426258" />
	</node>
	<node lat="58.509727774294525" lon="8.685599996622424" id="-30062">
		<tag k="alt_name" v="Gullknapp Vestre" />
		<tag k="name" v="Gullknapp" />
		<tag k="place" v="farm" />
		<tag k="ssr:stedsnr" v="519046" />
	</node>
	<node lat="58.504363887747516" lon="8.586180557978187" id="-30063">
		<tag k="name" v="Nordeng" />
		<tag k="place" v="farm" />
		<tag k="ssr:stedsnr" v="519055" />
	</node>
	<node lat="58.5818000016353" lon="8.226197222667908" id="-30082">
		<tag k="name" v="Kilane" />
		<tag k="place" v="neighbourhood" />
		<tag k="ssr:stedsnr" v="525252" />
	</node>
	<node lat="58.498530552529296" lon="8.444336109242105" id="-30092">
		<tag k="name" v="Tveiteøygard" />
		<tag k="place" v="locality" />
		<tag k="ssr:stedsnr" v="535391" />
	</node>
</osm>
