<?xml version="1.0" encoding="UTF-8"?>
<osm version="0.6" generator="osmapis">
	<node lat="58.676311111648914" lon="8.30741666927609" id="-31927">
		<tag k="name" v="Kabbumyra" />
		<tag k="natural" v="wetland" />
		<tag k="ssr:stedsnr" v="307" />
	</node>
	<node lat="58.67885555507464" lon="8.328061114045992" id="-31928">
		<tag k="name" v="Njukemyra" />
		<tag k="natural" v="wetland" />
		<tag k="ssr:stedsnr" v="309" />
	</node>
	<node lat="58.52852222513949" lon="8.433244441731336" id="-31940">
		<tag k="alt_name" v="Heilsmyra" />
		<tag k="name" v="Heilsmyr" />
		<tag k="natural" v="wetland" />
		<tag k="ssr:stedsnr" v="1043" />
	</node>
	<node lat="58.48892222341852" lon="8.42576944034799" id="-31959">
		<tag k="name" v="Kartemyr" />
		<tag k="natural" v="wetland" />
		<tag k="ssr:stedsnr" v="231764" />
	</node>
	<node lat="58.640049999433835" lon="8.26832222859161" id="-31966">
		<tag k="name" v="Varpkjerra" />
		<tag k="natural" v="wetland" />
		<tag k="ssr:stedsnr" v="233218" />
	</node>
	<node lat="58.633974999714475" lon="8.466008330171482" id="-31967">
		<tag k="name" v="Bukkekjerr" />
		<tag k="natural" v="wetland" />
		<tag k="ssr:stedsnr" v="233336" />
	</node>
	<node lat="58.642177775438164" lon="8.31727499903936" id="-31971">
		<tag k="name" v="Ågardsmyr" />
		<tag k="natural" v="wetland" />
		<tag k="ssr:stedsnr" v="234145" />
	</node>
	<node lat="58.63798610938434" lon="8.5683472191088" id="-31973">
		<tag k="name" v="Fossholta" />
		<tag k="place" v="locality" />
		<tag k="ssr:stedsnr" v="234053" />
	</node>
	<node lat="58.56601666962114" lon="8.465219451270963" id="-31978">
		<tag k="name" v="Steffensmyr" />
		<tag k="natural" v="wetland" />
		<tag k="ssr:stedsnr" v="234243" />
	</node>
	<node lat="58.6153750040969" lon="8.32877222995186" id="-31979">
		<tag k="name" v="Djupemyr" />
		<tag k="natural" v="wetland" />
		<tag k="ssr:stedsnr" v="234250" />
	</node>
	<node lat="58.642061112026056" lon="8.389427782004475" id="-31982">
		<tag k="name" v="Vreistekleivmyra" />
		<tag k="natural" v="wetland" />
		<tag k="ssr:stedsnr" v="234364" />
	</node>
	<node lat="58.62203888514981" lon="8.27791943860207" id="-31991">
		<tag k="name" v="Høgemyr" />
		<tag k="natural" v="wetland" />
		<tag k="ssr:stedsnr" v="234571" />
	</node>
	<node lat="58.66769167027661" lon="8.242774997051722" id="-31994">
		<tag k="name" v="Skauland" />
		<tag k="place" v="locality" />
		<tag k="ssr:stedsnr" v="234722" />
	</node>
	<node lat="58.669322224587454" lon="8.499588889705832" id="-31998">
		<tag k="name" v="Ostemyr" />
		<tag k="natural" v="wetland" />
		<tag k="ssr:stedsnr" v="234669" />
	</node>
	<node lat="58.608744444446224" lon="8.258691670764616" id="-32001">
		<tag k="name" v="Uldalssteane" />
		<tag k="natural" v="wetland" />
		<tag k="ssr:stedsnr" v="234746" />
	</node>
	<node lat="58.69600833758208" lon="8.245280546966377" id="-32005">
		<tag k="name" v="Øvre Djupedalsmyrane" />
		<tag k="natural" v="wetland" />
		<tag k="ssr:stedsnr" v="234769" />
	</node>
	<node lat="58.6690805512364" lon="8.257161111790845" id="-32006">
		<tag k="name" v="Kvernhuskjerret" />
		<tag k="natural" v="wetland" />
		<tag k="ssr:stedsnr" v="234845" />
	</node>
	<node lat="58.57561666885414" lon="8.506113882994596" id="-32012">
		<tag k="name" v="Fotskjerr" />
		<tag k="natural" v="wetland" />
		<tag k="ssr:stedsnr" v="235015" />
	</node>
	<node lat="58.57598888517779" lon="8.559708340756991" id="-32019">
		<tag k="name" v="Grinåsmyr" />
		<tag k="natural" v="wetland" />
		<tag k="ssr:stedsnr" v="235126" />
	</node>
	<node lat="58.57681667116088" lon="8.606138895761644" id="-32021">
		<tag k="name" v="Sotesteene" />
		<tag k="natural" v="wetland" />
		<tag k="ssr:stedsnr" v="235943" />
	</node>
	<node lat="58.6229416624325" lon="8.345936114152009" id="-32023">
		<tag k="name" v="Sprikeholtet" />
		<tag k="place" v="locality" />
		<tag k="ssr:stedsnr" v="235466" />
	</node>
	<node lat="58.60091944270927" lon="8.606444451348624" id="-32024">
		<tag k="name" v="Stemstea" />
		<tag k="natural" v="wetland" />
		<tag k="ssr:stedsnr" v="235468" />
	</node>
	<node lat="58.613986108564724" lon="8.362688891580936" id="-32025">
		<tag k="name" v="Eikedalsmyr" />
		<tag k="natural" v="wetland" />
		<tag k="ssr:stedsnr" v="235472" />
	</node>
	<node lat="58.61704166738361" lon="8.189830563640525" id="-32028">
		<tag k="name" v="Djupemyr" />
		<tag k="natural" v="wetland" />
		<tag k="ssr:stedsnr" v="235588" />
	</node>
	<node lat="58.550261115339545" lon="8.46039444634539" id="-32029">
		<tag k="name" v="Langemyr" />
		<tag k="natural" v="wetland" />
		<tag k="ssr:stedsnr" v="235589" />
	</node>
	<node lat="58.593997217948434" lon="8.22268610887903" id="-32032">
		<tag k="name" v="Eptevassmyra" />
		<tag k="natural" v="wetland" />
		<tag k="ssr:stedsnr" v="235610" />
	</node>
	<node lat="58.559030560047695" lon="8.59008611532151" id="-32042">
		<tag k="name" v="Nesteinsmyr" />
		<tag k="natural" v="wetland" />
		<tag k="ssr:stedsnr" v="235748" />
	</node>
	<node lat="58.54500833570886" lon="8.571869441900587" id="-32043">
		<tag k="name" v="Tereleikmyr" />
		<tag k="natural" v="wetland" />
		<tag k="ssr:stedsnr" v="235726" />
	</node>
	<node lat="58.60878889198273" lon="8.701400003430518" id="-32051">
		<tag k="name" v="Småmyrene" />
		<tag k="natural" v="wetland" />
		<tag k="ssr:stedsnr" v="34301" />
	</node>
	<node lat="58.60182500294833" lon="8.484305557749124" id="-32055">
		<tag k="name" v="Dyblemyr" />
		<tag k="natural" v="wetland" />
		<tag k="ssr:stedsnr" v="235956" />
	</node>
	<node lat="58.594680557894534" lon="8.49241943831051" id="-32056">
		<tag k="name" v="Torbulimyra" />
		<tag k="natural" v="wetland" />
		<tag k="ssr:stedsnr" v="235961" />
	</node>
	<node lat="58.63643333535772" lon="8.222277771211282" id="-32062">
		<tag k="name" v="Surtemyr" />
		<tag k="natural" v="wetland" />
		<tag k="ssr:stedsnr" v="51183" />
	</node>
	<node lat="58.62938611030639" lon="8.272905561149322" id="-32064">
		<tag k="name" v="Dyblemyr" />
		<tag k="place" v="locality" />
		<tag k="ssr:stedsnr" v="51216" />
	</node>
	<node lat="58.680980558681014" lon="8.308024992129086" id="-32065">
		<tag k="name" v="Revemyr" />
		<tag k="natural" v="wetland" />
		<tag k="ssr:stedsnr" v="51874" />
	</node>
	<node lat="58.69684166984322" lon="8.120316658743839" id="-32066">
		<tag k="name" v="Kveinslåttane" />
		<tag k="natural" v="wetland" />
		<tag k="ssr:stedsnr" v="51886" />
	</node>
	<node lat="58.68046666691056" lon="8.005799997862558" id="-32068">
		<tag k="name" v="Middagsteinen" />
		<tag k="natural" v="stone" />
		<tag k="ssr:stedsnr" v="52074" />
	</node>
	<node lat="58.697958333366266" lon="8.026063884095924" id="-32070">
		<tag k="name" v="Kjørgjilkjerret" />
		<tag k="natural" v="wetland" />
		<tag k="ssr:stedsnr" v="51977" />
	</node>
	<node lat="58.6677166635649" lon="8.176152783246096" id="-32077">
		<tag k="name" v="Øvre Ovedalsmyr" />
		<tag k="natural" v="wetland" />
		<tag k="ssr:stedsnr" v="52510" />
	</node>
	<node lat="58.69966388655574" lon="8.293163884248358" id="-32081">
		<tag k="name" v="Grinnarholta" />
		<tag k="place" v="locality" />
		<tag k="ssr:stedsnr" v="52720" />
	</node>
	<node lat="58.6498666646651" lon="8.239750005388862" id="-32084">
		<tag k="name" v="Årgardsmyra" />
		<tag k="natural" v="wetland" />
		<tag k="ssr:stedsnr" v="52620" />
	</node>
	<node lat="58.66664999886444" lon="8.498805563827574" id="-32086">
		<tag k="name" v="Brennstagslåtta" />
		<tag k="natural" v="wetland" />
		<tag k="ssr:stedsnr" v="52806" />
	</node>
	<node lat="58.65289166408434" lon="8.503086106943302" id="-32089">
		<tag k="name" v="Fjellveggslåttane" />
		<tag k="natural" v="wetland" />
		<tag k="ssr:stedsnr" v="52817" />
	</node>
	<node lat="58.65059166248205" lon="8.096574997422968" id="-32091">
		<tag k="name" v="Heie-Langemyr" />
		<tag k="natural" v="wetland" />
		<tag k="ssr:stedsnr" v="52985" />
	</node>
	<node lat="58.574444440817906" lon="8.52884999607524" id="-32097">
		<tag k="name" v="Steene" />
		<tag k="natural" v="wetland" />
		<tag k="ssr:stedsnr" v="53012" />
	</node>
	<node lat="58.621630556280984" lon="8.470350005471808" id="-32099">
		<tag k="name" v="Kjempeholta" />
		<tag k="place" v="locality" />
		<tag k="ssr:stedsnr" v="53023" />
	</node>
	<node lat="58.578780554977534" lon="8.322697221013257" id="-32103">
		<tag k="name" v="Rønningen" />
		<tag k="place" v="locality" />
		<tag k="ssr:stedsnr" v="53313" />
	</node>
	<node lat="58.56738333028318" lon="8.266991671904249" id="-32108">
		<tag k="name" v="Moldkleivmyra" />
		<tag k="natural" v="wetland" />
		<tag k="ssr:stedsnr" v="53272" />
	</node>
	<node lat="58.551569445780046" lon="8.424308336370911" id="-32109">
		<tag k="name" v="Kjerborgmyra" />
		<tag k="natural" v="wetland" />
		<tag k="ssr:stedsnr" v="53467" />
	</node>
	<node lat="58.58723610926824" lon="8.646180555908543" id="-32111">
		<tag k="name" v="Ingborgsmyr" />
		<tag k="natural" v="wetland" />
		<tag k="ssr:stedsnr" v="53472" />
	</node>
	<node lat="58.67881944803277" lon="8.155088888389123" id="-32114">
		<tag k="name" v="Hellergrøvane" />
		<tag k="place" v="locality" />
		<tag k="ssr:stedsnr" v="53602" />
	</node>
	<node lat="58.54392500224805" lon="8.62898055262377" id="-32119">
		<tag k="name" v="Snømyr" />
		<tag k="natural" v="wetland" />
		<tag k="ssr:stedsnr" v="53777" />
	</node>
	<node lat="58.67549444489831" lon="8.253205560373964" id="-32123">
		<tag k="name" v="Ormefjellkjerra" />
		<tag k="natural" v="wetland" />
		<tag k="ssr:stedsnr" v="53812" />
	</node>
	<node lat="58.58811111425219" lon="8.445461105164991" id="-32128">
		<tag k="name" v="Snømyr" />
		<tag k="natural" v="wetland" />
		<tag k="ssr:stedsnr" v="53972" />
	</node>
	<node lat="58.57978888849362" lon="8.620013886779955" id="-32129">
		<tag k="name" v="Langemyr på heia" />
		<tag k="natural" v="wetland" />
		<tag k="ssr:stedsnr" v="53975" />
	</node>
	<node lat="58.69835555853214" lon="8.10873332912919" id="-32148">
		<tag k="name" v="Saueslåttane" />
		<tag k="natural" v="wetland" />
		<tag k="ssr:stedsnr" v="62470" />
	</node>
	<node lat="58.69948610687843" lon="8.177650004420908" id="-32150">
		<tag k="name" v="Venhommen" />
		<tag k="place" v="locality" />
		<tag k="ssr:stedsnr" v="62483" />
	</node>
	<node lat="58.64179999843983" lon="8.304497226284635" id="-32177">
		<tag k="name" v="Storemyr" />
		<tag k="natural" v="wetland" />
		<tag k="ssr:stedsnr" v="244263" />
	</node>
	<node lat="58.53289444084019" lon="8.587777776145142" id="-32190">
		<tag k="name" v="Nistemyr" />
		<tag k="natural" v="wetland" />
		<tag k="ssr:stedsnr" v="94017" />
	</node>
	<node lat="58.50574999584275" lon="8.675483339479836" id="-32191">
		<tag k="name" v="Djupmyr" />
		<tag k="natural" v="wetland" />
		<tag k="ssr:stedsnr" v="94020" />
	</node>
	<node lat="58.64298889283813" lon="8.662308340502813" id="-32196">
		<tag k="name" v="Ytre Stormyrholta" />
		<tag k="place" v="locality" />
		<tag k="ssr:stedsnr" v="94167" />
	</node>
	<node lat="58.57894722262092" lon="8.702886104396088" id="-32197">
		<tag k="name" v="Vallemyr" />
		<tag k="natural" v="wetland" />
		<tag k="ssr:stedsnr" v="94170" />
	</node>
	<node lat="58.57688610737022" lon="8.680522222711346" id="-32200">
		<tag k="name" v="Lille Heimyr" />
		<tag k="natural" v="wetland" />
		<tag k="ssr:stedsnr" v="94184" />
	</node>
	<node lat="58.569936114657494" lon="8.726274992138052" id="-32207">
		<tag k="name" v="Rånsmyra" />
		<tag k="natural" v="wetland" />
		<tag k="ssr:stedsnr" v="94401" />
	</node>
	<node lat="58.634702780204854" lon="8.607599999244608" id="-32228">
		<tag k="name" v="Breimyr" />
		<tag k="natural" v="wetland" />
		<tag k="ssr:stedsnr" v="113508" />
	</node>
	<node lat="58.64932777678991" lon="8.199016671380486" id="-32230">
		<tag k="name" v="Porskjerra" />
		<tag k="natural" v="wetland" />
		<tag k="ssr:stedsnr" v="113518" />
	</node>
	<node lat="58.68295278082837" lon="8.241833330616315" id="-32231">
		<tag k="name" v="Hågeste" />
		<tag k="natural" v="wetland" />
		<tag k="ssr:stedsnr" v="113520" />
	</node>
	<node lat="58.62278333385265" lon="8.187491664290661" id="-32232">
		<tag k="name" v="Beresundmyra" />
		<tag k="natural" v="wetland" />
		<tag k="ssr:stedsnr" v="113528" />
	</node>
	<node lat="58.6301222247533" lon="8.65486110380743" id="-32233">
		<tag k="name" v="Kristerskjerr" />
		<tag k="natural" v="wetland" />
		<tag k="ssr:stedsnr" v="113533" />
	</node>
	<node lat="58.68888333450672" lon="8.205372220996104" id="-32239">
		<tag k="name" v="Bergemyr" />
		<tag k="natural" v="wetland" />
		<tag k="ssr:stedsnr" v="113567" />
	</node>
	<node lat="58.68576111111207" lon="8.199474997628815" id="-32240">
		<tag k="name" v="Drengskjerra" />
		<tag k="natural" v="wetland" />
		<tag k="ssr:stedsnr" v="113570" />
	</node>
	<node lat="58.66398055337493" lon="8.478377773004967" id="-32250">
		<tag k="name" v="Strandmyra" />
		<tag k="natural" v="wetland" />
		<tag k="ssr:stedsnr" v="113649" />
	</node>
	<node lat="58.65811944652444" lon="8.240541661453038" id="-32251">
		<tag k="name" v="Moltemyr-lille" />
		<tag k="natural" v="wetland" />
		<tag k="ssr:stedsnr" v="113718" />
	</node>
	<node lat="58.653050002022695" lon="8.09280278363922" id="-32255">
		<tag k="name" v="Gullringslåtta" />
		<tag k="natural" v="wetland" />
		<tag k="ssr:stedsnr" v="113975" />
	</node>
	<node lat="58.652863889224555" lon="8.096519436643662" id="-32256">
		<tag k="name" v="Vatne-Langemyr" />
		<tag k="natural" v="wetland" />
		<tag k="ssr:stedsnr" v="113977" />
	</node>
	<node lat="58.53557222077858" lon="8.703699992491487" id="-32280">
		<tag k="name" v="Dyblene" />
		<tag k="natural" v="wetland" />
		<tag k="ssr:stedsnr" v="155053" />
	</node>
	<node lat="58.47983610674027" lon="8.603422220323704" id="-32281">
		<tag k="name" v="Storemyr" />
		<tag k="natural" v="wetland" />
		<tag k="ssr:stedsnr" v="155001" />
	</node>
	<node lat="58.61229166715809" lon="8.680008332507624" id="-32287">
		<tag k="name" v="Midtmyr" />
		<tag k="natural" v="wetland" />
		<tag k="ssr:stedsnr" v="155334" />
	</node>
	<node lat="58.50726944381183" lon="8.52543888447025" id="-32291">
		<tag k="name" v="Stesmyr" />
		<tag k="natural" v="wetland" />
		<tag k="ssr:stedsnr" v="171409" />
	</node>
	<node lat="58.46319722086077" lon="8.541097225560062" id="-32296">
		<tag k="name" v="Brattebergmyr" />
		<tag k="natural" v="wetland" />
		<tag k="ssr:stedsnr" v="171910" />
	</node>
	<node lat="58.643213890637085" lon="8.537305554315592" id="-32307">
		<tag k="name" v="Hanemyrane" />
		<tag k="natural" v="wetland" />
		<tag k="ssr:stedsnr" v="173620" />
	</node>
	<node lat="58.668091668306914" lon="8.23246943879905" id="-32308">
		<tag k="name" v="Røyrkjerra" />
		<tag k="natural" v="wetland" />
		<tag k="ssr:stedsnr" v="173670" />
	</node>
	<node lat="58.654536111178096" lon="8.247586106263817" id="-32309">
		<tag k="name" v="Rullet" />
		<tag k="place" v="locality" />
		<tag k="ssr:stedsnr" v="173704" />
	</node>
	<node lat="58.6551555552534" lon="8.248133341107058" id="-32310">
		<tag k="name" v="Jordtaket" />
		<tag k="natural" v="wetland" />
		<tag k="ssr:stedsnr" v="173706" />
	</node>
	<node lat="58.60616109883853" lon="8.478002684159422" id="-32320">
		<tag k="name" v="Kattemyrene" />
		<tag k="natural" v="wetland" />
		<tag k="ssr:stedsnr" v="174132" />
	</node>
	<node lat="58.557294445514486" lon="8.281611116219286" id="-32322">
		<tag k="name" v="Kolhuskjerra" />
		<tag k="natural" v="wetland" />
		<tag k="ssr:stedsnr" v="174148" />
	</node>
	<node lat="58.620725003620066" lon="8.324166665839796" id="-32326">
		<tag k="name" v="Sakseslåtten" />
		<tag k="natural" v="wetland" />
		<tag k="ssr:stedsnr" v="174309" />
	</node>
	<node lat="58.54658055580639" lon="8.419633339986726" id="-32332">
		<tag k="name" v="Langemyr" />
		<tag k="natural" v="wetland" />
		<tag k="ssr:stedsnr" v="174504" />
	</node>
	<node lat="58.5974527806092" lon="8.636675003497258" id="-32333">
		<tag k="name" v="Songdalsmyra" />
		<tag k="natural" v="wetland" />
		<tag k="ssr:stedsnr" v="174506" />
	</node>
	<node lat="58.55573333276648" lon="8.467997222002094" id="-32337">
		<tag k="name" v="Guttormsmyrene" />
		<tag k="natural" v="wetland" />
		<tag k="ssr:stedsnr" v="174617" />
	</node>
	<node lat="58.58876666379076" lon="8.315680548606222" id="-32338">
		<tag k="name" v="Trongfjellmyra" />
		<tag k="natural" v="wetland" />
		<tag k="ssr:stedsnr" v="174625" />
	</node>
	<node lat="58.65686666562551" lon="8.324361113608488" id="-32341">
		<tag k="name" v="Smaleslåtta" />
		<tag k="natural" v="wetland" />
		<tag k="ssr:stedsnr" v="174672" />
	</node>
	<node lat="58.65125277955389" lon="8.366622221807658" id="-32345">
		<tag k="name" v="Dyblemyr" />
		<tag k="natural" v="wetland" />
		<tag k="ssr:stedsnr" v="174717" />
	</node>
	<node lat="58.66230833575856" lon="8.348111118566672" id="-32346">
		<tag k="name" v="Langemyr" />
		<tag k="natural" v="wetland" />
		<tag k="ssr:stedsnr" v="174720" />
	</node>
	<node lat="58.628094441745446" lon="8.20935555870091" id="-32359">
		<tag k="alt_name" v="Jordesmyra" />
		<tag k="name" v="Jordesmyr" />
		<tag k="natural" v="wetland" />
		<tag k="ssr:stedsnr" v="183342" />
	</node>
	<node lat="58.48307500059804" lon="8.557533328138698" id="-32375">
		<tag k="name" v="Vevsmyr" />
		<tag k="natural" v="wetland" />
		<tag k="ssr:stedsnr" v="216006" />
	</node>
	<node lat="58.526677777347984" lon="8.662677777971567" id="-32377">
		<tag k="name" v="Brattkleivmyra" />
		<tag k="natural" v="wetland" />
		<tag k="ssr:stedsnr" v="216051" />
	</node>
	<node lat="58.62769999743479" lon="8.670199999926318" id="-32380">
		<tag k="name" v="Myra" />
		<tag k="place" v="locality" />
		<tag k="ssr:stedsnr" v="216108" />
	</node>
	<node lat="58.57745277782505" lon="8.74007223003116" id="-32381">
		<tag k="name" v="Eikåsmyra" />
		<tag k="natural" v="wetland" />
		<tag k="ssr:stedsnr" v="216282" />
	</node>
	<node lat="58.57321110824021" lon="8.732055557033771" id="-32382">
		<tag k="name" v="Bjorstemmen" />
		<tag k="natural" v="wetland" />
		<tag k="ssr:stedsnr" v="216283" />
	</node>
	<node lat="58.56617500369705" lon="8.729075002784501" id="-32384">
		<tag k="name" v="Steinen" />
		<tag k="natural" v="stone" />
		<tag k="ssr:stedsnr" v="216288" />
	</node>
	<node lat="58.598216665371986" lon="8.724758332093604" id="-32386">
		<tag k="name" v="Langemyr" />
		<tag k="natural" v="wetland" />
		<tag k="ssr:stedsnr" v="216299" />
	</node>
	<node lat="58.637669442733525" lon="8.525694438550875" id="-32408">
		<tag k="name" v="Hanemyrane" />
		<tag k="natural" v="wetland" />
		<tag k="ssr:stedsnr" v="234039" />
	</node>
	<node lat="58.60846944313808" lon="8.546208334664213" id="-32411">
		<tag k="name" v="Orremyr" />
		<tag k="natural" v="wetland" />
		<tag k="ssr:stedsnr" v="234136" />
	</node>
	<node lat="58.668038891757924" lon="8.186594447407957" id="-32417">
		<tag k="name" v="Ospekjerrslåttene" />
		<tag k="natural" v="wetland" />
		<tag k="ssr:stedsnr" v="234530" />
	</node>
	<node lat="58.66779999886646" lon="8.173013889986786" id="-32418">
		<tag k="name" v="Nedre Ovedalsmyr" />
		<tag k="natural" v="wetland" />
		<tag k="ssr:stedsnr" v="234532" />
	</node>
	<node lat="58.64832222404948" lon="8.283436118148222" id="-32422">
		<tag k="name" v="Lågemyr" />
		<tag k="natural" v="wetland" />
		<tag k="ssr:stedsnr" v="234628" />
	</node>
	<node lat="58.67219444262677" lon="8.477966658417335" id="-32423">
		<tag k="name" v="Stimyr" />
		<tag k="natural" v="wetland" />
		<tag k="ssr:stedsnr" v="234682" />
	</node>
	<node lat="58.66055833335651" lon="8.537052777937088" id="-32431">
		<tag k="name" v="Bjørkeholtsslåttane" />
		<tag k="natural" v="wetland" />
		<tag k="ssr:stedsnr" v="234838" />
	</node>
	<node lat="58.595544448680045" lon="8.461827784382965" id="-32433">
		<tag k="name" v="Bakkeste" />
		<tag k="natural" v="wetland" />
		<tag k="ssr:stedsnr" v="234998" />
	</node>
	<node lat="58.5693499981363" lon="8.599011118725779" id="-32434">
		<tag k="name" v="Stea" />
		<tag k="natural" v="wetland" />
		<tag k="ssr:stedsnr" v="235112" />
	</node>
	<node lat="58.619811111982735" lon="8.443122216841036" id="-32438">
		<tag k="name" v="Orremyra" />
		<tag k="natural" v="wetland" />
		<tag k="ssr:stedsnr" v="235034" />
	</node>
	<node lat="58.623616667163915" lon="8.626447227947025" id="-32440">
		<tag k="name" v="Trolldalshagen" />
		<tag k="place" v="locality" />
		<tag k="ssr:stedsnr" v="235233" />
	</node>
	<node lat="58.560913891558855" lon="8.244386113817" id="-32441">
		<tag k="name" v="Orreleikmyr" />
		<tag k="natural" v="wetland" />
		<tag k="ssr:stedsnr" v="235180" />
	</node>
	<node lat="58.5761861144925" lon="8.271944441993782" id="-32447">
		<tag k="name" v="Austre Bjønnskjeggmyra" />
		<tag k="natural" v="wetland" />
		<tag k="ssr:stedsnr" v="235279" />
	</node>
	<node lat="58.57791111083361" lon="8.24668889306797" id="-32448">
		<tag k="name" v="Vestre Bjønnskjeggmyrane" />
		<tag k="natural" v="wetland" />
		<tag k="ssr:stedsnr" v="235284" />
	</node>
	<node lat="58.59331944562823" lon="8.639483331345724" id="-32453">
		<tag k="name" v="Skredderkjerr" />
		<tag k="natural" v="wetland" />
		<tag k="ssr:stedsnr" v="235487" />
	</node>
	<node lat="58.54647221883546" lon="8.416472220387801" id="-32454">
		<tag k="name" v="Tverrmyr" />
		<tag k="natural" v="wetland" />
		<tag k="ssr:stedsnr" v="235493" />
	</node>
	<node lat="58.61478611301293" lon="8.221005554673209" id="-32458">
		<tag k="name" v="Tveitdalsmyra" />
		<tag k="natural" v="wetland" />
		<tag k="ssr:stedsnr" v="235553" />
	</node>
	<node lat="58.59540832939537" lon="8.427675001778807" id="-32462">
		<tag k="name" v="Midtslåtta" />
		<tag k="natural" v="wetland" />
		<tag k="ssr:stedsnr" v="235760" />
	</node>
	<node lat="58.55097221885119" lon="8.643561115224522" id="-32466">
		<tag k="name" v="Iglemyr" />
		<tag k="natural" v="wetland" />
		<tag k="ssr:stedsnr" v="235827" />
	</node>
	<node lat="58.52458055893774" lon="8.685405552120558" id="-32484">
		<tag k="name" v="Signemyr" />
		<tag k="natural" v="wetland" />
		<tag k="ssr:stedsnr" v="459041" />
	</node>
	<node lat="58.53021111341629" lon="8.70472500202479" id="-32485">
		<tag k="name" v="Torvhusmyra" />
		<tag k="natural" v="wetland" />
		<tag k="ssr:stedsnr" v="459043" />
	</node>
	<node lat="58.574416666938845" lon="8.711511107692882" id="-32490">
		<tag k="name" v="Lillevoll" />
		<tag k="place" v="locality" />
		<tag k="ssr:stedsnr" v="459140" />
	</node>
	<node lat="58.57050555958997" lon="8.673494444835208" id="-32493">
		<tag k="name" v="Savmyra" />
		<tag k="natural" v="wetland" />
		<tag k="ssr:stedsnr" v="459148" />
	</node>
	<node lat="58.52223055933882" lon="8.683397221979654" id="-32499">
		<tag k="name" v="Fluktshaglia" />
		<tag k="place" v="locality" />
		<tag k="ssr:stedsnr" v="276078" />
	</node>
	<node lat="58.57914444656622" lon="8.699161104198863" id="-32503">
		<tag k="name" v="Vallemoenkjerra" />
		<tag k="natural" v="wetland" />
		<tag k="ssr:stedsnr" v="276174" />
	</node>
	<node lat="58.60948611346324" lon="8.681808338687905" id="-32507">
		<tag k="name" v="Lyngmyr" />
		<tag k="natural" v="wetland" />
		<tag k="ssr:stedsnr" v="276405" />
	</node>
	<node lat="58.610544444536515" lon="8.678588892436194" id="-32508">
		<tag k="name" v="Marimyr" />
		<tag k="natural" v="wetland" />
		<tag k="ssr:stedsnr" v="276416" />
	</node>
	<node lat="58.58521111380812" lon="8.729469448269743" id="-32510">
		<tag k="name" v="Lillemyr" />
		<tag k="natural" v="wetland" />
		<tag k="ssr:stedsnr" v="276327" />
	</node>
	<node lat="58.48689166581938" lon="8.552605552419903" id="-32513">
		<tag k="name" v="Langeslåtte" />
		<tag k="natural" v="wetland" />
		<tag k="ssr:stedsnr" v="277008" />
	</node>
	<node lat="58.52164722365988" lon="8.46450555351728" id="-32516">
		<tag k="name" v="Fleremarka" />
		<tag k="place" v="locality" />
		<tag k="ssr:stedsnr" v="292027" />
	</node>
	<node lat="58.512797226552124" lon="8.420838884977503" id="-32518">
		<tag k="name" v="Lundene" />
		<tag k="place" v="locality" />
		<tag k="ssr:stedsnr" v="292062" />
	</node>
	<node lat="58.50159166632079" lon="8.41665834171915" id="-32519">
		<tag k="name" v="Myra i heia" />
		<tag k="natural" v="wetland" />
		<tag k="ssr:stedsnr" v="292086" />
	</node>
	<node lat="58.50681944561542" lon="8.41283888147061" id="-32520">
		<tag k="name" v="Åsmundsmyr" />
		<tag k="natural" v="wetland" />
		<tag k="ssr:stedsnr" v="292094" />
	</node>
	<node lat="58.64124722165112" lon="8.191105560654618" id="-32530">
		<tag k="name" v="Rundemyr" />
		<tag k="natural" v="wetland" />
		<tag k="ssr:stedsnr" v="294001" />
	</node>
	<node lat="58.64011666300609" lon="8.21022499699707" id="-32532">
		<tag k="name" v="Jurdalsmyra" />
		<tag k="natural" v="wetland" />
		<tag k="ssr:stedsnr" v="294225" />
	</node>
	<node lat="58.62958055960891" lon="8.45921389595681" id="-32533">
		<tag k="name" v="Hauglimyr" />
		<tag k="natural" v="wetland" />
		<tag k="ssr:stedsnr" v="294302" />
	</node>
	<node lat="58.69679166428006" lon="8.168988889385782" id="-32534">
		<tag k="name" v="Eivendsmyr" />
		<tag k="natural" v="wetland" />
		<tag k="ssr:stedsnr" v="294711" />
	</node>
	<node lat="58.62686666222094" lon="8.266372218250451" id="-32541">
		<tag k="name" v="Storemyr" />
		<tag k="natural" v="wetland" />
		<tag k="ssr:stedsnr" v="295174" />
	</node>
	<node lat="58.55521111288308" lon="8.279247221690948" id="-32543">
		<tag k="name" v="Blåmyr" />
		<tag k="natural" v="wetland" />
		<tag k="ssr:stedsnr" v="295195" />
	</node>
	<node lat="58.60210278065563" lon="8.58083889455265" id="-32548">
		<tag k="name" v="Elgmyr" />
		<tag k="natural" v="wetland" />
		<tag k="ssr:stedsnr" v="295403" />
	</node>
	<node lat="58.59843889000384" lon="8.586236110621263" id="-32550">
		<tag k="name" v="Dyblemyr" />
		<tag k="natural" v="wetland" />
		<tag k="ssr:stedsnr" v="295414" />
	</node>
	<node lat="58.637347221803765" lon="8.389100002555702" id="-32553">
		<tag k="name" v="Lundemyra" />
		<tag k="natural" v="wetland" />
		<tag k="ssr:stedsnr" v="295377" />
	</node>
	<node lat="58.67769999895598" lon="8.151683327221862" id="-32560">
		<tag k="name" v="Grønemyr" />
		<tag k="natural" v="wetland" />
		<tag k="ssr:stedsnr" v="295586" />
	</node>
	<node lat="58.65154722002028" lon="8.22653055898369" id="-32563">
		<tag k="name" v="Kjørkemyr" />
		<tag k="natural" v="wetland" />
		<tag k="ssr:stedsnr" v="295730" />
	</node>
	<node lat="58.65479999879808" lon="8.228116669994266" id="-32564">
		<tag k="name" v="Tallaksmyr" />
		<tag k="natural" v="wetland" />
		<tag k="ssr:stedsnr" v="295731" />
	</node>
	<node lat="58.65551111446008" lon="8.222602774823425" id="-32566">
		<tag k="name" v="Dyblemyr" />
		<tag k="natural" v="wetland" />
		<tag k="ssr:stedsnr" v="295734" />
	</node>
	<node lat="58.65759444302485" lon="8.482063881126752" id="-32572">
		<tag k="name" v="Småtjønnmyra" />
		<tag k="natural" v="wetland" />
		<tag k="ssr:stedsnr" v="295693" />
	</node>
	<node lat="58.58764166951451" lon="8.650086109091271" id="-32575">
		<tag k="name" v="Lindalsmyra" />
		<tag k="natural" v="wetland" />
		<tag k="ssr:stedsnr" v="296422" />
	</node>
	<node lat="58.58940277909759" lon="8.645386112062077" id="-32576">
		<tag k="name" v="Eikbruåsmyra" />
		<tag k="natural" v="wetland" />
		<tag k="ssr:stedsnr" v="296427" />
	</node>
	<node lat="58.55563333708176" lon="8.650758338948243" id="-32577">
		<tag k="name" v="Orremyr" />
		<tag k="natural" v="wetland" />
		<tag k="ssr:stedsnr" v="296827" />
	</node>
	<node lat="58.558177781204435" lon="8.551736105398632" id="-32578">
		<tag k="name" v="Dyblemyr" />
		<tag k="natural" v="wetland" />
		<tag k="ssr:stedsnr" v="296705" />
	</node>
	<node lat="58.59575000036921" lon="8.424613881092654" id="-32579">
		<tag k="name" v="Hestemyr" />
		<tag k="natural" v="wetland" />
		<tag k="ssr:stedsnr" v="296719" />
	</node>
	<node lat="58.53503055546381" lon="8.443913881306964" id="-32582">
		<tag k="fixme" v="multiple name tags, choose one and add the other to alt_name" />
		<tag k="name" v="Viemyr;Store Viemyr" />
		<tag k="natural" v="wetland" />
		<tag k="ssr:stedsnr" v="304188" />
	</node>
	<node lat="58.49283611504517" lon="8.558691673743311" id="-32600">
		<tag k="name" v="Dypmyr" />
		<tag k="natural" v="wetland" />
		<tag k="ssr:stedsnr" v="337014" />
	</node>
	<node lat="58.52384444085822" lon="8.665022230491372" id="-32602">
		<tag k="landuse" v="meadow" />
		<tag k="name" v="Nordste" />
		<tag k="ssr:stedsnr" v="337062" />
	</node>
	<node lat="58.55668888766848" lon="8.678405557823432" id="-32610">
		<tag k="name" v="Bujordet" />
		<tag k="place" v="locality" />
		<tag k="ssr:stedsnr" v="337196" />
	</node>
	<node lat="58.54808889005945" lon="8.719574992933948" id="-32612">
		<tag k="name" v="Djupmyr" />
		<tag k="natural" v="wetland" />
		<tag k="ssr:stedsnr" v="337312" />
	</node>
	<node lat="58.4642500006951" lon="8.55984722949269" id="-32617">
		<tag k="name" v="Brinksmyrene" />
		<tag k="natural" v="wetland" />
		<tag k="ssr:stedsnr" v="473888" />
	</node>
	<node lat="58.52579166356966" lon="8.469594448540473" id="-32628">
		<tag k="name" v="Kålhusmyra" />
		<tag k="natural" v="wetland" />
		<tag k="ssr:stedsnr" v="353020" />
	</node>
	<node lat="58.6439055577072" lon="8.264436116800299" id="-32637">
		<tag k="name" v="Kringlemyr" />
		<tag k="natural" v="wetland" />
		<tag k="ssr:stedsnr" v="354204" />
	</node>
	<node lat="58.69699999998152" lon="7.981402777308703" id="-32640">
		<tag k="name" v="Tolleholtet" />
		<tag k="place" v="locality" />
		<tag k="ssr:stedsnr" v="354982" />
	</node>
	<node lat="58.63560555851034" lon="8.389961119493494" id="-32642">
		<tag k="name" v="Våtraumyra" />
		<tag k="natural" v="wetland" />
		<tag k="ssr:stedsnr" v="355285" />
	</node>
	<node lat="58.63613055338535" lon="8.48054444486378" id="-32643">
		<tag k="name" v="Mellesmyrene" />
		<tag k="natural" v="wetland" />
		<tag k="ssr:stedsnr" v="355294" />
	</node>
	<node lat="58.627033330964366" lon="8.470655563956145" id="-32645">
		<tag k="alt_name" v="Bortedalsmyra" />
		<tag k="name" v="Bortedalsmyr" />
		<tag k="natural" v="wetland" />
		<tag k="ssr:stedsnr" v="355299" />
	</node>
	<node lat="58.488702778957645" lon="8.383797215248496" id="-32646">
		<tag k="name" v="Moltemyra" />
		<tag k="natural" v="wetland" />
		<tag k="ssr:stedsnr" v="474741" />
	</node>
	<node lat="58.625147222723086" lon="8.259647217946625" id="-32648">
		<tag k="alt_name" v="Langbrustea" />
		<tag k="name" v="Langbrusteane" />
		<tag k="natural" v="wetland" />
		<tag k="ssr:stedsnr" v="355182" />
	</node>
	<node lat="58.6132138890053" lon="8.258141666061851" id="-32649">
		<tag k="name" v="Torskebu" />
		<tag k="place" v="locality" />
		<tag k="ssr:stedsnr" v="355612" />
	</node>
	<node lat="58.665633330022445" lon="8.265772216695302" id="-32652">
		<tag k="name" v="Kringlemyr" />
		<tag k="natural" v="wetland" />
		<tag k="ssr:stedsnr" v="355734" />
	</node>
	<node lat="58.646169444471084" lon="8.101761114768486" id="-32653">
		<tag k="name" v="Inngjerdskjerra" />
		<tag k="natural" v="wetland" />
		<tag k="ssr:stedsnr" v="355738" />
	</node>
	<node lat="58.57995277736873" lon="8.498650008278894" id="-32658">
		<tag k="name" v="Tellaugmyr" />
		<tag k="natural" v="wetland" />
		<tag k="ssr:stedsnr" v="356003" />
	</node>
	<node lat="58.577588885001894" lon="8.595055562874537" id="-32663">
		<tag k="name" v="Dyblemyr" />
		<tag k="natural" v="wetland" />
		<tag k="ssr:stedsnr" v="356122" />
	</node>
	<node lat="58.62265555117148" lon="8.349841668647143" id="-32668">
		<tag k="name" v="Sprikemyra" />
		<tag k="natural" v="wetland" />
		<tag k="ssr:stedsnr" v="356441" />
	</node>
	<node lat="58.62388611099145" lon="8.3524388834634" id="-32670">
		<tag k="name" v="Fivelmyra" />
		<tag k="natural" v="wetland" />
		<tag k="ssr:stedsnr" v="356447" />
	</node>
	<node lat="58.60068333120533" lon="8.341094446228412" id="-32673">
		<tag k="name" v="Snipmyr" />
		<tag k="natural" v="wetland" />
		<tag k="ssr:stedsnr" v="356509" />
	</node>
	<node lat="58.658338889939564" lon="8.179619450090865" id="-32674">
		<tag k="name" v="Ekorndalsholta" />
		<tag k="place" v="locality" />
		<tag k="ssr:stedsnr" v="356550" />
	</node>
	<node lat="58.66083889286518" lon="8.171111102448604" id="-32678">
		<tag k="name" v="Lundevoll" />
		<tag k="place" v="locality" />
		<tag k="ssr:stedsnr" v="356562" />
	</node>
	<node lat="58.651652774379365" lon="8.295811107342798" id="-32682">
		<tag k="name" v="Sledetjønnmyrane" />
		<tag k="natural" v="wetland" />
		<tag k="ssr:stedsnr" v="356655" />
	</node>
	<node lat="58.55602777507517" lon="8.525305550414634" id="-32683">
		<tag k="name" v="Hestemyr" />
		<tag k="natural" v="wetland" />
		<tag k="ssr:stedsnr" v="356663" />
	</node>
	<node lat="58.64789444689224" lon="8.249694451301055" id="-32685">
		<tag k="name" v="Storemyr" />
		<tag k="natural" v="wetland" />
		<tag k="ssr:stedsnr" v="356667" />
	</node>
	<node lat="58.66103611135501" lon="8.499477775244495" id="-32691">
		<tag k="name" v="Sigurdsmyr" />
		<tag k="natural" v="wetland" />
		<tag k="ssr:stedsnr" v="356827" />
	</node>
	<node lat="58.671477777138605" lon="8.257116659761758" id="-32692">
		<tag k="name" v="Heimremyra" />
		<tag k="natural" v="wetland" />
		<tag k="ssr:stedsnr" v="356831" />
	</node>
	<node lat="58.5777444409468" lon="8.614927770433981" id="-32696">
		<tag k="name" v="Nordmyrste" />
		<tag k="natural" v="wetland" />
		<tag k="ssr:stedsnr" v="356956" />
	</node>
	<node lat="58.625122223938064" lon="8.15349999743452" id="-32700">
		<tag k="name" v="Sundslimyra" />
		<tag k="natural" v="wetland" />
		<tag k="ssr:stedsnr" v="476021" />
	</node>
	<node lat="58.639558332594206" lon="8.25268888316122" id="-32707">
		<tag k="name" v="Våtekjerr" />
		<tag k="natural" v="wetland" />
		<tag k="ssr:stedsnr" v="476206" />
	</node>
	<node lat="58.67262222442916" lon="8.305044442534792" id="-32711">
		<tag k="name" v="Småmyrane" />
		<tag k="natural" v="wetland" />
		<tag k="ssr:stedsnr" v="476650" />
	</node>
	<node lat="58.65181110848301" lon="8.554672226519177" id="-32714">
		<tag k="name" v="Brannstadslåtta" />
		<tag k="natural" v="wetland" />
		<tag k="ssr:stedsnr" v="476837" />
	</node>
	<node lat="58.692741666204135" lon="8.173291669285932" id="-32717">
		<tag k="name" v="Røyrmyr" />
		<tag k="natural" v="wetland" />
		<tag k="ssr:stedsnr" v="476726" />
	</node>
	<node lat="58.699011108889785" lon="8.00221666466672" id="-32724">
		<tag k="name" v="Fiskelandsmyrane" />
		<tag k="natural" v="wetland" />
		<tag k="ssr:stedsnr" v="476951" />
	</node>
	<node lat="58.61901666976003" lon="8.472288884750508" id="-32728">
		<tag k="name" v="Slåtteste" />
		<tag k="natural" v="wetland" />
		<tag k="ssr:stedsnr" v="477045" />
	</node>
	<node lat="58.62394722159316" lon="8.492111116693165" id="-32729">
		<tag k="name" v="Storemyr" />
		<tag k="natural" v="wetland" />
		<tag k="ssr:stedsnr" v="477050" />
	</node>
	<node lat="58.636363892548815" lon="8.595422230784495" id="-32731">
		<tag k="name" v="Elgmyr" />
		<tag k="natural" v="wetland" />
		<tag k="ssr:stedsnr" v="477058" />
	</node>
	<node lat="58.566905558194875" lon="8.551141673296264" id="-32732">
		<tag k="name" v="Storemyr" />
		<tag k="natural" v="wetland" />
		<tag k="ssr:stedsnr" v="477059" />
	</node>
	<node lat="58.6056666684065" lon="8.553747216506197" id="-32734">
		<tag k="name" v="Hundevassmyra" />
		<tag k="natural" v="wetland" />
		<tag k="ssr:stedsnr" v="477189" />
	</node>
	<node lat="58.6147972240091" lon="8.618472216908886" id="-32737">
		<tag k="name" v="Stea" />
		<tag k="natural" v="wetland" />
		<tag k="ssr:stedsnr" v="477244" />
	</node>
	<node lat="58.67530000403488" lon="8.263722228770508" id="-32739">
		<tag k="name" v="Spjotemyr" />
		<tag k="natural" v="wetland" />
		<tag k="ssr:stedsnr" v="477850" />
	</node>
	<node lat="58.63226388905929" lon="8.354066667551482" id="-32741">
		<tag k="name" v="Surtemyr" />
		<tag k="natural" v="wetland" />
		<tag k="ssr:stedsnr" v="477371" />
	</node>
	<node lat="58.61906944426012" lon="8.400958338869966" id="-32746">
		<tag k="name" v="Blåstorren" />
		<tag k="natural" v="wetland" />
		<tag k="ssr:stedsnr" v="477494" />
	</node>
	<node lat="58.61167777601838" lon="8.418469444272802" id="-32748">
		<tag k="name" v="Ålemyr" />
		<tag k="natural" v="wetland" />
		<tag k="ssr:stedsnr" v="477501" />
	</node>
	<node lat="58.66527222003546" lon="8.185869449206887" id="-32749">
		<tag k="name" v="Dyplemyr" />
		<tag k="natural" v="wetland" />
		<tag k="ssr:stedsnr" v="477577" />
	</node>
	<node lat="58.55857500389184" lon="8.248605551781575" id="-32762">
		<tag k="name" v="Nedre Storemyr" />
		<tag k="place" v="locality" />
		<tag k="ssr:stedsnr" v="478155" />
	</node>
	<node lat="58.672233331248755" lon="8.336172217768947" id="-32766">
		<tag k="name" v="Rønningsmyr" />
		<tag k="natural" v="wetland" />
		<tag k="ssr:stedsnr" v="477781" />
	</node>
	<node lat="58.64756666249704" lon="8.531452773830157" id="-32769">
		<tag k="name" v="Heimre Teremyr" />
		<tag k="natural" v="wetland" />
		<tag k="ssr:stedsnr" v="477886" />
	</node>
	<node lat="58.576244443690534" lon="8.288444438753135" id="-32783">
		<tag k="name" v="Kyrsfjellmyra" />
		<tag k="natural" v="wetland" />
		<tag k="ssr:stedsnr" v="478300" />
	</node>
	<node lat="58.55548055387993" lon="8.496100002759789" id="-32800">
		<tag k="name" v="Stabelmyr" />
		<tag k="natural" v="wetland" />
		<tag k="ssr:stedsnr" v="478681" />
	</node>
	<node lat="58.56449444793321" lon="8.623416658715165" id="-32801">
		<tag k="name" v="Steene" />
		<tag k="natural" v="wetland" />
		<tag k="ssr:stedsnr" v="478880" />
	</node>
	<node lat="58.52971111091219" lon="8.74307499225209" id="-32803">
		<tag k="name" v="Eiesteinen" />
		<tag k="natural" v="stone" />
		<tag k="ssr:stedsnr" v="393709" />
	</node>
	<node lat="58.52306666849894" lon="8.659797219984403" id="-32808">
		<tag k="landuse" v="meadow" />
		<tag k="name" v="Gulland" />
		<tag k="ssr:stedsnr" v="398035" />
	</node>
	<node lat="58.63730277364559" lon="8.664733328487925" id="-32810">
		<tag k="name" v="Ropmyr" />
		<tag k="natural" v="wetland" />
		<tag k="ssr:stedsnr" v="398130" />
	</node>
	<node lat="58.606136114101005" lon="8.698894439846972" id="-32813">
		<tag k="name" v="Stemmyra" />
		<tag k="natural" v="wetland" />
		<tag k="ssr:stedsnr" v="398303" />
	</node>
	<node lat="58.60868055137199" lon="8.661236107419398" id="-32814">
		<tag k="name" v="Langkjerra" />
		<tag k="natural" v="wetland" />
		<tag k="ssr:stedsnr" v="398305" />
	</node>
	<node lat="58.55568610815308" lon="8.733691666454265" id="-32817">
		<tag k="name" v="Kjellermyra" />
		<tag k="natural" v="wetland" />
		<tag k="ssr:stedsnr" v="398315" />
	</node>
	<node lat="58.62061666757125" lon="8.319019445746067" id="-32830">
		<tag k="name" v="Storemyr" />
		<tag k="natural" v="wetland" />
		<tag k="ssr:stedsnr" v="486101" />
	</node>
	<node lat="58.646791663821965" lon="8.189713881129839" id="-32873">
		<tag k="name" v="Sagemyrane" />
		<tag k="natural" v="wetland" />
		<tag k="ssr:stedsnr" v="415007" />
	</node>
	<node lat="58.632249998849474" lon="8.323372227322894" id="-32881">
		<tag k="name" v="Nedre Lislelimyr" />
		<tag k="natural" v="wetland" />
		<tag k="ssr:stedsnr" v="416135" />
	</node>
	<node lat="58.64446944512734" lon="8.659794449869448" id="-32887">
		<tag k="name" v="Storemyr" />
		<tag k="natural" v="wetland" />
		<tag k="ssr:stedsnr" v="416509" />
	</node>
	<node lat="58.66230833746878" lon="8.135227784561309" id="-32889">
		<tag k="name" v="Gunnarsmyr" />
		<tag k="natural" v="wetland" />
		<tag k="ssr:stedsnr" v="416547" />
	</node>
	<node lat="58.694341667382865" lon="8.298474991947943" id="-32893">
		<tag k="name" v="Tverrmyrane" />
		<tag k="natural" v="wetland" />
		<tag k="ssr:stedsnr" v="416714" />
	</node>
	<node lat="58.66073610990348" lon="8.237325004615053" id="-32896">
		<tag k="name" v="Kvævemyr" />
		<tag k="natural" v="wetland" />
		<tag k="ssr:stedsnr" v="416691" />
	</node>
	<node lat="58.66444721973153" lon="8.499797225431603" id="-32898">
		<tag k="name" v="Håleslåttene" />
		<tag k="natural" v="wetland" />
		<tag k="ssr:stedsnr" v="416805" />
	</node>
	<node lat="58.57582778108307" lon="8.59066388280482" id="-32906">
		<tag k="name" v="Blåfjellmyr" />
		<tag k="natural" v="wetland" />
		<tag k="ssr:stedsnr" v="417120" />
	</node>
	<node lat="58.61566388808806" lon="8.476291670952442" id="-32907">
		<tag k="name" v="Trandlebrumyrene" />
		<tag k="natural" v="wetland" />
		<tag k="ssr:stedsnr" v="417122" />
	</node>
	<node lat="58.56853333183303" lon="8.586102776690877" id="-32910">
		<tag k="name" v="Fjåbumyr" />
		<tag k="natural" v="wetland" />
		<tag k="ssr:stedsnr" v="417098" />
	</node>
	<node lat="58.616019447198305" lon="8.432775007276" id="-32912">
		<tag k="name" v="Laurdagsslåtta" />
		<tag k="natural" v="wetland" />
		<tag k="ssr:stedsnr" v="417507" />
	</node>
	<node lat="58.60958055606192" lon="8.539174995439055" id="-32913">
		<tag k="name" v="Sveinungsmyr" />
		<tag k="natural" v="wetland" />
		<tag k="ssr:stedsnr" v="417135" />
	</node>
	<node lat="58.567369444799844" lon="8.345675003925411" id="-32917">
		<tag k="name" v="Persste" />
		<tag k="natural" v="wetland" />
		<tag k="ssr:stedsnr" v="417393" />
	</node>
	<node lat="58.54470555719733" lon="8.41740000349738" id="-32920">
		<tag k="name" v="Store Gauslåmyr" />
		<tag k="natural" v="wetland" />
		<tag k="ssr:stedsnr" v="417491" />
	</node>
	<node lat="58.68341944004995" lon="8.13229999909953" id="-32923">
		<tag k="name" v="Borkeland" />
		<tag k="place" v="locality" />
		<tag k="ssr:stedsnr" v="417606" />
	</node>
	<node lat="58.553430559361374" lon="8.444013894854884" id="-32926">
		<tag k="name" v="Bjellåsslåtten" />
		<tag k="natural" v="wetland" />
		<tag k="ssr:stedsnr" v="417639" />
	</node>
	<node lat="58.53985277506799" lon="8.59126388725025" id="-32931">
		<tag k="name" v="Djupmyr" />
		<tag k="natural" v="wetland" />
		<tag k="ssr:stedsnr" v="417716" />
	</node>
	<node lat="58.57379722195363" lon="8.649947230273282" id="-32934">
		<tag k="name" v="Museråmyra" />
		<tag k="natural" v="wetland" />
		<tag k="ssr:stedsnr" v="417934" />
	</node>
	<node lat="58.64675555316788" lon="8.17779445041567" id="-32972">
		<tag k="name" v="Dei store Mjåvatsmyrane" />
		<tag k="natural" v="wetland" />
		<tag k="ssr:stedsnr" v="442036" />
	</node>
	<node lat="58.53554166264732" lon="8.673147218231856" id="-32975">
		<tag k="name" v="Multemyra" />
		<tag k="natural" v="wetland" />
		<tag k="ssr:stedsnr" v="459060" />
	</node>
	<node lat="58.591433337511276" lon="8.744911103091312" id="-32981">
		<tag k="name" v="Langemyr" />
		<tag k="natural" v="wetland" />
		<tag k="ssr:stedsnr" v="459267" />
	</node>
	<node lat="58.591286113907024" lon="8.701227773122758" id="-32982">
		<tag k="name" v="Storemyr" />
		<tag k="natural" v="wetland" />
		<tag k="ssr:stedsnr" v="459162" />
	</node>
	<node lat="58.60190277359619" lon="8.671916663224438" id="-32983">
		<tag k="name" v="Åkermyra" />
		<tag k="natural" v="wetland" />
		<tag k="ssr:stedsnr" v="459168" />
	</node>
	<node lat="58.55274999825102" lon="8.66123055151499" id="-32986">
		<tag k="name" v="Vestre Slåttemyr" />
		<tag k="natural" v="wetland" />
		<tag k="ssr:stedsnr" v="459179" />
	</node>
	<node lat="58.61514722617991" lon="8.685594451699702" id="-32990">
		<tag k="name" v="Hagemyr" />
		<tag k="natural" v="wetland" />
		<tag k="ssr:stedsnr" v="459313" />
	</node>
	<node lat="58.604319445354584" lon="8.67395833532469" id="-32992">
		<tag k="name" v="Åkermyra" />
		<tag k="natural" v="wetland" />
		<tag k="ssr:stedsnr" v="459318" />
	</node>
	<node lat="58.528411115304266" lon="8.41534166863125" id="-32997">
		<tag k="name" v="Lundemyr" />
		<tag k="natural" v="wetland" />
		<tag k="ssr:stedsnr" v="474204" />
	</node>
	<node lat="58.68304999639544" lon="8.005563896816481" id="-33004">
		<tag k="name" v="Laurdagsslåtta" />
		<tag k="natural" v="wetland" />
		<tag k="ssr:stedsnr" v="476177" />
	</node>
	<node lat="58.57041666881543" lon="8.489050000859153" id="-33010">
		<tag k="name" v="Saumyr" />
		<tag k="natural" v="wetland" />
		<tag k="ssr:stedsnr" v="476245" />
	</node>
	<node lat="58.579441666987464" lon="8.505561112902935" id="-33019">
		<tag k="name" v="Gauslåmyrene" />
		<tag k="natural" v="wetland" />
		<tag k="ssr:stedsnr" v="477006" />
	</node>
	<node lat="58.62206944340785" lon="8.323011105605046" id="-33024">
		<tag k="name" v="Stormyrkilen" />
		<tag k="natural" v="wetland" />
		<tag k="ssr:stedsnr" v="477269" />
	</node>
	<node lat="58.6048388920946" lon="8.207066658374725" id="-33026">
		<tag k="name" v="Høgemyr" />
		<tag k="natural" v="wetland" />
		<tag k="ssr:stedsnr" v="477274" />
	</node>
	<node lat="58.61798888894986" lon="8.287172225542706" id="-33028">
		<tag k="name" v="Trettemyr" />
		<tag k="natural" v="wetland" />
		<tag k="ssr:stedsnr" v="477279" />
	</node>
	<node lat="58.587241667768154" lon="8.543241665492786" id="-33029">
		<tag k="name" v="Langekjerr" />
		<tag k="natural" v="wetland" />
		<tag k="ssr:stedsnr" v="477409" />
	</node>
	<node lat="58.597116669160236" lon="8.57620277400143" id="-33031">
		<tag k="name" v="Småmyrene" />
		<tag k="natural" v="wetland" />
		<tag k="ssr:stedsnr" v="477424" />
	</node>
	<node lat="58.55732499605525" lon="8.428472221952017" id="-33039">
		<tag k="name" v="Rundtomsmyr" />
		<tag k="natural" v="wetland" />
		<tag k="ssr:stedsnr" v="477463" />
	</node>
	<node lat="58.54756666689527" lon="8.511377780433428" id="-33040">
		<tag k="name" v="Gåsemyrene" />
		<tag k="natural" v="wetland" />
		<tag k="ssr:stedsnr" v="477616" />
	</node>
	<node lat="58.64306666788184" lon="8.646883340684617" id="-33048">
		<tag k="name" v="Lyngmyr" />
		<tag k="natural" v="wetland" />
		<tag k="ssr:stedsnr" v="477974" />
	</node>
	<node lat="58.5968666638745" lon="8.642450007968472" id="-33051">
		<tag k="name" v="Gauperåkjerr" />
		<tag k="natural" v="wetland" />
		<tag k="ssr:stedsnr" v="478461" />
	</node>
	<node lat="58.550919444749205" lon="8.647405556164163" id="-33052">
		<tag k="name" v="Slåttemyr" />
		<tag k="natural" v="wetland" />
		<tag k="ssr:stedsnr" v="478803" />
	</node>
	<node lat="58.54365555482185" lon="8.586580556085895" id="-33053">
		<tag k="name" v="Lille Moltemyr" />
		<tag k="natural" v="wetland" />
		<tag k="ssr:stedsnr" v="478704" />
	</node>
	<node lat="58.55806389330627" lon="8.56903610587223" id="-33054">
		<tag k="name" v="Pråmkjerr" />
		<tag k="natural" v="wetland" />
		<tag k="ssr:stedsnr" v="478725" />
	</node>
	<node lat="58.5122749990796" lon="8.601899998701466" id="-33079">
		<tag k="name" v="Kjerkehagen" />
		<tag k="place" v="locality" />
		<tag k="ssr:stedsnr" v="519210" />
	</node>
	<node lat="58.52787500268937" lon="8.728133338019378" id="-33089">
		<tag k="name" v="Drebustea" />
		<tag k="natural" v="wetland" />
		<tag k="ssr:stedsnr" v="519382" />
	</node>
	<node lat="58.498902773370546" lon="8.43428888997818" id="-33090">
		<tag k="name" v="Øygardsmyr" />
		<tag k="natural" v="wetland" />
		<tag k="ssr:stedsnr" v="535107" />
	</node>
	<node lat="58.5338444442764" lon="8.484530547242402" id="-33093">
		<tag k="name" v="Finnvollen" />
		<tag k="natural" v="wetland" />
		<tag k="ssr:stedsnr" v="535016" />
	</node>
	<node lat="58.48521110669575" lon="8.434424994694142" id="-33094">
		<tag k="name" v="Øygarden" />
		<tag k="natural" v="wetland" />
		<tag k="ssr:stedsnr" v="535711" />
	</node>
	<node lat="58.47179444490514" lon="8.543552770760243" id="-33096">
		<tag k="name" v="Blommyra" />
		<tag k="natural" v="wetland" />
		<tag k="ssr:stedsnr" v="535917" />
	</node>
	<node lat="58.48374999673719" lon="8.538444444304254" id="-33097">
		<tag k="name" v="Storemyr" />
		<tag k="natural" v="wetland" />
		<tag k="ssr:stedsnr" v="535921" />
	</node>
	<node lat="58.48896110935611" lon="8.543697222183562" id="-33098">
		<tag k="name" v="Moldekleivmyr" />
		<tag k="natural" v="wetland" />
		<tag k="ssr:stedsnr" v="535923" />
	</node>
	<node lat="58.645111107952516" lon="8.194544449060892" id="-33102">
		<tag k="name" v="Bergemyr" />
		<tag k="natural" v="wetland" />
		<tag k="ssr:stedsnr" v="537008" />
	</node>
	<node lat="58.65805833205199" lon="8.221005564194208" id="-33114">
		<tag k="name" v="Engdalsmyra" />
		<tag k="natural" v="wetland" />
		<tag k="ssr:stedsnr" v="537703" />
	</node>
	<node lat="58.66017499571063" lon="8.240791663331958" id="-33115">
		<tag k="name" v="Moltemyr" />
		<tag k="natural" v="wetland" />
		<tag k="ssr:stedsnr" v="537706" />
	</node>
	<node lat="58.6044416681279" lon="8.419669451144888" id="-33121">
		<tag k="name" v="Lintjønnmyra" />
		<tag k="natural" v="wetland" />
		<tag k="ssr:stedsnr" v="538009" />
	</node>
	<node lat="58.56849444738211" lon="8.544238890175825" id="-33125">
		<tag k="name" v="Lillebrumyr" />
		<tag k="natural" v="wetland" />
		<tag k="ssr:stedsnr" v="538067" />
	</node>
	<node lat="58.6223805590562" lon="8.318002784015656" id="-33128">
		<tag k="name" v="Nedre Ramsdalsmyra" />
		<tag k="natural" v="wetland" />
		<tag k="ssr:stedsnr" v="538265" />
	</node>
	<node lat="58.5821666652604" lon="8.606119437669431" id="-33129">
		<tag k="name" v="Glomstølmyra" />
		<tag k="natural" v="wetland" />
		<tag k="ssr:stedsnr" v="538266" />
	</node>
	<node lat="58.62002499733358" lon="8.35337221992716" id="-33131">
		<tag k="name" v="Hyttemyr" />
		<tag k="natural" v="wetland" />
		<tag k="ssr:stedsnr" v="538466" />
	</node>
	<node lat="58.558797225343824" lon="8.544008332306566" id="-33140">
		<tag k="name" v="Rønningen" />
		<tag k="place" v="locality" />
		<tag k="ssr:stedsnr" v="538667" />
	</node>
	<node lat="58.546697221806085" lon="8.543422218029464" id="-33141">
		<tag k="name" v="Haugsmyr" />
		<tag k="natural" v="wetland" />
		<tag k="ssr:stedsnr" v="538669" />
	</node>
	<node lat="58.656697221335854" lon="8.493174999600825" id="-33144">
		<tag k="name" v="Svartvassmyra" />
		<tag k="natural" v="wetland" />
		<tag k="ssr:stedsnr" v="538689" />
	</node>
	<node lat="58.67596944208891" lon="8.228883324922288" id="-33149">
		<tag k="name" v="Hyttemyr" />
		<tag k="natural" v="wetland" />
		<tag k="ssr:stedsnr" v="538827" />
	</node>
	<node lat="58.5604611104893" lon="8.249508332270771" id="-33152">
		<tag k="name" v="Øvre Storemyr" />
		<tag k="natural" v="wetland" />
		<tag k="ssr:stedsnr" v="539126" />
	</node>
	<node lat="58.57615833727154" lon="8.468525005867633" id="-33153">
		<tag k="name" v="Svensmyr" />
		<tag k="natural" v="wetland" />
		<tag k="ssr:stedsnr" v="539172" />
	</node>
	<node lat="58.534141663199556" lon="8.713044440227469" id="-33188">
		<tag k="name" v="Kjerrgråmyra" />
		<tag k="natural" v="wetland" />
		<tag k="ssr:stedsnr" v="580030" />
	</node>
	<node lat="58.622977778679626" lon="8.678941658603081" id="-33190">
		<tag k="name" v="Høydalsmyra" />
		<tag k="natural" v="wetland" />
		<tag k="ssr:stedsnr" v="580111" />
	</node>
	<node lat="58.56754166231342" lon="8.724252769511999" id="-33192">
		<tag k="name" v="Sortemyr" />
		<tag k="natural" v="wetland" />
		<tag k="ssr:stedsnr" v="580254" />
	</node>
	<node lat="58.49568611228227" lon="8.408644447499134" id="-33199">
		<tag k="name" v="Grimdalsmyra" />
		<tag k="natural" v="wetland" />
		<tag k="ssr:stedsnr" v="595710" />
	</node>
	<node lat="58.4698583336105" lon="8.547655550821423" id="-33204">
		<tag k="name" v="Storemyr" />
		<tag k="natural" v="wetland" />
		<tag k="ssr:stedsnr" v="595907" />
	</node>
	<node lat="58.671036114763496" lon="8.31314721401244" id="-33206">
		<tag k="name" v="Dyplemyr" />
		<tag k="natural" v="wetland" />
		<tag k="ssr:stedsnr" v="597668" />
	</node>
	<node lat="58.57202221892922" lon="8.54379166127297" id="-33215">
		<tag k="name" v="Edens have" />
		<tag k="place" v="locality" />
		<tag k="ssr:stedsnr" v="598051" />
	</node>
	<node lat="58.6446305544204" lon="8.51332222458118" id="-33220">
		<tag k="name" v="Kålåsslåtten" />
		<tag k="natural" v="wetland" />
		<tag k="ssr:stedsnr" v="598468" />
	</node>
	<node lat="58.66760555139746" lon="8.216305550751107" id="-33226">
		<tag k="name" v="Haugstøldalsmyra" />
		<tag k="natural" v="wetland" />
		<tag k="ssr:stedsnr" v="598551" />
	</node>
	<node lat="58.6478361082638" lon="8.253313896665945" id="-33232">
		<tag k="name" v="Kvernhussteane" />
		<tag k="natural" v="wetland" />
		<tag k="ssr:stedsnr" v="598653" />
	</node>
	<node lat="58.59886110945363" lon="8.215697214885786" id="-33243">
		<tag k="name" v="Djupemyr" />
		<tag k="natural" v="wetland" />
		<tag k="ssr:stedsnr" v="599619" />
	</node>
	<node lat="58.53219166631327" lon="8.41338889594787" id="-33252">
		<tag k="name" v="Våtemyr" />
		<tag k="natural" v="wetland" />
		<tag k="ssr:stedsnr" v="607212" />
	</node>
	<node lat="58.53443055246457" lon="8.730224992965965" id="-33275">
		<tag k="landuse" v="quarry" />
		<tag k="name" v="Gloserheia" />
		<tag k="ssr:stedsnr" v="607693" />
	</node>
	<node lat="58.5705944418087" lon="8.708877774895221" id="-33283">
		<tag k="name" v="Lillemyr" />
		<tag k="natural" v="wetland" />
		<tag k="ssr:stedsnr" v="701152" />
	</node>
	<node lat="58.60275833510218" lon="8.691141673360756" id="-33286">
		<tag k="name" v="Blautemyr" />
		<tag k="natural" v="wetland" />
		<tag k="ssr:stedsnr" v="701174" />
	</node>
	<node lat="58.55043611071324" lon="8.723180560539456" id="-33305">
		<tag k="name" v="Djupmyr" />
		<tag k="natural" v="wetland" />
		<tag k="ssr:stedsnr" v="640327" />
	</node>
	<node lat="58.62570555961944" lon="8.753602781383488" id="-33306">
		<tag k="name" v="Guriskjerr" />
		<tag k="natural" v="wetland" />
		<tag k="ssr:stedsnr" v="640321" />
	</node>
	<node lat="58.53029999994523" lon="8.427308340325636" id="-33307">
		<tag k="name" v="Skrevsmyr" />
		<tag k="natural" v="wetland" />
		<tag k="ssr:stedsnr" v="655214" />
	</node>
	<node lat="58.530022220817166" lon="8.454138894929136" id="-33308">
		<tag k="name" v="Viemyrene" />
		<tag k="natural" v="wetland" />
		<tag k="ssr:stedsnr" v="656009" />
	</node>
	<node lat="58.50665555774378" lon="8.464575002472063" id="-33311">
		<tag k="name" v="Øygarden" />
		<tag k="natural" v="wetland" />
		<tag k="ssr:stedsnr" v="656386" />
	</node>
	<node lat="58.504655554250405" lon="8.487058327041252" id="-33312">
		<tag k="name" v="Langslåtta" />
		<tag k="natural" v="wetland" />
		<tag k="ssr:stedsnr" v="656389" />
	</node>
	<node lat="58.64199444862118" lon="8.256416658769048" id="-33321">
		<tag k="name" v="Storeste" />
		<tag k="natural" v="wetland" />
		<tag k="ssr:stedsnr" v="658213" />
	</node>
	<node lat="58.63738333482284" lon="8.26056665873272" id="-33323">
		<tag k="name" v="Våtkjerrstea" />
		<tag k="natural" v="wetland" />
		<tag k="ssr:stedsnr" v="658202" />
	</node>
	<node lat="58.63705277558493" lon="8.46899444675346" id="-33324">
		<tag k="name" v="Hyttemyrane" />
		<tag k="natural" v="wetland" />
		<tag k="ssr:stedsnr" v="658309" />
	</node>
	<node lat="58.633933336173975" lon="8.47549444557608" id="-33325">
		<tag k="name" v="Dukemyr" />
		<tag k="natural" v="wetland" />
		<tag k="ssr:stedsnr" v="658312" />
	</node>
	<node lat="58.62610555126198" lon="8.35612221676265" id="-33327">
		<tag k="name" v="Torsmyr" />
		<tag k="natural" v="wetland" />
		<tag k="ssr:stedsnr" v="658392" />
	</node>
	<node lat="58.668047226082685" lon="8.154986119106029" id="-33328">
		<tag k="name" v="Nausemyra" />
		<tag k="natural" v="wetland" />
		<tag k="ssr:stedsnr" v="658583" />
	</node>
	<node lat="58.66460833241479" lon="8.026755556737992" id="-33331">
		<tag k="name" v="Bogtrekjerret" />
		<tag k="natural" v="wetland" />
		<tag k="ssr:stedsnr" v="658685" />
	</node>
	<node lat="58.667241669916805" lon="8.008511116458834" id="-33332">
		<tag k="name" v="Saueslåttane" />
		<tag k="natural" v="wetland" />
		<tag k="ssr:stedsnr" v="658686" />
	</node>
	<node lat="58.56423610842666" lon="8.467416666843242" id="-33338">
		<tag k="name" v="Kvennhusmyra" />
		<tag k="natural" v="wetland" />
		<tag k="ssr:stedsnr" v="659040" />
	</node>
	<node lat="58.62635833232161" lon="8.497594441799254" id="-33339">
		<tag k="name" v="Storemyr" />
		<tag k="natural" v="wetland" />
		<tag k="ssr:stedsnr" v="659042" />
	</node>
	<node lat="58.62474166856006" lon="8.55693610905904" id="-33348">
		<tag k="name" v="Svomyr" />
		<tag k="natural" v="wetland" />
		<tag k="ssr:stedsnr" v="659194" />
	</node>
	<node lat="58.586983334592645" lon="8.546883341760491" id="-33353">
		<tag k="name" v="Rugland" />
		<tag k="natural" v="wetland" />
		<tag k="ssr:stedsnr" v="659412" />
	</node>
	<node lat="58.60092222168166" lon="8.331547230200588" id="-33354">
		<tag k="name" v="Øyrekjerr" />
		<tag k="natural" v="wetland" />
		<tag k="ssr:stedsnr" v="659502" />
	</node>
	<node lat="58.67903332926096" lon="8.217213888387663" id="-33358">
		<tag k="name" v="Jordesmyr" />
		<tag k="natural" v="wetland" />
		<tag k="ssr:stedsnr" v="659615" />
	</node>
	<node lat="58.65214722454164" lon="8.113994449995268" id="-33361">
		<tag k="name" v="Moltemyr" />
		<tag k="natural" v="wetland" />
		<tag k="ssr:stedsnr" v="659507" />
	</node>
	<node lat="58.64973055705462" lon="8.121349993225428" id="-33362">
		<tag k="name" v="Porsholane" />
		<tag k="natural" v="wetland" />
		<tag k="ssr:stedsnr" v="659510" />
	</node>
	<node lat="58.55860555164541" lon="8.472263883555765" id="-33366">
		<tag k="name" v="Pompetjønnmyr" />
		<tag k="natural" v="wetland" />
		<tag k="ssr:stedsnr" v="659588" />
	</node>
	<node lat="58.673036115336885" lon="8.504702775279155" id="-33370">
		<tag k="name" v="Hammeheimyrene" />
		<tag k="natural" v="wetland" />
		<tag k="ssr:stedsnr" v="659680" />
	</node>
	<node lat="58.569544448372845" lon="8.264663889687188" id="-33373">
		<tag k="name" v="Skripelandsmyr" />
		<tag k="natural" v="wetland" />
		<tag k="ssr:stedsnr" v="660280" />
	</node>
	<node lat="58.57060833339502" lon="8.222675004201028" id="-33374">
		<tag k="name" v="Bjørkeholta" />
		<tag k="place" v="locality" />
		<tag k="ssr:stedsnr" v="660288" />
	</node>
	<node lat="58.59137499575102" lon="8.622291666614709" id="-33377">
		<tag k="name" v="Myssåsmyra" />
		<tag k="natural" v="wetland" />
		<tag k="ssr:stedsnr" v="660492" />
	</node>
	<node lat="58.559150003955295" lon="8.644013888569564" id="-33382">
		<tag k="name" v="Øygardsmyra" />
		<tag k="natural" v="wetland" />
		<tag k="ssr:stedsnr" v="660815" />
	</node>
	<node lat="58.659947225908425" lon="8.146705553986896" id="-33395">
		<tag k="name" v="Storemyr" />
		<tag k="natural" v="wetland" />
		<tag k="ssr:stedsnr" v="668310" />
	</node>
	<node lat="58.6076249966099" lon="8.732508337931993" id="-33415">
		<tag k="name" v="Grankjerr" />
		<tag k="natural" v="wetland" />
		<tag k="ssr:stedsnr" v="701364" />
	</node>
	<node lat="58.575666669260045" lon="8.621430561900263" id="-33417">
		<tag k="name" v="Nordmyrene" />
		<tag k="natural" v="wetland" />
		<tag k="ssr:stedsnr" v="903961" />
	</node>
	<node lat="58.523583333060365" lon="8.432655548671898" id="-33419">
		<tag k="name" v="Mosemyr" />
		<tag k="natural" v="wetland" />
		<tag k="ssr:stedsnr" v="716225" />
	</node>
	<node lat="58.52189166505295" lon="8.461466662386824" id="-33420">
		<tag k="name" v="Lyngmyr" />
		<tag k="natural" v="wetland" />
		<tag k="ssr:stedsnr" v="899025" />
	</node>
	<node lat="58.52586944589797" lon="8.461236106199014" id="-33421">
		<tag k="name" v="Lyngmyr" />
		<tag k="natural" v="wetland" />
		<tag k="ssr:stedsnr" v="899039" />
	</node>
	<node lat="58.521233334037504" lon="8.480086115881708" id="-33423">
		<tag k="name" v="Tveitmyrane" />
		<tag k="natural" v="wetland" />
		<tag k="ssr:stedsnr" v="899051" />
	</node>
	<node lat="58.51578055482111" lon="8.404144445803315" id="-33426">
		<tag k="name" v="Flystveit" />
		<tag k="place" v="locality" />
		<tag k="ssr:stedsnr" v="899086" />
	</node>
	<node lat="58.50292221945754" lon="8.517344446586703" id="-33427">
		<tag k="name" v="Orreleikmyra" />
		<tag k="natural" v="wetland" />
		<tag k="ssr:stedsnr" v="717427" />
	</node>
	<node lat="58.628130559155245" lon="8.452911107077627" id="-33435">
		<tag k="name" v="Svampemyr" />
		<tag k="natural" v="wetland" />
		<tag k="ssr:stedsnr" v="719314" />
	</node>
	<node lat="58.5118555600172" lon="8.526349994185791" id="-33437">
		<tag k="name" v="Skavleheimyra" />
		<tag k="natural" v="wetland" />
		<tag k="ssr:stedsnr" v="899443" />
	</node>
	<node lat="58.661536114947495" lon="8.244988888427297" id="-33441">
		<tag k="name" v="Spannsholta" />
		<tag k="place" v="locality" />
		<tag k="ssr:stedsnr" v="719687" />
	</node>
	<node lat="58.65647222618516" lon="8.560947214059665" id="-33444">
		<tag k="name" v="Trandlemyra" />
		<tag k="natural" v="wetland" />
		<tag k="ssr:stedsnr" v="719826" />
	</node>
	<node lat="58.56007222488525" lon="8.263733335786226" id="-33452">
		<tag k="name" v="Nepemyr" />
		<tag k="natural" v="wetland" />
		<tag k="ssr:stedsnr" v="720189" />
	</node>
	<node lat="58.542647223160266" lon="8.424780551780938" id="-33454">
		<tag k="name" v="Dusefet" />
		<tag k="natural" v="wetland" />
		<tag k="ssr:stedsnr" v="720471" />
	</node>
	<node lat="58.679569440338334" lon="8.162686118279185" id="-33463">
		<tag k="name" v="Krageslåttane" />
		<tag k="natural" v="wetland" />
		<tag k="ssr:stedsnr" v="720593" />
	</node>
	<node lat="58.55019444052037" lon="8.545205563774877" id="-33464">
		<tag k="name" v="Grunnevatsmyr" />
		<tag k="natural" v="wetland" />
		<tag k="ssr:stedsnr" v="720672" />
	</node>
	<node lat="58.58115278076826" lon="8.588769439699588" id="-33466">
		<tag k="name" v="Gåsetjønnstea" />
		<tag k="natural" v="wetland" />
		<tag k="ssr:stedsnr" v="721106" />
	</node>
	<node lat="58.559669444402836" lon="8.594813883319837" id="-33470">
		<tag k="name" v="Steårsmyr" />
		<tag k="natural" v="wetland" />
		<tag k="ssr:stedsnr" v="721669" />
	</node>
	<node lat="58.54589444211062" lon="8.584702778451755" id="-33471">
		<tag k="name" v="Runde moltemyr" />
		<tag k="natural" v="wetland" />
		<tag k="ssr:stedsnr" v="721679" />
	</node>
	<node lat="58.483766664915315" lon="8.389763888035363" id="-33473">
		<tag k="name" v="Bjønnskjeggmyra" />
		<tag k="natural" v="wetland" />
		<tag k="ssr:stedsnr" v="899751" />
	</node>
	<node lat="58.49248055840529" lon="8.542238894661297" id="-33478">
		<tag k="name" v="Moldkleivmyr" />
		<tag k="natural" v="wetland" />
		<tag k="ssr:stedsnr" v="899935" />
	</node>
	<node lat="58.49093888502969" lon="8.53357221559663" id="-33479">
		<tag k="name" v="Raundalskjærr" />
		<tag k="natural" v="wetland" />
		<tag k="ssr:stedsnr" v="899939" />
	</node>
	<node lat="58.63091944390409" lon="8.404027771933395" id="-33509">
		<tag k="name" v="Storbumyrene" />
		<tag k="natural" v="wetland" />
		<tag k="ssr:stedsnr" v="901277" />
	</node>
	<node lat="58.64451110742202" lon="8.586911102679963" id="-33518">
		<tag k="name" v="Tjøregrovmyra" />
		<tag k="natural" v="wetland" />
		<tag k="ssr:stedsnr" v="902057" />
	</node>
	<node lat="58.630766662408604" lon="8.534033340129465" id="-33520">
		<tag k="name" v="Haugane" />
		<tag k="place" v="locality" />
		<tag k="ssr:stedsnr" v="902036" />
	</node>
	<node lat="58.63443333137627" lon="8.50286943764781" id="-33523">
		<tag k="name" v="Asjebumyra" />
		<tag k="natural" v="wetland" />
		<tag k="ssr:stedsnr" v="902043" />
	</node>
	<node lat="58.63077499981384" lon="8.55704999178311" id="-33524">
		<tag k="name" v="Orremyr" />
		<tag k="natural" v="wetland" />
		<tag k="ssr:stedsnr" v="902045" />
	</node>
	<node lat="58.61168889012581" lon="8.540491660115432" id="-33526">
		<tag k="name" v="Vedalsmyr" />
		<tag k="natural" v="wetland" />
		<tag k="ssr:stedsnr" v="902139" />
	</node>
	<node lat="58.5725333353055" lon="8.44779166387372" id="-33528">
		<tag k="name" v="Kobbulimyra" />
		<tag k="natural" v="wetland" />
		<tag k="ssr:stedsnr" v="902246" />
	</node>
	<node lat="58.628802773636814" lon="8.49407222235656" id="-33529">
		<tag k="name" v="Ljoslandsmyra" />
		<tag k="natural" v="wetland" />
		<tag k="ssr:stedsnr" v="902327" />
	</node>
	<node lat="58.617647217945006" lon="8.558397224774543" id="-33530">
		<tag k="name" v="Bjønnhølen" />
		<tag k="natural" v="wetland" />
		<tag k="ssr:stedsnr" v="902196" />
	</node>
	<node lat="58.5656444461201" lon="8.48181944968927" id="-33531">
		<tag k="name" v="Brulimyra" />
		<tag k="natural" v="wetland" />
		<tag k="ssr:stedsnr" v="902251" />
	</node>
	<node lat="58.62548333458695" lon="8.324330552843188" id="-33532">
		<tag k="name" v="Knapemyra" />
		<tag k="natural" v="wetland" />
		<tag k="ssr:stedsnr" v="902273" />
	</node>
	<node lat="58.618730555007154" lon="8.309438896062211" id="-33533">
		<tag k="name" v="Tufteholane" />
		<tag k="natural" v="wetland" />
		<tag k="ssr:stedsnr" v="902274" />
	</node>
	<node lat="58.644163889854354" lon="8.342758327056357" id="-33534">
		<tag k="name" v="Engedalsmyra" />
		<tag k="natural" v="wetland" />
		<tag k="ssr:stedsnr" v="902381" />
	</node>
	<node lat="58.592980552096044" lon="8.546738884765011" id="-33535">
		<tag k="name" v="Orremyrstykket" />
		<tag k="natural" v="wetland" />
		<tag k="ssr:stedsnr" v="902435" />
	</node>
	<node lat="58.67783888889964" lon="8.203033336884594" id="-33539">
		<tag k="name" v="Mjåvatsmyrane" />
		<tag k="natural" v="wetland" />
		<tag k="ssr:stedsnr" v="902557" />
	</node>
	<node lat="58.67295555336187" lon="8.17461944198355" id="-33546">
		<tag k="name" v="Småkjerra" />
		<tag k="natural" v="wetland" />
		<tag k="ssr:stedsnr" v="902540" />
	</node>
	<node lat="58.64950277480292" lon="8.318741669551338" id="-33548">
		<tag k="name" v="Kvernhusmyra" />
		<tag k="natural" v="wetland" />
		<tag k="ssr:stedsnr" v="902658" />
	</node>
	<node lat="58.66233611448563" lon="8.297091665228967" id="-33549">
		<tag k="name" v="Dyplemyr" />
		<tag k="natural" v="wetland" />
		<tag k="ssr:stedsnr" v="902671" />
	</node>
	<node lat="58.64753611498483" lon="8.549897223190298" id="-33562">
		<tag k="name" v="Vrangkleivmyrane" />
		<tag k="natural" v="wetland" />
		<tag k="ssr:stedsnr" v="902871" />
	</node>
	<node lat="58.587694444445276" lon="8.4554666622098" id="-33565">
		<tag k="name" v="Helleråsmyra" />
		<tag k="natural" v="wetland" />
		<tag k="ssr:stedsnr" v="902967" />
	</node>
	<node lat="58.65333889123341" lon="8.10385555827357" id="-33568">
		<tag k="name" v="Skorva" />
		<tag k="natural" v="wetland" />
		<tag k="ssr:stedsnr" v="902981" />
	</node>
	<node lat="58.57751110678056" lon="8.457769440290374" id="-33577">
		<tag k="name" v="Vassbyttmyra" />
		<tag k="natural" v="wetland" />
		<tag k="ssr:stedsnr" v="903196" />
	</node>
	<node lat="58.59408889116828" lon="8.60638334082403" id="-33583">
		<tag k="name" v="Småmyrene" />
		<tag k="natural" v="wetland" />
		<tag k="ssr:stedsnr" v="903458" />
	</node>
	<node lat="58.60042221833319" lon="8.37086667228182" id="-33585">
		<tag k="name" v="Røyrmyr" />
		<tag k="natural" v="wetland" />
		<tag k="ssr:stedsnr" v="903483" />
	</node>
	<node lat="58.59311389004493" lon="8.642852783022645" id="-33587">
		<tag k="name" v="Tvistekjerr" />
		<tag k="natural" v="wetland" />
		<tag k="ssr:stedsnr" v="903436" />
	</node>
	<node lat="58.558105551137224" lon="8.645741660274252" id="-33593">
		<tag k="name" v="Mikkelskjerr" />
		<tag k="natural" v="wetland" />
		<tag k="ssr:stedsnr" v="903827" />
	</node>
	<node lat="58.572799995825925" lon="8.64246388359244" id="-33594">
		<tag k="name" v="Kringlemyr" />
		<tag k="natural" v="wetland" />
		<tag k="ssr:stedsnr" v="903924" />
	</node>
	<node lat="58.56941666632205" lon="8.641563893107241" id="-33595">
		<tag k="name" v="Småmyrene" />
		<tag k="natural" v="wetland" />
		<tag k="ssr:stedsnr" v="903925" />
	</node>
	<node lat="58.53235277360546" lon="8.578261111886388" id="-33596">
		<tag k="name" v="Kartmyr" />
		<tag k="natural" v="wetland" />
		<tag k="ssr:stedsnr" v="762006" />
	</node>
	<node lat="58.47971944721293" lon="8.554388890859624" id="-33598">
		<tag k="name" v="Grytemyrene" />
		<tag k="natural" v="wetland" />
		<tag k="ssr:stedsnr" v="762009" />
	</node>
	<node lat="58.51517777373504" lon="8.685666674906901" id="-33599">
		<tag k="name" v="Dyblene" />
		<tag k="place" v="locality" />
		<tag k="ssr:stedsnr" v="762048" />
	</node>
	<node lat="58.561716663787905" lon="8.744441659524622" id="-33606">
		<tag k="name" v="Hessmyr" />
		<tag k="natural" v="wetland" />
		<tag k="ssr:stedsnr" v="762305" />
	</node>
	<node lat="58.53558611193169" lon="8.406644447085027" id="-33614">
		<tag k="name" v="Ljoskleivmyra" />
		<tag k="natural" v="wetland" />
		<tag k="ssr:stedsnr" v="777153" />
	</node>
	<node lat="58.477361112262535" lon="8.542155559221404" id="-33615">
		<tag k="name" v="Ingridsmyr" />
		<tag k="natural" v="wetland" />
		<tag k="ssr:stedsnr" v="777902" />
	</node>
	<node lat="58.504619446180406" lon="8.413144446584669" id="-33620">
		<tag k="name" v="Budalsmyr" />
		<tag k="natural" v="wetland" />
		<tag k="ssr:stedsnr" v="778101" />
	</node>
	<node lat="58.70059444326856" lon="8.250022224220348" id="-33624">
		<tag k="name" v="Djupedalsmyrane" />
		<tag k="natural" v="wetland" />
		<tag k="ssr:stedsnr" v="779718" />
	</node>
	<node lat="58.62730555281059" lon="8.55245555542543" id="-33627">
		<tag k="name" v="Snømyr" />
		<tag k="natural" v="wetland" />
		<tag k="ssr:stedsnr" v="780057" />
	</node>
	<node lat="58.66379722179543" lon="8.481841672198758" id="-33631">
		<tag k="name" v="Håvardskjerra" />
		<tag k="natural" v="wetland" />
		<tag k="ssr:stedsnr" v="780604" />
	</node>
	<node lat="58.59095278195585" lon="8.538458339311626" id="-33634">
		<tag k="name" v="Jørundsmyr" />
		<tag k="natural" v="wetland" />
		<tag k="ssr:stedsnr" v="780350" />
	</node>
	<node lat="58.606061114600465" lon="8.546591665147577" id="-33642">
		<tag k="name" v="Bumyra" />
		<tag k="natural" v="wetland" />
		<tag k="ssr:stedsnr" v="781160" />
	</node>
	<node lat="58.53780277772501" lon="8.259761107557198" id="-33643">
		<tag k="name" v="Røysemyr" />
		<tag k="natural" v="wetland" />
		<tag k="ssr:stedsnr" v="781168" />
	</node>
	<node lat="58.5804277759926" lon="8.27829166790288" id="-33644">
		<tag k="name" v="Åseslåtta" />
		<tag k="natural" v="wetland" />
		<tag k="ssr:stedsnr" v="781304" />
	</node>
	<node lat="58.584922221157115" lon="8.611811109762511" id="-33647">
		<tag k="name" v="Felleskjerra" />
		<tag k="natural" v="wetland" />
		<tag k="ssr:stedsnr" v="781260" />
	</node>
	<node lat="58.6872388887028" lon="8.231347229843642" id="-33652">
		<tag k="name" v="Årgardsmyra" />
		<tag k="natural" v="wetland" />
		<tag k="ssr:stedsnr" v="781510" />
	</node>
	<node lat="58.66481944001904" lon="8.196261103505336" id="-33654">
		<tag k="name" v="Ringen" />
		<tag k="place" v="locality" />
		<tag k="ssr:stedsnr" v="781557" />
	</node>
	<node lat="58.54539721985648" lon="8.562202771554896" id="-33657">
		<tag k="name" v="Gårdalsmyr" />
		<tag k="natural" v="wetland" />
		<tag k="ssr:stedsnr" v="781703" />
	</node>
	<node lat="58.59281389006114" lon="8.2662500076429" id="-33661">
		<tag k="name" v="Daleslåtta" />
		<tag k="natural" v="wetland" />
		<tag k="ssr:stedsnr" v="781619" />
	</node>
	<node lat="58.65735833411947" lon="8.292263894652594" id="-33662">
		<tag k="name" v="Lille Geitemyr" />
		<tag k="natural" v="wetland" />
		<tag k="ssr:stedsnr" v="781655" />
	</node>
	<node lat="58.55180000030316" lon="8.540866670945128" id="-33667">
		<tag k="name" v="Kjerkemyr" />
		<tag k="natural" v="wetland" />
		<tag k="ssr:stedsnr" v="781668" />
	</node>
	<node lat="58.562305555321664" lon="8.632577784112817" id="-33669">
		<tag k="name" v="Urdalsmyra" />
		<tag k="natural" v="wetland" />
		<tag k="ssr:stedsnr" v="781909" />
	</node>
	<node lat="58.647677776036616" lon="8.535844447162358" id="-33670">
		<tag k="name" v="Ytre Teremyra" />
		<tag k="natural" v="wetland" />
		<tag k="ssr:stedsnr" v="781851" />
	</node>
	<node lat="58.649147224880004" lon="8.503797216851884" id="-33672">
		<tag k="name" v="Storemyrslåttane" />
		<tag k="natural" v="wetland" />
		<tag k="ssr:stedsnr" v="781859" />
	</node>
	<node lat="58.610911113096336" lon="8.278188895209666" id="-33688">
		<tag k="alt_name" v="Lundemyr" />
		<tag k="name" v="Lundemyra" />
		<tag k="natural" v="wetland" />
		<tag k="ssr:stedsnr" v="789371" />
	</node>
	<node lat="58.65782777363654" lon="8.03538610642623" id="-33690">
		<tag k="alt_name" v="Troslimyra" />
		<tag k="name" v="Trogslemyra" />
		<tag k="natural" v="wetland" />
		<tag k="ssr:stedsnr" v="911523" />
	</node>
	<node lat="58.580838886262704" lon="8.48865000748369" id="-33699">
		<tag k="name" v="Geitemyr" />
		<tag k="natural" v="wetland" />
		<tag k="ssr:stedsnr" v="789822" />
	</node>
	<node lat="58.68511110963468" lon="8.18559722072812" id="-33716">
		<tag k="alt_name" v="Glomsmyr" />
		<tag k="name" v="Glomsmyra" />
		<tag k="natural" v="wetland" />
		<tag k="ssr:stedsnr" v="790457" />
	</node>
	<node lat="58.59621666892284" lon="8.478100005065698" id="-33722">
		<tag k="alt_name" v="Kleirmyr" />
		<tag k="name" v="Kleivmyr" />
		<tag k="natural" v="wetland" />
		<tag k="ssr:stedsnr" v="911790" />
	</node>
	<node lat="58.53313611131197" lon="8.56390556307668" id="-33741">
		<tag k="name" v="Røyrmyr" />
		<tag k="natural" v="wetland" />
		<tag k="ssr:stedsnr" v="823018" />
	</node>
	<node lat="58.56149444412623" lon="8.740011112306444" id="-33747">
		<tag k="name" v="Skjævestadslåtta" />
		<tag k="natural" v="wetland" />
		<tag k="ssr:stedsnr" v="823274" />
	</node>
	<node lat="58.607919445225754" lon="8.680708338635684" id="-33757">
		<tag k="name" v="Djupemyr" />
		<tag k="natural" v="wetland" />
		<tag k="ssr:stedsnr" v="823306" />
	</node>
	<node lat="58.610624998907326" lon="8.714188885060672" id="-33758">
		<tag k="name" v="Langemyr" />
		<tag k="natural" v="wetland" />
		<tag k="ssr:stedsnr" v="823309" />
	</node>
	<node lat="58.630758337562945" lon="8.270816669172248" id="-33767">
		<tag k="name" v="Jabrumyra" />
		<tag k="natural" v="wetland" />
		<tag k="ssr:stedsnr" v="840201" />
	</node>
	<node lat="58.699049998311736" lon="8.166527781584621" id="-33768">
		<tag k="name" v="Ånonsmyr" />
		<tag k="natural" v="wetland" />
		<tag k="ssr:stedsnr" v="840706" />
	</node>
	<node lat="58.70521388612588" lon="8.205494439407355" id="-33769">
		<tag k="name" v="Bleiksbumyra" />
		<tag k="natural" v="wetland" />
		<tag k="ssr:stedsnr" v="840711" />
	</node>
	<node lat="58.695652781947786" lon="8.2757222193936" id="-33770">
		<tag k="alt_name" v="Tveitmyr" />
		<tag k="name" v="Tveitmyra" />
		<tag k="natural" v="wetland" />
		<tag k="ssr:stedsnr" v="840729" />
	</node>
	<node lat="58.63956944734647" lon="8.181730552899355" id="-33771">
		<tag k="name" v="Dei store myrane" />
		<tag k="natural" v="wetland" />
		<tag k="ssr:stedsnr" v="841005" />
	</node>
	<node lat="58.59090000174721" lon="8.529277772105589" id="-33776">
		<tag k="name" v="Kyrmyr" />
		<tag k="natural" v="wetland" />
		<tag k="ssr:stedsnr" v="841394" />
	</node>
	<node lat="58.70188611534426" lon="8.279411107198204" id="-33787">
		<tag k="name" v="Båsmyrene" />
		<tag k="natural" v="wetland" />
		<tag k="ssr:stedsnr" v="841728" />
	</node>
	<node lat="58.65944722377089" lon="8.518233339388669" id="-33790">
		<tag k="name" v="Dyblemyr" />
		<tag k="natural" v="wetland" />
		<tag k="ssr:stedsnr" v="841815" />
	</node>
	<node lat="58.57506111480545" lon="8.51637222899568" id="-33793">
		<tag k="name" v="Beinmyr" />
		<tag k="natural" v="wetland" />
		<tag k="ssr:stedsnr" v="842010" />
	</node>
	<node lat="58.58038611192006" lon="8.572777773069303" id="-33798">
		<tag k="name" v="Røyrmyr" />
		<tag k="natural" v="wetland" />
		<tag k="ssr:stedsnr" v="842110" />
	</node>
	<node lat="58.619094442898216" lon="8.64415833254542" id="-33803">
		<tag k="name" v="Matbumyra" />
		<tag k="natural" v="wetland" />
		<tag k="ssr:stedsnr" v="842193" />
	</node>
	<node lat="58.61676389109135" lon="8.321386112413645" id="-33806">
		<tag k="name" v="Småmyrane" />
		<tag k="natural" v="wetland" />
		<tag k="ssr:stedsnr" v="842225" />
	</node>
	<node lat="58.57538332927501" lon="8.278013887413056" id="-33808">
		<tag k="name" v="Marimessmyra" />
		<tag k="natural" v="wetland" />
		<tag k="ssr:stedsnr" v="842280" />
	</node>
	<node lat="58.620227780875844" lon="8.260869446865655" id="-33812">
		<tag k="name" v="Risbu" />
		<tag k="place" v="locality" />
		<tag k="ssr:stedsnr" v="842574" />
	</node>
	<node lat="58.621683328976964" lon="8.261088890064213" id="-33813">
		<tag k="name" v="Risbumyra" />
		<tag k="natural" v="wetland" />
		<tag k="ssr:stedsnr" v="842576" />
	</node>
</osm>
