<?xml version="1.0" encoding="UTF-8"?>
<osm version="0.6" generator="osmapis">
	<node lat="58.60635000135074" lon="8.605061115353264" id="-58398">
		<tag k="bridge" v="yes" />
		<tag k="layer" v="1" />
		<tag k="name" v="Kolsteinsva" />
		<tag k="ssr:stedsnr" v="45183" />
	</node>
	<node lat="58.51563611328084" lon="8.62410276993902" id="-58409">
		<tag k="bridge" v="yes" />
		<tag k="layer" v="1" />
		<tag k="name" v="Stien" />
		<tag k="ssr:stedsnr" v="227225" />
	</node>
	<node lat="58.59863055814274" lon="8.710683339309794" id="-58489">
		<tag k="name" v="Bøylefossbru" />
		<tag k="railway" v="station" />
		<tag k="ssr:stedsnr" v="61829" />
		<tag k="train" v="yes" />
	</node>
	<node lat="58.521366666254266" lon="8.536936106556947" id="-58499">
		<tag k="bridge" v="yes" />
		<tag k="layer" v="1" />
		<tag k="name" v="Vassend nedre" />
		<tag k="ssr:stedsnr" v="229221" />
	</node>
	<node lat="58.632858334604066" lon="8.270052779175593" id="-58524">
		<tag k="highway" v="path" />
		<tag k="name" v="Mjålandsvegen" />
		<tag k="ssr:stedsnr" v="233225" />
	</node>
	<node lat="58.60148332966005" lon="8.610769437778853" id="-58757">
		<tag k="bridge" v="yes" />
		<tag k="layer" v="1" />
		<tag k="name" v="Brynjarbekk" />
		<tag k="ssr:stedsnr" v="166218" />
	</node>
	<node lat="58.52183055148268" lon="8.533836114683295" id="-58758">
		<tag k="bridge" v="yes" />
		<tag k="layer" v="1" />
		<tag k="name" v="Vassend øvre" />
		<tag k="ssr:stedsnr" v="168211" />
	</node>
	<node lat="58.605824998775354" lon="8.22655278371313" id="-58806">
		<tag k="ford" v="yes" />
		<tag k="name" v="Lonsvad" />
		<tag k="place" v="locality" />
		<tag k="ssr:stedsnr" v="174313" />
	</node>
	<node lat="58.50084444161189" lon="8.600777769576828" id="-58871">
		<tag k="bridge" v="yes" />
		<tag k="layer" v="1" />
		<tag k="name" v="Eikely" />
		<tag k="ssr:stedsnr" v="227213" />
	</node>
	<node lat="58.50980555558247" lon="8.631616662490766" id="-58971">
		<tag k="bridge" v="yes" />
		<tag k="layer" v="1" />
		<tag k="name" v="Sagstu" />
		<tag k="ssr:stedsnr" v="288190" />
	</node>
	<node lat="58.67526944536377" lon="8.148077770896112" id="-59019">
		<tag k="ford" v="yes" />
		<tag k="name" v="Skjeggeva" />
		<tag k="place" v="locality" />
		<tag k="ssr:stedsnr" v="295589" />
	</node>
	<node lat="58.6107381133159" lon="8.44079517583745" id="-59030">
		<tag k="layer" v="-1" />
		<tag k="name" v="Hoggfjell tunell" />
		<tag k="ssr:stedsnr" v="296092" />
		<tag k="tunnel" v="yes" />
	</node>
	<node lat="58.53897222049163" lon="8.489772225102412" id="-59103">
		<tag k="bridge" v="yes" />
		<tag k="layer" v="1" />
		<tag k="name" v="Mjåvatn" />
		<tag k="ssr:stedsnr" v="348205" />
	</node>
	<node lat="58.546533336005055" lon="8.673533326020282" id="-59104">
		<tag k="bridge" v="yes" />
		<tag k="layer" v="1" />
		<tag k="name" v="Bjellebekken" />
		<tag k="ssr:stedsnr" v="348208" />
	</node>
	<node lat="58.604166669982014" lon="8.195849996891072" id="-59193">
		<tag k="bridge" v="yes" />
		<tag k="layer" v="1" />
		<tag k="name" v="Vågsdal" />
		<tag k="ssr:stedsnr" v="471215" />
	</node>
	<node lat="58.64188889160982" lon="8.21632223075184" id="-59208">
		<tag k="bridge" v="yes" />
		<tag k="layer" v="1" />
		<tag k="name" v="Mjåland" />
		<tag k="ssr:stedsnr" v="409226" />
	</node>
	<node lat="58.52964166279022" lon="8.654372218777997" id="-59334">
		<tag k="name" v="Froland" />
		<tag k="railway" v="halt" />
		<tag k="ssr:stedsnr" v="426707" />
		<tag k="train" v="yes" />
	</node>
	<node lat="58.685572221726616" lon="8.225130555931898" id="-59368">
		<tag k="fixme" v="consider highway=path" />
		<tag k="highway" v="track" />
		<tag k="name" v="Kleivane" />
		<tag k="ssr:stedsnr" v="477546" />
	</node>
	<node lat="58.577074998044765" lon="8.531888886816061" id="-59416">
		<tag k="bridge" v="yes" />
		<tag k="layer" v="1" />
		<tag k="name" v="Båsland" />
		<tag k="ssr:stedsnr" v="470178" />
	</node>
	<node lat="58.545333333139915" lon="8.53602222267834" id="-59417">
		<tag k="bridge" v="yes" />
		<tag k="layer" v="1" />
		<tag k="name" v="Eie" />
		<tag k="ssr:stedsnr" v="470179" />
	</node>
	<node lat="58.650058331451994" lon="8.332638886659538" id="-59467">
		<tag k="ford" v="yes" />
		<tag k="name" v="Berva" />
		<tag k="place" v="locality" />
		<tag k="ssr:stedsnr" v="477705" />
	</node>
	<node lat="58.55961666550602" lon="8.538825001627414" id="-59567">
		<tag k="bridge" v="yes" />
		<tag k="layer" v="1" />
		<tag k="name" v="Kvernhusbekken" />
		<tag k="ssr:stedsnr" v="530230" />
	</node>
	<node lat="58.62969444534875" lon="8.522194442387518" id="-59568">
		<tag k="bridge" v="yes" />
		<tag k="layer" v="1" />
		<tag k="name" v="Oland" />
		<tag k="ssr:stedsnr" v="530243" />
	</node>
	<node lat="58.54328888869586" lon="8.673711108691606" id="-59672">
		<tag k="landuse" v="industrial" />
		<tag k="name" v="Eivindstad kraftstasjon" />
		<tag k="power" v="plant" />
		<tag k="ssr:stedsnr" v="580155" />
	</node>
	<node lat="58.53474444870238" lon="8.697055561072206" id="-59678">
		<tag k="bridge" v="yes" />
		<tag k="layer" v="1" />
		<tag k="name" v="Lyngroth" />
		<tag k="ssr:stedsnr" v="591173" />
	</node>
	<node lat="58.631947219020354" lon="8.260641665853877" id="-59679">
		<tag k="bridge" v="yes" />
		<tag k="layer" v="1" />
		<tag k="name" v="Myklandsdalen" />
		<tag k="ssr:stedsnr" v="591175" />
	</node>
	<node lat="58.55344166831418" lon="8.636111104181861" id="-59680">
		<tag k="bridge" v="yes" />
		<tag k="layer" v="1" />
		<tag k="name" v="Dals" />
		<tag k="ssr:stedsnr" v="591181" />
	</node>
	<node lat="58.62691110953061" lon="8.527547218047333" id="-59681">
		<tag k="bridge" v="yes" />
		<tag k="layer" v="1" />
		<tag k="name" v="Heldal" />
		<tag k="ssr:stedsnr" v="591184" />
	</node>
	<node lat="58.60334722515704" lon="8.414277783281864" id="-59748">
		<tag k="bridge" v="yes" />
		<tag k="layer" v="1" />
		<tag k="name" v="Hynnekleiv" />
		<tag k="ssr:stedsnr" v="773229" />
	</node>
	<node lat="58.558855558147535" lon="8.61825277149487" id="-59772">
		<tag k="bridge" v="yes" />
		<tag k="layer" v="1" />
		<tag k="name" v="Kjørke" />
		<tag k="ssr:stedsnr" v="652157" />
	</node>
	<node lat="58.66700277455173" lon="8.160091668436625" id="-59773">
		<tag k="bridge" v="yes" />
		<tag k="layer" v="1" />
		<tag k="name" v="Kvennbekk" />
		<tag k="ssr:stedsnr" v="652158" />
	</node>
	<node lat="58.48572777813236" lon="8.614236114203425" id="-59774">
		<tag k="bridge" v="yes" />
		<tag k="layer" v="1" />
		<tag k="name" v="Tresnes" />
		<tag k="ssr:stedsnr" v="653194" />
	</node>
	<node lat="58.5139861093365" lon="8.550813894164465" id="-59775">
		<tag k="bridge" v="yes" />
		<tag k="layer" v="1" />
		<tag k="name" v="Uvass nordre" />
		<tag k="ssr:stedsnr" v="653195" />
	</node>
	<node lat="58.62421111304831" lon="8.564624997214969" id="-59900">
		<tag k="bridge" v="yes" />
		<tag k="layer" v="1" />
		<tag k="name" v="Svarvamoen" />
		<tag k="ssr:stedsnr" v="713208" />
	</node>
	<node lat="58.64814166791323" lon="8.222705562396877" id="-59918">
		<tag k="highway" v="path" />
		<tag k="name" v="Hestesprengen" />
		<tag k="ssr:stedsnr" v="719705" />
	</node>
	<node lat="58.597036108143875" lon="8.33435832569145" id="-59940">
		<tag k="fixme" v="consider highway=path" />
		<tag k="highway" v="track" />
		<tag k="name" v="Liveien" />
		<tag k="ssr:stedsnr" v="720516" />
	</node>
	<node lat="58.51657222153719" lon="8.647963890527517" id="-59994">
		<tag k="bridge" v="yes" />
		<tag k="layer" v="1" />
		<tag k="name" v="Hurv" />
		<tag k="ssr:stedsnr" v="773228" />
	</node>
	<node lat="58.66831944642357" lon="8.251561103420519" id="-60023">
		<tag k="name" v="Haugeleet" />
		<tag k="place" v="locality" />
		<tag k="ssr:stedsnr" v="780655" />
	</node>
	<node lat="58.609105551747454" lon="8.230597224627042" id="-60155">
		<tag k="ford" v="yes" />
		<tag k="name" v="Fjermundvadet" />
		<tag k="place" v="locality" />
		<tag k="ssr:stedsnr" v="902685" />
	</node>
	<node lat="58.55547777554881" lon="8.702374997345173" id="-60210">
		<tag k="fixme" v="verify maritime location" />
		<tag k="mooring" v="yes" />
		<tag k="name" v="Herselstoet" />
		<tag k="place" v="locality" />
		<tag k="ssr:stedsnr" v="823171" />
	</node>
	<node lat="58.59630833761432" lon="8.716449994449345" id="-60340">
		<tag k="landuse" v="industrial" />
		<tag k="name" v="Bøylefoss kraftverk" />
		<tag k="old_name" v="Bøylefoss Elverk" />
		<tag k="power" v="plant" />
		<tag k="ssr:stedsnr" v="850829" />
	</node>
	<node lat="58.476149997458656" lon="8.5944583374598" id="-60351">
		<tag k="highway" v="path" />
		<tag k="name" v="Grandalen" />
		<tag k="ssr:stedsnr" v="883306" />
	</node>
	<node lat="58.67139722478281" lon="8.155802778636735" id="-60363">
		<tag k="bridge" v="yes" />
		<tag k="layer" v="1" />
		<tag k="name" v="Åsdal" />
		<tag k="ssr:stedsnr" v="896213" />
	</node>
	<node lat="58.48087222053639" lon="8.416436106287088" id="-60366">
		<tag k="highway" v="path" />
		<tag k="name" v="Stien" />
		<tag k="ssr:stedsnr" v="899758" />
	</node>
	<node lat="58.636647222431726" lon="8.044966671263486" id="-60410">
		<tag k="ford" v="yes" />
		<tag k="name" v="Skorva" />
		<tag k="place" v="locality" />
		<tag k="ssr:stedsnr" v="902905" />
	</node>
	<node lat="58.570044444441926" lon="8.682483326358174" id="-60455">
		<tag k="fixme" v="verify maritime location" />
		<tag k="mooring" v="yes" />
		<tag k="name" v="Langeidstoet" />
		<tag k="place" v="locality" />
		<tag k="ssr:stedsnr" v="944142" />
	</node>
	<node lat="58.65720555154753" lon="8.247658328894207" id="-60471">
		<tag k="bridge" v="yes" />
		<tag k="layer" v="1" />
		<tag k="name" v="Libekk" />
		<tag k="ssr:stedsnr" v="955193" />
	</node>
	<node lat="58.50460000448894" lon="8.47803610411055" id="-60475">
		<tag k="highway" v="path" />
		<tag k="name" v="Stien" />
		<tag k="ssr:stedsnr" v="960395" />
	</node>
	<node lat="58.61553306878797" lon="8.45424801972854" id="-60642">
		<tag k="layer" v="-1" />
		<tag k="name" v="Fivedalstunellen" />
		<tag k="ssr:stedsnr" v="53137" />
		<tag k="tunnel" v="yes" />
	</node>
	<node lat="58.50707777740832" lon="8.648438893649617" id="-60705">
		<tag k="name" v="Blakstad" />
		<tag k="railway" v="halt" />
		<tag k="ssr:stedsnr" v="61493" />
		<tag k="train" v="yes" />
	</node>
	<node lat="58.53946944268929" lon="8.617811110081583" id="-60768">
		<tag k="bridge" v="yes" />
		<tag k="layer" v="1" />
		<tag k="name" v="Nyborgsmo" />
		<tag k="ssr:stedsnr" v="106193" />
	</node>
	<node lat="58.62160833363599" lon="8.33746944290824" id="-60875">
		<tag k="ford" v="yes" />
		<tag k="name" v="Rasva" />
		<tag k="place" v="locality" />
		<tag k="ssr:stedsnr" v="114463" />
	</node>
	<node lat="58.556241666121345" lon="8.49977777646079" id="-60877">
		<tag k="highway" v="path" />
		<tag k="name" v="Den gamle Myklandsveien" />
		<tag k="ssr:stedsnr" v="114689" />
	</node>
	<node lat="58.66999999668951" lon="8.279458331381614" id="-60974">
		<tag k="man_made" v="cairn" />
		<tag k="name" v="Varden" />
		<tag k="place" v="locality" />
		<tag k="ssr:stedsnr" v="172682" />
	</node>
	<node lat="58.63316111236188" lon="8.233347219237736" id="-60985">
		<tag k="highway" v="path" />
		<tag k="name" v="Vordekleivane" />
		<tag k="ssr:stedsnr" v="173180" />
	</node>
	<node lat="58.55811944517101" lon="8.495833328010516" id="-61058">
		<tag k="highway" v="path" />
		<tag k="name" v="Hovatskleivene" />
		<tag k="ssr:stedsnr" v="175675" />
	</node>
	<node lat="58.56637777340139" lon="8.619252777711125" id="-61062">
		<tag k="highway" v="path" />
		<tag k="name" v="Kleivene" />
		<tag k="ssr:stedsnr" v="175877" />
	</node>
	<node lat="58.53276389021823" lon="8.642150005052676" id="-61155">
		<tag k="alt_name" v="Skars" />
		<tag k="bridge" v="yes" />
		<tag k="layer" v="1" />
		<tag k="name" v="Skarsbrua" />
		<tag k="ssr:stedsnr" v="277083" />
	</node>
	<node lat="58.626219448234124" lon="8.263894443921307" id="-61181">
		<tag k="highway" v="path" />
		<tag k="name" v="Gamle Uldalsvegen" />
		<tag k="ssr:stedsnr" v="294154" />
	</node>
	<node lat="58.67883888689687" lon="8.31182222195986" id="-61187">
		<tag k="highway" v="path" />
		<tag k="name" v="Kabbukleiva" />
		<tag k="ssr:stedsnr" v="294867" />
	</node>
	<node lat="58.64032778106849" lon="8.315780556911061" id="-61193">
		<tag k="highway" v="path" />
		<tag k="name" v="Prestevegen" />
		<tag k="ssr:stedsnr" v="295156" />
	</node>
	<node lat="58.5156722228499" lon="8.70381111380187" id="-61270">
		<tag k="aeroway" v="aerodrome" />
		<tag k="name" v="Arendal lufthavn, Gullknapp" />
		<tag k="ssr:stedsnr" v="303231" />
	</node>
	<node lat="58.61443888579627" lon="8.707336118243251" id="-61297">
		<tag k="name" v="Haugsjå" />
		<tag k="railway" v="halt" />
		<tag k="ssr:stedsnr" v="304822" />
		<tag k="train" v="yes" />
	</node>
	<node lat="58.69041944068073" lon="8.159580563497252" id="-61344">
		<tag k="ford" v="yes" />
		<tag k="name" v="Reinva" />
		<tag k="place" v="locality" />
		<tag k="ssr:stedsnr" v="354934" />
	</node>
	<node lat="58.68316666913451" lon="8.033494446146237" id="-61349">
		<tag k="ford" v="yes" />
		<tag k="name" v="Brokeva" />
		<tag k="place" v="locality" />
		<tag k="ssr:stedsnr" v="355092" />
	</node>
	<node lat="58.669986109889194" lon="8.265169444699394" id="-61361">
		<tag k="highway" v="path" />
		<tag k="name" v="Migstien" />
		<tag k="ssr:stedsnr" v="355796" />
	</node>
	<node lat="58.58593888738799" lon="8.715652776930092" id="-61500">
		<tag k="bridge" v="yes" />
		<tag k="layer" v="1" />
		<tag k="name" v="Mosvatnet" />
		<tag k="ssr:stedsnr" v="409228" />
	</node>
	<node lat="58.650166667779345" lon="8.401050005391879" id="-61501">
		<tag k="bridge" v="yes" />
		<tag k="layer" v="1" />
		<tag k="name" v="Myre" />
		<tag k="ssr:stedsnr" v="409229" />
	</node>
	<node lat="58.57943055638521" lon="8.47674444192995" id="-61502">
		<tag k="bridge" v="yes" />
		<tag k="layer" v="1" />
		<tag k="name" v="Rosefvatn" />
		<tag k="ssr:stedsnr" v="409233" />
	</node>
	<node lat="58.64947222307782" lon="8.189727774842543" id="-61503">
		<tag k="bridge" v="yes" />
		<tag k="layer" v="1" />
		<tag k="name" v="Deildebekk" />
		<tag k="ssr:stedsnr" v="409237" />
	</node>
	<node lat="58.61726110915132" lon="8.394277774048144" id="-61504">
		<tag k="bridge" v="yes" />
		<tag k="layer" v="1" />
		<tag k="name" v="Svenes" />
		<tag k="ssr:stedsnr" v="411220" />
	</node>
	<node lat="58.53002500173709" lon="8.41987499387629" id="-61507">
		<tag k="highway" v="path" />
		<tag k="name" v="Den gamle Øynasti" />
		<tag k="ssr:stedsnr" v="413223" />
	</node>
	<node lat="58.505036112891574" lon="8.644949995119182" id="-61697">
		<tag k="alt_name" v="Blakstad" />
		<tag k="bridge" v="yes" />
		<tag k="layer" v="1" />
		<tag k="name" v="Blakstad bru" />
		<tag k="ssr:stedsnr" v="519238" />
	</node>
	<node lat="58.64360000126137" lon="8.259286113364297" id="-61715">
		<tag k="bridge" v="yes" />
		<tag k="layer" v="1" />
		<tag k="name" v="Slåttedal" />
		<tag k="ssr:stedsnr" v="530260" />
	</node>
	<node lat="58.63644444681796" lon="8.13954721508322" id="-61891">
		<tag k="highway" v="path" />
		<tag k="name" v="Prestevegen" />
		<tag k="ssr:stedsnr" v="597044" />
	</node>
	<node lat="58.558047218391955" lon="8.72300000260336" id="-62044">
		<tag k="highway" v="path" />
		<tag k="name" v="Buåskleivene" />
		<tag k="ssr:stedsnr" v="640370" />
	</node>
	<node lat="58.63626666714614" lon="8.311419445774849" id="-62047">
		<tag k="bridge" v="yes" />
		<tag k="layer" v="1" />
		<tag k="name" v="Langevann" />
		<tag k="ssr:stedsnr" v="652159" />
	</node>
	<node lat="58.641449999058565" lon="8.340352781737716" id="-62048">
		<tag k="bridge" v="yes" />
		<tag k="layer" v="1" />
		<tag k="name" v="Brubakken" />
		<tag k="ssr:stedsnr" v="652168" />
	</node>
	<node lat="58.59888610731868" lon="8.620286116206122" id="-62049">
		<tag k="bridge" v="yes" />
		<tag k="layer" v="1" />
		<tag k="name" v="Jomåstjenn" />
		<tag k="ssr:stedsnr" v="652174" />
	</node>
	<node lat="58.479513888120515" lon="8.671650000732354" id="-62050">
		<tag k="bridge" v="yes" />
		<tag k="layer" v="1" />
		<tag k="name" v="Skuggestøyl" />
		<tag k="ssr:stedsnr" v="652182" />
	</node>
	<node lat="58.50328333261864" lon="8.590866668702468" id="-62165">
		<tag k="bridge" v="yes" />
		<tag k="layer" v="1" />
		<tag k="name" v="Øyren" />
		<tag k="ssr:stedsnr" v="714174" />
	</node>
	<node lat="58.61233942175447" lon="8.447644078768048" id="-62206">
		<tag k="layer" v="-1" />
		<tag k="name" v="Orremyrtunellen" />
		<tag k="ssr:stedsnr" v="720142" />
		<tag k="tunnel" v="yes" />
	</node>
	<node lat="58.66663333333672" lon="8.065766670543814" id="-62214">
		<tag k="highway" v="path" />
		<tag k="name" v="Ørnestien" />
		<tag k="ssr:stedsnr" v="719954" />
	</node>
	<node lat="58.63859444599163" lon="8.657216668737842" id="-62221">
		<tag k="ford" v="yes" />
		<tag k="name" v="Bjørnevaet" />
		<tag k="place" v="locality" />
		<tag k="ssr:stedsnr" v="720559" />
	</node>
	<node lat="58.57633611094254" lon="8.705552780319326" id="-62292">
		<tag k="name" v="Bøylestad" />
		<tag k="railway" v="halt" />
		<tag k="ssr:stedsnr" v="729870" />
		<tag k="train" v="yes" />
	</node>
	<node lat="58.63100833412103" lon="8.303147225616575" id="-62302">
		<tag k="bridge" v="yes" />
		<tag k="layer" v="1" />
		<tag k="name" v="Vøilebruna" />
		<tag k="ssr:stedsnr" v="736136" />
	</node>
	<node lat="58.60996666679942" lon="8.667749992024735" id="-62328">
		<tag k="highway" v="path" />
		<tag k="name" v="Tjennkleivene" />
		<tag k="ssr:stedsnr" v="762321" />
	</node>
	<node lat="58.48375555547268" lon="8.455808325140994" id="-62331">
		<tag k="bridge" v="yes" />
		<tag k="layer" v="1" />
		<tag k="name" v="Snøløs" />
		<tag k="ssr:stedsnr" v="773237" />
	</node>
	<node lat="58.634952775950595" lon="8.263469447829412" id="-62350">
		<tag k="highway" v="path" />
		<tag k="name" v="Nordkleivane" />
		<tag k="ssr:stedsnr" v="779178" />
	</node>
	<node lat="58.523961110637615" lon="8.675666663232347" id="-62512">
		<tag k="bridge" v="yes" />
		<tag k="layer" v="1" />
		<tag k="name" v="Hurvedal" />
		<tag k="ssr:stedsnr" v="834226" />
	</node>
	<node lat="58.552902779956604" lon="8.235522215784021" id="-62577">
		<tag k="ford" v="yes" />
		<tag k="name" v="Reinsva" />
		<tag k="place" v="locality" />
		<tag k="ssr:stedsnr" v="842156" />
	</node>
	<node lat="58.57278055162168" lon="8.646330550501379" id="-62682">
		<tag k="bridge" v="yes" />
		<tag k="layer" v="1" />
		<tag k="name" v="Sleikebekk" />
		<tag k="ssr:stedsnr" v="955214" />
	</node>
	<node lat="58.613038891524624" lon="8.588091662222821" id="-62683">
		<tag k="bridge" v="yes" />
		<tag k="layer" v="1" />
		<tag k="name" v="Sunde" />
		<tag k="ssr:stedsnr" v="955217" />
	</node>
	<node lat="58.68633055361373" lon="8.228558331284736" id="-62781">
		<tag k="fixme" v="consider highway=path" />
		<tag k="highway" v="track" />
		<tag k="name" v="Ramseveien" />
		<tag k="ssr:stedsnr" v="963567" />
	</node>
</osm>
