<?xml version="1.0" encoding="UTF-8"?>
<<<<<<< HEAD
<osm version="0.6" generator="osmapis">
	<node lat="58.519561114199654" lon="8.64326110336346" id="-28776">
=======
<osm generator="osmapis" version="0.6">
	<node id="-529869" lat="58.4863111067" lon="8.61024999857">
		<tag k="name" v="Sundet" />
		<tag k="natural" v="strait" />
		<tag k="ssr:stedsnr" v="216190" />
	</node>
	<node id="-529171" lat="58.5195611142" lon="8.64326110336">
>>>>>>> e1d4bc35ff8a6074a6f2e91616a996b547c36f15
		<tag k="name" v="Ferjestaden" />
		<tag k="natural" v="beach" />
		<tag k="ssr:stedsnr" v="34201" />
	</node>
<<<<<<< HEAD
	<node lat="58.48631110667812" lon="8.610249998567872" id="-29115">
		<tag k="name" v="Sundet" />
		<tag k="natural" v="strait" />
		<tag k="ssr:stedsnr" v="216190" />
	</node>
	<node lat="58.509611112518634" lon="8.633466672848295" id="-29548">
=======
	<node id="-530185" lat="58.5096111125" lon="8.63346667285">
>>>>>>> e1d4bc35ff8a6074a6f2e91616a996b547c36f15
		<tag k="name" v="Osen" />
		<tag k="natural" v="bay" />
		<tag k="ssr:stedsnr" v="398226" />
	</node>
</osm>
