<?xml version="1.0" encoding="UTF-8"?>
<osm version="0.6" generator="osmapis">
	<node lat="58.61161944750948" lon="8.31922778619053" id="-31929">
		<tag k="name" v="Øyvatnet" />
		<tag k="natural" v="water" />
		<tag k="ssr:stedsnr" v="347" />
	</node>
	<node lat="58.61765555754404" lon="8.294508329296221" id="-31931">
		<tag k="name" v="Hellesbekken" />
		<tag k="ssr:stedsnr" v="356" />
		<tag k="waterway" v="stream" />
	</node>
	<node lat="58.74002499866462" lon="8.11499167310426" id="-31933">
		<tag k="alt_name" v="Skjeggedalsåni" />
		<tag k="fixme" v="multiple name tags, choose one and add the other to alt_name" />
		<tag k="name" v="Stigåna;Skjeggedalsåna" />
		<tag k="ssr:stedsnr" v="411" />
		<tag k="waterway" v="river" />
	</node>
	<node lat="58.54799444292027" lon="8.739983330461747" id="-31934">
		<tag k="name" v="Fiskebekken" />
		<tag k="ssr:stedsnr" v="666" />
		<tag k="waterway" v="stream" />
	</node>
	<node lat="58.50683055152624" lon="8.472122223784357" id="-31935">
		<tag k="alt_name" v="Kvernvatnet" />
		<tag k="name" v="Kvennetjenn" />
		<tag k="natural" v="water" />
		<tag k="ssr:stedsnr" v="746" />
	</node>
	<node lat="58.57925000023283" lon="8.442786115358047" id="-31942">
		<tag k="alt_name" v="Moltetjenn" />
		<tag k="name" v="Moltetjørn" />
		<tag k="natural" v="water" />
		<tag k="ssr:stedsnr" v="1148" />
	</node>
	<node lat="58.6170027782029" lon="8.742194441955206" id="-31946">
		<tag k="alt_name" v="Haugsjåtjenn" />
		<tag k="name" v="Hausjatjern" />
		<tag k="natural" v="water" />
		<tag k="ssr:stedsnr" v="1794" />
	</node>
	<node lat="58.52550278004619" lon="8.604341664025721" id="-31949">
		<tag k="alt_name" v="Rislandstjenn" />
		<tag k="name" v="Rislandstjern" />
		<tag k="natural" v="water" />
		<tag k="ssr:stedsnr" v="1700" />
	</node>
	<node lat="58.51911388550696" lon="8.454819438460692" id="-31951">
		<tag k="name" v="Neset" />
		<tag k="natural" v="cape" />
		<tag k="ssr:stedsnr" v="231022" />
	</node>
	<node lat="58.52142390584279" lon="8.472283226544604" id="-31954">
		<tag k="name" v="Tveitjennene" />
		<tag k="natural" v="water" />
		<tag k="ssr:stedsnr" v="231030" />
		<tag k="water" v="lake" />
	</node>
	<node lat="58.50582221794472" lon="8.50711388623724" id="-31957">
		<tag k="name" v="Romeheitjenn" />
		<tag k="natural" v="water" />
		<tag k="ssr:stedsnr" v="231459" />
	</node>
	<node lat="58.62478889020739" lon="8.13906110803612" id="-31961">
		<tag k="name" v="Eikebergåstjønn" />
		<tag k="natural" v="water" />
		<tag k="ssr:stedsnr" v="233018" />
	</node>
	<node lat="58.66929444319701" lon="8.026274997682908" id="-31964">
		<tag k="name" v="Stavtjønn" />
		<tag k="natural" v="water" />
		<tag k="ssr:stedsnr" v="233065" />
	</node>
	<node lat="58.70340555846917" lon="8.01249999721184" id="-31970">
		<tag k="name" v="Gjuvvassosen" />
		<tag k="natural" v="bay" />
		<tag k="ssr:stedsnr" v="233992" />
	</node>
	<node lat="58.625219448509014" lon="8.48450834127893" id="-31977">
		<tag k="name" v="Elstjønn" />
		<tag k="natural" v="water" />
		<tag k="ssr:stedsnr" v="235057" />
	</node>
	<node lat="58.667088893350666" lon="8.276588896648207" id="-31995">
		<tag k="name" v="Grasdalstjønn" />
		<tag k="natural" v="water" />
		<tag k="ssr:stedsnr" v="234649" />
	</node>
	<node lat="58.61465277884809" lon="8.392163884371607" id="-32013">
		<tag k="name" v="Gamle Svenes" />
		<tag k="natural" v="cape" />
		<tag k="ssr:stedsnr" v="235020" />
	</node>
	<node lat="58.61158611071642" lon="8.451022222663903" id="-32017">
		<tag k="name" v="Nordstrand" />
		<tag k="natural" v="beach" />
		<tag k="ssr:stedsnr" v="235133" />
	</node>
	<node lat="58.57822499707025" lon="8.447972225170748" id="-32018">
		<tag k="name" v="Skinnfjordene" />
		<tag k="natural" v="water" />
		<tag k="ssr:stedsnr" v="235224" />
	</node>
	<node lat="58.598619444981246" lon="8.345894436102169" id="-32027">
		<tag k="name" v="Vrangefoss" />
		<tag k="natural" v="waterfall" />
		<tag k="ssr:stedsnr" v="235537" />
	</node>
	<node lat="58.54372222606467" lon="8.465944451006044" id="-32030">
		<tag k="name" v="Skavliodden" />
		<tag k="natural" v="cape" />
		<tag k="ssr:stedsnr" v="235591" />
	</node>
	<node lat="58.54817499945046" lon="8.480413887726401" id="-32031">
		<tag k="name" v="Rosstjønnbukta" />
		<tag k="natural" v="bay" />
		<tag k="ssr:stedsnr" v="235606" />
	</node>
	<node lat="58.60065555212063" lon="8.302016670930588" id="-32035">
		<tag k="name" v="Sauekilen" />
		<tag k="natural" v="bay" />
		<tag k="ssr:stedsnr" v="235621" />
	</node>
	<node lat="58.487041663245044" lon="8.571938883288727" id="-32045">
		<tag k="name" v="Annetjenn" />
		<tag k="natural" v="water" />
		<tag k="ssr:stedsnr" v="34004" />
	</node>
	<node lat="58.480649997743015" lon="8.584608331096037" id="-32047">
		<tag k="name" v="Butjenn" />
		<tag k="natural" v="water" />
		<tag k="ssr:stedsnr" v="34011" />
	</node>
	<node lat="58.617927779340704" lon="8.701305557543009" id="-32052">
		<tag k="name" v="Kvernhusøya" />
		<tag k="place" v="islet" />
		<tag k="ssr:stedsnr" v="34303" />
	</node>
	<node lat="58.644472218777906" lon="8.256219444596146" id="-32063">
		<tag k="name" v="Førbustøltjønn" />
		<tag k="natural" v="water" />
		<tag k="ssr:stedsnr" v="51211" />
	</node>
	<node lat="58.69313888860972" lon="8.0899416683772" id="-32069">
		<tag k="name" v="Den lange tjønna" />
		<tag k="natural" v="water" />
		<tag k="ssr:stedsnr" v="51913" />
	</node>
	<node lat="58.69344722346183" lon="8.021369444572768" id="-32071">
		<tag k="name" v="Badstuvika" />
		<tag k="natural" v="bay" />
		<tag k="ssr:stedsnr" v="51980" />
	</node>
	<node lat="58.645730552097795" lon="8.656669445560949" id="-32076">
		<tag k="name" v="Svanekilen" />
		<tag k="natural" v="bay" />
		<tag k="ssr:stedsnr" v="52508" />
	</node>
	<node lat="58.64813889221507" lon="8.235674998766271" id="-32083">
		<tag k="name" v="Strålesund" />
		<tag k="natural" v="strait" />
		<tag k="ssr:stedsnr" v="52617" />
	</node>
	<node lat="58.65127499728721" lon="8.539027781713553" id="-32087">
		<tag k="name" v="Løytingstjønn" />
		<tag k="natural" v="water" />
		<tag k="ssr:stedsnr" v="52812" />
	</node>
	<node lat="58.65736110984758" lon="8.546083334658707" id="-32088">
		<tag k="name" v="Nautenes" />
		<tag k="natural" v="cape" />
		<tag k="ssr:stedsnr" v="52814" />
	</node>
	<node lat="58.582166664564404" lon="8.558913896737684" id="-32093">
		<tag k="name" v="Jomåstjønn" />
		<tag k="natural" v="water" />
		<tag k="ssr:stedsnr" v="53118" />
	</node>
	<node lat="58.56026944412356" lon="8.34900000166639" id="-32104">
		<tag k="name" v="Jonsfoss" />
		<tag k="natural" v="waterfall" />
		<tag k="ssr:stedsnr" v="53379" />
	</node>
	<node lat="58.583605556282045" lon="8.31684167018438" id="-32105">
		<tag k="name" v="Langbekk" />
		<tag k="ssr:stedsnr" v="53513" />
		<tag k="waterway" v="stream" />
	</node>
	<node lat="58.672944063482305" lon="8.185367408484758" id="-32106">
		<tag k="name" v="Hushovdtjønnane" />
		<tag k="natural" v="water" />
		<tag k="ssr:stedsnr" v="53521" />
		<tag k="water" v="lake" />
	</node>
	<node lat="58.67696944311444" lon="8.149102779200847" id="-32116">
		<tag k="name" v="Skjeggedalsåna" />
		<tag k="ssr:stedsnr" v="53605" />
		<tag k="waterway" v="river" />
	</node>
	<node lat="58.68933888686694" lon="8.23076944763413" id="-32117">
		<tag k="name" v="Tristikla" />
		<tag k="natural" v="water" />
		<tag k="ssr:stedsnr" v="53572" />
		<tag k="water" v="pond" />
	</node>
	<node lat="58.54521666567359" lon="8.47626943873198" id="-32118">
		<tag k="name" v="Svartevik" />
		<tag k="natural" v="bay" />
		<tag k="ssr:stedsnr" v="53582" />
	</node>
	<node lat="58.55929166607432" lon="8.635288881983863" id="-32127">
		<tag k="name" v="Urdalsbekken" />
		<tag k="ssr:stedsnr" v="53867" />
		<tag k="waterway" v="stream" />
	</node>
	<node lat="58.65480833100492" lon="8.214697223824327" id="-32130">
		<tag k="alt_name" v="Formuvatnet" />
		<tag k="name" v="Furumovatnet" />
		<tag k="natural" v="water" />
		<tag k="ssr:stedsnr" v="61274" />
		<tag k="water" v="lake" />
	</node>
	<node lat="58.538941664582644" lon="8.441430558557297" id="-32142">
		<tag k="alt_name" v="Spuntertjørn" />
		<tag k="name" v="Spontertjern" />
		<tag k="natural" v="water" />
		<tag k="ssr:stedsnr" v="62179" />
	</node>
	<node lat="58.625241663189726" lon="8.27357221863545" id="-32144">
		<tag k="alt_name" v="Kvernåna" />
		<tag k="name" v="Kvennåna" />
		<tag k="ssr:stedsnr" v="62370" />
		<tag k="waterway" v="river" />
	</node>
	<node lat="58.63340833521423" lon="8.306497215257503" id="-32145">
		<tag k="alt_name" v="Langevatnet" />
		<tag k="name" v="Langevatn" />
		<tag k="natural" v="water" />
		<tag k="ssr:stedsnr" v="62371" />
	</node>
	<node lat="58.57291944452082" lon="8.565933333264729" id="-32151">
		<tag k="name" v="Tiksletjenn" />
		<tag k="natural" v="water" />
		<tag k="ssr:stedsnr" v="62871" />
	</node>
	<node lat="58.594122225934704" lon="8.344163884090486" id="-32156">
		<tag k="alt_name" v="Femøretjørna" />
		<tag k="name" v="Femøretjønna" />
		<tag k="natural" v="water" />
		<tag k="ssr:stedsnr" v="243146" />
	</node>
	<node lat="58.60915278195502" lon="8.286572213855123" id="-32161">
		<tag k="name" v="Fiskevatnet" />
		<tag k="natural" v="water" />
		<tag k="ssr:stedsnr" v="243321" />
	</node>
	<node lat="58.54956666843967" lon="8.53271111896603" id="-32166">
		<tag k="name" v="Brattelandsvatnet" />
		<tag k="natural" v="water" />
		<tag k="ssr:stedsnr" v="243656" />
	</node>
	<node lat="58.531505555766955" lon="8.477555557181578" id="-32168">
		<tag k="alt_name" v="Heitjørn" />
		<tag k="name" v="Heitjenn" />
		<tag k="natural" v="water" />
		<tag k="ssr:stedsnr" v="243695" />
	</node>
	<node lat="58.592494440659664" lon="8.555988893128303" id="-32174">
		<tag k="alt_name" v="Smørtjern" />
		<tag k="name" v="Smørtjønn" />
		<tag k="natural" v="water" />
		<tag k="ssr:stedsnr" v="243820" />
	</node>
	<node lat="58.65947222194501" lon="8.511444450444262" id="-32176">
		<tag k="alt_name" v="Hammetjern" />
		<tag k="name" v="Hammetjønn" />
		<tag k="natural" v="water" />
		<tag k="ssr:stedsnr" v="243975" />
	</node>
	<node lat="58.62041666681504" lon="8.458216660615674" id="-32179">
		<tag k="alt_name" v="Vassbrekktjørna" />
		<tag k="name" v="Vassbrekktjønna" />
		<tag k="natural" v="water" />
		<tag k="ssr:stedsnr" v="244350" />
	</node>
	<node lat="58.62311666980654" lon="8.106049998432422" id="-32180">
		<tag k="name" v="Storøya" />
		<tag k="place" v="islet" />
		<tag k="ssr:stedsnr" v="244370" />
	</node>
	<node lat="58.69689722316215" lon="8.292513894470314" id="-32182">
		<tag k="name" v="Austretjørn" />
		<tag k="natural" v="water" />
		<tag k="ssr:stedsnr" v="244450" />
	</node>
	<node lat="58.52863333673297" lon="8.50015556399818" id="-32184">
		<tag k="alt_name" v="Langtjørn" />
		<tag k="name" v="Langtjenn" />
		<tag k="natural" v="water" />
		<tag k="ssr:stedsnr" v="244719" />
	</node>
	<node lat="58.56370277633758" lon="8.57568055055623" id="-32185">
		<tag k="alt_name" v="Fjåbbutjern" />
		<tag k="name" v="Fjåbutjønn" />
		<tag k="natural" v="water" />
		<tag k="ssr:stedsnr" v="244671" />
	</node>
	<node lat="58.661002963366165" lon="8.581472405460808" id="-32188">
		<tag k="name" v="Kubbesund" />
		<tag k="natural" v="strait" />
		<tag k="ssr:stedsnr" v="92669" />
	</node>
	<node lat="58.58033055977965" lon="8.722619449017474" id="-32206">
		<tag k="name" v="Blennebekk" />
		<tag k="ssr:stedsnr" v="94395" />
		<tag k="waterway" v="stream" />
	</node>
	<node lat="58.49489444794092" lon="8.476638890870857" id="-32211">
		<tag k="name" v="Urentjenn" />
		<tag k="natural" v="water" />
		<tag k="ssr:stedsnr" v="110709" />
	</node>
	<node lat="58.4706944430184" lon="8.53943611723066" id="-32213">
		<tag k="name" v="Øyketjenn" />
		<tag k="natural" v="water" />
		<tag k="ssr:stedsnr" v="110927" />
	</node>
	<node lat="58.460141669966056" lon="8.55071389460443" id="-32214">
		<tag k="name" v="Trytetjenn" />
		<tag k="natural" v="water" />
		<tag k="ssr:stedsnr" v="110881" />
	</node>
	<node lat="58.67835832913073" lon="8.031991662328583" id="-32215">
		<tag k="name" v="Høgtjønn" />
		<tag k="natural" v="bay" />
		<tag k="ssr:stedsnr" v="112115" />
	</node>
	<node lat="58.62541389039797" lon="8.509466664743488" id="-32219">
		<tag k="name" v="Suggevika" />
		<tag k="natural" v="bay" />
		<tag k="ssr:stedsnr" v="113119" />
	</node>
	<node lat="58.60648055979314" lon="8.593833333665994" id="-32224">
		<tag k="name" v="Lonene" />
		<tag k="natural" v="water" />
		<tag k="ssr:stedsnr" v="113183" />
		<tag k="water" v="lake" />
	</node>
	<node lat="58.57294722252073" lon="8.489555561664819" id="-32225">
		<tag k="name" v="Kinnfokktjønn" />
		<tag k="natural" v="water" />
		<tag k="ssr:stedsnr" v="113186" />
	</node>
	<node lat="58.689050001042204" lon="8.179074996752185" id="-32241">
		<tag k="name" v="Ånondalstjønn" />
		<tag k="natural" v="water" />
		<tag k="ssr:stedsnr" v="113591" />
	</node>
	<node lat="58.669838885233844" lon="8.50536388781287" id="-32247">
		<tag k="name" v="Sautjønn" />
		<tag k="natural" v="water" />
		<tag k="ssr:stedsnr" v="113633" />
	</node>
	<node lat="58.66914166905958" lon="8.520700007447891" id="-32248">
		<tag k="name" v="Mørkelitjønn" />
		<tag k="natural" v="water" />
		<tag k="ssr:stedsnr" v="113641" />
	</node>
	<node lat="58.66552317291375" lon="8.490737610378245" id="-32249">
		<tag k="name" v="Småtjønnene" />
		<tag k="natural" v="water" />
		<tag k="ssr:stedsnr" v="113644" />
		<tag k="water" v="lake" />
	</node>
	<node lat="58.61552499551062" lon="8.209952771727853" id="-32261">
		<tag k="name" v="Lonedalstjønn" />
		<tag k="natural" v="water" />
		<tag k="ssr:stedsnr" v="114531" />
	</node>
	<node lat="58.58989722335712" lon="8.29977222890907" id="-32265">
		<tag k="name" v="Lauvvika" />
		<tag k="natural" v="bay" />
		<tag k="ssr:stedsnr" v="114607" />
	</node>
	<node lat="58.55401389272801" lon="8.625441660730187" id="-32268">
		<tag k="name" v="Lusstjønn" />
		<tag k="natural" v="water" />
		<tag k="ssr:stedsnr" v="114822" />
	</node>
	<node lat="58.482811115462525" lon="8.475527769707266" id="-32270">
		<tag k="alt_name" v="Snøløstjern" />
		<tag k="name" v="Snøløstjenn" />
		<tag k="natural" v="water" />
		<tag k="ssr:stedsnr" v="121672" />
	</node>
	<node lat="58.485302775212496" lon="8.576102769359718" id="-32271">
		<tag k="alt_name" v="Auglandstjenn" />
		<tag k="name" v="Auglandstjern" />
		<tag k="natural" v="water" />
		<tag k="ssr:stedsnr" v="121686" />
	</node>
	<node lat="58.66317180385051" lon="8.173726397238985" id="-32273">
		<tag k="name" v="Lindåstjørnane" />
		<tag k="natural" v="water" />
		<tag k="ssr:stedsnr" v="122307" />
		<tag k="water" v="lake" />
	</node>
	<node lat="58.511505558174356" lon="8.472683328689783" id="-32276">
		<tag k="alt_name" v="Heievatnet" />
		<tag k="name" v="Heivatn" />
		<tag k="natural" v="water" />
		<tag k="ssr:stedsnr" v="122718" />
	</node>
	<node lat="58.49133610725824" lon="8.56523611728912" id="-32278">
		<tag k="name" v="Hegretjenn" />
		<tag k="natural" v="water" />
		<tag k="ssr:stedsnr" v="155002" />
	</node>
	<node lat="58.57815277794659" lon="8.748455557388034" id="-32285">
		<tag k="name" v="Flottjenn" />
		<tag k="natural" v="water" />
		<tag k="ssr:stedsnr" v="155324" />
	</node>
	<node lat="58.52448889153604" lon="8.400613880746285" id="-32290">
		<tag k="name" v="Ålkartjenn" />
		<tag k="natural" v="water" />
		<tag k="ssr:stedsnr" v="171172" />
	</node>
	<node lat="58.50875555233235" lon="8.51120833166816" id="-32292">
		<tag k="name" v="Bomtjenn" />
		<tag k="natural" v="water" />
		<tag k="ssr:stedsnr" v="171410" />
	</node>
	<node lat="58.48896944330617" lon="8.478594451907416" id="-32293">
		<tag k="name" v="Rundetjenn" />
		<tag k="natural" v="water" />
		<tag k="ssr:stedsnr" v="171718" />
	</node>
	<node lat="58.461813891047974" lon="8.540852774748368" id="-32295">
		<tag k="name" v="Brattebergslona" />
		<tag k="natural" v="strait" />
		<tag k="ssr:stedsnr" v="171909" />
	</node>
	<node lat="58.46578055403825" lon="8.548938884509765" id="-32297">
		<tag k="name" v="Lauvåsodden" />
		<tag k="natural" v="cape" />
		<tag k="ssr:stedsnr" v="171913" />
	</node>
	<node lat="58.62647778022893" lon="8.215783331460848" id="-32302">
		<tag k="name" v="Høgetjønn" />
		<tag k="natural" v="water" />
		<tag k="ssr:stedsnr" v="173213" />
	</node>
	<node lat="58.63541388758544" lon="8.217891673100274" id="-32303">
		<tag k="name" v="Sundet" />
		<tag k="natural" v="strait" />
		<tag k="ssr:stedsnr" v="173219" />
	</node>
	<node lat="58.59496666894508" lon="8.512680561203439" id="-32304">
		<tag k="name" v="Bjønndalstjønn" />
		<tag k="natural" v="water" />
		<tag k="ssr:stedsnr" v="173358" />
	</node>
	<node lat="58.69896551167217" lon="8.306459699663119" id="-32311">
		<tag k="alt_name" v="Austadkilen" />
		<tag k="name" v="Auestadkilen" />
		<tag k="natural" v="bay" />
		<tag k="ssr:stedsnr" v="173710" />
	</node>
	<node lat="58.66511666747784" lon="8.272166662434818" id="-32313">
		<tag k="name" v="Ormegrovtjønn" />
		<tag k="natural" v="water" />
		<tag k="ssr:stedsnr" v="173727" />
	</node>
	<node lat="58.63173055120724" lon="8.066947230653534" id="-32314">
		<tag k="name" v="Siristjønn" />
		<tag k="natural" v="water" />
		<tag k="ssr:stedsnr" v="173757" />
	</node>
	<node lat="58.609741667277355" lon="8.399508329203742" id="-32317">
		<tag k="name" v="Stene" />
		<tag k="natural" v="cape" />
		<tag k="ssr:stedsnr" v="174010" />
	</node>
	<node lat="58.61679721960628" lon="8.592413893836813" id="-32324">
		<tag k="name" v="Steinbruneset" />
		<tag k="natural" v="cape" />
		<tag k="ssr:stedsnr" v="174209" />
	</node>
	<node lat="58.6227750031925" lon="8.288675007576778" id="-32329">
		<tag k="name" v="Mjunåstjønn" />
		<tag k="natural" v="water" />
		<tag k="ssr:stedsnr" v="174317" />
	</node>
	<node lat="58.6253138861513" lon="8.257461112284219" id="-32334">
		<tag k="name" v="Trytetjønn" />
		<tag k="natural" v="water" />
		<tag k="ssr:stedsnr" v="174604" />
	</node>
	<node lat="58.58712500251603" lon="8.475324994020058" id="-32349">
		<tag k="name" v="Lille Plasstjønn" />
		<tag k="natural" v="water" />
		<tag k="ssr:stedsnr" v="174954" />
	</node>
	<node lat="58.59279166880713" lon="8.485572223262166" id="-32350">
		<tag k="name" v="Kleivtjønn" />
		<tag k="natural" v="water" />
		<tag k="ssr:stedsnr" v="174956" />
	</node>
	<node lat="58.60826666900161" lon="8.31891389567412" id="-32353">
		<tag k="name" v="Grønlitjørn" />
		<tag k="natural" v="water" />
		<tag k="ssr:stedsnr" v="182318" />
	</node>
	<node lat="58.69485277454252" lon="7.97624999905034" id="-32355">
		<tag k="fixme" v="multiple name tags, choose one and add the other to alt_name" />
		<tag k="name" v="Krosstjørn;Bjortjønn" />
		<tag k="natural" v="water" />
		<tag k="ssr:stedsnr" v="182556" />
	</node>
	<node lat="58.433416670624396" lon="8.710941663560412" id="-32356">
		<tag k="name" v="Nidelva" />
		<tag k="ssr:stedsnr" v="182644" />
		<tag k="waterway" v="river" />
	</node>
	<node lat="58.59925833497121" lon="8.566547223938935" id="-32357">
		<tag k="alt_name" v="Saurtjern" />
		<tag k="name" v="Saurtjønn" />
		<tag k="natural" v="water" />
		<tag k="ssr:stedsnr" v="182820" />
	</node>
	<node lat="58.499005553106166" lon="8.528049993769967" id="-32361">
		<tag k="alt_name" v="Svartetjern" />
		<tag k="name" v="Svarttjenn" />
		<tag k="natural" v="water" />
		<tag k="ssr:stedsnr" v="183494" />
	</node>
	<node lat="58.52836944558833" lon="8.531805552334564" id="-32363">
		<tag k="alt_name" v="Fjelltjern" />
		<tag k="name" v="Fjelltjenn" />
		<tag k="natural" v="water" />
		<tag k="ssr:stedsnr" v="183705" />
	</node>
	<node lat="58.525172218658874" lon="8.629277778255862" id="-32364">
		<tag k="name" v="Songeelva" />
		<tag k="ssr:stedsnr" v="183710" />
		<tag k="waterway" v="river" />
	</node>
	<node lat="58.48248650618534" lon="8.552794264143985" id="-32374">
		<tag k="name" v="Leiktjennene" />
		<tag k="natural" v="water" />
		<tag k="ssr:stedsnr" v="216003" />
		<tag k="water" v="lake" />
	</node>
	<node lat="58.62415833367775" lon="8.68612222932335" id="-32378">
		<tag k="name" v="Øyene" />
		<tag k="place" v="islet" />
		<tag k="ssr:stedsnr" v="216102" />
	</node>
	<node lat="58.622105553636615" lon="8.667811114051103" id="-32379">
		<tag k="name" v="Olsbuvannet" />
		<tag k="natural" v="water" />
		<tag k="ssr:stedsnr" v="216107" />
		<tag k="water" v="lake" />
	</node>
	<node lat="58.56511111406543" lon="8.731088880633331" id="-32383">
		<tag k="name" v="Løtjennbekken" />
		<tag k="ssr:stedsnr" v="216286" />
		<tag k="waterway" v="stream" />
	</node>
	<node lat="58.56474444530036" lon="8.725124993082725" id="-32385">
		<tag k="name" v="Grønnland" />
		<tag k="place" v="islet" />
		<tag k="ssr:stedsnr" v="216294" />
	</node>
	<node lat="58.53653236693628" lon="8.414532319594976" id="-32394">
		<tag k="name" v="Herefosstjønnene" />
		<tag k="natural" v="water" />
		<tag k="ssr:stedsnr" v="231186" />
		<tag k="water" v="lake" />
	</node>
	<node lat="58.474472224092736" lon="8.56315555276683" id="-32397">
		<tag k="name" v="Auglandskilen" />
		<tag k="natural" v="bay" />
		<tag k="ssr:stedsnr" v="231912" />
	</node>
	<node lat="58.629025004074094" lon="8.260080554148832" id="-32401">
		<tag k="name" v="Kyrkjetjønn" />
		<tag k="natural" v="water" />
		<tag k="ssr:stedsnr" v="233187" />
	</node>
	<node lat="58.69437222421086" lon="8.114988889582158" id="-32403">
		<tag k="name" v="Store Øygardstjønn" />
		<tag k="natural" v="water" />
		<tag k="ssr:stedsnr" v="233940" />
	</node>
	<node lat="58.67361110833705" lon="8.056308328846196" id="-32404">
		<tag k="name" v="Vindfetåna" />
		<tag k="ssr:stedsnr" v="233886" />
		<tag k="waterway" v="river" />
	</node>
	<node lat="58.6191416639947" lon="8.496641665676828" id="-32409">
		<tag k="name" v="Tanrekstjønn" />
		<tag k="natural" v="water" />
		<tag k="ssr:stedsnr" v="234132" />
	</node>
	<node lat="58.60749722368198" lon="8.56249444411111" id="-32413">
		<tag k="name" v="Beltetjønn" />
		<tag k="natural" v="water" />
		<tag k="ssr:stedsnr" v="234182" />
	</node>
	<node lat="58.6060861137375" lon="8.599438884208004" id="-32414">
		<tag k="name" v="Lillestem" />
		<tag k="ssr:stedsnr" v="234193" />
		<tag k="waterway" v="dam" />
	</node>
	<node lat="58.55298888956216" lon="8.510502774207376" id="-32424">
		<tag k="name" v="Kolhusodden" />
		<tag k="natural" v="cape" />
		<tag k="ssr:stedsnr" v="234683" />
	</node>
	<node lat="58.556277773363675" lon="8.508041661799334" id="-32425">
		<tag k="name" v="Lilløy" />
		<tag k="place" v="islet" />
		<tag k="ssr:stedsnr" v="234684" />
	</node>
	<node lat="58.65248888651895" lon="8.62573055570815" id="-32435">
		<tag k="name" v="Øyråskilen" />
		<tag k="natural" v="bay" />
		<tag k="ssr:stedsnr" v="234884" />
	</node>
	<node lat="58.60703889101252" lon="8.40030000084533" id="-32437">
		<tag k="name" v="Fergestaden" />
		<tag k="ssr:stedsnr" v="235008" />
		<tag k="waterway" v="river" />
	</node>
	<node lat="58.56995277587551" lon="8.227886108908681" id="-32443">
		<tag k="name" v="Kilebunnen" />
		<tag k="natural" v="bay" />
		<tag k="ssr:stedsnr" v="235302" />
	</node>
	<node lat="58.57400277482202" lon="8.341663882171137" id="-32445">
		<tag k="name" v="Gruvekjerringa" />
		<tag k="place" v="islet" />
		<tag k="ssr:stedsnr" v="235377" />
	</node>
	<node lat="58.57290000430632" lon="8.223438884140924" id="-32450">
		<tag k="name" v="Plankebukta" />
		<tag k="natural" v="bay" />
		<tag k="ssr:stedsnr" v="235301" />
	</node>
	<node lat="58.61044444843218" lon="8.349305547465784" id="-32451">
		<tag k="name" v="Omfløyt" />
		<tag k="place" v="locality" />
		<tag k="ssr:stedsnr" v="235478" />
	</node>
	<node lat="58.59431667079322" lon="8.629877781005977" id="-32452">
		<tag k="name" v="Kjempetjønn" />
		<tag k="natural" v="water" />
		<tag k="ssr:stedsnr" v="235486" />
	</node>
	<node lat="58.59371944886966" lon="8.433158338020915" id="-32461">
		<tag k="name" v="Bronstjønn" />
		<tag k="natural" v="water" />
		<tag k="ssr:stedsnr" v="235759" />
	</node>
	<node lat="58.67648055533015" lon="8.041472216896064" id="-32467">
		<tag k="alt_name" v="Eptevatnet" />
		<tag k="name" v="Eptevatn" />
		<tag k="natural" v="water" />
		<tag k="ssr:stedsnr" v="243602" />
		<tag k="water" v="lake" />
	</node>
	<node lat="58.67970555868582" lon="7.964036111206989" id="-32468">
		<tag k="alt_name" v="Brahjelmtjørna" />
		<tag k="name" v="Brahjelmstjønna" />
		<tag k="natural" v="water" />
		<tag k="ssr:stedsnr" v="243615" />
	</node>
	<node lat="58.50164999970152" lon="8.485386110500034" id="-32470">
		<tag k="alt_name" v="Kloppetjernet" />
		<tag k="name" v="Klappetjenn" />
		<tag k="natural" v="water" />
		<tag k="ssr:stedsnr" v="243539" />
	</node>
	<node lat="58.698136107972104" lon="8.126791674327587" id="-32475">
		<tag k="alt_name" v="Veredalsbekken" />
		<tag k="name" v="Verdalsbekken" />
		<tag k="ssr:stedsnr" v="244480" />
		<tag k="waterway" v="stream" />
	</node>
	<node lat="58.611980558925524" lon="8.572402771709157" id="-32476">
		<tag k="name" v="Ramsvatnet" />
		<tag k="natural" v="water" />
		<tag k="ssr:stedsnr" v="244811" />
	</node>
	<node lat="58.63379167012228" lon="8.56176389114369" id="-32478">
		<tag k="alt_name" v="Nelaugtjørn" />
		<tag k="name" v="Nelaugtjønn" />
		<tag k="natural" v="water" />
		<tag k="ssr:stedsnr" v="244795" />
	</node>
	<node lat="58.53884538672494" lon="8.556530041457558" id="-32481">
		<tag k="name" v="Helgestjenn" />
		<tag k="natural" v="water" />
		<tag k="ssr:stedsnr" v="459015" />
	</node>
	<node lat="58.50201389100429" lon="8.674833330867184" id="-32482">
		<tag k="name" v="Blautebekk" />
		<tag k="ssr:stedsnr" v="459019" />
		<tag k="waterway" v="stream" />
	</node>
	<node lat="58.51144444077324" lon="8.603519453012344" id="-32488">
		<tag k="name" v="Ormetjenn" />
		<tag k="natural" v="water" />
		<tag k="ssr:stedsnr" v="459093" />
	</node>
	<node lat="58.630669447550545" lon="8.672405563677657" id="-32489">
		<tag k="name" v="Nestjenn" />
		<tag k="natural" v="water" />
		<tag k="ssr:stedsnr" v="459135" />
	</node>
	<node lat="58.56412222312468" lon="8.694263889476627" id="-32492">
		<tag k="name" v="Langeidstryket" />
		<tag k="ssr:stedsnr" v="459145" />
		<tag k="waterway" v="rapids" />
	</node>
	<node lat="58.5380472243037" lon="8.623061115418992" id="-32494">
		<tag k="name" v="Trolldalstjenn" />
		<tag k="natural" v="water" />
		<tag k="ssr:stedsnr" v="459194" />
	</node>
	<node lat="58.624319442024756" lon="8.738216669964208" id="-32496">
		<tag k="name" v="Blåtjenn" />
		<tag k="natural" v="water" />
		<tag k="ssr:stedsnr" v="459281" />
	</node>
	<node lat="58.469725000374396" lon="8.560372229444981" id="-32522">
		<tag k="name" v="Kalveodden" />
		<tag k="natural" v="cape" />
		<tag k="ssr:stedsnr" v="292908" />
	</node>
	<node lat="58.48796389053266" lon="8.527783328226151" id="-32523">
		<tag k="name" v="Raundalskilen" />
		<tag k="natural" v="bay" />
		<tag k="ssr:stedsnr" v="292920" />
	</node>
	<node lat="58.48104722025082" lon="8.547141658912329" id="-32524">
		<tag k="name" v="Bjønnetjenn" />
		<tag k="natural" v="water" />
		<tag k="ssr:stedsnr" v="292921" />
	</node>
	<node lat="58.495936114168046" lon="8.510955550014158" id="-32526">
		<tag k="name" v="Hellarstjenn" />
		<tag k="natural" v="water" />
		<tag k="ssr:stedsnr" v="292928" />
	</node>
	<node lat="58.62768332904514" lon="8.130966658693662" id="-32528">
		<tag k="name" v="Skjebbetjønn" />
		<tag k="natural" v="water" />
		<tag k="ssr:stedsnr" v="294025" />
	</node>
	<node lat="58.63018889093896" lon="8.198930550730408" id="-32531">
		<tag k="name" v="Djupetjønn" />
		<tag k="natural" v="water" />
		<tag k="ssr:stedsnr" v="294208" />
	</node>
	<node lat="58.696030555305114" lon="8.082638890112083" id="-32536">
		<tag k="name" v="Lille Brokkelinetjønn" />
		<tag k="natural" v="water" />
		<tag k="ssr:stedsnr" v="294908" />
	</node>
	<node lat="58.54899444794973" lon="8.285602774528305" id="-32545">
		<tag k="name" v="Ålekjerrvika" />
		<tag k="natural" v="bay" />
		<tag k="ssr:stedsnr" v="295199" />
	</node>
	<node lat="58.54599444089121" lon="8.28612778338565" id="-32546">
		<tag k="name" v="Uldalsåna" />
		<tag k="ssr:stedsnr" v="295201" />
		<tag k="waterway" v="river" />
	</node>
	<node lat="58.640277781124055" lon="8.512755560368294" id="-32551">
		<tag k="name" v="Byttingstjønn" />
		<tag k="natural" v="water" />
		<tag k="ssr:stedsnr" v="295475" />
	</node>
	<node lat="58.61057777880713" lon="8.230419451732413" id="-32569">
		<tag k="name" v="Straumen" />
		<tag k="ssr:stedsnr" v="295673" />
		<tag k="waterway" v="rapids" />
	</node>
	<node lat="58.55596111381431" lon="8.511544442015756" id="-32570">
		<tag k="name" v="Storøy" />
		<tag k="place" v="islet" />
		<tag k="ssr:stedsnr" v="295687" />
	</node>
	<node lat="58.65721111237858" lon="8.489730549792506" id="-32571">
		<tag k="name" v="Svarttjønn" />
		<tag k="natural" v="water" />
		<tag k="ssr:stedsnr" v="295691" />
	</node>
	<node lat="58.50370555992505" lon="8.397022229676661" id="-32581">
		<tag k="alt_name" v="Espestølsvatnet" />
		<tag k="name" v="Espestølsvatn" />
		<tag k="natural" v="water" />
		<tag k="ssr:stedsnr" v="304001" />
		<tag k="water" v="lake" />
	</node>
	<node lat="58.60354999778609" lon="8.346561113025222" id="-32584">
		<tag k="alt_name" v="Ålekjerrtjørna" />
		<tag k="name" v="Ålekjerrtjønn" />
		<tag k="natural" v="water" />
		<tag k="ssr:stedsnr" v="304316" />
	</node>
	<node lat="58.596936107783044" lon="8.298550004704314" id="-32585">
		<tag k="alt_name" v="Saurdalsvatnet" />
		<tag k="name" v="Saurdalsvatn" />
		<tag k="natural" v="water" />
		<tag k="ssr:stedsnr" v="304322" />
		<tag k="water" v="lake" />
	</node>
	<node lat="58.63515833352831" lon="8.191052769850035" id="-32586">
		<tag k="alt_name" v="Svanetjørn" />
		<tag k="name" v="Svanetjønn" />
		<tag k="natural" v="water" />
		<tag k="ssr:stedsnr" v="304375" />
	</node>
	<node lat="58.61117777436885" lon="8.5329194411048" id="-32593">
		<tag k="name" v="Grisantjenna" />
		<tag k="natural" v="water" />
		<tag k="ssr:stedsnr" v="304811" />
	</node>
	<node lat="58.48453888804429" lon="8.595688894170566" id="-32607">
		<tag k="name" v="Grunntjenn" />
		<tag k="natural" v="water" />
		<tag k="ssr:stedsnr" v="337252" />
	</node>
	<node lat="58.489466668374305" lon="8.405933332263734" id="-32619">
		<tag k="name" v="Storøy" />
		<tag k="place" v="islet" />
		<tag k="ssr:stedsnr" v="474736" />
	</node>
	<node lat="58.535325000981466" lon="8.438680548684" id="-32624">
		<tag k="name" v="Viemyrtjenna" />
		<tag k="natural" v="water" />
		<tag k="ssr:stedsnr" v="352158" />
	</node>
	<node lat="58.49474722095819" lon="8.384158341383923" id="-32626">
		<tag k="name" v="Djupetjenn" />
		<tag k="natural" v="water" />
		<tag k="ssr:stedsnr" v="352712" />
	</node>
	<node lat="58.48758055670849" lon="8.40154166475936" id="-32627">
		<tag k="name" v="Snaretangen" />
		<tag k="natural" v="cape" />
		<tag k="ssr:stedsnr" v="352720" />
	</node>
	<node lat="58.522755551909746" lon="8.540947220669654" id="-32629">
		<tag k="name" v="Størrtjenn" />
		<tag k="natural" v="water" />
		<tag k="ssr:stedsnr" v="353054" />
	</node>
	<node lat="58.50883333053588" lon="8.387741666417215" id="-32632">
		<tag k="name" v="Kjerketjenn" />
		<tag k="natural" v="water" />
		<tag k="ssr:stedsnr" v="353109" />
	</node>
	<node lat="58.509008330629776" lon="8.49041666301467" id="-32634">
		<tag k="name" v="Steintjenn" />
		<tag k="natural" v="water" />
		<tag k="ssr:stedsnr" v="353125" />
	</node>
	<node lat="58.486247225243226" lon="8.543752785045102" id="-32636">
		<tag k="name" v="Kjemperøistjenn" />
		<tag k="natural" v="water" />
		<tag k="ssr:stedsnr" v="353922" />
	</node>
	<node lat="58.49455555681472" lon="8.472350004097773" id="-32641">
		<tag k="name" v="Mosetjenn" />
		<tag k="natural" v="water" />
		<tag k="ssr:stedsnr" v="474698" />
	</node>
	<node lat="58.656722225519715" lon="8.10332778595931" id="-32660">
		<tag k="name" v="Ormetjønn" />
		<tag k="natural" v="water" />
		<tag k="ssr:stedsnr" v="355971" />
	</node>
	<node lat="58.60919093706083" lon="8.462120494540288" id="-32662">
		<tag k="name" v="Landbrukkilen" />
		<tag k="natural" v="bay" />
		<tag k="ssr:stedsnr" v="356119" />
	</node>
	<node lat="58.59538055868997" lon="8.572341666190905" id="-32669">
		<tag k="name" v="Småmyrtjønn" />
		<tag k="natural" v="water" />
		<tag k="ssr:stedsnr" v="356445" />
	</node>
	<node lat="58.58679444511026" lon="8.28989445034088" id="-32671">
		<tag k="name" v="Flekevasskilen" />
		<tag k="natural" v="bay" />
		<tag k="ssr:stedsnr" v="356502" />
	</node>
	<node lat="58.671672221533406" lon="8.209166661809599" id="-32677">
		<tag k="name" v="Store Fisketjønn" />
		<tag k="natural" v="water" />
		<tag k="ssr:stedsnr" v="356520" />
	</node>
	<node lat="58.660083333309736" lon="8.284294451755246" id="-32681">
		<tag k="name" v="Bakketjønn" />
		<tag k="natural" v="water" />
		<tag k="ssr:stedsnr" v="356652" />
	</node>
	<node lat="58.67473055794465" lon="8.221699992795019" id="-32689">
		<tag k="name" v="Brennevinsbekken" />
		<tag k="ssr:stedsnr" v="356819" />
		<tag k="waterway" v="stream" />
	</node>
	<node lat="58.660033337722915" lon="8.525972221591433" id="-32693">
		<tag k="name" v="Refstjønn" />
		<tag k="natural" v="water" />
		<tag k="ssr:stedsnr" v="356832" />
	</node>
	<node lat="58.598888073801525" lon="8.485405772082093" id="-32695">
		<tag k="name" v="Våtåstjønnene" />
		<tag k="natural" v="water" />
		<tag k="ssr:stedsnr" v="356948" />
		<tag k="water" v="lake" />
	</node>
	<node lat="58.62845555957943" lon="8.126486114477721" id="-32701">
		<tag k="name" v="Risdals teinelag" />
		<tag k="natural" v="strait" />
		<tag k="ssr:stedsnr" v="476024" />
	</node>
	<node lat="58.64382500313342" lon="8.186286118436715" id="-32704">
		<tag k="name" v="Gåsetjønnbekken" />
		<tag k="ssr:stedsnr" v="476032" />
		<tag k="waterway" v="stream" />
	</node>
	<node lat="58.632113887987686" lon="8.152627772707259" id="-32705">
		<tag k="name" v="Stemtjønn" />
		<tag k="natural" v="water" />
		<tag k="ssr:stedsnr" v="476053" />
	</node>
	<node lat="58.59428889056703" lon="8.57606666844664" id="-32710">
		<tag k="name" v="Bukketjønn" />
		<tag k="natural" v="water" />
		<tag k="ssr:stedsnr" v="477434" />
	</node>
	<node lat="58.659041668152206" lon="8.039319442138087" id="-32715">
		<tag k="name" v="Brennesbekken" />
		<tag k="ssr:stedsnr" v="476838" />
		<tag k="waterway" v="stream" />
	</node>
	<node lat="58.60798610827232" lon="8.273816667841515" id="-32718">
		<tag k="name" v="Holsvasskilen" />
		<tag k="natural" v="bay" />
		<tag k="ssr:stedsnr" v="476738" />
	</node>
	<node lat="58.68211110842459" lon="8.095363896769435" id="-32722">
		<tag k="name" v="Kjulpetjønn" />
		<tag k="natural" v="water" />
		<tag k="ssr:stedsnr" v="476885" />
	</node>
	<node lat="58.68771666955936" lon="8.04920833596319" id="-32723">
		<tag k="name" v="Ånnebekken" />
		<tag k="ssr:stedsnr" v="476901" />
		<tag k="waterway" v="stream" />
	</node>
	<node lat="58.56653055539725" lon="8.533577778192" id="-32726">
		<tag k="name" v="Bakkehølen" />
		<tag k="place" v="locality" />
		<tag k="ssr:stedsnr" v="477036" />
	</node>
	<node lat="58.639602777181366" lon="8.554252773768756" id="-32727">
		<tag k="name" v="Lefsetjønn" />
		<tag k="natural" v="water" />
		<tag k="ssr:stedsnr" v="477038" />
	</node>
	<node lat="58.665041663159926" lon="8.124180549061393" id="-32744">
		<tag k="name" v="Bjornes" />
		<tag k="natural" v="cape" />
		<tag k="ssr:stedsnr" v="477476" />
	</node>
	<node lat="58.62275555380584" lon="8.226197230592977" id="-32752">
		<tag k="name" v="Den heimre øya" />
		<tag k="place" v="islet" />
		<tag k="ssr:stedsnr" v="477592" />
	</node>
	<node lat="58.67426388671933" lon="8.156997213697457" id="-32754">
		<tag k="name" v="Einstaptjønn" />
		<tag k="natural" v="water" />
		<tag k="ssr:stedsnr" v="477598" />
	</node>
	<node lat="58.67956666355345" lon="8.114552775856128" id="-32756">
		<tag k="name" v="Stemtjønn" />
		<tag k="natural" v="water" />
		<tag k="ssr:stedsnr" v="477640" />
	</node>
	<node lat="58.671917012715205" lon="8.510687924422042" id="-32757">
		<tag k="name" v="Hammeheitjønnene" />
		<tag k="natural" v="water" />
		<tag k="ssr:stedsnr" v="477697" />
		<tag k="water" v="lake" />
	</node>
	<node lat="58.599127775546876" lon="8.200816667930942" id="-32761">
		<tag k="name" v="Vågsdalsfjorden" />
		<tag k="ssr:stedsnr" v="477555" />
		<tag k="waterway" v="river" />
	</node>
	<node lat="58.65388888513899" lon="8.239955551109178" id="-32764">
		<tag k="name" v="Teinelaget" />
		<tag k="natural" v="bay" />
		<tag k="ssr:stedsnr" v="477762" />
	</node>
	<node lat="58.65541111049204" lon="8.52336944706202" id="-32767">
		<tag k="name" v="Ormstjønn" />
		<tag k="natural" v="water" />
		<tag k="ssr:stedsnr" v="477878" />
	</node>
	<node lat="58.54986666588699" lon="8.58080277644651" id="-32772">
		<tag k="name" v="Orrebekken" />
		<tag k="ssr:stedsnr" v="364656" />
		<tag k="waterway" v="stream" />
	</node>
	<node lat="58.4913638888977" lon="8.513341662780341" id="-32774">
		<tag k="alt_name" v="Grunnetjern" />
		<tag k="name" v="Grunnetjenn" />
		<tag k="natural" v="water" />
		<tag k="ssr:stedsnr" v="364705" />
	</node>
	<node lat="58.59695555582908" lon="8.543763882883615" id="-32776">
		<tag k="loc_name" v="Hundevannet" />
		<tag k="name" v="Hundevatnet" />
		<tag k="natural" v="water" />
		<tag k="ssr:stedsnr" v="364797" />
	</node>
	<node lat="58.55642777839429" lon="8.239902775477042" id="-32779">
		<tag k="alt_name" v="Ormtjørn" />
		<tag k="name" v="Ormetjønn" />
		<tag k="natural" v="water" />
		<tag k="ssr:stedsnr" v="365155" />
	</node>
	<node lat="58.56510000317167" lon="8.439555547728624" id="-32781">
		<tag k="alt_name" v="Holebekken" />
		<tag k="name" v="Holbekken" />
		<tag k="ssr:stedsnr" v="365157" />
		<tag k="waterway" v="stream" />
	</node>
	<node lat="58.58177222353673" lon="8.446636104444949" id="-32782">
		<tag k="alt_name" v="Langtjørn" />
		<tag k="name" v="Langetjønn" />
		<tag k="natural" v="water" />
		<tag k="ssr:stedsnr" v="365189" />
	</node>
	<node lat="58.62728690254352" lon="8.099722674067195" id="-32785">
		<tag k="alt_name" v="Førevatnet" />
		<tag k="name" v="Førevatn" />
		<tag k="natural" v="water" />
		<tag k="ssr:stedsnr" v="365554" />
		<tag k="water" v="lake" />
	</node>
	<node lat="58.60098889308376" lon="8.40707500273319" id="-32793">
		<tag k="name" v="Sagehølen" />
		<tag k="place" v="locality" />
		<tag k="ssr:stedsnr" v="478533" />
	</node>
	<node lat="58.51527222108451" lon="8.542788894756715" id="-32794">
		<tag k="name" v="Uvatn" />
		<tag k="natural" v="water" />
		<tag k="ssr:stedsnr" v="365736" />
		<tag k="water" v="lake" />
	</node>
	<node lat="58.51644722622154" lon="8.504594448289822" id="-32795">
		<tag k="name" v="Bovann" />
		<tag k="natural" v="water" />
		<tag k="ssr:stedsnr" v="365737" />
	</node>
	<node lat="58.56860833157448" lon="8.502652782054806" id="-32798">
		<tag k="alt_name" v="Geiteråstjerna" />
		<tag k="name" v="Geiteråstjønna" />
		<tag k="natural" v="water" />
		<tag k="ssr:stedsnr" v="365892" />
	</node>
	<node lat="58.580499996606804" lon="8.214427786255714" id="-32799">
		<tag k="name" v="Kolstraumfjorden" />
		<tag k="natural" v="water" />
		<tag k="ssr:stedsnr" v="478619" />
		<tag k="water" v="lake" />
	</node>
	<node lat="58.52961388949042" lon="8.586436110417445" id="-32806">
		<tag k="name" v="Ormetjenn" />
		<tag k="natural" v="water" />
		<tag k="ssr:stedsnr" v="398026" />
	</node>
	<node lat="58.62997499786316" lon="8.677638882355426" id="-32809">
		<tag k="name" v="Steivasstemmen" />
		<tag k="ssr:stedsnr" v="398128" />
		<tag k="waterway" v="dam" />
	</node>
	<node lat="58.531686110935624" lon="8.707172224339969" id="-32811">
		<tag k="name" v="Nøkkstjenn" />
		<tag k="natural" v="water" />
		<tag k="ssr:stedsnr" v="398186" />
	</node>
	<node lat="58.617727781940516" lon="8.699491673728984" id="-32815">
		<tag k="name" v="Ospetangen" />
		<tag k="natural" v="cape" />
		<tag k="ssr:stedsnr" v="398308" />
	</node>
	<node lat="58.570772220167136" lon="8.724933326712529" id="-32822">
		<tag k="name" v="Herselneset" />
		<tag k="natural" v="cape" />
		<tag k="ssr:stedsnr" v="398282" />
	</node>
	<node lat="58.477291664900655" lon="8.592916670631368" id="-32824">
		<tag k="alt_name" v="Grandalstjenn" />
		<tag k="name" v="Grandalstjern" />
		<tag k="natural" v="water" />
		<tag k="ssr:stedsnr" v="485630" />
	</node>
	<node lat="58.51656666291886" lon="8.446836109228428" id="-32827">
		<tag k="alt_name" v="Bjorvatnet" />
		<tag k="name" v="Bjorvatn" />
		<tag k="natural" v="water" />
		<tag k="ssr:stedsnr" v="486043" />
		<tag k="water" v="lake" />
	</node>
	<node lat="58.64146667087642" lon="8.09874999791791" id="-32828">
		<tag k="alt_name" v="Frobekken" />
		<tag k="name" v="Frobekk" />
		<tag k="ssr:stedsnr" v="486096" />
		<tag k="waterway" v="stream" />
	</node>
	<node lat="58.57650832967264" lon="8.308125006439639" id="-32829">
		<tag k="alt_name" v="Uldalstjørna" />
		<tag k="name" v="Uldalstjønn" />
		<tag k="natural" v="water" />
		<tag k="ssr:stedsnr" v="486098" />
	</node>
	<node lat="58.58504999596118" lon="8.268150001077862" id="-32831">
		<tag k="alt_name" v="Bjortjørn" />
		<tag k="name" v="Bjortjønn" />
		<tag k="natural" v="water" />
		<tag k="ssr:stedsnr" v="486162" />
	</node>
	<node lat="58.599630557819886" lon="8.317513884751147" id="-32832">
		<tag k="alt_name" v="Solåstjørna" />
		<tag k="name" v="Solåstjønn" />
		<tag k="natural" v="water" />
		<tag k="ssr:stedsnr" v="486139" />
	</node>
	<node lat="58.66911666782326" lon="8.329438896505325" id="-32840">
		<tag k="name" v="Dalebekken" />
		<tag k="ssr:stedsnr" v="486314" />
		<tag k="waterway" v="stream" />
	</node>
	<node lat="58.67646944721751" lon="8.182150005097501" id="-32842">
		<tag k="alt_name" v="Bjortjørn" />
		<tag k="name" v="Bjortjønn" />
		<tag k="natural" v="water" />
		<tag k="ssr:stedsnr" v="486340" />
	</node>
	<node lat="58.65896111234223" lon="8.122536106606162" id="-32844">
		<tag k="alt_name" v="Frobekken" />
		<tag k="name" v="Frobekk" />
		<tag k="ssr:stedsnr" v="486301" />
		<tag k="waterway" v="stream" />
	</node>
	<node lat="58.681133334473365" lon="8.20818888976676" id="-32845">
		<tag k="alt_name" v="Hushovdvatnet" />
		<tag k="name" v="Hushovdtjønn" />
		<tag k="natural" v="water" />
		<tag k="ssr:stedsnr" v="486465" />
	</node>
	<node lat="58.696316669377296" lon="8.15750832932925" id="-32847">
		<tag k="alt_name" v="Verevatnet" />
		<tag k="name" v="Vervatn" />
		<tag k="natural" v="water" />
		<tag k="ssr:stedsnr" v="486478" />
		<tag k="water" v="lake" />
	</node>
	<node lat="58.68998389749226" lon="8.108896984146735" id="-32848">
		<tag k="name" v="Øygardstjørnane" />
		<tag k="natural" v="water" />
		<tag k="ssr:stedsnr" v="486479" />
		<tag k="water" v="lake" />
	</node>
	<node lat="58.69627500202657" lon="8.009230558870838" id="-32849">
		<tag k="alt_name" v="Homstølvatnet" />
		<tag k="name" v="Homstølvatn" />
		<tag k="natural" v="water" />
		<tag k="ssr:stedsnr" v="486572" />
		<tag k="water" v="lake" />
	</node>
	<node lat="58.60640555785296" lon="8.22486388822788" id="-32850">
		<tag k="alt_name" v="Bjelkebørlona" />
		<tag k="name" v="Bjelkeberglona" />
		<tag k="natural" v="bay" />
		<tag k="ssr:stedsnr" v="486353" />
	</node>
	<node lat="58.564352780127756" lon="8.741391660005045" id="-32851">
		<tag k="alt_name" v="Løtjenn" />
		<tag k="name" v="Løtjern" />
		<tag k="natural" v="water" />
		<tag k="ssr:stedsnr" v="486660" />
	</node>
	<node lat="58.63711898378964" lon="8.613923115889172" id="-32855">
		<tag k="fixme" v="multiple name tags, choose one and add the other to alt_name" />
		<tag k="name" v="Havet;Tjernåstjønn" />
		<tag k="natural" v="water" />
		<tag k="ssr:stedsnr" v="486786" />
	</node>
	<node lat="58.568236111241546" lon="8.679627775919203" id="-32862">
		<tag k="name" v="Borvannet" />
		<tag k="natural" v="water" />
		<tag k="ssr:stedsnr" v="486851" />
	</node>
	<node lat="58.65190909159545" lon="8.54305018215808" id="-32864">
		<tag k="alt_name" v="Jerpedalstjørnane" />
		<tag k="name" v="Jerpedalstjønn" />
		<tag k="natural" v="water" />
		<tag k="ssr:stedsnr" v="486991" />
	</node>
	<node lat="58.65288614087144" lon="8.528777204412366" id="-32865">
		<tag k="alt_name" v="Olandstjønn" />
		<tag k="name" v="Olandstjern" />
		<tag k="natural" v="water" />
		<tag k="ssr:stedsnr" v="486992" />
	</node>
	<node lat="58.503086110362325" lon="8.507122219402698" id="-32866">
		<tag k="name" v="Den utgravde tjerna" />
		<tag k="natural" v="water" />
		<tag k="ssr:stedsnr" v="413439" />
	</node>
	<node lat="58.46644167100797" lon="8.5586083283652" id="-32869">
		<tag k="name" v="Lislevann" />
		<tag k="natural" v="water" />
		<tag k="ssr:stedsnr" v="413885" />
	</node>
	<node lat="58.636583492996174" lon="8.127212771053967" id="-32874">
		<tag k="name" v="Kroktjønnane" />
		<tag k="natural" v="water" />
		<tag k="ssr:stedsnr" v="415043" />
		<tag k="water" v="lake" />
	</node>
	<node lat="58.64322777366352" lon="8.189611119482908" id="-32875">
		<tag k="name" v="Lille Gåsetjønn" />
		<tag k="natural" v="water" />
		<tag k="ssr:stedsnr" v="415001" />
	</node>
	<node lat="58.667697225482605" lon="8.155005548521446" id="-32888">
		<tag k="name" v="Kvennebekken" />
		<tag k="ssr:stedsnr" v="416538" />
		<tag k="waterway" v="stream" />
	</node>
	<node lat="58.64900278071058" lon="8.305411111214104" id="-32891">
		<tag k="name" v="Vesterbekk" />
		<tag k="ssr:stedsnr" v="416589" />
		<tag k="waterway" v="stream" />
	</node>
	<node lat="58.640066669934605" lon="8.079149993124076" id="-32894">
		<tag k="name" v="Bjønnestokktjønn" />
		<tag k="natural" v="water" />
		<tag k="ssr:stedsnr" v="416736" />
	</node>
	<node lat="58.665916662722594" lon="8.512466674130161" id="-32897">
		<tag k="name" v="Kjempetjønn" />
		<tag k="natural" v="water" />
		<tag k="ssr:stedsnr" v="416804" />
	</node>
	<node lat="58.61625000115463" lon="8.388705562447191" id="-32900">
		<tag k="name" v="Evja" />
		<tag k="natural" v="water" />
		<tag k="ssr:stedsnr" v="417015" />
		<tag k="water" v="lake" />
	</node>
	<node lat="58.64893055762531" lon="8.10079166137645" id="-32903">
		<tag k="name" v="Frobekk" />
		<tag k="ssr:stedsnr" v="416987" />
		<tag k="waterway" v="stream" />
	</node>
	<node lat="58.61436944558818" lon="8.463950002078818" id="-32904">
		<tag k="name" v="Vassenden" />
		<tag k="natural" v="bay" />
		<tag k="ssr:stedsnr" v="417113" />
	</node>
	<node lat="58.60805000193166" lon="8.300413891827294" id="-32919">
		<tag k="name" v="Espelandsbekk" />
		<tag k="ssr:stedsnr" v="417486" />
		<tag k="waterway" v="stream" />
	</node>
	<node lat="58.546880555847935" lon="8.482402780927899" id="-32924">
		<tag k="name" v="Rossebekken" />
		<tag k="ssr:stedsnr" v="417607" />
		<tag k="waterway" v="stream" />
	</node>
	<node lat="58.66780833542105" lon="8.278205549793956" id="-32928">
		<tag k="name" v="Kroktjønn" />
		<tag k="natural" v="water" />
		<tag k="ssr:stedsnr" v="417697" />
	</node>
	<node lat="58.56321666774994" lon="8.266902773384631" id="-32936">
		<tag k="alt_name" v="Småtjørnane" />
		<tag k="name" v="Småtjønnane" />
		<tag k="natural" v="water" />
		<tag k="ssr:stedsnr" v="425154" />
		<tag k="water" v="lake" />
	</node>
	<node lat="58.66902777479682" lon="8.189086115449971" id="-32937">
		<tag k="alt_name" v="Fårlitjørn" />
		<tag k="name" v="Forlitjønn" />
		<tag k="natural" v="water" />
		<tag k="ssr:stedsnr" v="425294" />
	</node>
	<node lat="58.545527773376406" lon="8.502716671727" id="-32938">
		<tag k="alt_name" v="Hespentjørn" />
		<tag k="name" v="Hespetjønn" />
		<tag k="natural" v="water" />
		<tag k="ssr:stedsnr" v="425655" />
	</node>
	<node lat="58.54061111067283" lon="8.726088891607976" id="-32940">
		<tag k="alt_name" v="Seljestølvannet" />
		<tag k="name" v="Seljestølvatnet" />
		<tag k="natural" v="water" />
		<tag k="ssr:stedsnr" v="425660" />
	</node>
	<node lat="58.51765277608243" lon="8.459005556622015" id="-32949">
		<tag k="fixme" v="multiple name tags, choose one and add the other to alt_name" />
		<tag k="name" v="Nervatnet;Bjorvatn;Nedre Bjorvatn" />
		<tag k="natural" v="water" />
		<tag k="ssr:stedsnr" v="426047" />
	</node>
	<node lat="58.559436113636494" lon="8.460791670652583" id="-32950">
		<tag k="alt_name" v="Flottervatnet" />
		<tag k="name" v="Flåttervatnet" />
		<tag k="natural" v="water" />
		<tag k="ssr:stedsnr" v="426240" />
	</node>
	<node lat="58.6379083332077" lon="8.308827773281385" id="-32951">
		<tag k="alt_name" v="Kjellingtjørn" />
		<tag k="name" v="Kjellingtjønn" />
		<tag k="natural" v="water" />
		<tag k="ssr:stedsnr" v="426248" />
	</node>
	<node lat="58.571116670574874" lon="8.233569452584549" id="-32953">
		<tag k="alt_name" v="Tritjørnane" />
		<tag k="name" v="Tretjønnane" />
		<tag k="natural" v="water" />
		<tag k="ssr:stedsnr" v="426145" />
		<tag k="water" v="lake" />
	</node>
	<node lat="58.627458329848864" lon="8.29850832989058" id="-32955">
		<tag k="alt_name" v="Myklandsvatnet" />
		<tag k="name" v="Myklandsvatna" />
		<tag k="natural" v="water" />
		<tag k="ssr:stedsnr" v="426336" />
		<tag k="water" v="lake" />
	</node>
	<node lat="58.68906389240476" lon="8.28560555874331" id="-32957">
		<tag k="alt_name" v="Kvenntjørn" />
		<tag k="name" v="Kverntjønn" />
		<tag k="natural" v="water" />
		<tag k="ssr:stedsnr" v="426428" />
	</node>
	<node lat="58.5308000004045" lon="8.486324992680585" id="-32965">
		<tag k="alt_name" v="Fugltjerna" />
		<tag k="name" v="Faultjern" />
		<tag k="natural" v="water" />
		<tag k="ssr:stedsnr" v="426688" />
	</node>
	<node lat="58.5378027818913" lon="8.677052769956758" id="-32967">
		<tag k="name" v="Solheimstjenna" />
		<tag k="natural" v="water" />
		<tag k="ssr:stedsnr" v="426692" />
	</node>
	<node lat="58.618836107591875" lon="8.693611119304743" id="-32969">
		<tag k="alt_name" v="Kilandsfjorden" />
		<tag k="name" v="Kilandsfjord" />
		<tag k="place" v="locality" />
		<tag k="ssr:stedsnr" v="426811" />
	</node>
	<node lat="58.58800592192362" lon="8.690727089162364" id="-32970">
		<tag k="alt_name" v="Tvitjennene" />
		<tag k="name" v="Tvitjørnane" />
		<tag k="natural" v="water" />
		<tag k="ssr:stedsnr" v="426833" />
		<tag k="water" v="lake" />
	</node>
	<node lat="58.636894444320625" lon="8.507402770916944" id="-32971">
		<tag k="alt_name" v="Asjebuvatna, nedre" />
		<tag k="name" v="Nedre Asjebuvatn" />
		<tag k="natural" v="water" />
		<tag k="ssr:stedsnr" v="426976" />
	</node>
	<node lat="58.587252776685965" lon="8.737627783848584" id="-32980">
		<tag k="name" v="Stavetjenn" />
		<tag k="natural" v="water" />
		<tag k="ssr:stedsnr" v="459261" />
	</node>
	<node lat="58.53085555621886" lon="8.472299999394062" id="-32996">
		<tag k="name" v="Lomåstjenn" />
		<tag k="natural" v="water" />
		<tag k="ssr:stedsnr" v="474009" />
	</node>
	<node lat="58.51668889120813" lon="8.5473388867227" id="-32998">
		<tag k="name" v="Brennevinsbekken" />
		<tag k="ssr:stedsnr" v="474414" />
		<tag k="waterway" v="stream" />
	</node>
	<node lat="58.50434722598241" lon="8.54441666585086" id="-32999">
		<tag k="name" v="Haugaas-bekken" />
		<tag k="ssr:stedsnr" v="474417" />
		<tag k="waterway" v="stream" />
	</node>
	<node lat="58.50719444470803" lon="8.442824999956551" id="-33000">
		<tag k="name" v="Kulpetjenn" />
		<tag k="natural" v="water" />
		<tag k="ssr:stedsnr" v="474389" />
	</node>
	<node lat="58.68971110699269" lon="8.017941669508103" id="-33001">
		<tag k="name" v="Steinsund" />
		<tag k="natural" v="strait" />
		<tag k="ssr:stedsnr" v="476164" />
	</node>
	<node lat="58.683847223154" lon="8.020641668786828" id="-33002">
		<tag k="name" v="Tornebuskodden" />
		<tag k="natural" v="shoal" />
		<tag k="place" v="locality" />
		<tag k="ssr:stedsnr" v="476167" />
	</node>
	<node lat="58.68911944245324" lon="8.015155555270736" id="-33005">
		<tag k="name" v="Storøy" />
		<tag k="place" v="islet" />
		<tag k="ssr:stedsnr" v="476180" />
	</node>
	<node lat="58.56820555514312" lon="8.447266670880857" id="-33008">
		<tag k="name" v="Kobbubekken" />
		<tag k="ssr:stedsnr" v="476233" />
		<tag k="waterway" v="stream" />
	</node>
	<node lat="58.643838890009405" lon="8.215577769452663" id="-33009">
		<tag k="name" v="Formobekken" />
		<tag k="ssr:stedsnr" v="476241" />
		<tag k="waterway" v="stream" />
	</node>
	<node lat="58.68540833722104" lon="8.351102777097188" id="-33012">
		<tag k="name" v="Fåretjønn" />
		<tag k="natural" v="water" />
		<tag k="ssr:stedsnr" v="476636" />
	</node>
	<node lat="58.62697778167427" lon="8.36732500592948" id="-33014">
		<tag k="name" v="Melestjønn" />
		<tag k="natural" v="water" />
		<tag k="ssr:stedsnr" v="476372" />
	</node>
	<node lat="58.589980559790874" lon="8.541944436135447" id="-33030">
		<tag k="name" v="Stemtjønn" />
		<tag k="natural" v="water" />
		<tag k="ssr:stedsnr" v="477416" />
	</node>
	<node lat="58.61006388914448" lon="8.189300003722193" id="-33032">
		<tag k="name" v="Telleikleivtangen" />
		<tag k="natural" v="cape" />
		<tag k="ssr:stedsnr" v="477556" />
	</node>
	<node lat="58.54068889151527" lon="8.467947226226544" id="-33038">
		<tag k="name" v="Moltetjønn" />
		<tag k="natural" v="water" />
		<tag k="ssr:stedsnr" v="477461" />
	</node>
	<node lat="58.68910556000978" lon="8.221838889405197" id="-33042">
		<tag k="name" v="Tverrbekk" />
		<tag k="ssr:stedsnr" v="477624" />
		<tag k="waterway" v="stream" />
	</node>
	<node lat="58.57029722442088" lon="8.300927769465034" id="-33058">
		<tag k="name" v="Sandtjørn" />
		<tag k="natural" v="water" />
		<tag k="ssr:stedsnr" v="486115" />
	</node>
	<node lat="58.53758889299755" lon="8.430972220783271" id="-33059">
		<tag k="alt_name" v="Jordetjørn" />
		<tag k="name" v="Jorestjenn" />
		<tag k="natural" v="water" />
		<tag k="ssr:stedsnr" v="486196" />
	</node>
	<node lat="58.62724167091137" lon="8.752363883802744" id="-33068">
		<tag k="alt_name" v="Tjenndalstjenn" />
		<tag k="name" v="Tjerndalstjerna" />
		<tag k="natural" v="water" />
		<tag k="ssr:stedsnr" v="486769" />
	</node>
	<node lat="58.66586666565636" lon="8.51887777244909" id="-33070">
		<tag k="alt_name" v="Sangebutjern" />
		<tag k="name" v="Sangebutjønn" />
		<tag k="natural" v="water" />
		<tag k="ssr:stedsnr" v="486914" />
	</node>
	<node lat="58.574061109630144" lon="8.499955550221054" id="-33072">
		<tag k="alt_name" v="Tellaugtjørn" />
		<tag k="name" v="Tellaugtjønn" />
		<tag k="natural" v="water" />
		<tag k="ssr:stedsnr" v="486865" />
	</node>
	<node lat="58.56840830489311" lon="8.542746390154969" id="-33074">
		<tag k="name" v="Sinåtjørnane" />
		<tag k="natural" v="water" />
		<tag k="ssr:stedsnr" v="486869" />
		<tag k="water" v="lake" />
	</node>
	<node lat="58.57859444086422" lon="8.616447219657564" id="-33075">
		<tag k="fixme" v="multiple name tags, choose one and add the other to alt_name" />
		<tag k="name" v="Hellertjern;Nordmyrtjønn" />
		<tag k="natural" v="water" />
		<tag k="ssr:stedsnr" v="486874" />
	</node>
	<node lat="58.653094446700024" lon="8.633591662825799" id="-33076">
		<tag k="name" v="Lillefossøya" />
		<tag k="place" v="island" />
		<tag k="ssr:stedsnr" v="503818" />
	</node>
	<node lat="58.49246388494221" lon="8.582277779702908" id="-33081">
		<tag k="name" v="Kleivekilen" />
		<tag k="natural" v="bay" />
		<tag k="ssr:stedsnr" v="519259" />
	</node>
	<node lat="58.6121277801275" lon="8.686144446839396" id="-33086">
		<tag k="name" v="Maurdalstjenn" />
		<tag k="natural" v="water" />
		<tag k="ssr:stedsnr" v="519361" />
	</node>
	<node lat="58.53218333642372" lon="8.736352772920807" id="-33087">
		<tag k="name" v="Spigrontjenn" />
		<tag k="natural" v="water" />
		<tag k="ssr:stedsnr" v="519373" />
	</node>
	<node lat="58.617738892170195" lon="8.695705561226474" id="-33088">
		<tag k="name" v="Katterompa" />
		<tag k="natural" v="cape" />
		<tag k="ssr:stedsnr" v="519376" />
	</node>
	<node lat="58.46553333234897" lon="8.553136119014157" id="-33091">
		<tag k="name" v="Geitetjennkilen" />
		<tag k="natural" v="bay" />
		<tag k="ssr:stedsnr" v="534880" />
	</node>
	<node lat="58.51976666728048" lon="8.457036112877667" id="-33092">
		<tag k="name" v="Sundet" />
		<tag k="natural" v="strait" />
		<tag k="ssr:stedsnr" v="535014" />
	</node>
	<node lat="58.488050003619875" lon="8.546780561495604" id="-33099">
		<tag k="name" v="Grunnetjenn" />
		<tag k="natural" v="water" />
		<tag k="ssr:stedsnr" v="535925" />
	</node>
	<node lat="58.64116110859149" lon="8.194033337391726" id="-33100">
		<tag k="name" v="Gåsetjønnbekken" />
		<tag k="ssr:stedsnr" v="537002" />
		<tag k="waterway" v="stream" />
	</node>
	<node lat="58.64109999615348" lon="8.178225001663666" id="-33104">
		<tag k="name" v="Mjålandsberga" />
		<tag k="natural" v="cape" />
		<tag k="ssr:stedsnr" v="537014" />
	</node>
	<node lat="58.63217777624712" lon="8.222041674554129" id="-33105">
		<tag k="name" v="Myklandsvika" />
		<tag k="natural" v="bay" />
		<tag k="ssr:stedsnr" v="537171" />
	</node>
	<node lat="58.626163893345115" lon="8.185697221378966" id="-33110">
		<tag k="name" v="Stevnbukta" />
		<tag k="natural" v="bay" />
		<tag k="ssr:stedsnr" v="537211" />
	</node>
	<node lat="58.630941667039565" lon="8.217416674967247" id="-33111">
		<tag k="name" v="Svinevika" />
		<tag k="natural" v="bay" />
		<tag k="ssr:stedsnr" v="537219" />
	</node>
	<node lat="58.655791668354155" lon="8.239602785095359" id="-33116">
		<tag k="name" v="Koltjønn" />
		<tag k="natural" v="water" />
		<tag k="ssr:stedsnr" v="537709" />
	</node>
	<node lat="58.69570555556008" lon="8.255541663393887" id="-33117">
		<tag k="name" v="Djupetjønn" />
		<tag k="natural" v="water" />
		<tag k="ssr:stedsnr" v="537717" />
	</node>
	<node lat="58.61540833219029" lon="8.646799992912015" id="-33127">
		<tag k="name" v="Smaletjønn" />
		<tag k="natural" v="water" />
		<tag k="ssr:stedsnr" v="538221" />
	</node>
	<node lat="58.605627777994414" lon="8.193488884761413" id="-33130">
		<tag k="name" v="Ferjestadfjellet" />
		<tag k="natural" v="cape" />
		<tag k="ssr:stedsnr" v="538277" />
	</node>
	<node lat="58.60916388975338" lon="8.276188895203619" id="-33134">
		<tag k="name" v="Pollane" />
		<tag k="natural" v="water" />
		<tag k="ssr:stedsnr" v="538479" />
		<tag k="water" v="pond" />
	</node>
	<node lat="58.60580833293398" lon="8.525208339945282" id="-33135">
		<tag k="name" v="Øvre Svarttjønn" />
		<tag k="natural" v="water" />
		<tag k="ssr:stedsnr" v="538168" />
	</node>
	<node lat="58.66769999702248" lon="8.47435556143541" id="-33142">
		<tag k="name" v="Eikåstjønn" />
		<tag k="natural" v="water" />
		<tag k="ssr:stedsnr" v="538680" />
	</node>
	<node lat="58.6583777748451" lon="8.478930553213656" id="-33143">
		<tag k="name" v="Maltetjønn" />
		<tag k="natural" v="water" />
		<tag k="ssr:stedsnr" v="538685" />
	</node>
	<node lat="58.57750278021284" lon="8.47301389292666" id="-33154">
		<tag k="name" v="St. Hans-øya" />
		<tag k="place" v="islet" />
		<tag k="ssr:stedsnr" v="539173" />
	</node>
	<node lat="58.55154444652331" lon="8.464416669410854" id="-33155">
		<tag k="name" v="Sauefossen" />
		<tag k="natural" v="waterfall" />
		<tag k="ssr:stedsnr" v="539521" />
	</node>
	<node lat="58.543683329197236" lon="8.460036104806022" id="-33156">
		<tag k="name" v="Sandnes" />
		<tag k="natural" v="cape" />
		<tag k="ssr:stedsnr" v="539533" />
	</node>
	<node lat="58.6130472195347" lon="8.305116670249683" id="-33158">
		<tag k="alt_name" v="Espelandsvatnet" />
		<tag k="name" v="Espelandstjønn" />
		<tag k="natural" v="water" />
		<tag k="ssr:stedsnr" v="546318" />
	</node>
	<node lat="58.585483334753214" lon="8.48594722083395" id="-33164">
		<tag k="alt_name" v="Massævvatnet" />
		<tag k="name" v="Massævatnet" />
		<tag k="natural" v="water" />
		<tag k="ssr:stedsnr" v="546814" />
	</node>
	<node lat="58.614389303207474" lon="8.673242439970572" id="-33168">
		<tag k="alt_name" v="Tjennsnestjennene" />
		<tag k="name" v="Kjensnestjørnane" />
		<tag k="natural" v="water" />
		<tag k="ssr:stedsnr" v="546779" />
		<tag k="water" v="lake" />
	</node>
	<node lat="58.598477955331354" lon="8.435834184261937" id="-33172">
		<tag k="name" v="Hasletjønn" />
		<tag k="natural" v="water" />
		<tag k="ssr:stedsnr" v="547170" />
	</node>
	<node lat="58.594172223220326" lon="8.403494438608215" id="-33173">
		<tag k="name" v="Botnefjorden" />
		<tag k="natural" v="water" />
		<tag k="ssr:stedsnr" v="547175" />
		<tag k="water" v="lake" />
	</node>
	<node lat="58.57721666773774" lon="8.220222226788005" id="-33174">
		<tag k="name" v="Kiløyna" />
		<tag k="natural" v="cape" />
		<tag k="ssr:stedsnr" v="547179" />
	</node>
	<node lat="58.65718333187987" lon="8.24671389235683" id="-33175">
		<tag k="alt_name" v="Libekken" />
		<tag k="name" v="Libekk" />
		<tag k="ssr:stedsnr" v="547309" />
		<tag k="waterway" v="stream" />
	</node>
	<node lat="58.646716662366934" lon="8.599994450092275" id="-33180">
		<tag k="alt_name" v="Styggetjern" />
		<tag k="name" v="Styggetjønn" />
		<tag k="natural" v="water" />
		<tag k="ssr:stedsnr" v="547980" />
	</node>
	<node lat="58.63151667135116" lon="8.488464034027356" id="-33181">
		<tag k="name" v="Fisketjernane" />
		<tag k="natural" v="water" />
		<tag k="ssr:stedsnr" v="547986" />
		<tag k="water" v="lake" />
	</node>
	<node lat="58.522099999387926" lon="8.570183336177013" id="-33186">
		<tag k="name" v="Hulletjenn" />
		<tag k="natural" v="water" />
		<tag k="ssr:stedsnr" v="580022" />
	</node>
	<node lat="58.45831944440483" lon="8.539772220122531" id="-33197">
		<tag k="name" v="Nordvannene" />
		<tag k="natural" v="water" />
		<tag k="ssr:stedsnr" v="697858" />
		<tag k="water" v="lake" />
	</node>
	<node lat="58.46715555513067" lon="8.555561119126274" id="-33201">
		<tag k="name" v="Geitetjenn" />
		<tag k="natural" v="water" />
		<tag k="ssr:stedsnr" v="595868" />
	</node>
	<node lat="58.465102779039555" lon="8.545647220873523" id="-33202">
		<tag k="name" v="Nordvannene" />
		<tag k="natural" v="water" />
		<tag k="ssr:stedsnr" v="595904" />
		<tag k="water" v="lake" />
	</node>
	<node lat="58.69312777774139" lon="8.252877784354803" id="-33207">
		<tag k="name" v="Fisketjønn" />
		<tag k="natural" v="water" />
		<tag k="ssr:stedsnr" v="597760" />
	</node>
	<node lat="58.565183334744646" lon="8.525616669929377" id="-33210">
		<tag k="name" v="Lilletjønn" />
		<tag k="natural" v="water" />
		<tag k="ssr:stedsnr" v="598035" />
	</node>
	<node lat="58.635030559810595" lon="8.547947230706233" id="-33211">
		<tag k="name" v="Moltetjønn" />
		<tag k="natural" v="water" />
		<tag k="ssr:stedsnr" v="598037" />
	</node>
	<node lat="58.64188055313344" lon="8.524472227249982" id="-33218">
		<tag k="name" v="Småtjønnane" />
		<tag k="natural" v="water" />
		<tag k="ssr:stedsnr" v="598455" />
		<tag k="water" v="lake" />
	</node>
	<node lat="58.630950000541134" lon="8.348197217535699" id="-33221">
		<tag k="name" v="Åletjønn" />
		<tag k="natural" v="water" />
		<tag k="ssr:stedsnr" v="598351" />
	</node>
	<node lat="58.59680833701321" lon="8.502952780209549" id="-33222">
		<tag k="name" v="Årlitjønn" />
		<tag k="natural" v="water" />
		<tag k="ssr:stedsnr" v="598359" />
	</node>
	<node lat="58.64788055237667" lon="8.152900006940149" id="-33223">
		<tag k="name" v="Stompedalsbekken" />
		<tag k="ssr:stedsnr" v="598503" />
		<tag k="waterway" v="stream" />
	</node>
	<node lat="58.65874722666649" lon="8.212747216851534" id="-33225">
		<tag k="name" v="Butangen" />
		<tag k="natural" v="cape" />
		<tag k="ssr:stedsnr" v="598550" />
	</node>
	<node lat="58.5793138878373" lon="8.443041659508037" id="-33237">
		<tag k="name" v="Moltetjønn" />
		<tag k="natural" v="water" />
		<tag k="ssr:stedsnr" v="599203" />
	</node>
	<node lat="58.54075555349972" lon="8.61978888980332" id="-33247">
		<tag k="name" v="Orrebekken" />
		<tag k="ssr:stedsnr" v="599753" />
		<tag k="waterway" v="stream" />
	</node>
	<node lat="58.54389782059097" lon="8.693727284972788" id="-33249">
		<tag k="name" v="Vestre Solheimsvannet" />
		<tag k="natural" v="water" />
		<tag k="ssr:stedsnr" v="601211" />
	</node>
	<node lat="58.555853296966376" lon="8.698630831228638" id="-33250">
		<tag k="name" v="Østre Solheimsvannet" />
		<tag k="natural" v="water" />
		<tag k="ssr:stedsnr" v="601218" />
	</node>
	<node lat="58.63014522236301" lon="8.141662545047168" id="-33253">
		<tag k="fixme" v="multiple name tags, choose one and add the other to alt_name" />
		<tag k="name" v="Søndre Sandkilen;Nystøl Sandkil" />
		<tag k="natural" v="water" />
		<tag k="ssr:stedsnr" v="607261" />
	</node>
	<node lat="58.65468889122952" lon="8.15058055460403" id="-33254">
		<tag k="alt_name" v="Lyretjørn" />
		<tag k="name" v="Lyretjønn" />
		<tag k="natural" v="water" />
		<tag k="ssr:stedsnr" v="607297" />
	</node>
	<node lat="58.665777773866026" lon="8.148494443954474" id="-33256">
		<tag k="name" v="Steane" />
		<tag k="place" v="locality" />
		<tag k="ssr:stedsnr" v="607304" />
	</node>
	<node lat="58.61040000332795" lon="8.459847214476186" id="-33260">
		<tag k="name" v="Rossneset" />
		<tag k="natural" v="cape" />
		<tag k="ssr:stedsnr" v="607349" />
	</node>
	<node lat="58.50227221921101" lon="8.524019447839095" id="-33264">
		<tag k="name" v="Lonene" />
		<tag k="natural" v="water" />
		<tag k="ssr:stedsnr" v="607526" />
	</node>
	<node lat="58.688977778077415" lon="8.12065277311486" id="-33267">
		<tag k="alt_name" v="Spesidalstjørn" />
		<tag k="name" v="Spesiedalstjønn" />
		<tag k="natural" v="water" />
		<tag k="ssr:stedsnr" v="607452" />
	</node>
	<node lat="58.66668611359641" lon="8.524877784492924" id="-33273">
		<tag k="alt_name" v="Andrestjern" />
		<tag k="name" v="Andrestjønn" />
		<tag k="natural" v="water" />
		<tag k="ssr:stedsnr" v="607904" />
	</node>
	<node lat="58.51577499628337" lon="8.565213891115574" id="-33280">
		<tag k="name" v="Ytre Hellertjenn" />
		<tag k="natural" v="water" />
		<tag k="ssr:stedsnr" v="701083" />
	</node>
	<node lat="58.520883337823" lon="8.612766674155175" id="-33284">
		<tag k="name" v="Tverrbekken" />
		<tag k="ssr:stedsnr" v="701236" />
		<tag k="waterway" v="stream" />
	</node>
	<node lat="58.52861389215751" lon="8.720452771740607" id="-33292">
		<tag k="name" v="Steilstjenn" />
		<tag k="natural" v="water" />
		<tag k="ssr:stedsnr" v="701433" />
	</node>
	<node lat="58.646308331345274" lon="8.215222213838823" id="-33293">
		<tag k="name" v="Jurdalshølen" />
		<tag k="place" v="locality" />
		<tag k="ssr:stedsnr" v="719233" />
	</node>
	<node lat="58.48886111256101" lon="8.595455550822225" id="-33296">
		<tag k="name" v="Nestjenn" />
		<tag k="natural" v="water" />
		<tag k="ssr:stedsnr" v="640012" />
	</node>
	<node lat="58.52925833077591" lon="8.68986111738888" id="-33298">
		<tag k="name" v="Svarttjenn" />
		<tag k="natural" v="water" />
		<tag k="ssr:stedsnr" v="640033" />
	</node>
	<node lat="58.551352776202776" lon="8.7112222151545" id="-33299">
		<tag k="name" v="Bjønnumstjenn" />
		<tag k="natural" v="water" />
		<tag k="ssr:stedsnr" v="640206" />
	</node>
	<node lat="58.51560277945977" lon="8.646238895581241" id="-33301">
		<tag k="name" v="Hurveevja" />
		<tag k="ssr:stedsnr" v="640230" />
		<tag k="waterway" v="river" />
	</node>
	<node lat="58.51081388936187" lon="8.535455561491538" id="-33313">
		<tag k="name" v="Nordlibekken" />
		<tag k="ssr:stedsnr" v="656410" />
		<tag k="waterway" v="stream" />
	</node>
	<node lat="58.49543889289275" lon="8.428794443494024" id="-33314">
		<tag k="name" v="Kjerbertjenn" />
		<tag k="natural" v="water" />
		<tag k="ssr:stedsnr" v="656739" />
	</node>
	<node lat="58.62673055661408" lon="8.224475004384031" id="-33322">
		<tag k="name" v="Fiskodden" />
		<tag k="natural" v="cape" />
		<tag k="ssr:stedsnr" v="658184" />
	</node>
	<node lat="58.69671666770446" lon="8.292258334626284" id="-33329">
		<tag k="name" v="Øystretjønn" />
		<tag k="natural" v="water" />
		<tag k="ssr:stedsnr" v="658738" />
	</node>
	<node lat="58.69404999874743" lon="8.065444440766822" id="-33334">
		<tag k="name" v="Vestre Befjelltjønn" />
		<tag k="natural" v="water" />
		<tag k="ssr:stedsnr" v="658882" />
	</node>
	<node lat="58.6215444435319" lon="8.445602777438907" id="-33335">
		<tag k="name" v="Lona" />
		<tag k="natural" v="water" />
		<tag k="ssr:stedsnr" v="659030" />
		<tag k="water" v="lake" />
	</node>
	<node lat="58.624463890912466" lon="8.62869166157202" id="-33342">
		<tag k="name" v="Røytjønn" />
		<tag k="natural" v="water" />
		<tag k="ssr:stedsnr" v="659234" />
	</node>
	<node lat="58.611847225095396" lon="8.466819438650841" id="-33346">
		<tag k="name" v="Åletjønnbekken" />
		<tag k="ssr:stedsnr" v="659134" />
		<tag k="waterway" v="stream" />
	</node>
	<node lat="58.62645555459074" lon="8.461119439729545" id="-33351">
		<tag k="name" v="Heitjønn" />
		<tag k="natural" v="water" />
		<tag k="ssr:stedsnr" v="659307" />
	</node>
	<node lat="58.56126666353168" lon="8.28671666464035" id="-33352">
		<tag k="alt_name" v="Tonetjørn" />
		<tag k="name" v="Tonestjønn" />
		<tag k="natural" v="water" />
		<tag k="ssr:stedsnr" v="729157" />
	</node>
	<node lat="58.60290277339857" lon="8.196944441492567" id="-33356">
		<tag k="name" v="Stridstangen" />
		<tag k="natural" v="cape" />
		<tag k="ssr:stedsnr" v="659605" />
	</node>
	<node lat="58.624591662703835" lon="8.222008327508043" id="-33359">
		<tag k="name" v="Vinterdalsbukta" />
		<tag k="natural" v="bay" />
		<tag k="ssr:stedsnr" v="659632" />
	</node>
	<node lat="58.68847778171972" lon="8.210719444662763" id="-33367">
		<tag k="name" v="Surtepytt" />
		<tag k="natural" v="water" />
		<tag k="ssr:stedsnr" v="659598" />
	</node>
	<node lat="58.552052779917204" lon="8.468383338564236" id="-33383">
		<tag k="name" v="Flåtterelva" />
		<tag k="ssr:stedsnr" v="660548" />
		<tag k="waterway" v="river" />
	</node>
	<node lat="58.557172226293204" lon="8.616788894446907" id="-33384">
		<tag k="name" v="Løvjomåstjønn" />
		<tag k="natural" v="water" />
		<tag k="ssr:stedsnr" v="660790" />
	</node>
	<node lat="58.50341666619008" lon="8.441016674515753" id="-33388">
		<tag k="alt_name" v="Tiksletjørna" />
		<tag k="name" v="Tiksletjenn" />
		<tag k="natural" v="water" />
		<tag k="ssr:stedsnr" v="668004" />
	</node>
	<node lat="58.569080553163914" lon="8.259405547044928" id="-33389">
		<tag k="alt_name" v="Hundstjørn" />
		<tag k="name" v="Hundstjønn" />
		<tag k="natural" v="water" />
		<tag k="ssr:stedsnr" v="668135" />
	</node>
	<node lat="58.59175555819212" lon="8.446155554277263" id="-33392">
		<tag k="alt_name" v="Rambeitjørn;Rambeistjørn" />
		<tag k="name" v="Rambeistjønn" />
		<tag k="natural" v="water" />
		<tag k="ssr:stedsnr" v="668201" />
	</node>
	<node lat="58.67271944691685" lon="8.348822218422182" id="-33394">
		<tag k="name" v="Ålevatnet" />
		<tag k="natural" v="water" />
		<tag k="ssr:stedsnr" v="668307" />
		<tag k="water" v="lake" />
	</node>
	<node lat="58.630247219713304" lon="8.208913891055216" id="-33398">
		<tag k="alt_name" v="Jordestjørn" />
		<tag k="name" v="Jordestjønn" />
		<tag k="natural" v="water" />
		<tag k="ssr:stedsnr" v="668403" />
	</node>
	<node lat="58.67321111043396" lon="8.158919438143121" id="-33400">
		<tag k="name" v="Åsdalsbekken" />
		<tag k="ssr:stedsnr" v="668337" />
		<tag k="waterway" v="river" />
	</node>
	<node lat="58.549169441679766" lon="8.671897227744543" id="-33406">
		<tag k="name" v="Eivindstadtjenn" />
		<tag k="natural" v="water" />
		<tag k="ssr:stedsnr" v="668684" />
	</node>
	<node lat="58.61300833735765" lon="8.498788883579198" id="-33407">
		<tag k="alt_name" v="Lauvlandstjørn" />
		<tag k="name" v="Lauvlandstjønn" />
		<tag k="natural" v="water" />
		<tag k="ssr:stedsnr" v="668781" />
	</node>
	<node lat="58.6273500038375" lon="8.650641667224786" id="-33408">
		<tag k="alt_name" v="Store Rundetjønn" />
		<tag k="name" v="Rundtjern" />
		<tag k="natural" v="water" />
		<tag k="ssr:stedsnr" v="668786" />
	</node>
	<node lat="58.49925555708492" lon="8.571174991749407" id="-33411">
		<tag k="name" v="Andbubekken" />
		<tag k="ssr:stedsnr" v="701061" />
		<tag k="waterway" v="stream" />
	</node>
	<node lat="58.507633335008734" lon="8.625891673474593" id="-33413">
		<tag k="name" v="Songebekken" />
		<tag k="ssr:stedsnr" v="701275" />
		<tag k="waterway" v="stream" />
	</node>
	<node lat="58.51616944831057" lon="8.468180552678731" id="-33422">
		<tag k="name" v="Trollheia" />
		<tag k="natural" v="water" />
		<tag k="ssr:stedsnr" v="717103" />
	</node>
	<node lat="58.47018055179539" lon="8.563288884684306" id="-33429">
		<tag k="name" v="Lyngholmen" />
		<tag k="place" v="islet" />
		<tag k="ssr:stedsnr" v="717910" />
	</node>
	<node lat="58.516858332822956" lon="8.53917221621908" id="-33431">
		<tag k="name" v="Tollodden" />
		<tag k="natural" v="cape" />
		<tag k="ssr:stedsnr" v="899419" />
	</node>
	<node lat="58.627961107860074" lon="8.22421111819798" id="-33433">
		<tag k="name" v="Sommerfjøsodden" />
		<tag k="natural" v="cape" />
		<tag k="ssr:stedsnr" v="719172" />
	</node>
	<node lat="58.60575555201107" lon="8.533225004373104" id="-33451">
		<tag k="name" v="Lille Grisantjønn" />
		<tag k="natural" v="water" />
		<tag k="ssr:stedsnr" v="720175" />
	</node>
	<node lat="58.603758333094355" lon="8.225786108063476" id="-33458">
		<tag k="name" v="Kvennes" />
		<tag k="natural" v="cape" />
		<tag k="ssr:stedsnr" v="720627" />
	</node>
	<node lat="58.64767500221492" lon="8.264319440424885" id="-33465">
		<tag k="name" v="Slåttedalsbekken" />
		<tag k="ssr:stedsnr" v="720673" />
		<tag k="waterway" v="stream" />
	</node>
	<node lat="58.639222226383886" lon="8.12344444498864" id="-33483">
		<tag k="name" v="Lefsetjønn" />
		<tag k="natural" v="water" />
		<tag k="ssr:stedsnr" v="901028" />
	</node>
	<node lat="58.69046666751397" lon="8.002688884356099" id="-33485">
		<tag k="name" v="Butangen" />
		<tag k="natural" v="shoal" />
		<tag k="place" v="locality" />
		<tag k="ssr:stedsnr" v="900979" />
	</node>
	<node lat="58.6473916704427" lon="8.41008332766116" id="-33487">
		<tag k="alt_name" v="Beråstjørn" />
		<tag k="name" v="Beråstjønn" />
		<tag k="natural" v="water" />
		<tag k="ssr:stedsnr" v="729284" />
	</node>
	<node lat="58.614702775236104" lon="8.637200004407159" id="-33490">
		<tag k="name" v="Matbuvatnet" />
		<tag k="natural" v="water" />
		<tag k="ssr:stedsnr" v="729817" />
	</node>
	<node lat="58.6156333344363" lon="8.590361118392797" id="-33491">
		<tag k="name" v="Tosetjenn" />
		<tag k="natural" v="water" />
		<tag k="ssr:stedsnr" v="729822" />
	</node>
	<node lat="58.58007777953164" lon="8.587077770146559" id="-33492">
		<tag k="alt_name" v="Gåsetjern" />
		<tag k="name" v="Gåsetjønn" />
		<tag k="natural" v="water" />
		<tag k="ssr:stedsnr" v="729830" />
	</node>
	<node lat="58.53177777981981" lon="8.612808335575691" id="-33499">
		<tag k="alt_name" v="Djupetjenn" />
		<tag k="name" v="Djupetjern" />
		<tag k="natural" v="water" />
		<tag k="ssr:stedsnr" v="729703" />
	</node>
	<node lat="58.56411944759492" lon="8.452158332993053" id="-33517">
		<tag k="name" v="Holebekkstjønn" />
		<tag k="natural" v="water" />
		<tag k="ssr:stedsnr" v="902017" />
	</node>
	<node lat="58.566499995574496" lon="8.529297216888034" id="-33519">
		<tag k="name" v="Sommerfjøstjønn" />
		<tag k="natural" v="water" />
		<tag k="ssr:stedsnr" v="902034" />
	</node>
	<node lat="58.59963611413668" lon="8.572122218287697" id="-33536">
		<tag k="name" v="Dyngedalstjønn" />
		<tag k="natural" v="water" />
		<tag k="ssr:stedsnr" v="902439" />
	</node>
	<node lat="58.62276944331482" lon="8.387447219683201" id="-33537">
		<tag k="name" v="Stormyrtjønn" />
		<tag k="natural" v="water" />
		<tag k="ssr:stedsnr" v="902531" />
	</node>
	<node lat="58.65817500436026" lon="8.167852780543756" id="-33540">
		<tag k="name" v="Leirtjønn" />
		<tag k="natural" v="water" />
		<tag k="ssr:stedsnr" v="902577" />
	</node>
	<node lat="58.68796111160362" lon="8.241294450134383" id="-33543">
		<tag k="name" v="Store Lauvbutjønn" />
		<tag k="natural" v="water" />
		<tag k="ssr:stedsnr" v="902587" />
	</node>
	<node lat="58.554097223663895" lon="8.516124996417632" id="-33553">
		<tag k="name" v="Skåtholmen" />
		<tag k="place" v="islet" />
		<tag k="ssr:stedsnr" v="902694" />
	</node>
	<node lat="58.6565972259685" lon="8.245077774708843" id="-33554">
		<tag k="name" v="Pråmsnes" />
		<tag k="natural" v="cape" />
		<tag k="ssr:stedsnr" v="902753" />
	</node>
	<node lat="58.66436944209463" lon="8.506725007089678" id="-33559">
		<tag k="name" v="Lyngtjønn" />
		<tag k="natural" v="water" />
		<tag k="ssr:stedsnr" v="902850" />
	</node>
	<node lat="58.65622222303584" lon="8.626341670612526" id="-33563">
		<tag k="name" v="Lilleholmen" />
		<tag k="place" v="islet" />
		<tag k="ssr:stedsnr" v="902885" />
	</node>
	<node lat="58.65533611404517" lon="8.093744438853404" id="-33571">
		<tag k="name" v="Geistjønn" />
		<tag k="natural" v="water" />
		<tag k="ssr:stedsnr" v="902985" />
	</node>
	<node lat="58.55861666222027" lon="8.351888880423552" id="-33574">
		<tag k="name" v="Andekilsunda" />
		<tag k="natural" v="water" />
		<tag k="ssr:stedsnr" v="903141" />
		<tag k="water" v="lake" />
	</node>
	<node lat="58.58113611247758" lon="8.476772216085545" id="-33576">
		<tag k="name" v="Kråkenes" />
		<tag k="natural" v="cape" />
		<tag k="ssr:stedsnr" v="903193" />
	</node>
	<node lat="58.577122226100535" lon="8.226219436524739" id="-33579">
		<tag k="name" v="Kiloddane" />
		<tag k="natural" v="cape" />
		<tag k="ssr:stedsnr" v="903256" />
	</node>
	<node lat="58.58840277370952" lon="8.307255557968327" id="-33588">
		<tag k="name" v="Stoplestaden" />
		<tag k="natural" v="cape" />
		<tag k="ssr:stedsnr" v="903580" />
	</node>
	<node lat="58.5541833348729" lon="8.557402784182932" id="-33590">
		<tag k="name" v="Vertjønn" />
		<tag k="natural" v="water" />
		<tag k="ssr:stedsnr" v="903705" />
	</node>
	<node lat="58.52782499697465" lon="8.580063891567866" id="-33597">
		<tag k="name" v="Tretjennene" />
		<tag k="natural" v="water" />
		<tag k="ssr:stedsnr" v="762007" />
		<tag k="water" v="lake" />
	</node>
	<node lat="58.52498888847249" lon="8.605611113881915" id="-33605">
		<tag k="name" v="Rislandtjenn" />
		<tag k="natural" v="water" />
		<tag k="ssr:stedsnr" v="762196" />
	</node>
	<node lat="58.601130559815175" lon="8.724447219347887" id="-33607">
		<tag k="name" v="Skottkjerrtjenn" />
		<tag k="natural" v="water" />
		<tag k="ssr:stedsnr" v="762308" />
	</node>
	<node lat="58.49453333784821" lon="8.511533333397573" id="-33618">
		<tag k="name" v="Nordheipytten" />
		<tag k="natural" v="water" />
		<tag k="ssr:stedsnr" v="777919" />
	</node>
	<node lat="58.645925000888354" lon="8.246724992463973" id="-33623">
		<tag k="name" v="Bjørnstjønn" />
		<tag k="natural" v="water" />
		<tag k="ssr:stedsnr" v="779199" />
	</node>
	<node lat="58.66503889255541" lon="8.254986112174317" id="-33629">
		<tag k="name" v="Berghøl" />
		<tag k="place" v="locality" />
		<tag k="ssr:stedsnr" v="780648" />
	</node>
	<node lat="58.67529444877537" lon="8.317966661421522" id="-33638">
		<tag k="name" v="Kattetjønn" />
		<tag k="natural" v="water" />
		<tag k="ssr:stedsnr" v="780850" />
	</node>
	<node lat="58.57895278024015" lon="8.502791672166996" id="-33640">
		<tag k="name" v="Gauslåtjønn" />
		<tag k="natural" v="water" />
		<tag k="ssr:stedsnr" v="781007" />
	</node>
	<node lat="58.5591277792438" lon="8.34767777116067" id="-33641">
		<tag k="name" v="Andekilen" />
		<tag k="natural" v="water" />
		<tag k="ssr:stedsnr" v="781154" />
		<tag k="water" v="lake" />
	</node>
	<node lat="58.59730000426066" lon="8.345019445122936" id="-33650">
		<tag k="name" v="Stormyrhølen" />
		<tag k="place" v="locality" />
		<tag k="ssr:stedsnr" v="781506" />
	</node>
	<node lat="58.66375833575184" lon="8.278047219994619" id="-33663">
		<tag k="name" v="Trytetjønn" />
		<tag k="natural" v="water" />
		<tag k="ssr:stedsnr" v="781657" />
	</node>
	<node lat="58.543677775731545" lon="8.632086115970857" id="-33668">
		<tag k="name" v="Bjorshavehøllen" />
		<tag k="place" v="locality" />
		<tag k="ssr:stedsnr" v="781810" />
	</node>
	<node lat="58.47374722444774" lon="8.455436108349756" id="-33673">
		<tag k="name" v="Snøløsvannet" />
		<tag k="natural" v="water" />
		<tag k="ssr:stedsnr" v="910463" />
		<tag k="water" v="lake" />
	</node>
	<node lat="58.49657499857218" lon="8.615100000977762" id="-33675">
		<tag k="alt_name" v="Åvelandstjerna" />
		<tag k="name" v="Ovelandstjenn" />
		<tag k="natural" v="water" />
		<tag k="ssr:stedsnr" v="910685" />
	</node>
	<node lat="58.56886944735998" lon="8.238527770804133" id="-33678">
		<tag k="alt_name" v="Ålekjerrtjørna" />
		<tag k="name" v="Ålekjerrtjønn" />
		<tag k="natural" v="water" />
		<tag k="ssr:stedsnr" v="911135" />
	</node>
	<node lat="58.57058333349034" lon="8.321972217954428" id="-33680">
		<tag k="alt_name" v="Hovtjørn, l" />
		<tag k="name" v="Lille Hovtjønn" />
		<tag k="natural" v="water" />
		<tag k="ssr:stedsnr" v="911141" />
	</node>
	<node lat="58.566986109390726" lon="8.461983332969002" id="-33681">
		<tag k="name" v="Kråkevatnet" />
		<tag k="natural" v="water" />
		<tag k="ssr:stedsnr" v="911142" />
	</node>
	<node lat="58.64419166961337" lon="8.179844450800042" id="-33682">
		<tag k="name" v="Åsundet" />
		<tag k="natural" v="strait" />
		<tag k="ssr:stedsnr" v="911296" />
	</node>
	<node lat="58.635519441145185" lon="8.341552781140933" id="-33683">
		<tag k="fixme" v="multiple name tags, choose one and add the other to alt_name" />
		<tag k="name" v="Ytretjørn;Jordestjønn" />
		<tag k="natural" v="water" />
		<tag k="ssr:stedsnr" v="911386" />
	</node>
	<node lat="58.60156667049037" lon="8.216205562380058" id="-33684">
		<tag k="name" v="Fiskehøl" />
		<tag k="natural" v="bay" />
		<tag k="ssr:stedsnr" v="789350" />
	</node>
	<node lat="58.61657777346983" lon="8.347247224798295" id="-33686">
		<tag k="name" v="Bellandsvatnet" />
		<tag k="natural" v="water" />
		<tag k="ssr:stedsnr" v="789360" />
		<tag k="water" v="lake" />
	</node>
	<node lat="58.70888055324976" lon="8.339391662115245" id="-33689">
		<tag k="alt_name" v="Tovdalsåni;Tovdalsvassdraget;Topdalselva;Tovdalselva" />
		<tag k="name" v="Tovdalsåna" />
		<tag k="ssr:stedsnr" v="911490" />
		<tag k="waterway" v="river" />
	</node>
	<node lat="58.65323055125619" lon="8.292497229860189" id="-33694">
		<tag k="alt_name" v="Sledetjørn" />
		<tag k="name" v="Sledetjønn" />
		<tag k="natural" v="water" />
		<tag k="ssr:stedsnr" v="789274" />
	</node>
	<node lat="58.49420555575129" lon="8.540325000164733" id="-33696">
		<tag k="alt_name" v="Stemmetjern" />
		<tag k="name" v="Stemtjenn" />
		<tag k="natural" v="water" />
		<tag k="ssr:stedsnr" v="789700" />
	</node>
	<node lat="58.610152779465615" lon="8.629333330119081" id="-33698">
		<tag k="alt_name" v="Igletjern" />
		<tag k="name" v="Igletjønn" />
		<tag k="natural" v="water" />
		<tag k="ssr:stedsnr" v="789803" />
	</node>
	<node lat="58.667952044127574" lon="7.99348622369571" id="-33703">
		<tag k="alt_name" v="Kjosvatnet" />
		<tag k="name" v="Kjosevatn" />
		<tag k="natural" v="water" />
		<tag k="ssr:stedsnr" v="789599" />
		<tag k="water" v="lake" />
	</node>
	<node lat="58.62474166285866" lon="8.574658340845481" id="-33705">
		<tag k="name" v="Uvatn" />
		<tag k="natural" v="water" />
		<tag k="ssr:stedsnr" v="789770" />
	</node>
	<node lat="58.609433335778924" lon="8.641472224579823" id="-33706">
		<tag k="alt_name" v="Homstjern" />
		<tag k="name" v="Homstjønn" />
		<tag k="natural" v="water" />
		<tag k="ssr:stedsnr" v="789800" />
	</node>
	<node lat="58.57520833283275" lon="8.298674995325287" id="-33709">
		<tag k="alt_name" v="Marimesstjørn, store" />
		<tag k="name" v="Store Marimesstjønn" />
		<tag k="natural" v="water" />
		<tag k="ssr:stedsnr" v="790103" />
	</node>
	<node lat="58.56478333456686" lon="8.270797222860491" id="-33711">
		<tag k="alt_name" v="Lomstjørn" />
		<tag k="name" v="Lomstjønn" />
		<tag k="natural" v="water" />
		<tag k="ssr:stedsnr" v="790115" />
	</node>
	<node lat="58.57165555233448" lon="8.315886108029577" id="-33712">
		<tag k="alt_name" v="Geittjørn" />
		<tag k="name" v="Geittjønn" />
		<tag k="natural" v="water" />
		<tag k="ssr:stedsnr" v="790116" />
	</node>
	<node lat="58.53819722414868" lon="8.461116663152445" id="-33715">
		<tag k="alt_name" v="Blengsvatnet" />
		<tag k="loc_name" v="Blengsvann" />
		<tag k="name" v="Blengsvatn" />
		<tag k="natural" v="water" />
		<tag k="ssr:stedsnr" v="790157" />
		<tag k="water" v="lake" />
	</node>
	<node lat="58.541650003323674" lon="8.517011116145236" id="-33718">
		<tag k="name" v="Gjuvvatnet" />
		<tag k="natural" v="water" />
		<tag k="ssr:stedsnr" v="911674" />
	</node>
	<node lat="58.61655277462789" lon="8.490266659053052" id="-33721">
		<tag k="alt_name" v="Floketjern" />
		<tag k="name" v="Floketjønn" />
		<tag k="natural" v="water" />
		<tag k="ssr:stedsnr" v="911767" />
	</node>
	<node lat="58.51077222228426" lon="8.49558611371303" id="-33725">
		<tag k="alt_name" v="Gjøssevatnet" />
		<tag k="name" v="Gjøssevatn" />
		<tag k="natural" v="water" />
		<tag k="ssr:stedsnr" v="790755" />
	</node>
	<node lat="58.62945302299413" lon="8.65734754249759" id="-33726">
		<tag k="alt_name" v="Kvernhustjørnane" />
		<tag k="name" v="Kvennhustjønnene" />
		<tag k="natural" v="water" />
		<tag k="ssr:stedsnr" v="790793" />
		<tag k="water" v="lake" />
	</node>
	<node lat="58.63551388630831" lon="8.58160555447289" id="-33727">
		<tag k="name" v="Svartetjørn" />
		<tag k="natural" v="water" />
		<tag k="ssr:stedsnr" v="790798" />
	</node>
	<node lat="58.69390555682842" lon="8.065638894902923" id="-33730">
		<tag k="name" v="Befjelltjørna" />
		<tag k="natural" v="water" />
		<tag k="ssr:stedsnr" v="911636" />
	</node>
	<node lat="58.64294444203665" lon="8.480952773619231" id="-33734">
		<tag k="name" v="Hevdesbekken" />
		<tag k="ssr:stedsnr" v="911998" />
		<tag k="waterway" v="stream" />
	</node>
	<node lat="58.67460676550938" lon="8.58857962480975" id="-33735">
		<tag k="name" v="Nelaug" />
		<tag k="natural" v="water" />
		<tag k="ssr:stedsnr" v="911921" />
		<tag k="water" v="lake" />
	</node>
	<node lat="58.65994166527132" lon="8.597983339551641" id="-33736">
		<tag k="name" v="Lauvøya" />
		<tag k="place" v="islet" />
		<tag k="ssr:stedsnr" v="911930" />
	</node>
	<node lat="58.45299721924826" lon="8.609927769340521" id="-33738">
		<tag k="name" v="Langelandsevja" />
		<tag k="natural" v="water" />
		<tag k="ssr:stedsnr" v="818985" />
		<tag k="water" v="lake" />
	</node>
	<node lat="58.53878610675731" lon="8.559961107104849" id="-33742">
		<tag k="name" v="Stemtjenn" />
		<tag k="natural" v="water" />
		<tag k="ssr:stedsnr" v="823019" />
	</node>
	<node lat="58.61589444206554" lon="8.74615554864438" id="-33743">
		<tag k="name" v="Bjorpåltjenn" />
		<tag k="natural" v="water" />
		<tag k="ssr:stedsnr" v="823245" />
	</node>
	<node lat="58.605327774737894" lon="8.723680553728858" id="-33744">
		<tag k="name" v="Lona" />
		<tag k="natural" v="water" />
		<tag k="ssr:stedsnr" v="823247" />
		<tag k="water" v="lake" />
	</node>
	<node lat="58.57273055756806" lon="8.725897214195292" id="-33745">
		<tag k="name" v="Råna" />
		<tag k="natural" v="strait" />
		<tag k="ssr:stedsnr" v="823270" />
	</node>
	<node lat="58.56909166971312" lon="8.735638894614464" id="-33746">
		<tag k="name" v="Lislebekk" />
		<tag k="ssr:stedsnr" v="823273" />
		<tag k="waterway" v="stream" />
	</node>
	<node lat="58.505730553021095" lon="8.565074991993205" id="-33748">
		<tag k="name" v="Hisåa" />
		<tag k="ssr:stedsnr" v="823064" />
		<tag k="waterway" v="river" />
	</node>
	<node lat="58.617872218567136" lon="8.68641944671112" id="-33749">
		<tag k="name" v="Leirkilen" />
		<tag k="natural" v="bay" />
		<tag k="ssr:stedsnr" v="823120" />
	</node>
	<node lat="58.479122218000676" lon="8.653197226633973" id="-33751">
		<tag k="name" v="Svartetjenn" />
		<tag k="natural" v="water" />
		<tag k="ssr:stedsnr" v="823180" />
	</node>
	<node lat="58.52990833665062" lon="8.520019440442839" id="-33762">
		<tag k="name" v="Sagstemmen" />
		<tag k="ssr:stedsnr" v="839037" />
		<tag k="waterway" v="dam" />
	</node>
	<node lat="58.5227361074776" lon="8.412488894033684" id="-33763">
		<tag k="name" v="Oksmyrtjenn" />
		<tag k="natural" v="water" />
		<tag k="ssr:stedsnr" v="839200" />
	</node>
	<node lat="58.49830833331296" lon="8.50782500731905" id="-33764">
		<tag k="name" v="Lonene" />
		<tag k="natural" v="water" />
		<tag k="ssr:stedsnr" v="839429" />
	</node>
	<node lat="58.63281944581195" lon="8.489986107601" id="-33774">
		<tag k="name" v="Nedre Fisketjønn" />
		<tag k="natural" v="water" />
		<tag k="ssr:stedsnr" v="841316" />
	</node>
	<node lat="58.65684166916014" lon="8.158749993050886" id="-33781">
		<tag k="name" v="Ågapet" />
		<tag k="natural" v="bay" />
		<tag k="ssr:stedsnr" v="841578" />
	</node>
	<node lat="58.604749995695826" lon="8.259516665942675" id="-33784">
		<tag k="name" v="Astridshyl" />
		<tag k="place" v="locality" />
		<tag k="ssr:stedsnr" v="841711" />
	</node>
	<node lat="58.6330694450824" lon="8.039113881872215" id="-33792">
		<tag k="name" v="Homstjønn" />
		<tag k="natural" v="water" />
		<tag k="ssr:stedsnr" v="841878" />
	</node>
	<node lat="58.65073055437721" lon="8.101791660531172" id="-33795">
		<tag k="name" v="Holebekk" />
		<tag k="ssr:stedsnr" v="841981" />
		<tag k="waterway" v="stream" />
	</node>
	<node lat="58.572277781311186" lon="8.485944443638823" id="-33802">
		<tag k="name" v="Lille Kinnfokktjønn" />
		<tag k="natural" v="water" />
		<tag k="ssr:stedsnr" v="842177" />
	</node>
	<node lat="58.622525000024595" lon="8.633686116125629" id="-33804">
		<tag k="name" v="Tritjernene" />
		<tag k="natural" v="water" />
		<tag k="ssr:stedsnr" v="842194" />
		<tag k="water" v="lake" />
	</node>
	<node lat="58.59680277825791" lon="8.408188884028313" id="-33810">
		<tag k="name" v="Leveringshølen" />
		<tag k="place" v="locality" />
		<tag k="ssr:stedsnr" v="842528" />
	</node>
	<node lat="58.59668611218467" lon="8.40603888952173" id="-33811">
		<tag k="name" v="Smalfoss" />
		<tag k="natural" v="waterfall" />
		<tag k="ssr:stedsnr" v="842530" />
	</node>
	<node lat="58.68650278012944" lon="8.158761103271988" id="-33815">
		<tag k="name" v="Risdølhølen" />
		<tag k="place" v="locality" />
		<tag k="ssr:stedsnr" v="842580" />
	</node>
</osm>
