<?xml version="1.0" encoding="UTF-8"?>
<osm generator="osmapis" version="0.6">
	<node id="-521536" lat="58.6244249983" lon="8.74010833501">
		<tag k="name" v="Kvernvollen" />
		<tag k="place" v="locality" />
		<tag k="ssr:stedsnr" v="155283" />
	</node>
	<node id="-523199" lat="58.619552781" lon="8.41364167074">
		<tag k="name" v="Kolhuset" />
		<tag k="place" v="locality" />
		<tag k="ssr:stedsnr" v="963521" />
	</node>
	<node id="-523070" lat="58.4807027821" lon="8.61525555928">
		<tag k="amenity" v="community_centre" />
		<tag k="name" v="Rønningen" />
		<tag k="ssr:stedsnr" v="850666" />
	</node>
	<node id="-519264" lat="58.6187111133" lon="8.2942277798">
		<tag k="name" v="Kjeregardane" />
		<tag k="place" v="locality" />
		<tag k="ssr:stedsnr" v="295283" />
	</node>
	<node id="-521491" lat="58.5264055558" lon="8.65299722083">
		<tag k="amenity" v="place_of_worship" />
		<tag k="denomination" v="lutheran" />
		<tag k="name" v="Froland" />
		<tag k="religion" v="christian" />
		<tag k="ssr:stedsnr" v="122705" />
	</node>
	<node id="-521165" lat="58.6124972266" lon="8.39661944135">
		<tag k="name" v="Kolbonnen" />
		<tag k="place" v="locality" />
		<tag k="ssr:stedsnr" v="53011" />
	</node>
	<node id="-520843" lat="58.6305361124" lon="8.27608056101">
		<tag k="name" v="Kronprinsessehøyden" />
		<tag k="ssr:stedsnr" v="891113" />
		<tag k="tourism" v="viewpoint" />
	</node>
	<node id="-520705" lat="58.6147777781" lon="8.69833334064">
		<tag k="name" v="Sauehagen" />
		<tag k="place" v="locality" />
		<tag k="ssr:stedsnr" v="823316" />
	</node>
	<node id="-519422" lat="58.6055638869" lon="8.66380555793">
		<tag k="name" v="Bjørnspedt" />
		<tag k="place" v="locality" />
		<tag k="ssr:stedsnr" v="276421" />
	</node>
	<node id="-521089" lat="58.6198944421" lon="8.6755388923">
		<tag k="name" v="Hagen" />
		<tag k="place" v="locality" />
		<tag k="ssr:stedsnr" v="34295" />
	</node>
	<node id="-519524" lat="58.6057638906" lon="8.25983888339">
		<tag k="name" v="Uldalsløa" />
		<tag k="place" v="locality" />
		<tag k="ssr:stedsnr" v="476748" />
	</node>
	<node id="-521538" lat="58.5648666634" lon="8.72216389012">
		<tag k="name" v="Kollbonnen" />
		<tag k="place" v="locality" />
		<tag k="ssr:stedsnr" v="155316" />
	</node>
	<node id="-522081" lat="58.5732499959" lon="8.70659445111">
		<tag k="name" v="Bøylestadgruvene" />
		<tag k="place" v="locality" />
		<tag k="ssr:stedsnr" v="398139" />
	</node>
</osm>
