<?xml version="1.0" encoding="UTF-8"?>
<osm version="0.6" generator="osmapis">
	<node lat="58.61739721938992" lon="8.33105554828317" id="-31930">
		<tag k="alt_name" v="Hauketjønnheia" />
		<tag k="fixme" v="consider natural=peak for the most distinct mountains in the district" />
		<tag k="name" v="Hauktjørnheia" />
		<tag k="natural" v="hill" />
		<tag k="place" v="locality" />
		<tag k="ssr:stedsnr" v="350" />
	</node>
	<node lat="58.50621944786185" lon="8.494569452894245" id="-31936">
		<tag k="name" v="Madsheia" />
		<tag k="natural" v="hill" />
		<tag k="place" v="locality" />
		<tag k="ssr:stedsnr" v="749" />
	</node>
	<node lat="58.578077774692986" lon="8.333927772824559" id="-31941">
		<tag k="alt_name" v="Rondeheia" />
		<tag k="fixme" v="consider natural=peak for the most distinct mountains in the district" />
		<tag k="name" v="Rundeheia" />
		<tag k="natural" v="hill" />
		<tag k="place" v="locality" />
		<tag k="ssr:stedsnr" v="1145" />
	</node>
	<node lat="58.52216944873361" lon="8.491644447430769" id="-31948">
		<tag k="fixme" v="multiple name tags, choose one and add the other to alt_name" />
		<tag k="name" v="Løddesølheia;Raundalsfjell" />
		<tag k="natural" v="hill" />
		<tag k="place" v="locality" />
		<tag k="ssr:stedsnr" v="1697" />
	</node>
	<node lat="58.52815000013314" lon="8.47514445229224" id="-31953">
		<tag k="name" v="Svenbudalen" />
		<tag k="natural" v="valley" />
		<tag k="place" v="locality" />
		<tag k="ssr:stedsnr" v="231029" />
	</node>
	<node lat="58.50052500374079" lon="8.44193888631403" id="-31955">
		<tag k="fixme" v="consider natural=peak for the most distinct mountains in the district" />
		<tag k="name" v="Langås" />
		<tag k="natural" v="hill" />
		<tag k="place" v="locality" />
		<tag k="ssr:stedsnr" v="231423" />
	</node>
	<node lat="58.503669441090246" lon="8.52345278280076" id="-31956">
		<tag k="name" v="Bjellebakken" />
		<tag k="natural" v="slope" />
		<tag k="place" v="locality" />
		<tag k="ssr:stedsnr" v="231457" />
	</node>
	<node lat="58.485355553412894" lon="8.438400000539618" id="-31958">
		<tag k="name" v="Øygardsheia" />
		<tag k="natural" v="hill" />
		<tag k="place" v="locality" />
		<tag k="ssr:stedsnr" v="231763" />
	</node>
	<node lat="58.45741666617999" lon="8.553938896145386" id="-31960">
		<tag k="name" v="Sauetjennknatten" />
		<tag k="natural" v="ridge" />
		<tag k="place" v="locality" />
		<tag k="ssr:stedsnr" v="231877" />
	</node>
	<node lat="58.69495000072401" lon="8.03851388052785" id="-31962">
		<tag k="name" v="Elgsknatten" />
		<tag k="natural" v="ridge" />
		<tag k="place" v="locality" />
		<tag k="ssr:stedsnr" v="232967" />
	</node>
	<node lat="58.63555555744381" lon="8.145080549908563" id="-31963">
		<tag k="fixme" v="consider natural=peak for the most distinct mountains in the district" />
		<tag k="name" v="Standaren" />
		<tag k="natural" v="hill" />
		<tag k="place" v="locality" />
		<tag k="ssr:stedsnr" v="233046" />
	</node>
	<node lat="58.637394447055335" lon="8.23661666418064" id="-31965">
		<tag k="name" v="Hundalsheia" />
		<tag k="natural" v="hill" />
		<tag k="place" v="locality" />
		<tag k="ssr:stedsnr" v="233194" />
	</node>
	<node lat="58.68230555979672" lon="8.333708337217667" id="-31969">
		<tag k="name" v="Njukelia" />
		<tag k="natural" v="slope" />
		<tag k="place" v="locality" />
		<tag k="ssr:stedsnr" v="233670" />
	</node>
	<node lat="58.638997220370676" lon="8.298424999000494" id="-31974">
		<tag k="name" v="Varpet" />
		<tag k="place" v="locality" />
		<tag k="ssr:stedsnr" v="234123" />
	</node>
	<node lat="58.62385833240709" lon="8.56653611621761" id="-31975">
		<tag k="name" v="Svarvarmonen" />
		<tag k="place" v="locality" />
		<tag k="ssr:stedsnr" v="234170" />
	</node>
	<node lat="58.566763892720935" lon="8.524727775897182" id="-31976">
		<tag k="fixme" v="consider natural=peak for the most distinct mountains in the district" />
		<tag k="name" v="Ormetjønnåsen" />
		<tag k="natural" v="hill" />
		<tag k="place" v="locality" />
		<tag k="ssr:stedsnr" v="235050" />
	</node>
	<node lat="58.623005554063084" lon="8.325452778203942" id="-31980">
		<tag k="name" v="Fjelldalen" />
		<tag k="natural" v="valley" />
		<tag k="place" v="locality" />
		<tag k="ssr:stedsnr" v="234264" />
	</node>
	<node lat="58.63895277564232" lon="8.333449995583218" id="-31981">
		<tag k="name" v="Kalveups" />
		<tag k="natural" v="cliff" />
		<tag k="ssr:stedsnr" v="234361" />
	</node>
	<node lat="58.59622778016294" lon="8.536074996672378" id="-31983">
		<tag k="name" v="Hundevasslia" />
		<tag k="natural" v="slope" />
		<tag k="place" v="locality" />
		<tag k="ssr:stedsnr" v="234375" />
	</node>
	<node lat="58.66449166410684" lon="8.136330561551887" id="-31984">
		<tag k="name" v="Gunnufshaugane" />
		<tag k="natural" v="ridge" />
		<tag k="place" v="locality" />
		<tag k="ssr:stedsnr" v="234452" />
	</node>
	<node lat="58.66682222125581" lon="8.222927780954414" id="-31986">
		<tag k="alt_name" v="Haugstøldalen" />
		<tag k="name" v="Haugstøyldalen" />
		<tag k="natural" v="valley" />
		<tag k="place" v="locality" />
		<tag k="ssr:stedsnr" v="234545" />
	</node>
	<node lat="58.68752500059231" lon="8.261333337604773" id="-31987">
		<tag k="name" v="Plasseheia" />
		<tag k="natural" v="hill" />
		<tag k="place" v="locality" />
		<tag k="ssr:stedsnr" v="234546" />
	</node>
	<node lat="58.68387500041144" lon="8.247208324719864" id="-31988">
		<tag k="name" v="Lindesvinet" />
		<tag k="place" v="locality" />
		<tag k="ssr:stedsnr" v="234549" />
	</node>
	<node lat="58.63662777643352" lon="8.653138891632201" id="-31989">
		<tag k="name" v="Gåsvikdalen" />
		<tag k="natural" v="valley" />
		<tag k="place" v="locality" />
		<tag k="ssr:stedsnr" v="234523" />
	</node>
	<node lat="58.65128333744741" lon="8.203158326143733" id="-31990">
		<tag k="name" v="Helleren" />
		<tag k="place" v="locality" />
		<tag k="ssr:stedsnr" v="234526" />
	</node>
	<node lat="58.657155551500686" lon="8.154111117625058" id="-31992">
		<tag k="fixme" v="consider natural=peak for the most distinct mountains in the district" />
		<tag k="name" v="Gjømleåsen" />
		<tag k="natural" v="hill" />
		<tag k="place" v="locality" />
		<tag k="ssr:stedsnr" v="234575" />
	</node>
	<node lat="58.66891944033251" lon="8.155825008099756" id="-31993">
		<tag k="name" v="Skremonen" />
		<tag k="place" v="locality" />
		<tag k="ssr:stedsnr" v="234618" />
	</node>
	<node lat="58.61353888548001" lon="8.221922213944639" id="-31996">
		<tag k="name" v="Tveitdalen" />
		<tag k="natural" v="valley" />
		<tag k="place" v="locality" />
		<tag k="ssr:stedsnr" v="234655" />
	</node>
	<node lat="58.64866666792794" lon="8.257444437334792" id="-31997">
		<tag k="name" v="Svaleskjol" />
		<tag k="natural" v="slope" />
		<tag k="place" v="locality" />
		<tag k="ssr:stedsnr" v="234665" />
	</node>
	<node lat="58.669975004106206" lon="8.523461118860048" id="-31999">
		<tag k="name" v="Skultrane" />
		<tag k="natural" v="ridge" />
		<tag k="place" v="locality" />
		<tag k="ssr:stedsnr" v="234675" />
	</node>
	<node lat="58.666888884694" lon="8.23250834013379" id="-32000">
		<tag k="name" v="Slettefjell" />
		<tag k="natural" v="ridge" />
		<tag k="place" v="locality" />
		<tag k="ssr:stedsnr" v="234731" />
	</node>
	<node lat="58.67463888930218" lon="8.368005551004977" id="-32002">
		<tag k="fixme" v="consider natural=peak for the most distinct mountains in the district" />
		<tag k="name" v="Ålekjerråsen" />
		<tag k="natural" v="hill" />
		<tag k="place" v="locality" />
		<tag k="ssr:stedsnr" v="234758" />
	</node>
	<node lat="58.69437777845516" lon="8.310477774932622" id="-32003">
		<tag k="name" v="Spelemannsheia" />
		<tag k="natural" v="slope" />
		<tag k="place" v="locality" />
		<tag k="ssr:stedsnr" v="234761" />
	</node>
	<node lat="58.6507361111117" lon="8.26392777848486" id="-32004">
		<tag k="name" v="Dalane" />
		<tag k="natural" v="valley" />
		<tag k="place" v="locality" />
		<tag k="ssr:stedsnr" v="234764" />
	</node>
	<node lat="58.673463892731085" lon="8.242905552595419" id="-32007">
		<tag k="name" v="Kolbunnen" />
		<tag k="natural" v="valley" />
		<tag k="place" v="locality" />
		<tag k="ssr:stedsnr" v="234826" />
	</node>
	<node lat="58.636908337059666" lon="8.041350003767684" id="-32008">
		<tag k="name" v="Homskleiva" />
		<tag k="natural" v="slope" />
		<tag k="place" v="locality" />
		<tag k="ssr:stedsnr" v="234893" />
	</node>
	<node lat="58.68319721843325" lon="8.280863882372067" id="-32009">
		<tag k="name" v="Sandste" />
		<tag k="place" v="locality" />
		<tag k="ssr:stedsnr" v="234854" />
	</node>
	<node lat="58.6588861080682" lon="8.612922221820329" id="-32010">
		<tag k="name" v="Dambrakka" />
		<tag k="place" v="locality" />
		<tag k="ssr:stedsnr" v="234873" />
	</node>
	<node lat="58.66824999613325" lon="8.062441658393928" id="-32011">
		<tag k="name" v="Djupedalen" />
		<tag k="natural" v="valley" />
		<tag k="place" v="locality" />
		<tag k="ssr:stedsnr" v="234972" />
	</node>
	<node lat="58.579188888099544" lon="8.525397218609033" id="-32014">
		<tag k="fixme" v="consider natural=peak for the most distinct mountains in the district" />
		<tag k="name" v="Liveråsen" />
		<tag k="natural" v="hill" />
		<tag k="place" v="locality" />
		<tag k="ssr:stedsnr" v="235025" />
	</node>
	<node lat="58.60847011287516" lon="8.471023922359603" id="-32016">
		<tag k="name" v="Vollen" />
		<tag k="place" v="locality" />
		<tag k="ssr:stedsnr" v="235127" />
	</node>
	<node lat="58.57204444675937" lon="8.63843610329114" id="-32020">
		<tag k="name" v="Nilseshei" />
		<tag k="natural" v="hill" />
		<tag k="place" v="locality" />
		<tag k="ssr:stedsnr" v="235940" />
	</node>
	<node lat="58.602969447457205" lon="8.620113881082808" id="-32022">
		<tag k="name" v="Linhagen" />
		<tag k="natural" v="slope" />
		<tag k="place" v="locality" />
		<tag k="ssr:stedsnr" v="235462" />
	</node>
	<node lat="58.610894446371404" lon="8.197588881650493" id="-32026">
		<tag k="name" v="Prestvegbakkane" />
		<tag k="natural" v="hill" />
		<tag k="place" v="locality" />
		<tag k="ssr:stedsnr" v="235534" />
	</node>
	<node lat="58.54503055545594" lon="8.48409721440752" id="-32033">
		<tag k="name" v="Byttedalen" />
		<tag k="natural" v="valley" />
		<tag k="place" v="locality" />
		<tag k="ssr:stedsnr" v="235611" />
	</node>
	<node lat="58.55477778211888" lon="8.488694449189595" id="-32034">
		<tag k="name" v="Grisehaugdalen" />
		<tag k="natural" v="valley" />
		<tag k="place" v="locality" />
		<tag k="ssr:stedsnr" v="235615" />
	</node>
	<node lat="58.55942778085795" lon="8.487316670504764" id="-32036">
		<tag k="name" v="Gruvehei" />
		<tag k="natural" v="hill" />
		<tag k="place" v="locality" />
		<tag k="ssr:stedsnr" v="235622" />
	</node>
	<node lat="58.595372224919416" lon="8.224966659247261" id="-32038">
		<tag k="name" v="Halvvegsknatten" />
		<tag k="natural" v="hill" />
		<tag k="place" v="locality" />
		<tag k="ssr:stedsnr" v="235662" />
	</node>
	<node lat="58.589397223236595" lon="8.258780552280674" id="-32039">
		<tag k="name" v="Ørkendalen" />
		<tag k="natural" v="valley" />
		<tag k="place" v="locality" />
		<tag k="ssr:stedsnr" v="235670" />
	</node>
	<node lat="58.54685555197648" lon="8.530972218463404" id="-32040">
		<tag k="name" v="Hulltjønnmoen" />
		<tag k="place" v="locality" />
		<tag k="ssr:stedsnr" v="235674" />
	</node>
	<node lat="58.55308333225295" lon="8.580277785650715" id="-32041">
		<tag k="name" v="Holleimyrhovet" />
		<tag k="natural" v="hill" />
		<tag k="place" v="locality" />
		<tag k="ssr:stedsnr" v="235745" />
	</node>
	<node lat="58.475908331415624" lon="8.569777783000113" id="-32046">
		<tag k="fixme" v="consider natural=peak for the most distinct mountains in the district" />
		<tag k="name" v="Høgknatten" />
		<tag k="natural" v="hill" />
		<tag k="place" v="locality" />
		<tag k="ssr:stedsnr" v="34009" />
	</node>
	<node lat="58.500658335211234" lon="8.574508336670391" id="-32048">
		<tag k="name" v="Klamrehammen" />
		<tag k="natural" v="slope" />
		<tag k="place" v="locality" />
		<tag k="ssr:stedsnr" v="34061" />
	</node>
	<node lat="58.610541670263714" lon="8.694061107329938" id="-32053">
		<tag k="fixme" v="consider natural=peak for the most distinct mountains in the district" />
		<tag k="name" v="Langfjella" />
		<tag k="natural" v="hill" />
		<tag k="place" v="locality" />
		<tag k="ssr:stedsnr" v="34305" />
	</node>
	<node lat="58.56676111032473" lon="8.577413891566666" id="-32054">
		<tag k="name" v="Flaggheia" />
		<tag k="natural" v="hill" />
		<tag k="place" v="locality" />
		<tag k="ssr:stedsnr" v="235985" />
	</node>
	<node lat="58.57555277565005" lon="8.609380552228277" id="-32057">
		<tag k="name" v="Langemyrdalen" />
		<tag k="natural" v="valley" />
		<tag k="place" v="locality" />
		<tag k="ssr:stedsnr" v="235963" />
	</node>
	<node lat="58.52245833409106" lon="8.45918611225332" id="-32060">
		<tag k="fixme" v="consider natural=peak for the most distinct mountains in the district" />
		<tag k="name" v="Sundåsen" />
		<tag k="natural" v="hill" />
		<tag k="place" v="locality" />
		<tag k="ssr:stedsnr" v="49021" />
	</node>
	<node lat="58.62954166327943" lon="8.154830562308183" id="-32061">
		<tag k="name" v="Bjelkelagsdalen" />
		<tag k="natural" v="valley" />
		<tag k="place" v="locality" />
		<tag k="ssr:stedsnr" v="51018" />
	</node>
	<node lat="58.68318332895275" lon="8.071200005377298" id="-32067">
		<tag k="name" v="Børufsberga" />
		<tag k="natural" v="slope" />
		<tag k="place" v="locality" />
		<tag k="ssr:stedsnr" v="52069" />
	</node>
	<node lat="58.700344447587234" lon="7.977102776108301" id="-32072">
		<tag k="name" v="Myholafjellet" />
		<tag k="natural" v="hill" />
		<tag k="place" v="locality" />
		<tag k="ssr:stedsnr" v="51986" />
	</node>
	<node lat="58.693147221422485" lon="7.989380549036003" id="-32073">
		<tag k="fixme" v="consider natural=peak for the most distinct mountains in the district" />
		<tag k="name" v="Bjønnefjell" />
		<tag k="natural" v="hill" />
		<tag k="place" v="locality" />
		<tag k="ssr:stedsnr" v="51988" />
	</node>
	<node lat="58.644038889791304" lon="8.324727777923247" id="-32074">
		<tag k="name" v="Auestaddalen" />
		<tag k="natural" v="valley" />
		<tag k="place" v="locality" />
		<tag k="ssr:stedsnr" v="52128" />
	</node>
	<node lat="58.63321944615153" lon="8.637547223072717" id="-32075">
		<tag k="name" v="Tereleiken" />
		<tag k="natural" v="slope" />
		<tag k="place" v="locality" />
		<tag k="ssr:stedsnr" v="52501" />
	</node>
	<node lat="58.648436111556954" lon="8.281194437462934" id="-32079">
		<tag k="fixme" v="consider natural=peak for the most distinct mountains in the district" />
		<tag k="name" v="Ranevedhei" />
		<tag k="natural" v="hill" />
		<tag k="place" v="locality" />
		<tag k="ssr:stedsnr" v="52591" />
	</node>
	<node lat="58.67644444643917" lon="8.365366671209154" id="-32080">
		<tag k="name" v="Kroken" />
		<tag k="natural" v="valley" />
		<tag k="place" v="locality" />
		<tag k="ssr:stedsnr" v="52719" />
	</node>
	<node lat="58.66143055497063" lon="8.276452780257626" id="-32082">
		<tag k="name" v="Kleivane" />
		<tag k="natural" v="slope" />
		<tag k="place" v="locality" />
		<tag k="ssr:stedsnr" v="52610" />
	</node>
	<node lat="58.64603611349781" lon="8.542486119576237" id="-32085">
		<tag k="name" v="Espekjerrlia" />
		<tag k="natural" v="slope" />
		<tag k="place" v="locality" />
		<tag k="ssr:stedsnr" v="52627" />
	</node>
	<node lat="58.65196944420264" lon="8.519411112405113" id="-32090">
		<tag k="name" v="Grasholtheia" />
		<tag k="natural" v="hill" />
		<tag k="place" v="locality" />
		<tag k="ssr:stedsnr" v="52822" />
	</node>
	<node lat="58.569774996224375" lon="8.595905551546116" id="-32092">
		<tag k="fixme" v="consider natural=peak for the most distinct mountains in the district" />
		<tag k="name" v="Torsteinsmyrholta" />
		<tag k="natural" v="hill" />
		<tag k="place" v="locality" />
		<tag k="ssr:stedsnr" v="53104" />
	</node>
	<node lat="58.6083826352912" lon="8.46620461529713" id="-32094">
		<tag k="name" v="Kalvehagen" />
		<tag k="natural" v="slope" />
		<tag k="place" v="locality" />
		<tag k="ssr:stedsnr" v="53119" />
	</node>
	<node lat="58.67623333160335" lon="8.324255558800404" id="-32095">
		<tag k="name" v="Lisle Njuk" />
		<tag k="natural" v="hill" />
		<tag k="place" v="locality" />
		<tag k="ssr:stedsnr" v="52870" />
	</node>
	<node lat="58.57609722318029" lon="8.520572214103309" id="-32098">
		<tag k="fixme" v="consider natural=peak for the most distinct mountains in the district" />
		<tag k="name" v="Bronåsen" />
		<tag k="natural" v="hill" />
		<tag k="place" v="locality" />
		<tag k="ssr:stedsnr" v="53013" />
	</node>
	<node lat="58.62307500257293" lon="8.468427785478445" id="-32100">
		<tag k="name" v="Bortedalen" />
		<tag k="natural" v="valley" />
		<tag k="place" v="locality" />
		<tag k="ssr:stedsnr" v="53024" />
	</node>
	<node lat="58.619072219823096" lon="8.622441659325782" id="-32101">
		<tag k="name" v="Vestre Knutstølhei" />
		<tag k="natural" v="hill" />
		<tag k="place" v="locality" />
		<tag k="ssr:stedsnr" v="53213" />
	</node>
	<node lat="58.612441663453936" lon="8.625613893999592" id="-32102">
		<tag k="name" v="Heståsen" />
		<tag k="natural" v="hill" />
		<tag k="place" v="locality" />
		<tag k="ssr:stedsnr" v="53220" />
	</node>
	<node lat="58.60964444725863" lon="8.215300005726458" id="-32107">
		<tag k="name" v="Vestre Tveiteråsen" />
		<tag k="natural" v="hill" />
		<tag k="place" v="locality" />
		<tag k="ssr:stedsnr" v="53524" />
	</node>
	<node lat="58.541758330450726" lon="8.426600000306598" id="-32112">
		<tag k="name" v="Harehjell" />
		<tag k="natural" v="slope" />
		<tag k="place" v="locality" />
		<tag k="ssr:stedsnr" v="53474" />
	</node>
	<node lat="58.61609166287091" lon="8.425494448018348" id="-32113">
		<tag k="fixme" v="consider natural=peak for the most distinct mountains in the district" />
		<tag k="name" v="Rundemyråsen" />
		<tag k="natural" v="hill" />
		<tag k="place" v="locality" />
		<tag k="ssr:stedsnr" v="53482" />
	</node>
	<node lat="58.549141669383616" lon="8.484986106488703" id="-32115">
		<tag k="name" v="Grisehaugen" />
		<tag k="natural" v="hill" />
		<tag k="place" v="locality" />
		<tag k="ssr:stedsnr" v="53604" />
	</node>
	<node lat="58.66426666307251" lon="8.31159444867042" id="-32120">
		<tag k="name" v="Heimre Linddalen" />
		<tag k="natural" v="valley" />
		<tag k="place" v="locality" />
		<tag k="ssr:stedsnr" v="53683" />
	</node>
	<node lat="58.54874167058494" lon="8.621902772410303" id="-32121">
		<tag k="fixme" v="consider natural=peak for the most distinct mountains in the district" />
		<tag k="name" v="Langås" />
		<tag k="natural" v="hill" />
		<tag k="place" v="locality" />
		<tag k="ssr:stedsnr" v="53806" />
	</node>
	<node lat="58.67941111236885" lon="8.25367221636304" id="-32122">
		<tag k="name" v="Besterlia" />
		<tag k="natural" v="slope" />
		<tag k="place" v="locality" />
		<tag k="ssr:stedsnr" v="53809" />
	</node>
	<node lat="58.68007222590602" lon="8.242413886303355" id="-32124">
		<tag k="name" v="Brattekleiv" />
		<tag k="natural" v="slope" />
		<tag k="place" v="locality" />
		<tag k="ssr:stedsnr" v="53813" />
	</node>
	<node lat="58.68302499752245" lon="8.235919445522121" id="-32125">
		<tag k="name" v="Røyneli" />
		<tag k="natural" v="slope" />
		<tag k="place" v="locality" />
		<tag k="ssr:stedsnr" v="53816" />
	</node>
	<node lat="58.544069444209605" lon="8.642788883885862" id="-32126">
		<tag k="name" v="Sandeheia" />
		<tag k="natural" v="hill" />
		<tag k="place" v="locality" />
		<tag k="ssr:stedsnr" v="53821" />
	</node>
	<node lat="58.66045833606884" lon="8.013133341851102" id="-32132">
		<tag k="fixme" v="consider natural=peak for the most distinct mountains in the district" />
		<tag k="name" v="Brennesfjellet" />
		<tag k="natural" v="hill" />
		<tag k="place" v="locality" />
		<tag k="ssr:stedsnr" v="61491" />
	</node>
	<node lat="58.549422218608726" lon="8.520341673527227" id="-32135">
		<tag k="fixme" v="consider natural=peak for the most distinct mountains in the district" />
		<tag k="name" v="Fjellmannsåsen" />
		<tag k="natural" v="hill" />
		<tag k="place" v="locality" />
		<tag k="ssr:stedsnr" v="61626" />
	</node>
	<node lat="58.576866670142266" lon="8.489822219180938" id="-32138">
		<tag k="name" v="Kinnfokknapen" />
		<tag k="natural" v="hill" />
		<tag k="place" v="locality" />
		<tag k="ssr:stedsnr" v="61807" />
	</node>
	<node lat="58.70871388965095" lon="8.198555552377508" id="-32149">
		<tag k="alt_name" v="Tveidalsheia" />
		<tag k="fixme" v="consider natural=peak for the most distinct mountains in the district" />
		<tag k="name" v="Tveitedalsheia" />
		<tag k="natural" v="hill" />
		<tag k="place" v="locality" />
		<tag k="ssr:stedsnr" v="62482" />
	</node>
	<node lat="58.656366667498034" lon="8.495886113630997" id="-32153">
		<tag k="fixme" v="consider natural=peak for the most distinct mountains in the district" />
		<tag k="name" v="Svartvassåsen" />
		<tag k="natural" v="hill" />
		<tag k="place" v="locality" />
		<tag k="ssr:stedsnr" v="62984" />
	</node>
	<node lat="58.52886111298475" lon="8.419336116715883" id="-32155">
		<tag k="fixme" v="consider natural=peak for the most distinct mountains in the district" />
		<tag k="name" v="Øynaheia" />
		<tag k="natural" v="hill" />
		<tag k="place" v="locality" />
		<tag k="ssr:stedsnr" v="243024" />
	</node>
	<node lat="58.596466665326076" lon="8.249716674436202" id="-32158">
		<tag k="name" v="Kittilsdalen" />
		<tag k="natural" v="valley" />
		<tag k="place" v="locality" />
		<tag k="ssr:stedsnr" v="243152" />
	</node>
	<node lat="58.66501944860907" lon="8.233886116752682" id="-32160">
		<tag k="fixme" v="multiple name tags, choose one and add the other to alt_name; consider natural=peak for the most distinct mountains in the district" />
		<tag k="name" v="Vestheia;Rakketjønnåsen" />
		<tag k="natural" v="hill" />
		<tag k="place" v="locality" />
		<tag k="ssr:stedsnr" v="243285" />
	</node>
	<node lat="58.47804722643991" lon="8.436350007796682" id="-32164">
		<tag k="alt_name" v="Storrheia" />
		<tag k="fixme" v="consider natural=peak for the most distinct mountains in the district" />
		<tag k="name" v="Sorrhei" />
		<tag k="natural" v="hill" />
		<tag k="place" v="locality" />
		<tag k="ssr:stedsnr" v="243454" />
	</node>
	<node lat="58.65622222335359" lon="8.036177771970111" id="-32165">
		<tag k="alt_name" v="Midtsølliane" />
		<tag k="name" v="Midtsøliane" />
		<tag k="natural" v="slope" />
		<tag k="place" v="locality" />
		<tag k="ssr:stedsnr" v="243526" />
	</node>
	<node lat="58.53265000442068" lon="8.524991669010804" id="-32169">
		<tag k="alt_name" v="Fjelltjernsheia" />
		<tag k="name" v="Fjelltjennheia" />
		<tag k="natural" v="hill" />
		<tag k="place" v="locality" />
		<tag k="ssr:stedsnr" v="243699" />
	</node>
	<node lat="58.48430000037806" lon="8.560061102584891" id="-32170">
		<tag k="fixme" v="consider natural=peak for the most distinct mountains in the district" />
		<tag k="name" v="Auglandsheia" />
		<tag k="natural" v="hill" />
		<tag k="place" v="locality" />
		<tag k="ssr:stedsnr" v="243701" />
	</node>
	<node lat="58.6128277805449" lon="8.601466659937417" id="-32173">
		<tag k="fixme" v="consider natural=peak for the most distinct mountains in the district" />
		<tag k="name" v="Skraderåsen" />
		<tag k="natural" v="hill" />
		<tag k="place" v="locality" />
		<tag k="ssr:stedsnr" v="243806" />
	</node>
	<node lat="58.66966388815055" lon="8.50891944637545" id="-32175">
		<tag k="fixme" v="multiple name tags, choose one and add the other to alt_name; consider natural=peak for the most distinct mountains in the district" />
		<tag k="name" v="Morkeliknuten;Mørkeliknatten" />
		<tag k="natural" v="hill" />
		<tag k="place" v="locality" />
		<tag k="ssr:stedsnr" v="243913" />
	</node>
	<node lat="58.62798333769399" lon="8.339663886490545" id="-32181">
		<tag k="name" v="Åsane" />
		<tag k="natural" v="hill" />
		<tag k="place" v="locality" />
		<tag k="ssr:stedsnr" v="244373" />
	</node>
	<node lat="58.69894166300609" lon="8.256716671651521" id="-32183">
		<tag k="fixme" v="multiple name tags, choose one and add the other to alt_name; consider natural=peak for the most distinct mountains in the district" />
		<tag k="name" v="Braneheia;Brunnehei" />
		<tag k="natural" v="hill" />
		<tag k="place" v="locality" />
		<tag k="ssr:stedsnr" v="244473" />
	</node>
	<node lat="58.56829166835026" lon="8.656094452131391" id="-32186">
		<tag k="alt_name" v="Hestetjernsheia" />
		<tag k="name" v="Hestetjønnåsen" />
		<tag k="natural" v="hill" />
		<tag k="place" v="locality" />
		<tag k="ssr:stedsnr" v="244864" />
	</node>
	<node lat="58.63862499988196" lon="8.57679722866468" id="-32187">
		<tag k="fixme" v="consider natural=peak for the most distinct mountains in the district" />
		<tag k="name" v="Skipåsen" />
		<tag k="natural" v="hill" />
		<tag k="place" v="locality" />
		<tag k="ssr:stedsnr" v="244970" />
	</node>
	<node lat="58.53484444766855" lon="8.68674721475134" id="-32192">
		<tag k="name" v="Øygardsdalen" />
		<tag k="natural" v="valley" />
		<tag k="place" v="locality" />
		<tag k="ssr:stedsnr" v="94062" />
	</node>
	<node lat="58.493472226163874" lon="8.61053056198415" id="-32194">
		<tag k="name" v="Svinevikheia" />
		<tag k="natural" v="hill" />
		<tag k="place" v="locality" />
		<tag k="ssr:stedsnr" v="94071" />
	</node>
	<node lat="58.56457777498065" lon="8.706225003558155" id="-32199">
		<tag k="fixme" v="consider natural=peak for the most distinct mountains in the district" />
		<tag k="name" v="Bjørnåsen" />
		<tag k="natural" v="hill" />
		<tag k="place" v="locality" />
		<tag k="ssr:stedsnr" v="94179" />
	</node>
	<node lat="58.59778611038758" lon="8.679536117510393" id="-32202">
		<tag k="name" v="Øygardskleivene" />
		<tag k="natural" v="slope" />
		<tag k="place" v="locality" />
		<tag k="ssr:stedsnr" v="94216" />
	</node>
	<node lat="58.474219444707174" lon="8.569802773910283" id="-32203">
		<tag k="name" v="Haukedalen" />
		<tag k="natural" v="valley" />
		<tag k="place" v="locality" />
		<tag k="ssr:stedsnr" v="94302" />
	</node>
	<node lat="58.576080555527376" lon="8.718013881597345" id="-32204">
		<tag k="fixme" v="consider natural=peak for the most distinct mountains in the district" />
		<tag k="name" v="Bøylestadåsen" />
		<tag k="natural" v="hill" />
		<tag k="place" v="locality" />
		<tag k="ssr:stedsnr" v="94391" />
	</node>
	<node lat="58.58177777825349" lon="8.716591658397682" id="-32205">
		<tag k="fixme" v="consider natural=peak for the most distinct mountains in the district" />
		<tag k="name" v="Buåsen" />
		<tag k="natural" v="hill" />
		<tag k="place" v="locality" />
		<tag k="ssr:stedsnr" v="94393" />
	</node>
	<node lat="58.511380559952286" lon="8.597705555955653" id="-32208">
		<tag k="name" v="Guren" />
		<tag k="natural" v="ridge" />
		<tag k="place" v="locality" />
		<tag k="ssr:stedsnr" v="95161" />
	</node>
	<node lat="58.50616944543945" lon="8.653694447036528" id="-32209">
		<tag k="name" v="Heståsen" />
		<tag k="natural" v="hill" />
		<tag k="place" v="locality" />
		<tag k="ssr:stedsnr" v="95166" />
	</node>
	<node lat="58.50240000118876" lon="8.632891670495635" id="-32210">
		<tag k="fixme" v="consider natural=peak for the most distinct mountains in the district" />
		<tag k="name" v="Stiåsen" />
		<tag k="natural" v="hill" />
		<tag k="place" v="locality" />
		<tag k="ssr:stedsnr" v="95175" />
	</node>
	<node lat="58.45831389279746" lon="8.54820277532283" id="-32212">
		<tag k="name" v="Midtbakken" />
		<tag k="natural" v="hill" />
		<tag k="place" v="locality" />
		<tag k="ssr:stedsnr" v="110920" />
	</node>
	<node lat="58.691622221027" lon="8.264680560550541" id="-32217">
		<tag k="name" v="Blomrusdal" />
		<tag k="natural" v="valley" />
		<tag k="place" v="locality" />
		<tag k="ssr:stedsnr" v="112721" />
	</node>
	<node lat="58.6167555551242" lon="8.539205548293046" id="-32220">
		<tag k="name" v="Vedalen" />
		<tag k="natural" v="valley" />
		<tag k="place" v="locality" />
		<tag k="ssr:stedsnr" v="113126" />
	</node>
	<node lat="58.6210694468406" lon="8.588394446138025" id="-32221">
		<tag k="name" v="Smidalen" />
		<tag k="natural" v="valley" />
		<tag k="place" v="locality" />
		<tag k="ssr:stedsnr" v="113170" />
	</node>
	<node lat="58.678382246606" lon="7.978077862795835" id="-32222">
		<tag k="name" v="Ospelia" />
		<tag k="natural" v="slope" />
		<tag k="place" v="locality" />
		<tag k="ssr:stedsnr" v="113180" />
	</node>
	<node lat="58.60842499763504" lon="8.573150004791934" id="-32223">
		<tag k="name" v="Åsene" />
		<tag k="natural" v="hill" />
		<tag k="place" v="locality" />
		<tag k="ssr:stedsnr" v="113182" />
	</node>
	<node lat="58.57736944056468" lon="8.483741670613826" id="-32226">
		<tag k="name" v="Kyrehei" />
		<tag k="natural" v="hill" />
		<tag k="place" v="locality" />
		<tag k="ssr:stedsnr" v="113208" />
	</node>
	<node lat="58.63434444108736" lon="8.612127780787434" id="-32227">
		<tag k="name" v="Øygarden" />
		<tag k="natural" v="slope" />
		<tag k="place" v="locality" />
		<tag k="ssr:stedsnr" v="113504" />
	</node>
	<node lat="58.65839166230441" lon="8.207752778428993" id="-32234">
		<tag k="name" v="Budalslia" />
		<tag k="natural" v="slope" />
		<tag k="place" v="locality" />
		<tag k="ssr:stedsnr" v="113534" />
	</node>
	<node lat="58.62674722145821" lon="8.612336115413962" id="-32235">
		<tag k="fixme" v="consider natural=peak for the most distinct mountains in the district" />
		<tag k="name" v="Kalven" />
		<tag k="natural" v="hill" />
		<tag k="place" v="locality" />
		<tag k="ssr:stedsnr" v="113535" />
	</node>
	<node lat="58.6558333303001" lon="8.209250003758914" id="-32236">
		<tag k="fixme" v="consider natural=peak for the most distinct mountains in the district" />
		<tag k="name" v="Tårendalsfjellet" />
		<tag k="natural" v="hill" />
		<tag k="place" v="locality" />
		<tag k="ssr:stedsnr" v="113537" />
	</node>
	<node lat="58.62060833518517" lon="8.232316666052709" id="-32237">
		<tag k="name" v="Heggedalen" />
		<tag k="natural" v="valley" />
		<tag k="place" v="locality" />
		<tag k="ssr:stedsnr" v="113538" />
	</node>
	<node lat="58.68834166997942" lon="8.11598611647584" id="-32238">
		<tag k="name" v="Spesiedalsfjellet" />
		<tag k="natural" v="ridge" />
		<tag k="place" v="locality" />
		<tag k="ssr:stedsnr" v="113541" />
	</node>
	<node lat="58.683922218431995" lon="8.172225000467284" id="-32242">
		<tag k="name" v="Ånondalen" />
		<tag k="natural" v="valley" />
		<tag k="place" v="locality" />
		<tag k="ssr:stedsnr" v="113592" />
	</node>
	<node lat="58.66213611064823" lon="8.237352769760653" id="-32243">
		<tag k="name" v="Dritarkleiv" />
		<tag k="natural" v="slope" />
		<tag k="place" v="locality" />
		<tag k="ssr:stedsnr" v="113704" />
	</node>
	<node lat="58.66642222523787" lon="8.299527773790407" id="-32244">
		<tag k="name" v="Øygårdsdalane" />
		<tag k="natural" v="valley" />
		<tag k="place" v="locality" />
		<tag k="ssr:stedsnr" v="113618" />
	</node>
	<node lat="58.66129999972369" lon="8.318630554175371" id="-32245">
		<tag k="name" v="Steinringen" />
		<tag k="place" v="locality" />
		<tag k="ssr:stedsnr" v="113624" />
	</node>
	<node lat="58.64887499657126" lon="8.260491660321948" id="-32246">
		<tag k="name" v="Svaleskjoldalen" />
		<tag k="natural" v="valley" />
		<tag k="place" v="locality" />
		<tag k="ssr:stedsnr" v="113631" />
	</node>
	<node lat="58.635449999636315" lon="8.082219439857862" id="-32252">
		<tag k="name" v="Frydenborg" />
		<tag k="natural" v="valley" />
		<tag k="place" v="locality" />
		<tag k="ssr:stedsnr" v="113772" />
	</node>
	<node lat="58.64148889015341" lon="8.645699999756312" id="-32253">
		<tag k="name" v="Lyngmyrknatten" />
		<tag k="natural" v="ridge" />
		<tag k="place" v="locality" />
		<tag k="ssr:stedsnr" v="113941" />
	</node>
	<node lat="58.65608333351043" lon="8.098872216150866" id="-32254">
		<tag k="name" v="Skodd-dalen" />
		<tag k="natural" v="valley" />
		<tag k="place" v="locality" />
		<tag k="ssr:stedsnr" v="113972" />
	</node>
	<node lat="58.6572944413614" lon="8.05792778529584" id="-32257">
		<tag k="fixme" v="consider natural=peak for the most distinct mountains in the district" />
		<tag k="name" v="Bruåsen" />
		<tag k="natural" v="hill" />
		<tag k="place" v="locality" />
		<tag k="ssr:stedsnr" v="113980" />
	</node>
	<node lat="58.58009999617697" lon="8.579169447762892" id="-32258">
		<tag k="name" v="Trålstøl" />
		<tag k="natural" v="valley" />
		<tag k="place" v="locality" />
		<tag k="ssr:stedsnr" v="114105" />
	</node>
	<node lat="58.577022226510024" lon="8.312077781898765" id="-32259">
		<tag k="name" v="Svensholer" />
		<tag k="natural" v="valley" />
		<tag k="place" v="locality" />
		<tag k="ssr:stedsnr" v="114326" />
	</node>
	<node lat="58.610719441095746" lon="8.624483332334144" id="-32260">
		<tag k="name" v="Halvvegskleiv" />
		<tag k="natural" v="slope" />
		<tag k="place" v="locality" />
		<tag k="ssr:stedsnr" v="114211" />
	</node>
	<node lat="58.610549996004416" lon="8.220733329705398" id="-32262">
		<tag k="name" v="Lille Tveitdalen" />
		<tag k="natural" v="valley" />
		<tag k="place" v="locality" />
		<tag k="ssr:stedsnr" v="114532" />
	</node>
	<node lat="58.54915833260578" lon="8.557019441406158" id="-32263">
		<tag k="name" v="Grunnevatsfjell" />
		<tag k="natural" v="hill" />
		<tag k="place" v="locality" />
		<tag k="ssr:stedsnr" v="114704" />
	</node>
	<node lat="58.54631388744102" lon="8.58140833695731" id="-32264">
		<tag k="name" v="Heftehalsen" />
		<tag k="natural" v="ridge" />
		<tag k="place" v="locality" />
		<tag k="ssr:stedsnr" v="114721" />
	</node>
	<node lat="58.560622219171194" lon="8.499913883998149" id="-32267">
		<tag k="name" v="Heggdalen" />
		<tag k="natural" v="valley" />
		<tag k="place" v="locality" />
		<tag k="ssr:stedsnr" v="114691" />
	</node>
	<node lat="58.546586107250974" lon="8.733127778736542" id="-32282">
		<tag k="fixme" v="consider natural=peak for the most distinct mountains in the district" />
		<tag k="name" v="Moltetjennheia" />
		<tag k="natural" v="hill" />
		<tag k="place" v="locality" />
		<tag k="ssr:stedsnr" v="155297" />
	</node>
	<node lat="58.521058328949906" lon="8.631908337010806" id="-32283">
		<tag k="name" v="Liheia" />
		<tag k="natural" v="hill" />
		<tag k="place" v="locality" />
		<tag k="ssr:stedsnr" v="155201" />
	</node>
	<node lat="58.58938332941769" lon="8.718119446668263" id="-32286">
		<tag k="fixme" v="consider natural=peak for the most distinct mountains in the district" />
		<tag k="name" v="Hviteberget" />
		<tag k="natural" v="hill" />
		<tag k="place" v="locality" />
		<tag k="ssr:stedsnr" v="155328" />
	</node>
	<node lat="58.46989444266724" lon="8.591391665175498" id="-32294">
		<tag k="fixme" v="consider natural=peak for the most distinct mountains in the district" />
		<tag k="name" v="Forklæåsen" />
		<tag k="natural" v="hill" />
		<tag k="place" v="locality" />
		<tag k="ssr:stedsnr" v="171903" />
	</node>
	<node lat="58.686958337587505" lon="8.342219452027784" id="-32298">
		<tag k="name" v="Brattstelia" />
		<tag k="natural" v="slope" />
		<tag k="place" v="locality" />
		<tag k="ssr:stedsnr" v="172660" />
	</node>
	<node lat="58.70613888588518" lon="7.9868166661968605" id="-32299">
		<tag k="name" v="Den grøne lia" />
		<tag k="natural" v="slope" />
		<tag k="place" v="locality" />
		<tag k="ssr:stedsnr" v="172958" />
	</node>
	<node lat="58.67344721999461" lon="8.000308326315096" id="-32300">
		<tag k="name" v="Øygardsdalen" />
		<tag k="natural" v="valley" />
		<tag k="place" v="locality" />
		<tag k="ssr:stedsnr" v="173073" />
	</node>
	<node lat="58.63793611193057" lon="8.186680561172928" id="-32301">
		<tag k="name" v="Raunedalen" />
		<tag k="natural" v="valley" />
		<tag k="place" v="locality" />
		<tag k="ssr:stedsnr" v="173205" />
	</node>
	<node lat="58.586277776205634" lon="8.502161113546622" id="-32305">
		<tag k="name" v="Massælia" />
		<tag k="natural" v="slope" />
		<tag k="place" v="locality" />
		<tag k="ssr:stedsnr" v="173361" />
	</node>
	<node lat="58.61484722167573" lon="8.225358340880424" id="-32306">
		<tag k="fixme" v="consider natural=peak for the most distinct mountains in the district" />
		<tag k="name" v="Austre Tveiteråsen" />
		<tag k="natural" v="hill" />
		<tag k="place" v="locality" />
		<tag k="ssr:stedsnr" v="173609" />
	</node>
	<node lat="58.651791662635326" lon="8.249955562841146" id="-32312">
		<tag k="name" v="Brønnartrona" />
		<tag k="place" v="locality" />
		<tag k="ssr:stedsnr" v="173711" />
	</node>
	<node lat="58.67137777332498" lon="8.265302769971541" id="-32315">
		<tag k="name" v="Knivste" />
		<tag k="place" v="locality" />
		<tag k="ssr:stedsnr" v="173803" />
	</node>
	<node lat="58.689461110382304" lon="8.278016660632755" id="-32316">
		<tag k="name" v="Smådalane" />
		<tag k="natural" v="valley" />
		<tag k="place" v="locality" />
		<tag k="ssr:stedsnr" v="173814" />
	</node>
	<node lat="58.62869444421912" lon="8.56845278635174" id="-32318">
		<tag k="fixme" v="consider natural=peak for the most distinct mountains in the district" />
		<tag k="name" v="Uvassåsen" />
		<tag k="natural" v="hill" />
		<tag k="place" v="locality" />
		<tag k="ssr:stedsnr" v="174016" />
	</node>
	<node lat="58.6189750002821" lon="8.463874993769055" id="-32319">
		<tag k="name" v="Vassbrekkåsen" />
		<tag k="natural" v="hill" />
		<tag k="place" v="locality" />
		<tag k="ssr:stedsnr" v="174027" />
	</node>
	<node lat="58.57479722159108" lon="8.563244452639651" id="-32321">
		<tag k="fixme" v="consider natural=peak for the most distinct mountains in the district" />
		<tag k="name" v="Mofellåsen" />
		<tag k="natural" v="hill" />
		<tag k="place" v="locality" />
		<tag k="ssr:stedsnr" v="174133" />
	</node>
	<node lat="58.56095000249255" lon="8.284347230488844" id="-32323">
		<tag k="name" v="Tonesdal" />
		<tag k="natural" v="valley" />
		<tag k="place" v="locality" />
		<tag k="ssr:stedsnr" v="174151" />
	</node>
	<node lat="58.55197499880207" lon="8.285919451136973" id="-32325">
		<tag k="name" v="Svobekkdalen" />
		<tag k="natural" v="valley" />
		<tag k="place" v="locality" />
		<tag k="ssr:stedsnr" v="174217" />
	</node>
	<node lat="58.61869166530117" lon="8.31993888260428" id="-32327">
		<tag k="name" v="Småmyrrinnen" />
		<tag k="natural" v="ridge" />
		<tag k="place" v="locality" />
		<tag k="ssr:stedsnr" v="174311" />
	</node>
	<node lat="58.56935555746787" lon="8.231480560740449" id="-32330">
		<tag k="name" v="Tretjønnheia" />
		<tag k="natural" v="hill" />
		<tag k="place" v="locality" />
		<tag k="ssr:stedsnr" v="174325" />
	</node>
	<node lat="58.575477777687745" lon="8.312802778546958" id="-32331">
		<tag k="name" v="Skarvdalen" />
		<tag k="natural" v="valley" />
		<tag k="place" v="locality" />
		<tag k="ssr:stedsnr" v="174358" />
	</node>
	<node lat="58.68483333005868" lon="8.154391658353827" id="-32335">
		<tag k="name" v="Nedre Halseknuten" />
		<tag k="natural" v="hill" />
		<tag k="place" v="locality" />
		<tag k="ssr:stedsnr" v="174606" />
	</node>
	<node lat="58.55131389187688" lon="8.487566662293881" id="-32336">
		<tag k="name" v="Grisehaugheia" />
		<tag k="natural" v="hill" />
		<tag k="place" v="locality" />
		<tag k="ssr:stedsnr" v="174613" />
	</node>
	<node lat="58.648433330460094" lon="8.276872223070464" id="-32339">
		<tag k="name" v="Raneveddalen" />
		<tag k="natural" v="valley" />
		<tag k="place" v="locality" />
		<tag k="ssr:stedsnr" v="174660" />
	</node>
	<node lat="58.651825003852636" lon="8.288091662103925" id="-32340">
		<tag k="name" v="Sledetjønndalen" />
		<tag k="natural" v="valley" />
		<tag k="place" v="locality" />
		<tag k="ssr:stedsnr" v="174663" />
	</node>
	<node lat="58.65748610775327" lon="8.304355548417691" id="-32342">
		<tag k="name" v="Storslåttheia" />
		<tag k="natural" v="hill" />
		<tag k="place" v="locality" />
		<tag k="ssr:stedsnr" v="174675" />
	</node>
	<node lat="58.54131944389233" lon="8.605694436994222" id="-32343">
		<tag k="fixme" v="consider natural=peak for the most distinct mountains in the district" />
		<tag k="name" v="Mørkås" />
		<tag k="natural" v="hill" />
		<tag k="place" v="locality" />
		<tag k="ssr:stedsnr" v="174807" />
	</node>
	<node lat="58.54893055870418" lon="8.616355555208232" id="-32344">
		<tag k="name" v="Heståshella" />
		<tag k="place" v="locality" />
		<tag k="ssr:stedsnr" v="174816" />
	</node>
	<node lat="58.59000000239138" lon="8.436505549860076" id="-32347">
		<tag k="name" v="Lia" />
		<tag k="natural" v="slope" />
		<tag k="place" v="locality" />
		<tag k="ssr:stedsnr" v="174766" />
	</node>
	<node lat="58.59870000017296" lon="8.437533331613725" id="-32348">
		<tag k="name" v="Haukedalsfjellet" />
		<tag k="natural" v="hill" />
		<tag k="place" v="locality" />
		<tag k="ssr:stedsnr" v="174775" />
	</node>
	<node lat="58.53281666798064" lon="8.449222218801733" id="-32352">
		<tag k="fixme" v="consider natural=peak for the most distinct mountains in the district" />
		<tag k="name" v="Viemyråsen" />
		<tag k="natural" v="hill" />
		<tag k="place" v="locality" />
		<tag k="ssr:stedsnr" v="182202" />
	</node>
	<node lat="58.68347778161635" lon="8.24914444774546" id="-32354">
		<tag k="alt_name" v="Sveisdalen" />
		<tag k="name" v="Sveisdal" />
		<tag k="natural" v="valley" />
		<tag k="place" v="locality" />
		<tag k="ssr:stedsnr" v="182441" />
	</node>
	<node lat="58.64153055749739" lon="8.024033329936053" id="-32362">
		<tag k="fixme" v="consider natural=peak for the most distinct mountains in the district" />
		<tag k="name" v="Hidalsheia" />
		<tag k="natural" v="hill" />
		<tag k="place" v="locality" />
		<tag k="ssr:stedsnr" v="183520" />
	</node>
	<node lat="58.63928611448678" lon="8.482349995511555" id="-32369">
		<tag k="fixme" v="consider natural=peak for the most distinct mountains in the district" />
		<tag k="name" v="Oksåsen" />
		<tag k="natural" v="hill" />
		<tag k="place" v="locality" />
		<tag k="ssr:stedsnr" v="183997" />
	</node>
	<node lat="58.65078055984215" lon="8.636638891655565" id="-32372">
		<tag k="name" v="Øyråsliene" />
		<tag k="natural" v="slope" />
		<tag k="place" v="locality" />
		<tag k="ssr:stedsnr" v="199862" />
	</node>
	<node lat="58.48755000096402" lon="8.644783340707876" id="-32389">
		<tag k="fixme" v="consider natural=peak for the most distinct mountains in the district" />
		<tag k="name" v="Tonjeshei" />
		<tag k="natural" v="hill" />
		<tag k="place" v="locality" />
		<tag k="ssr:stedsnr" v="216192" />
	</node>
	<node lat="58.61654166631985" lon="8.66250277942122" id="-32390">
		<tag k="alt_name" v="Enkerkjerrheia" />
		<tag k="name" v="Enkerskjerrheia" />
		<tag k="natural" v="ridge" />
		<tag k="place" v="locality" />
		<tag k="ssr:stedsnr" v="216303" />
	</node>
	<node lat="58.61108333090725" lon="8.68344999931004" id="-32391">
		<tag k="name" v="Maurdalskollen" />
		<tag k="natural" v="hill" />
		<tag k="place" v="locality" />
		<tag k="ssr:stedsnr" v="216308" />
	</node>
	<node lat="58.52517500419683" lon="8.640872224961667" id="-32392">
		<tag k="fixme" v="consider natural=peak for the most distinct mountains in the district" />
		<tag k="name" v="Menstadknatten" />
		<tag k="natural" v="hill" />
		<tag k="place" v="locality" />
		<tag k="ssr:stedsnr" v="277181" />
	</node>
	<node lat="58.497838885906575" lon="8.426344452275261" id="-32393">
		<tag k="fixme" v="consider natural=peak for the most distinct mountains in the district" />
		<tag k="name" v="Hampeheia" />
		<tag k="natural" v="hill" />
		<tag k="place" v="locality" />
		<tag k="ssr:stedsnr" v="231139" />
	</node>
	<node lat="58.50180833362483" lon="8.476502779105127" id="-32395">
		<tag k="name" v="Venelidalen" />
		<tag k="natural" v="valley" />
		<tag k="place" v="locality" />
		<tag k="ssr:stedsnr" v="231436" />
	</node>
	<node lat="58.470486112148635" lon="8.575627779032002" id="-32396">
		<tag k="fixme" v="consider natural=peak for the most distinct mountains in the district" />
		<tag k="name" v="Tiurleiken" />
		<tag k="natural" v="hill" />
		<tag k="place" v="locality" />
		<tag k="ssr:stedsnr" v="231903" />
	</node>
	<node lat="58.49131388786973" lon="8.52616666425694" id="-32398">
		<tag k="name" v="Gruvedalen" />
		<tag k="natural" v="valley" />
		<tag k="place" v="locality" />
		<tag k="ssr:stedsnr" v="231936" />
	</node>
	<node lat="58.46707222127259" lon="8.550727774104617" id="-32399">
		<tag k="fixme" v="consider natural=peak for the most distinct mountains in the district" />
		<tag k="name" v="Lauvåsen" />
		<tag k="natural" v="hill" />
		<tag k="place" v="locality" />
		<tag k="ssr:stedsnr" v="231882" />
	</node>
	<node lat="58.63661111150394" lon="8.243627779080196" id="-32402">
		<tag k="name" v="Gangdalen" />
		<tag k="natural" v="valley" />
		<tag k="place" v="locality" />
		<tag k="ssr:stedsnr" v="233204" />
	</node>
	<node lat="58.6990805535757" lon="8.135305563897578" id="-32406">
		<tag k="name" v="Indre Verdalen" />
		<tag k="natural" v="valley" />
		<tag k="place" v="locality" />
		<tag k="ssr:stedsnr" v="233890" />
	</node>
	<node lat="58.692911112983936" lon="8.095755556516163" id="-32407">
		<tag k="name" v="Austre Befjellskar" />
		<tag k="natural" v="valley" />
		<tag k="place" v="locality" />
		<tag k="ssr:stedsnr" v="233894" />
	</node>
	<node lat="58.62293888562789" lon="8.540869437236383" id="-32410">
		<tag k="name" v="Søndredal" />
		<tag k="natural" v="valley" />
		<tag k="place" v="locality" />
		<tag k="ssr:stedsnr" v="234133" />
	</node>
	<node lat="58.63572778016124" lon="8.328616658383837" id="-32412">
		<tag k="name" v="Kråkeli" />
		<tag k="natural" v="slope" />
		<tag k="place" v="locality" />
		<tag k="ssr:stedsnr" v="234138" />
	</node>
	<node lat="58.58616111216555" lon="8.544644442937992" id="-32416">
		<tag k="name" v="Teresknipen" />
		<tag k="natural" v="hill" />
		<tag k="place" v="locality" />
		<tag k="ssr:stedsnr" v="234389" />
	</node>
	<node lat="58.66276666772823" lon="8.210816667478333" id="-32419">
		<tag k="name" v="Kjørkefjellet" />
		<tag k="natural" v="cliff" />
		<tag k="ssr:stedsnr" v="234535" />
	</node>
	<node lat="58.67348889096767" lon="8.127113891619238" id="-32420">
		<tag k="name" v="Nordlifjellet" />
		<tag k="natural" v="cliff" />
		<tag k="ssr:stedsnr" v="234603" />
	</node>
	<node lat="58.62221110980503" lon="8.221191663759656" id="-32421">
		<tag k="name" v="Vinterdalen" />
		<tag k="natural" v="valley" />
		<tag k="place" v="locality" />
		<tag k="ssr:stedsnr" v="234606" />
	</node>
	<node lat="58.64779722282675" lon="8.383744448191761" id="-32426">
		<tag k="name" v="Straumdal" />
		<tag k="natural" v="valley" />
		<tag k="place" v="locality" />
		<tag k="ssr:stedsnr" v="234686" />
	</node>
	<node lat="58.66404166745085" lon="8.022952771907834" id="-32427">
		<tag k="fixme" v="consider natural=peak for the most distinct mountains in the district" />
		<tag k="name" v="Rusteheia" />
		<tag k="natural" v="hill" />
		<tag k="place" v="locality" />
		<tag k="ssr:stedsnr" v="234688" />
	</node>
	<node lat="58.662741663425436" lon="8.352641660487846" id="-32428">
		<tag k="name" v="Langemyrlia" />
		<tag k="natural" v="slope" />
		<tag k="place" v="locality" />
		<tag k="ssr:stedsnr" v="234696" />
	</node>
	<node lat="58.66173888784041" lon="8.25117500227626" id="-32429">
		<tag k="name" v="Byttingstea" />
		<tag k="place" v="locality" />
		<tag k="ssr:stedsnr" v="234697" />
	</node>
	<node lat="58.6622861094728" lon="8.259494452183873" id="-32430">
		<tag k="name" v="Voneberga" />
		<tag k="natural" v="hill" />
		<tag k="place" v="locality" />
		<tag k="ssr:stedsnr" v="234701" />
	</node>
	<node lat="58.64460278069259" lon="8.095900002329158" id="-32432">
		<tag k="name" v="Frobekkskreane" />
		<tag k="natural" v="slope" />
		<tag k="place" v="locality" />
		<tag k="ssr:stedsnr" v="234781" />
	</node>
	<node lat="58.58211388815519" lon="8.511483332254913" id="-32436">
		<tag k="name" v="Farebrekka" />
		<tag k="natural" v="slope" />
		<tag k="place" v="locality" />
		<tag k="ssr:stedsnr" v="235005" />
	</node>
	<node lat="58.534208330849935" lon="8.258313896760454" id="-32439">
		<tag k="name" v="Den breie bakken" />
		<tag k="natural" v="hill" />
		<tag k="place" v="locality" />
		<tag k="ssr:stedsnr" v="235232" />
	</node>
	<node lat="58.554861109349446" lon="8.259630548431746" id="-32442">
		<tag k="name" v="Kjørkeheia" />
		<tag k="natural" v="hill" />
		<tag k="place" v="locality" />
		<tag k="ssr:stedsnr" v="235187" />
	</node>
	<node lat="58.581022220934884" lon="8.31965000643383" id="-32444">
		<tag k="name" v="Tolleifsholer" />
		<tag k="natural" v="valley" />
		<tag k="place" v="locality" />
		<tag k="ssr:stedsnr" v="235339" />
	</node>
	<node lat="58.61444999760729" lon="8.325813894181259" id="-32446">
		<tag k="name" v="Øyvassfjellet" />
		<tag k="natural" v="cliff" />
		<tag k="ssr:stedsnr" v="235261" />
	</node>
	<node lat="58.566877777209314" lon="8.256613882836648" id="-32449">
		<tag k="name" v="Hundstjønnliane" />
		<tag k="natural" v="slope" />
		<tag k="place" v="locality" />
		<tag k="ssr:stedsnr" v="235291" />
	</node>
	<node lat="58.59949166701466" lon="8.650208337528452" id="-32455">
		<tag k="name" v="Songdalen" />
		<tag k="natural" v="valley" />
		<tag k="place" v="locality" />
		<tag k="ssr:stedsnr" v="235495" />
	</node>
	<node lat="58.61175277574945" lon="8.438533329120288" id="-32456">
		<tag k="name" v="Hokkfjell" />
		<tag k="natural" v="cliff" />
		<tag k="old_name" v="Hokkflell" />
		<tag k="ssr:stedsnr" v="235502" />
	</node>
	<node lat="58.60890278009905" lon="8.211897222893283" id="-32457">
		<tag k="name" v="Revedalen" />
		<tag k="natural" v="valley" />
		<tag k="place" v="locality" />
		<tag k="ssr:stedsnr" v="235545" />
	</node>
	<node lat="58.624333337546645" lon="8.210769436566148" id="-32459">
		<tag k="name" v="Olveskleiv" />
		<tag k="natural" v="slope" />
		<tag k="place" v="locality" />
		<tag k="ssr:stedsnr" v="235583" />
	</node>
	<node lat="58.54050833331409" lon="8.583763882667668" id="-32460">
		<tag k="name" v="Blakstad" />
		<tag k="natural" v="slope" />
		<tag k="place" v="locality" />
		<tag k="ssr:stedsnr" v="235705" />
	</node>
	<node lat="58.587766669316984" lon="8.325069451402861" id="-32463">
		<tag k="name" v="Fluga" />
		<tag k="natural" v="cliff" />
		<tag k="ssr:stedsnr" v="235633" />
	</node>
	<node lat="58.54843889017196" lon="8.64422777324821" id="-32464">
		<tag k="name" v="Trollmanndalen" />
		<tag k="natural" v="valley" />
		<tag k="place" v="locality" />
		<tag k="ssr:stedsnr" v="235805" />
	</node>
	<node lat="58.54954166510037" lon="8.6399777767261" id="-32465">
		<tag k="fixme" v="consider natural=peak for the most distinct mountains in the district" />
		<tag k="name" v="Lille Høgås" />
		<tag k="natural" v="hill" />
		<tag k="place" v="locality" />
		<tag k="ssr:stedsnr" v="235808" />
	</node>
	<node lat="58.66924444812877" lon="8.061261103681943" id="-32469">
		<tag k="alt_name" v="Fjellsenden" />
		<tag k="fixme" v="consider natural=peak for the most distinct mountains in the district" />
		<tag k="name" v="Fjellsendheia" />
		<tag k="natural" v="hill" />
		<tag k="place" v="locality" />
		<tag k="ssr:stedsnr" v="243537" />
	</node>
	<node lat="58.59636666320756" lon="8.579627783253223" id="-32472">
		<tag k="name" v="Kollen" />
		<tag k="natural" v="hill" />
		<tag k="place" v="locality" />
		<tag k="ssr:stedsnr" v="243832" />
	</node>
	<node lat="58.589091669126226" lon="8.324052770426446" id="-32474">
		<tag k="fixme" v="multiple name tags, choose one and add the other to alt_name; consider natural=peak for the most distinct mountains in the district" />
		<tag k="name" v="Åsen;Borstølheia" />
		<tag k="natural" v="hill" />
		<tag k="place" v="locality" />
		<tag k="ssr:stedsnr" v="244138" />
	</node>
	<node lat="58.63824444560989" lon="8.029877783353921" id="-32477">
		<tag k="fixme" v="consider natural=peak for the most distinct mountains in the district" />
		<tag k="name" v="Krofjellknuten" />
		<tag k="natural" v="hill" />
		<tag k="place" v="locality" />
		<tag k="ssr:stedsnr" v="244597" />
	</node>
	<node lat="58.63111111161225" lon="8.507030551408269" id="-32479">
		<tag k="fixme" v="consider natural=peak for the most distinct mountains in the district" />
		<tag k="name" v="Nordstrandsheia" />
		<tag k="natural" v="hill" />
		<tag k="place" v="locality" />
		<tag k="ssr:stedsnr" v="244990" />
	</node>
	<node lat="58.52771111485866" lon="8.710508335770081" id="-32483">
		<tag k="name" v="Slarpedalen" />
		<tag k="natural" v="hill" />
		<tag k="place" v="locality" />
		<tag k="ssr:stedsnr" v="459021" />
	</node>
	<node lat="58.53449999893821" lon="8.685524997158737" id="-32487">
		<tag k="name" v="Almkleiv" />
		<tag k="natural" v="slope" />
		<tag k="place" v="locality" />
		<tag k="ssr:stedsnr" v="459091" />
	</node>
	<node lat="58.56339167021118" lon="8.704541670593365" id="-32491">
		<tag k="name" v="Bjørnåsknatten" />
		<tag k="natural" v="hill" />
		<tag k="place" v="locality" />
		<tag k="ssr:stedsnr" v="459142" />
	</node>
	<node lat="58.486825000465075" lon="8.570338886758114" id="-32497">
		<tag k="name" v="Sjølskottdalen" />
		<tag k="natural" v="valley" />
		<tag k="place" v="locality" />
		<tag k="ssr:stedsnr" v="459220" />
	</node>
	<node lat="58.49596944114604" lon="8.62131389329523" id="-32500">
		<tag k="name" v="Ovelandsheia" />
		<tag k="natural" v="hill" />
		<tag k="place" v="locality" />
		<tag k="ssr:stedsnr" v="276081" />
	</node>
	<node lat="58.50615278193799" lon="8.60777499332586" id="-32501">
		<tag k="name" v="Bliksåsen" />
		<tag k="natural" v="hill" />
		<tag k="place" v="locality" />
		<tag k="ssr:stedsnr" v="276115" />
	</node>
	<node lat="58.58125277482729" lon="8.708172222084364" id="-32502">
		<tag k="name" v="Vallelia" />
		<tag k="natural" v="slope" />
		<tag k="place" v="locality" />
		<tag k="ssr:stedsnr" v="276170" />
	</node>
	<node lat="58.5720916663606" lon="8.687280561720899" id="-32504">
		<tag k="name" v="Tykkenedalen" />
		<tag k="natural" v="valley" />
		<tag k="place" v="locality" />
		<tag k="ssr:stedsnr" v="276187" />
	</node>
	<node lat="58.571216666518126" lon="8.677669445885414" id="-32505">
		<tag k="name" v="Venli" />
		<tag k="natural" v="slope" />
		<tag k="place" v="locality" />
		<tag k="ssr:stedsnr" v="276193" />
	</node>
	<node lat="58.60084166271055" lon="8.692513889460992" id="-32506">
		<tag k="fixme" v="consider natural=peak for the most distinct mountains in the district" />
		<tag k="name" v="Blautemyrheia" />
		<tag k="natural" v="hill" />
		<tag k="place" v="locality" />
		<tag k="ssr:stedsnr" v="276209" />
	</node>
	<node lat="58.532519441577804" lon="8.600405558818919" id="-32512">
		<tag k="fixme" v="consider natural=peak for the most distinct mountains in the district" />
		<tag k="name" v="Rislandsknuten" />
		<tag k="natural" v="hill" />
		<tag k="place" v="locality" />
		<tag k="ssr:stedsnr" v="277002" />
	</node>
	<node lat="58.53560833502829" lon="8.585005547053504" id="-32514">
		<tag k="name" v="Nistemyrfjella" />
		<tag k="natural" v="hill" />
		<tag k="place" v="locality" />
		<tag k="ssr:stedsnr" v="277213" />
	</node>
	<node lat="58.53671944671417" lon="8.511838885390704" id="-32517">
		<tag k="name" v="Ørnefjell" />
		<tag k="natural" v="hill" />
		<tag k="place" v="locality" />
		<tag k="ssr:stedsnr" v="292033" />
	</node>
	<node lat="58.49499166569162" lon="8.489927785016736" id="-32521">
		<tag k="name" v="Gluggvardsheia" />
		<tag k="natural" v="hill" />
		<tag k="place" v="locality" />
		<tag k="ssr:stedsnr" v="292681" />
	</node>
	<node lat="58.48076944320911" lon="8.545427772965898" id="-32525">
		<tag k="name" v="Slettebakke" />
		<tag k="natural" v="hill" />
		<tag k="place" v="locality" />
		<tag k="ssr:stedsnr" v="292926" />
	</node>
	<node lat="58.64170833074011" lon="8.171727769470909" id="-32527">
		<tag k="name" v="Bjelkeberget" />
		<tag k="natural" v="hill" />
		<tag k="place" v="locality" />
		<tag k="ssr:stedsnr" v="294015" />
	</node>
	<node lat="58.706402781426775" lon="8.024941672479063" id="-32529">
		<tag k="name" v="Gjuvvassdalen" />
		<tag k="natural" v="valley" />
		<tag k="place" v="locality" />
		<tag k="ssr:stedsnr" v="293998" />
	</node>
	<node lat="58.69868889148332" lon="8.218999999340685" id="-32535">
		<tag k="name" v="Digrehei" />
		<tag k="natural" v="hill" />
		<tag k="place" v="locality" />
		<tag k="ssr:stedsnr" v="294712" />
	</node>
	<node lat="58.69168333370662" lon="8.088902783406885" id="-32537">
		<tag k="name" v="Steinhytta" />
		<tag k="place" v="locality" />
		<tag k="ssr:stedsnr" v="294911" />
	</node>
	<node lat="58.69694999751988" lon="8.133630561887518" id="-32538">
		<tag k="name" v="Bjønneåta" />
		<tag k="natural" v="slope" />
		<tag k="place" v="locality" />
		<tag k="ssr:stedsnr" v="294876" />
	</node>
	<node lat="58.56304722075279" lon="8.49724166968854" id="-32539">
		<tag k="name" v="Formyrheia" />
		<tag k="natural" v="hill" />
		<tag k="place" v="locality" />
		<tag k="ssr:stedsnr" v="295002" />
	</node>
	<node lat="58.60525278087233" lon="8.402708328347845" id="-32540">
		<tag k="name" v="Fossfet" />
		<tag k="place" v="locality" />
		<tag k="ssr:stedsnr" v="295005" />
	</node>
	<node lat="58.68689722047966" lon="8.001211104655361" id="-32542">
		<tag k="name" v="Skotet" />
		<tag k="natural" v="valley" />
		<tag k="place" v="locality" />
		<tag k="ssr:stedsnr" v="295184" />
	</node>
	<node lat="58.55233055725007" lon="8.281452770396246" id="-32544">
		<tag k="name" v="Koven" />
		<tag k="natural" v="valley" />
		<tag k="place" v="locality" />
		<tag k="ssr:stedsnr" v="295196" />
	</node>
	<node lat="58.596991664760424" lon="8.59334721389349" id="-32549">
		<tag k="name" v="Torbulia" />
		<tag k="natural" v="slope" />
		<tag k="place" v="locality" />
		<tag k="ssr:stedsnr" v="295408" />
	</node>
	<node lat="58.58878333298516" lon="8.511866673430916" id="-32554">
		<tag k="fixme" v="consider natural=peak for the most distinct mountains in the district" />
		<tag k="name" v="Ribbåsen" />
		<tag k="natural" v="hill" />
		<tag k="place" v="locality" />
		<tag k="ssr:stedsnr" v="295396" />
	</node>
	<node lat="58.65661666326938" lon="8.140041664779009" id="-32555">
		<tag k="name" v="Skilardalsheia" />
		<tag k="natural" v="hill" />
		<tag k="place" v="locality" />
		<tag k="ssr:stedsnr" v="295516" />
	</node>
	<node lat="58.62386110940185" lon="8.25032500569823" id="-32556">
		<tag k="name" v="Broneheia" />
		<tag k="natural" v="hill" />
		<tag k="place" v="locality" />
		<tag k="ssr:stedsnr" v="295573" />
	</node>
	<node lat="58.685583329505164" lon="8.128783338321156" id="-32557">
		<tag k="name" v="Borkelandsfjellet" />
		<tag k="natural" v="hill" />
		<tag k="place" v="locality" />
		<tag k="ssr:stedsnr" v="295574" />
	</node>
	<node lat="58.68485833132852" lon="8.14384165816534" id="-32558">
		<tag k="name" v="Svolbergdalen" />
		<tag k="natural" v="valley" />
		<tag k="place" v="locality" />
		<tag k="ssr:stedsnr" v="295579" />
	</node>
	<node lat="58.68269722520774" lon="8.159200003137682" id="-32559">
		<tag k="name" v="Hølliane" />
		<tag k="natural" v="slope" />
		<tag k="place" v="locality" />
		<tag k="ssr:stedsnr" v="295582" />
	</node>
	<node lat="58.66511388628672" lon="8.220936107790878" id="-32561">
		<tag k="name" v="Bjørnhidalen" />
		<tag k="natural" v="valley" />
		<tag k="place" v="locality" />
		<tag k="ssr:stedsnr" v="295723" />
	</node>
	<node lat="58.61351667021385" lon="8.265300002362533" id="-32562">
		<tag k="name" v="Barlinddalen" />
		<tag k="natural" v="valley" />
		<tag k="place" v="locality" />
		<tag k="ssr:stedsnr" v="295729" />
	</node>
	<node lat="58.61104166653209" lon="8.259888880751992" id="-32565">
		<tag k="name" v="Hasleli" />
		<tag k="natural" v="slope" />
		<tag k="place" v="locality" />
		<tag k="ssr:stedsnr" v="295732" />
	</node>
	<node lat="58.637200002129724" lon="8.081980547341974" id="-32567">
		<tag k="name" v="Sorgeslett" />
		<tag k="natural" v="slope" />
		<tag k="place" v="locality" />
		<tag k="ssr:stedsnr" v="295794" />
	</node>
	<node lat="58.630969442712086" lon="8.06072221674972" id="-32568">
		<tag k="name" v="Sirishei" />
		<tag k="natural" v="hill" />
		<tag k="place" v="locality" />
		<tag k="ssr:stedsnr" v="295798" />
	</node>
	<node lat="58.56223611466799" lon="8.543147215097806" id="-32573">
		<tag k="name" v="Askedalen" />
		<tag k="natural" v="valley" />
		<tag k="place" v="locality" />
		<tag k="ssr:stedsnr" v="296086" />
	</node>
	<node lat="58.577788892247675" lon="8.569447216672105" id="-32574">
		<tag k="name" v="Røynelia" />
		<tag k="natural" v="slope" />
		<tag k="place" v="locality" />
		<tag k="ssr:stedsnr" v="296089" />
	</node>
	<node lat="58.572100003279004" lon="8.650141669783448" id="-32580">
		<tag k="name" v="Ramselia" />
		<tag k="natural" v="slope" />
		<tag k="place" v="locality" />
		<tag k="ssr:stedsnr" v="296922" />
	</node>
	<node lat="58.67148611332393" lon="8.007794449016902" id="-32587">
		<tag k="name" v="Kringledalsholet" />
		<tag k="natural" v="valley" />
		<tag k="place" v="locality" />
		<tag k="ssr:stedsnr" v="304527" />
	</node>
	<node lat="58.66725555153408" lon="7.987125003042141" id="-32588">
		<tag k="alt_name" v="Kjosvasslia" />
		<tag k="name" v="Kjosevasslia" />
		<tag k="natural" v="slope" />
		<tag k="place" v="locality" />
		<tag k="ssr:stedsnr" v="304528" />
	</node>
	<node lat="58.60073333310138" lon="8.525458325911318" id="-32592">
		<tag k="fixme" v="consider natural=peak for the most distinct mountains in the district" />
		<tag k="name" v="Krossbotfjellet" />
		<tag k="natural" v="hill" />
		<tag k="place" v="locality" />
		<tag k="ssr:stedsnr" v="304810" />
	</node>
	<node lat="58.646763886914165" lon="8.111141672870488" id="-32595">
		<tag k="fixme" v="consider natural=peak for the most distinct mountains in the district" />
		<tag k="name" v="Kolåsen" />
		<tag k="natural" v="hill" />
		<tag k="place" v="locality" />
		<tag k="ssr:stedsnr" v="308024" />
	</node>
	<node lat="58.525680558346565" lon="8.736947218083419" id="-32598">
		<tag k="fixme" v="consider natural=peak for the most distinct mountains in the district" />
		<tag k="name" v="Bukkebladknatten" />
		<tag k="natural" v="hill" />
		<tag k="place" v="locality" />
		<tag k="ssr:stedsnr" v="333747" />
	</node>
	<node lat="58.479325004337845" lon="8.56431944880285" id="-32599">
		<tag k="fixme" v="consider natural=peak for the most distinct mountains in the district" />
		<tag k="name" v="Auglandsåsen" />
		<tag k="natural" v="hill" />
		<tag k="place" v="locality" />
		<tag k="ssr:stedsnr" v="337013" />
	</node>
	<node lat="58.51757500358492" lon="8.688208329306715" id="-32604">
		<tag k="name" v="Buhovheia" />
		<tag k="natural" v="hill" />
		<tag k="place" v="locality" />
		<tag k="ssr:stedsnr" v="337093" />
	</node>
	<node lat="58.496213886608025" lon="8.606294452487324" id="-32605">
		<tag k="fixme" v="consider natural=peak for the most distinct mountains in the district" />
		<tag k="name" v="Heståsen" />
		<tag k="natural" v="hill" />
		<tag k="place" v="locality" />
		<tag k="ssr:stedsnr" v="337213" />
	</node>
	<node lat="58.51341944094391" lon="8.658397229518535" id="-32606">
		<tag k="fixme" v="consider natural=peak for the most distinct mountains in the district" />
		<tag k="name" v="Mørkås" />
		<tag k="natural" v="hill" />
		<tag k="place" v="locality" />
		<tag k="ssr:stedsnr" v="337243" />
	</node>
	<node lat="58.52298055891337" lon="8.571883329667507" id="-32608">
		<tag k="name" v="Ramnberget" />
		<tag k="natural" v="hill" />
		<tag k="place" v="locality" />
		<tag k="ssr:stedsnr" v="337254" />
	</node>
	<node lat="58.54038610909282" lon="8.576327775850348" id="-32609">
		<tag k="name" v="Karlsmyrheia" />
		<tag k="natural" v="hill" />
		<tag k="place" v="locality" />
		<tag k="ssr:stedsnr" v="337258" />
	</node>
	<node lat="58.621541669543134" lon="8.74136110274826" id="-32611">
		<tag k="name" v="Haugsjåsetane" />
		<tag k="natural" v="valley" />
		<tag k="place" v="locality" />
		<tag k="ssr:stedsnr" v="337302" />
	</node>
	<node lat="58.53700277434055" lon="8.403330560169293" id="-32613">
		<tag k="name" v="Heståsen" />
		<tag k="natural" v="ridge" />
		<tag k="place" v="locality" />
		<tag k="ssr:stedsnr" v="473175" />
	</node>
	<node lat="58.64573611506842" lon="8.089347219404942" id="-32614">
		<tag k="name" v="Klova" />
		<tag k="natural" v="valley" />
		<tag k="place" v="locality" />
		<tag k="ssr:stedsnr" v="537746" />
	</node>
	<node lat="58.48704722431787" lon="8.448227778054925" id="-32618">
		<tag k="name" v="Steindalen" />
		<tag k="natural" v="valley" />
		<tag k="place" v="locality" />
		<tag k="ssr:stedsnr" v="474726" />
	</node>
	<node lat="58.53868333666406" lon="8.54791943814763" id="-32620">
		<tag k="name" v="Store Gofisktjenn" />
		<tag k="natural" v="hill" />
		<tag k="place" v="locality" />
		<tag k="ssr:stedsnr" v="474039" />
	</node>
	<node lat="58.514094446837" lon="8.387586118390823" id="-32621">
		<tag k="name" v="Haukemyrliene" />
		<tag k="natural" v="slope" />
		<tag k="place" v="locality" />
		<tag k="ssr:stedsnr" v="474070" />
	</node>
	<node lat="58.510000001350186" lon="8.436702777592352" id="-32622">
		<tag k="fixme" v="consider natural=peak for the most distinct mountains in the district" />
		<tag k="name" v="Eikeåsen" />
		<tag k="natural" v="hill" />
		<tag k="place" v="locality" />
		<tag k="ssr:stedsnr" v="474080" />
	</node>
	<node lat="58.53738333427475" lon="8.452091667877704" id="-32623">
		<tag k="name" v="Sponterdalen" />
		<tag k="natural" v="valley" />
		<tag k="place" v="locality" />
		<tag k="ssr:stedsnr" v="474216" />
	</node>
	<node lat="58.49459166953015" lon="8.414047230597602" id="-32625">
		<tag k="name" v="Ospedalen" />
		<tag k="natural" v="valley" />
		<tag k="place" v="locality" />
		<tag k="ssr:stedsnr" v="352708" />
	</node>
	<node lat="58.504425000906956" lon="8.387569436841863" id="-32631">
		<tag k="name" v="Kvenneheia" />
		<tag k="natural" v="hill" />
		<tag k="place" v="locality" />
		<tag k="ssr:stedsnr" v="353107" />
	</node>
	<node lat="58.5042416707189" lon="8.419663896120172" id="-32633">
		<tag k="name" v="Budalen" />
		<tag k="natural" v="valley" />
		<tag k="place" v="locality" />
		<tag k="ssr:stedsnr" v="353121" />
	</node>
	<node lat="58.51355278195036" lon="8.516938894304475" id="-32635">
		<tag k="name" v="Bjelkedalen" />
		<tag k="natural" v="valley" />
		<tag k="place" v="locality" />
		<tag k="ssr:stedsnr" v="353453" />
	</node>
	<node lat="58.70894999565046" lon="8.182527772682272" id="-32638">
		<tag k="name" v="Ekorndalen" />
		<tag k="natural" v="valley" />
		<tag k="place" v="locality" />
		<tag k="ssr:stedsnr" v="354711" />
	</node>
	<node lat="58.6716222196877" lon="8.057430563961706" id="-32639">
		<tag k="name" v="Lomsdalen" />
		<tag k="natural" v="valley" />
		<tag k="place" v="locality" />
		<tag k="ssr:stedsnr" v="354902" />
	</node>
	<node lat="58.661780556790085" lon="8.11862222643109" id="-32644">
		<tag k="name" v="Norfjell" />
		<tag k="natural" v="hill" />
		<tag k="place" v="locality" />
		<tag k="ssr:stedsnr" v="355296" />
	</node>
	<node lat="58.48167499738274" lon="8.42987777438359" id="-32647">
		<tag k="name" v="Åsene" />
		<tag k="natural" v="hill" />
		<tag k="place" v="locality" />
		<tag k="ssr:stedsnr" v="474755" />
	</node>
	<node lat="58.699061111755626" lon="8.280124994993313" id="-32650">
		<tag k="name" v="Bøsskarlia" />
		<tag k="natural" v="slope" />
		<tag k="place" v="locality" />
		<tag k="ssr:stedsnr" v="355719" />
	</node>
	<node lat="58.666041666253186" lon="8.271525007131935" id="-32651">
		<tag k="name" v="Grasdalen" />
		<tag k="natural" v="valley" />
		<tag k="place" v="locality" />
		<tag k="ssr:stedsnr" v="355731" />
	</node>
	<node lat="58.656672219248456" lon="8.552591669284702" id="-32654">
		<tag k="name" v="Nauteneslia" />
		<tag k="natural" v="slope" />
		<tag k="place" v="locality" />
		<tag k="ssr:stedsnr" v="355808" />
	</node>
	<node lat="58.644180556635625" lon="8.035438888981954" id="-32655">
		<tag k="name" v="Kjovedalsknuten" />
		<tag k="natural" v="hill" />
		<tag k="place" v="locality" />
		<tag k="ssr:stedsnr" v="355850" />
	</node>
	<node lat="58.63144999965608" lon="8.025391670086652" id="-32656">
		<tag k="name" v="Store Navarskaftet" />
		<tag k="natural" v="ridge" />
		<tag k="place" v="locality" />
		<tag k="ssr:stedsnr" v="355851" />
	</node>
	<node lat="58.63391944093041" lon="8.038916674933796" id="-32657">
		<tag k="fixme" v="consider natural=peak for the most distinct mountains in the district" />
		<tag k="name" v="Homsknuten" />
		<tag k="natural" v="hill" />
		<tag k="place" v="locality" />
		<tag k="ssr:stedsnr" v="355856" />
	</node>
	<node lat="58.56183888606182" lon="8.492888885431743" id="-32659">
		<tag k="name" v="Trolldalen" />
		<tag k="natural" v="valley" />
		<tag k="place" v="locality" />
		<tag k="ssr:stedsnr" v="356004" />
	</node>
	<node lat="58.607193004418555" lon="8.479960485235797" id="-32661">
		<tag k="fixme" v="consider natural=peak for the most distinct mountains in the district" />
		<tag k="name" v="Lauvlandsåsen" />
		<tag k="natural" v="hill" />
		<tag k="place" v="locality" />
		<tag k="ssr:stedsnr" v="356113" />
	</node>
	<node lat="58.556350002922485" lon="8.269072216822348" id="-32664">
		<tag k="name" v="Storefjell" />
		<tag k="natural" v="cliff" />
		<tag k="ssr:stedsnr" v="356189" />
	</node>
	<node lat="58.622200002251404" lon="8.36366388030329" id="-32665">
		<tag k="name" v="Slettås" />
		<tag k="natural" v="hill" />
		<tag k="place" v="locality" />
		<tag k="ssr:stedsnr" v="356448" />
	</node>
	<node lat="58.58586389268338" lon="8.590172226944617" id="-32666">
		<tag k="name" v="Geiteryggen" />
		<tag k="natural" v="ridge" />
		<tag k="place" v="locality" />
		<tag k="ssr:stedsnr" v="356436" />
	</node>
	<node lat="58.59708611020423" lon="8.612663883634378" id="-32667">
		<tag k="name" v="Vedalen" />
		<tag k="natural" v="valley" />
		<tag k="place" v="locality" />
		<tag k="ssr:stedsnr" v="356440" />
	</node>
	<node lat="58.65373611447481" lon="8.174977774763041" id="-32672">
		<tag k="name" v="Trolldalen" />
		<tag k="natural" v="valley" />
		<tag k="place" v="locality" />
		<tag k="ssr:stedsnr" v="356549" />
	</node>
	<node lat="58.64935555604763" lon="8.17109721512554" id="-32675">
		<tag k="name" v="Steinhusa" />
		<tag k="place" v="locality" />
		<tag k="ssr:stedsnr" v="356553" />
	</node>
	<node lat="58.589091665821755" lon="8.337980555130558" id="-32676">
		<tag k="name" v="Skarane" />
		<tag k="natural" v="slope" />
		<tag k="place" v="locality" />
		<tag k="ssr:stedsnr" v="356517" />
	</node>
	<node lat="58.66022777810811" lon="8.21825555926476" id="-32679">
		<tag k="name" v="Støylero" />
		<tag k="natural" v="slope" />
		<tag k="place" v="locality" />
		<tag k="ssr:stedsnr" v="356564" />
	</node>
	<node lat="58.67915278212226" lon="8.198372228239615" id="-32680">
		<tag k="name" v="Stenulvfjellet" />
		<tag k="natural" v="hill" />
		<tag k="place" v="locality" />
		<tag k="ssr:stedsnr" v="356529" />
	</node>
	<node lat="58.55747499636981" lon="8.53994722288761" id="-32684">
		<tag k="fixme" v="consider natural=peak for the most distinct mountains in the district" />
		<tag k="name" v="Timmeråsen" />
		<tag k="natural" v="hill" />
		<tag k="place" v="locality" />
		<tag k="ssr:stedsnr" v="356666" />
	</node>
	<node lat="58.64896666305137" lon="8.25282500859129" id="-32686">
		<tag k="name" v="Sagkleiva" />
		<tag k="natural" v="slope" />
		<tag k="place" v="locality" />
		<tag k="ssr:stedsnr" v="356669" />
	</node>
	<node lat="58.54811110807496" lon="8.567233334168883" id="-32687">
		<tag k="name" v="Raudhellhei" />
		<tag k="natural" v="hill" />
		<tag k="place" v="locality" />
		<tag k="ssr:stedsnr" v="356700" />
	</node>
	<node lat="58.54346110858098" lon="8.566350001407631" id="-32688">
		<tag k="name" v="Skålheia" />
		<tag k="natural" v="hill" />
		<tag k="place" v="locality" />
		<tag k="ssr:stedsnr" v="356701" />
	</node>
	<node lat="58.60100000092712" lon="8.30903332599235" id="-32694">
		<tag k="name" v="Saurdalen" />
		<tag k="natural" v="valley" />
		<tag k="place" v="locality" />
		<tag k="ssr:stedsnr" v="356598" />
	</node>
	<node lat="58.69958611059403" lon="8.049574995986863" id="-32697">
		<tag k="name" v="Smørliskaret" />
		<tag k="natural" v="valley" />
		<tag k="place" v="locality" />
		<tag k="ssr:stedsnr" v="475982" />
	</node>
	<node lat="58.643663890884824" lon="8.15453055176194" id="-32698">
		<tag k="fixme" v="consider natural=peak for the most distinct mountains in the district" />
		<tag k="name" v="Hesthomknuten" />
		<tag k="natural" v="hill" />
		<tag k="place" v="locality" />
		<tag k="ssr:stedsnr" v="476061" />
	</node>
	<node lat="58.634569444339945" lon="8.118055558691415" id="-32702">
		<tag k="name" v="Lillenausheia" />
		<tag k="natural" v="hill" />
		<tag k="place" v="locality" />
		<tag k="ssr:stedsnr" v="476027" />
	</node>
	<node lat="58.64305833127053" lon="8.185169436221432" id="-32703">
		<tag k="fixme" v="consider natural=peak for the most distinct mountains in the district" />
		<tag k="name" v="Kvernhusåsen" />
		<tag k="natural" v="hill" />
		<tag k="place" v="locality" />
		<tag k="ssr:stedsnr" v="476030" />
	</node>
	<node lat="58.63348611026321" lon="8.234499998583736" id="-32706">
		<tag k="name" v="Sådalen" />
		<tag k="natural" v="valley" />
		<tag k="place" v="locality" />
		<tag k="ssr:stedsnr" v="476183" />
	</node>
	<node lat="58.62748888705519" lon="8.458763888130303" id="-32708">
		<tag k="name" v="Nordhei" />
		<tag k="natural" v="hill" />
		<tag k="place" v="locality" />
		<tag k="ssr:stedsnr" v="476298" />
	</node>
	<node lat="58.63630556002363" lon="8.488033331081025" id="-32709">
		<tag k="name" v="Melleskleivene" />
		<tag k="natural" v="slope" />
		<tag k="place" v="locality" />
		<tag k="ssr:stedsnr" v="476300" />
	</node>
	<node lat="58.61305278195621" lon="8.234588893192054" id="-32712">
		<tag k="name" v="Barlindhola" />
		<tag k="natural" v="valley" />
		<tag k="place" v="locality" />
		<tag k="ssr:stedsnr" v="476655" />
	</node>
	<node lat="58.69248333228734" lon="8.246483336344301" id="-32713">
		<tag k="name" v="Vestølliane" />
		<tag k="natural" v="slope" />
		<tag k="place" v="locality" />
		<tag k="ssr:stedsnr" v="476762" />
	</node>
	<node lat="58.69923055800608" lon="8.236175003048146" id="-32716">
		<tag k="name" v="Deildeknatten" />
		<tag k="natural" v="ridge" />
		<tag k="place" v="locality" />
		<tag k="ssr:stedsnr" v="476723" />
	</node>
	<node lat="58.616172218306936" lon="8.271244445960207" id="-32719">
		<tag k="fixme" v="consider natural=peak for the most distinct mountains in the district" />
		<tag k="name" v="Grunnetjønnåsen" />
		<tag k="natural" v="hill" />
		<tag k="place" v="locality" />
		<tag k="ssr:stedsnr" v="476739" />
	</node>
	<node lat="58.67921110676445" lon="8.080044446975565" id="-32721">
		<tag k="name" v="Surtemyrskredane" />
		<tag k="natural" v="slope" />
		<tag k="place" v="locality" />
		<tag k="ssr:stedsnr" v="476881" />
	</node>
	<node lat="58.56299444305047" lon="8.485194445124373" id="-32725">
		<tag k="name" v="Stemmyrlia" />
		<tag k="natural" v="slope" />
		<tag k="place" v="locality" />
		<tag k="ssr:stedsnr" v="477029" />
	</node>
	<node lat="58.63759166458926" lon="8.560388891564934" id="-32730">
		<tag k="name" v="Nelaugfjell" />
		<tag k="natural" v="cliff" />
		<tag k="ssr:stedsnr" v="477053" />
	</node>
	<node lat="58.56531944344493" lon="8.541855559899501" id="-32733">
		<tag k="fixme" v="consider natural=peak for the most distinct mountains in the district" />
		<tag k="name" v="Bjellåsen" />
		<tag k="natural" v="hill" />
		<tag k="place" v="locality" />
		<tag k="ssr:stedsnr" v="477067" />
	</node>
	<node lat="58.57351666794286" lon="8.48328333866187" id="-32735">
		<tag k="name" v="Reveheia" />
		<tag k="natural" v="hill" />
		<tag k="place" v="locality" />
		<tag k="ssr:stedsnr" v="477194" />
	</node>
	<node lat="58.63566944469708" lon="8.368319443912592" id="-32736">
		<tag k="name" v="Styggedal" />
		<tag k="natural" v="valley" />
		<tag k="place" v="locality" />
		<tag k="ssr:stedsnr" v="477365" />
	</node>
	<node lat="58.67548611125293" lon="8.243897219323447" id="-32738">
		<tag k="name" v="Ospelunden" />
		<tag k="natural" v="slope" />
		<tag k="place" v="locality" />
		<tag k="ssr:stedsnr" v="477841" />
	</node>
	<node lat="58.68172778023475" lon="8.254888883132022" id="-32740">
		<tag k="name" v="Sveisdal" />
		<tag k="natural" v="valley" />
		<tag k="place" v="locality" />
		<tag k="ssr:stedsnr" v="477852" />
	</node>
	<node lat="58.63041667112772" lon="8.3360444398321" id="-32742">
		<tag k="name" v="Storebudal" />
		<tag k="natural" v="valley" />
		<tag k="place" v="locality" />
		<tag k="ssr:stedsnr" v="477376" />
	</node>
	<node lat="58.546286111941626" lon="8.412094446037795" id="-32743">
		<tag k="name" v="Falkedalsheia" />
		<tag k="natural" v="hill" />
		<tag k="place" v="locality" />
		<tag k="ssr:stedsnr" v="477471" />
	</node>
	<node lat="58.625119443260324" lon="8.333591658237953" id="-32745">
		<tag k="name" v="Kranselisfjell" />
		<tag k="natural" v="cliff" />
		<tag k="ssr:stedsnr" v="477477" />
	</node>
	<node lat="58.61361110778155" lon="8.409283332432281" id="-32747">
		<tag k="name" v="Badstudalen" />
		<tag k="natural" v="valley" />
		<tag k="place" v="locality" />
		<tag k="ssr:stedsnr" v="477499" />
	</node>
	<node lat="58.68453888812653" lon="8.238844443784147" id="-32750">
		<tag k="name" v="Røynelibrota" />
		<tag k="natural" v="slope" />
		<tag k="place" v="locality" />
		<tag k="ssr:stedsnr" v="477581" />
	</node>
	<node lat="58.65360833265538" lon="8.210172217740254" id="-32751">
		<tag k="name" v="Tårendalen" />
		<tag k="natural" v="valley" />
		<tag k="place" v="locality" />
		<tag k="ssr:stedsnr" v="477588" />
	</node>
	<node lat="58.586461112331044" lon="8.227622217205726" id="-32753">
		<tag k="name" v="Djupedalsknuten" />
		<tag k="natural" v="ridge" />
		<tag k="place" v="locality" />
		<tag k="ssr:stedsnr" v="477595" />
	</node>
	<node lat="58.67049721963688" lon="8.122172217298456" id="-32755">
		<tag k="name" v="Lindberget" />
		<tag k="natural" v="hill" />
		<tag k="place" v="locality" />
		<tag k="ssr:stedsnr" v="477634" />
	</node>
	<node lat="58.67257777716131" lon="8.196116673388165" id="-32758">
		<tag k="name" v="Storemyrheia" />
		<tag k="natural" v="hill" />
		<tag k="place" v="locality" />
		<tag k="ssr:stedsnr" v="477535" />
	</node>
	<node lat="58.67479166442447" lon="8.48659165821918" id="-32763">
		<tag k="name" v="Vehusheia" />
		<tag k="natural" v="hill" />
		<tag k="place" v="locality" />
		<tag k="ssr:stedsnr" v="477701" />
	</node>
	<node lat="58.651847226024174" lon="8.243944452131844" id="-32765">
		<tag k="name" v="Vinterdalen" />
		<tag k="natural" v="valley" />
		<tag k="place" v="locality" />
		<tag k="ssr:stedsnr" v="477764" />
	</node>
	<node lat="58.65389167016822" lon="8.508377785561063" id="-32768">
		<tag k="name" v="Leirdalen" />
		<tag k="natural" v="valley" />
		<tag k="place" v="locality" />
		<tag k="ssr:stedsnr" v="477881" />
	</node>
	<node lat="58.57640278083474" lon="8.479869443762016" id="-32770">
		<tag k="name" v="Hjuringhei" />
		<tag k="natural" v="hill" />
		<tag k="place" v="locality" />
		<tag k="ssr:stedsnr" v="478194" />
	</node>
	<node lat="58.57543889131107" lon="8.469899996393966" id="-32771">
		<tag k="name" v="Torvhusa" />
		<tag k="place" v="locality" />
		<tag k="ssr:stedsnr" v="478195" />
	</node>
	<node lat="58.561797219863735" lon="8.249141673424" id="-32777">
		<tag k="name" v="Storemyrberga" />
		<tag k="natural" v="cliff" />
		<tag k="ssr:stedsnr" v="478284" />
	</node>
	<node lat="58.505330552383946" lon="8.406163887750791" id="-32778">
		<tag k="alt_name" v="Nøklingheia" />
		<tag k="fixme" v="consider natural=peak for the most distinct mountains in the district" />
		<tag k="name" v="Nyklinghei" />
		<tag k="natural" v="hill" />
		<tag k="place" v="locality" />
		<tag k="ssr:stedsnr" v="365002" />
	</node>
	<node lat="58.56356111352919" lon="8.25942777168914" id="-32780">
		<tag k="fixme" v="consider natural=peak for the most distinct mountains in the district" />
		<tag k="name" v="Hesteheia" />
		<tag k="natural" v="hill" />
		<tag k="place" v="locality" />
		<tag k="ssr:stedsnr" v="365156" />
	</node>
	<node lat="58.68332499764678" lon="8.117188895999417" id="-32784">
		<tag k="name" v="Støylrodalen" />
		<tag k="natural" v="valley" />
		<tag k="place" v="locality" />
		<tag k="ssr:stedsnr" v="365455" />
	</node>
	<node lat="58.70239999965663" lon="8.09694721453496" id="-32786">
		<tag k="alt_name" v="Kristensdalen" />
		<tag k="name" v="Kristensdal" />
		<tag k="natural" v="valley" />
		<tag k="place" v="locality" />
		<tag k="ssr:stedsnr" v="365497" />
	</node>
	<node lat="58.56364444705691" lon="8.681800007580113" id="-32787">
		<tag k="name" v="Tykkene" />
		<tag k="natural" v="hill" />
		<tag k="place" v="locality" />
		<tag k="ssr:stedsnr" v="365645" />
	</node>
	<node lat="58.59540277953854" lon="8.33602777187208" id="-32790">
		<tag k="name" v="Bjelkedalen" />
		<tag k="natural" v="valley" />
		<tag k="place" v="locality" />
		<tag k="ssr:stedsnr" v="478521" />
	</node>
	<node lat="58.58046389216547" lon="8.33434722629749" id="-32791">
		<tag k="name" v="Smidalsheia" />
		<tag k="natural" v="hill" />
		<tag k="place" v="locality" />
		<tag k="ssr:stedsnr" v="478529" />
	</node>
	<node lat="58.603286107155824" lon="8.388566662138288" id="-32792">
		<tag k="name" v="Høgeheia" />
		<tag k="natural" v="hill" />
		<tag k="place" v="locality" />
		<tag k="ssr:stedsnr" v="478531" />
	</node>
	<node lat="58.59174444004033" lon="8.64129444534723" id="-32797">
		<tag k="name" v="Hestestoe" />
		<tag k="natural" v="hill" />
		<tag k="place" v="locality" />
		<tag k="ssr:stedsnr" v="478449" />
	</node>
	<node lat="58.561297219711506" lon="8.62916945142553" id="-32802">
		<tag k="name" v="Askedalen" />
		<tag k="natural" v="valley" />
		<tag k="place" v="locality" />
		<tag k="ssr:stedsnr" v="478882" />
	</node>
	<node lat="58.51639999735514" lon="8.676047215107898" id="-32805">
		<tag k="name" v="Røddarheia" />
		<tag k="natural" v="hill" />
		<tag k="place" v="locality" />
		<tag k="ssr:stedsnr" v="398013" />
	</node>
	<node lat="58.53923333465455" lon="8.5617972271083" id="-32807">
		<tag k="name" v="Tiurleiken" />
		<tag k="natural" v="hill" />
		<tag k="place" v="locality" />
		<tag k="ssr:stedsnr" v="398033" />
	</node>
	<node lat="58.51455833198018" lon="8.59051943661098" id="-32812">
		<tag k="name" v="Fadåpen" />
		<tag k="place" v="locality" />
		<tag k="ssr:stedsnr" v="398192" />
	</node>
	<node lat="58.5134833292263" lon="8.719211119468715" id="-32816">
		<tag k="name" v="Grandalsliene" />
		<tag k="natural" v="slope" />
		<tag k="place" v="locality" />
		<tag k="ssr:stedsnr" v="398313" />
	</node>
	<node lat="58.51015000172058" lon="8.616458336092087" id="-32818">
		<tag k="fixme" v="consider natural=peak for the most distinct mountains in the district" />
		<tag k="name" v="Songehei" />
		<tag k="natural" v="hill" />
		<tag k="place" v="locality" />
		<tag k="ssr:stedsnr" v="398202" />
	</node>
	<node lat="58.47939166412077" lon="8.608569440252055" id="-32820">
		<tag k="name" v="Træsnesheia" />
		<tag k="natural" v="hill" />
		<tag k="place" v="locality" />
		<tag k="ssr:stedsnr" v="398215" />
	</node>
	<node lat="58.49148611111767" lon="8.644969450932527" id="-32825">
		<tag k="fixme" v="consider natural=peak for the most distinct mountains in the district" />
		<tag k="name" v="Heståsen" />
		<tag k="natural" v="hill" />
		<tag k="place" v="locality" />
		<tag k="ssr:stedsnr" v="485633" />
	</node>
	<node lat="58.60335555960144" lon="8.585258335700448" id="-32826">
		<tag k="fixme" v="consider natural=peak for the most distinct mountains in the district" />
		<tag k="name" v="Røynekaståsen" />
		<tag k="natural" v="hill" />
		<tag k="place" v="locality" />
		<tag k="ssr:stedsnr" v="485767" />
	</node>
	<node lat="58.59946389175898" lon="8.270783334338399" id="-32833">
		<tag k="alt_name" v="Hundsknappdalen" />
		<tag k="name" v="Hundsknapdalen" />
		<tag k="natural" v="valley" />
		<tag k="place" v="locality" />
		<tag k="ssr:stedsnr" v="486140" />
	</node>
	<node lat="58.60149166924556" lon="8.390613888697338" id="-32834">
		<tag k="name" v="Lauvraksdalen" />
		<tag k="natural" v="valley" />
		<tag k="place" v="locality" />
		<tag k="ssr:stedsnr" v="486145" />
	</node>
	<node lat="58.64024999617521" lon="8.277791672018127" id="-32837">
		<tag k="fixme" v="consider natural=peak for the most distinct mountains in the district" />
		<tag k="name" v="Geiteryggen" />
		<tag k="natural" v="hill" />
		<tag k="place" v="locality" />
		<tag k="ssr:stedsnr" v="486274" />
	</node>
	<node lat="58.65337221857433" lon="8.279072226486145" id="-32838">
		<tag k="fixme" v="consider natural=peak for the most distinct mountains in the district" />
		<tag k="name" v="Lauvåsheia" />
		<tag k="natural" v="hill" />
		<tag k="place" v="locality" />
		<tag k="ssr:stedsnr" v="486278" />
	</node>
	<node lat="58.656661114083676" lon="8.35956389227688" id="-32839">
		<tag k="fixme" v="consider natural=peak for the most distinct mountains in the district" />
		<tag k="name" v="Broneheia" />
		<tag k="natural" v="hill" />
		<tag k="place" v="locality" />
		<tag k="ssr:stedsnr" v="486285" />
	</node>
	<node lat="58.68221388480479" lon="8.247319436233893" id="-32841">
		<tag k="alt_name" v="Tjørneheia" />
		<tag k="fixme" v="consider natural=peak for the most distinct mountains in the district" />
		<tag k="name" v="Tjørnehei" />
		<tag k="natural" v="hill" />
		<tag k="place" v="locality" />
		<tag k="ssr:stedsnr" v="486317" />
	</node>
	<node lat="58.60527222526918" lon="8.441425001907117" id="-32843">
		<tag k="fixme" v="consider natural=peak for the most distinct mountains in the district" />
		<tag k="name" v="Ravneberget" />
		<tag k="natural" v="hill" />
		<tag k="place" v="locality" />
		<tag k="ssr:stedsnr" v="486345" />
	</node>
	<node lat="58.68736111056417" lon="8.170463897104261" id="-32846">
		<tag k="fixme" v="consider natural=peak for the most distinct mountains in the district" />
		<tag k="name" v="Ånondalsheia" />
		<tag k="natural" v="hill" />
		<tag k="place" v="locality" />
		<tag k="ssr:stedsnr" v="486466" />
	</node>
	<node lat="58.56672221979737" lon="8.633877781662095" id="-32852">
		<tag k="fixme" v="multiple name tags, choose one and add the other to alt_name; consider natural=peak for the most distinct mountains in the district" />
		<tag k="name" v="Helleråsen;Slettås" />
		<tag k="natural" v="hill" />
		<tag k="place" v="locality" />
		<tag k="ssr:stedsnr" v="486649" />
	</node>
	<node lat="58.53814167053791" lon="8.656008332558415" id="-32854">
		<tag k="fixme" v="consider natural=peak for the most distinct mountains in the district" />
		<tag k="name" v="Kleggåsen" />
		<tag k="natural" v="hill" />
		<tag k="place" v="locality" />
		<tag k="ssr:stedsnr" v="486688" />
	</node>
	<node lat="58.51475555410703" lon="8.525691672729291" id="-32856">
		<tag k="alt_name" v="Skavliheia" />
		<tag k="fixme" v="consider natural=peak for the most distinct mountains in the district" />
		<tag k="name" v="Skavleheia" />
		<tag k="natural" v="hill" />
		<tag k="place" v="locality" />
		<tag k="ssr:stedsnr" v="486743" />
	</node>
	<node lat="58.58689444765769" lon="8.7068416702532" id="-32860">
		<tag k="name" v="Valleheia" />
		<tag k="natural" v="hill" />
		<tag k="place" v="locality" />
		<tag k="ssr:stedsnr" v="486828" />
	</node>
	<node lat="58.663272222691106" lon="8.564777777177998" id="-32863">
		<tag k="fixme" v="consider natural=peak for the most distinct mountains in the district" />
		<tag k="name" v="Brattås" />
		<tag k="natural" v="hill" />
		<tag k="place" v="locality" />
		<tag k="ssr:stedsnr" v="486939" />
	</node>
	<node lat="58.489527781347405" lon="8.473383333432444" id="-32868">
		<tag k="name" v="Høghei" />
		<tag k="natural" v="hill" />
		<tag k="place" v="locality" />
		<tag k="ssr:stedsnr" v="413710" />
	</node>
	<node lat="58.532038889020235" lon="8.457813892437146" id="-32871">
		<tag k="fixme" v="consider natural=peak for the most distinct mountains in the district" />
		<tag k="name" v="Heståsen" />
		<tag k="natural" v="hill" />
		<tag k="place" v="locality" />
		<tag k="ssr:stedsnr" v="414005" />
	</node>
	<node lat="58.5327027771258" lon="8.4743833259275" id="-32872">
		<tag k="name" v="Heitjennknatten" />
		<tag k="natural" v="hill" />
		<tag k="place" v="locality" />
		<tag k="ssr:stedsnr" v="414007" />
	</node>
	<node lat="58.64698055333104" lon="8.26804166094306" id="-32876">
		<tag k="name" v="Direnes" />
		<tag k="natural" v="slope" />
		<tag k="place" v="locality" />
		<tag k="ssr:stedsnr" v="415192" />
	</node>
	<node lat="58.64466944200213" lon="8.264638896640982" id="-32877">
		<tag k="name" v="Kringlemyrmoen" />
		<tag k="place" v="locality" />
		<tag k="ssr:stedsnr" v="415193" />
	</node>
	<node lat="58.632277776160265" lon="8.26378888986612" id="-32878">
		<tag k="name" v="Skarkedalsbrota" />
		<tag k="natural" v="slope" />
		<tag k="place" v="locality" />
		<tag k="ssr:stedsnr" v="415200" />
	</node>
	<node lat="58.63456666404298" lon="8.54599721549597" id="-32879">
		<tag k="name" v="Grytedalen" />
		<tag k="natural" v="valley" />
		<tag k="place" v="locality" />
		<tag k="ssr:stedsnr" v="416048" />
	</node>
	<node lat="58.675013888462594" lon="8.029852782265499" id="-32880">
		<tag k="name" v="Høgtjønnlia" />
		<tag k="natural" v="slope" />
		<tag k="place" v="locality" />
		<tag k="ssr:stedsnr" v="416090" />
	</node>
	<node lat="58.642252773901106" lon="8.309663881228433" id="-32882">
		<tag k="name" v="Kjellingdalen" />
		<tag k="natural" v="valley" />
		<tag k="place" v="locality" />
		<tag k="ssr:stedsnr" v="416145" />
	</node>
	<node lat="58.63941389040693" lon="8.387397220047632" id="-32883">
		<tag k="name" v="Kvenntjønnfjellet" />
		<tag k="natural" v="cliff" />
		<tag k="ssr:stedsnr" v="416346" />
	</node>
	<node lat="58.644344440038104" lon="8.621733331430539" id="-32884">
		<tag k="fixme" v="consider natural=peak for the most distinct mountains in the district" />
		<tag k="name" v="Åsen" />
		<tag k="natural" v="hill" />
		<tag k="place" v="locality" />
		<tag k="ssr:stedsnr" v="416349" />
	</node>
	<node lat="58.64195000325581" lon="8.520150004010887" id="-32885">
		<tag k="name" v="Småtjønnheia" />
		<tag k="natural" v="hill" />
		<tag k="place" v="locality" />
		<tag k="ssr:stedsnr" v="416421" />
	</node>
	<node lat="58.637402777535165" lon="8.63783610583394" id="-32886">
		<tag k="name" v="Skrømtedalen" />
		<tag k="natural" v="valley" />
		<tag k="place" v="locality" />
		<tag k="ssr:stedsnr" v="416502" />
	</node>
	<node lat="58.66100555557285" lon="8.148591664821133" id="-32890">
		<tag k="fixme" v="consider natural=peak for the most distinct mountains in the district" />
		<tag k="name" v="Storemyråsen" />
		<tag k="natural" v="hill" />
		<tag k="place" v="locality" />
		<tag k="ssr:stedsnr" v="416549" />
	</node>
	<node lat="58.65237499578762" lon="8.242908327431595" id="-32892">
		<tag k="fixme" v="consider natural=peak for the most distinct mountains in the district" />
		<tag k="name" v="Vinterdalsåsen" />
		<tag k="natural" v="hill" />
		<tag k="place" v="locality" />
		<tag k="ssr:stedsnr" v="416711" />
	</node>
	<node lat="58.63462221834122" lon="8.074497229519679" id="-32895">
		<tag k="name" v="Beindalen" />
		<tag k="natural" v="valley" />
		<tag k="place" v="locality" />
		<tag k="ssr:stedsnr" v="416745" />
	</node>
	<node lat="58.57676111075039" lon="8.536594452576125" id="-32899">
		<tag k="name" v="Heljelia" />
		<tag k="natural" v="slope" />
		<tag k="place" v="locality" />
		<tag k="ssr:stedsnr" v="417013" />
	</node>
	<node lat="58.65484722394448" lon="8.066650007291948" id="-32901">
		<tag k="name" v="Småliane" />
		<tag k="natural" v="slope" />
		<tag k="place" v="locality" />
		<tag k="ssr:stedsnr" v="416977" />
	</node>
	<node lat="58.65936944524249" lon="8.054994452906906" id="-32902">
		<tag k="name" v="Grova" />
		<tag k="natural" v="valley" />
		<tag k="place" v="locality" />
		<tag k="ssr:stedsnr" v="416978" />
	</node>
	<node lat="58.581727776434036" lon="8.595116659091152" id="-32905">
		<tag k="name" v="Donafjell" />
		<tag k="natural" v="cliff" />
		<tag k="ssr:stedsnr" v="417114" />
	</node>
	<node lat="58.56159444071646" lon="8.515825002232354" id="-32908">
		<tag k="name" v="Kvineshei" />
		<tag k="natural" v="hill" />
		<tag k="place" v="locality" />
		<tag k="ssr:stedsnr" v="417040" />
	</node>
	<node lat="58.56623611070826" lon="8.613977778361441" id="-32909">
		<tag k="name" v="Urdalen" />
		<tag k="natural" v="valley" />
		<tag k="place" v="locality" />
		<tag k="ssr:stedsnr" v="417093" />
	</node>
	<node lat="58.579066664812444" lon="8.48066666801907" id="-32911">
		<tag k="name" v="Sjølvskotdalen" />
		<tag k="natural" v="valley" />
		<tag k="place" v="locality" />
		<tag k="ssr:stedsnr" v="417203" />
	</node>
	<node lat="58.55152222667804" lon="8.270394439971525" id="-32914">
		<tag k="name" v="Retterstøllia" />
		<tag k="natural" v="slope" />
		<tag k="place" v="locality" />
		<tag k="ssr:stedsnr" v="417187" />
	</node>
	<node lat="58.578122222297175" lon="8.33545278190365" id="-32916">
		<tag k="name" v="Heime Bupalen" />
		<tag k="place" v="locality" />
		<tag k="ssr:stedsnr" v="417385" />
	</node>
	<node lat="58.56051667054076" lon="8.341902769956619" id="-32918">
		<tag k="name" v="Raundalen" />
		<tag k="natural" v="valley" />
		<tag k="place" v="locality" />
		<tag k="ssr:stedsnr" v="417399" />
	</node>
	<node lat="58.54157221861599" lon="8.413344449553136" id="-32921">
		<tag k="name" v="Kvenndalen" />
		<tag k="natural" v="valley" />
		<tag k="place" v="locality" />
		<tag k="ssr:stedsnr" v="417494" />
	</node>
	<node lat="58.623741662423186" lon="8.246400007768177" id="-32922">
		<tag k="name" v="Jurdalen" />
		<tag k="natural" v="valley" />
		<tag k="place" v="locality" />
		<tag k="ssr:stedsnr" v="417605" />
	</node>
	<node lat="58.68698889160305" lon="8.145188882588528" id="-32925">
		<tag k="name" v="Elgflaten" />
		<tag k="place" v="locality" />
		<tag k="ssr:stedsnr" v="417611" />
	</node>
	<node lat="58.54827778083871" lon="8.498927779451005" id="-32927">
		<tag k="name" v="Saltjønnheia" />
		<tag k="natural" v="hill" />
		<tag k="place" v="locality" />
		<tag k="ssr:stedsnr" v="417643" />
	</node>
	<node lat="58.66838611536113" lon="8.21686944467004" id="-32929">
		<tag k="name" v="Vermålfjellet" />
		<tag k="natural" v="cliff" />
		<tag k="ssr:stedsnr" v="417601" />
	</node>
	<node lat="58.54023055529051" lon="8.552219452073132" id="-32930">
		<tag k="name" v="Hauketoheia" />
		<tag k="natural" v="hill" />
		<tag k="place" v="locality" />
		<tag k="ssr:stedsnr" v="417711" />
	</node>
	<node lat="58.675427782237776" lon="8.233280563678248" id="-32932">
		<tag k="name" v="Jåkleheiheftet" />
		<tag k="place" v="locality" />
		<tag k="ssr:stedsnr" v="417837" />
	</node>
	<node lat="58.55374444564" lon="8.615322228048555" id="-32933">
		<tag k="name" v="Furuhei" />
		<tag k="natural" v="hill" />
		<tag k="place" v="locality" />
		<tag k="ssr:stedsnr" v="417850" />
	</node>
	<node lat="58.5610833320213" lon="8.27224999246153" id="-32935">
		<tag k="fixme" v="consider natural=peak for the most distinct mountains in the district" />
		<tag k="name" v="Lomtjørnheia" />
		<tag k="natural" v="hill" />
		<tag k="place" v="locality" />
		<tag k="ssr:stedsnr" v="425152" />
	</node>
	<node lat="58.50723055874497" lon="8.509383332559882" id="-32946">
		<tag k="name" v="Romeheia" />
		<tag k="natural" v="hill" />
		<tag k="place" v="locality" />
		<tag k="ssr:stedsnr" v="425752" />
	</node>
	<node lat="58.59998333681461" lon="8.484305546958959" id="-32947">
		<tag k="fixme" v="consider natural=peak for the most distinct mountains in the district" />
		<tag k="name" v="Våtåsen" />
		<tag k="natural" v="hill" />
		<tag k="place" v="locality" />
		<tag k="ssr:stedsnr" v="425795" />
	</node>
	<node lat="58.4987750024442" lon="8.414769450190356" id="-32948">
		<tag k="alt_name" v="Grinndalsheia" />
		<tag k="fixme" v="consider natural=peak for the most distinct mountains in the district" />
		<tag k="name" v="Grimdalsfjellet" />
		<tag k="natural" v="hill" />
		<tag k="place" v="locality" />
		<tag k="ssr:stedsnr" v="426006" />
	</node>
	<node lat="58.62459999722045" lon="8.426775000401344" id="-32954">
		<tag k="fixme" v="consider natural=peak for the most distinct mountains in the district" />
		<tag k="name" v="Orreleikheia" />
		<tag k="natural" v="hill" />
		<tag k="place" v="locality" />
		<tag k="ssr:stedsnr" v="426331" />
	</node>
	<node lat="58.66686666910993" lon="8.28036388180962" id="-32956">
		<tag k="alt_name" v="Voreheia" />
		<tag k="fixme" v="consider natural=peak for the most distinct mountains in the district" />
		<tag k="name" v="Vorehei" />
		<tag k="natural" v="hill" />
		<tag k="place" v="locality" />
		<tag k="ssr:stedsnr" v="426293" />
	</node>
	<node lat="58.64731110841214" lon="8.018477777851203" id="-32958">
		<tag k="fixme" v="consider natural=peak for the most distinct mountains in the district" />
		<tag k="name" v="Stavdalsknuten" />
		<tag k="natural" v="hill" />
		<tag k="place" v="locality" />
		<tag k="ssr:stedsnr" v="426480" />
	</node>
	<node lat="58.650316670022704" lon="8.040027780401198" id="-32959">
		<tag k="name" v="Hidalen" />
		<tag k="natural" v="valley" />
		<tag k="place" v="locality" />
		<tag k="ssr:stedsnr" v="426481" />
	</node>
	<node lat="58.665366667018866" lon="8.072238883321736" id="-32961">
		<tag k="alt_name" v="Bjørndalen" />
		<tag k="name" v="Bjønndalen" />
		<tag k="natural" v="valley" />
		<tag k="place" v="locality" />
		<tag k="ssr:stedsnr" v="426599" />
	</node>
	<node lat="58.518469443865754" lon="8.667924999913856" id="-32963">
		<tag k="fixme" v="consider natural=peak for the most distinct mountains in the district" />
		<tag k="name" v="Fidjeåsen" />
		<tag k="natural" v="hill" />
		<tag k="place" v="locality" />
		<tag k="ssr:stedsnr" v="426737" />
	</node>
	<node lat="58.484480554756104" lon="8.5597833257926" id="-32974">
		<tag k="name" v="Tretterbakken" />
		<tag k="natural" v="slope" />
		<tag k="place" v="locality" />
		<tag k="ssr:stedsnr" v="459008" />
	</node>
	<node lat="58.52194167034717" lon="8.689624997645462" id="-32976">
		<tag k="name" v="Signemyrdalen" />
		<tag k="natural" v="valley" />
		<tag k="place" v="locality" />
		<tag k="ssr:stedsnr" v="459061" />
	</node>
	<node lat="58.53632222555702" lon="8.690636106324943" id="-32977">
		<tag k="fixme" v="consider natural=peak for the most distinct mountains in the district" />
		<tag k="name" v="Domåsen" />
		<tag k="natural" v="hill" />
		<tag k="place" v="locality" />
		<tag k="ssr:stedsnr" v="459063" />
	</node>
	<node lat="58.49793611371978" lon="8.601072228962355" id="-32979">
		<tag k="fixme" v="consider natural=peak for the most distinct mountains in the district" />
		<tag k="name" v="Heståsen" />
		<tag k="natural" v="hill" />
		<tag k="place" v="locality" />
		<tag k="ssr:stedsnr" v="459078" />
	</node>
	<node lat="58.54794999697306" lon="8.662308325995287" id="-32985">
		<tag k="name" v="Blauddal" />
		<tag k="natural" v="valley" />
		<tag k="place" v="locality" />
		<tag k="ssr:stedsnr" v="459172" />
	</node>
	<node lat="58.567499998501155" lon="8.719336112105383" id="-32987">
		<tag k="name" v="Hestedalen" />
		<tag k="natural" v="valley" />
		<tag k="place" v="locality" />
		<tag k="ssr:stedsnr" v="459302" />
	</node>
	<node lat="58.56179444281129" lon="8.724494444224886" id="-32988">
		<tag k="fixme" v="consider natural=peak for the most distinct mountains in the district" />
		<tag k="name" v="Haugen" />
		<tag k="natural" v="hill" />
		<tag k="place" v="locality" />
		<tag k="ssr:stedsnr" v="459307" />
	</node>
	<node lat="58.57969444647925" lon="8.745619439151474" id="-32989">
		<tag k="fixme" v="consider natural=peak for the most distinct mountains in the district" />
		<tag k="name" v="Lyngmyrheia" />
		<tag k="natural" v="hill" />
		<tag k="place" v="locality" />
		<tag k="ssr:stedsnr" v="459311" />
	</node>
	<node lat="58.618111109603305" lon="8.66216943711571" id="-32991">
		<tag k="name" v="Olsbudalen" />
		<tag k="natural" v="valley" />
		<tag k="place" v="locality" />
		<tag k="ssr:stedsnr" v="459314" />
	</node>
	<node lat="58.53432222598912" lon="8.734469439198747" id="-32993">
		<tag k="name" v="Spigronliene" />
		<tag k="natural" v="slope" />
		<tag k="place" v="locality" />
		<tag k="ssr:stedsnr" v="459325" />
	</node>
	<node lat="58.638066667487124" lon="8.303266674097836" id="-32995">
		<tag k="name" v="Kjellingåsen" />
		<tag k="natural" v="hill" />
		<tag k="place" v="locality" />
		<tag k="ssr:stedsnr" v="676130" />
	</node>
	<node lat="58.62762222074335" lon="8.241908338101004" id="-33003">
		<tag k="name" v="Jurdalsheia" />
		<tag k="natural" v="hill" />
		<tag k="place" v="locality" />
		<tag k="ssr:stedsnr" v="476171" />
	</node>
	<node lat="58.64434167024226" lon="8.147155559519021" id="-33006">
		<tag k="name" v="Stompedalen" />
		<tag k="natural" v="valley" />
		<tag k="place" v="locality" />
		<tag k="ssr:stedsnr" v="476059" />
	</node>
	<node lat="58.63831666966902" lon="8.214091674722695" id="-33007">
		<tag k="name" v="Klomra" />
		<tag k="natural" v="valley" />
		<tag k="place" v="locality" />
		<tag k="ssr:stedsnr" v="476221" />
	</node>
	<node lat="58.68535278105236" lon="8.341188890930383" id="-33011">
		<tag k="name" v="Skavliheia" />
		<tag k="natural" v="hill" />
		<tag k="place" v="locality" />
		<tag k="ssr:stedsnr" v="476632" />
	</node>
	<node lat="58.63358333123702" lon="8.331788894552012" id="-33013">
		<tag k="name" v="Kråkeli" />
		<tag k="natural" v="slope" />
		<tag k="place" v="locality" />
		<tag k="ssr:stedsnr" v="476366" />
	</node>
	<node lat="58.665041670564335" lon="8.057836115067772" id="-33015">
		<tag k="name" v="Vassfjellet" />
		<tag k="natural" v="cliff" />
		<tag k="ssr:stedsnr" v="476962" />
	</node>
	<node lat="58.655963891192805" lon="8.086555556003006" id="-33016">
		<tag k="name" v="Saurfet" />
		<tag k="place" v="locality" />
		<tag k="ssr:stedsnr" v="476973" />
	</node>
	<node lat="58.65980833640434" lon="8.099252784402527" id="-33017">
		<tag k="name" v="Fossfet" />
		<tag k="place" v="locality" />
		<tag k="ssr:stedsnr" v="476975" />
	</node>
	<node lat="58.67414444720105" lon="8.06809167242731" id="-33018">
		<tag k="name" v="Løyningslia" />
		<tag k="natural" v="slope" />
		<tag k="place" v="locality" />
		<tag k="ssr:stedsnr" v="476878" />
	</node>
	<node lat="58.61073889134419" lon="8.390080550938112" id="-33020">
		<tag k="name" v="Kjøbørheia" />
		<tag k="natural" v="hill" />
		<tag k="place" v="locality" />
		<tag k="ssr:stedsnr" v="477017" />
	</node>
	<node lat="58.622299997981486" lon="8.461127781063821" id="-33021">
		<tag k="name" v="Nordheia" />
		<tag k="natural" v="hill" />
		<tag k="place" v="locality" />
		<tag k="ssr:stedsnr" v="477023" />
	</node>
	<node lat="58.608133333628665" lon="8.507083336797178" id="-33022">
		<tag k="name" v="Teigen" />
		<tag k="natural" v="hill" />
		<tag k="place" v="locality" />
		<tag k="ssr:stedsnr" v="477158" />
	</node>
	<node lat="58.62277222299478" lon="8.654030562182081" id="-33023">
		<tag k="name" v="Grandalen" />
		<tag k="natural" v="valley" />
		<tag k="place" v="locality" />
		<tag k="ssr:stedsnr" v="477218" />
	</node>
	<node lat="58.605566663383804" lon="8.215233336694283" id="-33025">
		<tag k="fixme" v="consider natural=peak for the most distinct mountains in the district" />
		<tag k="name" v="Ravnåsen" />
		<tag k="natural" v="hill" />
		<tag k="place" v="locality" />
		<tag k="ssr:stedsnr" v="477271" />
	</node>
	<node lat="58.61964444625865" lon="8.27959721628769" id="-33027">
		<tag k="name" v="Maurdalen" />
		<tag k="natural" v="valley" />
		<tag k="place" v="locality" />
		<tag k="ssr:stedsnr" v="477276" />
	</node>
	<node lat="58.65420000105794" lon="8.184986117345908" id="-33033">
		<tag k="fixme" v="consider natural=peak for the most distinct mountains in the district" />
		<tag k="name" v="Skarpetjønnåsen" />
		<tag k="natural" v="hill" />
		<tag k="place" v="locality" />
		<tag k="ssr:stedsnr" v="477559" />
	</node>
	<node lat="58.674594443794575" lon="8.266775006199607" id="-33034">
		<tag k="name" v="Høgda" />
		<tag k="natural" v="ridge" />
		<tag k="place" v="locality" />
		<tag k="ssr:stedsnr" v="477562" />
	</node>
	<node lat="58.63170278101996" lon="8.623508339085474" id="-33035">
		<tag k="name" v="Berfalt" />
		<tag k="natural" v="slope" />
		<tag k="place" v="locality" />
		<tag k="ssr:stedsnr" v="477566" />
	</node>
	<node lat="58.551680551922" lon="8.441261117304597" id="-33037">
		<tag k="name" v="Øygardsdalen" />
		<tag k="natural" v="valley" />
		<tag k="place" v="locality" />
		<tag k="ssr:stedsnr" v="477457" />
	</node>
	<node lat="58.59458333284563" lon="8.211297220854462" id="-33041">
		<tag k="fixme" v="consider natural=peak for the most distinct mountains in the district" />
		<tag k="name" v="Kolstraumåsen" />
		<tag k="natural" v="hill" />
		<tag k="place" v="locality" />
		<tag k="ssr:stedsnr" v="477618" />
	</node>
	<node lat="58.54345833102819" lon="8.547941661387439" id="-33043">
		<tag k="name" v="Hauketoheia" />
		<tag k="natural" v="hill" />
		<tag k="place" v="locality" />
		<tag k="ssr:stedsnr" v="477659" />
	</node>
	<node lat="58.54256388808388" lon="8.531622224397745" id="-33044">
		<tag k="fixme" v="consider natural=peak for the most distinct mountains in the district" />
		<tag k="name" v="Ravnåsen" />
		<tag k="natural" v="hill" />
		<tag k="place" v="locality" />
		<tag k="ssr:stedsnr" v="477660" />
	</node>
	<node lat="58.557591663820716" lon="8.523730552893547" id="-33045">
		<tag k="name" v="Gruveheia" />
		<tag k="natural" v="hill" />
		<tag k="place" v="locality" />
		<tag k="ssr:stedsnr" v="477676" />
	</node>
	<node lat="58.639347218216614" lon="8.037622225682195" id="-33046">
		<tag k="name" v="Skarkelia" />
		<tag k="natural" v="slope" />
		<tag k="place" v="locality" />
		<tag k="ssr:stedsnr" v="477903" />
	</node>
	<node lat="58.63459999601534" lon="8.044747218364055" id="-33047">
		<tag k="name" v="Lianshommen" />
		<tag k="natural" v="valley" />
		<tag k="place" v="locality" />
		<tag k="ssr:stedsnr" v="477916" />
	</node>
	<node lat="58.56685555551579" lon="8.318663883653432" id="-33049">
		<tag k="name" v="Blankevasshei" />
		<tag k="natural" v="hill" />
		<tag k="place" v="locality" />
		<tag k="ssr:stedsnr" v="478317" />
	</node>
	<node lat="58.56995832924057" lon="8.330550002811437" id="-33050">
		<tag k="name" v="Lauvstakkheia" />
		<tag k="natural" v="hill" />
		<tag k="place" v="locality" />
		<tag k="ssr:stedsnr" v="478366" />
	</node>
	<node lat="58.62652500422312" lon="8.327136103625683" id="-33056">
		<tag k="alt_name" v="Bellandshei" />
		<tag k="fixme" v="consider natural=peak for the most distinct mountains in the district" />
		<tag k="name" v="Bellandsheia" />
		<tag k="natural" v="hill" />
		<tag k="place" v="locality" />
		<tag k="ssr:stedsnr" v="486103" />
	</node>
	<node lat="58.57588888573498" lon="8.322408338035121" id="-33057">
		<tag k="alt_name" v="Hovtjørnheia" />
		<tag k="fixme" v="consider natural=peak for the most distinct mountains in the district" />
		<tag k="name" v="Hovtjønnheia" />
		<tag k="natural" v="hill" />
		<tag k="place" v="locality" />
		<tag k="ssr:stedsnr" v="486105" />
	</node>
	<node lat="58.67827221897461" lon="8.082516666120029" id="-33060">
		<tag k="alt_name" v="Bjørnhidalen" />
		<tag k="name" v="Bjønnhidalen" />
		<tag k="natural" v="valley" />
		<tag k="place" v="locality" />
		<tag k="ssr:stedsnr" v="486616" />
	</node>
	<node lat="58.68281111276964" lon="8.066013884417991" id="-33061">
		<tag k="alt_name" v="Skjølvskotdalen" />
		<tag k="name" v="Sjølvskotdalen" />
		<tag k="natural" v="valley" />
		<tag k="place" v="locality" />
		<tag k="ssr:stedsnr" v="486624" />
	</node>
	<node lat="58.51253889223341" lon="8.615783340809246" id="-33065">
		<tag k="alt_name" v="Store Vrålshei;Vrålsheia, store" />
		<tag k="name" v="Store Vrålsheia" />
		<tag k="natural" v="hill" />
		<tag k="place" v="locality" />
		<tag k="ssr:stedsnr" v="486526" />
	</node>
	<node lat="58.6588472261742" lon="8.014719449535766" id="-33066">
		<tag k="name" v="Stavdalen" />
		<tag k="natural" v="valley" />
		<tag k="place" v="locality" />
		<tag k="ssr:stedsnr" v="486536" />
	</node>
	<node lat="58.63632222039058" lon="8.033969437565247" id="-33067">
		<tag k="name" v="Knutsli" />
		<tag k="natural" v="slope" />
		<tag k="place" v="locality" />
		<tag k="ssr:stedsnr" v="486565" />
	</node>
	<node lat="58.62944721948886" lon="8.614505551312082" id="-33069">
		<tag k="fixme" v="consider natural=peak for the most distinct mountains in the district" />
		<tag k="name" v="Jomåsknutene" />
		<tag k="natural" v="hill" />
		<tag k="place" v="locality" />
		<tag k="ssr:stedsnr" v="486773" />
	</node>
	<node lat="58.49544444540512" lon="8.550938885635011" id="-33082">
		<tag k="name" v="Grandalen" />
		<tag k="natural" v="valley" />
		<tag k="place" v="locality" />
		<tag k="ssr:stedsnr" v="519263" />
	</node>
	<node lat="58.63106666709979" lon="8.744133329853085" id="-33083">
		<tag k="name" v="Sandvassdalen" />
		<tag k="natural" v="valley" />
		<tag k="place" v="locality" />
		<tag k="ssr:stedsnr" v="519315" />
	</node>
	<node lat="58.542641662930016" lon="8.742816665010245" id="-33085">
		<tag k="fixme" v="consider natural=peak for the most distinct mountains in the district" />
		<tag k="name" v="Fiskåsen" />
		<tag k="natural" v="hill" />
		<tag k="place" v="locality" />
		<tag k="ssr:stedsnr" v="519325" />
	</node>
	<node lat="58.643800000634705" lon="8.199183327888615" id="-33101">
		<tag k="name" v="Kyrkjeklokkdalen" />
		<tag k="natural" v="valley" />
		<tag k="place" v="locality" />
		<tag k="ssr:stedsnr" v="537007" />
	</node>
	<node lat="58.6442861127053" lon="8.193997229559871" id="-33103">
		<tag k="fixme" v="consider natural=peak for the most distinct mountains in the district" />
		<tag k="name" v="Gåsetjønnåsen" />
		<tag k="natural" v="hill" />
		<tag k="place" v="locality" />
		<tag k="ssr:stedsnr" v="537010" />
	</node>
	<node lat="58.63261388934672" lon="8.241958337829754" id="-33106">
		<tag k="name" v="Såfet" />
		<tag k="place" v="locality" />
		<tag k="ssr:stedsnr" v="537186" />
	</node>
	<node lat="58.63916388510236" lon="8.612863885183287" id="-33107">
		<tag k="name" v="Tjernåsknatten" />
		<tag k="natural" v="hill" />
		<tag k="place" v="locality" />
		<tag k="ssr:stedsnr" v="537366" />
	</node>
	<node lat="58.639505552735535" lon="8.621561112241261" id="-33108">
		<tag k="name" v="Brusletholla" />
		<tag k="natural" v="valley" />
		<tag k="place" v="locality" />
		<tag k="ssr:stedsnr" v="537367" />
	</node>
	<node lat="58.67075000161692" lon="8.014800008172907" id="-33109">
		<tag k="name" v="Rypeheiskårane" />
		<tag k="natural" v="slope" />
		<tag k="place" v="locality" />
		<tag k="ssr:stedsnr" v="537070" />
	</node>
	<node lat="58.63016111013422" lon="8.217316658664366" id="-33112">
		<tag k="name" v="Plassen" />
		<tag k="natural" v="valley" />
		<tag k="place" v="locality" />
		<tag k="ssr:stedsnr" v="537223" />
	</node>
	<node lat="58.65800277848931" lon="8.156208334064145" id="-33113">
		<tag k="fixme" v="consider natural=peak for the most distinct mountains in the district" />
		<tag k="name" v="Glomsfjell" />
		<tag k="natural" v="hill" />
		<tag k="place" v="locality" />
		<tag k="ssr:stedsnr" v="537567" />
	</node>
	<node lat="58.66669166518232" lon="8.247691670284373" id="-33118">
		<tag k="name" v="Dansarplassen" />
		<tag k="place" v="locality" />
		<tag k="ssr:stedsnr" v="537666" />
	</node>
	<node lat="58.687800000222616" lon="7.987716660526818" id="-33119">
		<tag k="name" v="Homstølheia" />
		<tag k="natural" v="hill" />
		<tag k="place" v="locality" />
		<tag k="ssr:stedsnr" v="537986" />
	</node>
	<node lat="58.60669426481624" lon="8.463104416106727" id="-33120">
		<tag k="name" v="Mjunåsdalen" />
		<tag k="natural" v="valley" />
		<tag k="place" v="locality" />
		<tag k="ssr:stedsnr" v="538127" />
	</node>
	<node lat="58.57840277472604" lon="8.514580547597713" id="-33122">
		<tag k="name" v="Budalsli" />
		<tag k="natural" v="slope" />
		<tag k="place" v="locality" />
		<tag k="ssr:stedsnr" v="538014" />
	</node>
	<node lat="58.57729166597011" lon="8.502683332952136" id="-33123">
		<tag k="name" v="Grasdalen" />
		<tag k="natural" v="valley" />
		<tag k="place" v="locality" />
		<tag k="ssr:stedsnr" v="538016" />
	</node>
	<node lat="58.64148055400246" lon="8.595761104436033" id="-33126">
		<tag k="name" v="Taggdalen" />
		<tag k="natural" v="valley" />
		<tag k="place" v="locality" />
		<tag k="ssr:stedsnr" v="538074" />
	</node>
	<node lat="58.61241666958149" lon="8.37918888104464" id="-33132">
		<tag k="name" v="Hjalestadhei" />
		<tag k="natural" v="hill" />
		<tag k="place" v="locality" />
		<tag k="ssr:stedsnr" v="538470" />
	</node>
	<node lat="58.61069722305557" lon="8.355447229902888" id="-33133">
		<tag k="name" v="Torsdal" />
		<tag k="natural" v="valley" />
		<tag k="place" v="locality" />
		<tag k="ssr:stedsnr" v="538471" />
	</node>
	<node lat="58.6698305535799" lon="8.179983324802496" id="-33136">
		<tag k="name" v="Ovedalen" />
		<tag k="natural" v="valley" />
		<tag k="place" v="locality" />
		<tag k="ssr:stedsnr" v="538523" />
	</node>
	<node lat="58.667919440960745" lon="8.070683335440261" id="-33137">
		<tag k="name" v="Vasshei" />
		<tag k="natural" v="hill" />
		<tag k="place" v="locality" />
		<tag k="ssr:stedsnr" v="538615" />
	</node>
	<node lat="58.689922218472056" lon="8.1912444515798" id="-33138">
		<tag k="name" v="Hestkleivbrota" />
		<tag k="natural" v="slope" />
		<tag k="place" v="locality" />
		<tag k="ssr:stedsnr" v="538617" />
	</node>
	<node lat="58.54003055785668" lon="8.504225004732819" id="-33139">
		<tag k="name" v="Hattemyrhei" />
		<tag k="natural" v="hill" />
		<tag k="place" v="locality" />
		<tag k="ssr:stedsnr" v="538620" />
	</node>
	<node lat="58.67513055781052" lon="8.24860555025288" id="-33145">
		<tag k="name" v="Hestegrøvane" />
		<tag k="place" v="locality" />
		<tag k="ssr:stedsnr" v="538805" />
	</node>
	<node lat="58.67973888965396" lon="8.25972222945817" id="-33146">
		<tag k="name" v="Sveisdalslia" />
		<tag k="natural" v="slope" />
		<tag k="place" v="locality" />
		<tag k="ssr:stedsnr" v="538816" />
	</node>
	<node lat="58.670227779244925" lon="8.23130277363515" id="-33147">
		<tag k="name" v="Vengeskil" />
		<tag k="place" v="locality" />
		<tag k="ssr:stedsnr" v="538819" />
	</node>
	<node lat="58.67000000051734" lon="8.23716388240975" id="-33148">
		<tag k="name" v="Byttingdalen" />
		<tag k="natural" v="valley" />
		<tag k="place" v="locality" />
		<tag k="ssr:stedsnr" v="538821" />
	</node>
	<node lat="58.61762221857482" lon="8.206347223994689" id="-33150">
		<tag k="name" v="Varpet" />
		<tag k="natural" v="valley" />
		<tag k="place" v="locality" />
		<tag k="ssr:stedsnr" v="538578" />
	</node>
	<node lat="58.5786472231869" lon="8.589647221253573" id="-33151">
		<tag k="fixme" v="consider natural=peak for the most distinct mountains in the district" />
		<tag k="name" v="Ospelunden" />
		<tag k="natural" v="hill" />
		<tag k="place" v="locality" />
		<tag k="ssr:stedsnr" v="539106" />
	</node>
	<node lat="58.612774996315316" lon="8.370983329430128" id="-33157">
		<tag k="alt_name" v="Skaveliheia" />
		<tag k="fixme" v="consider natural=peak for the most distinct mountains in the district" />
		<tag k="name" v="Skavliheia" />
		<tag k="natural" v="hill" />
		<tag k="place" v="locality" />
		<tag k="ssr:stedsnr" v="546317" />
	</node>
	<node lat="58.48586111295882" lon="8.417486117349762" id="-33159">
		<tag k="fixme" v="consider natural=peak for the most distinct mountains in the district" />
		<tag k="name" v="Hestheia" />
		<tag k="natural" v="hill" />
		<tag k="place" v="locality" />
		<tag k="ssr:stedsnr" v="546416" />
	</node>
	<node lat="58.68724444807608" lon="8.03133056026449" id="-33161">
		<tag k="fixme" v="consider natural=peak for the most distinct mountains in the district" />
		<tag k="name" v="Lopperoknuten" />
		<tag k="natural" v="hill" />
		<tag k="place" v="locality" />
		<tag k="ssr:stedsnr" v="546575" />
	</node>
	<node lat="58.69146388695626" lon="8.093511105680472" id="-33162">
		<tag k="fixme" v="consider natural=peak for the most distinct mountains in the district" />
		<tag k="name" v="Befjell" />
		<tag k="natural" v="hill" />
		<tag k="place" v="locality" />
		<tag k="ssr:stedsnr" v="546585" />
	</node>
	<node lat="58.59820555665544" lon="8.721700000032031" id="-33163">
		<tag k="name" v="Idalen" />
		<tag k="natural" v="valley" />
		<tag k="place" v="locality" />
		<tag k="ssr:stedsnr" v="546807" />
	</node>
	<node lat="58.60047222376855" lon="8.669180558224205" id="-33165">
		<tag k="fixme" v="consider natural=peak for the most distinct mountains in the district" />
		<tag k="name" v="Gauperåfjellet" />
		<tag k="natural" v="hill" />
		<tag k="place" v="locality" />
		<tag k="ssr:stedsnr" v="546826" />
	</node>
	<node lat="58.61465000020589" lon="8.640677770510845" id="-33170">
		<tag k="fixme" v="consider natural=peak for the most distinct mountains in the district" />
		<tag k="name" v="Matbuåsen" />
		<tag k="natural" v="hill" />
		<tag k="place" v="locality" />
		<tag k="ssr:stedsnr" v="546781" />
	</node>
	<node lat="58.59558611010707" lon="8.320708326128438" id="-33171">
		<tag k="fixme" v="multiple name tags, choose one and add the other to alt_name; consider natural=peak for the most distinct mountains in the district" />
		<tag k="name" v="Solåsheia;Solåsen" />
		<tag k="natural" v="hill" />
		<tag k="place" v="locality" />
		<tag k="ssr:stedsnr" v="547166" />
	</node>
	<node lat="58.68354721788654" lon="8.235847218215072" id="-33177">
		<tag k="alt_name" v="Røyliheia" />
		<tag k="name" v="Røyneli" />
		<tag k="natural" v="slope" />
		<tag k="place" v="locality" />
		<tag k="ssr:stedsnr" v="547487" />
	</node>
	<node lat="58.65501666254795" lon="8.525533341645605" id="-33179">
		<tag k="name" v="Grandalsheia" />
		<tag k="natural" v="hill" />
		<tag k="place" v="locality" />
		<tag k="ssr:stedsnr" v="547974" />
	</node>
	<node lat="58.5555472200648" lon="8.708352780428676" id="-33183">
		<tag k="name" v="Hasseldalen" />
		<tag k="natural" v="valley" />
		<tag k="place" v="locality" />
		<tag k="ssr:stedsnr" v="579197" />
	</node>
	<node lat="58.62073611448835" lon="8.733452783369366" id="-33184">
		<tag k="fixme" v="consider natural=peak for the most distinct mountains in the district" />
		<tag k="name" v="Sirisås" />
		<tag k="natural" v="hill" />
		<tag k="place" v="locality" />
		<tag k="ssr:stedsnr" v="579315" />
	</node>
	<node lat="58.53028611350011" lon="8.554519441550372" id="-33185">
		<tag k="name" v="Svarttjennheia" />
		<tag k="natural" v="hill" />
		<tag k="place" v="locality" />
		<tag k="ssr:stedsnr" v="580020" />
	</node>
	<node lat="58.484516664526225" lon="8.580630558032652" id="-33191">
		<tag k="fixme" v="consider natural=peak for the most distinct mountains in the district" />
		<tag k="name" v="Høgehei" />
		<tag k="natural" v="hill" />
		<tag k="place" v="locality" />
		<tag k="ssr:stedsnr" v="580204" />
	</node>
	<node lat="58.517483329837106" lon="8.615272225274786" id="-33193">
		<tag k="fixme" v="consider natural=peak for the most distinct mountains in the district" />
		<tag k="name" v="Stiheia" />
		<tag k="natural" v="hill" />
		<tag k="place" v="locality" />
		<tag k="ssr:stedsnr" v="580200" />
	</node>
	<node lat="58.6661638890895" lon="8.258549995369373" id="-33194">
		<tag k="name" v="Skotet" />
		<tag k="natural" v="cliff" />
		<tag k="ssr:stedsnr" v="780639" />
	</node>
	<node lat="58.49377499817401" lon="8.387999996515724" id="-33198">
		<tag k="name" v="Blåbærheia" />
		<tag k="natural" v="hill" />
		<tag k="place" v="locality" />
		<tag k="ssr:stedsnr" v="595709" />
	</node>
	<node lat="58.46691110885989" lon="8.535888883761617" id="-33203">
		<tag k="name" v="Olasdal" />
		<tag k="natural" v="valley" />
		<tag k="place" v="locality" />
		<tag k="ssr:stedsnr" v="595906" />
	</node>
	<node lat="58.698155558995225" lon="8.11685832984537" id="-33208">
		<tag k="name" v="Øygardsdalen" />
		<tag k="natural" v="valley" />
		<tag k="place" v="locality" />
		<tag k="ssr:stedsnr" v="597904" />
	</node>
	<node lat="58.57706666282996" lon="8.528997229141604" id="-33209">
		<tag k="fixme" v="consider natural=peak for the most distinct mountains in the district" />
		<tag k="name" v="Lauvåsen" />
		<tag k="natural" v="hill" />
		<tag k="place" v="locality" />
		<tag k="ssr:stedsnr" v="598017" />
	</node>
	<node lat="58.63686944006305" lon="8.517788895286973" id="-33212">
		<tag k="name" v="Langedalen" />
		<tag k="natural" v="valley" />
		<tag k="place" v="locality" />
		<tag k="ssr:stedsnr" v="598040" />
	</node>
	<node lat="58.572072219286405" lon="8.539322218597398" id="-33213">
		<tag k="name" v="Storeskard" />
		<tag k="natural" v="valley" />
		<tag k="place" v="locality" />
		<tag k="ssr:stedsnr" v="598047" />
	</node>
	<node lat="58.632286108023024" lon="8.553838892090262" id="-33214">
		<tag k="name" v="Surtmyrdalen" />
		<tag k="natural" v="valley" />
		<tag k="place" v="locality" />
		<tag k="ssr:stedsnr" v="598050" />
	</node>
	<node lat="58.63327222176761" lon="8.592905557852786" id="-33216">
		<tag k="name" v="Kabbutdalen" />
		<tag k="natural" v="valley" />
		<tag k="place" v="locality" />
		<tag k="ssr:stedsnr" v="598053" />
	</node>
	<node lat="58.60592222468956" lon="8.219069450961602" id="-33217">
		<tag k="name" v="Norddal" />
		<tag k="natural" v="valley" />
		<tag k="place" v="locality" />
		<tag k="ssr:stedsnr" v="598264" />
	</node>
	<node lat="58.62199444767084" lon="8.408480552247614" id="-33219">
		<tag k="name" v="Åkroklia" />
		<tag k="natural" v="slope" />
		<tag k="place" v="locality" />
		<tag k="ssr:stedsnr" v="598463" />
	</node>
	<node lat="58.690002782309506" lon="8.269963896260762" id="-33224">
		<tag k="name" v="Svilldalsheia" />
		<tag k="natural" v="hill" />
		<tag k="place" v="locality" />
		<tag k="ssr:stedsnr" v="598549" />
	</node>
	<node lat="58.62304999978881" lon="8.246111110759001" id="-33227">
		<tag k="name" v="Jurdalslia" />
		<tag k="natural" v="slope" />
		<tag k="place" v="locality" />
		<tag k="ssr:stedsnr" v="598556" />
	</node>
	<node lat="58.623244448398054" lon="8.261649997395757" id="-33228">
		<tag k="name" v="Langbrudalen" />
		<tag k="natural" v="valley" />
		<tag k="place" v="locality" />
		<tag k="ssr:stedsnr" v="598561" />
	</node>
	<node lat="58.68860277536652" lon="8.143555553730929" id="-33229">
		<tag k="name" v="Svolberglia" />
		<tag k="natural" v="slope" />
		<tag k="place" v="locality" />
		<tag k="ssr:stedsnr" v="598563" />
	</node>
	<node lat="58.66812777395776" lon="8.117588881124677" id="-33231">
		<tag k="name" v="Lindalen" />
		<tag k="natural" v="valley" />
		<tag k="place" v="locality" />
		<tag k="ssr:stedsnr" v="598611" />
	</node>
	<node lat="58.6693527808611" lon="8.244388881674755" id="-33233">
		<tag k="name" v="Bakkeholta" />
		<tag k="natural" v="slope" />
		<tag k="place" v="locality" />
		<tag k="ssr:stedsnr" v="598806" />
	</node>
	<node lat="58.661630558152524" lon="8.094999994402103" id="-33234">
		<tag k="name" v="Urhomsfjellet" />
		<tag k="natural" v="cliff" />
		<tag k="ssr:stedsnr" v="598959" />
	</node>
	<node lat="58.66160278169309" lon="8.110369445857714" id="-33235">
		<tag k="name" v="Kleivdal" />
		<tag k="natural" v="valley" />
		<tag k="place" v="locality" />
		<tag k="ssr:stedsnr" v="598962" />
	</node>
	<node lat="58.610569440579205" lon="8.468449999480187" id="-33236">
		<tag k="name" v="Stutholheia" />
		<tag k="natural" v="hill" />
		<tag k="place" v="locality" />
		<tag k="ssr:stedsnr" v="599101" />
	</node>
	<node lat="58.60806944431966" lon="8.639555555699367" id="-33238">
		<tag k="name" v="Homstjernhagen" />
		<tag k="natural" v="slope" />
		<tag k="place" v="locality" />
		<tag k="ssr:stedsnr" v="599210" />
	</node>
	<node lat="58.61278610848842" lon="8.618441662397586" id="-33239">
		<tag k="name" v="Tunga" />
		<tag k="natural" v="slope" />
		<tag k="place" v="locality" />
		<tag k="ssr:stedsnr" v="599217" />
	</node>
	<node lat="58.62377499723916" lon="8.64176666869144" id="-33240">
		<tag k="name" v="Saueheia" />
		<tag k="natural" v="hill" />
		<tag k="place" v="locality" />
		<tag k="ssr:stedsnr" v="599198" />
	</node>
	<node lat="58.58746111531875" lon="8.64110833935254" id="-33241">
		<tag k="fixme" v="consider natural=peak for the most distinct mountains in the district" />
		<tag k="name" v="Eikbruåsen" />
		<tag k="natural" v="hill" />
		<tag k="place" v="locality" />
		<tag k="ssr:stedsnr" v="599448" />
	</node>
	<node lat="58.6037166680781" lon="8.647127771512055" id="-33242">
		<tag k="name" v="Østheia" />
		<tag k="natural" v="hill" />
		<tag k="place" v="locality" />
		<tag k="ssr:stedsnr" v="599451" />
	</node>
	<node lat="58.586094445216226" lon="8.319847223511063" id="-33244">
		<tag k="name" v="Kvævknotten" />
		<tag k="natural" v="hill" />
		<tag k="place" v="locality" />
		<tag k="ssr:stedsnr" v="599505" />
	</node>
	<node lat="58.58678610722038" lon="8.320308335316142" id="-33245">
		<tag k="name" v="Kvævdalen" />
		<tag k="natural" v="valley" />
		<tag k="place" v="locality" />
		<tag k="ssr:stedsnr" v="599506" />
	</node>
	<node lat="58.58732778053276" lon="8.32714999418653" id="-33246">
		<tag k="name" v="Seten" />
		<tag k="place" v="locality" />
		<tag k="ssr:stedsnr" v="599508" />
	</node>
	<node lat="58.544538888092774" lon="8.641227776627458" id="-33248">
		<tag k="name" v="Svintoksdalen" />
		<tag k="natural" v="valley" />
		<tag k="place" v="locality" />
		<tag k="ssr:stedsnr" v="599806" />
	</node>
	<node lat="58.51064444214746" lon="8.443202773456118" id="-33251">
		<tag k="fixme" v="consider natural=peak for the most distinct mountains in the district" />
		<tag k="name" v="Granåsen" />
		<tag k="natural" v="hill" />
		<tag k="place" v="locality" />
		<tag k="ssr:stedsnr" v="607004" />
	</node>
	<node lat="58.65878055244514" lon="8.22370555785285" id="-33255">
		<tag k="alt_name" v="Engerdal" />
		<tag k="name" v="Engdalen" />
		<tag k="natural" v="valley" />
		<tag k="place" v="locality" />
		<tag k="ssr:stedsnr" v="607299" />
	</node>
	<node lat="58.67656388841343" lon="8.237844452921369" id="-33257">
		<tag k="alt_name" v="Jåkleheia" />
		<tag k="fixme" v="consider natural=peak for the most distinct mountains in the district" />
		<tag k="name" v="Jåklehei" />
		<tag k="natural" v="hill" />
		<tag k="place" v="locality" />
		<tag k="ssr:stedsnr" v="607312" />
	</node>
	<node lat="58.673675000028844" lon="8.242663895661877" id="-33258">
		<tag k="name" v="Gråndalen" />
		<tag k="natural" v="valley" />
		<tag k="place" v="locality" />
		<tag k="ssr:stedsnr" v="607313" />
	</node>
	<node lat="58.50038055260696" lon="8.628166670901125" id="-33262">
		<tag k="alt_name" v="Skarkkollsheia" />
		<tag k="name" v="Skarkollheia" />
		<tag k="natural" v="hill" />
		<tag k="place" v="locality" />
		<tag k="ssr:stedsnr" v="607520" />
	</node>
	<node lat="58.6621638922816" lon="8.088430552321743" id="-33263">
		<tag k="alt_name" v="Tverrfjellet" />
		<tag k="fixme" v="consider natural=peak for the most distinct mountains in the district" />
		<tag k="name" v="Tverrfjell" />
		<tag k="natural" v="hill" />
		<tag k="place" v="locality" />
		<tag k="ssr:stedsnr" v="607522" />
	</node>
	<node lat="58.688775002716184" lon="8.107925005387553" id="-33265">
		<tag k="fixme" v="consider natural=peak for the most distinct mountains in the district" />
		<tag k="name" v="Skorva" />
		<tag k="natural" v="hill" />
		<tag k="place" v="locality" />
		<tag k="ssr:stedsnr" v="607445" />
	</node>
	<node lat="58.679872224447195" lon="8.126091668594281" id="-33266">
		<tag k="fixme" v="consider natural=peak for the most distinct mountains in the district" />
		<tag k="name" v="Vore" />
		<tag k="natural" v="hill" />
		<tag k="place" v="locality" />
		<tag k="ssr:stedsnr" v="607446" />
	</node>
	<node lat="58.695341662826195" lon="8.1970888902655" id="-33268">
		<tag k="fixme" v="consider natural=peak for the most distinct mountains in the district" />
		<tag k="name" v="Fjellveggheia" />
		<tag k="natural" v="hill" />
		<tag k="place" v="locality" />
		<tag k="ssr:stedsnr" v="607462" />
	</node>
	<node lat="58.549663884600385" lon="8.54791667007781" id="-33269">
		<tag k="fixme" v="consider natural=peak for the most distinct mountains in the district" />
		<tag k="name" v="Solefjell" />
		<tag k="natural" v="hill" />
		<tag k="place" v="locality" />
		<tag k="ssr:stedsnr" v="607645" />
	</node>
	<node lat="58.686977781462865" lon="8.077538894701217" id="-33271">
		<tag k="alt_name" v="Befjellskardet, vestre" />
		<tag k="name" v="Vestre Befjellskar" />
		<tag k="natural" v="valley" />
		<tag k="place" v="locality" />
		<tag k="ssr:stedsnr" v="607605" />
	</node>
	<node lat="58.507338889045585" lon="8.484238894034604" id="-33272">
		<tag k="fixme" v="consider natural=peak for the most distinct mountains in the district" />
		<tag k="name" v="Eikåsen" />
		<tag k="natural" v="hill" />
		<tag k="place" v="locality" />
		<tag k="ssr:stedsnr" v="607746" />
	</node>
	<node lat="58.66696944381816" lon="8.474199996079529" id="-33274">
		<tag k="fixme" v="consider natural=peak for the most distinct mountains in the district" />
		<tag k="name" v="Eikåsen" />
		<tag k="natural" v="hill" />
		<tag k="place" v="locality" />
		<tag k="ssr:stedsnr" v="607907" />
	</node>
	<node lat="58.56921944016424" lon="8.49503889439432" id="-33276">
		<tag k="fixme" v="consider natural=peak for the most distinct mountains in the district" />
		<tag k="name" v="Barlindåsen" />
		<tag k="natural" v="hill" />
		<tag k="place" v="locality" />
		<tag k="ssr:stedsnr" v="607850" />
	</node>
	<node lat="58.52069444701011" lon="8.698275005289396" id="-33277">
		<tag k="name" v="Bjønnhei" />
		<tag k="natural" v="hill" />
		<tag k="place" v="locality" />
		<tag k="ssr:stedsnr" v="701036" />
	</node>
	<node lat="58.525299996202" lon="8.696088887532902" id="-33278">
		<tag k="name" v="Øygarden" />
		<tag k="natural" v="slope" />
		<tag k="place" v="locality" />
		<tag k="ssr:stedsnr" v="701043" />
	</node>
	<node lat="58.580933337740376" lon="8.693302782428" id="-33282">
		<tag k="fixme" v="consider natural=peak for the most distinct mountains in the district" />
		<tag k="name" v="Snømyrheia" />
		<tag k="natural" v="hill" />
		<tag k="place" v="locality" />
		<tag k="ssr:stedsnr" v="701149" />
	</node>
	<node lat="58.5791555580522" lon="8.663924995787013" id="-33285">
		<tag k="fixme" v="consider natural=peak for the most distinct mountains in the district" />
		<tag k="name" v="Songeheia" />
		<tag k="natural" v="hill" />
		<tag k="place" v="locality" />
		<tag k="ssr:stedsnr" v="701173" />
	</node>
	<node lat="58.588241667121736" lon="8.702319440889621" id="-33287">
		<tag k="fixme" v="consider natural=peak for the most distinct mountains in the district" />
		<tag k="name" v="Storemyrheia" />
		<tag k="natural" v="hill" />
		<tag k="place" v="locality" />
		<tag k="ssr:stedsnr" v="701186" />
	</node>
	<node lat="58.59033611531503" lon="8.660427784987657" id="-33288">
		<tag k="name" v="Ormeholmen" />
		<tag k="place" v="locality" />
		<tag k="ssr:stedsnr" v="701195" />
	</node>
	<node lat="58.54092777662382" lon="8.698452782269563" id="-33289">
		<tag k="fixme" v="consider natural=peak for the most distinct mountains in the district" />
		<tag k="name" v="Mønåsen" />
		<tag k="natural" v="hill" />
		<tag k="place" v="locality" />
		<tag k="ssr:stedsnr" v="701206" />
	</node>
	<node lat="58.61536110947787" lon="8.694130548801702" id="-33290">
		<tag k="fixme" v="consider natural=peak for the most distinct mountains in the district" />
		<tag k="name" v="Kattåsene" />
		<tag k="natural" v="hill" />
		<tag k="place" v="locality" />
		<tag k="ssr:stedsnr" v="701425" />
	</node>
	<node lat="58.51518889249529" lon="8.592252770310807" id="-33294">
		<tag k="name" v="Tveitdalen" />
		<tag k="natural" v="valley" />
		<tag k="place" v="locality" />
		<tag k="ssr:stedsnr" v="640003" />
	</node>
	<node lat="58.517405555325375" lon="8.711000001937634" id="-33297">
		<tag k="name" v="Langemyrheia" />
		<tag k="natural" v="hill" />
		<tag k="place" v="locality" />
		<tag k="ssr:stedsnr" v="640018" />
	</node>
	<node lat="58.53652777728307" lon="8.627530556432427" id="-33300">
		<tag k="name" v="Trolldalen" />
		<tag k="natural" v="valley" />
		<tag k="place" v="locality" />
		<tag k="ssr:stedsnr" v="640224" />
	</node>
	<node lat="58.528213886371134" lon="8.643888881151403" id="-33302">
		<tag k="fixme" v="consider natural=peak for the most distinct mountains in the district" />
		<tag k="name" v="Skaråsen" />
		<tag k="natural" v="hill" />
		<tag k="place" v="locality" />
		<tag k="ssr:stedsnr" v="640231" />
	</node>
	<node lat="58.4826416654773" lon="8.652252779021994" id="-33303">
		<tag k="name" v="Gamlebu" />
		<tag k="place" v="locality" />
		<tag k="ssr:stedsnr" v="640234" />
	</node>
	<node lat="58.523427775746676" lon="8.444000006564028" id="-33310">
		<tag k="name" v="Raundalsheia" />
		<tag k="natural" v="hill" />
		<tag k="place" v="locality" />
		<tag k="ssr:stedsnr" v="656011" />
	</node>
	<node lat="58.49163610788639" lon="8.423252782748524" id="-33315">
		<tag k="name" v="Storehei" />
		<tag k="natural" v="hill" />
		<tag k="place" v="locality" />
		<tag k="ssr:stedsnr" v="656741" />
	</node>
	<node lat="58.473219442559575" lon="8.566713886151176" id="-33316">
		<tag k="name" v="Tronshus" />
		<tag k="natural" v="slope" />
		<tag k="place" v="locality" />
		<tag k="ssr:stedsnr" v="656910" />
	</node>
	<node lat="58.46648611269489" lon="8.544780559439523" id="-33317">
		<tag k="name" v="Skarkeholla" />
		<tag k="natural" v="valley" />
		<tag k="place" v="locality" />
		<tag k="ssr:stedsnr" v="656912" />
	</node>
	<node lat="58.667488887904796" lon="8.017194442644316" id="-33318">
		<tag k="name" v="Sauedalen" />
		<tag k="natural" v="valley" />
		<tag k="place" v="locality" />
		<tag k="ssr:stedsnr" v="658085" />
	</node>
	<node lat="58.6799333352282" lon="8.007719438873893" id="-33319">
		<tag k="name" v="Tereleiken" />
		<tag k="natural" v="slope" />
		<tag k="place" v="locality" />
		<tag k="ssr:stedsnr" v="658090" />
	</node>
	<node lat="58.6807750007071" lon="8.01657222080068" id="-33320">
		<tag k="name" v="Homstøllia" />
		<tag k="natural" v="slope" />
		<tag k="place" v="locality" />
		<tag k="ssr:stedsnr" v="658093" />
	</node>
	<node lat="58.63326389167725" lon="8.376086116423137" id="-33326">
		<tag k="name" v="Rambergvasslia" />
		<tag k="natural" v="slope" />
		<tag k="place" v="locality" />
		<tag k="ssr:stedsnr" v="658385" />
	</node>
	<node lat="58.65476944092329" lon="8.265377772327863" id="-33330">
		<tag k="name" v="Treskodalen" />
		<tag k="natural" v="valley" />
		<tag k="place" v="locality" />
		<tag k="ssr:stedsnr" v="658742" />
	</node>
	<node lat="58.56273611328004" lon="8.46883888418792" id="-33336">
		<tag k="name" v="Sauebekklia" />
		<tag k="natural" v="slope" />
		<tag k="place" v="locality" />
		<tag k="ssr:stedsnr" v="659034" />
	</node>
	<node lat="58.62294444126015" lon="8.446894443110281" id="-33337">
		<tag k="name" v="Fivvatslia" />
		<tag k="natural" v="slope" />
		<tag k="place" v="locality" />
		<tag k="ssr:stedsnr" v="659037" />
	</node>
	<node lat="58.682633334601036" lon="7.980552781397108" id="-33341">
		<tag k="name" v="Martin Grauteknatte" />
		<tag k="natural" v="hill" />
		<tag k="place" v="locality" />
		<tag k="ssr:stedsnr" v="659206" />
	</node>
	<node lat="58.616433329255536" lon="8.631577783083666" id="-33343">
		<tag k="name" v="Matbuvasslia" />
		<tag k="natural" v="slope" />
		<tag k="place" v="locality" />
		<tag k="ssr:stedsnr" v="659236" />
	</node>
	<node lat="58.61350277595298" lon="8.63374443668523" id="-33344">
		<tag k="name" v="Linrappskotet" />
		<tag k="natural" v="valley" />
		<tag k="place" v="locality" />
		<tag k="ssr:stedsnr" v="659238" />
	</node>
	<node lat="58.60479444562388" lon="8.608411117603932" id="-33345">
		<tag k="name" v="Ormtjernmoen" />
		<tag k="old_name" v="Ormetjernrnoen" />
		<tag k="place" v="locality" />
		<tag k="ssr:stedsnr" v="659245" />
	</node>
	<node lat="58.64301388737973" lon="8.292266665351836" id="-33347">
		<tag k="fixme" v="consider natural=peak for the most distinct mountains in the district" />
		<tag k="name" v="Lille Færås" />
		<tag k="natural" v="hill" />
		<tag k="place" v="locality" />
		<tag k="ssr:stedsnr" v="659182" />
	</node>
	<node lat="58.610083337577905" lon="8.602336119173675" id="-33349">
		<tag k="fixme" v="consider natural=peak for the most distinct mountains in the district" />
		<tag k="name" v="Seneheia" />
		<tag k="natural" v="hill" />
		<tag k="place" v="locality" />
		<tag k="ssr:stedsnr" v="659201" />
	</node>
	<node lat="58.54630555405876" lon="8.27056665942909" id="-33350">
		<tag k="name" v="Øvre Haguldalen" />
		<tag k="natural" v="valley" />
		<tag k="place" v="locality" />
		<tag k="ssr:stedsnr" v="659202" />
	</node>
	<node lat="58.59381666509761" lon="8.214791672704456" id="-33355">
		<tag k="name" v="Eptevasslia" />
		<tag k="natural" v="slope" />
		<tag k="place" v="locality" />
		<tag k="ssr:stedsnr" v="659603" />
	</node>
	<node lat="58.677013893306246" lon="8.2175694397342" id="-33357">
		<tag k="name" v="Krossen" />
		<tag k="place" v="locality" />
		<tag k="ssr:stedsnr" v="659608" />
	</node>
	<node lat="58.65640833673639" lon="8.134408328301092" id="-33360">
		<tag k="name" v="Raunliknatten" />
		<tag k="natural" v="hill" />
		<tag k="place" v="locality" />
		<tag k="ssr:stedsnr" v="659505" />
	</node>
	<node lat="58.622963887187794" lon="8.21915833932723" id="-33363">
		<tag k="name" v="Vinterdalsåsen" />
		<tag k="natural" v="hill" />
		<tag k="place" v="locality" />
		<tag k="ssr:stedsnr" v="659513" />
	</node>
	<node lat="58.58342221927076" lon="8.283816666540037" id="-33364">
		<tag k="fixme" v="consider natural=peak for the most distinct mountains in the district" />
		<tag k="name" v="Vestre Berketjønnknuten" />
		<tag k="natural" v="hill" />
		<tag k="place" v="locality" />
		<tag k="ssr:stedsnr" v="659531" />
	</node>
	<node lat="58.6368611078962" lon="8.624369436755584" id="-33365">
		<tag k="name" v="Liggeråslia" />
		<tag k="natural" v="slope" />
		<tag k="place" v="locality" />
		<tag k="ssr:stedsnr" v="659534" />
	</node>
	<node lat="58.5950194468268" lon="8.20878610462464" id="-33368">
		<tag k="name" v="Kolstraumliane" />
		<tag k="natural" v="slope" />
		<tag k="place" v="locality" />
		<tag k="ssr:stedsnr" v="659602" />
	</node>
	<node lat="58.662072222842795" lon="8.342097215316969" id="-33369">
		<tag k="name" v="Langemyrfjella" />
		<tag k="natural" v="ridge" />
		<tag k="place" v="locality" />
		<tag k="ssr:stedsnr" v="659706" />
	</node>
	<node lat="58.67233055422567" lon="8.4879472236995" id="-33371">
		<tag k="name" v="Foleli" />
		<tag k="natural" v="slope" />
		<tag k="place" v="locality" />
		<tag k="ssr:stedsnr" v="659681" />
	</node>
	<node lat="58.6800027813364" lon="8.238708336535467" id="-33372">
		<tag k="name" v="Røyneliknatten" />
		<tag k="natural" v="hill" />
		<tag k="place" v="locality" />
		<tag k="ssr:stedsnr" v="659810" />
	</node>
	<node lat="58.587347224648276" lon="8.606033329770293" id="-33375">
		<tag k="name" v="Gåstjønnfjella" />
		<tag k="natural" v="hill" />
		<tag k="place" v="locality" />
		<tag k="ssr:stedsnr" v="660483" />
	</node>
	<node lat="58.59051389153955" lon="8.607083328691886" id="-33376">
		<tag k="name" v="Færåsen" />
		<tag k="natural" v="hill" />
		<tag k="place" v="locality" />
		<tag k="ssr:stedsnr" v="660490" />
	</node>
	<node lat="58.593377777617874" lon="8.622458340063071" id="-33378">
		<tag k="fixme" v="consider natural=peak for the most distinct mountains in the district" />
		<tag k="name" v="Myssåsen" />
		<tag k="natural" v="hill" />
		<tag k="place" v="locality" />
		<tag k="ssr:stedsnr" v="660493" />
	</node>
	<node lat="58.5466666638572" lon="8.595938883530343" id="-33379">
		<tag k="name" v="Krossbrekk" />
		<tag k="natural" v="ridge" />
		<tag k="place" v="locality" />
		<tag k="ssr:stedsnr" v="660693" />
	</node>
	<node lat="58.55804166585391" lon="8.596230552687327" id="-33380">
		<tag k="name" v="Øygardsdalen" />
		<tag k="natural" v="valley" />
		<tag k="place" v="locality" />
		<tag k="ssr:stedsnr" v="660697" />
	</node>
	<node lat="58.550380556795545" lon="8.652058332770174" id="-33381">
		<tag k="name" v="Heståsen" />
		<tag k="natural" v="hill" />
		<tag k="place" v="locality" />
		<tag k="ssr:stedsnr" v="660808" />
	</node>
	<node lat="58.56356944345311" lon="8.561227780669894" id="-33385">
		<tag k="name" v="Mønefjell" />
		<tag k="natural" v="ridge" />
		<tag k="place" v="locality" />
		<tag k="ssr:stedsnr" v="660993" />
	</node>
	<node lat="58.588791665773066" lon="8.242380562538564" id="-33390">
		<tag k="fixme" v="consider natural=peak for the most distinct mountains in the district" />
		<tag k="name" v="Liansheia" />
		<tag k="natural" v="hill" />
		<tag k="place" v="locality" />
		<tag k="ssr:stedsnr" v="668158" />
	</node>
	<node lat="58.58993610931252" lon="8.33253334059166" id="-33391">
		<tag k="fixme" v="consider natural=peak for the most distinct mountains in the district" />
		<tag k="name" v="Klefjellet" />
		<tag k="natural" v="hill" />
		<tag k="place" v="locality" />
		<tag k="ssr:stedsnr" v="668189" />
	</node>
	<node lat="58.646908337462705" lon="8.128463893737141" id="-33393">
		<tag k="fixme" v="consider natural=peak for the most distinct mountains in the district" />
		<tag k="name" v="Heddefjellknuten" />
		<tag k="natural" v="hill" />
		<tag k="place" v="locality" />
		<tag k="ssr:stedsnr" v="668304" />
	</node>
	<node lat="58.56134999783772" lon="8.436227769702226" id="-33397">
		<tag k="fixme" v="consider natural=peak for the most distinct mountains in the district" />
		<tag k="name" v="Holbekkheia" />
		<tag k="natural" v="hill" />
		<tag k="place" v="locality" />
		<tag k="ssr:stedsnr" v="668241" />
	</node>
	<node lat="58.67871111340592" lon="8.100872229454424" id="-33399">
		<tag k="alt_name" v="Vore, vestre" />
		<tag k="fixme" v="consider natural=peak for the most distinct mountains in the district" />
		<tag k="name" v="Vestre Vore" />
		<tag k="natural" v="hill" />
		<tag k="place" v="locality" />
		<tag k="ssr:stedsnr" v="668333" />
	</node>
	<node lat="58.49994999594045" lon="8.55219166209017" id="-33402">
		<tag k="alt_name" v="Rusteheia" />
		<tag k="name" v="Rustehei" />
		<tag k="natural" v="hill" />
		<tag k="place" v="locality" />
		<tag k="ssr:stedsnr" v="668538" />
	</node>
	<node lat="58.702466665624314" lon="8.042733341535646" id="-33403">
		<tag k="name" v="Storli" />
		<tag k="natural" v="slope" />
		<tag k="place" v="locality" />
		<tag k="ssr:stedsnr" v="668584" />
	</node>
	<node lat="58.697952782143105" lon="8.05024721453865" id="-33404">
		<tag k="fixme" v="consider natural=peak for the most distinct mountains in the district" />
		<tag k="name" v="Smørliknuten" />
		<tag k="natural" v="hill" />
		<tag k="place" v="locality" />
		<tag k="ssr:stedsnr" v="668585" />
	</node>
	<node lat="58.700877774702114" lon="7.987566660518741" id="-33405">
		<tag k="name" v="Myhola" />
		<tag k="place" v="locality" />
		<tag k="ssr:stedsnr" v="668589" />
	</node>
	<node lat="58.52372500344842" lon="8.583408338768383" id="-33412">
		<tag k="name" v="Butteheia" />
		<tag k="natural" v="hill" />
		<tag k="place" v="locality" />
		<tag k="ssr:stedsnr" v="701070" />
	</node>
	<node lat="58.51464444039029" lon="8.62698888418171" id="-33414">
		<tag k="fixme" v="consider natural=peak for the most distinct mountains in the district" />
		<tag k="name" v="Kollåsen" />
		<tag k="natural" v="hill" />
		<tag k="place" v="locality" />
		<tag k="ssr:stedsnr" v="701284" />
	</node>
	<node lat="58.54454166579685" lon="8.726772228757818" id="-33416">
		<tag k="fixme" v="consider natural=peak for the most distinct mountains in the district" />
		<tag k="name" v="Seljåsen" />
		<tag k="natural" v="hill" />
		<tag k="place" v="locality" />
		<tag k="ssr:stedsnr" v="701379" />
	</node>
	<node lat="58.51984722554399" lon="8.486277777354422" id="-33424">
		<tag k="name" v="Svartupsfjell" />
		<tag k="natural" v="hill" />
		<tag k="place" v="locality" />
		<tag k="ssr:stedsnr" v="899053" />
	</node>
	<node lat="58.48220555251296" lon="8.427288886471164" id="-33428">
		<tag k="name" v="Borkedalsdaler" />
		<tag k="natural" v="valley" />
		<tag k="place" v="locality" />
		<tag k="ssr:stedsnr" v="717734" />
	</node>
	<node lat="58.45418888984202" lon="8.550086105015804" id="-33430">
		<tag k="fixme" v="consider natural=peak for the most distinct mountains in the district" />
		<tag k="name" v="Høgåsen" />
		<tag k="natural" v="hill" />
		<tag k="place" v="locality" />
		<tag k="ssr:stedsnr" v="717916" />
	</node>
	<node lat="58.664291668044314" lon="8.112363889139449" id="-33434">
		<tag k="name" v="Ringreiskjerrmonen" />
		<tag k="place" v="locality" />
		<tag k="ssr:stedsnr" v="719312" />
	</node>
	<node lat="58.503452781858705" lon="8.473933334009743" id="-33436">
		<tag k="fixme" v="consider natural=peak for the most distinct mountains in the district" />
		<tag k="name" v="Veneliåsen" />
		<tag k="natural" v="hill" />
		<tag k="place" v="locality" />
		<tag k="ssr:stedsnr" v="899402" />
	</node>
	<node lat="58.66733055233883" lon="8.05071388552403" id="-33438">
		<tag k="name" v="Åshamslia" />
		<tag k="natural" v="slope" />
		<tag k="place" v="locality" />
		<tag k="ssr:stedsnr" v="719668" />
	</node>
	<node lat="58.662611107050026" lon="8.252705552957355" id="-33439">
		<tag k="name" v="Småliane" />
		<tag k="natural" v="slope" />
		<tag k="place" v="locality" />
		<tag k="ssr:stedsnr" v="719671" />
	</node>
	<node lat="58.66626388539624" lon="8.250761116722247" id="-33440">
		<tag k="name" v="Monen" />
		<tag k="place" v="locality" />
		<tag k="ssr:stedsnr" v="719675" />
	</node>
	<node lat="58.668338885986984" lon="8.22109443894577" id="-33442">
		<tag k="name" v="Vermåldalen" />
		<tag k="natural" v="valley" />
		<tag k="place" v="locality" />
		<tag k="ssr:stedsnr" v="719697" />
	</node>
	<node lat="58.670411107457" lon="8.269444448507642" id="-33443">
		<tag k="name" v="Skarane" />
		<tag k="natural" v="slope" />
		<tag k="place" v="locality" />
		<tag k="ssr:stedsnr" v="719811" />
	</node>
	<node lat="58.58159722222697" lon="8.516466660948064" id="-33446">
		<tag k="name" v="Sandkleiva" />
		<tag k="natural" v="slope" />
		<tag k="place" v="locality" />
		<tag k="ssr:stedsnr" v="720006" />
	</node>
	<node lat="58.62334722187194" lon="8.606808328721263" id="-33447">
		<tag k="name" v="Seden" />
		<tag k="natural" v="slope" />
		<tag k="place" v="locality" />
		<tag k="ssr:stedsnr" v="720218" />
	</node>
	<node lat="58.619824997272914" lon="8.636849992034708" id="-33448">
		<tag k="name" v="Matbuåsen" />
		<tag k="natural" v="hill" />
		<tag k="place" v="locality" />
		<tag k="ssr:stedsnr" v="720224" />
	</node>
	<node lat="58.62222777553122" lon="8.624216672082065" id="-33449">
		<tag k="fixme" v="consider natural=peak for the most distinct mountains in the district" />
		<tag k="name" v="Ostre Knutstølhei" />
		<tag k="natural" v="hill" />
		<tag k="place" v="locality" />
		<tag k="ssr:stedsnr" v="720228" />
	</node>
	<node lat="58.60479722603077" lon="8.617563887191505" id="-33450">
		<tag k="fixme" v="consider natural=peak for the most distinct mountains in the district" />
		<tag k="name" v="Littmonknatten" />
		<tag k="natural" v="hill" />
		<tag k="place" v="locality" />
		<tag k="ssr:stedsnr" v="720239" />
	</node>
	<node lat="58.61758889187655" lon="8.57996110899206" id="-33453">
		<tag k="name" v="Åsene" />
		<tag k="natural" v="hill" />
		<tag k="place" v="locality" />
		<tag k="ssr:stedsnr" v="720191" />
	</node>
	<node lat="58.619419444471625" lon="8.389013888237107" id="-33455">
		<tag k="name" v="Haugåsen" />
		<tag k="natural" v="hill" />
		<tag k="place" v="locality" />
		<tag k="ssr:stedsnr" v="720478" />
	</node>
	<node lat="58.67490833423656" lon="8.128086115998622" id="-33456">
		<tag k="name" v="Det kvite" />
		<tag k="place" v="locality" />
		<tag k="ssr:stedsnr" v="720622" />
	</node>
	<node lat="58.60051389301107" lon="8.245394437979364" id="-33457">
		<tag k="name" v="Slettehei" />
		<tag k="natural" v="hill" />
		<tag k="place" v="locality" />
		<tag k="ssr:stedsnr" v="720624" />
	</node>
	<node lat="58.65783888453283" lon="8.210238887716717" id="-33460">
		<tag k="name" v="Budalsfjellet" />
		<tag k="natural" v="cliff" />
		<tag k="ssr:stedsnr" v="720576" />
	</node>
	<node lat="58.67275000353993" lon="8.104783338289215" id="-33461">
		<tag k="name" v="Finnbråtet" />
		<tag k="natural" v="slope" />
		<tag k="place" v="locality" />
		<tag k="ssr:stedsnr" v="720579" />
	</node>
	<node lat="58.67176388856337" lon="8.10184444924738" id="-33462">
		<tag k="name" v="Skavdalsheia" />
		<tag k="natural" v="hill" />
		<tag k="place" v="locality" />
		<tag k="ssr:stedsnr" v="720581" />
	</node>
	<node lat="58.57658888455731" lon="8.283391674197023" id="-33467">
		<tag k="name" v="Kyrsfjell" />
		<tag k="natural" v="hill" />
		<tag k="place" v="locality" />
		<tag k="ssr:stedsnr" v="721282" />
	</node>
	<node lat="58.49315555604582" lon="8.487024993140937" id="-33468">
		<tag k="name" v="Gangvassdalen" />
		<tag k="natural" v="valley" />
		<tag k="place" v="locality" />
		<tag k="ssr:stedsnr" v="899700" />
	</node>
	<node lat="58.486613889203085" lon="8.480988893909721" id="-33469">
		<tag k="name" v="Hundeheia" />
		<tag k="natural" v="hill" />
		<tag k="place" v="locality" />
		<tag k="ssr:stedsnr" v="899728" />
	</node>
	<node lat="58.49272500298137" lon="8.382338883151082" id="-33472">
		<tag k="name" v="Holtebuheia" />
		<tag k="natural" v="hill" />
		<tag k="place" v="locality" />
		<tag k="ssr:stedsnr" v="899743" />
	</node>
	<node lat="58.45973055847361" lon="8.554755562346847" id="-33474">
		<tag k="name" v="Sauetjennlia" />
		<tag k="natural" v="slope" />
		<tag k="place" v="locality" />
		<tag k="ssr:stedsnr" v="899877" />
	</node>
	<node lat="58.56249721885543" lon="8.634847220099461" id="-33475">
		<tag k="name" v="Hollarknattene" />
		<tag k="natural" v="hill" />
		<tag k="place" v="locality" />
		<tag k="ssr:stedsnr" v="721871" />
	</node>
	<node lat="58.57385833060184" lon="8.574977774245715" id="-33476">
		<tag k="name" v="Barlinddalen" />
		<tag k="natural" v="valley" />
		<tag k="place" v="locality" />
		<tag k="ssr:stedsnr" v="721971" />
	</node>
	<node lat="58.4854611087666" lon="8.534508340374309" id="-33477">
		<tag k="name" v="Haugåslia" />
		<tag k="natural" v="slope" />
		<tag k="place" v="locality" />
		<tag k="ssr:stedsnr" v="899928" />
	</node>
	<node lat="58.46541666580157" lon="8.560316662097478" id="-33480">
		<tag k="name" v="Ulveknatten" />
		<tag k="natural" v="ridge" />
		<tag k="place" v="locality" />
		<tag k="ssr:stedsnr" v="899888" />
	</node>
	<node lat="58.574283335618944" lon="8.571180562945209" id="-33481">
		<tag k="name" v="Påskjærheia" />
		<tag k="natural" v="hill" />
		<tag k="place" v="locality" />
		<tag k="ssr:stedsnr" v="903965" />
	</node>
	<node lat="58.48969330096515" lon="8.445213827164372" id="-33482">
		<tag k="fixme" v="consider natural=peak for the most distinct mountains in the district" />
		<tag k="name" v="Bukkefjell" />
		<tag k="natural" v="hill" />
		<tag k="place" v="locality" />
		<tag k="ssr:stedsnr" v="728418" />
	</node>
	<node lat="58.63876389126213" lon="8.110225004225741" id="-33484">
		<tag k="name" v="Knardalen" />
		<tag k="natural" v="valley" />
		<tag k="place" v="locality" />
		<tag k="ssr:stedsnr" v="901031" />
	</node>
	<node lat="58.5849666688286" lon="8.245525001124719" id="-33486">
		<tag k="alt_name" v="Ormtjørnknuten" />
		<tag k="fixme" v="consider natural=peak for the most distinct mountains in the district" />
		<tag k="name" v="Ormtjønnknuten" />
		<tag k="natural" v="hill" />
		<tag k="place" v="locality" />
		<tag k="ssr:stedsnr" v="729175" />
	</node>
	<node lat="58.56006944145754" lon="8.531472229283287" id="-33494">
		<tag k="alt_name" v="Neslandsheia" />
		<tag k="name" v="Neslandshei" />
		<tag k="natural" v="hill" />
		<tag k="place" v="locality" />
		<tag k="ssr:stedsnr" v="729850" />
	</node>
	<node lat="58.57253611556873" lon="8.583730557385847" id="-33495">
		<tag k="fixme" v="consider natural=peak for the most distinct mountains in the district" />
		<tag k="name" v="Blåfjell" />
		<tag k="natural" v="hill" />
		<tag k="place" v="locality" />
		<tag k="ssr:stedsnr" v="729852" />
	</node>
	<node lat="58.57412500304957" lon="8.624549994044914" id="-33496">
		<tag k="fixme" v="consider natural=peak for the most distinct mountains in the district" />
		<tag k="name" v="Nordmyråsen" />
		<tag k="natural" v="hill" />
		<tag k="place" v="locality" />
		<tag k="ssr:stedsnr" v="729866" />
	</node>
	<node lat="58.5987027763847" lon="8.501599991802944" id="-33503">
		<tag k="name" v="Teigen" />
		<tag k="natural" v="hill" />
		<tag k="place" v="locality" />
		<tag k="ssr:stedsnr" v="729791" />
	</node>
	<node lat="58.62954166952767" lon="8.211258341448403" id="-33505">
		<tag k="name" v="Tandbakk" />
		<tag k="natural" v="ridge" />
		<tag k="place" v="locality" />
		<tag k="ssr:stedsnr" v="901212" />
	</node>
	<node lat="58.644352781095556" lon="8.23040277510215" id="-33506">
		<tag k="name" v="Kvitilhei" />
		<tag k="natural" v="hill" />
		<tag k="place" v="locality" />
		<tag k="ssr:stedsnr" v="901190" />
	</node>
	<node lat="58.63961666375356" lon="8.257113895708304" id="-33507">
		<tag k="fixme" v="consider natural=peak for the most distinct mountains in the district" />
		<tag k="name" v="Sjølvskotåsen" />
		<tag k="natural" v="hill" />
		<tag k="place" v="locality" />
		<tag k="ssr:stedsnr" v="901194" />
	</node>
	<node lat="58.63941944221367" lon="8.234127782493067" id="-33508">
		<tag k="name" v="Kross-slåttkleiva" />
		<tag k="natural" v="slope" />
		<tag k="place" v="locality" />
		<tag k="ssr:stedsnr" v="901197" />
	</node>
	<node lat="58.64353055218933" lon="8.213152777344643" id="-33510">
		<tag k="fixme" v="consider natural=peak for the most distinct mountains in the district" />
		<tag k="name" v="Bruåsen" />
		<tag k="natural" v="hill" />
		<tag k="place" v="locality" />
		<tag k="ssr:stedsnr" v="901222" />
	</node>
	<node lat="58.66338611456621" lon="8.121366668584754" id="-33511">
		<tag k="name" v="Grånlia" />
		<tag k="natural" v="slope" />
		<tag k="place" v="locality" />
		<tag k="ssr:stedsnr" v="901293" />
	</node>
	<node lat="58.66053611474592" lon="8.050969451637632" id="-33512">
		<tag k="name" v="Storsteinlia" />
		<tag k="natural" v="slope" />
		<tag k="place" v="locality" />
		<tag k="ssr:stedsnr" v="901687" />
	</node>
	<node lat="58.67671944763708" lon="8.32578888576133" id="-33513">
		<tag k="fixme" v="consider natural=peak for the most distinct mountains in the district" />
		<tag k="name" v="Ramsedalsheia" />
		<tag k="natural" v="hill" />
		<tag k="place" v="locality" />
		<tag k="ssr:stedsnr" v="901848" />
	</node>
	<node lat="58.68048611286979" lon="8.092308335972755" id="-33515">
		<tag k="name" v="Kjulpen" />
		<tag k="natural" v="valley" />
		<tag k="place" v="locality" />
		<tag k="ssr:stedsnr" v="901891" />
	</node>
	<node lat="58.69251388948022" lon="8.146580555666002" id="-33516">
		<tag k="name" v="Ospedalen" />
		<tag k="natural" v="valley" />
		<tag k="place" v="locality" />
		<tag k="ssr:stedsnr" v="901949" />
	</node>
	<node lat="58.564227779852004" lon="8.502588880414486" id="-33521">
		<tag k="name" v="Liheia" />
		<tag k="natural" v="hill" />
		<tag k="place" v="locality" />
		<tag k="ssr:stedsnr" v="902037" />
	</node>
	<node lat="58.60898055333026" lon="8.503680562131727" id="-33525">
		<tag k="name" v="Holebakken" />
		<tag k="natural" v="slope" />
		<tag k="place" v="locality" />
		<tag k="ssr:stedsnr" v="902157" />
	</node>
	<node lat="58.60820555324265" lon="8.515944446528344" id="-33527">
		<tag k="name" v="Bjønndalen" />
		<tag k="natural" v="valley" />
		<tag k="place" v="locality" />
		<tag k="ssr:stedsnr" v="902147" />
	</node>
	<node lat="58.63833333108563" lon="8.363616672027414" id="-33538">
		<tag k="name" v="Storslåttheia" />
		<tag k="natural" v="hill" />
		<tag k="place" v="locality" />
		<tag k="ssr:stedsnr" v="902388" />
	</node>
	<node lat="58.63667500051973" lon="8.655549995913708" id="-33541">
		<tag k="name" v="Gåsvikheia" />
		<tag k="natural" v="hill" />
		<tag k="place" v="locality" />
		<tag k="ssr:stedsnr" v="902578" />
	</node>
	<node lat="58.63374166458658" lon="8.659313889896783" id="-33542">
		<tag k="name" v="Gåsvikkilen" />
		<tag k="natural" v="hill" />
		<tag k="place" v="locality" />
		<tag k="ssr:stedsnr" v="902581" />
	</node>
	<node lat="58.628444448445904" lon="8.641283327027029" id="-33544">
		<tag k="name" v="Haukheia" />
		<tag k="natural" v="hill" />
		<tag k="place" v="locality" />
		<tag k="ssr:stedsnr" v="902592" />
	</node>
	<node lat="58.629850000875415" lon="8.629466673517932" id="-33545">
		<tag k="name" v="Trolldalsheia" />
		<tag k="natural" v="hill" />
		<tag k="place" v="locality" />
		<tag k="ssr:stedsnr" v="902594" />
	</node>
	<node lat="58.65404999719463" lon="8.135269449462774" id="-33547">
		<tag k="name" v="Lyretjønnhommen" />
		<tag k="natural" v="valley" />
		<tag k="place" v="locality" />
		<tag k="ssr:stedsnr" v="902545" />
	</node>
	<node lat="58.67825555132471" lon="8.118219452721036" id="-33550">
		<tag k="name" v="Stemdalen" />
		<tag k="natural" v="valley" />
		<tag k="place" v="locality" />
		<tag k="ssr:stedsnr" v="902636" />
	</node>
	<node lat="58.6765722201101" lon="8.130005553152206" id="-33551">
		<tag k="name" v="Dritardalen" />
		<tag k="natural" v="valley" />
		<tag k="place" v="locality" />
		<tag k="ssr:stedsnr" v="902637" />
	</node>
	<node lat="58.66384721944359" lon="8.226577782468596" id="-33552">
		<tag k="name" v="Risdalsberga" />
		<tag k="natural" v="hill" />
		<tag k="place" v="locality" />
		<tag k="ssr:stedsnr" v="902744" />
	</node>
	<node lat="58.65362778031977" lon="8.238166666703439" id="-33555">
		<tag k="fixme" v="consider natural=peak for the most distinct mountains in the district" />
		<tag k="name" v="Svenesåsen" />
		<tag k="natural" v="hill" />
		<tag k="place" v="locality" />
		<tag k="ssr:stedsnr" v="902756" />
	</node>
	<node lat="58.685175003383314" lon="8.352947225569539" id="-33556">
		<tag k="name" v="Fåretjønnlia" />
		<tag k="natural" v="slope" />
		<tag k="place" v="locality" />
		<tag k="ssr:stedsnr" v="902762" />
	</node>
	<node lat="58.6706611107001" lon="8.331436112415114" id="-33557">
		<tag k="name" v="Skarkedalane" />
		<tag k="natural" v="valley" />
		<tag k="place" v="locality" />
		<tag k="ssr:stedsnr" v="902771" />
	</node>
	<node lat="58.67385833318106" lon="8.337583326614252" id="-33558">
		<tag k="name" v="Rustli" />
		<tag k="natural" v="slope" />
		<tag k="place" v="locality" />
		<tag k="ssr:stedsnr" v="902772" />
	</node>
	<node lat="58.67205833047324" lon="8.25358055308442" id="-33560">
		<tag k="name" v="Julbotfjellet" />
		<tag k="place" v="locality" />
		<tag k="ssr:stedsnr" v="902853" />
	</node>
	<node lat="58.66947499953826" lon="8.247524999538195" id="-33561">
		<tag k="name" v="Fjellhaug" />
		<tag k="natural" v="hill" />
		<tag k="place" v="locality" />
		<tag k="ssr:stedsnr" v="902861" />
	</node>
	<node lat="58.590536109543685" lon="8.462094446291644" id="-33564">
		<tag k="name" v="Skrubbedalen" />
		<tag k="natural" v="valley" />
		<tag k="place" v="locality" />
		<tag k="ssr:stedsnr" v="902965" />
	</node>
	<node lat="58.59936110685045" lon="8.47604445024747" id="-33566">
		<tag k="name" v="Kleivlia" />
		<tag k="natural" v="slope" />
		<tag k="place" v="locality" />
		<tag k="ssr:stedsnr" v="902971" />
	</node>
	<node lat="58.64244166746409" lon="8.632361106140287" id="-33567">
		<tag k="name" v="Takåsen" />
		<tag k="natural" v="hill" />
		<tag k="place" v="locality" />
		<tag k="ssr:stedsnr" v="902972" />
	</node>
	<node lat="58.66036388653695" lon="8.090633334238985" id="-33569">
		<tag k="name" v="Urhommen" />
		<tag k="natural" v="valley" />
		<tag k="place" v="locality" />
		<tag k="ssr:stedsnr" v="902982" />
	</node>
	<node lat="58.555661114858864" lon="8.283383340747081" id="-33572">
		<tag k="name" v="Kolhusdalen" />
		<tag k="natural" v="valley" />
		<tag k="place" v="locality" />
		<tag k="ssr:stedsnr" v="903125" />
	</node>
	<node lat="58.55747222439285" lon="8.318888892327807" id="-33573">
		<tag k="name" v="Tjørgrovheia" />
		<tag k="natural" v="hill" />
		<tag k="place" v="locality" />
		<tag k="ssr:stedsnr" v="903139" />
	</node>
	<node lat="58.6182583336814" lon="8.611163893161653" id="-33575">
		<tag k="name" v="Senheia" />
		<tag k="natural" v="hill" />
		<tag k="place" v="locality" />
		<tag k="ssr:stedsnr" v="903188" />
	</node>
	<node lat="58.58299722413169" lon="8.63844722790391" id="-33578">
		<tag k="fixme" v="consider natural=peak for the most distinct mountains in the district" />
		<tag k="name" v="Møglestuåsen" />
		<tag k="natural" v="hill" />
		<tag k="place" v="locality" />
		<tag k="ssr:stedsnr" v="903254" />
	</node>
	<node lat="58.56978888757307" lon="8.269200006359064" id="-33580">
		<tag k="name" v="Lemfjellskåre" />
		<tag k="place" v="locality" />
		<tag k="ssr:stedsnr" v="903262" />
	</node>
	<node lat="58.56233611322076" lon="8.275547214558204" id="-33581">
		<tag k="fixme" v="consider natural=peak for the most distinct mountains in the district" />
		<tag k="name" v="Orreleikfjell" />
		<tag k="natural" v="hill" />
		<tag k="place" v="locality" />
		<tag k="ssr:stedsnr" v="903337" />
	</node>
	<node lat="58.58617222117777" lon="8.610444436836802" id="-33582">
		<tag k="name" v="Lårtrongdalen" />
		<tag k="natural" v="valley" />
		<tag k="place" v="locality" />
		<tag k="ssr:stedsnr" v="903456" />
	</node>
	<node lat="58.58808889262228" lon="8.617505552347346" id="-33584">
		<tag k="name" v="Kråketjernliene" />
		<tag k="natural" v="slope" />
		<tag k="place" v="locality" />
		<tag k="ssr:stedsnr" v="903462" />
	</node>
	<node lat="58.59628889312105" lon="8.354444440323062" id="-33586">
		<tag k="name" v="Stirinden" />
		<tag k="natural" v="ridge" />
		<tag k="place" v="locality" />
		<tag k="ssr:stedsnr" v="903484" />
	</node>
	<node lat="58.59581666794984" lon="8.28912776946507" id="-33589">
		<tag k="name" v="Lille Hundsknapdalen" />
		<tag k="natural" v="valley" />
		<tag k="place" v="locality" />
		<tag k="ssr:stedsnr" v="903584" />
	</node>
	<node lat="58.543841668726294" lon="8.583525005318991" id="-33591">
		<tag k="fixme" v="consider natural=peak for the most distinct mountains in the district" />
		<tag k="name" v="Hefteheia" />
		<tag k="natural" v="hill" />
		<tag k="place" v="locality" />
		<tag k="ssr:stedsnr" v="903682" />
	</node>
	<node lat="58.54769444428166" lon="8.657413895819808" id="-33592">
		<tag k="name" v="Selvskottåsen" />
		<tag k="natural" v="hill" />
		<tag k="place" v="locality" />
		<tag k="ssr:stedsnr" v="903821" />
	</node>
	<node lat="58.47610833439046" lon="8.563233329258516" id="-33601">
		<tag k="name" v="Eikelia" />
		<tag k="natural" v="slope" />
		<tag k="place" v="locality" />
		<tag k="ssr:stedsnr" v="762094" />
	</node>
	<node lat="58.4829361130594" lon="8.630900002769017" id="-33602">
		<tag k="name" v="Lindfjell" />
		<tag k="natural" v="hill" />
		<tag k="place" v="locality" />
		<tag k="ssr:stedsnr" v="762204" />
	</node>
	<node lat="58.56934999595975" lon="8.67189999477323" id="-33603">
		<tag k="name" v="Borvasskollen" />
		<tag k="natural" v="hill" />
		<tag k="place" v="locality" />
		<tag k="ssr:stedsnr" v="762146" />
	</node>
	<node lat="58.507152776435596" lon="8.586430558107356" id="-33604">
		<tag k="fixme" v="consider natural=peak for the most distinct mountains in the district" />
		<tag k="name" v="Mjonåsen" />
		<tag k="natural" v="hill" />
		<tag k="place" v="locality" />
		<tag k="ssr:stedsnr" v="762193" />
	</node>
	<node lat="58.61872500389887" lon="8.67715277402895" id="-33608">
		<tag k="name" v="Sagliene" />
		<tag k="natural" v="slope" />
		<tag k="place" v="locality" />
		<tag k="ssr:stedsnr" v="762315" />
	</node>
	<node lat="58.582888886934505" lon="8.729263892280027" id="-33610">
		<tag k="name" v="Liene" />
		<tag k="natural" v="slope" />
		<tag k="place" v="locality" />
		<tag k="ssr:stedsnr" v="762252" />
	</node>
	<node lat="58.47125277425967" lon="8.546377785482719" id="-33616">
		<tag k="name" v="Svåa" />
		<tag k="natural" v="cliff" />
		<tag k="ssr:stedsnr" v="777905" />
	</node>
	<node lat="58.48212749369338" lon="8.529855670271605" id="-33617">
		<tag k="name" v="Trengsle" />
		<tag k="natural" v="valley" />
		<tag k="place" v="locality" />
		<tag k="ssr:stedsnr" v="777914" />
	</node>
	<node lat="58.493425004106065" lon="8.547488896569137" id="-33619">
		<tag k="name" v="Moldekleivheia" />
		<tag k="natural" v="hill" />
		<tag k="place" v="locality" />
		<tag k="ssr:stedsnr" v="777927" />
	</node>
	<node lat="58.53087777379428" lon="8.418297229301361" id="-33621">
		<tag k="name" v="Revefjell" />
		<tag k="natural" v="slope" />
		<tag k="place" v="locality" />
		<tag k="ssr:stedsnr" v="778205" />
	</node>
	<node lat="58.625775003121056" lon="8.119930560907765" id="-33622">
		<tag k="name" v="Salvesoddehelleren" />
		<tag k="place" v="locality" />
		<tag k="ssr:stedsnr" v="779025" />
	</node>
	<node lat="58.6996222208881" lon="8.27520832813586" id="-33625">
		<tag k="name" v="Ofsdal" />
		<tag k="natural" v="valley" />
		<tag k="place" v="locality" />
		<tag k="ssr:stedsnr" v="779722" />
	</node>
	<node lat="58.67207222534429" lon="8.318644439650397" id="-33626">
		<tag k="name" v="Steinholdalen" />
		<tag k="natural" v="valley" />
		<tag k="place" v="locality" />
		<tag k="ssr:stedsnr" v="779667" />
	</node>
	<node lat="58.66755277558974" lon="8.180944449350283" id="-33628">
		<tag k="name" v="Dyplemyrdalen" />
		<tag k="natural" v="valley" />
		<tag k="place" v="locality" />
		<tag k="ssr:stedsnr" v="780497" />
	</node>
	<node lat="58.662147218379204" lon="8.04952500659391" id="-33632">
		<tag k="name" v="Storsteinfjellet" />
		<tag k="natural" v="cliff" />
		<tag k="ssr:stedsnr" v="780612" />
	</node>
	<node lat="58.66780000355346" lon="8.034286105917914" id="-33633">
		<tag k="name" v="Sveiven" />
		<tag k="natural" v="slope" />
		<tag k="place" v="locality" />
		<tag k="ssr:stedsnr" v="780613" />
	</node>
	<node lat="58.66556111066668" lon="8.155158330700502" id="-33635">
		<tag k="name" v="Heimremonen" />
		<tag k="place" v="locality" />
		<tag k="ssr:stedsnr" v="780519" />
	</node>
	<node lat="58.65637499790958" lon="8.093736102902623" id="-33636">
		<tag k="fixme" v="consider natural=peak for the most distinct mountains in the district" />
		<tag k="name" v="Rusåsen" />
		<tag k="natural" v="hill" />
		<tag k="place" v="locality" />
		<tag k="ssr:stedsnr" v="780968" />
	</node>
	<node lat="58.65473888486599" lon="8.560766674774593" id="-33637">
		<tag k="name" v="Langedal" />
		<tag k="natural" v="valley" />
		<tag k="place" v="locality" />
		<tag k="ssr:stedsnr" v="780818" />
	</node>
	<node lat="58.63110000240284" lon="8.045055558852717" id="-33639">
		<tag k="name" v="Sirishei" />
		<tag k="natural" v="hill" />
		<tag k="place" v="locality" />
		<tag k="ssr:stedsnr" v="780854" />
	</node>
	<node lat="58.62328611462211" lon="8.635136103098267" id="-33645">
		<tag k="fixme" v="consider natural=peak for the most distinct mountains in the district" />
		<tag k="name" v="Tritjernåsen" />
		<tag k="natural" v="hill" />
		<tag k="place" v="locality" />
		<tag k="ssr:stedsnr" v="781217" />
	</node>
	<node lat="58.62339444896551" lon="8.314250006789816" id="-33646">
		<tag k="name" v="Bellandsheia" />
		<tag k="natural" v="hill" />
		<tag k="place" v="locality" />
		<tag k="ssr:stedsnr" v="781256" />
	</node>
	<node lat="58.58479999867547" lon="8.624602786171895" id="-33648">
		<tag k="alt_name" v="Steinbrudalen" />
		<tag k="name" v="Steinbrodalen" />
		<tag k="natural" v="valley" />
		<tag k="place" v="locality" />
		<tag k="ssr:stedsnr" v="781261" />
	</node>
	<node lat="58.59814999864303" lon="8.598755553096844" id="-33649">
		<tag k="name" v="Bergemonen" />
		<tag k="place" v="locality" />
		<tag k="ssr:stedsnr" v="781411" />
	</node>
	<node lat="58.671652774523686" lon="8.178591659056478" id="-33651">
		<tag k="name" v="Ovedalsfjellet" />
		<tag k="natural" v="hill" />
		<tag k="place" v="locality" />
		<tag k="ssr:stedsnr" v="781507" />
	</node>
	<node lat="58.62392500008623" lon="8.214574991551093" id="-33653">
		<tag k="name" v="Langedal" />
		<tag k="natural" v="valley" />
		<tag k="place" v="locality" />
		<tag k="ssr:stedsnr" v="781514" />
	</node>
	<node lat="58.65871388504367" lon="8.214386117130896" id="-33655">
		<tag k="name" v="Furumodalen" />
		<tag k="natural" v="valley" />
		<tag k="place" v="locality" />
		<tag k="ssr:stedsnr" v="781562" />
	</node>
	<node lat="58.56072500177333" lon="8.456172216127465" id="-33656">
		<tag k="name" v="Holebekkhei" />
		<tag k="natural" v="hill" />
		<tag k="place" v="locality" />
		<tag k="ssr:stedsnr" v="781598" />
	</node>
	<node lat="58.585577773462475" lon="8.326774996097825" id="-33659">
		<tag k="name" v="Kvæven" />
		<tag k="natural" v="valley" />
		<tag k="place" v="locality" />
		<tag k="ssr:stedsnr" v="781502" />
	</node>
	<node lat="58.5457083372287" lon="8.521227782923622" id="-33660">
		<tag k="name" v="Eikelia" />
		<tag k="natural" v="slope" />
		<tag k="place" v="locality" />
		<tag k="ssr:stedsnr" v="781614" />
	</node>
	<node lat="58.66250555501902" lon="8.283341665479968" id="-33664">
		<tag k="name" v="Austafjells" />
		<tag k="natural" v="hill" />
		<tag k="place" v="locality" />
		<tag k="ssr:stedsnr" v="781658" />
	</node>
	<node lat="58.66856110775418" lon="8.289008328464124" id="-33665">
		<tag k="name" v="Andersknatten" />
		<tag k="natural" v="hill" />
		<tag k="place" v="locality" />
		<tag k="ssr:stedsnr" v="781659" />
	</node>
	<node lat="58.66363888581081" lon="8.29620832920927" id="-33666">
		<tag k="name" v="Bjønnefjellet" />
		<tag k="natural" v="hill" />
		<tag k="place" v="locality" />
		<tag k="ssr:stedsnr" v="781661" />
	</node>
	<node lat="58.64922499892897" lon="8.52525832779747" id="-33671">
		<tag k="fixme" v="consider natural=peak for the most distinct mountains in the district" />
		<tag k="name" v="Snømyråsen" />
		<tag k="natural" v="hill" />
		<tag k="place" v="locality" />
		<tag k="ssr:stedsnr" v="781855" />
	</node>
	<node lat="58.60859722063014" lon="8.41336944297343" id="-33685">
		<tag k="name" v="Beråsdalen" />
		<tag k="natural" v="valley" />
		<tag k="place" v="locality" />
		<tag k="ssr:stedsnr" v="789357" />
	</node>
	<node lat="58.61506666715525" lon="8.324258340278703" id="-33687">
		<tag k="fixme" v="consider natural=peak for the most distinct mountains in the district" />
		<tag k="name" v="Øyvassheia" />
		<tag k="natural" v="hill" />
		<tag k="place" v="locality" />
		<tag k="ssr:stedsnr" v="789367" />
	</node>
	<node lat="58.63935000295763" lon="8.24413333436495" id="-33692">
		<tag k="alt_name" v="Eivindsdalen" />
		<tag k="name" v="Eivindsdal" />
		<tag k="natural" v="valley" />
		<tag k="place" v="locality" />
		<tag k="ssr:stedsnr" v="789269" />
	</node>
	<node lat="58.646844441517594" lon="8.288986111158376" id="-33693">
		<tag k="alt_name" v="Færåsen" />
		<tag k="fixme" v="consider natural=peak for the most distinct mountains in the district" />
		<tag k="name" v="Store Færås" />
		<tag k="natural" v="hill" />
		<tag k="place" v="locality" />
		<tag k="ssr:stedsnr" v="789273" />
	</node>
	<node lat="58.62800832890862" lon="8.055841662169358" id="-33695">
		<tag k="name" v="Skrivardalen" />
		<tag k="natural" v="valley" />
		<tag k="place" v="locality" />
		<tag k="ssr:stedsnr" v="911563" />
	</node>
	<node lat="58.491327774955764" lon="8.4824083271151" id="-33697">
		<tag k="alt_name" v="Urddalen" />
		<tag k="name" v="Urendalen" />
		<tag k="natural" v="valley" />
		<tag k="place" v="locality" />
		<tag k="ssr:stedsnr" v="789701" />
	</node>
	<node lat="58.591970400918115" lon="8.653631312050473" id="-33702">
		<tag k="fixme" v="consider natural=peak for the most distinct mountains in the district" />
		<tag k="name" v="Museråfjellet" />
		<tag k="natural" v="hill" />
		<tag k="place" v="locality" />
		<tag k="ssr:stedsnr" v="789845" />
	</node>
	<node lat="58.67400555254776" lon="8.482233330400557" id="-33707">
		<tag k="fixme" v="consider natural=peak for the most distinct mountains in the district" />
		<tag k="name" v="Olandsheia" />
		<tag k="natural" v="hill" />
		<tag k="place" v="locality" />
		<tag k="ssr:stedsnr" v="789916" />
	</node>
	<node lat="58.706213887545374" lon="8.002825008122862" id="-33708">
		<tag k="fixme" v="consider natural=peak for the most distinct mountains in the district" />
		<tag k="name" v="Storfisktjønnknuten" />
		<tag k="natural" v="hill" />
		<tag k="place" v="locality" />
		<tag k="ssr:stedsnr" v="911594" />
	</node>
	<node lat="58.57007500138101" lon="8.274111116059492" id="-33710">
		<tag k="fixme" v="consider natural=peak for the most distinct mountains in the district" />
		<tag k="name" v="Lemfjellheia" />
		<tag k="natural" v="hill" />
		<tag k="place" v="locality" />
		<tag k="ssr:stedsnr" v="790113" />
	</node>
	<node lat="58.54823333647755" lon="8.607180555208672" id="-33713">
		<tag k="fixme" v="consider natural=peak for the most distinct mountains in the district" />
		<tag k="name" v="Heståsen" />
		<tag k="natural" v="hill" />
		<tag k="place" v="locality" />
		<tag k="ssr:stedsnr" v="790123" />
	</node>
	<node lat="58.537075002390615" lon="8.594575001233364" id="-33714">
		<tag k="fixme" v="consider natural=peak for the most distinct mountains in the district" />
		<tag k="name" v="Blåfjell" />
		<tag k="natural" v="hill" />
		<tag k="place" v="locality" />
		<tag k="ssr:stedsnr" v="790125" />
	</node>
	<node lat="58.54071944523136" lon="8.593983327108758" id="-33717">
		<tag k="alt_name" v="Skifjell" />
		<tag k="fixme" v="consider natural=peak for the most distinct mountains in the district" />
		<tag k="name" v="Skifjellet" />
		<tag k="natural" v="hill" />
		<tag k="place" v="locality" />
		<tag k="ssr:stedsnr" v="911670" />
	</node>
	<node lat="58.53742777751789" lon="8.704933329596868" id="-33719">
		<tag k="fixme" v="consider natural=peak for the most distinct mountains in the district" />
		<tag k="name" v="Almanåsen" />
		<tag k="natural" v="hill" />
		<tag k="place" v="locality" />
		<tag k="ssr:stedsnr" v="911699" />
	</node>
	<node lat="58.53876111068798" lon="8.714749995251886" id="-33720">
		<tag k="fixme" v="consider natural=peak for the most distinct mountains in the district" />
		<tag k="name" v="Vevjeåsen" />
		<tag k="natural" v="hill" />
		<tag k="place" v="locality" />
		<tag k="ssr:stedsnr" v="911700" />
	</node>
	<node lat="58.53066944113602" lon="8.672808341267858" id="-33724">
		<tag k="name" v="Espelandsheia" />
		<tag k="natural" v="hill" />
		<tag k="place" v="locality" />
		<tag k="ssr:stedsnr" v="790747" />
	</node>
	<node lat="58.69560555954851" lon="8.080813881597921" id="-33729">
		<tag k="fixme" v="consider natural=peak for the most distinct mountains in the district" />
		<tag k="name" v="Befjellheia" />
		<tag k="natural" v="hill" />
		<tag k="place" v="locality" />
		<tag k="ssr:stedsnr" v="911632" />
	</node>
	<node lat="58.64568888646175" lon="8.632641664746217" id="-33733">
		<tag k="alt_name" v="Slikkafjell" />
		<tag k="fixme" v="consider natural=peak for the most distinct mountains in the district" />
		<tag k="name" v="Slikkarfjella" />
		<tag k="natural" v="hill" />
		<tag k="place" v="locality" />
		<tag k="ssr:stedsnr" v="911970" />
	</node>
	<node lat="58.53171666500565" lon="8.56609999408141" id="-33739">
		<tag k="fixme" v="consider natural=peak for the most distinct mountains in the district" />
		<tag k="name" v="Røyrmyråsen" />
		<tag k="natural" v="hill" />
		<tag k="place" v="locality" />
		<tag k="ssr:stedsnr" v="823007" />
	</node>
	<node lat="58.53894721905789" lon="8.688241659066863" id="-33740">
		<tag k="fixme" v="consider natural=peak for the most distinct mountains in the district" />
		<tag k="name" v="Solheimsåsen" />
		<tag k="natural" v="hill" />
		<tag k="place" v="locality" />
		<tag k="ssr:stedsnr" v="823015" />
	</node>
	<node lat="58.491516664800216" lon="8.633136107214447" id="-33753">
		<tag k="name" v="Nipen" />
		<tag k="natural" v="hill" />
		<tag k="place" v="locality" />
		<tag k="ssr:stedsnr" v="823183" />
	</node>
	<node lat="58.52569999638622" lon="8.724483328875374" id="-33756">
		<tag k="fixme" v="consider natural=peak for the most distinct mountains in the district" />
		<tag k="name" v="Stokkåsen" />
		<tag k="natural" v="hill" />
		<tag k="place" v="locality" />
		<tag k="ssr:stedsnr" v="823321" />
	</node>
	<node lat="58.53073888930891" lon="8.431994444647655" id="-33761">
		<tag k="name" v="Hellheia" />
		<tag k="natural" v="hill" />
		<tag k="place" v="locality" />
		<tag k="ssr:stedsnr" v="838241" />
	</node>
	<node lat="58.48704167048453" lon="8.532269441125575" id="-33765">
		<tag k="name" v="Krubbedalen" />
		<tag k="natural" v="valley" />
		<tag k="place" v="locality" />
		<tag k="ssr:stedsnr" v="839916" />
	</node>
	<node lat="58.48487499701565" lon="8.528488893089895" id="-33766">
		<tag k="name" v="Bjortjennknatten" />
		<tag k="natural" v="hill" />
		<tag k="place" v="locality" />
		<tag k="ssr:stedsnr" v="839920" />
	</node>
	<node lat="58.62651111044391" lon="8.59823888304973" id="-33772">
		<tag k="fixme" v="consider natural=peak for the most distinct mountains in the district" />
		<tag k="name" v="Kalvåsen" />
		<tag k="natural" v="hill" />
		<tag k="place" v="locality" />
		<tag k="ssr:stedsnr" v="841013" />
	</node>
	<node lat="58.6412638914257" lon="8.567036116822065" id="-33773">
		<tag k="name" v="Grytefjell" />
		<tag k="natural" v="hill" />
		<tag k="place" v="locality" />
		<tag k="ssr:stedsnr" v="841034" />
	</node>
	<node lat="58.59868611223497" lon="8.501944439962063" id="-33775">
		<tag k="name" v="Gråkatt" />
		<tag k="natural" v="hill" />
		<tag k="place" v="locality" />
		<tag k="ssr:stedsnr" v="841393" />
	</node>
	<node lat="58.625872224034445" lon="8.61064445113901" id="-33777">
		<tag k="fixme" v="consider natural=peak for the most distinct mountains in the district" />
		<tag k="name" v="Vestknuten" />
		<tag k="natural" v="hill" />
		<tag k="place" v="locality" />
		<tag k="ssr:stedsnr" v="841520" />
	</node>
	<node lat="58.656974997106126" lon="8.179713885716858" id="-33778">
		<tag k="name" v="Nissedøra" />
		<tag k="place" v="locality" />
		<tag k="ssr:stedsnr" v="841527" />
	</node>
	<node lat="58.66021388459226" lon="8.302800002034049" id="-33780">
		<tag k="name" v="Smølåsdalen" />
		<tag k="natural" v="valley" />
		<tag k="place" v="locality" />
		<tag k="ssr:stedsnr" v="841623" />
	</node>
	<node lat="58.615480553921685" lon="8.261524995092941" id="-33782">
		<tag k="name" v="Småliane" />
		<tag k="natural" v="slope" />
		<tag k="place" v="locality" />
		<tag k="ssr:stedsnr" v="841705" />
	</node>
	<node lat="58.660599995624885" lon="8.221163881779857" id="-33783">
		<tag k="fixme" v="consider natural=peak for the most distinct mountains in the district" />
		<tag k="name" v="Støyleroknatten" />
		<tag k="natural" v="hill" />
		<tag k="place" v="locality" />
		<tag k="ssr:stedsnr" v="841709" />
	</node>
	<node lat="58.65675833188695" lon="8.237013881468066" id="-33785">
		<tag k="name" v="Søndagsheftet" />
		<tag k="place" v="locality" />
		<tag k="ssr:stedsnr" v="841713" />
	</node>
	<node lat="58.69758610758194" lon="8.278683333509484" id="-33786">
		<tag k="name" v="Kråkehei" />
		<tag k="natural" v="hill" />
		<tag k="place" v="locality" />
		<tag k="ssr:stedsnr" v="841725" />
	</node>
	<node lat="58.66947777675879" lon="8.333711112035793" id="-33788">
		<tag k="name" v="Åstveitdalen" />
		<tag k="natural" v="valley" />
		<tag k="place" v="locality" />
		<tag k="ssr:stedsnr" v="841733" />
	</node>
	<node lat="58.667752781587744" lon="8.24880555109618" id="-33789">
		<tag k="name" v="Bakkefjellet" />
		<tag k="natural" v="hill" />
		<tag k="place" v="locality" />
		<tag k="ssr:stedsnr" v="841683" />
	</node>
	<node lat="58.65433055710316" lon="8.500230551193287" id="-33791">
		<tag k="name" v="Båsdalen" />
		<tag k="natural" v="valley" />
		<tag k="place" v="locality" />
		<tag k="ssr:stedsnr" v="841827" />
	</node>
	<node lat="58.6062055553516" lon="8.38672500805654" id="-33794">
		<tag k="name" v="Hudfjellet" />
		<tag k="natural" v="hill" />
		<tag k="place" v="locality" />
		<tag k="ssr:stedsnr" v="842014" />
	</node>
	<node lat="58.68911110958422" lon="8.09066666575306" id="-33796">
		<tag k="name" v="Befjellskreane" />
		<tag k="place" v="locality" />
		<tag k="ssr:stedsnr" v="841984" />
	</node>
	<node lat="58.57708888442447" lon="8.575183331509919" id="-33799">
		<tag k="name" v="Røyneliheia" />
		<tag k="natural" v="hill" />
		<tag k="place" v="locality" />
		<tag k="ssr:stedsnr" v="842119" />
	</node>
	<node lat="58.624319440968854" lon="8.526847213916474" id="-33800">
		<tag k="name" v="Hullefjell" />
		<tag k="natural" v="cliff" />
		<tag k="ssr:stedsnr" v="842127" />
	</node>
	<node lat="58.55855832935681" lon="8.27775833979014" id="-33801">
		<tag k="name" v="Kolhusdal" />
		<tag k="natural" v="valley" />
		<tag k="place" v="locality" />
		<tag k="ssr:stedsnr" v="842128" />
	</node>
	<node lat="58.56641666764841" lon="8.30565556277974" id="-33805">
		<tag k="name" v="Svaldalen" />
		<tag k="natural" v="valley" />
		<tag k="place" v="locality" />
		<tag k="ssr:stedsnr" v="842313" />
	</node>
	<node lat="58.62312499570561" lon="8.317347216925773" id="-33807">
		<tag k="name" v="Ramsdalsknatten" />
		<tag k="natural" v="ridge" />
		<tag k="place" v="locality" />
		<tag k="ssr:stedsnr" v="842236" />
	</node>
	<node lat="58.611530557282336" lon="8.215772222481231" id="-33809">
		<tag k="name" v="Tveitdalskrona" />
		<tag k="natural" v="valley" />
		<tag k="place" v="locality" />
		<tag k="ssr:stedsnr" v="842512" />
	</node>
	<node lat="58.68967222335135" lon="8.144497222535628" id="-33814">
		<tag k="name" v="Tollerista" />
		<tag k="natural" v="ridge" />
		<tag k="place" v="locality" />
		<tag k="ssr:stedsnr" v="842579" />
	</node>
	<node lat="58.6819805532335" lon="8.160824997014279" id="-33816">
		<tag k="name" v="Bronen" />
		<tag k="natural" v="ridge" />
		<tag k="place" v="locality" />
		<tag k="ssr:stedsnr" v="842581" />
	</node>
	<node lat="58.55733889254471" lon="8.483649996549065" id="-33817">
		<tag k="name" v="Hovatsrøysa" />
		<tag k="place" v="locality" />
		<tag k="ssr:stedsnr" v="842589" />
	</node>
	<node lat="58.556225002331885" lon="8.472602779401738" id="-33818">
		<tag k="name" v="Rønningheia" />
		<tag k="natural" v="hill" />
		<tag k="place" v="locality" />
		<tag k="ssr:stedsnr" v="842594" />
	</node>
</osm>
