<?xml version="1.0" encoding="UTF-8"?>
<osm version="0.6" generator="osmapis">
	<node lat="60.726276438187035" lon="6.978700501948222" id="-71225">
		<tag k="name" v="Rustedalen" />
		<tag k="natural" v="valley" />
		<tag k="place" v="locality" />
		<tag k="ssr:stedsnr" v="7007" />
	</node>
	<node lat="60.539858333418294" lon="6.858022228343646" id="-71231">
		<tag k="name" v="Almeløype" />
		<tag k="natural" v="slope" />
		<tag k="place" v="locality" />
		<tag k="ssr:stedsnr" v="37957" />
	</node>
	<node lat="60.492113892617596" lon="6.8148777768595625" id="-71232">
		<tag k="name" v="Sutarhaugbakkane" />
		<tag k="natural" v="slope" />
		<tag k="place" v="locality" />
		<tag k="ssr:stedsnr" v="38514" />
	</node>
	<node lat="60.58270555810443" lon="6.9380361091116995" id="-71234">
		<tag k="name" v="Esjeberg" />
		<tag k="natural" v="hill" />
		<tag k="place" v="locality" />
		<tag k="ssr:stedsnr" v="38609" />
	</node>
	<node lat="60.56670555182967" lon="6.883502774347648" id="-71235">
		<tag k="name" v="Bersenden" />
		<tag k="place" v="locality" />
		<tag k="ssr:stedsnr" v="38595" />
	</node>
	<node lat="60.54467777657523" lon="6.928299998385328" id="-71243">
		<tag k="name" v="Espedalen" />
		<tag k="natural" v="valley" />
		<tag k="place" v="locality" />
		<tag k="ssr:stedsnr" v="67809" />
	</node>
	<node lat="60.543530551415174" lon="6.943525003227878" id="-71249">
		<tag k="name" v="Hilleberstrondi" />
		<tag k="natural" v="hill" />
		<tag k="place" v="locality" />
		<tag k="ssr:stedsnr" v="99607" />
	</node>
	<node lat="60.55855555662807" lon="6.931636102048074" id="-71250">
		<tag k="name" v="Hylmesveiti" />
		<tag k="place" v="locality" />
		<tag k="ssr:stedsnr" v="99617" />
	</node>
	<node lat="60.490369447297944" lon="6.825008330161937" id="-71252">
		<tag k="name" v="Vetlestølslii" />
		<tag k="natural" v="slope" />
		<tag k="place" v="locality" />
		<tag k="ssr:stedsnr" v="99510" />
	</node>
	<node lat="60.49268611143582" lon="6.840452775922609" id="-71253">
		<tag k="name" v="Kallhagen" />
		<tag k="natural" v="hill" />
		<tag k="place" v="locality" />
		<tag k="ssr:stedsnr" v="99512" />
	</node>
	<node lat="60.514574998011646" lon="6.976516668041054" id="-71254">
		<tag k="alt_name" v="Gråsteinsleite" />
		<tag k="name" v="Gråsteinsleitet" />
		<tag k="place" v="locality" />
		<tag k="ssr:stedsnr" v="99575" />
	</node>
	<node lat="60.67925832961192" lon="7.22958055217721" id="-71255">
		<tag k="name" v="Tjovdalen" />
		<tag k="natural" v="valley" />
		<tag k="place" v="locality" />
		<tag k="ssr:stedsnr" v="99661" />
	</node>
	<node lat="60.671374996498805" lon="7.236338889264722" id="-71256">
		<tag k="name" v="Grøndalshalsen" />
		<tag k="natural" v="hill" />
		<tag k="place" v="locality" />
		<tag k="ssr:stedsnr" v="99965" />
	</node>
	<node lat="60.55001110860288" lon="6.993072228051131" id="-71257">
		<tag k="name" v="Sælalii" />
		<tag k="natural" v="slope" />
		<tag k="place" v="locality" />
		<tag k="ssr:stedsnr" v="99974" />
	</node>
	<node lat="60.5944916680745" lon="6.987819443902156" id="-71259">
		<tag k="name" v="Lureggane" />
		<tag k="place" v="locality" />
		<tag k="ssr:stedsnr" v="99985" />
	</node>
	<node lat="60.53712500174897" lon="7.026633339157479" id="-71266">
		<tag k="fixme" v="consider natural=peak for the most distinct mountains in the district" />
		<tag k="name" v="Hattfjellet" />
		<tag k="natural" v="hill" />
		<tag k="place" v="locality" />
		<tag k="ssr:stedsnr" v="249140" />
	</node>
	<node lat="60.53362499861154" lon="7.135155553772597" id="-71267">
		<tag k="name" v="Åsendalen" />
		<tag k="natural" v="valley" />
		<tag k="place" v="locality" />
		<tag k="ssr:stedsnr" v="249142" />
	</node>
	<node lat="60.62705278008023" lon="7.095400006354144" id="-71279">
		<tag k="name" v="Sverreshogg" />
		<tag k="natural" v="valley" />
		<tag k="place" v="locality" />
		<tag k="ssr:stedsnr" v="250076" />
	</node>
	<node lat="60.64066111384129" lon="7.2601638960406945" id="-71280">
		<tag k="name" v="Larsaslaet" />
		<tag k="natural" v="valley" />
		<tag k="place" v="locality" />
		<tag k="ssr:stedsnr" v="250085" />
	</node>
	<node lat="60.610763885225055" lon="7.2050416625256135" id="-71281">
		<tag k="name" v="Langesteinshøgdi" />
		<tag k="natural" v="hill" />
		<tag k="place" v="locality" />
		<tag k="ssr:stedsnr" v="250181" />
	</node>
	<node lat="60.55763333411936" lon="7.079274993667809" id="-71288">
		<tag k="fixme" v="consider natural=peak for the most distinct mountains in the district" />
		<tag k="name" v="Kyrelvfjellet" />
		<tag k="natural" v="hill" />
		<tag k="place" v="locality" />
		<tag k="ssr:stedsnr" v="127155" />
	</node>
	<node lat="60.59432222156055" lon="7.05741389331328" id="-71290">
		<tag k="fixme" v="consider natural=peak for the most distinct mountains in the district" />
		<tag k="name" v="Osanuten" />
		<tag k="natural" v="hill" />
		<tag k="place" v="locality" />
		<tag k="ssr:stedsnr" v="128151" />
	</node>
	<node lat="60.59076944166608" lon="7.088305559463664" id="-71305">
		<tag k="fixme" v="consider natural=peak for the most distinct mountains in the district" />
		<tag k="name" v="Krossfjellet" />
		<tag k="natural" v="hill" />
		<tag k="place" v="locality" />
		<tag k="ssr:stedsnr" v="188220" />
	</node>
	<node lat="60.59407500357206" lon="7.164302777754607" id="-71306">
		<tag k="fixme" v="consider natural=peak for the most distinct mountains in the district" />
		<tag k="name" v="Austdølnuten" />
		<tag k="natural" v="hill" />
		<tag k="place" v="locality" />
		<tag k="ssr:stedsnr" v="188221" />
	</node>
	<node lat="60.55549999588888" lon="7.112136111334653" id="-71307">
		<tag k="name" v="Lakjehøgdi" />
		<tag k="natural" v="hill" />
		<tag k="old_name" v="Lakjehødi" />
		<tag k="place" v="locality" />
		<tag k="ssr:stedsnr" v="188175" />
	</node>
	<node lat="60.56594999602252" lon="7.1472249986912235" id="-71308">
		<tag k="name" v="Langvasshaugane" />
		<tag k="natural" v="hill" />
		<tag k="place" v="locality" />
		<tag k="ssr:stedsnr" v="188177" />
	</node>
	<node lat="60.60310832951182" lon="7.030800000702357" id="-71311">
		<tag k="fixme" v="consider natural=peak for the most distinct mountains in the district" />
		<tag k="name" v="Storekammen" />
		<tag k="natural" v="hill" />
		<tag k="place" v="locality" />
		<tag k="ssr:stedsnr" v="189156" />
	</node>
	<node lat="60.602908332289104" lon="7.024524993584716" id="-71318">
		<tag k="name" v="Kyraskar" />
		<tag k="natural" v="valley" />
		<tag k="place" v="locality" />
		<tag k="ssr:stedsnr" v="219996" />
	</node>
	<node lat="60.5528611101356" lon="6.879749991090395" id="-71320">
		<tag k="name" v="Grov" />
		<tag k="place" v="locality" />
		<tag k="ssr:stedsnr" v="220576" />
	</node>
	<node lat="60.58641111380014" lon="6.894833333011774" id="-71321">
		<tag k="name" v="Høgaberg" />
		<tag k="natural" v="hill" />
		<tag k="place" v="locality" />
		<tag k="ssr:stedsnr" v="220578" />
	</node>
	<node lat="60.59769721939221" lon="6.885144447980824" id="-71322">
		<tag k="name" v="Bjølleberg" />
		<tag k="natural" v="hill" />
		<tag k="place" v="locality" />
		<tag k="ssr:stedsnr" v="220581" />
	</node>
	<node lat="60.592683332636206" lon="7.014741675806927" id="-71324">
		<tag k="name" v="Storskorsnuten" />
		<tag k="natural" v="hill" />
		<tag k="place" v="locality" />
		<tag k="ssr:stedsnr" v="220985" />
	</node>
	<node lat="60.607969448084056" lon="6.906291661623118" id="-71325">
		<tag k="name" v="Deildaskrea" />
		<tag k="natural" v="valley" />
		<tag k="place" v="locality" />
		<tag k="ssr:stedsnr" v="220986" />
	</node>
	<node lat="60.670758333917895" lon="6.8597861179589055" id="-71326">
		<tag k="fixme" v="consider natural=peak for the most distinct mountains in the district" />
		<tag k="name" v="Vesetfjellet" />
		<tag k="natural" v="hill" />
		<tag k="place" v="locality" />
		<tag k="ssr:stedsnr" v="221604" />
	</node>
	<node lat="60.59159166614689" lon="6.834502784020713" id="-71328">
		<tag k="name" v="Drive" />
		<tag k="natural" v="hill" />
		<tag k="place" v="locality" />
		<tag k="ssr:stedsnr" v="221572" />
	</node>
	<node lat="60.59798055769073" lon="6.8471138838576096" id="-71329">
		<tag k="name" v="Midtskor" />
		<tag k="natural" v="hill" />
		<tag k="place" v="locality" />
		<tag k="ssr:stedsnr" v="221575" />
	</node>
	<node lat="60.687630555095424" lon="7.249844447355196" id="-71331">
		<tag k="name" v="Hardingaskaret" />
		<tag k="natural" v="valley" />
		<tag k="place" v="locality" />
		<tag k="ssr:stedsnr" v="249106" />
	</node>
	<node lat="60.704819440334525" lon="6.962219446728817" id="-71336">
		<tag k="name" v="Langvasslii" />
		<tag k="natural" v="slope" />
		<tag k="place" v="locality" />
		<tag k="ssr:stedsnr" v="281628" />
	</node>
	<node lat="60.61464444746426" lon="6.963377777975787" id="-71338">
		<tag k="name" v="Djupedal" />
		<tag k="natural" v="valley" />
		<tag k="place" v="locality" />
		<tag k="ssr:stedsnr" v="281567" />
	</node>
	<node lat="60.52975277743007" lon="6.8947055619088085" id="-71339">
		<tag k="name" v="Fjellkleiv" />
		<tag k="natural" v="gorge" />
		<tag k="ssr:stedsnr" v="281578" />
	</node>
	<node lat="60.553211107363666" lon="6.996502776820622" id="-71342">
		<tag k="alt_name" v="Storegilet" />
		<tag k="name" v="Storaskreo" />
		<tag k="natural" v="gorge" />
		<tag k="ssr:stedsnr" v="281976" />
	</node>
	<node lat="60.567255552115384" lon="6.843061114080681" id="-71343">
		<tag k="name" v="Hellespak" />
		<tag k="natural" v="hill" />
		<tag k="place" v="locality" />
		<tag k="ssr:stedsnr" v="462940" />
	</node>
	<node lat="60.7088472261029" lon="6.96446944021552" id="-71344">
		<tag k="name" v="Okslii" />
		<tag k="natural" v="slope" />
		<tag k="place" v="locality" />
		<tag k="ssr:stedsnr" v="462942" />
	</node>
	<node lat="60.56697777457952" lon="7.0070055475281325" id="-71345">
		<tag k="name" v="Kvistenskreo" />
		<tag k="natural" v="gorge" />
		<tag k="ssr:stedsnr" v="462950" />
	</node>
	<node lat="60.4879472217248" lon="6.768963889648" id="-71346">
		<tag k="name" v="Øykjaskar" />
		<tag k="natural" v="valley" />
		<tag k="place" v="locality" />
		<tag k="ssr:stedsnr" v="462996" />
	</node>
	<node lat="60.601338884648236" lon="7.0051805495616435" id="-71347">
		<tag k="fixme" v="consider natural=peak for the most distinct mountains in the district" />
		<tag k="name" v="Midtfjellet" />
		<tag k="natural" v="hill" />
		<tag k="place" v="locality" />
		<tag k="ssr:stedsnr" v="462952" />
	</node>
	<node lat="60.608386113279565" lon="6.950366672971654" id="-71348">
		<tag k="name" v="Sveigsøyane" />
		<tag k="place" v="locality" />
		<tag k="ssr:stedsnr" v="463528" />
	</node>
	<node lat="60.53709444200396" lon="6.887163883717622" id="-71349">
		<tag k="name" v="Tjødnarebrote" />
		<tag k="natural" v="slope" />
		<tag k="place" v="locality" />
		<tag k="ssr:stedsnr" v="463535" />
	</node>
	<node lat="60.541825001678866" lon="6.884861118157582" id="-71352">
		<tag k="name" v="Kyrkjehaugen" />
		<tag k="natural" v="hill" />
		<tag k="place" v="locality" />
		<tag k="ssr:stedsnr" v="463488" />
	</node>
	<node lat="60.5606833364261" lon="6.960900008772167" id="-71354">
		<tag k="name" v="Havarhaug" />
		<tag k="natural" v="hill" />
		<tag k="place" v="locality" />
		<tag k="ssr:stedsnr" v="463564" />
	</node>
	<node lat="60.544336108053706" lon="6.975519445155107" id="-71355">
		<tag k="alt_name" v="Brummedal" />
		<tag k="name" v="Brimmedalen" />
		<tag k="natural" v="valley" />
		<tag k="place" v="locality" />
		<tag k="ssr:stedsnr" v="463566" />
	</node>
	<node lat="60.58219999566934" lon="6.932052783265051" id="-71356">
		<tag k="name" v="Bjørndalen" />
		<tag k="natural" v="valley" />
		<tag k="place" v="locality" />
		<tag k="ssr:stedsnr" v="463575" />
	</node>
	<node lat="60.52095000366666" lon="6.903880562738633" id="-71357">
		<tag k="name" v="Staursnesnuten" />
		<tag k="natural" v="hill" />
		<tag k="place" v="locality" />
		<tag k="ssr:stedsnr" v="463544" />
	</node>
	<node lat="60.69499444423647" lon="7.203958329318566" id="-71358">
		<tag k="name" v="Klevafiti" />
		<tag k="place" v="locality" />
		<tag k="ssr:stedsnr" v="463635" />
	</node>
	<node lat="60.54069722137337" lon="6.986072214487372" id="-71360">
		<tag k="name" v="Brimmedalen" />
		<tag k="natural" v="valley" />
		<tag k="place" v="locality" />
		<tag k="ssr:stedsnr" v="463980" />
	</node>
	<node lat="60.48136388543056" lon="6.800311118880672" id="-71361">
		<tag k="name" v="Haukagil" />
		<tag k="natural" v="gorge" />
		<tag k="ssr:stedsnr" v="463997" />
	</node>
	<node lat="60.48228611236621" lon="6.792275000529104" id="-71362">
		<tag k="name" v="Nedsta Vangsoksli" />
		<tag k="natural" v="slope" />
		<tag k="place" v="locality" />
		<tag k="ssr:stedsnr" v="463998" />
	</node>
	<node lat="60.680199999298175" lon="7.0993499930958" id="-71366">
		<tag k="fixme" v="consider natural=peak for the most distinct mountains in the district" />
		<tag k="name" v="Ruvlenuten" />
		<tag k="natural" v="hill" />
		<tag k="place" v="locality" />
		<tag k="ssr:stedsnr" v="310092" />
	</node>
	<node lat="60.70025000220459" lon="7.22285556371734" id="-71367">
		<tag k="fixme" v="consider natural=peak for the most distinct mountains in the district" />
		<tag k="name" v="Tjuadalsbrotet" />
		<tag k="natural" v="hill" />
		<tag k="place" v="locality" />
		<tag k="ssr:stedsnr" v="310101" />
	</node>
	<node lat="60.69282499973536" lon="7.1313499946059915" id="-71368">
		<tag k="fixme" v="consider natural=peak for the most distinct mountains in the district" />
		<tag k="name" v="Baksafjellet" />
		<tag k="natural" v="hill" />
		<tag k="place" v="locality" />
		<tag k="ssr:stedsnr" v="310107" />
	</node>
	<node lat="60.52423055547203" lon="6.866024998240125" id="-71379">
		<tag k="name" v="Hellesetgili" />
		<tag k="natural" v="gorge" />
		<tag k="ssr:stedsnr" v="340954" />
	</node>
	<node lat="60.60391111059584" lon="6.904533326421798" id="-71380">
		<tag k="name" v="Slottena" />
		<tag k="natural" v="hill" />
		<tag k="place" v="locality" />
		<tag k="ssr:stedsnr" v="341598" />
	</node>
	<node lat="60.71092499874964" lon="7.007286112992915" id="-71381">
		<tag k="name" v="Rundenuten" />
		<tag k="natural" v="hill" />
		<tag k="place" v="locality" />
		<tag k="ssr:stedsnr" v="341992" />
	</node>
	<node lat="60.55462500407253" lon="6.962613883619495" id="-71384">
		<tag k="name" v="Raudestein" />
		<tag k="natural" v="hill" />
		<tag k="place" v="locality" />
		<tag k="ssr:stedsnr" v="347469" />
	</node>
	<node lat="60.577761111771736" lon="7.0463444414353456" id="-71388">
		<tag k="fixme" v="consider natural=peak for the most distinct mountains in the district" />
		<tag k="name" v="Hallestigen" />
		<tag k="natural" v="hill" />
		<tag k="place" v="locality" />
		<tag k="ssr:stedsnr" v="370188" />
	</node>
	<node lat="60.69019721894497" lon="7.294702786643788" id="-71391">
		<tag k="fixme" v="consider natural=peak for the most distinct mountains in the district" />
		<tag k="name" v="Skomahøgdene" />
		<tag k="natural" v="hill" />
		<tag k="place" v="locality" />
		<tag k="ssr:stedsnr" v="371081" />
	</node>
	<node lat="60.498377775728045" lon="6.874252773804002" id="-71395">
		<tag k="name" v="Espeskorane" />
		<tag k="place" v="locality" />
		<tag k="ssr:stedsnr" v="401932" />
	</node>
	<node lat="60.6077305552565" lon="6.923266664999111" id="-71396">
		<tag k="name" v="Torblå Skora" />
		<tag k="place" v="locality" />
		<tag k="ssr:stedsnr" v="401996" />
	</node>
	<node lat="60.60515833342187" lon="6.967291665273868" id="-71399">
		<tag k="name" v="Storheller" />
		<tag k="natural" v="hill" />
		<tag k="place" v="locality" />
		<tag k="ssr:stedsnr" v="402579" />
	</node>
	<node lat="60.49225704215264" lon="6.882634634240081" id="-71403">
		<tag k="name" v="Brandhaug" />
		<tag k="natural" v="hill" />
		<tag k="place" v="locality" />
		<tag k="ssr:stedsnr" v="402597" />
	</node>
	<node lat="60.493272223839554" lon="6.881247224058049" id="-71404">
		<tag k="name" v="Bjodnabakkane" />
		<tag k="natural" v="slope" />
		<tag k="place" v="locality" />
		<tag k="ssr:stedsnr" v="402598" />
	</node>
	<node lat="60.5458416625272" lon="6.857647225444558" id="-71406">
		<tag k="name" v="Storhaug" />
		<tag k="natural" v="hill" />
		<tag k="place" v="locality" />
		<tag k="ssr:stedsnr" v="403581" />
	</node>
	<node lat="60.700475000378944" lon="7.010125005580136" id="-71418">
		<tag k="fixme" v="consider natural=peak for the most distinct mountains in the district" />
		<tag k="name" v="Hervardseggi" />
		<tag k="natural" v="hill" />
		<tag k="place" v="locality" />
		<tag k="ssr:stedsnr" v="432096" />
	</node>
	<node lat="60.63437778064277" lon="7.111358325237034" id="-71422">
		<tag k="name" v="Gunnulven" />
		<tag k="natural" v="valley" />
		<tag k="place" v="locality" />
		<tag k="ssr:stedsnr" v="492054" />
	</node>
	<node lat="60.64083055618097" lon="7.317008328397155" id="-71423">
		<tag k="name" v="Låghellerbotnen" />
		<tag k="natural" v="valley" />
		<tag k="place" v="locality" />
		<tag k="ssr:stedsnr" v="492060" />
	</node>
	<node lat="60.63947777635695" lon="7.209525001164456" id="-71424">
		<tag k="alt_name" v="Grøndalsnuten, s" />
		<tag k="fixme" v="consider natural=peak for the most distinct mountains in the district" />
		<tag k="name" v="Søre Grøndalsnuten" />
		<tag k="natural" v="hill" />
		<tag k="place" v="locality" />
		<tag k="ssr:stedsnr" v="492062" />
	</node>
	<node lat="60.66103611568589" lon="7.3078750070945935" id="-71425">
		<tag k="fixme" v="consider natural=peak for the most distinct mountains in the district" />
		<tag k="name" v="Høghellerhøgdene" />
		<tag k="natural" v="hill" />
		<tag k="place" v="locality" />
		<tag k="ssr:stedsnr" v="492069" />
	</node>
	<node lat="60.55925833556635" lon="7.180705548752333" id="-71435">
		<tag k="name" v="Enden" />
		<tag k="natural" v="hill" />
		<tag k="place" v="locality" />
		<tag k="ssr:stedsnr" v="673157" />
	</node>
	<node lat="60.602322110245346" lon="6.971952912500825" id="-71442">
		<tag k="name" v="Horgafledne" />
		<tag k="place" v="locality" />
		<tag k="ssr:stedsnr" v="674065" />
	</node>
	<node lat="60.56585000341948" lon="6.878127780105002" id="-71446">
		<tag k="fixme" v="consider natural=peak for the most distinct mountains in the district" />
		<tag k="name" v="Åsen" />
		<tag k="natural" v="hill" />
		<tag k="place" v="locality" />
		<tag k="ssr:stedsnr" v="462954" />
	</node>
	<node lat="60.65138055681644" lon="7.100099991834182" id="-71451">
		<tag k="name" v="Nordredalen" />
		<tag k="natural" v="valley" />
		<tag k="place" v="locality" />
		<tag k="ssr:stedsnr" v="674092" />
	</node>
	<node lat="60.58917778207472" lon="6.971491672695614" id="-71454">
		<tag k="name" v="Eggjabrekkena" />
		<tag k="natural" v="slope" />
		<tag k="place" v="locality" />
		<tag k="ssr:stedsnr" v="463517" />
	</node>
	<node lat="60.59551110815987" lon="6.982730560867386" id="-71455">
		<tag k="name" v="Ottagili" />
		<tag k="natural" v="gorge" />
		<tag k="ssr:stedsnr" v="463520" />
	</node>
	<node lat="60.66549444104416" lon="7.256633336683186" id="-71456">
		<tag k="name" v="Skomahallet" />
		<tag k="natural" v="slope" />
		<tag k="place" v="locality" />
		<tag k="ssr:stedsnr" v="463610" />
	</node>
	<node lat="60.58271944749334" lon="7.682911102145381" id="-71463">
		<tag k="name" v="Lengjedalen" />
		<tag k="natural" v="valley" />
		<tag k="place" v="locality" />
		<tag k="ssr:stedsnr" v="675336" />
	</node>
	<node lat="60.570791664144416" lon="6.872936114125317" id="-71474">
		<tag k="name" v="Lødalen" />
		<tag k="natural" v="valley" />
		<tag k="place" v="locality" />
		<tag k="ssr:stedsnr" v="523912" />
	</node>
	<node lat="60.55412500000359" lon="6.906136106105898" id="-71475">
		<tag k="name" v="Heggjedalen" />
		<tag k="natural" v="valley" />
		<tag k="place" v="locality" />
		<tag k="ssr:stedsnr" v="524427" />
	</node>
	<node lat="60.510741668139346" lon="6.898166666305566" id="-71477">
		<tag k="name" v="Bjørnstigane" />
		<tag k="natural" v="hill" />
		<tag k="place" v="locality" />
		<tag k="ssr:stedsnr" v="524507" />
	</node>
	<node lat="60.508008330114976" lon="6.890277783902862" id="-71478">
		<tag k="name" v="Litlelii" />
		<tag k="natural" v="slope" />
		<tag k="place" v="locality" />
		<tag k="ssr:stedsnr" v="524510" />
	</node>
	<node lat="60.58785833529267" lon="7.038808334225102" id="-71479">
		<tag k="name" v="Løyndalen" />
		<tag k="natural" v="valley" />
		<tag k="place" v="locality" />
		<tag k="ssr:stedsnr" v="524964" />
	</node>
	<node lat="60.61402777940788" lon="6.921261109548345" id="-71481">
		<tag k="name" v="Langekroken" />
		<tag k="place" v="locality" />
		<tag k="ssr:stedsnr" v="524981" />
	</node>
	<node lat="60.485577779864435" lon="6.751738885936416" id="-71484">
		<tag k="fixme" v="consider natural=peak for the most distinct mountains in the district" />
		<tag k="name" v="Ingebjørgfjellet" />
		<tag k="natural" v="hill" />
		<tag k="place" v="locality" />
		<tag k="ssr:stedsnr" v="551405" />
	</node>
	<node lat="60.56970833428087" lon="6.851583341115109" id="-71493">
		<tag k="name" v="Sjonaskallane" />
		<tag k="place" v="locality" />
		<tag k="ssr:stedsnr" v="583940" />
	</node>
	<node lat="60.58562221914215" lon="6.968949995944476" id="-71496">
		<tag k="name" v="Høganut" />
		<tag k="natural" v="hill" />
		<tag k="place" v="locality" />
		<tag k="ssr:stedsnr" v="584544" />
	</node>
	<node lat="60.55820555786719" lon="6.935955561862287" id="-71497">
		<tag k="name" v="Klaffena" />
		<tag k="place" v="locality" />
		<tag k="ssr:stedsnr" v="584604" />
	</node>
	<node lat="60.56087221959585" lon="6.951605560030152" id="-71498">
		<tag k="name" v="Selshaug" />
		<tag k="natural" v="hill" />
		<tag k="place" v="locality" />
		<tag k="ssr:stedsnr" v="584606" />
	</node>
	<node lat="60.54780000009792" lon="6.8289166711151745" id="-71499">
		<tag k="name" v="Nautastodhaugane" />
		<tag k="natural" v="hill" />
		<tag k="place" v="locality" />
		<tag k="ssr:stedsnr" v="584631" />
	</node>
	<node lat="60.61324444668254" lon="6.969424998440226" id="-71500">
		<tag k="fixme" v="consider natural=peak for the most distinct mountains in the district" />
		<tag k="name" v="Nedre Sveigsfjellet" />
		<tag k="natural" v="hill" />
		<tag k="place" v="locality" />
		<tag k="ssr:stedsnr" v="584646" />
	</node>
	<node lat="60.60740555647384" lon="6.913686111048996" id="-71502">
		<tag k="name" v="Storebakkane" />
		<tag k="natural" v="slope" />
		<tag k="place" v="locality" />
		<tag k="ssr:stedsnr" v="584990" />
	</node>
	<node lat="60.68615000312649" lon="7.1755055498207305" id="-71507">
		<tag k="alt_name" v="Broksfjellet, litle" />
		<tag k="fixme" v="consider natural=peak for the most distinct mountains in the district" />
		<tag k="name" v="Litle Broksfjellet" />
		<tag k="natural" v="hill" />
		<tag k="place" v="locality" />
		<tag k="ssr:stedsnr" v="613111" />
	</node>
	<node lat="60.60879166999926" lon="7.239827781735606" id="-71510">
		<tag k="fixme" v="consider natural=peak for the most distinct mountains in the district" />
		<tag k="name" v="Grjotrusti" />
		<tag k="natural" v="hill" />
		<tag k="place" v="locality" />
		<tag k="ssr:stedsnr" v="613162" />
	</node>
	<node lat="60.588566667309536" lon="6.952752784264326" id="-71525">
		<tag k="name" v="Espeskorane" />
		<tag k="place" v="locality" />
		<tag k="ssr:stedsnr" v="706486" />
	</node>
	<node lat="60.5988833311551" lon="6.9790555545749475" id="-71526">
		<tag k="name" v="Bytesdalen" />
		<tag k="natural" v="valley" />
		<tag k="place" v="locality" />
		<tag k="ssr:stedsnr" v="706495" />
	</node>
	<node lat="60.60278611234343" lon="7.5554027812612246" id="-71528">
		<tag k="name" v="Larsbudalen" />
		<tag k="natural" v="valley" />
		<tag k="place" v="locality" />
		<tag k="ssr:stedsnr" v="644975" />
	</node>
	<node lat="60.60629722256463" lon="6.9012750034109365" id="-71529">
		<tag k="name" v="Kornolskora" />
		<tag k="place" v="locality" />
		<tag k="ssr:stedsnr" v="644997" />
	</node>
	<node lat="60.57498333506879" lon="6.979108337376915" id="-71531">
		<tag k="name" v="Hamrane" />
		<tag k="natural" v="hill" />
		<tag k="place" v="locality" />
		<tag k="ssr:stedsnr" v="706547" />
	</node>
	<node lat="60.59527500155037" lon="6.908647219436699" id="-71534">
		<tag k="name" v="Vasslii" />
		<tag k="natural" v="slope" />
		<tag k="place" v="locality" />
		<tag k="ssr:stedsnr" v="645490" />
	</node>
	<node lat="60.598891664704745" lon="6.8554249985564555" id="-71536">
		<tag k="name" v="Idleskorane" />
		<tag k="place" v="locality" />
		<tag k="ssr:stedsnr" v="645578" />
	</node>
	<node lat="60.53907777615635" lon="6.846677776472288" id="-71537">
		<tag k="name" v="Storhaugane" />
		<tag k="natural" v="hill" />
		<tag k="place" v="locality" />
		<tag k="ssr:stedsnr" v="645584" />
	</node>
	<node lat="60.60806388705391" lon="6.910191663516952" id="-71538">
		<tag k="name" v="Kyrmysseberget" />
		<tag k="natural" v="hill" />
		<tag k="place" v="locality" />
		<tag k="ssr:stedsnr" v="645973" />
	</node>
	<node lat="60.54010277721581" lon="7.151155546528338" id="-71542">
		<tag k="name" v="Gruvlenuten" />
		<tag k="natural" v="hill" />
		<tag k="place" v="locality" />
		<tag k="ssr:stedsnr" v="673163" />
	</node>
	<node lat="60.587802776947676" lon="6.993777780599034" id="-71548">
		<tag k="alt_name" v="Hiaskorane" />
		<tag k="name" v="Hiaskorene" />
		<tag k="place" v="locality" />
		<tag k="ssr:stedsnr" v="674182" />
	</node>
	<node lat="60.57558055788615" lon="6.846511106493356" id="-71558">
		<tag k="name" v="Aurdalskleppe" />
		<tag k="natural" v="hill" />
		<tag k="place" v="locality" />
		<tag k="ssr:stedsnr" v="705937" />
	</node>
	<node lat="60.54705000159794" lon="6.981241667252309" id="-71559">
		<tag k="name" v="Klungerskorane" />
		<tag k="place" v="locality" />
		<tag k="ssr:stedsnr" v="705941" />
	</node>
	<node lat="60.58868611267599" lon="7.013794444685571" id="-71560">
		<tag k="name" v="Storskor" />
		<tag k="place" v="locality" />
		<tag k="ssr:stedsnr" v="705942" />
	</node>
	<node lat="60.535744441873526" lon="6.921613885223737" id="-71564">
		<tag k="name" v="Grimmedalen" />
		<tag k="natural" v="valley" />
		<tag k="place" v="locality" />
		<tag k="ssr:stedsnr" v="706514" />
	</node>
	<node lat="60.5076472238545" lon="6.88508334044396" id="-71566">
		<tag k="name" v="Storehjallen" />
		<tag k="place" v="locality" />
		<tag k="ssr:stedsnr" v="706518" />
	</node>
	<node lat="60.5082805586656" lon="6.903383331384247" id="-71567">
		<tag k="name" v="Teigane" />
		<tag k="natural" v="hill" />
		<tag k="place" v="locality" />
		<tag k="ssr:stedsnr" v="706523" />
	</node>
	<node lat="60.54355833686593" lon="6.828036111110977" id="-71568">
		<tag k="name" v="Streiteliæ" />
		<tag k="natural" v="slope" />
		<tag k="place" v="locality" />
		<tag k="ssr:stedsnr" v="706572" />
	</node>
	<node lat="60.56915555915532" lon="7.135772228257472" id="-71573">
		<tag k="name" v="Gjerdanuten" />
		<tag k="natural" v="hill" />
		<tag k="old_name" v="Gerdanuten" />
		<tag k="place" v="locality" />
		<tag k="ssr:stedsnr" v="734185" />
	</node>
	<node lat="60.64602500394773" lon="7.005483339629815" id="-71584">
		<tag k="fixme" v="consider natural=peak for the most distinct mountains in the district" />
		<tag k="name" v="Reinskarnuten" />
		<tag k="natural" v="hill" />
		<tag k="place" v="locality" />
		<tag k="ssr:stedsnr" v="735089" />
	</node>
	<node lat="60.530427778344894" lon="6.968430555869572" id="-71592">
		<tag k="name" v="Trømmi" />
		<tag k="place" v="locality" />
		<tag k="ssr:stedsnr" v="765960" />
	</node>
	<node lat="60.55789444231974" lon="6.875555551117977" id="-71595">
		<tag k="name" v="Sponheimshagen" />
		<tag k="place" v="locality" />
		<tag k="ssr:stedsnr" v="766520" />
	</node>
	<node lat="60.55006389140694" lon="6.931749994669201" id="-71596">
		<tag k="name" v="Sjodalen" />
		<tag k="natural" v="valley" />
		<tag k="place" v="locality" />
		<tag k="ssr:stedsnr" v="766604" />
	</node>
	<node lat="60.55473055127534" lon="6.947861118273696" id="-71597">
		<tag k="name" v="Hjemlamyrshaugen" />
		<tag k="natural" v="hill" />
		<tag k="place" v="locality" />
		<tag k="ssr:stedsnr" v="766608" />
	</node>
	<node lat="60.582386113746146" lon="6.954225003239225" id="-71598">
		<tag k="name" v="Sysegili" />
		<tag k="natural" v="gorge" />
		<tag k="ssr:stedsnr" v="766611" />
	</node>
	<node lat="60.58784167069649" lon="7.061166663740213" id="-71600">
		<tag k="name" v="Renneskor" />
		<tag k="place" v="locality" />
		<tag k="ssr:stedsnr" v="766989" />
	</node>
	<node lat="60.52461666816704" lon="6.9976638896379555" id="-71609">
		<tag k="fixme" v="consider natural=peak for the most distinct mountains in the district" />
		<tag k="name" v="Vardahaugen" />
		<tag k="natural" v="hill" />
		<tag k="place" v="locality" />
		<tag k="ssr:stedsnr" v="795168" />
	</node>
	<node lat="60.564991670858355" lon="7.024488894663756" id="-71610">
		<tag k="fixme" v="consider natural=peak for the most distinct mountains in the district" />
		<tag k="name" v="Balåfjellet" />
		<tag k="natural" v="hill" />
		<tag k="place" v="locality" />
		<tag k="ssr:stedsnr" v="795209" />
	</node>
	<node lat="60.61757499995317" lon="7.0538583285643925" id="-71611">
		<tag k="name" v="Storhaug" />
		<tag k="natural" v="hill" />
		<tag k="place" v="locality" />
		<tag k="ssr:stedsnr" v="796069" />
	</node>
	<node lat="60.49616944847465" lon="6.933433330912572" id="-71616">
		<tag k="fixme" v="consider natural=peak for the most distinct mountains in the district" />
		<tag k="name" v="Trommi" />
		<tag k="natural" v="hill" />
		<tag k="place" v="locality" />
		<tag k="ssr:stedsnr" v="915392" />
	</node>
	<node lat="60.60892500442982" lon="7.016000007493652" id="-71619">
		<tag k="fixme" v="consider natural=peak for the most distinct mountains in the district" />
		<tag k="name" v="Herbergsryggen" />
		<tag k="natural" v="hill" />
		<tag k="place" v="locality" />
		<tag k="ssr:stedsnr" v="917056" />
	</node>
	<node lat="60.61014167086351" lon="6.960988885048025" id="-71630">
		<tag k="name" v="Illeskorane" />
		<tag k="place" v="locality" />
		<tag k="ssr:stedsnr" v="826953" />
	</node>
	<node lat="60.592572224332834" lon="6.956138890089369" id="-71631">
		<tag k="name" v="Varane" />
		<tag k="natural" v="hill" />
		<tag k="place" v="locality" />
		<tag k="ssr:stedsnr" v="827584" />
	</node>
	<node lat="60.55469722191666" lon="6.995647227952973" id="-71634">
		<tag k="name" v="Vetlaskreo" />
		<tag k="natural" v="gorge" />
		<tag k="ssr:stedsnr" v="827975" />
	</node>
	<node lat="60.55180277560121" lon="6.954344444983037" id="-71636">
		<tag k="name" v="Brunena" />
		<tag k="natural" v="hill" />
		<tag k="place" v="locality" />
		<tag k="ssr:stedsnr" v="828541" />
	</node>
	<node lat="60.70139999834987" lon="6.978069450151377" id="-71638">
		<tag k="name" v="Dalabrekkena" />
		<tag k="natural" v="slope" />
		<tag k="place" v="locality" />
		<tag k="ssr:stedsnr" v="828562" />
	</node>
	<node lat="60.70580278151649" lon="6.994099992169517" id="-71642">
		<tag k="loc_name" v="Uppsetedalen" />
		<tag k="name" v="Uppsetdalen" />
		<tag k="natural" v="valley" />
		<tag k="place" v="locality" />
		<tag k="ssr:stedsnr" v="856113" />
	</node>
	<node lat="60.66414167111508" lon="7.144880553856196" id="-71654">
		<tag k="fixme" v="consider natural=peak for the most distinct mountains in the district" />
		<tag k="name" v="Storrjuven" />
		<tag k="natural" v="hill" />
		<tag k="place" v="locality" />
		<tag k="ssr:stedsnr" v="857106" />
	</node>
	<node lat="60.54717500108592" lon="6.93847778434724" id="-71667">
		<tag k="name" v="Trånemyrhaugen" />
		<tag k="natural" v="hill" />
		<tag k="place" v="locality" />
		<tag k="ssr:stedsnr" v="888546" />
	</node>
	<node lat="60.65822222054152" lon="7.0505638876500765" id="-71676">
		<tag k="fixme" v="consider natural=peak for the most distinct mountains in the district" />
		<tag k="name" v="Skipanuten" />
		<tag k="natural" v="hill" />
		<tag k="place" v="locality" />
		<tag k="ssr:stedsnr" v="917075" />
	</node>
	<node lat="60.58603610874077" lon="7.239927781172276" id="-71679">
		<tag k="name" v="Senanuten" />
		<tag k="natural" v="hill" />
		<tag k="place" v="locality" />
		<tag k="ssr:stedsnr" v="917127" />
	</node>
	<node lat="60.59961666549047" lon="7.467741666578494" id="-71686">
		<tag k="name" v="Nordnut felæger" />
		<tag k="place" v="locality" />
		<tag k="ssr:stedsnr" v="948978" />
	</node>
	<node lat="60.55273611436462" lon="6.882422220327625" id="-71687">
		<tag k="name" v="Grovdalen" />
		<tag k="natural" v="valley" />
		<tag k="place" v="locality" />
		<tag k="ssr:stedsnr" v="949435" />
	</node>
	<node lat="60.54635000410987" lon="6.870361108160035" id="-71688">
		<tag k="name" v="Geitheldrane" />
		<tag k="place" v="locality" />
		<tag k="ssr:stedsnr" v="949438" />
	</node>
	<node lat="60.58810833566729" lon="6.9286694380995755" id="-71689">
		<tag k="name" v="Lomstjønshaugen" />
		<tag k="natural" v="hill" />
		<tag k="place" v="locality" />
		<tag k="ssr:stedsnr" v="949482" />
	</node>
	<node lat="60.609027781294714" lon="6.971144440617453" id="-71690">
		<tag k="name" v="Steinbrurindane" />
		<tag k="natural" v="hill" />
		<tag k="place" v="locality" />
		<tag k="ssr:stedsnr" v="949488" />
	</node>
	<node lat="60.49298888886608" lon="6.918302776649391" id="-71691">
		<tag k="name" v="Lauholo" />
		<tag k="place" v="locality" />
		<tag k="ssr:stedsnr" v="949491" />
	</node>
	<node lat="60.516538891923396" lon="6.971402782030302" id="-71694">
		<tag k="name" v="Langedalen" />
		<tag k="natural" v="valley" />
		<tag k="place" v="locality" />
		<tag k="ssr:stedsnr" v="949507" />
	</node>
	<node lat="60.58267499995462" lon="6.892533340482374" id="-71696">
		<tag k="name" v="Kolgrovhaugen" />
		<tag k="natural" v="hill" />
		<tag k="place" v="locality" />
		<tag k="ssr:stedsnr" v="949521" />
	</node>
	<node lat="60.63370555575415" lon="7.26053888295808" id="-71708">
		<tag k="name" v="Larsaslahøgdi" />
		<tag k="natural" v="hill" />
		<tag k="place" v="locality" />
		<tag k="ssr:stedsnr" v="7080" />
	</node>
	<node lat="60.634147221855756" lon="7.158744443842761" id="-71709">
		<tag k="name" v="Hegrenuten" />
		<tag k="natural" v="hill" />
		<tag k="place" v="locality" />
		<tag k="ssr:stedsnr" v="7084" />
	</node>
	<node lat="60.639275000913116" lon="6.972255554839577" id="-71710">
		<tag k="fixme" v="consider natural=peak for the most distinct mountains in the district" />
		<tag k="name" v="Skreppenuten" />
		<tag k="natural" v="hill" />
		<tag k="place" v="locality" />
		<tag k="ssr:stedsnr" v="7088" />
	</node>
	<node lat="60.64038055355233" lon="7.018541670070515" id="-71711">
		<tag k="fixme" v="consider natural=peak for the most distinct mountains in the district" />
		<tag k="name" v="Svana" />
		<tag k="natural" v="hill" />
		<tag k="place" v="locality" />
		<tag k="ssr:stedsnr" v="7095" />
	</node>
	<node lat="60.49496110866338" lon="6.92362499998052" id="-71730">
		<tag k="name" v="Nuten" />
		<tag k="natural" v="hill" />
		<tag k="place" v="locality" />
		<tag k="ssr:stedsnr" v="38559" />
	</node>
	<node lat="60.51587222390917" lon="6.96277778415325" id="-71731">
		<tag k="name" v="Skote" />
		<tag k="place" v="locality" />
		<tag k="ssr:stedsnr" v="38570" />
	</node>
	<node lat="60.52883332964492" lon="6.90175555566028" id="-71732">
		<tag k="name" v="Hetlenesgjelet" />
		<tag k="natural" v="gorge" />
		<tag k="ssr:stedsnr" v="38574" />
	</node>
	<node lat="60.5118583338774" lon="6.93996110830171" id="-71733">
		<tag k="name" v="Bakken" />
		<tag k="natural" v="slope" />
		<tag k="place" v="locality" />
		<tag k="ssr:stedsnr" v="38579" />
	</node>
	<node lat="60.58198333013766" lon="6.900869442886902" id="-71736">
		<tag k="name" v="Seljestidalen" />
		<tag k="natural" v="valley" />
		<tag k="place" v="locality" />
		<tag k="ssr:stedsnr" v="38598" />
	</node>
	<node lat="60.54772777697617" lon="6.842733328229057" id="-71737">
		<tag k="name" v="Orreholo" />
		<tag k="place" v="locality" />
		<tag k="ssr:stedsnr" v="38634" />
	</node>
	<node lat="60.57916388672084" lon="6.996497221584356" id="-71738">
		<tag k="name" v="Ljoraskreo" />
		<tag k="natural" v="gorge" />
		<tag k="ssr:stedsnr" v="38646" />
	</node>
	<node lat="60.7020555591195" lon="6.946611103049852" id="-71742">
		<tag k="name" v="Ørnaberget" />
		<tag k="natural" v="hill" />
		<tag k="place" v="locality" />
		<tag k="ssr:stedsnr" v="46222" />
	</node>
	<node lat="60.5298277793662" lon="7.05180277984375" id="-71750">
		<tag k="fixme" v="consider natural=peak for the most distinct mountains in the district" />
		<tag k="name" v="Øykjeskarsnuten" />
		<tag k="natural" v="hill" />
		<tag k="place" v="locality" />
		<tag k="ssr:stedsnr" v="66123" />
	</node>
	<node lat="60.62362499663626" lon="7.237900007441241" id="-71760">
		<tag k="fixme" v="consider natural=peak for the most distinct mountains in the district" />
		<tag k="name" v="Kvilingahaug" />
		<tag k="natural" v="hill" />
		<tag k="place" v="locality" />
		<tag k="ssr:stedsnr" v="68061" />
	</node>
	<node lat="60.617383329213176" lon="6.977313881323471" id="-71764">
		<tag k="alt_name" v="Vassfjellet, vetle" />
		<tag k="fixme" v="consider natural=peak for the most distinct mountains in the district" />
		<tag k="name" v="Vetle Vassfjellet" />
		<tag k="natural" v="hill" />
		<tag k="place" v="locality" />
		<tag k="ssr:stedsnr" v="68067" />
	</node>
	<node lat="60.65327347196319" lon="7.1321759606937984" id="-71765">
		<tag k="fixme" v="consider natural=peak for the most distinct mountains in the district" />
		<tag k="name" v="Nyrjuven" />
		<tag k="natural" v="hill" />
		<tag k="place" v="locality" />
		<tag k="ssr:stedsnr" v="68079" />
	</node>
	<node lat="60.58993333582575" lon="7.0200611070731025" id="-71774">
		<tag k="name" v="Kås" />
		<tag k="natural" v="hill" />
		<tag k="place" v="locality" />
		<tag k="ssr:stedsnr" v="99987" />
	</node>
	<node lat="60.70461388543557" lon="6.99572499730824" id="-71776">
		<tag k="name" v="Dalabrekkena" />
		<tag k="natural" v="valley" />
		<tag k="place" v="locality" />
		<tag k="ssr:stedsnr" v="99994" />
	</node>
	<node lat="60.54574444747434" lon="6.872305548040804" id="-71779">
		<tag k="name" v="Kleivi" />
		<tag k="place" v="locality" />
		<tag k="ssr:stedsnr" v="99523" />
	</node>
	<node lat="60.586802779943845" lon="6.916102786687532" id="-71780">
		<tag k="name" v="Klyvhals" />
		<tag k="natural" v="valley" />
		<tag k="place" v="locality" />
		<tag k="ssr:stedsnr" v="99533" />
	</node>
	<node lat="60.551852782184746" lon="6.8636027756322955" id="-71783">
		<tag k="name" v="Verkane" />
		<tag k="place" v="locality" />
		<tag k="ssr:stedsnr" v="99631" />
	</node>
	<node lat="60.551797226698554" lon="6.835886117556064" id="-71784">
		<tag k="name" v="Skjelmhaug" />
		<tag k="natural" v="hill" />
		<tag k="place" v="locality" />
		<tag k="ssr:stedsnr" v="99633" />
	</node>
	<node lat="60.5438138885236" lon="6.823938896387609" id="-71785">
		<tag k="name" v="Beiteskar" />
		<tag k="natural" v="hill" />
		<tag k="place" v="locality" />
		<tag k="ssr:stedsnr" v="99639" />
	</node>
	<node lat="60.593263890379745" lon="6.8341638806169565" id="-71786">
		<tag k="name" v="Lyse" />
		<tag k="place" v="locality" />
		<tag k="ssr:stedsnr" v="99646" />
	</node>
	<node lat="60.59008055348836" lon="6.865530563871912" id="-71787">
		<tag k="name" v="Ulsberg" />
		<tag k="natural" v="hill" />
		<tag k="place" v="locality" />
		<tag k="ssr:stedsnr" v="99652" />
	</node>
	<node lat="60.58267500156472" lon="6.8523222193067985" id="-71789">
		<tag k="name" v="Storlii" />
		<tag k="natural" v="slope" />
		<tag k="place" v="locality" />
		<tag k="ssr:stedsnr" v="99685" />
	</node>
	<node lat="60.493563889750355" lon="6.8159666635286635" id="-71811">
		<tag k="name" v="Navena" />
		<tag k="natural" v="hill" />
		<tag k="place" v="locality" />
		<tag k="ssr:stedsnr" v="159574" />
	</node>
	<node lat="60.58391944756385" lon="6.906502772140094" id="-71812">
		<tag k="name" v="Seljestidalen" />
		<tag k="natural" v="valley" />
		<tag k="place" v="locality" />
		<tag k="ssr:stedsnr" v="159585" />
	</node>
	<node lat="60.5959361150644" lon="7.038105552689848" id="-71815">
		<tag k="name" v="Sævartveitdalen" />
		<tag k="natural" v="valley" />
		<tag k="place" v="locality" />
		<tag k="ssr:stedsnr" v="159985" />
	</node>
	<node lat="60.49898333258357" lon="6.885224992982369" id="-71818">
		<tag k="name" v="Kadleleite" />
		<tag k="place" v="locality" />
		<tag k="ssr:stedsnr" v="160505" />
	</node>
	<node lat="60.555252781504755" lon="6.959311105411441" id="-71820">
		<tag k="name" v="Gjøtta" />
		<tag k="natural" v="hill" />
		<tag k="place" v="locality" />
		<tag k="ssr:stedsnr" v="160516" />
	</node>
	<node lat="60.55896993787231" lon="6.969238785346521" id="-71821">
		<tag k="name" v="Lahammar" />
		<tag k="natural" v="cliff" />
		<tag k="ssr:stedsnr" v="160519" />
	</node>
	<node lat="60.55428055226621" lon="6.937891670313485" id="-71822">
		<tag k="name" v="Sjonaskallen" />
		<tag k="natural" v="hill" />
		<tag k="place" v="locality" />
		<tag k="ssr:stedsnr" v="160525" />
	</node>
	<node lat="60.572174998492315" lon="6.967200004334558" id="-71824">
		<tag k="name" v="Torblålii" />
		<tag k="natural" v="slope" />
		<tag k="place" v="locality" />
		<tag k="ssr:stedsnr" v="160533" />
	</node>
	<node lat="60.60788055628925" lon="6.960191664575547" id="-71828">
		<tag k="name" v="Gildehellrehaugen" />
		<tag k="natural" v="hill" />
		<tag k="place" v="locality" />
		<tag k="ssr:stedsnr" v="160468" />
	</node>
	<node lat="60.70268611154544" lon="6.965030555261216" id="-71830">
		<tag k="name" v="Langvassosen" />
		<tag k="natural" v="hill" />
		<tag k="place" v="locality" />
		<tag k="ssr:stedsnr" v="160548" />
	</node>
	<node lat="60.543786107434414" lon="6.8487055546592766" id="-71831">
		<tag k="name" v="Graonodlen" />
		<tag k="natural" v="hill" />
		<tag k="place" v="locality" />
		<tag k="ssr:stedsnr" v="160550" />
	</node>
	<node lat="60.54626389100524" lon="6.83185555791856" id="-71832">
		<tag k="name" v="Streite" />
		<tag k="natural" v="hill" />
		<tag k="place" v="locality" />
		<tag k="ssr:stedsnr" v="160554" />
	</node>
	<node lat="60.58613888967227" lon="6.848258335235852" id="-71834">
		<tag k="loc_name" v="Helleberget" />
		<tag k="name" v="Hedlebergje" />
		<tag k="natural" v="hill" />
		<tag k="place" v="locality" />
		<tag k="ssr:stedsnr" v="160562" />
	</node>
	<node lat="60.57913610831045" lon="6.962502786373015" id="-71835">
		<tag k="name" v="Lekveslii" />
		<tag k="natural" v="slope" />
		<tag k="place" v="locality" />
		<tag k="ssr:stedsnr" v="160564" />
	</node>
	<node lat="60.52592777843722" lon="6.987488887436024" id="-71837">
		<tag k="fixme" v="consider natural=peak for the most distinct mountains in the district" />
		<tag k="name" v="Senanuten" />
		<tag k="natural" v="hill" />
		<tag k="place" v="locality" />
		<tag k="ssr:stedsnr" v="188154" />
	</node>
	<node lat="60.607475003181435" lon="6.987736105228921" id="-71841">
		<tag k="name" v="Raudestig" />
		<tag k="natural" v="slope" />
		<tag k="place" v="locality" />
		<tag k="ssr:stedsnr" v="189056" />
	</node>
	<node lat="60.61362499604225" lon="7.35272500577104" id="-71849">
		<tag k="fixme" v="consider natural=peak for the most distinct mountains in the district" />
		<tag k="name" v="Memorge" />
		<tag k="natural" v="hill" />
		<tag k="place" v="locality" />
		<tag k="ssr:stedsnr" v="189258" />
	</node>
	<node lat="60.56994999878119" lon="6.9815499916531" id="-71862">
		<tag k="name" v="Geitaskjersskorane" />
		<tag k="place" v="locality" />
		<tag k="ssr:stedsnr" v="220566" />
	</node>
	<node lat="60.51778055516185" lon="6.947663881598645" id="-71863">
		<tag k="alt_name" v="Træet" />
		<tag k="name" v="Træe" />
		<tag k="place" v="locality" />
		<tag k="ssr:stedsnr" v="220617" />
	</node>
	<node lat="60.502794446005474" lon="6.897186106062489" id="-71864">
		<tag k="name" v="Breiskor" />
		<tag k="place" v="locality" />
		<tag k="ssr:stedsnr" v="221537" />
	</node>
	<node lat="60.58916111017752" lon="6.883666667405407" id="-71865">
		<tag k="name" v="Smedalsbotnen" />
		<tag k="natural" v="valley" />
		<tag k="place" v="locality" />
		<tag k="ssr:stedsnr" v="281534" />
	</node>
	<node lat="60.530302775015755" lon="6.958916661703091" id="-71866">
		<tag k="name" v="Ovnen" />
		<tag k="place" v="locality" />
		<tag k="ssr:stedsnr" v="281550" />
	</node>
	<node lat="60.58732777633888" lon="6.960147230968531" id="-71867">
		<tag k="name" v="Sæberg" />
		<tag k="natural" v="hill" />
		<tag k="place" v="locality" />
		<tag k="ssr:stedsnr" v="281554" />
	</node>
	<node lat="60.605099998514554" lon="6.929086112673933" id="-71869">
		<tag k="name" v="Storhaug" />
		<tag k="natural" v="hill" />
		<tag k="place" v="locality" />
		<tag k="ssr:stedsnr" v="281566" />
	</node>
	<node lat="60.684916668737515" lon="7.201786113584713" id="-71870">
		<tag k="name" v="Klevaskaret" />
		<tag k="natural" v="valley" />
		<tag k="place" v="locality" />
		<tag k="ssr:stedsnr" v="280997" />
	</node>
	<node lat="60.57591666699702" lon="7.02555554653354" id="-71871">
		<tag k="name" v="Jutasprangskreo" />
		<tag k="natural" v="gorge" />
		<tag k="ssr:stedsnr" v="280945" />
	</node>
	<node lat="60.51303610987339" lon="6.902083337179915" id="-71872">
		<tag k="name" v="Storelii" />
		<tag k="natural" v="slope" />
		<tag k="place" v="locality" />
		<tag k="ssr:stedsnr" v="281593" />
	</node>
	<node lat="60.51528055473684" lon="6.898541675053241" id="-71873">
		<tag k="name" v="Børvenuten" />
		<tag k="natural" v="hill" />
		<tag k="place" v="locality" />
		<tag k="ssr:stedsnr" v="281594" />
	</node>
	<node lat="60.577277781830254" lon="6.869647216499571" id="-71874">
		<tag k="name" v="Svarthammar" />
		<tag k="natural" v="hill" />
		<tag k="place" v="locality" />
		<tag k="ssr:stedsnr" v="281598" />
	</node>
	<node lat="60.5822555512957" lon="6.910394436192661" id="-71875">
		<tag k="name" v="Vestrheimsklyve" />
		<tag k="natural" v="hill" />
		<tag k="place" v="locality" />
		<tag k="ssr:stedsnr" v="281600" />
	</node>
	<node lat="60.55236388858506" lon="6.854347215854024" id="-71896">
		<tag k="name" v="Krossaskarv" />
		<tag k="natural" v="hill" />
		<tag k="place" v="locality" />
		<tag k="ssr:stedsnr" v="342543" />
	</node>
	<node lat="60.59496944417468" lon="6.849597220093294" id="-71897">
		<tag k="name" v="Eikhovden" />
		<tag k="place" v="locality" />
		<tag k="ssr:stedsnr" v="342548" />
	</node>
	<node lat="60.576275000667025" lon="7.549708326186467" id="-71899">
		<tag k="fixme" v="consider natural=peak for the most distinct mountains in the district" />
		<tag k="name" v="Vesle Hansbunuten" />
		<tag k="natural" v="hill" />
		<tag k="place" v="locality" />
		<tag k="ssr:stedsnr" v="342555" />
	</node>
	<node lat="60.60915833296143" lon="6.9142777721866935" id="-71901">
		<tag k="name" v="Kyrmysseskorna" />
		<tag k="place" v="locality" />
		<tag k="ssr:stedsnr" v="342563" />
	</node>
	<node lat="60.595155556407875" lon="7.02395277549126" id="-71904">
		<tag k="name" v="Tepeslii" />
		<tag k="natural" v="slope" />
		<tag k="place" v="locality" />
		<tag k="ssr:stedsnr" v="341980" />
	</node>
	<node lat="60.61206388559623" lon="6.92580278059703" id="-71905">
		<tag k="name" v="Mjølkehaugane" />
		<tag k="natural" v="hill" />
		<tag k="place" v="locality" />
		<tag k="ssr:stedsnr" v="341990" />
	</node>
	<node lat="60.52568333551778" lon="6.966122218101239" id="-71909">
		<tag k="name" v="Bygdaråsen" />
		<tag k="natural" v="hill" />
		<tag k="place" v="locality" />
		<tag k="ssr:stedsnr" v="342460" />
	</node>
	<node lat="60.5915666706867" lon="6.9655722156032684" id="-71910">
		<tag k="name" v="Musakolhaugane" />
		<tag k="natural" v="hill" />
		<tag k="place" v="locality" />
		<tag k="ssr:stedsnr" v="342469" />
	</node>
	<node lat="60.5968361131927" lon="6.975941663244027" id="-71911">
		<tag k="name" v="Jonstølslii" />
		<tag k="natural" v="slope" />
		<tag k="place" v="locality" />
		<tag k="ssr:stedsnr" v="342473" />
	</node>
	<node lat="60.700950000649605" lon="6.979294453418124" id="-71914">
		<tag k="name" v="Dalaoksli" />
		<tag k="natural" v="slope" />
		<tag k="place" v="locality" />
		<tag k="ssr:stedsnr" v="342535" />
	</node>
	<node lat="60.55639444172016" lon="6.859461115368717" id="-71915">
		<tag k="name" v="Nepetræe" />
		<tag k="place" v="locality" />
		<tag k="ssr:stedsnr" v="342537" />
	</node>
	<node lat="60.572169440266435" lon="7.015383325852487" id="-71918">
		<tag k="name" v="Eikhammar" />
		<tag k="natural" v="hill" />
		<tag k="place" v="locality" />
		<tag k="ssr:stedsnr" v="347845" />
	</node>
	<node lat="60.5837861081643" lon="6.9888250069633395" id="-71922">
		<tag k="fixme" v="consider natural=peak for the most distinct mountains in the district" />
		<tag k="name" v="Kristinuten" />
		<tag k="natural" v="hill" />
		<tag k="place" v="locality" />
		<tag k="ssr:stedsnr" v="370219" />
	</node>
	<node lat="60.57247500341143" lon="7.03618611471576" id="-71924">
		<tag k="fixme" v="consider natural=peak for the most distinct mountains in the district" />
		<tag k="name" v="Slondalskåkene" />
		<tag k="natural" v="hill" />
		<tag k="place" v="locality" />
		<tag k="ssr:stedsnr" v="370206" />
	</node>
	<node lat="60.59767499951747" lon="7.045627783986124" id="-71942">
		<tag k="name" v="Kjosen" />
		<tag k="place" v="locality" />
		<tag k="ssr:stedsnr" v="401949" />
	</node>
	<node lat="60.58245833758623" lon="6.922474994202402" id="-71945">
		<tag k="name" v="Vidlinghaugane" />
		<tag k="natural" v="hill" />
		<tag k="place" v="locality" />
		<tag k="ssr:stedsnr" v="402621" />
	</node>
	<node lat="60.55426110818329" lon="6.899630552116301" id="-71946">
		<tag k="name" v="Svoskarv" />
		<tag k="place" v="locality" />
		<tag k="ssr:stedsnr" v="402549" />
	</node>
	<node lat="60.59383055756368" lon="6.89774722537536" id="-71947">
		<tag k="name" v="Tjørnarbotnen" />
		<tag k="natural" v="valley" />
		<tag k="place" v="locality" />
		<tag k="ssr:stedsnr" v="402553" />
	</node>
	<node lat="60.53754444161913" lon="6.965005559351274" id="-71948">
		<tag k="name" v="Bukkhammar" />
		<tag k="natural" v="hill" />
		<tag k="place" v="locality" />
		<tag k="ssr:stedsnr" v="402563" />
	</node>
	<node lat="60.51996111031727" lon="6.964972226643757" id="-71949">
		<tag k="name" v="Dammane" />
		<tag k="place" v="locality" />
		<tag k="ssr:stedsnr" v="402565" />
	</node>
	<node lat="60.522302773721115" lon="6.957486109183921" id="-71950">
		<tag k="name" v="Legena" />
		<tag k="natural" v="hill" />
		<tag k="place" v="locality" />
		<tag k="ssr:stedsnr" v="402567" />
	</node>
	<node lat="60.591088886244236" lon="6.947411119638849" id="-71951">
		<tag k="name" v="Torgeirsstigen" />
		<tag k="natural" v="hill" />
		<tag k="place" v="locality" />
		<tag k="ssr:stedsnr" v="402569" />
	</node>
	<node lat="60.59671110945041" lon="7.012597222910873" id="-71955">
		<tag k="name" v="Sævartveitnuten" />
		<tag k="natural" v="hill" />
		<tag k="place" v="locality" />
		<tag k="ssr:stedsnr" v="402981" />
	</node>
	<node lat="60.58418889146286" lon="7.054108334721394" id="-71956">
		<tag k="name" v="Austdalen" />
		<tag k="natural" v="valley" />
		<tag k="place" v="locality" />
		<tag k="ssr:stedsnr" v="402987" />
	</node>
	<node lat="60.68076111378546" lon="7.201841660751689" id="-71958">
		<tag k="name" v="Tuftaleitet" />
		<tag k="place" v="locality" />
		<tag k="ssr:stedsnr" v="402999" />
	</node>
	<node lat="60.58848361398623" lon="6.86576368391876" id="-71960">
		<tag k="loc_name" v="Raudskreddalen" />
		<tag k="name" v="Rauskredalen" />
		<tag k="natural" v="valley" />
		<tag k="place" v="locality" />
		<tag k="ssr:stedsnr" v="403597" />
	</node>
	<node lat="60.538161109974794" lon="7.059986102134987" id="-71972">
		<tag k="name" v="Svartebotnen" />
		<tag k="natural" v="valley" />
		<tag k="place" v="locality" />
		<tag k="ssr:stedsnr" v="431175" />
	</node>
	<node lat="60.600205557495414" lon="6.98120832900893" id="-71977">
		<tag k="alt_name" v="Vindhovdane" />
		<tag k="fixme" v="consider natural=peak for the most distinct mountains in the district" />
		<tag k="name" v="Hovden" />
		<tag k="natural" v="hill" />
		<tag k="place" v="locality" />
		<tag k="ssr:stedsnr" v="432059" />
	</node>
	<node lat="60.60412499684924" lon="7.544849991103783" id="-71981">
		<tag k="fixme" v="consider natural=peak for the most distinct mountains in the district" />
		<tag k="name" v="Kvannjolnuten" />
		<tag k="natural" v="hill" />
		<tag k="place" v="locality" />
		<tag k="ssr:stedsnr" v="432265" />
	</node>
	<node lat="60.57227777702946" lon="6.848108334704202" id="-71985">
		<tag k="name" v="Kleppsgili" />
		<tag k="place" v="locality" />
		<tag k="ssr:stedsnr" v="523944" />
	</node>
	<node lat="60.68471388993284" lon="7.219633334775574" id="-71986">
		<tag k="name" v="Kremmaren" />
		<tag k="place" v="locality" />
		<tag k="ssr:stedsnr" v="523962" />
	</node>
	<node lat="60.52148055984465" lon="6.836052780837579" id="-71987">
		<tag k="name" v="Troppafjellet" />
		<tag k="natural" v="hill" />
		<tag k="place" v="locality" />
		<tag k="ssr:stedsnr" v="523965" />
	</node>
	<node lat="60.512288885481986" lon="6.942641671981227" id="-71988">
		<tag k="name" v="Hålaløype" />
		<tag k="place" v="locality" />
		<tag k="ssr:stedsnr" v="524594" />
	</node>
	<node lat="60.58041944817406" lon="6.840830550085055" id="-71989">
		<tag k="name" v="Botnabakkane" />
		<tag k="natural" v="slope" />
		<tag k="place" v="locality" />
		<tag k="ssr:stedsnr" v="523947" />
	</node>
	<node lat="60.538783336490546" lon="6.844991673325465" id="-71990">
		<tag k="name" v="Lauhelleren" />
		<tag k="place" v="locality" />
		<tag k="ssr:stedsnr" v="523953" />
	</node>
	<node lat="60.49464444380526" lon="6.920672219599197" id="-71992">
		<tag k="name" v="Lindeskori" />
		<tag k="place" v="locality" />
		<tag k="ssr:stedsnr" v="523994" />
	</node>
	<node lat="60.5853722214378" lon="6.877169450478853" id="-71993">
		<tag k="name" v="Tveiti" />
		<tag k="natural" v="hill" />
		<tag k="place" v="locality" />
		<tag k="ssr:stedsnr" v="524446" />
	</node>
	<node lat="60.56838888521699" lon="6.9711138803843244" id="-71996">
		<tag k="name" v="Bersenden" />
		<tag k="place" v="locality" />
		<tag k="ssr:stedsnr" v="524539" />
	</node>
	<node lat="60.58050833211906" lon="7.034038896434135" id="-72007">
		<tag k="name" v="Svinaskreda" />
		<tag k="natural" v="gorge" />
		<tag k="ssr:stedsnr" v="552168" />
	</node>
	<node lat="60.5745750000284" lon="7.221675009018168" id="-72009">
		<tag k="fixme" v="consider natural=peak for the most distinct mountains in the district" />
		<tag k="name" v="Sandvadnutane" />
		<tag k="natural" v="hill" />
		<tag k="place" v="locality" />
		<tag k="ssr:stedsnr" v="552180" />
	</node>
	<node lat="60.655905554816385" lon="7.225755561225825" id="-72013">
		<tag k="name" v="Buadalen" />
		<tag k="natural" v="valley" />
		<tag k="place" v="locality" />
		<tag k="ssr:stedsnr" v="553081" />
	</node>
	<node lat="60.607699999105385" lon="7.132225008058028" id="-72018">
		<tag k="name" v="Floskefonndalen" />
		<tag k="natural" v="valley" />
		<tag k="place" v="locality" />
		<tag k="ssr:stedsnr" v="553066" />
	</node>
	<node lat="60.53741944427914" lon="6.978938891252983" id="-72029">
		<tag k="name" v="Tungeteigen" />
		<tag k="natural" v="hill" />
		<tag k="place" v="locality" />
		<tag k="ssr:stedsnr" v="584536" />
	</node>
	<node lat="60.573441663375036" lon="6.891636103968489" id="-72030">
		<tag k="name" v="Sopedalen" />
		<tag k="natural" v="valley" />
		<tag k="place" v="locality" />
		<tag k="ssr:stedsnr" v="584590" />
	</node>
	<node lat="60.60397221831034" lon="6.827769448693801" id="-72031">
		<tag k="fixme" v="consider natural=peak for the most distinct mountains in the district" />
		<tag k="name" v="Hestastoena" />
		<tag k="natural" v="hill" />
		<tag k="place" v="locality" />
		<tag k="ssr:stedsnr" v="584636" />
	</node>
	<node lat="60.60917222624913" lon="6.934377785862167" id="-72033">
		<tag k="name" v="Skoraberget" />
		<tag k="natural" v="hill" />
		<tag k="place" v="locality" />
		<tag k="ssr:stedsnr" v="584564" />
	</node>
	<node lat="60.51768333082396" lon="6.987786106426176" id="-72041">
		<tag k="alt_name" v="Gråsteinrusti" />
		<tag k="fixme" v="consider natural=peak for the most distinct mountains in the district" />
		<tag k="name" v="Gråsteinsrusti" />
		<tag k="natural" v="hill" />
		<tag k="place" v="locality" />
		<tag k="ssr:stedsnr" v="612158" />
	</node>
	<node lat="60.56149999600221" lon="7.092574998201031" id="-72042">
		<tag k="name" v="Grasbotnen" />
		<tag k="natural" v="valley" />
		<tag k="place" v="locality" />
		<tag k="ssr:stedsnr" v="612162" />
	</node>
	<node lat="60.650958333070335" lon="7.1849999955590995" id="-72049">
		<tag k="name" v="Buadalsbrotet" />
		<tag k="natural" v="hill" />
		<tag k="place" v="locality" />
		<tag k="ssr:stedsnr" v="613088" />
	</node>
	<node lat="60.64491944264155" lon="7.234272217888819" id="-72050">
		<tag k="fixme" v="consider natural=peak for the most distinct mountains in the district" />
		<tag k="name" v="Storhaugane" />
		<tag k="natural" v="hill" />
		<tag k="place" v="locality" />
		<tag k="ssr:stedsnr" v="613091" />
	</node>
	<node lat="60.65725833773159" lon="7.143499991861102" id="-72052">
		<tag k="fixme" v="consider natural=peak for the most distinct mountains in the district" />
		<tag k="name" v="Hovden" />
		<tag k="natural" v="hill" />
		<tag k="place" v="locality" />
		<tag k="ssr:stedsnr" v="613095" />
	</node>
	<node lat="60.57391111160493" lon="7.024694437921677" id="-72054">
		<tag k="alt_name" v="Tellskreo" />
		<tag k="name" v="Tellskreda" />
		<tag k="natural" v="gorge" />
		<tag k="ssr:stedsnr" v="613156" />
	</node>
	<node lat="60.491608329852376" lon="6.925049999557773" id="-72066">
		<tag k="name" v="Lindedalsviki" />
		<tag k="place" v="locality" />
		<tag k="ssr:stedsnr" v="644520" />
	</node>
	<node lat="60.532886114244725" lon="6.879008327032785" id="-72067">
		<tag k="name" v="Moltedalshaugjen" />
		<tag k="natural" v="hill" />
		<tag k="place" v="locality" />
		<tag k="ssr:stedsnr" v="645525" />
	</node>
	<node lat="60.560605552505514" lon="6.940961114160165" id="-72069">
		<tag k="name" v="Brendehaug" />
		<tag k="natural" v="hill" />
		<tag k="place" v="locality" />
		<tag k="ssr:stedsnr" v="645547" />
	</node>
	<node lat="60.6102555591531" lon="6.936686103183982" id="-72072">
		<tag k="name" v="Trettehaug" />
		<tag k="natural" v="hill" />
		<tag k="place" v="locality" />
		<tag k="ssr:stedsnr" v="645521" />
	</node>
	<node lat="60.49367221864618" lon="6.873099996161417" id="-72073">
		<tag k="name" v="Kaldedalen" />
		<tag k="natural" v="valley" />
		<tag k="place" v="locality" />
		<tag k="ssr:stedsnr" v="645599" />
	</node>
	<node lat="60.61146110808727" lon="7.097800001615698" id="-72091">
		<tag k="name" v="Nipahøgdi" />
		<tag k="natural" v="hill" />
		<tag k="place" v="locality" />
		<tag k="ssr:stedsnr" v="735055" />
	</node>
	<node lat="60.61387499987825" lon="6.979205555515085" id="-72092">
		<tag k="name" v="Goddalane" />
		<tag k="natural" v="valley" />
		<tag k="place" v="locality" />
		<tag k="ssr:stedsnr" v="735058" />
	</node>
	<node lat="60.588800001237296" lon="7.224208337822799" id="-72095">
		<tag k="name" v="Austdalen" />
		<tag k="natural" v="valley" />
		<tag k="place" v="locality" />
		<tag k="ssr:stedsnr" v="735155" />
	</node>
	<node lat="60.5686749998603" lon="7.091424992078435" id="-72097">
		<tag k="fixme" v="consider natural=peak for the most distinct mountains in the district" />
		<tag k="name" v="Kvannuten" />
		<tag k="natural" v="hill" />
		<tag k="place" v="locality" />
		<tag k="ssr:stedsnr" v="735166" />
	</node>
	<node lat="60.60990833365058" lon="7.072836101995457" id="-72098">
		<tag k="fixme" v="consider natural=peak for the most distinct mountains in the district" />
		<tag k="name" v="Nipane" />
		<tag k="natural" v="hill" />
		<tag k="place" v="locality" />
		<tag k="ssr:stedsnr" v="735175" />
	</node>
	<node lat="60.5689111079684" lon="6.861019445286267" id="-72113">
		<tag k="name" v="Litlastølslii" />
		<tag k="natural" v="slope" />
		<tag k="place" v="locality" />
		<tag k="ssr:stedsnr" v="765943" />
	</node>
	<node lat="60.56288889247549" lon="6.8439944400223265" id="-72114">
		<tag k="name" v="Lauhaugen" />
		<tag k="natural" v="hill" />
		<tag k="place" v="locality" />
		<tag k="ssr:stedsnr" v="765946" />
	</node>
	<node lat="60.525013892878036" lon="6.86026944122139" id="-72115">
		<tag k="name" v="Bulegena" />
		<tag k="natural" v="valley" />
		<tag k="place" v="locality" />
		<tag k="ssr:stedsnr" v="765952" />
	</node>
	<node lat="60.59417777851373" lon="6.952275000715242" id="-72118">
		<tag k="name" v="Noltane" />
		<tag k="natural" v="hill" />
		<tag k="place" v="locality" />
		<tag k="ssr:stedsnr" v="766547" />
	</node>
	<node lat="60.593572220337315" lon="6.871491675488655" id="-72119">
		<tag k="name" v="Tungeteigen" />
		<tag k="place" v="locality" />
		<tag k="ssr:stedsnr" v="766533" />
	</node>
	<node lat="60.52611666431154" lon="6.951716663723627" id="-72120">
		<tag k="name" v="Storelihaugen" />
		<tag k="natural" v="hill" />
		<tag k="place" v="locality" />
		<tag k="ssr:stedsnr" v="766537" />
	</node>
	<node lat="60.698258335814" lon="6.961891673515891" id="-72121">
		<tag k="name" v="Skarpåker" />
		<tag k="place" v="locality" />
		<tag k="ssr:stedsnr" v="766621" />
	</node>
	<node lat="60.54287221997704" lon="6.831822230304644" id="-72124">
		<tag k="name" v="Notten" />
		<tag k="place" v="locality" />
		<tag k="ssr:stedsnr" v="766632" />
	</node>
	<node lat="60.519700000400924" lon="6.879488891607204" id="-72125">
		<tag k="name" v="Trosasetdalen" />
		<tag k="natural" v="valley" />
		<tag k="place" v="locality" />
		<tag k="ssr:stedsnr" v="766571" />
	</node>
	<node lat="60.57961388942644" lon="6.998402786227691" id="-72127">
		<tag k="name" v="Triungsskreo" />
		<tag k="natural" v="hill" />
		<tag k="place" v="locality" />
		<tag k="ssr:stedsnr" v="766975" />
	</node>
	<node lat="60.60107222038857" lon="7.034972228284874" id="-72128">
		<tag k="name" v="Tjørnaberget" />
		<tag k="natural" v="hill" />
		<tag k="place" v="locality" />
		<tag k="ssr:stedsnr" v="766980" />
	</node>
	<node lat="60.594327778919045" lon="7.280261108459059" id="-72131">
		<tag k="fixme" v="consider natural=peak for the most distinct mountains in the district" />
		<tag k="name" v="Brakanuten" />
		<tag k="natural" v="hill" />
		<tag k="place" v="locality" />
		<tag k="ssr:stedsnr" v="795199" />
	</node>
	<node lat="60.581925001145166" lon="6.97125000348318" id="-72133">
		<tag k="name" v="Lekveskori" />
		<tag k="place" v="locality" />
		<tag k="ssr:stedsnr" v="795221" />
	</node>
	<node lat="60.64792020907683" lon="7.120639716520547" id="-72138">
		<tag k="fixme" v="consider natural=peak for the most distinct mountains in the district" />
		<tag k="loc_name" v="Sauarjuven" />
		<tag k="name" v="Sauerjuven" />
		<tag k="natural" v="hill" />
		<tag k="place" v="locality" />
		<tag k="ssr:stedsnr" v="796081" />
	</node>
	<node lat="60.69087500349514" lon="7.153808325792301" id="-72141">
		<tag k="name" v="Pauldalen" />
		<tag k="natural" v="valley" />
		<tag k="place" v="locality" />
		<tag k="ssr:stedsnr" v="796094" />
	</node>
	<node lat="60.602383329191" lon="7.022961117648184" id="-72143">
		<tag k="fixme" v="consider natural=peak for the most distinct mountains in the district" />
		<tag k="name" v="Vetlekammen" />
		<tag k="natural" v="hill" />
		<tag k="place" v="locality" />
		<tag k="ssr:stedsnr" v="796176" />
	</node>
	<node lat="60.59827500311106" lon="7.051283324627121" id="-72144">
		<tag k="name" v="Norddalen" />
		<tag k="natural" v="valley" />
		<tag k="place" v="locality" />
		<tag k="ssr:stedsnr" v="796177" />
	</node>
	<node lat="60.60535555421052" lon="6.947505562163491" id="-72152">
		<tag k="name" v="Rindane" />
		<tag k="place" v="locality" />
		<tag k="ssr:stedsnr" v="827597" />
	</node>
	<node lat="60.53224166680822" lon="6.899016665502158" id="-72154">
		<tag k="name" v="Haugaberget" />
		<tag k="natural" v="hill" />
		<tag k="place" v="locality" />
		<tag k="ssr:stedsnr" v="827607" />
	</node>
	<node lat="60.56152777578219" lon="6.86426667180127" id="-72155">
		<tag k="name" v="Tellstigen" />
		<tag k="natural" v="hill" />
		<tag k="place" v="locality" />
		<tag k="ssr:stedsnr" v="827696" />
	</node>
	<node lat="60.55574444767245" lon="6.94401667555659" id="-72160">
		<tag k="name" v="Fuglahaugane" />
		<tag k="natural" v="hill" />
		<tag k="place" v="locality" />
		<tag k="ssr:stedsnr" v="828545" />
	</node>
	<node lat="60.699861113974364" lon="6.9607111074593835" id="-72161">
		<tag k="name" v="Storhaug" />
		<tag k="natural" v="hill" />
		<tag k="place" v="locality" />
		<tag k="ssr:stedsnr" v="828556" />
	</node>
	<node lat="60.578027776906374" lon="7.029041659968108" id="-72169">
		<tag k="name" v="Djupasprang" />
		<tag k="natural" v="gorge" />
		<tag k="ssr:stedsnr" v="856161" />
	</node>
	<node lat="60.64969999976047" lon="7.227030549635104" id="-72173">
		<tag k="name" v="Flathaugen" />
		<tag k="natural" v="hill" />
		<tag k="place" v="locality" />
		<tag k="ssr:stedsnr" v="857079" />
	</node>
	<node lat="60.67285000215445" lon="7.012600000334102" id="-72176">
		<tag k="fixme" v="consider natural=peak for the most distinct mountains in the district" />
		<tag k="name" v="Fløyelsbråten" />
		<tag k="natural" v="hill" />
		<tag k="place" v="locality" />
		<tag k="ssr:stedsnr" v="857100" />
	</node>
	<node lat="60.608152777514825" lon="6.9375361157825735" id="-72185">
		<tag k="name" v="Slåttena" />
		<tag k="natural" v="hill" />
		<tag k="place" v="locality" />
		<tag k="ssr:stedsnr" v="888516" />
	</node>
	<node lat="60.586999995983206" lon="6.894997217954502" id="-72187">
		<tag k="name" v="Høgdena" />
		<tag k="natural" v="hill" />
		<tag k="place" v="locality" />
		<tag k="ssr:stedsnr" v="888478" />
	</node>
	<node lat="60.52449166296114" lon="6.962566673891078" id="-72188">
		<tag k="name" v="Høganuten" />
		<tag k="natural" v="hill" />
		<tag k="place" v="locality" />
		<tag k="ssr:stedsnr" v="888488" />
	</node>
	<node lat="60.55865277928704" lon="6.854544447464757" id="-72189">
		<tag k="name" v="Fljaoena" />
		<tag k="place" v="locality" />
		<tag k="ssr:stedsnr" v="888575" />
	</node>
	<node lat="60.585833336185566" lon="6.8610361107211" id="-72190">
		<tag k="name" v="Drevhovdane" />
		<tag k="place" v="locality" />
		<tag k="ssr:stedsnr" v="888586" />
	</node>
	<node lat="60.6135166694313" lon="7.493263888137761" id="-72191">
		<tag k="name" v="Jomfruholli" />
		<tag k="place" v="locality" />
		<tag k="ssr:stedsnr" v="888970" />
	</node>
	<node lat="60.583933336905716" lon="7.4581527866406825" id="-72192">
		<tag k="name" v="Bukkeskinnshjellane" />
		<tag k="place" v="locality" />
		<tag k="ssr:stedsnr" v="888971" />
	</node>
	<node lat="60.60592777520639" lon="6.924413892282565" id="-72193">
		<tag k="name" v="Skoraberget" />
		<tag k="natural" v="hill" />
		<tag k="place" v="locality" />
		<tag k="ssr:stedsnr" v="888988" />
	</node>
	<node lat="60.522149999172335" lon="6.857927775447536" id="-72196">
		<tag k="name" v="Javanuten" />
		<tag k="natural" v="hill" />
		<tag k="place" v="locality" />
		<tag k="ssr:stedsnr" v="948975" />
	</node>
	<node lat="60.493441669284714" lon="6.844663893885697" id="-72197">
		<tag k="name" v="Smidjehaugen" />
		<tag k="natural" v="hill" />
		<tag k="place" v="locality" />
		<tag k="ssr:stedsnr" v="949423" />
	</node>
	<node lat="60.57114722178296" lon="6.987397219286437" id="-72198">
		<tag k="name" v="Hundastigen" />
		<tag k="place" v="locality" />
		<tag k="ssr:stedsnr" v="949426" />
	</node>
	<node lat="60.52235555558448" lon="6.950422214437307" id="-72199">
		<tag k="name" v="Gryvle" />
		<tag k="place" v="locality" />
		<tag k="ssr:stedsnr" v="949457" />
	</node>
	<node lat="60.519927781223714" lon="6.978858324216107" id="-72200">
		<tag k="name" v="Friarhaug" />
		<tag k="natural" v="hill" />
		<tag k="place" v="locality" />
		<tag k="ssr:stedsnr" v="949466" />
	</node>
	<node lat="60.56115833389839" lon="6.837102775014959" id="-72201">
		<tag k="name" v="Skitnasethøgdæ" />
		<tag k="place" v="locality" />
		<tag k="ssr:stedsnr" v="949548" />
	</node>
	<node lat="60.48518611402971" lon="6.793022216359796" id="-72204">
		<tag k="name" v="Øvsta Vangsoksli" />
		<tag k="natural" v="slope" />
		<tag k="place" v="locality" />
		<tag k="ssr:stedsnr" v="949995" />
	</node>
	<node lat="60.595158331779395" lon="7.003508329820651" id="-72205">
		<tag k="name" v="Klevane" />
		<tag k="place" v="locality" />
		<tag k="ssr:stedsnr" v="949952" />
	</node>
	<node lat="60.57104999595418" lon="7.01874443974126" id="-72207">
		<tag k="name" v="Røyneskorane" />
		<tag k="place" v="locality" />
		<tag k="ssr:stedsnr" v="949957" />
	</node>
	<node lat="60.59303333024223" lon="7.020949998109796" id="-72209">
		<tag k="name" v="Nuten" />
		<tag k="natural" v="hill" />
		<tag k="place" v="locality" />
		<tag k="ssr:stedsnr" v="949963" />
	</node>
</osm>
