<?xml version="1.0" encoding="UTF-8"?>
<<<<<<< HEAD
<osm version="0.6" generator="osmapis">
	<node lat="60.66788975099569" lon="7.252314507110259" id="-25950">
		<tag k="name" v="Hallingskeid stasjon" />
		<tag k="railway" v="station" />
		<tag k="ssr:stedsnr" v="7114" />
		<tag k="train" v="yes" />
	</node>
	<node lat="60.51167499794711" lon="6.910136117361359" id="-25960">
		<tag k="bridge" v="yes" />
		<tag k="layer" v="1" />
		<tag k="name" v="Torgilsbergbrua" />
		<tag k="ssr:stedsnr" v="46826" />
	</node>
	<node lat="60.70929760099276" lon="6.979534647283941" id="-25973">
		<tag k="name" v="Vieren haldeplass" />
		<tag k="railway" v="halt" />
		<tag k="ssr:stedsnr" v="99622" />
		<tag k="train" v="yes" />
	</node>
	<node lat="60.49998889264031" lon="6.897880552703728" id="-25990">
		<tag k="bridge" v="yes" />
		<tag k="layer" v="1" />
		<tag k="name" v="Sandvikbekken" />
		<tag k="ssr:stedsnr" v="107813" />
	</node>
	<node lat="60.60191389060994" lon="6.875086109016497" id="-26041">
		<tag k="ford" v="yes" />
		<tag k="name" v="Storavadet" />
		<tag k="place" v="locality" />
		<tag k="ssr:stedsnr" v="220693" />
	</node>
	<node lat="60.49236944388472" lon="6.8931694403733665" id="-26056">
		<tag k="amenity" v="ferry_terminal" />
		<tag k="name" v="Bruravik ferjekai" />
		<tag k="ssr:stedsnr" v="271822" />
	</node>
	<node lat="60.6016749984977" lon="7.504102769930509" id="-26092">
		<tag k="name" v="Finse stasjon" />
		<tag k="railway" v="station" />
		<tag k="ssr:stedsnr" v="310285" />
		<tag k="train" v="yes" />
	</node>
	<node lat="60.57275278132519" lon="6.9941722154107975" id="-26099">
		<tag k="bridge" v="yes" />
		<tag k="layer" v="1" />
		<tag k="name" v="Kattegjøtta" />
		<tag k="ssr:stedsnr" v="471814" />
	</node>
	<node lat="60.50518055722882" lon="6.902797225723284" id="-26100">
=======
<osm generator="osmapis" version="0.6">
	<node id="-620922" lat="60.5856916692" lon="6.87390000466">
>>>>>>> e1d4bc35ff8a6074a6f2e91616a996b547c36f15
		<tag k="bridge" v="yes" />
		<tag k="layer" v="1" />
		<tag k="name" v="Veaonesbekken" />
		<tag k="ssr:stedsnr" v="471828" />
	</node>
<<<<<<< HEAD
	<node lat="60.57059166666999" lon="6.915730547402489" id="-26107">
		<tag k="bridge" v="yes" />
		<tag k="layer" v="1" />
		<tag k="name" v="Tysso" />
		<tag k="ssr:stedsnr" v="350806" />
	</node>
	<node lat="60.60799722296401" lon="6.933099995953407" id="-26124">
=======
	<node id="-620789" lat="60.4889222232" lon="6.836944438">
		<tag k="bridge" v="yes" />
		<tag k="layer" v="1" />
		<tag k="name" v="Kariteigen" />
		<tag k="ssr:stedsnr" v="411797" />
	</node>
	<node id="-620782" lat="60.690711108" lon="7.20911666639">
		<tag k="barrier" v="lift_gate" />
		<tag k="name" v="Grøndalsbru" />
		<tag k="place" v="locality" />
		<tag k="ssr:stedsnr" v="402995" />
	</node>
	<node id="-620525" lat="60.667889751" lon="7.25231450711">
		<tag k="name" v="Hallingskeid stasjon" />
		<tag k="railway" v="station" />
		<tag k="ssr:stedsnr" v="7114" />
		<tag k="train" v="yes" />
	</node>
	<node id="-620907" lat="60.5792916651" lon="6.88829722189">
		<tag k="alt_name" v="Søyleva" />
		<tag k="ford" v="yes" />
		<tag k="name" v="Søylevad" />
		<tag k="place" v="locality" />
		<tag k="ssr:stedsnr" v="644925" />
	</node>
	<node id="-620772" lat="60.607997223" lon="6.93309999595">
>>>>>>> e1d4bc35ff8a6074a6f2e91616a996b547c36f15
		<tag k="highway" v="path" />
		<tag k="name" v="Skorastigen" />
		<tag k="ssr:stedsnr" v="402594" />
	</node>
<<<<<<< HEAD
	<node lat="60.488922223201804" lon="6.836944437997755" id="-26129">
		<tag k="bridge" v="yes" />
		<tag k="layer" v="1" />
		<tag k="name" v="Kariteigen" />
		<tag k="ssr:stedsnr" v="411797" />
	</node>
	<node lat="60.54868889071802" lon="6.910877782445063" id="-26219">
=======
	<node id="-620895" lat="60.556769448" lon="6.82217499294">
		<tag k="highway" v="path" />
		<tag k="name" v="Angerskleiv" />
		<tag k="ssr:stedsnr" v="613765" />
	</node>
	<node id="-620876" lat="60.5486888907" lon="6.91087778245">
>>>>>>> e1d4bc35ff8a6074a6f2e91616a996b547c36f15
		<tag k="bridge" v="yes" />
		<tag k="layer" v="1" />
		<tag k="name" v="Frøystein" />
		<tag k="ssr:stedsnr" v="592855" />
	</node>
<<<<<<< HEAD
	<node lat="60.57929166508395" lon="6.888297221887753" id="-26240">
		<tag k="alt_name" v="Søyleva" />
		<tag k="ford" v="yes" />
		<tag k="name" v="Søylevad" />
		<tag k="place" v="locality" />
		<tag k="ssr:stedsnr" v="644925" />
	</node>
	<node lat="60.57060000408118" lon="6.952672216606252" id="-26245">
		<tag k="junction" v="yes" />
		<tag k="name" v="Vegaskil" />
		<tag k="place" v="locality" />
		<tag k="ssr:stedsnr" v="706554" />
	</node>
	<node lat="60.58995277831206" lon="7.030180563733884" id="-26283">
=======
	<node id="-620490" lat="60.5652833326" lon="6.86676388716">
		<tag k="highway" v="path" />
		<tag k="name" v="Tellstigen" />
		<tag k="ssr:stedsnr" v="917860" />
	</node>
	<node id="-620601" lat="60.4999888926" lon="6.8978805527">
		<tag k="bridge" v="yes" />
		<tag k="layer" v="1" />
		<tag k="name" v="Sandvikbekken" />
		<tag k="ssr:stedsnr" v="107813" />
	</node>
	<node id="-620208" lat="60.5705916667" lon="6.9157305474">
>>>>>>> e1d4bc35ff8a6074a6f2e91616a996b547c36f15
		<tag k="bridge" v="yes" />
		<tag k="layer" v="1" />
		<tag k="name" v="Osa" />
		<tag k="ssr:stedsnr" v="714792" />
	</node>
<<<<<<< HEAD
	<node lat="60.57458888740726" lon="6.997236112494237" id="-26284">
=======
	<node id="-620205" lat="60.5051805572" lon="6.90279722572">
>>>>>>> e1d4bc35ff8a6074a6f2e91616a996b547c36f15
		<tag k="bridge" v="yes" />
		<tag k="layer" v="1" />
		<tag k="name" v="Melnes" />
		<tag k="ssr:stedsnr" v="714797" />
	</node>
<<<<<<< HEAD
	<node lat="60.570049998963015" lon="6.953477779804768" id="-26285">
		<tag k="bridge" v="yes" />
		<tag k="layer" v="1" />
		<tag k="name" v="Gauro" />
		<tag k="ssr:stedsnr" v="714799" />
	</node>
	<node lat="60.56458611446871" lon="6.9073749982556" id="-26317">
=======
	<node id="-620204" lat="60.5727527813" lon="6.99417221541">
		<tag k="bridge" v="yes" />
		<tag k="layer" v="1" />
		<tag k="name" v="Kattegjøtta" />
		<tag k="ssr:stedsnr" v="471814" />
	</node>
	<node id="-620587" lat="60.709297601" lon="6.97953464728">
		<tag k="name" v="Vieren haldeplass" />
		<tag k="railway" v="halt" />
		<tag k="ssr:stedsnr" v="99622" />
		<tag k="train" v="yes" />
	</node>
	<node id="-620072" lat="60.6019138906" lon="6.87508610902">
		<tag k="ford" v="yes" />
		<tag k="name" v="Storavadet" />
		<tag k="place" v="locality" />
		<tag k="ssr:stedsnr" v="220693" />
	</node>
	<node id="-620455" lat="60.5064694486" lon="6.90393889199">
>>>>>>> e1d4bc35ff8a6074a6f2e91616a996b547c36f15
		<tag k="bridge" v="yes" />
		<tag k="layer" v="1" />
		<tag k="name" v="Vambheim" />
		<tag k="ssr:stedsnr" v="775812" />
	</node>
<<<<<<< HEAD
	<node lat="60.565283332588756" lon="6.866763887162021" id="-26385">
		<tag k="highway" v="path" />
		<tag k="name" v="Tellstigen" />
		<tag k="ssr:stedsnr" v="917860" />
	</node>
	<node lat="60.578288885884966" lon="6.904099998050439" id="-26469">
=======
	<node id="-620454" lat="60.5608833368" lon="6.9700500048">
		<tag k="bridge" v="yes" />
		<tag k="layer" v="1" />
		<tag k="name" v="Øydvinstø" />
		<tag k="ssr:stedsnr" v="836820" />
	</node>
	<node id="-620578" lat="60.5782888859" lon="6.90409999805">
>>>>>>> e1d4bc35ff8a6074a6f2e91616a996b547c36f15
		<tag k="highway" v="path" />
		<tag k="name" v="Austestiberget" />
		<tag k="ssr:stedsnr" v="99594" />
	</node>
<<<<<<< HEAD
	<node lat="60.52871944634483" lon="6.976077772770345" id="-26569">
		<tag k="highway" v="path" />
		<tag k="name" v="Taumasetvegen" />
		<tag k="ssr:stedsnr" v="281666" />
	</node>
	<node lat="60.56935277580466" lon="6.947472218368034" id="-26571">
=======
	<node id="-620187" lat="60.4923694439" lon="6.89316944037">
		<tag k="amenity" v="ferry_terminal" />
		<tag k="name" v="Bruravik ferjekai" />
		<tag k="ssr:stedsnr" v="271822" />
	</node>
	<node id="-620313" lat="60.570049999" lon="6.9534777798">
>>>>>>> e1d4bc35ff8a6074a6f2e91616a996b547c36f15
		<tag k="bridge" v="yes" />
		<tag k="layer" v="1" />
		<tag k="name" v="Holmen" />
		<tag k="ssr:stedsnr" v="289851" />
	</node>
<<<<<<< HEAD
	<node lat="60.690711108003015" lon="7.20911666638861" id="-26645">
		<tag k="barrier" v="lift_gate" />
		<tag k="name" v="Grøndalsbru" />
		<tag k="place" v="locality" />
		<tag k="ssr:stedsnr" v="402995" />
	</node>
	<node lat="60.58569166919048" lon="6.873900004664568" id="-26753">
=======
	<node id="-620312" lat="60.5745888874" lon="6.99723611249">
>>>>>>> e1d4bc35ff8a6074a6f2e91616a996b547c36f15
		<tag k="bridge" v="yes" />
		<tag k="layer" v="1" />
		<tag k="name" v="Løyning" />
		<tag k="ssr:stedsnr" v="653819" />
	</node>
<<<<<<< HEAD
	<node lat="60.560883336776456" lon="6.970050004795214" id="-26833">
=======
	<node id="-620311" lat="60.5899527783" lon="7.03018056373">
>>>>>>> e1d4bc35ff8a6074a6f2e91616a996b547c36f15
		<tag k="bridge" v="yes" />
		<tag k="layer" v="1" />
		<tag k="name" v="Øydvinstø" />
		<tag k="ssr:stedsnr" v="836820" />
	</node>
<<<<<<< HEAD
	<node lat="60.50646944860155" lon="6.903938891988661" id="-26834">
		<tag k="bridge" v="yes" />
		<tag k="layer" v="1" />
		<tag k="name" v="Tymbergjela" />
		<tag k="ssr:stedsnr" v="836822" />
=======
	<node id="-620693" lat="60.6016749985" lon="7.50410276993">
		<tag k="name" v="Finse stasjon" />
		<tag k="railway" v="station" />
		<tag k="ssr:stedsnr" v="310285" />
		<tag k="train" v="yes" />
>>>>>>> e1d4bc35ff8a6074a6f2e91616a996b547c36f15
	</node>
	<node id="-620302" lat="60.5706000041" lon="6.95267221661">
		<tag k="junction" v="yes" />
		<tag k="name" v="Vegaskil" />
		<tag k="place" v="locality" />
		<tag k="ssr:stedsnr" v="706554" />
	</node>
	<node id="-620173" lat="60.5693527758" lon="6.94747221837">
		<tag k="bridge" v="yes" />
		<tag k="layer" v="1" />
		<tag k="name" v="Holmen" />
		<tag k="ssr:stedsnr" v="289851" />
	</node>
	<node id="-620940" lat="60.5645861145" lon="6.90737499826">
		<tag k="bridge" v="yes" />
		<tag k="layer" v="1" />
		<tag k="name" v="Vambheim" />
		<tag k="ssr:stedsnr" v="775812" />
	</node>
	<node id="-620168" lat="60.5287194463" lon="6.97607777277">
		<tag k="highway" v="path" />
		<tag k="name" v="Taumasetvegen" />
		<tag k="ssr:stedsnr" v="281666" />
	</node>
	<node id="-620549" lat="60.5116749979" lon="6.91013611736">
		<tag k="bridge" v="yes" />
		<tag k="layer" v="1" />
		<tag k="name" v="Torgilsbergbrua" />
		<tag k="ssr:stedsnr" v="46826" />
	</node>
</osm>
