<?xml version="1.0" encoding="UTF-8"?>
<osm version="0.6" generator="osmapis">
	<node lat="60.555095763420354" lon="7.140750207358968" id="-36466">
		<tag k="name" v="Langvatnet" />
		<tag k="natural" v="water" />
		<tag k="ssr:stedsnr" v="6154" />
		<tag k="water" v="lake" />
	</node>
	<node lat="60.61151111535892" lon="6.94760277685249" id="-36467">
		<tag k="name" v="Sveigselvi" />
		<tag k="ssr:stedsnr" v="6896" />
		<tag k="waterway" v="river" />
	</node>
	<node lat="60.726276438187035" lon="6.978700501948222" id="-36468">
		<tag k="name" v="Rustedalen" />
		<tag k="natural" v="valley" />
		<tag k="place" v="locality" />
		<tag k="ssr:stedsnr" v="7007" />
	</node>
	<node lat="60.62772007077322" lon="6.886107337377138" id="-36469">
		<tag k="name" v="Stol" />
		<tag k="natural" v="hill" />
		<tag k="place" v="locality" />
		<tag k="ssr:stedsnr" v="6914" />
	</node>
	<node lat="60.66788975099569" lon="7.252314507110259" id="-36470">
		<tag k="name" v="Hallingskeid stasjon" />
		<tag k="railway" v="station" />
		<tag k="ssr:stedsnr" v="7114" />
		<tag k="train" v="yes" />
	</node>
	<node lat="60.55089722187785" lon="6.820380553424778" id="-36471">
		<tag k="name" v="Øvre Skjelmarhaugen" />
		<tag k="natural" v="hill" />
		<tag k="place" v="locality" />
		<tag k="ssr:stedsnr" v="7796" />
	</node>
	<node lat="60.58657499976501" lon="6.948274997599558" id="-36472">
		<tag k="name" v="Sysegili" />
		<tag k="natural" v="gorge" />
		<tag k="ssr:stedsnr" v="7812" />
	</node>
	<node lat="60.58746110847299" lon="6.9435277787764305" id="-36473">
		<tag k="name" v="Gårhovden" />
		<tag k="natural" v="hill" />
		<tag k="place" v="locality" />
		<tag k="ssr:stedsnr" v="7813" />
	</node>
	<node lat="60.539858333418294" lon="6.858022228343646" id="-36474">
		<tag k="name" v="Almeløype" />
		<tag k="natural" v="slope" />
		<tag k="place" v="locality" />
		<tag k="ssr:stedsnr" v="37957" />
	</node>
	<node lat="60.492113892617596" lon="6.8148777768595625" id="-36475">
		<tag k="name" v="Sutarhaugbakkane" />
		<tag k="natural" v="slope" />
		<tag k="place" v="locality" />
		<tag k="ssr:stedsnr" v="38514" />
	</node>
	<node lat="60.57430555817153" lon="6.99757499855824" id="-36476">
		<tag k="name" v="Melnes" />
		<tag k="natural" v="cape" />
		<tag k="ssr:stedsnr" v="38516" />
	</node>
	<node lat="60.58270555810443" lon="6.9380361091116995" id="-36477">
		<tag k="name" v="Esjeberg" />
		<tag k="natural" v="hill" />
		<tag k="place" v="locality" />
		<tag k="ssr:stedsnr" v="38609" />
	</node>
	<node lat="60.56670555182967" lon="6.883502774347648" id="-36478">
		<tag k="name" v="Bersenden" />
		<tag k="place" v="locality" />
		<tag k="ssr:stedsnr" v="38595" />
	</node>
	<node lat="60.54970833541087" lon="6.929766672741385" id="-36479">
		<tag k="name" v="Fjotle" />
		<tag k="place" v="farm" />
		<tag k="ssr:stedsnr" v="44435" />
	</node>
	<node lat="60.51167499794711" lon="6.910136117361359" id="-36480">
		<tag k="bridge" v="yes" />
		<tag k="layer" v="1" />
		<tag k="name" v="Torgilsbergbrua" />
		<tag k="ssr:stedsnr" v="46826" />
	</node>
	<node lat="60.476297999215255" lon="6.795617302252962" id="-36481">
		<tag k="name" v="Djupaviki" />
		<tag k="natural" v="bay" />
		<tag k="ssr:stedsnr" v="66401" />
	</node>
	<node lat="60.57000277820705" lon="7.0148027770698445" id="-36482">
		<tag k="name" v="Gurogrøbekken" />
		<tag k="ssr:stedsnr" v="67198" />
		<tag k="waterway" v="stream" />
	</node>
	<node lat="60.548625002345645" lon="7.504327781355986" id="-36483">
		<tag k="fixme" v="consider natural=peak for the most distinct mountains in the district" />
		<tag k="name" v="Søre Kongsnuten" />
		<tag k="natural" v="hill" />
		<tag k="place" v="locality" />
		<tag k="ssr:stedsnr" v="67319" />
	</node>
	<node lat="60.55427499582015" lon="7.491102777126472" id="-36484">
		<tag k="name" v="Blåisen" />
		<tag k="natural" v="glacier" />
		<tag k="ssr:stedsnr" v="67321" />
	</node>
	<node lat="60.54467777657523" lon="6.928299998385328" id="-36485">
		<tag k="name" v="Espedalen" />
		<tag k="natural" v="valley" />
		<tag k="place" v="locality" />
		<tag k="ssr:stedsnr" v="67809" />
	</node>
	<node lat="60.6272863602173" lon="6.8361843018181725" id="-36486">
		<tag k="fixme" v="consider natural=peak for the most distinct mountains in the district" />
		<tag k="loc_name" v="Nordrebotnnuten" />
		<tag k="name" v="Nordbotnnuten" />
		<tag k="natural" v="hill" />
		<tag k="place" v="locality" />
		<tag k="ssr:stedsnr" v="67903" />
	</node>
	<node lat="60.60159721921726" lon="7.588652770979351" id="-36487">
		<tag k="fixme" v="consider natural=peak for the most distinct mountains in the district" />
		<tag k="name" v="Lengjedalsbrotet" />
		<tag k="natural" v="hill" />
		<tag k="place" v="locality" />
		<tag k="ssr:stedsnr" v="68286" />
	</node>
	<node lat="60.53851666664383" lon="6.922511117753399" id="-36488">
		<tag k="name" v="Kvitanes" />
		<tag k="natural" v="cape" />
		<tag k="ssr:stedsnr" v="68784" />
	</node>
	<node lat="60.54443055889147" lon="6.9376166749870976" id="-36489">
		<tag k="name" v="Vetlefurehaugen" />
		<tag k="natural" v="hill" />
		<tag k="place" v="locality" />
		<tag k="ssr:stedsnr" v="68786" />
	</node>
	<node lat="60.51103227098097" lon="6.97306449344672" id="-36490">
		<tag k="name" v="Demma" />
		<tag k="natural" v="water" />
		<tag k="ssr:stedsnr" v="248133" />
	</node>
	<node lat="60.543530551415174" lon="6.943525003227878" id="-36491">
		<tag k="name" v="Hilleberstrondi" />
		<tag k="natural" v="hill" />
		<tag k="place" v="locality" />
		<tag k="ssr:stedsnr" v="99607" />
	</node>
	<node lat="60.55855555662807" lon="6.931636102048074" id="-36492">
		<tag k="name" v="Hylmesveiti" />
		<tag k="place" v="locality" />
		<tag k="ssr:stedsnr" v="99617" />
	</node>
	<node lat="60.70929760099276" lon="6.979534647283941" id="-36493">
		<tag k="name" v="Vieren haldeplass" />
		<tag k="railway" v="halt" />
		<tag k="ssr:stedsnr" v="99622" />
		<tag k="train" v="yes" />
	</node>
	<node lat="60.490369447297944" lon="6.825008330161937" id="-36494">
		<tag k="name" v="Vetlestølslii" />
		<tag k="natural" v="slope" />
		<tag k="place" v="locality" />
		<tag k="ssr:stedsnr" v="99510" />
	</node>
	<node lat="60.49268611143582" lon="6.840452775922609" id="-36495">
		<tag k="name" v="Kallhagen" />
		<tag k="natural" v="hill" />
		<tag k="place" v="locality" />
		<tag k="ssr:stedsnr" v="99512" />
	</node>
	<node lat="60.514574998011646" lon="6.976516668041054" id="-36496">
		<tag k="alt_name" v="Gråsteinsleite" />
		<tag k="name" v="Gråsteinsleitet" />
		<tag k="place" v="locality" />
		<tag k="ssr:stedsnr" v="99575" />
	</node>
	<node lat="60.67925832961192" lon="7.22958055217721" id="-36497">
		<tag k="name" v="Tjovdalen" />
		<tag k="natural" v="valley" />
		<tag k="place" v="locality" />
		<tag k="ssr:stedsnr" v="99661" />
	</node>
	<node lat="60.671374996498805" lon="7.236338889264722" id="-36498">
		<tag k="name" v="Grøndalshalsen" />
		<tag k="natural" v="hill" />
		<tag k="place" v="locality" />
		<tag k="ssr:stedsnr" v="99965" />
	</node>
	<node lat="60.55001110860288" lon="6.993072228051131" id="-36499">
		<tag k="name" v="Sælalii" />
		<tag k="natural" v="slope" />
		<tag k="place" v="locality" />
		<tag k="ssr:stedsnr" v="99974" />
	</node>
	<node lat="60.573977775676674" lon="7.014786102595242" id="-36500">
		<tag k="name" v="Kaldabekk" />
		<tag k="ssr:stedsnr" v="99977" />
		<tag k="waterway" v="stream" />
	</node>
	<node lat="60.5944916680745" lon="6.987819443902156" id="-36501">
		<tag k="name" v="Lureggane" />
		<tag k="place" v="locality" />
		<tag k="ssr:stedsnr" v="99985" />
	</node>
	<node lat="60.57003610934639" lon="6.893775009140464" id="-36502">
		<tag k="fixme" v="consider place=hamlet" />
		<tag k="name" v="Store Bergo" />
		<tag k="place" v="farm" />
		<tag k="ssr:stedsnr" v="100910" />
	</node>
	<node lat="60.509536108837665" lon="6.799719440756059" id="-36503">
		<tag k="fixme" v="consider natural=peak for the most distinct mountains in the district" />
		<tag k="name" v="Dosafjellet" />
		<tag k="natural" v="hill" />
		<tag k="place" v="locality" />
		<tag k="ssr:stedsnr" v="249026" />
	</node>
	<node lat="60.51270278124929" lon="6.8276499987304575" id="-36504">
		<tag k="fixme" v="consider natural=peak for the most distinct mountains in the district" />
		<tag k="name" v="Troppefjellet" />
		<tag k="natural" v="hill" />
		<tag k="place" v="locality" />
		<tag k="ssr:stedsnr" v="249028" />
	</node>
	<node lat="60.545550000451094" lon="6.92999166528675" id="-36505">
		<tag k="fixme" v="consider place=hamlet" />
		<tag k="name" v="Rondestveit" />
		<tag k="place" v="farm" />
		<tag k="ssr:stedsnr" v="249796" />
	</node>
	<node lat="60.540675000230166" lon="7.026674999945421" id="-36506">
		<tag k="historic" v="shieling" />
		<tag k="name" v="Døgrdalsete" />
		<tag k="place" v="isolated_dwelling" />
		<tag k="ssr:stedsnr" v="249147" />
	</node>
	<node lat="60.56841944361356" lon="6.941016664009309" id="-36507">
		<tag k="name" v="Kvåleskjeret" />
		<tag k="natural" v="cape" />
		<tag k="old_name" v="Kvåleskjær" />
		<tag k="ssr:stedsnr" v="104799" />
	</node>
	<node lat="60.53712500174897" lon="7.026633339157479" id="-36508">
		<tag k="fixme" v="consider natural=peak for the most distinct mountains in the district" />
		<tag k="name" v="Hattfjellet" />
		<tag k="natural" v="hill" />
		<tag k="place" v="locality" />
		<tag k="ssr:stedsnr" v="249140" />
	</node>
	<node lat="60.53362499861154" lon="7.135155553772597" id="-36509">
		<tag k="name" v="Åsendalen" />
		<tag k="natural" v="valley" />
		<tag k="place" v="locality" />
		<tag k="ssr:stedsnr" v="249142" />
	</node>
	<node lat="60.49998889264031" lon="6.897880552703728" id="-36510">
		<tag k="bridge" v="yes" />
		<tag k="layer" v="1" />
		<tag k="name" v="Sandvikbekken" />
		<tag k="ssr:stedsnr" v="107813" />
	</node>
	<node lat="60.555449998196295" lon="6.83778889802267" id="-36511">
		<tag k="name" v="Storhaug" />
		<tag k="natural" v="hill" />
		<tag k="place" v="locality" />
		<tag k="ssr:stedsnr" v="249757" />
	</node>
	<node lat="60.548311109705764" lon="6.941708330319046" id="-36512">
		<tag k="name" v="Trånemyr" />
		<tag k="natural" v="wetland" />
		<tag k="ssr:stedsnr" v="249786" />
	</node>
	<node lat="60.597172219231894" lon="6.9037499993311995" id="-36513">
		<tag k="name" v="Tjørnarhals" />
		<tag k="natural" v="ridge" />
		<tag k="place" v="locality" />
		<tag k="ssr:stedsnr" v="249843" />
	</node>
	<node lat="60.583169445504275" lon="6.860055549274868" id="-36514">
		<tag k="name" v="Storhaug" />
		<tag k="natural" v="hill" />
		<tag k="place" v="locality" />
		<tag k="ssr:stedsnr" v="249819" />
	</node>
	<node lat="60.581844445044815" lon="6.849333336091071" id="-36515">
		<tag k="name" v="Grostølselvi" />
		<tag k="ssr:stedsnr" v="249823" />
		<tag k="waterway" v="river" />
	</node>
	<node lat="60.62129312136894" lon="6.841466186492028" id="-36516">
		<tag k="fixme" v="consider natural=peak for the most distinct mountains in the district" />
		<tag k="name" v="Hestastodnuten" />
		<tag k="natural" v="hill" />
		<tag k="place" v="locality" />
		<tag k="ssr:stedsnr" v="249875" />
	</node>
	<node lat="60.6467999999299" lon="7.031224995648226" id="-36517">
		<tag k="name" v="Skipanutvatnet" />
		<tag k="natural" v="water" />
		<tag k="ssr:stedsnr" v="250094" />
		<tag k="water" v="lake" />
	</node>
	<node lat="60.53146388914805" lon="6.924477769266151" id="-36518">
		<tag k="name" v="Birgjefletene" />
		<tag k="natural" v="ridge" />
		<tag k="place" v="locality" />
		<tag k="ssr:stedsnr" v="250048" />
	</node>
	<node lat="60.53198055423533" lon="6.895133330387512" id="-36519">
		<tag k="historic" v="shieling" />
		<tag k="name" v="Øvstestølen" />
		<tag k="place" v="isolated_dwelling" />
		<tag k="ssr:stedsnr" v="250050" />
	</node>
	<node lat="60.63609445176055" lon="7.330943210182275" id="-36520">
		<tag k="name" v="Låghellertjørni" />
		<tag k="natural" v="water" />
		<tag k="ssr:stedsnr" v="250075" />
	</node>
	<node lat="60.62705278008023" lon="7.095400006354144" id="-36521">
		<tag k="name" v="Sverreshogg" />
		<tag k="natural" v="valley" />
		<tag k="place" v="locality" />
		<tag k="ssr:stedsnr" v="250076" />
	</node>
	<node lat="60.64066111384129" lon="7.2601638960406945" id="-36522">
		<tag k="name" v="Larsaslaet" />
		<tag k="natural" v="valley" />
		<tag k="place" v="locality" />
		<tag k="ssr:stedsnr" v="250085" />
	</node>
	<node lat="60.610763885225055" lon="7.2050416625256135" id="-36523">
		<tag k="name" v="Langesteinshøgdi" />
		<tag k="natural" v="hill" />
		<tag k="place" v="locality" />
		<tag k="ssr:stedsnr" v="250181" />
	</node>
	<node lat="60.62917778042206" lon="7.525755547620733" id="-36524">
		<tag k="name" v="Gjætarguthaugen" />
		<tag k="natural" v="hill" />
		<tag k="place" v="locality" />
		<tag k="ssr:stedsnr" v="250209" />
	</node>
	<node lat="60.602888889368636" lon="7.492413896922076" id="-36525">
		<tag k="name" v="Finse" />
		<tag k="place" v="isolated_dwelling" />
		<tag k="ssr:stedsnr" v="250281" />
	</node>
	<node lat="60.57688888783199" lon="6.849755555030818" id="-36526">
		<tag k="name" v="Skeieslii" />
		<tag k="natural" v="slope" />
		<tag k="place" v="locality" />
		<tag k="ssr:stedsnr" v="250857" />
	</node>
	<node lat="60.57125000204631" lon="6.959499992094369" id="-36527">
		<tag k="fixme" v="consider place=hamlet" />
		<tag k="name" v="Torblå" />
		<tag k="place" v="farm" />
		<tag k="ssr:stedsnr" v="250822" />
	</node>
	<node lat="60.652663888892164" lon="6.855038894657168" id="-36528">
		<tag k="name" v="Trollavatnet" />
		<tag k="natural" v="water" />
		<tag k="ssr:stedsnr" v="250970" />
		<tag k="water" v="lake" />
	</node>
	<node lat="60.49781944462749" lon="6.89598333035619" id="-36529">
		<tag k="name" v="Sandviki" />
		<tag k="natural" v="bay" />
		<tag k="ssr:stedsnr" v="126400" />
	</node>
	<node lat="60.55763333411936" lon="7.079274993667809" id="-36530">
		<tag k="fixme" v="consider natural=peak for the most distinct mountains in the district" />
		<tag k="name" v="Kyrelvfjellet" />
		<tag k="natural" v="hill" />
		<tag k="place" v="locality" />
		<tag k="ssr:stedsnr" v="127155" />
	</node>
	<node lat="60.60304444357861" lon="7.218933333916675" id="-36531">
		<tag k="name" v="Austdølbu" />
		<tag k="place" v="locality" />
		<tag k="ssr:stedsnr" v="128140" />
	</node>
	<node lat="60.59432222156055" lon="7.05741389331328" id="-36532">
		<tag k="fixme" v="consider natural=peak for the most distinct mountains in the district" />
		<tag k="name" v="Osanuten" />
		<tag k="natural" v="hill" />
		<tag k="place" v="locality" />
		<tag k="ssr:stedsnr" v="128151" />
	</node>
	<node lat="60.575949996209935" lon="7.55197499713847" id="-36533">
		<tag k="fixme" v="consider natural=peak for the most distinct mountains in the district" />
		<tag k="name" v="Vetle Hansbunuten" />
		<tag k="natural" v="hill" />
		<tag k="place" v="locality" />
		<tag k="ssr:stedsnr" v="128284" />
	</node>
	<node lat="60.539641663451725" lon="6.940633339745553" id="-36534">
		<tag k="name" v="Strondi" />
		<tag k="natural" v="beach" />
		<tag k="ssr:stedsnr" v="128787" />
	</node>
	<node lat="60.5938805511872" lon="6.954161116453496" id="-36535">
		<tag k="name" v="Espeskorsflærne" />
		<tag k="natural" v="hill" />
		<tag k="place" v="locality" />
		<tag k="ssr:stedsnr" v="128834" />
	</node>
	<node lat="60.5938027818473" lon="6.938175006742712" id="-36536">
		<tag k="name" v="Klovdalsholmen" />
		<tag k="place" v="islet" />
		<tag k="ssr:stedsnr" v="128839" />
	</node>
	<node lat="60.60209444420632" lon="7.502549992860706" id="-36537">
		<tag k="alt_name" v="Finse Hotell" />
		<tag k="name" v="Finse" />
		<tag k="ssr:stedsnr" v="310288" />
		<tag k="tourism" v="hotel" />
	</node>
	<node lat="60.60104999768734" lon="7.474927779216011" id="-36538">
		<tag k="name" v="Nordrenut" />
		<tag k="natural" v="hill" />
		<tag k="place" v="locality" />
		<tag k="ssr:stedsnr" v="310291" />
	</node>
	<node lat="60.6043249956524" lon="7.478999994633493" id="-36539">
		<tag k="fixme" v="consider natural=peak for the most distinct mountains in the district" />
		<tag k="name" v="Vetle Finsenuten" />
		<tag k="natural" v="hill" />
		<tag k="place" v="locality" />
		<tag k="ssr:stedsnr" v="310293" />
	</node>
	<node lat="60.571853601143495" lon="6.895897139665685" id="-36540">
		<tag k="fixme" v="consider place=hamlet" />
		<tag k="name" v="Midtre Bergo" />
		<tag k="place" v="farm" />
		<tag k="ssr:stedsnr" v="161909" />
	</node>
	<node lat="60.57158333674224" lon="6.898474991730259" id="-36541">
		<tag k="name" v="Bergafossen" />
		<tag k="natural" v="waterfall" />
		<tag k="ssr:stedsnr" v="180211" />
	</node>
	<node lat="60.48491944570483" lon="6.807030553363514" id="-36542">
		<tag k="name" v="Kvammaelvi" />
		<tag k="ssr:stedsnr" v="187404" />
		<tag k="waterway" v="river" />
	</node>
	<node lat="60.4829861080402" lon="6.8184111198084745" id="-36543">
		<tag k="name" v="Kamben" />
		<tag k="natural" v="hill" />
		<tag k="place" v="locality" />
		<tag k="ssr:stedsnr" v="187408" />
	</node>
	<node lat="60.50564166271985" lon="6.8963333288662225" id="-36544">
		<tag k="name" v="Vedåni" />
		<tag k="ssr:stedsnr" v="188016" />
		<tag k="waterway" v="river" />
	</node>
	<node lat="60.5148888876565" lon="6.944083340569211" id="-36545">
		<tag k="alt_name" v="Slåtte" />
		<tag k="name" v="Slottet" />
		<tag k="place" v="farm" />
		<tag k="ssr:stedsnr" v="188020" />
	</node>
	<node lat="60.50709999866896" lon="6.897186103772518" id="-36546">
		<tag k="name" v="Tymbergili" />
		<tag k="natural" v="gorge" />
		<tag k="ssr:stedsnr" v="188023" />
	</node>
	<node lat="60.59076944166608" lon="7.088305559463664" id="-36547">
		<tag k="fixme" v="consider natural=peak for the most distinct mountains in the district" />
		<tag k="name" v="Krossfjellet" />
		<tag k="natural" v="hill" />
		<tag k="place" v="locality" />
		<tag k="ssr:stedsnr" v="188220" />
	</node>
	<node lat="60.59407500357206" lon="7.164302777754607" id="-36548">
		<tag k="fixme" v="consider natural=peak for the most distinct mountains in the district" />
		<tag k="name" v="Austdølnuten" />
		<tag k="natural" v="hill" />
		<tag k="place" v="locality" />
		<tag k="ssr:stedsnr" v="188221" />
	</node>
	<node lat="60.55549999588888" lon="7.112136111334653" id="-36549">
		<tag k="name" v="Lakjehøgdi" />
		<tag k="natural" v="hill" />
		<tag k="old_name" v="Lakjehødi" />
		<tag k="place" v="locality" />
		<tag k="ssr:stedsnr" v="188175" />
	</node>
	<node lat="60.56594999602252" lon="7.1472249986912235" id="-36550">
		<tag k="name" v="Langvasshaugane" />
		<tag k="natural" v="hill" />
		<tag k="place" v="locality" />
		<tag k="ssr:stedsnr" v="188177" />
	</node>
	<node lat="60.60631944426099" lon="6.833744440391073" id="-36551">
		<tag k="name" v="Hestastodene" />
		<tag k="natural" v="slope" />
		<tag k="place" v="locality" />
		<tag k="ssr:stedsnr" v="188901" />
	</node>
	<node lat="60.63040833389905" lon="7.072374991074205" id="-36552">
		<tag k="name" v="Norddøla" />
		<tag k="ssr:stedsnr" v="189066" />
		<tag k="waterway" v="stream" />
	</node>
	<node lat="60.60310832951182" lon="7.030800000702357" id="-36553">
		<tag k="fixme" v="consider natural=peak for the most distinct mountains in the district" />
		<tag k="name" v="Storekammen" />
		<tag k="natural" v="hill" />
		<tag k="place" v="locality" />
		<tag k="ssr:stedsnr" v="189156" />
	</node>
	<node lat="60.55597500365349" lon="7.640949991998197" id="-36554">
		<tag k="name" v="Nedsta Storurevatnet" />
		<tag k="natural" v="water" />
		<tag k="ssr:stedsnr" v="189263" />
	</node>
	<node lat="60.55534999706639" lon="7.526416662220953" id="-36555">
		<tag k="name" v="Hansbufloten" />
		<tag k="place" v="locality" />
		<tag k="ssr:stedsnr" v="189270" />
	</node>
	<node lat="60.57575000118725" lon="7.50915277275807" id="-36556">
		<tag k="name" v="Styggelvane" />
		<tag k="ssr:stedsnr" v="189277" />
		<tag k="waterway" v="river" />
	</node>
	<node lat="60.566644440764755" lon="6.941219446662697" id="-36557">
		<tag k="name" v="Skjelaviki" />
		<tag k="natural" v="bay" />
		<tag k="ssr:stedsnr" v="189825" />
	</node>
	<node lat="60.551427781491505" lon="6.942549992740151" id="-36558">
		<tag k="fixme" v="consider place=hamlet" />
		<tag k="name" v="Vattatveit" />
		<tag k="place" v="farm" />
		<tag k="ssr:stedsnr" v="189780" />
	</node>
	<node lat="60.66539999650874" lon="6.868911118091794" id="-36559">
		<tag k="fixme" v="consider natural=peak for the most distinct mountains in the district" />
		<tag k="name" v="Vesetfjellet" />
		<tag k="natural" v="hill" />
		<tag k="place" v="locality" />
		<tag k="ssr:stedsnr" v="189964" />
	</node>
	<node lat="60.602908332289104" lon="7.024524993584716" id="-36560">
		<tag k="name" v="Kyraskar" />
		<tag k="natural" v="valley" />
		<tag k="place" v="locality" />
		<tag k="ssr:stedsnr" v="219996" />
	</node>
	<node lat="60.60191389060994" lon="6.875086109016497" id="-36561">
		<tag k="ford" v="yes" />
		<tag k="name" v="Storavadet" />
		<tag k="place" v="locality" />
		<tag k="ssr:stedsnr" v="220693" />
	</node>
	<node lat="60.5528611101356" lon="6.879749991090395" id="-36562">
		<tag k="name" v="Grov" />
		<tag k="place" v="locality" />
		<tag k="ssr:stedsnr" v="220576" />
	</node>
	<node lat="60.58641111380014" lon="6.894833333011774" id="-36563">
		<tag k="name" v="Høgaberg" />
		<tag k="natural" v="hill" />
		<tag k="place" v="locality" />
		<tag k="ssr:stedsnr" v="220578" />
	</node>
	<node lat="60.59769721939221" lon="6.885144447980824" id="-36564">
		<tag k="name" v="Bjølleberg" />
		<tag k="natural" v="hill" />
		<tag k="place" v="locality" />
		<tag k="ssr:stedsnr" v="220581" />
	</node>
	<node lat="60.5719916666683" lon="7.554277773092263" id="-36565">
		<tag k="name" v="Hansbuelvi" />
		<tag k="ssr:stedsnr" v="220909" />
		<tag k="waterway" v="river" />
	</node>
	<node lat="60.592683332636206" lon="7.014741675806927" id="-36566">
		<tag k="name" v="Storskorsnuten" />
		<tag k="natural" v="hill" />
		<tag k="place" v="locality" />
		<tag k="ssr:stedsnr" v="220985" />
	</node>
	<node lat="60.607969448084056" lon="6.906291661623118" id="-36567">
		<tag k="name" v="Deildaskrea" />
		<tag k="natural" v="valley" />
		<tag k="place" v="locality" />
		<tag k="ssr:stedsnr" v="220986" />
	</node>
	<node lat="60.670758333917895" lon="6.8597861179589055" id="-36568">
		<tag k="fixme" v="consider natural=peak for the most distinct mountains in the district" />
		<tag k="name" v="Vesetfjellet" />
		<tag k="natural" v="hill" />
		<tag k="place" v="locality" />
		<tag k="ssr:stedsnr" v="221604" />
	</node>
	<node lat="60.6890722182974" lon="7.217274992298554" id="-36569">
		<tag k="name" v="Grøndalsbarakka" />
		<tag k="place" v="isolated_dwelling" />
		<tag k="ssr:stedsnr" v="221608" />
	</node>
	<node lat="60.59159166614689" lon="6.834502784020713" id="-36570">
		<tag k="name" v="Drive" />
		<tag k="natural" v="hill" />
		<tag k="place" v="locality" />
		<tag k="ssr:stedsnr" v="221572" />
	</node>
	<node lat="60.59798055769073" lon="6.8471138838576096" id="-36571">
		<tag k="name" v="Midtskor" />
		<tag k="natural" v="hill" />
		<tag k="place" v="locality" />
		<tag k="ssr:stedsnr" v="221575" />
	</node>
	<node lat="60.48559050877199" lon="6.826124651639671" id="-36572">
		<tag k="fixme" v="consider place=hamlet" />
		<tag k="loc_name" v="Vallavik" />
		<tag k="name" v="Vallaviki" />
		<tag k="place" v="farm" />
		<tag k="ssr:stedsnr" v="248419" />
	</node>
	<node lat="60.687630555095424" lon="7.249844447355196" id="-36573">
		<tag k="name" v="Hardingaskaret" />
		<tag k="natural" v="valley" />
		<tag k="place" v="locality" />
		<tag k="ssr:stedsnr" v="249106" />
	</node>
	<node lat="60.5476777817906" lon="7.4483416638297495" id="-36574">
		<tag k="name" v="Hardangerjøkulen" />
		<tag k="natural" v="glacier" />
		<tag k="old_name" v="Jukulen" />
		<tag k="ssr:stedsnr" v="249250" />
	</node>
	<node lat="60.549502349726545" lon="7.560254041910592" id="-36575">
		<tag k="name" v="Torsteinsvatnet" />
		<tag k="natural" v="water" />
		<tag k="ssr:stedsnr" v="249298" />
	</node>
	<node lat="60.49236944388472" lon="6.8931694403733665" id="-36576">
		<tag k="amenity" v="ferry_terminal" />
		<tag k="name" v="Bruravik ferjekai" />
		<tag k="ssr:stedsnr" v="271822" />
	</node>
	<node lat="60.704819440334525" lon="6.962219446728817" id="-36578">
		<tag k="name" v="Langvasslii" />
		<tag k="natural" v="slope" />
		<tag k="place" v="locality" />
		<tag k="ssr:stedsnr" v="281628" />
	</node>
	<node lat="60.48965000127954" lon="6.836994438985917" id="-36579">
		<tag k="name" v="Kariteigen" />
		<tag k="place" v="farm" />
		<tag k="ssr:stedsnr" v="281517" />
	</node>
	<node lat="60.61464444746426" lon="6.963377777975787" id="-36580">
		<tag k="name" v="Djupedal" />
		<tag k="natural" v="valley" />
		<tag k="place" v="locality" />
		<tag k="ssr:stedsnr" v="281567" />
	</node>
	<node lat="60.52975277743007" lon="6.8947055619088085" id="-36581">
		<tag k="name" v="Fjellkleiv" />
		<tag k="natural" v="gorge" />
		<tag k="ssr:stedsnr" v="281578" />
	</node>
	<node lat="60.50242588546208" lon="6.925672456147664" id="-36582">
		<tag k="name" v="Sandviki" />
		<tag k="natural" v="bay" />
		<tag k="ssr:stedsnr" v="281587" />
	</node>
	<node lat="60.676886107226416" lon="7.240058338634543" id="-36583">
		<tag k="name" v="Tjovadalsbekken" />
		<tag k="ssr:stedsnr" v="281971" />
		<tag k="waterway" v="stream" />
	</node>
	<node lat="60.553211107363666" lon="6.996502776820622" id="-36584">
		<tag k="alt_name" v="Storegilet" />
		<tag k="name" v="Storaskreo" />
		<tag k="natural" v="gorge" />
		<tag k="ssr:stedsnr" v="281976" />
	</node>
	<node lat="60.567255552115384" lon="6.843061114080681" id="-36585">
		<tag k="name" v="Hellespak" />
		<tag k="natural" v="hill" />
		<tag k="place" v="locality" />
		<tag k="ssr:stedsnr" v="462940" />
	</node>
	<node lat="60.7088472261029" lon="6.96446944021552" id="-36586">
		<tag k="name" v="Okslii" />
		<tag k="natural" v="slope" />
		<tag k="place" v="locality" />
		<tag k="ssr:stedsnr" v="462942" />
	</node>
	<node lat="60.56697777457952" lon="7.0070055475281325" id="-36587">
		<tag k="name" v="Kvistenskreo" />
		<tag k="natural" v="gorge" />
		<tag k="ssr:stedsnr" v="462950" />
	</node>
	<node lat="60.4879472217248" lon="6.768963889648" id="-36588">
		<tag k="name" v="Øykjaskar" />
		<tag k="natural" v="valley" />
		<tag k="place" v="locality" />
		<tag k="ssr:stedsnr" v="462996" />
	</node>
	<node lat="60.601338884648236" lon="7.0051805495616435" id="-36589">
		<tag k="fixme" v="consider natural=peak for the most distinct mountains in the district" />
		<tag k="name" v="Midtfjellet" />
		<tag k="natural" v="hill" />
		<tag k="place" v="locality" />
		<tag k="ssr:stedsnr" v="462952" />
	</node>
	<node lat="60.608386113279565" lon="6.950366672971654" id="-36590">
		<tag k="name" v="Sveigsøyane" />
		<tag k="place" v="locality" />
		<tag k="ssr:stedsnr" v="463528" />
	</node>
	<node lat="60.53709444200396" lon="6.887163883717622" id="-36591">
		<tag k="name" v="Tjødnarebrote" />
		<tag k="natural" v="slope" />
		<tag k="place" v="locality" />
		<tag k="ssr:stedsnr" v="463535" />
	</node>
	<node lat="60.49140555210601" lon="6.8938194367110555" id="-36592">
		<tag k="alt_name" v="Bruraviknes" />
		<tag k="name" v="Bruravikneset" />
		<tag k="natural" v="cape" />
		<tag k="ssr:stedsnr" v="463537" />
	</node>
	<node lat="60.492791662587" lon="6.831394450824301" id="-36593">
		<tag k="name" v="Tveitæ" />
		<tag k="place" v="farm" />
		<tag k="ssr:stedsnr" v="463479" />
	</node>
	<node lat="60.541825001678866" lon="6.884861118157582" id="-36594">
		<tag k="name" v="Kyrkjehaugen" />
		<tag k="natural" v="hill" />
		<tag k="place" v="locality" />
		<tag k="ssr:stedsnr" v="463488" />
	</node>
	<node lat="60.60111111461178" lon="6.894019449207557" id="-36595">
		<tag k="historic" v="shieling" />
		<tag k="name" v="Favnastøl" />
		<tag k="place" v="isolated_dwelling" />
		<tag k="ssr:stedsnr" v="463493" />
	</node>
	<node lat="60.5606833364261" lon="6.960900008772167" id="-36596">
		<tag k="name" v="Havarhaug" />
		<tag k="natural" v="hill" />
		<tag k="place" v="locality" />
		<tag k="ssr:stedsnr" v="463564" />
	</node>
	<node lat="60.544336108053706" lon="6.975519445155107" id="-36597">
		<tag k="alt_name" v="Brummedal" />
		<tag k="name" v="Brimmedalen" />
		<tag k="natural" v="valley" />
		<tag k="place" v="locality" />
		<tag k="ssr:stedsnr" v="463566" />
	</node>
	<node lat="60.58219999566934" lon="6.932052783265051" id="-36598">
		<tag k="name" v="Bjørndalen" />
		<tag k="natural" v="valley" />
		<tag k="place" v="locality" />
		<tag k="ssr:stedsnr" v="463575" />
	</node>
	<node lat="60.52095000366666" lon="6.903880562738633" id="-36599">
		<tag k="name" v="Staursnesnuten" />
		<tag k="natural" v="hill" />
		<tag k="place" v="locality" />
		<tag k="ssr:stedsnr" v="463544" />
	</node>
	<node lat="60.69499444423647" lon="7.203958329318566" id="-36600">
		<tag k="name" v="Klevafiti" />
		<tag k="place" v="locality" />
		<tag k="ssr:stedsnr" v="463635" />
	</node>
	<node lat="60.59557348790191" lon="6.972073029004056" id="-36601">
		<tag k="name" v="Jonstølselvi" />
		<tag k="ssr:stedsnr" v="463920" />
		<tag k="waterway" v="river" />
	</node>
	<node lat="60.54069722137337" lon="6.986072214487372" id="-36602">
		<tag k="name" v="Brimmedalen" />
		<tag k="natural" v="valley" />
		<tag k="place" v="locality" />
		<tag k="ssr:stedsnr" v="463980" />
	</node>
	<node lat="60.48136388543056" lon="6.800311118880672" id="-36603">
		<tag k="name" v="Haukagil" />
		<tag k="natural" v="gorge" />
		<tag k="ssr:stedsnr" v="463997" />
	</node>
	<node lat="60.48228611236621" lon="6.792275000529104" id="-36604">
		<tag k="name" v="Nedsta Vangsoksli" />
		<tag k="natural" v="slope" />
		<tag k="place" v="locality" />
		<tag k="ssr:stedsnr" v="463998" />
	</node>
	<node lat="60.505433330887286" lon="6.9313666756500725" id="-36605">
		<tag k="alt_name" v="Bolstad, ytre;Bolstad" />
		<tag k="name" v="Ytre Bolstad" />
		<tag k="place" v="farm" />
		<tag k="ssr:stedsnr" v="310013" />
	</node>
	<node lat="60.634194446192765" lon="7.238900003698746" id="-36606">
		<tag k="name" v="Dyrahola" />
		<tag k="place" v="locality" />
		<tag k="ssr:stedsnr" v="310079" />
	</node>
	<node lat="60.640983797400935" lon="7.00244586859865" id="-36607">
		<tag k="name" v="Miningane" />
		<tag k="place" v="locality" />
		<tag k="ssr:stedsnr" v="310083" />
	</node>
	<node lat="60.680199999298175" lon="7.0993499930958" id="-36608">
		<tag k="fixme" v="consider natural=peak for the most distinct mountains in the district" />
		<tag k="name" v="Ruvlenuten" />
		<tag k="natural" v="hill" />
		<tag k="place" v="locality" />
		<tag k="ssr:stedsnr" v="310092" />
	</node>
	<node lat="60.70025000220459" lon="7.22285556371734" id="-36609">
		<tag k="fixme" v="consider natural=peak for the most distinct mountains in the district" />
		<tag k="name" v="Tjuadalsbrotet" />
		<tag k="natural" v="hill" />
		<tag k="place" v="locality" />
		<tag k="ssr:stedsnr" v="310101" />
	</node>
	<node lat="60.69282499973536" lon="7.1313499946059915" id="-36610">
		<tag k="fixme" v="consider natural=peak for the most distinct mountains in the district" />
		<tag k="name" v="Baksafjellet" />
		<tag k="natural" v="hill" />
		<tag k="place" v="locality" />
		<tag k="ssr:stedsnr" v="310107" />
	</node>
	<node lat="60.59552499727276" lon="7.4875527868170995" id="-36611">
		<tag k="name" v="Finseneset" />
		<tag k="natural" v="cape" />
		<tag k="ssr:stedsnr" v="310282" />
	</node>
	<node lat="60.6016749984977" lon="7.504102769930509" id="-36612">
		<tag k="name" v="Finse stasjon" />
		<tag k="railway" v="station" />
		<tag k="ssr:stedsnr" v="310285" />
		<tag k="train" v="yes" />
	</node>
	<node lat="60.545263892078566" lon="7.732361105913086" id="-36613">
		<tag k="name" v="Ustekveikja" />
		<tag k="ssr:stedsnr" v="310387" />
		<tag k="waterway" v="river" />
	</node>
	<node lat="60.55010681560152" lon="6.906655080418504" id="-36614">
		<tag k="alt_name" v="Frøystein" />
		<tag k="fixme" v="consider place=hamlet" />
		<tag k="name" v="Fryste" />
		<tag k="place" v="farm" />
		<tag k="ssr:stedsnr" v="310799" />
	</node>
	<node lat="60.55049166282165" lon="6.859986108336173" id="-36615">
		<tag k="name" v="Kås" />
		<tag k="place" v="locality" />
		<tag k="ssr:stedsnr" v="310806" />
	</node>
	<node lat="60.58841389264755" lon="6.860216660403196" id="-36616">
		<tag k="name" v="Drevtjørn" />
		<tag k="natural" v="water" />
		<tag k="ssr:stedsnr" v="310824" />
	</node>
	<node lat="60.58117499801635" lon="6.951188892104124" id="-36617">
		<tag k="name" v="Solhovden" />
		<tag k="place" v="farm" />
		<tag k="ssr:stedsnr" v="310825" />
	</node>
	<node lat="60.55334444830594" lon="6.948808334509558" id="-36618">
		<tag k="fixme" v="consider natural=peak for the most distinct mountains in the district" />
		<tag k="name" v="Åsen" />
		<tag k="natural" v="hill" />
		<tag k="place" v="locality" />
		<tag k="ssr:stedsnr" v="324087" />
	</node>
	<node lat="60.57275278132519" lon="6.9941722154107975" id="-36619">
		<tag k="bridge" v="yes" />
		<tag k="layer" v="1" />
		<tag k="name" v="Kattegjøtta" />
		<tag k="ssr:stedsnr" v="471814" />
	</node>
	<node lat="60.50518055722882" lon="6.902797225723284" id="-36620">
		<tag k="bridge" v="yes" />
		<tag k="layer" v="1" />
		<tag k="name" v="Veaonesbekken" />
		<tag k="ssr:stedsnr" v="471828" />
	</node>
	<node lat="60.52423055547203" lon="6.866024998240125" id="-36621">
		<tag k="name" v="Hellesetgili" />
		<tag k="natural" v="gorge" />
		<tag k="ssr:stedsnr" v="340954" />
	</node>
	<node lat="60.60391111059584" lon="6.904533326421798" id="-36622">
		<tag k="name" v="Slottena" />
		<tag k="natural" v="hill" />
		<tag k="place" v="locality" />
		<tag k="ssr:stedsnr" v="341598" />
	</node>
	<node lat="60.71092499874964" lon="7.007286112992915" id="-36623">
		<tag k="name" v="Rundenuten" />
		<tag k="natural" v="hill" />
		<tag k="place" v="locality" />
		<tag k="ssr:stedsnr" v="341992" />
	</node>
	<node lat="60.69196944784294" lon="7.204049993588464" id="-36624">
		<tag k="name" v="Storehølen" />
		<tag k="place" v="locality" />
		<tag k="ssr:stedsnr" v="341999" />
	</node>
	<node lat="60.566174349818645" lon="6.910677110359486" id="-36625">
		<tag k="name" v="Køylabukti" />
		<tag k="natural" v="bay" />
		<tag k="ssr:stedsnr" v="342503" />
	</node>
	<node lat="60.55462500407253" lon="6.962613883619495" id="-36626">
		<tag k="name" v="Raudestein" />
		<tag k="natural" v="hill" />
		<tag k="place" v="locality" />
		<tag k="ssr:stedsnr" v="347469" />
	</node>
	<node lat="60.57059166666999" lon="6.915730547402489" id="-36627">
		<tag k="bridge" v="yes" />
		<tag k="layer" v="1" />
		<tag k="name" v="Tysso" />
		<tag k="ssr:stedsnr" v="350806" />
	</node>
	<node lat="60.51136666807722" lon="6.898894447772241" id="-36628">
		<tag k="loc_name" v="Atlåksbekken" />
		<tag k="name" v="Atlåsbekken" />
		<tag k="ssr:stedsnr" v="370029" />
		<tag k="waterway" v="stream" />
	</node>
	<node lat="60.55017272542921" lon="7.108837288966047" id="-36629">
		<tag k="name" v="Kvilingavatnet" />
		<tag k="natural" v="water" />
		<tag k="ssr:stedsnr" v="370176" />
	</node>
	<node lat="60.577761111771736" lon="7.0463444414353456" id="-36630">
		<tag k="fixme" v="consider natural=peak for the most distinct mountains in the district" />
		<tag k="name" v="Hallestigen" />
		<tag k="natural" v="hill" />
		<tag k="place" v="locality" />
		<tag k="ssr:stedsnr" v="370188" />
	</node>
	<node lat="60.62084294674989" lon="7.206210855745167" id="-36631">
		<tag k="name" v="Kvilinganutvatnet" />
		<tag k="natural" v="water" />
		<tag k="ssr:stedsnr" v="371059" />
		<tag k="water" v="lake" />
	</node>
	<node lat="60.66187080943353" lon="7.243073124254624" id="-36632">
		<tag k="alt_name" v="Hallingskeidsæter" />
		<tag k="historic" v="shieling" />
		<tag k="name" v="Hallingskeid" />
		<tag k="place" v="isolated_dwelling" />
		<tag k="ssr:stedsnr" v="371080" />
	</node>
	<node lat="60.69019721894497" lon="7.294702786643788" id="-36633">
		<tag k="fixme" v="consider natural=peak for the most distinct mountains in the district" />
		<tag k="name" v="Skomahøgdene" />
		<tag k="natural" v="hill" />
		<tag k="place" v="locality" />
		<tag k="ssr:stedsnr" v="371081" />
	</node>
	<node lat="60.639880556656685" lon="6.905458339836963" id="-36634">
		<tag k="name" v="Hellebotnen" />
		<tag k="natural" v="valley" />
		<tag k="place" v="locality" />
		<tag k="ssr:stedsnr" v="371904" />
	</node>
	<node lat="60.576200003683624" lon="6.916386110170355" id="-36635">
		<tag k="fixme" v="consider place=hamlet" />
		<tag k="name" v="Vestrheim" />
		<tag k="place" v="farm" />
		<tag k="ssr:stedsnr" v="371875" />
	</node>
	<node lat="60.57191667091714" lon="6.872802777074947" id="-36636">
		<tag k="name" v="Lødalen" />
		<tag k="natural" v="valley" />
		<tag k="place" v="locality" />
		<tag k="ssr:stedsnr" v="385112" />
	</node>
	<node lat="60.498377775728045" lon="6.874252773804002" id="-36637">
		<tag k="name" v="Espeskorane" />
		<tag k="place" v="locality" />
		<tag k="ssr:stedsnr" v="401932" />
	</node>
	<node lat="60.6077305552565" lon="6.923266664999111" id="-36638">
		<tag k="name" v="Torblå Skora" />
		<tag k="place" v="locality" />
		<tag k="ssr:stedsnr" v="401996" />
	</node>
	<node lat="60.494013889204126" lon="6.834024995995912" id="-36639">
		<tag k="name" v="Kariteigelvi" />
		<tag k="ssr:stedsnr" v="402535" />
		<tag k="waterway" v="river" />
	</node>
	<node lat="60.598358329773426" lon="6.967777783303332" id="-36640">
		<tag k="name" v="Horgagaren" />
		<tag k="place" v="farm" />
		<tag k="ssr:stedsnr" v="402578" />
	</node>
	<node lat="60.60515833342187" lon="6.967291665273868" id="-36641">
		<tag k="name" v="Storheller" />
		<tag k="natural" v="hill" />
		<tag k="place" v="locality" />
		<tag k="ssr:stedsnr" v="402579" />
	</node>
	<node lat="60.61215277963174" lon="6.960402780812798" id="-36642">
		<tag k="name" v="Hengelibekken" />
		<tag k="ssr:stedsnr" v="402587" />
		<tag k="waterway" v="stream" />
	</node>
	<node lat="60.61251990156071" lon="6.965947504117883" id="-36643">
		<tag k="name" v="Hengelitjørn" />
		<tag k="natural" v="water" />
		<tag k="ssr:stedsnr" v="402588" />
	</node>
	<node lat="60.60799722296401" lon="6.933099995953407" id="-36644">
		<tag k="highway" v="path" />
		<tag k="name" v="Skorastigen" />
		<tag k="ssr:stedsnr" v="402594" />
	</node>
	<node lat="60.49225704215264" lon="6.882634634240081" id="-36645">
		<tag k="name" v="Brandhaug" />
		<tag k="natural" v="hill" />
		<tag k="place" v="locality" />
		<tag k="ssr:stedsnr" v="402597" />
	</node>
	<node lat="60.493272223839554" lon="6.881247224058049" id="-36646">
		<tag k="name" v="Bjodnabakkane" />
		<tag k="natural" v="slope" />
		<tag k="place" v="locality" />
		<tag k="ssr:stedsnr" v="402598" />
	</node>
	<node lat="60.542230555830834" lon="6.857333325336608" id="-36647">
		<tag k="name" v="Bytesbekkjen" />
		<tag k="ssr:stedsnr" v="403579" />
		<tag k="waterway" v="stream" />
	</node>
	<node lat="60.5458416625272" lon="6.857647225444558" id="-36648">
		<tag k="name" v="Storhaug" />
		<tag k="natural" v="hill" />
		<tag k="place" v="locality" />
		<tag k="ssr:stedsnr" v="403581" />
	</node>
	<node lat="60.488922223201804" lon="6.836944437997755" id="-36649">
		<tag k="bridge" v="yes" />
		<tag k="layer" v="1" />
		<tag k="name" v="Kariteigen" />
		<tag k="ssr:stedsnr" v="411797" />
	</node>
	<node lat="60.4798683734195" lon="6.806132497988501" id="-36650">
		<tag k="name" v="Kvammen" />
		<tag k="place" v="farm" />
		<tag k="ssr:stedsnr" v="430410" />
	</node>
	<node lat="60.49202940806008" lon="6.855537582923654" id="-36651">
		<tag k="fixme" v="consider place=hamlet" />
		<tag k="name" v="Vangsbygdi" />
		<tag k="place" v="village" />
		<tag k="ssr:stedsnr" v="430417" />
	</node>
	<node lat="60.600194441460395" lon="7.086597214534136" id="-36652">
		<tag k="historic" v="shieling" />
		<tag k="name" v="Nipasete" />
		<tag k="place" v="locality" />
		<tag k="ssr:stedsnr" v="431209" />
	</node>
	<node lat="60.52950555926521" lon="6.9547694462154155" id="-36653">
		<tag k="name" v="Møyasprang" />
		<tag k="natural" v="slope" />
		<tag k="place" v="locality" />
		<tag k="ssr:stedsnr" v="432034" />
	</node>
	<node lat="60.529469908334036" lon="6.909259967541151" id="-36654">
		<tag k="fixme" v="consider place=hamlet" />
		<tag k="name" v="Hetlenes" />
		<tag k="place" v="farm" />
		<tag k="ssr:stedsnr" v="432038" />
	</node>
	<node lat="60.60516944334874" lon="6.951475861901055" id="-36655">
		<tag k="name" v="Rindatjørni" />
		<tag k="natural" v="water" />
		<tag k="ssr:stedsnr" v="431948" />
	</node>
	<node lat="60.70792988586314" lon="7.206171733782941" id="-36656">
		<tag k="alt_name" v="Klevavatn" />
		<tag k="name" v="Klevavatnet" />
		<tag k="natural" v="water" />
		<tag k="ssr:stedsnr" v="432094" />
		<tag k="water" v="lake" />
	</node>
	<node lat="60.700475000378944" lon="7.010125005580136" id="-36657">
		<tag k="fixme" v="consider natural=peak for the most distinct mountains in the district" />
		<tag k="name" v="Hervardseggi" />
		<tag k="natural" v="hill" />
		<tag k="place" v="locality" />
		<tag k="ssr:stedsnr" v="432096" />
	</node>
	<node lat="60.54721944213895" lon="6.891244448645766" id="-36658">
		<tag k="name" v="Krobekken" />
		<tag k="ssr:stedsnr" v="432795" />
		<tag k="waterway" v="stream" />
	</node>
	<node lat="60.569490533455856" lon="6.875569009920703" id="-36659">
		<tag k="name" v="Lomtjørn" />
		<tag k="natural" v="water" />
		<tag k="ssr:stedsnr" v="432881" />
	</node>
	<node lat="60.60553611128522" lon="6.944386105343982" id="-36660">
		<tag k="name" v="Øyarstølselvi" />
		<tag k="ssr:stedsnr" v="491940" />
		<tag k="waterway" v="river" />
	</node>
	<node lat="60.63437778064277" lon="7.111358325237034" id="-36661">
		<tag k="name" v="Gunnulven" />
		<tag k="natural" v="valley" />
		<tag k="place" v="locality" />
		<tag k="ssr:stedsnr" v="492054" />
	</node>
	<node lat="60.64083055618097" lon="7.317008328397155" id="-36662">
		<tag k="name" v="Låghellerbotnen" />
		<tag k="natural" v="valley" />
		<tag k="place" v="locality" />
		<tag k="ssr:stedsnr" v="492060" />
	</node>
	<node lat="60.63947777635695" lon="7.209525001164456" id="-36663">
		<tag k="alt_name" v="Grøndalsnuten, s" />
		<tag k="fixme" v="consider natural=peak for the most distinct mountains in the district" />
		<tag k="name" v="Søre Grøndalsnuten" />
		<tag k="natural" v="hill" />
		<tag k="place" v="locality" />
		<tag k="ssr:stedsnr" v="492062" />
	</node>
	<node lat="60.66103611568589" lon="7.3078750070945935" id="-36664">
		<tag k="fixme" v="consider natural=peak for the most distinct mountains in the district" />
		<tag k="name" v="Høghellerhøgdene" />
		<tag k="natural" v="hill" />
		<tag k="place" v="locality" />
		<tag k="ssr:stedsnr" v="492069" />
	</node>
	<node lat="60.59085725913499" lon="7.0003951976899295" id="-36665">
		<tag k="name" v="Instavatnet" />
		<tag k="natural" v="water" />
		<tag k="ssr:stedsnr" v="492134" />
	</node>
	<node lat="60.59226666691986" lon="7.037833341475314" id="-36666">
		<tag k="fixme" v="consider place=hamlet" />
		<tag k="name" v="Osa" />
		<tag k="place" v="farm" />
		<tag k="ssr:stedsnr" v="492146" />
	</node>
	<node lat="60.59367499780348" lon="7.349997229561625" id="-36667">
		<tag k="fixme" v="consider natural=peak for the most distinct mountains in the district" />
		<tag k="name" v="Dyrhaugane" />
		<tag k="natural" v="hill" />
		<tag k="place" v="locality" />
		<tag k="ssr:stedsnr" v="492258" />
	</node>
	<node lat="60.55344049842639" lon="6.929412743098029" id="-36668">
		<tag k="alt_name" v="Viknes, ytre;Viknes" />
		<tag k="name" v="Ytre Viknes" />
		<tag k="place" v="farm" />
		<tag k="ssr:stedsnr" v="492749" />
	</node>
	<node lat="60.58994444701224" lon="6.905219438987812" id="-36669">
		<tag k="name" v="Kongsberg" />
		<tag k="natural" v="hill" />
		<tag k="place" v="locality" />
		<tag k="ssr:stedsnr" v="492830" />
	</node>
	<node lat="60.546875317936056" lon="6.822334815782429" id="-36670">
		<tag k="name" v="Litlalitjørni" />
		<tag k="natural" v="water" />
		<tag k="ssr:stedsnr" v="492795" />
		<tag k="water" v="lake" />
	</node>
	<node lat="60.564149999083654" lon="6.896488883569763" id="-36671">
		<tag k="alt_name" v="Sponheim" />
		<tag k="fixme" v="consider place=hamlet" />
		<tag k="name" v="Spånheim" />
		<tag k="place" v="farm" />
		<tag k="ssr:stedsnr" v="492850" />
	</node>
	<node lat="60.69261389039583" lon="6.96625276914643" id="-36672">
		<tag k="fixme" v="consider natural=peak for the most distinct mountains in the district" />
		<tag k="name" v="Magnhildenuten" />
		<tag k="natural" v="hill" />
		<tag k="place" v="locality" />
		<tag k="ssr:stedsnr" v="492933" />
	</node>
	<node lat="60.5888416662397" lon="6.920991666778006" id="-36673">
		<tag k="name" v="Klovdalen" />
		<tag k="natural" v="valley" />
		<tag k="place" v="locality" />
		<tag k="ssr:stedsnr" v="445486" />
	</node>
	<node lat="60.55925833556635" lon="7.180705548752333" id="-36674">
		<tag k="name" v="Enden" />
		<tag k="natural" v="hill" />
		<tag k="place" v="locality" />
		<tag k="ssr:stedsnr" v="673157" />
	</node>
	<node lat="60.4974749976372" lon="6.843544452411809" id="-36675">
		<tag k="historic" v="shieling" />
		<tag k="name" v="Skarvet" />
		<tag k="place" v="isolated_dwelling" />
		<tag k="ssr:stedsnr" v="673427" />
	</node>
	<node lat="60.489095328593585" lon="6.862256498945889" id="-36676">
		<tag k="name" v="Smedviki" />
		<tag k="natural" v="bay" />
		<tag k="ssr:stedsnr" v="673447" />
	</node>
	<node lat="60.60009166773612" lon="6.961316661941029" id="-36677">
		<tag k="name" v="Krokslielvi" />
		<tag k="ssr:stedsnr" v="673941" />
		<tag k="waterway" v="river" />
	</node>
	<node lat="60.610330557730585" lon="6.9576388877713" id="-36678">
		<tag k="historic" v="shieling" />
		<tag k="name" v="Nedre Sveig" />
		<tag k="place" v="isolated_dwelling" />
		<tag k="ssr:stedsnr" v="673892" />
	</node>
	<node lat="60.56366944507105" lon="7.609716668025662" id="-36679">
		<tag k="fixme" v="consider natural=peak for the most distinct mountains in the district" />
		<tag k="name" v="Botnanuten" />
		<tag k="natural" v="hill" />
		<tag k="place" v="locality" />
		<tag k="ssr:stedsnr" v="674291" />
	</node>
	<node lat="60.53253333077962" lon="6.955852785388499" id="-36680">
		<tag k="name" v="Furebergsneset" />
		<tag k="natural" v="cape" />
		<tag k="ssr:stedsnr" v="674043" />
	</node>
	<node lat="60.602322110245346" lon="6.971952912500825" id="-36681">
		<tag k="name" v="Horgafledne" />
		<tag k="place" v="locality" />
		<tag k="ssr:stedsnr" v="674065" />
	</node>
	<node lat="60.61201419183354" lon="7.183726281358836" id="-36682">
		<tag k="alt_name" v="Rundavatnet, vetle" />
		<tag k="name" v="Vetle Rundavatnet" />
		<tag k="natural" v="water" />
		<tag k="old_name" v="Rundavatnet, vle" />
		<tag k="ssr:stedsnr" v="674067" />
	</node>
	<node lat="60.62212500270561" lon="7.074080563645077" id="-36683">
		<tag k="name" v="Tverrelvi" />
		<tag k="ssr:stedsnr" v="674075" />
		<tag k="waterway" v="stream" />
	</node>
	<node lat="60.62024722543075" lon="7.015719437675916" id="-36684">
		<tag k="fixme" v="consider natural=peak for the most distinct mountains in the district" />
		<tag k="name" v="Vassfjøro" />
		<tag k="natural" v="hill" />
		<tag k="place" v="locality" />
		<tag k="ssr:stedsnr" v="674078" />
	</node>
	<node lat="60.56585000341948" lon="6.878127780105002" id="-36685">
		<tag k="fixme" v="consider natural=peak for the most distinct mountains in the district" />
		<tag k="name" v="Åsen" />
		<tag k="natural" v="hill" />
		<tag k="place" v="locality" />
		<tag k="ssr:stedsnr" v="462954" />
	</node>
	<node lat="60.55324166497993" lon="6.989850003076506" id="-36686">
		<tag k="alt_name" v="Øydvenstølen" />
		<tag k="historic" v="shieling" />
		<tag k="name" v="Øydvenselet" />
		<tag k="place" v="isolated_dwelling" />
		<tag k="ssr:stedsnr" v="462956" />
	</node>
	<node lat="60.65492499964976" lon="7.327075008807654" id="-36687">
		<tag k="name" v="Fokstova" />
		<tag k="place" v="isolated_dwelling" />
		<tag k="ssr:stedsnr" v="674081" />
	</node>
	<node lat="60.65192499602542" lon="7.291302777133786" id="-36688">
		<tag k="name" v="Høghellervatnet" />
		<tag k="natural" v="water" />
		<tag k="ssr:stedsnr" v="674083" />
		<tag k="water" v="lake" />
	</node>
	<node lat="60.65138055681644" lon="7.100099991834182" id="-36689">
		<tag k="name" v="Nordredalen" />
		<tag k="natural" v="valley" />
		<tag k="place" v="locality" />
		<tag k="ssr:stedsnr" v="674092" />
	</node>
	<node lat="60.673465633458456" lon="6.991956105424442" id="-36690">
		<tag k="name" v="Småfagerdalsvatni" />
		<tag k="natural" v="water" />
		<tag k="ssr:stedsnr" v="674097" />
		<tag k="water" v="lake" />
	</node>
	<node lat="60.585963886946296" lon="7.041011109701357" id="-36691">
		<tag k="name" v="Hønsahjallen" />
		<tag k="place" v="farm" />
		<tag k="ssr:stedsnr" v="674159" />
	</node>
	<node lat="60.58917778207472" lon="6.971491672695614" id="-36692">
		<tag k="name" v="Eggjabrekkena" />
		<tag k="natural" v="slope" />
		<tag k="place" v="locality" />
		<tag k="ssr:stedsnr" v="463517" />
	</node>
	<node lat="60.59551110815987" lon="6.982730560867386" id="-36693">
		<tag k="name" v="Ottagili" />
		<tag k="natural" v="gorge" />
		<tag k="ssr:stedsnr" v="463520" />
	</node>
	<node lat="60.66549444104416" lon="7.256633336683186" id="-36694">
		<tag k="name" v="Skomahallet" />
		<tag k="natural" v="slope" />
		<tag k="place" v="locality" />
		<tag k="ssr:stedsnr" v="463610" />
	</node>
	<node lat="60.64012500195287" lon="7.346725007751042" id="-36695">
		<tag k="fixme" v="consider natural=peak for the most distinct mountains in the district" />
		<tag k="name" v="Austre Låghellerhøgdene" />
		<tag k="natural" v="hill" />
		<tag k="place" v="locality" />
		<tag k="ssr:stedsnr" v="674190" />
	</node>
	<node lat="60.62280000314764" lon="7.429419440780874" id="-36696">
		<tag k="name" v="Florsvegghallene" />
		<tag k="natural" v="slope" />
		<tag k="place" v="locality" />
		<tag k="ssr:stedsnr" v="674193" />
	</node>
	<node lat="60.58537107293207" lon="6.89988984892092" id="-36697">
		<tag k="alt_name" v="Kleppe" />
		<tag k="historic" v="shieling" />
		<tag k="name" v="Vestrheimskleppe" />
		<tag k="place" v="isolated_dwelling" />
		<tag k="ssr:stedsnr" v="674810" />
	</node>
	<node lat="60.59213333601465" lon="6.9417861099878495" id="-36698">
		<tag k="name" v="Djupeviki" />
		<tag k="natural" v="bay" />
		<tag k="ssr:stedsnr" v="674826" />
	</node>
	<node lat="60.54368610934184" lon="6.820508333882925" id="-36699">
		<tag k="name" v="Kjelshovden" />
		<tag k="natural" v="hill" />
		<tag k="place" v="locality" />
		<tag k="ssr:stedsnr" v="674784" />
	</node>
	<node lat="60.54663333707318" lon="6.908424993613827" id="-36700">
		<tag k="name" v="Tveito" />
		<tag k="place" v="hamlet" />
		<tag k="ssr:stedsnr" v="674797" />
	</node>
	<node lat="60.58271944749334" lon="7.682911102145381" id="-36701">
		<tag k="name" v="Lengjedalen" />
		<tag k="natural" v="valley" />
		<tag k="place" v="locality" />
		<tag k="ssr:stedsnr" v="675336" />
	</node>
	<node lat="60.65026389084934" lon="6.898883338777389" id="-36702">
		<tag k="name" v="Fallet" />
		<tag k="natural" v="cliff" />
		<tag k="ssr:stedsnr" v="675988" />
	</node>
	<node lat="60.5142327056608" lon="6.870421010544935" id="-36703">
		<tag k="name" v="Langetjørn" />
		<tag k="natural" v="water" />
		<tag k="ssr:stedsnr" v="492017" />
	</node>
	<node lat="60.52255832966922" lon="6.965700006731945" id="-36704">
		<tag k="historic" v="shieling" />
		<tag k="name" v="Hellås" />
		<tag k="place" v="isolated_dwelling" />
		<tag k="ssr:stedsnr" v="492025" />
	</node>
	<node lat="60.68224166815931" lon="7.211938889306488" id="-36705">
		<tag k="historic" v="shieling" />
		<tag k="name" v="Tuftene" />
		<tag k="place" v="isolated_dwelling" />
		<tag k="ssr:stedsnr" v="492075" />
	</node>
	<node lat="60.56907222164737" lon="7.434744449852258" id="-36706">
		<tag k="fixme" v="consider natural=peak for the most distinct mountains in the district" />
		<tag k="name" v="Bukkaskinnshjallane" />
		<tag k="natural" v="hill" />
		<tag k="place" v="locality" />
		<tag k="ssr:stedsnr" v="492285" />
	</node>
	<node lat="60.587700004194225" lon="6.9115750049604285" id="-36707">
		<tag k="historic" v="shieling" />
		<tag k="name" v="Røyneskor" />
		<tag k="place" v="isolated_dwelling" />
		<tag k="ssr:stedsnr" v="492822" />
	</node>
	<node lat="60.56649444690854" lon="6.927902783556419" id="-36708">
		<tag k="name" v="Ulvikapollen" />
		<tag k="natural" v="bay" />
		<tag k="ssr:stedsnr" v="492793" />
	</node>
	<node lat="60.657880716712455" lon="6.867291017140388" id="-36709">
		<tag k="name" v="Vesetvatnet" />
		<tag k="natural" v="water" />
		<tag k="ssr:stedsnr" v="492967" />
		<tag k="water" v="lake" />
	</node>
	<node lat="60.570791664144416" lon="6.872936114125317" id="-36710">
		<tag k="name" v="Lødalen" />
		<tag k="natural" v="valley" />
		<tag k="place" v="locality" />
		<tag k="ssr:stedsnr" v="523912" />
	</node>
	<node lat="60.55412500000359" lon="6.906136106105898" id="-36711">
		<tag k="name" v="Heggjedalen" />
		<tag k="natural" v="valley" />
		<tag k="place" v="locality" />
		<tag k="ssr:stedsnr" v="524427" />
	</node>
	<node lat="60.533166669839346" lon="6.967177786349086" id="-36712">
		<tag k="name" v="Gudlurbekken" />
		<tag k="ssr:stedsnr" v="524460" />
		<tag k="waterway" v="stream" />
	</node>
	<node lat="60.510741668139346" lon="6.898166666305566" id="-36713">
		<tag k="name" v="Bjørnstigane" />
		<tag k="natural" v="hill" />
		<tag k="place" v="locality" />
		<tag k="ssr:stedsnr" v="524507" />
	</node>
	<node lat="60.508008330114976" lon="6.890277783902862" id="-36714">
		<tag k="name" v="Litlelii" />
		<tag k="natural" v="slope" />
		<tag k="place" v="locality" />
		<tag k="ssr:stedsnr" v="524510" />
	</node>
	<node lat="60.58785833529267" lon="7.038808334225102" id="-36715">
		<tag k="name" v="Løyndalen" />
		<tag k="natural" v="valley" />
		<tag k="place" v="locality" />
		<tag k="ssr:stedsnr" v="524964" />
	</node>
	<node lat="60.60017928270354" lon="7.013600597345534" id="-36716">
		<tag k="name" v="Olstølsvatna" />
		<tag k="natural" v="water" />
		<tag k="ssr:stedsnr" v="524967" />
		<tag k="water" v="lake" />
	</node>
	<node lat="60.61402777940788" lon="6.921261109548345" id="-36717">
		<tag k="name" v="Langekroken" />
		<tag k="place" v="locality" />
		<tag k="ssr:stedsnr" v="524981" />
	</node>
	<node lat="60.53766666838119" lon="6.910300002761965" id="-36718">
		<tag k="name" v="Botildebøen" />
		<tag k="place" v="locality" />
		<tag k="seamark:type" v="rock" />
		<tag k="ssr:stedsnr" v="529418" />
	</node>
	<node lat="60.485577779864435" lon="6.751738885936416" id="-36719">
		<tag k="fixme" v="consider natural=peak for the most distinct mountains in the district" />
		<tag k="name" v="Ingebjørgfjellet" />
		<tag k="natural" v="hill" />
		<tag k="place" v="locality" />
		<tag k="ssr:stedsnr" v="551405" />
	</node>
	<node lat="60.55472778210533" lon="7.167200002493123" id="-36720">
		<tag k="name" v="Langvassbu" />
		<tag k="place" v="locality" />
		<tag k="ssr:stedsnr" v="552151" />
	</node>
	<node lat="60.54772500061539" lon="7.586752778467607" id="-36721">
		<tag k="name" v="Vetlaslaet" />
		<tag k="natural" v="valley" />
		<tag k="place" v="locality" />
		<tag k="ssr:stedsnr" v="552336" />
	</node>
	<node lat="60.550031580370195" lon="6.835024415177063" id="-36722">
		<tag k="name" v="Skjelmarhaugstjørni" />
		<tag k="natural" v="water" />
		<tag k="ssr:stedsnr" v="552838" />
	</node>
	<node lat="60.522450000176875" lon="6.8744861077193775" id="-36723">
		<tag k="name" v="Løhaug" />
		<tag k="natural" v="hill" />
		<tag k="place" v="locality" />
		<tag k="ssr:stedsnr" v="553033" />
	</node>
	<node lat="60.528197220244465" lon="6.924050003250142" id="-36724">
		<tag k="name" v="Birgjetangen" />
		<tag k="natural" v="cape" />
		<tag k="ssr:stedsnr" v="553046" />
	</node>
	<node lat="60.552963889349954" lon="6.867280548263656" id="-36725">
		<tag k="name" v="Vambheimselvi" />
		<tag k="ssr:stedsnr" v="552787" />
		<tag k="waterway" v="river" />
	</node>
	<node lat="60.62218333584201" lon="6.8864055493362475" id="-36726">
		<tag k="name" v="Storebotnen" />
		<tag k="natural" v="valley" />
		<tag k="place" v="locality" />
		<tag k="ssr:stedsnr" v="552906" />
	</node>
	<node lat="60.58475555614217" lon="6.9266083413448145" id="-36727">
		<tag k="name" v="Ljonaheiane" />
		<tag k="natural" v="hill" />
		<tag k="place" v="locality" />
		<tag k="ssr:stedsnr" v="553829" />
	</node>
	<node lat="60.56970833428087" lon="6.851583341115109" id="-36728">
		<tag k="name" v="Sjonaskallane" />
		<tag k="place" v="locality" />
		<tag k="ssr:stedsnr" v="583940" />
	</node>
	<node lat="60.57685555763227" lon="6.843788887002404" id="-36729">
		<tag k="historic" v="shieling" />
		<tag k="name" v="Grostøl" />
		<tag k="place" v="isolated_dwelling" />
		<tag k="ssr:stedsnr" v="583943" />
	</node>
	<node lat="60.52453888814481" lon="6.946088895083417" id="-36730">
		<tag k="name" v="Skrapeneset" />
		<tag k="natural" v="cape" />
		<tag k="ssr:stedsnr" v="584528" />
	</node>
	<node lat="60.58562221914215" lon="6.968949995944476" id="-36731">
		<tag k="name" v="Høganut" />
		<tag k="natural" v="hill" />
		<tag k="place" v="locality" />
		<tag k="ssr:stedsnr" v="584544" />
	</node>
	<node lat="60.55820555786719" lon="6.935955561862287" id="-36732">
		<tag k="name" v="Klaffena" />
		<tag k="place" v="locality" />
		<tag k="ssr:stedsnr" v="584604" />
	</node>
	<node lat="60.56087221959585" lon="6.951605560030152" id="-36733">
		<tag k="name" v="Selshaug" />
		<tag k="natural" v="hill" />
		<tag k="place" v="locality" />
		<tag k="ssr:stedsnr" v="584606" />
	</node>
	<node lat="60.54780000009792" lon="6.8289166711151745" id="-36734">
		<tag k="name" v="Nautastodhaugane" />
		<tag k="natural" v="hill" />
		<tag k="place" v="locality" />
		<tag k="ssr:stedsnr" v="584631" />
	</node>
	<node lat="60.61324444668254" lon="6.969424998440226" id="-36735">
		<tag k="fixme" v="consider natural=peak for the most distinct mountains in the district" />
		<tag k="name" v="Nedre Sveigsfjellet" />
		<tag k="natural" v="hill" />
		<tag k="place" v="locality" />
		<tag k="ssr:stedsnr" v="584646" />
	</node>
	<node lat="60.67459166793132" lon="7.2062972197411534" id="-36736">
		<tag k="name" v="Øvra Grøndalselvi" />
		<tag k="ssr:stedsnr" v="584652" />
		<tag k="waterway" v="river" />
	</node>
	<node lat="60.60740555647384" lon="6.913686111048996" id="-36737">
		<tag k="name" v="Storebakkane" />
		<tag k="natural" v="slope" />
		<tag k="place" v="locality" />
		<tag k="ssr:stedsnr" v="584990" />
	</node>
	<node lat="60.69482222265823" lon="7.203147216591914" id="-36738">
		<tag k="name" v="Grøndalselvi" />
		<tag k="ssr:stedsnr" v="584999" />
		<tag k="waterway" v="river" />
	</node>
	<node lat="60.54868889071802" lon="6.910877782445063" id="-36739">
		<tag k="bridge" v="yes" />
		<tag k="layer" v="1" />
		<tag k="name" v="Frøystein" />
		<tag k="ssr:stedsnr" v="592855" />
	</node>
	<node lat="60.55901111415662" lon="6.968477777407985" id="-36740">
		<tag k="name" v="Øydvenstod" />
		<tag k="place" v="farm" />
		<tag k="ssr:stedsnr" v="612165" />
	</node>
	<node lat="60.68615000312649" lon="7.1755055498207305" id="-36741">
		<tag k="alt_name" v="Broksfjellet, litle" />
		<tag k="fixme" v="consider natural=peak for the most distinct mountains in the district" />
		<tag k="name" v="Litle Broksfjellet" />
		<tag k="natural" v="hill" />
		<tag k="place" v="locality" />
		<tag k="ssr:stedsnr" v="613111" />
	</node>
	<node lat="60.709172220842895" lon="6.984561106277379" id="-36742">
		<tag k="historic" v="shieling" />
		<tag k="name" v="Langvasstølen" />
		<tag k="place" v="isolated_dwelling" />
		<tag k="ssr:stedsnr" v="613115" />
	</node>
	<node lat="60.7159077819284" lon="6.998244022019562" id="-36743">
		<tag k="name" v="Rundavatnet" />
		<tag k="natural" v="water" />
		<tag k="ssr:stedsnr" v="613120" />
	</node>
	<node lat="60.60879166999926" lon="7.239827781735606" id="-36744">
		<tag k="fixme" v="consider natural=peak for the most distinct mountains in the district" />
		<tag k="name" v="Grjotrusti" />
		<tag k="natural" v="hill" />
		<tag k="place" v="locality" />
		<tag k="ssr:stedsnr" v="613162" />
	</node>
	<node lat="60.60005832979085" lon="6.998911114593915" id="-36745">
		<tag k="historic" v="shieling" />
		<tag k="name" v="Olstølen" />
		<tag k="place" v="isolated_dwelling" />
		<tag k="ssr:stedsnr" v="613167" />
	</node>
	<node lat="60.55502500307165" lon="7.631624990908958" id="-36746">
		<tag k="historic" v="shieling" />
		<tag k="name" v="Storuri" />
		<tag k="place" v="isolated_dwelling" />
		<tag k="ssr:stedsnr" v="613306" />
	</node>
	<node lat="60.5735500015774" lon="7.569127781259296" id="-36747">
		<tag k="historic" v="shieling" />
		<tag k="name" v="Hansbu" />
		<tag k="place" v="isolated_dwelling" />
		<tag k="ssr:stedsnr" v="613311" />
	</node>
	<node lat="60.57970277991681" lon="7.524650008991416" id="-36748">
		<tag k="name" v="Finsefetene" />
		<tag k="natural" v="valley" />
		<tag k="place" v="locality" />
		<tag k="ssr:stedsnr" v="613315" />
	</node>
	<node lat="60.58182500044885" lon="6.88904166780525" id="-36749">
		<tag k="fixme" v="consider place=hamlet" />
		<tag k="name" v="Aurdal" />
		<tag k="place" v="farm" />
		<tag k="ssr:stedsnr" v="613811" />
	</node>
	<node lat="60.58655000276494" lon="6.8251027838743" id="-36750">
		<tag k="name" v="Lysegili" />
		<tag k="natural" v="gorge" />
		<tag k="ssr:stedsnr" v="613831" />
	</node>
	<node lat="60.56856829502281" lon="6.832107262161562" id="-36751">
		<tag k="fixme" v="consider natural=peak for the most distinct mountains in the district" />
		<tag k="name" v="Kvasshovden" />
		<tag k="natural" v="hill" />
		<tag k="place" v="locality" />
		<tag k="ssr:stedsnr" v="613851" />
	</node>
	<node lat="60.57610278041275" lon="6.838600008700778" id="-36752">
		<tag k="fixme" v="consider natural=peak for the most distinct mountains in the district" />
		<tag k="name" v="Ovnen" />
		<tag k="natural" v="hill" />
		<tag k="place" v="locality" />
		<tag k="ssr:stedsnr" v="613872" />
	</node>
	<node lat="60.62739444089393" lon="6.8927583279574645" id="-36753">
		<tag k="historic" v="shieling" />
		<tag k="name" v="Tyssedalsstølen" />
		<tag k="place" v="isolated_dwelling" />
		<tag k="ssr:stedsnr" v="613903" />
	</node>
	<node lat="60.59594444012619" lon="6.875536103333635" id="-36754">
		<tag k="historic" v="shieling" />
		<tag k="name" v="Sotenos" />
		<tag k="place" v="isolated_dwelling" />
		<tag k="ssr:stedsnr" v="613913" />
	</node>
	<node lat="60.63246904261891" lon="6.851448474601957" id="-36755">
		<tag k="fixme" v="consider natural=peak for the most distinct mountains in the district" />
		<tag k="name" v="Fessanuten" />
		<tag k="natural" v="hill" />
		<tag k="place" v="locality" />
		<tag k="ssr:stedsnr" v="614896" />
	</node>
	<node lat="60.15263055252675" lon="7.054586106220489" id="-36756">
		<tag k="name" v="Vestre Hardangervidda" />
		<tag k="natural" v="plateau" />
		<tag k="ssr:stedsnr" v="632440" />
	</node>
	<node lat="60.60113611460179" lon="7.5272111189571085" id="-36757">
		<tag k="name" v="Torbjørnstølsbekken" />
		<tag k="ssr:stedsnr" v="705967" />
		<tag k="waterway" v="stream" />
	</node>
	<node lat="60.588566667309536" lon="6.952752784264326" id="-36758">
		<tag k="name" v="Espeskorane" />
		<tag k="place" v="locality" />
		<tag k="ssr:stedsnr" v="706486" />
	</node>
	<node lat="60.5988833311551" lon="6.9790555545749475" id="-36759">
		<tag k="name" v="Bytesdalen" />
		<tag k="natural" v="valley" />
		<tag k="place" v="locality" />
		<tag k="ssr:stedsnr" v="706495" />
	</node>
	<node lat="60.57929166508395" lon="6.888297221887753" id="-36760">
		<tag k="alt_name" v="Søyleva" />
		<tag k="ford" v="yes" />
		<tag k="name" v="Søylevad" />
		<tag k="place" v="locality" />
		<tag k="ssr:stedsnr" v="644925" />
	</node>
	<node lat="60.60278611234343" lon="7.5554027812612246" id="-36761">
		<tag k="name" v="Larsbudalen" />
		<tag k="natural" v="valley" />
		<tag k="place" v="locality" />
		<tag k="ssr:stedsnr" v="644975" />
	</node>
	<node lat="60.60629722256463" lon="6.9012750034109365" id="-36762">
		<tag k="name" v="Kornolskora" />
		<tag k="place" v="locality" />
		<tag k="ssr:stedsnr" v="644997" />
	</node>
	<node lat="60.578041665370755" lon="6.891611102216035" id="-36763">
		<tag k="name" v="Verafossen" />
		<tag k="natural" v="waterfall" />
		<tag k="ssr:stedsnr" v="706537" />
	</node>
	<node lat="60.57498333506879" lon="6.979108337376915" id="-36764">
		<tag k="name" v="Hamrane" />
		<tag k="natural" v="hill" />
		<tag k="place" v="locality" />
		<tag k="ssr:stedsnr" v="706547" />
	</node>
	<node lat="60.57060000408118" lon="6.952672216606252" id="-36765">
		<tag k="junction" v="yes" />
		<tag k="name" v="Vegaskil" />
		<tag k="place" v="locality" />
		<tag k="ssr:stedsnr" v="706554" />
	</node>
	<node lat="60.57253889016934" lon="6.952547230073831" id="-36766">
		<tag k="fixme" v="consider place=hamlet" />
		<tag k="name" v="Nedre Lekve" />
		<tag k="place" v="farm" />
		<tag k="ssr:stedsnr" v="706555" />
	</node>
	<node lat="60.59527500155037" lon="6.908647219436699" id="-36767">
		<tag k="name" v="Vasslii" />
		<tag k="natural" v="slope" />
		<tag k="place" v="locality" />
		<tag k="ssr:stedsnr" v="645490" />
	</node>
	<node lat="60.59218333562007" lon="6.8192888910574165" id="-36768">
		<tag k="name" v="Oldernes" />
		<tag k="natural" v="cape" />
		<tag k="ssr:stedsnr" v="645577" />
	</node>
	<node lat="60.598891664704745" lon="6.8554249985564555" id="-36769">
		<tag k="name" v="Idleskorane" />
		<tag k="place" v="locality" />
		<tag k="ssr:stedsnr" v="645578" />
	</node>
	<node lat="60.53907777615635" lon="6.846677776472288" id="-36770">
		<tag k="name" v="Storhaugane" />
		<tag k="natural" v="hill" />
		<tag k="place" v="locality" />
		<tag k="ssr:stedsnr" v="645584" />
	</node>
	<node lat="60.60806388705391" lon="6.910191663516952" id="-36771">
		<tag k="name" v="Kyrmysseberget" />
		<tag k="natural" v="hill" />
		<tag k="place" v="locality" />
		<tag k="ssr:stedsnr" v="645973" />
	</node>
	<node lat="60.583374999411966" lon="7.055352774690366" id="-36772">
		<tag k="name" v="Austdølo" />
		<tag k="ssr:stedsnr" v="645982" />
		<tag k="waterway" v="river" />
	</node>
	<node lat="60.49886110879656" lon="6.896811104326402" id="-36773">
		<tag k="name" v="Sandviki" />
		<tag k="place" v="locality" />
		<tag k="ssr:stedsnr" v="650386" />
	</node>
	<node lat="60.57152222612932" lon="6.898022229537741" id="-36774">
		<tag k="name" v="Bergabekken" />
		<tag k="ssr:stedsnr" v="665235" />
		<tag k="waterway" v="stream" />
	</node>
	<node lat="60.54010277721581" lon="7.151155546528338" id="-36775">
		<tag k="name" v="Gruvlenuten" />
		<tag k="natural" v="hill" />
		<tag k="place" v="locality" />
		<tag k="ssr:stedsnr" v="673163" />
	</node>
	<node lat="60.50013888534946" lon="6.921836116004262" id="-36776">
		<tag k="name" v="Brunnen" />
		<tag k="place" v="farm" />
		<tag k="ssr:stedsnr" v="674011" />
	</node>
	<node lat="60.52167499981786" lon="6.89364999377328" id="-36777">
		<tag k="name" v="Rundenuten" />
		<tag k="natural" v="hill" />
		<tag k="place" v="locality" />
		<tag k="ssr:stedsnr" v="674029" />
	</node>
	<node lat="60.652474999658594" lon="6.99591665869724" id="-36778">
		<tag k="name" v="Kvannjolvatnet" />
		<tag k="natural" v="water" />
		<tag k="ssr:stedsnr" v="674103" />
		<tag k="water" v="lake" />
	</node>
	<node lat="60.66137894548609" lon="7.032405160906177" id="-36779">
		<tag k="name" v="Fløyelsvatni" />
		<tag k="natural" v="water" />
		<tag k="ssr:stedsnr" v="674106" />
		<tag k="water" v="lake" />
	</node>
	<node lat="60.710625003957276" lon="6.9940249956841924" id="-36780">
		<tag k="alt_name" v="Dalsete" />
		<tag k="historic" v="shieling" />
		<tag k="name" v="Dalen" />
		<tag k="place" v="isolated_dwelling" />
		<tag k="ssr:stedsnr" v="674115" />
	</node>
	<node lat="60.587802776947676" lon="6.993777780599034" id="-36781">
		<tag k="alt_name" v="Hiaskorane" />
		<tag k="name" v="Hiaskorene" />
		<tag k="place" v="locality" />
		<tag k="ssr:stedsnr" v="674182" />
	</node>
	<node lat="60.65987500407516" lon="7.438994451981641" id="-36782">
		<tag k="fixme" v="consider natural=peak for the most distinct mountains in the district" />
		<tag k="name" v="Såta" />
		<tag k="natural" v="hill" />
		<tag k="place" v="locality" />
		<tag k="ssr:stedsnr" v="674187" />
	</node>
	<node lat="60.543683329250555" lon="6.870774991888484" id="-36783">
		<tag k="historic" v="shieling" />
		<tag k="name" v="Sjusete" />
		<tag k="place" v="isolated_dwelling" />
		<tag k="ssr:stedsnr" v="674803" />
	</node>
	<node lat="60.59562500034964" lon="6.886919436694913" id="-36784">
		<tag k="name" v="Tjørnåni" />
		<tag k="ssr:stedsnr" v="674904" />
		<tag k="waterway" v="river" />
	</node>
	<node lat="60.701852776046486" lon="6.946497219925106" id="-36785">
		<tag k="name" v="Ørnaberget" />
		<tag k="natural" v="hill" />
		<tag k="place" v="locality" />
		<tag k="ssr:stedsnr" v="674960" />
	</node>
	<node lat="60.67440832945844" lon="6.962236116893781" id="-36786">
		<tag k="name" v="Bruåni" />
		<tag k="ssr:stedsnr" v="674997" />
		<tag k="waterway" v="river" />
	</node>
	<node lat="60.50597777554477" lon="6.852269443958747" id="-36787">
		<tag k="fixme" v="consider natural=peak for the most distinct mountains in the district" />
		<tag k="name" v="Grimsnuten" />
		<tag k="natural" v="hill" />
		<tag k="place" v="locality" />
		<tag k="ssr:stedsnr" v="674868" />
	</node>
	<node lat="60.59311111275878" lon="6.866352779725639" id="-36788">
		<tag k="name" v="Espelandselvi" />
		<tag k="ssr:stedsnr" v="674900" />
		<tag k="waterway" v="river" />
	</node>
	<node lat="60.54825555739009" lon="6.926469438362415" id="-36789">
		<tag k="name" v="Hadleviki" />
		<tag k="natural" v="bay" />
		<tag k="old_name" v="Hadlevik" />
		<tag k="ssr:stedsnr" v="893437" />
	</node>
	<node lat="60.58768055601571" lon="7.029477771591548" id="-36790">
		<tag k="name" v="Storøyi" />
		<tag k="place" v="locality" />
		<tag k="ssr:stedsnr" v="893822" />
	</node>
	<node lat="60.57558055788615" lon="6.846511106493356" id="-36791">
		<tag k="name" v="Aurdalskleppe" />
		<tag k="natural" v="hill" />
		<tag k="place" v="locality" />
		<tag k="ssr:stedsnr" v="705937" />
	</node>
	<node lat="60.54705000159794" lon="6.981241667252309" id="-36792">
		<tag k="name" v="Klungerskorane" />
		<tag k="place" v="locality" />
		<tag k="ssr:stedsnr" v="705941" />
	</node>
	<node lat="60.58868611267599" lon="7.013794444685571" id="-36793">
		<tag k="name" v="Storskor" />
		<tag k="place" v="locality" />
		<tag k="ssr:stedsnr" v="705942" />
	</node>
	<node lat="60.54858055127102" lon="6.884977775244011" id="-36794">
		<tag k="name" v="Skjevlamyr" />
		<tag k="natural" v="wetland" />
		<tag k="ssr:stedsnr" v="706467" />
	</node>
	<node lat="60.549219447189614" lon="6.876866673601239" id="-36795">
		<tag k="name" v="Rugamyr" />
		<tag k="natural" v="wetland" />
		<tag k="ssr:stedsnr" v="706468" />
	</node>
	<node lat="60.484900002557104" lon="6.878150000376646" id="-36796">
		<tag k="alt_name" v="Kaganes" />
		<tag k="name" v="Kagganeset" />
		<tag k="natural" v="cape" />
		<tag k="ssr:stedsnr" v="706508" />
	</node>
	<node lat="60.535744441873526" lon="6.921613885223737" id="-36797">
		<tag k="name" v="Grimmedalen" />
		<tag k="natural" v="valley" />
		<tag k="place" v="locality" />
		<tag k="ssr:stedsnr" v="706514" />
	</node>
	<node lat="60.53919167121255" lon="6.888027784920461" id="-36798">
		<tag k="name" v="Klovstein" />
		<tag k="natural" v="stone" />
		<tag k="ssr:stedsnr" v="706516" />
	</node>
	<node lat="60.5076472238545" lon="6.88508334044396" id="-36799">
		<tag k="name" v="Storehjallen" />
		<tag k="place" v="locality" />
		<tag k="ssr:stedsnr" v="706518" />
	</node>
	<node lat="60.5082805586656" lon="6.903383331384247" id="-36800">
		<tag k="name" v="Teigane" />
		<tag k="natural" v="hill" />
		<tag k="place" v="locality" />
		<tag k="ssr:stedsnr" v="706523" />
	</node>
	<node lat="60.54355833686593" lon="6.828036111110977" id="-36801">
		<tag k="name" v="Streiteliæ" />
		<tag k="natural" v="slope" />
		<tag k="place" v="locality" />
		<tag k="ssr:stedsnr" v="706572" />
	</node>
	<node lat="60.581027774756215" lon="7.026574997013843" id="-36802">
		<tag k="name" v="Krossen" />
		<tag k="natural" v="cape" />
		<tag k="ssr:stedsnr" v="706973" />
	</node>
	<node lat="60.58995277831206" lon="7.030180563733884" id="-36803">
		<tag k="bridge" v="yes" />
		<tag k="layer" v="1" />
		<tag k="name" v="Osa" />
		<tag k="ssr:stedsnr" v="714792" />
	</node>
	<node lat="60.57458888740726" lon="6.997236112494237" id="-36804">
		<tag k="bridge" v="yes" />
		<tag k="layer" v="1" />
		<tag k="name" v="Melnes" />
		<tag k="ssr:stedsnr" v="714797" />
	</node>
	<node lat="60.570049998963015" lon="6.953477779804768" id="-36805">
		<tag k="bridge" v="yes" />
		<tag k="layer" v="1" />
		<tag k="name" v="Gauro" />
		<tag k="ssr:stedsnr" v="714799" />
	</node>
	<node lat="60.56915555915532" lon="7.135772228257472" id="-36806">
		<tag k="name" v="Gjerdanuten" />
		<tag k="natural" v="hill" />
		<tag k="old_name" v="Gerdanuten" />
		<tag k="place" v="locality" />
		<tag k="ssr:stedsnr" v="734185" />
	</node>
	<node lat="60.56755833125164" lon="7.122399999061094" id="-36807">
		<tag k="name" v="Lakjen" />
		<tag k="natural" v="bay" />
		<tag k="ssr:stedsnr" v="734186" />
	</node>
	<node lat="60.56554936867848" lon="7.114416709244845" id="-36808">
		<tag k="name" v="Grasbotntjørni" />
		<tag k="natural" v="water" />
		<tag k="ssr:stedsnr" v="734188" />
	</node>
	<node lat="60.57133333563746" lon="7.192783332144607" id="-36809">
		<tag k="name" v="Reipstjørnane" />
		<tag k="natural" v="water" />
		<tag k="ssr:stedsnr" v="734190" />
		<tag k="water" v="lake" />
	</node>
	<node lat="60.627075002824476" lon="6.948094444711975" id="-36810">
		<tag k="fixme" v="consider natural=peak for the most distinct mountains in the district" />
		<tag k="name" v="Sveigsfjellet" />
		<tag k="natural" v="hill" />
		<tag k="place" v="locality" />
		<tag k="ssr:stedsnr" v="734897" />
	</node>
	<node lat="60.502630553190336" lon="6.830744450856443" id="-36811">
		<tag k="name" v="Disk" />
		<tag k="natural" v="ridge" />
		<tag k="place" v="locality" />
		<tag k="ssr:stedsnr" v="735016" />
	</node>
	<node lat="60.50908333080222" lon="6.936288893760434" id="-36812">
		<tag k="alt_name" v="Bolstad, indre;Bolstad" />
		<tag k="name" v="Indre Bolstad" />
		<tag k="place" v="farm" />
		<tag k="ssr:stedsnr" v="735018" />
	</node>
	<node lat="60.600806748575266" lon="6.94467240509782" id="-36813">
		<tag k="historic" v="shieling" />
		<tag k="name" v="Solsæ" />
		<tag k="place" v="isolated_dwelling" />
		<tag k="ssr:stedsnr" v="734937" />
	</node>
	<node lat="60.72512499931185" lon="7.205899991298421" id="-36814">
		<tag k="fixme" v="multiple name tags, choose one and add the other to alt_name" />
		<tag k="loc_name" v="Moldo;Molda" />
		<tag k="name" v="Moldåna;Moldåni" />
		<tag k="ssr:stedsnr" v="735104" />
		<tag k="waterway" v="river" />
	</node>
	<node lat="60.66204162583754" lon="7.186503131974847" id="-36815">
		<tag k="name" v="Dørmålsvatnet" />
		<tag k="natural" v="water" />
		<tag k="ssr:stedsnr" v="735078" />
	</node>
	<node lat="60.65713968331546" lon="7.116517167934107" id="-36816">
		<tag k="name" v="Nordrevatni" />
		<tag k="natural" v="water" />
		<tag k="ssr:stedsnr" v="735081" />
		<tag k="water" v="lake" />
	</node>
	<node lat="60.64602500394773" lon="7.005483339629815" id="-36817">
		<tag k="fixme" v="consider natural=peak for the most distinct mountains in the district" />
		<tag k="name" v="Reinskarnuten" />
		<tag k="natural" v="hill" />
		<tag k="place" v="locality" />
		<tag k="ssr:stedsnr" v="735089" />
	</node>
	<node lat="60.66816389223245" lon="7.086644438056682" id="-36818">
		<tag k="name" v="Ruvlenutvatnet" />
		<tag k="natural" v="water" />
		<tag k="ssr:stedsnr" v="735094" />
		<tag k="water" v="lake" />
	</node>
	<node lat="60.55660000394822" lon="7.563075005680296" id="-36819">
		<tag k="fixme" v="consider natural=peak for the most distinct mountains in the district" />
		<tag k="name" v="Store Hansbunuten" />
		<tag k="natural" v="hill" />
		<tag k="place" v="locality" />
		<tag k="ssr:stedsnr" v="735305" />
	</node>
	<node lat="60.57165278158026" lon="7.547041663183569" id="-36820">
		<tag k="name" v="Hansbudalen" />
		<tag k="natural" v="valley" />
		<tag k="place" v="locality" />
		<tag k="ssr:stedsnr" v="735311" />
	</node>
	<node lat="60.5411944401898" lon="6.893877784513883" id="-36821">
		<tag k="name" v="Frystebekken" />
		<tag k="ssr:stedsnr" v="735780" />
		<tag k="waterway" v="stream" />
	</node>
	<node lat="60.63418425278319" lon="6.885223507961794" id="-36822">
		<tag k="name" v="Fessavatnet" />
		<tag k="natural" v="water" />
		<tag k="ssr:stedsnr" v="735893" />
		<tag k="water" v="lake" />
	</node>
	<node lat="60.652898638180844" lon="6.931692992507335" id="-36823">
		<tag k="name" v="Gommahaugen" />
		<tag k="natural" v="hill" />
		<tag k="place" v="locality" />
		<tag k="ssr:stedsnr" v="735980" />
	</node>
	<node lat="60.601622224673996" lon="6.848927778292915" id="-36824">
		<tag k="name" v="Kvannskorane" />
		<tag k="place" v="locality" />
		<tag k="ssr:stedsnr" v="748468" />
	</node>
	<node lat="60.530427778344894" lon="6.968430555869572" id="-36825">
		<tag k="name" v="Trømmi" />
		<tag k="place" v="locality" />
		<tag k="ssr:stedsnr" v="765960" />
	</node>
	<node lat="60.49299167098037" lon="6.85916666210268" id="-36826">
		<tag k="name" v="Messekleiv" />
		<tag k="place" v="farm" />
		<tag k="ssr:stedsnr" v="766513" />
	</node>
	<node lat="60.48770277693485" lon="6.811080549210011" id="-36827">
		<tag k="historic" v="shieling" />
		<tag k="name" v="Furesete" />
		<tag k="place" v="isolated_dwelling" />
		<tag k="ssr:stedsnr" v="766515" />
	</node>
	<node lat="60.55789444231974" lon="6.875555551117977" id="-36828">
		<tag k="name" v="Sponheimshagen" />
		<tag k="place" v="locality" />
		<tag k="ssr:stedsnr" v="766520" />
	</node>
	<node lat="60.55006389140694" lon="6.931749994669201" id="-36829">
		<tag k="name" v="Sjodalen" />
		<tag k="natural" v="valley" />
		<tag k="place" v="locality" />
		<tag k="ssr:stedsnr" v="766604" />
	</node>
	<node lat="60.55473055127534" lon="6.947861118273696" id="-36830">
		<tag k="name" v="Hjemlamyrshaugen" />
		<tag k="natural" v="hill" />
		<tag k="place" v="locality" />
		<tag k="ssr:stedsnr" v="766608" />
	</node>
	<node lat="60.582386113746146" lon="6.954225003239225" id="-36831">
		<tag k="name" v="Sysegili" />
		<tag k="natural" v="gorge" />
		<tag k="ssr:stedsnr" v="766611" />
	</node>
	<node lat="60.47770538767126" lon="6.804887906348123" id="-36832">
		<tag k="name" v="Haukagjelsneset" />
		<tag k="natural" v="cape" />
		<tag k="ssr:stedsnr" v="766988" />
	</node>
	<node lat="60.58784167069649" lon="7.061166663740213" id="-36833">
		<tag k="name" v="Renneskor" />
		<tag k="place" v="locality" />
		<tag k="ssr:stedsnr" v="766989" />
	</node>
	<node lat="60.57193610713595" lon="6.91463056446444" id="-36834">
		<tag k="name" v="Slettarebekken" />
		<tag k="ssr:stedsnr" v="767614" />
		<tag k="waterway" v="stream" />
	</node>
	<node lat="60.564866667611355" lon="6.933013881370048" id="-36836">
		<tag k="name" v="Dammen" />
		<tag k="place" v="isolated_dwelling" />
		<tag k="ssr:stedsnr" v="772819" />
	</node>
	<node lat="60.56458611446871" lon="6.9073749982556" id="-36837">
		<tag k="bridge" v="yes" />
		<tag k="layer" v="1" />
		<tag k="name" v="Vambheim" />
		<tag k="ssr:stedsnr" v="775812" />
	</node>
	<node lat="60.52461666816704" lon="6.9976638896379555" id="-36838">
		<tag k="fixme" v="consider natural=peak for the most distinct mountains in the district" />
		<tag k="name" v="Vardahaugen" />
		<tag k="natural" v="hill" />
		<tag k="place" v="locality" />
		<tag k="ssr:stedsnr" v="795168" />
	</node>
	<node lat="60.564991670858355" lon="7.024488894663756" id="-36839">
		<tag k="fixme" v="consider natural=peak for the most distinct mountains in the district" />
		<tag k="name" v="Balåfjellet" />
		<tag k="natural" v="hill" />
		<tag k="place" v="locality" />
		<tag k="ssr:stedsnr" v="795209" />
	</node>
	<node lat="60.61757499995317" lon="7.0538583285643925" id="-36840">
		<tag k="name" v="Storhaug" />
		<tag k="natural" v="hill" />
		<tag k="place" v="locality" />
		<tag k="ssr:stedsnr" v="796069" />
	</node>
	<node lat="60.58880000177705" lon="7.583899993519744" id="-36841">
		<tag k="name" v="Tverråni" />
		<tag k="ssr:stedsnr" v="796273" />
		<tag k="waterway" v="stream" />
	</node>
	<node lat="60.59215000380876" lon="7.541225001101781" id="-36842">
		<tag k="name" v="Finsefeti" />
		<tag k="place" v="isolated_dwelling" />
		<tag k="ssr:stedsnr" v="796277" />
	</node>
	<node lat="60.59612500288131" lon="7.467849992976492" id="-36843">
		<tag k="name" v="Norenut" />
		<tag k="place" v="isolated_dwelling" />
		<tag k="ssr:stedsnr" v="796280" />
	</node>
	<node lat="60.660719447068495" lon="6.967313885068144" id="-36844">
		<tag k="loc_name" v="Kvannjola" />
		<tag k="name" v="Kvanngjolo" />
		<tag k="ssr:stedsnr" v="796971" />
		<tag k="waterway" v="river" />
	</node>
	<node lat="60.49616944847465" lon="6.933433330912572" id="-36845">
		<tag k="fixme" v="consider natural=peak for the most distinct mountains in the district" />
		<tag k="name" v="Trommi" />
		<tag k="natural" v="hill" />
		<tag k="place" v="locality" />
		<tag k="ssr:stedsnr" v="915392" />
	</node>
	<node lat="60.50135000032562" lon="6.786374998703311" id="-36846">
		<tag k="name" v="Stokkseldalen" />
		<tag k="natural" v="valley" />
		<tag k="place" v="locality" />
		<tag k="ssr:stedsnr" v="917023" />
	</node>
	<node lat="60.52578055819903" lon="6.854311108994869" id="-36847">
		<tag k="name" v="Kræmaren" />
		<tag k="ssr:stedsnr" v="917039" />
		<tag k="waterway" v="stream" />
	</node>
	<node lat="60.60892500442982" lon="7.016000007493652" id="-36848">
		<tag k="fixme" v="consider natural=peak for the most distinct mountains in the district" />
		<tag k="name" v="Herbergsryggen" />
		<tag k="natural" v="hill" />
		<tag k="place" v="locality" />
		<tag k="ssr:stedsnr" v="917056" />
	</node>
	<node lat="60.58914166279938" lon="7.035433336557006" id="-36849">
		<tag k="fixme" v="consider place=hamlet" />
		<tag k="name" v="Osa" />
		<tag k="place" v="village" />
		<tag k="ssr:stedsnr" v="917147" />
	</node>
	<node lat="60.61021388509852" lon="6.9258499953762405" id="-36850">
		<tag k="name" v="Skorelvi" />
		<tag k="ssr:stedsnr" v="916900" />
		<tag k="waterway" v="river" />
	</node>
	<node lat="60.69233070145367" lon="7.078060418658716" id="-36851">
		<tag k="name" v="Kaldavatni" />
		<tag k="natural" v="water" />
		<tag k="ssr:stedsnr" v="917086" />
		<tag k="water" v="lake" />
	</node>
	<node lat="60.689158334510545" lon="7.222900005433741" id="-36852">
		<tag k="name" v="Grøndal" />
		<tag k="place" v="isolated_dwelling" />
		<tag k="ssr:stedsnr" v="917089" />
	</node>
	<node lat="60.61603824695301" lon="7.379899084267535" id="-36853">
		<tag k="name" v="Fagervatnet" />
		<tag k="natural" v="water" />
		<tag k="ssr:stedsnr" v="917163" />
		<tag k="water" v="lake" />
	</node>
	<node lat="60.5710249993808" lon="7.573925007821738" id="-36854">
		<tag k="name" v="Kongsnut" />
		<tag k="place" v="isolated_dwelling" />
		<tag k="ssr:stedsnr" v="917276" />
	</node>
	<node lat="60.535744448114066" lon="6.813194437762813" id="-36855">
		<tag k="name" v="Snaueggi" />
		<tag k="natural" v="ridge" />
		<tag k="place" v="locality" />
		<tag k="ssr:stedsnr" v="917782" />
	</node>
	<node lat="60.63432777852907" lon="6.94021112005324" id="-36856">
		<tag k="name" v="Såtaskavlen" />
		<tag k="natural" v="glacier" />
		<tag k="ssr:stedsnr" v="917888" />
	</node>
	<node lat="60.51677777609538" lon="6.850913890079683" id="-36857">
		<tag k="name" v="Javnanuten" />
		<tag k="natural" v="hill" />
		<tag k="place" v="locality" />
		<tag k="ssr:stedsnr" v="810108" />
	</node>
	<node lat="60.68082500174284" lon="6.8383000067033235" id="-36858">
		<tag k="name" v="Veseto" />
		<tag k="ssr:stedsnr" v="917989" />
		<tag k="waterway" v="river" />
	</node>
	<node lat="60.61014167086351" lon="6.960988885048025" id="-36859">
		<tag k="name" v="Illeskorane" />
		<tag k="place" v="locality" />
		<tag k="ssr:stedsnr" v="826953" />
	</node>
	<node lat="60.592572224332834" lon="6.956138890089369" id="-36860">
		<tag k="name" v="Varane" />
		<tag k="natural" v="hill" />
		<tag k="place" v="locality" />
		<tag k="ssr:stedsnr" v="827584" />
	</node>
	<node lat="60.557072220989276" lon="7.6240694434720595" id="-36861">
		<tag k="name" v="Storuri" />
		<tag k="natural" v="scree" />
		<tag k="ssr:stedsnr" v="827964" />
	</node>
	<node lat="60.592424996131" lon="7.559663888047371" id="-36862">
		<tag k="name" v="Larsbuelvi" />
		<tag k="ssr:stedsnr" v="827974" />
		<tag k="waterway" v="river" />
	</node>
	<node lat="60.55469722191666" lon="6.995647227952973" id="-36863">
		<tag k="name" v="Vetlaskreo" />
		<tag k="natural" v="gorge" />
		<tag k="ssr:stedsnr" v="827975" />
	</node>
	<node lat="60.560499995908486" lon="6.996755555389747" id="-36864">
		<tag k="alt_name" v="Mjølstølen" />
		<tag k="historic" v="shieling" />
		<tag k="name" v="Mjøstølen" />
		<tag k="place" v="isolated_dwelling" />
		<tag k="ssr:stedsnr" v="827977" />
	</node>
	<node lat="60.55180277560121" lon="6.954344444983037" id="-36865">
		<tag k="name" v="Brunena" />
		<tag k="natural" v="hill" />
		<tag k="place" v="locality" />
		<tag k="ssr:stedsnr" v="828541" />
	</node>
	<node lat="60.54705277916218" lon="6.945536115603763" id="-36866">
		<tag k="name" v="Drivbekken" />
		<tag k="ssr:stedsnr" v="828542" />
		<tag k="waterway" v="stream" />
	</node>
	<node lat="60.70139999834987" lon="6.978069450151377" id="-36867">
		<tag k="name" v="Dalabrekkena" />
		<tag k="natural" v="slope" />
		<tag k="place" v="locality" />
		<tag k="ssr:stedsnr" v="828562" />
	</node>
	<node lat="60.56315278138929" lon="6.977130561948405" id="-36868">
		<tag k="name" v="Røykjanes" />
		<tag k="natural" v="cape" />
		<tag k="ssr:stedsnr" v="833466" />
	</node>
	<node lat="60.49137778111671" lon="6.875358341100855" id="-36869">
		<tag k="name" v="Storhaug" />
		<tag k="natural" v="hill" />
		<tag k="place" v="locality" />
		<tag k="ssr:stedsnr" v="855400" />
	</node>
	<node lat="60.70580278151649" lon="6.994099992169517" id="-36870">
		<tag k="loc_name" v="Uppsetedalen" />
		<tag k="name" v="Uppsetdalen" />
		<tag k="natural" v="valley" />
		<tag k="place" v="locality" />
		<tag k="ssr:stedsnr" v="856113" />
	</node>
	<node lat="60.59263611097948" lon="6.971194448444739" id="-36871">
		<tag k="historic" v="shieling" />
		<tag k="name" v="Jonstølen" />
		<tag k="place" v="isolated_dwelling" />
		<tag k="ssr:stedsnr" v="856184" />
	</node>
	<node lat="60.5944194438114" lon="7.0383777800983" id="-36872">
		<tag k="name" v="Haugen" />
		<tag k="place" v="farm" />
		<tag k="ssr:stedsnr" v="856193" />
	</node>
	<node lat="60.50689444139393" lon="6.965447214176154" id="-36873">
		<tag k="fixme" v="consider natural=peak for the most distinct mountains in the district" />
		<tag k="name" v="Slettafjell" />
		<tag k="natural" v="hill" />
		<tag k="place" v="locality" />
		<tag k="ssr:stedsnr" v="856018" />
	</node>
	<node lat="60.72522222588357" lon="6.961972218686587" id="-36874">
		<tag k="name" v="Eilivseggi" />
		<tag k="natural" v="ridge" />
		<tag k="place" v="locality" />
		<tag k="ssr:stedsnr" v="856599" />
	</node>
	<node lat="60.560186108845244" lon="6.897513881763395" id="-36875">
		<tag k="name" v="Gjerdet" />
		<tag k="place" v="farm" />
		<tag k="ssr:stedsnr" v="856783" />
	</node>
	<node lat="60.55320833119975" lon="6.812091664516929" id="-36876">
		<tag k="name" v="Bekkjadalen" />
		<tag k="natural" v="valley" />
		<tag k="place" v="locality" />
		<tag k="ssr:stedsnr" v="856787" />
	</node>
	<node lat="60.60992222067838" lon="6.852563887533029" id="-36877">
		<tag k="name" v="Sotebotnen" />
		<tag k="natural" v="valley" />
		<tag k="place" v="locality" />
		<tag k="ssr:stedsnr" v="856908" />
	</node>
	<node lat="60.52101666461459" lon="6.838444441462843" id="-36878">
		<tag k="name" v="Ilagselvi" />
		<tag k="ssr:stedsnr" v="857036" />
		<tag k="waterway" v="river" />
	</node>
	<node lat="60.535247226145046" lon="6.934991671559847" id="-36879">
		<tag k="name" v="Friarehaugviki" />
		<tag k="natural" v="bay" />
		<tag k="ssr:stedsnr" v="857048" />
	</node>
	<node lat="60.52806667081351" lon="6.837955553003455" id="-36880">
		<tag k="name" v="Myrdalselvi" />
		<tag k="ssr:stedsnr" v="857049" />
		<tag k="waterway" v="river" />
	</node>
	<node lat="60.52917499902009" lon="6.870999996761523" id="-36881">
		<tag k="name" v="Eitro" />
		<tag k="ssr:stedsnr" v="857050" />
		<tag k="waterway" v="stream" />
	</node>
	<node lat="60.66414167111508" lon="7.144880553856196" id="-36882">
		<tag k="fixme" v="consider natural=peak for the most distinct mountains in the district" />
		<tag k="name" v="Storrjuven" />
		<tag k="natural" v="hill" />
		<tag k="place" v="locality" />
		<tag k="ssr:stedsnr" v="857106" />
	</node>
	<node lat="60.60599999798547" lon="7.520930552908274" id="-36883">
		<tag k="fixme" v="consider natural=peak for the most distinct mountains in the district" />
		<tag k="name" v="Jomfrunuten" />
		<tag k="natural" v="hill" />
		<tag k="place" v="locality" />
		<tag k="ssr:stedsnr" v="857308" />
	</node>
	<node lat="60.60867499950186" lon="7.474297217145246" id="-36884">
		<tag k="name" v="Finseskaret" />
		<tag k="natural" v="valley" />
		<tag k="place" v="locality" />
		<tag k="ssr:stedsnr" v="857310" />
	</node>
	<node lat="60.67050408243975" lon="7.062698711029204" id="-36885">
		<tag k="name" v="Kaldavatni" />
		<tag k="natural" v="water" />
		<tag k="ssr:stedsnr" v="857875" />
		<tag k="water" v="lake" />
	</node>
	<node lat="60.65724501912386" lon="7.3683054719996255" id="-36886">
		<tag k="name" v="Svartavatnet" />
		<tag k="natural" v="water" />
		<tag k="ssr:stedsnr" v="857891" />
		<tag k="water" v="lake" />
	</node>
	<node lat="60.52019444265528" lon="6.896241671733176" id="-36887">
		<tag k="name" v="Uroksli" />
		<tag k="natural" v="ridge" />
		<tag k="place" v="locality" />
		<tag k="ssr:stedsnr" v="932076" />
	</node>
	<node lat="60.54386389154455" lon="6.916586109760255" id="-36888">
		<tag k="bay" v="fjord" />
		<tag k="name" v="Ulvikafjorden" />
		<tag k="natural" v="bay" />
		<tag k="ssr:stedsnr" v="932083" />
	</node>
	<node lat="60.59885000037701" lon="6.946497223365988" id="-36889">
		<tag k="name" v="Sauamjølka" />
		<tag k="ssr:stedsnr" v="888495" />
		<tag k="waterway" v="stream" />
	</node>
	<node lat="60.557811106753306" lon="6.9661305522397825" id="-36890">
		<tag k="name" v="Kalvagjere" />
		<tag k="place" v="farm" />
		<tag k="ssr:stedsnr" v="888545" />
	</node>
	<node lat="60.54717500108592" lon="6.93847778434724" id="-36891">
		<tag k="name" v="Trånemyrhaugen" />
		<tag k="natural" v="hill" />
		<tag k="place" v="locality" />
		<tag k="ssr:stedsnr" v="888546" />
	</node>
	<node lat="60.70411529138265" lon="6.976063543528195" id="-36892">
		<tag k="name" v="Dalamyrane" />
		<tag k="natural" v="wetland" />
		<tag k="ssr:stedsnr" v="888573" />
	</node>
	<node lat="60.486516669947996" lon="6.871236102562622" id="-36893">
		<tag k="fixme" v="consider seamark:type=rock or natural=shoal" />
		<tag k="name" v="Likskjer" />
		<tag k="old_name" v="Likskjær" />
		<tag k="place" v="islet" />
		<tag k="ssr:stedsnr" v="893411" />
	</node>
	<node lat="60.62920278138302" lon="6.934377781011941" id="-36894">
		<tag k="fixme" v="consider natural=peak for the most distinct mountains in the district" />
		<tag k="name" v="Skorafjellet" />
		<tag k="natural" v="hill" />
		<tag k="place" v="locality" />
		<tag k="ssr:stedsnr" v="916918" />
	</node>
	<node lat="60.500855554355745" lon="6.944172230792985" id="-36895">
		<tag k="name" v="Alstø" />
		<tag k="natural" v="slope" />
		<tag k="place" v="locality" />
		<tag k="ssr:stedsnr" v="917005" />
	</node>
	<node lat="60.50342499702741" lon="6.8847638873143975" id="-36896">
		<tag k="historic" v="shieling" />
		<tag k="name" v="Øvstestølen" />
		<tag k="place" v="isolated_dwelling" />
		<tag k="ssr:stedsnr" v="917006" />
	</node>
	<node lat="60.51151666847602" lon="6.904055546718766" id="-36897">
		<tag k="name" v="Torgilsberget" />
		<tag k="natural" v="hill" />
		<tag k="place" v="locality" />
		<tag k="ssr:stedsnr" v="917010" />
	</node>
	<node lat="60.50636944127717" lon="6.843430561542586" id="-36898">
		<tag k="fixme" v="consider natural=peak for the most distinct mountains in the district" />
		<tag k="name" v="Midtfjell" />
		<tag k="natural" v="hill" />
		<tag k="place" v="locality" />
		<tag k="ssr:stedsnr" v="917011" />
	</node>
	<node lat="60.65822222054152" lon="7.0505638876500765" id="-36899">
		<tag k="fixme" v="consider natural=peak for the most distinct mountains in the district" />
		<tag k="name" v="Skipanuten" />
		<tag k="natural" v="hill" />
		<tag k="place" v="locality" />
		<tag k="ssr:stedsnr" v="917075" />
	</node>
	<node lat="60.537024996049276" lon="7.620755551917019" id="-36900">
		<tag k="name" v="Køyrsleslaet" />
		<tag k="natural" v="valley" />
		<tag k="place" v="locality" />
		<tag k="ssr:stedsnr" v="917227" />
	</node>
	<node lat="60.57901944069098" lon="7.068699994862603" id="-36901">
		<tag k="alt_name" v="Austdøla" />
		<tag k="name" v="Austdølo" />
		<tag k="ssr:stedsnr" v="917123" />
		<tag k="waterway" v="river" />
	</node>
	<node lat="60.58603610874077" lon="7.239927781172276" id="-36902">
		<tag k="name" v="Senanuten" />
		<tag k="natural" v="hill" />
		<tag k="place" v="locality" />
		<tag k="ssr:stedsnr" v="917127" />
	</node>
	<node lat="60.5425666681454" lon="6.841511113808526" id="-36903">
		<tag k="name" v="Streitelii" />
		<tag k="natural" v="slope" />
		<tag k="place" v="locality" />
		<tag k="ssr:stedsnr" v="917778" />
	</node>
	<node lat="60.53298610806979" lon="6.823286103696593" id="-36904">
		<tag k="name" v="Grohelrehøgdi" />
		<tag k="natural" v="hill" />
		<tag k="place" v="locality" />
		<tag k="ssr:stedsnr" v="917779" />
	</node>
	<node lat="60.565283332588756" lon="6.866763887162021" id="-36905">
		<tag k="highway" v="path" />
		<tag k="name" v="Tellstigen" />
		<tag k="ssr:stedsnr" v="917860" />
	</node>
	<node lat="60.57498865482462" lon="6.9369279375848185" id="-36906">
		<tag k="fixme" v="consider place=hamlet" />
		<tag k="name" v="Øvre Hakastad" />
		<tag k="place" v="farm" />
		<tag k="ssr:stedsnr" v="917861" />
	</node>
	<node lat="60.57391557128549" lon="6.951157690427061" id="-36907">
		<tag k="name" v="Lekve" />
		<tag k="place" v="hamlet" />
		<tag k="ssr:stedsnr" v="917863" />
	</node>
	<node lat="60.57800833255458" lon="6.881166665238871" id="-36908">
		<tag k="historic" v="shieling" />
		<tag k="name" v="Fitjo" />
		<tag k="place" v="isolated_dwelling" />
		<tag k="ssr:stedsnr" v="917875" />
	</node>
	<node lat="60.59961666549047" lon="7.467741666578494" id="-36909">
		<tag k="name" v="Nordnut felæger" />
		<tag k="place" v="locality" />
		<tag k="ssr:stedsnr" v="948978" />
	</node>
	<node lat="60.55273611436462" lon="6.882422220327625" id="-36910">
		<tag k="name" v="Grovdalen" />
		<tag k="natural" v="valley" />
		<tag k="place" v="locality" />
		<tag k="ssr:stedsnr" v="949435" />
	</node>
	<node lat="60.54635000410987" lon="6.870361108160035" id="-36911">
		<tag k="name" v="Geitheldrane" />
		<tag k="place" v="locality" />
		<tag k="ssr:stedsnr" v="949438" />
	</node>
	<node lat="60.58810833566729" lon="6.9286694380995755" id="-36912">
		<tag k="name" v="Lomstjønshaugen" />
		<tag k="natural" v="hill" />
		<tag k="place" v="locality" />
		<tag k="ssr:stedsnr" v="949482" />
	</node>
	<node lat="60.609027781294714" lon="6.971144440617453" id="-36913">
		<tag k="name" v="Steinbrurindane" />
		<tag k="natural" v="hill" />
		<tag k="place" v="locality" />
		<tag k="ssr:stedsnr" v="949488" />
	</node>
	<node lat="60.49298888886608" lon="6.918302776649391" id="-36914">
		<tag k="name" v="Lauholo" />
		<tag k="place" v="locality" />
		<tag k="ssr:stedsnr" v="949491" />
	</node>
	<node lat="60.49706388620839" lon="6.882888889052105" id="-36915">
		<tag k="name" v="Grønskål" />
		<tag k="place" v="farm" />
		<tag k="ssr:stedsnr" v="949501" />
	</node>
	<node lat="60.51883055245374" lon="6.948994438010271" id="-36916">
		<tag k="alt_name" v="Bagnstrand" />
		<tag k="name" v="Bagnsstrondi" />
		<tag k="natural" v="beach" />
		<tag k="ssr:stedsnr" v="949504" />
	</node>
	<node lat="60.516538891923396" lon="6.971402782030302" id="-36917">
		<tag k="name" v="Langedalen" />
		<tag k="natural" v="valley" />
		<tag k="place" v="locality" />
		<tag k="ssr:stedsnr" v="949507" />
	</node>
	<node lat="60.57254722272046" lon="6.927394444970319" id="-36918">
		<tag k="fixme" v="consider place=hamlet" />
		<tag k="name" v="Nedre Hakastad" />
		<tag k="old_name" v="Hakestad" />
		<tag k="place" v="farm" />
		<tag k="ssr:stedsnr" v="949518" />
	</node>
	<node lat="60.58267499995462" lon="6.892533340482374" id="-36919">
		<tag k="name" v="Kolgrovhaugen" />
		<tag k="natural" v="hill" />
		<tag k="place" v="locality" />
		<tag k="ssr:stedsnr" v="949521" />
	</node>
	<node lat="60.56740959094919" lon="6.91749994488261" id="-36926">
		<tag k="amenity" v="place_of_worship" />
		<tag k="denomination" v="lutheran" />
		<tag k="name" v="Ulvik kyrkje" />
		<tag k="religion" v="christian" />
		<tag k="ssr:stedsnr" v="990354" />
	</node>
	<node lat="60.61055000220824" lon="7.1376500049713405" id="-36927">
		<tag k="name" v="Floskefonnvatnet" />
		<tag k="natural" v="water" />
		<tag k="ssr:stedsnr" v="7075" />
		<tag k="water" v="lake" />
	</node>
	<node lat="60.602516305688475" lon="6.981827330334434" id="-36928">
		<tag k="historic" v="shieling" />
		<tag k="name" v="Horgo" />
		<tag k="place" v="isolated_dwelling" />
		<tag k="ssr:stedsnr" v="7078" />
	</node>
	<node lat="60.63370555575415" lon="7.26053888295808" id="-36929">
		<tag k="name" v="Larsaslahøgdi" />
		<tag k="natural" v="hill" />
		<tag k="place" v="locality" />
		<tag k="ssr:stedsnr" v="7080" />
	</node>
	<node lat="60.634147221855756" lon="7.158744443842761" id="-36930">
		<tag k="name" v="Hegrenuten" />
		<tag k="natural" v="hill" />
		<tag k="place" v="locality" />
		<tag k="ssr:stedsnr" v="7084" />
	</node>
	<node lat="60.639275000913116" lon="6.972255554839577" id="-36931">
		<tag k="fixme" v="consider natural=peak for the most distinct mountains in the district" />
		<tag k="name" v="Skreppenuten" />
		<tag k="natural" v="hill" />
		<tag k="place" v="locality" />
		<tag k="ssr:stedsnr" v="7088" />
	</node>
	<node lat="60.64038055355233" lon="7.018541670070515" id="-36932">
		<tag k="fixme" v="consider natural=peak for the most distinct mountains in the district" />
		<tag k="name" v="Svana" />
		<tag k="natural" v="hill" />
		<tag k="place" v="locality" />
		<tag k="ssr:stedsnr" v="7095" />
	</node>
	<node lat="60.49482777981886" lon="6.914327774029307" id="-36933">
		<tag k="name" v="Bagnsnes" />
		<tag k="natural" v="cape" />
		<tag k="ssr:stedsnr" v="5396" />
	</node>
	<node lat="60.4921388854489" lon="6.80217499192707" id="-36934">
		<tag k="name" v="Demma" />
		<tag k="natural" v="water" />
		<tag k="ssr:stedsnr" v="5400" />
		<tag k="water" v="lake" />
	</node>
	<node lat="60.607816667302416" lon="7.319058337056656" id="-36935">
		<tag k="alt_name" v="Memorgevatnet, vestre" />
		<tag k="name" v="Vestre Memorgevatnet" />
		<tag k="natural" v="water" />
		<tag k="old_name" v="Memorgevvt, vestre" />
		<tag k="ssr:stedsnr" v="6183" />
	</node>
	<node lat="60.59396847761762" lon="6.978546352164598" id="-36936">
		<tag k="alt_name" v="Jonstølsvatnet" />
		<tag k="loc_name" v="Heimstavatnet" />
		<tag k="name" v="Heimavatnet" />
		<tag k="natural" v="water" />
		<tag k="ssr:stedsnr" v="6186" />
	</node>
	<node lat="60.59132546400644" lon="6.992572476489546" id="-36937">
		<tag k="name" v="Midvatnet" />
		<tag k="natural" v="water" />
		<tag k="ssr:stedsnr" v="6189" />
	</node>
	<node lat="60.59072472459787" lon="7.12435341783489" id="-36938">
		<tag k="name" v="Rossevatni" />
		<tag k="natural" v="water" />
		<tag k="ssr:stedsnr" v="6207" />
		<tag k="water" v="lake" />
	</node>
	<node lat="60.5574682292318" lon="6.846348688395357" id="-36939">
		<tag k="name" v="Skitnasetetjørni" />
		<tag k="natural" v="water" />
		<tag k="ssr:stedsnr" v="6782" />
	</node>
	<node lat="60.604933337504264" lon="6.9333694373444335" id="-36940">
		<tag k="name" v="Løken" />
		<tag k="natural" v="wetland" />
		<tag k="ssr:stedsnr" v="6952" />
	</node>
	<node lat="60.53166427968154" lon="6.955220398326336" id="-36941">
		<tag k="name" v="Furebergviki" />
		<tag k="natural" v="bay" />
		<tag k="ssr:stedsnr" v="7039" />
	</node>
	<node lat="60.564580552074226" lon="6.966002786647102" id="-36942">
		<tag k="alt_name" v="Øydvin" />
		<tag k="fixme" v="consider place=hamlet" />
		<tag k="name" v="Øydve" />
		<tag k="place" v="farm" />
		<tag k="ssr:stedsnr" v="7840" />
	</node>
	<node lat="60.60354999582845" lon="7.04867499580157" id="-36943">
		<tag k="alt_name" v="Norddølo" />
		<tag k="name" v="Norddøla" />
		<tag k="ssr:stedsnr" v="7181" />
		<tag k="waterway" v="river" />
	</node>
	<node lat="60.624044503116686" lon="7.356626455073428" id="-36944">
		<tag k="name" v="Tågavatni" />
		<tag k="natural" v="water" />
		<tag k="ssr:stedsnr" v="7199" />
		<tag k="water" v="lake" />
	</node>
	<node lat="60.67669491034995" lon="7.383304295543611" id="-36945">
		<tag k="name" v="Vargabretjørni" />
		<tag k="natural" v="water" />
		<tag k="ssr:stedsnr" v="7221" />
	</node>
	<node lat="60.53803888549683" lon="6.880044443498782" id="-36946">
		<tag k="name" v="Kyrkjehaugen" />
		<tag k="natural" v="hill" />
		<tag k="place" v="locality" />
		<tag k="ssr:stedsnr" v="7778" />
	</node>
	<node lat="60.61415833519667" lon="6.818852785393678" id="-36947">
		<tag k="name" v="Nordrebotnen" />
		<tag k="natural" v="valley" />
		<tag k="place" v="locality" />
		<tag k="ssr:stedsnr" v="21171" />
	</node>
	<node lat="60.668130552296034" lon="7.24817499247399" id="-36948">
		<tag k="fixme" v="consider tourism=alpine_hut or tourism=chalet" />
		<tag k="name" v="Hallingskeid" />
		<tag k="ssr:stedsnr" v="26236" />
		<tag k="tourism" v="wilderness_hut" />
	</node>
	<node lat="60.57509999571519" lon="6.899647226389153" id="-36949">
		<tag k="fixme" v="consider place=hamlet" />
		<tag k="name" v="Litle Bergo" />
		<tag k="place" v="farm" />
		<tag k="ssr:stedsnr" v="27358" />
	</node>
	<node lat="60.718241671054834" lon="7.011647216647153" id="-36950">
		<tag k="name" v="Trettehaugsbekken" />
		<tag k="ssr:stedsnr" v="37994" />
		<tag k="waterway" v="stream" />
	</node>
	<node lat="60.49496110866338" lon="6.92362499998052" id="-36951">
		<tag k="name" v="Nuten" />
		<tag k="natural" v="hill" />
		<tag k="place" v="locality" />
		<tag k="ssr:stedsnr" v="38559" />
	</node>
	<node lat="60.51587222390917" lon="6.96277778415325" id="-36952">
		<tag k="name" v="Skote" />
		<tag k="place" v="locality" />
		<tag k="ssr:stedsnr" v="38570" />
	</node>
	<node lat="60.52883332964492" lon="6.90175555566028" id="-36953">
		<tag k="name" v="Hetlenesgjelet" />
		<tag k="natural" v="gorge" />
		<tag k="ssr:stedsnr" v="38574" />
	</node>
	<node lat="60.5118583338774" lon="6.93996110830171" id="-36954">
		<tag k="name" v="Bakken" />
		<tag k="natural" v="slope" />
		<tag k="place" v="locality" />
		<tag k="ssr:stedsnr" v="38579" />
	</node>
	<node lat="60.513263886014435" lon="6.936908341584313" id="-36955">
		<tag k="fixme" v="consider seamark:type=rock or natural=shoal" />
		<tag k="name" v="Halen" />
		<tag k="place" v="islet" />
		<tag k="ssr:stedsnr" v="38581" />
	</node>
	<node lat="60.57186388978615" lon="6.9186138826778825" id="-36956">
		<tag k="name" v="Rossvoll" />
		<tag k="place" v="farm" />
		<tag k="ssr:stedsnr" v="38586" />
	</node>
	<node lat="60.58198333013766" lon="6.900869442886902" id="-36957">
		<tag k="name" v="Seljestidalen" />
		<tag k="natural" v="valley" />
		<tag k="place" v="locality" />
		<tag k="ssr:stedsnr" v="38598" />
	</node>
	<node lat="60.54772777697617" lon="6.842733328229057" id="-36958">
		<tag k="name" v="Orreholo" />
		<tag k="place" v="locality" />
		<tag k="ssr:stedsnr" v="38634" />
	</node>
	<node lat="60.57916388672084" lon="6.996497221584356" id="-36959">
		<tag k="name" v="Ljoraskreo" />
		<tag k="natural" v="gorge" />
		<tag k="ssr:stedsnr" v="38646" />
	</node>
	<node lat="60.5524111088339" lon="6.985144451806499" id="-36960">
		<tag k="name" v="Hetlenes" />
		<tag k="natural" v="cape" />
		<tag k="ssr:stedsnr" v="38978" />
	</node>
	<node lat="60.584636113566496" lon="7.019094451490342" id="-36961">
		<tag k="name" v="Ernes" />
		<tag k="natural" v="cape" />
		<tag k="ssr:stedsnr" v="38989" />
	</node>
	<node lat="60.71368611392402" lon="6.9925138853746" id="-36962">
		<tag k="name" v="Dalaelvi" />
		<tag k="ssr:stedsnr" v="39555" />
		<tag k="waterway" v="river" />
	</node>
	<node lat="60.7020555591195" lon="6.946611103049852" id="-36963">
		<tag k="name" v="Ørnaberget" />
		<tag k="natural" v="hill" />
		<tag k="place" v="locality" />
		<tag k="ssr:stedsnr" v="46222" />
	</node>
	<node lat="60.49717777626621" lon="6.915744438398363" id="-36964">
		<tag k="name" v="Bergfallet" />
		<tag k="natural" v="cape" />
		<tag k="ssr:stedsnr" v="66386" />
	</node>
	<node lat="60.51107222383542" lon="6.927636105177039" id="-36965">
		<tag k="bay" v="fjord" />
		<tag k="name" v="Osafjorden" />
		<tag k="natural" v="bay" />
		<tag k="ssr:stedsnr" v="66392" />
	</node>
	<node lat="60.49537510432884" lon="6.802436035526062" id="-36966">
		<tag k="name" v="Dalsetetjørni" />
		<tag k="natural" v="water" />
		<tag k="ssr:stedsnr" v="66394" />
	</node>
	<node lat="60.5298277793662" lon="7.05180277984375" id="-36967">
		<tag k="fixme" v="consider natural=peak for the most distinct mountains in the district" />
		<tag k="name" v="Øykjeskarsnuten" />
		<tag k="natural" v="hill" />
		<tag k="place" v="locality" />
		<tag k="ssr:stedsnr" v="66123" />
	</node>
	<node lat="60.53843610924138" lon="6.983927782550316" id="-36968">
		<tag k="name" v="Døgro" />
		<tag k="old_name" v="Døgrå" />
		<tag k="ssr:stedsnr" v="67173" />
		<tag k="waterway" v="river" />
	</node>
	<node lat="60.59079167076043" lon="7.037063897488063" id="-36969">
		<tag k="name" v="Folkvang" />
		<tag k="place" v="farm" />
		<tag k="ssr:stedsnr" v="67181" />
	</node>
	<node lat="60.60598889146382" lon="6.895541675023121" id="-36970">
		<tag k="name" v="Tymberskorane" />
		<tag k="natural" v="slope" />
		<tag k="place" v="locality" />
		<tag k="ssr:stedsnr" v="66914" />
	</node>
	<node lat="60.60582402845846" lon="6.846895097469267" id="-36971">
		<tag k="fixme" v="consider natural=peak for the most distinct mountains in the district" />
		<tag k="name" v="Brattenuten" />
		<tag k="natural" v="hill" />
		<tag k="place" v="locality" />
		<tag k="ssr:stedsnr" v="66915" />
	</node>
	<node lat="60.51277830898332" lon="6.873831669035745" id="-36972">
		<tag k="name" v="Vedåvotni" />
		<tag k="natural" v="water" />
		<tag k="ssr:stedsnr" v="67034" />
		<tag k="water" v="lake" />
	</node>
	<node lat="60.51906388918852" lon="6.9161083270087484" id="-36973">
		<tag k="name" v="Staursnes" />
		<tag k="natural" v="cape" />
		<tag k="ssr:stedsnr" v="68026" />
	</node>
	<node lat="60.523736115304935" lon="6.886502769016811" id="-36974">
		<tag k="name" v="Trosetedalsbekken" />
		<tag k="ssr:stedsnr" v="68040" />
		<tag k="waterway" v="stream" />
	</node>
	<node lat="60.52896389186292" lon="6.862925007794421" id="-36975">
		<tag k="historic" v="shieling" />
		<tag k="name" v="Hellesete" />
		<tag k="place" v="isolated_dwelling" />
		<tag k="ssr:stedsnr" v="68044" />
	</node>
	<node lat="60.52869999778686" lon="6.8858138887079825" id="-36976">
		<tag k="name" v="Hushaug" />
		<tag k="natural" v="hill" />
		<tag k="place" v="locality" />
		<tag k="ssr:stedsnr" v="68048" />
	</node>
	<node lat="60.62362499663626" lon="7.237900007441241" id="-36977">
		<tag k="fixme" v="consider natural=peak for the most distinct mountains in the district" />
		<tag k="name" v="Kvilingahaug" />
		<tag k="natural" v="hill" />
		<tag k="place" v="locality" />
		<tag k="ssr:stedsnr" v="68061" />
	</node>
	<node lat="60.622930555553" lon="7.278233327882809" id="-36978">
		<tag k="alt_name" v="Kvilinganutvatnet, inste" />
		<tag k="name" v="Inste Kvilinganutvatnet" />
		<tag k="natural" v="water" />
		<tag k="ssr:stedsnr" v="68062" />
		<tag k="water" v="lake" />
	</node>
	<node lat="60.604174915371814" lon="7.014631385052653" id="-36979">
		<tag k="name" v="Svartavatnet" />
		<tag k="natural" v="water" />
		<tag k="ssr:stedsnr" v="68064" />
	</node>
	<node lat="60.63216944463568" lon="7.30747777949415" id="-36980">
		<tag k="fixme" v="consider natural=peak for the most distinct mountains in the district" />
		<tag k="name" v="Vestre Låghellerhøgdene" />
		<tag k="natural" v="hill" />
		<tag k="place" v="locality" />
		<tag k="ssr:stedsnr" v="68065" />
	</node>
	<node lat="60.617383329213176" lon="6.977313881323471" id="-36981">
		<tag k="alt_name" v="Vassfjellet, vetle" />
		<tag k="fixme" v="consider natural=peak for the most distinct mountains in the district" />
		<tag k="name" v="Vetle Vassfjellet" />
		<tag k="natural" v="hill" />
		<tag k="place" v="locality" />
		<tag k="ssr:stedsnr" v="68067" />
	</node>
	<node lat="60.65327347196319" lon="7.1321759606937984" id="-36982">
		<tag k="fixme" v="consider natural=peak for the most distinct mountains in the district" />
		<tag k="name" v="Nyrjuven" />
		<tag k="natural" v="hill" />
		<tag k="place" v="locality" />
		<tag k="ssr:stedsnr" v="68079" />
	</node>
	<node lat="60.6601250026732" lon="7.280711113324397" id="-36983">
		<tag k="loc_name" v="Moldedalen" />
		<tag k="name" v="Moldådalen" />
		<tag k="natural" v="valley" />
		<tag k="place" v="locality" />
		<tag k="ssr:stedsnr" v="68093" />
	</node>
	<node lat="60.6868500036194" lon="7.106724994957407" id="-36984">
		<tag k="name" v="Vossaskavlen" />
		<tag k="place" v="locality" />
		<tag k="ssr:stedsnr" v="68110" />
	</node>
	<node lat="60.57924999659576" lon="7.567872225698443" id="-36985">
		<tag k="historic" v="shieling" />
		<tag k="name" v="Torsstølen" />
		<tag k="place" v="isolated_dwelling" />
		<tag k="ssr:stedsnr" v="68316" />
	</node>
	<node lat="60.65341388999902" lon="6.899638881703534" id="-36986">
		<tag k="name" v="Fagerbotnen" />
		<tag k="natural" v="valley" />
		<tag k="place" v="locality" />
		<tag k="ssr:stedsnr" v="68969" />
	</node>
	<node lat="60.61103333720837" lon="6.929577781789059" id="-36987">
		<tag k="historic" v="shieling" />
		<tag k="name" v="Øvre Skor" />
		<tag k="place" v="isolated_dwelling" />
		<tag k="ssr:stedsnr" v="82166" />
	</node>
	<node lat="60.56781110850239" lon="6.9448111090089855" id="-36988">
		<tag k="name" v="Øyri" />
		<tag k="place" v="farm" />
		<tag k="ssr:stedsnr" v="88284" />
	</node>
	<node lat="60.578288885884966" lon="6.904099998050439" id="-36989">
		<tag k="highway" v="path" />
		<tag k="name" v="Austestiberget" />
		<tag k="ssr:stedsnr" v="99594" />
	</node>
	<node lat="60.562122971903015" lon="6.8785217045903195" id="-36990">
		<tag k="fixme" v="consider place=hamlet" />
		<tag k="name" v="Lindebrekke" />
		<tag k="place" v="farm" />
		<tag k="ssr:stedsnr" v="99598" />
	</node>
	<node lat="60.58993333582575" lon="7.0200611070731025" id="-36991">
		<tag k="name" v="Kås" />
		<tag k="natural" v="hill" />
		<tag k="place" v="locality" />
		<tag k="ssr:stedsnr" v="99987" />
	</node>
	<node lat="60.70775285610813" lon="6.991650100742541" id="-36992">
		<tag k="name" v="Viki" />
		<tag k="natural" v="bay" />
		<tag k="ssr:stedsnr" v="99988" />
	</node>
	<node lat="60.70461388543557" lon="6.99572499730824" id="-36993">
		<tag k="name" v="Dalabrekkena" />
		<tag k="natural" v="valley" />
		<tag k="place" v="locality" />
		<tag k="ssr:stedsnr" v="99994" />
	</node>
	<node lat="60.54461666630133" lon="6.911974992715846" id="-36994">
		<tag k="name" v="Tveitastrondi" />
		<tag k="natural" v="cape" />
		<tag k="ssr:stedsnr" v="99518" />
	</node>
	<node lat="60.552805558264616" lon="6.8733055549579625" id="-36995">
		<tag k="name" v="Kvelpamyr" />
		<tag k="natural" v="wetland" />
		<tag k="ssr:stedsnr" v="99522" />
	</node>
	<node lat="60.54574444747434" lon="6.872305548040804" id="-36996">
		<tag k="name" v="Kleivi" />
		<tag k="place" v="locality" />
		<tag k="ssr:stedsnr" v="99523" />
	</node>
	<node lat="60.586802779943845" lon="6.916102786687532" id="-36997">
		<tag k="name" v="Klyvhals" />
		<tag k="natural" v="valley" />
		<tag k="place" v="locality" />
		<tag k="ssr:stedsnr" v="99533" />
	</node>
	<node lat="60.611338889145514" lon="6.95042778319345" id="-36998">
		<tag k="name" v="Gjennstigelvi" />
		<tag k="ssr:stedsnr" v="99557" />
		<tag k="waterway" v="stream" />
	</node>
	<node lat="60.70541667001719" lon="6.987455556979031" id="-36999">
		<tag k="historic" v="shieling" />
		<tag k="name" v="Gamlestølen" />
		<tag k="place" v="isolated_dwelling" />
		<tag k="ssr:stedsnr" v="99629" />
	</node>
	<node lat="60.551852782184746" lon="6.8636027756322955" id="-37000">
		<tag k="name" v="Verkane" />
		<tag k="place" v="locality" />
		<tag k="ssr:stedsnr" v="99631" />
	</node>
	<node lat="60.551797226698554" lon="6.835886117556064" id="-37001">
		<tag k="name" v="Skjelmhaug" />
		<tag k="natural" v="hill" />
		<tag k="place" v="locality" />
		<tag k="ssr:stedsnr" v="99633" />
	</node>
	<node lat="60.5438138885236" lon="6.823938896387609" id="-37002">
		<tag k="name" v="Beiteskar" />
		<tag k="natural" v="hill" />
		<tag k="place" v="locality" />
		<tag k="ssr:stedsnr" v="99639" />
	</node>
	<node lat="60.593263890379745" lon="6.8341638806169565" id="-37003">
		<tag k="name" v="Lyse" />
		<tag k="place" v="locality" />
		<tag k="ssr:stedsnr" v="99646" />
	</node>
	<node lat="60.59008055348836" lon="6.865530563871912" id="-37004">
		<tag k="name" v="Ulsberg" />
		<tag k="natural" v="hill" />
		<tag k="place" v="locality" />
		<tag k="ssr:stedsnr" v="99652" />
	</node>
	<node lat="60.481625000088044" lon="6.814702781697421" id="-37005">
		<tag k="name" v="Tymbergili" />
		<tag k="natural" v="gorge" />
		<tag k="ssr:stedsnr" v="99683" />
	</node>
	<node lat="60.58267500156472" lon="6.8523222193067985" id="-37006">
		<tag k="name" v="Storlii" />
		<tag k="natural" v="slope" />
		<tag k="place" v="locality" />
		<tag k="ssr:stedsnr" v="99685" />
	</node>
	<node lat="60.49205555169946" lon="6.886433328091096" id="-37008">
		<tag k="fixme" v="consider place=hamlet" />
		<tag k="name" v="Åsheim" />
		<tag k="place" v="farm" />
		<tag k="ssr:stedsnr" v="126402" />
	</node>
	<node lat="60.60189444066433" lon="6.858286112413172" id="-37009">
		<tag k="fixme" v="consider natural=peak for the most distinct mountains in the district" />
		<tag k="name" v="Sotenuten" />
		<tag k="natural" v="hill" />
		<tag k="place" v="locality" />
		<tag k="ssr:stedsnr" v="127928" />
	</node>
	<node lat="60.51360252828889" lon="6.952989993781512" id="-37010">
		<tag k="fixme" v="consider place=hamlet" />
		<tag k="name" v="Bagne" />
		<tag k="place" v="farm" />
		<tag k="ssr:stedsnr" v="128013" />
	</node>
	<node lat="60.52018611114168" lon="6.950416659449133" id="-37011">
		<tag k="name" v="Mjølstøl" />
		<tag k="place" v="farm" />
		<tag k="ssr:stedsnr" v="128023" />
	</node>
	<node lat="60.690911114164436" lon="7.047927768701577" id="-37012">
		<tag k="name" v="Øykjafonn" />
		<tag k="place" v="locality" />
		<tag k="ssr:stedsnr" v="128077" />
	</node>
	<node lat="60.58223055931648" lon="7.112486102525098" id="-37013">
		<tag k="name" v="Austdølvatnet" />
		<tag k="natural" v="water" />
		<tag k="ssr:stedsnr" v="128130" />
	</node>
	<node lat="60.64555277451861" lon="7.5215249976039535" id="-37014">
		<tag k="name" v="Klemsbu" />
		<tag k="place" v="locality" />
		<tag k="ssr:stedsnr" v="128165" />
	</node>
	<node lat="60.6525999990619" lon="7.5549222155676095" id="-37015">
		<tag k="name" v="Flakavassfonn" />
		<tag k="natural" v="glacier" />
		<tag k="ssr:stedsnr" v="128169" />
	</node>
	<node lat="60.633452775779226" lon="7.4028666690285565" id="-37016">
		<tag k="name" v="Larsdalen" />
		<tag k="natural" v="valley" />
		<tag k="place" v="locality" />
		<tag k="ssr:stedsnr" v="128170" />
	</node>
	<node lat="60.622144444052275" lon="7.494094448561255" id="-37017">
		<tag k="fixme" v="consider natural=peak for the most distinct mountains in the district" />
		<tag k="name" v="Finsesåta" />
		<tag k="natural" v="hill" />
		<tag k="place" v="locality" />
		<tag k="ssr:stedsnr" v="128265" />
	</node>
	<node lat="60.561544440205125" lon="6.905069444840732" id="-37018">
		<tag k="fixme" v="consider place=hamlet" />
		<tag k="name" v="Vambheim" />
		<tag k="place" v="farm" />
		<tag k="ssr:stedsnr" v="128845" />
	</node>
	<node lat="60.56657499888952" lon="6.867044437765197" id="-37019">
		<tag k="historic" v="shieling" />
		<tag k="name" v="Litlastøl" />
		<tag k="place" v="isolated_dwelling" />
		<tag k="ssr:stedsnr" v="128856" />
	</node>
	<node lat="60.51686111253697" lon="6.946638896080825" id="-37020">
		<tag k="historic" v="shieling" />
		<tag k="name" v="Mjøstølen" />
		<tag k="place" v="isolated_dwelling" />
		<tag k="ssr:stedsnr" v="128876" />
	</node>
	<node lat="60.65364722549517" lon="6.911113886341949" id="-37021">
		<tag k="name" v="Tryglabotnen" />
		<tag k="natural" v="valley" />
		<tag k="place" v="locality" />
		<tag k="ssr:stedsnr" v="128978" />
	</node>
	<node lat="60.57965833542316" lon="6.8296166700892975" id="-37022">
		<tag k="name" v="Jonsokbakkane" />
		<tag k="natural" v="slope" />
		<tag k="place" v="locality" />
		<tag k="ssr:stedsnr" v="128817" />
	</node>
	<node lat="60.58006666946347" lon="6.933552779272518" id="-37023">
		<tag k="alt_name" v="Ljone" />
		<tag k="fixme" v="consider place=hamlet" />
		<tag k="name" v="Ljono" />
		<tag k="place" v="farm" />
		<tag k="ssr:stedsnr" v="128823" />
	</node>
	<node lat="60.489686107069474" lon="6.898219439210559" id="-37024">
		<tag k="bay" v="fjord" />
		<tag k="name" v="Bagnsfjorden" />
		<tag k="natural" v="bay" />
		<tag k="ssr:stedsnr" v="142166" />
	</node>
	<node lat="60.493563889750355" lon="6.8159666635286635" id="-37025">
		<tag k="name" v="Navena" />
		<tag k="natural" v="hill" />
		<tag k="place" v="locality" />
		<tag k="ssr:stedsnr" v="159574" />
	</node>
	<node lat="60.58391944756385" lon="6.906502772140094" id="-37026">
		<tag k="name" v="Seljestidalen" />
		<tag k="natural" v="valley" />
		<tag k="place" v="locality" />
		<tag k="ssr:stedsnr" v="159585" />
	</node>
	<node lat="60.54994166858911" lon="6.8411555559387995" id="-37027">
		<tag k="name" v="Skjelmhaugsbekkjen" />
		<tag k="ssr:stedsnr" v="159925" />
		<tag k="waterway" v="stream" />
	</node>
	<node lat="60.5959361150644" lon="7.038105552689848" id="-37028">
		<tag k="name" v="Sævartveitdalen" />
		<tag k="natural" v="valley" />
		<tag k="place" v="locality" />
		<tag k="ssr:stedsnr" v="159985" />
	</node>
	<node lat="60.59058611212757" lon="6.877744450562126" id="-37029">
		<tag k="name" v="Bytesbekken" />
		<tag k="ssr:stedsnr" v="160445" />
		<tag k="waterway" v="stream" />
	</node>
	<node lat="60.50673611059489" lon="6.890013880432574" id="-37030">
		<tag k="name" v="Veaonesbekken" />
		<tag k="ssr:stedsnr" v="160500" />
		<tag k="waterway" v="stream" />
	</node>
	<node lat="60.49898333258357" lon="6.885224992982369" id="-37031">
		<tag k="name" v="Kadleleite" />
		<tag k="place" v="locality" />
		<tag k="ssr:stedsnr" v="160505" />
	</node>
	<node lat="60.56801666948641" lon="6.904080554333603" id="-37032">
		<tag k="fixme" v="consider place=hamlet" />
		<tag k="name" v="Hjelmavoll" />
		<tag k="place" v="farm" />
		<tag k="ssr:stedsnr" v="160512" />
	</node>
	<node lat="60.555252781504755" lon="6.959311105411441" id="-37033">
		<tag k="name" v="Gjøtta" />
		<tag k="natural" v="hill" />
		<tag k="place" v="locality" />
		<tag k="ssr:stedsnr" v="160516" />
	</node>
	<node lat="60.55896993787231" lon="6.969238785346521" id="-37034">
		<tag k="name" v="Lahammar" />
		<tag k="natural" v="cliff" />
		<tag k="ssr:stedsnr" v="160519" />
	</node>
	<node lat="60.55428055226621" lon="6.937891670313485" id="-37035">
		<tag k="name" v="Sjonaskallen" />
		<tag k="natural" v="hill" />
		<tag k="place" v="locality" />
		<tag k="ssr:stedsnr" v="160525" />
	</node>
	<node lat="60.57382221976984" lon="6.957508326211808" id="-37036">
		<tag k="name" v="Gauro" />
		<tag k="ssr:stedsnr" v="160531" />
		<tag k="waterway" v="stream" />
	</node>
	<node lat="60.572174998492315" lon="6.967200004334558" id="-37037">
		<tag k="name" v="Torblålii" />
		<tag k="natural" v="slope" />
		<tag k="place" v="locality" />
		<tag k="ssr:stedsnr" v="160533" />
	</node>
	<node lat="60.575824999055975" lon="6.933497229084441" id="-37038">
		<tag k="name" v="Hakastadbekken" />
		<tag k="old_name" v="Hakastebekken" />
		<tag k="ssr:stedsnr" v="160542" />
		<tag k="waterway" v="stream" />
	</node>
	<node lat="60.59588400381689" lon="6.895374140772543" id="-37039">
		<tag k="name" v="Tjørn" />
		<tag k="natural" v="water" />
		<tag k="ssr:stedsnr" v="160448" />
	</node>
	<node lat="60.52427500446144" lon="6.953519449082917" id="-37040">
		<tag k="name" v="Høganutbekken" />
		<tag k="ssr:stedsnr" v="160452" />
		<tag k="waterway" v="stream" />
	</node>
	<node lat="60.60788055628925" lon="6.960191664575547" id="-37041">
		<tag k="name" v="Gildehellrehaugen" />
		<tag k="natural" v="hill" />
		<tag k="place" v="locality" />
		<tag k="ssr:stedsnr" v="160468" />
	</node>
	<node lat="60.48765833226196" lon="6.870324998773469" id="-37042">
		<tag k="name" v="Nesheim-sanden" />
		<tag k="natural" v="beach" />
		<tag k="ssr:stedsnr" v="160474" />
	</node>
	<node lat="60.70268611154544" lon="6.965030555261216" id="-37043">
		<tag k="name" v="Langvassosen" />
		<tag k="natural" v="hill" />
		<tag k="place" v="locality" />
		<tag k="ssr:stedsnr" v="160548" />
	</node>
	<node lat="60.543786107434414" lon="6.8487055546592766" id="-37044">
		<tag k="name" v="Graonodlen" />
		<tag k="natural" v="hill" />
		<tag k="place" v="locality" />
		<tag k="ssr:stedsnr" v="160550" />
	</node>
	<node lat="60.54626389100524" lon="6.83185555791856" id="-37045">
		<tag k="name" v="Streite" />
		<tag k="natural" v="hill" />
		<tag k="place" v="locality" />
		<tag k="ssr:stedsnr" v="160554" />
	</node>
	<node lat="60.55530277857113" lon="6.842480546460397" id="-37046">
		<tag k="name" v="Hjelmavollshaugen" />
		<tag k="natural" v="hill" />
		<tag k="place" v="locality" />
		<tag k="ssr:stedsnr" v="160555" />
	</node>
	<node lat="60.58613888967227" lon="6.848258335235852" id="-37047">
		<tag k="loc_name" v="Helleberget" />
		<tag k="name" v="Hedlebergje" />
		<tag k="natural" v="hill" />
		<tag k="place" v="locality" />
		<tag k="ssr:stedsnr" v="160562" />
	</node>
	<node lat="60.57913610831045" lon="6.962502786373015" id="-37048">
		<tag k="name" v="Lekveslii" />
		<tag k="natural" v="slope" />
		<tag k="place" v="locality" />
		<tag k="ssr:stedsnr" v="160564" />
	</node>
	<node lat="60.51333888688316" lon="6.938513886599345" id="-37049">
		<tag k="name" v="Halakroni" />
		<tag k="natural" v="cape" />
		<tag k="ssr:stedsnr" v="188019" />
	</node>
	<node lat="60.52592777843722" lon="6.987488887436024" id="-37050">
		<tag k="fixme" v="consider natural=peak for the most distinct mountains in the district" />
		<tag k="name" v="Senanuten" />
		<tag k="natural" v="hill" />
		<tag k="place" v="locality" />
		<tag k="ssr:stedsnr" v="188154" />
	</node>
	<node lat="60.68378610806417" lon="7.307411113631427" id="-37051">
		<tag k="name" v="Skomavatnet" />
		<tag k="natural" v="water" />
		<tag k="ssr:stedsnr" v="189087" />
		<tag k="water" v="lake" />
	</node>
	<node lat="60.51961388540135" lon="6.907636103760722" id="-37052">
		<tag k="name" v="Staursnesskreda" />
		<tag k="natural" v="scree" />
		<tag k="ssr:stedsnr" v="189026" />
	</node>
	<node lat="60.5245215279827" lon="6.9503865282693145" id="-37053">
		<tag k="alt_name" v="Holkasvik" />
		<tag k="fixme" v="consider place=hamlet" />
		<tag k="name" v="Holkasviki" />
		<tag k="place" v="farm" />
		<tag k="ssr:stedsnr" v="189028" />
	</node>
	<node lat="60.607475003181435" lon="6.987736105228921" id="-37054">
		<tag k="name" v="Raudestig" />
		<tag k="natural" v="slope" />
		<tag k="place" v="locality" />
		<tag k="ssr:stedsnr" v="189056" />
	</node>
	<node lat="60.61252777853943" lon="7.393797219376321" id="-37055">
		<tag k="fixme" v="consider natural=peak for the most distinct mountains in the district" />
		<tag k="name" v="Florsveggnuten" />
		<tag k="natural" v="hill" />
		<tag k="place" v="locality" />
		<tag k="ssr:stedsnr" v="189181" />
	</node>
	<node lat="60.6185861148776" lon="7.411533335709929" id="-37056">
		<tag k="name" v="Sliråni" />
		<tag k="ssr:stedsnr" v="189182" />
		<tag k="waterway" v="stream" />
	</node>
	<node lat="60.68630832912296" lon="7.213824998454321" id="-37057">
		<tag k="alt_name" v="Grøndalsvatnet, nedre;Nedra Grøndalsvatnet;Nedra Grønndalsvatnet" />
		<tag k="name" v="Nedre Grøndalsvatnet" />
		<tag k="natural" v="water" />
		<tag k="ssr:stedsnr" v="189101" />
		<tag k="water" v="lake" />
	</node>
	<node lat="60.70191944473187" lon="7.079602775942696" id="-37058">
		<tag k="fixme" v="consider tourism=alpine_hut or tourism=chalet" />
		<tag k="name" v="Kaldavasshytta" />
		<tag k="ssr:stedsnr" v="189107" />
		<tag k="tourism" v="wilderness_hut" />
	</node>
	<node lat="60.522866666964845" lon="7.697988884151563" id="-37059">
		<tag k="fixme" v="consider natural=peak for the most distinct mountains in the district" />
		<tag k="name" v="Bergsmulen" />
		<tag k="natural" v="hill" />
		<tag k="place" v="locality" />
		<tag k="ssr:stedsnr" v="189228" />
	</node>
	<node lat="60.59249999595257" lon="7.47984444385077" id="-37060">
		<tag k="name" v="Finsevatnet" />
		<tag k="natural" v="water" />
		<tag k="ssr:stedsnr" v="189248" />
		<tag k="water" v="lake" />
	</node>
	<node lat="60.611625004271886" lon="7.49560276853073" id="-37061">
		<tag k="name" v="Finseelvi" />
		<tag k="ssr:stedsnr" v="189255" />
		<tag k="waterway" v="stream" />
	</node>
	<node lat="60.61362499604225" lon="7.35272500577104" id="-37062">
		<tag k="fixme" v="consider natural=peak for the most distinct mountains in the district" />
		<tag k="name" v="Memorge" />
		<tag k="natural" v="hill" />
		<tag k="place" v="locality" />
		<tag k="ssr:stedsnr" v="189258" />
	</node>
	<node lat="60.61409999615621" lon="7.419000008361941" id="-37063">
		<tag k="name" v="Slirå" />
		<tag k="place" v="isolated_dwelling" />
		<tag k="ssr:stedsnr" v="189261" />
	</node>
	<node lat="60.61424999829206" lon="7.447150001462869" id="-37064">
		<tag k="name" v="Sandå" />
		<tag k="place" v="isolated_dwelling" />
		<tag k="ssr:stedsnr" v="189262" />
	</node>
	<node lat="60.5872861102995" lon="6.927705551328973" id="-37065">
		<tag k="name" v="Lomtjørnhaugen" />
		<tag k="natural" v="hill" />
		<tag k="place" v="locality" />
		<tag k="ssr:stedsnr" v="189799" />
	</node>
	<node lat="60.53658333342593" lon="6.9299083326354305" id="-37066">
		<tag k="name" v="Storfurehaugen" />
		<tag k="natural" v="hill" />
		<tag k="place" v="locality" />
		<tag k="ssr:stedsnr" v="189752" />
	</node>
	<node lat="60.53858055504343" lon="6.890930546920035" id="-37067">
		<tag k="name" v="Frystetjørni" />
		<tag k="natural" v="water" />
		<tag k="ssr:stedsnr" v="189759" />
	</node>
	<node lat="60.56588889037935" lon="6.891761112013912" id="-37068">
		<tag k="alt_name" v="Børsheim" />
		<tag k="fixme" v="consider place=hamlet" />
		<tag k="name" v="Byrse" />
		<tag k="place" v="farm" />
		<tag k="ssr:stedsnr" v="189841" />
	</node>
	<node lat="60.57460833207468" lon="6.940636102437965" id="-37069">
		<tag k="fixme" v="consider place=hamlet" />
		<tag k="name" v="Syse" />
		<tag k="place" v="farm" />
		<tag k="ssr:stedsnr" v="189849" />
	</node>
	<node lat="60.59200578702394" lon="6.850775484163894" id="-37070">
		<tag k="name" v="Stokkavatnet" />
		<tag k="natural" v="water" />
		<tag k="ssr:stedsnr" v="189907" />
		<tag k="water" v="lake" />
	</node>
	<node lat="60.677738889622965" lon="6.917002785741607" id="-37071">
		<tag k="fixme" v="consider natural=peak for the most distinct mountains in the district" />
		<tag k="name" v="Mjølfjellet" />
		<tag k="natural" v="hill" />
		<tag k="place" v="locality" />
		<tag k="ssr:stedsnr" v="189998" />
	</node>
	<node lat="60.620863886729204" lon="6.9591416594055895" id="-37072">
		<tag k="name" v="Djupedalen" />
		<tag k="natural" v="valley" />
		<tag k="place" v="locality" />
		<tag k="ssr:stedsnr" v="203480" />
	</node>
	<node lat="60.48995833467574" lon="6.864477780914381" id="-37073">
		<tag k="fixme" v="consider place=hamlet" />
		<tag k="name" v="Vangen" />
		<tag k="place" v="farm" />
		<tag k="ssr:stedsnr" v="220562" />
	</node>
	<node lat="60.48858611446656" lon="6.845805559120519" id="-37074">
		<tag k="name" v="Furenes" />
		<tag k="natural" v="cape" />
		<tag k="ssr:stedsnr" v="220564" />
	</node>
	<node lat="60.56994999878119" lon="6.9815499916531" id="-37075">
		<tag k="name" v="Geitaskjersskorane" />
		<tag k="place" v="locality" />
		<tag k="ssr:stedsnr" v="220566" />
	</node>
	<node lat="60.51778055516185" lon="6.947663881598645" id="-37076">
		<tag k="alt_name" v="Træet" />
		<tag k="name" v="Træe" />
		<tag k="place" v="locality" />
		<tag k="ssr:stedsnr" v="220617" />
	</node>
	<node lat="60.502794446005474" lon="6.897186106062489" id="-37077">
		<tag k="name" v="Breiskor" />
		<tag k="place" v="locality" />
		<tag k="ssr:stedsnr" v="221537" />
	</node>
	<node lat="60.58916111017752" lon="6.883666667405407" id="-37078">
		<tag k="name" v="Smedalsbotnen" />
		<tag k="natural" v="valley" />
		<tag k="place" v="locality" />
		<tag k="ssr:stedsnr" v="281534" />
	</node>
	<node lat="60.530302775015755" lon="6.958916661703091" id="-37079">
		<tag k="name" v="Ovnen" />
		<tag k="place" v="locality" />
		<tag k="ssr:stedsnr" v="281550" />
	</node>
	<node lat="60.58732777633888" lon="6.960147230968531" id="-37080">
		<tag k="name" v="Sæberg" />
		<tag k="natural" v="hill" />
		<tag k="place" v="locality" />
		<tag k="ssr:stedsnr" v="281554" />
	</node>
	<node lat="60.61025277626477" lon="6.951894438806244" id="-37081">
		<tag k="name" v="Stibekken" />
		<tag k="ssr:stedsnr" v="281565" />
		<tag k="waterway" v="stream" />
	</node>
	<node lat="60.605099998514554" lon="6.929086112673933" id="-37082">
		<tag k="name" v="Storhaug" />
		<tag k="natural" v="hill" />
		<tag k="place" v="locality" />
		<tag k="ssr:stedsnr" v="281566" />
	</node>
	<node lat="60.684916668737515" lon="7.201786113584713" id="-37083">
		<tag k="name" v="Klevaskaret" />
		<tag k="natural" v="valley" />
		<tag k="place" v="locality" />
		<tag k="ssr:stedsnr" v="280997" />
	</node>
	<node lat="60.57591666699702" lon="7.02555554653354" id="-37084">
		<tag k="name" v="Jutasprangskreo" />
		<tag k="natural" v="gorge" />
		<tag k="ssr:stedsnr" v="280945" />
	</node>
	<node lat="60.51303610987339" lon="6.902083337179915" id="-37085">
		<tag k="name" v="Storelii" />
		<tag k="natural" v="slope" />
		<tag k="place" v="locality" />
		<tag k="ssr:stedsnr" v="281593" />
	</node>
	<node lat="60.51528055473684" lon="6.898541675053241" id="-37086">
		<tag k="name" v="Børvenuten" />
		<tag k="natural" v="hill" />
		<tag k="place" v="locality" />
		<tag k="ssr:stedsnr" v="281594" />
	</node>
	<node lat="60.577277781830254" lon="6.869647216499571" id="-37087">
		<tag k="name" v="Svarthammar" />
		<tag k="natural" v="hill" />
		<tag k="place" v="locality" />
		<tag k="ssr:stedsnr" v="281598" />
	</node>
	<node lat="60.5822555512957" lon="6.910394436192661" id="-37088">
		<tag k="name" v="Vestrheimsklyve" />
		<tag k="natural" v="hill" />
		<tag k="place" v="locality" />
		<tag k="ssr:stedsnr" v="281600" />
	</node>
	<node lat="60.52871944634483" lon="6.976077772770345" id="-37089">
		<tag k="highway" v="path" />
		<tag k="name" v="Taumasetvegen" />
		<tag k="ssr:stedsnr" v="281666" />
	</node>
	<node lat="60.58500555558202" lon="7.049030558378737" id="-37090">
		<tag k="name" v="Røykjafossen" />
		<tag k="natural" v="waterfall" />
		<tag k="ssr:stedsnr" v="281995" />
	</node>
	<node lat="60.56935277580466" lon="6.947472218368034" id="-37091">
		<tag k="bridge" v="yes" />
		<tag k="layer" v="1" />
		<tag k="name" v="Holmen" />
		<tag k="ssr:stedsnr" v="289851" />
	</node>
	<node lat="60.57369505272716" lon="6.932041747262564" id="-37092">
		<tag k="name" v="Hakastad" />
		<tag k="place" v="hamlet" />
		<tag k="ssr:stedsnr" v="302135" />
	</node>
	<node lat="60.49386303466867" lon="6.893682646920267" id="-37093">
		<tag k="name" v="Bruraviki" />
		<tag k="natural" v="bay" />
		<tag k="ssr:stedsnr" v="308370" />
	</node>
	<node lat="60.5621249964021" lon="7.000733330020328" id="-37094">
		<tag k="name" v="Balåi" />
		<tag k="ssr:stedsnr" v="309177" />
		<tag k="waterway" v="stream" />
	</node>
	<node lat="60.61829525806683" lon="6.917600472354969" id="-37095">
		<tag k="name" v="Hyrnaskar" />
		<tag k="natural" v="valley" />
		<tag k="place" v="locality" />
		<tag k="ssr:stedsnr" v="309893" />
	</node>
	<node lat="60.603919513800044" lon="6.91099816515352" id="-37096">
		<tag k="historic" v="shieling" />
		<tag k="name" v="Rubbelii" />
		<tag k="place" v="isolated_dwelling" />
		<tag k="ssr:stedsnr" v="309939" />
	</node>
	<node lat="60.61390000063785" lon="7.007474997052363" id="-37097">
		<tag k="fixme" v="consider natural=peak for the most distinct mountains in the district" />
		<tag k="name" v="Vetle Vassfjøro" />
		<tag k="natural" v="hill" />
		<tag k="place" v="locality" />
		<tag k="ssr:stedsnr" v="310071" />
	</node>
	<node lat="60.612877781934465" lon="7.318380557237396" id="-37098">
		<tag k="name" v="Memorgebui" />
		<tag k="place" v="locality" />
		<tag k="ssr:stedsnr" v="310075" />
	</node>
	<node lat="60.60370000206957" lon="7.060025007909466" id="-37099">
		<tag k="name" v="Bjørndøla" />
		<tag k="ssr:stedsnr" v="310164" />
		<tag k="waterway" v="stream" />
	</node>
	<node lat="60.6044341940894" lon="7.1657423238941815" id="-37100">
		<tag k="name" v="Rundavatnet" />
		<tag k="natural" v="water" />
		<tag k="ssr:stedsnr" v="310165" />
		<tag k="water" v="lake" />
	</node>
	<node lat="60.59833333354576" lon="7.196272219554097" id="-37101">
		<tag k="name" v="Austdøla" />
		<tag k="ssr:stedsnr" v="310167" />
		<tag k="waterway" v="river" />
	</node>
	<node lat="60.59068888457948" lon="7.032541662544651" id="-37102">
		<tag k="fixme" v="consider place=hamlet" />
		<tag k="name" v="Sævartveit" />
		<tag k="place" v="farm" />
		<tag k="ssr:stedsnr" v="310169" />
	</node>
	<node lat="60.68440833614266" lon="6.963763884235845" id="-37103">
		<tag k="historic" v="shieling" />
		<tag k="name" v="Slondal" />
		<tag k="place" v="isolated_dwelling" />
		<tag k="ssr:stedsnr" v="310987" />
	</node>
	<node lat="60.55771388787078" lon="6.925036103406336" id="-37104">
		<tag k="name" v="Solheim" />
		<tag k="place" v="farm" />
		<tag k="ssr:stedsnr" v="310764" />
	</node>
	<node lat="60.57218240978551" lon="6.895451797067007" id="-37105">
		<tag k="name" v="Bergo" />
		<tag k="place" v="hamlet" />
		<tag k="ssr:stedsnr" v="310869" />
	</node>
	<node lat="60.58251944780196" lon="6.873461107120497" id="-37106">
		<tag k="name" v="Tysso" />
		<tag k="ssr:stedsnr" v="310872" />
		<tag k="waterway" v="river" />
	</node>
	<node lat="60.55236388858506" lon="6.854347215854024" id="-37107">
		<tag k="name" v="Krossaskarv" />
		<tag k="natural" v="hill" />
		<tag k="place" v="locality" />
		<tag k="ssr:stedsnr" v="342543" />
	</node>
	<node lat="60.59496944417468" lon="6.849597220093294" id="-37108">
		<tag k="name" v="Eikhovden" />
		<tag k="place" v="locality" />
		<tag k="ssr:stedsnr" v="342548" />
	</node>
	<node lat="60.587432943951896" lon="6.863135137976059" id="-37109">
		<tag k="alt_name" v="Lomtjødn" />
		<tag k="name" v="Lomtjørn" />
		<tag k="natural" v="water" />
		<tag k="ssr:stedsnr" v="342550" />
	</node>
	<node lat="60.576275000667025" lon="7.549708326186467" id="-37110">
		<tag k="fixme" v="consider natural=peak for the most distinct mountains in the district" />
		<tag k="name" v="Vesle Hansbunuten" />
		<tag k="natural" v="hill" />
		<tag k="place" v="locality" />
		<tag k="ssr:stedsnr" v="342555" />
	</node>
	<node lat="60.547266662436236" lon="6.854636104838175" id="-37111">
		<tag k="name" v="Kaasbekkjen" />
		<tag k="ssr:stedsnr" v="342561" />
		<tag k="waterway" v="stream" />
	</node>
	<node lat="60.60915833296143" lon="6.9142777721866935" id="-37112">
		<tag k="name" v="Kyrmysseskorna" />
		<tag k="place" v="locality" />
		<tag k="ssr:stedsnr" v="342563" />
	</node>
	<node lat="60.55392778090068" lon="6.910194441469681" id="-37113">
		<tag k="name" v="Leirhola" />
		<tag k="place" v="farm" />
		<tag k="ssr:stedsnr" v="341579" />
	</node>
	<node lat="60.597544444538954" lon="7.027680553179968" id="-37114">
		<tag k="name" v="Langjekjosbekken" />
		<tag k="ssr:stedsnr" v="341978" />
		<tag k="waterway" v="stream" />
	</node>
	<node lat="60.595155556407875" lon="7.02395277549126" id="-37115">
		<tag k="name" v="Tepeslii" />
		<tag k="natural" v="slope" />
		<tag k="place" v="locality" />
		<tag k="ssr:stedsnr" v="341980" />
	</node>
	<node lat="60.61206388559623" lon="6.92580278059703" id="-37116">
		<tag k="name" v="Mjølkehaugane" />
		<tag k="natural" v="hill" />
		<tag k="place" v="locality" />
		<tag k="ssr:stedsnr" v="341990" />
	</node>
	<node lat="60.55016666984347" lon="6.9798944448162725" id="-37117">
		<tag k="name" v="Kobbanes" />
		<tag k="natural" v="cape" />
		<tag k="ssr:stedsnr" v="342507" />
	</node>
	<node lat="60.576413890735914" lon="6.945927769037476" id="-37118">
		<tag k="name" v="Sysebekken" />
		<tag k="ssr:stedsnr" v="342520" />
		<tag k="waterway" v="stream" />
	</node>
	<node lat="60.57631389281455" lon="6.954724993084647" id="-37119">
		<tag k="name" v="Tunheim" />
		<tag k="place" v="farm" />
		<tag k="ssr:stedsnr" v="342524" />
	</node>
	<node lat="60.52568333551778" lon="6.966122218101239" id="-37120">
		<tag k="name" v="Bygdaråsen" />
		<tag k="natural" v="hill" />
		<tag k="place" v="locality" />
		<tag k="ssr:stedsnr" v="342460" />
	</node>
	<node lat="60.5915666706867" lon="6.9655722156032684" id="-37121">
		<tag k="name" v="Musakolhaugane" />
		<tag k="natural" v="hill" />
		<tag k="place" v="locality" />
		<tag k="ssr:stedsnr" v="342469" />
	</node>
	<node lat="60.5968361131927" lon="6.975941663244027" id="-37122">
		<tag k="name" v="Jonstølslii" />
		<tag k="natural" v="slope" />
		<tag k="place" v="locality" />
		<tag k="ssr:stedsnr" v="342473" />
	</node>
	<node lat="60.603983331445036" lon="6.935608325520121" id="-37123">
		<tag k="name" v="Løken" />
		<tag k="ssr:stedsnr" v="342479" />
		<tag k="waterway" v="stream" />
	</node>
	<node lat="60.700950000649605" lon="6.979294453418124" id="-37124">
		<tag k="name" v="Dalaoksli" />
		<tag k="natural" v="slope" />
		<tag k="place" v="locality" />
		<tag k="ssr:stedsnr" v="342535" />
	</node>
	<node lat="60.55639444172016" lon="6.859461115368717" id="-37125">
		<tag k="name" v="Nepetræe" />
		<tag k="place" v="locality" />
		<tag k="ssr:stedsnr" v="342537" />
	</node>
	<node lat="60.52591389123258" lon="6.908872228573655" id="-37126">
		<tag k="name" v="Uri" />
		<tag k="natural" v="scree" />
		<tag k="old_name" v="Urdi" />
		<tag k="ssr:stedsnr" v="347446" />
	</node>
	<node lat="60.572169440266435" lon="7.015383325852487" id="-37127">
		<tag k="name" v="Eikhammar" />
		<tag k="natural" v="hill" />
		<tag k="place" v="locality" />
		<tag k="ssr:stedsnr" v="347845" />
	</node>
	<node lat="60.598108337289815" lon="7.275374995112166" id="-37129">
		<tag k="name" v="Austdøla" />
		<tag k="ssr:stedsnr" v="370215" />
		<tag k="waterway" v="river" />
	</node>
	<node lat="60.5837861081643" lon="6.9888250069633395" id="-37130">
		<tag k="fixme" v="consider natural=peak for the most distinct mountains in the district" />
		<tag k="name" v="Kristinuten" />
		<tag k="natural" v="hill" />
		<tag k="place" v="locality" />
		<tag k="ssr:stedsnr" v="370219" />
	</node>
	<node lat="60.582833334339554" lon="7.028050001943043" id="-37131">
		<tag k="name" v="Salbuviki" />
		<tag k="natural" v="bay" />
		<tag k="ssr:stedsnr" v="370221" />
	</node>
	<node lat="60.57247500341143" lon="7.03618611471576" id="-37132">
		<tag k="fixme" v="consider natural=peak for the most distinct mountains in the district" />
		<tag k="name" v="Slondalskåkene" />
		<tag k="natural" v="hill" />
		<tag k="place" v="locality" />
		<tag k="ssr:stedsnr" v="370206" />
	</node>
	<node lat="60.51709999755232" lon="6.894972222451448" id="-37133">
		<tag k="name" v="Storelifletene" />
		<tag k="natural" v="slope" />
		<tag k="place" v="locality" />
		<tag k="ssr:stedsnr" v="371029" />
	</node>
	<node lat="60.58018055626952" lon="7.590555556951258" id="-37134">
		<tag k="fixme" v="consider natural=peak for the most distinct mountains in the district" />
		<tag k="name" v="Torsstølnuten" />
		<tag k="natural" v="hill" />
		<tag k="place" v="locality" />
		<tag k="ssr:stedsnr" v="370359" />
	</node>
	<node lat="60.555519443883874" lon="6.927641672670252" id="-37135">
		<tag k="alt_name" v="Viknes, indre;Viknes" />
		<tag k="name" v="Indre Viknes" />
		<tag k="place" v="farm" />
		<tag k="ssr:stedsnr" v="370776" />
	</node>
	<node lat="60.555686115450484" lon="6.893650000364165" id="-37136">
		<tag k="fixme" v="consider place=hamlet" />
		<tag k="name" v="Lisebrekke" />
		<tag k="place" v="farm" />
		<tag k="ssr:stedsnr" v="370782" />
	</node>
	<node lat="60.55838888745942" lon="6.9037583379625165" id="-37137">
		<tag k="name" v="Kroni" />
		<tag k="place" v="farm" />
		<tag k="ssr:stedsnr" v="370783" />
	</node>
	<node lat="60.60572778207988" lon="6.957761111809197" id="-37138">
		<tag k="name" v="Eitro" />
		<tag k="ssr:stedsnr" v="370945" />
		<tag k="waterway" v="stream" />
	</node>
	<node lat="60.67658140304884" lon="7.138003316562959" id="-37139">
		<tag k="name" v="Austmannatjørni" />
		<tag k="natural" v="water" />
		<tag k="ssr:stedsnr" v="371086" />
	</node>
	<node lat="60.67528178099554" lon="7.181326521116366" id="-37140">
		<tag k="alt_name" v="Grøndalsvatnet, øvre" />
		<tag k="name" v="Øvre Grøndalsvatnet" />
		<tag k="natural" v="water" />
		<tag k="ssr:stedsnr" v="371087" />
		<tag k="water" v="lake" />
	</node>
	<node lat="60.649405555312285" lon="7.471730554560282" id="-37141">
		<tag k="fixme" v="consider natural=peak for the most distinct mountains in the district" />
		<tag k="name" v="Såtehjallane" />
		<tag k="natural" v="hill" />
		<tag k="place" v="locality" />
		<tag k="ssr:stedsnr" v="371176" />
	</node>
	<node lat="60.61039999663515" lon="7.436700005114359" id="-37142">
		<tag k="name" v="Sandåvatnet" />
		<tag k="natural" v="water" />
		<tag k="ssr:stedsnr" v="371274" />
		<tag k="water" v="lake" />
	</node>
	<node lat="60.60848528159032" lon="7.401336654355155" id="-37143">
		<tag k="name" v="Ustekveikvatnet" />
		<tag k="natural" v="water" />
		<tag k="ssr:stedsnr" v="371275" />
		<tag k="water" v="lake" />
	</node>
	<node lat="60.53796388984753" lon="6.899811107701526" id="-37144">
		<tag k="fixme" v="consider natural=peak for the most distinct mountains in the district" />
		<tag k="name" v="Blåfjell" />
		<tag k="natural" v="hill" />
		<tag k="place" v="locality" />
		<tag k="ssr:stedsnr" v="371789" />
	</node>
	<node lat="60.53792222449926" lon="6.93956111097964" id="-37145">
		<tag k="name" v="Djupeviki" />
		<tag k="natural" v="bay" />
		<tag k="ssr:stedsnr" v="371790" />
	</node>
	<node lat="60.6844444476632" lon="6.95435000708569" id="-37146">
		<tag k="name" v="Slondalsvatnet" />
		<tag k="natural" v="water" />
		<tag k="ssr:stedsnr" v="371983" />
		<tag k="water" v="lake" />
	</node>
	<node lat="60.59300833305706" lon="6.874288888961463" id="-37147">
		<tag k="name" v="Sotenoselvi" />
		<tag k="ssr:stedsnr" v="371926" />
		<tag k="waterway" v="river" />
	</node>
	<node lat="60.552788892720855" lon="7.470347228023745" id="-37148">
		<tag k="name" v="Jøkulhytta" />
		<tag k="place" v="locality" />
		<tag k="ssr:stedsnr" v="386999" />
	</node>
	<node lat="60.59767499951747" lon="7.045627783986124" id="-37150">
		<tag k="name" v="Kjosen" />
		<tag k="place" v="locality" />
		<tag k="ssr:stedsnr" v="401949" />
	</node>
	<node lat="60.56777777427646" lon="6.914186115688621" id="-37151">
		<tag k="name" v="Brakanes" />
		<tag k="place" v="farm" />
		<tag k="ssr:stedsnr" v="402613" />
	</node>
	<node lat="60.56711198478612" lon="6.871503243748681" id="-37152">
		<tag k="name" v="Rundatjørn" />
		<tag k="natural" v="water" />
		<tag k="ssr:stedsnr" v="402619" />
	</node>
	<node lat="60.58245833758623" lon="6.922474994202402" id="-37153">
		<tag k="name" v="Vidlinghaugane" />
		<tag k="natural" v="hill" />
		<tag k="place" v="locality" />
		<tag k="ssr:stedsnr" v="402621" />
	</node>
	<node lat="60.55426110818329" lon="6.899630552116301" id="-37154">
		<tag k="name" v="Svoskarv" />
		<tag k="place" v="locality" />
		<tag k="ssr:stedsnr" v="402549" />
	</node>
	<node lat="60.59383055756368" lon="6.89774722537536" id="-37155">
		<tag k="name" v="Tjørnarbotnen" />
		<tag k="natural" v="valley" />
		<tag k="place" v="locality" />
		<tag k="ssr:stedsnr" v="402553" />
	</node>
	<node lat="60.53754444161913" lon="6.965005559351274" id="-37156">
		<tag k="name" v="Bukkhammar" />
		<tag k="natural" v="hill" />
		<tag k="place" v="locality" />
		<tag k="ssr:stedsnr" v="402563" />
	</node>
	<node lat="60.51996111031727" lon="6.964972226643757" id="-37157">
		<tag k="name" v="Dammane" />
		<tag k="place" v="locality" />
		<tag k="ssr:stedsnr" v="402565" />
	</node>
	<node lat="60.522302773721115" lon="6.957486109183921" id="-37158">
		<tag k="name" v="Legena" />
		<tag k="natural" v="hill" />
		<tag k="place" v="locality" />
		<tag k="ssr:stedsnr" v="402567" />
	</node>
	<node lat="60.591088886244236" lon="6.947411119638849" id="-37159">
		<tag k="name" v="Torgeirsstigen" />
		<tag k="natural" v="hill" />
		<tag k="place" v="locality" />
		<tag k="ssr:stedsnr" v="402569" />
	</node>
	<node lat="60.574703227757" lon="6.951156602556334" id="-37160">
		<tag k="fixme" v="consider place=hamlet" />
		<tag k="name" v="Øvre Lekve" />
		<tag k="place" v="farm" />
		<tag k="ssr:stedsnr" v="402636" />
	</node>
	<node lat="60.567438886575005" lon="6.954916657762989" id="-37161">
		<tag k="name" v="Løken" />
		<tag k="natural" v="water" />
		<tag k="ssr:stedsnr" v="402639" />
		<tag k="water" v="lake" />
	</node>
	<node lat="60.565597219856194" lon="6.8595222284390855" id="-37162">
		<tag k="name" v="Jeltnebekken" />
		<tag k="ssr:stedsnr" v="402924" />
		<tag k="waterway" v="stream" />
	</node>
	<node lat="60.59671110945041" lon="7.012597222910873" id="-37163">
		<tag k="name" v="Sævartveitnuten" />
		<tag k="natural" v="hill" />
		<tag k="place" v="locality" />
		<tag k="ssr:stedsnr" v="402981" />
	</node>
	<node lat="60.58418889146286" lon="7.054108334721394" id="-37164">
		<tag k="name" v="Austdalen" />
		<tag k="natural" v="valley" />
		<tag k="place" v="locality" />
		<tag k="ssr:stedsnr" v="402987" />
	</node>
	<node lat="60.690711108003015" lon="7.20911666638861" id="-37165">
		<tag k="barrier" v="lift_gate" />
		<tag k="name" v="Grøndalsbru" />
		<tag k="place" v="locality" />
		<tag k="ssr:stedsnr" v="402995" />
	</node>
	<node lat="60.68076111378546" lon="7.201841660751689" id="-37166">
		<tag k="name" v="Tuftaleitet" />
		<tag k="place" v="locality" />
		<tag k="ssr:stedsnr" v="402999" />
	</node>
	<node lat="60.55984999683549" lon="6.848969446175105" id="-37167">
		<tag k="historic" v="shieling" />
		<tag k="name" v="Gamlestølen" />
		<tag k="place" v="isolated_dwelling" />
		<tag k="ssr:stedsnr" v="403586" />
	</node>
	<node lat="60.58848361398623" lon="6.86576368391876" id="-37168">
		<tag k="loc_name" v="Raudskreddalen" />
		<tag k="name" v="Rauskredalen" />
		<tag k="natural" v="valley" />
		<tag k="place" v="locality" />
		<tag k="ssr:stedsnr" v="403597" />
	</node>
	<node lat="60.54365833386258" lon="6.925302779163996" id="-37169">
		<tag k="name" v="Toresviki" />
		<tag k="natural" v="bay" />
		<tag k="old_name" v="Toresvik" />
		<tag k="ssr:stedsnr" v="408485" />
	</node>
	<node lat="60.50670277451635" lon="6.947861109027769" id="-37170">
		<tag k="historic" v="shieling" />
		<tag k="name" v="Liastølen" />
		<tag k="place" v="isolated_dwelling" />
		<tag k="ssr:stedsnr" v="431016" />
	</node>
	<node lat="60.503419444435835" lon="6.87757499430052" id="-37171">
		<tag k="name" v="Sandviksbekken" />
		<tag k="ssr:stedsnr" v="431018" />
		<tag k="waterway" v="stream" />
	</node>
	<node lat="60.53022177239662" lon="7.115764082656648" id="-37172">
		<tag k="name" v="Istjørni" />
		<tag k="natural" v="water" />
		<tag k="ssr:stedsnr" v="431168" />
	</node>
	<node lat="60.53975278144969" lon="7.639799995641239" id="-37173">
		<tag k="fixme" v="consider natural=peak for the most distinct mountains in the district" />
		<tag k="name" v="Hestfossnuten" />
		<tag k="natural" v="hill" />
		<tag k="place" v="locality" />
		<tag k="ssr:stedsnr" v="431294" />
	</node>
	<node lat="60.55919999604052" lon="7.5968666615612905" id="-37174">
		<tag k="historic" v="shieling" />
		<tag k="name" v="Oksabotnen" />
		<tag k="place" v="isolated_dwelling" />
		<tag k="ssr:stedsnr" v="431333" />
	</node>
	<node lat="60.540824719403545" lon="7.019290253663291" id="-37175">
		<tag k="name" v="Døgrdalsvatnet" />
		<tag k="natural" v="water" />
		<tag k="ssr:stedsnr" v="431174" />
		<tag k="water" v="lake" />
	</node>
	<node lat="60.538161109974794" lon="7.059986102134987" id="-37176">
		<tag k="name" v="Svartebotnen" />
		<tag k="natural" v="valley" />
		<tag k="place" v="locality" />
		<tag k="ssr:stedsnr" v="431175" />
	</node>
	<node lat="60.55922777806274" lon="6.846419442925125" id="-37177">
		<tag k="historic" v="shieling" />
		<tag k="name" v="Skitnasete" />
		<tag k="place" v="isolated_dwelling" />
		<tag k="ssr:stedsnr" v="431785" />
	</node>
	<node lat="60.61164444262564" lon="6.875636109095527" id="-37178">
		<tag k="name" v="Tyssedalen" />
		<tag k="natural" v="valley" />
		<tag k="place" v="locality" />
		<tag k="ssr:stedsnr" v="431904" />
	</node>
	<node lat="60.58731944146052" lon="6.889361116429309" id="-37179">
		<tag k="fixme" v="consider natural=peak for the most distinct mountains in the district" />
		<tag k="name" v="Kamben" />
		<tag k="natural" v="hill" />
		<tag k="place" v="locality" />
		<tag k="ssr:stedsnr" v="432810" />
	</node>
	<node lat="60.53143889132469" lon="6.875136112467892" id="-37180">
		<tag k="name" v="Myrkjedalen" />
		<tag k="natural" v="valley" />
		<tag k="place" v="locality" />
		<tag k="ssr:stedsnr" v="432045" />
	</node>
	<node lat="60.600205557495414" lon="6.98120832900893" id="-37181">
		<tag k="alt_name" v="Vindhovdane" />
		<tag k="fixme" v="consider natural=peak for the most distinct mountains in the district" />
		<tag k="name" v="Hovden" />
		<tag k="natural" v="hill" />
		<tag k="place" v="locality" />
		<tag k="ssr:stedsnr" v="432059" />
	</node>
	<node lat="60.65052425293429" lon="7.3053313476224755" id="-37182">
		<tag k="name" v="Låghellervatnet" />
		<tag k="natural" v="water" />
		<tag k="ssr:stedsnr" v="432074" />
		<tag k="water" v="lake" />
	</node>
	<node lat="60.650788806759124" lon="7.1190000521881" id="-37183">
		<tag k="name" v="Osaskavlen" />
		<tag k="natural" v="glacier" />
		<tag k="ssr:stedsnr" v="432082" />
	</node>
	<node lat="60.652675003643324" lon="7.522155557018532" id="-37184">
		<tag k="fixme" v="consider natural=peak for the most distinct mountains in the district" />
		<tag k="name" v="Sankt Pål" />
		<tag k="natural" v="hill" />
		<tag k="place" v="locality" />
		<tag k="ssr:stedsnr" v="432171" />
	</node>
	<node lat="60.60412499684924" lon="7.544849991103783" id="-37185">
		<tag k="fixme" v="consider natural=peak for the most distinct mountains in the district" />
		<tag k="name" v="Kvannjolnuten" />
		<tag k="natural" v="hill" />
		<tag k="place" v="locality" />
		<tag k="ssr:stedsnr" v="432265" />
	</node>
	<node lat="60.53357542991151" lon="6.8511453695059075" id="-37186">
		<tag k="name" v="Laugartjørni" />
		<tag k="natural" v="water" />
		<tag k="ssr:stedsnr" v="432773" />
	</node>
	<node lat="60.562433333742575" lon="6.894105554331196" id="-37187">
		<tag k="alt_name" v="Audnaland;Undeland" />
		<tag k="fixme" v="consider place=hamlet" />
		<tag k="name" v="Audnalond" />
		<tag k="place" v="farm" />
		<tag k="ssr:stedsnr" v="432839" />
	</node>
	<node lat="60.57227777702946" lon="6.848108334704202" id="-37188">
		<tag k="name" v="Kleppsgili" />
		<tag k="place" v="locality" />
		<tag k="ssr:stedsnr" v="523944" />
	</node>
	<node lat="60.68471388993284" lon="7.219633334775574" id="-37189">
		<tag k="name" v="Kremmaren" />
		<tag k="place" v="locality" />
		<tag k="ssr:stedsnr" v="523962" />
	</node>
	<node lat="60.52148055984465" lon="6.836052780837579" id="-37190">
		<tag k="name" v="Troppafjellet" />
		<tag k="natural" v="hill" />
		<tag k="place" v="locality" />
		<tag k="ssr:stedsnr" v="523965" />
	</node>
	<node lat="60.512288885481986" lon="6.942641671981227" id="-37191">
		<tag k="name" v="Hålaløype" />
		<tag k="place" v="locality" />
		<tag k="ssr:stedsnr" v="524594" />
	</node>
	<node lat="60.58041944817406" lon="6.840830550085055" id="-37192">
		<tag k="name" v="Botnabakkane" />
		<tag k="natural" v="slope" />
		<tag k="place" v="locality" />
		<tag k="ssr:stedsnr" v="523947" />
	</node>
	<node lat="60.538783336490546" lon="6.844991673325465" id="-37193">
		<tag k="name" v="Lauhelleren" />
		<tag k="place" v="locality" />
		<tag k="ssr:stedsnr" v="523953" />
	</node>
	<node lat="60.5736611149218" lon="6.866461112346938" id="-37194">
		<tag k="name" v="Moltemyr" />
		<tag k="natural" v="wetland" />
		<tag k="ssr:stedsnr" v="523958" />
	</node>
	<node lat="60.49464444380526" lon="6.920672219599197" id="-37195">
		<tag k="name" v="Lindeskori" />
		<tag k="place" v="locality" />
		<tag k="ssr:stedsnr" v="523994" />
	</node>
	<node lat="60.5853722214378" lon="6.877169450478853" id="-37196">
		<tag k="name" v="Tveiti" />
		<tag k="natural" v="hill" />
		<tag k="place" v="locality" />
		<tag k="ssr:stedsnr" v="524446" />
	</node>
	<node lat="60.529583329155635" lon="6.9509805577953125" id="-37197">
		<tag k="name" v="Veaneset" />
		<tag k="natural" v="cape" />
		<tag k="ssr:stedsnr" v="524452" />
	</node>
	<node lat="60.56791111047987" lon="6.918627779751809" id="-37198">
		<tag k="name" v="Tysseviki" />
		<tag k="natural" v="bay" />
		<tag k="ssr:stedsnr" v="524519" />
	</node>
	<node lat="60.56838888521699" lon="6.9711138803843244" id="-37199">
		<tag k="name" v="Bersenden" />
		<tag k="place" v="locality" />
		<tag k="ssr:stedsnr" v="524539" />
	</node>
	<node lat="60.6962666682317" lon="6.958866671525031" id="-37200">
		<tag k="name" v="Magnhildeuri" />
		<tag k="natural" v="scree" />
		<tag k="ssr:stedsnr" v="524544" />
	</node>
	<node lat="60.5573361130516" lon="6.830738892413594" id="-37201">
		<tag k="name" v="Skraolebekkjen" />
		<tag k="ssr:stedsnr" v="524554" />
		<tag k="waterway" v="stream" />
	</node>
	<node lat="60.489484301628245" lon="6.838607162677376" id="-37202">
		<tag k="name" v="Revhuset" />
		<tag k="place" v="isolated_dwelling" />
		<tag k="ssr:stedsnr" v="529334" />
	</node>
	<node lat="60.49568055293217" lon="6.806099996605244" id="-37203">
		<tag k="historic" v="shieling" />
		<tag k="name" v="Dalsete" />
		<tag k="place" v="isolated_dwelling" />
		<tag k="ssr:stedsnr" v="551391" />
	</node>
	<node lat="60.59948889329913" lon="6.828063892284799" id="-37204">
		<tag k="fixme" v="consider natural=peak for the most distinct mountains in the district" />
		<tag k="name" v="Troppenuten" />
		<tag k="natural" v="hill" />
		<tag k="place" v="locality" />
		<tag k="ssr:stedsnr" v="551926" />
	</node>
	<node lat="60.49974166759256" lon="6.860241672562151" id="-37205">
		<tag k="name" v="Husagili" />
		<tag k="natural" v="gorge" />
		<tag k="ssr:stedsnr" v="552022" />
	</node>
	<node lat="60.55198055130846" lon="6.9118555568820215" id="-37206">
		<tag k="name" v="Frysteneset" />
		<tag k="natural" v="cape" />
		<tag k="ssr:stedsnr" v="552830" />
	</node>
	<node lat="60.533080553404915" lon="6.993958333723121" id="-37207">
		<tag k="historic" v="shieling" />
		<tag k="name" v="Taumasete" />
		<tag k="place" v="isolated_dwelling" />
		<tag k="ssr:stedsnr" v="552161" />
	</node>
	<node lat="60.58050833211906" lon="7.034038896434135" id="-37208">
		<tag k="name" v="Svinaskreda" />
		<tag k="natural" v="gorge" />
		<tag k="ssr:stedsnr" v="552168" />
	</node>
	<node lat="60.58961990556027" lon="7.1492127235144585" id="-37209">
		<tag k="name" v="Austdølnutvatnet" />
		<tag k="natural" v="water" />
		<tag k="ssr:stedsnr" v="552171" />
		<tag k="water" v="lake" />
	</node>
	<node lat="60.5745750000284" lon="7.221675009018168" id="-37210">
		<tag k="fixme" v="consider natural=peak for the most distinct mountains in the district" />
		<tag k="name" v="Sandvadnutane" />
		<tag k="natural" v="hill" />
		<tag k="place" v="locality" />
		<tag k="ssr:stedsnr" v="552180" />
	</node>
	<node lat="60.56187500025144" lon="7.445930553623768" id="-37211">
		<tag k="name" v="Middalen" />
		<tag k="natural" v="glacier" />
		<tag k="ssr:stedsnr" v="552343" />
	</node>
	<node lat="60.56004999589993" lon="6.94716388417683" id="-37212">
		<tag k="name" v="Storemyr" />
		<tag k="natural" v="wetland" />
		<tag k="ssr:stedsnr" v="552778" />
	</node>
	<node lat="60.55971944351476" lon="6.908291674874961" id="-37213">
		<tag k="name" v="Vombeviki" />
		<tag k="natural" v="bay" />
		<tag k="ssr:stedsnr" v="552781" />
	</node>
	<node lat="60.655905554816385" lon="7.225755561225825" id="-37214">
		<tag k="name" v="Buadalen" />
		<tag k="natural" v="valley" />
		<tag k="place" v="locality" />
		<tag k="ssr:stedsnr" v="553081" />
	</node>
	<node lat="60.6639555531707" lon="6.992494449165608" id="-37215">
		<tag k="fixme" v="consider natural=peak for the most distinct mountains in the district" />
		<tag k="name" v="Kvannjolnuten" />
		<tag k="natural" v="hill" />
		<tag k="place" v="locality" />
		<tag k="ssr:stedsnr" v="553089" />
	</node>
	<node lat="60.621519441986415" lon="7.388947230190555" id="-37216">
		<tag k="fixme" v="consider natural=peak for the most distinct mountains in the district" />
		<tag k="name" v="Fagernuten" />
		<tag k="natural" v="hill" />
		<tag k="place" v="locality" />
		<tag k="ssr:stedsnr" v="553184" />
	</node>
	<node lat="60.62797778213684" lon="7.5508333327914565" id="-37217">
		<tag k="name" v="Sanddalsvatnet" />
		<tag k="natural" v="water" />
		<tag k="ssr:stedsnr" v="553188" />
		<tag k="water" v="lake" />
	</node>
	<node lat="60.59972499648992" lon="6.999674994993933" id="-37218">
		<tag k="historic" v="shieling" />
		<tag k="name" v="Vassdalane" />
		<tag k="place" v="isolated_dwelling" />
		<tag k="ssr:stedsnr" v="553060" />
	</node>
	<node lat="60.607699999105385" lon="7.132225008058028" id="-37219">
		<tag k="name" v="Floskefonndalen" />
		<tag k="natural" v="valley" />
		<tag k="place" v="locality" />
		<tag k="ssr:stedsnr" v="553066" />
	</node>
	<node lat="60.6202478200296" lon="7.058477115073599" id="-37220">
		<tag k="name" v="Ossetetjørni" />
		<tag k="natural" v="water" />
		<tag k="ssr:stedsnr" v="553067" />
	</node>
	<node lat="60.638427778535544" lon="7.186824995450003" id="-37221">
		<tag k="alt_name" v="Grøndalsvatnet, s" />
		<tag k="name" v="Søre Grøndalsvatnet" />
		<tag k="natural" v="water" />
		<tag k="ssr:stedsnr" v="553080" />
		<tag k="water" v="lake" />
	</node>
	<node lat="60.621105553765396" lon="7.454924992259198" id="-37222">
		<tag k="name" v="Sandåi" />
		<tag k="ssr:stedsnr" v="553176" />
		<tag k="waterway" v="stream" />
	</node>
	<node lat="60.58772499709812" lon="7.556374992847936" id="-37223">
		<tag k="name" v="Larsbu" />
		<tag k="place" v="isolated_dwelling" />
		<tag k="ssr:stedsnr" v="553264" />
	</node>
	<node lat="60.58970277644985" lon="7.448080560749002" id="-37224">
		<tag k="name" v="Bukkaskinnsbotnen" />
		<tag k="natural" v="valley" />
		<tag k="place" v="locality" />
		<tag k="ssr:stedsnr" v="553268" />
	</node>
	<node lat="60.61252500381469" lon="7.470874996195437" id="-37225">
		<tag k="fixme" v="consider natural=peak for the most distinct mountains in the district" />
		<tag k="name" v="Store Finsenuten" />
		<tag k="natural" v="hill" />
		<tag k="place" v="locality" />
		<tag k="ssr:stedsnr" v="553277" />
	</node>
	<node lat="60.56680555806394" lon="6.850113883827772" id="-37226">
		<tag k="historic" v="shieling" />
		<tag k="name" v="Gunnarsete" />
		<tag k="place" v="isolated_dwelling" />
		<tag k="ssr:stedsnr" v="553864" />
	</node>
	<node lat="60.672219364651546" lon="6.887629165602169" id="-37227">
		<tag k="historic" v="shieling" />
		<tag k="name" v="Mjølbotnen" />
		<tag k="place" v="isolated_dwelling" />
		<tag k="ssr:stedsnr" v="553992" />
	</node>
	<node lat="60.51071388681622" lon="6.8094194479133305" id="-37228">
		<tag k="name" v="Olsskar" />
		<tag k="natural" v="valley" />
		<tag k="place" v="locality" />
		<tag k="ssr:stedsnr" v="567078" />
	</node>
	<node lat="60.5672222185551" lon="6.916908329967017" id="-37229">
		<tag k="name" v="Brakanes" />
		<tag k="natural" v="cape" />
		<tag k="ssr:stedsnr" v="567097" />
	</node>
	<node lat="60.53741944427914" lon="6.978938891252983" id="-37230">
		<tag k="name" v="Tungeteigen" />
		<tag k="natural" v="hill" />
		<tag k="place" v="locality" />
		<tag k="ssr:stedsnr" v="584536" />
	</node>
	<node lat="60.573441663375036" lon="6.891636103968489" id="-37231">
		<tag k="name" v="Sopedalen" />
		<tag k="natural" v="valley" />
		<tag k="place" v="locality" />
		<tag k="ssr:stedsnr" v="584590" />
	</node>
	<node lat="60.60397221831034" lon="6.827769448693801" id="-37232">
		<tag k="fixme" v="consider natural=peak for the most distinct mountains in the district" />
		<tag k="name" v="Hestastoena" />
		<tag k="natural" v="hill" />
		<tag k="place" v="locality" />
		<tag k="ssr:stedsnr" v="584636" />
	</node>
	<node lat="60.489388888556945" lon="6.890480554179932" id="-37233">
		<tag k="fixme" v="consider seamark:type=rock or natural=shoal" />
		<tag k="name" v="Prestaskjer" />
		<tag k="place" v="islet" />
		<tag k="ssr:stedsnr" v="584562" />
	</node>
	<node lat="60.60917222624913" lon="6.934377785862167" id="-37234">
		<tag k="name" v="Skoraberget" />
		<tag k="natural" v="hill" />
		<tag k="place" v="locality" />
		<tag k="ssr:stedsnr" v="584564" />
	</node>
	<node lat="60.48688234230972" lon="6.830825649290012" id="-37236">
		<tag k="fixme" v="consider seamark:type=rock or natural=shoal" />
		<tag k="name" v="Måsesteinen" />
		<tag k="place" v="islet" />
		<tag k="ssr:stedsnr" v="589344" />
	</node>
	<node lat="60.49307778052825" lon="6.861902769723579" id="-37237">
		<tag k="alt_name" v="Kallhagen" />
		<tag k="name" v="Kalvhagen" />
		<tag k="place" v="farm" />
		<tag k="ssr:stedsnr" v="589413" />
	</node>
	<node lat="60.56564166824791" lon="6.927944438564905" id="-37238">
		<tag k="name" v="Ljosagrunna" />
		<tag k="natural" v="shoal" />
		<tag k="old_name" v="Ljosagrunnen" />
		<tag k="place" v="locality" />
		<tag k="ssr:stedsnr" v="589831" />
	</node>
	<node lat="60.56585277381426" lon="7.001374995103898" id="-37239">
		<tag k="name" v="Knarreviki" />
		<tag k="natural" v="bay" />
		<tag k="old_name" v="Knarrevik" />
		<tag k="ssr:stedsnr" v="589832" />
	</node>
	<node lat="60.51768333082396" lon="6.987786106426176" id="-37240">
		<tag k="alt_name" v="Gråsteinrusti" />
		<tag k="fixme" v="consider natural=peak for the most distinct mountains in the district" />
		<tag k="name" v="Gråsteinsrusti" />
		<tag k="natural" v="hill" />
		<tag k="place" v="locality" />
		<tag k="ssr:stedsnr" v="612158" />
	</node>
	<node lat="60.56149999600221" lon="7.092574998201031" id="-37241">
		<tag k="name" v="Grasbotnen" />
		<tag k="natural" v="valley" />
		<tag k="place" v="locality" />
		<tag k="ssr:stedsnr" v="612162" />
	</node>
	<node lat="60.57427381728762" lon="7.148346327090977" id="-37242">
		<tag k="name" v="Olbogavatnet" />
		<tag k="natural" v="water" />
		<tag k="ssr:stedsnr" v="612183" />
		<tag k="water" v="lake" />
	</node>
	<node lat="60.49295833549157" lon="6.854205546510313" id="-37243">
		<tag k="fixme" v="consider place=hamlet" />
		<tag k="name" v="Hallanger" />
		<tag k="place" v="farm" />
		<tag k="ssr:stedsnr" v="612430" />
	</node>
	<node lat="60.476788893013826" lon="6.887577774725953" id="-37244">
		<tag k="bay" v="fjord" />
		<tag k="name" v="Eidfjorden" />
		<tag k="natural" v="bay" />
		<tag k="ssr:stedsnr" v="612457" />
	</node>
	<node lat="60.486786111753375" lon="6.874852781926861" id="-37245">
		<tag k="fixme" v="consider place=hamlet" />
		<tag k="name" v="Nesheim" />
		<tag k="place" v="farm" />
		<tag k="ssr:stedsnr" v="612459" />
	</node>
	<node lat="60.4815972248061" lon="6.787600001214144" id="-37246">
		<tag k="name" v="Stigagili" />
		<tag k="natural" v="gorge" />
		<tag k="ssr:stedsnr" v="612463" />
	</node>
	<node lat="60.61371554132783" lon="6.956358269414917" id="-37247">
		<tag k="historic" v="shieling" />
		<tag k="name" v="Øvre Sveig" />
		<tag k="place" v="isolated_dwelling" />
		<tag k="ssr:stedsnr" v="612893" />
	</node>
	<node lat="60.650958333070335" lon="7.1849999955590995" id="-37248">
		<tag k="name" v="Buadalsbrotet" />
		<tag k="natural" v="hill" />
		<tag k="place" v="locality" />
		<tag k="ssr:stedsnr" v="613088" />
	</node>
	<node lat="60.64491944264155" lon="7.234272217888819" id="-37249">
		<tag k="fixme" v="consider natural=peak for the most distinct mountains in the district" />
		<tag k="name" v="Storhaugane" />
		<tag k="natural" v="hill" />
		<tag k="place" v="locality" />
		<tag k="ssr:stedsnr" v="613091" />
	</node>
	<node lat="60.66012778202492" lon="7.150936110053958" id="-37250">
		<tag k="name" v="Brattskavlen" />
		<tag k="natural" v="glacier" />
		<tag k="ssr:stedsnr" v="613093" />
	</node>
	<node lat="60.65725833773159" lon="7.143499991861102" id="-37251">
		<tag k="fixme" v="consider natural=peak for the most distinct mountains in the district" />
		<tag k="name" v="Hovden" />
		<tag k="natural" v="hill" />
		<tag k="place" v="locality" />
		<tag k="ssr:stedsnr" v="613095" />
	</node>
	<node lat="60.57972500347588" lon="7.006127780267028" id="-37252">
		<tag k="name" v="Ryggviki" />
		<tag k="natural" v="bay" />
		<tag k="old_name" v="Ryggsvik" />
		<tag k="ssr:stedsnr" v="613155" />
	</node>
	<node lat="60.57391111160493" lon="7.024694437921677" id="-37253">
		<tag k="alt_name" v="Tellskreo" />
		<tag k="name" v="Tellskreda" />
		<tag k="natural" v="gorge" />
		<tag k="ssr:stedsnr" v="613156" />
	</node>
	<node lat="60.559022219547764" lon="6.8732916728995885" id="-37254">
		<tag k="alt_name" v="Lindebrekkelvi" />
		<tag k="name" v="Audnalondselvi" />
		<tag k="ssr:stedsnr" v="613758" />
		<tag k="waterway" v="river" />
	</node>
	<node lat="60.554138889045426" lon="6.866258334397817" id="-37255">
		<tag k="historic" v="shieling" />
		<tag k="name" v="Øyane" />
		<tag k="place" v="isolated_dwelling" />
		<tag k="ssr:stedsnr" v="613759" />
	</node>
	<node lat="60.53517221806531" lon="6.908199999125798" id="-37256">
		<tag k="name" v="Orshaug" />
		<tag k="natural" v="hill" />
		<tag k="place" v="locality" />
		<tag k="ssr:stedsnr" v="613776" />
	</node>
	<node lat="60.54047777650518" lon="6.819352779011819" id="-37257">
		<tag k="historic" v="shieling" />
		<tag k="name" v="Beiteskar" />
		<tag k="place" v="isolated_dwelling" />
		<tag k="ssr:stedsnr" v="613784" />
	</node>
	<node lat="60.67295996749308" lon="6.838051104542033" id="-37258">
		<tag k="name" v="Rundavatnet" />
		<tag k="natural" v="water" />
		<tag k="ssr:stedsnr" v="613995" />
		<tag k="water" v="lake" />
	</node>
	<node lat="60.63704167005759" lon="6.907177781364156" id="-37259">
		<tag k="name" v="Prisenberg" />
		<tag k="natural" v="hill" />
		<tag k="place" v="locality" />
		<tag k="ssr:stedsnr" v="614895" />
	</node>
	<node lat="60.60869444024453" lon="6.927024997192156" id="-37260">
		<tag k="historic" v="shieling" />
		<tag k="name" v="Nedre Skor" />
		<tag k="place" v="isolated_dwelling" />
		<tag k="ssr:stedsnr" v="627481" />
	</node>
	<node lat="60.5689743455254" lon="6.943023557240123" id="-37261">
		<tag k="fixme" v="consider place=hamlet" />
		<tag k="name" v="Holmen" />
		<tag k="place" v="farm" />
		<tag k="ssr:stedsnr" v="628082" />
	</node>
	<node lat="60.55552777789055" lon="7.601291658185348" id="-37262">
		<tag k="name" v="Botnen" />
		<tag k="place" v="isolated_dwelling" />
		<tag k="ssr:stedsnr" v="644965" />
	</node>
	<node lat="60.669577780128996" lon="7.230294439257056" id="-37263">
		<tag k="name" v="Øyane" />
		<tag k="place" v="island" />
		<tag k="ssr:stedsnr" v="644969" />
	</node>
	<node lat="60.491608329852376" lon="6.925049999557773" id="-37264">
		<tag k="name" v="Lindedalsviki" />
		<tag k="place" v="locality" />
		<tag k="ssr:stedsnr" v="644520" />
	</node>
	<node lat="60.532886114244725" lon="6.879008327032785" id="-37265">
		<tag k="name" v="Moltedalshaugjen" />
		<tag k="natural" v="hill" />
		<tag k="place" v="locality" />
		<tag k="ssr:stedsnr" v="645525" />
	</node>
	<node lat="60.534483337720665" lon="6.90765556341045" id="-37266">
		<tag k="name" v="Årshaug" />
		<tag k="place" v="farm" />
		<tag k="ssr:stedsnr" v="645529" />
	</node>
	<node lat="60.560605552505514" lon="6.940961114160165" id="-37267">
		<tag k="name" v="Brendehaug" />
		<tag k="natural" v="hill" />
		<tag k="place" v="locality" />
		<tag k="ssr:stedsnr" v="645547" />
	</node>
	<node lat="60.573188890264845" lon="6.977777777575772" id="-37268">
		<tag k="historic" v="shieling" />
		<tag k="name" v="Liastølane" />
		<tag k="place" v="isolated_dwelling" />
		<tag k="ssr:stedsnr" v="645552" />
	</node>
	<node lat="60.59471389195541" lon="6.926011104208598" id="-37269">
		<tag k="name" v="Klovdalsneset" />
		<tag k="natural" v="cape" />
		<tag k="ssr:stedsnr" v="645493" />
	</node>
	<node lat="60.6102555591531" lon="6.936686103183982" id="-37270">
		<tag k="name" v="Trettehaug" />
		<tag k="natural" v="hill" />
		<tag k="place" v="locality" />
		<tag k="ssr:stedsnr" v="645521" />
	</node>
	<node lat="60.49367221864618" lon="6.873099996161417" id="-37271">
		<tag k="name" v="Kaldedalen" />
		<tag k="natural" v="valley" />
		<tag k="place" v="locality" />
		<tag k="ssr:stedsnr" v="645599" />
	</node>
	<node lat="60.58791110806532" lon="7.053594448916865" id="-37272">
		<tag k="name" v="Hestabekken" />
		<tag k="ssr:stedsnr" v="645600" />
		<tag k="waterway" v="stream" />
	</node>
	<node lat="60.58569166919048" lon="6.873900004664568" id="-37273">
		<tag k="bridge" v="yes" />
		<tag k="layer" v="1" />
		<tag k="name" v="Løyning" />
		<tag k="ssr:stedsnr" v="653819" />
	</node>
	<node lat="60.532566666096095" lon="6.91908611333379" id="-37274">
		<tag k="name" v="Furo" />
		<tag k="natural" v="cape" />
		<tag k="ssr:stedsnr" v="711434" />
	</node>
	<node lat="60.599872769619424" lon="7.337268414719942" id="-37275">
		<tag k="alt_name" v="Memorgevatnet, austre" />
		<tag k="name" v="Austre Memorgevatnet" />
		<tag k="natural" v="water" />
		<tag k="ssr:stedsnr" v="735177" />
	</node>
	<node lat="60.64860000071829" lon="7.389369441701882" id="-37276">
		<tag k="name" v="Såtedalen" />
		<tag k="natural" v="valley" />
		<tag k="place" v="locality" />
		<tag k="ssr:stedsnr" v="735186" />
	</node>
	<node lat="60.624000001164504" lon="7.376900000351818" id="-37277">
		<tag k="name" v="Fagernut" />
		<tag k="place" v="isolated_dwelling" />
		<tag k="ssr:stedsnr" v="735198" />
	</node>
	<node lat="60.51447778144698" lon="6.812536117687145" id="-37278">
		<tag k="name" v="Kistesteinen" />
		<tag k="natural" v="stone" />
		<tag k="ssr:stedsnr" v="735023" />
	</node>
	<node lat="60.588400002952284" lon="6.833650000998545" id="-37279">
		<tag k="fixme" v="consider natural=peak for the most distinct mountains in the district" />
		<tag k="name" v="Slåttefjellet" />
		<tag k="natural" v="hill" />
		<tag k="place" v="locality" />
		<tag k="ssr:stedsnr" v="735913" />
	</node>
	<node lat="60.51704444521792" lon="6.901825006164318" id="-37280">
		<tag k="name" v="Eddegili" />
		<tag k="natural" v="gorge" />
		<tag k="ssr:stedsnr" v="735030" />
	</node>
	<node lat="60.530449998735904" lon="6.909230563263088" id="-37281">
		<tag k="name" v="Haugen" />
		<tag k="place" v="isolated_dwelling" />
		<tag k="ssr:stedsnr" v="735045" />
	</node>
	<node lat="60.530100002185605" lon="6.81697222705244" id="-37282">
		<tag k="name" v="Fuglevassdalen" />
		<tag k="natural" v="valley" />
		<tag k="place" v="locality" />
		<tag k="ssr:stedsnr" v="735049" />
	</node>
	<node lat="60.61146110808727" lon="7.097800001615698" id="-37283">
		<tag k="name" v="Nipahøgdi" />
		<tag k="natural" v="hill" />
		<tag k="place" v="locality" />
		<tag k="ssr:stedsnr" v="735055" />
	</node>
	<node lat="60.61387499987825" lon="6.979205555515085" id="-37284">
		<tag k="name" v="Goddalane" />
		<tag k="natural" v="valley" />
		<tag k="place" v="locality" />
		<tag k="ssr:stedsnr" v="735058" />
	</node>
	<node lat="60.60830833096652" lon="6.974825003901788" id="-37285">
		<tag k="fixme" v="multiple name tags, choose one and add the other to alt_name" />
		<tag k="name" v="Skrulselvi;Guddalselvi" />
		<tag k="ssr:stedsnr" v="735061" />
		<tag k="waterway" v="stream" />
	</node>
	<node lat="60.650958335241164" lon="7.327799990893823" id="-37286">
		<tag k="name" v="Låghellerhyttene" />
		<tag k="place" v="isolated_dwelling" />
		<tag k="ssr:stedsnr" v="735071" />
	</node>
	<node lat="60.588800001237296" lon="7.224208337822799" id="-37287">
		<tag k="name" v="Austdalen" />
		<tag k="natural" v="valley" />
		<tag k="place" v="locality" />
		<tag k="ssr:stedsnr" v="735155" />
	</node>
	<node lat="60.5647888887341" lon="6.9999416578029345" id="-37288">
		<tag k="fixme" v="consider place=hamlet" />
		<tag k="name" v="Sygnestveit" />
		<tag k="place" v="farm" />
		<tag k="ssr:stedsnr" v="735163" />
	</node>
	<node lat="60.5686749998603" lon="7.091424992078435" id="-37289">
		<tag k="fixme" v="consider natural=peak for the most distinct mountains in the district" />
		<tag k="name" v="Kvannuten" />
		<tag k="natural" v="hill" />
		<tag k="place" v="locality" />
		<tag k="ssr:stedsnr" v="735166" />
	</node>
	<node lat="60.60990833365058" lon="7.072836101995457" id="-37290">
		<tag k="fixme" v="consider natural=peak for the most distinct mountains in the district" />
		<tag k="name" v="Nipane" />
		<tag k="natural" v="hill" />
		<tag k="place" v="locality" />
		<tag k="ssr:stedsnr" v="735175" />
	</node>
	<node lat="60.590374223991915" lon="7.618326069681141" id="-37291">
		<tag k="name" v="Tverråvatni" />
		<tag k="natural" v="water" />
		<tag k="ssr:stedsnr" v="735274" />
		<tag k="water" v="lake" />
	</node>
	<node lat="60.59732778215441" lon="7.526677777755414" id="-37292">
		<tag k="historic" v="shieling" />
		<tag k="name" v="Torbjørnsstølen" />
		<tag k="place" v="isolated_dwelling" />
		<tag k="ssr:stedsnr" v="735278" />
	</node>
	<node lat="60.59792499842103" lon="7.506974995467778" id="-37293">
		<tag k="fixme" v="consider tourism=alpine_hut or tourism=chalet" />
		<tag k="name" v="Finsehytta" />
		<tag k="ssr:stedsnr" v="735280" />
		<tag k="tourism" v="wilderness_hut" />
	</node>
	<node lat="60.548800001201954" lon="6.885030559568596" id="-37294">
		<tag k="name" v="Tverrelvi" />
		<tag k="ssr:stedsnr" v="735800" />
		<tag k="waterway" v="river" />
	</node>
	<node lat="60.55363333587435" lon="6.951474998745614" id="-37295">
		<tag k="name" v="Hjelmemyr" />
		<tag k="natural" v="wetland" />
		<tag k="ssr:stedsnr" v="735751" />
	</node>
	<node lat="60.559477777810336" lon="6.935416660983153" id="-37296">
		<tag k="name" v="Torsteinshaug" />
		<tag k="natural" v="hill" />
		<tag k="place" v="locality" />
		<tag k="ssr:stedsnr" v="735755" />
	</node>
	<node lat="60.557180559417155" lon="6.9130888892097495" id="-37297">
		<tag k="name" v="Ryvaneset" />
		<tag k="natural" v="cape" />
		<tag k="ssr:stedsnr" v="735758" />
	</node>
	<node lat="60.55261666823958" lon="6.851733328961773" id="-37298">
		<tag k="historic" v="shieling" />
		<tag k="name" v="Furesete" />
		<tag k="place" v="isolated_dwelling" />
		<tag k="ssr:stedsnr" v="735763" />
	</node>
	<node lat="60.56790555586795" lon="6.916450007601102" id="-37299">
		<tag k="name" v="Ulvik" />
		<tag k="place" v="village" />
		<tag k="ssr:stedsnr" v="735836" />
	</node>
	<node lat="60.56965277732684" lon="6.937994441623253" id="-37300">
		<tag k="name" v="Snauholmen" />
		<tag k="place" v="islet" />
		<tag k="ssr:stedsnr" v="735839" />
	</node>
	<node lat="60.577963887704094" lon="6.925875003287174" id="-37301">
		<tag k="alt_name" v="Uppheim" />
		<tag k="fixme" v="consider place=hamlet" />
		<tag k="name" v="Oppheim" />
		<tag k="place" v="farm" />
		<tag k="ssr:stedsnr" v="735862" />
	</node>
	<node lat="60.700380554287065" lon="6.916049993321155" id="-37302">
		<tag k="name" v="Kleivelvi" />
		<tag k="ssr:stedsnr" v="735948" />
		<tag k="waterway" v="river" />
	</node>
	<node lat="60.70649175362509" lon="6.977421173118878" id="-37303">
		<tag k="name" v="Langavatnet" />
		<tag k="natural" v="water" />
		<tag k="ssr:stedsnr" v="735957" />
		<tag k="water" v="lake" />
	</node>
	<node lat="60.585374997476606" lon="6.871919447076498" id="-37304">
		<tag k="historic" v="shieling" />
		<tag k="name" v="Løyning" />
		<tag k="place" v="isolated_dwelling" />
		<tag k="ssr:stedsnr" v="748061" />
	</node>
	<node lat="60.5689111079684" lon="6.861019445286267" id="-37305">
		<tag k="name" v="Litlastølslii" />
		<tag k="natural" v="slope" />
		<tag k="place" v="locality" />
		<tag k="ssr:stedsnr" v="765943" />
	</node>
	<node lat="60.56288889247549" lon="6.8439944400223265" id="-37306">
		<tag k="name" v="Lauhaugen" />
		<tag k="natural" v="hill" />
		<tag k="place" v="locality" />
		<tag k="ssr:stedsnr" v="765946" />
	</node>
	<node lat="60.525013892878036" lon="6.86026944122139" id="-37307">
		<tag k="name" v="Bulegena" />
		<tag k="natural" v="valley" />
		<tag k="place" v="locality" />
		<tag k="ssr:stedsnr" v="765952" />
	</node>
	<node lat="60.57423610730183" lon="7.023672214688326" id="-37308">
		<tag k="name" v="Tellskredbekken" />
		<tag k="ssr:stedsnr" v="765955" />
		<tag k="waterway" v="stream" />
	</node>
	<node lat="60.57918889013964" lon="6.946527784403609" id="-37309">
		<tag k="name" v="Sysehagane" />
		<tag k="place" v="locality" />
		<tag k="ssr:stedsnr" v="765956" />
	</node>
	<node lat="60.59417777851373" lon="6.952275000715242" id="-37310">
		<tag k="name" v="Noltane" />
		<tag k="natural" v="hill" />
		<tag k="place" v="locality" />
		<tag k="ssr:stedsnr" v="766547" />
	</node>
	<node lat="60.593572220337315" lon="6.871491675488655" id="-37311">
		<tag k="name" v="Tungeteigen" />
		<tag k="place" v="locality" />
		<tag k="ssr:stedsnr" v="766533" />
	</node>
	<node lat="60.52611666431154" lon="6.951716663723627" id="-37312">
		<tag k="name" v="Storelihaugen" />
		<tag k="natural" v="hill" />
		<tag k="place" v="locality" />
		<tag k="ssr:stedsnr" v="766537" />
	</node>
	<node lat="60.698258335814" lon="6.961891673515891" id="-37313">
		<tag k="name" v="Skarpåker" />
		<tag k="place" v="locality" />
		<tag k="ssr:stedsnr" v="766621" />
	</node>
	<node lat="60.70782500104666" lon="6.976644451897813" id="-37314">
		<tag k="name" v="Myrane" />
		<tag k="natural" v="wetland" />
		<tag k="ssr:stedsnr" v="766624" />
	</node>
	<node lat="60.69233636673066" lon="6.970677069827487" id="-37315">
		<tag k="name" v="Tjørni" />
		<tag k="natural" v="water" />
		<tag k="ssr:stedsnr" v="766628" />
	</node>
	<node lat="60.54287221997704" lon="6.831822230304644" id="-37316">
		<tag k="name" v="Notten" />
		<tag k="place" v="locality" />
		<tag k="ssr:stedsnr" v="766632" />
	</node>
	<node lat="60.519700000400924" lon="6.879488891607204" id="-37317">
		<tag k="name" v="Trosasetdalen" />
		<tag k="natural" v="valley" />
		<tag k="place" v="locality" />
		<tag k="ssr:stedsnr" v="766571" />
	</node>
	<node lat="60.69264722169995" lon="7.222894445963509" id="-37318">
		<tag k="name" v="Grøndalsbekken" />
		<tag k="ssr:stedsnr" v="766963" />
		<tag k="waterway" v="stream" />
	</node>
	<node lat="60.57961388942644" lon="6.998402786227691" id="-37319">
		<tag k="name" v="Triungsskreo" />
		<tag k="natural" v="hill" />
		<tag k="place" v="locality" />
		<tag k="ssr:stedsnr" v="766975" />
	</node>
	<node lat="60.60107222038857" lon="7.034972228284874" id="-37320">
		<tag k="name" v="Tjørnaberget" />
		<tag k="natural" v="hill" />
		<tag k="place" v="locality" />
		<tag k="ssr:stedsnr" v="766980" />
	</node>
	<node lat="60.51584444625599" lon="6.953749995219925" id="-37321">
		<tag k="name" v="Bagnselvi" />
		<tag k="ssr:stedsnr" v="795033" />
		<tag k="waterway" v="river" />
	</node>
	<node lat="60.594327778919045" lon="7.280261108459059" id="-37322">
		<tag k="fixme" v="consider natural=peak for the most distinct mountains in the district" />
		<tag k="name" v="Brakanuten" />
		<tag k="natural" v="hill" />
		<tag k="place" v="locality" />
		<tag k="ssr:stedsnr" v="795199" />
	</node>
	<node lat="60.58990916068977" lon="6.930178552686646" id="-37323">
		<tag k="name" v="Lomtjørn" />
		<tag k="natural" v="water" />
		<tag k="ssr:stedsnr" v="795842" />
	</node>
	<node lat="60.581925001145166" lon="6.97125000348318" id="-37324">
		<tag k="name" v="Lekveskori" />
		<tag k="place" v="locality" />
		<tag k="ssr:stedsnr" v="795221" />
	</node>
	<node lat="60.55317500017873" lon="7.618699997542585" id="-37325">
		<tag k="name" v="Øvsta Storurevatnet" />
		<tag k="natural" v="water" />
		<tag k="ssr:stedsnr" v="795337" />
	</node>
	<node lat="60.56237500087315" lon="7.488800007948304" id="-37326">
		<tag k="fixme" v="consider natural=peak for the most distinct mountains in the district" />
		<tag k="name" v="Nordre Kongsnuten" />
		<tag k="natural" v="hill" />
		<tag k="place" v="locality" />
		<tag k="ssr:stedsnr" v="795348" />
	</node>
	<node lat="60.56667222266887" lon="7.579958339654607" id="-37327">
		<tag k="name" v="Sauabotn" />
		<tag k="natural" v="valley" />
		<tag k="place" v="locality" />
		<tag k="ssr:stedsnr" v="795349" />
	</node>
	<node lat="60.52602777390656" lon="6.895066666701821" id="-37328">
		<tag k="name" v="Hetlenesgili" />
		<tag k="natural" v="gorge" />
		<tag k="ssr:stedsnr" v="796045" />
	</node>
	<node lat="60.64792020907683" lon="7.120639716520547" id="-37329">
		<tag k="fixme" v="consider natural=peak for the most distinct mountains in the district" />
		<tag k="loc_name" v="Sauarjuven" />
		<tag k="name" v="Sauerjuven" />
		<tag k="natural" v="hill" />
		<tag k="place" v="locality" />
		<tag k="ssr:stedsnr" v="796081" />
	</node>
	<node lat="60.60968333693611" lon="6.89418333864093" id="-37330">
		<tag k="fixme" v="consider natural=peak for the most distinct mountains in the district" />
		<tag k="name" v="Tyssedalsnuten" />
		<tag k="natural" v="hill" />
		<tag k="place" v="locality" />
		<tag k="ssr:stedsnr" v="795891" />
	</node>
	<node lat="60.56580555723262" lon="6.955250000172284" id="-37331">
		<tag k="fixme" v="consider place=hamlet" />
		<tag k="name" v="Kvåle" />
		<tag k="place" v="farm" />
		<tag k="ssr:stedsnr" v="796866" />
	</node>
	<node lat="60.69087500349514" lon="7.153808325792301" id="-37332">
		<tag k="name" v="Pauldalen" />
		<tag k="natural" v="valley" />
		<tag k="place" v="locality" />
		<tag k="ssr:stedsnr" v="796094" />
	</node>
	<node lat="60.68675030549237" lon="6.997277165581415" id="-37333">
		<tag k="name" v="Fagerdalsvatnet" />
		<tag k="natural" v="water" />
		<tag k="ssr:stedsnr" v="796095" />
		<tag k="water" v="lake" />
	</node>
	<node lat="60.602383329191" lon="7.022961117648184" id="-37334">
		<tag k="fixme" v="consider natural=peak for the most distinct mountains in the district" />
		<tag k="name" v="Vetlekammen" />
		<tag k="natural" v="hill" />
		<tag k="place" v="locality" />
		<tag k="ssr:stedsnr" v="796176" />
	</node>
	<node lat="60.59827500311106" lon="7.051283324627121" id="-37335">
		<tag k="name" v="Norddalen" />
		<tag k="natural" v="valley" />
		<tag k="place" v="locality" />
		<tag k="ssr:stedsnr" v="796177" />
	</node>
	<node lat="60.65420000368667" lon="7.4821249962884915" id="-37336">
		<tag k="name" v="Omnsbreen" />
		<tag k="natural" v="glacier" />
		<tag k="ssr:stedsnr" v="796186" />
	</node>
	<node lat="60.647099999339595" lon="7.589477768808145" id="-37337">
		<tag k="loc_name" v="Flakvatnet" />
		<tag k="name" v="Flakavatnet" />
		<tag k="natural" v="water" />
		<tag k="ssr:stedsnr" v="796192" />
		<tag k="water" v="lake" />
	</node>
	<node lat="60.64827499628793" lon="7.540247219193304" id="-37338">
		<tag k="fixme" v="consider natural=peak for the most distinct mountains in the district" />
		<tag k="name" v="Flakavassnutane" />
		<tag k="natural" v="hill" />
		<tag k="place" v="locality" />
		<tag k="ssr:stedsnr" v="796194" />
	</node>
	<node lat="60.61637222225502" lon="7.5224277813483695" id="-37339">
		<tag k="fixme" v="consider natural=peak for the most distinct mountains in the district" />
		<tag k="name" v="Sanddalsnuten" />
		<tag k="natural" v="hill" />
		<tag k="place" v="locality" />
		<tag k="ssr:stedsnr" v="796295" />
	</node>
	<node lat="60.58369999590156" lon="6.882127780184579" id="-37340">
		<tag k="fixme" v="consider place=hamlet" />
		<tag k="name" v="Solbjørgo" />
		<tag k="place" v="farm" />
		<tag k="ssr:stedsnr" v="796831" />
	</node>
	<node lat="60.53935277497622" lon="6.858533337054623" id="-37341">
		<tag k="name" v="Glåm" />
		<tag k="natural" v="hill" />
		<tag k="place" v="locality" />
		<tag k="ssr:stedsnr" v="810116" />
	</node>
	<node lat="60.56038611492845" lon="6.826127772333766" id="-37342">
		<tag k="historic" v="shieling" />
		<tag k="name" v="Snipa" />
		<tag k="place" v="isolated_dwelling" />
		<tag k="ssr:stedsnr" v="810118" />
	</node>
	<node lat="60.60535555421052" lon="6.947505562163491" id="-37343">
		<tag k="name" v="Rindane" />
		<tag k="place" v="locality" />
		<tag k="ssr:stedsnr" v="827597" />
	</node>
	<node lat="60.49387222665373" lon="6.911419451673049" id="-37344">
		<tag k="fixme" v="consider seamark:type=rock or natural=shoal" />
		<tag k="name" v="Bagnsnesskjer" />
		<tag k="place" v="islet" />
		<tag k="ssr:stedsnr" v="827606" />
	</node>
	<node lat="60.53224166680822" lon="6.899016665502158" id="-37345">
		<tag k="name" v="Haugaberget" />
		<tag k="natural" v="hill" />
		<tag k="place" v="locality" />
		<tag k="ssr:stedsnr" v="827607" />
	</node>
	<node lat="60.56152777578219" lon="6.86426667180127" id="-37346">
		<tag k="name" v="Tellstigen" />
		<tag k="natural" v="hill" />
		<tag k="place" v="locality" />
		<tag k="ssr:stedsnr" v="827696" />
	</node>
	<node lat="60.53820277989732" lon="6.910075002899667" id="-37347">
		<tag k="name" v="Djupastein" />
		<tag k="natural" v="stone" />
		<tag k="ssr:stedsnr" v="827622" />
	</node>
	<node lat="60.51507500314638" lon="6.9400138916449166" id="-37348">
		<tag k="name" v="Tymberviki" />
		<tag k="natural" v="bay" />
		<tag k="ssr:stedsnr" v="827624" />
	</node>
	<node lat="60.7101722249081" lon="6.995505554506075" id="-37349">
		<tag k="name" v="Dalabekken" />
		<tag k="ssr:stedsnr" v="828587" />
		<tag k="waterway" v="stream" />
	</node>
	<node lat="60.60012222235102" lon="6.874358339796753" id="-37350">
		<tag k="name" v="Tyssedalselvi" />
		<tag k="ssr:stedsnr" v="828590" />
		<tag k="waterway" v="stream" />
	</node>
	<node lat="60.55574444767245" lon="6.94401667555659" id="-37351">
		<tag k="name" v="Fuglahaugane" />
		<tag k="natural" v="hill" />
		<tag k="place" v="locality" />
		<tag k="ssr:stedsnr" v="828545" />
	</node>
	<node lat="60.699861113974364" lon="6.9607111074593835" id="-37352">
		<tag k="name" v="Storhaug" />
		<tag k="natural" v="hill" />
		<tag k="place" v="locality" />
		<tag k="ssr:stedsnr" v="828556" />
	</node>
	<node lat="60.560883336776456" lon="6.970050004795214" id="-37353">
		<tag k="bridge" v="yes" />
		<tag k="layer" v="1" />
		<tag k="name" v="Øydvinstø" />
		<tag k="ssr:stedsnr" v="836820" />
	</node>
	<node lat="60.50646944860155" lon="6.903938891988661" id="-37354">
		<tag k="bridge" v="yes" />
		<tag k="layer" v="1" />
		<tag k="name" v="Tymbergjela" />
		<tag k="ssr:stedsnr" v="836822" />
	</node>
	<node lat="60.568025001399675" lon="6.874983339123015" id="-37355">
		<tag k="name" v="Bergamyrane" />
		<tag k="natural" v="wetland" />
		<tag k="ssr:stedsnr" v="848237" />
	</node>
	<node lat="60.5993212688951" lon="6.925077719212287" id="-37356">
		<tag k="name" v="Solsævatnet" />
		<tag k="natural" v="water" />
		<tag k="ssr:stedsnr" v="855942" />
		<tag k="water" v="lake" />
	</node>
	<node lat="60.57408055936524" lon="7.060747213373504" id="-37357">
		<tag k="name" v="Kyrelvi" />
		<tag k="ssr:stedsnr" v="856160" />
		<tag k="waterway" v="stream" />
	</node>
	<node lat="60.578027776906374" lon="7.029041659968108" id="-37358">
		<tag k="name" v="Djupasprang" />
		<tag k="natural" v="gorge" />
		<tag k="ssr:stedsnr" v="856161" />
	</node>
	<node lat="60.56269167112392" lon="6.960186113605846" id="-37359">
		<tag k="fixme" v="consider place=hamlet" />
		<tag k="name" v="Håheim" />
		<tag k="place" v="farm" />
		<tag k="ssr:stedsnr" v="856778" />
	</node>
	<node lat="60.58193889188954" lon="6.832716669790594" id="-37360">
		<tag k="fixme" v="consider natural=peak for the most distinct mountains in the district" />
		<tag k="name" v="Kjerringafjellet" />
		<tag k="natural" v="hill" />
		<tag k="place" v="locality" />
		<tag k="ssr:stedsnr" v="856842" />
	</node>
	<node lat="60.61963333453311" lon="7.063374995944362" id="-37361">
		<tag k="historic" v="shieling" />
		<tag k="name" v="Ossete" />
		<tag k="place" v="isolated_dwelling" />
		<tag k="ssr:stedsnr" v="857075" />
	</node>
	<node lat="60.64969999976047" lon="7.227030549635104" id="-37362">
		<tag k="name" v="Flathaugen" />
		<tag k="natural" v="hill" />
		<tag k="place" v="locality" />
		<tag k="ssr:stedsnr" v="857079" />
	</node>
	<node lat="60.62969166636208" lon="6.991388893659457" id="-37363">
		<tag k="loc_name" v="Ljonaskrulen" />
		<tag k="name" v="Ljoneskrulen" />
		<tag k="natural" v="water" />
		<tag k="ssr:stedsnr" v="857084" />
		<tag k="water" v="lake" />
	</node>
	<node lat="60.645814254582504" lon="7.074849032961447" id="-37364">
		<tag k="name" v="Skrulsvatnet" />
		<tag k="natural" v="water" />
		<tag k="ssr:stedsnr" v="857088" />
		<tag k="water" v="lake" />
	</node>
	<node lat="60.67285000215445" lon="7.012600000334102" id="-37365">
		<tag k="fixme" v="consider natural=peak for the most distinct mountains in the district" />
		<tag k="name" v="Fløyelsbråten" />
		<tag k="natural" v="hill" />
		<tag k="place" v="locality" />
		<tag k="ssr:stedsnr" v="857100" />
	</node>
	<node lat="60.54301111297909" lon="6.9441583260449855" id="-37366">
		<tag k="name" v="Salthella" />
		<tag k="natural" v="cape" />
		<tag k="ssr:stedsnr" v="857786" />
	</node>
	<node lat="60.54383055213511" lon="6.902552769432265" id="-37367">
		<tag k="historic" v="shieling" />
		<tag k="name" v="Liastølen" />
		<tag k="place" v="isolated_dwelling" />
		<tag k="ssr:stedsnr" v="857789" />
	</node>
	<node lat="60.661626258246216" lon="6.8622046803881345" id="-37368">
		<tag k="historic" v="shieling" />
		<tag k="name" v="Vesete" />
		<tag k="place" v="isolated_dwelling" />
		<tag k="ssr:stedsnr" v="857968" />
	</node>
	<node lat="60.570141612107335" lon="6.908705249567192" id="-37369">
		<tag k="fixme" v="consider place=hamlet" />
		<tag k="name" v="Hydle" />
		<tag k="place" v="farm" />
		<tag k="ssr:stedsnr" v="857840" />
	</node>
	<node lat="60.56241389291145" lon="6.928002782312112" id="-37370">
		<tag k="name" v="Hjeltnes" />
		<tag k="natural" v="cape" />
		<tag k="ssr:stedsnr" v="857843" />
	</node>
	<node lat="60.56289444080953" lon="6.929252783124294" id="-37371">
		<tag k="fixme" v="consider place=hamlet" />
		<tag k="name" v="Hjeltnes" />
		<tag k="place" v="farm" />
		<tag k="ssr:stedsnr" v="873636" />
	</node>
	<node lat="60.5966111075384" lon="6.9635805629922976" id="-37372">
		<tag k="historic" v="shieling" />
		<tag k="name" v="Horgava" />
		<tag k="place" v="isolated_dwelling" />
		<tag k="ssr:stedsnr" v="887951" />
	</node>
	<node lat="60.55915600287603" lon="6.844435372615099" id="-37373">
		<tag k="alt_name" v="Skitnasetbekkjen" />
		<tag k="name" v="Skitnasetbekken" />
		<tag k="ssr:stedsnr" v="887942" />
		<tag k="waterway" v="stream" />
	</node>
	<node lat="60.608152777514825" lon="6.9375361157825735" id="-37374">
		<tag k="name" v="Slåttena" />
		<tag k="natural" v="hill" />
		<tag k="place" v="locality" />
		<tag k="ssr:stedsnr" v="888516" />
	</node>
	<node lat="60.49041854993256" lon="6.859323880879786" id="-37375">
		<tag k="alt_name" v="Smedvika" />
		<tag k="name" v="Smedviki" />
		<tag k="place" v="locality" />
		<tag k="ssr:stedsnr" v="888466" />
	</node>
	<node lat="60.586999995983206" lon="6.894997217954502" id="-37376">
		<tag k="name" v="Høgdena" />
		<tag k="natural" v="hill" />
		<tag k="place" v="locality" />
		<tag k="ssr:stedsnr" v="888478" />
	</node>
	<node lat="60.52449166296114" lon="6.962566673891078" id="-37377">
		<tag k="name" v="Høganuten" />
		<tag k="natural" v="hill" />
		<tag k="place" v="locality" />
		<tag k="ssr:stedsnr" v="888488" />
	</node>
	<node lat="60.55865277928704" lon="6.854544447464757" id="-37378">
		<tag k="name" v="Fljaoena" />
		<tag k="place" v="locality" />
		<tag k="ssr:stedsnr" v="888575" />
	</node>
	<node lat="60.585833336185566" lon="6.8610361107211" id="-37379">
		<tag k="name" v="Drevhovdane" />
		<tag k="place" v="locality" />
		<tag k="ssr:stedsnr" v="888586" />
	</node>
	<node lat="60.6135166694313" lon="7.493263888137761" id="-37380">
		<tag k="name" v="Jomfruholli" />
		<tag k="place" v="locality" />
		<tag k="ssr:stedsnr" v="888970" />
	</node>
	<node lat="60.583933336905716" lon="7.4581527866406825" id="-37381">
		<tag k="name" v="Bukkeskinnshjellane" />
		<tag k="place" v="locality" />
		<tag k="ssr:stedsnr" v="888971" />
	</node>
	<node lat="60.60592777520639" lon="6.924413892282565" id="-37382">
		<tag k="name" v="Skoraberget" />
		<tag k="natural" v="hill" />
		<tag k="place" v="locality" />
		<tag k="ssr:stedsnr" v="888988" />
	</node>
	<node lat="60.570766668548075" lon="6.897538885583762" id="-37383">
		<tag k="name" v="Bergaberget" />
		<tag k="natural" v="hill" />
		<tag k="place" v="locality" />
		<tag k="ssr:stedsnr" v="948964" />
	</node>
	<node lat="60.68145000126312" lon="7.222269451418656" id="-37384">
		<tag k="name" v="Smørsund" />
		<tag k="natural" v="strait" />
		<tag k="ssr:stedsnr" v="948974" />
	</node>
	<node lat="60.522149999172335" lon="6.857927775447536" id="-37385">
		<tag k="name" v="Javanuten" />
		<tag k="natural" v="hill" />
		<tag k="place" v="locality" />
		<tag k="ssr:stedsnr" v="948975" />
	</node>
	<node lat="60.493441669284714" lon="6.844663893885697" id="-37386">
		<tag k="name" v="Smidjehaugen" />
		<tag k="natural" v="hill" />
		<tag k="place" v="locality" />
		<tag k="ssr:stedsnr" v="949423" />
	</node>
	<node lat="60.57114722178296" lon="6.987397219286437" id="-37387">
		<tag k="name" v="Hundastigen" />
		<tag k="place" v="locality" />
		<tag k="ssr:stedsnr" v="949426" />
	</node>
	<node lat="60.52235555558448" lon="6.950422214437307" id="-37388">
		<tag k="name" v="Gryvle" />
		<tag k="place" v="locality" />
		<tag k="ssr:stedsnr" v="949457" />
	</node>
	<node lat="60.519927781223714" lon="6.978858324216107" id="-37389">
		<tag k="name" v="Friarhaug" />
		<tag k="natural" v="hill" />
		<tag k="place" v="locality" />
		<tag k="ssr:stedsnr" v="949466" />
	</node>
	<node lat="60.56115833389839" lon="6.837102775014959" id="-37390">
		<tag k="name" v="Skitnasethøgdæ" />
		<tag k="place" v="locality" />
		<tag k="ssr:stedsnr" v="949548" />
	</node>
	<node lat="60.59076315667472" lon="6.859949690527054" id="-37391">
		<tag k="name" v="Drevtjørnhaugen" />
		<tag k="natural" v="hill" />
		<tag k="place" v="locality" />
		<tag k="ssr:stedsnr" v="949556" />
	</node>
	<node lat="60.71151666543012" lon="6.988638893776594" id="-37392">
		<tag k="name" v="Rustedølo" />
		<tag k="ssr:stedsnr" v="949565" />
		<tag k="waterway" v="river" />
	</node>
	<node lat="60.48518611402971" lon="6.793022216359796" id="-37393">
		<tag k="name" v="Øvsta Vangsoksli" />
		<tag k="natural" v="slope" />
		<tag k="place" v="locality" />
		<tag k="ssr:stedsnr" v="949995" />
	</node>
	<node lat="60.595158331779395" lon="7.003508329820651" id="-37394">
		<tag k="name" v="Klevane" />
		<tag k="place" v="locality" />
		<tag k="ssr:stedsnr" v="949952" />
	</node>
	<node lat="60.580222222684284" lon="7.010024995077153" id="-37395">
		<tag k="name" v="Ryggsnes" />
		<tag k="natural" v="cape" />
		<tag k="ssr:stedsnr" v="949956" />
	</node>
	<node lat="60.57104999595418" lon="7.01874443974126" id="-37396">
		<tag k="name" v="Røyneskorane" />
		<tag k="place" v="locality" />
		<tag k="ssr:stedsnr" v="949957" />
	</node>
	<node lat="60.58924166879005" lon="7.041027776906947" id="-37397">
		<tag k="name" v="Hjallane" />
		<tag k="place" v="farm" />
		<tag k="ssr:stedsnr" v="949960" />
	</node>
	<node lat="60.59303333024223" lon="7.020949998109796" id="-37398">
		<tag k="name" v="Nuten" />
		<tag k="natural" v="hill" />
		<tag k="place" v="locality" />
		<tag k="ssr:stedsnr" v="949963" />
	</node>
	<node lat="60.56779345294056" lon="6.910484926859611" id="-37407">
		<tag k="fixme" v="consider place=hamlet" />
		<tag k="name" v="Skeie" />
		<tag k="place" v="farm" />
		<tag k="ssr:stedsnr" v="985561" />
	</node>
	<node lat="60.66173246495549" lon="6.862496538542295" id="-37411">
		<tag k="fixme" v="consider tourism=alpine_hut or tourism=chalet" />
		<tag k="name" v="BT-hytten" />
		<tag k="ssr:stedsnr" v="985792" />
		<tag k="tourism" v="wilderness_hut" />
	</node>
	<node lat="60.50714821305224" lon="6.933396518290147" id="-37412">
		<tag k="fixme" v="consider place=hamlet" />
		<tag k="name" v="Bolstad" />
		<tag k="place" v="farm" />
		<tag k="ssr:stedsnr" v="987858" />
	</node>
	<node lat="60.554271585710076" lon="6.928489375111905" id="-37413">
		<tag k="fixme" v="consider place=hamlet" />
		<tag k="name" v="Viknes" />
		<tag k="place" v="farm" />
		<tag k="ssr:stedsnr" v="987859" />
	</node>
	<node lat="60.57043025103605" lon="7.486706322266623" id="-37418">
		<tag k="name" v="Appelsinhytta" />
		<tag k="place" v="locality" />
		<tag k="ssr:stedsnr" v="1079149" />
	</node>
	<node lat="60.61001161413883" lon="7.59882054364658" id="-37419">
		<tag k="fixme" v="consider tourism=alpine_hut or tourism=chalet" />
		<tag k="name" v="Lengjedalsbui" />
		<tag k="ssr:stedsnr" v="1079158" />
		<tag k="tourism" v="wilderness_hut" />
	</node>
</osm>
