<?xml version="1.0" encoding="UTF-8"?>
<osm version="0.6" generator="osmapis">
	<node lat="60.54970833541087" lon="6.929766672741385" id="-25959">
		<tag k="name" v="Fjotle" />
		<tag k="place" v="farm" />
		<tag k="ssr:stedsnr" v="44435" />
	</node>
	<node lat="60.57003610934639" lon="6.893775009140464" id="-25982">
		<tag k="fixme" v="consider place=hamlet" />
		<tag k="name" v="Store Bergo" />
		<tag k="place" v="farm" />
		<tag k="ssr:stedsnr" v="100910" />
	</node>
	<node lat="60.545550000451094" lon="6.92999166528675" id="-25985">
		<tag k="fixme" v="consider place=hamlet" />
		<tag k="name" v="Rondestveit" />
		<tag k="place" v="farm" />
		<tag k="ssr:stedsnr" v="249796" />
	</node>
	<node lat="60.540675000230166" lon="7.026674999945421" id="-25986">
		<tag k="historic" v="shieling" />
		<tag k="name" v="Døgrdalsete" />
		<tag k="place" v="isolated_dwelling" />
		<tag k="ssr:stedsnr" v="249147" />
	</node>
	<node lat="60.53198055423533" lon="6.895133330387512" id="-25999">
		<tag k="historic" v="shieling" />
		<tag k="name" v="Øvstestølen" />
		<tag k="place" v="isolated_dwelling" />
		<tag k="ssr:stedsnr" v="250050" />
	</node>
	<node lat="60.602888889368636" lon="7.492413896922076" id="-26005">
		<tag k="name" v="Finse" />
		<tag k="place" v="isolated_dwelling" />
		<tag k="ssr:stedsnr" v="250281" />
	</node>
	<node lat="60.57125000204631" lon="6.959499992094369" id="-26007">
		<tag k="fixme" v="consider place=hamlet" />
		<tag k="name" v="Torblå" />
		<tag k="place" v="farm" />
		<tag k="ssr:stedsnr" v="250822" />
	</node>
	<node lat="60.60304444357861" lon="7.218933333916675" id="-26011">
		<tag k="name" v="Austdølbu" />
		<tag k="place" v="locality" />
		<tag k="ssr:stedsnr" v="128140" />
	</node>
	<node lat="60.60209444420632" lon="7.502549992860706" id="-26017">
		<tag k="alt_name" v="Finse Hotell" />
		<tag k="name" v="Finse" />
		<tag k="ssr:stedsnr" v="310288" />
		<tag k="tourism" v="hotel" />
	</node>
	<node lat="60.571853601143495" lon="6.895897139665685" id="-26020">
		<tag k="fixme" v="consider place=hamlet" />
		<tag k="name" v="Midtre Bergo" />
		<tag k="place" v="farm" />
		<tag k="ssr:stedsnr" v="161909" />
	</node>
	<node lat="60.5148888876565" lon="6.944083340569211" id="-26025">
		<tag k="alt_name" v="Slåtte" />
		<tag k="name" v="Slottet" />
		<tag k="place" v="farm" />
		<tag k="ssr:stedsnr" v="188020" />
	</node>
	<node lat="60.551427781491505" lon="6.942549992740151" id="-26038">
		<tag k="fixme" v="consider place=hamlet" />
		<tag k="name" v="Vattatveit" />
		<tag k="place" v="farm" />
		<tag k="ssr:stedsnr" v="189780" />
	</node>
	<node lat="60.6890722182974" lon="7.217274992298554" id="-26049">
		<tag k="name" v="Grøndalsbarakka" />
		<tag k="place" v="isolated_dwelling" />
		<tag k="ssr:stedsnr" v="221608" />
	</node>
	<node lat="60.48559050877199" lon="6.826124651639671" id="-26052">
		<tag k="fixme" v="consider place=hamlet" />
		<tag k="loc_name" v="Vallavik" />
		<tag k="name" v="Vallaviki" />
		<tag k="place" v="farm" />
		<tag k="ssr:stedsnr" v="248419" />
	</node>
	<node lat="60.48965000127954" lon="6.836994438985917" id="-26059">
		<tag k="name" v="Kariteigen" />
		<tag k="place" v="farm" />
		<tag k="ssr:stedsnr" v="281517" />
	</node>
	<node lat="60.492791662587" lon="6.831394450824301" id="-26073">
		<tag k="name" v="Tveitæ" />
		<tag k="place" v="farm" />
		<tag k="ssr:stedsnr" v="463479" />
	</node>
	<node lat="60.60111111461178" lon="6.894019449207557" id="-26075">
		<tag k="historic" v="shieling" />
		<tag k="name" v="Favnastøl" />
		<tag k="place" v="isolated_dwelling" />
		<tag k="ssr:stedsnr" v="463493" />
	</node>
	<node lat="60.505433330887286" lon="6.9313666756500725" id="-26085">
		<tag k="alt_name" v="Bolstad, ytre;Bolstad" />
		<tag k="name" v="Ytre Bolstad" />
		<tag k="place" v="farm" />
		<tag k="ssr:stedsnr" v="310013" />
	</node>
	<node lat="60.634194446192765" lon="7.238900003698746" id="-26086">
		<tag k="name" v="Dyrahola" />
		<tag k="place" v="locality" />
		<tag k="ssr:stedsnr" v="310079" />
	</node>
	<node lat="60.55010681560152" lon="6.906655080418504" id="-26094">
		<tag k="alt_name" v="Frøystein" />
		<tag k="fixme" v="consider place=hamlet" />
		<tag k="name" v="Fryste" />
		<tag k="place" v="farm" />
		<tag k="ssr:stedsnr" v="310799" />
	</node>
	<node lat="60.58117499801635" lon="6.951188892104124" id="-26097">
		<tag k="name" v="Solhovden" />
		<tag k="place" v="farm" />
		<tag k="ssr:stedsnr" v="310825" />
	</node>
	<node lat="60.66187080943353" lon="7.243073124254624" id="-26112">
		<tag k="alt_name" v="Hallingskeidsæter" />
		<tag k="historic" v="shieling" />
		<tag k="name" v="Hallingskeid" />
		<tag k="place" v="isolated_dwelling" />
		<tag k="ssr:stedsnr" v="371080" />
	</node>
	<node lat="60.576200003683624" lon="6.916386110170355" id="-26115">
		<tag k="fixme" v="consider place=hamlet" />
		<tag k="name" v="Vestrheim" />
		<tag k="place" v="farm" />
		<tag k="ssr:stedsnr" v="371875" />
	</node>
	<node lat="60.598358329773426" lon="6.967777783303332" id="-26120">
		<tag k="name" v="Horgagaren" />
		<tag k="place" v="farm" />
		<tag k="ssr:stedsnr" v="402578" />
	</node>
	<node lat="60.4798683734195" lon="6.806132497988501" id="-26130">
		<tag k="name" v="Kvammen" />
		<tag k="place" v="farm" />
		<tag k="ssr:stedsnr" v="430410" />
	</node>
	<node lat="60.49202940806008" lon="6.855537582923654" id="-26131">
		<tag k="fixme" v="consider place=hamlet" />
		<tag k="name" v="Vangsbygdi" />
		<tag k="place" v="village" />
		<tag k="ssr:stedsnr" v="430417" />
	</node>
	<node lat="60.529469908334036" lon="6.909259967541151" id="-26134">
		<tag k="fixme" v="consider place=hamlet" />
		<tag k="name" v="Hetlenes" />
		<tag k="place" v="farm" />
		<tag k="ssr:stedsnr" v="432038" />
	</node>
	<node lat="60.59226666691986" lon="7.037833341475314" id="-26146">
		<tag k="fixme" v="consider place=hamlet" />
		<tag k="name" v="Osa" />
		<tag k="place" v="farm" />
		<tag k="ssr:stedsnr" v="492146" />
	</node>
	<node lat="60.55344049842639" lon="6.929412743098029" id="-26148">
		<tag k="alt_name" v="Viknes, ytre;Viknes" />
		<tag k="name" v="Ytre Viknes" />
		<tag k="place" v="farm" />
		<tag k="ssr:stedsnr" v="492749" />
	</node>
	<node lat="60.564149999083654" lon="6.896488883569763" id="-26151">
		<tag k="alt_name" v="Sponheim" />
		<tag k="fixme" v="consider place=hamlet" />
		<tag k="name" v="Spånheim" />
		<tag k="place" v="farm" />
		<tag k="ssr:stedsnr" v="492850" />
	</node>
	<node lat="60.4974749976372" lon="6.843544452411809" id="-26155">
		<tag k="historic" v="shieling" />
		<tag k="name" v="Skarvet" />
		<tag k="place" v="isolated_dwelling" />
		<tag k="ssr:stedsnr" v="673427" />
	</node>
	<node lat="60.610330557730585" lon="6.9576388877713" id="-26158">
		<tag k="historic" v="shieling" />
		<tag k="name" v="Nedre Sveig" />
		<tag k="place" v="isolated_dwelling" />
		<tag k="ssr:stedsnr" v="673892" />
	</node>
	<node lat="60.55324166497993" lon="6.989850003076506" id="-26166">
		<tag k="alt_name" v="Øydvenstølen" />
		<tag k="historic" v="shieling" />
		<tag k="name" v="Øydvenselet" />
		<tag k="place" v="isolated_dwelling" />
		<tag k="ssr:stedsnr" v="462956" />
	</node>
	<node lat="60.65492499964976" lon="7.327075008807654" id="-26167">
		<tag k="name" v="Fokstova" />
		<tag k="place" v="isolated_dwelling" />
		<tag k="ssr:stedsnr" v="674081" />
	</node>
	<node lat="60.585963886946296" lon="7.041011109701357" id="-26171">
		<tag k="name" v="Hønsahjallen" />
		<tag k="place" v="farm" />
		<tag k="ssr:stedsnr" v="674159" />
	</node>
	<node lat="60.58537107293207" lon="6.89988984892092" id="-26177">
		<tag k="alt_name" v="Kleppe" />
		<tag k="historic" v="shieling" />
		<tag k="name" v="Vestrheimskleppe" />
		<tag k="place" v="isolated_dwelling" />
		<tag k="ssr:stedsnr" v="674810" />
	</node>
	<node lat="60.54663333707318" lon="6.908424993613827" id="-26180">
		<tag k="name" v="Tveito" />
		<tag k="place" v="hamlet" />
		<tag k="ssr:stedsnr" v="674797" />
	</node>
	<node lat="60.52255832966922" lon="6.965700006731945" id="-26184">
		<tag k="historic" v="shieling" />
		<tag k="name" v="Hellås" />
		<tag k="place" v="isolated_dwelling" />
		<tag k="ssr:stedsnr" v="492025" />
	</node>
	<node lat="60.68224166815931" lon="7.211938889306488" id="-26185">
		<tag k="historic" v="shieling" />
		<tag k="name" v="Tuftene" />
		<tag k="place" v="isolated_dwelling" />
		<tag k="ssr:stedsnr" v="492075" />
	</node>
	<node lat="60.587700004194225" lon="6.9115750049604285" id="-26187">
		<tag k="historic" v="shieling" />
		<tag k="name" v="Røyneskor" />
		<tag k="place" v="isolated_dwelling" />
		<tag k="ssr:stedsnr" v="492822" />
	</node>
	<node lat="60.55472778210533" lon="7.167200002493123" id="-26200">
		<tag k="name" v="Langvassbu" />
		<tag k="place" v="locality" />
		<tag k="ssr:stedsnr" v="552151" />
	</node>
	<node lat="60.57685555763227" lon="6.843788887002404" id="-26209">
		<tag k="historic" v="shieling" />
		<tag k="name" v="Grostøl" />
		<tag k="place" v="isolated_dwelling" />
		<tag k="ssr:stedsnr" v="583943" />
	</node>
	<node lat="60.55901111415662" lon="6.968477777407985" id="-26220">
		<tag k="name" v="Øydvenstod" />
		<tag k="place" v="farm" />
		<tag k="ssr:stedsnr" v="612165" />
	</node>
	<node lat="60.709172220842895" lon="6.984561106277379" id="-26222">
		<tag k="historic" v="shieling" />
		<tag k="name" v="Langvasstølen" />
		<tag k="place" v="isolated_dwelling" />
		<tag k="ssr:stedsnr" v="613115" />
	</node>
	<node lat="60.60005832979085" lon="6.998911114593915" id="-26225">
		<tag k="historic" v="shieling" />
		<tag k="name" v="Olstølen" />
		<tag k="place" v="isolated_dwelling" />
		<tag k="ssr:stedsnr" v="613167" />
	</node>
	<node lat="60.55502500307165" lon="7.631624990908958" id="-26226">
		<tag k="historic" v="shieling" />
		<tag k="name" v="Storuri" />
		<tag k="place" v="isolated_dwelling" />
		<tag k="ssr:stedsnr" v="613306" />
	</node>
	<node lat="60.5735500015774" lon="7.569127781259296" id="-26227">
		<tag k="historic" v="shieling" />
		<tag k="name" v="Hansbu" />
		<tag k="place" v="isolated_dwelling" />
		<tag k="ssr:stedsnr" v="613311" />
	</node>
	<node lat="60.58182500044885" lon="6.88904166780525" id="-26229">
		<tag k="fixme" v="consider place=hamlet" />
		<tag k="name" v="Aurdal" />
		<tag k="place" v="farm" />
		<tag k="ssr:stedsnr" v="613811" />
	</node>
	<node lat="60.62739444089393" lon="6.8927583279574645" id="-26233">
		<tag k="historic" v="shieling" />
		<tag k="name" v="Tyssedalsstølen" />
		<tag k="place" v="isolated_dwelling" />
		<tag k="ssr:stedsnr" v="613903" />
	</node>
	<node lat="60.59594444012619" lon="6.875536103333635" id="-26234">
		<tag k="historic" v="shieling" />
		<tag k="name" v="Sotenos" />
		<tag k="place" v="isolated_dwelling" />
		<tag k="ssr:stedsnr" v="613913" />
	</node>
	<node lat="60.57253889016934" lon="6.952547230073831" id="-26246">
		<tag k="fixme" v="consider place=hamlet" />
		<tag k="name" v="Nedre Lekve" />
		<tag k="place" v="farm" />
		<tag k="ssr:stedsnr" v="706555" />
	</node>
	<node lat="60.49886110879656" lon="6.896811104326402" id="-26253">
		<tag k="name" v="Sandviki" />
		<tag k="place" v="locality" />
		<tag k="ssr:stedsnr" v="650386" />
	</node>
	<node lat="60.50013888534946" lon="6.921836116004262" id="-26256">
		<tag k="name" v="Brunnen" />
		<tag k="place" v="farm" />
		<tag k="ssr:stedsnr" v="674011" />
	</node>
	<node lat="60.710625003957276" lon="6.9940249956841924" id="-26260">
		<tag k="alt_name" v="Dalsete" />
		<tag k="historic" v="shieling" />
		<tag k="name" v="Dalen" />
		<tag k="place" v="isolated_dwelling" />
		<tag k="ssr:stedsnr" v="674115" />
	</node>
	<node lat="60.543683329250555" lon="6.870774991888484" id="-26263">
		<tag k="historic" v="shieling" />
		<tag k="name" v="Sjusete" />
		<tag k="place" v="isolated_dwelling" />
		<tag k="ssr:stedsnr" v="674803" />
	</node>
	<node lat="60.50908333080222" lon="6.936288893760434" id="-26292">
		<tag k="alt_name" v="Bolstad, indre;Bolstad" />
		<tag k="name" v="Indre Bolstad" />
		<tag k="place" v="farm" />
		<tag k="ssr:stedsnr" v="735018" />
	</node>
	<node lat="60.600806748575266" lon="6.94467240509782" id="-26293">
		<tag k="historic" v="shieling" />
		<tag k="name" v="Solsæ" />
		<tag k="place" v="isolated_dwelling" />
		<tag k="ssr:stedsnr" v="734937" />
	</node>
	<node lat="60.49299167098037" lon="6.85916666210268" id="-26306">
		<tag k="name" v="Messekleiv" />
		<tag k="place" v="farm" />
		<tag k="ssr:stedsnr" v="766513" />
	</node>
	<node lat="60.48770277693485" lon="6.811080549210011" id="-26307">
		<tag k="historic" v="shieling" />
		<tag k="name" v="Furesete" />
		<tag k="place" v="isolated_dwelling" />
		<tag k="ssr:stedsnr" v="766515" />
	</node>
	<node lat="60.564866667611355" lon="6.933013881370048" id="-26316">
		<tag k="name" v="Dammen" />
		<tag k="place" v="isolated_dwelling" />
		<tag k="ssr:stedsnr" v="772819" />
	</node>
	<node lat="60.59215000380876" lon="7.541225001101781" id="-26322">
		<tag k="name" v="Finsefeti" />
		<tag k="place" v="isolated_dwelling" />
		<tag k="ssr:stedsnr" v="796277" />
	</node>
	<node lat="60.59612500288131" lon="7.467849992976492" id="-26323">
		<tag k="name" v="Norenut" />
		<tag k="place" v="isolated_dwelling" />
		<tag k="ssr:stedsnr" v="796280" />
	</node>
	<node lat="60.58914166279938" lon="7.035433336557006" id="-26329">
		<tag k="fixme" v="consider place=hamlet" />
		<tag k="name" v="Osa" />
		<tag k="place" v="village" />
		<tag k="ssr:stedsnr" v="917147" />
	</node>
	<node lat="60.689158334510545" lon="7.222900005433741" id="-26332">
		<tag k="name" v="Grøndal" />
		<tag k="place" v="isolated_dwelling" />
		<tag k="ssr:stedsnr" v="917089" />
	</node>
	<node lat="60.5710249993808" lon="7.573925007821738" id="-26334">
		<tag k="name" v="Kongsnut" />
		<tag k="place" v="isolated_dwelling" />
		<tag k="ssr:stedsnr" v="917276" />
	</node>
	<node lat="60.560499995908486" lon="6.996755555389747" id="-26344">
		<tag k="alt_name" v="Mjølstølen" />
		<tag k="historic" v="shieling" />
		<tag k="name" v="Mjøstølen" />
		<tag k="place" v="isolated_dwelling" />
		<tag k="ssr:stedsnr" v="827977" />
	</node>
	<node lat="60.59263611097948" lon="6.971194448444739" id="-26351">
		<tag k="historic" v="shieling" />
		<tag k="name" v="Jonstølen" />
		<tag k="place" v="isolated_dwelling" />
		<tag k="ssr:stedsnr" v="856184" />
	</node>
	<node lat="60.5944194438114" lon="7.0383777800983" id="-26352">
		<tag k="name" v="Haugen" />
		<tag k="place" v="farm" />
		<tag k="ssr:stedsnr" v="856193" />
	</node>
	<node lat="60.560186108845244" lon="6.897513881763395" id="-26355">
		<tag k="name" v="Gjerdet" />
		<tag k="place" v="farm" />
		<tag k="ssr:stedsnr" v="856783" />
	</node>
	<node lat="60.557811106753306" lon="6.9661305522397825" id="-26370">
		<tag k="name" v="Kalvagjere" />
		<tag k="place" v="farm" />
		<tag k="ssr:stedsnr" v="888545" />
	</node>
	<node lat="60.50342499702741" lon="6.8847638873143975" id="-26376">
		<tag k="historic" v="shieling" />
		<tag k="name" v="Øvstestølen" />
		<tag k="place" v="isolated_dwelling" />
		<tag k="ssr:stedsnr" v="917006" />
	</node>
	<node lat="60.57498865482462" lon="6.9369279375848185" id="-26386">
		<tag k="fixme" v="consider place=hamlet" />
		<tag k="name" v="Øvre Hakastad" />
		<tag k="place" v="farm" />
		<tag k="ssr:stedsnr" v="917861" />
	</node>
	<node lat="60.57391557128549" lon="6.951157690427061" id="-26387">
		<tag k="name" v="Lekve" />
		<tag k="place" v="hamlet" />
		<tag k="ssr:stedsnr" v="917863" />
	</node>
	<node lat="60.57800833255458" lon="6.881166665238871" id="-26388">
		<tag k="historic" v="shieling" />
		<tag k="name" v="Fitjo" />
		<tag k="place" v="isolated_dwelling" />
		<tag k="ssr:stedsnr" v="917875" />
	</node>
	<node lat="60.49706388620839" lon="6.882888889052105" id="-26395">
		<tag k="name" v="Grønskål" />
		<tag k="place" v="farm" />
		<tag k="ssr:stedsnr" v="949501" />
	</node>
	<node lat="60.57254722272046" lon="6.927394444970319" id="-26398">
		<tag k="fixme" v="consider place=hamlet" />
		<tag k="name" v="Nedre Hakastad" />
		<tag k="old_name" v="Hakestad" />
		<tag k="place" v="farm" />
		<tag k="ssr:stedsnr" v="949518" />
	</node>
	<node lat="60.602516305688475" lon="6.981827330334434" id="-26408">
		<tag k="historic" v="shieling" />
		<tag k="name" v="Horgo" />
		<tag k="place" v="isolated_dwelling" />
		<tag k="ssr:stedsnr" v="7078" />
	</node>
	<node lat="60.564580552074226" lon="6.966002786647102" id="-26422">
		<tag k="alt_name" v="Øydvin" />
		<tag k="fixme" v="consider place=hamlet" />
		<tag k="name" v="Øydve" />
		<tag k="place" v="farm" />
		<tag k="ssr:stedsnr" v="7840" />
	</node>
	<node lat="60.668130552296034" lon="7.24817499247399" id="-26428">
		<tag k="fixme" v="consider tourism=alpine_hut or tourism=chalet" />
		<tag k="name" v="Hallingskeid" />
		<tag k="ssr:stedsnr" v="26236" />
		<tag k="tourism" v="wilderness_hut" />
	</node>
	<node lat="60.57509999571519" lon="6.899647226389153" id="-26429">
		<tag k="fixme" v="consider place=hamlet" />
		<tag k="name" v="Litle Bergo" />
		<tag k="place" v="farm" />
		<tag k="ssr:stedsnr" v="27358" />
	</node>
	<node lat="60.57186388978615" lon="6.9186138826778825" id="-26436">
		<tag k="name" v="Rossvoll" />
		<tag k="place" v="farm" />
		<tag k="ssr:stedsnr" v="38586" />
	</node>
	<node lat="60.59079167076043" lon="7.037063897488063" id="-26449">
		<tag k="name" v="Folkvang" />
		<tag k="place" v="farm" />
		<tag k="ssr:stedsnr" v="67181" />
	</node>
	<node lat="60.52896389186292" lon="6.862925007794421" id="-26455">
		<tag k="historic" v="shieling" />
		<tag k="name" v="Hellesete" />
		<tag k="place" v="isolated_dwelling" />
		<tag k="ssr:stedsnr" v="68044" />
	</node>
	<node lat="60.57924999659576" lon="7.567872225698443" id="-26465">
		<tag k="historic" v="shieling" />
		<tag k="name" v="Torsstølen" />
		<tag k="place" v="isolated_dwelling" />
		<tag k="ssr:stedsnr" v="68316" />
	</node>
	<node lat="60.61103333720837" lon="6.929577781789059" id="-26467">
		<tag k="historic" v="shieling" />
		<tag k="name" v="Øvre Skor" />
		<tag k="place" v="isolated_dwelling" />
		<tag k="ssr:stedsnr" v="82166" />
	</node>
	<node lat="60.56781110850239" lon="6.9448111090089855" id="-26468">
		<tag k="name" v="Øyri" />
		<tag k="place" v="farm" />
		<tag k="ssr:stedsnr" v="88284" />
	</node>
	<node lat="60.562122971903015" lon="6.8785217045903195" id="-26470">
		<tag k="fixme" v="consider place=hamlet" />
		<tag k="name" v="Lindebrekke" />
		<tag k="place" v="farm" />
		<tag k="ssr:stedsnr" v="99598" />
	</node>
	<node lat="60.70541667001719" lon="6.987455556979031" id="-26479">
		<tag k="historic" v="shieling" />
		<tag k="name" v="Gamlestølen" />
		<tag k="place" v="isolated_dwelling" />
		<tag k="ssr:stedsnr" v="99629" />
	</node>
	<node lat="60.49205555169946" lon="6.886433328091096" id="-26488">
		<tag k="fixme" v="consider place=hamlet" />
		<tag k="name" v="Åsheim" />
		<tag k="place" v="farm" />
		<tag k="ssr:stedsnr" v="126402" />
	</node>
	<node lat="60.51360252828889" lon="6.952989993781512" id="-26490">
		<tag k="fixme" v="consider place=hamlet" />
		<tag k="name" v="Bagne" />
		<tag k="place" v="farm" />
		<tag k="ssr:stedsnr" v="128013" />
	</node>
	<node lat="60.52018611114168" lon="6.950416659449133" id="-26491">
		<tag k="name" v="Mjølstøl" />
		<tag k="place" v="farm" />
		<tag k="ssr:stedsnr" v="128023" />
	</node>
	<node lat="60.64555277451861" lon="7.5215249976039535" id="-26494">
		<tag k="name" v="Klemsbu" />
		<tag k="place" v="locality" />
		<tag k="ssr:stedsnr" v="128165" />
	</node>
	<node lat="60.561544440205125" lon="6.905069444840732" id="-26498">
		<tag k="fixme" v="consider place=hamlet" />
		<tag k="name" v="Vambheim" />
		<tag k="place" v="farm" />
		<tag k="ssr:stedsnr" v="128845" />
	</node>
	<node lat="60.56657499888952" lon="6.867044437765197" id="-26499">
		<tag k="historic" v="shieling" />
		<tag k="name" v="Litlastøl" />
		<tag k="place" v="isolated_dwelling" />
		<tag k="ssr:stedsnr" v="128856" />
	</node>
	<node lat="60.51686111253697" lon="6.946638896080825" id="-26500">
		<tag k="historic" v="shieling" />
		<tag k="name" v="Mjøstølen" />
		<tag k="place" v="isolated_dwelling" />
		<tag k="ssr:stedsnr" v="128876" />
	</node>
	<node lat="60.58006666946347" lon="6.933552779272518" id="-26503">
		<tag k="alt_name" v="Ljone" />
		<tag k="fixme" v="consider place=hamlet" />
		<tag k="name" v="Ljono" />
		<tag k="place" v="farm" />
		<tag k="ssr:stedsnr" v="128823" />
	</node>
	<node lat="60.56801666948641" lon="6.904080554333603" id="-26512">
		<tag k="fixme" v="consider place=hamlet" />
		<tag k="name" v="Hjelmavoll" />
		<tag k="place" v="farm" />
		<tag k="ssr:stedsnr" v="160512" />
	</node>
	<node lat="60.5245215279827" lon="6.9503865282693145" id="-26533">
		<tag k="alt_name" v="Holkasvik" />
		<tag k="fixme" v="consider place=hamlet" />
		<tag k="name" v="Holkasviki" />
		<tag k="place" v="farm" />
		<tag k="ssr:stedsnr" v="189028" />
	</node>
	<node lat="60.70191944473187" lon="7.079602775942696" id="-26538">
		<tag k="fixme" v="consider tourism=alpine_hut or tourism=chalet" />
		<tag k="name" v="Kaldavasshytta" />
		<tag k="ssr:stedsnr" v="189107" />
		<tag k="tourism" v="wilderness_hut" />
	</node>
	<node lat="60.61409999615621" lon="7.419000008361941" id="-26543">
		<tag k="name" v="Slirå" />
		<tag k="place" v="isolated_dwelling" />
		<tag k="ssr:stedsnr" v="189261" />
	</node>
	<node lat="60.61424999829206" lon="7.447150001462869" id="-26544">
		<tag k="name" v="Sandå" />
		<tag k="place" v="isolated_dwelling" />
		<tag k="ssr:stedsnr" v="189262" />
	</node>
	<node lat="60.56588889037935" lon="6.891761112013912" id="-26548">
		<tag k="alt_name" v="Børsheim" />
		<tag k="fixme" v="consider place=hamlet" />
		<tag k="name" v="Byrse" />
		<tag k="place" v="farm" />
		<tag k="ssr:stedsnr" v="189841" />
	</node>
	<node lat="60.57460833207468" lon="6.940636102437965" id="-26549">
		<tag k="fixme" v="consider place=hamlet" />
		<tag k="name" v="Syse" />
		<tag k="place" v="farm" />
		<tag k="ssr:stedsnr" v="189849" />
	</node>
	<node lat="60.48995833467574" lon="6.864477780914381" id="-26553">
		<tag k="fixme" v="consider place=hamlet" />
		<tag k="name" v="Vangen" />
		<tag k="place" v="farm" />
		<tag k="ssr:stedsnr" v="220562" />
	</node>
	<node lat="60.57369505272716" lon="6.932041747262564" id="-26572">
		<tag k="name" v="Hakastad" />
		<tag k="place" v="hamlet" />
		<tag k="ssr:stedsnr" v="302135" />
	</node>
	<node lat="60.603919513800044" lon="6.91099816515352" id="-26576">
		<tag k="historic" v="shieling" />
		<tag k="name" v="Rubbelii" />
		<tag k="place" v="isolated_dwelling" />
		<tag k="ssr:stedsnr" v="309939" />
	</node>
	<node lat="60.612877781934465" lon="7.318380557237396" id="-26578">
		<tag k="name" v="Memorgebui" />
		<tag k="place" v="locality" />
		<tag k="ssr:stedsnr" v="310075" />
	</node>
	<node lat="60.59068888457948" lon="7.032541662544651" id="-26582">
		<tag k="fixme" v="consider place=hamlet" />
		<tag k="name" v="Sævartveit" />
		<tag k="place" v="farm" />
		<tag k="ssr:stedsnr" v="310169" />
	</node>
	<node lat="60.68440833614266" lon="6.963763884235845" id="-26583">
		<tag k="historic" v="shieling" />
		<tag k="name" v="Slondal" />
		<tag k="place" v="isolated_dwelling" />
		<tag k="ssr:stedsnr" v="310987" />
	</node>
	<node lat="60.55771388787078" lon="6.925036103406336" id="-26584">
		<tag k="name" v="Solheim" />
		<tag k="place" v="farm" />
		<tag k="ssr:stedsnr" v="310764" />
	</node>
	<node lat="60.57218240978551" lon="6.895451797067007" id="-26585">
		<tag k="name" v="Bergo" />
		<tag k="place" v="hamlet" />
		<tag k="ssr:stedsnr" v="310869" />
	</node>
	<node lat="60.55392778090068" lon="6.910194441469681" id="-26593">
		<tag k="name" v="Leirhola" />
		<tag k="place" v="farm" />
		<tag k="ssr:stedsnr" v="341579" />
	</node>
	<node lat="60.57631389281455" lon="6.954724993084647" id="-26599">
		<tag k="name" v="Tunheim" />
		<tag k="place" v="farm" />
		<tag k="ssr:stedsnr" v="342524" />
	</node>
	<node lat="60.555519443883874" lon="6.927641672670252" id="-26615">
		<tag k="alt_name" v="Viknes, indre;Viknes" />
		<tag k="name" v="Indre Viknes" />
		<tag k="place" v="farm" />
		<tag k="ssr:stedsnr" v="370776" />
	</node>
	<node lat="60.555686115450484" lon="6.893650000364165" id="-26616">
		<tag k="fixme" v="consider place=hamlet" />
		<tag k="name" v="Lisebrekke" />
		<tag k="place" v="farm" />
		<tag k="ssr:stedsnr" v="370782" />
	</node>
	<node lat="60.55838888745942" lon="6.9037583379625165" id="-26617">
		<tag k="name" v="Kroni" />
		<tag k="place" v="farm" />
		<tag k="ssr:stedsnr" v="370783" />
	</node>
	<node lat="60.552788892720855" lon="7.470347228023745" id="-26628">
		<tag k="name" v="Jøkulhytta" />
		<tag k="place" v="locality" />
		<tag k="ssr:stedsnr" v="386999" />
	</node>
	<node lat="60.56777777427646" lon="6.914186115688621" id="-26631">
		<tag k="name" v="Brakanes" />
		<tag k="place" v="farm" />
		<tag k="ssr:stedsnr" v="402613" />
	</node>
	<node lat="60.574703227757" lon="6.951156602556334" id="-26640">
		<tag k="fixme" v="consider place=hamlet" />
		<tag k="name" v="Øvre Lekve" />
		<tag k="place" v="farm" />
		<tag k="ssr:stedsnr" v="402636" />
	</node>
	<node lat="60.55984999683549" lon="6.848969446175105" id="-26647">
		<tag k="historic" v="shieling" />
		<tag k="name" v="Gamlestølen" />
		<tag k="place" v="isolated_dwelling" />
		<tag k="ssr:stedsnr" v="403586" />
	</node>
	<node lat="60.50670277451635" lon="6.947861109027769" id="-26650">
		<tag k="historic" v="shieling" />
		<tag k="name" v="Liastølen" />
		<tag k="place" v="isolated_dwelling" />
		<tag k="ssr:stedsnr" v="431016" />
	</node>
	<node lat="60.55919999604052" lon="7.5968666615612905" id="-26654">
		<tag k="historic" v="shieling" />
		<tag k="name" v="Oksabotnen" />
		<tag k="place" v="isolated_dwelling" />
		<tag k="ssr:stedsnr" v="431333" />
	</node>
	<node lat="60.55922777806274" lon="6.846419442925125" id="-26657">
		<tag k="historic" v="shieling" />
		<tag k="name" v="Skitnasete" />
		<tag k="place" v="isolated_dwelling" />
		<tag k="ssr:stedsnr" v="431785" />
	</node>
	<node lat="60.562433333742575" lon="6.894105554331196" id="-26667">
		<tag k="alt_name" v="Audnaland;Undeland" />
		<tag k="fixme" v="consider place=hamlet" />
		<tag k="name" v="Audnalond" />
		<tag k="place" v="farm" />
		<tag k="ssr:stedsnr" v="432839" />
	</node>
	<node lat="60.489484301628245" lon="6.838607162677376" id="-26682">
		<tag k="name" v="Revhuset" />
		<tag k="place" v="isolated_dwelling" />
		<tag k="ssr:stedsnr" v="529334" />
	</node>
	<node lat="60.49568055293217" lon="6.806099996605244" id="-26683">
		<tag k="historic" v="shieling" />
		<tag k="name" v="Dalsete" />
		<tag k="place" v="isolated_dwelling" />
		<tag k="ssr:stedsnr" v="551391" />
	</node>
	<node lat="60.533080553404915" lon="6.993958333723121" id="-26687">
		<tag k="historic" v="shieling" />
		<tag k="name" v="Taumasete" />
		<tag k="place" v="isolated_dwelling" />
		<tag k="ssr:stedsnr" v="552161" />
	</node>
	<node lat="60.59972499648992" lon="6.999674994993933" id="-26698">
		<tag k="historic" v="shieling" />
		<tag k="name" v="Vassdalane" />
		<tag k="place" v="isolated_dwelling" />
		<tag k="ssr:stedsnr" v="553060" />
	</node>
	<node lat="60.58772499709812" lon="7.556374992847936" id="-26703">
		<tag k="name" v="Larsbu" />
		<tag k="place" v="isolated_dwelling" />
		<tag k="ssr:stedsnr" v="553264" />
	</node>
	<node lat="60.56680555806394" lon="6.850113883827772" id="-26706">
		<tag k="historic" v="shieling" />
		<tag k="name" v="Gunnarsete" />
		<tag k="place" v="isolated_dwelling" />
		<tag k="ssr:stedsnr" v="553864" />
	</node>
	<node lat="60.672219364651546" lon="6.887629165602169" id="-26707">
		<tag k="historic" v="shieling" />
		<tag k="name" v="Mjølbotnen" />
		<tag k="place" v="isolated_dwelling" />
		<tag k="ssr:stedsnr" v="553992" />
	</node>
	<node lat="60.49307778052825" lon="6.861902769723579" id="-26717">
		<tag k="alt_name" v="Kallhagen" />
		<tag k="name" v="Kalvhagen" />
		<tag k="place" v="farm" />
		<tag k="ssr:stedsnr" v="589413" />
	</node>
	<node lat="60.49295833549157" lon="6.854205546510313" id="-26723">
		<tag k="fixme" v="consider place=hamlet" />
		<tag k="name" v="Hallanger" />
		<tag k="place" v="farm" />
		<tag k="ssr:stedsnr" v="612430" />
	</node>
	<node lat="60.486786111753375" lon="6.874852781926861" id="-26725">
		<tag k="fixme" v="consider place=hamlet" />
		<tag k="name" v="Nesheim" />
		<tag k="place" v="farm" />
		<tag k="ssr:stedsnr" v="612459" />
	</node>
	<node lat="60.61371554132783" lon="6.956358269414917" id="-26727">
		<tag k="historic" v="shieling" />
		<tag k="name" v="Øvre Sveig" />
		<tag k="place" v="isolated_dwelling" />
		<tag k="ssr:stedsnr" v="612893" />
	</node>
	<node lat="60.554138889045426" lon="6.866258334397817" id="-26735">
		<tag k="historic" v="shieling" />
		<tag k="name" v="Øyane" />
		<tag k="place" v="isolated_dwelling" />
		<tag k="ssr:stedsnr" v="613759" />
	</node>
	<node lat="60.54047777650518" lon="6.819352779011819" id="-26737">
		<tag k="historic" v="shieling" />
		<tag k="name" v="Beiteskar" />
		<tag k="place" v="isolated_dwelling" />
		<tag k="ssr:stedsnr" v="613784" />
	</node>
	<node lat="60.60869444024453" lon="6.927024997192156" id="-26740">
		<tag k="historic" v="shieling" />
		<tag k="name" v="Nedre Skor" />
		<tag k="place" v="isolated_dwelling" />
		<tag k="ssr:stedsnr" v="627481" />
	</node>
	<node lat="60.5689743455254" lon="6.943023557240123" id="-26741">
		<tag k="fixme" v="consider place=hamlet" />
		<tag k="name" v="Holmen" />
		<tag k="place" v="farm" />
		<tag k="ssr:stedsnr" v="628082" />
	</node>
	<node lat="60.55552777789055" lon="7.601291658185348" id="-26742">
		<tag k="name" v="Botnen" />
		<tag k="place" v="isolated_dwelling" />
		<tag k="ssr:stedsnr" v="644965" />
	</node>
	<node lat="60.534483337720665" lon="6.90765556341045" id="-26746">
		<tag k="name" v="Årshaug" />
		<tag k="place" v="farm" />
		<tag k="ssr:stedsnr" v="645529" />
	</node>
	<node lat="60.573188890264845" lon="6.977777777575772" id="-26748">
		<tag k="historic" v="shieling" />
		<tag k="name" v="Liastølane" />
		<tag k="place" v="isolated_dwelling" />
		<tag k="ssr:stedsnr" v="645552" />
	</node>
	<node lat="60.624000001164504" lon="7.376900000351818" id="-26757">
		<tag k="name" v="Fagernut" />
		<tag k="place" v="isolated_dwelling" />
		<tag k="ssr:stedsnr" v="735198" />
	</node>
	<node lat="60.530449998735904" lon="6.909230563263088" id="-26761">
		<tag k="name" v="Haugen" />
		<tag k="place" v="isolated_dwelling" />
		<tag k="ssr:stedsnr" v="735045" />
	</node>
	<node lat="60.650958335241164" lon="7.327799990893823" id="-26766">
		<tag k="name" v="Låghellerhyttene" />
		<tag k="place" v="isolated_dwelling" />
		<tag k="ssr:stedsnr" v="735071" />
	</node>
	<node lat="60.5647888887341" lon="6.9999416578029345" id="-26768">
		<tag k="fixme" v="consider place=hamlet" />
		<tag k="name" v="Sygnestveit" />
		<tag k="place" v="farm" />
		<tag k="ssr:stedsnr" v="735163" />
	</node>
	<node lat="60.59732778215441" lon="7.526677777755414" id="-26772">
		<tag k="historic" v="shieling" />
		<tag k="name" v="Torbjørnsstølen" />
		<tag k="place" v="isolated_dwelling" />
		<tag k="ssr:stedsnr" v="735278" />
	</node>
	<node lat="60.59792499842103" lon="7.506974995467778" id="-26773">
		<tag k="fixme" v="consider tourism=alpine_hut or tourism=chalet" />
		<tag k="name" v="Finsehytta" />
		<tag k="ssr:stedsnr" v="735280" />
		<tag k="tourism" v="wilderness_hut" />
	</node>
	<node lat="60.55261666823958" lon="6.851733328961773" id="-26778">
		<tag k="historic" v="shieling" />
		<tag k="name" v="Furesete" />
		<tag k="place" v="isolated_dwelling" />
		<tag k="ssr:stedsnr" v="735763" />
	</node>
	<node lat="60.56790555586795" lon="6.916450007601102" id="-26779">
		<tag k="name" v="Ulvik" />
		<tag k="place" v="village" />
		<tag k="ssr:stedsnr" v="735836" />
	</node>
	<node lat="60.577963887704094" lon="6.925875003287174" id="-26781">
		<tag k="alt_name" v="Uppheim" />
		<tag k="fixme" v="consider place=hamlet" />
		<tag k="name" v="Oppheim" />
		<tag k="place" v="farm" />
		<tag k="ssr:stedsnr" v="735862" />
	</node>
	<node lat="60.585374997476606" lon="6.871919447076498" id="-26784">
		<tag k="historic" v="shieling" />
		<tag k="name" v="Løyning" />
		<tag k="place" v="isolated_dwelling" />
		<tag k="ssr:stedsnr" v="748061" />
	</node>
	<node lat="60.56580555723262" lon="6.955250000172284" id="-26811">
		<tag k="fixme" v="consider place=hamlet" />
		<tag k="name" v="Kvåle" />
		<tag k="place" v="farm" />
		<tag k="ssr:stedsnr" v="796866" />
	</node>
	<node lat="60.58369999590156" lon="6.882127780184579" id="-26820">
		<tag k="fixme" v="consider place=hamlet" />
		<tag k="name" v="Solbjørgo" />
		<tag k="place" v="farm" />
		<tag k="ssr:stedsnr" v="796831" />
	</node>
	<node lat="60.56038611492845" lon="6.826127772333766" id="-26822">
		<tag k="historic" v="shieling" />
		<tag k="name" v="Snipa" />
		<tag k="place" v="isolated_dwelling" />
		<tag k="ssr:stedsnr" v="810118" />
	</node>
	<node lat="60.56269167112392" lon="6.960186113605846" id="-26839">
		<tag k="fixme" v="consider place=hamlet" />
		<tag k="name" v="Håheim" />
		<tag k="place" v="farm" />
		<tag k="ssr:stedsnr" v="856778" />
	</node>
	<node lat="60.61963333453311" lon="7.063374995944362" id="-26841">
		<tag k="historic" v="shieling" />
		<tag k="name" v="Ossete" />
		<tag k="place" v="isolated_dwelling" />
		<tag k="ssr:stedsnr" v="857075" />
	</node>
	<node lat="60.54383055213511" lon="6.902552769432265" id="-26847">
		<tag k="historic" v="shieling" />
		<tag k="name" v="Liastølen" />
		<tag k="place" v="isolated_dwelling" />
		<tag k="ssr:stedsnr" v="857789" />
	</node>
	<node lat="60.661626258246216" lon="6.8622046803881345" id="-26848">
		<tag k="historic" v="shieling" />
		<tag k="name" v="Vesete" />
		<tag k="place" v="isolated_dwelling" />
		<tag k="ssr:stedsnr" v="857968" />
	</node>
	<node lat="60.570141612107335" lon="6.908705249567192" id="-26849">
		<tag k="fixme" v="consider place=hamlet" />
		<tag k="name" v="Hydle" />
		<tag k="place" v="farm" />
		<tag k="ssr:stedsnr" v="857840" />
	</node>
	<node lat="60.56289444080953" lon="6.929252783124294" id="-26851">
		<tag k="fixme" v="consider place=hamlet" />
		<tag k="name" v="Hjeltnes" />
		<tag k="place" v="farm" />
		<tag k="ssr:stedsnr" v="873636" />
	</node>
	<node lat="60.5966111075384" lon="6.9635805629922976" id="-26852">
		<tag k="historic" v="shieling" />
		<tag k="name" v="Horgava" />
		<tag k="place" v="isolated_dwelling" />
		<tag k="ssr:stedsnr" v="887951" />
	</node>
	<node lat="60.49041854993256" lon="6.859323880879786" id="-26855">
		<tag k="alt_name" v="Smedvika" />
		<tag k="name" v="Smedviki" />
		<tag k="place" v="locality" />
		<tag k="ssr:stedsnr" v="888466" />
	</node>
	<node lat="60.58924166879005" lon="7.041027776906947" id="-26877">
		<tag k="name" v="Hjallane" />
		<tag k="place" v="farm" />
		<tag k="ssr:stedsnr" v="949960" />
	</node>
	<node lat="60.56779345294056" lon="6.910484926859611" id="-26887">
		<tag k="fixme" v="consider place=hamlet" />
		<tag k="name" v="Skeie" />
		<tag k="place" v="farm" />
		<tag k="ssr:stedsnr" v="985561" />
	</node>
	<node lat="60.66173246495549" lon="6.862496538542295" id="-26891">
		<tag k="fixme" v="consider tourism=alpine_hut or tourism=chalet" />
		<tag k="name" v="BT-hytten" />
		<tag k="ssr:stedsnr" v="985792" />
		<tag k="tourism" v="wilderness_hut" />
	</node>
	<node lat="60.50714821305224" lon="6.933396518290147" id="-26892">
		<tag k="fixme" v="consider place=hamlet" />
		<tag k="name" v="Bolstad" />
		<tag k="place" v="farm" />
		<tag k="ssr:stedsnr" v="987858" />
	</node>
	<node lat="60.554271585710076" lon="6.928489375111905" id="-26893">
		<tag k="fixme" v="consider place=hamlet" />
		<tag k="name" v="Viknes" />
		<tag k="place" v="farm" />
		<tag k="ssr:stedsnr" v="987859" />
	</node>
	<node lat="60.57043025103605" lon="7.486706322266623" id="-26898">
		<tag k="name" v="Appelsinhytta" />
		<tag k="place" v="locality" />
		<tag k="ssr:stedsnr" v="1079149" />
	</node>
	<node lat="60.61001161413883" lon="7.59882054364658" id="-26899">
		<tag k="fixme" v="consider tourism=alpine_hut or tourism=chalet" />
		<tag k="name" v="Lengjedalsbui" />
		<tag k="ssr:stedsnr" v="1079158" />
		<tag k="tourism" v="wilderness_hut" />
	</node>
</osm>
