<?xml version="1.0" encoding="UTF-8"?>
<osm version="0.6" generator="osmapis">
	<node lat="60.55427499582015" lon="7.491102777126472" id="-25662">
		<tag k="name" v="Blåisen" />
		<tag k="natural" v="glacier" />
		<tag k="ssr:stedsnr" v="67321" />
	</node>
	<node lat="60.548311109705764" lon="6.941708330319046" id="-25690">
		<tag k="name" v="Trånemyr" />
		<tag k="natural" v="wetland" />
		<tag k="ssr:stedsnr" v="249786" />
	</node>
	<node lat="60.5476777817906" lon="7.4483416638297495" id="-25752">
		<tag k="name" v="Hardangerjøkulen" />
		<tag k="natural" v="glacier" />
		<tag k="old_name" v="Jukulen" />
		<tag k="ssr:stedsnr" v="249250" />
	</node>
	<node lat="60.600194441460395" lon="7.086597214534136" id="-25830">
		<tag k="historic" v="shieling" />
		<tag k="name" v="Nipasete" />
		<tag k="place" v="locality" />
		<tag k="ssr:stedsnr" v="431209" />
	</node>
	<node lat="60.58768055601571" lon="7.029477771591548" id="-25968">
		<tag k="name" v="Storøyi" />
		<tag k="place" v="locality" />
		<tag k="ssr:stedsnr" v="893822" />
	</node>
	<node lat="60.54858055127102" lon="6.884977775244011" id="-25972">
		<tag k="name" v="Skjevlamyr" />
		<tag k="natural" v="wetland" />
		<tag k="ssr:stedsnr" v="706467" />
	</node>
	<node lat="60.549219447189614" lon="6.876866673601239" id="-25973">
		<tag k="name" v="Rugamyr" />
		<tag k="natural" v="wetland" />
		<tag k="ssr:stedsnr" v="706468" />
	</node>
	<node lat="60.53919167121255" lon="6.888027784920461" id="-25976">
		<tag k="name" v="Klovstein" />
		<tag k="natural" v="stone" />
		<tag k="ssr:stedsnr" v="706516" />
	</node>
	<node lat="60.63432777852907" lon="6.94021112005324" id="-26034">
		<tag k="name" v="Såtaskavlen" />
		<tag k="natural" v="glacier" />
		<tag k="ssr:stedsnr" v="917888" />
	</node>
	<node lat="60.557072220989276" lon="7.6240694434720595" id="-26039">
		<tag k="name" v="Storuri" />
		<tag k="natural" v="scree" />
		<tag k="ssr:stedsnr" v="827964" />
	</node>
	<node lat="60.70411529138265" lon="6.976063543528195" id="-26070">
		<tag k="name" v="Dalamyrane" />
		<tag k="natural" v="wetland" />
		<tag k="ssr:stedsnr" v="888573" />
	</node>
	<node lat="60.604933337504264" lon="6.9333694373444335" id="-26118">
		<tag k="name" v="Løken" />
		<tag k="natural" v="wetland" />
		<tag k="ssr:stedsnr" v="6952" />
	</node>
	<node lat="60.6868500036194" lon="7.106724994957407" id="-26162">
		<tag k="name" v="Vossaskavlen" />
		<tag k="place" v="locality" />
		<tag k="ssr:stedsnr" v="68110" />
	</node>
	<node lat="60.552805558264616" lon="6.8733055549579625" id="-26173">
		<tag k="name" v="Kvelpamyr" />
		<tag k="natural" v="wetland" />
		<tag k="ssr:stedsnr" v="99522" />
	</node>
	<node lat="60.690911114164436" lon="7.047927768701577" id="-26190">
		<tag k="name" v="Øykjafonn" />
		<tag k="place" v="locality" />
		<tag k="ssr:stedsnr" v="128077" />
	</node>
	<node lat="60.6525999990619" lon="7.5549222155676095" id="-26193">
		<tag k="name" v="Flakavassfonn" />
		<tag k="natural" v="glacier" />
		<tag k="ssr:stedsnr" v="128169" />
	</node>
	<node lat="60.51961388540135" lon="6.907636103760722" id="-26230">
		<tag k="name" v="Staursnesskreda" />
		<tag k="natural" v="scree" />
		<tag k="ssr:stedsnr" v="189026" />
	</node>
	<node lat="60.52591389123258" lon="6.908872228573655" id="-26304">
		<tag k="name" v="Uri" />
		<tag k="natural" v="scree" />
		<tag k="old_name" v="Urdi" />
		<tag k="ssr:stedsnr" v="347446" />
	</node>
	<node lat="60.650788806759124" lon="7.1190000521881" id="-26361">
		<tag k="name" v="Osaskavlen" />
		<tag k="natural" v="glacier" />
		<tag k="ssr:stedsnr" v="432082" />
	</node>
	<node lat="60.5736611149218" lon="6.866461112346938" id="-26372">
		<tag k="name" v="Moltemyr" />
		<tag k="natural" v="wetland" />
		<tag k="ssr:stedsnr" v="523958" />
	</node>
	<node lat="60.6962666682317" lon="6.958866671525031" id="-26378">
		<tag k="name" v="Magnhildeuri" />
		<tag k="natural" v="scree" />
		<tag k="ssr:stedsnr" v="524544" />
	</node>
	<node lat="60.56187500025144" lon="7.445930553623768" id="-26389">
		<tag k="name" v="Middalen" />
		<tag k="natural" v="glacier" />
		<tag k="ssr:stedsnr" v="552343" />
	</node>
	<node lat="60.56004999589993" lon="6.94716388417683" id="-26390">
		<tag k="name" v="Storemyr" />
		<tag k="natural" v="wetland" />
		<tag k="ssr:stedsnr" v="552778" />
	</node>
	<node lat="60.66012778202492" lon="7.150936110053958" id="-26428">
		<tag k="name" v="Brattskavlen" />
		<tag k="natural" v="glacier" />
		<tag k="ssr:stedsnr" v="613093" />
	</node>
	<node lat="60.51447778144698" lon="6.812536117687145" id="-26456">
		<tag k="name" v="Kistesteinen" />
		<tag k="natural" v="stone" />
		<tag k="ssr:stedsnr" v="735023" />
	</node>
	<node lat="60.55363333587435" lon="6.951474998745614" id="-26473">
		<tag k="name" v="Hjelmemyr" />
		<tag k="natural" v="wetland" />
		<tag k="ssr:stedsnr" v="735751" />
	</node>
	<node lat="60.57918889013964" lon="6.946527784403609" id="-26487">
		<tag k="name" v="Sysehagane" />
		<tag k="place" v="locality" />
		<tag k="ssr:stedsnr" v="765956" />
	</node>
	<node lat="60.70782500104666" lon="6.976644451897813" id="-26492">
		<tag k="name" v="Myrane" />
		<tag k="natural" v="wetland" />
		<tag k="ssr:stedsnr" v="766624" />
	</node>
	<node lat="60.65420000368667" lon="7.4821249962884915" id="-26514">
		<tag k="name" v="Omnsbreen" />
		<tag k="natural" v="glacier" />
		<tag k="ssr:stedsnr" v="796186" />
	</node>
	<node lat="60.53820277989732" lon="6.910075002899667" id="-26525">
		<tag k="name" v="Djupastein" />
		<tag k="natural" v="stone" />
		<tag k="ssr:stedsnr" v="827622" />
	</node>
	<node lat="60.568025001399675" lon="6.874983339123015" id="-26533">
		<tag k="name" v="Bergamyrane" />
		<tag k="natural" v="wetland" />
		<tag k="ssr:stedsnr" v="848237" />
	</node>
</osm>
