<?xml version="1.0" encoding="UTF-8"?>
<osm generator="osmapis" version="0.6">
	<node id="-394723" lat="58.9830222212" lon="5.74125555429">
		<tag k="bridge" v="yes" />
		<tag k="layer" v="1" />
		<tag k="name" v="Engøyklubben" />
		<tag k="ssr:stedsnr" v="472311" />
	</node>
	<node id="-394722" lat="58.9523388927" lon="5.67567222485">
		<tag k="bridge" v="yes" />
		<tag k="layer" v="1" />
		<tag k="name" v="Stokken" />
		<tag k="ssr:stedsnr" v="472278" />
	</node>
	<node id="-394721" lat="58.9511388867" lon="5.71297222864">
		<tag k="bridge" v="yes" />
		<tag k="layer" v="1" />
		<tag k="name" v="Schankeholen" />
		<tag k="ssr:stedsnr" v="472276" />
	</node>
	<node id="-394719" lat="58.9136034098" lon="5.72930780867">
		<tag k="name" v="Jåttåvågen holdeplass" />
		<tag k="railway" v="halt" />
		<tag k="ssr:stedsnr" v="466200" />
		<tag k="train" v="yes" />
	</node>
	<node id="-395022" lat="58.9221944427" lon="5.70849167505">
		<tag k="bridge" v="yes" />
		<tag k="layer" v="1" />
		<tag k="name" v="Vodlamyr" />
		<tag k="ssr:stedsnr" v="775273" />
	</node>
	<node id="-394195" lat="58.9805555541" lon="5.68317777738">
		<tag k="bridge" v="yes" />
		<tag k="layer" v="1" />
		<tag k="name" v="Eikelandsskogen" />
		<tag k="ssr:stedsnr" v="290318" />
	</node>
	<node id="-394194" lat="58.9194555532" lon="5.71257221991">
		<tag k="bridge" v="yes" />
		<tag k="layer" v="1" />
		<tag k="name" v="Fredrikke Qvamsgate" />
		<tag k="ssr:stedsnr" v="290315" />
	</node>
	<node id="-394705" lat="58.9606916695" lon="5.63042778379">
		<tag k="junction" v="yes" />
		<tag k="name" v="Sørsundekrossen" />
		<tag k="place" v="locality" />
		<tag k="ssr:stedsnr" v="463946" />
	</node>
	<node id="-394192" lat="58.9384694479" lon="5.69065278206">
		<tag k="bridge" v="yes" />
		<tag k="layer" v="1" />
		<tag k="name" v="Gosenmyra" />
		<tag k="ssr:stedsnr" v="290298" />
	</node>
	<node id="-394191" lat="58.9663638885" lon="5.59777500602">
		<tag k="bridge" v="yes" />
		<tag k="layer" v="1" />
		<tag k="name" v="Københavnerbukta" />
		<tag k="ssr:stedsnr" v="290296" />
	</node>
	<node id="-394317" lat="58.9424277809" lon="5.63621111402">
		<tag k="fixme" v="verify maritime location" />
		<tag k="mooring" v="yes" />
		<tag k="name" v="Madlastø" />
		<tag k="place" v="locality" />
		<tag k="ssr:stedsnr" v="888950" />
	</node>
	<node id="-394181" lat="59.036830555" lon="5.74568333299">
		<tag k="fixme" v="verify maritime location" />
		<tag k="mooring" v="yes" />
		<tag k="name" v="Melingsjøen" />
		<tag k="place" v="locality" />
		<tag k="ssr:stedsnr" v="283215" />
	</node>
	<node id="-394684" lat="58.9658888896" lon="5.73324722876">
		<tag k="bridge" v="yes" />
		<tag k="layer" v="1" />
		<tag k="name" v="Bergelandsbrua" />
		<tag k="ssr:stedsnr" v="445971" />
	</node>
	<node id="-395194" lat="58.9688673144" lon="5.73244277912">
		<tag k="highway" v="path" />
		<tag k="name" v="Parkveien" />
		<tag k="ssr:stedsnr" v="980231" />
	</node>
	<node id="-395190" lat="58.9591077162" lon="5.71620426145">
		<tag k="highway" v="path" />
		<tag k="name" v="Mosvannsveien" />
		<tag k="ssr:stedsnr" v="980219" />
	</node>
	<node id="-395189" lat="58.9543550418" lon="5.7095009362">
		<tag k="highway" v="path" />
		<tag k="name" v="Mostunveien" />
		<tag k="ssr:stedsnr" v="980215" />
	</node>
	<node id="-395185" lat="58.9983627541" lon="5.78243004222">
		<tag k="amenity" v="ferry_terminal" />
		<tag k="name" v="Vassøy ferjekai" />
		<tag k="ssr:stedsnr" v="978664" />
	</node>
	<node id="-395184" lat="58.9721342847" lon="5.74011387798">
		<tag k="amenity" v="ferry_terminal" />
		<tag k="name" v="Stavanger ferjekai" />
		<tag k="ssr:stedsnr" v="978593" />
	</node>
	<node id="-394509" lat="58.9346444422" lon="5.68253054771">
		<tag k="bridge" v="yes" />
		<tag k="layer" v="1" />
		<tag k="name" v="Madlalia" />
		<tag k="ssr:stedsnr" v="108320" />
	</node>
	<node id="-395174" lat="58.9479131986" lon="5.75086089919">
		<tag k="man_made" v="quay" />
		<tag k="name" v="Hetlandskaien" />
		<tag k="place" v="locality" />
		<tag k="ssr:stedsnr" v="973465" />
	</node>
	<node id="-394565" lat="58.9445000017" lon="5.75189444751">
		<tag k="bridge" v="yes" />
		<tag k="layer" v="1" />
		<tag k="name" v="Torsnes" />
		<tag k="ssr:stedsnr" v="168299" />
	</node>
	<node id="-394662" lat="58.9726527769" lon="5.74013610892">
		<tag k="alt_name" v="Fiske-piren;Fiskepiren" />
		<tag k="man_made" v="quay" />
		<tag k="name" v="Fiskapiren" />
		<tag k="place" v="locality" />
		<tag k="ssr:stedsnr" v="266066" />
	</node>
	<node id="-395020" lat="58.9226388888" lon="5.72376944949">
		<tag k="junction" v="yes" />
		<tag k="name" v="Hinnakrossen" />
		<tag k="place" v="locality" />
		<tag k="ssr:stedsnr" v="769916" />
	</node>
	<node id="-395161" lat="58.9532694466" lon="5.68238055595">
		<tag k="bridge" v="yes" />
		<tag k="layer" v="1" />
		<tag k="name" v="Madlavegen" />
		<tag k="ssr:stedsnr" v="957305" />
	</node>
	<node id="-395160" lat="58.9553194491" lon="5.70193889707">
		<tag k="bridge" v="yes" />
		<tag k="layer" v="1" />
		<tag k="name" v="Tjensvoll Galleri" />
		<tag k="ssr:stedsnr" v="957295" />
	</node>
	<node id="-394564" lat="58.9623000043" lon="5.69164444288">
		<tag k="bridge" v="yes" />
		<tag k="layer" v="1" />
		<tag k="name" v="Stokka" />
		<tag k="ssr:stedsnr" v="168295" />
	</node>
	<node id="-394640" lat="58.9666750035" lon="5.73255277978">
		<tag k="alt_name" v="Stavanger" />
		<tag k="name" v="Stavanger stasjon" />
		<tag k="railway" v="station" />
		<tag k="ssr:stedsnr" v="238010" />
		<tag k="train" v="yes" />
	</node>
	<node id="-395149" lat="58.9380472213" lon="5.63714167249">
		<tag k="fixme" v="verify maritime location" />
		<tag k="mooring" v="yes" />
		<tag k="name" v="Karistø" />
		<tag k="place" v="locality" />
		<tag k="ssr:stedsnr" v="949945" />
	</node>
	<node id="-394636" lat="58.979369448" lon="5.7456055577">
		<tag k="bridge" v="yes" />
		<tag k="layer" v="1" />
		<tag k="name" v="Engøy" />
		<tag k="ssr:stedsnr" v="229330" />
	</node>
	<node id="-394635" lat="58.9520527755" lon="5.66480000306">
		<tag k="bridge" v="yes" />
		<tag k="layer" v="1" />
		<tag k="name" v="Mølldalsveien" />
		<tag k="ssr:stedsnr" v="229312" />
	</node>
	<node id="-394634" lat="58.9944583295" lon="5.74847499343">
		<tag k="bridge" v="yes" />
		<tag k="layer" v="1" />
		<tag k="name" v="Skolebrygga" />
		<tag k="ssr:stedsnr" v="229293" />
	</node>
	<node id="-395159" lat="58.9722638848" lon="5.70092222434">
		<tag k="layer" v="-1" />
		<tag k="name" v="Byhaugtunnelen" />
		<tag k="ssr:stedsnr" v="954395" />
		<tag k="tunnel" v="yes" />
	</node>
	<node id="-395140" lat="58.8847750018" lon="5.74929166518">
		<tag k="name" v="Stokkastøa" />
		<tag k="place" v="locality" />
		<tag k="ssr:stedsnr" v="934199" />
	</node>
	<node id="-395136" lat="58.971794444" lon="5.74443888806">
		<tag k="man_made" v="quay" />
		<tag k="name" v="Indre Steinkar" />
		<tag k="old_name" v="Indre Stenkar" />
		<tag k="place" v="locality" />
		<tag k="ssr:stedsnr" v="934063" />
	</node>
	<node id="-395133" lat="58.9675694483" lon="5.74057778346">
		<tag k="layer" v="-1" />
		<tag k="name" v="Bergelandstunnelen" />
		<tag k="ssr:stedsnr" v="931973" />
		<tag k="tunnel" v="yes" />
	</node>
	<node id="-394607" lat="58.9649250028" lon="5.7666333259">
		<tag k="leisure" v="marina" />
		<tag k="name" v="Breivik småbåthavn" />
		<tag k="ssr:stedsnr" v="221174" />
	</node>
	<node id="-394590" lat="58.974511112" lon="5.73073056377">
		<tag k="man_made" v="quay" />
		<tag k="name" v="Skansekaien" />
		<tag k="place" v="locality" />
		<tag k="ssr:stedsnr" v="206038" />
	</node>
	<node id="-395100" lat="58.9710450027" lon="5.73048095724">
		<tag k="alt_name" v="Skagen" />
		<tag k="man_made" v="quay" />
		<tag k="name" v="Skagenkaien" />
		<tag k="place" v="locality" />
		<tag k="ssr:stedsnr" v="873033" />
	</node>
	<node id="-394637" lat="58.9351388926" lon="5.73426667326">
		<tag k="bridge" v="yes" />
		<tag k="layer" v="1" />
		<tag k="name" v="Breidablikkveien" />
		<tag k="ssr:stedsnr" v="229336" />
	</node>
	<node id="-394572" lat="58.9897277814" lon="5.68939722835">
		<tag k="bridge" v="yes" />
		<tag k="layer" v="1" />
		<tag k="name" v="Gjerdeveien" />
		<tag k="ssr:stedsnr" v="168332" />
	</node>
	<node id="-394571" lat="58.9934750041" lon="5.74071945053">
		<tag k="bridge" v="yes" />
		<tag k="layer" v="1" />
		<tag k="name" v="Austbø" />
		<tag k="ssr:stedsnr" v="168324" />
	</node>
	<node id="-394570" lat="58.9340972183" lon="5.69741667087">
		<tag k="bridge" v="yes" />
		<tag k="layer" v="1" />
		<tag k="name" v="Professor Olav Hanss" />
		<tag k="ssr:stedsnr" v="168318" />
	</node>
	<node id="-394569" lat="58.9185305551" lon="5.69708055623">
		<tag k="bridge" v="yes" />
		<tag k="layer" v="1" />
		<tag k="name" v="Nesbuvegen" />
		<tag k="ssr:stedsnr" v="168316" />
	</node>
	<node id="-394568" lat="58.9516111151" lon="5.74224445225">
		<tag k="bridge" v="yes" />
		<tag k="layer" v="1" />
		<tag k="name" v="Hillevåg" />
		<tag k="ssr:stedsnr" v="168309" />
	</node>
	<node id="-394567" lat="58.9478527753" lon="5.74287500278">
		<tag k="bridge" v="yes" />
		<tag k="layer" v="1" />
		<tag k="name" v="Hillevåg Torg" />
		<tag k="ssr:stedsnr" v="168308" />
	</node>
	<node id="-394566" lat="58.9485388847" lon="5.68034444534">
		<tag k="bridge" v="yes" />
		<tag k="layer" v="1" />
		<tag k="name" v="Hognes Gate" />
		<tag k="ssr:stedsnr" v="168306" />
	</node>
	<node id="-395077" lat="58.9930416675" lon="5.74710555698">
		<tag k="bridge" v="yes" />
		<tag k="layer" v="1" />
		<tag k="name" v="Dragaberg" />
		<tag k="ssr:stedsnr" v="836286" />
	</node>
	<node id="-395076" lat="58.9530027798" lon="5.67811389615">
		<tag k="bridge" v="yes" />
		<tag k="layer" v="1" />
		<tag k="name" v="Madla" />
		<tag k="ssr:stedsnr" v="836276" />
	</node>
	<node id="-395075" lat="58.9787055551" lon="5.69617777739">
		<tag k="bridge" v="yes" />
		<tag k="layer" v="1" />
		<tag k="name" v="Rødknappen" />
		<tag k="ssr:stedsnr" v="836245" />
	</node>
	<node id="-395065" lat="58.9721388845" lon="5.73574444311">
		<tag k="man_made" v="quay" />
		<tag k="name" v="Østervågkaien" />
		<tag k="old_name" v="Østervaagkaien" />
		<tag k="place" v="locality" />
		<tag k="ssr:stedsnr" v="828795" />
	</node>
	<node id="-394545" lat="58.9666111085" lon="5.75963610908">
		<tag k="man_made" v="quay" />
		<tag k="name" v="Lervigskaien" />
		<tag k="place" v="locality" />
		<tag k="ssr:stedsnr" v="160177" />
	</node>
	<node id="-395050" lat="58.9832166656" lon="5.66955000518">
		<tag k="junction" v="yes" />
		<tag k="name" v="Tastatorget" />
		<tag k="place" v="locality" />
		<tag k="ssr:stedsnr" v="813124" />
	</node>
	<node id="-395047" lat="58.9744888896" lon="5.73305000405">
		<tag k="man_made" v="quay" />
		<tag k="name" v="Ryfylkekaien" />
		<tag k="place" v="locality" />
		<tag k="ssr:stedsnr" v="813037" />
	</node>
	<node id="-395046" lat="58.9732361128" lon="5.73963055214">
		<tag k="name" v="Østre Havn" />
		<tag k="place" v="locality" />
		<tag k="ssr:stedsnr" v="813034" />
	</node>
	<node id="-395045" lat="58.9733972256" lon="5.73591389025">
		<tag k="alt_name" v="Kjerringholmen" />
		<tag k="man_made" v="quay" />
		<tag k="name" v="Kjeringholmen" />
		<tag k="place" v="locality" />
		<tag k="ssr:stedsnr" v="813033" />
	</node>
	<node id="-394527" lat="58.9740638873" lon="5.72584999534">
		<tag k="man_made" v="quay" />
		<tag k="name" v="Strandkaien" />
		<tag k="place" v="locality" />
		<tag k="ssr:stedsnr" v="145029" />
	</node>
	<node id="-395025" lat="58.9425305526" lon="5.72876943835">
		<tag k="bridge" v="yes" />
		<tag k="layer" v="1" />
		<tag k="name" v="Auglendsmyra" />
		<tag k="ssr:stedsnr" v="775291" />
	</node>
	<node id="-395024" lat="58.9653027739" lon="5.72913055858">
		<tag k="bridge" v="yes" />
		<tag k="layer" v="1" />
		<tag k="name" v="Løkkeveien" />
		<tag k="ssr:stedsnr" v="775289" />
	</node>
	<node id="-394511" lat="58.8982027764" lon="5.70974999213">
		<tag k="bridge" v="yes" />
		<tag k="layer" v="1" />
		<tag k="name" v="Godeset" />
		<tag k="ssr:stedsnr" v="108325" />
	</node>
	<node id="-394510" lat="58.9500305577" lon="5.72163333933">
		<tag k="bridge" v="yes" />
		<tag k="layer" v="1" />
		<tag k="name" v="Barnas Hus" />
		<tag k="ssr:stedsnr" v="108321" />
	</node>
	<node id="-395021" lat="58.9279333379" lon="5.73472778184">
		<tag k="bridge" v="yes" />
		<tag k="layer" v="1" />
		<tag k="name" v="Stasjonsveien" />
		<tag k="ssr:stedsnr" v="775265" />
	</node>
	<node id="-394508" lat="58.9516666666" lon="5.65404167488">
		<tag k="bridge" v="yes" />
		<tag k="layer" v="1" />
		<tag k="name" v="Ragbakken" />
		<tag k="ssr:stedsnr" v="108316" />
	</node>
	<node id="-394507" lat="58.9893888885" lon="5.66021388254">
		<tag k="bridge" v="yes" />
		<tag k="layer" v="1" />
		<tag k="name" v="Høie" />
		<tag k="ssr:stedsnr" v="108310" />
	</node>
	<node id="-394506" lat="58.9764416645" lon="5.61356111133">
		<tag k="bridge" v="yes" />
		<tag k="layer" v="1" />
		<tag k="name" v="Kvernevik" />
		<tag k="ssr:stedsnr" v="108308" />
	</node>
	<node id="-394505" lat="58.9609499984" lon="5.62396944502">
		<tag k="bridge" v="yes" />
		<tag k="layer" v="1" />
		<tag k="name" v="Sunde" />
		<tag k="ssr:stedsnr" v="108296" />
	</node>
	<node id="-394504" lat="58.8936333298" lon="5.71725555055">
		<tag k="bridge" v="yes" />
		<tag k="layer" v="1" />
		<tag k="name" v="Statoil" />
		<tag k="ssr:stedsnr" v="108290" />
	</node>
	<node id="-395005" lat="58.972749996" lon="5.73613889514">
		<tag k="man_made" v="quay" />
		<tag k="name" v="Steinkarkaien" />
		<tag k="old_name" v="Sten-kar kaien" />
		<tag k="place" v="locality" />
		<tag k="ssr:stedsnr" v="767814" />
	</node>
	<node id="-394989" lat="58.950930558" lon="5.64593055767">
		<tag k="junction" v="yes" />
		<tag k="name" v="Revheimkrossen" />
		<tag k="place" v="locality" />
		<tag k="ssr:stedsnr" v="752133" />
	</node>
	<node id="-394193" lat="58.9516055585" lon="5.72515833903">
		<tag k="bridge" v="yes" />
		<tag k="layer" v="1" />
		<tag k="name" v="Hjalmar Johansen" />
		<tag k="ssr:stedsnr" v="290297" />
	</node>
	<node id="-394448" lat="58.9363777745" lon="5.72415832713">
		<tag k="bridge" v="yes" />
		<tag k="layer" v="1" />
		<tag k="name" v="Auglendsdalen" />
		<tag k="ssr:stedsnr" v="47328" />
	</node>
	<node id="-394964" lat="58.9854611146" lon="5.73296388443">
		<tag k="bridge" v="yes" />
		<tag k="layer" v="1" />
		<tag k="name" v="Buøy" />
		<tag k="ssr:stedsnr" v="715361" />
	</node>
	<node id="-394963" lat="58.9482388874" lon="5.72236389145">
		<tag k="bridge" v="yes" />
		<tag k="layer" v="1" />
		<tag k="name" v="Oscar Wistingsgate" />
		<tag k="ssr:stedsnr" v="715345" />
	</node>
	<node id="-394962" lat="59.0017138925" lon="5.72689444174">
		<tag k="bridge" v="yes" />
		<tag k="layer" v="1" />
		<tag k="name" v="Skeie" />
		<tag k="ssr:stedsnr" v="715322" />
	</node>
	<node id="-394449" lat="58.9835888904" lon="5.67692222763">
		<tag k="bridge" v="yes" />
		<tag k="layer" v="1" />
		<tag k="name" v="Eskelandsveien" />
		<tag k="ssr:stedsnr" v="47338" />
	</node>
	<node id="-394960" lat="58.9894444404" lon="5.7416611077">
		<tag k="fixme" v="verify maritime location" />
		<tag k="mooring" v="yes" />
		<tag k="name" v="Prestastø" />
		<tag k="place" v="locality" />
		<tag k="ssr:stedsnr" v="708928" />
	</node>
	<node id="-394447" lat="58.9139277751" lon="5.72411388555">
		<tag k="bridge" v="yes" />
		<tag k="layer" v="1" />
		<tag k="name" v="Kyrkjehaugen" />
		<tag k="ssr:stedsnr" v="47313" />
	</node>
	<node id="-394441" lat="58.8994754289" lon="5.7402512798">
		<tag k="name" v="Gausel holdeplass" />
		<tag k="railway" v="halt" />
		<tag k="ssr:stedsnr" v="41148" />
		<tag k="train" v="yes" />
	</node>
	<node id="-394952" lat="58.9826083328" lon="5.73920832737">
		<tag k="man_made" v="quay" />
		<tag k="name" v="Ballaststraen" />
		<tag k="place" v="locality" />
		<tag k="ssr:stedsnr" v="707191" />
	</node>
	<node id="-394427" lat="58.9756388903" lon="5.72308889577">
		<tag k="man_made" v="quay" />
		<tag k="name" v="Sandvigsbryggå" />
		<tag k="old_name" v="Sandvigsbryggen" />
		<tag k="place" v="locality" />
		<tag k="ssr:stedsnr" v="39130" />
	</node>
	<node id="-394937" lat="58.9529083348" lon="5.68226667362">
		<tag k="junction" v="yes" />
		<tag k="name" v="Madlakrossen" />
		<tag k="place" v="locality" />
		<tag k="ssr:stedsnr" v="691364" />
	</node>
	<node id="-394936" lat="58.9567722224" lon="5.70020832718">
		<tag k="junction" v="yes" />
		<tag k="name" v="Tjensvollkrossen" />
		<tag k="place" v="locality" />
		<tag k="ssr:stedsnr" v="691353" />
	</node>
	<node id="-394925" lat="58.9723444412" lon="5.73781110271">
		<tag k="alt_name" v="Jorenholmskaien" />
		<tag k="man_made" v="quay" />
		<tag k="name" v="Jorenholmen" />
		<tag k="place" v="locality" />
		<tag k="ssr:stedsnr" v="691040" />
	</node>
	<node id="-394908" lat="58.9483749964" lon="5.74311944492">
		<tag k="bridge" v="yes" />
		<tag k="layer" v="1" />
		<tag k="name" v="Banevegen" />
		<tag k="ssr:stedsnr" v="654329" />
	</node>
	<node id="-394907" lat="58.9517194466" lon="5.71587499792">
		<tag k="bridge" v="yes" />
		<tag k="layer" v="1" />
		<tag k="name" v="Mosvannet" />
		<tag k="ssr:stedsnr" v="654327" />
	</node>
	<node id="-394906" lat="58.9621861088" lon="5.7235361134">
		<tag k="bridge" v="yes" />
		<tag k="layer" v="1" />
		<tag k="name" v="Hannadahlsgate" />
		<tag k="ssr:stedsnr" v="654321" />
	</node>
	<node id="-394905" lat="58.98246389" lon="5.67933056404">
		<tag k="bridge" v="yes" />
		<tag k="layer" v="1" />
		<tag k="name" v="Randabergveien" />
		<tag k="ssr:stedsnr" v="654322" />
	</node>
	<node id="-394904" lat="58.9221472177" lon="5.70670555029">
		<tag k="bridge" v="yes" />
		<tag k="layer" v="1" />
		<tag k="name" v="Hinna" />
		<tag k="ssr:stedsnr" v="654319" />
	</node>
	<node id="-394903" lat="58.9334250011" lon="5.71268611401">
		<tag k="layer" v="-1" />
		<tag k="name" v="Auglendshøyden" />
		<tag k="ssr:stedsnr" v="651092" />
		<tag k="tunnel" v="yes" />
	</node>
	<node id="-394902" lat="58.97243333" lon="5.75533055415">
		<tag k="man_made" v="quay" />
		<tag k="name" v="Nordkronen" />
		<tag k="place" v="locality" />
		<tag k="ssr:stedsnr" v="648867" />
	</node>
	<node id="-394868" lat="58.9555722184" lon="5.74243889446">
		<tag k="name" v="Paradis holdeplass" />
		<tag k="railway" v="halt" />
		<tag k="ssr:stedsnr" v="630191" />
		<tag k="train" v="yes" />
	</node>
	<node id="-394863" lat="58.9621444401" lon="5.61588888989">
		<tag k="junction" v="yes" />
		<tag k="name" v="Sundekrossen" />
		<tag k="place" v="locality" />
		<tag k="ssr:stedsnr" v="630163" />
	</node>
	<node id="-394338" lat="58.9473527745" lon="5.74045833649">
		<tag k="bridge" v="yes" />
		<tag k="layer" v="1" />
		<tag k="name" v="Gartnerveien" />
		<tag k="ssr:stedsnr" v="897321" />
	</node>
	<node id="-394337" lat="58.9931888877" lon="5.73272500649">
		<tag k="bridge" v="yes" />
		<tag k="layer" v="1" />
		<tag k="name" v="Galeivågen" />
		<tag k="ssr:stedsnr" v="897320" />
	</node>
	<node id="-394336" lat="58.9395083379" lon="5.68666389101">
		<tag k="bridge" v="yes" />
		<tag k="layer" v="1" />
		<tag k="name" v="Gosen" />
		<tag k="ssr:stedsnr" v="897308" />
	</node>
	<node id="-395023" lat="58.9542722197" lon="5.69211111419">
		<tag k="bridge" v="yes" />
		<tag k="layer" v="1" />
		<tag k="name" v="Rektor Oldensgate" />
		<tag k="ssr:stedsnr" v="775286" />
	</node>
	<node id="-394837" lat="59.0465361083" lon="5.72819445273">
		<tag k="fixme" v="verify maritime location" />
		<tag k="mooring" v="yes" />
		<tag k="name" v="Jonestø" />
		<tag k="place" v="locality" />
		<tag k="ssr:stedsnr" v="598449" />
	</node>
	<node id="-394836" lat="58.9540888868" lon="5.68696667517">
		<tag k="bridge" v="yes" />
		<tag k="layer" v="1" />
		<tag k="name" v="Morgedalsvegen" />
		<tag k="ssr:stedsnr" v="593285" />
	</node>
	<node id="-394835" lat="58.9672916627" lon="5.69093611295">
		<tag k="bridge" v="yes" />
		<tag k="layer" v="1" />
		<tag k="name" v="Lassa" />
		<tag k="ssr:stedsnr" v="593286" />
	</node>
	<node id="-394834" lat="58.9508884574" lon="5.6459152708">
		<tag k="bridge" v="yes" />
		<tag k="layer" v="1" />
		<tag k="name" v="Revheim" />
		<tag k="ssr:stedsnr" v="593268" />
	</node>
	<node id="-394320" lat="59.00263611" lon="5.75403610833">
		<tag k="leisure" v="marina" />
		<tag k="name" v="Lundsvågen småbåthavn" />
		<tag k="ssr:stedsnr" v="889243" />
	</node>
	<node id="-394319" lat="58.9716944419" lon="5.75125833511">
		<tag k="man_made" v="quay" />
		<tag k="name" v="Svankevigsbryggå" />
		<tag k="place" v="locality" />
		<tag k="ssr:stedsnr" v="889235" />
	</node>
	<node id="-394829" lat="58.9720361068" lon="5.73962222863">
		<tag k="man_made" v="quay" />
		<tag k="name" v="Stavanger hurtigbåtterminal" />
		<tag k="place" v="locality" />
		<tag k="ssr:stedsnr" v="587499" />
	</node>
	<node id="-394823" lat="58.9847666688" lon="5.7244138913">
		<tag k="landuse" v="harbour" />
		<tag k="name" v="Nyhavn" />
		<tag k="seamark:type" v="harbour" />
		<tag k="ssr:stedsnr" v="586799" />
	</node>
	<node id="-394309" lat="58.9672416686" lon="5.72830833766">
		<tag k="bridge" v="yes" />
		<tag k="layer" v="1" />
		<tag k="name" v="Jens Zetlitzgate" />
		<tag k="ssr:stedsnr" v="411295" />
	</node>
	<node id="-394308" lat="58.9440499959" lon="5.74493611707">
		<tag k="bridge" v="yes" />
		<tag k="layer" v="1" />
		<tag k="name" v="Kvalaberg" />
		<tag k="ssr:stedsnr" v="411291" />
	</node>
	<node id="-394307" lat="58.9348027792" lon="5.6933111023">
		<tag k="bridge" v="yes" />
		<tag k="layer" v="1" />
		<tag k="name" v="Telegrafdir. Heftyes" />
		<tag k="ssr:stedsnr" v="411282" />
	</node>
	<node id="-394306" lat="58.9790638928" lon="5.68788888764">
		<tag k="bridge" v="yes" />
		<tag k="layer" v="1" />
		<tag k="name" v="Tasta" />
		<tag k="ssr:stedsnr" v="411280" />
	</node>
	<node id="-394305" lat="58.9627166635" lon="5.72409165898">
		<tag k="bridge" v="yes" />
		<tag k="layer" v="1" />
		<tag k="name" v="Solagate" />
		<tag k="ssr:stedsnr" v="411279" />
	</node>
	<node id="-394300" lat="58.9656194479" lon="5.73171388428">
		<tag k="layer" v="-1" />
		<tag k="name" v="Teaterpassasjen" />
		<tag k="ssr:stedsnr" v="405823" />
		<tag k="tunnel" v="yes" />
	</node>
	<node id="-394296" lat="58.9341059626" lon="5.75354855535">
		<tag k="name" v="Mariero holdeplass" />
		<tag k="railway" v="halt" />
		<tag k="ssr:stedsnr" v="405182" />
		<tag k="train" v="yes" />
	</node>
	<node id="-394292" lat="58.9717806003" lon="5.74317854622">
		<tag k="man_made" v="quay" />
		<tag k="name" v="Bekhuskaien" />
		<tag k="place" v="locality" />
		<tag k="ssr:stedsnr" v="403819" />
	</node>
	<node id="-394800" lat="58.917791668" lon="5.73545832887">
		<tag k="leisure" v="marina" />
		<tag k="name" v="Jåttåvågen småbåthavn" />
		<tag k="ssr:stedsnr" v="569205" />
	</node>
	<node id="-394770" lat="58.9909111093" lon="5.6544388897">
		<tag k="bridge" v="yes" />
		<tag k="layer" v="1" />
		<tag k="name" v="Finnestad" />
		<tag k="ssr:stedsnr" v="532314" />
	</node>
	<node id="-394769" lat="58.8982388916" lon="5.71099722058">
		<tag k="bridge" v="yes" />
		<tag k="layer" v="1" />
		<tag k="name" v="Folkvangvegen" />
		<tag k="ssr:stedsnr" v="532311" />
	</node>
	<node id="-394768" lat="58.974388889" lon="5.72241666841">
		<tag k="bridge" v="yes" />
		<tag k="layer" v="1" />
		<tag k="name" v="Bjergsted Terrasse" />
		<tag k="ssr:stedsnr" v="532302" />
	</node>
	<node id="-394767" lat="58.9832944454" lon="5.74013334107">
		<tag k="alt_name" v="Pyntesund" />
		<tag k="bridge" v="yes" />
		<tag k="layer" v="1" />
		<tag k="name" v="Pyntesundbrua" />
		<tag k="ssr:stedsnr" v="532291" />
	</node>
	<node id="-394766" lat="58.9308750012" lon="5.73777777095">
		<tag k="bridge" v="yes" />
		<tag k="layer" v="1" />
		<tag k="name" v="Vaulen" />
		<tag k="ssr:stedsnr" v="532277" />
	</node>
	<node id="-394250" lat="58.9114777794" lon="5.72683889253">
		<tag k="bridge" v="yes" />
		<tag k="layer" v="1" />
		<tag k="name" v="Boganes" />
		<tag k="ssr:stedsnr" v="350294" />
	</node>
	<node id="-394249" lat="58.8992555513" lon="5.73976389538">
		<tag k="bridge" v="yes" />
		<tag k="layer" v="1" />
		<tag k="name" v="Dykjelbakken" />
		<tag k="ssr:stedsnr" v="350292" />
	</node>
	<node id="-394248" lat="58.9655277737" lon="5.73137777341">
		<tag k="bridge" v="yes" />
		<tag k="layer" v="1" />
		<tag k="name" v="Muségaten" />
		<tag k="ssr:stedsnr" v="350279" />
	</node>
	<node id="-394247" lat="58.9326444412" lon="5.73927500312">
		<tag k="bridge" v="yes" />
		<tag k="layer" v="1" />
		<tag k="name" v="Harholen" />
		<tag k="ssr:stedsnr" v="350275" />
	</node>
	<node id="-394246" lat="58.9638277796" lon="5.73559999863">
		<tag k="bridge" v="yes" />
		<tag k="layer" v="1" />
		<tag k="name" v="Kirkegårdsbakken" />
		<tag k="ssr:stedsnr" v="350269" />
	</node>
	<node id="-394245" lat="58.9157194423" lon="5.72114999776">
		<tag k="bridge" v="yes" />
		<tag k="layer" v="1" />
		<tag k="name" v="Vodla" />
		<tag k="ssr:stedsnr" v="350259" />
	</node>
	<node id="-394244" lat="58.9613777817" lon="5.61979167333">
		<tag k="bridge" v="yes" />
		<tag k="layer" v="1" />
		<tag k="name" v="Sunde Skole" />
		<tag k="ssr:stedsnr" v="350257" />
	</node>
	<node id="-394243" lat="58.9518444435" lon="5.74086943987">
		<tag k="alt_name" v="Hillevåg" />
		<tag k="layer" v="-1" />
		<tag k="name" v="Hillevågstunnelen" />
		<tag k="ssr:stedsnr" v="347485" />
		<tag k="tunnel" v="yes" />
	</node>
</osm>
