<?xml version="1.0" encoding="UTF-8"?>
<osm generator="osmapis" version="0.6">
	<node id="-2429" lat="58.9695380317" lon="5.72821335958">
		<tag k="name" v="Klinken" />
		<tag k="place" v="locality" />
		<tag k="ssr:stedsnr" v="980212" />
	</node>
	<node id="-1786" lat="58.9681555587" lon="5.7411166578">
		<tag k="alt_name" v="Hetland kirke" />
		<tag k="amenity" v="place_of_worship" />
		<tag k="denomination" v="lutheran" />
		<tag k="name" v="Frue kirke" />
		<tag k="religion" v="christian" />
		<tag k="ssr:stedsnr" v="691031" />
	</node>
	<node id="-2425" lat="58.9968037622" lon="5.73239957439">
		<tag k="amenity" v="place_of_worship" />
		<tag k="denomination" v="lutheran" />
		<tag k="name" v="Hundvåg kapell" />
		<tag k="religion" v="christian" />
		<tag k="ssr:stedsnr" v="971971" />
	</node>
	<node id="-3006" lat="59.1062611119" lon="5.84143610952">
		<tag k="alt_name" v="Talgje;Talje kjyrkje" />
		<tag k="amenity" v="place_of_worship" />
		<tag k="denomination" v="lutheran" />
		<tag k="name" v="Talgje kyrkje" />
		<tag k="religion" v="christian" />
		<tag k="ssr:stedsnr" v="304333" />
	</node>
	<node id="-2028" lat="58.9735666636" lon="5.7346916586">
		<tag k="name" v="Norsk Oljemuseum" />
		<tag k="ssr:stedsnr" v="647468" />
		<tag k="tourism" v="museum" />
	</node>
	<node id="-2915" lat="58.9522666707" lon="5.64404721597">
		<tag k="amenity" v="place_of_worship" />
		<tag k="denomination" v="lutheran" />
		<tag k="name" v="Revheim kirke" />
		<tag k="religion" v="christian" />
		<tag k="ssr:stedsnr" v="183031" />
	</node>
	<node id="-3290" lat="58.9715944481" lon="5.71267500668">
		<tag k="alt_name" v="Kampen" />
		<tag k="amenity" v="place_of_worship" />
		<tag k="denomination" v="lutheran" />
		<tag k="name" v="Kampen kirke" />
		<tag k="religion" v="christian" />
		<tag k="ssr:stedsnr" v="426083" />
	</node>
	<node id="-983" lat="59.1505222259" lon="5.77745278557">
		<tag k="name" v="Tyskebrygga" />
		<tag k="place" v="locality" />
		<tag k="ssr:stedsnr" v="235580" />
	</node>
	<node id="-2053" lat="58.9812972216" lon="5.69356111602">
		<tag k="alt_name" v="Tasta" />
		<tag k="amenity" v="place_of_worship" />
		<tag k="denomination" v="lutheran" />
		<tag k="name" v="Tasta kirke" />
		<tag k="religion" v="christian" />
		<tag k="ssr:stedsnr" v="881055" />
	</node>
	<node id="-3390" lat="58.9545203239" lon="5.6970337342">
		<tag k="amenity" v="community_centre" />
		<tag k="name" v="Forum Expo" />
		<tag k="ssr:stedsnr" v="545324" />
	</node>
	<node id="-2351" lat="58.942699996" lon="5.68130834055">
		<tag k="alt_name" v="Madlamark" />
		<tag k="amenity" v="place_of_worship" />
		<tag k="denomination" v="lutheran" />
		<tag k="name" v="Madlamark kirke" />
		<tag k="religion" v="christian" />
		<tag k="ssr:stedsnr" v="873660" />
	</node>
	<node id="-1068" lat="59.1279888891" lon="5.64364444554">
		<tag k="alt_name" v="Sørbø" />
		<tag k="amenity" v="place_of_worship" />
		<tag k="denomination" v="lutheran" />
		<tag k="name" v="Sørbø kyrkje" />
		<tag k="religion" v="christian" />
		<tag k="ssr:stedsnr" v="244349" />
	</node>
	<node id="-1685" lat="58.9640751324" lon="5.69039326765">
		<tag k="alt_name" v="Stokka" />
		<tag k="amenity" v="place_of_worship" />
		<tag k="denomination" v="lutheran" />
		<tag k="name" v="Stokka kirke" />
		<tag k="religion" v="christian" />
		<tag k="ssr:stedsnr" v="668073" />
	</node>
	<node id="-1825" lat="58.9655995127" lon="5.60968742034">
		<tag k="alt_name" v="Sunde" />
		<tag k="amenity" v="place_of_worship" />
		<tag k="denomination" v="lutheran" />
		<tag k="name" v="Sunde kirke" />
		<tag k="religion" v="christian" />
		<tag k="ssr:stedsnr" v="570656" />
	</node>
	<node id="-2437" lat="58.9710136605" lon="5.73621902218">
		<tag k="name" v="Pederstrappene" />
		<tag k="place" v="locality" />
		<tag k="ssr:stedsnr" v="980232" />
	</node>
	<node id="-1179" lat="58.9719912199" lon="5.73139731309">
		<tag k="name" v="Valbergtårnet" />
		<tag k="place" v="locality" />
		<tag k="ssr:stedsnr" v="282089" />
	</node>
	<node id="-2969" lat="58.9705416688" lon="5.73674999123">
		<tag k="amenity" v="place_of_worship" />
		<tag k="denomination" v="lutheran" />
		<tag k="name" v="St. Petri kirke" />
		<tag k="religion" v="christian" />
		<tag k="ssr:stedsnr" v="206037" />
	</node>
	<node id="-2968" lat="58.9686694419" lon="5.74912221423">
		<tag k="amenity" v="place_of_worship" />
		<tag k="denomination" v="lutheran" />
		<tag k="name" v="St. Johannes kirke" />
		<tag k="religion" v="christian" />
		<tag k="ssr:stedsnr" v="206028" />
	</node>
	<node id="-1689" lat="59.1762416668" lon="5.81382778073">
		<tag k="amenity" v="place_of_worship" />
		<tag k="denomination" v="lutheran" />
		<tag k="name" v="Hesby kyrkje" />
		<tag k="religion" v="christian" />
		<tag k="ssr:stedsnr" v="668334" />
	</node>
	<node id="-1682" lat="58.9442062422" lon="5.74105515442">
		<tag k="alt_name" v="Hillevåg" />
		<tag k="amenity" v="place_of_worship" />
		<tag k="denomination" v="lutheran" />
		<tag k="name" v="Hillevåg kirke" />
		<tag k="religion" v="christian" />
		<tag k="ssr:stedsnr" v="668048" />
	</node>
	<node id="-1680" lat="58.9240317044" lon="5.72853871548">
		<tag k="alt_name" v="Hinna;Hinna Kirke" />
		<tag k="amenity" v="place_of_worship" />
		<tag k="denomination" v="lutheran" />
		<tag k="name" v="Hinna kirke" />
		<tag k="religion" v="christian" />
		<tag k="ssr:stedsnr" v="668007" />
	</node>
	<node id="-2200" lat="59.2539675286" lon="5.81528272116">
		<tag k="alt_name" v="Sjernarøy" />
		<tag k="amenity" v="place_of_worship" />
		<tag k="denomination" v="lutheran" />
		<tag k="name" v="Sjernarøy kyrkje" />
		<tag k="religion" v="christian" />
		<tag k="ssr:stedsnr" v="912286" />
	</node>
	<node id="-3082" lat="58.921930554" lon="5.71328889371">
		<tag k="cemetery" v="grave" />
		<tag k="name" v="Hinna gravlund" />
		<tag k="place" v="locality" />
		<tag k="ssr:stedsnr" v="342986" />
	</node>
	<node id="-905" lat="58.9693361071" lon="5.73365833404">
		<tag k="amenity" v="place_of_worship" />
		<tag k="denomination" v="lutheran" />
		<tag k="name" v="Stavanger domkirke" />
		<tag k="religion" v="christian" />
		<tag k="ssr:stedsnr" v="221075" />
	</node>
	<node id="-2438" lat="58.9698767476" lon="5.72994343947">
		<tag k="name" v="Rosenkildetrappen" />
		<tag k="place" v="locality" />
		<tag k="ssr:stedsnr" v="980236" />
	</node>
	<node id="-3205" lat="58.9593805516" lon="5.75109721855">
		<tag k="amenity" v="place_of_worship" />
		<tag k="denomination" v="lutheran" />
		<tag k="name" v="Varden kirke" />
		<tag k="religion" v="christian" />
		<tag k="ssr:stedsnr" v="387037" />
	</node>
	<node id="-2435" lat="58.9641141945" lon="5.73854983961">
		<tag k="name" v="Paradistrappa" />
		<tag k="place" v="locality" />
		<tag k="ssr:stedsnr" v="980230" />
	</node>
	<node id="-2434" lat="58.9685796699" lon="5.73041255451">
		<tag k="name" v="Olavstrappa" />
		<tag k="place" v="locality" />
		<tag k="ssr:stedsnr" v="980226" />
	</node>
</osm>
