<?xml version="1.0" encoding="UTF-8"?>
<osm generator="osmapis" version="0.6">
	<node id="-5623" lat="59.091616663" lon="5.70688888726">
		<tag k="name" v="Fossane" />
		<tag k="natural" v="waterfall" />
		<tag k="ssr:stedsnr" v="356078" />
	</node>
	<node id="-7154" lat="58.9727111095" lon="5.67554443889">
		<tag k="name" v="Dyrsnes" />
		<tag k="natural" v="cape" />
		<tag k="ssr:stedsnr" v="327159" />
	</node>
	<node id="-5728" lat="59.126049997" lon="5.89052221748">
		<tag k="name" v="Vaudl" />
		<tag k="natural" v="shoal" />
		<tag k="place" v="locality" />
		<tag k="ssr:stedsnr" v="660347" />
	</node>
	<node id="-5612" lat="59.2457694409" lon="6.0390861162">
		<tag k="name" v="Kyrdalsvatnet" />
		<tag k="natural" v="water" />
		<tag k="ssr:stedsnr" v="487972" />
		<tag k="water" v="lake" />
	</node>
	<node id="-5611" lat="59.2419627218" lon="6.00397703162">
		<tag k="alt_name" v="Vestresjøvatnet, heimra;Heimra Vestersjøvatnet" />
		<tag k="name" v="Heimra Vestresjøvatnet" />
		<tag k="natural" v="water" />
		<tag k="ssr:stedsnr" v="487965" />
		<tag k="water" v="lake" />
	</node>
	<node id="-5610" lat="59.181634412" lon="5.84807401056">
		<tag k="name" v="Spannevatnet" />
		<tag k="natural" v="water" />
		<tag k="ssr:stedsnr" v="487889" />
		<tag k="water" v="lake" />
	</node>
	<node id="-5094" lat="59.1109700351" lon="5.89892832089">
		<tag k="name" v="Rossøytjørna" />
		<tag k="natural" v="water" />
		<tag k="ssr:stedsnr" v="235784" />
	</node>
	<node id="-7125" lat="59.2619750029" lon="5.98257499787">
		<tag k="name" v="Tverråna" />
		<tag k="ssr:stedsnr" v="305616" />
		<tag k="waterway" v="stream" />
	</node>
	<node id="-5586" lat="59.2571138893" lon="5.80420000526">
		<tag k="alt_name" v="Lundarsøylå;Søyla" />
		<tag k="name" v="Lundarsøyla" />
		<tag k="natural" v="water" />
		<tag k="ssr:stedsnr" v="487275" />
		<tag k="water" v="lake" />
	</node>
	<node id="-6608" lat="59.2564749983" lon="6.01785000518">
		<tag k="name" v="Undelitjørna" />
		<tag k="natural" v="water" />
		<tag k="ssr:stedsnr" v="2684" />
	</node>
	<node id="-7101" lat="59.2733472205" lon="6.09119722315">
		<tag k="name" v="Tuftabekken" />
		<tag k="ssr:stedsnr" v="302940" />
		<tag k="waterway" v="stream" />
	</node>
	<node id="-5048" lat="58.9440222219" lon="5.73455833676">
		<tag k="loc_name" v="Bergåstjernet" />
		<tag k="name" v="Bergatjørne" />
		<tag k="ssr:stedsnr" v="223933" />
		<tag k="waterway" v="dam" />
	</node>
	<node id="-5557" lat="59.2605194449" lon="6.05789444904">
		<tag k="name" v="Dalstjørna" />
		<tag k="natural" v="water" />
		<tag k="ssr:stedsnr" v="484733" />
	</node>
	<node id="-5044" lat="58.9821055551" lon="5.74030000792">
		<tag k="name" v="Engøyvatnet" />
		<tag k="old_name" v="Engøvandet" />
		<tag k="ssr:stedsnr" v="223834" />
		<tag k="waterway" v="dam" />
	</node>
	<node id="-5549" lat="59.2684222233" lon="5.97727222954">
		<tag k="name" v="Løgjen" />
		<tag k="natural" v="water" />
		<tag k="ssr:stedsnr" v="484420" />
	</node>
	<node id="-5548" lat="59.264316668" lon="5.97537222185">
		<tag k="name" v="Hoklongstjørna" />
		<tag k="natural" v="water" />
		<tag k="ssr:stedsnr" v="484418" />
	</node>
	<node id="-7079" lat="58.9648305586" lon="5.67889722802">
		<tag k="name" v="Litleholmen" />
		<tag k="natural" v="cape" />
		<tag k="ssr:stedsnr" v="206298" />
	</node>
	<node id="-5539" lat="59.1045841049" lon="5.73635281057">
		<tag k="name" v="Ytre Førsvollsvatnet" />
		<tag k="natural" v="water" />
		<tag k="ssr:stedsnr" v="479926" />
		<tag k="water" v="lake" />
	</node>
	<node id="-6046" lat="59.2653361141" lon="5.96396110557">
		<tag k="name" v="Jerstegtjørna" />
		<tag k="natural" v="water" />
		<tag k="ssr:stedsnr" v="727436" />
	</node>
	<node id="-6032" lat="59.1616611141" lon="5.83280833313">
		<tag k="name" v="Flesjåstemmen" />
		<tag k="natural" v="water" />
		<tag k="ssr:stedsnr" v="721576" />
	</node>
	<node id="-7044" lat="59.2760499961" lon="6.02445000228">
		<tag k="name" v="Kalltveittjørna" />
		<tag k="natural" v="water" />
		<tag k="ssr:stedsnr" v="184588" />
	</node>
	<node id="-6207" lat="59.0983361156" lon="5.7563277815">
		<tag k="name" v="Ørnhustjørna" />
		<tag k="natural" v="water" />
		<tag k="ssr:stedsnr" v="721987" />
	</node>
	<node id="-6008" lat="59.2471166646" lon="5.99514722922">
		<tag k="alt_name" v="Vestersjøvatnet;Norda Vestersjøvatnet" />
		<tag k="name" v="Vestresjøvatnet" />
		<tag k="natural" v="water" />
		<tag k="ssr:stedsnr" v="608976" />
		<tag k="water" v="lake" />
	</node>
	<node id="-6516" lat="59.2494916707" lon="6.07414167022">
		<tag k="name" v="Egrebekken" />
		<tag k="ssr:stedsnr" v="970603" />
		<tag k="waterway" v="stream" />
	</node>
	<node id="-5489" lat="59.2532361151" lon="6.08917500007">
		<tag k="name" v="Skibavikbekken" />
		<tag k="ssr:stedsnr" v="302764" />
		<tag k="waterway" v="stream" />
	</node>
	<node id="-6511" lat="59.1902555568" lon="5.83234999158">
		<tag k="name" v="Øvre Stemmen" />
		<tag k="natural" v="water" />
		<tag k="ssr:stedsnr" v="964816" />
	</node>
	<node id="-5482" lat="59.2711861106" lon="6.01678888992">
		<tag k="name" v="Røldalbekken" />
		<tag k="ssr:stedsnr" v="302457" />
		<tag k="waterway" v="stream" />
	</node>
	<node id="-7056" lat="59.1821439278" lon="5.85668711502">
		<tag k="name" v="Lausnesvatnet" />
		<tag k="natural" v="water" />
		<tag k="ssr:stedsnr" v="184856" />
		<tag k="water" v="lake" />
	</node>
	<node id="-5978" lat="59.1917499991" lon="5.83094999514">
		<tag k="name" v="Nedre Stemmen" />
		<tag k="natural" v="water" />
		<tag k="ssr:stedsnr" v="600832" />
	</node>
	<node id="-7001" lat="59.27719167" lon="6.05002776976">
		<tag k="name" v="Stora Vassnes" />
		<tag k="natural" v="cape" />
		<tag k="ssr:stedsnr" v="181478" />
	</node>
	<node id="-6482" lat="59.2662319025" lon="5.99865812966">
		<tag k="name" v="Vatlandsvatnet" />
		<tag k="natural" v="water" />
		<tag k="ssr:stedsnr" v="913534" />
	</node>
	<node id="-6986" lat="59.199205553" lon="5.9483222152">
		<tag k="name" v="Skartveitvatnet" />
		<tag k="natural" v="water" />
		<tag k="ssr:stedsnr" v="175318" />
		<tag k="water" v="lake" />
	</node>
	<node id="-7491" lat="59.2584416695" lon="6.04750832491">
		<tag k="name" v="Rabnefjellstjørna" />
		<tag k="natural" v="water" />
		<tag k="ssr:stedsnr" v="545343" />
	</node>
	<node id="-5434" lat="58.9173916711" lon="5.71093889583">
		<tag k="name" v="Vågsmyrbekken" />
		<tag k="ssr:stedsnr" v="449157" />
		<tag k="waterway" v="stream" />
	</node>
	<node id="-6447" lat="58.9739496684" lon="5.62704557707">
		<tag k="alt_name" v="Ressnes;Risnes" />
		<tag k="name" v="Resnes" />
		<tag k="natural" v="cape" />
		<tag k="ssr:stedsnr" v="873317" />
	</node>
	<node id="-6706" lat="58.9711720511" lon="5.69130484538">
		<tag k="name" v="Litla Stokkavatnet" />
		<tag k="natural" v="water" />
		<tag k="ssr:stedsnr" v="61069" />
	</node>
	<node id="-5923" lat="58.956864055" lon="5.71147770024">
		<tag k="name" v="Mosvatnet" />
		<tag k="natural" v="water" />
		<tag k="old_name" v="Mose-vandet" />
		<tag k="ssr:stedsnr" v="547109" />
		<tag k="water" v="lake" />
	</node>
	<node id="-5920" lat="59.2418055518" lon="5.95005556091">
		<tag k="name" v="Stora Tjødnå" />
		<tag k="natural" v="water" />
		<tag k="ssr:stedsnr" v="545613" />
	</node>
	<node id="-6431" lat="59.2702000039" lon="6.06767499472">
		<tag k="name" v="Osmundslogen" />
		<tag k="natural" v="water" />
		<tag k="ssr:stedsnr" v="852578" />
	</node>
	<node id="-5423" lat="59.0910250003" lon="5.7288277768">
		<tag k="name" v="Bjergavatnet" />
		<tag k="natural" v="water" />
		<tag k="ssr:stedsnr" v="244859" />
		<tag k="water" v="lake" />
	</node>
	<node id="-5392" lat="59.2700472234" lon="6.04288888377">
		<tag k="name" v="Den runda tjødnå" />
		<tag k="natural" v="water" />
		<tag k="ssr:stedsnr" v="242407" />
	</node>
	<node id="-5677" lat="58.9405076023" lon="5.73325607544">
		<tag k="name" v="Vassverktjørna" />
		<tag k="natural" v="water" />
		<tag k="ssr:stedsnr" v="509170" />
	</node>
	<node id="-6924" lat="58.9721861143" lon="5.74851943998">
		<tag k="name" v="Badedammen" />
		<tag k="ssr:stedsnr" v="145049" />
		<tag k="waterway" v="dam" />
	</node>
	<node id="-6919" lat="58.9680596101" lon="5.73299943681">
		<tag k="name" v="Breiavatnet" />
		<tag k="natural" v="water" />
		<tag k="old_name" v="Brede-vandet" />
		<tag k="ssr:stedsnr" v="145022" />
	</node>
	<node id="-5892" lat="58.9707055553" lon="5.68042777991">
		<tag k="name" v="Møllebukta" />
		<tag k="natural" v="bay" />
		<tag k="ssr:stedsnr" v="691199" />
	</node>
	<node id="-7420" lat="59.2685849895" lon="5.8738813001">
		<tag k="name" v="Nesheimsvatnet" />
		<tag k="natural" v="water" />
		<tag k="ssr:stedsnr" v="427590" />
		<tag k="water" v="lake" />
	</node>
	<node id="-7419" lat="59.1255083332" lon="5.88523055264">
		<tag k="name" v="Fjellbergvatnet" />
		<tag k="natural" v="water" />
		<tag k="ssr:stedsnr" v="427553" />
		<tag k="water" v="lake" />
	</node>
	<node id="-7417" lat="59.2493264019" lon="5.96559140249">
		<tag k="name" v="Knoltavatnet" />
		<tag k="natural" v="water" />
		<tag k="ssr:stedsnr" v="427672" />
		<tag k="water" v="lake" />
	</node>
	<node id="-6902" lat="59.2738000001" lon="6.05445000535">
		<tag k="name" v="Gunnstølvatnet" />
		<tag k="natural" v="water" />
		<tag k="ssr:stedsnr" v="123639" />
		<tag k="water" v="lake" />
	</node>
	<node id="-6895" lat="59.1087111097" lon="5.74816388384">
		<tag k="name" v="Myrkjavatnet" />
		<tag k="natural" v="water" />
		<tag k="ssr:stedsnr" v="123358" />
		<tag k="water" v="lake" />
	</node>
	<node id="-6375" lat="59.2673000031" lon="6.03209999331">
		<tag k="name" v="Grasdalstjørna" />
		<tag k="natural" v="water" />
		<tag k="ssr:stedsnr" v="791563" />
	</node>
	<node id="-6373" lat="59.2417932772" lon="5.97281697011">
		<tag k="name" v="Stemtjørna" />
		<tag k="natural" v="water" />
		<tag k="ssr:stedsnr" v="790968" />
	</node>
	<node id="-5855" lat="59.2762722225" lon="6.04046944181">
		<tag k="name" v="Middagstjørna" />
		<tag k="natural" v="water" />
		<tag k="ssr:stedsnr" v="484459" />
	</node>
	<node id="-7388" lat="58.9651684016" lon="5.66782422329">
		<tag k="name" v="Stora Stokkavatnet" />
		<tag k="natural" v="water" />
		<tag k="ssr:stedsnr" v="426079" />
		<tag k="water" v="lake" />
	</node>
	<node id="-7386" lat="59.2684027775" lon="6.09683056167">
		<tag k="name" v="Haugstjørna" />
		<tag k="natural" v="water" />
		<tag k="ssr:stedsnr" v="424759" />
	</node>
	<node id="-6866" lat="59.2663888924" lon="6.05231388901">
		<tag k="name" v="Kolhedletjørna" />
		<tag k="natural" v="water" />
		<tag k="ssr:stedsnr" v="120741" />
	</node>
	<node id="-7377" lat="59.2829333297" lon="6.06040277841">
		<tag k="name" v="Trætjørnene" />
		<tag k="natural" v="water" />
		<tag k="ssr:stedsnr" v="424001" />
	</node>
	<node id="-5833" lat="59.2478787481" lon="6.03435823197">
		<tag k="name" v="Holmavatnet" />
		<tag k="natural" v="water" />
		<tag k="ssr:stedsnr" v="669968" />
	</node>
	<node id="-6332" lat="58.9271333318" lon="5.73594722732">
		<tag k="name" v="Hindalsdammen" />
		<tag k="natural" v="water" />
		<tag k="ssr:stedsnr" v="767854" />
	</node>
	<node id="-5819" lat="59.2693571082" lon="5.98289923087">
		<tag k="name" v="Raudåstjørna" />
		<tag k="natural" v="water" />
		<tag k="ssr:stedsnr" v="669591" />
	</node>
	<node id="-6301" lat="59.1448285742" lon="5.79302632094">
		<tag k="alt_name" v="Lastevatnet" />
		<tag k="name" v="Lasteinvatnet" />
		<tag k="natural" v="water" />
		<tag k="ssr:stedsnr" v="912289" />
		<tag k="water" v="lake" />
	</node>
	<node id="-6682" lat="59.2750027777" lon="6.05056945268">
		<tag k="name" v="Stora Vassnes" />
		<tag k="natural" v="cape" />
		<tag k="ssr:stedsnr" v="60454" />
	</node>
	<node id="-6167" lat="58.96250833" lon="5.62108055622">
		<tag k="name" v="Tasabekken" />
		<tag k="ssr:stedsnr" v="889502" />
		<tag k="waterway" v="stream" />
	</node>
	<node id="-5766" lat="59.2311444474" lon="5.96286389624">
		<tag k="name" v="Stegatjørna" />
		<tag k="natural" v="water" />
		<tag k="ssr:stedsnr" v="666629" />
	</node>
	<node id="-5765" lat="59.2357000016" lon="5.99305834016">
		<tag k="name" v="Svortetjørn" />
		<tag k="natural" v="water" />
		<tag k="ssr:stedsnr" v="666628" />
	</node>
	<node id="-7299" lat="59.23906522" lon="5.99841532013">
		<tag k="name" v="Kårdalsvatnet" />
		<tag k="natural" v="water" />
		<tag k="ssr:stedsnr" v="366990" />
		<tag k="water" v="lake" />
	</node>
	<node id="-6270" lat="59.2282055565" lon="5.89063889242">
		<tag k="name" v="Tjødnå" />
		<tag k="natural" v="water" />
		<tag k="ssr:stedsnr" v="909602" />
	</node>
	<node id="-7286" lat="59.2629638101" lon="6.04923020061">
		<tag k="alt_name" v="Longetjørn" />
		<tag k="name" v="Langetjørn" />
		<tag k="natural" v="water" />
		<tag k="ssr:stedsnr" v="366587" />
	</node>
	<node id="-6258" lat="59.251380555" lon="5.98409722616">
		<tag k="name" v="Svortetjørna" />
		<tag k="natural" v="water" />
		<tag k="ssr:stedsnr" v="909452" />
	</node>
	<node id="-6257" lat="59.2562888848" lon="5.975661112">
		<tag k="name" v="Krogå" />
		<tag k="ssr:stedsnr" v="909451" />
		<tag k="waterway" v="stream" />
	</node>
	<node id="-6754" lat="59.2490984341" lon="6.02265977938">
		<tag k="alt_name" v="Bjødlandsvatnet" />
		<tag k="name" v="Bjøllandsvatnet" />
		<tag k="natural" v="water" />
		<tag k="ssr:stedsnr" v="63679" />
		<tag k="water" v="lake" />
	</node>
	<node id="-6752" lat="59.2632000036" lon="5.9580499923">
		<tag k="alt_name" v="Løgjen" />
		<tag k="name" v="Løken" />
		<tag k="natural" v="water" />
		<tag k="ssr:stedsnr" v="63578" />
	</node>
	<node id="-5724" lat="59.0889888913" lon="5.58317500176">
		<tag k="name" v="Fjøløyvatnet" />
		<tag k="natural" v="water" />
		<tag k="ssr:stedsnr" v="660194" />
		<tag k="water" v="lake" />
	</node>
	<node id="-5719" lat="59.1072472265" lon="5.66156389698">
		<tag k="name" v="Mannsvatnet" />
		<tag k="natural" v="water" />
		<tag k="ssr:stedsnr" v="659029" />
		<tag k="water" v="lake" />
	</node>
	<node id="-6739" lat="59.086024997" lon="5.63835277143">
		<tag k="name" v="Kådastemmen" />
		<tag k="natural" v="water" />
		<tag k="ssr:stedsnr" v="62869" />
	</node>
	<node id="-6738" lat="59.0839194481" lon="5.6186138935">
		<tag k="name" v="Mørkavatnet" />
		<tag k="natural" v="water" />
		<tag k="ssr:stedsnr" v="62863" />
	</node>
	<node id="-6737" lat="59.0931666659" lon="5.62100556211">
		<tag k="name" v="Jonepytten" />
		<tag k="natural" v="water" />
		<tag k="ssr:stedsnr" v="62852" />
	</node>
	<node id="-5703" lat="59.1050694426" lon="5.73309722713">
		<tag k="name" v="Spjutavatnet" />
		<tag k="natural" v="water" />
		<tag k="ssr:stedsnr" v="418913" />
	</node>
	<node id="-5702" lat="59.1026666633" lon="5.74300555583">
		<tag k="name" v="Indre Førsvollsvatnet" />
		<tag k="natural" v="water" />
		<tag k="ssr:stedsnr" v="418912" />
		<tag k="water" v="lake" />
	</node>
	<node id="-5188" lat="59.2579540085" lon="5.97070791305">
		<tag k="alt_name" v="Kjylavatnet" />
		<tag k="name" v="Kylavatnet" />
		<tag k="natural" v="water" />
		<tag k="ssr:stedsnr" v="245542" />
		<tag k="water" v="lake" />
	</node>
	<node id="-6210" lat="59.2812499965" lon="6.06699167432">
		<tag k="name" v="Holetjørna" />
		<tag k="natural" v="water" />
		<tag k="ssr:stedsnr" v="727006" />
	</node>
	<node id="-6720" lat="59.1178888908" lon="5.64716943801">
		<tag k="name" v="Stokkadalsvatnet" />
		<tag k="natural" v="water" />
		<tag k="ssr:stedsnr" v="62361" />
	</node>
	<node id="-6719" lat="59.1034597322" lon="5.73800838937">
		<tag k="name" v="Førsvollvatna" />
		<tag k="natural" v="water" />
		<tag k="ssr:stedsnr" v="62319" />
		<tag k="water" v="lake" />
	</node>
	<node id="-6202" lat="59.1487111151" lon="5.9019861062">
		<tag k="name" v="Bøfossen" />
		<tag k="natural" v="waterfall" />
		<tag k="ssr:stedsnr" v="721603" />
	</node>
	<node id="-5170" lat="59.1122166707" lon="5.89189721483">
		<tag k="name" v="Pøydl" />
		<tag k="place" v="locality" />
		<tag k="ssr:stedsnr" v="244541" />
	</node>
	<node id="-6703" lat="58.9754983468" lon="5.6279936708">
		<tag k="name" v="Hålandsvatnet" />
		<tag k="natural" v="water" />
		<tag k="ssr:stedsnr" v="61052" />
		<tag k="water" v="lake" />
	</node>
	<node id="-6701" lat="59.258505953" lon="5.79936274816">
		<tag k="name" v="Dragjevatnet" />
		<tag k="natural" v="water" />
		<tag k="ssr:stedsnr" v="60729" />
		<tag k="water" v="lake" />
	</node>
	<node id="-5164" lat="59.1117805519" lon="5.63623055031">
		<tag k="name" v="Asmarvikstemmen" />
		<tag k="natural" v="water" />
		<tag k="ssr:stedsnr" v="244378" />
	</node>
	<node id="-5158" lat="59.099236718" lon="5.71444052328">
		<tag k="name" v="Vikestemmen" />
		<tag k="natural" v="water" />
		<tag k="ssr:stedsnr" v="244331" />
	</node>
	<node id="-7201" lat="59.0814639661" lon="5.62934600607">
		<tag k="name" v="Storavatnet" />
		<tag k="natural" v="water" />
		<tag k="ssr:stedsnr" v="356017" />
		<tag k="water" v="lake" />
	</node>
	<node id="-5664" lat="58.9779194474" lon="5.61551388977">
		<tag k="name" v="Kvernevikbekken" />
		<tag k="ssr:stedsnr" v="405906" />
		<tag k="waterway" v="stream" />
	</node>
	<node id="-5190" lat="59.2732387306" lon="5.9479782666">
		<tag k="name" v="Slåttetjørna" />
		<tag k="natural" v="water" />
		<tag k="ssr:stedsnr" v="245561" />
	</node>
	<node id="-7428" lat="59.2466888917" lon="6.05990833139">
		<tag k="name" v="Rossåna" />
		<tag k="ssr:stedsnr" v="427968" />
		<tag k="waterway" v="stream" />
	</node>
	<node id="-6675" lat="59.2615944482" lon="6.04976389072">
		<tag k="name" v="Brattekleivtjørna" />
		<tag k="natural" v="water" />
		<tag k="ssr:stedsnr" v="60370" />
	</node>
	<node id="-6152" lat="59.2578805538" lon="6.05640277726">
		<tag k="name" v="Steinlebekken" />
		<tag k="ssr:stedsnr" v="666723" />
		<tag k="waterway" v="stream" />
	</node>
</osm>
