<?xml version="1.0" encoding="UTF-8"?>
<osm generator="osmapis" version="0.6">
	<node id="-394711" lat="58.9698767476" lon="5.72994343947">
		<tag k="name" v="Rosenkildetrappen" />
		<tag k="place" v="locality" />
		<tag k="ssr:stedsnr" v="980236" />
	</node>
	<node id="-394710" lat="59.0403934583" lon="5.73394495578">
		<tag k="name" v="Åmøy" />
		<tag k="place" v="island" />
		<tag k="ssr:stedsnr" v="972996" />
	</node>
	<node id="-394709" lat="58.9710136605" lon="5.73621902218">
		<tag k="name" v="Pederstrappene" />
		<tag k="place" v="locality" />
		<tag k="ssr:stedsnr" v="980232" />
	</node>
	<node id="-394708" lat="58.9688673144" lon="5.73244277912">
		<tag k="highway" v="path" />
		<tag k="name" v="Parkveien" />
		<tag k="ssr:stedsnr" v="980231" />
	</node>
	<node id="-394707" lat="58.9641141945" lon="5.73854983961">
		<tag k="name" v="Paradistrappa" />
		<tag k="place" v="locality" />
		<tag k="ssr:stedsnr" v="980230" />
	</node>
	<node id="-394706" lat="58.9685796699" lon="5.73041255451">
		<tag k="name" v="Olavstrappa" />
		<tag k="place" v="locality" />
		<tag k="ssr:stedsnr" v="980226" />
	</node>
	<node id="-394704" lat="58.9591077162" lon="5.71620426145">
		<tag k="highway" v="path" />
		<tag k="name" v="Mosvannsveien" />
		<tag k="ssr:stedsnr" v="980219" />
	</node>
	<node id="-394703" lat="58.9543550418" lon="5.7095009362">
		<tag k="highway" v="path" />
		<tag k="name" v="Mostunveien" />
		<tag k="ssr:stedsnr" v="980215" />
	</node>
	<node id="-394701" lat="58.9695380317" lon="5.72821335958">
		<tag k="name" v="Klinken" />
		<tag k="place" v="locality" />
		<tag k="ssr:stedsnr" v="980212" />
	</node>
	<node id="-394700" lat="58.9692037778" lon="5.72866824881">
		<tag k="name" v="Kleivatrappene" />
		<tag k="place" v="locality" />
		<tag k="ssr:stedsnr" v="980209" />
	</node>
	<node id="-394699" lat="58.9983627541" lon="5.78243004222">
		<tag k="amenity" v="ferry_terminal" />
		<tag k="name" v="Vassøy ferjekai" />
		<tag k="ssr:stedsnr" v="978664" />
	</node>
	<node id="-394698" lat="58.9721342847" lon="5.74011387798">
		<tag k="amenity" v="ferry_terminal" />
		<tag k="name" v="Stavanger ferjekai" />
		<tag k="ssr:stedsnr" v="978593" />
	</node>
	<node id="-394697" lat="58.9039782276" lon="5.71020417437">
		<tag k="cemetery" v="grave" />
		<tag k="name" v="Jåttå gravlund" />
		<tag k="place" v="locality" />
		<tag k="ssr:stedsnr" v="975835" />
	</node>
	<node id="-394695" lat="58.93912786" lon="5.74750590192">
		<tag k="name" v="Erik Hauglands plass" />
		<tag k="place" v="square" />
		<tag k="ssr:stedsnr" v="975724" />
	</node>
	<node id="-394692" lat="58.9655007386" lon="5.73231668114">
		<tag k="name" v="Leiv Isaksens plass" />
		<tag k="place" v="square" />
		<tag k="ssr:stedsnr" v="975717" />
	</node>
	<node id="-394689" lat="58.9633603167" lon="5.69087953129">
		<tag k="amenity" v="kindergarten" />
		<tag k="name" v="Stokkatunet barnehage" />
		<tag k="ssr:stedsnr" v="973516" />
	</node>
	<node id="-394688" lat="58.9479131986" lon="5.75086089919">
		<tag k="man_made" v="quay" />
		<tag k="name" v="Hetlandskaien" />
		<tag k="place" v="locality" />
		<tag k="ssr:stedsnr" v="973465" />
	</node>
	<node id="-394685" lat="58.9968037622" lon="5.73239957439">
		<tag k="amenity" v="place_of_worship" />
		<tag k="denomination" v="lutheran" />
		<tag k="name" v="Hundvåg kapell" />
		<tag k="religion" v="christian" />
		<tag k="ssr:stedsnr" v="971971" />
	</node>
	<node id="-394680" lat="58.9614932358" lon="5.73324900824">
		<tag k="name" v="Våland" />
		<tag k="place" v="suburb" />
		<tag k="ssr:stedsnr" v="971941" />
	</node>
	<node id="-394679" lat="58.9658853011" lon="5.71379315558">
		<tag k="name" v="Eiganes" />
		<tag k="place" v="suburb" />
		<tag k="ssr:stedsnr" v="971939" />
	</node>
	<node id="-394678" lat="58.9728305576" lon="5.8374277828">
		<tag k="loc_name" v="Ura" />
		<tag k="name" v="Urda" />
		<tag k="natural" v="scree" />
		<tag k="ssr:stedsnr" v="966966" />
	</node>
	<node id="-394677" lat="58.989299999" lon="5.78759443829">
		<tag k="alt_name" v="Søndre Vassøytåna" />
		<tag k="name" v="Søre Vassøytåna" />
		<tag k="natural" v="cape" />
		<tag k="ssr:stedsnr" v="966888" />
	</node>
	<node id="-394676" lat="58.9520042726" lon="5.7531309604">
		<tag k="name" v="Straumvika" />
		<tag k="natural" v="bay" />
		<tag k="ssr:stedsnr" v="966236" />
	</node>
	<node id="-394675" lat="58.9532694466" lon="5.68238055595">
		<tag k="bridge" v="yes" />
		<tag k="layer" v="1" />
		<tag k="name" v="Madlavegen" />
		<tag k="ssr:stedsnr" v="957305" />
	</node>
	<node id="-394674" lat="58.9553194491" lon="5.70193889707">
		<tag k="bridge" v="yes" />
		<tag k="layer" v="1" />
		<tag k="name" v="Tjensvoll Galleri" />
		<tag k="ssr:stedsnr" v="957295" />
	</node>
	<node id="-394673" lat="58.9722638848" lon="5.70092222434">
		<tag k="layer" v="-1" />
		<tag k="name" v="Byhaugtunnelen" />
		<tag k="ssr:stedsnr" v="954395" />
		<tag k="tunnel" v="yes" />
	</node>
	<node id="-394672" lat="58.9976877809" lon="5.66981596906">
		<tag k="name" v="Sothammaren" />
		<tag k="natural" v="cape" />
		<tag k="ssr:stedsnr" v="952814" />
	</node>
	<node id="-394671" lat="58.9423666623" lon="5.73657499822">
		<tag k="name" v="Blidensol" />
		<tag k="place" v="locality" />
		<tag k="ssr:stedsnr" v="951911" />
	</node>
	<node id="-394670" lat="58.9864944432" lon="5.74363054837">
		<tag k="alt_name" v="Ytre Vågeskjær" />
		<tag k="fixme" v="consider seamark:type=rock or natural=shoal" />
		<tag k="name" v="Ytre Vågaskjer" />
		<tag k="old_name" v="Ydre Vaageskjær" />
		<tag k="place" v="islet" />
		<tag k="ssr:stedsnr" v="951834" />
	</node>
	<node id="-394669" lat="58.9112916706" lon="5.72079721838">
		<tag k="name" v="Boremarka" />
		<tag k="place" v="locality" />
		<tag k="ssr:stedsnr" v="951835" />
	</node>
	<node id="-394668" lat="58.989538887" lon="5.77120278189">
		<tag k="fixme" v="consider seamark:type=rock or natural=shoal" />
		<tag k="name" v="Kobbsteinen" />
		<tag k="place" v="islet" />
		<tag k="ssr:stedsnr" v="951764" />
	</node>
	<node id="-394665" lat="58.972725003" lon="5.75443332986">
		<tag k="name" v="Mølleneset" />
		<tag k="natural" v="cape" />
		<tag k="ssr:stedsnr" v="950217" />
	</node>
	<node id="-394664" lat="58.9141861084" lon="5.69398889554">
		<tag k="name" v="Kreklingholen" />
		<tag k="natural" v="hill" />
		<tag k="place" v="locality" />
		<tag k="ssr:stedsnr" v="949996" />
	</node>
	<node id="-394663" lat="58.9380472213" lon="5.63714167249">
		<tag k="fixme" v="verify maritime location" />
		<tag k="mooring" v="yes" />
		<tag k="name" v="Karistø" />
		<tag k="place" v="locality" />
		<tag k="ssr:stedsnr" v="949945" />
	</node>
	<node id="-394662" lat="58.9805666659" lon="5.68294444654">
		<tag k="alt_name" v="Tasta Nedre" />
		<tag k="fixme" v="consider place=suburb, village or hamlet" />
		<tag k="name" v="Nedre Tasta" />
		<tag k="place" v="quarter" />
		<tag k="ssr:stedsnr" v="949609" />
	</node>
	<node id="-394661" lat="58.9574666627" lon="5.65158611341">
		<tag k="name" v="Stølabråtet" />
		<tag k="natural" v="slope" />
		<tag k="place" v="locality" />
		<tag k="ssr:stedsnr" v="949506" />
	</node>
	<node id="-394660" lat="58.9638250031" lon="5.62096944805">
		<tag k="name" v="Ekra" />
		<tag k="place" v="locality" />
		<tag k="ssr:stedsnr" v="949442" />
	</node>
	<node id="-394658" lat="58.9617722202" lon="5.7688777775">
		<tag k="name" v="Wyllerodden" />
		<tag k="natural" v="cape" />
		<tag k="ssr:stedsnr" v="949192" />
	</node>
	<node id="-394657" lat="58.9739472236" lon="5.72375277713">
		<tag k="name" v="Tekniker Reinerts plass" />
		<tag k="place" v="square" />
		<tag k="ssr:stedsnr" v="937416" />
	</node>
	<node id="-394656" lat="58.9443611125" lon="5.6314527845">
		<tag k="name" v="Klakk" />
		<tag k="natural" v="cape" />
		<tag k="ssr:stedsnr" v="934309" />
	</node>
	<node id="-394655" lat="58.9762944405" lon="5.61659443735">
		<tag k="alt_name" v="Kvednavikskogen" />
		<tag k="name" v="Kvernevikskogen" />
		<tag k="place" v="locality" />
		<tag k="ssr:stedsnr" v="934277" />
	</node>
	<node id="-394654" lat="58.8847750018" lon="5.74929166518">
		<tag k="name" v="Stokkastøa" />
		<tag k="place" v="locality" />
		<tag k="ssr:stedsnr" v="934199" />
	</node>
	<node id="-394653" lat="58.8977472237" lon="5.73103055296">
		<tag k="name" v="Eikeberget" />
		<tag k="natural" v="hill" />
		<tag k="place" v="locality" />
		<tag k="ssr:stedsnr" v="934193" />
	</node>
	<node id="-394652" lat="58.9845138932" lon="5.69953888506">
		<tag k="alt_name" v="Tastaveten" />
		<tag k="name" v="Tastaveden" />
		<tag k="natural" v="hill" />
		<tag k="place" v="locality" />
		<tag k="ssr:stedsnr" v="934148" />
	</node>
	<node id="-394651" lat="58.9505305558" lon="5.71886944111">
		<tag k="leisure" v="pitch" />
		<tag k="name" v="SIF stadion" />
		<tag k="ssr:stedsnr" v="934001" />
	</node>
	<node id="-394650" lat="58.971794444" lon="5.74443888806">
		<tag k="man_made" v="quay" />
		<tag k="name" v="Indre Steinkar" />
		<tag k="old_name" v="Indre Stenkar" />
		<tag k="place" v="locality" />
		<tag k="ssr:stedsnr" v="934063" />
	</node>
	<node id="-394649" lat="58.9770722207" lon="5.71973054703">
		<tag k="leisure" v="park" />
		<tag k="name" v="Bjergsted" />
		<tag k="ssr:stedsnr" v="934032" />
	</node>
	<node id="-394648" lat="59.0109388912" lon="5.76864443741">
		<tag k="name" v="Nordsjøvika" />
		<tag k="natural" v="bay" />
		<tag k="ssr:stedsnr" v="934011" />
	</node>
	<node id="-394647" lat="58.9675694483" lon="5.74057778346">
		<tag k="layer" v="-1" />
		<tag k="name" v="Bergelandstunnelen" />
		<tag k="ssr:stedsnr" v="931973" />
		<tag k="tunnel" v="yes" />
	</node>
	<node id="-394645" lat="58.9714000001" lon="5.73612222586">
		<tag k="name" v="Lars Oftedals plass" />
		<tag k="place" v="square" />
		<tag k="ssr:stedsnr" v="931448" />
	</node>
	<node id="-394644" lat="59.001683335" lon="5.78201389353">
		<tag k="name" v="Auraneset" />
		<tag k="natural" v="cape" />
		<tag k="ssr:stedsnr" v="912979" />
	</node>
	<node id="-394643" lat="59.0043694401" lon="5.75432777316">
		<tag k="alt_name" v="Kistenes" />
		<tag k="loc_name" v="Lundsneset" />
		<tag k="name" v="Kisteneset" />
		<tag k="natural" v="cape" />
		<tag k="ssr:stedsnr" v="912975" />
	</node>
	<node id="-394642" lat="59.0019749992" lon="5.75936111267">
		<tag k="alt_name" v="Svartaskjeret;Svarteskjær" />
		<tag k="fixme" v="consider seamark:type=rock or natural=shoal" />
		<tag k="name" v="Svartaskjer" />
		<tag k="place" v="islet" />
		<tag k="ssr:stedsnr" v="912976" />
	</node>
	<node id="-394640" lat="58.9048774771" lon="5.74862988632">
		<tag k="name" v="Gauselholmen" />
		<tag k="place" v="islet" />
		<tag k="ssr:stedsnr" v="911952" />
	</node>
	<node id="-394638" lat="59.011233331" lon="5.75216389453">
		<tag k="alt_name" v="Sandnes" />
		<tag k="loc_name" v="Lundssandneset" />
		<tag k="name" v="Sandneset" />
		<tag k="natural" v="cape" />
		<tag k="ssr:stedsnr" v="911371" />
	</node>
	<node id="-394637" lat="58.9772598961" lon="5.70699009748">
		<tag k="alt_name" v="Tasta, in" />
		<tag k="fixme" v="consider place=suburb, village or hamlet" />
		<tag k="name" v="Indre Tasta" />
		<tag k="place" v="quarter" />
		<tag k="ssr:stedsnr" v="911113" />
	</node>
	<node id="-394635" lat="58.9646722244" lon="5.6445333317">
		<tag k="alt_name" v="Krossberget" />
		<tag k="name" v="Krossberg" />
		<tag k="place" v="farm" />
		<tag k="ssr:stedsnr" v="911087" />
	</node>
	<node id="-394634" lat="58.9667628967" lon="5.62234901651">
		<tag k="name" v="Porsen" />
		<tag k="place" v="locality" />
		<tag k="ssr:stedsnr" v="911085" />
	</node>
	<node id="-394633" lat="58.9747388916" lon="5.61824443736">
		<tag k="alt_name" v="Skjelbrei" />
		<tag k="name" v="Skjelbreid" />
		<tag k="place" v="farm" />
		<tag k="ssr:stedsnr" v="911073" />
	</node>
	<node id="-394632" lat="58.9701527749" lon="5.73043054824">
		<tag k="name" v="Christian Lous Langes plass" />
		<tag k="place" v="square" />
		<tag k="ssr:stedsnr" v="906257" />
	</node>
	<node id="-394631" lat="58.9711611083" lon="5.73797499566">
		<tag k="leisure" v="park" />
		<tag k="name" v="Ajaxparken" />
		<tag k="ssr:stedsnr" v="906106" />
	</node>
	<node id="-394630" lat="59.0104833302" lon="5.77563611352">
		<tag k="name" v="Klubbavågen" />
		<tag k="natural" v="bay" />
		<tag k="ssr:stedsnr" v="905235" />
	</node>
	<node id="-394629" lat="59.038330558" lon="5.75896944218">
		<tag k="name" v="Sjøhagen" />
		<tag k="place" v="quarter" />
		<tag k="ssr:stedsnr" v="902508" />
	</node>
	<node id="-394628" lat="59.0203888912" lon="5.77611945237">
		<tag k="alt_name" v="Raudn;Raun" />
		<tag k="name" v="Raunen" />
		<tag k="natural" v="cape" />
		<tag k="ssr:stedsnr" v="902465" />
	</node>
	<node id="-394627" lat="58.9812972216" lon="5.69356111602">
		<tag k="alt_name" v="Tasta" />
		<tag k="amenity" v="place_of_worship" />
		<tag k="denomination" v="lutheran" />
		<tag k="name" v="Tasta kirke" />
		<tag k="religion" v="christian" />
		<tag k="ssr:stedsnr" v="881055" />
	</node>
	<node id="-394626" lat="58.9721205286" lon="5.72595170927">
		<tag k="name" v="Einar Hedéns plass" />
		<tag k="place" v="square" />
		<tag k="ssr:stedsnr" v="875424" />
	</node>
	<node id="-394625" lat="58.9073805516" lon="5.69408055753">
		<tag k="name" v="Idlandskogen" />
		<tag k="place" v="locality" />
		<tag k="ssr:stedsnr" v="874790" />
	</node>
	<node id="-394624" lat="58.9911555575" lon="5.82524445007">
		<tag k="name" v="Skarvaskjergrunnen" />
		<tag k="natural" v="shoal" />
		<tag k="place" v="locality" />
		<tag k="ssr:stedsnr" v="874285" />
	</node>
	<node id="-394623" lat="58.942699996" lon="5.68130834055">
		<tag k="alt_name" v="Madlamark" />
		<tag k="amenity" v="place_of_worship" />
		<tag k="denomination" v="lutheran" />
		<tag k="name" v="Madlamark kirke" />
		<tag k="religion" v="christian" />
		<tag k="ssr:stedsnr" v="873660" />
	</node>
	<node id="-394622" lat="58.8917479428" lon="5.74796317017">
		<tag k="fixme" v="consider place=hamlet" />
		<tag k="name" v="Forus" />
		<tag k="place" v="farm" />
		<tag k="ssr:stedsnr" v="873619" />
	</node>
	<node id="-394621" lat="58.9725138875" lon="5.59738333758">
		<tag k="fixme" v="consider seamark:type=rock or natural=shoal" />
		<tag k="name" v="Laksaskjeret" />
		<tag k="place" v="islet" />
		<tag k="ssr:stedsnr" v="873375" />
	</node>
	<node id="-394620" lat="58.9362305556" lon="5.64281945293">
		<tag k="name" v="Sandnesheia" />
		<tag k="natural" v="slope" />
		<tag k="place" v="locality" />
		<tag k="ssr:stedsnr" v="873359" />
	</node>
	<node id="-394619" lat="58.9711583369" lon="5.65196111696">
		<tag k="name" v="Skogberga" />
		<tag k="natural" v="hill" />
		<tag k="place" v="locality" />
		<tag k="ssr:stedsnr" v="873319" />
	</node>
	<node id="-394618" lat="58.9739496684" lon="5.62704557707">
		<tag k="alt_name" v="Ressnes;Risnes" />
		<tag k="name" v="Resnes" />
		<tag k="natural" v="cape" />
		<tag k="ssr:stedsnr" v="873317" />
	</node>
	<node id="-394617" lat="58.9719333361" lon="5.71250000156">
		<tag k="amenity" v="school" />
		<tag k="name" v="Misjonsskolen" />
		<tag k="ssr:stedsnr" v="873187" />
	</node>
	<node id="-394616" lat="58.9914916666" lon="5.6896250002">
		<tag k="fixme" v="consider natural=peak for the most distinct mountains in the district" />
		<tag k="name" v="Byåsen" />
		<tag k="natural" v="hill" />
		<tag k="place" v="locality" />
		<tag k="ssr:stedsnr" v="873177" />
	</node>
	<node id="-394615" lat="58.9873000011" lon="5.74496388414">
		<tag k="alt_name" v="Jadarholmen" />
		<tag k="name" v="Jadarholm" />
		<tag k="natural" v="cape" />
		<tag k="ssr:stedsnr" v="873053" />
	</node>
	<node id="-394614" lat="58.9710450027" lon="5.73048095724">
		<tag k="alt_name" v="Skagen" />
		<tag k="man_made" v="quay" />
		<tag k="name" v="Skagenkaien" />
		<tag k="place" v="locality" />
		<tag k="ssr:stedsnr" v="873033" />
	</node>
	<node id="-394613" lat="58.9531500041" lon="5.74938333458">
		<tag k="leisure" v="park" />
		<tag k="name" v="Strømvik kolonihager" />
		<tag k="ssr:stedsnr" v="873027" />
	</node>
	<node id="-394612" lat="58.9832194426" lon="5.7476388955">
		<tag k="name" v="Porsvika" />
		<tag k="natural" v="bay" />
		<tag k="ssr:stedsnr" v="873017" />
	</node>
	<node id="-394611" lat="58.9908749985" lon="5.7345083302">
		<tag k="name" v="Galeivågen" />
		<tag k="natural" v="bay" />
		<tag k="old_name" v="Galleivaagen" />
		<tag k="ssr:stedsnr" v="873014" />
	</node>
	<node id="-394610" lat="58.9529277788" lon="5.72455277434">
		<tag k="leisure" v="park" />
		<tag k="name" v="Våland kolonihager" />
		<tag k="ssr:stedsnr" v="873002" />
	</node>
	<node id="-394609" lat="58.9927805576" lon="5.67533610796">
		<tag k="name" v="Vardeneset" />
		<tag k="place" v="hamlet" />
		<tag k="ssr:stedsnr" v="870960" />
	</node>
	<node id="-394608" lat="59.0040694416" lon="5.81719166195">
		<tag k="bay" v="fjord" />
		<tag k="name" v="Vassøyosen" />
		<tag k="natural" v="bay" />
		<tag k="ssr:stedsnr" v="851980" />
	</node>
	<node id="-394607" lat="59.0066801055" lon="5.75391641635">
		<tag k="alt_name" v="Bekkavik;Bekkjavik" />
		<tag k="name" v="Bekkjavika" />
		<tag k="natural" v="bay" />
		<tag k="ssr:stedsnr" v="851768" />
	</node>
	<node id="-394606" lat="59.0014083318" lon="5.7235638882">
		<tag k="name" v="Saltnesfeltet" />
		<tag k="place" v="quarter" />
		<tag k="ssr:stedsnr" v="851766" />
	</node>
	<node id="-394605" lat="59.0067833295" lon="5.73381667333">
		<tag k="name" v="Sandvågen" />
		<tag k="natural" v="bay" />
		<tag k="ssr:stedsnr" v="851764" />
	</node>
	<node id="-394604" lat="58.9385749981" lon="5.70529444404">
		<tag k="alt_name" v="Store Ullandhaug" />
		<tag k="name" v="Ullandhaug" />
		<tag k="natural" v="hill" />
		<tag k="place" v="locality" />
		<tag k="ssr:stedsnr" v="851051" />
	</node>
	<node id="-394603" lat="58.9456027812" lon="5.6339055486">
		<tag k="name" v="Vesthei" />
		<tag k="place" v="farm" />
		<tag k="ssr:stedsnr" v="851035" />
	</node>
	<node id="-394602" lat="58.9006079103" lon="5.72834188196">
		<tag k="fixme" v="consider place=hamlet" />
		<tag k="name" v="Gausel" />
		<tag k="place" v="farm" />
		<tag k="ssr:stedsnr" v="850962" />
	</node>
	<node id="-394601" lat="58.9856090685" lon="5.75453032918">
		<tag k="name" v="Steinsøy" />
		<tag k="place" v="islet" />
		<tag k="ssr:stedsnr" v="850124" />
	</node>
	<node id="-394600" lat="58.960389377" lon="5.63573360269">
		<tag k="alt_name" v="Sunde, søre;Søndre Sunde" />
		<tag k="fixme" v="consider place=hamlet" />
		<tag k="name" v="Søre Sunde" />
		<tag k="place" v="farm" />
		<tag k="ssr:stedsnr" v="850088" />
	</node>
	<node id="-394599" lat="58.9829404692" lon="5.81388088369">
		<tag k="name" v="Tunsøya" />
		<tag k="place" v="islet" />
		<tag k="ssr:stedsnr" v="850065" />
	</node>
	<node id="-394598" lat="58.9140388935" lon="5.74124722682">
		<tag k="alt_name" v="Boganes" />
		<tag k="name" v="Boganeset" />
		<tag k="natural" v="cape" />
		<tag k="ssr:stedsnr" v="850013" />
	</node>
	<node id="-394594" lat="59.0142694411" lon="5.77071388903">
		<tag k="fixme" v="consider seamark:type=rock or natural=shoal" />
		<tag k="name" v="Grasskjera" />
		<tag k="place" v="islet" />
		<tag k="ssr:stedsnr" v="844238" />
	</node>
	<node id="-394593" lat="59.0125222261" lon="5.77316110743">
		<tag k="name" v="Klubben" />
		<tag k="natural" v="cape" />
		<tag k="ssr:stedsnr" v="844233" />
	</node>
	<node id="-394592" lat="59.0345166626" lon="5.74588611539">
		<tag k="name" v="Vågholmskjeret" />
		<tag k="place" v="islet" />
		<tag k="ssr:stedsnr" v="842408" />
	</node>
	<node id="-394591" lat="58.9930416675" lon="5.74710555698">
		<tag k="bridge" v="yes" />
		<tag k="layer" v="1" />
		<tag k="name" v="Dragaberg" />
		<tag k="ssr:stedsnr" v="836286" />
	</node>
	<node id="-394590" lat="58.9530027798" lon="5.67811389615">
		<tag k="bridge" v="yes" />
		<tag k="layer" v="1" />
		<tag k="name" v="Madla" />
		<tag k="ssr:stedsnr" v="836276" />
	</node>
	<node id="-394589" lat="58.9787055551" lon="5.69617777739">
		<tag k="bridge" v="yes" />
		<tag k="layer" v="1" />
		<tag k="name" v="Rødknappen" />
		<tag k="ssr:stedsnr" v="836245" />
	</node>
	<node id="-394588" lat="58.9092861131" lon="5.72675554847">
		<tag k="name" v="Årholen" />
		<tag k="place" v="locality" />
		<tag k="ssr:stedsnr" v="830915" />
	</node>
	<node id="-394585" lat="58.9795256697" lon="5.72991754252">
		<tag k="fixme" v="consider seamark:type=rock or natural=shoal" />
		<tag k="name" v="Majorskjeret" />
		<tag k="place" v="islet" />
		<tag k="ssr:stedsnr" v="829173" />
	</node>
	<node id="-394584" lat="58.9826055519" lon="5.73376110736">
		<tag k="name" v="Kvitavika" />
		<tag k="natural" v="bay" />
		<tag k="old_name" v="Hvidevigen" />
		<tag k="ssr:stedsnr" v="829160" />
	</node>
	<node id="-394583" lat="58.9880138921" lon="5.6790222152">
		<tag k="name" v="Holeberget" />
		<tag k="natural" v="slope" />
		<tag k="place" v="locality" />
		<tag k="ssr:stedsnr" v="828980" />
	</node>
	<node id="-394582" lat="58.9862277754" lon="5.66124166109">
		<tag k="name" v="Kvivoll" />
		<tag k="natural" v="ridge" />
		<tag k="place" v="locality" />
		<tag k="ssr:stedsnr" v="828936" />
	</node>
	<node id="-394581" lat="58.9653888913" lon="5.6151083411">
		<tag k="name" v="Kjelleberget" />
		<tag k="place" v="farm" />
		<tag k="ssr:stedsnr" v="828906" />
	</node>
	<node id="-394580" lat="58.9713638893" lon="5.73071667012">
		<tag k="name" v="Felthusalmenningen" />
		<tag k="old_name" v="Felthusalmendingen" />
		<tag k="place" v="locality" />
		<tag k="ssr:stedsnr" v="828857" />
	</node>
	<node id="-394579" lat="58.9721388845" lon="5.73574444311">
		<tag k="man_made" v="quay" />
		<tag k="name" v="Østervågkaien" />
		<tag k="old_name" v="Østervaagkaien" />
		<tag k="place" v="locality" />
		<tag k="ssr:stedsnr" v="828795" />
	</node>
	<node id="-394578" lat="58.9263583319" lon="5.75181944383">
		<tag k="name" v="Kuholmen" />
		<tag k="natural" v="cape" />
		<tag k="ssr:stedsnr" v="828691" />
	</node>
	<node id="-394577" lat="58.9647924215" lon="5.69146305765">
		<tag k="name" v="Stokka" />
		<tag k="place" v="suburb" />
		<tag k="ssr:stedsnr" v="828619" />
	</node>
	<node id="-394576" lat="58.9126166665" lon="5.71062778646">
		<tag k="name" v="Jåttå" />
		<tag k="place" v="suburb" />
		<tag k="ssr:stedsnr" v="828617" />
	</node>
	<node id="-394575" lat="58.8899222212" lon="5.74179999829">
		<tag k="name" v="Forus" />
		<tag k="place" v="suburb" />
		<tag k="ssr:stedsnr" v="828616" />
	</node>
	<node id="-394573" lat="58.9716833364" lon="5.73937222862">
		<tag k="name" v="Rosenkildealmenningen" />
		<tag k="old_name" v="Rosenkildealmendingen" />
		<tag k="place" v="locality" />
		<tag k="ssr:stedsnr" v="828071" />
	</node>
	<node id="-394572" lat="58.9710333327" lon="5.73325556063">
		<tag k="name" v="Arneageren" />
		<tag k="place" v="square" />
		<tag k="ssr:stedsnr" v="828051" />
	</node>
	<node id="-394571" lat="58.9436036415" lon="5.70827034664">
		<tag k="fixme" v="consider place=hamlet" />
		<tag k="name" v="Ullandhaug" />
		<tag k="place" v="farm" />
		<tag k="ssr:stedsnr" v="813640" />
	</node>
	<node id="-394570" lat="58.9403888918" lon="5.68431388376">
		<tag k="amenity" v="school" />
		<tag k="name" v="Gosen skole" />
		<tag k="ssr:stedsnr" v="813299" />
	</node>
	<node id="-394569" lat="58.9527267903" lon="5.66471841449">
		<tag k="name" v="Mølldal" />
		<tag k="place" v="quarter" />
		<tag k="ssr:stedsnr" v="813271" />
	</node>
	<node id="-394568" lat="58.9444666631" lon="5.74625555146">
		<tag k="amenity" v="school" />
		<tag k="name" v="Kvaleberg skole" />
		<tag k="ssr:stedsnr" v="813142" />
	</node>
	<node id="-394567" lat="58.9784222232" lon="5.67974443932">
		<tag k="name" v="Eskelandsskogen" />
		<tag k="place" v="locality" />
		<tag k="ssr:stedsnr" v="813127" />
	</node>
	<node id="-394566" lat="58.9724388849" lon="5.68797222549">
		<tag k="fixme" v="consider natural=peak for the most distinct mountains in the district" />
		<tag k="name" v="Klauhammaren" />
		<tag k="natural" v="hill" />
		<tag k="place" v="locality" />
		<tag k="ssr:stedsnr" v="813126" />
	</node>
	<node id="-394565" lat="58.9827638851" lon="5.71440276996">
		<tag k="amenity" v="university" />
		<tag k="name" v="Stavanger offshore tekniske skole" />
		<tag k="old_name" v="Sjømannsskolen" />
		<tag k="ssr:stedsnr" v="813123" />
	</node>
	<node id="-394564" lat="58.9832166656" lon="5.66955000518">
		<tag k="junction" v="yes" />
		<tag k="name" v="Tastatorget" />
		<tag k="place" v="locality" />
		<tag k="ssr:stedsnr" v="813124" />
	</node>
	<node id="-394563" lat="58.9867472216" lon="5.73307499751">
		<tag k="leisure" v="pitch" />
		<tag k="name" v="Buøy stadion" />
		<tag k="ssr:stedsnr" v="813041" />
	</node>
	<node id="-394562" lat="58.9821083371" lon="5.73415277531">
		<tag k="alt_name" v="Knudsaskjæret;Knudaskjæret" />
		<tag k="fixme" v="consider seamark:type=rock or natural=shoal" />
		<tag k="loc_name" v="Knudsaskjeret" />
		<tag k="name" v="Knudaskjeret" />
		<tag k="old_name" v="Knudseskjæret" />
		<tag k="place" v="islet" />
		<tag k="ssr:stedsnr" v="813038" />
	</node>
	<node id="-394561" lat="58.9744888896" lon="5.73305000405">
		<tag k="man_made" v="quay" />
		<tag k="name" v="Ryfylkekaien" />
		<tag k="place" v="locality" />
		<tag k="ssr:stedsnr" v="813037" />
	</node>
	<node id="-394560" lat="58.9732361128" lon="5.73963055214">
		<tag k="name" v="Østre Havn" />
		<tag k="place" v="locality" />
		<tag k="ssr:stedsnr" v="813034" />
	</node>
	<node id="-394559" lat="58.9733972256" lon="5.73591389025">
		<tag k="alt_name" v="Kjerringholmen" />
		<tag k="man_made" v="quay" />
		<tag k="name" v="Kjeringholmen" />
		<tag k="place" v="locality" />
		<tag k="ssr:stedsnr" v="813033" />
	</node>
	<node id="-394558" lat="59.0000333338" lon="5.76630833477">
		<tag k="name" v="Langøysundet" />
		<tag k="natural" v="strait" />
		<tag k="ssr:stedsnr" v="813009" />
	</node>
	<node id="-394557" lat="58.9988194408" lon="5.74808611439">
		<tag k="alt_name" v="Tømmervik" />
		<tag k="name" v="Tømmervika" />
		<tag k="natural" v="bay" />
		<tag k="ssr:stedsnr" v="813007" />
	</node>
	<node id="-394556" lat="58.9635805532" lon="5.780455561">
		<tag k="alt_name" v="Klovningskjærene;Klovneskjeret" />
		<tag k="fixme" v="consider seamark:type=rock or natural=shoal" />
		<tag k="name" v="Klovnaskjer" />
		<tag k="place" v="islet" />
		<tag k="ssr:stedsnr" v="813005" />
	</node>
	<node id="-394553" lat="58.9760074041" lon="5.60921290887">
		<tag k="loc_name" v="Kvernevika" />
		<tag k="name" v="Kvernaviga" />
		<tag k="natural" v="bay" />
		<tag k="ssr:stedsnr" v="789120" />
	</node>
	<node id="-394552" lat="58.9901310446" lon="5.74877084745">
		<tag k="fixme" v="consider place=hamlet" />
		<tag k="name" v="Austbø" />
		<tag k="place" v="farm" />
		<tag k="ssr:stedsnr" v="789115" />
	</node>
	<node id="-394551" lat="58.966705556" lon="5.63295833198">
		<tag k="name" v="Øygard" />
		<tag k="place" v="farm" />
		<tag k="ssr:stedsnr" v="789072" />
	</node>
	<node id="-394550" lat="58.9689644116" lon="5.7294223277">
		<tag k="name" v="Stavanger" />
		<tag k="place" v="town" />
		<tag k="ssr:stedsnr" v="789065" />
	</node>
	<node id="-394548" lat="58.9185250003" lon="5.69640834105">
		<tag k="name" v="Jåttå" />
		<tag k="place" v="farm" />
		<tag k="ssr:stedsnr" v="789007" />
	</node>
	<node id="-394546" lat="58.9837777781" lon="5.82672499146">
		<tag k="name" v="Høgstehaug" />
		<tag k="natural" v="hill" />
		<tag k="place" v="locality" />
		<tag k="ssr:stedsnr" v="784992" />
	</node>
	<node id="-394545" lat="58.986488887" lon="5.75782221945">
		<tag k="name" v="Steinsøyosen" />
		<tag k="natural" v="strait" />
		<tag k="ssr:stedsnr" v="783328" />
	</node>
	<node id="-394544" lat="58.9981777741" lon="5.78140277592">
		<tag k="name" v="Jonevika" />
		<tag k="natural" v="bay" />
		<tag k="ssr:stedsnr" v="783216" />
	</node>
	<node id="-394543" lat="59.039405554" lon="5.76416943647">
		<tag k="alt_name" v="Gisberget" />
		<tag k="name" v="Jisberget" />
		<tag k="natural" v="hill" />
		<tag k="place" v="locality" />
		<tag k="ssr:stedsnr" v="780420" />
	</node>
	<node id="-394542" lat="59.0394333304" lon="5.74446111977">
		<tag k="name" v="Bergaberget" />
		<tag k="natural" v="hill" />
		<tag k="place" v="locality" />
		<tag k="ssr:stedsnr" v="780393" />
	</node>
	<node id="-394541" lat="59.042552439" lon="5.7586270489">
		<tag k="fixme" v="consider place=hamlet" />
		<tag k="name" v="Nordre Lunde" />
		<tag k="place" v="farm" />
		<tag k="ssr:stedsnr" v="780264" />
	</node>
	<node id="-394540" lat="58.9703027788" lon="5.72919999403">
		<tag k="name" v="Helmich Gabrielsens plass" />
		<tag k="place" v="square" />
		<tag k="ssr:stedsnr" v="780157" />
	</node>
	<node id="-394539" lat="58.9425305526" lon="5.72876943835">
		<tag k="bridge" v="yes" />
		<tag k="layer" v="1" />
		<tag k="name" v="Auglendsmyra" />
		<tag k="ssr:stedsnr" v="775291" />
	</node>
	<node id="-394538" lat="58.9653027739" lon="5.72913055858">
		<tag k="bridge" v="yes" />
		<tag k="layer" v="1" />
		<tag k="name" v="Løkkeveien" />
		<tag k="ssr:stedsnr" v="775289" />
	</node>
	<node id="-394537" lat="58.9542722197" lon="5.69211111419">
		<tag k="bridge" v="yes" />
		<tag k="layer" v="1" />
		<tag k="name" v="Rektor Oldensgate" />
		<tag k="ssr:stedsnr" v="775286" />
	</node>
	<node id="-394536" lat="58.9221944427" lon="5.70849167505">
		<tag k="bridge" v="yes" />
		<tag k="layer" v="1" />
		<tag k="name" v="Vodlamyr" />
		<tag k="ssr:stedsnr" v="775273" />
	</node>
	<node id="-394535" lat="58.9279333379" lon="5.73472778184">
		<tag k="bridge" v="yes" />
		<tag k="layer" v="1" />
		<tag k="name" v="Stasjonsveien" />
		<tag k="ssr:stedsnr" v="775265" />
	</node>
	<node id="-394534" lat="58.9226388888" lon="5.72376944949">
		<tag k="junction" v="yes" />
		<tag k="name" v="Hinnakrossen" />
		<tag k="place" v="locality" />
		<tag k="ssr:stedsnr" v="769916" />
	</node>
	<node id="-394533" lat="58.9623416708" lon="5.69256111726">
		<tag k="name" v="Duegården" />
		<tag k="place" v="locality" />
		<tag k="ssr:stedsnr" v="769886" />
	</node>
	<node id="-394532" lat="58.9436916685" lon="5.75387500322">
		<tag k="name" v="Kvalaberget" />
		<tag k="natural" v="cape" />
		<tag k="ssr:stedsnr" v="769696" />
	</node>
	<node id="-394528" lat="58.9568249995" lon="5.76690554836">
		<tag k="name" v="Ramsvikgrunnen" />
		<tag k="natural" v="shoal" />
		<tag k="place" v="locality" />
		<tag k="ssr:stedsnr" v="768224" />
	</node>
	<node id="-394527" lat="58.9806555562" lon="5.73848888799">
		<tag k="name" v="Eilertvika" />
		<tag k="natural" v="bay" />
		<tag k="ssr:stedsnr" v="768167" />
	</node>
	<node id="-394525" lat="58.9452666663" lon="5.64826389328">
		<tag k="name" v="Tvaraberget" />
		<tag k="place" v="locality" />
		<tag k="ssr:stedsnr" v="767940" />
	</node>
	<node id="-394524" lat="58.9665694453" lon="5.64593332942">
		<tag k="name" v="Krossberg" />
		<tag k="natural" v="hill" />
		<tag k="place" v="locality" />
		<tag k="ssr:stedsnr" v="767938" />
	</node>
	<node id="-394523" lat="59.0050249974" lon="5.7275583405">
		<tag k="name" v="Skjeie" />
		<tag k="place" v="locality" />
		<tag k="ssr:stedsnr" v="767908" />
	</node>
	<node id="-394522" lat="58.9701328551" lon="5.72965580174">
		<tag k="name" v="Rosenkildetorget" />
		<tag k="place" v="square" />
		<tag k="ssr:stedsnr" v="767889" />
	</node>
	<node id="-394521" lat="58.9271333318" lon="5.73594722732">
		<tag k="name" v="Hindalsdammen" />
		<tag k="natural" v="water" />
		<tag k="ssr:stedsnr" v="767854" />
	</node>
	<node id="-394520" lat="58.9131583367" lon="5.74590000221">
		<tag k="name" v="Nebbå" />
		<tag k="natural" v="cape" />
		<tag k="ssr:stedsnr" v="767851" />
	</node>
	<node id="-394519" lat="58.972749996" lon="5.73613889514">
		<tag k="man_made" v="quay" />
		<tag k="name" v="Steinkarkaien" />
		<tag k="old_name" v="Sten-kar kaien" />
		<tag k="place" v="locality" />
		<tag k="ssr:stedsnr" v="767814" />
	</node>
	<node id="-394518" lat="58.988133331" lon="5.66475000741">
		<tag k="fixme" v="consider place=hamlet" />
		<tag k="name" v="Høye" />
		<tag k="place" v="village" />
		<tag k="ssr:stedsnr" v="767644" />
	</node>
	<node id="-394517" lat="59.0053277739" lon="5.74456666763">
		<tag k="fixme" v="consider place=hamlet" />
		<tag k="name" v="Lunde" />
		<tag k="place" v="village" />
		<tag k="ssr:stedsnr" v="767565" />
	</node>
	<node id="-394516" lat="58.9549500026" lon="5.63013611634">
		<tag k="name" v="Djupadal" />
		<tag k="natural" v="valley" />
		<tag k="place" v="locality" />
		<tag k="ssr:stedsnr" v="767499" />
	</node>
	<node id="-394515" lat="59.0293194437" lon="5.75153888947">
		<tag k="alt_name" v="Spovholmene" />
		<tag k="name" v="Storholmane" />
		<tag k="place" v="islet" />
		<tag k="ssr:stedsnr" v="767212" />
	</node>
	<node id="-394514" lat="58.9767525425" lon="5.85055847227">
		<tag k="name" v="Djupaflua" />
		<tag k="place" v="locality" />
		<tag k="seamark:type" v="rock" />
		<tag k="ssr:stedsnr" v="753236" />
	</node>
	<node id="-394513" lat="58.998841666" lon="5.66352221708">
		<tag k="name" v="Dusavika" />
		<tag k="old_name" v="Dusaviga" />
		<tag k="place" v="quarter" />
		<tag k="ssr:stedsnr" v="752665" />
	</node>
	<node id="-394512" lat="58.9373611097" lon="5.68121666733">
		<tag k="name" v="Madlalia" />
		<tag k="place" v="quarter" />
		<tag k="ssr:stedsnr" v="752314" />
	</node>
	<node id="-394511" lat="58.9446916712" lon="5.68176389543">
		<tag k="name" v="Madlamark" />
		<tag k="place" v="suburb" />
		<tag k="ssr:stedsnr" v="752313" />
	</node>
	<node id="-394510" lat="58.940727776" lon="5.64639721974">
		<tag k="name" v="Ospeberget" />
		<tag k="natural" v="hill" />
		<tag k="place" v="locality" />
		<tag k="ssr:stedsnr" v="752308" />
	</node>
	<node id="-394509" lat="58.9406083317" lon="5.64219165875">
		<tag k="name" v="Nålanutane" />
		<tag k="natural" v="hill" />
		<tag k="place" v="locality" />
		<tag k="ssr:stedsnr" v="752306" />
	</node>
	<node id="-394508" lat="58.9675333365" lon="5.66644444331">
		<tag k="name" v="Storeholmen" />
		<tag k="place" v="islet" />
		<tag k="ssr:stedsnr" v="752275" />
	</node>
	<node id="-394507" lat="58.9366305516" lon="5.73403055653">
		<tag k="leisure" v="pitch" />
		<tag k="name" v="Hetlandshallen" />
		<tag k="ssr:stedsnr" v="752169" />
	</node>
	<node id="-394506" lat="58.9472111075" lon="5.72705832965">
		<tag k="amenity" v="school" />
		<tag k="name" v="Auglend skole" />
		<tag k="ssr:stedsnr" v="752164" />
	</node>
	<node id="-394504" lat="58.9571055583" lon="5.63902221912">
		<tag k="alt_name" v="Heislandsrodlå;Heislandsrudlå" />
		<tag k="name" v="Heislandsrudla" />
		<tag k="place" v="locality" />
		<tag k="ssr:stedsnr" v="752135" />
	</node>
	<node id="-394503" lat="58.950930558" lon="5.64593055767">
		<tag k="junction" v="yes" />
		<tag k="name" v="Revheimkrossen" />
		<tag k="place" v="locality" />
		<tag k="ssr:stedsnr" v="752133" />
	</node>
	<node id="-394502" lat="58.9838555557" lon="5.67936111203">
		<tag k="amenity" v="school" />
		<tag k="name" v="Tasta skole" />
		<tag k="ssr:stedsnr" v="752130" />
	</node>
	<node id="-394501" lat="58.9871194428" lon="5.75027777235">
		<tag k="name" v="Steinsøyholmen" />
		<tag k="place" v="islet" />
		<tag k="ssr:stedsnr" v="752045" />
	</node>
	<node id="-394500" lat="58.9769916672" lon="5.73326111048">
		<tag k="name" v="Plentingen" />
		<tag k="old_name" v="Plæntingen" />
		<tag k="place" v="islet" />
		<tag k="ssr:stedsnr" v="752037" />
	</node>
	<node id="-394499" lat="58.9650083332" lon="5.73563333109">
		<tag k="cemetery" v="grave" />
		<tag k="name" v="Lagård gravlund" />
		<tag k="place" v="locality" />
		<tag k="ssr:stedsnr" v="752029" />
	</node>
	<node id="-394498" lat="58.9950027813" lon="5.75937222844">
		<tag k="name" v="Skadesundet" />
		<tag k="natural" v="strait" />
		<tag k="ssr:stedsnr" v="752013" />
	</node>
	<node id="-394496" lat="58.9495722187" lon="5.7344666697">
		<tag k="leisure" v="pitch" />
		<tag k="name" v="Jarlebanen" />
		<tag k="ssr:stedsnr" v="752004" />
	</node>
	<node id="-394495" lat="59.0066918086" lon="5.71857160218">
		<tag k="alt_name" v="Skjeisvik" />
		<tag k="name" v="Skeisvika" />
		<tag k="natural" v="bay" />
		<tag k="ssr:stedsnr" v="730810" />
	</node>
	<node id="-394494" lat="59.0442305562" lon="5.77566388102">
		<tag k="name" v="Fuglevika" />
		<tag k="natural" v="bay" />
		<tag k="ssr:stedsnr" v="729807" />
	</node>
	<node id="-394493" lat="59.0408285697" lon="5.74896972519">
		<tag k="fixme" v="consider place=hamlet" />
		<tag k="name" v="Meling" />
		<tag k="place" v="farm" />
		<tag k="ssr:stedsnr" v="729806" />
	</node>
	<node id="-394492" lat="59.0347305553" lon="5.74940554896">
		<tag k="name" v="Vågholmen" />
		<tag k="place" v="islet" />
		<tag k="ssr:stedsnr" v="729777" />
	</node>
	<node id="-394491" lat="58.9859333329" lon="5.77039167415">
		<tag k="alt_name" v="Kupholmen;Kobbholmen" />
		<tag k="name" v="Kuppholmen" />
		<tag k="place" v="islet" />
		<tag k="ssr:stedsnr" v="729124" />
	</node>
	<node id="-394490" lat="58.9885722214" lon="5.66055278395">
		<tag k="name" v="Finnastad" />
		<tag k="place" v="farm" />
		<tag k="ssr:stedsnr" v="729121" />
	</node>
	<node id="-394489" lat="58.9937333291" lon="5.67167222454">
		<tag k="alt_name" v="Tasta, øvre" />
		<tag k="name" v="Øvre Tasta" />
		<tag k="place" v="farm" />
		<tag k="ssr:stedsnr" v="729113" />
	</node>
	<node id="-394488" lat="58.9973169601" lon="5.75708311358">
		<tag k="name" v="Bjørnøy" />
		<tag k="place" v="islet" />
		<tag k="ssr:stedsnr" v="729112" />
	</node>
	<node id="-394487" lat="58.9563805572" lon="5.65098889506">
		<tag k="name" v="Alvatun" />
		<tag k="place" v="farm" />
		<tag k="ssr:stedsnr" v="729092" />
	</node>
	<node id="-394486" lat="58.9661722226" lon="5.63334167007">
		<tag k="name" v="Pigelsheia" />
		<tag k="place" v="farm" />
		<tag k="ssr:stedsnr" v="729076" />
	</node>
	<node id="-394485" lat="58.9446174201" lon="5.7446658266">
		<tag k="name" v="Hillevåg" />
		<tag k="place" v="suburb" />
		<tag k="ssr:stedsnr" v="729054" />
	</node>
	<node id="-394484" lat="58.950316665" lon="5.66597500113">
		<tag k="name" v="Madlamoen" />
		<tag k="place" v="locality" />
		<tag k="ssr:stedsnr" v="729049" />
	</node>
	<node id="-394483" lat="58.910016869" lon="5.70969418729">
		<tag k="fixme" v="consider place=hamlet" />
		<tag k="name" v="Jåttå" />
		<tag k="place" v="farm" />
		<tag k="ssr:stedsnr" v="729027" />
	</node>
	<node id="-394482" lat="58.9277972234" lon="5.71179999289">
		<tag k="name" v="Hinnamarka" />
		<tag k="place" v="locality" />
		<tag k="ssr:stedsnr" v="728047" />
	</node>
	<node id="-394481" lat="58.9900472179" lon="5.75165277477">
		<tag k="name" v="Klampen" />
		<tag k="natural" v="cape" />
		<tag k="ssr:stedsnr" v="722348" />
	</node>
	<node id="-394480" lat="59.0058277738" lon="5.73582499452">
		<tag k="name" v="Skeisanden" />
		<tag k="natural" v="beach" />
		<tag k="place" v="locality" />
		<tag k="ssr:stedsnr" v="722343" />
	</node>
	<node id="-394479" lat="59.0446416628" lon="5.74220556419">
		<tag k="alt_name" v="Skårene" />
		<tag k="name" v="Skårane" />
		<tag k="place" v="locality" />
		<tag k="ssr:stedsnr" v="719437" />
	</node>
	<node id="-394478" lat="58.9854611146" lon="5.73296388443">
		<tag k="bridge" v="yes" />
		<tag k="layer" v="1" />
		<tag k="name" v="Buøy" />
		<tag k="ssr:stedsnr" v="715361" />
	</node>
	<node id="-394477" lat="58.9482388874" lon="5.72236389145">
		<tag k="bridge" v="yes" />
		<tag k="layer" v="1" />
		<tag k="name" v="Oscar Wistingsgate" />
		<tag k="ssr:stedsnr" v="715345" />
	</node>
	<node id="-394476" lat="59.0017138925" lon="5.72689444174">
		<tag k="bridge" v="yes" />
		<tag k="layer" v="1" />
		<tag k="name" v="Skeie" />
		<tag k="ssr:stedsnr" v="715322" />
	</node>
	<node id="-394475" lat="59.0430749967" lon="5.7693361131">
		<tag k="name" v="Hellesberget" />
		<tag k="natural" v="hill" />
		<tag k="place" v="locality" />
		<tag k="ssr:stedsnr" v="709323" />
	</node>
	<node id="-394474" lat="58.9894444404" lon="5.7416611077">
		<tag k="fixme" v="verify maritime location" />
		<tag k="mooring" v="yes" />
		<tag k="name" v="Prestastø" />
		<tag k="place" v="locality" />
		<tag k="ssr:stedsnr" v="708928" />
	</node>
	<node id="-394473" lat="58.9455194417" lon="5.73612222786">
		<tag k="fixme" v="consider natural=peak for the most distinct mountains in the district" />
		<tag k="name" v="Haugås" />
		<tag k="natural" v="hill" />
		<tag k="place" v="locality" />
		<tag k="ssr:stedsnr" v="708901" />
	</node>
	<node id="-394472" lat="58.9730138851" lon="5.61380277512">
		<tag k="name" v="Steinane" />
		<tag k="place" v="farm" />
		<tag k="ssr:stedsnr" v="708896" />
	</node>
	<node id="-394471" lat="58.9600027773" lon="5.69739445209">
		<tag k="name" v="Lassatjørna" />
		<tag k="natural" v="wetland" />
		<tag k="ssr:stedsnr" v="708883" />
	</node>
	<node id="-394470" lat="58.9685472263" lon="5.72341388939">
		<tag k="name" v="Johan Gjøsteins plass" />
		<tag k="place" v="square" />
		<tag k="ssr:stedsnr" v="708786" />
	</node>
	<node id="-394467" lat="58.9633444401" lon="5.74835555632">
		<tag k="name" v="Storhaug" />
		<tag k="natural" v="hill" />
		<tag k="place" v="locality" />
		<tag k="ssr:stedsnr" v="707392" />
	</node>
	<node id="-394466" lat="58.9826083328" lon="5.73920832737">
		<tag k="man_made" v="quay" />
		<tag k="name" v="Ballaststraen" />
		<tag k="place" v="locality" />
		<tag k="ssr:stedsnr" v="707191" />
	</node>
	<node id="-394465" lat="58.9906027758" lon="5.70038610891">
		<tag k="name" v="Tastarevet" />
		<tag k="place" v="locality" />
		<tag k="seamark:type" v="rock" />
		<tag k="ssr:stedsnr" v="707099" />
	</node>
	<node id="-394464" lat="58.8906972252" lon="5.73405278005">
		<tag k="name" v="Forusmyra" />
		<tag k="natural" v="wetland" />
		<tag k="ssr:stedsnr" v="706977" />
	</node>
	<node id="-394463" lat="58.9700861106" lon="5.65368610807">
		<tag k="name" v="Sunde" />
		<tag k="place" v="locality" />
		<tag k="ssr:stedsnr" v="706949" />
	</node>
	<node id="-394462" lat="58.9483083374" lon="5.63565555408">
		<tag k="name" v="Fluberget" />
		<tag k="natural" v="hill" />
		<tag k="place" v="locality" />
		<tag k="ssr:stedsnr" v="706944" />
	</node>
	<node id="-394461" lat="58.9702861119" lon="5.73139444944">
		<tag k="name" v="Torget" />
		<tag k="place" v="square" />
		<tag k="ssr:stedsnr" v="706882" />
	</node>
	<node id="-394460" lat="58.9157055598" lon="5.73999722769">
		<tag k="name" v="Laberget" />
		<tag k="natural" v="cape" />
		<tag k="ssr:stedsnr" v="706831" />
	</node>
	<node id="-394459" lat="58.9130027796" lon="5.71026110636">
		<tag k="name" v="Bastaberget" />
		<tag k="place" v="farm" />
		<tag k="ssr:stedsnr" v="706755" />
	</node>
	<node id="-394458" lat="58.9606527816" lon="5.63023889398">
		<tag k="fixme" v="consider place=suburb, village or hamlet" />
		<tag k="loc_name" v="Sør Sunde" />
		<tag k="name" v="Sør-Sunde" />
		<tag k="place" v="quarter" />
		<tag k="ssr:stedsnr" v="706636" />
	</node>
	<node id="-394457" lat="58.9510395946" lon="5.64592725056">
		<tag k="fixme" v="consider place=suburb, village or hamlet" />
		<tag k="name" v="Revheim" />
		<tag k="place" v="quarter" />
		<tag k="ssr:stedsnr" v="706635" />
	</node>
	<node id="-394456" lat="58.9900638876" lon="5.68923889638">
		<tag k="alt_name" v="Tasta Øvre" />
		<tag k="fixme" v="consider place=suburb, village or hamlet" />
		<tag k="name" v="Øvre Tasta" />
		<tag k="place" v="quarter" />
		<tag k="ssr:stedsnr" v="706630" />
	</node>
	<node id="-394455" lat="58.9654888889" lon="5.71305278036">
		<tag k="name" v="Reidar Kvammens plass" />
		<tag k="place" v="square" />
		<tag k="ssr:stedsnr" v="693939" />
	</node>
	<node id="-394454" lat="58.9065111125" lon="5.70586388578">
		<tag k="name" v="Storeholen" />
		<tag k="place" v="farm" />
		<tag k="ssr:stedsnr" v="692783" />
	</node>
	<node id="-394453" lat="58.9852777806" lon="5.84215278343">
		<tag k="name" v="Kalvøyskolten" />
		<tag k="place" v="locality" />
		<tag k="seamark:type" v="rock" />
		<tag k="ssr:stedsnr" v="692246" />
	</node>
	<node id="-394452" lat="58.9739638866" lon="5.60665833622">
		<tag k="alt_name" v="Ørneberget" />
		<tag k="name" v="Ørnaberget" />
		<tag k="natural" v="hill" />
		<tag k="place" v="locality" />
		<tag k="ssr:stedsnr" v="691393" />
	</node>
	<node id="-394451" lat="58.9529083348" lon="5.68226667362">
		<tag k="junction" v="yes" />
		<tag k="name" v="Madlakrossen" />
		<tag k="place" v="locality" />
		<tag k="ssr:stedsnr" v="691364" />
	</node>
	<node id="-394450" lat="58.9567722224" lon="5.70020832718">
		<tag k="junction" v="yes" />
		<tag k="name" v="Tjensvollkrossen" />
		<tag k="place" v="locality" />
		<tag k="ssr:stedsnr" v="691353" />
	</node>
	<node id="-394449" lat="58.9332000013" lon="5.71928333396">
		<tag k="name" v="Snårehaugen" />
		<tag k="natural" v="hill" />
		<tag k="place" v="locality" />
		<tag k="ssr:stedsnr" v="691226" />
	</node>
	<node id="-394448" lat="58.9148027811" lon="5.6885972196">
		<tag k="alt_name" v="Valabergsmyra" />
		<tag k="name" v="Valbergmyra" />
		<tag k="natural" v="wetland" />
		<tag k="ssr:stedsnr" v="691210" />
	</node>
	<node id="-394447" lat="58.9804722252" lon="5.7029666717">
		<tag k="amenity" v="school" />
		<tag k="name" v="Byfjord skole" />
		<tag k="ssr:stedsnr" v="691208" />
	</node>
	<node id="-394446" lat="58.979305554" lon="5.70055832506">
		<tag k="amenity" v="school" />
		<tag k="name" v="Tastaveden skole" />
		<tag k="ssr:stedsnr" v="691204" />
	</node>
	<node id="-394445" lat="58.9700999991" lon="5.70266943873">
		<tag k="leisure" v="park" />
		<tag k="name" v="Eiganes kolonihager" />
		<tag k="ssr:stedsnr" v="691205" />
	</node>
	<node id="-394444" lat="58.9638027756" lon="5.64978888113">
		<tag k="alt_name" v="Sortemyr" />
		<tag k="name" v="Svortemyr" />
		<tag k="natural" v="wetland" />
		<tag k="ssr:stedsnr" v="691201" />
	</node>
	<node id="-394443" lat="58.9707055553" lon="5.68042777991">
		<tag k="name" v="Møllebukta" />
		<tag k="natural" v="bay" />
		<tag k="ssr:stedsnr" v="691199" />
	</node>
	<node id="-394442" lat="58.9722972248" lon="5.75196667439">
		<tag k="alt_name" v="Svankevigå" />
		<tag k="name" v="Svankevika" />
		<tag k="natural" v="bay" />
		<tag k="old_name" v="Svankevigen" />
		<tag k="ssr:stedsnr" v="691082" />
	</node>
	<node id="-394441" lat="58.9805081949" lon="5.74530646647">
		<tag k="name" v="Engøysundet" />
		<tag k="natural" v="strait" />
		<tag k="old_name" v="Engøsundet" />
		<tag k="ssr:stedsnr" v="691060" />
	</node>
	<node id="-394440" lat="58.971447226" lon="5.71869999594">
		<tag k="leisure" v="park" />
		<tag k="name" v="Rudlå" />
		<tag k="ssr:stedsnr" v="691047" />
	</node>
	<node id="-394439" lat="58.9723444412" lon="5.73781110271">
		<tag k="alt_name" v="Jorenholmskaien" />
		<tag k="man_made" v="quay" />
		<tag k="name" v="Jorenholmen" />
		<tag k="place" v="locality" />
		<tag k="ssr:stedsnr" v="691040" />
	</node>
	<node id="-394438" lat="58.9619741424" lon="5.74277736063">
		<tag k="fixme" v="consider place=suburb, village or hamlet" />
		<tag k="name" v="Paradis" />
		<tag k="place" v="quarter" />
		<tag k="ssr:stedsnr" v="691034" />
	</node>
	<node id="-394437" lat="58.9681555587" lon="5.7411166578">
		<tag k="alt_name" v="Hetland kirke" />
		<tag k="amenity" v="place_of_worship" />
		<tag k="denomination" v="lutheran" />
		<tag k="name" v="Frue kirke" />
		<tag k="religion" v="christian" />
		<tag k="ssr:stedsnr" v="691031" />
	</node>
	<node id="-394436" lat="58.9967777742" lon="5.73352499178">
		<tag k="amenity" v="school" />
		<tag k="name" v="Hundvåg skole" />
		<tag k="ssr:stedsnr" v="691019" />
	</node>
	<node id="-394435" lat="58.9962388878" lon="5.78018889206">
		<tag k="fixme" v="consider seamark:type=rock or natural=shoal" />
		<tag k="name" v="Vassøyskjeret" />
		<tag k="place" v="islet" />
		<tag k="ssr:stedsnr" v="691018" />
	</node>
	<node id="-394434" lat="58.9933083327" lon="5.75389166244">
		<tag k="alt_name" v="Kunes" />
		<tag k="name" v="Kuneset" />
		<tag k="natural" v="cape" />
		<tag k="ssr:stedsnr" v="691015" />
	</node>
	<node id="-394433" lat="59.0162361153" lon="5.76513055117">
		<tag k="alt_name" v="Sandøyvågen, søre" />
		<tag k="name" v="Søre Sandøyvågen" />
		<tag k="natural" v="bay" />
		<tag k="ssr:stedsnr" v="669768" />
	</node>
	<node id="-394432" lat="59.027905551" lon="5.76681943634">
		<tag k="fixme" v="consider seamark:type=rock or natural=shoal" />
		<tag k="name" v="Spolen" />
		<tag k="place" v="islet" />
		<tag k="ssr:stedsnr" v="669757" />
	</node>
	<node id="-394431" lat="59.0384750009" lon="5.72978055453">
		<tag k="name" v="Skorphiller" />
		<tag k="natural" v="hill" />
		<tag k="place" v="locality" />
		<tag k="ssr:stedsnr" v="668814" />
	</node>
	<node id="-394430" lat="58.9873963869" lon="5.6640215304">
		<tag k="fixme" v="consider place=hamlet" />
		<tag k="name" v="Høye" />
		<tag k="place" v="farm" />
		<tag k="ssr:stedsnr" v="668103" />
	</node>
	<node id="-394429" lat="58.9640751324" lon="5.69039326765">
		<tag k="alt_name" v="Stokka" />
		<tag k="amenity" v="place_of_worship" />
		<tag k="denomination" v="lutheran" />
		<tag k="name" v="Stokka kirke" />
		<tag k="religion" v="christian" />
		<tag k="ssr:stedsnr" v="668073" />
	</node>
	<node id="-394427" lat="58.9409833344" lon="5.63533611324">
		<tag k="name" v="Madlastø" />
		<tag k="place" v="farm" />
		<tag k="ssr:stedsnr" v="668053" />
	</node>
	<node id="-394426" lat="58.9442062422" lon="5.74105515442">
		<tag k="alt_name" v="Hillevåg" />
		<tag k="amenity" v="place_of_worship" />
		<tag k="denomination" v="lutheran" />
		<tag k="name" v="Hillevåg kirke" />
		<tag k="religion" v="christian" />
		<tag k="ssr:stedsnr" v="668048" />
	</node>
	<node id="-394425" lat="58.9535861087" lon="5.7456555513">
		<tag k="alt_name" v="Hillevågsvika;Hillevågen" />
		<tag k="name" v="Hillevågsbukta" />
		<tag k="natural" v="bay" />
		<tag k="ssr:stedsnr" v="668044" />
	</node>
	<node id="-394424" lat="58.9240317044" lon="5.72853871548">
		<tag k="alt_name" v="Hinna;Hinna Kirke" />
		<tag k="amenity" v="place_of_worship" />
		<tag k="denomination" v="lutheran" />
		<tag k="name" v="Hinna kirke" />
		<tag k="religion" v="christian" />
		<tag k="ssr:stedsnr" v="668007" />
	</node>
	<node id="-394423" lat="58.9892194404" lon="5.74838610281">
		<tag k="name" v="Dragabergvika" />
		<tag k="natural" v="bay" />
		<tag k="ssr:stedsnr" v="661324" />
	</node>
	<node id="-394422" lat="58.9483749964" lon="5.74311944492">
		<tag k="bridge" v="yes" />
		<tag k="layer" v="1" />
		<tag k="name" v="Banevegen" />
		<tag k="ssr:stedsnr" v="654329" />
	</node>
	<node id="-394421" lat="58.9517194466" lon="5.71587499792">
		<tag k="bridge" v="yes" />
		<tag k="layer" v="1" />
		<tag k="name" v="Mosvannet" />
		<tag k="ssr:stedsnr" v="654327" />
	</node>
	<node id="-394420" lat="58.9621861088" lon="5.7235361134">
		<tag k="bridge" v="yes" />
		<tag k="layer" v="1" />
		<tag k="name" v="Hannadahlsgate" />
		<tag k="ssr:stedsnr" v="654321" />
	</node>
	<node id="-394419" lat="58.98246389" lon="5.67933056404">
		<tag k="bridge" v="yes" />
		<tag k="layer" v="1" />
		<tag k="name" v="Randabergveien" />
		<tag k="ssr:stedsnr" v="654322" />
	</node>
	<node id="-394418" lat="58.9221472177" lon="5.70670555029">
		<tag k="bridge" v="yes" />
		<tag k="layer" v="1" />
		<tag k="name" v="Hinna" />
		<tag k="ssr:stedsnr" v="654319" />
	</node>
	<node id="-394417" lat="58.9334250011" lon="5.71268611401">
		<tag k="layer" v="-1" />
		<tag k="name" v="Auglendshøyden" />
		<tag k="ssr:stedsnr" v="651092" />
		<tag k="tunnel" v="yes" />
	</node>
	<node id="-394416" lat="58.97243333" lon="5.75533055415">
		<tag k="man_made" v="quay" />
		<tag k="name" v="Nordkronen" />
		<tag k="place" v="locality" />
		<tag k="ssr:stedsnr" v="648867" />
	</node>
	<node id="-394415" lat="58.9914749984" lon="5.72978333545">
		<tag k="alt_name" v="Fjellberget" />
		<tag k="name" v="Fjellberg" />
		<tag k="natural" v="hill" />
		<tag k="place" v="locality" />
		<tag k="ssr:stedsnr" v="647940" />
	</node>
	<node id="-394414" lat="58.9320138885" lon="5.71848333214">
		<tag k="name" v="Bornhus" />
		<tag k="natural" v="hill" />
		<tag k="place" v="locality" />
		<tag k="ssr:stedsnr" v="647909" />
	</node>
	<node id="-394413" lat="58.9730527739" lon="5.60254444679">
		<tag k="loc_name" v="Slettesvika" />
		<tag k="name" v="Slettesviga" />
		<tag k="natural" v="bay" />
		<tag k="ssr:stedsnr" v="647899" />
	</node>
	<node id="-394412" lat="58.9616777759" lon="5.73081666847">
		<tag k="name" v="Rektor Steens plass" />
		<tag k="old_name" v="Rektor Steens plads" />
		<tag k="place" v="square" />
		<tag k="ssr:stedsnr" v="647823" />
	</node>
	<node id="-394409" lat="59.0429361121" lon="5.77639444703">
		<tag k="name" v="Lyresteinen" />
		<tag k="natural" v="cape" />
		<tag k="ssr:stedsnr" v="647727" />
	</node>
	<node id="-394408" lat="58.9735666636" lon="5.7346916586">
		<tag k="name" v="Norsk Oljemuseum" />
		<tag k="ssr:stedsnr" v="647468" />
		<tag k="tourism" v="museum" />
	</node>
	<node id="-394405" lat="58.9920833353" lon="5.71837222721">
		<tag k="name" v="Kuvika" />
		<tag k="natural" v="bay" />
		<tag k="ssr:stedsnr" v="646210" />
	</node>
	<node id="-394404" lat="58.9582499987" lon="5.76534444071">
		<tag k="name" v="Svorten" />
		<tag k="natural" v="cape" />
		<tag k="ssr:stedsnr" v="646211" />
	</node>
	<node id="-394403" lat="58.9824472265" lon="5.74852221835">
		<tag k="name" v="Engøysnaget" />
		<tag k="natural" v="cape" />
		<tag k="ssr:stedsnr" v="646178" />
	</node>
	<node id="-394402" lat="58.9734277789" lon="5.70082778448">
		<tag k="name" v="Byhaugen" />
		<tag k="natural" v="hill" />
		<tag k="place" v="locality" />
		<tag k="ssr:stedsnr" v="645966" />
	</node>
	<node id="-394401" lat="58.9705833318" lon="5.68275555571">
		<tag k="name" v="Mølla" />
		<tag k="natural" v="hill" />
		<tag k="place" v="locality" />
		<tag k="ssr:stedsnr" v="645957" />
	</node>
	<node id="-394400" lat="58.9426416676" lon="5.64759721606">
		<tag k="name" v="Sauamyra" />
		<tag k="natural" v="wetland" />
		<tag k="ssr:stedsnr" v="645944" />
	</node>
	<node id="-394399" lat="58.94824722" lon="5.62294444614">
		<tag k="name" v="Klubben" />
		<tag k="natural" v="hill" />
		<tag k="place" v="locality" />
		<tag k="ssr:stedsnr" v="645936" />
	</node>
	<node id="-394398" lat="58.9603583377" lon="5.60942221742">
		<tag k="name" v="Buseneset" />
		<tag k="natural" v="cape" />
		<tag k="ssr:stedsnr" v="645921" />
	</node>
	<node id="-394397" lat="58.9866857723" lon="5.69414384646">
		<tag k="name" v="Kumyra" />
		<tag k="natural" v="wetland" />
		<tag k="ssr:stedsnr" v="645879" />
	</node>
	<node id="-394396" lat="58.9032805595" lon="5.72987776875">
		<tag k="name" v="Gausel" />
		<tag k="place" v="suburb" />
		<tag k="ssr:stedsnr" v="645623" />
	</node>
	<node id="-394395" lat="58.9862956158" lon="5.75260288934">
		<tag k="fixme" v="consider place=hamlet" />
		<tag k="name" v="Steinsøy" />
		<tag k="place" v="farm" />
		<tag k="ssr:stedsnr" v="645554" />
	</node>
	<node id="-394391" lat="58.9783444468" lon="5.74628055937">
		<tag k="alt_name" v="Kvidavigå" />
		<tag k="name" v="Kvitavika" />
		<tag k="natural" v="bay" />
		<tag k="old_name" v="Hvidevigen" />
		<tag k="ssr:stedsnr" v="645203" />
	</node>
	<node id="-394390" lat="58.9693888874" lon="5.73499443682">
		<tag k="name" v="Sigbjørn Obstfelders Plass" />
		<tag k="place" v="square" />
		<tag k="ssr:stedsnr" v="645057" />
	</node>
	<node id="-394388" lat="58.913599996" lon="5.68451388214">
		<tag k="name" v="Svartholen" />
		<tag k="place" v="farm" />
		<tag k="ssr:stedsnr" v="631794" />
	</node>
	<node id="-394387" lat="58.9114888901" lon="5.68820000844">
		<tag k="name" v="Svartholsmyra" />
		<tag k="natural" v="wetland" />
		<tag k="ssr:stedsnr" v="631792" />
	</node>
	<node id="-394386" lat="58.9642833347" lon="5.70693888898">
		<tag k="amenity" v="school" />
		<tag k="name" v="Eiganes skole" />
		<tag k="ssr:stedsnr" v="630303" />
	</node>
	<node id="-394385" lat="58.9535694465" lon="5.70773055874">
		<tag k="cemetery" v="grave" />
		<tag k="name" v="Tjensvoll gravlund" />
		<tag k="place" v="locality" />
		<tag k="ssr:stedsnr" v="630293" />
	</node>
	<node id="-394384" lat="58.894213889" lon="5.73121388506">
		<tag k="name" v="Ulsberget" />
		<tag k="natural" v="hill" />
		<tag k="place" v="locality" />
		<tag k="ssr:stedsnr" v="630220" />
	</node>
	<node id="-394383" lat="58.9312500008" lon="5.73971943915">
		<tag k="name" v="Harholen" />
		<tag k="natural" v="hill" />
		<tag k="place" v="locality" />
		<tag k="ssr:stedsnr" v="630192" />
	</node>
	<node id="-394382" lat="58.9555722184" lon="5.74243889446">
		<tag k="name" v="Paradis holdeplass" />
		<tag k="railway" v="halt" />
		<tag k="ssr:stedsnr" v="630191" />
		<tag k="train" v="yes" />
	</node>
	<node id="-394381" lat="58.9088138915" lon="5.74679166529">
		<tag k="fixme" v="consider seamark:type=rock or natural=shoal" />
		<tag k="name" v="Grønskjer" />
		<tag k="place" v="islet" />
		<tag k="ssr:stedsnr" v="630187" />
	</node>
	<node id="-394380" lat="58.9804277771" lon="5.71128333329">
		<tag k="leisure" v="pitch" />
		<tag k="name" v="Stemmen idrettsplass" />
		<tag k="ssr:stedsnr" v="630177" />
	</node>
	<node id="-394379" lat="58.9858499996" lon="5.6794888919">
		<tag k="name" v="Varden" />
		<tag k="natural" v="hill" />
		<tag k="place" v="locality" />
		<tag k="ssr:stedsnr" v="630169" />
	</node>
	<node id="-394378" lat="58.9969395262" lon="5.67438687372">
		<tag k="alt_name" v="litle Dusavika;Litla Dusavik" />
		<tag k="name" v="Litla Dusavika" />
		<tag k="natural" v="bay" />
		<tag k="ssr:stedsnr" v="630166" />
	</node>
	<node id="-394377" lat="58.9621444401" lon="5.61588888989">
		<tag k="junction" v="yes" />
		<tag k="name" v="Sundekrossen" />
		<tag k="place" v="locality" />
		<tag k="ssr:stedsnr" v="630163" />
	</node>
	<node id="-394376" lat="59.0039888848" lon="5.71473055645">
		<tag k="name" v="Breivika" />
		<tag k="natural" v="bay" />
		<tag k="ssr:stedsnr" v="630159" />
	</node>
	<node id="-394375" lat="58.9727398916" lon="5.74890509248">
		<tag k="loc_name" v="Straumsteinen" />
		<tag k="name" v="Strømsteinen" />
		<tag k="natural" v="cape" />
		<tag k="ssr:stedsnr" v="630067" />
	</node>
	<node id="-394374" lat="58.9901638913" lon="5.72213611629">
		<tag k="name" v="Tømmerodden" />
		<tag k="natural" v="cape" />
		<tag k="ssr:stedsnr" v="630048" />
	</node>
	<node id="-394373" lat="58.9833055533" lon="5.7391861146">
		<tag k="name" v="Pyntesundet" />
		<tag k="natural" v="strait" />
		<tag k="ssr:stedsnr" v="630043" />
	</node>
	<node id="-394372" lat="58.9806249172" lon="5.73479426049">
		<tag k="name" v="Pynteneset" />
		<tag k="natural" v="cape" />
		<tag k="ssr:stedsnr" v="630042" />
	</node>
	<node id="-394371" lat="58.9689027817" lon="5.76130555316">
		<tag k="name" v="Siriskjeret" />
		<tag k="natural" v="cape" />
		<tag k="old_name" v="Siriskjæret" />
		<tag k="ssr:stedsnr" v="630027" />
	</node>
	<node id="-394370" lat="58.9605555573" lon="5.75886111569">
		<tag k="leisure" v="park" />
		<tag k="name" v="Ramsvik kolonihager" />
		<tag k="ssr:stedsnr" v="630023" />
	</node>
	<node id="-394369" lat="58.9497305516" lon="5.72254722511">
		<tag k="amenity" v="school" />
		<tag k="name" v="Ullandhaug skole" />
		<tag k="ssr:stedsnr" v="630001" />
	</node>
	<node id="-394368" lat="58.9655111134" lon="5.73236945202">
		<tag k="name" v="Leiv Isaksens plass" />
		<tag k="place" v="square" />
		<tag k="ssr:stedsnr" v="626491" />
	</node>
	<node id="-394367" lat="59.0354138878" lon="5.73933055354">
		<tag k="alt_name" v="Sildaskjæret" />
		<tag k="fixme" v="consider seamark:type=rock or natural=shoal" />
		<tag k="name" v="Sildaskjeret" />
		<tag k="place" v="islet" />
		<tag k="ssr:stedsnr" v="608831" />
	</node>
	<node id="-394366" lat="59.006591664" lon="5.7525805583">
		<tag k="name" v="Alaska" />
		<tag k="place" v="isolated_dwelling" />
		<tag k="ssr:stedsnr" v="608818" />
	</node>
	<node id="-394365" lat="59.0175055564" lon="5.78038334146">
		<tag k="name" v="Eigerøya" />
		<tag k="place" v="island" />
		<tag k="ssr:stedsnr" v="608803" />
	</node>
	<node id="-394364" lat="59.0221250001" lon="5.7818499966">
		<tag k="name" v="Odda" />
		<tag k="place" v="islet" />
		<tag k="ssr:stedsnr" v="608799" />
	</node>
	<node id="-394363" lat="59.0274194484" lon="5.76071110896">
		<tag k="name" v="Kuppholmen" />
		<tag k="place" v="islet" />
		<tag k="ssr:stedsnr" v="608796" />
	</node>
	<node id="-394362" lat="58.9097638926" lon="5.73857499513">
		<tag k="alt_name" v="Boganesviken" />
		<tag k="name" v="Boganesvika" />
		<tag k="natural" v="bay" />
		<tag k="ssr:stedsnr" v="607957" />
	</node>
	<node id="-394361" lat="58.9917263204" lon="5.72339987542">
		<tag k="alt_name" v="Bangavåg" />
		<tag k="name" v="Bangavågen" />
		<tag k="natural" v="bay" />
		<tag k="old_name" v="Bangarvaagen" />
		<tag k="ssr:stedsnr" v="607115" />
	</node>
	<node id="-394360" lat="58.9928756467" lon="5.76352742739">
		<tag k="name" v="Roaldsøy" />
		<tag k="place" v="island" />
		<tag k="ssr:stedsnr" v="607113" />
	</node>
	<node id="-394359" lat="58.9848329932" lon="5.682400868">
		<tag k="alt_name" v="Tasta, øvre" />
		<tag k="fixme" v="consider place=hamlet" />
		<tag k="name" v="Øvre Tasta" />
		<tag k="place" v="farm" />
		<tag k="ssr:stedsnr" v="607107" />
	</node>
	<node id="-394358" lat="58.9932629905" lon="5.72667406708">
		<tag k="alt_name" v="Hundvåg" />
		<tag k="amenity" v="place_of_worship" />
		<tag k="denomination" v="lutheran" />
		<tag k="name" v="Hundvåg kirke" />
		<tag k="religion" v="christian" />
		<tag k="ssr:stedsnr" v="607101" />
	</node>
	<node id="-394357" lat="58.9829117154" lon="5.74398994943">
		<tag k="name" v="Engøy" />
		<tag k="old_name" v="Engøen" />
		<tag k="place" v="islet" />
		<tag k="ssr:stedsnr" v="607067" />
	</node>
	<node id="-394356" lat="58.9445801555" lon="5.71778728523">
		<tag k="name" v="Ullandhaug" />
		<tag k="place" v="suburb" />
		<tag k="ssr:stedsnr" v="607056" />
	</node>
	<node id="-394355" lat="58.9509727886" lon="5.72841169322">
		<tag k="alt_name" v="Bekkefaret" />
		<tag k="amenity" v="place_of_worship" />
		<tag k="denomination" v="lutheran" />
		<tag k="name" v="Bekkefaret kirke" />
		<tag k="religion" v="christian" />
		<tag k="ssr:stedsnr" v="607052" />
	</node>
	<node id="-394354" lat="58.9110166636" lon="5.72472500154">
		<tag k="name" v="Boganes" />
		<tag k="place" v="farm" />
		<tag k="ssr:stedsnr" v="607034" />
	</node>
	<node id="-394352" lat="58.9941444404" lon="5.78367777533">
		<tag k="name" v="Makkavågen" />
		<tag k="natural" v="bay" />
		<tag k="ssr:stedsnr" v="601223" />
	</node>
	<node id="-394351" lat="59.0465361083" lon="5.72819445273">
		<tag k="fixme" v="verify maritime location" />
		<tag k="mooring" v="yes" />
		<tag k="name" v="Jonestø" />
		<tag k="place" v="locality" />
		<tag k="ssr:stedsnr" v="598449" />
	</node>
	<node id="-394350" lat="58.9540888868" lon="5.68696667517">
		<tag k="bridge" v="yes" />
		<tag k="layer" v="1" />
		<tag k="name" v="Morgedalsvegen" />
		<tag k="ssr:stedsnr" v="593285" />
	</node>
	<node id="-394349" lat="58.9672916627" lon="5.69093611295">
		<tag k="bridge" v="yes" />
		<tag k="layer" v="1" />
		<tag k="name" v="Lassa" />
		<tag k="ssr:stedsnr" v="593286" />
	</node>
	<node id="-394348" lat="58.9508884574" lon="5.6459152708">
		<tag k="bridge" v="yes" />
		<tag k="layer" v="1" />
		<tag k="name" v="Revheim" />
		<tag k="ssr:stedsnr" v="593268" />
	</node>
	<node id="-394345" lat="59.0260805598" lon="5.77408610421">
		<tag k="name" v="Klovningen" />
		<tag k="place" v="islet" />
		<tag k="ssr:stedsnr" v="587755" />
	</node>
	<node id="-394344" lat="58.9441722234" lon="5.63280555619">
		<tag k="name" v="Klagsteinen" />
		<tag k="natural" v="stone" />
		<tag k="ssr:stedsnr" v="587690" />
	</node>
	<node id="-394343" lat="58.9720361068" lon="5.73962222863">
		<tag k="man_made" v="quay" />
		<tag k="name" v="Stavanger hurtigbåtterminal" />
		<tag k="place" v="locality" />
		<tag k="ssr:stedsnr" v="587499" />
	</node>
	<node id="-394342" lat="59.0434027803" lon="5.78789722608">
		<tag k="name" v="Lyrasteinen" />
		<tag k="natural" v="shoal" />
		<tag k="place" v="locality" />
		<tag k="ssr:stedsnr" v="587340" />
	</node>
	<node id="-394341" lat="58.9699611086" lon="5.71328889208">
		<tag k="name" v="Bekkelund" />
		<tag k="place" v="farm" />
		<tag k="ssr:stedsnr" v="586914" />
	</node>
	<node id="-394340" lat="58.9596305541" lon="5.7008055567">
		<tag k="name" v="Klauvsteinen" />
		<tag k="natural" v="stone" />
		<tag k="ssr:stedsnr" v="586893" />
	</node>
	<node id="-394339" lat="58.9720999986" lon="5.5995833266">
		<tag k="name" v="Sletteberget" />
		<tag k="natural" v="hill" />
		<tag k="place" v="locality" />
		<tag k="ssr:stedsnr" v="586878" />
	</node>
	<node id="-394338" lat="58.9819083347" lon="5.74287777746">
		<tag k="name" v="Sørvågen" />
		<tag k="natural" v="bay" />
		<tag k="old_name" v="Sørvigen" />
		<tag k="ssr:stedsnr" v="586803" />
	</node>
	<node id="-394337" lat="58.9847666688" lon="5.7244138913">
		<tag k="landuse" v="harbour" />
		<tag k="name" v="Nyhavn" />
		<tag k="seamark:type" v="harbour" />
		<tag k="ssr:stedsnr" v="586799" />
	</node>
	<node id="-394335" lat="58.9589666628" lon="5.76806110547">
		<tag k="name" v="Vardanes" />
		<tag k="natural" v="cape" />
		<tag k="ssr:stedsnr" v="586210" />
	</node>
	<node id="-394334" lat="58.9580555599" lon="5.75856110303">
		<tag k="name" v="Haugen" />
		<tag k="place" v="locality" />
		<tag k="ssr:stedsnr" v="585986" />
	</node>
	<node id="-394333" lat="58.9877111149" lon="5.66055832763">
		<tag k="name" v="Høyehaugen" />
		<tag k="natural" v="hill" />
		<tag k="place" v="locality" />
		<tag k="ssr:stedsnr" v="585924" />
	</node>
	<node id="-394332" lat="58.952997218" lon="5.6919416753">
		<tag k="alt_name" v="Tjensvoll Nedre" />
		<tag k="fixme" v="consider place=suburb, village or hamlet" />
		<tag k="name" v="Nedre Tjensvoll" />
		<tag k="place" v="quarter" />
		<tag k="ssr:stedsnr" v="585630" />
	</node>
	<node id="-394331" lat="59.0427972191" lon="5.74248610787">
		<tag k="name" v="Meling" />
		<tag k="place" v="hamlet" />
		<tag k="ssr:stedsnr" v="585556" />
	</node>
	<node id="-394328" lat="58.9488888917" lon="5.6821249961">
		<tag k="name" v="Blidensol" />
		<tag k="place" v="locality" />
		<tag k="ssr:stedsnr" v="584981" />
	</node>
	<node id="-394327" lat="58.9127555532" lon="5.71647221688">
		<tag k="name" v="Austvoll" />
		<tag k="place" v="locality" />
		<tag k="ssr:stedsnr" v="584781" />
	</node>
	<node id="-394326" lat="58.9092722192" lon="5.7144916738">
		<tag k="name" v="Varaberget" />
		<tag k="natural" v="hill" />
		<tag k="place" v="locality" />
		<tag k="ssr:stedsnr" v="584780" />
	</node>
	<node id="-394325" lat="58.9509292509" lon="5.67505829446">
		<tag k="name" v="Madla" />
		<tag k="place" v="suburb" />
		<tag k="ssr:stedsnr" v="578835" />
	</node>
	<node id="-394324" lat="58.9739138933" lon="5.7252194511">
		<tag k="name" v="Thore Horves plass" />
		<tag k="place" v="square" />
		<tag k="ssr:stedsnr" v="572457" />
	</node>
	<node id="-394323" lat="58.9680250006" lon="5.76590833571">
		<tag k="name" v="Sirigrunnen" />
		<tag k="natural" v="shoal" />
		<tag k="place" v="locality" />
		<tag k="ssr:stedsnr" v="571270" />
	</node>
	<node id="-394322" lat="58.9655995127" lon="5.60968742034">
		<tag k="alt_name" v="Sunde" />
		<tag k="amenity" v="place_of_worship" />
		<tag k="denomination" v="lutheran" />
		<tag k="name" v="Sunde kirke" />
		<tag k="religion" v="christian" />
		<tag k="ssr:stedsnr" v="570656" />
	</node>
	<node id="-394321" lat="58.9474527369" lon="5.69682387555">
		<tag k="fixme" v="consider place=hamlet" />
		<tag k="name" v="Øvre Tjensvoll" />
		<tag k="place" v="farm" />
		<tag k="ssr:stedsnr" v="569351" />
	</node>
	<node id="-394320" lat="58.9679527742" lon="5.71701944807">
		<tag k="cemetery" v="grave" />
		<tag k="name" v="Eiganes gravlund" />
		<tag k="old_name" v="Egenæs kirkegaard" />
		<tag k="place" v="locality" />
		<tag k="ssr:stedsnr" v="569328" />
	</node>
	<node id="-394319" lat="58.9608944472" lon="5.66487500331">
		<tag k="name" v="Vaskehusodden" />
		<tag k="natural" v="cape" />
		<tag k="ssr:stedsnr" v="569324" />
	</node>
	<node id="-394318" lat="58.952533329" lon="5.71445000278">
		<tag k="name" v="Mosvangen campingplass" />
		<tag k="ssr:stedsnr" v="569317" />
		<tag k="tourism" v="camp_site" />
	</node>
	<node id="-394317" lat="58.9511944461" lon="5.67076943651">
		<tag k="name" v="Madlaforen" />
		<tag k="natural" v="wetland" />
		<tag k="ssr:stedsnr" v="569315" />
	</node>
	<node id="-394316" lat="58.970019446" lon="5.6286277789">
		<tag k="alt_name" v="Dykkjelhaugen" />
		<tag k="name" v="Dykjelhaugen" />
		<tag k="natural" v="hill" />
		<tag k="place" v="locality" />
		<tag k="ssr:stedsnr" v="569311" />
	</node>
	<node id="-394315" lat="58.9097861144" lon="5.74913055425">
		<tag k="name" v="Jåttåholmen" />
		<tag k="place" v="islet" />
		<tag k="ssr:stedsnr" v="569204" />
	</node>
	<node id="-394314" lat="58.917791668" lon="5.73545832887">
		<tag k="leisure" v="marina" />
		<tag k="name" v="Jåttåvågen småbåthavn" />
		<tag k="ssr:stedsnr" v="569205" />
	</node>
	<node id="-394313" lat="58.918299996" lon="5.71046944525">
		<tag k="name" v="Vodlamyra" />
		<tag k="natural" v="wetland" />
		<tag k="ssr:stedsnr" v="569197" />
	</node>
	<node id="-394312" lat="58.9995791422" lon="5.67869975144">
		<tag k="name" v="Vardeneset" />
		<tag k="natural" v="cape" />
		<tag k="ssr:stedsnr" v="569172" />
	</node>
	<node id="-394311" lat="58.9517944459" lon="5.64234722183">
		<tag k="amenity" v="school" />
		<tag k="name" v="Revheim skole" />
		<tag k="ssr:stedsnr" v="569170" />
	</node>
	<node id="-394310" lat="59.0008333287" lon="5.71043054979">
		<tag k="alt_name" v="Kvidoddane" />
		<tag k="name" v="Kvitoddane" />
		<tag k="natural" v="cape" />
		<tag k="ssr:stedsnr" v="569165" />
	</node>
	<node id="-394309" lat="58.9151777794" lon="5.72388332847">
		<tag k="alt_name" v="Jåttå skole" />
		<tag k="amenity" v="school" />
		<tag k="name" v="Jåtten skole" />
		<tag k="ssr:stedsnr" v="569058" />
	</node>
	<node id="-394308" lat="58.9868999984" lon="5.74218056437">
		<tag k="name" v="Myraneset" />
		<tag k="natural" v="cape" />
		<tag k="ssr:stedsnr" v="569056" />
	</node>
	<node id="-394307" lat="58.9598583327" lon="5.7437416716">
		<tag k="name" v="Hillevågsvatnet" />
		<tag k="natural" v="bay" />
		<tag k="old_name" v="Hillevaag Vandet" />
		<tag k="ssr:stedsnr" v="569017" />
	</node>
	<node id="-394306" lat="59.0002583353" lon="5.8051750004">
		<tag k="fixme" v="consider seamark:type=rock or natural=shoal" />
		<tag k="name" v="Revingen" />
		<tag k="place" v="islet" />
		<tag k="ssr:stedsnr" v="569011" />
	</node>
	<node id="-394305" lat="59.0058194418" lon="5.75342222578">
		<tag k="alt_name" v="søra Bekkjavik" />
		<tag k="name" v="Søra Bekkjavika" />
		<tag k="natural" v="bay" />
		<tag k="ssr:stedsnr" v="569008" />
	</node>
	<node id="-394303" lat="58.9812972243" lon="5.69358056262">
		<tag k="name" v="Tasta" />
		<tag k="place" v="hamlet" />
		<tag k="ssr:stedsnr" v="566950" />
	</node>
	<node id="-394302" lat="58.9687888871" lon="5.75543054881">
		<tag k="leisure" v="park" />
		<tag k="name" v="Lervigtunet" />
		<tag k="ssr:stedsnr" v="566449" />
	</node>
	<node id="-394301" lat="59.0495944414" lon="5.73147778653">
		<tag k="name" v="Rossnes" />
		<tag k="natural" v="cape" />
		<tag k="ssr:stedsnr" v="547813" />
	</node>
	<node id="-394300" lat="58.956864055" lon="5.71147770024">
		<tag k="name" v="Mosvatnet" />
		<tag k="natural" v="water" />
		<tag k="old_name" v="Mose-vandet" />
		<tag k="ssr:stedsnr" v="547109" />
		<tag k="water" v="lake" />
	</node>
	<node id="-394299" lat="58.9616505302" lon="5.64543676872">
		<tag k="name" v="Stølaheia" />
		<tag k="natural" v="hill" />
		<tag k="old_name" v="Stølsheia" />
		<tag k="place" v="locality" />
		<tag k="ssr:stedsnr" v="547102" />
	</node>
	<node id="-394298" lat="58.9744802057" lon="5.80185169386">
		<tag k="fixme" v="consider seamark:type=rock or natural=shoal" />
		<tag k="name" v="Fladaskjeret" />
		<tag k="place" v="islet" />
		<tag k="ssr:stedsnr" v="547096" />
	</node>
	<node id="-394297" lat="58.9515333336" lon="5.7085027808">
		<tag k="name" v="Tjensvoll" />
		<tag k="place" v="suburb" />
		<tag k="ssr:stedsnr" v="547061" />
	</node>
	<node id="-394296" lat="58.9481466317" lon="5.62258169501">
		<tag k="name" v="Hestnes" />
		<tag k="natural" v="cape" />
		<tag k="ssr:stedsnr" v="547044" />
	</node>
	<node id="-394295" lat="58.989950534" lon="5.79345066663">
		<tag k="name" v="Vassøykalven" />
		<tag k="place" v="islet" />
		<tag k="ssr:stedsnr" v="546134" />
	</node>
	<node id="-394294" lat="58.9963861092" lon="5.69309443781">
		<tag k="bay" v="fjord" />
		<tag k="name" v="Byfjorden" />
		<tag k="natural" v="bay" />
		<tag k="ssr:stedsnr" v="546122" />
	</node>
	<node id="-394293" lat="58.9985749579" lon="5.77316567887">
		<tag k="name" v="Hestholmen" />
		<tag k="place" v="islet" />
		<tag k="ssr:stedsnr" v="546118" />
	</node>
	<node id="-394292" lat="58.9683395033" lon="5.59046710624">
		<tag k="name" v="Smiodden" />
		<tag k="natural" v="cape" />
		<tag k="ssr:stedsnr" v="546079" />
	</node>
	<node id="-394291" lat="58.9747722231" lon="5.83328333795">
		<tag k="name" v="Kalvøy" />
		<tag k="place" v="island" />
		<tag k="ssr:stedsnr" v="546076" />
	</node>
	<node id="-394290" lat="58.9103333342" lon="5.72051388122">
		<tag k="name" v="Jåttå" />
		<tag k="place" v="farm" />
		<tag k="ssr:stedsnr" v="546027" />
	</node>
	<node id="-394289" lat="58.9331749954" lon="5.74491943659">
		<tag k="name" v="Mariero" />
		<tag k="place" v="quarter" />
		<tag k="ssr:stedsnr" v="546010" />
	</node>
	<node id="-394288" lat="58.9545203239" lon="5.6970337342">
		<tag k="amenity" v="community_centre" />
		<tag k="name" v="Forum Expo" />
		<tag k="ssr:stedsnr" v="545324" />
	</node>
	<node id="-394287" lat="59.0427916688" lon="5.75115555881">
		<tag k="fixme" v="consider natural=peak for the most distinct mountains in the district" />
		<tag k="name" v="Brenningstua" />
		<tag k="natural" v="hill" />
		<tag k="place" v="locality" />
		<tag k="ssr:stedsnr" v="537457" />
	</node>
	<node id="-394286" lat="59.0396638884" lon="5.75980277859">
		<tag k="name" v="Munken" />
		<tag k="natural" v="hill" />
		<tag k="place" v="locality" />
		<tag k="ssr:stedsnr" v="537452" />
	</node>
	<node id="-394285" lat="59.042130475" lon="5.76319133413">
		<tag k="fixme" v="consider place=hamlet" />
		<tag k="name" v="Søre Lunde" />
		<tag k="place" v="farm" />
		<tag k="ssr:stedsnr" v="537249" />
	</node>
	<node id="-394284" lat="58.9909111093" lon="5.6544388897">
		<tag k="bridge" v="yes" />
		<tag k="layer" v="1" />
		<tag k="name" v="Finnestad" />
		<tag k="ssr:stedsnr" v="532314" />
	</node>
	<node id="-394283" lat="58.8982388916" lon="5.71099722058">
		<tag k="bridge" v="yes" />
		<tag k="layer" v="1" />
		<tag k="name" v="Folkvangvegen" />
		<tag k="ssr:stedsnr" v="532311" />
	</node>
	<node id="-394282" lat="58.974388889" lon="5.72241666841">
		<tag k="bridge" v="yes" />
		<tag k="layer" v="1" />
		<tag k="name" v="Bjergsted Terrasse" />
		<tag k="ssr:stedsnr" v="532302" />
	</node>
	<node id="-394281" lat="58.9832944454" lon="5.74013334107">
		<tag k="alt_name" v="Pyntesund" />
		<tag k="bridge" v="yes" />
		<tag k="layer" v="1" />
		<tag k="name" v="Pyntesundbrua" />
		<tag k="ssr:stedsnr" v="532291" />
	</node>
	<node id="-394280" lat="58.9308750012" lon="5.73777777095">
		<tag k="bridge" v="yes" />
		<tag k="layer" v="1" />
		<tag k="name" v="Vaulen" />
		<tag k="ssr:stedsnr" v="532277" />
	</node>
	<node id="-394279" lat="59.0166194406" lon="5.74543332881">
		<tag k="name" v="Lundegrunnen" />
		<tag k="natural" v="shoal" />
		<tag k="place" v="locality" />
		<tag k="ssr:stedsnr" v="527731" />
	</node>
	<node id="-394277" lat="58.9716611138" lon="5.7424555623">
		<tag k="name" v="Værks-almendingen" />
		<tag k="place" v="locality" />
		<tag k="ssr:stedsnr" v="526454" />
	</node>
	<node id="-394275" lat="58.9734555578" lon="5.74273610538">
		<tag k="loc_name" v="Østre Havn" />
		<tag k="name" v="Austre Hamn" />
		<tag k="natural" v="bay" />
		<tag k="ssr:stedsnr" v="525220" />
	</node>
	<node id="-394274" lat="58.9755694488" lon="5.73273889417">
		<tag k="name" v="Plentinggrunnen" />
		<tag k="natural" v="shoal" />
		<tag k="place" v="locality" />
		<tag k="ssr:stedsnr" v="525195" />
	</node>
	<node id="-394273" lat="58.9731138877" lon="5.72525832542">
		<tag k="fixme" v="consider place=suburb, village or hamlet" />
		<tag k="name" v="Straen" />
		<tag k="place" v="quarter" />
		<tag k="ssr:stedsnr" v="525104" />
	</node>
	<node id="-394272" lat="58.9617388894" lon="5.70911388263">
		<tag k="name" v="Fredheim" />
		<tag k="place" v="isolated_dwelling" />
		<tag k="ssr:stedsnr" v="525000" />
	</node>
	<node id="-394271" lat="58.9589333295" lon="5.75773055042">
		<tag k="name" v="Ramsvig" />
		<tag k="place" v="locality" />
		<tag k="ssr:stedsnr" v="524984" />
	</node>
	<node id="-394270" lat="58.9579916658" lon="5.62674166996">
		<tag k="name" v="Kloppstein" />
		<tag k="natural" v="stone" />
		<tag k="ssr:stedsnr" v="524927" />
	</node>
	<node id="-394269" lat="58.9664361085" lon="5.73769166587">
		<tag k="name" v="Sven Oftedals plass" />
		<tag k="place" v="square" />
		<tag k="ssr:stedsnr" v="524794" />
	</node>
	<node id="-394268" lat="58.9107166633" lon="5.71367500662">
		<tag k="name" v="Auståkeren" />
		<tag k="place" v="locality" />
		<tag k="ssr:stedsnr" v="524734" />
	</node>
	<node id="-394267" lat="59.0419583348" lon="5.75740832448">
		<tag k="alt_name" v="Lunde Nordre" />
		<tag k="fixme" v="consider place=hamlet" />
		<tag k="name" v="Nordre Lunde" />
		<tag k="place" v="village" />
		<tag k="ssr:stedsnr" v="524534" />
	</node>
	<node id="-394266" lat="59.0046756211" lon="5.72993377682">
		<tag k="alt_name" v="Skjeie" />
		<tag k="fixme" v="consider place=suburb, village or hamlet" />
		<tag k="name" v="Skeie" />
		<tag k="place" v="quarter" />
		<tag k="ssr:stedsnr" v="524528" />
	</node>
	<node id="-394265" lat="58.9353361097" lon="5.72228888787">
		<tag k="alt_name" v="Auklend" />
		<tag k="name" v="Auglend" />
		<tag k="place" v="suburb" />
		<tag k="ssr:stedsnr" v="524526" />
	</node>
	<node id="-394264" lat="58.9562750017" lon="5.64263611773">
		<tag k="name" v="Persrudlå" />
		<tag k="place" v="locality" />
		<tag k="ssr:stedsnr" v="524494" />
	</node>
	<node id="-394263" lat="58.9392083374" lon="5.6438083342">
		<tag k="name" v="Vassberget" />
		<tag k="natural" v="hill" />
		<tag k="place" v="locality" />
		<tag k="ssr:stedsnr" v="524482" />
	</node>
	<node id="-394262" lat="58.9726277808" lon="5.74725277904">
		<tag k="name" v="Strømsteinalmenningen" />
		<tag k="old_name" v="Strømstenens almending" />
		<tag k="place" v="locality" />
		<tag k="ssr:stedsnr" v="524189" />
	</node>
	<node id="-394261" lat="58.9621444483" lon="5.63823888029">
		<tag k="alt_name" v="Gjerdane" />
		<tag k="name" v="Gjerå" />
		<tag k="place" v="locality" />
		<tag k="ssr:stedsnr" v="524144" />
	</node>
	<node id="-394259" lat="58.9902055536" lon="5.76873889572">
		<tag k="name" v="Kobbsteinen" />
		<tag k="natural" v="shoal" />
		<tag k="place" v="locality" />
		<tag k="ssr:stedsnr" v="510260" />
	</node>
	<node id="-394258" lat="58.9518055529" lon="5.70023332876">
		<tag k="name" v="Solborg" />
		<tag k="place" v="quarter" />
		<tag k="ssr:stedsnr" v="509296" />
	</node>
	<node id="-394257" lat="58.9420305529" lon="5.69643611885">
		<tag k="name" v="Limahaugen" />
		<tag k="natural" v="hill" />
		<tag k="place" v="locality" />
		<tag k="ssr:stedsnr" v="509288" />
	</node>
	<node id="-394256" lat="58.8908500011" lon="5.72617777684">
		<tag k="leisure" v="pitch" />
		<tag k="name" v="Forus travbane" />
		<tag k="ssr:stedsnr" v="509198" />
	</node>
	<node id="-394255" lat="58.9405076023" lon="5.73325607544">
		<tag k="name" v="Vassverktjørna" />
		<tag k="natural" v="water" />
		<tag k="ssr:stedsnr" v="509170" />
	</node>
	<node id="-394254" lat="58.9174027803" lon="5.69270000524">
		<tag k="name" v="Valaberget" />
		<tag k="natural" v="hill" />
		<tag k="place" v="locality" />
		<tag k="ssr:stedsnr" v="509159" />
	</node>
	<node id="-394253" lat="58.915444449" lon="5.69770555869">
		<tag k="name" v="Asserskogen" />
		<tag k="place" v="locality" />
		<tag k="ssr:stedsnr" v="509158" />
	</node>
	<node id="-394252" lat="58.9816027745" lon="5.7148305481">
		<tag k="name" v="Kalhammaren" />
		<tag k="natural" v="ridge" />
		<tag k="place" v="locality" />
		<tag k="ssr:stedsnr" v="509155" />
	</node>
	<node id="-394251" lat="58.9485388925" lon="5.62891944507">
		<tag k="alt_name" v="Vågen" />
		<tag k="name" v="Revheimsvågen" />
		<tag k="natural" v="bay" />
		<tag k="ssr:stedsnr" v="509147" />
	</node>
	<node id="-394250" lat="58.9261333312" lon="5.73687223008">
		<tag k="name" v="Hindal" />
		<tag k="place" v="farm" />
		<tag k="ssr:stedsnr" v="509048" />
	</node>
	<node id="-394249" lat="58.9247249992" lon="5.74875833029">
		<tag k="name" v="Vaulen badeplass" />
		<tag k="natural" v="beach" />
		<tag k="place" v="locality" />
		<tag k="ssr:stedsnr" v="509047" />
	</node>
	<node id="-394248" lat="58.9178555572" lon="5.7227111034">
		<tag k="amenity" v="school" />
		<tag k="name" v="Hinna skole" />
		<tag k="ssr:stedsnr" v="509044" />
	</node>
	<node id="-394247" lat="58.9797694479" lon="5.75633889308">
		<tag k="bay" v="fjord" />
		<tag k="name" v="Pinå" />
		<tag k="natural" v="bay" />
		<tag k="ssr:stedsnr" v="509037" />
	</node>
	<node id="-394246" lat="58.9533722251" lon="5.75741388327">
		<tag k="alt_name" v="Tjuaskjæret" />
		<tag k="name" v="Tjuaskjeret" />
		<tag k="natural" v="cape" />
		<tag k="ssr:stedsnr" v="509022" />
	</node>
	<node id="-394245" lat="58.95919753" lon="5.76229173742">
		<tag k="name" v="Hetlandsmarka" />
		<tag k="place" v="locality" />
		<tag k="ssr:stedsnr" v="509016" />
	</node>
	<node id="-394244" lat="58.9070752256" lon="5.7184169768">
		<tag k="name" v="Jåttånuten" />
		<tag k="natural" v="hill" />
		<tag k="place" v="locality" />
		<tag k="ssr:stedsnr" v="486969" />
	</node>
	<node id="-394243" lat="58.9330182521" lon="5.6411635191">
		<tag k="alt_name" v="Madla-Sandnes" />
		<tag k="name" v="Madlasandnes" />
		<tag k="natural" v="cape" />
		<tag k="ssr:stedsnr" v="486048" />
	</node>
	<node id="-394242" lat="58.9524638935" lon="5.6673055622">
		<tag k="name" v="Gimle" />
		<tag k="place" v="farm" />
		<tag k="ssr:stedsnr" v="486030" />
	</node>
	<node id="-394241" lat="58.9174388889" lon="5.73523889501">
		<tag k="name" v="Jåttåvågen" />
		<tag k="natural" v="bay" />
		<tag k="ssr:stedsnr" v="486013" />
	</node>
	<node id="-394240" lat="58.9299083365" lon="5.74185554873">
		<tag k="fixme" v="consider place=suburb, village or hamlet" />
		<tag k="name" v="Vaulen" />
		<tag k="place" v="quarter" />
		<tag k="ssr:stedsnr" v="485010" />
	</node>
	<node id="-394239" lat="58.9919638861" lon="5.80665833401">
		<tag k="name" v="Nordvika" />
		<tag k="natural" v="bay" />
		<tag k="ssr:stedsnr" v="480881" />
	</node>
	<node id="-394238" lat="58.914527778" lon="5.73107222424">
		<tag k="leisure" v="pitch" />
		<tag k="name" v="Viking stadion" />
		<tag k="ssr:stedsnr" v="480714" />
	</node>
	<node id="-394237" lat="58.9830222212" lon="5.74125555429">
		<tag k="bridge" v="yes" />
		<tag k="layer" v="1" />
		<tag k="name" v="Engøyklubben" />
		<tag k="ssr:stedsnr" v="472311" />
	</node>
	<node id="-394236" lat="58.9523388927" lon="5.67567222485">
		<tag k="bridge" v="yes" />
		<tag k="layer" v="1" />
		<tag k="name" v="Stokken" />
		<tag k="ssr:stedsnr" v="472278" />
	</node>
	<node id="-394235" lat="58.9511388867" lon="5.71297222864">
		<tag k="bridge" v="yes" />
		<tag k="layer" v="1" />
		<tag k="name" v="Schankeholen" />
		<tag k="ssr:stedsnr" v="472276" />
	</node>
	<node id="-394233" lat="58.9136034098" lon="5.72930780867">
		<tag k="name" v="Jåttåvågen holdeplass" />
		<tag k="railway" v="halt" />
		<tag k="ssr:stedsnr" v="466200" />
		<tag k="train" v="yes" />
	</node>
	<node id="-394232" lat="58.9125972202" lon="5.73396666051">
		<tag k="name" v="Ringaberget" />
		<tag k="natural" v="hill" />
		<tag k="place" v="locality" />
		<tag k="ssr:stedsnr" v="465920" />
	</node>
	<node id="-394231" lat="58.9634277736" lon="5.72424721395">
		<tag k="name" v="St. Svithuns plass" />
		<tag k="place" v="square" />
		<tag k="ssr:stedsnr" v="465901" />
	</node>
	<node id="-394229" lat="58.9603555547" lon="5.76793333195">
		<tag k="name" v="Digranes" />
		<tag k="natural" v="cape" />
		<tag k="ssr:stedsnr" v="465213" />
	</node>
	<node id="-394228" lat="58.9565972222" lon="5.75461110691">
		<tag k="name" v="Sørnes" />
		<tag k="place" v="locality" />
		<tag k="ssr:stedsnr" v="464980" />
	</node>
	<node id="-394226" lat="58.9219611119" lon="5.64659721554">
		<tag k="fixme" v="consider seamark:type=rock or natural=shoal" />
		<tag k="name" v="Kjerringa" />
		<tag k="place" v="islet" />
		<tag k="ssr:stedsnr" v="464743" />
	</node>
	<node id="-394225" lat="58.9357930132" lon="5.74748782908">
		<tag k="name" v="Mariero" />
		<tag k="place" v="suburb" />
		<tag k="ssr:stedsnr" v="464582" />
	</node>
	<node id="-394224" lat="58.9852494161" lon="5.82360835582">
		<tag k="fixme" v="consider place=hamlet" />
		<tag k="name" v="Hellesøy" />
		<tag k="place" v="farm" />
		<tag k="ssr:stedsnr" v="464570" />
	</node>
	<node id="-394223" lat="58.9599416682" lon="5.62888333079">
		<tag k="name" v="Feta" />
		<tag k="place" v="locality" />
		<tag k="ssr:stedsnr" v="464543" />
	</node>
	<node id="-394222" lat="58.9987388858" lon="5.76386110552">
		<tag k="name" v="Siriskjeret" />
		<tag k="place" v="islet" />
		<tag k="ssr:stedsnr" v="464226" />
	</node>
	<node id="-394221" lat="58.9721555597" lon="5.72856943961">
		<tag k="name" v="Vestre Havn" />
		<tag k="natural" v="bay" />
		<tag k="ssr:stedsnr" v="464101" />
	</node>
	<node id="-394220" lat="58.9346666712" lon="5.63571389119">
		<tag k="name" v="Nibbå" />
		<tag k="natural" v="cape" />
		<tag k="ssr:stedsnr" v="463961" />
	</node>
	<node id="-394219" lat="58.9606916695" lon="5.63042778379">
		<tag k="junction" v="yes" />
		<tag k="name" v="Sørsundekrossen" />
		<tag k="place" v="locality" />
		<tag k="ssr:stedsnr" v="463946" />
	</node>
	<node id="-394218" lat="58.9390972192" lon="5.758480559">
		<tag k="name" v="Kråga" />
		<tag k="place" v="locality" />
		<tag k="seamark:type" v="rock" />
		<tag k="ssr:stedsnr" v="464721" />
	</node>
	<node id="-394217" lat="58.9903277823" lon="5.75566667088">
		<tag k="name" v="Dynene" />
		<tag k="natural" v="shoal" />
		<tag k="place" v="locality" />
		<tag k="ssr:stedsnr" v="450267" />
	</node>
	<node id="-394216" lat="58.9860305582" lon="5.69140278313">
		<tag k="amenity" v="school" />
		<tag k="name" v="Tastarustå skole" />
		<tag k="ssr:stedsnr" v="449538" />
	</node>
	<node id="-394215" lat="58.9670944485" lon="5.6071083353">
		<tag k="alt_name" v="Kvernavik" />
		<tag k="name" v="Kvernevik" />
		<tag k="place" v="suburb" />
		<tag k="ssr:stedsnr" v="449355" />
	</node>
	<node id="-394214" lat="58.9558144541" lon="5.6957578442">
		<tag k="alt_name" v="Sankt Svithun gymnas" />
		<tag k="amenity" v="school" />
		<tag k="name" v="St. Svithun videregående skole " />
		<tag k="ssr:stedsnr" v="449305" />
	</node>
	<node id="-394213" lat="58.9023916673" lon="5.73625000646">
		<tag k="name" v="Gauselskogen" />
		<tag k="place" v="locality" />
		<tag k="ssr:stedsnr" v="449209" />
	</node>
	<node id="-394212" lat="58.8961611116" lon="5.73466944266">
		<tag k="name" v="Nådlandsberget" />
		<tag k="natural" v="hill" />
		<tag k="place" v="locality" />
		<tag k="ssr:stedsnr" v="449201" />
	</node>
	<node id="-394211" lat="58.9377583365" lon="5.73580277525">
		<tag k="amenity" v="school" />
		<tag k="name" v="Kristianslyst skole" />
		<tag k="ssr:stedsnr" v="449173" />
	</node>
	<node id="-394210" lat="58.9173916711" lon="5.71093889583">
		<tag k="name" v="Vågsmyrbekken" />
		<tag k="ssr:stedsnr" v="449157" />
		<tag k="waterway" v="stream" />
	</node>
	<node id="-394209" lat="58.9243361067" lon="5.71533611002">
		<tag k="name" v="Leite" />
		<tag k="natural" v="slope" />
		<tag k="place" v="locality" />
		<tag k="ssr:stedsnr" v="449154" />
	</node>
	<node id="-394208" lat="58.982605558" lon="5.71236111595">
		<tag k="alt_name" v="Kalhammarvigå;Kalhamarvika" />
		<tag k="name" v="Kalhammarvika" />
		<tag k="natural" v="bay" />
		<tag k="old_name" v="Kalhammervigen" />
		<tag k="ssr:stedsnr" v="449152" />
	</node>
	<node id="-394207" lat="58.9754027778" lon="5.70279723066">
		<tag k="fixme" v="consider place=suburb, village or hamlet" />
		<tag k="name" v="Byhaugen" />
		<tag k="place" v="quarter" />
		<tag k="ssr:stedsnr" v="449151" />
	</node>
	<node id="-394206" lat="58.9719944476" lon="5.7158416702">
		<tag k="amenity" v="school" />
		<tag k="name" v="Kampen skole" />
		<tag k="ssr:stedsnr" v="449149" />
	</node>
	<node id="-394205" lat="58.9524166653" lon="5.65854722004">
		<tag k="name" v="Rag" />
		<tag k="place" v="quarter" />
		<tag k="ssr:stedsnr" v="449133" />
	</node>
	<node id="-394204" lat="58.9843194428" lon="5.72313888287">
		<tag k="fixme" v="consider seamark:type=rock or natural=shoal" />
		<tag k="name" v="Kattaskjeret" />
		<tag k="old_name" v="Katteskjæret" />
		<tag k="place" v="islet" />
		<tag k="ssr:stedsnr" v="449032" />
	</node>
	<node id="-394203" lat="58.9769055589" lon="5.74553056242">
		<tag k="name" v="Grasholmsundet" />
		<tag k="natural" v="strait" />
		<tag k="old_name" v="Græsholmsundet" />
		<tag k="ssr:stedsnr" v="449027" />
	</node>
	<node id="-394202" lat="58.9612972186" lon="5.76649165893">
		<tag k="amenity" v="nursing_home" />
		<tag k="name" v="Emmaus" />
		<tag k="ssr:stedsnr" v="449017" />
	</node>
	<node id="-394201" lat="58.9642444483" lon="5.76797223027">
		<tag k="alt_name" v="Breidvika;Breivig" />
		<tag k="name" v="Breivik" />
		<tag k="natural" v="bay" />
		<tag k="ssr:stedsnr" v="449013" />
	</node>
	<node id="-394200" lat="58.9880027785" lon="5.76596666305">
		<tag k="alt_name" v="Litleholmen" />
		<tag k="name" v="Ormøyholmen" />
		<tag k="place" v="islet" />
		<tag k="ssr:stedsnr" v="449009" />
	</node>
	<node id="-394199" lat="58.9885984459" lon="5.82878572758">
		<tag k="alt_name" v="Hedlesøykalven;Kalven" />
		<tag k="name" v="Hellesøykalven" />
		<tag k="place" v="islet" />
		<tag k="ssr:stedsnr" v="447092" />
	</node>
	<node id="-394198" lat="58.9658888896" lon="5.73324722876">
		<tag k="bridge" v="yes" />
		<tag k="layer" v="1" />
		<tag k="name" v="Bergelandsbrua" />
		<tag k="ssr:stedsnr" v="445971" />
	</node>
	<node id="-394197" lat="59.0080111093" lon="5.71924443989">
		<tag k="alt_name" v="Kråkeneset" />
		<tag k="name" v="Kråkenes" />
		<tag k="natural" v="cape" />
		<tag k="ssr:stedsnr" v="426786" />
	</node>
	<node id="-394196" lat="59.0285805584" lon="5.75178054963">
		<tag k="alt_name" v="Storholmen, l" />
		<tag k="name" v="Litle Storholmen" />
		<tag k="place" v="islet" />
		<tag k="ssr:stedsnr" v="426776" />
	</node>
	<node id="-394195" lat="58.9654141838" lon="5.78709689175">
		<tag k="name" v="Litla Marøya" />
		<tag k="place" v="islet" />
		<tag k="ssr:stedsnr" v="426097" />
	</node>
	<node id="-394194" lat="58.9576000023" lon="5.66910000021">
		<tag k="name" v="Ørnasteinen" />
		<tag k="old_name" v="Ørnastein;Ørnestein" />
		<tag k="place" v="farm" />
		<tag k="ssr:stedsnr" v="426095" />
	</node>
	<node id="-394193" lat="58.9247027792" lon="6.07071666199">
		<tag k="name" v="Nyland" />
		<tag k="place" v="farm" />
		<tag k="ssr:stedsnr" v="426091" />
	</node>
	<node id="-394192" lat="58.9715944481" lon="5.71267500668">
		<tag k="alt_name" v="Kampen" />
		<tag k="amenity" v="place_of_worship" />
		<tag k="denomination" v="lutheran" />
		<tag k="name" v="Kampen kirke" />
		<tag k="religion" v="christian" />
		<tag k="ssr:stedsnr" v="426083" />
	</node>
	<node id="-394191" lat="58.9749432959" lon="5.81961465714">
		<tag k="name" v="Bukkholmen" />
		<tag k="place" v="islet" />
		<tag k="ssr:stedsnr" v="426081" />
	</node>
	<node id="-394190" lat="58.9651684016" lon="5.66782422329">
		<tag k="name" v="Stora Stokkavatnet" />
		<tag k="natural" v="water" />
		<tag k="ssr:stedsnr" v="426079" />
		<tag k="water" v="lake" />
	</node>
	<node id="-394189" lat="58.8985529556" lon="5.71552383091">
		<tag k="fixme" v="consider place=hamlet" />
		<tag k="name" v="Gådeset" />
		<tag k="old_name" v="Gauteset;Godeset" />
		<tag k="place" v="farm" />
		<tag k="ssr:stedsnr" v="425952" />
	</node>
	<node id="-394186" lat="58.9741250033" lon="5.71934999691">
		<tag k="leisure" v="park" />
		<tag k="name" v="Peder S. Krøyers plass" />
		<tag k="ssr:stedsnr" v="422533" />
	</node>
	<node id="-394185" lat="58.9121527747" lon="5.75270277707">
		<tag k="name" v="Gauselgrunnen" />
		<tag k="natural" v="shoal" />
		<tag k="place" v="locality" />
		<tag k="ssr:stedsnr" v="422154" />
	</node>
	<node id="-394184" lat="59.0098777757" lon="5.76398334125">
		<tag k="name" v="Oterudneset" />
		<tag k="natural" v="cape" />
		<tag k="ssr:stedsnr" v="419249" />
	</node>
	<node id="-394183" lat="58.9619805575" lon="5.59859722132">
		<tag k="name" v="Hammaren" />
		<tag k="natural" v="cape" />
		<tag k="ssr:stedsnr" v="417077" />
	</node>
	<node id="-394182" lat="59.0418500006" lon="5.72555556235">
		<tag k="name" v="Vestre straen" />
		<tag k="natural" v="beach" />
		<tag k="place" v="locality" />
		<tag k="ssr:stedsnr" v="416415" />
	</node>
	<node id="-394181" lat="58.9120111125" lon="5.71278610859">
		<tag k="name" v="Jåttåhaugen" />
		<tag k="natural" v="hill" />
		<tag k="place" v="locality" />
		<tag k="ssr:stedsnr" v="267779" />
	</node>
	<node id="-394180" lat="58.9218738151" lon="5.71028529196">
		<tag k="fixme" v="consider place=hamlet" />
		<tag k="name" v="Hinna" />
		<tag k="place" v="farm" />
		<tag k="ssr:stedsnr" v="267633" />
	</node>
	<node id="-394179" lat="58.9583527746" lon="5.69266111602">
		<tag k="leisure" v="pitch" />
		<tag k="name" v="Lassa idrettsanlegg" />
		<tag k="ssr:stedsnr" v="266321" />
	</node>
	<node id="-394178" lat="58.9532055581" lon="5.685930553">
		<tag k="name" v="Molkeholen" />
		<tag k="natural" v="hill" />
		<tag k="place" v="locality" />
		<tag k="ssr:stedsnr" v="266320" />
	</node>
	<node id="-394177" lat="58.9907916661" lon="5.69344166561">
		<tag k="name" v="Tastasjøen" />
		<tag k="place" v="quarter" />
		<tag k="ssr:stedsnr" v="266175" />
	</node>
	<node id="-394176" lat="58.9726527769" lon="5.74013610892">
		<tag k="alt_name" v="Fiske-piren;Fiskepiren" />
		<tag k="man_made" v="quay" />
		<tag k="name" v="Fiskapiren" />
		<tag k="place" v="locality" />
		<tag k="ssr:stedsnr" v="266066" />
	</node>
	<node id="-394175" lat="58.9210861074" lon="5.73808056444">
		<tag k="name" v="Hinnavågen" />
		<tag k="natural" v="bay" />
		<tag k="ssr:stedsnr" v="266048" />
	</node>
	<node id="-394174" lat="58.9664333301" lon="5.76132222017">
		<tag k="alt_name" v="Lervika" />
		<tag k="name" v="Lervig" />
		<tag k="natural" v="bay" />
		<tag k="ssr:stedsnr" v="266023" />
	</node>
	<node id="-394173" lat="58.9913999964" lon="5.81077222511">
		<tag k="amenity" v="school" />
		<tag k="name" v="Lindøy skole" />
		<tag k="ssr:stedsnr" v="266020" />
	</node>
	<node id="-394172" lat="58.9650305569" lon="5.76847499617">
		<tag k="name" v="Dreyersholmane" />
		<tag k="natural" v="cape" />
		<tag k="ssr:stedsnr" v="266016" />
	</node>
	<node id="-394171" lat="58.9801055576" lon="5.80504166702">
		<tag k="fixme" v="consider seamark:type=rock or natural=shoal" />
		<tag k="name" v="Raudsteinskjera" />
		<tag k="place" v="islet" />
		<tag k="ssr:stedsnr" v="266014" />
	</node>
	<node id="-394170" lat="59.0092416678" lon="5.73439999862">
		<tag k="name" v="Kuneset" />
		<tag k="natural" v="cape" />
		<tag k="ssr:stedsnr" v="266011" />
	</node>
	<node id="-394169" lat="59.0081607265" lon="5.75213903237">
		<tag k="alt_name" v="nordra Bekkjavik" />
		<tag k="name" v="Nordra Bekkjavika" />
		<tag k="natural" v="bay" />
		<tag k="ssr:stedsnr" v="266003" />
	</node>
	<node id="-394168" lat="58.9900194476" lon="5.68208056038">
		<tag k="amenity" v="school" />
		<tag k="name" v="Teinå skole" />
		<tag k="ssr:stedsnr" v="263482" />
	</node>
	<node id="-394165" lat="59.0121583315" lon="5.77801389255">
		<tag k="name" v="Sauholmen" />
		<tag k="place" v="islet" />
		<tag k="ssr:stedsnr" v="244788" />
	</node>
	<node id="-394164" lat="59.0156083357" lon="5.78585556154">
		<tag k="alt_name" v="Guleskjera" />
		<tag k="fixme" v="consider seamark:type=rock or natural=shoal" />
		<tag k="name" v="Dei gule skjera" />
		<tag k="place" v="islet" />
		<tag k="ssr:stedsnr" v="244785" />
	</node>
	<node id="-394163" lat="58.9393333324" lon="5.65720833811">
		<tag k="name" v="Teigen" />
		<tag k="place" v="farm" />
		<tag k="ssr:stedsnr" v="244057" />
	</node>
	<node id="-394162" lat="58.9429388888" lon="5.63626110865">
		<tag k="alt_name" v="Myrå" />
		<tag k="name" v="Myra" />
		<tag k="place" v="farm" />
		<tag k="ssr:stedsnr" v="244042" />
	</node>
	<node id="-394161" lat="58.985761115" lon="5.73166388122">
		<tag k="name" v="Buøy" />
		<tag k="old_name" v="Buøen" />
		<tag k="place" v="island" />
		<tag k="ssr:stedsnr" v="243115" />
	</node>
	<node id="-394160" lat="58.9911244139" lon="5.66367921666">
		<tag k="alt_name" v="Finnastad" />
		<tag k="fixme" v="consider place=hamlet" />
		<tag k="name" v="Finnestad" />
		<tag k="place" v="farm" />
		<tag k="ssr:stedsnr" v="243098" />
	</node>
	<node id="-394159" lat="58.9570972179" lon="5.68575276991">
		<tag k="fixme" v="consider place=suburb, village or hamlet" />
		<tag k="loc_name" v="Sandal" />
		<tag k="name" v="Sanddal" />
		<tag k="place" v="quarter" />
		<tag k="ssr:stedsnr" v="243083" />
	</node>
	<node id="-394158" lat="58.9854175287" lon="5.72805085032">
		<tag k="alt_name" v="Rosenberg Verft" />
		<tag k="building" v="industrial" />
		<tag k="industrial" v="factory" />
		<tag k="name" v="Rosenberg" />
		<tag k="ssr:stedsnr" v="243050" />
	</node>
	<node id="-394156" lat="58.9108777739" lon="5.73497778433">
		<tag k="name" v="Boganesstraen" />
		<tag k="natural" v="beach" />
		<tag k="place" v="locality" />
		<tag k="ssr:stedsnr" v="240176" />
	</node>
	<node id="-394154" lat="58.9666750035" lon="5.73255277978">
		<tag k="alt_name" v="Stavanger" />
		<tag k="name" v="Stavanger stasjon" />
		<tag k="railway" v="station" />
		<tag k="ssr:stedsnr" v="238010" />
		<tag k="train" v="yes" />
	</node>
	<node id="-394153" lat="59.007738886" lon="5.77015833778">
		<tag k="name" v="Forevika" />
		<tag k="natural" v="bay" />
		<tag k="ssr:stedsnr" v="237242" />
	</node>
	<node id="-394152" lat="59.028752781" lon="5.76302777169">
		<tag k="fixme" v="multiple name tags, choose one and add the other to alt_name; consider seamark:type=rock or natural=shoal" />
		<tag k="name" v="Kuppholmskjeret;Høvringskjeret" />
		<tag k="place" v="islet" />
		<tag k="ssr:stedsnr" v="235413" />
	</node>
	<node id="-394151" lat="58.9351388926" lon="5.73426667326">
		<tag k="bridge" v="yes" />
		<tag k="layer" v="1" />
		<tag k="name" v="Breidablikkveien" />
		<tag k="ssr:stedsnr" v="229336" />
	</node>
	<node id="-394150" lat="58.979369448" lon="5.7456055577">
		<tag k="bridge" v="yes" />
		<tag k="layer" v="1" />
		<tag k="name" v="Engøy" />
		<tag k="ssr:stedsnr" v="229330" />
	</node>
	<node id="-394149" lat="58.9520527755" lon="5.66480000306">
		<tag k="bridge" v="yes" />
		<tag k="layer" v="1" />
		<tag k="name" v="Mølldalsveien" />
		<tag k="ssr:stedsnr" v="229312" />
	</node>
	<node id="-394148" lat="58.9944583295" lon="5.74847499343">
		<tag k="bridge" v="yes" />
		<tag k="layer" v="1" />
		<tag k="name" v="Skolebrygga" />
		<tag k="ssr:stedsnr" v="229293" />
	</node>
	<node id="-394145" lat="58.9440222219" lon="5.73455833676">
		<tag k="loc_name" v="Bergåstjernet" />
		<tag k="name" v="Bergatjørne" />
		<tag k="ssr:stedsnr" v="223933" />
		<tag k="waterway" v="dam" />
	</node>
	<node id="-394144" lat="58.980521615" lon="5.73434137739">
		<tag k="name" v="Halvorstraen" />
		<tag k="natural" v="beach" />
		<tag k="place" v="locality" />
		<tag k="ssr:stedsnr" v="223888" />
	</node>
	<node id="-394143" lat="58.9091722234" lon="5.72014722192">
		<tag k="name" v="Brekka" />
		<tag k="natural" v="slope" />
		<tag k="place" v="locality" />
		<tag k="ssr:stedsnr" v="223848" />
	</node>
	<node id="-394142" lat="58.9821055551" lon="5.74030000792">
		<tag k="name" v="Engøyvatnet" />
		<tag k="old_name" v="Engøvandet" />
		<tag k="ssr:stedsnr" v="223834" />
		<tag k="waterway" v="dam" />
	</node>
	<node id="-394141" lat="58.9690499959" lon="5.73156388313">
		<tag k="leisure" v="park" />
		<tag k="loc_name" v="Kiellandshagen" />
		<tag k="name" v="Kjellandshagen" />
		<tag k="ssr:stedsnr" v="223824" />
	</node>
	<node id="-394140" lat="58.9721083356" lon="5.72248333368">
		<tag k="name" v="Hertervigs plass" />
		<tag k="place" v="square" />
		<tag k="ssr:stedsnr" v="223822" />
	</node>
	<node id="-394137" lat="58.9346086272" lon="5.70287703738">
		<tag k="alt_name" v="Kartverket" />
		<tag k="building" v="commercial" />
		<tag k="name" v="Statens kartverk" />
		<tag k="ssr:stedsnr" v="222184" />
	</node>
	<node id="-394136" lat="58.9737390444" lon="5.7481659892">
		<tag k="name" v="Feiagrunnen" />
		<tag k="natural" v="shoal" />
		<tag k="place" v="locality" />
		<tag k="ssr:stedsnr" v="222175" />
	</node>
	<node id="-394135" lat="58.9802416633" lon="5.73339166416">
		<tag k="name" v="Pyntenesgrunnen" />
		<tag k="natural" v="shoal" />
		<tag k="place" v="locality" />
		<tag k="ssr:stedsnr" v="222155" />
	</node>
	<node id="-394134" lat="58.9684194424" lon="5.7109999968">
		<tag k="name" v="Edvard Griegs plass" />
		<tag k="place" v="square" />
		<tag k="ssr:stedsnr" v="221998" />
	</node>
	<node id="-394133" lat="58.9951750019" lon="5.717658341">
		<tag k="name" v="Ringaberg" />
		<tag k="natural" v="hill" />
		<tag k="place" v="locality" />
		<tag k="ssr:stedsnr" v="221997" />
	</node>
	<node id="-394132" lat="58.9164999996" lon="5.69557500047">
		<tag k="name" v="Brunnholen" />
		<tag k="place" v="farm" />
		<tag k="ssr:stedsnr" v="221992" />
	</node>
	<node id="-394131" lat="58.9559083357" lon="5.7510916656">
		<tag k="alt_name" v="Godal" />
		<tag k="fixme" v="consider place=suburb, village or hamlet" />
		<tag k="name" v="Godalen" />
		<tag k="place" v="quarter" />
		<tag k="ssr:stedsnr" v="221978" />
	</node>
	<node id="-394130" lat="58.9747861105" lon="5.68430000612">
		<tag k="name" v="Dalen" />
		<tag k="natural" v="valley" />
		<tag k="place" v="locality" />
		<tag k="ssr:stedsnr" v="221973" />
	</node>
	<node id="-394129" lat="58.959472221" lon="5.64813610727">
		<tag k="name" v="Austli" />
		<tag k="place" v="locality" />
		<tag k="ssr:stedsnr" v="221925" />
	</node>
	<node id="-394128" lat="58.9981361114" lon="5.67027777271">
		<tag k="loc_name" v="Notberget" />
		<tag k="name" v="Natberget" />
		<tag k="natural" v="cape" />
		<tag k="ssr:stedsnr" v="221918" />
	</node>
	<node id="-394127" lat="58.947719441" lon="5.62651112012">
		<tag k="name" v="Hestnes" />
		<tag k="natural" v="hill" />
		<tag k="place" v="locality" />
		<tag k="ssr:stedsnr" v="221902" />
	</node>
	<node id="-394126" lat="58.9526861084" lon="5.74561944367">
		<tag k="name" v="Hillevågsholmen" />
		<tag k="natural" v="cape" />
		<tag k="ssr:stedsnr" v="221821" />
	</node>
	<node id="-394125" lat="58.9718305532" lon="5.73312778365">
		<tag k="name" v="Breitorget" />
		<tag k="place" v="square" />
		<tag k="ssr:stedsnr" v="221786" />
	</node>
	<node id="-394124" lat="58.9928805539" lon="5.74669999338">
		<tag k="fixme" v="consider place=suburb, village or hamlet" />
		<tag k="name" v="Austbø" />
		<tag k="place" v="quarter" />
		<tag k="ssr:stedsnr" v="221551" />
	</node>
	<node id="-394121" lat="58.9649250028" lon="5.7666333259">
		<tag k="leisure" v="marina" />
		<tag k="name" v="Breivik småbåthavn" />
		<tag k="ssr:stedsnr" v="221174" />
	</node>
	<node id="-394120" lat="58.9693361071" lon="5.73365833404">
		<tag k="amenity" v="place_of_worship" />
		<tag k="denomination" v="lutheran" />
		<tag k="name" v="Stavanger domkirke" />
		<tag k="religion" v="christian" />
		<tag k="ssr:stedsnr" v="221075" />
	</node>
	<node id="-394119" lat="58.9807361079" lon="5.84347222576">
		<tag k="name" v="Rosmatangen" />
		<tag k="natural" v="cape" />
		<tag k="ssr:stedsnr" v="207276" />
	</node>
	<node id="-394118" lat="58.971758332" lon="5.59722222696">
		<tag k="loc_name" v="Torsteinsvika" />
		<tag k="name" v="Torsteinsviga" />
		<tag k="natural" v="bay" />
		<tag k="ssr:stedsnr" v="206363" />
	</node>
	<node id="-394117" lat="58.9648305586" lon="5.67889722802">
		<tag k="name" v="Litleholmen" />
		<tag k="natural" v="cape" />
		<tag k="ssr:stedsnr" v="206298" />
	</node>
	<node id="-394116" lat="58.9494777782" lon="5.70267499965">
		<tag k="name" v="Øvre Tjensvoll" />
		<tag k="place" v="farm" />
		<tag k="ssr:stedsnr" v="206295" />
	</node>
	<node id="-394115" lat="58.9338555592" lon="5.7363333384">
		<tag k="alt_name" v="Hetland gymnas" />
		<tag k="amenity" v="school" />
		<tag k="name" v="Hetland videregående skole" />
		<tag k="ssr:stedsnr" v="206190" />
	</node>
	<node id="-394114" lat="58.9407388916" lon="5.74324166129">
		<tag k="name" v="Eikeberget" />
		<tag k="natural" v="hill" />
		<tag k="place" v="locality" />
		<tag k="ssr:stedsnr" v="206184" />
	</node>
	<node id="-394113" lat="58.9716388854" lon="5.70919167356">
		<tag k="name" v="Gramstadhaugen" />
		<tag k="natural" v="hill" />
		<tag k="place" v="locality" />
		<tag k="ssr:stedsnr" v="206173" />
	</node>
	<node id="-394112" lat="58.9576944403" lon="5.64384444063">
		<tag k="name" v="Årafeta" />
		<tag k="place" v="locality" />
		<tag k="ssr:stedsnr" v="206170" />
	</node>
	<node id="-394111" lat="58.9756527796" lon="5.74708889659">
		<tag k="name" v="Grasholmen" />
		<tag k="old_name" v="Græsholmen" />
		<tag k="place" v="islet" />
		<tag k="ssr:stedsnr" v="206675" />
	</node>
	<node id="-394110" lat="58.9716797673" lon="5.7446468549">
		<tag k="alt_name" v="Banavigå" />
		<tag k="name" v="Banavika" />
		<tag k="natural" v="bay" />
		<tag k="old_name" v="Banevigen" />
		<tag k="ssr:stedsnr" v="206063" />
	</node>
	<node id="-394109" lat="58.971019448" lon="5.75554999254">
		<tag k="alt_name" v="Spilderhaugvigå" />
		<tag k="name" v="Spilderhaugvika" />
		<tag k="natural" v="bay" />
		<tag k="old_name" v="Spilderhaugvigen" />
		<tag k="ssr:stedsnr" v="206061" />
	</node>
	<node id="-394108" lat="58.9819888881" lon="5.72147777138">
		<tag k="alt_name" v="Tjuholmen" />
		<tag k="name" v="Tjuvholmen" />
		<tag k="old_name" v="Tyveholmen" />
		<tag k="place" v="islet" />
		<tag k="ssr:stedsnr" v="206060" />
	</node>
	<node id="-394107" lat="58.9856611082" lon="5.73435556267">
		<tag k="amenity" v="school" />
		<tag k="name" v="Buøy skole" />
		<tag k="ssr:stedsnr" v="206045" />
	</node>
	<node id="-394106" lat="58.9722472198" lon="5.72802778508">
		<tag k="name" v="Vågen" />
		<tag k="natural" v="bay" />
		<tag k="old_name" v="Vaagen" />
		<tag k="ssr:stedsnr" v="206042" />
	</node>
	<node id="-394105" lat="58.9754888898" lon="5.72424999201">
		<tag k="alt_name" v="Sandvika" />
		<tag k="name" v="Sandvigå" />
		<tag k="natural" v="bay" />
		<tag k="ssr:stedsnr" v="206040" />
	</node>
	<node id="-394104" lat="58.974511112" lon="5.73073056377">
		<tag k="man_made" v="quay" />
		<tag k="name" v="Skansekaien" />
		<tag k="place" v="locality" />
		<tag k="ssr:stedsnr" v="206038" />
	</node>
	<node id="-394103" lat="58.9705416688" lon="5.73674999123">
		<tag k="amenity" v="place_of_worship" />
		<tag k="denomination" v="lutheran" />
		<tag k="name" v="St. Petri kirke" />
		<tag k="religion" v="christian" />
		<tag k="ssr:stedsnr" v="206037" />
	</node>
	<node id="-394102" lat="58.9686694419" lon="5.74912221423">
		<tag k="amenity" v="place_of_worship" />
		<tag k="denomination" v="lutheran" />
		<tag k="name" v="St. Johannes kirke" />
		<tag k="religion" v="christian" />
		<tag k="ssr:stedsnr" v="206028" />
	</node>
	<node id="-394101" lat="58.9986666625" lon="5.70791111177">
		<tag k="fixme" v="consider seamark:type=rock or natural=shoal" />
		<tag k="name" v="Maraskjeret" />
		<tag k="place" v="islet" />
		<tag k="ssr:stedsnr" v="206164" />
	</node>
	<node id="-394100" lat="58.9975111119" lon="5.73763611318">
		<tag k="name" v="Austbø" />
		<tag k="place" v="farm" />
		<tag k="ssr:stedsnr" v="184968" />
	</node>
	<node id="-394099" lat="59.0062916666" lon="5.71513889567">
		<tag k="alt_name" v="Saltneset" />
		<tag k="name" v="Saltnes" />
		<tag k="natural" v="cape" />
		<tag k="ssr:stedsnr" v="184762" />
	</node>
	<node id="-394098" lat="59.0026638918" lon="5.74626388487">
		<tag k="alt_name" v="Lundevågen" />
		<tag k="name" v="Lundsvågen" />
		<tag k="natural" v="bay" />
		<tag k="ssr:stedsnr" v="184756" />
	</node>
	<node id="-394097" lat="59.0494001112" lon="5.74152034293">
		<tag k="alt_name" v="Rosnesvika" />
		<tag k="name" v="Rossnesvika" />
		<tag k="natural" v="bay" />
		<tag k="ssr:stedsnr" v="183802" />
	</node>
	<node id="-394096" lat="58.9872583348" lon="5.79625834041">
		<tag k="alt_name" v="Lindøysundet, nordre" />
		<tag k="name" v="Lindøysundet" />
		<tag k="natural" v="strait" />
		<tag k="ssr:stedsnr" v="183107" />
	</node>
	<node id="-394095" lat="58.9824972224" lon="5.82480278166">
		<tag k="name" v="Hellesøy" />
		<tag k="place" v="island" />
		<tag k="ssr:stedsnr" v="183105" />
	</node>
	<node id="-394094" lat="58.9697244929" lon="5.61975521634">
		<tag k="alt_name" v="Sunde, nordre;Nord-Sunde" />
		<tag k="fixme" v="consider place=hamlet" />
		<tag k="name" v="Nordre Sunde" />
		<tag k="place" v="farm" />
		<tag k="ssr:stedsnr" v="183077" />
	</node>
	<node id="-394093" lat="58.9737138878" lon="5.66115555538">
		<tag k="name" v="Myra" />
		<tag k="place" v="farm" />
		<tag k="ssr:stedsnr" v="183064" />
	</node>
	<node id="-394092" lat="58.937155558" lon="5.63633332566">
		<tag k="name" v="Karistø" />
		<tag k="place" v="isolated_dwelling" />
		<tag k="ssr:stedsnr" v="183050" />
	</node>
	<node id="-394091" lat="58.940855557" lon="5.72700556253">
		<tag k="name" v="Åsen" />
		<tag k="place" v="farm" />
		<tag k="ssr:stedsnr" v="183046" />
	</node>
	<node id="-394090" lat="58.9522666707" lon="5.64404721597">
		<tag k="amenity" v="place_of_worship" />
		<tag k="denomination" v="lutheran" />
		<tag k="name" v="Revheim kirke" />
		<tag k="religion" v="christian" />
		<tag k="ssr:stedsnr" v="183031" />
	</node>
	<node id="-394089" lat="58.9118833329" lon="5.72251388833">
		<tag k="name" v="Jåttå" />
		<tag k="place" v="farm" />
		<tag k="ssr:stedsnr" v="179649" />
	</node>
	<node id="-394088" lat="59.0243527773" lon="5.77790833197">
		<tag k="alt_name" v="Oddaskjeret" />
		<tag k="name" v="Oddaholmen" />
		<tag k="place" v="islet" />
		<tag k="ssr:stedsnr" v="173412" />
	</node>
	<node id="-394087" lat="59.0146757349" lon="5.78615634827">
		<tag k="alt_name" v="Småskjærene" />
		<tag k="name" v="Småskjera" />
		<tag k="place" v="islet" />
		<tag k="ssr:stedsnr" v="173383" />
	</node>
	<node id="-394086" lat="58.9897277814" lon="5.68939722835">
		<tag k="bridge" v="yes" />
		<tag k="layer" v="1" />
		<tag k="name" v="Gjerdeveien" />
		<tag k="ssr:stedsnr" v="168332" />
	</node>
	<node id="-394085" lat="58.9934750041" lon="5.74071945053">
		<tag k="bridge" v="yes" />
		<tag k="layer" v="1" />
		<tag k="name" v="Austbø" />
		<tag k="ssr:stedsnr" v="168324" />
	</node>
	<node id="-394084" lat="58.9340972183" lon="5.69741667087">
		<tag k="bridge" v="yes" />
		<tag k="layer" v="1" />
		<tag k="name" v="Professor Olav Hanss" />
		<tag k="ssr:stedsnr" v="168318" />
	</node>
	<node id="-394083" lat="58.9185305551" lon="5.69708055623">
		<tag k="bridge" v="yes" />
		<tag k="layer" v="1" />
		<tag k="name" v="Nesbuvegen" />
		<tag k="ssr:stedsnr" v="168316" />
	</node>
	<node id="-394082" lat="58.9516111151" lon="5.74224445225">
		<tag k="bridge" v="yes" />
		<tag k="layer" v="1" />
		<tag k="name" v="Hillevåg" />
		<tag k="ssr:stedsnr" v="168309" />
	</node>
	<node id="-394081" lat="58.9478527753" lon="5.74287500278">
		<tag k="bridge" v="yes" />
		<tag k="layer" v="1" />
		<tag k="name" v="Hillevåg Torg" />
		<tag k="ssr:stedsnr" v="168308" />
	</node>
	<node id="-394080" lat="58.9485388847" lon="5.68034444534">
		<tag k="bridge" v="yes" />
		<tag k="layer" v="1" />
		<tag k="name" v="Hognes Gate" />
		<tag k="ssr:stedsnr" v="168306" />
	</node>
	<node id="-394079" lat="58.9445000017" lon="5.75189444751">
		<tag k="bridge" v="yes" />
		<tag k="layer" v="1" />
		<tag k="name" v="Torsnes" />
		<tag k="ssr:stedsnr" v="168299" />
	</node>
	<node id="-394078" lat="58.9623000043" lon="5.69164444288">
		<tag k="bridge" v="yes" />
		<tag k="layer" v="1" />
		<tag k="name" v="Stokka" />
		<tag k="ssr:stedsnr" v="168295" />
	</node>
	<node id="-394077" lat="59.0405277781" lon="5.76959166825">
		<tag k="name" v="Lundestranda" />
		<tag k="natural" v="beach" />
		<tag k="place" v="locality" />
		<tag k="ssr:stedsnr" v="163284" />
	</node>
	<node id="-394076" lat="58.9105944469" lon="5.73010555669">
		<tag k="name" v="Boganes" />
		<tag k="place" v="locality" />
		<tag k="ssr:stedsnr" v="162925" />
	</node>
	<node id="-394075" lat="58.9893749994" lon="5.71962222336">
		<tag k="alt_name" v="Ringskjæret;Ringskjeret" />
		<tag k="fixme" v="consider seamark:type=rock or natural=shoal" />
		<tag k="name" v="Ringaskjeret" />
		<tag k="place" v="islet" />
		<tag k="ssr:stedsnr" v="162824" />
	</node>
	<node id="-394074" lat="58.9550583378" lon="5.72911389395">
		<tag k="leisure" v="park" />
		<tag k="name" v="Rogalandsparken" />
		<tag k="ssr:stedsnr" v="162818" />
	</node>
	<node id="-394070" lat="58.9408222203" lon="5.65683333563">
		<tag k="name" v="Onshaug" />
		<tag k="place" v="farm" />
		<tag k="ssr:stedsnr" v="160938" />
	</node>
	<node id="-394069" lat="58.9651472218" lon="5.62548611204">
		<tag k="alt_name" v="Ekrehaugen" />
		<tag k="name" v="Ekrehøgda" />
		<tag k="place" v="locality" />
		<tag k="ssr:stedsnr" v="160929" />
	</node>
	<node id="-394068" lat="58.9665055564" lon="5.63278334158">
		<tag k="name" v="Øysteinsvarden" />
		<tag k="place" v="farm" />
		<tag k="ssr:stedsnr" v="160925" />
	</node>
	<node id="-394067" lat="58.9688999973" lon="5.73385554776">
		<tag k="leisure" v="park" />
		<tag k="name" v="Byparken" />
		<tag k="old_name" v="Parken" />
		<tag k="ssr:stedsnr" v="160835" />
	</node>
	<node id="-394066" lat="58.9369027811" lon="5.67837499201">
		<tag k="name" v="Torskaberget" />
		<tag k="natural" v="cape" />
		<tag k="ssr:stedsnr" v="160693" />
	</node>
	<node id="-394065" lat="58.9464916703" lon="5.70289723036">
		<tag k="alt_name" v="Tjensvoll Øvre" />
		<tag k="fixme" v="consider place=suburb, village or hamlet" />
		<tag k="name" v="Øvre Tjensvoll" />
		<tag k="place" v="quarter" />
		<tag k="ssr:stedsnr" v="160604" />
	</node>
	<node id="-394064" lat="58.9780568716" lon="5.83658167035">
		<tag k="fixme" v="consider place=hamlet" />
		<tag k="name" v="Kalvøy" />
		<tag k="place" v="farm" />
		<tag k="ssr:stedsnr" v="160497" />
	</node>
	<node id="-394063" lat="58.9629305591" lon="5.64038888645">
		<tag k="name" v="Gjerdebakken" />
		<tag k="natural" v="slope" />
		<tag k="place" v="locality" />
		<tag k="ssr:stedsnr" v="160479" />
	</node>
	<node id="-394062" lat="58.9638573291" lon="5.63555369676">
		<tag k="name" v="Grovahaug" />
		<tag k="natural" v="hill" />
		<tag k="place" v="locality" />
		<tag k="ssr:stedsnr" v="160477" />
	</node>
	<node id="-394061" lat="58.8927833379" lon="5.71286111907">
		<tag k="name" v="Stokkavassbotn" />
		<tag k="place" v="locality" />
		<tag k="ssr:stedsnr" v="160719" />
	</node>
	<node id="-394059" lat="58.9666111085" lon="5.75963610908">
		<tag k="man_made" v="quay" />
		<tag k="name" v="Lervigskaien" />
		<tag k="place" v="locality" />
		<tag k="ssr:stedsnr" v="160177" />
	</node>
	<node id="-394058" lat="58.9760805602" lon="5.82255833906">
		<tag k="fixme" v="consider seamark:type=rock or natural=shoal" />
		<tag k="name" v="Blomsterholmen" />
		<tag k="place" v="islet" />
		<tag k="ssr:stedsnr" v="160140" />
	</node>
	<node id="-394057" lat="58.9528660268" lon="5.7742743349">
		<tag k="name" v="Gandsflua" />
		<tag k="place" v="locality" />
		<tag k="seamark:type" v="rock" />
		<tag k="ssr:stedsnr" v="146261" />
	</node>
	<node id="-394056" lat="58.971769441" lon="5.80440277295">
		<tag k="name" v="Fladaskjergrunnen" />
		<tag k="natural" v="shoal" />
		<tag k="place" v="locality" />
		<tag k="ssr:stedsnr" v="146257" />
	</node>
	<node id="-394054" lat="58.9408666686" lon="5.66965832473">
		<tag k="name" v="Møllebukta" />
		<tag k="natural" v="bay" />
		<tag k="ssr:stedsnr" v="145323" />
	</node>
	<node id="-394053" lat="58.9506444409" lon="5.67800554819">
		<tag k="amenity" v="school" />
		<tag k="name" v="Madlamark skole" />
		<tag k="ssr:stedsnr" v="145299" />
	</node>
	<node id="-394052" lat="58.9510999994" lon="5.70361389269">
		<tag k="amenity" v="school" />
		<tag k="name" v="Tjensvoll skole" />
		<tag k="ssr:stedsnr" v="145296" />
	</node>
	<node id="-394051" lat="58.9723277752" lon="5.65618333024">
		<tag k="name" v="Friheim" />
		<tag k="place" v="isolated_dwelling" />
		<tag k="ssr:stedsnr" v="145290" />
	</node>
	<node id="-394050" lat="58.9011472179" lon="5.72991943979">
		<tag k="name" v="Husaberget" />
		<tag k="natural" v="hill" />
		<tag k="place" v="locality" />
		<tag k="ssr:stedsnr" v="145207" />
	</node>
	<node id="-394049" lat="58.9033694469" lon="5.74548610987">
		<tag k="name" v="Sandholmen" />
		<tag k="place" v="islet" />
		<tag k="ssr:stedsnr" v="145205" />
	</node>
	<node id="-394048" lat="58.893866669" lon="5.75174444158">
		<tag k="name" v="Fiskaneset" />
		<tag k="natural" v="cape" />
		<tag k="ssr:stedsnr" v="145206" />
	</node>
	<node id="-394046" lat="58.9929527795" lon="5.69390832542">
		<tag k="name" v="Skogstø" />
		<tag k="natural" v="bay" />
		<tag k="ssr:stedsnr" v="145157" />
	</node>
	<node id="-394045" lat="58.9721861143" lon="5.74851943998">
		<tag k="name" v="Badedammen" />
		<tag k="ssr:stedsnr" v="145049" />
		<tag k="waterway" v="dam" />
	</node>
	<node id="-394044" lat="58.921297219" lon="5.74949444155">
		<tag k="name" v="Taraldsholmen" />
		<tag k="place" v="islet" />
		<tag k="ssr:stedsnr" v="145043" />
	</node>
	<node id="-394043" lat="58.988205554" lon="5.73943610586">
		<tag k="name" v="Grønvika" />
		<tag k="natural" v="bay" />
		<tag k="ssr:stedsnr" v="145036" />
	</node>
	<node id="-394042" lat="58.9768611115" lon="5.73553054837">
		<tag k="alt_name" v="Natvigs Minne" />
		<tag k="name" v="Natvigs minne" />
		<tag k="old_name" v="Natvigs Minde;Litle Plentingen" />
		<tag k="place" v="islet" />
		<tag k="ssr:stedsnr" v="145032" />
	</node>
	<node id="-394041" lat="58.9740638873" lon="5.72584999534">
		<tag k="man_made" v="quay" />
		<tag k="name" v="Strandkaien" />
		<tag k="place" v="locality" />
		<tag k="ssr:stedsnr" v="145029" />
	</node>
	<node id="-394040" lat="58.9680596101" lon="5.73299943681">
		<tag k="name" v="Breiavatnet" />
		<tag k="natural" v="water" />
		<tag k="old_name" v="Brede-vandet" />
		<tag k="ssr:stedsnr" v="145022" />
		<tag k="water" v="lake" />
	</node>
	<node id="-394039" lat="58.9667027793" lon="5.72063888925">
		<tag k="name" v="Ledaal" />
		<tag k="place" v="locality" />
		<tag k="ssr:stedsnr" v="145021" />
	</node>
	<node id="-394038" lat="59.0041944475" lon="5.78409722654">
		<tag k="name" v="Vassøysundet" />
		<tag k="natural" v="strait" />
		<tag k="ssr:stedsnr" v="145011" />
	</node>
	<node id="-394037" lat="59.0016611103" lon="5.70975833157">
		<tag k="name" v="Dragsholmen" />
		<tag k="natural" v="cape" />
		<tag k="ssr:stedsnr" v="123790" />
	</node>
	<node id="-394036" lat="59.0487861131" lon="5.77452500363">
		<tag k="name" v="Fuglaneset" />
		<tag k="natural" v="cape" />
		<tag k="ssr:stedsnr" v="122786" />
	</node>
	<node id="-394035" lat="59.038267481" lon="5.75913018422">
		<tag k="alt_name" v="Åmøy, austre" />
		<tag k="fixme" v="consider place=hamlet" />
		<tag k="name" v="Austre Åmøy" />
		<tag k="place" v="village" />
		<tag k="ssr:stedsnr" v="122754" />
	</node>
	<node id="-394034" lat="58.9871257144" lon="5.7689468042">
		<tag k="name" v="Midtholmen" />
		<tag k="place" v="islet" />
		<tag k="ssr:stedsnr" v="122109" />
	</node>
	<node id="-394033" lat="58.9821138845" lon="5.67850277444">
		<tag k="name" v="Tasta" />
		<tag k="place" v="farm" />
		<tag k="ssr:stedsnr" v="122066" />
	</node>
	<node id="-394032" lat="58.9573238305" lon="5.76060005624">
		<tag k="alt_name" v="Ramsvik" />
		<tag k="name" v="Ramsvig" />
		<tag k="natural" v="bay" />
		<tag k="old_name" v="Ramsvika" />
		<tag k="ssr:stedsnr" v="122045" />
	</node>
	<node id="-394031" lat="58.9095000003" lon="5.69178610297">
		<tag k="name" v="Jåttå" />
		<tag k="place" v="farm" />
		<tag k="ssr:stedsnr" v="122027" />
	</node>
	<node id="-394030" lat="58.9343006336" lon="5.71821727923">
		<tag k="alt_name" v="Auklend" />
		<tag k="fixme" v="consider place=hamlet" />
		<tag k="name" v="Auglend" />
		<tag k="place" v="farm" />
		<tag k="ssr:stedsnr" v="121068" />
	</node>
	<node id="-394029" lat="58.9897333338" lon="5.81278610565">
		<tag k="name" v="Sørvika" />
		<tag k="natural" v="bay" />
		<tag k="ssr:stedsnr" v="116864" />
	</node>
	<node id="-394028" lat="58.9870444446" lon="5.71420277355">
		<tag k="name" v="Ulsnesgrunnen" />
		<tag k="natural" v="shoal" />
		<tag k="place" v="locality" />
		<tag k="ssr:stedsnr" v="116315" />
	</node>
	<node id="-394027" lat="58.9879972264" lon="5.82729443588">
		<tag k="name" v="Kalvasundet" />
		<tag k="natural" v="strait" />
		<tag k="ssr:stedsnr" v="116988" />
	</node>
	<node id="-394026" lat="59.0402944452" lon="5.73412500256">
		<tag k="name" v="Varasletta" />
		<tag k="place" v="locality" />
		<tag k="ssr:stedsnr" v="113435" />
	</node>
	<node id="-394025" lat="58.8982027764" lon="5.70974999213">
		<tag k="bridge" v="yes" />
		<tag k="layer" v="1" />
		<tag k="name" v="Godeset" />
		<tag k="ssr:stedsnr" v="108325" />
	</node>
	<node id="-394024" lat="58.9500305577" lon="5.72163333933">
		<tag k="bridge" v="yes" />
		<tag k="layer" v="1" />
		<tag k="name" v="Barnas Hus" />
		<tag k="ssr:stedsnr" v="108321" />
	</node>
	<node id="-394023" lat="58.9346444422" lon="5.68253054771">
		<tag k="bridge" v="yes" />
		<tag k="layer" v="1" />
		<tag k="name" v="Madlalia" />
		<tag k="ssr:stedsnr" v="108320" />
	</node>
	<node id="-394022" lat="58.9516666666" lon="5.65404167488">
		<tag k="bridge" v="yes" />
		<tag k="layer" v="1" />
		<tag k="name" v="Ragbakken" />
		<tag k="ssr:stedsnr" v="108316" />
	</node>
	<node id="-394021" lat="58.9893888885" lon="5.66021388254">
		<tag k="bridge" v="yes" />
		<tag k="layer" v="1" />
		<tag k="name" v="Høie" />
		<tag k="ssr:stedsnr" v="108310" />
	</node>
	<node id="-394020" lat="58.9764416645" lon="5.61356111133">
		<tag k="bridge" v="yes" />
		<tag k="layer" v="1" />
		<tag k="name" v="Kvernevik" />
		<tag k="ssr:stedsnr" v="108308" />
	</node>
	<node id="-394019" lat="58.9609499984" lon="5.62396944502">
		<tag k="bridge" v="yes" />
		<tag k="layer" v="1" />
		<tag k="name" v="Sunde" />
		<tag k="ssr:stedsnr" v="108296" />
	</node>
	<node id="-394018" lat="58.8936333298" lon="5.71725555055">
		<tag k="bridge" v="yes" />
		<tag k="layer" v="1" />
		<tag k="name" v="Statoil" />
		<tag k="ssr:stedsnr" v="108290" />
	</node>
	<node id="-394017" lat="58.9620519259" lon="5.76890907239">
		<tag k="name" v="Pannevikodden" />
		<tag k="natural" v="cape" />
		<tag k="ssr:stedsnr" v="106186" />
	</node>
	<node id="-394016" lat="58.9794761369" lon="5.728707775">
		<tag k="name" v="Majorgrunnen" />
		<tag k="natural" v="shoal" />
		<tag k="place" v="locality" />
		<tag k="ssr:stedsnr" v="102850" />
	</node>
	<node id="-394014" lat="59.0201361097" lon="5.76636389506">
		<tag k="name" v="Sandøyvarden" />
		<tag k="natural" v="cape" />
		<tag k="ssr:stedsnr" v="102794" />
	</node>
	<node id="-394013" lat="58.9696999986" lon="5.73030000454">
		<tag k="name" v="Ankertorget" />
		<tag k="place" v="square" />
		<tag k="ssr:stedsnr" v="101794" />
	</node>
	<node id="-394010" lat="58.9395472187" lon="5.66313055513">
		<tag k="alt_name" v="Teglverket" />
		<tag k="name" v="Verket" />
		<tag k="natural" v="cape" />
		<tag k="ssr:stedsnr" v="100971" />
	</node>
	<node id="-394009" lat="58.9708805519" lon="5.64929166555">
		<tag k="name" v="Mulen" />
		<tag k="natural" v="slope" />
		<tag k="place" v="locality" />
		<tag k="ssr:stedsnr" v="100939" />
	</node>
	<node id="-394008" lat="58.98693889" lon="5.69354444367">
		<tag k="name" v="Gjerdaberget" />
		<tag k="natural" v="hill" />
		<tag k="place" v="locality" />
		<tag k="ssr:stedsnr" v="100861" />
	</node>
	<node id="-394007" lat="58.9708750022" lon="5.72834445018">
		<tag k="name" v="Dahlalmenningen" />
		<tag k="old_name" v="Dahlealmendingen" />
		<tag k="place" v="locality" />
		<tag k="ssr:stedsnr" v="100842" />
	</node>
	<node id="-394006" lat="58.9752694483" lon="5.71951943636">
		<tag k="name" v="Bybergplassen" />
		<tag k="place" v="square" />
		<tag k="ssr:stedsnr" v="100841" />
	</node>
	<node id="-394005" lat="58.9788555583" lon="5.74264445149">
		<tag k="alt_name" v="Nordvigå" />
		<tag k="name" v="Nordvika" />
		<tag k="natural" v="bay" />
		<tag k="old_name" v="Nordalsbugten" />
		<tag k="ssr:stedsnr" v="100783" />
	</node>
	<node id="-394004" lat="58.9174199271" lon="5.72332065256">
		<tag k="name" v="Hinna" />
		<tag k="place" v="suburb" />
		<tag k="ssr:stedsnr" v="100623" />
	</node>
	<node id="-394001" lat="58.9701638927" lon="5.73043055599">
		<tag k="name" v="Torget" />
		<tag k="place" v="square" />
		<tag k="ssr:stedsnr" v="100085" />
	</node>
	<node id="-394000" lat="58.9507638848" lon="5.64639166303">
		<tag k="name" v="Fredtun" />
		<tag k="place" v="farm" />
		<tag k="ssr:stedsnr" v="99954" />
	</node>
	<node id="-393999" lat="58.9608083293" lon="5.60767499608">
		<tag k="name" v="Donevika" />
		<tag k="natural" v="bay" />
		<tag k="ssr:stedsnr" v="99936" />
	</node>
	<node id="-393998" lat="58.9858611146" lon="5.81093333664">
		<tag k="name" v="Lindøygrunnen" />
		<tag k="natural" v="shoal" />
		<tag k="place" v="locality" />
		<tag k="ssr:stedsnr" v="86298" />
	</node>
	<node id="-393997" lat="58.9860611131" lon="5.68319444608">
		<tag k="name" v="Rusta" />
		<tag k="natural" v="ridge" />
		<tag k="place" v="locality" />
		<tag k="ssr:stedsnr" v="85927" />
	</node>
	<node id="-393996" lat="58.9543166624" lon="5.69521666679">
		<tag k="leisure" v="pitch" />
		<tag k="name" v="Siddishallen" />
		<tag k="ssr:stedsnr" v="85244" />
	</node>
	<node id="-393995" lat="58.9660500004" lon="5.59642221711">
		<tag k="alt_name" v="Kjøpenhamnbukta" />
		<tag k="name" v="Kjøbenhavnbukta" />
		<tag k="natural" v="bay" />
		<tag k="ssr:stedsnr" v="84382" />
	</node>
	<node id="-393994" lat="58.9429138923" lon="5.6428861179">
		<tag k="name" v="Gåsaberget" />
		<tag k="natural" v="hill" />
		<tag k="place" v="locality" />
		<tag k="ssr:stedsnr" v="84356" />
	</node>
	<node id="-393993" lat="58.9198305548" lon="5.71649445306">
		<tag k="alt_name" v="Vågadalen" />
		<tag k="name" v="Vågedalen" />
		<tag k="natural" v="valley" />
		<tag k="place" v="locality" />
		<tag k="ssr:stedsnr" v="84198" />
	</node>
	<node id="-393992" lat="58.9925333345" lon="5.67005278546">
		<tag k="name" v="Tastamyra" />
		<tag k="natural" v="wetland" />
		<tag k="ssr:stedsnr" v="84184" />
	</node>
	<node id="-393991" lat="58.9507777751" lon="5.63351111244">
		<tag k="name" v="Korpsdalen" />
		<tag k="natural" v="valley" />
		<tag k="place" v="locality" />
		<tag k="ssr:stedsnr" v="84183" />
	</node>
	<node id="-393990" lat="58.9487972264" lon="5.65531667393">
		<tag k="name" v="Revheimsmyra" />
		<tag k="natural" v="wetland" />
		<tag k="ssr:stedsnr" v="84182" />
	</node>
	<node id="-393989" lat="58.9636277825" lon="5.63262778558">
		<tag k="alt_name" v="Kvidemyr" />
		<tag k="name" v="Kvitemyr" />
		<tag k="natural" v="wetland" />
		<tag k="ssr:stedsnr" v="84177" />
	</node>
	<node id="-393988" lat="58.9548111121" lon="5.65197499729">
		<tag k="alt_name" v="Alvarsteinen" />
		<tag k="name" v="Alvasteinen" />
		<tag k="natural" v="stone" />
		<tag k="ssr:stedsnr" v="84178" />
	</node>
	<node id="-393987" lat="58.9194027742" lon="5.73568611009">
		<tag k="name" v="Nautholmen" />
		<tag k="natural" v="cape" />
		<tag k="ssr:stedsnr" v="84067" />
	</node>
	<node id="-393986" lat="58.9791583299" lon="5.73773333607">
		<tag k="alt_name" v="Klasaskjæret" />
		<tag k="fixme" v="consider seamark:type=rock or natural=shoal" />
		<tag k="name" v="Klasaskjeret" />
		<tag k="old_name" v="Claseskjæret" />
		<tag k="place" v="islet" />
		<tag k="ssr:stedsnr" v="84058" />
	</node>
	<node id="-393985" lat="58.9736638888" lon="5.73347778577">
		<tag k="alt_name" v="Børevigå" />
		<tag k="name" v="Børevika" />
		<tag k="natural" v="bay" />
		<tag k="old_name" v="Børrevigen" />
		<tag k="ssr:stedsnr" v="84045" />
	</node>
	<node id="-393984" lat="58.9631138871" lon="5.76526110883">
		<tag k="name" v="Egeland" />
		<tag k="place" v="quarter" />
		<tag k="ssr:stedsnr" v="84028" />
	</node>
	<node id="-393983" lat="58.9958138868" lon="5.7536166628">
		<tag k="name" v="Kalvhagsundet" />
		<tag k="natural" v="strait" />
		<tag k="ssr:stedsnr" v="84011" />
	</node>
	<node id="-393982" lat="59.005433334" lon="5.78244166581">
		<tag k="name" v="Davidsholmen" />
		<tag k="place" v="islet" />
		<tag k="ssr:stedsnr" v="62977" />
	</node>
	<node id="-393981" lat="59.0094722201" lon="5.78394444072">
		<tag k="alt_name" v="Lindøy, l;Litle Lindøy;Litla Lindøy" />
		<tag k="name" v="Lindholmen" />
		<tag k="place" v="islet" />
		<tag k="ssr:stedsnr" v="62976" />
	</node>
	<node id="-393980" lat="59.0432861087" lon="5.75063889134">
		<tag k="name" v="Austre Åmøy" />
		<tag k="place" v="island" />
		<tag k="ssr:stedsnr" v="62807" />
	</node>
	<node id="-393979" lat="59.0194000029" lon="5.77014999721">
		<tag k="alt_name" v="Sandøyvågen, nordre" />
		<tag k="name" v="Nordre Sandøyvågen" />
		<tag k="natural" v="bay" />
		<tag k="ssr:stedsnr" v="62775" />
	</node>
	<node id="-393978" lat="59.0016722181" lon="5.73178888647">
		<tag k="name" v="Hundvåg" />
		<tag k="old_name" v="Hundvaag" />
		<tag k="place" v="island" />
		<tag k="ssr:stedsnr" v="62772" />
	</node>
	<node id="-393977" lat="58.9985194473" lon="5.78518054997">
		<tag k="name" v="Vassøy" />
		<tag k="place" v="island" />
		<tag k="ssr:stedsnr" v="61101" />
	</node>
	<node id="-393976" lat="58.9519648113" lon="5.69744985397">
		<tag k="alt_name" v="Tjensvoll, nedre" />
		<tag k="fixme" v="consider place=hamlet" />
		<tag k="name" v="Nedre Tjensvoll" />
		<tag k="place" v="farm" />
		<tag k="ssr:stedsnr" v="61079" />
	</node>
	<node id="-393975" lat="58.9624361114" lon="5.6879916598">
		<tag k="alt_name" v="Stokka, øvre;Stokka" />
		<tag k="name" v="Øvre Stokka" />
		<tag k="place" v="farm" />
		<tag k="ssr:stedsnr" v="61077" />
	</node>
	<node id="-393974" lat="58.9711720511" lon="5.69130484538">
		<tag k="name" v="Litla Stokkavatnet" />
		<tag k="natural" v="water" />
		<tag k="ssr:stedsnr" v="61069" />
	</node>
	<node id="-393973" lat="58.9830222196" lon="5.83553333599">
		<tag k="name" v="Kalvøysundet" />
		<tag k="natural" v="strait" />
		<tag k="ssr:stedsnr" v="61061" />
	</node>
	<node id="-393972" lat="58.9850903918" lon="5.67374688708">
		<tag k="alt_name" v="Tasta, nedre" />
		<tag k="fixme" v="consider place=hamlet" />
		<tag k="name" v="Nedre Tasta" />
		<tag k="place" v="farm" />
		<tag k="ssr:stedsnr" v="61056" />
	</node>
	<node id="-393971" lat="58.9754983468" lon="5.6279936708">
		<tag k="name" v="Hålandsvatnet" />
		<tag k="natural" v="water" />
		<tag k="ssr:stedsnr" v="61052" />
		<tag k="water" v="lake" />
	</node>
	<node id="-393969" lat="58.916208335" lon="5.73105277489">
		<tag k="name" v="Olav Olsens plass" />
		<tag k="place" v="square" />
		<tag k="ssr:stedsnr" v="57484" />
	</node>
	<node id="-393968" lat="58.9946083309" lon="5.70947500786">
		<tag k="name" v="Ulsnesvika" />
		<tag k="natural" v="bay" />
		<tag k="ssr:stedsnr" v="55318" />
	</node>
	<node id="-393967" lat="59.0047777759" lon="5.78871111345">
		<tag k="name" v="Vassøytåna" />
		<tag k="natural" v="cape" />
		<tag k="ssr:stedsnr" v="55249" />
	</node>
	<node id="-393966" lat="59.0041611067" lon="5.77221943627">
		<tag k="name" v="Tasavågen" />
		<tag k="natural" v="bay" />
		<tag k="ssr:stedsnr" v="55246" />
	</node>
	<node id="-393965" lat="59.045161114" lon="5.72745277199">
		<tag k="name" v="Taravik" />
		<tag k="natural" v="bay" />
		<tag k="ssr:stedsnr" v="52423" />
	</node>
	<node id="-393964" lat="59.0484123974" lon="5.73265926631">
		<tag k="alt_name" v="Rosnes" />
		<tag k="name" v="Rossnes" />
		<tag k="place" v="locality" />
		<tag k="ssr:stedsnr" v="52407" />
	</node>
	<node id="-393963" lat="58.9835888904" lon="5.67692222763">
		<tag k="bridge" v="yes" />
		<tag k="layer" v="1" />
		<tag k="name" v="Eskelandsveien" />
		<tag k="ssr:stedsnr" v="47338" />
	</node>
	<node id="-393962" lat="58.9363777745" lon="5.72415832713">
		<tag k="bridge" v="yes" />
		<tag k="layer" v="1" />
		<tag k="name" v="Auglendsdalen" />
		<tag k="ssr:stedsnr" v="47328" />
	</node>
	<node id="-393961" lat="58.9139277751" lon="5.72411388555">
		<tag k="bridge" v="yes" />
		<tag k="layer" v="1" />
		<tag k="name" v="Kyrkjehaugen" />
		<tag k="ssr:stedsnr" v="47313" />
	</node>
	<node id="-393955" lat="58.8994754289" lon="5.7402512798">
		<tag k="name" v="Gausel holdeplass" />
		<tag k="railway" v="halt" />
		<tag k="ssr:stedsnr" v="41148" />
		<tag k="train" v="yes" />
	</node>
	<node id="-393954" lat="58.9656388898" lon="5.72217499137">
		<tag k="name" v="Breidablikk" />
		<tag k="place" v="locality" />
		<tag k="ssr:stedsnr" v="40809" />
	</node>
	<node id="-393952" lat="58.9918166678" lon="5.71951111952">
		<tag k="name" v="Kuholmen" />
		<tag k="natural" v="cape" />
		<tag k="ssr:stedsnr" v="40228" />
	</node>
	<node id="-393951" lat="58.9807444399" lon="5.72561388285">
		<tag k="name" v="Midtgrunnen" />
		<tag k="natural" v="shoal" />
		<tag k="place" v="locality" />
		<tag k="ssr:stedsnr" v="40212" />
	</node>
	<node id="-393950" lat="58.9845055532" lon="5.75463054818">
		<tag k="name" v="Kjerringneset" />
		<tag k="natural" v="cape" />
		<tag k="ssr:stedsnr" v="40186" />
	</node>
	<node id="-393947" lat="58.8889833356" lon="5.73916388489">
		<tag k="name" v="Geitestova" />
		<tag k="place" v="locality" />
		<tag k="ssr:stedsnr" v="39974" />
	</node>
	<node id="-393946" lat="58.951075002" lon="5.64149166904">
		<tag k="name" v="Storåkeren" />
		<tag k="place" v="locality" />
		<tag k="ssr:stedsnr" v="39941" />
	</node>
	<node id="-393945" lat="58.9615583349" lon="5.63289999818">
		<tag k="name" v="Trønå" />
		<tag k="place" v="locality" />
		<tag k="ssr:stedsnr" v="39935" />
	</node>
	<node id="-393944" lat="58.9693472189" lon="5.73264721467">
		<tag k="name" v="Kongsgård" />
		<tag k="old_name" v="Kongsgaard" />
		<tag k="place" v="locality" />
		<tag k="ssr:stedsnr" v="39863" />
	</node>
	<node id="-393942" lat="58.9961446843" lon="5.65540418758">
		<tag k="fixme" v="consider place=suburb, village or hamlet" />
		<tag k="name" v="Finnestad" />
		<tag k="place" v="quarter" />
		<tag k="ssr:stedsnr" v="39601" />
	</node>
	<node id="-393941" lat="58.9756388903" lon="5.72308889577">
		<tag k="man_made" v="quay" />
		<tag k="name" v="Sandvigsbryggå" />
		<tag k="old_name" v="Sandvigsbryggen" />
		<tag k="place" v="locality" />
		<tag k="ssr:stedsnr" v="39130" />
	</node>
	<node id="-393940" lat="58.9224972186" lon="5.74342221751">
		<tag k="name" v="Hindalsgrunnen" />
		<tag k="natural" v="shoal" />
		<tag k="place" v="locality" />
		<tag k="ssr:stedsnr" v="39072" />
	</node>
	<node id="-393939" lat="58.9514583292" lon="5.74067221967">
		<tag k="name" v="Frida Hansens hus" />
		<tag k="place" v="isolated_dwelling" />
		<tag k="ssr:stedsnr" v="26413" />
	</node>
	<node id="-393938" lat="59.0017916631" lon="5.73978056428">
		<tag k="amenity" v="school" />
		<tag k="name" v="Lunde skole" />
		<tag k="ssr:stedsnr" v="25395" />
	</node>
	<node id="-393937" lat="58.9571944446" lon="5.76259167056">
		<tag k="name" v="Ramsvigodden" />
		<tag k="natural" v="cape" />
		<tag k="ssr:stedsnr" v="25291" />
	</node>
	<node id="-393936" lat="58.9649777746" lon="5.71164721701">
		<tag k="leisure" v="pitch" />
		<tag k="name" v="Stavanger stadion" />
		<tag k="ssr:stedsnr" v="24293" />
	</node>
	<node id="-393934" lat="58.8985722247" lon="5.71807777682">
		<tag k="name" v="Heddå" />
		<tag k="natural" v="hill" />
		<tag k="place" v="locality" />
		<tag k="ssr:stedsnr" v="24232" />
	</node>
	<node id="-393932" lat="58.9317888887" lon="5.72117778046">
		<tag k="name" v="Hinnaberget" />
		<tag k="natural" v="hill" />
		<tag k="place" v="locality" />
		<tag k="ssr:stedsnr" v="24155" />
	</node>
	<node id="-393931" lat="58.9540361154" lon="5.64178888878">
		<tag k="name" v="Kuleberget" />
		<tag k="natural" v="hill" />
		<tag k="place" v="locality" />
		<tag k="ssr:stedsnr" v="24130" />
	</node>
	<node id="-393930" lat="58.9158888877" lon="5.7230833291">
		<tag k="leisure" v="pitch" />
		<tag k="name" v="Hinna stadion" />
		<tag k="ssr:stedsnr" v="24041" />
	</node>
	<node id="-393929" lat="58.9788750012" lon="5.72969721943">
		<tag k="name" v="Majoren" />
		<tag k="old_name" v="Majorholmen" />
		<tag k="place" v="islet" />
		<tag k="ssr:stedsnr" v="24037" />
	</node>
	<node id="-393928" lat="58.9676555514" lon="5.72120277813">
		<tag k="amenity" v="school" />
		<tag k="name" v="Hermetikkfagskolen" />
		<tag k="ssr:stedsnr" v="24010" />
	</node>
	<node id="-393927" lat="58.9374027768" lon="5.72517778162">
		<tag k="amenity" v="kindergarten" />
		<tag k="name" v="Vannassen barnehage" />
		<tag k="ssr:stedsnr" v="20212" />
	</node>
	<node id="-393926" lat="59.0364361138" lon="5.74401389103">
		<tag k="alt_name" v="Melingsvågen;Storevågen" />
		<tag k="name" v="Storevåg" />
		<tag k="natural" v="bay" />
		<tag k="ssr:stedsnr" v="1800" />
	</node>
	<node id="-393925" lat="59.0515083321" lon="5.74424166027">
		<tag k="name" v="Espholmen" />
		<tag k="place" v="islet" />
		<tag k="ssr:stedsnr" v="1783" />
	</node>
	<node id="-393924" lat="59.0493027813" lon="5.74698055251">
		<tag k="name" v="Vaulen" />
		<tag k="natural" v="cape" />
		<tag k="ssr:stedsnr" v="1781" />
	</node>
	<node id="-393923" lat="59.0079722244" lon="5.76666667228">
		<tag k="name" v="Langøy" />
		<tag k="place" v="island" />
		<tag k="ssr:stedsnr" v="1356" />
	</node>
	<node id="-393922" lat="58.9746893971" lon="5.82411973511">
		<tag k="name" v="Tyttebærholmen" />
		<tag k="place" v="islet" />
		<tag k="ssr:stedsnr" v="1102" />
	</node>
	<node id="-393921" lat="58.9406287547" lon="5.65403178762">
		<tag k="fixme" v="consider place=hamlet" />
		<tag k="name" v="Madla" />
		<tag k="place" v="farm" />
		<tag k="ssr:stedsnr" v="1075" />
	</node>
	<node id="-393920" lat="58.9391416653" lon="5.68788611102">
		<tag k="name" v="Gosen" />
		<tag k="place" v="farm" />
		<tag k="ssr:stedsnr" v="1074" />
	</node>
	<node id="-393919" lat="58.9532612423" lon="5.64907368793">
		<tag k="name" v="Voll" />
		<tag k="place" v="farm" />
		<tag k="ssr:stedsnr" v="1042" />
	</node>
	<node id="-393918" lat="58.9844527811" lon="5.81052777334">
		<tag k="alt_name" v="Hedlesøysundet" />
		<tag k="name" v="Hellesøysundet" />
		<tag k="natural" v="strait" />
		<tag k="ssr:stedsnr" v="137" />
	</node>
	<node id="-393917" lat="59.0013767994" lon="5.66726294356">
		<tag k="loc_name" v="Dusavig" />
		<tag k="name" v="Dusaviga" />
		<tag k="natural" v="bay" />
		<tag k="ssr:stedsnr" v="112" />
	</node>
	<node id="-393916" lat="58.9978117472" lon="5.72461293302">
		<tag k="alt_name" v="Husebø" />
		<tag k="fixme" v="consider place=hamlet" />
		<tag k="name" v="Husabø" />
		<tag k="place" v="farm" />
		<tag k="ssr:stedsnr" v="110" />
	</node>
	<node id="-393915" lat="58.9706555519" lon="5.61436389659">
		<tag k="name" v="Haraberget" />
		<tag k="place" v="farm" />
		<tag k="ssr:stedsnr" v="64" />
	</node>
	<node id="-393913" lat="58.9935482566" lon="5.67510107695">
		<tag k="amenity" v="place_of_worship" />
		<tag k="denomination" v="lutheran" />
		<tag k="name" v="Vardeneset kirke" />
		<tag k="religion" v="christian" />
		<tag k="ssr:stedsnr" v="991229" />
	</node>
	<node id="-393912" lat="58.9505860741" lon="5.70231793804">
		<tag k="amenity" v="place_of_worship" />
		<tag k="denomination" v="lutheran" />
		<tag k="name" v="Tjensvoll kirke" />
		<tag k="religion" v="christian" />
		<tag k="ssr:stedsnr" v="991228" />
	</node>
	<node id="-393911" lat="58.9656006868" lon="5.73861548166">
		<tag k="amenity" v="place_of_worship" />
		<tag k="denomination" v="lutheran" />
		<tag k="name" v="Stavanger Døvekirken i" />
		<tag k="religion" v="christian" />
		<tag k="ssr:stedsnr" v="991227" />
	</node>
	<node id="-393910" lat="58.898721687" lon="5.72242395628">
		<tag k="amenity" v="place_of_worship" />
		<tag k="denomination" v="lutheran" />
		<tag k="name" v="Gausel kirke" />
		<tag k="religion" v="christian" />
		<tag k="ssr:stedsnr" v="991188" />
	</node>
	<node id="-393909" lat="58.9133474956" lon="5.72778643052">
		<tag k="amenity" v="school" />
		<tag k="name" v="Jåttå videregående skole" />
		<tag k="ssr:stedsnr" v="988891" />
	</node>
	<node id="-393907" lat="58.9456865872" lon="5.63154581499">
		<tag k="name" v="Vesthei" />
		<tag k="place" v="quarter" />
		<tag k="ssr:stedsnr" v="988885" />
	</node>
	<node id="-393903" lat="59.0002810444" lon="5.74444008791">
		<tag k="name" v="Hunstein" />
		<tag k="place" v="quarter" />
		<tag k="ssr:stedsnr" v="988880" />
	</node>
	<node id="-393902" lat="58.9922741289" lon="5.68621370338">
		<tag k="name" v="Byåsen" />
		<tag k="place" v="quarter" />
		<tag k="ssr:stedsnr" v="988879" />
	</node>
	<node id="-393901" lat="58.9872784824" lon="5.68618722601">
		<tag k="name" v="Tastarustå" />
		<tag k="place" v="quarter" />
		<tag k="ssr:stedsnr" v="988877" />
	</node>
	<node id="-393900" lat="58.9809363576" lon="5.71447366085">
		<tag k="name" v="Kalhammaren" />
		<tag k="place" v="quarter" />
		<tag k="ssr:stedsnr" v="988874" />
	</node>
	<node id="-393899" lat="58.9580685967" lon="5.7484555084">
		<tag k="fixme" v="consider place=suburb, village or hamlet" />
		<tag k="name" v="Varden" />
		<tag k="place" v="quarter" />
		<tag k="ssr:stedsnr" v="988872" />
	</node>
	<node id="-393898" lat="58.9600573543" lon="5.7536220213">
		<tag k="name" v="Midjord" />
		<tag k="place" v="quarter" />
		<tag k="ssr:stedsnr" v="988870" />
	</node>
	<node id="-393897" lat="58.9519448534" lon="5.71823263388">
		<tag k="name" v="Schancheholen" />
		<tag k="place" v="quarter" />
		<tag k="ssr:stedsnr" v="988869" />
	</node>
	<node id="-393891" lat="58.9049285554" lon="5.718797183">
		<tag k="name" v="Eikeset" />
		<tag k="place" v="quarter" />
		<tag k="ssr:stedsnr" v="988860" />
	</node>
	<node id="-393890" lat="58.9007905827" lon="5.74155299025">
		<tag k="name" v="Frøystad" />
		<tag k="place" v="quarter" />
		<tag k="ssr:stedsnr" v="988778" />
	</node>
	<node id="-393889" lat="58.8915229853" lon="5.74674165923">
		<tag k="name" v="Forusstraen" />
		<tag k="place" v="quarter" />
		<tag k="ssr:stedsnr" v="988777" />
	</node>
	<node id="-393886" lat="58.9653588514" lon="5.75026007182">
		<tag k="fixme" v="consider place=suburb, village or hamlet" />
		<tag k="name" v="Nylund" />
		<tag k="place" v="quarter" />
		<tag k="ssr:stedsnr" v="988767" />
	</node>
	<node id="-393885" lat="58.9675037823" lon="5.75665640747">
		<tag k="fixme" v="consider place=suburb, village or hamlet" />
		<tag k="name" v="Lervig" />
		<tag k="place" v="quarter" />
		<tag k="ssr:stedsnr" v="988766" />
	</node>
	<node id="-393884" lat="58.974895834" lon="5.7185064122">
		<tag k="fixme" v="consider place=suburb, village or hamlet" />
		<tag k="name" v="Bjergsted" />
		<tag k="place" v="quarter" />
		<tag k="ssr:stedsnr" v="988769" />
	</node>
	<node id="-393883" lat="58.9675837927" lon="5.73626480842">
		<tag k="fixme" v="consider place=suburb, village or hamlet" />
		<tag k="name" v="Bergeland" />
		<tag k="place" v="quarter" />
		<tag k="ssr:stedsnr" v="988470" />
	</node>
	<node id="-393882" lat="58.9705393978" lon="5.74031143429">
		<tag k="fixme" v="consider place=suburb, village or hamlet" />
		<tag k="name" v="Blåsenborg" />
		<tag k="place" v="quarter" />
		<tag k="ssr:stedsnr" v="988469" />
	</node>
	<node id="-393881" lat="58.9734568394" lon="5.73064957445">
		<tag k="fixme" v="consider place=suburb, village or hamlet" />
		<tag k="name" v="Holmen" />
		<tag k="place" v="quarter" />
		<tag k="ssr:stedsnr" v="988468" />
	</node>
	<node id="-393876" lat="58.9569354329" lon="5.69378200843">
		<tag k="fixme" v="consider place=suburb, village or hamlet" />
		<tag k="name" v="Lassa" />
		<tag k="place" v="quarter" />
		<tag k="ssr:stedsnr" v="988370" />
	</node>
	<node id="-393873" lat="58.9450705019" lon="5.74611038571">
		<tag k="fixme" v="consider place=suburb, village or hamlet" />
		<tag k="name" v="Kvalaberg" />
		<tag k="place" v="quarter" />
		<tag k="ssr:stedsnr" v="988363" />
	</node>
	<node id="-393872" lat="58.9688518943" lon="5.72928470256">
		<tag k="name" v="Store trappegang" />
		<tag k="place" v="locality" />
		<tag k="ssr:stedsnr" v="987514" />
	</node>
	<node id="-393871" lat="58.968678256" lon="5.7292655601">
		<tag k="name" v="Litle trappegang" />
		<tag k="place" v="locality" />
		<tag k="ssr:stedsnr" v="987513" />
	</node>
	<node id="-393864" lat="58.9634020812" lon="5.73458881544">
		<tag k="fixme" v="consider place=suburb, village or hamlet" />
		<tag k="name" v="Lagård" />
		<tag k="place" v="quarter" />
		<tag k="ssr:stedsnr" v="985641" />
	</node>
	<node id="-393863" lat="58.9675662227" lon="5.70399057288">
		<tag k="fixme" v="consider place=suburb, village or hamlet" />
		<tag k="name" v="Stokkadalen" />
		<tag k="place" v="quarter" />
		<tag k="ssr:stedsnr" v="985639" />
	</node>
	<node id="-393862" lat="58.9662253555" lon="5.68946133182">
		<tag k="fixme" v="consider place=suburb, village or hamlet" />
		<tag k="name" v="Nedre Stokka" />
		<tag k="place" v="quarter" />
		<tag k="ssr:stedsnr" v="985638" />
	</node>
	<node id="-393861" lat="58.9977641978" lon="5.78504913235">
		<tag k="name" v="Vassøy" />
		<tag k="place" v="suburb" />
		<tag k="ssr:stedsnr" v="985625" />
	</node>
	<node id="-393860" lat="58.9874313222" lon="5.73093679359">
		<tag k="name" v="Buøy" />
		<tag k="place" v="suburb" />
		<tag k="ssr:stedsnr" v="985623" />
	</node>
	<node id="-393859" lat="58.9623327765" lon="5.68930039555">
		<tag k="fixme" v="consider place=suburb, village or hamlet" />
		<tag k="name" v="Øvre Stokka" />
		<tag k="place" v="quarter" />
		<tag k="ssr:stedsnr" v="985621" />
	</node>
	<node id="-393858" lat="58.9410254255" lon="5.68567937512">
		<tag k="fixme" v="consider place=suburb, village or hamlet" />
		<tag k="name" v="Gosen" />
		<tag k="place" v="quarter" />
		<tag k="ssr:stedsnr" v="985618" />
	</node>
	<node id="-393857" lat="58.9493673847" lon="5.72573625041">
		<tag k="fixme" v="consider place=suburb, village or hamlet" />
		<tag k="name" v="Bekkefaret" />
		<tag k="place" v="quarter" />
		<tag k="ssr:stedsnr" v="985616" />
	</node>
	<node id="-393856" lat="58.9105502872" lon="5.73009369713">
		<tag k="fixme" v="consider place=suburb, village or hamlet" />
		<tag k="name" v="Boganes" />
		<tag k="place" v="quarter" />
		<tag k="ssr:stedsnr" v="985615" />
	</node>
	<node id="-393855" lat="58.9611884218" lon="5.62140289802">
		<tag k="name" v="Sunde" />
		<tag k="place" v="suburb" />
		<tag k="ssr:stedsnr" v="985599" />
	</node>
	<node id="-393853" lat="58.9337451574" lon="5.68202798753">
		<tag k="name" v="Liapynten" />
		<tag k="natural" v="cape" />
		<tag k="ssr:stedsnr" v="607058" />
	</node>
	<node id="-393852" lat="58.9473527745" lon="5.74045833649">
		<tag k="bridge" v="yes" />
		<tag k="layer" v="1" />
		<tag k="name" v="Gartnerveien" />
		<tag k="ssr:stedsnr" v="897321" />
	</node>
	<node id="-393851" lat="58.9931888877" lon="5.73272500649">
		<tag k="bridge" v="yes" />
		<tag k="layer" v="1" />
		<tag k="name" v="Galeivågen" />
		<tag k="ssr:stedsnr" v="897320" />
	</node>
	<node id="-393850" lat="58.9395083379" lon="5.68666389101">
		<tag k="bridge" v="yes" />
		<tag k="layer" v="1" />
		<tag k="name" v="Gosen" />
		<tag k="ssr:stedsnr" v="897308" />
	</node>
	<node id="-393849" lat="58.9614277759" lon="5.73341110585">
		<tag k="name" v="Herman Beckers plass" />
		<tag k="place" v="square" />
		<tag k="ssr:stedsnr" v="894900" />
	</node>
	<node id="-393848" lat="58.9311527823" lon="5.75456666942">
		<tag k="name" v="Lyngneset" />
		<tag k="natural" v="cape" />
		<tag k="ssr:stedsnr" v="891792" />
	</node>
	<node id="-393846" lat="59.0291416622" lon="5.75772499576">
		<tag k="name" v="Storholmsundet" />
		<tag k="natural" v="strait" />
		<tag k="ssr:stedsnr" v="891761" />
	</node>
	<node id="-393845" lat="58.991086109" lon="5.75075278313">
		<tag k="name" v="Dragaberg" />
		<tag k="natural" v="hill" />
		<tag k="place" v="locality" />
		<tag k="ssr:stedsnr" v="890845" />
	</node>
	<node id="-393844" lat="58.9110361106" lon="5.72766666526">
		<tag k="name" v="Kyrkjehaugen" />
		<tag k="natural" v="hill" />
		<tag k="place" v="locality" />
		<tag k="ssr:stedsnr" v="890835" />
	</node>
	<node id="-393843" lat="58.960513891" lon="5.75627777945">
		<tag k="name" v="Midjord" />
		<tag k="place" v="locality" />
		<tag k="ssr:stedsnr" v="889997" />
	</node>
	<node id="-393842" lat="58.945830556" lon="5.75384722812">
		<tag k="name" v="Torsnes" />
		<tag k="natural" v="cape" />
		<tag k="ssr:stedsnr" v="889969" />
	</node>
	<node id="-393841" lat="58.9677249998" lon="5.61162222705">
		<tag k="fixme" v="consider place=suburb, village or hamlet" />
		<tag k="loc_name" v="Nord Sunde" />
		<tag k="name" v="Nord-Sunde" />
		<tag k="place" v="quarter" />
		<tag k="ssr:stedsnr" v="889646" />
	</node>
	<node id="-393840" lat="59.0411000018" lon="5.76402778258">
		<tag k="fixme" v="consider place=hamlet" />
		<tag k="name" v="Lunde Søre" />
		<tag k="place" v="village" />
		<tag k="ssr:stedsnr" v="889569" />
	</node>
	<node id="-393839" lat="58.9402564788" lon="5.74189532318">
		<tag k="alt_name" v="Kristianlyst" />
		<tag k="name" v="Kristianslyst" />
		<tag k="place" v="suburb" />
		<tag k="ssr:stedsnr" v="889559" />
	</node>
	<node id="-393838" lat="58.963455559" lon="5.60440277743">
		<tag k="name" v="Mjukhaug" />
		<tag k="natural" v="hill" />
		<tag k="place" v="locality" />
		<tag k="ssr:stedsnr" v="889555" />
	</node>
	<node id="-393837" lat="58.96250833" lon="5.62108055622">
		<tag k="name" v="Tasabekken" />
		<tag k="ssr:stedsnr" v="889502" />
		<tag k="waterway" v="stream" />
	</node>
	<node id="-393834" lat="59.00263611" lon="5.75403610833">
		<tag k="leisure" v="marina" />
		<tag k="name" v="Lundsvågen småbåthavn" />
		<tag k="ssr:stedsnr" v="889243" />
	</node>
	<node id="-393833" lat="58.9716944419" lon="5.75125833511">
		<tag k="man_made" v="quay" />
		<tag k="name" v="Svankevigsbryggå" />
		<tag k="place" v="locality" />
		<tag k="ssr:stedsnr" v="889235" />
	</node>
	<node id="-393832" lat="58.9940416652" lon="5.69183611777">
		<tag k="name" v="Tastastranda" />
		<tag k="natural" v="beach" />
		<tag k="place" v="locality" />
		<tag k="ssr:stedsnr" v="889106" />
	</node>
	<node id="-393831" lat="58.9424277809" lon="5.63621111402">
		<tag k="fixme" v="verify maritime location" />
		<tag k="mooring" v="yes" />
		<tag k="name" v="Madlastø" />
		<tag k="place" v="locality" />
		<tag k="ssr:stedsnr" v="888950" />
	</node>
	<node id="-393830" lat="58.9558249989" lon="5.73674721609">
		<tag k="name" v="Jonas Dahls plass" />
		<tag k="place" v="square" />
		<tag k="ssr:stedsnr" v="888830" />
	</node>
	<node id="-393829" lat="58.9101277799" lon="5.7117166727">
		<tag k="name" v="Haugaberget" />
		<tag k="natural" v="hill" />
		<tag k="place" v="locality" />
		<tag k="ssr:stedsnr" v="888744" />
	</node>
	<node id="-393828" lat="58.9849138895" lon="5.75906666686">
		<tag k="fixme" v="consider seamark:type=rock or natural=shoal" />
		<tag k="name" v="Steinsøyskjeret" />
		<tag k="place" v="islet" />
		<tag k="ssr:stedsnr" v="479347" />
	</node>
	<node id="-393827" lat="59.0022750013" lon="5.70989166836">
		<tag k="name" v="Kvitepynten" />
		<tag k="natural" v="cape" />
		<tag k="ssr:stedsnr" v="479340" />
	</node>
	<node id="-393826" lat="59.0459277775" lon="5.75692776996">
		<tag k="fixme" v="consider natural=peak for the most distinct mountains in the district" />
		<tag k="name" v="Århammar" />
		<tag k="natural" v="hill" />
		<tag k="place" v="locality" />
		<tag k="ssr:stedsnr" v="476471" />
	</node>
	<node id="-393825" lat="59.0260215195" lon="5.77526143935">
		<tag k="alt_name" v="Klobningane;Klovning" />
		<tag k="name" v="Klovningane" />
		<tag k="place" v="islet" />
		<tag k="ssr:stedsnr" v="476443" />
	</node>
	<node id="-393824" lat="59.0388166672" lon="5.72823332584">
		<tag k="fixme" v="consider natural=peak for the most distinct mountains in the district" />
		<tag k="name" v="Skorphella" />
		<tag k="natural" v="hill" />
		<tag k="place" v="locality" />
		<tag k="ssr:stedsnr" v="476432" />
	</node>
	<node id="-393823" lat="58.9672416686" lon="5.72830833766">
		<tag k="bridge" v="yes" />
		<tag k="layer" v="1" />
		<tag k="name" v="Jens Zetlitzgate" />
		<tag k="ssr:stedsnr" v="411295" />
	</node>
	<node id="-393822" lat="58.9440499959" lon="5.74493611707">
		<tag k="bridge" v="yes" />
		<tag k="layer" v="1" />
		<tag k="name" v="Kvalaberg" />
		<tag k="ssr:stedsnr" v="411291" />
	</node>
	<node id="-393821" lat="58.9348027792" lon="5.6933111023">
		<tag k="bridge" v="yes" />
		<tag k="layer" v="1" />
		<tag k="name" v="Telegrafdir. Heftyes" />
		<tag k="ssr:stedsnr" v="411282" />
	</node>
	<node id="-393820" lat="58.9790638928" lon="5.68788888764">
		<tag k="bridge" v="yes" />
		<tag k="layer" v="1" />
		<tag k="name" v="Tasta" />
		<tag k="ssr:stedsnr" v="411280" />
	</node>
	<node id="-393819" lat="58.9627166635" lon="5.72409165898">
		<tag k="bridge" v="yes" />
		<tag k="layer" v="1" />
		<tag k="name" v="Solagate" />
		<tag k="ssr:stedsnr" v="411279" />
	</node>
	<node id="-393818" lat="58.9418583363" lon="5.6478305497">
		<tag k="name" v="Rostå" />
		<tag k="place" v="locality" />
		<tag k="ssr:stedsnr" v="405910" />
	</node>
	<node id="-393817" lat="58.9726000008" lon="5.6094027808">
		<tag k="name" v="Ørnaberget" />
		<tag k="natural" v="hill" />
		<tag k="place" v="locality" />
		<tag k="ssr:stedsnr" v="405909" />
	</node>
	<node id="-393816" lat="58.9823250045" lon="5.66400556143">
		<tag k="name" v="Reset" />
		<tag k="place" v="locality" />
		<tag k="ssr:stedsnr" v="405908" />
	</node>
	<node id="-393815" lat="58.9779194474" lon="5.61551388977">
		<tag k="name" v="Kvernevikbekken" />
		<tag k="ssr:stedsnr" v="405906" />
		<tag k="waterway" v="stream" />
	</node>
	<node id="-393814" lat="58.9656194479" lon="5.73171388428">
		<tag k="layer" v="-1" />
		<tag k="name" v="Teaterpassasjen" />
		<tag k="ssr:stedsnr" v="405823" />
		<tag k="tunnel" v="yes" />
	</node>
	<node id="-393810" lat="58.9341059626" lon="5.75354855535">
		<tag k="name" v="Mariero holdeplass" />
		<tag k="railway" v="halt" />
		<tag k="ssr:stedsnr" v="405182" />
		<tag k="train" v="yes" />
	</node>
	<node id="-393809" lat="58.9131694424" lon="5.69361667314">
		<tag k="name" v="Heia" />
		<tag k="place" v="locality" />
		<tag k="ssr:stedsnr" v="403998" />
	</node>
	<node id="-393808" lat="58.9414388876" lon="5.67200832574">
		<tag k="name" v="Mølleberget" />
		<tag k="natural" v="cape" />
		<tag k="ssr:stedsnr" v="403969" />
	</node>
	<node id="-393807" lat="58.9650111124" lon="5.6089666669">
		<tag k="name" v="Voll" />
		<tag k="place" v="farm" />
		<tag k="ssr:stedsnr" v="403926" />
	</node>
	<node id="-393806" lat="58.9717806003" lon="5.74317854622">
		<tag k="man_made" v="quay" />
		<tag k="name" v="Bekhuskaien" />
		<tag k="place" v="locality" />
		<tag k="ssr:stedsnr" v="403819" />
	</node>
	<node id="-393805" lat="58.9017333327" lon="5.71706666244">
		<tag k="name" v="Kisteberget" />
		<tag k="natural" v="hill" />
		<tag k="place" v="locality" />
		<tag k="ssr:stedsnr" v="403731" />
	</node>
	<node id="-393804" lat="58.9610111156" lon="5.61715555608">
		<tag k="name" v="Skredbakk" />
		<tag k="natural" v="slope" />
		<tag k="place" v="locality" />
		<tag k="ssr:stedsnr" v="403585" />
	</node>
	<node id="-393802" lat="58.963069441" lon="5.62744722837">
		<tag k="name" v="Storåkeren" />
		<tag k="place" v="locality" />
		<tag k="ssr:stedsnr" v="403513" />
	</node>
	<node id="-393798" lat="58.9622305574" lon="5.73699444777">
		<tag k="building" v="civic" />
		<tag k="name" v="Stavanger brannvesen" />
		<tag k="ssr:stedsnr" v="403088" />
	</node>
	<node id="-393797" lat="58.9960194486" lon="5.68873611365">
		<tag k="loc_name" v="Brennevinsura" />
		<tag k="name" v="Brennevinsurda" />
		<tag k="natural" v="scree" />
		<tag k="ssr:stedsnr" v="403080" />
	</node>
	<node id="-393796" lat="58.9376305588" lon="5.64729722938">
		<tag k="alt_name" v="Gjerdesberget" />
		<tag k="fixme" v="consider natural=peak for the most distinct mountains in the district" />
		<tag k="name" v="Gjeresberget" />
		<tag k="natural" v="hill" />
		<tag k="place" v="locality" />
		<tag k="ssr:stedsnr" v="388308" />
	</node>
	<node id="-393795" lat="58.9597250004" lon="5.70651388503">
		<tag k="leisure" v="park" />
		<tag k="name" v="Mosvannsparken" />
		<tag k="old_name" v="Mosevandsparken" />
		<tag k="ssr:stedsnr" v="388283" />
	</node>
	<node id="-393794" lat="58.9572944433" lon="5.68663611519">
		<tag k="name" v="Sandal" />
		<tag k="place" v="farm" />
		<tag k="ssr:stedsnr" v="388273" />
	</node>
	<node id="-393793" lat="58.9442166631" lon="5.70188888053">
		<tag k="name" v="Litle Ullandhaug" />
		<tag k="natural" v="hill" />
		<tag k="place" v="locality" />
		<tag k="ssr:stedsnr" v="388258" />
	</node>
	<node id="-393792" lat="58.9431749977" lon="5.65585555455">
		<tag k="amenity" v="school" />
		<tag k="name" v="Hafrsfjord skole" />
		<tag k="ssr:stedsnr" v="387373" />
	</node>
	<node id="-393791" lat="58.932663891" lon="5.64547500395">
		<tag k="alt_name" v="Håhamar" />
		<tag k="name" v="Håhammaren" />
		<tag k="natural" v="ridge" />
		<tag k="place" v="locality" />
		<tag k="ssr:stedsnr" v="387374" />
	</node>
	<node id="-393790" lat="58.931094444" lon="5.73186667439">
		<tag k="amenity" v="school" />
		<tag k="name" v="Vaulen skole" />
		<tag k="ssr:stedsnr" v="387207" />
	</node>
	<node id="-393789" lat="58.9462416641" lon="5.75401666625">
		<tag k="building" v="industrial" />
		<tag k="name" v="Rogaland Felleskjøp" />
		<tag k="ssr:stedsnr" v="387200" />
	</node>
	<node id="-393788" lat="58.9156249957" lon="5.7428361029">
		<tag k="name" v="Klubben" />
		<tag k="natural" v="cape" />
		<tag k="ssr:stedsnr" v="387198" />
	</node>
	<node id="-393787" lat="58.9684861123" lon="5.65507500179">
		<tag k="name" v="Longemyr" />
		<tag k="natural" v="wetland" />
		<tag k="ssr:stedsnr" v="387177" />
	</node>
	<node id="-393786" lat="58.9884666642" lon="5.75560277559">
		<tag k="fixme" v="consider seamark:type=rock or natural=shoal" />
		<tag k="name" v="Dynamittskjeret" />
		<tag k="place" v="islet" />
		<tag k="ssr:stedsnr" v="387057" />
	</node>
	<node id="-393785" lat="58.9541083317" lon="5.75773889497">
		<tag k="name" v="Godalen friluftsbad" />
		<tag k="natural" v="beach" />
		<tag k="place" v="locality" />
		<tag k="ssr:stedsnr" v="387040" />
	</node>
	<node id="-393784" lat="58.9593805516" lon="5.75109721855">
		<tag k="amenity" v="place_of_worship" />
		<tag k="denomination" v="lutheran" />
		<tag k="name" v="Varden kirke" />
		<tag k="religion" v="christian" />
		<tag k="ssr:stedsnr" v="387037" />
	</node>
	<node id="-393783" lat="58.961958333" lon="5.73266667443">
		<tag k="amenity" v="school" />
		<tag k="name" v="Våland skole" />
		<tag k="ssr:stedsnr" v="387036" />
	</node>
	<node id="-393782" lat="58.9598083334" lon="5.75508888629">
		<tag k="leisure" v="pitch" />
		<tag k="name" v="Midjord stadion" />
		<tag k="ssr:stedsnr" v="387031" />
	</node>
	<node id="-393781" lat="58.9643277814" lon="5.73049167233">
		<tag k="amenity" v="hospital" />
		<tag k="name" v="Stavanger sjukehus" />
		<tag k="ssr:stedsnr" v="387028" />
	</node>
	<node id="-393780" lat="58.980630552" lon="5.84365555492">
		<tag k="name" v="Rasmatangen" />
		<tag k="natural" v="cape" />
		<tag k="ssr:stedsnr" v="386101" />
	</node>
	<node id="-393779" lat="58.9577888871" lon="5.69523611913">
		<tag k="amenity" v="school" />
		<tag k="name" v="Lassa skole" />
		<tag k="ssr:stedsnr" v="384443" />
	</node>
	<node id="-393778" lat="59.0424361143" lon="5.76245555794">
		<tag k="name" v="Lunde" />
		<tag k="place" v="farm" />
		<tag k="ssr:stedsnr" v="365824" />
	</node>
	<node id="-393777" lat="59.0162277755" lon="5.76838889077">
		<tag k="name" v="Sandøya" />
		<tag k="place" v="islet" />
		<tag k="ssr:stedsnr" v="365795" />
	</node>
	<node id="-393776" lat="59.0098888899" lon="5.73015000435">
		<tag k="alt_name" v="Grasskjeret" />
		<tag k="name" v="Grasholmen" />
		<tag k="place" v="islet" />
		<tag k="ssr:stedsnr" v="365793" />
	</node>
	<node id="-393775" lat="59.0356288144" lon="5.74964345119">
		<tag k="alt_name" v="Litlevågen" />
		<tag k="name" v="Litlevåg" />
		<tag k="natural" v="bay" />
		<tag k="ssr:stedsnr" v="365776" />
	</node>
	<node id="-393774" lat="59.0301055574" lon="5.75066110305">
		<tag k="alt_name" v="Store Storholmen" />
		<tag k="name" v="Storholmen" />
		<tag k="place" v="islet" />
		<tag k="ssr:stedsnr" v="365773" />
	</node>
	<node id="-393773" lat="58.9606833288" lon="5.61936666053">
		<tag k="name" v="Malthaug" />
		<tag k="place" v="farm" />
		<tag k="ssr:stedsnr" v="365096" />
	</node>
	<node id="-393772" lat="58.9688972236" lon="5.68316110765">
		<tag k="alt_name" v="Stokka, nedre" />
		<tag k="name" v="Nedre Stokka" />
		<tag k="place" v="farm" />
		<tag k="ssr:stedsnr" v="365088" />
	</node>
	<node id="-393771" lat="58.9337527765" lon="5.64666110544">
		<tag k="alt_name" v="Madlatuva" />
		<tag k="name" v="Madlatua" />
		<tag k="natural" v="hill" />
		<tag k="place" v="locality" />
		<tag k="ssr:stedsnr" v="365063" />
	</node>
	<node id="-393770" lat="58.9907093989" lon="5.80923843778">
		<tag k="name" v="Lindøy" />
		<tag k="place" v="island" />
		<tag k="ssr:stedsnr" v="364139" />
	</node>
	<node id="-393769" lat="58.9877484165" lon="5.761143506">
		<tag k="name" v="Ormøy" />
		<tag k="place" v="island" />
		<tag k="ssr:stedsnr" v="364136" />
	</node>
	<node id="-393768" lat="58.9938361123" lon="5.81624721345">
		<tag k="bay" v="fjord" />
		<tag k="name" v="Høgsfjorden" />
		<tag k="natural" v="bay" />
		<tag k="ssr:stedsnr" v="364128" />
	</node>
	<node id="-393766" lat="58.9125777755" lon="5.74456666058">
		<tag k="alt_name" v="Sumsholmen" />
		<tag k="name" v="Sundsholmen" />
		<tag k="place" v="islet" />
		<tag k="ssr:stedsnr" v="361170" />
	</node>
	<node id="-393765" lat="58.9743861071" lon="5.83817221623">
		<tag k="name" v="Kalvøyvika" />
		<tag k="natural" v="bay" />
		<tag k="ssr:stedsnr" v="359983" />
	</node>
	<node id="-393764" lat="58.9114777794" lon="5.72683889253">
		<tag k="bridge" v="yes" />
		<tag k="layer" v="1" />
		<tag k="name" v="Boganes" />
		<tag k="ssr:stedsnr" v="350294" />
	</node>
	<node id="-393763" lat="58.8992555513" lon="5.73976389538">
		<tag k="bridge" v="yes" />
		<tag k="layer" v="1" />
		<tag k="name" v="Dykjelbakken" />
		<tag k="ssr:stedsnr" v="350292" />
	</node>
	<node id="-393762" lat="58.9655277737" lon="5.73137777341">
		<tag k="bridge" v="yes" />
		<tag k="layer" v="1" />
		<tag k="name" v="Muségaten" />
		<tag k="ssr:stedsnr" v="350279" />
	</node>
	<node id="-393761" lat="58.9326444412" lon="5.73927500312">
		<tag k="bridge" v="yes" />
		<tag k="layer" v="1" />
		<tag k="name" v="Harholen" />
		<tag k="ssr:stedsnr" v="350275" />
	</node>
	<node id="-393760" lat="58.9638277796" lon="5.73559999863">
		<tag k="bridge" v="yes" />
		<tag k="layer" v="1" />
		<tag k="name" v="Kirkegårdsbakken" />
		<tag k="ssr:stedsnr" v="350269" />
	</node>
	<node id="-393759" lat="58.9157194423" lon="5.72114999776">
		<tag k="bridge" v="yes" />
		<tag k="layer" v="1" />
		<tag k="name" v="Vodla" />
		<tag k="ssr:stedsnr" v="350259" />
	</node>
	<node id="-393758" lat="58.9613777817" lon="5.61979167333">
		<tag k="bridge" v="yes" />
		<tag k="layer" v="1" />
		<tag k="name" v="Sunde Skole" />
		<tag k="ssr:stedsnr" v="350257" />
	</node>
	<node id="-393757" lat="58.9518444435" lon="5.74086943987">
		<tag k="alt_name" v="Hillevåg" />
		<tag k="layer" v="-1" />
		<tag k="name" v="Hillevågstunnelen" />
		<tag k="ssr:stedsnr" v="347485" />
		<tag k="tunnel" v="yes" />
	</node>
	<node id="-393754" lat="59.013627683" lon="5.75884678991">
		<tag k="name" v="Langøyosen" />
		<tag k="natural" v="strait" />
		<tag k="ssr:stedsnr" v="344788" />
	</node>
	<node id="-393753" lat="58.9420999977" lon="5.73882777763">
		<tag k="name" v="Sandviga" />
		<tag k="place" v="quarter" />
		<tag k="ssr:stedsnr" v="344706" />
	</node>
	<node id="-393748" lat="58.9724444411" lon="5.75465000278">
		<tag k="building" v="industrial" />
		<tag k="name" v="Stavanger Havnesilo" />
		<tag k="ssr:stedsnr" v="343200" />
	</node>
	<node id="-393747" lat="58.9168305562" lon="5.70638611267">
		<tag k="name" v="Vollen" />
		<tag k="place" v="farm" />
		<tag k="ssr:stedsnr" v="342991" />
	</node>
	<node id="-393746" lat="58.921930554" lon="5.71328889371">
		<tag k="cemetery" v="grave" />
		<tag k="name" v="Hinna gravlund" />
		<tag k="place" v="locality" />
		<tag k="ssr:stedsnr" v="342986" />
	</node>
	<node id="-393745" lat="58.9403388893" lon="5.66728054695">
		<tag k="name" v="Laberget" />
		<tag k="natural" v="cape" />
		<tag k="ssr:stedsnr" v="342953" />
	</node>
	<node id="-393744" lat="58.9469444473" lon="5.68306111651">
		<tag k="name" v="Ljosheim" />
		<tag k="place" v="farm" />
		<tag k="ssr:stedsnr" v="342949" />
	</node>
	<node id="-393743" lat="58.9646527762" lon="5.62168889738">
		<tag k="name" v="Rudlehaugen" />
		<tag k="place" v="farm" />
		<tag k="ssr:stedsnr" v="342898" />
	</node>
	<node id="-393742" lat="58.911208332" lon="5.74380833054">
		<tag k="name" v="Blindskjær" />
		<tag k="place" v="islet" />
		<tag k="ssr:stedsnr" v="342798" />
	</node>
	<node id="-393741" lat="58.8956944443" lon="5.72164999723">
		<tag k="name" v="Godeset" />
		<tag k="place" v="suburb" />
		<tag k="ssr:stedsnr" v="342591" />
	</node>
	<node id="-393740" lat="58.9615138935" lon="5.60713611652">
		<tag k="name" v="Spelemannsodden" />
		<tag k="natural" v="cape" />
		<tag k="ssr:stedsnr" v="342542" />
	</node>
	<node id="-393739" lat="58.997813887" lon="5.72146666996">
		<tag k="alt_name" v="Husebø" />
		<tag k="fixme" v="consider place=suburb, village or hamlet" />
		<tag k="name" v="Husabø" />
		<tag k="place" v="quarter" />
		<tag k="ssr:stedsnr" v="342511" />
	</node>
	<node id="-393737" lat="58.9838083313" lon="5.66053611463">
		<tag k="name" v="Rudlå" />
		<tag k="natural" v="hill" />
		<tag k="place" v="locality" />
		<tag k="ssr:stedsnr" v="342935" />
	</node>
	<node id="-393736" lat="58.9400777797" lon="5.75776388513">
		<tag k="fixme" v="consider seamark:type=rock or natural=shoal" />
		<tag k="name" v="Krågeskjeret" />
		<tag k="place" v="islet" />
		<tag k="ssr:stedsnr" v="329302" />
	</node>
	<node id="-393735" lat="58.9522944429" lon="5.75141388302">
		<tag k="name" v="Hillevågsneset" />
		<tag k="natural" v="cape" />
		<tag k="ssr:stedsnr" v="329298" />
	</node>
	<node id="-393734" lat="58.972316666" lon="5.65619166555">
		<tag k="name" v="Friheim" />
		<tag k="place" v="quarter" />
		<tag k="ssr:stedsnr" v="327659" />
	</node>
	<node id="-393733" lat="58.9532388858" lon="5.71710555692">
		<tag k="name" v="Schancheholen" />
		<tag k="old_name" v="Holen" />
		<tag k="place" v="farm" />
		<tag k="ssr:stedsnr" v="327293" />
	</node>
	<node id="-393732" lat="58.9605888879" lon="5.63932778082">
		<tag k="alt_name" v="Mimmarudlå" />
		<tag k="name" v="Mimmarudla" />
		<tag k="natural" v="hill" />
		<tag k="place" v="locality" />
		<tag k="ssr:stedsnr" v="327162" />
	</node>
	<node id="-393731" lat="58.9727111095" lon="5.67554443889">
		<tag k="name" v="Dyrsnes" />
		<tag k="natural" v="cape" />
		<tag k="ssr:stedsnr" v="327159" />
	</node>
	<node id="-393730" lat="58.9741859269" lon="5.74864573155">
		<tag k="name" v="Straumsteinsundet" />
		<tag k="natural" v="strait" />
		<tag k="ssr:stedsnr" v="327062" />
	</node>
	<node id="-393729" lat="58.9566611127" lon="5.75159444615">
		<tag k="name" v="Varden" />
		<tag k="natural" v="hill" />
		<tag k="place" v="locality" />
		<tag k="ssr:stedsnr" v="327027" />
	</node>
	<node id="-393728" lat="58.9884583354" lon="5.77006666159">
		<tag k="name" v="Rundeholmen" />
		<tag k="place" v="islet" />
		<tag k="ssr:stedsnr" v="327022" />
	</node>
	<node id="-393727" lat="58.9906166701" lon="5.76169167243">
		<tag k="name" v="Ormøysundet" />
		<tag k="natural" v="strait" />
		<tag k="ssr:stedsnr" v="327020" />
	</node>
	<node id="-393726" lat="59.0039250027" lon="5.75855000659">
		<tag k="name" v="Kistesundet" />
		<tag k="natural" v="strait" />
		<tag k="ssr:stedsnr" v="327012" />
	</node>
	<node id="-393725" lat="58.9572444407" lon="5.72815555486">
		<tag k="name" v="Vålandshaugen" />
		<tag k="natural" v="hill" />
		<tag k="old_name" v="Vaalands-haugen" />
		<tag k="place" v="locality" />
		<tag k="ssr:stedsnr" v="327003" />
	</node>
	<node id="-393724" lat="58.9645972241" lon="5.72248333454">
		<tag k="amenity" v="school" />
		<tag k="name" v="Kannik skole" />
		<tag k="ssr:stedsnr" v="327004" />
	</node>
	<node id="-393723" lat="58.9532555552" lon="5.73300000854">
		<tag k="amenity" v="hospital" />
		<tag k="name" v="Stavanger universitetssjukehus" />
		<tag k="old_name" v="Rogaland sjukehus" />
		<tag k="ssr:stedsnr" v="327002" />
	</node>
	<node id="-393722" lat="58.9880305532" lon="5.74074999365">
		<tag k="alt_name" v="Innre Vågeskjær" />
		<tag k="fixme" v="consider seamark:type=rock or natural=shoal" />
		<tag k="name" v="Indre Vågaskjer" />
		<tag k="old_name" v="Indre Vaageskjær" />
		<tag k="place" v="islet" />
		<tag k="ssr:stedsnr" v="101828" />
	</node>
	<node id="-393721" lat="59.0080611133" lon="5.80992499342">
		<tag k="alt_name" v="Revingsgrunnane" />
		<tag k="name" v="Revingsgrunnen" />
		<tag k="natural" v="shoal" />
		<tag k="place" v="locality" />
		<tag k="ssr:stedsnr" v="305971" />
	</node>
	<node id="-393720" lat="59.0046444418" lon="5.73269444086">
		<tag k="name" v="Skeie" />
		<tag k="place" v="farm" />
		<tag k="ssr:stedsnr" v="305772" />
	</node>
	<node id="-393719" lat="59.0071042484" lon="5.74316827048">
		<tag k="fixme" v="consider place=hamlet" />
		<tag k="name" v="Lunde" />
		<tag k="place" v="farm" />
		<tag k="ssr:stedsnr" v="305770" />
	</node>
	<node id="-393718" lat="58.9909320672" lon="5.71170409097">
		<tag k="name" v="Ulsneset" />
		<tag k="natural" v="cape" />
		<tag k="ssr:stedsnr" v="304102" />
	</node>
	<node id="-393717" lat="58.9600830873" lon="5.78380064686">
		<tag k="name" v="Stora Marøya" />
		<tag k="place" v="islet" />
		<tag k="ssr:stedsnr" v="304082" />
	</node>
	<node id="-393716" lat="58.9666833296" lon="5.6172805551">
		<tag k="name" v="Århaug" />
		<tag k="place" v="farm" />
		<tag k="ssr:stedsnr" v="304069" />
	</node>
	<node id="-393715" lat="58.9777552709" lon="5.74279387906">
		<tag k="name" v="Sølyst" />
		<tag k="place" v="islet" />
		<tag k="ssr:stedsnr" v="304063" />
	</node>
	<node id="-393714" lat="58.9491764905" lon="5.64365276158">
		<tag k="alt_name" v="Reveim" />
		<tag k="fixme" v="consider place=hamlet" />
		<tag k="name" v="Revheim" />
		<tag k="place" v="farm" />
		<tag k="ssr:stedsnr" v="304041" />
	</node>
	<node id="-393713" lat="58.9280305573" lon="5.64854999868">
		<tag k="alt_name" v="Hafrsfjorden" />
		<tag k="bay" v="fjord" />
		<tag k="name" v="Hafrsfjord" />
		<tag k="natural" v="bay" />
		<tag k="ssr:stedsnr" v="304018" />
	</node>
	<node id="-393712" lat="58.9831083317" lon="5.82370555207">
		<tag k="name" v="Søravika" />
		<tag k="natural" v="bay" />
		<tag k="ssr:stedsnr" v="298982" />
	</node>
	<node id="-393711" lat="58.994794443" lon="5.7783388852">
		<tag k="name" v="Søre Vassøygrunnen" />
		<tag k="natural" v="shoal" />
		<tag k="place" v="locality" />
		<tag k="ssr:stedsnr" v="298277" />
	</node>
	<node id="-393710" lat="59.006619445" lon="5.77712777956">
		<tag k="name" v="Davidsgrunnen" />
		<tag k="natural" v="shoal" />
		<tag k="place" v="locality" />
		<tag k="ssr:stedsnr" v="298233" />
	</node>
	<node id="-393709" lat="58.9805555541" lon="5.68317777738">
		<tag k="bridge" v="yes" />
		<tag k="layer" v="1" />
		<tag k="name" v="Eikelandsskogen" />
		<tag k="ssr:stedsnr" v="290318" />
	</node>
	<node id="-393708" lat="58.9194555532" lon="5.71257221991">
		<tag k="bridge" v="yes" />
		<tag k="layer" v="1" />
		<tag k="name" v="Fredrikke Qvamsgate" />
		<tag k="ssr:stedsnr" v="290315" />
	</node>
	<node id="-393707" lat="58.9516055585" lon="5.72515833903">
		<tag k="bridge" v="yes" />
		<tag k="layer" v="1" />
		<tag k="name" v="Hjalmar Johansen" />
		<tag k="ssr:stedsnr" v="290297" />
	</node>
	<node id="-393706" lat="58.9384694479" lon="5.69065278206">
		<tag k="bridge" v="yes" />
		<tag k="layer" v="1" />
		<tag k="name" v="Gosenmyra" />
		<tag k="ssr:stedsnr" v="290298" />
	</node>
	<node id="-393705" lat="58.9663638885" lon="5.59777500602">
		<tag k="bridge" v="yes" />
		<tag k="layer" v="1" />
		<tag k="name" v="Københavnerbukta" />
		<tag k="ssr:stedsnr" v="290296" />
	</node>
	<node id="-393704" lat="58.9718519757" lon="5.78702345071">
		<tag k="fixme" v="consider seamark:type=rock or natural=shoal" />
		<tag k="name" v="Marøysteinen" />
		<tag k="place" v="islet" />
		<tag k="ssr:stedsnr" v="284798" />
	</node>
	<node id="-393703" lat="59.0263083361" lon="5.74439444948">
		<tag k="name" v="Storholmgrunnen" />
		<tag k="natural" v="shoal" />
		<tag k="place" v="locality" />
		<tag k="ssr:stedsnr" v="284778" />
	</node>
	<node id="-393702" lat="59.0380999988" lon="5.76338611005">
		<tag k="name" v="Galten" />
		<tag k="place" v="locality" />
		<tag k="seamark:type" v="rock" />
		<tag k="ssr:stedsnr" v="284803" />
	</node>
	<node id="-393701" lat="58.9516666676" lon="5.73120833801">
		<tag k="name" v="Hillevågsdalen" />
		<tag k="natural" v="valley" />
		<tag k="place" v="locality" />
		<tag k="ssr:stedsnr" v="283929" />
	</node>
	<node id="-393695" lat="59.036830555" lon="5.74568333299">
		<tag k="fixme" v="verify maritime location" />
		<tag k="mooring" v="yes" />
		<tag k="name" v="Melingsjøen" />
		<tag k="place" v="locality" />
		<tag k="ssr:stedsnr" v="283215" />
	</node>
	<node id="-393694" lat="58.9830055567" lon="5.71413611034">
		<tag k="name" v="Kalhammarodden" />
		<tag k="natural" v="cape" />
		<tag k="ssr:stedsnr" v="283177" />
	</node>
	<node id="-393693" lat="58.9813666702" lon="5.74272222968">
		<tag k="name" v="Engøyholmen" />
		<tag k="old_name" v="Engøholmen" />
		<tag k="place" v="islet" />
		<tag k="ssr:stedsnr" v="283013" />
	</node>
	<node id="-393691" lat="58.9460777759" lon="5.68606665819">
		<tag k="name" v="Karlsro" />
		<tag k="place" v="farm" />
		<tag k="ssr:stedsnr" v="282971" />
	</node>
	<node id="-393690" lat="58.9402166629" lon="5.6500416623">
		<tag k="name" v="Sandneshaugen" />
		<tag k="natural" v="slope" />
		<tag k="place" v="locality" />
		<tag k="ssr:stedsnr" v="282958" />
	</node>
	<node id="-393688" lat="58.9679305547" lon="5.61678889395">
		<tag k="name" v="Århaugen" />
		<tag k="natural" v="hill" />
		<tag k="place" v="locality" />
		<tag k="ssr:stedsnr" v="282927" />
	</node>
	<node id="-393687" lat="58.970495683" lon="5.72757319041">
		<tag k="leisure" v="park" />
		<tag k="name" v="Lendelunden" />
		<tag k="ssr:stedsnr" v="282865" />
	</node>
	<node id="-393686" lat="58.8971749966" lon="5.73540555421">
		<tag k="name" v="Kråkevollen" />
		<tag k="natural" v="slope" />
		<tag k="place" v="locality" />
		<tag k="ssr:stedsnr" v="282837" />
	</node>
	<node id="-393685" lat="58.9758444408" lon="5.7405111036">
		<tag k="alt_name" v="Skrivarvigå" />
		<tag k="name" v="Skrivarsvika" />
		<tag k="natural" v="bay" />
		<tag k="ssr:stedsnr" v="282803" />
	</node>
	<node id="-393684" lat="58.970044447" lon="5.73327777619">
		<tag k="name" v="Domkirkeplassen" />
		<tag k="place" v="square" />
		<tag k="ssr:stedsnr" v="282796" />
	</node>
	<node id="-393683" lat="58.9678527807" lon="5.74043054976">
		<tag k="name" v="Vår Frue plass" />
		<tag k="old_name" v="Vor-Frue-Plads" />
		<tag k="place" v="square" />
		<tag k="ssr:stedsnr" v="282793" />
	</node>
	<node id="-393682" lat="59.0073916702" lon="5.73050278436">
		<tag k="name" v="Kubholmen" />
		<tag k="place" v="islet" />
		<tag k="ssr:stedsnr" v="282751" />
	</node>
	<node id="-393681" lat="58.9459221391" lon="5.74321888523">
		<tag k="fixme" v="consider place=suburb, village or hamlet" />
		<tag k="name" v="Bispeladegård" />
		<tag k="place" v="quarter" />
		<tag k="ssr:stedsnr" v="282565" />
	</node>
	<node id="-393680" lat="58.9902862313" lon="5.80962238376">
		<tag k="fixme" v="consider place=hamlet" />
		<tag k="name" v="Lindøy" />
		<tag k="place" v="farm" />
		<tag k="ssr:stedsnr" v="282554" />
	</node>
	<node id="-393677" lat="59.039063893" lon="5.7487527719">
		<tag k="name" v="Kjøringdalen" />
		<tag k="natural" v="valley" />
		<tag k="place" v="locality" />
		<tag k="ssr:stedsnr" v="282209" />
	</node>
	<node id="-393676" lat="58.9819111156" lon="5.74695278291">
		<tag k="name" v="Engøysnagvika" />
		<tag k="natural" v="bay" />
		<tag k="ssr:stedsnr" v="282204" />
	</node>
	<node id="-393675" lat="58.9719912199" lon="5.73139731309">
		<tag k="name" v="Valbergtårnet" />
		<tag k="place" v="locality" />
		<tag k="ssr:stedsnr" v="282089" />
	</node>
</osm>
