<?xml version="1.0" encoding="UTF-8"?>
<osm generator="osmapis" version="0.6">
	<node id="-8191" lat="58.9519648113" lon="5.69744985397">
		<tag k="alt_name" v="Tjensvoll, nedre" />
		<tag k="fixme" v="consider place=hamlet" />
		<tag k="name" v="Nedre Tjensvoll" />
		<tag k="place" v="farm" />
		<tag k="ssr:stedsnr" v="61079" />
	</node>
	<node id="-8190" lat="58.9624361114" lon="5.6879916598">
		<tag k="alt_name" v="Stokka, øvre;Stokka" />
		<tag k="name" v="Øvre Stokka" />
		<tag k="place" v="farm" />
		<tag k="ssr:stedsnr" v="61077" />
	</node>
	<node id="-8187" lat="58.9850903918" lon="5.67374688708">
		<tag k="alt_name" v="Tasta, nedre" />
		<tag k="fixme" v="consider place=hamlet" />
		<tag k="name" v="Nedre Tasta" />
		<tag k="place" v="farm" />
		<tag k="ssr:stedsnr" v="61056" />
	</node>
	<node id="-8729" lat="58.9688972236" lon="5.68316110765">
		<tag k="alt_name" v="Stokka, nedre" />
		<tag k="name" v="Nedre Stokka" />
		<tag k="place" v="farm" />
		<tag k="ssr:stedsnr" v="365088" />
	</node>
	<node id="-9213" lat="59.1253638884" lon="5.64036666432">
		<tag k="name" v="Sørbø" />
		<tag k="place" v="farm" />
		<tag k="ssr:stedsnr" v="633462" />
	</node>
	<node id="-9212" lat="59.1308500003" lon="5.64377499268">
		<tag k="name" v="Sørbø" />
		<tag k="place" v="farm" />
		<tag k="ssr:stedsnr" v="633459" />
	</node>
	<node id="-8870" lat="58.8985529556" lon="5.71552383091">
		<tag k="fixme" v="consider place=hamlet" />
		<tag k="name" v="Gådeset" />
		<tag k="old_name" v="Gauteset;Godeset" />
		<tag k="place" v="farm" />
		<tag k="ssr:stedsnr" v="425952" />
	</node>
	<node id="-9211" lat="59.1176000042" lon="5.58534444532">
		<tag k="name" v="Reianes" />
		<tag k="place" v="farm" />
		<tag k="ssr:stedsnr" v="633444" />
	</node>
	<node id="-8528" lat="59.2741391937" lon="6.09456865304">
		<tag k="fixme" v="consider place=hamlet" />
		<tag k="name" v="Tuftene" />
		<tag k="place" v="farm" />
		<tag k="ssr:stedsnr" v="184598" />
	</node>
	<node id="-9210" lat="59.1235432956" lon="5.59164268693">
		<tag k="name" v="Reianes" />
		<tag k="place" v="farm" />
		<tag k="ssr:stedsnr" v="633443" />
	</node>
	<node id="-8154" lat="58.916208335" lon="5.73105277489">
		<tag k="name" v="Olav Olsens plass" />
		<tag k="place" v="square" />
		<tag k="ssr:stedsnr" v="57484" />
	</node>
	<node id="-8144" lat="59.1580833291" lon="5.98330833216">
		<tag k="name" v="Sundet" />
		<tag k="place" v="farm" />
		<tag k="ssr:stedsnr" v="54266" />
	</node>
	<node id="-8140" lat="59.1444972263" lon="5.89948055249">
		<tag k="name" v="Stølane" />
		<tag k="place" v="farm" />
		<tag k="ssr:stedsnr" v="53638" />
	</node>
	<node id="-9207" lat="59.0372777761" lon="5.70317777678">
		<tag k="name" v="Vardaberg" />
		<tag k="place" v="farm" />
		<tag k="ssr:stedsnr" v="631718" />
	</node>
	<node id="-8127" lat="59.0396470262" lon="5.66639280234">
		<tag k="name" v="Raunevig" />
		<tag k="place" v="isolated_dwelling" />
		<tag k="ssr:stedsnr" v="41594" />
	</node>
	<node id="-9205" lat="58.913599996" lon="5.68451388214">
		<tag k="name" v="Svartholen" />
		<tag k="place" v="farm" />
		<tag k="ssr:stedsnr" v="631794" />
	</node>
	<node id="-8119" lat="58.9615583349" lon="5.63289999818">
		<tag k="name" v="Trønå" />
		<tag k="place" v="locality" />
		<tag k="ssr:stedsnr" v="39935" />
	</node>
	<node id="-8118" lat="58.9693472189" lon="5.73264721467">
		<tag k="name" v="Kongsgård" />
		<tag k="old_name" v="Kongsgaard" />
		<tag k="place" v="locality" />
		<tag k="ssr:stedsnr" v="39863" />
	</node>
	<node id="-8113" lat="59.1178111108" lon="5.69007499815">
		<tag k="name" v="Nordbø" />
		<tag k="place" v="farm" />
		<tag k="ssr:stedsnr" v="27459" />
	</node>
	<node id="-8112" lat="59.0636472224" lon="5.68441110514">
		<tag k="name" v="Askje" />
		<tag k="place" v="farm" />
		<tag k="ssr:stedsnr" v="25447" />
	</node>
	<node id="-8111" lat="59.1026507771" lon="5.69361760121">
		<tag k="name" v="Håvastein" />
		<tag k="place" v="farm" />
		<tag k="ssr:stedsnr" v="25731" />
	</node>
	<node id="-8110" lat="59.097116666" lon="5.6988472207">
		<tag k="name" v="Håvastein" />
		<tag k="place" v="farm" />
		<tag k="ssr:stedsnr" v="25725" />
	</node>
	<node id="-8109" lat="59.0386027771" lon="5.70793611296">
		<tag k="name" v="Vardaberg" />
		<tag k="place" v="farm" />
		<tag k="ssr:stedsnr" v="25717" />
	</node>
	<node id="-8108" lat="59.0406888934" lon="5.68661111692">
		<tag k="name" v="Hegraberg" />
		<tag k="place" v="farm" />
		<tag k="ssr:stedsnr" v="25706" />
	</node>
	<node id="-8106" lat="59.0017916631" lon="5.73978056428">
		<tag k="amenity" v="school" />
		<tag k="name" v="Lunde skole" />
		<tag k="ssr:stedsnr" v="25395" />
	</node>
	<node id="-8102" lat="58.9649777746" lon="5.71164721701">
		<tag k="leisure" v="pitch" />
		<tag k="name" v="Stavanger stadion" />
		<tag k="ssr:stedsnr" v="24293" />
	</node>
	<node id="-8100" lat="58.9158888877" lon="5.7230833291">
		<tag k="leisure" v="pitch" />
		<tag k="name" v="Hinna stadion" />
		<tag k="ssr:stedsnr" v="24041" />
	</node>
	<node id="-7494" lat="59.2885249979" lon="5.97692499287">
		<tag k="name" v="Låva" />
		<tag k="place" v="farm" />
		<tag k="ssr:stedsnr" v="609574" />
	</node>
	<node id="-8096" lat="58.9374027768" lon="5.72517778162">
		<tag k="amenity" v="kindergarten" />
		<tag k="name" v="Vannassen barnehage" />
		<tag k="ssr:stedsnr" v="20212" />
	</node>
	<node id="-8095" lat="59.2341249988" lon="5.94519999312">
		<tag k="alt_name" v="Myrå" />
		<tag k="name" v="Myra" />
		<tag k="place" v="farm" />
		<tag k="ssr:stedsnr" v="2997" />
	</node>
	<node id="-9541" lat="59.1864462854" lon="5.82200175098">
		<tag k="alt_name" v="Landa, øvre;Øvre Landa" />
		<tag k="fixme" v="consider place=hamlet" />
		<tag k="name" v="Landa" />
		<tag k="place" v="farm" />
		<tag k="ssr:stedsnr" v="851288" />
	</node>
	<node id="-8086" lat="59.2883250035" lon="5.96730000343">
		<tag k="name" v="Golv" />
		<tag k="place" v="farm" />
		<tag k="ssr:stedsnr" v="2622" />
	</node>
	<node id="-8083" lat="59.1129477248" lon="5.81656494694">
		<tag k="alt_name" v="Ystabø" />
		<tag k="fixme" v="consider place=hamlet" />
		<tag k="name" v="Østabø" />
		<tag k="place" v="farm" />
		<tag k="ssr:stedsnr" v="2341" />
	</node>
	<node id="-8078" lat="59.0920975067" lon="5.75252271999">
		<tag k="fixme" v="consider place=hamlet" />
		<tag k="name" v="Skjørvestad" />
		<tag k="place" v="farm" />
		<tag k="ssr:stedsnr" v="1867" />
	</node>
	<node id="-8076" lat="59.096384005" lon="5.73150612495">
		<tag k="fixme" v="consider place=hamlet" />
		<tag k="name" v="Bjerga" />
		<tag k="place" v="farm" />
		<tag k="ssr:stedsnr" v="1856" />
	</node>
	<node id="-8513" lat="59.0790388919" lon="5.66414444678">
		<tag k="name" v="Steinsvoll" />
		<tag k="place" v="farm" />
		<tag k="ssr:stedsnr" v="183876" />
	</node>
	<node id="-8056" lat="59.119425004" lon="5.65271388493">
		<tag k="name" v="Sørbø" />
		<tag k="place" v="farm" />
		<tag k="ssr:stedsnr" v="1342" />
	</node>
	<node id="-8053" lat="59.1717138935" lon="5.83700833639">
		<tag k="name" v="Kornbø" />
		<tag k="place" v="farm" />
		<tag k="ssr:stedsnr" v="1264" />
	</node>
	<node id="-9534" lat="58.9290638911" lon="5.69276666553">
		<tag k="name" v="Nov" />
		<tag k="place" v="farm" />
		<tag k="ssr:stedsnr" v="851059" />
	</node>
	<node id="-8050" lat="58.9532612423" lon="5.64907368793">
		<tag k="name" v="Voll" />
		<tag k="place" v="farm" />
		<tag k="ssr:stedsnr" v="1042" />
	</node>
	<node id="-8049" lat="58.9406287547" lon="5.65403178762">
		<tag k="fixme" v="consider place=hamlet" />
		<tag k="name" v="Madla" />
		<tag k="place" v="farm" />
		<tag k="ssr:stedsnr" v="1075" />
	</node>
	<node id="-8048" lat="58.9391416653" lon="5.68788611102">
		<tag k="name" v="Gosen" />
		<tag k="place" v="farm" />
		<tag k="ssr:stedsnr" v="1074" />
	</node>
	<node id="-8046" lat="58.9978117472" lon="5.72461293302">
		<tag k="alt_name" v="Husebø" />
		<tag k="fixme" v="consider place=hamlet" />
		<tag k="name" v="Husabø" />
		<tag k="place" v="farm" />
		<tag k="ssr:stedsnr" v="110" />
	</node>
	<node id="-9532" lat="58.9456027812" lon="5.6339055486">
		<tag k="name" v="Vesthei" />
		<tag k="place" v="farm" />
		<tag k="ssr:stedsnr" v="851035" />
	</node>
	<node id="-8035" lat="58.9675837927" lon="5.73626480842">
		<tag k="fixme" v="consider place=suburb, village or hamlet" />
		<tag k="name" v="Bergeland" />
		<tag k="place" v="quarter" />
		<tag k="ssr:stedsnr" v="988470" />
	</node>
	<node id="-8034" lat="58.9705393978" lon="5.74031143429">
		<tag k="fixme" v="consider place=suburb, village or hamlet" />
		<tag k="name" v="Blåsenborg" />
		<tag k="place" v="quarter" />
		<tag k="ssr:stedsnr" v="988469" />
	</node>
	<node id="-8033" lat="58.9734568394" lon="5.73064957445">
		<tag k="fixme" v="consider place=suburb, village or hamlet" />
		<tag k="name" v="Holmen" />
		<tag k="place" v="quarter" />
		<tag k="ssr:stedsnr" v="988468" />
	</node>
	<node id="-8025" lat="59.0763841144" lon="5.65308003713">
		<tag k="name" v="Kleivane" />
		<tag k="place" v="quarter" />
		<tag k="ssr:stedsnr" v="982703" />
	</node>
	<node id="-8011" lat="59.2368076434" lon="5.89406418812">
		<tag k="fixme" v="consider place=hamlet" />
		<tag k="name" v="Søre Hidle" />
		<tag k="place" v="farm" />
		<tag k="ssr:stedsnr" v="974422" />
	</node>
	<node id="-8010" lat="58.9633603167" lon="5.69087953129">
		<tag k="amenity" v="kindergarten" />
		<tag k="name" v="Stokkatunet barnehage" />
		<tag k="ssr:stedsnr" v="973516" />
	</node>
	<node id="-8003" lat="58.9614932358" lon="5.73324900824">
		<tag k="name" v="Våland" />
		<tag k="place" v="suburb" />
		<tag k="ssr:stedsnr" v="971941" />
	</node>
	<node id="-8002" lat="58.9658853011" lon="5.71379315558">
		<tag k="name" v="Eiganes" />
		<tag k="place" v="suburb" />
		<tag k="ssr:stedsnr" v="971939" />
	</node>
	<node id="-7998" lat="59.2405749992" lon="5.95309445168">
		<tag k="name" v="Vodalen" />
		<tag k="place" v="farm" />
		<tag k="ssr:stedsnr" v="970223" />
	</node>
	<node id="-7995" lat="59.1919333296" lon="5.84885278634">
		<tag k="name" v="Jammerdalen" />
		<tag k="place" v="farm" />
		<tag k="ssr:stedsnr" v="964827" />
	</node>
	<node id="-7990" lat="59.0999944426" lon="5.68828056326">
		<tag k="name" v="Prestagard" />
		<tag k="place" v="farm" />
		<tag k="ssr:stedsnr" v="964062" />
	</node>
	<node id="-8499" lat="58.940855557" lon="5.72700556253">
		<tag k="name" v="Åsen" />
		<tag k="place" v="farm" />
		<tag k="ssr:stedsnr" v="183046" />
	</node>
	<node id="-7979" lat="58.9423666623" lon="5.73657499822">
		<tag k="name" v="Blidensol" />
		<tag k="place" v="locality" />
		<tag k="ssr:stedsnr" v="951911" />
	</node>
	<node id="-7976" lat="58.9805666659" lon="5.68294444654">
		<tag k="alt_name" v="Tasta Nedre" />
		<tag k="fixme" v="consider place=suburb, village or hamlet" />
		<tag k="name" v="Nedre Tasta" />
		<tag k="place" v="quarter" />
		<tag k="ssr:stedsnr" v="949609" />
	</node>
	<node id="-7969" lat="58.9739472236" lon="5.72375277713">
		<tag k="name" v="Tekniker Reinerts plass" />
		<tag k="place" v="square" />
		<tag k="ssr:stedsnr" v="937416" />
	</node>
	<node id="-7966" lat="59.2682999996" lon="6.0051499961">
		<tag k="name" v="Vasshus" />
		<tag k="place" v="farm" />
		<tag k="ssr:stedsnr" v="913536" />
	</node>
	<node id="-7957" lat="58.9701527749" lon="5.73043054824">
		<tag k="name" v="Christian Lous Langes plass" />
		<tag k="place" v="square" />
		<tag k="ssr:stedsnr" v="906257" />
	</node>
	<node id="-7956" lat="58.9711611083" lon="5.73797499566">
		<tag k="leisure" v="park" />
		<tag k="name" v="Ajaxparken" />
		<tag k="ssr:stedsnr" v="906106" />
	</node>
	<node id="-7950" lat="59.1912888926" lon="5.81142777415">
		<tag k="name" v="Hopen" />
		<tag k="place" v="farm" />
		<tag k="ssr:stedsnr" v="903214" />
	</node>
	<node id="-7949" lat="59.1399611069" lon="5.91876389123">
		<tag k="name" v="Høgaste" />
		<tag k="place" v="farm" />
		<tag k="ssr:stedsnr" v="903326" />
	</node>
	<node id="-7943" lat="59.038330558" lon="5.75896944218">
		<tag k="name" v="Sjøhagen" />
		<tag k="place" v="quarter" />
		<tag k="ssr:stedsnr" v="902508" />
	</node>
	<node id="-7935" lat="59.0997310895" lon="5.69660711712">
		<tag k="name" v="Håvastein" />
		<tag k="place" v="farm" />
		<tag k="ssr:stedsnr" v="874157" />
	</node>
	<node id="-7933" lat="58.8917479428" lon="5.74796317017">
		<tag k="fixme" v="consider place=hamlet" />
		<tag k="name" v="Forus" />
		<tag k="place" v="farm" />
		<tag k="ssr:stedsnr" v="873619" />
	</node>
	<node id="-7927" lat="58.9531500041" lon="5.74938333458">
		<tag k="leisure" v="park" />
		<tag k="name" v="Strømvik kolonihager" />
		<tag k="ssr:stedsnr" v="873027" />
	</node>
	<node id="-7921" lat="59.2409750035" lon="5.93457221993">
		<tag k="name" v="Vollaberg" />
		<tag k="place" v="farm" />
		<tag k="ssr:stedsnr" v="949678" />
	</node>
	<node id="-7919" lat="58.9638250031" lon="5.62096944805">
		<tag k="name" v="Ekra" />
		<tag k="place" v="locality" />
		<tag k="ssr:stedsnr" v="949442" />
	</node>
	<node id="-7913" lat="59.2579181018" lon="5.85171825529">
		<tag k="alt_name" v="Furre;Fåra" />
		<tag k="fixme" v="consider place=hamlet" />
		<tag k="name" v="Fura" />
		<tag k="place" v="farm" />
		<tag k="ssr:stedsnr" v="852572" />
	</node>
	<node id="-7912" lat="59.2704276059" lon="5.95599345909">
		<tag k="fixme" v="consider place=hamlet" />
		<tag k="name" v="Kalheim" />
		<tag k="place" v="farm" />
		<tag k="ssr:stedsnr" v="852567" />
	</node>
	<node id="-7909" lat="59.1057958445" lon="5.84620585148">
		<tag k="alt_name" v="Gard;Garå" />
		<tag k="fixme" v="consider place=hamlet" />
		<tag k="name" v="Garda" />
		<tag k="place" v="farm" />
		<tag k="ssr:stedsnr" v="852509" />
	</node>
	<node id="-7907" lat="59.0014083318" lon="5.7235638882">
		<tag k="name" v="Saltnesfeltet" />
		<tag k="place" v="quarter" />
		<tag k="ssr:stedsnr" v="851766" />
	</node>
	<node id="-7904" lat="59.0729278521" lon="5.68265417608">
		<tag k="name" v="Vaula" />
		<tag k="place" v="farm" />
		<tag k="ssr:stedsnr" v="851822" />
	</node>
	<node id="-7900" lat="59.1348820664" lon="5.93706931603">
		<tag k="name" v="Søravåg" />
		<tag k="place" v="farm" />
		<tag k="ssr:stedsnr" v="851535" />
	</node>
	<node id="-7893" lat="59.1243472231" lon="5.90798334127">
		<tag k="name" v="Haugen" />
		<tag k="place" v="farm" />
		<tag k="ssr:stedsnr" v="843316" />
	</node>
	<node id="-7892" lat="59.1840249974" lon="5.81639722552">
		<tag k="name" v="Ramsen" />
		<tag k="place" v="farm" />
		<tag k="ssr:stedsnr" v="843160" />
	</node>
	<node id="-7887" lat="59.1449583318" lon="5.80984722071">
		<tag k="name" v="Lasteintræ" />
		<tag k="place" v="farm" />
		<tag k="ssr:stedsnr" v="842525" />
	</node>
	<node id="-7881" lat="59.1065305527" lon="5.70383055003">
		<tag k="name" v="Slettebø" />
		<tag k="place" v="farm" />
		<tag k="ssr:stedsnr" v="842007" />
	</node>
	<node id="-7878" lat="59.1290027735" lon="5.64428611507">
		<tag k="name" v="Sørbø" />
		<tag k="place" v="farm" />
		<tag k="ssr:stedsnr" v="937464" />
	</node>
	<node id="-7877" lat="59.1124916686" lon="5.68517500842">
		<tag k="name" v="Nordbø" />
		<tag k="place" v="farm" />
		<tag k="ssr:stedsnr" v="937458" />
	</node>
	<node id="-7876" lat="59.131005552" lon="5.60369165972">
		<tag k="name" v="Galta" />
		<tag k="place" v="farm" />
		<tag k="ssr:stedsnr" v="937449" />
	</node>
	<node id="-7875" lat="59.125219445" lon="5.61532778415">
		<tag k="name" v="Voll" />
		<tag k="place" v="farm" />
		<tag k="ssr:stedsnr" v="937444" />
	</node>
	<node id="-7874" lat="59.1046611105" lon="5.72030276914">
		<tag k="name" v="Austbø" />
		<tag k="place" v="farm" />
		<tag k="ssr:stedsnr" v="937093" />
	</node>
	<node id="-7872" lat="59.0984907207" lon="5.69987877472">
		<tag k="name" v="Håvastein" />
		<tag k="place" v="farm" />
		<tag k="ssr:stedsnr" v="935725" />
	</node>
	<node id="-7871" lat="59.0666277774" lon="5.68502500119">
		<tag k="name" v="Askje" />
		<tag k="place" v="farm" />
		<tag k="ssr:stedsnr" v="935468" />
	</node>
	<node id="-9162" lat="59.1461499955" lon="5.83374443916">
		<tag k="name" v="Reilstad" />
		<tag k="place" v="farm" />
		<tag k="ssr:stedsnr" v="608266" />
	</node>
	<node id="-7865" lat="58.9770722207" lon="5.71973054703">
		<tag k="leisure" v="park" />
		<tag k="name" v="Bjergsted" />
		<tag k="ssr:stedsnr" v="934032" />
	</node>
	<node id="-7864" lat="58.9505305558" lon="5.71886944111">
		<tag k="leisure" v="pitch" />
		<tag k="name" v="SIF stadion" />
		<tag k="ssr:stedsnr" v="934001" />
	</node>
	<node id="-7861" lat="58.9714000001" lon="5.73612222586">
		<tag k="name" v="Lars Oftedals plass" />
		<tag k="place" v="square" />
		<tag k="ssr:stedsnr" v="931448" />
	</node>
	<node id="-7859" lat="59.2745423212" lon="5.87435226579">
		<tag k="alt_name" v="Habn" />
		<tag k="name" v="Hamn" />
		<tag k="place" v="farm" />
		<tag k="ssr:stedsnr" v="791604" />
	</node>
	<node id="-7855" lat="59.2050786818" lon="5.93644594085">
		<tag k="fixme" v="consider place=hamlet" />
		<tag k="name" v="Halsne" />
		<tag k="place" v="farm" />
		<tag k="ssr:stedsnr" v="790960" />
	</node>
	<node id="-7854" lat="59.1358133872" lon="5.92062512544">
		<tag k="alt_name" v="Ærås" />
		<tag k="fixme" v="consider place=hamlet" />
		<tag k="name" v="Erås" />
		<tag k="place" v="farm" />
		<tag k="ssr:stedsnr" v="790570" />
	</node>
	<node id="-7853" lat="59.1244809433" lon="5.90811411795">
		<tag k="alt_name" v="Øvre Eide" />
		<tag k="fixme" v="consider place=hamlet" />
		<tag k="name" v="Eide" />
		<tag k="place" v="farm" />
		<tag k="ssr:stedsnr" v="790568" />
	</node>
	<node id="-7850" lat="59.03719763" lon="5.69225885379">
		<tag k="name" v="Vardaberg" />
		<tag k="place" v="farm" />
		<tag k="ssr:stedsnr" v="790811" />
	</node>
	<node id="-7843" lat="59.173671207" lon="5.81787404035">
		<tag k="fixme" v="consider place=hamlet" />
		<tag k="name" v="Hesby" />
		<tag k="place" v="farm" />
		<tag k="ssr:stedsnr" v="790228" />
	</node>
	<node id="-7842" lat="59.1676323053" lon="5.83013948514">
		<tag k="name" v="Falkeid" />
		<tag k="place" v="farm" />
		<tag k="ssr:stedsnr" v="790226" />
	</node>
	<node id="-7841" lat="58.9185250003" lon="5.69640834105">
		<tag k="name" v="Jåttå" />
		<tag k="place" v="farm" />
		<tag k="ssr:stedsnr" v="789007" />
	</node>
	<node id="-7824" lat="59.2727388886" lon="6.09942777184">
		<tag k="name" v="Bjelkavik" />
		<tag k="place" v="farm" />
		<tag k="ssr:stedsnr" v="769530" />
	</node>
	<node id="-7817" lat="59.0050249974" lon="5.7275583405">
		<tag k="name" v="Skjeie" />
		<tag k="place" v="locality" />
		<tag k="ssr:stedsnr" v="767908" />
	</node>
	<node id="-7816" lat="58.9701328551" lon="5.72965580174">
		<tag k="name" v="Rosenkildetorget" />
		<tag k="place" v="square" />
		<tag k="ssr:stedsnr" v="767889" />
	</node>
	<node id="-7809" lat="59.250679263" lon="6.07695327533">
		<tag k="alt_name" v="Skor;Ytre Skår" />
		<tag k="fixme" v="consider place=hamlet" />
		<tag k="name" v="Skår" />
		<tag k="place" v="farm" />
		<tag k="ssr:stedsnr" v="912971" />
	</node>
	<node id="-9152" lat="58.9848329932" lon="5.682400868">
		<tag k="alt_name" v="Tasta, øvre" />
		<tag k="fixme" v="consider place=hamlet" />
		<tag k="name" v="Øvre Tasta" />
		<tag k="place" v="farm" />
		<tag k="ssr:stedsnr" v="607107" />
	</node>
	<node id="-7806" lat="59.1845249991" lon="5.96836665876">
		<tag k="name" v="Eike" />
		<tag k="place" v="farm" />
		<tag k="ssr:stedsnr" v="912881" />
	</node>
	<node id="-7796" lat="59.2802277778" lon="5.95491388774">
		<tag k="alt_name" v="Jørstad, nedre" />
		<tag k="name" v="Nedre Jørstad" />
		<tag k="place" v="farm" />
		<tag k="ssr:stedsnr" v="912625" />
	</node>
	<node id="-7795" lat="59.285948253" lon="6.03413200038">
		<tag k="fixme" v="consider place=hamlet" />
		<tag k="name" v="Bandaberg" />
		<tag k="place" v="farm" />
		<tag k="ssr:stedsnr" v="912623" />
	</node>
	<node id="-7794" lat="59.2760505045" lon="5.98110403827">
		<tag k="fixme" v="consider place=hamlet" />
		<tag k="name" v="Bjerga" />
		<tag k="place" v="farm" />
		<tag k="ssr:stedsnr" v="912609" />
	</node>
	<node id="-7792" lat="59.106716671" lon="5.60161944185">
		<tag k="name" v="Bakklandet" />
		<tag k="place" v="farm" />
		<tag k="ssr:stedsnr" v="912386" />
	</node>
	<node id="-7791" lat="59.1234111148" lon="5.67349722964">
		<tag k="name" v="Ertenstein" />
		<tag k="place" v="farm" />
		<tag k="ssr:stedsnr" v="912375" />
	</node>
	<node id="-7790" lat="59.1187924524" lon="5.58508215072">
		<tag k="name" v="Låder" />
		<tag k="place" v="isolated_dwelling" />
		<tag k="ssr:stedsnr" v="912367" />
	</node>
	<node id="-7786" lat="59.1091537051" lon="5.82431417553">
		<tag k="fixme" v="consider place=hamlet" />
		<tag k="name" v="Meling" />
		<tag k="place" v="farm" />
		<tag k="ssr:stedsnr" v="912345" />
	</node>
	<node id="-9148" lat="58.9445801555" lon="5.71778728523">
		<tag k="name" v="Ullandhaug" />
		<tag k="place" v="suburb" />
		<tag k="ssr:stedsnr" v="607056" />
	</node>
	<node id="-7776" lat="59.0732727426" lon="5.6890471304">
		<tag k="name" v="Hodnafjell" />
		<tag k="place" v="farm" />
		<tag k="ssr:stedsnr" v="911849" />
	</node>
	<node id="-7771" lat="59.0389507944" lon="5.66186801221">
		<tag k="fixme" v="consider place=hamlet" />
		<tag k="name" v="Bru" />
		<tag k="place" v="farm" />
		<tag k="ssr:stedsnr" v="911800" />
	</node>
	<node id="-7764" lat="59.1040805586" lon="5.84003611539">
		<tag k="name" v="Øygarden" />
		<tag k="place" v="farm" />
		<tag k="ssr:stedsnr" v="911350" />
	</node>
	<node id="-7762" lat="59.1657151525" lon="5.82259196914">
		<tag k="alt_name" v="Flesjå" />
		<tag k="fixme" v="consider place=hamlet" />
		<tag k="name" v="Flesjo" />
		<tag k="place" v="farm" />
		<tag k="ssr:stedsnr" v="911280" />
	</node>
	<node id="-7761" lat="58.9772598961" lon="5.70699009748">
		<tag k="alt_name" v="Tasta, in" />
		<tag k="fixme" v="consider place=suburb, village or hamlet" />
		<tag k="name" v="Indre Tasta" />
		<tag k="place" v="quarter" />
		<tag k="ssr:stedsnr" v="911113" />
	</node>
	<node id="-7759" lat="58.9646722244" lon="5.6445333317">
		<tag k="alt_name" v="Krossberget" />
		<tag k="name" v="Krossberg" />
		<tag k="place" v="farm" />
		<tag k="ssr:stedsnr" v="911087" />
	</node>
	<node id="-7758" lat="58.9667628967" lon="5.62234901651">
		<tag k="name" v="Porsen" />
		<tag k="place" v="locality" />
		<tag k="ssr:stedsnr" v="911085" />
	</node>
	<node id="-7757" lat="58.9747388916" lon="5.61824443736">
		<tag k="alt_name" v="Skjelbrei" />
		<tag k="name" v="Skjelbreid" />
		<tag k="place" v="farm" />
		<tag k="ssr:stedsnr" v="911073" />
	</node>
	<node id="-7756" lat="59.2546833373" lon="6.07155833461">
		<tag k="name" v="Gamlatunet" />
		<tag k="place" v="locality" />
		<tag k="ssr:stedsnr" v="909739" />
	</node>
	<node id="-7748" lat="59.2588222225" lon="5.83333610875">
		<tag k="name" v="Norheimsbøen" />
		<tag k="place" v="farm" />
		<tag k="ssr:stedsnr" v="909492" />
	</node>
	<node id="-8800" lat="59.1200277802" lon="5.69294999791">
		<tag k="name" v="Nordbø" />
		<tag k="place" v="farm" />
		<tag k="ssr:stedsnr" v="390394" />
	</node>
	<node id="-7733" lat="58.9373611097" lon="5.68121666733">
		<tag k="name" v="Madlalia" />
		<tag k="place" v="quarter" />
		<tag k="ssr:stedsnr" v="752314" />
	</node>
	<node id="-7732" lat="58.9446916712" lon="5.68176389543">
		<tag k="name" v="Madlamark" />
		<tag k="place" v="suburb" />
		<tag k="ssr:stedsnr" v="752313" />
	</node>
	<node id="-7722" lat="59.0946734058" lon="5.75929903673">
		<tag k="fixme" v="consider place=hamlet" />
		<tag k="name" v="Mehus" />
		<tag k="place" v="farm" />
		<tag k="ssr:stedsnr" v="903943" />
	</node>
	<node id="-7719" lat="59.1220250035" lon="5.89352500548">
		<tag k="name" v="Dal" />
		<tag k="place" v="farm" />
		<tag k="ssr:stedsnr" v="903328" />
	</node>
	<node id="-7708" lat="59.1177138874" lon="5.69162221963">
		<tag k="name" v="Tinghaug" />
		<tag k="place" v="farm" />
		<tag k="ssr:stedsnr" v="902026" />
	</node>
	<node id="-8794" lat="59.0390222263" lon="5.69046111661">
		<tag k="name" v="Hegraberg" />
		<tag k="place" v="farm" />
		<tag k="ssr:stedsnr" v="389707" />
	</node>
	<node id="-7704" lat="59.1415490409" lon="5.91424849397">
		<tag k="alt_name" v="Longaland" />
		<tag k="fixme" v="consider place=hamlet" />
		<tag k="name" v="Langaland" />
		<tag k="place" v="farm" />
		<tag k="ssr:stedsnr" v="730606" />
	</node>
	<node id="-7702" lat="59.1243611072" lon="5.64064166372">
		<tag k="name" v="Stoggdal" />
		<tag k="place" v="farm" />
		<tag k="ssr:stedsnr" v="730371" />
	</node>
	<node id="-7699" lat="58.910016869" lon="5.70969418729">
		<tag k="fixme" v="consider place=hamlet" />
		<tag k="name" v="Jåttå" />
		<tag k="place" v="farm" />
		<tag k="ssr:stedsnr" v="729027" />
	</node>
	<node id="-9531" lat="58.9006079103" lon="5.72834188196">
		<tag k="fixme" v="consider place=hamlet" />
		<tag k="name" v="Gausel" />
		<tag k="place" v="farm" />
		<tag k="ssr:stedsnr" v="850962" />
	</node>
	<node id="-7678" lat="59.1482916638" lon="5.78061943936">
		<tag k="name" v="Sønstø" />
		<tag k="place" v="locality" />
		<tag k="ssr:stedsnr" v="720561" />
	</node>
	<node id="-9130" lat="59.2574777775" lon="5.93994444269">
		<tag k="name" v="Søllberg" />
		<tag k="place" v="farm" />
		<tag k="ssr:stedsnr" v="605457" />
	</node>
	<node id="-7673" lat="58.9614277759" lon="5.73341110585">
		<tag k="name" v="Herman Beckers plass" />
		<tag k="place" v="square" />
		<tag k="ssr:stedsnr" v="894900" />
	</node>
	<node id="-7667" lat="59.0399694451" lon="5.66209722792">
		<tag k="name" v="Grønland" />
		<tag k="place" v="farm" />
		<tag k="ssr:stedsnr" v="891715" />
	</node>
	<node id="-8787" lat="58.961958333" lon="5.73266667443">
		<tag k="amenity" v="school" />
		<tag k="name" v="Våland skole" />
		<tag k="ssr:stedsnr" v="387036" />
	</node>
	<node id="-7664" lat="59.1828027783" lon="5.96694444132">
		<tag k="name" v="Bøen" />
		<tag k="place" v="farm" />
		<tag k="ssr:stedsnr" v="891251" />
	</node>
	<node id="-7660" lat="58.960513891" lon="5.75627777945">
		<tag k="name" v="Midjord" />
		<tag k="place" v="locality" />
		<tag k="ssr:stedsnr" v="889997" />
	</node>
	<node id="-8786" lat="58.9598083334" lon="5.75508888629">
		<tag k="leisure" v="pitch" />
		<tag k="name" v="Midjord stadion" />
		<tag k="ssr:stedsnr" v="387031" />
	</node>
	<node id="-7655" lat="58.9677249998" lon="5.61162222705">
		<tag k="fixme" v="consider place=suburb, village or hamlet" />
		<tag k="loc_name" v="Nord Sunde" />
		<tag k="name" v="Nord-Sunde" />
		<tag k="place" v="quarter" />
		<tag k="ssr:stedsnr" v="889646" />
	</node>
	<node id="-7653" lat="59.0411000018" lon="5.76402778258">
		<tag k="fixme" v="consider place=hamlet" />
		<tag k="name" v="Lunde Søre" />
		<tag k="place" v="village" />
		<tag k="ssr:stedsnr" v="889569" />
	</node>
	<node id="-7652" lat="58.9402564788" lon="5.74189532318">
		<tag k="alt_name" v="Kristianlyst" />
		<tag k="name" v="Kristianslyst" />
		<tag k="place" v="suburb" />
		<tag k="ssr:stedsnr" v="889559" />
	</node>
	<node id="-7646" lat="59.0776361067" lon="5.68569166157">
		<tag k="name" v="Vaula" />
		<tag k="place" v="farm" />
		<tag k="ssr:stedsnr" v="694417" />
	</node>
	<node id="-7645" lat="59.1356138894" lon="5.60701944889">
		<tag k="name" v="Galta" />
		<tag k="place" v="farm" />
		<tag k="ssr:stedsnr" v="694414" />
	</node>
	<node id="-7644" lat="59.138566667" lon="5.59915276981">
		<tag k="name" v="Galta" />
		<tag k="place" v="farm" />
		<tag k="ssr:stedsnr" v="694413" />
	</node>
	<node id="-7643" lat="59.133611107" lon="5.59658333008">
		<tag k="name" v="Galta" />
		<tag k="place" v="farm" />
		<tag k="ssr:stedsnr" v="694412" />
	</node>
	<node id="-7640" lat="59.0620250015" lon="5.68847221845">
		<tag k="name" v="Askje" />
		<tag k="place" v="farm" />
		<tag k="ssr:stedsnr" v="692425" />
	</node>
	<node id="-7639" lat="58.9558249989" lon="5.73674721609">
		<tag k="name" v="Jonas Dahls plass" />
		<tag k="place" v="square" />
		<tag k="ssr:stedsnr" v="888830" />
	</node>
	<node id="-7628" lat="59.1317093776" lon="5.60084107319">
		<tag k="fixme" v="consider place=hamlet" />
		<tag k="name" v="Galta" />
		<tag k="place" v="farm" />
		<tag k="ssr:stedsnr" v="661875" />
	</node>
	<node id="-7626" lat="59.1282054292" lon="5.63652385245">
		<tag k="fixme" v="consider place=hamlet" />
		<tag k="name" v="Sørbø" />
		<tag k="place" v="farm" />
		<tag k="ssr:stedsnr" v="661604" />
	</node>
	<node id="-7620" lat="59.1239211091" lon="5.62638663437">
		<tag k="name" v="Risa" />
		<tag k="place" v="farm" />
		<tag k="ssr:stedsnr" v="876442" />
	</node>
	<node id="-7619" lat="59.1128472206" lon="5.69643056159">
		<tag k="name" v="Nordbø" />
		<tag k="place" v="farm" />
		<tag k="ssr:stedsnr" v="876434" />
	</node>
	<node id="-7618" lat="59.0778083325" lon="5.66755277573">
		<tag k="name" v="Vaula" />
		<tag k="place" v="farm" />
		<tag k="ssr:stedsnr" v="876427" />
	</node>
	<node id="-7617" lat="59.1351444418" lon="5.60632778656">
		<tag k="name" v="Galta" />
		<tag k="place" v="farm" />
		<tag k="ssr:stedsnr" v="876422" />
	</node>
	<node id="-7616" lat="59.1340861081" lon="5.60700277598">
		<tag k="name" v="Galta" />
		<tag k="place" v="farm" />
		<tag k="ssr:stedsnr" v="876417" />
	</node>
	<node id="-8778" lat="59.2471040186" lon="6.05533812715">
		<tag k="fixme" v="consider place=hamlet" />
		<tag k="name" v="Rossåna" />
		<tag k="place" v="farm" />
		<tag k="ssr:stedsnr" v="366962" />
	</node>
	<node id="-8777" lat="59.168424794" lon="5.87379900287">
		<tag k="fixme" v="consider place=hamlet" />
		<tag k="name" v="Få" />
		<tag k="place" v="farm" />
		<tag k="ssr:stedsnr" v="366878" />
	</node>
	<node id="-7597" lat="58.9862956158" lon="5.75260288934">
		<tag k="fixme" v="consider place=hamlet" />
		<tag k="name" v="Steinsøy" />
		<tag k="place" v="farm" />
		<tag k="ssr:stedsnr" v="645554" />
	</node>
	<node id="-9642" lat="58.9655007386" lon="5.73231668114">
		<tag k="name" v="Leiv Isaksens plass" />
		<tag k="place" v="square" />
		<tag k="ssr:stedsnr" v="975717" />
	</node>
	<node id="-9641" lat="59.240810526" lon="5.88888419822">
		<tag k="fixme" v="consider place=hamlet" />
		<tag k="name" v="Nordre Hidle" />
		<tag k="place" v="farm" />
		<tag k="ssr:stedsnr" v="974423" />
	</node>
	<node id="-7592" lat="59.1720416674" lon="5.8761722284">
		<tag k="name" v="Judaberg" />
		<tag k="place" v="village" />
		<tag k="ssr:stedsnr" v="730902" />
	</node>
	<node id="-7587" lat="59.2832750037" lon="5.95492500749">
		<tag k="fixme" v="consider place=hamlet" />
		<tag k="name" v="Jørstadvågen" />
		<tag k="place" v="village" />
		<tag k="ssr:stedsnr" v="730655" />
	</node>
	<node id="-7585" lat="59.2558500007" lon="5.86232500617">
		<tag k="alt_name" v="Bjerga, vestre" />
		<tag k="name" v="Vestre Bjerga" />
		<tag k="place" v="farm" />
		<tag k="ssr:stedsnr" v="730616" />
	</node>
	<node id="-7584" lat="59.2645140587" lon="5.8816261336">
		<tag k="fixme" v="consider place=hamlet" />
		<tag k="name" v="Nesheim" />
		<tag k="place" v="farm" />
		<tag k="ssr:stedsnr" v="730615" />
	</node>
	<node id="-7581" lat="59.1068083349" lon="5.77563888838">
		<tag k="name" v="Nedrabø" />
		<tag k="place" v="farm" />
		<tag k="ssr:stedsnr" v="730330" />
	</node>
	<node id="-7580" lat="59.1088062884" lon="5.70482860444">
		<tag k="fixme" v="consider place=hamlet" />
		<tag k="name" v="Midbø" />
		<tag k="place" v="farm" />
		<tag k="ssr:stedsnr" v="730314" />
	</node>
	<node id="-7579" lat="59.1811409995" lon="5.8135445787">
		<tag k="fixme" v="consider place=hamlet" />
		<tag k="name" v="Vestbø" />
		<tag k="place" v="farm" />
		<tag k="ssr:stedsnr" v="730298" />
	</node>
	<node id="-7577" lat="59.0968620496" lon="5.76905031104">
		<tag k="fixme" v="consider place=hamlet" />
		<tag k="name" v="Nordhus" />
		<tag k="place" v="farm" />
		<tag k="ssr:stedsnr" v="729849" />
	</node>
	<node id="-7576" lat="59.0789091926" lon="5.76580314132">
		<tag k="fixme" v="consider place=hamlet" />
		<tag k="name" v="Askje" />
		<tag k="place" v="farm" />
		<tag k="ssr:stedsnr" v="729829" />
	</node>
	<node id="-7574" lat="59.1624427206" lon="5.94213367011">
		<tag k="alt_name" v="Ytre Bokn" />
		<tag k="fixme" v="consider place=hamlet" />
		<tag k="name" v="Bokn" />
		<tag k="place" v="farm" />
		<tag k="ssr:stedsnr" v="729633" />
	</node>
	<node id="-9620" lat="59.2642583336" lon="6.10269444431">
		<tag k="name" v="Tjueneset" />
		<tag k="place" v="neighbourhood" />
		<tag k="ssr:stedsnr" v="966224" />
	</node>
	<node id="-7569" lat="59.0408285697" lon="5.74896972519">
		<tag k="fixme" v="consider place=hamlet" />
		<tag k="name" v="Meling" />
		<tag k="place" v="farm" />
		<tag k="ssr:stedsnr" v="729806" />
	</node>
	<node id="-7567" lat="59.0820499994" lon="5.67132499208">
		<tag k="name" v="Voll" />
		<tag k="place" v="farm" />
		<tag k="ssr:stedsnr" v="729375" />
	</node>
	<node id="-7566" lat="59.1255083359" lon="5.63453332952">
		<tag k="name" v="Hummervoll" />
		<tag k="place" v="farm" />
		<tag k="ssr:stedsnr" v="729368" />
	</node>
	<node id="-9613" lat="59.0664404539" lon="5.69041379694">
		<tag k="fixme" v="consider place=hamlet" />
		<tag k="name" v="Askje" />
		<tag k="place" v="farm" />
		<tag k="ssr:stedsnr" v="964589" />
	</node>
	<node id="-7564" lat="59.1438568139" lon="5.81269436423">
		<tag k="alt_name" v="Lastein, indre;Lastein" />
		<tag k="fixme" v="consider place=hamlet" />
		<tag k="name" v="Indre Lastein" />
		<tag k="place" v="farm" />
		<tag k="ssr:stedsnr" v="729303" />
	</node>
	<node id="-7563" lat="59.1482041378" lon="5.82412293261">
		<tag k="fixme" v="consider place=hamlet" />
		<tag k="name" v="Berge" />
		<tag k="place" v="farm" />
		<tag k="ssr:stedsnr" v="729294" />
	</node>
	<node id="-7561" lat="59.16402639" lon="5.80772191061">
		<tag k="fixme" v="consider place=hamlet" />
		<tag k="name" v="Steinnes" />
		<tag k="place" v="farm" />
		<tag k="ssr:stedsnr" v="729289" />
	</node>
	<node id="-7560" lat="59.0928833288" lon="5.58716388288">
		<tag k="name" v="Øygarden" />
		<tag k="place" v="farm" />
		<tag k="ssr:stedsnr" v="729360" />
	</node>
	<node id="-7558" lat="58.9885722214" lon="5.66055278395">
		<tag k="name" v="Finnastad" />
		<tag k="place" v="farm" />
		<tag k="ssr:stedsnr" v="729121" />
	</node>
	<node id="-7557" lat="58.9937333291" lon="5.67167222454">
		<tag k="alt_name" v="Tasta, øvre" />
		<tag k="name" v="Øvre Tasta" />
		<tag k="place" v="farm" />
		<tag k="ssr:stedsnr" v="729113" />
	</node>
	<node id="-7555" lat="58.9563805572" lon="5.65098889506">
		<tag k="name" v="Alvatun" />
		<tag k="place" v="farm" />
		<tag k="ssr:stedsnr" v="729092" />
	</node>
	<node id="-7554" lat="58.9661722226" lon="5.63334167007">
		<tag k="name" v="Pigelsheia" />
		<tag k="place" v="farm" />
		<tag k="ssr:stedsnr" v="729076" />
	</node>
	<node id="-7553" lat="58.9446174201" lon="5.7446658266">
		<tag k="name" v="Hillevåg" />
		<tag k="place" v="suburb" />
		<tag k="ssr:stedsnr" v="729054" />
	</node>
	<node id="-9598" lat="59.1623055542" lon="5.96695834046">
		<tag k="name" v="Storeflåt" />
		<tag k="place" v="farm" />
		<tag k="ssr:stedsnr" v="963283" />
	</node>
	<node id="-7547" lat="58.9642833347" lon="5.70693888898">
		<tag k="amenity" v="school" />
		<tag k="name" v="Eiganes skole" />
		<tag k="ssr:stedsnr" v="630303" />
	</node>
	<node id="-7546" lat="58.9804277771" lon="5.71128333329">
		<tag k="leisure" v="pitch" />
		<tag k="name" v="Stemmen idrettsplass" />
		<tag k="ssr:stedsnr" v="630177" />
	</node>
	<node id="-7540" lat="58.9605555573" lon="5.75886111569">
		<tag k="leisure" v="park" />
		<tag k="name" v="Ramsvik kolonihager" />
		<tag k="ssr:stedsnr" v="630023" />
	</node>
	<node id="-8766" lat="59.1036750022" lon="5.77345277064">
		<tag k="name" v="Norheim" />
		<tag k="place" v="farm" />
		<tag k="ssr:stedsnr" v="366340" />
	</node>
	<node id="-7538" lat="59.276051995" lon="5.87059067862">
		<tag k="name" v="Austbø" />
		<tag k="place" v="farm" />
		<tag k="ssr:stedsnr" v="727745" />
	</node>
	<node id="-7536" lat="59.2401638877" lon="6.02730555261">
		<tag k="name" v="Høydal" />
		<tag k="place" v="farm" />
		<tag k="ssr:stedsnr" v="727692" />
	</node>
	<node id="-7533" lat="59.0428861085" lon="5.75676111581">
		<tag k="name" v="Lundshaugen" />
		<tag k="place" v="farm" />
		<tag k="ssr:stedsnr" v="727525" />
	</node>
	<node id="-9580" lat="59.1046611105" lon="5.72030276914">
		<tag k="name" v="Austbø" />
		<tag k="place" v="farm" />
		<tag k="ssr:stedsnr" v="876087" />
	</node>
	<node id="-9579" lat="59.0801027756" lon="5.64635555063">
		<tag k="name" v="Hodnafjell" />
		<tag k="place" v="farm" />
		<tag k="ssr:stedsnr" v="875513" />
	</node>
	<node id="-9578" lat="58.9721205286" lon="5.72595170927">
		<tag k="name" v="Einar Hedéns plass" />
		<tag k="place" v="square" />
		<tag k="ssr:stedsnr" v="875424" />
	</node>
	<node id="-9573" lat="58.9719333361" lon="5.71250000156">
		<tag k="amenity" v="school" />
		<tag k="name" v="Misjonsskolen" />
		<tag k="ssr:stedsnr" v="873187" />
	</node>
	<node id="-9572" lat="58.9529277788" lon="5.72455277434">
		<tag k="leisure" v="park" />
		<tag k="name" v="Våland kolonihager" />
		<tag k="ssr:stedsnr" v="873002" />
	</node>
	<node id="-9446" lat="58.9647924215" lon="5.69146305765">
		<tag k="name" v="Stokka" />
		<tag k="place" v="suburb" />
		<tag k="ssr:stedsnr" v="828619" />
	</node>
	<node id="-9568" lat="59.169159757" lon="5.94591451938">
		<tag k="alt_name" v="Indre Bokn" />
		<tag k="fixme" v="consider place=hamlet" />
		<tag k="name" v="Indrebokn" />
		<tag k="place" v="farm" />
		<tag k="ssr:stedsnr" v="852592" />
	</node>
	<node id="-9567" lat="59.2925750038" lon="6.03177500012">
		<tag k="alt_name" v="Bandura" />
		<tag k="name" v="Bandurda" />
		<tag k="place" v="farm" />
		<tag k="ssr:stedsnr" v="852591" />
	</node>
	<node id="-9566" lat="59.2904249983" lon="6.03295000612">
		<tag k="alt_name" v="Hidleren" />
		<tag k="name" v="Hilleren" />
		<tag k="place" v="farm" />
		<tag k="ssr:stedsnr" v="852590" />
	</node>
	<node id="-7514" lat="59.1474861079" lon="5.83704167414">
		<tag k="fixme" v="consider place=suburb, village or hamlet" />
		<tag k="name" v="Reilstad" />
		<tag k="place" v="quarter" />
		<tag k="ssr:stedsnr" v="721574" />
	</node>
	<node id="-7513" lat="59.1357672093" lon="5.90740888146">
		<tag k="name" v="Rossmorkjå" />
		<tag k="place" v="farm" />
		<tag k="ssr:stedsnr" v="721325" />
	</node>
	<node id="-7512" lat="59.1384766515" lon="5.9025086109">
		<tag k="amenity" v="school" />
		<tag k="name" v="Fogn skole" />
		<tag k="ssr:stedsnr" v="721309" />
	</node>
	<node id="-7511" lat="59.1282742695" lon="5.93276375024">
		<tag k="loc_name" v="Vardneset" />
		<tag k="name" v="Vareneset" />
		<tag k="place" v="farm" />
		<tag k="ssr:stedsnr" v="721292" />
	</node>
	<node id="-7503" lat="59.1038262818" lon="5.65530046128">
		<tag k="fixme" v="consider place=hamlet" />
		<tag k="name" v="Litladal" />
		<tag k="place" v="farm" />
		<tag k="ssr:stedsnr" v="721187" />
	</node>
	<node id="-9547" lat="59.1233916662" lon="5.62462222258">
		<tag k="name" v="Risa" />
		<tag k="place" v="farm" />
		<tag k="ssr:stedsnr" v="851338" />
	</node>
	<node id="-7498" lat="59.1187944421" lon="5.58279167284">
		<tag k="name" v="Låder" />
		<tag k="place" v="farm" />
		<tag k="ssr:stedsnr" v="720316" />
	</node>
	<node id="-9542" lat="59.1906589314" lon="5.81599673759">
		<tag k="alt_name" v="Landa, nedre;Landa" />
		<tag k="fixme" v="consider place=hamlet" />
		<tag k="name" v="Nedre Landa" />
		<tag k="place" v="farm" />
		<tag k="ssr:stedsnr" v="851289" />
	</node>
	<node id="-7493" lat="59.2489263965" lon="5.8674222489">
		<tag k="fixme" v="consider place=hamlet" />
		<tag k="name" v="Skjelsnes" />
		<tag k="place" v="farm" />
		<tag k="ssr:stedsnr" v="608981" />
	</node>
	<node id="-7492" lat="59.2448130579" lon="5.93625131723">
		<tag k="alt_name" v="Håle" />
		<tag k="fixme" v="consider place=hamlet" />
		<tag k="name" v="Hole" />
		<tag k="place" v="farm" />
		<tag k="ssr:stedsnr" v="608980" />
	</node>
	<node id="-7486" lat="59.2805500043" lon="5.97357500587">
		<tag k="name" v="Åsbø" />
		<tag k="place" v="farm" />
		<tag k="ssr:stedsnr" v="608638" />
	</node>
	<node id="-7484" lat="59.2692000034" lon="5.88154999644">
		<tag k="name" v="Nygård" />
		<tag k="place" v="farm" />
		<tag k="ssr:stedsnr" v="608624" />
	</node>
	<node id="-7483" lat="59.2682394701" lon="5.95076128608">
		<tag k="alt_name" v="Kylå" />
		<tag k="fixme" v="consider place=hamlet" />
		<tag k="name" v="Kyla" />
		<tag k="place" v="farm" />
		<tag k="ssr:stedsnr" v="608619" />
	</node>
	<node id="-9529" lat="58.960389377" lon="5.63573360269">
		<tag k="alt_name" v="Sunde, søre;Søndre Sunde" />
		<tag k="fixme" v="consider place=hamlet" />
		<tag k="name" v="Søre Sunde" />
		<tag k="place" v="farm" />
		<tag k="ssr:stedsnr" v="850088" />
	</node>
	<node id="-7478" lat="59.0973916634" lon="5.74260000603">
		<tag k="alt_name" v="Myrdal" />
		<tag k="name" v="Storemyr" />
		<tag k="place" v="farm" />
		<tag k="ssr:stedsnr" v="607839" />
	</node>
	<node id="-7390" lat="59.0767694447" lon="5.75719445184">
		<tag k="name" v="Holmen" />
		<tag k="place" v="farm" />
		<tag k="ssr:stedsnr" v="538380" />
	</node>
	<node id="-7474" lat="58.9110166636" lon="5.72472500154">
		<tag k="name" v="Boganes" />
		<tag k="place" v="farm" />
		<tag k="ssr:stedsnr" v="607034" />
	</node>
	<node id="-9517" lat="59.2337527755" lon="5.89486944679">
		<tag k="name" v="Strandvika" />
		<tag k="place" v="farm" />
		<tag k="ssr:stedsnr" v="849625" />
	</node>
	<node id="-9514" lat="59.2434083342" lon="5.80826111966">
		<tag k="name" v="Ytrebøen" />
		<tag k="place" v="farm" />
		<tag k="ssr:stedsnr" v="849561" />
	</node>
	<node id="-7462" lat="59.1219723658" lon="5.59250305839">
		<tag k="fixme" v="consider place=hamlet" />
		<tag k="name" v="Søre Reianes" />
		<tag k="place" v="farm" />
		<tag k="ssr:stedsnr" v="600847" />
	</node>
	<node id="-7457" lat="59.1220388865" lon="5.72066111937">
		<tag k="name" v="Hauen" />
		<tag k="place" v="farm" />
		<tag k="ssr:stedsnr" v="599556" />
	</node>
	<node id="-9504" lat="59.0753483819" lon="5.65673562395">
		<tag k="name" v="Torvberget" />
		<tag k="place" v="farm" />
		<tag k="ssr:stedsnr" v="848555" />
	</node>
	<node id="-7454" lat="59.1615388871" lon="5.93894166716">
		<tag k="name" v="Nybø" />
		<tag k="place" v="farm" />
		<tag k="ssr:stedsnr" v="599610" />
	</node>
	<node id="-9434" lat="59.1076749965" lon="5.69933055903">
		<tag k="name" v="Håvastein" />
		<tag k="place" v="farm" />
		<tag k="ssr:stedsnr" v="814735" />
	</node>
	<node id="-9433" lat="59.037606258" lon="5.69699503402">
		<tag k="name" v="Vardaberg" />
		<tag k="place" v="farm" />
		<tag k="ssr:stedsnr" v="814732" />
	</node>
	<node id="-7444" lat="58.9699611086" lon="5.71328889208">
		<tag k="name" v="Bekkelund" />
		<tag k="place" v="farm" />
		<tag k="ssr:stedsnr" v="586914" />
	</node>
	<node id="-7433" lat="58.9730138851" lon="5.61380277512">
		<tag k="name" v="Steinane" />
		<tag k="place" v="farm" />
		<tag k="ssr:stedsnr" v="708896" />
	</node>
	<node id="-7431" lat="58.9685472263" lon="5.72341388939">
		<tag k="name" v="Johan Gjøsteins plass" />
		<tag k="place" v="square" />
		<tag k="ssr:stedsnr" v="708786" />
	</node>
	<node id="-8765" lat="59.1003495939" lon="5.69618200687">
		<tag k="name" v="Håvastein" />
		<tag k="place" v="farm" />
		<tag k="ssr:stedsnr" v="366336" />
	</node>
	<node id="-9473" lat="59.0805482127" lon="5.642954244">
		<tag k="fixme" v="consider place=hamlet" />
		<tag k="name" v="Hodnafjellet" />
		<tag k="place" v="farm" />
		<tag k="ssr:stedsnr" v="842072" />
	</node>
	<node id="-7419" lat="58.9739138933" lon="5.7252194511">
		<tag k="name" v="Thore Horves plass" />
		<tag k="place" v="square" />
		<tag k="ssr:stedsnr" v="572457" />
	</node>
	<node id="-9466" lat="59.0501339872" lon="5.66960960095">
		<tag k="name" v="Nygard" />
		<tag k="place" v="farm" />
		<tag k="ssr:stedsnr" v="831573" />
	</node>
	<node id="-9464" lat="58.9092861131" lon="5.72675554847">
		<tag k="name" v="Årholen" />
		<tag k="place" v="locality" />
		<tag k="ssr:stedsnr" v="830915" />
	</node>
	<node id="-7415" lat="58.9702861119" lon="5.73139444944">
		<tag k="name" v="Torget" />
		<tag k="place" v="square" />
		<tag k="ssr:stedsnr" v="706882" />
	</node>
	<node id="-7413" lat="59.0596972213" lon="5.69111388345">
		<tag k="name" v="Askje" />
		<tag k="place" v="farm" />
		<tag k="ssr:stedsnr" v="571463" />
	</node>
	<node id="-7412" lat="58.9130027796" lon="5.71026110636">
		<tag k="name" v="Bastaberget" />
		<tag k="place" v="farm" />
		<tag k="ssr:stedsnr" v="706755" />
	</node>
	<node id="-7411" lat="58.9606527816" lon="5.63023889398">
		<tag k="fixme" v="consider place=suburb, village or hamlet" />
		<tag k="loc_name" v="Sør Sunde" />
		<tag k="name" v="Sør-Sunde" />
		<tag k="place" v="quarter" />
		<tag k="ssr:stedsnr" v="706636" />
	</node>
	<node id="-7410" lat="58.9510395946" lon="5.64592725056">
		<tag k="fixme" v="consider place=suburb, village or hamlet" />
		<tag k="name" v="Revheim" />
		<tag k="place" v="quarter" />
		<tag k="ssr:stedsnr" v="706635" />
	</node>
	<node id="-7409" lat="58.9900638876" lon="5.68923889638">
		<tag k="alt_name" v="Tasta Øvre" />
		<tag k="fixme" v="consider place=suburb, village or hamlet" />
		<tag k="name" v="Øvre Tasta" />
		<tag k="place" v="quarter" />
		<tag k="ssr:stedsnr" v="706630" />
	</node>
	<node id="-9453" lat="58.9653888913" lon="5.6151083411">
		<tag k="name" v="Kjelleberget" />
		<tag k="place" v="farm" />
		<tag k="ssr:stedsnr" v="828906" />
	</node>
	<node id="-9426" lat="59.0673888892" lon="5.6690666587">
		<tag k="name" v="Askje" />
		<tag k="place" v="farm" />
		<tag k="ssr:stedsnr" v="814482" />
	</node>
	<node id="-7402" lat="59.1102194434" lon="5.69722499178">
		<tag k="name" v="Nordbø" />
		<tag k="place" v="farm" />
		<tag k="ssr:stedsnr" v="694388" />
	</node>
	<node id="-7400" lat="58.9654888889" lon="5.71305278036">
		<tag k="name" v="Reidar Kvammens plass" />
		<tag k="place" v="square" />
		<tag k="ssr:stedsnr" v="693939" />
	</node>
	<node id="-7399" lat="58.9065111125" lon="5.70586388578">
		<tag k="name" v="Storeholen" />
		<tag k="place" v="farm" />
		<tag k="ssr:stedsnr" v="692783" />
	</node>
	<node id="-7398" lat="59.0784444482" lon="5.64147499459">
		<tag k="name" v="Hodnafjell" />
		<tag k="place" v="farm" />
		<tag k="ssr:stedsnr" v="692699" />
	</node>
	<node id="-7397" lat="59.0396027797" lon="5.69327777717">
		<tag k="name" v="Hegraberg" />
		<tag k="place" v="farm" />
		<tag k="ssr:stedsnr" v="692695" />
	</node>
	<node id="-7396" lat="59.0400555569" lon="5.68613611857">
		<tag k="name" v="Hegraberg" />
		<tag k="place" v="locality" />
		<tag k="ssr:stedsnr" v="692694" />
	</node>
	<node id="-9443" lat="58.8899222212" lon="5.74179999829">
		<tag k="name" v="Forus" />
		<tag k="place" v="suburb" />
		<tag k="ssr:stedsnr" v="828616" />
	</node>
	<node id="-9438" lat="58.9710333327" lon="5.73325556063">
		<tag k="name" v="Arneageren" />
		<tag k="place" v="square" />
		<tag k="ssr:stedsnr" v="828051" />
	</node>
	<node id="-9436" lat="59.1225027797" lon="5.59221110511">
		<tag k="name" v="Reianes" />
		<tag k="place" v="farm" />
		<tag k="ssr:stedsnr" v="816431" />
	</node>
	<node id="-9435" lat="59.081930554" lon="5.67118610856">
		<tag k="name" v="Vaula" />
		<tag k="place" v="farm" />
		<tag k="ssr:stedsnr" v="816094" />
	</node>
	<node id="-7386" lat="59.1035027755" lon="5.68205555309">
		<tag k="name" v="Krogjen" />
		<tag k="place" v="farm" />
		<tag k="ssr:stedsnr" v="538008" />
	</node>
	<node id="-7385" lat="59.042130475" lon="5.76319133413">
		<tag k="fixme" v="consider place=hamlet" />
		<tag k="name" v="Søre Lunde" />
		<tag k="place" v="farm" />
		<tag k="ssr:stedsnr" v="537249" />
	</node>
	<node id="-9432" lat="59.0373388922" lon="5.69916944704">
		<tag k="name" v="Vardaberg" />
		<tag k="place" v="farm" />
		<tag k="ssr:stedsnr" v="814729" />
	</node>
	<node id="-9431" lat="59.0348722198" lon="5.69640833529">
		<tag k="name" v="Vardaberg" />
		<tag k="place" v="farm" />
		<tag k="ssr:stedsnr" v="814726" />
	</node>
	<node id="-9430" lat="59.0354916644" lon="5.70655555259">
		<tag k="name" v="Vardaberg" />
		<tag k="place" v="farm" />
		<tag k="ssr:stedsnr" v="814720" />
	</node>
	<node id="-9429" lat="59.0784222179" lon="5.63207500146">
		<tag k="name" v="Hodnafjell" />
		<tag k="place" v="farm" />
		<tag k="ssr:stedsnr" v="814716" />
	</node>
	<node id="-9428" lat="59.0426555527" lon="5.69651944163">
		<tag k="name" v="Hegraberg" />
		<tag k="place" v="farm" />
		<tag k="ssr:stedsnr" v="814712" />
	</node>
	<node id="-7379" lat="58.9804722252" lon="5.7029666717">
		<tag k="amenity" v="school" />
		<tag k="name" v="Byfjord skole" />
		<tag k="ssr:stedsnr" v="691208" />
	</node>
	<node id="-7378" lat="58.9700999991" lon="5.70266943873">
		<tag k="leisure" v="park" />
		<tag k="name" v="Eiganes kolonihager" />
		<tag k="ssr:stedsnr" v="691205" />
	</node>
	<node id="-7377" lat="58.979305554" lon="5.70055832506">
		<tag k="amenity" v="school" />
		<tag k="name" v="Tastaveden skole" />
		<tag k="ssr:stedsnr" v="691204" />
	</node>
	<node id="-9424" lat="58.9436036415" lon="5.70827034664">
		<tag k="fixme" v="consider place=hamlet" />
		<tag k="name" v="Ullandhaug" />
		<tag k="place" v="farm" />
		<tag k="ssr:stedsnr" v="813640" />
	</node>
	<node id="-9423" lat="58.9403888918" lon="5.68431388376">
		<tag k="amenity" v="school" />
		<tag k="name" v="Gosen skole" />
		<tag k="ssr:stedsnr" v="813299" />
	</node>
	<node id="-9422" lat="58.9527267903" lon="5.66471841449">
		<tag k="name" v="Mølldal" />
		<tag k="place" v="quarter" />
		<tag k="ssr:stedsnr" v="813271" />
	</node>
	<node id="-7372" lat="58.971447226" lon="5.71869999594">
		<tag k="leisure" v="park" />
		<tag k="name" v="Rudlå" />
		<tag k="ssr:stedsnr" v="691047" />
	</node>
	<node id="-7370" lat="58.9619741424" lon="5.74277736063">
		<tag k="fixme" v="consider place=suburb, village or hamlet" />
		<tag k="name" v="Paradis" />
		<tag k="place" v="quarter" />
		<tag k="ssr:stedsnr" v="691034" />
	</node>
	<node id="-8770" lat="59.2748102165" lon="5.96445599921">
		<tag k="fixme" v="consider place=hamlet" />
		<tag k="name" v="Hetletveit" />
		<tag k="place" v="farm" />
		<tag k="ssr:stedsnr" v="366591" />
	</node>
	<node id="-7368" lat="58.9967777742" lon="5.73352499178">
		<tag k="amenity" v="school" />
		<tag k="name" v="Hundvåg skole" />
		<tag k="ssr:stedsnr" v="691019" />
	</node>
	<node id="-9415" lat="58.9867472216" lon="5.73307499751">
		<tag k="leisure" v="pitch" />
		<tag k="name" v="Buøy stadion" />
		<tag k="ssr:stedsnr" v="813041" />
	</node>
	<node id="-7359" lat="58.9664361085" lon="5.73769166587">
		<tag k="name" v="Sven Oftedals plass" />
		<tag k="place" v="square" />
		<tag k="ssr:stedsnr" v="524794" />
	</node>
	<node id="-7355" lat="58.9518055529" lon="5.70023332876">
		<tag k="name" v="Solborg" />
		<tag k="place" v="quarter" />
		<tag k="ssr:stedsnr" v="509296" />
	</node>
	<node id="-9402" lat="59.2697304901" lon="6.01030377754">
		<tag k="fixme" v="consider place=hamlet" />
		<tag k="name" v="Vatland" />
		<tag k="place" v="farm" />
		<tag k="ssr:stedsnr" v="791566" />
	</node>
	<node id="-9395" lat="59.0875833325" lon="5.70297777136">
		<tag k="name" v="Skabekken" />
		<tag k="place" v="isolated_dwelling" />
		<tag k="ssr:stedsnr" v="790885" />
	</node>
	<node id="-9075" lat="58.952997218" lon="5.6919416753">
		<tag k="alt_name" v="Tjensvoll Nedre" />
		<tag k="fixme" v="consider place=suburb, village or hamlet" />
		<tag k="name" v="Nedre Tjensvoll" />
		<tag k="place" v="quarter" />
		<tag k="ssr:stedsnr" v="585630" />
	</node>
	<node id="-7343" lat="58.9299083365" lon="5.74185554873">
		<tag k="fixme" v="consider place=suburb, village or hamlet" />
		<tag k="name" v="Vaulen" />
		<tag k="place" v="quarter" />
		<tag k="ssr:stedsnr" v="485010" />
	</node>
	<node id="-9383" lat="59.1186010624" lon="5.61248618362">
		<tag k="alt_name" v="Klomra" />
		<tag k="name" v="Klområ" />
		<tag k="place" v="farm" />
		<tag k="ssr:stedsnr" v="790350" />
	</node>
	<node id="-9380" lat="59.0933805587" lon="5.58120833154">
		<tag k="name" v="Myrvang" />
		<tag k="place" v="farm" />
		<tag k="ssr:stedsnr" v="790326" />
	</node>
	<node id="-9376" lat="59.113877749" lon="5.76820304439">
		<tag k="name" v="Hanasand" />
		<tag k="place" v="hamlet" />
		<tag k="ssr:stedsnr" v="790301" />
	</node>
	<node id="-7327" lat="59.1228255959" lon="5.67022852208">
		<tag k="fixme" v="consider place=hamlet" />
		<tag k="name" v="Ertnstein" />
		<tag k="place" v="farm" />
		<tag k="ssr:stedsnr" v="478654" />
	</node>
	<node id="-9374" lat="59.1799361126" lon="5.81638056193">
		<tag k="alt_name" v="Vettå" />
		<tag k="name" v="Vestbøhagen" />
		<tag k="place" v="farm" />
		<tag k="ssr:stedsnr" v="790289" />
	</node>
	<node id="-7323" lat="59.1240777753" lon="5.72310555933">
		<tag k="name" v="Hålå" />
		<tag k="place" v="farm" />
		<tag k="ssr:stedsnr" v="478566" />
	</node>
	<node id="-7322" lat="59.1229972248" lon="5.74595277505">
		<tag k="name" v="Rennaren" />
		<tag k="place" v="farm" />
		<tag k="ssr:stedsnr" v="478556" />
	</node>
	<node id="-7319" lat="59.1051249969" lon="5.68890555735">
		<tag k="name" v="Stødl" />
		<tag k="place" v="farm" />
		<tag k="ssr:stedsnr" v="477005" />
	</node>
	<node id="-7317" lat="59.2270555565" lon="5.84632500242">
		<tag k="alt_name" v="Nestun" />
		<tag k="name" v="Nedsttun" />
		<tag k="place" v="farm" />
		<tag k="ssr:stedsnr" v="669986" />
	</node>
	<node id="-9361" lat="58.9901310446" lon="5.74877084745">
		<tag k="fixme" v="consider place=hamlet" />
		<tag k="name" v="Austbø" />
		<tag k="place" v="farm" />
		<tag k="ssr:stedsnr" v="789115" />
	</node>
	<node id="-7311" lat="59.0633250033" lon="5.69424167207">
		<tag k="name" v="Askje" />
		<tag k="place" v="farm" />
		<tag k="ssr:stedsnr" v="669831" />
	</node>
	<node id="-9358" lat="58.9689644116" lon="5.7294223277">
		<tag k="name" v="Stavanger" />
		<tag k="place" v="town" />
		<tag k="ssr:stedsnr" v="789065" />
	</node>
	<node id="-7306" lat="59.1532159023" lon="5.91662786463">
		<tag k="fixme" v="consider place=hamlet" />
		<tag k="name" v="Sæbø" />
		<tag k="place" v="farm" />
		<tag k="ssr:stedsnr" v="669617" />
	</node>
	<node id="-7304" lat="59.2776750029" lon="5.97402499288">
		<tag k="alt_name" v="Røkkin" />
		<tag k="name" v="Røkking" />
		<tag k="place" v="farm" />
		<tag k="ssr:stedsnr" v="669610" />
	</node>
	<node id="-7303" lat="59.2709000033" lon="5.94802500106">
		<tag k="name" v="Norddal" />
		<tag k="place" v="farm" />
		<tag k="ssr:stedsnr" v="669597" />
	</node>
	<node id="-9349" lat="59.2789111157" lon="6.019397229">
		<tag k="name" v="Kalltveitbøen" />
		<tag k="place" v="farm" />
		<tag k="ssr:stedsnr" v="788452" />
	</node>
	<node id="-7299" lat="59.2606194464" lon="5.88317221632">
		<tag k="alt_name" v="Neseim" />
		<tag k="name" v="Nesheim" />
		<tag k="place" v="village" />
		<tag k="ssr:stedsnr" v="669579" />
	</node>
	<node id="-9340" lat="58.9011958167" lon="5.72855795889">
		<tag k="name" v="Gausel" />
		<tag k="place" v="farm" />
		<tag k="ssr:stedsnr" v="786140" />
	</node>
	<node id="-9338" lat="58.9000166639" lon="5.74364721714">
		<tag k="name" v="Gausel" />
		<tag k="place" v="farm" />
		<tag k="ssr:stedsnr" v="786137" />
	</node>
	<node id="-7287" lat="59.1031388882" lon="5.58886944695">
		<tag k="name" v="Utstein" />
		<tag k="place" v="farm" />
		<tag k="ssr:stedsnr" v="669301" />
	</node>
	<node id="-7281" lat="59.1403037455" lon="5.80064820575">
		<tag k="alt_name" v="Lastein, ytre" />
		<tag k="fixme" v="consider place=hamlet" />
		<tag k="name" v="Ytre Lastein" />
		<tag k="place" v="farm" />
		<tag k="ssr:stedsnr" v="669253" />
	</node>
	<node id="-7280" lat="59.2590855442" lon="5.81700811763">
		<tag k="fixme" v="consider place=hamlet" />
		<tag k="name" v="Lund" />
		<tag k="place" v="farm" />
		<tag k="ssr:stedsnr" v="669250" />
	</node>
	<node id="-7276" lat="59.0829757915" lon="5.76998071723">
		<tag k="fixme" v="consider place=hamlet" />
		<tag k="name" v="Heggland" />
		<tag k="place" v="farm" />
		<tag k="ssr:stedsnr" v="668864" />
	</node>
	<node id="-7275" lat="59.0816132621" lon="5.72218956261">
		<tag k="fixme" v="consider place=hamlet" />
		<tag k="name" v="Dale" />
		<tag k="place" v="farm" />
		<tag k="ssr:stedsnr" v="668857" />
	</node>
	<node id="-7269" lat="58.9873963869" lon="5.6640215304">
		<tag k="fixme" v="consider place=hamlet" />
		<tag k="name" v="Høye" />
		<tag k="place" v="farm" />
		<tag k="ssr:stedsnr" v="668103" />
	</node>
	<node id="-9315" lat="59.0500166657" lon="5.66902222104">
		<tag k="fixme" v="consider place=suburb, village or hamlet" />
		<tag k="name" v="Sokn" />
		<tag k="place" v="quarter" />
		<tag k="ssr:stedsnr" v="781380" />
	</node>
	<node id="-7266" lat="58.9409833344" lon="5.63533611324">
		<tag k="name" v="Madlastø" />
		<tag k="place" v="farm" />
		<tag k="ssr:stedsnr" v="668053" />
	</node>
	<node id="-9403" lat="59.2789999963" lon="6.07492499997">
		<tag k="alt_name" v="Bragahola" />
		<tag k="name" v="Brakahola" />
		<tag k="place" v="farm" />
		<tag k="ssr:stedsnr" v="791577" />
	</node>
	<node id="-7262" lat="59.2229888909" lon="5.83869444049">
		<tag k="name" v="Kvalen" />
		<tag k="place" v="farm" />
		<tag k="ssr:stedsnr" v="466313" />
	</node>
	<node id="-9309" lat="59.1332527778" lon="5.92349167171">
		<tag k="name" v="Kalhagen" />
		<tag k="place" v="farm" />
		<tag k="ssr:stedsnr" v="781309" />
	</node>
	<node id="-9302" lat="59.042552439" lon="5.7586270489">
		<tag k="fixme" v="consider place=hamlet" />
		<tag k="name" v="Nordre Lunde" />
		<tag k="place" v="farm" />
		<tag k="ssr:stedsnr" v="780264" />
	</node>
	<node id="-9301" lat="58.9703027788" lon="5.72919999403">
		<tag k="name" v="Helmich Gabrielsens plass" />
		<tag k="place" v="square" />
		<tag k="ssr:stedsnr" v="780157" />
	</node>
	<node id="-9300" lat="59.2472666661" lon="6.06828055129">
		<tag k="name" v="Humpen" />
		<tag k="place" v="farm" />
		<tag k="ssr:stedsnr" v="776486" />
	</node>
	<node id="-7247" lat="59.2384333305" lon="5.93467778214">
		<tag k="name" v="Sønningen" />
		<tag k="place" v="farm" />
		<tag k="ssr:stedsnr" v="666601" />
	</node>
	<node id="-9293" lat="58.9623416708" lon="5.69256111726">
		<tag k="name" v="Duegården" />
		<tag k="place" v="locality" />
		<tag k="ssr:stedsnr" v="769886" />
	</node>
	<node id="-9058" lat="59.0800333348" lon="5.64149166978">
		<tag k="name" v="Hodnafjell" />
		<tag k="place" v="farm" />
		<tag k="ssr:stedsnr" v="571515" />
	</node>
	<node id="-7239" lat="59.123661107" lon="5.66457222327">
		<tag k="name" v="Ertenstein" />
		<tag k="place" v="farm" />
		<tag k="ssr:stedsnr" v="451444" />
	</node>
	<node id="-7238" lat="59.1232666634" lon="5.59570832772">
		<tag k="name" v="Reianes" />
		<tag k="place" v="farm" />
		<tag k="ssr:stedsnr" v="451424" />
	</node>
	<node id="-9057" lat="59.0681000017" lon="5.67822777602">
		<tag k="name" v="Askje" />
		<tag k="place" v="farm" />
		<tag k="ssr:stedsnr" v="571396" />
	</node>
	<node id="-9283" lat="58.9452666663" lon="5.64826389328">
		<tag k="name" v="Tvaraberget" />
		<tag k="place" v="locality" />
		<tag k="ssr:stedsnr" v="767940" />
	</node>
	<node id="-9279" lat="59.2544000037" lon="6.09340833245">
		<tag k="name" v="Seianes" />
		<tag k="place" v="farm" />
		<tag k="ssr:stedsnr" v="767919" />
	</node>
	<node id="-9278" lat="58.988133331" lon="5.66475000741">
		<tag k="fixme" v="consider place=hamlet" />
		<tag k="name" v="Høye" />
		<tag k="place" v="village" />
		<tag k="ssr:stedsnr" v="767644" />
	</node>
	<node id="-7229" lat="59.1293360321" lon="5.6081743295">
		<tag k="fixme" v="consider place=hamlet" />
		<tag k="name" v="Vodl" />
		<tag k="place" v="farm" />
		<tag k="ssr:stedsnr" v="660643" />
	</node>
	<node id="-9276" lat="59.0053277739" lon="5.74456666763">
		<tag k="fixme" v="consider place=hamlet" />
		<tag k="name" v="Lunde" />
		<tag k="place" v="village" />
		<tag k="ssr:stedsnr" v="767565" />
	</node>
	<node id="-7227" lat="58.9558144541" lon="5.6957578442">
		<tag k="alt_name" v="Sankt Svithun gymnas" />
		<tag k="amenity" v="school" />
		<tag k="name" v="St. Svithun videregående skole " />
		<tag k="ssr:stedsnr" v="449305" />
	</node>
	<node id="-9270" lat="59.1235500665" lon="5.62121028847">
		<tag k="name" v="Risa" />
		<tag k="place" v="farm" />
		<tag k="ssr:stedsnr" v="755460" />
	</node>
	<node id="-7221" lat="58.9612972186" lon="5.76649165893">
		<tag k="amenity" v="nursing_home" />
		<tag k="name" v="Emmaus" />
		<tag k="ssr:stedsnr" v="449017" />
	</node>
	<node id="-9268" lat="59.1150916668" lon="5.69345556261">
		<tag k="name" v="Nordbø" />
		<tag k="place" v="farm" />
		<tag k="ssr:stedsnr" v="755450" />
	</node>
	<node id="-9267" lat="59.1301444423" lon="5.60368610523">
		<tag k="name" v="Galta" />
		<tag k="place" v="farm" />
		<tag k="ssr:stedsnr" v="755434" />
	</node>
	<node id="-7218" lat="58.9719944476" lon="5.7158416702">
		<tag k="amenity" v="school" />
		<tag k="name" v="Kampen skole" />
		<tag k="ssr:stedsnr" v="449149" />
	</node>
	<node id="-7217" lat="58.9524166653" lon="5.65854722004">
		<tag k="name" v="Rag" />
		<tag k="place" v="quarter" />
		<tag k="ssr:stedsnr" v="449133" />
	</node>
	<node id="-9264" lat="59.0362333312" lon="5.70194999576">
		<tag k="name" v="Vardaberg" />
		<tag k="place" v="farm" />
		<tag k="ssr:stedsnr" v="753672" />
	</node>
	<node id="-9263" lat="59.052261111" lon="5.67432222054">
		<tag k="name" v="Sokn" />
		<tag k="place" v="farm" />
		<tag k="ssr:stedsnr" v="753314" />
	</node>
	<node id="-9262" lat="58.998841666" lon="5.66352221708">
		<tag k="name" v="Dusavika" />
		<tag k="old_name" v="Dusaviga" />
		<tag k="place" v="quarter" />
		<tag k="ssr:stedsnr" v="752665" />
	</node>
	<node id="-9260" lat="58.9366305516" lon="5.73403055653">
		<tag k="leisure" v="pitch" />
		<tag k="name" v="Hetlandshallen" />
		<tag k="ssr:stedsnr" v="752169" />
	</node>
	<node id="-9259" lat="58.9472111075" lon="5.72705832965">
		<tag k="amenity" v="school" />
		<tag k="name" v="Auglend skole" />
		<tag k="ssr:stedsnr" v="752164" />
	</node>
	<node id="-9255" lat="58.9838555557" lon="5.67936111203">
		<tag k="amenity" v="school" />
		<tag k="name" v="Tasta skole" />
		<tag k="ssr:stedsnr" v="752130" />
	</node>
	<node id="-9254" lat="59.0988583337" lon="5.69898610518">
		<tag k="name" v="Håvastein" />
		<tag k="place" v="farm" />
		<tag k="ssr:stedsnr" v="752124" />
	</node>
	<node id="-9253" lat="59.0993999991" lon="5.69323889206">
		<tag k="name" v="Håvastein" />
		<tag k="place" v="farm" />
		<tag k="ssr:stedsnr" v="752122" />
	</node>
	<node id="-9247" lat="58.9495722187" lon="5.7344666697">
		<tag k="leisure" v="pitch" />
		<tag k="name" v="Jarlebanen" />
		<tag k="ssr:stedsnr" v="752004" />
	</node>
	<node id="-7195" lat="59.1915488486" lon="5.9683362269">
		<tag k="alt_name" v="Nedre Eike" />
		<tag k="fixme" v="consider place=hamlet" />
		<tag k="name" v="Eike" />
		<tag k="place" v="farm" />
		<tag k="ssr:stedsnr" v="426929" />
	</node>
	<node id="-7194" lat="59.1546879269" lon="5.84725813585">
		<tag k="fixme" v="consider place=hamlet" />
		<tag k="name" v="Nærland" />
		<tag k="place" v="farm" />
		<tag k="ssr:stedsnr" v="426603" />
	</node>
	<node id="-9239" lat="58.9616777759" lon="5.73081666847">
		<tag k="name" v="Rektor Steens plass" />
		<tag k="old_name" v="Rektor Steens plads" />
		<tag k="place" v="square" />
		<tag k="ssr:stedsnr" v="647823" />
	</node>
	<node id="-7189" lat="59.2757972181" lon="6.05509999529">
		<tag k="name" v="Gunnstøl" />
		<tag k="place" v="farm" />
		<tag k="ssr:stedsnr" v="424011" />
	</node>
	<node id="-9223" lat="58.9032805595" lon="5.72987776875">
		<tag k="name" v="Gausel" />
		<tag k="place" v="suburb" />
		<tag k="ssr:stedsnr" v="645623" />
	</node>
	<node id="-7171" lat="59.1196861083" lon="5.69586945294">
		<tag k="name" v="Nordbø" />
		<tag k="place" v="farm" />
		<tag k="ssr:stedsnr" v="512443" />
	</node>
	<node id="-7170" lat="59.133150003" lon="5.60387222308">
		<tag k="name" v="Galta" />
		<tag k="place" v="farm" />
		<tag k="ssr:stedsnr" v="512438" />
	</node>
	<node id="-9217" lat="58.9693888874" lon="5.73499443682">
		<tag k="name" v="Sigbjørn Obstfelders Plass" />
		<tag k="place" v="square" />
		<tag k="ssr:stedsnr" v="645057" />
	</node>
	<node id="-7166" lat="59.079769441" lon="5.69721388881">
		<tag k="name" v="Håvastein" />
		<tag k="place" v="farm" />
		<tag k="ssr:stedsnr" v="510747" />
	</node>
	<node id="-7165" lat="59.0967361089" lon="5.69789167293">
		<tag k="name" v="Håvastein" />
		<tag k="place" v="farm" />
		<tag k="ssr:stedsnr" v="510740" />
	</node>
	<node id="-7164" lat="59.0813999981" lon="5.61754444212">
		<tag k="name" v="Hodnafjell" />
		<tag k="place" v="farm" />
		<tag k="ssr:stedsnr" v="510731" />
	</node>
	<node id="-7163" lat="59.0830893449" lon="5.63986146849">
		<tag k="name" v="Hodnafjell" />
		<tag k="place" v="farm" />
		<tag k="ssr:stedsnr" v="510498" />
	</node>
	<node id="-7162" lat="59.080313889" lon="5.63615000005">
		<tag k="name" v="Hodnafjell" />
		<tag k="place" v="farm" />
		<tag k="ssr:stedsnr" v="510497" />
	</node>
	<node id="-7161" lat="58.8908500011" lon="5.72617777684">
		<tag k="leisure" v="pitch" />
		<tag k="name" v="Forus travbane" />
		<tag k="ssr:stedsnr" v="509198" />
	</node>
	<node id="-9208" lat="59.0344138868" lon="5.69919999758">
		<tag k="name" v="Vardaberg" />
		<tag k="place" v="farm" />
		<tag k="ssr:stedsnr" v="631723" />
	</node>
	<node id="-7159" lat="58.9261333312" lon="5.73687223008">
		<tag k="name" v="Hindal" />
		<tag k="place" v="farm" />
		<tag k="ssr:stedsnr" v="509048" />
	</node>
	<node id="-9206" lat="59.0798972194" lon="5.61629166167">
		<tag k="name" v="Hodnafjell" />
		<tag k="place" v="farm" />
		<tag k="ssr:stedsnr" v="631717" />
	</node>
	<node id="-7157" lat="58.9178555572" lon="5.7227111034">
		<tag k="amenity" v="school" />
		<tag k="name" v="Hinna skole" />
		<tag k="ssr:stedsnr" v="509044" />
	</node>
	<node id="-9203" lat="59.0643305579" lon="5.68536388191">
		<tag k="name" v="Askje" />
		<tag k="place" v="farm" />
		<tag k="ssr:stedsnr" v="631433" />
	</node>
	<node id="-9202" lat="59.0532861099" lon="5.66554722869">
		<tag k="name" v="Sokn" />
		<tag k="place" v="farm" />
		<tag k="ssr:stedsnr" v="631338" />
	</node>
	<node id="-9201" lat="59.0983222184" lon="5.69942778224">
		<tag k="name" v="Håvastein" />
		<tag k="place" v="farm" />
		<tag k="ssr:stedsnr" v="631128" />
	</node>
	<node id="-9192" lat="58.9497305516" lon="5.72254722511">
		<tag k="amenity" v="school" />
		<tag k="name" v="Ullandhaug skole" />
		<tag k="ssr:stedsnr" v="630001" />
	</node>
	<node id="-9191" lat="58.9655111134" lon="5.73236945202">
		<tag k="name" v="Leiv Isaksens plass" />
		<tag k="place" v="square" />
		<tag k="ssr:stedsnr" v="626491" />
	</node>
	<node id="-9190" lat="59.2657899609" lon="6.02301469137">
		<tag k="fixme" v="consider place=hamlet" />
		<tag k="name" v="Nårstad" />
		<tag k="place" v="farm" />
		<tag k="ssr:stedsnr" v="609543" />
	</node>
	<node id="-9186" lat="59.1774000004" lon="5.84578888546">
		<tag k="name" v="Harås" />
		<tag k="place" v="farm" />
		<tag k="ssr:stedsnr" v="608901" />
	</node>
	<node id="-7135" lat="59.0664388924" lon="5.6910416649">
		<tag k="name" v="Askje" />
		<tag k="place" v="farm" />
		<tag k="ssr:stedsnr" v="389405" />
	</node>
	<node id="-7134" lat="58.9572944433" lon="5.68663611519">
		<tag k="name" v="Sandal" />
		<tag k="place" v="farm" />
		<tag k="ssr:stedsnr" v="388273" />
	</node>
	<node id="-7130" lat="58.9431749977" lon="5.65585555455">
		<tag k="amenity" v="school" />
		<tag k="name" v="Hafrsfjord skole" />
		<tag k="ssr:stedsnr" v="387373" />
	</node>
	<node id="-7129" lat="58.931094444" lon="5.73186667439">
		<tag k="amenity" v="school" />
		<tag k="name" v="Vaulen skole" />
		<tag k="ssr:stedsnr" v="387207" />
	</node>
	<node id="-9176" lat="59.1385192963" lon="5.93631138273">
		<tag k="fixme" v="consider place=hamlet" />
		<tag k="name" v="Selvåg" />
		<tag k="place" v="farm" />
		<tag k="ssr:stedsnr" v="608600" />
	</node>
	<node id="-9173" lat="59.0971777781" lon="5.57175000749">
		<tag k="name" v="Årabrot" />
		<tag k="place" v="farm" />
		<tag k="ssr:stedsnr" v="608331" />
	</node>
	<node id="-7124" lat="59.2595944486" lon="5.81013333322">
		<tag k="alt_name" v="Hauabøen" />
		<tag k="name" v="Haugabøen" />
		<tag k="place" v="farm" />
		<tag k="ssr:stedsnr" v="363695" />
	</node>
	<node id="-7123" lat="59.259844447" lon="5.8122694444">
		<tag k="fixme" v="consider place=hamlet" />
		<tag k="name" v="Hauge" />
		<tag k="place" v="farm" />
		<tag k="ssr:stedsnr" v="363694" />
	</node>
	<node id="-7119" lat="59.2708638888" lon="6.09953610316">
		<tag k="name" v="Øvre Haug" />
		<tag k="place" v="farm" />
		<tag k="ssr:stedsnr" v="363731" />
	</node>
	<node id="-9164" lat="59.1944507585" lon="5.8377897793">
		<tag k="alt_name" v="Mjølsnes, øvre" />
		<tag k="fixme" v="consider place=hamlet" />
		<tag k="name" v="Øvre Mjølsnes" />
		<tag k="place" v="farm" />
		<tag k="ssr:stedsnr" v="608296" />
	</node>
	<node id="-7114" lat="59.0865916705" lon="5.76611388919">
		<tag k="name" v="Solbakk" />
		<tag k="place" v="farm" />
		<tag k="ssr:stedsnr" v="357930" />
	</node>
	<node id="-7113" lat="59.1224334816" lon="5.64096314219">
		<tag k="fixme" v="consider place=hamlet" />
		<tag k="name" v="Stoggdal" />
		<tag k="place" v="farm" />
		<tag k="ssr:stedsnr" v="357614" />
	</node>
	<node id="-7112" lat="59.123354392" lon="5.6220374134">
		<tag k="fixme" v="consider place=hamlet" />
		<tag k="name" v="Risa" />
		<tag k="place" v="farm" />
		<tag k="ssr:stedsnr" v="357608" />
	</node>
	<node id="-7111" lat="59.1460555515" lon="5.93927499375">
		<tag k="name" v="Storevik" />
		<tag k="place" v="farm" />
		<tag k="ssr:stedsnr" v="357605" />
	</node>
	<node id="-9157" lat="59.0741277243" lon="5.65989493397">
		<tag k="fixme" v="consider place=hamlet" />
		<tag k="name" v="Dysjaland" />
		<tag k="place" v="farm" />
		<tag k="ssr:stedsnr" v="607856" />
	</node>
	<node id="-7104" lat="59.253621503" lon="6.0746757347">
		<tag k="fixme" v="consider place=hamlet" />
		<tag k="name" v="Aukland" />
		<tag k="place" v="farm" />
		<tag k="ssr:stedsnr" v="488664" />
	</node>
	<node id="-7103" lat="59.2556749987" lon="6.09729999957">
		<tag k="alt_name" v="Haustavik" />
		<tag k="name" v="Haustavika" />
		<tag k="place" v="farm" />
		<tag k="ssr:stedsnr" v="488661" />
	</node>
	<node id="-7102" lat="59.2888909373" lon="6.0075047849">
		<tag k="fixme" v="consider place=hamlet" />
		<tag k="name" v="Bergaland" />
		<tag k="place" v="farm" />
		<tag k="ssr:stedsnr" v="488595" />
	</node>
	<node id="-7100" lat="59.238188885" lon="5.94146944798">
		<tag k="name" v="Holekro" />
		<tag k="place" v="farm" />
		<tag k="ssr:stedsnr" v="488000" />
	</node>
	<node id="-7099" lat="59.2344154388" lon="5.97994561906">
		<tag k="fixme" v="consider place=hamlet" />
		<tag k="name" v="Atlatveit" />
		<tag k="place" v="farm" />
		<tag k="ssr:stedsnr" v="487997" />
	</node>
	<node id="-7098" lat="59.2356793617" lon="5.88459864234">
		<tag k="name" v="Hidle" />
		<tag k="place" v="hamlet" />
		<tag k="ssr:stedsnr" v="487992" />
	</node>
	<node id="-7087" lat="59.2834984052" lon="6.04908884278">
		<tag k="fixme" v="consider place=hamlet" />
		<tag k="name" v="Seltveit" />
		<tag k="place" v="farm" />
		<tag k="ssr:stedsnr" v="487645" />
	</node>
	<node id="-9133" lat="59.2842444403" lon="5.96176667383">
		<tag k="name" v="Haugen" />
		<tag k="place" v="farm" />
		<tag k="ssr:stedsnr" v="605467" />
	</node>
	<node id="-9132" lat="59.2417166656" lon="6.02406666286">
		<tag k="name" v="Bakkjen" />
		<tag k="place" v="farm" />
		<tag k="ssr:stedsnr" v="605678" />
	</node>
	<node id="-7082" lat="59.2617999993" lon="6.07805000162">
		<tag k="name" v="Kro" />
		<tag k="place" v="isolated_dwelling" />
		<tag k="ssr:stedsnr" v="487619" />
	</node>
	<node id="-9127" lat="59.2463777751" lon="6.0611472137">
		<tag k="name" v="Rossåhaugen" />
		<tag k="place" v="farm" />
		<tag k="ssr:stedsnr" v="605414" />
	</node>
	<node id="-7077" lat="59.1035275083" lon="5.70390569995">
		<tag k="alt_name" v="Bergje" />
		<tag k="fixme" v="consider place=hamlet" />
		<tag k="name" v="Berge" />
		<tag k="place" v="farm" />
		<tag k="ssr:stedsnr" v="487344" />
	</node>
	<node id="-7075" lat="59.1190631247" lon="5.68919888298">
		<tag k="name" v="Nordbø" />
		<tag k="place" v="farm" />
		<tag k="ssr:stedsnr" v="487333" />
	</node>
	<node id="-7070" lat="58.9420999977" lon="5.73882777763">
		<tag k="name" v="Sandviga" />
		<tag k="place" v="quarter" />
		<tag k="ssr:stedsnr" v="344706" />
	</node>
	<node id="-9113" lat="59.1893000039" lon="5.94395278024">
		<tag k="name" v="Raudberg" />
		<tag k="place" v="farm" />
		<tag k="ssr:stedsnr" v="599307" />
	</node>
	<node id="-9510" lat="59.2659472209" lon="6.0203361183">
		<tag k="name" v="Lindal" />
		<tag k="place" v="farm" />
		<tag k="ssr:stedsnr" v="849461" />
	</node>
	<node id="-9106" lat="59.1500111121" lon="5.8160944445">
		<tag k="name" v="Kjingestadtræ" />
		<tag k="place" v="farm" />
		<tag k="ssr:stedsnr" v="598509" />
	</node>
	<node id="-7056" lat="59.0844833345" lon="5.71535834065">
		<tag k="name" v="Rumpehaugen" />
		<tag k="place" v="isolated_dwelling" />
		<tag k="ssr:stedsnr" v="486871" />
	</node>
	<node id="-7054" lat="59.0933534559" lon="5.76083629173">
		<tag k="name" v="Mehus" />
		<tag k="place" v="farm" />
		<tag k="ssr:stedsnr" v="486848" />
	</node>
	<node id="-9100" lat="59.0400288261" lon="5.69408942457">
		<tag k="fixme" v="consider place=hamlet" />
		<tag k="name" v="Hegraberg" />
		<tag k="place" v="farm" />
		<tag k="ssr:stedsnr" v="598285" />
	</node>
	<node id="-9026" lat="59.2689530798" lon="5.86070829241">
		<tag k="fixme" v="consider place=hamlet" />
		<tag k="name" v="Venja" />
		<tag k="place" v="farm" />
		<tag k="ssr:stedsnr" v="548597" />
	</node>
	<node id="-7049" lat="59.0819388887" lon="5.63344444017">
		<tag k="name" v="Hodnafjell" />
		<tag k="place" v="farm" />
		<tag k="ssr:stedsnr" v="486391" />
	</node>
	<node id="-9096" lat="59.1202194433" lon="5.7091416644">
		<tag k="name" v="Nybø" />
		<tag k="place" v="farm" />
		<tag k="ssr:stedsnr" v="598030" />
	</node>
	<node id="-7044" lat="59.1320998276" lon="5.60084294835">
		<tag k="name" v="Galta" />
		<tag k="place" v="farm" />
		<tag k="ssr:stedsnr" v="486291" />
	</node>
	<node id="-7042" lat="58.9524638935" lon="5.6673055622">
		<tag k="name" v="Gimle" />
		<tag k="place" v="farm" />
		<tag k="ssr:stedsnr" v="486030" />
	</node>
	<node id="-7038" lat="59.2079881719" lon="5.94676889291">
		<tag k="name" v="Halsnesjøen" />
		<tag k="place" v="farm" />
		<tag k="ssr:stedsnr" v="484681" />
	</node>
	<node id="-9082" lat="59.1451972205" lon="5.90055556313">
		<tag k="name" v="Kleiva" />
		<tag k="place" v="isolated_dwelling" />
		<tag k="ssr:stedsnr" v="587026" />
	</node>
	<node id="-9023" lat="59.2610249993" lon="5.94437500688">
		<tag k="alt_name" v="Søllbergsmyra" />
		<tag k="name" v="Sølbergsmyra" />
		<tag k="place" v="farm" />
		<tag k="ssr:stedsnr" v="548569" />
	</node>
	<node id="-9077" lat="58.9580555599" lon="5.75856110303">
		<tag k="name" v="Haugen" />
		<tag k="place" v="locality" />
		<tag k="ssr:stedsnr" v="585986" />
	</node>
	<node id="-7027" lat="58.914527778" lon="5.73107222424">
		<tag k="leisure" v="pitch" />
		<tag k="name" v="Viking stadion" />
		<tag k="ssr:stedsnr" v="480714" />
	</node>
	<node id="-9071" lat="59.0427972191" lon="5.74248610787">
		<tag k="name" v="Meling" />
		<tag k="place" v="hamlet" />
		<tag k="ssr:stedsnr" v="585556" />
	</node>
	<node id="-7019" lat="59.104299997" lon="5.77819723117">
		<tag k="alt_name" v="Nerabø" />
		<tag k="name" v="Nedrabø" />
		<tag k="place" v="farm" />
		<tag k="ssr:stedsnr" v="479974" />
	</node>
	<node id="-9062" lat="58.9509292509" lon="5.67505829446">
		<tag k="name" v="Madla" />
		<tag k="place" v="suburb" />
		<tag k="ssr:stedsnr" v="578835" />
	</node>
	<node id="-7010" lat="59.0417472266" lon="5.69572777363">
		<tag k="name" v="Hegraberg" />
		<tag k="place" v="farm" />
		<tag k="ssr:stedsnr" v="328704" />
	</node>
	<node id="-7009" lat="59.0965194422" lon="5.69408889229">
		<tag k="name" v="Håvastein" />
		<tag k="place" v="farm" />
		<tag k="ssr:stedsnr" v="328124" />
	</node>
	<node id="-9055" lat="58.9474527369" lon="5.69682387555">
		<tag k="fixme" v="consider place=hamlet" />
		<tag k="name" v="Øvre Tjensvoll" />
		<tag k="place" v="farm" />
		<tag k="ssr:stedsnr" v="569351" />
	</node>
	<node id="-7004" lat="58.9645972241" lon="5.72248333454">
		<tag k="amenity" v="school" />
		<tag k="name" v="Kannik skole" />
		<tag k="ssr:stedsnr" v="327004" />
	</node>
	<node id="-7002" lat="58.9532555552" lon="5.73300000854">
		<tag k="amenity" v="hospital" />
		<tag k="name" v="Stavanger universitetssjukehus" />
		<tag k="old_name" v="Rogaland sjukehus" />
		<tag k="ssr:stedsnr" v="327002" />
	</node>
	<node id="-9359" lat="58.966705556" lon="5.63295833198">
		<tag k="name" v="Øygard" />
		<tag k="place" v="farm" />
		<tag k="ssr:stedsnr" v="789072" />
	</node>
	<node id="-9045" lat="58.9517944459" lon="5.64234722183">
		<tag k="amenity" v="school" />
		<tag k="name" v="Revheim skole" />
		<tag k="ssr:stedsnr" v="569170" />
	</node>
	<node id="-9043" lat="58.9151777794" lon="5.72388332847">
		<tag k="alt_name" v="Jåttå skole" />
		<tag k="amenity" v="school" />
		<tag k="name" v="Jåtten skole" />
		<tag k="ssr:stedsnr" v="569058" />
	</node>
	<node id="-9036" lat="58.9687888871" lon="5.75543054881">
		<tag k="leisure" v="park" />
		<tag k="name" v="Lervigtunet" />
		<tag k="ssr:stedsnr" v="566449" />
	</node>
	<node id="-9444" lat="58.9126166665" lon="5.71062778646">
		<tag k="name" v="Jåttå" />
		<tag k="place" v="suburb" />
		<tag k="ssr:stedsnr" v="828617" />
	</node>
	<node id="-9029" lat="59.252732977" lon="6.04196152567">
		<tag k="alt_name" v="Flådane" />
		<tag k="fixme" v="consider place=hamlet" />
		<tag k="name" v="Flotene" />
		<tag k="place" v="farm" />
		<tag k="ssr:stedsnr" v="548690" />
	</node>
	<node id="-6978" lat="59.1618648094" lon="5.9731125008">
		<tag k="fixme" v="consider place=hamlet" />
		<tag k="name" v="Byre" />
		<tag k="place" v="farm" />
		<tag k="ssr:stedsnr" v="304610" />
	</node>
	<node id="-9025" lat="59.2820263393" lon="5.9610591655">
		<tag k="fixme" v="consider place=hamlet" />
		<tag k="name" v="Rørheim" />
		<tag k="place" v="farm" />
		<tag k="ssr:stedsnr" v="548593" />
	</node>
	<node id="-6975" lat="58.9666833296" lon="5.6172805551">
		<tag k="name" v="Århaug" />
		<tag k="place" v="farm" />
		<tag k="ssr:stedsnr" v="304069" />
	</node>
	<node id="-9012" lat="59.1908130529" lon="5.84636324051">
		<tag k="alt_name" v="Roda" />
		<tag k="fixme" v="consider place=hamlet" />
		<tag k="name" v="Rota" />
		<tag k="place" v="farm" />
		<tag k="ssr:stedsnr" v="547942" />
	</node>
	<node id="-9011" lat="59.0884223843" lon="5.64366019539">
		<tag k="alt_name" v="Koda" />
		<tag k="fixme" v="consider place=hamlet" />
		<tag k="name" v="Kåda" />
		<tag k="place" v="farm" />
		<tag k="ssr:stedsnr" v="547884" />
	</node>
	<node id="-9007" lat="59.149894445" lon="5.84594165852">
		<tag k="name" v="Relstad" />
		<tag k="place" v="farm" />
		<tag k="ssr:stedsnr" v="547654" />
	</node>
	<node id="-6955" lat="58.9634277736" lon="5.72424721395">
		<tag k="name" v="St. Svithuns plass" />
		<tag k="place" v="square" />
		<tag k="ssr:stedsnr" v="465901" />
	</node>
	<node id="-9001" lat="59.123086518" lon="5.61220197061">
		<tag k="fixme" v="consider place=hamlet" />
		<tag k="name" v="Bø" />
		<tag k="place" v="farm" />
		<tag k="ssr:stedsnr" v="547392" />
	</node>
	<node id="-6952" lat="58.9565972222" lon="5.75461110691">
		<tag k="name" v="Sørnes" />
		<tag k="place" v="locality" />
		<tag k="ssr:stedsnr" v="464980" />
	</node>
	<node id="-8998" lat="59.1542211336" lon="5.78394723405">
		<tag k="alt_name" v="Vignes, søre;Vignes;Søra Vignes" />
		<tag k="fixme" v="consider place=hamlet" />
		<tag k="name" v="Søre Vignes" />
		<tag k="place" v="farm" />
		<tag k="ssr:stedsnr" v="547305" />
	</node>
	<node id="-8996" lat="59.1661753062" lon="5.78728460783">
		<tag k="alt_name" v="Vignes, nordre;Norda Vignes" />
		<tag k="fixme" v="consider place=hamlet" />
		<tag k="name" v="Nordre Vignes" />
		<tag k="place" v="farm" />
		<tag k="ssr:stedsnr" v="547297" />
	</node>
	<node id="-6947" lat="58.9357930132" lon="5.74748782908">
		<tag k="name" v="Mariero" />
		<tag k="place" v="suburb" />
		<tag k="ssr:stedsnr" v="464582" />
	</node>
	<node id="-6946" lat="58.9599416682" lon="5.62888333079">
		<tag k="name" v="Feta" />
		<tag k="place" v="locality" />
		<tag k="ssr:stedsnr" v="464543" />
	</node>
	<node id="-6945" lat="58.9852494161" lon="5.82360835582">
		<tag k="fixme" v="consider place=hamlet" />
		<tag k="name" v="Hellesøy" />
		<tag k="place" v="farm" />
		<tag k="ssr:stedsnr" v="464570" />
	</node>
	<node id="-8992" lat="58.9515333336" lon="5.7085027808">
		<tag k="name" v="Tjensvoll" />
		<tag k="place" v="suburb" />
		<tag k="ssr:stedsnr" v="547061" />
	</node>
	<node id="-8985" lat="58.9103333342" lon="5.72051388122">
		<tag k="name" v="Jåttå" />
		<tag k="place" v="farm" />
		<tag k="ssr:stedsnr" v="546027" />
	</node>
	<node id="-8984" lat="58.9331749954" lon="5.74491943659">
		<tag k="name" v="Mariero" />
		<tag k="place" v="quarter" />
		<tag k="ssr:stedsnr" v="546010" />
	</node>
	<node id="-6934" lat="59.096674997" lon="5.69838055453">
		<tag k="name" v="Håvastein" />
		<tag k="place" v="farm" />
		<tag k="ssr:stedsnr" v="268720" />
	</node>
	<node id="-6933" lat="59.0983027805" lon="5.69876388213">
		<tag k="name" v="Håvastein" />
		<tag k="place" v="farm" />
		<tag k="ssr:stedsnr" v="268717" />
	</node>
	<node id="-6932" lat="59.036133332" lon="5.71775000395">
		<tag k="name" v="Vardaberg" />
		<tag k="place" v="farm" />
		<tag k="ssr:stedsnr" v="268713" />
	</node>
	<node id="-6931" lat="59.108124997" lon="5.69021388552">
		<tag k="name" v="Håvastein" />
		<tag k="place" v="farm" />
		<tag k="ssr:stedsnr" v="268712" />
	</node>
	<node id="-6930" lat="59.0770305569" lon="5.64581665808">
		<tag k="name" v="Hodnafjell" />
		<tag k="place" v="farm" />
		<tag k="ssr:stedsnr" v="268510" />
	</node>
	<node id="-6929" lat="59.076827778" lon="5.63866944469">
		<tag k="name" v="Hodnafjell" />
		<tag k="place" v="farm" />
		<tag k="ssr:stedsnr" v="268508" />
	</node>
	<node id="-6928" lat="59.0516071502" lon="5.66294563572">
		<tag k="fixme" v="consider place=hamlet" />
		<tag k="name" v="Sokn" />
		<tag k="place" v="farm" />
		<tag k="ssr:stedsnr" v="268356" />
	</node>
	<node id="-6924" lat="59.1109722241" lon="5.7070111163">
		<tag k="name" v="Austbø" />
		<tag k="place" v="farm" />
		<tag k="ssr:stedsnr" v="451088" />
	</node>
	<node id="-8970" lat="59.0969972268" lon="5.76600833723">
		<tag k="name" v="Hauane" />
		<tag k="place" v="farm" />
		<tag k="ssr:stedsnr" v="539982" />
	</node>
	<node id="-6921" lat="58.9860305582" lon="5.69140278313">
		<tag k="amenity" v="school" />
		<tag k="name" v="Tastarustå skole" />
		<tag k="ssr:stedsnr" v="449538" />
	</node>
	<node id="-6920" lat="58.9670944485" lon="5.6071083353">
		<tag k="alt_name" v="Kvernavik" />
		<tag k="name" v="Kvernevik" />
		<tag k="place" v="suburb" />
		<tag k="ssr:stedsnr" v="449355" />
	</node>
	<node id="-6918" lat="58.9377583365" lon="5.73580277525">
		<tag k="amenity" v="school" />
		<tag k="name" v="Kristianslyst skole" />
		<tag k="ssr:stedsnr" v="449173" />
	</node>
	<node id="-6914" lat="58.9754027778" lon="5.70279723066">
		<tag k="fixme" v="consider place=suburb, village or hamlet" />
		<tag k="name" v="Byhaugen" />
		<tag k="place" v="quarter" />
		<tag k="ssr:stedsnr" v="449151" />
	</node>
	<node id="-8960" lat="59.194028451" lon="5.95858289206">
		<tag k="fixme" v="consider place=hamlet" />
		<tag k="name" v="Øvre Eike" />
		<tag k="place" v="farm" />
		<tag k="ssr:stedsnr" v="539258" />
	</node>
	<node id="-6901" lat="59.0404887729" lon="5.69568315115">
		<tag k="name" v="Hegraberg" />
		<tag k="place" v="farm" />
		<tag k="ssr:stedsnr" v="244802" />
	</node>
	<node id="-6897" lat="59.1467856479" lon="5.90924649902">
		<tag k="fixme" v="consider place=hamlet" />
		<tag k="name" v="Bø" />
		<tag k="place" v="farm" />
		<tag k="ssr:stedsnr" v="244607" />
	</node>
	<node id="-6896" lat="59.2426944426" lon="5.8308277717">
		<tag k="fixme" v="consider place=hamlet" />
		<tag k="name" v="Tjul" />
		<tag k="place" v="farm" />
		<tag k="ssr:stedsnr" v="244474" />
	</node>
	<node id="-6890" lat="58.9393333324" lon="5.65720833811">
		<tag k="name" v="Teigen" />
		<tag k="place" v="farm" />
		<tag k="ssr:stedsnr" v="244057" />
	</node>
	<node id="-6888" lat="59.1014520722" lon="5.67362632775">
		<tag k="fixme" v="consider place=hamlet" />
		<tag k="name" v="Helland" />
		<tag k="place" v="farm" />
		<tag k="ssr:stedsnr" v="244320" />
	</node>
	<node id="-8931" lat="58.9731138877" lon="5.72525832542">
		<tag k="fixme" v="consider place=suburb, village or hamlet" />
		<tag k="name" v="Straen" />
		<tag k="place" v="quarter" />
		<tag k="ssr:stedsnr" v="525104" />
	</node>
	<node id="-8929" lat="58.9617388894" lon="5.70911388263">
		<tag k="name" v="Fredheim" />
		<tag k="place" v="isolated_dwelling" />
		<tag k="ssr:stedsnr" v="525000" />
	</node>
	<node id="-6880" lat="59.2452694415" lon="6.06255833832">
		<tag k="amenity" v="school" />
		<tag k="name" v="Vestersjø" />
		<tag k="ssr:stedsnr" v="242365" />
	</node>
	<node id="-6879" lat="59.2524527758" lon="5.86523333523">
		<tag k="name" v="Tverrdal" />
		<tag k="place" v="farm" />
		<tag k="ssr:stedsnr" v="242464" />
	</node>
	<node id="-8926" lat="59.2337499984" lon="5.8925027718">
		<tag k="name" v="Hidlesjøen" />
		<tag k="place" v="farm" />
		<tag k="ssr:stedsnr" v="524691" />
	</node>
	<node id="-8925" lat="59.2276644007" lon="5.97019932946">
		<tag k="name" v="Ramsdal" />
		<tag k="place" v="farm" />
		<tag k="ssr:stedsnr" v="524669" />
	</node>
	<node id="-8923" lat="59.0419583348" lon="5.75740832448">
		<tag k="alt_name" v="Lunde Nordre" />
		<tag k="fixme" v="consider place=hamlet" />
		<tag k="name" v="Nordre Lunde" />
		<tag k="place" v="village" />
		<tag k="ssr:stedsnr" v="524534" />
	</node>
	<node id="-8922" lat="59.0046756211" lon="5.72993377682">
		<tag k="alt_name" v="Skjeie" />
		<tag k="fixme" v="consider place=suburb, village or hamlet" />
		<tag k="name" v="Skeie" />
		<tag k="place" v="quarter" />
		<tag k="ssr:stedsnr" v="524528" />
	</node>
	<node id="-8921" lat="58.9353361097" lon="5.72228888787">
		<tag k="alt_name" v="Auklend" />
		<tag k="name" v="Auglend" />
		<tag k="place" v="suburb" />
		<tag k="ssr:stedsnr" v="524526" />
	</node>
	<node id="-8919" lat="59.2660805568" lon="5.82432500837">
		<tag k="name" v="Raunen" />
		<tag k="place" v="farm" />
		<tag k="ssr:stedsnr" v="524321" />
	</node>
	<node id="-8913" lat="59.2316854513" lon="5.94457568581">
		<tag k="fixme" v="consider place=hamlet" />
		<tag k="name" v="Eide" />
		<tag k="place" v="farm" />
		<tag k="ssr:stedsnr" v="427999" />
	</node>
	<node id="-8912" lat="59.2421933606" lon="6.02449901557">
		<tag k="alt_name" v="Vestresjø" />
		<tag k="fixme" v="consider place=hamlet" />
		<tag k="name" v="Vestersjø" />
		<tag k="place" v="farm" />
		<tag k="ssr:stedsnr" v="427987" />
	</node>
	<node id="-8653" lat="58.997813887" lon="5.72146666996">
		<tag k="alt_name" v="Husebø" />
		<tag k="fixme" v="consider place=suburb, village or hamlet" />
		<tag k="name" v="Husabø" />
		<tag k="place" v="quarter" />
		<tag k="ssr:stedsnr" v="342511" />
	</node>
	<node id="-6850" lat="59.1005940057" lon="5.70069661945">
		<tag k="fixme" v="consider place=hamlet" />
		<tag k="name" v="Vig" />
		<tag k="place" v="farm" />
		<tag k="ssr:stedsnr" v="297076" />
	</node>
	<node id="-6849" lat="59.1134418367" lon="5.70553961751">
		<tag k="fixme" v="consider place=hamlet" />
		<tag k="name" v="Austbø" />
		<tag k="place" v="farm" />
		<tag k="ssr:stedsnr" v="297016" />
	</node>
	<node id="-8896" lat="59.0830388901" lon="5.67287499402">
		<tag k="name" v="Selvik" />
		<tag k="place" v="farm" />
		<tag k="ssr:stedsnr" v="426875" />
	</node>
	<node id="-9052" lat="58.952533329" lon="5.71445000278">
		<tag k="name" v="Mosvangen campingplass" />
		<tag k="ssr:stedsnr" v="569317" />
		<tag k="tourism" v="camp_site" />
	</node>
	<node id="-8891" lat="59.0762132934" lon="5.75805311171">
		<tag k="fixme" v="consider place=hamlet" />
		<tag k="name" v="Hodne" />
		<tag k="place" v="farm" />
		<tag k="ssr:stedsnr" v="426822" />
	</node>
	<node id="-8880" lat="59.1544249976" lon="5.8389444529">
		<tag k="name" v="Nerland" />
		<tag k="place" v="farm" />
		<tag k="ssr:stedsnr" v="426264" />
	</node>
	<node id="-6831" lat="58.9338555592" lon="5.7363333384">
		<tag k="alt_name" v="Hetland gymnas" />
		<tag k="amenity" v="school" />
		<tag k="name" v="Hetland videregående skole" />
		<tag k="ssr:stedsnr" v="206190" />
	</node>
	<node id="-8875" lat="58.9576000023" lon="5.66910000021">
		<tag k="name" v="Ørnasteinen" />
		<tag k="old_name" v="Ørnastein;Ørnestein" />
		<tag k="place" v="farm" />
		<tag k="ssr:stedsnr" v="426095" />
	</node>
	<node id="-8874" lat="58.9247027792" lon="6.07071666199">
		<tag k="name" v="Nyland" />
		<tag k="place" v="farm" />
		<tag k="ssr:stedsnr" v="426091" />
	</node>
	<node id="-6822" lat="59.0372985763" lon="5.69298436189">
		<tag k="fixme" v="consider place=hamlet" />
		<tag k="name" v="Varaberg" />
		<tag k="place" v="farm" />
		<tag k="ssr:stedsnr" v="295299" />
	</node>
	<node id="-6818" lat="59.0998972209" lon="5.6964500005">
		<tag k="name" v="Lamhagen" />
		<tag k="place" v="farm" />
		<tag k="ssr:stedsnr" v="295006" />
	</node>
	<node id="-8859" lat="58.9741250033" lon="5.71934999691">
		<tag k="leisure" v="park" />
		<tag k="name" v="Peder S. Krøyers plass" />
		<tag k="ssr:stedsnr" v="422533" />
	</node>
	<node id="-8644" lat="59.1254916692" lon="5.61085277583">
		<tag k="name" v="Voll" />
		<tag k="place" v="farm" />
		<tag k="ssr:stedsnr" v="330446" />
	</node>
	<node id="-8853" lat="59.1902499978" lon="5.85354444765">
		<tag k="name" v="Haredalen" />
		<tag k="place" v="farm" />
		<tag k="ssr:stedsnr" v="418841" />
	</node>
	<node id="-8643" lat="59.0703253959" lon="5.69074091675">
		<tag k="name" v="Vaula" />
		<tag k="place" v="farm" />
		<tag k="ssr:stedsnr" v="330097" />
	</node>
	<node id="-6795" lat="59.1735944447" lon="5.87091944964">
		<tag k="name" v="Rygjabø" />
		<tag k="place" v="farm" />
		<tag k="ssr:stedsnr" v="284066" />
	</node>
	<node id="-9160" lat="59.1512709488" lon="5.83935003453">
		<tag k="fixme" v="consider place=hamlet" />
		<tag k="name" v="Reilstad" />
		<tag k="place" v="farm" />
		<tag k="ssr:stedsnr" v="608259" />
	</node>
	<node id="-6789" lat="58.9544027785" lon="5.74803333326">
		<tag k="name" v="Strømvig" />
		<tag k="place" v="locality" />
		<tag k="ssr:stedsnr" v="283366" />
	</node>
	<node id="-6784" lat="58.9460777759" lon="5.68606665819">
		<tag k="name" v="Karlsro" />
		<tag k="place" v="farm" />
		<tag k="ssr:stedsnr" v="282971" />
	</node>
	<node id="-8640" lat="58.9721170539" lon="5.65387538085">
		<tag k="name" v="Friheim" />
		<tag k="place" v="quarter" />
		<tag k="ssr:stedsnr" v="327659" />
	</node>
	<node id="-6780" lat="58.970495683" lon="5.72757319041">
		<tag k="leisure" v="park" />
		<tag k="name" v="Lendelunden" />
		<tag k="ssr:stedsnr" v="282865" />
	</node>
	<node id="-6776" lat="58.970044447" lon="5.73327777619">
		<tag k="name" v="Domkirkeplassen" />
		<tag k="place" v="square" />
		<tag k="ssr:stedsnr" v="282796" />
	</node>
	<node id="-6775" lat="58.9678527807" lon="5.74043054976">
		<tag k="name" v="Vår Frue plass" />
		<tag k="old_name" v="Vor-Frue-Plads" />
		<tag k="place" v="square" />
		<tag k="ssr:stedsnr" v="282793" />
	</node>
	<node id="-6772" lat="58.9459221391" lon="5.74321888523">
		<tag k="fixme" v="consider place=suburb, village or hamlet" />
		<tag k="name" v="Bispeladegård" />
		<tag k="place" v="quarter" />
		<tag k="ssr:stedsnr" v="282565" />
	</node>
	<node id="-6771" lat="58.9902862313" lon="5.80962238376">
		<tag k="fixme" v="consider place=hamlet" />
		<tag k="name" v="Lindøy" />
		<tag k="place" v="farm" />
		<tag k="ssr:stedsnr" v="282554" />
	</node>
	<node id="-8811" lat="58.9650111124" lon="5.6089666669">
		<tag k="name" v="Voll" />
		<tag k="place" v="farm" />
		<tag k="ssr:stedsnr" v="403926" />
	</node>
	<node id="-8809" lat="59.2363305547" lon="5.9391638909">
		<tag k="name" v="Tingvik" />
		<tag k="place" v="farm" />
		<tag k="ssr:stedsnr" v="403686" />
	</node>
	<node id="-8804" lat="58.9622305574" lon="5.73699444777">
		<tag k="building" v="civic" />
		<tag k="name" v="Stavanger brannvesen" />
		<tag k="ssr:stedsnr" v="403088" />
	</node>
	<node id="-6754" lat="58.9105944469" lon="5.73010555669">
		<tag k="name" v="Boganes" />
		<tag k="place" v="locality" />
		<tag k="ssr:stedsnr" v="162925" />
	</node>
	<node id="-8801" lat="59.1219138855" lon="5.67470277567">
		<tag k="name" v="Ertenstein" />
		<tag k="place" v="farm" />
		<tag k="ssr:stedsnr" v="390401" />
	</node>
	<node id="-6752" lat="58.9550583378" lon="5.72911389395">
		<tag k="leisure" v="park" />
		<tag k="name" v="Rogalandsparken" />
		<tag k="ssr:stedsnr" v="162818" />
	</node>
	<node id="-8799" lat="59.1276666694" lon="5.60918332445">
		<tag k="name" v="Voll" />
		<tag k="place" v="farm" />
		<tag k="ssr:stedsnr" v="390382" />
	</node>
	<node id="-8798" lat="59.0967992848" lon="5.69790199698">
		<tag k="name" v="Håvastein" />
		<tag k="place" v="farm" />
		<tag k="ssr:stedsnr" v="389722" />
	</node>
	<node id="-8797" lat="59.0968194436" lon="5.69790833735">
		<tag k="name" v="Håvastein" />
		<tag k="place" v="farm" />
		<tag k="ssr:stedsnr" v="389718" />
	</node>
	<node id="-8796" lat="59.0956388881" lon="5.70294443844">
		<tag k="name" v="Håvastein" />
		<tag k="place" v="farm" />
		<tag k="ssr:stedsnr" v="389715" />
	</node>
	<node id="-8795" lat="59.0956388881" lon="5.70294443844">
		<tag k="name" v="Håvastein" />
		<tag k="place" v="farm" />
		<tag k="ssr:stedsnr" v="389709" />
	</node>
	<node id="-6746" lat="58.9464916703" lon="5.70289723036">
		<tag k="alt_name" v="Tjensvoll Øvre" />
		<tag k="fixme" v="consider place=suburb, village or hamlet" />
		<tag k="name" v="Øvre Tjensvoll" />
		<tag k="place" v="quarter" />
		<tag k="ssr:stedsnr" v="160604" />
	</node>
	<node id="-8793" lat="58.9597250004" lon="5.70651388503">
		<tag k="leisure" v="park" />
		<tag k="name" v="Mosvannsparken" />
		<tag k="old_name" v="Mosevandsparken" />
		<tag k="ssr:stedsnr" v="388283" />
	</node>
	<node id="-8792" lat="59.1270527783" lon="5.64060833443">
		<tag k="name" v="Stoggdal" />
		<tag k="place" v="farm" />
		<tag k="ssr:stedsnr" v="388126" />
	</node>
	<node id="-8791" lat="58.9462416641" lon="5.75401666625">
		<tag k="building" v="industrial" />
		<tag k="name" v="Rogaland Felleskjøp" />
		<tag k="ssr:stedsnr" v="387200" />
	</node>
	<node id="-6739" lat="59.1145869173" lon="5.69327443476">
		<tag k="name" v="Nordbø" />
		<tag k="place" v="farm" />
		<tag k="ssr:stedsnr" v="148412" />
	</node>
	<node id="-6738" lat="59.114022223" lon="5.72265554742">
		<tag k="name" v="Austbø" />
		<tag k="place" v="farm" />
		<tag k="ssr:stedsnr" v="148069" />
	</node>
	<node id="-8785" lat="58.9643277814" lon="5.73049167233">
		<tag k="amenity" v="hospital" />
		<tag k="name" v="Stavanger sjukehus" />
		<tag k="ssr:stedsnr" v="387028" />
	</node>
	<node id="-8783" lat="58.9577888871" lon="5.69523611913">
		<tag k="amenity" v="school" />
		<tag k="name" v="Lassa skole" />
		<tag k="ssr:stedsnr" v="384443" />
	</node>
	<node id="-6734" lat="59.1279555592" lon="5.64214999472">
		<tag k="name" v="Sørbø" />
		<tag k="place" v="farm" />
		<tag k="ssr:stedsnr" v="269445" />
	</node>
	<node id="-6733" lat="59.1142305517" lon="5.68726943978">
		<tag k="name" v="Nordbø" />
		<tag k="place" v="farm" />
		<tag k="ssr:stedsnr" v="269439" />
	</node>
	<node id="-6732" lat="59.1146956188" lon="5.69364690564">
		<tag k="name" v="Nordbø" />
		<tag k="place" v="farm" />
		<tag k="ssr:stedsnr" v="269437" />
	</node>
	<node id="-6731" lat="59.1118805598" lon="5.69394445019">
		<tag k="name" v="Nordbø" />
		<tag k="place" v="farm" />
		<tag k="ssr:stedsnr" v="269434" />
	</node>
	<node id="-6730" lat="59.1345722247" lon="5.59175000568">
		<tag k="name" v="Galta" />
		<tag k="place" v="farm" />
		<tag k="ssr:stedsnr" v="269431" />
	</node>
	<node id="-6729" lat="59.1312777738" lon="5.61525000117">
		<tag k="name" v="Galta" />
		<tag k="place" v="farm" />
		<tag k="ssr:stedsnr" v="269429" />
	</node>
	<node id="-6728" lat="59.1121722246" lon="5.69544166944">
		<tag k="name" v="Nordbø" />
		<tag k="place" v="farm" />
		<tag k="ssr:stedsnr" v="269398" />
	</node>
	<node id="-6727" lat="59.2665999981" lon="5.86479165994">
		<tag k="name" v="Venja" />
		<tag k="place" v="farm" />
		<tag k="ssr:stedsnr" v="268999" />
	</node>
	<node id="-8773" lat="59.2692000018" lon="5.85300000271">
		<tag k="alt_name" v="Kallhagen" />
		<tag k="name" v="Kalvhagen" />
		<tag k="place" v="farm" />
		<tag k="ssr:stedsnr" v="366611" />
	</node>
	<node id="-6724" lat="59.0332000002" lon="5.70215554789">
		<tag k="name" v="Vardaberg" />
		<tag k="place" v="farm" />
		<tag k="ssr:stedsnr" v="268701" />
	</node>
	<node id="-6723" lat="59.0374638882" lon="5.70543889317">
		<tag k="name" v="Vardaberg" />
		<tag k="place" v="farm" />
		<tag k="ssr:stedsnr" v="268699" />
	</node>
	<node id="-6722" lat="59.0694722262" lon="5.69106110998">
		<tag k="name" v="Askje" />
		<tag k="place" v="farm" />
		<tag k="ssr:stedsnr" v="268378" />
	</node>
	<node id="-8768" lat="59.1222793273" lon="5.89505270787">
		<tag k="fixme" v="consider place=hamlet" />
		<tag k="name" v="Hovda" />
		<tag k="place" v="farm" />
		<tag k="ssr:stedsnr" v="366565" />
	</node>
	<node id="-6718" lat="58.9218738151" lon="5.71028529196">
		<tag k="fixme" v="consider place=hamlet" />
		<tag k="name" v="Hinna" />
		<tag k="place" v="farm" />
		<tag k="ssr:stedsnr" v="267633" />
	</node>
	<node id="-6717" lat="58.9583527746" lon="5.69266111602">
		<tag k="leisure" v="pitch" />
		<tag k="name" v="Lassa idrettsanlegg" />
		<tag k="ssr:stedsnr" v="266321" />
	</node>
	<node id="-6715" lat="58.9907916661" lon="5.69344166561">
		<tag k="name" v="Tastasjøen" />
		<tag k="place" v="quarter" />
		<tag k="ssr:stedsnr" v="266175" />
	</node>
	<node id="-6711" lat="58.9913999964" lon="5.81077222511">
		<tag k="amenity" v="school" />
		<tag k="name" v="Lindøy skole" />
		<tag k="ssr:stedsnr" v="266020" />
	</node>
	<node id="-8757" lat="59.0937871853" lon="5.74147455014">
		<tag k="fixme" v="consider place=hamlet" />
		<tag k="name" v="Roaldstad" />
		<tag k="place" v="farm" />
		<tag k="ssr:stedsnr" v="365869" />
	</node>
	<node id="-8756" lat="59.0424361143" lon="5.76245555794">
		<tag k="name" v="Lunde" />
		<tag k="place" v="farm" />
		<tag k="ssr:stedsnr" v="365824" />
	</node>
	<node id="-6705" lat="59.2799578046" lon="5.95575043935">
		<tag k="fixme" v="consider place=hamlet" />
		<tag k="name" v="Jørstad" />
		<tag k="place" v="farm" />
		<tag k="ssr:stedsnr" v="263963" />
	</node>
	<node id="-6704" lat="59.1978844057" lon="5.82870967663">
		<tag k="alt_name" v="Mjølsnes, nedre;Mjølsnes" />
		<tag k="fixme" v="consider place=hamlet" />
		<tag k="name" v="Nedre Mjølsnes" />
		<tag k="place" v="farm" />
		<tag k="ssr:stedsnr" v="123321" />
	</node>
	<node id="-6702" lat="58.9900194476" lon="5.68208056038">
		<tag k="amenity" v="school" />
		<tag k="name" v="Teinå skole" />
		<tag k="ssr:stedsnr" v="263482" />
	</node>
	<node id="-8747" lat="59.1464085878" lon="5.91690346426">
		<tag k="alt_name" v="Varland" />
		<tag k="fixme" v="consider place=hamlet" />
		<tag k="name" v="Vardland" />
		<tag k="place" v="farm" />
		<tag k="ssr:stedsnr" v="365565" />
	</node>
	<node id="-8744" lat="59.2451551229" lon="5.81093110967">
		<tag k="alt_name" v="Tandravollen" />
		<tag k="fixme" v="consider place=hamlet" />
		<tag k="name" v="Tandravoll" />
		<tag k="place" v="farm" />
		<tag k="ssr:stedsnr" v="365481" />
	</node>
	<node id="-8741" lat="59.1069500026" lon="5.59771666002">
		<tag k="alt_name" v="Beite" />
		<tag k="name" v="Beitet" />
		<tag k="place" v="farm" />
		<tag k="ssr:stedsnr" v="365382" />
	</node>
	<node id="-8739" lat="59.121182548" lon="5.61968625586">
		<tag k="fixme" v="consider place=hamlet" />
		<tag k="name" v="Seglheim" />
		<tag k="place" v="farm" />
		<tag k="ssr:stedsnr" v="365374" />
	</node>
	<node id="-6689" lat="59.1096361153" lon="5.69409722724">
		<tag k="name" v="Vestbø" />
		<tag k="place" v="farm" />
		<tag k="ssr:stedsnr" v="113007" />
	</node>
	<node id="-6686" lat="58.9507638848" lon="5.64639166303">
		<tag k="name" v="Fredtun" />
		<tag k="place" v="farm" />
		<tag k="ssr:stedsnr" v="99954" />
	</node>
	<node id="-6685" lat="59.0952111148" lon="5.75811667301">
		<tag k="name" v="Mehus" />
		<tag k="place" v="farm" />
		<tag k="ssr:stedsnr" v="86716" />
	</node>
	<node id="-6684" lat="59.0988083336" lon="5.69724165985">
		<tag k="name" v="Håvastein" />
		<tag k="place" v="farm" />
		<tag k="ssr:stedsnr" v="86715" />
	</node>
	<node id="-6683" lat="59.0423861153" lon="5.69660833567">
		<tag k="name" v="Hegraberg" />
		<tag k="place" v="farm" />
		<tag k="ssr:stedsnr" v="86707" />
	</node>
	<node id="-6682" lat="59.0803805521" lon="5.65193333683">
		<tag k="name" v="Hodnafjell" />
		<tag k="place" v="farm" />
		<tag k="ssr:stedsnr" v="86522" />
	</node>
	<node id="-6681" lat="59.0518986326" lon="5.65717793817">
		<tag k="alt_name" v="Sokn" />
		<tag k="name" v="Hesthaug" />
		<tag k="place" v="farm" />
		<tag k="ssr:stedsnr" v="86373" />
	</node>
	<node id="-6680" lat="59.1207361091" lon="5.64421110862">
		<tag k="name" v="Stoggdal" />
		<tag k="place" v="farm" />
		<tag k="ssr:stedsnr" v="85115" />
	</node>
	<node id="-6675" lat="59.2495944417" lon="6.05523888721">
		<tag k="alt_name" v="Rosså" />
		<tag k="name" v="Rossåna" />
		<tag k="place" v="farm" />
		<tag k="ssr:stedsnr" v="246620" />
	</node>
	<node id="-6674" lat="59.277349996" lon="5.95592500095">
		<tag k="alt_name" v="Jørstad, øvre" />
		<tag k="name" v="Øvre Jørstad" />
		<tag k="place" v="farm" />
		<tag k="ssr:stedsnr" v="245575" />
	</node>
	<node id="-6672" lat="59.2518272124" lon="5.84621019149">
		<tag k="alt_name" v="Audbø" />
		<tag k="fixme" v="consider place=hamlet" />
		<tag k="name" v="Aubø" />
		<tag k="place" v="farm" />
		<tag k="ssr:stedsnr" v="245550" />
	</node>
	<node id="-8718" lat="59.2390138891" lon="5.89361944957">
		<tag k="name" v="Stykkjet" />
		<tag k="place" v="farm" />
		<tag k="ssr:stedsnr" v="363537" />
	</node>
	<node id="-9645" lat="58.93912786" lon="5.74750590192">
		<tag k="name" v="Erik Hauglands plass" />
		<tag k="place" v="square" />
		<tag k="ssr:stedsnr" v="975724" />
	</node>
	<node id="-6665" lat="59.1720319797" lon="5.86882225317">
		<tag k="fixme" v="consider place=hamlet" />
		<tag k="name" v="Haga" />
		<tag k="place" v="farm" />
		<tag k="ssr:stedsnr" v="244901" />
	</node>
	<node id="-6661" lat="59.0917472238" lon="5.77713889275">
		<tag k="fixme" v="consider place=hamlet" />
		<tag k="name" v="Østhusvik" />
		<tag k="place" v="village" />
		<tag k="ssr:stedsnr" v="244879" />
	</node>
	<node id="-6656" lat="59.1638169167" lon="5.84371320339">
		<tag k="alt_name" v="Kvamme" />
		<tag k="fixme" v="consider place=hamlet" />
		<tag k="name" v="Kvame" />
		<tag k="place" v="farm" />
		<tag k="ssr:stedsnr" v="244658" />
	</node>
	<node id="-8700" lat="59.1289089735" lon="5.90450574743">
		<tag k="fixme" v="consider place=hamlet" />
		<tag k="name" v="Nedre Eide" />
		<tag k="place" v="farm" />
		<tag k="ssr:stedsnr" v="357282" />
	</node>
	<node id="-6650" lat="59.0961555545" lon="5.58413055627">
		<tag k="name" v="Nygard" />
		<tag k="place" v="farm" />
		<tag k="ssr:stedsnr" v="244343" />
	</node>
	<node id="-6649" lat="59.0905611072" lon="5.59183055567">
		<tag k="name" v="Skipanes" />
		<tag k="place" v="farm" />
		<tag k="ssr:stedsnr" v="244340" />
	</node>
	<node id="-8695" lat="59.1845525507" lon="5.81373786985">
		<tag k="fixme" v="consider place=hamlet" />
		<tag k="name" v="Nordbø" />
		<tag k="place" v="farm" />
		<tag k="ssr:stedsnr" v="357150" />
	</node>
	<node id="-8694" lat="59.1716694481" lon="5.82486388327">
		<tag k="name" v="Lunden" />
		<tag k="place" v="farm" />
		<tag k="ssr:stedsnr" v="357136" />
	</node>
	<node id="-6645" lat="59.1181516987" lon="5.63997502407">
		<tag k="fixme" v="consider place=hamlet" />
		<tag k="name" v="Steinsland" />
		<tag k="place" v="farm" />
		<tag k="ssr:stedsnr" v="244363" />
	</node>
	<node id="-6640" lat="58.9429388888" lon="5.63626110865">
		<tag k="alt_name" v="Myrå" />
		<tag k="name" v="Myra" />
		<tag k="place" v="farm" />
		<tag k="ssr:stedsnr" v="244042" />
	</node>
	<node id="-9640" lat="59.1220574022" lon="5.60200684548">
		<tag k="fixme" v="consider place=hamlet" />
		<tag k="name" v="Klovstein" />
		<tag k="place" v="village" />
		<tag k="ssr:stedsnr" v="973721" />
	</node>
	<node id="-6638" lat="58.9854175287" lon="5.72805085032">
		<tag k="alt_name" v="Rosenberg Verft" />
		<tag k="building" v="industrial" />
		<tag k="industrial" v="factory" />
		<tag k="name" v="Rosenberg" />
		<tag k="ssr:stedsnr" v="243050" />
	</node>
	<node id="-6637" lat="58.9911244139" lon="5.66367921666">
		<tag k="alt_name" v="Finnastad" />
		<tag k="fixme" v="consider place=hamlet" />
		<tag k="name" v="Finnestad" />
		<tag k="place" v="farm" />
		<tag k="ssr:stedsnr" v="243098" />
	</node>
	<node id="-6636" lat="58.9570972179" lon="5.68575276991">
		<tag k="fixme" v="consider place=suburb, village or hamlet" />
		<tag k="loc_name" v="Sandal" />
		<tag k="name" v="Sanddal" />
		<tag k="place" v="quarter" />
		<tag k="ssr:stedsnr" v="243083" />
	</node>
	<node id="-8683" lat="59.1188618186" lon="5.69000901906">
		<tag k="fixme" v="consider place=hamlet" />
		<tag k="name" v="Nordbø" />
		<tag k="place" v="farm" />
		<tag k="ssr:stedsnr" v="356005" />
	</node>
	<node id="-6627" lat="59.2262055595" lon="5.84316667308">
		<tag k="name" v="Myrå" />
		<tag k="place" v="farm" />
		<tag k="ssr:stedsnr" v="242569" />
	</node>
	<node id="-6626" lat="59.2238472194" lon="5.83703610806">
		<tag k="name" v="Vigjå" />
		<tag k="place" v="farm" />
		<tag k="ssr:stedsnr" v="242566" />
	</node>
	<node id="-6624" lat="59.2664472195" lon="5.95352221473">
		<tag k="name" v="Lamhagen" />
		<tag k="place" v="farm" />
		<tag k="ssr:stedsnr" v="242391" />
	</node>
	<node id="-6620" lat="59.2732500035" lon="5.86247500034">
		<tag k="name" v="Dalen" />
		<tag k="place" v="farm" />
		<tag k="ssr:stedsnr" v="63611" />
	</node>
	<node id="-8667" lat="58.9724444411" lon="5.75465000278">
		<tag k="building" v="industrial" />
		<tag k="name" v="Stavanger Havnesilo" />
		<tag k="ssr:stedsnr" v="343200" />
	</node>
	<node id="-8666" lat="58.9168305562" lon="5.70638611267">
		<tag k="name" v="Vollen" />
		<tag k="place" v="farm" />
		<tag k="ssr:stedsnr" v="342991" />
	</node>
	<node id="-9295" lat="59.0400833328" lon="5.68816667053">
		<tag k="name" v="Hegraberg" />
		<tag k="place" v="farm" />
		<tag k="ssr:stedsnr" v="875700" />
	</node>
	<node id="-8663" lat="58.9469444473" lon="5.68306111651">
		<tag k="name" v="Ljosheim" />
		<tag k="place" v="farm" />
		<tag k="ssr:stedsnr" v="342949" />
	</node>
	<node id="-8661" lat="58.9646527762" lon="5.62168889738">
		<tag k="name" v="Rudlehaugen" />
		<tag k="place" v="farm" />
		<tag k="ssr:stedsnr" v="342898" />
	</node>
	<node id="-6612" lat="59.1243966692" lon="5.63482431368">
		<tag k="fixme" v="consider place=hamlet" />
		<tag k="name" v="Hommervoll" />
		<tag k="place" v="farm" />
		<tag k="ssr:stedsnr" v="54623" />
	</node>
	<node id="-6609" lat="59.1853666699" lon="5.82458889194">
		<tag k="name" v="Stølen" />
		<tag k="place" v="farm" />
		<tag k="ssr:stedsnr" v="54159" />
	</node>
	<node id="-8656" lat="58.8956944443" lon="5.72164999723">
		<tag k="name" v="Godeset" />
		<tag k="place" v="suburb" />
		<tag k="ssr:stedsnr" v="342591" />
	</node>
	<node id="-8655" lat="59.264097223" lon="5.87941388283">
		<tag k="name" v="Skallnes" />
		<tag k="place" v="farm" />
		<tag k="ssr:stedsnr" v="342579" />
	</node>
	<node id="-6606" lat="59.1065412358" lon="5.69629413036">
		<tag k="fixme" v="consider place=hamlet" />
		<tag k="name" v="Håvastein" />
		<tag k="place" v="farm" />
		<tag k="ssr:stedsnr" v="54057" />
	</node>
	<node id="-6605" lat="59.1506722522" lon="5.92654545822">
		<tag k="name" v="Egrå" />
		<tag k="place" v="locality" />
		<tag k="ssr:stedsnr" v="53655" />
	</node>
	<node id="-6604" lat="59.1578583299" lon="5.85491111614">
		<tag k="name" v="Svinhagen" />
		<tag k="place" v="isolated_dwelling" />
		<tag k="ssr:stedsnr" v="53612" />
	</node>
	<node id="-8650" lat="59.1161277814" lon="5.65762222464">
		<tag k="name" v="Sørbø" />
		<tag k="place" v="farm" />
		<tag k="ssr:stedsnr" v="330471" />
	</node>
	<node id="-8649" lat="59.1261527737" lon="5.6515166642">
		<tag k="name" v="Sørbø" />
		<tag k="place" v="farm" />
		<tag k="ssr:stedsnr" v="330470" />
	</node>
	<node id="-8648" lat="59.1103944478" lon="5.69617777268">
		<tag k="name" v="Nordbø" />
		<tag k="place" v="farm" />
		<tag k="ssr:stedsnr" v="330464" />
	</node>
	<node id="-8647" lat="59.1135083325" lon="5.69513055539">
		<tag k="name" v="Nordbø" />
		<tag k="place" v="farm" />
		<tag k="ssr:stedsnr" v="330463" />
	</node>
	<node id="-8646" lat="59.1322527819" lon="5.60356944463">
		<tag k="name" v="Galta" />
		<tag k="place" v="farm" />
		<tag k="ssr:stedsnr" v="330458" />
	</node>
	<node id="-8645" lat="59.1303388852" lon="5.6032277698">
		<tag k="name" v="Galta" />
		<tag k="place" v="farm" />
		<tag k="ssr:stedsnr" v="330450" />
	</node>
	<node id="-6596" lat="59.0484123974" lon="5.73265926631">
		<tag k="alt_name" v="Rosnes" />
		<tag k="name" v="Rossnes" />
		<tag k="place" v="locality" />
		<tag k="ssr:stedsnr" v="52407" />
	</node>
	<node id="-6595" lat="59.1238975427" lon="5.59294786442">
		<tag k="fixme" v="consider place=hamlet" />
		<tag k="name" v="Nordre Reianes" />
		<tag k="place" v="farm" />
		<tag k="ssr:stedsnr" v="236857" />
	</node>
	<node id="-8641" lat="59.0517444485" lon="5.66965833529">
		<tag k="name" v="Sokn" />
		<tag k="place" v="farm" />
		<tag k="ssr:stedsnr" v="328329" />
	</node>
	<node id="-6592" lat="59.0732752165" lon="5.68248673691">
		<tag k="fixme" v="consider place=hamlet" />
		<tag k="name" v="Vaula" />
		<tag k="place" v="farm" />
		<tag k="ssr:stedsnr" v="236572" />
	</node>
	<node id="-8639" lat="58.9532388858" lon="5.71710555692">
		<tag k="name" v="Schancheholen" />
		<tag k="old_name" v="Holen" />
		<tag k="place" v="farm" />
		<tag k="ssr:stedsnr" v="327293" />
	</node>
	<node id="-6584" lat="59.0986138865" lon="5.76886111361">
		<tag k="name" v="Hagane" />
		<tag k="place" v="farm" />
		<tag k="ssr:stedsnr" v="235995" />
	</node>
	<node id="-8628" lat="59.1855365523" lon="5.85268736774">
		<tag k="fixme" v="consider place=hamlet" />
		<tag k="name" v="Spanne" />
		<tag k="place" v="farm" />
		<tag k="ssr:stedsnr" v="305927" />
	</node>
	<node id="-8625" lat="59.1780684677" lon="5.87523881911">
		<tag k="fixme" v="consider place=hamlet" />
		<tag k="name" v="Hauskje" />
		<tag k="place" v="farm" />
		<tag k="ssr:stedsnr" v="305881" />
	</node>
	<node id="-8624" lat="59.1836725367" lon="5.86975228514">
		<tag k="fixme" v="consider place=hamlet" />
		<tag k="name" v="Lausnes" />
		<tag k="place" v="farm" />
		<tag k="ssr:stedsnr" v="305876" />
	</node>
	<node id="-8623" lat="59.0046444418" lon="5.73269444086">
		<tag k="name" v="Skeie" />
		<tag k="place" v="farm" />
		<tag k="ssr:stedsnr" v="305772" />
	</node>
	<node id="-8622" lat="59.0071042484" lon="5.74316827048">
		<tag k="fixme" v="consider place=hamlet" />
		<tag k="name" v="Lunde" />
		<tag k="place" v="farm" />
		<tag k="ssr:stedsnr" v="305770" />
	</node>
	<node id="-8618" lat="59.2836196261" lon="6.08132045947">
		<tag k="fixme" v="consider place=hamlet" />
		<tag k="name" v="Buer" />
		<tag k="place" v="farm" />
		<tag k="ssr:stedsnr" v="305653" />
	</node>
	<node id="-8617" lat="59.2806954509" lon="6.02214568492">
		<tag k="fixme" v="consider place=hamlet" />
		<tag k="name" v="Kalltveit" />
		<tag k="place" v="farm" />
		<tag k="ssr:stedsnr" v="305646" />
	</node>
	<node id="-8616" lat="59.2791427461" lon="6.08703980349">
		<tag k="alt_name" v="Tjelltveit" />
		<tag k="fixme" v="consider place=hamlet" />
		<tag k="name" v="Hjelltveit" />
		<tag k="place" v="farm" />
		<tag k="ssr:stedsnr" v="305644" />
	</node>
	<node id="-8615" lat="59.2713999975" lon="6.10040000009">
		<tag k="name" v="Haug" />
		<tag k="place" v="farm" />
		<tag k="ssr:stedsnr" v="305642" />
	</node>
	<node id="-8614" lat="59.2616749984" lon="5.86675000113">
		<tag k="name" v="Djupemyr" />
		<tag k="place" v="farm" />
		<tag k="ssr:stedsnr" v="305639" />
	</node>
	<node id="-8610" lat="59.2570648884" lon="5.87887262395">
		<tag k="fixme" v="consider place=hamlet" />
		<tag k="name" v="Kvelland" />
		<tag k="place" v="farm" />
		<tag k="ssr:stedsnr" v="305622" />
	</node>
	<node id="-8609" lat="59.2630000039" lon="5.92792500624">
		<tag k="alt_name" v="Liå" />
		<tag k="name" v="Lia" />
		<tag k="place" v="farm" />
		<tag k="ssr:stedsnr" v="305621" />
	</node>
	<node id="-9425" lat="59.0660583358" lon="5.69350278003">
		<tag k="name" v="Askje" />
		<tag k="place" v="farm" />
		<tag k="ssr:stedsnr" v="814424" />
	</node>
	<node id="-6552" lat="58.9656388898" lon="5.72217499137">
		<tag k="name" v="Breidablikk" />
		<tag k="place" v="locality" />
		<tag k="ssr:stedsnr" v="40809" />
	</node>
	<node id="-8597" lat="59.2241962358" lon="5.82894951109">
		<tag k="fixme" v="consider place=hamlet" />
		<tag k="name" v="Talgje" />
		<tag k="place" v="farm" />
		<tag k="ssr:stedsnr" v="305297" />
	</node>
	<node id="-8596" lat="59.151315658" lon="5.81405859502">
		<tag k="fixme" v="consider place=hamlet" />
		<tag k="name" v="Kindingstad" />
		<tag k="place" v="farm" />
		<tag k="ssr:stedsnr" v="305277" />
	</node>
	<node id="-8595" lat="59.2292098912" lon="5.97450691947">
		<tag k="name" v="Atlatveitsjøen" />
		<tag k="place" v="farm" />
		<tag k="ssr:stedsnr" v="304945" />
	</node>
	<node id="-6545" lat="58.9961446843" lon="5.65540418758">
		<tag k="fixme" v="consider place=suburb, village or hamlet" />
		<tag k="name" v="Finnestad" />
		<tag k="place" v="quarter" />
		<tag k="ssr:stedsnr" v="39601" />
	</node>
	<node id="-6543" lat="59.2444810666" lon="5.82474464225">
		<tag k="alt_name" v="Skude" />
		<tag k="name" v="Skute" />
		<tag k="place" v="farm" />
		<tag k="ssr:stedsnr" v="39262" />
	</node>
	<node id="-8590" lat="59.0964148195" lon="5.61228039092">
		<tag k="fixme" v="consider place=hamlet" />
		<tag k="name" v="Finnasand" />
		<tag k="place" v="farm" />
		<tag k="ssr:stedsnr" v="304338" />
	</node>
	<node id="-8587" lat="58.9491764905" lon="5.64365276158">
		<tag k="alt_name" v="Reveim" />
		<tag k="fixme" v="consider place=hamlet" />
		<tag k="name" v="Revheim" />
		<tag k="place" v="farm" />
		<tag k="ssr:stedsnr" v="304041" />
	</node>
	<node id="-6536" lat="58.9514583292" lon="5.74067221967">
		<tag k="name" v="Frida Hansens hus" />
		<tag k="place" v="isolated_dwelling" />
		<tag k="ssr:stedsnr" v="26413" />
	</node>
	<node id="-6533" lat="58.9676555514" lon="5.72120277813">
		<tag k="amenity" v="school" />
		<tag k="name" v="Hermetikkfagskolen" />
		<tag k="ssr:stedsnr" v="24010" />
	</node>
	<node id="-6526" lat="58.9690499959" lon="5.73156388313">
		<tag k="leisure" v="park" />
		<tag k="loc_name" v="Kiellandshagen" />
		<tag k="name" v="Kjellandshagen" />
		<tag k="ssr:stedsnr" v="223824" />
	</node>
	<node id="-6525" lat="58.9721083356" lon="5.72248333368">
		<tag k="name" v="Hertervigs plass" />
		<tag k="place" v="square" />
		<tag k="ssr:stedsnr" v="223822" />
	</node>
	<node id="-8572" lat="59.07132778" lon="5.68673610242">
		<tag k="name" v="Vaula" />
		<tag k="place" v="farm" />
		<tag k="ssr:stedsnr" v="209087" />
	</node>
	<node id="-8571" lat="59.1088138859" lon="5.72556945109">
		<tag k="name" v="Austbø" />
		<tag k="place" v="farm" />
		<tag k="ssr:stedsnr" v="209076" />
	</node>
	<node id="-8570" lat="59.101841663" lon="5.69359722708">
		<tag k="name" v="Håvastein" />
		<tag k="place" v="farm" />
		<tag k="ssr:stedsnr" v="207710" />
	</node>
	<node id="-8569" lat="59.1066166686" lon="5.69909722951">
		<tag k="name" v="Håvastein" />
		<tag k="place" v="farm" />
		<tag k="ssr:stedsnr" v="207702" />
	</node>
	<node id="-8568" lat="59.0937194402" lon="5.76200277655">
		<tag k="name" v="Mehus" />
		<tag k="place" v="farm" />
		<tag k="ssr:stedsnr" v="207700" />
	</node>
	<node id="-8567" lat="59.0361861074" lon="5.69397499723">
		<tag k="name" v="Vardaberg" />
		<tag k="place" v="farm" />
		<tag k="ssr:stedsnr" v="207691" />
	</node>
	<node id="-8561" lat="58.9494777782" lon="5.70267499965">
		<tag k="name" v="Øvre Tjensvoll" />
		<tag k="place" v="farm" />
		<tag k="ssr:stedsnr" v="206295" />
	</node>
	<node id="-6511" lat="58.9346086272" lon="5.70287703738">
		<tag k="alt_name" v="Kartverket" />
		<tag k="building" v="commercial" />
		<tag k="name" v="Statens kartverk" />
		<tag k="ssr:stedsnr" v="222184" />
	</node>
	<node id="-6508" lat="58.9684194424" lon="5.7109999968">
		<tag k="name" v="Edvard Griegs plass" />
		<tag k="place" v="square" />
		<tag k="ssr:stedsnr" v="221998" />
	</node>
	<node id="-6506" lat="58.9164999996" lon="5.69557500047">
		<tag k="name" v="Brunnholen" />
		<tag k="place" v="farm" />
		<tag k="ssr:stedsnr" v="221992" />
	</node>
	<node id="-6505" lat="58.9559083357" lon="5.7510916656">
		<tag k="alt_name" v="Godal" />
		<tag k="fixme" v="consider place=suburb, village or hamlet" />
		<tag k="name" v="Godalen" />
		<tag k="place" v="quarter" />
		<tag k="ssr:stedsnr" v="221978" />
	</node>
	<node id="-8550" lat="59.2868724225" lon="5.98182396407">
		<tag k="fixme" v="consider place=hamlet" />
		<tag k="name" v="Nodland" />
		<tag k="place" v="farm" />
		<tag k="ssr:stedsnr" v="185559" />
	</node>
	<node id="-6501" lat="58.9718305532" lon="5.73312778365">
		<tag k="name" v="Breitorget" />
		<tag k="place" v="square" />
		<tag k="ssr:stedsnr" v="221786" />
	</node>
	<node id="-8546" lat="59.2368388902" lon="6.01681388248">
		<tag k="alt_name" v="Sadal" />
		<tag k="name" v="Sagdal" />
		<tag k="place" v="farm" />
		<tag k="ssr:stedsnr" v="184980" />
	</node>
	<node id="-6496" lat="58.9928805539" lon="5.74669999338">
		<tag k="fixme" v="consider place=suburb, village or hamlet" />
		<tag k="name" v="Austbø" />
		<tag k="place" v="quarter" />
		<tag k="ssr:stedsnr" v="221551" />
	</node>
	<node id="-8543" lat="58.9975111119" lon="5.73763611318">
		<tag k="name" v="Austbø" />
		<tag k="place" v="farm" />
		<tag k="ssr:stedsnr" v="184968" />
	</node>
	<node id="-6484" lat="58.9706555519" lon="5.61436389659">
		<tag k="name" v="Haraberget" />
		<tag k="place" v="farm" />
		<tag k="ssr:stedsnr" v="64" />
	</node>
	<node id="-8531" lat="59.2502757605" lon="5.93674163262">
		<tag k="fixme" v="consider place=hamlet" />
		<tag k="name" v="Løland" />
		<tag k="place" v="farm" />
		<tag k="ssr:stedsnr" v="184683" />
	</node>
	<node id="-9427" lat="59.0596305589" lon="5.6684555492">
		<tag k="name" v="Askje" />
		<tag k="place" v="farm" />
		<tag k="ssr:stedsnr" v="814484" />
	</node>
	<node id="-8524" lat="59.1055949454" lon="5.73838097075">
		<tag k="fixme" v="consider place=hamlet" />
		<tag k="name" v="Førsvoll" />
		<tag k="place" v="farm" />
		<tag k="ssr:stedsnr" v="184325" />
	</node>
	<node id="-9612" lat="59.1159912889" lon="5.76524940223">
		<tag k="fixme" v="consider place=hamlet" />
		<tag k="name" v="Øvre Hanasand" />
		<tag k="place" v="farm" />
		<tag k="ssr:stedsnr" v="964856" />
	</node>
	<node id="-8514" lat="59.2011548963" lon="5.95171405274">
		<tag k="alt_name" v="Skartveit" />
		<tag k="fixme" v="consider place=hamlet" />
		<tag k="name" v="Skardtveit" />
		<tag k="place" v="farm" />
		<tag k="ssr:stedsnr" v="183909" />
	</node>
	<node id="-9611" lat="59.0439249992" lon="5.65796111103">
		<tag k="name" v="Beite" />
		<tag k="place" v="farm" />
		<tag k="ssr:stedsnr" v="964531" />
	</node>
	<node id="-8512" lat="59.087494542" lon="5.66585290739">
		<tag k="alt_name" v="Vodl" />
		<tag k="fixme" v="consider place=hamlet" />
		<tag k="name" v="Voll" />
		<tag k="place" v="farm" />
		<tag k="ssr:stedsnr" v="183869" />
	</node>
	<node id="-8928" lat="58.9589333295" lon="5.75773055042">
		<tag k="name" v="Ramsvig" />
		<tag k="place" v="locality" />
		<tag k="ssr:stedsnr" v="524984" />
	</node>
	<node id="-9269" lat="59.1281916669" lon="5.62627222143">
		<tag k="name" v="Hummervoll" />
		<tag k="place" v="farm" />
		<tag k="ssr:stedsnr" v="755456" />
	</node>
	<node id="-8508" lat="59.161405553" lon="5.85063888934">
		<tag k="fixme" v="consider place=hamlet" />
		<tag k="name" v="Nådå" />
		<tag k="place" v="farm" />
		<tag k="ssr:stedsnr" v="183611" />
	</node>
	<node id="-8504" lat="59.1443209245" lon="5.91078935177">
		<tag k="fixme" v="consider place=hamlet" />
		<tag k="name" v="Oppsal" />
		<tag k="place" v="farm" />
		<tag k="ssr:stedsnr" v="183532" />
	</node>
	<node id="-8501" lat="58.9697244929" lon="5.61975521634">
		<tag k="alt_name" v="Sunde, nordre;Nord-Sunde" />
		<tag k="fixme" v="consider place=hamlet" />
		<tag k="name" v="Nordre Sunde" />
		<tag k="place" v="farm" />
		<tag k="ssr:stedsnr" v="183077" />
	</node>
	<node id="-8500" lat="58.9737138878" lon="5.66115555538">
		<tag k="name" v="Myra" />
		<tag k="place" v="farm" />
		<tag k="ssr:stedsnr" v="183064" />
	</node>
	<node id="-6878" lat="59.2561638887" lon="5.88136944928">
		<tag k="name" v="Kvedlandsvik" />
		<tag k="place" v="farm" />
		<tag k="ssr:stedsnr" v="242458" />
	</node>
	<node id="-8491" lat="59.2384416629" lon="6.02310833552">
		<tag k="name" v="Flådå" />
		<tag k="place" v="farm" />
		<tag k="ssr:stedsnr" v="181686" />
	</node>
	<node id="-9265" lat="59.0978694443" lon="5.69786110679">
		<tag k="name" v="Håvastein" />
		<tag k="place" v="farm" />
		<tag k="ssr:stedsnr" v="753684" />
	</node>
	<node id="-8483" lat="58.9118833329" lon="5.72251388833">
		<tag k="name" v="Jåttå" />
		<tag k="place" v="farm" />
		<tag k="ssr:stedsnr" v="179649" />
	</node>
	<node id="-8460" lat="59.1798138934" lon="5.81218334085">
		<tag k="name" v="Brekke" />
		<tag k="place" v="farm" />
		<tag k="ssr:stedsnr" v="175148" />
	</node>
	<node id="-9420" lat="58.9444666631" lon="5.74625555146">
		<tag k="amenity" v="school" />
		<tag k="name" v="Kvaleberg skole" />
		<tag k="ssr:stedsnr" v="813142" />
	</node>
	<node id="-8430" lat="58.9408222203" lon="5.65683333563">
		<tag k="name" v="Onshaug" />
		<tag k="place" v="farm" />
		<tag k="ssr:stedsnr" v="160938" />
	</node>
	<node id="-8573" lat="59.122277777" lon="5.67585000831">
		<tag k="name" v="Ertenstein" />
		<tag k="place" v="farm" />
		<tag k="ssr:stedsnr" v="209453" />
	</node>
	<node id="-8428" lat="58.9665055564" lon="5.63278334158">
		<tag k="name" v="Øysteinsvarden" />
		<tag k="place" v="farm" />
		<tag k="ssr:stedsnr" v="160925" />
	</node>
	<node id="-8427" lat="58.9688999973" lon="5.73385554776">
		<tag k="leisure" v="park" />
		<tag k="name" v="Byparken" />
		<tag k="old_name" v="Parken" />
		<tag k="ssr:stedsnr" v="160835" />
	</node>
	<node id="-8425" lat="58.9780568716" lon="5.83658167035">
		<tag k="fixme" v="consider place=hamlet" />
		<tag k="name" v="Kalvøy" />
		<tag k="place" v="farm" />
		<tag k="ssr:stedsnr" v="160497" />
	</node>
	<node id="-9146" lat="59.1562117786" lon="5.78893730309">
		<tag k="fixme" v="consider place=hamlet" />
		<tag k="name" v="Sævheim" />
		<tag k="place" v="farm" />
		<tag k="ssr:stedsnr" v="607269" />
	</node>
	<node id="-8418" lat="59.1166194482" lon="5.69399999647">
		<tag k="name" v="Nordbø" />
		<tag k="place" v="farm" />
		<tag k="ssr:stedsnr" v="148444" />
	</node>
	<node id="-8417" lat="59.0365777749" lon="5.69628888944">
		<tag k="name" v="Vardaberg" />
		<tag k="place" v="farm" />
		<tag k="ssr:stedsnr" v="146698" />
	</node>
	<node id="-8414" lat="58.9506444409" lon="5.67800554819">
		<tag k="amenity" v="school" />
		<tag k="name" v="Madlamark skole" />
		<tag k="ssr:stedsnr" v="145299" />
	</node>
	<node id="-8413" lat="58.9510999994" lon="5.70361389269">
		<tag k="amenity" v="school" />
		<tag k="name" v="Tjensvoll skole" />
		<tag k="ssr:stedsnr" v="145296" />
	</node>
	<node id="-8600" lat="59.1258444448" lon="5.60134999823">
		<tag k="name" v="Voll" />
		<tag k="place" v="farm" />
		<tag k="ssr:stedsnr" v="305361" />
	</node>
	<node id="-8401" lat="58.9667027793" lon="5.72063888925">
		<tag k="name" v="Ledaal" />
		<tag k="place" v="locality" />
		<tag k="ssr:stedsnr" v="145021" />
	</node>
	<node id="-8399" lat="59.2887249996" lon="5.9901000021">
		<tag k="name" v="Hagen" />
		<tag k="place" v="farm" />
		<tag k="ssr:stedsnr" v="124547" />
	</node>
	<node id="-8387" lat="59.252599997" lon="5.87112500568">
		<tag k="alt_name" v="Bjerga, austre;Bjerga" />
		<tag k="name" v="Austre Bjerga" />
		<tag k="place" v="farm" />
		<tag k="ssr:stedsnr" v="123715" />
	</node>
	<node id="-8382" lat="59.1305341261" lon="5.92810935392">
		<tag k="fixme" v="consider place=hamlet" />
		<tag k="loc_name" v="Runestad" />
		<tag k="name" v="Runastad" />
		<tag k="place" v="farm" />
		<tag k="ssr:stedsnr" v="123581" />
	</node>
	<node id="-8377" lat="59.2631963193" lon="5.83022398437">
		<tag k="alt_name" v="Nordheim" />
		<tag k="fixme" v="consider place=hamlet" />
		<tag k="name" v="Norheim" />
		<tag k="place" v="farm" />
		<tag k="ssr:stedsnr" v="123300" />
	</node>
	<node id="-8376" lat="59.2521243383" lon="5.81292746411">
		<tag k="fixme" v="consider place=hamlet" />
		<tag k="name" v="Eik" />
		<tag k="place" v="farm" />
		<tag k="ssr:stedsnr" v="123299" />
	</node>
	<node id="-8371" lat="59.0858847418" lon="5.71831416514">
		<tag k="fixme" v="consider place=hamlet" />
		<tag k="name" v="Sel" />
		<tag k="place" v="farm" />
		<tag k="ssr:stedsnr" v="122850" />
	</node>
	<node id="-8369" lat="59.0934631642" lon="5.7573706918">
		<tag k="fixme" v="consider place=hamlet" />
		<tag k="name" v="Østhus" />
		<tag k="place" v="farm" />
		<tag k="ssr:stedsnr" v="122837" />
	</node>
	<node id="-8368" lat="59.0994992791" lon="5.69049724265">
		<tag k="fixme" v="consider place=hamlet" />
		<tag k="name" v="Hauskje" />
		<tag k="place" v="farm" />
		<tag k="ssr:stedsnr" v="122831" />
	</node>
	<node id="-8364" lat="59.038267481" lon="5.75913018422">
		<tag k="alt_name" v="Åmøy, austre" />
		<tag k="fixme" v="consider place=hamlet" />
		<tag k="name" v="Austre Åmøy" />
		<tag k="place" v="village" />
		<tag k="ssr:stedsnr" v="122754" />
	</node>
	<node id="-8363" lat="59.1648136811" lon="5.86503820901">
		<tag k="fixme" v="consider place=hamlet" />
		<tag k="name" v="Vika" />
		<tag k="place" v="farm" />
		<tag k="ssr:stedsnr" v="122620" />
	</node>
	<node id="-8356" lat="59.1569138846" lon="5.81355277518">
		<tag k="name" v="Nyvoll" />
		<tag k="place" v="farm" />
		<tag k="ssr:stedsnr" v="122282" />
	</node>
	<node id="-8353" lat="58.9821138845" lon="5.67850277444">
		<tag k="name" v="Tasta" />
		<tag k="place" v="farm" />
		<tag k="ssr:stedsnr" v="122066" />
	</node>
	<node id="-8351" lat="58.9095000003" lon="5.69178610297">
		<tag k="name" v="Jåttå" />
		<tag k="place" v="farm" />
		<tag k="ssr:stedsnr" v="122027" />
	</node>
	<node id="-8350" lat="58.9343006336" lon="5.71821727923">
		<tag k="alt_name" v="Auklend" />
		<tag k="fixme" v="consider place=hamlet" />
		<tag k="name" v="Auglend" />
		<tag k="place" v="farm" />
		<tag k="ssr:stedsnr" v="121068" />
	</node>
	<node id="-8345" lat="59.241552776" lon="6.02129166111">
		<tag k="name" v="Bøen" />
		<tag k="place" v="farm" />
		<tag k="ssr:stedsnr" v="120666" />
	</node>
	<node id="-9416" lat="58.9827638851" lon="5.71440276996">
		<tag k="amenity" v="university" />
		<tag k="name" v="Stavanger offshore tekniske skole" />
		<tag k="old_name" v="Sjømannsskolen" />
		<tag k="ssr:stedsnr" v="813123" />
	</node>
	<node id="-8771" lat="59.2843273741" lon="6.06827975613">
		<tag k="fixme" v="consider place=hamlet" />
		<tag k="name" v="Helgaland" />
		<tag k="place" v="farm" />
		<tag k="ssr:stedsnr" v="366606" />
	</node>
	<node id="-8556" lat="58.9856611082" lon="5.73435556267">
		<tag k="amenity" v="school" />
		<tag k="name" v="Buøy skole" />
		<tag k="ssr:stedsnr" v="206045" />
	</node>
	<node id="-8321" lat="59.0943638904" lon="5.77072778268">
		<tag k="name" v="Fredheim" />
		<tag k="place" v="farm" />
		<tag k="ssr:stedsnr" v="114987" />
	</node>
	<node id="-8893" lat="59.0957844718" lon="5.62909113012">
		<tag k="alt_name" v="Hogvallstad" />
		<tag k="fixme" v="consider place=hamlet" />
		<tag k="name" v="Haugvaldstad" />
		<tag k="place" v="farm" />
		<tag k="ssr:stedsnr" v="426856" />
	</node>
	<node id="-8209" lat="59.1495127722" lon="5.92023832696">
		<tag k="fixme" v="consider place=hamlet" />
		<tag k="name" v="Trevland" />
		<tag k="place" v="farm" />
		<tag k="ssr:stedsnr" v="62563" />
	</node>
	<node id="-8549" lat="59.2907750001" lon="6.0114999968">
		<tag k="name" v="Alveskjer" />
		<tag k="place" v="farm" />
		<tag k="ssr:stedsnr" v="185551" />
	</node>
	<node id="-8274" lat="58.9696999986" lon="5.73030000454">
		<tag k="name" v="Ankertorget" />
		<tag k="place" v="square" />
		<tag k="ssr:stedsnr" v="101794" />
	</node>
	<node id="-8266" lat="58.9752694483" lon="5.71951943636">
		<tag k="name" v="Bybergplassen" />
		<tag k="place" v="square" />
		<tag k="ssr:stedsnr" v="100841" />
	</node>
	<node id="-8263" lat="58.9174199271" lon="5.72332065256">
		<tag k="name" v="Hinna" />
		<tag k="place" v="suburb" />
		<tag k="ssr:stedsnr" v="100623" />
	</node>
	<node id="-8259" lat="58.9701638927" lon="5.73043055599">
		<tag k="name" v="Torget" />
		<tag k="place" v="square" />
		<tag k="ssr:stedsnr" v="100085" />
	</node>
	<node id="-8255" lat="59.1204361128" lon="5.6914611059">
		<tag k="name" v="Nordbø" />
		<tag k="place" v="farm" />
		<tag k="ssr:stedsnr" v="87425" />
	</node>
	<node id="-8254" lat="59.1270805571" lon="5.60606666927">
		<tag k="name" v="Voll" />
		<tag k="place" v="farm" />
		<tag k="ssr:stedsnr" v="87401" />
	</node>
	<node id="-8253" lat="59.1119250019" lon="5.70687778326">
		<tag k="name" v="Austbø" />
		<tag k="place" v="farm" />
		<tag k="ssr:stedsnr" v="87072" />
	</node>
	<node id="-8251" lat="59.097186111" lon="5.69738056183">
		<tag k="name" v="Håvastein" />
		<tag k="place" v="farm" />
		<tag k="ssr:stedsnr" v="86724" />
	</node>
	<node id="-8247" lat="58.9543166624" lon="5.69521666679">
		<tag k="leisure" v="pitch" />
		<tag k="name" v="Siddishallen" />
		<tag k="ssr:stedsnr" v="85244" />
	</node>
	<node id="-8238" lat="58.9631138871" lon="5.76526110883">
		<tag k="name" v="Egeland" />
		<tag k="place" v="quarter" />
		<tag k="ssr:stedsnr" v="84028" />
	</node>
	<node id="-8775" lat="59.2760250037" lon="5.87042499566">
		<tag k="alt_name" v="Venja" />
		<tag k="name" v="Venjaneset" />
		<tag k="place" v="farm" />
		<tag k="ssr:stedsnr" v="366620" />
	</node>
	<node id="-8234" lat="59.2636750025" lon="5.95505000442">
		<tag k="alt_name" v="Træ" />
		<tag k="name" v="Trædet" />
		<tag k="place" v="farm" />
		<tag k="ssr:stedsnr" v="63577" />
	</node>
	<node id="-8219" lat="59.0975394657" lon="5.69787874405">
		<tag k="name" v="Vikevåg" />
		<tag k="place" v="village" />
		<tag k="ssr:stedsnr" v="62848" />
	</node>
	<node id="-8730" lat="58.9606833288" lon="5.61936666053">
		<tag k="name" v="Malthaug" />
		<tag k="place" v="farm" />
		<tag k="ssr:stedsnr" v="365096" />
	</node>
	<node id="-9219" lat="59.2662000029" lon="5.83068610319">
		<tag k="alt_name" v="Nesstøl" />
		<tag k="name" v="Nesstølen" />
		<tag k="place" v="farm" />
		<tag k="ssr:stedsnr" v="645330" />
	</node>
	<node id="-8205" lat="59.1240361085" lon="5.7183027855">
		<tag k="name" v="Eltarvåg" />
		<tag k="place" v="farm" />
		<tag k="ssr:stedsnr" v="62367" />
	</node>
	<node id="-8199" lat="59.1094232394" lon="5.71354155094">
		<tag k="fixme" v="consider place=hamlet" />
		<tag k="name" v="Dalåker" />
		<tag k="place" v="farm" />
		<tag k="ssr:stedsnr" v="62300" />
	</node>
	<node id="-8198" lat="59.1135298193" lon="5.70456558248">
		<tag k="name" v="Austbø" />
		<tag k="place" v="farm" />
		<tag k="ssr:stedsnr" v="62298" />
	</node>
</osm>
