<?xml version="1.0" encoding="UTF-8"?>
<osm generator="osmapis" version="0.6">
	<node id="-394240" lat="59.013627683" lon="5.75884678991">
		<tag k="name" v="Langøyosen" />
		<tag k="natural" v="strait" />
		<tag k="ssr:stedsnr" v="344788" />
	</node>
	<node id="-394581" lat="58.9824972224" lon="5.82480278166">
		<tag k="name" v="Hellesøy" />
		<tag k="place" v="island" />
		<tag k="ssr:stedsnr" v="183105" />
	</node>
	<node id="-394745" lat="58.9902055536" lon="5.76873889572">
		<tag k="name" v="Kobbsteinen" />
		<tag k="natural" v="shoal" />
		<tag k="place" v="locality" />
		<tag k="ssr:stedsnr" v="510260" />
	</node>
	<node id="-394231" lat="58.9403388893" lon="5.66728054695">
		<tag k="name" v="Laberget" />
		<tag k="natural" v="cape" />
		<tag k="ssr:stedsnr" v="342953" />
	</node>
	<node id="-394409" lat="59.0079722244" lon="5.76666667228">
		<tag k="name" v="Langøy" />
		<tag k="place" v="island" />
		<tag k="ssr:stedsnr" v="1356" />
	</node>
	<node id="-394228" lat="58.911208332" lon="5.74380833054">
		<tag k="name" v="Blindskjær" />
		<tag k="place" v="islet" />
		<tag k="ssr:stedsnr" v="342798" />
	</node>
	<node id="-394226" lat="58.9615138935" lon="5.60713611652">
		<tag k="name" v="Spelemannsodden" />
		<tag k="natural" v="cape" />
		<tag k="ssr:stedsnr" v="342542" />
	</node>
	<node id="-394737" lat="58.9485388925" lon="5.62891944507">
		<tag k="alt_name" v="Vågen" />
		<tag k="name" v="Revheimsvågen" />
		<tag k="natural" v="bay" />
		<tag k="ssr:stedsnr" v="509147" />
	</node>
	<node id="-394735" lat="58.9247249992" lon="5.74875833029">
		<tag k="name" v="Vaulen badeplass" />
		<tag k="natural" v="beach" />
		<tag k="place" v="locality" />
		<tag k="ssr:stedsnr" v="509047" />
	</node>
	<node id="-394222" lat="58.9400777797" lon="5.75776388513">
		<tag k="fixme" v="consider seamark:type=rock or natural=shoal" />
		<tag k="name" v="Krågeskjeret" />
		<tag k="place" v="islet" />
		<tag k="ssr:stedsnr" v="329302" />
	</node>
	<node id="-394733" lat="58.9797694479" lon="5.75633889308">
		<tag k="bay" v="fjord" />
		<tag k="name" v="Pinå" />
		<tag k="natural" v="bay" />
		<tag k="ssr:stedsnr" v="509037" />
	</node>
	<node id="-394732" lat="58.9533722251" lon="5.75741388327">
		<tag k="alt_name" v="Tjuaskjæret" />
		<tag k="name" v="Tjuaskjeret" />
		<tag k="natural" v="cape" />
		<tag k="ssr:stedsnr" v="509022" />
	</node>
	<node id="-394729" lat="58.9330182521" lon="5.6411635191">
		<tag k="alt_name" v="Madla-Sandnes" />
		<tag k="name" v="Madlasandnes" />
		<tag k="natural" v="cape" />
		<tag k="ssr:stedsnr" v="486048" />
	</node>
	<node id="-394216" lat="58.9741859269" lon="5.74864573155">
		<tag k="name" v="Straumsteinsundet" />
		<tag k="natural" v="strait" />
		<tag k="ssr:stedsnr" v="327062" />
	</node>
	<node id="-394727" lat="58.9174388889" lon="5.73523889501">
		<tag k="name" v="Jåttåvågen" />
		<tag k="natural" v="bay" />
		<tag k="ssr:stedsnr" v="486013" />
	</node>
	<node id="-394214" lat="58.9884583354" lon="5.77006666159">
		<tag k="name" v="Rundeholmen" />
		<tag k="place" v="islet" />
		<tag k="ssr:stedsnr" v="327022" />
	</node>
	<node id="-394725" lat="58.9919638861" lon="5.80665833401">
		<tag k="name" v="Nordvika" />
		<tag k="natural" v="bay" />
		<tag k="ssr:stedsnr" v="480881" />
	</node>
	<node id="-394212" lat="59.0039250027" lon="5.75855000659">
		<tag k="name" v="Kistesundet" />
		<tag k="natural" v="strait" />
		<tag k="ssr:stedsnr" v="327012" />
	</node>
	<node id="-394208" lat="58.9880305532" lon="5.74074999365">
		<tag k="alt_name" v="Innre Vågeskjær" />
		<tag k="fixme" v="consider seamark:type=rock or natural=shoal" />
		<tag k="name" v="Indre Vågaskjer" />
		<tag k="old_name" v="Indre Vaageskjær" />
		<tag k="place" v="islet" />
		<tag k="ssr:stedsnr" v="101828" />
	</node>
	<node id="-394207" lat="59.0080611133" lon="5.80992499342">
		<tag k="alt_name" v="Revingsgrunnane" />
		<tag k="name" v="Revingsgrunnen" />
		<tag k="natural" v="shoal" />
		<tag k="place" v="locality" />
		<tag k="ssr:stedsnr" v="305971" />
	</node>
	<node id="-395107" lat="58.9725138875" lon="5.59738333758">
		<tag k="fixme" v="consider seamark:type=rock or natural=shoal" />
		<tag k="name" v="Laksaskjeret" />
		<tag k="place" v="islet" />
		<tag k="ssr:stedsnr" v="873375" />
	</node>
	<node id="-394204" lat="58.9909320672" lon="5.71170409097">
		<tag k="name" v="Ulsneset" />
		<tag k="natural" v="cape" />
		<tag k="ssr:stedsnr" v="304102" />
	</node>
	<node id="-394715" lat="58.9603555547" lon="5.76793333195">
		<tag k="name" v="Digranes" />
		<tag k="natural" v="cape" />
		<tag k="ssr:stedsnr" v="465213" />
	</node>
	<node id="-394201" lat="58.9777552709" lon="5.74279387906">
		<tag k="name" v="Sølyst" />
		<tag k="place" v="islet" />
		<tag k="ssr:stedsnr" v="304063" />
	</node>
	<node id="-394712" lat="58.9219611119" lon="5.64659721554">
		<tag k="fixme" v="consider seamark:type=rock or natural=shoal" />
		<tag k="name" v="Kjerringa" />
		<tag k="place" v="islet" />
		<tag k="ssr:stedsnr" v="464743" />
	</node>
	<node id="-394199" lat="58.9280305573" lon="5.64854999868">
		<tag k="alt_name" v="Hafrsfjorden" />
		<tag k="bay" v="fjord" />
		<tag k="name" v="Hafrsfjord" />
		<tag k="natural" v="bay" />
		<tag k="ssr:stedsnr" v="304018" />
	</node>
	<node id="-394198" lat="58.9831083317" lon="5.82370555207">
		<tag k="name" v="Søravika" />
		<tag k="natural" v="bay" />
		<tag k="ssr:stedsnr" v="298982" />
	</node>
	<node id="-394197" lat="58.994794443" lon="5.7783388852">
		<tag k="name" v="Søre Vassøygrunnen" />
		<tag k="natural" v="shoal" />
		<tag k="place" v="locality" />
		<tag k="ssr:stedsnr" v="298277" />
	</node>
	<node id="-394708" lat="58.9987388858" lon="5.76386110552">
		<tag k="name" v="Siriskjeret" />
		<tag k="place" v="islet" />
		<tag k="ssr:stedsnr" v="464226" />
	</node>
	<node id="-394707" lat="58.9721555597" lon="5.72856943961">
		<tag k="name" v="Vestre Havn" />
		<tag k="natural" v="bay" />
		<tag k="ssr:stedsnr" v="464101" />
	</node>
	<node id="-394706" lat="58.9346666712" lon="5.63571389119">
		<tag k="name" v="Nibbå" />
		<tag k="natural" v="cape" />
		<tag k="ssr:stedsnr" v="463961" />
	</node>
	<node id="-394704" lat="58.9390972192" lon="5.758480559">
		<tag k="name" v="Kråga" />
		<tag k="place" v="locality" />
		<tag k="seamark:type" v="rock" />
		<tag k="ssr:stedsnr" v="464721" />
	</node>
	<node id="-394703" lat="58.9903277823" lon="5.75566667088">
		<tag k="name" v="Dynene" />
		<tag k="natural" v="shoal" />
		<tag k="place" v="locality" />
		<tag k="ssr:stedsnr" v="450267" />
	</node>
	<node id="-394190" lat="58.9718519757" lon="5.78702345071">
		<tag k="fixme" v="consider seamark:type=rock or natural=shoal" />
		<tag k="name" v="Marøysteinen" />
		<tag k="place" v="islet" />
		<tag k="ssr:stedsnr" v="284798" />
	</node>
	<node id="-394573" lat="59.0146757349" lon="5.78615634827">
		<tag k="alt_name" v="Småskjærene" />
		<tag k="name" v="Småskjera" />
		<tag k="place" v="islet" />
		<tag k="ssr:stedsnr" v="173383" />
	</node>
	<node id="-394188" lat="59.0380999988" lon="5.76338611005">
		<tag k="name" v="Galten" />
		<tag k="place" v="locality" />
		<tag k="seamark:type" v="rock" />
		<tag k="ssr:stedsnr" v="284803" />
	</node>
	<node id="-394694" lat="58.982605558" lon="5.71236111595">
		<tag k="alt_name" v="Kalhammarvigå;Kalhamarvika" />
		<tag k="name" v="Kalhammarvika" />
		<tag k="natural" v="bay" />
		<tag k="old_name" v="Kalhammervigen" />
		<tag k="ssr:stedsnr" v="449152" />
	</node>
	<node id="-394180" lat="58.9830055567" lon="5.71413611034">
		<tag k="name" v="Kalhammarodden" />
		<tag k="natural" v="cape" />
		<tag k="ssr:stedsnr" v="283177" />
	</node>
	<node id="-394179" lat="58.9813666702" lon="5.74272222968">
		<tag k="name" v="Engøyholmen" />
		<tag k="old_name" v="Engøholmen" />
		<tag k="place" v="islet" />
		<tag k="ssr:stedsnr" v="283013" />
	</node>
	<node id="-394690" lat="58.9843194428" lon="5.72313888287">
		<tag k="fixme" v="consider seamark:type=rock or natural=shoal" />
		<tag k="name" v="Kattaskjeret" />
		<tag k="old_name" v="Katteskjæret" />
		<tag k="place" v="islet" />
		<tag k="ssr:stedsnr" v="449032" />
	</node>
	<node id="-394689" lat="58.9769055589" lon="5.74553056242">
		<tag k="name" v="Grasholmsundet" />
		<tag k="natural" v="strait" />
		<tag k="old_name" v="Græsholmsundet" />
		<tag k="ssr:stedsnr" v="449027" />
	</node>
	<node id="-394687" lat="58.9642444483" lon="5.76797223027">
		<tag k="alt_name" v="Breidvika;Breivig" />
		<tag k="name" v="Breivik" />
		<tag k="natural" v="bay" />
		<tag k="ssr:stedsnr" v="449013" />
	</node>
	<node id="-394686" lat="58.9880027785" lon="5.76596666305">
		<tag k="alt_name" v="Litleholmen" />
		<tag k="name" v="Ormøyholmen" />
		<tag k="place" v="islet" />
		<tag k="ssr:stedsnr" v="449009" />
	</node>
	<node id="-394685" lat="58.9885984459" lon="5.82878572758">
		<tag k="alt_name" v="Hedlesøykalven;Kalven" />
		<tag k="name" v="Hellesøykalven" />
		<tag k="place" v="islet" />
		<tag k="ssr:stedsnr" v="447092" />
	</node>
	<node id="-395196" lat="59.0403934583" lon="5.73394495578">
		<tag k="name" v="Åmøy" />
		<tag k="place" v="island" />
		<tag k="ssr:stedsnr" v="972996" />
	</node>
	<node id="-394683" lat="59.0080111093" lon="5.71924443989">
		<tag k="alt_name" v="Kråkeneset" />
		<tag k="name" v="Kråkenes" />
		<tag k="natural" v="cape" />
		<tag k="ssr:stedsnr" v="426786" />
	</node>
	<node id="-394682" lat="59.0285805584" lon="5.75178054963">
		<tag k="alt_name" v="Storholmen, l" />
		<tag k="name" v="Litle Storholmen" />
		<tag k="place" v="islet" />
		<tag k="ssr:stedsnr" v="426776" />
	</node>
	<node id="-394681" lat="58.9654141838" lon="5.78709689175">
		<tag k="name" v="Litla Marøya" />
		<tag k="place" v="islet" />
		<tag k="ssr:stedsnr" v="426097" />
	</node>
	<node id="-394168" lat="59.0073916702" lon="5.73050278436">
		<tag k="name" v="Kubholmen" />
		<tag k="place" v="islet" />
		<tag k="ssr:stedsnr" v="282751" />
	</node>
	<node id="-394677" lat="58.9749432959" lon="5.81961465714">
		<tag k="name" v="Bukkholmen" />
		<tag k="place" v="islet" />
		<tag k="ssr:stedsnr" v="426081" />
	</node>
	<node id="-394162" lat="58.9819111156" lon="5.74695278291">
		<tag k="name" v="Engøysnagvika" />
		<tag k="natural" v="bay" />
		<tag k="ssr:stedsnr" v="282204" />
	</node>
	<node id="-394671" lat="58.9121527747" lon="5.75270277707">
		<tag k="name" v="Gauselgrunnen" />
		<tag k="natural" v="shoal" />
		<tag k="place" v="locality" />
		<tag k="ssr:stedsnr" v="422154" />
	</node>
	<node id="-394670" lat="59.0098777757" lon="5.76398334125">
		<tag k="name" v="Oterudneset" />
		<tag k="natural" v="cape" />
		<tag k="ssr:stedsnr" v="419249" />
	</node>
	<node id="-394669" lat="58.9619805575" lon="5.59859722132">
		<tag k="name" v="Hammaren" />
		<tag k="natural" v="cape" />
		<tag k="ssr:stedsnr" v="417077" />
	</node>
	<node id="-394668" lat="59.0418500006" lon="5.72555556235">
		<tag k="name" v="Vestre straen" />
		<tag k="natural" v="beach" />
		<tag k="place" v="locality" />
		<tag k="ssr:stedsnr" v="416415" />
	</node>
	<node id="-394661" lat="58.9210861074" lon="5.73808056444">
		<tag k="name" v="Hinnavågen" />
		<tag k="natural" v="bay" />
		<tag k="ssr:stedsnr" v="266048" />
	</node>
	<node id="-394660" lat="58.9664333301" lon="5.76132222017">
		<tag k="alt_name" v="Lervika" />
		<tag k="name" v="Lervig" />
		<tag k="natural" v="bay" />
		<tag k="ssr:stedsnr" v="266023" />
	</node>
	<node id="-394658" lat="58.9650305569" lon="5.76847499617">
		<tag k="name" v="Dreyersholmane" />
		<tag k="natural" v="cape" />
		<tag k="ssr:stedsnr" v="266016" />
	</node>
	<node id="-394657" lat="58.9801055576" lon="5.80504166702">
		<tag k="fixme" v="consider seamark:type=rock or natural=shoal" />
		<tag k="name" v="Raudsteinskjera" />
		<tag k="place" v="islet" />
		<tag k="ssr:stedsnr" v="266014" />
	</node>
	<node id="-394656" lat="59.0092416678" lon="5.73439999862">
		<tag k="name" v="Kuneset" />
		<tag k="natural" v="cape" />
		<tag k="ssr:stedsnr" v="266011" />
	</node>
	<node id="-394655" lat="59.0081607265" lon="5.75213903237">
		<tag k="alt_name" v="nordra Bekkjavik" />
		<tag k="name" v="Nordra Bekkjavika" />
		<tag k="natural" v="bay" />
		<tag k="ssr:stedsnr" v="266003" />
	</node>
	<node id="-395163" lat="58.989299999" lon="5.78759443829">
		<tag k="alt_name" v="Søndre Vassøytåna" />
		<tag k="name" v="Søre Vassøytåna" />
		<tag k="natural" v="cape" />
		<tag k="ssr:stedsnr" v="966888" />
	</node>
	<node id="-395162" lat="58.9520042726" lon="5.7531309604">
		<tag k="name" v="Straumvika" />
		<tag k="natural" v="bay" />
		<tag k="ssr:stedsnr" v="966236" />
	</node>
	<node id="-394647" lat="58.985761115" lon="5.73166388122">
		<tag k="name" v="Buøy" />
		<tag k="old_name" v="Buøen" />
		<tag k="place" v="island" />
		<tag k="ssr:stedsnr" v="243115" />
	</node>
	<node id="-395158" lat="58.9976877809" lon="5.66981596906">
		<tag k="name" v="Sothammaren" />
		<tag k="natural" v="cape" />
		<tag k="ssr:stedsnr" v="952814" />
	</node>
	<node id="-395156" lat="58.9864944432" lon="5.74363054837">
		<tag k="alt_name" v="Ytre Vågeskjær" />
		<tag k="fixme" v="consider seamark:type=rock or natural=shoal" />
		<tag k="name" v="Ytre Vågaskjer" />
		<tag k="old_name" v="Ydre Vaageskjær" />
		<tag k="place" v="islet" />
		<tag k="ssr:stedsnr" v="951834" />
	</node>
	<node id="-394642" lat="58.9108777739" lon="5.73497778433">
		<tag k="name" v="Boganesstraen" />
		<tag k="natural" v="beach" />
		<tag k="place" v="locality" />
		<tag k="ssr:stedsnr" v="240176" />
	</node>
	<node id="-395151" lat="58.972725003" lon="5.75443332986">
		<tag k="name" v="Mølleneset" />
		<tag k="natural" v="cape" />
		<tag k="ssr:stedsnr" v="950217" />
	</node>
	<node id="-394638" lat="59.028752781" lon="5.76302777169">
		<tag k="fixme" v="multiple name tags, choose one and add the other to alt_name; consider seamark:type=rock or natural=shoal" />
		<tag k="name" v="Kuppholmskjeret;Høvringskjeret" />
		<tag k="place" v="islet" />
		<tag k="ssr:stedsnr" v="235413" />
	</node>
	<node id="-394221" lat="58.9522944429" lon="5.75141388302">
		<tag k="name" v="Hillevågsneset" />
		<tag k="natural" v="cape" />
		<tag k="ssr:stedsnr" v="329298" />
	</node>
	<node id="-395144" lat="58.9617722202" lon="5.7688777775">
		<tag k="name" v="Wyllerodden" />
		<tag k="natural" v="cape" />
		<tag k="ssr:stedsnr" v="949192" />
	</node>
	<node id="-395142" lat="58.9443611125" lon="5.6314527845">
		<tag k="name" v="Klakk" />
		<tag k="natural" v="cape" />
		<tag k="ssr:stedsnr" v="934309" />
	</node>
	<node id="-395134" lat="59.0109388912" lon="5.76864443741">
		<tag k="name" v="Nordsjøvika" />
		<tag k="natural" v="bay" />
		<tag k="ssr:stedsnr" v="934011" />
	</node>
	<node id="-394621" lat="58.9802416633" lon="5.73339166416">
		<tag k="name" v="Pyntenesgrunnen" />
		<tag k="natural" v="shoal" />
		<tag k="place" v="locality" />
		<tag k="ssr:stedsnr" v="222155" />
	</node>
	<node id="-395130" lat="59.001683335" lon="5.78201389353">
		<tag k="name" v="Auraneset" />
		<tag k="natural" v="cape" />
		<tag k="ssr:stedsnr" v="912979" />
	</node>
	<node id="-395129" lat="59.0043694401" lon="5.75432777316">
		<tag k="alt_name" v="Kistenes" />
		<tag k="loc_name" v="Lundsneset" />
		<tag k="name" v="Kisteneset" />
		<tag k="natural" v="cape" />
		<tag k="ssr:stedsnr" v="912975" />
	</node>
	<node id="-395128" lat="59.0019749992" lon="5.75936111267">
		<tag k="alt_name" v="Svartaskjeret;Svarteskjær" />
		<tag k="fixme" v="consider seamark:type=rock or natural=shoal" />
		<tag k="name" v="Svartaskjer" />
		<tag k="place" v="islet" />
		<tag k="ssr:stedsnr" v="912976" />
	</node>
	<node id="-395126" lat="58.9048774771" lon="5.74862988632">
		<tag k="name" v="Gauselholmen" />
		<tag k="place" v="islet" />
		<tag k="ssr:stedsnr" v="911952" />
	</node>
	<node id="-395124" lat="59.011233331" lon="5.75216389453">
		<tag k="alt_name" v="Sandnes" />
		<tag k="loc_name" v="Lundssandneset" />
		<tag k="name" v="Sandneset" />
		<tag k="natural" v="cape" />
		<tag k="ssr:stedsnr" v="911371" />
	</node>
	<node id="-394472" lat="58.9791583299" lon="5.73773333607">
		<tag k="alt_name" v="Klasaskjæret" />
		<tag k="fixme" v="consider seamark:type=rock or natural=shoal" />
		<tag k="name" v="Klasaskjeret" />
		<tag k="old_name" v="Claseskjæret" />
		<tag k="place" v="islet" />
		<tag k="ssr:stedsnr" v="84058" />
	</node>
	<node id="-394605" lat="58.9807361079" lon="5.84347222576">
		<tag k="name" v="Rosmatangen" />
		<tag k="natural" v="cape" />
		<tag k="ssr:stedsnr" v="207276" />
	</node>
	<node id="-395116" lat="59.0104833302" lon="5.77563611352">
		<tag k="name" v="Klubbavågen" />
		<tag k="natural" v="bay" />
		<tag k="ssr:stedsnr" v="905235" />
	</node>
	<node id="-395154" lat="58.989538887" lon="5.77120278189">
		<tag k="fixme" v="consider seamark:type=rock or natural=shoal" />
		<tag k="name" v="Kobbsteinen" />
		<tag k="place" v="islet" />
		<tag k="ssr:stedsnr" v="951764" />
	</node>
	<node id="-395114" lat="59.0203888912" lon="5.77611945237">
		<tag k="alt_name" v="Raudn;Raun" />
		<tag k="name" v="Raunen" />
		<tag k="natural" v="cape" />
		<tag k="ssr:stedsnr" v="902465" />
	</node>
	<node id="-395110" lat="58.9911555575" lon="5.82524445007">
		<tag k="name" v="Skarvaskjergrunnen" />
		<tag k="natural" v="shoal" />
		<tag k="place" v="locality" />
		<tag k="ssr:stedsnr" v="874285" />
	</node>
	<node id="-394597" lat="58.9756527796" lon="5.74708889659">
		<tag k="name" v="Grasholmen" />
		<tag k="old_name" v="Græsholmen" />
		<tag k="place" v="islet" />
		<tag k="ssr:stedsnr" v="206675" />
	</node>
	<node id="-394596" lat="58.9716797673" lon="5.7446468549">
		<tag k="alt_name" v="Banavigå" />
		<tag k="name" v="Banavika" />
		<tag k="natural" v="bay" />
		<tag k="old_name" v="Banevigen" />
		<tag k="ssr:stedsnr" v="206063" />
	</node>
	<node id="-394595" lat="58.971019448" lon="5.75554999254">
		<tag k="alt_name" v="Spilderhaugvigå" />
		<tag k="name" v="Spilderhaugvika" />
		<tag k="natural" v="bay" />
		<tag k="old_name" v="Spilderhaugvigen" />
		<tag k="ssr:stedsnr" v="206061" />
	</node>
	<node id="-394594" lat="58.9819888881" lon="5.72147777138">
		<tag k="alt_name" v="Tjuholmen" />
		<tag k="name" v="Tjuvholmen" />
		<tag k="old_name" v="Tyveholmen" />
		<tag k="place" v="islet" />
		<tag k="ssr:stedsnr" v="206060" />
	</node>
	<node id="-394592" lat="58.9722472198" lon="5.72802778508">
		<tag k="name" v="Vågen" />
		<tag k="natural" v="bay" />
		<tag k="old_name" v="Vaagen" />
		<tag k="ssr:stedsnr" v="206042" />
	</node>
	<node id="-394591" lat="58.9754888898" lon="5.72424999201">
		<tag k="alt_name" v="Sandvika" />
		<tag k="name" v="Sandvigå" />
		<tag k="natural" v="bay" />
		<tag k="ssr:stedsnr" v="206040" />
	</node>
	<node id="-395101" lat="58.9873000011" lon="5.74496388414">
		<tag k="alt_name" v="Jadarholmen" />
		<tag k="name" v="Jadarholm" />
		<tag k="natural" v="cape" />
		<tag k="ssr:stedsnr" v="873053" />
	</node>
	<node id="-394587" lat="58.9986666625" lon="5.70791111177">
		<tag k="fixme" v="consider seamark:type=rock or natural=shoal" />
		<tag k="name" v="Maraskjeret" />
		<tag k="place" v="islet" />
		<tag k="ssr:stedsnr" v="206164" />
	</node>
	<node id="-395098" lat="58.9832194426" lon="5.7476388955">
		<tag k="name" v="Porsvika" />
		<tag k="natural" v="bay" />
		<tag k="ssr:stedsnr" v="873017" />
	</node>
	<node id="-394585" lat="59.0062916666" lon="5.71513889567">
		<tag k="alt_name" v="Saltneset" />
		<tag k="name" v="Saltnes" />
		<tag k="natural" v="cape" />
		<tag k="ssr:stedsnr" v="184762" />
	</node>
	<node id="-394584" lat="59.0026638918" lon="5.74626388487">
		<tag k="alt_name" v="Lundevågen" />
		<tag k="name" v="Lundsvågen" />
		<tag k="natural" v="bay" />
		<tag k="ssr:stedsnr" v="184756" />
	</node>
	<node id="-394583" lat="59.0494001112" lon="5.74152034293">
		<tag k="alt_name" v="Rosnesvika" />
		<tag k="name" v="Rossnesvika" />
		<tag k="natural" v="bay" />
		<tag k="ssr:stedsnr" v="183802" />
	</node>
	<node id="-395094" lat="59.0040694416" lon="5.81719166195">
		<tag k="bay" v="fjord" />
		<tag k="name" v="Vassøyosen" />
		<tag k="natural" v="bay" />
		<tag k="ssr:stedsnr" v="851980" />
	</node>
	<node id="-395093" lat="59.0066801055" lon="5.75391641635">
		<tag k="alt_name" v="Bekkavik;Bekkjavik" />
		<tag k="name" v="Bekkjavika" />
		<tag k="natural" v="bay" />
		<tag k="ssr:stedsnr" v="851768" />
	</node>
	<node id="-395091" lat="59.0067833295" lon="5.73381667333">
		<tag k="name" v="Sandvågen" />
		<tag k="natural" v="bay" />
		<tag k="ssr:stedsnr" v="851764" />
	</node>
	<node id="-395087" lat="58.9856090685" lon="5.75453032918">
		<tag k="name" v="Steinsøy" />
		<tag k="place" v="islet" />
		<tag k="ssr:stedsnr" v="850124" />
	</node>
	<node id="-394574" lat="59.0243527773" lon="5.77790833197">
		<tag k="alt_name" v="Oddaskjeret" />
		<tag k="name" v="Oddaholmen" />
		<tag k="place" v="islet" />
		<tag k="ssr:stedsnr" v="173412" />
	</node>
	<node id="-395085" lat="58.9829404692" lon="5.81388088369">
		<tag k="name" v="Tunsøya" />
		<tag k="place" v="islet" />
		<tag k="ssr:stedsnr" v="850065" />
	</node>
	<node id="-395084" lat="58.9140388935" lon="5.74124722682">
		<tag k="alt_name" v="Boganes" />
		<tag k="name" v="Boganeset" />
		<tag k="natural" v="cape" />
		<tag k="ssr:stedsnr" v="850013" />
	</node>
	<node id="-394466" lat="59.0432861087" lon="5.75063889134">
		<tag k="name" v="Austre Åmøy" />
		<tag k="place" v="island" />
		<tag k="ssr:stedsnr" v="62807" />
	</node>
	<node id="-395080" lat="59.0142694411" lon="5.77071388903">
		<tag k="fixme" v="consider seamark:type=rock or natural=shoal" />
		<tag k="name" v="Grasskjera" />
		<tag k="place" v="islet" />
		<tag k="ssr:stedsnr" v="844238" />
	</node>
	<node id="-395079" lat="59.0125222261" lon="5.77316110743">
		<tag k="name" v="Klubben" />
		<tag k="natural" v="cape" />
		<tag k="ssr:stedsnr" v="844233" />
	</node>
	<node id="-395078" lat="59.0345166626" lon="5.74588611539">
		<tag k="name" v="Vågholmskjeret" />
		<tag k="place" v="islet" />
		<tag k="ssr:stedsnr" v="842408" />
	</node>
	<node id="-394465" lat="59.0194000029" lon="5.77014999721">
		<tag k="alt_name" v="Sandøyvågen, nordre" />
		<tag k="name" v="Nordre Sandøyvågen" />
		<tag k="natural" v="bay" />
		<tag k="ssr:stedsnr" v="62775" />
	</node>
	<node id="-394266" lat="58.980630552" lon="5.84365555492">
		<tag k="name" v="Rasmatangen" />
		<tag k="natural" v="cape" />
		<tag k="ssr:stedsnr" v="386101" />
	</node>
	<node id="-394563" lat="59.0405277781" lon="5.76959166825">
		<tag k="name" v="Lundestranda" />
		<tag k="natural" v="beach" />
		<tag k="place" v="locality" />
		<tag k="ssr:stedsnr" v="163284" />
	</node>
	<node id="-394561" lat="58.9893749994" lon="5.71962222336">
		<tag k="alt_name" v="Ringskjæret;Ringskjeret" />
		<tag k="fixme" v="consider seamark:type=rock or natural=shoal" />
		<tag k="name" v="Ringaskjeret" />
		<tag k="place" v="islet" />
		<tag k="ssr:stedsnr" v="162824" />
	</node>
	<node id="-395071" lat="58.9795256697" lon="5.72991754252">
		<tag k="fixme" v="consider seamark:type=rock or natural=shoal" />
		<tag k="name" v="Majorskjeret" />
		<tag k="place" v="islet" />
		<tag k="ssr:stedsnr" v="829173" />
	</node>
	<node id="-395070" lat="58.9826055519" lon="5.73376110736">
		<tag k="name" v="Kvitavika" />
		<tag k="natural" v="bay" />
		<tag k="old_name" v="Hvidevigen" />
		<tag k="ssr:stedsnr" v="829160" />
	</node>
	<node id="-395064" lat="58.9263583319" lon="5.75181944383">
		<tag k="name" v="Kuholmen" />
		<tag k="natural" v="cape" />
		<tag k="ssr:stedsnr" v="828691" />
	</node>
	<node id="-394846" lat="58.9928756467" lon="5.76352742739">
		<tag k="name" v="Roaldsøy" />
		<tag k="place" v="island" />
		<tag k="ssr:stedsnr" v="607113" />
	</node>
	<node id="-394544" lat="58.9760805602" lon="5.82255833906">
		<tag k="fixme" v="consider seamark:type=rock or natural=shoal" />
		<tag k="name" v="Blomsterholmen" />
		<tag k="place" v="islet" />
		<tag k="ssr:stedsnr" v="160140" />
	</node>
	<node id="-394543" lat="58.9528660268" lon="5.7742743349">
		<tag k="name" v="Gandsflua" />
		<tag k="place" v="locality" />
		<tag k="seamark:type" v="rock" />
		<tag k="ssr:stedsnr" v="146261" />
	</node>
	<node id="-394542" lat="58.971769441" lon="5.80440277295">
		<tag k="name" v="Fladaskjergrunnen" />
		<tag k="natural" v="shoal" />
		<tag k="place" v="locality" />
		<tag k="ssr:stedsnr" v="146257" />
	</node>
	<node id="-394540" lat="58.9408666686" lon="5.66965832473">
		<tag k="name" v="Møllebukta" />
		<tag k="natural" v="bay" />
		<tag k="ssr:stedsnr" v="145323" />
	</node>
	<node id="-394261" lat="59.0356288144" lon="5.74964345119">
		<tag k="alt_name" v="Litlevågen" />
		<tag k="name" v="Litlevåg" />
		<tag k="natural" v="bay" />
		<tag k="ssr:stedsnr" v="365776" />
	</node>
	<node id="-395048" lat="58.9821083371" lon="5.73415277531">
		<tag k="alt_name" v="Knudsaskjæret;Knudaskjæret" />
		<tag k="fixme" v="consider seamark:type=rock or natural=shoal" />
		<tag k="loc_name" v="Knudsaskjeret" />
		<tag k="name" v="Knudaskjeret" />
		<tag k="old_name" v="Knudseskjæret" />
		<tag k="place" v="islet" />
		<tag k="ssr:stedsnr" v="813038" />
	</node>
	<node id="-394535" lat="58.9033694469" lon="5.74548610987">
		<tag k="name" v="Sandholmen" />
		<tag k="place" v="islet" />
		<tag k="ssr:stedsnr" v="145205" />
	</node>
	<node id="-394534" lat="58.893866669" lon="5.75174444158">
		<tag k="name" v="Fiskaneset" />
		<tag k="natural" v="cape" />
		<tag k="ssr:stedsnr" v="145206" />
	</node>
	<node id="-395044" lat="59.0000333338" lon="5.76630833477">
		<tag k="name" v="Langøysundet" />
		<tag k="natural" v="strait" />
		<tag k="ssr:stedsnr" v="813009" />
	</node>
	<node id="-395043" lat="58.9988194408" lon="5.74808611439">
		<tag k="alt_name" v="Tømmervik" />
		<tag k="name" v="Tømmervika" />
		<tag k="natural" v="bay" />
		<tag k="ssr:stedsnr" v="813007" />
	</node>
	<node id="-395042" lat="58.9635805532" lon="5.780455561">
		<tag k="alt_name" v="Klovningskjærene;Klovneskjeret" />
		<tag k="fixme" v="consider seamark:type=rock or natural=shoal" />
		<tag k="name" v="Klovnaskjer" />
		<tag k="place" v="islet" />
		<tag k="ssr:stedsnr" v="813005" />
	</node>
	<node id="-394203" lat="58.9600830873" lon="5.78380064686">
		<tag k="name" v="Stora Marøya" />
		<tag k="place" v="islet" />
		<tag k="ssr:stedsnr" v="304082" />
	</node>
	<node id="-394528" lat="58.9768611115" lon="5.73553054837">
		<tag k="alt_name" v="Natvigs Minne" />
		<tag k="name" v="Natvigs minne" />
		<tag k="old_name" v="Natvigs Minde;Litle Plentingen" />
		<tag k="place" v="islet" />
		<tag k="ssr:stedsnr" v="145032" />
	</node>
	<node id="-395039" lat="58.9760074041" lon="5.60921290887">
		<tag k="loc_name" v="Kvernevika" />
		<tag k="name" v="Kvernaviga" />
		<tag k="natural" v="bay" />
		<tag k="ssr:stedsnr" v="789120" />
	</node>
	<node id="-394524" lat="59.0041944475" lon="5.78409722654">
		<tag k="name" v="Vassøysundet" />
		<tag k="natural" v="strait" />
		<tag k="ssr:stedsnr" v="145011" />
	</node>
	<node id="-394523" lat="59.0016611103" lon="5.70975833157">
		<tag k="name" v="Dragsholmen" />
		<tag k="natural" v="cape" />
		<tag k="ssr:stedsnr" v="123790" />
	</node>
	<node id="-394522" lat="59.0487861131" lon="5.77452500363">
		<tag k="name" v="Fuglaneset" />
		<tag k="natural" v="cape" />
		<tag k="ssr:stedsnr" v="122786" />
	</node>
	<node id="-394520" lat="58.9871257144" lon="5.7689468042">
		<tag k="name" v="Midtholmen" />
		<tag k="place" v="islet" />
		<tag k="ssr:stedsnr" v="122109" />
	</node>
	<node id="-395031" lat="58.986488887" lon="5.75782221945">
		<tag k="name" v="Steinsøyosen" />
		<tag k="natural" v="strait" />
		<tag k="ssr:stedsnr" v="783328" />
	</node>
	<node id="-395030" lat="58.9981777741" lon="5.78140277592">
		<tag k="name" v="Jonevika" />
		<tag k="natural" v="bay" />
		<tag k="ssr:stedsnr" v="783216" />
	</node>
	<node id="-394515" lat="58.9897333338" lon="5.81278610565">
		<tag k="name" v="Sørvika" />
		<tag k="natural" v="bay" />
		<tag k="ssr:stedsnr" v="116864" />
	</node>
	<node id="-394514" lat="58.9870444446" lon="5.71420277355">
		<tag k="name" v="Ulsnesgrunnen" />
		<tag k="natural" v="shoal" />
		<tag k="place" v="locality" />
		<tag k="ssr:stedsnr" v="116315" />
	</node>
	<node id="-394513" lat="58.9879972264" lon="5.82729443588">
		<tag k="name" v="Kalvasundet" />
		<tag k="natural" v="strait" />
		<tag k="ssr:stedsnr" v="116988" />
	</node>
	<node id="-395018" lat="58.9436916685" lon="5.75387500322">
		<tag k="name" v="Kvalaberget" />
		<tag k="natural" v="cape" />
		<tag k="ssr:stedsnr" v="769696" />
	</node>
	<node id="-394503" lat="58.9620519259" lon="5.76890907239">
		<tag k="name" v="Pannevikodden" />
		<tag k="natural" v="cape" />
		<tag k="ssr:stedsnr" v="106186" />
	</node>
	<node id="-394502" lat="58.9794761369" lon="5.728707775">
		<tag k="name" v="Majorgrunnen" />
		<tag k="natural" v="shoal" />
		<tag k="place" v="locality" />
		<tag k="ssr:stedsnr" v="102850" />
	</node>
	<node id="-395013" lat="58.9806555562" lon="5.73848888799">
		<tag k="name" v="Eilertvika" />
		<tag k="natural" v="bay" />
		<tag k="ssr:stedsnr" v="768167" />
	</node>
	<node id="-394500" lat="59.0201361097" lon="5.76636389506">
		<tag k="name" v="Sandøyvarden" />
		<tag k="natural" v="cape" />
		<tag k="ssr:stedsnr" v="102794" />
	</node>
	<node id="-394454" lat="58.9946083309" lon="5.70947500786">
		<tag k="name" v="Ulsnesvika" />
		<tag k="natural" v="bay" />
		<tag k="ssr:stedsnr" v="55318" />
	</node>
	<node id="-394496" lat="58.9395472187" lon="5.66313055513">
		<tag k="alt_name" v="Teglverket" />
		<tag k="name" v="Verket" />
		<tag k="natural" v="cape" />
		<tag k="ssr:stedsnr" v="100971" />
	</node>
	<node id="-395006" lat="58.9131583367" lon="5.74590000221">
		<tag k="name" v="Nebbå" />
		<tag k="natural" v="cape" />
		<tag k="ssr:stedsnr" v="767851" />
	</node>
	<node id="-394491" lat="58.9788555583" lon="5.74264445149">
		<tag k="alt_name" v="Nordvigå" />
		<tag k="name" v="Nordvika" />
		<tag k="natural" v="bay" />
		<tag k="old_name" v="Nordalsbugten" />
		<tag k="ssr:stedsnr" v="100783" />
	</node>
	<node id="-395001" lat="59.0293194437" lon="5.75153888947">
		<tag k="alt_name" v="Spovholmene" />
		<tag k="name" v="Storholmane" />
		<tag k="place" v="islet" />
		<tag k="ssr:stedsnr" v="767212" />
	</node>
	<node id="-395000" lat="58.9767525425" lon="5.85055847227">
		<tag k="name" v="Djupaflua" />
		<tag k="place" v="locality" />
		<tag k="seamark:type" v="rock" />
		<tag k="ssr:stedsnr" v="753236" />
	</node>
	<node id="-394196" lat="59.006619445" lon="5.77712777956">
		<tag k="name" v="Davidsgrunnen" />
		<tag k="natural" v="shoal" />
		<tag k="place" v="locality" />
		<tag k="ssr:stedsnr" v="298233" />
	</node>
	<node id="-394485" lat="58.9608083293" lon="5.60767499608">
		<tag k="name" v="Donevika" />
		<tag k="natural" v="bay" />
		<tag k="ssr:stedsnr" v="99936" />
	</node>
	<node id="-394484" lat="58.9858611146" lon="5.81093333664">
		<tag k="name" v="Lindøygrunnen" />
		<tag k="natural" v="shoal" />
		<tag k="place" v="locality" />
		<tag k="ssr:stedsnr" v="86298" />
	</node>
	<node id="-394622" lat="58.9737390444" lon="5.7481659892">
		<tag k="name" v="Feiagrunnen" />
		<tag k="natural" v="shoal" />
		<tag k="place" v="locality" />
		<tag k="ssr:stedsnr" v="222175" />
	</node>
	<node id="-394481" lat="58.9660500004" lon="5.59642221711">
		<tag k="alt_name" v="Kjøpenhamnbukta" />
		<tag k="name" v="Kjøbenhavnbukta" />
		<tag k="natural" v="bay" />
		<tag k="ssr:stedsnr" v="84382" />
	</node>
	<node id="-394213" lat="58.9906166701" lon="5.76169167243">
		<tag k="name" v="Ormøysundet" />
		<tag k="natural" v="strait" />
		<tag k="ssr:stedsnr" v="327020" />
	</node>
	<node id="-394987" lat="58.9871194428" lon="5.75027777235">
		<tag k="name" v="Steinsøyholmen" />
		<tag k="place" v="islet" />
		<tag k="ssr:stedsnr" v="752045" />
	</node>
	<node id="-394986" lat="58.9769916672" lon="5.73326111048">
		<tag k="name" v="Plentingen" />
		<tag k="old_name" v="Plæntingen" />
		<tag k="place" v="islet" />
		<tag k="ssr:stedsnr" v="752037" />
	</node>
	<node id="-394473" lat="58.9194027742" lon="5.73568611009">
		<tag k="name" v="Nautholmen" />
		<tag k="natural" v="cape" />
		<tag k="ssr:stedsnr" v="84067" />
	</node>
	<node id="-394984" lat="58.9950027813" lon="5.75937222844">
		<tag k="name" v="Skadesundet" />
		<tag k="natural" v="strait" />
		<tag k="ssr:stedsnr" v="752013" />
	</node>
	<node id="-394471" lat="58.9736638888" lon="5.73347778577">
		<tag k="alt_name" v="Børevigå" />
		<tag k="name" v="Børevika" />
		<tag k="natural" v="bay" />
		<tag k="old_name" v="Børrevigen" />
		<tag k="ssr:stedsnr" v="84045" />
	</node>
	<node id="-394981" lat="59.0066918086" lon="5.71857160218">
		<tag k="alt_name" v="Skjeisvik" />
		<tag k="name" v="Skeisvika" />
		<tag k="natural" v="bay" />
		<tag k="ssr:stedsnr" v="730810" />
	</node>
	<node id="-394980" lat="59.0442305562" lon="5.77566388102">
		<tag k="name" v="Fuglevika" />
		<tag k="natural" v="bay" />
		<tag k="ssr:stedsnr" v="729807" />
	</node>
	<node id="-394467" lat="59.0094722201" lon="5.78394444072">
		<tag k="alt_name" v="Lindøy, l;Litle Lindøy;Litla Lindøy" />
		<tag k="name" v="Lindholmen" />
		<tag k="place" v="islet" />
		<tag k="ssr:stedsnr" v="62976" />
	</node>
	<node id="-394978" lat="59.0347305553" lon="5.74940554896">
		<tag k="name" v="Vågholmen" />
		<tag k="place" v="islet" />
		<tag k="ssr:stedsnr" v="729777" />
	</node>
	<node id="-394977" lat="58.9859333329" lon="5.77039167415">
		<tag k="alt_name" v="Kupholmen;Kobbholmen" />
		<tag k="name" v="Kuppholmen" />
		<tag k="place" v="islet" />
		<tag k="ssr:stedsnr" v="729124" />
	</node>
	<node id="-394464" lat="59.0016722181" lon="5.73178888647">
		<tag k="name" v="Hundvåg" />
		<tag k="old_name" v="Hundvaag" />
		<tag k="place" v="island" />
		<tag k="ssr:stedsnr" v="62772" />
	</node>
	<node id="-394463" lat="58.9985194473" lon="5.78518054997">
		<tag k="name" v="Vassøy" />
		<tag k="place" v="island" />
		<tag k="ssr:stedsnr" v="61101" />
	</node>
	<node id="-394974" lat="58.9973169601" lon="5.75708311358">
		<tag k="name" v="Bjørnøy" />
		<tag k="place" v="islet" />
		<tag k="ssr:stedsnr" v="729112" />
	</node>
	<node id="-394459" lat="58.9830222196" lon="5.83553333599">
		<tag k="name" v="Kalvøysundet" />
		<tag k="natural" v="strait" />
		<tag k="ssr:stedsnr" v="61061" />
	</node>
	<node id="-394468" lat="59.005433334" lon="5.78244166581">
		<tag k="name" v="Davidsholmen" />
		<tag k="place" v="islet" />
		<tag k="ssr:stedsnr" v="62977" />
	</node>
	<node id="-394967" lat="58.9900472179" lon="5.75165277477">
		<tag k="name" v="Klampen" />
		<tag k="natural" v="cape" />
		<tag k="ssr:stedsnr" v="722348" />
	</node>
	<node id="-394966" lat="59.0058277738" lon="5.73582499452">
		<tag k="name" v="Skeisanden" />
		<tag k="natural" v="beach" />
		<tag k="place" v="locality" />
		<tag k="ssr:stedsnr" v="722343" />
	</node>
	<node id="-394453" lat="59.0047777759" lon="5.78871111345">
		<tag k="name" v="Vassøytåna" />
		<tag k="natural" v="cape" />
		<tag k="ssr:stedsnr" v="55249" />
	</node>
	<node id="-394452" lat="59.0041611067" lon="5.77221943627">
		<tag k="name" v="Tasavågen" />
		<tag k="natural" v="bay" />
		<tag k="ssr:stedsnr" v="55246" />
	</node>
	<node id="-394451" lat="59.045161114" lon="5.72745277199">
		<tag k="name" v="Taravik" />
		<tag k="natural" v="bay" />
		<tag k="ssr:stedsnr" v="52423" />
	</node>
	<node id="-394189" lat="59.0263083361" lon="5.74439444948">
		<tag k="name" v="Storholmgrunnen" />
		<tag k="natural" v="shoal" />
		<tag k="place" v="locality" />
		<tag k="ssr:stedsnr" v="284778" />
	</node>
	<node id="-394530" lat="58.921297219" lon="5.74949444155">
		<tag k="name" v="Taraldsholmen" />
		<tag k="place" v="islet" />
		<tag k="ssr:stedsnr" v="145043" />
	</node>
	<node id="-394630" lat="58.980521615" lon="5.73434137739">
		<tag k="name" v="Halvorstraen" />
		<tag k="natural" v="beach" />
		<tag k="place" v="locality" />
		<tag k="ssr:stedsnr" v="223888" />
	</node>
	<node id="-394951" lat="58.9906027758" lon="5.70038610891">
		<tag k="name" v="Tastarevet" />
		<tag k="place" v="locality" />
		<tag k="seamark:type" v="rock" />
		<tag k="ssr:stedsnr" v="707099" />
	</node>
	<node id="-394438" lat="58.9918166678" lon="5.71951111952">
		<tag k="name" v="Kuholmen" />
		<tag k="natural" v="cape" />
		<tag k="ssr:stedsnr" v="40228" />
	</node>
	<node id="-394529" lat="58.988205554" lon="5.73943610586">
		<tag k="name" v="Grønvika" />
		<tag k="natural" v="bay" />
		<tag k="ssr:stedsnr" v="145036" />
	</node>
	<node id="-394436" lat="58.9845055532" lon="5.75463054818">
		<tag k="name" v="Kjerringneset" />
		<tag k="natural" v="cape" />
		<tag k="ssr:stedsnr" v="40186" />
	</node>
	<node id="-394614" lat="58.9981361114" lon="5.67027777271">
		<tag k="loc_name" v="Notberget" />
		<tag k="name" v="Natberget" />
		<tag k="natural" v="cape" />
		<tag k="ssr:stedsnr" v="221918" />
	</node>
	<node id="-394946" lat="58.9157055598" lon="5.73999722769">
		<tag k="name" v="Laberget" />
		<tag k="natural" v="cape" />
		<tag k="ssr:stedsnr" v="706831" />
	</node>
	<node id="-394272" lat="58.9884666642" lon="5.75560277559">
		<tag k="fixme" v="consider seamark:type=rock or natural=shoal" />
		<tag k="name" v="Dynamittskjeret" />
		<tag k="place" v="islet" />
		<tag k="ssr:stedsnr" v="387057" />
	</node>
	<node id="-394791" lat="59.0058194418" lon="5.75342222578">
		<tag k="alt_name" v="søra Bekkjavik" />
		<tag k="name" v="Søra Bekkjavika" />
		<tag k="natural" v="bay" />
		<tag k="ssr:stedsnr" v="569008" />
	</node>
	<node id="-394939" lat="58.9852777806" lon="5.84215278343">
		<tag k="name" v="Kalvøyskolten" />
		<tag k="place" v="locality" />
		<tag k="seamark:type" v="rock" />
		<tag k="ssr:stedsnr" v="692246" />
	</node>
	<node id="-394426" lat="58.9224972186" lon="5.74342221751">
		<tag k="name" v="Hindalsgrunnen" />
		<tag k="natural" v="shoal" />
		<tag k="place" v="locality" />
		<tag k="ssr:stedsnr" v="39072" />
	</node>
	<node id="-394612" lat="58.9526861084" lon="5.74561944367">
		<tag k="name" v="Hillevågsholmen" />
		<tag k="natural" v="cape" />
		<tag k="ssr:stedsnr" v="221821" />
	</node>
	<node id="-394552" lat="58.9369027811" lon="5.67837499201">
		<tag k="name" v="Torskaberget" />
		<tag k="natural" v="cape" />
		<tag k="ssr:stedsnr" v="160693" />
	</node>
	<node id="-394928" lat="58.9722972248" lon="5.75196667439">
		<tag k="alt_name" v="Svankevigå" />
		<tag k="name" v="Svankevika" />
		<tag k="natural" v="bay" />
		<tag k="old_name" v="Svankevigen" />
		<tag k="ssr:stedsnr" v="691082" />
	</node>
	<node id="-394927" lat="58.9805081949" lon="5.74530646647">
		<tag k="name" v="Engøysundet" />
		<tag k="natural" v="strait" />
		<tag k="old_name" v="Engøsundet" />
		<tag k="ssr:stedsnr" v="691060" />
	</node>
	<node id="-394339" lat="58.9337451574" lon="5.68202798753">
		<tag k="name" v="Liapynten" />
		<tag k="natural" v="cape" />
		<tag k="ssr:stedsnr" v="607058" />
	</node>
	<node id="-394412" lat="59.0364361138" lon="5.74401389103">
		<tag k="alt_name" v="Melingsvågen;Storevågen" />
		<tag k="name" v="Storevåg" />
		<tag k="natural" v="bay" />
		<tag k="ssr:stedsnr" v="1800" />
	</node>
	<node id="-394411" lat="59.0515083321" lon="5.74424166027">
		<tag k="name" v="Espholmen" />
		<tag k="place" v="islet" />
		<tag k="ssr:stedsnr" v="1783" />
	</node>
	<node id="-394410" lat="59.0493027813" lon="5.74698055251">
		<tag k="name" v="Vaulen" />
		<tag k="natural" v="cape" />
		<tag k="ssr:stedsnr" v="1781" />
	</node>
	<node id="-394921" lat="58.9962388878" lon="5.78018889206">
		<tag k="fixme" v="consider seamark:type=rock or natural=shoal" />
		<tag k="name" v="Vassøyskjeret" />
		<tag k="place" v="islet" />
		<tag k="ssr:stedsnr" v="691018" />
	</node>
	<node id="-394920" lat="58.9933083327" lon="5.75389166244">
		<tag k="alt_name" v="Kunes" />
		<tag k="name" v="Kuneset" />
		<tag k="natural" v="cape" />
		<tag k="ssr:stedsnr" v="691015" />
	</node>
	<node id="-394919" lat="59.0162361153" lon="5.76513055117">
		<tag k="alt_name" v="Sandøyvågen, søre" />
		<tag k="name" v="Søre Sandøyvågen" />
		<tag k="natural" v="bay" />
		<tag k="ssr:stedsnr" v="669768" />
	</node>
	<node id="-394918" lat="59.027905551" lon="5.76681943634">
		<tag k="fixme" v="consider seamark:type=rock or natural=shoal" />
		<tag k="name" v="Spolen" />
		<tag k="place" v="islet" />
		<tag k="ssr:stedsnr" v="669757" />
	</node>
	<node id="-394404" lat="58.9844527811" lon="5.81052777334">
		<tag k="alt_name" v="Hedlesøysundet" />
		<tag k="name" v="Hellesøysundet" />
		<tag k="natural" v="strait" />
		<tag k="ssr:stedsnr" v="137" />
	</node>
	<node id="-394403" lat="59.0013767994" lon="5.66726294356">
		<tag k="loc_name" v="Dusavig" />
		<tag k="name" v="Dusaviga" />
		<tag k="natural" v="bay" />
		<tag k="ssr:stedsnr" v="112" />
	</node>
	<node id="-394415" lat="58.9788750012" lon="5.72969721943">
		<tag k="name" v="Majoren" />
		<tag k="old_name" v="Majorholmen" />
		<tag k="place" v="islet" />
		<tag k="ssr:stedsnr" v="24037" />
	</node>
	<node id="-394911" lat="58.9535861087" lon="5.7456555513">
		<tag k="alt_name" v="Hillevågsvika;Hillevågen" />
		<tag k="name" v="Hillevågsbukta" />
		<tag k="natural" v="bay" />
		<tag k="ssr:stedsnr" v="668044" />
	</node>
	<node id="-394437" lat="58.9807444399" lon="5.72561388285">
		<tag k="name" v="Midtgrunnen" />
		<tag k="natural" v="shoal" />
		<tag k="place" v="locality" />
		<tag k="ssr:stedsnr" v="40212" />
	</node>
	<node id="-394423" lat="58.9571944446" lon="5.76259167056">
		<tag k="name" v="Ramsvigodden" />
		<tag k="natural" v="cape" />
		<tag k="ssr:stedsnr" v="25291" />
	</node>
	<node id="-394909" lat="58.9892194404" lon="5.74838610281">
		<tag k="name" v="Dragabergvika" />
		<tag k="natural" v="bay" />
		<tag k="ssr:stedsnr" v="661324" />
	</node>
	<node id="-394899" lat="58.9730527739" lon="5.60254444679">
		<tag k="loc_name" v="Slettesvika" />
		<tag k="name" v="Slettesviga" />
		<tag k="natural" v="bay" />
		<tag k="ssr:stedsnr" v="647899" />
	</node>
	<node id="-394408" lat="58.9746893971" lon="5.82411973511">
		<tag k="name" v="Tyttebærholmen" />
		<tag k="place" v="islet" />
		<tag k="ssr:stedsnr" v="1102" />
	</node>
	<node id="-394895" lat="59.0429361121" lon="5.77639444703">
		<tag k="name" v="Lyresteinen" />
		<tag k="natural" v="cape" />
		<tag k="ssr:stedsnr" v="647727" />
	</node>
	<node id="-394891" lat="58.9920833353" lon="5.71837222721">
		<tag k="name" v="Kuvika" />
		<tag k="natural" v="bay" />
		<tag k="ssr:stedsnr" v="646210" />
	</node>
	<node id="-394890" lat="58.9582499987" lon="5.76534444071">
		<tag k="name" v="Svorten" />
		<tag k="natural" v="cape" />
		<tag k="ssr:stedsnr" v="646211" />
	</node>
	<node id="-394889" lat="58.9824472265" lon="5.74852221835">
		<tag k="name" v="Engøysnaget" />
		<tag k="natural" v="cape" />
		<tag k="ssr:stedsnr" v="646178" />
	</node>
	<node id="-394604" lat="58.971758332" lon="5.59722222696">
		<tag k="loc_name" v="Torsteinsvika" />
		<tag k="name" v="Torsteinsviga" />
		<tag k="natural" v="bay" />
		<tag k="ssr:stedsnr" v="206363" />
	</node>
	<node id="-394884" lat="58.9603583377" lon="5.60942221742">
		<tag k="name" v="Buseneset" />
		<tag k="natural" v="cape" />
		<tag k="ssr:stedsnr" v="645921" />
	</node>
	<node id="-394518" lat="58.9573238305" lon="5.76060005624">
		<tag k="alt_name" v="Ramsvik" />
		<tag k="name" v="Ramsvig" />
		<tag k="natural" v="bay" />
		<tag k="old_name" v="Ramsvika" />
		<tag k="ssr:stedsnr" v="122045" />
	</node>
	<node id="-394877" lat="58.9783444468" lon="5.74628055937">
		<tag k="alt_name" v="Kvidavigå" />
		<tag k="name" v="Kvitavika" />
		<tag k="natural" v="bay" />
		<tag k="old_name" v="Hvidevigen" />
		<tag k="ssr:stedsnr" v="645203" />
	</node>
	<node id="-394867" lat="58.9088138915" lon="5.74679166529">
		<tag k="fixme" v="consider seamark:type=rock or natural=shoal" />
		<tag k="name" v="Grønskjer" />
		<tag k="place" v="islet" />
		<tag k="ssr:stedsnr" v="630187" />
	</node>
	<node id="-394864" lat="58.9969395262" lon="5.67438687372">
		<tag k="alt_name" v="litle Dusavika;Litla Dusavik" />
		<tag k="name" v="Litla Dusavika" />
		<tag k="natural" v="bay" />
		<tag k="ssr:stedsnr" v="630166" />
	</node>
	<node id="-394862" lat="59.0039888848" lon="5.71473055645">
		<tag k="name" v="Breivika" />
		<tag k="natural" v="bay" />
		<tag k="ssr:stedsnr" v="630159" />
	</node>
	<node id="-394861" lat="58.9727398916" lon="5.74890509248">
		<tag k="loc_name" v="Straumsteinen" />
		<tag k="name" v="Strømsteinen" />
		<tag k="natural" v="cape" />
		<tag k="ssr:stedsnr" v="630067" />
	</node>
	<node id="-394860" lat="58.9901638913" lon="5.72213611629">
		<tag k="name" v="Tømmerodden" />
		<tag k="natural" v="cape" />
		<tag k="ssr:stedsnr" v="630048" />
	</node>
	<node id="-394859" lat="58.9833055533" lon="5.7391861146">
		<tag k="name" v="Pyntesundet" />
		<tag k="natural" v="strait" />
		<tag k="ssr:stedsnr" v="630043" />
	</node>
	<node id="-394858" lat="58.9806249172" lon="5.73479426049">
		<tag k="name" v="Pynteneset" />
		<tag k="natural" v="cape" />
		<tag k="ssr:stedsnr" v="630042" />
	</node>
	<node id="-394857" lat="58.9689027817" lon="5.76130555316">
		<tag k="name" v="Siriskjeret" />
		<tag k="natural" v="cape" />
		<tag k="old_name" v="Siriskjæret" />
		<tag k="ssr:stedsnr" v="630027" />
	</node>
	<node id="-394853" lat="59.0354138878" lon="5.73933055354">
		<tag k="alt_name" v="Sildaskjæret" />
		<tag k="fixme" v="consider seamark:type=rock or natural=shoal" />
		<tag k="name" v="Sildaskjeret" />
		<tag k="place" v="islet" />
		<tag k="ssr:stedsnr" v="608831" />
	</node>
	<node id="-394851" lat="59.0175055564" lon="5.78038334146">
		<tag k="name" v="Eigerøya" />
		<tag k="place" v="island" />
		<tag k="ssr:stedsnr" v="608803" />
	</node>
	<node id="-394850" lat="59.0221250001" lon="5.7818499966">
		<tag k="name" v="Odda" />
		<tag k="place" v="islet" />
		<tag k="ssr:stedsnr" v="608799" />
	</node>
	<node id="-394849" lat="59.0274194484" lon="5.76071110896">
		<tag k="name" v="Kuppholmen" />
		<tag k="place" v="islet" />
		<tag k="ssr:stedsnr" v="608796" />
	</node>
	<node id="-394848" lat="58.9097638926" lon="5.73857499513">
		<tag k="alt_name" v="Boganesviken" />
		<tag k="name" v="Boganesvika" />
		<tag k="natural" v="bay" />
		<tag k="ssr:stedsnr" v="607957" />
	</node>
	<node id="-394847" lat="58.9917263204" lon="5.72339987542">
		<tag k="alt_name" v="Bangavåg" />
		<tag k="name" v="Bangavågen" />
		<tag k="natural" v="bay" />
		<tag k="old_name" v="Bangarvaagen" />
		<tag k="ssr:stedsnr" v="607115" />
	</node>
	<node id="-394334" lat="58.9311527823" lon="5.75456666942">
		<tag k="name" v="Lyngneset" />
		<tag k="natural" v="cape" />
		<tag k="ssr:stedsnr" v="891792" />
	</node>
	<node id="-394532" lat="58.9929527795" lon="5.69390832542">
		<tag k="name" v="Skogstø" />
		<tag k="natural" v="bay" />
		<tag k="ssr:stedsnr" v="145157" />
	</node>
	<node id="-394843" lat="58.9829117154" lon="5.74398994943">
		<tag k="name" v="Engøy" />
		<tag k="old_name" v="Engøen" />
		<tag k="place" v="islet" />
		<tag k="ssr:stedsnr" v="607067" />
	</node>
	<node id="-394469" lat="58.9958138868" lon="5.7536166628">
		<tag k="name" v="Kalvhagsundet" />
		<tag k="natural" v="strait" />
		<tag k="ssr:stedsnr" v="84011" />
	</node>
	<node id="-394328" lat="58.945830556" lon="5.75384722812">
		<tag k="name" v="Torsnes" />
		<tag k="natural" v="cape" />
		<tag k="ssr:stedsnr" v="889969" />
	</node>
	<node id="-394838" lat="58.9941444404" lon="5.78367777533">
		<tag k="name" v="Makkavågen" />
		<tag k="natural" v="bay" />
		<tag k="ssr:stedsnr" v="601223" />
	</node>
	<node id="-394639" lat="59.007738886" lon="5.77015833778">
		<tag k="name" v="Forevika" />
		<tag k="natural" v="bay" />
		<tag k="ssr:stedsnr" v="237242" />
	</node>
	<node id="-394651" lat="59.0121583315" lon="5.77801389255">
		<tag k="name" v="Sauholmen" />
		<tag k="place" v="islet" />
		<tag k="ssr:stedsnr" v="244788" />
	</node>
	<node id="-394831" lat="59.0260805598" lon="5.77408610421">
		<tag k="name" v="Klovningen" />
		<tag k="place" v="islet" />
		<tag k="ssr:stedsnr" v="587755" />
	</node>
	<node id="-394318" lat="58.9940416652" lon="5.69183611777">
		<tag k="name" v="Tastastranda" />
		<tag k="natural" v="beach" />
		<tag k="place" v="locality" />
		<tag k="ssr:stedsnr" v="889106" />
	</node>
	<node id="-394828" lat="59.0434027803" lon="5.78789722608">
		<tag k="name" v="Lyrasteinen" />
		<tag k="natural" v="shoal" />
		<tag k="place" v="locality" />
		<tag k="ssr:stedsnr" v="587340" />
	</node>
	<node id="-394314" lat="58.9849138895" lon="5.75906666686">
		<tag k="fixme" v="consider seamark:type=rock or natural=shoal" />
		<tag k="name" v="Steinsøyskjeret" />
		<tag k="place" v="islet" />
		<tag k="ssr:stedsnr" v="479347" />
	</node>
	<node id="-394313" lat="59.0022750013" lon="5.70989166836">
		<tag k="name" v="Kvitepynten" />
		<tag k="natural" v="cape" />
		<tag k="ssr:stedsnr" v="479340" />
	</node>
	<node id="-394824" lat="58.9819083347" lon="5.74287777746">
		<tag k="name" v="Sørvågen" />
		<tag k="natural" v="bay" />
		<tag k="old_name" v="Sørvigen" />
		<tag k="ssr:stedsnr" v="586803" />
	</node>
	<node id="-394311" lat="59.0260215195" lon="5.77526143935">
		<tag k="alt_name" v="Klobningane;Klovning" />
		<tag k="name" v="Klovningane" />
		<tag k="place" v="islet" />
		<tag k="ssr:stedsnr" v="476443" />
	</node>
	<node id="-394821" lat="58.9589666628" lon="5.76806110547">
		<tag k="name" v="Vardanes" />
		<tag k="natural" v="cape" />
		<tag k="ssr:stedsnr" v="586210" />
	</node>
	<node id="-394809" lat="58.9680250006" lon="5.76590833571">
		<tag k="name" v="Sirigrunnen" />
		<tag k="natural" v="shoal" />
		<tag k="place" v="locality" />
		<tag k="ssr:stedsnr" v="571270" />
	</node>
	<node id="-394294" lat="58.9414388876" lon="5.67200832574">
		<tag k="name" v="Mølleberget" />
		<tag k="natural" v="cape" />
		<tag k="ssr:stedsnr" v="403969" />
	</node>
	<node id="-394650" lat="59.0156083357" lon="5.78585556154">
		<tag k="alt_name" v="Guleskjera" />
		<tag k="fixme" v="consider seamark:type=rock or natural=shoal" />
		<tag k="name" v="Dei gule skjera" />
		<tag k="place" v="islet" />
		<tag k="ssr:stedsnr" v="244785" />
	</node>
	<node id="-394801" lat="58.9097861144" lon="5.74913055425">
		<tag k="name" v="Jåttåholmen" />
		<tag k="place" v="islet" />
		<tag k="ssr:stedsnr" v="569204" />
	</node>
	<node id="-394798" lat="58.9995791422" lon="5.67869975144">
		<tag k="name" v="Vardeneset" />
		<tag k="natural" v="cape" />
		<tag k="ssr:stedsnr" v="569172" />
	</node>
	<node id="-394796" lat="59.0008333287" lon="5.71043054979">
		<tag k="alt_name" v="Kvidoddane" />
		<tag k="name" v="Kvitoddane" />
		<tag k="natural" v="cape" />
		<tag k="ssr:stedsnr" v="569165" />
	</node>
	<node id="-394794" lat="58.9868999984" lon="5.74218056437">
		<tag k="name" v="Myraneset" />
		<tag k="natural" v="cape" />
		<tag k="ssr:stedsnr" v="569056" />
	</node>
	<node id="-394793" lat="58.9598583327" lon="5.7437416716">
		<tag k="name" v="Hillevågsvatnet" />
		<tag k="natural" v="bay" />
		<tag k="old_name" v="Hillevaag Vandet" />
		<tag k="ssr:stedsnr" v="569017" />
	</node>
	<node id="-394792" lat="59.0002583353" lon="5.8051750004">
		<tag k="fixme" v="consider seamark:type=rock or natural=shoal" />
		<tag k="name" v="Revingen" />
		<tag k="place" v="islet" />
		<tag k="ssr:stedsnr" v="569011" />
	</node>
	<node id="-394332" lat="59.0291416622" lon="5.75772499576">
		<tag k="name" v="Storholmsundet" />
		<tag k="natural" v="strait" />
		<tag k="ssr:stedsnr" v="891761" />
	</node>
	<node id="-394787" lat="59.0495944414" lon="5.73147778653">
		<tag k="name" v="Rossnes" />
		<tag k="natural" v="cape" />
		<tag k="ssr:stedsnr" v="547813" />
	</node>
	<node id="-394274" lat="58.9156249957" lon="5.7428361029">
		<tag k="name" v="Klubben" />
		<tag k="natural" v="cape" />
		<tag k="ssr:stedsnr" v="387198" />
	</node>
	<node id="-394784" lat="58.9744802057" lon="5.80185169386">
		<tag k="fixme" v="consider seamark:type=rock or natural=shoal" />
		<tag k="name" v="Fladaskjeret" />
		<tag k="place" v="islet" />
		<tag k="ssr:stedsnr" v="547096" />
	</node>
	<node id="-394271" lat="58.9541083317" lon="5.75773889497">
		<tag k="name" v="Godalen friluftsbad" />
		<tag k="natural" v="beach" />
		<tag k="place" v="locality" />
		<tag k="ssr:stedsnr" v="387040" />
	</node>
	<node id="-394782" lat="58.9481466317" lon="5.62258169501">
		<tag k="name" v="Hestnes" />
		<tag k="natural" v="cape" />
		<tag k="ssr:stedsnr" v="547044" />
	</node>
	<node id="-394781" lat="58.989950534" lon="5.79345066663">
		<tag k="name" v="Vassøykalven" />
		<tag k="place" v="islet" />
		<tag k="ssr:stedsnr" v="546134" />
	</node>
	<node id="-394780" lat="58.9963861092" lon="5.69309443781">
		<tag k="bay" v="fjord" />
		<tag k="name" v="Byfjorden" />
		<tag k="natural" v="bay" />
		<tag k="ssr:stedsnr" v="546122" />
	</node>
	<node id="-394779" lat="58.9985749579" lon="5.77316567887">
		<tag k="name" v="Hestholmen" />
		<tag k="place" v="islet" />
		<tag k="ssr:stedsnr" v="546118" />
	</node>
	<node id="-394778" lat="58.9683395033" lon="5.59046710624">
		<tag k="name" v="Smiodden" />
		<tag k="natural" v="cape" />
		<tag k="ssr:stedsnr" v="546079" />
	</node>
	<node id="-394777" lat="58.9747722231" lon="5.83328333795">
		<tag k="name" v="Kalvøy" />
		<tag k="place" v="island" />
		<tag k="ssr:stedsnr" v="546076" />
	</node>
	<node id="-394263" lat="59.0162277755" lon="5.76838889077">
		<tag k="name" v="Sandøya" />
		<tag k="place" v="islet" />
		<tag k="ssr:stedsnr" v="365795" />
	</node>
	<node id="-394262" lat="59.0098888899" lon="5.73015000435">
		<tag k="alt_name" v="Grasskjeret" />
		<tag k="name" v="Grasholmen" />
		<tag k="place" v="islet" />
		<tag k="ssr:stedsnr" v="365793" />
	</node>
	<node id="-395097" lat="58.9908749985" lon="5.7345083302">
		<tag k="name" v="Galeivågen" />
		<tag k="natural" v="bay" />
		<tag k="old_name" v="Galleivaagen" />
		<tag k="ssr:stedsnr" v="873014" />
	</node>
	<node id="-394260" lat="59.0301055574" lon="5.75066110305">
		<tag k="alt_name" v="Store Storholmen" />
		<tag k="name" v="Storholmen" />
		<tag k="place" v="islet" />
		<tag k="ssr:stedsnr" v="365773" />
	</node>
	<node id="-394256" lat="58.9907093989" lon="5.80923843778">
		<tag k="name" v="Lindøy" />
		<tag k="place" v="island" />
		<tag k="ssr:stedsnr" v="364139" />
	</node>
	<node id="-394255" lat="58.9877484165" lon="5.761143506">
		<tag k="name" v="Ormøy" />
		<tag k="place" v="island" />
		<tag k="ssr:stedsnr" v="364136" />
	</node>
	<node id="-394254" lat="58.9938361123" lon="5.81624721345">
		<tag k="bay" v="fjord" />
		<tag k="name" v="Høgsfjorden" />
		<tag k="natural" v="bay" />
		<tag k="ssr:stedsnr" v="364128" />
	</node>
	<node id="-394765" lat="59.0166194406" lon="5.74543332881">
		<tag k="name" v="Lundegrunnen" />
		<tag k="natural" v="shoal" />
		<tag k="place" v="locality" />
		<tag k="ssr:stedsnr" v="527731" />
	</node>
	<node id="-394252" lat="58.9125777755" lon="5.74456666058">
		<tag k="alt_name" v="Sumsholmen" />
		<tag k="name" v="Sundsholmen" />
		<tag k="place" v="islet" />
		<tag k="ssr:stedsnr" v="361170" />
	</node>
	<node id="-394251" lat="58.9743861071" lon="5.83817221623">
		<tag k="name" v="Kalvøyvika" />
		<tag k="natural" v="bay" />
		<tag k="ssr:stedsnr" v="359983" />
	</node>
	<node id="-394761" lat="58.9734555578" lon="5.74273610538">
		<tag k="loc_name" v="Østre Havn" />
		<tag k="name" v="Austre Hamn" />
		<tag k="natural" v="bay" />
		<tag k="ssr:stedsnr" v="525220" />
	</node>
	<node id="-394760" lat="58.9755694488" lon="5.73273889417">
		<tag k="name" v="Plentinggrunnen" />
		<tag k="natural" v="shoal" />
		<tag k="place" v="locality" />
		<tag k="ssr:stedsnr" v="525195" />
	</node>
	<node id="-395014" lat="58.9568249995" lon="5.76690554836">
		<tag k="name" v="Ramsvikgrunnen" />
		<tag k="natural" v="shoal" />
		<tag k="place" v="locality" />
		<tag k="ssr:stedsnr" v="768224" />
	</node>
	<node id="-394582" lat="58.9872583348" lon="5.79625834041">
		<tag k="alt_name" v="Lindøysundet, nordre" />
		<tag k="name" v="Lindøysundet" />
		<tag k="natural" v="strait" />
		<tag k="ssr:stedsnr" v="183107" />
	</node>
	<node id="-394171" lat="58.9758444408" lon="5.7405111036">
		<tag k="alt_name" v="Skrivarvigå" />
		<tag k="name" v="Skrivarsvika" />
		<tag k="natural" v="bay" />
		<tag k="ssr:stedsnr" v="282803" />
	</node>
</osm>
