<?xml version="1.0" encoding="UTF-8"?>
<osm generator="osmapis" version="0.6">
	<node id="-9556" lat="59.2420527737" lon="5.82478332799">
		<tag k="alt_name" v="Tjularåsen" />
		<tag k="fixme" v="consider natural=peak for the most distinct mountains in the district" />
		<tag k="name" v="Tjulåsen" />
		<tag k="natural" v="hill" />
		<tag k="place" v="locality" />
		<tag k="ssr:stedsnr" v="851431" />
	</node>
	<node id="-8182" lat="59.2361138897" lon="6.01406944546">
		<tag k="name" v="Ramen" />
		<tag k="place" v="locality" />
		<tag k="ssr:stedsnr" v="60663" />
	</node>
	<node id="-8178" lat="59.2390305559" lon="6.03787499253">
		<tag k="name" v="Ramsdal" />
		<tag k="natural" v="valley" />
		<tag k="place" v="locality" />
		<tag k="ssr:stedsnr" v="60646" />
	</node>
	<node id="-8177" lat="59.2437916662" lon="5.99474999548">
		<tag k="fixme" v="consider natural=peak for the most distinct mountains in the district" />
		<tag k="name" v="Åsadn" />
		<tag k="natural" v="hill" />
		<tag k="place" v="locality" />
		<tag k="ssr:stedsnr" v="60629" />
	</node>
	<node id="-8176" lat="59.2465305597" lon="5.97686110579">
		<tag k="name" v="Gudmundshidler" />
		<tag k="place" v="locality" />
		<tag k="ssr:stedsnr" v="60626" />
	</node>
	<node id="-8174" lat="59.2384749998" lon="5.93788333466">
		<tag k="name" v="Tinghaug" />
		<tag k="natural" v="hill" />
		<tag k="place" v="locality" />
		<tag k="ssr:stedsnr" v="60590" />
	</node>
	<node id="-8171" lat="59.2323944426" lon="5.84525832646">
		<tag k="fixme" v="consider natural=peak for the most distinct mountains in the district" />
		<tag k="name" v="Litleåsen" />
		<tag k="natural" v="hill" />
		<tag k="place" v="locality" />
		<tag k="ssr:stedsnr" v="60540" />
	</node>
	<node id="-8164" lat="59.273838885" lon="6.04849166625">
		<tag k="name" v="Hollahola" />
		<tag k="place" v="locality" />
		<tag k="ssr:stedsnr" v="60452" />
	</node>
	<node id="-8163" lat="59.2871861084" lon="5.97225278382">
		<tag k="name" v="Hammaren" />
		<tag k="natural" v="cliff" />
		<tag k="ssr:stedsnr" v="60441" />
	</node>
	<node id="-8162" lat="59.262638888" lon="5.94738610761">
		<tag k="fixme" v="consider natural=peak for the most distinct mountains in the district" />
		<tag k="name" v="Lauåsen" />
		<tag k="natural" v="hill" />
		<tag k="place" v="locality" />
		<tag k="ssr:stedsnr" v="60410" />
	</node>
	<node id="-8161" lat="59.2911138906" lon="6.02575834005">
		<tag k="fixme" v="consider natural=peak for the most distinct mountains in the district" />
		<tag k="name" v="Rabnafjellet" />
		<tag k="natural" v="hill" />
		<tag k="place" v="locality" />
		<tag k="ssr:stedsnr" v="60399" />
	</node>
	<node id="-8160" lat="59.2463508846" lon="6.07234893175">
		<tag k="fixme" v="consider natural=peak for the most distinct mountains in the district" />
		<tag k="name" v="Trongafjellet" />
		<tag k="natural" v="hill" />
		<tag k="place" v="locality" />
		<tag k="ssr:stedsnr" v="60389" />
	</node>
	<node id="-8159" lat="59.2417666643" lon="6.05272222058">
		<tag k="name" v="Forehaugen" />
		<tag k="natural" v="hill" />
		<tag k="place" v="locality" />
		<tag k="ssr:stedsnr" v="60381" />
	</node>
	<node id="-8149" lat="59.1001305537" lon="5.75299445039">
		<tag k="fixme" v="consider natural=peak for the most distinct mountains in the district" />
		<tag k="name" v="Ørnhus" />
		<tag k="natural" v="hill" />
		<tag k="place" v="locality" />
		<tag k="ssr:stedsnr" v="54930" />
	</node>
	<node id="-8148" lat="59.1153166706" lon="5.89229721933">
		<tag k="name" v="Nonshaug" />
		<tag k="natural" v="hill" />
		<tag k="place" v="locality" />
		<tag k="ssr:stedsnr" v="54770" />
	</node>
	<node id="-8147" lat="59.1864333316" lon="5.82520833137">
		<tag k="name" v="Landafjellet" />
		<tag k="place" v="locality" />
		<tag k="ssr:stedsnr" v="54249" />
	</node>
	<node id="-8143" lat="59.1106472252" lon="5.83919722742">
		<tag k="name" v="Svarthaug" />
		<tag k="natural" v="hill" />
		<tag k="place" v="locality" />
		<tag k="ssr:stedsnr" v="53987" />
	</node>
	<node id="-8142" lat="59.0777277747" lon="5.63398333328">
		<tag k="name" v="Eigjefjellet" />
		<tag k="natural" v="hill" />
		<tag k="place" v="locality" />
		<tag k="ssr:stedsnr" v="53682" />
	</node>
	<node id="-8138" lat="59.1554138915" lon="5.9258416601">
		<tag k="fixme" v="consider natural=peak for the most distinct mountains in the district" />
		<tag k="name" v="Slettåsen" />
		<tag k="natural" v="hill" />
		<tag k="place" v="locality" />
		<tag k="ssr:stedsnr" v="53626" />
	</node>
	<node id="-8137" lat="59.195100004" lon="5.94450277698">
		<tag k="fixme" v="consider natural=peak for the most distinct mountains in the district" />
		<tag k="name" v="Vidås" />
		<tag k="natural" v="hill" />
		<tag k="place" v="locality" />
		<tag k="ssr:stedsnr" v="53333" />
	</node>
	<node id="-8097" lat="58.9317888887" lon="5.72117778046">
		<tag k="name" v="Hinnaberget" />
		<tag k="natural" v="hill" />
		<tag k="place" v="locality" />
		<tag k="ssr:stedsnr" v="24155" />
	</node>
	<node id="-8075" lat="59.0884750045" lon="5.62452499989">
		<tag k="fixme" v="consider natural=peak for the most distinct mountains in the district" />
		<tag k="name" v="Mastravarden" />
		<tag k="natural" v="hill" />
		<tag k="place" v="locality" />
		<tag k="ssr:stedsnr" v="1853" />
	</node>
	<node id="-8074" lat="59.0825499966" lon="5.72822223013">
		<tag k="fixme" v="consider natural=peak for the most distinct mountains in the district" />
		<tag k="name" v="Dalsfjellet" />
		<tag k="natural" v="hill" />
		<tag k="place" v="locality" />
		<tag k="ssr:stedsnr" v="1818" />
	</node>
	<node id="-7485" lat="59.2572999989" lon="5.87035000098">
		<tag k="fixme" v="consider natural=peak for the most distinct mountains in the district" />
		<tag k="name" v="Fuglahammaren" />
		<tag k="natural" v="hill" />
		<tag k="place" v="locality" />
		<tag k="ssr:stedsnr" v="608627" />
	</node>
	<node id="-8000" lat="59.2932388905" lon="6.03927500125">
		<tag k="name" v="Kunesbakkane" />
		<tag k="natural" v="slope" />
		<tag k="place" v="locality" />
		<tag k="ssr:stedsnr" v="970624" />
	</node>
	<node id="-7997" lat="59.2385638924" lon="5.98089999766">
		<tag k="fixme" v="consider natural=peak for the most distinct mountains in the district" />
		<tag k="name" v="Leidefjellet" />
		<tag k="natural" v="hill" />
		<tag k="place" v="locality" />
		<tag k="ssr:stedsnr" v="970214" />
	</node>
	<node id="-7996" lat="59.2305999961" lon="5.97846388289">
		<tag k="name" v="Friarhaugen" />
		<tag k="natural" v="hill" />
		<tag k="place" v="locality" />
		<tag k="ssr:stedsnr" v="970209" />
	</node>
	<node id="-7988" lat="59.1208333324" lon="5.66497777547">
		<tag k="name" v="Litla Lysefjellet" />
		<tag k="natural" v="hill" />
		<tag k="place" v="locality" />
		<tag k="ssr:stedsnr" v="963684" />
	</node>
	<node id="-7986" lat="59.2053805589" lon="5.94410833098">
		<tag k="name" v="Vedarhaugen" />
		<tag k="natural" v="hill" />
		<tag k="place" v="locality" />
		<tag k="ssr:stedsnr" v="963464" />
	</node>
	<node id="-7983" lat="59.1256027807" lon="5.89851666429">
		<tag k="name" v="Auglandsdalen" />
		<tag k="natural" v="valley" />
		<tag k="place" v="locality" />
		<tag k="ssr:stedsnr" v="963368" />
	</node>
	<node id="-7982" lat="59.1228444448" lon="5.89927222669">
		<tag k="name" v="Auglandshaugen" />
		<tag k="natural" v="hill" />
		<tag k="place" v="locality" />
		<tag k="ssr:stedsnr" v="963360" />
	</node>
	<node id="-7974" lat="58.9574666627" lon="5.65158611341">
		<tag k="name" v="Stølabråtet" />
		<tag k="natural" v="slope" />
		<tag k="place" v="locality" />
		<tag k="ssr:stedsnr" v="949506" />
	</node>
	<node id="-7963" lat="59.1806333323" lon="5.83718055185">
		<tag k="fixme" v="consider natural=peak for the most distinct mountains in the district" />
		<tag k="name" v="Haråsen" />
		<tag k="natural" v="hill" />
		<tag k="place" v="locality" />
		<tag k="ssr:stedsnr" v="911323" />
	</node>
	<node id="-7960" lat="59.2389222214" lon="5.94661389574">
		<tag k="name" v="Enghaug" />
		<tag k="natural" v="hill" />
		<tag k="place" v="locality" />
		<tag k="ssr:stedsnr" v="909631" />
	</node>
	<node id="-7953" lat="59.1474138846" lon="5.92680278274">
		<tag k="name" v="Trevlandsdalen" />
		<tag k="natural" v="valley" />
		<tag k="place" v="locality" />
		<tag k="ssr:stedsnr" v="903607" />
	</node>
	<node id="-7952" lat="59.1447472225" lon="5.91404721355">
		<tag k="fixme" v="consider natural=peak for the most distinct mountains in the district" />
		<tag k="name" v="Varhaug" />
		<tag k="natural" v="hill" />
		<tag k="place" v="locality" />
		<tag k="ssr:stedsnr" v="903604" />
	</node>
	<node id="-7944" lat="59.1783111081" lon="5.82196945196">
		<tag k="fixme" v="consider natural=peak for the most distinct mountains in the district" />
		<tag k="name" v="Vestbøfjellet" />
		<tag k="natural" v="hill" />
		<tag k="place" v="locality" />
		<tag k="ssr:stedsnr" v="903155" />
	</node>
	<node id="-7932" lat="58.9362305556" lon="5.64281945293">
		<tag k="name" v="Sandnesheia" />
		<tag k="natural" v="slope" />
		<tag k="place" v="locality" />
		<tag k="ssr:stedsnr" v="873359" />
	</node>
	<node id="-7931" lat="58.9711583369" lon="5.65196111696">
		<tag k="name" v="Skogberga" />
		<tag k="natural" v="hill" />
		<tag k="place" v="locality" />
		<tag k="ssr:stedsnr" v="873319" />
	</node>
	<node id="-7929" lat="58.9914916666" lon="5.6896250002">
		<tag k="fixme" v="consider natural=peak for the most distinct mountains in the district" />
		<tag k="name" v="Byåsen" />
		<tag k="natural" v="hill" />
		<tag k="place" v="locality" />
		<tag k="ssr:stedsnr" v="873177" />
	</node>
	<node id="-7923" lat="58.9141861084" lon="5.69398889554">
		<tag k="name" v="Kreklingholen" />
		<tag k="natural" v="hill" />
		<tag k="place" v="locality" />
		<tag k="ssr:stedsnr" v="949996" />
	</node>
	<node id="-7917" lat="59.2504000017" lon="5.99982500177">
		<tag k="alt_name" v="Almåsen" />
		<tag k="fixme" v="consider natural=peak for the most distinct mountains in the district" />
		<tag k="name" v="Almås" />
		<tag k="natural" v="hill" />
		<tag k="place" v="locality" />
		<tag k="ssr:stedsnr" v="852659" />
	</node>
	<node id="-7916" lat="59.2814750003" lon="6.00777499197">
		<tag k="alt_name" v="Brunastien" />
		<tag k="name" v="Brunastigen" />
		<tag k="natural" v="hill" />
		<tag k="place" v="locality" />
		<tag k="ssr:stedsnr" v="852580" />
	</node>
	<node id="-7915" lat="59.2775250039" lon="6.00197500331">
		<tag k="fixme" v="consider natural=peak for the most distinct mountains in the district" />
		<tag k="name" v="Haugåsen" />
		<tag k="natural" v="hill" />
		<tag k="place" v="locality" />
		<tag k="ssr:stedsnr" v="852579" />
	</node>
	<node id="-7911" lat="59.2657499986" lon="5.94377499343">
		<tag k="alt_name" v="Høgsteg" />
		<tag k="fixme" v="consider natural=peak for the most distinct mountains in the district" />
		<tag k="name" v="Høgstig" />
		<tag k="natural" v="hill" />
		<tag k="place" v="locality" />
		<tag k="ssr:stedsnr" v="852557" />
	</node>
	<node id="-7910" lat="59.2570999958" lon="5.93395000012">
		<tag k="alt_name" v="Søllbergsfjellet" />
		<tag k="fixme" v="consider natural=peak for the most distinct mountains in the district" />
		<tag k="name" v="Sølbergsfjellet" />
		<tag k="natural" v="hill" />
		<tag k="place" v="locality" />
		<tag k="ssr:stedsnr" v="852554" />
	</node>
	<node id="-7898" lat="59.1106194453" lon="5.74116667092">
		<tag k="fixme" v="consider natural=peak for the most distinct mountains in the district" />
		<tag k="name" v="Gravdalsfjellet" />
		<tag k="natural" v="hill" />
		<tag k="place" v="locality" />
		<tag k="ssr:stedsnr" v="843911" />
	</node>
	<node id="-7897" lat="59.1489861102" lon="5.92800833171">
		<tag k="fixme" v="consider natural=peak for the most distinct mountains in the district" />
		<tag k="name" v="Trevlandsåsen" />
		<tag k="natural" v="hill" />
		<tag k="place" v="locality" />
		<tag k="ssr:stedsnr" v="843632" />
	</node>
	<node id="-7896" lat="59.1524388885" lon="5.90611111267">
		<tag k="name" v="Sandvikfjellet" />
		<tag k="natural" v="hill" />
		<tag k="place" v="locality" />
		<tag k="ssr:stedsnr" v="843622" />
	</node>
	<node id="-7895" lat="59.0604666638" lon="5.69530277375">
		<tag k="name" v="Skorpefjellet" />
		<tag k="natural" v="hill" />
		<tag k="place" v="locality" />
		<tag k="ssr:stedsnr" v="843621" />
	</node>
	<node id="-7894" lat="59.1274944479" lon="5.89526943809">
		<tag k="name" v="Norddal" />
		<tag k="natural" v="valley" />
		<tag k="place" v="locality" />
		<tag k="ssr:stedsnr" v="843318" />
	</node>
	<node id="-7886" lat="59.1609916622" lon="5.82489166432">
		<tag k="fixme" v="consider natural=peak for the most distinct mountains in the district" />
		<tag k="name" v="Øyardalsfjellet" />
		<tag k="natural" v="hill" />
		<tag k="place" v="locality" />
		<tag k="ssr:stedsnr" v="842522" />
	</node>
	<node id="-7882" lat="59.1159055593" lon="5.70773611379">
		<tag k="name" v="Rauneberg" />
		<tag k="natural" v="hill" />
		<tag k="place" v="locality" />
		<tag k="ssr:stedsnr" v="842026" />
	</node>
	<node id="-7879" lat="59.0321777793" lon="5.70464445246">
		<tag k="name" v="Skaraberg" />
		<tag k="natural" v="hill" />
		<tag k="place" v="locality" />
		<tag k="ssr:stedsnr" v="938268" />
	</node>
	<node id="-7868" lat="58.8977472237" lon="5.73103055296">
		<tag k="name" v="Eikeberget" />
		<tag k="natural" v="hill" />
		<tag k="place" v="locality" />
		<tag k="ssr:stedsnr" v="934193" />
	</node>
	<node id="-7867" lat="58.9845138932" lon="5.69953888506">
		<tag k="alt_name" v="Tastaveten" />
		<tag k="name" v="Tastaveden" />
		<tag k="natural" v="hill" />
		<tag k="place" v="locality" />
		<tag k="ssr:stedsnr" v="934148" />
	</node>
	<node id="-7844" lat="59.1165638854" lon="5.67290556333">
		<tag k="fixme" v="consider natural=peak for the most distinct mountains in the district" />
		<tag k="name" v="Hestvarden" />
		<tag k="natural" v="hill" />
		<tag k="place" v="locality" />
		<tag k="ssr:stedsnr" v="790353" />
	</node>
	<node id="-7837" lat="59.2504611113" lon="6.05654999315">
		<tag k="name" v="Ørahaugen" />
		<tag k="natural" v="hill" />
		<tag k="place" v="locality" />
		<tag k="ssr:stedsnr" v="788373" />
	</node>
	<node id="-7836" lat="59.2468444457" lon="5.94837778395">
		<tag k="fixme" v="consider natural=peak for the most distinct mountains in the district" />
		<tag k="name" v="Bogskinnsfjellet" />
		<tag k="natural" v="hill" />
		<tag k="place" v="locality" />
		<tag k="ssr:stedsnr" v="788612" />
	</node>
	<node id="-7834" lat="59.2603416669" lon="6.03190000792">
		<tag k="fixme" v="consider natural=peak for the most distinct mountains in the district" />
		<tag k="name" v="Varen" />
		<tag k="natural" v="hill" />
		<tag k="place" v="locality" />
		<tag k="ssr:stedsnr" v="788420" />
	</node>
	<node id="-7833" lat="59.2713305576" lon="5.95248889421">
		<tag k="fixme" v="consider natural=peak for the most distinct mountains in the district" />
		<tag k="name" v="Kallåsen" />
		<tag k="natural" v="hill" />
		<tag k="place" v="locality" />
		<tag k="ssr:stedsnr" v="788408" />
	</node>
	<node id="-7832" lat="59.2810999961" lon="6.07671388843">
		<tag k="name" v="Forekam" />
		<tag k="place" v="locality" />
		<tag k="ssr:stedsnr" v="787003" />
	</node>
	<node id="-7818" lat="59.0843999986" lon="5.58398055354">
		<tag k="name" v="Svarteberga" />
		<tag k="natural" v="hill" />
		<tag k="place" v="locality" />
		<tag k="ssr:stedsnr" v="768259" />
	</node>
	<node id="-8812" lat="58.9131694424" lon="5.69361667314">
		<tag k="name" v="Heia" />
		<tag k="place" v="locality" />
		<tag k="ssr:stedsnr" v="403998" />
	</node>
	<node id="-7813" lat="59.2372833362" lon="5.89042499396">
		<tag k="alt_name" v="Stora Sjydna;Litla Sjydna" />
		<tag k="fixme" v="consider natural=peak for the most distinct mountains in the district" />
		<tag k="name" v="Sjydna" />
		<tag k="natural" v="hill" />
		<tag k="place" v="locality" />
		<tag k="ssr:stedsnr" v="912994" />
	</node>
	<node id="-7793" lat="59.1104527771" lon="5.6294055615">
		<tag k="fixme" v="consider natural=peak for the most distinct mountains in the district" />
		<tag k="name" v="Knott" />
		<tag k="natural" v="hill" />
		<tag k="place" v="locality" />
		<tag k="ssr:stedsnr" v="912388" />
	</node>
	<node id="-9490" lat="59.1052666691" lon="5.83045277644">
		<tag k="name" v="Hønsabærhaugen" />
		<tag k="natural" v="hill" />
		<tag k="place" v="locality" />
		<tag k="ssr:stedsnr" v="843798" />
	</node>
	<node id="-7777" lat="59.0882166668" lon="5.71129999212">
		<tag k="fixme" v="consider natural=peak for the most distinct mountains in the district" />
		<tag k="name" v="Selsfjellet" />
		<tag k="natural" v="hill" />
		<tag k="place" v="locality" />
		<tag k="ssr:stedsnr" v="911852" />
	</node>
	<node id="-7754" lat="59.2433194443" lon="6.03797778398">
		<tag k="fixme" v="consider natural=peak for the most distinct mountains in the district" />
		<tag k="name" v="Sjeneberget" />
		<tag k="natural" v="hill" />
		<tag k="place" v="locality" />
		<tag k="ssr:stedsnr" v="909672" />
	</node>
	<node id="-7752" lat="59.2339777754" lon="5.85196944677">
		<tag k="name" v="Skottlandsbakkane" />
		<tag k="natural" v="slope" />
		<tag k="place" v="locality" />
		<tag k="ssr:stedsnr" v="909580" />
	</node>
	<node id="-7751" lat="59.2501416702" lon="5.80833333691">
		<tag k="alt_name" v="Jonekulten" />
		<tag k="fixme" v="consider natural=peak for the most distinct mountains in the district" />
		<tag k="name" v="Tonekulten" />
		<tag k="natural" v="hill" />
		<tag k="place" v="locality" />
		<tag k="ssr:stedsnr" v="909550" />
	</node>
	<node id="-7750" lat="59.2293833342" lon="5.8138694472">
		<tag k="name" v="Varsku" />
		<tag k="place" v="locality" />
		<tag k="ssr:stedsnr" v="909548" />
	</node>
	<node id="-7747" lat="59.2705444416" lon="5.83265277303">
		<tag k="name" v="Tjøremila" />
		<tag k="place" v="locality" />
		<tag k="ssr:stedsnr" v="909487" />
	</node>
	<node id="-7746" lat="59.2832361086" lon="5.97128611786">
		<tag k="fixme" v="consider natural=peak for the most distinct mountains in the district" />
		<tag k="name" v="Storafjellet" />
		<tag k="natural" v="hill" />
		<tag k="place" v="locality" />
		<tag k="ssr:stedsnr" v="909479" />
	</node>
	<node id="-7745" lat="59.2749406781" lon="5.94820441841">
		<tag k="fixme" v="consider natural=peak for the most distinct mountains in the district" />
		<tag k="name" v="Havåsen" />
		<tag k="natural" v="hill" />
		<tag k="place" v="locality" />
		<tag k="ssr:stedsnr" v="909471" />
	</node>
	<node id="-7743" lat="59.2710638857" lon="6.02759721978">
		<tag k="fixme" v="consider natural=peak for the most distinct mountains in the district" />
		<tag k="name" v="Kodlafjellet" />
		<tag k="natural" v="hill" />
		<tag k="place" v="locality" />
		<tag k="ssr:stedsnr" v="909458" />
	</node>
	<node id="-7742" lat="59.2636000041" lon="6.03449444104">
		<tag k="fixme" v="consider natural=peak for the most distinct mountains in the district" />
		<tag k="name" v="Jengleheia" />
		<tag k="natural" v="hill" />
		<tag k="place" v="locality" />
		<tag k="ssr:stedsnr" v="909456" />
	</node>
	<node id="-7739" lat="59.255355559" lon="5.96684721935">
		<tag k="name" v="Tømmerdalen" />
		<tag k="natural" v="valley" />
		<tag k="place" v="locality" />
		<tag k="ssr:stedsnr" v="909447" />
	</node>
	<node id="-7738" lat="59.2590055541" lon="5.94774722931">
		<tag k="name" v="Vassle" />
		<tag k="place" v="locality" />
		<tag k="ssr:stedsnr" v="909442" />
	</node>
	<node id="-7731" lat="58.940727776" lon="5.64639721974">
		<tag k="name" v="Ospeberget" />
		<tag k="natural" v="hill" />
		<tag k="place" v="locality" />
		<tag k="ssr:stedsnr" v="752308" />
	</node>
	<node id="-7730" lat="58.9406083317" lon="5.64219165875">
		<tag k="name" v="Nålanutane" />
		<tag k="natural" v="hill" />
		<tag k="place" v="locality" />
		<tag k="ssr:stedsnr" v="752306" />
	</node>
	<node id="-7728" lat="59.1198861113" lon="5.73974444424">
		<tag k="fixme" v="consider natural=peak for the most distinct mountains in the district" />
		<tag k="name" v="Nåtlefjellet" />
		<tag k="natural" v="hill" />
		<tag k="place" v="locality" />
		<tag k="ssr:stedsnr" v="904933" />
	</node>
	<node id="-7726" lat="59.1097861154" lon="5.76499444384">
		<tag k="name" v="Trodlåsen" />
		<tag k="natural" v="hill" />
		<tag k="place" v="locality" />
		<tag k="ssr:stedsnr" v="904882" />
	</node>
	<node id="-7720" lat="59.140644448" lon="5.83475277136">
		<tag k="fixme" v="consider natural=peak for the most distinct mountains in the district" />
		<tag k="name" v="Borgaråsen" />
		<tag k="natural" v="hill" />
		<tag k="place" v="locality" />
		<tag k="ssr:stedsnr" v="903338" />
	</node>
	<node id="-7707" lat="59.2462166706" lon="6.00841667351">
		<tag k="alt_name" v="Trågedalsfjell" />
		<tag k="fixme" v="consider natural=peak for the most distinct mountains in the district" />
		<tag k="name" v="Trogedalsfjellet" />
		<tag k="natural" v="hill" />
		<tag k="place" v="locality" />
		<tag k="ssr:stedsnr" v="730968" />
	</node>
	<node id="-7700" lat="58.950316665" lon="5.66597500113">
		<tag k="name" v="Madlamoen" />
		<tag k="place" v="locality" />
		<tag k="ssr:stedsnr" v="729049" />
	</node>
	<node id="-7698" lat="59.2673555529" lon="6.06574722275">
		<tag k="name" v="Osmundbrotet" />
		<tag k="place" v="locality" />
		<tag k="ssr:stedsnr" v="727766" />
	</node>
	<node id="-7694" lat="59.2278416686" lon="5.81769444684">
		<tag k="name" v="Tonå" />
		<tag k="place" v="locality" />
		<tag k="ssr:stedsnr" v="727560" />
	</node>
	<node id="-7687" lat="59.1214583358" lon="5.66825555639">
		<tag k="name" v="Kobbhaug" />
		<tag k="natural" v="hill" />
		<tag k="place" v="locality" />
		<tag k="ssr:stedsnr" v="721625" />
	</node>
	<node id="-7682" lat="59.0525138916" lon="5.651944443">
		<tag k="name" v="Soknahodnet" />
		<tag k="natural" v="hill" />
		<tag k="place" v="locality" />
		<tag k="ssr:stedsnr" v="721512" />
	</node>
	<node id="-7680" lat="59.1936999998" lon="5.82099444667">
		<tag k="name" v="Trolljuv" />
		<tag k="natural" v="gorge" />
		<tag k="ssr:stedsnr" v="721220" />
	</node>
	<node id="-7676" lat="59.1134166636" lon="5.6638805595">
		<tag k="name" v="Flekkstad" />
		<tag k="natural" v="valley" />
		<tag k="place" v="locality" />
		<tag k="ssr:stedsnr" v="720001" />
	</node>
	<node id="-7675" lat="59.0446416628" lon="5.74220556419">
		<tag k="alt_name" v="Skårene" />
		<tag k="name" v="Skårane" />
		<tag k="place" v="locality" />
		<tag k="ssr:stedsnr" v="719437" />
	</node>
	<node id="-7672" lat="59.0430749967" lon="5.7693361131">
		<tag k="name" v="Hellesberget" />
		<tag k="natural" v="hill" />
		<tag k="place" v="locality" />
		<tag k="ssr:stedsnr" v="709323" />
	</node>
	<node id="-7662" lat="58.991086109" lon="5.75075278313">
		<tag k="name" v="Dragaberg" />
		<tag k="natural" v="hill" />
		<tag k="place" v="locality" />
		<tag k="ssr:stedsnr" v="890845" />
	</node>
	<node id="-7661" lat="58.9110361106" lon="5.72766666526">
		<tag k="name" v="Kyrkjehaugen" />
		<tag k="natural" v="hill" />
		<tag k="place" v="locality" />
		<tag k="ssr:stedsnr" v="890835" />
	</node>
	<node id="-7658" lat="59.240986114" lon="5.88740555789">
		<tag k="name" v="Ladberget" />
		<tag k="natural" v="hill" />
		<tag k="place" v="locality" />
		<tag k="ssr:stedsnr" v="889716" />
	</node>
	<node id="-7651" lat="58.963455559" lon="5.60440277743">
		<tag k="name" v="Mjukhaug" />
		<tag k="natural" v="hill" />
		<tag k="place" v="locality" />
		<tag k="ssr:stedsnr" v="889555" />
	</node>
	<node id="-7638" lat="58.9101277799" lon="5.7117166727">
		<tag k="name" v="Haugaberget" />
		<tag k="natural" v="hill" />
		<tag k="place" v="locality" />
		<tag k="ssr:stedsnr" v="888744" />
	</node>
	<node id="-7632" lat="59.2661027771" lon="6.04689722478">
		<tag k="name" v="Søre Hudalen" />
		<tag k="natural" v="valley" />
		<tag k="place" v="locality" />
		<tag k="ssr:stedsnr" v="666405" />
	</node>
	<node id="-7630" lat="59.0641472264" lon="5.67191110406">
		<tag k="name" v="Vardane" />
		<tag k="natural" v="hill" />
		<tag k="place" v="locality" />
		<tag k="ssr:stedsnr" v="878289" />
	</node>
	<node id="-7627" lat="59.13061111" lon="5.59918610688">
		<tag k="name" v="Sersberg" />
		<tag k="natural" v="hill" />
		<tag k="place" v="locality" />
		<tag k="ssr:stedsnr" v="661874" />
	</node>
	<node id="-7613" lat="58.9320138885" lon="5.71848333214">
		<tag k="name" v="Bornhus" />
		<tag k="natural" v="hill" />
		<tag k="place" v="locality" />
		<tag k="ssr:stedsnr" v="647909" />
	</node>
	<node id="-7601" lat="58.94824722" lon="5.62294444614">
		<tag k="name" v="Klubben" />
		<tag k="natural" v="hill" />
		<tag k="place" v="locality" />
		<tag k="ssr:stedsnr" v="645936" />
	</node>
	<node id="-9633" lat="59.2821416711" lon="5.97333333595">
		<tag k="name" v="Medhaugen" />
		<tag k="natural" v="hill" />
		<tag k="place" v="locality" />
		<tag k="ssr:stedsnr" v="970695" />
	</node>
	<node id="-9632" lat="59.2722027736" lon="5.9705638937">
		<tag k="fixme" v="consider natural=peak for the most distinct mountains in the district" />
		<tag k="name" v="Stamperabben" />
		<tag k="natural" v="hill" />
		<tag k="place" v="locality" />
		<tag k="ssr:stedsnr" v="970680" />
	</node>
	<node id="-9630" lat="59.2693388904" lon="6.04454722327">
		<tag k="name" v="Nordre Hudalen" />
		<tag k="natural" v="valley" />
		<tag k="place" v="locality" />
		<tag k="ssr:stedsnr" v="970668" />
	</node>
	<node id="-9625" lat="59.2612999963" lon="6.08701111293">
		<tag k="name" v="Markahaugbrotet" />
		<tag k="natural" v="slope" />
		<tag k="place" v="locality" />
		<tag k="ssr:stedsnr" v="969776" />
	</node>
	<node id="-9624" lat="59.2838027773" lon="6.07579721352">
		<tag k="name" v="Nibbå" />
		<tag k="place" v="locality" />
		<tag k="ssr:stedsnr" v="969002" />
	</node>
	<node id="-9617" lat="59.1030666666" lon="5.72673611737">
		<tag k="name" v="Auglandsbakken" />
		<tag k="natural" v="slope" />
		<tag k="place" v="locality" />
		<tag k="ssr:stedsnr" v="964895" />
	</node>
	<node id="-9615" lat="59.1865777825" lon="5.87484445267">
		<tag k="fixme" v="consider natural=peak for the most distinct mountains in the district" />
		<tag k="name" v="Høynes" />
		<tag k="natural" v="hill" />
		<tag k="place" v="locality" />
		<tag k="ssr:stedsnr" v="964793" />
	</node>
	<node id="-9607" lat="59.1973555552" lon="5.82097221904">
		<tag k="name" v="Haukåsen" />
		<tag k="natural" v="hill" />
		<tag k="place" v="locality" />
		<tag k="ssr:stedsnr" v="964274" />
	</node>
	<node id="-9600" lat="59.2000416701" lon="5.9544833364">
		<tag k="name" v="Fladhaug" />
		<tag k="natural" v="hill" />
		<tag k="place" v="locality" />
		<tag k="ssr:stedsnr" v="963346" />
	</node>
	<node id="-9596" lat="59.1032611104" lon="5.6656027751">
		<tag k="fixme" v="consider natural=peak for the most distinct mountains in the district" />
		<tag k="name" v="Varabrekk" />
		<tag k="natural" v="hill" />
		<tag k="place" v="locality" />
		<tag k="ssr:stedsnr" v="963014" />
	</node>
	<node id="-7545" lat="58.9858499996" lon="5.6794888919">
		<tag k="name" v="Varden" />
		<tag k="natural" v="hill" />
		<tag k="place" v="locality" />
		<tag k="ssr:stedsnr" v="630169" />
	</node>
	<node id="-7535" lat="59.2492083292" lon="5.99658889155">
		<tag k="name" v="Almåslia" />
		<tag k="natural" v="slope" />
		<tag k="place" v="locality" />
		<tag k="ssr:stedsnr" v="727675" />
	</node>
	<node id="-7531" lat="59.2767305579" lon="6.02903333344">
		<tag k="name" v="Skansen" />
		<tag k="natural" v="cliff" />
		<tag k="ssr:stedsnr" v="727477" />
	</node>
	<node id="-7530" lat="59.2588861072" lon="6.01059999571">
		<tag k="name" v="Medåsskaret" />
		<tag k="natural" v="valley" />
		<tag k="place" v="locality" />
		<tag k="ssr:stedsnr" v="727444" />
	</node>
	<node id="-8423" lat="58.9638573291" lon="5.63555369676">
		<tag k="name" v="Grovahaug" />
		<tag k="natural" v="hill" />
		<tag k="place" v="locality" />
		<tag k="ssr:stedsnr" v="160477" />
	</node>
	<node id="-7528" lat="59.2887055569" lon="6.05373888086">
		<tag k="fixme" v="consider natural=peak for the most distinct mountains in the district" />
		<tag k="name" v="Varen" />
		<tag k="natural" v="hill" />
		<tag k="place" v="locality" />
		<tag k="ssr:stedsnr" v="727426" />
	</node>
	<node id="-8764" lat="59.1131527776" lon="5.68498333549">
		<tag k="name" v="Nonshaug" />
		<tag k="natural" v="hill" />
		<tag k="place" v="locality" />
		<tag k="ssr:stedsnr" v="366313" />
	</node>
	<node id="-7524" lat="59.0803083314" lon="5.75424166516">
		<tag k="fixme" v="consider natural=peak for the most distinct mountains in the district" />
		<tag k="name" v="Askevollen" />
		<tag k="natural" v="hill" />
		<tag k="place" v="locality" />
		<tag k="ssr:stedsnr" v="721941" />
	</node>
	<node id="-9569" lat="59.2898032073" lon="6.05460440765">
		<tag k="fixme" v="consider natural=peak for the most distinct mountains in the district" />
		<tag k="name" v="Bandåsen" />
		<tag k="natural" v="hill" />
		<tag k="place" v="locality" />
		<tag k="ssr:stedsnr" v="852593" />
	</node>
	<node id="-7518" lat="59.1081555568" lon="5.89228333654">
		<tag k="name" v="Rossøyfjellet" />
		<tag k="natural" v="hill" />
		<tag k="place" v="locality" />
		<tag k="ssr:stedsnr" v="721743" />
	</node>
	<node id="-7516" lat="59.1654222201" lon="5.94503334027">
		<tag k="fixme" v="consider natural=peak for the most distinct mountains in the district" />
		<tag k="name" v="Hestås" />
		<tag k="natural" v="hill" />
		<tag k="place" v="locality" />
		<tag k="ssr:stedsnr" v="721444" />
	</node>
	<node id="-7510" lat="59.1315944484" lon="5.92287222169">
		<tag k="fixme" v="consider natural=peak for the most distinct mountains in the district" />
		<tag k="name" v="Husafjellet" />
		<tag k="natural" v="hill" />
		<tag k="place" v="locality" />
		<tag k="ssr:stedsnr" v="721287" />
	</node>
	<node id="-7508" lat="59.1843416702" lon="5.83377499837">
		<tag k="name" v="Rodatødne" />
		<tag k="natural" v="slope" />
		<tag k="place" v="locality" />
		<tag k="ssr:stedsnr" v="721251" />
	</node>
	<node id="-7507" lat="59.1840833324" lon="5.84418333215">
		<tag k="name" v="Golhaug" />
		<tag k="natural" v="hill" />
		<tag k="place" v="locality" />
		<tag k="ssr:stedsnr" v="721250" />
	</node>
	<node id="-7505" lat="59.0901944441" lon="5.56988332814">
		<tag k="name" v="Vindhaug" />
		<tag k="natural" v="hill" />
		<tag k="place" v="locality" />
		<tag k="ssr:stedsnr" v="721192" />
	</node>
	<node id="-7500" lat="59.1172611124" lon="5.59046110334">
		<tag k="name" v="Lådervarden" />
		<tag k="natural" v="hill" />
		<tag k="place" v="locality" />
		<tag k="ssr:stedsnr" v="720323" />
	</node>
	<node id="-7274" lat="59.0384750009" lon="5.72978055453">
		<tag k="name" v="Skorphiller" />
		<tag k="natural" v="hill" />
		<tag k="place" v="locality" />
		<tag k="ssr:stedsnr" v="668814" />
	</node>
	<node id="-9543" lat="59.1065305582" lon="5.68114999803">
		<tag k="name" v="Hjarthaug" />
		<tag k="natural" v="hill" />
		<tag k="place" v="locality" />
		<tag k="ssr:stedsnr" v="851308" />
	</node>
	<node id="-7490" lat="59.0064856163" lon="5.75130469642">
		<tag k="name" v="Alaska" />
		<tag k="natural" v="hill" />
		<tag k="place" v="locality" />
		<tag k="ssr:stedsnr" v="608818" />
	</node>
	<node id="-9533" lat="58.9385749981" lon="5.70529444404">
		<tag k="alt_name" v="Store Ullandhaug" />
		<tag k="name" v="Ullandhaug" />
		<tag k="natural" v="hill" />
		<tag k="place" v="locality" />
		<tag k="ssr:stedsnr" v="851051" />
	</node>
	<node id="-7481" lat="59.1416527814" lon="5.92714166566">
		<tag k="fixme" v="consider natural=peak for the most distinct mountains in the district" />
		<tag k="name" v="Domfjellet" />
		<tag k="natural" v="hill" />
		<tag k="place" v="locality" />
		<tag k="ssr:stedsnr" v="608605" />
	</node>
	<node id="-9527" lat="59.2598694434" lon="6.07881666948">
		<tag k="name" v="Røssedalen" />
		<tag k="natural" v="valley" />
		<tag k="place" v="locality" />
		<tag k="ssr:stedsnr" v="849809" />
	</node>
	<node id="-9526" lat="59.2639611145" lon="6.0598972169">
		<tag k="name" v="Krossleite" />
		<tag k="natural" v="slope" />
		<tag k="place" v="locality" />
		<tag k="ssr:stedsnr" v="849775" />
	</node>
	<node id="-9524" lat="59.2404083325" lon="5.99962499436">
		<tag k="fixme" v="consider natural=peak for the most distinct mountains in the district" />
		<tag k="name" v="Kårdalshaugen" />
		<tag k="natural" v="hill" />
		<tag k="place" v="locality" />
		<tag k="ssr:stedsnr" v="849708" />
	</node>
	<node id="-9522" lat="59.2340666643" lon="5.94953888132">
		<tag k="fixme" v="consider natural=peak for the most distinct mountains in the district" />
		<tag k="name" v="Myrafjellet" />
		<tag k="natural" v="hill" />
		<tag k="place" v="locality" />
		<tag k="ssr:stedsnr" v="849679" />
	</node>
	<node id="-7470" lat="59.2400500033" lon="5.9440916645">
		<tag k="fixme" v="consider natural=peak for the most distinct mountains in the district" />
		<tag k="name" v="Holefjellet" />
		<tag k="natural" v="hill" />
		<tag k="place" v="locality" />
		<tag k="ssr:stedsnr" v="605643" />
	</node>
	<node id="-7468" lat="59.2467305527" lon="5.95807221643">
		<tag k="fixme" v="consider natural=peak for the most distinct mountains in the district" />
		<tag k="name" v="Knolten" />
		<tag k="natural" v="hill" />
		<tag k="place" v="locality" />
		<tag k="ssr:stedsnr" v="605634" />
	</node>
	<node id="-7465" lat="59.2228111147" lon="5.83103054759">
		<tag k="name" v="Kyrkjehaugen" />
		<tag k="natural" v="hill" />
		<tag k="place" v="locality" />
		<tag k="ssr:stedsnr" v="605611" />
	</node>
	<node id="-9508" lat="59.2513972223" lon="5.96091943811">
		<tag k="name" v="Melkehaug" />
		<tag k="natural" v="hill" />
		<tag k="place" v="locality" />
		<tag k="ssr:stedsnr" v="849447" />
	</node>
	<node id="-9507" lat="59.2519333367" lon="5.956941664">
		<tag k="name" v="Trolldal" />
		<tag k="natural" v="valley" />
		<tag k="place" v="locality" />
		<tag k="ssr:stedsnr" v="849444" />
	</node>
	<node id="-9506" lat="59.250747222" lon="6.04224444382">
		<tag k="name" v="Vatnadalsleitet" />
		<tag k="natural" v="slope" />
		<tag k="place" v="locality" />
		<tag k="ssr:stedsnr" v="849395" />
	</node>
	<node id="-7455" lat="59.1506861089" lon="5.91666111624">
		<tag k="name" v="Skorvahaugen" />
		<tag k="natural" v="hill" />
		<tag k="place" v="locality" />
		<tag k="ssr:stedsnr" v="599626" />
	</node>
	<node id="-9498" lat="59.1542666635" lon="5.87063889336">
		<tag k="name" v="Slottet" />
		<tag k="natural" v="hill" />
		<tag k="place" v="locality" />
		<tag k="ssr:stedsnr" v="851596" />
	</node>
	<node id="-9493" lat="59.1150305533" lon="5.8104999995">
		<tag k="name" v="Longafjellet" />
		<tag k="natural" v="hill" />
		<tag k="place" v="locality" />
		<tag k="ssr:stedsnr" v="843954" />
	</node>
	<node id="-9492" lat="59.1057444419" lon="5.72284722807">
		<tag k="name" v="Uglesmog" />
		<tag k="natural" v="valley" />
		<tag k="place" v="locality" />
		<tag k="ssr:stedsnr" v="843919" />
	</node>
	<node id="-9491" lat="59.1004250044" lon="5.74396944998">
		<tag k="name" v="Skjenhammar" />
		<tag k="natural" v="hill" />
		<tag k="place" v="locality" />
		<tag k="ssr:stedsnr" v="843915" />
	</node>
	<node id="-7442" lat="58.9720999986" lon="5.5995833266">
		<tag k="name" v="Sletteberget" />
		<tag k="natural" v="hill" />
		<tag k="place" v="locality" />
		<tag k="ssr:stedsnr" v="586878" />
	</node>
	<node id="-7440" lat="58.9877111149" lon="5.66055832763">
		<tag k="name" v="Høyehaugen" />
		<tag k="natural" v="hill" />
		<tag k="place" v="locality" />
		<tag k="ssr:stedsnr" v="585924" />
	</node>
	<node id="-9486" lat="59.1241583374" lon="5.60841111675">
		<tag k="name" v="Tussaberg" />
		<tag k="natural" v="hill" />
		<tag k="place" v="locality" />
		<tag k="ssr:stedsnr" v="843639" />
	</node>
	<node id="-7434" lat="58.9455194417" lon="5.73612222786">
		<tag k="fixme" v="consider natural=peak for the most distinct mountains in the district" />
		<tag k="name" v="Haugås" />
		<tag k="natural" v="hill" />
		<tag k="place" v="locality" />
		<tag k="ssr:stedsnr" v="708901" />
	</node>
	<node id="-9478" lat="59.1402666648" lon="5.60263611584">
		<tag k="name" v="Hesthammar" />
		<tag k="natural" v="hill" />
		<tag k="place" v="locality" />
		<tag k="ssr:stedsnr" v="842880" />
	</node>
	<node id="-9476" lat="59.1613027793" lon="5.82251667444">
		<tag k="name" v="Øyardalen" />
		<tag k="natural" v="valley" />
		<tag k="place" v="locality" />
		<tag k="ssr:stedsnr" v="842532" />
	</node>
	<node id="-7424" lat="58.9633444401" lon="5.74835555632">
		<tag k="name" v="Storhaug" />
		<tag k="natural" v="hill" />
		<tag k="place" v="locality" />
		<tag k="ssr:stedsnr" v="707392" />
	</node>
	<node id="-7416" lat="58.9483083374" lon="5.63565555408">
		<tag k="name" v="Fluberget" />
		<tag k="natural" v="hill" />
		<tag k="place" v="locality" />
		<tag k="ssr:stedsnr" v="706944" />
	</node>
	<node id="-9455" lat="58.9880138921" lon="5.6790222152">
		<tag k="name" v="Holeberget" />
		<tag k="natural" v="slope" />
		<tag k="place" v="locality" />
		<tag k="ssr:stedsnr" v="828980" />
	</node>
	<node id="-9454" lat="58.9862277754" lon="5.66124166109">
		<tag k="name" v="Kvivoll" />
		<tag k="natural" v="ridge" />
		<tag k="place" v="locality" />
		<tag k="ssr:stedsnr" v="828936" />
	</node>
	<node id="-7405" lat="58.9616505302" lon="5.64543676872">
		<tag k="name" v="Stølaheia" />
		<tag k="natural" v="hill" />
		<tag k="old_name" v="Stølsheia" />
		<tag k="place" v="locality" />
		<tag k="ssr:stedsnr" v="547102" />
	</node>
	<node id="-6695" lat="59.1418305519" lon="5.91268332917">
		<tag k="name" v="Pighaug" />
		<tag k="natural" v="hill" />
		<tag k="place" v="locality" />
		<tag k="ssr:stedsnr" v="114349" />
	</node>
	<node id="-7388" lat="59.054669447" lon="5.67590000225">
		<tag k="name" v="Golhaug" />
		<tag k="natural" v="hill" />
		<tag k="place" v="locality" />
		<tag k="ssr:stedsnr" v="538407" />
	</node>
	<node id="-7387" lat="59.1087166646" lon="5.66557777626">
		<tag k="fixme" v="consider natural=peak for the most distinct mountains in the district" />
		<tag k="name" v="Grønhaugane" />
		<tag k="natural" v="hill" />
		<tag k="place" v="locality" />
		<tag k="ssr:stedsnr" v="538021" />
	</node>
	<node id="-7384" lat="58.9739638866" lon="5.60665833622">
		<tag k="alt_name" v="Ørneberget" />
		<tag k="name" v="Ørnaberget" />
		<tag k="natural" v="hill" />
		<tag k="place" v="locality" />
		<tag k="ssr:stedsnr" v="691393" />
	</node>
	<node id="-7381" lat="58.9332000013" lon="5.71928333396">
		<tag k="name" v="Snårehaugen" />
		<tag k="natural" v="hill" />
		<tag k="place" v="locality" />
		<tag k="ssr:stedsnr" v="691226" />
	</node>
	<node id="-9418" lat="58.9724388849" lon="5.68797222549">
		<tag k="fixme" v="consider natural=peak for the most distinct mountains in the district" />
		<tag k="name" v="Klauhammaren" />
		<tag k="natural" v="hill" />
		<tag k="place" v="locality" />
		<tag k="ssr:stedsnr" v="813126" />
	</node>
	<node id="-9407" lat="59.1678222205" lon="5.86708888526">
		<tag k="name" v="Fåhaugen" />
		<tag k="natural" v="hill" />
		<tag k="place" v="locality" />
		<tag k="ssr:stedsnr" v="796262" />
	</node>
	<node id="-9405" lat="59.2610749986" lon="5.98830000355">
		<tag k="name" v="Gamlestølhammaren" />
		<tag k="natural" v="hill" />
		<tag k="place" v="locality" />
		<tag k="ssr:stedsnr" v="791546" />
	</node>
	<node id="-9404" lat="59.2774499998" lon="5.99125000364">
		<tag k="name" v="Bjergaheia" />
		<tag k="natural" v="hill" />
		<tag k="place" v="locality" />
		<tag k="ssr:stedsnr" v="791580" />
	</node>
	<node id="-7354" lat="58.9420305529" lon="5.69643611885">
		<tag k="name" v="Limahaugen" />
		<tag k="natural" v="hill" />
		<tag k="place" v="locality" />
		<tag k="ssr:stedsnr" v="509288" />
	</node>
	<node id="-7352" lat="61.2177777797" lon="6.59979722139">
		<tag k="alt_name" v="Alskori" />
		<tag k="name" v="Almskori" />
		<tag k="place" v="locality" />
		<tag k="ssr:stedsnr" v="677966" />
	</node>
	<node id="-9389" lat="59.0653055521" lon="5.67017778496">
		<tag k="alt_name" v="Haraldshaugen" />
		<tag k="name" v="Haraldhaugen" />
		<tag k="natural" v="hill" />
		<tag k="place" v="locality" />
		<tag k="ssr:stedsnr" v="790842" />
	</node>
	<node id="-7337" lat="59.2869416663" lon="5.9853583253">
		<tag k="fixme" v="consider natural=peak for the most distinct mountains in the district" />
		<tag k="name" v="Hagafjellet" />
		<tag k="natural" v="hill" />
		<tag k="place" v="locality" />
		<tag k="ssr:stedsnr" v="484453" />
	</node>
	<node id="-7333" lat="59.1999499977" lon="5.93602777797">
		<tag k="name" v="Lyngholen" />
		<tag k="natural" v="hill" />
		<tag k="place" v="locality" />
		<tag k="ssr:stedsnr" v="478863" />
	</node>
	<node id="-7331" lat="59.1827555527" lon="5.84915555498">
		<tag k="name" v="Grønhaug" />
		<tag k="natural" v="hill" />
		<tag k="place" v="locality" />
		<tag k="ssr:stedsnr" v="479262" />
	</node>
	<node id="-9378" lat="59.1071916699" lon="5.81516388939">
		<tag k="fixme" v="consider natural=peak for the most distinct mountains in the district" />
		<tag k="name" v="Klubben" />
		<tag k="natural" v="hill" />
		<tag k="place" v="locality" />
		<tag k="ssr:stedsnr" v="790312" />
	</node>
	<node id="-7329" lat="59.0886972232" lon="5.57684444876">
		<tag k="name" v="Ørnafjellet" />
		<tag k="natural" v="hill" />
		<tag k="place" v="locality" />
		<tag k="ssr:stedsnr" v="479202" />
	</node>
	<node id="-7324" lat="59.1552166627" lon="5.8427305509">
		<tag k="fixme" v="consider natural=peak for the most distinct mountains in the district" />
		<tag k="name" v="Preikestolen" />
		<tag k="natural" v="hill" />
		<tag k="ssr:stedsnr" v="478606" />
	</node>
	<node id="-7318" lat="59.0459277775" lon="5.75692776996">
		<tag k="fixme" v="consider natural=peak for the most distinct mountains in the district" />
		<tag k="name" v="Århammar" />
		<tag k="natural" v="hill" />
		<tag k="place" v="locality" />
		<tag k="ssr:stedsnr" v="476471" />
	</node>
	<node id="-7315" lat="59.245066671" lon="6.03201666883">
		<tag k="alt_name" v="Vestresjøåsen" />
		<tag k="fixme" v="consider natural=peak for the most distinct mountains in the district" />
		<tag k="name" v="Vestersjøåsen" />
		<tag k="natural" v="hill" />
		<tag k="place" v="locality" />
		<tag k="ssr:stedsnr" v="669966" />
	</node>
	<node id="-9348" lat="59.2747499973" lon="6.01786389624">
		<tag k="name" v="Kleiva" />
		<tag k="natural" v="cliff" />
		<tag k="ssr:stedsnr" v="788451" />
	</node>
	<node id="-9347" lat="59.2849944447" lon="6.04864999666">
		<tag k="name" v="Skårane" />
		<tag k="place" v="locality" />
		<tag k="ssr:stedsnr" v="788447" />
	</node>
	<node id="-7298" lat="59.1463527782" lon="5.92836945002">
		<tag k="name" v="Skjenåsen" />
		<tag k="natural" v="hill" />
		<tag k="place" v="locality" />
		<tag k="ssr:stedsnr" v="669576" />
	</node>
	<node id="-9344" lat="59.2749555598" lon="5.95878333431">
		<tag k="name" v="Stampå" />
		<tag k="natural" v="valley" />
		<tag k="place" v="locality" />
		<tag k="ssr:stedsnr" v="788434" />
	</node>
	<node id="-9343" lat="59.2900513172" lon="6.05256181785">
		<tag k="fixme" v="consider natural=peak for the most distinct mountains in the district" />
		<tag k="name" v="Niben" />
		<tag k="natural" v="hill" />
		<tag k="place" v="locality" />
		<tag k="ssr:stedsnr" v="788401" />
	</node>
	<node id="-9342" lat="59.2503138872" lon="6.02870277269">
		<tag k="name" v="Flådene" />
		<tag k="natural" v="hill" />
		<tag k="place" v="locality" />
		<tag k="ssr:stedsnr" v="788633" />
	</node>
	<node id="-9337" lat="58.9837777781" lon="5.82672499146">
		<tag k="name" v="Høgstehaug" />
		<tag k="natural" v="hill" />
		<tag k="place" v="locality" />
		<tag k="ssr:stedsnr" v="784992" />
	</node>
	<node id="-9331" lat="59.1174861138" lon="5.73333055265">
		<tag k="fixme" v="consider natural=peak for the most distinct mountains in the district" />
		<tag k="name" v="Hommarfjellet" />
		<tag k="natural" v="hill" />
		<tag k="place" v="locality" />
		<tag k="ssr:stedsnr" v="782899" />
	</node>
	<node id="-9330" lat="59.1149972265" lon="5.74625556012">
		<tag k="name" v="Jeidaberget" />
		<tag k="natural" v="hill" />
		<tag k="place" v="locality" />
		<tag k="ssr:stedsnr" v="782894" />
	</node>
	<node id="-9329" lat="59.1169944463" lon="5.75596111308">
		<tag k="name" v="Nedre Lyngdalen" />
		<tag k="natural" v="valley" />
		<tag k="place" v="locality" />
		<tag k="ssr:stedsnr" v="782855" />
	</node>
	<node id="-9324" lat="59.164166664" lon="5.79279444755">
		<tag k="name" v="Kobbhaug" />
		<tag k="natural" v="hill" />
		<tag k="place" v="locality" />
		<tag k="ssr:stedsnr" v="782113" />
	</node>
	<node id="-9322" lat="59.1181333323" lon="5.61832500099">
		<tag k="name" v="Torsbakken" />
		<tag k="natural" v="slope" />
		<tag k="place" v="locality" />
		<tag k="ssr:stedsnr" v="782037" />
	</node>
	<node id="-9321" lat="59.1210638851" lon="5.57109721494">
		<tag k="name" v="Mjukstein" />
		<tag k="natural" v="hill" />
		<tag k="place" v="locality" />
		<tag k="ssr:stedsnr" v="781881" />
	</node>
	<node id="-9319" lat="59.1209861115" lon="5.67688333042">
		<tag k="name" v="Brattebakka" />
		<tag k="natural" v="slope" />
		<tag k="place" v="locality" />
		<tag k="ssr:stedsnr" v="781647" />
	</node>
	<node id="-7270" lat="59.159675002" lon="5.82789165909">
		<tag k="fixme" v="consider natural=peak for the most distinct mountains in the district" />
		<tag k="name" v="Kuhammar" />
		<tag k="natural" v="hill" />
		<tag k="place" v="locality" />
		<tag k="ssr:stedsnr" v="668287" />
	</node>
	<node id="-9314" lat="59.0752138906" lon="5.73176665953">
		<tag k="alt_name" v="Vindheimsnibba" />
		<tag k="fixme" v="consider natural=peak for the most distinct mountains in the district" />
		<tag k="name" v="Vindeimsnibba" />
		<tag k="natural" v="hill" />
		<tag k="place" v="locality" />
		<tag k="ssr:stedsnr" v="781354" />
	</node>
	<node id="-9311" lat="59.1404666642" lon="5.92111388956">
		<tag k="name" v="Åsdalen" />
		<tag k="natural" v="valley" />
		<tag k="place" v="locality" />
		<tag k="ssr:stedsnr" v="781327" />
	</node>
	<node id="-9308" lat="59.1287166651" lon="5.91755277363">
		<tag k="fixme" v="consider natural=peak for the most distinct mountains in the district" />
		<tag k="name" v="Heimaråsen" />
		<tag k="natural" v="hill" />
		<tag k="place" v="locality" />
		<tag k="ssr:stedsnr" v="781303" />
	</node>
	<node id="-9306" lat="59.1131305569" lon="5.71525555455">
		<tag k="name" v="Århaug" />
		<tag k="natural" v="hill" />
		<tag k="place" v="locality" />
		<tag k="ssr:stedsnr" v="781026" />
	</node>
	<node id="-9304" lat="59.039405554" lon="5.76416943647">
		<tag k="alt_name" v="Gisberget" />
		<tag k="name" v="Jisberget" />
		<tag k="natural" v="hill" />
		<tag k="place" v="locality" />
		<tag k="ssr:stedsnr" v="780420" />
	</node>
	<node id="-9303" lat="59.0394333304" lon="5.74446111977">
		<tag k="name" v="Bergaberget" />
		<tag k="natural" v="hill" />
		<tag k="place" v="locality" />
		<tag k="ssr:stedsnr" v="780393" />
	</node>
	<node id="-7252" lat="59.2357472196" lon="6.00520832618">
		<tag k="name" v="Liå" />
		<tag k="natural" v="slope" />
		<tag k="place" v="locality" />
		<tag k="ssr:stedsnr" v="666661" />
	</node>
	<node id="-7250" lat="59.2464250023" lon="6.02334167155">
		<tag k="alt_name" v="Bjødlandsdalen" />
		<tag k="name" v="Bjødlandsdal" />
		<tag k="natural" v="valley" />
		<tag k="place" v="locality" />
		<tag k="ssr:stedsnr" v="666638" />
	</node>
	<node id="-7243" lat="59.2644361138" lon="5.83943333581">
		<tag k="name" v="Norheimsberget" />
		<tag k="natural" v="hill" />
		<tag k="place" v="locality" />
		<tag k="ssr:stedsnr" v="666494" />
	</node>
	<node id="-7242" lat="59.2804388863" lon="6.02855276928">
		<tag k="name" v="Kalltveitheia" />
		<tag k="natural" v="hill" />
		<tag k="place" v="locality" />
		<tag k="ssr:stedsnr" v="666488" />
	</node>
	<node id="-7241" lat="59.276761115" lon="5.98304722502">
		<tag k="fixme" v="consider natural=peak for the most distinct mountains in the district" />
		<tag k="name" v="Bjergafjellet" />
		<tag k="natural" v="hill" />
		<tag k="place" v="locality" />
		<tag k="ssr:stedsnr" v="666474" />
	</node>
	<node id="-7240" lat="59.2572194425" lon="6.00623610264">
		<tag k="name" v="Skogalon" />
		<tag k="natural" v="slope" />
		<tag k="place" v="locality" />
		<tag k="ssr:stedsnr" v="666460" />
	</node>
	<node id="-7235" lat="59.1355444416" lon="5.6018638812">
		<tag k="name" v="Tranhaug" />
		<tag k="natural" v="hill" />
		<tag k="place" v="locality" />
		<tag k="ssr:stedsnr" v="660846" />
	</node>
	<node id="-9282" lat="58.9665694453" lon="5.64593332942">
		<tag k="name" v="Krossberg" />
		<tag k="natural" v="hill" />
		<tag k="place" v="locality" />
		<tag k="ssr:stedsnr" v="767938" />
	</node>
	<node id="-9275" lat="58.9549500026" lon="5.63013611634">
		<tag k="name" v="Djupadal" />
		<tag k="natural" v="valley" />
		<tag k="place" v="locality" />
		<tag k="ssr:stedsnr" v="767499" />
	</node>
	<node id="-7226" lat="59.0600722253" lon="5.68928611532">
		<tag k="name" v="Naustbakka" />
		<tag k="natural" v="hill" />
		<tag k="place" v="locality" />
		<tag k="ssr:stedsnr" v="660629" />
	</node>
	<node id="-7224" lat="59.068074998" lon="5.68100833023">
		<tag k="fixme" v="consider natural=peak for the most distinct mountains in the district" />
		<tag k="name" v="Norevarden" />
		<tag k="natural" v="hill" />
		<tag k="place" v="locality" />
		<tag k="ssr:stedsnr" v="660616" />
	</node>
	<node id="-9266" lat="59.1648027732" lon="5.94094165884">
		<tag k="fixme" v="consider natural=peak for the most distinct mountains in the district" />
		<tag k="name" v="Storafjellet" />
		<tag k="natural" v="hill" />
		<tag k="place" v="locality" />
		<tag k="ssr:stedsnr" v="753979" />
	</node>
	<node id="-7216" lat="59.1230805586" lon="5.73816388342">
		<tag k="name" v="Jubedal" />
		<tag k="natural" v="valley" />
		<tag k="place" v="locality" />
		<tag k="ssr:stedsnr" v="660560" />
	</node>
	<node id="-7214" lat="59.0413222231" lon="5.6602555591">
		<tag k="name" v="Lomberen" />
		<tag k="natural" v="hill" />
		<tag k="place" v="locality" />
		<tag k="ssr:stedsnr" v="660550" />
	</node>
	<node id="-7213" lat="59.0399666699" lon="5.65543332574">
		<tag k="name" v="Hedleshaug" />
		<tag k="natural" v="hill" />
		<tag k="place" v="locality" />
		<tag k="ssr:stedsnr" v="660549" />
	</node>
	<node id="-7212" lat="59.2035694443" lon="5.94625000427">
		<tag k="name" v="Kyrkjehaugen" />
		<tag k="natural" v="hill" />
		<tag k="place" v="locality" />
		<tag k="ssr:stedsnr" v="660424" />
	</node>
	<node id="-9257" lat="58.9571055583" lon="5.63902221912">
		<tag k="alt_name" v="Heislandsrodlå;Heislandsrudlå" />
		<tag k="name" v="Heislandsrudla" />
		<tag k="place" v="locality" />
		<tag k="ssr:stedsnr" v="752135" />
	</node>
	<node id="-7204" lat="59.1014722195" lon="5.57969444366">
		<tag k="name" v="Kneberfjellet" />
		<tag k="natural" v="hill" />
		<tag k="place" v="locality" />
		<tag k="ssr:stedsnr" v="659316" />
	</node>
	<node id="-7203" lat="59.1196750034" lon="5.67161111802">
		<tag k="name" v="Grønhaug" />
		<tag k="natural" v="hill" />
		<tag k="place" v="locality" />
		<tag k="ssr:stedsnr" v="659038" />
	</node>
	<node id="-7199" lat="59.1894305527" lon="5.83198056204">
		<tag k="fixme" v="consider natural=peak for the most distinct mountains in the district" />
		<tag k="name" v="Mjølsnesfjellet" />
		<tag k="natural" v="hill" />
		<tag k="place" v="locality" />
		<tag k="ssr:stedsnr" v="427317" />
	</node>
	<node id="-7188" lat="59.276094443" lon="6.05876110448">
		<tag k="fixme" v="consider natural=peak for the most distinct mountains in the district" />
		<tag k="name" v="Osmundslogfjellet" />
		<tag k="natural" v="hill" />
		<tag k="place" v="locality" />
		<tag k="ssr:stedsnr" v="424010" />
	</node>
	<node id="-9235" lat="58.9914749984" lon="5.72978333545">
		<tag k="alt_name" v="Fjellberget" />
		<tag k="name" v="Fjellberg" />
		<tag k="natural" v="hill" />
		<tag k="place" v="locality" />
		<tag k="ssr:stedsnr" v="647940" />
	</node>
	<node id="-7184" lat="59.0351944429" lon="5.64079722408">
		<tag k="name" v="Ørnadalen" />
		<tag k="natural" v="valley" />
		<tag k="place" v="locality" />
		<tag k="ssr:stedsnr" v="418515" />
	</node>
	<node id="-7181" lat="59.1389472239" lon="5.91199999823">
		<tag k="fixme" v="consider natural=peak for the most distinct mountains in the district" />
		<tag k="name" v="Peråsen" />
		<tag k="natural" v="hill" />
		<tag k="place" v="locality" />
		<tag k="ssr:stedsnr" v="418310" />
	</node>
	<node id="-9226" lat="58.9734277789" lon="5.70082778448">
		<tag k="name" v="Byhaugen" />
		<tag k="natural" v="hill" />
		<tag k="place" v="locality" />
		<tag k="ssr:stedsnr" v="645966" />
	</node>
	<node id="-9225" lat="58.9705833318" lon="5.68275555571">
		<tag k="name" v="Mølla" />
		<tag k="natural" v="hill" />
		<tag k="place" v="locality" />
		<tag k="ssr:stedsnr" v="645957" />
	</node>
	<node id="-8703" lat="59.1647500043" lon="5.9409805544">
		<tag k="fixme" v="consider natural=peak for the most distinct mountains in the district" />
		<tag k="name" v="Storafjell" />
		<tag k="natural" v="hill" />
		<tag k="place" v="locality" />
		<tag k="ssr:stedsnr" v="357436" />
	</node>
	<node id="-7153" lat="58.9174027803" lon="5.69270000524">
		<tag k="name" v="Valaberget" />
		<tag k="natural" v="hill" />
		<tag k="place" v="locality" />
		<tag k="ssr:stedsnr" v="509159" />
	</node>
	<node id="-8831" lat="59.1639777824" lon="5.94479445084">
		<tag k="name" v="Øygjafjellet" />
		<tag k="natural" v="hill" />
		<tag k="place" v="locality" />
		<tag k="ssr:stedsnr" v="417265" />
	</node>
	<node id="-7151" lat="58.9816027745" lon="5.7148305481">
		<tag k="name" v="Kalhammaren" />
		<tag k="natural" v="ridge" />
		<tag k="place" v="locality" />
		<tag k="ssr:stedsnr" v="509155" />
	</node>
	<node id="-9198" lat="58.9312500008" lon="5.73971943915">
		<tag k="name" v="Harholen" />
		<tag k="natural" v="hill" />
		<tag k="place" v="locality" />
		<tag k="ssr:stedsnr" v="630192" />
	</node>
	<node id="-7149" lat="58.9726000008" lon="5.6094027808">
		<tag k="name" v="Ørnaberget" />
		<tag k="natural" v="hill" />
		<tag k="place" v="locality" />
		<tag k="ssr:stedsnr" v="405909" />
	</node>
	<node id="-9188" lat="59.2551250044" lon="5.95577499872">
		<tag k="alt_name" v="Skaraheia" />
		<tag k="name" v="Skoraheia" />
		<tag k="natural" v="hill" />
		<tag k="place" v="locality" />
		<tag k="ssr:stedsnr" v="609649" />
	</node>
	<node id="-9187" lat="59.1914388922" lon="5.95272777171">
		<tag k="alt_name" v="Bjødnnåsen" />
		<tag k="fixme" v="consider natural=peak for the most distinct mountains in the district" />
		<tag k="name" v="Bjørnåsen" />
		<tag k="natural" v="hill" />
		<tag k="place" v="locality" />
		<tag k="ssr:stedsnr" v="608943" />
	</node>
	<node id="-9183" lat="59.0667777804" lon="5.68167500804">
		<tag k="fixme" v="consider natural=peak for the most distinct mountains in the district" />
		<tag k="name" v="Askjevarden" />
		<tag k="natural" v="hill" />
		<tag k="place" v="locality" />
		<tag k="ssr:stedsnr" v="608857" />
	</node>
	<node id="-7133" lat="58.9442166631" lon="5.70188888053">
		<tag k="name" v="Litle Ullandhaug" />
		<tag k="natural" v="hill" />
		<tag k="place" v="locality" />
		<tag k="ssr:stedsnr" v="388258" />
	</node>
	<node id="-7132" lat="58.9376305588" lon="5.64729722938">
		<tag k="alt_name" v="Gjerdesberget" />
		<tag k="fixme" v="consider natural=peak for the most distinct mountains in the district" />
		<tag k="name" v="Gjeresberget" />
		<tag k="natural" v="hill" />
		<tag k="place" v="locality" />
		<tag k="ssr:stedsnr" v="388308" />
	</node>
	<node id="-7131" lat="58.932663891" lon="5.64547500395">
		<tag k="alt_name" v="Håhamar" />
		<tag k="name" v="Håhammaren" />
		<tag k="natural" v="ridge" />
		<tag k="place" v="locality" />
		<tag k="ssr:stedsnr" v="387374" />
	</node>
	<node id="-9169" lat="59.1143194414" lon="5.62631667323">
		<tag k="alt_name" v="Niben" />
		<tag k="name" v="Nipen" />
		<tag k="natural" v="hill" />
		<tag k="place" v="locality" />
		<tag k="ssr:stedsnr" v="608385" />
	</node>
	<node id="-9167" lat="59.1286388902" lon="5.88607222412">
		<tag k="fixme" v="consider natural=peak for the most distinct mountains in the district" />
		<tag k="name" v="Ørnakula" />
		<tag k="natural" v="hill" />
		<tag k="place" v="locality" />
		<tag k="ssr:stedsnr" v="608378" />
	</node>
	<node id="-7118" lat="59.2850388858" lon="6.06931666577">
		<tag k="fixme" v="consider natural=peak for the most distinct mountains in the district" />
		<tag k="name" v="Robenut" />
		<tag k="natural" v="hill" />
		<tag k="place" v="locality" />
		<tag k="ssr:stedsnr" v="363004" />
	</node>
	<node id="-7116" lat="59.2067444477" lon="5.93300000177">
		<tag k="name" v="Fjedlet" />
		<tag k="place" v="locality" />
		<tag k="ssr:stedsnr" v="357857" />
	</node>
	<node id="-7115" lat="59.0839277767" lon="5.75409166499">
		<tag k="fixme" v="consider natural=peak for the most distinct mountains in the district" />
		<tag k="name" v="Mikalsgrovene" />
		<tag k="natural" v="hill" />
		<tag k="place" v="locality" />
		<tag k="ssr:stedsnr" v="357934" />
	</node>
	<node id="-9159" lat="59.1531666708" lon="5.82538888282">
		<tag k="fixme" v="consider natural=peak for the most distinct mountains in the district" />
		<tag k="name" v="Bergevarden" />
		<tag k="natural" v="hill" />
		<tag k="ssr:stedsnr" v="608257" />
	</node>
	<node id="-7110" lat="59.1502638918" lon="5.93713055321">
		<tag k="name" v="Vedaberget" />
		<tag k="natural" v="slope" />
		<tag k="place" v="locality" />
		<tag k="ssr:stedsnr" v="357603" />
	</node>
	<node id="-7107" lat="59.142086112" lon="5.79496665935">
		<tag k="fixme" v="consider natural=peak for the most distinct mountains in the district" />
		<tag k="name" v="Lastefjellet" />
		<tag k="natural" v="hill" />
		<tag k="place" v="locality" />
		<tag k="ssr:stedsnr" v="357553" />
	</node>
	<node id="-7090" lat="59.0675611155" lon="5.67066944959">
		<tag k="name" v="Giljeberget" />
		<tag k="natural" v="hill" />
		<tag k="place" v="locality" />
		<tag k="ssr:stedsnr" v="487838" />
	</node>
	<node id="-9129" lat="59.2607166624" lon="6.01012499952">
		<tag k="fixme" v="consider natural=peak for the most distinct mountains in the district" />
		<tag k="name" v="Medåsen" />
		<tag k="natural" v="hill" />
		<tag k="place" v="locality" />
		<tag k="ssr:stedsnr" v="605442" />
	</node>
	<node id="-9128" lat="59.2682416641" lon="5.96101389234">
		<tag k="fixme" v="consider natural=peak for the most distinct mountains in the district" />
		<tag k="name" v="Skafjellet" />
		<tag k="natural" v="hill" />
		<tag k="place" v="locality" />
		<tag k="ssr:stedsnr" v="605440" />
	</node>
	<node id="-9126" lat="59.257974999" lon="6.04748054852">
		<tag k="fixme" v="consider natural=peak for the most distinct mountains in the district" />
		<tag k="name" v="Rabnefjell" />
		<tag k="natural" v="hill" />
		<tag k="place" v="locality" />
		<tag k="ssr:stedsnr" v="605406" />
	</node>
	<node id="-9125" lat="59.1155083295" lon="5.7269138874">
		<tag k="name" v="Århei" />
		<tag k="natural" v="hill" />
		<tag k="place" v="locality" />
		<tag k="ssr:stedsnr" v="600936" />
	</node>
	<node id="-7076" lat="59.1077833352" lon="5.75711111157">
		<tag k="alt_name" v="Longafjellet" />
		<tag k="fixme" v="consider natural=peak for the most distinct mountains in the district" />
		<tag k="name" v="Langafjellet" />
		<tag k="natural" v="hill" />
		<tag k="place" v="locality" />
		<tag k="ssr:stedsnr" v="487337" />
	</node>
	<node id="-9123" lat="59.114477779" lon="5.76203611388">
		<tag k="fixme" v="consider natural=peak for the most distinct mountains in the district" />
		<tag k="name" v="Husaråsen" />
		<tag k="natural" v="hill" />
		<tag k="place" v="locality" />
		<tag k="ssr:stedsnr" v="600880" />
	</node>
	<node id="-9122" lat="59.1333805514" lon="5.58924165842">
		<tag k="name" v="Varmekrok" />
		<tag k="natural" v="hill" />
		<tag k="place" v="locality" />
		<tag k="ssr:stedsnr" v="600866" />
	</node>
	<node id="-9121" lat="59.1031138855" lon="5.85470833552">
		<tag k="name" v="Jonaraua" />
		<tag k="natural" v="hill" />
		<tag k="place" v="locality" />
		<tag k="ssr:stedsnr" v="599984" />
	</node>
	<node id="-9118" lat="59.0800055556" lon="5.82654999763">
		<tag k="name" v="Kvidafjellet" />
		<tag k="natural" v="hill" />
		<tag k="place" v="locality" />
		<tag k="ssr:stedsnr" v="599973" />
	</node>
	<node id="-9116" lat="59.0381916659" lon="5.65204999262">
		<tag k="name" v="Vakthus" />
		<tag k="natural" v="hill" />
		<tag k="place" v="locality" />
		<tag k="ssr:stedsnr" v="599536" />
	</node>
	<node id="-9112" lat="59.1232666698" lon="5.92190555502">
		<tag k="name" v="Svehaug" />
		<tag k="natural" v="hill" />
		<tag k="place" v="locality" />
		<tag k="ssr:stedsnr" v="599297" />
	</node>
	<node id="-9111" lat="59.1267055546" lon="5.91831111844">
		<tag k="fixme" v="consider natural=peak for the most distinct mountains in the district" />
		<tag k="name" v="Niben" />
		<tag k="natural" v="hill" />
		<tag k="place" v="locality" />
		<tag k="ssr:stedsnr" v="599274" />
	</node>
	<node id="-7059" lat="58.9070752256" lon="5.7184169768">
		<tag k="name" v="Jåttånuten" />
		<tag k="natural" v="hill" />
		<tag k="place" v="locality" />
		<tag k="ssr:stedsnr" v="486969" />
	</node>
	<node id="-9104" lat="59.0711777773" lon="5.76215555216">
		<tag k="name" v="Mortaberget" />
		<tag k="natural" v="slope" />
		<tag k="place" v="locality" />
		<tag k="ssr:stedsnr" v="598337" />
	</node>
	<node id="-9103" lat="59.0714638892" lon="5.76787221485">
		<tag k="name" v="Blindå" />
		<tag k="natural" v="hill" />
		<tag k="place" v="locality" />
		<tag k="ssr:stedsnr" v="598336" />
	</node>
	<node id="-7052" lat="59.0815916639" lon="5.82186944245">
		<tag k="name" v="Ramshaug" />
		<tag k="natural" v="hill" />
		<tag k="place" v="locality" />
		<tag k="ssr:stedsnr" v="486823" />
	</node>
	<node id="-9098" lat="59.078891668" lon="5.63032499557">
		<tag k="name" v="Flunderhaug" />
		<tag k="natural" v="hill" />
		<tag k="place" v="locality" />
		<tag k="ssr:stedsnr" v="598065" />
	</node>
	<node id="-9097" lat="59.0895944404" lon="5.62960554919">
		<tag k="name" v="Kollberg" />
		<tag k="natural" v="hill" />
		<tag k="place" v="locality" />
		<tag k="ssr:stedsnr" v="598063" />
	</node>
	<node id="-7046" lat="59.1766111143" lon="5.82963055265">
		<tag k="name" v="Vestbøvarden" />
		<tag k="natural" v="hill" />
		<tag k="place" v="locality" />
		<tag k="ssr:stedsnr" v="486338" />
	</node>
	<node id="-9089" lat="59.2873722245" lon="6.05917499872">
		<tag k="fixme" v="multiple name tags, choose one and add the other to alt_name; consider natural=peak for the most distinct mountains in the district" />
		<tag k="name" v="Lygaren;Søre Bandåsen" />
		<tag k="natural" v="hill" />
		<tag k="place" v="locality" />
		<tag k="ssr:stedsnr" v="587564" />
	</node>
	<node id="-7037" lat="59.2668416702" lon="6.09404999603">
		<tag k="name" v="Øvre Haugsmyrhaugen" />
		<tag k="natural" v="hill" />
		<tag k="place" v="locality" />
		<tag k="ssr:stedsnr" v="484762" />
	</node>
	<node id="-7033" lat="59.2553055572" lon="5.98748888573">
		<tag k="fixme" v="consider natural=peak for the most distinct mountains in the district" />
		<tag k="name" v="Krogamyrane" />
		<tag k="natural" v="hill" />
		<tag k="place" v="locality" />
		<tag k="ssr:stedsnr" v="484423" />
	</node>
	<node id="-7030" lat="59.267794446" lon="6.04620833385">
		<tag k="fixme" v="consider natural=peak for the most distinct mountains in the district" />
		<tag k="name" v="Hudalsfjellet" />
		<tag k="natural" v="hill" />
		<tag k="place" v="locality" />
		<tag k="ssr:stedsnr" v="484365" />
	</node>
	<node id="-9066" lat="58.9092722192" lon="5.7144916738">
		<tag k="name" v="Varaberget" />
		<tag k="natural" v="hill" />
		<tag k="place" v="locality" />
		<tag k="ssr:stedsnr" v="584780" />
	</node>
	<node id="-7016" lat="59.1109138855" lon="5.75436945302">
		<tag k="fixme" v="consider natural=peak for the most distinct mountains in the district" />
		<tag k="name" v="Grøneklompen" />
		<tag k="natural" v="hill" />
		<tag k="place" v="locality" />
		<tag k="ssr:stedsnr" v="479886" />
	</node>
	<node id="-7015" lat="59.1239916631" lon="5.65362222708">
		<tag k="name" v="Storhagen" />
		<tag k="natural" v="hill" />
		<tag k="place" v="locality" />
		<tag k="ssr:stedsnr" v="479624" />
	</node>
	<node id="-7008" lat="58.9566611127" lon="5.75159444615">
		<tag k="name" v="Varden" />
		<tag k="natural" v="hill" />
		<tag k="place" v="locality" />
		<tag k="ssr:stedsnr" v="327027" />
	</node>
	<node id="-7003" lat="58.9572444407" lon="5.72815555486">
		<tag k="name" v="Vålandshaugen" />
		<tag k="natural" v="hill" />
		<tag k="old_name" v="Vaalands-haugen" />
		<tag k="place" v="locality" />
		<tag k="ssr:stedsnr" v="327003" />
	</node>
	<node id="-9050" lat="58.970019446" lon="5.6286277789">
		<tag k="alt_name" v="Dykkjelhaugen" />
		<tag k="name" v="Dykjelhaugen" />
		<tag k="natural" v="hill" />
		<tag k="place" v="locality" />
		<tag k="ssr:stedsnr" v="569311" />
	</node>
	<node id="-7000" lat="59.0541194445" lon="5.64308333527">
		<tag k="name" v="Århusbakken" />
		<tag k="natural" v="hill" />
		<tag k="place" v="locality" />
		<tag k="ssr:stedsnr" v="478538" />
	</node>
	<node id="-6997" lat="59.1411388915" lon="5.84109167281">
		<tag k="fixme" v="consider natural=peak for the most distinct mountains in the district" />
		<tag k="name" v="Hausen" />
		<tag k="natural" v="hill" />
		<tag k="place" v="locality" />
		<tag k="ssr:stedsnr" v="478338" />
	</node>
	<node id="-6996" lat="59.1946444455" lon="5.82141666421">
		<tag k="name" v="Bukkevarden" />
		<tag k="natural" v="hill" />
		<tag k="place" v="locality" />
		<tag k="ssr:stedsnr" v="478229" />
	</node>
	<node id="-6995" lat="59.1377833312" lon="5.92128332483">
		<tag k="name" v="Kodås" />
		<tag k="natural" v="hill" />
		<tag k="place" v="locality" />
		<tag k="ssr:stedsnr" v="478280" />
	</node>
	<node id="-6992" lat="59.1729777794" lon="5.77293889303">
		<tag k="name" v="Ulvajuvet" />
		<tag k="natural" v="gorge" />
		<tag k="ssr:stedsnr" v="478109" />
	</node>
	<node id="-6990" lat="59.0966416634" lon="5.70801388588">
		<tag k="fixme" v="consider natural=peak for the most distinct mountains in the district" />
		<tag k="name" v="Fløyen" />
		<tag k="natural" v="hill" />
		<tag k="ssr:stedsnr" v="477094" />
	</node>
	<node id="-6989" lat="59.1036388873" lon="5.70673054813">
		<tag k="fixme" v="consider natural=peak for the most distinct mountains in the district" />
		<tag k="name" v="Berjefjellet" />
		<tag k="natural" v="hill" />
		<tag k="place" v="locality" />
		<tag k="ssr:stedsnr" v="477027" />
	</node>
	<node id="-6987" lat="59.0388166672" lon="5.72823332584">
		<tag k="fixme" v="consider natural=peak for the most distinct mountains in the district" />
		<tag k="name" v="Skorphella" />
		<tag k="natural" v="hill" />
		<tag k="place" v="locality" />
		<tag k="ssr:stedsnr" v="476432" />
	</node>
	<node id="-9022" lat="59.1039277778" lon="5.65263889165">
		<tag k="name" v="Litladalen" />
		<tag k="natural" v="valley" />
		<tag k="place" v="locality" />
		<tag k="ssr:stedsnr" v="548349" />
	</node>
	<node id="-6966" lat="59.2828666681" lon="5.94813888879">
		<tag k="name" v="Storaflådå" />
		<tag k="place" v="locality" />
		<tag k="ssr:stedsnr" v="302476" />
	</node>
	<node id="-6964" lat="59.2546777762" lon="5.97098054833">
		<tag k="name" v="Beinvedlia" />
		<tag k="natural" v="slope" />
		<tag k="place" v="locality" />
		<tag k="ssr:stedsnr" v="302455" />
	</node>
	<node id="-6963" lat="59.2561027785" lon="5.94425000532">
		<tag k="name" v="Bygdarlia" />
		<tag k="natural" v="slope" />
		<tag k="place" v="locality" />
		<tag k="ssr:stedsnr" v="302452" />
	</node>
	<node id="-6962" lat="59.2635166692" lon="6.038277786">
		<tag k="name" v="Grasdalen" />
		<tag k="natural" v="valley" />
		<tag k="place" v="locality" />
		<tag k="ssr:stedsnr" v="302412" />
	</node>
	<node id="-6948" lat="59.2830749998" lon="5.97173888603">
		<tag k="fixme" v="consider natural=peak for the most distinct mountains in the district" />
		<tag k="name" v="Ladberget" />
		<tag k="natural" v="hill" />
		<tag k="place" v="locality" />
		<tag k="ssr:stedsnr" v="464688" />
	</node>
	<node id="-8982" lat="59.2562916674" lon="5.79789444614">
		<tag k="name" v="Skjerhaugane" />
		<tag k="natural" v="hill" />
		<tag k="place" v="locality" />
		<tag k="ssr:stedsnr" v="545700" />
	</node>
	<node id="-8981" lat="59.2427000001" lon="6.01056388488">
		<tag k="name" v="Forekammen" />
		<tag k="place" v="locality" />
		<tag k="ssr:stedsnr" v="545635" />
	</node>
	<node id="-8979" lat="59.2793527741" lon="6.03129999537">
		<tag k="name" v="Skaret" />
		<tag k="natural" v="valley" />
		<tag k="place" v="locality" />
		<tag k="ssr:stedsnr" v="545444" />
	</node>
	<node id="-8978" lat="59.2909416653" lon="6.04304166335">
		<tag k="fixme" v="consider natural=peak for the most distinct mountains in the district" />
		<tag k="name" v="Fagerskolt" />
		<tag k="natural" v="hill" />
		<tag k="place" v="locality" />
		<tag k="ssr:stedsnr" v="545443" />
	</node>
	<node id="-8977" lat="59.2847722246" lon="6.01797222459">
		<tag k="fixme" v="consider natural=peak for the most distinct mountains in the district" />
		<tag k="name" v="Geidaberget" />
		<tag k="natural" v="hill" />
		<tag k="place" v="locality" />
		<tag k="ssr:stedsnr" v="545435" />
	</node>
	<node id="-8975" lat="59.2465277766" lon="6.05229444894">
		<tag k="name" v="Høgehaug" />
		<tag k="natural" v="hill" />
		<tag k="place" v="locality" />
		<tag k="ssr:stedsnr" v="545365" />
	</node>
	<node id="-8972" lat="59.1152138885" lon="5.75343610522">
		<tag k="name" v="Øvre Lyngdalen" />
		<tag k="natural" v="valley" />
		<tag k="place" v="locality" />
		<tag k="ssr:stedsnr" v="539867" />
	</node>
	<node id="-8968" lat="59.043672225" lon="5.63567778302">
		<tag k="name" v="Norvarden" />
		<tag k="natural" v="hill" />
		<tag k="place" v="locality" />
		<tag k="ssr:stedsnr" v="539509" />
	</node>
	<node id="-6919" lat="58.8961611116" lon="5.73466944266">
		<tag k="name" v="Nådlandsberget" />
		<tag k="natural" v="hill" />
		<tag k="place" v="locality" />
		<tag k="ssr:stedsnr" v="449201" />
	</node>
	<node id="-6916" lat="58.9243361067" lon="5.71533611002">
		<tag k="name" v="Leite" />
		<tag k="natural" v="slope" />
		<tag k="place" v="locality" />
		<tag k="ssr:stedsnr" v="449154" />
	</node>
	<node id="-6911" lat="59.2583999982" lon="6.03055000113">
		<tag k="alt_name" v="Flådaheia" />
		<tag k="name" v="Flotaheia" />
		<tag k="natural" v="hill" />
		<tag k="place" v="locality" />
		<tag k="ssr:stedsnr" v="245660" />
	</node>
	<node id="-6909" lat="59.1694305539" lon="5.85514443604">
		<tag k="name" v="Nådedalen" />
		<tag k="natural" v="valley" />
		<tag k="place" v="locality" />
		<tag k="ssr:stedsnr" v="244902" />
	</node>
	<node id="-8956" lat="59.1030138876" lon="5.60138055329">
		<tag k="name" v="Bakkafjellet" />
		<tag k="natural" v="hill" />
		<tag k="place" v="locality" />
		<tag k="ssr:stedsnr" v="538330" />
	</node>
	<node id="-6907" lat="59.0945833354" lon="5.7055194356">
		<tag k="name" v="Vikefjellet" />
		<tag k="place" v="locality" />
		<tag k="ssr:stedsnr" v="244862" />
	</node>
	<node id="-8954" lat="59.1593500014" lon="5.98251388429">
		<tag k="fixme" v="consider natural=peak for the most distinct mountains in the district" />
		<tag k="name" v="Lauvåsen" />
		<tag k="natural" v="hill" />
		<tag k="place" v="locality" />
		<tag k="ssr:stedsnr" v="538257" />
	</node>
	<node id="-8952" lat="59.0778194473" lon="5.65311111661">
		<tag k="name" v="Kleivane" />
		<tag k="natural" v="hill" />
		<tag k="place" v="locality" />
		<tag k="ssr:stedsnr" v="538085" />
	</node>
	<node id="-6903" lat="59.0394833322" lon="5.63899443595">
		<tag k="fixme" v="consider natural=peak for the most distinct mountains in the district" />
		<tag k="name" v="Brufjellet" />
		<tag k="natural" v="hill" />
		<tag k="place" v="locality" />
		<tag k="ssr:stedsnr" v="244805" />
	</node>
	<node id="-8950" lat="59.0427916688" lon="5.75115555881">
		<tag k="fixme" v="consider natural=peak for the most distinct mountains in the district" />
		<tag k="name" v="Brenningstua" />
		<tag k="natural" v="hill" />
		<tag k="place" v="locality" />
		<tag k="ssr:stedsnr" v="537457" />
	</node>
	<node id="-8949" lat="59.0396638884" lon="5.75980277859">
		<tag k="name" v="Munken" />
		<tag k="natural" v="hill" />
		<tag k="place" v="locality" />
		<tag k="ssr:stedsnr" v="537452" />
	</node>
	<node id="-6883" lat="59.2467444464" lon="5.99152500715">
		<tag k="name" v="Nygårdslia" />
		<tag k="natural" v="slope" />
		<tag k="place" v="locality" />
		<tag k="ssr:stedsnr" v="242617" />
	</node>
	<node id="-6881" lat="59.2647416705" lon="6.09414166622">
		<tag k="name" v="Øvre Haugsmyrhaugen" />
		<tag k="natural" v="hill" />
		<tag k="place" v="locality" />
		<tag k="ssr:stedsnr" v="242752" />
	</node>
	<node id="-6874" lat="59.2689888898" lon="6.02681110616">
		<tag k="name" v="Smalabakkane" />
		<tag k="natural" v="slope" />
		<tag k="place" v="locality" />
		<tag k="ssr:stedsnr" v="242406" />
	</node>
	<node id="-6873" lat="59.2616777752" lon="6.03324166735">
		<tag k="name" v="Flådaskaret" />
		<tag k="natural" v="valley" />
		<tag k="place" v="locality" />
		<tag k="ssr:stedsnr" v="242402" />
	</node>
	<node id="-6872" lat="59.2823472208" lon="6.07304444267">
		<tag k="name" v="Gjerdet" />
		<tag k="natural" v="slope" />
		<tag k="place" v="locality" />
		<tag k="ssr:stedsnr" v="241002" />
	</node>
	<node id="-8915" lat="58.9562750017" lon="5.64263611773">
		<tag k="name" v="Persrudlå" />
		<tag k="place" v="locality" />
		<tag k="ssr:stedsnr" v="524494" />
	</node>
	<node id="-8914" lat="58.9392083374" lon="5.6438083342">
		<tag k="name" v="Vassberget" />
		<tag k="natural" v="hill" />
		<tag k="place" v="locality" />
		<tag k="ssr:stedsnr" v="524482" />
	</node>
	<node id="-6862" lat="58.947719441" lon="5.62651112012">
		<tag k="name" v="Hestnes" />
		<tag k="natural" v="hill" />
		<tag k="place" v="locality" />
		<tag k="ssr:stedsnr" v="221902" />
	</node>
	<node id="-8907" lat="59.1856999976" lon="5.96026111498">
		<tag k="name" v="Skrella" />
		<tag k="natural" v="hill" />
		<tag k="place" v="locality" />
		<tag k="ssr:stedsnr" v="427889" />
	</node>
	<node id="-6857" lat="59.1135583318" lon="5.82154166315">
		<tag k="name" v="Skifthaug" />
		<tag k="natural" v="hill" />
		<tag k="place" v="locality" />
		<tag k="ssr:stedsnr" v="297941" />
	</node>
	<node id="-6856" lat="59.1167888921" lon="5.7596333375">
		<tag k="fixme" v="consider natural=peak for the most distinct mountains in the district" />
		<tag k="name" v="Stølsåsen" />
		<tag k="natural" v="hill" />
		<tag k="place" v="locality" />
		<tag k="ssr:stedsnr" v="297875" />
	</node>
	<node id="-6855" lat="59.123450001" lon="5.5958583411">
		<tag k="fixme" v="consider natural=peak for the most distinct mountains in the district" />
		<tag k="name" v="Nodaberget" />
		<tag k="natural" v="hill" />
		<tag k="place" v="locality" />
		<tag k="ssr:stedsnr" v="297854" />
	</node>
	<node id="-6851" lat="59.1728138878" lon="5.78410832673">
		<tag k="name" v="Høgestøl" />
		<tag k="natural" v="hill" />
		<tag k="place" v="locality" />
		<tag k="ssr:stedsnr" v="297156" />
	</node>
	<node id="-6848" lat="59.0944583357" lon="5.72214443657">
		<tag k="fixme" v="consider natural=peak for the most distinct mountains in the district" />
		<tag k="name" v="Glansvollen" />
		<tag k="natural" v="hill" />
		<tag k="place" v="locality" />
		<tag k="ssr:stedsnr" v="296983" />
	</node>
	<node id="-6847" lat="59.0802555524" lon="5.78121944631">
		<tag k="name" v="Pigalhaugen" />
		<tag k="natural" v="hill" />
		<tag k="place" v="locality" />
		<tag k="ssr:stedsnr" v="296968" />
	</node>
	<node id="-8894" lat="59.0824000006" lon="5.61338610723">
		<tag k="alt_name" v="Stigsafjellet" />
		<tag k="fixme" v="consider natural=peak for the most distinct mountains in the district" />
		<tag k="name" v="Stegafjellet" />
		<tag k="natural" v="hill" />
		<tag k="place" v="locality" />
		<tag k="ssr:stedsnr" v="426868" />
	</node>
	<node id="-6845" lat="59.1440916628" lon="5.92503889448">
		<tag k="name" v="Ørnakula" />
		<tag k="natural" v="hill" />
		<tag k="place" v="locality" />
		<tag k="ssr:stedsnr" v="296615" />
	</node>
	<node id="-6844" lat="59.0693972252" lon="5.67965832897">
		<tag k="name" v="Svinhedler" />
		<tag k="natural" v="hill" />
		<tag k="place" v="locality" />
		<tag k="ssr:stedsnr" v="296585" />
	</node>
	<node id="-6841" lat="59.1607222264" lon="5.84847221687">
		<tag k="name" v="Veslelia" />
		<tag k="natural" v="slope" />
		<tag k="place" v="locality" />
		<tag k="ssr:stedsnr" v="296552" />
	</node>
	<node id="-6840" lat="59.1232138912" lon="5.89219445011">
		<tag k="fixme" v="consider natural=peak for the most distinct mountains in the district" />
		<tag k="name" v="Nodafjellet" />
		<tag k="natural" v="hill" />
		<tag k="place" v="locality" />
		<tag k="ssr:stedsnr" v="296297" />
	</node>
	<node id="-6839" lat="59.2011194443" lon="5.95401944786">
		<tag k="name" v="Stranddal" />
		<tag k="natural" v="valley" />
		<tag k="place" v="locality" />
		<tag k="ssr:stedsnr" v="296293" />
	</node>
	<node id="-6838" lat="59.188080556" lon="5.9502083403">
		<tag k="fixme" v="consider natural=peak for the most distinct mountains in the district" />
		<tag k="name" v="Linnåsen" />
		<tag k="natural" v="hill" />
		<tag k="place" v="locality" />
		<tag k="ssr:stedsnr" v="296285" />
	</node>
	<node id="-8885" lat="59.1195250033" lon="5.6648749961">
		<tag k="fixme" v="consider natural=peak for the most distinct mountains in the district" />
		<tag k="name" v="Lysefjellet" />
		<tag k="natural" v="hill" />
		<tag k="place" v="locality" />
		<tag k="ssr:stedsnr" v="426345" />
	</node>
	<node id="-6835" lat="59.1735583333" lon="5.82060833074">
		<tag k="name" v="Hauabrekka" />
		<tag k="natural" v="hill" />
		<tag k="place" v="locality" />
		<tag k="ssr:stedsnr" v="296134" />
	</node>
	<node id="-6832" lat="59.1852694459" lon="5.96177222317">
		<tag k="name" v="Fjellsenden" />
		<tag k="natural" v="cliff" />
		<tag k="ssr:stedsnr" v="296035" />
	</node>
	<node id="-6830" lat="58.9407388916" lon="5.74324166129">
		<tag k="name" v="Eikeberget" />
		<tag k="natural" v="hill" />
		<tag k="place" v="locality" />
		<tag k="ssr:stedsnr" v="206184" />
	</node>
	<node id="-6829" lat="58.9716388854" lon="5.70919167356">
		<tag k="name" v="Gramstadhaugen" />
		<tag k="natural" v="hill" />
		<tag k="place" v="locality" />
		<tag k="ssr:stedsnr" v="206173" />
	</node>
	<node id="-6824" lat="59.0761305585" lon="5.73490833439">
		<tag k="fixme" v="consider natural=peak for the most distinct mountains in the district" />
		<tag k="name" v="Vindeim" />
		<tag k="natural" v="hill" />
		<tag k="place" v="locality" />
		<tag k="ssr:stedsnr" v="295365" />
	</node>
	<node id="-6821" lat="59.0362805553" lon="5.69698055507">
		<tag k="name" v="Varaberget" />
		<tag k="natural" v="hill" />
		<tag k="place" v="locality" />
		<tag k="ssr:stedsnr" v="295296" />
	</node>
	<node id="-6820" lat="59.1328166626" lon="5.94194444352">
		<tag k="name" v="Asalfjellet" />
		<tag k="natural" v="hill" />
		<tag k="place" v="locality" />
		<tag k="ssr:stedsnr" v="295290" />
	</node>
	<node id="-6819" lat="59.1077777752" lon="5.71260555555">
		<tag k="name" v="Låvahaugen" />
		<tag k="natural" v="hill" />
		<tag k="place" v="locality" />
		<tag k="ssr:stedsnr" v="295037" />
	</node>
	<node id="-8866" lat="59.2378861099" lon="6.00521388168">
		<tag k="name" v="Øykjatona" />
		<tag k="place" v="locality" />
		<tag k="ssr:stedsnr" v="424664" />
	</node>
	<node id="-8864" lat="59.2384472203" lon="6.03084165998">
		<tag k="fixme" v="consider natural=peak for the most distinct mountains in the district" />
		<tag k="name" v="Hamrafjellet" />
		<tag k="natural" v="hill" />
		<tag k="place" v="locality" />
		<tag k="ssr:stedsnr" v="424656" />
	</node>
	<node id="-8861" lat="59.2835388843" lon="6.02296110291">
		<tag k="name" v="Svartups" />
		<tag k="natural" v="cliff" />
		<tag k="ssr:stedsnr" v="424442" />
	</node>
	<node id="-8855" lat="59.0851222204" lon="5.77853056429">
		<tag k="name" v="Grønhaug" />
		<tag k="natural" v="hill" />
		<tag k="place" v="locality" />
		<tag k="ssr:stedsnr" v="418968" />
	</node>
	<node id="-8847" lat="59.1687305539" lon="5.82889999437">
		<tag k="name" v="Falkasete" />
		<tag k="natural" v="hill" />
		<tag k="place" v="locality" />
		<tag k="ssr:stedsnr" v="418246" />
	</node>
	<node id="-6794" lat="58.9516666676" lon="5.73120833801">
		<tag k="name" v="Hillevågsdalen" />
		<tag k="natural" v="valley" />
		<tag k="place" v="locality" />
		<tag k="ssr:stedsnr" v="283929" />
	</node>
	<node id="-8833" lat="59.1615388877" lon="5.96994999999">
		<tag k="name" v="Skansen" />
		<tag k="natural" v="hill" />
		<tag k="place" v="locality" />
		<tag k="ssr:stedsnr" v="417274" />
	</node>
	<node id="-6783" lat="58.9402166629" lon="5.6500416623">
		<tag k="name" v="Sandneshaugen" />
		<tag k="natural" v="slope" />
		<tag k="place" v="locality" />
		<tag k="ssr:stedsnr" v="282958" />
	</node>
	<node id="-6781" lat="58.9679305547" lon="5.61678889395">
		<tag k="name" v="Århaugen" />
		<tag k="natural" v="hill" />
		<tag k="place" v="locality" />
		<tag k="ssr:stedsnr" v="282927" />
	</node>
	<node id="-8828" lat="59.1036833324" lon="5.71593332624">
		<tag k="fixme" v="consider natural=peak for the most distinct mountains in the district" />
		<tag k="name" v="Middagshaugen" />
		<tag k="natural" v="hill" />
		<tag k="place" v="locality" />
		<tag k="ssr:stedsnr" v="417030" />
	</node>
	<node id="-6779" lat="58.8971749966" lon="5.73540555421">
		<tag k="name" v="Kråkevollen" />
		<tag k="natural" v="slope" />
		<tag k="place" v="locality" />
		<tag k="ssr:stedsnr" v="282837" />
	</node>
	<node id="-7273" lat="59.0431249957" lon="5.69063333736">
		<tag k="alt_name" v="Hegraberget" />
		<tag k="name" v="Hegrabergfjellet" />
		<tag k="natural" v="hill" />
		<tag k="place" v="locality" />
		<tag k="ssr:stedsnr" v="668800" />
	</node>
	<node id="-6768" lat="59.2570777821" lon="5.85248888677">
		<tag k="alt_name" v="Fåranibba" />
		<tag k="fixme" v="consider natural=peak for the most distinct mountains in the district" />
		<tag k="name" v="Furanibba" />
		<tag k="natural" v="hill" />
		<tag k="place" v="locality" />
		<tag k="ssr:stedsnr" v="282333" />
	</node>
	<node id="-6764" lat="59.039063893" lon="5.7487527719">
		<tag k="name" v="Kjøringdalen" />
		<tag k="natural" v="valley" />
		<tag k="place" v="locality" />
		<tag k="ssr:stedsnr" v="282209" />
	</node>
	<node id="-8808" lat="58.9017333327" lon="5.71706666244">
		<tag k="name" v="Kisteberget" />
		<tag k="natural" v="hill" />
		<tag k="place" v="locality" />
		<tag k="ssr:stedsnr" v="403731" />
	</node>
	<node id="-8807" lat="58.9610111156" lon="5.61715555608">
		<tag k="name" v="Skredbakk" />
		<tag k="natural" v="slope" />
		<tag k="place" v="locality" />
		<tag k="ssr:stedsnr" v="403585" />
	</node>
	<node id="-6749" lat="59.2356305571" lon="6.01579444905">
		<tag k="name" v="Ramsberget" />
		<tag k="natural" v="hill" />
		<tag k="place" v="locality" />
		<tag k="ssr:stedsnr" v="160678" />
	</node>
	<node id="-6743" lat="58.8927833379" lon="5.71286111907">
		<tag k="name" v="Stokkavassbotn" />
		<tag k="place" v="locality" />
		<tag k="ssr:stedsnr" v="160719" />
	</node>
	<node id="-6735" lat="59.0737777768" lon="5.75040556083">
		<tag k="fixme" v="multiple name tags, choose one and add the other to alt_name; consider natural=peak for the most distinct mountains in the district" />
		<tag k="name" v="Rennesøyhornet;Hodnenuten" />
		<tag k="natural" v="hill" />
		<tag k="ssr:stedsnr" v="271313" />
	</node>
	<node id="-8779" lat="59.242405557" lon="6.06323332866">
		<tag k="alt_name" v="Saberget" />
		<tag k="name" v="Sagberget" />
		<tag k="natural" v="hill" />
		<tag k="place" v="locality" />
		<tag k="ssr:stedsnr" v="366978" />
	</node>
	<node id="-8631" lat="59.2372611133" lon="5.8875138947">
		<tag k="alt_name" v="Vedås" />
		<tag k="fixme" v="consider natural=peak for the most distinct mountains in the district" />
		<tag k="name" v="Vetås" />
		<tag k="natural" v="hill" />
		<tag k="place" v="locality" />
		<tag k="ssr:stedsnr" v="305994" />
	</node>
	<node id="-8776" lat="59.1825555518" lon="5.86018888463">
		<tag k="fixme" v="consider natural=peak for the most distinct mountains in the district" />
		<tag k="name" v="Lausnesåsen" />
		<tag k="natural" v="hill" />
		<tag k="place" v="locality" />
		<tag k="ssr:stedsnr" v="366855" />
	</node>
	<node id="-6719" lat="58.9120111125" lon="5.71278610859">
		<tag k="name" v="Jåttåhaugen" />
		<tag k="natural" v="hill" />
		<tag k="place" v="locality" />
		<tag k="ssr:stedsnr" v="267779" />
	</node>
	<node id="-6716" lat="58.9532055581" lon="5.685930553">
		<tag k="name" v="Molkeholen" />
		<tag k="natural" v="hill" />
		<tag k="place" v="locality" />
		<tag k="ssr:stedsnr" v="266320" />
	</node>
	<node id="-8759" lat="59.0856638321" lon="5.58269186814">
		<tag k="fixme" v="consider natural=peak for the most distinct mountains in the district" />
		<tag k="name" v="Storevarden" />
		<tag k="natural" v="hill" />
		<tag k="place" v="locality" />
		<tag k="ssr:stedsnr" v="365883" />
	</node>
	<node id="-6706" lat="59.1665777768" lon="5.86242500337">
		<tag k="name" v="Golhaug" />
		<tag k="natural" v="hill" />
		<tag k="place" v="locality" />
		<tag k="ssr:stedsnr" v="128239" />
	</node>
	<node id="-6699" lat="59.111038887" lon="5.82111110271">
		<tag k="name" v="Ringaberg" />
		<tag k="natural" v="hill" />
		<tag k="place" v="locality" />
		<tag k="ssr:stedsnr" v="115936" />
	</node>
	<node id="-6698" lat="59.1175583329" lon="5.7454722309">
		<tag k="fixme" v="consider natural=peak for the most distinct mountains in the district" />
		<tag k="name" v="Ansetevarden" />
		<tag k="natural" v="hill" />
		<tag k="place" v="locality" />
		<tag k="ssr:stedsnr" v="115910" />
	</node>
	<node id="-7260" lat="58.9125972202" lon="5.73396666051">
		<tag k="name" v="Ringaberget" />
		<tag k="natural" v="hill" />
		<tag k="place" v="locality" />
		<tag k="ssr:stedsnr" v="465920" />
	</node>
	<node id="-6692" lat="59.1975194401" lon="5.95418333705">
		<tag k="name" v="Kvednarhaugen" />
		<tag k="natural" v="hill" />
		<tag k="place" v="locality" />
		<tag k="ssr:stedsnr" v="114333" />
	</node>
	<node id="-6691" lat="59.1272000035" lon="5.91688611904">
		<tag k="fixme" v="consider natural=peak for the most distinct mountains in the district" />
		<tag k="name" v="Borgaråsen" />
		<tag k="natural" v="hill" />
		<tag k="place" v="locality" />
		<tag k="ssr:stedsnr" v="114312" />
	</node>
	<node id="-8728" lat="58.9337527765" lon="5.64666110544">
		<tag k="alt_name" v="Madlatuva" />
		<tag k="name" v="Madlatua" />
		<tag k="natural" v="hill" />
		<tag k="place" v="locality" />
		<tag k="ssr:stedsnr" v="365063" />
	</node>
	<node id="-8724" lat="59.2752277774" lon="6.0765694416">
		<tag k="fixme" v="consider natural=peak for the most distinct mountains in the district" />
		<tag k="name" v="Kjøreberg" />
		<tag k="natural" v="hill" />
		<tag k="place" v="locality" />
		<tag k="ssr:stedsnr" v="363919" />
	</node>
	<node id="-8723" lat="59.2398555531" lon="6.01540832729">
		<tag k="name" v="Kuhaugen" />
		<tag k="natural" v="hill" />
		<tag k="place" v="locality" />
		<tag k="ssr:stedsnr" v="363632" />
	</node>
	<node id="-8721" lat="59.244911109" lon="5.97831944761">
		<tag k="fixme" v="consider natural=peak for the most distinct mountains in the district" />
		<tag k="name" v="Karifjellet" />
		<tag k="natural" v="hill" />
		<tag k="place" v="locality" />
		<tag k="ssr:stedsnr" v="363594" />
	</node>
	<node id="-8716" lat="59.2866277796" lon="6.01231110292">
		<tag k="fixme" v="consider natural=peak for the most distinct mountains in the district" />
		<tag k="name" v="Kalltveitfjellet" />
		<tag k="natural" v="hill" />
		<tag k="place" v="locality" />
		<tag k="ssr:stedsnr" v="363418" />
	</node>
	<node id="-8714" lat="59.2529861069" lon="5.97895555092">
		<tag k="name" v="Senaskårane" />
		<tag k="place" v="locality" />
		<tag k="ssr:stedsnr" v="363395" />
	</node>
	<node id="-8713" lat="59.2674666671" lon="6.03619444634">
		<tag k="name" v="Hidleto" />
		<tag k="place" v="locality" />
		<tag k="ssr:stedsnr" v="363352" />
	</node>
	<node id="-8709" lat="59.0990555574" lon="5.72954721974">
		<tag k="name" v="Øksafallet" />
		<tag k="natural" v="hill" />
		<tag k="place" v="locality" />
		<tag k="ssr:stedsnr" v="357984" />
	</node>
	<node id="-8708" lat="59.091594448" lon="5.76562778384">
		<tag k="name" v="Godalen" />
		<tag k="natural" v="valley" />
		<tag k="place" v="locality" />
		<tag k="ssr:stedsnr" v="357978" />
	</node>
	<node id="-6655" lat="59.1370666657" lon="5.93164999523">
		<tag k="fixme" v="consider natural=peak for the most distinct mountains in the district" />
		<tag k="name" v="Revåsen" />
		<tag k="natural" v="hill" />
		<tag k="place" v="locality" />
		<tag k="ssr:stedsnr" v="244600" />
	</node>
	<node id="-8702" lat="59.1399611114" lon="5.92327499239">
		<tag k="fixme" v="consider natural=peak for the most distinct mountains in the district" />
		<tag k="name" v="Åsen" />
		<tag k="natural" v="hill" />
		<tag k="place" v="locality" />
		<tag k="ssr:stedsnr" v="357307" />
	</node>
	<node id="-8959" lat="59.1827444414" lon="5.83351944602">
		<tag k="fixme" v="consider natural=peak for the most distinct mountains in the district" />
		<tag k="name" v="Kodnarkleivfjellet" />
		<tag k="natural" v="hill" />
		<tag k="place" v="locality" />
		<tag k="ssr:stedsnr" v="539227" />
	</node>
	<node id="-8696" lat="59.1050333292" lon="5.64863889416">
		<tag k="name" v="Hølikk" />
		<tag k="natural" v="cliff" />
		<tag k="ssr:stedsnr" v="357199" />
	</node>
	<node id="-6646" lat="59.1144611084" lon="5.63193888324">
		<tag k="name" v="Skafjellet" />
		<tag k="natural" v="hill" />
		<tag k="place" v="locality" />
		<tag k="ssr:stedsnr" v="244377" />
	</node>
	<node id="-8690" lat="59.1181194405" lon="5.6288472297">
		<tag k="fixme" v="consider natural=peak for the most distinct mountains in the district" />
		<tag k="name" v="Breivoll" />
		<tag k="natural" v="hill" />
		<tag k="place" v="locality" />
		<tag k="ssr:stedsnr" v="357040" />
	</node>
	<node id="-8687" lat="59.1978000029" lon="5.9451027824">
		<tag k="name" v="Vassdal" />
		<tag k="natural" v="valley" />
		<tag k="place" v="locality" />
		<tag k="ssr:stedsnr" v="356320" />
	</node>
	<node id="-8685" lat="59.1120583375" lon="5.70032778137">
		<tag k="name" v="Spa" />
		<tag k="place" v="locality" />
		<tag k="ssr:stedsnr" v="356026" />
	</node>
	<node id="-6634" lat="59.2614861134" lon="5.79270277576">
		<tag k="name" v="Halvarsberget" />
		<tag k="natural" v="hill" />
		<tag k="place" v="locality" />
		<tag k="ssr:stedsnr" v="242680" />
	</node>
	<node id="-6633" lat="59.2568888884" lon="6.06578888486">
		<tag k="name" v="Hammaren" />
		<tag k="natural" v="cliff" />
		<tag k="ssr:stedsnr" v="242718" />
	</node>
	<node id="-6632" lat="59.2485944462" lon="6.00123888997">
		<tag k="name" v="Fåladalen" />
		<tag k="natural" v="valley" />
		<tag k="place" v="locality" />
		<tag k="ssr:stedsnr" v="242627" />
	</node>
	<node id="-6629" lat="59.2320805575" lon="5.84898889623">
		<tag k="fixme" v="consider natural=peak for the most distinct mountains in the district" />
		<tag k="name" v="Helgøyåsen" />
		<tag k="natural" v="hill" />
		<tag k="place" v="locality" />
		<tag k="ssr:stedsnr" v="242533" />
	</node>
	<node id="-6625" lat="59.2534583365" lon="5.94031110846">
		<tag k="name" v="Niben" />
		<tag k="natural" v="cliff" />
		<tag k="ssr:stedsnr" v="242395" />
	</node>
	<node id="-8613" lat="59.2684500036" lon="5.93087500645">
		<tag k="fixme" v="consider natural=peak for the most distinct mountains in the district" />
		<tag k="name" v="Hesthagen" />
		<tag k="natural" v="hill" />
		<tag k="place" v="locality" />
		<tag k="ssr:stedsnr" v="305634" />
	</node>
	<node id="-6619" lat="59.284524997" lon="6.05627500087">
		<tag k="alt_name" v="Træ" />
		<tag k="name" v="Trædet" />
		<tag k="place" v="locality" />
		<tag k="ssr:stedsnr" v="63604" />
	</node>
	<node id="-6617" lat="59.2605638918" lon="6.06620833338">
		<tag k="name" v="Fjellsenden" />
		<tag k="place" v="locality" />
		<tag k="ssr:stedsnr" v="60758" />
	</node>
	<node id="-8662" lat="58.9838083313" lon="5.66053611463">
		<tag k="name" v="Rudlå" />
		<tag k="natural" v="hill" />
		<tag k="place" v="locality" />
		<tag k="ssr:stedsnr" v="342935" />
	</node>
	<node id="-6613" lat="59.1194194467" lon="5.90640000219">
		<tag k="name" v="Ubårdalen" />
		<tag k="natural" v="valley" />
		<tag k="place" v="locality" />
		<tag k="ssr:stedsnr" v="54767" />
	</node>
	<node id="-6608" lat="59.1146861141" lon="5.63811667368">
		<tag k="fixme" v="consider natural=peak for the most distinct mountains in the district" />
		<tag k="name" v="Blåberfjellet" />
		<tag k="natural" v="hill" />
		<tag k="place" v="locality" />
		<tag k="ssr:stedsnr" v="54215" />
	</node>
	<node id="-6603" lat="59.0731777802" lon="5.73936110298">
		<tag k="name" v="Rosejuvet" />
		<tag k="natural" v="gorge" />
		<tag k="ssr:stedsnr" v="53373" />
	</node>
	<node id="-6600" lat="59.1891305552" lon="5.95741667478">
		<tag k="fixme" v="consider natural=peak for the most distinct mountains in the district" />
		<tag k="name" v="Heståsen" />
		<tag k="natural" v="hill" />
		<tag k="place" v="locality" />
		<tag k="ssr:stedsnr" v="53314" />
	</node>
	<node id="-8638" lat="58.9605888879" lon="5.63932778082">
		<tag k="alt_name" v="Mimmarudlå" />
		<tag k="name" v="Mimmarudla" />
		<tag k="natural" v="hill" />
		<tag k="place" v="locality" />
		<tag k="ssr:stedsnr" v="327162" />
	</node>
	<node id="-6588" lat="59.1077611126" lon="5.6453138821">
		<tag k="fixme" v="consider natural=peak for the most distinct mountains in the district" />
		<tag k="name" v="Kvidakunå" />
		<tag k="natural" v="hill" />
		<tag k="place" v="locality" />
		<tag k="ssr:stedsnr" v="236219" />
	</node>
	<node id="-8633" lat="59.2658999974" lon="6.07852500251">
		<tag k="alt_name" v="Svekodl" />
		<tag k="fixme" v="consider natural=peak for the most distinct mountains in the district" />
		<tag k="name" v="Svidkoll" />
		<tag k="natural" v="hill" />
		<tag k="place" v="locality" />
		<tag k="ssr:stedsnr" v="306541" />
	</node>
	<node id="-6583" lat="59.0886416632" lon="5.77736110512">
		<tag k="name" v="Vågedal" />
		<tag k="natural" v="valley" />
		<tag k="place" v="locality" />
		<tag k="ssr:stedsnr" v="235986" />
	</node>
	<node id="-8626" lat="59.1969388848" lon="5.94778889577">
		<tag k="alt_name" v="Kregjebærhaugane" />
		<tag k="name" v="Krekebærhaugane" />
		<tag k="natural" v="hill" />
		<tag k="place" v="locality" />
		<tag k="ssr:stedsnr" v="305904" />
	</node>
	<node id="-6574" lat="59.1307333291" lon="5.61132778403">
		<tag k="name" v="Storhaug" />
		<tag k="natural" v="hill" />
		<tag k="place" v="locality" />
		<tag k="ssr:stedsnr" v="235672" />
	</node>
	<node id="-6572" lat="59.147177775" lon="5.90140832765">
		<tag k="name" v="Vadlabergåsen" />
		<tag k="natural" v="hill" />
		<tag k="place" v="locality" />
		<tag k="ssr:stedsnr" v="235656" />
	</node>
	<node id="-6571" lat="59.154930559" lon="5.9281944376">
		<tag k="name" v="Sundafjellet" />
		<tag k="natural" v="hill" />
		<tag k="place" v="locality" />
		<tag k="ssr:stedsnr" v="235643" />
	</node>
	<node id="-6565" lat="59.1447250022" lon="5.78105833049">
		<tag k="name" v="Rughola" />
		<tag k="place" v="locality" />
		<tag k="ssr:stedsnr" v="235556" />
	</node>
	<node id="-6561" lat="59.1335111122" lon="5.92039166658">
		<tag k="fixme" v="consider natural=peak for the most distinct mountains in the district" />
		<tag k="name" v="Æråsfjellet" />
		<tag k="natural" v="hill" />
		<tag k="place" v="locality" />
		<tag k="ssr:stedsnr" v="235329" />
	</node>
	<node id="-8607" lat="59.2651500008" lon="5.98402499941">
		<tag k="name" v="Klovsteinsheia" />
		<tag k="natural" v="hill" />
		<tag k="place" v="locality" />
		<tag k="ssr:stedsnr" v="305613" />
	</node>
	<node id="-6535" lat="58.9540361154" lon="5.64178888878">
		<tag k="name" v="Kuleberget" />
		<tag k="natural" v="hill" />
		<tag k="place" v="locality" />
		<tag k="ssr:stedsnr" v="24130" />
	</node>
	<node id="-6534" lat="58.8985722247" lon="5.71807777682">
		<tag k="name" v="Heddå" />
		<tag k="natural" v="hill" />
		<tag k="place" v="locality" />
		<tag k="ssr:stedsnr" v="24232" />
	</node>
	<node id="-8581" lat="59.2489972248" lon="6.03918610354">
		<tag k="name" v="Borgaråsen" />
		<tag k="natural" v="slope" />
		<tag k="place" v="locality" />
		<tag k="ssr:stedsnr" v="302684" />
	</node>
	<node id="-8580" lat="59.2438333357" lon="6.01848056143">
		<tag k="fixme" v="consider natural=peak for the most distinct mountains in the district" />
		<tag k="name" v="Ørnhus" />
		<tag k="natural" v="hill" />
		<tag k="place" v="locality" />
		<tag k="ssr:stedsnr" v="302676" />
	</node>
	<node id="-6528" lat="58.9091722234" lon="5.72014722192">
		<tag k="name" v="Brekka" />
		<tag k="natural" v="slope" />
		<tag k="place" v="locality" />
		<tag k="ssr:stedsnr" v="223848" />
	</node>
	<node id="-6507" lat="58.9951750019" lon="5.717658341">
		<tag k="name" v="Ringaberg" />
		<tag k="natural" v="hill" />
		<tag k="place" v="locality" />
		<tag k="ssr:stedsnr" v="221997" />
	</node>
	<node id="-6504" lat="58.9747861105" lon="5.68430000612">
		<tag k="name" v="Dalen" />
		<tag k="natural" v="valley" />
		<tag k="place" v="locality" />
		<tag k="ssr:stedsnr" v="221973" />
	</node>
	<node id="-8548" lat="59.2370527739" lon="5.98392777095">
		<tag k="alt_name" v="Nygårdsheia" />
		<tag k="fixme" v="consider natural=peak for the most distinct mountains in the district" />
		<tag k="name" v="Nygardsheia" />
		<tag k="natural" v="hill" />
		<tag k="place" v="locality" />
		<tag k="ssr:stedsnr" v="184995" />
	</node>
	<node id="-8538" lat="59.1776916659" lon="5.96937776952">
		<tag k="name" v="Ørnakula" />
		<tag k="natural" v="hill" />
		<tag k="place" v="locality" />
		<tag k="ssr:stedsnr" v="184853" />
	</node>
	<node id="-8535" lat="59.0734749999" lon="5.73816389685">
		<tag k="name" v="Kastdal" />
		<tag k="natural" v="valley" />
		<tag k="place" v="locality" />
		<tag k="ssr:stedsnr" v="184805" />
	</node>
	<node id="-8529" lat="59.2721000023" lon="6.03327499999">
		<tag k="fixme" v="consider natural=peak for the most distinct mountains in the district" />
		<tag k="name" v="Rundsfjellet" />
		<tag k="natural" v="hill" />
		<tag k="place" v="locality" />
		<tag k="ssr:stedsnr" v="184599" />
	</node>
	<node id="-8523" lat="59.1049111089" lon="5.59663333718">
		<tag k="alt_name" v="Rabnafjellet" />
		<tag k="name" v="Ramnafjellet" />
		<tag k="natural" v="hill" />
		<tag k="place" v="locality" />
		<tag k="ssr:stedsnr" v="184324" />
	</node>
	<node id="-8520" lat="59.1111888905" lon="5.65858889184">
		<tag k="fixme" v="consider natural=peak for the most distinct mountains in the district" />
		<tag k="name" v="Årheia" />
		<tag k="natural" v="hill" />
		<tag k="place" v="locality" />
		<tag k="ssr:stedsnr" v="184310" />
	</node>
	<node id="-8245" lat="58.9429138923" lon="5.6428861179">
		<tag k="name" v="Gåsaberget" />
		<tag k="natural" v="hill" />
		<tag k="place" v="locality" />
		<tag k="ssr:stedsnr" v="84356" />
	</node>
	<node id="-8496" lat="59.2592888853" lon="6.09873055895">
		<tag k="name" v="Udkikk" />
		<tag k="natural" v="cliff" />
		<tag k="ssr:stedsnr" v="181792" />
	</node>
	<node id="-8495" lat="59.257863893" lon="6.09285000246">
		<tag k="fixme" v="consider natural=peak for the most distinct mountains in the district" />
		<tag k="name" v="Lysåsen" />
		<tag k="natural" v="hill" />
		<tag k="place" v="locality" />
		<tag k="ssr:stedsnr" v="181786" />
	</node>
	<node id="-8493" lat="59.2552055575" lon="5.82690000501">
		<tag k="name" v="Skulehaugen" />
		<tag k="natural" v="hill" />
		<tag k="place" v="locality" />
		<tag k="ssr:stedsnr" v="181751" />
	</node>
	<node id="-8490" lat="59.2409305537" lon="5.99428333255">
		<tag k="fixme" v="consider natural=peak for the most distinct mountains in the district" />
		<tag k="name" v="Sjuråsen" />
		<tag k="natural" v="hill" />
		<tag k="place" v="locality" />
		<tag k="ssr:stedsnr" v="181652" />
	</node>
	<node id="-8583" lat="59.2449277758" lon="6.04629166335">
		<tag k="fixme" v="consider natural=peak for the most distinct mountains in the district" />
		<tag k="name" v="Varhaug" />
		<tag k="natural" v="hill" />
		<tag k="place" v="locality" />
		<tag k="ssr:stedsnr" v="302689" />
	</node>
	<node id="-8487" lat="59.2456888901" lon="5.9835666578">
		<tag k="fixme" v="consider natural=peak for the most distinct mountains in the district" />
		<tag k="name" v="Varahei" />
		<tag k="natural" v="hill" />
		<tag k="place" v="locality" />
		<tag k="ssr:stedsnr" v="181651" />
	</node>
	<node id="-8582" lat="59.2465777817" lon="6.04734166233">
		<tag k="fixme" v="consider natural=peak for the most distinct mountains in the district" />
		<tag k="name" v="Nonstein" />
		<tag k="natural" v="hill" />
		<tag k="place" v="locality" />
		<tag k="ssr:stedsnr" v="302687" />
	</node>
	<node id="-8478" lat="59.1123499961" lon="5.75601389708">
		<tag k="name" v="Varen" />
		<tag k="natural" v="hill" />
		<tag k="place" v="locality" />
		<tag k="ssr:stedsnr" v="175879" />
	</node>
	<node id="-8477" lat="59.2035944424" lon="5.93314166636">
		<tag k="name" v="Kyrkjå" />
		<tag k="place" v="locality" />
		<tag k="ssr:stedsnr" v="175864" />
	</node>
	<node id="-8476" lat="59.1201277775" lon="5.90512778056">
		<tag k="name" v="Eikehaugen" />
		<tag k="natural" v="hill" />
		<tag k="place" v="locality" />
		<tag k="ssr:stedsnr" v="175771" />
	</node>
	<node id="-8475" lat="59.0653722252" lon="5.70258054846">
		<tag k="name" v="Laukhammar" />
		<tag k="natural" v="hill" />
		<tag k="place" v="locality" />
		<tag k="ssr:stedsnr" v="175615" />
	</node>
	<node id="-8474" lat="59.0642027744" lon="5.68185277053">
		<tag k="fixme" v="consider natural=peak for the most distinct mountains in the district" />
		<tag k="name" v="Oskeberget" />
		<tag k="natural" v="hill" />
		<tag k="place" v="locality" />
		<tag k="ssr:stedsnr" v="175605" />
	</node>
	<node id="-8471" lat="59.0364722227" lon="5.64604444042">
		<tag k="fixme" v="consider natural=peak for the most distinct mountains in the district" />
		<tag k="name" v="Hasbergfjellet" />
		<tag k="natural" v="hill" />
		<tag k="place" v="locality" />
		<tag k="ssr:stedsnr" v="175527" />
	</node>
	<node id="-8465" lat="59.1913333345" lon="5.95979722875">
		<tag k="name" v="Skaret" />
		<tag k="natural" v="valley" />
		<tag k="place" v="locality" />
		<tag k="ssr:stedsnr" v="175308" />
	</node>
	<node id="-8454" lat="59.1819277742" lon="5.96492223115">
		<tag k="fixme" v="consider natural=peak for the most distinct mountains in the district" />
		<tag k="name" v="Lysåsen" />
		<tag k="natural" v="hill" />
		<tag k="place" v="locality" />
		<tag k="ssr:stedsnr" v="175035" />
	</node>
	<node id="-8453" lat="59.1471194481" lon="5.78454445046">
		<tag k="name" v="Vaberget" />
		<tag k="natural" v="hill" />
		<tag k="place" v="locality" />
		<tag k="ssr:stedsnr" v="174584" />
	</node>
	<node id="-8447" lat="59.1632166677" lon="5.96287221693">
		<tag k="name" v="Åsen" />
		<tag k="natural" v="hill" />
		<tag k="place" v="locality" />
		<tag k="ssr:stedsnr" v="174300" />
	</node>
	<node id="-8445" lat="59.1041749981" lon="5.57715277139">
		<tag k="name" v="Byrefjellet" />
		<tag k="natural" v="hill" />
		<tag k="place" v="locality" />
		<tag k="ssr:stedsnr" v="174183" />
	</node>
	<node id="-8437" lat="59.0731444407" lon="5.73911944592">
		<tag k="name" v="Kastadalsskaret" />
		<tag k="natural" v="valley" />
		<tag k="place" v="locality" />
		<tag k="ssr:stedsnr" v="163349" />
	</node>
	<node id="-8424" lat="58.9629305591" lon="5.64038888645">
		<tag k="name" v="Gjerdebakken" />
		<tag k="natural" v="slope" />
		<tag k="place" v="locality" />
		<tag k="ssr:stedsnr" v="160479" />
	</node>
	<node id="-7548" lat="58.894213889" lon="5.73121388506">
		<tag k="name" v="Ulsberget" />
		<tag k="natural" v="hill" />
		<tag k="place" v="locality" />
		<tag k="ssr:stedsnr" v="630220" />
	</node>
	<node id="-9555" lat="59.2482333295" lon="5.79754722299">
		<tag k="alt_name" v="Eikeåsen" />
		<tag k="fixme" v="consider natural=peak for the most distinct mountains in the district" />
		<tag k="name" v="Eikåsen" />
		<tag k="natural" v="hill" />
		<tag k="place" v="locality" />
		<tag k="ssr:stedsnr" v="851406" />
	</node>
	<node id="-8412" lat="58.9011472179" lon="5.72991943979">
		<tag k="name" v="Husaberget" />
		<tag k="natural" v="hill" />
		<tag k="place" v="locality" />
		<tag k="ssr:stedsnr" v="145207" />
	</node>
	<node id="-8398" lat="59.2915250036" lon="5.97307499461">
		<tag k="name" v="Låvaberga" />
		<tag k="natural" v="hill" />
		<tag k="place" v="locality" />
		<tag k="ssr:stedsnr" v="124545" />
	</node>
	<node id="-8393" lat="59.2443388854" lon="5.95459999483">
		<tag k="alt_name" v="Vonuten" />
		<tag k="fixme" v="consider natural=peak for the most distinct mountains in the district" />
		<tag k="name" v="Vordnuten" />
		<tag k="natural" v="hill" />
		<tag k="place" v="locality" />
		<tag k="ssr:stedsnr" v="123971" />
	</node>
	<node id="-8392" lat="59.1702916712" lon="5.86141945109">
		<tag k="fixme" v="consider natural=peak for the most distinct mountains in the district" />
		<tag k="name" v="Raunehagen" />
		<tag k="natural" v="hill" />
		<tag k="place" v="locality" />
		<tag k="ssr:stedsnr" v="123908" />
	</node>
	<node id="-8373" lat="59.2272083378" lon="5.96559999995">
		<tag k="alt_name" v="Skibe" />
		<tag k="fixme" v="consider natural=peak for the most distinct mountains in the district" />
		<tag k="name" v="Skipet" />
		<tag k="natural" v="hill" />
		<tag k="place" v="locality" />
		<tag k="ssr:stedsnr" v="122950" />
	</node>
	<node id="-8372" lat="59.1972694401" lon="5.93931666319">
		<tag k="fixme" v="consider natural=peak for the most distinct mountains in the district" />
		<tag k="name" v="Lauvåsen" />
		<tag k="natural" v="hill" />
		<tag k="place" v="locality" />
		<tag k="ssr:stedsnr" v="122890" />
	</node>
	<node id="-8344" lat="59.229341669" lon="5.9691777708">
		<tag k="fixme" v="consider natural=peak for the most distinct mountains in the district" />
		<tag k="name" v="Nonsås" />
		<tag k="natural" v="hill" />
		<tag k="place" v="locality" />
		<tag k="ssr:stedsnr" v="120636" />
	</node>
	<node id="-8343" lat="59.2398833315" lon="5.95966388956">
		<tag k="fixme" v="consider natural=peak for the most distinct mountains in the district" />
		<tag k="name" v="Lauvåsen" />
		<tag k="natural" v="hill" />
		<tag k="place" v="locality" />
		<tag k="ssr:stedsnr" v="120629" />
	</node>
	<node id="-8342" lat="59.2273565331" lon="5.83179718175">
		<tag k="name" v="Brådå" />
		<tag k="place" v="locality" />
		<tag k="ssr:stedsnr" v="120606" />
	</node>
	<node id="-8340" lat="59.2507807518" lon="5.84366851678">
		<tag k="alt_name" v="Aubeåsen" />
		<tag k="fixme" v="consider natural=peak for the most distinct mountains in the district" />
		<tag k="name" v="Aubøåsen" />
		<tag k="natural" v="hill" />
		<tag k="place" v="locality" />
		<tag k="ssr:stedsnr" v="120560" />
	</node>
	<node id="-8333" lat="59.279819442" lon="6.04189999479">
		<tag k="fixme" v="consider natural=peak for the most distinct mountains in the district" />
		<tag k="name" v="Rossåsen" />
		<tag k="natural" v="hill" />
		<tag k="place" v="locality" />
		<tag k="ssr:stedsnr" v="120470" />
	</node>
	<node id="-8332" lat="59.2541472201" lon="6.01487500212">
		<tag k="fixme" v="consider natural=peak for the most distinct mountains in the district" />
		<tag k="name" v="Undelinuten" />
		<tag k="natural" v="hill" />
		<tag k="place" v="locality" />
		<tag k="ssr:stedsnr" v="120435" />
	</node>
	<node id="-8331" lat="59.2540027806" lon="5.95935276918">
		<tag k="name" v="Kjelane" />
		<tag k="natural" v="valley" />
		<tag k="place" v="locality" />
		<tag k="ssr:stedsnr" v="120425" />
	</node>
	<node id="-8328" lat="59.2577722198" lon="6.04096943805">
		<tag k="name" v="Flådadal" />
		<tag k="natural" v="valley" />
		<tag k="place" v="locality" />
		<tag k="ssr:stedsnr" v="120388" />
	</node>
	<node id="-8322" lat="59.1651277765" lon="5.85557500818">
		<tag k="name" v="Nådåtræ" />
		<tag k="place" v="locality" />
		<tag k="ssr:stedsnr" v="115271" />
	</node>
	<node id="-8319" lat="59.1351638848" lon="5.59626943626">
		<tag k="name" v="Hesthaug" />
		<tag k="natural" v="hill" />
		<tag k="place" v="locality" />
		<tag k="ssr:stedsnr" v="114879" />
	</node>
	<node id="-8316" lat="59.1441083293" lon="5.92157222892">
		<tag k="fixme" v="consider natural=peak for the most distinct mountains in the district" />
		<tag k="name" v="Kallebakk" />
		<tag k="natural" v="hill" />
		<tag k="place" v="locality" />
		<tag k="ssr:stedsnr" v="114647" />
	</node>
	<node id="-8313" lat="59.1314888887" lon="5.90826388089">
		<tag k="name" v="Torvhusdalen" />
		<tag k="natural" v="valley" />
		<tag k="place" v="locality" />
		<tag k="ssr:stedsnr" v="114360" />
	</node>
	<node id="-8309" lat="59.1369833342" lon="5.92737222547">
		<tag k="name" v="Duedalen" />
		<tag k="natural" v="valley" />
		<tag k="place" v="locality" />
		<tag k="ssr:stedsnr" v="114287" />
	</node>
	<node id="-8308" lat="59.141519444" lon="5.9245527865">
		<tag k="name" v="Domfjelldalen" />
		<tag k="natural" v="valley" />
		<tag k="place" v="locality" />
		<tag k="ssr:stedsnr" v="114285" />
	</node>
	<node id="-7187" lat="59.1119277767" lon="5.72066666046">
		<tag k="name" v="Varaleide" />
		<tag k="natural" v="hill" />
		<tag k="place" v="locality" />
		<tag k="ssr:stedsnr" v="418917" />
	</node>
	<node id="-8301" lat="59.0402944452" lon="5.73412500256">
		<tag k="name" v="Varasletta" />
		<tag k="place" v="locality" />
		<tag k="ssr:stedsnr" v="113435" />
	</node>
	<node id="-8270" lat="58.9708805519" lon="5.64929166555">
		<tag k="name" v="Mulen" />
		<tag k="natural" v="slope" />
		<tag k="place" v="locality" />
		<tag k="ssr:stedsnr" v="100939" />
	</node>
	<node id="-8268" lat="58.98693889" lon="5.69354444367">
		<tag k="name" v="Gjerdaberget" />
		<tag k="natural" v="hill" />
		<tag k="place" v="locality" />
		<tag k="ssr:stedsnr" v="100861" />
	</node>
	<node id="-8248" lat="58.9860611131" lon="5.68319444608">
		<tag k="name" v="Rusta" />
		<tag k="natural" v="ridge" />
		<tag k="place" v="locality" />
		<tag k="ssr:stedsnr" v="85927" />
	</node>
	<node id="-7177" lat="59.1141444448" lon="5.66943888451">
		<tag k="name" v="Vassbakka" />
		<tag k="natural" v="hill" />
		<tag k="place" v="locality" />
		<tag k="ssr:stedsnr" v="417002" />
	</node>
	<node id="-8244" lat="58.9198305548" lon="5.71649445306">
		<tag k="alt_name" v="Vågadalen" />
		<tag k="name" v="Vågedalen" />
		<tag k="natural" v="valley" />
		<tag k="place" v="locality" />
		<tag k="ssr:stedsnr" v="84198" />
	</node>
	<node id="-8242" lat="58.9507777751" lon="5.63351111244">
		<tag k="name" v="Korpsdalen" />
		<tag k="natural" v="valley" />
		<tag k="place" v="locality" />
		<tag k="ssr:stedsnr" v="84183" />
	</node>
	<node id="-8225" lat="59.1871055547" lon="5.96194165912">
		<tag k="name" v="Eikefjellet" />
		<tag k="natural" v="hill" />
		<tag k="place" v="locality" />
		<tag k="ssr:stedsnr" v="62932" />
	</node>
	<node id="-8216" lat="59.0747253601" lon="5.74434541877">
		<tag k="fixme" v="consider natural=peak for the most distinct mountains in the district" />
		<tag k="name" v="Hodnafjellet" />
		<tag k="natural" v="hill" />
		<tag k="place" v="locality" />
		<tag k="ssr:stedsnr" v="62822" />
	</node>
	<node id="-8206" lat="59.1058861146" lon="5.65230833043">
		<tag k="fixme" v="consider natural=peak for the most distinct mountains in the district" />
		<tag k="name" v="Bøheia" />
		<tag k="natural" v="hill" />
		<tag k="place" v="locality" />
		<tag k="ssr:stedsnr" v="62374" />
	</node>
	<node id="-8200" lat="59.1069833326" lon="5.66595277117">
		<tag k="fixme" v="consider natural=peak for the most distinct mountains in the district" />
		<tag k="name" v="Skjena" />
		<tag k="natural" v="hill" />
		<tag k="place" v="locality" />
		<tag k="ssr:stedsnr" v="62312" />
	</node>
	<node id="-8193" lat="59.1506833307" lon="5.80214999324">
		<tag k="alt_name" v="Longabakka" />
		<tag k="name" v="Langebakk" />
		<tag k="natural" v="ridge" />
		<tag k="place" v="locality" />
		<tag k="ssr:stedsnr" v="62256" />
	</node>
</osm>
