<?xml version="1.0" encoding="UTF-8"?>
<osm generator="osmapis" version="0.6">
	<node id="-5110" lat="59.1891416674" lon="5.83416944353">
		<tag k="name" v="Årstein" />
		<tag k="place" v="locality" />
		<tag k="ssr:stedsnr" v="236836" />
	</node>
	<node id="-5108" lat="59.047102774" lon="5.63529166364">
		<tag k="name" v="Sletthei" />
		<tag k="place" v="locality" />
		<tag k="ssr:stedsnr" v="236510" />
	</node>
	<node id="-5107" lat="59.1749611138" lon="5.9840777692">
		<tag k="landuse" v="meadow" />
		<tag k="name" v="Fårøyplasset" />
		<tag k="ssr:stedsnr" v="236433" />
	</node>
	<node id="-5104" lat="59.1731138885" lon="5.80944721505">
		<tag k="name" v="Ladberget" />
		<tag k="place" v="locality" />
		<tag k="ssr:stedsnr" v="236146" />
	</node>
	<node id="-6637" lat="58.951075002" lon="5.64149166904">
		<tag k="name" v="Storåkeren" />
		<tag k="place" v="locality" />
		<tag k="ssr:stedsnr" v="39941" />
	</node>
	<node id="-6119" lat="58.9426416676" lon="5.64759721606">
		<tag k="name" v="Sauamyra" />
		<tag k="natural" v="wetland" />
		<tag k="ssr:stedsnr" v="645944" />
	</node>
	<node id="-5600" lat="59.2713999968" lon="5.99240000749">
		<tag k="name" v="Bjergamyra" />
		<tag k="natural" v="wetland" />
		<tag k="ssr:stedsnr" v="487621" />
	</node>
	<node id="-5087" lat="59.1559277803" lon="5.93235555871">
		<tag k="name" v="Kjinnesteinen" />
		<tag k="natural" v="stone" />
		<tag k="ssr:stedsnr" v="235640" />
	</node>
	<node id="-5370" lat="59.1114916658" lon="5.64283333165">
		<tag k="name" v="Århei" />
		<tag k="place" v="locality" />
		<tag k="ssr:stedsnr" v="297220" />
	</node>
	<node id="-5067" lat="58.8889833356" lon="5.73916388489">
		<tag k="name" v="Geitestova" />
		<tag k="place" v="locality" />
		<tag k="ssr:stedsnr" v="39974" />
	</node>
	<node id="-7094" lat="59.2639416677" lon="5.96011666993">
		<tag k="name" v="Øygarden" />
		<tag k="place" v="locality" />
		<tag k="ssr:stedsnr" v="302451" />
	</node>
	<node id="-6067" lat="58.9277972234" lon="5.71179999289">
		<tag k="name" v="Hinnamarka" />
		<tag k="place" v="locality" />
		<tag k="ssr:stedsnr" v="728047" />
	</node>
	<node id="-5875" lat="58.9621444483" lon="5.63823888029">
		<tag k="alt_name" v="Gjerdane" />
		<tag k="name" v="Gjerå" />
		<tag k="place" v="locality" />
		<tag k="ssr:stedsnr" v="524144" />
	</node>
	<node id="-6044" lat="59.2402305574" lon="6.05278611601">
		<tag k="name" v="Trongura" />
		<tag k="natural" v="scree" />
		<tag k="ssr:stedsnr" v="727397" />
	</node>
	<node id="-5540" lat="59.1184333296" lon="5.71749166688">
		<tag k="name" v="Slettemyr" />
		<tag k="natural" v="wetland" />
		<tag k="ssr:stedsnr" v="479936" />
	</node>
	<node id="-6051" lat="59.2390194402" lon="5.82389721798">
		<tag k="name" v="Tjularmyra" />
		<tag k="natural" v="wetland" />
		<tag k="ssr:stedsnr" v="727533" />
	</node>
	<node id="-5538" lat="59.1126944423" lon="5.75046110338">
		<tag k="name" v="Klomamyra" />
		<tag k="natural" v="wetland" />
		<tag k="ssr:stedsnr" v="479923" />
	</node>
	<node id="-5537" lat="59.1175666662" lon="5.7963166643">
		<tag k="name" v="Oddamyr" />
		<tag k="natural" v="wetland" />
		<tag k="ssr:stedsnr" v="479977" />
	</node>
	<node id="-5534" lat="59.1157805527" lon="5.80373611182">
		<tag k="name" v="Jubemyr" />
		<tag k="natural" v="wetland" />
		<tag k="ssr:stedsnr" v="479969" />
	</node>
	<node id="-5020" lat="58.959472221" lon="5.64813610727">
		<tag k="name" v="Austli" />
		<tag k="place" v="locality" />
		<tag k="ssr:stedsnr" v="221925" />
	</node>
	<node id="-6026" lat="59.1521583374" lon="5.98047222337">
		<tag k="historic" v="shieling" />
		<tag k="name" v="Stølen" />
		<tag k="place" v="locality" />
		<tag k="ssr:stedsnr" v="721273" />
	</node>
	<node id="-5508" lat="59.0753666698" lon="5.75859999593">
		<tag k="landuse" v="meadow" />
		<tag k="name" v="Øvra Leide" />
		<tag k="ssr:stedsnr" v="477358" />
	</node>
	<node id="-5553" lat="59.2456944404" lon="5.96720000267">
		<tag k="name" v="Gamlestølsmyra" />
		<tag k="natural" v="wetland" />
		<tag k="ssr:stedsnr" v="484651" />
	</node>
	<node id="-6501" lat="59.076611115" lon="5.77560832973">
		<tag k="name" v="Eigene" />
		<tag k="place" v="locality" />
		<tag k="ssr:stedsnr" v="963372" />
	</node>
	<node id="-5988" lat="59.2283416707" lon="5.80663610995">
		<tag k="name" v="Storskog" />
		<tag k="place" v="locality" />
		<tag k="ssr:stedsnr" v="605561" />
	</node>
	<node id="-5984" lat="59.2473083367" lon="5.931441667">
		<tag k="name" v="Hagasteinen" />
		<tag k="natural" v="stone" />
		<tag k="ssr:stedsnr" v="605618" />
	</node>
	<node id="-6999" lat="59.0874027733" lon="5.7386222153">
		<tag k="name" v="Skamyr" />
		<tag k="natural" v="wetland" />
		<tag k="ssr:stedsnr" v="175991" />
	</node>
	<node id="-6998" lat="59.0803888888" lon="5.77469444868">
		<tag k="landuse" v="quarry" />
		<tag k="name" v="Gråurskjenet" />
		<tag k="ssr:stedsnr" v="175966" />
	</node>
	<node id="-6996" lat="59.116769442" lon="5.7426805616">
		<tag k="name" v="Ansetemyra" />
		<tag k="natural" v="wetland" />
		<tag k="ssr:stedsnr" v="175911" />
	</node>
	<node id="-5965" lat="58.9441722234" lon="5.63280555619">
		<tag k="name" v="Klagsteinen" />
		<tag k="natural" v="stone" />
		<tag k="ssr:stedsnr" v="587690" />
	</node>
	<node id="-5960" lat="58.9596305541" lon="5.7008055567">
		<tag k="name" v="Klauvsteinen" />
		<tag k="natural" v="stone" />
		<tag k="ssr:stedsnr" v="586893" />
	</node>
	<node id="-7493" lat="59.253463887" lon="6.01246110816">
		<tag k="name" v="Longemyr" />
		<tag k="natural" v="wetland" />
		<tag k="ssr:stedsnr" v="545413" />
	</node>
	<node id="-6980" lat="59.1660777771" lon="5.84809999804">
		<tag k="name" v="Kvamefjellet" />
		<tag k="place" v="locality" />
		<tag k="ssr:stedsnr" v="175264" />
	</node>
	<node id="-6465" lat="59.1242722246" lon="5.91316388533">
		<tag k="name" v="Låvikmyra" />
		<tag k="natural" v="wetland" />
		<tag k="ssr:stedsnr" v="903312" />
	</node>
	<node id="-6975" lat="59.1700777803" lon="5.82555277884">
		<tag k="name" v="Skudegjerd" />
		<tag k="place" v="locality" />
		<tag k="ssr:stedsnr" v="175129" />
	</node>
	<node id="-5949" lat="58.9600027773" lon="5.69739445209">
		<tag k="name" v="Lassatjørna" />
		<tag k="natural" v="wetland" />
		<tag k="ssr:stedsnr" v="708883" />
	</node>
	<node id="-6972" lat="59.1747305512" lon="5.78135277559">
		<tag k="name" v="Svaberget" />
		<tag k="place" v="locality" />
		<tag k="ssr:stedsnr" v="175109" />
	</node>
	<node id="-7474" lat="59.1012666659" lon="5.60267222856">
		<tag k="name" v="Prestø" />
		<tag k="place" v="locality" />
		<tag k="ssr:stedsnr" v="538332" />
	</node>
	<node id="-5935" lat="58.8906972252" lon="5.73405278005">
		<tag k="name" v="Forusmyra" />
		<tag k="natural" v="wetland" />
		<tag k="ssr:stedsnr" v="706977" />
	</node>
	<node id="-5934" lat="58.9700861106" lon="5.65368610807">
		<tag k="name" v="Sunde" />
		<tag k="place" v="locality" />
		<tag k="ssr:stedsnr" v="706949" />
	</node>
	<node id="-7468" lat="59.078122221" lon="5.62390555707">
		<tag k="name" v="Kvidemyr" />
		<tag k="natural" v="wetland" />
		<tag k="ssr:stedsnr" v="538082" />
	</node>
	<node id="-6946" lat="58.9651472218" lon="5.62548611204">
		<tag k="alt_name" v="Ekrehaugen" />
		<tag k="name" v="Ekrehøgda" />
		<tag k="place" v="locality" />
		<tag k="ssr:stedsnr" v="160929" />
	</node>
	<node id="-5403" lat="59.1119388893" lon="5.66459999981">
		<tag k="name" v="Flekksta" />
		<tag k="place" v="locality" />
		<tag k="ssr:stedsnr" v="244307" />
	</node>
	<node id="-6812" lat="59.1132277744" lon="5.66695833813">
		<tag k="name" v="Flekkstadmyra" />
		<tag k="natural" v="wetland" />
		<tag k="ssr:stedsnr" v="113001" />
	</node>
	<node id="-7444" lat="58.9107166633" lon="5.71367500662">
		<tag k="name" v="Auståkeren" />
		<tag k="place" v="locality" />
		<tag k="ssr:stedsnr" v="524734" />
	</node>
	<node id="-5393" lat="59.2653083349" lon="5.93254165778">
		<tag k="name" v="Skitnemyr" />
		<tag k="natural" v="wetland" />
		<tag k="ssr:stedsnr" v="242410" />
	</node>
	<node id="-5897" lat="58.9148027811" lon="5.6885972196">
		<tag k="alt_name" v="Valabergsmyra" />
		<tag k="name" v="Valbergmyra" />
		<tag k="natural" v="wetland" />
		<tag k="ssr:stedsnr" v="691210" />
	</node>
	<node id="-5893" lat="58.9638027756" lon="5.64978888113">
		<tag k="alt_name" v="Sortemyr" />
		<tag k="name" v="Svortemyr" />
		<tag k="natural" v="wetland" />
		<tag k="ssr:stedsnr" v="691201" />
	</node>
	<node id="-6402" lat="59.1260749965" lon="5.90165555456">
		<tag k="name" v="Eidsbrotet" />
		<tag k="place" v="locality" />
		<tag k="ssr:stedsnr" v="842315" />
	</node>
	<node id="-7418" lat="59.1286888926" lon="5.91292222976">
		<tag k="name" v="Gangsmyr" />
		<tag k="natural" v="wetland" />
		<tag k="ssr:stedsnr" v="427547" />
	</node>
	<node id="-6387" lat="58.9762944405" lon="5.61659443735">
		<tag k="alt_name" v="Kvednavikskogen" />
		<tag k="name" v="Kvernevikskogen" />
		<tag k="place" v="locality" />
		<tag k="ssr:stedsnr" v="934277" />
	</node>
	<node id="-5351" lat="59.1784833309" lon="5.80334166567">
		<tag k="name" v="Bergdråp" />
		<tag k="place" v="locality" />
		<tag k="ssr:stedsnr" v="296133" />
	</node>
	<node id="-5345" lat="58.9576944403" lon="5.64384444063">
		<tag k="name" v="Årafeta" />
		<tag k="place" v="locality" />
		<tag k="ssr:stedsnr" v="206170" />
	</node>
	<node id="-5343" lat="59.1505750013" lon="5.79562499656">
		<tag k="loc_name" v="Pighella" />
		<tag k="name" v="Pigghella" />
		<tag k="natural" v="stone" />
		<tag k="ssr:stedsnr" v="295527" />
	</node>
	<node id="-5847" lat="59.0945833341" lon="5.58025832914">
		<tag k="name" v="Torvmyra" />
		<tag k="natural" v="wetland" />
		<tag k="ssr:stedsnr" v="479216" />
	</node>
	<node id="-6356" lat="59.2365305579" lon="5.87991945042">
		<tag k="name" v="Sundur" />
		<tag k="natural" v="scree" />
		<tag k="ssr:stedsnr" v="788575" />
	</node>
	<node id="-7373" lat="59.0828722219" lon="5.74858611626">
		<tag k="name" v="Askmyrane" />
		<tag k="natural" v="wetland" />
		<tag k="ssr:stedsnr" v="418993" />
	</node>
	<node id="-6853" lat="59.248401329" lon="5.80535564311">
		<tag k="name" v="Eikemarkene" />
		<tag k="place" v="locality" />
		<tag k="ssr:stedsnr" v="120529" />
	</node>
	<node id="-6842" lat="59.1050916633" lon="5.76519167436">
		<tag k="name" v="Udlanesheia" />
		<tag k="place" v="locality" />
		<tag k="ssr:stedsnr" v="115866" />
	</node>
	<node id="-6822" lat="59.1760805592" lon="5.81865833891">
		<tag k="landuse" v="meadow" />
		<tag k="name" v="Slåttå" />
		<tag k="ssr:stedsnr" v="114155" />
	</node>
	<node id="-6816" lat="59.0901083301" lon="5.71263889697">
		<tag k="name" v="Grønamyr" />
		<tag k="natural" v="wetland" />
		<tag k="ssr:stedsnr" v="113081" />
	</node>
	<node id="-6813" lat="59.1136555538" lon="5.68187778463">
		<tag k="name" v="Nordbøstemmen" />
		<tag k="natural" v="wetland" />
		<tag k="ssr:stedsnr" v="113027" />
	</node>
	<node id="-5788" lat="59.1630250004" lon="5.83820277441">
		<tag k="name" v="Olamyra" />
		<tag k="natural" v="wetland" />
		<tag k="ssr:stedsnr" v="668289" />
	</node>
	<node id="-7320" lat="58.9960194486" lon="5.68873611365">
		<tag k="loc_name" v="Brennevinsura" />
		<tag k="name" v="Brennevinsurda" />
		<tag k="natural" v="scree" />
		<tag k="ssr:stedsnr" v="403080" />
	</node>
	<node id="-6284" lat="59.1213916679" lon="5.88246666687">
		<tag k="name" v="Oksamyra" />
		<tag k="natural" v="wetland" />
		<tag k="ssr:stedsnr" v="911533" />
	</node>
	<node id="-7447" lat="58.9579916658" lon="5.62674166996">
		<tag k="name" v="Kloppstein" />
		<tag k="natural" v="stone" />
		<tag k="ssr:stedsnr" v="524927" />
	</node>
	<node id="-5768" lat="59.2445916698" lon="6.01155556134">
		<tag k="name" v="Risdalsmyra" />
		<tag k="natural" v="wetland" />
		<tag k="ssr:stedsnr" v="666639" />
	</node>
	<node id="-5762" lat="59.2295638894" lon="5.87985277588">
		<tag k="name" v="Holmahagen" />
		<tag k="place" v="locality" />
		<tag k="ssr:stedsnr" v="666588" />
	</node>
	<node id="-5754" lat="59.0905472216" lon="5.74108333558">
		<tag k="name" v="Eriksmyr" />
		<tag k="natural" v="wetland" />
		<tag k="ssr:stedsnr" v="660994" />
	</node>
	<node id="-6261" lat="59.2654027793" lon="5.92435554906">
		<tag k="name" v="Urå Grå" />
		<tag k="natural" v="scree" />
		<tag k="ssr:stedsnr" v="909459" />
	</node>
	<node id="-5739" lat="58.9023916673" lon="5.73625000646">
		<tag k="name" v="Gauselskogen" />
		<tag k="place" v="locality" />
		<tag k="ssr:stedsnr" v="449209" />
	</node>
	<node id="-6760" lat="58.9925333345" lon="5.67005278546">
		<tag k="name" v="Tastamyra" />
		<tag k="natural" v="wetland" />
		<tag k="ssr:stedsnr" v="84184" />
	</node>
	<node id="-6758" lat="58.9487972264" lon="5.65531667393">
		<tag k="name" v="Revheimsmyra" />
		<tag k="natural" v="wetland" />
		<tag k="ssr:stedsnr" v="84182" />
	</node>
	<node id="-6241" lat="59.0906972223" lon="5.71953334085">
		<tag k="name" v="Selsheia" />
		<tag k="place" v="locality" />
		<tag k="ssr:stedsnr" v="903987" />
	</node>
	<node id="-6240" lat="59.1109333312" lon="5.83515278632">
		<tag k="name" v="Legene" />
		<tag k="place" v="locality" />
		<tag k="ssr:stedsnr" v="903982" />
	</node>
	<node id="-6232" lat="59.0554527798" lon="5.66725833974">
		<tag k="landuse" v="meadow" />
		<tag k="name" v="Rinnå" />
		<tag k="ssr:stedsnr" v="902400" />
	</node>
	<node id="-6231" lat="59.074277781" lon="5.75992499989">
		<tag k="landuse" v="meadow" />
		<tag k="name" v="Nedra Leide" />
		<tag k="ssr:stedsnr" v="902385" />
	</node>
	<node id="-5196" lat="58.9548111121" lon="5.65197499729">
		<tag k="alt_name" v="Alvarsteinen" />
		<tag k="name" v="Alvasteinen" />
		<tag k="natural" v="stone" />
		<tag k="ssr:stedsnr" v="84178" />
	</node>
	<node id="-5195" lat="58.9636277825" lon="5.63262778558">
		<tag k="alt_name" v="Kvidemyr" />
		<tag k="name" v="Kvitemyr" />
		<tag k="natural" v="wetland" />
		<tag k="ssr:stedsnr" v="84177" />
	</node>
	<node id="-6668" lat="59.197761108" lon="5.93422500229">
		<tag k="name" v="Skarpaskottland" />
		<tag k="place" v="locality" />
		<tag k="ssr:stedsnr" v="54883" />
	</node>
	<node id="-5697" lat="59.1836694429" lon="5.96678054798">
		<tag k="name" v="Høgebrot" />
		<tag k="place" v="locality" />
		<tag k="ssr:stedsnr" v="418045" />
	</node>
	<node id="-7227" lat="59.0809027761" lon="5.74568054791">
		<tag k="name" v="Askheia" />
		<tag k="place" v="locality" />
		<tag k="ssr:stedsnr" v="357993" />
	</node>
	<node id="-6200" lat="59.0549722232" lon="5.64655832575">
		<tag k="name" v="Bodlekrossen" />
		<tag k="place" v="locality" />
		<tag k="ssr:stedsnr" v="721515" />
	</node>
	<node id="-7216" lat="59.1871222268" lon="5.82503889324">
		<tag k="name" v="Landasteinen" />
		<tag k="natural" v="stone" />
		<tag k="ssr:stedsnr" v="357237" />
	</node>
	<node id="-6700" lat="59.2326000037" lon="5.99655833358">
		<tag k="name" v="Talettasteinane" />
		<tag k="natural" v="stone" />
		<tag k="ssr:stedsnr" v="60665" />
	</node>
	<node id="-5671" lat="58.95919753" lon="5.76229173742">
		<tag k="name" v="Hetlandsmarka" />
		<tag k="place" v="locality" />
		<tag k="ssr:stedsnr" v="509016" />
	</node>
	<node id="-7206" lat="59.1427222207" lon="5.80587500053">
		<tag k="name" v="Lasteinen" />
		<tag k="natural" v="stone" />
		<tag k="ssr:stedsnr" v="356536" />
	</node>
	<node id="-5669" lat="58.915444449" lon="5.69770555869">
		<tag k="name" v="Asserskogen" />
		<tag k="place" v="locality" />
		<tag k="ssr:stedsnr" v="509158" />
	</node>
	<node id="-6692" lat="59.2418138931" lon="5.96231666602">
		<tag k="name" v="Bjønnsmyr" />
		<tag k="natural" v="wetland" />
		<tag k="ssr:stedsnr" v="60611" />
	</node>
	<node id="-5667" lat="58.9418583363" lon="5.6478305497">
		<tag k="name" v="Rostå" />
		<tag k="place" v="locality" />
		<tag k="ssr:stedsnr" v="405910" />
	</node>
	<node id="-5665" lat="58.9823250045" lon="5.66400556143">
		<tag k="name" v="Reset" />
		<tag k="place" v="locality" />
		<tag k="ssr:stedsnr" v="405908" />
	</node>
	<node id="-5148" lat="59.2491583355" lon="5.98782222074">
		<tag k="historic" v="shieling" />
		<tag k="name" v="Støl" />
		<tag k="place" v="locality" />
		<tag k="ssr:stedsnr" v="242625" />
	</node>
	<node id="-5654" lat="58.963069441" lon="5.62744722837">
		<tag k="name" v="Storåkeren" />
		<tag k="place" v="locality" />
		<tag k="ssr:stedsnr" v="403513" />
	</node>
	<node id="-5644" lat="58.9684861123" lon="5.65507500179">
		<tag k="name" v="Longemyr" />
		<tag k="natural" v="wetland" />
		<tag k="ssr:stedsnr" v="387177" />
	</node>
	<node id="-5637" lat="59.2563305522" lon="5.82138888573">
		<tag k="name" v="Myrane" />
		<tag k="natural" v="wetland" />
		<tag k="ssr:stedsnr" v="363682" />
	</node>
</osm>
