<?xml version="1.0" encoding="UTF-8"?>
<osm version="0.6" generator="osmapis">
	<node id="2351014661" lat="70.431714" lon="23.844058" version="2" timestamp="2018-05-02T17:03:47Z" changeset="58620907" uid="3497659" user="NKA">
		<tag k="name" v="Olebukta" />
		<tag k="name:no" v="Olebukta" />
		<tag k="natural" v="bay" />
		<tag k="source" v="Kartverket" />
		<tag k="ssr:stedsnr" v="748993" />
	</node>
	<node id="2351016131" lat="70.437528" lon="24.604108" version="2" timestamp="2018-05-02T17:03:47Z" changeset="58620907" uid="3497659" user="NKA">
		<tag k="name" v="Eallašgielas" />
		<tag k="name:se" v="Eallašgielas" />
		<tag k="natural" v="peak" />
		<tag k="source" v="Kartverket" />
		<tag k="ssr:stedsnr" v="323665" />
	</node>
	<node id="2353286693" lat="70.570603" lon="23.060747" version="2" timestamp="2018-05-02T17:03:48Z" changeset="58620907" uid="3497659" user="NKA">
		<tag k="name" v="Fella" />
		<tag k="name:no" v="Fella" />
		<tag k="natural" v="cape" />
		<tag k="source" v="Kartverket" />
		<tag k="ssr:stedsnr" v="323381" />
	</node>
	<node id="2353290364" lat="70.5407" lon="22.881603" version="2" timestamp="2018-05-02T17:03:48Z" changeset="58620907" uid="3497659" user="NKA">
		<tag k="name" v="Komagaksla" />
		<tag k="name:no" v="Komagaksla" />
		<tag k="natural" v="peak" />
		<tag k="source" v="Kartverket" />
		<tag k="ssr:stedsnr" v="262099" />
	</node>
	<node id="2353294138" lat="70.612286" lon="24.711597" version="2" timestamp="2018-05-02T17:03:48Z" changeset="58620907" uid="3497659" user="NKA">
		<tag k="name" v="Storberget" />
		<tag k="name:no" v="Storberget" />
		<tag k="natural" v="peak" />
		<tag k="source" v="Kartverket" />
		<tag k="ssr:stedsnr" v="626908" />
	</node>
	<node id="2354547428" lat="70.508764" lon="23.875225" version="2" timestamp="2018-05-02T17:03:54Z" changeset="58620907" uid="3497659" user="NKA">
		<tag k="name" v="Alnes" />
		<tag k="name:no" v="Alnes" />
		<tag k="place" v="farm" />
		<tag k="source" v="Kartverket" />
		<tag k="ssr:stedsnr" v="384181" />
	</node>
	<node id="5815077281" lat="70.6325584" lon="23.6790698" version="1" timestamp="2018-08-07T14:03:12Z" changeset="61436786" uid="8470372" user="Entur AS | Angie Torres" />
	<node id="5815078447" lat="70.6326086" lon="23.6792719" version="1" timestamp="2018-08-07T14:03:23Z" changeset="61436786" uid="8470372" user="Entur AS | Angie Torres" />
	<node id="297601483" lat="70.5098819" lon="23.9542613" version="2" timestamp="2018-08-03T07:33:44Z" changeset="61319481" uid="8470372" user="Entur AS | Angie Torres" />
	<node id="297601484" lat="70.5096755" lon="23.9546138" version="3" timestamp="2018-08-03T07:33:44Z" changeset="61319481" uid="8470372" user="Entur AS | Angie Torres" />
	<node id="3003481266" lat="70.5104147" lon="23.9537133" version="4" timestamp="2019-03-04T21:43:41Z" changeset="67783469" uid="32112" user="SverigeFan">
		<tag k="bridge:support" v="pylon" />
	</node>
	<node id="3343247067" lat="70.509555" lon="23.9550439" version="2" timestamp="2018-08-03T07:34:28Z" changeset="61319481" uid="8470372" user="Entur AS | Angie Torres" />
	<node id="3343247075" lat="70.5098221" lon="23.9543366" version="2" timestamp="2018-08-03T07:34:29Z" changeset="61319481" uid="8470372" user="Entur AS | Angie Torres" />
	<node id="5806180949" lat="70.5095268" lon="23.9552073" version="1" timestamp="2018-08-03T07:28:20Z" changeset="61319436" uid="8470372" user="Entur AS | Angie Torres" />
	<node id="5806184867" lat="70.5097724" lon="23.9544135" version="1" timestamp="2018-08-03T07:29:37Z" changeset="61319436" uid="8470372" user="Entur AS | Angie Torres" />
	<node id="5806185130" lat="70.5096346" lon="23.9547258" version="1" timestamp="2018-08-03T07:29:42Z" changeset="61319436" uid="8470372" user="Entur AS | Angie Torres" />
	<node id="5806185905" lat="70.5097228" lon="23.9545064" version="1" timestamp="2018-08-03T07:29:58Z" changeset="61319436" uid="8470372" user="Entur AS | Angie Torres" />
	<node id="5806187448" lat="70.5095046" lon="23.9553818" version="1" timestamp="2018-08-03T07:30:50Z" changeset="61319436" uid="8470372" user="Entur AS | Angie Torres" />
	<node id="5806188986" lat="70.5095954" lon="23.9548607" version="1" timestamp="2018-08-03T07:31:18Z" changeset="61319436" uid="8470372" user="Entur AS | Angie Torres" />
	<node id="3003481275" lat="70.5154638" lon="23.9486303" version="3" timestamp="2018-08-03T07:34:14Z" changeset="61319481" uid="8470372" user="Entur AS | Angie Torres" />
	<node id="3344235963" lat="70.5153598" lon="23.9487557" version="2" timestamp="2018-08-03T07:34:34Z" changeset="61319481" uid="8470372" user="Entur AS | Angie Torres" />
	<node id="5806182787" lat="70.5154873" lon="23.9485911" version="1" timestamp="2018-08-03T07:28:52Z" changeset="61319436" uid="8470372" user="Entur AS | Angie Torres" />
	<node id="6317078660" lat="70.5149426" lon="23.9491606" version="1" timestamp="2019-03-04T21:43:39Z" changeset="67783469" uid="32112" user="SverigeFan">
		<tag k="bridge:support" v="pylon" />
	</node>
	<node id="295215689" lat="70.4451216" lon="24.3304228" version="5" timestamp="2018-08-03T07:33:40Z" changeset="61319481" uid="8470372" user="Entur AS | Angie Torres" />
	<node id="2337651182" lat="70.4452084" lon="24.3315979" version="3" timestamp="2018-08-03T07:33:53Z" changeset="61319481" uid="8470372" user="Entur AS | Angie Torres" />
	<node id="2337651184" lat="70.4452726" lon="24.3322107" version="3" timestamp="2018-08-03T07:33:53Z" changeset="61319481" uid="8470372" user="Entur AS | Angie Torres" />
	<node id="5806181149" lat="70.4451456" lon="24.3308177" version="1" timestamp="2018-08-03T07:28:22Z" changeset="61319436" uid="8470372" user="Entur AS | Angie Torres" />
	<node id="5806183317" lat="70.445113" lon="24.3302664" version="1" timestamp="2018-08-03T07:29:03Z" changeset="61319436" uid="8470372" user="Entur AS | Angie Torres" />
	<node id="5806185225" lat="70.4451746" lon="24.3312095" version="1" timestamp="2018-08-03T07:29:43Z" changeset="61319436" uid="8470372" user="Entur AS | Angie Torres" />
	<node id="5806185447" lat="70.4453093" lon="24.3325128" version="1" timestamp="2018-08-03T07:29:48Z" changeset="61319436" uid="8470372" user="Entur AS | Angie Torres" />
	<node id="5806189406" lat="70.4453612" lon="24.3328976" version="1" timestamp="2018-08-03T07:31:26Z" changeset="61319436" uid="8470372" user="Entur AS | Angie Torres" />
	<node id="5806187434" lat="70.4304415" lon="24.5008752" version="1" timestamp="2018-08-03T07:30:49Z" changeset="61319436" uid="8470372" user="Entur AS | Angie Torres" />
	<node id="5806200265" lat="70.4299716" lon="24.5005491" version="1" timestamp="2018-08-03T07:32:11Z" changeset="61319481" uid="8470372" user="Entur AS | Angie Torres" />
	<node id="2353390705" lat="70.6146731" lon="24.6273647" version="2" timestamp="2013-06-20T11:21:43Z" changeset="16628610" uid="1556391" user="relet" />
	<node id="2353391655" lat="70.6142458" lon="24.6273218" version="1" timestamp="2013-06-20T11:21:43Z" changeset="16628610" uid="1556391" user="relet" />
	<node id="2353390706" lat="70.6150471" lon="24.6319567" version="2" timestamp="2013-06-20T11:21:43Z" changeset="16628610" uid="1556391" user="relet" />
	<node id="2353390707" lat="70.612892" lon="24.632278" version="1" timestamp="2013-06-20T11:20:15Z" changeset="16628593" uid="1556391" user="relet" />
	<node id="2353391654" lat="70.6148049" lon="24.6340488" version="1" timestamp="2013-06-20T11:21:43Z" changeset="16628610" uid="1556391" user="relet" />
	<node id="2353391657" lat="70.6130528" lon="24.6309482" version="1" timestamp="2013-06-20T11:21:43Z" changeset="16628610" uid="1556391" user="relet" />
	<node id="2353391658" lat="70.6139575" lon="24.6349444" version="1" timestamp="2013-06-20T11:21:43Z" changeset="16628610" uid="1556391" user="relet" />
	<node id="2353391659" lat="70.6149608" lon="24.6295873" version="1" timestamp="2013-06-20T11:21:43Z" changeset="16628610" uid="1556391" user="relet" />
	<node id="2353391656" lat="70.6131032" lon="24.6350492" version="1" timestamp="2013-06-20T11:21:43Z" changeset="16628610" uid="1556391" user="relet" />
	<node id="5806180914" lat="70.6182757" lon="24.6929185" version="1" timestamp="2018-08-03T07:28:20Z" changeset="61319436" uid="8470372" user="Entur AS | Angie Torres" />
	<node id="5806182167" lat="70.6176512" lon="24.692551" version="1" timestamp="2018-08-03T07:28:39Z" changeset="61319436" uid="8470372" user="Entur AS | Angie Torres" />
	<node id="5806184281" lat="70.5840463" lon="24.7881773" version="1" timestamp="2018-08-03T07:29:24Z" changeset="61319436" uid="8470372" user="Entur AS | Angie Torres" />
	<node id="5806197209" lat="70.5839386" lon="24.7891775" version="1" timestamp="2018-08-03T07:32:00Z" changeset="61319481" uid="8470372" user="Entur AS | Angie Torres" />
	<way id="5046869" version="13" timestamp="2022-01-21T07:16:18Z" changeset="116415148" uid="3497659" user="NKA">
		<tag k="bridge" v="yes" />
		<tag k="bridge:structure" v="suspension" />
		<tag k="destination:forward" v="Skaidi" />
		<tag k="highway" v="trunk" />
		<tag k="lanes" v="2" />
		<tag k="layer" v="1" />
		<tag k="lit" v="yes" />
		<tag k="maxspeed" v="80" />
		<tag k="name" v="Kvalsundbrua" />
		<tag k="ref" v="94" />
		<tag k="sidewalk" v="both" />
		<tag k="ssr:stedsnr" v="635557" />
		<tag k="surface" v="asphalt" />
		<tag k="width" v="7" />
		<tag k="wikidata" v="Q3044043" />
		<nd ref="5806187448" />
		<nd ref="5806180949" />
		<nd ref="3343247067" />
		<nd ref="5806188986" />
		<nd ref="5806185130" />
		<nd ref="297601484" />
		<nd ref="5806185905" />
		<nd ref="5806184867" />
		<nd ref="3343247075" />
		<nd ref="297601483" />
		<nd ref="3003481266" />
		<nd ref="6317078660" />
		<nd ref="3344235963" />
		<nd ref="3003481275" />
		<nd ref="5806182787" />
	</way>
	<way id="76221424" version="5" timestamp="2022-01-21T07:16:18Z" changeset="116415148" uid="3497659" user="NKA">
		<tag k="bridge" v="yes" />
		<tag k="bridge:structure" v="beam" />
		<tag k="highway" v="primary" />
		<tag k="layer" v="1" />
		<tag k="loc_name" v="Russelvbrua" />
		<tag k="maxspeed" v="80" />
		<tag k="name" v="Russelv bro" />
		<tag k="ref" v="889" />
		<tag k="ssr:stedsnr" v="882145" />
		<nd ref="5806182167" />
		<nd ref="5806180914" />
	</way>
	<way id="177955591" version="6" timestamp="2022-01-21T07:16:18Z" changeset="116415148" uid="3497659" user="NKA">
		<tag k="bicycle" v="yes" />
		<tag k="bridge" v="yes" />
		<tag k="destination:backward" v="Alta" />
		<tag k="foot" v="yes" />
		<tag k="highway" v="trunk" />
		<tag k="lanes" v="2" />
		<tag k="layer" v="1" />
		<tag k="lit" v="no" />
		<tag k="maxspeed" v="60" />
		<tag k="name" v="Skaidielv bru" />
		<tag k="ref" v="E 6" />
		<tag k="sidewalk" v="none" />
		<tag k="ssr:stedsnr" v="332862" />
		<tag k="surface" v="asphalt" />
		<tag k="width" v="7" />
		<nd ref="5806200265" />
		<nd ref="5806187434" />
	</way>
	<way id="178895114" version="4" timestamp="2022-01-21T07:16:18Z" changeset="116415148" uid="3497659" user="NKA">
		<tag k="bridge" v="yes" />
		<tag k="highway" v="primary" />
		<tag k="layer" v="1" />
		<tag k="maxspeed" v="80" />
		<tag k="name" v="Fossebrua" />
		<tag k="ref" v="889" />
		<tag k="ssr:stedsnr" v="627890" />
		<nd ref="5806197209" />
		<nd ref="5806184281" />
	</way>
	<way id="224924299" version="6" timestamp="2022-01-21T07:16:18Z" changeset="116415148" uid="3497659" user="NKA">
		<tag k="bridge" v="yes" />
		<tag k="bridge:structure" v="beam" />
		<tag k="foot" v="yes" />
		<tag k="highway" v="trunk" />
		<tag k="lanes" v="2" />
		<tag k="layer" v="1" />
		<tag k="lit" v="no" />
		<tag k="maxspeed" v="80" />
		<tag k="name" v="Repparfjordbrua" />
		<tag k="ref" v="94" />
		<tag k="sidewalk" v="none" />
		<tag k="ssr:stedsnr" v="757915" />
		<tag k="surface" v="asphalt" />
		<tag k="width" v="6.5" />
		<nd ref="5806189406" />
		<nd ref="5806185447" />
		<nd ref="2337651184" />
		<nd ref="2337651182" />
		<nd ref="5806185225" />
		<nd ref="5806181149" />
		<nd ref="295215689" />
		<nd ref="5806183317" />
	</way>
	<way id="226551586" version="3" timestamp="2018-05-02T17:09:19Z" changeset="58620907" uid="3497659" user="NKA">
		<tag k="area" v="yes" />
		<tag k="landuse" v="harbour" />
		<tag k="name" v="Hamna" />
		<tag k="name:no" v="Hamna" />
		<tag k="source" v="Kartverket" />
		<tag k="ssr:stedsnr" v="578202" />
		<nd ref="2353390705" />
		<nd ref="2353391659" />
		<nd ref="2353390706" />
		<nd ref="2353391654" />
		<nd ref="2353391658" />
		<nd ref="2353391656" />
		<nd ref="2353390707" />
		<nd ref="2353391657" />
		<nd ref="2353391655" />
		<nd ref="2353390705" />
	</way>
	<way id="312294993" version="5" timestamp="2022-01-21T07:16:18Z" changeset="116415148" uid="3497659" user="NKA">
		<tag k="bicycle" v="yes" />
		<tag k="bridge" v="yes" />
		<tag k="foot" v="yes" />
		<tag k="highway" v="trunk" />
		<tag k="lanes" v="2" />
		<tag k="layer" v="1" />
		<tag k="lit" v="yes" />
		<tag k="maxspeed" v="50" />
		<tag k="name" v="Brua" />
		<tag k="ref" v="94" />
		<tag k="sidewalk" v="none" />
		<tag k="ssr:stedsnr" v="456249" />
		<tag k="surface" v="asphalt" />
		<tag k="width" v="7" />
		<nd ref="5815077281" />
		<nd ref="5815078447" />
	</way>
</osm>
