<?xml version="1.0" encoding="UTF-8"?>
<osm version="0.6" generator="osmapis">
	<node id="2354941413" lat="65.094439" lon="11.747942" version="2" timestamp="2018-05-02T17:04:08Z" changeset="58620907" uid="3497659" user="NKA">
		<tag k="name" v="Galtin" />
		<tag k="natural" v="peak" />
		<tag k="source" v="Kartverket" />
		<tag k="ssr:stedsnr" v="653725" />
	</node>
	<node id="5002294196" lat="65.0667348" lon="11.6631899" version="1" timestamp="2017-07-30T00:26:24Z" changeset="50682706" uid="5732597" user="ENTUR Johan Wiklund" />
	<node id="5002296363" lat="65.0656565" lon="11.6647621" version="1" timestamp="2017-07-30T00:26:59Z" changeset="50682706" uid="5732597" user="ENTUR Johan Wiklund" />
	<way id="38218298" version="5" timestamp="2022-01-24T21:00:15Z" changeset="116559033" uid="3497659" user="NKA">
		<tag k="bridge" v="yes" />
		<tag k="highway" v="secondary" />
		<tag k="layer" v="1" />
		<tag k="maxspeed" v="80" />
		<tag k="name" v="MadsÃ¸ybrua" />
		<tag k="ref" v="7132" />
		<tag k="ssr:stedsnr" v="108813" />
		<nd ref="5002294196" />
		<nd ref="5002296363" />
	</way>
</osm>
