<?xml version="1.0" encoding="UTF-8"?>
<<<<<<< HEAD
<osm version="0.6" generator="osmapis">
	<node lat="60.064976818324794" lon="10.930180109119759" id="-18076">
		<tag k="name" v="Langmyra" />
		<tag k="natural" v="wetland" />
		<tag k="ssr:stedsnr" v="6588" />
	</node>
	<node lat="60.078702773966036" lon="10.841236103028313" id="-18077">
		<tag k="name" v="Lomtjernsmyrene" />
		<tag k="natural" v="wetland" />
		<tag k="ssr:stedsnr" v="41114" />
	</node>
	<node lat="60.10700833377592" lon="10.79433054727354" id="-18119">
		<tag k="name" v="Svenskemyra" />
=======
<osm generator="osmapis" version="0.6">
	<node id="-259712" lat="60.0981898662" lon="10.7823631494">
		<tag k="loc_name" v="Flekkrosmyra" />
		<tag k="name" v="Flekkrasmyra" />
		<tag k="natural" v="wetland" />
		<tag k="ssr:stedsnr" v="5597" />
	</node>
	<node id="-259838" lat="60.0443444404" lon="10.958644452">
		<tag k="alt_name" v="Jakobsmyr" />
		<tag k="name" v="Jakobsmyra" />
		<tag k="natural" v="wetland" />
		<tag k="ssr:stedsnr" v="308406" />
	</node>
	<node id="-259837" lat="60.1093444469" lon="10.7784083311">
		<tag k="name" v="Stormyra" />
		<tag k="natural" v="wetland" />
		<tag k="ssr:stedsnr" v="308379" />
	</node>
	<node id="-259963" lat="60.0149083378" lon="10.8956555609">
		<tag k="name" v="Høyfjellsmyra" />
		<tag k="natural" v="wetland" />
		<tag k="ssr:stedsnr" v="594580" />
	</node>
	<node id="-259954" lat="59.9950055599" lon="10.9536500071">
		<tag k="name" v="Torudflaen" />
		<tag k="place" v="locality" />
		<tag k="ssr:stedsnr" v="587369" />
	</node>
	<node id="-259953" lat="60.0015777753" lon="10.9020472308">
		<tag k="name" v="Småmyrene" />
>>>>>>> e1d4bc35ff8a6074a6f2e91616a996b547c36f15
		<tag k="natural" v="wetland" />
		<tag k="ssr:stedsnr" v="162114" />
	</node>
<<<<<<< HEAD
	<node lat="60.09348610965345" lon="10.920813892738874" id="-18141">
		<tag k="name" v="Høyfjellsvangen" />
=======
	<node id="-259688" lat="60.0937138872" lon="10.8716749992">
		<tag k="name" v="Ånebymosen" />
		<tag k="natural" v="wetland" />
		<tag k="ssr:stedsnr" v="951126" />
	</node>
	<node id="-259566" lat="60.0671944484" lon="10.9109638928">
		<tag k="name" v="Rustajet" />
>>>>>>> e1d4bc35ff8a6074a6f2e91616a996b547c36f15
		<tag k="place" v="locality" />
		<tag k="ssr:stedsnr" v="221008" />
	</node>
<<<<<<< HEAD
	<node lat="60.03195555559611" lon="10.911208339199998" id="-18144">
		<tag k="name" v="Berget" />
=======
	<node id="-259949" lat="60.0097111101" lon="10.8735444414">
		<tag k="name" v="Olsenhogget" />
>>>>>>> e1d4bc35ff8a6074a6f2e91616a996b547c36f15
		<tag k="place" v="locality" />
		<tag k="ssr:stedsnr" v="221618" />
	</node>
<<<<<<< HEAD
	<node lat="60.00160833059004" lon="10.94978889032912" id="-18149">
		<tag k="name" v="Nordlykkja" />
		<tag k="place" v="locality" />
		<tag k="ssr:stedsnr" v="223375" />
	</node>
	<node lat="60.039494442752435" lon="10.960661119258054" id="-18169">
		<tag k="name" v="Breimåsan" />
=======
	<node id="-259602" lat="60.0223305588" lon="10.851683331">
		<tag k="name" v="Nordskogmyra" />
		<tag k="natural" v="wetland" />
		<tag k="ssr:stedsnr" v="888863" />
	</node>
	<node id="-259946" lat="60.1450805048" lon="10.8726072829">
		<tag k="alt_name" v="Århanamyra" />
		<tag k="name" v="Århanemyra" />
>>>>>>> e1d4bc35ff8a6074a6f2e91616a996b547c36f15
		<tag k="natural" v="wetland" />
		<tag k="ssr:stedsnr" v="464316" />
	</node>
<<<<<<< HEAD
	<node lat="60.044344440392315" lon="10.95864445199405" id="-18173">
		<tag k="alt_name" v="Jakobsmyr" />
		<tag k="name" v="Jakobsmyra" />
=======
	<node id="-259816" lat="60.1134861092" lon="10.7996305579">
		<tag k="alt_name" v="Mattismyra" />
		<tag k="name" v="Mattismyr" />
>>>>>>> e1d4bc35ff8a6074a6f2e91616a996b547c36f15
		<tag k="natural" v="wetland" />
		<tag k="ssr:stedsnr" v="308406" />
	</node>
<<<<<<< HEAD
	<node lat="60.06583055283608" lon="10.861519435444876" id="-18179">
		<tag k="name" v="Linfåningen" />
		<tag k="natural" v="wetland" />
		<tag k="ssr:stedsnr" v="309596" />
	</node>
	<node lat="60.110261111042455" lon="10.826408333275213" id="-18199">
		<tag k="name" v="Buråsmyra" />
=======
	<node id="-259942" lat="60.1343000006" lon="10.7186249913">
		<tag k="name" v="Lønnbakkmyra" />
>>>>>>> e1d4bc35ff8a6074a6f2e91616a996b547c36f15
		<tag k="natural" v="wetland" />
		<tag k="ssr:stedsnr" v="369515" />
	</node>
<<<<<<< HEAD
	<node lat="60.004686114727406" lon="10.911427778812355" id="-18206">
		<tag k="landuse" v="quarry" />
		<tag k="name" v="Bjønndalen bruk" />
		<tag k="ssr:stedsnr" v="403889" />
	</node>
	<node lat="60.15091666277669" lon="10.70284721633951" id="-18207">
		<tag k="name" v="Kongsskogmyra" />
=======
	<node id="-259557" lat="60.0086694457" lon="10.8796916649">
		<tag k="name" v="Hjulmakerhogget" />
		<tag k="place" v="locality" />
		<tag k="ssr:stedsnr" v="707831" />
	</node>
	<node id="-259556" lat="60.0425194423" lon="10.9656527768">
		<tag k="name" v="Langmåsan" />
>>>>>>> e1d4bc35ff8a6074a6f2e91616a996b547c36f15
		<tag k="natural" v="wetland" />
		<tag k="ssr:stedsnr" v="405288" />
	</node>
<<<<<<< HEAD
	<node lat="60.0453361120458" lon="10.830255557647916" id="-18247">
		<tag k="alt_name" v="Slåttemyrene" />
		<tag k="name" v="Slåttemyra" />
=======
	<node id="-259558" lat="59.9984138882" lon="10.880850001">
		<tag k="name" v="Haugermåsan" />
		<tag k="natural" v="wetland" />
		<tag k="ssr:stedsnr" v="707842" />
	</node>
	<node id="-259681" lat="60.1418777808" lon="10.6903138828">
		<tag k="name" v="Stålmyra" />
>>>>>>> e1d4bc35ff8a6074a6f2e91616a996b547c36f15
		<tag k="natural" v="wetland" />
		<tag k="ssr:stedsnr" v="673451" />
	</node>
<<<<<<< HEAD
	<node lat="60.03868611516053" lon="10.894844437004076" id="-18275">
		<tag k="name" v="Gaustadmåsan" />
=======
	<node id="-259935" lat="60.1108138895" lon="10.788722224">
		<tag k="name" v="Karimyr" />
>>>>>>> e1d4bc35ff8a6074a6f2e91616a996b547c36f15
		<tag k="natural" v="wetland" />
		<tag k="ssr:stedsnr" v="551416" />
	</node>
<<<<<<< HEAD
	<node lat="60.145080504841005" lon="10.872607282949572" id="-18281">
		<tag k="alt_name" v="Århanamyra" />
		<tag k="name" v="Århanemyra" />
		<tag k="natural" v="wetland" />
		<tag k="ssr:stedsnr" v="551749" />
	</node>
	<node lat="60.134300000570036" lon="10.718624991347639" id="-18282">
		<tag k="name" v="Lønnbakkmyra" />
=======
	<node id="-259805" lat="60.0001111108" lon="10.9496305624">
		<tag k="name" v="Bjønn" />
		<tag k="place" v="locality" />
		<tag k="ssr:stedsnr" v="162364" />
	</node>
	<node id="-259804" lat="60.0023194447" lon="10.8941805511">
		<tag k="name" v="Bjønndalsmyra" />
>>>>>>> e1d4bc35ff8a6074a6f2e91616a996b547c36f15
		<tag k="natural" v="wetland" />
		<tag k="ssr:stedsnr" v="551646" />
	</node>
<<<<<<< HEAD
	<node lat="60.0015777752536" lon="10.902047230765698" id="-18287">
		<tag k="name" v="Småmyrene" />
=======
	<node id="-259931" lat="60.0386861152" lon="10.894844437">
		<tag k="name" v="Gaustadmåsan" />
>>>>>>> e1d4bc35ff8a6074a6f2e91616a996b547c36f15
		<tag k="natural" v="wetland" />
		<tag k="ssr:stedsnr" v="587361" />
	</node>
<<<<<<< HEAD
	<node lat="60.04251944233817" lon="10.965652776840052" id="-18314">
		<tag k="name" v="Langmåsan" />
=======
	<node id="-259674" lat="60.0233416628" lon="10.8450638803">
		<tag k="name" v="Skottmåsan" />
>>>>>>> e1d4bc35ff8a6074a6f2e91616a996b547c36f15
		<tag k="natural" v="wetland" />
		<tag k="ssr:stedsnr" v="707328" />
	</node>
<<<<<<< HEAD
	<node lat="60.008669445748225" lon="10.879691664906302" id="-18315">
		<tag k="name" v="Hjulmakerhogget" />
=======
	<node id="-259673" lat="59.980005559" lon="10.9384472139">
		<tag k="alt_name" v="Hollum skog" />
		<tag k="name" v="Holum skog" />
>>>>>>> e1d4bc35ff8a6074a6f2e91616a996b547c36f15
		<tag k="place" v="locality" />
		<tag k="ssr:stedsnr" v="707831" />
	</node>
<<<<<<< HEAD
	<node lat="59.99841388822235" lon="10.880850000982091" id="-18316">
		<tag k="name" v="Haugermåsan" />
=======
	<node id="-259798" lat="59.9859166676" lon="10.8831499976">
		<tag k="name" v="Romsmåsan" />
>>>>>>> e1d4bc35ff8a6074a6f2e91616a996b547c36f15
		<tag k="natural" v="wetland" />
		<tag k="ssr:stedsnr" v="707842" />
	</node>
<<<<<<< HEAD
	<node lat="59.98688610695607" lon="10.98732221592676" id="-18324">
		<tag k="name" v="Lillesund" />
		<tag k="place" v="locality" />
		<tag k="ssr:stedsnr" v="708349" />
	</node>
	<node lat="60.04721944158521" lon="10.890358334944379" id="-18328">
=======
	<node id="-259385" lat="60.0319555556" lon="10.9112083392">
		<tag k="name" v="Berget" />
		<tag k="place" v="locality" />
		<tag k="ssr:stedsnr" v="221618" />
	</node>
	<node id="-259796" lat="59.9951861153" lon="10.9031694367">
		<tag k="name" v="Skyttamyra" />
		<tag k="natural" v="wetland" />
		<tag k="ssr:stedsnr" v="160242" />
	</node>
	<node id="-259536" lat="60.0472194416" lon="10.8903583349">
>>>>>>> e1d4bc35ff8a6074a6f2e91616a996b547c36f15
		<tag k="name" v="Haugsmåsan" />
		<tag k="natural" v="wetland" />
		<tag k="ssr:stedsnr" v="673472" />
	</node>
<<<<<<< HEAD
	<node lat="60.02059166881731" lon="10.851477785171706" id="-18338">
		<tag k="name" v="Nordskogen" />
		<tag k="place" v="locality" />
		<tag k="ssr:stedsnr" v="706872" />
	</node>
	<node lat="60.11057500458922" lon="10.801213882104983" id="-18354">
		<tag k="name" v="Rundmyra" />
		<tag k="natural" v="wetland" />
		<tag k="ssr:stedsnr" v="734617" />
	</node>
	<node lat="60.03214721864434" lon="10.84029444202535" id="-18364">
		<tag k="name" v="Momyra" />
		<tag k="natural" v="wetland" />
		<tag k="ssr:stedsnr" v="769720" />
	</node>
	<node lat="60.07897499623234" lon="10.914413886285999" id="-18394">
		<tag k="name" v="Spenningsbymåsan" />
		<tag k="natural" v="wetland" />
		<tag k="ssr:stedsnr" v="830106" />
	</node>
	<node lat="60.06530000189048" lon="10.897969447375269" id="-18396">
=======
	<node id="-259535" lat="60.045336112" lon="10.8302555576">
		<tag k="alt_name" v="Slåttemyrene" />
		<tag k="name" v="Slåttemyra" />
		<tag k="natural" v="wetland" />
		<tag k="ssr:stedsnr" v="673451" />
	</node>
	<node id="-259405" lat="60.078702774" lon="10.841236103">
		<tag k="name" v="Lomtjernsmyrene" />
		<tag k="natural" v="wetland" />
		<tag k="ssr:stedsnr" v="41114" />
	</node>
	<node id="-259786" lat="60.1179611081" lon="10.8000027782">
		<tag k="alt_name" v="Bukkemyra" />
		<tag k="name" v="Bukkemyr" />
		<tag k="natural" v="wetland" />
		<tag k="ssr:stedsnr" v="126669" />
	</node>
	<node id="-259398" lat="60.0426055571" lon="10.8770222181">
		<tag k="name" v="Motajet" />
		<tag k="place" v="locality" />
		<tag k="ssr:stedsnr" v="223747" />
	</node>
	<node id="-259510" lat="60.0004583339" lon="10.9553888926">
		<tag k="name" v="Holmshagan" />
		<tag k="place" v="locality" />
		<tag k="ssr:stedsnr" v="405364" />
	</node>
	<node id="-260031" lat="60.0653000019" lon="10.8979694474">
>>>>>>> e1d4bc35ff8a6074a6f2e91616a996b547c36f15
		<tag k="name" v="Olabakka" />
		<tag k="place" v="locality" />
		<tag k="ssr:stedsnr" v="830281" />
	</node>
<<<<<<< HEAD
	<node lat="60.02233055882183" lon="10.851683330968948" id="-18419">
		<tag k="name" v="Nordskogmyra" />
=======
	<node id="-259388" lat="60.0037888892" lon="10.966994441">
		<tag k="name" v="Løkenbakken" />
		<tag k="place" v="locality" />
		<tag k="ssr:stedsnr" v="223201" />
	</node>
	<node id="-259914" lat="60.0759638849" lon="10.8272027765">
		<tag k="name" v="Svenskemyra" />
		<tag k="natural" v="wetland" />
		<tag k="ssr:stedsnr" v="430528" />
	</node>
	<node id="-259551" lat="60.0205916688" lon="10.8514777852">
		<tag k="name" v="Nordskogen" />
		<tag k="place" v="locality" />
		<tag k="ssr:stedsnr" v="706872" />
	</node>
	<node id="-260024" lat="60.0789749962" lon="10.9144138863">
		<tag k="name" v="Spenningsbymåsan" />
>>>>>>> e1d4bc35ff8a6074a6f2e91616a996b547c36f15
		<tag k="natural" v="wetland" />
		<tag k="ssr:stedsnr" v="888863" />
	</node>
<<<<<<< HEAD
	<node lat="60.0001361079281" lon="10.951711110268105" id="-18424">
		<tag k="name" v="Smieflotten" />
		<tag k="place" v="locality" />
		<tag k="ssr:stedsnr" v="891394" />
	</node>
	<node lat="60.141877780808166" lon="10.690313882815506" id="-18430">
		<tag k="name" v="Stålmyra" />
		<tag k="natural" v="wetland" />
		<tag k="ssr:stedsnr" v="916109" />
	</node>
	<node lat="59.98000555904223" lon="10.938447213853099" id="-18437">
		<tag k="alt_name" v="Hollum skog" />
		<tag k="name" v="Holum skog" />
		<tag k="place" v="locality" />
		<tag k="ssr:stedsnr" v="949244" />
	</node>
	<node lat="60.093713887180996" lon="10.871674999214708" id="-18439">
		<tag k="name" v="Ånebymosen" />
=======
	<node id="-259511" lat="59.9998638865" lon="10.9778250075">
		<tag k="name" v="Storsletta" />
		<tag k="place" v="locality" />
		<tag k="ssr:stedsnr" v="405365" />
	</node>
	<node id="-260022" lat="60.0048833369" lon="10.8876361036">
		<tag k="name" v="Bjønndalsmyra" />
		<tag k="natural" v="wetland" />
		<tag k="ssr:stedsnr" v="828836" />
	</node>
	<node id="-259892" lat="60.1509166628" lon="10.7028472163">
		<tag k="name" v="Kongsskogmyra" />
		<tag k="natural" v="wetland" />
		<tag k="ssr:stedsnr" v="405288" />
	</node>
	<node id="-259890" lat="60.0046861147" lon="10.9114277788">
		<tag k="landuse" v="quarry" />
		<tag k="name" v="Bjønndalen bruk" />
		<tag k="ssr:stedsnr" v="403889" />
	</node>
	<node id="-259633" lat="60.0321472186" lon="10.840294442">
		<tag k="name" v="Momyra" />
		<tag k="natural" v="wetland" />
		<tag k="ssr:stedsnr" v="769720" />
	</node>
	<node id="-259888" lat="60.0339472266" lon="10.962952782">
		<tag k="name" v="Pettersmyra" />
>>>>>>> e1d4bc35ff8a6074a6f2e91616a996b547c36f15
		<tag k="natural" v="wetland" />
		<tag k="ssr:stedsnr" v="951126" />
	</node>
<<<<<<< HEAD
	<node lat="60.09818986622604" lon="10.782363149446663" id="-18462">
		<tag k="loc_name" v="Flekkrosmyra" />
		<tag k="name" v="Flekkrasmyra" />
=======
	<node id="-260015" lat="60.1075111082" lon="10.8076166631">
		<tag k="alt_name" v="Vinterveimyra" />
		<tag k="name" v="Vintervegmyra" />
>>>>>>> e1d4bc35ff8a6074a6f2e91616a996b547c36f15
		<tag k="natural" v="wetland" />
		<tag k="ssr:stedsnr" v="5597" />
	</node>
<<<<<<< HEAD
	<node lat="60.09159376032963" lon="10.825310592651775" id="-18479">
		<tag k="name" v="Krølltoppmyra" />
=======
	<node id="-260014" lat="60.0747994073" lon="10.7995523173">
		<tag k="loc_name" v="Gråbeinmyra" />
		<tag k="name" v="Gravemyra" />
>>>>>>> e1d4bc35ff8a6074a6f2e91616a996b547c36f15
		<tag k="natural" v="wetland" />
		<tag k="ssr:stedsnr" v="41289" />
	</node>
<<<<<<< HEAD
	<node lat="60.07446389104803" lon="10.90085277003115" id="-18507">
=======
	<node id="-259757" lat="60.074463891" lon="10.90085277">
>>>>>>> e1d4bc35ff8a6074a6f2e91616a996b547c36f15
		<tag k="name" v="Sengen" />
		<tag k="place" v="locality" />
		<tag k="ssr:stedsnr" v="102121" />
	</node>
<<<<<<< HEAD
	<node lat="60.117961108144044" lon="10.800002778249812" id="-18530">
		<tag k="alt_name" v="Bukkemyra" />
		<tag k="name" v="Bukkemyr" />
		<tag k="natural" v="wetland" />
		<tag k="ssr:stedsnr" v="126669" />
	</node>
	<node lat="59.995186115305025" lon="10.903169436683932" id="-18538">
		<tag k="name" v="Skyttamyra" />
		<tag k="natural" v="wetland" />
		<tag k="ssr:stedsnr" v="160242" />
	</node>
	<node lat="59.98591666756317" lon="10.883149997573069" id="-18542">
		<tag k="name" v="Romsmåsan" />
=======
	<node id="-259442" lat="60.1070083338" lon="10.7943305473">
		<tag k="name" v="Svenskemyra" />
		<tag k="natural" v="wetland" />
		<tag k="ssr:stedsnr" v="162114" />
	</node>
	<node id="-259380" lat="60.0934861097" lon="10.9208138927">
		<tag k="name" v="Høyfjellsvangen" />
		<tag k="place" v="locality" />
		<tag k="ssr:stedsnr" v="221008" />
	</node>
	<node id="-259877" lat="60.110261111" lon="10.8264083333">
		<tag k="name" v="Buråsmyra" />
>>>>>>> e1d4bc35ff8a6074a6f2e91616a996b547c36f15
		<tag k="natural" v="wetland" />
		<tag k="ssr:stedsnr" v="160825" />
	</node>
<<<<<<< HEAD
	<node lat="60.00011111078587" lon="10.949630562373617" id="-18547">
		<tag k="name" v="Bjønn" />
=======
	<node id="-259917" lat="60.1115750001" lon="10.7734333261">
		<tag k="name" v="Elvassmyra" />
		<tag k="natural" v="wetland" />
		<tag k="ssr:stedsnr" v="430581" />
	</node>
	<node id="-260003" lat="59.999786114" lon="10.9552777795">
		<tag k="name" v="Sletta" />
>>>>>>> e1d4bc35ff8a6074a6f2e91616a996b547c36f15
		<tag k="place" v="locality" />
		<tag k="ssr:stedsnr" v="162364" />
	</node>
<<<<<<< HEAD
	<node lat="60.11348610924986" lon="10.79963055787865" id="-18552">
		<tag k="alt_name" v="Mattismyra" />
		<tag k="name" v="Mattismyr" />
		<tag k="natural" v="wetland" />
		<tag k="ssr:stedsnr" v="187533" />
	</node>
	<node lat="60.00378888915253" lon="10.966994441029202" id="-18565">
		<tag k="name" v="Løkenbakken" />
		<tag k="place" v="locality" />
		<tag k="ssr:stedsnr" v="223201" />
	</node>
	<node lat="60.0426055571005" lon="10.877022218099151" id="-18570">
		<tag k="name" v="Motajet" />
=======
	<node id="-259605" lat="59.9858555533" lon="10.9672916613">
		<tag k="name" v="Bølerstuflaen" />
		<tag k="place" v="locality" />
		<tag k="ssr:stedsnr" v="889268" />
	</node>
	<node id="-259615" lat="60.0001361079" lon="10.9517111103">
		<tag k="name" v="Smieflotten" />
		<tag k="place" v="locality" />
		<tag k="ssr:stedsnr" v="891394" />
	</node>
	<node id="-259994" lat="59.993808335" lon="10.9664361051">
		<tag k="name" v="Nesgutuhagan" />
>>>>>>> e1d4bc35ff8a6074a6f2e91616a996b547c36f15
		<tag k="place" v="locality" />
		<tag k="ssr:stedsnr" v="223747" />
	</node>
<<<<<<< HEAD
	<node lat="60.10934444686057" lon="10.778408331050834" id="-18587">
		<tag k="name" v="Stormyra" />
		<tag k="natural" v="wetland" />
		<tag k="ssr:stedsnr" v="308379" />
	</node>
	<node lat="60.0083611112009" lon="10.88442777298332" id="-18596">
=======
	<node id="-259608" lat="60.0119083326" lon="10.8730222198">
		<tag k="name" v="Skøyenmåsan" />
		<tag k="natural" v="wetland" />
		<tag k="ssr:stedsnr" v="889825" />
	</node>
	<node id="-259606" lat="59.9857916654" lon="10.9649222231">
		<tag k="landuse" v="meadow" />
		<tag k="name" v="Holumenga" />
		<tag k="ssr:stedsnr" v="889269" />
	</node>
	<node id="-259512" lat="59.9990638907" lon="10.966927772">
		<tag k="name" v="Omsibakken" />
		<tag k="place" v="locality" />
		<tag k="ssr:stedsnr" v="405366" />
	</node>
	<node id="-259858" lat="60.0083611112" lon="10.884427773">
>>>>>>> e1d4bc35ff8a6074a6f2e91616a996b547c36f15
		<tag k="name" v="Skjærmåsan" />
		<tag k="natural" v="wetland" />
		<tag k="ssr:stedsnr" v="342786" />
	</node>
<<<<<<< HEAD
	<node lat="60.03394722655982" lon="10.962952782015726" id="-18616">
		<tag k="name" v="Pettersmyra" />
=======
	<node id="-259395" lat="60.0016083306" lon="10.9497888903">
		<tag k="name" v="Nordlykkja" />
		<tag k="place" v="locality" />
		<tag k="ssr:stedsnr" v="223375" />
	</node>
	<node id="-259728" lat="60.0915937603" lon="10.8253105927">
		<tag k="name" v="Krølltoppmyra" />
>>>>>>> e1d4bc35ff8a6074a6f2e91616a996b547c36f15
		<tag k="natural" v="wetland" />
		<tag k="ssr:stedsnr" v="403338" />
	</node>
<<<<<<< HEAD
	<node lat="60.00045833388351" lon="10.955388892590653" id="-18622">
		<tag k="name" v="Holmshagan" />
		<tag k="place" v="locality" />
		<tag k="ssr:stedsnr" v="405364" />
	</node>
	<node lat="59.99986388647084" lon="10.977825007459135" id="-18623">
		<tag k="name" v="Storsletta" />
		<tag k="place" v="locality" />
		<tag k="ssr:stedsnr" v="405365" />
	</node>
	<node lat="59.99906389066129" lon="10.966927772037462" id="-18624">
		<tag k="name" v="Omsibakken" />
		<tag k="place" v="locality" />
		<tag k="ssr:stedsnr" v="405366" />
	</node>
	<node lat="60.111575000110655" lon="10.773433326109082" id="-18629">
		<tag k="name" v="Elvassmyra" />
=======
	<node id="-259597" lat="60.1105750046" lon="10.8012138821">
		<tag k="name" v="Rundmyra" />
		<tag k="natural" v="wetland" />
		<tag k="ssr:stedsnr" v="734617" />
	</node>
	<node id="-259850" lat="60.0658305528" lon="10.8615194354">
		<tag k="name" v="Linfåningen" />
>>>>>>> e1d4bc35ff8a6074a6f2e91616a996b547c36f15
		<tag k="natural" v="wetland" />
		<tag k="ssr:stedsnr" v="430581" />
	</node>
<<<<<<< HEAD
	<node lat="60.07596388490589" lon="10.827202776498835" id="-18631">
		<tag k="name" v="Svenskemyra" />
		<tag k="natural" v="wetland" />
		<tag k="ssr:stedsnr" v="430528" />
	</node>
	<node lat="60.11081388950154" lon="10.78872222397645" id="-18649">
		<tag k="name" v="Karimyr" />
=======
	<node id="-259472" lat="60.0394944428" lon="10.9606611193">
		<tag k="name" v="Breimåsan" />
		<tag k="natural" v="wetland" />
		<tag k="ssr:stedsnr" v="464316" />
	</node>
	<node id="-259718" lat="60.0649768183" lon="10.9301801091">
		<tag k="name" v="Langmyra" />
>>>>>>> e1d4bc35ff8a6074a6f2e91616a996b547c36f15
		<tag k="natural" v="wetland" />
		<tag k="ssr:stedsnr" v="551565" />
	</node>
<<<<<<< HEAD
	<node lat="60.0097111101057" lon="10.873544441388907" id="-18656">
		<tag k="name" v="Olsenhogget" />
		<tag k="place" v="locality" />
		<tag k="ssr:stedsnr" v="585778" />
	</node>
	<node lat="59.995005559931805" lon="10.953650007105953" id="-18658">
		<tag k="name" v="Torudflaen" />
		<tag k="place" v="locality" />
		<tag k="ssr:stedsnr" v="587369" />
	</node>
	<node lat="60.06719444840215" lon="10.910963892822735" id="-18661">
		<tag k="name" v="Rustajet" />
		<tag k="place" v="locality" />
		<tag k="ssr:stedsnr" v="587332" />
	</node>
	<node lat="60.014908337766165" lon="10.895655560888352" id="-18665">
		<tag k="name" v="Høyfjellsmyra" />
=======
	<node id="-259970" lat="60.047083332" lon="10.8372444463">
		<tag k="name" v="Langmyra" />
>>>>>>> e1d4bc35ff8a6074a6f2e91616a996b547c36f15
		<tag k="natural" v="wetland" />
		<tag k="ssr:stedsnr" v="594580" />
	</node>
<<<<<<< HEAD
	<node lat="60.04708333201665" lon="10.837244446250901" id="-18669">
		<tag k="name" v="Langmyra" />
		<tag k="natural" v="wetland" />
		<tag k="ssr:stedsnr" v="611462" />
	</node>
	<node lat="59.99380833499204" lon="10.96643610506547" id="-18691">
		<tag k="name" v="Nesgutuhagan" />
		<tag k="place" v="locality" />
		<tag k="ssr:stedsnr" v="647369" />
	</node>
	<node lat="60.011908332556054" lon="10.873022219774937" id="-18704">
		<tag k="name" v="Skøyenmåsan" />
		<tag k="natural" v="wetland" />
		<tag k="ssr:stedsnr" v="889825" />
	</node>
	<node lat="59.99978611396722" lon="10.955277779538447" id="-18710">
		<tag k="name" v="Sletta" />
		<tag k="place" v="locality" />
		<tag k="ssr:stedsnr" v="769350" />
	</node>
	<node lat="60.107511108233126" lon="10.807616663065039" id="-18718">
		<tag k="alt_name" v="Vinterveimyra" />
		<tag k="name" v="Vintervegmyra" />
		<tag k="natural" v="wetland" />
		<tag k="ssr:stedsnr" v="794588" />
	</node>
	<node lat="60.074799407290264" lon="10.799552317349562" id="-18723">
		<tag k="loc_name" v="Gråbeinmyra" />
		<tag k="name" v="Gravemyra" />
		<tag k="natural" v="wetland" />
		<tag k="ssr:stedsnr" v="794520" />
	</node>
	<node lat="60.003632420851716" lon="10.889208203727508" id="-18730">
		<tag k="name" v="Bjønndalsmyra" />
		<tag k="natural" v="wetland" />
		<tag k="ssr:stedsnr" v="828836" />
	</node>
	<node lat="59.98585555331252" lon="10.96729166126314" id="-18746">
		<tag k="name" v="Bølerstuflaen" />
		<tag k="place" v="locality" />
		<tag k="ssr:stedsnr" v="889268" />
	</node>
	<node lat="59.98579166535645" lon="10.964922223052337" id="-18747">
		<tag k="landuse" v="meadow" />
		<tag k="name" v="Holumenga" />
		<tag k="ssr:stedsnr" v="889269" />
	</node>
	<node lat="60.023341662839464" lon="10.845063880340435" id="-18750">
		<tag k="name" v="Skottmåsan" />
		<tag k="natural" v="wetland" />
		<tag k="ssr:stedsnr" v="949847" />
=======
	<node id="-259563" lat="59.986886107" lon="10.9873222159">
		<tag k="name" v="Lillesund" />
		<tag k="place" v="locality" />
		<tag k="ssr:stedsnr" v="708349" />
>>>>>>> e1d4bc35ff8a6074a6f2e91616a996b547c36f15
	</node>
</osm>
