<?xml version="1.0" encoding="UTF-8"?>
<osm generator="osmapis" version="0.6">
	<node id="-248000" lat="59.9972555513" lon="10.8388416662">
		<tag k="fixme" v="consider boundary=protected_area and relevant protect_class if not nature reserve" />
		<tag k="leisure" v="nature_reserve" />
		<tag k="name" v="Lillomarka naturreservat" />
		<tag k="ssr:stedsnr" v="727997" />
	</node>
	<node id="-248414" lat="60.0833249973" lon="10.7924666581">
		<tag k="fixme" v="consider boundary=protected_area and relevant protect_class if not nature reserve" />
		<tag k="leisure" v="nature_reserve" />
		<tag k="name" v="Karlshaugen naturreservat" />
		<tag k="ssr:stedsnr" v="647294" />
	</node>
	<node id="-248349" lat="60.0427989809" lon="10.9531234654">
		<tag k="fixme" v="consider boundary=protected_area and relevant protect_class if not nature reserve" />
		<tag k="leisure" v="nature_reserve" />
		<tag k="name" v="Prekestolen og Ryggevanna naturreservat" />
		<tag k="ssr:stedsnr" v="545993" />
	</node>
	<node id="-248476" lat="59.9902083348" lon="10.8850277788">
		<tag k="fixme" v="consider boundary=protected_area and relevant protect_class if not nature reserve" />
		<tag k="leisure" v="nature_reserve" />
		<tag k="name" v="Slattumsrøa naturreservat" />
		<tag k="ssr:stedsnr" v="951328" />
	</node>
	<node id="-248014" lat="60.1656027753" lon="10.7857749988">
		<tag k="fixme" v="consider boundary=protected_area and relevant protect_class if not nature reserve" />
		<tag k="leisure" v="nature_reserve" />
		<tag k="name" v="Rundkollen og Sortungbekken naturreservat" />
		<tag k="ssr:stedsnr" v="647855" />
	</node>
	<node id="-248486" lat="60.1506965545" lon="10.8698396392">
		<tag k="fixme" v="consider boundary=protected_area and relevant protect_class if not nature reserve" />
		<tag k="leisure" v="nature_reserve" />
		<tag k="name" v="Århanemyra naturreservat" />
		<tag k="ssr:stedsnr" v="991087" />
	</node>
	<node id="-248481" lat="60.0442333364" lon="10.8306777706">
		<tag k="fixme" v="consider boundary=protected_area and relevant protect_class if not nature reserve" />
		<tag k="leisure" v="nature_reserve" />
		<tag k="name" v="Slåttmyra naturreservat" />
		<tag k="ssr:stedsnr" v="951592" />
	</node>
	<node id="-248289" lat="60.1189361113" lon="10.8830249948">
		<tag k="fixme" v="consider boundary=protected_area and relevant protect_class if not nature reserve" />
		<tag k="leisure" v="nature_reserve" />
		<tag k="name" v="Glitrelia naturreservat" />
		<tag k="ssr:stedsnr" v="363995" />
	</node>
</osm>
