<?xml version="1.0" encoding="UTF-8"?>
<osm version="0.6" generator="osmapis">
	<node lat="60.04547777882687" lon="10.882075007210785" id="-28567">
		<tag k="bridge" v="yes" />
		<tag k="layer" v="1" />
		<tag k="name" v="Bjertnes" />
		<tag k="ssr:stedsnr" v="227006" />
	</node>
	<node lat="60.058316666775276" lon="10.864855551274225" id="-28607">
		<tag k="alt_name" v="Nittedal" />
		<tag k="name" v="Nittedal stasjon" />
		<tag k="railway" v="station" />
		<tag k="ssr:stedsnr" v="248451" />
		<tag k="train" v="yes" />
	</node>
	<node lat="59.98583055351432" lon="10.928111111971747" id="-28665">
		<tag k="bridge" v="yes" />
		<tag k="layer" v="1" />
		<tag k="name" v="Gjelleråsen" />
		<tag k="ssr:stedsnr" v="349005" />
	</node>
	<node lat="60.103133331951206" lon="10.864494451246406" id="-28666">
		<tag k="bridge" v="yes" />
		<tag k="layer" v="1" />
		<tag k="name" v="Fossen" />
		<tag k="ssr:stedsnr" v="349007" />
	</node>
	<node lat="60.090195201885194" lon="10.882859782611787" id="-28689">
		<tag k="bridge" v="yes" />
		<tag k="layer" v="1" />
		<tag k="name" v="Rulse bru" />
		<tag k="ssr:stedsnr" v="405100" />
	</node>
	<node lat="60.04834444700482" lon="10.88232777062649" id="-28711">
		<tag k="bridge" v="yes" />
		<tag k="layer" v="1" />
		<tag k="name" v="Dam" />
		<tag k="ssr:stedsnr" v="470007" />
	</node>
	<node lat="60.01022500359776" lon="10.918013882481489" id="-28758">
		<tag k="bridge" v="yes" />
		<tag k="layer" v="1" />
		<tag k="name" v="Slattum" />
		<tag k="ssr:stedsnr" v="591763" />
	</node>
	<node lat="60.147119440213764" lon="10.78254166514001" id="-28759">
		<tag k="bridge" v="yes" />
		<tag k="layer" v="1" />
		<tag k="name" v="Varpet" />
		<tag k="ssr:stedsnr" v="591766" />
	</node>
	<node lat="60.0337777753635" lon="10.891583326680001" id="-28760">
		<tag k="bridge" v="yes" />
		<tag k="layer" v="1" />
		<tag k="name" v="Måsasvingen" />
		<tag k="ssr:stedsnr" v="591770" />
	</node>
	<node lat="60.124572223390395" lon="10.835980554893025" id="-28855">
		<tag k="bridge" v="yes" />
		<tag k="layer" v="1" />
		<tag k="name" v="Ås" />
		<tag k="ssr:stedsnr" v="835794" />
	</node>
	<node lat="60.00833611220296" lon="10.929291669539351" id="-28856">
		<tag k="bridge" v="yes" />
		<tag k="layer" v="1" />
		<tag k="name" v="Li" />
		<tag k="ssr:stedsnr" v="835795" />
	</node>
	<node lat="59.99778055883241" lon="10.917325001484423" id="-28857">
		<tag k="bridge" v="yes" />
		<tag k="layer" v="1" />
		<tag k="name" v="Hagankrysset" />
		<tag k="ssr:stedsnr" v="835798" />
	</node>
	<node lat="60.11748543886457" lon="10.829405844788495" id="-28876">
		<tag k="alt_name" v="Hakadal" />
		<tag k="name" v="Hakadal stasjon" />
		<tag k="railway" v="station" />
		<tag k="ssr:stedsnr" v="915664" />
		<tag k="train" v="yes" />
	</node>
	<node lat="60.08563159645524" lon="10.862732817578861" id="-29005">
		<tag k="name" v="Åneby stasjon" />
		<tag k="railway" v="station" />
		<tag k="ssr:stedsnr" v="5482" />
		<tag k="train" v="yes" />
	</node>
	<node lat="60.12165211739765" lon="10.824175128037428" id="-29020">
		<tag k="bridge" v="yes" />
		<tag k="layer" v="1" />
		<tag k="name" v="Verksbrua" />
		<tag k="ssr:stedsnr" v="45778" />
	</node>
	<node lat="60.02011389232905" lon="10.907777777922457" id="-29023">
		<tag k="junction" v="yes" />
		<tag k="name" v="Rudstein" />
		<tag k="place" v="locality" />
		<tag k="ssr:stedsnr" v="48552" />
	</node>
	<node lat="59.98530555413593" lon="10.952202775945143" id="-29049">
		<tag k="bridge" v="yes" />
		<tag k="layer" v="1" />
		<tag k="name" v="Olavsgård" />
		<tag k="ssr:stedsnr" v="106798" />
	</node>
	<node lat="60.11073611324978" lon="10.846897226446217" id="-29050">
		<tag k="bridge" v="yes" />
		<tag k="layer" v="1" />
		<tag k="name" v="Løvstad" />
		<tag k="ssr:stedsnr" v="106800" />
	</node>
	<node lat="60.053966664681504" lon="10.882416671646402" id="-29193">
		<tag k="bridge" v="yes" />
		<tag k="layer" v="1" />
		<tag k="name" v="Haug" />
		<tag k="ssr:stedsnr" v="531801" />
	</node>
	<node lat="60.106149996880674" lon="10.846741662997355" id="-29205">
		<tag k="name" v="Varingskollen holdeplass" />
		<tag k="railway" v="halt" />
		<tag k="ssr:stedsnr" v="551581" />
		<tag k="train" v="yes" />
	</node>
	<node lat="60.007480557337445" lon="10.932197214904331" id="-29216">
		<tag k="bridge" v="yes" />
		<tag k="layer" v="1" />
		<tag k="name" v="Slattum" />
		<tag k="ssr:stedsnr" v="592596" />
	</node>
	<node lat="60.00565277975073" lon="10.9172333328551" id="-29245">
		<tag k="bridge" v="yes" />
		<tag k="layer" v="1" />
		<tag k="name" v="Markerud" />
		<tag k="ssr:stedsnr" v="652771" />
	</node>
	<node lat="59.98869166750403" lon="10.929669436838024" id="-29268">
		<tag k="junction" v="yes" />
		<tag k="name" v="Gjelleråsen" />
		<tag k="place" v="locality" />
		<tag k="ssr:stedsnr" v="767264" />
	</node>
	<node lat="60.01247056330687" lon="10.91679427221551" id="-29278">
		<tag k="layer" v="-1" />
		<tag k="name" v="Hagantunnelen" />
		<tag k="old_name" v="Hagan I" />
		<tag k="ssr:stedsnr" v="771498" />
		<tag k="tunnel" v="yes" />
	</node>
	<node lat="60.053786115473535" lon="10.881811116899087" id="-29279">
		<tag k="bridge" v="yes" />
		<tag k="layer" v="1" />
		<tag k="name" v="Rotnes" />
		<tag k="ssr:stedsnr" v="774797" />
	</node>
	<node lat="60.11923055595089" lon="10.835052777738092" id="-29323">
		<tag k="bridge" v="yes" />
		<tag k="layer" v="1" />
		<tag k="name" v="Sagstua" />
		<tag k="ssr:stedsnr" v="956790" />
	</node>
	<node lat="59.98687892076354" lon="10.97925975129568" id="-29324">
		<tag k="alt_name" v="Åros" />
		<tag k="bridge" v="yes" />
		<tag k="layer" v="1" />
		<tag k="name" v="Åros bru" />
		<tag k="ssr:stedsnr" v="956792" />
	</node>
	<node lat="59.995269448568855" lon="10.918747216662778" id="-29325">
		<tag k="bridge" v="yes" />
		<tag k="layer" v="1" />
		<tag k="name" v="Hagan" />
		<tag k="ssr:stedsnr" v="956794" />
	</node>
</osm>
