<?xml version="1.0" encoding="UTF-8"?>
<<<<<<< HEAD
<osm version="0.6" generator="osmapis">
	<node lat="60.16170278042219" lon="10.839641664057892" id="-18075">
		<tag k="name" v="Sortungshøgda" />
		<tag k="natural" v="hill" />
		<tag k="place" v="locality" />
		<tag k="ssr:stedsnr" v="5704" />
	</node>
	<node lat="60.06528333111166" lon="10.89412499355547" id="-18078">
		<tag k="name" v="Nordbyhaugen" />
		<tag k="natural" v="hill" />
		<tag k="place" v="locality" />
		<tag k="ssr:stedsnr" v="41305" />
	</node>
	<node lat="60.07819166271921" lon="10.790977778836687" id="-18083">
		<tag k="fixme" v="consider natural=peak for the most distinct mountains in the district" />
		<tag k="name" v="Gruvåsen" />
		<tag k="natural" v="hill" />
		<tag k="place" v="locality" />
		<tag k="ssr:stedsnr" v="66507" />
	</node>
	<node lat="60.1379388855431" lon="10.842816661626992" id="-18086">
=======
<osm generator="osmapis" version="0.6">
	<node id="-259840" lat="60.0896083329" lon="10.8120444381">
		<tag k="name" v="Østre Karlshaug" />
		<tag k="natural" v="hill" />
		<tag k="place" v="locality" />
		<tag k="ssr:stedsnr" v="308476" />
	</node>
	<node id="-259711" lat="60.0963333353" lon="10.7977555636">
		<tag k="fixme" v="consider natural=peak for the most distinct mountains in the district" />
		<tag k="name" v="Eriksknatten" />
		<tag k="natural" v="hill" />
		<tag k="place" v="locality" />
		<tag k="ssr:stedsnr" v="5595" />
	</node>
	<node id="-259966" lat="59.9815750002" lon="10.9108750074">
		<tag k="fixme" v="consider natural=peak for the most distinct mountains in the district" />
		<tag k="name" v="Skysethøgda" />
		<tag k="natural" v="hill" />
		<tag k="place" v="locality" />
		<tag k="ssr:stedsnr" v="611598" />
	</node>
	<node id="-259453" lat="60.0849416633" lon="10.9097444433">
		<tag k="name" v="Spenningsbyhaugen" />
		<tag k="natural" v="hill" />
		<tag k="place" v="locality" />
		<tag k="ssr:stedsnr" v="284135" />
	</node>
	<node id="-259451" lat="60.0217666665" lon="10.8549000051">
		<tag k="name" v="Svenskedalen" />
		<tag k="natural" v="valley" />
		<tag k="place" v="locality" />
		<tag k="ssr:stedsnr" v="282860" />
	</node>
	<node id="-259519" lat="60.1422833371" lon="10.7049583366">
		<tag k="name" v="Djupdalen" />
		<tag k="natural" v="valley" />
		<tag k="place" v="locality" />
		<tag k="ssr:stedsnr" v="464017" />
	</node>
	<node id="-259703" lat="60.0253444455" lon="10.9400583416">
		<tag k="alt_name" v="Tysillen" />
		<tag k="name" v="Tysilen" />
		<tag k="natural" v="hill" />
		<tag k="place" v="locality" />
		<tag k="ssr:stedsnr" v="5391" />
	</node>
	<node id="-259958" lat="60.0311194437" lon="10.8301138959">
		<tag k="name" v="Seterdalen" />
		<tag k="natural" v="valley" />
		<tag k="place" v="locality" />
		<tag k="ssr:stedsnr" v="587601" />
	</node>
	<node id="-259573" lat="60.089235603" lon="10.8274263864">
		<tag k="fixme" v="consider natural=peak for the most distinct mountains in the district" />
		<tag k="name" v="Heitåsen" />
		<tag k="natural" v="hill" />
		<tag k="place" v="locality" />
		<tag k="ssr:stedsnr" v="611621" />
	</node>
	<node id="-259956" lat="60.1415361081" lon="10.8006777717">
		<tag k="name" v="Slettmoen" />
		<tag k="place" v="locality" />
		<tag k="ssr:stedsnr" v="587784" />
	</node>
	<node id="-259696" lat="60.1389500024" lon="10.7144166653">
		<tag k="alt_name" v="Høgbråten" />
>>>>>>> e1d4bc35ff8a6074a6f2e91616a996b547c36f15
		<tag k="fixme" v="consider natural=peak for the most distinct mountains in the district" />
		<tag k="name" v="Åskastet" />
		<tag k="natural" v="hill" />
		<tag k="place" v="locality" />
		<tag k="ssr:stedsnr" v="66603" />
	</node>
<<<<<<< HEAD
	<node lat="60.17890277386223" lon="10.837391673653336" id="-18090">
		<tag k="alt_name" v="Svartevannshøgda" />
		<tag k="name" v="Svartvasshøgda" />
		<tag k="natural" v="hill" />
		<tag k="place" v="locality" />
		<tag k="ssr:stedsnr" v="66691" />
	</node>
	<node lat="60.04696111262174" lon="10.930016663294403" id="-18097">
=======
	<node id="-259505" lat="60.1392472212" lon="10.7912972142">
		<tag k="name" v="Hakadalen" />
		<tag k="natural" v="valley" />
		<tag k="place" v="locality" />
		<tag k="ssr:stedsnr" v="388557" />
	</node>
	<node id="-259517" lat="60.1575502317" lon="10.8178791966">
>>>>>>> e1d4bc35ff8a6074a6f2e91616a996b547c36f15
		<tag k="fixme" v="consider natural=peak for the most distinct mountains in the district" />
		<tag k="name" v="Bukollen" />
		<tag k="natural" v="hill" />
		<tag k="place" v="locality" />
		<tag k="ssr:stedsnr" v="430714" />
	</node>
<<<<<<< HEAD
	<node lat="60.09206944292352" lon="10.779238889333762" id="-18099">
		<tag k="alt_name" v="Hytteberget" />
=======
	<node id="-259820" lat="60.178022224" lon="10.7812388932">
		<tag k="alt_name" v="Blekktjernhøgda" />
>>>>>>> e1d4bc35ff8a6074a6f2e91616a996b547c36f15
		<tag k="fixme" v="consider natural=peak for the most distinct mountains in the district" />
		<tag k="name" v="Hytteåsen" />
		<tag k="natural" v="hill" />
		<tag k="place" v="locality" />
		<tag k="ssr:stedsnr" v="248627" />
	</node>
<<<<<<< HEAD
	<node lat="60.15077222582167" lon="10.740780556939596" id="-18107">
		<tag k="name" v="Nerengberget" />
=======
	<node id="-259819" lat="60.1190666648" lon="10.8813222199">
		<tag k="name" v="Djupdalen" />
		<tag k="natural" v="valley" />
>>>>>>> e1d4bc35ff8a6074a6f2e91616a996b547c36f15
		<tag k="place" v="locality" />
		<tag k="ssr:stedsnr" v="102806" />
	</node>
<<<<<<< HEAD
	<node lat="60.08872500337042" lon="10.795508326914485" id="-18110">
		<tag k="name" v="Nordre Karlshaug" />
		<tag k="natural" v="hill" />
=======
	<node id="-259689" lat="60.0848333306" lon="10.8049361175">
		<tag k="name" v="Daviddalen" />
		<tag k="natural" v="valley" />
>>>>>>> e1d4bc35ff8a6074a6f2e91616a996b547c36f15
		<tag k="place" v="locality" />
		<tag k="ssr:stedsnr" v="126518" />
	</node>
<<<<<<< HEAD
	<node lat="60.13920832956892" lon="10.749911114929901" id="-18117">
=======
	<node id="-260072" lat="60.1347222237" lon="10.5716611029">
		<tag k="name" v="Nordmarka" />
		<tag k="natural" v="wood" />
		<tag k="ssr:stedsnr" v="874528" />
	</node>
	<node id="-259687" lat="60.0747250036" lon="10.9349277867">
>>>>>>> e1d4bc35ff8a6074a6f2e91616a996b547c36f15
		<tag k="fixme" v="consider natural=peak for the most distinct mountains in the district" />
		<tag k="name" v="Elneshøgda" />
		<tag k="natural" v="hill" />
		<tag k="place" v="locality" />
		<tag k="ssr:stedsnr" v="309651" />
	</node>
<<<<<<< HEAD
	<node lat="60.119066664758925" lon="10.881322219928123" id="-18130">
		<tag k="name" v="Djupdalen" />
=======
	<node id="-259686" lat="60.1511555523" lon="10.8152555548">
		<tag k="name" v="Langveggen" />
>>>>>>> e1d4bc35ff8a6074a6f2e91616a996b547c36f15
		<tag k="natural" v="valley" />
		<tag k="place" v="locality" />
		<tag k="ssr:stedsnr" v="187642" />
	</node>
<<<<<<< HEAD
	<node lat="60.16266667076966" lon="10.807938895564433" id="-18157">
=======
	<node id="-259429" lat="60.1626666708" lon="10.8079388956">
>>>>>>> e1d4bc35ff8a6074a6f2e91616a996b547c36f15
		<tag k="fixme" v="consider natural=peak for the most distinct mountains in the district" />
		<tag k="name" v="Fugleknattene" />
		<tag k="natural" v="hill" />
		<tag k="place" v="locality" />
		<tag k="ssr:stedsnr" v="248719" />
	</node>
<<<<<<< HEAD
	<node lat="60.02176666650021" lon="10.854900005075853" id="-18163">
		<tag k="name" v="Svenskedalen" />
=======
	<node id="-259750" lat="60.1789027739" lon="10.8373916737">
		<tag k="alt_name" v="Svartevannshøgda" />
		<tag k="name" v="Svartvasshøgda" />
		<tag k="natural" v="hill" />
		<tag k="place" v="locality" />
		<tag k="ssr:stedsnr" v="66691" />
	</node>
	<node id="-259553" lat="60.0917583291" lon="10.9011833331">
		<tag k="fixme" v="consider natural=peak for the most distinct mountains in the district" />
		<tag k="name" v="Myrerkollen" />
		<tag k="natural" v="hill" />
		<tag k="place" v="locality" />
		<tag k="ssr:stedsnr" v="707012" />
	</node>
	<node id="-260012" lat="60.0066666705" lon="10.8941250027">
		<tag k="fixme" v="consider natural=peak for the most distinct mountains in the district" />
		<tag k="name" v="Massjørgenhøgda" />
		<tag k="natural" v="hill" />
		<tag k="place" v="locality" />
		<tag k="ssr:stedsnr" v="794342" />
	</node>
	<node id="-259934" lat="60.0770249992" lon="10.8557749932">
		<tag k="alt_name" v="Høldippeldalen" />
		<tag k="name" v="Holnippeldalen" />
>>>>>>> e1d4bc35ff8a6074a6f2e91616a996b547c36f15
		<tag k="natural" v="valley" />
		<tag k="place" v="locality" />
		<tag k="ssr:stedsnr" v="282860" />
	</node>
<<<<<<< HEAD
	<node lat="60.01333611140673" lon="10.852113894958116" id="-18170">
		<tag k="fixme" v="consider natural=peak for the most distinct mountains in the district" />
		<tag k="name" v="Holåsen" />
=======
	<node id="-259546" lat="60.0066833344" lon="10.862736115">
		<tag k="name" v="Kjulstjernskollen" />
>>>>>>> e1d4bc35ff8a6074a6f2e91616a996b547c36f15
		<tag k="natural" v="hill" />
		<tag k="place" v="locality" />
		<tag k="ssr:stedsnr" v="464839" />
	</node>
<<<<<<< HEAD
	<node lat="59.99442222555597" lon="10.886127781135137" id="-18171">
		<tag k="fixme" v="consider natural=peak for the most distinct mountains in the district" />
		<tag k="name" v="Seterhaugen" />
		<tag k="natural" v="hill" />
		<tag k="place" v="locality" />
		<tag k="ssr:stedsnr" v="464853" />
	</node>
	<node lat="60.02818055522934" lon="10.823558330113812" id="-18175">
		<tag k="alt_name" v="Vestre Tørkelstuhaugen" />
		<tag k="fixme" v="consider natural=peak for the most distinct mountains in the district" />
		<tag k="name" v="Vestre Torkilstuhøgda" />
		<tag k="natural" v="hill" />
=======
	<node id="-260056" lat="60.0016083306" lon="10.9497888903">
		<tag k="name" v="Gryta" />
>>>>>>> e1d4bc35ff8a6074a6f2e91616a996b547c36f15
		<tag k="place" v="locality" />
		<tag k="ssr:stedsnr" v="309469" />
	</node>
<<<<<<< HEAD
	<node lat="60.07111666415941" lon="10.859841660958953" id="-18178">
		<tag k="name" v="Linfåningshøgda" />
=======
	<node id="-259671" lat="60.0561250034" lon="10.8193166659">
		<tag k="fixme" v="consider natural=peak for the most distinct mountains in the district" />
		<tag k="name" v="Laskerudåsen" />
>>>>>>> e1d4bc35ff8a6074a6f2e91616a996b547c36f15
		<tag k="natural" v="hill" />
		<tag k="place" v="locality" />
		<tag k="ssr:stedsnr" v="309584" />
	</node>
<<<<<<< HEAD
	<node lat="60.07854444824297" lon="10.937758342227832" id="-18183">
		<tag k="name" v="Askkollen" />
=======
	<node id="-259413" lat="60.1379388855" lon="10.8428166616">
		<tag k="fixme" v="consider natural=peak for the most distinct mountains in the district" />
		<tag k="name" v="Åskastet" />
>>>>>>> e1d4bc35ff8a6074a6f2e91616a996b547c36f15
		<tag k="natural" v="hill" />
		<tag k="place" v="locality" />
		<tag k="ssr:stedsnr" v="344102" />
	</node>
<<<<<<< HEAD
	<node lat="60.028722226270794" lon="10.837933330987296" id="-18198">
		<tag k="alt_name" v="Ormtjernkollen" />
=======
	<node id="-259412" lat="60.0781916627" lon="10.7909777788">
>>>>>>> e1d4bc35ff8a6074a6f2e91616a996b547c36f15
		<tag k="fixme" v="consider natural=peak for the most distinct mountains in the district" />
		<tag k="name" v="Ormetjernskollen" />
		<tag k="natural" v="hill" />
		<tag k="place" v="locality" />
		<tag k="ssr:stedsnr" v="369373" />
	</node>
<<<<<<< HEAD
	<node lat="60.12901666225714" lon="10.819130553128014" id="-18214">
		<tag k="alt_name" v="Fuglåsen" />
		<tag k="fixme" v="consider natural=peak for the most distinct mountains in the district" />
		<tag k="name" v="Fugleåsen" />
=======
	<node id="-259539" lat="60.082763886" lon="10.796441669">
		<tag k="name" v="Søndre Karlshaug" />
>>>>>>> e1d4bc35ff8a6074a6f2e91616a996b547c36f15
		<tag k="natural" v="hill" />
		<tag k="place" v="locality" />
		<tag k="ssr:stedsnr" v="490675" />
	</node>
<<<<<<< HEAD
	<node lat="60.04434722228742" lon="10.844547222461538" id="-18222">
		<tag k="name" v="Dammyrdalen" />
		<tag k="natural" v="valley" />
		<tag k="place" v="locality" />
		<tag k="ssr:stedsnr" v="430423" />
	</node>
	<node lat="60.15755023174002" lon="10.817879196589109" id="-18227">
=======
	<node id="-259537" lat="60.043252777" lon="10.9458166644">
		<tag k="name" v="Gopledalen" />
		<tag k="natural" v="valley" />
		<tag k="place" v="locality" />
		<tag k="ssr:stedsnr" v="673473" />
	</node>
	<node id="-259408" lat="60.0652833311" lon="10.8941249936">
		<tag k="name" v="Nordbyhaugen" />
		<tag k="natural" v="hill" />
		<tag k="place" v="locality" />
		<tag k="ssr:stedsnr" v="41305" />
	</node>
	<node id="-260046" lat="60.0796055539" lon="10.8597611105">
>>>>>>> e1d4bc35ff8a6074a6f2e91616a996b547c36f15
		<tag k="fixme" v="consider natural=peak for the most distinct mountains in the district" />
		<tag k="name" v="Bukollen" />
		<tag k="natural" v="hill" />
		<tag k="place" v="locality" />
<<<<<<< HEAD
		<tag k="ssr:stedsnr" v="430714" />
	</node>
	<node lat="60.07666944558533" lon="10.932074997668593" id="-18235">
		<tag k="name" v="Gruvehøgda" />
=======
		<tag k="ssr:stedsnr" v="855545" />
	</node>
	<node id="-259532" lat="60.157033337" lon="10.7960972187">
		<tag k="name" v="Flåhellene" />
		<tag k="natural" v="slope" />
		<tag k="place" v="locality" />
		<tag k="ssr:stedsnr" v="672704" />
	</node>
	<node id="-259915" lat="60.0711249969" lon="10.7972499939">
		<tag k="alt_name" v="Storbråtahaug" />
		<tag k="name" v="Storbråtahaugen" />
>>>>>>> e1d4bc35ff8a6074a6f2e91616a996b547c36f15
		<tag k="natural" v="hill" />
		<tag k="place" v="locality" />
		<tag k="ssr:stedsnr" v="491567" />
	</node>
<<<<<<< HEAD
	<node lat="59.99146388883113" lon="10.882258339234573" id="-18239">
=======
	<node id="-259529" lat="59.9914638888" lon="10.8822583392">
>>>>>>> e1d4bc35ff8a6074a6f2e91616a996b547c36f15
		<tag k="name" v="Slattumsrøa" />
		<tag k="natural" v="ridge" />
		<tag k="place" v="locality" />
		<tag k="ssr:stedsnr" v="672589" />
	</node>
<<<<<<< HEAD
	<node lat="60.16023055991106" lon="10.781513880868756" id="-18241">
		<tag k="alt_name" v="Varpskollen" />
		<tag k="fixme" v="consider natural=peak for the most distinct mountains in the district" />
		<tag k="name" v="Varpkollen" />
		<tag k="natural" v="hill" />
		<tag k="place" v="locality" />
		<tag k="ssr:stedsnr" v="672701" />
	</node>
	<node lat="60.157033336971445" lon="10.796097218663117" id="-18242">
		<tag k="name" v="Flåhellene" />
		<tag k="natural" v="slope" />
=======
	<node id="-259468" lat="60.0920694429" lon="10.7792388893">
		<tag k="alt_name" v="Hytteberget" />
		<tag k="fixme" v="consider natural=peak for the most distinct mountains in the district" />
		<tag k="name" v="Hytteåsen" />
		<tag k="natural" v="hill" />
		<tag k="place" v="locality" />
		<tag k="ssr:stedsnr" v="248627" />
	</node>
	<node id="-259654" lat="60.0249694461" lon="10.8199750041">
		<tag k="name" v="Merrahaugen" />
		<tag k="natural" v="hill" />
>>>>>>> e1d4bc35ff8a6074a6f2e91616a996b547c36f15
		<tag k="place" v="locality" />
		<tag k="ssr:stedsnr" v="672704" />
	</node>
<<<<<<< HEAD
	<node lat="60.082763885989245" lon="10.796441668993298" id="-18245">
		<tag k="name" v="Søndre Karlshaug" />
		<tag k="natural" v="hill" />
		<tag k="place" v="locality" />
		<tag k="ssr:stedsnr" v="673532" />
	</node>
	<node lat="60.14228333711129" lon="10.704958336638436" id="-18249">
		<tag k="name" v="Djupdalen" />
		<tag k="natural" v="valley" />
		<tag k="place" v="locality" />
		<tag k="ssr:stedsnr" v="464017" />
	</node>
	<node lat="60.02140832955105" lon="10.857638888999636" id="-18260">
		<tag k="fixme" v="consider natural=peak for the most distinct mountains in the district" />
		<tag k="name" v="Brennberget" />
		<tag k="natural" v="hill" />
		<tag k="place" v="locality" />
		<tag k="ssr:stedsnr" v="491414" />
	</node>
	<node lat="60.15114444397851" lon="10.855447224009641" id="-18261">
		<tag k="name" v="Guritjernkollen" />
		<tag k="natural" v="hill" />
		<tag k="place" v="locality" />
		<tag k="ssr:stedsnr" v="491726" />
	</node>
	<node lat="60.00668333439916" lon="10.862736114981924" id="-18265">
		<tag k="name" v="Kjulstjernskollen" />
=======
	<node id="-259790" lat="60.1755361113" lon="10.8486722292">
		<tag k="fixme" v="consider natural=peak for the most distinct mountains in the district" />
		<tag k="name" v="Hakkimhøgda" />
		<tag k="natural" v="hill" />
		<tag k="place" v="locality" />
		<tag k="ssr:stedsnr" v="127732" />
	</node>
	<node id="-259702" lat="60.0103305565" lon="10.8437055576">
		<tag k="fixme" v="consider natural=peak for the most distinct mountains in the district" />
		<tag k="name" v="Holåsen" />
		<tag k="natural" v="hill" />
		<tag k="place" v="locality" />
		<tag k="ssr:stedsnr" v="5353" />
	</node>
	<node id="-259531" lat="60.1602305599" lon="10.7815138809">
		<tag k="alt_name" v="Varpskollen" />
		<tag k="fixme" v="consider natural=peak for the most distinct mountains in the district" />
		<tag k="name" v="Varpkollen" />
		<tag k="natural" v="hill" />
		<tag k="place" v="locality" />
		<tag k="ssr:stedsnr" v="672701" />
	</node>
	<node id="-259648" lat="60.1653666631" lon="10.7925555543">
		<tag k="fixme" v="consider natural=peak for the most distinct mountains in the district" />
		<tag k="name" v="Rundkollen" />
		<tag k="natural" v="hill" />
		<tag k="place" v="locality" />
		<tag k="ssr:stedsnr" v="916735" />
	</node>
	<node id="-259775" lat="60.0263861116" lon="10.8328805574">
		<tag k="alt_name" v="Østre Tørkelstuhaugen" />
		<tag k="name" v="Østre Torkilstuhøgda" />
>>>>>>> e1d4bc35ff8a6074a6f2e91616a996b547c36f15
		<tag k="natural" v="hill" />
		<tag k="place" v="locality" />
		<tag k="ssr:stedsnr" v="524793" />
	</node>
<<<<<<< HEAD
	<node lat="60.07702499918968" lon="10.855774993178853" id="-18273">
		<tag k="alt_name" v="Høldippeldalen" />
		<tag k="name" v="Holnippeldalen" />
=======
	<node id="-259774" lat="60.05461389" lon="10.9343055545">
		<tag k="name" v="Djupdalen" />
>>>>>>> e1d4bc35ff8a6074a6f2e91616a996b547c36f15
		<tag k="natural" v="valley" />
		<tag k="place" v="locality" />
		<tag k="ssr:stedsnr" v="551540" />
	</node>
<<<<<<< HEAD
	<node lat="60.031119443688894" lon="10.83011389589708" id="-18288">
		<tag k="name" v="Seterdalen" />
		<tag k="natural" v="valley" />
		<tag k="place" v="locality" />
		<tag k="ssr:stedsnr" v="587601" />
	</node>
	<node lat="60.08923560301555" lon="10.827426386356128" id="-18296">
=======
	<node id="-259645" lat="60.0276000033" lon="10.8558194471">
		<tag k="name" v="Svenskedalen" />
		<tag k="natural" v="valley" />
		<tag k="place" v="locality" />
		<tag k="ssr:stedsnr" v="916443" />
	</node>
	<node id="-259515" lat="60.0443472223" lon="10.8445472225">
		<tag k="name" v="Dammyrdalen" />
		<tag k="natural" v="valley" />
		<tag k="place" v="locality" />
		<tag k="ssr:stedsnr" v="430423" />
	</node>
	<node id="-259641" lat="60.1310444425" lon="10.8583999951">
>>>>>>> e1d4bc35ff8a6074a6f2e91616a996b547c36f15
		<tag k="fixme" v="consider natural=peak for the most distinct mountains in the district" />
		<tag k="name" v="Heitåsen" />
		<tag k="natural" v="hill" />
		<tag k="place" v="locality" />
<<<<<<< HEAD
		<tag k="ssr:stedsnr" v="611621" />
	</node>
	<node lat="60.11684721778575" lon="10.893469448918463" id="-18305">
		<tag k="fixme" v="consider natural=peak for the most distinct mountains in the district" />
		<tag k="name" v="Oppegårdskollen" />
		<tag k="natural" v="hill" />
		<tag k="place" v="locality" />
		<tag k="ssr:stedsnr" v="612679" />
	</node>
	<node lat="60.02097777594718" lon="10.815988883759182" id="-18310">
		<tag k="name" v="Skillingsdalen" />
		<tag k="natural" v="valley" />
		<tag k="place" v="locality" />
		<tag k="ssr:stedsnr" v="647580" />
	</node>
	<node lat="60.0917583291494" lon="10.90118333313222" id="-18311">
		<tag k="fixme" v="consider natural=peak for the most distinct mountains in the district" />
		<tag k="name" v="Myrerkollen" />
		<tag k="natural" v="hill" />
		<tag k="place" v="locality" />
		<tag k="ssr:stedsnr" v="707012" />
	</node>
	<node lat="60.0432527770124" lon="10.945816664386516" id="-18329">
		<tag k="name" v="Gopledalen" />
		<tag k="natural" v="valley" />
		<tag k="place" v="locality" />
		<tag k="ssr:stedsnr" v="673473" />
	</node>
	<node lat="60.081883336521535" lon="10.86043333049742" id="-18341">
		<tag k="name" v="Ånebydalen" />
		<tag k="natural" v="valley" />
		<tag k="place" v="locality" />
		<tag k="ssr:stedsnr" v="708128" />
	</node>
	<node lat="60.0933102554143" lon="10.836657219700022" id="-18350">
		<tag k="fixme" v="consider natural=peak for the most distinct mountains in the district" />
		<tag k="name" v="Varingskollen" />
		<tag k="natural" v="hill" />
		<tag k="place" v="locality" />
		<tag k="ssr:stedsnr" v="733579" />
	</node>
	<node lat="60.063608335845466" lon="10.841161113385393" id="-18353">
		<tag k="name" v="Lurslia" />
		<tag k="natural" v="slope" />
		<tag k="place" v="locality" />
		<tag k="ssr:stedsnr" v="734607" />
	</node>
	<node lat="60.00102222293591" lon="10.843158333117017" id="-18360">
		<tag k="name" v="Trangdalen" />
=======
		<tag k="ssr:stedsnr" v="915652" />
	</node>
	<node id="-259768" lat="60.1507722258" lon="10.7407805569">
		<tag k="name" v="Nerengberget" />
		<tag k="place" v="locality" />
		<tag k="ssr:stedsnr" v="102806" />
	</node>
	<node id="-259828" lat="60.0998472188" lon="10.9107499972">
		<tag k="alt_name" v="Ravndalen" />
		<tag k="name" v="Ramndalen" />
		<tag k="natural" v="valley" />
		<tag k="place" v="locality" />
		<tag k="ssr:stedsnr" v="188638" />
	</node>
	<node id="-259473" lat="60.0133361114" lon="10.852113895">
		<tag k="fixme" v="consider natural=peak for the most distinct mountains in the district" />
		<tag k="name" v="Holåsen" />
		<tag k="natural" v="hill" />
		<tag k="place" v="locality" />
		<tag k="ssr:stedsnr" v="464839" />
	</node>
	<node id="-259422" lat="60.0469611126" lon="10.9300166633">
		<tag k="fixme" v="consider natural=peak for the most distinct mountains in the district" />
		<tag k="name" v="Holterkollen" />
		<tag k="natural" v="hill" />
		<tag k="place" v="locality" />
		<tag k="ssr:stedsnr" v="248447" />
	</node>
	<node id="-260019" lat="60.1203888888" lon="10.7764500022">
		<tag k="fixme" v="consider natural=peak for the most distinct mountains in the district" />
		<tag k="name" v="Elkollen" />
		<tag k="natural" v="hill" />
		<tag k="place" v="locality" />
		<tag k="ssr:stedsnr" v="794694" />
	</node>
	<node id="-259776" lat="60.0364527804" lon="10.9395250036">
		<tag k="name" v="Ovasshøgda" />
		<tag k="natural" v="hill" />
		<tag k="place" v="locality" />
		<tag k="ssr:stedsnr" v="126434" />
	</node>
	<node id="-259500" lat="60.151144444" lon="10.855447224">
		<tag k="name" v="Guritjernkollen" />
		<tag k="natural" v="hill" />
		<tag k="place" v="locality" />
		<tag k="ssr:stedsnr" v="491726" />
	</node>
	<node id="-260011" lat="60.0091555569" lon="10.8344083409">
		<tag k="alt_name" v="Grytedalen" />
		<tag k="name" v="Gryta" />
>>>>>>> e1d4bc35ff8a6074a6f2e91616a996b547c36f15
		<tag k="natural" v="valley" />
		<tag k="place" v="locality" />
		<tag k="ssr:stedsnr" v="767812" />
	</node>
<<<<<<< HEAD
	<node lat="60.07358611172044" lon="10.88059999574225" id="-18363">
		<tag k="name" v="Kølleberget" />
		<tag k="natural" v="hill" />
		<tag k="place" v="locality" />
		<tag k="ssr:stedsnr" v="769419" />
	</node>
	<node lat="60.02496944607806" lon="10.81997500411452" id="-18374">
		<tag k="name" v="Merrahaugen" />
=======
	<node id="-259584" lat="59.9788861139" lon="10.9418055629">
		<tag k="fixme" v="consider natural=peak for the most distinct mountains in the district" />
		<tag k="name" v="Karushøgda" />
		<tag k="natural" v="hill" />
		<tag k="place" v="locality" />
		<tag k="ssr:stedsnr" v="733552" />
	</node>
	<node id="-259497" lat="60.0766694456" lon="10.9320749977">
		<tag k="name" v="Gruvehøgda" />
>>>>>>> e1d4bc35ff8a6074a6f2e91616a996b547c36f15
		<tag k="natural" v="hill" />
		<tag k="place" v="locality" />
		<tag k="ssr:stedsnr" v="794380" />
	</node>
<<<<<<< HEAD
	<node lat="60.13104444254829" lon="10.858399995055333" id="-18383">
		<tag k="fixme" v="consider natural=peak for the most distinct mountains in the district" />
		<tag k="name" v="Bjørnholthøgda" />
=======
	<node id="-259520" lat="59.9944222256" lon="10.8861277811">
		<tag k="fixme" v="consider natural=peak for the most distinct mountains in the district" />
		<tag k="name" v="Seterhaugen" />
		<tag k="natural" v="hill" />
		<tag k="place" v="locality" />
		<tag k="ssr:stedsnr" v="464853" />
	</node>
	<node id="-260006" lat="60.0735861117" lon="10.8805999957">
		<tag k="name" v="Kølleberget" />
>>>>>>> e1d4bc35ff8a6074a6f2e91616a996b547c36f15
		<tag k="natural" v="hill" />
		<tag k="place" v="locality" />
		<tag k="ssr:stedsnr" v="915652" />
	</node>
<<<<<<< HEAD
	<node lat="60.16536666313669" lon="10.792555554269205" id="-18385">
=======
	<node id="-259493" lat="60.0214083296" lon="10.857638889">
>>>>>>> e1d4bc35ff8a6074a6f2e91616a996b547c36f15
		<tag k="fixme" v="consider natural=peak for the most distinct mountains in the district" />
		<tag k="name" v="Rundkollen" />
		<tag k="natural" v="hill" />
		<tag k="place" v="locality" />
		<tag k="ssr:stedsnr" v="916735" />
	</node>
<<<<<<< HEAD
	<node lat="60.027600003250825" lon="10.8558194471402" id="-18388">
		<tag k="name" v="Svenskedalen" />
=======
	<node id="-259620" lat="60.0818833365" lon="10.8604333305">
		<tag k="name" v="Ånebydalen" />
>>>>>>> e1d4bc35ff8a6074a6f2e91616a996b547c36f15
		<tag k="natural" v="valley" />
		<tag k="place" v="locality" />
		<tag k="ssr:stedsnr" v="916443" />
	</node>
<<<<<<< HEAD
	<node lat="60.07960555392307" lon="10.859761110466211" id="-18409">
		<tag k="fixme" v="consider natural=peak for the most distinct mountains in the district" />
		<tag k="name" v="Strømskollen" />
		<tag k="natural" v="hill" />
		<tag k="place" v="locality" />
		<tag k="ssr:stedsnr" v="855545" />
	</node>
	<node lat="60.151148667927266" lon="10.815290628904188" id="-18436">
		<tag k="name" v="Langveggen" />
=======
	<node id="-259586" lat="60.0933102554" lon="10.8366572197">
		<tag k="fixme" v="consider natural=peak for the most distinct mountains in the district" />
		<tag k="name" v="Varingskollen" />
		<tag k="natural" v="hill" />
		<tag k="place" v="locality" />
		<tag k="ssr:stedsnr" v="733579" />
	</node>
	<node id="-260002" lat="60.0010222229" lon="10.8431583331">
		<tag k="name" v="Trangdalen" />
>>>>>>> e1d4bc35ff8a6074a6f2e91616a996b547c36f15
		<tag k="natural" v="valley" />
		<tag k="place" v="locality" />
		<tag k="ssr:stedsnr" v="916762" />
	</node>
<<<<<<< HEAD
	<node lat="60.07472500360397" lon="10.93492778673495" id="-18438">
		<tag k="fixme" v="consider natural=peak for the most distinct mountains in the district" />
		<tag k="name" v="Ruskollen" />
		<tag k="natural" v="hill" />
		<tag k="place" v="locality" />
		<tag k="ssr:stedsnr" v="951116" />
	</node>
	<node lat="60.13895000241287" lon="10.714416665290967" id="-18451">
		<tag k="alt_name" v="Høgbråten" />
		<tag k="fixme" v="consider natural=peak for the most distinct mountains in the district" />
		<tag k="name" v="Høgbråtan" />
		<tag k="natural" v="hill" />
		<tag k="place" v="locality" />
		<tag k="ssr:stedsnr" v="5096" />
	</node>
	<node lat="60.02534444546165" lon="10.940058341572273" id="-18454">
		<tag k="alt_name" v="Tysillen" />
		<tag k="name" v="Tysilen" />
		<tag k="natural" v="hill" />
		<tag k="place" v="locality" />
		<tag k="ssr:stedsnr" v="5391" />
	</node>
	<node lat="60.010330556499035" lon="10.843705557574804" id="-18460">
=======
	<node id="-259873" lat="60.0287222263" lon="10.837933331">
		<tag k="alt_name" v="Ormtjernkollen" />
		<tag k="fixme" v="consider natural=peak for the most distinct mountains in the district" />
		<tag k="name" v="Ormetjernskollen" />
		<tag k="natural" v="hill" />
		<tag k="place" v="locality" />
		<tag k="ssr:stedsnr" v="369373" />
	</node>
	<node id="-259744" lat="60.0681416639" lon="10.829844453">
		<tag k="fixme" v="consider natural=peak for the most distinct mountains in the district" />
		<tag k="name" v="Sameiekollen" />
		<tag k="natural" v="hill" />
		<tag k="place" v="locality" />
		<tag k="ssr:stedsnr" v="66536" />
	</node>
	<node id="-259870" lat="60.0096388869" lon="10.8995833387">
		<tag k="alt_name" v="Høyfjellet" />
>>>>>>> e1d4bc35ff8a6074a6f2e91616a996b547c36f15
		<tag k="fixme" v="consider natural=peak for the most distinct mountains in the district" />
		<tag k="name" v="Holåsen" />
		<tag k="natural" v="hill" />
		<tag k="place" v="locality" />
		<tag k="ssr:stedsnr" v="5353" />
	</node>
<<<<<<< HEAD
	<node lat="60.09633333525249" lon="10.797755563590195" id="-18461">
		<tag k="fixme" v="consider natural=peak for the most distinct mountains in the district" />
		<tag k="name" v="Eriksknatten" />
		<tag k="natural" v="hill" />
		<tag k="place" v="locality" />
		<tag k="ssr:stedsnr" v="5595" />
	</node>
	<node lat="60.09327499740839" lon="10.858863881045236" id="-18476">
		<tag k="name" v="Brannfjellet" />
		<tag k="natural" v="ridge" />
=======
	<node id="-259754" lat="60.1084527759" lon="10.9057972179">
		<tag k="fixme" v="consider natural=peak for the most distinct mountains in the district" />
		<tag k="name" v="Kirkebyhøgda" />
		<tag k="natural" v="hill" />
		<tag k="place" v="locality" />
		<tag k="ssr:stedsnr" v="87454" />
	</node>
	<node id="-259993" lat="60.0209777759" lon="10.8159888838">
		<tag k="name" v="Skillingsdalen" />
		<tag k="natural" v="valley" />
>>>>>>> e1d4bc35ff8a6074a6f2e91616a996b547c36f15
		<tag k="place" v="locality" />
		<tag k="ssr:stedsnr" v="41133" />
	</node>
<<<<<<< HEAD
	<node lat="60.06814166392115" lon="10.829844452985162" id="-18498">
		<tag k="fixme" v="consider natural=peak for the most distinct mountains in the district" />
		<tag k="name" v="Sameiekollen" />
=======
	<node id="-259383" lat="59.9938916664" lon="10.9278555579">
		<tag k="name" v="Snurefjellet" />
		<tag k="natural" v="hill" />
		<tag k="place" v="locality" />
		<tag k="ssr:stedsnr" v="221245" />
	</node>
	<node id="-259861" lat="60.0900861074" lon="10.7805000063">
		<tag k="name" v="Snaukollen" />
>>>>>>> e1d4bc35ff8a6074a6f2e91616a996b547c36f15
		<tag k="natural" v="hill" />
		<tag k="place" v="locality" />
		<tag k="ssr:stedsnr" v="66536" />
	</node>
<<<<<<< HEAD
	<node lat="60.10845277587653" lon="10.90579721787411" id="-18501">
		<tag k="fixme" v="consider natural=peak for the most distinct mountains in the district" />
		<tag k="name" v="Kirkebyhøgda" />
=======
	<node id="-259859" lat="60.0785444482" lon="10.9377583422">
		<tag k="name" v="Askkollen" />
>>>>>>> e1d4bc35ff8a6074a6f2e91616a996b547c36f15
		<tag k="natural" v="hill" />
		<tag k="place" v="locality" />
		<tag k="ssr:stedsnr" v="87454" />
	</node>
<<<<<<< HEAD
	<node lat="60.054613890039604" lon="10.934305554469983" id="-18523">
		<tag k="name" v="Djupdalen" />
		<tag k="natural" v="valley" />
=======
	<node id="-259986" lat="60.1168472178" lon="10.8934694489">
		<tag k="fixme" v="consider natural=peak for the most distinct mountains in the district" />
		<tag k="name" v="Oppegårdskollen" />
		<tag k="natural" v="hill" />
>>>>>>> e1d4bc35ff8a6074a6f2e91616a996b547c36f15
		<tag k="place" v="locality" />
		<tag k="ssr:stedsnr" v="126412" />
	</node>
<<<<<<< HEAD
	<node lat="60.02638611160493" lon="10.832880557408465" id="-18524">
		<tag k="alt_name" v="Østre Tørkelstuhaugen" />
		<tag k="name" v="Østre Torkilstuhøgda" />
		<tag k="natural" v="hill" />
		<tag k="place" v="locality" />
		<tag k="ssr:stedsnr" v="126426" />
	</node>
	<node lat="60.036452780421975" lon="10.939525003627637" id="-18525">
		<tag k="name" v="Ovasshøgda" />
		<tag k="natural" v="hill" />
		<tag k="place" v="locality" />
		<tag k="ssr:stedsnr" v="126434" />
	</node>
	<node lat="60.175536111335155" lon="10.848672229189669" id="-18535">
		<tag k="fixme" v="consider natural=peak for the most distinct mountains in the district" />
		<tag k="name" v="Hakkimhøgda" />
=======
	<node id="-259779" lat="60.0887250034" lon="10.7955083269">
		<tag k="name" v="Nordre Karlshaug" />
>>>>>>> e1d4bc35ff8a6074a6f2e91616a996b547c36f15
		<tag k="natural" v="hill" />
		<tag k="place" v="locality" />
		<tag k="ssr:stedsnr" v="126518" />
	</node>
<<<<<<< HEAD
	<node lat="60.17802222395418" lon="10.781238893183884" id="-18554">
		<tag k="alt_name" v="Blekktjernhøgda" />
=======
	<node id="-259853" lat="60.1392083296" lon="10.7499111149">
>>>>>>> e1d4bc35ff8a6074a6f2e91616a996b547c36f15
		<tag k="fixme" v="consider natural=peak for the most distinct mountains in the district" />
		<tag k="name" v="Blekketjernshøgda" />
		<tag k="natural" v="hill" />
		<tag k="place" v="locality" />
		<tag k="ssr:stedsnr" v="187661" />
	</node>
<<<<<<< HEAD
	<node lat="60.09984721878623" lon="10.910749997228699" id="-18559">
		<tag k="alt_name" v="Ravndalen" />
		<tag k="name" v="Ramndalen" />
		<tag k="natural" v="valley" />
		<tag k="place" v="locality" />
		<tag k="ssr:stedsnr" v="188638" />
	</node>
	<node lat="59.993891666384165" lon="10.927855557861431" id="-18562">
		<tag k="name" v="Snurefjellet" />
		<tag k="natural" v="hill" />
=======
	<node id="-259596" lat="60.0636083358" lon="10.8411611134">
		<tag k="name" v="Lurslia" />
		<tag k="natural" v="slope" />
		<tag k="place" v="locality" />
		<tag k="ssr:stedsnr" v="734607" />
	</node>
	<node id="-259723" lat="60.0932749974" lon="10.858863881">
		<tag k="name" v="Brannfjellet" />
		<tag k="natural" v="ridge" />
>>>>>>> e1d4bc35ff8a6074a6f2e91616a996b547c36f15
		<tag k="place" v="locality" />
		<tag k="ssr:stedsnr" v="221245" />
	</node>
<<<<<<< HEAD
	<node lat="60.08494166330313" lon="10.909744443264945" id="-18576">
		<tag k="name" v="Spenningsbyhaugen" />
=======
	<node id="-259849" lat="60.0711166642" lon="10.859841661">
		<tag k="name" v="Linfåningshøgda" />
>>>>>>> e1d4bc35ff8a6074a6f2e91616a996b547c36f15
		<tag k="natural" v="hill" />
		<tag k="place" v="locality" />
		<tag k="ssr:stedsnr" v="284135" />
	</node>
<<<<<<< HEAD
	<node lat="60.0338499968574" lon="10.824377769050784" id="-18581">
		<tag k="name" v="Brønnsdalen" />
		<tag k="natural" v="valley" />
		<tag k="place" v="locality" />
		<tag k="ssr:stedsnr" v="284571" />
	</node>
	<node lat="60.089608332903005" lon="10.812044438074539" id="-18589">
		<tag k="name" v="Østre Karlshaug" />
=======
	<node id="-259848" lat="60.0281805552" lon="10.8235583301">
		<tag k="alt_name" v="Vestre Tørkelstuhaugen" />
		<tag k="fixme" v="consider natural=peak for the most distinct mountains in the district" />
		<tag k="name" v="Vestre Torkilstuhøgda" />
>>>>>>> e1d4bc35ff8a6074a6f2e91616a996b547c36f15
		<tag k="natural" v="hill" />
		<tag k="place" v="locality" />
		<tag k="ssr:stedsnr" v="308476" />
	</node>
<<<<<<< HEAD
	<node lat="60.087738893273794" lon="10.910749993445593" id="-18591">
		<tag k="alt_name" v="Ravndalskollen" />
		<tag k="name" v="Ramndalskollen" />
		<tag k="natural" v="hill" />
		<tag k="place" v="locality" />
		<tag k="ssr:stedsnr" v="308483" />
	</node>
	<node lat="60.02470278218952" lon="10.850088895350627" id="-18594">
=======
	<node id="-259488" lat="60.1290166623" lon="10.8191305531">
		<tag k="alt_name" v="Fuglåsen" />
		<tag k="fixme" v="consider natural=peak for the most distinct mountains in the district" />
		<tag k="name" v="Fugleåsen" />
		<tag k="natural" v="hill" />
		<tag k="place" v="locality" />
		<tag k="ssr:stedsnr" v="490675" />
	</node>
	<node id="-259846" lat="60.0247027822" lon="10.8500888954">
>>>>>>> e1d4bc35ff8a6074a6f2e91616a996b547c36f15
		<tag k="fixme" v="consider natural=peak for the most distinct mountains in the district" />
		<tag k="name" v="Røvarkula" />
		<tag k="natural" v="hill" />
		<tag k="place" v="locality" />
		<tag k="ssr:stedsnr" v="309429" />
	</node>
<<<<<<< HEAD
	<node lat="60.09008610736135" lon="10.780500006335158" id="-18598">
		<tag k="name" v="Snaukollen" />
		<tag k="natural" v="hill" />
=======
	<node id="-259461" lat="60.0338499969" lon="10.8243777691">
		<tag k="name" v="Brønnsdalen" />
		<tag k="natural" v="valley" />
>>>>>>> e1d4bc35ff8a6074a6f2e91616a996b547c36f15
		<tag k="place" v="locality" />
		<tag k="ssr:stedsnr" v="344290" />
	</node>
<<<<<<< HEAD
	<node lat="60.00963888685564" lon="10.899583338658857" id="-18608">
		<tag k="alt_name" v="Høyfjellet" />
		<tag k="fixme" v="consider natural=peak for the most distinct mountains in the district" />
		<tag k="name" v="Høgfjellet" />
=======
	<node id="-259588" lat="60.1284249994" lon="10.8744555503">
		<tag k="loc_name" v="Tøyinhøgda" />
		<tag k="name" v="Tøyenhøgda" />
>>>>>>> e1d4bc35ff8a6074a6f2e91616a996b547c36f15
		<tag k="natural" v="hill" />
		<tag k="place" v="locality" />
		<tag k="ssr:stedsnr" v="369335" />
	</node>
<<<<<<< HEAD
	<node lat="60.13924722119361" lon="10.79129721415793" id="-18613">
		<tag k="name" v="Hakadalen" />
		<tag k="natural" v="valley" />
=======
	<node id="-259715" lat="60.1617027804" lon="10.8396416641">
		<tag k="name" v="Sortungshøgda" />
		<tag k="natural" v="hill" />
>>>>>>> e1d4bc35ff8a6074a6f2e91616a996b547c36f15
		<tag k="place" v="locality" />
		<tag k="ssr:stedsnr" v="388557" />
	</node>
<<<<<<< HEAD
	<node lat="60.071124996899286" lon="10.797249993902568" id="-18632">
		<tag k="alt_name" v="Storbråtahaug" />
		<tag k="name" v="Storbråtahaugen" />
=======
	<node id="-259842" lat="60.0877388933" lon="10.9107499934">
		<tag k="alt_name" v="Ravndalskollen" />
		<tag k="name" v="Ramndalskollen" />
>>>>>>> e1d4bc35ff8a6074a6f2e91616a996b547c36f15
		<tag k="natural" v="hill" />
		<tag k="place" v="locality" />
		<tag k="ssr:stedsnr" v="430532" />
	</node>
<<<<<<< HEAD
	<node lat="60.14153610812239" lon="10.80067777173984" id="-18663">
		<tag k="name" v="Slettmoen" />
		<tag k="place" v="locality" />
		<tag k="ssr:stedsnr" v="587784" />
	</node>
	<node lat="59.98157500019637" lon="10.91087500744884" id="-18672">
		<tag k="fixme" v="consider natural=peak for the most distinct mountains in the district" />
		<tag k="name" v="Skysethøgda" />
		<tag k="natural" v="hill" />
		<tag k="place" v="locality" />
		<tag k="ssr:stedsnr" v="611598" />
	</node>
	<node lat="59.97888611390446" lon="10.941805562926664" id="-18698">
		<tag k="fixme" v="consider natural=peak for the most distinct mountains in the district" />
		<tag k="name" v="Karushøgda" />
		<tag k="natural" v="hill" />
		<tag k="place" v="locality" />
		<tag k="ssr:stedsnr" v="733552" />
	</node>
	<node lat="60.12842499944319" lon="10.874455550304662" id="-18700">
		<tag k="loc_name" v="Tøyinhøgda" />
		<tag k="name" v="Tøyenhøgda" />
		<tag k="natural" v="hill" />
		<tag k="place" v="locality" />
		<tag k="ssr:stedsnr" v="733640" />
	</node>
	<node lat="59.999722219284145" lon="10.858363881594126" id="-18706">
		<tag k="fixme" v="consider natural=peak for the most distinct mountains in the district" />
		<tag k="name" v="Seterhøgda" />
		<tag k="natural" v="hill" />
		<tag k="place" v="locality" />
		<tag k="ssr:stedsnr" v="767858" />
	</node>
	<node lat="60.009155556877516" lon="10.834408340856527" id="-18719">
		<tag k="alt_name" v="Grytedalen" />
		<tag k="name" v="Gryta" />
		<tag k="natural" v="valley" />
		<tag k="place" v="locality" />
		<tag k="ssr:stedsnr" v="794335" />
	</node>
	<node lat="60.00666667052177" lon="10.89412500270577" id="-18720">
		<tag k="fixme" v="consider natural=peak for the most distinct mountains in the district" />
		<tag k="name" v="Massjørgenhøgda" />
		<tag k="natural" v="hill" />
		<tag k="place" v="locality" />
		<tag k="ssr:stedsnr" v="794342" />
	</node>
	<node lat="60.12038888878086" lon="10.77645000224166" id="-18727">
		<tag k="fixme" v="consider natural=peak for the most distinct mountains in the district" />
		<tag k="name" v="Elkollen" />
		<tag k="natural" v="hill" />
		<tag k="place" v="locality" />
		<tag k="ssr:stedsnr" v="794694" />
	</node>
	<node lat="60.056125003405675" lon="10.819316665916569" id="-18740">
		<tag k="fixme" v="consider natural=peak for the most distinct mountains in the district" />
		<tag k="name" v="Laskerudåsen" />
		<tag k="natural" v="hill" />
		<tag k="place" v="locality" />
		<tag k="ssr:stedsnr" v="855465" />
	</node>
	<node lat="60.13472222365132" lon="10.571661102928323" id="-18743">
		<tag k="name" v="Nordmarka" />
		<tag k="natural" v="wood" />
		<tag k="ssr:stedsnr" v="874528" />
	</node>
	<node lat="60.08483333062462" lon="10.80493611745271" id="-18753">
		<tag k="name" v="Daviddalen" />
		<tag k="natural" v="valley" />
		<tag k="place" v="locality" />
		<tag k="ssr:stedsnr" v="951274" />
	</node>
	<node lat="60.00160833059004" lon="10.94978889032912" id="-18754">
		<tag k="name" v="Gryta" />
		<tag k="place" v="locality" />
		<tag k="ssr:stedsnr" v="951348" />
=======
	<node id="-259627" lat="59.9997222193" lon="10.8583638816">
		<tag k="fixme" v="consider natural=peak for the most distinct mountains in the district" />
		<tag k="name" v="Seterhøgda" />
		<tag k="natural" v="hill" />
		<tag k="place" v="locality" />
		<tag k="ssr:stedsnr" v="767858" />
>>>>>>> e1d4bc35ff8a6074a6f2e91616a996b547c36f15
	</node>
</osm>
