<?xml version="1.0" encoding="UTF-8"?>
<osm version="0.6" generator="osmapis">
	<node lat="60.11950220743834" lon="10.709626309778535" id="-37337">
		<tag k="alt_name" v="Måsjøen, s" />
		<tag k="name" v="Søndre Måsjøen" />
		<tag k="natural" v="water" />
		<tag k="ssr:stedsnr" v="5068" />
		<tag k="water" v="lake" />
	</node>
	<node lat="60.12371466567932" lon="10.704496805983998" id="-37338">
		<tag k="alt_name" v="Måsjøen, nordre" />
		<tag k="name" v="Nordre Måsjøen" />
		<tag k="natural" v="water" />
		<tag k="ssr:stedsnr" v="5071" />
		<tag k="water" v="lake" />
	</node>
	<node lat="59.99285000182001" lon="10.890961114521463" id="-37351">
		<tag k="name" v="Lusevasan" />
		<tag k="natural" v="water" />
		<tag k="ssr:stedsnr" v="65601" />
	</node>
	<node lat="60.010219441480245" lon="10.85039167250725" id="-37352">
		<tag k="name" v="Kroktjern" />
		<tag k="natural" v="water" />
		<tag k="ssr:stedsnr" v="66355" />
	</node>
	<node lat="60.03680403898204" lon="10.814418026697226" id="-37353">
		<tag k="name" v="Søndre Movann" />
		<tag k="natural" v="water" />
		<tag k="ssr:stedsnr" v="66408" />
		<tag k="water" v="lake" />
	</node>
	<node lat="60.153944448056464" lon="10.890088892905268" id="-37355">
		<tag k="name" v="Storodden" />
		<tag k="natural" v="cape" />
		<tag k="ssr:stedsnr" v="66713" />
	</node>
	<node lat="60.15532777731764" lon="10.85535555819205" id="-37356">
		<tag k="alt_name" v="Åbortjern" />
		<tag k="name" v="Åbortjernet" />
		<tag k="natural" v="water" />
		<tag k="ssr:stedsnr" v="66715" />
	</node>
	<node lat="60.16986388963677" lon="10.82607500865365" id="-37360">
		<tag k="name" v="Lauvtangen" />
		<tag k="natural" v="water" />
		<tag k="ssr:stedsnr" v="66690" />
	</node>
	<node lat="60.12892222019432" lon="10.849274991098453" id="-37363">
		<tag k="name" v="Søndre Klopptjern" />
		<tag k="natural" v="water" />
		<tag k="ssr:stedsnr" v="87327" />
	</node>
	<node lat="60.14733332905814" lon="10.689800005677759" id="-37365">
		<tag k="name" v="Daltjuvfløyta" />
		<tag k="natural" v="water" />
		<tag k="ssr:stedsnr" v="248119" />
	</node>
	<node lat="60.12985000417209" lon="10.880816671390475" id="-37372">
		<tag k="name" v="Toketjern" />
		<tag k="natural" v="water" />
		<tag k="ssr:stedsnr" v="248673" />
	</node>
	<node lat="60.09000000179549" lon="10.788258338108927" id="-37380">
		<tag k="name" v="Blekketjern" />
		<tag k="natural" v="water" />
		<tag k="ssr:stedsnr" v="126515" />
	</node>
	<node lat="60.16637499567481" lon="10.781058333401322" id="-37386">
		<tag k="alt_name" v="Øvre Kolltjerna" />
		<tag k="name" v="Øvre Kolltjern" />
		<tag k="natural" v="water" />
		<tag k="ssr:stedsnr" v="127749" />
	</node>
	<node lat="60.0038472212223" lon="10.847797214278163" id="-37395">
		<tag k="name" v="Vennervann" />
		<tag k="natural" v="water" />
		<tag k="ssr:stedsnr" v="187329" />
	</node>
	<node lat="60.026987577031754" lon="10.83577428176593" id="-37397">
		<tag k="alt_name" v="Ormtjern" />
		<tag k="name" v="Ormetjern" />
		<tag k="natural" v="water" />
		<tag k="ssr:stedsnr" v="187390" />
	</node>
	<node lat="60.039791667047425" lon="10.94467499983634" id="-37399">
		<tag k="name" v="Gopletjern" />
		<tag k="natural" v="water" />
		<tag k="ssr:stedsnr" v="187407" />
	</node>
	<node lat="60.148988889301734" lon="10.83424999490292" id="-37402">
		<tag k="name" v="Sortungsbekken" />
		<tag k="ssr:stedsnr" v="187696" />
		<tag k="waterway" v="stream" />
	</node>
	<node lat="60.1394638930402" lon="10.723302778798082" id="-37406">
		<tag k="alt_name" v="Purketjernet" />
		<tag k="name" v="Purktjern" />
		<tag k="natural" v="water" />
		<tag k="ssr:stedsnr" v="188677" />
	</node>
	<node lat="60.13977499939539" lon="10.74001389271868" id="-37407">
		<tag k="name" v="Henrikstjernet" />
		<tag k="natural" v="water" />
		<tag k="ssr:stedsnr" v="188679" />
	</node>
	<node lat="60.16223888751478" lon="10.86516111522379" id="-37408">
		<tag k="name" v="Låverudselva" />
		<tag k="ssr:stedsnr" v="205046" />
		<tag k="waterway" v="stream" />
	</node>
	<node lat="60.07164444112201" lon="10.853149991886484" id="-37410">
		<tag k="alt_name" v="Høldippeldammen" />
		<tag k="name" v="Holnippeldammen" />
		<tag k="natural" v="water" />
		<tag k="ssr:stedsnr" v="269321" />
	</node>
	<node lat="60.103988888215845" lon="10.91179999827051" id="-37429">
		<tag k="name" v="Nordre Ravndalstjern" />
		<tag k="natural" v="water" />
		<tag k="ssr:stedsnr" v="282011" />
		<tag k="water" v="lake" />
	</node>
	<node lat="60.06232499754451" lon="10.827891668594347" id="-37431">
		<tag k="name" v="Brattfoss" />
		<tag k="natural" v="waterfall" />
		<tag k="ssr:stedsnr" v="282289" />
	</node>
	<node lat="60.05845000139019" lon="10.855269446672906" id="-37436">
		<tag k="name" v="Store Vassøytjern" />
		<tag k="natural" v="water" />
		<tag k="ssr:stedsnr" v="284322" />
	</node>
	<node lat="60.02012221893097" lon="10.889027778048385" id="-37439">
		<tag k="name" v="Brattfoss" />
		<tag k="natural" v="waterfall" />
		<tag k="ssr:stedsnr" v="463876" />
	</node>
	<node lat="60.117166668859824" lon="10.780174992729862" id="-37448">
		<tag k="name" v="Loppetjern" />
		<tag k="natural" v="water" />
		<tag k="ssr:stedsnr" v="309607" />
	</node>
	<node lat="60.11892777611942" lon="10.832058332199253" id="-37453">
		<tag k="name" v="Sagdammen" />
		<tag k="place" v="locality" />
		<tag k="ssr:stedsnr" v="511434" />
	</node>
	<node lat="60.058666669610126" lon="10.857041663780269" id="-37459">
		<tag k="name" v="Lille Vassøytjern" />
		<tag k="natural" v="water" />
		<tag k="ssr:stedsnr" v="344322" />
	</node>
	<node lat="60.031713886438375" lon="10.940219449052963" id="-37468">
		<tag k="name" v="Nordre Ovann" />
		<tag k="natural" v="water" />
		<tag k="ssr:stedsnr" v="369365" />
	</node>
	<node lat="60.13757500399625" lon="10.874616665230842" id="-37473">
		<tag k="name" v="Steintjern" />
		<tag k="natural" v="water" />
		<tag k="ssr:stedsnr" v="369575" />
	</node>
	<node lat="60.150750000519665" lon="10.847438880586068" id="-37474">
		<tag k="name" v="Guritjern" />
		<tag k="natural" v="water" />
		<tag k="ssr:stedsnr" v="369704" />
	</node>
	<node lat="60.132186113998806" lon="10.847716661573388" id="-37476">
		<tag k="alt_name" v="Kloppetjerna, nordre" />
		<tag k="name" v="Nordre Klopptjern" />
		<tag k="natural" v="water" />
		<tag k="ssr:stedsnr" v="369620" />
	</node>
	<node lat="60.16437499739778" lon="10.813352783458802" id="-37477">
		<tag k="name" v="Buvassbekken" />
		<tag k="ssr:stedsnr" v="369663" />
		<tag k="waterway" v="stream" />
	</node>
	<node lat="59.99709795479674" lon="10.841750424011053" id="-37486">
		<tag k="name" v="Griseputten" />
		<tag k="natural" v="water" />
		<tag k="ssr:stedsnr" v="489647" />
	</node>
	<node lat="60.16721184871953" lon="10.837418168900602" id="-37488">
		<tag k="name" v="Damsortungen" />
		<tag k="natural" v="water" />
		<tag k="ssr:stedsnr" v="490706" />
		<tag k="water" v="lake" />
	</node>
	<node lat="59.98727777353321" lon="10.891055554527274" id="-37489">
		<tag k="name" v="Romstjern" />
		<tag k="natural" v="water" />
		<tag k="ssr:stedsnr" v="429579" />
	</node>
	<node lat="60.13153610813723" lon="10.71095554741461" id="-37493">
		<tag k="name" v="Veslesjøen" />
		<tag k="natural" v="water" />
		<tag k="ssr:stedsnr" v="491097" />
	</node>
	<node lat="60.06013333098024" lon="10.837738893768647" id="-37497">
		<tag k="name" v="Ørfiskebekken" />
		<tag k="ssr:stedsnr" v="430461" />
		<tag k="waterway" v="stream" />
	</node>
	<node lat="60.13272499683326" lon="10.904050001498584" id="-37502">
		<tag k="name" v="Aurtjern" />
		<tag k="natural" v="water" />
		<tag k="ssr:stedsnr" v="430657" />
	</node>
	<node lat="60.187302778454246" lon="10.77870555153793" id="-37503">
		<tag k="name" v="Piperfløyta" />
		<tag k="natural" v="water" />
		<tag k="ssr:stedsnr" v="430793" />
	</node>
	<node lat="60.025049999263615" lon="10.949836116285878" id="-37505">
		<tag k="fixme" v="multiple name tags, choose one and add the other to alt_name" />
		<tag k="name" v="Lintjern;Tysilltjernet" />
		<tag k="natural" v="water" />
		<tag k="ssr:stedsnr" v="491420" />
	</node>
	<node lat="60.07875832924111" lon="10.8343000081975" id="-37507">
		<tag k="name" v="Svensketjernet" />
		<tag k="natural" v="water" />
		<tag k="ssr:stedsnr" v="491551" />
	</node>
	<node lat="60.14257777692918" lon="10.877675004679464" id="-37509">
		<tag k="alt_name" v="Rauddalsbekken" />
		<tag k="name" v="Raudalsbekken" />
		<tag k="ssr:stedsnr" v="491732" />
		<tag k="waterway" v="stream" />
	</node>
	<node lat="60.0354333321207" lon="10.965388882104111" id="-37519">
		<tag k="name" v="Svartputten" />
		<tag k="natural" v="water" />
		<tag k="ssr:stedsnr" v="673449" />
	</node>
	<node lat="60.12264166843531" lon="10.723341673456586" id="-37521">
		<tag k="alt_name" v="Nordre Anderstjern" />
		<tag k="name" v="Nordre Anderstjernet" />
		<tag k="natural" v="water" />
		<tag k="ssr:stedsnr" v="673687" />
	</node>
	<node lat="60.02535833125366" lon="10.922061104509543" id="-37528">
		<tag k="name" v="Ovannsbekken" />
		<tag k="ssr:stedsnr" v="473612" />
		<tag k="waterway" v="stream" />
	</node>
	<node lat="60.13626389313164" lon="10.708519439038449" id="-37532">
		<tag k="name" v="Huldretjernet" />
		<tag k="natural" v="water" />
		<tag k="ssr:stedsnr" v="491106" />
	</node>
	<node lat="60.07090000044688" lon="10.89888610402619" id="-37540">
		<tag k="name" v="Kasbekken" />
		<tag k="ssr:stedsnr" v="526117" />
		<tag k="waterway" v="stream" />
	</node>
	<node lat="60.085083337623985" lon="10.795133334936766" id="-37541">
		<tag k="name" v="Karlshaugputtene" />
		<tag k="natural" v="water" />
		<tag k="ssr:stedsnr" v="526267" />
	</node>
	<node lat="59.99554166674177" lon="10.883511116180774" id="-37544">
		<tag k="name" v="Lomtjern" />
		<tag k="natural" v="water" />
		<tag k="ssr:stedsnr" v="550604" />
	</node>
	<node lat="60.07935555864578" lon="10.840924992574037" id="-37545">
		<tag k="name" v="Lomtjern" />
		<tag k="natural" v="water" />
		<tag k="ssr:stedsnr" v="551519" />
	</node>
	<node lat="60.09288055226282" lon="10.792713895115211" id="-37549">
		<tag k="name" v="Store Hyttetjern" />
		<tag k="natural" v="water" />
		<tag k="ssr:stedsnr" v="551605" />
	</node>
	<node lat="60.09537046349198" lon="10.911489963607847" id="-37551">
		<tag k="alt_name" v="Ravndalstjern" />
		<tag k="name" v="Ramndalstjerna" />
		<tag k="natural" v="water" />
		<tag k="ssr:stedsnr" v="551615" />
		<tag k="water" v="lake" />
	</node>
	<node lat="60.17460833343708" lon="10.808436106698139" id="-37552">
		<tag k="name" v="Vrangen" />
		<tag k="natural" v="water" />
		<tag k="ssr:stedsnr" v="551706" />
		<tag k="water" v="lake" />
	</node>
	<node lat="60.170000002822114" lon="10.796933325544616" id="-37553">
		<tag k="name" v="Nybonntjernet" />
		<tag k="natural" v="water" />
		<tag k="ssr:stedsnr" v="551712" />
	</node>
	<node lat="60.01519722266092" lon="10.884241674101197" id="-37557">
		<tag k="name" v="Skredderudbekken" />
		<tag k="ssr:stedsnr" v="585805" />
		<tag k="waterway" v="stream" />
	</node>
	<node lat="60.00019444766611" lon="10.88446389141082" id="-37558">
		<tag k="name" v="Bodalsputten" />
		<tag k="natural" v="water" />
		<tag k="ssr:stedsnr" v="585821" />
	</node>
	<node lat="60.01110278203677" lon="10.885852781139578" id="-37568">
		<tag k="name" v="Skredderudtjernet" />
		<tag k="natural" v="water" />
		<tag k="ssr:stedsnr" v="611373" />
	</node>
	<node lat="60.06956201615391" lon="10.887701631507458" id="-37569">
		<tag k="loc_name" v="Nittelva" />
		<tag k="name" v="Nitelva" />
		<tag k="ssr:stedsnr" v="611618" />
		<tag k="waterway" v="river" />
	</node>
	<node lat="60.091900003480845" lon="10.906563884070312" id="-37571">
		<tag k="alt_name" v="Bergstjern" />
		<tag k="name" v="Bergstjernet" />
		<tag k="natural" v="water" />
		<tag k="ssr:stedsnr" v="611627" />
	</node>
	<node lat="60.16944444112852" lon="10.81375832820081" id="-37572">
		<tag k="name" v="Buvann" />
		<tag k="natural" v="water" />
		<tag k="ssr:stedsnr" v="611709" />
	</node>
	<node lat="60.167533330097726" lon="10.85791666373838" id="-37573">
		<tag k="name" v="Hakkimbekken" />
		<tag k="ssr:stedsnr" v="611711" />
		<tag k="waterway" v="stream" />
	</node>
	<node lat="60.1691499960516" lon="10.851774991664653" id="-37574">
		<tag k="name" v="Hakkimtjernet" />
		<tag k="natural" v="water" />
		<tag k="ssr:stedsnr" v="611712" />
	</node>
	<node lat="60.15447777903668" lon="10.768108327991941" id="-37575">
		<tag k="alt_name" v="Varpebekken" />
		<tag k="name" v="Varpsbekken" />
		<tag k="ssr:stedsnr" v="611728" />
		<tag k="waterway" v="stream" />
	</node>
	<node lat="60.12892483072822" lon="10.692420964128853" id="-37576">
		<tag k="alt_name" v="Svarttjernet" />
		<tag k="name" v="Svarttjern" />
		<tag k="natural" v="water" />
		<tag k="ssr:stedsnr" v="612115" />
	</node>
	<node lat="60.12199721911763" lon="10.821372222911876" id="-37588">
		<tag k="name" v="Verkensdammen" />
		<tag k="natural" v="water" />
		<tag k="ssr:stedsnr" v="707021" />
	</node>
	<node lat="60.005988886661264" lon="10.86445000339935" id="-37602">
		<tag k="name" v="Rudsputten" />
		<tag k="natural" v="water" />
		<tag k="ssr:stedsnr" v="672311" />
	</node>
	<node lat="60.16702500279047" lon="10.790063887012453" id="-37608">
		<tag k="alt_name" v="Vivangtjernet" />
		<tag k="name" v="Vivangstjernet" />
		<tag k="natural" v="water" />
		<tag k="ssr:stedsnr" v="673703" />
	</node>
	<node lat="60.09498333662447" lon="10.912375001936343" id="-37616">
		<tag k="name" v="Midtre Ravndalstjern" />
		<tag k="natural" v="water" />
		<tag k="ssr:stedsnr" v="707009" />
	</node>
	<node lat="60.04541509646128" lon="10.950670108954323" id="-37624">
		<tag k="name" v="Nordre Ryggevann" />
		<tag k="natural" v="water" />
		<tag k="ssr:stedsnr" v="733419" />
		<tag k="water" v="lake" />
	</node>
	<node lat="60.125613888929415" lon="10.912130562565402" id="-37627">
		<tag k="name" v="Kirkebygjermenningen" />
		<tag k="natural" v="water" />
		<tag k="ssr:stedsnr" v="733634" />
	</node>
	<node lat="60.06550555713835" lon="10.802891659596982" id="-37634">
		<tag k="name" v="Langdalsbekken" />
		<tag k="ssr:stedsnr" v="767306" />
		<tag k="waterway" v="stream" />
	</node>
	<node lat="60.00674444192535" lon="10.871133331589572" id="-37635">
		<tag k="name" v="Kjulstjernsbekken" />
		<tag k="ssr:stedsnr" v="767808" />
		<tag k="waterway" v="stream" />
	</node>
	<node lat="60.09071389178687" lon="10.791661103804689" id="-37645">
		<tag k="name" v="Lille Hyttetjern" />
		<tag k="natural" v="water" />
		<tag k="ssr:stedsnr" v="794607" />
	</node>
	<node lat="60.139755553369874" lon="10.877583339151778" id="-37648">
		<tag k="name" v="Raudputt" />
		<tag k="natural" v="water" />
		<tag k="ssr:stedsnr" v="794628" />
	</node>
	<node lat="60.02838611002307" lon="10.938625000676682" id="-37652">
		<tag k="name" v="Søndre Ovann" />
		<tag k="natural" v="water" />
		<tag k="ssr:stedsnr" v="794388" />
	</node>
	<node lat="60.045775002541646" lon="10.854591667963323" id="-37656">
		<tag k="name" v="Vågedammen" />
		<tag k="natural" v="water" />
		<tag k="ssr:stedsnr" v="915449" />
	</node>
	<node lat="60.128194448049044" lon="10.896061113281249" id="-37657">
		<tag k="name" v="Storeputt" />
		<tag k="natural" v="water" />
		<tag k="ssr:stedsnr" v="915648" />
	</node>
	<node lat="60.07443611371623" lon="10.81466666306012" id="-37665">
		<tag k="name" v="Ørfiske" />
		<tag k="natural" v="water" />
		<tag k="ssr:stedsnr" v="916551" />
		<tag k="water" v="lake" />
	</node>
	<node lat="60.15289722578567" lon="10.697905554943002" id="-37681">
		<tag k="name" v="Nordre Djupdalstjernet" />
		<tag k="natural" v="water" />
		<tag k="ssr:stedsnr" v="855120" />
	</node>
	<node lat="60.000974997215536" lon="10.854722228949246" id="-37682">
		<tag k="name" v="Søndre Langvann" />
		<tag k="natural" v="water" />
		<tag k="ssr:stedsnr" v="855340" />
	</node>
	<node lat="60.019308333435056" lon="10.887052778530311" id="-37684">
		<tag k="name" v="Brattfossbekken" />
		<tag k="ssr:stedsnr" v="855388" />
		<tag k="waterway" v="stream" />
	</node>
	<node lat="60.06928055618414" lon="10.928730554064103" id="-37687">
		<tag k="name" v="Svartkulp" />
		<tag k="natural" v="water" />
		<tag k="ssr:stedsnr" v="855481" />
		<tag k="water" v="pond" />
	</node>
	<node lat="60.18306388957783" lon="10.784699999525456" id="-37692">
		<tag k="alt_name" v="Pipern" />
		<tag k="name" v="Piperen" />
		<tag k="natural" v="water" />
		<tag k="ssr:stedsnr" v="855835" />
	</node>
	<node lat="60.15411666747985" lon="10.727799997415707" id="-37704">
		<tag k="name" v="Strekan" />
		<tag k="natural" v="water" />
		<tag k="ssr:stedsnr" v="915706" />
	</node>
	<node lat="60.14428888474077" lon="10.703744439946636" id="-37705">
		<tag k="name" v="Søndre Djupdalstjernet" />
		<tag k="natural" v="water" />
		<tag k="ssr:stedsnr" v="916108" />
	</node>
	<node lat="60.06512599408803" lon="10.935223745051866" id="-37709">
		<tag k="fixme" v="multiple name tags, choose one and add the other to alt_name" />
		<tag k="name" v="Flabben;Mastutjern" />
		<tag k="natural" v="water" />
		<tag k="ssr:stedsnr" v="916527" />
	</node>
	<node lat="60.075299996011886" lon="10.915433340322352" id="-37710">
		<tag k="name" v="Spenningsbybekken" />
		<tag k="ssr:stedsnr" v="916561" />
		<tag k="waterway" v="stream" />
	</node>
	<node lat="60.17726388859367" lon="10.799799998279246" id="-37711">
		<tag k="name" v="Toreren" />
		<tag k="natural" v="water" />
		<tag k="ssr:stedsnr" v="916726" />
	</node>
	<node lat="60.09229249803917" lon="10.824086294330876" id="-37724">
		<tag k="name" v="Krølltopptjernet" />
		<tag k="natural" v="water" />
		<tag k="ssr:stedsnr" v="981711" />
	</node>
	<node lat="60.0100083364019" lon="10.86170000028512" id="-37781">
		<tag k="alt_name" v="Kjulstjern" />
		<tag k="name" v="Kjulstjernet" />
		<tag k="natural" v="water" />
		<tag k="ssr:stedsnr" v="5351" />
	</node>
	<node lat="60.16283055541004" lon="10.84555833639627" id="-37786">
		<tag k="name" v="Steinsortungen" />
		<tag k="natural" v="water" />
		<tag k="ssr:stedsnr" v="5681" />
	</node>
	<node lat="60.15563888675404" lon="10.89225277727961" id="-37787">
		<tag k="name" v="Storøyungen" />
		<tag k="natural" v="water" />
		<tag k="ssr:stedsnr" v="5700" />
		<tag k="water" v="lake" />
	</node>
	<node lat="60.18317777540034" lon="10.805963884414759" id="-37788">
		<tag k="name" v="Sølvtjernet" />
		<tag k="natural" v="water" />
		<tag k="ssr:stedsnr" v="5779" />
	</node>
	<node lat="60.00551944269006" lon="10.856161107637526" id="-37793">
		<tag k="name" v="Langvassbekken" />
		<tag k="ssr:stedsnr" v="39783" />
		<tag k="waterway" v="stream" />
	</node>
	<node lat="60.01420277731606" lon="10.845883341490811" id="-37794">
		<tag k="name" v="Tørrplanputten" />
		<tag k="natural" v="water" />
		<tag k="ssr:stedsnr" v="39796" />
	</node>
	<node lat="59.99881110685639" lon="10.873213896064767" id="-37795">
		<tag k="name" v="Nordre Aurevannsputten" />
		<tag k="natural" v="water" />
		<tag k="ssr:stedsnr" v="39827" />
	</node>
	<node lat="59.99467499646482" lon="10.993205547402095" id="-37797">
		<tag k="name" v="Tveitabekken" />
		<tag k="ssr:stedsnr" v="41349" />
		<tag k="waterway" v="stream" />
	</node>
	<node lat="60.10770833128022" lon="10.861980548594865" id="-37798">
		<tag k="name" v="Tøyenfossen" />
		<tag k="natural" v="waterfall" />
		<tag k="ssr:stedsnr" v="41087" />
	</node>
	<node lat="60.11544777252027" lon="10.760703231105676" id="-37816">
		<tag k="name" v="Elvannet" />
		<tag k="natural" v="water" />
		<tag k="ssr:stedsnr" v="66545" />
		<tag k="water" v="lake" />
	</node>
	<node lat="60.12626666323247" lon="10.737577771063009" id="-37822">
		<tag k="name" v="Nordvannet" />
		<tag k="natural" v="water" />
		<tag k="ssr:stedsnr" v="66631" />
		<tag k="water" v="lake" />
	</node>
	<node lat="60.01849722464808" lon="10.841941666215922" id="-37826">
		<tag k="name" v="Staurputtene" />
		<tag k="natural" v="water" />
		<tag k="ssr:stedsnr" v="99889" />
	</node>
	<node lat="59.996269445091286" lon="10.942230554364336" id="-37827">
		<tag k="name" v="Stranda" />
		<tag k="natural" v="beach" />
		<tag k="ssr:stedsnr" v="100253" />
	</node>
	<node lat="60.08613521039971" lon="10.919710073414484" id="-37832">
		<tag k="name" v="Småvanna" />
		<tag k="natural" v="water" />
		<tag k="ssr:stedsnr" v="102135" />
		<tag k="water" v="lake" />
	</node>
	<node lat="60.064555551362474" lon="10.897099994472226" id="-37836">
		<tag k="name" v="Kasbekken" />
		<tag k="ssr:stedsnr" v="102362" />
		<tag k="waterway" v="stream" />
	</node>
	<node lat="59.997008332294136" lon="10.888258340525608" id="-37843">
		<tag k="name" v="Bleiktjern" />
		<tag k="natural" v="water" />
		<tag k="ssr:stedsnr" v="125631" />
	</node>
	<node lat="59.992848033325444" lon="10.87024069590635" id="-37844">
		<tag k="name" v="Aurevann" />
		<tag k="natural" v="water" />
		<tag k="ssr:stedsnr" v="125636" />
		<tag k="water" v="lake" />
	</node>
	<node lat="60.09020000231401" lon="10.809794440421364" id="-37849">
		<tag k="name" v="Blendsølvputten" />
		<tag k="natural" v="water" />
		<tag k="ssr:stedsnr" v="126599" />
	</node>
	<node lat="60.13559722654636" lon="10.835591671844105" id="-37851">
		<tag k="name" v="Åsbekken" />
		<tag k="ssr:stedsnr" v="126731" />
		<tag k="waterway" v="stream" />
	</node>
	<node lat="60.18101944124258" lon="10.830191659828438" id="-37854">
		<tag k="name" v="Svartvann" />
		<tag k="natural" v="water" />
		<tag k="ssr:stedsnr" v="126779" />
	</node>
	<node lat="60.01980555911442" lon="10.829219452895192" id="-37855">
		<tag k="name" v="Nordre Langvann" />
		<tag k="natural" v="water" />
		<tag k="ssr:stedsnr" v="127432" />
		<tag k="water" v="lake" />
	</node>
	<node lat="60.106461108700906" lon="10.758122216162223" id="-37856">
		<tag k="name" v="Langvann" />
		<tag k="natural" v="water" />
		<tag k="ssr:stedsnr" v="127627" />
		<tag k="water" v="lake" />
	</node>
	<node lat="60.14521110834176" lon="10.868136102087997" id="-37857">
		<tag k="name" v="Setertjernet" />
		<tag k="natural" v="water" />
		<tag k="ssr:stedsnr" v="127768" />
	</node>
	<node lat="60.04472499594234" lon="10.876424995744765" id="-37864">
		<tag k="name" v="Ørfiskebekken" />
		<tag k="ssr:stedsnr" v="160653" />
		<tag k="waterway" v="stream" />
	</node>
	<node lat="59.989280556088396" lon="10.876511108806492" id="-37866">
		<tag k="name" v="Setertjern" />
		<tag k="natural" v="water" />
		<tag k="ssr:stedsnr" v="160828" />
	</node>
	<node lat="60.139694442246125" lon="10.68982500062068" id="-37868">
		<tag k="name" v="Stålputtene" />
		<tag k="natural" v="water" />
		<tag k="ssr:stedsnr" v="162279" />
	</node>
	<node lat="60.01783333543104" lon="10.844808340451959" id="-37879">
		<tag k="alt_name" v="Åbortjern" />
		<tag k="name" v="Åbortjernet" />
		<tag k="natural" v="water" />
		<tag k="ssr:stedsnr" v="188434" />
	</node>
	<node lat="60.105575002497126" lon="10.768055549928967" id="-37880">
		<tag k="name" v="Vintertjernet" />
		<tag k="natural" v="water" />
		<tag k="ssr:stedsnr" v="188632" />
	</node>
	<node lat="60.16096944232806" lon="10.786333335705482" id="-37883">
		<tag k="alt_name" v="Nedre Kolltjerna" />
		<tag k="name" v="Nedre Kolltjern" />
		<tag k="natural" v="water" />
		<tag k="ssr:stedsnr" v="188745" />
	</node>
	<node lat="60.030388890168986" lon="10.946566671918431" id="-37886">
		<tag k="name" v="Svartputten" />
		<tag k="natural" v="water" />
		<tag k="ssr:stedsnr" v="221346" />
	</node>
	<node lat="60.17149722588982" lon="10.783533324903047" id="-37895">
		<tag k="name" v="Øvre Blekketjern" />
		<tag k="natural" v="water" />
		<tag k="ssr:stedsnr" v="223863" />
	</node>
	<node lat="60.17361111389471" lon="10.78390000117309" id="-37896">
		<tag k="name" v="Nedre Blekketjern" />
		<tag k="natural" v="water" />
		<tag k="ssr:stedsnr" v="223864" />
	</node>
	<node lat="59.996425000699375" lon="10.871036112517537" id="-37899">
		<tag k="name" v="Søndre Aurevannsputten" />
		<tag k="natural" v="water" />
		<tag k="ssr:stedsnr" v="282826" />
	</node>
	<node lat="60.12817222527953" lon="10.834061119104351" id="-37902">
		<tag k="name" v="Åsbekken" />
		<tag k="ssr:stedsnr" v="284160" />
		<tag k="waterway" v="stream" />
	</node>
	<node lat="60.0815250018025" lon="10.847088880462126" id="-37913">
		<tag k="name" v="Åbortjernet" />
		<tag k="natural" v="water" />
		<tag k="ssr:stedsnr" v="308469" />
	</node>
	<node lat="60.12007778155419" lon="10.804202780571838" id="-37918">
		<tag k="name" v="Torsbekken" />
		<tag k="ssr:stedsnr" v="308653" />
		<tag k="waterway" v="stream" />
	</node>
	<node lat="60.07310000397886" lon="10.82095555450321" id="-37922">
		<tag k="name" v="Svenskevika" />
		<tag k="natural" v="bay" />
		<tag k="ssr:stedsnr" v="344282" />
	</node>
	<node lat="59.98769722257711" lon="10.977438892868774" id="-37924">
		<tag k="name" v="Grana" />
		<tag k="natural" v="beach" />
		<tag k="ssr:stedsnr" v="344356" />
	</node>
	<node lat="60.16929444086037" lon="10.800083328718841" id="-37936">
		<tag k="name" v="Fiskeløysa" />
		<tag k="natural" v="water" />
		<tag k="ssr:stedsnr" v="369660" />
	</node>
	<node lat="60.093083336740904" lon="10.802955555029845" id="-37937">
		<tag k="name" v="Daviddalsputten" />
		<tag k="natural" v="water" />
		<tag k="ssr:stedsnr" v="369558" />
	</node>
	<node lat="60.00580238000122" lon="10.837137887186788" id="-37943">
		<tag k="name" v="Granbergsputtene" />
		<tag k="natural" v="water" />
		<tag k="ssr:stedsnr" v="403818" />
	</node>
	<node lat="60.01613611048907" lon="10.83976110980198" id="-37952">
		<tag k="alt_name" v="Kringla" />
		<tag k="name" v="Kringler" />
		<tag k="natural" v="water" />
		<tag k="ssr:stedsnr" v="430370" />
	</node>
	<node lat="60.069522225459394" lon="10.785627780166696" id="-37954">
		<tag k="name" v="Fløyta" />
		<tag k="natural" v="water" />
		<tag k="ssr:stedsnr" v="430567" />
	</node>
	<node lat="60.108955551506966" lon="10.915086110649405" id="-37956">
		<tag k="name" v="Svarttjern" />
		<tag k="natural" v="water" />
		<tag k="ssr:stedsnr" v="430591" />
	</node>
	<node lat="60.11775555633272" lon="10.809222216566369" id="-37961">
		<tag k="name" v="Homannsbekken" />
		<tag k="ssr:stedsnr" v="430671" />
		<tag k="waterway" v="stream" />
	</node>
	<node lat="60.172943528685366" lon="10.783897470560104" id="-37962">
		<tag k="name" v="Blekketjerna" />
		<tag k="natural" v="water" />
		<tag k="ssr:stedsnr" v="430686" />
		<tag k="water" v="lake" />
	</node>
	<node lat="60.18120399090649" lon="10.84191939709468" id="-37963">
		<tag k="name" v="Bakkholtjerna" />
		<tag k="natural" v="water" />
		<tag k="ssr:stedsnr" v="430773" />
		<tag k="water" v="lake" />
	</node>
	<node lat="60.03114444656197" lon="10.958027785996295" id="-37973">
		<tag k="alt_name" v="Rygga" />
		<tag k="name" v="Ryggebekken" />
		<tag k="ssr:stedsnr" v="551390" />
		<tag k="waterway" v="stream" />
	</node>
	<node lat="60.01821110790614" lon="10.855827775998556" id="-37974">
		<tag k="alt_name" v="Nordskogtjerna" />
		<tag k="name" v="Nordskogtjernet" />
		<tag k="natural" v="water" />
		<tag k="ssr:stedsnr" v="551381" />
	</node>
	<node lat="60.02528055358519" lon="10.846986110564535" id="-37982">
		<tag k="name" v="Skrytabekken" />
		<tag k="ssr:stedsnr" v="584896" />
		<tag k="waterway" v="stream" />
	</node>
	<node lat="59.977425000676945" lon="10.942525005975796" id="-37997">
		<tag k="name" v="Svarttjern" />
		<tag k="natural" v="water" />
		<tag k="ssr:stedsnr" v="611533" />
	</node>
	<node lat="59.98014761035462" lon="10.909350373256776" id="-37998">
		<tag k="name" v="Bamsetjern" />
		<tag k="natural" v="water" />
		<tag k="ssr:stedsnr" v="611548" />
	</node>
	<node lat="60.143544447944336" lon="10.863411112398344" id="-38000">
		<tag k="name" v="Setertjernbekken" />
		<tag k="ssr:stedsnr" v="611639" />
		<tag k="waterway" v="stream" />
	</node>
	<node lat="60.088966665571675" lon="10.774052783388385" id="-38007">
		<tag k="name" v="Gryta" />
		<tag k="natural" v="water" />
		<tag k="ssr:stedsnr" v="612544" />
	</node>
	<node lat="60.173927775128504" lon="10.777891660056765" id="-38010">
		<tag k="name" v="Svarttjern" />
		<tag k="natural" v="water" />
		<tag k="ssr:stedsnr" v="612699" />
	</node>
	<node lat="60.14191944876385" lon="10.792991658080973" id="-38011">
		<tag k="name" v="Hakadalselva" />
		<tag k="ssr:stedsnr" v="612741" />
		<tag k="waterway" v="river" />
	</node>
	<node lat="59.97421921330795" lon="10.933621703447422" id="-38012">
		<tag k="name" v="Tokerudtjern" />
		<tag k="natural" v="water" />
		<tag k="ssr:stedsnr" v="630414" />
	</node>
	<node lat="60.147544446344675" lon="10.822999999199563" id="-38014">
		<tag k="name" v="Vesleelva" />
		<tag k="ssr:stedsnr" v="647781" />
		<tag k="waterway" v="stream" />
	</node>
	<node lat="60.01116666264428" lon="10.86867499275357" id="-38023">
		<tag k="name" v="Staurputten" />
		<tag k="natural" v="water" />
		<tag k="ssr:stedsnr" v="733344" />
	</node>
	<node lat="60.08530277638408" lon="10.773280550389257" id="-38025">
		<tag k="name" v="Holmetjern" />
		<tag k="natural" v="water" />
		<tag k="ssr:stedsnr" v="733472" />
	</node>
	<node lat="59.98938333367211" lon="10.901377773323514" id="-38027">
		<tag k="name" v="Skyttaputten" />
		<tag k="natural" v="water" />
		<tag k="ssr:stedsnr" v="733559" />
	</node>
	<node lat="59.98743055754652" lon="10.982174998278595" id="-38040">
		<tag k="name" v="Ramstadstranda" />
		<tag k="natural" v="beach" />
		<tag k="ssr:stedsnr" v="769333" />
	</node>
	<node lat="59.985699996261786" lon="10.937183338041368" id="-38044">
		<tag k="name" v="Morttjern" />
		<tag k="natural" v="water" />
		<tag k="ssr:stedsnr" v="793613" />
	</node>
	<node lat="60.037644445133985" lon="10.957119451333886" id="-38050">
		<tag k="name" v="Søndre Ryggevann" />
		<tag k="natural" v="water" />
		<tag k="ssr:stedsnr" v="794437" />
		<tag k="water" v="lake" />
	</node>
	<node lat="60.1352944454194" lon="10.732394440505157" id="-38053">
		<tag k="alt_name" v="Aurtjernet" />
		<tag k="name" v="Aurtjern" />
		<tag k="natural" v="water" />
		<tag k="ssr:stedsnr" v="794632" />
	</node>
	<node lat="60.12363611000538" lon="10.71481389595979" id="-38061">
		<tag k="name" v="Aurputten" />
		<tag k="natural" v="water" />
		<tag k="ssr:stedsnr" v="830146" />
	</node>
	<node lat="60.07116944189439" lon="10.83458055685252" id="-38066">
		<tag k="name" v="Skåltjern" />
		<tag k="natural" v="water" />
		<tag k="ssr:stedsnr" v="855528" />
	</node>
	<node lat="60.134766666232686" lon="10.78532778623609" id="-38067">
		<tag k="name" v="Ela" />
		<tag k="ssr:stedsnr" v="855657" />
		<tag k="waterway" v="stream" />
	</node>
	<node lat="60.04251173819612" lon="10.817851032984539" id="-38069">
		<tag k="name" v="Nordre Movann" />
		<tag k="natural" v="water" />
		<tag k="ssr:stedsnr" v="855422" />
		<tag k="water" v="lake" />
	</node>
	<node lat="60.15371666835946" lon="10.877999999085905" id="-38072">
		<tag k="name" v="Raudalslona" />
		<tag k="natural" v="water" />
		<tag k="ssr:stedsnr" v="855745" />
	</node>
	<node lat="60.05150427674515" lon="10.950552556755333" id="-38087">
		<tag k="name" v="Ryggevanna" />
		<tag k="natural" v="water" />
		<tag k="ssr:stedsnr" v="975765" />
		<tag k="water" v="lake" />
	</node>
</osm>
