<?xml version="1.0" encoding="UTF-8"?>
<osm version="0.6" generator="osmapis">
	<node lat="59.990744441680484" lon="10.988163881180208" id="-15568">
		<tag k="name" v="Ramstad" />
		<tag k="place" v="farm" />
		<tag k="ssr:stedsnr" v="4607" />
	</node>
	<node lat="59.991530558116956" lon="10.95296111800181" id="-15569">
		<tag k="alt_name" v="Øgarden" />
		<tag k="name" v="Øgården" />
		<tag k="place" v="farm" />
		<tag k="ssr:stedsnr" v="4614" />
	</node>
	<node lat="59.99036110799773" lon="10.946994447529345" id="-15570">
		<tag k="name" v="Nygård" />
		<tag k="place" v="farm" />
		<tag k="ssr:stedsnr" v="4617" />
	</node>
	<node lat="60.11950220743834" lon="10.709626309778535" id="-15571">
		<tag k="alt_name" v="Måsjøen, s" />
		<tag k="name" v="Søndre Måsjøen" />
		<tag k="natural" v="water" />
		<tag k="ssr:stedsnr" v="5068" />
		<tag k="water" v="lake" />
	</node>
	<node lat="60.12371466567932" lon="10.704496805983998" id="-15572">
		<tag k="alt_name" v="Måsjøen, nordre" />
		<tag k="name" v="Nordre Måsjøen" />
		<tag k="natural" v="water" />
		<tag k="ssr:stedsnr" v="5071" />
		<tag k="water" v="lake" />
	</node>
	<node lat="60.040963892170964" lon="10.88592499519735" id="-15573">
		<tag k="name" v="Sandum" />
		<tag k="place" v="farm" />
		<tag k="ssr:stedsnr" v="5414" />
	</node>
	<node lat="60.04082500455176" lon="10.912611106325919" id="-15574">
		<tag k="name" v="Nybrott" />
		<tag k="place" v="isolated_dwelling" />
		<tag k="ssr:stedsnr" v="5416" />
	</node>
	<node lat="60.03863055397428" lon="10.859325005456284" id="-15575">
		<tag k="alt_name" v="Jenserud" />
		<tag k="name" v="Jensrud" />
		<tag k="place" v="isolated_dwelling" />
		<tag k="ssr:stedsnr" v="5420" />
	</node>
	<node lat="60.058287151489424" lon="10.899388806452349" id="-15576">
		<tag k="fixme" v="consider place=hamlet" />
		<tag k="name" v="Østby" />
		<tag k="place" v="farm" />
		<tag k="ssr:stedsnr" v="5460" />
	</node>
	<node lat="60.08563159645524" lon="10.862732817578861" id="-15577">
		<tag k="name" v="Åneby stasjon" />
		<tag k="railway" v="station" />
		<tag k="ssr:stedsnr" v="5482" />
		<tag k="train" v="yes" />
	</node>
	<node lat="60.13668250948558" lon="10.79083688221241" id="-15578">
		<tag k="fixme" v="consider place=hamlet" />
		<tag k="name" v="Elnes" />
		<tag k="place" v="farm" />
		<tag k="ssr:stedsnr" v="5615" />
	</node>
	<node lat="60.16170278042219" lon="10.839641664057892" id="-15579">
		<tag k="name" v="Sortungshøgda" />
		<tag k="natural" v="hill" />
		<tag k="place" v="locality" />
		<tag k="ssr:stedsnr" v="5704" />
	</node>
	<node lat="60.064976818324794" lon="10.930180109119759" id="-15580">
		<tag k="name" v="Langmyra" />
		<tag k="natural" v="wetland" />
		<tag k="ssr:stedsnr" v="6588" />
	</node>
	<node lat="60.078702773966036" lon="10.841236103028313" id="-15581">
		<tag k="name" v="Lomtjernsmyrene" />
		<tag k="natural" v="wetland" />
		<tag k="ssr:stedsnr" v="41114" />
	</node>
	<node lat="60.06528333111166" lon="10.89412499355547" id="-15582">
		<tag k="name" v="Nordbyhaugen" />
		<tag k="natural" v="hill" />
		<tag k="place" v="locality" />
		<tag k="ssr:stedsnr" v="41305" />
	</node>
	<node lat="60.077238892500446" lon="10.875144442934783" id="-15583">
		<tag k="name" v="Bikkjehølet" />
		<tag k="place" v="locality" />
		<tag k="ssr:stedsnr" v="41414" />
	</node>
	<node lat="59.99285000182001" lon="10.890961114521463" id="-15584">
		<tag k="name" v="Lusevasan" />
		<tag k="natural" v="water" />
		<tag k="ssr:stedsnr" v="65601" />
	</node>
	<node lat="60.010219441480245" lon="10.85039167250725" id="-15585">
		<tag k="name" v="Kroktjern" />
		<tag k="natural" v="water" />
		<tag k="ssr:stedsnr" v="66355" />
	</node>
	<node lat="60.03680403898204" lon="10.814418026697226" id="-15586">
		<tag k="name" v="Søndre Movann" />
		<tag k="natural" v="water" />
		<tag k="ssr:stedsnr" v="66408" />
		<tag k="water" v="lake" />
	</node>
	<node lat="60.07819166271921" lon="10.790977778836687" id="-15587">
		<tag k="fixme" v="consider natural=peak for the most distinct mountains in the district" />
		<tag k="name" v="Gruvåsen" />
		<tag k="natural" v="hill" />
		<tag k="place" v="locality" />
		<tag k="ssr:stedsnr" v="66507" />
	</node>
	<node lat="60.153944448056464" lon="10.890088892905268" id="-15588">
		<tag k="name" v="Storodden" />
		<tag k="natural" v="cape" />
		<tag k="ssr:stedsnr" v="66713" />
	</node>
	<node lat="60.15532777731764" lon="10.85535555819205" id="-15589">
		<tag k="alt_name" v="Åbortjern" />
		<tag k="name" v="Åbortjernet" />
		<tag k="natural" v="water" />
		<tag k="ssr:stedsnr" v="66715" />
	</node>
	<node lat="60.1379388855431" lon="10.842816661626992" id="-15590">
		<tag k="fixme" v="consider natural=peak for the most distinct mountains in the district" />
		<tag k="name" v="Åskastet" />
		<tag k="natural" v="hill" />
		<tag k="place" v="locality" />
		<tag k="ssr:stedsnr" v="66603" />
	</node>
	<node lat="60.14158333000245" lon="10.814458338118543" id="-15591">
		<tag k="name" v="Myra" />
		<tag k="place" v="farm" />
		<tag k="ssr:stedsnr" v="66608" />
	</node>
	<node lat="60.12111944808555" lon="10.82323055836831" id="-15592">
		<tag k="alt_name" v="Hakadal verk" />
		<tag k="name" v="Hakadals verk" />
		<tag k="place" v="hamlet" />
		<tag k="ssr:stedsnr" v="66669" />
	</node>
	<node lat="60.16986388963677" lon="10.82607500865365" id="-15593">
		<tag k="name" v="Lauvtangen" />
		<tag k="natural" v="water" />
		<tag k="ssr:stedsnr" v="66690" />
	</node>
	<node lat="60.17890277386223" lon="10.837391673653336" id="-15594">
		<tag k="alt_name" v="Svartevannshøgda" />
		<tag k="name" v="Svartvasshøgda" />
		<tag k="natural" v="hill" />
		<tag k="place" v="locality" />
		<tag k="ssr:stedsnr" v="66691" />
	</node>
	<node lat="60.11444722192546" lon="10.859994439450888" id="-15595">
		<tag k="alt_name" v="Grønvoll" />
		<tag k="name" v="Tøyen" />
		<tag k="place" v="quarter" />
		<tag k="ssr:stedsnr" v="85873" />
	</node>
	<node lat="60.12892222019432" lon="10.849274991098453" id="-15596">
		<tag k="name" v="Søndre Klopptjern" />
		<tag k="natural" v="water" />
		<tag k="ssr:stedsnr" v="87327" />
	</node>
	<node lat="60.01603611378361" lon="10.90983333618427" id="-15597">
		<tag k="name" v="Haugerud" />
		<tag k="place" v="farm" />
		<tag k="ssr:stedsnr" v="248339" />
	</node>
	<node lat="60.14733332905814" lon="10.689800005677759" id="-15598">
		<tag k="name" v="Daltjuvfløyta" />
		<tag k="natural" v="water" />
		<tag k="ssr:stedsnr" v="248119" />
	</node>
	<node lat="60.116969445367154" lon="10.821236115355086" id="-15599">
		<tag k="name" v="Bomstua" />
		<tag k="place" v="locality" />
		<tag k="ssr:stedsnr" v="100011" />
	</node>
	<node lat="60.01028454049447" lon="10.945373043338916" id="-15600">
		<tag k="fixme" v="consider place=hamlet" />
		<tag k="name" v="Dal" />
		<tag k="place" v="farm" />
		<tag k="ssr:stedsnr" v="248379" />
	</node>
	<node lat="60.04696111262174" lon="10.930016663294403" id="-15601">
		<tag k="fixme" v="consider natural=peak for the most distinct mountains in the district" />
		<tag k="name" v="Holterkollen" />
		<tag k="natural" v="hill" />
		<tag k="place" v="locality" />
		<tag k="ssr:stedsnr" v="248447" />
	</node>
	<node lat="60.069949999249395" lon="10.926094446581963" id="-15602">
		<tag k="name" v="Hulderbu" />
		<tag k="place" v="isolated_dwelling" />
		<tag k="ssr:stedsnr" v="248548" />
	</node>
	<node lat="60.09206944292352" lon="10.779238889333762" id="-15603">
		<tag k="alt_name" v="Hytteberget" />
		<tag k="fixme" v="consider natural=peak for the most distinct mountains in the district" />
		<tag k="name" v="Hytteåsen" />
		<tag k="natural" v="hill" />
		<tag k="place" v="locality" />
		<tag k="ssr:stedsnr" v="248627" />
	</node>
	<node lat="60.0635066154309" lon="10.890567085961532" id="-15604">
		<tag k="name" v="Øvre Nordby" />
		<tag k="place" v="farm" />
		<tag k="ssr:stedsnr" v="102350" />
	</node>
	<node lat="60.12985000417209" lon="10.880816671390475" id="-15605">
		<tag k="name" v="Toketjern" />
		<tag k="natural" v="water" />
		<tag k="ssr:stedsnr" v="248673" />
	</node>
	<node lat="60.129738892079786" lon="10.811336106787438" id="-15606">
		<tag k="name" v="Nordre Haug" />
		<tag k="place" v="farm" />
		<tag k="ssr:stedsnr" v="248677" />
	</node>
	<node lat="59.99920833675055" lon="10.987272215098736" id="-15607">
		<tag k="name" v="Vesle Ramstad" />
		<tag k="place" v="farm" />
		<tag k="ssr:stedsnr" v="102409" />
	</node>
	<node lat="60.006213889861286" lon="10.94934445206525" id="-15608">
		<tag k="alt_name" v="Dal søndre" />
		<tag k="name" v="Søndre Dal" />
		<tag k="place" v="farm" />
		<tag k="ssr:stedsnr" v="102619" />
	</node>
	<node lat="60.12174166451629" lon="10.811944448644965" id="-15609">
		<tag k="name" v="Ekra" />
		<tag k="place" v="isolated_dwelling" />
		<tag k="ssr:stedsnr" v="248691" />
	</node>
	<node lat="60.12474166373027" lon="10.747483327098628" id="-15610">
		<tag k="name" v="Bråtan" />
		<tag k="place" v="farm" />
		<tag k="ssr:stedsnr" v="248694" />
	</node>
	<node lat="60.15077222582167" lon="10.740780556939596" id="-15611">
		<tag k="name" v="Nerengberget" />
		<tag k="place" v="locality" />
		<tag k="ssr:stedsnr" v="102806" />
	</node>
	<node lat="60.013091440339075" lon="10.867868883963592" id="-15612">
		<tag k="alt_name" v="Lillomarkkapellet;Lillokapellet" />
		<tag k="amenity" v="place_of_worship" />
		<tag k="denomination" v="lutheran" />
		<tag k="name" v="Lillomarkskapellet" />
		<tag k="religion" v="christian" />
		<tag k="ssr:stedsnr" v="126365" />
	</node>
	<node lat="60.09000000179549" lon="10.788258338108927" id="-15613">
		<tag k="name" v="Blekketjern" />
		<tag k="natural" v="water" />
		<tag k="ssr:stedsnr" v="126515" />
	</node>
	<node lat="60.08872500337042" lon="10.795508326914485" id="-15614">
		<tag k="name" v="Nordre Karlshaug" />
		<tag k="natural" v="hill" />
		<tag k="place" v="locality" />
		<tag k="ssr:stedsnr" v="126518" />
	</node>
	<node lat="60.075597222087524" lon="10.884972218788263" id="-15615">
		<tag k="alt_name" v="Strøm, nordre" />
		<tag k="name" v="Nord-Strøm" />
		<tag k="place" v="farm" />
		<tag k="ssr:stedsnr" v="126546" />
	</node>
	<node lat="60.073519444135265" lon="10.886955559160702" id="-15616">
		<tag k="alt_name" v="Strøm, s" />
		<tag k="name" v="Sø-Strøm" />
		<tag k="place" v="farm" />
		<tag k="ssr:stedsnr" v="126547" />
	</node>
	<node lat="60.04568333769587" lon="10.869666666531794" id="-15617">
		<tag k="name" v="Mostua" />
		<tag k="place" v="farm" />
		<tag k="ssr:stedsnr" v="126465" />
	</node>
	<node lat="60.13546897820166" lon="10.820632451636614" id="-15618">
		<tag k="fixme" v="consider place=hamlet" />
		<tag k="name" v="Mork" />
		<tag k="place" v="farm" />
		<tag k="ssr:stedsnr" v="126613" />
	</node>
	<node lat="60.16637499567481" lon="10.781058333401322" id="-15619">
		<tag k="alt_name" v="Øvre Kolltjerna" />
		<tag k="name" v="Øvre Kolltjern" />
		<tag k="natural" v="water" />
		<tag k="ssr:stedsnr" v="127749" />
	</node>
	<node lat="60.10245555753088" lon="10.861588881001289" id="-15620">
		<tag k="name" v="Fossen" />
		<tag k="place" v="farm" />
		<tag k="ssr:stedsnr" v="309624" />
	</node>
	<node lat="60.13920832956892" lon="10.749911114929901" id="-15621">
		<tag k="fixme" v="consider natural=peak for the most distinct mountains in the district" />
		<tag k="name" v="Elneshøgda" />
		<tag k="natural" v="hill" />
		<tag k="place" v="locality" />
		<tag k="ssr:stedsnr" v="309651" />
	</node>
	<node lat="60.00841110865033" lon="10.916761108755574" id="-15622">
		<tag k="name" v="Slattum" />
		<tag k="place" v="village" />
		<tag k="ssr:stedsnr" v="145114" />
	</node>
	<node lat="60.10700833377592" lon="10.79433054727354" id="-15623">
		<tag k="name" v="Svenskemyra" />
		<tag k="natural" v="wetland" />
		<tag k="ssr:stedsnr" v="162114" />
	</node>
	<node lat="60.09751944139865" lon="10.86296944941534" id="-15624">
		<tag k="name" v="Bliksrudhagen" />
		<tag k="place" v="farm" />
		<tag k="ssr:stedsnr" v="162118" />
	</node>
	<node lat="60.09110277402617" lon="10.886722213763388" id="-15625">
		<tag k="name" v="Søndre Myrer" />
		<tag k="place" v="farm" />
		<tag k="ssr:stedsnr" v="162066" />
	</node>
	<node lat="60.13398332929257" lon="10.811986112902911" id="-15626">
		<tag k="name" v="Vestre Mork" />
		<tag k="place" v="locality" />
		<tag k="ssr:stedsnr" v="162802" />
	</node>
	<node lat="60.013327779609405" lon="10.905000001777863" id="-15627">
		<tag k="name" v="Haugersetra" />
		<tag k="place" v="locality" />
		<tag k="ssr:stedsnr" v="170614" />
	</node>
	<node lat="60.0038472212223" lon="10.847797214278163" id="-15628">
		<tag k="name" v="Vennervann" />
		<tag k="natural" v="water" />
		<tag k="ssr:stedsnr" v="187329" />
	</node>
	<node lat="60.02753333499967" lon="10.871447216105299" id="-15629">
		<tag k="name" v="Vollen" />
		<tag k="place" v="isolated_dwelling" />
		<tag k="ssr:stedsnr" v="187386" />
	</node>
	<node lat="60.026987577031754" lon="10.83577428176593" id="-15630">
		<tag k="alt_name" v="Ormtjern" />
		<tag k="name" v="Ormetjern" />
		<tag k="natural" v="water" />
		<tag k="ssr:stedsnr" v="187390" />
	</node>
	<node lat="60.03182777340237" lon="10.904325001954106" id="-15631">
		<tag k="name" v="Grønlund" />
		<tag k="place" v="farm" />
		<tag k="ssr:stedsnr" v="187396" />
	</node>
	<node lat="60.039791667047425" lon="10.94467499983634" id="-15632">
		<tag k="name" v="Gopletjern" />
		<tag k="natural" v="water" />
		<tag k="ssr:stedsnr" v="187407" />
	</node>
	<node lat="60.04833611230968" lon="10.871350005513841" id="-15633">
		<tag k="name" v="Nygård" />
		<tag k="place" v="isolated_dwelling" />
		<tag k="ssr:stedsnr" v="187428" />
	</node>
	<node lat="60.119066664758925" lon="10.881322219928123" id="-15634">
		<tag k="name" v="Djupdalen" />
		<tag k="natural" v="valley" />
		<tag k="place" v="locality" />
		<tag k="ssr:stedsnr" v="187642" />
	</node>
	<node lat="60.148988889301734" lon="10.83424999490292" id="-15635">
		<tag k="name" v="Sortungsbekken" />
		<tag k="ssr:stedsnr" v="187696" />
		<tag k="waterway" v="stream" />
	</node>
	<node lat="60.09199837178159" lon="10.88905103874921" id="-15636">
		<tag k="name" v="Breidablikk" />
		<tag k="place" v="farm" />
		<tag k="ssr:stedsnr" v="187571" />
	</node>
	<node lat="60.015366663036616" lon="10.960827780600082" id="-15637">
		<tag k="alt_name" v="Molstad" />
		<tag k="name" v="Moldstad" />
		<tag k="place" v="farm" />
		<tag k="ssr:stedsnr" v="188408" />
	</node>
	<node lat="60.06260183157542" lon="10.90334908956237" id="-15638">
		<tag k="fixme" v="consider place=hamlet" />
		<tag k="name" v="Ask" />
		<tag k="place" v="farm" />
		<tag k="ssr:stedsnr" v="188606" />
	</node>
	<node lat="60.1394638930402" lon="10.723302778798082" id="-15639">
		<tag k="alt_name" v="Purketjernet" />
		<tag k="name" v="Purktjern" />
		<tag k="natural" v="water" />
		<tag k="ssr:stedsnr" v="188677" />
	</node>
	<node lat="60.13977499939539" lon="10.74001389271868" id="-15640">
		<tag k="name" v="Henrikstjernet" />
		<tag k="natural" v="water" />
		<tag k="ssr:stedsnr" v="188679" />
	</node>
	<node lat="60.16223888751478" lon="10.86516111522379" id="-15641">
		<tag k="name" v="Låverudselva" />
		<tag k="ssr:stedsnr" v="205046" />
		<tag k="waterway" v="stream" />
	</node>
	<node lat="60.0386388861434" lon="10.87349166600993" id="-15642">
		<tag k="name" v="Skøyenhagan" />
		<tag k="place" v="farm" />
		<tag k="ssr:stedsnr" v="208299" />
	</node>
	<node lat="60.07164444112201" lon="10.853149991886484" id="-15643">
		<tag k="alt_name" v="Høldippeldammen" />
		<tag k="name" v="Holnippeldammen" />
		<tag k="natural" v="water" />
		<tag k="ssr:stedsnr" v="269321" />
	</node>
	<node lat="60.10525833715341" lon="10.889763897360522" id="-15644">
		<tag k="name" v="Kirkebylia" />
		<tag k="place" v="hamlet" />
		<tag k="ssr:stedsnr" v="221005" />
	</node>
	<node lat="60.09348610965345" lon="10.920813892738874" id="-15645">
		<tag k="name" v="Høyfjellsvangen" />
		<tag k="place" v="locality" />
		<tag k="ssr:stedsnr" v="221008" />
	</node>
	<node lat="60.119813884779525" lon="10.815041669904726" id="-15646">
		<tag k="name" v="Skansen" />
		<tag k="place" v="isolated_dwelling" />
		<tag k="ssr:stedsnr" v="221014" />
	</node>
	<node lat="60.12520555941885" lon="10.817283326719032" id="-15647">
		<tag k="name" v="Søndre Haug" />
		<tag k="place" v="farm" />
		<tag k="ssr:stedsnr" v="221020" />
	</node>
	<node lat="60.03195555559611" lon="10.911208339199998" id="-15648">
		<tag k="name" v="Berget" />
		<tag k="place" v="locality" />
		<tag k="ssr:stedsnr" v="221618" />
	</node>
	<node lat="60.082274999384666" lon="10.876527775490496" id="-15649">
		<tag k="name" v="Bråten" />
		<tag k="place" v="farm" />
		<tag k="ssr:stedsnr" v="223102" />
	</node>
	<node lat="60.13527777503343" lon="10.820341668465742" id="-15650">
		<tag k="name" v="Midtre Mork" />
		<tag k="place" v="farm" />
		<tag k="ssr:stedsnr" v="223232" />
	</node>
	<node lat="60.06428611388677" lon="10.906627782446206" id="-15651">
		<tag k="name" v="Sletta" />
		<tag k="place" v="farm" />
		<tag k="ssr:stedsnr" v="223309" />
	</node>
	<node lat="60.06604722380176" lon="10.891527772396634" id="-15652">
		<tag k="name" v="Nedre Nordby" />
		<tag k="place" v="farm" />
		<tag k="ssr:stedsnr" v="223316" />
	</node>
	<node lat="60.00160833059004" lon="10.94978889032912" id="-15653">
		<tag k="name" v="Nordlykkja" />
		<tag k="place" v="locality" />
		<tag k="ssr:stedsnr" v="223375" />
	</node>
	<node lat="60.003269446805135" lon="10.98244167095629" id="-15654">
		<tag k="name" v="Flotten" />
		<tag k="place" v="locality" />
		<tag k="ssr:stedsnr" v="223378" />
	</node>
	<node lat="60.13631111226432" lon="10.791388896070853" id="-15655">
		<tag k="name" v="Nedre Elnes" />
		<tag k="place" v="farm" />
		<tag k="ssr:stedsnr" v="223814" />
	</node>
	<node lat="60.04547777882687" lon="10.882075007210785" id="-15656">
		<tag k="bridge" v="yes" />
		<tag k="layer" v="1" />
		<tag k="name" v="Bjertnes" />
		<tag k="ssr:stedsnr" v="227006" />
	</node>
	<node lat="60.03498333320934" lon="10.832263890016653" id="-15657">
		<tag k="name" v="Burås" />
		<tag k="place" v="farm" />
		<tag k="ssr:stedsnr" v="248410" />
	</node>
	<node lat="60.058316666775276" lon="10.864855551274225" id="-15658">
		<tag k="alt_name" v="Nittedal" />
		<tag k="name" v="Nittedal stasjon" />
		<tag k="railway" v="station" />
		<tag k="ssr:stedsnr" v="248451" />
		<tag k="train" v="yes" />
	</node>
	<node lat="60.02883610977748" lon="10.915872214050573" id="-15659">
		<tag k="alt_name" v="Krakoseter" />
		<tag k="name" v="Krakossæter" />
		<tag k="place" v="isolated_dwelling" />
		<tag k="ssr:stedsnr" v="248401" />
	</node>
	<node lat="60.06483888845915" lon="10.910802785462641" id="-15660">
		<tag k="name" v="Askkroken" />
		<tag k="place" v="hamlet" />
		<tag k="ssr:stedsnr" v="248563" />
	</node>
	<node lat="60.16266667076966" lon="10.807938895564433" id="-15661">
		<tag k="fixme" v="consider natural=peak for the most distinct mountains in the district" />
		<tag k="name" v="Fugleknattene" />
		<tag k="natural" v="hill" />
		<tag k="place" v="locality" />
		<tag k="ssr:stedsnr" v="248719" />
	</node>
	<node lat="60.103988888215845" lon="10.91179999827051" id="-15662">
		<tag k="name" v="Nordre Ravndalstjern" />
		<tag k="natural" v="water" />
		<tag k="ssr:stedsnr" v="282011" />
		<tag k="water" v="lake" />
	</node>
	<node lat="60.12003332968641" lon="10.832852769998427" id="-15663">
		<tag k="name" v="Sagbakken" />
		<tag k="place" v="farm" />
		<tag k="ssr:stedsnr" v="282029" />
	</node>
	<node lat="60.06232499754451" lon="10.827891668594347" id="-15664">
		<tag k="name" v="Brattfoss" />
		<tag k="natural" v="waterfall" />
		<tag k="ssr:stedsnr" v="282289" />
	</node>
	<node lat="60.04630833582641" lon="10.900705555909305" id="-15665">
		<tag k="alt_name" v="Holter nedre" />
		<tag k="name" v="Nedre Holter" />
		<tag k="place" v="farm" />
		<tag k="ssr:stedsnr" v="282298" />
	</node>
	<node lat="60.026877776202426" lon="10.896591666337558" id="-15666">
		<tag k="name" v="Vestre Kjul" />
		<tag k="place" v="farm" />
		<tag k="ssr:stedsnr" v="282667" />
	</node>
	<node lat="60.02176666650021" lon="10.854900005075853" id="-15667">
		<tag k="name" v="Svenskedalen" />
		<tag k="natural" v="valley" />
		<tag k="place" v="locality" />
		<tag k="ssr:stedsnr" v="282860" />
	</node>
	<node lat="60.06550000174551" lon="10.931925006176499" id="-15668">
		<tag k="name" v="Mariholen" />
		<tag k="place" v="locality" />
		<tag k="ssr:stedsnr" v="284303" />
	</node>
	<node lat="60.05845000139019" lon="10.855269446672906" id="-15669">
		<tag k="name" v="Store Vassøytjern" />
		<tag k="natural" v="water" />
		<tag k="ssr:stedsnr" v="284322" />
	</node>
	<node lat="60.05904444269126" lon="10.888088894765035" id="-15670">
		<tag k="name" v="Massebakken" />
		<tag k="place" v="farm" />
		<tag k="ssr:stedsnr" v="284331" />
	</node>
	<node lat="60.011113891904685" lon="10.927011120223824" id="-15671">
		<tag k="name" v="Brenninghaugen" />
		<tag k="place" v="quarter" />
		<tag k="ssr:stedsnr" v="292593" />
	</node>
	<node lat="60.02012221893097" lon="10.889027778048385" id="-15672">
		<tag k="name" v="Brattfoss" />
		<tag k="natural" v="waterfall" />
		<tag k="ssr:stedsnr" v="463876" />
	</node>
	<node lat="60.039494442752435" lon="10.960661119258054" id="-15673">
		<tag k="name" v="Breimåsan" />
		<tag k="natural" v="wetland" />
		<tag k="ssr:stedsnr" v="464316" />
	</node>
	<node lat="60.01333611140673" lon="10.852113894958116" id="-15674">
		<tag k="fixme" v="consider natural=peak for the most distinct mountains in the district" />
		<tag k="name" v="Holåsen" />
		<tag k="natural" v="hill" />
		<tag k="place" v="locality" />
		<tag k="ssr:stedsnr" v="464839" />
	</node>
	<node lat="59.99442222555597" lon="10.886127781135137" id="-15675">
		<tag k="fixme" v="consider natural=peak for the most distinct mountains in the district" />
		<tag k="name" v="Seterhaugen" />
		<tag k="natural" v="hill" />
		<tag k="place" v="locality" />
		<tag k="ssr:stedsnr" v="464853" />
	</node>
	<node lat="60.00027943935333" lon="10.94576873928384" id="-15676">
		<tag k="name" v="Holm" />
		<tag k="place" v="hamlet" />
		<tag k="ssr:stedsnr" v="308295" />
	</node>
	<node lat="60.044344440392315" lon="10.95864445199405" id="-15677">
		<tag k="alt_name" v="Jakobsmyr" />
		<tag k="name" v="Jakobsmyra" />
		<tag k="natural" v="wetland" />
		<tag k="ssr:stedsnr" v="308406" />
	</node>
	<node lat="60.031183331269595" lon="10.890624996081334" id="-15678">
		<tag k="alt_name" v="Skøyen, s" />
		<tag k="name" v="Søndre Skøyen" />
		<tag k="place" v="farm" />
		<tag k="ssr:stedsnr" v="309461" />
	</node>
	<node lat="60.02818055522934" lon="10.823558330113812" id="-15679">
		<tag k="alt_name" v="Vestre Tørkelstuhaugen" />
		<tag k="fixme" v="consider natural=peak for the most distinct mountains in the district" />
		<tag k="name" v="Vestre Torkilstuhøgda" />
		<tag k="natural" v="hill" />
		<tag k="place" v="locality" />
		<tag k="ssr:stedsnr" v="309469" />
	</node>
	<node lat="60.117166668859824" lon="10.780174992729862" id="-15680">
		<tag k="name" v="Loppetjern" />
		<tag k="natural" v="water" />
		<tag k="ssr:stedsnr" v="309607" />
	</node>
	<node lat="60.11593055332675" lon="10.856630563389333" id="-15681">
		<tag k="name" v="Grønvoll" />
		<tag k="place" v="isolated_dwelling" />
		<tag k="ssr:stedsnr" v="309689" />
	</node>
	<node lat="60.07111666415941" lon="10.859841660958953" id="-15682">
		<tag k="name" v="Linfåningshøgda" />
		<tag k="natural" v="hill" />
		<tag k="place" v="locality" />
		<tag k="ssr:stedsnr" v="309584" />
	</node>
	<node lat="60.06583055283608" lon="10.861519435444876" id="-15683">
		<tag k="name" v="Linfåningen" />
		<tag k="natural" v="wetland" />
		<tag k="ssr:stedsnr" v="309596" />
	</node>
	<node lat="60.15004999949152" lon="10.773324993687961" id="-15684">
		<tag k="name" v="Varpet" />
		<tag k="place" v="farm" />
		<tag k="ssr:stedsnr" v="309732" />
	</node>
	<node lat="60.11892777611942" lon="10.832058332199253" id="-15685">
		<tag k="name" v="Sagdammen" />
		<tag k="place" v="locality" />
		<tag k="ssr:stedsnr" v="511434" />
	</node>
	<node lat="60.02978333019961" lon="10.91438334169472" id="-15686">
		<tag k="name" v="Høybråten" />
		<tag k="place" v="farm" />
		<tag k="ssr:stedsnr" v="342602" />
	</node>
	<node lat="60.07854444824297" lon="10.937758342227832" id="-15687">
		<tag k="name" v="Askkollen" />
		<tag k="natural" v="hill" />
		<tag k="place" v="locality" />
		<tag k="ssr:stedsnr" v="344102" />
	</node>
	<node lat="60.10826111529364" lon="10.788191660858056" id="-15688">
		<tag k="name" v="Karidalshytta" />
		<tag k="place" v="locality" />
		<tag k="ssr:stedsnr" v="344109" />
	</node>
	<node lat="60.055877775470435" lon="10.884119442350428" id="-15689">
		<tag k="name" v="Møllerbakken" />
		<tag k="place" v="farm" />
		<tag k="ssr:stedsnr" v="344309" />
	</node>
	<node lat="60.054805551503065" lon="10.87480555039767" id="-15690">
		<tag k="name" v="Solli" />
		<tag k="place" v="farm" />
		<tag k="ssr:stedsnr" v="344317" />
	</node>
	<node lat="60.058666669610126" lon="10.857041663780269" id="-15691">
		<tag k="name" v="Lille Vassøytjern" />
		<tag k="natural" v="water" />
		<tag k="ssr:stedsnr" v="344322" />
	</node>
	<node lat="60.11625277545211" lon="10.851647218096943" id="-15692">
		<tag k="amenity" v="nursing_home" />
		<tag k="name" v="MS-Senteret Hakadal" />
		<tag k="old_name" v="Multipelsklerosehjemmet;Multippel sklerose-hjemmet" />
		<tag k="ssr:stedsnr" v="344588" />
	</node>
	<node lat="59.98583055351432" lon="10.928111111971747" id="-15693">
		<tag k="bridge" v="yes" />
		<tag k="layer" v="1" />
		<tag k="name" v="Gjelleråsen" />
		<tag k="ssr:stedsnr" v="349005" />
	</node>
	<node lat="60.103133331951206" lon="10.864494451246406" id="-15694">
		<tag k="bridge" v="yes" />
		<tag k="layer" v="1" />
		<tag k="name" v="Fossen" />
		<tag k="ssr:stedsnr" v="349007" />
	</node>
	<node lat="60.017149996166694" lon="10.936872224861034" id="-15695">
		<tag k="name" v="Øvre Sørli" />
		<tag k="place" v="locality" />
		<tag k="ssr:stedsnr" v="351585" />
	</node>
	<node lat="59.987080553171246" lon="10.933000000883165" id="-15696">
		<tag k="name" v="Gjelleråsen" />
		<tag k="place" v="village" />
		<tag k="ssr:stedsnr" v="368621" />
	</node>
	<node lat="59.982897221751045" lon="10.92614999860141" id="-15697">
		<tag k="name" v="Putten" />
		<tag k="place" v="isolated_dwelling" />
		<tag k="ssr:stedsnr" v="368623" />
	</node>
	<node lat="60.00531915962757" lon="10.918419672809769" id="-15698">
		<tag k="fixme" v="consider place=hamlet" />
		<tag k="name" v="Markerud" />
		<tag k="place" v="farm" />
		<tag k="ssr:stedsnr" v="369322" />
	</node>
	<node lat="60.04546559861492" lon="10.902002012152641" id="-15699">
		<tag k="fixme" v="consider place=hamlet" />
		<tag k="name" v="Holter" />
		<tag k="place" v="farm" />
		<tag k="ssr:stedsnr" v="369409" />
	</node>
	<node lat="60.031713886438375" lon="10.940219449052963" id="-15700">
		<tag k="name" v="Nordre Ovann" />
		<tag k="natural" v="water" />
		<tag k="ssr:stedsnr" v="369365" />
	</node>
	<node lat="60.03035277591258" lon="10.878625004687132" id="-15701">
		<tag k="name" v="Østli" />
		<tag k="place" v="farm" />
		<tag k="ssr:stedsnr" v="369370" />
	</node>
	<node lat="60.028722226270794" lon="10.837933330987296" id="-15702">
		<tag k="alt_name" v="Ormtjernkollen" />
		<tag k="fixme" v="consider natural=peak for the most distinct mountains in the district" />
		<tag k="name" v="Ormetjernskollen" />
		<tag k="natural" v="hill" />
		<tag k="place" v="locality" />
		<tag k="ssr:stedsnr" v="369373" />
	</node>
	<node lat="60.110261111042455" lon="10.826408333275213" id="-15703">
		<tag k="name" v="Buråsmyra" />
		<tag k="natural" v="wetland" />
		<tag k="ssr:stedsnr" v="369515" />
	</node>
	<node lat="60.09127499879145" lon="10.879052781463903" id="-15704">
		<tag k="name" v="Rulse" />
		<tag k="place" v="farm" />
		<tag k="ssr:stedsnr" v="369564" />
	</node>
	<node lat="60.13757500399625" lon="10.874616665230842" id="-15705">
		<tag k="name" v="Steintjern" />
		<tag k="natural" v="water" />
		<tag k="ssr:stedsnr" v="369575" />
	</node>
	<node lat="60.150750000519665" lon="10.847438880586068" id="-15706">
		<tag k="name" v="Guritjern" />
		<tag k="natural" v="water" />
		<tag k="ssr:stedsnr" v="369704" />
	</node>
	<node lat="60.14813552402902" lon="10.756831892044225" id="-15707">
		<tag k="alt_name" v="Kongsvangskog" />
		<tag k="fixme" v="consider place=hamlet" />
		<tag k="name" v="Kongsvangsskog" />
		<tag k="place" v="farm" />
		<tag k="ssr:stedsnr" v="369705" />
	</node>
	<node lat="60.132186113998806" lon="10.847716661573388" id="-15708">
		<tag k="alt_name" v="Kloppetjerna, nordre" />
		<tag k="name" v="Nordre Klopptjern" />
		<tag k="natural" v="water" />
		<tag k="ssr:stedsnr" v="369620" />
	</node>
	<node lat="60.16437499739778" lon="10.813352783458802" id="-15709">
		<tag k="name" v="Buvassbekken" />
		<tag k="ssr:stedsnr" v="369663" />
		<tag k="waterway" v="stream" />
	</node>
	<node lat="60.004686114727406" lon="10.911427778812355" id="-15710">
		<tag k="landuse" v="quarry" />
		<tag k="name" v="Bjønndalen bruk" />
		<tag k="ssr:stedsnr" v="403889" />
	</node>
	<node lat="60.15091666277669" lon="10.70284721633951" id="-15711">
		<tag k="name" v="Kongsskogmyra" />
		<tag k="natural" v="wetland" />
		<tag k="ssr:stedsnr" v="405288" />
	</node>
	<node lat="60.0635638926073" lon="10.889963882037113" id="-15712">
		<tag k="name" v="Nedre Nordby" />
		<tag k="place" v="farm" />
		<tag k="ssr:stedsnr" v="405297" />
	</node>
	<node lat="60.05803365170352" lon="10.886408896841674" id="-15713">
		<tag k="fixme" v="consider place=hamlet" />
		<tag k="name" v="Haug" />
		<tag k="place" v="farm" />
		<tag k="ssr:stedsnr" v="405315" />
	</node>
	<node lat="60.13467499912722" lon="10.80739722868621" id="-15714">
		<tag k="name" v="Slåttenhus" />
		<tag k="place" v="locality" />
		<tag k="ssr:stedsnr" v="405798" />
	</node>
	<node lat="60.0138361092504" lon="10.941127776595838" id="-15715">
		<tag k="alt_name" v="Dal østre" />
		<tag k="name" v="Østre Dal" />
		<tag k="place" v="farm" />
		<tag k="ssr:stedsnr" v="413612" />
	</node>
	<node lat="59.996758330957036" lon="10.912350005627829" id="-15716">
		<tag k="name" v="Skytta" />
		<tag k="place" v="village" />
		<tag k="ssr:stedsnr" v="489645" />
	</node>
	<node lat="59.99709795479674" lon="10.841750424011053" id="-15717">
		<tag k="name" v="Griseputten" />
		<tag k="natural" v="water" />
		<tag k="ssr:stedsnr" v="489647" />
	</node>
	<node lat="60.12901666225714" lon="10.819130553128014" id="-15718">
		<tag k="alt_name" v="Fuglåsen" />
		<tag k="fixme" v="consider natural=peak for the most distinct mountains in the district" />
		<tag k="name" v="Fugleåsen" />
		<tag k="natural" v="hill" />
		<tag k="place" v="locality" />
		<tag k="ssr:stedsnr" v="490675" />
	</node>
	<node lat="60.16721184871953" lon="10.837418168900602" id="-15719">
		<tag k="name" v="Damsortungen" />
		<tag k="natural" v="water" />
		<tag k="ssr:stedsnr" v="490706" />
		<tag k="water" v="lake" />
	</node>
	<node lat="59.98727777353321" lon="10.891055554527274" id="-15720">
		<tag k="name" v="Romstjern" />
		<tag k="natural" v="water" />
		<tag k="ssr:stedsnr" v="429579" />
	</node>
	<node lat="59.992488177769026" lon="10.96149917602446" id="-15721">
		<tag k="fixme" v="consider place=hamlet" />
		<tag k="name" v="Nesgutu" />
		<tag k="place" v="farm" />
		<tag k="ssr:stedsnr" v="429598" />
	</node>
	<node lat="59.99947880055865" lon="10.930871899094788" id="-15722">
		<tag k="fixme" v="consider place=hamlet" />
		<tag k="name" v="Skyset" />
		<tag k="place" v="farm" />
		<tag k="ssr:stedsnr" v="429600" />
	</node>
	<node lat="60.013241665557004" lon="10.933280554634665" id="-15723">
		<tag k="name" v="Solvang" />
		<tag k="place" v="farm" />
		<tag k="ssr:stedsnr" v="430351" />
	</node>
	<node lat="60.13153610813723" lon="10.71095554741461" id="-15724">
		<tag k="name" v="Veslesjøen" />
		<tag k="natural" v="water" />
		<tag k="ssr:stedsnr" v="491097" />
	</node>
	<node lat="60.036969442818254" lon="10.85468888572159" id="-15725">
		<tag k="name" v="Dalen" />
		<tag k="place" v="isolated_dwelling" />
		<tag k="ssr:stedsnr" v="430421" />
	</node>
	<node lat="60.04434722228742" lon="10.844547222461538" id="-15726">
		<tag k="name" v="Dammyrdalen" />
		<tag k="natural" v="valley" />
		<tag k="place" v="locality" />
		<tag k="ssr:stedsnr" v="430423" />
	</node>
	<node lat="60.05842500398385" lon="10.8520333355195" id="-15727">
		<tag k="name" v="Sørli" />
		<tag k="place" v="isolated_dwelling" />
		<tag k="ssr:stedsnr" v="430459" />
	</node>
	<node lat="60.06013333098024" lon="10.837738893768647" id="-15728">
		<tag k="name" v="Ørfiskebekken" />
		<tag k="ssr:stedsnr" v="430461" />
		<tag k="waterway" v="stream" />
	</node>
	<node lat="60.02553888751279" lon="10.915033334797757" id="-15729">
		<tag k="name" v="Øgarden" />
		<tag k="place" v="farm" />
		<tag k="ssr:stedsnr" v="430401" />
	</node>
	<node lat="60.07995832916193" lon="10.881786105457893" id="-15730">
		<tag k="alt_name" v="Sørli" />
		<tag k="name" v="Sørlifallet" />
		<tag k="place" v="farm" />
		<tag k="ssr:stedsnr" v="430506" />
	</node>
	<node lat="60.15755023174002" lon="10.817879196589109" id="-15731">
		<tag k="fixme" v="consider natural=peak for the most distinct mountains in the district" />
		<tag k="name" v="Bukollen" />
		<tag k="natural" v="hill" />
		<tag k="place" v="locality" />
		<tag k="ssr:stedsnr" v="430714" />
	</node>
	<node lat="60.12774999949787" lon="10.730669442681748" id="-15732">
		<tag k="name" v="Mago" />
		<tag k="place" v="farm" />
		<tag k="ssr:stedsnr" v="430646" />
	</node>
	<node lat="60.13272499683326" lon="10.904050001498584" id="-15733">
		<tag k="name" v="Aurtjern" />
		<tag k="natural" v="water" />
		<tag k="ssr:stedsnr" v="430657" />
	</node>
	<node lat="60.187302778454246" lon="10.77870555153793" id="-15734">
		<tag k="name" v="Piperfløyta" />
		<tag k="natural" v="water" />
		<tag k="ssr:stedsnr" v="430793" />
	</node>
	<node lat="60.009943282949294" lon="10.957456226798564" id="-15735">
		<tag k="fixme" v="consider place=hamlet" />
		<tag k="name" v="Dal" />
		<tag k="place" v="farm" />
		<tag k="ssr:stedsnr" v="491392" />
	</node>
	<node lat="60.025049999263615" lon="10.949836116285878" id="-15736">
		<tag k="fixme" v="multiple name tags, choose one and add the other to alt_name" />
		<tag k="name" v="Lintjern;Tysilltjernet" />
		<tag k="natural" v="water" />
		<tag k="ssr:stedsnr" v="491420" />
	</node>
	<node lat="60.029124999218915" lon="10.909608337768509" id="-15737">
		<tag k="name" v="Holmerud" />
		<tag k="place" v="locality" />
		<tag k="ssr:stedsnr" v="491438" />
	</node>
	<node lat="60.07875832924111" lon="10.8343000081975" id="-15738">
		<tag k="name" v="Svensketjernet" />
		<tag k="natural" v="water" />
		<tag k="ssr:stedsnr" v="491551" />
	</node>
	<node lat="60.07666944558533" lon="10.932074997668593" id="-15739">
		<tag k="name" v="Gruvehøgda" />
		<tag k="natural" v="hill" />
		<tag k="place" v="locality" />
		<tag k="ssr:stedsnr" v="491567" />
	</node>
	<node lat="60.14257777692918" lon="10.877675004679464" id="-15740">
		<tag k="alt_name" v="Rauddalsbekken" />
		<tag k="name" v="Raudalsbekken" />
		<tag k="ssr:stedsnr" v="491732" />
		<tag k="waterway" v="stream" />
	</node>
	<node lat="60.05740254326389" lon="10.886047321645004" id="-15741">
		<tag k="name" v="Nedre Haug" />
		<tag k="place" v="farm" />
		<tag k="ssr:stedsnr" v="672444" />
	</node>
	<node lat="60.055343261989975" lon="10.879567099064232" id="-15742">
		<tag k="fixme" v="consider place=hamlet" />
		<tag k="name" v="Rotnes" />
		<tag k="place" v="farm" />
		<tag k="ssr:stedsnr" v="672447" />
	</node>
	<node lat="59.99146388883113" lon="10.882258339234573" id="-15743">
		<tag k="name" v="Slattumsrøa" />
		<tag k="natural" v="ridge" />
		<tag k="place" v="locality" />
		<tag k="ssr:stedsnr" v="672589" />
	</node>
	<node lat="60.13216944516839" lon="10.830647230550882" id="-15744">
		<tag k="name" v="Mork" />
		<tag k="place" v="isolated_dwelling" />
		<tag k="ssr:stedsnr" v="672649" />
	</node>
	<node lat="60.16023055991106" lon="10.781513880868756" id="-15745">
		<tag k="alt_name" v="Varpskollen" />
		<tag k="fixme" v="consider natural=peak for the most distinct mountains in the district" />
		<tag k="name" v="Varpkollen" />
		<tag k="natural" v="hill" />
		<tag k="place" v="locality" />
		<tag k="ssr:stedsnr" v="672701" />
	</node>
	<node lat="60.157033336971445" lon="10.796097218663117" id="-15746">
		<tag k="name" v="Flåhellene" />
		<tag k="natural" v="slope" />
		<tag k="place" v="locality" />
		<tag k="ssr:stedsnr" v="672704" />
	</node>
	<node lat="60.0227796189599" lon="10.929023469265736" id="-15747">
		<tag k="fixme" v="consider place=hamlet" />
		<tag k="name" v="Glosli" />
		<tag k="place" v="farm" />
		<tag k="ssr:stedsnr" v="673409" />
	</node>
	<node lat="60.08142777615434" lon="10.81629166109151" id="-15748">
		<tag k="name" v="Ørfiske" />
		<tag k="place" v="farm" />
		<tag k="ssr:stedsnr" v="673529" />
	</node>
	<node lat="60.082763885989245" lon="10.796441668993298" id="-15749">
		<tag k="name" v="Søndre Karlshaug" />
		<tag k="natural" v="hill" />
		<tag k="place" v="locality" />
		<tag k="ssr:stedsnr" v="673532" />
	</node>
	<node lat="60.0354333321207" lon="10.965388882104111" id="-15750">
		<tag k="name" v="Svartputten" />
		<tag k="natural" v="water" />
		<tag k="ssr:stedsnr" v="673449" />
	</node>
	<node lat="60.0453361120458" lon="10.830255557647916" id="-15751">
		<tag k="alt_name" v="Slåttemyrene" />
		<tag k="name" v="Slåttemyra" />
		<tag k="natural" v="wetland" />
		<tag k="ssr:stedsnr" v="673451" />
	</node>
	<node lat="60.12264166843531" lon="10.723341673456586" id="-15752">
		<tag k="alt_name" v="Nordre Anderstjern" />
		<tag k="name" v="Nordre Anderstjernet" />
		<tag k="natural" v="water" />
		<tag k="ssr:stedsnr" v="673687" />
	</node>
	<node lat="60.14228333711129" lon="10.704958336638436" id="-15753">
		<tag k="name" v="Djupdalen" />
		<tag k="natural" v="valley" />
		<tag k="place" v="locality" />
		<tag k="ssr:stedsnr" v="464017" />
	</node>
	<node lat="60.02888889170022" lon="10.900941672805645" id="-15754">
		<tag k="name" v="Nordre Kjul" />
		<tag k="old_name" v="Kjul nordre" />
		<tag k="place" v="farm" />
		<tag k="ssr:stedsnr" v="464702" />
	</node>
	<node lat="60.10441060753094" lon="10.87761635819832" id="-15755">
		<tag k="alt_name" v="Gamle Glittre" />
		<tag k="name" v="Gamle Glitre" />
		<tag k="place" v="farm" />
		<tag k="ssr:stedsnr" v="466083" />
	</node>
	<node lat="59.997333333208516" lon="10.918569447977552" id="-15756">
		<tag k="amenity" v="community_centre" />
		<tag k="name" v="Folkets hus" />
		<tag k="ssr:stedsnr" v="466362" />
	</node>
	<node lat="60.12504444733695" lon="10.82524721906012" id="-15757">
		<tag k="name" v="Nesberget" />
		<tag k="place" v="farm" />
		<tag k="ssr:stedsnr" v="466607" />
	</node>
	<node lat="60.04834444700482" lon="10.88232777062649" id="-15758">
		<tag k="bridge" v="yes" />
		<tag k="layer" v="1" />
		<tag k="name" v="Dam" />
		<tag k="ssr:stedsnr" v="470007" />
	</node>
	<node lat="60.02535833125366" lon="10.922061104509543" id="-15759">
		<tag k="name" v="Ovannsbekken" />
		<tag k="ssr:stedsnr" v="473612" />
		<tag k="waterway" v="stream" />
	</node>
	<node lat="60.00901111403118" lon="10.917166661097138" id="-15760">
		<tag k="name" v="Høgda" />
		<tag k="place" v="locality" />
		<tag k="ssr:stedsnr" v="473577" />
	</node>
	<node lat="60.04449524116101" lon="10.87902240420391" id="-15761">
		<tag k="fixme" v="consider place=hamlet" />
		<tag k="name" v="Mo" />
		<tag k="place" v="farm" />
		<tag k="ssr:stedsnr" v="490438" />
	</node>
	<node lat="60.084851902619164" lon="10.874750937314946" id="-15762">
		<tag k="alt_name" v="Åneby, øvre" />
		<tag k="fixme" v="consider place=hamlet" />
		<tag k="name" v="Åneby" />
		<tag k="place" v="farm" />
		<tag k="ssr:stedsnr" v="490493" />
	</node>
	<node lat="60.13626389313164" lon="10.708519439038449" id="-15763">
		<tag k="name" v="Huldretjernet" />
		<tag k="natural" v="water" />
		<tag k="ssr:stedsnr" v="491106" />
	</node>
	<node lat="60.02140832955105" lon="10.857638888999636" id="-15764">
		<tag k="fixme" v="consider natural=peak for the most distinct mountains in the district" />
		<tag k="name" v="Brennberget" />
		<tag k="natural" v="hill" />
		<tag k="place" v="locality" />
		<tag k="ssr:stedsnr" v="491414" />
	</node>
	<node lat="60.15114444397851" lon="10.855447224009641" id="-15765">
		<tag k="name" v="Guritjernkollen" />
		<tag k="natural" v="hill" />
		<tag k="place" v="locality" />
		<tag k="ssr:stedsnr" v="491726" />
	</node>
	<node lat="60.101402887021116" lon="10.877744072228023" id="-15766">
		<tag k="alt_name" v="Jonstua" />
		<tag k="name" v="Solvang" />
		<tag k="place" v="farm" />
		<tag k="ssr:stedsnr" v="491609" />
	</node>
	<node lat="60.09850833618293" lon="10.885813897221512" id="-15767">
		<tag k="alt_name" v="Kirkeby, s" />
		<tag k="name" v="Søndre Kirkeby" />
		<tag k="place" v="farm" />
		<tag k="ssr:stedsnr" v="491612" />
	</node>
	<node lat="60.057072226488344" lon="10.861352779940075" id="-15768">
		<tag k="name" v="Rotnes" />
		<tag k="place" v="village" />
		<tag k="ssr:stedsnr" v="510065" />
	</node>
	<node lat="60.00668333439916" lon="10.862736114981924" id="-15769">
		<tag k="name" v="Kjulstjernskollen" />
		<tag k="natural" v="hill" />
		<tag k="place" v="locality" />
		<tag k="ssr:stedsnr" v="524793" />
	</node>
	<node lat="60.104952775378585" lon="10.8445722282059" id="-15770">
		<tag k="landuse" v="winter_sports" />
		<tag k="name" v="Varingskollen skisenter" />
		<tag k="piste:type" v="downhill" />
		<tag k="ssr:stedsnr" v="525011" />
	</node>
	<node lat="60.07090000044688" lon="10.89888610402619" id="-15771">
		<tag k="name" v="Kasbekken" />
		<tag k="ssr:stedsnr" v="526117" />
		<tag k="waterway" v="stream" />
	</node>
	<node lat="60.085083337623985" lon="10.795133334936766" id="-15772">
		<tag k="name" v="Karlshaugputtene" />
		<tag k="natural" v="water" />
		<tag k="ssr:stedsnr" v="526267" />
	</node>
	<node lat="60.053966664681504" lon="10.882416671646402" id="-15773">
		<tag k="bridge" v="yes" />
		<tag k="layer" v="1" />
		<tag k="name" v="Haug" />
		<tag k="ssr:stedsnr" v="531801" />
	</node>
	<node lat="60.018205552679575" lon="10.916191668872882" id="-15774">
		<tag k="alt_name" v="Hauger nedre" />
		<tag k="name" v="Nedre Hauger" />
		<tag k="place" v="farm" />
		<tag k="ssr:stedsnr" v="534609" />
	</node>
	<node lat="59.99554166674177" lon="10.883511116180774" id="-15775">
		<tag k="name" v="Lomtjern" />
		<tag k="natural" v="water" />
		<tag k="ssr:stedsnr" v="550604" />
	</node>
	<node lat="60.07935555864578" lon="10.840924992574037" id="-15776">
		<tag k="name" v="Lomtjern" />
		<tag k="natural" v="water" />
		<tag k="ssr:stedsnr" v="551519" />
	</node>
	<node lat="60.07702499918968" lon="10.855774993178853" id="-15777">
		<tag k="alt_name" v="Høldippeldalen" />
		<tag k="name" v="Holnippeldalen" />
		<tag k="natural" v="valley" />
		<tag k="place" v="locality" />
		<tag k="ssr:stedsnr" v="551540" />
	</node>
	<node lat="60.027850003441735" lon="10.924441674370614" id="-15778">
		<tag k="alt_name" v="Sagbråtan" />
		<tag k="name" v="Sagbråten" />
		<tag k="place" v="farm" />
		<tag k="ssr:stedsnr" v="551403" />
	</node>
	<node lat="60.03868611516053" lon="10.894844437004076" id="-15779">
		<tag k="name" v="Gaustadmåsan" />
		<tag k="natural" v="wetland" />
		<tag k="ssr:stedsnr" v="551416" />
	</node>
	<node lat="60.09288055226282" lon="10.792713895115211" id="-15780">
		<tag k="name" v="Store Hyttetjern" />
		<tag k="natural" v="water" />
		<tag k="ssr:stedsnr" v="551605" />
	</node>
	<node lat="60.09633236202079" lon="10.89378528482509" id="-15781">
		<tag k="fixme" v="consider place=hamlet" />
		<tag k="name" v="Myrhaug" />
		<tag k="place" v="farm" />
		<tag k="ssr:stedsnr" v="551610" />
	</node>
	<node lat="60.09537046349198" lon="10.911489963607847" id="-15782">
		<tag k="alt_name" v="Ravndalstjern" />
		<tag k="name" v="Ramndalstjerna" />
		<tag k="natural" v="water" />
		<tag k="ssr:stedsnr" v="551615" />
		<tag k="water" v="lake" />
	</node>
	<node lat="60.17460833343708" lon="10.808436106698139" id="-15783">
		<tag k="name" v="Vrangen" />
		<tag k="natural" v="water" />
		<tag k="ssr:stedsnr" v="551706" />
		<tag k="water" v="lake" />
	</node>
	<node lat="60.170000002822114" lon="10.796933325544616" id="-15784">
		<tag k="name" v="Nybonntjernet" />
		<tag k="natural" v="water" />
		<tag k="ssr:stedsnr" v="551712" />
	</node>
	<node lat="60.145080504841005" lon="10.872607282949572" id="-15785">
		<tag k="alt_name" v="Århanamyra" />
		<tag k="name" v="Århanemyra" />
		<tag k="natural" v="wetland" />
		<tag k="ssr:stedsnr" v="551749" />
	</node>
	<node lat="60.134300000570036" lon="10.718624991347639" id="-15786">
		<tag k="name" v="Lønnbakkmyra" />
		<tag k="natural" v="wetland" />
		<tag k="ssr:stedsnr" v="551646" />
	</node>
	<node lat="60.02540805920342" lon="10.840254015790666" id="-15787">
		<tag k="amenity" v="cafe" />
		<tag k="name" v="Sinober sportsstue" />
		<tag k="old_name" v="Sinober" />
		<tag k="ssr:stedsnr" v="570806" />
	</node>
	<node lat="60.01519722266092" lon="10.884241674101197" id="-15788">
		<tag k="name" v="Skredderudbekken" />
		<tag k="ssr:stedsnr" v="585805" />
		<tag k="waterway" v="stream" />
	</node>
	<node lat="60.00019444766611" lon="10.88446389141082" id="-15789">
		<tag k="name" v="Bodalsputten" />
		<tag k="natural" v="water" />
		<tag k="ssr:stedsnr" v="585821" />
	</node>
	<node lat="60.062430559838866" lon="10.886811106421543" id="-15790">
		<tag k="name" v="Nordbydalen" />
		<tag k="place" v="locality" />
		<tag k="ssr:stedsnr" v="587315" />
	</node>
	<node lat="60.0015777752536" lon="10.902047230765698" id="-15791">
		<tag k="name" v="Småmyrene" />
		<tag k="natural" v="wetland" />
		<tag k="ssr:stedsnr" v="587361" />
	</node>
	<node lat="60.031119443688894" lon="10.83011389589708" id="-15792">
		<tag k="name" v="Seterdalen" />
		<tag k="natural" v="valley" />
		<tag k="place" v="locality" />
		<tag k="ssr:stedsnr" v="587601" />
	</node>
	<node lat="60.027688891315236" lon="10.926755560654314" id="-15793">
		<tag k="name" v="Gloslimoen" />
		<tag k="place" v="isolated_dwelling" />
		<tag k="ssr:stedsnr" v="587719" />
	</node>
	<node lat="60.01022500359776" lon="10.918013882481489" id="-15794">
		<tag k="bridge" v="yes" />
		<tag k="layer" v="1" />
		<tag k="name" v="Slattum" />
		<tag k="ssr:stedsnr" v="591763" />
	</node>
	<node lat="60.147119440213764" lon="10.78254166514001" id="-15795">
		<tag k="bridge" v="yes" />
		<tag k="layer" v="1" />
		<tag k="name" v="Varpet" />
		<tag k="ssr:stedsnr" v="591766" />
	</node>
	<node lat="60.0337777753635" lon="10.891583326680001" id="-15796">
		<tag k="bridge" v="yes" />
		<tag k="layer" v="1" />
		<tag k="name" v="Måsasvingen" />
		<tag k="ssr:stedsnr" v="591770" />
	</node>
	<node lat="60.02401110726017" lon="10.899711114398437" id="-15797">
		<tag k="name" v="Kjulsli" />
		<tag k="place" v="locality" />
		<tag k="ssr:stedsnr" v="595600" />
	</node>
	<node lat="60.01110278203677" lon="10.885852781139578" id="-15798">
		<tag k="name" v="Skredderudtjernet" />
		<tag k="natural" v="water" />
		<tag k="ssr:stedsnr" v="611373" />
	</node>
	<node lat="60.08923560301555" lon="10.827426386356128" id="-15799">
		<tag k="fixme" v="consider natural=peak for the most distinct mountains in the district" />
		<tag k="name" v="Heitåsen" />
		<tag k="natural" v="hill" />
		<tag k="place" v="locality" />
		<tag k="ssr:stedsnr" v="611621" />
	</node>
	<node lat="60.091900003480845" lon="10.906563884070312" id="-15800">
		<tag k="alt_name" v="Bergstjern" />
		<tag k="name" v="Bergstjernet" />
		<tag k="natural" v="water" />
		<tag k="ssr:stedsnr" v="611627" />
	</node>
	<node lat="60.16944444112852" lon="10.81375832820081" id="-15801">
		<tag k="name" v="Buvann" />
		<tag k="natural" v="water" />
		<tag k="ssr:stedsnr" v="611709" />
	</node>
	<node lat="60.167533330097726" lon="10.85791666373838" id="-15802">
		<tag k="name" v="Hakkimbekken" />
		<tag k="ssr:stedsnr" v="611711" />
		<tag k="waterway" v="stream" />
	</node>
	<node lat="60.1691499960516" lon="10.851774991664653" id="-15803">
		<tag k="name" v="Hakkimtjernet" />
		<tag k="natural" v="water" />
		<tag k="ssr:stedsnr" v="611712" />
	</node>
	<node lat="60.15447777903668" lon="10.768108327991941" id="-15804">
		<tag k="alt_name" v="Varpebekken" />
		<tag k="name" v="Varpsbekken" />
		<tag k="ssr:stedsnr" v="611728" />
		<tag k="waterway" v="stream" />
	</node>
	<node lat="60.12892483072822" lon="10.692420964128853" id="-15805">
		<tag k="alt_name" v="Svarttjernet" />
		<tag k="name" v="Svarttjern" />
		<tag k="natural" v="water" />
		<tag k="ssr:stedsnr" v="612115" />
	</node>
	<node lat="60.01173101203381" lon="10.968942967193811" id="-15806">
		<tag k="fixme" v="consider place=hamlet" />
		<tag k="name" v="Løken" />
		<tag k="place" v="farm" />
		<tag k="ssr:stedsnr" v="612390" />
	</node>
	<node lat="60.01188610804822" lon="10.962002779203084" id="-15807">
		<tag k="name" v="Lønsvollbakken" />
		<tag k="place" v="farm" />
		<tag k="ssr:stedsnr" v="612391" />
	</node>
	<node lat="60.11684721778575" lon="10.893469448918463" id="-15808">
		<tag k="fixme" v="consider natural=peak for the most distinct mountains in the district" />
		<tag k="name" v="Oppegårdskollen" />
		<tag k="natural" v="hill" />
		<tag k="place" v="locality" />
		<tag k="ssr:stedsnr" v="612679" />
	</node>
	<node lat="60.04666666840199" lon="10.857174995906396" id="-15809">
		<tag k="name" v="Kruttverket" />
		<tag k="place" v="locality" />
		<tag k="ssr:stedsnr" v="632400" />
	</node>
	<node lat="60.10706389320879" lon="10.846525001339653" id="-15810">
		<tag k="name" v="Dølibråten" />
		<tag k="place" v="locality" />
		<tag k="ssr:stedsnr" v="645002" />
	</node>
	<node lat="60.01200555885722" lon="10.883308334262509" id="-15811">
		<tag k="name" v="Skredderud" />
		<tag k="place" v="farm" />
		<tag k="ssr:stedsnr" v="645805" />
	</node>
	<node lat="60.05452777963239" lon="10.899975008871943" id="-15812">
		<tag k="name" v="Haugsbråtan" />
		<tag k="place" v="locality" />
		<tag k="ssr:stedsnr" v="647311" />
	</node>
	<node lat="60.02097777594718" lon="10.815988883759182" id="-15813">
		<tag k="name" v="Skillingsdalen" />
		<tag k="natural" v="valley" />
		<tag k="place" v="locality" />
		<tag k="ssr:stedsnr" v="647580" />
	</node>
	<node lat="60.0917583291494" lon="10.90118333313222" id="-15814">
		<tag k="fixme" v="consider natural=peak for the most distinct mountains in the district" />
		<tag k="name" v="Myrerkollen" />
		<tag k="natural" v="hill" />
		<tag k="place" v="locality" />
		<tag k="ssr:stedsnr" v="707012" />
	</node>
	<node lat="60.12199721911763" lon="10.821372222911876" id="-15815">
		<tag k="name" v="Verkensdammen" />
		<tag k="natural" v="water" />
		<tag k="ssr:stedsnr" v="707021" />
	</node>
	<node lat="60.11639444879076" lon="10.827883333488975" id="-15816">
		<tag k="cemetery" v="grave" />
		<tag k="name" v="Widerbergs gravsted" />
		<tag k="place" v="locality" />
		<tag k="ssr:stedsnr" v="707024" />
	</node>
	<node lat="60.04251944233817" lon="10.965652776840052" id="-15817">
		<tag k="name" v="Langmåsan" />
		<tag k="natural" v="wetland" />
		<tag k="ssr:stedsnr" v="707328" />
	</node>
	<node lat="60.008669445748225" lon="10.879691664906302" id="-15818">
		<tag k="name" v="Hjulmakerhogget" />
		<tag k="place" v="locality" />
		<tag k="ssr:stedsnr" v="707831" />
	</node>
	<node lat="59.99841388822235" lon="10.880850000982091" id="-15819">
		<tag k="name" v="Haugermåsan" />
		<tag k="natural" v="wetland" />
		<tag k="ssr:stedsnr" v="707842" />
	</node>
	<node lat="60.08192500154555" lon="10.9091722306491" id="-15820">
		<tag k="name" v="Lykkebergskogen" />
		<tag k="place" v="locality" />
		<tag k="ssr:stedsnr" v="708138" />
	</node>
	<node lat="60.1290777807303" lon="10.802263887782734" id="-15821">
		<tag k="alt_name" v="Nøkleby søndre" />
		<tag k="name" v="Søndre Nøkleby" />
		<tag k="place" v="farm" />
		<tag k="ssr:stedsnr" v="708257" />
	</node>
	<node lat="60.048897226348416" lon="10.880361106391264" id="-15822">
		<tag k="amenity" v="school" />
		<tag k="name" v="Bjertnes videregående skole" />
		<tag k="ssr:stedsnr" v="708336" />
	</node>
	<node lat="60.01241944784339" lon="10.916286102692244" id="-15823">
		<tag k="name" v="Ysteriet" />
		<tag k="place" v="locality" />
		<tag k="ssr:stedsnr" v="655607" />
	</node>
	<node lat="60.007036113927704" lon="10.924619448550686" id="-15824">
		<tag k="amenity" v="school" />
		<tag k="name" v="Li skole" />
		<tag k="ssr:stedsnr" v="655591" />
	</node>
	<node lat="60.01032221959441" lon="10.930875007422975" id="-15825">
		<tag k="name" v="Brekka" />
		<tag k="place" v="locality" />
		<tag k="ssr:stedsnr" v="655594" />
	</node>
	<node lat="60.06519722514595" lon="10.911980551665172" id="-15826">
		<tag k="name" v="Petterstua" />
		<tag k="place" v="isolated_dwelling" />
		<tag k="ssr:stedsnr" v="708300" />
	</node>
	<node lat="59.98688610695607" lon="10.98732221592676" id="-15827">
		<tag k="name" v="Lillesund" />
		<tag k="place" v="locality" />
		<tag k="ssr:stedsnr" v="708349" />
	</node>
	<node lat="60.11720833665765" lon="10.85587499792152" id="-15828">
		<tag k="name" v="Glemberg" />
		<tag k="place" v="locality" />
		<tag k="ssr:stedsnr" v="708564" />
	</node>
	<node lat="60.005988886661264" lon="10.86445000339935" id="-15829">
		<tag k="name" v="Rudsputten" />
		<tag k="natural" v="water" />
		<tag k="ssr:stedsnr" v="672311" />
	</node>
	<node lat="60.01780832899804" lon="10.961636111444275" id="-15830">
		<tag k="name" v="Nordbråtan" />
		<tag k="place" v="locality" />
		<tag k="ssr:stedsnr" v="672367" />
	</node>
	<node lat="60.04721944158521" lon="10.890358334944379" id="-15831">
		<tag k="name" v="Haugsmåsan" />
		<tag k="natural" v="wetland" />
		<tag k="ssr:stedsnr" v="673472" />
	</node>
	<node lat="60.0432527770124" lon="10.945816664386516" id="-15832">
		<tag k="name" v="Gopledalen" />
		<tag k="natural" v="valley" />
		<tag k="place" v="locality" />
		<tag k="ssr:stedsnr" v="673473" />
	</node>
	<node lat="60.09970277798324" lon="10.867438891323674" id="-15833">
		<tag k="name" v="Bliksrudhagan" />
		<tag k="place" v="farm" />
		<tag k="ssr:stedsnr" v="673611" />
	</node>
	<node lat="60.143455552288344" lon="10.766941672770466" id="-15834">
		<tag k="name" v="Jenserud" />
		<tag k="place" v="farm" />
		<tag k="ssr:stedsnr" v="673644" />
	</node>
	<node lat="60.16702500279047" lon="10.790063887012453" id="-15835">
		<tag k="alt_name" v="Vivangtjernet" />
		<tag k="name" v="Vivangstjernet" />
		<tag k="natural" v="water" />
		<tag k="ssr:stedsnr" v="673703" />
	</node>
	<node lat="60.10064444700101" lon="10.860555561434406" id="-15836">
		<tag k="name" v="Fosshagan" />
		<tag k="place" v="farm" />
		<tag k="ssr:stedsnr" v="891087" />
	</node>
	<node lat="60.04969166378511" lon="10.899050007236324" id="-15837">
		<tag k="name" v="Løkka" />
		<tag k="place" v="locality" />
		<tag k="ssr:stedsnr" v="891334" />
	</node>
	<node lat="60.055050000254255" lon="10.87354444065222" id="-15838">
		<tag k="amenity" v="school" />
		<tag k="name" v="Rotnes" />
		<tag k="ssr:stedsnr" v="891351" />
	</node>
	<node lat="60.012075000220484" lon="10.96791667141054" id="-15839">
		<tag k="name" v="Nordre Løken" />
		<tag k="place" v="farm" />
		<tag k="ssr:stedsnr" v="891578" />
	</node>
	<node lat="60.02059166881731" lon="10.851477785171706" id="-15841">
		<tag k="name" v="Nordskogen" />
		<tag k="place" v="locality" />
		<tag k="ssr:stedsnr" v="706872" />
	</node>
	<node lat="60.02249166931622" lon="10.887366661038499" id="-15842">
		<tag k="name" v="Trøythaugen" />
		<tag k="place" v="locality" />
		<tag k="ssr:stedsnr" v="706875" />
	</node>
	<node lat="60.09498333662447" lon="10.912375001936343" id="-15843">
		<tag k="name" v="Midtre Ravndalstjern" />
		<tag k="natural" v="water" />
		<tag k="ssr:stedsnr" v="707009" />
	</node>
	<node lat="60.081883336521535" lon="10.86043333049742" id="-15844">
		<tag k="name" v="Ånebydalen" />
		<tag k="natural" v="valley" />
		<tag k="place" v="locality" />
		<tag k="ssr:stedsnr" v="708128" />
	</node>
	<node lat="60.058869445313036" lon="10.879547230809296" id="-15845">
		<tag k="name" v="Nabbetorp" />
		<tag k="place" v="farm" />
		<tag k="ssr:stedsnr" v="708323" />
	</node>
	<node lat="60.015152779590345" lon="10.919747225965649" id="-15846">
		<tag k="name" v="Kjonelia" />
		<tag k="place" v="locality" />
		<tag k="ssr:stedsnr" v="898588" />
	</node>
	<node lat="60.01050000286891" lon="10.945630555070716" id="-15847">
		<tag k="name" v="Nordre Dal" />
		<tag k="place" v="farm" />
		<tag k="ssr:stedsnr" v="716613" />
	</node>
	<node lat="59.99725555128298" lon="10.83884166618429" id="-15848">
		<tag k="fixme" v="consider boundary=protected_area and relevant protect_class if not nature reserve" />
		<tag k="leisure" v="nature_reserve" />
		<tag k="name" v="Lillomarka naturreservat" />
		<tag k="ssr:stedsnr" v="727997" />
	</node>
	<node lat="60.03721944256882" lon="10.909930561713754" id="-15849">
		<tag k="name" v="Øvre Gaustad" />
		<tag k="place" v="farm" />
		<tag k="ssr:stedsnr" v="733404" />
	</node>
	<node lat="60.03713333272312" lon="10.887844446238013" id="-15850">
		<tag k="name" v="Lunde" />
		<tag k="place" v="farm" />
		<tag k="ssr:stedsnr" v="733405" />
	</node>
	<node lat="60.04541509646128" lon="10.950670108954323" id="-15851">
		<tag k="name" v="Nordre Ryggevann" />
		<tag k="natural" v="water" />
		<tag k="ssr:stedsnr" v="733419" />
		<tag k="water" v="lake" />
	</node>
	<node lat="60.0455666628929" lon="10.873288893726423" id="-15852">
		<tag k="name" v="Kvernstua" />
		<tag k="place" v="locality" />
		<tag k="ssr:stedsnr" v="733421" />
	</node>
	<node lat="60.0933102554143" lon="10.836657219700022" id="-15853">
		<tag k="fixme" v="consider natural=peak for the most distinct mountains in the district" />
		<tag k="name" v="Varingskollen" />
		<tag k="natural" v="hill" />
		<tag k="place" v="locality" />
		<tag k="ssr:stedsnr" v="733579" />
	</node>
	<node lat="60.125613888929415" lon="10.912130562565402" id="-15854">
		<tag k="name" v="Kirkebygjermenningen" />
		<tag k="natural" v="water" />
		<tag k="ssr:stedsnr" v="733634" />
	</node>
	<node lat="60.06779166908169" lon="10.883127772800645" id="-15855">
		<tag k="name" v="Strømsenga" />
		<tag k="place" v="isolated_dwelling" />
		<tag k="ssr:stedsnr" v="734604" />
	</node>
	<node lat="60.063608335845466" lon="10.841161113385393" id="-15856">
		<tag k="name" v="Lurslia" />
		<tag k="natural" v="slope" />
		<tag k="place" v="locality" />
		<tag k="ssr:stedsnr" v="734607" />
	</node>
	<node lat="60.11057500458922" lon="10.801213882104983" id="-15857">
		<tag k="name" v="Rundmyra" />
		<tag k="natural" v="wetland" />
		<tag k="ssr:stedsnr" v="734617" />
	</node>
	<node lat="60.07388611228476" lon="10.894186108215793" id="-15858">
		<tag k="name" v="Nordre Spenningsby" />
		<tag k="place" v="farm" />
		<tag k="ssr:stedsnr" v="734590" />
	</node>
	<node lat="60.068933332740635" lon="10.896919442462497" id="-15859">
		<tag k="alt_name" v="Spenningsby, s" />
		<tag k="name" v="Søndre Spenningsby" />
		<tag k="place" v="farm" />
		<tag k="ssr:stedsnr" v="734591" />
	</node>
	<node lat="60.04347777417061" lon="10.902713895543334" id="-15860">
		<tag k="name" v="Høybråtan" />
		<tag k="place" v="locality" />
		<tag k="ssr:stedsnr" v="767303" />
	</node>
	<node lat="60.06550555713835" lon="10.802891659596982" id="-15861">
		<tag k="name" v="Langdalsbekken" />
		<tag k="ssr:stedsnr" v="767306" />
		<tag k="waterway" v="stream" />
	</node>
	<node lat="60.00674444192535" lon="10.871133331589572" id="-15862">
		<tag k="name" v="Kjulstjernsbekken" />
		<tag k="ssr:stedsnr" v="767808" />
		<tag k="waterway" v="stream" />
	</node>
	<node lat="60.00102222293591" lon="10.843158333117017" id="-15863">
		<tag k="name" v="Trangdalen" />
		<tag k="natural" v="valley" />
		<tag k="place" v="locality" />
		<tag k="ssr:stedsnr" v="767812" />
	</node>
	<node lat="60.09060277617276" lon="10.888419436075717" id="-15864">
		<tag k="name" v="Staven" />
		<tag k="place" v="farm" />
		<tag k="ssr:stedsnr" v="769114" />
	</node>
	<node lat="60.0566944473502" lon="10.875291672684167" id="-15865">
		<tag k="name" v="Bakken" />
		<tag k="place" v="isolated_dwelling" />
		<tag k="ssr:stedsnr" v="769309" />
	</node>
	<node lat="60.07358611172044" lon="10.88059999574225" id="-15866">
		<tag k="name" v="Kølleberget" />
		<tag k="natural" v="hill" />
		<tag k="place" v="locality" />
		<tag k="ssr:stedsnr" v="769419" />
	</node>
	<node lat="60.03214721864434" lon="10.84029444202535" id="-15867">
		<tag k="name" v="Momyra" />
		<tag k="natural" v="wetland" />
		<tag k="ssr:stedsnr" v="769720" />
	</node>
	<node lat="60.03825277629814" lon="10.88236110850114" id="-15868">
		<tag k="name" v="Myrene" />
		<tag k="place" v="farm" />
		<tag k="ssr:stedsnr" v="769723" />
	</node>
	<node lat="60.14116666848235" lon="10.784249998453738" id="-15869">
		<tag k="name" v="Sandbekken" />
		<tag k="place" v="locality" />
		<tag k="ssr:stedsnr" v="769762" />
	</node>
	<node lat="60.0102444412007" lon="10.9354083311045" id="-15870">
		<tag k="name" v="Dalhaug" />
		<tag k="place" v="farm" />
		<tag k="ssr:stedsnr" v="777601" />
	</node>
	<node lat="60.03913055604362" lon="10.880038885262246" id="-15871">
		<tag k="name" v="Skillebekk" />
		<tag k="place" v="farm" />
		<tag k="ssr:stedsnr" v="794416" />
	</node>
	<node lat="60.09071389178687" lon="10.791661103804689" id="-15872">
		<tag k="name" v="Lille Hyttetjern" />
		<tag k="natural" v="water" />
		<tag k="ssr:stedsnr" v="794607" />
	</node>
	<node lat="60.09246030718555" lon="10.887587789539214" id="-15873">
		<tag k="fixme" v="consider place=hamlet" />
		<tag k="name" v="Myrer" />
		<tag k="place" v="farm" />
		<tag k="ssr:stedsnr" v="794613" />
	</node>
	<node lat="60.13581738100465" lon="10.809497576124743" id="-15874">
		<tag k="alt_name" v="Kapelsrud" />
		<tag k="fixme" v="consider place=hamlet" />
		<tag k="name" v="Kapellsrud" />
		<tag k="place" v="farm" />
		<tag k="ssr:stedsnr" v="794625" />
	</node>
	<node lat="60.139755553369874" lon="10.877583339151778" id="-15875">
		<tag k="name" v="Raudputt" />
		<tag k="natural" v="water" />
		<tag k="ssr:stedsnr" v="794628" />
	</node>
	<node lat="60.0228833308374" lon="10.898119450282811" id="-15876">
		<tag k="name" v="Kirkeby" />
		<tag k="place" v="farm" />
		<tag k="ssr:stedsnr" v="794370" />
	</node>
	<node lat="60.02496944607806" lon="10.81997500411452" id="-15877">
		<tag k="name" v="Merrahaugen" />
		<tag k="natural" v="hill" />
		<tag k="place" v="locality" />
		<tag k="ssr:stedsnr" v="794380" />
	</node>
	<node lat="60.02466275132279" lon="10.840105141113517" id="-15878">
		<tag k="fixme" v="consider tourism=alpine_hut or tourism=chalet" />
		<tag k="name" v="Fjellvang" />
		<tag k="ssr:stedsnr" v="794381" />
		<tag k="tourism" v="wilderness_hut" />
	</node>
	<node lat="60.02838611002307" lon="10.938625000676682" id="-15879">
		<tag k="name" v="Søndre Ovann" />
		<tag k="natural" v="water" />
		<tag k="ssr:stedsnr" v="794388" />
	</node>
	<node lat="60.080024997256544" lon="10.877599991820295" id="-15880">
		<tag k="name" v="Brennløkka" />
		<tag k="place" v="farm" />
		<tag k="ssr:stedsnr" v="794504" />
	</node>
	<node lat="60.01377332634858" lon="10.942693549682732" id="-15881">
		<tag k="fixme" v="consider place=hamlet" />
		<tag k="name" v="Dal" />
		<tag k="place" v="farm" />
		<tag k="ssr:stedsnr" v="915336" />
	</node>
	<node lat="60.0500861112348" lon="10.852805555493143" id="-15882">
		<tag k="alt_name" v="Sagerud" />
		<tag k="name" v="Nordre Sagerud" />
		<tag k="place" v="isolated_dwelling" />
		<tag k="ssr:stedsnr" v="915447" />
	</node>
	<node lat="60.045775002541646" lon="10.854591667963323" id="-15883">
		<tag k="name" v="Vågedammen" />
		<tag k="natural" v="water" />
		<tag k="ssr:stedsnr" v="915449" />
	</node>
	<node lat="60.128194448049044" lon="10.896061113281249" id="-15884">
		<tag k="name" v="Storeputt" />
		<tag k="natural" v="water" />
		<tag k="ssr:stedsnr" v="915648" />
	</node>
	<node lat="60.130070167100655" lon="10.837659239044077" id="-15885">
		<tag k="fixme" v="consider place=hamlet" />
		<tag k="name" v="Ås" />
		<tag k="place" v="farm" />
		<tag k="ssr:stedsnr" v="915651" />
	</node>
	<node lat="60.13104444254829" lon="10.858399995055333" id="-15886">
		<tag k="fixme" v="consider natural=peak for the most distinct mountains in the district" />
		<tag k="name" v="Bjørnholthøgda" />
		<tag k="natural" v="hill" />
		<tag k="place" v="locality" />
		<tag k="ssr:stedsnr" v="915652" />
	</node>
	<node lat="60.11748543886457" lon="10.829405844788495" id="-15887">
		<tag k="alt_name" v="Hakadal" />
		<tag k="name" v="Hakadal stasjon" />
		<tag k="railway" v="station" />
		<tag k="ssr:stedsnr" v="915664" />
		<tag k="train" v="yes" />
	</node>
	<node lat="60.16536666313669" lon="10.792555554269205" id="-15888">
		<tag k="fixme" v="consider natural=peak for the most distinct mountains in the district" />
		<tag k="name" v="Rundkollen" />
		<tag k="natural" v="hill" />
		<tag k="place" v="locality" />
		<tag k="ssr:stedsnr" v="916735" />
	</node>
	<node lat="60.01108888440565" lon="10.968952785459985" id="-15889">
		<tag k="name" v="Søndre Løken" />
		<tag k="place" v="farm" />
		<tag k="ssr:stedsnr" v="916395" />
	</node>
	<node lat="60.01422777673513" lon="10.95413888383006" id="-15890">
		<tag k="name" v="Nordli" />
		<tag k="place" v="farm" />
		<tag k="ssr:stedsnr" v="916398" />
	</node>
	<node lat="60.027600003250825" lon="10.8558194471402" id="-15891">
		<tag k="name" v="Svenskedalen" />
		<tag k="natural" v="valley" />
		<tag k="place" v="locality" />
		<tag k="ssr:stedsnr" v="916443" />
	</node>
	<node lat="60.07443611371623" lon="10.81466666306012" id="-15892">
		<tag k="name" v="Ørfiske" />
		<tag k="natural" v="water" />
		<tag k="ssr:stedsnr" v="916551" />
		<tag k="water" v="lake" />
	</node>
	<node lat="60.06635555927692" lon="10.811505548362247" id="-15893">
		<tag k="name" v="Fredrikstad" />
		<tag k="place" v="farm" />
		<tag k="ssr:stedsnr" v="916589" />
	</node>
	<node lat="60.109321495808175" lon="10.867456980631015" id="-15894">
		<tag k="fixme" v="consider place=hamlet" />
		<tag k="name" v="Kirkerud" />
		<tag k="place" v="farm" />
		<tag k="ssr:stedsnr" v="916604" />
	</node>
	<node lat="60.12347221897917" lon="10.806783334072321" id="-15895">
		<tag k="name" v="Tors" />
		<tag k="place" v="farm" />
		<tag k="ssr:stedsnr" v="828012" />
	</node>
	<node lat="60.08450000321177" lon="10.881186105516958" id="-15896">
		<tag k="name" v="Kvennstua" />
		<tag k="place" v="farm" />
		<tag k="ssr:stedsnr" v="830103" />
	</node>
	<node lat="60.07897499623234" lon="10.914413886285999" id="-15897">
		<tag k="name" v="Spenningsbymåsan" />
		<tag k="natural" v="wetland" />
		<tag k="ssr:stedsnr" v="830106" />
	</node>
	<node lat="60.12924166493848" lon="10.800780560586677" id="-15898">
		<tag k="alt_name" v="Nøkleby nordre" />
		<tag k="name" v="Nordre Nøkleby" />
		<tag k="place" v="farm" />
		<tag k="ssr:stedsnr" v="830223" />
	</node>
	<node lat="60.06530000189048" lon="10.897969447375269" id="-15899">
		<tag k="name" v="Olabakka" />
		<tag k="place" v="locality" />
		<tag k="ssr:stedsnr" v="830281" />
	</node>
	<node lat="60.00134032264045" lon="10.980328613408648" id="-15900">
		<tag k="leisure" v="pitch" />
		<tag k="name" v="Hauger golfbane" />
		<tag k="ssr:stedsnr" v="830179" />
	</node>
	<node lat="60.031905552304615" lon="10.858752773256501" id="-15901">
		<tag k="name" v="Glanastad" />
		<tag k="ssr:stedsnr" v="830722" />
		<tag k="tourism" v="viewpoint" />
	</node>
	<node lat="60.13691110998709" lon="10.789566658093554" id="-15902">
		<tag k="name" v="Øvre Elnes" />
		<tag k="place" v="farm" />
		<tag k="ssr:stedsnr" v="830789" />
	</node>
	<node lat="60.124572223390395" lon="10.835980554893025" id="-15903">
		<tag k="bridge" v="yes" />
		<tag k="layer" v="1" />
		<tag k="name" v="Ås" />
		<tag k="ssr:stedsnr" v="835794" />
	</node>
	<node lat="60.00833611220296" lon="10.929291669539351" id="-15904">
		<tag k="bridge" v="yes" />
		<tag k="layer" v="1" />
		<tag k="name" v="Li" />
		<tag k="ssr:stedsnr" v="835795" />
	</node>
	<node lat="59.99778055883241" lon="10.917325001484423" id="-15905">
		<tag k="bridge" v="yes" />
		<tag k="layer" v="1" />
		<tag k="name" v="Hagankrysset" />
		<tag k="ssr:stedsnr" v="835798" />
	</node>
	<node lat="60.01304999821747" lon="10.93408333977764" id="-15906">
		<tag k="name" v="Smedstua" />
		<tag k="place" v="farm" />
		<tag k="ssr:stedsnr" v="838626" />
	</node>
	<node lat="60.024148222358335" lon="10.840980866355164" id="-15907">
		<tag k="fixme" v="consider tourism=alpine_hut or tourism=chalet" />
		<tag k="name" v="Nydalshytta" />
		<tag k="ssr:stedsnr" v="844884" />
		<tag k="tourism" v="wilderness_hut" />
	</node>
	<node lat="60.15289722578567" lon="10.697905554943002" id="-15908">
		<tag k="name" v="Nordre Djupdalstjernet" />
		<tag k="natural" v="water" />
		<tag k="ssr:stedsnr" v="855120" />
	</node>
	<node lat="60.000974997215536" lon="10.854722228949246" id="-15909">
		<tag k="name" v="Søndre Langvann" />
		<tag k="natural" v="water" />
		<tag k="ssr:stedsnr" v="855340" />
	</node>
	<node lat="60.00668888522453" lon="10.87587777637637" id="-15910">
		<tag k="name" v="Dalbekk" />
		<tag k="place" v="isolated_dwelling" />
		<tag k="ssr:stedsnr" v="855343" />
	</node>
	<node lat="60.019308333435056" lon="10.887052778530311" id="-15911">
		<tag k="name" v="Brattfossbekken" />
		<tag k="ssr:stedsnr" v="855388" />
		<tag k="waterway" v="stream" />
	</node>
	<node lat="60.07960555392307" lon="10.859761110466211" id="-15912">
		<tag k="fixme" v="consider natural=peak for the most distinct mountains in the district" />
		<tag k="name" v="Strømskollen" />
		<tag k="natural" v="hill" />
		<tag k="place" v="locality" />
		<tag k="ssr:stedsnr" v="855545" />
	</node>
	<node lat="60.02665555625065" lon="10.920391664588104" id="-15913">
		<tag k="name" v="Fjelløkka" />
		<tag k="place" v="farm" />
		<tag k="ssr:stedsnr" v="855405" />
	</node>
	<node lat="60.06928055618414" lon="10.928730554064103" id="-15914">
		<tag k="name" v="Svartkulp" />
		<tag k="natural" v="water" />
		<tag k="ssr:stedsnr" v="855481" />
		<tag k="water" v="pond" />
	</node>
	<node lat="60.08838889294058" lon="10.8743555491766" id="-15915">
		<tag k="name" v="Nordre Åneby" />
		<tag k="place" v="farm" />
		<tag k="ssr:stedsnr" v="855492" />
	</node>
	<node lat="60.105380426472905" lon="10.881007439947869" id="-15916">
		<tag k="name" v="Kirkeby" />
		<tag k="place" v="hamlet" />
		<tag k="ssr:stedsnr" v="855597" />
	</node>
	<node lat="60.10106666619915" lon="10.89310000580039" id="-15917">
		<tag k="name" v="Sørbråtan" />
		<tag k="place" v="isolated_dwelling" />
		<tag k="ssr:stedsnr" v="855599" />
	</node>
	<node lat="60.13087499643166" lon="10.814424997661419" id="-15918">
		<tag k="alt_name" v="Hagen, s" />
		<tag k="name" v="Søndre Hagen" />
		<tag k="place" v="isolated_dwelling" />
		<tag k="ssr:stedsnr" v="855690" />
	</node>
	<node lat="60.18306388957783" lon="10.784699999525456" id="-15919">
		<tag k="alt_name" v="Pipern" />
		<tag k="name" v="Piperen" />
		<tag k="natural" v="water" />
		<tag k="ssr:stedsnr" v="855835" />
	</node>
	<node lat="60.086327780357344" lon="10.866086115389992" id="-15920">
		<tag k="name" v="Åneby" />
		<tag k="place" v="village" />
		<tag k="ssr:stedsnr" v="876467" />
	</node>
	<node lat="59.97956389067755" lon="10.93227222132385" id="-15921">
		<tag k="name" v="Ospelia" />
		<tag k="place" v="quarter" />
		<tag k="ssr:stedsnr" v="886257" />
	</node>
	<node lat="60.02233055882183" lon="10.851683330968948" id="-15922">
		<tag k="name" v="Nordskogmyra" />
		<tag k="natural" v="wetland" />
		<tag k="ssr:stedsnr" v="888863" />
	</node>
	<node lat="60.11115555408691" lon="10.84999444253849" id="-15923">
		<tag k="amenity" v="school" />
		<tag k="name" v="Hakadal ungdomsskole" />
		<tag k="ssr:stedsnr" v="889006" />
	</node>
	<node lat="59.99096944520453" lon="10.906547215305276" id="-15924">
		<tag k="amenity" v="nursing_home" />
		<tag k="name" v="Skytta bo- og servicesenter" />
		<tag k="ssr:stedsnr" v="891370" />
	</node>
	<node lat="60.00291111415437" lon="10.94687222376954" id="-15925">
		<tag k="amenity" v="school" />
		<tag k="name" v="Holm skole" />
		<tag k="ssr:stedsnr" v="891378" />
	</node>
	<node lat="59.99303333202269" lon="10.952691659040882" id="-15926">
		<tag k="name" v="Torud" />
		<tag k="place" v="locality" />
		<tag k="ssr:stedsnr" v="891388" />
	</node>
	<node lat="60.0001361079281" lon="10.951711110268105" id="-15927">
		<tag k="name" v="Smieflotten" />
		<tag k="place" v="locality" />
		<tag k="ssr:stedsnr" v="891394" />
	</node>
	<node lat="60.03491388573577" lon="10.88484444654029" id="-15928">
		<tag k="name" v="Ulvestua" />
		<tag k="place" v="isolated_dwelling" />
		<tag k="ssr:stedsnr" v="891727" />
	</node>
	<node lat="60.00213071112588" lon="10.983586155026837" id="-15929">
		<tag k="fixme" v="consider place=hamlet" />
		<tag k="name" v="Hauger" />
		<tag k="place" v="farm" />
		<tag k="ssr:stedsnr" v="915312" />
	</node>
	<node lat="60.058680552267724" lon="10.825458337674217" id="-15930">
		<tag k="name" v="Laskerud" />
		<tag k="place" v="farm" />
		<tag k="ssr:stedsnr" v="915469" />
	</node>
	<node lat="60.15411666747985" lon="10.727799997415707" id="-15931">
		<tag k="name" v="Strekan" />
		<tag k="natural" v="water" />
		<tag k="ssr:stedsnr" v="915706" />
	</node>
	<node lat="60.14428888474077" lon="10.703744439946636" id="-15932">
		<tag k="name" v="Søndre Djupdalstjernet" />
		<tag k="natural" v="water" />
		<tag k="ssr:stedsnr" v="916108" />
	</node>
	<node lat="60.141877780808166" lon="10.690313882815506" id="-15933">
		<tag k="name" v="Stålmyra" />
		<tag k="natural" v="wetland" />
		<tag k="ssr:stedsnr" v="916109" />
	</node>
	<node lat="60.02445833624024" lon="10.887283340390262" id="-15934">
		<tag k="name" v="Kjulsbråtan" />
		<tag k="place" v="isolated_dwelling" />
		<tag k="ssr:stedsnr" v="916420" />
	</node>
	<node lat="60.01776105480558" lon="10.91694318885473" id="-15935">
		<tag k="fixme" v="consider place=hamlet" />
		<tag k="name" v="Hauger" />
		<tag k="place" v="farm" />
		<tag k="ssr:stedsnr" v="916424" />
	</node>
	<node lat="60.06512599408803" lon="10.935223745051866" id="-15936">
		<tag k="fixme" v="multiple name tags, choose one and add the other to alt_name" />
		<tag k="name" v="Flabben;Mastutjern" />
		<tag k="natural" v="water" />
		<tag k="ssr:stedsnr" v="916527" />
	</node>
	<node lat="60.075299996011886" lon="10.915433340322352" id="-15937">
		<tag k="name" v="Spenningsbybekken" />
		<tag k="ssr:stedsnr" v="916561" />
		<tag k="waterway" v="stream" />
	</node>
	<node lat="60.17726388859367" lon="10.799799998279246" id="-15938">
		<tag k="name" v="Toreren" />
		<tag k="natural" v="water" />
		<tag k="ssr:stedsnr" v="916726" />
	</node>
	<node lat="60.151148667927266" lon="10.815290628904188" id="-15939">
		<tag k="name" v="Langveggen" />
		<tag k="natural" v="valley" />
		<tag k="place" v="locality" />
		<tag k="ssr:stedsnr" v="916762" />
	</node>
	<node lat="59.98000555904223" lon="10.938447213853099" id="-15940">
		<tag k="alt_name" v="Hollum skog" />
		<tag k="name" v="Holum skog" />
		<tag k="place" v="locality" />
		<tag k="ssr:stedsnr" v="949244" />
	</node>
	<node lat="60.07472500360397" lon="10.93492778673495" id="-15941">
		<tag k="fixme" v="consider natural=peak for the most distinct mountains in the district" />
		<tag k="name" v="Ruskollen" />
		<tag k="natural" v="hill" />
		<tag k="place" v="locality" />
		<tag k="ssr:stedsnr" v="951116" />
	</node>
	<node lat="60.093713887180996" lon="10.871674999214708" id="-15942">
		<tag k="name" v="Ånebymosen" />
		<tag k="natural" v="wetland" />
		<tag k="ssr:stedsnr" v="951126" />
	</node>
	<node lat="60.081783333682786" lon="10.889552769063284" id="-15943">
		<tag k="name" v="Nordre Berg" />
		<tag k="place" v="farm" />
		<tag k="ssr:stedsnr" v="951100" />
	</node>
	<node lat="59.99020833483239" lon="10.885027778836081" id="-15944">
		<tag k="fixme" v="consider boundary=protected_area and relevant protect_class if not nature reserve" />
		<tag k="leisure" v="nature_reserve" />
		<tag k="name" v="Slattumsrøa naturreservat" />
		<tag k="ssr:stedsnr" v="951328" />
	</node>
	<node lat="60.044233336417854" lon="10.830677770648206" id="-15945">
		<tag k="fixme" v="consider boundary=protected_area and relevant protect_class if not nature reserve" />
		<tag k="leisure" v="nature_reserve" />
		<tag k="name" v="Slåttmyra naturreservat" />
		<tag k="ssr:stedsnr" v="951592" />
	</node>
	<node lat="60.03105833245813" lon="10.873675000090355" id="-15946">
		<tag k="name" v="Stua" />
		<tag k="place" v="farm" />
		<tag k="ssr:stedsnr" v="951734" />
	</node>
	<node lat="60.11923055595089" lon="10.835052777738092" id="-15947">
		<tag k="bridge" v="yes" />
		<tag k="layer" v="1" />
		<tag k="name" v="Sagstua" />
		<tag k="ssr:stedsnr" v="956790" />
	</node>
	<node lat="59.995269448568855" lon="10.918747216662778" id="-15948">
		<tag k="bridge" v="yes" />
		<tag k="layer" v="1" />
		<tag k="name" v="Hagan" />
		<tag k="ssr:stedsnr" v="956794" />
	</node>
	<node lat="60.09229249803917" lon="10.824086294330876" id="-15950">
		<tag k="name" v="Krølltopptjernet" />
		<tag k="natural" v="water" />
		<tag k="ssr:stedsnr" v="981711" />
	</node>
	<node lat="60.15069655453704" lon="10.86983963917642" id="-15952">
		<tag k="fixme" v="consider boundary=protected_area and relevant protect_class if not nature reserve" />
		<tag k="leisure" v="nature_reserve" />
		<tag k="name" v="Århanemyra naturreservat" />
		<tag k="ssr:stedsnr" v="991087" />
	</node>
	<node lat="59.99788889048921" lon="10.862780553453105" id="-15953">
		<tag k="amenity" v="cafe" />
		<tag k="fixme" v="multiple name tags, choose one and add the other to alt_name" />
		<tag k="name" v="Lilloseter Sportsstue;Lilloseter" />
		<tag k="old_name" v="Lillosæter" />
		<tag k="ssr:stedsnr" v="4620" />
	</node>
	<node lat="60.13895000241287" lon="10.714416665290967" id="-15954">
		<tag k="alt_name" v="Høgbråten" />
		<tag k="fixme" v="consider natural=peak for the most distinct mountains in the district" />
		<tag k="name" v="Høgbråtan" />
		<tag k="natural" v="hill" />
		<tag k="place" v="locality" />
		<tag k="ssr:stedsnr" v="5096" />
	</node>
	<node lat="60.0024220030705" lon="10.930934692801825" id="-15955">
		<tag k="fixme" v="consider place=hamlet" />
		<tag k="name" v="Ås" />
		<tag k="place" v="farm" />
		<tag k="ssr:stedsnr" v="5338" />
	</node>
	<node lat="60.00717561153382" lon="10.933661132045005" id="-15956">
		<tag k="alt_name" v="Dalsbråtastua" />
		<tag k="name" v="Dalstua" />
		<tag k="place" v="farm" />
		<tag k="ssr:stedsnr" v="5339" />
	</node>
	<node lat="60.02534444546165" lon="10.940058341572273" id="-15957">
		<tag k="alt_name" v="Tysillen" />
		<tag k="name" v="Tysilen" />
		<tag k="natural" v="hill" />
		<tag k="place" v="locality" />
		<tag k="ssr:stedsnr" v="5391" />
	</node>
	<node lat="60.03170833129656" lon="10.874874994632858" id="-15958">
		<tag k="name" v="Granli" />
		<tag k="place" v="farm" />
		<tag k="ssr:stedsnr" v="5398" />
	</node>
	<node lat="60.09771296907585" lon="10.863372978713825" id="-15959">
		<tag k="fixme" v="consider place=hamlet" />
		<tag k="name" v="Bliksrud" />
		<tag k="place" v="farm" />
		<tag k="ssr:stedsnr" v="5399" />
	</node>
	<node lat="60.00824444504336" lon="10.926391660536192" id="-15960">
		<tag k="alt_name" v="Engen" />
		<tag k="name" v="Enga" />
		<tag k="place" v="farm" />
		<tag k="ssr:stedsnr" v="5345" />
	</node>
	<node lat="60.0100083364019" lon="10.86170000028512" id="-15961">
		<tag k="alt_name" v="Kjulstjern" />
		<tag k="name" v="Kjulstjernet" />
		<tag k="natural" v="water" />
		<tag k="ssr:stedsnr" v="5351" />
	</node>
	<node lat="60.015097219430245" lon="10.861019439499708" id="-15962">
		<tag k="name" v="Sørskogen" />
		<tag k="place" v="farm" />
		<tag k="ssr:stedsnr" v="5352" />
	</node>
	<node lat="60.010330556499035" lon="10.843705557574804" id="-15963">
		<tag k="fixme" v="consider natural=peak for the most distinct mountains in the district" />
		<tag k="name" v="Holåsen" />
		<tag k="natural" v="hill" />
		<tag k="place" v="locality" />
		<tag k="ssr:stedsnr" v="5353" />
	</node>
	<node lat="60.09633333525249" lon="10.797755563590195" id="-15964">
		<tag k="fixme" v="consider natural=peak for the most distinct mountains in the district" />
		<tag k="name" v="Eriksknatten" />
		<tag k="natural" v="hill" />
		<tag k="place" v="locality" />
		<tag k="ssr:stedsnr" v="5595" />
	</node>
	<node lat="60.09818986622604" lon="10.782363149446663" id="-15965">
		<tag k="loc_name" v="Flekkrosmyra" />
		<tag k="name" v="Flekkrasmyra" />
		<tag k="natural" v="wetland" />
		<tag k="ssr:stedsnr" v="5597" />
	</node>
	<node lat="60.16283055541004" lon="10.84555833639627" id="-15966">
		<tag k="name" v="Steinsortungen" />
		<tag k="natural" v="water" />
		<tag k="ssr:stedsnr" v="5681" />
	</node>
	<node lat="60.15563888675404" lon="10.89225277727961" id="-15967">
		<tag k="name" v="Storøyungen" />
		<tag k="natural" v="water" />
		<tag k="ssr:stedsnr" v="5700" />
		<tag k="water" v="lake" />
	</node>
	<node lat="60.18317777540034" lon="10.805963884414759" id="-15968">
		<tag k="name" v="Sølvtjernet" />
		<tag k="natural" v="water" />
		<tag k="ssr:stedsnr" v="5779" />
	</node>
	<node lat="60.01878611406711" lon="10.903102785441407" id="-15969">
		<tag k="name" v="Solli" />
		<tag k="place" v="isolated_dwelling" />
		<tag k="ssr:stedsnr" v="6427" />
	</node>
	<node lat="60.04551110857287" lon="10.90430556399932" id="-15970">
		<tag k="alt_name" v="Holter øvre" />
		<tag k="name" v="Øvre Holter" />
		<tag k="place" v="farm" />
		<tag k="ssr:stedsnr" v="39275" />
	</node>
	<node lat="59.99614166233362" lon="10.940483324921322" id="-15971">
		<tag k="name" v="Korperud" />
		<tag k="place" v="locality" />
		<tag k="ssr:stedsnr" v="39226" />
	</node>
	<node lat="60.03076666486617" lon="10.91397499890493" id="-15972">
		<tag k="name" v="Røa" />
		<tag k="place" v="isolated_dwelling" />
		<tag k="ssr:stedsnr" v="39597" />
	</node>
	<node lat="60.00551944269006" lon="10.856161107637526" id="-15973">
		<tag k="name" v="Langvassbekken" />
		<tag k="ssr:stedsnr" v="39783" />
		<tag k="waterway" v="stream" />
	</node>
	<node lat="60.01420277731606" lon="10.845883341490811" id="-15974">
		<tag k="name" v="Tørrplanputten" />
		<tag k="natural" v="water" />
		<tag k="ssr:stedsnr" v="39796" />
	</node>
	<node lat="59.99881110685639" lon="10.873213896064767" id="-15975">
		<tag k="name" v="Nordre Aurevannsputten" />
		<tag k="natural" v="water" />
		<tag k="ssr:stedsnr" v="39827" />
	</node>
	<node lat="60.05321944722217" lon="10.877769445021846" id="-15976">
		<tag k="amenity" v="school" />
		<tag k="name" v="Nittedal ungdomsskole" />
		<tag k="ssr:stedsnr" v="41345" />
	</node>
	<node lat="59.99467499646482" lon="10.993205547402095" id="-15977">
		<tag k="name" v="Tveitabekken" />
		<tag k="ssr:stedsnr" v="41349" />
		<tag k="waterway" v="stream" />
	</node>
	<node lat="60.10770833128022" lon="10.861980548594865" id="-15978">
		<tag k="name" v="Tøyenfossen" />
		<tag k="natural" v="waterfall" />
		<tag k="ssr:stedsnr" v="41087" />
	</node>
	<node lat="60.09327499740839" lon="10.858863881045236" id="-15979">
		<tag k="name" v="Brannfjellet" />
		<tag k="natural" v="ridge" />
		<tag k="place" v="locality" />
		<tag k="ssr:stedsnr" v="41133" />
	</node>
	<node lat="60.113663888876786" lon="10.843961119050102" id="-15980">
		<tag k="name" v="Trebyen" />
		<tag k="place" v="locality" />
		<tag k="ssr:stedsnr" v="41158" />
	</node>
	<node lat="60.13308611260632" lon="10.79078055620379" id="-15981">
		<tag k="name" v="Kolonien" />
		<tag k="place" v="farm" />
		<tag k="ssr:stedsnr" v="41254" />
	</node>
	<node lat="60.09159376032963" lon="10.825310592651775" id="-15982">
		<tag k="name" v="Krølltoppmyra" />
		<tag k="natural" v="wetland" />
		<tag k="ssr:stedsnr" v="41289" />
	</node>
	<node lat="60.06779166609378" lon="10.910027769517614" id="-15983">
		<tag k="name" v="Gudbrandstua" />
		<tag k="place" v="isolated_dwelling" />
		<tag k="ssr:stedsnr" v="41311" />
	</node>
	<node lat="60.01025555607343" lon="10.956702769352793" id="-15984">
		<tag k="alt_name" v="Dal østre" />
		<tag k="name" v="Østre Dal" />
		<tag k="place" v="farm" />
		<tag k="ssr:stedsnr" v="41570" />
	</node>
	<node lat="60.0165944417944" lon="10.913316661323833" id="-15985">
		<tag k="alt_name" v="Hauger øvre" />
		<tag k="name" v="Øvre Hauger" />
		<tag k="place" v="farm" />
		<tag k="ssr:stedsnr" v="48548" />
	</node>
	<node lat="60.014361107790954" lon="10.918605561080991" id="-15986">
		<tag k="name" v="Kjonelia" />
		<tag k="place" v="locality" />
		<tag k="ssr:stedsnr" v="48550" />
	</node>
	<node lat="60.02011389232905" lon="10.907777777922457" id="-15987">
		<tag k="junction" v="yes" />
		<tag k="name" v="Rudstein" />
		<tag k="place" v="locality" />
		<tag k="ssr:stedsnr" v="48552" />
	</node>
	<node lat="60.015022218494636" lon="10.932513892233935" id="-15988">
		<tag k="name" v="Ner-Sørli" />
		<tag k="place" v="locality" />
		<tag k="ssr:stedsnr" v="48556" />
	</node>
	<node lat="60.10154743495476" lon="10.87881916946861" id="-15989">
		<tag k="name" v="Jonstua" />
		<tag k="place" v="farm" />
		<tag k="ssr:stedsnr" v="49646" />
	</node>
	<node lat="60.01899722643706" lon="10.897988884654454" id="-15990">
		<tag k="name" v="Sandbekken" />
		<tag k="place" v="locality" />
		<tag k="ssr:stedsnr" v="49657" />
	</node>
	<node lat="60.022427775819445" lon="10.92788333705956" id="-15991">
		<tag k="alt_name" v="Glosli nedre" />
		<tag k="name" v="Nedre Glosli" />
		<tag k="place" v="farm" />
		<tag k="ssr:stedsnr" v="49665" />
	</node>
	<node lat="59.99893610725292" lon="10.951927779694389" id="-15992">
		<tag k="name" v="Søndre Holm" />
		<tag k="place" v="farm" />
		<tag k="ssr:stedsnr" v="65593" />
	</node>
	<node lat="60.02284536424181" lon="10.910911498534013" id="-15993">
		<tag k="fixme" v="consider place=hamlet" />
		<tag k="name" v="Rud" />
		<tag k="place" v="farm" />
		<tag k="ssr:stedsnr" v="66375" />
	</node>
	<node lat="60.0157211068805" lon="10.967132405909608" id="-15994">
		<tag k="fixme" v="consider place=hamlet" />
		<tag k="name" v="Lønsvoll" />
		<tag k="place" v="farm" />
		<tag k="ssr:stedsnr" v="66377" />
	</node>
	<node lat="60.05390833680606" lon="10.883855551199009" id="-15995">
		<tag k="name" v="Haugestad" />
		<tag k="place" v="farm" />
		<tag k="ssr:stedsnr" v="66444" />
	</node>
	<node lat="60.11544777252027" lon="10.760703231105676" id="-15996">
		<tag k="name" v="Elvannet" />
		<tag k="natural" v="water" />
		<tag k="ssr:stedsnr" v="66545" />
		<tag k="water" v="lake" />
	</node>
	<node lat="60.11304179050423" lon="10.86007554321828" id="-15997">
		<tag k="fixme" v="consider place=hamlet" />
		<tag k="name" v="Tøyen" />
		<tag k="place" v="farm" />
		<tag k="ssr:stedsnr" v="66549" />
	</node>
	<node lat="60.11047508520221" lon="10.842469045839572" id="-15998">
		<tag k="fixme" v="consider place=hamlet" />
		<tag k="name" v="Løvstad" />
		<tag k="place" v="farm" />
		<tag k="ssr:stedsnr" v="66550" />
	</node>
	<node lat="60.08161944809072" lon="10.840477769767038" id="-15999">
		<tag k="name" v="Fossestua" />
		<tag k="place" v="isolated_dwelling" />
		<tag k="ssr:stedsnr" v="66480" />
	</node>
	<node lat="60.06678055679968" lon="10.905274999519182" id="-16000">
		<tag k="name" v="Øvre Rus" />
		<tag k="place" v="farm" />
		<tag k="ssr:stedsnr" v="66534" />
	</node>
	<node lat="60.06814166392115" lon="10.829844452985162" id="-16001">
		<tag k="fixme" v="consider natural=peak for the most distinct mountains in the district" />
		<tag k="name" v="Sameiekollen" />
		<tag k="natural" v="hill" />
		<tag k="place" v="locality" />
		<tag k="ssr:stedsnr" v="66536" />
	</node>
	<node lat="60.12626666323247" lon="10.737577771063009" id="-16002">
		<tag k="name" v="Nordvannet" />
		<tag k="natural" v="water" />
		<tag k="ssr:stedsnr" v="66631" />
		<tag k="water" v="lake" />
	</node>
	<node lat="60.10845277587653" lon="10.90579721787411" id="-16004">
		<tag k="fixme" v="consider natural=peak for the most distinct mountains in the district" />
		<tag k="name" v="Kirkebyhøgda" />
		<tag k="natural" v="hill" />
		<tag k="place" v="locality" />
		<tag k="ssr:stedsnr" v="87454" />
	</node>
	<node lat="60.074080554772806" lon="10.903811103559715" id="-16005">
		<tag k="name" v="Nytthus" />
		<tag k="place" v="isolated_dwelling" />
		<tag k="ssr:stedsnr" v="87286" />
	</node>
	<node lat="60.01849722464808" lon="10.841941666215922" id="-16006">
		<tag k="name" v="Staurputtene" />
		<tag k="natural" v="water" />
		<tag k="ssr:stedsnr" v="99889" />
	</node>
	<node lat="59.996269445091286" lon="10.942230554364336" id="-16007">
		<tag k="name" v="Stranda" />
		<tag k="natural" v="beach" />
		<tag k="ssr:stedsnr" v="100253" />
	</node>
	<node lat="60.022936110727066" lon="10.87389722256041" id="-16008">
		<tag k="name" v="Brenna" />
		<tag k="place" v="farm" />
		<tag k="ssr:stedsnr" v="100846" />
	</node>
	<node lat="60.12626389281158" lon="10.701249996553313" id="-16009">
		<tag k="name" v="Måsjøhytta" />
		<tag k="place" v="isolated_dwelling" />
		<tag k="ssr:stedsnr" v="102174" />
	</node>
	<node lat="60.07446389104803" lon="10.90085277003115" id="-16010">
		<tag k="name" v="Sengen" />
		<tag k="place" v="locality" />
		<tag k="ssr:stedsnr" v="102121" />
	</node>
	<node lat="60.08956666650147" lon="10.881636118303755" id="-16011">
		<tag k="name" v="Hynne" />
		<tag k="place" v="farm" />
		<tag k="ssr:stedsnr" v="102126" />
	</node>
	<node lat="60.08613521039971" lon="10.919710073414484" id="-16012">
		<tag k="name" v="Småvanna" />
		<tag k="natural" v="water" />
		<tag k="ssr:stedsnr" v="102135" />
		<tag k="water" v="lake" />
	</node>
	<node lat="59.99806817279269" lon="10.922119029353171" id="-16014">
		<tag k="amenity" v="school" />
		<tag k="name" v="Ulverud skole" />
		<tag k="ssr:stedsnr" v="102393" />
	</node>
	<node lat="60.05281110827745" lon="10.893769450394876" id="-16015">
		<tag k="name" v="Brennmyra" />
		<tag k="place" v="locality" />
		<tag k="ssr:stedsnr" v="102353" />
	</node>
	<node lat="60.064555551362474" lon="10.897099994472226" id="-16016">
		<tag k="name" v="Kasbekken" />
		<tag k="ssr:stedsnr" v="102362" />
		<tag k="waterway" v="stream" />
	</node>
	<node lat="59.98530555413593" lon="10.952202775945143" id="-16017">
		<tag k="bridge" v="yes" />
		<tag k="layer" v="1" />
		<tag k="name" v="Olavsgård" />
		<tag k="ssr:stedsnr" v="106798" />
	</node>
	<node lat="60.11073611324978" lon="10.846897226446217" id="-16018">
		<tag k="bridge" v="yes" />
		<tag k="layer" v="1" />
		<tag k="name" v="Løvstad" />
		<tag k="ssr:stedsnr" v="106800" />
	</node>
	<node lat="60.01253333254409" lon="10.911627781983277" id="-16019">
		<tag k="name" v="Sletta" />
		<tag k="place" v="locality" />
		<tag k="ssr:stedsnr" v="109543" />
	</node>
	<node lat="60.01763333139835" lon="10.911116666627027" id="-16020">
		<tag k="name" v="Haugli" />
		<tag k="place" v="locality" />
		<tag k="ssr:stedsnr" v="109544" />
	</node>
	<node lat="59.98957156604411" lon="10.97703294832127" id="-16021">
		<tag k="fixme" v="consider place=hamlet" />
		<tag k="name" v="Åros" />
		<tag k="place" v="farm" />
		<tag k="ssr:stedsnr" v="125624" />
	</node>
	<node lat="59.998672225719666" lon="10.919094450102873" id="-16022">
		<tag k="name" v="Hagan" />
		<tag k="place" v="village" />
		<tag k="ssr:stedsnr" v="125628" />
	</node>
	<node lat="59.997008332294136" lon="10.888258340525608" id="-16023">
		<tag k="name" v="Bleiktjern" />
		<tag k="natural" v="water" />
		<tag k="ssr:stedsnr" v="125631" />
	</node>
	<node lat="59.992848033325444" lon="10.87024069590635" id="-16024">
		<tag k="name" v="Aurevann" />
		<tag k="natural" v="water" />
		<tag k="ssr:stedsnr" v="125636" />
		<tag k="water" v="lake" />
	</node>
	<node lat="59.999936107186" lon="10.930125001302851" id="-16025">
		<tag k="name" v="Nedre Skyset" />
		<tag k="place" v="farm" />
		<tag k="ssr:stedsnr" v="126331" />
	</node>
	<node lat="60.054613890039604" lon="10.934305554469983" id="-16026">
		<tag k="name" v="Djupdalen" />
		<tag k="natural" v="valley" />
		<tag k="place" v="locality" />
		<tag k="ssr:stedsnr" v="126412" />
	</node>
	<node lat="60.02638611160493" lon="10.832880557408465" id="-16027">
		<tag k="alt_name" v="Østre Tørkelstuhaugen" />
		<tag k="name" v="Østre Torkilstuhøgda" />
		<tag k="natural" v="hill" />
		<tag k="place" v="locality" />
		<tag k="ssr:stedsnr" v="126426" />
	</node>
	<node lat="60.036452780421975" lon="10.939525003627637" id="-16028">
		<tag k="name" v="Ovasshøgda" />
		<tag k="natural" v="hill" />
		<tag k="place" v="locality" />
		<tag k="ssr:stedsnr" v="126434" />
	</node>
	<node lat="60.09020000231401" lon="10.809794440421364" id="-16029">
		<tag k="name" v="Blendsølvputten" />
		<tag k="natural" v="water" />
		<tag k="ssr:stedsnr" v="126599" />
	</node>
	<node lat="60.1329055541228" lon="10.798063889720659" id="-16030">
		<tag k="name" v="Enga" />
		<tag k="place" v="farm" />
		<tag k="ssr:stedsnr" v="126625" />
	</node>
	<node lat="60.13559722654636" lon="10.835591671844105" id="-16031">
		<tag k="name" v="Åsbekken" />
		<tag k="ssr:stedsnr" v="126731" />
		<tag k="waterway" v="stream" />
	</node>
	<node lat="60.1247114325043" lon="10.842386212952679" id="-16032">
		<tag k="fixme" v="consider place=hamlet" />
		<tag k="name" v="Bjørnholt" />
		<tag k="place" v="farm" />
		<tag k="ssr:stedsnr" v="126666" />
	</node>
	<node lat="60.117961108144044" lon="10.800002778249812" id="-16033">
		<tag k="alt_name" v="Bukkemyra" />
		<tag k="name" v="Bukkemyr" />
		<tag k="natural" v="wetland" />
		<tag k="ssr:stedsnr" v="126669" />
	</node>
	<node lat="60.18101944124258" lon="10.830191659828438" id="-16034">
		<tag k="name" v="Svartvann" />
		<tag k="natural" v="water" />
		<tag k="ssr:stedsnr" v="126779" />
	</node>
	<node lat="60.01980555911442" lon="10.829219452895192" id="-16035">
		<tag k="name" v="Nordre Langvann" />
		<tag k="natural" v="water" />
		<tag k="ssr:stedsnr" v="127432" />
		<tag k="water" v="lake" />
	</node>
	<node lat="60.106461108700906" lon="10.758122216162223" id="-16036">
		<tag k="name" v="Langvann" />
		<tag k="natural" v="water" />
		<tag k="ssr:stedsnr" v="127627" />
		<tag k="water" v="lake" />
	</node>
	<node lat="60.14521110834176" lon="10.868136102087997" id="-16037">
		<tag k="name" v="Setertjernet" />
		<tag k="natural" v="water" />
		<tag k="ssr:stedsnr" v="127768" />
	</node>
	<node lat="60.175536111335155" lon="10.848672229189669" id="-16038">
		<tag k="fixme" v="consider natural=peak for the most distinct mountains in the district" />
		<tag k="name" v="Hakkimhøgda" />
		<tag k="natural" v="hill" />
		<tag k="place" v="locality" />
		<tag k="ssr:stedsnr" v="127732" />
	</node>
	<node lat="60.1272055556244" lon="10.798561109777973" id="-16039">
		<tag k="name" v="Nøklebybråten" />
		<tag k="place" v="farm" />
		<tag k="ssr:stedsnr" v="160018" />
	</node>
	<node lat="59.992677773392806" lon="10.933486112206042" id="-16040">
		<tag k="name" v="Skysetbråtan" />
		<tag k="place" v="locality" />
		<tag k="ssr:stedsnr" v="160239" />
	</node>
	<node lat="59.995186115305025" lon="10.903169436683932" id="-16041">
		<tag k="name" v="Skyttamyra" />
		<tag k="natural" v="wetland" />
		<tag k="ssr:stedsnr" v="160242" />
	</node>
	<node lat="60.047130553462196" lon="10.906069448019327" id="-16042">
		<tag k="name" v="Skredderud" />
		<tag k="place" v="locality" />
		<tag k="ssr:stedsnr" v="160283" />
	</node>
	<node lat="60.008761114838045" lon="10.889061104038138" id="-16043">
		<tag k="historic" v="shieling" />
		<tag k="name" v="Rudsetra" />
		<tag k="place" v="isolated_dwelling" />
		<tag k="ssr:stedsnr" v="160797" />
	</node>
	<node lat="60.04472499594234" lon="10.876424995744765" id="-16044">
		<tag k="name" v="Ørfiskebekken" />
		<tag k="ssr:stedsnr" v="160653" />
		<tag k="waterway" v="stream" />
	</node>
	<node lat="59.98591666756317" lon="10.883149997573069" id="-16045">
		<tag k="name" v="Romsmåsan" />
		<tag k="natural" v="wetland" />
		<tag k="ssr:stedsnr" v="160825" />
	</node>
	<node lat="59.989280556088396" lon="10.876511108806492" id="-16046">
		<tag k="name" v="Setertjern" />
		<tag k="natural" v="water" />
		<tag k="ssr:stedsnr" v="160828" />
	</node>
	<node lat="60.113511109814304" lon="10.863316675384025" id="-16047">
		<tag k="name" v="Tøyenberget" />
		<tag k="place" v="quarter" />
		<tag k="ssr:stedsnr" v="162141" />
	</node>
	<node lat="60.139694442246125" lon="10.68982500062068" id="-16048">
		<tag k="name" v="Stålputtene" />
		<tag k="natural" v="water" />
		<tag k="ssr:stedsnr" v="162279" />
	</node>
	<node lat="60.06548332957047" lon="10.910722220617188" id="-16049">
		<tag k="name" v="Rusestua" />
		<tag k="place" v="farm" />
		<tag k="ssr:stedsnr" v="162291" />
	</node>
	<node lat="60.00011111078587" lon="10.949630562373617" id="-16050">
		<tag k="name" v="Bjønn" />
		<tag k="place" v="locality" />
		<tag k="ssr:stedsnr" v="162364" />
	</node>
	<node lat="60.11685555891232" lon="10.854074991658216" id="-16051">
		<tag k="name" v="Solvang" />
		<tag k="place" v="isolated_dwelling" />
		<tag k="ssr:stedsnr" v="162587" />
	</node>
	<node lat="60.033283328825725" lon="10.889508341395453" id="-16052">
		<tag k="alt_name" v="Skøyen nedre" />
		<tag k="name" v="Nedre Skøyen" />
		<tag k="place" v="farm" />
		<tag k="ssr:stedsnr" v="162737" />
	</node>
	<node lat="59.98333911164989" lon="10.963900099911305" id="-16053">
		<tag k="fixme" v="consider place=hamlet" />
		<tag k="name" v="Bøler" />
		<tag k="place" v="farm" />
		<tag k="ssr:stedsnr" v="186640" />
	</node>
	<node lat="59.99813627911861" lon="10.973722499214176" id="-16054">
		<tag k="fixme" v="consider place=hamlet" />
		<tag k="name" v="Glømmi" />
		<tag k="place" v="farm" />
		<tag k="ssr:stedsnr" v="186660" />
	</node>
	<node lat="60.11348610924986" lon="10.79963055787865" id="-16055">
		<tag k="alt_name" v="Mattismyra" />
		<tag k="name" v="Mattismyr" />
		<tag k="natural" v="wetland" />
		<tag k="ssr:stedsnr" v="187533" />
	</node>
	<node lat="60.11466944602195" lon="10.830474999109565" id="-16056">
		<tag k="name" v="Burås" />
		<tag k="place" v="quarter" />
		<tag k="ssr:stedsnr" v="187537" />
	</node>
	<node lat="60.17802222395418" lon="10.781238893183884" id="-16057">
		<tag k="alt_name" v="Blekktjernhøgda" />
		<tag k="fixme" v="consider natural=peak for the most distinct mountains in the district" />
		<tag k="name" v="Blekketjernshøgda" />
		<tag k="natural" v="hill" />
		<tag k="place" v="locality" />
		<tag k="ssr:stedsnr" v="187661" />
	</node>
	<node lat="60.00899999694331" lon="10.9461361178694" id="-16058">
		<tag k="alt_name" v="Nittedal" />
		<tag k="amenity" v="place_of_worship" />
		<tag k="denomination" v="lutheran" />
		<tag k="name" v="Nittedal kirke" />
		<tag k="religion" v="christian" />
		<tag k="ssr:stedsnr" v="188399" />
	</node>
	<node lat="60.01783333543104" lon="10.844808340451959" id="-16059">
		<tag k="alt_name" v="Åbortjern" />
		<tag k="name" v="Åbortjernet" />
		<tag k="natural" v="water" />
		<tag k="ssr:stedsnr" v="188434" />
	</node>
	<node lat="60.105575002497126" lon="10.768055549928967" id="-16060">
		<tag k="name" v="Vintertjernet" />
		<tag k="natural" v="water" />
		<tag k="ssr:stedsnr" v="188632" />
	</node>
	<node lat="60.10548509721077" lon="10.859525050942667" id="-16061">
		<tag k="fixme" v="consider place=hamlet" />
		<tag k="name" v="Døli" />
		<tag k="place" v="farm" />
		<tag k="ssr:stedsnr" v="188633" />
	</node>
	<node lat="60.09984721878623" lon="10.910749997228699" id="-16062">
		<tag k="alt_name" v="Ravndalen" />
		<tag k="name" v="Ramndalen" />
		<tag k="natural" v="valley" />
		<tag k="place" v="locality" />
		<tag k="ssr:stedsnr" v="188638" />
	</node>
	<node lat="60.16096944232806" lon="10.786333335705482" id="-16063">
		<tag k="alt_name" v="Nedre Kolltjerna" />
		<tag k="name" v="Nedre Kolltjern" />
		<tag k="natural" v="water" />
		<tag k="ssr:stedsnr" v="188745" />
	</node>
	<node lat="60.14372777382425" lon="10.80660832615736" id="-16064">
		<tag k="building" v="civic" />
		<tag k="name" v="Nittedal Jordstasjon" />
		<tag k="ssr:stedsnr" v="208315" />
	</node>
	<node lat="59.993891666384165" lon="10.927855557861431" id="-16065">
		<tag k="name" v="Snurefjellet" />
		<tag k="natural" v="hill" />
		<tag k="place" v="locality" />
		<tag k="ssr:stedsnr" v="221245" />
	</node>
	<node lat="60.030388890168986" lon="10.946566671918431" id="-16066">
		<tag k="name" v="Svartputten" />
		<tag k="natural" v="water" />
		<tag k="ssr:stedsnr" v="221346" />
	</node>
	<node lat="60.02789166822422" lon="10.90097499874644" id="-16067">
		<tag k="alt_name" v="Kjul søndre" />
		<tag k="name" v="Søndre Kjul" />
		<tag k="place" v="farm" />
		<tag k="ssr:stedsnr" v="221639" />
	</node>
	<node lat="60.00378888915253" lon="10.966994441029202" id="-16068">
		<tag k="name" v="Løkenbakken" />
		<tag k="place" v="locality" />
		<tag k="ssr:stedsnr" v="223201" />
	</node>
	<node lat="60.138041666265345" lon="10.819916675270898" id="-16069">
		<tag k="name" v="Nordre Mork" />
		<tag k="place" v="farm" />
		<tag k="ssr:stedsnr" v="223258" />
	</node>
	<node lat="59.990422226375735" lon="10.985150000502454" id="-16071">
		<tag k="name" v="Jeppebakken" />
		<tag k="place" v="farm" />
		<tag k="ssr:stedsnr" v="223362" />
	</node>
	<node lat="60.00892499848279" lon="10.948319450380403" id="-16072">
		<tag k="alt_name" v="Dal vestre" />
		<tag k="name" v="Vestre Dal" />
		<tag k="place" v="farm" />
		<tag k="ssr:stedsnr" v="223595" />
	</node>
	<node lat="60.0426055571005" lon="10.877022218099151" id="-16073">
		<tag k="name" v="Motajet" />
		<tag k="place" v="locality" />
		<tag k="ssr:stedsnr" v="223747" />
	</node>
	<node lat="60.17149722588982" lon="10.783533324903047" id="-16074">
		<tag k="name" v="Øvre Blekketjern" />
		<tag k="natural" v="water" />
		<tag k="ssr:stedsnr" v="223863" />
	</node>
	<node lat="60.17361111389471" lon="10.78390000117309" id="-16075">
		<tag k="name" v="Nedre Blekketjern" />
		<tag k="natural" v="water" />
		<tag k="ssr:stedsnr" v="223864" />
	</node>
	<node lat="60.0314777737754" lon="10.898291659360938" id="-16076">
		<tag k="alt_name" v="Fjelltun" />
		<tag k="name" v="Nedre Kjul" />
		<tag k="place" v="farm" />
		<tag k="ssr:stedsnr" v="282612" />
	</node>
	<node lat="59.996425000699375" lon="10.871036112517537" id="-16077">
		<tag k="name" v="Søndre Aurevannsputten" />
		<tag k="natural" v="water" />
		<tag k="ssr:stedsnr" v="282826" />
	</node>
	<node lat="60.101716666725714" lon="10.883677786519765" id="-16078">
		<tag k="amenity" v="school" />
		<tag k="name" v="Kirkeby skole" />
		<tag k="ssr:stedsnr" v="284060" />
	</node>
	<node lat="60.08494166330313" lon="10.909744443264945" id="-16079">
		<tag k="name" v="Spenningsbyhaugen" />
		<tag k="natural" v="hill" />
		<tag k="place" v="locality" />
		<tag k="ssr:stedsnr" v="284135" />
	</node>
	<node lat="60.12817222527953" lon="10.834061119104351" id="-16080">
		<tag k="name" v="Åsbekken" />
		<tag k="ssr:stedsnr" v="284160" />
		<tag k="waterway" v="stream" />
	</node>
	<node lat="60.12165555561521" lon="10.84287778651937" id="-16081">
		<tag k="fixme" v="consider place=hamlet" />
		<tag k="name" v="Hellerud" />
		<tag k="place" v="farm" />
		<tag k="ssr:stedsnr" v="284162" />
	</node>
	<node lat="60.11852500073246" lon="10.835469447680351" id="-16082">
		<tag k="name" v="Sagstua" />
		<tag k="place" v="isolated_dwelling" />
		<tag k="ssr:stedsnr" v="284163" />
	</node>
	<node lat="59.99826110983097" lon="10.984580562219838" id="-16083">
		<tag k="name" v="Ramstad" />
		<tag k="place" v="farm" />
		<tag k="ssr:stedsnr" v="284352" />
	</node>
	<node lat="60.0338499968574" lon="10.824377769050784" id="-16084">
		<tag k="name" v="Brønnsdalen" />
		<tag k="natural" v="valley" />
		<tag k="place" v="locality" />
		<tag k="ssr:stedsnr" v="284571" />
	</node>
	<node lat="60.03805555669282" lon="10.847949999134622" id="-16085">
		<tag k="name" v="Vintermyrberget" />
		<tag k="place" v="locality" />
		<tag k="ssr:stedsnr" v="284743" />
	</node>
	<node lat="60.018166665354755" lon="10.932947217226616" id="-16086">
		<tag k="name" v="Andersbråtan" />
		<tag k="place" v="locality" />
		<tag k="ssr:stedsnr" v="291613" />
	</node>
	<node lat="60.015894444970726" lon="10.932347230709336" id="-16087">
		<tag k="name" v="Nordli" />
		<tag k="place" v="locality" />
		<tag k="ssr:stedsnr" v="291618" />
	</node>
	<node lat="60.01351636120012" lon="10.922694154007434" id="-16088">
		<tag k="name" v="Slattum" />
		<tag k="place" v="hamlet" />
		<tag k="ssr:stedsnr" v="308331" />
	</node>
	<node lat="59.98714117815039" lon="10.960211152669496" id="-16089">
		<tag k="fixme" v="consider place=hamlet" />
		<tag k="name" v="Holum" />
		<tag k="place" v="farm" />
		<tag k="ssr:stedsnr" v="308562" />
	</node>
	<node lat="60.10934444686057" lon="10.778408331050834" id="-16090">
		<tag k="name" v="Stormyra" />
		<tag k="natural" v="wetland" />
		<tag k="ssr:stedsnr" v="308379" />
	</node>
	<node lat="60.0815250018025" lon="10.847088880462126" id="-16091">
		<tag k="name" v="Åbortjernet" />
		<tag k="natural" v="water" />
		<tag k="ssr:stedsnr" v="308469" />
	</node>
	<node lat="60.089608332903005" lon="10.812044438074539" id="-16092">
		<tag k="name" v="Østre Karlshaug" />
		<tag k="natural" v="hill" />
		<tag k="place" v="locality" />
		<tag k="ssr:stedsnr" v="308476" />
	</node>
	<node lat="60.08776110843786" lon="10.886711107894733" id="-16093">
		<tag k="alt_name" v="Myrerenga" />
		<tag k="name" v="Myrenga" />
		<tag k="place" v="farm" />
		<tag k="ssr:stedsnr" v="308482" />
	</node>
	<node lat="60.087738893273794" lon="10.910749993445593" id="-16094">
		<tag k="alt_name" v="Ravndalskollen" />
		<tag k="name" v="Ramndalskollen" />
		<tag k="natural" v="hill" />
		<tag k="place" v="locality" />
		<tag k="ssr:stedsnr" v="308483" />
	</node>
	<node lat="60.08123333299252" lon="10.898849997054421" id="-16095">
		<tag k="name" v="Vinsrud" />
		<tag k="place" v="isolated_dwelling" />
		<tag k="ssr:stedsnr" v="308484" />
	</node>
	<node lat="60.12007778155419" lon="10.804202780571838" id="-16096">
		<tag k="name" v="Torsbekken" />
		<tag k="ssr:stedsnr" v="308653" />
		<tag k="waterway" v="stream" />
	</node>
	<node lat="60.02470278218952" lon="10.850088895350627" id="-16097">
		<tag k="fixme" v="consider natural=peak for the most distinct mountains in the district" />
		<tag k="name" v="Røvarkula" />
		<tag k="natural" v="hill" />
		<tag k="place" v="locality" />
		<tag k="ssr:stedsnr" v="309429" />
	</node>
	<node lat="60.04741944046827" lon="10.88144445194185" id="-16098">
		<tag k="name" v="Dambo" />
		<tag k="place" v="farm" />
		<tag k="ssr:stedsnr" v="342635" />
	</node>
	<node lat="60.0083611112009" lon="10.88442777298332" id="-16099">
		<tag k="name" v="Skjærmåsan" />
		<tag k="natural" v="wetland" />
		<tag k="ssr:stedsnr" v="342786" />
	</node>
	<node lat="60.07310000397886" lon="10.82095555450321" id="-16100">
		<tag k="name" v="Svenskevika" />
		<tag k="natural" v="bay" />
		<tag k="ssr:stedsnr" v="344282" />
	</node>
	<node lat="60.09008610736135" lon="10.780500006335158" id="-16101">
		<tag k="name" v="Snaukollen" />
		<tag k="natural" v="hill" />
		<tag k="place" v="locality" />
		<tag k="ssr:stedsnr" v="344290" />
	</node>
	<node lat="59.98769722257711" lon="10.977438892868774" id="-16102">
		<tag k="name" v="Grana" />
		<tag k="natural" v="beach" />
		<tag k="ssr:stedsnr" v="344356" />
	</node>
	<node lat="60.022961107835194" lon="10.936277769897126" id="-16103">
		<tag k="name" v="Kløverstua" />
		<tag k="place" v="locality" />
		<tag k="ssr:stedsnr" v="352604" />
	</node>
	<node lat="60.01096944450422" lon="10.916580552317985" id="-16104">
		<tag k="amenity" v="school" />
		<tag k="name" v="Slattum skole" />
		<tag k="ssr:stedsnr" v="352580" />
	</node>
	<node lat="60.11893611133494" lon="10.88302499482028" id="-16105">
		<tag k="fixme" v="consider boundary=protected_area and relevant protect_class if not nature reserve" />
		<tag k="leisure" v="nature_reserve" />
		<tag k="name" v="Glitrelia naturreservat" />
		<tag k="ssr:stedsnr" v="363995" />
	</node>
	<node lat="60.0706388871506" lon="10.880736118872408" id="-16106">
		<tag k="name" v="Berger" />
		<tag k="place" v="farm" />
		<tag k="ssr:stedsnr" v="369487" />
	</node>
	<node lat="60.06572662027279" lon="10.890717347467817" id="-16107">
		<tag k="fixme" v="consider place=hamlet" />
		<tag k="name" v="Nordby" />
		<tag k="place" v="farm" />
		<tag k="ssr:stedsnr" v="369498" />
	</node>
	<node lat="60.12711666672699" lon="10.758269442595982" id="-16108">
		<tag k="name" v="Bakken" />
		<tag k="place" v="isolated_dwelling" />
		<tag k="ssr:stedsnr" v="369595" />
	</node>
	<node lat="60.04168055518845" lon="10.908394447604492" id="-16109">
		<tag k="alt_name" v="Holter, s;Holter søndre;Holterstua" />
		<tag k="name" v="Søndre Holter" />
		<tag k="place" v="farm" />
		<tag k="ssr:stedsnr" v="369385" />
	</node>
	<node lat="60.10603732211866" lon="10.874944720341915" id="-16110">
		<tag k="alt_name" v="Kirkeby" />
		<tag k="name" v="Glitre" />
		<tag k="place" v="farm" />
		<tag k="ssr:stedsnr" v="369539" />
	</node>
	<node lat="60.00963888685564" lon="10.899583338658857" id="-16111">
		<tag k="alt_name" v="Høyfjellet" />
		<tag k="fixme" v="consider natural=peak for the most distinct mountains in the district" />
		<tag k="name" v="Høgfjellet" />
		<tag k="natural" v="hill" />
		<tag k="place" v="locality" />
		<tag k="ssr:stedsnr" v="369335" />
	</node>
	<node lat="60.120986111267186" lon="10.753061105080462" id="-16112">
		<tag k="alt_name" v="Elviken" />
		<tag k="fixme" v="multiple name tags, choose one and add the other to alt_name" />
		<tag k="name" v="Elvikløkka;Elvika" />
		<tag k="place" v="farm" />
		<tag k="ssr:stedsnr" v="369633" />
	</node>
	<node lat="60.170605555758826" lon="10.849261102832143" id="-16113">
		<tag k="name" v="Hakkim" />
		<tag k="old_name" v="Nakkim" />
		<tag k="place" v="farm" />
		<tag k="ssr:stedsnr" v="369654" />
	</node>
	<node lat="60.16929444086037" lon="10.800083328718841" id="-16114">
		<tag k="name" v="Fiskeløysa" />
		<tag k="natural" v="water" />
		<tag k="ssr:stedsnr" v="369660" />
	</node>
	<node lat="60.093083336740904" lon="10.802955555029845" id="-16115">
		<tag k="name" v="Daviddalsputten" />
		<tag k="natural" v="water" />
		<tag k="ssr:stedsnr" v="369558" />
	</node>
	<node lat="60.13924722119361" lon="10.79129721415793" id="-16116">
		<tag k="name" v="Hakadalen" />
		<tag k="natural" v="valley" />
		<tag k="place" v="locality" />
		<tag k="ssr:stedsnr" v="388557" />
	</node>
	<node lat="60.106177773777425" lon="10.852072224585998" id="-16117">
		<tag k="amenity" v="nursing_home" />
		<tag k="name" v="Døli pleie- og omsorgssenter" />
		<tag k="ssr:stedsnr" v="403006" />
	</node>
	<node lat="60.12250209425244" lon="10.828814757491843" id="-16118">
		<tag k="fixme" v="consider place=hamlet" />
		<tag k="name" v="Nes" />
		<tag k="place" v="farm" />
		<tag k="ssr:stedsnr" v="403024" />
	</node>
	<node lat="60.03394722655982" lon="10.962952782015726" id="-16119">
		<tag k="name" v="Pettersmyra" />
		<tag k="natural" v="wetland" />
		<tag k="ssr:stedsnr" v="403338" />
	</node>
	<node lat="60.032961111240446" lon="10.908877782636377" id="-16120">
		<tag k="name" v="Gaustadløkka" />
		<tag k="place" v="farm" />
		<tag k="ssr:stedsnr" v="403339" />
	</node>
	<node lat="60.00580238000122" lon="10.837137887186788" id="-16121">
		<tag k="name" v="Granbergsputtene" />
		<tag k="natural" v="water" />
		<tag k="ssr:stedsnr" v="403818" />
	</node>
	<node lat="60.085919442427546" lon="10.887486115863725" id="-16122">
		<tag k="name" v="Bergsenga" />
		<tag k="place" v="farm" />
		<tag k="ssr:stedsnr" v="405099" />
	</node>
	<node lat="60.11454011575414" lon="10.834529329845536" id="-16123">
		<tag k="fixme" v="consider place=hamlet" />
		<tag k="name" v="Burås" />
		<tag k="place" v="farm" />
		<tag k="ssr:stedsnr" v="405119" />
	</node>
	<node lat="59.994294448257214" lon="10.972347227961174" id="-16124">
		<tag k="name" v="Åroshagen" />
		<tag k="place" v="farm" />
		<tag k="ssr:stedsnr" v="405354" />
	</node>
	<node lat="60.00045833388351" lon="10.955388892590653" id="-16125">
		<tag k="name" v="Holmshagan" />
		<tag k="place" v="locality" />
		<tag k="ssr:stedsnr" v="405364" />
	</node>
	<node lat="59.99986388647084" lon="10.977825007459135" id="-16126">
		<tag k="name" v="Storsletta" />
		<tag k="place" v="locality" />
		<tag k="ssr:stedsnr" v="405365" />
	</node>
	<node lat="59.99906389066129" lon="10.966927772037462" id="-16127">
		<tag k="name" v="Omsibakken" />
		<tag k="place" v="locality" />
		<tag k="ssr:stedsnr" v="405366" />
	</node>
	<node lat="60.00418039681189" lon="10.928239970261165" id="-16128">
		<tag k="fixme" v="consider place=suburb, village or hamlet" />
		<tag k="name" v="Li" />
		<tag k="place" v="quarter" />
		<tag k="ssr:stedsnr" v="430343" />
	</node>
	<node lat="60.01613611048907" lon="10.83976110980198" id="-16129">
		<tag k="alt_name" v="Kringla" />
		<tag k="name" v="Kringler" />
		<tag k="natural" v="water" />
		<tag k="ssr:stedsnr" v="430370" />
	</node>
	<node lat="60.08265278166991" lon="10.879763881210913" id="-16130">
		<tag k="name" v="Haugerud" />
		<tag k="place" v="farm" />
		<tag k="ssr:stedsnr" v="430491" />
	</node>
	<node lat="60.069522225459394" lon="10.785627780166696" id="-16131">
		<tag k="name" v="Fløyta" />
		<tag k="natural" v="water" />
		<tag k="ssr:stedsnr" v="430567" />
	</node>
	<node lat="60.111575000110655" lon="10.773433326109082" id="-16132">
		<tag k="name" v="Elvassmyra" />
		<tag k="natural" v="wetland" />
		<tag k="ssr:stedsnr" v="430581" />
	</node>
	<node lat="60.108955551506966" lon="10.915086110649405" id="-16133">
		<tag k="name" v="Svarttjern" />
		<tag k="natural" v="water" />
		<tag k="ssr:stedsnr" v="430591" />
	</node>
	<node lat="60.07596388490589" lon="10.827202776498835" id="-16134">
		<tag k="name" v="Svenskemyra" />
		<tag k="natural" v="wetland" />
		<tag k="ssr:stedsnr" v="430528" />
	</node>
	<node lat="60.071124996899286" lon="10.797249993902568" id="-16135">
		<tag k="alt_name" v="Storbråtahaug" />
		<tag k="name" v="Storbråtahaugen" />
		<tag k="natural" v="hill" />
		<tag k="place" v="locality" />
		<tag k="ssr:stedsnr" v="430532" />
	</node>
	<node lat="60.11766944258476" lon="10.85469999840513" id="-16136">
		<tag k="name" v="Hellerudhaugen" />
		<tag k="place" v="locality" />
		<tag k="ssr:stedsnr" v="430666" />
	</node>
	<node lat="60.11944166331254" lon="10.817197213412845" id="-16137">
		<tag k="name" v="Blåsås" />
		<tag k="place" v="isolated_dwelling" />
		<tag k="ssr:stedsnr" v="430668" />
	</node>
	<node lat="60.11775555633272" lon="10.809222216566369" id="-16138">
		<tag k="name" v="Homannsbekken" />
		<tag k="ssr:stedsnr" v="430671" />
		<tag k="waterway" v="stream" />
	</node>
	<node lat="60.172943528685366" lon="10.783897470560104" id="-16139">
		<tag k="name" v="Blekketjerna" />
		<tag k="natural" v="water" />
		<tag k="ssr:stedsnr" v="430686" />
		<tag k="water" v="lake" />
	</node>
	<node lat="60.18120399090649" lon="10.84191939709468" id="-16140">
		<tag k="name" v="Bakkholtjerna" />
		<tag k="natural" v="water" />
		<tag k="ssr:stedsnr" v="430773" />
		<tag k="water" v="lake" />
	</node>
	<node lat="60.01041812231289" lon="10.95818184795437" id="-16141">
		<tag k="name" v="Nordenga" />
		<tag k="place" v="farm" />
		<tag k="ssr:stedsnr" v="524617" />
	</node>
	<node lat="60.01811666586581" lon="10.853097216345565" id="-16142">
		<tag k="name" v="Kølabonn" />
		<tag k="place" v="locality" />
		<tag k="ssr:stedsnr" v="524845" />
	</node>
	<node lat="60.11825000182838" lon="10.854602774748498" id="-16143">
		<tag k="name" v="Granly" />
		<tag k="place" v="isolated_dwelling" />
		<tag k="ssr:stedsnr" v="526573" />
	</node>
	<node lat="60.008583333006676" lon="10.949519445501151" id="-16144">
		<tag k="alt_name" v="Dal nedre" />
		<tag k="name" v="Nedre Dal" />
		<tag k="place" v="farm" />
		<tag k="ssr:stedsnr" v="526576" />
	</node>
	<node lat="59.99390555124347" lon="10.987044442396325" id="-16145">
		<tag k="name" v="Store Ramstad" />
		<tag k="place" v="farm" />
		<tag k="ssr:stedsnr" v="526335" />
	</node>
	<node lat="60.01032221959441" lon="10.930875007422975" id="-16147">
		<tag k="name" v="Saga" />
		<tag k="place" v="locality" />
		<tag k="ssr:stedsnr" v="534597" />
	</node>
	<node lat="60.04279898094048" lon="10.953123465369169" id="-16148">
		<tag k="fixme" v="consider boundary=protected_area and relevant protect_class if not nature reserve" />
		<tag k="leisure" v="nature_reserve" />
		<tag k="name" v="Prekestolen og Ryggevanna naturreservat" />
		<tag k="ssr:stedsnr" v="545993" />
	</node>
	<node lat="60.03114444656197" lon="10.958027785996295" id="-16149">
		<tag k="alt_name" v="Rygga" />
		<tag k="name" v="Ryggebekken" />
		<tag k="ssr:stedsnr" v="551390" />
		<tag k="waterway" v="stream" />
	</node>
	<node lat="60.01821110790614" lon="10.855827775998556" id="-16150">
		<tag k="alt_name" v="Nordskogtjerna" />
		<tag k="name" v="Nordskogtjernet" />
		<tag k="natural" v="water" />
		<tag k="ssr:stedsnr" v="551381" />
	</node>
	<node lat="60.052469441008114" lon="10.888791664551373" id="-16151">
		<tag k="name" v="Øvre Haug" />
		<tag k="place" v="farm" />
		<tag k="ssr:stedsnr" v="551469" />
	</node>
	<node lat="60.11081388950154" lon="10.78872222397645" id="-16152">
		<tag k="name" v="Karimyr" />
		<tag k="natural" v="wetland" />
		<tag k="ssr:stedsnr" v="551565" />
	</node>
	<node lat="60.106149996880674" lon="10.846741662997355" id="-16153">
		<tag k="name" v="Varingskollen holdeplass" />
		<tag k="railway" v="halt" />
		<tag k="ssr:stedsnr" v="551581" />
		<tag k="train" v="yes" />
	</node>
	<node lat="60.1011638887142" lon="10.882208340473127" id="-16154">
		<tag k="name" v="Kirkebyhaugen" />
		<tag k="place" v="farm" />
		<tag k="ssr:stedsnr" v="551588" />
	</node>
	<node lat="60.135283337301615" lon="10.902158339652798" id="-16155">
		<tag k="name" v="Tjernslivangen" />
		<tag k="place" v="locality" />
		<tag k="ssr:stedsnr" v="551622" />
	</node>
	<node lat="60.126013716149274" lon="10.818748702550275" id="-16156">
		<tag k="fixme" v="consider place=hamlet" />
		<tag k="name" v="Haug" />
		<tag k="place" v="farm" />
		<tag k="ssr:stedsnr" v="551677" />
	</node>
	<node lat="60.12444167086095" lon="10.803122214320501" id="-16157">
		<tag k="fixme" v="multiple name tags, choose one and add the other to alt_name" />
		<tag k="name" v="Holm;Steinerud" />
		<tag k="place" v="isolated_dwelling" />
		<tag k="ssr:stedsnr" v="551679" />
	</node>
	<node lat="60.02528055358519" lon="10.846986110564535" id="-16158">
		<tag k="name" v="Skrytabekken" />
		<tag k="ssr:stedsnr" v="584896" />
		<tag k="waterway" v="stream" />
	</node>
	<node lat="60.0097111101057" lon="10.873544441388907" id="-16159">
		<tag k="name" v="Olsenhogget" />
		<tag k="place" v="locality" />
		<tag k="ssr:stedsnr" v="585778" />
	</node>
	<node lat="60.13293889216041" lon="10.814016671630384" id="-16160">
		<tag k="amenity" v="school" />
		<tag k="name" v="Hagen skole" />
		<tag k="ssr:stedsnr" v="587294" />
	</node>
	<node lat="59.995005559931805" lon="10.953650007105953" id="-16161">
		<tag k="name" v="Torudflaen" />
		<tag k="place" v="locality" />
		<tag k="ssr:stedsnr" v="587369" />
	</node>
	<node lat="60.00212499735976" lon="10.941961119624226" id="-16162">
		<tag k="name" v="Nordre Holm" />
		<tag k="place" v="farm" />
		<tag k="ssr:stedsnr" v="587370" />
	</node>
	<node lat="60.10399444790205" lon="10.855924993388923" id="-16163">
		<tag k="name" v="Døli" />
		<tag k="place" v="farm" />
		<tag k="ssr:stedsnr" v="587068" />
	</node>
	<node lat="60.06719444840215" lon="10.910963892822735" id="-16164">
		<tag k="name" v="Rustajet" />
		<tag k="place" v="locality" />
		<tag k="ssr:stedsnr" v="587332" />
	</node>
	<node lat="60.01594721963953" lon="10.949611115876934" id="-16165">
		<tag k="name" v="Ilangstua" />
		<tag k="place" v="isolated_dwelling" />
		<tag k="ssr:stedsnr" v="587584" />
	</node>
	<node lat="60.14153610812239" lon="10.80067777173984" id="-16166">
		<tag k="name" v="Slettmoen" />
		<tag k="place" v="locality" />
		<tag k="ssr:stedsnr" v="587784" />
	</node>
	<node lat="60.007480557337445" lon="10.932197214904331" id="-16167">
		<tag k="bridge" v="yes" />
		<tag k="layer" v="1" />
		<tag k="name" v="Slattum" />
		<tag k="ssr:stedsnr" v="592596" />
	</node>
	<node lat="60.014908337766165" lon="10.895655560888352" id="-16168">
		<tag k="name" v="Høyfjellsmyra" />
		<tag k="natural" v="wetland" />
		<tag k="ssr:stedsnr" v="594580" />
	</node>
	<node lat="60.01098889257386" lon="10.938611120128758" id="-16169">
		<tag k="name" v="Klokkerstua" />
		<tag k="place" v="isolated_dwelling" />
		<tag k="ssr:stedsnr" v="595578" />
	</node>
	<node lat="60.05563889114941" lon="10.836983329382575" id="-16170">
		<tag k="name" v="Svingbakken" />
		<tag k="place" v="isolated_dwelling" />
		<tag k="ssr:stedsnr" v="611483" />
	</node>
	<node lat="60.00873333446462" lon="10.933777770334284" id="-16171">
		<tag k="name" v="Høghaugen" />
		<tag k="place" v="farm" />
		<tag k="ssr:stedsnr" v="611366" />
	</node>
	<node lat="60.04708333201665" lon="10.837244446250901" id="-16172">
		<tag k="name" v="Langmyra" />
		<tag k="natural" v="wetland" />
		<tag k="ssr:stedsnr" v="611462" />
	</node>
	<node lat="59.977425000676945" lon="10.942525005975796" id="-16173">
		<tag k="name" v="Svarttjern" />
		<tag k="natural" v="water" />
		<tag k="ssr:stedsnr" v="611533" />
	</node>
	<node lat="59.98014761035462" lon="10.909350373256776" id="-16174">
		<tag k="name" v="Bamsetjern" />
		<tag k="natural" v="water" />
		<tag k="ssr:stedsnr" v="611548" />
	</node>
	<node lat="59.98157500019637" lon="10.91087500744884" id="-16175">
		<tag k="fixme" v="consider natural=peak for the most distinct mountains in the district" />
		<tag k="name" v="Skysethøgda" />
		<tag k="natural" v="hill" />
		<tag k="place" v="locality" />
		<tag k="ssr:stedsnr" v="611598" />
	</node>
	<node lat="60.143544447944336" lon="10.863411112398344" id="-16176">
		<tag k="name" v="Setertjernbekken" />
		<tag k="ssr:stedsnr" v="611639" />
		<tag k="waterway" v="stream" />
	</node>
	<node lat="60.13639166615349" lon="10.88106389474295" id="-16177">
		<tag k="name" v="Kirkebyvangen" />
		<tag k="place" v="isolated_dwelling" />
		<tag k="ssr:stedsnr" v="611644" />
	</node>
	<node lat="60.12570833766769" lon="10.802908340349864" id="-16178">
		<tag k="name" v="Lysaker" />
		<tag k="place" v="farm" />
		<tag k="ssr:stedsnr" v="611659" />
	</node>
	<node lat="60.13120555874363" lon="10.795933324891209" id="-16179">
		<tag k="alt_name" v="Elstad" />
		<tag k="name" v="Elnes" />
		<tag k="place" v="farm" />
		<tag k="ssr:stedsnr" v="611662" />
	</node>
	<node lat="60.02945278189842" lon="10.875433329230859" id="-16180">
		<tag k="name" v="Steinset" />
		<tag k="place" v="farm" />
		<tag k="ssr:stedsnr" v="612441" />
	</node>
	<node lat="60.08073201228309" lon="10.891661960341569" id="-16181">
		<tag k="fixme" v="consider place=hamlet" />
		<tag k="name" v="Berg" />
		<tag k="place" v="farm" />
		<tag k="ssr:stedsnr" v="612442" />
	</node>
	<node lat="60.02711015068531" lon="10.895090666550443" id="-16182">
		<tag k="fixme" v="consider place=suburb, village or hamlet" />
		<tag k="name" v="Kjul" />
		<tag k="place" v="quarter" />
		<tag k="ssr:stedsnr" v="612447" />
	</node>
	<node lat="60.088966665571675" lon="10.774052783388385" id="-16183">
		<tag k="name" v="Gryta" />
		<tag k="natural" v="water" />
		<tag k="ssr:stedsnr" v="612544" />
	</node>
	<node lat="60.040213892230184" lon="10.873586118327674" id="-16184">
		<tag k="name" v="Vestenga" />
		<tag k="place" v="isolated_dwelling" />
		<tag k="ssr:stedsnr" v="612466" />
	</node>
	<node lat="60.05009929284997" lon="10.880942340374206" id="-16185">
		<tag k="fixme" v="consider place=hamlet" />
		<tag k="name" v="Bjertnes" />
		<tag k="place" v="farm" />
		<tag k="ssr:stedsnr" v="612484" />
	</node>
	<node lat="60.173927775128504" lon="10.777891660056765" id="-16186">
		<tag k="name" v="Svarttjern" />
		<tag k="natural" v="water" />
		<tag k="ssr:stedsnr" v="612699" />
	</node>
	<node lat="60.14191944876385" lon="10.792991658080973" id="-16187">
		<tag k="name" v="Hakadalselva" />
		<tag k="ssr:stedsnr" v="612741" />
		<tag k="waterway" v="river" />
	</node>
	<node lat="59.97421921330795" lon="10.933621703447422" id="-16188">
		<tag k="name" v="Tokerudtjern" />
		<tag k="natural" v="water" />
		<tag k="ssr:stedsnr" v="630414" />
	</node>
	<node lat="60.147544446344675" lon="10.822999999199563" id="-16189">
		<tag k="name" v="Vesleelva" />
		<tag k="ssr:stedsnr" v="647781" />
		<tag k="waterway" v="stream" />
	</node>
	<node lat="60.165602775257085" lon="10.785774998785813" id="-16190">
		<tag k="fixme" v="consider boundary=protected_area and relevant protect_class if not nature reserve" />
		<tag k="leisure" v="nature_reserve" />
		<tag k="name" v="Rundkollen og Sortungbekken naturreservat" />
		<tag k="ssr:stedsnr" v="647855" />
	</node>
	<node lat="60.07999113006633" lon="10.89267073184846" id="-16191">
		<tag k="name" v="Søndre Berg" />
		<tag k="place" v="farm" />
		<tag k="ssr:stedsnr" v="647152" />
	</node>
	<node lat="60.05706944702363" lon="10.874161113357731" id="-16192">
		<tag k="name" v="Tajet" />
		<tag k="place" v="isolated_dwelling" />
		<tag k="ssr:stedsnr" v="647336" />
	</node>
	<node lat="60.083324997307514" lon="10.7924666580647" id="-16193">
		<tag k="fixme" v="consider boundary=protected_area and relevant protect_class if not nature reserve" />
		<tag k="leisure" v="nature_reserve" />
		<tag k="name" v="Karlshaugen naturreservat" />
		<tag k="ssr:stedsnr" v="647294" />
	</node>
	<node lat="59.99380833499204" lon="10.96643610506547" id="-16194">
		<tag k="name" v="Nesgutuhagan" />
		<tag k="place" v="locality" />
		<tag k="ssr:stedsnr" v="647369" />
	</node>
	<node lat="60.00565277975073" lon="10.9172333328551" id="-16195">
		<tag k="bridge" v="yes" />
		<tag k="layer" v="1" />
		<tag k="name" v="Markerud" />
		<tag k="ssr:stedsnr" v="652771" />
	</node>
	<node lat="60.02275000025765" lon="10.930469442819476" id="-16196">
		<tag k="alt_name" v="Glosli øvre" />
		<tag k="name" v="Øvre Glosli" />
		<tag k="place" v="farm" />
		<tag k="ssr:stedsnr" v="655617" />
	</node>
	<node lat="60.01833611293481" lon="10.909702784360153" id="-16197">
		<tag k="name" v="Steinrud" />
		<tag k="place" v="locality" />
		<tag k="ssr:stedsnr" v="716631" />
	</node>
	<node lat="60.01116666264428" lon="10.86867499275357" id="-16198">
		<tag k="name" v="Staurputten" />
		<tag k="natural" v="water" />
		<tag k="ssr:stedsnr" v="733344" />
	</node>
	<node lat="59.998259340678395" lon="10.987331736102767" id="-16199">
		<tag k="name" v="Ramstad" />
		<tag k="place" v="hamlet" />
		<tag k="ssr:stedsnr" v="733489" />
	</node>
	<node lat="60.08530277638408" lon="10.773280550389257" id="-16200">
		<tag k="name" v="Holmetjern" />
		<tag k="natural" v="water" />
		<tag k="ssr:stedsnr" v="733472" />
	</node>
	<node lat="59.97888611390446" lon="10.941805562926664" id="-16201">
		<tag k="fixme" v="consider natural=peak for the most distinct mountains in the district" />
		<tag k="name" v="Karushøgda" />
		<tag k="natural" v="hill" />
		<tag k="place" v="locality" />
		<tag k="ssr:stedsnr" v="733552" />
	</node>
	<node lat="59.98938333367211" lon="10.901377773323514" id="-16202">
		<tag k="name" v="Skyttaputten" />
		<tag k="natural" v="water" />
		<tag k="ssr:stedsnr" v="733559" />
	</node>
	<node lat="60.12842499944319" lon="10.874455550304662" id="-16203">
		<tag k="loc_name" v="Tøyinhøgda" />
		<tag k="name" v="Tøyenhøgda" />
		<tag k="natural" v="hill" />
		<tag k="place" v="locality" />
		<tag k="ssr:stedsnr" v="733640" />
	</node>
	<node lat="60.02290550892201" lon="10.898067405840948" id="-16204">
		<tag k="name" v="Kjulslund" />
		<tag k="place" v="farm" />
		<tag k="ssr:stedsnr" v="734435" />
	</node>
	<node lat="60.01665832956554" lon="10.941236114294696" id="-16205">
		<tag k="name" v="Stensrud" />
		<tag k="place" v="isolated_dwelling" />
		<tag k="ssr:stedsnr" v="734439" />
	</node>
	<node lat="60.1056666650979" lon="10.876833328900673" id="-16206">
		<tag k="alt_name" v="Hakadal" />
		<tag k="amenity" v="place_of_worship" />
		<tag k="denomination" v="lutheran" />
		<tag k="name" v="Hakadal kirke" />
		<tag k="religion" v="christian" />
		<tag k="ssr:stedsnr" v="734637" />
	</node>
	<node lat="60.011908332556054" lon="10.873022219774937" id="-16207">
		<tag k="name" v="Skøyenmåsan" />
		<tag k="natural" v="wetland" />
		<tag k="ssr:stedsnr" v="889825" />
	</node>
	<node lat="59.98869166750403" lon="10.929669436838024" id="-16208">
		<tag k="junction" v="yes" />
		<tag k="name" v="Gjelleråsen" />
		<tag k="place" v="locality" />
		<tag k="ssr:stedsnr" v="767264" />
	</node>
	<node lat="59.999722219284145" lon="10.858363881594126" id="-16209">
		<tag k="fixme" v="consider natural=peak for the most distinct mountains in the district" />
		<tag k="name" v="Seterhøgda" />
		<tag k="natural" v="hill" />
		<tag k="place" v="locality" />
		<tag k="ssr:stedsnr" v="767858" />
	</node>
	<node lat="60.093056836596396" lon="10.887502211939301" id="-16210">
		<tag k="name" v="Nordre Myrer" />
		<tag k="place" v="farm" />
		<tag k="ssr:stedsnr" v="769065" />
	</node>
	<node lat="60.07181111217899" lon="10.822683329706855" id="-16211">
		<tag k="name" v="Smithogget" />
		<tag k="place" v="isolated_dwelling" />
		<tag k="ssr:stedsnr" v="769279" />
	</node>
	<node lat="60.04774721886719" lon="10.916844445454306" id="-16212">
		<tag k="name" v="Sleppen" />
		<tag k="place" v="locality" />
		<tag k="ssr:stedsnr" v="769285" />
	</node>
	<node lat="59.99978611396722" lon="10.955277779538447" id="-16213">
		<tag k="name" v="Sletta" />
		<tag k="place" v="locality" />
		<tag k="ssr:stedsnr" v="769350" />
	</node>
	<node lat="60.00176388863084" lon="10.9749805501698" id="-16214">
		<tag k="name" v="Gamle Glømmi" />
		<tag k="place" v="locality" />
		<tag k="ssr:stedsnr" v="769354" />
	</node>
	<node lat="59.98743055754652" lon="10.982174998278595" id="-16215">
		<tag k="name" v="Ramstadstranda" />
		<tag k="natural" v="beach" />
		<tag k="ssr:stedsnr" v="769333" />
	</node>
	<node lat="60.053786115473535" lon="10.881811116899087" id="-16216">
		<tag k="bridge" v="yes" />
		<tag k="layer" v="1" />
		<tag k="name" v="Rotnes" />
		<tag k="ssr:stedsnr" v="774797" />
	</node>
	<node lat="60.014788890958094" lon="10.905211107836736" id="-16217">
		<tag k="name" v="Haugerud" />
		<tag k="place" v="isolated_dwelling" />
		<tag k="ssr:stedsnr" v="776564" />
	</node>
	<node lat="59.985699996261786" lon="10.937183338041368" id="-16218">
		<tag k="name" v="Morttjern" />
		<tag k="natural" v="water" />
		<tag k="ssr:stedsnr" v="793613" />
	</node>
	<node lat="59.97636666954351" lon="10.932319441240738" id="-16219">
		<tag k="name" v="Skillebekk" />
		<tag k="place" v="village" />
		<tag k="ssr:stedsnr" v="793561" />
	</node>
	<node lat="60.032827774870384" lon="10.886608332023577" id="-16220">
		<tag k="alt_name" v="Skøyen nordre" />
		<tag k="name" v="Nordre Skøyen" />
		<tag k="place" v="farm" />
		<tag k="ssr:stedsnr" v="794398" />
	</node>
	<node lat="60.107511108233126" lon="10.807616663065039" id="-16221">
		<tag k="alt_name" v="Vinterveimyra" />
		<tag k="name" v="Vintervegmyra" />
		<tag k="natural" v="wetland" />
		<tag k="ssr:stedsnr" v="794588" />
	</node>
	<node lat="60.009155556877516" lon="10.834408340856527" id="-16222">
		<tag k="alt_name" v="Grytedalen" />
		<tag k="name" v="Gryta" />
		<tag k="natural" v="valley" />
		<tag k="place" v="locality" />
		<tag k="ssr:stedsnr" v="794335" />
	</node>
	<node lat="60.00666667052177" lon="10.89412500270577" id="-16223">
		<tag k="fixme" v="consider natural=peak for the most distinct mountains in the district" />
		<tag k="name" v="Massjørgenhøgda" />
		<tag k="natural" v="hill" />
		<tag k="place" v="locality" />
		<tag k="ssr:stedsnr" v="794342" />
	</node>
	<node lat="60.037644445133985" lon="10.957119451333886" id="-16224">
		<tag k="name" v="Søndre Ryggevann" />
		<tag k="natural" v="water" />
		<tag k="ssr:stedsnr" v="794437" />
		<tag k="water" v="lake" />
	</node>
	<node lat="60.056452777220386" lon="10.925050008592924" id="-16225">
		<tag k="name" v="Sovaro" />
		<tag k="place" v="isolated_dwelling" />
		<tag k="ssr:stedsnr" v="794459" />
	</node>
	<node lat="60.074799407290264" lon="10.799552317349562" id="-16226">
		<tag k="loc_name" v="Gråbeinmyra" />
		<tag k="name" v="Gravemyra" />
		<tag k="natural" v="wetland" />
		<tag k="ssr:stedsnr" v="794520" />
	</node>
	<node lat="60.1352944454194" lon="10.732394440505157" id="-16227">
		<tag k="alt_name" v="Aurtjernet" />
		<tag k="name" v="Aurtjern" />
		<tag k="natural" v="water" />
		<tag k="ssr:stedsnr" v="794632" />
	</node>
	<node lat="60.13349444680519" lon="10.793791671249288" id="-16228">
		<tag k="name" v="Årnes" />
		<tag k="place" v="farm" />
		<tag k="ssr:stedsnr" v="794647" />
	</node>
	<node lat="60.12940555525882" lon="10.802653706088634" id="-16229">
		<tag k="fixme" v="consider place=hamlet" />
		<tag k="name" v="Nøkleby" />
		<tag k="place" v="farm" />
		<tag k="ssr:stedsnr" v="794651" />
	</node>
	<node lat="60.12038888878086" lon="10.77645000224166" id="-16230">
		<tag k="fixme" v="consider natural=peak for the most distinct mountains in the district" />
		<tag k="name" v="Elkollen" />
		<tag k="natural" v="hill" />
		<tag k="place" v="locality" />
		<tag k="ssr:stedsnr" v="794694" />
	</node>
	<node lat="60.121458334950844" lon="10.823986106533237" id="-16231">
		<tag k="fixme" v="consider place=hamlet" />
		<tag k="name" v="Hakadal" />
		<tag k="place" v="village" />
		<tag k="ssr:stedsnr" v="814755" />
	</node>
	<node lat="60.12418333297807" lon="10.806066664231645" id="-16232">
		<tag k="name" v="Tangen" />
		<tag k="place" v="isolated_dwelling" />
		<tag k="ssr:stedsnr" v="828011" />
	</node>
	<node lat="60.003632420851716" lon="10.889208203727508" id="-16233">
		<tag k="name" v="Bjønndalsmyra" />
		<tag k="natural" v="wetland" />
		<tag k="ssr:stedsnr" v="828836" />
	</node>
	<node lat="60.12363611000538" lon="10.71481389595979" id="-16234">
		<tag k="name" v="Aurputten" />
		<tag k="natural" v="water" />
		<tag k="ssr:stedsnr" v="830146" />
	</node>
	<node lat="60.09375555349606" lon="10.86685832740523" id="-16235">
		<tag k="name" v="Nedre Bliksrud" />
		<tag k="place" v="farm" />
		<tag k="ssr:stedsnr" v="830110" />
	</node>
	<node lat="60.07819722100228" lon="10.821919438132777" id="-16236">
		<tag k="name" v="Tøystua" />
		<tag k="place" v="locality" />
		<tag k="ssr:stedsnr" v="830256" />
	</node>
	<node lat="60.05122777457622" lon="10.90032221406258" id="-16237">
		<tag k="name" v="Meninga" />
		<tag k="place" v="locality" />
		<tag k="ssr:stedsnr" v="830266" />
	</node>
	<node lat="60.03703850252256" lon="10.901054062597636" id="-16238">
		<tag k="fixme" v="consider place=hamlet" />
		<tag k="name" v="Gaustad" />
		<tag k="place" v="farm" />
		<tag k="ssr:stedsnr" v="855414" />
	</node>
	<node lat="60.07116944189439" lon="10.83458055685252" id="-16239">
		<tag k="name" v="Skåltjern" />
		<tag k="natural" v="water" />
		<tag k="ssr:stedsnr" v="855528" />
	</node>
	<node lat="60.134766666232686" lon="10.78532778623609" id="-16240">
		<tag k="name" v="Ela" />
		<tag k="ssr:stedsnr" v="855657" />
		<tag k="waterway" v="stream" />
	</node>
	<node lat="60.00696110678303" lon="10.954188888771421" id="-16241">
		<tag k="fixme" v="multiple name tags, choose one and add the other to alt_name" />
		<tag k="name" v="Prestegarden;Omsi" />
		<tag k="place" v="farm" />
		<tag k="ssr:stedsnr" v="855367" />
	</node>
	<node lat="60.04251173819612" lon="10.817851032984539" id="-16242">
		<tag k="name" v="Nordre Movann" />
		<tag k="natural" v="water" />
		<tag k="ssr:stedsnr" v="855422" />
		<tag k="water" v="lake" />
	</node>
	<node lat="60.056125003405675" lon="10.819316665916569" id="-16243">
		<tag k="fixme" v="consider natural=peak for the most distinct mountains in the district" />
		<tag k="name" v="Laskerudåsen" />
		<tag k="natural" v="hill" />
		<tag k="place" v="locality" />
		<tag k="ssr:stedsnr" v="855465" />
	</node>
	<node lat="60.06833610716462" lon="10.901649998220329" id="-16244">
		<tag k="name" v="Nedre Rus" />
		<tag k="place" v="farm" />
		<tag k="ssr:stedsnr" v="855554" />
	</node>
	<node lat="60.15371666835946" lon="10.877999999085905" id="-16245">
		<tag k="name" v="Raudalslona" />
		<tag k="natural" v="water" />
		<tag k="ssr:stedsnr" v="855745" />
	</node>
	<node lat="60.13472222365132" lon="10.571661102928323" id="-16246">
		<tag k="name" v="Nordmarka" />
		<tag k="natural" v="wood" />
		<tag k="ssr:stedsnr" v="874528" />
	</node>
	<node lat="60.11003611369679" lon="10.847286106695785" id="-16247">
		<tag k="amenity" v="community_centre" />
		<tag k="name" v="Folkets hus" />
		<tag k="ssr:stedsnr" v="889009" />
	</node>
	<node lat="60.120586107842854" lon="10.812994452250662" id="-16248">
		<tag k="name" v="Smedbakken" />
		<tag k="place" v="isolated_dwelling" />
		<tag k="ssr:stedsnr" v="889019" />
	</node>
	<node lat="59.98585555331252" lon="10.96729166126314" id="-16249">
		<tag k="name" v="Bølerstuflaen" />
		<tag k="place" v="locality" />
		<tag k="ssr:stedsnr" v="889268" />
	</node>
	<node lat="59.98579166535645" lon="10.964922223052337" id="-16250">
		<tag k="landuse" v="meadow" />
		<tag k="name" v="Holumenga" />
		<tag k="ssr:stedsnr" v="889269" />
	</node>
	<node lat="60.025059176208224" lon="10.840164011809927" id="-16251">
		<tag k="historic" v="shieling" />
		<tag k="name" v="Sinober" />
		<tag k="old_name" v="Fautvangen" />
		<tag k="place" v="isolated_dwelling" />
		<tag k="ssr:stedsnr" v="889179" />
	</node>
	<node lat="60.03723566853227" lon="10.901017226550236" id="-16252">
		<tag k="name" v="Nedre Gaustad" />
		<tag k="place" v="farm" />
		<tag k="ssr:stedsnr" v="889325" />
	</node>
	<node lat="60.023341662839464" lon="10.845063880340435" id="-16253">
		<tag k="name" v="Skottmåsan" />
		<tag k="natural" v="wetland" />
		<tag k="ssr:stedsnr" v="949847" />
	</node>
	<node lat="60.09467499964989" lon="10.883761102586163" id="-16254">
		<tag k="name" v="Gunhildstua" />
		<tag k="place" v="isolated_dwelling" />
		<tag k="ssr:stedsnr" v="951072" />
	</node>
	<node lat="60.13094722488683" lon="10.831625003629654" id="-16255">
		<tag k="name" v="Sø Mork" />
		<tag k="place" v="farm" />
		<tag k="ssr:stedsnr" v="951251" />
	</node>
	<node lat="60.08483333062462" lon="10.80493611745271" id="-16256">
		<tag k="name" v="Daviddalen" />
		<tag k="natural" v="valley" />
		<tag k="place" v="locality" />
		<tag k="ssr:stedsnr" v="951274" />
	</node>
	<node lat="60.00160833059004" lon="10.94978889032912" id="-16257">
		<tag k="name" v="Gryta" />
		<tag k="place" v="locality" />
		<tag k="ssr:stedsnr" v="951348" />
	</node>
	<node lat="60.01201944725763" lon="10.94913055032336" id="-16258">
		<tag k="name" v="Tajet" />
		<tag k="place" v="locality" />
		<tag k="ssr:stedsnr" v="951577" />
	</node>
	<node lat="60.01681666408262" lon="10.955836118115277" id="-16259">
		<tag k="name" v="Sandbråtan" />
		<tag k="place" v="locality" />
		<tag k="ssr:stedsnr" v="951579" />
	</node>
	<node lat="60.04352978609997" lon="10.879855033758737" id="-16260">
		<tag k="amenity" v="place_of_worship" />
		<tag k="denomination" v="lutheran" />
		<tag k="name" v="Rotnes kirke" />
		<tag k="religion" v="christian" />
		<tag k="ssr:stedsnr" v="990998" />
	</node>
	<node lat="60.0244844469833" lon="10.840275567611098" id="-16262">
		<tag k="fixme" v="consider tourism=alpine_hut or tourism=chalet" />
		<tag k="name" v="Røverhula" />
		<tag k="ssr:stedsnr" v="1075830" />
		<tag k="tourism" v="wilderness_hut" />
	</node>
	<node lat="60.031961302611876" lon="10.88853372371015" id="-16265">
		<tag k="fixme" v="consider place=hamlet" />
		<tag k="name" v="Skøyen" />
		<tag k="place" v="farm" />
		<tag k="ssr:stedsnr" v="1078484" />
	</node>
	<node lat="60.0680182078729" lon="10.902676644822316" id="-16266">
		<tag k="fixme" v="consider place=hamlet" />
		<tag k="name" v="Rus" />
		<tag k="place" v="farm" />
		<tag k="ssr:stedsnr" v="1078559" />
	</node>
	<node lat="60.074943882492626" lon="10.886045063497061" id="-16267">
		<tag k="fixme" v="consider place=hamlet" />
		<tag k="name" v="Strøm" />
		<tag k="place" v="farm" />
		<tag k="ssr:stedsnr" v="1078562" />
	</node>
	<node lat="60.07270406276318" lon="10.894604006282256" id="-16268">
		<tag k="fixme" v="consider place=hamlet" />
		<tag k="name" v="Spenningsby" />
		<tag k="place" v="farm" />
		<tag k="ssr:stedsnr" v="1078563" />
	</node>
</osm>
