<?xml version="1.0" encoding="UTF-8"?>
<osm generator="osmapis" version="0.6">
	<node id="-2426" lat="58.9904480625" lon="5.82480196464">
		<tag k="fixme" v="consider seamark:type=rock or natural=shoal" />
		<tag k="loc_name" v="Skarvaskjeret" />
		<tag k="place" v="islet" />
		<tag k="ssr:date" v="2016-11-11" />
		<tag k="ssr:gruppe" v="grunnerISjø" />
		<tag k="ssr:hovedgruppe" v="sjø" />
		<tag k="ssr:stedsnr" v="972823" />
		<tag k="ssr:type" v="skjærISjø" />
	</node>
	<node id="-929" lat="58.9838194482" lon="5.72849167417">
		<tag k="natural" v="bay" />
		<tag k="old_name" v="Jakobsvigen" />
		<tag k="ssr:date" v="2016-05-10" />
		<tag k="ssr:gruppe" v="kystkontur" />
		<tag k="ssr:hovedgruppe" v="sjø" />
		<tag k="ssr:stedsnr" v="223001" />
		<tag k="ssr:type" v="vikISjø" />
	</node>
	<node id="-1779" lat="58.9578888918" lon="5.70405277568">
		<tag k="old_name" v="Tjensvold" />
		<tag k="place" v="locality" />
		<tag k="ssr:date" v="2016-05-10" />
		<tag k="ssr:gruppe" v="gardsbebyggelse" />
		<tag k="ssr:hovedgruppe" v="bebyggelse" />
		<tag k="ssr:stedsnr" v="525352" />
		<tag k="ssr:type" v="eiendom" />
	</node>
	<node id="-2851" lat="58.9701333358" lon="5.73784721639">
		<tag k="old_name" v="Nytorvet" />
		<tag k="place" v="square" />
		<tag k="ssr:date" v="2016-05-10" />
		<tag k="ssr:gruppe" v="bebyggelsesområder" />
		<tag k="ssr:hovedgruppe" v="bebyggelse" />
		<tag k="ssr:stedsnr" v="162474" />
		<tag k="ssr:type" v="torg" />
	</node>
	<node id="-2540" lat="58.9590222222" lon="5.74123056189">
		<tag k="old_name" v="Granli" />
		<tag k="place" v="locality" />
		<tag k="ssr:date" v="2016-05-10" />
		<tag k="ssr:gruppe" v="gardsbebyggelse" />
		<tag k="ssr:hovedgruppe" v="bebyggelse" />
		<tag k="ssr:stedsnr" v="40450" />
		<tag k="ssr:type" v="eiendom" />
	</node>
	<node id="-2027" lat="58.9772888851" lon="5.74002500555">
		<tag k="natural" v="valley" />
		<tag k="old_name" v="Trangedalen" />
		<tag k="place" v="locality" />
		<tag k="ssr:date" v="2016-05-10" />
		<tag k="ssr:gruppe" v="senkninger" />
		<tag k="ssr:hovedgruppe" v="terreng" />
		<tag k="ssr:stedsnr" v="647458" />
		<tag k="ssr:type" v="dal" />
	</node>
	<node id="-3089" lat="58.9721388869" lon="5.73786666054">
		<tag k="man_made" v="quay" />
		<tag k="old_name" v="Tøgebryggen" />
		<tag k="place" v="locality" />
		<tag k="ssr:date" v="2016-05-10" />
		<tag k="ssr:gruppe" v="sjøfart" />
		<tag k="ssr:hovedgruppe" v="infrastruktur" />
		<tag k="ssr:stedsnr" v="344477" />
		<tag k="ssr:type" v="brygge" />
	</node>
	<node id="-912" lat="58.9847944442" lon="5.7226361045">
		<tag k="natural" v="cape" />
		<tag k="old_name" v="Nilsodden" />
		<tag k="ssr:date" v="2016-05-10" />
		<tag k="ssr:gruppe" v="kystkontur" />
		<tag k="ssr:hovedgruppe" v="sjø" />
		<tag k="ssr:stedsnr" v="221368" />
		<tag k="ssr:type" v="nesISjø" />
	</node>
	<node id="-2449" lat="58.9696912962" lon="5.72438913464">
		<tag k="fixme" v="consider place=suburb, village or hamlet" />
		<tag k="loc_name" v="Vestre Platå" />
		<tag k="place" v="quarter" />
		<tag k="ssr:date" v="2018-11-21" />
		<tag k="ssr:gruppe" v="bebyggelsesområder" />
		<tag k="ssr:hovedgruppe" v="bebyggelse" />
		<tag k="ssr:stedsnr" v="988466" />
		<tag k="ssr:type" v="tettbebyggelse" />
	</node>
	<node id="-2518" lat="58.9377694475" lon="5.69964444272">
		<tag k="amenity" v="university" />
		<tag k="old_name" v="Stavanger lærarskole" />
		<tag k="ssr:date" v="2016-05-27" />
		<tag k="ssr:gruppe" v="institusjoner" />
		<tag k="ssr:hovedgruppe" v="bebyggelse" />
		<tag k="ssr:stedsnr" v="24273" />
		<tag k="ssr:type" v="universitetHøgskole" />
	</node>
	<node id="-2389" lat="58.9559250042" lon="5.70203055351">
		<tag k="old_name" v="Mosthun" />
		<tag k="place" v="locality" />
		<tag k="ssr:date" v="2016-05-11" />
		<tag k="ssr:gruppe" v="gardsbebyggelse" />
		<tag k="ssr:hovedgruppe" v="bebyggelse" />
		<tag k="ssr:stedsnr" v="949306" />
		<tag k="ssr:type" v="eiendom" />
	</node>
	<node id="-2515" lat="58.9284805585" lon="5.75173610839">
		<tag k="old_name" v="Lyngnes stoppeplass" />
		<tag k="railway" v="halt" />
		<tag k="ssr:date" v="2016-05-10" />
		<tag k="ssr:gruppe" v="bane" />
		<tag k="ssr:hovedgruppe" v="infrastruktur" />
		<tag k="ssr:stedsnr" v="24162" />
		<tag k="ssr:type" v="holdeplass" />
		<tag k="train" v="yes" />
	</node>
	<node id="-1105" lat="58.9849305529" lon="5.72765555329">
		<tag k="fixme" v="consider seamark:type=rock or natural=shoal" />
		<tag k="old_name" v="Hommelandsskjæret" />
		<tag k="place" v="islet" />
		<tag k="ssr:date" v="2016-05-10" />
		<tag k="ssr:gruppe" v="grunnerISjø" />
		<tag k="ssr:hovedgruppe" v="sjø" />
		<tag k="ssr:stedsnr" v="100363" />
		<tag k="ssr:type" v="skjærISjø" />
	</node>
	<node id="-1104" lat="58.9612000027" lon="5.76101666699">
		<tag k="old_name" v="Rosendal" />
		<tag k="place" v="locality" />
		<tag k="ssr:date" v="2016-05-10" />
		<tag k="ssr:gruppe" v="gardsbebyggelse" />
		<tag k="ssr:hovedgruppe" v="bebyggelse" />
		<tag k="ssr:stedsnr" v="100358" />
		<tag k="ssr:type" v="eiendom" />
	</node>
	<node id="-1485" lat="58.9770277798" lon="5.74032777327">
		<tag k="natural" v="hill" />
		<tag k="old_name" v="Danmark" />
		<tag k="place" v="locality" />
		<tag k="ssr:date" v="2016-05-10" />
		<tag k="ssr:gruppe" v="høyder" />
		<tag k="ssr:hovedgruppe" v="terreng" />
		<tag k="ssr:stedsnr" v="344469" />
		<tag k="ssr:type" v="haug" />
	</node>
	<node id="-1484" lat="58.9662555563" lon="5.76052222769">
		<tag k="natural" v="bay" />
		<tag k="old_name" v="Søilandsvigen" />
		<tag k="ssr:date" v="2016-05-10" />
		<tag k="ssr:gruppe" v="kystkontur" />
		<tag k="ssr:hovedgruppe" v="sjø" />
		<tag k="ssr:stedsnr" v="344466" />
		<tag k="ssr:type" v="vikISjø" />
	</node>
	<node id="-1483" lat="58.9577944416" lon="5.74218054909">
		<tag k="old_name" v="Solstrand" />
		<tag k="place" v="locality" />
		<tag k="ssr:date" v="2016-05-10" />
		<tag k="ssr:gruppe" v="gardsbebyggelse" />
		<tag k="ssr:hovedgruppe" v="bebyggelse" />
		<tag k="ssr:stedsnr" v="344456" />
		<tag k="ssr:type" v="eiendom" />
	</node>
	<node id="-970" lat="58.9737277775" lon="5.73282500595">
		<tag k="man_made" v="quay" />
		<tag k="old_name" v="Zetlitzbryggen" />
		<tag k="place" v="locality" />
		<tag k="ssr:date" v="2016-05-10" />
		<tag k="ssr:gruppe" v="sjøfart" />
		<tag k="ssr:hovedgruppe" v="infrastruktur" />
		<tag k="ssr:stedsnr" v="41457" />
		<tag k="ssr:type" v="brygge" />
	</node>
	<node id="-1353" lat="58.9824999979" lon="5.73141944302">
		<tag k="natural" v="cape" />
		<tag k="old_name" v="Jondalsneset" />
		<tag k="ssr:date" v="2016-05-10" />
		<tag k="ssr:gruppe" v="kystkontur" />
		<tag k="ssr:hovedgruppe" v="sjø" />
		<tag k="ssr:stedsnr" v="283004" />
		<tag k="ssr:type" v="nesISjø" />
	</node>
	<node id="-965" lat="58.992272222" lon="5.7293944366">
		<tag k="natural" v="strait" />
		<tag k="old_name" v="Buøledet" />
		<tag k="ssr:date" v="2016-05-10" />
		<tag k="ssr:gruppe" v="ferskvannskontur" />
		<tag k="ssr:hovedgruppe" v="ferskvann" />
		<tag k="ssr:stedsnr" v="40004" />
		<tag k="ssr:type" v="eid" />
	</node>
	<node id="-964" lat="58.9837916702" lon="5.72844165982">
		<tag k="natural" v="bay" />
		<tag k="old_name" v="Dreiersvigen" />
		<tag k="ssr:date" v="2016-05-10" />
		<tag k="ssr:gruppe" v="kystkontur" />
		<tag k="ssr:hovedgruppe" v="sjø" />
		<tag k="ssr:stedsnr" v="40002" />
		<tag k="ssr:type" v="vikISjø" />
	</node>
	<node id="-2243" lat="58.9705999993" lon="5.73597500003">
		<tag k="old_name" v="St. Peders Plads" />
		<tag k="place" v="square" />
		<tag k="ssr:date" v="2016-05-11" />
		<tag k="ssr:gruppe" v="bebyggelsesområder" />
		<tag k="ssr:hovedgruppe" v="bebyggelse" />
		<tag k="ssr:stedsnr" v="769468" />
		<tag k="ssr:type" v="torg" />
	</node>
	<node id="-1858" lat="58.9762888869" lon="5.74060833172">
		<tag k="old_name" v="Aarent" />
		<tag k="place" v="locality" />
		<tag k="ssr:date" v="2016-05-10" />
		<tag k="ssr:gruppe" v="flater" />
		<tag k="ssr:hovedgruppe" v="terreng" />
		<tag k="ssr:stedsnr" v="586461" />
		<tag k="ssr:type" v="slette" />
	</node>
	<node id="-1854" lat="58.9515388866" lon="5.72255833906">
		<tag k="old_name" v="Vaaland" />
		<tag k="place" v="locality" />
		<tag k="ssr:date" v="2016-05-10" />
		<tag k="ssr:gruppe" v="gardsbebyggelse" />
		<tag k="ssr:hovedgruppe" v="bebyggelse" />
		<tag k="ssr:stedsnr" v="585303" />
		<tag k="ssr:type" v="eiendom" />
	</node>
	<node id="-1210" lat="58.9791444402" lon="5.74444445162">
		<tag k="old_name" v="Udsigten" />
		<tag k="place" v="locality" />
		<tag k="ssr:date" v="2016-05-10" />
		<tag k="ssr:gruppe" v="terrengdetaljer" />
		<tag k="ssr:hovedgruppe" v="terreng" />
		<tag k="ssr:stedsnr" v="283436" />
		<tag k="ssr:type" v="annenTerrengdetalj" />
	</node>
	<node id="-1209" lat="58.9719250023" lon="5.73933054955">
		<tag k="old_name" v="Ny Fisketorv" />
		<tag k="place" v="square" />
		<tag k="ssr:date" v="2016-05-10" />
		<tag k="ssr:gruppe" v="bebyggelsesområder" />
		<tag k="ssr:hovedgruppe" v="bebyggelse" />
		<tag k="ssr:stedsnr" v="283402" />
		<tag k="ssr:type" v="torg" />
	</node>
	<node id="-1208" lat="58.955747219" lon="5.74611388127">
		<tag k="old_name" v="Strømmen" />
		<tag k="place" v="locality" />
		<tag k="ssr:date" v="2016-05-10" />
		<tag k="ssr:gruppe" v="detaljerIFerskvann" />
		<tag k="ssr:hovedgruppe" v="ferskvann" />
		<tag k="ssr:stedsnr" v="283375" />
		<tag k="ssr:type" v="annenVanndetalj" />
	</node>
	<node id="-1207" lat="58.9557250045" lon="5.74491667338">
		<tag k="old_name" v="Hillevaag" />
		<tag k="place" v="locality" />
		<tag k="ssr:date" v="2016-05-10" />
		<tag k="ssr:gruppe" v="gardsbebyggelse" />
		<tag k="ssr:hovedgruppe" v="bebyggelse" />
		<tag k="ssr:stedsnr" v="283373" />
		<tag k="ssr:type" v="eiendom" />
	</node>
	<node id="-1206" lat="58.9544027785" lon="5.74803333326">
		<tag k="old_name" v="Strømvig" />
		<tag k="place" v="locality" />
		<tag k="ssr:date" v="2016-05-10" />
		<tag k="ssr:gruppe" v="gardsbebyggelse" />
		<tag k="ssr:hovedgruppe" v="bebyggelse" />
		<tag k="ssr:stedsnr" v="283366" />
		<tag k="ssr:type" v="eiendom" />
	</node>
	<node id="-1842" lat="58.9621138868" lon="5.75383056363">
		<tag k="old_name" v="Fremad" />
		<tag k="place" v="locality" />
		<tag k="ssr:date" v="2016-05-11" />
		<tag k="ssr:gruppe" v="gardsbebyggelse" />
		<tag k="ssr:hovedgruppe" v="bebyggelse" />
		<tag k="ssr:stedsnr" v="707398" />
		<tag k="ssr:type" v="eiendom" />
	</node>
	<node id="-1199" lat="58.9563694437" lon="5.63041388556">
		<tag k="old_name" v="Rusket" />
		<tag k="place" v="locality" />
		<tag k="ssr:date" v="2016-05-10" />
		<tag k="ssr:gruppe" v="dyrkamark" />
		<tag k="ssr:hovedgruppe" v="markslag" />
		<tag k="ssr:stedsnr" v="282954" />
		<tag k="ssr:type" v="utmark" />
	</node>
	<node id="-939" lat="58.9570888846" lon="5.74266389059">
		<tag k="old_name" v="Strandheim" />
		<tag k="place" v="locality" />
		<tag k="ssr:date" v="2016-05-10" />
		<tag k="ssr:gruppe" v="gardsbebyggelse" />
		<tag k="ssr:hovedgruppe" v="bebyggelse" />
		<tag k="ssr:stedsnr" v="223453" />
		<tag k="ssr:type" v="eiendom" />
	</node>
	<node id="-938" lat="58.9561916697" lon="5.74053888069">
		<tag k="old_name" v="Vaaland" />
		<tag k="place" v="locality" />
		<tag k="ssr:date" v="2016-05-10" />
		<tag k="ssr:gruppe" v="gardsbebyggelse" />
		<tag k="ssr:hovedgruppe" v="bebyggelse" />
		<tag k="ssr:stedsnr" v="223451" />
		<tag k="ssr:type" v="eiendom" />
	</node>
	<node id="-1847" lat="58.9730861101" lon="5.7376194416">
		<tag k="man_made" v="quay" />
		<tag k="old_name" v="Sundtehullet" />
		<tag k="place" v="locality" />
		<tag k="ssr:date" v="2016-05-11" />
		<tag k="ssr:gruppe" v="sjøfart" />
		<tag k="ssr:hovedgruppe" v="infrastruktur" />
		<tag k="ssr:stedsnr" v="708472" />
		<tag k="ssr:type" v="brygge" />
	</node>
	<node id="-3236" lat="58.9763611131" lon="5.7377444524">
		<tag k="natural" v="cape" />
		<tag k="old_name" v="Maagenes" />
		<tag k="ssr:date" v="2016-05-10" />
		<tag k="ssr:gruppe" v="kystkontur" />
		<tag k="ssr:hovedgruppe" v="sjø" />
		<tag k="ssr:stedsnr" v="405479" />
		<tag k="ssr:type" v="nesISjø" />
	</node>
	<node id="-3235" lat="58.9542750016" lon="5.74155555601">
		<tag k="old_name" v="Nystuen" />
		<tag k="place" v="locality" />
		<tag k="ssr:date" v="2016-05-10" />
		<tag k="ssr:gruppe" v="gardsbebyggelse" />
		<tag k="ssr:hovedgruppe" v="bebyggelse" />
		<tag k="ssr:stedsnr" v="405458" />
		<tag k="ssr:type" v="eiendom" />
	</node>
	<node id="-3234" lat="58.9569777797" lon="5.74185832569">
		<tag k="old_name" v="Østerlide" />
		<tag k="place" v="locality" />
		<tag k="ssr:date" v="2016-05-10" />
		<tag k="ssr:gruppe" v="gardsbebyggelse" />
		<tag k="ssr:hovedgruppe" v="bebyggelse" />
		<tag k="ssr:stedsnr" v="405450" />
		<tag k="ssr:type" v="eiendom" />
	</node>
	<node id="-2849" lat="58.9721472194" lon="5.73572499614">
		<tag k="man_made" v="quay" />
		<tag k="old_name" v="Bispebryggen" />
		<tag k="place" v="locality" />
		<tag k="ssr:date" v="2016-05-10" />
		<tag k="ssr:gruppe" v="sjøfart" />
		<tag k="ssr:hovedgruppe" v="infrastruktur" />
		<tag k="ssr:stedsnr" v="162465" />
		<tag k="ssr:type" v="brygge" />
	</node>
	<node id="-2065" lat="58.9524500031" lon="5.71386110614">
		<tag k="old_name" v="Tjensvold" />
		<tag k="place" v="locality" />
		<tag k="ssr:date" v="2016-05-11" />
		<tag k="ssr:gruppe" v="gardsbebyggelse" />
		<tag k="ssr:hovedgruppe" v="bebyggelse" />
		<tag k="ssr:stedsnr" v="889335" />
		<tag k="ssr:type" v="eiendom" />
	</node>
	<node id="-1186" lat="58.9633805545" lon="5.76343888407">
		<tag k="old_name" v="Egeland" />
		<tag k="place" v="locality" />
		<tag k="ssr:date" v="2016-05-10" />
		<tag k="ssr:gruppe" v="gardsbebyggelse" />
		<tag k="ssr:hovedgruppe" v="bebyggelse" />
		<tag k="ssr:stedsnr" v="282358" />
		<tag k="ssr:type" v="eiendom" />
	</node>
	<node id="-3353" lat="58.9810055524" lon="5.74517499292">
		<tag k="natural" v="hill" />
		<tag k="old_name" v="Sørhaugen" />
		<tag k="place" v="locality" />
		<tag k="ssr:date" v="2016-05-10" />
		<tag k="ssr:gruppe" v="høyder" />
		<tag k="ssr:hovedgruppe" v="terreng" />
		<tag k="ssr:stedsnr" v="526491" />
		<tag k="ssr:type" v="haug" />
	</node>
	<node id="-3352" lat="58.9716611138" lon="5.7424555623">
		<tag k="old_name" v="Værks-almendingen" />
		<tag k="place" v="locality" />
		<tag k="ssr:date" v="2020-01-16" />
		<tag k="ssr:gruppe" v="verne-OgBruksområder" />
		<tag k="ssr:hovedgruppe" v="offentligAdministrasjon" />
		<tag k="ssr:stedsnr" v="526454" />
		<tag k="ssr:type" v="allmenning" />
	</node>
	<node id="-1187" lat="58.98696111" lon="5.72336944755">
		<tag k="natural" v="bay" />
		<tag k="old_name" v="Bertelsvigen" />
		<tag k="ssr:date" v="2016-05-10" />
		<tag k="ssr:gruppe" v="kystkontur" />
		<tag k="ssr:hovedgruppe" v="sjø" />
		<tag k="ssr:stedsnr" v="282374" />
		<tag k="ssr:type" v="vikISjø" />
	</node>
	<node id="-3139" lat="59.2278222247" lon="5.79390276992">
		<tag k="loc_name" v="Lagunene" />
		<tag k="natural" v="bay" />
		<tag k="ssr:date" v="2019-12-27" />
		<tag k="ssr:gruppe" v="kystkontur" />
		<tag k="ssr:hovedgruppe" v="sjø" />
		<tag k="ssr:stedsnr" v="363618" />
		<tag k="ssr:type" v="vågISjø" />
	</node>
	<node id="-1556" lat="58.9843472252" lon="5.72835277239">
		<tag k="natural" v="cape" />
		<tag k="old_name" v="Gunnarodden" />
		<tag k="ssr:date" v="2016-05-10" />
		<tag k="ssr:gruppe" v="kystkontur" />
		<tag k="ssr:hovedgruppe" v="sjø" />
		<tag k="ssr:stedsnr" v="403362" />
		<tag k="ssr:type" v="nesISjø" />
	</node>
	<node id="-1555" lat="58.9618305569" lon="5.75357778263">
		<tag k="old_name" v="Svingen" />
		<tag k="place" v="locality" />
		<tag k="ssr:date" v="2016-05-10" />
		<tag k="ssr:gruppe" v="gardsbebyggelse" />
		<tag k="ssr:hovedgruppe" v="bebyggelse" />
		<tag k="ssr:stedsnr" v="403354" />
		<tag k="ssr:type" v="eiendom" />
	</node>
	<node id="-2066" lat="58.9615138928" lon="5.76180277927">
		<tag k="old_name" v="Emaus" />
		<tag k="place" v="locality" />
		<tag k="ssr:date" v="2016-05-11" />
		<tag k="ssr:gruppe" v="gardsbebyggelse" />
		<tag k="ssr:hovedgruppe" v="bebyggelse" />
		<tag k="ssr:stedsnr" v="889369" />
		<tag k="ssr:type" v="eiendom" />
	</node>
	<node id="-2833" lat="58.8949777772" lon="5.70268611861">
		<tag k="loc_name" v="Forus" />
		<tag k="place" v="quarter" />
		<tag k="ssr:date" v="2016-05-10" />
		<tag k="ssr:gruppe" v="bebyggelsesområder" />
		<tag k="ssr:hovedgruppe" v="bebyggelse" />
		<tag k="ssr:stedsnr" v="145930" />
		<tag k="ssr:type" v="industriområde" />
	</node>
	<node id="-2448" lat="58.968792592" lon="5.72854475082">
		<tag k="fixme" v="consider place=suburb, village or hamlet" />
		<tag k="loc_name" v="Kleivå" />
		<tag k="place" v="quarter" />
		<tag k="ssr:date" v="2018-11-21" />
		<tag k="ssr:gruppe" v="bebyggelsesområder" />
		<tag k="ssr:hovedgruppe" v="bebyggelse" />
		<tag k="ssr:stedsnr" v="988465" />
		<tag k="ssr:type" v="tettbebyggelse" />
	</node>
	<node id="-2447" lat="58.9668468343" lon="5.72895991275">
		<tag k="fixme" v="consider place=suburb, village or hamlet" />
		<tag k="loc_name" v="St. Olav" />
		<tag k="place" v="quarter" />
		<tag k="ssr:date" v="2018-11-21" />
		<tag k="ssr:gruppe" v="bebyggelsesområder" />
		<tag k="ssr:hovedgruppe" v="bebyggelse" />
		<tag k="ssr:stedsnr" v="988464" />
		<tag k="ssr:type" v="tettbebyggelse" />
	</node>
	<node id="-1676" lat="58.9582750002" lon="5.74117777499">
		<tag k="old_name" v="Eilertsminde" />
		<tag k="place" v="locality" />
		<tag k="ssr:date" v="2016-05-10" />
		<tag k="ssr:gruppe" v="gardsbebyggelse" />
		<tag k="ssr:hovedgruppe" v="bebyggelse" />
		<tag k="ssr:stedsnr" v="465409" />
		<tag k="ssr:type" v="eiendom" />
	</node>
	<node id="-2242" lat="58.9781611663" lon="5.73906970211">
		<tag k="natural" v="strait" />
		<tag k="old_name" v="Piren" />
		<tag k="ssr:date" v="2018-06-22" />
		<tag k="ssr:gruppe" v="kystkontur" />
		<tag k="ssr:hovedgruppe" v="sjø" />
		<tag k="ssr:stedsnr" v="769456" />
		<tag k="ssr:type" v="sundISjø" />
	</node>
	<node id="-2826" lat="58.9483944478" lon="5.7462388845">
		<tag k="old_name" v="Hillevåg stoppeplass;Hillevåg" />
		<tag k="railway" v="halt" />
		<tag k="ssr:date" v="2016-05-10" />
		<tag k="ssr:gruppe" v="bane" />
		<tag k="ssr:hovedgruppe" v="infrastruktur" />
		<tag k="ssr:stedsnr" v="145181" />
		<tag k="ssr:type" v="holdeplass" />
		<tag k="train" v="yes" />
	</node>
	<node id="-2441" lat="59.1004100687" lon="5.70386449276">
		<tag k="loc_name" v="Paradis" />
		<tag k="place" v="quarter" />
		<tag k="ssr:date" v="2019-12-27" />
		<tag k="ssr:gruppe" v="bebyggelsesområder" />
		<tag k="ssr:hovedgruppe" v="bebyggelse" />
		<tag k="ssr:stedsnr" v="982029" />
		<tag k="ssr:type" v="boligfelt" />
	</node>
	<node id="-2440" lat="59.0986235095" lon="5.70267380414">
		<tag k="loc_name" v="Vik" />
		<tag k="place" v="quarter" />
		<tag k="ssr:date" v="2019-12-27" />
		<tag k="ssr:gruppe" v="bebyggelsesområder" />
		<tag k="ssr:hovedgruppe" v="bebyggelse" />
		<tag k="ssr:stedsnr" v="982028" />
		<tag k="ssr:type" v="boligfelt" />
	</node>
	<node id="-2839" lat="58.9624527737" lon="5.75548610394">
		<tag k="old_name" v="Sletten" />
		<tag k="place" v="locality" />
		<tag k="ssr:date" v="2016-05-10" />
		<tag k="ssr:gruppe" v="gardsbebyggelse" />
		<tag k="ssr:hovedgruppe" v="bebyggelse" />
		<tag k="ssr:stedsnr" v="160344" />
		<tag k="ssr:type" v="eiendom" />
	</node>
	<node id="-3222" lat="58.9641444425" lon="5.75698055568">
		<tag k="old_name" v="Krossen" />
		<tag k="place" v="locality" />
		<tag k="ssr:date" v="2016-05-10" />
		<tag k="ssr:gruppe" v="gardsbebyggelse" />
		<tag k="ssr:hovedgruppe" v="bebyggelse" />
		<tag k="ssr:stedsnr" v="403369" />
		<tag k="ssr:type" v="eiendom" />
	</node>
	<node id="-2690" lat="58.9602166702" lon="5.749433341">
		<tag k="old_name" v="Rosenlund" />
		<tag k="place" v="locality" />
		<tag k="ssr:date" v="2016-05-10" />
		<tag k="ssr:gruppe" v="gardsbebyggelse" />
		<tag k="ssr:hovedgruppe" v="bebyggelse" />
		<tag k="ssr:stedsnr" v="101426" />
		<tag k="ssr:type" v="eiendom" />
	</node>
	<node id="-2689" lat="58.9567999964" lon="5.74578889039">
		<tag k="old_name" v="Sollid" />
		<tag k="place" v="locality" />
		<tag k="ssr:date" v="2016-05-10" />
		<tag k="ssr:gruppe" v="gardsbebyggelse" />
		<tag k="ssr:hovedgruppe" v="bebyggelse" />
		<tag k="ssr:stedsnr" v="101424" />
		<tag k="ssr:type" v="eiendom" />
	</node>
</osm>
