<?xml version="1.0" encoding="UTF-8"?>
<osm generator="osmapis" version="0.6">
	<node id="-9209" lat="58.9689868968" lon="5.72885613415">
		<tag k="alt_name" v="Stavanger" />
		<tag k="name" v="Stavanger kommune" />
		<tag k="ssr:date" v="2019-12-17" />
		<tag k="ssr:gruppe" v="administrativeIndelinger" />
		<tag k="ssr:hovedgruppe" v="offentligAdministrasjon" />
		<tag k="ssr:stedsnr" v="631869" />
		<tag k="ssr:type" v="kommune" />
	</node>
	<node id="-7671" lat="59.1297305555" lon="5.94596111811">
		<tag k="name" v="Sørvåggrunnen lanterne" />
		<tag k="ssr:date" v="2019-12-27" />
		<tag k="ssr:gruppe" v="navigasjon" />
		<tag k="ssr:hovedgruppe" v="infrastruktur" />
		<tag k="ssr:stedsnr" v="708006" />
		<tag k="ssr:type" v="lanterne" />
	</node>
	<node id="-7669" lat="58.9859694476" lon="5.76178610327">
		<tag k="name" v="Ormøy søre" />
		<tag k="ssr:date" v="2016-05-11" />
		<tag k="ssr:gruppe" v="navigasjon" />
		<tag k="ssr:hovedgruppe" v="infrastruktur" />
		<tag k="ssr:stedsnr" v="891775" />
		<tag k="ssr:type" v="lanterne" />
	</node>
	<node id="-7143" lat="59.1554916706" lon="5.96959166987">
		<tag k="name" v="Skarveskjer" />
		<tag k="ssr:date" v="2019-12-27" />
		<tag k="ssr:gruppe" v="navigasjon" />
		<tag k="ssr:hovedgruppe" v="infrastruktur" />
		<tag k="ssr:stedsnr" v="404014" />
		<tag k="ssr:type" v="lanterne" />
	</node>
	<node id="-8671" lat="59.1410083327" lon="5.85009167418">
		<tag k="name" v="Espholmflu" />
		<tag k="ssr:date" v="2019-12-27" />
		<tag k="ssr:gruppe" v="navigasjon" />
		<tag k="ssr:hovedgruppe" v="infrastruktur" />
		<tag k="ssr:stedsnr" v="344072" />
		<tag k="ssr:type" v="lanterne" />
	</node>
	<node id="-8670" lat="59.148808332" lon="5.95249721879">
		<tag k="name" v="Teistholmgrunnen lanterne" />
		<tag k="ssr:date" v="2019-12-27" />
		<tag k="ssr:gruppe" v="navigasjon" />
		<tag k="ssr:hovedgruppe" v="infrastruktur" />
		<tag k="ssr:stedsnr" v="344011" />
		<tag k="ssr:type" v="lanterne" />
	</node>
	<node id="-6621" lat="59.051402774" lon="5.68881111616">
		<tag k="name" v="Skarvaskjer" />
		<tag k="ssr:date" v="2019-12-27" />
		<tag k="ssr:gruppe" v="navigasjon" />
		<tag k="ssr:hovedgruppe" v="infrastruktur" />
		<tag k="ssr:stedsnr" v="241493" />
		<tag k="ssr:type" v="lanterne" />
	</node>
	<node id="-8156" lat="58.9704388924" lon="5.73320555732">
		<tag k="name" v="Lønningssmauet" />
		<tag k="ssr:date" v="2019-05-30" />
		<tag k="ssr:gruppe" v="veg" />
		<tag k="ssr:hovedgruppe" v="infrastruktur" />
		<tag k="ssr:stedsnr" v="59951" />
		<tag k="ssr:type" v="adressenavn" />
	</node>
	<node id="-6616" lat="58.9883222265" lon="5.68823888671">
		<tag k="name" v="Wilhelm Retz' gate" />
		<tag k="ssr:date" v="2019-05-30" />
		<tag k="ssr:gruppe" v="veg" />
		<tag k="ssr:hovedgruppe" v="infrastruktur" />
		<tag k="ssr:stedsnr" v="239122" />
		<tag k="ssr:type" v="adressenavn" />
	</node>
	<node id="-9168" lat="59.1086111131" lon="5.59581111911">
		<tag k="alt_name" v="Sorgenfri lykt" />
		<tag k="name" v="Mastrafjord" />
		<tag k="ssr:date" v="2019-12-27" />
		<tag k="ssr:gruppe" v="navigasjon" />
		<tag k="ssr:hovedgruppe" v="infrastruktur" />
		<tag k="ssr:stedsnr" v="608382" />
		<tag k="ssr:type" v="fyrlykt" />
	</node>
	<node id="-8439" lat="59.0430000043" lon="5.67128888114">
		<tag k="name" v="Austnesgrunnen lanterne" />
		<tag k="ssr:date" v="2019-12-27" />
		<tag k="ssr:gruppe" v="navigasjon" />
		<tag k="ssr:hovedgruppe" v="infrastruktur" />
		<tag k="ssr:stedsnr" v="163543" />
		<tag k="ssr:type" v="lanterne" />
	</node>
	<node id="-8438" lat="59.0340158212" lon="5.75110443709">
		<tag k="name" v="Vågholmen lanterne" />
		<tag k="ssr:date" v="2019-12-27" />
		<tag k="ssr:gruppe" v="navigasjon" />
		<tag k="ssr:hovedgruppe" v="infrastruktur" />
		<tag k="ssr:stedsnr" v="163638" />
		<tag k="ssr:type" v="lanterne" />
	</node>
	<node id="-8130" lat="58.9999067166" lon="5.80611900716">
		<tag k="name" v="Revingen lanterne" />
		<tag k="ssr:date" v="2016-12-29" />
		<tag k="ssr:gruppe" v="navigasjon" />
		<tag k="ssr:hovedgruppe" v="infrastruktur" />
		<tag k="ssr:stedsnr" v="41749" />
		<tag k="ssr:type" v="lanterne" />
	</node>
	<node id="-8128" lat="58.985144442" lon="5.75939166775">
		<tag k="name" v="Steinsøyskjeret lanterne" />
		<tag k="ssr:date" v="2016-05-10" />
		<tag k="ssr:gruppe" v="navigasjon" />
		<tag k="ssr:hovedgruppe" v="infrastruktur" />
		<tag k="ssr:stedsnr" v="41740" />
		<tag k="ssr:type" v="lanterne" />
	</node>
	<node id="-8635" lat="59.2040416651" lon="5.92020556324">
		<tag k="name" v="Øksnes" />
		<tag k="ssr:date" v="2019-12-27" />
		<tag k="ssr:gruppe" v="navigasjon" />
		<tag k="ssr:hovedgruppe" v="infrastruktur" />
		<tag k="ssr:stedsnr" v="324962" />
		<tag k="ssr:type" v="fyrlykt" />
	</node>
	<node id="-7605" lat="59.198222225" lon="5.8665805521">
		<tag k="name" v="Kjeringgrunnen lanterne" />
		<tag k="ssr:date" v="2019-12-27" />
		<tag k="ssr:gruppe" v="navigasjon" />
		<tag k="ssr:hovedgruppe" v="infrastruktur" />
		<tag k="ssr:stedsnr" v="647206" />
		<tag k="ssr:type" v="lanterne" />
	</node>
	<node id="-9646" lat="58.9644480299" lon="5.69759654393">
		<tag k="name" v="Kaprifolkroken" />
		<tag k="ssr:date" v="2019-05-30" />
		<tag k="ssr:gruppe" v="veg" />
		<tag k="ssr:hovedgruppe" v="infrastruktur" />
		<tag k="ssr:stedsnr" v="975745" />
		<tag k="ssr:type" v="adressenavn" />
	</node>
	<node id="-7596" lat="58.9452638123" lon="5.72960289651">
		<tag k="name" v="Hillevåg" />
		<tag k="ssr:date" v="2016-10-06" />
		<tag k="ssr:gruppe" v="administrativeIndelinger" />
		<tag k="ssr:hovedgruppe" v="offentligAdministrasjon" />
		<tag k="ssr:stedsnr" v="645544" />
		<tag k="ssr:type" v="administrativBydel" />
	</node>
	<node id="-9643" lat="58.9139878013" lon="5.682036497">
		<tag k="name" v="Marknesringen" />
		<tag k="ssr:date" v="2019-05-30" />
		<tag k="ssr:gruppe" v="veg" />
		<tag k="ssr:hovedgruppe" v="infrastruktur" />
		<tag k="ssr:stedsnr" v="975714" />
		<tag k="ssr:type" v="adressenavn" />
	</node>
	<node id="-7081" lat="58.9755427681" lon="5.73331906267">
		<tag k="alt_name" v="Østre Plentinggrunnen" />
		<tag k="name" v="Nordre Plentinggrunnen lanterne" />
		<tag k="ssr:date" v="2016-12-30" />
		<tag k="ssr:gruppe" v="navigasjon" />
		<tag k="ssr:hovedgruppe" v="infrastruktur" />
		<tag k="ssr:stedsnr" v="345824" />
		<tag k="ssr:type" v="lanterne" />
	</node>
	<node id="-7080" lat="58.9528171395" lon="5.77364087696">
		<tag k="name" v="Gansflu" />
		<tag k="ssr:date" v="2016-10-11" />
		<tag k="ssr:gruppe" v="navigasjon" />
		<tag k="ssr:hovedgruppe" v="infrastruktur" />
		<tag k="ssr:stedsnr" v="345823" />
		<tag k="ssr:type" v="lanterne" />
	</node>
	<node id="-9638" lat="58.9753282013" lon="5.73255513532">
		<tag k="name" v="Søre Plentinggrunnen lanterne" />
		<tag k="ssr:date" v="2016-12-29" />
		<tag k="ssr:gruppe" v="navigasjon" />
		<tag k="ssr:hovedgruppe" v="infrastruktur" />
		<tag k="ssr:stedsnr" v="973632" />
		<tag k="ssr:type" v="lanterne" />
	</node>
	<node id="-7589" lat="59.2671777779" lon="5.84246111823">
		<tag k="alt_name" v="Furasundet" />
		<tag k="name" v="Furasundet lykt" />
		<tag k="old_name" v="Furasund;Forasund" />
		<tag k="ssr:date" v="2019-12-27" />
		<tag k="ssr:gruppe" v="navigasjon" />
		<tag k="ssr:hovedgruppe" v="infrastruktur" />
		<tag k="ssr:stedsnr" v="730662" />
		<tag k="ssr:type" v="fyrlykt" />
	</node>
	<node id="-9635" lat="58.9717801647" lon="5.8041409426">
		<tag k="name" v="Fladaskjergrunnen lanterne" />
		<tag k="ssr:date" v="2016-10-12" />
		<tag k="ssr:gruppe" v="navigasjon" />
		<tag k="ssr:hovedgruppe" v="infrastruktur" />
		<tag k="ssr:stedsnr" v="972039" />
		<tag k="ssr:type" v="lanterne" />
	</node>
	<node id="-6557" lat="58.988188376" lon="5.75473762233">
		<tag k="name" v="Dynamittskjeret lanterne" />
		<tag k="ssr:date" v="2016-12-28" />
		<tag k="ssr:gruppe" v="navigasjon" />
		<tag k="ssr:hovedgruppe" v="infrastruktur" />
		<tag k="ssr:stedsnr" v="41756" />
		<tag k="ssr:type" v="lanterne" />
	</node>
	<node id="-6556" lat="59.0053861075" lon="5.78895277374">
		<tag k="name" v="Vassøy, nordre" />
		<tag k="ssr:date" v="2016-05-10" />
		<tag k="ssr:gruppe" v="navigasjon" />
		<tag k="ssr:hovedgruppe" v="infrastruktur" />
		<tag k="ssr:stedsnr" v="41752" />
		<tag k="ssr:type" v="lanterne" />
	</node>
	<node id="-6546" lat="58.9528373964" lon="5.64478972501">
		<tag k="name" v="Madla" />
		<tag k="ssr:date" v="2016-10-06" />
		<tag k="ssr:gruppe" v="administrativeIndelinger" />
		<tag k="ssr:hovedgruppe" v="offentligAdministrasjon" />
		<tag k="ssr:stedsnr" v="39602" />
		<tag k="ssr:type" v="administrativBydel" />
	</node>
	<node id="-6537" lat="59.20186254" lon="5.82900103828">
		<tag k="alt_name" v="Høna" />
		<tag k="name" v="Høna lykt" />
		<tag k="ssr:date" v="2019-12-27" />
		<tag k="ssr:gruppe" v="navigasjon" />
		<tag k="ssr:hovedgruppe" v="infrastruktur" />
		<tag k="ssr:stedsnr" v="26811" />
		<tag k="ssr:type" v="fyrlykt" />
	</node>
	<node id="-6532" lat="58.9794845241" lon="5.72842673389">
		<tag k="name" v="Majoren" />
		<tag k="ssr:date" v="2016-12-08" />
		<tag k="ssr:gruppe" v="navigasjon" />
		<tag k="ssr:hovedgruppe" v="infrastruktur" />
		<tag k="ssr:stedsnr" v="224832" />
		<tag k="ssr:type" v="lanterne" />
	</node>
	<node id="-9088" lat="58.9855027764" lon="5.77013610583">
		<tag k="name" v="Kuppholmen lanterne" />
		<tag k="ssr:date" v="2016-05-10" />
		<tag k="ssr:gruppe" v="navigasjon" />
		<tag k="ssr:hovedgruppe" v="infrastruktur" />
		<tag k="ssr:stedsnr" v="587762" />
		<tag k="ssr:type" v="lanterne" />
	</node>
	<node id="-9087" lat="58.9950472207" lon="5.77730554953">
		<tag k="name" v="Vassøygrunnen" />
		<tag k="ssr:date" v="2016-05-10" />
		<tag k="ssr:gruppe" v="navigasjon" />
		<tag k="ssr:hovedgruppe" v="infrastruktur" />
		<tag k="ssr:stedsnr" v="587760" />
		<tag k="ssr:type" v="lanterne" />
	</node>
	<node id="-9078" lat="59.1344055541" lon="5.89343610824">
		<tag k="name" v="Sauholmgrunnen lanterne" />
		<tag k="ssr:date" v="2019-12-27" />
		<tag k="ssr:gruppe" v="navigasjon" />
		<tag k="ssr:hovedgruppe" v="infrastruktur" />
		<tag k="ssr:stedsnr" v="586010" />
		<tag k="ssr:type" v="lanterne" />
	</node>
	<node id="-8045" lat="59.2310642198" lon="5.88283830249">
		<tag k="name" v="Hidleholmen" />
		<tag k="ssr:date" v="2019-12-27" />
		<tag k="ssr:gruppe" v="veg" />
		<tag k="ssr:hovedgruppe" v="infrastruktur" />
		<tag k="ssr:stedsnr" v="1073503" />
		<tag k="ssr:type" v="adressenavn" />
	</node>
	<node id="-8044" lat="59.2772840322" lon="5.87466047947">
		<tag k="name" v="Slåttholmen" />
		<tag k="ssr:date" v="2019-12-27" />
		<tag k="ssr:gruppe" v="veg" />
		<tag k="ssr:hovedgruppe" v="infrastruktur" />
		<tag k="ssr:stedsnr" v="1073500" />
		<tag k="ssr:type" v="adressenavn" />
	</node>
	<node id="-8043" lat="59.2451133936" lon="5.79425970844">
		<tag k="name" v="Hestatongane" />
		<tag k="ssr:date" v="2019-12-27" />
		<tag k="ssr:gruppe" v="veg" />
		<tag k="ssr:hovedgruppe" v="infrastruktur" />
		<tag k="ssr:stedsnr" v="1073474" />
		<tag k="ssr:type" v="adressenavn" />
	</node>
	<node id="-8042" lat="59.2557423777" lon="5.78796082161">
		<tag k="name" v="Lundarøy" />
		<tag k="ssr:date" v="2019-12-27" />
		<tag k="ssr:gruppe" v="veg" />
		<tag k="ssr:hovedgruppe" v="infrastruktur" />
		<tag k="ssr:stedsnr" v="1073473" />
		<tag k="ssr:type" v="adressenavn" />
	</node>
	<node id="-8041" lat="59.1623743131" lon="5.95535078914">
		<tag k="name" v="Sør-Tjørna" />
		<tag k="ssr:date" v="2019-12-27" />
		<tag k="ssr:gruppe" v="veg" />
		<tag k="ssr:hovedgruppe" v="infrastruktur" />
		<tag k="ssr:stedsnr" v="1073459" />
		<tag k="ssr:type" v="adressenavn" />
	</node>
	<node id="-8040" lat="59.1681908822" lon="5.95009010855">
		<tag k="name" v="Nord-Tjørna" />
		<tag k="ssr:date" v="2019-12-27" />
		<tag k="ssr:gruppe" v="veg" />
		<tag k="ssr:hovedgruppe" v="infrastruktur" />
		<tag k="ssr:stedsnr" v="1073460" />
		<tag k="ssr:type" v="adressenavn" />
	</node>
	<node id="-8039" lat="59.1613855777" lon="5.95036389721">
		<tag k="name" v="Måløya" />
		<tag k="ssr:date" v="2019-12-27" />
		<tag k="ssr:gruppe" v="veg" />
		<tag k="ssr:hovedgruppe" v="infrastruktur" />
		<tag k="ssr:stedsnr" v="1073458" />
		<tag k="ssr:type" v="adressenavn" />
	</node>
	<node id="-8038" lat="59.1528234216" lon="5.97425467312">
		<tag k="name" v="Lyngholmen" />
		<tag k="ssr:date" v="2019-12-27" />
		<tag k="ssr:gruppe" v="veg" />
		<tag k="ssr:hovedgruppe" v="infrastruktur" />
		<tag k="ssr:stedsnr" v="1073449" />
		<tag k="ssr:type" v="adressenavn" />
	</node>
	<node id="-8037" lat="59.0421441286" lon="5.68547897459">
		<tag k="name" v="Storevollen" />
		<tag k="ssr:date" v="2019-12-27" />
		<tag k="ssr:gruppe" v="veg" />
		<tag k="ssr:hovedgruppe" v="infrastruktur" />
		<tag k="ssr:stedsnr" v="1032220" />
		<tag k="ssr:type" v="adressenavn" />
	</node>
	<node id="-8036" lat="58.9658580682" lon="5.61771154054">
		<tag k="name" v="Porsageilen" />
		<tag k="old_name" v="Vei 3713" />
		<tag k="ssr:date" v="2020-02-18" />
		<tag k="ssr:gruppe" v="veg" />
		<tag k="ssr:hovedgruppe" v="infrastruktur" />
		<tag k="ssr:stedsnr" v="1027223" />
		<tag k="ssr:type" v="adressenavn" />
	</node>
	<node id="-6498" lat="59.2505166636" lon="5.82293055731">
		<tag k="name" v="Stornes lanterne" />
		<tag k="ssr:date" v="2019-12-27" />
		<tag k="ssr:gruppe" v="navigasjon" />
		<tag k="ssr:hovedgruppe" v="infrastruktur" />
		<tag k="ssr:stedsnr" v="221614" />
		<tag k="ssr:type" v="lanterne" />
	</node>
	<node id="-6497" lat="59.246033332" lon="5.82741945158">
		<tag k="name" v="Tjul varde" />
		<tag k="ssr:date" v="2019-12-27" />
		<tag k="ssr:gruppe" v="navigasjon" />
		<tag k="ssr:hovedgruppe" v="infrastruktur" />
		<tag k="ssr:stedsnr" v="221613" />
		<tag k="ssr:type" v="lanterne" />
	</node>
	<node id="-8029" lat="58.9842762704" lon="5.81748418313">
		<tag k="name" v="Tunsøy" />
		<tag k="ssr:date" v="2019-05-30" />
		<tag k="ssr:gruppe" v="veg" />
		<tag k="ssr:hovedgruppe" v="infrastruktur" />
		<tag k="ssr:stedsnr" v="985713" />
		<tag k="ssr:type" v="adressenavn" />
	</node>
	<node id="-8028" lat="58.9875324779" lon="5.75057473725">
		<tag k="name" v="Steinsøy" />
		<tag k="ssr:date" v="2019-05-30" />
		<tag k="ssr:gruppe" v="veg" />
		<tag k="ssr:hovedgruppe" v="infrastruktur" />
		<tag k="ssr:stedsnr" v="985710" />
		<tag k="ssr:type" v="adressenavn" />
	</node>
	<node id="-8027" lat="58.9770973962" lon="5.73525253335">
		<tag k="name" v="Natvigs Minne" />
		<tag k="ssr:date" v="2019-05-30" />
		<tag k="ssr:gruppe" v="veg" />
		<tag k="ssr:hovedgruppe" v="infrastruktur" />
		<tag k="ssr:stedsnr" v="985709" />
		<tag k="ssr:type" v="adressenavn" />
	</node>
	<node id="-8026" lat="58.9878740291" lon="5.76815187457">
		<tag k="name" v="Midtholmen" />
		<tag k="ssr:date" v="2019-05-30" />
		<tag k="ssr:gruppe" v="veg" />
		<tag k="ssr:hovedgruppe" v="infrastruktur" />
		<tag k="ssr:stedsnr" v="985708" />
		<tag k="ssr:type" v="adressenavn" />
	</node>
	<node id="-7820" lat="59.1004361086" lon="5.70032776955">
		<tag k="name" v="Vikebekken" />
		<tag k="ssr:date" v="2019-12-27" />
		<tag k="ssr:gruppe" v="veg" />
		<tag k="ssr:hovedgruppe" v="infrastruktur" />
		<tag k="ssr:stedsnr" v="768282" />
		<tag k="ssr:type" v="adressenavn" />
	</node>
	<node id="-8022" lat="58.9725684175" lon="5.73143073229">
		<tag k="name" v="Valbergsmauet" />
		<tag k="ssr:date" v="2019-05-30" />
		<tag k="ssr:gruppe" v="veg" />
		<tag k="ssr:hovedgruppe" v="infrastruktur" />
		<tag k="ssr:stedsnr" v="980237" />
		<tag k="ssr:type" v="adressenavn" />
	</node>
	<node id="-8016" lat="58.9718484506" lon="5.73285072685">
		<tag k="name" v="Netlandsmauet" />
		<tag k="ssr:date" v="2019-05-30" />
		<tag k="ssr:gruppe" v="veg" />
		<tag k="ssr:hovedgruppe" v="infrastruktur" />
		<tag k="ssr:stedsnr" v="980222" />
		<tag k="ssr:type" v="adressenavn" />
	</node>
	<node id="-9038" lat="58.9932777762" lon="5.80740556123">
		<tag k="name" v="Lindøysund" />
		<tag k="ssr:date" v="2016-05-10" />
		<tag k="ssr:gruppe" v="navigasjon" />
		<tag k="ssr:hovedgruppe" v="infrastruktur" />
		<tag k="ssr:stedsnr" v="566969" />
		<tag k="ssr:type" v="fyrlykt" />
	</node>
	<node id="-8013" lat="58.9704212266" lon="5.73158598672">
		<tag k="name" v="Lindahlssmauet" />
		<tag k="ssr:date" v="2019-05-30" />
		<tag k="ssr:gruppe" v="veg" />
		<tag k="ssr:hovedgruppe" v="infrastruktur" />
		<tag k="ssr:stedsnr" v="980214" />
		<tag k="ssr:type" v="adressenavn" />
	</node>
	<node id="-8007" lat="58.9658844496" lon="5.71379360213">
		<tag k="name" v="Eiganes og Våland" />
		<tag k="ssr:date" v="2016-10-05" />
		<tag k="ssr:gruppe" v="administrativeIndelinger" />
		<tag k="ssr:hovedgruppe" v="offentligAdministrasjon" />
		<tag k="ssr:stedsnr" v="971953" />
		<tag k="ssr:type" v="administrativBydel" />
	</node>
	<node id="-8006" lat="58.985113465" lon="5.69146192367">
		<tag k="name" v="Tasta" />
		<tag k="ssr:date" v="2016-10-05" />
		<tag k="ssr:gruppe" v="administrativeIndelinger" />
		<tag k="ssr:hovedgruppe" v="offentligAdministrasjon" />
		<tag k="ssr:stedsnr" v="971948" />
		<tag k="ssr:type" v="administrativBydel" />
	</node>
	<node id="-8005" lat="58.9945958634" lon="5.73716656434">
		<tag k="name" v="Hundvåg" />
		<tag k="ssr:date" v="2016-10-05" />
		<tag k="ssr:gruppe" v="administrativeIndelinger" />
		<tag k="ssr:hovedgruppe" v="offentligAdministrasjon" />
		<tag k="ssr:stedsnr" v="971947" />
		<tag k="ssr:type" v="administrativBydel" />
	</node>
	<node id="-8004" lat="58.9684732579" lon="5.75555024505">
		<tag k="name" v="Storhaug" />
		<tag k="ssr:date" v="2016-10-05" />
		<tag k="ssr:gruppe" v="administrativeIndelinger" />
		<tag k="ssr:hovedgruppe" v="offentligAdministrasjon" />
		<tag k="ssr:stedsnr" v="971943" />
		<tag k="ssr:type" v="administrativBydel" />
	</node>
	<node id="-9537" lat="59.1546833342" lon="5.77244165957">
		<tag k="alt_name" v="Vignes" />
		<tag k="name" v="Vignes lykt" />
		<tag k="ssr:date" v="2019-12-27" />
		<tag k="ssr:gruppe" v="navigasjon" />
		<tag k="ssr:hovedgruppe" v="infrastruktur" />
		<tag k="ssr:stedsnr" v="851252" />
		<tag k="ssr:type" v="fyrlykt" />
	</node>
	<node id="-9523" lat="58.9643472218" lon="5.61611388982">
		<tag k="name" v="Porsaleitet" />
		<tag k="ssr:date" v="2019-05-30" />
		<tag k="ssr:gruppe" v="veg" />
		<tag k="ssr:hovedgruppe" v="infrastruktur" />
		<tag k="ssr:stedsnr" v="849686" />
		<tag k="ssr:type" v="adressenavn" />
	</node>
	<node id="-7473" lat="58.92264722" lon="5.72375277423">
		<tag k="name" v="Hinna" />
		<tag k="ssr:date" v="2016-10-05" />
		<tag k="ssr:gruppe" v="administrativeIndelinger" />
		<tag k="ssr:hovedgruppe" v="offentligAdministrasjon" />
		<tag k="ssr:stedsnr" v="607010" />
		<tag k="ssr:type" v="administrativBydel" />
	</node>
	<node id="-6960" lat="58.9977305583" lon="5.77353610413">
		<tag k="name" v="Hestholmen lanterne" />
		<tag k="ssr:date" v="2016-05-10" />
		<tag k="ssr:gruppe" v="navigasjon" />
		<tag k="ssr:hovedgruppe" v="infrastruktur" />
		<tag k="ssr:stedsnr" v="466761" />
		<tag k="ssr:type" v="lanterne" />
	</node>
	<node id="-6949" lat="58.9746533388" lon="5.80068588892">
		<tag k="name" v="Fladaskjeret lanterne" />
		<tag k="ssr:date" v="2016-10-12" />
		<tag k="ssr:gruppe" v="navigasjon" />
		<tag k="ssr:hovedgruppe" v="infrastruktur" />
		<tag k="ssr:stedsnr" v="464784" />
		<tag k="ssr:type" v="lanterne" />
	</node>
	<node id="-9505" lat="58.9702138898" lon="5.73134721938">
		<tag k="name" v="Torget" />
		<tag k="ssr:date" v="2019-05-30" />
		<tag k="ssr:gruppe" v="veg" />
		<tag k="ssr:hovedgruppe" v="infrastruktur" />
		<tag k="ssr:stedsnr" v="849038" />
		<tag k="ssr:type" v="adressenavn" />
	</node>
	<node id="-9497" lat="59.0583861138" lon="5.7033750041">
		<tag k="name" v="Skorpeskjer" />
		<tag k="ssr:date" v="2019-12-27" />
		<tag k="ssr:gruppe" v="navigasjon" />
		<tag k="ssr:hovedgruppe" v="infrastruktur" />
		<tag k="ssr:stedsnr" v="844477" />
		<tag k="ssr:type" v="lanterne" />
	</node>
	<node id="-9496" lat="58.987112521" lon="5.71362722011">
		<tag k="alt_name" v="Vestre Ulsnesgrunnen" />
		<tag k="name" v="Ulsnesgrunnen lanterne" />
		<tag k="ssr:date" v="2016-12-29" />
		<tag k="ssr:gruppe" v="navigasjon" />
		<tag k="ssr:hovedgruppe" v="infrastruktur" />
		<tag k="ssr:stedsnr" v="844475" />
		<tag k="ssr:type" v="lanterne" />
	</node>
	<node id="-7084" lat="59.2744277764" lon="5.92482222977">
		<tag k="alt_name" v="Ombo" />
		<tag k="name" v="Ombo lykt" />
		<tag k="ssr:date" v="2019-12-27" />
		<tag k="ssr:gruppe" v="navigasjon" />
		<tag k="ssr:hovedgruppe" v="infrastruktur" />
		<tag k="ssr:stedsnr" v="487626" />
		<tag k="ssr:type" v="fyrlykt" />
	</node>
	<node id="-9468" lat="59.0255472226" lon="5.66508055967">
		<tag k="name" v="Persholmen lanterne" />
		<tag k="ssr:date" v="2019-12-27" />
		<tag k="ssr:gruppe" v="navigasjon" />
		<tag k="ssr:hovedgruppe" v="infrastruktur" />
		<tag k="ssr:stedsnr" v="831767" />
		<tag k="ssr:type" v="lanterne" />
	</node>
	<node id="-9467" lat="59.0356222185" lon="5.66539445034">
		<tag k="name" v="Linegrunnen lanterne" />
		<tag k="old_name" v="Lingegrunnen" />
		<tag k="ssr:date" v="2019-12-27" />
		<tag k="ssr:gruppe" v="navigasjon" />
		<tag k="ssr:hovedgruppe" v="infrastruktur" />
		<tag k="ssr:stedsnr" v="831766" />
		<tag k="ssr:type" v="lanterne" />
	</node>
	<node id="-9463" lat="59.0052861089" lon="5.78537221508">
		<tag k="name" v="Vassøysundet lanterne" />
		<tag k="ssr:date" v="2016-05-11" />
		<tag k="ssr:gruppe" v="navigasjon" />
		<tag k="ssr:hovedgruppe" v="infrastruktur" />
		<tag k="ssr:stedsnr" v="830767" />
		<tag k="ssr:type" v="lanterne" />
	</node>
	<node id="-6902" lat="59.0439364913" lon="5.68057707934">
		<tag k="name" v="Linesundet lykt" />
		<tag k="ssr:date" v="2019-12-27" />
		<tag k="ssr:gruppe" v="navigasjon" />
		<tag k="ssr:hovedgruppe" v="infrastruktur" />
		<tag k="ssr:stedsnr" v="244804" />
		<tag k="ssr:type" v="fyrlykt" />
	</node>
	<node id="-8435" lat="58.9971083367" lon="5.76835278137">
		<tag k="name" v="Roaldsøy, nordøstre" />
		<tag k="ssr:date" v="2016-05-10" />
		<tag k="ssr:gruppe" v="navigasjon" />
		<tag k="ssr:hovedgruppe" v="infrastruktur" />
		<tag k="ssr:stedsnr" v="162789" />
		<tag k="ssr:type" v="lanterne" />
	</node>
	<node id="-9458" lat="59.135869444" lon="5.79875000152">
		<tag k="name" v="Navarskjeret lanterne" />
		<tag k="ssr:date" v="2019-12-27" />
		<tag k="ssr:gruppe" v="navigasjon" />
		<tag k="ssr:hovedgruppe" v="infrastruktur" />
		<tag k="ssr:stedsnr" v="830074" />
		<tag k="ssr:type" v="lanterne" />
	</node>
	<node id="-7407" lat="59.265655556" lon="5.84044444724">
		<tag k="name" v="Kyrkjøyna lanterne" />
		<tag k="ssr:date" v="2019-12-27" />
		<tag k="ssr:gruppe" v="navigasjon" />
		<tag k="ssr:hovedgruppe" v="infrastruktur" />
		<tag k="ssr:stedsnr" v="706337" />
		<tag k="ssr:type" v="lanterne" />
	</node>
	<node id="-9447" lat="59.2454694489" lon="5.83962778557">
		<tag k="alt_name" v="Audbøneset lanterne" />
		<tag k="name" v="Aubøneset lanterne" />
		<tag k="ssr:date" v="2019-12-27" />
		<tag k="ssr:gruppe" v="navigasjon" />
		<tag k="ssr:hovedgruppe" v="infrastruktur" />
		<tag k="ssr:stedsnr" v="828620" />
		<tag k="ssr:type" v="lanterne" />
	</node>
	<node id="-6882" lat="58.9289583315" lon="5.73516667277">
		<tag k="name" v="Hindalskroken" />
		<tag k="ssr:date" v="2019-05-30" />
		<tag k="ssr:gruppe" v="veg" />
		<tag k="ssr:hovedgruppe" v="infrastruktur" />
		<tag k="ssr:stedsnr" v="242616" />
		<tag k="ssr:type" v="adressenavn" />
	</node>
	<node id="-9441" lat="59.0952416635" lon="5.87626667517">
		<tag k="name" v="Taade" />
		<tag k="ssr:date" v="2019-12-27" />
		<tag k="ssr:gruppe" v="navigasjon" />
		<tag k="ssr:hovedgruppe" v="infrastruktur" />
		<tag k="ssr:stedsnr" v="828424" />
		<tag k="ssr:type" v="lanterne" />
	</node>
	<node id="-6868" lat="59.0608222256" lon="5.68809722356">
		<tag k="name" v="Askjemarka" />
		<tag k="ssr:date" v="2019-12-27" />
		<tag k="ssr:gruppe" v="veg" />
		<tag k="ssr:hovedgruppe" v="infrastruktur" />
		<tag k="ssr:stedsnr" v="237004" />
		<tag k="ssr:type" v="adressenavn" />
	</node>
	<node id="-6865" lat="59.0308861122" lon="5.7509361193">
		<tag k="name" v="Storholmen lanterne" />
		<tag k="ssr:date" v="2016-05-10" />
		<tag k="ssr:gruppe" v="navigasjon" />
		<tag k="ssr:hovedgruppe" v="infrastruktur" />
		<tag k="ssr:stedsnr" v="224614" />
		<tag k="ssr:type" v="lanterne" />
	</node>
	<node id="-9421" lat="59.2274999976" lon="6.24720000827">
		<tag k="name" v="Ryfylke" />
		<tag k="ssr:date" v="2019-12-27" />
		<tag k="ssr:gruppe" v="terrengområder" />
		<tag k="ssr:hovedgruppe" v="terreng" />
		<tag k="ssr:stedsnr" v="813263" />
		<tag k="ssr:type" v="landskapsområde" />
	</node>
	<node id="-7363" lat="59.1354277764" lon="5.89404166589">
		<tag k="name" v="Uppsahlholmen" />
		<tag k="ssr:date" v="2019-12-27" />
		<tag k="ssr:gruppe" v="navigasjon" />
		<tag k="ssr:hovedgruppe" v="infrastruktur" />
		<tag k="ssr:stedsnr" v="526017" />
		<tag k="ssr:type" v="lanterne" />
	</node>
	<node id="-7357" lat="58.9647333358" lon="5.7311888923">
		<tag k="alt_name" v="Rogaland" />
		<tag k="name" v="Rogaland fylke" />
		<tag k="ssr:date" v="2019-12-27" />
		<tag k="ssr:gruppe" v="administrativeIndelinger" />
		<tag k="ssr:hovedgruppe" v="offentligAdministrasjon" />
		<tag k="ssr:stedsnr" v="511115" />
		<tag k="ssr:type" v="fylke" />
	</node>
	<node id="-7862" lat="58.9694138931" lon="5.73506110978">
		<tag k="name" v="Sigbjørn Obstfelders plass" />
		<tag k="ssr:date" v="2020-05-28" />
		<tag k="ssr:gruppe" v="veg" />
		<tag k="ssr:hovedgruppe" v="infrastruktur" />
		<tag k="ssr:stedsnr" v="931450" />
		<tag k="ssr:type" v="adressenavn" />
	</node>
	<node id="-9388" lat="58.9997434174" lon="5.67968310539">
		<tag k="name" v="Dusaviga lykt" />
		<tag k="ssr:date" v="2019-02-12" />
		<tag k="ssr:gruppe" v="navigasjon" />
		<tag k="ssr:hovedgruppe" v="infrastruktur" />
		<tag k="ssr:stedsnr" v="790800" />
		<tag k="ssr:type" v="fyrlykt" />
	</node>
	<node id="-7336" lat="58.9580361114" lon="5.7863888915">
		<tag k="name" v="Stora Marøya lanterne" />
		<tag k="ssr:date" v="2016-05-10" />
		<tag k="ssr:gruppe" v="navigasjon" />
		<tag k="ssr:hovedgruppe" v="infrastruktur" />
		<tag k="ssr:stedsnr" v="479472" />
		<tag k="ssr:type" v="lanterne" />
	</node>
	<node id="-7335" lat="58.9738166698" lon="5.75108055979">
		<tag k="name" v="Strømsteinen lanterne" />
		<tag k="old_name" v="Stavanger brygge" />
		<tag k="ssr:date" v="2016-12-14" />
		<tag k="ssr:gruppe" v="navigasjon" />
		<tag k="ssr:hovedgruppe" v="infrastruktur" />
		<tag k="ssr:stedsnr" v="479471" />
		<tag k="ssr:type" v="lanterne" />
	</node>
	<node id="-8337" lat="59.0676750032" lon="5.71293611372">
		<tag k="name" v="Heimdrag lanterne" />
		<tag k="ssr:date" v="2019-12-27" />
		<tag k="ssr:gruppe" v="navigasjon" />
		<tag k="ssr:hovedgruppe" v="infrastruktur" />
		<tag k="ssr:stedsnr" v="120531" />
		<tag k="ssr:type" v="lanterne" />
	</node>
	<node id="-6800" lat="59.1017888888" lon="5.70227777075">
		<tag k="name" v="Vikestubben" />
		<tag k="ssr:date" v="2019-12-27" />
		<tag k="ssr:gruppe" v="veg" />
		<tag k="ssr:hovedgruppe" v="infrastruktur" />
		<tag k="ssr:stedsnr" v="284496" />
		<tag k="ssr:type" v="adressenavn" />
	</node>
	<node id="-8335" lat="59.0840472219" lon="5.68957500361">
		<tag k="name" v="Torøy" />
		<tag k="ssr:date" v="2019-12-27" />
		<tag k="ssr:gruppe" v="navigasjon" />
		<tag k="ssr:hovedgruppe" v="infrastruktur" />
		<tag k="ssr:stedsnr" v="120525" />
		<tag k="ssr:type" v="lanterne" />
	</node>
	<node id="-8334" lat="59.0596555551" lon="5.70256944632">
		<tag k="name" v="Skorpeskjergrunnen lanterne" />
		<tag k="ssr:date" v="2019-12-27" />
		<tag k="ssr:gruppe" v="navigasjon" />
		<tag k="ssr:hovedgruppe" v="infrastruktur" />
		<tag k="ssr:stedsnr" v="120492" />
		<tag k="ssr:type" v="lanterne" />
	</node>
	<node id="-6797" lat="59.1203694406" lon="5.81453056017">
		<tag k="name" v="Langholmen lysbøye" />
		<tag k="ssr:date" v="2019-12-27" />
		<tag k="ssr:gruppe" v="navigasjon" />
		<tag k="ssr:hovedgruppe" v="infrastruktur" />
		<tag k="ssr:stedsnr" v="284129" />
		<tag k="ssr:type" v="lysbøye" />
	</node>
	<node id="-6796" lat="59.138386114" lon="5.82691667382">
		<tag k="name" v="Vardaneset lanterne" />
		<tag k="ssr:date" v="2019-12-27" />
		<tag k="ssr:gruppe" v="navigasjon" />
		<tag k="ssr:hovedgruppe" v="infrastruktur" />
		<tag k="ssr:stedsnr" v="284072" />
		<tag k="ssr:type" v="lanterne" />
	</node>
	<node id="-8329" lat="58.9840472196" lon="5.68309722592">
		<tag k="name" v="Rustalia" />
		<tag k="ssr:date" v="2019-05-30" />
		<tag k="ssr:gruppe" v="veg" />
		<tag k="ssr:hovedgruppe" v="infrastruktur" />
		<tag k="ssr:stedsnr" v="119912" />
		<tag k="ssr:type" v="adressenavn" />
	</node>
	<node id="-9238" lat="59.0041111097" lon="5.78215555915">
		<tag k="name" v="Davidsholmen, søre" />
		<tag k="ssr:date" v="2016-05-10" />
		<tag k="ssr:gruppe" v="navigasjon" />
		<tag k="ssr:hovedgruppe" v="infrastruktur" />
		<tag k="ssr:stedsnr" v="647766" />
		<tag k="ssr:type" v="lanterne" />
	</node>
	<node id="-8832" lat="59.1632138853" lon="5.97748333713">
		<tag k="name" v="Sjoarvegen" />
		<tag k="ssr:date" v="2019-12-27" />
		<tag k="ssr:gruppe" v="veg" />
		<tag k="ssr:hovedgruppe" v="infrastruktur" />
		<tag k="ssr:stedsnr" v="417273" />
		<tag k="ssr:type" v="vegstrekning" />
	</node>
	<node id="-9341" lat="59.0023249962" lon="5.73352776994">
		<tag k="name" v="Seilskuteveien" />
		<tag k="ssr:date" v="2019-05-30" />
		<tag k="ssr:gruppe" v="veg" />
		<tag k="ssr:hovedgruppe" v="infrastruktur" />
		<tag k="ssr:stedsnr" v="788590" />
		<tag k="ssr:type" v="adressenavn" />
	</node>
	<node id="-7802" lat="59.0262018173" lon="5.77496858023">
		<tag k="name" v="Klovningen" />
		<tag k="ssr:date" v="2018-06-11" />
		<tag k="ssr:gruppe" v="navigasjon" />
		<tag k="ssr:hovedgruppe" v="infrastruktur" />
		<tag k="ssr:stedsnr" v="912770" />
		<tag k="ssr:type" v="fyrlykt" />
	</node>
	<node id="-7799" lat="59.1035972212" lon="5.85868054821">
		<tag k="alt_name" v="Talgje" />
		<tag k="name" v="Talgje lykt" />
		<tag k="ssr:date" v="2019-12-27" />
		<tag k="ssr:gruppe" v="navigasjon" />
		<tag k="ssr:hovedgruppe" v="infrastruktur" />
		<tag k="ssr:stedsnr" v="912731" />
		<tag k="ssr:type" v="fyrlykt" />
	</node>
	<node id="-8806" lat="58.9813222198" lon="5.71117778107">
		<tag k="name" v="Byfjordtunet" />
		<tag k="ssr:date" v="2019-05-30" />
		<tag k="ssr:gruppe" v="veg" />
		<tag k="ssr:hovedgruppe" v="infrastruktur" />
		<tag k="ssr:stedsnr" v="403566" />
		<tag k="ssr:type" v="adressenavn" />
	</node>
	<node id="-7267" lat="58.9750749974" lon="5.74753333406">
		<tag k="alt_name" v="Grasholmen" />
		<tag k="name" v="Grasholmen lykt" />
		<tag k="ssr:date" v="2016-05-10" />
		<tag k="ssr:gruppe" v="navigasjon" />
		<tag k="ssr:hovedgruppe" v="infrastruktur" />
		<tag k="ssr:stedsnr" v="668069" />
		<tag k="ssr:type" v="fyrlykt" />
	</node>
	<node id="-6751" lat="59.1594666681" lon="5.93415555083">
		<tag k="name" v="Torskjer" />
		<tag k="ssr:date" v="2019-12-27" />
		<tag k="ssr:gruppe" v="navigasjon" />
		<tag k="ssr:hovedgruppe" v="infrastruktur" />
		<tag k="ssr:stedsnr" v="162006" />
		<tag k="ssr:type" v="lanterne" />
	</node>
	<node id="-7770" lat="59.0483999965" lon="5.77635555459">
		<tag k="alt_name" v="Åmøy" />
		<tag k="name" v="Åmøy lykt" />
		<tag k="ssr:date" v="2016-05-11" />
		<tag k="ssr:gruppe" v="navigasjon" />
		<tag k="ssr:hovedgruppe" v="infrastruktur" />
		<tag k="ssr:stedsnr" v="911795" />
		<tag k="ssr:type" v="fyrlykt" />
	</node>
	<node id="-6745" lat="59.2486722265" lon="5.82355833166">
		<tag k="name" v="Hestholmgrunnen lanterne" />
		<tag k="ssr:date" v="2019-12-27" />
		<tag k="ssr:gruppe" v="navigasjon" />
		<tag k="ssr:hovedgruppe" v="infrastruktur" />
		<tag k="ssr:stedsnr" v="160603" />
		<tag k="ssr:type" v="lanterne" />
	</node>
	<node id="-6744" lat="59.2425388885" lon="5.83409444634">
		<tag k="name" v="Tjul østre" />
		<tag k="ssr:date" v="2019-12-27" />
		<tag k="ssr:gruppe" v="navigasjon" />
		<tag k="ssr:hovedgruppe" v="infrastruktur" />
		<tag k="ssr:stedsnr" v="160602" />
		<tag k="ssr:type" v="lanterne" />
	</node>
	<node id="-8276" lat="59.1016694467" lon="5.81423889239">
		<tag k="name" v="Prestnesboen" />
		<tag k="ssr:date" v="2019-12-27" />
		<tag k="ssr:gruppe" v="navigasjon" />
		<tag k="ssr:hovedgruppe" v="infrastruktur" />
		<tag k="ssr:stedsnr" v="102078" />
		<tag k="ssr:type" v="lanterne" />
	</node>
	<node id="-7760" lat="58.9619035553" lon="5.76925199106">
		<tag k="name" v="Pannevigodden" />
		<tag k="ssr:date" v="2018-05-22" />
		<tag k="ssr:gruppe" v="navigasjon" />
		<tag k="ssr:hovedgruppe" v="infrastruktur" />
		<tag k="ssr:stedsnr" v="911094" />
		<tag k="ssr:type" v="fyrlykt" />
	</node>
	<node id="-9294" lat="59.0318055517" lon="5.7080111131">
		<tag k="name" v="Skaraberg lanterne" />
		<tag k="ssr:date" v="2019-12-27" />
		<tag k="ssr:gruppe" v="navigasjon" />
		<tag k="ssr:hovedgruppe" v="infrastruktur" />
		<tag k="ssr:stedsnr" v="770620" />
		<tag k="ssr:type" v="lanterne" />
	</node>
	<node id="-9291" lat="59.0979444448" lon="5.84945277403">
		<tag k="name" v="Gardsgrunnen" />
		<tag k="ssr:date" v="2019-12-27" />
		<tag k="ssr:gruppe" v="navigasjon" />
		<tag k="ssr:hovedgruppe" v="infrastruktur" />
		<tag k="ssr:stedsnr" v="769069" />
		<tag k="ssr:type" v="lanterne" />
	</node>
	<node id="-9288" lat="59.1481805517" lon="5.97823332924">
		<tag k="name" v="Buøytangane lanterne" />
		<tag k="ssr:date" v="2019-12-27" />
		<tag k="ssr:gruppe" v="navigasjon" />
		<tag k="ssr:hovedgruppe" v="infrastruktur" />
		<tag k="ssr:stedsnr" v="768032" />
		<tag k="ssr:type" v="lanterne" />
	</node>
	<node id="-9287" lat="59.1371666685" lon="5.88374166712">
		<tag k="name" v="Ystholmen" />
		<tag k="ssr:date" v="2019-12-27" />
		<tag k="ssr:gruppe" v="navigasjon" />
		<tag k="ssr:hovedgruppe" v="infrastruktur" />
		<tag k="ssr:stedsnr" v="768027" />
		<tag k="ssr:type" v="lanterne" />
	</node>
	<node id="-9286" lat="59.1406555512" lon="5.89213333981">
		<tag k="name" v="Bøholmen lanterne" />
		<tag k="ssr:date" v="2019-12-27" />
		<tag k="ssr:gruppe" v="navigasjon" />
		<tag k="ssr:hovedgruppe" v="infrastruktur" />
		<tag k="ssr:stedsnr" v="768026" />
		<tag k="ssr:type" v="lanterne" />
	</node>
	<node id="-9285" lat="59.1541444401" lon="5.94624999491">
		<tag k="name" v="Lindøygrunnen lanterne" />
		<tag k="ssr:date" v="2019-12-27" />
		<tag k="ssr:gruppe" v="navigasjon" />
		<tag k="ssr:hovedgruppe" v="infrastruktur" />
		<tag k="ssr:stedsnr" v="768014" />
		<tag k="ssr:type" v="lanterne" />
	</node>
	<node id="-9357" lat="58.9818833326" lon="5.72120555893">
		<tag k="name" v="Tjuvholmen lykt" />
		<tag k="ssr:date" v="2016-05-11" />
		<tag k="ssr:gruppe" v="navigasjon" />
		<tag k="ssr:hovedgruppe" v="infrastruktur" />
		<tag k="ssr:stedsnr" v="789063" />
		<tag k="ssr:type" v="fyrlykt" />
	</node>
	<node id="-6720" lat="59.2235916632" lon="5.83951389766">
		<tag k="alt_name" v="Helgøysund" />
		<tag k="name" v="Helgøysund lykt" />
		<tag k="ssr:date" v="2019-12-27" />
		<tag k="ssr:gruppe" v="navigasjon" />
		<tag k="ssr:hovedgruppe" v="infrastruktur" />
		<tag k="ssr:stedsnr" v="267845" />
		<tag k="ssr:type" v="fyrlykt" />
	</node>
	<node id="-6701" lat="59.0889805538" lon="5.56885277636">
		<tag k="alt_name" v="Fjøløy" />
		<tag k="name" v="Fjøløy fyr" />
		<tag k="ssr:date" v="2019-12-27" />
		<tag k="ssr:gruppe" v="navigasjon" />
		<tag k="ssr:hovedgruppe" v="infrastruktur" />
		<tag k="ssr:stedsnr" v="122352" />
		<tag k="ssr:type" v="fyrstasjon" />
	</node>
	<node id="-7718" lat="59.1317777743" lon="5.92684166481">
		<tag k="loc_name" v="Runestadsvingen" />
		<tag k="name" v="Runastadsvingen" />
		<tag k="ssr:date" v="2019-12-27" />
		<tag k="ssr:gruppe" v="veg" />
		<tag k="ssr:hovedgruppe" v="infrastruktur" />
		<tag k="ssr:stedsnr" v="903302" />
		<tag k="ssr:type" v="vegstrekning" />
	</node>
	<node id="-6491" lat="59.2631499993" lon="5.84383610507">
		<tag k="name" v="Kalvanesgrunnen" />
		<tag k="ssr:date" v="2019-12-27" />
		<tag k="ssr:gruppe" v="navigasjon" />
		<tag k="ssr:hovedgruppe" v="infrastruktur" />
		<tag k="ssr:stedsnr" v="221341" />
		<tag k="ssr:type" v="lanterne" />
	</node>
	<node id="-7200" lat="59.0489583362" lon="5.60815554817">
		<tag k="name" v="Gryda" />
		<tag k="ssr:date" v="2019-12-27" />
		<tag k="ssr:gruppe" v="navigasjon" />
		<tag k="ssr:hovedgruppe" v="infrastruktur" />
		<tag k="ssr:stedsnr" v="427802" />
		<tag k="ssr:type" v="fyrlykt" />
	</node>
	<node id="-8282" lat="58.9766944465" lon="5.73282221371">
		<tag k="name" v="Plentingen lanterne" />
		<tag k="ssr:date" v="2016-05-10" />
		<tag k="ssr:gruppe" v="navigasjon" />
		<tag k="ssr:hovedgruppe" v="infrastruktur" />
		<tag k="ssr:stedsnr" v="102843" />
		<tag k="ssr:type" v="lanterne" />
	</node>
	<node id="-7192" lat="58.9653277814" lon="5.61688888675">
		<tag k="name" v="Porsatunet" />
		<tag k="ssr:date" v="2019-05-30" />
		<tag k="ssr:gruppe" v="veg" />
		<tag k="ssr:hovedgruppe" v="infrastruktur" />
		<tag k="ssr:stedsnr" v="424627" />
		<tag k="ssr:type" v="adressenavn" />
	</node>
	<node id="-7190" lat="58.9636277789" lon="5.72334167365">
		<tag k="name" v="Solagata" />
		<tag k="ssr:date" v="2019-05-30" />
		<tag k="ssr:gruppe" v="veg" />
		<tag k="ssr:hovedgruppe" v="infrastruktur" />
		<tag k="ssr:stedsnr" v="424233" />
		<tag k="ssr:type" v="adressenavn" />
	</node>
	<node id="-9236" lat="58.9826722188" lon="5.75003054949">
		<tag k="name" v="Engøy, østre" />
		<tag k="ssr:date" v="2016-05-10" />
		<tag k="ssr:gruppe" v="navigasjon" />
		<tag k="ssr:hovedgruppe" v="infrastruktur" />
		<tag k="ssr:stedsnr" v="647750" />
		<tag k="ssr:type" v="lanterne" />
	</node>
	<node id="-8719" lat="58.9129333366" lon="5.72031110476">
		<tag k="name" v="Valheimveien" />
		<tag k="ssr:date" v="2019-05-30" />
		<tag k="ssr:gruppe" v="veg" />
		<tag k="ssr:hovedgruppe" v="infrastruktur" />
		<tag k="ssr:stedsnr" v="363584" />
		<tag k="ssr:type" v="adressenavn" />
	</node>
	<node id="-9230" lat="59.1551972183" lon="5.95821111942">
		<tag k="name" v="Kråka lanterne" />
		<tag k="ssr:date" v="2019-12-27" />
		<tag k="ssr:gruppe" v="navigasjon" />
		<tag k="ssr:hovedgruppe" v="infrastruktur" />
		<tag k="ssr:stedsnr" v="647013" />
		<tag k="ssr:type" v="lanterne" />
	</node>
	<node id="-9644" lat="58.9686523988" lon="5.74860331204">
		<tag k="name" v="Lervigtunet" />
		<tag k="ssr:date" v="2019-05-30" />
		<tag k="ssr:gruppe" v="veg" />
		<tag k="ssr:hovedgruppe" v="infrastruktur" />
		<tag k="ssr:stedsnr" v="975716" />
		<tag k="ssr:type" v="adressenavn" />
	</node>
</osm>
