<?xml version="1.0" encoding="UTF-8"?>
<osm generator="osmapis" version="0.6">
	<node changeset="70106029" id="6464327680" lat="59.7919972" lon="10.8142167" timestamp="2019-05-10T11:36:36Z" uid="633013" user="Honning" version="1">
		<tag k="name" v="Sofiemyråsen" />
		<tag k="place" v="quarter" />
		<tag k="ssr:stedsnr" v="144703" />
	</node>
	<node changeset="70106029" id="6464327681" lat="59.7845972" lon="10.7667333" timestamp="2019-05-10T11:36:36Z" uid="633013" user="Honning" version="1">
		<tag k="name" v="Dal" />
		<tag k="place" v="farm" />
		<tag k="ssr:stedsnr" v="186335" />
	</node>
	<node changeset="70106029" id="6464327682" lat="59.7896139" lon="10.8188361" timestamp="2019-05-10T11:36:36Z" uid="633013" user="Honning" version="1">
		<tag k="name" v="Sønsterud" />
		<tag k="place" v="farm" />
		<tag k="ssr:stedsnr" v="186348" />
	</node>
	<node changeset="70106029" id="6464327683" lat="59.802425" lon="10.7365028" timestamp="2019-05-10T11:36:36Z" uid="633013" user="Honning" version="1">
		<tag k="name" v="Strandskogen" />
		<tag k="place" v="isolated_dwelling" />
		<tag k="ssr:stedsnr" v="186381" />
	</node>
	<node changeset="70106029" id="6464327684" lat="59.7657583" lon="10.7333" timestamp="2019-05-10T11:36:36Z" uid="633013" user="Honning" version="1">
		<tag k="name" v="Sjødalstrand" />
		<tag k="place" v="farm" />
		<tag k="ssr:stedsnr" v="187383" />
	</node>
	<node changeset="70106029" id="6464327685" lat="59.8114278" lon="10.7971056" timestamp="2019-05-10T11:36:36Z" uid="633013" user="Honning" version="1">
		<tag k="amenity" v="townhall" />
		<tag k="name" v="Oppegård rådhus" />
		<tag k="ssr:stedsnr" v="205068" />
	</node>
	<node changeset="70106029" id="6464327686" lat="59.7929778" lon="10.7360695" timestamp="2019-05-10T11:36:36Z" uid="633013" user="Honning" version="1">
		<tag k="name" v="Bekkenstenfeltet" />
		<tag k="place" v="isolated_dwelling" />
		<tag k="ssr:stedsnr" v="205713" />
	</node>
	<node changeset="70106029" id="6464327687" lat="59.7900667" lon="10.8007972" timestamp="2019-05-10T11:36:36Z" uid="633013" user="Honning" version="1">
		<tag k="building" v="commercial" />
		<tag k="name" v="Kolbotn trelast" />
		<tag k="ssr:stedsnr" v="206499" />
	</node>
	<node changeset="70106029" id="6464327688" lat="59.7853639" lon="10.8001722" timestamp="2019-05-10T11:36:36Z" uid="633013" user="Honning" version="1">
		<tag k="name" v="Myrvoll" />
		<tag k="place" v="quarter" />
		<tag k="ssr:stedsnr" v="207555" />
	</node>
	<node changeset="70106029" id="6464327689" lat="59.775275" lon="10.8013889" timestamp="2019-05-10T11:36:36Z" uid="633013" user="Honning" version="1">
		<tag k="name" v="Greverud" />
		<tag k="place" v="quarter" />
		<tag k="ssr:stedsnr" v="207655" />
	</node>
	<node changeset="70106029" id="6464327690" lat="59.7837111" lon="10.8164306" timestamp="2019-05-10T11:36:36Z" uid="633013" user="Honning" version="1">
		<tag k="name" v="Korsveien" />
		<tag k="place" v="isolated_dwelling" />
		<tag k="ssr:stedsnr" v="247303" />
	</node>
	<node changeset="70106029" id="6464327691" lat="59.7849028" lon="10.7393639" timestamp="2019-05-10T11:36:36Z" uid="633013" user="Honning" version="1">
		<tag k="name" v="Rødstein" />
		<tag k="place" v="isolated_dwelling" />
		<tag k="ssr:stedsnr" v="247323" />
	</node>
	<node changeset="70106029" id="6464327692" lat="59.7755417" lon="10.7513028" timestamp="2019-05-10T11:36:36Z" uid="633013" user="Honning" version="1">
		<tag k="name" v="Søndre Oppegård" />
		<tag k="place" v="hamlet" />
		<tag k="ssr:stedsnr" v="266671" />
	</node>
	<node changeset="70106029" id="6464327693" lat="59.7931111" lon="10.826875" timestamp="2019-05-10T11:36:36Z" uid="633013" user="Honning" version="1">
		<tag k="name" v="Fløysbonn" />
		<tag k="place" v="locality" />
		<tag k="ssr:stedsnr" v="266674" />
	</node>
	<node changeset="70106029" id="6464327695" lat="59.7963111" lon="10.7942306" timestamp="2019-05-10T11:36:36Z" uid="633013" user="Honning" version="1">
		<tag k="name" v="Åsen" />
		<tag k="place" v="isolated_dwelling" />
		<tag k="ssr:stedsnr" v="429339" />
	</node>
	<node changeset="70106029" id="6464327696" lat="59.7956806" lon="10.7344583" timestamp="2019-05-10T11:36:36Z" uid="633013" user="Honning" version="1">
		<tag k="name" v="Prosted" />
		<tag k="place" v="isolated_dwelling" />
		<tag k="ssr:stedsnr" v="429346" />
	</node>
	<node changeset="70106029" id="6464327698" lat="59.8111389" lon="10.805325" timestamp="2019-05-10T11:36:36Z" uid="633013" user="Honning" version="1">
		<tag k="name" v="Kullebund" />
		<tag k="place" v="quarter" />
		<tag k="ssr:stedsnr" v="448725" />
	</node>
	<node changeset="70106029" id="6464327699" lat="59.7820222" lon="10.8184055" timestamp="2019-05-10T11:36:37Z" uid="633013" user="Honning" version="1">
		<tag k="name" v="Dammen" />
		<tag k="place" v="isolated_dwelling" />
		<tag k="ssr:stedsnr" v="449497" />
	</node>
	<node changeset="70106029" id="6464327700" lat="59.7663389" lon="10.8275472" timestamp="2019-05-10T11:36:37Z" uid="633013" user="Honning" version="1">
		<tag k="name" v="Tusse" />
		<tag k="place" v="isolated_dwelling" />
		<tag k="ssr:stedsnr" v="490377" />
	</node>
	<node changeset="70106029" id="6464327701" lat="59.7611389" lon="10.7426611" timestamp="2019-05-10T11:36:37Z" uid="633013" user="Honning" version="1">
		<tag k="name" v="Bergstuløkka (nedl.)" />
		<tag k="place" v="locality" />
		<tag k="ssr:stedsnr" v="509111" />
	</node>
	<node changeset="70106029" id="6464327703" lat="59.8126222" lon="10.8001528" timestamp="2019-05-10T11:36:37Z" uid="633013" user="Honning" version="1">
		<tag k="name" v="Rasten" />
		<tag k="place" v="hamlet" />
		<tag k="ssr:stedsnr" v="509672" />
	</node>
	<node changeset="70106029" id="6464327704" lat="59.8156667" lon="10.7475917" timestamp="2019-05-10T11:36:37Z" uid="633013" user="Honning" version="1">
		<tag k="alt_name" v="Jonstrand" />
		<tag k="name" v="Jonstranda" />
		<tag k="place" v="isolated_dwelling" />
		<tag k="ssr:stedsnr" v="550274" />
	</node>
	<node changeset="70106029" id="6464327705" lat="59.7822333" lon="10.8076389" timestamp="2019-05-10T11:36:37Z" uid="633013" user="Honning" version="1">
		<tag k="alt_name" v="Østli (nedl.)" />
		<tag k="name" v="Østli" />
		<tag k="place" v="isolated_dwelling" />
		<tag k="ssr:stedsnr" v="550307" />
	</node>
	<node changeset="70106029" id="6464327706" lat="59.78145" lon="10.7490528" timestamp="2019-05-10T11:36:37Z" uid="633013" user="Honning" version="1">
		<tag k="name" v="Solheim" />
		<tag k="place" v="farm" />
		<tag k="ssr:stedsnr" v="569535" />
	</node>
	<node changeset="12718651" id="296920108" lat="59.8128351" lon="10.8049052" timestamp="2012-08-13T19:41:10Z" uid="605010" user="Noen" version="6">
		<tag k="crossing" v="uncontrolled" />
		<tag k="highway" v="crossing" />
	</node>
	<node changeset="12718651" id="296920109" lat="59.812202" lon="10.8046554" timestamp="2012-08-13T19:41:10Z" uid="605010" user="Noen" version="3" />
	<node changeset="3701152" id="619243059" lat="59.8137046" lon="10.8033717" timestamp="2010-01-24T14:52:57Z" uid="160202" user="Vedeler" version="1" />
	<node changeset="70106029" id="4129695284" lat="59.8034833" lon="10.7567333" timestamp="2019-05-10T11:36:38Z" uid="633013" user="Honning" version="2">
		<tag k="name" v="Bjørnsrud" />
		<tag k="place" v="farm" />
		<tag k="ssr:stedsnr" v="430255" />
	</node>
	<node changeset="70106029" id="4129695285" lat="59.7953389" lon="10.7524028" timestamp="2019-05-10T11:36:38Z" uid="633013" user="Honning" version="2">
		<tag k="alt_name" v="Torbjørnrud" />
		<tag k="name" v="Torbjørnsrud" />
		<tag k="place" v="farm" />
		<tag k="ssr:stedsnr" v="611379" />
	</node>
	<node changeset="54564093" id="619243062" lat="59.8124597" lon="10.802789" timestamp="2017-12-12T11:43:25Z" uid="33578" user="eiriks" version="2" />
	<node changeset="3701152" id="619243065" lat="59.8119082" lon="10.8029211" timestamp="2010-01-24T14:52:57Z" uid="160202" user="Vedeler" version="1" />
	<node changeset="12718651" id="619243068" lat="59.8117419" lon="10.8044406" timestamp="2012-08-13T19:41:13Z" uid="605010" user="Noen" version="2" />
	<node changeset="70106029" id="4078458437" lat="59.7614111" lon="10.7359361" timestamp="2019-05-10T11:36:37Z" uid="633013" user="Honning" version="2">
		<tag k="name" v="Sjødalenga" />
		<tag k="place" v="isolated_dwelling" />
		<tag k="ssr:stedsnr" v="368444" />
	</node>
	<node changeset="12718651" id="619243080" lat="59.8136885" lon="10.8042938" timestamp="2012-08-13T19:41:13Z" uid="605010" user="Noen" version="3" />
	<node changeset="70106029" id="6464327678" lat="59.7912611" lon="10.7639389" timestamp="2019-05-10T11:36:35Z" uid="633013" user="Honning" version="1">
		<tag k="name" v="Åsen" />
		<tag k="place" v="farm" />
		<tag k="ssr:stedsnr" v="144555" />
	</node>
	<node changeset="70106029" id="6464327679" lat="59.8162083" lon="10.7947917" timestamp="2019-05-10T11:36:36Z" uid="633013" user="Honning" version="1">
		<tag k="name" v="Solkollen" />
		<tag k="place" v="quarter" />
		<tag k="ssr:stedsnr" v="144702" />
	</node>
	<node changeset="6670982" id="1039751790" lat="59.8137884" lon="10.7646752" timestamp="2010-12-15T20:00:58Z" uid="11992" user="vibrog" version="1" />
	<node changeset="6670982" id="1039752318" lat="59.813927" lon="10.7653395" timestamp="2010-12-15T20:01:10Z" uid="11992" user="vibrog" version="1" />
	<node changeset="70106029" id="2592151064" lat="59.7808472" lon="10.8213333" timestamp="2019-05-10T11:36:37Z" uid="633013" user="Honning" version="2">
		<tag k="board_type" v="history" />
		<tag k="historic" v="croft" />
		<tag k="information" v="board" />
		<tag k="name" v="Grytebråten" />
		<tag k="operator" v="Oppegård Historielag" />
		<tag k="place" v="locality" />
		<tag k="ssr:stedsnr" v="691146" />
		<tag k="tourism" v="information" />
	</node>
	<node changeset="12718651" id="296920226" lat="59.8129288" lon="10.8049355" timestamp="2012-08-13T19:41:10Z" uid="605010" user="Noen" version="8" />
	<node changeset="70106029" id="4081519789" lat="59.763225" lon="10.7519833" timestamp="2019-05-10T11:36:37Z" uid="633013" user="Honning" version="2">
		<tag k="alt_name" v="Rødkilden" />
		<tag k="name" v="Rødkjelda" />
		<tag k="place" v="farm" />
		<tag k="ssr:stedsnr" v="733398" />
	</node>
	<node changeset="70106029" id="4081519791" lat="59.7759" lon="10.7514806" timestamp="2019-05-10T11:36:37Z" uid="633013" user="Honning" version="3">
		<tag k="alt_name" v="Oppegård, søndre" />
		<tag k="name" v="Søndre Oppegård" />
		<tag k="place" v="farm" />
		<tag k="ssr:stedsnr" v="793340" />
	</node>
	<node changeset="70106029" id="4081519792" lat="59.7842111" lon="10.7518806" timestamp="2019-05-10T11:36:37Z" uid="633013" user="Honning" version="2">
		<tag k="alt_name" v="Oppegård, vestre" />
		<tag k="name" v="Vestre Oppegård" />
		<tag k="place" v="farm" />
		<tag k="ssr:stedsnr" v="611327" />
	</node>
	<node changeset="70106029" id="4156024497" lat="59.8206333" lon="10.7878361" timestamp="2019-05-10T11:36:38Z" uid="633013" user="Honning" version="2">
		<tag k="name" v="Li" />
		<tag k="place" v="farm" />
		<tag k="ssr:stedsnr" v="429287" />
	</node>
	<node changeset="70106029" id="4081519824" lat="59.7842361" lon="10.7545917" timestamp="2019-05-10T11:36:37Z" uid="633013" user="Honning" version="2">
		<tag k="alt_name" v="Oppegård, østre" />
		<tag k="name" v="Østre Oppegård" />
		<tag k="place" v="farm" />
		<tag k="ssr:stedsnr" v="550310" />
	</node>
	<node changeset="61636322" id="508912362" lat="59.8137223" lon="10.8041926" timestamp="2018-08-13T19:39:01Z" uid="3497659" user="NKA" version="4" />
	<node changeset="70106029" id="6464327638" lat="59.76755" lon="10.7898028" timestamp="2019-05-10T11:36:33Z" uid="633013" user="Honning" version="1">
		<tag k="name" v="Flåtestad" />
		<tag k="place" v="farm" />
		<tag k="ssr:stedsnr" v="793457" />
	</node>
	<node changeset="6670982" id="1039752464" lat="59.8137448" lon="10.7646987" timestamp="2010-12-15T20:01:12Z" uid="11992" user="vibrog" version="1" />
	<node changeset="12718651" id="1864754688" lat="59.8136001" lon="10.8046795" timestamp="2012-08-13T19:40:21Z" uid="605010" user="Noen" version="1" />
	<node changeset="70106029" id="1268903745" lat="59.7799139" lon="10.7469833" timestamp="2019-05-10T11:36:37Z" uid="633013" user="Honning" version="2">
		<tag k="name" v="Bålerud" />
		<tag k="place" v="farm" />
		<tag k="ssr:stedsnr" v="308286" />
	</node>
	<node changeset="12718651" id="1864754689" lat="59.8136395" lon="10.8045549" timestamp="2012-08-13T19:40:21Z" uid="605010" user="Noen" version="1" />
	<node changeset="70106029" id="6234312544" lat="59.766975" lon="10.8128583" timestamp="2019-05-10T11:36:38Z" uid="633013" user="Honning" version="2">
		<tag k="name" v="Oppegård" />
		<tag k="place" v="village" />
		<tag k="ssr:stedsnr" v="145666" />
	</node>
	<node changeset="6670982" id="1039753075" lat="59.8138154" lon="10.7655951" timestamp="2010-12-15T20:01:23Z" uid="11992" user="vibrog" version="1" />
	<node changeset="70106029" id="6234312564" lat="59.7816139" lon="10.741075" timestamp="2019-05-10T11:36:38Z" uid="633013" user="Honning" version="2">
		<tag k="name" v="Svartskog" />
		<tag k="place" v="village" />
		<tag k="ssr:stedsnr" v="187313" />
	</node>
	<node changeset="12718651" id="296919925" lat="59.8137675" lon="10.8041136" timestamp="2012-08-13T19:41:10Z" uid="605010" user="Noen" version="4" />
	<node changeset="12718651" id="296919927" lat="59.8135552" lon="10.8047869" timestamp="2012-08-13T19:41:10Z" uid="605010" user="Noen" version="4" />
	<node changeset="12718651" id="296919929" lat="59.813469" lon="10.8048809" timestamp="2012-08-13T19:41:10Z" uid="605010" user="Noen" version="4" />
	<node changeset="12718651" id="296919931" lat="59.8133418" lon="10.804909" timestamp="2012-08-13T19:41:10Z" uid="605010" user="Noen" version="4" />
	<node changeset="12718651" id="296919933" lat="59.8131679" lon="10.8048867" timestamp="2012-08-13T19:41:10Z" uid="605010" user="Noen" version="5" />
	<node changeset="6670982" id="1039753220" lat="59.8137071" lon="10.7647737" timestamp="2010-12-15T20:01:27Z" uid="11992" user="vibrog" version="1" />
	<node changeset="70106029" id="1268903807" lat="59.7632806" lon="10.7456" timestamp="2019-05-10T11:36:37Z" uid="633013" user="Honning" version="2">
		<tag k="name" v="Sjødal" />
		<tag k="place" v="farm" />
		<tag k="ssr:stedsnr" v="308383" />
	</node>
	<node changeset="70106439" id="6464355712" lat="59.7696059" lon="10.7872542" timestamp="2019-05-10T11:49:20Z" uid="633013" user="Honning" version="1" />
	<node changeset="70106439" id="6464355713" lat="59.7695821" lon="10.7872723" timestamp="2019-05-10T11:49:20Z" uid="633013" user="Honning" version="1" />
	<node changeset="70106439" id="6464355714" lat="59.7695445" lon="10.7872784" timestamp="2019-05-10T11:49:20Z" uid="633013" user="Honning" version="1" />
	<node changeset="70106439" id="6464355715" lat="59.769558" lon="10.7872579" timestamp="2019-05-10T11:49:20Z" uid="633013" user="Honning" version="1" />
	<node changeset="54564093" id="5279473034" lat="59.8136666" lon="10.8044107" timestamp="2017-12-12T11:43:24Z" uid="33578" user="eiriks" version="1" />
	<node changeset="70106439" id="4128558492" lat="59.7696085" lon="10.7872391" timestamp="2019-05-10T11:49:21Z" uid="633013" user="Honning" version="3" />
	<node changeset="6670982" id="1039752605" lat="59.8138387" lon="10.7646752" timestamp="2010-12-15T20:01:14Z" uid="11992" user="vibrog" version="1" />
	<node changeset="70106029" id="4128558494" lat="59.769575" lon="10.7788333" timestamp="2019-05-10T11:36:38Z" uid="633013" user="Honning" version="2">
		<tag k="name" v="Kurud" />
		<tag k="place" v="farm" />
		<tag k="ssr:stedsnr" v="793455" />
	</node>
	<node changeset="6670982" id="1039752112" lat="59.8135904" lon="10.7652117" timestamp="2010-12-15T20:01:05Z" uid="11992" user="vibrog" version="1" />
	<node changeset="70106029" id="538858422" lat="59.7967222" lon="10.8135639" timestamp="2019-05-10T11:36:37Z" uid="633013" user="Honning" version="3">
		<tag k="name" v="Sofiemyr" />
		<tag k="place" v="village" />
		<tag k="ssr:stedsnr" v="611369" />
	</node>
	<node changeset="70106029" id="6464327626" lat="59.765" lon="10.7972861" timestamp="2019-05-10T11:36:33Z" uid="633013" user="Honning" version="1">
		<tag k="name" v="Holen" />
		<tag k="place" v="isolated_dwelling" />
		<tag k="ssr:stedsnr" v="611405" />
	</node>
	<node changeset="70106029" id="6464327627" lat="59.7861806" lon="10.7339472" timestamp="2019-05-10T11:36:33Z" uid="633013" user="Honning" version="1">
		<tag k="name" v="Roald Amundsens hjem" />
		<tag k="place" v="isolated_dwelling" />
		<tag k="ssr:stedsnr" v="630478" />
	</node>
	<node changeset="70106029" id="6464327628" lat="59.8202028" lon="10.7850806" timestamp="2019-05-10T11:36:33Z" uid="633013" user="Honning" version="1">
		<tag k="name" v="Lienga" />
		<tag k="place" v="isolated_dwelling" />
		<tag k="ssr:stedsnr" v="672245" />
	</node>
	<node changeset="70106029" id="6464327629" lat="59.8209778" lon="10.81375" timestamp="2019-05-10T11:36:33Z" uid="633013" user="Honning" version="1">
		<tag k="name" v="Høyås" />
		<tag k="place" v="isolated_dwelling" />
		<tag k="ssr:stedsnr" v="672277" />
	</node>
	<node changeset="70106029" id="6464327630" lat="59.7788417" lon="10.7529167" timestamp="2019-05-10T11:36:33Z" uid="633013" user="Honning" version="1">
		<tag k="name" v="Grønmo" />
		<tag k="place" v="farm" />
		<tag k="ssr:stedsnr" v="672294" />
	</node>
	<node changeset="70106029" id="6464327631" lat="59.7885472" lon="10.7590667" timestamp="2019-05-10T11:36:33Z" uid="633013" user="Honning" version="1">
		<tag k="name" v="Leirskallen" />
		<tag k="place" v="isolated_dwelling" />
		<tag k="ssr:stedsnr" v="672306" />
	</node>
	<node changeset="70106029" id="6464327632" lat="59.7970222" lon="10.8203556" timestamp="2019-05-10T11:36:33Z" uid="633013" user="Honning" version="1">
		<tag k="name" v="Fløysbonn industriområde" />
		<tag k="place" v="quarter" />
		<tag k="ssr:stedsnr" v="691684" />
	</node>
	<node changeset="70106029" id="6464327633" lat="59.7767389" lon="10.8147055" timestamp="2019-05-10T11:36:33Z" uid="633013" user="Honning" version="1">
		<tag k="alt_name" v="Greverud, østre" />
		<tag k="name" v="Østre Greverud" />
		<tag k="place" v="farm" />
		<tag k="ssr:stedsnr" v="732322" />
	</node>
	<node changeset="70106029" id="6464327634" lat="59.799225" lon="10.8265611" timestamp="2019-05-10T11:36:33Z" uid="633013" user="Honning" version="1">
		<tag k="name" v="Fløysbonn" />
		<tag k="place" v="farm" />
		<tag k="ssr:stedsnr" v="732363" />
	</node>
	<node changeset="70106029" id="6464327635" lat="59.7696806" lon="10.8255972" timestamp="2019-05-10T11:36:33Z" uid="633013" user="Honning" version="1">
		<tag k="name" v="Ryberg" />
		<tag k="place" v="hamlet" />
		<tag k="ssr:stedsnr" v="751714" />
	</node>
	<node changeset="70106029" id="6464327636" lat="59.8074917" lon="10.7977639" timestamp="2019-05-10T11:36:33Z" uid="633013" user="Honning" version="1">
		<tag k="name" v="Båtsleppa" />
		<tag k="place" v="hamlet" />
		<tag k="ssr:stedsnr" v="751723" />
	</node>
	<node changeset="6670982" id="1039753174" lat="59.8140675" lon="10.7647115" timestamp="2010-12-15T20:01:26Z" uid="11992" user="vibrog" version="1" />
	<node changeset="70106029" id="6464327639" lat="59.771625" lon="10.8049722" timestamp="2019-05-10T11:36:33Z" uid="633013" user="Honning" version="1">
		<tag k="alt_name" v="Greverud, vestre" />
		<tag k="name" v="Vestre Greverud" />
		<tag k="place" v="farm" />
		<tag k="ssr:stedsnr" v="793466" />
	</node>
	<node changeset="70106029" id="6464327640" lat="59.822575" lon="10.7742222" timestamp="2019-05-10T11:36:33Z" uid="633013" user="Honning" version="1">
		<tag k="alt_name" v="Mastemyr industriområde" />
		<tag k="name" v="Mastemyr" />
		<tag k="place" v="quarter" />
		<tag k="ssr:stedsnr" v="793319" />
	</node>
	<node changeset="70106029" id="6464327641" lat="59.8090917" lon="10.7425" timestamp="2019-05-10T11:36:34Z" uid="633013" user="Honning" version="1">
		<tag k="name" v="Strandkollen" />
		<tag k="place" v="isolated_dwelling" />
		<tag k="ssr:stedsnr" v="794235" />
	</node>
	<node changeset="70106029" id="6464327642" lat="59.8025917" lon="10.8196167" timestamp="2019-05-10T11:36:34Z" uid="633013" user="Honning" version="1">
		<tag k="alt_name" v="Øgården" />
		<tag k="name" v="Ødegården" />
		<tag k="place" v="isolated_dwelling" />
		<tag k="ssr:stedsnr" v="794240" />
	</node>
	<node changeset="70106029" id="6464327643" lat="59.7858806" lon="10.7444194" timestamp="2019-05-10T11:36:34Z" uid="633013" user="Honning" version="1">
		<tag k="leisure" v="pitch" />
		<tag k="name" v="Vestenga idrettsplass" />
		<tag k="ssr:stedsnr" v="812133" />
	</node>
	<node changeset="70106029" id="6464327644" lat="59.8020639" lon="10.7914305" timestamp="2019-05-10T11:36:34Z" uid="633013" user="Honning" version="1">
		<tag k="landuse" v="winter_sports" />
		<tag k="name" v="Ingierkollen" />
		<tag k="piste:type" v="downhill" />
		<tag k="ssr:stedsnr" v="812135" />
	</node>
	<node changeset="70106029" id="6464327645" lat="59.7645722" lon="10.8255" timestamp="2019-05-10T11:36:34Z" uid="633013" user="Honning" version="1">
		<tag k="name" v="Fjell" />
		<tag k="place" v="locality" />
		<tag k="ssr:stedsnr" v="812140" />
	</node>
	<node changeset="70106029" id="6464327647" lat="59.8220611" lon="10.7529861" timestamp="2019-05-10T11:36:34Z" uid="633013" user="Honning" version="1">
		<tag k="name" v="Sandbukta" />
		<tag k="place" v="isolated_dwelling" />
		<tag k="ssr:stedsnr" v="854278" />
	</node>
	<node changeset="70106029" id="6464327648" lat="59.80285" lon="10.786975" timestamp="2019-05-10T11:36:34Z" uid="633013" user="Honning" version="1">
		<tag k="name" v="Vassbonn" />
		<tag k="place" v="isolated_dwelling" />
		<tag k="ssr:stedsnr" v="854341" />
	</node>
	<node changeset="70106029" id="6464327649" lat="59.7656" lon="10.7802083" timestamp="2019-05-10T11:36:34Z" uid="633013" user="Honning" version="1">
		<tag k="name" v="Sjeisen" />
		<tag k="place" v="isolated_dwelling" />
		<tag k="ssr:stedsnr" v="854401" />
	</node>
	<node changeset="70106029" id="6464327650" lat="59.8068639" lon="10.8199361" timestamp="2019-05-10T11:36:34Z" uid="633013" user="Honning" version="1">
		<tag k="name" v="Hellerasten" />
		<tag k="place" v="quarter" />
		<tag k="ssr:stedsnr" v="855270" />
	</node>
	<node changeset="70106029" id="6464327651" lat="59.8185556" lon="10.816225" timestamp="2019-05-10T11:36:34Z" uid="633013" user="Honning" version="1">
		<tag k="name" v="Tårnåsen" />
		<tag k="place" v="isolated_dwelling" />
		<tag k="ssr:stedsnr" v="187502;915265" />
	</node>
	<node changeset="70106029" id="6464327652" lat="59.789275" lon="10.7731472" timestamp="2019-05-10T11:36:34Z" uid="633013" user="Honning" version="1">
		<tag k="alt_name" v="Villa Sandvigen" />
		<tag k="name" v="Sandvika" />
		<tag k="place" v="isolated_dwelling" />
		<tag k="ssr:stedsnr" v="915323" />
	</node>
	<node changeset="70106029" id="6464327653" lat="59.7916972" lon="10.7746306" timestamp="2019-05-10T11:36:34Z" uid="633013" user="Honning" version="1">
		<tag k="name" v="Tyrigrava" />
		<tag k="place" v="isolated_dwelling" />
		<tag k="ssr:stedsnr" v="915325" />
	</node>
	<node changeset="70106029" id="6464327654" lat="59.7625" lon="10.8093139" timestamp="2019-05-10T11:36:34Z" uid="633013" user="Honning" version="1">
		<tag k="name" v="Sætre" />
		<tag k="place" v="isolated_dwelling" />
		<tag k="ssr:stedsnr" v="915373" />
	</node>
	<node changeset="70106029" id="6464327655" lat="59.7684389" lon="10.819875" timestamp="2019-05-10T11:36:34Z" uid="633013" user="Honning" version="1">
		<tag k="name" v="Sætreskogen" />
		<tag k="place" v="quarter" />
		<tag k="ssr:stedsnr" v="915411" />
	</node>
	<node changeset="70106029" id="6464327656" lat="59.8237167" lon="10.8111806" timestamp="2019-05-10T11:36:34Z" uid="633013" user="Honning" version="1">
		<tag k="name" v="Øvre Ormerud" />
		<tag k="place" v="quarter" />
		<tag k="ssr:stedsnr" v="934651" />
	</node>
	<node changeset="70106029" id="6464327657" lat="59.7785194" lon="10.8202528" timestamp="2019-05-10T11:36:34Z" uid="633013" user="Honning" version="1">
		<tag k="alt_name" v="Nylendet (nedl.)" />
		<tag k="name" v="Nylenda" />
		<tag k="place" v="isolated_dwelling" />
		<tag k="ssr:stedsnr" v="308285" />
	</node>
	<node changeset="70106029" id="6464327658" lat="59.8113694" lon="10.7993278" timestamp="2019-05-10T11:36:34Z" uid="633013" user="Honning" version="1">
		<tag k="building" v="commercial" />
		<tag k="name" v="Solgården" />
		<tag k="ssr:stedsnr" v="327515" />
	</node>
	<node changeset="70106029" id="6464327660" lat="59.7914" lon="10.7331667" timestamp="2019-05-10T11:36:34Z" uid="633013" user="Honning" version="1">
		<tag k="alt_name" v="Bekkensten" />
		<tag k="name" v="Bekkenstein" />
		<tag k="place" v="isolated_dwelling" />
		<tag k="ssr:stedsnr" v="368369" />
	</node>
	<node changeset="70106029" id="6464327661" lat="59.7952889" lon="10.7636" timestamp="2019-05-10T11:36:35Z" uid="633013" user="Honning" version="1">
		<tag k="alt_name" v="Bråte" />
		<tag k="name" v="Bråtan" />
		<tag k="old_name" v="Bråten" />
		<tag k="place" v="farm" />
		<tag k="ssr:stedsnr" v="368390" />
	</node>
	<node changeset="70106029" id="6464327662" lat="59.7711972" lon="10.825625" timestamp="2019-05-10T11:36:35Z" uid="633013" user="Honning" version="1">
		<tag k="name" v="Slåbråtan" />
		<tag k="old_name" v="Slåbråten" />
		<tag k="place" v="isolated_dwelling" />
		<tag k="ssr:stedsnr" v="368458" />
	</node>
	<node changeset="70106029" id="6464327663" lat="59.8253861" lon="10.7600361" timestamp="2019-05-10T11:36:35Z" uid="633013" user="Honning" version="1">
		<tag k="name" v="Sandbuktfeltet" />
		<tag k="place" v="isolated_dwelling" />
		<tag k="ssr:stedsnr" v="387675" />
	</node>
	<node changeset="70106029" id="6464327664" lat="59.8043472" lon="10.8218944" timestamp="2019-05-10T11:36:35Z" uid="633013" user="Honning" version="1">
		<tag k="name" v="Nordre Ødegården" />
		<tag k="place" v="hamlet" />
		<tag k="ssr:stedsnr" v="387686" />
	</node>
	<node changeset="70106029" id="6464327665" lat="59.7665083" lon="10.7388389" timestamp="2019-05-10T11:36:35Z" uid="633013" user="Honning" version="1">
		<tag k="name" v="Trolldalshytta" />
		<tag k="place" v="isolated_dwelling" />
		<tag k="ssr:stedsnr" v="388492" />
	</node>
	<node changeset="70106029" id="6464327666" lat="59.7743306" lon="10.7329639" timestamp="2019-05-10T11:36:35Z" uid="633013" user="Honning" version="1">
		<tag k="name" v="Linnekastet" />
		<tag k="place" v="isolated_dwelling" />
		<tag k="ssr:stedsnr" v="389210" />
	</node>
	<node changeset="70106029" id="6464327667" lat="59.800629" lon="10.804043" timestamp="2019-05-10T11:36:35Z" uid="633013" user="Honning" version="1">
		<tag k="name" v="Solbråtan" />
		<tag k="place" v="quarter" />
		<tag k="ssr:stedsnr" v="987843" />
	</node>
	<node changeset="70106029" id="6464327669" lat="59.8190222" lon="10.8150944" timestamp="2019-05-10T11:36:35Z" uid="633013" user="Honning" version="1">
		<tag k="building" v="commercial" />
		<tag k="name" v="Tårnåsen senter" />
		<tag k="ssr:stedsnr" v="267476" />
	</node>
	<node changeset="70106029" id="6464327670" lat="59.7780722" lon="10.8038861" timestamp="2019-05-10T11:36:35Z" uid="633013" user="Honning" version="1">
		<tag k="name" v="Frydenberg" />
		<tag k="place" v="farm" />
		<tag k="ssr:stedsnr" v="4316" />
	</node>
	<node changeset="70106029" id="6464327671" lat="59.7943556" lon="10.7986889" timestamp="2019-05-10T11:36:35Z" uid="633013" user="Honning" version="1">
		<tag k="alt_name" v="Ekornrud" />
		<tag k="name" v="Nedre Ekornrud" />
		<tag k="place" v="isolated_dwelling" />
		<tag k="ssr:stedsnr" v="4329" />
	</node>
	<node changeset="70106029" id="6464327672" lat="59.7906" lon="10.8066472" timestamp="2019-05-10T11:36:35Z" uid="633013" user="Honning" version="1">
		<tag k="alt_name" v="Tømtehytta" />
		<tag k="name" v="Øvre Ekornrud" />
		<tag k="place" v="farm" />
		<tag k="ssr:stedsnr" v="65322" />
	</node>
	<node changeset="70106029" id="6464327673" lat="59.78475" lon="10.8225806" timestamp="2019-05-10T11:36:35Z" uid="633013" user="Honning" version="1">
		<tag k="alt_name" v="Sagstuen" />
		<tag k="name" v="Sagstua" />
		<tag k="place" v="farm" />
		<tag k="ssr:stedsnr" v="65324" />
	</node>
	<node changeset="70106029" id="6464327674" lat="59.8100639" lon="10.7896222" timestamp="2019-05-10T11:36:35Z" uid="633013" user="Honning" version="1">
		<tag k="name" v="Ingieråsen" />
		<tag k="place" v="quarter" />
		<tag k="ssr:stedsnr" v="66245" />
	</node>
	<node changeset="70106029" id="6464327675" lat="59.82885" lon="10.7651972" timestamp="2019-05-10T11:36:35Z" uid="633013" user="Honning" version="1">
		<tag k="name" v="Ljansbruket" />
		<tag k="place" v="quarter" />
		<tag k="ssr:stedsnr" v="84706" />
	</node>
	<node changeset="70106029" id="6464327676" lat="59.7659583" lon="10.7388139" timestamp="2019-05-10T11:36:35Z" uid="633013" user="Honning" version="1">
		<tag k="name" v="Guristuen" />
		<tag k="place" v="isolated_dwelling" />
		<tag k="ssr:stedsnr" v="85445" />
	</node>
	<node changeset="70106029" id="6464327677" lat="59.8105611" lon="10.8038917" timestamp="2019-05-10T11:36:35Z" uid="633013" user="Honning" version="1">
		<tag k="name" v="Kolbotn" />
		<tag k="place" v="village" />
		<tag k="ssr:stedsnr" v="85582" />
	</node>
	<node changeset="12718651" id="1864754686" lat="59.8130447" lon="10.804896" timestamp="2012-08-13T19:40:21Z" uid="605010" user="Noen" version="1" />
	<node changeset="12718651" id="1864754687" lat="59.813518" lon="10.8048431" timestamp="2012-08-13T19:40:21Z" uid="605010" user="Noen" version="1" />
	<way changeset="70279990" id="48805064" timestamp="2019-05-15T15:00:52Z" uid="3497659" user="NKA" version="12">
		<tag k="amenity" v="school" />
		<tag k="capacity" v="386" />
		<tag k="email" v="kolbotn.skole@oppegard.kommune.no" />
		<tag k="fee" v="no" />
		<tag k="grades" v="1-7" />
		<tag k="isced:level" v="1" />
		<tag k="name" v="Kolbotn skole" />
		<tag k="operator" v="Oppegård kommune" />
		<tag k="operator:type" v="public" />
		<tag k="phone" v="+47 66813200" />
		<tag k="ref:gsi" v="2113" />
		<tag k="ref:udir_nsr" v="1006556" />
		<tag k="ssr:stedsnr" v="570466" />
		<tag k="website" v="http://kolbotn.gs.ah.no/" />
		<tag k="wikidata" v="Q19377627" />
		<nd ref="296919925" />
		<nd ref="619243059" />
		<nd ref="619243062" />
		<nd ref="619243065" />
		<nd ref="619243068" />
		<nd ref="296920109" />
		<nd ref="296920108" />
		<nd ref="296920226" />
		<nd ref="1864754686" />
		<nd ref="296919933" />
		<nd ref="296919931" />
		<nd ref="296919929" />
		<nd ref="1864754687" />
		<nd ref="296919927" />
		<nd ref="1864754688" />
		<nd ref="1864754689" />
		<nd ref="5279473034" />
		<nd ref="619243080" />
		<nd ref="508912362" />
		<nd ref="296919925" />
	</way>
	<way changeset="70106439" id="689114092" timestamp="2019-05-10T11:49:20Z" uid="633013" user="Honning" version="1">
		<tag k="leisure" v="swimming_area" />
		<tag k="name" v="Julekvelden" />
		<tag k="natural" v="beach" />
		<tag k="place" v="locality" />
		<tag k="ssr:stedsnr" v="205131" />
		<tag k="surface" v="sand" />
		<nd ref="4128558492" />
		<nd ref="6464355715" />
		<nd ref="6464355714" />
		<nd ref="6464355713" />
		<nd ref="6464355712" />
		<nd ref="4128558492" />
	</way>
	<way changeset="70106029" id="89719054" timestamp="2019-05-10T11:36:38Z" uid="633013" user="Honning" version="2">
		<tag k="landuse" v="residential" />
		<tag k="name" v="Hvitebjørn" />
		<tag k="place" v="farm" />
		<tag k="source" v="Bing" />
		<tag k="ssr:stedsnr" v="65266" />
		<nd ref="1039753174" />
		<nd ref="1039752318" />
		<nd ref="1039753075" />
		<nd ref="1039752112" />
		<nd ref="1039753220" />
		<nd ref="1039752464" />
		<nd ref="1039751790" />
		<nd ref="1039752605" />
		<nd ref="1039753174" />
	</way>
</osm>
