<?xml version="1.0" encoding="UTF-8"?>
<osm generator="osmapis" version="0.6">
	<node id="-108543" lat="60.9094361094" lon="10.3066861109">
		<tag k="bridge" v="yes" />
		<tag k="layer" v="1" />
		<tag k="name" v="Finna" />
		<tag k="ssr:stedsnr" v="956454" />
	</node>
	<node id="-108542" lat="60.914050003" lon="10.6609916685">
		<tag k="bridge" v="yes" />
		<tag k="layer" v="1" />
		<tag k="name" v="Skulhus" />
		<tag k="ssr:stedsnr" v="956444" />
	</node>
	<node id="-108541" lat="60.8145472241" lon="10.486094453">
		<tag k="bridge" v="yes" />
		<tag k="layer" v="1" />
		<tag k="name" v="Ålstad" />
		<tag k="ssr:stedsnr" v="956422" />
	</node>
	<node id="-108021" lat="60.9153861115" lon="10.5441166755">
		<tag k="highway" v="path" />
		<tag k="name" v="Hasselknippsetervegen" />
		<tag k="ssr:stedsnr" v="708344" />
	</node>
	<node id="-106982" lat="60.8912666709" lon="10.551647223">
		<tag k="bridge" v="yes" />
		<tag k="layer" v="1" />
		<tag k="name" v="Markeng" />
		<tag k="ssr:stedsnr" v="107445" />
	</node>
	<node id="-106981" lat="60.7939361138" lon="10.6940583326">
		<tag k="bridge" v="yes" />
		<tag k="layer" v="1" />
		<tag k="name" v="Hunselva" />
		<tag k="ssr:stedsnr" v="107437" />
	</node>
	<node id="-106980" lat="60.7965916647" lon="10.5612749966">
		<tag k="bridge" v="yes" />
		<tag k="layer" v="1" />
		<tag k="name" v="Ringen" />
		<tag k="ssr:stedsnr" v="107413" />
	</node>
	<node id="-106979" lat="60.7971805601" lon="10.5508527708">
		<tag k="bridge" v="yes" />
		<tag k="layer" v="1" />
		<tag k="name" v="Ytterset" />
		<tag k="ssr:stedsnr" v="106381" />
	</node>
	<node id="-108514" lat="60.8847888847" lon="10.5471972173">
		<tag k="highway" v="path" />
		<tag k="name" v="Kvatumsvegen" />
		<tag k="ssr:stedsnr" v="951452" />
	</node>
	<node id="-107481" lat="60.8585638933" lon="10.6987305591">
		<tag k="bridge" v="yes" />
		<tag k="layer" v="1" />
		<tag k="name" v="Kolberg" />
		<tag k="ssr:stedsnr" v="471438" />
	</node>
	<node id="-107480" lat="60.9777583326" lon="10.5828472229">
		<tag k="bridge" v="yes" />
		<tag k="layer" v="1" />
		<tag k="name" v="Sembshagen" />
		<tag k="ssr:stedsnr" v="471408" />
	</node>
	<node id="-107479" lat="60.7901194435" lon="10.6724222294">
		<tag k="bridge" v="yes" />
		<tag k="layer" v="1" />
		<tag k="name" v="Mustad" />
		<tag k="ssr:stedsnr" v="471397" />
	</node>
	<node id="-107478" lat="61.0115916677" lon="10.4765416607">
		<tag k="bridge" v="yes" />
		<tag k="layer" v="1" />
		<tag k="name" v="Myhre" />
		<tag k="ssr:stedsnr" v="471395" />
	</node>
	<node id="-107989" lat="60.8953444439" lon="10.6658444422">
		<tag k="man_made" v="quay" />
		<tag k="name" v="Sveabrygga" />
		<tag k="place" v="locality" />
		<tag k="ssr:stedsnr" v="708104" />
	</node>
	<node id="-107453" lat="60.8759555536" lon="10.3688166576">
		<tag k="fixme" v="verify maritime location" />
		<tag k="mooring" v="yes" />
		<tag k="name" v="Båthusbakken" />
		<tag k="place" v="locality" />
		<tag k="ssr:stedsnr" v="466196" />
	</node>
	<node id="-106419" lat="60.7841638895" lon="10.6576527798">
		<tag k="alt_name" v="Nygard" />
		<tag k="name" v="Nygard stasjon" />
		<tag k="railway" v="station" />
		<tag k="ssr:stedsnr" v="373020" />
		<tag k="train" v="yes" />
	</node>
	<node id="-106406" lat="60.7972000002" lon="10.6943194396">
		<tag k="name" v="Gjøvik stasjon" />
		<tag k="railway" v="station" />
		<tag k="ssr:stedsnr" v="359598" />
		<tag k="train" v="yes" />
	</node>
	<node id="-106405" lat="60.9205777738" lon="10.6266611037">
		<tag k="name" v="Klundbyfløyten" />
		<tag k="place" v="locality" />
		<tag k="ssr:stedsnr" v="359507" />
	</node>
	<node id="-106402" lat="60.8812916703" lon="10.5374111035">
		<tag k="bridge" v="yes" />
		<tag k="layer" v="1" />
		<tag k="name" v="Lønnum" />
		<tag k="ssr:stedsnr" v="349493" />
	</node>
	<node id="-106401" lat="60.8078722257" lon="10.6858888913">
		<tag k="bridge" v="yes" />
		<tag k="layer" v="1" />
		<tag k="name" v="Gjøvik vannverk" />
		<tag k="ssr:stedsnr" v="349483" />
	</node>
	<node id="-106400" lat="60.921866663" lon="10.658838887">
		<tag k="bridge" v="yes" />
		<tag k="layer" v="1" />
		<tag k="name" v="Fjordheim" />
		<tag k="ssr:stedsnr" v="349482" />
	</node>
	<node id="-106399" lat="60.8868166642" lon="10.6724666729">
		<tag k="bridge" v="yes" />
		<tag k="layer" v="1" />
		<tag k="name" v="Stokke Ny" />
		<tag k="ssr:stedsnr" v="349477" />
	</node>
	<node id="-107917" lat="61.001358337" lon="10.485372215">
		<tag k="bridge" v="yes" />
		<tag k="layer" v="1" />
		<tag k="name" v="Kalverud" />
		<tag k="ssr:stedsnr" v="653415" />
	</node>
	<node id="-107916" lat="60.9488750006" lon="10.2424472187">
		<tag k="bridge" v="yes" />
		<tag k="layer" v="1" />
		<tag k="name" v="Øvre Finna" />
		<tag k="ssr:stedsnr" v="653409" />
	</node>
	<node id="-107915" lat="60.9929222243" lon="10.5189722175">
		<tag k="bridge" v="yes" />
		<tag k="layer" v="1" />
		<tag k="name" v="Rogne" />
		<tag k="ssr:stedsnr" v="653398" />
	</node>
	<node id="-107914" lat="60.8075333298" lon="10.469541659">
		<tag k="bridge" v="yes" />
		<tag k="layer" v="1" />
		<tag k="name" v="Mustad" />
		<tag k="ssr:stedsnr" v="653390" />
	</node>
	<node id="-107913" lat="60.8512388904" lon="10.6912555496">
		<tag k="bridge" v="yes" />
		<tag k="layer" v="1" />
		<tag k="name" v="Ødegården" />
		<tag k="ssr:stedsnr" v="652352" />
	</node>
	<node id="-107884" lat="60.8683083311" lon="10.4928611071">
		<tag k="bridge" v="yes" />
		<tag k="layer" v="1" />
		<tag k="name" v="Glæstadplass-Møllebrua" />
		<tag k="ssr:stedsnr" v="647465" />
	</node>
	<node id="-106837" lat="61.0015666653" lon="10.2374055495">
		<tag k="highway" v="path" />
		<tag k="name" v="Lundsetervegen" />
		<tag k="ssr:stedsnr" v="55483" />
	</node>
	<node id="-106836" lat="60.7840777769" lon="10.6502111196">
		<tag k="bridge" v="yes" />
		<tag k="layer" v="1" />
		<tag k="name" v="Lilleengen" />
		<tag k="ssr:stedsnr" v="46469" />
	</node>
	<node id="-106835" lat="61.000175003" lon="10.4996888967">
		<tag k="bridge" v="yes" />
		<tag k="layer" v="1" />
		<tag k="name" v="Strandengen" />
		<tag k="ssr:stedsnr" v="46450" />
	</node>
	<node id="-106834" lat="60.7923055544" lon="10.695397223">
		<tag k="bridge" v="yes" />
		<tag k="layer" v="1" />
		<tag k="name" v="Strandgata" />
		<tag k="ssr:stedsnr" v="46448" />
	</node>
	<node id="-106833" lat="60.9549916698" lon="10.6249361179">
		<tag k="bridge" v="yes" />
		<tag k="layer" v="1" />
		<tag k="name" v="Paradisvika" />
		<tag k="ssr:stedsnr" v="46435" />
	</node>
	<node id="-106832" lat="60.7844583344" lon="10.6406694457">
		<tag k="bridge" v="yes" />
		<tag k="layer" v="1" />
		<tag k="name" v="Ås" />
		<tag k="ssr:stedsnr" v="46419" />
	</node>
	<node id="-106831" lat="60.8011083332" lon="10.5396527747">
		<tag k="bridge" v="yes" />
		<tag k="layer" v="1" />
		<tag k="name" v="Varde" />
		<tag k="ssr:stedsnr" v="46412" />
	</node>
	<node id="-108351" lat="60.9426277738" lon="10.6427166603">
		<tag k="bridge" v="yes" />
		<tag k="layer" v="1" />
		<tag k="name" v="Eriksrud" />
		<tag k="ssr:stedsnr" v="835466" />
	</node>
	<node id="-108350" lat="60.8834222183" lon="10.5556194484">
		<tag k="bridge" v="yes" />
		<tag k="layer" v="1" />
		<tag k="name" v="Brustuen" />
		<tag k="ssr:stedsnr" v="835458" />
	</node>
	<node id="-108349" lat="60.9547361112" lon="10.6248944422">
		<tag k="bridge" v="yes" />
		<tag k="layer" v="1" />
		<tag k="name" v="Travbana" />
		<tag k="ssr:stedsnr" v="835455" />
	</node>
	<node id="-108348" lat="60.8862916654" lon="10.6729416707">
		<tag k="bridge" v="yes" />
		<tag k="layer" v="1" />
		<tag k="name" v="Stokke" />
		<tag k="ssr:stedsnr" v="835451" />
	</node>
	<node id="-108347" lat="60.7975749984" lon="10.604786111">
		<tag k="bridge" v="yes" />
		<tag k="layer" v="1" />
		<tag k="name" v="Skarpsno" />
		<tag k="ssr:stedsnr" v="835446" />
	</node>
	<node id="-108346" lat="60.927250002" lon="10.6554249917">
		<tag k="bridge" v="yes" />
		<tag k="layer" v="1" />
		<tag k="name" v="Sandvoll" />
		<tag k="ssr:stedsnr" v="835439" />
	</node>
	<node id="-108345" lat="60.7890611092" lon="10.6661083283">
		<tag k="bridge" v="yes" />
		<tag k="layer" v="1" />
		<tag k="name" v="Mustadflåa" />
		<tag k="ssr:stedsnr" v="835434" />
	</node>
	<node id="-108344" lat="60.9575222211" lon="10.6079972307">
		<tag k="bridge" v="yes" />
		<tag k="layer" v="1" />
		<tag k="name" v="Vismunda" />
		<tag k="ssr:stedsnr" v="835412" />
	</node>
	<node id="-108324" lat="60.8856361067" lon="10.5902472309">
		<tag k="bridge" v="yes" />
		<tag k="layer" v="1" />
		<tag k="name" v="Skavdalen bru" />
		<tag k="ssr:stedsnr" v="830447" />
	</node>
	<node id="-106266" lat="60.7912444413" lon="10.5758166673">
		<tag k="bridge" v="yes" />
		<tag k="layer" v="1" />
		<tag k="name" v="Malerbekken" />
		<tag k="ssr:stedsnr" v="289441" />
	</node>
	<node id="-106265" lat="60.7891249961" lon="10.6481472254">
		<tag k="bridge" v="yes" />
		<tag k="layer" v="1" />
		<tag k="name" v="Hunndalen" />
		<tag k="ssr:stedsnr" v="289433" />
	</node>
	<node id="-106264" lat="60.7993694432" lon="10.5382000049">
		<tag k="bridge" v="yes" />
		<tag k="layer" v="1" />
		<tag k="name" v="Sjåheim" />
		<tag k="ssr:stedsnr" v="289410" />
	</node>
	<node id="-106263" lat="60.7849555575" lon="10.662030563">
		<tag k="bridge" v="yes" />
		<tag k="layer" v="1" />
		<tag k="name" v="Møllevegen" />
		<tag k="ssr:stedsnr" v="289402" />
	</node>
	<node id="-106262" lat="60.968022224" lon="10.6018111091">
		<tag k="bridge" v="yes" />
		<tag k="layer" v="1" />
		<tag k="name" v="Biri verk" />
		<tag k="ssr:stedsnr" v="289305" />
	</node>
	<node id="-106261" lat="60.7738861076" lon="10.705613889">
		<tag k="bridge" v="yes" />
		<tag k="layer" v="1" />
		<tag k="name" v="Bondelia" />
		<tag k="ssr:stedsnr" v="289298" />
	</node>
	<node id="-106772" lat="60.9067555553" lon="10.4633222243">
		<tag k="highway" v="path" />
		<tag k="name" v="Redalsetervegen" />
		<tag k="ssr:stedsnr" v="40180" />
	</node>
	<node id="-107278" lat="60.9890222257" lon="10.544016663">
		<tag k="bridge" v="yes" />
		<tag k="layer" v="1" />
		<tag k="name" v="Grythe" />
		<tag k="ssr:stedsnr" v="228468" />
	</node>
	<node id="-107277" lat="60.9373416695" lon="10.2500333248">
		<tag k="bridge" v="yes" />
		<tag k="layer" v="1" />
		<tag k="name" v="Nedre Finna" />
		<tag k="ssr:stedsnr" v="228463" />
	</node>
	<node id="-107276" lat="60.8824527751" lon="10.6861194396">
		<tag k="bridge" v="yes" />
		<tag k="layer" v="1" />
		<tag k="name" v="Slettum" />
		<tag k="ssr:stedsnr" v="228454" />
	</node>
	<node id="-107275" lat="60.9851194481" lon="10.5605916651">
		<tag k="bridge" v="yes" />
		<tag k="layer" v="1" />
		<tag k="name" v="Roterud" />
		<tag k="ssr:stedsnr" v="228445" />
	</node>
	<node id="-107265" lat="61.0040555565" lon="10.3926777855">
		<tag k="junction" v="yes" />
		<tag k="name" v="Kullmyrbrotten" />
		<tag k="place" v="locality" />
		<tag k="ssr:stedsnr" v="223701" />
	</node>
	<node id="-107477" lat="60.7840305513" lon="10.6225749936">
		<tag k="bridge" v="yes" />
		<tag k="layer" v="1" />
		<tag k="name" v="Brattsveen" />
		<tag k="ssr:stedsnr" v="471298" />
	</node>
	<node id="-107765" lat="60.7983027805" lon="10.6972194492">
		<tag k="man_made" v="quay" />
		<tag k="name" v="Gjøvik brygge" />
		<tag k="place" v="locality" />
		<tag k="ssr:stedsnr" v="601549" />
	</node>
	<node id="-107251" lat="60.7908388912" lon="10.3991083341">
		<tag k="junction" v="yes" />
		<tag k="name" v="Borgen" />
		<tag k="place" v="locality" />
		<tag k="ssr:stedsnr" v="223469" />
	</node>
	<node id="-107761" lat="60.9953277772" lon="10.5121527713">
		<tag k="bridge" v="yes" />
		<tag k="layer" v="1" />
		<tag k="name" v="Huskelhus" />
		<tag k="ssr:stedsnr" v="592459" />
	</node>
	<node id="-107760" lat="60.8426805516" lon="10.6199583402">
		<tag k="alt_name" v="Skarkerud" />
		<tag k="bridge" v="yes" />
		<tag k="layer" v="1" />
		<tag k="name" v="Skarkerud bru" />
		<tag k="ssr:stedsnr" v="592437" />
	</node>
	<node id="-107759" lat="60.9898444421" lon="10.5362555573">
		<tag k="bridge" v="yes" />
		<tag k="layer" v="1" />
		<tag k="name" v="Oppsahl" />
		<tag k="ssr:stedsnr" v="592434" />
	</node>
	<node id="-107758" lat="60.8671972209" lon="10.4418027784">
		<tag k="bridge" v="yes" />
		<tag k="layer" v="1" />
		<tag k="name" v="Austdal" />
		<tag k="ssr:stedsnr" v="592323" />
	</node>
	<node id="-107757" lat="60.8970388901" lon="10.4140916654">
		<tag k="bridge" v="yes" />
		<tag k="layer" v="1" />
		<tag k="name" v="Sveum" />
		<tag k="ssr:stedsnr" v="591405" />
	</node>
	<node id="-107756" lat="61.0253527782" lon="10.4490750035">
		<tag k="bridge" v="yes" />
		<tag k="layer" v="1" />
		<tag k="name" v="Stranda" />
		<tag k="ssr:stedsnr" v="591402" />
	</node>
	<node id="-107755" lat="60.9577888915" lon="10.6233305623">
		<tag k="bridge" v="yes" />
		<tag k="layer" v="1" />
		<tag k="name" v="Skumsrud" />
		<tag k="ssr:stedsnr" v="591400" />
	</node>
	<node id="-107753" lat="60.7291805516" lon="10.5121833283">
		<tag k="name" v="Eikvelta" />
		<tag k="place" v="locality" />
		<tag k="ssr:stedsnr" v="587931" />
	</node>
	<node id="-107745" lat="61.0050138866" lon="10.4346111062">
		<tag k="fixme" v="consider highway=path" />
		<tag k="highway" v="track" />
		<tag k="name" v="Gamle Bratbergsetervegen" />
		<tag k="ssr:stedsnr" v="587678" />
	</node>
	<node id="-106691" lat="60.7528027791" lon="10.6239888932">
		<tag k="bridge" v="yes" />
		<tag k="layer" v="1" />
		<tag k="name" v="Breiskallen" />
		<tag k="ssr:stedsnr" v="592111" />
	</node>
	<node id="-108211" lat="60.7924250013" lon="10.695458327">
		<tag k="layer" v="-1" />
		<tag k="name" v="Støyperilokket" />
		<tag k="ssr:stedsnr" v="788463" />
		<tag k="tunnel" v="yes" />
	</node>
	<node id="-108205" lat="60.8916750043" lon="10.6695166674">
		<tag k="bridge" v="yes" />
		<tag k="layer" v="1" />
		<tag k="name" v="Sveen" />
		<tag k="ssr:stedsnr" v="774460" />
	</node>
	<node id="-108204" lat="60.7845472227" lon="10.648622222">
		<tag k="bridge" v="yes" />
		<tag k="layer" v="1" />
		<tag k="name" v="Trådtrekkeriet" />
		<tag k="ssr:stedsnr" v="774432" />
	</node>
	<node id="-108203" lat="60.9864861069" lon="10.5562194515">
		<tag k="bridge" v="yes" />
		<tag k="layer" v="1" />
		<tag k="name" v="Heggelund" />
		<tag k="ssr:stedsnr" v="774466" />
	</node>
	<node id="-108202" lat="60.8375694472" lon="10.5606888979">
		<tag k="bridge" v="yes" />
		<tag k="layer" v="1" />
		<tag k="name" v="Gubberud" />
		<tag k="ssr:stedsnr" v="774465" />
	</node>
	<node id="-108192" lat="61.0153333309" lon="10.4056166581">
		<tag k="fixme" v="consider highway=path" />
		<tag k="highway" v="track" />
		<tag k="name" v="Søndre Bjørnstadvegen" />
		<tag k="ssr:stedsnr" v="769656" />
	</node>
	<node id="-107149" lat="60.8334750044" lon="10.4705444358">
		<tag k="bridge" v="yes" />
		<tag k="layer" v="1" />
		<tag k="name" v="Hågåengen" />
		<tag k="ssr:stedsnr" v="167462" />
	</node>
	<node id="-107148" lat="61.0258777769" lon="10.4481472295">
		<tag k="bridge" v="yes" />
		<tag k="layer" v="1" />
		<tag k="name" v="Sveen" />
		<tag k="ssr:stedsnr" v="167445" />
	</node>
	<node id="-107147" lat="60.8776750024" lon="10.5017777718">
		<tag k="bridge" v="yes" />
		<tag k="layer" v="1" />
		<tag k="name" v="Snartum" />
		<tag k="ssr:stedsnr" v="167436" />
	</node>
	<node id="-107146" lat="60.8980555597" lon="10.3417416605">
		<tag k="bridge" v="yes" />
		<tag k="layer" v="1" />
		<tag k="name" v="Ålset" />
		<tag k="ssr:stedsnr" v="167407" />
	</node>
	<node id="-107145" lat="60.7834194425" lon="10.6291861045">
		<tag k="bridge" v="yes" />
		<tag k="layer" v="1" />
		<tag k="name" v="Åsmarka" />
		<tag k="ssr:stedsnr" v="167402" />
	</node>
	<node id="-107638" lat="60.7978916641" lon="10.6999555607">
		<tag k="man_made" v="quay" />
		<tag k="name" v="Skibladnerbrygga" />
		<tag k="place" v="locality" />
		<tag k="ssr:stedsnr" v="541596" />
	</node>
	<node id="-107636" lat="60.9031416639" lon="10.6639916643">
		<tag k="bridge" v="yes" />
		<tag k="layer" v="1" />
		<tag k="name" v="Lier" />
		<tag k="ssr:stedsnr" v="531456" />
	</node>
	<node id="-107635" lat="61.0163444426" lon="10.4638194499">
		<tag k="bridge" v="yes" />
		<tag k="layer" v="1" />
		<tag k="name" v="Feiring" />
		<tag k="ssr:stedsnr" v="531440" />
	</node>
	<node id="-107634" lat="60.8768805577" lon="10.4451611153">
		<tag k="bridge" v="yes" />
		<tag k="layer" v="1" />
		<tag k="name" v="Vesleelv" />
		<tag k="ssr:stedsnr" v="531397" />
	</node>
	<node id="-106607" lat="60.8219527752" lon="10.6731055541">
		<tag k="bridge" v="yes" />
		<tag k="layer" v="1" />
		<tag k="name" v="Bråstad" />
		<tag k="ssr:stedsnr" v="896660" />
	</node>
	<node id="-106606" lat="60.7872583354" lon="10.6685055559">
		<tag k="bridge" v="yes" />
		<tag k="layer" v="1" />
		<tag k="name" v="Kallerud" />
		<tag k="ssr:stedsnr" v="896451" />
	</node>
	<node id="-106605" lat="60.9323722266" lon="10.6536722214">
		<tag k="bridge" v="yes" />
		<tag k="layer" v="1" />
		<tag k="name" v="Fremstad" />
		<tag k="ssr:stedsnr" v="896447" />
	</node>
	<node id="-106604" lat="60.9009611121" lon="10.3179611045">
		<tag k="bridge" v="yes" />
		<tag k="layer" v="1" />
		<tag k="name" v="Bekkemellom" />
		<tag k="ssr:stedsnr" v="896318" />
	</node>
	<node id="-106603" lat="60.9665888858" lon="10.6061361075">
		<tag k="bridge" v="yes" />
		<tag k="layer" v="1" />
		<tag k="name" v="Vismunda" />
		<tag k="ssr:stedsnr" v="895380" />
	</node>
	<node id="-107621" lat="60.7627638852" lon="10.695063883">
		<tag k="junction" v="yes" />
		<tag k="name" v="Østbytaje" />
		<tag k="place" v="locality" />
		<tag k="ssr:stedsnr" v="526646" />
	</node>
	<node id="-107614" lat="61.0205305559" lon="10.4030499989">
		<tag k="name" v="Lunneplassen" />
		<tag k="place" v="locality" />
		<tag k="ssr:stedsnr" v="526614" />
	</node>
	<node id="-106252" lat="61.0166388931" lon="10.4237249923">
		<tag k="fixme" v="consider highway=path" />
		<tag k="highway" v="track" />
		<tag k="name" v="Bjørnstadvegen" />
		<tag k="ssr:stedsnr" v="284674" />
	</node>
	<node id="-106545" lat="60.9702694441" lon="10.5974499972">
		<tag k="bridge" v="yes" />
		<tag k="layer" v="1" />
		<tag k="name" v="Midtjordet" />
		<tag k="ssr:stedsnr" v="410451" />
	</node>
	<node id="-106544" lat="61.0075388869" lon="10.4838638881">
		<tag k="bridge" v="yes" />
		<tag k="layer" v="1" />
		<tag k="name" v="Hellerud" />
		<tag k="ssr:stedsnr" v="410446" />
	</node>
	<node id="-106543" lat="60.7791472258" lon="10.6955305559">
		<tag k="bridge" v="yes" />
		<tag k="layer" v="1" />
		<tag k="name" v="Rambekk" />
		<tag k="ssr:stedsnr" v="410422" />
	</node>
	<node id="-106542" lat="60.8073916695" lon="10.6415583402">
		<tag k="bridge" v="yes" />
		<tag k="layer" v="1" />
		<tag k="name" v="Øverby" />
		<tag k="ssr:stedsnr" v="410400" />
	</node>
	<node id="-108057" lat="60.8874250006" lon="10.5331222136">
		<tag k="bridge" v="yes" />
		<tag k="layer" v="1" />
		<tag k="name" v="Kvatum" />
		<tag k="ssr:stedsnr" v="714364" />
	</node>
	<node id="-108056" lat="60.7890805518" lon="10.5993499918">
		<tag k="bridge" v="yes" />
		<tag k="layer" v="1" />
		<tag k="name" v="Bratteng" />
		<tag k="ssr:stedsnr" v="714264" />
	</node>
	<node id="-108055" lat="61.020383336" lon="10.4561444508">
		<tag k="bridge" v="yes" />
		<tag k="layer" v="1" />
		<tag k="name" v="Bjørnstad" />
		<tag k="ssr:stedsnr" v="714263" />
	</node>
	<node id="-108054" lat="60.8864972244" lon="10.4694944354">
		<tag k="bridge" v="yes" />
		<tag k="layer" v="1" />
		<tag k="name" v="Skogheim" />
		<tag k="ssr:stedsnr" v="713412" />
	</node>
	<node id="-108053" lat="60.9200611115" lon="10.6602833351">
		<tag k="bridge" v="yes" />
		<tag k="layer" v="1" />
		<tag k="name" v="Skulhusodden" />
		<tag k="ssr:stedsnr" v="713410" />
	</node>
	<node id="-106504" lat="60.8291999962" lon="10.6051333379">
		<tag k="fixme" v="consider highway=path" />
		<tag k="highway" v="track" />
		<tag k="name" v="Nordlandsbakken" />
		<tag k="ssr:stedsnr" v="405145" />
	</node>
	<node id="-106502" lat="60.7849305576" lon="10.5719750038">
		<tag k="junction" v="yes" />
		<tag k="name" v="Tylikrysset" />
		<tag k="place" v="locality" />
		<tag k="ssr:stedsnr" v="405136" />
	</node>
	<node id="-106498" lat="60.9053388908" lon="10.6289000051">
		<tag k="highway" v="path" />
		<tag k="name" v="Børebakkane" />
		<tag k="ssr:stedsnr" v="405082" />
	</node>
</osm>
