<?xml version="1.0" encoding="UTF-8"?>
<osm generator="osmapis" version="0.6">
	<node id="-108544" lat="60.9877555529" lon="10.2789555552">
		<tag k="name" v="Kråkehugu" />
		<tag k="place" v="locality" />
		<tag k="ssr:stedsnr" v="964084" />
	</node>
	<node id="-108540" lat="60.7304555551" lon="10.5302805465">
		<tag k="historic" v="shieling" />
		<tag k="name" v="Vårnes seter" />
		<tag k="place" v="locality" />
		<tag k="ssr:stedsnr" v="951935" />
	</node>
	<node id="-108027" lat="60.9881833364" lon="10.2941861077">
		<tag k="name" v="Krakasetermyrene" />
		<tag k="natural" v="wetland" />
		<tag k="ssr:stedsnr" v="708432" />
	</node>
	<node id="-108537" lat="60.9932027784" lon="10.3804666621">
		<tag k="name" v="Båbergsfola" />
		<tag k="place" v="locality" />
		<tag k="ssr:stedsnr" v="951751" />
	</node>
	<node id="-108536" lat="60.9812138918" lon="10.4185527744">
		<tag k="name" v="Sveum" />
		<tag k="place" v="locality" />
		<tag k="ssr:stedsnr" v="951749" />
	</node>
	<node id="-106485" lat="60.8977444441" lon="10.4762722263">
		<tag k="name" v="Snartumslåtta" />
		<tag k="place" v="locality" />
		<tag k="ssr:stedsnr" v="404151" />
	</node>
	<node id="-108532" lat="60.9349472262" lon="10.5346194455">
		<tag k="name" v="Brennbakksvea" />
		<tag k="place" v="locality" />
		<tag k="ssr:stedsnr" v="951683" />
	</node>
	<node id="-108017" lat="60.9305555577" lon="10.5261083381">
		<tag k="name" v="Seterringen" />
		<tag k="place" v="locality" />
		<tag k="ssr:stedsnr" v="708331" />
	</node>
	<node id="-106478" lat="60.950886109" lon="10.3622638874">
		<tag k="name" v="Pullmyra" />
		<tag k="natural" v="wetland" />
		<tag k="ssr:stedsnr" v="403313" />
	</node>
	<node id="-106578" lat="60.9467888866" lon="10.4349888864">
		<tag k="name" v="Breimyra" />
		<tag k="natural" v="wetland" />
		<tag k="ssr:stedsnr" v="891235" />
	</node>
	<node id="-106474" lat="60.9326277814" lon="10.433808338">
		<tag k="name" v="Sjutjernsmyra" />
		<tag k="natural" v="wetland" />
		<tag k="ssr:stedsnr" v="384487" />
	</node>
	<node id="-106473" lat="60.90248056" lon="10.4223888824">
		<tag k="alt_name" v="Tjennshaugmyra;Tjennsmyra" />
		<tag k="name" v="Tjernsmyra" />
		<tag k="natural" v="wetland" />
		<tag k="ssr:stedsnr" v="384397" />
	</node>
	<node id="-108520" lat="60.9068027747" lon="10.4883666576">
		<tag k="name" v="Gillerholen" />
		<tag k="place" v="locality" />
		<tag k="ssr:stedsnr" v="951505" />
	</node>
	<node id="-106471" lat="60.9429861076" lon="10.4282555463">
		<tag k="name" v="Ringmyra" />
		<tag k="natural" v="wetland" />
		<tag k="ssr:stedsnr" v="384389" />
	</node>
	<node id="-108003" lat="60.9505222178" lon="10.443516673">
		<tag k="name" v="Torvmyra" />
		<tag k="natural" v="wetland" />
		<tag k="ssr:stedsnr" v="708199" />
	</node>
	<node id="-108512" lat="60.9476305541" lon="10.276113889">
		<tag k="historic" v="shieling" />
		<tag k="name" v="Lyshaugsetra" />
		<tag k="place" v="locality" />
		<tag k="ssr:stedsnr" v="951377" />
	</node>
	<node id="-108511" lat="60.9394944415" lon="10.2825722276">
		<tag k="name" v="Stormyra" />
		<tag k="natural" v="wetland" />
		<tag k="ssr:stedsnr" v="951372" />
	</node>
	<node id="-108510" lat="60.9094972248" lon="10.5799027818">
		<tag k="name" v="Dypilmyra" />
		<tag k="natural" v="wetland" />
		<tag k="ssr:stedsnr" v="951336" />
	</node>
	<node id="-107997" lat="60.8309388848" lon="10.5847944422">
		<tag k="name" v="Hage skog" />
		<tag k="place" v="locality" />
		<tag k="ssr:stedsnr" v="708140" />
	</node>
	<node id="-106972" lat="60.8977138859" lon="10.2678944449">
		<tag k="name" v="Stormyra" />
		<tag k="natural" v="wetland" />
		<tag k="ssr:stedsnr" v="102778" />
	</node>
	<node id="-107995" lat="60.9007722235" lon="10.6424194442">
		<tag k="name" v="Engesvea" />
		<tag k="place" v="locality" />
		<tag k="ssr:stedsnr" v="708120" />
	</node>
	<node id="-106969" lat="60.9867805531" lon="10.4194777719">
		<tag k="name" v="Hovdehagen" />
		<tag k="place" v="locality" />
		<tag k="ssr:stedsnr" v="102763" />
	</node>
	<node id="-108131" lat="60.9483000026" lon="10.3485638865">
		<tag k="name" v="Stormyra" />
		<tag k="natural" v="wetland" />
		<tag k="ssr:stedsnr" v="767307" />
	</node>
	<node id="-107513" lat="60.929405554" lon="10.4672638979">
		<tag k="alt_name" v="Hovstormyra" />
		<tag k="name" v="Hovsstømyra" />
		<tag k="natural" v="wetland" />
		<tag k="ssr:stedsnr" v="494756" />
	</node>
	<node id="-107476" lat="60.794533334" lon="10.6084916661">
		<tag k="name" v="Midtslåtten" />
		<tag k="place" v="locality" />
		<tag k="ssr:stedsnr" v="466967" />
	</node>
	<node id="-108451" lat="60.9230555575" lon="10.5867916609">
		<tag k="name" v="Dammyra" />
		<tag k="natural" v="wetland" />
		<tag k="ssr:stedsnr" v="919849" />
	</node>
	<node id="-107984" lat="60.9330499981" lon="10.3081694454">
		<tag k="name" v="Hemsangmyra" />
		<tag k="natural" v="wetland" />
		<tag k="ssr:stedsnr" v="706329" />
	</node>
	<node id="-106959" lat="60.937255552" lon="10.18980277">
		<tag k="landuse" v="meadow" />
		<tag k="name" v="Brattengsenga" />
		<tag k="old_name" v="Bratengsenga" />
		<tag k="ssr:stedsnr" v="102664" />
	</node>
	<node id="-107470" lat="61.0036861106" lon="10.4026277711">
		<tag k="name" v="Hullbekkmyra" />
		<tag k="natural" v="wetland" />
		<tag k="ssr:stedsnr" v="466684" />
	</node>
	<node id="-107853" lat="60.8293027781" lon="10.636219447">
		<tag k="name" v="Stormyra" />
		<tag k="natural" v="wetland" />
		<tag k="ssr:stedsnr" v="647181" />
	</node>
	<node id="-106521" lat="60.8783472243" lon="10.5364999927">
		<tag k="name" v="Lønnumsveiten" />
		<tag k="place" v="locality" />
		<tag k="ssr:stedsnr" v="405469" />
	</node>
	<node id="-108491" lat="60.9021027792" lon="10.4700305552">
		<tag k="historic" v="shieling" />
		<tag k="name" v="Saksbergsetra" />
		<tag k="place" v="locality" />
		<tag k="ssr:stedsnr" v="951151" />
	</node>
	<node id="-108490" lat="60.7953055564" lon="10.5169472155">
		<tag k="name" v="Børstad skog" />
		<tag k="place" v="locality" />
		<tag k="ssr:stedsnr" v="951136" />
	</node>
	<node id="-108488" lat="60.826472224" lon="10.5047055628">
		<tag k="name" v="Hørstadskogen" />
		<tag k="place" v="locality" />
		<tag k="ssr:stedsnr" v="951117" />
	</node>
	<node id="-106951" lat="60.9665833329" lon="10.4602694357">
		<tag k="landuse" v="meadow" />
		<tag k="name" v="Herbergsenga" />
		<tag k="ssr:stedsnr" v="102248" />
	</node>
	<node id="-107457" lat="60.9716666687" lon="10.4480583385">
		<tag k="name" v="Øverjordet" />
		<tag k="place" v="locality" />
		<tag k="ssr:stedsnr" v="466236" />
	</node>
	<node id="-108480" lat="60.8658944475" lon="10.4972222162">
		<tag k="historic" v="shieling" />
		<tag k="name" v="Nordengsætra" />
		<tag k="place" v="locality" />
		<tag k="ssr:stedsnr" v="951017" />
	</node>
	<node id="-108476" lat="60.9511555541" lon="10.3177694457">
		<tag k="name" v="Langmyra" />
		<tag k="natural" v="wetland" />
		<tag k="ssr:stedsnr" v="949299" />
	</node>
	<node id="-108471" lat="60.9151111122" lon="10.3803666576">
		<tag k="name" v="Pullmyra" />
		<tag k="natural" v="wetland" />
		<tag k="ssr:stedsnr" v="930406" />
	</node>
	<node id="-106933" lat="60.9371694461" lon="10.6120944385">
		<tag k="historic" v="shieling" />
		<tag k="name" v="Nysvea" />
		<tag k="place" v="locality" />
		<tag k="ssr:stedsnr" v="101626" />
	</node>
	<node id="-108468" lat="60.9492499988" lon="10.3509583345">
		<tag k="name" v="Austdalsmyra" />
		<tag k="natural" v="wetland" />
		<tag k="ssr:stedsnr" v="920821" />
	</node>
	<node id="-107443" lat="60.8734833347" lon="10.4432138814">
		<tag k="name" v="Torvmyra" />
		<tag k="natural" v="wetland" />
		<tag k="ssr:stedsnr" v="466092" />
	</node>
	<node id="-106928" lat="60.7929888909" lon="10.4213472195">
		<tag k="name" v="Stangstumyrene" />
		<tag k="natural" v="wetland" />
		<tag k="ssr:stedsnr" v="101446" />
	</node>
	<node id="-106415" lat="60.8746499978" lon="10.2492805469">
		<tag k="name" v="Stormyra" />
		<tag k="natural" v="wetland" />
		<tag k="ssr:stedsnr" v="372431" />
	</node>
	<node id="-106926" lat="60.793025004" lon="10.3698222218">
		<tag k="name" v="Tjennsmyren" />
		<tag k="natural" v="wetland" />
		<tag k="ssr:stedsnr" v="101440" />
	</node>
	<node id="-107435" lat="61.0188972257" lon="10.4303055502">
		<tag k="name" v="Hestehagen" />
		<tag k="place" v="locality" />
		<tag k="ssr:stedsnr" v="465539" />
	</node>
	<node id="-107252" lat="60.875769443" lon="10.5290777785">
		<tag k="name" v="Knutveita" />
		<tag k="place" v="locality" />
		<tag k="ssr:stedsnr" v="223473" />
	</node>
	<node id="-106920" lat="60.9104277805" lon="10.5959138878">
		<tag k="name" v="Veslemyra" />
		<tag k="natural" v="wetland" />
		<tag k="ssr:stedsnr" v="101313" />
	</node>
	<node id="-106407" lat="60.9587555572" lon="10.617483342">
		<tag k="name" v="Skumsrudvollene" />
		<tag k="place" v="locality" />
		<tag k="ssr:stedsnr" v="359615" />
	</node>
	<node id="-107429" lat="60.7936722202" lon="10.3844138934">
		<tag k="name" v="Seval skog" />
		<tag k="place" v="locality" />
		<tag k="ssr:stedsnr" v="465424" />
	</node>
	<node id="-107428" lat="61.0024027789" lon="10.3316444385">
		<tag k="name" v="Elvestadfola" />
		<tag k="place" v="locality" />
		<tag k="ssr:stedsnr" v="465404" />
	</node>
	<node id="-106403" lat="61.0038138865" lon="10.2341250079">
		<tag k="name" v="Geithusmyra" />
		<tag k="natural" v="wetland" />
		<tag k="ssr:stedsnr" v="358525" />
	</node>
	<node id="-106913" lat="60.7915888872" lon="10.5289972194">
		<tag k="name" v="Øysteinlia skog" />
		<tag k="place" v="locality" />
		<tag k="ssr:stedsnr" v="101127" />
	</node>
	<node id="-108078" lat="60.7630416709" lon="10.4420722181">
		<tag k="name" v="Stormyra" />
		<tag k="natural" v="wetland" />
		<tag k="ssr:stedsnr" v="737088" />
	</node>
	<node id="-107421" lat="60.8630666646" lon="10.6520638976">
		<tag k="name" v="Kolbergsrudslåtten" />
		<tag k="place" v="locality" />
		<tag k="ssr:stedsnr" v="465166" />
	</node>
	<node id="-106394" lat="60.9932083336" lon="10.41633056">
		<tag k="name" v="Innleggingen" />
		<tag k="place" v="locality" />
		<tag k="ssr:stedsnr" v="344756" />
	</node>
	<node id="-106905" lat="60.9503277778" lon="10.3588000024">
		<tag k="name" v="Baklia" />
		<tag k="place" v="locality" />
		<tag k="ssr:stedsnr" v="99357" />
	</node>
	<node id="-106392" lat="60.9551833357" lon="10.487936109">
		<tag k="name" v="Veslemyra" />
		<tag k="natural" v="wetland" />
		<tag k="ssr:stedsnr" v="344736" />
	</node>
	<node id="-106902" lat="60.9621111144" lon="10.3059250011">
		<tag k="name" v="Storflågåmyra" />
		<tag k="natural" v="wetland" />
		<tag k="ssr:stedsnr" v="99345" />
	</node>
	<node id="-107413" lat="60.9371833321" lon="10.3529555628">
		<tag k="historic" v="shieling" />
		<tag k="name" v="Bakksetra" />
		<tag k="place" v="locality" />
		<tag k="ssr:stedsnr" v="463319" />
	</node>
	<node id="-106388" lat="60.9961361156" lon="10.3984722151">
		<tag k="name" v="Sjutjernsmyra" />
		<tag k="natural" v="wetland" />
		<tag k="ssr:stedsnr" v="344672" />
	</node>
	<node id="-106897" lat="60.9894861109" lon="10.4540972306">
		<tag k="name" v="Langmyra" />
		<tag k="natural" v="wetland" />
		<tag k="ssr:stedsnr" v="81516" />
	</node>
	<node id="-106384" lat="60.9778944447" lon="10.4666972208">
		<tag k="landuse" v="meadow" />
		<tag k="name" v="Stuveenga" />
		<tag k="ssr:stedsnr" v="344653" />
	</node>
	<node id="-107928" lat="61.0148138898" lon="10.3931500065">
		<tag k="name" v="Langmyra" />
		<tag k="natural" v="wetland" />
		<tag k="ssr:stedsnr" v="675740" />
	</node>
	<node id="-108269" lat="60.836986108" lon="10.4054222151">
		<tag k="name" v="Prestmyra" />
		<tag k="natural" v="wetland" />
		<tag k="ssr:stedsnr" v="798959" />
	</node>
	<node id="-106378" lat="61.0181027769" lon="10.4493222298">
		<tag k="name" v="Bjørnstadengen" />
		<tag k="place" v="locality" />
		<tag k="ssr:stedsnr" v="344571" />
	</node>
	<node id="-106376" lat="61.0226611138" lon="10.4320472159">
		<tag k="name" v="Roalykkja" />
		<tag k="place" v="locality" />
		<tag k="ssr:stedsnr" v="344569" />
	</node>
	<node id="-107911" lat="60.7963236658" lon="10.6300928398">
		<tag k="name" v="Askimhagen" />
		<tag k="place" v="locality" />
		<tag k="ssr:stedsnr" v="647966" />
	</node>
	<node id="-106374" lat="60.9804805587" lon="10.5271305558">
		<tag k="name" v="Bekkemellomsvea" />
		<tag k="place" v="locality" />
		<tag k="ssr:stedsnr" v="344547" />
	</node>
	<node id="-107329" lat="60.8488416655" lon="10.4030888848">
		<tag k="name" v="Leggingsmyra" />
		<tag k="natural" v="wetland" />
		<tag k="ssr:stedsnr" v="252887" />
	</node>
	<node id="-106390" lat="60.9866500029" lon="10.2102972173">
		<tag k="name" v="Rognholtet" />
		<tag k="place" v="locality" />
		<tag k="ssr:stedsnr" v="344691" />
	</node>
	<node id="-106370" lat="60.919255558" lon="10.5073555614">
		<tag k="name" v="Skjælingshaugmyra" />
		<tag k="natural" v="wetland" />
		<tag k="ssr:stedsnr" v="344407" />
	</node>
	<node id="-106369" lat="60.925591664" lon="10.51354445">
		<tag k="name" v="Eftasmyra" />
		<tag k="natural" v="wetland" />
		<tag k="ssr:stedsnr" v="344404" />
	</node>
	<node id="-106367" lat="60.9602250019" lon="10.2744055646">
		<tag k="name" v="Limhusmyra" />
		<tag k="natural" v="wetland" />
		<tag k="ssr:stedsnr" v="344351" />
	</node>
	<node id="-107900" lat="61.0017249965" lon="10.4239027778">
		<tag k="name" v="Rundhaugmyra" />
		<tag k="natural" v="wetland" />
		<tag k="ssr:stedsnr" v="647660" />
	</node>
	<node id="-107898" lat="60.7738111133" lon="10.6633444421">
		<tag k="name" v="Kopperudmyrene" />
		<tag k="natural" v="wetland" />
		<tag k="ssr:stedsnr" v="647634" />
	</node>
	<node id="-107384" lat="60.8666666643" lon="10.3478166664">
		<tag k="name" v="Lemyra" />
		<tag k="natural" v="wetland" />
		<tag k="ssr:stedsnr" v="434845" />
	</node>
	<node id="-107895" lat="60.9376611146" lon="10.1808333327">
		<tag k="name" v="Øverjordet" />
		<tag k="place" v="locality" />
		<tag k="ssr:stedsnr" v="647619" />
	</node>
	<node id="-107381" lat="60.9162277767" lon="10.5764361185">
		<tag k="name" v="Kloppmyra" />
		<tag k="natural" v="wetland" />
		<tag k="ssr:stedsnr" v="434821" />
	</node>
	<node id="-107379" lat="60.9258166666" lon="10.4962666676">
		<tag k="name" v="Langmyra" />
		<tag k="natural" v="wetland" />
		<tag k="ssr:stedsnr" v="434816" />
	</node>
	<node id="-107887" lat="60.9054277787" lon="10.5204749936">
		<tag k="name" v="Skålmyra" />
		<tag k="natural" v="wetland" />
		<tag k="ssr:stedsnr" v="647490" />
	</node>
	<node id="-106349" lat="60.8297249976" lon="10.5195749957">
		<tag k="name" v="Røgardsmyra" />
		<tag k="natural" v="wetland" />
		<tag k="ssr:stedsnr" v="344106" />
	</node>
	<node id="-108394" lat="60.9316527756" lon="10.3940916646">
		<tag k="name" v="Stormyra" />
		<tag k="natural" v="wetland" />
		<tag k="ssr:stedsnr" v="859745" />
	</node>
	<node id="-106345" lat="60.8681083321" lon="10.4262555463">
		<tag k="name" v="Nyberghågån" />
		<tag k="place" v="locality" />
		<tag k="ssr:stedsnr" v="344074" />
	</node>
	<node id="-107877" lat="60.9243694448" lon="10.5726638935">
		<tag k="name" v="Åbakkmyra" />
		<tag k="natural" v="wetland" />
		<tag k="ssr:stedsnr" v="647359" />
	</node>
	<node id="-106340" lat="60.7968388918" lon="10.6074555544">
		<tag k="name" v="Skarpsno" />
		<tag k="place" v="locality" />
		<tag k="ssr:stedsnr" v="344968" />
	</node>
	<node id="-107873" lat="60.9180111125" lon="10.5398444399">
		<tag k="historic" v="shieling" />
		<tag k="name" v="Hasselknippsetra" />
		<tag k="place" v="locality" />
		<tag k="ssr:stedsnr" v="647352" />
	</node>
	<node id="-106336" lat="60.9897944409" lon="10.2228833241">
		<tag k="name" v="Avdalene" />
		<tag k="place" v="locality" />
		<tag k="ssr:stedsnr" v="102716" />
	</node>
	<node id="-106335" lat="60.9809111131" lon="10.468880555">
		<tag k="name" v="Finnmyra" />
		<tag k="natural" v="wetland" />
		<tag k="ssr:stedsnr" v="323505" />
	</node>
	<node id="-107355" lat="61.0090750007" lon="10.4049583281">
		<tag k="name" v="Gaukstadmyra" />
		<tag k="natural" v="wetland" />
		<tag k="ssr:stedsnr" v="432705" />
	</node>
	<node id="-106842" lat="60.7725111068" lon="10.5301000045">
		<tag k="alt_name" v="Balleringsmyra" />
		<tag k="name" v="Balleropmyra" />
		<tag k="natural" v="wetland" />
		<tag k="ssr:stedsnr" v="69035" />
	</node>
	<node id="-107748" lat="60.956055552" lon="10.4051916728">
		<tag k="name" v="Juvsamyra" />
		<tag k="natural" v="wetland" />
		<tag k="ssr:stedsnr" v="587740" />
	</node>
	<node id="-107861" lat="60.7682972209" lon="10.5468972299">
		<tag k="name" v="Skumsrudhågån" />
		<tag k="place" v="locality" />
		<tag k="ssr:stedsnr" v="647234" />
	</node>
	<node id="-107123" lat="60.9869833298" lon="10.4695416586">
		<tag k="historic" v="shieling" />
		<tag k="name" v="Øvre Alsetmarka" />
		<tag k="place" v="locality" />
		<tag k="ssr:stedsnr" v="162666" />
	</node>
	<node id="-107344" lat="60.9146638854" lon="10.5447111063">
		<tag k="name" v="Skoltmyra" />
		<tag k="natural" v="wetland" />
		<tag k="ssr:stedsnr" v="263415" />
	</node>
	<node id="-107343" lat="60.8897499984" lon="10.3852222258">
		<tag k="name" v="Hovsmyra" />
		<tag k="natural" v="wetland" />
		<tag k="ssr:stedsnr" v="263411" />
	</node>
	<node id="-106317" lat="60.8282499958" lon="10.6068861024">
		<tag k="name" v="Geitmyra" />
		<tag k="natural" v="wetland" />
		<tag k="ssr:stedsnr" v="312945" />
	</node>
	<node id="-107850" lat="60.7944000002" lon="10.5912861166">
		<tag k="name" v="Skjerven skog" />
		<tag k="place" v="locality" />
		<tag k="ssr:stedsnr" v="647177" />
	</node>
	<node id="-106825" lat="61.0193861094" lon="10.3682388853">
		<tag k="name" v="Dyppilmyra" />
		<tag k="natural" v="wetland" />
		<tag k="ssr:stedsnr" v="41669" />
	</node>
	<node id="-108359" lat="61.0142250029" lon="10.3830611161">
		<tag k="name" v="Furumyra" />
		<tag k="natural" v="wetland" />
		<tag k="ssr:stedsnr" v="857742" />
	</node>
	<node id="-106821" lat="60.9050972209" lon="10.2674194453">
		<tag k="name" v="Slåttmyra" />
		<tag k="natural" v="wetland" />
		<tag k="ssr:stedsnr" v="41745" />
	</node>
	<node id="-106820" lat="60.9929027816" lon="10.3861611048">
		<tag k="name" v="Steigfola" />
		<tag k="place" v="locality" />
		<tag k="ssr:stedsnr" v="41730" />
	</node>
	<node id="-107843" lat="60.8361638931" lon="10.3935805484">
		<tag k="name" v="Torvmyra" />
		<tag k="natural" v="wetland" />
		<tag k="ssr:stedsnr" v="647146" />
	</node>
	<node id="-108354" lat="60.9590916628" lon="10.2418500067">
		<tag k="name" v="Bekkemyra" />
		<tag k="natural" v="wetland" />
		<tag k="ssr:stedsnr" v="845246" />
	</node>
	<node id="-107841" lat="60.817125" lon="10.4186944362">
		<tag k="name" v="Øvre Mustadmarka" />
		<tag k="place" v="locality" />
		<tag k="ssr:stedsnr" v="647127" />
	</node>
	<node id="-106813" lat="60.980661111" lon="10.5867138963">
		<tag k="name" v="Strandsvea" />
		<tag k="place" v="locality" />
		<tag k="ssr:stedsnr" v="41609" />
	</node>
	<node id="-107834" lat="60.9346333315" lon="10.3246555609">
		<tag k="name" v="Stormyra" />
		<tag k="natural" v="wetland" />
		<tag k="ssr:stedsnr" v="645322" />
	</node>
	<node id="-107833" lat="60.962825002" lon="10.3308944378">
		<tag k="name" v="Haugsetermyra" />
		<tag k="place" v="locality" />
		<tag k="ssr:stedsnr" v="645310" />
	</node>
	<node id="-107828" lat="60.93486389" lon="10.3746749984">
		<tag k="historic" v="shieling" />
		<tag k="name" v="Brennbakksætra" />
		<tag k="place" v="locality" />
		<tag k="ssr:stedsnr" v="627405" />
	</node>
	<node id="-107830" lat="60.9345583301" lon="10.5118833272">
		<tag k="name" v="Skålmyra" />
		<tag k="natural" v="wetland" />
		<tag k="ssr:stedsnr" v="627510" />
	</node>
	<node id="-106805" lat="60.8390527807" lon="10.5474861196">
		<tag k="name" v="Solbjør skog" />
		<tag k="place" v="locality" />
		<tag k="ssr:stedsnr" v="41128" />
	</node>
	<node id="-108340" lat="60.9590583298" lon="10.4080222296">
		<tag k="name" v="Hovdemarka" />
		<tag k="place" v="locality" />
		<tag k="ssr:stedsnr" v="830739" />
	</node>
	<node id="-106291" lat="60.9542361118" lon="10.2073638971">
		<tag k="name" v="Uksemyra" />
		<tag k="natural" v="wetland" />
		<tag k="ssr:stedsnr" v="312249" />
	</node>
	<node id="-108338" lat="60.8620944412" lon="10.3342444373">
		<tag k="historic" v="shieling" />
		<tag k="name" v="Rønningsvelia" />
		<tag k="place" v="locality" />
		<tag k="ssr:stedsnr" v="830695" />
	</node>
	<node id="-108339" lat="60.9566472215" lon="10.5228277834">
		<tag k="name" v="Sagringen" />
		<tag k="place" v="locality" />
		<tag k="ssr:stedsnr" v="830735" />
	</node>
	<node id="-108334" lat="60.991400003" lon="10.4521194361">
		<tag k="landuse" v="meadow" />
		<tag k="name" v="Stubberud" />
		<tag k="ssr:stedsnr" v="830659" />
	</node>
	<node id="-106973" lat="60.8058055581" lon="10.6310833379">
		<tag k="name" v="Svenskemyra" />
		<tag k="natural" v="wetland" />
		<tag k="ssr:stedsnr" v="102810" />
	</node>
	<node id="-106284" lat="61.0095833317" lon="10.3900527718">
		<tag k="alt_name" v="Tormyra" />
		<tag k="name" v="Tordmyra" />
		<tag k="natural" v="wetland" />
		<tag k="ssr:stedsnr" v="311775" />
	</node>
	<node id="-106282" lat="61.0105277812" lon="10.2458333376">
		<tag k="historic" v="shieling" />
		<tag k="name" v="Liersætra" />
		<tag k="place" v="locality" />
		<tag k="ssr:stedsnr" v="311304" />
	</node>
	<node id="-106281" lat="60.7470388867" lon="10.4362722273">
		<tag k="name" v="Lurmyra" />
		<tag k="natural" v="wetland" />
		<tag k="ssr:stedsnr" v="310455" />
	</node>
	<node id="-106280" lat="60.7179166697" lon="10.4980083334">
		<tag k="name" v="Tjernsmyra" />
		<tag k="natural" v="wetland" />
		<tag k="ssr:stedsnr" v="310439" />
	</node>
	<node id="-108327" lat="60.9074916665" lon="10.5027333398">
		<tag k="name" v="Steinmyra" />
		<tag k="natural" v="wetland" />
		<tag k="ssr:stedsnr" v="830487" />
	</node>
	<node id="-106789" lat="60.8759694427" lon="10.4298277781">
		<tag k="name" v="Kalløkken" />
		<tag k="place" v="locality" />
		<tag k="ssr:stedsnr" v="41160" />
	</node>
	<node id="-106788" lat="60.9427749999" lon="10.5362888924">
		<tag k="name" v="Bjønnsvemyra" />
		<tag k="natural" v="wetland" />
		<tag k="ssr:stedsnr" v="40694" />
	</node>
	<node id="-108323" lat="60.9130666647" lon="10.6048249932">
		<tag k="name" v="Langmyra" />
		<tag k="natural" v="wetland" />
		<tag k="ssr:stedsnr" v="830444" />
	</node>
	<node id="-107739" lat="60.9154694487" lon="10.5256833422">
		<tag k="name" v="Stormyra" />
		<tag k="natural" v="wetland" />
		<tag k="ssr:stedsnr" v="587350" />
	</node>
	<node id="-106272" lat="60.9651694446" lon="10.2243166698">
		<tag k="name" v="Bjønnhaugmyra" />
		<tag k="natural" v="wetland" />
		<tag k="ssr:stedsnr" v="299251" />
	</node>
	<node id="-108319" lat="60.9571583376" lon="10.272547216">
		<tag k="name" v="Måråmyra" />
		<tag k="natural" v="wetland" />
		<tag k="ssr:stedsnr" v="830314" />
	</node>
	<node id="-106781" lat="60.9781972241" lon="10.4608750005">
		<tag k="name" v="Ekerenga" />
		<tag k="place" v="locality" />
		<tag k="ssr:stedsnr" v="40652" />
	</node>
	<node id="-106268" lat="60.8209083305" lon="10.6460916659">
		<tag k="name" v="Nerbymarka" />
		<tag k="place" v="locality" />
		<tag k="ssr:stedsnr" v="292760" />
	</node>
	<node id="-106267" lat="60.8277833375" lon="10.6195861203">
		<tag k="name" v="Bergsmarka" />
		<tag k="place" v="locality" />
		<tag k="ssr:stedsnr" v="292758" />
	</node>
	<node id="-106713" lat="60.7594000007" lon="10.433702785">
		<tag k="name" v="Brennmyra" />
		<tag k="natural" v="wetland" />
		<tag k="ssr:stedsnr" v="9045" />
	</node>
	<node id="-107310" lat="60.7885499966" lon="10.4815972154">
		<tag k="name" v="Prestmarkmyra" />
		<tag k="natural" v="wetland" />
		<tag k="ssr:stedsnr" v="252049" />
	</node>
	<node id="-108306" lat="60.9130361129" lon="10.4665888837">
		<tag k="name" v="Skalmyra" />
		<tag k="natural" v="wetland" />
		<tag k="ssr:stedsnr" v="830147" />
	</node>
	<node id="-107280" lat="60.9810944472" lon="10.2208083399">
		<tag k="name" v="Haralimyra" />
		<tag k="natural" v="wetland" />
		<tag k="ssr:stedsnr" v="236094" />
	</node>
	<node id="-106255" lat="60.9539805516" lon="10.3686888964">
		<tag k="name" v="Dalamyra" />
		<tag k="natural" v="wetland" />
		<tag k="ssr:stedsnr" v="284750" />
	</node>
	<node id="-108333" lat="60.9420944487" lon="10.2299777712">
		<tag k="name" v="Ekerhågån" />
		<tag k="place" v="locality" />
		<tag k="ssr:stedsnr" v="830634" />
	</node>
	<node id="-108300" lat="60.8208611154" lon="10.4631527867">
		<tag k="name" v="Ålstad skog" />
		<tag k="place" v="locality" />
		<tag k="ssr:stedsnr" v="830112" />
	</node>
	<node id="-107906" lat="60.9045138907" lon="10.254402771">
		<tag k="name" v="Furuholen" />
		<tag k="place" v="locality" />
		<tag k="ssr:stedsnr" v="647756" />
	</node>
	<node id="-108296" lat="60.8994472227" lon="10.6097749991">
		<tag k="name" v="Ringmyra" />
		<tag k="natural" v="wetland" />
		<tag k="ssr:stedsnr" v="830084" />
	</node>
	<node id="-107059" lat="60.8617527791" lon="10.4135250069">
		<tag k="historic" v="shieling" />
		<tag k="name" v="Danservollen" />
		<tag k="place" v="locality" />
		<tag k="ssr:stedsnr" v="162082" />
	</node>
	<node id="-107269" lat="60.992669447" lon="10.3654305619">
		<tag k="name" v="Dalsfola" />
		<tag k="place" v="locality" />
		<tag k="ssr:stedsnr" v="223761" />
	</node>
	<node id="-106803" lat="60.8193611126" lon="10.382708335">
		<tag k="name" v="Skyberg skog" />
		<tag k="place" v="locality" />
		<tag k="ssr:stedsnr" v="41108" />
	</node>
	<node id="-106965" lat="60.9478694402" lon="10.2000333326">
		<tag k="name" v="Brenna" />
		<tag k="place" v="locality" />
		<tag k="ssr:stedsnr" v="102687" />
	</node>
	<node id="-107260" lat="60.9333638898" lon="10.6131972144">
		<tag k="historic" v="shieling" />
		<tag k="name" v="Skuggen" />
		<tag k="place" v="locality" />
		<tag k="ssr:stedsnr" v="223662" />
	</node>
	<node id="-107050" lat="60.9447861094" lon="10.3735666619">
		<tag k="name" v="Skålmyra" />
		<tag k="natural" v="wetland" />
		<tag k="ssr:stedsnr" v="141498" />
	</node>
	<node id="-107249" lat="60.994349999" lon="10.3369916589">
		<tag k="alt_name" v="Prestgardsfola" />
		<tag k="name" v="Prestegårdsfola" />
		<tag k="place" v="locality" />
		<tag k="ssr:stedsnr" v="223436" />
	</node>
	<node id="-107767" lat="61.0255833306" lon="10.312511103">
		<tag k="name" v="Gråsteinsmyra" />
		<tag k="natural" v="wetland" />
		<tag k="ssr:stedsnr" v="613213" />
	</node>
	<node id="-107253" lat="60.7985333341" lon="10.4505527744">
		<tag k="name" v="Mustad skog" />
		<tag k="place" v="locality" />
		<tag k="ssr:stedsnr" v="223474" />
	</node>
	<node id="-107764" lat="60.9526888848" lon="10.1819805532">
		<tag k="name" v="Bordtakmyra" />
		<tag k="natural" v="wetland" />
		<tag k="ssr:stedsnr" v="600025" />
	</node>
	<node id="-106226" lat="60.8088694423" lon="10.4273333351">
		<tag k="name" v="Grindvollslåtten" />
		<tag k="place" v="locality" />
		<tag k="ssr:stedsnr" v="284112" />
	</node>
	<node id="-108273" lat="60.9363027801" lon="10.4092083426">
		<tag k="name" v="Rotbakkmyra" />
		<tag k="natural" v="wetland" />
		<tag k="ssr:stedsnr" v="809412" />
	</node>
	<node id="-106223" lat="60.9052027799" lon="10.6272416669">
		<tag k="name" v="Høgsveen" />
		<tag k="place" v="locality" />
		<tag k="ssr:stedsnr" v="284096" />
	</node>
	<node id="-106221" lat="60.8655361116" lon="10.4723250071">
		<tag k="name" v="Brekkerønningen" />
		<tag k="place" v="locality" />
		<tag k="ssr:stedsnr" v="284081" />
	</node>
	<node id="-106219" lat="60.9926194469" lon="10.4602583302">
		<tag k="name" v="Elvestadmarka" />
		<tag k="place" v="locality" />
		<tag k="ssr:stedsnr" v="283627" />
	</node>
	<node id="-106217" lat="60.9824972188" lon="10.4572944417">
		<tag k="name" v="Kloppmyra" />
		<tag k="natural" v="wetland" />
		<tag k="ssr:stedsnr" v="283621" />
	</node>
	<node id="-106216" lat="60.9857444438" lon="10.4608138938">
		<tag k="historic" v="shieling" />
		<tag k="name" v="Lierengmarka" />
		<tag k="place" v="locality" />
		<tag k="ssr:stedsnr" v="283608" />
	</node>
	<node id="-107238" lat="60.9683972215" lon="10.4256916615">
		<tag k="landuse" v="meadow" />
		<tag k="name" v="Ringen" />
		<tag k="ssr:stedsnr" v="223221" />
	</node>
	<node id="-107237" lat="60.947299999" lon="10.4802083288">
		<tag k="historic" v="shieling" />
		<tag k="name" v="Gammelvangen" />
		<tag k="place" v="locality" />
		<tag k="ssr:stedsnr" v="223207" />
	</node>
	<node id="-106212" lat="60.9001361108" lon="10.4841583284">
		<tag k="historic" v="shieling" />
		<tag k="name" v="Gjøstisetra" />
		<tag k="place" v="locality" />
		<tag k="ssr:stedsnr" v="283445" />
	</node>
	<node id="-106211" lat="60.9011638934" lon="10.4864527707">
		<tag k="name" v="Pullmyra" />
		<tag k="natural" v="wetland" />
		<tag k="ssr:stedsnr" v="283443" />
	</node>
	<node id="-106722" lat="60.9602944457" lon="10.1981999975">
		<tag k="alt_name" v="Kalmyra" />
		<tag k="name" v="Haslimyra" />
		<tag k="natural" v="wetland" />
		<tag k="ssr:stedsnr" v="9351" />
	</node>
	<node id="-107233" lat="60.8809722244" lon="10.6154388823">
		<tag k="name" v="Rolid-domen" />
		<tag k="place" v="locality" />
		<tag k="ssr:stedsnr" v="223170" />
	</node>
	<node id="-106207" lat="61.0134111133" lon="10.3271833352">
		<tag k="name" v="Skarsetfola" />
		<tag k="place" v="locality" />
		<tag k="ssr:stedsnr" v="283355" />
	</node>
	<node id="-106206" lat="60.9910638855" lon="10.3423166729">
		<tag k="name" v="Skumsrudfola" />
		<tag k="place" v="locality" />
		<tag k="ssr:stedsnr" v="283346" />
	</node>
	<node id="-107740" lat="60.929136107" lon="10.5731027754">
		<tag k="name" v="Øverfløyten" />
		<tag k="natural" v="wetland" />
		<tag k="ssr:stedsnr" v="587357" />
	</node>
	<node id="-106203" lat="60.7551166682" lon="10.4743583354">
		<tag k="historic" v="shieling" />
		<tag k="name" v="Øvre Bråstad" />
		<tag k="place" v="locality" />
		<tag k="ssr:stedsnr" v="283332" />
	</node>
	<node id="-106201" lat="60.9444833317" lon="10.508291663">
		<tag k="name" v="Raumyra" />
		<tag k="natural" v="wetland" />
		<tag k="ssr:stedsnr" v="283242" />
	</node>
	<node id="-106200" lat="60.9111583303" lon="10.3186083337">
		<tag k="name" v="Vestersveen" />
		<tag k="place" v="locality" />
		<tag k="ssr:stedsnr" v="283235" />
	</node>
	<node id="-107735" lat="60.8503944427" lon="10.6021305588">
		<tag k="name" v="Stormyra" />
		<tag k="natural" v="wetland" />
		<tag k="ssr:stedsnr" v="587196" />
	</node>
	<node id="-107222" lat="60.9017444424" lon="10.6002611185">
		<tag k="name" v="Skålmyra" />
		<tag k="natural" v="wetland" />
		<tag k="ssr:stedsnr" v="223084" />
	</node>
	<node id="-108245" lat="60.8543388871" lon="10.4512472188">
		<tag k="name" v="Stormyra" />
		<tag k="natural" v="wetland" />
		<tag k="ssr:stedsnr" v="798884" />
	</node>
	<node id="-107220" lat="60.8546861125" lon="10.3789305535">
		<tag k="name" v="Rognbakkmyra" />
		<tag k="natural" v="wetland" />
		<tag k="ssr:stedsnr" v="223083" />
	</node>
	<node id="-107729" lat="60.8488972229" lon="10.379177778">
		<tag k="name" v="Korsmyra" />
		<tag k="natural" v="wetland" />
		<tag k="ssr:stedsnr" v="587102" />
	</node>
	<node id="-107728" lat="60.8224444444" lon="10.5565999962">
		<tag k="name" v="Sutterudmyra" />
		<tag k="natural" v="wetland" />
		<tag k="ssr:stedsnr" v="587101" />
	</node>
	<node id="-107727" lat="60.8606999987" lon="10.3830805493">
		<tag k="name" v="Klobakkmyra" />
		<tag k="natural" v="wetland" />
		<tag k="ssr:stedsnr" v="587097" />
	</node>
	<node id="-106957" lat="60.9192527814" lon="10.4854527698">
		<tag k="name" v="Sjutjennsmyra" />
		<tag k="natural" v="wetland" />
		<tag k="ssr:stedsnr" v="102445" />
	</node>
	<node id="-107724" lat="60.981949996" lon="10.4348388868">
		<tag k="name" v="Innleggingsmyra" />
		<tag k="natural" v="wetland" />
		<tag k="ssr:stedsnr" v="586693" />
	</node>
	<node id="-106530" lat="60.9881027809" lon="10.4741333303">
		<tag k="historic" v="shieling" />
		<tag k="name" v="Nedre Alsetmarka" />
		<tag k="place" v="locality" />
		<tag k="ssr:stedsnr" v="405662" />
	</node>
	<node id="-106186" lat="60.7680166693" lon="10.5604416681">
		<tag k="name" v="Hellsvemyra" />
		<tag k="natural" v="wetland" />
		<tag k="ssr:stedsnr" v="284237" />
	</node>
	<node id="-106185" lat="60.7703583374" lon="10.5593638825">
		<tag k="name" v="Hågåmyra" />
		<tag k="natural" v="wetland" />
		<tag k="ssr:stedsnr" v="284232" />
	</node>
	<node id="-106184" lat="60.9569027747" lon="10.4668638943">
		<tag k="name" v="Bergmyra" />
		<tag k="natural" v="wetland" />
		<tag k="ssr:stedsnr" v="284215" />
	</node>
	<node id="-106810" lat="60.927427781" lon="10.5987777784">
		<tag k="name" v="Bjørkemyra" />
		<tag k="natural" v="wetland" />
		<tag k="ssr:stedsnr" v="41333" />
	</node>
	<node id="-107717" lat="61.003391671" lon="10.2503583322">
		<tag k="name" v="Pullmyrene" />
		<tag k="natural" v="wetland" />
		<tag k="ssr:stedsnr" v="586426" />
	</node>
	<node id="-107204" lat="60.9146750037" lon="10.4479222191">
		<tag k="name" v="Danserholmyra" />
		<tag k="natural" v="wetland" />
		<tag k="ssr:stedsnr" v="202397" />
	</node>
	<node id="-107203" lat="60.9529027801" lon="10.3631750038">
		<tag k="name" v="Pullmyra" />
		<tag k="natural" v="wetland" />
		<tag k="ssr:stedsnr" v="202388" />
	</node>
	<node id="-107713" lat="60.9684666629" lon="10.3058805511">
		<tag k="name" v="Svarkemyra" />
		<tag k="natural" v="wetland" />
		<tag k="ssr:stedsnr" v="586341" />
	</node>
	<node id="-107710" lat="60.9142861137" lon="10.4279444523">
		<tag k="name" v="Gråstenmyra" />
		<tag k="natural" v="wetland" />
		<tag k="ssr:stedsnr" v="586148" />
	</node>
	<node id="-107637" lat="60.8308916685" lon="10.4911277699">
		<tag k="name" v="Stormyra" />
		<tag k="natural" v="wetland" />
		<tag k="ssr:stedsnr" v="534120" />
	</node>
	<node id="-106204" lat="61.0234222207" lon="10.3543944382">
		<tag k="name" v="Høgåsmyra" />
		<tag k="natural" v="wetland" />
		<tag k="ssr:stedsnr" v="283336" />
	</node>
	<node id="-107702" lat="60.7612083307" lon="10.4596750018">
		<tag k="name" v="Viberg åslodd" />
		<tag k="place" v="locality" />
		<tag k="ssr:stedsnr" v="585428" />
	</node>
	<node id="-108212" lat="60.7419805537" lon="10.6073666634">
		<tag k="name" v="Nedre Napstad" />
		<tag k="place" v="locality" />
		<tag k="ssr:stedsnr" v="796434" />
	</node>
	<node id="-107185" lat="60.9037750039" lon="10.5558916602">
		<tag k="name" v="Stormyra" />
		<tag k="natural" v="wetland" />
		<tag k="ssr:stedsnr" v="191830" />
	</node>
	<node id="-108208" lat="60.8114972213" lon="10.6013388943">
		<tag k="name" v="Ødegårdsjordet" />
		<tag k="place" v="locality" />
		<tag k="ssr:stedsnr" v="777746" />
	</node>
	<node id="-107208" lat="60.9348472251" lon="10.3422111054">
		<tag k="name" v="Rismyra" />
		<tag k="natural" v="wetland" />
		<tag k="ssr:stedsnr" v="221317" />
	</node>
	<node id="-107179" lat="60.9319805585" lon="10.6059277764">
		<tag k="name" v="Bårdsmyra" />
		<tag k="natural" v="wetland" />
		<tag k="ssr:stedsnr" v="191734" />
	</node>
	<node id="-107431" lat="60.7961944428" lon="10.4801750079">
		<tag k="name" v="Prestmarka" />
		<tag k="place" v="locality" />
		<tag k="ssr:stedsnr" v="465432" />
	</node>
	<node id="-106183" lat="60.9555444418" lon="10.4651777806">
		<tag k="name" v="Pullmyra" />
		<tag k="natural" v="wetland" />
		<tag k="ssr:stedsnr" v="284214" />
	</node>
	<node id="-108197" lat="60.9555611092" lon="10.5882611097">
		<tag k="name" v="Lundvollen" />
		<tag k="place" v="locality" />
		<tag k="ssr:stedsnr" v="769735" />
	</node>
	<node id="-108195" lat="60.973938893" lon="10.3888722164">
		<tag k="name" v="Sirivollen" />
		<tag k="place" v="locality" />
		<tag k="ssr:stedsnr" v="769729" />
	</node>
	<node id="-107291" lat="60.9434500004" lon="10.2552499912">
		<tag k="alt_name" v="Ulvesveen" />
		<tag k="name" v="Ulvesvea" />
		<tag k="place" v="locality" />
		<tag k="ssr:stedsnr" v="251329" />
	</node>
	<node id="-107245" lat="60.9487499967" lon="10.4836472135">
		<tag k="historic" v="shieling" />
		<tag k="name" v="Gammelvangen" />
		<tag k="place" v="locality" />
		<tag k="ssr:stedsnr" v="223311" />
	</node>
	<node id="-107632" lat="60.7471722201" lon="10.5158249965">
		<tag k="name" v="Skumlien skog" />
		<tag k="place" v="locality" />
		<tag k="ssr:stedsnr" v="526890" />
	</node>
	<node id="-107166" lat="60.7622249979" lon="10.4221222211">
		<tag k="name" v="Trettmyra" />
		<tag k="natural" v="wetland" />
		<tag k="ssr:stedsnr" v="191065" />
	</node>
	<node id="-106522" lat="60.8741805595" lon="10.5152250027">
		<tag k="name" v="Dr.stugurønningen" />
		<tag k="place" v="locality" />
		<tag k="ssr:stedsnr" v="405495" />
	</node>
	<node id="-107160" lat="60.870811113" lon="10.3181249963">
		<tag k="name" v="Lysa" />
		<tag k="natural" v="wetland" />
		<tag k="ssr:stedsnr" v="190447" />
	</node>
	<node id="-108181" lat="60.9005833329" lon="10.5946833377">
		<tag k="name" v="Davermyra" />
		<tag k="natural" v="wetland" />
		<tag k="ssr:stedsnr" v="769340" />
	</node>
	<node id="-107156" lat="60.7282305566" lon="10.5053833359">
		<tag k="alt_name" v="Eikveltmyrene" />
		<tag k="name" v="Eikvelta" />
		<tag k="natural" v="wetland" />
		<tag k="ssr:stedsnr" v="189387" />
	</node>
	<node id="-107715" lat="60.9153555543" lon="10.5781249941">
		<tag k="name" v="Volla" />
		<tag k="place" v="locality" />
		<tag k="ssr:stedsnr" v="586348" />
	</node>
	<node id="-108176" lat="60.9381444468" lon="10.429938883">
		<tag k="name" v="Langmyra" />
		<tag k="natural" v="wetland" />
		<tag k="ssr:stedsnr" v="769190" />
	</node>
	<node id="-107151" lat="60.821991668" lon="10.6053972149">
		<tag k="name" v="Mæhlumsmarka" />
		<tag k="place" v="locality" />
		<tag k="ssr:stedsnr" v="170774" />
	</node>
	<node id="-108171" lat="60.8401805561" lon="10.5381000077">
		<tag k="name" v="Nysveen" />
		<tag k="place" v="locality" />
		<tag k="ssr:stedsnr" v="769115" />
	</node>
	<node id="-108169" lat="60.8123833337" lon="10.4134111199">
		<tag k="name" v="Slåttmyra" />
		<tag k="natural" v="wetland" />
		<tag k="ssr:stedsnr" v="769105" />
	</node>
	<node id="-108168" lat="60.8133027816" lon="10.3857861199">
		<tag k="name" v="Klappmyra" />
		<tag k="natural" v="wetland" />
		<tag k="ssr:stedsnr" v="769090" />
	</node>
	<node id="-107143" lat="60.7668166626" lon="10.6433944358">
		<tag k="name" v="Dalborgsmarka" />
		<tag k="place" v="locality" />
		<tag k="ssr:stedsnr" v="162997" />
	</node>
	<node id="-107142" lat="61.0235361145" lon="10.4423583401">
		<tag k="name" v="Stugulykkja" />
		<tag k="place" v="locality" />
		<tag k="ssr:stedsnr" v="162985" />
	</node>
	<node id="-107140" lat="60.7319916698" lon="10.5525027823">
		<tag k="name" v="Finstadslåtten" />
		<tag k="place" v="locality" />
		<tag k="ssr:stedsnr" v="162946" />
	</node>
	<node id="-107139" lat="60.7315694404" lon="10.4870222206">
		<tag k="historic" v="shieling" />
		<tag k="name" v="Slettum seter" />
		<tag k="place" v="locality" />
		<tag k="ssr:stedsnr" v="162941" />
	</node>
	<node id="-107134" lat="60.902436112" lon="10.2905083317">
		<tag k="name" v="Dårra" />
		<tag k="natural" v="wetland" />
		<tag k="ssr:stedsnr" v="162766" />
	</node>
	<node id="-108157" lat="60.9519944483" lon="10.5315666588">
		<tag k="name" v="Tomsmyra" />
		<tag k="natural" v="wetland" />
		<tag k="ssr:stedsnr" v="768689" />
	</node>
	<node id="-107882" lat="60.8695444473" lon="10.5894861187">
		<tag k="name" v="Skavdalsmyra" />
		<tag k="natural" v="wetland" />
		<tag k="ssr:stedsnr" v="647454" />
	</node>
	<node id="-107126" lat="60.9906472183" lon="10.4579111159">
		<tag k="landuse" v="meadow" />
		<tag k="name" v="Persvea" />
		<tag k="ssr:stedsnr" v="162679" />
	</node>
	<node id="-107881" lat="60.788744446" lon="10.3838972148">
		<tag k="name" v="Kjermyra" />
		<tag k="place" v="locality" />
		<tag k="ssr:stedsnr" v="647453" />
	</node>
	<node id="-108148" lat="61.0004472181" lon="10.3226305612">
		<tag k="name" v="Neråsfola" />
		<tag k="place" v="locality" />
		<tag k="ssr:stedsnr" v="768397" />
	</node>
	<node id="-108147" lat="61.0090555555" lon="10.3583333322">
		<tag k="historic" v="shieling" />
		<tag k="name" v="Ankerlia" />
		<tag k="place" v="locality" />
		<tag k="ssr:stedsnr" v="768392" />
	</node>
	<node id="-107122" lat="60.9879083377" lon="10.4611111043">
		<tag k="historic" v="shieling" />
		<tag k="name" v="Skarsetmarka" />
		<tag k="place" v="locality" />
		<tag k="ssr:stedsnr" v="162663" />
	</node>
	<node id="-108144" lat="61.0132500016" lon="10.2863777688">
		<tag k="name" v="Svennesseterfola" />
		<tag k="place" v="locality" />
		<tag k="ssr:stedsnr" v="768363" />
	</node>
	<node id="-107119" lat="60.9473138933" lon="10.1958166701">
		<tag k="name" v="Brenna" />
		<tag k="place" v="locality" />
		<tag k="ssr:stedsnr" v="162658" />
	</node>
	<node id="-107630" lat="60.7430611141" lon="10.5864527712">
		<tag k="name" v="Torvmyra" />
		<tag k="natural" v="wetland" />
		<tag k="ssr:stedsnr" v="526875" />
	</node>
	<node id="-106601" lat="60.7988972189" lon="10.6218638941">
		<tag k="name" v="Øverbymarka" />
		<tag k="place" v="locality" />
		<tag k="ssr:stedsnr" v="891971" />
	</node>
	<node id="-108136" lat="60.9067694402" lon="10.2419472267">
		<tag k="name" v="Setervegsvea" />
		<tag k="place" v="locality" />
		<tag k="ssr:stedsnr" v="767556" />
	</node>
	<node id="-107231" lat="60.9257972266" lon="10.435288898">
		<tag k="name" v="Redalsetermyra" />
		<tag k="natural" v="wetland" />
		<tag k="ssr:stedsnr" v="223159" />
	</node>
	<node id="-107110" lat="60.9753944403" lon="10.4995694482">
		<tag k="landuse" v="meadow" />
		<tag k="name" v="Hagaenga" />
		<tag k="ssr:stedsnr" v="162557" />
	</node>
	<node id="-107109" lat="60.9773111099" lon="10.4917638916">
		<tag k="name" v="Heimkusvea" />
		<tag k="place" v="locality" />
		<tag k="ssr:stedsnr" v="162550" />
	</node>
	<node id="-107622" lat="61.0124305534" lon="10.4501305553">
		<tag k="name" v="Sveum" />
		<tag k="place" v="locality" />
		<tag k="ssr:stedsnr" v="526664" />
	</node>
	<node id="-107106" lat="60.9177166637" lon="10.642780554">
		<tag k="name" v="Skulhusbakken" />
		<tag k="place" v="locality" />
		<tag k="ssr:stedsnr" v="162491" />
	</node>
	<node id="-107616" lat="60.982225003" lon="10.5793194512">
		<tag k="name" v="Sembshagen" />
		<tag k="place" v="locality" />
		<tag k="ssr:stedsnr" v="526626" />
	</node>
	<node id="-106900" lat="60.9502777816" lon="10.3068916609">
		<tag k="name" v="Veltflagamyra" />
		<tag k="natural" v="wetland" />
		<tag k="ssr:stedsnr" v="99338" />
	</node>
	<node id="-107102" lat="60.7895138903" lon="10.4688249964">
		<tag k="name" v="Gjerdmyra" />
		<tag k="natural" v="wetland" />
		<tag k="ssr:stedsnr" v="162457" />
	</node>
	<node id="-107100" lat="60.9809444486" lon="10.271230555">
		<tag k="name" v="Gråstensmyra" />
		<tag k="natural" v="wetland" />
		<tag k="ssr:stedsnr" v="162431" />
	</node>
	<node id="-106767" lat="60.8747166651" lon="10.3385444487">
		<tag k="name" v="Stormyra" />
		<tag k="natural" v="wetland" />
		<tag k="ssr:stedsnr" v="39644" />
	</node>
	<node id="-106985" lat="61.0011722208" lon="10.2237416681">
		<tag k="name" v="Sløsmyra" />
		<tag k="natural" v="wetland" />
		<tag k="ssr:stedsnr" v="115565" />
	</node>
	<node id="-106508" lat="60.9353722237" lon="10.4752083336">
		<tag k="name" v="Stormyra" />
		<tag k="natural" v="wetland" />
		<tag k="ssr:stedsnr" v="405202" />
	</node>
	<node id="-107094" lat="60.9257805526" lon="10.5846805564">
		<tag k="name" v="Nerfløyten" />
		<tag k="natural" v="wetland" />
		<tag k="ssr:stedsnr" v="162340" />
	</node>
	<node id="-107093" lat="60.9671611138" lon="10.3378888939">
		<tag k="name" v="Svarkebrenna" />
		<tag k="place" v="locality" />
		<tag k="ssr:stedsnr" v="162341" />
	</node>
	<node id="-106580" lat="60.9699972178" lon="10.4353694494">
		<tag k="name" v="Bergengen" />
		<tag k="place" v="locality" />
		<tag k="ssr:stedsnr" v="891252" />
	</node>
	<node id="-107603" lat="60.9106694424" lon="10.5851305574">
		<tag k="name" v="Røymyra" />
		<tag k="natural" v="wetland" />
		<tag k="ssr:stedsnr" v="526333" />
	</node>
	<node id="-107602" lat="60.9608361085" lon="10.2885361052">
		<tag k="name" v="Berglimyra" />
		<tag k="natural" v="wetland" />
		<tag k="ssr:stedsnr" v="526327" />
	</node>
	<node id="-108113" lat="60.8544527813" lon="10.5315000019">
		<tag k="name" v="Stakamyra" />
		<tag k="natural" v="wetland" />
		<tag k="ssr:stedsnr" v="737896" />
	</node>
	<node id="-106600" lat="60.7319194436" lon="10.4917305626">
		<tag k="historic" v="shieling" />
		<tag k="name" v="Kolberg seter" />
		<tag k="place" v="locality" />
		<tag k="ssr:stedsnr" v="891934" />
	</node>
	<node id="-108109" lat="60.9149166678" lon="10.5985222162">
		<tag k="name" v="Rundmyra" />
		<tag k="natural" v="wetland" />
		<tag k="ssr:stedsnr" v="737859" />
	</node>
	<node id="-108108" lat="60.9265805522" lon="10.4309527836">
		<tag k="name" v="Rundmyra" />
		<tag k="natural" v="wetland" />
		<tag k="ssr:stedsnr" v="737852" />
	</node>
	<node id="-106935" lat="60.9888166673" lon="10.4624138813">
		<tag k="historic" v="shieling" />
		<tag k="name" v="Gullerud" />
		<tag k="place" v="locality" />
		<tag k="ssr:stedsnr" v="101639" />
	</node>
	<node id="-107592" lat="60.9117722235" lon="10.2970916713">
		<tag k="name" v="Røstadskogen" />
		<tag k="place" v="locality" />
		<tag k="ssr:stedsnr" v="526265" />
	</node>
	<node id="-106764" lat="60.9558388845" lon="10.3056194433">
		<tag k="name" v="Høgbrentmyra" />
		<tag k="natural" v="wetland" />
		<tag k="ssr:stedsnr" v="39273" />
	</node>
	<node id="-107078" lat="60.9516222253" lon="10.4212722178">
		<tag k="alt_name" v="Bjønnhaugmyra" />
		<tag k="name" v="Bjørnhaugmyra" />
		<tag k="natural" v="wetland" />
		<tag k="ssr:stedsnr" v="162193" />
	</node>
	<node id="-107588" lat="60.9179000033" lon="10.2906694508">
		<tag k="name" v="Kvernmyra" />
		<tag k="natural" v="wetland" />
		<tag k="ssr:stedsnr" v="526257" />
	</node>
	<node id="-107075" lat="60.8845388848" lon="10.6070833273">
		<tag k="name" v="Indalslåtten" />
		<tag k="place" v="locality" />
		<tag k="ssr:stedsnr" v="162157" />
	</node>
	<node id="-106562" lat="60.783816669" lon="10.4174861117">
		<tag k="historic" v="shieling" />
		<tag k="name" v="Blakksetra" />
		<tag k="place" v="locality" />
		<tag k="ssr:stedsnr" v="890456" />
	</node>
	<node id="-108299" lat="60.8422583309" lon="10.4743833274">
		<tag k="name" v="Fuglemyra" />
		<tag k="natural" v="wetland" />
		<tag k="ssr:stedsnr" v="830104" />
	</node>
	<node id="-107072" lat="60.8326361074" lon="10.626319442">
		<tag k="name" v="Olamyra" />
		<tag k="natural" v="wetland" />
		<tag k="ssr:stedsnr" v="162138" />
	</node>
	<node id="-107583" lat="60.9672222246" lon="10.43438055">
		<tag k="landuse" v="meadow" />
		<tag k="name" v="Sandvoll" />
		<tag k="ssr:stedsnr" v="526199" />
	</node>
	<node id="-107582" lat="60.9531583298" lon="10.451761107">
		<tag k="name" v="Geitryggmyra" />
		<tag k="natural" v="wetland" />
		<tag k="ssr:stedsnr" v="526198" />
	</node>
	<node id="-107068" lat="60.8411138889" lon="10.4035166636">
		<tag k="historic" v="shieling" />
		<tag k="name" v="Lisætra" />
		<tag k="place" v="locality" />
		<tag k="ssr:stedsnr" v="162111" />
	</node>
	<node id="-107065" lat="60.8504583373" lon="10.568430552">
		<tag k="name" v="Slåttsveen" />
		<tag k="place" v="locality" />
		<tag k="ssr:stedsnr" v="162015" />
	</node>
	<node id="-107064" lat="60.8529472251" lon="10.5280555613">
		<tag k="name" v="Rundmyra" />
		<tag k="natural" v="wetland" />
		<tag k="ssr:stedsnr" v="162012" />
	</node>
	<node id="-107700" lat="60.936811112" lon="10.2117250079">
		<tag k="landuse" v="meadow" />
		<tag k="name" v="Hågåenga" />
		<tag k="ssr:stedsnr" v="584638" />
	</node>
	<node id="-107062" lat="60.8589999974" lon="10.4431749966">
		<tag k="historic" v="shieling" />
		<tag k="name" v="Setervollene" />
		<tag k="place" v="locality" />
		<tag k="ssr:stedsnr" v="162087" />
	</node>
	<node id="-107061" lat="60.8521166704" lon="10.4310027711">
		<tag k="name" v="Stormyra" />
		<tag k="natural" v="wetland" />
		<tag k="ssr:stedsnr" v="162085" />
	</node>
	<node id="-107572" lat="60.904927781" lon="10.4738583275">
		<tag k="name" v="Limhusholen" />
		<tag k="place" v="locality" />
		<tag k="ssr:stedsnr" v="526148" />
	</node>
	<node id="-106547" lat="60.9804888887" lon="10.2083472291">
		<tag k="name" v="Finnskardmyrene" />
		<tag k="natural" v="wetland" />
		<tag k="ssr:stedsnr" v="479088" />
	</node>
	<node id="-107567" lat="60.9086861136" lon="10.6139805547">
		<tag k="name" v="Amundsvea" />
		<tag k="place" v="locality" />
		<tag k="ssr:stedsnr" v="526095" />
	</node>
	<node id="-107054" lat="60.8861972189" lon="10.3367500045">
		<tag k="name" v="Flutun" />
		<tag k="place" v="locality" />
		<tag k="ssr:stedsnr" v="160669" />
	</node>
	<node id="-108177" lat="60.9403972267" lon="10.4565916618">
		<tag k="name" v="Eftasmyra" />
		<tag k="natural" v="wetland" />
		<tag k="ssr:stedsnr" v="769194" />
	</node>
	<node id="-107562" lat="60.899205559" lon="10.6490722187">
		<tag k="name" v="Kaldsvea" />
		<tag k="place" v="locality" />
		<tag k="ssr:stedsnr" v="526084" />
	</node>
	<node id="-108073" lat="60.7770500001" lon="10.5176499924">
		<tag k="name" v="Torvmyra" />
		<tag k="natural" v="wetland" />
		<tag k="ssr:stedsnr" v="737052" />
	</node>
	<node id="-107559" lat="60.8568666629" lon="10.4490444489">
		<tag k="name" v="Storbrenna" />
		<tag k="place" v="locality" />
		<tag k="ssr:stedsnr" v="526079" />
	</node>
	<node id="-107557" lat="60.761224999" lon="10.4676527717">
		<tag k="name" v="Mælum åslodd" />
		<tag k="place" v="locality" />
		<tag k="ssr:stedsnr" v="525474" />
	</node>
	<node id="-106532" lat="60.9988333352" lon="10.420030551">
		<tag k="name" v="Blekjemyra" />
		<tag k="natural" v="wetland" />
		<tag k="ssr:stedsnr" v="405676" />
	</node>
	<node id="-107554" lat="60.8923361126" lon="10.2363083347">
		<tag k="name" v="Rundmyra" />
		<tag k="natural" v="wetland" />
		<tag k="ssr:stedsnr" v="524505" />
	</node>
	<node id="-106529" lat="60.9480388893" lon="10.2068194534">
		<tag k="name" v="Trondsmyra" />
		<tag k="natural" v="wetland" />
		<tag k="ssr:stedsnr" v="405658" />
	</node>
	<node id="-107552" lat="60.9623472192" lon="10.3429000075">
		<tag k="name" v="Haugsetermyra" />
		<tag k="natural" v="wetland" />
		<tag k="ssr:stedsnr" v="524294" />
	</node>
	<node id="-107696" lat="60.9242500001" lon="10.4617861025">
		<tag k="alt_name" v="Sjutjennsmyra" />
		<tag k="name" v="Sjutjernsmyra" />
		<tag k="natural" v="wetland" />
		<tag k="ssr:stedsnr" v="566406" />
	</node>
	<node id="-108061" lat="60.9142888871" lon="10.2433138912">
		<tag k="name" v="Lonmyra" />
		<tag k="natural" v="wetland" />
		<tag k="ssr:stedsnr" v="724644" />
	</node>
	<node id="-107341" lat="61.0076138848" lon="10.2270972168">
		<tag k="name" v="Leggingsmyra" />
		<tag k="natural" v="wetland" />
		<tag k="ssr:stedsnr" v="479502" />
	</node>
	<node id="-107546" lat="60.8370666686" lon="10.4290000041">
		<tag k="name" v="Slåttmyra" />
		<tag k="natural" v="wetland" />
		<tag k="ssr:stedsnr" v="495976" />
	</node>
	<node id="-106927" lat="60.7856861151" lon="10.3960277762">
		<tag k="name" v="Borgen skog" />
		<tag k="place" v="locality" />
		<tag k="ssr:stedsnr" v="101442" />
	</node>
	<node id="-108048" lat="60.8134944483" lon="10.6604416701">
		<tag k="name" v="Bytongmyra" />
		<tag k="natural" v="wetland" />
		<tag k="ssr:stedsnr" v="708846" />
	</node>
	<node id="-108047" lat="60.9947000011" lon="10.4176111134">
		<tag k="name" v="Druga" />
		<tag k="place" v="locality" />
		<tag k="ssr:stedsnr" v="708728" />
	</node>
	<node id="-108044" lat="60.9686527759" lon="10.4200749979">
		<tag k="landuse" v="meadow" />
		<tag k="name" v="Gunderstueslåtten" />
		<tag k="ssr:stedsnr" v="708716" />
	</node>
	<node id="-107920" lat="60.7313999999" lon="10.4889361073">
		<tag k="name" v="Fjortentjernsmyrene" />
		<tag k="natural" v="wetland" />
		<tag k="ssr:stedsnr" v="674384" />
	</node>
	<node id="-107526" lat="60.9081805553" lon="10.5963777801">
		<tag k="alt_name" v="Stokkmyra" />
		<tag k="name" v="Stokkemyra" />
		<tag k="natural" v="wetland" />
		<tag k="ssr:stedsnr" v="494867" />
	</node>
	<node id="-106191" lat="60.8753638912" lon="10.315138894">
		<tag k="name" v="Purkemyra" />
		<tag k="natural" v="wetland" />
		<tag k="ssr:stedsnr" v="282681" />
	</node>
</osm>
