<?xml version="1.0" encoding="UTF-8"?>
<osm generator="osmapis" version="0.6">
	<node id="-107518" lat="60.8073111085" lon="10.3621027806">
		<tag k="name" v="Sevalselva" />
		<tag k="ssr:stedsnr" v="434961" />
		<tag k="waterway" v="river" />
	</node>
	<node id="-107001" lat="60.8611055511" lon="10.5667027841">
		<tag k="name" v="Øytjernet" />
		<tag k="natural" v="water" />
		<tag k="ssr:stedsnr" v="70900" />
	</node>
	<node id="-108532" lat="60.9118111111" lon="10.6636055642">
		<tag k="name" v="Moavika" />
		<tag k="natural" v="bay" />
		<tag k="ssr:stedsnr" v="916353" />
	</node>
	<node id="-108019" lat="60.8171611118" lon="10.6785444519">
		<tag k="name" v="Furusetvika" />
		<tag k="natural" v="bay" />
		<tag k="ssr:stedsnr" v="647882" />
	</node>
	<node id="-106835" lat="60.8911750032" lon="10.3375555595">
		<tag k="alt_name" v="Ålsetelva" />
		<tag k="loc_name" v="Åsethelva" />
		<tag k="name" v="Veslelva" />
		<tag k="old_name" v="Aasethelva;Aalsethelva" />
		<tag k="ssr:stedsnr" v="9379" />
		<tag k="waterway" v="stream" />
	</node>
	<node id="-108527" lat="60.9179777755" lon="10.6653555534">
		<tag k="name" v="Skulhusodden" />
		<tag k="natural" v="cape" />
		<tag k="ssr:stedsnr" v="870407" />
	</node>
	<node id="-108013" lat="60.9858777782" lon="10.2368555536">
		<tag k="name" v="Rådjerdskjennsbekken" />
		<tag k="ssr:stedsnr" v="647675" />
		<tag k="waterway" v="stream" />
	</node>
	<node id="-106987" lat="60.8403305563" lon="10.3839861101">
		<tag k="alt_name" v="Øytjerna;Øytjennet" />
		<tag k="name" v="Øytjernet" />
		<tag k="natural" v="water" />
		<tag k="ssr:stedsnr" v="70972" />
	</node>
	<node id="-108004" lat="61.0225194447" lon="10.4601777793">
		<tag k="name" v="Bjørnstadberget" />
		<tag k="natural" v="cape" />
		<tag k="ssr:stedsnr" v="647557" />
	</node>
	<node id="-108000" lat="60.905724998" lon="10.5102111156">
		<tag k="name" v="Steinmyrbekken" />
		<tag k="ssr:stedsnr" v="647495" />
		<tag k="waterway" v="stream" />
	</node>
	<node id="-107487" lat="60.9659305574" lon="10.3159444438">
		<tag k="name" v="Svarka" />
		<tag k="ssr:stedsnr" v="434323" />
		<tag k="waterway" v="river" />
	</node>
	<node id="-107484" lat="60.9987166663" lon="10.2300444493">
		<tag k="name" v="Jomyrbekken" />
		<tag k="ssr:stedsnr" v="434148" />
		<tag k="waterway" v="stream" />
	</node>
	<node id="-106691" lat="60.923405559" lon="10.5784583255">
		<tag k="name" v="Åbekken" />
		<tag k="ssr:stedsnr" v="891374" />
		<tag k="waterway" v="stream" />
	</node>
	<node id="-107992" lat="61.0140250025" lon="10.281522221">
		<tag k="name" v="Grindfallet" />
		<tag k="natural" v="waterfall" />
		<tag k="ssr:stedsnr" v="647419" />
	</node>
	<node id="-106455" lat="60.8226749985" lon="10.3869944495">
		<tag k="alt_name" v="Karusputten" />
		<tag k="name" v="Karussputten" />
		<tag k="natural" v="water" />
		<tag k="ssr:stedsnr" v="344086" />
	</node>
	<node id="-106965" lat="60.9315916688" lon="10.3127333355">
		<tag k="name" v="Heimsangen" />
		<tag k="natural" v="water" />
		<tag k="ssr:stedsnr" v="69482" />
	</node>
	<node id="-107988" lat="60.9623888911" lon="10.2887916675">
		<tag k="name" v="Sandmyrbekken" />
		<tag k="ssr:stedsnr" v="647358" />
		<tag k="waterway" v="stream" />
	</node>
	<node id="-108499" lat="60.9661277741" lon="10.2577138885">
		<tag k="alt_name" v="Svarken, midtre;Midt-Svarken" />
		<tag k="name" v="Midtre Svarken" />
		<tag k="natural" v="water" />
		<tag k="ssr:stedsnr" v="859321" />
		<tag k="water" v="lake" />
	</node>
	<node id="-108498" lat="60.9953527804" lon="10.2166972205">
		<tag k="name" v="Avdalsbekken" />
		<tag k="ssr:stedsnr" v="859142" />
		<tag k="waterway" v="stream" />
	</node>
	<node id="-106447" lat="60.8785583304" lon="10.3330500007">
		<tag k="name" v="Djupdalsbekken" />
		<tag k="ssr:stedsnr" v="342647" />
		<tag k="waterway" v="stream" />
	</node>
	<node id="-106958" lat="60.9461305547" lon="10.3153249927">
		<tag k="name" v="Sætersangen" />
		<tag k="natural" v="water" />
		<tag k="ssr:stedsnr" v="69315" />
	</node>
	<node id="-107469" lat="60.934100003" lon="10.2654111165">
		<tag k="alt_name" v="Finnaelv" />
		<tag k="name" v="Finna" />
		<tag k="ssr:stedsnr" v="433424" />
		<tag k="waterway" v="river" />
	</node>
	<node id="-107468" lat="60.9507777792" lon="10.2896888862">
		<tag k="alt_name" v="Sør-Ekertjennet" />
		<tag k="name" v="Sørekretjernet" />
		<tag k="natural" v="water" />
		<tag k="ssr:stedsnr" v="433249" />
	</node>
	<node id="-107978" lat="60.9198083353" lon="10.3430361159">
		<tag k="name" v="Veltbekken" />
		<tag k="ssr:stedsnr" v="647293" />
		<tag k="waterway" v="stream" />
	</node>
	<node id="-107977" lat="60.9259166697" lon="10.6275111174">
		<tag k="name" v="Tjernsbekken" />
		<tag k="ssr:stedsnr" v="647289" />
		<tag k="waterway" v="stream" />
	</node>
	<node id="-107976" lat="60.9359583356" lon="10.3026166642">
		<tag k="name" v="Veltvassbekken" />
		<tag k="ssr:stedsnr" v="647286" />
		<tag k="waterway" v="stream" />
	</node>
	<node id="-106439" lat="60.8353638875" lon="10.4520249926">
		<tag k="name" v="Vibergtjernet" />
		<tag k="natural" v="water" />
		<tag k="ssr:stedsnr" v="313977" />
	</node>
	<node id="-107462" lat="60.9648250043" lon="10.2056833348">
		<tag k="name" v="Søndre Gåstjenn" />
		<tag k="natural" v="water" />
		<tag k="ssr:stedsnr" v="420244" />
	</node>
	<node id="-107461" lat="60.9644055601" lon="10.2264472157">
		<tag k="name" v="Bjønnhaugmyrpullen" />
		<tag k="natural" v="water" />
		<tag k="ssr:stedsnr" v="420239" />
	</node>
	<node id="-107460" lat="60.9582305523" lon="10.2418888884">
		<tag k="name" v="Svartputten" />
		<tag k="natural" v="water" />
		<tag k="ssr:stedsnr" v="420236" />
	</node>
	<node id="-107459" lat="60.9721305561" lon="10.2020249915">
		<tag k="name" v="Seterbekken" />
		<tag k="ssr:stedsnr" v="420237" />
		<tag k="waterway" v="stream" />
	</node>
	<node id="-107458" lat="61.0012055524" lon="10.2385555596">
		<tag k="name" v="Geithusmyrbekken" />
		<tag k="ssr:stedsnr" v="419512" />
		<tag k="waterway" v="stream" />
	</node>
	<node id="-108481" lat="60.9197166683" lon="10.2268833248">
		<tag k="alt_name" v="Lonken" />
		<tag k="name" v="Lunken" />
		<tag k="natural" v="water" />
		<tag k="ssr:stedsnr" v="858494" />
	</node>
	<node id="-106432" lat="60.7795249993" lon="10.4661750033">
		<tag k="name" v="Elgsjøen" />
		<tag k="natural" v="water" />
		<tag k="ssr:stedsnr" v="313061" />
	</node>
	<node id="-107454" lat="60.9337083339" lon="10.6538305538">
		<tag k="name" v="Fremstadodden" />
		<tag k="natural" v="cape" />
		<tag k="ssr:stedsnr" v="263410" />
	</node>
	<node id="-108469" lat="60.7259750002" lon="10.5469527718">
		<tag k="name" v="Veltmannåa" />
		<tag k="ssr:stedsnr" v="857432" />
		<tag k="waterway" v="stream" />
	</node>
	<node id="-108467" lat="60.7467500015" lon="10.5404361056">
		<tag k="name" v="Skumsjøen" />
		<tag k="natural" v="water" />
		<tag k="ssr:stedsnr" v="856500" />
		<tag k="water" v="lake" />
	</node>
	<node id="-106415" lat="60.8599638889" lon="10.3766249926">
		<tag k="alt_name" v="Nitåselva" />
		<tag k="name" v="Nittåselva" />
		<tag k="ssr:stedsnr" v="312864" />
		<tag k="waterway" v="river" />
	</node>
	<node id="-106414" lat="60.8661249964" lon="10.512533324">
		<tag k="name" v="Kvitbekken" />
		<tag k="ssr:stedsnr" v="312860" />
		<tag k="waterway" v="stream" />
	</node>
	<node id="-107947" lat="60.8457388913" lon="10.540569447">
		<tag k="name" v="Nysvetjernet" />
		<tag k="natural" v="water" />
		<tag k="ssr:stedsnr" v="647015" />
	</node>
	<node id="-107941" lat="60.9905055558" lon="10.3887027796">
		<tag k="name" v="Haugbekken" />
		<tag k="ssr:stedsnr" v="627509" />
		<tag k="waterway" v="stream" />
	</node>
	<node id="-107428" lat="60.772872218" lon="10.6398888885">
		<tag k="name" v="Hunnselva" />
		<tag k="ssr:stedsnr" v="252586" />
		<tag k="waterway" v="river" />
	</node>
	<node id="-108203" lat="60.913525" lon="10.2744055525">
		<tag k="name" v="Røstadvatnet" />
		<tag k="natural" v="water" />
		<tag k="ssr:stedsnr" v="737462" />
	</node>
	<node id="-106913" lat="60.8132805514" lon="10.5293972271">
		<tag k="name" v="Klokkerbekken" />
		<tag k="ssr:stedsnr" v="41103" />
		<tag k="waterway" v="stream" />
	</node>
	<node id="-107934" lat="60.8570638879" lon="10.3570027824">
		<tag k="alt_name" v="Nittåstjennet" />
		<tag k="name" v="Nittåstjernet" />
		<tag k="natural" v="water" />
		<tag k="ssr:stedsnr" v="616923" />
	</node>
	<node id="-107933" lat="60.8498138866" lon="10.4335750088">
		<tag k="name" v="Rådalsbekken" />
		<tag k="ssr:stedsnr" v="616917" />
		<tag k="waterway" v="stream" />
	</node>
	<node id="-108438" lat="60.8733805559" lon="10.5152305543">
		<tag k="name" v="Tømmerhølen" />
		<tag k="place" v="locality" />
		<tag k="ssr:stedsnr" v="830463" />
	</node>
	<node id="-106387" lat="60.7251361134" lon="10.4867583373">
		<tag k="alt_name" v="Sandtjennet" />
		<tag k="name" v="Sandtjernet" />
		<tag k="natural" v="water" />
		<tag k="ssr:stedsnr" v="310415" />
	</node>
	<node id="-106386" lat="61.0288111077" lon="10.2800694472">
		<tag k="alt_name" v="Fløytbekken;Fløyten" />
		<tag k="name" v="Fløyta" />
		<tag k="ssr:stedsnr" v="310204" />
		<tag k="waterway" v="stream" />
	</node>
	<node id="-106385" lat="60.8543000043" lon="10.3546027765">
		<tag k="name" v="Svartbekken" />
		<tag k="ssr:stedsnr" v="313917" />
		<tag k="waterway" v="stream" />
	</node>
	<node id="-108432" lat="60.9427166627" lon="10.3028222187">
		<tag k="name" v="Bjønndalsbekken" />
		<tag k="ssr:stedsnr" v="830361" />
		<tag k="waterway" v="stream" />
	</node>
	<node id="-107406" lat="60.9634777794" lon="10.2422055595">
		<tag k="alt_name" v="Svarken, vle" />
		<tag k="name" v="Vesle Svarken" />
		<tag k="natural" v="water" />
		<tag k="ssr:stedsnr" v="251387" />
	</node>
	<node id="-106892" lat="60.893480557" lon="10.5248444506">
		<tag k="name" v="Snålbekken" />
		<tag k="ssr:stedsnr" v="40495" />
		<tag k="waterway" v="stream" />
	</node>
	<node id="-106378" lat="60.9544194483" lon="10.1984777754">
		<tag k="name" v="Jøstnepullen" />
		<tag k="natural" v="water" />
		<tag k="ssr:stedsnr" v="299010" />
		<tag k="water" v="pond" />
	</node>
	<node id="-106886" lat="61.007702777" lon="10.3001166639">
		<tag k="name" v="Øvre Maridammen" />
		<tag k="natural" v="water" />
		<tag k="ssr:stedsnr" v="40432" />
	</node>
	<node id="-107336" lat="60.8579333368" lon="10.4399277811">
		<tag k="name" v="Svartbekken" />
		<tag k="ssr:stedsnr" v="223089" />
		<tag k="waterway" v="stream" />
	</node>
	<node id="-107393" lat="60.9118944488" lon="10.2382777796">
		<tag k="name" v="Elvekroka" />
		<tag k="place" v="locality" />
		<tag k="ssr:stedsnr" v="238666" />
	</node>
	<node id="-108413" lat="60.9012444429" lon="10.3924888836">
		<tag k="name" v="Karibekken" />
		<tag k="ssr:stedsnr" v="830122" />
		<tag k="waterway" v="stream" />
	</node>
	<node id="-106874" lat="60.9637111154" lon="10.3878305621">
		<tag k="name" v="Kvekasæterbekken" />
		<tag k="ssr:stedsnr" v="20495" />
		<tag k="waterway" v="stream" />
	</node>
	<node id="-107894" lat="60.8925666632" lon="10.2763361195">
		<tag k="name" v="Ausa" />
		<tag k="natural" v="water" />
		<tag k="ssr:stedsnr" v="615364" />
	</node>
	<node id="-106355" lat="60.9129666634" lon="10.6255611185">
		<tag k="name" v="Storbekken" />
		<tag k="ssr:stedsnr" v="284464" />
		<tag k="waterway" v="stream" />
	</node>
	<node id="-108402" lat="60.8816638904" lon="10.3623999942">
		<tag k="name" v="Halvorvika" />
		<tag k="natural" v="bay" />
		<tag k="ssr:stedsnr" v="828688" />
	</node>
	<node id="-108401" lat="60.880955559" lon="10.3620222316">
		<tag k="name" v="Halvorodden" />
		<tag k="natural" v="cape" />
		<tag k="ssr:stedsnr" v="828686" />
	</node>
	<node id="-107888" lat="60.7532749979" lon="10.4429916611">
		<tag k="name" v="Rennovertjernet" />
		<tag k="natural" v="water" />
		<tag k="ssr:stedsnr" v="615071" />
	</node>
	<node id="-106348" lat="60.9539194449" lon="10.1870888979">
		<tag k="name" v="Slettebekken" />
		<tag k="ssr:stedsnr" v="284638" />
		<tag k="waterway" v="stream" />
	</node>
	<node id="-107922" lat="60.7850916627" lon="10.7053000078">
		<tag k="name" v="Vikodden" />
		<tag k="natural" v="cape" />
		<tag k="ssr:stedsnr" v="616050" />
	</node>
	<node id="-107880" lat="60.9380722248" lon="10.312402774">
		<tag k="alt_name" v="Veltvatnet" />
		<tag k="name" v="Veslvatnet" />
		<tag k="natural" v="water" />
		<tag k="ssr:stedsnr" v="615427" />
	</node>
	<node id="-108390" lat="60.9805055588" lon="10.5136416631">
		<tag k="alt_name" v="Delebekken" />
		<tag k="name" v="Dalebekken" />
		<tag k="ssr:stedsnr" v="809517" />
		<tag k="waterway" v="stream" />
	</node>
	<node id="-107665" lat="60.9433361071" lon="10.361352784">
		<tag k="name" v="Granumsdammen" />
		<tag k="ssr:stedsnr" v="524299" />
		<tag k="waterway" v="dam" />
	</node>
	<node id="-107362" lat="61.0064444439" lon="10.3023888811">
		<tag k="name" v="Nedre Maridammen" />
		<tag k="natural" v="water" />
		<tag k="ssr:stedsnr" v="223444" />
	</node>
	<node id="-106849" lat="60.921850004" lon="10.6036305559">
		<tag k="name" v="Skulhuselva" />
		<tag k="ssr:stedsnr" v="9838" />
		<tag k="waterway" v="river" />
	</node>
	<node id="-108384" lat="60.8344611084" lon="10.6386583344">
		<tag k="name" v="Bråstadelva" />
		<tag k="ssr:stedsnr" v="798998" />
		<tag k="waterway" v="river" />
	</node>
	<node id="-108119" lat="60.7646055597" lon="10.5372138892">
		<tag k="name" v="Revberget" />
		<tag k="place" v="islet" />
		<tag k="ssr:stedsnr" v="708227" />
	</node>
	<node id="-106845" lat="60.9469250012" lon="10.5162749916">
		<tag k="name" v="Sagbekken" />
		<tag k="ssr:stedsnr" v="9797" />
		<tag k="waterway" v="stream" />
	</node>
	<node id="-107864" lat="60.7574027781" lon="10.5338972167">
		<tag k="name" v="Tjærevika" />
		<tag k="natural" v="bay" />
		<tag k="ssr:stedsnr" v="587900" />
	</node>
	<node id="-107351" lat="60.7671611077" lon="10.5428666669">
		<tag k="name" v="Oleodden" />
		<tag k="natural" v="cape" />
		<tag k="ssr:stedsnr" v="223226" />
	</node>
	<node id="-106836" lat="60.9280805589" lon="10.224755562">
		<tag k="name" v="Flatsjøen" />
		<tag k="natural" v="water" />
		<tag k="ssr:stedsnr" v="9448" />
		<tag k="water" v="lake" />
	</node>
	<node id="-107347" lat="60.8571055535" lon="10.6211111168">
		<tag k="name" v="Vearbekken" />
		<tag k="ssr:stedsnr" v="223176" />
		<tag k="waterway" v="stream" />
	</node>
	<node id="-106533" lat="60.7678666623" lon="10.4525722244">
		<tag k="alt_name" v="Vesetelva" />
		<tag k="name" v="Vedsetelva" />
		<tag k="ssr:stedsnr" v="373077" />
		<tag k="waterway" v="river" />
	</node>
	<node id="-107856" lat="61.0131388897" lon="10.4768972315">
		<tag k="name" v="Myreodden" />
		<tag k="natural" v="cape" />
		<tag k="ssr:stedsnr" v="587672" />
	</node>
	<node id="-107340" lat="60.8910194476" lon="10.4697499971">
		<tag k="name" v="Brannbakkbekken" />
		<tag k="ssr:stedsnr" v="223154" />
		<tag k="waterway" v="stream" />
	</node>
	<node id="-107319" lat="60.7187944463" lon="10.5172694533">
		<tag k="name" v="Øytjennsbekken" />
		<tag k="ssr:stedsnr" v="222941" />
		<tag k="waterway" v="stream" />
	</node>
	<node id="-106824" lat="60.7518750015" lon="10.4297361057">
		<tag k="name" v="Innersæterbekken" />
		<tag k="ssr:stedsnr" v="9044" />
		<tag k="waterway" v="stream" />
	</node>
	<node id="-107062" lat="60.9654305551" lon="10.3819472229">
		<tag k="name" v="Dorrebekken" />
		<tag k="ssr:stedsnr" v="102244" />
		<tag k="waterway" v="stream" />
	</node>
	<node id="-106304" lat="60.9049515104" lon="10.376706353">
		<tag k="name" v="Ligårdstjennet" />
		<tag k="natural" v="water" />
		<tag k="ssr:stedsnr" v="283111" />
	</node>
	<node id="-107488" lat="60.8925861138" lon="10.2474750031">
		<tag k="name" v="Bergevatnet" />
		<tag k="natural" v="water" />
		<tag k="ssr:stedsnr" v="434343" />
	</node>
	<node id="-106302" lat="60.8317833339" lon="10.4732333265">
		<tag k="name" v="Ålstadelva" />
		<tag k="ssr:stedsnr" v="283097" />
		<tag k="waterway" v="stream" />
	</node>
	<node id="-106300" lat="60.8840444401" lon="10.3246777707">
		<tag k="name" v="Libekken" />
		<tag k="ssr:stedsnr" v="282684" />
		<tag k="waterway" v="stream" />
	</node>
	<node id="-107323" lat="60.8779611132" lon="10.3633611126">
		<tag k="name" v="Ringholmen" />
		<tag k="place" v="islet" />
		<tag k="ssr:stedsnr" v="221660" />
	</node>
	<node id="-108346" lat="60.8905388928" lon="10.2307972186">
		<tag k="name" v="Kolsrudbekken" />
		<tag k="ssr:stedsnr" v="798352" />
		<tag k="waterway" v="stream" />
	</node>
	<node id="-106297" lat="60.8877916674" lon="10.2458805483">
		<tag k="name" v="Veltfløyta" />
		<tag k="ssr:stedsnr" v="282560" />
		<tag k="waterway" v="stream" />
	</node>
	<node id="-107832" lat="61.0218472192" lon="10.4604805514">
		<tag k="name" v="Søndre Bjørnstadvika" />
		<tag k="natural" v="bay" />
		<tag k="ssr:stedsnr" v="586547" />
	</node>
	<node id="-106295" lat="60.7792777777" lon="10.5305027775">
		<tag k="name" v="Putten" />
		<tag k="natural" v="water" />
		<tag k="ssr:stedsnr" v="284239" />
		<tag k="water" v="pond" />
	</node>
	<node id="-107312" lat="60.8236749966" lon="10.43146666">
		<tag k="name" v="Finnsbekken" />
		<tag k="ssr:stedsnr" v="191986" />
		<tag k="waterway" v="stream" />
	</node>
	<node id="-108330" lat="60.8002694447" lon="10.4200444377">
		<tag k="alt_name" v="Mustadelva" />
		<tag k="name" v="Vesleelva" />
		<tag k="ssr:stedsnr" v="798004" />
		<tag k="waterway" v="river" />
	</node>
	<node id="-108325" lat="61.0209583298" lon="10.3691250009">
		<tag k="alt_name" v="Bjønnåa" />
		<tag k="name" v="Bjørnåa" />
		<tag k="ssr:stedsnr" v="796763" />
		<tag k="waterway" v="stream" />
	</node>
	<node id="-107397" lat="61.0165250025" lon="10.4194777699">
		<tag k="name" v="Vesleelva" />
		<tag k="ssr:stedsnr" v="250721" />
		<tag k="waterway" v="stream" />
	</node>
	<node id="-107738" lat="60.9759083318" lon="10.4518277799">
		<tag k="name" v="Surbekken" />
		<tag k="ssr:stedsnr" v="526704" />
		<tag k="waterway" v="stream" />
	</node>
	<node id="-107537" lat="60.9601444408" lon="10.3085722189">
		<tag k="name" v="Hyttebekken" />
		<tag k="ssr:stedsnr" v="465334" />
		<tag k="waterway" v="stream" />
	</node>
	<node id="-108312" lat="60.7426166685" lon="10.5383861175">
		<tag k="name" v="Sauhusodden" />
		<tag k="natural" v="cape" />
		<tag k="ssr:stedsnr" v="769873" />
	</node>
	<node id="-108303" lat="61.0121055516" lon="10.4353611122">
		<tag k="loc_name" v="Iversvebekken" />
		<tag k="name" v="Iversbekken" />
		<tag k="ssr:stedsnr" v="769654" />
		<tag k="waterway" v="stream" />
	</node>
	<node id="-107789" lat="60.9295305553" lon="10.6207749977">
		<tag k="name" v="Melbytjernet" />
		<tag k="natural" v="water" />
		<tag k="ssr:stedsnr" v="555824" />
	</node>
	<node id="-108296" lat="60.9191249961" lon="10.493897224">
		<tag k="name" v="Vasselva" />
		<tag k="ssr:stedsnr" v="769391" />
		<tag k="waterway" v="stream" />
	</node>
	<node id="-106540" lat="60.9658499981" lon="10.190427784">
		<tag k="alt_name" v="Nordre Gåstjenn" />
		<tag k="name" v="Gåstjernet" />
		<tag k="natural" v="water" />
		<tag k="ssr:stedsnr" v="373357" />
	</node>
	<node id="-107774" lat="60.9692500001" lon="10.2741666577">
		<tag k="alt_name" v="Svarken, store" />
		<tag k="name" v="Store Svarken" />
		<tag k="natural" v="water" />
		<tag k="ssr:stedsnr" v="555295" />
		<tag k="water" v="lake" />
	</node>
	<node id="-107768" lat="60.8818972248" lon="10.4351305471">
		<tag k="alt_name" v="Skonnorselva;Skonnordselva" />
		<tag k="name" v="Skonnolselva" />
		<tag k="ssr:stedsnr" v="554864" />
		<tag k="waterway" v="river" />
	</node>
	<node id="-108275" lat="60.9017472255" lon="10.6260722221">
		<tag k="name" v="Gjerdingsbekken" />
		<tag k="ssr:stedsnr" v="769079" />
		<tag k="waterway" v="stream" />
	</node>
	<node id="-107250" lat="60.7490638914" lon="10.5335444477">
		<tag k="name" v="Grobekkvika" />
		<tag k="natural" v="bay" />
		<tag k="ssr:stedsnr" v="162896" />
	</node>
	<node id="-108270" lat="60.9383833328" lon="10.2997444416">
		<tag k="name" v="Svartputten" />
		<tag k="natural" v="water" />
		<tag k="ssr:stedsnr" v="768988" />
	</node>
	<node id="-107754" lat="60.9181722212" lon="10.2321222298">
		<tag k="name" v="Lonkebekken" />
		<tag k="ssr:stedsnr" v="542647" />
		<tag k="waterway" v="stream" />
	</node>
	<node id="-107241" lat="60.9553861072" lon="10.5658388806">
		<tag k="name" v="Bakkombekken" />
		<tag k="ssr:stedsnr" v="162727" />
		<tag k="waterway" v="stream" />
	</node>
	<node id="-108132" lat="60.9655694466" lon="10.3404416674">
		<tag k="name" v="Svarkedammen" />
		<tag k="ssr:stedsnr" v="708342" />
		<tag k="waterway" v="dam" />
	</node>
	<node id="-108258" lat="60.7557888873" lon="10.4386805564">
		<tag k="name" v="Lurmyrbekken" />
		<tag k="ssr:stedsnr" v="768369" />
		<tag k="waterway" v="stream" />
	</node>
	<node id="-107232" lat="60.944466666" lon="10.2044249917">
		<tag k="name" v="Gjevlebekken" />
		<tag k="ssr:stedsnr" v="162660" />
		<tag k="waterway" v="stream" />
	</node>
	<node id="-106719" lat="60.8441174704" lon="10.6499978743">
		<tag k="name" v="Sæterbekken" />
		<tag k="ssr:stedsnr" v="1072822" />
		<tag k="waterway" v="stream" />
	</node>
	<node id="-106718" lat="60.8412214681" lon="10.6233161827">
		<tag k="name" v="Skarkerudelva" />
		<tag k="ssr:stedsnr" v="1072820" />
		<tag k="waterway" v="river" />
	</node>
	<node id="-107301" lat="60.853030558" lon="10.6200750076">
		<tag k="alt_name" v="Kulltjern" />
		<tag k="name" v="Koltjernet" />
		<tag k="natural" v="water" />
		<tag k="ssr:stedsnr" v="191865" />
	</node>
	<node id="-108250" lat="60.8191416691" lon="10.4519944506">
		<tag k="name" v="Åbjøra" />
		<tag k="ssr:stedsnr" v="768125" />
		<tag k="waterway" v="stream" />
	</node>
	<node id="-108247" lat="60.8922972184" lon="10.2747138888">
		<tag k="name" v="Ausbekken" />
		<tag k="ssr:stedsnr" v="767704" />
		<tag k="waterway" v="stream" />
	</node>
	<node id="-108244" lat="60.9602666683" lon="10.3532055639">
		<tag k="name" v="Svenskekjella" />
		<tag k="natural" v="spring" />
		<tag k="ssr:stedsnr" v="767313" />
	</node>
	<node id="-107731" lat="60.7449888872" lon="10.6152694363">
		<tag k="name" v="Persholmen" />
		<tag k="natural" v="cape" />
		<tag k="ssr:stedsnr" v="526633" />
	</node>
	<node id="-108241" lat="60.9113500043" lon="10.4206083299">
		<tag k="name" v="Svartholelva" />
		<tag k="ssr:stedsnr" v="748385" />
		<tag k="waterway" v="stream" />
	</node>
	<node id="-107725" lat="61.0243416648" lon="10.4551333292">
		<tag k="name" v="Nordre Bjørnstadvika" />
		<tag k="natural" v="bay" />
		<tag k="ssr:stedsnr" v="526561" />
	</node>
	<node id="-106693" lat="60.9123777816" lon="10.5111805516">
		<tag k="name" v="Vassbekken" />
		<tag k="ssr:stedsnr" v="891419" />
		<tag k="waterway" v="stream" />
	</node>
	<node id="-107716" lat="60.9153861139" lon="10.4901472266">
		<tag k="name" v="Nordre Onsrudvatnet" />
		<tag k="natural" v="water" />
		<tag k="ssr:stedsnr" v="526384" />
	</node>
	<node id="-107203" lat="60.9367861111" lon="10.4985499932">
		<tag k="name" v="Torsbekken" />
		<tag k="ssr:stedsnr" v="162315" />
		<tag k="waterway" v="stream" />
	</node>
	<node id="-107713" lat="60.9139666648" lon="10.5884722164">
		<tag k="name" v="Svartbekken" />
		<tag k="ssr:stedsnr" v="526323" />
		<tag k="waterway" v="stream" />
	</node>
	<node id="-107200" lat="60.948824997" lon="10.5118055636">
		<tag k="name" v="Saubekken" />
		<tag k="ssr:stedsnr" v="162285" />
		<tag k="waterway" v="stream" />
	</node>
	<node id="-107199" lat="60.9102861123" lon="10.3272638966">
		<tag k="name" v="Fåtjennet" />
		<tag k="natural" v="water" />
		<tag k="ssr:stedsnr" v="162281" />
	</node>
	<node id="-107708" lat="60.9338611117" lon="10.5101138824">
		<tag k="name" v="Fiskedammen" />
		<tag k="natural" v="water" />
		<tag k="ssr:stedsnr" v="526281" />
	</node>
	<node id="-108490" lat="60.836961112" lon="10.5095749926">
		<tag k="name" v="Glæstadtjernet" />
		<tag k="natural" v="water" />
		<tag k="ssr:stedsnr" v="858990" />
	</node>
	<node id="-107706" lat="60.9188444427" lon="10.3142166696">
		<tag k="name" v="Åbbortjennsbekken" />
		<tag k="ssr:stedsnr" v="526269" />
		<tag k="waterway" v="stream" />
	</node>
	<node id="-107465" lat="60.7067527788" lon="10.5117805631">
		<tag k="alt_name" v="Skjærsjøen" />
		<tag k="name" v="Skjersjøen" />
		<tag k="natural" v="water" />
		<tag k="ssr:stedsnr" v="431436" />
	</node>
	<node id="-107186" lat="60.9267777812" lon="10.435650002">
		<tag k="name" v="Redalseterbekken" />
		<tag k="ssr:stedsnr" v="162143" />
		<tag k="waterway" v="stream" />
	</node>
	<node id="-106669" lat="60.8846305574" lon="10.550275004">
		<tag k="name" v="Brattsvebekken" />
		<tag k="ssr:stedsnr" v="890453" />
		<tag k="waterway" v="stream" />
	</node>
	<node id="-106667" lat="60.7297638882" lon="10.4748472178">
		<tag k="name" v="Gampetjern" />
		<tag k="natural" v="water" />
		<tag k="ssr:stedsnr" v="890405" />
	</node>
	<node id="-107689" lat="60.8808972187" lon="10.3742305595">
		<tag k="name" v="Hovtjennet" />
		<tag k="natural" v="water" />
		<tag k="ssr:stedsnr" v="526169" />
	</node>
	<node id="-106664" lat="60.8254555592" lon="10.6533222274">
		<tag k="name" v="Mortensbekken" />
		<tag k="ssr:stedsnr" v="890170" />
		<tag k="waterway" v="stream" />
	</node>
	<node id="-108197" lat="60.9837388902" lon="10.2536722163">
		<tag k="name" v="Sprengebekken" />
		<tag k="ssr:stedsnr" v="737329" />
		<tag k="waterway" v="stream" />
	</node>
	<node id="-108195" lat="60.9351249958" lon="10.1992583243">
		<tag k="name" v="Kjerringelva" />
		<tag k="ssr:stedsnr" v="737281" />
		<tag k="waterway" v="stream" />
	</node>
	<node id="-107164" lat="60.9440944452" lon="10.3405888903">
		<tag k="name" v="Høgahaugpullen" />
		<tag k="natural" v="water" />
		<tag k="ssr:stedsnr" v="160300" />
	</node>
	<node id="-107119" lat="60.9161361137" lon="10.3239194384">
		<tag k="alt_name" v="Åbbortjennet" />
		<tag k="name" v="Åbortjernet" />
		<tag k="natural" v="water" />
		<tag k="ssr:stedsnr" v="130437" />
	</node>
	<node id="-107158" lat="60.9190194443" lon="10.3495527834">
		<tag k="alt_name" v="Sørålsethtjennet" />
		<tag k="name" v="Sørålsettjernet" />
		<tag k="natural" v="water" />
		<tag k="ssr:stedsnr" v="141416" />
	</node>
	<node id="-107033" lat="60.9659027743" lon="10.3564249962">
		<tag k="name" v="Svenskebekken" />
		<tag k="ssr:stedsnr" v="101316" />
		<tag k="waterway" v="stream" />
	</node>
	<node id="-107668" lat="60.9329388851" lon="10.2371638953">
		<tag k="name" v="Laugsbekken" />
		<tag k="ssr:stedsnr" v="524562" />
		<tag k="waterway" v="stream" />
	</node>
	<node id="-108179" lat="60.8858472199" lon="10.335641669">
		<tag k="name" v="Storelva" />
		<tag k="ssr:stedsnr" v="737629" />
		<tag k="waterway" v="river" />
	</node>
	<node id="-107154" lat="60.7781000021" lon="10.4819750077">
		<tag k="name" v="Elgsjøbekken" />
		<tag k="ssr:stedsnr" v="131057" />
		<tag k="waterway" v="stream" />
	</node>
	<node id="-108177" lat="60.9538436013" lon="10.2485562219">
		<tag k="name" v="Svarkebekken" />
		<tag k="ssr:stedsnr" v="736274" />
		<tag k="waterway" v="stream" />
	</node>
	<node id="-107662" lat="60.9108305577" lon="10.3931833339">
		<tag k="name" v="Fiskebekken" />
		<tag k="ssr:stedsnr" v="505402" />
		<tag k="waterway" v="stream" />
	</node>
	<node id="-107659" lat="60.8406388925" lon="10.5553055545">
		<tag k="name" v="Gubberudtjernet" />
		<tag k="natural" v="water" />
		<tag k="ssr:stedsnr" v="495982" />
	</node>
	<node id="-108164" lat="60.7633111126" lon="10.6328361075">
		<tag k="name" v="Beritknappen" />
		<tag k="ssr:stedsnr" v="708999" />
		<tag k="waterway" v="dam" />
	</node>
	<node id="-108480" lat="60.8865500021" lon="10.3027027701">
		<tag k="name" v="Libekken" />
		<tag k="ssr:stedsnr" v="858400" />
		<tag k="waterway" v="stream" />
	</node>
	<node id="-106619" lat="60.762383337" lon="10.5484166722">
		<tag k="name" v="Jordbærodden" />
		<tag k="natural" v="cape" />
		<tag k="ssr:stedsnr" v="405221" />
	</node>
	<node id="-108661" lat="60.9256638916" lon="10.2308999975">
		<tag k="name" v="Engumselva" />
		<tag k="ssr:stedsnr" v="966673" />
		<tag k="waterway" v="river" />
	</node>
	<node id="-107124" lat="60.9272611108" lon="10.2102972272">
		<tag k="name" v="Sagsvebekken" />
		<tag k="ssr:stedsnr" v="130400" />
		<tag k="waterway" v="stream" />
	</node>
	<node id="-107122" lat="60.9894016669" lon="10.211372185">
		<tag k="alt_name" v="Rågarstjernet" />
		<tag k="name" v="Rågjerdstjernet" />
		<tag k="natural" v="water" />
		<tag k="ssr:stedsnr" v="130282" />
	</node>
	<node id="-108143" lat="61.0019861096" lon="10.4986638943">
		<tag k="name" v="Flutua" />
		<tag k="natural" v="bay" />
		<tag k="ssr:stedsnr" v="708615" />
	</node>
	<node id="-107630" lat="60.9493888859" lon="10.5026916741">
		<tag k="name" v="Grindbekken" />
		<tag k="ssr:stedsnr" v="494783" />
		<tag k="waterway" v="stream" />
	</node>
	<node id="-107117" lat="60.7611749977" lon="10.4840250014">
		<tag k="name" v="Hulderbekken" />
		<tag k="ssr:stedsnr" v="130065" />
		<tag k="waterway" v="stream" />
	</node>
	<node id="-108140" lat="60.8855416666" lon="10.5550944391">
		<tag k="name" v="Brustuguelva" />
		<tag k="ssr:stedsnr" v="708462" />
		<tag k="waterway" v="stream" />
	</node>
	<node id="-107115" lat="60.7758749973" lon="10.512941659">
		<tag k="name" v="Svartbekken" />
		<tag k="ssr:stedsnr" v="130033" />
		<tag k="waterway" v="stream" />
	</node>
	<node id="-107626" lat="60.9587000018" lon="10.4022916621">
		<tag k="name" v="Bakåsbekken" />
		<tag k="ssr:stedsnr" v="494768" />
		<tag k="waterway" v="stream" />
	</node>
	<node id="-108136" lat="60.9479055559" lon="10.2916638957">
		<tag k="alt_name" v="Sør-Ekertjennsbekken" />
		<tag k="name" v="Sørekretjernsbekken" />
		<tag k="ssr:stedsnr" v="708365" />
		<tag k="waterway" v="stream" />
	</node>
	<node id="-108645" lat="60.9340499965" lon="10.5560194479">
		<tag k="name" v="Nersvebekken" />
		<tag k="ssr:stedsnr" v="951716" />
		<tag k="waterway" v="stream" />
	</node>
	<node id="-106596" lat="61.0039138896" lon="10.3059333335">
		<tag k="name" v="Maribekken" />
		<tag k="ssr:stedsnr" v="404392" />
		<tag k="waterway" v="stream" />
	</node>
	<node id="-106854" lat="60.8870027782" lon="10.6729749995">
		<tag k="name" v="Stokkeelva" />
		<tag k="ssr:stedsnr" v="9872" />
		<tag k="waterway" v="river" />
	</node>
	<node id="-108130" lat="60.9268000029" lon="10.5427083276">
		<tag k="name" v="Gullvangsbekken" />
		<tag k="ssr:stedsnr" v="708334" />
		<tag k="waterway" v="stream" />
	</node>
	<node id="-108219" lat="60.8894666646" lon="10.459422231">
		<tag k="name" v="Snartumselva" />
		<tag k="ssr:stedsnr" v="737848" />
		<tag k="waterway" v="river" />
	</node>
	<node id="-108640" lat="60.9925416661" lon="10.4319333291">
		<tag k="name" v="Slemdalsbekken" />
		<tag k="ssr:stedsnr" v="951658" />
		<tag k="waterway" v="stream" />
	</node>
	<node id="-108124" lat="60.918763885" lon="10.2589500062">
		<tag k="name" v="Lundeselva" />
		<tag k="ssr:stedsnr" v="708284" />
		<tag k="waterway" v="stream" />
	</node>
	<node id="-107099" lat="60.7978750031" lon="10.6752361154">
		<tag k="name" v="Hovdetjernet" />
		<tag k="natural" v="water" />
		<tag k="ssr:stedsnr" v="116572" />
	</node>
	<node id="-107791" lat="60.9137369768" lon="10.495310262">
		<tag k="name" v="Onsrudvatna" />
		<tag k="natural" v="water" />
		<tag k="ssr:stedsnr" v="555835" />
		<tag k="water" v="lake" />
	</node>
	<node id="-106584" lat="60.9839000025" lon="10.4021527787">
		<tag k="name" v="Tømtbekken" />
		<tag k="ssr:stedsnr" v="386932" />
		<tag k="waterway" v="stream" />
	</node>
	<node id="-106583" lat="60.9729611098" lon="10.6085500083">
		<tag k="name" v="Fluren" />
		<tag k="place" v="islet" />
		<tag k="ssr:stedsnr" v="384496" />
	</node>
	<node id="-108118" lat="60.7655750023" lon="10.5456111057">
		<tag k="name" v="Ospodden" />
		<tag k="natural" v="cape" />
		<tag k="ssr:stedsnr" v="708224" />
	</node>
	<node id="-106580" lat="60.8896999999" lon="10.5244500068">
		<tag k="name" v="Pukua" />
		<tag k="ssr:stedsnr" v="384395" />
		<tag k="waterway" v="stream" />
	</node>
	<node id="-107089" lat="60.728361112" lon="10.5105944423">
		<tag k="name" v="Eikvelttjennet" />
		<tag k="natural" v="water" />
		<tag k="ssr:stedsnr" v="102936" />
	</node>
	<node id="-108110" lat="60.8361055525" lon="10.5517305547">
		<tag k="name" v="Sleperudelva" />
		<tag k="ssr:stedsnr" v="708142" />
		<tag k="waterway" v="stream" />
	</node>
	<node id="-106570" lat="60.8787416666" lon="10.4060250052">
		<tag k="alt_name" v="Skonnordstjennet" />
		<tag k="name" v="Skonnolstjernet" />
		<tag k="natural" v="water" />
		<tag k="old_name" v="Skonnoltjennet" />
		<tag k="ssr:stedsnr" v="373913" />
	</node>
	<node id="-106569" lat="60.8578805526" lon="10.5775555612">
		<tag k="alt_name" v="Øytjernet" />
		<tag k="name" v="Øveråstjernet" />
		<tag k="natural" v="water" />
		<tag k="ssr:stedsnr" v="373908" />
	</node>
	<node id="-106567" lat="60.8458972199" lon="10.3847083423">
		<tag k="alt_name" v="Køltjennet;Kulltjennet" />
		<tag k="name" v="Koltjernet" />
		<tag k="natural" v="water" />
		<tag k="ssr:stedsnr" v="373900" />
	</node>
	<node id="-108614" lat="60.8577888918" lon="10.7030972171">
		<tag k="name" v="Kollbergodden" />
		<tag k="natural" v="cape" />
		<tag k="ssr:stedsnr" v="951176" />
	</node>
	<node id="-107105" lat="60.7370861093" lon="10.4582999919">
		<tag k="name" v="Larsputten" />
		<tag k="place" v="locality" />
		<tag k="ssr:stedsnr" v="128432" />
	</node>
	<node id="-108092" lat="60.9695055598" lon="10.3451472146">
		<tag k="name" v="Djupdalsbekken" />
		<tag k="ssr:stedsnr" v="688506" />
		<tag k="waterway" v="stream" />
	</node>
	<node id="-108091" lat="60.8384583308" lon="10.6588638845">
		<tag k="name" v="Kastadtjernet" />
		<tag k="natural" v="water" />
		<tag k="ssr:stedsnr" v="677980" />
	</node>
	<node id="-107578" lat="60.988491669" lon="10.5568055586">
		<tag k="name" v="Melumsodden" />
		<tag k="natural" v="cape" />
		<tag k="ssr:stedsnr" v="466632" />
	</node>
	<node id="-106643" lat="60.9626111122" lon="10.4860000073">
		<tag k="name" v="Nordsvebekken" />
		<tag k="ssr:stedsnr" v="405731" />
		<tag k="waterway" v="stream" />
	</node>
	<node id="-107576" lat="60.9117333317" lon="10.5011583333">
		<tag k="name" v="Søndre Onsrudvatnet" />
		<tag k="natural" v="water" />
		<tag k="ssr:stedsnr" v="466414" />
	</node>
	<node id="-107574" lat="60.9146333373" lon="10.5372472217">
		<tag k="name" v="Seterbekken" />
		<tag k="ssr:stedsnr" v="466353" />
		<tag k="waterway" v="stream" />
	</node>
	<node id="-107570" lat="60.9225111132" lon="10.3437611038">
		<tag k="name" v="Sangbekken" />
		<tag k="ssr:stedsnr" v="466312" />
		<tag k="waterway" v="stream" />
	</node>
	<node id="-108590" lat="60.9341638868" lon="10.3199222133">
		<tag k="name" v="Hemsangbekken" />
		<tag k="ssr:stedsnr" v="949307" />
		<tag k="waterway" v="stream" />
	</node>
	<node id="-106541" lat="60.964047223" lon="10.2031805574">
		<tag k="alt_name" v="Lertjenn" />
		<tag k="name" v="Leirtjerna" />
		<tag k="natural" v="water" />
		<tag k="ssr:stedsnr" v="373358" />
	</node>
	<node id="-108076" lat="60.9578888897" lon="10.227138885">
		<tag k="name" v="Finna" />
		<tag k="ssr:stedsnr" v="677328" />
		<tag k="waterway" v="stream" />
	</node>
	<node id="-106539" lat="60.9675583359" lon="10.1986361092">
		<tag k="alt_name" v="Holmtjennet" />
		<tag k="name" v="Holmtjernet" />
		<tag k="natural" v="water" />
		<tag k="ssr:stedsnr" v="373343" />
	</node>
	<node id="-106538" lat="60.9753333305" lon="10.2432722136">
		<tag k="name" v="Raudbekken" />
		<tag k="ssr:stedsnr" v="373342" />
		<tag k="waterway" v="stream" />
	</node>
	<node id="-106535" lat="60.9976833376" lon="10.3155388963">
		<tag k="name" v="Vismunda" />
		<tag k="ssr:stedsnr" v="373149" />
		<tag k="waterway" v="river" />
	</node>
	<node id="-108581" lat="60.9510805567" lon="10.4372611056">
		<tag k="name" v="Djupdalsbekken" />
		<tag k="ssr:stedsnr" v="920822" />
		<tag k="waterway" v="stream" />
	</node>
	<node id="-107548" lat="60.9517944403" lon="10.6326944532">
		<tag k="name" v="Paradisvika" />
		<tag k="natural" v="bay" />
		<tag k="ssr:stedsnr" v="465577" />
	</node>
	<node id="-108569" lat="60.8764598849" lon="10.3624089089">
		<tag k="name" v="Ringsjøen" />
		<tag k="natural" v="water" />
		<tag k="ssr:stedsnr" v="919918" />
		<tag k="water" v="lake" />
	</node>
	<node id="-106520" lat="61.0039666708" lon="10.4137777855">
		<tag k="name" v="Kalverudelva" />
		<tag k="ssr:stedsnr" v="371735" />
		<tag k="waterway" v="stream" />
	</node>
	<node id="-108548" lat="60.9355305552" lon="10.2263277704">
		<tag k="name" v="Lauga" />
		<tag k="natural" v="water" />
		<tag k="ssr:stedsnr" v="919293" />
	</node>
	<node id="-107542" lat="60.780100001" lon="10.4130055614">
		<tag k="name" v="Løken" />
		<tag k="ssr:stedsnr" v="465427" />
		<tag k="waterway" v="stream" />
	</node>
	<node id="-106517" lat="60.734433331" lon="10.4929083372">
		<tag k="alt_name" v="Kolbergsetertjennet" />
		<tag k="name" v="Kolbergsætertjernet" />
		<tag k="natural" v="water" />
		<tag k="ssr:stedsnr" v="371434" />
	</node>
	<node id="-106516" lat="60.7214805521" lon="10.5185833384">
		<tag k="alt_name" v="Øytjennet" />
		<tag k="name" v="Øytjernet" />
		<tag k="natural" v="water" />
		<tag k="ssr:stedsnr" v="371406" />
	</node>
	<node id="-107026" lat="60.8364812844" lon="10.6479006746">
		<tag k="name" v="Sæterelva" />
		<tag k="ssr:stedsnr" v="101135" />
		<tag k="waterway" v="stream" />
	</node>
	<node id="-108049" lat="60.75853611" lon="10.4711249988">
		<tag k="name" v="Buerbekken" />
		<tag k="ssr:stedsnr" v="676089" />
		<tag k="waterway" v="stream" />
	</node>
	<node id="-107536" lat="60.9669027785" lon="10.2690305639">
		<tag k="name" v="Midtelva" />
		<tag k="ssr:stedsnr" v="465326" />
		<tag k="waterway" v="stream" />
	</node>
	<node id="-107352" lat="60.9124333358" lon="10.2526444535">
		<tag k="fixme" v="multiple name tags, choose one and add the other to alt_name" />
		<tag k="name" v="Ambjørselva;Ytterelva" />
		<tag k="ssr:stedsnr" v="223253" />
		<tag k="waterway" v="river" />
	</node>
	<node id="-108044" lat="60.7548694403" lon="10.6109472191">
		<tag k="alt_name" v="Egstadtjernet" />
		<tag k="name" v="Eikstadtjernet" />
		<tag k="natural" v="water" />
		<tag k="ssr:stedsnr" v="676067" />
	</node>
	<node id="-107531" lat="60.8984666627" lon="10.6639055633">
		<tag k="name" v="Svartsandvika" />
		<tag k="natural" v="bay" />
		<tag k="ssr:stedsnr" v="465074" />
	</node>
	<node id="-107530" lat="60.9890166659" lon="10.5034666726">
		<tag k="name" v="Finstadbekken" />
		<tag k="ssr:stedsnr" v="466550" />
		<tag k="waterway" v="stream" />
	</node>
	<node id="-106505" lat="60.7524777784" lon="10.5720166616">
		<tag k="name" v="Kongelstadelva" />
		<tag k="ssr:stedsnr" v="344877" />
		<tag k="waterway" v="river" />
	</node>
	<node id="-108549" lat="60.8857999992" lon="10.2551888899">
		<tag k="name" v="Langvatnet" />
		<tag k="natural" v="water" />
		<tag k="ssr:stedsnr" v="919412" />
	</node>
	<node id="-108036" lat="60.7938111121" lon="10.3683888815">
		<tag k="name" v="Sevalstjernet" />
		<tag k="natural" v="water" />
		<tag k="ssr:stedsnr" v="677041" />
	</node>
	<node id="-107435" lat="60.9500583358" lon="10.4786499978">
		<tag k="name" v="Dynjua" />
		<tag k="ssr:stedsnr" v="252782" />
		<tag k="waterway" v="stream" />
	</node>
</osm>
