<?xml version="1.0" encoding="UTF-8"?>
<osm generator="osmapis" version="0.6">
	<node id="-314351" lat="58.8543333363" lon="7.86383055432">
		<tag k="bridge" v="yes" />
		<tag k="layer" v="1" />
		<tag k="name" v="Skulefossbru" />
		<tag k="ssr:stedsnr" v="266425" />
	</node>
	<node id="-315882" lat="58.690972226" lon="7.93978055197">
		<tag k="highway" v="path" />
		<tag k="name" v="Moldstig" />
		<tag k="ssr:stedsnr" v="812222" />
	</node>
	<node id="-313828" lat="58.7982527768" lon="7.83874166462">
		<tag k="bridge" v="yes" />
		<tag k="layer" v="1" />
		<tag k="name" v="Landalsbruæ" />
		<tag k="ssr:stedsnr" v="144146" />
	</node>
	<node id="-314338" lat="58.9472611104" lon="7.6872027783">
		<tag k="alt_name" v="Ose" />
		<tag k="bridge" v="yes" />
		<tag k="layer" v="1" />
		<tag k="name" v="Ose bru" />
		<tag k="ssr:stedsnr" v="266362" />
	</node>
	<node id="-314335" lat="58.7027500017" lon="7.76905833047">
		<tag k="highway" v="path" />
		<tag k="name" v="Eikjårstigen" />
		<tag k="ssr:stedsnr" v="266354" />
	</node>
	<node id="-315857" lat="58.962588892" lon="7.50613611292">
		<tag k="ford" v="yes" />
		<tag k="name" v="Låtevad" />
		<tag k="place" v="locality" />
		<tag k="ssr:stedsnr" v="812068" />
	</node>
	<node id="-314823" lat="58.9433305521" lon="7.5836055596">
		<tag k="man_made" v="cairn" />
		<tag k="name" v="Rustfjell" />
		<tag k="place" v="locality" />
		<tag k="ssr:stedsnr" v="535814" />
	</node>
	<node id="-314822" lat="58.9751666635" lon="7.58471667156">
		<tag k="bridge" v="yes" />
		<tag k="layer" v="1" />
		<tag k="name" v="Heggland nordre" />
		<tag k="ssr:stedsnr" v="532172" />
	</node>
	<node id="-314818" lat="58.7926611079" lon="7.91004721482">
		<tag k="man_made" v="cairn" />
		<tag k="name" v="Austmannvarden" />
		<tag k="place" v="locality" />
		<tag k="ssr:stedsnr" v="519966" />
	</node>
	<node id="-313783" lat="58.8658444441" lon="7.81774722392">
		<tag k="bridge" v="yes" />
		<tag k="layer" v="1" />
		<tag k="name" v="Skrelandsbrui" />
		<tag k="ssr:stedsnr" v="122726" />
	</node>
	<node id="-313587" lat="58.827938893" lon="7.79428056266">
		<tag k="man_made" v="quay" />
		<tag k="name" v="Brygga" />
		<tag k="place" v="locality" />
		<tag k="ssr:stedsnr" v="84032" />
	</node>
	<node id="-314799" lat="59.019225004" lon="7.85045556068">
		<tag k="ford" v="yes" />
		<tag k="name" v="Vånarosvaet" />
		<tag k="place" v="locality" />
		<tag k="ssr:stedsnr" v="519758" />
	</node>
	<node id="-314284" lat="58.9691861071" lon="7.5869083365">
		<tag k="bridge" v="yes" />
		<tag k="layer" v="1" />
		<tag k="name" v="Rovebrune" />
		<tag k="ssr:stedsnr" v="266084" />
	</node>
	<node id="-313241" lat="58.6606601473" lon="7.82903408666">
		<tag k="highway" v="path" />
		<tag k="name" v="Kleivvegen" />
		<tag k="ssr:stedsnr" v="1073516" />
	</node>
	<node id="-313239" lat="58.7766972183" lon="7.83874444833">
		<tag k="layer" v="-1" />
		<tag k="name" v="Fånefjell" />
		<tag k="ssr:stedsnr" v="894479" />
		<tag k="tunnel" v="yes" />
	</node>
	<node id="-315279" lat="58.8503027815" lon="7.75062500593">
		<tag k="bridge" v="yes" />
		<tag k="layer" v="1" />
		<tag k="name" v="Storstraumen" />
		<tag k="ssr:stedsnr" v="653193" />
	</node>
	<node id="-315278" lat="58.8498750011" lon="7.74958610819">
		<tag k="bridge" v="yes" />
		<tag k="layer" v="1" />
		<tag k="name" v="Storstraumen slusebru" />
		<tag k="ssr:stedsnr" v="653192" />
	</node>
	<node id="-315277" lat="58.7855527757" lon="7.82592222387">
		<tag k="bridge" v="yes" />
		<tag k="layer" v="1" />
		<tag k="name" v="Nautdrevet" />
		<tag k="ssr:stedsnr" v="653170" />
	</node>
	<node id="-316298" lat="59.0044166688" lon="7.52975000137">
		<tag k="highway" v="path" />
		<tag k="name" v="Smørkleppkleiva" />
		<tag k="ssr:stedsnr" v="933017" />
	</node>
	<node id="-314760" lat="58.9872833298" lon="7.70767778326">
		<tag k="bridge" v="yes" />
		<tag k="layer" v="1" />
		<tag k="name" v="Kloppa" />
		<tag k="ssr:stedsnr" v="508512" />
	</node>
	<node id="-313727" lat="58.8055250035" lon="7.76754167012">
		<tag k="bridge" v="yes" />
		<tag k="layer" v="1" />
		<tag k="name" v="Stallemoåni" />
		<tag k="ssr:stedsnr" v="107190" />
	</node>
	<node id="-313726" lat="58.8320777767" lon="7.80050833238">
		<tag k="bridge" v="yes" />
		<tag k="layer" v="1" />
		<tag k="name" v="Bjønnå" />
		<tag k="ssr:stedsnr" v="107165" />
	</node>
	<node id="-313725" lat="58.7466138889" lon="7.77677222844">
		<tag k="bridge" v="yes" />
		<tag k="layer" v="1" />
		<tag k="name" v="Bergva" />
		<tag k="ssr:stedsnr" v="107160" />
	</node>
	<node id="-313724" lat="58.8167861129" lon="7.76181111009">
		<tag k="bridge" v="yes" />
		<tag k="layer" v="1" />
		<tag k="name" v="Rysefossen" />
		<tag k="ssr:stedsnr" v="107154" />
	</node>
	<node id="-314741" lat="58.9901666692" lon="7.65334722334">
		<tag k="highway" v="path" />
		<tag k="name" v="Heistadkleivi" />
		<tag k="ssr:stedsnr" v="508406" />
	</node>
	<node id="-313201" lat="59.0390861142" lon="7.82609444521">
		<tag k="highway" v="path" />
		<tag k="name" v="Stemmvegen" />
		<tag k="ssr:stedsnr" v="883775" />
	</node>
	<node id="-315760" lat="58.8498888928" lon="7.7447111075">
		<tag k="bridge" v="yes" />
		<tag k="layer" v="1" />
		<tag k="name" v="Straumsland" />
		<tag k="ssr:stedsnr" v="775195" />
	</node>
	<node id="-315759" lat="58.7475500039" lon="7.84964166611">
		<tag k="bridge" v="yes" />
		<tag k="layer" v="1" />
		<tag k="name" v="Longerak" />
		<tag k="ssr:stedsnr" v="775175" />
	</node>
	<node id="-313197" lat="58.6638916663" lon="7.81716666155">
		<tag k="bridge" v="yes" />
		<tag k="layer" v="1" />
		<tag k="name" v="Vassend" />
		<tag k="ssr:stedsnr" v="411227" />
	</node>
	<node id="-314729" lat="58.9183277762" lon="7.75581943817">
		<tag k="highway" v="path" />
		<tag k="name" v="Stigan" />
		<tag k="ssr:stedsnr" v="508305" />
	</node>
	<node id="-313148" lat="58.951919448" lon="7.7066000015">
		<tag k="highway" v="path" />
		<tag k="name" v="Bjørnstig" />
		<tag k="ssr:stedsnr" v="387516" />
	</node>
	<node id="-313701" lat="59.0293722222" lon="7.8336305546">
		<tag k="highway" v="path" />
		<tag k="name" v="Stegen" />
		<tag k="ssr:stedsnr" v="94799" />
	</node>
	<node id="-314193" lat="58.7066000011" lon="7.83088333204">
		<tag k="bridge" v="yes" />
		<tag k="layer" v="1" />
		<tag k="name" v="Lande" />
		<tag k="ssr:stedsnr" v="229193" />
	</node>
	<node id="-315216" lat="58.9646805574" lon="7.65254722055">
		<tag k="highway" v="path" />
		<tag k="name" v="Moiskleiva" />
		<tag k="ssr:stedsnr" v="629460" />
	</node>
	<node id="-313160" lat="58.7822944442" lon="7.78364445005">
		<tag k="highway" v="path" />
		<tag k="name" v="Fantevegen" />
		<tag k="ssr:stedsnr" v="388057" />
	</node>
	<node id="-314695" lat="58.8022416643" lon="7.83415277233">
		<tag k="fixme" v="consider highway=path" />
		<tag k="highway" v="track" />
		<tag k="name" v="Nordkleivane" />
		<tag k="ssr:stedsnr" v="508135" />
	</node>
	<node id="-313157" lat="58.9825111131" lon="7.82723888288">
		<tag k="highway" v="path" />
		<tag k="name" v="Startekleiv" />
		<tag k="ssr:stedsnr" v="387842" />
	</node>
	<node id="-314684" lat="58.987308335" lon="7.61159722162">
		<tag k="highway" v="path" />
		<tag k="name" v="Åkrokslepa" />
		<tag k="ssr:stedsnr" v="508039" />
	</node>
	<node id="-313656" lat="58.8723250031" lon="7.8903249983">
		<tag k="bridge" v="yes" />
		<tag k="layer" v="1" />
		<tag k="name" v="Sivårsbrui" />
		<tag k="ssr:stedsnr" v="84463" />
	</node>
	<node id="-313645" lat="58.6649611101" lon="7.80439444625">
		<tag k="alt_name" v="Senumsund" />
		<tag k="bridge" v="yes" />
		<tag k="layer" v="1" />
		<tag k="name" v="Senumstad bru" />
		<tag k="ssr:stedsnr" v="84510" />
	</node>
	<node id="-313644" lat="58.9555805521" lon="7.7003611192">
		<tag k="highway" v="path" />
		<tag k="name" v="Moldvegen" />
		<tag k="ssr:stedsnr" v="84511" />
	</node>
	<node id="-314152" lat="58.7859777753" lon="7.792649993">
		<tag k="man_made" v="quay" />
		<tag k="name" v="Bryggja" />
		<tag k="place" v="locality" />
		<tag k="ssr:stedsnr" v="206072" />
	</node>
	<node id="-315678" lat="58.7079083364" lon="7.77447499627">
		<tag k="fixme" v="consider highway=path" />
		<tag k="highway" v="track" />
		<tag k="name" v="Tveitåvegen" />
		<tag k="ssr:stedsnr" v="751402" />
	</node>
	<node id="-315673" lat="58.7834749989" lon="7.76290277843">
		<tag k="name" v="Leet" />
		<tag k="place" v="locality" />
		<tag k="ssr:stedsnr" v="751382" />
	</node>
	<node id="-315160" lat="58.742916664" lon="7.97692499325">
		<tag k="ford" v="yes" />
		<tag k="name" v="Torkjelsva" />
		<tag k="place" v="locality" />
		<tag k="ssr:stedsnr" v="629176" />
	</node>
	<node id="-315670" lat="58.7827472209" lon="7.75586110827">
		<tag k="highway" v="path" />
		<tag k="name" v="Trappekleiv" />
		<tag k="ssr:stedsnr" v="751375" />
	</node>
	<node id="-314129" lat="58.9799722194" lon="7.65800555928">
		<tag k="highway" v="path" />
		<tag k="name" v="Skrivarvegen" />
		<tag k="ssr:stedsnr" v="205477" />
	</node>
	<node id="-314618" lat="58.8631499993" lon="7.71143334112">
		<tag k="bridge" v="yes" />
		<tag k="layer" v="1" />
		<tag k="name" v="Skomedal" />
		<tag k="ssr:stedsnr" v="471213" />
	</node>
	<node id="-314617" lat="58.9539277821" lon="7.68705833652">
		<tag k="bridge" v="yes" />
		<tag k="layer" v="1" />
		<tag k="name" v="Kvernå" />
		<tag k="ssr:stedsnr" v="471196" />
	</node>
	<node id="-313589" lat="58.8717861109" lon="7.82476388227">
		<tag k="fixme" v="consider highway=path" />
		<tag k="highway" v="track" />
		<tag k="name" v="Haukåsvegen" />
		<tag k="ssr:stedsnr" v="84040" />
	</node>
	<node id="-314099" lat="58.8814611105" lon="7.73356943844">
		<tag k="ford" v="yes" />
		<tag k="name" v="Vadet" />
		<tag k="place" v="locality" />
		<tag k="ssr:stedsnr" v="205312" />
	</node>
	<node id="-313073" lat="58.9530444444" lon="7.50703610506">
		<tag k="ford" v="yes" />
		<tag k="name" v="Sendingsfetvadet" />
		<tag k="place" v="locality" />
		<tag k="ssr:stedsnr" v="387127" />
	</node>
	<node id="-315632" lat="58.7978083297" lon="7.83604166048">
		<tag k="junction" v="yes" />
		<tag k="name" v="Vegneskilet" />
		<tag k="place" v="locality" />
		<tag k="ssr:stedsnr" v="751145" />
	</node>
	<node id="-313070" lat="58.8422638932" lon="7.81237222493">
		<tag k="fixme" v="consider highway=path" />
		<tag k="highway" v="track" />
		<tag k="name" v="Kattesvingen" />
		<tag k="ssr:stedsnr" v="387111" />
	</node>
	<node id="-314086" lat="58.7395777783" lon="7.85293889469">
		<tag k="highway" v="path" />
		<tag k="name" v="Brattekleiv" />
		<tag k="ssr:stedsnr" v="205229" />
	</node>
	<node id="-315616" lat="58.9160249989" lon="7.70350832599">
		<tag k="highway" v="path" />
		<tag k="name" v="Bjørnstig" />
		<tag k="ssr:stedsnr" v="751036" />
	</node>
	<node id="-316122" lat="58.9567083314" lon="7.51768056085">
		<tag k="highway" v="path" />
		<tag k="name" v="Nordmannvegen" />
		<tag k="ssr:stedsnr" v="873080" />
	</node>
	<node id="-316115" lat="58.9894833295" lon="7.64066388256">
		<tag k="highway" v="path" />
		<tag k="name" v="Stigan" />
		<tag k="ssr:stedsnr" v="873041" />
	</node>
	<node id="-312867" lat="58.9804611083" lon="7.53543055099">
		<tag k="highway" v="path" />
		<tag k="name" v="Simdalskleiva" />
		<tag k="ssr:stedsnr" v="326171" />
	</node>
	<node id="-316111" lat="58.6954388895" lon="7.83881389519">
		<tag k="ford" v="yes" />
		<tag k="name" v="Bergva" />
		<tag k="place" v="locality" />
		<tag k="ssr:stedsnr" v="873034" />
	</node>
	<node id="-314058" lat="58.92515" lon="7.64729166183">
		<tag k="highway" v="path" />
		<tag k="name" v="Brattekleiv" />
		<tag k="ssr:stedsnr" v="205059" />
	</node>
	<node id="-314557" lat="58.7862749967" lon="7.78158611905">
		<tag k="highway" v="path" />
		<tag k="name" v="Sandkleiv" />
		<tag k="ssr:stedsnr" v="449053" />
	</node>
	<node id="-312939" lat="58.9260472192" lon="7.73427499989">
		<tag k="fixme" v="verify maritime location" />
		<tag k="mooring" v="yes" />
		<tag k="name" v="Olavsstø" />
		<tag k="place" v="locality" />
		<tag k="ssr:stedsnr" v="327375" />
	</node>
	<node id="-315053" lat="58.7062861075" lon="7.785288891">
		<tag k="bridge" v="yes" />
		<tag k="layer" v="1" />
		<tag k="name" v="Væråna" />
		<tag k="ssr:stedsnr" v="592224" />
	</node>
	<node id="-315052" lat="58.9752916664" lon="7.58517776978">
		<tag k="bridge" v="yes" />
		<tag k="layer" v="1" />
		<tag k="name" v="Heggland søndre" />
		<tag k="ssr:stedsnr" v="592206" />
	</node>
	<node id="-315051" lat="59.0022888877" lon="7.53635000398">
		<tag k="bridge" v="yes" />
		<tag k="layer" v="1" />
		<tag k="name" v="Langeid nordre" />
		<tag k="ssr:stedsnr" v="592201" />
	</node>
	<node id="-314538" lat="58.9643777778" lon="7.69234721621">
		<tag k="highway" v="path" />
		<tag k="name" v="Aslakbustigen" />
		<tag k="ssr:stedsnr" v="448502" />
	</node>
	<node id="-313505" lat="58.6742916652" lon="7.84098055399">
		<tag k="man_made" v="cairn" />
		<tag k="name" v="Årdalsknapen" />
		<tag k="place" v="locality" />
		<tag k="ssr:stedsnr" v="50787" />
	</node>
	<node id="-313504" lat="58.9221555518" lon="7.73951945075">
		<tag k="bridge" v="yes" />
		<tag k="layer" v="1" />
		<tag k="name" v="Ågapet" />
		<tag k="ssr:stedsnr" v="46215" />
	</node>
	<node id="-313503" lat="58.9501416696" lon="7.68056943785">
		<tag k="bridge" v="yes" />
		<tag k="layer" v="1" />
		<tag k="name" v="Ose" />
		<tag k="ssr:stedsnr" v="46187" />
	</node>
	<node id="-312982" lat="58.9425805588" lon="7.68804166938">
		<tag k="bridge" v="yes" />
		<tag k="layer" v="1" />
		<tag k="name" v="Reiårsfossen" />
		<tag k="ssr:stedsnr" v="350174" />
	</node>
	<node id="-312770" lat="58.6905527795" lon="7.77548332867">
		<tag k="bridge" v="yes" />
		<tag k="layer" v="1" />
		<tag k="name" v="Boåna" />
		<tag k="ssr:stedsnr" v="289185" />
	</node>
	<node id="-315525" lat="58.7055500015" lon="7.82516110949">
		<tag k="bridge" v="yes" />
		<tag k="layer" v="1" />
		<tag k="name" v="Lande" />
		<tag k="ssr:stedsnr" v="714159" />
	</node>
	<node id="-315524" lat="58.7539611093" lon="7.85357500722">
		<tag k="bridge" v="yes" />
		<tag k="layer" v="1" />
		<tag k="name" v="Longerak søndre" />
		<tag k="ssr:stedsnr" v="714155" />
	</node>
	<node id="-315523" lat="58.7868138921" lon="7.77799999722">
		<tag k="bridge" v="yes" />
		<tag k="layer" v="1" />
		<tag k="name" v="Melåni" />
		<tag k="ssr:stedsnr" v="714156" />
	</node>
	<node id="-312961" lat="59.0096222198" lon="7.44227778044">
		<tag k="highway" v="path" />
		<tag k="name" v="Langelivegen" />
		<tag k="ssr:stedsnr" v="337801" />
	</node>
	<node id="-314993" lat="58.677800002" lon="7.76723889555">
		<tag k="highway" v="path" />
		<tag k="name" v="Vondestig" />
		<tag k="ssr:stedsnr" v="569466" />
	</node>
	<node id="-316013" lat="58.8988222219" lon="7.73773333487">
		<tag k="bridge" v="yes" />
		<tag k="layer" v="1" />
		<tag k="name" v="Vikeli nordre" />
		<tag k="ssr:stedsnr" v="836177" />
	</node>
	<node id="-316012" lat="59.0091194476" lon="7.53783334009">
		<tag k="bridge" v="yes" />
		<tag k="layer" v="1" />
		<tag k="name" v="Sagebekken" />
		<tag k="ssr:stedsnr" v="836151" />
	</node>
	<node id="-313963" lat="58.8799138852" lon="7.07013332741">
		<tag k="bridge" v="yes" />
		<tag k="layer" v="1" />
		<tag k="name" v="Kvibru" />
		<tag k="ssr:stedsnr" v="182174" />
	</node>
	<node id="-313960" lat="58.7546027813" lon="7.85309444073">
		<tag k="bridge" v="yes" />
		<tag k="layer" v="1" />
		<tag k="name" v="Longerak nordre" />
		<tag k="ssr:stedsnr" v="168186" />
	</node>
	<node id="-313959" lat="58.957113893" lon="7.66653611424">
		<tag k="bridge" v="yes" />
		<tag k="layer" v="1" />
		<tag k="name" v="Moisbekk" />
		<tag k="ssr:stedsnr" v="168181" />
	</node>
	<node id="-315153" lat="58.8437972227" lon="7.82920833938">
		<tag k="highway" v="path" />
		<tag k="name" v="Øvreveg" />
		<tag k="ssr:stedsnr" v="629107" />
	</node>
	<node id="-312932" lat="58.9620722221" lon="7.88567222169">
		<tag k="highway" v="path" />
		<tag k="name" v="Rjomekleiv" />
		<tag k="ssr:stedsnr" v="326838" />
	</node>
	<node id="-316002" lat="58.6586083375" lon="7.83929721494">
		<tag k="highway" v="path" />
		<tag k="name" v="Kabrekleiv" />
		<tag k="ssr:stedsnr" v="823890" />
	</node>
	<node id="-315492" lat="58.9444333368" lon="7.86663888498">
		<tag k="highway" v="path" />
		<tag k="name" v="Mannevegen" />
		<tag k="ssr:stedsnr" v="691851" />
	</node>
	<node id="-313430" lat="58.8597777791" lon="7.92810000262">
		<tag k="highway" v="path" />
		<tag k="name" v="Grantjørnkleivi" />
		<tag k="ssr:stedsnr" v="23489" />
	</node>
	<node id="-315476" lat="58.6779833321" lon="7.81183888037">
		<tag k="highway" v="path" />
		<tag k="name" v="Fyrrekleiv" />
		<tag k="ssr:stedsnr" v="691477" />
	</node>
	<node id="-315987" lat="58.9807444444" lon="7.9281888888">
		<tag k="man_made" v="cairn" />
		<tag k="name" v="Varden" />
		<tag k="place" v="locality" />
		<tag k="ssr:stedsnr" v="823761" />
	</node>
	<node id="-314962" lat="58.813847225" lon="7.74884721812">
		<tag k="highway" v="path" />
		<tag k="name" v="Stigen" />
		<tag k="ssr:stedsnr" v="569316" />
	</node>
	<node id="-315985" lat="58.9844611137" lon="7.83305278436">
		<tag k="highway" v="path" />
		<tag k="name" v="Raudekleiva" />
		<tag k="ssr:stedsnr" v="823745" />
	</node>
	<node id="-315471" lat="58.8562444479" lon="7.97606110766">
		<tag k="highway" v="path" />
		<tag k="name" v="Næverkleiv" />
		<tag k="ssr:stedsnr" v="691452" />
	</node>
	<node id="-315470" lat="58.6793222202" lon="7.77390833566">
		<tag k="highway" v="path" />
		<tag k="name" v="Kvinnevegen" />
		<tag k="ssr:stedsnr" v="691449" />
	</node>
	<node id="-312908" lat="58.9937500001" lon="7.67557499808">
		<tag k="ford" v="yes" />
		<tag k="name" v="Tverrhommvaet" />
		<tag k="place" v="locality" />
		<tag k="ssr:stedsnr" v="326419" />
	</node>
	<node id="-316475" lat="58.9504944426" lon="7.67976389407">
		<tag k="bridge" v="yes" />
		<tag k="layer" v="1" />
		<tag k="name" v="Fosså" />
		<tag k="ssr:stedsnr" v="957191" />
	</node>
	<node id="-316474" lat="58.8515055512" lon="7.75435833732">
		<tag k="bridge" v="yes" />
		<tag k="layer" v="1" />
		<tag k="name" v="Leirdals" />
		<tag k="ssr:stedsnr" v="957184" />
	</node>
	<node id="-316473" lat="58.9840166667" lon="7.54123332513">
		<tag k="bridge" v="yes" />
		<tag k="layer" v="1" />
		<tag k="name" v="Langeid" />
		<tag k="ssr:stedsnr" v="957183" />
	</node>
	<node id="-316472" lat="58.8310749972" lon="7.79470277308">
		<tag k="bridge" v="yes" />
		<tag k="layer" v="1" />
		<tag k="name" v="Kvåls" />
		<tag k="ssr:stedsnr" v="957180" />
	</node>
	<node id="-314932" lat="58.798169442" lon="7.83305000539">
		<tag k="highway" v="path" />
		<tag k="name" v="Brattestig" />
		<tag k="ssr:stedsnr" v="569153" />
	</node>
	<node id="-313395" lat="58.8587444462" lon="7.63757500036">
		<tag k="ford" v="yes" />
		<tag k="name" v="Bergva" />
		<tag k="place" v="locality" />
		<tag k="ssr:stedsnr" v="23299" />
	</node>
	<node id="-313391" lat="58.7422944408" lon="7.84935555834">
		<tag k="ford" v="yes" />
		<tag k="name" v="Vaet" />
		<tag k="place" v="locality" />
		<tag k="ssr:stedsnr" v="23276" />
	</node>
	<node id="-312875" lat="58.7496055518" lon="7.84396389199">
		<tag k="man_made" v="quay" />
		<tag k="name" v="Brygga" />
		<tag k="place" v="locality" />
		<tag k="ssr:stedsnr" v="326233" />
	</node>
	<node id="-316454" lat="58.8361694469" lon="7.98519999473">
		<tag k="highway" v="path" />
		<tag k="name" v="Raukålkleivi" />
		<tag k="ssr:stedsnr" v="944880" />
	</node>
	<node id="-312869" lat="58.771300004" lon="7.84983888024">
		<tag k="fixme" v="consider highway=path" />
		<tag k="highway" v="track" />
		<tag k="name" v="Maurvegen" />
		<tag k="ssr:stedsnr" v="326190" />
	</node>
	<node id="-315427" lat="58.7609166636" lon="7.85957222041">
		<tag k="fixme" v="consider highway=path" />
		<tag k="highway" v="track" />
		<tag k="name" v="Moldkleiv" />
		<tag k="ssr:stedsnr" v="691271" />
	</node>
	<node id="-312866" lat="58.9894111098" lon="7.60500832598">
		<tag k="highway" v="path" />
		<tag k="name" v="Høyvegen" />
		<tag k="ssr:stedsnr" v="326164" />
	</node>
	<node id="-315935" lat="58.862136111" lon="7.87832223015">
		<tag k="highway" v="path" />
		<tag k="name" v="Kabrekkleiv" />
		<tag k="ssr:stedsnr" v="812469" />
	</node>
	<node id="-312859" lat="58.8055111122" lon="7.85759445176">
		<tag k="fixme" v="verify maritime location" />
		<tag k="mooring" v="yes" />
		<tag k="name" v="Gunhildsto" />
		<tag k="place" v="locality" />
		<tag k="ssr:stedsnr" v="326134" />
	</node>
	<node id="-315417" lat="58.7459027736" lon="7.90768611829">
		<tag k="highway" v="path" />
		<tag k="name" v="Klomra" />
		<tag k="ssr:stedsnr" v="691186" />
	</node>
	<node id="-315415" lat="58.8013361085" lon="7.85548889431">
		<tag k="highway" v="path" />
		<tag k="name" v="Røyneskleiv" />
		<tag k="ssr:stedsnr" v="691171" />
	</node>
	<node id="-313364" lat="58.9514777809" lon="7.5138749979">
		<tag k="highway" v="path" />
		<tag k="name" v="Trågekleiv" />
		<tag k="ssr:stedsnr" v="23130" />
	</node>
	<node id="-315410" lat="58.8502583307" lon="7.82542222457">
		<tag k="alt_name" v="Li" />
		<tag k="bridge" v="yes" />
		<tag k="layer" v="1" />
		<tag k="name" v="Librui" />
		<tag k="ssr:stedsnr" v="691147" />
	</node>
	<node id="-315405" lat="59.0082972211" lon="7.5334444432">
		<tag k="highway" v="path" />
		<tag k="name" v="Sollidkleiva" />
		<tag k="ssr:stedsnr" v="691129" />
	</node>
	<node id="-315401" lat="58.9733638855" lon="7.5891250049">
		<tag k="highway" v="path" />
		<tag k="name" v="Grokleiv" />
		<tag k="ssr:stedsnr" v="691111" />
	</node>
	<node id="-313352" lat="58.9463138858" lon="7.68744166805">
		<tag k="man_made" v="quay" />
		<tag k="name" v="Ose brygge" />
		<tag k="place" v="locality" />
		<tag k="ssr:stedsnr" v="23061" />
	</node>
	<node id="-313861" lat="58.7957916637" lon="7.76971110495">
		<tag k="man_made" v="quay" />
		<tag k="name" v="Bryggja" />
		<tag k="place" v="locality" />
		<tag k="ssr:stedsnr" v="144365" />
	</node>
	<node id="-313347" lat="58.9946777819" lon="7.53828333408">
		<tag k="name" v="Yverro" />
		<tag k="place" v="locality" />
		<tag k="ssr:stedsnr" v="23039" />
	</node>
</osm>
