<?xml version="1.0" encoding="UTF-8"?>
<osm generator="osmapis" version="0.6">
	<node id="-314365" lat="59.0282250029" lon="7.87322221853">
		<tag k="name" v="Støylsrjoet" />
		<tag k="place" v="locality" />
		<tag k="ssr:stedsnr" v="519749" />
	</node>
	<node id="-315896" lat="58.7410111135" lon="7.96543611135">
		<tag k="name" v="Grimsdalsskorvi" />
		<tag k="place" v="locality" />
		<tag k="ssr:stedsnr" v="933177" />
	</node>
	<node id="-313285" lat="58.6785194486" lon="7.90339722658">
		<tag k="name" v="Steivora" />
		<tag k="place" v="locality" />
		<tag k="ssr:stedsnr" v="94941" />
	</node>
	<node id="-314290" lat="58.8894166667" lon="7.69724722736">
		<tag k="name" v="Kjetan" />
		<tag k="place" v="locality" />
		<tag k="ssr:stedsnr" v="508290" />
	</node>
	<node id="-314797" lat="58.9611694443" lon="7.9649222171">
		<tag k="name" v="Kvileplassen" />
		<tag k="place" v="locality" />
		<tag k="ssr:stedsnr" v="629780" />
	</node>
	<node id="-314284" lat="58.8983361072" lon="7.75785833465">
		<tag k="name" v="Suggelætre" />
		<tag k="place" v="locality" />
		<tag k="ssr:stedsnr" v="508257" />
	</node>
	<node id="-314277" lat="58.6902055531" lon="7.83620555632">
		<tag k="name" v="Stoplestaden" />
		<tag k="place" v="locality" />
		<tag k="ssr:stedsnr" v="508209" />
	</node>
	<node id="-315299" lat="58.6727611101" lon="7.91416389718">
		<tag k="name" v="Bekkerhus" />
		<tag k="place" v="locality" />
		<tag k="ssr:stedsnr" v="762912" />
	</node>
	<node id="-315291" lat="58.9824333293" lon="7.72066111074">
		<tag k="name" v="Kjelde" />
		<tag k="place" v="locality" />
		<tag k="ssr:stedsnr" v="752361" />
	</node>
	<node id="-314272" lat="58.6998472197" lon="7.93256944928">
		<tag k="name" v="Hunebørhiet" />
		<tag k="place" v="locality" />
		<tag k="ssr:stedsnr" v="508196" />
	</node>
	<node id="-314269" lat="58.8304611083" lon="7.79581943737">
		<tag k="alt_name" v="Bygland" />
		<tag k="amenity" v="place_of_worship" />
		<tag k="denomination" v="lutheran" />
		<tag k="name" v="Bygland kyrkje" />
		<tag k="religion" v="christian" />
		<tag k="ssr:stedsnr" v="508164" />
	</node>
	<node id="-315292" lat="58.9861805565" lon="7.7259944525">
		<tag k="name" v="Storran" />
		<tag k="place" v="locality" />
		<tag k="ssr:stedsnr" v="752364" />
	</node>
	<node id="-313755" lat="58.7707055546" lon="7.93234722833">
		<tag k="name" v="Margitsli" />
		<tag k="place" v="locality" />
		<tag k="ssr:stedsnr" v="216934" />
	</node>
	<node id="-315290" lat="58.9844888857" lon="7.73987500229">
		<tag k="name" v="Sveigen" />
		<tag k="place" v="locality" />
		<tag k="ssr:stedsnr" v="752359" />
	</node>
	<node id="-313241" lat="58.9801166631" lon="7.7554277756">
		<tag k="name" v="Bringa" />
		<tag k="place" v="locality" />
		<tag k="ssr:stedsnr" v="85315" />
	</node>
	<node id="-314261" lat="58.8318749967" lon="7.79944444006">
		<tag k="name" v="Bygland tun" />
		<tag k="ssr:stedsnr" v="508105" />
		<tag k="tourism" v="attraction" />
	</node>
	<node id="-312899" lat="58.8113277766" lon="7.88978888606">
		<tag k="name" v="Tritjørndalen" />
		<tag k="place" v="locality" />
		<tag k="ssr:stedsnr" v="1810" />
	</node>
	<node id="-314767" lat="58.9504694451" lon="7.68769443814">
		<tag k="name" v="Ytre Låve" />
		<tag k="place" v="locality" />
		<tag k="ssr:stedsnr" v="629394" />
	</node>
	<node id="-312696" lat="58.7868611107" lon="7.77440833973">
		<tag k="name" v="Dukan" />
		<tag k="place" v="locality" />
		<tag k="ssr:stedsnr" v="387365" />
	</node>
	<node id="-312695" lat="58.7868861126" lon="7.77174721818">
		<tag k="name" v="Homolen" />
		<tag k="place" v="locality" />
		<tag k="ssr:stedsnr" v="387363" />
	</node>
	<node id="-314734" lat="58.7363666691" lon="7.85617222352">
		<tag k="name" v="Røkstre" />
		<tag k="place" v="locality" />
		<tag k="ssr:stedsnr" v="629218" />
	</node>
	<node id="-315243" lat="58.8524777739" lon="7.75350000811">
		<tag k="name" v="Deknegrovi" />
		<tag k="place" v="locality" />
		<tag k="ssr:stedsnr" v="751393" />
	</node>
	<node id="-313190" lat="58.915319449" lon="7.73690834015">
		<tag k="amenity" v="community_centre" />
		<tag k="name" v="Haugtun" />
		<tag k="ssr:stedsnr" v="84312" />
	</node>
	<node id="-315229" lat="59.0029472189" lon="7.76103333244">
		<tag k="name" v="Såti" />
		<tag k="place" v="locality" />
		<tag k="ssr:stedsnr" v="751328" />
	</node>
	<node id="-315719" lat="58.7474083353" lon="7.84576666376">
		<tag k="name" v="Oksebåsen" />
		<tag k="place" v="locality" />
		<tag k="ssr:stedsnr" v="873219" />
	</node>
	<node id="-314178" lat="58.8250333323" lon="7.98955555682">
		<tag k="name" v="Barbui" />
		<tag k="place" v="locality" />
		<tag k="ssr:stedsnr" v="459878" />
	</node>
	<node id="-313665" lat="58.8804749993" lon="7.74457778424">
		<tag k="name" v="Bjørnskjell" />
		<tag k="place" v="locality" />
		<tag k="ssr:stedsnr" v="205302" />
	</node>
	<node id="-313643" lat="58.9827500024" lon="7.59780000423">
		<tag k="name" v="Haugetoddan" />
		<tag k="place" v="locality" />
		<tag k="ssr:stedsnr" v="205168" />
	</node>
	<node id="-313641" lat="58.7922333295" lon="7.86902500568">
		<tag k="name" v="Bruledet" />
		<tag k="place" v="locality" />
		<tag k="ssr:stedsnr" v="205148" />
	</node>
	<node id="-313635" lat="59.0142416653" lon="7.55609444837">
		<tag k="name" v="Bronen" />
		<tag k="place" v="locality" />
		<tag k="ssr:stedsnr" v="205117" />
	</node>
	<node id="-315438" lat="59.0198416623" lon="7.51971667419">
		<tag k="name" v="Djupedalsglupen" />
		<tag k="place" v="locality" />
		<tag k="ssr:stedsnr" v="812138" />
	</node>
	<node id="-315689" lat="58.9765944411" lon="7.55710833852">
		<tag k="name" v="Homman" />
		<tag k="place" v="locality" />
		<tag k="ssr:stedsnr" v="873069" />
	</node>
	<node id="-314604" lat="58.7554916652" lon="7.9180111198">
		<tag k="name" v="Lauvli" />
		<tag k="place" v="locality" />
		<tag k="ssr:stedsnr" v="579954" />
	</node>
	<node id="-314088" lat="58.6984083317" lon="7.8319888821">
		<tag k="name" v="Natteflot" />
		<tag k="place" v="locality" />
		<tag k="ssr:stedsnr" v="448441" />
	</node>
	<node id="-313061" lat="58.6886944469" lon="7.85074166716">
		<tag k="name" v="Torvårlii" />
		<tag k="place" v="locality" />
		<tag k="ssr:stedsnr" v="34892" />
	</node>
	<node id="-312545" lat="58.6640444473" lon="7.8984666663">
		<tag k="name" v="Nygardsøygard" />
		<tag k="place" v="locality" />
		<tag k="ssr:stedsnr" v="337927" />
	</node>
	<node id="-312540" lat="58.8395777746" lon="7.95024999926">
		<tag k="name" v="Fubergdokk" />
		<tag k="place" v="locality" />
		<tag k="ssr:stedsnr" v="337878" />
	</node>
	<node id="-314586" lat="58.7924944409" lon="7.68655000292">
		<tag k="name" v="Hukebu" />
		<tag k="place" v="locality" />
		<tag k="ssr:stedsnr" v="573256" />
	</node>
	<node id="-314072" lat="58.803280557" lon="7.75649999571">
		<tag k="name" v="Revebåsen" />
		<tag k="place" v="locality" />
		<tag k="ssr:stedsnr" v="448357" />
	</node>
	<node id="-312524" lat="59.021575004" lon="7.84182222852">
		<tag k="name" v="Huvarberget" />
		<tag k="place" v="locality" />
		<tag k="ssr:stedsnr" v="337741" />
	</node>
	<node id="-312517" lat="59.0204333317" lon="7.65101666326">
		<tag k="name" v="Den nye bui" />
		<tag k="place" v="locality" />
		<tag k="ssr:stedsnr" v="337680" />
	</node>
	<node id="-313533" lat="58.9810583343" lon="7.60776389245">
		<tag k="alt_name" v="Austad Kyrkje" />
		<tag k="amenity" v="place_of_worship" />
		<tag k="denomination" v="lutheran" />
		<tag k="name" v="Austad" />
		<tag k="religion" v="christian" />
		<tag k="ssr:stedsnr" v="182291" />
	</node>
	<node id="-314551" lat="58.862786111" lon="7.88049166051">
		<tag k="name" v="Likkvilon" />
		<tag k="place" v="locality" />
		<tag k="ssr:stedsnr" v="569428" />
	</node>
	<node id="-314037" lat="58.7514611092" lon="7.98344166261">
		<tag k="name" v="Tilja" />
		<tag k="place" v="locality" />
		<tag k="ssr:stedsnr" v="448189" />
	</node>
	<node id="-313011" lat="58.9611222256" lon="7.65449445102">
		<tag k="name" v="Græne" />
		<tag k="place" v="locality" />
		<tag k="ssr:stedsnr" v="23547" />
	</node>
	<node id="-313522" lat="58.7879361123" lon="7.91580000331">
		<tag k="name" v="Lunnebu" />
		<tag k="place" v="locality" />
		<tag k="ssr:stedsnr" v="155952" />
	</node>
	<node id="-313519" lat="58.7715805514" lon="7.93334722488">
		<tag k="name" v="Deildine" />
		<tag k="place" v="locality" />
		<tag k="ssr:stedsnr" v="155943" />
	</node>
	<node id="-313518" lat="58.7645611085" lon="7.93922776932">
		<tag k="name" v="Vettervegen" />
		<tag k="place" v="locality" />
		<tag k="ssr:stedsnr" v="155935" />
	</node>
	<node id="-313512" lat="58.6884527757" lon="7.83464721727">
		<tag k="name" v="Sålsli" />
		<tag k="place" v="locality" />
		<tag k="ssr:stedsnr" v="155878" />
	</node>
	<node id="-312487" lat="58.8713472201" lon="7.83735000476">
		<tag k="name" v="Kjeddingi" />
		<tag k="place" v="locality" />
		<tag k="ssr:stedsnr" v="326487" />
	</node>
	<node id="-314533" lat="58.7816722191" lon="7.7588777841">
		<tag k="name" v="Strengen" />
		<tag k="place" v="locality" />
		<tag k="ssr:stedsnr" v="569333" />
	</node>
	<node id="-313508" lat="58.6560527774" lon="7.85331667101">
		<tag k="name" v="Groskaren" />
		<tag k="place" v="locality" />
		<tag k="ssr:stedsnr" v="155911" />
	</node>
	<node id="-314017" lat="58.8430999958" lon="7.80763056089">
		<tag k="name" v="Krossen" />
		<tag k="place" v="locality" />
		<tag k="ssr:stedsnr" v="448109" />
	</node>
	<node id="-312990" lat="58.9342166626" lon="7.76362222516">
		<tag k="name" v="Gloppa" />
		<tag k="place" v="locality" />
		<tag k="ssr:stedsnr" v="23446" />
	</node>
	<node id="-312472" lat="58.8523361102" lon="7.73757222904">
		<tag k="name" v="Klyvi" />
		<tag k="place" v="locality" />
		<tag k="ssr:stedsnr" v="326387" />
	</node>
	<node id="-312471" lat="58.796836111" lon="7.75076666163">
		<tag k="name" v="Gunnuvsbu" />
		<tag k="place" v="locality" />
		<tag k="ssr:stedsnr" v="326356" />
	</node>
	<node id="-313999" lat="59.0008722179" lon="7.59158611903">
		<tag k="name" v="Ørnekro" />
		<tag k="place" v="locality" />
		<tag k="ssr:stedsnr" v="448008" />
	</node>
	<node id="-315528" lat="58.9877638855" lon="7.82118610957">
		<tag k="name" v="Grøde" />
		<tag k="place" v="locality" />
		<tag k="ssr:stedsnr" v="812866" />
	</node>
	<node id="-316038" lat="58.9150722181" lon="7.91840556079">
		<tag k="name" v="Steinbu" />
		<tag k="place" v="locality" />
		<tag k="ssr:stedsnr" v="944961" />
	</node>
	<node id="-316031" lat="58.6773416648" lon="7.87369721419">
		<tag k="name" v="Flæra" />
		<tag k="place" v="locality" />
		<tag k="ssr:stedsnr" v="944905" />
	</node>
	<node id="-316029" lat="58.6858222237" lon="7.86341667066">
		<tag k="name" v="Granen" />
		<tag k="place" v="locality" />
		<tag k="ssr:stedsnr" v="944899" />
	</node>
	<node id="-315002" lat="58.8715000045" lon="7.74207222259">
		<tag k="name" v="Bjørnehiet" />
		<tag k="place" v="locality" />
		<tag k="ssr:stedsnr" v="691301" />
	</node>
	<node id="-313464" lat="58.9365166683" lon="7.96746667036">
		<tag k="name" v="Krossan" />
		<tag k="place" v="locality" />
		<tag k="ssr:stedsnr" v="144770" />
	</node>
	<node id="-312947" lat="58.9882333339" lon="7.60483611016">
		<tag k="name" v="Hatten" />
		<tag k="place" v="locality" />
		<tag k="ssr:stedsnr" v="23197" />
	</node>
	<node id="-312433" lat="58.9432944445" lon="7.78098888615">
		<tag k="name" v="Rotvelton" />
		<tag k="place" v="locality" />
		<tag k="ssr:stedsnr" v="326154" />
	</node>
	<node id="-312424" lat="58.8317805539" lon="7.79657777125">
		<tag k="name" v="Galgebakk" />
		<tag k="place" v="locality" />
		<tag k="ssr:stedsnr" v="326090" />
	</node>
	<node id="-314475" lat="58.9865972193" lon="7.54282777675">
		<tag k="name" v="Skrøynen" />
		<tag k="place" v="locality" />
		<tag k="ssr:stedsnr" v="568173" />
	</node>
	<node id="-316008" lat="59.0852972252" lon="7.83146944063">
		<tag k="name" v="Gosen" />
		<tag k="place" v="locality" />
		<tag k="ssr:stedsnr" v="944766" />
	</node>
	<node id="-313442" lat="58.7550444451" lon="7.81980832875">
		<tag k="name" v="Gravene" />
		<tag k="place" v="locality" />
		<tag k="ssr:stedsnr" v="144446" />
	</node>
	<node id="-312417" lat="58.9620083346" lon="7.53916667004">
		<tag k="name" v="Noklekleiv" />
		<tag k="place" v="locality" />
		<tag k="ssr:stedsnr" v="326061" />
	</node>
	<node id="-312414" lat="58.7052111143" lon="7.86536110692">
		<tag k="name" v="Fjorångsbytet" />
		<tag k="place" v="locality" />
		<tag k="ssr:stedsnr" v="326050" />
	</node>
	<node id="-313435" lat="58.9927277808" lon="7.61153888422">
		<tag k="name" v="Tinnkvåv" />
		<tag k="place" v="locality" />
		<tag k="ssr:stedsnr" v="144397" />
	</node>
	<node id="-315480" lat="58.9912833303" lon="7.64510833819">
		<tag k="name" v="Froste" />
		<tag k="place" v="locality" />
		<tag k="ssr:stedsnr" v="812375" />
	</node>
	<node id="-314966" lat="58.7770250007" lon="7.8033194434">
		<tag k="name" v="Smia" />
		<tag k="place" v="locality" />
		<tag k="ssr:stedsnr" v="691100" />
	</node>
	<node id="-313923" lat="58.9518166666" lon="7.68413888695">
		<tag k="name" v="Låve" />
		<tag k="place" v="locality" />
		<tag k="ssr:stedsnr" v="266469" />
	</node>
	<node id="-314944" lat="58.8630416665" lon="7.81825833635">
		<tag k="name" v="Øyestad" />
		<tag k="place" v="locality" />
		<tag k="ssr:stedsnr" v="691028" />
	</node>
	<node id="-315453" lat="58.7498027743" lon="7.89673888665">
		<tag k="name" v="Skinen" />
		<tag k="place" v="locality" />
		<tag k="ssr:stedsnr" v="812244" />
	</node>
	<node id="-312886" lat="58.7070805572" lon="7.8238999966">
		<tag k="amenity" v="place_of_worship" />
		<tag k="denomination" v="lutheran" />
		<tag k="name" v="Årdal" />
		<tag k="religion" v="christian" />
		<tag k="ssr:stedsnr" v="1593" />
	</node>
	<node id="-313397" lat="58.7977249964" lon="7.83181110459">
		<tag k="name" v="Bruflot" />
		<tag k="place" v="locality" />
		<tag k="ssr:stedsnr" v="144149" />
	</node>
	<node id="-313395" lat="58.791163888" lon="7.88065278441">
		<tag k="name" v="Gluggvarden" />
		<tag k="place" v="locality" />
		<tag k="ssr:stedsnr" v="144143" />
	</node>
	<node id="-313902" lat="58.8531333312" lon="7.73982777335">
		<tag k="name" v="Klyvi" />
		<tag k="place" v="locality" />
		<tag k="ssr:stedsnr" v="266345" />
	</node>
	<node id="-313899" lat="58.784688885" lon="7.73719723005">
		<tag k="name" v="Flyet" />
		<tag k="place" v="locality" />
		<tag k="ssr:stedsnr" v="266337" />
	</node>
	<node id="-313898" lat="58.781291671" lon="7.76006666229">
		<tag k="name" v="Austmannsvelta" />
		<tag k="place" v="locality" />
		<tag k="ssr:stedsnr" v="266329" />
	</node>
	<node id="-314914" lat="58.8269861139" lon="7.99687222355">
		<tag k="alt_name" v="Steitjønn" />
		<tag k="name" v="Steitjørn" />
		<tag k="place" v="locality" />
		<tag k="ssr:stedsnr" v="668784" />
	</node>
	<node id="-312923" lat="58.9745083339" lon="7.55794443882">
		<tag k="name" v="Storbu" />
		<tag k="place" v="locality" />
		<tag k="ssr:stedsnr" v="23078" />
	</node>
	<node id="-314907" lat="58.9177722185" lon="7.7374388887">
		<tag k="alt_name" v="Sandnes kyrkje" />
		<tag k="amenity" v="place_of_worship" />
		<tag k="denomination" v="lutheran" />
		<tag k="name" v="Sandnes" />
		<tag k="religion" v="christian" />
		<tag k="ssr:stedsnr" v="668703" />
	</node>
	<node id="-314392" lat="58.7089916671" lon="7.83316388781">
		<tag k="name" v="Landeskogen Peace Center" />
		<tag k="ssr:stedsnr" v="545562" />
		<tag k="tourism" v="museum" />
	</node>
	<node id="-314542" lat="58.6930416648" lon="7.74308055803">
		<tag k="name" v="Stedjan" />
		<tag k="place" v="locality" />
		<tag k="ssr:stedsnr" v="569383" />
	</node>
	<node id="-313864" lat="58.9529361124" lon="7.52183610398">
		<tag k="name" v="Hestegrept" />
		<tag k="place" v="locality" />
		<tag k="ssr:stedsnr" v="266125" />
	</node>
</osm>
