<?xml version="1.0" encoding="UTF-8"?>
<<<<<<< HEAD
<osm version="0.6" generator="osmapis">
	<node lat="59.63834721798969" lon="5.582327770107983" id="-2417">
		<tag k="bridge" v="yes" />
		<tag k="layer" v="1" />
		<tag k="name" v="Fosselv" />
		<tag k="ssr:stedsnr" v="229948" />
	</node>
	<node lat="59.59081388883226" lon="5.5891805628166" id="-2418">
		<tag k="bridge" v="yes" />
		<tag k="layer" v="1" />
		<tag k="name" v="Vike" />
		<tag k="ssr:stedsnr" v="229953" />
	</node>
	<node lat="59.49898888899915" lon="6.068008342044481" id="-2599">
		<tag k="highway" v="path" />
		<tag k="name" v="Nedre Buvegen" />
		<tag k="ssr:stedsnr" v="117516" />
	</node>
	<node lat="59.46539444369889" lon="5.535430560513263" id="-2723">
		<tag k="fixme" v="verify maritime location" />
		<tag k="mooring" v="yes" />
		<tag k="name" v="Møsestø" />
		<tag k="place" v="locality" />
		<tag k="ssr:stedsnr" v="242087" />
	</node>
	<node lat="59.497108332493895" lon="5.885824992896321" id="-2763">
		<tag k="bridge" v="yes" />
		<tag k="layer" v="1" />
		<tag k="name" v="Biskobakken" />
		<tag k="ssr:stedsnr" v="290481" />
	</node>
	<node lat="59.49171666665946" lon="5.724941670517777" id="-2764">
=======
<osm generator="osmapis" version="0.6">
	<node id="-44132" lat="59.5395555522" lon="5.97501111586">
		<tag k="bridge" v="yes" />
		<tag k="layer" v="1" />
		<tag k="name" v="Førland" />
		<tag k="ssr:stedsnr" v="836509" />
	</node>
	<node id="-43093" lat="59.6040999957" lon="5.82159444559">
		<tag k="bridge" v="yes" />
		<tag k="layer" v="1" />
		<tag k="name" v="Espeland" />
		<tag k="ssr:stedsnr" v="47950" />
	</node>
	<node id="-43644" lat="59.5586666628" lon="5.56764999385">
>>>>>>> e1d4bc35ff8a6074a6f2e91616a996b547c36f15
		<tag k="bridge" v="yes" />
		<tag k="layer" v="1" />
		<tag k="name" v="Holten Gård" />
		<tag k="ssr:stedsnr" v="411950" />
	</node>
<<<<<<< HEAD
	<node lat="59.500899998828984" lon="5.579047228944664" id="-2816">
		<tag k="bridge" v="yes" />
		<tag k="layer" v="1" />
		<tag k="name" v="Isvik" />
		<tag k="ssr:stedsnr" v="472523" />
	</node>
	<node lat="59.51659722425113" lon="5.7819888830462505" id="-2817">
		<tag k="bridge" v="yes" />
		<tag k="layer" v="1" />
		<tag k="name" v="Dølja" />
		<tag k="ssr:stedsnr" v="472528" />
	</node>
	<node lat="59.543875003644715" lon="5.567977784274101" id="-2819">
		<tag k="bridge" v="yes" />
		<tag k="layer" v="1" />
		<tag k="name" v="Svendsbø" />
		<tag k="ssr:stedsnr" v="472952" />
	</node>
	<node lat="59.45451268634719" lon="5.5169446186754785" id="-2966">
		<tag k="man_made" v="cairn" />
		<tag k="name" v="Erlandsvarden" />
		<tag k="place" v="locality" />
		<tag k="ssr:stedsnr" v="424104" />
	</node>
	<node lat="59.5071805593278" lon="6.008647220286327" id="-3017">
		<tag k="bridge" v="yes" />
		<tag k="layer" v="1" />
		<tag k="name" v="Byrkjetveit" />
		<tag k="ssr:stedsnr" v="472517" />
	</node>
	<node lat="59.515230551542714" lon="5.92948888160558" id="-3146">
		<tag k="bridge" v="yes" />
		<tag k="layer" v="1" />
		<tag k="name" v="Ørnes" />
		<tag k="ssr:stedsnr" v="593953" />
	</node>
	<node lat="59.54592500306648" lon="5.704466659716665" id="-3262">
		<tag k="bridge" v="yes" />
		<tag k="layer" v="1" />
		<tag k="name" v="Velde" />
		<tag k="ssr:stedsnr" v="897952" />
	</node>
	<node lat="59.48514444000604" lon="5.9819944364926565" id="-3263">
		<tag k="bridge" v="yes" />
		<tag k="layer" v="1" />
		<tag k="name" v="Ølmedal" />
		<tag k="ssr:stedsnr" v="897953" />
	</node>
	<node lat="59.4947861094908" lon="5.638166675617819" id="-3339">
		<tag k="bridge" v="yes" />
		<tag k="layer" v="1" />
		<tag k="name" v="Sagi" />
		<tag k="ssr:stedsnr" v="775964" />
	</node>
	<node lat="59.51213333371839" lon="5.707036110486793" id="-3340">
		<tag k="bridge" v="yes" />
		<tag k="layer" v="1" />
		<tag k="name" v="Skrunes" />
		<tag k="ssr:stedsnr" v="775965" />
	</node>
	<node lat="59.5395555521569" lon="5.975011115860703" id="-3466">
		<tag k="bridge" v="yes" />
		<tag k="layer" v="1" />
		<tag k="name" v="Førland" />
		<tag k="ssr:stedsnr" v="836509" />
	</node>
	<node lat="59.49285833495945" lon="6.126677782052024" id="-3532">
		<tag k="bridge" v="yes" />
		<tag k="layer" v="1" />
		<tag k="name" v="Indre Våga" />
		<tag k="ssr:stedsnr" v="897511" />
	</node>
	<node lat="59.47887499929733" lon="6.014244438773867" id="-3533">
		<tag k="bridge" v="yes" />
		<tag k="layer" v="1" />
		<tag k="name" v="Kjedlane" />
		<tag k="ssr:stedsnr" v="897515" />
	</node>
	<node lat="59.49715556016677" lon="6.070763893503238" id="-3588">
		<tag k="highway" v="path" />
		<tag k="name" v="Øvre Buvegen" />
		<tag k="ssr:stedsnr" v="966536" />
	</node>
	<node lat="59.6816431934665" lon="5.591123702132211" id="-3607">
		<tag k="fixme" v="verify maritime location" />
		<tag k="mooring" v="yes" />
		<tag k="name" v="Veastøa" />
		<tag k="place" v="locality" />
		<tag k="ssr:stedsnr" v="972596" />
	</node>
	<node lat="59.68462299808628" lon="5.603758939067473" id="-3614">
		<tag k="fixme" v="verify maritime location" />
		<tag k="mooring" v="yes" />
		<tag k="name" v="Hovlandsstøa" />
		<tag k="place" v="locality" />
		<tag k="ssr:stedsnr" v="972601" />
	</node>
	<node lat="59.628890134531694" lon="5.6921960564529925" id="-3682">
		<tag k="highway" v="path" />
		<tag k="name" v="Skrestien" />
		<tag k="ssr:stedsnr" v="974693" />
	</node>
	<node lat="59.62716525564628" lon="5.684624114979439" id="-3706">
		<tag k="highway" v="path" />
		<tag k="name" v="Rossasmog" />
		<tag k="ssr:stedsnr" v="974555" />
	</node>
	<node lat="59.61530996546195" lon="5.693677737825504" id="-3779">
		<tag k="ford" v="yes" />
		<tag k="name" v="Ytrevad" />
		<tag k="place" v="locality" />
		<tag k="ssr:stedsnr" v="977159" />
	</node>
	<node lat="59.6070026795853" lon="5.553953228867845" id="-3797">
		<tag k="landuse" v="harbour" />
		<tag k="name" v="Sundhamn" />
		<tag k="seamark:type" v="harbour" />
		<tag k="ssr:stedsnr" v="977209" />
	</node>
	<node lat="59.53711139271111" lon="5.590657398709012" id="-3831">
		<tag k="highway" v="path" />
		<tag k="name" v="Kyrkjevegen" />
		<tag k="ssr:stedsnr" v="981059" />
	</node>
	<node lat="59.500669440554276" lon="5.577886117019805" id="-3886">
=======
	<node id="-41851" lat="59.5006694406" lon="5.57788611702">
		<tag k="bridge" v="yes" />
		<tag k="layer" v="1" />
		<tag k="name" v="Isvik" />
		<tag k="ssr:stedsnr" v="47548" />
	</node>
	<node id="-41849" lat="59.638347218" lon="5.58232777011">
		<tag k="bridge" v="yes" />
		<tag k="layer" v="1" />
		<tag k="name" v="Fosselv" />
		<tag k="ssr:stedsnr" v="229948" />
	</node>
	<node id="-41848" lat="59.5908138888" lon="5.58918056282">
		<tag k="bridge" v="yes" />
		<tag k="layer" v="1" />
		<tag k="name" v="Vike" />
		<tag k="ssr:stedsnr" v="229953" />
	</node>
	<node id="-43092" lat="59.5438611082" lon="5.87966111798">
		<tag k="bridge" v="yes" />
		<tag k="layer" v="1" />
		<tag k="name" v="Gjerde" />
		<tag k="ssr:stedsnr" v="47556" />
	</node>
	<node id="-42100" lat="59.5047166632" lon="5.58853612015">
		<tag k="bridge" v="yes" />
		<tag k="layer" v="1" />
		<tag k="name" v="Skjoldavik" />
		<tag k="ssr:stedsnr" v="290965" />
	</node>
	<node id="-42099" lat="59.6067194446" lon="5.85607222391">
		<tag k="bridge" v="yes" />
		<tag k="layer" v="1" />
		<tag k="name" v="Ølen" />
		<tag k="ssr:stedsnr" v="290959" />
	</node>
	<node id="-44402" lat="59.6409376783" lon="5.61403156949">
		<tag k="ford" v="yes" />
		<tag k="name" v="Hestavadet" />
		<tag k="place" v="locality" />
		<tag k="ssr:stedsnr" v="973294" />
	</node>
	<node id="-44273" lat="59.4971555602" lon="6.0707638935">
		<tag k="highway" v="path" />
		<tag k="name" v="Øvre Buvegen" />
		<tag k="ssr:stedsnr" v="966536" />
	</node>
	<node id="-42730" lat="59.5107638857" lon="6.03754722331">
		<tag k="highway" v="path" />
		<tag k="name" v="Brekkå" />
		<tag k="ssr:stedsnr" v="725555" />
	</node>
	<node id="-44519" lat="59.6294654921" lon="5.59050928523">
		<tag k="highway" v="path" />
		<tag k="name" v="Stien" />
		<tag k="ssr:stedsnr" v="974197" />
	</node>
	<node id="-42728" lat="59.5459250031" lon="5.70446665972">
		<tag k="bridge" v="yes" />
		<tag k="layer" v="1" />
		<tag k="name" v="Velde" />
		<tag k="ssr:stedsnr" v="897952" />
	</node>
	<node id="-44135" lat="59.4989083331" lon="5.90131110593">
		<tag k="bridge" v="yes" />
		<tag k="layer" v="1" />
		<tag k="name" v="Vikedal" />
		<tag k="ssr:stedsnr" v="836971" />
	</node>
	<node id="-44134" lat="59.4796333316" lon="5.66993889394">
		<tag k="bridge" v="yes" />
		<tag k="layer" v="1" />
		<tag k="name" v="Tørresdal" />
		<tag k="ssr:stedsnr" v="836969" />
	</node>
	<node id="-44261" lat="59.4768777819" lon="5.73874443784">
		<tag k="bridge" v="yes" />
		<tag k="layer" v="1" />
		<tag k="name" v="Åmselva" />
		<tag k="ssr:stedsnr" v="957969" />
	</node>
	<node id="-44260" lat="59.5194361069" lon="5.63202221644">
		<tag k="bridge" v="yes" />
		<tag k="layer" v="1" />
		<tag k="name" v="Tveit" />
		<tag k="ssr:stedsnr" v="957967" />
	</node>
	<node id="-44259" lat="59.5417777774" lon="5.87022778371">
		<tag k="bridge" v="yes" />
		<tag k="layer" v="1" />
		<tag k="name" v="Sandeid" />
		<tag k="ssr:stedsnr" v="957964" />
	</node>
	<node id="-44258" lat="59.5978388925" lon="5.7391138871">
		<tag k="bridge" v="yes" />
		<tag k="layer" v="1" />
		<tag k="name" v="Ølensvåg" />
		<tag k="ssr:stedsnr" v="957959" />
	</node>
	<node id="-44257" lat="59.4860472255" lon="5.93608333153">
>>>>>>> e1d4bc35ff8a6074a6f2e91616a996b547c36f15
		<tag k="bridge" v="yes" />
		<tag k="layer" v="1" />
		<tag k="name" v="Gjerde" />
		<tag k="ssr:stedsnr" v="957541" />
	</node>
<<<<<<< HEAD
	<node lat="59.5064805573689" lon="5.6321250040856965" id="-3887">
		<tag k="bridge" v="yes" />
		<tag k="layer" v="1" />
		<tag k="name" v="Frøvik" />
		<tag k="ssr:stedsnr" v="47552" />
	</node>
	<node lat="59.54386110815002" lon="5.879661117979312" id="-3888">
		<tag k="bridge" v="yes" />
		<tag k="layer" v="1" />
		<tag k="name" v="Gjerde" />
		<tag k="ssr:stedsnr" v="47556" />
	</node>
	<node lat="59.60409999571229" lon="5.821594445585039" id="-3889">
		<tag k="bridge" v="yes" />
		<tag k="layer" v="1" />
		<tag k="name" v="Espeland" />
		<tag k="ssr:stedsnr" v="47950" />
	</node>
	<node lat="59.568244448286194" lon="6.060358333649091" id="-3979">
		<tag k="bridge" v="yes" />
		<tag k="layer" v="1" />
		<tag k="name" v="Elvi" />
		<tag k="ssr:stedsnr" v="108573" />
	</node>
	<node lat="59.48357777574081" lon="6.068216661565146" id="-3980">
		<tag k="bridge" v="yes" />
		<tag k="layer" v="1" />
		<tag k="name" v="Askland" />
		<tag k="ssr:stedsnr" v="108561" />
	</node>
	<node lat="59.604133333123464" lon="5.839216659911281" id="-3981">
		<tag k="bridge" v="yes" />
		<tag k="layer" v="1" />
		<tag k="name" v="Gjerdevik" />
		<tag k="ssr:stedsnr" v="108958" />
	</node>
	<node lat="59.490516667664934" lon="6.174877771749766" id="-3982">
		<tag k="bridge" v="yes" />
		<tag k="layer" v="1" />
		<tag k="name" v="Skjøljavass" />
		<tag k="ssr:stedsnr" v="108963" />
	</node>
	<node lat="59.587899996787414" lon="5.582549995963013" id="-4168">
		<tag k="bridge" v="yes" />
		<tag k="layer" v="1" />
		<tag k="name" v="Dommersnes" />
		<tag k="ssr:stedsnr" v="290951" />
	</node>
	<node lat="59.61096666899105" lon="5.87120555987149" id="-4169">
		<tag k="bridge" v="yes" />
		<tag k="layer" v="1" />
		<tag k="name" v="Juvelv" />
		<tag k="ssr:stedsnr" v="290956" />
	</node>
	<node lat="59.63408611321586" lon="5.779983330187672" id="-4170">
=======
	<node id="-42719" lat="59.5442555553" lon="5.84906666597">
		<tag k="bridge" v="yes" />
		<tag k="layer" v="1" />
		<tag k="name" v="Vestbø" />
		<tag k="ssr:stedsnr" v="715960" />
	</node>
	<node id="-42718" lat="59.5268222202" lon="5.97276666056">
		<tag k="bridge" v="yes" />
		<tag k="layer" v="1" />
		<tag k="name" v="Nes" />
		<tag k="ssr:stedsnr" v="715956" />
	</node>
	<node id="-44133" lat="59.5182638905" lon="5.6303222225">
		<tag k="bridge" v="yes" />
		<tag k="layer" v="1" />
		<tag k="name" v="Sørhus" />
		<tag k="ssr:stedsnr" v="836967" />
	</node>
	<node id="-42327" lat="59.4545126863" lon="5.51694461868">
		<tag k="man_made" v="cairn" />
		<tag k="name" v="Erlandsvarden" />
		<tag k="place" v="locality" />
		<tag k="ssr:stedsnr" v="424104" />
	</node>
	<node id="-43734" lat="59.4824027754" lon="5.53686666553">
		<tag k="bridge" v="yes" />
		<tag k="layer" v="1" />
		<tag k="name" v="Liaheia" />
		<tag k="ssr:stedsnr" v="532541" />
	</node>
	<node id="-43989" lat="59.5121333337" lon="5.70703611049">
		<tag k="bridge" v="yes" />
		<tag k="layer" v="1" />
		<tag k="name" v="Skrunes" />
		<tag k="ssr:stedsnr" v="775965" />
	</node>
	<node id="-43988" lat="59.4947861095" lon="5.63816667562">
		<tag k="bridge" v="yes" />
		<tag k="layer" v="1" />
		<tag k="name" v="Sagi" />
		<tag k="ssr:stedsnr" v="775964" />
	</node>
	<node id="-43987" lat="59.4803361071" lon="6.09330277227">
		<tag k="bridge" v="yes" />
		<tag k="layer" v="1" />
		<tag k="name" v="Frøvika" />
		<tag k="ssr:stedsnr" v="775525" />
	</node>
	<node id="-44753" lat="59.5815129488" lon="5.73851036655">
		<tag k="highway" v="path" />
		<tag k="name" v="Geitastigen" />
		<tag k="ssr:stedsnr" v="977253" />
	</node>
	<node id="-42979" lat="59.6846229981" lon="5.60375893907">
		<tag k="fixme" v="verify maritime location" />
		<tag k="mooring" v="yes" />
		<tag k="name" v="Hovlandsstøa" />
		<tag k="place" v="locality" />
		<tag k="ssr:stedsnr" v="972601" />
	</node>
	<node id="-43212" lat="59.4905166677" lon="6.17487777175">
>>>>>>> e1d4bc35ff8a6074a6f2e91616a996b547c36f15
		<tag k="bridge" v="yes" />
		<tag k="fixme" v="multiple name tags, choose one and add the other to alt_name" />
		<tag k="layer" v="1" />
<<<<<<< HEAD
		<tag k="name" v="Vaka;Vake" />
		<tag k="ssr:stedsnr" v="290958" />
	</node>
	<node lat="59.60671944456561" lon="5.8560722239065734" id="-4171">
		<tag k="bridge" v="yes" />
		<tag k="layer" v="1" />
		<tag k="name" v="Ølen" />
		<tag k="ssr:stedsnr" v="290959" />
	</node>
	<node lat="59.504716663245695" lon="5.58853612015199" id="-4172">
		<tag k="bridge" v="yes" />
		<tag k="layer" v="1" />
		<tag k="name" v="Skjoldavik" />
		<tag k="ssr:stedsnr" v="290965" />
	</node>
	<node lat="59.48887778091261" lon="5.898699991232895" id="-4269">
		<tag k="fixme" v="verify maritime location" />
		<tag k="mooring" v="yes" />
		<tag k="name" v="Støa" />
		<tag k="place" v="locality" />
		<tag k="ssr:stedsnr" v="344556" />
	</node>
	<node lat="59.48440000209717" lon="6.107105555776531" id="-4277">
		<tag k="bridge" v="yes" />
		<tag k="layer" v="1" />
		<tag k="name" v="Krokedal" />
		<tag k="ssr:stedsnr" v="350518" />
	</node>
	<node lat="59.558666662771586" lon="5.567649993854913" id="-4380">
		<tag k="bridge" v="yes" />
		<tag k="layer" v="1" />
		<tag k="name" v="Holten Gård" />
		<tag k="ssr:stedsnr" v="411950" />
	</node>
	<node lat="59.58612499736346" lon="5.7948500054479215" id="-4406">
		<tag k="highway" v="path" />
		<tag k="name" v="Ormakleiv" />
		<tag k="ssr:stedsnr" v="422979" />
	</node>
	<node lat="59.48240277541161" lon="5.536866665531796" id="-4474">
		<tag k="bridge" v="yes" />
		<tag k="layer" v="1" />
		<tag k="name" v="Liaheia" />
		<tag k="ssr:stedsnr" v="532541" />
	</node>
	<node lat="59.54192777493849" lon="5.867230560826442" id="-4475">
		<tag k="man_made" v="quay" />
		<tag k="name" v="Sandeid kai" />
		<tag k="place" v="locality" />
		<tag k="ssr:stedsnr" v="532963" />
	</node>
	<node lat="59.505872220032195" lon="6.005319444946318" id="-4649">
		<tag k="bridge" v="yes" />
		<tag k="layer" v="1" />
		<tag k="name" v="Haugland" />
		<tag k="ssr:stedsnr" v="654557" />
	</node>
	<node lat="59.59339999953483" lon="5.590716664993704" id="-4650">
		<tag k="bridge" v="yes" />
		<tag k="layer" v="1" />
		<tag k="name" v="Bjordelv" />
		<tag k="ssr:stedsnr" v="654962" />
	</node>
	<node lat="59.572483332620266" lon="5.873186110543836" id="-4723">
		<tag k="bridge" v="yes" />
		<tag k="layer" v="1" />
		<tag k="name" v="Helgeland" />
		<tag k="ssr:stedsnr" v="715553" />
	</node>
	<node lat="59.578391669825066" lon="5.81112499385477" id="-4724">
		<tag k="bridge" v="yes" />
		<tag k="layer" v="1" />
		<tag k="name" v="Myrabø" />
		<tag k="ssr:stedsnr" v="715946" />
	</node>
	<node lat="59.52682222024915" lon="5.97276666055591" id="-4725">
=======
		<tag k="name" v="Skjøljavass" />
		<tag k="ssr:stedsnr" v="108963" />
	</node>
	<node id="-43211" lat="59.6041333331" lon="5.83921665991">
		<tag k="bridge" v="yes" />
		<tag k="layer" v="1" />
		<tag k="name" v="Gjerdevik" />
		<tag k="ssr:stedsnr" v="108958" />
	</node>
	<node id="-43850" lat="59.5152305515" lon="5.92948888161">
		<tag k="bridge" v="yes" />
		<tag k="layer" v="1" />
		<tag k="name" v="Ørnes" />
		<tag k="ssr:stedsnr" v="593953" />
	</node>
	<node id="-43209" lat="59.4835777757" lon="6.06821666157">
		<tag k="bridge" v="yes" />
		<tag k="layer" v="1" />
		<tag k="name" v="Askland" />
		<tag k="ssr:stedsnr" v="108561" />
	</node>
	<node id="-41927" lat="59.4653944437" lon="5.53543056051">
		<tag k="fixme" v="verify maritime location" />
		<tag k="mooring" v="yes" />
		<tag k="name" v="Møsestø" />
		<tag k="place" v="locality" />
		<tag k="ssr:stedsnr" v="242087" />
	</node>
	<node id="-42193" lat="59.4888777809" lon="5.89869999123">
		<tag k="fixme" v="verify maritime location" />
		<tag k="mooring" v="yes" />
		<tag k="name" v="Støa" />
		<tag k="place" v="locality" />
		<tag k="ssr:stedsnr" v="344556" />
	</node>
	<node id="-42435" lat="59.5071805593" lon="6.00864722029">
		<tag k="bridge" v="yes" />
		<tag k="layer" v="1" />
		<tag k="name" v="Byrkjetveit" />
		<tag k="ssr:stedsnr" v="472517" />
	</node>
	<node id="-44482" lat="59.6518301419" lon="5.71899187015">
		<tag k="highway" v="path" />
		<tag k="name" v="Stigen" />
		<tag k="ssr:stedsnr" v="973770" />
	</node>
	<node id="-42048" lat="59.5878999968" lon="5.58254999596">
		<tag k="bridge" v="yes" />
		<tag k="layer" v="1" />
		<tag k="name" v="Dommersnes" />
		<tag k="ssr:stedsnr" v="290951" />
	</node>
	<node id="-42047" lat="59.4917166667" lon="5.72494167052">
		<tag k="bridge" v="yes" />
		<tag k="layer" v="1" />
		<tag k="name" v="Kårhus" />
		<tag k="ssr:stedsnr" v="290489" />
	</node>
	<node id="-42046" lat="59.4971083325" lon="5.8858249929">
		<tag k="bridge" v="yes" />
		<tag k="layer" v="1" />
		<tag k="name" v="Biskobakken" />
		<tag k="ssr:stedsnr" v="290481" />
	</node>
	<node id="-43965" lat="59.5933999995" lon="5.59071666499">
		<tag k="bridge" v="yes" />
		<tag k="layer" v="1" />
		<tag k="name" v="Bjordelv" />
		<tag k="ssr:stedsnr" v="654962" />
	</node>
	<node id="-43964" lat="59.50587222" lon="6.00531944495">
		<tag k="bridge" v="yes" />
		<tag k="layer" v="1" />
		<tag k="name" v="Haugland" />
		<tag k="ssr:stedsnr" v="654557" />
	</node>
	<node id="-43210" lat="59.5682444483" lon="6.06035833365">
>>>>>>> e1d4bc35ff8a6074a6f2e91616a996b547c36f15
		<tag k="bridge" v="yes" />
		<tag k="layer" v="1" />
		<tag k="name" v="Elvi" />
		<tag k="ssr:stedsnr" v="108573" />
	</node>
<<<<<<< HEAD
	<node lat="59.54425555533144" lon="5.849066665966518" id="-4726">
		<tag k="bridge" v="yes" />
		<tag k="layer" v="1" />
		<tag k="name" v="Vestbø" />
		<tag k="ssr:stedsnr" v="715960" />
	</node>
	<node lat="59.51076388571591" lon="6.037547223311566" id="-4751">
		<tag k="highway" v="path" />
		<tag k="name" v="Brekkå" />
		<tag k="ssr:stedsnr" v="725555" />
	</node>
	<node lat="59.480336107091844" lon="6.09330277227389" id="-4831">
=======
	<node id="-43091" lat="59.5064805574" lon="5.63212500409">
		<tag k="bridge" v="yes" />
		<tag k="layer" v="1" />
		<tag k="name" v="Frøvik" />
		<tag k="ssr:stedsnr" v="47552" />
	</node>
	<node id="-42135" lat="59.5165972243" lon="5.78198888305">
>>>>>>> e1d4bc35ff8a6074a6f2e91616a996b547c36f15
		<tag k="bridge" v="yes" />
		<tag k="layer" v="1" />
		<tag k="name" v="Frøvika" />
		<tag k="ssr:stedsnr" v="775525" />
	</node>
<<<<<<< HEAD
	<node lat="59.60963055173967" lon="5.822355550172543" id="-4934">
		<tag k="bridge" v="yes" />
		<tag k="layer" v="1" />
		<tag k="name" v="Osen" />
		<tag k="ssr:stedsnr" v="836961" />
	</node>
	<node lat="59.518263890489465" lon="5.6303222225018175" id="-4935">
		<tag k="bridge" v="yes" />
		<tag k="layer" v="1" />
		<tag k="name" v="Sørhus" />
		<tag k="ssr:stedsnr" v="836967" />
	</node>
	<node lat="59.47963333157273" lon="5.669938893936216" id="-4936">
		<tag k="bridge" v="yes" />
		<tag k="layer" v="1" />
		<tag k="name" v="Tørresdal" />
		<tag k="ssr:stedsnr" v="836969" />
	</node>
	<node lat="59.49890833308923" lon="5.901311105925005" id="-4937">
		<tag k="bridge" v="yes" />
		<tag k="layer" v="1" />
		<tag k="name" v="Vikedal" />
		<tag k="ssr:stedsnr" v="836971" />
	</node>
	<node lat="59.48604722554389" lon="5.936083331526507" id="-5049">
		<tag k="bridge" v="yes" />
		<tag k="layer" v="1" />
		<tag k="name" v="Gjerde" />
		<tag k="ssr:stedsnr" v="957541" />
	</node>
	<node lat="59.5978388925329" lon="5.739113887102358" id="-5050">
		<tag k="bridge" v="yes" />
		<tag k="layer" v="1" />
		<tag k="name" v="Ølensvåg" />
		<tag k="ssr:stedsnr" v="957959" />
	</node>
	<node lat="59.5417777773955" lon="5.870227783711269" id="-5051">
=======
	<node id="-42934" lat="59.48514444" lon="5.98199443649">
		<tag k="bridge" v="yes" />
		<tag k="layer" v="1" />
		<tag k="name" v="Ølmedal" />
		<tag k="ssr:stedsnr" v="897953" />
	</node>
	<node id="-42933" lat="59.4788749993" lon="6.01424443877">
		<tag k="bridge" v="yes" />
		<tag k="layer" v="1" />
		<tag k="name" v="Kjedlane" />
		<tag k="ssr:stedsnr" v="897515" />
	</node>
	<node id="-42932" lat="59.492858335" lon="6.12667778205">
		<tag k="bridge" v="yes" />
		<tag k="layer" v="1" />
		<tag k="name" v="Indre Våga" />
		<tag k="ssr:stedsnr" v="897511" />
	</node>
	<node id="-42134" lat="59.5008999988" lon="5.57904722894">
		<tag k="bridge" v="yes" />
		<tag k="layer" v="1" />
		<tag k="name" v="Isvik" />
		<tag k="ssr:stedsnr" v="472523" />
	</node>
	<node id="-44337" lat="59.6784973628" lon="5.61520092934">
		<tag k="amenity" v="ferry_terminal" />
		<tag k="name" v="Utbjoa ferjekai" />
		<tag k="ssr:stedsnr" v="972940" />
	</node>
	<node id="-42543" lat="59.5783916698" lon="5.81112499385">
		<tag k="bridge" v="yes" />
		<tag k="layer" v="1" />
		<tag k="name" v="Myrabø" />
		<tag k="ssr:stedsnr" v="715946" />
	</node>
	<node id="-44589" lat="59.6215377989" lon="5.82408373096">
		<tag k="highway" v="path" />
		<tag k="name" v="Stien" />
		<tag k="ssr:stedsnr" v="974832" />
	</node>
	<node id="-44716" lat="59.6070026796" lon="5.55395322887">
		<tag k="landuse" v="harbour" />
		<tag k="name" v="Sundhamn" />
		<tag k="seamark:type" v="harbour" />
		<tag k="ssr:stedsnr" v="977209" />
	</node>
	<node id="-42098" lat="59.6340861132" lon="5.77998333019">
>>>>>>> e1d4bc35ff8a6074a6f2e91616a996b547c36f15
		<tag k="bridge" v="yes" />
		<tag k="fixme" v="multiple name tags, choose one and add the other to alt_name" />
		<tag k="layer" v="1" />
<<<<<<< HEAD
		<tag k="name" v="Sandeid" />
		<tag k="ssr:stedsnr" v="957964" />
	</node>
	<node lat="59.519436106902546" lon="5.632022216435959" id="-5052">
		<tag k="bridge" v="yes" />
		<tag k="layer" v="1" />
		<tag k="name" v="Tveit" />
		<tag k="ssr:stedsnr" v="957967" />
	</node>
	<node lat="59.47687778187164" lon="5.738744437842498" id="-5053">
		<tag k="bridge" v="yes" />
		<tag k="layer" v="1" />
		<tag k="name" v="Åmselva" />
		<tag k="ssr:stedsnr" v="957969" />
	</node>
	<node lat="59.6625467357195" lon="5.5794427210402935" id="-5092">
		<tag k="highway" v="path" />
		<tag k="name" v="Stigen" />
		<tag k="ssr:stedsnr" v="972626" />
	</node>
	<node lat="59.66468869228719" lon="5.583504143751759" id="-5093">
		<tag k="highway" v="path" />
		<tag k="name" v="Kureksteren" />
		<tag k="ssr:stedsnr" v="972627" />
	</node>
	<node lat="59.6784973628284" lon="5.615200929340249" id="-5126">
		<tag k="amenity" v="ferry_terminal" />
		<tag k="name" v="Utbjoa ferjekai" />
		<tag k="ssr:stedsnr" v="972940" />
	</node>
	<node lat="59.640937678262425" lon="5.614031569486669" id="-5154">
		<tag k="ford" v="yes" />
		<tag k="name" v="Hestavadet" />
		<tag k="place" v="locality" />
		<tag k="ssr:stedsnr" v="973294" />
	</node>
	<node lat="59.651830141861204" lon="5.718991870152269" id="-5228">
		<tag k="highway" v="path" />
		<tag k="name" v="Stigen" />
		<tag k="ssr:stedsnr" v="973770" />
	</node>
	<node lat="59.62946549211607" lon="5.590509285231506" id="-5250">
		<tag k="highway" v="path" />
		<tag k="name" v="Stien" />
		<tag k="ssr:stedsnr" v="974197" />
	</node>
	<node lat="59.621537798891296" lon="5.824083730955523" id="-5298">
		<tag k="highway" v="path" />
		<tag k="name" v="Stien" />
		<tag k="ssr:stedsnr" v="974832" />
	</node>
	<node lat="59.581512948770715" lon="5.738510366546569" id="-5331">
		<tag k="highway" v="path" />
		<tag k="name" v="Geitastigen" />
		<tag k="ssr:stedsnr" v="977253" />
=======
		<tag k="name" v="Vaka;Vake" />
		<tag k="ssr:stedsnr" v="290958" />
	</node>
	<node id="-42892" lat="59.6096305517" lon="5.82235555017">
		<tag k="bridge" v="yes" />
		<tag k="layer" v="1" />
		<tag k="name" v="Osen" />
		<tag k="ssr:stedsnr" v="836961" />
	</node>
	<node id="-42097" lat="59.610966669" lon="5.87120555987">
		<tag k="bridge" v="yes" />
		<tag k="layer" v="1" />
		<tag k="name" v="Juvelv" />
		<tag k="ssr:stedsnr" v="290956" />
	</node>
	<node id="-41980" lat="59.498988889" lon="6.06800834204">
		<tag k="highway" v="path" />
		<tag k="name" v="Nedre Buvegen" />
		<tag k="ssr:stedsnr" v="117516" />
	</node>
	<node id="-43679" lat="59.5861249974" lon="5.79485000545">
		<tag k="highway" v="path" />
		<tag k="name" v="Ormakleiv" />
		<tag k="ssr:stedsnr" v="422979" />
	</node>
	<node id="-44313" lat="59.6816431935" lon="5.59112370213">
		<tag k="fixme" v="verify maritime location" />
		<tag k="mooring" v="yes" />
		<tag k="name" v="Veastøa" />
		<tag k="place" v="locality" />
		<tag k="ssr:stedsnr" v="972596" />
	</node>
	<node id="-42136" lat="59.5438750036" lon="5.56797778427">
		<tag k="bridge" v="yes" />
		<tag k="layer" v="1" />
		<tag k="name" v="Svendsbø" />
		<tag k="ssr:stedsnr" v="472952" />
	</node>
	<node id="-42717" lat="59.5724833326" lon="5.87318611054">
		<tag k="bridge" v="yes" />
		<tag k="layer" v="1" />
		<tag k="name" v="Helgeland" />
		<tag k="ssr:stedsnr" v="715553" />
	</node>
	<node id="-44310" lat="59.6625467357" lon="5.57944272104">
		<tag k="highway" v="path" />
		<tag k="name" v="Stigen" />
		<tag k="ssr:stedsnr" v="972626" />
	</node>
	<node id="-44311" lat="59.6646886923" lon="5.58350414375">
		<tag k="highway" v="path" />
		<tag k="name" v="Kureksteren" />
		<tag k="ssr:stedsnr" v="972627" />
	</node>
	<node id="-44556" lat="59.6288901345" lon="5.69219605645">
		<tag k="highway" v="path" />
		<tag k="name" v="Skrestien" />
		<tag k="ssr:stedsnr" v="974693" />
	</node>
	<node id="-43529" lat="59.4844000021" lon="6.10710555578">
		<tag k="bridge" v="yes" />
		<tag k="layer" v="1" />
		<tag k="name" v="Krokedal" />
		<tag k="ssr:stedsnr" v="350518" />
	</node>
	<node id="-42503" lat="59.5419277749" lon="5.86723056083">
		<tag k="man_made" v="quay" />
		<tag k="name" v="Sandeid kai" />
		<tag k="place" v="locality" />
		<tag k="ssr:stedsnr" v="532963" />
	</node>
	<node id="-44678" lat="59.6153099655" lon="5.69367773783">
		<tag k="ford" v="yes" />
		<tag k="name" v="Ytrevad" />
		<tag k="place" v="locality" />
		<tag k="ssr:stedsnr" v="977159" />
	</node>
	<node id="-44549" lat="59.6271652556" lon="5.68462411498">
		<tag k="highway" v="path" />
		<tag k="name" v="Rossasmog" />
		<tag k="ssr:stedsnr" v="974555" />
	</node>
	<node id="-44803" lat="59.5371113927" lon="5.59065739871">
		<tag k="highway" v="path" />
		<tag k="name" v="Kyrkjevegen" />
		<tag k="ssr:stedsnr" v="981059" />
>>>>>>> e1d4bc35ff8a6074a6f2e91616a996b547c36f15
	</node>
</osm>
