<?xml version="1.0" encoding="UTF-8"?>
<osm generator="osmapis" version="0.6">
	<node id="-4607" lat="59.546799999" lon="5.85790000005">
		<tag k="alt_name" v="Sandeid" />
		<tag k="amenity" v="place_of_worship" />
		<tag k="denomination" v="lutheran" />
		<tag k="name" v="Sandeid kyrkje" />
		<tag k="religion" v="christian" />
		<tag k="ssr:stedsnr" v="609561" />
	</node>
	<node id="-4667" lat="59.4970916691" lon="5.90998333926">
		<tag k="alt_name" v="Vikedal" />
		<tag k="amenity" v="place_of_worship" />
		<tag k="denomination" v="lutheran" />
		<tag k="name" v="Vikedal kyrkje" />
		<tag k="old_name" v="Vikadal" />
		<tag k="religion" v="christian" />
		<tag k="ssr:stedsnr" v="730279" />
	</node>
	<node id="-6450" lat="59.6417270916" lon="5.63186419755">
		<tag k="name" v="Kolamila" />
		<tag k="place" v="locality" />
		<tag k="ssr:stedsnr" v="973299" />
	</node>
	<node id="-4849" lat="59.6034750041" lon="5.80190000654">
		<tag k="alt_name" v="Ølen" />
		<tag k="amenity" v="place_of_worship" />
		<tag k="denomination" v="lutheran" />
		<tag k="name" v="Ølen kyrkje" />
		<tag k="religion" v="christian" />
		<tag k="ssr:stedsnr" v="913378" />
	</node>
	<node id="-5967" lat="59.4770500026" lon="5.98817499309">
		<tag k="alt_name" v="Imsland" />
		<tag k="amenity" v="place_of_worship" />
		<tag k="denomination" v="lutheran" />
		<tag k="name" v="Imsland kyrkje" />
		<tag k="religion" v="christian" />
		<tag k="ssr:stedsnr" v="609287" />
	</node>
	<node id="-5315" lat="59.493383335" lon="5.7273749976">
		<tag k="alt_name" v="Vats" />
		<tag k="amenity" v="place_of_worship" />
		<tag k="denomination" v="lutheran" />
		<tag k="name" v="Vats kyrkje" />
		<tag k="religion" v="christian" />
		<tag k="ssr:stedsnr" v="123861" />
	</node>
	<node id="-4529" lat="59.6648250033" lon="5.64430000088">
		<tag k="alt_name" v="Bjoastrand" />
		<tag k="amenity" v="place_of_worship" />
		<tag k="denomination" v="lutheran" />
		<tag k="name" v="Bjoa kyrkje" />
		<tag k="religion" v="christian" />
		<tag k="ssr:stedsnr" v="488015" />
	</node>
	<node id="-4260" lat="59.5912194491" lon="5.5868972281">
		<tag k="alt_name" v="Austre Vikebygd;Østre Vikebygd" />
		<tag k="amenity" v="place_of_worship" />
		<tag k="denomination" v="lutheran" />
		<tag k="name" v="Vikebygd kyrkje" />
		<tag k="religion" v="christian" />
		<tag k="ssr:stedsnr" v="488354" />
	</node>
	<node id="-6275" lat="59.5056166707" lon="5.58857500535">
		<tag k="alt_name" v="Skjold" />
		<tag k="amenity" v="place_of_worship" />
		<tag k="denomination" v="lutheran" />
		<tag k="name" v="Skjold kyrkje" />
		<tag k="religion" v="christian" />
		<tag k="ssr:stedsnr" v="853640" />
	</node>
</osm>
