<?xml version="1.0" encoding="UTF-8"?>
<osm generator="osmapis" version="0.6">
	<node id="-428032" lat="59.4898666694" lon="5.76308332777">
		<tag k="name" v="Kolltveit" />
		<tag k="place" v="farm" />
		<tag k="ssr:stedsnr" v="31723" />
	</node>
	<node id="-428028" lat="59.5027277752" lon="5.5868666745">
		<tag k="name" v="Skjold" />
		<tag k="place" v="village" />
		<tag k="ssr:stedsnr" v="23716" />
	</node>
	<node id="-428021" lat="59.4930777783" lon="5.63673055457">
		<tag k="alt_name" v="Sage" />
		<tag k="name" v="Kjorkjeteigen (Sagjå)" />
		<tag k="old_name" v="Kyrkjeteig" />
		<tag k="place" v="farm" />
		<tag k="ssr:stedsnr" v="23678" />
	</node>
	<node id="-428018" lat="59.504100002" lon="6.13953332935">
		<tag k="alt_name" v="Hustoptstølen" />
		<tag k="historic" v="shieling" />
		<tag k="name" v="Hustoftstølen" />
		<tag k="place" v="locality" />
		<tag k="ssr:stedsnr" v="3937" />
	</node>
	<node id="-428016" lat="59.5121055574" lon="5.70919999846">
		<tag k="name" v="Neset" />
		<tag k="place" v="farm" />
		<tag k="ssr:stedsnr" v="3612" />
	</node>
	<node id="-428015" lat="59.5020611791" lon="5.72614628434">
		<tag k="fixme" v="consider place=hamlet" />
		<tag k="name" v="Sandnes" />
		<tag k="place" v="farm" />
		<tag k="ssr:stedsnr" v="3608" />
	</node>
	<node id="-428014" lat="59.5061638928" lon="5.52524999585">
		<tag k="alt_name" v="Myri" />
		<tag k="name" v="Myra" />
		<tag k="place" v="farm" />
		<tag k="ssr:stedsnr" v="3583" />
	</node>
	<node id="-428011" lat="59.5619681249" lon="6.04547196405">
		<tag k="alt_name" v="Stølsmark" />
		<tag k="fixme" v="consider place=hamlet" />
		<tag k="name" v="Stølsmarka" />
		<tag k="place" v="farm" />
		<tag k="ssr:stedsnr" v="3552" />
	</node>
	<node id="-430058" lat="59.6778139741" lon="5.60153494357">
		<tag k="name" v="Rishamar" />
		<tag k="place" v="farm" />
		<tag k="ssr:stedsnr" v="972700" />
	</node>
	<node id="-428002" lat="59.6473583317" lon="5.76293611866">
		<tag k="alt_name" v="Flatebø" />
		<tag k="name" v="Flatbø" />
		<tag k="place" v="farm" />
		<tag k="ssr:stedsnr" v="3415" />
	</node>
	<node id="-427999" lat="59.6273741168" lon="5.80160575822">
		<tag k="alt_name" v="Hamre Indre" />
		<tag k="name" v="Hamre" />
		<tag k="place" v="hamlet" />
		<tag k="ssr:stedsnr" v="3387" />
	</node>
	<node id="-430046" lat="59.6729795263" lon="5.58466010204">
		<tag k="name" v="Torsvik" />
		<tag k="place" v="farm" />
		<tag k="ssr:stedsnr" v="972615" />
	</node>
	<node id="-427996" lat="59.6167305559" lon="5.5602361145">
		<tag k="name" v="Kvamshamn" />
		<tag k="place" v="isolated_dwelling" />
		<tag k="ssr:stedsnr" v="3358" />
	</node>
	<node id="-427995" lat="59.6188499959" lon="5.67166667157">
		<tag k="name" v="Rotvoll" />
		<tag k="place" v="farm" />
		<tag k="ssr:stedsnr" v="3357" />
	</node>
	<node id="-430037" lat="59.6852015032" lon="5.60433256906">
		<tag k="name" v="Seiastova" />
		<tag k="place" v="locality" />
		<tag k="ssr:stedsnr" v="972600" />
	</node>
	<node id="-427988" lat="59.538608443" lon="5.71766088863">
		<tag k="fixme" v="consider place=hamlet" />
		<tag k="name" v="Landa" />
		<tag k="place" v="farm" />
		<tag k="ssr:stedsnr" v="3251" />
	</node>
	<node id="-427987" lat="59.5182476363" lon="5.5683584418">
		<tag k="fixme" v="consider place=hamlet" />
		<tag k="name" v="Malasete" />
		<tag k="place" v="farm" />
		<tag k="ssr:stedsnr" v="3239" />
	</node>
	<node id="-427985" lat="59.524273859" lon="5.69252650443">
		<tag k="alt_name" v="Slåttet" />
		<tag k="name" v="Slottet" />
		<tag k="place" v="farm" />
		<tag k="ssr:stedsnr" v="3230" />
	</node>
	<node id="-427981" lat="59.6808000005" lon="5.60137777436">
		<tag k="alt_name" v="Svalland" />
		<tag k="name" v="Svolland" />
		<tag k="place" v="farm" />
		<tag k="ssr:stedsnr" v="3052" />
	</node>
	<node id="-427978" lat="59.6641833335" lon="5.63976111231">
		<tag k="name" v="Spor" />
		<tag k="place" v="farm" />
		<tag k="ssr:stedsnr" v="3009" />
	</node>
	<node id="-427976" lat="59.4997876576" lon="5.83147013653">
		<tag k="alt_name" v="Skilstrand" />
		<tag k="fixme" v="consider place=hamlet" />
		<tag k="name" v="Skikelstrand" />
		<tag k="place" v="farm" />
		<tag k="ssr:stedsnr" v="2848" />
	</node>
	<node id="-427975" lat="59.4861111073" lon="5.65465832707">
		<tag k="name" v="Byrkjeland" />
		<tag k="place" v="farm" />
		<tag k="ssr:stedsnr" v="2831" />
	</node>
	<node id="-427973" lat="59.4828972205" lon="5.72328888869">
		<tag k="name" v="Åm" />
		<tag k="place" v="farm" />
		<tag k="ssr:stedsnr" v="2822" />
	</node>
	<node id="-427972" lat="59.4843277752" lon="5.65941111821">
		<tag k="alt_name" v="Bjødnane" />
		<tag k="name" v="Skiftun" />
		<tag k="place" v="farm" />
		<tag k="ssr:stedsnr" v="2815" />
	</node>
	<node id="-427970" lat="59.479702261" lon="5.52358563992">
		<tag k="fixme" v="consider place=hamlet" />
		<tag k="name" v="Li" />
		<tag k="place" v="farm" />
		<tag k="ssr:stedsnr" v="2808" />
	</node>
	<node id="-427967" lat="59.4600152861" lon="5.7296653424">
		<tag k="fixme" v="consider place=hamlet" />
		<tag k="name" v="Nordtveit" />
		<tag k="place" v="farm" />
		<tag k="ssr:stedsnr" v="2769" />
	</node>
	<node id="-427964" lat="59.4835623493" lon="6.11929854022">
		<tag k="fixme" v="consider place=hamlet" />
		<tag k="name" v="Nybru" />
		<tag k="place" v="farm" />
		<tag k="ssr:stedsnr" v="2328" />
	</node>
	<node id="-427963" lat="59.4786250012" lon="6.11032499981">
		<tag k="alt_name" v="Salia" />
		<tag k="name" v="Saglia" />
		<tag k="place" v="farm" />
		<tag k="ssr:stedsnr" v="2327" />
	</node>
	<node id="-427962" lat="59.4787036633" lon="5.92402811666">
		<tag k="fixme" v="consider place=hamlet" />
		<tag k="name" v="Hogganvik" />
		<tag k="place" v="farm" />
		<tag k="ssr:stedsnr" v="2325" />
	</node>
	<node id="-427961" lat="59.4796074346" lon="6.03566298144">
		<tag k="alt_name" v="Vågjen" />
		<tag k="fixme" v="consider place=hamlet" />
		<tag k="name" v="Vågen" />
		<tag k="place" v="farm" />
		<tag k="ssr:stedsnr" v="2322" />
	</node>
	<node id="-430008" lat="59.5457722219" lon="5.69230832575">
		<tag k="name" v="Heie" />
		<tag k="place" v="farm" />
		<tag k="ssr:stedsnr" v="968713" />
	</node>
	<node id="-430007" lat="59.5445777812" lon="5.6944083312">
		<tag k="name" v="Håvoll" />
		<tag k="place" v="farm" />
		<tag k="ssr:stedsnr" v="968714" />
	</node>
	<node id="-430006" lat="59.5494249961" lon="5.70953056326">
		<tag k="name" v="Springestein" />
		<tag k="place" v="farm" />
		<tag k="ssr:stedsnr" v="968709" />
	</node>
	<node id="-427957" lat="59.4985172573" lon="5.99215180203">
		<tag k="fixme" v="consider place=hamlet" />
		<tag k="name" v="Rørtveit" />
		<tag k="place" v="farm" />
		<tag k="ssr:stedsnr" v="2295" />
	</node>
	<node id="-427955" lat="59.4194964015" lon="5.71921407979">
		<tag k="fixme" v="consider place=hamlet" />
		<tag k="name" v="Stråtveit" />
		<tag k="place" v="farm" />
		<tag k="ssr:stedsnr" v="2059" />
	</node>
	<node id="-430000" lat="59.5609722242" lon="6.00299999368">
		<tag k="name" v="Kvendalen" />
		<tag k="place" v="locality" />
		<tag k="ssr:stedsnr" v="968307" />
	</node>
	<node id="-429995" lat="59.5234138878" lon="5.66473056363">
		<tag k="name" v="Elleflåthola" />
		<tag k="place" v="farm" />
		<tag k="ssr:stedsnr" v="966628" />
	</node>
	<node id="-427942" lat="59.5249299636" lon="5.72144743278">
		<tag k="fixme" v="consider place=hamlet" />
		<tag k="name" v="Blikrabygda" />
		<tag k="place" v="village" />
		<tag k="ssr:stedsnr" v="986461" />
	</node>
	<node id="-427940" lat="59.6776654311" lon="5.74229390441">
		<tag k="fixme" v="consider place=hamlet" />
		<tag k="name" v="Romsa" />
		<tag k="place" v="farm" />
		<tag k="ssr:stedsnr" v="1072121" />
	</node>
	<node id="-427939" lat="59.5159826141" lon="5.9367601381">
		<tag k="fixme" v="consider place=hamlet" />
		<tag k="name" v="Bale" />
		<tag k="place" v="farm" />
		<tag k="ssr:stedsnr" v="1072117" />
	</node>
	<node id="-427916" lat="59.5947666675" lon="5.80608054666">
		<tag k="name" v="Stykket" />
		<tag k="place" v="farm" />
		<tag k="ssr:stedsnr" v="408987" />
	</node>
	<node id="-427914" lat="59.6797722195" lon="5.72994166165">
		<tag k="name" v="Ørevik" />
		<tag k="place" v="locality" />
		<tag k="ssr:stedsnr" v="408807" />
	</node>
	<node id="-427908" lat="59.5317861076" lon="5.87478333427">
		<tag k="name" v="Kvitareina" />
		<tag k="place" v="quarter" />
		<tag k="ssr:stedsnr" v="405587" />
	</node>
	<node id="-429955" lat="59.5405276689" lon="5.96861757276">
		<tag k="fixme" v="consider place=hamlet" />
		<tag k="name" v="Førland" />
		<tag k="place" v="farm" />
		<tag k="ssr:stedsnr" v="942493" />
	</node>
	<node id="-429952" lat="59.6783555565" lon="5.60628888941">
		<tag k="name" v="Bromstøl" />
		<tag k="place" v="farm" />
		<tag k="ssr:stedsnr" v="936563" />
	</node>
	<node id="-429950" lat="59.6707520799" lon="5.58155613007">
		<tag k="fixme" v="consider place=hamlet" />
		<tag k="name" v="Sandvik" />
		<tag k="place" v="farm" />
		<tag k="ssr:stedsnr" v="935485" />
	</node>
	<node id="-429949" lat="59.5487805543" lon="5.64313611775">
		<tag k="fixme" v="consider tourism=alpine_hut or tourism=chalet" />
		<tag k="name" v="Longåsdalen" />
		<tag k="ssr:stedsnr" v="935112" />
		<tag k="tourism" v="wilderness_hut" />
	</node>
	<node id="-427900" lat="59.4890527755" lon="5.97980277282">
		<tag k="name" v="Seglaskar" />
		<tag k="place" v="farm" />
		<tag k="ssr:stedsnr" v="392348" />
	</node>
	<node id="-428010" lat="59.5552632554" lon="5.85838605962">
		<tag k="alt_name" v="Helgavoll, midtre" />
		<tag k="fixme" v="consider place=hamlet" />
		<tag k="name" v="Midt-Helgevoll" />
		<tag k="place" v="farm" />
		<tag k="ssr:stedsnr" v="3546" />
	</node>
	<node id="-429942" lat="59.5076338931" lon="5.5999949218">
		<tag k="alt_name" v="Vikjå (Nygård)" />
		<tag k="fixme" v="consider place=hamlet" />
		<tag k="name" v="Vika" />
		<tag k="place" v="farm" />
		<tag k="ssr:stedsnr" v="914676" />
	</node>
	<node id="-429941" lat="59.5082014826" lon="5.71210385564">
		<tag k="alt_name" v="Neseim" />
		<tag k="fixme" v="consider place=hamlet" />
		<tag k="name" v="Nesheim" />
		<tag k="place" v="farm" />
		<tag k="ssr:stedsnr" v="914671" />
	</node>
	<node id="-429940" lat="59.5191503336" lon="5.63863434469">
		<tag k="fixme" v="consider place=hamlet" />
		<tag k="name" v="Sørhus" />
		<tag k="place" v="farm" />
		<tag k="ssr:stedsnr" v="914656" />
	</node>
	<node id="-429938" lat="59.649725" lon="5.63701666411">
		<tag k="fixme" v="consider place=hamlet" />
		<tag k="name" v="Steinsland" />
		<tag k="place" v="farm" />
		<tag k="ssr:stedsnr" v="914493" />
	</node>
	<node id="-427888" lat="59.5915388891" lon="5.73385278637">
		<tag k="name" v="Vågen" />
		<tag k="place" v="farm" />
		<tag k="ssr:stedsnr" v="368105" />
	</node>
	<node id="-427885" lat="59.5139073732" lon="5.56605788383">
		<tag k="alt_name" v="Asbjørnshaug" />
		<tag k="fixme" v="consider place=hamlet" />
		<tag k="name" v="Asbjørnhaug" />
		<tag k="place" v="farm" />
		<tag k="ssr:stedsnr" v="367612" />
	</node>
	<node id="-427884" lat="59.5169873323" lon="5.57663134744">
		<tag k="alt_name" v="Risong" />
		<tag k="fixme" v="consider place=hamlet" />
		<tag k="name" v="Risanger" />
		<tag k="place" v="farm" />
		<tag k="ssr:stedsnr" v="367609" />
	</node>
	<node id="-429930" lat="59.5197028111" lon="5.95930835401">
		<tag k="alt_name" v="Kalleim" />
		<tag k="fixme" v="consider place=hamlet" />
		<tag k="name" v="Kaldeim" />
		<tag k="place" v="farm" />
		<tag k="ssr:stedsnr" v="913880" />
	</node>
	<node id="-427881" lat="59.545399997" lon="6.01186667329">
		<tag k="name" v="Floen" />
		<tag k="place" v="locality" />
		<tag k="ssr:stedsnr" v="367574" />
	</node>
	<node id="-427880" lat="59.5374583351" lon="5.96813888985">
		<tag k="leisure" v="pitch" />
		<tag k="name" v="Vikedal Motorbane" />
		<tag k="ssr:stedsnr" v="367573" />
	</node>
	<node id="-429927" lat="59.4855274365" lon="5.54747632006">
		<tag k="fixme" v="consider place=hamlet" />
		<tag k="name" v="Vestrå" />
		<tag k="place" v="farm" />
		<tag k="ssr:stedsnr" v="913867" />
	</node>
	<node id="-427878" lat="59.5492416673" lon="5.86188889525">
		<tag k="alt_name" v="Helgavoll, nedre;Nedre Helgevoll" />
		<tag k="name" v="Nedre Helgavoll" />
		<tag k="place" v="farm" />
		<tag k="ssr:stedsnr" v="367538" />
	</node>
	<node id="-427875" lat="59.5751416696" lon="5.84370556342">
		<tag k="loc_name" v="Økland" />
		<tag k="name" v="Aukland" />
		<tag k="place" v="farm" />
		<tag k="ssr:stedsnr" v="367520" />
	</node>
	<node id="-428347" lat="59.500499998" lon="5.99452777879">
		<tag k="name" v="Grønli" />
		<tag k="place" v="farm" />
		<tag k="ssr:stedsnr" v="177302" />
	</node>
	<node id="-427871" lat="59.6148826023" lon="5.86194829338">
		<tag k="alt_name" v="Lien østre" />
		<tag k="fixme" v="consider place=hamlet" />
		<tag k="name" v="Lia" />
		<tag k="place" v="farm" />
		<tag k="ssr:stedsnr" v="367473" />
	</node>
	<node id="-429918" lat="59.4524460411" lon="5.72966387183">
		<tag k="fixme" v="consider place=hamlet" />
		<tag k="name" v="Sørtveit" />
		<tag k="place" v="farm" />
		<tag k="ssr:stedsnr" v="913742" />
	</node>
	<node id="-429916" lat="59.5551509226" lon="5.9949318205">
		<tag k="fixme" v="consider place=hamlet" />
		<tag k="name" v="Hundseid" />
		<tag k="place" v="farm" />
		<tag k="ssr:stedsnr" v="913577" />
	</node>
	<node id="-429914" lat="59.5611277783" lon="5.98675000822">
		<tag k="alt_name" v="Honsastølen" />
		<tag k="historic" v="shieling" />
		<tag k="name" v="Hundseidstølen" />
		<tag k="place" v="locality" />
		<tag k="ssr:stedsnr" v="913564" />
	</node>
	<node id="-429912" lat="59.5721209607" lon="6.04972399022">
		<tag k="alt_name" v="Roaldkvam" />
		<tag k="fixme" v="consider place=hamlet" />
		<tag k="name" v="Roalkvam" />
		<tag k="place" v="farm" />
		<tag k="ssr:stedsnr" v="913558" />
	</node>
	<node id="-427862" lat="59.617424997" lon="5.5617888804">
		<tag k="alt_name" v="Årviktræ" />
		<tag k="name" v="Årviktræet" />
		<tag k="place" v="isolated_dwelling" />
		<tag k="ssr:stedsnr" v="367360" />
	</node>
	<node id="-429909" lat="59.5820361072" lon="5.94529165981">
		<tag k="alt_name" v="Vodlistølen" />
		<tag k="historic" v="shieling" />
		<tag k="name" v="Vollistølen" />
		<tag k="place" v="locality" />
		<tag k="ssr:stedsnr" v="913547" />
	</node>
	<node id="-429907" lat="59.6577250017" lon="5.70905832837">
		<tag k="alt_name" v="Haugsgjerdet" />
		<tag k="name" v="Haugsgjerd" />
		<tag k="place" v="hamlet" />
		<tag k="ssr:stedsnr" v="913458" />
	</node>
	<node id="-427858" lat="59.6113274348" lon="5.82805448254">
		<tag k="fixme" v="consider place=hamlet" />
		<tag k="name" v="Haugen" />
		<tag k="place" v="farm" />
		<tag k="ssr:stedsnr" v="367332" />
	</node>
	<node id="-427857" lat="59.5946055569" lon="5.56438610945">
		<tag k="alt_name" v="Viki" />
		<tag k="name" v="Vika" />
		<tag k="place" v="farm" />
		<tag k="ssr:stedsnr" v="367315" />
	</node>
	<node id="-427856" lat="59.5912777764" lon="5.59562499354">
		<tag k="name" v="Vik" />
		<tag k="place" v="farm" />
		<tag k="ssr:stedsnr" v="367314" />
	</node>
	<node id="-427855" lat="59.5854111085" lon="5.58046110861">
		<tag k="alt_name" v="Kolthaugen" />
		<tag k="name" v="Kolthaug" />
		<tag k="place" v="farm" />
		<tag k="ssr:stedsnr" v="367305" />
	</node>
	<node id="-429902" lat="59.5970527796" lon="5.66280000731">
		<tag k="alt_name" v="Vikestølen" />
		<tag k="name" v="Vikastølen" />
		<tag k="place" v="isolated_dwelling" />
		<tag k="ssr:stedsnr" v="913369" />
	</node>
	<node id="-429898" lat="59.4848591803" lon="6.06641835854">
		<tag k="alt_name" v="Store Aksland" />
		<tag k="fixme" v="consider place=hamlet" />
		<tag k="name" v="Aksland" />
		<tag k="place" v="farm" />
		<tag k="ssr:stedsnr" v="913299" />
	</node>
	<node id="-427849" lat="59.549675003" lon="5.69322778123">
		<tag k="name" v="Nordbø" />
		<tag k="place" v="farm" />
		<tag k="ssr:stedsnr" v="367253" />
	</node>
	<node id="-429895" lat="59.4759111115" lon="5.91454999917">
		<tag k="name" v="Haugen" />
		<tag k="place" v="farm" />
		<tag k="ssr:stedsnr" v="913289" />
	</node>
	<node id="-429893" lat="59.4899917041" lon="5.97541384659">
		<tag k="alt_name" v="Byrkjeland" />
		<tag k="fixme" v="consider place=hamlet" />
		<tag k="name" v="Børkjeland" />
		<tag k="place" v="farm" />
		<tag k="ssr:stedsnr" v="913272" />
	</node>
	<node id="-429890" lat="59.5267464054" lon="5.72748503425">
		<tag k="fixme" v="consider place=hamlet" />
		<tag k="name" v="Blikra" />
		<tag k="place" v="farm" />
		<tag k="ssr:stedsnr" v="913243" />
	</node>
	<node id="-429888" lat="59.6756250032" lon="5.60700278319">
		<tag k="alt_name" v="Klypo" />
		<tag k="name" v="Klypa" />
		<tag k="place" v="farm" />
		<tag k="ssr:stedsnr" v="913048" />
	</node>
	<node id="-429887" lat="59.6660250011" lon="5.66915554788">
		<tag k="fixme" v="consider place=hamlet" />
		<tag k="name" v="Apalvik" />
		<tag k="place" v="farm" />
		<tag k="ssr:stedsnr" v="913028" />
	</node>
	<node id="-429884" lat="59.4917611123" lon="5.72260555198">
		<tag k="name" v="Kjøltveit" />
		<tag k="place" v="farm" />
		<tag k="ssr:stedsnr" v="912859" />
	</node>
	<node id="-429883" lat="59.4767027774" lon="5.54525277075">
		<tag k="name" v="Øygarden" />
		<tag k="place" v="farm" />
		<tag k="ssr:stedsnr" v="912843" />
	</node>
	<node id="-429882" lat="59.4754000016" lon="5.69055278066">
		<tag k="name" v="Frøland" />
		<tag k="place" v="farm" />
		<tag k="ssr:stedsnr" v="912834" />
	</node>
	<node id="-427832" lat="59.5589027806" lon="5.5685111107">
		<tag k="name" v="Holtengård" />
		<tag k="place" v="locality" />
		<tag k="ssr:stedsnr" v="363993" />
	</node>
	<node id="-427822" lat="59.5575666659" lon="5.70668055532">
		<tag k="name" v="Fitjadne" />
		<tag k="place" v="farm" />
		<tag k="ssr:stedsnr" v="361994" />
	</node>
	<node id="-429868" lat="59.5559444467" lon="5.67381666518">
		<tag k="name" v="Stølen" />
		<tag k="place" v="farm" />
		<tag k="ssr:stedsnr" v="907989" />
	</node>
	<node id="-427819" lat="59.451883338" lon="5.72038056174">
		<tag k="name" v="Aunene" />
		<tag k="place" v="locality" />
		<tag k="ssr:stedsnr" v="361951" />
	</node>
	<node id="-427814" lat="59.5182027762" lon="5.79697222735">
		<tag k="name" v="Myrå" />
		<tag k="place" v="farm" />
		<tag k="ssr:stedsnr" v="361868" />
	</node>
	<node id="-429861" lat="59.5105108789" lon="6.01036459062">
		<tag k="fixme" v="consider place=hamlet" />
		<tag k="name" v="Øvre Haugland" />
		<tag k="place" v="farm" />
		<tag k="ssr:stedsnr" v="907540" />
	</node>
	<node id="-427810" lat="59.4804570208" lon="6.06215846496">
		<tag k="fixme" v="consider place=hamlet" />
		<tag k="name" v="Litle Aksland" />
		<tag k="place" v="farm" />
		<tag k="ssr:stedsnr" v="361718" />
	</node>
	<node id="-429857" lat="59.5250638914" lon="5.91529167131">
		<tag k="alt_name" v="Vikedalsstølane" />
		<tag k="historic" v="shieling" />
		<tag k="name" v="Vikadalsstølane" />
		<tag k="place" v="locality" />
		<tag k="ssr:stedsnr" v="907154" />
	</node>
	<node id="-429852" lat="59.5230111117" lon="5.96111110983">
		<tag k="name" v="Nybru" />
		<tag k="place" v="farm" />
		<tag k="ssr:stedsnr" v="906519" />
	</node>
	<node id="-429851" lat="59.5248138907" lon="5.93976111565">
		<tag k="name" v="Solbrekk" />
		<tag k="place" v="farm" />
		<tag k="ssr:stedsnr" v="906517" />
	</node>
	<node id="-429849" lat="59.4786249994" lon="6.05036111965">
		<tag k="name" v="Kjøylå" />
		<tag k="place" v="farm" />
		<tag k="ssr:stedsnr" v="906501" />
	</node>
	<node id="-429842" lat="59.5041888858" lon="5.82932499438">
		<tag k="name" v="Midtskogen" />
		<tag k="place" v="farm" />
		<tag k="ssr:stedsnr" v="906212" />
	</node>
	<node id="-429840" lat="59.506788889" lon="5.83053055289">
		<tag k="name" v="Salthogg" />
		<tag k="place" v="farm" />
		<tag k="ssr:stedsnr" v="906211" />
	</node>
	<node id="-429834" lat="59.5405388885" lon="5.98733333404">
		<tag k="name" v="Longaland" />
		<tag k="place" v="farm" />
		<tag k="ssr:stedsnr" v="906009" />
	</node>
	<node id="-427782" lat="59.4788611088" lon="5.74187500092">
		<tag k="name" v="Osen" />
		<tag k="place" v="farm" />
		<tag k="ssr:stedsnr" v="359115" />
	</node>
	<node id="-429825" lat="59.6289944467" lon="5.55566111097">
		<tag k="name" v="Haugen" />
		<tag k="place" v="farm" />
		<tag k="ssr:stedsnr" v="874478" />
	</node>
	<node id="-429824" lat="59.479176968" lon="6.02747914039">
		<tag k="name" v="Kvaløy" />
		<tag k="place" v="hamlet" />
		<tag k="ssr:stedsnr" v="874078" />
	</node>
	<node id="-429822" lat="59.4764000019" lon="5.73658334089">
		<tag k="fixme" v="consider place=hamlet" />
		<tag k="name" v="Åmsosen" />
		<tag k="place" v="village" />
		<tag k="ssr:stedsnr" v="873749" />
	</node>
	<node id="-429811" lat="59.5922916696" lon="5.80396110371">
		<tag k="name" v="Store Nerheim" />
		<tag k="place" v="farm" />
		<tag k="ssr:stedsnr" v="870470" />
	</node>
	<node id="-429809" lat="59.5019999991" lon="6.0849749928">
		<tag k="alt_name" v="Hildrastøl" />
		<tag k="historic" v="shieling" />
		<tag k="name" v="Hildrastølen" />
		<tag k="place" v="locality" />
		<tag k="ssr:stedsnr" v="853935" />
	</node>
	<node id="-429808" lat="59.5240100842" lon="5.87268226419">
		<tag k="fixme" v="consider place=hamlet" />
		<tag k="name" v="Strand" />
		<tag k="place" v="farm" />
		<tag k="ssr:stedsnr" v="853910" />
	</node>
	<node id="-429807" lat="59.5282230977" lon="5.97195195308">
		<tag k="fixme" v="consider place=hamlet" />
		<tag k="name" v="Nes" />
		<tag k="place" v="farm" />
		<tag k="ssr:stedsnr" v="853906" />
	</node>
	<node id="-429806" lat="59.5250439427" lon="5.94007927395">
		<tag k="alt_name" v="Ospevoll, nedre" />
		<tag k="fixme" v="consider place=hamlet" />
		<tag k="name" v="Nedre Ospevoll" />
		<tag k="place" v="farm" />
		<tag k="ssr:stedsnr" v="853903" />
	</node>
	<node id="-429805" lat="59.5085265993" lon="5.92467359842">
		<tag k="alt_name" v="Hallingstad, øvre" />
		<tag k="fixme" v="consider place=hamlet" />
		<tag k="name" v="Øvre Hallingstad" />
		<tag k="place" v="farm" />
		<tag k="ssr:stedsnr" v="853880" />
	</node>
	<node id="-429803" lat="59.513385573" lon="5.54804030115">
		<tag k="fixme" v="consider place=hamlet" />
		<tag k="name" v="Haraldseid" />
		<tag k="place" v="farm" />
		<tag k="ssr:stedsnr" v="853623" />
	</node>
	<node id="-429802" lat="59.50667222" lon="5.59240834118">
		<tag k="fixme" v="consider place=hamlet" />
		<tag k="name" v="Skjold" />
		<tag k="place" v="village" />
		<tag k="ssr:stedsnr" v="853619" />
	</node>
	<node id="-429800" lat="59.5171997543" lon="5.79962265493">
		<tag k="fixme" v="consider place=hamlet" />
		<tag k="name" v="Ile" />
		<tag k="place" v="farm" />
		<tag k="ssr:stedsnr" v="853614" />
	</node>
	<node id="-429796" lat="59.5581615211" lon="5.86887673221">
		<tag k="alt_name" v="Store Rødne" />
		<tag k="name" v="Rødne" />
		<tag k="place" v="hamlet" />
		<tag k="ssr:stedsnr" v="853566" />
	</node>
	<node id="-427746" lat="59.6427055565" lon="5.57944722386">
		<tag k="alt_name" v="Lia" />
		<tag k="name" v="Lii" />
		<tag k="place" v="farm" />
		<tag k="ssr:stedsnr" v="328443" />
	</node>
	<node id="-429792" lat="59.5992583324" lon="5.95720554932">
		<tag k="fixme" v="consider tourism=alpine_hut or tourism=chalet" />
		<tag k="name" v="Olalihytta" />
		<tag k="old_name" v="Olalia turisthytte;Olalia" />
		<tag k="ssr:stedsnr" v="853539" />
		<tag k="tourism" v="wilderness_hut" />
	</node>
	<node id="-429791" lat="59.600200004" lon="5.90513888857">
		<tag k="historic" v="shieling" />
		<tag k="name" v="Fjellstølen" />
		<tag k="place" v="locality" />
		<tag k="ssr:stedsnr" v="853532" />
	</node>
	<node id="-429790" lat="59.6176249995" lon="5.8651361065">
		<tag k="alt_name" v="Høgsett" />
		<tag k="name" v="Høgset" />
		<tag k="place" v="farm" />
		<tag k="ssr:stedsnr" v="853514" />
	</node>
	<node id="-429788" lat="59.6349277774" lon="5.77923889195">
		<tag k="name" v="Vaka" />
		<tag k="place" v="farm" />
		<tag k="ssr:stedsnr" v="853441" />
	</node>
	<node id="-427738" lat="59.4917888896" lon="5.64330555772">
		<tag k="name" v="Sagakrossen" />
		<tag k="place" v="isolated_dwelling" />
		<tag k="ssr:stedsnr" v="326690" />
	</node>
	<node id="-429785" lat="59.6218847625" lon="5.67134833514">
		<tag k="fixme" v="consider place=hamlet" />
		<tag k="name" v="Eikås" />
		<tag k="place" v="farm" />
		<tag k="ssr:stedsnr" v="853421" />
	</node>
	<node id="-429784" lat="59.5944166699" lon="5.58749444323">
		<tag k="fixme" v="consider place=hamlet" />
		<tag k="name" v="Vikebygd" />
		<tag k="place" v="village" />
		<tag k="ssr:stedsnr" v="853380" />
	</node>
	<node id="-429783" lat="59.597005552" lon="5.72171110391">
		<tag k="name" v="Dueland" />
		<tag k="place" v="farm" />
		<tag k="ssr:stedsnr" v="853377" />
	</node>
	<node id="-429782" lat="59.5866500025" lon="5.71976111124">
		<tag k="name" v="Neset" />
		<tag k="place" v="farm" />
		<tag k="ssr:stedsnr" v="853367" />
	</node>
	<node id="-427733" lat="59.5082805554" lon="5.60591111656">
		<tag k="name" v="Nygård" />
		<tag k="place" v="farm" />
		<tag k="ssr:stedsnr" v="324952" />
	</node>
	<node id="-427732" lat="59.6012611136" lon="5.8001750025">
		<tag k="name" v="Litle Nerheim" />
		<tag k="place" v="farm" />
		<tag k="ssr:stedsnr" v="324462" />
	</node>
	<node id="-429778" lat="59.5593500046" lon="5.56924167119">
		<tag k="name" v="Legene" />
		<tag k="place" v="isolated_dwelling" />
		<tag k="ssr:stedsnr" v="853334" />
	</node>
	<node id="-427729" lat="59.5048925353" lon="5.64954844602">
		<tag k="fixme" v="consider place=hamlet" />
		<tag k="name" v="Bjerga" />
		<tag k="place" v="farm" />
		<tag k="ssr:stedsnr" v="307662" />
	</node>
	<node id="-427725" lat="59.6451611139" lon="5.61927777531">
		<tag k="alt_name" v="Baslia" />
		<tag k="name" v="Bastlia" />
		<tag k="place" v="farm" />
		<tag k="ssr:stedsnr" v="307474" />
	</node>
	<node id="-429771" lat="59.6719138887" lon="5.58561111141">
		<tag k="alt_name" v="Træ" />
		<tag k="name" v="Træet" />
		<tag k="place" v="farm" />
		<tag k="ssr:stedsnr" v="853002" />
	</node>
	<node id="-429770" lat="59.4992305594" lon="5.76042500148">
		<tag k="name" v="Hustoft" />
		<tag k="place" v="isolated_dwelling" />
		<tag k="ssr:stedsnr" v="852852" />
	</node>
	<node id="-427718" lat="59.5760388857" lon="5.72497499227">
		<tag k="name" v="Frønsdal" />
		<tag k="place" v="farm" />
		<tag k="ssr:stedsnr" v="307347" />
	</node>
	<node id="-427717" lat="59.557130703" lon="5.67669356613">
		<tag k="alt_name" v="Eikjesdal" />
		<tag k="fixme" v="consider place=hamlet" />
		<tag k="name" v="Eikedal" />
		<tag k="place" v="farm" />
		<tag k="ssr:stedsnr" v="307335" />
	</node>
	<node id="-427638" lat="59.5101694456" lon="5.90975833942">
		<tag k="name" v="Liatun" />
		<tag k="place" v="farm" />
		<tag k="ssr:stedsnr" v="300175" />
	</node>
	<node id="-427712" lat="59.459444447" lon="5.75720000646">
		<tag k="alt_name" v="Stokland" />
		<tag k="name" v="Stokkaland" />
		<tag k="place" v="farm" />
		<tag k="ssr:stedsnr" v="306758" />
	</node>
	<node id="-427710" lat="59.5513529829" lon="5.84675413141">
		<tag k="alt_name" v="Østabø" />
		<tag k="fixme" v="consider place=hamlet" />
		<tag k="name" v="Øvstabø" />
		<tag k="place" v="farm" />
		<tag k="ssr:stedsnr" v="306554" />
	</node>
	<node id="-429754" lat="59.5144861097" lon="5.80340555381">
		<tag k="name" v="Lø" />
		<tag k="place" v="farm" />
		<tag k="ssr:stedsnr" v="852629" />
	</node>
	<node id="-429753" lat="59.6135000015" lon="5.77744166272">
		<tag k="name" v="Gjerdet" />
		<tag k="place" v="farm" />
		<tag k="ssr:stedsnr" v="852414" />
	</node>
	<node id="-429751" lat="59.5509400655" lon="5.70567300896">
		<tag k="alt_name" v="Haugen" />
		<tag k="name" v="Haugland" />
		<tag k="place" v="farm" />
		<tag k="ssr:stedsnr" v="852318" />
	</node>
	<node id="-429750" lat="59.4793750016" lon="6.09964999562">
		<tag k="name" v="Lia" />
		<tag k="place" v="farm" />
		<tag k="ssr:stedsnr" v="852316" />
	</node>
	<node id="-429749" lat="59.4805388884" lon="6.06755833912">
		<tag k="name" v="Lauvåsen" />
		<tag k="place" v="farm" />
		<tag k="ssr:stedsnr" v="852314" />
	</node>
	<node id="-427700" lat="59.6105966315" lon="5.83036753977">
		<tag k="alt_name" v="Ryen" />
		<tag k="fixme" v="consider place=hamlet" />
		<tag k="name" v="Ryo" />
		<tag k="place" v="farm" />
		<tag k="ssr:stedsnr" v="306390" />
	</node>
	<node id="-429747" lat="59.5398499981" lon="5.55012778329">
		<tag k="name" v="Trovåg" />
		<tag k="place" v="farm" />
		<tag k="ssr:stedsnr" v="852307" />
	</node>
	<node id="-429746" lat="59.4927107439" lon="6.12167561493">
		<tag k="fixme" v="consider place=hamlet" />
		<tag k="name" v="Våga" />
		<tag k="place" v="farm" />
		<tag k="ssr:stedsnr" v="852299" />
	</node>
	<node id="-427697" lat="59.5987166649" lon="5.58134166583">
		<tag k="alt_name" v="Alne" />
		<tag k="name" v="Alna" />
		<tag k="place" v="farm" />
		<tag k="ssr:stedsnr" v="306370" />
	</node>
	<node id="-429744" lat="59.4970222229" lon="6.08924444841">
		<tag k="alt_name" v="Glåmestølen" />
		<tag k="historic" v="shieling" />
		<tag k="name" v="Glåmestøl" />
		<tag k="place" v="locality" />
		<tag k="ssr:stedsnr" v="852281" />
	</node>
	<node id="-429742" lat="59.6796000031" lon="5.60207499216">
		<tag k="alt_name" v="Toadalen" />
		<tag k="name" v="Todalen" />
		<tag k="place" v="farm" />
		<tag k="ssr:stedsnr" v="852065" />
	</node>
	<node id="-427693" lat="59.5589610745" lon="5.80440508702">
		<tag k="alt_name" v="Hedland" />
		<tag k="fixme" v="consider place=hamlet" />
		<tag k="name" v="Helland" />
		<tag k="place" v="farm" />
		<tag k="ssr:stedsnr" v="306296" />
	</node>
	<node id="-427691" lat="59.4941500025" lon="6.05097499904">
		<tag k="historic" v="shieling" />
		<tag k="name" v="Vasstøl" />
		<tag k="place" v="locality" />
		<tag k="ssr:stedsnr" v="306283" />
	</node>
	<node id="-427689" lat="59.4944878851" lon="6.14972658201">
		<tag k="alt_name" v="Hustopt" />
		<tag k="fixme" v="consider place=hamlet" />
		<tag k="name" v="Hustoft" />
		<tag k="place" v="farm" />
		<tag k="ssr:stedsnr" v="306276" />
	</node>
	<node id="-429735" lat="59.5474027816" lon="5.70206110695">
		<tag k="name" v="Velde" />
		<tag k="place" v="farm" />
		<tag k="ssr:stedsnr" v="848716" />
	</node>
	<node id="-427684" lat="59.5207037426" lon="5.62816190736">
		<tag k="fixme" v="consider place=hamlet" />
		<tag k="name" v="Tveit" />
		<tag k="place" v="farm" />
		<tag k="ssr:stedsnr" v="306241" />
	</node>
	<node id="-427681" lat="59.5090209573" lon="5.52150568921">
		<tag k="fixme" v="consider place=hamlet" />
		<tag k="name" v="Haga" />
		<tag k="place" v="farm" />
		<tag k="ssr:stedsnr" v="306231" />
	</node>
	<node id="-427680" lat="59.6737916639" lon="5.59485555807">
		<tag k="name" v="Åsen" />
		<tag k="place" v="farm" />
		<tag k="ssr:stedsnr" v="306065" />
	</node>
	<node id="-429726" lat="59.5454722204" lon="5.70924166663">
		<tag k="name" v="Kleivå" />
		<tag k="place" v="farm" />
		<tag k="ssr:stedsnr" v="847678" />
	</node>
	<node id="-427674" lat="59.4796133044" lon="5.70026490914">
		<tag k="fixme" v="consider place=hamlet" />
		<tag k="name" v="Frøland" />
		<tag k="place" v="farm" />
		<tag k="ssr:stedsnr" v="305847" />
	</node>
	<node id="-427672" lat="59.4625478361" lon="5.62595661621">
		<tag k="fixme" v="consider place=hamlet" />
		<tag k="name" v="Hatlastad" />
		<tag k="place" v="farm" />
		<tag k="ssr:stedsnr" v="305830" />
	</node>
	<node id="-429713" lat="59.5280805512" lon="5.96429999865">
		<tag k="alt_name" v="Tongjen" />
		<tag k="name" v="Tangen" />
		<tag k="place" v="farm" />
		<tag k="ssr:stedsnr" v="845551" />
	</node>
	<node id="-427660" lat="59.4795083366" lon="5.66743889182">
		<tag k="name" v="Stølen" />
		<tag k="place" v="farm" />
		<tag k="ssr:stedsnr" v="301985" />
	</node>
	<node id="-427657" lat="59.5462972235" lon="5.84965000771">
		<tag k="name" v="Hauen" />
		<tag k="place" v="farm" />
		<tag k="ssr:stedsnr" v="301802" />
	</node>
	<node id="-428324" lat="59.6091694478" lon="5.56118611393">
		<tag k="name" v="Kvamstø" />
		<tag k="place" v="farm" />
		<tag k="ssr:stedsnr" v="146432" />
	</node>
	<node id="-429690" lat="59.5763611097" lon="5.87643888378">
		<tag k="name" v="Øygarden" />
		<tag k="place" v="farm" />
		<tag k="ssr:stedsnr" v="847865" />
	</node>
	<node id="-429689" lat="59.5191083327" lon="5.79363055145">
		<tag k="name" v="Rabben" />
		<tag k="place" v="farm" />
		<tag k="ssr:stedsnr" v="847859" />
	</node>
	<node id="-429688" lat="59.4473444483" lon="5.74476945112">
		<tag k="name" v="Bakleitet" />
		<tag k="place" v="farm" />
		<tag k="ssr:stedsnr" v="847826" />
	</node>
	<node id="-429687" lat="59.5448055559" lon="5.84483333361">
		<tag k="name" v="Leite" />
		<tag k="place" v="farm" />
		<tag k="ssr:stedsnr" v="847803" />
	</node>
	<node id="-429686" lat="59.4638138896" lon="5.84197500509">
		<tag k="name" v="Kalven" />
		<tag k="place" v="locality" />
		<tag k="ssr:stedsnr" v="842977" />
	</node>
	<node id="-427637" lat="59.4785138903" lon="5.92091943818">
		<tag k="name" v="Lunden" />
		<tag k="place" v="farm" />
		<tag k="ssr:stedsnr" v="56227" />
	</node>
	<node id="-427629" lat="59.4786163008" lon="5.990203459">
		<tag k="fixme" v="consider place=hamlet" />
		<tag k="name" v="Imsland" />
		<tag k="place" v="farm" />
		<tag k="ssr:stedsnr" v="299385" />
	</node>
	<node id="-427626" lat="59.4833222221" lon="5.93390833305">
		<tag k="name" v="Svalestad" />
		<tag k="place" v="farm" />
		<tag k="ssr:stedsnr" v="299269" />
	</node>
	<node id="-427625" lat="59.4756805519" lon="5.9234916649">
		<tag k="name" v="Sagjå" />
		<tag k="place" v="farm" />
		<tag k="ssr:stedsnr" v="299262" />
	</node>
	<node id="-429665" lat="59.507369442" lon="5.53239721961">
		<tag k="name" v="Rotten" />
		<tag k="place" v="farm" />
		<tag k="ssr:stedsnr" v="814704" />
	</node>
	<node id="-429663" lat="59.4599652999" lon="5.73712481344">
		<tag k="fixme" v="consider place=hamlet" />
		<tag k="name" v="Eikanes" />
		<tag k="place" v="farm" />
		<tag k="ssr:stedsnr" v="814510" />
	</node>
	<node id="-427611" lat="59.483863887" lon="5.56057222655">
		<tag k="name" v="Kroalandet" />
		<tag k="place" v="neighbourhood" />
		<tag k="ssr:stedsnr" v="297378" />
	</node>
	<node id="-429654" lat="59.4872305521" lon="5.62320277297">
		<tag k="name" v="Longalandsvika (Skåtavika)" />
		<tag k="place" v="farm" />
		<tag k="ssr:stedsnr" v="812643" />
	</node>
	<node id="-429653" lat="59.5447804069" lon="5.86742224638">
		<tag k="fixme" v="consider place=hamlet" />
		<tag k="name" v="Østbø" />
		<tag k="place" v="farm" />
		<tag k="ssr:stedsnr" v="809956" />
	</node>
	<node id="-429652" lat="59.5489306909" lon="5.84495409036">
		<tag k="fixme" v="consider place=hamlet" />
		<tag k="name" v="Skeie" />
		<tag k="place" v="farm" />
		<tag k="ssr:stedsnr" v="809954" />
	</node>
	<node id="-429651" lat="59.6011305532" lon="5.80230000903">
		<tag k="name" v="Litle Nerheim" />
		<tag k="place" v="farm" />
		<tag k="ssr:stedsnr" v="809481" />
	</node>
	<node id="-429649" lat="59.5100500037" lon="6.02093611738">
		<tag k="name" v="Tømmerflot" />
		<tag k="place" v="isolated_dwelling" />
		<tag k="ssr:stedsnr" v="792930" />
	</node>
	<node id="-429648" lat="59.5234133706" lon="5.95200981107">
		<tag k="fixme" v="consider place=hamlet" />
		<tag k="name" v="Mo" />
		<tag k="place" v="farm" />
		<tag k="ssr:stedsnr" v="792886" />
	</node>
	<node id="-429647" lat="59.5258944474" lon="5.94234999605">
		<tag k="name" v="Espedal" />
		<tag k="place" v="farm" />
		<tag k="ssr:stedsnr" v="792885" />
	</node>
	<node id="-429643" lat="59.5066599112" lon="5.50594538585">
		<tag k="fixme" v="consider place=hamlet" />
		<tag k="name" v="Tosvoll" />
		<tag k="place" v="farm" />
		<tag k="ssr:stedsnr" v="792608" />
	</node>
	<node id="-429640" lat="59.5439144266" lon="5.87489270088">
		<tag k="name" v="Håland" />
		<tag k="place" v="hamlet" />
		<tag k="ssr:stedsnr" v="792594" />
	</node>
	<node id="-429639" lat="59.5534111153" lon="5.96866945013">
		<tag k="alt_name" v="Førlandstølen" />
		<tag k="historic" v="shieling" />
		<tag k="name" v="Førlandsstølen" />
		<tag k="place" v="locality" />
		<tag k="ssr:stedsnr" v="792581" />
	</node>
	<node id="-429637" lat="59.5730499979" lon="6.06191111509">
		<tag k="alt_name" v="Mildjord" />
		<tag k="name" v="Ørekjerven" />
		<tag k="place" v="farm" />
		<tag k="ssr:stedsnr" v="792559" />
	</node>
	<node id="-429631" lat="59.6499999977" lon="5.56234167341">
		<tag k="alt_name" v="Gongsto" />
		<tag k="name" v="Gangstø" />
		<tag k="place" v="farm" />
		<tag k="ssr:stedsnr" v="792491" />
	</node>
	<node id="-429630" lat="59.6520555578" lon="5.65370555029">
		<tag k="name" v="Myrvang" />
		<tag k="place" v="farm" />
		<tag k="ssr:stedsnr" v="792458" />
	</node>
	<node id="-429628" lat="59.6452858463" lon="5.63942432899">
		<tag k="fixme" v="consider place=hamlet" />
		<tag k="name" v="Dalen" />
		<tag k="place" v="farm" />
		<tag k="ssr:stedsnr" v="792446" />
	</node>
	<node id="-427615" lat="59.5609803561" lon="5.87082322503">
		<tag k="fixme" v="consider place=hamlet" />
		<tag k="name" v="Litle Rødne" />
		<tag k="place" v="farm" />
		<tag k="ssr:stedsnr" v="299054" />
	</node>
	<node id="-429624" lat="59.5958916625" lon="5.73249166231">
		<tag k="name" v="Vågen" />
		<tag k="place" v="farm" />
		<tag k="ssr:stedsnr" v="792377" />
	</node>
	<node id="-429623" lat="59.5971111154" lon="5.5942361143">
		<tag k="alt_name" v="Byrkjeland;Birkeland" />
		<tag k="name" v="Børkjeland" />
		<tag k="place" v="farm" />
		<tag k="ssr:stedsnr" v="792365" />
	</node>
	<node id="-429622" lat="59.5874527737" lon="5.80611944372">
		<tag k="alt_name" v="Heggebø" />
		<tag k="name" v="Heggjabø" />
		<tag k="place" v="farm" />
		<tag k="ssr:stedsnr" v="792349" />
	</node>
	<node id="-429618" lat="59.5776999987" lon="5.81421388686">
		<tag k="alt_name" v="Stumo, s;Stumo søndre" />
		<tag k="name" v="Søre Stumo" />
		<tag k="place" v="farm" />
		<tag k="ssr:stedsnr" v="792331" />
	</node>
	<node id="-429617" lat="59.5763916648" lon="5.80726667057">
		<tag k="name" v="Myrabø" />
		<tag k="place" v="farm" />
		<tag k="ssr:stedsnr" v="792330" />
	</node>
	<node id="-429613" lat="59.5766638932" lon="5.82354166549">
		<tag k="alt_name" v="Haugland" />
		<tag k="name" v="Haugaland" />
		<tag k="place" v="farm" />
		<tag k="ssr:stedsnr" v="792313" />
	</node>
	<node id="-429612" lat="59.564610652" lon="5.81270116277">
		<tag k="fixme" v="consider place=hamlet" />
		<tag k="name" v="Stople" />
		<tag k="place" v="farm" />
		<tag k="ssr:stedsnr" v="792307" />
	</node>
	<node id="-429609" lat="59.5082181227" lon="5.48587133457">
		<tag k="fixme" v="consider place=hamlet" />
		<tag k="name" v="Håvik" />
		<tag k="place" v="farm" />
		<tag k="ssr:stedsnr" v="792244" />
	</node>
	<node id="-429608" lat="59.5109000018" lon="5.50599999801">
		<tag k="alt_name" v="Urdhaugen" />
		<tag k="name" v="Urdhaug" />
		<tag k="place" v="farm" />
		<tag k="ssr:stedsnr" v="792240" />
	</node>
	<node id="-429591" lat="59.605280552" lon="5.58460000416">
		<tag k="name" v="Veastad" />
		<tag k="place" v="farm" />
		<tag k="ssr:stedsnr" v="791370" />
	</node>
	<node id="-429588" lat="59.5534250009" lon="5.71212500257">
		<tag k="name" v="Myra" />
		<tag k="place" v="farm" />
		<tag k="ssr:stedsnr" v="791301" />
	</node>
	<node id="-429587" lat="59.4808000003" lon="5.92652499508">
		<tag k="name" v="Vollen" />
		<tag k="place" v="farm" />
		<tag k="ssr:stedsnr" v="791293" />
	</node>
	<node id="-429586" lat="59.4854129984" lon="6.02905552126">
		<tag k="historic" v="shieling" />
		<tag k="name" v="Slettastøl" />
		<tag k="place" v="locality" />
		<tag k="ssr:stedsnr" v="791286" />
	</node>
	<node id="-429566" lat="59.5464583322" lon="5.70128610506">
		<tag k="name" v="Velle" />
		<tag k="place" v="farm" />
		<tag k="ssr:stedsnr" v="787716" />
	</node>
	<node id="-427600" lat="59.6535972188" lon="5.73844166233">
		<tag k="name" v="Hilleren" />
		<tag k="place" v="isolated_dwelling" />
		<tag k="ssr:stedsnr" v="286810" />
	</node>
	<node id="-428282" lat="59.5976666704" lon="5.74793055411">
		<tag k="alt_name" v="Gjerdavik;Gjerdevik" />
		<tag k="name" v="Gjerdevika" />
		<tag k="place" v="farm" />
		<tag k="ssr:stedsnr" v="124331" />
	</node>
	<node id="-429523" lat="59.5300722227" lon="5.97386667036">
		<tag k="name" v="Blikra" />
		<tag k="place" v="farm" />
		<tag k="ssr:stedsnr" v="784532" />
	</node>
	<node id="-429513" lat="59.5010805579" lon="5.90046111939">
		<tag k="name" v="Kalvhagen" />
		<tag k="place" v="farm" />
		<tag k="ssr:stedsnr" v="784228" />
	</node>
	<node id="-429496" lat="59.6091648044" lon="5.83121084863">
		<tag k="alt_name" v="Heggen" />
		<tag k="fixme" v="consider place=hamlet" />
		<tag k="name" v="Heggjo" />
		<tag k="place" v="farm" />
		<tag k="ssr:stedsnr" v="772978" />
	</node>
	<node id="-429485" lat="59.498036109" lon="5.90593610712">
		<tag k="alt_name" v="Vikedal" />
		<tag k="name" v="Vikadal" />
		<tag k="place" v="village" />
		<tag k="ssr:stedsnr" v="753997" />
	</node>
	<node id="-429484" lat="59.6168777764" lon="5.56038056027">
		<tag k="name" v="Kvamshamn" />
		<tag k="place" v="farm" />
		<tag k="ssr:stedsnr" v="753415" />
	</node>
	<node id="-429483" lat="59.5154091446" lon="5.51705418322">
		<tag k="fixme" v="consider place=hamlet" />
		<tag k="name" v="Dalen" />
		<tag k="place" v="farm" />
		<tag k="ssr:stedsnr" v="751720" />
	</node>
	<node id="-429482" lat="59.5044444489" lon="5.54950278553">
		<tag k="name" v="Nuasæter" />
		<tag k="place" v="farm" />
		<tag k="ssr:stedsnr" v="751715" />
	</node>
	<node id="-429473" lat="59.5102166642" lon="5.91371388895">
		<tag k="alt_name" v="Bjørkli" />
		<tag k="name" v="Bjørkeli" />
		<tag k="place" v="farm" />
		<tag k="ssr:stedsnr" v="731878" />
	</node>
	<node id="-429466" lat="59.6387184795" lon="5.79595820105">
		<tag k="alt_name" v="Dregenes" />
		<tag k="fixme" v="consider place=hamlet" />
		<tag k="name" v="Dreganes" />
		<tag k="place" v="farm" />
		<tag k="ssr:stedsnr" v="731422" />
	</node>
	<node id="-429458" lat="59.603836107" lon="5.74232778222">
		<tag k="name" v="Ørland" />
		<tag k="place" v="farm" />
		<tag k="ssr:stedsnr" v="731360" />
	</node>
	<node id="-429457" lat="59.606510925" lon="5.75215365835">
		<tag k="name" v="Berge" />
		<tag k="place" v="hamlet" />
		<tag k="ssr:stedsnr" v="731356" />
	</node>
	<node id="-429447" lat="59.5737925846" lon="5.81595326399">
		<tag k="alt_name" v="Håre;Håro" />
		<tag k="fixme" v="consider place=hamlet" />
		<tag k="name" v="Hårå" />
		<tag k="place" v="farm" />
		<tag k="ssr:stedsnr" v="731287" />
	</node>
	<node id="-429442" lat="59.5529805537" lon="5.6925333299">
		<tag k="name" v="Sanddal" />
		<tag k="place" v="farm" />
		<tag k="ssr:stedsnr" v="731259" />
	</node>
	<node id="-429440" lat="59.4874144329" lon="6.15287113825">
		<tag k="fixme" v="consider place=hamlet" />
		<tag k="name" v="Skipavåg" />
		<tag k="place" v="farm" />
		<tag k="ssr:stedsnr" v="731257" />
	</node>
	<node id="-429439" lat="59.5533396959" lon="5.81058384467">
		<tag k="fixme" v="consider place=hamlet" />
		<tag k="name" v="Humletveit" />
		<tag k="place" v="farm" />
		<tag k="ssr:stedsnr" v="731253" />
	</node>
	<node id="-429437" lat="59.5395611801" lon="5.69429563361">
		<tag k="fixme" v="consider place=hamlet" />
		<tag k="name" v="Sjurseikje" />
		<tag k="place" v="farm" />
		<tag k="ssr:stedsnr" v="731242" />
	</node>
	<node id="-429431" lat="59.5264068924" lon="5.63851543472">
		<tag k="alt_name" v="Austheim, øvre" />
		<tag k="fixme" v="consider place=hamlet" />
		<tag k="name" v="Øvre Austreim" />
		<tag k="old_name" v="Austheim" />
		<tag k="place" v="farm" />
		<tag k="ssr:stedsnr" v="731213" />
	</node>
	<node id="-429430" lat="59.5250956657" lon="5.6628171997">
		<tag k="fixme" v="consider place=hamlet" />
		<tag k="name" v="Elleflåt" />
		<tag k="place" v="farm" />
		<tag k="ssr:stedsnr" v="731212" />
	</node>
	<node id="-429429" lat="59.5280222257" lon="5.67382777131">
		<tag k="alt_name" v="Liå" />
		<tag k="name" v="Lia" />
		<tag k="place" v="farm" />
		<tag k="ssr:stedsnr" v="731208" />
	</node>
	<node id="-429425" lat="59.658319441" lon="5.57305833847">
		<tag k="alt_name" v="Torrdalen" />
		<tag k="name" v="Toredalen" />
		<tag k="place" v="farm" />
		<tag k="ssr:stedsnr" v="731020" />
	</node>
	<node id="-429423" lat="59.4803825345" lon="5.67136068299">
		<tag k="fixme" v="consider place=hamlet" />
		<tag k="name" v="Tørsdal" />
		<tag k="place" v="farm" />
		<tag k="ssr:stedsnr" v="730855" />
	</node>
	<node id="-429421" lat="59.4701222201" lon="5.68104445132">
		<tag k="alt_name" v="Tongjane" />
		<tag k="name" v="Tongane" />
		<tag k="place" v="farm" />
		<tag k="ssr:stedsnr" v="730843" />
	</node>
	<node id="-429417" lat="59.4823833465" lon="6.10379403765">
		<tag k="fixme" v="consider place=hamlet" />
		<tag k="name" v="Kråkedal" />
		<tag k="place" v="farm" />
		<tag k="ssr:stedsnr" v="730311" />
	</node>
	<node id="-427866" lat="59.6321555557" lon="5.65715278082">
		<tag k="alt_name" v="Aurdal" />
		<tag k="name" v="Tunge" />
		<tag k="place" v="locality" />
		<tag k="ssr:stedsnr" v="367379" />
	</node>
	<node id="-429413" lat="59.4803535093" lon="5.85024206585">
		<tag k="alt_name" v="Sandvik" />
		<tag k="fixme" v="consider place=hamlet" />
		<tag k="name" v="Sandvika" />
		<tag k="place" v="farm" />
		<tag k="ssr:stedsnr" v="730285" />
	</node>
	<node id="-429410" lat="59.4957372439" lon="6.00586595771">
		<tag k="fixme" v="consider place=hamlet" />
		<tag k="name" v="Hustveit" />
		<tag k="place" v="farm" />
		<tag k="ssr:stedsnr" v="730274" />
	</node>
	<node id="-429402" lat="59.5527333311" lon="5.70917222215">
		<tag k="name" v="Velle" />
		<tag k="place" v="farm" />
		<tag k="ssr:stedsnr" v="727712" />
	</node>
	<node id="-429401" lat="59.4766055529" lon="5.68365833743">
		<tag k="name" v="Haugen" />
		<tag k="place" v="farm" />
		<tag k="ssr:stedsnr" v="726972" />
	</node>
	<node id="-429394" lat="59.5050930086" lon="5.92218570514">
		<tag k="name" v="Hallingstad" />
		<tag k="place" v="hamlet" />
		<tag k="ssr:stedsnr" v="726338" />
	</node>
	<node id="-429393" lat="59.5506203277" lon="5.90088624112">
		<tag k="fixme" v="consider place=hamlet" />
		<tag k="name" v="Haukakvam" />
		<tag k="place" v="farm" />
		<tag k="ssr:stedsnr" v="726240" />
	</node>
	<node id="-429376" lat="59.518772223" lon="5.93051111693">
		<tag k="name" v="Bakkjen" />
		<tag k="place" v="farm" />
		<tag k="ssr:stedsnr" v="725156" />
	</node>
	<node id="-427694" lat="59.4776749956" lon="6.05632500123">
		<tag k="alt_name" v="Kjøylå" />
		<tag k="name" v="Køyla" />
		<tag k="place" v="farm" />
		<tag k="ssr:stedsnr" v="306301" />
	</node>
	<node id="-427836" lat="59.4506560126" lon="5.805918492">
		<tag k="fixme" v="consider place=hamlet" />
		<tag k="name" v="Nising" />
		<tag k="place" v="farm" />
		<tag k="ssr:stedsnr" v="366753" />
	</node>
	<node id="-429363" lat="59.5338444464" lon="5.97450277901">
		<tag k="name" v="Underbakka" />
		<tag k="place" v="farm" />
		<tag k="ssr:stedsnr" v="724020" />
	</node>
	<node id="-429362" lat="59.5302305527" lon="5.69282500256">
		<tag k="name" v="Knapphus" />
		<tag k="place" v="quarter" />
		<tag k="ssr:stedsnr" v="723859" />
	</node>
	<node id="-429354" lat="59.4762972181" lon="5.73177222584">
		<tag k="name" v="Nausthaugen" />
		<tag k="place" v="farm" />
		<tag k="ssr:stedsnr" v="723124" />
	</node>
	<node id="-429345" lat="59.6064194413" lon="5.74541389208">
		<tag k="name" v="Bergsvåg" />
		<tag k="place" v="farm" />
		<tag k="ssr:stedsnr" v="711977" />
	</node>
	<node id="-429344" lat="59.4806555581" lon="6.1469805536">
		<tag k="name" v="Løken" />
		<tag k="place" v="farm" />
		<tag k="ssr:stedsnr" v="708558" />
	</node>
	<node id="-429343" lat="59.5486355778" lon="5.64347674747">
		<tag k="name" v="Langåsdalen" />
		<tag k="place" v="locality" />
		<tag k="ssr:stedsnr" v="707815" />
	</node>
	<node id="-429337" lat="59.4525138906" lon="5.52557500587">
		<tag k="name" v="Fosternes" />
		<tag k="place" v="farm" />
		<tag k="ssr:stedsnr" v="691789" />
	</node>
	<node id="-429335" lat="59.5141805531" lon="5.50997777004">
		<tag k="fixme" v="consider place=hamlet" />
		<tag k="name" v="Haganes" />
		<tag k="place" v="farm" />
		<tag k="ssr:stedsnr" v="690745" />
	</node>
	<node id="-429326" lat="59.5457083301" lon="5.86087778216">
		<tag k="name" v="Bala" />
		<tag k="place" v="farm" />
		<tag k="ssr:stedsnr" v="688974" />
	</node>
	<node id="-429325" lat="59.5938666705" lon="5.8071361107">
		<tag k="name" v="Store Nerheim" />
		<tag k="place" v="farm" />
		<tag k="ssr:stedsnr" v="688466" />
	</node>
	<node id="-429322" lat="59.5008500018" lon="5.57843332673">
		<tag k="alt_name" v="Isvika" />
		<tag k="name" v="Isvik" />
		<tag k="place" v="hamlet" />
		<tag k="ssr:stedsnr" v="671665" />
	</node>
	<node id="-429321" lat="59.6520499989" lon="5.57893055508">
		<tag k="name" v="Tindeland" />
		<tag k="place" v="farm" />
		<tag k="ssr:stedsnr" v="671503" />
	</node>
	<node id="-429320" lat="59.6543083333" lon="5.70207499389">
		<tag k="alt_name" v="Lia, vestre;Lii;Lien vestre" />
		<tag k="name" v="Vestre Lia" />
		<tag k="place" v="farm" />
		<tag k="ssr:stedsnr" v="671473" />
	</node>
	<node id="-429315" lat="59.6090805583" lon="5.5827888845">
		<tag k="name" v="Håland" />
		<tag k="place" v="farm" />
		<tag k="ssr:stedsnr" v="671396" />
	</node>
	<node id="-429313" lat="59.5697943221" lon="5.69986651825">
		<tag k="alt_name" v="Eikjeland" />
		<tag k="fixme" v="consider place=hamlet" />
		<tag k="name" v="Eikeland" />
		<tag k="place" v="farm" />
		<tag k="ssr:stedsnr" v="671332" />
	</node>
	<node id="-429311" lat="59.5038055509" lon="6.07304999172">
		<tag k="historic" v="shieling" />
		<tag k="name" v="Myrstølen" />
		<tag k="place" v="locality" />
		<tag k="ssr:stedsnr" v="670940" />
	</node>
	<node id="-429309" lat="59.5223229943" lon="5.93782015312">
		<tag k="alt_name" v="Vikadal, øvre;Øvre Vikedal" />
		<tag k="fixme" v="consider place=hamlet" />
		<tag k="name" v="Øvre Vikadal" />
		<tag k="place" v="farm" />
		<tag k="ssr:stedsnr" v="670890" />
	</node>
	<node id="-429307" lat="59.4851500004" lon="5.55478610548">
		<tag k="alt_name" v="Kronå" />
		<tag k="name" v="Krona" />
		<tag k="place" v="farm" />
		<tag k="ssr:stedsnr" v="670869" />
	</node>
	<node id="-429294" lat="59.6053253124" lon="5.85785304875">
		<tag k="fixme" v="consider place=hamlet" />
		<tag k="name" v="Hustveit" />
		<tag k="place" v="farm" />
		<tag k="ssr:stedsnr" v="670513" />
	</node>
	<node id="-429291" lat="59.586964144" lon="5.57615389158">
		<tag k="name" v="Dommasnes" />
		<tag k="place" v="hamlet" />
		<tag k="ssr:stedsnr" v="670371" />
	</node>
	<node id="-429290" lat="59.5833611091" lon="5.81818611616">
		<tag k="name" v="Klungland" />
		<tag k="place" v="farm" />
		<tag k="ssr:stedsnr" v="670363" />
	</node>
	<node id="-429289" lat="59.4817116157" lon="6.05376053176">
		<tag k="alt_name" v="Longaland" />
		<tag k="fixme" v="consider place=hamlet" />
		<tag k="name" v="Langaland" />
		<tag k="place" v="farm" />
		<tag k="ssr:stedsnr" v="670297" />
	</node>
	<node id="-429288" lat="59.4823216612" lon="5.97172644985">
		<tag k="fixme" v="consider place=hamlet" />
		<tag k="name" v="Bjortveit" />
		<tag k="place" v="farm" />
		<tag k="ssr:stedsnr" v="670296" />
	</node>
	<node id="-429287" lat="59.5475029015" lon="5.70377466809">
		<tag k="fixme" v="consider place=hamlet" />
		<tag k="name" v="Velle" />
		<tag k="place" v="farm" />
		<tag k="ssr:stedsnr" v="670291" />
	</node>
	<node id="-429285" lat="59.4838638887" lon="5.99003610652">
		<tag k="alt_name" v="Øvregård" />
		<tag k="name" v="Øydgarden" />
		<tag k="place" v="farm" />
		<tag k="ssr:stedsnr" v="670286" />
	</node>
	<node id="-429280" lat="59.5226638898" lon="5.69397499701">
		<tag k="name" v="Røyrvik" />
		<tag k="place" v="farm" />
		<tag k="ssr:stedsnr" v="670254" />
	</node>
	<node id="-429279" lat="59.5258756431" lon="5.82276969775">
		<tag k="alt_name" v="Årakebø" />
		<tag k="fixme" v="consider place=hamlet" />
		<tag k="name" v="Årak" />
		<tag k="place" v="farm" />
		<tag k="ssr:stedsnr" v="670248" />
	</node>
	<node id="-429274" lat="59.6650088182" lon="5.65014246805">
		<tag k="fixme" v="consider place=hamlet" />
		<tag k="name" v="Innbjoa" />
		<tag k="place" v="farm" />
		<tag k="ssr:stedsnr" v="670003" />
	</node>
	<node id="-429273" lat="59.5112879333" lon="5.53018428993">
		<tag k="alt_name" v="Anndal" />
		<tag k="fixme" v="consider place=hamlet" />
		<tag k="name" v="Alnedal" />
		<tag k="place" v="farm" />
		<tag k="ssr:stedsnr" v="671256" />
	</node>
	<node id="-429267" lat="59.4715366844" lon="5.61715301418">
		<tag k="alt_name" v="Havn" />
		<tag k="fixme" v="consider place=hamlet" />
		<tag k="name" v="Hamn" />
		<tag k="place" v="farm" />
		<tag k="ssr:stedsnr" v="669820" />
	</node>
	<node id="-429257" lat="59.4768138932" lon="5.62863055926">
		<tag k="name" v="Søre Longaland" />
		<tag k="place" v="farm" />
		<tag k="ssr:stedsnr" v="667045" />
	</node>
	<node id="-429254" lat="59.4869499968" lon="5.9339500069">
		<tag k="name" v="Bakkedal" />
		<tag k="place" v="farm" />
		<tag k="ssr:stedsnr" v="669259" />
	</node>
	<node id="-429251" lat="59.5645972217" lon="5.59729443698">
		<tag k="name" v="Ulvebnestølen" />
		<tag k="place" v="locality" />
		<tag k="ssr:stedsnr" v="666938" />
	</node>
	<node id="-429242" lat="59.5547444412" lon="5.67784999572">
		<tag k="name" v="Plasset" />
		<tag k="place" v="farm" />
		<tag k="ssr:stedsnr" v="664990" />
	</node>
	<node id="-429221" lat="59.5290916645" lon="5.68660277044">
		<tag k="name" v="Knapphus" />
		<tag k="place" v="farm" />
		<tag k="ssr:stedsnr" v="663572" />
	</node>
	<node id="-429215" lat="59.5303305599" lon="5.96287778032">
		<tag k="name" v="Lunden" />
		<tag k="place" v="farm" />
		<tag k="ssr:stedsnr" v="663482" />
	</node>
	<node id="-429207" lat="59.4943939642" lon="5.90299773769">
		<tag k="fixme" v="consider place=hamlet" />
		<tag k="name" v="Holte" />
		<tag k="place" v="farm" />
		<tag k="ssr:stedsnr" v="663231" />
	</node>
	<node id="-429204" lat="59.5394166678" lon="5.95522777186">
		<tag k="name" v="Hauen" />
		<tag k="place" v="farm" />
		<tag k="ssr:stedsnr" v="663105" />
	</node>
	<node id="-429200" lat="59.5002203455" lon="5.72738584827">
		<tag k="fixme" v="consider place=hamlet" />
		<tag k="name" v="Lyngnes" />
		<tag k="place" v="farm" />
		<tag k="ssr:stedsnr" v="663051" />
	</node>
	<node id="-429196" lat="59.6775499974" lon="5.61793888515">
		<tag k="name" v="Utbjoa" />
		<tag k="place" v="quarter" />
		<tag k="ssr:stedsnr" v="662882" />
	</node>
	<node id="-428226" lat="59.5261333351" lon="5.97220556066">
		<tag k="name" v="Øvrabø" />
		<tag k="place" v="farm" />
		<tag k="ssr:stedsnr" v="117518" />
	</node>
	<node id="-429188" lat="59.457669447" lon="5.62691944053">
		<tag k="name" v="Øvre Bakkane" />
		<tag k="place" v="farm" />
		<tag k="ssr:stedsnr" v="660983" />
	</node>
	<node id="-429186" lat="59.4421194412" lon="5.74147777678">
		<tag k="name" v="Stølane" />
		<tag k="place" v="farm" />
		<tag k="ssr:stedsnr" v="659948" />
	</node>
	<node id="-429181" lat="59.6384611146" lon="5.88454444427">
		<tag k="name" v="Ve" />
		<tag k="place" v="farm" />
		<tag k="ssr:stedsnr" v="650996" />
	</node>
	<node id="-429179" lat="59.5671250008" lon="6.10021944317">
		<tag k="alt_name" v="Sjurstøl" />
		<tag k="historic" v="shieling" />
		<tag k="name" v="Sjurdsstølen" />
		<tag k="place" v="locality" />
		<tag k="ssr:stedsnr" v="731547" />
	</node>
	<node id="-429176" lat="59.5769874153" lon="6.13574011366">
		<tag k="alt_name" v="Bjørndalen, s;Søre Bjønndalen" />
		<tag k="historic" v="shieling" />
		<tag k="name" v="Søre Bjørndalen" />
		<tag k="place" v="locality" />
		<tag k="ssr:stedsnr" v="731531" />
	</node>
	<node id="-429169" lat="59.4561361142" lon="5.62463611132">
		<tag k="alt_name" v="Nedre Bakkane" />
		<tag k="name" v="Bakkane" />
		<tag k="place" v="farm" />
		<tag k="ssr:stedsnr" v="631106" />
	</node>
	<node id="-429162" lat="59.5163545798" lon="5.62479551076">
		<tag k="alt_name" v="Soleim" />
		<tag k="fixme" v="consider place=hamlet" />
		<tag k="name" v="Solheim" />
		<tag k="place" v="farm" />
		<tag k="ssr:stedsnr" v="610662" />
	</node>
	<node id="-429160" lat="59.5120000014" lon="5.62930000445">
		<tag k="name" v="Tunge" />
		<tag k="place" v="farm" />
		<tag k="ssr:stedsnr" v="610658" />
	</node>
	<node id="-429159" lat="59.5018499957" lon="5.5231611058">
		<tag k="name" v="Ringen" />
		<tag k="place" v="farm" />
		<tag k="ssr:stedsnr" v="610644" />
	</node>
	<node id="-429152" lat="59.5594579555" lon="5.72234947953">
		<tag k="fixme" v="consider place=hamlet" />
		<tag k="name" v="Aurdal" />
		<tag k="place" v="farm" />
		<tag k="ssr:stedsnr" v="610357" />
	</node>
	<node id="-429149" lat="59.5323318515" lon="6.00419424287">
		<tag k="fixme" v="consider place=hamlet" />
		<tag k="name" v="Ulvavoll" />
		<tag k="place" v="farm" />
		<tag k="ssr:stedsnr" v="609894" />
	</node>
	<node id="-429146" lat="59.5157216617" lon="5.92716615498">
		<tag k="fixme" v="consider place=hamlet" />
		<tag k="name" v="Ørnes" />
		<tag k="place" v="farm" />
		<tag k="ssr:stedsnr" v="609870" />
	</node>
	<node id="-429142" lat="59.4519027818" lon="5.4985861129">
		<tag k="name" v="Døvik" />
		<tag k="place" v="farm" />
		<tag k="ssr:stedsnr" v="609763" />
	</node>
	<node id="-429141" lat="59.5339472235" lon="5.87125556298">
		<tag k="name" v="Vonheim" />
		<tag k="place" v="quarter" />
		<tag k="ssr:stedsnr" v="609582" />
	</node>
	<node id="-429134" lat="59.621180281" lon="5.85797525864">
		<tag k="fixme" v="consider place=hamlet" />
		<tag k="name" v="Hiksdal" />
		<tag k="place" v="farm" />
		<tag k="ssr:stedsnr" v="609496" />
	</node>
	<node id="-429133" lat="59.6624166694" lon="5.69155000165">
		<tag k="alt_name" v="Brandø" />
		<tag k="name" v="Brandøya" />
		<tag k="place" v="isolated_dwelling" />
		<tag k="ssr:stedsnr" v="609464" />
	</node>
	<node id="-429131" lat="59.6285802471" lon="5.59005438164">
		<tag k="fixme" v="consider place=hamlet" />
		<tag k="name" v="Skatland" />
		<tag k="place" v="farm" />
		<tag k="ssr:stedsnr" v="609430" />
	</node>
	<node id="-429128" lat="59.5487500013" lon="5.56892500053">
		<tag k="alt_name" v="Øvrebø" />
		<tag k="name" v="Øvrabø" />
		<tag k="place" v="farm" />
		<tag k="ssr:stedsnr" v="609315" />
	</node>
	<node id="-429127" lat="59.5476777751" lon="5.56527777845">
		<tag k="alt_name" v="Svendsbø" />
		<tag k="name" v="Svensbø" />
		<tag k="place" v="farm" />
		<tag k="ssr:stedsnr" v="609312" />
	</node>
	<node id="-429125" lat="59.4841027744" lon="6.08058611256">
		<tag k="alt_name" v="Annfinnstræ" />
		<tag k="name" v="Arnfinnstrædet" />
		<tag k="place" v="farm" />
		<tag k="ssr:stedsnr" v="609303" />
	</node>
	<node id="-429121" lat="59.5437861087" lon="5.58896944212">
		<tag k="name" v="Bjordal" />
		<tag k="place" v="farm" />
		<tag k="ssr:stedsnr" v="609290" />
	</node>
	<node id="-429737" lat="59.4658833346" lon="5.62477500681">
		<tag k="name" v="Plasset" />
		<tag k="place" v="farm" />
		<tag k="ssr:stedsnr" v="849062" />
	</node>
	<node id="-429117" lat="59.4909222184" lon="5.99613888566">
		<tag k="name" v="Haugen" />
		<tag k="place" v="farm" />
		<tag k="ssr:stedsnr" v="609271" />
	</node>
	<node id="-429116" lat="59.5335000008" lon="5.69166388453">
		<tag k="name" v="Lauvvik" />
		<tag k="place" v="farm" />
		<tag k="ssr:stedsnr" v="609268" />
	</node>
	<node id="-429111" lat="59.6726040316" lon="5.5977204517">
		<tag k="fixme" v="consider place=hamlet" />
		<tag k="name" v="Åsbø" />
		<tag k="place" v="farm" />
		<tag k="ssr:stedsnr" v="609050" />
	</node>
	<node id="-429110" lat="59.4902027737" lon="5.75485834053">
		<tag k="name" v="Haugen" />
		<tag k="place" v="farm" />
		<tag k="ssr:stedsnr" v="608885" />
	</node>
	<node id="-429109" lat="59.494245524" lon="5.76884698699">
		<tag k="fixme" v="consider place=hamlet" />
		<tag k="name" v="Kolltveit" />
		<tag k="place" v="farm" />
		<tag k="ssr:stedsnr" v="608884" />
	</node>
	<node id="-429105" lat="59.4916059125" lon="5.73422961847">
		<tag k="fixme" v="consider place=hamlet" />
		<tag k="name" v="Vatne" />
		<tag k="place" v="farm" />
		<tag k="ssr:stedsnr" v="608875" />
	</node>
	<node id="-429104" lat="59.4799655368" lon="5.73049963047">
		<tag k="fixme" v="consider place=hamlet" />
		<tag k="name" v="Åm" />
		<tag k="place" v="farm" />
		<tag k="ssr:stedsnr" v="608867" />
	</node>
	<node id="-429103" lat="59.4706936387" lon="5.52533201395">
		<tag k="fixme" v="consider place=hamlet" />
		<tag k="name" v="Ersland" />
		<tag k="place" v="farm" />
		<tag k="ssr:stedsnr" v="608843" />
	</node>
	<node id="-429099" lat="59.4970805577" lon="5.88160000249">
		<tag k="name" v="Solberg" />
		<tag k="place" v="farm" />
		<tag k="ssr:stedsnr" v="608256" />
	</node>
	<node id="-429085" lat="59.5457805519" lon="5.8843722273">
		<tag k="name" v="Myrå" />
		<tag k="place" v="locality" />
		<tag k="ssr:stedsnr" v="604225" />
	</node>
	<node id="-429083" lat="59.5297222224" lon="5.87078055414">
		<tag k="name" v="Grautåna" />
		<tag k="place" v="farm" />
		<tag k="ssr:stedsnr" v="604202" />
	</node>
	<node id="-429079" lat="59.5856999977" lon="5.71183055628">
		<tag k="name" v="Pikhaug" />
		<tag k="place" v="farm" />
		<tag k="ssr:stedsnr" v="604074" />
	</node>
	<node id="-429074" lat="59.5636138893" lon="5.70052777013">
		<tag k="name" v="Sørastykket" />
		<tag k="place" v="farm" />
		<tag k="ssr:stedsnr" v="603984" />
	</node>
	<node id="-427864" lat="59.6345055514" lon="5.64532500771">
		<tag k="name" v="Lundagarden" />
		<tag k="place" v="farm" />
		<tag k="ssr:stedsnr" v="367373" />
	</node>
	<node id="-429059" lat="59.5607416634" lon="6.03147499331">
		<tag k="alt_name" v="Hajen" />
		<tag k="name" v="Hagen" />
		<tag k="place" v="farm" />
		<tag k="ssr:stedsnr" v="603272" />
	</node>
	<node id="-427861" lat="59.6130583303" lon="5.57637221459">
		<tag k="alt_name" v="Kvamme" />
		<tag k="name" v="Kvame" />
		<tag k="place" v="farm" />
		<tag k="ssr:stedsnr" v="367348" />
	</node>
	<node id="-428202" lat="59.5329055591" lon="5.95689444283">
		<tag k="name" v="Løkjen" />
		<tag k="place" v="farm" />
		<tag k="ssr:stedsnr" v="117021" />
	</node>
	<node id="-429044" lat="59.5044111114" lon="5.91523610872">
		<tag k="name" v="Fagerlund" />
		<tag k="place" v="farm" />
		<tag k="ssr:stedsnr" v="602240" />
	</node>
	<node id="-429040" lat="59.5876138889" lon="5.93038332701">
		<tag k="name" v="Huldrebu" />
		<tag k="place" v="isolated_dwelling" />
		<tag k="ssr:stedsnr" v="602216" />
	</node>
	<node id="-429024" lat="59.4929666646" lon="5.75670278195">
		<tag k="name" v="Kolltveit" />
		<tag k="place" v="farm" />
		<tag k="ssr:stedsnr" v="577751" />
	</node>
	<node id="-429022" lat="59.5101999991" lon="5.5121222306">
		<tag k="name" v="Rabben" />
		<tag k="place" v="farm" />
		<tag k="ssr:stedsnr" v="571660" />
	</node>
	<node id="-429009" lat="59.4790777771" lon="6.12988610342">
		<tag k="name" v="Vågasaga" />
		<tag k="place" v="locality" />
		<tag k="ssr:stedsnr" v="566286" />
	</node>
	<node id="-429008" lat="59.5070757035" lon="6.01299085333">
		<tag k="alt_name" v="Byrkjetveit" />
		<tag k="fixme" v="consider place=hamlet" />
		<tag k="name" v="Børkjetveit" />
		<tag k="place" v="farm" />
		<tag k="ssr:stedsnr" v="549937" />
	</node>
	<node id="-429006" lat="59.522888959" lon="5.94232828536">
		<tag k="alt_name" v="Ospevoll, øvre;Øvre Espevoll" />
		<tag k="fixme" v="consider place=hamlet" />
		<tag k="name" v="Øvre Ospevoll" />
		<tag k="place" v="farm" />
		<tag k="ssr:stedsnr" v="549892" />
	</node>
	<node id="-429005" lat="59.5128834849" lon="6.01851076608">
		<tag k="fixme" v="consider place=hamlet" />
		<tag k="name" v="Brattaland" />
		<tag k="place" v="farm" />
		<tag k="ssr:stedsnr" v="549881" />
	</node>
	<node id="-429002" lat="59.5406555555" lon="5.87181944975">
		<tag k="name" v="Sandeidsjøen" />
		<tag k="place" v="quarter" />
		<tag k="ssr:stedsnr" v="549590" />
	</node>
	<node id="-429001" lat="59.5483888891" lon="5.95013055959">
		<tag k="historic" v="shieling" />
		<tag k="name" v="Eikelandsstølen" />
		<tag k="place" v="locality" />
		<tag k="ssr:stedsnr" v="549580" />
	</node>
	<node id="-429000" lat="59.6244888871" lon="5.88624444484">
		<tag k="name" v="Fikse" />
		<tag k="place" v="farm" />
		<tag k="ssr:stedsnr" v="549499" />
	</node>
	<node id="-428998" lat="59.6383249991" lon="5.570211107">
		<tag k="name" v="Eidet" />
		<tag k="place" v="farm" />
		<tag k="ssr:stedsnr" v="549430" />
	</node>
	<node id="-428996" lat="59.6338750021" lon="5.65896111293">
		<tag k="name" v="Dalstveit" />
		<tag k="place" v="farm" />
		<tag k="ssr:stedsnr" v="549423" />
	</node>
	<node id="-428995" lat="59.6265805533" lon="5.59181667044">
		<tag k="alt_name" v="Bjørkhaug" />
		<tag k="name" v="Bjørkehaugen" />
		<tag k="place" v="farm" />
		<tag k="ssr:stedsnr" v="549410" />
	</node>
	<node id="-428994" lat="59.6225666636" lon="5.78530000539">
		<tag k="alt_name" v="Ulvenes" />
		<tag k="name" v="Ulvanes" />
		<tag k="place" v="farm" />
		<tag k="ssr:stedsnr" v="549406" />
	</node>
	<node id="-428992" lat="59.5950111147" lon="5.71954999421">
		<tag k="name" v="Hetland" />
		<tag k="place" v="farm" />
		<tag k="ssr:stedsnr" v="549384" />
	</node>
	<node id="-428988" lat="59.5558916634" lon="5.68379166395">
		<tag k="alt_name" v="Byrkjeland" />
		<tag k="name" v="Børkjeland" />
		<tag k="place" v="farm" />
		<tag k="ssr:stedsnr" v="549324" />
	</node>
	<node id="-427850" lat="59.5594638892" lon="5.70913333992">
		<tag k="alt_name" v="Nedre Aurdal" />
		<tag k="loc_name" v="Tunge" />
		<tag k="name" v="Aurdal" />
		<tag k="place" v="farm" />
		<tag k="ssr:stedsnr" v="367267" />
	</node>
	<node id="-428984" lat="59.5227266592" lon="5.64334520445">
		<tag k="alt_name" v="Austheim, nedre" />
		<tag k="fixme" v="consider place=hamlet" />
		<tag k="name" v="Nedre Austreim" />
		<tag k="place" v="farm" />
		<tag k="ssr:stedsnr" v="549263" />
	</node>
	<node id="-428982" lat="59.6775590911" lon="5.60666946358">
		<tag k="fixme" v="consider place=hamlet" />
		<tag k="name" v="Utbjoa" />
		<tag k="place" v="farm" />
		<tag k="ssr:stedsnr" v="549067" />
	</node>
	<node id="-428980" lat="59.6611361134" lon="5.65549999516">
		<tag k="name" v="Nygard" />
		<tag k="place" v="farm" />
		<tag k="ssr:stedsnr" v="549032" />
	</node>
	<node id="-428975" lat="59.4877480604" lon="5.73494093595">
		<tag k="fixme" v="consider place=hamlet" />
		<tag k="name" v="Eide" />
		<tag k="place" v="farm" />
		<tag k="ssr:stedsnr" v="548845" />
	</node>
	<node id="-428973" lat="59.4798420581" lon="5.80527685247">
		<tag k="fixme" v="consider place=hamlet" />
		<tag k="name" v="Stokkadal" />
		<tag k="place" v="farm" />
		<tag k="ssr:stedsnr" v="548837" />
	</node>
	<node id="-428969" lat="59.4713666638" lon="5.69144166467">
		<tag k="name" v="Lunde" />
		<tag k="place" v="farm" />
		<tag k="ssr:stedsnr" v="548813" />
	</node>
	<node id="-428966" lat="59.4759724069" lon="5.79309470981">
		<tag k="fixme" v="consider place=hamlet" />
		<tag k="name" v="Haraldstveit" />
		<tag k="place" v="farm" />
		<tag k="ssr:stedsnr" v="548799" />
	</node>
	<node id="-428965" lat="59.4516000003" lon="5.50926110736">
		<tag k="alt_name" v="Breivik" />
		<tag k="name" v="Breidvik" />
		<tag k="place" v="farm" />
		<tag k="ssr:stedsnr" v="548788" />
	</node>
	<node id="-428961" lat="59.4549356258" lon="5.72687878966">
		<tag k="alt_name" v="Øygarden;Øvretveit" />
		<tag k="fixme" v="consider place=hamlet" />
		<tag k="name" v="Øvratveit" />
		<tag k="place" v="farm" />
		<tag k="ssr:stedsnr" v="548751" />
	</node>
	<node id="-428959" lat="59.4780174224" lon="6.09584051737">
		<tag k="fixme" v="consider place=hamlet" />
		<tag k="name" v="Frøvika" />
		<tag k="place" v="farm" />
		<tag k="ssr:stedsnr" v="548330" />
	</node>
	<node id="-428957" lat="59.4840499959" lon="5.93805000377">
		<tag k="name" v="Bøen" />
		<tag k="place" v="farm" />
		<tag k="ssr:stedsnr" v="548296" />
	</node>
	<node id="-428956" lat="59.49551579" lon="5.90134036902">
		<tag k="name" v="Holmen" />
		<tag k="place" v="locality" />
		<tag k="ssr:stedsnr" v="548293" />
	</node>
	<node id="-428953" lat="59.4976749971" lon="5.89232499525">
		<tag k="name" v="Dalen" />
		<tag k="place" v="farm" />
		<tag k="ssr:stedsnr" v="548279" />
	</node>
	<node id="-428947" lat="59.5456325422" lon="5.83986630763">
		<tag k="fixme" v="consider place=hamlet" />
		<tag k="name" v="Andetjørn" />
		<tag k="place" v="farm" />
		<tag k="ssr:stedsnr" v="544788" />
	</node>
	<node id="-427842" lat="59.4902350744" lon="5.72090590485">
		<tag k="fixme" v="consider place=hamlet" />
		<tag k="name" v="Kårhus" />
		<tag k="place" v="farm" />
		<tag k="ssr:stedsnr" v="366822" />
	</node>
	<node id="-428935" lat="59.4575861118" lon="5.73571388126">
		<tag k="name" v="Liå" />
		<tag k="place" v="farm" />
		<tag k="ssr:stedsnr" v="543925" />
	</node>
	<node id="-428925" lat="59.5625472246" lon="6.00827778129">
		<tag k="name" v="Gjerå" />
		<tag k="place" v="locality" />
		<tag k="ssr:stedsnr" v="543303" />
	</node>
	<node id="-428924" lat="59.5719555553" lon="6.04139721739">
		<tag k="name" v="Mathaug" />
		<tag k="place" v="locality" />
		<tag k="ssr:stedsnr" v="543295" />
	</node>
	<node id="-427699" lat="59.6032602702" lon="5.84067095565">
		<tag k="fixme" v="consider place=hamlet" />
		<tag k="name" v="Dørheim" />
		<tag k="place" v="farm" />
		<tag k="ssr:stedsnr" v="306376" />
	</node>
	<node id="-428914" lat="59.5733805544" lon="5.86975555328">
		<tag k="name" v="Solli" />
		<tag k="place" v="farm" />
		<tag k="ssr:stedsnr" v="542013" />
	</node>
	<node id="-428903" lat="59.5064222228" lon="5.91399167246">
		<tag k="name" v="Øvrabø" />
		<tag k="place" v="farm" />
		<tag k="ssr:stedsnr" v="541242" />
	</node>
	<node id="-428880" lat="59.6352305547" lon="5.58922500388">
		<tag k="name" v="Fossøl" />
		<tag k="place" v="farm" />
		<tag k="ssr:stedsnr" v="510469" />
	</node>
	<node id="-428877" lat="59.5307775799" lon="5.54196413394">
		<tag k="fixme" v="consider place=hamlet" />
		<tag k="name" v="Søre Vågen" />
		<tag k="place" v="farm" />
		<tag k="ssr:stedsnr" v="508713" />
	</node>
	<node id="-428868" lat="59.5065583326" lon="5.55945556267">
		<tag k="name" v="Volder" />
		<tag k="place" v="farm" />
		<tag k="ssr:stedsnr" v="489691" />
	</node>
	<node id="-428867" lat="59.5038527764" lon="5.57344624492">
		<tag k="fixme" v="consider place=hamlet" />
		<tag k="name" v="Hokel" />
		<tag k="place" v="farm" />
		<tag k="ssr:stedsnr" v="489688" />
	</node>
	<node id="-428866" lat="59.5162305523" lon="5.63938055844">
		<tag k="alt_name" v="Rindå" />
		<tag k="name" v="Rinda" />
		<tag k="place" v="farm" />
		<tag k="ssr:stedsnr" v="489667" />
	</node>
	<node id="-428865" lat="59.5171744412" lon="5.81642586787">
		<tag k="alt_name" v="Trosnes" />
		<tag k="fixme" v="consider place=hamlet" />
		<tag k="name" v="Torsnes" />
		<tag k="place" v="farm" />
		<tag k="ssr:stedsnr" v="489661" />
	</node>
	<node id="-428858" lat="59.5215562679" lon="5.87120484561">
		<tag k="alt_name" v="Strannes" />
		<tag k="fixme" v="consider place=hamlet" />
		<tag k="name" v="Strandnes" />
		<tag k="place" v="farm" />
		<tag k="ssr:stedsnr" v="488897" />
	</node>
	<node id="-428855" lat="59.5144358969" lon="5.99911270938">
		<tag k="alt_name" v="Litle Rødne" />
		<tag k="fixme" v="consider place=hamlet" />
		<tag k="name" v="Rødne" />
		<tag k="place" v="farm" />
		<tag k="ssr:stedsnr" v="488881" />
	</node>
	<node id="-428854" lat="59.4994249984" lon="5.53092499728">
		<tag k="name" v="Dagsland" />
		<tag k="place" v="farm" />
		<tag k="ssr:stedsnr" v="488874" />
	</node>
	<node id="-428853" lat="59.4831507876" lon="5.51534469007">
		<tag k="alt_name" v="Fjelleim" />
		<tag k="fixme" v="consider place=hamlet" />
		<tag k="name" v="Fjellheim" />
		<tag k="place" v="farm" />
		<tag k="ssr:stedsnr" v="488872" />
	</node>
	<node id="-428852" lat="59.4896863671" lon="5.55547970301">
		<tag k="fixme" v="consider place=hamlet" />
		<tag k="name" v="Meland" />
		<tag k="place" v="farm" />
		<tag k="ssr:stedsnr" v="488869" />
	</node>
	<node id="-428851" lat="59.4945288366" lon="5.56439036171">
		<tag k="fixme" v="consider place=hamlet" />
		<tag k="name" v="Kallstveit" />
		<tag k="place" v="farm" />
		<tag k="ssr:stedsnr" v="488862" />
	</node>
	<node id="-428850" lat="59.4923710519" lon="5.65131609395">
		<tag k="alt_name" v="Skogen, søre" />
		<tag k="fixme" v="consider place=hamlet" />
		<tag k="name" v="Søre Skogen" />
		<tag k="place" v="farm" />
		<tag k="ssr:stedsnr" v="488857" />
	</node>
	<node id="-428843" lat="59.5036888926" lon="6.12975832544">
		<tag k="historic" v="shieling" />
		<tag k="name" v="Vågastølen" />
		<tag k="place" v="locality" />
		<tag k="ssr:stedsnr" v="488932" />
	</node>
	<node id="-428841" lat="59.5333249999" lon="5.96818611474">
		<tag k="alt_name" v="Soleim" />
		<tag k="name" v="Solheim" />
		<tag k="place" v="farm" />
		<tag k="ssr:stedsnr" v="488599" />
	</node>
	<node id="-428840" lat="59.5376154311" lon="5.95379719414">
		<tag k="fixme" v="consider place=hamlet" />
		<tag k="name" v="Eikeland" />
		<tag k="place" v="farm" />
		<tag k="ssr:stedsnr" v="488594" />
	</node>
	<node id="-428838" lat="59.5567698752" lon="6.0174661843">
		<tag k="fixme" v="consider place=hamlet" />
		<tag k="name" v="Øvraland" />
		<tag k="place" v="farm" />
		<tag k="ssr:stedsnr" v="488583" />
	</node>
	<node id="-428837" lat="59.5671822519" lon="6.0257296339">
		<tag k="fixme" v="consider place=hamlet" />
		<tag k="name" v="Litlaland" />
		<tag k="place" v="farm" />
		<tag k="ssr:stedsnr" v="488570" />
	</node>
	<node id="-428834" lat="59.6601000043" lon="5.70393333752">
		<tag k="alt_name" v="Hauge, nedre;Hauge" />
		<tag k="name" v="Nedre Hauge" />
		<tag k="place" v="farm" />
		<tag k="ssr:stedsnr" v="488457" />
	</node>
	<node id="-428830" lat="59.6310249959" lon="5.56472778552">
		<tag k="name" v="Årvik" />
		<tag k="place" v="farm" />
		<tag k="ssr:stedsnr" v="488419" />
	</node>
	<node id="-428829" lat="59.623613407" lon="5.80554695636">
		<tag k="alt_name" v="Kaatebø" />
		<tag k="fixme" v="consider place=hamlet" />
		<tag k="name" v="Kåtabø" />
		<tag k="place" v="farm" />
		<tag k="ssr:stedsnr" v="488414" />
	</node>
	<node id="-428825" lat="59.5994190765" lon="5.81731595956">
		<tag k="alt_name" v="Eidet, austre;Eide østre" />
		<tag k="fixme" v="consider place=hamlet" />
		<tag k="name" v="Austre Eidet" />
		<tag k="place" v="farm" />
		<tag k="ssr:stedsnr" v="488360" />
	</node>
	<node id="-428823" lat="59.5866675472" lon="5.81567137363">
		<tag k="name" v="Nordbø" />
		<tag k="place" v="farm" />
		<tag k="ssr:stedsnr" v="488332" />
	</node>
	<node id="-428820" lat="59.5536750025" lon="5.566900003">
		<tag k="alt_name" v="Ulvebne" />
		<tag k="name" v="Ulvevne" />
		<tag k="place" v="farm" />
		<tag k="ssr:stedsnr" v="488290" />
	</node>
	<node id="-428819" lat="59.5568444488" lon="5.68304166215">
		<tag k="alt_name" v="Lundagård" />
		<tag k="name" v="Lundagard" />
		<tag k="place" v="farm" />
		<tag k="ssr:stedsnr" v="488281" />
	</node>
	<node id="-428818" lat="59.5440583367" lon="5.55645832984">
		<tag k="alt_name" v="Kreken" />
		<tag k="name" v="Kriken" />
		<tag k="place" v="isolated_dwelling" />
		<tag k="ssr:stedsnr" v="488273" />
	</node>
	<node id="-428816" lat="59.5462884004" lon="5.69683857883">
		<tag k="fixme" v="consider place=hamlet" />
		<tag k="name" v="Alvseikje" />
		<tag k="place" v="farm" />
		<tag k="ssr:stedsnr" v="488259" />
	</node>
	<node id="-428814" lat="59.5233750042" lon="5.66493889541">
		<tag k="name" v="Hola" />
		<tag k="place" v="farm" />
		<tag k="ssr:stedsnr" v="488226" />
	</node>
	<node id="-428813" lat="59.5291773249" lon="5.72018828188">
		<tag k="fixme" v="consider place=hamlet" />
		<tag k="name" v="Spåtveit" />
		<tag k="place" v="farm" />
		<tag k="ssr:stedsnr" v="488223" />
	</node>
	<node id="-428805" lat="59.4547333293" lon="5.49424999711">
		<tag k="name" v="Strand" />
		<tag k="place" v="farm" />
		<tag k="ssr:stedsnr" v="487809" />
	</node>
	<node id="-428804" lat="59.4682136972" lon="5.7628703173">
		<tag k="alt_name" v="Tjeltveit" />
		<tag k="fixme" v="consider place=hamlet" />
		<tag k="name" v="Tjelltveit" />
		<tag k="place" v="farm" />
		<tag k="ssr:stedsnr" v="487800" />
	</node>
	<node id="-428803" lat="59.4505819332" lon="5.73469926784">
		<tag k="fixme" v="consider place=hamlet" />
		<tag k="name" v="Indraland" />
		<tag k="place" v="farm" />
		<tag k="ssr:stedsnr" v="487775" />
	</node>
	<node id="-428801" lat="59.4796916655" lon="6.14061667008">
		<tag k="name" v="Ospevika" />
		<tag k="place" v="locality" />
		<tag k="ssr:stedsnr" v="487321" />
	</node>
	<node id="-428799" lat="59.4960060187" lon="5.98624592343">
		<tag k="fixme" v="consider place=hamlet" />
		<tag k="name" v="Rogletveit" />
		<tag k="place" v="farm" />
		<tag k="ssr:stedsnr" v="487279" />
	</node>
	<node id="-428793" lat="59.5562944448" lon="5.56671667217">
		<tag k="barrier" v="fence" />
		<tag k="name" v="Ulvebnegjerdet" />
		<tag k="ssr:stedsnr" v="484997" />
	</node>
	<node id="-428789" lat="59.4615777773" lon="5.80657222838">
		<tag k="name" v="Eidsvoll" />
		<tag k="place" v="locality" />
		<tag k="ssr:stedsnr" v="483918" />
	</node>
	<node id="-428786" lat="59.5432249967" lon="5.69427500687">
		<tag k="name" v="Teigen" />
		<tag k="place" v="farm" />
		<tag k="ssr:stedsnr" v="483704" />
	</node>
	<node id="-428784" lat="59.4828111147" lon="5.71016944212">
		<tag k="name" v="Åsaplasset" />
		<tag k="place" v="locality" />
		<tag k="ssr:stedsnr" v="483040" />
	</node>
	<node id="-428761" lat="59.4892333362" lon="5.99885278595">
		<tag k="name" v="Ospehaugen" />
		<tag k="place" v="locality" />
		<tag k="ssr:stedsnr" v="481318" />
	</node>
	<node id="-428755" lat="59.5103055518" lon="5.82811388709">
		<tag k="name" v="Nordbøen" />
		<tag k="place" v="farm" />
		<tag k="ssr:stedsnr" v="481253" />
	</node>
	<node id="-428730" lat="59.5410669219" lon="5.99521371572">
		<tag k="name" v="Fatland" />
		<tag k="place" v="farm" />
		<tag k="ssr:stedsnr" v="461880" />
	</node>
	<node id="-428725" lat="59.4958999967" lon="5.76820555301">
		<tag k="name" v="Kolltveit" />
		<tag k="place" v="farm" />
		<tag k="ssr:stedsnr" v="456717" />
	</node>
	<node id="-427678" lat="59.6650305534" lon="5.65529166076">
		<tag k="alt_name" v="Bjørnetun" />
		<tag k="name" v="Bjørnatun" />
		<tag k="place" v="farm" />
		<tag k="ssr:stedsnr" v="306033" />
	</node>
	<node id="-428715" lat="59.5046888921" lon="5.60595833282">
		<tag k="name" v="Beita" />
		<tag k="place" v="farm" />
		<tag k="ssr:stedsnr" v="445956" />
	</node>
	<node id="-428714" lat="59.5909305526" lon="5.79600277194">
		<tag k="name" v="Store Nerheim" />
		<tag k="place" v="farm" />
		<tag k="ssr:stedsnr" v="445479" />
	</node>
	<node id="-428713" lat="59.6000972244" lon="5.77981944879">
		<tag k="name" v="Litle Nerheim" />
		<tag k="place" v="farm" />
		<tag k="ssr:stedsnr" v="445477" />
	</node>
	<node id="-428712" lat="59.5967833322" lon="5.80569721997">
		<tag k="name" v="Store Nerheim" />
		<tag k="place" v="farm" />
		<tag k="ssr:stedsnr" v="445476" />
	</node>
	<node id="-428710" lat="59.6790366472" lon="5.59209616134">
		<tag k="fixme" v="consider place=hamlet" />
		<tag k="name" v="Svolland" />
		<tag k="place" v="farm" />
		<tag k="ssr:stedsnr" v="429073" />
	</node>
	<node id="-428704" lat="59.5043324738" lon="5.60627224763">
		<tag k="alt_name" v="Smedsvik (Beitå)" />
		<tag k="fixme" v="consider place=hamlet" />
		<tag k="name" v="Smedsvik" />
		<tag k="place" v="farm" />
		<tag k="ssr:stedsnr" v="428629" />
	</node>
	<node id="-428703" lat="59.5136870771" lon="5.77240839669">
		<tag k="fixme" v="consider place=hamlet" />
		<tag k="name" v="Gjerde" />
		<tag k="place" v="farm" />
		<tag k="ssr:stedsnr" v="428623" />
	</node>
	<node id="-428701" lat="59.5023777794" lon="5.76160834133">
		<tag k="alt_name" v="Øvre Eikje" />
		<tag k="name" v="Eikje" />
		<tag k="place" v="farm" />
		<tag k="ssr:stedsnr" v="428617" />
	</node>
	<node id="-428699" lat="59.5076111137" lon="5.52421389049">
		<tag k="name" v="Haugen" />
		<tag k="place" v="farm" />
		<tag k="ssr:stedsnr" v="428586" />
	</node>
	<node id="-428698" lat="59.5337498109" lon="5.97766081683">
		<tag k="fixme" v="consider place=hamlet" />
		<tag k="name" v="Fatland" />
		<tag k="place" v="farm" />
		<tag k="ssr:stedsnr" v="428582" />
	</node>
	<node id="-428697" lat="59.5290444433" lon="5.95478332704">
		<tag k="name" v="Nyland" />
		<tag k="place" v="farm" />
		<tag k="ssr:stedsnr" v="428580" />
	</node>
	<node id="-428695" lat="59.5470658883" lon="5.89200813097">
		<tag k="fixme" v="consider place=hamlet" />
		<tag k="name" v="Apeland" />
		<tag k="place" v="farm" />
		<tag k="ssr:stedsnr" v="428559" />
	</node>
	<node id="-428693" lat="59.5558111092" lon="5.92579166356">
		<tag k="alt_name" v="Apelandstølen" />
		<tag k="historic" v="shieling" />
		<tag k="name" v="Apelandsstølen" />
		<tag k="place" v="locality" />
		<tag k="ssr:stedsnr" v="428545" />
	</node>
	<node id="-428692" lat="59.5645527744" lon="5.86926388552">
		<tag k="name" v="Neset" />
		<tag k="place" v="farm" />
		<tag k="ssr:stedsnr" v="428532" />
	</node>
	<node id="-428687" lat="59.6145837787" lon="5.82189210437">
		<tag k="fixme" v="consider place=hamlet" />
		<tag k="name" v="Roa" />
		<tag k="place" v="farm" />
		<tag k="ssr:stedsnr" v="428382" />
	</node>
	<node id="-428685" lat="59.6165500015" lon="5.78407221677">
		<tag k="alt_name" v="Bårdsneset" />
		<tag k="name" v="Båsnes" />
		<tag k="place" v="farm" />
		<tag k="ssr:stedsnr" v="428376" />
	</node>
	<node id="-428684" lat="59.6014499984" lon="5.57485834188">
		<tag k="alt_name" v="Vedlene" />
		<tag k="name" v="Vellene" />
		<tag k="place" v="farm" />
		<tag k="ssr:stedsnr" v="428356" />
	</node>
	<node id="-428682" lat="59.6017000024" lon="5.81146110777">
		<tag k="alt_name" v="Eido" />
		<tag k="name" v="Eidet" />
		<tag k="place" v="farm" />
		<tag k="ssr:stedsnr" v="428345" />
	</node>
	<node id="-428680" lat="59.5868416691" lon="5.7309555608">
		<tag k="name" v="Espeland" />
		<tag k="place" v="farm" />
		<tag k="ssr:stedsnr" v="428334" />
	</node>
	<node id="-428668" lat="59.4821505388" lon="5.82176093746">
		<tag k="fixme" v="consider place=hamlet" />
		<tag k="name" v="Torstveit" />
		<tag k="place" v="farm" />
		<tag k="ssr:stedsnr" v="427808" />
	</node>
	<node id="-428667" lat="59.4682352264" lon="5.7491534862">
		<tag k="fixme" v="consider place=hamlet" />
		<tag k="name" v="Skjervheim" />
		<tag k="place" v="farm" />
		<tag k="ssr:stedsnr" v="427788" />
	</node>
	<node id="-428666" lat="59.4717805587" lon="5.73140555136">
		<tag k="name" v="Øverland" />
		<tag k="place" v="farm" />
		<tag k="ssr:stedsnr" v="427787" />
	</node>
	<node id="-428663" lat="59.4702632781" lon="5.7794843899">
		<tag k="fixme" v="consider place=hamlet" />
		<tag k="name" v="Vatnakvam" />
		<tag k="place" v="farm" />
		<tag k="ssr:stedsnr" v="427764" />
	</node>
	<node id="-428660" lat="59.4494583308" lon="5.76467777505">
		<tag k="name" v="Stokkaland" />
		<tag k="place" v="farm" />
		<tag k="ssr:stedsnr" v="427725" />
	</node>
	<node id="-428658" lat="59.4767008825" lon="5.96417706895">
		<tag k="fixme" v="consider place=hamlet" />
		<tag k="name" v="Berget" />
		<tag k="place" v="farm" />
		<tag k="ssr:stedsnr" v="427330" />
	</node>
	<node id="-428657" lat="59.4943250027" lon="6.06860000475">
		<tag k="alt_name" v="Asklandstølen" />
		<tag k="historic" v="shieling" />
		<tag k="name" v="Akslandsstølane" />
		<tag k="place" v="locality" />
		<tag k="ssr:stedsnr" v="427323" />
	</node>
	<node id="-428649" lat="59.4801361126" lon="5.63234443575">
		<tag k="name" v="Nordre Longaland" />
		<tag k="place" v="farm" />
		<tag k="ssr:stedsnr" v="424038" />
	</node>
	<node id="-427792" lat="59.4913472195" lon="5.98373333254">
		<tag k="name" v="Lund" />
		<tag k="place" v="farm" />
		<tag k="ssr:stedsnr" v="359311" />
	</node>
	<node id="-428634" lat="59.5430836103" lon="5.87657980209">
		<tag k="alt_name" v="Søndre Håland" />
		<tag k="fixme" v="consider place=hamlet" />
		<tag k="name" v="Søre Håland" />
		<tag k="place" v="farm" />
		<tag k="ssr:stedsnr" v="422811" />
	</node>
	<node id="-428626" lat="59.5192861114" lon="5.92441667012">
		<tag k="name" v="Træshaugen" />
		<tag k="place" v="farm" />
		<tag k="ssr:stedsnr" v="422160" />
	</node>
	<node id="-428625" lat="59.5168944416" lon="5.93241388782">
		<tag k="name" v="Staknes" />
		<tag k="place" v="farm" />
		<tag k="ssr:stedsnr" v="422157" />
	</node>
	<node id="-428617" lat="59.4874472224" lon="6.16389722614">
		<tag k="name" v="Skipavåg" />
		<tag k="place" v="neighbourhood" />
		<tag k="ssr:stedsnr" v="420897" />
	</node>
	<node id="-428616" lat="59.4932833322" lon="5.71742222366">
		<tag k="name" v="Kårhus" />
		<tag k="place" v="quarter" />
		<tag k="ssr:stedsnr" v="420898" />
	</node>
	<node id="-428615" lat="59.5518111137" lon="6.0264361181">
		<tag k="name" v="Fjordingen" />
		<tag k="place" v="locality" />
		<tag k="ssr:stedsnr" v="420516" />
	</node>
	<node id="-428605" lat="59.4774888859" lon="5.72619722707">
		<tag k="name" v="Åmstølen" />
		<tag k="place" v="farm" />
		<tag k="ssr:stedsnr" v="420115" />
	</node>
	<node id="-428590" lat="59.598349998" lon="5.80356111909">
		<tag k="name" v="Store Nerheim" />
		<tag k="place" v="farm" />
		<tag k="ssr:stedsnr" v="263484" />
	</node>
	<node id="-428589" lat="59.5030060034" lon="5.52929911072">
		<tag k="fixme" v="consider place=hamlet" />
		<tag k="name" v="Dagsland" />
		<tag k="place" v="farm" />
		<tag k="ssr:stedsnr" v="247074" />
	</node>
	<node id="-428583" lat="59.5114861087" lon="5.86886388489">
		<tag k="alt_name" v="Sandhamar" />
		<tag k="name" v="Sandhammar" />
		<tag k="place" v="farm" />
		<tag k="ssr:stedsnr" v="246873" />
	</node>
	<node id="-428582" lat="59.5020518923" lon="5.90844650836">
		<tag k="fixme" v="consider place=hamlet" />
		<tag k="name" v="Oppsal" />
		<tag k="place" v="farm" />
		<tag k="ssr:stedsnr" v="246861" />
	</node>
	<node id="-428581" lat="59.5212161605" lon="5.81113973871">
		<tag k="fixme" v="consider place=hamlet" />
		<tag k="name" v="Viland" />
		<tag k="place" v="farm" />
		<tag k="ssr:stedsnr" v="246599" />
	</node>
	<node id="-428577" lat="59.5708511871" lon="5.85684133045">
		<tag k="fixme" v="consider place=hamlet" />
		<tag k="name" v="Frøland" />
		<tag k="place" v="farm" />
		<tag k="ssr:stedsnr" v="246547" />
	</node>
	<node id="-428576" lat="59.5687780795" lon="5.87680059315">
		<tag k="fixme" v="consider place=hamlet" />
		<tag k="name" v="Helgeland" />
		<tag k="place" v="farm" />
		<tag k="ssr:stedsnr" v="246539" />
	</node>
	<node id="-428575" lat="59.6046576922" lon="5.84962214564">
		<tag k="fixme" v="consider place=hamlet" />
		<tag k="name" v="Tveit" />
		<tag k="place" v="farm" />
		<tag k="ssr:stedsnr" v="246518" />
	</node>
	<node id="-428574" lat="59.6555583298" lon="5.71639999637">
		<tag k="name" v="Øygarden" />
		<tag k="place" v="farm" />
		<tag k="ssr:stedsnr" v="246434" />
	</node>
	<node id="-428572" lat="59.5964861104" lon="5.74238610608">
		<tag k="alt_name" v="Ølsvågen" />
		<tag k="fixme" v="consider place=hamlet" />
		<tag k="name" v="Ølensvåg" />
		<tag k="place" v="village" />
		<tag k="ssr:stedsnr" v="246379" />
	</node>
	<node id="-428561" lat="59.4959259906" lon="5.5306596573">
		<tag k="fixme" v="consider place=hamlet" />
		<tag k="name" v="Mortveit" />
		<tag k="place" v="farm" />
		<tag k="ssr:stedsnr" v="245871" />
	</node>
	<node id="-428555" lat="59.4814486332" lon="5.62968222915">
		<tag k="fixme" v="consider place=hamlet" />
		<tag k="name" v="Langaland" />
		<tag k="place" v="farm" />
		<tag k="ssr:stedsnr" v="245817" />
	</node>
	<node id="-428548" lat="59.4838287249" lon="5.84879824057">
		<tag k="alt_name" v="Lauvika" />
		<tag k="fixme" v="consider place=hamlet" />
		<tag k="name" v="Lauvvika" />
		<tag k="place" v="farm" />
		<tag k="ssr:stedsnr" v="245271" />
	</node>
	<node id="-428543" lat="59.4268388899" lon="5.74047499584">
		<tag k="name" v="Indralandsteigen" />
		<tag k="place" v="locality" />
		<tag k="ssr:stedsnr" v="245006" />
	</node>
	<node id="-428532" lat="59.4752027763" lon="5.69041943845">
		<tag k="name" v="Nedra Dåse" />
		<tag k="place" v="farm" />
		<tag k="ssr:stedsnr" v="240953" />
	</node>
	<node id="-428531" lat="59.5418805547" lon="5.84761944666">
		<tag k="name" v="Rabben" />
		<tag k="place" v="farm" />
		<tag k="ssr:stedsnr" v="240804" />
	</node>
	<node id="-428529" lat="59.5487611151" lon="5.83444444534">
		<tag k="name" v="Skeistræ" />
		<tag k="place" v="farm" />
		<tag k="ssr:stedsnr" v="240797" />
	</node>
	<node id="-428509" lat="59.477217889" lon="5.99197227001">
		<tag k="name" v="Imslandsjøen" />
		<tag k="place" v="hamlet" />
		<tag k="ssr:stedsnr" v="238373" />
	</node>
	<node id="-428505" lat="59.5021249982" lon="5.92300833558">
		<tag k="name" v="Setervoll" />
		<tag k="place" v="farm" />
		<tag k="ssr:stedsnr" v="238236" />
	</node>
	<node id="-428504" lat="59.4994833316" lon="5.89866389411">
		<tag k="name" v="Solbakken" />
		<tag k="place" v="farm" />
		<tag k="ssr:stedsnr" v="238229" />
	</node>
	<node id="-428503" lat="59.5068111115" lon="5.90681388774">
		<tag k="name" v="Høyland" />
		<tag k="place" v="farm" />
		<tag k="ssr:stedsnr" v="238222" />
	</node>
	<node id="-428496" lat="59.5724916635" lon="5.87773889085">
		<tag k="name" v="Fjedlet" />
		<tag k="place" v="farm" />
		<tag k="ssr:stedsnr" v="238012" />
	</node>
	<node id="-428486" lat="59.4170444427" lon="5.72276389146">
		<tag k="name" v="Habn" />
		<tag k="place" v="farm" />
		<tag k="ssr:stedsnr" v="235794" />
	</node>
	<node id="-430525" lat="59.5202201238" lon="5.93231532314">
		<tag k="name" v="Vikedal" />
		<tag k="place" v="hamlet" />
		<tag k="ssr:stedsnr" v="980927" />
	</node>
	<node id="-428476" lat="59.4431015022" lon="5.7455703502">
		<tag k="fixme" v="consider place=hamlet" />
		<tag k="loc_name" v="Raudnes" />
		<tag k="name" v="Raunes" />
		<tag k="place" v="farm" />
		<tag k="ssr:stedsnr" v="269000" />
	</node>
	<node id="-430523" lat="59.5184345511" lon="5.80621854658">
		<tag k="fixme" v="consider place=hamlet" />
		<tag k="name" v="Ilsvåg" />
		<tag k="place" v="village" />
		<tag k="ssr:stedsnr" v="980122" />
	</node>
	<node id="-428474" lat="59.4725305551" lon="5.85168611087">
		<tag k="name" v="Stuven" />
		<tag k="place" v="farm" />
		<tag k="ssr:stedsnr" v="223578" />
	</node>
	<node id="-428465" lat="59.6084388901" lon="5.55769722495">
		<tag k="name" v="Grasvik" />
		<tag k="place" v="farm" />
		<tag k="ssr:stedsnr" v="207426" />
	</node>
	<node id="-428187" lat="59.6493722178" lon="5.75861388282">
		<tag k="name" v="Kjellasvik" />
		<tag k="place" v="farm" />
		<tag k="ssr:stedsnr" v="105786" />
	</node>
	<node id="-428458" lat="59.4878861082" lon="5.6334138862">
		<tag k="name" v="Nordbø" />
		<tag k="place" v="isolated_dwelling" />
		<tag k="ssr:stedsnr" v="205689" />
	</node>
	<node id="-430505" lat="59.5915842731" lon="5.72704941647">
		<tag k="name" v="Heio" />
		<tag k="place" v="farm" />
		<tag k="ssr:stedsnr" v="977270" />
	</node>
	<node id="-428455" lat="59.5103924626" lon="5.59389095535">
		<tag k="alt_name" v="Prestagarden" />
		<tag k="fixme" v="consider place=hamlet" />
		<tag k="name" v="Skjold prestagard" />
		<tag k="old_name" v="Skjold prestegard" />
		<tag k="place" v="farm" />
		<tag k="ssr:stedsnr" v="203962" />
	</node>
	<node id="-428454" lat="59.6014944453" lon="5.80548611177">
		<tag k="name" v="Store Nerheim" />
		<tag k="place" v="farm" />
		<tag k="ssr:stedsnr" v="203475" />
	</node>
	<node id="-428452" lat="59.5162731953" lon="5.9442503953">
		<tag k="fixme" v="consider place=hamlet" />
		<tag k="name" v="Søreim" />
		<tag k="place" v="farm" />
		<tag k="ssr:stedsnr" v="185879" />
	</node>
	<node id="-428450" lat="59.5054412261" lon="5.62844855616">
		<tag k="fixme" v="consider place=hamlet" />
		<tag k="name" v="Frøvik" />
		<tag k="place" v="farm" />
		<tag k="ssr:stedsnr" v="185603" />
	</node>
	<node id="-428449" lat="59.5447589868" lon="5.8467382934">
		<tag k="fixme" v="consider place=hamlet" />
		<tag k="name" v="Vestbø" />
		<tag k="place" v="farm" />
		<tag k="ssr:stedsnr" v="185545" />
	</node>
	<node id="-428448" lat="59.5638555562" lon="6.05771945318">
		<tag k="alt_name" v="Gislehaug" />
		<tag k="name" v="Gislehaugen" />
		<tag k="place" v="farm" />
		<tag k="ssr:stedsnr" v="185540" />
	</node>
	<node id="-428446" lat="59.6505361072" lon="5.7500611077">
		<tag k="alt_name" v="Mekrevik" />
		<tag k="name" v="Mækjevik" />
		<tag k="place" v="farm" />
		<tag k="ssr:stedsnr" v="185432" />
	</node>
	<node id="-430491" lat="59.5832154832" lon="5.71587642152">
		<tag k="name" v="Hesthaug" />
		<tag k="place" v="farm" />
		<tag k="ssr:stedsnr" v="977246" />
	</node>
	<node id="-430490" lat="59.5897003569" lon="5.72605004663">
		<tag k="name" v="Vonheim" />
		<tag k="place" v="farm" />
		<tag k="ssr:stedsnr" v="977245" />
	</node>
	<node id="-428440" lat="59.5232037648" lon="5.72913898443">
		<tag k="fixme" v="consider place=hamlet" />
		<tag k="name" v="Vestvoll" />
		<tag k="place" v="farm" />
		<tag k="ssr:stedsnr" v="185579" />
	</node>
	<node id="-430487" lat="59.5874920439" lon="5.57846926004">
		<tag k="fixme" v="consider place=hamlet" />
		<tag k="name" v="Nedre Dommasnes" />
		<tag k="place" v="farm" />
		<tag k="ssr:stedsnr" v="977240" />
	</node>
	<node id="-428437" lat="59.6333166649" lon="5.63150832821">
		<tag k="name" v="Løland" />
		<tag k="place" v="farm" />
		<tag k="ssr:stedsnr" v="185401" />
	</node>
	<node id="-430484" lat="59.5857345593" lon="5.57451920216">
		<tag k="fixme" v="consider place=hamlet" />
		<tag k="name" v="Øvre Dommasnes" />
		<tag k="place" v="farm" />
		<tag k="ssr:stedsnr" v="977236" />
	</node>
	<node id="-428434" lat="59.6042111123" lon="5.80789722153">
		<tag k="name" v="Ølen" />
		<tag k="place" v="village" />
		<tag k="ssr:stedsnr" v="185377" />
	</node>
	<node id="-428439" lat="59.5417138893" lon="5.99876110354">
		<tag k="alt_name" v="Koladalen" />
		<tag k="name" v="Koladal" />
		<tag k="place" v="isolated_dwelling" />
		<tag k="ssr:stedsnr" v="185562" />
	</node>
	<node id="-428424" lat="59.5515842109" lon="5.8209187845">
		<tag k="fixme" v="consider place=hamlet" />
		<tag k="name" v="Lærdal" />
		<tag k="place" v="farm" />
		<tag k="ssr:stedsnr" v="185275" />
	</node>
	<node id="-428423" lat="59.5444083329" lon="5.86228611665">
		<tag k="name" v="Sandeid" />
		<tag k="place" v="village" />
		<tag k="ssr:stedsnr" v="185273" />
	</node>
	<node id="-430468" lat="59.588908633" lon="5.58970948261">
		<tag k="fixme" v="consider place=hamlet" />
		<tag k="name" v="Nedre Vik" />
		<tag k="place" v="farm" />
		<tag k="ssr:stedsnr" v="977217" />
	</node>
	<node id="-430467" lat="59.5921156417" lon="5.59404915126">
		<tag k="fixme" v="consider place=hamlet" />
		<tag k="name" v="Øvre Vik" />
		<tag k="place" v="farm" />
		<tag k="ssr:stedsnr" v="977216" />
	</node>
	<node id="-428417" lat="59.6566361111" lon="5.66513055517">
		<tag k="name" v="Hetland" />
		<tag k="place" v="farm" />
		<tag k="ssr:stedsnr" v="185029" />
	</node>
	<node id="-430458" lat="59.599478297" lon="5.57245775543">
		<tag k="name" v="Aksla" />
		<tag k="place" v="farm" />
		<tag k="ssr:stedsnr" v="977204" />
	</node>
	<node id="-428408" lat="59.4686786263" lon="5.51052761217">
		<tag k="fixme" v="consider place=hamlet" />
		<tag k="name" v="Kalvaland" />
		<tag k="place" v="farm" />
		<tag k="ssr:stedsnr" v="184795" />
	</node>
	<node id="-428436" lat="59.6202554493" lon="5.80726561222">
		<tag k="alt_name" v="Stongaland;Stangeland" />
		<tag k="fixme" v="consider place=hamlet" />
		<tag k="name" v="Stangaland" />
		<tag k="place" v="farm" />
		<tag k="ssr:stedsnr" v="185388" />
	</node>
	<node id="-428406" lat="59.4696666689" lon="5.81105277492">
		<tag k="alt_name" v="Søre stølen" />
		<tag k="name" v="Sørestølen" />
		<tag k="place" v="locality" />
		<tag k="ssr:stedsnr" v="184771" />
	</node>
	<node id="-428401" lat="59.484786163" lon="6.03786377633">
		<tag k="fixme" v="consider place=hamlet" />
		<tag k="name" v="Liabø" />
		<tag k="place" v="farm" />
		<tag k="ssr:stedsnr" v="184300" />
	</node>
	<node id="-428399" lat="59.4902500021" lon="6.16747500144">
		<tag k="name" v="Vika" />
		<tag k="place" v="farm" />
		<tag k="ssr:stedsnr" v="184285" />
	</node>
	<node id="-428398" lat="59.4856250024" lon="5.93129999213">
		<tag k="name" v="Gjerde" />
		<tag k="place" v="farm" />
		<tag k="ssr:stedsnr" v="184273" />
	</node>
	<node id="-428395" lat="59.4789666635" lon="5.53142499362">
		<tag k="amenity" v="school" />
		<tag k="name" v="Liarheim" />
		<tag k="ssr:stedsnr" v="182090" />
	</node>
	<node id="-428392" lat="59.5471250035" lon="5.55465000126">
		<tag k="name" v="Tangen" />
		<tag k="place" v="farm" />
		<tag k="ssr:stedsnr" v="181487" />
	</node>
	<node id="-428389" lat="59.4755555561" lon="5.68807222162">
		<tag k="name" v="Øvra Dåse" />
		<tag k="place" v="farm" />
		<tag k="ssr:stedsnr" v="180938" />
	</node>
	<node id="-428387" lat="59.5481194446" lon="5.70376110755">
		<tag k="name" v="Velde" />
		<tag k="place" v="farm" />
		<tag k="ssr:stedsnr" v="180711" />
	</node>
	<node id="-428385" lat="59.5416277822" lon="5.70328333261">
		<tag k="name" v="Løkjen" />
		<tag k="place" v="farm" />
		<tag k="ssr:stedsnr" v="180674" />
	</node>
	<node id="-428090" lat="59.4474138874" lon="5.73424444761">
		<tag k="name" v="Tueteigen" />
		<tag k="place" v="locality" />
		<tag k="ssr:stedsnr" v="58942" />
	</node>
	<node id="-428089" lat="59.5779500042" lon="5.70490000372">
		<tag k="name" v="Fagereim" />
		<tag k="place" v="farm" />
		<tag k="ssr:stedsnr" v="58936" />
	</node>
	<node id="-430418" lat="59.5950029212" lon="5.73585929997">
		<tag k="alt_name" v="Søndre Vågen" />
		<tag k="fixme" v="consider place=hamlet" />
		<tag k="name" v="Søre Vågen" />
		<tag k="place" v="farm" />
		<tag k="ssr:stedsnr" v="977153" />
	</node>
	<node id="-430417" lat="59.597447352" lon="5.73342584303">
		<tag k="alt_name" v="Vågen Nordre" />
		<tag k="fixme" v="consider place=hamlet" />
		<tag k="name" v="Nordre Vågen" />
		<tag k="place" v="farm" />
		<tag k="ssr:stedsnr" v="977152" />
	</node>
	<node id="-430416" lat="59.6010250852" lon="5.74171028777">
		<tag k="name" v="Ura" />
		<tag k="place" v="farm" />
		<tag k="ssr:stedsnr" v="977149" />
	</node>
	<node id="-430415" lat="59.6011293862" lon="5.73760099611">
		<tag k="fixme" v="consider place=hamlet" />
		<tag k="name" v="Kolbeinshaug" />
		<tag k="place" v="farm" />
		<tag k="ssr:stedsnr" v="977148" />
	</node>
	<node id="-428360" lat="59.5700305596" lon="5.87245833276">
		<tag k="name" v="Tveitane" />
		<tag k="place" v="farm" />
		<tag k="ssr:stedsnr" v="178053" />
	</node>
	<node id="-428356" lat="59.5351416709" lon="5.94878333147">
		<tag k="name" v="Hauen" />
		<tag k="place" v="farm" />
		<tag k="ssr:stedsnr" v="178028" />
	</node>
	<node id="-430399" lat="59.6049390343" lon="5.74877375329">
		<tag k="alt_name" v="Søndre Berge" />
		<tag k="fixme" v="consider place=hamlet" />
		<tag k="name" v="Søre Berge" />
		<tag k="place" v="farm" />
		<tag k="ssr:stedsnr" v="975081" />
	</node>
	<node id="-430395" lat="59.5981569518" lon="5.75645134075">
		<tag k="fixme" v="consider place=hamlet" />
		<tag k="name" v="Store Gjerdevik" />
		<tag k="place" v="farm" />
		<tag k="ssr:stedsnr" v="975074" />
	</node>
	<node id="-428346" lat="59.4770388928" lon="5.90453888427">
		<tag k="name" v="Holmen" />
		<tag k="place" v="farm" />
		<tag k="ssr:stedsnr" v="177246" />
	</node>
	<node id="-428344" lat="59.4978138931" lon="5.89613056363">
		<tag k="name" v="Vestergård" />
		<tag k="place" v="farm" />
		<tag k="ssr:stedsnr" v="177218" />
	</node>
	<node id="-430390" lat="59.6069927689" lon="5.75678626138">
		<tag k="fixme" v="consider place=hamlet" />
		<tag k="name" v="Nordre Berge" />
		<tag k="place" v="farm" />
		<tag k="ssr:stedsnr" v="975069" />
	</node>
	<node id="-430386" lat="59.6092428234" lon="5.7647248576">
		<tag k="fixme" v="consider place=hamlet" />
		<tag k="name" v="Øvre Lunde" />
		<tag k="place" v="farm" />
		<tag k="ssr:stedsnr" v="975062" />
	</node>
	<node id="-430383" lat="59.5962438331" lon="5.76224702315">
		<tag k="name" v="Styvo" />
		<tag k="place" v="farm" />
		<tag k="ssr:stedsnr" v="975059" />
	</node>
	<node id="-430382" lat="59.5982137587" lon="5.76550042294">
		<tag k="fixme" v="consider place=hamlet" />
		<tag k="name" v="Litle Gjerdevik" />
		<tag k="place" v="farm" />
		<tag k="ssr:stedsnr" v="975060" />
	</node>
	<node id="-430372" lat="59.6020987442" lon="5.81134107947">
		<tag k="alt_name" v="Vestre Eide" />
		<tag k="fixme" v="consider place=hamlet" />
		<tag k="name" v="Vestre Eidet" />
		<tag k="place" v="farm" />
		<tag k="ssr:stedsnr" v="974916" />
	</node>
	<node id="-428323" lat="59.5627527753" lon="5.56817500623">
		<tag k="name" v="Skogen" />
		<tag k="place" v="farm" />
		<tag k="ssr:stedsnr" v="146412" />
	</node>
	<node id="-428321" lat="59.4502750042" lon="5.51512499989">
		<tag k="name" v="Katteid" />
		<tag k="place" v="farm" />
		<tag k="ssr:stedsnr" v="145128" />
	</node>
	<node id="-430363" lat="59.61348953" lon="5.86662336711">
		<tag k="name" v="Nybø" />
		<tag k="place" v="farm" />
		<tag k="ssr:stedsnr" v="974872" />
	</node>
	<node id="-430361" lat="59.6097439355" lon="5.86907435553">
		<tag k="fixme" v="consider place=hamlet" />
		<tag k="name" v="Rødne" />
		<tag k="place" v="farm" />
		<tag k="ssr:stedsnr" v="974867" />
	</node>
	<node id="-428420" lat="59.5244236873" lon="5.72984820282">
		<tag k="fixme" v="consider place=hamlet" />
		<tag k="name" v="Bakkavoll" />
		<tag k="place" v="farm" />
		<tag k="ssr:stedsnr" v="185242" />
	</node>
	<node id="-428310" lat="59.5114999996" lon="6.08401389694">
		<tag k="alt_name" v="Hedlestøl" />
		<tag k="historic" v="shieling" />
		<tag k="name" v="Hellestølen" />
		<tag k="place" v="locality" />
		<tag k="ssr:stedsnr" v="124924" />
	</node>
	<node id="-428306" lat="59.5125638895" lon="5.91447222783">
		<tag k="name" v="Austli" />
		<tag k="place" v="farm" />
		<tag k="ssr:stedsnr" v="124873" />
	</node>
	<node id="-428305" lat="59.4853305591" lon="5.53161111461">
		<tag k="name" v="Vestrå" />
		<tag k="place" v="farm" />
		<tag k="ssr:stedsnr" v="124854" />
	</node>
	<node id="-428303" lat="59.4993222196" lon="5.71564999906">
		<tag k="name" v="Fagervik" />
		<tag k="place" v="farm" />
		<tag k="ssr:stedsnr" v="124843" />
	</node>
	<node id="-428302" lat="59.4969416628" lon="5.71524444791">
		<tag k="name" v="Hagen" />
		<tag k="place" v="farm" />
		<tag k="ssr:stedsnr" v="124840" />
	</node>
	<node id="-428300" lat="59.4974265752" lon="5.65606397878">
		<tag k="alt_name" v="Skogen, nordre" />
		<tag k="fixme" v="consider place=hamlet" />
		<tag k="name" v="Nordre Skogen" />
		<tag k="place" v="farm" />
		<tag k="ssr:stedsnr" v="124834" />
	</node>
	<node id="-428297" lat="59.5094861121" lon="5.64689445143">
		<tag k="name" v="Moberg" />
		<tag k="place" v="farm" />
		<tag k="ssr:stedsnr" v="124587" />
	</node>
	<node id="-428296" lat="59.4997287332" lon="5.76001844454">
		<tag k="fixme" v="consider place=hamlet" />
		<tag k="name" v="Hustoft" />
		<tag k="place" v="farm" />
		<tag k="ssr:stedsnr" v="124578" />
	</node>
	<node id="-428295" lat="59.5137555514" lon="5.57148055972">
		<tag k="name" v="Bjørkhaug" />
		<tag k="place" v="farm" />
		<tag k="ssr:stedsnr" v="124568" />
	</node>
	<node id="-428292" lat="59.5019249959" lon="5.53073889419">
		<tag k="name" v="Øvrabø" />
		<tag k="place" v="farm" />
		<tag k="ssr:stedsnr" v="124554" />
	</node>
	<node id="-427734" lat="59.4431638851" lon="5.74778334148">
		<tag k="name" v="Raunes" />
		<tag k="place" v="farm" />
		<tag k="ssr:stedsnr" v="324956" />
	</node>
	<node id="-430337" lat="59.6281980126" lon="5.79918809287">
		<tag k="fixme" v="consider place=hamlet" />
		<tag k="name" v="Hamre ytre" />
		<tag k="place" v="farm" />
		<tag k="ssr:stedsnr" v="974835" />
	</node>
	<node id="-430335" lat="59.6247839194" lon="5.80231565959">
		<tag k="name" v="Brattebø" />
		<tag k="place" v="farm" />
		<tag k="ssr:stedsnr" v="974833" />
	</node>
	<node id="-428074" lat="59.4711277802" lon="5.69133054774">
		<tag k="name" v="Træ" />
		<tag k="place" v="farm" />
		<tag k="ssr:stedsnr" v="58034" />
	</node>
	<node id="-430330" lat="59.6291962383" lon="5.78370473328">
		<tag k="name" v="Botn" />
		<tag k="place" v="farm" />
		<tag k="ssr:stedsnr" v="974828" />
	</node>
	<node id="-428279" lat="59.5893999994" lon="5.71656666468">
		<tag k="name" v="Viland" />
		<tag k="place" v="farm" />
		<tag k="ssr:stedsnr" v="124318" />
	</node>
	<node id="-428278" lat="59.581013888" lon="5.81513889774">
		<tag k="alt_name" v="Stumo, nordre" />
		<tag k="name" v="Nordre Stumo" />
		<tag k="place" v="farm" />
		<tag k="ssr:stedsnr" v="124307" />
	</node>
	<node id="-428271" lat="59.5316194861" lon="5.67492319877">
		<tag k="fixme" v="consider place=hamlet" />
		<tag k="name" v="Krakk" />
		<tag k="place" v="farm" />
		<tag k="ssr:stedsnr" v="124231" />
	</node>
	<node id="-428269" lat="59.5221127635" lon="5.71839886753">
		<tag k="fixme" v="consider place=hamlet" />
		<tag k="name" v="Sørhus" />
		<tag k="place" v="farm" />
		<tag k="ssr:stedsnr" v="124210" />
	</node>
	<node id="-428265" lat="59.4785944414" lon="5.68346388252">
		<tag k="alt_name" v="Børdalen" />
		<tag k="name" v="Oppheim" />
		<tag k="place" v="farm" />
		<tag k="ssr:stedsnr" v="123849" />
	</node>
	<node id="-428258" lat="59.4655191936" lon="5.7564082661">
		<tag k="fixme" v="consider place=hamlet" />
		<tag k="name" v="Stokka" />
		<tag k="place" v="farm" />
		<tag k="ssr:stedsnr" v="123799" />
	</node>
	<node id="-428254" lat="59.4930800373" lon="5.90562400269">
		<tag k="fixme" v="consider place=hamlet" />
		<tag k="name" v="Sønnanå" />
		<tag k="place" v="farm" />
		<tag k="ssr:stedsnr" v="123308" />
	</node>
	<node id="-428242" lat="59.5005194404" lon="5.76543333046">
		<tag k="name" v="Nedre Eikje" />
		<tag k="place" v="farm" />
		<tag k="ssr:stedsnr" v="119036" />
	</node>
	<node id="-428240" lat="59.5530749971" lon="5.6921583362">
		<tag k="name" v="Tømre" />
		<tag k="place" v="farm" />
		<tag k="ssr:stedsnr" v="118982" />
	</node>
	<node id="-430286" lat="59.6189118237" lon="5.67493314545">
		<tag k="name" v="Tangen" />
		<tag k="place" v="farm" />
		<tag k="ssr:stedsnr" v="974481" />
	</node>
	<node id="-428236" lat="59.5452774352" lon="5.88026128171">
		<tag k="fixme" v="consider place=hamlet" />
		<tag k="name" v="Tenning Gjerå" />
		<tag k="place" v="farm" />
		<tag k="ssr:stedsnr" v="118791" />
	</node>
	<node id="-428227" lat="59.5226805565" lon="5.94582500062">
		<tag k="name" v="Lillemo" />
		<tag k="place" v="farm" />
		<tag k="ssr:stedsnr" v="117520" />
	</node>
	<node id="-430274" lat="59.6349095866" lon="5.64457666073">
		<tag k="name" v="Skogtun" />
		<tag k="place" v="farm" />
		<tag k="ssr:stedsnr" v="974445" />
	</node>
	<node id="-430273" lat="59.6363716464" lon="5.64714854233">
		<tag k="fixme" v="consider place=hamlet" />
		<tag k="name" v="Dalsbygda" />
		<tag k="place" v="village" />
		<tag k="ssr:stedsnr" v="974446" />
	</node>
	<node id="-427722" lat="59.5023883997" lon="5.91972800929">
		<tag k="alt_name" v="Hallingstad, nedre;Prestagarden;Vikedal" />
		<tag k="name" v="Nedre Hallingstad" />
		<tag k="place" v="farm" />
		<tag k="ssr:stedsnr" v="306871" />
	</node>
	<node id="-428217" lat="59.5037472186" lon="5.90757222945">
		<tag k="name" v="Lurhaug" />
		<tag k="place" v="farm" />
		<tag k="ssr:stedsnr" v="117265" />
	</node>
	<node id="-428207" lat="59.5687500043" lon="5.87420554881">
		<tag k="name" v="Goangjerd" />
		<tag k="place" v="farm" />
		<tag k="ssr:stedsnr" v="117049" />
	</node>
	<node id="-428205" lat="59.5395555578" lon="5.95847223086">
		<tag k="name" v="Rabben" />
		<tag k="place" v="farm" />
		<tag k="ssr:stedsnr" v="117033" />
	</node>
	<node id="-428204" lat="59.5401722265" lon="5.96260832906">
		<tag k="name" v="Nyheim" />
		<tag k="place" v="farm" />
		<tag k="ssr:stedsnr" v="117027" />
	</node>
	<node id="-428203" lat="59.5317750008" lon="5.96009166811">
		<tag k="name" v="Søyland" />
		<tag k="place" v="farm" />
		<tag k="ssr:stedsnr" v="117022" />
	</node>
	<node id="-430250" lat="59.6437022378" lon="5.77400448216">
		<tag k="name" v="Nathaug" />
		<tag k="place" v="farm" />
		<tag k="ssr:stedsnr" v="973872" />
	</node>
	<node id="-428188" lat="59.6391527815" lon="5.77640832513">
		<tag k="alt_name" v="Vake" />
		<tag k="name" v="Vaka" />
		<tag k="place" v="farm" />
		<tag k="ssr:stedsnr" v="105788" />
	</node>
	<node id="-427776" lat="59.5991888909" lon="5.95593889435">
		<tag k="fixme" v="consider tourism=alpine_hut or tourism=chalet" />
		<tag k="name" v="Olabu" />
		<tag k="ssr:stedsnr" v="359007" />
		<tag k="tourism" v="wilderness_hut" />
	</node>
	<node id="-428173" lat="59.6008750008" lon="5.78689444158">
		<tag k="name" v="Litle Nerheim" />
		<tag k="place" v="farm" />
		<tag k="ssr:stedsnr" v="81487" />
	</node>
	<node id="-428170" lat="59.519080023" lon="5.93442480993">
		<tag k="alt_name" v="Vikadal, nedre;Nedre Vikedal;Vikadal;Vikedal" />
		<tag k="fixme" v="consider place=hamlet" />
		<tag k="name" v="Nedre Vikadal" />
		<tag k="place" v="farm" />
		<tag k="ssr:stedsnr" v="64911" />
	</node>
	<node id="-428169" lat="59.5175008726" lon="6.00145266059">
		<tag k="alt_name" v="Ilstveit" />
		<tag k="fixme" v="consider place=hamlet" />
		<tag k="name" v="Elstveit" />
		<tag k="place" v="farm" />
		<tag k="ssr:stedsnr" v="64898" />
	</node>
	<node id="-428168" lat="59.5074040855" lon="6.00675366943">
		<tag k="name" v="Haugaland" />
		<tag k="place" v="hamlet" />
		<tag k="ssr:stedsnr" v="64892" />
	</node>
	<node id="-428167" lat="59.5041647699" lon="6.01282346783">
		<tag k="fixme" v="consider place=hamlet" />
		<tag k="name" v="Åsbø" />
		<tag k="place" v="farm" />
		<tag k="ssr:stedsnr" v="64890" />
	</node>
	<node id="-428166" lat="59.5102559896" lon="5.61837022436">
		<tag k="fixme" v="consider place=hamlet" />
		<tag k="name" v="Eggja" />
		<tag k="place" v="farm" />
		<tag k="ssr:stedsnr" v="64652" />
	</node>
	<node id="-428165" lat="59.5148222238" lon="5.55759166299">
		<tag k="name" v="Haugen" />
		<tag k="place" v="farm" />
		<tag k="ssr:stedsnr" v="64633" />
	</node>
	<node id="-428164" lat="59.5175949511" lon="5.70438165215">
		<tag k="fixme" v="consider place=hamlet" />
		<tag k="name" v="Skrunes" />
		<tag k="place" v="farm" />
		<tag k="ssr:stedsnr" v="64623" />
	</node>
	<node id="-428162" lat="59.5473523325" lon="5.87990941603">
		<tag k="alt_name" v="Øvre Gjerå" />
		<tag k="fixme" v="consider place=hamlet" />
		<tag k="name" v="Gjerda" />
		<tag k="place" v="farm" />
		<tag k="ssr:stedsnr" v="64596" />
	</node>
	<node id="-428160" lat="59.5501688591" lon="5.8516157413">
		<tag k="fixme" v="consider place=hamlet" />
		<tag k="name" v="Bjørkhaug" />
		<tag k="place" v="farm" />
		<tag k="ssr:stedsnr" v="64592" />
	</node>
	<node id="-428159" lat="59.55420165" lon="5.86429821812">
		<tag k="alt_name" v="Helgavoll, nordre" />
		<tag k="fixme" v="consider place=hamlet" />
		<tag k="name" v="Nord-Helgevoll" />
		<tag k="place" v="farm" />
		<tag k="ssr:stedsnr" v="64578" />
	</node>
	<node id="-428158" lat="59.5657194416" lon="6.01748332819">
		<tag k="name" v="Taksteinen" />
		<tag k="place" v="farm" />
		<tag k="ssr:stedsnr" v="64577" />
	</node>
	<node id="-428156" lat="59.6572555535" lon="5.70764166106">
		<tag k="alt_name" v="Hauge, øvre" />
		<tag k="name" v="Øvre Hauge" />
		<tag k="place" v="farm" />
		<tag k="ssr:stedsnr" v="64478" />
	</node>
	<node id="-428155" lat="59.6552833321" lon="5.73065278548">
		<tag k="alt_name" v="Saltvik" />
		<tag k="name" v="Saltvika" />
		<tag k="place" v="farm" />
		<tag k="ssr:stedsnr" v="64458" />
	</node>
	<node id="-428148" lat="59.5824027809" lon="5.70683888559">
		<tag k="alt_name" v="Favnebø" />
		<tag k="name" v="Favnabø" />
		<tag k="place" v="farm" />
		<tag k="ssr:stedsnr" v="64356" />
	</node>
	<node id="-428145" lat="59.5707246065" lon="5.80107997813">
		<tag k="fixme" v="consider place=hamlet" />
		<tag k="name" v="Steinsland" />
		<tag k="place" v="farm" />
		<tag k="ssr:stedsnr" v="64350" />
	</node>
	<node id="-428143" lat="59.5658975957" lon="5.80177483503">
		<tag k="fixme" v="consider place=hamlet" />
		<tag k="name" v="Sønnanå" />
		<tag k="place" v="farm" />
		<tag k="ssr:stedsnr" v="64333" />
	</node>
	<node id="-428139" lat="59.5299881395" lon="5.64435003228">
		<tag k="fixme" v="consider place=hamlet" />
		<tag k="name" v="Rossabø" />
		<tag k="place" v="farm" />
		<tag k="ssr:stedsnr" v="64291" />
	</node>
	<node id="-428138" lat="59.5316346048" lon="5.72562009733">
		<tag k="fixme" v="consider place=hamlet" />
		<tag k="name" v="Svantesvoll" />
		<tag k="place" v="farm" />
		<tag k="ssr:stedsnr" v="64284" />
	</node>
	<node id="-428134" lat="59.5205860229" lon="5.64186895483">
		<tag k="fixme" v="consider place=hamlet" />
		<tag k="name" v="Haugen" />
		<tag k="place" v="farm" />
		<tag k="ssr:stedsnr" v="64256" />
	</node>
	<node id="-428130" lat="59.4845805559" lon="5.72012222169">
		<tag k="alt_name" v="Hola" />
		<tag k="name" v="Kårhushola" />
		<tag k="place" v="farm" />
		<tag k="ssr:stedsnr" v="63828" />
	</node>
	<node id="-428125" lat="59.4660853237" lon="5.5199957128">
		<tag k="fixme" v="consider place=hamlet" />
		<tag k="name" v="Svinakleiv" />
		<tag k="place" v="farm" />
		<tag k="ssr:stedsnr" v="63810" />
	</node>
	<node id="-428124" lat="59.4697861083" lon="5.77087500431">
		<tag k="name" v="Kvamen" />
		<tag k="place" v="farm" />
		<tag k="ssr:stedsnr" v="63798" />
	</node>
	<node id="-427706" lat="59.6147652944" lon="5.87311273648">
		<tag k="alt_name" v="Oppeim;Opheim" />
		<tag k="fixme" v="consider place=hamlet" />
		<tag k="name" v="Oppheim" />
		<tag k="place" v="farm" />
		<tag k="ssr:stedsnr" v="306509" />
	</node>
	<node id="-428122" lat="59.464725003" lon="5.7341722216">
		<tag k="name" v="Hamre" />
		<tag k="place" v="farm" />
		<tag k="ssr:stedsnr" v="63779" />
	</node>
	<node id="-428120" lat="59.6473749994" lon="5.7600250082">
		<tag k="fixme" v="multiple name tags, choose one and add the other to alt_name" />
		<tag k="name" v="Øvrabø;Øvrebø" />
		<tag k="place" v="farm" />
		<tag k="ssr:stedsnr" v="63483" />
	</node>
	<node id="-428118" lat="59.6353250018" lon="5.65753889526">
		<tag k="name" v="Nordtun" />
		<tag k="place" v="farm" />
		<tag k="ssr:stedsnr" v="63466" />
	</node>
	<node id="-428117" lat="59.6187916646" lon="5.78598055792">
		<tag k="alt_name" v="Kaate" />
		<tag k="name" v="Kåta" />
		<tag k="place" v="farm" />
		<tag k="ssr:stedsnr" v="63439" />
	</node>
	<node id="-428114" lat="59.6096444483" lon="5.76946388728">
		<tag k="name" v="Lunde" />
		<tag k="place" v="farm" />
		<tag k="ssr:stedsnr" v="63408" />
	</node>
	<node id="-428109" lat="59.4818935217" lon="6.1514346837">
		<tag k="alt_name" v="Rønnevika" />
		<tag k="fixme" v="consider place=hamlet" />
		<tag k="name" v="Rønnevik" />
		<tag k="place" v="farm" />
		<tag k="ssr:stedsnr" v="63333" />
	</node>
	<node id="-428108" lat="59.4778222177" lon="6.03273610549">
		<tag k="fixme" v="consider place=hamlet" />
		<tag k="name" v="Kvaløyna" />
		<tag k="place" v="village" />
		<tag k="ssr:stedsnr" v="63322" />
	</node>
	<node id="-428106" lat="59.487579174" lon="5.95995567276">
		<tag k="fixme" v="consider place=hamlet" />
		<tag k="name" v="Rød" />
		<tag k="place" v="farm" />
		<tag k="ssr:stedsnr" v="63307" />
	</node>
	<node id="-430152" lat="59.648162651" lon="5.6198324634">
		<tag k="name" v="Sæbjørnsplasset" />
		<tag k="place" v="locality" />
		<tag k="ssr:stedsnr" v="973304" />
	</node>
	<node id="-428095" lat="59.5645999962" lon="5.69614722342">
		<tag k="name" v="Øygarden" />
		<tag k="place" v="farm" />
		<tag k="ssr:stedsnr" v="58988" />
	</node>
	<node id="-430138" lat="59.6442903505" lon="5.56115142802">
		<tag k="name" v="Hopen" />
		<tag k="place" v="farm" />
		<tag k="ssr:stedsnr" v="973211" />
	</node>
	<node id="-430137" lat="59.6465707683" lon="5.55826762859">
		<tag k="name" v="Krabbahopen" />
		<tag k="place" v="farm" />
		<tag k="ssr:stedsnr" v="973210" />
	</node>
	<node id="-430129" lat="59.6704755872" lon="5.73533721068">
		<tag k="name" v="Makkøyra" />
		<tag k="place" v="farm" />
		<tag k="ssr:stedsnr" v="973168" />
	</node>
	<node id="-428078" lat="59.5525722222" lon="6.02196111322">
		<tag k="name" v="Garfjosen" />
		<tag k="place" v="locality" />
		<tag k="ssr:stedsnr" v="58316" />
	</node>
	<node id="-428076" lat="59.5146111129" lon="5.92240278016">
		<tag k="name" v="Nybøen" />
		<tag k="place" v="farm" />
		<tag k="ssr:stedsnr" v="58194" />
	</node>
	<node id="-430122" lat="59.6776114174" lon="5.73457541622">
		<tag k="name" v="Grindanes" />
		<tag k="place" v="farm" />
		<tag k="ssr:stedsnr" v="973129" />
	</node>
	<node id="-428072" lat="59.6048305588" lon="5.83273333119">
		<tag k="name" v="Dørheim" />
		<tag k="place" v="quarter" />
		<tag k="ssr:stedsnr" v="56892" />
	</node>
	<node id="-428070" lat="59.5309999991" lon="5.95071667075">
		<tag k="name" v="Espeland" />
		<tag k="place" v="farm" />
		<tag k="ssr:stedsnr" v="56535" />
	</node>
	<node id="-430114" lat="59.6601341315" lon="5.7060807181">
		<tag k="name" v="Ekeberg" />
		<tag k="place" v="farm" />
		<tag k="ssr:stedsnr" v="973066" />
	</node>
	<node id="-427696" lat="59.594300001" lon="5.75905832581">
		<tag k="alt_name" v="Høgekro" />
		<tag k="name" v="Høgrekro" />
		<tag k="place" v="farm" />
		<tag k="ssr:stedsnr" v="306362" />
	</node>
	<node id="-430107" lat="59.666382617" lon="5.67743411624">
		<tag k="name" v="Grøndal" />
		<tag k="place" v="farm" />
		<tag k="ssr:stedsnr" v="973047" />
	</node>
	<node id="-430105" lat="59.6574664243" lon="5.66894316537">
		<tag k="fixme" v="consider place=hamlet" />
		<tag k="name" v="Nordre Hetland" />
		<tag k="place" v="farm" />
		<tag k="ssr:stedsnr" v="973042" />
	</node>
	<node id="-430104" lat="59.6612466762" lon="5.67705826414">
		<tag k="amenity" v="school" />
		<tag k="name" v="Bjoa" />
		<tag k="ssr:stedsnr" v="973044" />
	</node>
	<node id="-430103" lat="59.6610159126" lon="5.65670088713">
		<tag k="name" v="Austli" />
		<tag k="place" v="farm" />
		<tag k="ssr:stedsnr" v="973041" />
	</node>
	<node id="-430101" lat="59.6615663528" lon="5.66832897556">
		<tag k="name" v="Nymark" />
		<tag k="place" v="farm" />
		<tag k="ssr:stedsnr" v="973036" />
	</node>
	<node id="-430099" lat="59.6626861545" lon="5.65640891977">
		<tag k="name" v="Nygård" />
		<tag k="place" v="farm" />
		<tag k="ssr:stedsnr" v="973028" />
	</node>
	<node id="-428037" lat="59.608269443" lon="5.77301111656">
		<tag k="amenity" v="school" />
		<tag k="name" v="Lundeneset VGS" />
		<tag k="ssr:stedsnr" v="39581" />
	</node>
</osm>
