<?xml version="1.0" encoding="UTF-8"?>
<osm version="0.6" generator="osmapis">
	<node lat="59.5115749962627" lon="5.6251583401049405" id="-3306">
		<tag k="name" v="Lofthus" />
		<tag k="place" v="locality" />
		<tag k="ssr:stedsnr" v="23703" />
	</node>
	<node lat="59.56616666522791" lon="5.846302783157792" id="-3340">
		<tag k="name" v="Vindfinnmyra" />
		<tag k="natural" v="wetland" />
		<tag k="ssr:stedsnr" v="56014" />
	</node>
	<node lat="59.577863890465935" lon="5.7000166627373865" id="-3359">
		<tag k="name" v="Longemyr" />
		<tag k="natural" v="wetland" />
		<tag k="ssr:stedsnr" v="58927" />
	</node>
	<node lat="59.542291667932716" lon="5.686508338949563" id="-3369">
		<tag k="name" v="Peratræ" />
		<tag k="place" v="locality" />
		<tag k="ssr:stedsnr" v="240665" />
	</node>
	<node lat="59.55105000427041" lon="5.829927783624019" id="-3375">
		<tag k="name" v="Bjørkhaughagane" />
		<tag k="place" v="locality" />
		<tag k="ssr:stedsnr" v="240799" />
	</node>
	<node lat="59.58978333374082" lon="5.801538897056335" id="-3381">
		<tag k="historic" v="shieling" />
		<tag k="name" v="Stølen" />
		<tag k="place" v="locality" />
		<tag k="ssr:stedsnr" v="240974" />
	</node>
	<node lat="59.47974722625828" lon="5.797683330523667" id="-3453">
		<tag k="name" v="Veikjamyra" />
		<tag k="natural" v="wetland" />
		<tag k="ssr:stedsnr" v="117169" />
	</node>
	<node lat="59.55294166474764" lon="5.616980559056801" id="-3518">
		<tag k="historic" v="shieling" />
		<tag k="name" v="Gonlistølen" />
		<tag k="place" v="locality" />
		<tag k="ssr:stedsnr" v="180108" />
	</node>
	<node lat="59.51383333178861" lon="5.561536107322764" id="-3548">
		<tag k="name" v="Skogagjerdet" />
		<tag k="place" v="locality" />
		<tag k="ssr:stedsnr" v="205687" />
	</node>
	<node lat="59.57162499982472" lon="6.0863222287080525" id="-3585">
		<tag k="name" v="Bjønnstimarka" />
		<tag k="place" v="locality" />
		<tag k="ssr:stedsnr" v="451282" />
	</node>
	<node lat="59.48142500071472" lon="5.649380555329914" id="-3594">
		<tag k="name" v="Tjørnalimyra" />
		<tag k="natural" v="wetland" />
		<tag k="ssr:stedsnr" v="245818" />
	</node>
	<node lat="59.646169444750505" lon="5.775274998137017" id="-3620">
		<tag k="alt_name" v="Hanen" />
		<tag k="name" v="Stavaneshanen" />
		<tag k="natural" v="stone" />
		<tag k="ssr:stedsnr" v="287806" />
	</node>
	<node lat="59.5399138896133" lon="5.900308337831458" id="-3634">
		<tag k="name" v="Stølsurene" />
		<tag k="natural" v="scree" />
		<tag k="ssr:stedsnr" v="301198" />
	</node>
	<node lat="59.47819166469234" lon="5.509066671396033" id="-3639">
		<tag k="name" v="Løkjene" />
		<tag k="natural" v="wetland" />
		<tag k="ssr:stedsnr" v="303110" />
	</node>
	<node lat="59.50831666364067" lon="5.646433324929714" id="-3665">
		<tag k="name" v="Grønemyr" />
		<tag k="natural" v="wetland" />
		<tag k="ssr:stedsnr" v="307652" />
	</node>
	<node lat="59.57822777688944" lon="5.571466661388949" id="-3691">
		<tag k="name" v="Storemyra" />
		<tag k="natural" v="wetland" />
		<tag k="ssr:stedsnr" v="363224" />
	</node>
	<node lat="59.582441662935686" lon="5.576711113535384" id="-3693">
		<tag k="name" v="Såtemyr" />
		<tag k="natural" v="wetland" />
		<tag k="ssr:stedsnr" v="363234" />
	</node>
	<node lat="59.42067221965687" lon="5.692027782222303" id="-3694">
		<tag k="name" v="Slåttå" />
		<tag k="place" v="locality" />
		<tag k="ssr:stedsnr" v="477896" />
	</node>
	<node lat="59.56042221902427" lon="5.9163583404858215" id="-3721">
		<tag k="historic" v="shieling" />
		<tag k="name" v="Gammelstølen" />
		<tag k="place" v="locality" />
		<tag k="ssr:stedsnr" v="481088" />
	</node>
	<node lat="59.55440555414817" lon="5.8963916730937" id="-3724">
		<tag k="name" v="Skokk" />
		<tag k="natural" v="scree" />
		<tag k="ssr:stedsnr" v="481041" />
	</node>
	<node lat="59.55172777738575" lon="5.948311109696323" id="-3726">
		<tag k="name" v="Krakalileitet" />
		<tag k="place" v="locality" />
		<tag k="ssr:stedsnr" v="481053" />
	</node>
	<node lat="59.59290832983214" lon="5.8954277757673745" id="-3730">
		<tag k="name" v="Slettastølen" />
		<tag k="place" v="locality" />
		<tag k="ssr:stedsnr" v="481231" />
	</node>
	<node lat="59.572663889307876" lon="6.097569445640419" id="-3739">
		<tag k="alt_name" v="Knipamarka" />
		<tag k="name" v="Knipamark" />
		<tag k="place" v="locality" />
		<tag k="ssr:stedsnr" v="482282" />
	</node>
	<node lat="59.571511115035605" lon="5.781999992804277" id="-3740">
		<tag k="name" v="Kjorkjesteinen" />
		<tag k="natural" v="stone" />
		<tag k="ssr:stedsnr" v="482846" />
	</node>
	<node lat="59.57695555124121" lon="5.806122218019762" id="-3743">
		<tag k="name" v="Myren" />
		<tag k="natural" v="wetland" />
		<tag k="ssr:stedsnr" v="482939" />
	</node>
	<node lat="59.587941669964366" lon="5.792658338228233" id="-3744">
		<tag k="historic" v="shieling" />
		<tag k="name" v="Liarestølen" />
		<tag k="place" v="locality" />
		<tag k="ssr:stedsnr" v="482968" />
	</node>
	<node lat="59.5138749989035" lon="5.986441661626683" id="-3805">
		<tag k="historic" v="shieling" />
		<tag k="name" v="Rødstølen" />
		<tag k="place" v="locality" />
		<tag k="ssr:stedsnr" v="420449" />
	</node>
	<node lat="59.4962111078554" lon="5.753652772339534" id="-3808">
		<tag k="name" v="Lindurene" />
		<tag k="natural" v="scree" />
		<tag k="ssr:stedsnr" v="421040" />
	</node>
	<node lat="59.59000277589745" lon="6.071583332298856" id="-3812">
		<tag k="historic" v="shieling" />
		<tag k="name" v="Flåtevasstølen" />
		<tag k="place" v="locality" />
		<tag k="ssr:stedsnr" v="422293" />
	</node>
	<node lat="59.493997220159045" lon="6.051069442976526" id="-3879">
		<tag k="historic" v="shieling" />
		<tag k="name" v="Liabostøl" />
		<tag k="place" v="locality" />
		<tag k="ssr:stedsnr" v="481303" />
	</node>
	<node lat="59.52550277557609" lon="5.83553056225633" id="-3889">
		<tag k="name" v="Hadlebakkane" />
		<tag k="place" v="locality" />
		<tag k="ssr:stedsnr" v="482226" />
	</node>
	<node lat="59.56787499820305" lon="6.016783326399563" id="-3890">
		<tag k="name" v="Råså" />
		<tag k="natural" v="scree" />
		<tag k="ssr:stedsnr" v="482262" />
	</node>
	<node lat="59.48938611298584" lon="5.6400277766313875" id="-3901">
		<tag k="alt_name" v="Sagamyrane" />
		<tag k="name" v="Kjervamyra" />
		<tag k="natural" v="wetland" />
		<tag k="ssr:stedsnr" v="487858" />
	</node>
	<node lat="59.50614999694413" lon="5.46543888616401" id="-3930">
		<tag k="name" v="Glesteinen" />
		<tag k="natural" v="stone" />
		<tag k="ssr:stedsnr" v="511705" />
	</node>
	<node lat="59.453647224438676" lon="5.817505561072687" id="-3951">
		<tag k="name" v="Trodlura" />
		<tag k="natural" v="scree" />
		<tag k="ssr:stedsnr" v="543911" />
	</node>
	<node lat="59.55632222132145" lon="5.69401943697095" id="-3954">
		<tag k="name" v="Kjelarmyra" />
		<tag k="natural" v="wetland" />
		<tag k="ssr:stedsnr" v="543981" />
	</node>
	<node lat="59.5290750004424" lon="5.6266361041170105" id="-3999">
		<tag k="name" v="Brakastova" />
		<tag k="natural" v="wetland" />
		<tag k="ssr:stedsnr" v="568660" />
	</node>
	<node lat="59.49886944873275" lon="5.5595722142056845" id="-4044">
		<tag k="name" v="Grovene" />
		<tag k="place" v="locality" />
		<tag k="ssr:stedsnr" v="629704" />
	</node>
	<node lat="59.48516110717084" lon="6.141813881654281" id="-4057">
		<tag k="name" v="Raumyr" />
		<tag k="natural" v="wetland" />
		<tag k="ssr:stedsnr" v="661605" />
	</node>
	<node lat="59.488794440085506" lon="6.134227778309023" id="-4058">
		<tag k="name" v="Longe Myrane" />
		<tag k="natural" v="wetland" />
		<tag k="ssr:stedsnr" v="661608" />
	</node>
	<node lat="59.462183331260796" lon="5.5238583361091615" id="-4082">
		<tag k="name" v="Monsløkjene" />
		<tag k="natural" v="wetland" />
		<tag k="ssr:stedsnr" v="667114" />
	</node>
	<node lat="59.54910000422921" lon="5.993894439692691" id="-4208">
		<tag k="name" v="Gullhaughagen" />
		<tag k="place" v="locality" />
		<tag k="ssr:stedsnr" v="784013" />
	</node>
	<node lat="59.513147223329" lon="5.92511667411324" id="-4220">
		<tag k="name" v="Gunlasteinen" />
		<tag k="natural" v="stone" />
		<tag k="ssr:stedsnr" v="786156" />
	</node>
	<node lat="59.57933333494166" lon="5.955588897005768" id="-4224">
		<tag k="name" v="Bongsabolet" />
		<tag k="natural" v="scree" />
		<tag k="ssr:stedsnr" v="786422" />
	</node>
	<node lat="59.463999998445786" lon="5.673930556187503" id="-4239">
		<tag k="alt_name" v="Store Myrane" />
		<tag k="name" v="Stormyra" />
		<tag k="natural" v="wetland" />
		<tag k="ssr:stedsnr" v="791810" />
	</node>
	<node lat="59.49750833352708" lon="6.046594439172672" id="-4337">
		<tag k="historic" v="shieling" />
		<tag k="name" v="Tårnstøl" />
		<tag k="place" v="locality" />
		<tag k="ssr:stedsnr" v="845287" />
	</node>
	<node lat="59.48025277511104" lon="5.957519442260397" id="-4397">
		<tag k="name" v="Blautmyr" />
		<tag k="natural" v="wetland" />
		<tag k="ssr:stedsnr" v="906367" />
	</node>
	<node lat="59.460549998419864" lon="5.639691667747675" id="-4431">
		<tag k="name" v="Storefjellsmyra" />
		<tag k="natural" v="wetland" />
		<tag k="ssr:stedsnr" v="913798" />
	</node>
	<node lat="59.50085555455187" lon="5.562697226155675" id="-4439">
		<tag k="name" v="Jonamyra" />
		<tag k="natural" v="wetland" />
		<tag k="ssr:stedsnr" v="933735" />
	</node>
	<node lat="59.51736666500969" lon="6.031894451014427" id="-4450">
		<tag k="historic" v="shieling" />
		<tag k="name" v="Brattalandstølen" />
		<tag k="place" v="locality" />
		<tag k="ssr:stedsnr" v="968399" />
	</node>
	<node lat="59.513475000682114" lon="5.749711119238579" id="-4459">
		<tag k="name" v="Friarsteinen" />
		<tag k="natural" v="stone" />
		<tag k="ssr:stedsnr" v="968897" />
	</node>
	<node lat="59.68251975151926" lon="5.598013343801754" id="-4473">
		<tag k="landuse" v="meadow" />
		<tag k="name" v="Løken" />
		<tag k="ssr:stedsnr" v="972602" />
	</node>
	<node lat="59.6732963396233" lon="5.581886265322487" id="-4483">
		<tag k="name" v="Sandviksanden" />
		<tag k="natural" v="beach" />
		<tag k="ssr:stedsnr" v="972616" />
		<tag k="surface" v="sand" />
	</node>
	<node lat="59.6654275740927" lon="5.635237304773143" id="-4489">
		<tag k="name" v="Træ" />
		<tag k="place" v="locality" />
		<tag k="ssr:stedsnr" v="972983" />
	</node>
	<node lat="59.64899118770248" lon="5.646835976367993" id="-4508">
		<tag k="name" v="Eikjetræ" />
		<tag k="place" v="locality" />
		<tag k="ssr:stedsnr" v="973332" />
	</node>
	<node lat="59.644740223104364" lon="5.653633755957521" id="-4514">
		<tag k="name" v="Spreng" />
		<tag k="natural" v="wetland" />
		<tag k="ssr:stedsnr" v="973340" />
	</node>
	<node lat="59.64093175001565" lon="5.648422341263" id="-4516">
		<tag k="name" v="Pøyla" />
		<tag k="natural" v="wetland" />
		<tag k="ssr:stedsnr" v="973342" />
	</node>
	<node lat="59.65362612464243" lon="5.734686988811988" id="-4522">
		<tag k="name" v="Hallgilje" />
		<tag k="place" v="locality" />
		<tag k="ssr:stedsnr" v="973781" />
	</node>
	<node lat="59.64506930398453" lon="5.734709413940034" id="-4527">
		<tag k="name" v="Klovsteinen" />
		<tag k="natural" v="stone" />
		<tag k="ssr:stedsnr" v="973788" />
	</node>
	<node lat="59.644652701315984" lon="5.73232322467466" id="-4528">
		<tag k="name" v="Klovsteinsmyrane" />
		<tag k="natural" v="wetland" />
		<tag k="ssr:stedsnr" v="973789" />
	</node>
	<node lat="59.64745442028525" lon="5.745929717387182" id="-4532">
		<tag k="name" v="Storsteinsmyrane" />
		<tag k="natural" v="wetland" />
		<tag k="ssr:stedsnr" v="973865" />
	</node>
	<node lat="59.64013815505782" lon="5.805049088338646" id="-4535">
		<tag k="name" v="Moldbrekkmyra" />
		<tag k="natural" v="wetland" />
		<tag k="ssr:stedsnr" v="973919" />
	</node>
	<node lat="59.63086001638526" lon="5.695251176313143" id="-4543">
		<tag k="historic" v="shieling" />
		<tag k="name" v="Fjellgarden" />
		<tag k="place" v="locality" />
		<tag k="ssr:stedsnr" v="974700" />
	</node>
	<node lat="59.62250271051004" lon="5.6920688423299" id="-4562">
		<tag k="name" v="Langemyr" />
		<tag k="natural" v="wetland" />
		<tag k="ssr:stedsnr" v="974553" />
	</node>
	<node lat="59.609306918061776" lon="5.705080730777656" id="-4634">
		<tag k="name" v="Brurasteinen" />
		<tag k="natural" v="stone" />
		<tag k="ssr:stedsnr" v="977155" />
	</node>
	<node lat="59.58777633100737" lon="5.590424489456527" id="-4663">
		<tag k="name" v="Orramyra" />
		<tag k="natural" v="wetland" />
		<tag k="ssr:stedsnr" v="977218" />
	</node>
	<node lat="59.58446208329347" lon="5.5677092163178115" id="-4675">
		<tag k="name" v="Liksteinen" />
		<tag k="natural" v="stone" />
		<tag k="ssr:stedsnr" v="977232" />
	</node>
	<node lat="59.58667570644589" lon="5.570146979850697" id="-4676">
		<tag k="name" v="Bråtene" />
		<tag k="place" v="locality" />
		<tag k="ssr:stedsnr" v="977233" />
	</node>
	<node lat="59.53399006900398" lon="5.592700596894044" id="-4690">
		<tag k="name" v="Svartemyra" />
		<tag k="natural" v="wetland" />
		<tag k="ssr:stedsnr" v="981060" />
	</node>
	<node lat="59.56422222662911" lon="5.646838890106378" id="-4737">
		<tag k="name" v="Sørhusstølen" />
		<tag k="place" v="locality" />
		<tag k="ssr:stedsnr" v="23700" />
	</node>
	<node lat="59.480838892705414" lon="5.844358337268759" id="-4754">
		<tag k="name" v="Kloppamyr" />
		<tag k="natural" v="wetland" />
		<tag k="ssr:stedsnr" v="56223" />
	</node>
	<node lat="59.50436944845924" lon="6.061936106632478" id="-4762">
		<tag k="name" v="Liarstølmyrane" />
		<tag k="natural" v="wetland" />
		<tag k="ssr:stedsnr" v="56527" />
	</node>
	<node lat="59.536738888552215" lon="5.843411109162345" id="-4775">
		<tag k="name" v="Oterbergsteinen" />
		<tag k="natural" v="stone" />
		<tag k="ssr:stedsnr" v="58847" />
	</node>
	<node lat="59.49945277963302" lon="5.942763884639398" id="-4858">
		<tag k="name" v="Vassmyra" />
		<tag k="natural" v="wetland" />
		<tag k="ssr:stedsnr" v="117329" />
	</node>
	<node lat="59.58292500127854" lon="5.875033331950439" id="-4862">
		<tag k="name" v="Åsmyra" />
		<tag k="natural" v="wetland" />
		<tag k="ssr:stedsnr" v="118850" />
	</node>
	<node lat="59.5271972236722" lon="5.932202774130011" id="-4863">
		<tag k="name" v="Kjorkjeurene" />
		<tag k="natural" v="scree" />
		<tag k="ssr:stedsnr" v="118148" />
	</node>
	<node lat="59.57547222290171" lon="5.804972225834279" id="-4870">
		<tag k="name" v="Myrebø" />
		<tag k="place" v="locality" />
		<tag k="ssr:stedsnr" v="118949" />
	</node>
	<node lat="59.48664166638294" lon="5.654402784756287" id="-4876">
		<tag k="landuse" v="meadow" />
		<tag k="name" v="Kjorkjeteigen (Sagjå)" />
		<tag k="ssr:stedsnr" v="121050" />
	</node>
	<node lat="59.485347219054155" lon="5.524250005458944" id="-4879">
		<tag k="name" v="Liamyra" />
		<tag k="natural" v="wetland" />
		<tag k="ssr:stedsnr" v="121110" />
	</node>
	<node lat="59.48236111137098" lon="5.49920000218925" id="-4908">
		<tag k="alt_name" v="Stora Myrå" />
		<tag k="name" v="Storemyra" />
		<tag k="natural" v="wetland" />
		<tag k="ssr:stedsnr" v="124847" />
	</node>
	<node lat="59.51676944158424" lon="5.887580551611252" id="-4911">
		<tag k="alt_name" v="Longemyr" />
		<tag k="name" v="Langemyr" />
		<tag k="natural" v="wetland" />
		<tag k="ssr:stedsnr" v="124875" />
	</node>
	<node lat="59.58820000389216" lon="5.920991661444028" id="-5042">
		<tag k="name" v="Grasdalsmyra" />
		<tag k="natural" v="wetland" />
		<tag k="ssr:stedsnr" v="299231" />
	</node>
	<node lat="59.52656666257046" lon="5.835641669295886" id="-5053">
		<tag k="name" v="Storesteinane" />
		<tag k="natural" v="stone" />
		<tag k="ssr:stedsnr" v="300252" />
	</node>
	<node lat="59.52381944133167" lon="5.98288334178659" id="-5156">
		<tag k="historic" v="shieling" />
		<tag k="name" v="Nesstølen" />
		<tag k="place" v="locality" />
		<tag k="ssr:stedsnr" v="359439" />
	</node>
	<node lat="59.56198332972574" lon="6.0738944428156785" id="-5165">
		<tag k="name" v="Markaråsa" />
		<tag k="place" v="locality" />
		<tag k="ssr:stedsnr" v="361301" />
	</node>
	<node lat="59.54226388674192" lon="5.669433329739704" id="-5170">
		<tag k="name" v="Omskogen" />
		<tag k="place" v="locality" />
		<tag k="ssr:stedsnr" v="361671" />
	</node>
	<node lat="59.476066670896444" lon="5.713988883729014" id="-5241">
		<tag k="name" v="Marapøyla" />
		<tag k="natural" v="wetland" />
		<tag k="ssr:stedsnr" v="420107" />
	</node>
	<node lat="59.46384166584431" lon="5.832325002648207" id="-5274">
		<tag k="name" v="Kalvsmyrane" />
		<tag k="natural" v="wetland" />
		<tag k="ssr:stedsnr" v="427749" />
	</node>
	<node lat="59.476419446674" lon="5.733330551375393" id="-5319">
		<tag k="name" v="Øyra" />
		<tag k="place" v="locality" />
		<tag k="ssr:stedsnr" v="510478" />
	</node>
	<node lat="59.49878888747629" lon="6.13108055927009" id="-5335">
		<tag k="name" v="Svartafjellet" />
		<tag k="place" v="locality" />
		<tag k="ssr:stedsnr" v="539656" />
	</node>
	<node lat="59.59266944110323" lon="5.797169444087773" id="-5352">
		<tag k="name" v="Løkjelsmyra" />
		<tag k="natural" v="wetland" />
		<tag k="ssr:stedsnr" v="543963" />
	</node>
	<node lat="59.54383055977735" lon="5.677719448323747" id="-5354">
		<tag k="name" v="Låkebakkmyrane" />
		<tag k="natural" v="wetland" />
		<tag k="ssr:stedsnr" v="544662" />
	</node>
	<node lat="59.49958889136651" lon="5.567266671102667" id="-5396">
		<tag k="name" v="Longemyr" />
		<tag k="natural" v="wetland" />
		<tag k="ssr:stedsnr" v="568683" />
	</node>
	<node lat="59.49882499837339" lon="5.4728583362606615" id="-5401">
		<tag k="name" v="Geitaråsløkjene" />
		<tag k="natural" v="wetland" />
		<tag k="ssr:stedsnr" v="572756" />
	</node>
	<node lat="59.57872777448811" lon="5.907172215333189" id="-5414">
		<tag k="name" v="Storhaugmyra" />
		<tag k="natural" v="wetland" />
		<tag k="ssr:stedsnr" v="602218" />
	</node>
	<node lat="59.50238333142869" lon="5.884999995313763" id="-5415">
		<tag k="name" v="Svartops" />
		<tag k="place" v="locality" />
		<tag k="ssr:stedsnr" v="602220" />
	</node>
	<node lat="59.484780557250275" lon="6.045566672440919" id="-5419">
		<tag k="name" v="Torkjelsurene" />
		<tag k="natural" v="scree" />
		<tag k="ssr:stedsnr" v="602478" />
	</node>
	<node lat="59.561602780907464" lon="5.635308328801632" id="-5430">
		<tag k="historic" v="shieling" />
		<tag k="name" v="Raunestølen" />
		<tag k="place" v="locality" />
		<tag k="ssr:stedsnr" v="604079" />
	</node>
	<node lat="59.50263888967748" lon="5.834350004360198" id="-5516">
		<tag k="name" v="Seiasteinen" />
		<tag k="natural" v="stone" />
		<tag k="ssr:stedsnr" v="663217" />
	</node>
	<node lat="59.506255558574445" lon="5.948972217891534" id="-5519">
		<tag k="historic" v="shieling" />
		<tag k="name" v="Vårstøl" />
		<tag k="place" v="locality" />
		<tag k="ssr:stedsnr" v="663278" />
	</node>
	<node lat="59.5107138884061" lon="5.965966666707736" id="-5535">
		<tag k="name" v="Gråur" />
		<tag k="natural" v="scree" />
		<tag k="ssr:stedsnr" v="664422" />
	</node>
	<node lat="59.58331666653657" lon="5.7851249980993265" id="-5545">
		<tag k="name" v="Bjørnsemyr" />
		<tag k="natural" v="wetland" />
		<tag k="ssr:stedsnr" v="664971" />
	</node>
	<node lat="59.56459722171955" lon="5.597294436981404" id="-5552">
		<tag k="historic" v="shieling" />
		<tag k="name" v="Ulvebnestølen" />
		<tag k="place" v="locality" />
		<tag k="ssr:stedsnr" v="666938" />
	</node>
	<node lat="59.51536944331969" lon="6.095794438486295" id="-5563">
		<tag k="alt_name" v="Kallamyrane" />
		<tag k="name" v="Kaldamyrane" />
		<tag k="natural" v="wetland" />
		<tag k="ssr:stedsnr" v="670876" />
	</node>
	<node lat="59.48160277988301" lon="5.765036106267078" id="-5588">
		<tag k="name" v="Stølane" />
		<tag k="place" v="locality" />
		<tag k="ssr:stedsnr" v="723096" />
	</node>
	<node lat="59.50199722038911" lon="5.949391664108906" id="-5597">
		<tag k="name" v="Bispekyrkja" />
		<tag k="natural" v="stone" />
		<tag k="ssr:stedsnr" v="724276" />
	</node>
	<node lat="59.489483331714865" lon="5.746258341125655" id="-5599">
		<tag k="name" v="Sølvhammarmyra" />
		<tag k="natural" v="wetland" />
		<tag k="ssr:stedsnr" v="724043" />
	</node>
	<node lat="59.44605000343695" lon="5.762558339133102" id="-5601">
		<tag k="name" v="Stokkura" />
		<tag k="natural" v="scree" />
		<tag k="ssr:stedsnr" v="724783" />
	</node>
	<node lat="59.5131027758029" lon="5.934369447581728" id="-5606">
		<tag k="name" v="Svartops" />
		<tag k="place" v="locality" />
		<tag k="ssr:stedsnr" v="725180" />
	</node>
	<node lat="59.5788277780242" lon="6.0761527862723295" id="-5607">
		<tag k="name" v="Slåttene" />
		<tag k="place" v="locality" />
		<tag k="ssr:stedsnr" v="725285" />
	</node>
	<node lat="59.480013884680574" lon="5.553924996762224" id="-5638">
		<tag k="name" v="Kroaland" />
		<tag k="place" v="locality" />
		<tag k="ssr:stedsnr" v="730851" />
	</node>
	<node lat="59.55785833040098" lon="5.649030558354165" id="-5678">
		<tag k="name" v="Slåttå" />
		<tag k="place" v="locality" />
		<tag k="ssr:stedsnr" v="751695" />
	</node>
	<node lat="59.54199722364356" lon="6.04420278517613" id="-5700">
		<tag k="name" v="Fjoringsteinane" />
		<tag k="natural" v="scree" />
		<tag k="ssr:stedsnr" v="784490" />
	</node>
	<node lat="59.4791194463026" lon="5.711377768927717" id="-5709">
		<tag k="name" v="Årsmyra" />
		<tag k="natural" v="wetland" />
		<tag k="ssr:stedsnr" v="786030" />
	</node>
	<node lat="59.558472221309785" lon="6.023777785677587" id="-5715">
		<tag k="name" v="Bjødnaskor" />
		<tag k="place" v="locality" />
		<tag k="ssr:stedsnr" v="786287" />
	</node>
	<node lat="59.57473888932546" lon="6.067633335377897" id="-5716">
		<tag k="name" v="Bustur" />
		<tag k="natural" v="scree" />
		<tag k="ssr:stedsnr" v="786294" />
	</node>
	<node lat="59.545699998812296" lon="5.829033337272491" id="-5727">
		<tag k="name" v="Bløytedne" />
		<tag k="natural" v="wetland" />
		<tag k="ssr:stedsnr" v="786787" />
	</node>
	<node lat="59.5488777765741" lon="5.636436110448465" id="-5787">
		<tag k="historic" v="shieling" />
		<tag k="name" v="Stølen" />
		<tag k="place" v="locality" />
		<tag k="ssr:stedsnr" v="829816" />
	</node>
	<node lat="59.477458334646656" lon="5.996824998162265" id="-5804">
		<tag k="alt_name" v="Salvur" />
		<tag k="name" v="Salvurda" />
		<tag k="natural" v="scree" />
		<tag k="ssr:stedsnr" v="845498" />
	</node>
	<node lat="59.506519447665184" lon="5.482599992921308" id="-5886">
		<tag k="name" v="Brunnamyra" />
		<tag k="natural" v="wetland" />
		<tag k="ssr:stedsnr" v="876774" />
	</node>
	<node lat="59.51532499780075" lon="5.815705547083721" id="-5939">
		<tag k="name" v="Kalvatræsteinen" />
		<tag k="natural" v="stone" />
		<tag k="ssr:stedsnr" v="968866" />
	</node>
	<node lat="59.66364244961278" lon="5.621090868051088" id="-5963">
		<tag k="name" v="Høllkemyr" />
		<tag k="natural" v="wetland" />
		<tag k="ssr:stedsnr" v="972904" />
	</node>
	<node lat="59.66963060143117" lon="5.614825508416255" id="-5971">
		<tag k="name" v="Valgardsmyr" />
		<tag k="natural" v="wetland" />
		<tag k="ssr:stedsnr" v="972913" />
	</node>
	<node lat="59.65306059791296" lon="5.629847363075611" id="-6024">
		<tag k="name" v="Blåmyr" />
		<tag k="natural" v="wetland" />
		<tag k="ssr:stedsnr" v="973311" />
	</node>
	<node lat="59.65371903838928" lon="5.618153185165285" id="-6027">
		<tag k="name" v="Øspeskarsmyra" />
		<tag k="natural" v="wetland" />
		<tag k="ssr:stedsnr" v="973315" />
	</node>
	<node lat="59.65665589514632" lon="5.632887128747441" id="-6029">
		<tag k="name" v="Håvåsemyra" />
		<tag k="natural" v="wetland" />
		<tag k="ssr:stedsnr" v="973319" />
	</node>
	<node lat="59.64025553191392" lon="5.6610354037897554" id="-6059">
		<tag k="name" v="Glåmyr" />
		<tag k="natural" v="wetland" />
		<tag k="ssr:stedsnr" v="973650" />
	</node>
	<node lat="59.6392914533682" lon="5.674181580624219" id="-6062">
		<tag k="historic" v="shieling" />
		<tag k="name" v="Øvrestølen" />
		<tag k="place" v="locality" />
		<tag k="ssr:stedsnr" v="973653" />
	</node>
	<node lat="59.642566219800464" lon="5.6828463650557905" id="-6065">
		<tag k="name" v="Svalesteinen" />
		<tag k="natural" v="stone" />
		<tag k="ssr:stedsnr" v="973656" />
	</node>
	<node lat="59.65182985501552" lon="5.68364019322696" id="-6069">
		<tag k="name" v="Gaupur" />
		<tag k="natural" v="scree" />
		<tag k="ssr:stedsnr" v="973686" />
	</node>
	<node lat="59.64703509431678" lon="5.714519154384828" id="-6082">
		<tag k="name" v="Storesteinen" />
		<tag k="natural" v="stone" />
		<tag k="ssr:stedsnr" v="973753" />
	</node>
	<node lat="59.65219909003112" lon="5.713458953023538" id="-6085">
		<tag k="name" v="Veikjemyrane" />
		<tag k="natural" v="wetland" />
		<tag k="ssr:stedsnr" v="973769" />
	</node>
	<node lat="59.65732515980286" lon="5.723557751164987" id="-6090">
		<tag k="name" v="Teigane" />
		<tag k="place" v="locality" />
		<tag k="ssr:stedsnr" v="973777" />
	</node>
	<node lat="59.64812849672531" lon="5.765548645596648" id="-6096">
		<tag k="name" v="Indrestølen" />
		<tag k="place" v="locality" />
		<tag k="ssr:stedsnr" v="973871" />
	</node>
	<node lat="59.64149480178921" lon="5.775570603824959" id="-6101">
		<tag k="name" v="Torpe" />
		<tag k="place" v="locality" />
		<tag k="ssr:stedsnr" v="973881" />
	</node>
	<node lat="59.632044051913354" lon="5.66568167482519" id="-6121">
		<tag k="name" v="Hekklesmyr" />
		<tag k="natural" v="wetland" />
		<tag k="ssr:stedsnr" v="974462" />
	</node>
	<node lat="59.63294603536921" lon="5.663080359464268" id="-6123">
		<tag k="name" v="Eikeflåt" />
		<tag k="natural" v="wetland" />
		<tag k="ssr:stedsnr" v="974464" />
	</node>
	<node lat="59.61708715046508" lon="5.667756755137213" id="-6130">
		<tag k="name" v="Kjellemyr" />
		<tag k="natural" v="wetland" />
		<tag k="ssr:stedsnr" v="974479" />
	</node>
	<node lat="59.62890515877862" lon="5.763952867965168" id="-6145">
		<tag k="name" v="Buene" />
		<tag k="place" v="locality" />
		<tag k="ssr:stedsnr" v="974823" />
	</node>
	<node lat="59.63165247272499" lon="5.779021837725265" id="-6151">
		<tag k="name" v="Urebøsteinane" />
		<tag k="natural" v="stone" />
		<tag k="ssr:stedsnr" v="974827" />
	</node>
	<node lat="59.630935256605724" lon="5.79813855898688" id="-6160">
		<tag k="name" v="Leitet" />
		<tag k="place" v="locality" />
		<tag k="ssr:stedsnr" v="974836" />
	</node>
	<node lat="59.60634167723971" lon="5.817394627333974" id="-6172">
		<tag k="name" v="Litlehagen" />
		<tag k="place" v="locality" />
		<tag k="ssr:stedsnr" v="974919" />
	</node>
	<node lat="59.57845889397267" lon="5.7137429325204065" id="-6184">
		<tag k="name" v="Frønsdalsmyrane" />
		<tag k="natural" v="wetland" />
		<tag k="ssr:stedsnr" v="977248" />
	</node>
	<node lat="59.57679602043445" lon="5.753483900664507" id="-6198">
		<tag k="name" v="Langemyr" />
		<tag k="natural" v="wetland" />
		<tag k="ssr:stedsnr" v="977363" />
	</node>
	<node lat="59.60812903471868" lon="5.567242503852291" id="-6213">
		<tag k="name" v="Langåsmyra" />
		<tag k="natural" v="wetland" />
		<tag k="ssr:stedsnr" v="977199" />
	</node>
	<node lat="59.5341218130982" lon="5.553155204572212" id="-6226">
		<tag k="name" v="Vågamyra" />
		<tag k="natural" v="wetland" />
		<tag k="ssr:stedsnr" v="981018" />
	</node>
	<node lat="59.53435031619208" lon="5.568893504926315" id="-6228">
		<tag k="name" v="Pøylene" />
		<tag k="natural" v="wetland" />
		<tag k="ssr:stedsnr" v="981020" />
	</node>
	<node lat="59.55064158583197" lon="5.565128405861966" id="-6232">
		<tag k="name" v="Ulvebnemyrane" />
		<tag k="natural" v="wetland" />
		<tag k="ssr:stedsnr" v="981028" />
	</node>
	<node lat="59.5401330454162" lon="5.563973506634774" id="-6237">
		<tag k="name" v="Storamyr" />
		<tag k="natural" v="wetland" />
		<tag k="ssr:stedsnr" v="981034" />
	</node>
	<node lat="59.53765448372838" lon="5.5624128635105174" id="-6239">
		<tag k="name" v="Leitemyra" />
		<tag k="natural" v="wetland" />
		<tag k="ssr:stedsnr" v="981036" />
	</node>
	<node lat="59.53456433792781" lon="5.583460017946314" id="-6244">
		<tag k="name" v="Rossafjellsmyra" />
		<tag k="natural" v="wetland" />
		<tag k="ssr:stedsnr" v="981044" />
	</node>
</osm>
