<?xml version="1.0" encoding="UTF-8"?>
<<<<<<< HEAD
<osm version="0.6" generator="osmapis">
	<node lat="59.48607778004799" lon="5.897297225043937" id="-2420">
		<tag k="name" v="Håvika" />
		<tag k="natural" v="bay" />
		<tag k="ssr:stedsnr" v="2308" />
	</node>
	<node lat="59.4693565880487" lon="6.032458584980587" id="-2426">
		<tag k="alt_name" v="Herøy" />
		<tag k="name" v="Herøyna" />
		<tag k="place" v="islet" />
		<tag k="ssr:stedsnr" v="2342" />
	</node>
	<node lat="59.49709999747695" lon="5.8891277756464895" id="-2428">
		<tag k="alt_name" v="Kvednavika" />
		<tag k="name" v="Kvernavika" />
		<tag k="natural" v="bay" />
		<tag k="ssr:stedsnr" v="2278" />
	</node>
	<node lat="59.665964590029915" lon="5.570625117488431" id="-2432">
		<tag k="alt_name" v="Gardavik" />
		<tag k="name" v="Gardavika" />
		<tag k="natural" v="bay" />
		<tag k="ssr:stedsnr" v="3011" />
	</node>
	<node lat="59.676688884700134" lon="5.738499997808342" id="-2433">
		<tag k="name" v="Romsa" />
		<tag k="place" v="island" />
		<tag k="ssr:stedsnr" v="3047" />
	</node>
	<node lat="59.65815278126636" lon="5.736483341028559" id="-2435">
		<tag k="name" v="Haugssundet" />
		<tag k="natural" v="strait" />
		<tag k="ssr:stedsnr" v="3436" />
	</node>
	<node lat="59.66230277519603" lon="5.756291659321639" id="-2436">
		<tag k="alt_name" v="Todløya" />
		<tag k="name" v="Tolløya" />
		<tag k="place" v="island" />
		<tag k="ssr:stedsnr" v="3438" />
	</node>
	<node lat="59.443399997327035" lon="5.786969447470659" id="-2455">
		<tag k="alt_name" v="Juvneset" />
		<tag k="name" v="Gjuvaneset" />
		<tag k="natural" v="cape" />
		<tag k="ssr:stedsnr" v="235895" />
	</node>
	<node lat="59.4425916696866" lon="5.7502361132810895" id="-2456">
		<tag k="name" v="Nodaberget" />
		<tag k="natural" v="cape" />
		<tag k="ssr:stedsnr" v="235924" />
	</node>
	<node lat="59.48509722142588" lon="6.160350004451453" id="-2457">
		<tag k="name" v="Fløytestongholmen" />
		<tag k="place" v="islet" />
		<tag k="ssr:stedsnr" v="236589" />
	</node>
	<node lat="59.661444448442744" lon="5.744944439828297" id="-2468">
		<tag k="alt_name" v="Øspeholmen" />
		<tag k="name" v="Øspholmen" />
		<tag k="place" v="islet" />
		<tag k="ssr:stedsnr" v="44790" />
	</node>
	<node lat="59.50236110923615" lon="5.871266669567585" id="-2474">
		<tag k="name" v="Kalvaskinnberget" />
		<tag k="natural" v="cape" />
		<tag k="ssr:stedsnr" v="238211" />
	</node>
	<node lat="59.47540277768131" lon="6.048983325982681" id="-2480">
		<tag k="name" v="Revøyna" />
		<tag k="place" v="islet" />
		<tag k="ssr:stedsnr" v="238496" />
	</node>
	<node lat="59.52576388618992" lon="5.827738896902628" id="-2497">
		<tag k="fixme" v="consider seamark:type=rock or natural=shoal" />
		<tag k="name" v="Kobbaskjer" />
		<tag k="place" v="islet" />
		<tag k="ssr:stedsnr" v="240265" />
	</node>
	<node lat="59.67359167018837" lon="5.582330547566493" id="-2518">
		<tag k="name" v="Torsvika" />
		<tag k="natural" v="bay" />
		<tag k="ssr:stedsnr" v="63065" />
	</node>
	<node lat="59.60973333120815" lon="5.821338884358153" id="-2522">
		<tag k="name" v="Osen" />
		<tag k="natural" v="bay" />
		<tag k="ssr:stedsnr" v="63423" />
	</node>
	<node lat="59.48647499722556" lon="5.457705553856201" id="-2529">
		<tag k="alt_name" v="Sønnførvågen" />
		<tag k="name" v="Sundførvågen" />
		<tag k="natural" v="bay" />
		<tag k="ssr:stedsnr" v="63684" />
	</node>
	<node lat="59.66972500283154" lon="5.575244451800705" id="-2537">
		<tag k="name" v="Galeasvika" />
		<tag k="natural" v="bay" />
		<tag k="ssr:stedsnr" v="64010" />
	</node>
	<node lat="59.58058610753155" lon="5.5655944509030775" id="-2541">
		<tag k="alt_name" v="Brunnavika, nordre;Nordre Bronnavika" />
		<tag k="name" v="Nordre Brunnavika" />
		<tag k="natural" v="bay" />
		<tag k="ssr:stedsnr" v="64365" />
	</node>
	<node lat="59.56716721174132" lon="5.566326097064149" id="-2550">
		<tag k="name" v="Buholmtåa" />
		<tag k="natural" v="cape" />
		<tag k="ssr:stedsnr" v="241957" />
	</node>
	<node lat="59.434227780365184" lon="5.751755562864587" id="-2553">
		<tag k="name" v="Mula" />
		<tag k="natural" v="cape" />
		<tag k="ssr:stedsnr" v="245021" />
	</node>
	<node lat="59.474488888417206" lon="5.9098944358753975" id="-2560">
		<tag k="alt_name" v="Hedleneset" />
		<tag k="name" v="Helleneset" />
		<tag k="natural" v="cape" />
		<tag k="ssr:stedsnr" v="245284" />
	</node>
	<node lat="59.47178611378177" lon="5.742133340667835" id="-2562">
		<tag k="name" v="Kvigenesgrunnen" />
		<tag k="natural" v="shoal" />
		<tag k="place" v="locality" />
		<tag k="ssr:stedsnr" v="86506" />
	</node>
	<node lat="59.66830833078471" lon="5.679977775308471" id="-2570">
		<tag k="alt_name" v="Indra Rossaneset" />
		<tag k="name" v="Rossanes" />
		<tag k="natural" v="cape" />
		<tag k="ssr:stedsnr" v="246039" />
	</node>
	<node lat="59.67087499888842" lon="5.733111108880629" id="-2571">
		<tag k="alt_name" v="Herøy" />
		<tag k="name" v="Herøya" />
		<tag k="natural" v="cape" />
		<tag k="ssr:stedsnr" v="246040" />
	</node>
	<node lat="59.57042777423224" lon="5.566447223953821" id="-2572">
		<tag k="alt_name" v="Skjeljarvikneset" />
		<tag k="name" v="Skjeljavikneset" />
		<tag k="natural" v="cape" />
		<tag k="ssr:stedsnr" v="246344" />
	</node>
	<node lat="59.675391662540285" lon="5.715836118434044" id="-2583">
		<tag k="name" v="Fornesflua" />
		<tag k="natural" v="shoal" />
		<tag k="place" v="locality" />
		<tag k="ssr:stedsnr" v="104786" />
	</node>
	<node lat="59.57905000035648" lon="5.564477773351923" id="-2606">
		<tag k="alt_name" v="Søre Bronnavika" />
		<tag k="name" v="Søre Brunnavika" />
		<tag k="natural" v="bay" />
		<tag k="ssr:stedsnr" v="121235" />
	</node>
	<node lat="59.67182777652481" lon="5.654363888156873" id="-2614">
		<tag k="name" v="Bleng" />
		<tag k="place" v="islet" />
		<tag k="ssr:stedsnr" v="124003" />
	</node>
	<node lat="59.46402499801792" lon="5.853699998613846" id="-2621">
		<tag k="name" v="Fløkje" />
		<tag k="natural" v="cape" />
		<tag k="ssr:stedsnr" v="124262" />
	</node>
	<node lat="59.548147223331924" lon="5.551800008620496" id="-2622">
		<tag k="alt_name" v="Tongaflæ" />
		<tag k="name" v="Tangaflæ" />
		<tag k="natural" v="strait" />
		<tag k="ssr:stedsnr" v="124263" />
	</node>
	<node lat="59.6470527794017" lon="5.823211102783668" id="-2623">
		<tag k="bay" v="fjord" />
		<tag k="name" v="Etnefjorden" />
		<tag k="natural" v="bay" />
		<tag k="ssr:stedsnr" v="124404" />
	</node>
	<node lat="59.4563999963035" lon="5.755083337005977" id="-2630">
		<tag k="name" v="Solvik" />
		<tag k="natural" v="bay" />
		<tag k="ssr:stedsnr" v="124719" />
	</node>
	<node lat="59.501844443450786" lon="5.607147230630268" id="-2633">
		<tag k="name" v="Båtavika" />
		<tag k="natural" v="bay" />
		<tag k="ssr:stedsnr" v="125105" />
	</node>
	<node lat="59.416483336999185" lon="5.719363891175642" id="-2636">
		<tag k="name" v="Hamnaneset" />
		<tag k="natural" v="cape" />
		<tag k="ssr:stedsnr" v="145732" />
	</node>
	<node lat="59.47433610993717" lon="5.8830444361513985" id="-2639">
		<tag k="name" v="Klakkane" />
		<tag k="natural" v="shoal" />
		<tag k="place" v="locality" />
		<tag k="ssr:stedsnr" v="162555" />
	</node>
	<node lat="59.47376666448211" lon="5.856391674956819" id="-2642">
		<tag k="name" v="Stuaneset" />
		<tag k="natural" v="cape" />
		<tag k="ssr:stedsnr" v="177227" />
	</node>
	<node lat="59.52038333692024" lon="5.812752771477057" id="-2654">
		<tag k="name" v="Vilandsberget" />
		<tag k="natural" v="cape" />
		<tag k="ssr:stedsnr" v="179856" />
	</node>
	<node lat="59.66678610667985" lon="5.772066661486678" id="-2673">
		<tag k="name" v="Romsasundet" />
		<tag k="natural" v="strait" />
		<tag k="ssr:stedsnr" v="185033" />
	</node>
	<node lat="59.6782166637639" lon="5.729824996858524" id="-2674">
		<tag k="alt_name" v="Tommelsvik" />
		<tag k="name" v="Tomasvik" />
		<tag k="natural" v="bay" />
		<tag k="ssr:stedsnr" v="185037" />
	</node>
	<node lat="59.605299995672894" lon="5.554799998670063" id="-2680">
		<tag k="alt_name" v="Korsnesvika" />
		<tag k="name" v="Korsvika" />
		<tag k="natural" v="bay" />
		<tag k="ssr:stedsnr" v="185382" />
	</node>
	<node lat="59.49239444152219" lon="5.6261972141629615" id="-2686">
		<tag k="name" v="Dyrnes" />
		<tag k="natural" v="cape" />
		<tag k="ssr:stedsnr" v="265695" />
	</node>
	<node lat="59.53588332972149" lon="5.542238888427226" id="-2687">
		<tag k="name" v="Litløyna" />
		<tag k="place" v="islet" />
		<tag k="ssr:stedsnr" v="265660" />
	</node>
	<node lat="59.56605000070037" lon="5.568461110520555" id="-2693">
		<tag k="loc_name" v="Søra Buholmvika" />
		<tag k="name" v="Søra Buholmvik" />
		<tag k="natural" v="bay" />
		<tag k="ssr:stedsnr" v="207423" />
	</node>
	<node lat="59.5297111150615" lon="5.521552784691362" id="-2702">
		<tag k="alt_name" v="Århammarneset" />
		<tag k="name" v="Arhamarneset" />
		<tag k="natural" v="cape" />
		<tag k="ssr:stedsnr" v="226885" />
	</node>
	<node lat="59.554430553735315" lon="5.551122225890577" id="-2715">
		<tag k="fixme" v="consider seamark:type=rock or natural=shoal" />
		<tag k="name" v="Skarvaskjeret" />
		<tag k="place" v="islet" />
		<tag k="ssr:stedsnr" v="450836" />
	</node>
	<node lat="59.442630556413405" lon="5.785536114543776" id="-2729">
		<tag k="name" v="Tjuvhilleren" />
		<tag k="natural" v="cape" />
		<tag k="ssr:stedsnr" v="245022" />
	</node>
	<node lat="59.43756388620078" lon="5.773877784002664" id="-2730">
		<tag k="alt_name" v="Jupevik" />
		<tag k="name" v="Djupevika" />
		<tag k="natural" v="bay" />
		<tag k="ssr:stedsnr" v="245025" />
	</node>
	<node lat="59.52426388670036" lon="5.518880549399643" id="-2737">
		<tag k="name" v="Sønningvika" />
		<tag k="natural" v="bay" />
		<tag k="ssr:stedsnr" v="246267" />
	</node>
	<node lat="59.575586108225544" lon="5.562950007388319" id="-2750">
		<tag k="alt_name" v="Osnes" />
		<tag k="name" v="Osneset" />
		<tag k="natural" v="cape" />
		<tag k="ssr:stedsnr" v="247073" />
	</node>
	<node lat="59.44986389042741" lon="5.80792500390942" id="-2780">
		<tag k="name" v="Storaneset" />
		<tag k="natural" v="cape" />
		<tag k="ssr:stedsnr" v="301911" />
	</node>
	<node lat="59.44677222044986" lon="5.5152222193355165" id="-2782">
		<tag k="name" v="Breivikholmen" />
		<tag k="place" v="islet" />
		<tag k="ssr:stedsnr" v="303085" />
	</node>
	<node lat="59.43823888607358" lon="5.747894436896884" id="-2786">
		<tag k="name" v="Grønavika" />
		<tag k="natural" v="bay" />
		<tag k="ssr:stedsnr" v="305028" />
	</node>
	<node lat="59.444302777627065" lon="5.788430550831487" id="-2789">
		<tag k="name" v="Gjuvavika" />
		<tag k="natural" v="bay" />
		<tag k="ssr:stedsnr" v="305762" />
	</node>
	<node lat="59.4460333330096" lon="5.796038890119741" id="-2790">
		<tag k="alt_name" v="Stora Juskeneset" />
		<tag k="name" v="Juskeneset" />
		<tag k="natural" v="cape" />
		<tag k="ssr:stedsnr" v="305763" />
	</node>
	<node lat="59.682480555250066" lon="5.7444750045904325" id="-2791">
		<tag k="name" v="Gunnarsholmen" />
		<tag k="place" v="islet" />
		<tag k="ssr:stedsnr" v="306011" />
	</node>
	<node lat="59.448686115199344" lon="5.5300027838654024" id="-2800">
		<tag k="name" v="Søyleklubben" />
		<tag k="natural" v="cape" />
		<tag k="ssr:stedsnr" v="306774" />
	</node>
	<node lat="59.49391388464449" lon="5.629313893678769" id="-2802">
		<tag k="alt_name" v="Klubbatåna" />
		<tag k="name" v="Klubbatårnet" />
		<tag k="natural" v="cape" />
		<tag k="ssr:stedsnr" v="306854" />
	</node>
	<node lat="59.50143055931585" lon="5.617155552377057" id="-2809">
		<tag k="alt_name" v="Tirsvik" />
		<tag k="name" v="Tirsvika" />
		<tag k="natural" v="bay" />
		<tag k="ssr:stedsnr" v="307664" />
	</node>
	<node lat="59.458172219721966" lon="5.754477775043645" id="-2810">
		<tag k="name" v="Snipe" />
		<tag k="natural" v="cape" />
		<tag k="ssr:stedsnr" v="466544" />
	</node>
	<node lat="59.659302779410105" lon="5.719594442814121" id="-2812">
		<tag k="name" v="Hatlevik" />
		<tag k="natural" v="bay" />
		<tag k="ssr:stedsnr" v="468799" />
	</node>
	<node lat="59.5011888845913" lon="5.59994443603271" id="-2814">
		<tag k="name" v="Kjorkjevika" />
		<tag k="natural" v="bay" />
		<tag k="ssr:stedsnr" v="326675" />
	</node>
	<node lat="59.50470000140902" lon="5.465505548228609" id="-2815">
		<tag k="name" v="Geitesvik" />
		<tag k="natural" v="bay" />
		<tag k="ssr:stedsnr" v="329703" />
	</node>
	<node lat="59.5783555562928" lon="5.564408330848951" id="-2834">
		<tag k="name" v="Osnesvika" />
		<tag k="natural" v="bay" />
		<tag k="ssr:stedsnr" v="363226" />
	</node>
	<node lat="59.428875001998456" lon="5.74713610847395" id="-2837">
		<tag k="name" v="Breidavika" />
		<tag k="natural" v="bay" />
		<tag k="ssr:stedsnr" v="366006" />
	</node>
	<node lat="59.475775000270694" lon="5.611999996637496" id="-2838">
		<tag k="alt_name" v="Sveinastøholmane" />
		<tag k="name" v="Svinastøholmane" />
		<tag k="place" v="islet" />
		<tag k="ssr:stedsnr" v="366812" />
	</node>
	<node lat="59.707269440237056" lon="5.593305551483159" id="-2839">
		<tag k="alt_name" v="Ilholmen, søre" />
		<tag k="name" v="Søre Ilholmen" />
		<tag k="place" v="islet" />
		<tag k="ssr:stedsnr" v="367077" />
	</node>
	<node lat="59.70730277522115" lon="5.601016661422235" id="-2840">
		<tag k="alt_name" v="Terneskjer" />
		<tag k="fixme" v="consider seamark:type=rock or natural=shoal" />
		<tag k="name" v="Terneskjeret" />
		<tag k="place" v="islet" />
		<tag k="ssr:stedsnr" v="367079" />
	</node>
	<node lat="59.637100003266696" lon="5.564516669888621" id="-2846">
		<tag k="alt_name" v="Årvikhamn, nordre;Nordra Årvikbukt;Nordre Årvikhavn" />
		<tag k="name" v="Nordra Årvikhamn" />
		<tag k="natural" v="bay" />
		<tag k="ssr:stedsnr" v="367385" />
	</node>
	<node lat="59.63649444388683" lon="5.7858583258581575" id="-2847">
		<tag k="bay" v="fjord" />
		<tag k="name" v="Ølsfjorden" />
		<tag k="natural" v="bay" />
		<tag k="ssr:stedsnr" v="367391" />
	</node>
	<node lat="59.455869441672746" lon="5.829777774954597" id="-2860">
		<tag k="name" v="Hettekrona" />
		<tag k="natural" v="bay" />
		<tag k="ssr:stedsnr" v="478943" />
	</node>
	<node lat="59.47351944071974" lon="5.732747229994706" id="-2890">
		<tag k="name" v="Ørnes" />
		<tag k="natural" v="cape" />
		<tag k="ssr:stedsnr" v="389511" />
	</node>
	<node lat="59.66846389251579" lon="5.764302777172493" id="-2901">
		<tag k="name" v="Sveflua" />
		<tag k="place" v="locality" />
		<tag k="seamark:type" v="rock" />
		<tag k="ssr:stedsnr" v="408808" />
	</node>
	<node lat="59.47590277863385" lon="5.899450000728558" id="-2905">
		<tag k="name" v="Vindholmen" />
		<tag k="place" v="islet" />
		<tag k="ssr:stedsnr" v="487299" />
	</node>
	<node lat="59.67505555331495" lon="5.739674999397688" id="-2910">
		<tag k="name" v="Romsa" />
		<tag k="natural" v="bay" />
		<tag k="ssr:stedsnr" v="488033" />
	</node>
	<node lat="59.541899996083075" lon="5.550025009007471" id="-2913">
		<tag k="name" v="Trovågen" />
		<tag k="natural" v="bay" />
		<tag k="ssr:stedsnr" v="488270" />
	</node>
	<node lat="59.60600277801352" lon="5.55341667043215" id="-2922">
		<tag k="alt_name" v="Korsnes;Krossneset" />
		<tag k="name" v="Korsneset" />
		<tag k="natural" v="cape" />
		<tag k="ssr:stedsnr" v="488394" />
	</node>
	<node lat="59.504983335053495" lon="5.613944450659687" id="-2928">
		<tag k="name" v="Beitaneset" />
		<tag k="natural" v="cape" />
		<tag k="ssr:stedsnr" v="488624" />
	</node>
	<node lat="59.45928888718573" lon="5.754452786441158" id="-2931">
		<tag k="name" v="Vaskevika" />
		<tag k="natural" v="bay" />
		<tag k="ssr:stedsnr" v="488771" />
	</node>
	<node lat="59.49177221844457" lon="5.616522213875716" id="-2934">
		<tag k="alt_name" v="Goavika" />
		<tag k="name" v="Godavika" />
		<tag k="natural" v="bay" />
		<tag k="ssr:stedsnr" v="488837" />
	</node>
	<node lat="59.47817499857798" lon="5.887624999538425" id="-2969">
		<tag k="name" v="Brenneholmen" />
		<tag k="place" v="islet" />
		<tag k="ssr:stedsnr" v="427320" />
	</node>
	<node lat="59.474086108246084" lon="5.545261106149273" id="-2974">
		<tag k="name" v="Liavika" />
		<tag k="natural" v="bay" />
		<tag k="ssr:stedsnr" v="427780" />
	</node>
	<node lat="59.494272218914205" lon="5.577836105227118" id="-2976">
		<tag k="bay" v="fjord" />
		<tag k="name" v="Skjoldafjorden" />
		<tag k="natural" v="bay" />
		<tag k="ssr:stedsnr" v="427809" />
	</node>
	<node lat="59.52012221928657" lon="5.502730553569459" id="-2978">
		<tag k="alt_name" v="Ålvikfjorden;Ålfjord" />
		<tag k="bay" v="fjord" />
		<tag k="name" v="Ålfjorden" />
		<tag k="natural" v="bay" />
		<tag k="ssr:stedsnr" v="428005" />
	</node>
	<node lat="59.68470833597826" lon="5.729969437717047" id="-2979">
		<tag k="alt_name" v="Furuneset" />
		<tag k="name" v="Forenes" />
		<tag k="natural" v="cape" />
		<tag k="ssr:stedsnr" v="428062" />
	</node>
	<node lat="59.56667317097064" lon="5.567486835599604" id="-2983">
		<tag k="name" v="Buholmen" />
		<tag k="natural" v="cape" />
		<tag k="ssr:stedsnr" v="428323" />
	</node>
	<node lat="59.50340555244318" lon="5.628544446193122" id="-2990">
		<tag k="name" v="Frøvika" />
		<tag k="natural" v="bay" />
		<tag k="ssr:stedsnr" v="428620" />
	</node>
	<node lat="59.49618333637653" lon="5.570427773631189" id="-3002">
		<tag k="name" v="Båtavika" />
		<tag k="natural" v="bay" />
		<tag k="ssr:stedsnr" v="448723" />
	</node>
	<node lat="59.51331944818535" lon="5.493844451751654" id="-3003">
		<tag k="alt_name" v="Nautatongjen" />
		<tag k="name" v="Nautatangen" />
		<tag k="natural" v="cape" />
		<tag k="ssr:stedsnr" v="448729" />
	</node>
	<node lat="59.5122305522003" lon="5.833008332626403" id="-3014">
		<tag k="name" v="Skikelstrandgrunnen" />
		<tag k="natural" v="shoal" />
		<tag k="place" v="locality" />
		<tag k="ssr:stedsnr" v="466567" />
	</node>
	<node lat="59.47614444272972" lon="5.973308339594986" id="-3015">
		<tag k="name" v="Lindvik" />
		<tag k="natural" v="bay" />
		<tag k="ssr:stedsnr" v="466569" />
	</node>
	<node lat="59.460630553954424" lon="5.7535527847991865" id="-3016">
		<tag k="alt_name" v="Træskjer" />
		<tag k="fixme" v="consider seamark:type=rock or natural=shoal" />
		<tag k="name" v="Trædsskjeret" />
		<tag k="place" v="islet" />
		<tag k="ssr:stedsnr" v="466979" />
	</node>
	<node lat="59.493000000860754" lon="5.891624999546215" id="-3040">
		<tag k="name" v="Osavika" />
		<tag k="natural" v="bay" />
		<tag k="ssr:stedsnr" v="487268" />
	</node>
	<node lat="59.49952499951291" lon="5.871069453144748" id="-3041">
		<tag k="name" v="Oppsalsholmen" />
		<tag k="place" v="islet" />
		<tag k="ssr:stedsnr" v="487270" />
	</node>
	<node lat="59.67689166408711" lon="5.620574994327216" id="-3044">
		<tag k="name" v="Saltnes" />
		<tag k="natural" v="cape" />
		<tag k="ssr:stedsnr" v="488052" />
	</node>
	<node lat="59.665900001485284" lon="5.567711110362468" id="-3045">
		<tag k="alt_name" v="Tonganes" />
		<tag k="name" v="Tonganeset" />
		<tag k="natural" v="cape" />
		<tag k="ssr:stedsnr" v="488005" />
	</node>
	<node lat="59.67047500077156" lon="5.574705551790889" id="-3046">
		<tag k="name" v="Buaneset" />
		<tag k="natural" v="cape" />
		<tag k="ssr:stedsnr" v="488007" />
	</node>
	<node lat="59.69724999982464" lon="5.634900007394114" id="-3064">
		<tag k="bay" v="fjord" />
		<tag k="name" v="Bjoafjorden" />
		<tag k="natural" v="bay" />
		<tag k="ssr:stedsnr" v="489049" />
	</node>
	<node lat="59.57293482102361" lon="5.565311705340956" id="-3069">
		<tag k="alt_name" v="Smettarholmen" />
		<tag k="name" v="Smittarholmen" />
		<tag k="place" v="islet" />
		<tag k="ssr:stedsnr" v="510450" />
	</node>
	<node lat="59.482419446566226" lon="5.88630833823288" id="-3075">
		<tag k="name" v="Sønnanåneset" />
		<tag k="natural" v="cape" />
		<tag k="ssr:stedsnr" v="541269" />
	</node>
	<node lat="59.446944444814164" lon="5.798033337988088" id="-3092">
		<tag k="name" v="Litla Juskeneset" />
		<tag k="natural" v="cape" />
		<tag k="ssr:stedsnr" v="543883" />
	</node>
	<node lat="59.47685000028275" lon="6.020225006433753" id="-3106">
		<tag k="alt_name" v="Notavågjen" />
		<tag k="name" v="Notavågen" />
		<tag k="natural" v="bay" />
		<tag k="ssr:stedsnr" v="548318" />
	</node>
	<node lat="59.460230558682596" lon="5.73860000349169" id="-3114">
		<tag k="name" v="Eikanes" />
		<tag k="natural" v="cape" />
		<tag k="ssr:stedsnr" v="548756" />
	</node>
	<node lat="59.72108888636268" lon="5.595063891613329" id="-3117">
		<tag k="alt_name" v="Ilholmen, nordre;Ilholmane" />
		<tag k="name" v="Nordre Ilholmen" />
		<tag k="place" v="islet" />
		<tag k="ssr:stedsnr" v="549126" />
	</node>
	<node lat="59.683077781577836" lon="5.749288888859658" id="-3118">
		<tag k="name" v="Sluttangen" />
		<tag k="natural" v="cape" />
		<tag k="ssr:stedsnr" v="549019" />
	</node>
	<node lat="59.6737916689594" lon="5.625488884364051" id="-3119">
		<tag k="name" v="Lasvikane" />
		<tag k="natural" v="bay" />
		<tag k="ssr:stedsnr" v="549064" />
	</node>
	<node lat="59.50032222447279" lon="5.622133325785106" id="-3133">
		<tag k="name" v="Frøvikneset" />
		<tag k="natural" v="cape" />
		<tag k="ssr:stedsnr" v="690691" />
	</node>
	<node lat="59.48860555369664" lon="5.636905560960907" id="-3134">
		<tag k="name" v="Nålahaugen" />
		<tag k="natural" v="cape" />
		<tag k="ssr:stedsnr" v="690697" />
	</node>
	<node lat="59.51119999586524" lon="5.494211109305484" id="-3137">
		<tag k="name" v="Hompen" />
		<tag k="natural" v="cape" />
		<tag k="ssr:stedsnr" v="690746" />
	</node>
	<node lat="59.49240278010235" lon="5.617275002376202" id="-3139">
		<tag k="name" v="Otereidet" />
		<tag k="place" v="locality" />
		<tag k="ssr:stedsnr" v="568653" />
	</node>
	<node lat="59.67529626601622" lon="5.680129576187798" id="-3145">
		<tag k="name" v="Storflua" />
		<tag k="natural" v="shoal" />
		<tag k="place" v="locality" />
		<tag k="ssr:stedsnr" v="589809" />
	</node>
	<node lat="59.49026111537861" lon="5.991216659312767" id="-3153">
		<tag k="name" v="Haganeset" />
		<tag k="natural" v="cape" />
		<tag k="ssr:stedsnr" v="602321" />
	</node>
	<node lat="59.51112222180781" lon="5.867555549619979" id="-3160">
		<tag k="name" v="Klubben" />
		<tag k="natural" v="cape" />
		<tag k="ssr:stedsnr" v="604205" />
	</node>
	<node lat="59.44604444014724" lon="5.521580549850813" id="-3163">
		<tag k="name" v="Blåbærhamn" />
		<tag k="natural" v="bay" />
		<tag k="ssr:stedsnr" v="606087" />
	</node>
	<node lat="59.54038055678879" lon="5.533008329373891" id="-3173">
		<tag k="name" v="Nappholmen" />
		<tag k="place" v="islet" />
		<tag k="ssr:stedsnr" v="609291" />
	</node>
	<node lat="59.53731666689995" lon="5.534541663596474" id="-3174">
		<tag k="alt_name" v="Toraneset;Tøraneset" />
		<tag k="name" v="Toranes" />
		<tag k="natural" v="cape" />
		<tag k="ssr:stedsnr" v="609296" />
	</node>
	<node lat="59.53583611238626" lon="5.532011109144484" id="-3175">
		<tag k="name" v="Toranesvika" />
		<tag k="natural" v="bay" />
		<tag k="ssr:stedsnr" v="609297" />
	</node>
	<node lat="59.51193610776045" lon="5.470838888451981" id="-3183">
		<tag k="name" v="Bekkjarvika" />
		<tag k="natural" v="bay" />
		<tag k="ssr:stedsnr" v="610103" />
	</node>
	<node lat="59.50273333488973" lon="5.588774998140163" id="-3184">
		<tag k="name" v="Skjoldavika" />
		<tag k="natural" v="bay" />
		<tag k="ssr:stedsnr" v="610108" />
	</node>
	<node lat="59.4150222223837" lon="5.721691663708019" id="-3193">
		<tag k="name" v="Habnaneset" />
		<tag k="natural" v="cape" />
		<tag k="ssr:stedsnr" v="659791" />
	</node>
	<node lat="59.43950833392979" lon="5.74846943768265" id="-3194">
		<tag k="alt_name" v="Raunesholmen" />
		<tag k="name" v="Raudnesholmen" />
		<tag k="place" v="islet" />
		<tag k="ssr:stedsnr" v="659936" />
	</node>
	<node lat="59.48499166861211" lon="6.178341668866309" id="-3198">
		<tag k="name" v="Barlundvika" />
		<tag k="natural" v="bay" />
		<tag k="ssr:stedsnr" v="661432" />
	</node>
	<node lat="59.6819305552341" lon="5.615533325308788" id="-3231">
		<tag k="name" v="Donsvikneset" />
		<tag k="natural" v="cape" />
		<tag k="ssr:stedsnr" v="670071" />
	</node>
	<node lat="59.62443055321478" lon="5.789113893708065" id="-3245">
		<tag k="alt_name" v="Ulveneset" />
		<tag k="name" v="Ulvaneset" />
		<tag k="natural" v="cape" />
		<tag k="ssr:stedsnr" v="671426" />
	</node>
	<node lat="59.45313333422347" lon="5.757908339320533" id="-3250">
		<tag k="name" v="Dyna" />
		<tag k="natural" v="cape" />
		<tag k="ssr:stedsnr" v="891550" />
	</node>
	<node lat="59.65709166331016" lon="5.726363896162013" id="-3251">
		<tag k="name" v="Saltvik" />
		<tag k="natural" v="bay" />
		<tag k="ssr:stedsnr" v="893801" />
	</node>
	<node lat="59.46120555636107" lon="5.53238055932864" id="-3256">
		<tag k="name" v="Kvernavika" />
		<tag k="natural" v="bay" />
		<tag k="ssr:stedsnr" v="691788" />
	</node>
	<node lat="59.59288055819112" lon="5.563472219041943" id="-3258">
		<tag k="fixme" v="consider seamark:type=rock or natural=shoal" />
		<tag k="name" v="Flesjane" />
		<tag k="place" v="islet" />
		<tag k="ssr:stedsnr" v="692428" />
	</node>
	<node lat="59.67327222082482" lon="5.764280560493929" id="-3260">
		<tag k="name" v="Storeflua" />
		<tag k="place" v="locality" />
		<tag k="seamark:type" v="rock" />
		<tag k="ssr:stedsnr" v="894793" />
	</node>
	<node lat="59.476524997471984" lon="6.054300002869765" id="-3291">
		<tag k="alt_name" v="Jupevika" />
		<tag k="name" v="Djupevik" />
		<tag k="natural" v="bay" />
		<tag k="ssr:stedsnr" v="731271" />
	</node>
	<node lat="59.57114999980207" lon="5.5681638801769875" id="-3294">
		<tag k="alt_name" v="Skjeljarvik" />
		<tag k="name" v="Skjeljavika" />
		<tag k="natural" v="bay" />
		<tag k="ssr:stedsnr" v="731306" />
	</node>
	<node lat="59.60997499979414" lon="5.559233337829111" id="-3300">
		<tag k="alt_name" v="Gressvik" />
		<tag k="name" v="Grasvika" />
		<tag k="natural" v="bay" />
		<tag k="ssr:stedsnr" v="731384" />
	</node>
	<node lat="59.43117777413671" lon="5.751719440637774" id="-3310">
		<tag k="name" v="Mula" />
		<tag k="natural" v="cape" />
		<tag k="ssr:stedsnr" v="902932" />
	</node>
	<node lat="59.50420000254806" lon="5.8700361074811385" id="-3322">
		<tag k="name" v="Gunnarneset" />
		<tag k="natural" v="cape" />
		<tag k="ssr:stedsnr" v="906225" />
	</node>
	<node lat="59.46710555442449" lon="5.894924996928424" id="-3331">
		<tag k="name" v="Sørflua" />
		<tag k="natural" v="shoal" />
		<tag k="place" v="locality" />
		<tag k="ssr:stedsnr" v="769537" />
	</node>
	<node lat="59.45459166346562" lon="5.875933334181003" id="-3344">
		<tag k="bay" v="fjord" />
		<tag k="name" v="Krossfjorden" />
		<tag k="natural" v="bay" />
		<tag k="ssr:stedsnr" v="781805" />
	</node>
	<node lat="59.601342378897925" lon="5.762417115287541" id="-3347">
		<tag k="name" v="Myraflua" />
		<tag k="natural" v="shoal" />
		<tag k="place" v="locality" />
		<tag k="ssr:stedsnr" v="782308" />
	</node>
	<node lat="59.5795750026688" lon="5.564508340373375" id="-3349">
		<tag k="name" v="Brunnavik" />
		<tag k="natural" v="bay" />
		<tag k="ssr:stedsnr" v="910237" />
	</node>
	<node lat="59.51869444063988" lon="5.808277774051477" id="-3368">
		<tag k="name" v="Podlavika" />
		<tag k="natural" v="bay" />
		<tag k="ssr:stedsnr" v="786852" />
	</node>
	<node lat="59.43821944855618" lon="5.777986110136348" id="-3374">
		<tag k="alt_name" v="Slåtteneset" />
		<tag k="name" v="Slåttenes" />
		<tag k="natural" v="cape" />
		<tag k="ssr:stedsnr" v="791021" />
	</node>
	<node lat="59.55135000433711" lon="5.550633336037441" id="-3375">
		<tag k="name" v="Litleøya" />
		<tag k="place" v="islet" />
		<tag k="ssr:stedsnr" v="791305" />
	</node>
	<node lat="59.54529166281681" lon="5.559361113432316" id="-3376">
		<tag k="alt_name" v="Svendsbøvågen" />
		<tag k="name" v="Svensbøvågen" />
		<tag k="natural" v="bay" />
		<tag k="ssr:stedsnr" v="791307" />
	</node>
	<node lat="59.65590833507783" lon="5.5608305488191325" id="-3382">
		<tag k="alt_name" v="Rutlesvik;Rulllesvik" />
		<tag k="name" v="Rullesvika" />
		<tag k="natural" v="bay" />
		<tag k="ssr:stedsnr" v="792034" />
	</node>
	<node lat="59.562349997857986" lon="5.566916668803817" id="-3390">
		<tag k="alt_name" v="Haldorsneset" />
		<tag k="name" v="Haldorneset" />
		<tag k="natural" v="cape" />
		<tag k="ssr:stedsnr" v="792320" />
	</node>
	<node lat="59.679522876788795" lon="5.732378630297093" id="-3412">
		<tag k="name" v="Grindanesvika" />
		<tag k="natural" v="bay" />
		<tag k="ssr:stedsnr" v="913011" />
	</node>
	<node lat="59.47781944375617" lon="5.896572215623457" id="-3415">
		<tag k="name" v="Smedsvik" />
		<tag k="natural" v="bay" />
		<tag k="ssr:stedsnr" v="913291" />
	</node>
	<node lat="59.548752780892876" lon="5.549163892873124" id="-3421">
		<tag k="alt_name" v="Svendsbøøy" />
		<tag k="name" v="Svensbøøya" />
		<tag k="place" v="islet" />
		<tag k="ssr:stedsnr" v="913302" />
	</node>
	<node lat="59.46117778145177" lon="6.024766660987625" id="-3422">
		<tag k="bay" v="fjord" />
		<tag k="name" v="Vindafjorden" />
		<tag k="natural" v="bay" />
		<tag k="ssr:stedsnr" v="913312" />
	</node>
	<node lat="59.46390277382812" lon="5.742355562181644" id="-3440">
		<tag k="name" v="Eikanesholmen" />
		<tag k="place" v="islet" />
		<tag k="ssr:stedsnr" v="913769" />
	</node>
	<node lat="59.677925002267585" lon="5.727858325236365" id="-3446">
		<tag k="name" v="Ørevika" />
		<tag k="natural" v="bay" />
		<tag k="ssr:stedsnr" v="914100" />
	</node>
	<node lat="59.51907777848281" lon="5.816200000608242" id="-3450">
		<tag k="name" v="Torsneset" />
		<tag k="natural" v="cape" />
		<tag k="ssr:stedsnr" v="914650" />
	</node>
	<node lat="59.52968055454492" lon="5.514302769635001" id="-3457">
		<tag k="name" v="Sønningjå" />
		<tag k="natural" v="strait" />
		<tag k="ssr:stedsnr" v="812716" />
	</node>
	<node lat="59.64520277369904" lon="5.555755559622208" id="-3459">
		<tag k="name" v="Hopen" />
		<tag k="natural" v="bay" />
		<tag k="ssr:stedsnr" v="814504" />
	</node>
	<node lat="59.44404722388137" lon="5.787613896856399" id="-3469">
		<tag k="name" v="Juvika" />
		<tag k="natural" v="bay" />
		<tag k="ssr:stedsnr" v="842886" />
	</node>
	<node lat="59.47485000238454" lon="5.940980549909292" id="-3481">
		<tag k="name" v="Grunnanes" />
		<tag k="natural" v="cape" />
		<tag k="ssr:stedsnr" v="845375" />
	</node>
	<node lat="59.686716668108645" lon="5.609861117614206" id="-3499">
		<tag k="alt_name" v="Langskjer" />
		<tag k="fixme" v="consider seamark:type=rock or natural=shoal" />
		<tag k="name" v="Langskjeret" />
		<tag k="place" v="islet" />
		<tag k="ssr:stedsnr" v="852074" />
	</node>
	<node lat="59.46187777809181" lon="5.755299999500568" id="-3501">
		<tag k="name" v="Trosvika" />
		<tag k="natural" v="bay" />
		<tag k="ssr:stedsnr" v="852757" />
	</node>
	<node lat="59.450480557089335" lon="5.528555548011833" id="-3502">
		<tag k="alt_name" v="Fosterneset" />
		<tag k="name" v="Fosternes" />
		<tag k="natural" v="cape" />
		<tag k="ssr:stedsnr" v="852769" />
	</node>
	<node lat="59.52317500349278" lon="5.839136114509079" id="-3516">
		<tag k="alt_name" v="Ilsnes" />
		<tag k="name" v="Ilsneset" />
		<tag k="natural" v="cape" />
		<tag k="ssr:stedsnr" v="853613" />
	</node>
	<node lat="59.52542222315709" lon="5.843002777405863" id="-3531">
		<tag k="fixme" v="consider seamark:type=rock or natural=shoal" />
		<tag k="name" v="Ilsnesflua" />
		<tag k="place" v="islet" />
		<tag k="ssr:stedsnr" v="891572" />
	</node>
	<node lat="59.493069443019934" lon="5.841786114931678" id="-3538">
		<tag k="fixme" v="consider seamark:type=rock or natural=shoal" />
		<tag k="name" v="Stegaskjer" />
		<tag k="place" v="islet" />
		<tag k="ssr:stedsnr" v="906213" />
	</node>
	<node lat="59.5438138852608" lon="5.546855549289898" id="-3564">
		<tag k="name" v="Trovågsneset" />
		<tag k="natural" v="cape" />
		<tag k="ssr:stedsnr" v="913286" />
	</node>
	<node lat="59.6099697021989" lon="5.775588658399446" id="-3567">
		<tag k="alt_name" v="Lundevika;Ytra Lundavik;Ytra Lundavika" />
		<tag k="name" v="Lundavika" />
		<tag k="natural" v="bay" />
		<tag k="ssr:stedsnr" v="913392" />
	</node>
	<node lat="59.46171389303209" lon="5.530799999033874" id="-3570">
		<tag k="alt_name" v="Stampevik" />
		<tag k="name" v="Stampevika" />
		<tag k="natural" v="bay" />
		<tag k="ssr:stedsnr" v="913781" />
	</node>
	<node lat="59.4915694412317" lon="5.623841662967952" id="-3579">
		<tag k="name" v="Forevika" />
		<tag k="natural" v="bay" />
		<tag k="ssr:stedsnr" v="933714" />
	</node>
	<node lat="59.667027779912914" lon="5.655844446047727" id="-3584">
		<tag k="name" v="Klubben" />
		<tag k="natural" v="cape" />
		<tag k="ssr:stedsnr" v="954792" />
	</node>
	<node lat="59.67915555395239" lon="5.755094445698409" id="-3585">
		<tag k="name" v="Søringsdalsflua" />
		<tag k="place" v="locality" />
		<tag k="seamark:type" v="rock" />
		<tag k="ssr:stedsnr" v="954800" />
	</node>
	<node lat="59.480141666111265" lon="6.156402772106762" id="-3586">
		<tag k="name" v="Raskarvika" />
		<tag k="natural" v="bay" />
		<tag k="ssr:stedsnr" v="964602" />
	</node>
	<node lat="59.54226666661754" lon="5.850575004579647" id="-3598">
		<tag k="name" v="Vestbøholmen" />
		<tag k="place" v="islet" />
		<tag k="ssr:stedsnr" v="968839" />
	</node>
	<node lat="59.68531313621698" lon="5.607418665008427" id="-3612">
		<tag k="name" v="Neset" />
		<tag k="natural" v="cape" />
		<tag k="ssr:stedsnr" v="972599" />
	</node>
	<node lat="59.68449429166304" lon="5.6122343910047405" id="-3616">
		<tag k="fixme" v="consider seamark:type=rock or natural=shoal" />
		<tag k="name" v="Kråkeskjer" />
		<tag k="place" v="islet" />
		<tag k="ssr:stedsnr" v="972603" />
	</node>
	<node lat="59.68267967256843" lon="5.615643003300626" id="-3617">
		<tag k="name" v="Bjønnsvik" />
		<tag k="natural" v="bay" />
		<tag k="ssr:stedsnr" v="972605" />
	</node>
	<node lat="59.68142409313884" lon="5.615025243347035" id="-3618">
		<tag k="name" v="Donsvika" />
		<tag k="natural" v="bay" />
		<tag k="ssr:stedsnr" v="972606" />
	</node>
	<node lat="59.67828450595956" lon="5.588267133238377" id="-3619">
		<tag k="name" v="Naustnes" />
		<tag k="natural" v="cape" />
		<tag k="ssr:stedsnr" v="972609" />
	</node>
	<node lat="59.677421221000316" lon="5.586511995481606" id="-3620">
		<tag k="name" v="Træsklubben" />
		<tag k="natural" v="cape" />
		<tag k="ssr:stedsnr" v="972610" />
	</node>
	<node lat="59.67112400793557" lon="5.5753778103452785" id="-3628">
		<tag k="name" v="Grunnaviksneset" />
		<tag k="natural" v="cape" />
		<tag k="ssr:stedsnr" v="972620" />
	</node>
	<node lat="59.66610865977964" lon="5.661046266129514" id="-3637">
		<tag k="name" v="Vågsholmen" />
		<tag k="place" v="islet" />
		<tag k="ssr:stedsnr" v="973023" />
	</node>
	<node lat="59.676785032082854" lon="5.7478232724154426" id="-3639">
		<tag k="name" v="Kjerringvik" />
		<tag k="natural" v="bay" />
		<tag k="ssr:stedsnr" v="973165" />
	</node>
	<node lat="59.67487912342853" lon="5.739613561588888" id="-3640">
		<tag k="name" v="Naustvika" />
		<tag k="natural" v="bay" />
		<tag k="ssr:stedsnr" v="973166" />
	</node>
	<node lat="59.67200230778572" lon="5.735459374595214" id="-3641">
		<tag k="name" v="Herøyvadet" />
		<tag k="natural" v="bay" />
		<tag k="ssr:stedsnr" v="973167" />
	</node>
	<node lat="59.66851822602464" lon="5.748540162861827" id="-3644">
		<tag k="name" v="Hestenes" />
		<tag k="natural" v="cape" />
		<tag k="ssr:stedsnr" v="973171" />
	</node>
	<node lat="59.66873970903284" lon="5.752985922121699" id="-3645">
		<tag k="name" v="Klungervik" />
		<tag k="natural" v="bay" />
		<tag k="ssr:stedsnr" v="973172" />
	</node>
	<node lat="59.67140921410333" lon="5.7550120624827725" id="-3646">
		<tag k="name" v="Furuneset" />
		<tag k="natural" v="cape" />
		<tag k="ssr:stedsnr" v="973173" />
	</node>
	<node lat="59.66611965491767" lon="5.748468074553921" id="-3647">
		<tag k="name" v="Kjøkenvik" />
		<tag k="natural" v="bay" />
		<tag k="ssr:stedsnr" v="973174" />
	</node>
	<node lat="59.664406073265305" lon="5.75471837113277" id="-3649">
		<tag k="name" v="Todløysundet" />
		<tag k="natural" v="strait" />
		<tag k="ssr:stedsnr" v="973193" />
	</node>
	<node lat="59.61416141884517" lon="5.783362544374576" id="-3721">
		<tag k="name" v="Rossasteinen" />
		<tag k="natural" v="cape" />
		<tag k="ssr:stedsnr" v="974965" />
	</node>
	<node lat="59.611246601483955" lon="5.779426022743915" id="-3722">
		<tag k="name" v="Nautaskjer" />
		<tag k="natural" v="cape" />
		<tag k="ssr:stedsnr" v="974966" />
	</node>
	<node lat="59.601509354223026" lon="5.779735725095164" id="-3723">
		<tag k="name" v="Hiljesteinsvika" />
		<tag k="natural" v="bay" />
		<tag k="ssr:stedsnr" v="974971" />
	</node>
	<node lat="59.599009290252845" lon="5.745992463917934" id="-3742">
		<tag k="name" v="Kvassanes" />
		<tag k="natural" v="cape" />
		<tag k="ssr:stedsnr" v="975076" />
	</node>
	<node lat="59.59815521575587" lon="5.742794336596535" id="-3743">
		<tag k="name" v="Vågsnes" />
		<tag k="natural" v="cape" />
		<tag k="ssr:stedsnr" v="975077" />
	</node>
	<node lat="59.60381878321483" lon="5.748616636426601" id="-3744">
		<tag k="name" v="Bergsvika" />
		<tag k="natural" v="bay" />
		<tag k="ssr:stedsnr" v="975080" />
	</node>
	<node lat="59.59299427893064" lon="5.5651185879219796" id="-3799">
		<tag k="fixme" v="consider seamark:type=rock or natural=shoal" />
		<tag k="name" v="Flesjatåa" />
		<tag k="place" v="islet" />
		<tag k="ssr:stedsnr" v="977211" />
	</node>
	<node lat="59.59272901060123" lon="5.568059820753359" id="-3800">
		<tag k="name" v="Taratåa" />
		<tag k="natural" v="cape" />
		<tag k="ssr:stedsnr" v="977212" />
	</node>
	<node lat="59.58189836731993" lon="5.5642572443068445" id="-3816">
		<tag k="name" v="Søre Leirhammar" />
		<tag k="natural" v="cape" />
		<tag k="ssr:stedsnr" v="977231" />
	</node>
	<node lat="59.55099513040026" lon="5.549637914009541" id="-3825">
		<tag k="name" v="Litløysundet" />
		<tag k="natural" v="strait" />
		<tag k="ssr:stedsnr" v="981003" />
	</node>
	<node lat="59.535419389706774" lon="5.546578876553881" id="-3828">
		<tag k="name" v="Matkista" />
		<tag k="place" v="islet" />
		<tag k="ssr:stedsnr" v="981009" />
	</node>
	<node lat="59.44047499572364" lon="5.479994437383239" id="-3837">
		<tag k="alt_name" v="Grindefjorden" />
		<tag k="bay" v="fjord" />
		<tag k="name" v="Grindafjorden" />
		<tag k="natural" v="bay" />
		<tag k="ssr:stedsnr" v="1641" />
	</node>
	<node lat="59.53785277870753" lon="5.530344438392426" id="-3842">
		<tag k="name" v="Tviløypa" />
		<tag k="place" v="islet" />
		<tag k="ssr:stedsnr" v="3282" />
	</node>
	<node lat="59.5155250042131" lon="5.478474992339332" id="-3855">
		<tag k="name" v="Håvikneset" />
		<tag k="natural" v="cape" />
		<tag k="ssr:stedsnr" v="3222" />
	</node>
	<node lat="59.59275555160805" lon="5.578491662896617" id="-3864">
		<tag k="name" v="Vikevik" />
		<tag k="natural" v="bay" />
		<tag k="ssr:stedsnr" v="3327" />
	</node>
	<node lat="59.59940000327543" lon="5.7484249976574695" id="-3865">
		<tag k="name" v="Ølsvågen" />
		<tag k="natural" v="bay" />
		<tag k="ssr:stedsnr" v="3340" />
	</node>
	<node lat="59.5994083292114" lon="5.555997220285156" id="-3882">
		<tag k="name" v="Døvikflua" />
		<tag k="natural" v="shoal" />
		<tag k="place" v="locality" />
		<tag k="ssr:stedsnr" v="25449" />
	</node>
	<node lat="59.470863885695785" lon="6.03226943934496" id="-3885">
		<tag k="name" v="Herøysundet" />
		<tag k="natural" v="strait" />
		<tag k="ssr:stedsnr" v="41550" />
	</node>
	<node lat="59.439463884822445" lon="5.765411111306481" id="-3890">
		<tag k="name" v="Kallrak" />
		<tag k="natural" v="beach" />
		<tag k="ssr:stedsnr" v="53592" />
	</node>
	<node lat="59.638986108474654" lon="5.555763880325861" id="-3893">
		<tag k="alt_name" v="Årvikeneset;Årvikneset n." />
		<tag k="name" v="Nordra Årvikneset" />
		<tag k="natural" v="cape" />
		<tag k="ssr:stedsnr" v="56070" />
	</node>
	<node lat="59.47790833155815" lon="6.00941389070089" id="-3901">
		<tag k="fixme" v="consider seamark:type=rock or natural=shoal" />
		<tag k="name" v="Kvamskjeret" />
		<tag k="place" v="islet" />
		<tag k="ssr:stedsnr" v="56498" />
	</node>
	<node lat="59.55789166643207" lon="6.012550008224833" id="-3914">
		<tag k="name" v="Tjøreneset" />
		<tag k="natural" v="cape" />
		<tag k="ssr:stedsnr" v="58318" />
	</node>
	<node lat="59.44089999805152" lon="5.748036112947927" id="-3940">
		<tag k="alt_name" v="Raunesvika" />
		<tag k="name" v="Raudnesvika" />
		<tag k="natural" v="bay" />
		<tag k="ssr:stedsnr" v="63038" />
	</node>
	<node lat="59.55345833240044" lon="5.562974996709293" id="-3943">
		<tag k="name" v="Taravika" />
		<tag k="natural" v="bay" />
		<tag k="ssr:stedsnr" v="63338" />
	</node>
	<node lat="59.474877778304794" lon="6.036066659321378" id="-3945">
		<tag k="alt_name" v="Litløy" />
		<tag k="name" v="Litløyna" />
		<tag k="place" v="islet" />
		<tag k="ssr:stedsnr" v="63345" />
	</node>
	<node lat="59.62287499690895" lon="5.555274997210157" id="-3962">
		<tag k="alt_name" v="Smedvik" />
		<tag k="name" v="Smedvika" />
		<tag k="natural" v="bay" />
		<tag k="ssr:stedsnr" v="64419" />
	</node>
	<node lat="59.44952499820485" lon="5.7429166641181" id="-3972">
		<tag k="alt_name" v="Steinaneset" />
		<tag k="name" v="Steinneset" />
		<tag k="natural" v="cape" />
		<tag k="ssr:stedsnr" v="86532" />
	</node>
	<node lat="59.45815555956782" lon="5.615430549738569" id="-3983">
		<tag k="name" v="Josefstøa" />
		<tag k="natural" v="bay" />
		<tag k="ssr:stedsnr" v="114992" />
	</node>
	<node lat="59.486902778266185" lon="6.174472219725697" id="-3985">
		<tag k="name" v="Jupevik" />
		<tag k="natural" v="bay" />
		<tag k="ssr:stedsnr" v="115458" />
	</node>
	<node lat="59.47574999688241" lon="5.986255559622919" id="-3998">
		<tag k="name" v="Bushammar" />
		<tag k="natural" v="cape" />
		<tag k="ssr:stedsnr" v="117383" />
	</node>
	<node lat="59.46880277677064" lon="5.740408330543768" id="-4023">
		<tag k="alt_name" v="Kolholmen" />
		<tag k="name" v="Kålholmen" />
		<tag k="old_name" v="Kå" />
		<tag k="place" v="islet" />
		<tag k="ssr:stedsnr" v="123829" />
	</node>
	<node lat="59.48305000375063" lon="6.163550001960209" id="-4035">
		<tag k="alt_name" v="Storøy" />
		<tag k="name" v="Storøyna" />
		<tag k="place" v="islet" />
		<tag k="ssr:stedsnr" v="124252" />
	</node>
	<node lat="59.60648426211457" lon="5.768570079857869" id="-4039">
		<tag k="alt_name" v="Jektevika;Indra Lundavik;Indra Lundavika" />
		<tag k="name" v="Jektavika" />
		<tag k="natural" v="bay" />
		<tag k="ssr:stedsnr" v="124336" />
	</node>
	<node lat="59.664752775662585" lon="5.6950555482677565" id="-4041">
		<tag k="name" v="Brandøyholmen" />
		<tag k="place" v="islet" />
		<tag k="ssr:stedsnr" v="124424" />
	</node>
	<node lat="59.648466670893285" lon="5.5577388915129315" id="-4042">
		<tag k="name" v="Gangstøvika" />
		<tag k="natural" v="bay" />
		<tag k="ssr:stedsnr" v="124434" />
	</node>
	<node lat="59.49511666939871" lon="5.615686105868973" id="-4047">
		<tag k="alt_name" v="Otertong" />
		<tag k="name" v="Otertangen" />
		<tag k="natural" v="cape" />
		<tag k="ssr:stedsnr" v="124836" />
	</node>
	<node lat="59.517155558918105" lon="5.50537222816152" id="-4056">
		<tag k="fixme" v="consider seamark:type=rock or natural=shoal" />
		<tag k="name" v="Hagaskjeret" />
		<tag k="place" v="islet" />
		<tag k="ssr:stedsnr" v="144803" />
	</node>
	<node lat="59.50174166930878" lon="5.631836105905758" id="-4057">
		<tag k="name" v="Tømmervik" />
		<tag k="natural" v="bay" />
		<tag k="ssr:stedsnr" v="144680" />
	</node>
	<node lat="59.49024999834621" lon="5.617202776141345" id="-4059">
		<tag k="name" v="Lendingvika" />
		<tag k="natural" v="bay" />
		<tag k="ssr:stedsnr" v="144692" />
	</node>
	<node lat="59.48698055540611" lon="5.849827777871014" id="-4074">
		<tag k="name" v="Lauvvikneset" />
		<tag k="natural" v="cape" />
		<tag k="ssr:stedsnr" v="162583" />
	</node>
	<node lat="59.637294444447164" lon="5.793377780764445" id="-4075">
		<tag k="name" v="Slettaneset" />
		<tag k="natural" v="cape" />
		<tag k="ssr:stedsnr" v="165999" />
	</node>
	<node lat="59.411436114912526" lon="5.706999999860325" id="-4077">
		<tag k="name" v="Sletting" />
		<tag k="natural" v="cape" />
		<tag k="ssr:stedsnr" v="174882" />
	</node>
	<node lat="59.43355000306208" lon="5.752800002453818" id="-4078">
		<tag k="name" v="Gåsavika" />
		<tag k="natural" v="bay" />
		<tag k="ssr:stedsnr" v="174928" />
	</node>
	<node lat="59.47111111088918" lon="6.050716660077891" id="-4084">
		<tag k="name" v="Jupevika" />
		<tag k="natural" v="bay" />
		<tag k="ssr:stedsnr" v="177486" />
	</node>
	<node lat="59.4797416707766" lon="5.615088892449831" id="-4098">
		<tag k="alt_name" v="Tjødnavika" />
		<tag k="name" v="Tjørnavika" />
		<tag k="natural" v="bay" />
		<tag k="ssr:stedsnr" v="181036" />
	</node>
	<node lat="59.54453055812843" lon="5.85767222716583" id="-4103">
		<tag k="name" v="Askestranda" />
		<tag k="natural" v="beach" />
		<tag k="ssr:stedsnr" v="180788" />
	</node>
	<node lat="59.445505555999624" lon="5.517222217170634" id="-4104">
		<tag k="name" v="Katteidholmen" />
		<tag k="place" v="islet" />
		<tag k="ssr:stedsnr" v="181089" />
	</node>
	<node lat="59.47883333012058" lon="6.005075008222837" id="-4112">
		<tag k="name" v="Ørevika" />
		<tag k="natural" v="bay" />
		<tag k="ssr:stedsnr" v="184297" />
	</node>
	<node lat="59.47134999908611" lon="5.85635000107583" id="-4115">
		<tag k="name" v="Brakaneset" />
		<tag k="natural" v="cape" />
		<tag k="ssr:stedsnr" v="184309" />
	</node>
	<node lat="59.47242222604424" lon="6.042655559264963" id="-4116">
		<tag k="alt_name" v="Storøy" />
		<tag k="name" v="Storøyna" />
		<tag k="place" v="island" />
		<tag k="ssr:stedsnr" v="184314" />
	</node>
	<node lat="59.44615277799867" lon="5.523924998789512" id="-4122">
		<tag k="alt_name" v="Katteidtongen" />
		<tag k="name" v="Katteidtangen" />
		<tag k="natural" v="cape" />
		<tag k="ssr:stedsnr" v="184778" />
	</node>
	<node lat="59.53291666883919" lon="5.544308332132947" id="-4126">
		<tag k="alt_name" v="Øynå;Haraldsøya" />
		<tag k="name" v="Øyna" />
		<tag k="place" v="islet" />
		<tag k="ssr:stedsnr" v="185272" />
	</node>
	<node lat="59.64268687142627" lon="5.792327445121804" id="-4132">
		<tag k="alt_name" v="Dreganes;Klubben" />
		<tag k="name" v="Dreganeset" />
		<tag k="natural" v="cape" />
		<tag k="ssr:stedsnr" v="185408" />
	</node>
	<node lat="59.45652499910845" lon="5.838241663263726" id="-4135">
		<tag k="alt_name" v="Hatlaneset" />
		<tag k="name" v="Hetta" />
		<tag k="natural" v="cape" />
		<tag k="ssr:stedsnr" v="185757" />
	</node>
	<node lat="59.574150001929574" lon="5.565980547314068" id="-4136">
		<tag k="name" v="Bekkjarvika" />
		<tag k="natural" v="bay" />
		<tag k="ssr:stedsnr" v="185350" />
	</node>
	<node lat="59.58371666900728" lon="5.565588896174943" id="-4138">
		<tag k="name" v="Leirhammar" />
		<tag k="natural" v="cape" />
		<tag k="ssr:stedsnr" v="185357" />
	</node>
	<node lat="59.605300003780116" lon="5.765391668223638" id="-4140">
		<tag k="name" v="Bergsneset" />
		<tag k="natural" v="cape" />
		<tag k="ssr:stedsnr" v="185368" />
	</node>
	<node lat="59.488802781894115" lon="5.63252221998292" id="-4152">
		<tag k="name" v="Skotavika" />
		<tag k="natural" v="bay" />
		<tag k="ssr:stedsnr" v="205826" />
	</node>
	<node lat="59.61689166895335" lon="5.557805554670676" id="-4153">
		<tag k="name" v="Guggehamn" />
		<tag k="natural" v="bay" />
		<tag k="ssr:stedsnr" v="207444" />
	</node>
	<node lat="59.47472777762641" lon="6.08687222092289" id="-4158">
		<tag k="name" v="Vikaneset" />
		<tag k="natural" v="cape" />
		<tag k="ssr:stedsnr" v="223574" />
	</node>
	<node lat="59.668155559240695" lon="5.666569439622555" id="-4160">
		<tag k="name" v="Ytra Rossaneset" />
		<tag k="natural" v="cape" />
		<tag k="ssr:stedsnr" v="226823" />
	</node>
	<node lat="59.68040277589058" lon="5.745538896292745" id="-4161">
		<tag k="name" v="Gamlehamn" />
		<tag k="natural" v="bay" />
		<tag k="ssr:stedsnr" v="226828" />
	</node>
	<node lat="59.51132500188439" lon="5.493188889030057" id="-4209">
		<tag k="name" v="Håvikvika" />
		<tag k="natural" v="bay" />
		<tag k="ssr:stedsnr" v="306232" />
	</node>
	<node lat="59.465533337833214" lon="5.615388895488639" id="-4211">
		<tag k="name" v="Giskavika" />
		<tag k="natural" v="bay" />
		<tag k="ssr:stedsnr" v="305827" />
	</node>
	<node lat="59.485675002558054" lon="6.1659500048728235" id="-4225">
		<tag k="name" v="Vika" />
		<tag k="natural" v="bay" />
		<tag k="ssr:stedsnr" v="306308" />
	</node>
	<node lat="59.595558337553136" lon="5.558952785866083" id="-4231">
		<tag k="alt_name" v="Byrkjeneset;Byrkjenes" />
		<tag k="name" v="Børkjenes" />
		<tag k="natural" v="cape" />
		<tag k="ssr:stedsnr" v="306371" />
	</node>
	<node lat="59.65882500018801" lon="5.751388892646134" id="-4238">
		<tag k="name" v="Brattholmen" />
		<tag k="place" v="islet" />
		<tag k="ssr:stedsnr" v="306453" />
	</node>
	<node lat="59.650775001774946" lon="5.755666673754996" id="-4246">
		<tag k="alt_name" v="Mekjevika" />
		<tag k="fixme" v="multiple name tags, choose one and add the other to alt_name" />
		<tag k="name" v="Mækjevika;Kjellasvik" />
		<tag k="natural" v="bay" />
		<tag k="ssr:stedsnr" v="307491" />
	</node>
	<node lat="59.46167499933277" lon="5.755183340317441" id="-4247">
		<tag k="name" v="Vaskevika" />
		<tag k="natural" v="bay" />
		<tag k="ssr:stedsnr" v="319776" />
	</node>
	<node lat="59.63074444548043" lon="5.556208332738653" id="-4259">
		<tag k="name" v="Pøyla" />
		<tag k="natural" v="bay" />
		<tag k="ssr:stedsnr" v="328444" />
	</node>
	<node lat="59.62745833216566" lon="5.55638610428381" id="-4260">
		<tag k="name" v="Sørehamn" />
		<tag k="natural" v="bay" />
		<tag k="ssr:stedsnr" v="328445" />
	</node>
	<node lat="59.47569166898702" lon="6.095441668329699" id="-4270">
		<tag k="name" v="Frøvikneset" />
		<tag k="natural" v="cape" />
		<tag k="ssr:stedsnr" v="344566" />
	</node>
	<node lat="59.60015000184451" lon="5.763269436024275" id="-4276">
		<tag k="name" v="Myravik" />
		<tag k="natural" v="bay" />
		<tag k="ssr:stedsnr" v="347984" />
	</node>
	<node lat="59.48245277695367" lon="5.8509222164005426" id="-4296">
		<tag k="name" v="Elvaneset" />
		<tag k="natural" v="cape" />
		<tag k="ssr:stedsnr" v="359244" />
	</node>
	<node lat="59.54339999724347" lon="5.862611111010653" id="-4314">
		<tag k="loc_name" v="Tangen" />
		<tag k="name" v="Tongjen" />
		<tag k="natural" v="cape" />
		<tag k="ssr:stedsnr" v="361818" />
	</node>
	<node lat="59.44848055664591" lon="5.505813884756748" id="-4326">
		<tag k="name" v="Neset" />
		<tag k="natural" v="cape" />
		<tag k="ssr:stedsnr" v="363085" />
	</node>
	<node lat="59.667041618471146" lon="5.7556382698066635" id="-4328">
		<tag k="alt_name" v="Litle Romsa" />
		<tag k="fixme" v="multiple name tags, choose one and add the other to alt_name" />
		<tag k="name" v="Glopsøya;Nautøy" />
		<tag k="place" v="island" />
		<tag k="ssr:stedsnr" v="367020" />
	</node>
	<node lat="59.414641671094884" lon="5.714966669860902" id="-4329">
		<tag k="name" v="Stråtveitvika" />
		<tag k="natural" v="bay" />
		<tag k="ssr:stedsnr" v="366040" />
	</node>
	<node lat="59.457068334595434" lon="5.531501583996592" id="-4334">
		<tag k="alt_name" v="Naustatongen" />
		<tag k="name" v="Naustatangen" />
		<tag k="natural" v="cape" />
		<tag k="ssr:stedsnr" v="366798" />
	</node>
	<node lat="59.508905559433444" lon="5.850841671855144" id="-4337">
		<tag k="alt_name" v="Sandeidsfjorden" />
		<tag k="bay" v="fjord" />
		<tag k="name" v="Sandeidfjorden" />
		<tag k="natural" v="bay" />
		<tag k="ssr:stedsnr" v="366829" />
	</node>
	<node lat="59.68264999779514" lon="5.603080554384785" id="-4339">
		<tag k="name" v="Bjoaneset" />
		<tag k="natural" v="cape" />
		<tag k="ssr:stedsnr" v="367046" />
	</node>
	<node lat="59.60675000139829" lon="5.8007444504380645" id="-4342">
		<tag k="alt_name" v="Ølensjøen" />
		<tag k="bay" v="fjord" />
		<tag k="name" v="Ølsjøen" />
		<tag k="natural" v="bay" />
		<tag k="ssr:stedsnr" v="367338" />
	</node>
	<node lat="59.66590000289385" lon="5.724733328094215" id="-4350">
		<tag k="name" v="Haugsholmane" />
		<tag k="place" v="islet" />
		<tag k="ssr:stedsnr" v="367419" />
	</node>
	<node lat="59.51149166432113" lon="5.467136115703595" id="-4365">
		<tag k="name" v="Krossvika" />
		<tag k="natural" v="bay" />
		<tag k="ssr:stedsnr" v="387672" />
	</node>
	<node lat="59.55610555968599" lon="5.553305555480892" id="-4368">
		<tag k="name" v="Merri" />
		<tag k="natural" v="shoal" />
		<tag k="place" v="locality" />
		<tag k="ssr:stedsnr" v="389832" />
	</node>
	<node lat="59.50976944221283" lon="5.46141666862548" id="-4370">
		<tag k="alt_name" v="Fjonaskjer" />
		<tag k="name" v="Fjonaskjeret" />
		<tag k="place" v="locality" />
		<tag k="seamark:type" v="rock" />
		<tag k="ssr:stedsnr" v="390374" />
	</node>
	<node lat="59.474622224274306" lon="6.060547220330197" id="-4373">
		<tag k="name" v="Frostholmen" />
		<tag k="natural" v="cape" />
		<tag k="ssr:stedsnr" v="405570" />
	</node>
	<node lat="59.47484262971982" lon="6.0536344972965175" id="-4374">
		<tag k="name" v="Revøysundet" />
		<tag k="natural" v="strait" />
		<tag k="ssr:stedsnr" v="405572" />
	</node>
	<node lat="59.46392499768097" lon="5.535244437863389" id="-4412">
		<tag k="name" v="Brendaneset" />
		<tag k="natural" v="cape" />
		<tag k="ssr:stedsnr" v="424096" />
	</node>
	<node lat="59.4487437215409" lon="5.5094909690478895" id="-4417">
		<tag k="alt_name" v="Breidvika" />
		<tag k="name" v="Breivika" />
		<tag k="natural" v="bay" />
		<tag k="ssr:stedsnr" v="427758" />
	</node>
	<node lat="59.661411106839616" lon="5.74531389508053" id="-4431">
		<tag k="name" v="Langholmane" />
		<tag k="place" v="islet" />
		<tag k="ssr:stedsnr" v="428445" />
	</node>
	<node lat="59.51218055416402" lon="5.4996638853504" id="-4433">
		<tag k="name" v="Veravika" />
		<tag k="natural" v="bay" />
		<tag k="ssr:stedsnr" v="428233" />
	</node>
	<node lat="59.511808334038136" lon="5.508711114032695" id="-4434">
		<tag k="name" v="Tosvollvika" />
		<tag k="natural" v="bay" />
		<tag k="ssr:stedsnr" v="428235" />
	</node>
	<node lat="59.63300555292343" lon="5.562008340181717" id="-4435">
		<tag k="alt_name" v="Årvikhamn, s;Søre Årvikhavn" />
		<tag k="name" v="Søra Årvikhamn" />
		<tag k="natural" v="bay" />
		<tag k="ssr:stedsnr" v="428397" />
	</node>
	<node lat="59.48980833424298" lon="5.632297223858253" id="-4450">
		<tag k="alt_name" v="Longalandsholmen" />
		<tag k="name" v="Langalandsholmen" />
		<tag k="place" v="islet" />
		<tag k="ssr:stedsnr" v="448695" />
	</node>
	<node lat="59.4908638884376" lon="5.626141660721571" id="-4456">
		<tag k="name" v="Skinnbakken" />
		<tag k="natural" v="bay" />
		<tag k="ssr:stedsnr" v="508674" />
	</node>
	<node lat="59.469511114979966" lon="5.854986118238584" id="-4482">
		<tag k="name" v="Sandvikstrendene" />
		<tag k="natural" v="beach" />
		<tag k="ssr:stedsnr" v="541246" />
	</node>
	<node lat="59.6279972238597" lon="5.554022215220156" id="-4488">
		<tag k="alt_name" v="Årvikeneset, s;Søra Årvikeneset;Årviknes S" />
		<tag k="name" v="Søra Årvikneset" />
		<tag k="natural" v="cape" />
		<tag k="ssr:stedsnr" v="542446" />
	</node>
	<node lat="59.48730555535903" lon="5.631213884654123" id="-4511">
		<tag k="alt_name" v="Longalandsvika" />
		<tag k="name" v="Langalandsvika" />
		<tag k="natural" v="bay" />
		<tag k="ssr:stedsnr" v="548839" />
	</node>
	<node lat="59.51802677630154" lon="5.8110590112893155" id="-4528">
		<tag k="name" v="Ilsvåg" />
		<tag k="natural" v="bay" />
		<tag k="ssr:stedsnr" v="549608" />
	</node>
	<node lat="59.52380277359426" lon="5.517050006129489" id="-4540">
		<tag k="name" v="Sønningneset" />
		<tag k="natural" v="cape" />
		<tag k="ssr:stedsnr" v="569787" />
	</node>
	<node lat="59.51638055709343" lon="5.821088884170469" id="-4582">
		<tag k="name" v="Spansteberget" />
		<tag k="natural" v="beach" />
		<tag k="ssr:stedsnr" v="603839" />
	</node>
	<node lat="59.53731111434566" lon="5.70023611896868" id="-4589">
		<tag k="name" v="Storeklubben" />
		<tag k="natural" v="cape" />
		<tag k="ssr:stedsnr" v="604696" />
	</node>
	<node lat="59.435433335638734" lon="5.764130551583075" id="-4594">
		<tag k="fixme" v="consider seamark:type=rock or natural=shoal" />
		<tag k="name" v="Flataskjer" />
		<tag k="place" v="islet" />
		<tag k="ssr:stedsnr" v="608024" />
	</node>
	<node lat="59.451452776505434" lon="5.816616672178862" id="-4597">
		<tag k="name" v="Digranes" />
		<tag k="natural" v="cape" />
		<tag k="ssr:stedsnr" v="608800" />
	</node>
	<node lat="59.52674721878197" lon="5.841622217936895" id="-4611">
		<tag k="name" v="Tømmervika" />
		<tag k="natural" v="bay" />
		<tag k="ssr:stedsnr" v="609245" />
	</node>
	<node lat="59.55946034508634" lon="5.567367261859735" id="-4635">
		<tag k="fixme" v="multiple name tags, choose one and add the other to alt_name" />
		<tag k="name" v="Vika;Holtengårdsvika" />
		<tag k="natural" v="bay" />
		<tag k="ssr:stedsnr" v="610370" />
	</node>
	<node lat="59.611891662246585" lon="5.5603694447409495" id="-4636">
		<tag k="name" v="Støavika" />
		<tag k="natural" v="bay" />
		<tag k="ssr:stedsnr" v="610443" />
	</node>
	<node lat="59.56738333402908" lon="5.56720834112317" id="-4643">
		<tag k="loc_name" v="Nordra Buholmvika" />
		<tag k="name" v="Nordra Buholmvik" />
		<tag k="natural" v="bay" />
		<tag k="ssr:stedsnr" v="631430" />
	</node>
	<node lat="59.47816111338942" lon="5.89350277265255" id="-4646">
		<tag k="name" v="Brenneset" />
		<tag k="natural" v="cape" />
		<tag k="ssr:stedsnr" v="647541" />
	</node>
	<node lat="59.50211388984316" lon="5.866588890219883" id="-4647">
		<tag k="name" v="Kalvaskinngrunnen" />
		<tag k="natural" v="shoal" />
		<tag k="place" v="locality" />
		<tag k="ssr:stedsnr" v="647545" />
	</node>
	<node lat="59.66801389221913" lon="5.64519443570552" id="-4648">
		<tag k="name" v="Bjørnsnes" />
		<tag k="natural" v="cape" />
		<tag k="ssr:stedsnr" v="650778" />
	</node>
	<node lat="59.48117499978112" lon="6.1605722197056885" id="-4652">
		<tag k="name" v="Rauneholmen" />
		<tag k="place" v="islet" />
		<tag k="ssr:stedsnr" v="661600" />
	</node>
	<node lat="59.470875002856914" lon="6.027974999661568" id="-4663">
		<tag k="name" v="Herøytåa" />
		<tag k="natural" v="cape" />
		<tag k="ssr:stedsnr" v="663449" />
	</node>
	<node lat="59.471116668311254" lon="5.613088884207501" id="-4691">
		<tag k="name" v="Havnaholmen" />
		<tag k="place" v="islet" />
		<tag k="ssr:stedsnr" v="667053" />
	</node>
	<node lat="59.467069445967226" lon="5.740380558574642" id="-4701">
		<tag k="bay" v="fjord" />
		<tag k="name" v="Vatsfjorden" />
		<tag k="natural" v="bay" />
		<tag k="ssr:stedsnr" v="670756" />
	</node>
	<node lat="59.664680552400974" lon="5.690355562079094" id="-4711">
		<tag k="alt_name" v="Solhaugvik" />
		<tag k="name" v="Solhaugvika" />
		<tag k="natural" v="bay" />
		<tag k="ssr:stedsnr" v="670028" />
	</node>
	<node lat="59.679525002603114" lon="5.620725003849202" id="-4712">
		<tag k="alt_name" v="Husøya" />
		<tag k="name" v="Husøy" />
		<tag k="place" v="island" />
		<tag k="ssr:stedsnr" v="670050" />
	</node>
	<node lat="59.517144442175706" lon="5.5152277790072715" id="-4716">
		<tag k="name" v="Dalavika" />
		<tag k="natural" v="bay" />
		<tag k="ssr:stedsnr" v="670261" />
	</node>
	<node lat="59.42730278206238" lon="5.74336110907123" id="-4728">
		<tag k="name" v="Breiavika" />
		<tag k="natural" v="bay" />
		<tag k="ssr:stedsnr" v="720902" />
	</node>
	<node lat="59.48155277615355" lon="6.158508336783826" id="-4729">
		<tag k="name" v="Hårborvika" />
		<tag k="natural" v="bay" />
		<tag k="ssr:stedsnr" v="722645" />
	</node>
	<node lat="59.52210833659863" lon="5.817472227080153" id="-4754">
		<tag k="name" v="Klubben" />
		<tag k="natural" v="cape" />
		<tag k="ssr:stedsnr" v="725841" />
	</node>
	<node lat="59.453852778114644" lon="5.823363896132409" id="-4761">
		<tag k="name" v="Narravika" />
		<tag k="natural" v="bay" />
		<tag k="ssr:stedsnr" v="726929" />
	</node>
	<node lat="59.690336112367284" lon="5.727574997795266" id="-4783">
		<tag k="bay" v="fjord" />
		<tag k="name" v="Melen" />
		<tag k="natural" v="bay" />
		<tag k="ssr:stedsnr" v="731038" />
	</node>
	<node lat="59.5247916683932" lon="5.548822218126529" id="-4786">
		<tag k="name" v="Haraldseidvågen" />
		<tag k="natural" v="bay" />
		<tag k="ssr:stedsnr" v="731235" />
	</node>
	<node lat="59.60166388481792" lon="5.555916670622288" id="-4802">
		<tag k="alt_name" v="Klubben" />
		<tag k="name" v="Klubbane" />
		<tag k="natural" v="cape" />
		<tag k="ssr:stedsnr" v="731362" />
	</node>
	<node lat="59.60854999776838" lon="5.7766249989141025" id="-4803">
		<tag k="alt_name" v="Lundeneset" />
		<tag k="name" v="Lundaneset" />
		<tag k="natural" v="cape" />
		<tag k="ssr:stedsnr" v="731368" />
	</node>
	<node lat="59.598591670899964" lon="5.560100007012599" id="-4805">
		<tag k="alt_name" v="Døvik" />
		<tag k="name" v="Døvika" />
		<tag k="natural" v="bay" />
		<tag k="ssr:stedsnr" v="731346" />
	</node>
	<node lat="59.662533332309486" lon="5.698950001099972" id="-4809">
		<tag k="alt_name" v="Brandøyvik" />
		<tag k="name" v="Brandøyvika" />
		<tag k="natural" v="bay" />
		<tag k="ssr:stedsnr" v="731447" />
	</node>
	<node lat="59.464391668134645" lon="5.737902777248542" id="-4822">
		<tag k="loc_name" v="Heigraneset" />
		<tag k="name" v="Higreneset" />
		<tag k="natural" v="cape" />
		<tag k="ssr:stedsnr" v="753421" />
	</node>
	<node lat="59.469155557733934" lon="6.036938888482651" id="-4829">
		<tag k="fixme" v="consider seamark:type=rock or natural=shoal" />
		<tag k="name" v="Herøyskjeret" />
		<tag k="place" v="islet" />
		<tag k="ssr:stedsnr" v="769551" />
	</node>
	<node lat="59.45507777441606" lon="5.73705277902941" id="-4866">
		<tag k="name" v="Skjenaneset" />
		<tag k="natural" v="cape" />
		<tag k="ssr:stedsnr" v="786940" />
	</node>
	<node lat="59.5730022470369" lon="5.566229950797268" id="-4883">
		<tag k="name" v="Smettarholmsvika" />
		<tag k="natural" v="bay" />
		<tag k="ssr:stedsnr" v="788236" />
	</node>
	<node lat="59.43537500334078" lon="5.768952775137124" id="-4888">
		<tag k="alt_name" v="Kattreva" />
		<tag k="name" v="Kattrauv" />
		<tag k="natural" v="cape" />
		<tag k="ssr:stedsnr" v="791023" />
	</node>
	<node lat="59.43697500130642" lon="5.762399995975636" id="-4889">
		<tag k="name" v="Foreholmen" />
		<tag k="place" v="islet" />
		<tag k="ssr:stedsnr" v="791029" />
	</node>
	<node lat="59.42241389198856" lon="5.733561108230833" id="-4890">
		<tag k="alt_name" v="Asbjørnteigneset" />
		<tag k="name" v="Asbjørgteigneset" />
		<tag k="natural" v="cape" />
		<tag k="ssr:stedsnr" v="791064" />
	</node>
	<node lat="59.68430000141766" lon="5.594091660659092" id="-4891">
		<tag k="alt_name" v="Svallandsnes" />
		<tag k="name" v="Svollandsneset" />
		<tag k="natural" v="cape" />
		<tag k="ssr:stedsnr" v="791067" />
	</node>
	<node lat="59.49555000191207" lon="5.8810500015127465" id="-4892">
		<tag k="name" v="Oppsalsneset" />
		<tag k="natural" v="cape" />
		<tag k="ssr:stedsnr" v="791265" />
	</node>
	<node lat="59.46497777627433" lon="5.742180550933307" id="-4896">
		<tag k="name" v="Liaholmen" />
		<tag k="place" v="islet" />
		<tag k="ssr:stedsnr" v="791785" />
	</node>
	<node lat="59.44920833445274" lon="5.740230556506672" id="-4900">
		<tag k="loc_name" v="Indralandsvågen" />
		<tag k="name" v="Indralandsvika" />
		<tag k="natural" v="bay" />
		<tag k="ssr:stedsnr" v="791767" />
	</node>
	<node lat="59.517377779730786" lon="5.510236117471167" id="-4914">
		<tag k="name" v="Haganeset" />
		<tag k="natural" v="cape" />
		<tag k="ssr:stedsnr" v="792264" />
	</node>
	<node lat="59.500638892193365" lon="5.593547222847067" id="-4919">
		<tag k="name" v="Vikaneset" />
		<tag k="natural" v="cape" />
		<tag k="ssr:stedsnr" v="793087" />
	</node>
	<node lat="59.47490277491776" lon="5.740966665019162" id="-4926">
		<tag k="name" v="Strand" />
		<tag k="natural" v="beach" />
		<tag k="ssr:stedsnr" v="814521" />
	</node>
	<node lat="59.43443333403925" lon="5.7636861145116045" id="-4932">
		<tag k="name" v="Lygaren" />
		<tag k="natural" v="shoal" />
		<tag k="place" v="locality" />
		<tag k="ssr:stedsnr" v="830970" />
	</node>
	<node lat="59.65229722139288" lon="5.746488882387656" id="-4933">
		<tag k="name" v="Mækrevik" />
		<tag k="natural" v="bay" />
		<tag k="ssr:stedsnr" v="833815" />
	</node>
	<node lat="59.475380553128026" lon="5.92415278079686" id="-4947">
		<tag k="name" v="Saganeset" />
		<tag k="natural" v="cape" />
		<tag k="ssr:stedsnr" v="845269" />
	</node>
	<node lat="59.41200555828189" lon="5.715336106906751" id="-4970">
		<tag k="alt_name" v="Yrkjefjorden;Yrkjesfjorden" />
		<tag k="bay" v="fjord" />
		<tag k="name" v="Yrkefjorden" />
		<tag k="natural" v="bay" />
		<tag k="ssr:stedsnr" v="852029" />
	</node>
	<node lat="59.44125277436886" lon="5.7643500045500975" id="-4971">
		<tag k="name" v="Kaldrak" />
		<tag k="natural" v="cape" />
		<tag k="ssr:stedsnr" v="852033" />
	</node>
	<node lat="59.680863889622806" lon="5.611838892138906" id="-4972">
		<tag k="alt_name" v="Vågen" />
		<tag k="name" v="Bjoavågen" />
		<tag k="natural" v="bay" />
		<tag k="ssr:stedsnr" v="852062" />
	</node>
	<node lat="59.480625004208264" lon="6.158649991878528" id="-4973">
		<tag k="alt_name" v="Krajen" />
		<tag k="name" v="Kragen" />
		<tag k="natural" v="cape" />
		<tag k="ssr:stedsnr" v="852311" />
	</node>
	<node lat="59.55040277789406" lon="5.558225006550082" id="-4977">
		<tag k="alt_name" v="Ulvebneneset" />
		<tag k="name" v="Ulvevneneset" />
		<tag k="natural" v="cape" />
		<tag k="ssr:stedsnr" v="852321" />
	</node>
	<node lat="59.463241670122166" lon="5.616766670100275" id="-4980">
		<tag k="name" v="Båtavika" />
		<tag k="natural" v="bay" />
		<tag k="ssr:stedsnr" v="852791" />
	</node>
	<node lat="59.44504167094657" lon="5.7475583333074045" id="-4982">
		<tag k="name" v="Raudnes" />
		<tag k="natural" v="cape" />
		<tag k="ssr:stedsnr" v="852718" />
	</node>
	<node lat="59.443053726297386" lon="5.519060819268346" id="-4983">
		<tag k="alt_name" v="Kvitholmane" />
		<tag k="name" v="Kvitholmen" />
		<tag k="place" v="islet" />
		<tag k="ssr:stedsnr" v="852745" />
	</node>
	<node lat="59.666693709890424" lon="5.682000949656777" id="-4989">
		<tag k="alt_name" v="Grunnevåg" />
		<tag k="name" v="Grunnevågen" />
		<tag k="natural" v="bay" />
		<tag k="ssr:stedsnr" v="853030" />
	</node>
	<node lat="59.501205553466114" lon="5.624363894552295" id="-5015">
		<tag k="name" v="Hunnsvik" />
=======
<osm generator="osmapis" version="0.6">
	<node id="-43006" lat="59.4404749957" lon="5.47999443738">
		<tag k="alt_name" v="Grindefjorden" />
		<tag k="bay" v="fjord" />
		<tag k="name" v="Grindafjorden" />
		<tag k="natural" v="bay" />
		<tag k="ssr:stedsnr" v="1641" />
	</node>
	<node id="-43005" lat="59.4970999975" lon="5.88912777565">
		<tag k="alt_name" v="Kvednavika" />
		<tag k="name" v="Kvernavika" />
		<tag k="natural" v="bay" />
		<tag k="ssr:stedsnr" v="2278" />
	</node>
	<node id="-42994" lat="59.5488464916" lon="5.55917715218">
		<tag k="name" v="Vågskjeften" />
		<tag k="natural" v="bay" />
		<tag k="ssr:stedsnr" v="981027" />
	</node>
	<node id="-42993" lat="59.5467641027" lon="5.55749500791">
		<tag k="name" v="Uraneset" />
		<tag k="natural" v="cape" />
		<tag k="ssr:stedsnr" v="981026" />
	</node>
	<node id="-42985" lat="59.677421221" lon="5.58651199548">
		<tag k="name" v="Træsklubben" />
		<tag k="natural" v="cape" />
		<tag k="ssr:stedsnr" v="972610" />
	</node>
	<node id="-42984" lat="59.678284506" lon="5.58826713324">
		<tag k="name" v="Naustnes" />
		<tag k="natural" v="cape" />
		<tag k="ssr:stedsnr" v="972609" />
	</node>
	<node id="-42983" lat="59.6814240931" lon="5.61502524335">
		<tag k="name" v="Donsvika" />
		<tag k="natural" v="bay" />
		<tag k="ssr:stedsnr" v="972606" />
	</node>
	<node id="-42982" lat="59.6826796726" lon="5.6156430033">
		<tag k="name" v="Bjønnsvik" />
		<tag k="natural" v="bay" />
		<tag k="ssr:stedsnr" v="972605" />
	</node>
	<node id="-42981" lat="59.6844942917" lon="5.612234391">
		<tag k="fixme" v="consider seamark:type=rock or natural=shoal" />
		<tag k="name" v="Kråkeskjer" />
		<tag k="place" v="islet" />
		<tag k="ssr:stedsnr" v="972603" />
	</node>
	<node id="-42977" lat="59.6853131362" lon="5.60741866501">
		<tag k="name" v="Neset" />
		<tag k="natural" v="cape" />
		<tag k="ssr:stedsnr" v="972599" />
	</node>
	<node id="-42957" lat="59.4659416697" lon="5.85489444722">
		<tag k="name" v="Sandvika" />
		<tag k="natural" v="bay" />
		<tag k="ssr:stedsnr" v="951555" />
	</node>
	<node id="-42944" lat="59.493069443" lon="5.84178611493">
		<tag k="fixme" v="consider seamark:type=rock or natural=shoal" />
		<tag k="name" v="Stegaskjer" />
		<tag k="place" v="islet" />
		<tag k="ssr:stedsnr" v="906213" />
	</node>
	<node id="-42936" lat="59.4311777741" lon="5.75171944064">
		<tag k="name" v="Mula" />
		<tag k="natural" v="cape" />
		<tag k="ssr:stedsnr" v="902932" />
	</node>
	<node id="-42913" lat="59.4618777781" lon="5.7552999995">
		<tag k="name" v="Trosvika" />
		<tag k="natural" v="bay" />
		<tag k="ssr:stedsnr" v="852757" />
	</node>
	<node id="-42907" lat="59.4450416709" lon="5.74755833331">
		<tag k="name" v="Raudnes" />
		<tag k="natural" v="cape" />
		<tag k="ssr:stedsnr" v="852718" />
	</node>
	<node id="-42905" lat="59.5504027779" lon="5.55822500655">
		<tag k="alt_name" v="Ulvebneneset" />
		<tag k="name" v="Ulvevneneset" />
		<tag k="natural" v="cape" />
		<tag k="ssr:stedsnr" v="852321" />
	</node>
	<node id="-42901" lat="59.4806250042" lon="6.15864999188">
		<tag k="alt_name" v="Krajen" />
		<tag k="name" v="Kragen" />
		<tag k="natural" v="cape" />
		<tag k="ssr:stedsnr" v="852311" />
	</node>
	<node id="-42899" lat="59.6867166681" lon="5.60986111761">
		<tag k="alt_name" v="Langskjer" />
		<tag k="fixme" v="consider seamark:type=rock or natural=shoal" />
		<tag k="name" v="Langskjeret" />
		<tag k="place" v="islet" />
		<tag k="ssr:stedsnr" v="852074" />
	</node>
	<node id="-42897" lat="59.6808638896" lon="5.61183889214">
		<tag k="alt_name" v="Vågen" />
		<tag k="name" v="Bjoavågen" />
		<tag k="natural" v="bay" />
		<tag k="ssr:stedsnr" v="852062" />
	</node>
	<node id="-42890" lat="59.6522972214" lon="5.74648888239">
		<tag k="name" v="Mækrevik" />
		<tag k="natural" v="bay" />
		<tag k="ssr:stedsnr" v="833815" />
	</node>
	<node id="-42879" lat="59.4915694412" lon="5.62384166297">
		<tag k="name" v="Forevika" />
		<tag k="natural" v="bay" />
		<tag k="ssr:stedsnr" v="933714" />
	</node>
	<node id="-42870" lat="59.4649777763" lon="5.74218055093">
		<tag k="name" v="Liaholmen" />
		<tag k="place" v="islet" />
		<tag k="ssr:stedsnr" v="791785" />
	</node>
	<node id="-42869" lat="59.4492083345" lon="5.74023055651">
		<tag k="loc_name" v="Indralandsvågen" />
		<tag k="name" v="Indralandsvika" />
		<tag k="natural" v="bay" />
		<tag k="ssr:stedsnr" v="791767" />
	</node>
	<node id="-42860" lat="59.4369750013" lon="5.76239999598">
		<tag k="name" v="Foreholmen" />
		<tag k="place" v="islet" />
		<tag k="ssr:stedsnr" v="791029" />
	</node>
	<node id="-42859" lat="59.4353750033" lon="5.76895277514">
		<tag k="alt_name" v="Kattreva" />
		<tag k="name" v="Kattrauv" />
		<tag k="natural" v="cape" />
		<tag k="ssr:stedsnr" v="791023" />
	</node>
	<node id="-42858" lat="59.4382194486" lon="5.77798611014">
		<tag k="alt_name" v="Slåtteneset" />
		<tag k="name" v="Slåttenes" />
		<tag k="natural" v="cape" />
		<tag k="ssr:stedsnr" v="791021" />
	</node>
	<node id="-42856" lat="59.573002247" lon="5.5662299508">
		<tag k="name" v="Smettarholmsvika" />
		<tag k="natural" v="bay" />
		<tag k="ssr:stedsnr" v="788236" />
	</node>
	<node id="-42853" lat="59.5186944406" lon="5.80827777405">
		<tag k="name" v="Podlavika" />
		<tag k="natural" v="bay" />
		<tag k="ssr:stedsnr" v="786852" />
	</node>
	<node id="-42841" lat="59.5190777785" lon="5.81620000061">
		<tag k="name" v="Torsneset" />
		<tag k="natural" v="cape" />
		<tag k="ssr:stedsnr" v="914650" />
	</node>
	<node id="-44345" lat="59.6708651393" lon="5.63256091437">
		<tag k="name" v="Vedvik" />
		<tag k="natural" v="bay" />
		<tag k="ssr:stedsnr" v="972982" />
	</node>
	<node id="-42835" lat="59.6779250023" lon="5.72785832524">
		<tag k="name" v="Ørevika" />
		<tag k="natural" v="bay" />
		<tag k="ssr:stedsnr" v="914100" />
	</node>
	<node id="-42822" lat="59.461713893" lon="5.53079999903">
		<tag k="alt_name" v="Stampevik" />
		<tag k="name" v="Stampevika" />
		<tag k="natural" v="bay" />
		<tag k="ssr:stedsnr" v="913781" />
	</node>
	<node id="-42821" lat="59.4639027738" lon="5.74235556218">
		<tag k="name" v="Eikanesholmen" />
		<tag k="place" v="islet" />
		<tag k="ssr:stedsnr" v="913769" />
	</node>
	<node id="-42807" lat="59.6099697022" lon="5.7755886584">
		<tag k="alt_name" v="Lundevika;Ytra Lundavik;Ytra Lundavika" />
		<tag k="name" v="Lundavika" />
		<tag k="natural" v="bay" />
		<tag k="ssr:stedsnr" v="913392" />
	</node>
	<node id="-42802" lat="59.4611777815" lon="6.02476666099">
		<tag k="bay" v="fjord" />
		<tag k="name" v="Vindafjorden" />
		<tag k="natural" v="bay" />
		<tag k="ssr:stedsnr" v="913312" />
	</node>
	<node id="-42801" lat="59.5487527809" lon="5.54916389287">
		<tag k="alt_name" v="Svendsbøøy" />
		<tag k="name" v="Svensbøøya" />
		<tag k="place" v="islet" />
		<tag k="ssr:stedsnr" v="913302" />
	</node>
	<node id="-42798" lat="59.4778194438" lon="5.89657221562">
		<tag k="name" v="Smedsvik" />
		<tag k="natural" v="bay" />
		<tag k="ssr:stedsnr" v="913291" />
	</node>
	<node id="-42796" lat="59.5438138853" lon="5.54685554929">
		<tag k="name" v="Trovågsneset" />
		<tag k="natural" v="cape" />
		<tag k="ssr:stedsnr" v="913286" />
	</node>
	<node id="-42788" lat="59.6795228768" lon="5.7323786303">
		<tag k="name" v="Grindanesvika" />
		<tag k="natural" v="bay" />
		<tag k="ssr:stedsnr" v="913011" />
	</node>
	<node id="-42781" lat="59.5795750027" lon="5.56450834037">
		<tag k="name" v="Brunnavik" />
		<tag k="natural" v="bay" />
		<tag k="ssr:stedsnr" v="910237" />
	</node>
	<node id="-41946" lat="59.5704277742" lon="5.56644722395">
		<tag k="alt_name" v="Skjeljarvikneset" />
		<tag k="name" v="Skjeljavikneset" />
		<tag k="natural" v="cape" />
		<tag k="ssr:stedsnr" v="246344" />
	</node>
	<node id="-44813" lat="59.6485330031" lon="5.77275845443">
		<tag k="name" v="Staveneset" />
		<tag k="natural" v="cape" />
		<tag k="ssr:stedsnr" v="1072195" />
	</node>
	<node id="-42754" lat="59.5042000025" lon="5.87003610748">
		<tag k="name" v="Gunnarneset" />
		<tag k="natural" v="cape" />
		<tag k="ssr:stedsnr" v="906225" />
	</node>
	<node id="-42745" lat="59.5985916709" lon="5.56010000701">
		<tag k="alt_name" v="Døvik" />
		<tag k="name" v="Døvika" />
		<tag k="natural" v="bay" />
		<tag k="ssr:stedsnr" v="731346" />
	</node>
	<node id="-44789" lat="59.5484369388" lon="5.55600737767">
		<tag k="name" v="Ottertang" />
		<tag k="natural" v="cape" />
		<tag k="ssr:stedsnr" v="981025" />
	</node>
	<node id="-42738" lat="59.5711499998" lon="5.56816388018">
		<tag k="alt_name" v="Skjeljarvik" />
		<tag k="name" v="Skjeljavika" />
		<tag k="natural" v="bay" />
		<tag k="ssr:stedsnr" v="731306" />
	</node>
	<node id="-44780" lat="59.5354193897" lon="5.54657887655">
		<tag k="name" v="Matkista" />
		<tag k="place" v="islet" />
		<tag k="ssr:stedsnr" v="981009" />
	</node>
	<node id="-44777" lat="59.5509951304" lon="5.54963791401">
		<tag k="name" v="Litløysundet" />
		<tag k="natural" v="strait" />
		<tag k="ssr:stedsnr" v="981003" />
	</node>
	<node id="-42715" lat="59.6732722208" lon="5.76428056049">
		<tag k="name" v="Storeflua" />
		<tag k="place" v="locality" />
		<tag k="seamark:type" v="rock" />
		<tag k="ssr:stedsnr" v="894793" />
	</node>
	<node id="-42714" lat="59.6570916633" lon="5.72636389616">
		<tag k="name" v="Saltvik" />
		<tag k="natural" v="bay" />
		<tag k="ssr:stedsnr" v="893801" />
	</node>
	<node id="-42713" lat="59.5254222232" lon="5.84300277741">
		<tag k="fixme" v="consider seamark:type=rock or natural=shoal" />
		<tag k="name" v="Ilsnesflua" />
		<tag k="place" v="islet" />
		<tag k="ssr:stedsnr" v="891572" />
	</node>
	<node id="-42711" lat="59.4531333342" lon="5.75790833932">
		<tag k="name" v="Dyna" />
		<tag k="natural" v="cape" />
		<tag k="ssr:stedsnr" v="891550" />
	</node>
	<node id="-42704" lat="59.5928805582" lon="5.56347221904">
		<tag k="fixme" v="consider seamark:type=rock or natural=shoal" />
		<tag k="name" v="Flesjane" />
		<tag k="place" v="islet" />
		<tag k="ssr:stedsnr" v="692428" />
	</node>
	<node id="-44740" lat="59.589067702" lon="5.57590026671">
		<tag k="name" v="Dommasneslandet" />
		<tag k="natural" v="beach" />
		<tag k="place" v="locality" />
		<tag k="ssr:stedsnr" v="977239" />
	</node>
	<node id="-44735" lat="59.5818983673" lon="5.56425724431">
		<tag k="name" v="Søre Leirhammar" />
		<tag k="natural" v="cape" />
		<tag k="ssr:stedsnr" v="977231" />
	</node>
	<node id="-42679" lat="59.4395083339" lon="5.74846943768">
		<tag k="alt_name" v="Raunesholmen" />
		<tag k="name" v="Raudnesholmen" />
		<tag k="place" v="islet" />
		<tag k="ssr:stedsnr" v="659936" />
	</node>
	<node id="-44719" lat="59.5927290106" lon="5.56805982075">
		<tag k="name" v="Taratåa" />
		<tag k="natural" v="cape" />
		<tag k="ssr:stedsnr" v="977212" />
	</node>
	<node id="-44718" lat="59.5929942789" lon="5.56511858792">
		<tag k="fixme" v="consider seamark:type=rock or natural=shoal" />
		<tag k="name" v="Flesjatåa" />
		<tag k="place" v="islet" />
		<tag k="ssr:stedsnr" v="977211" />
	</node>
	<node id="-42662" lat="59.4765249975" lon="6.05430000287">
		<tag k="alt_name" v="Jupevika" />
		<tag k="name" v="Djupevik" />
		<tag k="natural" v="bay" />
		<tag k="ssr:stedsnr" v="731271" />
	</node>
	<node id="-42653" lat="59.5247916684" lon="5.54882221813">
		<tag k="name" v="Haraldseidvågen" />
		<tag k="natural" v="bay" />
		<tag k="ssr:stedsnr" v="731235" />
	</node>
	<node id="-42606" lat="59.4538527781" lon="5.82336389613">
		<tag k="name" v="Narravika" />
		<tag k="natural" v="bay" />
		<tag k="ssr:stedsnr" v="726929" />
	</node>
	<node id="-42642" lat="59.6625333323" lon="5.6989500011">
		<tag k="alt_name" v="Brandøyvik" />
		<tag k="name" v="Brandøyvika" />
		<tag k="natural" v="bay" />
		<tag k="ssr:stedsnr" v="731447" />
	</node>
	<node id="-42639" lat="59.6099749998" lon="5.55923333783">
		<tag k="alt_name" v="Gressvik" />
		<tag k="name" v="Grasvika" />
		<tag k="natural" v="bay" />
		<tag k="ssr:stedsnr" v="731384" />
	</node>
	<node id="-42638" lat="59.6085499978" lon="5.77662499891">
		<tag k="alt_name" v="Lundeneset" />
		<tag k="name" v="Lundaneset" />
		<tag k="natural" v="cape" />
		<tag k="ssr:stedsnr" v="731368" />
	</node>
	<node id="-42637" lat="59.6016638848" lon="5.55591667062">
		<tag k="alt_name" v="Klubben" />
		<tag k="name" v="Klubbane" />
		<tag k="natural" v="cape" />
		<tag k="ssr:stedsnr" v="731362" />
	</node>
	<node id="-42633" lat="59.6903361124" lon="5.7275749978">
		<tag k="bay" v="fjord" />
		<tag k="name" v="Melen" />
		<tag k="natural" v="bay" />
		<tag k="ssr:stedsnr" v="731038" />
	</node>
	<node id="-44654" lat="59.6038187832" lon="5.74861663643">
		<tag k="name" v="Bergsvika" />
		<tag k="natural" v="bay" />
		<tag k="ssr:stedsnr" v="975080" />
	</node>
	<node id="-44653" lat="59.5981552158" lon="5.7427943366">
		<tag k="name" v="Vågsnes" />
		<tag k="natural" v="cape" />
		<tag k="ssr:stedsnr" v="975077" />
	</node>
	<node id="-44652" lat="59.5990092903" lon="5.74599246392">
		<tag k="name" v="Kvassanes" />
		<tag k="natural" v="cape" />
		<tag k="ssr:stedsnr" v="975076" />
	</node>
	<node id="-42594" lat="59.5221083366" lon="5.81747222708">
		<tag k="name" v="Klubben" />
		<tag k="natural" v="cape" />
		<tag k="ssr:stedsnr" v="725841" />
	</node>
	<node id="-43963" lat="59.6680138922" lon="5.64519443571">
		<tag k="name" v="Bjørnsnes" />
		<tag k="natural" v="cape" />
		<tag k="ssr:stedsnr" v="650778" />
	</node>
	<node id="-44636" lat="59.6015093542" lon="5.7797357251">
		<tag k="name" v="Hiljesteinsvika" />
		<tag k="natural" v="bay" />
		<tag k="ssr:stedsnr" v="974971" />
	</node>
	<node id="-44635" lat="59.6112466015" lon="5.77942602274">
		<tag k="name" v="Nautaskjer" />
		<tag k="natural" v="cape" />
		<tag k="ssr:stedsnr" v="974966" />
	</node>
	<node id="-44634" lat="59.6141614188" lon="5.78336254437">
		<tag k="name" v="Rossasteinen" />
		<tag k="natural" v="cape" />
		<tag k="ssr:stedsnr" v="974965" />
	</node>
	<node id="-44630" lat="59.6089011311" lon="5.81649623462">
		<tag k="name" v="Holmen" />
		<tag k="place" v="islet" />
		<tag k="ssr:stedsnr" v="974920" />
	</node>
	<node id="-42571" lat="59.4815527762" lon="6.15850833678">
		<tag k="name" v="Hårborvika" />
		<tag k="natural" v="bay" />
		<tag k="ssr:stedsnr" v="722645" />
	</node>
	<node id="-42570" lat="59.4273027821" lon="5.74336110907">
		<tag k="name" v="Breiavika" />
		<tag k="natural" v="bay" />
		<tag k="ssr:stedsnr" v="720902" />
	</node>
	<node id="-42567" lat="59.5594603451" lon="5.56736726186">
		<tag k="fixme" v="multiple name tags, choose one and add the other to alt_name" />
		<tag k="name" v="Holtengårdsvika;Vika" />
		<tag k="natural" v="bay" />
		<tag k="ssr:stedsnr" v="610370" />
	</node>
	<node id="-42556" lat="59.5111222218" lon="5.86755554962">
		<tag k="name" v="Klubben" />
		<tag k="natural" v="cape" />
		<tag k="ssr:stedsnr" v="604205" />
	</node>
	<node id="-44587" lat="59.6211385983" lon="5.80025936465">
		<tag k="name" v="Kåtabøvika" />
		<tag k="natural" v="bay" />
		<tag k="ssr:stedsnr" v="974830" />
	</node>
	<node id="-42534" lat="59.4924027801" lon="5.61727500238">
		<tag k="name" v="Otereidet" />
		<tag k="place" v="locality" />
		<tag k="ssr:stedsnr" v="568653" />
	</node>
	<node id="-42529" lat="59.6830777816" lon="5.74928888886">
		<tag k="name" v="Sluttangen" />
		<tag k="natural" v="cape" />
		<tag k="ssr:stedsnr" v="549019" />
	</node>
	<node id="-42513" lat="59.4612055564" lon="5.53238055933">
		<tag k="name" v="Kvernavika" />
		<tag k="natural" v="bay" />
		<tag k="ssr:stedsnr" v="691788" />
	</node>
	<node id="-42512" lat="59.5111999959" lon="5.49421110931">
		<tag k="name" v="Hompen" />
		<tag k="natural" v="cape" />
		<tag k="ssr:stedsnr" v="690746" />
	</node>
	<node id="-42505" lat="59.4886055537" lon="5.63690556096">
		<tag k="name" v="Nålahaugen" />
		<tag k="natural" v="cape" />
		<tag k="ssr:stedsnr" v="690697" />
	</node>
	<node id="-42504" lat="59.5003222245" lon="5.62213332579">
		<tag k="name" v="Frøvikneset" />
		<tag k="natural" v="cape" />
		<tag k="ssr:stedsnr" v="690691" />
	</node>
	<node id="-42486" lat="59.6750555533" lon="5.7396749994">
		<tag k="name" v="Romsa" />
		<tag k="natural" v="bay" />
		<tag k="ssr:stedsnr" v="488033" />
	</node>
	<node id="-42484" lat="59.6704750008" lon="5.57470555179">
		<tag k="name" v="Buaneset" />
		<tag k="natural" v="cape" />
		<tag k="ssr:stedsnr" v="488007" />
	</node>
	<node id="-42483" lat="59.6659000015" lon="5.56771111036">
		<tag k="alt_name" v="Tonganes" />
		<tag k="name" v="Tonganeset" />
		<tag k="natural" v="cape" />
		<tag k="ssr:stedsnr" v="488005" />
	</node>
	<node id="-44512" lat="59.6414374735" lon="5.79209023351">
		<tag k="name" v="Hugnevika" />
		<tag k="natural" v="bay" />
		<tag k="ssr:stedsnr" v="973883" />
	</node>
	<node id="-44511" lat="59.6442722407" lon="5.7920333985">
		<tag k="name" v="Kampareholmen" />
		<tag k="place" v="islet" />
		<tag k="ssr:stedsnr" v="973882" />
	</node>
	<node id="-44509" lat="59.6421230309" lon="5.77628835478">
		<tag k="name" v="Torpaneset" />
		<tag k="natural" v="cape" />
		<tag k="ssr:stedsnr" v="973879" />
	</node>
	<node id="-44508" lat="59.6404601434" lon="5.77994910559">
		<tag k="name" v="Ølessund" />
		<tag k="natural" v="strait" />
		<tag k="ssr:stedsnr" v="973877" />
	</node>
	<node id="-44507" lat="59.6434601808" lon="5.77523400966">
		<tag k="name" v="Nathaugneset" />
		<tag k="natural" v="cape" />
		<tag k="ssr:stedsnr" v="973873" />
	</node>
	<node id="-42448" lat="59.467069446" lon="5.74038055857">
		<tag k="bay" v="fjord" />
		<tag k="name" v="Vatsfjorden" />
		<tag k="natural" v="bay" />
		<tag k="ssr:stedsnr" v="670756" />
	</node>
	<node id="-42434" lat="59.6819305552" lon="5.61553332531">
		<tag k="name" v="Donsvikneset" />
		<tag k="natural" v="cape" />
		<tag k="ssr:stedsnr" v="670071" />
	</node>
	<node id="-42433" lat="59.6795250026" lon="5.62072500385">
		<tag k="alt_name" v="Husøya" />
		<tag k="name" v="Husøy" />
		<tag k="place" v="island" />
		<tag k="ssr:stedsnr" v="670050" />
	</node>
	<node id="-42432" lat="59.6646805524" lon="5.69035556208">
		<tag k="alt_name" v="Solhaugvik" />
		<tag k="name" v="Solhaugvika" />
		<tag k="natural" v="bay" />
		<tag k="ssr:stedsnr" v="670028" />
	</node>
	<node id="-42419" lat="59.4761444427" lon="5.97330833959">
		<tag k="name" v="Lindvik" />
		<tag k="natural" v="bay" />
		<tag k="ssr:stedsnr" v="466569" />
	</node>
	<node id="-42418" lat="59.5122305522" lon="5.83300833263">
		<tag k="name" v="Skikelstrandgrunnen" />
		<tag k="natural" v="shoal" />
		<tag k="place" v="locality" />
		<tag k="ssr:stedsnr" v="466567" />
	</node>
	<node id="-42412" lat="59.4711166683" lon="5.61308888421">
		<tag k="name" v="Havnaholmen" />
		<tag k="place" v="islet" />
		<tag k="ssr:stedsnr" v="667053" />
	</node>
	<node id="-42399" lat="59.5171444422" lon="5.51522777901">
		<tag k="name" v="Dalavika" />
		<tag k="natural" v="bay" />
		<tag k="ssr:stedsnr" v="670261" />
	</node>
	<node id="-42372" lat="59.4708750029" lon="6.02797499966">
		<tag k="name" v="Herøytåa" />
		<tag k="natural" v="cape" />
		<tag k="ssr:stedsnr" v="663449" />
	</node>
	<node id="-42353" lat="59.4811749998" lon="6.16057221971">
		<tag k="name" v="Rauneholmen" />
		<tag k="place" v="islet" />
		<tag k="ssr:stedsnr" v="661600" />
	</node>
	<node id="-42352" lat="59.4849916686" lon="6.17834166887">
		<tag k="name" v="Barlundvika" />
		<tag k="natural" v="bay" />
		<tag k="ssr:stedsnr" v="661432" />
	</node>
	<node id="-42346" lat="59.4150222224" lon="5.72169166371">
		<tag k="name" v="Habnaneset" />
		<tag k="natural" v="cape" />
		<tag k="ssr:stedsnr" v="659791" />
	</node>
	<node id="-44391" lat="59.6644060733" lon="5.75471837113">
		<tag k="name" v="Todløysundet" />
		<tag k="natural" v="strait" />
		<tag k="ssr:stedsnr" v="973193" />
	</node>
	<node id="-44389" lat="59.6661196549" lon="5.74846807455">
		<tag k="name" v="Kjøkenvik" />
		<tag k="natural" v="bay" />
		<tag k="ssr:stedsnr" v="973174" />
	</node>
	<node id="-44388" lat="59.6714092141" lon="5.75501206248">
		<tag k="name" v="Furuneset" />
		<tag k="natural" v="cape" />
		<tag k="ssr:stedsnr" v="973173" />
	</node>
	<node id="-42339" lat="59.5201222193" lon="5.50273055357">
		<tag k="alt_name" v="Ålvikfjorden;Ålfjord" />
		<tag k="bay" v="fjord" />
		<tag k="name" v="Ålfjorden" />
		<tag k="natural" v="bay" />
		<tag k="ssr:stedsnr" v="428005" />
	</node>
	<node id="-44386" lat="59.668518226" lon="5.74854016286">
		<tag k="name" v="Hestenes" />
		<tag k="natural" v="cape" />
		<tag k="ssr:stedsnr" v="973171" />
	</node>
	<node id="-44383" lat="59.6720023078" lon="5.7354593746">
		<tag k="name" v="Herøyvadet" />
		<tag k="natural" v="bay" />
		<tag k="ssr:stedsnr" v="973167" />
	</node>
	<node id="-44382" lat="59.6748791234" lon="5.73961356159">
		<tag k="name" v="Naustvika" />
		<tag k="natural" v="bay" />
		<tag k="ssr:stedsnr" v="973166" />
	</node>
	<node id="-44381" lat="59.6767850321" lon="5.74782327242">
		<tag k="name" v="Kjerringvik" />
		<tag k="natural" v="bay" />
		<tag k="ssr:stedsnr" v="973165" />
	</node>
	<node id="-44379" lat="59.679067663" lon="5.73657920412">
		<tag k="name" v="Brattestøvågen" />
		<tag k="natural" v="bay" />
		<tag k="ssr:stedsnr" v="973160" />
	</node>
	<node id="-44377" lat="59.675832835" lon="5.73182719389">
		<tag k="name" v="Kråkevik" />
		<tag k="natural" v="bay" />
		<tag k="ssr:stedsnr" v="973128" />
	</node>
	<node id="-44376" lat="59.6823573088" lon="5.75083883099">
		<tag k="name" v="Kråkevikneset" />
		<tag k="natural" v="cape" />
		<tag k="ssr:stedsnr" v="973080" />
	</node>
	<node id="-44375" lat="59.6831580272" lon="5.74543689699">
		<tag k="name" v="Hamnaholmane" />
		<tag k="place" v="islet" />
		<tag k="ssr:stedsnr" v="973079" />
	</node>
	<node id="-44373" lat="59.681688542" lon="5.72705828002">
		<tag k="name" v="Store Romsa" />
		<tag k="place" v="island" />
		<tag k="ssr:stedsnr" v="973074" />
	</node>
	<node id="-44372" lat="59.6818077523" lon="5.74082048039">
		<tag k="name" v="Kobbanes" />
		<tag k="natural" v="cape" />
		<tag k="ssr:stedsnr" v="973077" />
	</node>
	<node id="-44371" lat="59.6826828105" lon="5.72464138722">
		<tag k="name" v="Jektavik" />
		<tag k="natural" v="bay" />
		<tag k="ssr:stedsnr" v="973073" />
	</node>
	<node id="-44368" lat="59.664521797" lon="5.69312320694">
		<tag k="name" v="Lauvvik" />
		<tag k="natural" v="bay" />
		<tag k="ssr:stedsnr" v="973061" />
	</node>
	<node id="-44367" lat="59.6652524137" lon="5.68889365216">
		<tag k="name" v="Svinevik" />
		<tag k="natural" v="bay" />
		<tag k="ssr:stedsnr" v="973055" />
	</node>
	<node id="-44365" lat="59.6679072968" lon="5.6751762829">
		<tag k="name" v="Skjelevik" />
		<tag k="natural" v="bay" />
		<tag k="ssr:stedsnr" v="973048" />
	</node>
	<node id="-42313" lat="59.572934821" lon="5.56531170534">
		<tag k="alt_name" v="Smettarholmen" />
		<tag k="name" v="Smittarholmen" />
		<tag k="place" v="islet" />
		<tag k="ssr:stedsnr" v="510450" />
	</node>
	<node id="-42309" lat="59.6684638925" lon="5.76430277717">
		<tag k="name" v="Sveflua" />
		<tag k="place" v="locality" />
		<tag k="seamark:type" v="rock" />
		<tag k="ssr:stedsnr" v="408808" />
	</node>
	<node id="-44353" lat="59.664892458" lon="5.66393468017">
		<tag k="fixme" v="consider seamark:type=rock or natural=shoal" />
		<tag k="name" v="Harpeskjer" />
		<tag k="place" v="islet" />
		<tag k="ssr:stedsnr" v="973025" />
	</node>
	<node id="-44352" lat="59.6661086598" lon="5.66104626613">
		<tag k="name" v="Vågsholmen" />
		<tag k="place" v="islet" />
		<tag k="ssr:stedsnr" v="973023" />
	</node>
	<node id="-42303" lat="59.4908638884" lon="5.62614166072">
		<tag k="name" v="Skinnbakken" />
		<tag k="natural" v="bay" />
		<tag k="ssr:stedsnr" v="508674" />
	</node>
	<node id="-42298" lat="59.4748426297" lon="6.0536344973">
		<tag k="name" v="Revøysundet" />
		<tag k="natural" v="strait" />
		<tag k="ssr:stedsnr" v="405572" />
	</node>
	<node id="-42297" lat="59.4746222243" lon="6.06054722033">
		<tag k="name" v="Frostholmen" />
		<tag k="natural" v="cape" />
		<tag k="ssr:stedsnr" v="405570" />
	</node>
	<node id="-44340" lat="59.6740298007" lon="5.62557802178">
		<tag k="name" v="Indre Lasvik" />
		<tag k="natural" v="bay" />
		<tag k="ssr:stedsnr" v="972946" />
	</node>
	<node id="-44339" lat="59.6753640088" lon="5.62386903761">
		<tag k="name" v="Ytre Lasvik" />
		<tag k="natural" v="bay" />
		<tag k="ssr:stedsnr" v="972943" />
	</node>
	<node id="-44338" lat="59.6785795417" lon="5.62033388955">
		<tag k="name" v="Husøyvik" />
		<tag k="natural" v="bay" />
		<tag k="ssr:stedsnr" v="972942" />
	</node>
	<node id="-42288" lat="59.4735194407" lon="5.73274722999">
		<tag k="name" v="Ørnes" />
		<tag k="natural" v="cape" />
		<tag k="ssr:stedsnr" v="389511" />
	</node>
	<node id="-42286" lat="59.5114916643" lon="5.4671361157">
		<tag k="name" v="Krossvika" />
		<tag k="natural" v="bay" />
		<tag k="ssr:stedsnr" v="387672" />
	</node>
	<node id="-44252" lat="59.4764138925" lon="5.99045277751">
		<tag k="name" v="Imslandvika" />
		<tag k="natural" v="bay" />
		<tag k="ssr:stedsnr" v="951580" />
	</node>
	<node id="-42275" lat="59.5433999972" lon="5.86261111101">
		<tag k="loc_name" v="Tangen" />
		<tag k="name" v="Tongjen" />
		<tag k="natural" v="cape" />
		<tag k="ssr:stedsnr" v="361818" />
	</node>
	<node id="-44308" lat="59.6656931734" lon="5.56567506507">
		<tag k="name" v="Fjellavik" />
		<tag k="natural" v="bay" />
		<tag k="ssr:stedsnr" v="972624" />
	</node>
	<node id="-44306" lat="59.6711240079" lon="5.57537781035">
		<tag k="name" v="Grunnaviksneset" />
		<tag k="natural" v="cape" />
		<tag k="ssr:stedsnr" v="972620" />
	</node>
	<node id="-42252" lat="59.6972499998" lon="5.63490000739">
		<tag k="bay" v="fjord" />
		<tag k="name" v="Bjoafjorden" />
		<tag k="natural" v="bay" />
		<tag k="ssr:stedsnr" v="489049" />
	</node>
	<node id="-44290" lat="59.5422666666" lon="5.85057500458">
		<tag k="name" v="Vestbøholmen" />
		<tag k="place" v="islet" />
		<tag k="ssr:stedsnr" v="968839" />
	</node>
	<node id="-42239" lat="59.4917722184" lon="5.61652221388">
		<tag k="alt_name" v="Goavika" />
		<tag k="name" v="Godavika" />
		<tag k="natural" v="bay" />
		<tag k="ssr:stedsnr" v="488837" />
	</node>
	<node id="-42236" lat="59.4592888872" lon="5.75445278644">
		<tag k="name" v="Vaskevika" />
		<tag k="natural" v="bay" />
		<tag k="ssr:stedsnr" v="488771" />
	</node>
	<node id="-42234" lat="59.5049833351" lon="5.61394445066">
		<tag k="name" v="Beitaneset" />
		<tag k="natural" v="cape" />
		<tag k="ssr:stedsnr" v="488624" />
	</node>
	<node id="-43903" lat="59.4514527765" lon="5.81661667218">
		<tag k="name" v="Digranes" />
		<tag k="natural" v="cape" />
		<tag k="ssr:stedsnr" v="608800" />
	</node>
	<node id="-42218" lat="59.606002778" lon="5.55341667043">
		<tag k="alt_name" v="Korsnes;Krossneset" />
		<tag k="name" v="Korsneset" />
		<tag k="natural" v="cape" />
		<tag k="ssr:stedsnr" v="488394" />
	</node>
	<node id="-44262" lat="59.4801416661" lon="6.15640277211">
		<tag k="name" v="Raskarvika" />
		<tag k="natural" v="bay" />
		<tag k="ssr:stedsnr" v="964602" />
	</node>
	<node id="-42209" lat="59.5418999961" lon="5.55002500901">
		<tag k="name" v="Trovågen" />
		<tag k="natural" v="bay" />
		<tag k="ssr:stedsnr" v="488270" />
	</node>
	<node id="-44256" lat="59.6027333338" lon="5.78571666152">
		<tag k="name" v="Hutlingetong" />
		<tag k="natural" v="beach" />
		<tag k="place" v="locality" />
		<tag k="ssr:stedsnr" v="954978" />
	</node>
	<node id="-44255" lat="59.679155554" lon="5.7550944457">
		<tag k="name" v="Søringsdalsflua" />
		<tag k="place" v="locality" />
		<tag k="seamark:type" v="rock" />
		<tag k="ssr:stedsnr" v="954800" />
	</node>
	<node id="-44254" lat="59.6670277799" lon="5.65584444605">
		<tag k="name" v="Klubben" />
		<tag k="natural" v="cape" />
		<tag k="ssr:stedsnr" v="954792" />
	</node>
	<node id="-42204" lat="59.6768916641" lon="5.62057499433">
		<tag k="name" v="Saltnes" />
		<tag k="natural" v="cape" />
		<tag k="ssr:stedsnr" v="488052" />
	</node>
	<node id="-44251" lat="59.4787583371" lon="6.13348888073">
		<tag k="name" v="Våganeset" />
		<tag k="natural" v="cape" />
		<tag k="ssr:stedsnr" v="951574" />
	</node>
	<node id="-44239" lat="59.4996222246" lon="5.59508888218">
		<tag k="name" v="Likvika" />
		<tag k="natural" v="bay" />
		<tag k="ssr:stedsnr" v="872709" />
	</node>
	<node id="-44245" lat="59.4698722193" lon="5.61430832657">
		<tag k="name" v="Kakeneset" />
		<tag k="natural" v="cape" />
		<tag k="ssr:stedsnr" v="873797" />
	</node>
	<node id="-42195" lat="59.4759027786" lon="5.89945000073">
		<tag k="name" v="Vindholmen" />
		<tag k="place" v="islet" />
		<tag k="ssr:stedsnr" v="487299" />
	</node>
	<node id="-42194" lat="59.475691669" lon="6.09544166833">
		<tag k="name" v="Frøvikneset" />
		<tag k="natural" v="cape" />
		<tag k="ssr:stedsnr" v="344566" />
	</node>
	<node id="-42191" lat="59.4995249995" lon="5.87106945314">
		<tag k="name" v="Oppsalsholmen" />
		<tag k="place" v="islet" />
		<tag k="ssr:stedsnr" v="487270" />
	</node>
	<node id="-42190" lat="59.4930000009" lon="5.89162499955">
		<tag k="name" v="Osavika" />
		<tag k="natural" v="bay" />
		<tag k="ssr:stedsnr" v="487268" />
	</node>
	<node id="-44234" lat="59.5012055535" lon="5.62436389455">
		<tag k="name" v="Hunnsvik" />
		<tag k="natural" v="bay" />
		<tag k="ssr:stedsnr" v="872675" />
	</node>
	<node id="-41847" lat="59.5297111151" lon="5.52155278469">
		<tag k="alt_name" v="Århammarneset" />
		<tag k="name" v="Arhamarneset" />
		<tag k="natural" v="cape" />
		<tag k="ssr:stedsnr" v="226885" />
	</node>
	<node id="-44227" lat="59.5231750035" lon="5.83913611451">
		<tag k="alt_name" v="Ilsnes" />
		<tag k="name" v="Ilsneset" />
		<tag k="natural" v="cape" />
		<tag k="ssr:stedsnr" v="853613" />
	</node>
	<node id="-44211" lat="59.6666888857" lon="5.68198611367">
		<tag k="alt_name" v="Grunnevåg" />
		<tag k="name" v="Grunnevågen" />
		<tag k="natural" v="bay" />
		<tag k="ssr:stedsnr" v="853030" />
	</node>
	<node id="-44205" lat="59.4430537263" lon="5.51906081927">
		<tag k="alt_name" v="Kvitholmane" />
		<tag k="name" v="Kvitholmen" />
		<tag k="place" v="islet" />
		<tag k="ssr:stedsnr" v="852745" />
	</node>
	<node id="-44201" lat="59.4632416701" lon="5.6167666701">
		<tag k="name" v="Båtavika" />
		<tag k="natural" v="bay" />
		<tag k="ssr:stedsnr" v="852791" />
	</node>
	<node id="-44197" lat="59.4504805571" lon="5.52855554801">
		<tag k="alt_name" v="Fosterneset" />
		<tag k="name" v="Fosternes" />
		<tag k="natural" v="cape" />
		<tag k="ssr:stedsnr" v="852769" />
	</node>
	<node id="-42147" lat="59.5047000014" lon="5.46550554823">
		<tag k="name" v="Geitesvik" />
		<tag k="natural" v="bay" />
		<tag k="ssr:stedsnr" v="329703" />
	</node>
	<node id="-42145" lat="59.4558694417" lon="5.82977777495">
		<tag k="name" v="Hettekrona" />
		<tag k="natural" v="bay" />
		<tag k="ssr:stedsnr" v="478943" />
	</node>
	<node id="-44192" lat="59.4412527744" lon="5.76435000455">
		<tag k="name" v="Kaldrak" />
		<tag k="natural" v="cape" />
		<tag k="ssr:stedsnr" v="852033" />
	</node>
	<node id="-44191" lat="59.4120055583" lon="5.71533610691">
		<tag k="alt_name" v="Yrkjefjorden;Yrkjesfjorden" />
		<tag k="bay" v="fjord" />
		<tag k="name" v="Yrkefjorden" />
		<tag k="natural" v="bay" />
		<tag k="ssr:stedsnr" v="852029" />
	</node>
	<node id="-42133" lat="59.4856750026" lon="6.16595000487">
		<tag k="name" v="Vika" />
		<tag k="natural" v="bay" />
		<tag k="ssr:stedsnr" v="306308" />
	</node>
	<node id="-42132" lat="59.6588250002" lon="5.75138889265">
		<tag k="name" v="Brattholmen" />
		<tag k="place" v="islet" />
		<tag k="ssr:stedsnr" v="306453" />
	</node>
	<node id="-42123" lat="59.4655333378" lon="5.61538889549">
		<tag k="name" v="Giskavika" />
		<tag k="natural" v="bay" />
		<tag k="ssr:stedsnr" v="305827" />
	</node>
	<node id="-42121" lat="59.4498638904" lon="5.80792500391">
		<tag k="name" v="Storaneset" />
		<tag k="natural" v="cape" />
		<tag k="ssr:stedsnr" v="301911" />
	</node>
	<node id="-44154" lat="59.4753805531" lon="5.9241527808">
		<tag k="name" v="Saganeset" />
		<tag k="natural" v="cape" />
		<tag k="ssr:stedsnr" v="845269" />
	</node>
	<node id="-42104" lat="59.6593027794" lon="5.71959444281">
		<tag k="name" v="Hatlevik" />
		<tag k="natural" v="bay" />
		<tag k="ssr:stedsnr" v="468799" />
	</node>
	<node id="-42103" lat="59.460630554" lon="5.7535527848">
		<tag k="alt_name" v="Træskjer" />
		<tag k="fixme" v="consider seamark:type=rock or natural=shoal" />
		<tag k="name" v="Trædsskjeret" />
		<tag k="place" v="islet" />
		<tag k="ssr:stedsnr" v="466979" />
	</node>
	<node id="-42102" lat="59.4581722197" lon="5.75447777504">
		<tag k="name" v="Snipe" />
		<tag k="natural" v="cape" />
		<tag k="ssr:stedsnr" v="466544" />
	</node>
	<node id="-44142" lat="59.4748500024" lon="5.94098054991">
		<tag k="name" v="Grunnanes" />
		<tag k="natural" v="cape" />
		<tag k="ssr:stedsnr" v="845375" />
	</node>
	<node id="-44140" lat="59.4440472239" lon="5.78761389686">
		<tag k="name" v="Juvika" />
		<tag k="natural" v="bay" />
		<tag k="ssr:stedsnr" v="842886" />
	</node>
	<node id="-42087" lat="59.5544305537" lon="5.55112222589">
		<tag k="fixme" v="consider seamark:type=rock or natural=shoal" />
		<tag k="name" v="Skarvaskjeret" />
		<tag k="place" v="islet" />
		<tag k="ssr:stedsnr" v="450836" />
	</node>
	<node id="-42083" lat="59.4898083342" lon="5.63229722386">
		<tag k="alt_name" v="Longalandsholmen" />
		<tag k="name" v="Langalandsholmen" />
		<tag k="place" v="islet" />
		<tag k="ssr:stedsnr" v="448695" />
	</node>
	<node id="-44130" lat="59.434433334" lon="5.76368611451">
		<tag k="name" v="Lygaren" />
		<tag k="natural" v="shoal" />
		<tag k="place" v="locality" />
		<tag k="ssr:stedsnr" v="830970" />
	</node>
	<node id="-42081" lat="59.5133194482" lon="5.49384445175">
		<tag k="alt_name" v="Nautatongjen" />
		<tag k="name" v="Nautatangen" />
		<tag k="natural" v="cape" />
		<tag k="ssr:stedsnr" v="448729" />
	</node>
	<node id="-42080" lat="59.4961833364" lon="5.57042777363">
		<tag k="name" v="Båtavika" />
		<tag k="natural" v="bay" />
		<tag k="ssr:stedsnr" v="448723" />
	</node>
	<node id="-44123" lat="59.4749027749" lon="5.74096666502">
		<tag k="name" v="Strand" />
		<tag k="natural" v="beach" />
		<tag k="place" v="locality" />
		<tag k="ssr:stedsnr" v="814521" />
	</node>
	<node id="-44120" lat="59.6452027737" lon="5.55575555962">
		<tag k="name" v="Hopen" />
		<tag k="natural" v="bay" />
		<tag k="ssr:stedsnr" v="814504" />
	</node>
	<node id="-42070" lat="59.4375638862" lon="5.773877784">
		<tag k="alt_name" v="Jupevik" />
		<tag k="name" v="Djupevika" />
		<tag k="natural" v="bay" />
		<tag k="ssr:stedsnr" v="245025" />
	</node>
	<node id="-44117" lat="59.5296805545" lon="5.51430276964">
		<tag k="name" v="Sønningjå" />
		<tag k="natural" v="strait" />
		<tag k="ssr:stedsnr" v="812716" />
	</node>
	<node id="-42068" lat="59.4342277804" lon="5.75175556286">
		<tag k="name" v="Mula" />
		<tag k="natural" v="cape" />
		<tag k="ssr:stedsnr" v="245021" />
	</node>
	<node id="-42066" lat="59.5671672117" lon="5.56632609706">
		<tag k="name" v="Buholmtåa" />
		<tag k="natural" v="cape" />
		<tag k="ssr:stedsnr" v="241957" />
	</node>
	<node id="-44108" lat="59.5006388922" lon="5.59354722285">
		<tag k="name" v="Vikaneset" />
		<tag k="natural" v="cape" />
		<tag k="ssr:stedsnr" v="793087" />
	</node>
	<node id="-42053" lat="59.4747277776" lon="6.08687222092">
		<tag k="name" v="Vikaneset" />
		<tag k="natural" v="cape" />
		<tag k="ssr:stedsnr" v="223574" />
	</node>
	<node id="-42037" lat="59.5203833369" lon="5.81275277148">
		<tag k="name" v="Vilandsberget" />
		<tag k="natural" v="cape" />
		<tag k="ssr:stedsnr" v="179856" />
	</node>
	<node id="-44083" lat="59.5623499979" lon="5.5669166688">
		<tag k="alt_name" v="Haldorsneset" />
		<tag k="name" v="Haldorneset" />
		<tag k="natural" v="cape" />
		<tag k="ssr:stedsnr" v="792320" />
	</node>
	<node id="-44076" lat="59.6559083351" lon="5.56083054882">
		<tag k="alt_name" v="Rutlesvik;Rulllesvik" />
		<tag k="name" v="Rullesvika" />
		<tag k="natural" v="bay" />
		<tag k="ssr:stedsnr" v="792034" />
	</node>
	<node id="-44071" lat="59.5173777797" lon="5.51023611747">
		<tag k="name" v="Haganeset" />
		<tag k="natural" v="cape" />
		<tag k="ssr:stedsnr" v="792264" />
	</node>
	<node id="-44065" lat="59.5452916628" lon="5.55936111343">
		<tag k="alt_name" v="Svendsbøvågen" />
		<tag k="name" v="Svensbøvågen" />
		<tag k="natural" v="bay" />
		<tag k="ssr:stedsnr" v="791307" />
	</node>
	<node id="-44064" lat="59.5513500043" lon="5.55063333604">
		<tag k="name" v="Litleøya" />
		<tag k="place" v="islet" />
		<tag k="ssr:stedsnr" v="791305" />
	</node>
	<node id="-44059" lat="59.4955500019" lon="5.88105000151">
		<tag k="name" v="Oppsalsneset" />
		<tag k="natural" v="cape" />
		<tag k="ssr:stedsnr" v="791265" />
	</node>
	<node id="-44058" lat="59.6843000014" lon="5.59409166066">
		<tag k="alt_name" v="Svallandsnes" />
		<tag k="name" v="Svollandsneset" />
		<tag k="natural" v="cape" />
		<tag k="ssr:stedsnr" v="791067" />
	</node>
	<node id="-44057" lat="59.422413892" lon="5.73356110823">
		<tag k="alt_name" v="Asbjørnteigneset" />
		<tag k="name" v="Asbjørgteigneset" />
		<tag k="natural" v="cape" />
		<tag k="ssr:stedsnr" v="791064" />
	</node>
	<node id="-42004" lat="59.4923944415" lon="5.62619721416">
		<tag k="name" v="Dyrnes" />
		<tag k="natural" v="cape" />
		<tag k="ssr:stedsnr" v="265695" />
	</node>
	<node id="-42001" lat="59.5358833297" lon="5.54223888843">
		<tag k="name" v="Litløyna" />
		<tag k="place" v="islet" />
		<tag k="ssr:stedsnr" v="265660" />
	</node>
	<node id="-41999" lat="59.5481472233" lon="5.55180000862">
		<tag k="alt_name" v="Tongaflæ" />
		<tag k="name" v="Tangaflæ" />
		<tag k="natural" v="strait" />
		<tag k="ssr:stedsnr" v="124263" />
	</node>
	<node id="-41998" lat="59.464024998" lon="5.85369999861">
		<tag k="name" v="Fløkje" />
		<tag k="natural" v="cape" />
		<tag k="ssr:stedsnr" v="124262" />
	</node>
	<node id="-41997" lat="59.4830500038" lon="6.16355000196">
		<tag k="alt_name" v="Storøy" />
		<tag k="name" v="Storøyna" />
		<tag k="place" v="islet" />
		<tag k="ssr:stedsnr" v="124252" />
	</node>
	<node id="-44044" lat="59.4550777744" lon="5.73705277903">
		<tag k="name" v="Skjenaneset" />
		<tag k="natural" v="cape" />
		<tag k="ssr:stedsnr" v="786940" />
	</node>
	<node id="-41994" lat="59.6064842621" lon="5.76857007986">
		<tag k="alt_name" v="Jektevika;Indra Lundavik;Indra Lundavika" />
		<tag k="name" v="Jektavika" />
		<tag k="natural" v="bay" />
		<tag k="ssr:stedsnr" v="124336" />
	</node>
	<node id="-41971" lat="59.4717861138" lon="5.74213334067">
		<tag k="name" v="Kvigenesgrunnen" />
		<tag k="natural" v="shoal" />
		<tag k="place" v="locality" />
		<tag k="ssr:stedsnr" v="86506" />
	</node>
	<node id="-41966" lat="59.5755861082" lon="5.56295000739">
		<tag k="alt_name" v="Osnes" />
		<tag k="name" v="Osneset" />
		<tag k="natural" v="cape" />
		<tag k="ssr:stedsnr" v="247073" />
	</node>
	<node id="-43994" lat="59.6013423789" lon="5.76241711529">
		<tag k="name" v="Myraflua" />
		<tag k="natural" v="shoal" />
		<tag k="place" v="locality" />
		<tag k="ssr:stedsnr" v="782308" />
	</node>
	<node id="-43992" lat="59.4545916635" lon="5.87593333418">
		<tag k="bay" v="fjord" />
		<tag k="name" v="Krossfjorden" />
		<tag k="natural" v="bay" />
		<tag k="ssr:stedsnr" v="781805" />
	</node>
	<node id="-41943" lat="59.5242638867" lon="5.5188805494">
		<tag k="name" v="Sønningvika" />
		<tag k="natural" v="bay" />
		<tag k="ssr:stedsnr" v="246267" />
	</node>
	<node id="-41942" lat="59.6708749989" lon="5.73311110888">
		<tag k="alt_name" v="Herøy" />
		<tag k="name" v="Herøya" />
		<tag k="natural" v="cape" />
		<tag k="ssr:stedsnr" v="246040" />
	</node>
	<node id="-41941" lat="59.6683083308" lon="5.67997777531">
		<tag k="alt_name" v="Indra Rossaneset" />
		<tag k="name" v="Rossanes" />
		<tag k="natural" v="cape" />
		<tag k="ssr:stedsnr" v="246039" />
	</node>
	<node id="-43984" lat="59.4691555577" lon="6.03693888848">
		<tag k="fixme" v="consider seamark:type=rock or natural=shoal" />
		<tag k="name" v="Herøyskjeret" />
		<tag k="place" v="islet" />
		<tag k="ssr:stedsnr" v="769551" />
	</node>
	<node id="-43983" lat="59.4671055544" lon="5.89492499693">
		<tag k="name" v="Sørflua" />
		<tag k="natural" v="shoal" />
		<tag k="place" v="locality" />
		<tag k="ssr:stedsnr" v="769537" />
	</node>
	<node id="-41934" lat="59.4744888884" lon="5.90989443588">
		<tag k="alt_name" v="Hedleneset" />
		<tag k="name" v="Helleneset" />
		<tag k="natural" v="cape" />
		<tag k="ssr:stedsnr" v="245284" />
	</node>
	<node id="-43975" lat="59.4643916681" lon="5.73790277725">
		<tag k="loc_name" v="Heigraneset" />
		<tag k="name" v="Higreneset" />
		<tag k="natural" v="cape" />
		<tag k="ssr:stedsnr" v="753421" />
	</node>
	<node id="-41924" lat="59.6228749969" lon="5.55527499721">
		<tag k="alt_name" v="Smedvik" />
		<tag k="name" v="Smedvika" />
		<tag k="natural" v="bay" />
		<tag k="ssr:stedsnr" v="64419" />
	</node>
	<node id="-41915" lat="59.6697250028" lon="5.5752444518">
		<tag k="name" v="Galeasvika" />
		<tag k="natural" v="bay" />
		<tag k="ssr:stedsnr" v="64010" />
	</node>
	<node id="-43962" lat="59.5021138898" lon="5.86658889022">
		<tag k="name" v="Kalvaskinngrunnen" />
		<tag k="natural" v="shoal" />
		<tag k="place" v="locality" />
		<tag k="ssr:stedsnr" v="647545" />
	</node>
	<node id="-43961" lat="59.4781611134" lon="5.89350277265">
		<tag k="name" v="Brenneset" />
		<tag k="natural" v="cape" />
		<tag k="ssr:stedsnr" v="647541" />
	</node>
	<node id="-43957" lat="59.567383334" lon="5.56720834112">
		<tag k="loc_name" v="Nordra Buholmvika" />
		<tag k="name" v="Nordra Buholmvik" />
		<tag k="natural" v="bay" />
		<tag k="ssr:stedsnr" v="631430" />
	</node>
	<node id="-43946" lat="59.6118916622" lon="5.56036944474">
		<tag k="name" v="Støavika" />
		<tag k="natural" v="bay" />
		<tag k="ssr:stedsnr" v="610443" />
	</node>
	<node id="-43944" lat="59.5027333349" lon="5.58877499814">
		<tag k="name" v="Skjoldavika" />
		<tag k="natural" v="bay" />
		<tag k="ssr:stedsnr" v="610108" />
	</node>
	<node id="-43943" lat="59.5119361078" lon="5.47083888845">
		<tag k="name" v="Bekkjarvika" />
		<tag k="natural" v="bay" />
		<tag k="ssr:stedsnr" v="610103" />
	</node>
	<node id="-41894" lat="59.5257638862" lon="5.8277388969">
		<tag k="fixme" v="consider seamark:type=rock or natural=shoal" />
		<tag k="name" v="Kobbaskjer" />
		<tag k="place" v="islet" />
		<tag k="ssr:stedsnr" v="240265" />
	</node>
	<node id="-41884" lat="59.4754027777" lon="6.04898332598">
		<tag k="name" v="Revøyna" />
		<tag k="place" v="islet" />
		<tag k="ssr:stedsnr" v="238496" />
	</node>
	<node id="-43928" lat="59.5358361124" lon="5.53201110914">
		<tag k="name" v="Toranesvika" />
		<tag k="natural" v="bay" />
		<tag k="ssr:stedsnr" v="609297" />
	</node>
	<node id="-43927" lat="59.5373166669" lon="5.5345416636">
		<tag k="alt_name" v="Toraneset;Tøraneset" />
		<tag k="name" v="Toranes" />
		<tag k="natural" v="cape" />
		<tag k="ssr:stedsnr" v="609296" />
	</node>
	<node id="-43926" lat="59.5403805568" lon="5.53300832937">
		<tag k="name" v="Nappholmen" />
		<tag k="place" v="islet" />
		<tag k="ssr:stedsnr" v="609291" />
	</node>
	<node id="-41874" lat="59.5023611092" lon="5.87126666957">
		<tag k="name" v="Kalvaskinnberget" />
		<tag k="natural" v="cape" />
		<tag k="ssr:stedsnr" v="238211" />
	</node>
	<node id="-43916" lat="59.5267472188" lon="5.84162221794">
		<tag k="name" v="Tømmervika" />
		<tag k="natural" v="bay" />
		<tag k="ssr:stedsnr" v="609245" />
	</node>
	<node id="-41857" lat="59.4850972214" lon="6.16035000445">
		<tag k="name" v="Fløytestongholmen" />
		<tag k="place" v="islet" />
		<tag k="ssr:stedsnr" v="236589" />
	</node>
	<node id="-41855" lat="59.4425916697" lon="5.75023611328">
		<tag k="name" v="Nodaberget" />
		<tag k="natural" v="cape" />
		<tag k="ssr:stedsnr" v="235924" />
	</node>
	<node id="-41854" lat="59.4433999973" lon="5.78696944747">
		<tag k="alt_name" v="Juvneset" />
		<tag k="name" v="Gjuvaneset" />
		<tag k="natural" v="cape" />
		<tag k="ssr:stedsnr" v="235895" />
	</node>
	<node id="-43900" lat="59.4354333356" lon="5.76413055158">
		<tag k="fixme" v="consider seamark:type=rock or natural=shoal" />
		<tag k="name" v="Flataskjer" />
		<tag k="place" v="islet" />
		<tag k="ssr:stedsnr" v="608024" />
	</node>
	<node id="-43895" lat="59.4460444401" lon="5.52158054985">
		<tag k="name" v="Blåbærhamn" />
		<tag k="natural" v="bay" />
		<tag k="ssr:stedsnr" v="606087" />
	</node>
	<node id="-41846" lat="59.6804027759" lon="5.74553889629">
		<tag k="name" v="Gamlehamn" />
		<tag k="natural" v="bay" />
		<tag k="ssr:stedsnr" v="226828" />
	</node>
	<node id="-41845" lat="59.6681555592" lon="5.66656943962">
		<tag k="name" v="Ytra Rossaneset" />
		<tag k="natural" v="cape" />
		<tag k="ssr:stedsnr" v="226823" />
	</node>
	<node id="-43890" lat="59.5373111143" lon="5.70023611897">
		<tag k="name" v="Storeklubben" />
		<tag k="natural" v="cape" />
		<tag k="ssr:stedsnr" v="604696" />
	</node>
	<node id="-43876" lat="59.5163805571" lon="5.82108888417">
		<tag k="name" v="Spansteberget" />
		<tag k="natural" v="beach" />
		<tag k="place" v="locality" />
		<tag k="ssr:stedsnr" v="603839" />
	</node>
	<node id="-43861" lat="59.4902611154" lon="5.99121665931">
		<tag k="name" v="Haganeset" />
		<tag k="natural" v="cape" />
		<tag k="ssr:stedsnr" v="602321" />
	</node>
	<node id="-43848" lat="59.675296266" lon="5.68012957619">
		<tag k="name" v="Storflua" />
		<tag k="natural" v="shoal" />
		<tag k="place" v="locality" />
		<tag k="ssr:stedsnr" v="589809" />
	</node>
	<node id="-43841" lat="59.5238027736" lon="5.51705000613">
		<tag k="name" v="Sønningneset" />
		<tag k="natural" v="cape" />
		<tag k="ssr:stedsnr" v="569787" />
	</node>
	<node id="-42464" lat="59.6244305532" lon="5.78911389371">
		<tag k="alt_name" v="Ulveneset" />
		<tag k="name" v="Ulvaneset" />
		<tag k="natural" v="cape" />
		<tag k="ssr:stedsnr" v="671426" />
	</node>
	<node id="-43825" lat="59.5180267763" lon="5.81105901129">
		<tag k="name" v="Ilsvåg" />
		<tag k="natural" v="bay" />
		<tag k="ssr:stedsnr" v="549608" />
	</node>
	<node id="-43805" lat="59.7210888864" lon="5.59506389161">
		<tag k="alt_name" v="Ilholmen, nordre;Ilholmane" />
		<tag k="name" v="Nordre Ilholmen" />
		<tag k="place" v="islet" />
		<tag k="ssr:stedsnr" v="549126" />
	</node>
	<node id="-43803" lat="59.673791669" lon="5.62548888436">
		<tag k="name" v="Lasvikane" />
		<tag k="natural" v="bay" />
		<tag k="ssr:stedsnr" v="549064" />
	</node>
	<node id="-43799" lat="59.4873055554" lon="5.63121388465">
		<tag k="alt_name" v="Longalandsvika" />
		<tag k="name" v="Langalandsvika" />
		<tag k="natural" v="bay" />
		<tag k="ssr:stedsnr" v="548839" />
	</node>
	<node id="-43787" lat="59.4602305587" lon="5.73860000349">
		<tag k="name" v="Eikanes" />
		<tag k="natural" v="cape" />
		<tag k="ssr:stedsnr" v="548756" />
	</node>
	<node id="-43782" lat="59.4768500003" lon="6.02022500643">
		<tag k="alt_name" v="Notavågjen" />
		<tag k="name" v="Notavågen" />
		<tag k="natural" v="bay" />
		<tag k="ssr:stedsnr" v="548318" />
	</node>
	<node id="-43759" lat="59.4469444448" lon="5.79803333799">
		<tag k="name" v="Litla Juskeneset" />
		<tag k="natural" v="cape" />
		<tag k="ssr:stedsnr" v="543883" />
	</node>
	<node id="-43747" lat="59.6279972239" lon="5.55402221522">
		<tag k="alt_name" v="Årvikeneset, s;Søra Årvikeneset;Årviknes S" />
		<tag k="name" v="Søra Årvikneset" />
		<tag k="natural" v="cape" />
		<tag k="ssr:stedsnr" v="542446" />
	</node>
	<node id="-43745" lat="59.4824194466" lon="5.88630833823">
		<tag k="name" v="Sønnanåneset" />
		<tag k="natural" v="cape" />
		<tag k="ssr:stedsnr" v="541269" />
	</node>
	<node id="-43742" lat="59.469511115" lon="5.85498611824">
		<tag k="name" v="Sandvikstrendene" />
		<tag k="natural" v="beach" />
		<tag k="place" v="locality" />
		<tag k="ssr:stedsnr" v="541246" />
	</node>
	<node id="-43710" lat="59.6330055529" lon="5.56200834018">
		<tag k="alt_name" v="Årvikhamn, s;Søre Årvikhavn" />
		<tag k="name" v="Søra Årvikhamn" />
		<tag k="natural" v="bay" />
		<tag k="ssr:stedsnr" v="428397" />
	</node>
	<node id="-43697" lat="59.511808334" lon="5.50871111403">
		<tag k="name" v="Tosvollvika" />
		<tag k="natural" v="bay" />
		<tag k="ssr:stedsnr" v="428235" />
	</node>
	<node id="-43696" lat="59.5121805542" lon="5.49966388535">
		<tag k="name" v="Veravika" />
		<tag k="natural" v="bay" />
		<tag k="ssr:stedsnr" v="428233" />
	</node>
	<node id="-43695" lat="59.684708336" lon="5.72996943772">
		<tag k="alt_name" v="Furuneset" />
		<tag k="name" v="Forenes" />
		<tag k="natural" v="cape" />
		<tag k="ssr:stedsnr" v="428062" />
	</node>
	<node id="-43692" lat="59.4740861082" lon="5.54526110615">
		<tag k="name" v="Liavika" />
		<tag k="natural" v="bay" />
		<tag k="ssr:stedsnr" v="427780" />
	</node>
	<node id="-43689" lat="59.4487437215" lon="5.50949096905">
		<tag k="alt_name" v="Breidvika" />
		<tag k="name" v="Breivika" />
		<tag k="natural" v="bay" />
		<tag k="ssr:stedsnr" v="427758" />
	</node>
	<node id="-43686" lat="59.4639249977" lon="5.53524443786">
		<tag k="name" v="Brendaneset" />
		<tag k="natural" v="cape" />
		<tag k="ssr:stedsnr" v="424096" />
	</node>
	<node id="-43636" lat="59.5097694422" lon="5.46141666863">
		<tag k="alt_name" v="Fjonaskjer" />
		<tag k="name" v="Fjonaskjeret" />
		<tag k="place" v="locality" />
		<tag k="seamark:type" v="rock" />
		<tag k="ssr:stedsnr" v="390374" />
	</node>
	<node id="-43635" lat="59.5561055597" lon="5.55330555548">
		<tag k="name" v="Merri" />
		<tag k="natural" v="shoal" />
		<tag k="place" v="locality" />
		<tag k="ssr:stedsnr" v="389832" />
	</node>
	<node id="-43611" lat="59.6659000029" lon="5.72473332809">
		<tag k="name" v="Haugsholmane" />
		<tag k="place" v="islet" />
		<tag k="ssr:stedsnr" v="367419" />
	</node>
	<node id="-43610" lat="59.6364944439" lon="5.78585832586">
		<tag k="bay" v="fjord" />
		<tag k="name" v="Ølsfjorden" />
		<tag k="natural" v="bay" />
		<tag k="ssr:stedsnr" v="367391" />
	</node>
	<node id="-43609" lat="59.6371000033" lon="5.56451666989">
		<tag k="alt_name" v="Årvikhamn, nordre;Nordra Årvikbukt;Nordre Årvikhavn" />
		<tag k="name" v="Nordra Årvikhamn" />
		<tag k="natural" v="bay" />
		<tag k="ssr:stedsnr" v="367385" />
	</node>
	<node id="-43602" lat="59.6067500014" lon="5.80074445044">
		<tag k="alt_name" v="Ølensjøen" />
		<tag k="bay" v="fjord" />
		<tag k="name" v="Ølsjøen" />
		<tag k="natural" v="bay" />
		<tag k="ssr:stedsnr" v="367338" />
	</node>
	<node id="-43590" lat="59.7073027752" lon="5.60101666142">
		<tag k="alt_name" v="Terneskjer" />
		<tag k="fixme" v="consider seamark:type=rock or natural=shoal" />
		<tag k="name" v="Terneskjeret" />
		<tag k="place" v="islet" />
		<tag k="ssr:stedsnr" v="367079" />
	</node>
	<node id="-43589" lat="59.7072694402" lon="5.59330555148">
		<tag k="alt_name" v="Ilholmen, søre" />
		<tag k="name" v="Søre Ilholmen" />
		<tag k="place" v="islet" />
		<tag k="ssr:stedsnr" v="367077" />
	</node>
	<node id="-43588" lat="59.6826499978" lon="5.60308055438">
		<tag k="name" v="Bjoaneset" />
		<tag k="natural" v="cape" />
		<tag k="ssr:stedsnr" v="367046" />
	</node>
	<node id="-43587" lat="59.6670416185" lon="5.75563826981">
		<tag k="alt_name" v="Litle Romsa" />
		<tag k="fixme" v="multiple name tags, choose one and add the other to alt_name" />
		<tag k="name" v="Glopsøya;Nautøy" />
		<tag k="place" v="island" />
		<tag k="ssr:stedsnr" v="367020" />
	</node>
	<node id="-43585" lat="59.5089055594" lon="5.85084167186">
		<tag k="alt_name" v="Sandeidsfjorden" />
		<tag k="bay" v="fjord" />
		<tag k="name" v="Sandeidfjorden" />
		<tag k="natural" v="bay" />
		<tag k="ssr:stedsnr" v="366829" />
	</node>
	<node id="-43583" lat="59.4757750003" lon="5.61199999664">
		<tag k="alt_name" v="Sveinastøholmane" />
		<tag k="name" v="Svinastøholmane" />
		<tag k="place" v="islet" />
		<tag k="ssr:stedsnr" v="366812" />
	</node>
	<node id="-43582" lat="59.4570683346" lon="5.531501584">
		<tag k="alt_name" v="Naustatongen" />
		<tag k="name" v="Naustatangen" />
		<tag k="natural" v="cape" />
		<tag k="ssr:stedsnr" v="366798" />
	</node>
	<node id="-43577" lat="59.4146416711" lon="5.71496666986">
		<tag k="name" v="Stråtveitvika" />
		<tag k="natural" v="bay" />
		<tag k="ssr:stedsnr" v="366040" />
	</node>
	<node id="-43576" lat="59.428875002" lon="5.74713610847">
		<tag k="name" v="Breidavika" />
		<tag k="natural" v="bay" />
		<tag k="ssr:stedsnr" v="366006" />
	</node>
	<node id="-43573" lat="59.5783555563" lon="5.56440833085">
		<tag k="name" v="Osnesvika" />
		<tag k="natural" v="bay" />
		<tag k="ssr:stedsnr" v="363226" />
	</node>
	<node id="-43571" lat="59.4484805566" lon="5.50581388476">
		<tag k="name" v="Neset" />
		<tag k="natural" v="cape" />
		<tag k="ssr:stedsnr" v="363085" />
	</node>
	<node id="-43545" lat="59.482452777" lon="5.8509222164">
		<tag k="name" v="Elvaneset" />
		<tag k="natural" v="cape" />
		<tag k="ssr:stedsnr" v="359244" />
	</node>
	<node id="-43528" lat="59.6001500018" lon="5.76326943602">
		<tag k="name" v="Myravik" />
		<tag k="natural" v="bay" />
		<tag k="ssr:stedsnr" v="347984" />
	</node>
	<node id="-42069" lat="59.4426305564" lon="5.78553611454">
		<tag k="name" v="Tjuvhilleren" />
		<tag k="natural" v="cape" />
		<tag k="ssr:stedsnr" v="245022" />
	</node>
	<node id="-43515" lat="59.6274583322" lon="5.55638610428">
		<tag k="name" v="Sørehamn" />
		<tag k="natural" v="bay" />
		<tag k="ssr:stedsnr" v="328445" />
	</node>
	<node id="-43514" lat="59.6307444455" lon="5.55620833274">
		<tag k="name" v="Pøyla" />
		<tag k="natural" v="bay" />
		<tag k="ssr:stedsnr" v="328444" />
	</node>
	<node id="-43510" lat="59.5011888846" lon="5.59994443603">
		<tag k="name" v="Kjorkjevika" />
		<tag k="natural" v="bay" />
		<tag k="ssr:stedsnr" v="326675" />
	</node>
	<node id="-43505" lat="59.4616749993" lon="5.75518334032">
		<tag k="name" v="Vaskevika" />
		<tag k="natural" v="bay" />
		<tag k="ssr:stedsnr" v="319776" />
	</node>
	<node id="-43504" lat="59.5014305593" lon="5.61715555238">
		<tag k="alt_name" v="Tirsvik" />
		<tag k="name" v="Tirsvika" />
		<tag k="natural" v="bay" />
		<tag k="ssr:stedsnr" v="307664" />
	</node>
	<node id="-43501" lat="59.6507750018" lon="5.75566667375">
		<tag k="alt_name" v="Mekjevika" />
		<tag k="fixme" v="multiple name tags, choose one and add the other to alt_name" />
		<tag k="name" v="Kjellasvik;Mækjevika" />
		<tag k="natural" v="bay" />
		<tag k="ssr:stedsnr" v="307491" />
	</node>
	<node id="-43491" lat="59.4939138846" lon="5.62931389368">
		<tag k="alt_name" v="Klubbatåna" />
		<tag k="name" v="Klubbatårnet" />
		<tag k="natural" v="cape" />
		<tag k="ssr:stedsnr" v="306854" />
	</node>
	<node id="-43489" lat="59.4486861152" lon="5.53000278387">
		<tag k="name" v="Søyleklubben" />
		<tag k="natural" v="cape" />
		<tag k="ssr:stedsnr" v="306774" />
	</node>
	<node id="-43476" lat="59.5955583376" lon="5.55895278587">
		<tag k="alt_name" v="Byrkjeneset;Byrkjenes" />
		<tag k="name" v="Børkjenes" />
		<tag k="natural" v="cape" />
		<tag k="ssr:stedsnr" v="306371" />
	</node>
	<node id="-43461" lat="59.5113250019" lon="5.49318888903">
		<tag k="name" v="Håvikvika" />
		<tag k="natural" v="bay" />
		<tag k="ssr:stedsnr" v="306232" />
	</node>
	<node id="-43456" lat="59.6824805553" lon="5.74447500459">
		<tag k="name" v="Gunnarsholmen" />
		<tag k="place" v="islet" />
		<tag k="ssr:stedsnr" v="306011" />
	</node>
	<node id="-43455" lat="59.446033333" lon="5.79603889012">
		<tag k="alt_name" v="Stora Juskeneset" />
		<tag k="name" v="Juskeneset" />
		<tag k="natural" v="cape" />
		<tag k="ssr:stedsnr" v="305763" />
	</node>
	<node id="-43454" lat="59.4443027776" lon="5.78843055083">
		<tag k="name" v="Gjuvavika" />
		<tag k="natural" v="bay" />
		<tag k="ssr:stedsnr" v="305762" />
	</node>
	<node id="-43453" lat="59.4382388861" lon="5.7478944369">
		<tag k="name" v="Grønavika" />
		<tag k="natural" v="bay" />
		<tag k="ssr:stedsnr" v="305028" />
	</node>
	<node id="-43450" lat="59.4467722204" lon="5.51522221934">
		<tag k="name" v="Breivikholmen" />
		<tag k="place" v="islet" />
		<tag k="ssr:stedsnr" v="303085" />
	</node>
	<node id="-43438" lat="59.616891669" lon="5.55780555467">
		<tag k="name" v="Guggehamn" />
		<tag k="natural" v="bay" />
		<tag k="ssr:stedsnr" v="207444" />
	</node>
	<node id="-43436" lat="59.5660500007" lon="5.56846111052">
		<tag k="loc_name" v="Søra Buholmvika" />
		<tag k="name" v="Søra Buholmvik" />
		<tag k="natural" v="bay" />
		<tag k="ssr:stedsnr" v="207423" />
	</node>
	<node id="-43435" lat="59.4888027819" lon="5.63252221998">
		<tag k="name" v="Skotavika" />
		<tag k="natural" v="bay" />
		<tag k="ssr:stedsnr" v="205826" />
	</node>
	<node id="-43424" lat="59.4565249991" lon="5.83824166326">
		<tag k="alt_name" v="Hatlaneset" />
		<tag k="name" v="Hetta" />
		<tag k="natural" v="cape" />
		<tag k="ssr:stedsnr" v="185757" />
	</node>
	<node id="-43414" lat="59.6426868714" lon="5.79232744512">
		<tag k="alt_name" v="Dreganes;Klubben" />
		<tag k="name" v="Dreganeset" />
		<tag k="natural" v="cape" />
		<tag k="ssr:stedsnr" v="185408" />
	</node>
	<node id="-43409" lat="59.6052999957" lon="5.55479999867">
		<tag k="alt_name" v="Korsnesvika" />
		<tag k="name" v="Korsvika" />
		<tag k="natural" v="bay" />
		<tag k="ssr:stedsnr" v="185382" />
	</node>
	<node id="-43406" lat="59.6053000038" lon="5.76539166822">
		<tag k="name" v="Bergsneset" />
		<tag k="natural" v="cape" />
		<tag k="ssr:stedsnr" v="185368" />
	</node>
	<node id="-43404" lat="59.583716669" lon="5.56558889617">
		<tag k="name" v="Leirhammar" />
		<tag k="natural" v="cape" />
		<tag k="ssr:stedsnr" v="185357" />
	</node>
	<node id="-43402" lat="59.5741500019" lon="5.56598054731">
		<tag k="name" v="Bekkjarvika" />
		<tag k="natural" v="bay" />
		<tag k="ssr:stedsnr" v="185350" />
	</node>
	<node id="-43395" lat="59.5329166688" lon="5.54430833213">
		<tag k="alt_name" v="Øynå" />
		<tag k="fixme" v="multiple name tags, choose one and add the other to alt_name" />
		<tag k="name" v="Haraldsøya;Øyna" />
		<tag k="place" v="islet" />
		<tag k="ssr:stedsnr" v="185272" />
	</node>
	<node id="-43392" lat="59.6782166638" lon="5.72982499686">
		<tag k="alt_name" v="Tommelsvik" />
		<tag k="name" v="Tomasvik" />
		<tag k="natural" v="bay" />
		<tag k="ssr:stedsnr" v="185037" />
	</node>
	<node id="-43391" lat="59.6667861067" lon="5.77206666149">
		<tag k="name" v="Romsasundet" />
		<tag k="natural" v="strait" />
		<tag k="ssr:stedsnr" v="185033" />
	</node>
	<node id="-43380" lat="59.446152778" lon="5.52392499879">
		<tag k="alt_name" v="Katteidtongen" />
		<tag k="name" v="Katteidtangen" />
		<tag k="natural" v="cape" />
		<tag k="ssr:stedsnr" v="184778" />
	</node>
	<node id="-43377" lat="59.472422226" lon="6.04265555926">
		<tag k="alt_name" v="Storøy" />
		<tag k="name" v="Storøyna" />
		<tag k="place" v="island" />
		<tag k="ssr:stedsnr" v="184314" />
	</node>
	<node id="-43376" lat="59.4713499991" lon="5.85635000108">
		<tag k="name" v="Brakaneset" />
		<tag k="natural" v="cape" />
		<tag k="ssr:stedsnr" v="184309" />
	</node>
	<node id="-43373" lat="59.4788333301" lon="6.00507500822">
		<tag k="name" v="Ørevika" />
		<tag k="natural" v="bay" />
		<tag k="ssr:stedsnr" v="184297" />
	</node>
	<node id="-43364" lat="59.445505556" lon="5.51722221717">
		<tag k="name" v="Katteidholmen" />
		<tag k="place" v="islet" />
		<tag k="ssr:stedsnr" v="181089" />
	</node>
	<node id="-43363" lat="59.4797416708" lon="5.61508889245">
		<tag k="alt_name" v="Tjødnavika" />
		<tag k="name" v="Tjørnavika" />
		<tag k="natural" v="bay" />
		<tag k="ssr:stedsnr" v="181036" />
	</node>
	<node id="-43361" lat="59.5445305581" lon="5.85767222717">
		<tag k="name" v="Askestranda" />
		<tag k="natural" v="beach" />
		<tag k="place" v="locality" />
		<tag k="ssr:stedsnr" v="180788" />
	</node>
	<node id="-43344" lat="59.4711111109" lon="6.05071666008">
		<tag k="name" v="Jupevika" />
		<tag k="natural" v="bay" />
		<tag k="ssr:stedsnr" v="177486" />
	</node>
	<node id="-43338" lat="59.4737666645" lon="5.85639167496">
		<tag k="name" v="Stuaneset" />
		<tag k="natural" v="cape" />
		<tag k="ssr:stedsnr" v="177227" />
	</node>
	<node id="-43333" lat="59.4335500031" lon="5.75280000245">
		<tag k="name" v="Gåsavika" />
		<tag k="natural" v="bay" />
		<tag k="ssr:stedsnr" v="174928" />
	</node>
	<node id="-43332" lat="59.4114361149" lon="5.70699999986">
		<tag k="name" v="Sletting" />
		<tag k="natural" v="cape" />
		<tag k="ssr:stedsnr" v="174882" />
	</node>
	<node id="-43330" lat="59.6372944444" lon="5.79337778076">
		<tag k="name" v="Slettaneset" />
		<tag k="natural" v="cape" />
		<tag k="ssr:stedsnr" v="165999" />
	</node>
	<node id="-43329" lat="59.4869805554" lon="5.84982777787">
		<tag k="name" v="Lauvvikneset" />
		<tag k="natural" v="cape" />
		<tag k="ssr:stedsnr" v="162583" />
	</node>
	<node id="-43317" lat="59.416483337" lon="5.71936389118">
		<tag k="name" v="Hamnaneset" />
		<tag k="natural" v="cape" />
		<tag k="ssr:stedsnr" v="145732" />
	</node>
	<node id="-43314" lat="59.5171555589" lon="5.50537222816">
		<tag k="fixme" v="consider seamark:type=rock or natural=shoal" />
		<tag k="name" v="Hagaskjeret" />
		<tag k="place" v="islet" />
		<tag k="ssr:stedsnr" v="144803" />
	</node>
	<node id="-43309" lat="59.4902499983" lon="5.61720277614">
		<tag k="name" v="Lendingvika" />
		<tag k="natural" v="bay" />
		<tag k="ssr:stedsnr" v="144692" />
	</node>
	<node id="-43307" lat="59.5017416693" lon="5.63183610591">
		<tag k="name" v="Tømmervik" />
		<tag k="natural" v="bay" />
		<tag k="ssr:stedsnr" v="144680" />
	</node>
	<node id="-43306" lat="59.5018444435" lon="5.60714723063">
		<tag k="name" v="Båtavika" />
		<tag k="natural" v="bay" />
		<tag k="ssr:stedsnr" v="125105" />
	</node>
	<node id="-43295" lat="59.4951166694" lon="5.61568610587">
		<tag k="alt_name" v="Otertong" />
		<tag k="name" v="Otertangen" />
		<tag k="natural" v="cape" />
		<tag k="ssr:stedsnr" v="124836" />
	</node>
	<node id="-43292" lat="59.4563999963" lon="5.75508333701">
		<tag k="name" v="Solvik" />
		<tag k="natural" v="bay" />
		<tag k="ssr:stedsnr" v="124719" />
	</node>
	<node id="-43281" lat="59.6484666709" lon="5.55773889151">
		<tag k="name" v="Gangstøvika" />
>>>>>>> e1d4bc35ff8a6074a6f2e91616a996b547c36f15
		<tag k="natural" v="bay" />
		<tag k="ssr:stedsnr" v="124434" />
	</node>
<<<<<<< HEAD
	<node lat="59.49962222462472" lon="5.595088882177839" id="-5020">
		<tag k="name" v="Likvika" />
		<tag k="natural" v="bay" />
		<tag k="ssr:stedsnr" v="872709" />
	</node>
	<node lat="59.46987221932781" lon="5.614308326566708" id="-5024">
		<tag k="name" v="Kakeneset" />
		<tag k="natural" v="cape" />
		<tag k="ssr:stedsnr" v="873797" />
	</node>
	<node lat="59.46594166970194" lon="5.854894447222702" id="-5044">
		<tag k="name" v="Sandvika" />
		<tag k="natural" v="bay" />
		<tag k="ssr:stedsnr" v="951555" />
	</node>
	<node lat="59.47875833711184" lon="6.133488880729976" id="-5045">
		<tag k="name" v="Våganeset" />
		<tag k="natural" v="cape" />
		<tag k="ssr:stedsnr" v="951574" />
	</node>
	<node lat="59.47641389252156" lon="5.990452777507256" id="-5046">
		<tag k="name" v="Imslandvika" />
		<tag k="natural" v="bay" />
		<tag k="ssr:stedsnr" v="951580" />
	</node>
	<node lat="59.60273333376479" lon="5.785716661523092" id="-5048">
		<tag k="name" v="Hutlingetong" />
		<tag k="natural" v="beach" />
		<tag k="ssr:stedsnr" v="954978" />
	</node>
	<node lat="59.665693173444716" lon="5.565675065071004" id="-5090">
		<tag k="name" v="Fjellavik" />
		<tag k="natural" v="bay" />
		<tag k="ssr:stedsnr" v="972624" />
	</node>
	<node lat="59.6648924580242" lon="5.663934680170073" id="-5118">
		<tag k="fixme" v="consider seamark:type=rock or natural=shoal" />
		<tag k="name" v="Harpeskjer" />
		<tag k="place" v="islet" />
		<tag k="ssr:stedsnr" v="973025" />
	</node>
	<node lat="59.67857954166161" lon="5.620333889545339" id="-5127">
		<tag k="name" v="Husøyvik" />
		<tag k="natural" v="bay" />
		<tag k="ssr:stedsnr" v="972942" />
	</node>
	<node lat="59.675364008807165" lon="5.623869037611747" id="-5128">
		<tag k="name" v="Ytre Lasvik" />
		<tag k="natural" v="bay" />
		<tag k="ssr:stedsnr" v="972943" />
	</node>
	<node lat="59.67402980074046" lon="5.625578021784966" id="-5129">
		<tag k="name" v="Indre Lasvik" />
		<tag k="natural" v="bay" />
		<tag k="ssr:stedsnr" v="972946" />
	</node>
	<node lat="59.67086513927283" lon="5.632560914367312" id="-5134">
		<tag k="name" v="Vedvik" />
		<tag k="natural" v="bay" />
		<tag k="ssr:stedsnr" v="972982" />
	</node>
	<node lat="59.667907296781856" lon="5.675176282899818" id="-5142">
		<tag k="name" v="Skjelevik" />
		<tag k="natural" v="bay" />
		<tag k="ssr:stedsnr" v="973048" />
	</node>
	<node lat="59.665252413658486" lon="5.688893652159117" id="-5144">
		<tag k="name" v="Svinevik" />
		<tag k="natural" v="bay" />
		<tag k="ssr:stedsnr" v="973055" />
	</node>
	<node lat="59.664521797045275" lon="5.69312320694067" id="-5145">
		<tag k="name" v="Lauvvik" />
		<tag k="natural" v="bay" />
		<tag k="ssr:stedsnr" v="973061" />
	</node>
	<node lat="59.682682810460555" lon="5.724641387221643" id="-5148">
		<tag k="name" v="Jektavik" />
		<tag k="natural" v="bay" />
		<tag k="ssr:stedsnr" v="973073" />
	</node>
	<node lat="59.68180775234915" lon="5.740820480390483" id="-5149">
		<tag k="name" v="Kobbanes" />
		<tag k="natural" v="cape" />
		<tag k="ssr:stedsnr" v="973077" />
	</node>
	<node lat="59.68168854200524" lon="5.727058280022644" id="-5150">
		<tag k="name" v="Store Romsa" />
		<tag k="place" v="island" />
		<tag k="ssr:stedsnr" v="973074" />
	</node>
	<node lat="59.68315802719501" lon="5.745436896989214" id="-5152">
		<tag k="name" v="Hamnaholmane" />
		<tag k="place" v="islet" />
		<tag k="ssr:stedsnr" v="973079" />
	</node>
	<node lat="59.682357308843116" lon="5.750838830985313" id="-5153">
		<tag k="name" v="Kråkevikneset" />
		<tag k="natural" v="cape" />
		<tag k="ssr:stedsnr" v="973080" />
	</node>
	<node lat="59.67583283498637" lon="5.731827193890761" id="-5179">
		<tag k="name" v="Kråkevik" />
		<tag k="natural" v="bay" />
		<tag k="ssr:stedsnr" v="973128" />
	</node>
	<node lat="59.679067663002925" lon="5.736579204115758" id="-5181">
		<tag k="name" v="Brattestøvågen" />
		<tag k="natural" v="bay" />
		<tag k="ssr:stedsnr" v="973160" />
	</node>
	<node lat="59.64346018081026" lon="5.775234009656201" id="-5240">
		<tag k="name" v="Nathaugneset" />
		<tag k="natural" v="cape" />
		<tag k="ssr:stedsnr" v="973873" />
	</node>
	<node lat="59.6404601433852" lon="5.7799491055909025" id="-5241">
		<tag k="name" v="Ølessund" />
		<tag k="natural" v="strait" />
		<tag k="ssr:stedsnr" v="973877" />
	</node>
	<node lat="59.64212303087191" lon="5.776288354776607" id="-5242">
		<tag k="name" v="Torpaneset" />
		<tag k="natural" v="cape" />
		<tag k="ssr:stedsnr" v="973879" />
	</node>
	<node lat="59.64427224067096" lon="5.792033398504166" id="-5244">
		<tag k="name" v="Kampareholmen" />
		<tag k="place" v="islet" />
		<tag k="ssr:stedsnr" v="973882" />
	</node>
	<node lat="59.64143747349304" lon="5.7920902335141005" id="-5245">
		<tag k="name" v="Hugnevika" />
		<tag k="natural" v="bay" />
		<tag k="ssr:stedsnr" v="973883" />
	</node>
	<node lat="59.62113859831874" lon="5.800259364645633" id="-5296">
		<tag k="name" v="Kåtabøvika" />
		<tag k="natural" v="bay" />
		<tag k="ssr:stedsnr" v="974830" />
	</node>
	<node lat="59.60890113107473" lon="5.816496234619771" id="-5315">
		<tag k="name" v="Holmen" />
		<tag k="place" v="islet" />
		<tag k="ssr:stedsnr" v="974920" />
	</node>
	<node lat="59.58906770203533" lon="5.575900266712991" id="-5318">
		<tag k="name" v="Dommasneslandet" />
		<tag k="natural" v="beach" />
		<tag k="ssr:stedsnr" v="977239" />
	</node>
	<node lat="59.54843693879301" lon="5.556007377673758" id="-5371">
		<tag k="name" v="Ottertang" />
		<tag k="natural" v="cape" />
		<tag k="ssr:stedsnr" v="981025" />
	</node>
	<node lat="59.54676410266053" lon="5.557495007906982" id="-5372">
		<tag k="name" v="Uraneset" />
		<tag k="natural" v="cape" />
		<tag k="ssr:stedsnr" v="981026" />
	</node>
	<node lat="59.548846491597764" lon="5.559177152184294" id="-5373">
		<tag k="name" v="Vågskjeften" />
		<tag k="natural" v="bay" />
		<tag k="ssr:stedsnr" v="981027" />
	</node>
	<node lat="59.64853300305451" lon="5.772758454426999" id="-5400">
		<tag k="name" v="Staveneset" />
		<tag k="natural" v="cape" />
		<tag k="ssr:stedsnr" v="1072195" />
=======
	<node id="-43280" lat="59.6647527757" lon="5.69505554827">
		<tag k="name" v="Brandøyholmen" />
		<tag k="place" v="islet" />
		<tag k="ssr:stedsnr" v="124424" />
	</node>
	<node id="-43279" lat="59.6470527794" lon="5.82321110278">
		<tag k="bay" v="fjord" />
		<tag k="name" v="Etnefjorden" />
		<tag k="natural" v="bay" />
		<tag k="ssr:stedsnr" v="124404" />
	</node>
	<node id="-43272" lat="59.6718277765" lon="5.65436388816">
		<tag k="name" v="Bleng" />
		<tag k="place" v="islet" />
		<tag k="ssr:stedsnr" v="124003" />
	</node>
	<node id="-43268" lat="59.4688027768" lon="5.74040833054">
		<tag k="alt_name" v="Kolholmen" />
		<tag k="name" v="Kålholmen" />
		<tag k="old_name" v="Kå" />
		<tag k="place" v="islet" />
		<tag k="ssr:stedsnr" v="123829" />
	</node>
	<node id="-43259" lat="59.5790500004" lon="5.56447777335">
		<tag k="alt_name" v="Søre Bronnavika" />
		<tag k="name" v="Søre Brunnavika" />
		<tag k="natural" v="bay" />
		<tag k="ssr:stedsnr" v="121235" />
	</node>
	<node id="-43236" lat="59.4757499969" lon="5.98625555962">
		<tag k="name" v="Bushammar" />
		<tag k="natural" v="cape" />
		<tag k="ssr:stedsnr" v="117383" />
	</node>
	<node id="-43215" lat="59.4869027783" lon="6.17447221973">
		<tag k="name" v="Jupevik" />
		<tag k="natural" v="bay" />
		<tag k="ssr:stedsnr" v="115458" />
	</node>
	<node id="-43214" lat="59.4581555596" lon="5.61543054974">
		<tag k="name" v="Josefstøa" />
		<tag k="natural" v="bay" />
		<tag k="ssr:stedsnr" v="114992" />
	</node>
	<node id="-43206" lat="59.6753916625" lon="5.71583611843">
		<tag k="name" v="Fornesflua" />
		<tag k="natural" v="shoal" />
		<tag k="place" v="locality" />
		<tag k="ssr:stedsnr" v="104786" />
	</node>
	<node id="-43200" lat="59.4495249982" lon="5.74291666412">
		<tag k="alt_name" v="Steinaneset" />
		<tag k="name" v="Steinneset" />
		<tag k="natural" v="cape" />
		<tag k="ssr:stedsnr" v="86532" />
	</node>
	<node id="-43180" lat="59.5805861075" lon="5.5655944509">
		<tag k="alt_name" v="Brunnavika, nordre;Nordre Bronnavika" />
		<tag k="name" v="Nordre Brunnavika" />
		<tag k="natural" v="bay" />
		<tag k="ssr:stedsnr" v="64365" />
	</node>
	<node id="-42011" lat="59.4743361099" lon="5.88304443615">
		<tag k="name" v="Klakkane" />
		<tag k="natural" v="shoal" />
		<tag k="place" v="locality" />
		<tag k="ssr:stedsnr" v="162555" />
	</node>
	<node id="-43161" lat="59.4864749972" lon="5.45770555386">
		<tag k="alt_name" v="Sønnførvågen" />
		<tag k="name" v="Sundførvågen" />
		<tag k="natural" v="bay" />
		<tag k="ssr:stedsnr" v="63684" />
	</node>
	<node id="-43156" lat="59.6097333312" lon="5.82133888436">
		<tag k="name" v="Osen" />
		<tag k="natural" v="bay" />
		<tag k="ssr:stedsnr" v="63423" />
	</node>
	<node id="-43153" lat="59.4748777783" lon="6.03606665932">
		<tag k="alt_name" v="Litløy" />
		<tag k="name" v="Litløyna" />
		<tag k="place" v="islet" />
		<tag k="ssr:stedsnr" v="63345" />
	</node>
	<node id="-43151" lat="59.5534583324" lon="5.56297499671">
		<tag k="name" v="Taravika" />
		<tag k="natural" v="bay" />
		<tag k="ssr:stedsnr" v="63338" />
	</node>
	<node id="-43145" lat="59.6735916702" lon="5.58233054757">
		<tag k="name" v="Torsvika" />
		<tag k="natural" v="bay" />
		<tag k="ssr:stedsnr" v="63065" />
	</node>
	<node id="-43144" lat="59.4408999981" lon="5.74803611295">
		<tag k="alt_name" v="Raunesvika" />
		<tag k="name" v="Raudnesvika" />
		<tag k="natural" v="bay" />
		<tag k="ssr:stedsnr" v="63038" />
	</node>
	<node id="-43122" lat="59.5578916664" lon="6.01255000822">
		<tag k="name" v="Tjøreneset" />
		<tag k="natural" v="cape" />
		<tag k="ssr:stedsnr" v="58318" />
	</node>
	<node id="-42343" lat="59.5034055524" lon="5.62854444619">
		<tag k="name" v="Frøvika" />
		<tag k="natural" v="bay" />
		<tag k="ssr:stedsnr" v="428620" />
	</node>
	<node id="-43107" lat="59.4779083316" lon="6.0094138907">
		<tag k="fixme" v="consider seamark:type=rock or natural=shoal" />
		<tag k="name" v="Kvamskjeret" />
		<tag k="place" v="islet" />
		<tag k="ssr:stedsnr" v="56498" />
	</node>
	<node id="-42341" lat="59.566673171" lon="5.5674868356">
		<tag k="name" v="Buholmen" />
		<tag k="natural" v="cape" />
		<tag k="ssr:stedsnr" v="428323" />
	</node>
	<node id="-43097" lat="59.6389861085" lon="5.55576388033">
		<tag k="alt_name" v="Årvikeneset;Årvikneset n." />
		<tag k="name" v="Nordra Årvikneset" />
		<tag k="natural" v="cape" />
		<tag k="ssr:stedsnr" v="56070" />
	</node>
	<node id="-42340" lat="59.6614111068" lon="5.74531389508">
		<tag k="name" v="Langholmane" />
		<tag k="place" v="islet" />
		<tag k="ssr:stedsnr" v="428445" />
	</node>
	<node id="-43094" lat="59.4394638848" lon="5.76541111131">
		<tag k="name" v="Kallrak" />
		<tag k="natural" v="beach" />
		<tag k="place" v="locality" />
		<tag k="ssr:stedsnr" v="53592" />
	</node>
	<node id="-43090" lat="59.6614444484" lon="5.74494443983">
		<tag k="alt_name" v="Øspeholmen" />
		<tag k="name" v="Øspholmen" />
		<tag k="place" v="islet" />
		<tag k="ssr:stedsnr" v="44790" />
	</node>
	<node id="-44387" lat="59.668739709" lon="5.75298592212">
		<tag k="name" v="Klungervik" />
		<tag k="natural" v="bay" />
		<tag k="ssr:stedsnr" v="973172" />
	</node>
	<node id="-43088" lat="59.4708638857" lon="6.03226943934">
		<tag k="name" v="Herøysundet" />
		<tag k="natural" v="strait" />
		<tag k="ssr:stedsnr" v="41550" />
	</node>
	<node id="-42338" lat="59.4942722189" lon="5.57783610523">
		<tag k="bay" v="fjord" />
		<tag k="name" v="Skjoldafjorden" />
		<tag k="natural" v="bay" />
		<tag k="ssr:stedsnr" v="427809" />
	</node>
	<node id="-43077" lat="59.5994083292" lon="5.55599722029">
		<tag k="name" v="Døvikflua" />
		<tag k="natural" v="shoal" />
		<tag k="place" v="locality" />
		<tag k="ssr:stedsnr" v="25449" />
	</node>
	<node id="-43058" lat="59.6623027752" lon="5.75629165932">
		<tag k="alt_name" v="Todløya" />
		<tag k="name" v="Tolløya" />
		<tag k="place" v="island" />
		<tag k="ssr:stedsnr" v="3438" />
	</node>
	<node id="-43057" lat="59.6581527813" lon="5.73648334103">
		<tag k="name" v="Haugssundet" />
		<tag k="natural" v="strait" />
		<tag k="ssr:stedsnr" v="3436" />
	</node>
	<node id="-43047" lat="59.5994000033" lon="5.74842499766">
		<tag k="name" v="Ølsvågen" />
		<tag k="natural" v="bay" />
		<tag k="ssr:stedsnr" v="3340" />
	</node>
	<node id="-43046" lat="59.5927555516" lon="5.5784916629">
		<tag k="name" v="Vikevik" />
		<tag k="natural" v="bay" />
		<tag k="ssr:stedsnr" v="3327" />
	</node>
	<node id="-43043" lat="59.5378527787" lon="5.53034443839">
		<tag k="name" v="Tviløypa" />
		<tag k="place" v="islet" />
		<tag k="ssr:stedsnr" v="3282" />
	</node>
	<node id="-42331" lat="59.4781749986" lon="5.88762499954">
		<tag k="name" v="Brenneholmen" />
		<tag k="place" v="islet" />
		<tag k="ssr:stedsnr" v="427320" />
	</node>
	<node id="-43036" lat="59.5155250042" lon="5.47847499234">
		<tag k="name" v="Håvikneset" />
		<tag k="natural" v="cape" />
		<tag k="ssr:stedsnr" v="3222" />
	</node>
	<node id="-43033" lat="59.6766888847" lon="5.73849999781">
		<tag k="name" v="Romsa" />
		<tag k="place" v="island" />
		<tag k="ssr:stedsnr" v="3047" />
	</node>
	<node id="-43032" lat="59.66596459" lon="5.57062511749">
		<tag k="alt_name" v="Gardavik" />
		<tag k="name" v="Gardavika" />
		<tag k="natural" v="bay" />
		<tag k="ssr:stedsnr" v="3011" />
	</node>
	<node id="-43019" lat="59.469356588" lon="6.03245858498">
		<tag k="alt_name" v="Herøy" />
		<tag k="name" v="Herøyna" />
		<tag k="place" v="islet" />
		<tag k="ssr:stedsnr" v="2342" />
	</node>
	<node id="-43013" lat="59.48607778" lon="5.89729722504">
		<tag k="name" v="Håvika" />
		<tag k="natural" v="bay" />
		<tag k="ssr:stedsnr" v="2308" />
>>>>>>> e1d4bc35ff8a6074a6f2e91616a996b547c36f15
	</node>
</osm>
