<?xml version="1.0" encoding="UTF-8"?>
<<<<<<< HEAD
<osm version="0.6" generator="osmapis">
	<node lat="59.49137622069787" lon="6.17882124422207" id="-2421">
		<tag k="name" v="Skjøljavatnet" />
		<tag k="natural" v="water" />
		<tag k="ssr:stedsnr" v="2313" />
		<tag k="water" v="lake" />
	</node>
	<node lat="59.47432500387479" lon="5.540213885549631" id="-2430">
		<tag k="alt_name" v="Liaosen" />
		<tag k="name" v="Liosen" />
		<tag k="natural" v="bay" />
		<tag k="ssr:stedsnr" v="2811" />
	</node>
	<node lat="59.50350555580706" lon="5.944849994004148" id="-2447">
		<tag k="name" v="Ternevatnet" />
		<tag k="natural" v="water" />
		<tag k="ssr:stedsnr" v="3875" />
		<tag k="water" v="lake" />
	</node>
	<node lat="59.51150555351221" lon="5.4736611095141985" id="-2450">
		<tag k="name" v="Sandbekken" />
		<tag k="ssr:stedsnr" v="23707" />
		<tag k="waterway" v="stream" />
	</node>
	<node lat="59.47516666677849" lon="5.737902771041421" id="-2452">
		<tag k="loc_name" v="Åmosen" />
		<tag k="name" v="Åmsosen" />
		<tag k="natural" v="bay" />
		<tag k="ssr:stedsnr" v="25482" />
	</node>
	<node lat="59.58566667106752" lon="5.623969449950268" id="-2458">
		<tag k="name" v="Fossane" />
		<tag k="natural" v="waterfall" />
		<tag k="ssr:stedsnr" v="38071" />
	</node>
	<node lat="59.540297224217426" lon="6.033077770911027" id="-2485">
		<tag k="name" v="Hedlebekken" />
		<tag k="ssr:stedsnr" v="56028" />
		<tag k="waterway" v="stream" />
	</node>
	<node lat="59.47365278099611" lon="5.815305561950978" id="-2489">
		<tag k="name" v="Tednholmen" />
		<tag k="place" v="islet" />
		<tag k="ssr:stedsnr" v="56183" />
	</node>
	<node lat="59.546275003554626" lon="6.042269446332153" id="-2492">
		<tag k="name" v="Træsbekken" />
		<tag k="ssr:stedsnr" v="56491" />
		<tag k="waterway" v="stream" />
	</node>
	<node lat="59.46327500394192" lon="5.527400003375762" id="-2509">
		<tag k="name" v="Løkabekken" />
		<tag k="ssr:stedsnr" v="60113" />
		<tag k="waterway" v="stream" />
	</node>
	<node lat="59.538563892142896" lon="5.687566660925119" id="-2512">
		<tag k="name" v="Sjurseikjebekken" />
		<tag k="ssr:stedsnr" v="240688" />
		<tag k="waterway" v="stream" />
	</node>
	<node lat="59.539755553657315" lon="5.711022230472189" id="-2513">
		<tag k="name" v="Landaholmen" />
		<tag k="place" v="islet" />
		<tag k="ssr:stedsnr" v="240695" />
	</node>
	<node lat="59.4931750031295" lon="6.1373527764738" id="-2526">
		<tag k="alt_name" v="Hustoptvatnet" />
		<tag k="name" v="Hustoftvatnet" />
		<tag k="natural" v="water" />
		<tag k="ssr:stedsnr" v="63315" />
		<tag k="water" v="lake" />
	</node>
	<node lat="59.47593055955409" lon="5.734925004121282" id="-2531">
		<tag k="name" v="Åmsosen" />
		<tag k="natural" v="bay" />
		<tag k="ssr:stedsnr" v="63817" />
	</node>
	<node lat="59.47844432250973" lon="5.621259653755188" id="-2533">
		<tag k="fixme" v="multiple name tags, choose one and add the other to alt_name" />
		<tag k="name" v="Paddetjørna;Longalandstjørna" />
		<tag k="natural" v="water" />
		<tag k="ssr:stedsnr" v="63823" />
	</node>
	<node lat="59.53629999935768" lon="5.558102781838469" id="-2538">
		<tag k="alt_name" v="Vatnaskarvika" />
		<tag k="name" v="Vatneskardvika" />
		<tag k="natural" v="bay" />
		<tag k="ssr:stedsnr" v="64303" />
	</node>
	<node lat="59.52591666821225" lon="5.585494453075596" id="-2543">
		<tag k="name" v="Trolltjørna" />
		<tag k="natural" v="water" />
		<tag k="ssr:stedsnr" v="64267" />
	</node>
	<node lat="59.51856111039467" lon="5.5279555526568664" id="-2544">
		<tag k="name" v="Storeholmen" />
		<tag k="place" v="islet" />
		<tag k="ssr:stedsnr" v="64271" />
	</node>
	<node lat="59.47063888967303" lon="5.641908334309893" id="-2551">
		<tag k="name" v="Raunlitjørna" />
		<tag k="natural" v="water" />
		<tag k="ssr:stedsnr" v="242043" />
	</node>
	<node lat="59.505269447949104" lon="5.531080546715504" id="-2555">
		<tag k="name" v="Anndalsbekken" />
		<tag k="ssr:stedsnr" v="83693" />
		<tag k="waterway" v="stream" />
	</node>
	<node lat="59.542211111338716" lon="5.606472221824969" id="-2559">
		<tag k="name" v="Bjordalselva" />
		<tag k="ssr:stedsnr" v="245281" />
		<tag k="waterway" v="stream" />
	</node>
	<node lat="59.493404709591104" lon="5.9921672423238626" id="-2561">
		<tag k="name" v="Ølmedalsvatnet" />
		<tag k="natural" v="water" />
		<tag k="ssr:stedsnr" v="245260" />
		<tag k="water" v="lake" />
	</node>
	<node lat="59.471321519113324" lon="5.7983215312829" id="-2563">
		<tag k="alt_name" v="Haraldstveittjørna" />
		<tag k="name" v="Haraldstveitvatnet" />
		<tag k="natural" v="water" />
		<tag k="ssr:stedsnr" v="245768" />
		<tag k="water" v="lake" />
	</node>
	<node lat="59.4828749969323" lon="5.66982778333226" id="-2564">
		<tag k="alt_name" v="Frølandselva" />
		<tag k="name" v="Trøsdalselva" />
		<tag k="ssr:stedsnr" v="245833" />
		<tag k="waterway" v="stream" />
	</node>
	<node lat="59.58377500342305" lon="5.683966669124405" id="-2574">
		<tag k="name" v="Krokavatnet" />
		<tag k="natural" v="water" />
		<tag k="ssr:stedsnr" v="246347" />
		<tag k="water" v="lake" />
	</node>
	<node lat="59.56307989027437" lon="6.025523897315562" id="-2579">
		<tag k="name" v="Fjellgardsvatnet" />
		<tag k="natural" v="water" />
		<tag k="ssr:stedsnr" v="246554" />
		<tag k="water" v="lake" />
	</node>
	<node lat="59.558144442004995" lon="5.865150007565093" id="-2580">
		<tag k="alt_name" v="Øvstabøelva" />
		<tag k="name" v="Østbøelva" />
		<tag k="ssr:stedsnr" v="246559" />
		<tag k="waterway" v="river" />
	</node>
	<node lat="59.53921944900428" lon="6.145744451270372" id="-2582">
		<tag k="alt_name" v="Istjørn" />
		<tag k="name" v="Istjørna" />
		<tag k="natural" v="water" />
		<tag k="ssr:stedsnr" v="246891" />
	</node>
	<node lat="59.4891777750835" lon="6.138947217160788" id="-2585">
		<tag k="name" v="Vassosen" />
		<tag k="natural" v="bay" />
		<tag k="ssr:stedsnr" v="115605" />
	</node>
	<node lat="59.496797218836825" lon="6.164083342009462" id="-2587">
		<tag k="name" v="Hetlelitjørna" />
		<tag k="natural" v="water" />
		<tag k="ssr:stedsnr" v="115619" />
	</node>
	<node lat="59.470883331603154" lon="5.734483334824689" id="-2594">
		<tag k="name" v="Giljevik" />
		<tag k="natural" v="bay" />
		<tag k="ssr:stedsnr" v="117103" />
	</node>
	<node lat="59.580561109155454" lon="5.927802782611269" id="-2597">
		<tag k="name" v="Kuhølen" />
		<tag k="place" v="locality" />
		<tag k="ssr:stedsnr" v="117204" />
	</node>
	<node lat="59.47600277822092" lon="6.07521110503784" id="-2605">
		<tag k="name" v="Elskovsbekken" />
		<tag k="ssr:stedsnr" v="119707" />
		<tag k="waterway" v="stream" />
	</node>
	<node lat="59.486452776431655" lon="5.971891674057928" id="-2607">
		<tag k="alt_name" v="Byrkjelandsvatnet" />
		<tag k="name" v="Børkjelandsvatnet" />
		<tag k="natural" v="water" />
		<tag k="ssr:stedsnr" v="123312" />
		<tag k="water" v="lake" />
	</node>
	<node lat="59.478077775119324" lon="5.835447217067077" id="-2609">
		<tag k="alt_name" v="Svartetjørna" />
		<tag k="name" v="Svartatjørna" />
		<tag k="natural" v="water" />
		<tag k="ssr:stedsnr" v="123806" />
	</node>
	<node lat="59.59415278009854" lon="5.639738881263739" id="-2618">
		<tag k="name" v="Langavatnet" />
		<tag k="natural" v="water" />
		<tag k="ssr:stedsnr" v="124320" />
		<tag k="water" v="lake" />
	</node>
	<node lat="59.56212102669254" lon="5.941910200913283" id="-2625">
		<tag k="alt_name" v="Longvatnet" />
		<tag k="name" v="Langavatnet" />
		<tag k="natural" v="water" />
		<tag k="ssr:stedsnr" v="124525" />
		<tag k="water" v="lake" />
	</node>
	<node lat="59.50031973159063" lon="5.4927078235409885" id="-2627">
		<tag k="alt_name" v="Tosvoll-løkjene" />
		<tag k="name" v="Tosvolltjørna" />
		<tag k="natural" v="water" />
		<tag k="ssr:stedsnr" v="124556" />
	</node>
	<node lat="59.47938055230938" lon="5.702113880560727" id="-2656">
		<tag k="name" v="Frølandselva" />
		<tag k="ssr:stedsnr" v="180009" />
		<tag k="waterway" v="river" />
	</node>
	<node lat="59.57372912546569" lon="5.707934464103759" id="-2671">
		<tag k="alt_name" v="Eikjelandsvatnet;Eikelandsvatnet" />
		<tag k="name" v="Eikelandstjørna" />
		<tag k="natural" v="water" />
		<tag k="ssr:stedsnr" v="185323" />
	</node>
	<node lat="59.57987499810179" lon="5.754827785777741" id="-2672">
		<tag k="alt_name" v="Vågstjørn" />
		<tag k="name" v="Vågstjørna" />
		<tag k="natural" v="water" />
		<tag k="ssr:stedsnr" v="185342" />
	</node>
	<node lat="59.52910833423226" lon="5.559886103587665" id="-2684">
		<tag k="name" v="Granholmen" />
		<tag k="place" v="islet" />
		<tag k="ssr:stedsnr" v="265689" />
	</node>
	<node lat="59.501716666377675" lon="5.476225008823481" id="-2697">
		<tag k="name" v="Kvednabekken" />
		<tag k="ssr:stedsnr" v="269770" />
		<tag k="waterway" v="stream" />
	</node>
	<node lat="59.576119445768065" lon="5.604427779227341" id="-2698">
		<tag k="name" v="Hestadalstjørna" />
		<tag k="natural" v="water" />
		<tag k="ssr:stedsnr" v="220079" />
	</node>
	<node lat="59.56808888870749" lon="5.620222230674619" id="-2699">
		<tag k="name" v="Midtre Mørkadalsvatnet" />
		<tag k="natural" v="water" />
		<tag k="ssr:stedsnr" v="221121" />
		<tag k="water" v="lake" />
	</node>
	<node lat="59.50751111538465" lon="6.104902779650305" id="-2713">
		<tag k="name" v="Ytra Holsnesvatnet" />
		<tag k="natural" v="water" />
		<tag k="ssr:stedsnr" v="238533" />
		<tag k="water" v="lake" />
	</node>
	<node lat="59.56850277990718" lon="6.093888891033373" id="-2726">
		<tag k="name" v="Hestaneset" />
		<tag k="natural" v="cape" />
		<tag k="ssr:stedsnr" v="451280" />
	</node>
	<node lat="59.501430559085414" lon="5.679763882512314" id="-2731">
		<tag k="alt_name" v="Mosarevatnet" />
		<tag k="name" v="Mosarevvatnet" />
		<tag k="natural" v="water" />
		<tag k="ssr:stedsnr" v="245627" />
		<tag k="water" v="lake" />
	</node>
	<node lat="59.50616944065508" lon="6.085516673482343" id="-2744">
		<tag k="alt_name" v="Krokadalsvatnet" />
		<tag k="name" v="Kråkedalsvatnet" />
		<tag k="natural" v="water" />
		<tag k="ssr:stedsnr" v="246926" />
		<tag k="water" v="lake" />
	</node>
	<node lat="59.51298333693462" lon="5.918172225590883" id="-2747">
		<tag k="alt_name" v="Vikadalsåna;Vikadalselva;Vikedalselva" />
		<tag k="name" v="Vikedalsåna" />
		<tag k="ssr:stedsnr" v="246876" />
		<tag k="waterway" v="river" />
	</node>
	<node lat="59.53655555246973" lon="5.601688883586707" id="-2760">
		<tag k="alt_name" v="Tritjødnebekken" />
		<tag k="name" v="Tritjørnebekken" />
		<tag k="ssr:stedsnr" v="283785" />
		<tag k="waterway" v="stream" />
	</node>
	<node lat="59.571238891163105" lon="5.679002771490967" id="-2774">
		<tag k="name" v="Nøkkatjørna" />
		<tag k="natural" v="water" />
		<tag k="ssr:stedsnr" v="300978" />
	</node>
	<node lat="59.51061944898182" lon="5.87423334170821" id="-2775">
		<tag k="name" v="Sandhamarbekken" />
		<tag k="ssr:stedsnr" v="301178" />
		<tag k="waterway" v="stream" />
	</node>
	<node lat="59.488293614498225" lon="5.68235955460611" id="-2787">
		<tag k="name" v="Holmavatnet" />
		<tag k="natural" v="water" />
		<tag k="ssr:stedsnr" v="305859" />
		<tag k="water" v="lake" />
	</node>
	<node lat="59.596158334862224" lon="5.956563892008215" id="-2795">
		<tag k="alt_name" v="Forevasselva" />
		<tag k="name" v="Furevasselva" />
		<tag k="ssr:stedsnr" v="306526" />
		<tag k="waterway" v="river" />
	</node>
	<node lat="59.54939722297004" lon="6.065183336092322" id="-2796">
		<tag k="alt_name" v="Træselva" />
		<tag k="name" v="Trædselva" />
		<tag k="ssr:stedsnr" v="306570" />
		<tag k="waterway" v="river" />
	</node>
	<node lat="59.48895555632132" lon="5.527011113515437" id="-2803">
		<tag k="alt_name" v="Vestråtjørna" />
		<tag k="name" v="Mortveittjørna" />
		<tag k="natural" v="water" />
		<tag k="ssr:stedsnr" v="306869" />
	</node>
	<node lat="59.49671666699367" lon="5.731422214069506" id="-2825">
		<tag k="name" v="Gurines" />
		<tag k="natural" v="cape" />
		<tag k="ssr:stedsnr" v="359049" />
	</node>
	<node lat="59.479038884996186" lon="5.733166675273242" id="-2826">
		<tag k="name" v="Åmselva" />
		<tag k="ssr:stedsnr" v="359051" />
		<tag k="waterway" v="river" />
	</node>
	<node lat="59.58073055410927" lon="5.89127221576694" id="-2827">
		<tag k="name" v="Nipetjørna" />
		<tag k="natural" v="water" />
		<tag k="ssr:stedsnr" v="359207" />
	</node>
	<node lat="59.60695000151945" lon="5.831024993692831" id="-2842">
		<tag k="name" v="Oselva" />
		<tag k="ssr:stedsnr" v="367334" />
		<tag k="waterway" v="stream" />
	</node>
	<node lat="59.604111111301215" lon="5.929777774140347" id="-2852">
		<tag k="alt_name" v="Trodlatjørna" />
		<tag k="name" v="Trollatjørna" />
		<tag k="natural" v="water" />
		<tag k="ssr:stedsnr" v="367497" />
	</node>
	<node lat="59.53250555188633" lon="5.894108332822874" id="-2859">
		<tag k="alt_name" v="Grautåna" />
		<tag k="name" v="Grautåbekken" />
		<tag k="ssr:stedsnr" v="367587" />
		<tag k="waterway" v="stream" />
	</node>
	<node lat="59.545555551324554" lon="5.757858328848295" id="-2862">
		<tag k="name" v="Trettetjørnene" />
		<tag k="natural" v="water" />
		<tag k="ssr:stedsnr" v="481546" />
		<tag k="water" v="lake" />
	</node>
	<node lat="59.581783332684594" lon="5.928238885231599" id="-2864">
		<tag k="name" v="Sandvodno" />
		<tag k="place" v="locality" />
		<tag k="ssr:stedsnr" v="481185" />
	</node>
	<node lat="59.476336365394" lon="5.818895924678362" id="-2870">
		<tag k="name" v="Kleivavika" />
		<tag k="natural" v="bay" />
		<tag k="ssr:stedsnr" v="481213" />
	</node>
	<node lat="59.52334721835588" lon="5.681577781327294" id="-2876">
		<tag k="name" v="Stemmetjørna" />
		<tag k="natural" v="water" />
		<tag k="ssr:stedsnr" v="481588" />
	</node>
	<node lat="59.59210277730277" lon="5.686691673311164" id="-2878">
		<tag k="name" v="Gronstølstjørna" />
		<tag k="natural" v="water" />
		<tag k="ssr:stedsnr" v="481825" />
	</node>
	<node lat="59.54619166789086" lon="5.874775005399823" id="-2883">
		<tag k="name" v="Hålandselva" />
		<tag k="ssr:stedsnr" v="482794" />
		<tag k="waterway" v="river" />
	</node>
	<node lat="59.52712222174176" lon="5.821491666838942" id="-2884">
		<tag k="name" v="Juvbekken" />
		<tag k="ssr:stedsnr" v="482909" />
		<tag k="waterway" v="stream" />
	</node>
	<node lat="59.56859444053575" lon="5.691291666764571" id="-2887">
		<tag k="name" v="Kvednabekken" />
		<tag k="ssr:stedsnr" v="482987" />
		<tag k="waterway" v="stream" />
	</node>
	<node lat="59.446633337543034" lon="5.739013895457211" id="-2892">
		<tag k="name" v="Raunesbekken" />
		<tag k="ssr:stedsnr" v="483944" />
		<tag k="waterway" v="stream" />
	</node>
	<node lat="59.48377777420549" lon="6.074166669683152" id="-2904">
		<tag k="name" v="Akslandstjørna" />
		<tag k="natural" v="water" />
		<tag k="ssr:stedsnr" v="487328" />
	</node>
	<node lat="59.58317500067553" lon="5.735727777724778" id="-2917">
		<tag k="name" v="Storebekken" />
		<tag k="ssr:stedsnr" v="488330" />
		<tag k="waterway" v="stream" />
	</node>
	<node lat="59.563530554511466" lon="6.144675008615936" id="-2927">
		<tag k="name" v="Risvatnet" />
		<tag k="natural" v="water" />
		<tag k="ssr:stedsnr" v="488586" />
		<tag k="water" v="lake" />
	</node>
	<node lat="59.48383055782341" lon="5.841058325265567" id="-2937">
		<tag k="name" v="Ulledalsbekken" />
		<tag k="ssr:stedsnr" v="420242" />
		<tag k="waterway" v="stream" />
	</node>
	<node lat="59.638627776345366" lon="5.605099997180512" id="-2960">
		<tag k="name" v="Dalselva" />
		<tag k="ssr:stedsnr" v="489481" />
		<tag k="waterway" v="river" />
	</node>
	<node lat="59.5444194489224" lon="5.700955555860545" id="-2961">
		<tag k="name" v="Alvseikjeåna" />
		<tag k="ssr:stedsnr" v="423706" />
		<tag k="waterway" v="stream" />
	</node>
	<node lat="59.44512100374266" lon="5.702379920072906" id="-2971">
		<tag k="name" v="Dalatjørna" />
		<tag k="natural" v="water" />
		<tag k="ssr:stedsnr" v="427718" />
	</node>
	<node lat="59.471995933326205" lon="5.500565899223759" id="-2973">
		<tag k="fixme" v="multiple name tags, choose one and add the other to alt_name" />
		<tag k="name" v="Stemmetjørna;Kalvalandsstemmen" />
		<tag k="natural" v="water" />
		<tag k="ssr:stedsnr" v="427776" />
	</node>
	<node lat="59.5293432667132" lon="5.564422821940236" id="-2980">
		<tag k="alt_name" v="Malasetvatn;Moldesetervatnet" />
		<tag k="name" v="Malasetvatnet" />
		<tag k="natural" v="water" />
		<tag k="ssr:stedsnr" v="428261" />
		<tag k="water" v="lake" />
	</node>
	<node lat="59.527638890557206" lon="5.559219447631842" id="-2981">
		<tag k="name" v="Epleholmen" />
		<tag k="place" v="islet" />
		<tag k="ssr:stedsnr" v="428268" />
	</node>
	<node lat="59.588027527643874" lon="6.124750035507758" id="-2987">
		<tag k="name" v="Botnavatnet" />
		<tag k="natural" v="water" />
		<tag k="ssr:stedsnr" v="428523" />
		<tag k="water" v="lake" />
	</node>
	<node lat="59.64960833626821" lon="5.658499998333814" id="-3011">
		<tag k="name" v="Bjoavatnet" />
		<tag k="natural" v="water" />
		<tag k="ssr:stedsnr" v="671470" />
		<tag k="water" v="lake" />
	</node>
	<node lat="59.485699996044886" lon="6.110800002852465" id="-3018">
		<tag k="name" v="Kråkedalstjørna" />
		<tag k="natural" v="water" />
		<tag k="ssr:stedsnr" v="479620" />
	</node>
	<node lat="59.53330555138465" lon="5.907691672809677" id="-3034">
		<tag k="name" v="Durmåltjørn" />
		<tag k="natural" v="water" />
		<tag k="ssr:stedsnr" v="483240" />
	</node>
	<node lat="59.62979310480237" lon="5.828980964636523" id="-3047">
		<tag k="name" v="Langavatnet" />
		<tag k="natural" v="water" />
		<tag k="ssr:stedsnr" v="488410" />
	</node>
	<node lat="59.61501666852625" lon="5.592563889527251" id="-3061">
		<tag k="name" v="Vasslivatnet" />
		<tag k="natural" v="water" />
		<tag k="ssr:stedsnr" v="489104" />
		<tag k="water" v="lake" />
	</node>
	<node lat="59.530086114602035" lon="6.128486104951552" id="-3062">
		<tag k="alt_name" v="Trodlabotnvatnet" />
		<tag k="name" v="Trollabotnsvatnet" />
		<tag k="natural" v="water" />
		<tag k="ssr:stedsnr" v="488893" />
		<tag k="water" v="lake" />
	</node>
	<node lat="59.57081389265339" lon="5.6101111189520045" id="-3065">
		<tag k="name" v="Holmavatnet" />
		<tag k="natural" v="water" />
		<tag k="ssr:stedsnr" v="489344" />
	</node>
	<node lat="59.51583333169759" lon="5.5204777740873965" id="-3068">
		<tag k="name" v="Kvednabekken" />
		<tag k="ssr:stedsnr" v="508715" />
		<tag k="waterway" v="stream" />
	</node>
	<node lat="59.54661666898739" lon="6.033108329434079" id="-3084">
		<tag k="name" v="Træå" />
		<tag k="place" v="locality" />
		<tag k="ssr:stedsnr" v="542469" />
	</node>
	<node lat="59.57174444135719" lon="6.0735972288284605" id="-3089">
		<tag k="name" v="Barlundbekken" />
		<tag k="ssr:stedsnr" v="543318" />
		<tag k="waterway" v="stream" />
	</node>
	<node lat="59.57074722470994" lon="5.9446027738320195" id="-3090">
		<tag k="name" v="Mørkavasstjørna" />
		<tag k="natural" v="water" />
		<tag k="ssr:stedsnr" v="543482" />
	</node>
	<node lat="59.514774999908006" lon="5.790630549590276" id="-3091">
		<tag k="name" v="Stuttanes" />
		<tag k="natural" v="cape" />
		<tag k="ssr:stedsnr" v="543879" />
	</node>
	<node lat="59.552652778392186" lon="5.67470834099483" id="-3097">
		<tag k="name" v="Vatnadalsbekken" />
		<tag k="ssr:stedsnr" v="543988" />
		<tag k="waterway" v="stream" />
	</node>
	<node lat="59.53609722549063" lon="5.708086107431229" id="-3100">
		<tag k="name" v="Klopparvika" />
		<tag k="natural" v="bay" />
		<tag k="ssr:stedsnr" v="544684" />
	</node>
	<node lat="59.519613887579354" lon="5.775455547637641" id="-3102">
		<tag k="name" v="Døldå" />
		<tag k="ssr:stedsnr" v="544884" />
		<tag k="waterway" v="river" />
	</node>
	<node lat="59.47196379684299" lon="5.647767928519229" id="-3108">
		<tag k="alt_name" v="Longalandsvatnet" />
		<tag k="name" v="Langalandsvatnet" />
		<tag k="natural" v="water" />
		<tag k="ssr:stedsnr" v="548806" />
		<tag k="water" v="lake" />
	</node>
	<node lat="59.473905973630075" lon="5.718589924064932" id="-3111">
		<tag k="name" v="Rakkartjørna" />
		<tag k="natural" v="water" />
		<tag k="ssr:stedsnr" v="548815" />
	</node>
	<node lat="59.47850277935047" lon="5.532066671928001" id="-3112">
		<tag k="alt_name" v="Liaelva" />
		<tag k="name" v="Lielva" />
		<tag k="ssr:stedsnr" v="548819" />
		<tag k="waterway" v="stream" />
	</node>
	<node lat="59.45074967369908" lon="5.692296496958721" id="-3115">
		<tag k="name" v="Gåsvatnet" />
		<tag k="natural" v="water" />
		<tag k="ssr:stedsnr" v="548759" />
		<tag k="water" v="lake" />
	</node>
	<node lat="59.46091666438462" lon="5.822930548235783" id="-3116">
		<tag k="alt_name" v="Håfjellstjørna" />
		<tag k="name" v="Hovfjellstjørna" />
		<tag k="natural" v="water" />
		<tag k="ssr:stedsnr" v="548770" />
	</node>
	<node lat="59.642816521284715" lon="5.586825909249051" id="-3126">
		<tag k="alt_name" v="Rådalstjørn" />
		<tag k="name" v="Rådalstjørna" />
		<tag k="natural" v="water" />
		<tag k="ssr:stedsnr" v="549428" />
	</node>
	<node lat="59.49375000015967" lon="5.637091667860659" id="-3135">
		<tag k="name" v="Sagelva" />
		<tag k="ssr:stedsnr" v="690701" />
		<tag k="waterway" v="river" />
	</node>
	<node lat="59.50768610847738" lon="5.720494441623249" id="-3148">
		<tag k="name" v="Grautenes" />
		<tag k="natural" v="cape" />
		<tag k="ssr:stedsnr" v="602060" />
	</node>
	<node lat="59.593022225822295" lon="5.936466657566527" id="-3149">
		<tag k="name" v="Ongelsbekken" />
		<tag k="ssr:stedsnr" v="602214" />
		<tag k="waterway" v="stream" />
	</node>
	<node lat="59.48845555758392" lon="5.697744451306964" id="-3162">
		<tag k="name" v="Stemmebekken" />
		<tag k="ssr:stedsnr" v="604906" />
		<tag k="waterway" v="stream" />
	</node>
	<node lat="59.544697352695394" lon="5.624140740787392" id="-3171">
		<tag k="alt_name" v="Longåsdalsvatnet" />
		<tag k="name" v="Langåsdalsvatnet" />
		<tag k="natural" v="water" />
		<tag k="ssr:stedsnr" v="609288" />
		<tag k="water" v="lake" />
	</node>
	<node lat="59.56371388647738" lon="6.038188894819809" id="-3180">
		<tag k="alt_name" v="Skåtanes" />
		<tag k="name" v="Skotanes" />
		<tag k="natural" v="cape" />
		<tag k="ssr:stedsnr" v="609558" />
	</node>
	<node lat="59.57658719333918" lon="5.7649480609548185" id="-3185">
		<tag k="alt_name" v="Gjerdevikstjørn" />
		<tag k="name" v="Gjerdesviktjørna" />
		<tag k="natural" v="water" />
		<tag k="ssr:stedsnr" v="610383" />
	</node>
	<node lat="59.494358336444066" lon="5.555752777148084" id="-3187">
		<tag k="name" v="Kvednabekken" />
		<tag k="ssr:stedsnr" v="629705" />
		<tag k="waterway" v="stream" />
	</node>
	<node lat="59.56864444774781" lon="5.615952777945032" id="-3190">
		<tag k="name" v="Ytre Mørkadalsvatnet" />
		<tag k="natural" v="water" />
		<tag k="ssr:stedsnr" v="707148" />
		<tag k="water" v="lake" />
	</node>
	<node lat="59.557138889830455" lon="6.1093694483212255" id="-3201">
		<tag k="name" v="Litlaåna" />
		<tag k="ssr:stedsnr" v="661984" />
		<tag k="waterway" v="river" />
	</node>
	<node lat="59.526808334086695" lon="6.031752779821382" id="-3204">
		<tag k="name" v="Dyråna" />
		<tag k="ssr:stedsnr" v="663031" />
		<tag k="waterway" v="river" />
	</node>
	<node lat="59.595791664299675" lon="6.0753166698472345" id="-3213">
		<tag k="name" v="Flåtavassneset" />
		<tag k="natural" v="cape" />
		<tag k="ssr:stedsnr" v="664286" />
	</node>
	<node lat="59.469783331894426" lon="5.697502772012678" id="-3214">
		<tag k="name" v="Røndalsbekken" />
		<tag k="ssr:stedsnr" v="665036" />
		<tag k="waterway" v="stream" />
	</node>
	<node lat="59.45426944250242" lon="5.504844452751062" id="-3226">
		<tag k="name" v="Torvtjørna" />
		<tag k="natural" v="water" />
		<tag k="ssr:stedsnr" v="667120" />
	</node>
	<node lat="59.46883888793614" lon="5.492811111110244" id="-3227">
		<tag k="name" v="Kalvalandstjørna" />
		<tag k="natural" v="water" />
		<tag k="ssr:stedsnr" v="667129" />
	</node>
	<node lat="59.53764444336212" lon="5.6381305507724155" id="-3233">
		<tag k="name" v="Stemmetjørna" />
		<tag k="natural" v="water" />
		<tag k="ssr:stedsnr" v="670276" />
	</node>
	<node lat="59.54523055552659" lon="5.622869451761465" id="-3248">
		<tag k="name" v="Lyngnes" />
		<tag k="natural" v="cape" />
		<tag k="ssr:stedsnr" v="890830" />
	</node>
	<node lat="59.51681111137903" lon="5.629363884703516" id="-3252">
		<tag k="name" v="Sørhuselva" />
		<tag k="ssr:stedsnr" v="690706" />
		<tag k="waterway" v="river" />
	</node>
	<node lat="59.53612663059527" lon="5.60635832826975" id="-3253">
		<tag k="alt_name" v="Tritjødnane" />
		<tag k="name" v="Tritjørnene" />
		<tag k="natural" v="water" />
		<tag k="ssr:stedsnr" v="690711" />
		<tag k="water" v="lake" />
	</node>
	<node lat="59.49614444484095" lon="5.809366664141297" id="-3267">
		<tag k="name" v="Juvbekken" />
		<tag k="ssr:stedsnr" v="723082" />
		<tag k="waterway" v="stream" />
	</node>
	<node lat="59.497869442541116" lon="6.004041664392299" id="-3272">
		<tag k="name" v="Øreholmen" />
		<tag k="place" v="islet" />
		<tag k="ssr:stedsnr" v="724270" />
	</node>
	<node lat="59.53772222039806" lon="5.710566658736377" id="-3280">
		<tag k="name" v="Språktveitneset" />
		<tag k="natural" v="cape" />
		<tag k="ssr:stedsnr" v="726692" />
	</node>
	<node lat="59.55897777510332" lon="5.601136117787955" id="-3292">
		<tag k="name" v="Skinåstjørna" />
		<tag k="natural" v="water" />
		<tag k="ssr:stedsnr" v="731276" />
		<tag k="water" v="lake" />
	</node>
	<node lat="59.58311868700686" lon="5.846106092248844" id="-3297">
		<tag k="loc_name" v="Øklandsvatnet" />
		<tag k="name" v="Auklandsvatnet" />
		<tag k="natural" v="water" />
		<tag k="ssr:stedsnr" v="731315" />
		<tag k="water" v="lake" />
	</node>
	<node lat="59.5764750024612" lon="5.636577771669789" id="-3299">
		<tag k="alt_name" v="Mårgansvatnet" />
		<tag k="name" v="Morgonsvatnet" />
		<tag k="natural" v="water" />
		<tag k="ssr:stedsnr" v="731323" />
		<tag k="water" v="lake" />
	</node>
	<node lat="59.45592005316406" lon="5.658329011528364" id="-3305">
		<tag k="alt_name" v="Navarsvatnet" />
		<tag k="name" v="Navaren" />
		<tag k="natural" v="water" />
		<tag k="ssr:stedsnr" v="731753" />
		<tag k="water" v="lake" />
	</node>
	<node lat="59.4973686220208" lon="5.640559876097658" id="-3306">
		<tag k="alt_name" v="Svanarvatnet" />
		<tag k="name" v="Svanavatnet" />
		<tag k="natural" v="water" />
		<tag k="ssr:stedsnr" v="731853" />
		<tag k="water" v="lake" />
	</node>
	<node lat="59.512618055897924" lon="5.714037851404345" id="-3307">
		<tag k="alt_name" v="Storavatnet" />
		<tag k="name" v="Vatsvatnet" />
		<tag k="natural" v="water" />
		<tag k="ssr:stedsnr" v="731857" />
		<tag k="water" v="lake" />
	</node>
	<node lat="59.48686666291715" lon="5.495247227161319" id="-3312">
		<tag k="name" v="Naustdaltjørna" />
		<tag k="natural" v="water" />
		<tag k="ssr:stedsnr" v="751710" />
	</node>
	<node lat="59.50072777532463" lon="6.137191671789085" id="-3315">
		<tag k="name" v="Sabekken" />
		<tag k="ssr:stedsnr" v="904623" />
		<tag k="waterway" v="stream" />
	</node>
	<node lat="59.50640277612448" lon="6.114030557094638" id="-3316">
		<tag k="name" v="Indre Holsnevatnet" />
		<tag k="natural" v="water" />
		<tag k="ssr:stedsnr" v="904627" />
		<tag k="water" v="lake" />
	</node>
	<node lat="59.49943889148536" lon="6.04288889613356" id="-3323">
		<tag k="name" v="Skiftesneset" />
		<tag k="natural" v="cape" />
		<tag k="ssr:stedsnr" v="906299" />
	</node>
	<node lat="59.512288888784276" lon="5.782733330939117" id="-3335">
		<tag k="name" v="Longanes" />
		<tag k="natural" v="cape" />
		<tag k="ssr:stedsnr" v="907870" />
	</node>
	<node lat="59.568561110520086" lon="5.988405561691191" id="-3338">
		<tag k="name" v="Skjenstø" />
		<tag k="natural" v="water" />
		<tag k="ssr:stedsnr" v="908522" />
	</node>
	<node lat="59.47557221896264" lon="5.677683338466992" id="-3343">
		<tag k="name" v="Løkjen" />
		<tag k="natural" v="water" />
		<tag k="ssr:stedsnr" v="908984" />
		<tag k="water" v="lake" />
	</node>
	<node lat="59.531647225510994" lon="5.736369441210794" id="-3359">
		<tag k="name" v="Blikraåna" />
		<tag k="ssr:stedsnr" v="784553" />
		<tag k="waterway" v="river" />
	</node>
	<node lat="59.54852499877203" lon="5.752969440662084" id="-3360">
		<tag k="name" v="Kjeaskårtjørna" />
		<tag k="natural" v="water" />
		<tag k="ssr:stedsnr" v="784562" />
	</node>
	<node lat="59.451830559481564" lon="5.802355548191386" id="-3367">
		<tag k="name" v="Kvednabekken" />
		<tag k="ssr:stedsnr" v="786918" />
		<tag k="waterway" v="stream" />
	</node>
	<node lat="59.448947226584814" lon="5.715844446758071" id="-3370">
		<tag k="name" v="Stemmen" />
		<tag k="natural" v="water" />
		<tag k="ssr:stedsnr" v="786947" />
	</node>
	<node lat="59.48151666991699" lon="5.5397138805023465" id="-3372">
		<tag k="name" v="Vestråelva" />
		<tag k="ssr:stedsnr" v="788101" />
		<tag k="waterway" v="river" />
	</node>
	<node lat="59.62225000029337" lon="5.675133337497938" id="-3387">
		<tag k="alt_name" v="Vikeelva" />
		<tag k="name" v="Vikelva" />
		<tag k="ssr:stedsnr" v="792403" />
		<tag k="waterway" v="stream" />
	</node>
	<node lat="59.56871388689627" lon="5.615830555999112" id="-3392">
		<tag k="name" v="Mørkadalsvatnet" />
		<tag k="natural" v="water" />
		<tag k="ssr:stedsnr" v="792328" />
		<tag k="water" v="lake" />
	</node>
	<node lat="59.61655833767913" lon="5.616838886013659" id="-3399">
		<tag k="alt_name" v="Dyrskårvatnet;Dyraskorvatnet;Dyraskorvatn" />
		<tag k="name" v="Dyraskarvatnet" />
		<tag k="natural" v="water" />
		<tag k="ssr:stedsnr" v="792387" />
		<tag k="water" v="lake" />
	</node>
	<node lat="59.6214055544315" lon="5.663002781770876" id="-3400">
		<tag k="name" v="Tverselva" />
		<tag k="ssr:stedsnr" v="792400" />
		<tag k="waterway" v="stream" />
	</node>
	<node lat="59.534947221966895" lon="5.9764194376232265" id="-3402">
		<tag k="alt_name" v="Låkafossen" />
		<tag k="name" v="Lokafoss" />
		<tag k="natural" v="waterfall" />
		<tag k="ssr:stedsnr" v="792607" />
	</node>
	<node lat="59.60155277854046" lon="5.854900002873624" id="-3404">
		<tag k="alt_name" v="Juvelva" />
		<tag k="name" v="Gjuvelva" />
		<tag k="ssr:stedsnr" v="792530" />
		<tag k="waterway" v="stream" />
	</node>
	<node lat="59.593227782159914" lon="6.076527774912683" id="-3405">
		<tag k="alt_name" v="Flåtavatnet" />
		<tag k="name" v="Flotavatnet" />
		<tag k="natural" v="water" />
		<tag k="ssr:stedsnr" v="792539" />
		<tag k="water" v="lake" />
	</node>
	<node lat="59.5449203054363" lon="6.111995509063127" id="-3409">
		<tag k="name" v="Gullvatna" />
		<tag k="natural" v="water" />
		<tag k="ssr:stedsnr" v="792600" />
		<tag k="water" v="lake" />
	</node>
	<node lat="59.52970999737063" lon="5.594032793596082" id="-3417">
		<tag k="name" v="Holmavatnet" />
		<tag k="natural" v="water" />
		<tag k="ssr:stedsnr" v="913269" />
		<tag k="water" v="lake" />
	</node>
	<node lat="59.53066666451572" lon="5.59419721935456" id="-3418">
		<tag k="name" v="Bjordalsholmen" />
		<tag k="place" v="islet" />
		<tag k="ssr:stedsnr" v="913270" />
	</node>
	<node lat="59.587272221428066" lon="5.66731944637526" id="-3423">
		<tag k="alt_name" v="Fisketjørn" />
		<tag k="name" v="Fisketjørna" />
		<tag k="natural" v="water" />
		<tag k="ssr:stedsnr" v="913366" />
	</node>
	<node lat="59.6389305548993" lon="5.688175006882307" id="-3426">
		<tag k="name" v="Hetlandstjørna" />
		<tag k="natural" v="water" />
		<tag k="ssr:stedsnr" v="913439" />
	</node>
	<node lat="59.56580277525011" lon="5.960830556686073" id="-3434">
		<tag k="alt_name" v="Litleelva" />
		<tag k="name" v="Litlelva" />
		<tag k="ssr:stedsnr" v="913565" />
		<tag k="waterway" v="stream" />
	</node>
	<node lat="59.49221256040508" lon="5.5117105787061975" id="-3444">
		<tag k="alt_name" v="Hestfjelltjørna" />
		<tag k="name" v="Hestafjelltjørna" />
		<tag k="natural" v="water" />
		<tag k="ssr:stedsnr" v="913874" />
	</node>
	<node lat="59.64188611390268" lon="5.5962277791839155" id="-3449">
		<tag k="name" v="Utruno" />
		<tag k="natural" v="water" />
		<tag k="ssr:stedsnr" v="914467" />
	</node>
	<node lat="59.47857499859513" lon="5.486755548660567" id="-3463">
		<tag k="name" v="Munkatjørn" />
		<tag k="natural" v="water" />
		<tag k="ssr:stedsnr" v="815289" />
	</node>
	<node lat="59.44026944533845" lon="5.707494437751052" id="-3468">
		<tag k="name" v="Løkjene" />
		<tag k="natural" v="water" />
		<tag k="ssr:stedsnr" v="842590" />
		<tag k="water" v="lake" />
	</node>
	<node lat="59.47746067403365" lon="5.808579619980793" id="-3474">
		<tag k="name" v="Vassvika" />
		<tag k="natural" v="bay" />
		<tag k="ssr:stedsnr" v="845194" />
	</node>
	<node lat="59.58897222092049" lon="5.89010277506452" id="-3478">
		<tag k="name" v="Frølandsvad" />
		<tag k="place" v="locality" />
		<tag k="ssr:stedsnr" v="845225" />
	</node>
	<node lat="59.5221361148381" lon="6.043252785202492" id="-3487">
		<tag k="name" v="Fevatnet" />
		<tag k="natural" v="water" />
		<tag k="ssr:stedsnr" v="847406" />
		<tag k="water" v="lake" />
	</node>
	<node lat="59.57076389057925" lon="5.685480546858701" id="-3493">
		<tag k="name" v="Stemmetjørna" />
		<tag k="natural" v="water" />
		<tag k="ssr:stedsnr" v="847987" />
	</node>
	<node lat="59.566667742009244" lon="5.707512730514455" id="-3494">
		<tag k="name" v="Midttjørna" />
		<tag k="natural" v="water" />
		<tag k="ssr:stedsnr" v="847991" />
	</node>
	<node lat="59.47521111101419" lon="5.8139555599729205" id="-3504">
		<tag k="name" v="Stokkadalsvatnet" />
		<tag k="natural" v="water" />
		<tag k="ssr:stedsnr" v="852777" />
		<tag k="water" v="lake" />
	</node>
	<node lat="59.48323888496503" lon="5.690197224541456" id="-3506">
		<tag k="name" v="Løypetjørna" />
		<tag k="natural" v="water" />
		<tag k="ssr:stedsnr" v="852813" />
	</node>
	<node lat="59.653399998040435" lon="5.56380554882142" id="-3508">
		<tag k="name" v="Rullesviktjørna" />
		<tag k="natural" v="water" />
		<tag k="ssr:stedsnr" v="853022" />
	</node>
	<node lat="59.5350444423172" lon="5.624861107371957" id="-3510">
		<tag k="alt_name" v="Paddetjørn" />
		<tag k="name" v="Paddetjørna" />
		<tag k="natural" v="water" />
		<tag k="ssr:stedsnr" v="853270" />
	</node>
	<node lat="59.628844440419485" lon="5.7127333373330265" id="-3512">
		<tag k="name" v="Skrubburdvatnet" />
		<tag k="natural" v="water" />
		<tag k="ssr:stedsnr" v="853428" />
		<tag k="water" v="lake" />
	</node>
	<node lat="59.57645555272056" lon="6.13156667122267" id="-3515">
		<tag k="name" v="Sørelva" />
		<tag k="ssr:stedsnr" v="853561" />
		<tag k="waterway" v="stream" />
	</node>
	<node lat="59.58874167004999" lon="5.610413890940194" id="-3523">
		<tag k="name" v="Vikelva" />
		<tag k="ssr:stedsnr" v="854066" />
		<tag k="waterway" v="stream" />
	</node>
	<node lat="59.49669722386719" lon="5.896374998490919" id="-3530">
		<tag k="alt_name" v="Vikadalsosen" />
		<tag k="name" v="Vikedalsosen" />
		<tag k="natural" v="bay" />
		<tag k="ssr:stedsnr" v="891556" />
	</node>
	<node lat="59.48279722618759" lon="5.734674992156803" id="-3535">
		<tag k="name" v="Biskopbekken" />
		<tag k="ssr:stedsnr" v="906107" />
		<tag k="waterway" v="stream" />
	</node>
	<node lat="59.538869445505696" lon="5.7153555483213" id="-3543">
		<tag k="name" v="Landabekken" />
		<tag k="ssr:stedsnr" v="906522" />
		<tag k="waterway" v="stream" />
	</node>
	<node lat="59.51750277352825" lon="5.8072944457136835" id="-3550">
		<tag k="name" v="Ileelva" />
		<tag k="ssr:stedsnr" v="907814" />
		<tag k="waterway" v="river" />
	</node>
	<node lat="59.532461112599925" lon="5.795741669262767" id="-3562">
		<tag k="name" v="Vilandsbekken" />
		<tag k="ssr:stedsnr" v="913240" />
		<tag k="waterway" v="stream" />
	</node>
	<node lat="59.60547500370389" lon="5.635225003394156" id="-3566">
		<tag k="alt_name" v="Trollavatnet" />
		<tag k="name" v="Trollvatnet" />
		<tag k="natural" v="water" />
		<tag k="ssr:stedsnr" v="913382" />
	</node>
	<node lat="59.53110833718176" lon="6.099641665130493" id="-3576">
		<tag k="name" v="Damsvatnet" />
		<tag k="natural" v="water" />
		<tag k="ssr:stedsnr" v="913900" />
		<tag k="water" v="lake" />
	</node>
	<node lat="59.52519166799599" lon="5.699405550108732" id="-3589">
		<tag k="name" v="Sjurseikjeneset" />
		<tag k="natural" v="cape" />
		<tag k="ssr:stedsnr" v="966590" />
	</node>
	<node lat="59.67231874328375" lon="5.589986573159645" id="-3623">
		<tag k="name" v="Kvednabekken" />
		<tag k="ssr:stedsnr" v="972613" />
		<tag k="waterway" v="stream" />
	</node>
	<node lat="59.670569423168715" lon="5.738763306296589" id="-3643">
		<tag k="name" v="Herøytangen" />
		<tag k="natural" v="cape" />
		<tag k="ssr:stedsnr" v="973170" />
	</node>
	<node lat="59.65097028055705" lon="5.727753303008167" id="-3662">
		<tag k="name" v="Saltvikbekken" />
		<tag k="ssr:stedsnr" v="973779" />
		<tag k="waterway" v="stream" />
	</node>
	<node lat="59.6191304626716" lon="5.870030051033826" id="-3694">
		<tag k="name" v="Kamphaugbekken" />
		<tag k="ssr:stedsnr" v="974861" />
		<tag k="waterway" v="stream" />
	</node>
	<node lat="59.62843279357464" lon="5.725283227040094" id="-3710">
		<tag k="name" v="Gamlestemma" />
		<tag k="natural" v="water" />
		<tag k="ssr:stedsnr" v="974809" />
		<tag k="water" v="lake" />
	</node>
	<node lat="59.62554503467343" lon="5.724287783270788" id="-3712">
		<tag k="name" v="Buvatnet" />
		<tag k="natural" v="water" />
		<tag k="ssr:stedsnr" v="974811" />
		<tag k="water" v="lake" />
	</node>
	<node lat="59.62687341016102" lon="5.728345839765348" id="-3713">
		<tag k="name" v="Stemmetjørn" />
		<tag k="natural" v="water" />
		<tag k="ssr:stedsnr" v="974813" />
	</node>
	<node lat="59.623727546856884" lon="5.7143819455654095" id="-3714">
		<tag k="name" v="Lomavatna" />
		<tag k="natural" v="water" />
		<tag k="ssr:stedsnr" v="974814" />
		<tag k="water" v="lake" />
	</node>
	<node lat="59.62018981015707" lon="5.720749599000658" id="-3715">
		<tag k="name" v="Krossvatnet" />
		<tag k="natural" v="water" />
		<tag k="ssr:stedsnr" v="974815" />
		<tag k="water" v="lake" />
	</node>
	<node lat="59.6080937104521" lon="5.83760626117629" id="-3724">
		<tag k="name" v="Røsarebekken" />
		<tag k="ssr:stedsnr" v="974901" />
		<tag k="waterway" v="stream" />
	</node>
	<node lat="59.591498825340125" lon="5.728577164122457" id="-3764">
		<tag k="name" v="Hetlandselva" />
		<tag k="ssr:stedsnr" v="977272" />
		<tag k="waterway" v="stream" />
	</node>
	<node lat="59.59170351364172" lon="5.7318212532195485" id="-3765">
		<tag k="name" v="Vågselva" />
		<tag k="ssr:stedsnr" v="977273" />
		<tag k="waterway" v="river" />
	</node>
	<node lat="59.5882556679215" lon="5.752895737446004" id="-3768">
		<tag k="name" v="Skiftesbekken" />
		<tag k="ssr:stedsnr" v="977276" />
		<tag k="waterway" v="stream" />
	</node>
	<node lat="59.60888927238856" lon="5.707226599989341" id="-3775">
		<tag k="name" v="Røyretjørn" />
		<tag k="natural" v="water" />
		<tag k="ssr:stedsnr" v="977154" />
	</node>
	<node lat="59.61172904827196" lon="5.710388749045486" id="-3777">
		<tag k="name" v="Kolbeinshaugsvatnet" />
		<tag k="natural" v="water" />
		<tag k="ssr:stedsnr" v="977156" />
		<tag k="water" v="lake" />
	</node>
	<node lat="59.595882159971374" lon="5.655644300271826" id="-3782">
		<tag k="name" v="Røytetjørn" />
		<tag k="natural" v="water" />
		<tag k="ssr:stedsnr" v="977162" />
	</node>
	<node lat="59.60879327403119" lon="5.628249960779186" id="-3790">
		<tag k="name" v="Olatjørn" />
		<tag k="natural" v="water" />
		<tag k="ssr:stedsnr" v="977172" />
	</node>
	<node lat="59.59380090913579" lon="5.5887382304714475" id="-3802">
		<tag k="name" v="Plasselva" />
		<tag k="ssr:stedsnr" v="977214" />
		<tag k="waterway" v="stream" />
	</node>
	<node lat="59.530719927830745" lon="5.59040466822976" id="-3834">
		<tag k="name" v="Butangen" />
		<tag k="natural" v="cape" />
		<tag k="ssr:stedsnr" v="981062" />
	</node>
	<node lat="59.541608331679726" lon="5.586780553522841" id="-3841">
		<tag k="name" v="Bjordalsvatnet" />
		<tag k="natural" v="water" />
		<tag k="ssr:stedsnr" v="3275" />
		<tag k="water" v="lake" />
	</node>
	<node lat="59.43208610941194" lon="5.698813892885491" id="-3845">
		<tag k="alt_name" v="Hattatjørna" />
		<tag k="name" v="Hatlatjørna" />
		<tag k="natural" v="water" />
		<tag k="ssr:stedsnr" v="2023" />
	</node>
	<node lat="59.48500791118864" lon="5.502746782827254" id="-3852">
		<tag k="name" v="Vassåstjørna" />
		<tag k="natural" v="water" />
		<tag k="ssr:stedsnr" v="2856" />
	</node>
	<node lat="59.52635681689236" lon="5.688401059666514" id="-3856">
		<tag k="name" v="Røyrtjørna" />
		<tag k="natural" v="water" />
		<tag k="ssr:stedsnr" v="3224" />
	</node>
	<node lat="59.62720555427652" lon="5.858544443701116" id="-3862">
		<tag k="name" v="Stampetjørna" />
		<tag k="natural" v="water" />
		<tag k="ssr:stedsnr" v="3483" />
	</node>
	<node lat="59.571236113967096" lon="5.87066389056365" id="-3870">
		<tag k="alt_name" v="Fjellstølsbekken" />
		<tag k="name" v="Fjellstølbekken" />
		<tag k="ssr:stedsnr" v="3528" />
		<tag k="waterway" v="stream" />
	</node>
	<node lat="59.5663805569228" lon="5.949319442844518" id="-3871">
		<tag k="alt_name" v="Mørkavatnet" />
		<tag k="name" v="Mørkatjørna" />
		<tag k="natural" v="water" />
		<tag k="ssr:stedsnr" v="3542" />
		<tag k="water" v="lake" />
	</node>
	<node lat="59.54140000121113" lon="6.08663055017915" id="-3875">
		<tag k="name" v="Søtetjørn" />
		<tag k="natural" v="water" />
		<tag k="ssr:stedsnr" v="3572" />
	</node>
	<node lat="59.49290833072967" lon="6.131350001716456" id="-3892">
		<tag k="name" v="Eikjeneset" />
		<tag k="natural" v="cape" />
		<tag k="ssr:stedsnr" v="54643" />
	</node>
	<node lat="59.503597219049404" lon="5.78119166469805" id="-3894">
		<tag k="name" v="Kolltveitstranda" />
		<tag k="natural" v="beach" />
		<tag k="ssr:stedsnr" v="56065" />
	</node>
	<node lat="59.52788055255542" lon="5.700522226801741" id="-3902">
		<tag k="name" v="Grunnanes" />
		<tag k="natural" v="cape" />
		<tag k="ssr:stedsnr" v="56595" />
	</node>
	<node lat="59.53715833312633" lon="5.90569443987891" id="-3908">
		<tag k="name" v="Såbekken" />
		<tag k="ssr:stedsnr" v="58241" />
		<tag k="waterway" v="stream" />
	</node>
	<node lat="59.56199444878721" lon="5.678816669117036" id="-3920">
		<tag k="name" v="Eikjedalsåna" />
		<tag k="ssr:stedsnr" v="58993" />
		<tag k="waterway" v="river" />
	</node>
	<node lat="59.55774444262899" lon="5.59639166633269" id="-3922">
		<tag k="name" v="Nedre Skjenåstjørn" />
		<tag k="natural" v="water" />
		<tag k="ssr:stedsnr" v="59940" />
	</node>
	<node lat="59.56370555201534" lon="5.740713881059648" id="-3926">
		<tag k="name" v="Aurdalselva" />
		<tag k="ssr:stedsnr" v="64332" />
		<tag k="waterway" v="stream" />
	</node>
	<node lat="59.57387965810806" lon="6.107248317118914" id="-3933">
		<tag k="name" v="Krossvatnet" />
		<tag k="natural" v="water" />
		<tag k="ssr:stedsnr" v="64575" />
	</node>
	<node lat="59.5325055589866" lon="5.772691674845378" id="-3952">
		<tag k="name" v="Døldarvatnet" />
		<tag k="natural" v="water" />
		<tag k="ssr:stedsnr" v="64283" />
		<tag k="water" v="lake" />
	</node>
	<node lat="59.62257500185094" lon="5.58613611968248" id="-3961">
		<tag k="alt_name" v="Listjørn" />
		<tag k="name" v="Listjørna" />
		<tag k="natural" v="water" />
		<tag k="ssr:stedsnr" v="64410" />
	</node>
	<node lat="59.51374444035887" lon="5.652972223472641" id="-3966">
		<tag k="name" v="Bjergatjørna" />
		<tag k="natural" v="water" />
		<tag k="ssr:stedsnr" v="64622" />
	</node>
	<node lat="59.52649722122948" lon="5.56224721695722" id="-3971">
		<tag k="name" v="Butongjen" />
		<tag k="natural" v="cape" />
		<tag k="ssr:stedsnr" v="84667" />
	</node>
	<node lat="59.55918055885482" lon="5.600769437330337" id="-3976">
		<tag k="name" v="Øvre Skjenåstjørn" />
		<tag k="natural" v="water" />
		<tag k="ssr:stedsnr" v="100141" />
	</node>
	<node lat="59.591941662287816" lon="5.896794440473375" id="-3995">
		<tag k="name" v="Tverrelva" />
		<tag k="ssr:stedsnr" v="117256" />
		<tag k="waterway" v="river" />
	</node>
	<node lat="59.50708630700069" lon="5.96700911453675" id="-4001">
		<tag k="name" v="Krokavatnet" />
		<tag k="natural" v="water" />
		<tag k="ssr:stedsnr" v="117343" />
		<tag k="water" v="lake" />
	</node>
	<node lat="59.538086114075234" lon="5.744808334014048" id="-4002">
		<tag k="name" v="Fjellskarsbekken" />
		<tag k="ssr:stedsnr" v="117537" />
		<tag k="waterway" v="stream" />
	</node>
	<node lat="59.56401944128045" lon="5.762475003956884" id="-4003">
		<tag k="name" v="Sønnåtjørna" />
		<tag k="natural" v="water" />
		<tag k="ssr:stedsnr" v="118766" />
	</node>
	<node lat="59.52271666931706" lon="6.0079361145877295" id="-4007">
		<tag k="name" v="Ilstveitåna" />
		<tag k="ssr:stedsnr" v="118355" />
		<tag k="waterway" v="river" />
	</node>
	<node lat="59.51130000107069" lon="6.046924995439006" id="-4009">
		<tag k="name" v="Brekkeåna" />
		<tag k="ssr:stedsnr" v="118566" />
		<tag k="waterway" v="river" />
	</node>
	<node lat="59.55945278151613" lon="5.669700000690873" id="-4011">
		<tag k="name" v="Husafjellsbekken" />
		<tag k="ssr:stedsnr" v="118990" />
		<tag k="waterway" v="stream" />
	</node>
	<node lat="59.56233333328429" lon="5.5926055517433175" id="-4019">
		<tag k="name" v="Litle Grautvatn" />
		<tag k="natural" v="water" />
		<tag k="ssr:stedsnr" v="120947" />
		<tag k="water" v="lake" />
	</node>
	<node lat="59.460722450633135" lon="5.806183417645389" id="-4027">
		<tag k="name" v="Trolltjørna" />
		<tag k="natural" v="water" />
		<tag k="ssr:stedsnr" v="123794" />
	</node>
	<node lat="59.602880551258885" lon="5.917449992234051" id="-4029">
		<tag k="name" v="Toska" />
		<tag k="natural" v="water" />
		<tag k="ssr:stedsnr" v="124499" />
	</node>
	<node lat="59.556129486089446" lon="6.121124013679519" id="-4030">
		<tag k="alt_name" v="Øyavatnet" />
		<tag k="name" v="Øyevatnet" />
		<tag k="natural" v="water" />
		<tag k="ssr:stedsnr" v="124539" />
		<tag k="water" v="lake" />
	</node>
	<node lat="59.52363888566916" lon="5.537036113865484" id="-4031">
		<tag k="name" v="Haraldseidvatnet" />
		<tag k="natural" v="water" />
		<tag k="ssr:stedsnr" v="124218" />
		<tag k="water" v="lake" />
	</node>
	<node lat="59.559564551782174" lon="5.591240181349629" id="-4037">
		<tag k="name" v="Grautvatnet" />
		<tag k="natural" v="water" />
		<tag k="ssr:stedsnr" v="124281" />
		<tag k="water" v="lake" />
	</node>
	<node lat="59.520075001511046" lon="6.086336106164078" id="-4051">
		<tag k="alt_name" v="Støladalsåna" />
		<tag k="name" v="Støledalselva" />
		<tag k="ssr:stedsnr" v="124930" />
		<tag k="waterway" v="river" />
	</node>
	<node lat="59.52801666336684" lon="6.001294452622255" id="-4054">
		<tag k="name" v="Ulvavollsvatnet" />
		<tag k="natural" v="water" />
		<tag k="ssr:stedsnr" v="124879" />
		<tag k="water" v="lake" />
	</node>
	<node lat="59.527977779742486" lon="5.6337055595452865" id="-4060">
		<tag k="name" v="Tveiteelva" />
		<tag k="ssr:stedsnr" v="144695" />
		<tag k="waterway" v="stream" />
	</node>
	<node lat="59.56762134918771" lon="5.6248357637325705" id="-4070">
		<tag k="name" v="Indre Mørkadalsvatnet" />
		<tag k="natural" v="water" />
		<tag k="ssr:stedsnr" v="161154" />
		<tag k="water" v="lake" />
	</node>
	<node lat="59.54708889309417" lon="5.62878889269511" id="-4072">
		<tag k="name" v="Slettaskjer" />
		<tag k="place" v="islet" />
		<tag k="ssr:stedsnr" v="161794" />
	</node>
	<node lat="59.51668610821158" lon="5.951938884892092" id="-4080">
		<tag k="name" v="Skreddarbekken" />
		<tag k="ssr:stedsnr" v="179429" />
		<tag k="waterway" v="stream" />
	</node>
	<node lat="59.543736115036175" lon="6.029733337252136" id="-4090">
		<tag k="name" v="Olatræ" />
		<tag k="natural" v="cape" />
		<tag k="ssr:stedsnr" v="178042" />
	</node>
	<node lat="59.518594446884634" lon="6.12343889027746" id="-4094">
		<tag k="name" v="Hedlebekktjørnene" />
		<tag k="natural" v="water" />
		<tag k="ssr:stedsnr" v="178226" />
		<tag k="water" v="lake" />
	</node>
	<node lat="59.56061388518099" lon="5.753699995361769" id="-4099">
		<tag k="name" v="Tverrbekken" />
		<tag k="ssr:stedsnr" v="179769" />
		<tag k="waterway" v="stream" />
	</node>
	<node lat="59.51260555224566" lon="5.81033888049404" id="-4100">
		<tag k="name" v="Korabekken" />
		<tag k="ssr:stedsnr" v="179852" />
		<tag k="waterway" v="stream" />
	</node>
	<node lat="59.4338130726579" lon="5.727932279377807" id="-4110">
		<tag k="name" v="Stauråstjørna" />
		<tag k="natural" v="water" />
		<tag k="ssr:stedsnr" v="184021" />
	</node>
	<node lat="59.48402500162155" lon="6.1309000071605" id="-4114">
		<tag k="alt_name" v="Vågavatnet, nedre" />
		<tag k="name" v="Nedre Vågavatnet" />
		<tag k="natural" v="water" />
		<tag k="ssr:stedsnr" v="184305" />
		<tag k="water" v="lake" />
	</node>
	<node lat="59.483922219947395" lon="5.706811116813816" id="-4119">
		<tag k="name" v="Frølandsvatnet" />
		<tag k="natural" v="water" />
		<tag k="ssr:stedsnr" v="184823" />
		<tag k="water" v="lake" />
	</node>
	<node lat="59.453413885447254" lon="5.774263882648077" id="-4120">
		<tag k="name" v="Røssåna" />
		<tag k="ssr:stedsnr" v="184757" />
		<tag k="waterway" v="river" />
	</node>
	<node lat="59.65742778166272" lon="5.603958332199664" id="-4123">
		<tag k="name" v="Jektatjørna" />
		<tag k="natural" v="water" />
		<tag k="ssr:stedsnr" v="185024" />
	</node>
	<node lat="59.53852977145981" lon="5.709775776782879" id="-4125">
		<tag k="name" v="Landavatnet" />
		<tag k="natural" v="water" />
		<tag k="ssr:stedsnr" v="185265" />
		<tag k="water" v="lake" />
	</node>
	<node lat="59.55276944569817" lon="5.783241667667529" id="-4130">
		<tag k="name" v="Stemmevatnet" />
		<tag k="natural" v="water" />
		<tag k="ssr:stedsnr" v="185297" />
	</node>
	<node lat="59.64497499773058" lon="5.628349995468389" id="-4134">
		<tag k="name" v="Kistedalstjørna" />
		<tag k="natural" v="water" />
		<tag k="ssr:stedsnr" v="185426" />
	</node>
	<node lat="59.58816944291574" lon="5.810058326131299" id="-4139">
		<tag k="alt_name" v="Eideelva" />
		<tag k="name" v="Eidselva" />
		<tag k="ssr:stedsnr" v="185367" />
		<tag k="waterway" v="river" />
	</node>
	<node lat="59.54054722608955" lon="5.869847222693253" id="-4166">
		<tag k="name" v="Øyra" />
		<tag k="natural" v="bay" />
		<tag k="ssr:stedsnr" v="284558" />
	</node>
	<node lat="59.54048888845081" lon="6.009474995239196" id="-4178">
		<tag k="name" v="Ulvavollstjørna" />
		<tag k="natural" v="water" />
		<tag k="ssr:stedsnr" v="299035" />
	</node>
	<node lat="59.54242500062499" lon="5.752299994201678" id="-4193">
		<tag k="name" v="Stemvatnet" />
		<tag k="natural" v="water" />
		<tag k="ssr:stedsnr" v="299549" />
		<tag k="water" v="lake" />
	</node>
	<node lat="59.54682499731789" lon="6.105438891692806" id="-4198">
		<tag k="name" v="Gullvatnet" />
		<tag k="natural" v="water" />
		<tag k="ssr:stedsnr" v="300596" />
		<tag k="water" v="lake" />
	</node>
	<node lat="59.55996944783309" lon="5.782961112998586" id="-4201">
		<tag k="name" v="Sønnanåelva" />
		<tag k="ssr:stedsnr" v="300868" />
		<tag k="waterway" v="river" />
	</node>
	<node lat="59.55564722589686" lon="5.599691660908593" id="-4202">
		<tag k="name" v="Steintjørn" />
		<tag k="natural" v="water" />
		<tag k="ssr:stedsnr" v="301105" />
	</node>
	<node lat="59.47746666506823" lon="6.081161112845153" id="-4204">
		<tag k="name" v="Holmatjørna" />
		<tag k="natural" v="water" />
		<tag k="ssr:stedsnr" v="301699" />
	</node>
	<node lat="59.53095005052093" lon="5.656305406483741" id="-4217">
		<tag k="name" v="Lintjørna" />
		<tag k="natural" v="water" />
		<tag k="ssr:stedsnr" v="306262" />
	</node>
	<node lat="59.541430555243174" lon="5.573116665125054" id="-4222">
		<tag k="alt_name" v="Svendsbøelva" />
		<tag k="name" v="Svensbøelva" />
		<tag k="ssr:stedsnr" v="306285" />
		<tag k="waterway" v="stream" />
	</node>
	<node lat="59.52200832786349" lon="5.586219802189876" id="-4227">
		<tag k="name" v="Stemmetjørna" />
		<tag k="natural" v="water" />
		<tag k="ssr:stedsnr" v="306244" />
	</node>
	<node lat="59.517273790816375" lon="5.52918593235291" id="-4228">
		<tag k="alt_name" v="Anndalsvatnet" />
		<tag k="name" v="Alnedalsvatnet" />
		<tag k="natural" v="water" />
		<tag k="ssr:stedsnr" v="306248" />
		<tag k="water" v="lake" />
	</node>
	<node lat="59.631302777677945" lon="5.707877785232463" id="-4236">
		<tag k="name" v="Krokavatnet" />
		<tag k="natural" v="water" />
		<tag k="ssr:stedsnr" v="306426" />
		<tag k="water" v="lake" />
	</node>
	<node lat="59.63740000170041" lon="5.691216660503653" id="-4237">
		<tag k="alt_name" v="Krokavatn" />
		<tag k="name" v="Gråhorgvatnet" />
		<tag k="natural" v="water" />
		<tag k="ssr:stedsnr" v="306427" />
		<tag k="water" v="lake" />
	</node>
	<node lat="59.580780553038984" lon="6.112419450579527" id="-4239">
		<tag k="alt_name" v="Jupatjørna" />
		<tag k="name" v="Djupatjørn" />
		<tag k="natural" v="water" />
		<tag k="ssr:stedsnr" v="306547" />
		<tag k="water" v="lake" />
	</node>
	<node lat="59.647627711759704" lon="5.579666596426549" id="-4245">
		<tag k="alt_name" v="Tindelandstjørna, søre;Tindelandstjørn s." />
		<tag k="name" v="Søre Tindelandstjørna" />
		<tag k="natural" v="water" />
		<tag k="ssr:stedsnr" v="307488" />
	</node>
	<node lat="59.490361113178125" lon="6.140100002447475" id="-4282">
		<tag k="name" v="Lomaneset" />
		<tag k="natural" v="cape" />
		<tag k="ssr:stedsnr" v="357632" />
	</node>
	<node lat="59.467913888316566" lon="5.676299992288462" id="-4301">
		<tag k="name" v="Tongjabekken" />
		<tag k="ssr:stedsnr" v="361032" />
		<tag k="waterway" v="stream" />
	</node>
	<node lat="59.523774042907576" lon="5.908173177475055" id="-4304">
		<tag k="name" v="Fagerdalstjørna" />
		<tag k="natural" v="water" />
		<tag k="ssr:stedsnr" v="361188" />
	</node>
	<node lat="59.560041667726104" lon="6.060183331895861" id="-4305">
		<tag k="name" v="Kvednabekken" />
		<tag k="ssr:stedsnr" v="361282" />
		<tag k="waterway" v="stream" />
	</node>
	<node lat="59.567466666499435" lon="5.983738883790412" id="-4311">
		<tag k="name" v="Svartetjørn" />
		<tag k="natural" v="water" />
		<tag k="ssr:stedsnr" v="361525" />
	</node>
	<node lat="59.52634166833209" lon="5.814508327612708" id="-4318">
		<tag k="name" v="Årakbekken" />
		<tag k="ssr:stedsnr" v="361871" />
		<tag k="waterway" v="stream" />
	</node>
	<node lat="59.547063891316064" lon="5.802405547293535" id="-4321">
		<tag k="name" v="Fagerdalsbekken" />
		<tag k="ssr:stedsnr" v="361937" />
		<tag k="waterway" v="stream" />
	</node>
	<node lat="59.48053055537305" lon="6.1302277806798795" id="-4330">
		<tag k="name" v="Vågaåna" />
		<tag k="ssr:stedsnr" v="366271" />
		<tag k="waterway" v="stream" />
	</node>
	<node lat="59.505929652302996" lon="5.775549208358045" id="-4338">
		<tag k="alt_name" v="Gjeresdalsvatnet" />
		<tag k="name" v="Gjerdesdalsvatnet" />
		<tag k="natural" v="water" />
		<tag k="ssr:stedsnr" v="366833" />
		<tag k="water" v="lake" />
	</node>
	<node lat="59.57133889017255" lon="5.596841661474142" id="-4343">
		<tag k="name" v="Stemmevatnet" />
		<tag k="natural" v="water" />
		<tag k="ssr:stedsnr" v="367290" />
	</node>
	<node lat="59.531336108423915" lon="6.114411116427402" id="-4357">
		<tag k="name" v="Midvatnet" />
		<tag k="natural" v="water" />
		<tag k="ssr:stedsnr" v="367900" />
		<tag k="water" v="lake" />
	</node>
	<node lat="59.50141666478279" lon="5.511525006439691" id="-4367">
		<tag k="name" v="Løkabekken" />
		<tag k="ssr:stedsnr" v="387678" />
		<tag k="waterway" v="stream" />
	</node>
	<node lat="59.47549505387013" lon="5.80279016459157" id="-4386">
		<tag k="name" v="Tømmervika" />
		<tag k="natural" v="bay" />
		<tag k="ssr:stedsnr" v="420150" />
	</node>
	<node lat="59.52364999665722" lon="5.697802776309349" id="-4393">
		<tag k="name" v="Røyrvika" />
		<tag k="natural" v="bay" />
		<tag k="ssr:stedsnr" v="421566" />
	</node>
	<node lat="59.5152444456975" lon="5.676061116305676" id="-4394">
		<tag k="name" v="Haukadalsbekken" />
		<tag k="ssr:stedsnr" v="421575" />
		<tag k="waterway" v="stream" />
	</node>
	<node lat="59.54953055378527" lon="5.902274995824411" id="-4399">
		<tag k="name" v="Haukakvamselva" />
		<tag k="ssr:stedsnr" v="422775" />
		<tag k="waterway" v="river" />
	</node>
	<node lat="59.537052778521996" lon="5.913469443913957" id="-4400">
		<tag k="name" v="Bergetjørna" />
		<tag k="natural" v="water" />
		<tag k="ssr:stedsnr" v="422779" />
	</node>
	<node lat="59.51778333372293" lon="5.789813882256418" id="-4401">
		<tag k="name" v="Flåtedne" />
		<tag k="natural" v="beach" />
		<tag k="ssr:stedsnr" v="422858" />
	</node>
	<node lat="59.53829999812371" lon="5.610024999549991" id="-4413">
		<tag k="name" v="Paddetjørn" />
		<tag k="natural" v="water" />
		<tag k="ssr:stedsnr" v="423759" />
	</node>
	<node lat="59.428849999700034" lon="5.731686114844303" id="-4419">
		<tag k="alt_name" v="Raunesvatnet" />
		<tag k="name" v="Raudnesvatnet" />
		<tag k="natural" v="water" />
		<tag k="ssr:stedsnr" v="427011" />
		<tag k="water" v="lake" />
	</node>
	<node lat="59.57561389019802" lon="5.613986108951163" id="-4425">
=======
<osm generator="osmapis" version="0.6">
	<node id="-43008" lat="59.4320861094" lon="5.69881389289">
		<tag k="alt_name" v="Hattatjørna" />
		<tag k="name" v="Hatlatjørna" />
		<tag k="natural" v="water" />
		<tag k="ssr:stedsnr" v="2023" />
	</node>
	<node id="-43003" lat="59.5366274961" lon="5.56337444287">
		<tag k="name" v="Rundatjørn" />
		<tag k="natural" v="water" />
		<tag k="ssr:stedsnr" v="981039" />
	</node>
	<node id="-42999" lat="59.541436154" lon="5.57355283261">
		<tag k="name" v="Svendsbøfossen" />
		<tag k="natural" v="waterfall" />
		<tag k="ssr:stedsnr" v="981033" />
	</node>
	<node id="-42988" lat="59.6723187433" lon="5.58998657316">
		<tag k="name" v="Kvednabekken" />
		<tag k="ssr:stedsnr" v="972613" />
		<tag k="waterway" v="stream" />
	</node>
	<node id="-42967" lat="59.5697166707" lon="6.05257222313">
		<tag k="name" v="Roalkvamneset" />
		<tag k="natural" v="cape" />
		<tag k="ssr:stedsnr" v="968278" />
	</node>
	<node id="-42963" lat="59.5791638899" lon="5.91421666586">
		<tag k="name" v="Skillingsfossen" />
		<tag k="natural" v="waterfall" />
		<tag k="ssr:stedsnr" v="966219" />
	</node>
	<node id="-42960" lat="59.5601694459" lon="6.15494722082">
		<tag k="name" v="Vestreneset" />
		<tag k="natural" v="cape" />
		<tag k="ssr:stedsnr" v="964971" />
	</node>
	<node id="-42959" lat="59.4952166633" lon="6.13824166047">
		<tag k="name" v="Stakknes" />
		<tag k="natural" v="cape" />
		<tag k="ssr:stedsnr" v="964615" />
	</node>
	<node id="-41975" lat="59.4708833316" lon="5.73448333482">
		<tag k="name" v="Giljevik" />
		<tag k="natural" v="bay" />
		<tag k="ssr:stedsnr" v="117103" />
	</node>
	<node id="-42949" lat="59.5175027735" lon="5.80729444571">
		<tag k="name" v="Ileelva" />
		<tag k="ssr:stedsnr" v="907814" />
		<tag k="waterway" v="river" />
	</node>
	<node id="-42940" lat="59.4827972262" lon="5.73467499216">
		<tag k="name" v="Biskopbekken" />
		<tag k="ssr:stedsnr" v="906107" />
		<tag k="waterway" v="stream" />
	</node>
	<node id="-42930" lat="59.5606083343" lon="5.62113333843">
		<tag k="name" v="Gonlitjørna" />
		<tag k="natural" v="water" />
		<tag k="ssr:stedsnr" v="950173" />
	</node>
	<node id="-42925" lat="59.58874167" lon="5.61041389094">
		<tag k="name" v="Vikelva" />
		<tag k="ssr:stedsnr" v="854066" />
		<tag k="waterway" v="stream" />
	</node>
	<node id="-41970" lat="59.5264972212" lon="5.56224721696">
		<tag k="name" v="Butongjen" />
		<tag k="natural" v="cape" />
		<tag k="ssr:stedsnr" v="84667" />
	</node>
	<node id="-42920" lat="59.5764555527" lon="6.13156667122">
		<tag k="name" v="Sørelva" />
		<tag k="ssr:stedsnr" v="853561" />
		<tag k="waterway" v="stream" />
	</node>
	<node id="-42916" lat="59.590375001" lon="5.83901388035">
		<tag k="name" v="Svartatjørna" />
		<tag k="natural" v="water" />
		<tag k="ssr:stedsnr" v="853356" />
	</node>
	<node id="-42915" lat="59.5350444423" lon="5.62486110737">
		<tag k="alt_name" v="Paddetjørn" />
		<tag k="name" v="Paddetjørna" />
		<tag k="natural" v="water" />
		<tag k="ssr:stedsnr" v="853270" />
	</node>
	<node id="-42911" lat="59.4541749968" lon="5.78400555336">
		<tag k="alt_name" v="Tjeltveittjørnene" />
		<tag k="name" v="Tjelltveittjørna" />
		<tag k="natural" v="water" />
		<tag k="ssr:stedsnr" v="852753" />
		<tag k="water" v="lake" />
	</node>
	<node id="-42909" lat="59.483238885" lon="5.69019722454">
		<tag k="name" v="Løypetjørna" />
		<tag k="natural" v="water" />
		<tag k="ssr:stedsnr" v="852813" />
	</node>
	<node id="-42876" lat="59.534947222" lon="5.97641943762">
		<tag k="alt_name" v="Låkafossen" />
		<tag k="name" v="Lokafoss" />
		<tag k="natural" v="waterfall" />
		<tag k="ssr:stedsnr" v="792607" />
	</node>
	<node id="-42875" lat="59.5742813837" lon="6.1383069957">
		<tag k="alt_name" v="Bjørndalsvatnet, s;Søre Bjønndalsvatnet" />
		<tag k="name" v="Søre Bjørndalsvatnet" />
		<tag k="natural" v="water" />
		<tag k="ssr:stedsnr" v="792565" />
		<tag k="water" v="lake" />
	</node>
	<node id="-42872" lat="59.5932277822" lon="6.07652777491">
		<tag k="alt_name" v="Flåtavatnet" />
		<tag k="name" v="Flotavatnet" />
		<tag k="natural" v="water" />
		<tag k="ssr:stedsnr" v="792539" />
		<tag k="water" v="lake" />
	</node>
	<node id="-42871" lat="59.6015527785" lon="5.85490000287">
		<tag k="alt_name" v="Juvelva" />
		<tag k="name" v="Gjuvelva" />
		<tag k="ssr:stedsnr" v="792530" />
		<tag k="waterway" v="stream" />
	</node>
	<node id="-42867" lat="59.49249167" lon="5.69306667397">
		<tag k="name" v="Stemmevatnet" />
		<tag k="natural" v="water" />
		<tag k="ssr:stedsnr" v="791852" />
		<tag k="water" v="lake" />
	</node>
	<node id="-42852" lat="59.5151" lon="6.0206722248">
		<tag k="name" v="Nordbekken" />
		<tag k="ssr:stedsnr" v="786595" />
		<tag k="waterway" v="stream" />
	</node>
	<node id="-42839" lat="59.6418861139" lon="5.59622777918">
		<tag k="name" v="Utruno" />
		<tag k="natural" v="water" />
		<tag k="ssr:stedsnr" v="914467" />
	</node>
	<node id="-42834" lat="59.5311083372" lon="6.09964166513">
		<tag k="name" v="Damsvatnet" />
		<tag k="natural" v="water" />
		<tag k="ssr:stedsnr" v="913900" />
		<tag k="water" v="lake" />
	</node>
	<node id="-42830" lat="59.4922125604" lon="5.51171057871">
		<tag k="alt_name" v="Hestfjelltjørna" />
		<tag k="name" v="Hestafjelltjørna" />
		<tag k="natural" v="water" />
		<tag k="ssr:stedsnr" v="913874" />
	</node>
	<node id="-42814" lat="59.5658027753" lon="5.96083055669">
		<tag k="alt_name" v="Litleelva" />
		<tag k="name" v="Litlelva" />
		<tag k="ssr:stedsnr" v="913565" />
		<tag k="waterway" v="stream" />
	</node>
	<node id="-42808" lat="59.6389305549" lon="5.68817500688">
		<tag k="name" v="Hetlandstjørna" />
		<tag k="natural" v="water" />
		<tag k="ssr:stedsnr" v="913439" />
	</node>
	<node id="-42806" lat="59.6054750037" lon="5.63522500339">
		<tag k="alt_name" v="Trollavatnet" />
		<tag k="name" v="Trollvatnet" />
		<tag k="natural" v="water" />
		<tag k="ssr:stedsnr" v="913382" />
	</node>
	<node id="-42803" lat="59.5872722214" lon="5.66731944638">
		<tag k="alt_name" v="Fisketjørn" />
		<tag k="name" v="Fisketjørna" />
		<tag k="natural" v="water" />
		<tag k="ssr:stedsnr" v="913366" />
	</node>
	<node id="-42794" lat="59.5306666645" lon="5.59419721935">
		<tag k="name" v="Bjordalsholmen" />
		<tag k="place" v="islet" />
		<tag k="ssr:stedsnr" v="913270" />
	</node>
	<node id="-42793" lat="59.5297099974" lon="5.5940327936">
		<tag k="name" v="Holmavatnet" />
		<tag k="natural" v="water" />
		<tag k="ssr:stedsnr" v="913269" />
		<tag k="water" v="lake" />
	</node>
	<node id="-42791" lat="59.5324611126" lon="5.79574166926">
		<tag k="name" v="Vilandsbekken" />
		<tag k="ssr:stedsnr" v="913240" />
		<tag k="waterway" v="stream" />
	</node>
	<node id="-42779" lat="59.475572219" lon="5.67768333847">
		<tag k="name" v="Løkjen" />
		<tag k="natural" v="water" />
		<tag k="ssr:stedsnr" v="908984" />
		<tag k="water" v="lake" />
	</node>
	<node id="-44824" lat="59.8279125227" lon="9.70560369472">
		<tag k="name" v="Grølla" />
		<tag k="natural" v="water" />
		<tag k="ssr:stedsnr" v="489738" />
		<tag k="water" v="lake" />
	</node>
	<node id="-42775" lat="59.5685611105" lon="5.98840556169">
		<tag k="name" v="Skjenstø" />
		<tag k="natural" v="water" />
		<tag k="ssr:stedsnr" v="908522" />
	</node>
	<node id="-44822" lat="59.4190712484" lon="5.68861525898">
		<tag k="name" v="Måvatnet" />
		<tag k="natural" v="water" />
		<tag k="ssr:stedsnr" v="548058" />
		<tag k="water" v="lake" />
	</node>
	<node id="-44821" lat="59.5919779303" lon="6.02907392009">
		<tag k="alt_name" v="Lysavatnet" />
		<tag k="name" v="Lysevatnet" />
		<tag k="natural" v="water" />
		<tag k="ssr:stedsnr" v="731528" />
		<tag k="water" v="lake" />
	</node>
	<node id="-44820" lat="59.5427750008" lon="6.13489721657">
		<tag k="name" v="Stutatjørnene" />
		<tag k="natural" v="water" />
		<tag k="ssr:stedsnr" v="609580" />
		<tag k="water" v="lake" />
	</node>
	<node id="-42769" lat="59.5122888888" lon="5.78273333094">
		<tag k="name" v="Longanes" />
		<tag k="natural" v="cape" />
		<tag k="ssr:stedsnr" v="907870" />
	</node>
	<node id="-44810" lat="59.5567412655" lon="5.6603663836">
		<tag k="name" v="Husafjellstjørna" />
		<tag k="natural" v="water" />
		<tag k="ssr:stedsnr" v="1072007" />
		<tag k="water" v="lake" />
	</node>
	<node id="-42760" lat="59.5388694455" lon="5.71535554832">
		<tag k="name" v="Landabekken" />
		<tag k="ssr:stedsnr" v="906522" />
		<tag k="waterway" v="stream" />
	</node>
	<node id="-44806" lat="59.5307199278" lon="5.59040466823">
		<tag k="name" v="Butangen" />
		<tag k="natural" v="cape" />
		<tag k="ssr:stedsnr" v="981062" />
	</node>
	<node id="-42756" lat="59.4994388915" lon="6.04288889613">
		<tag k="name" v="Skiftesneset" />
		<tag k="natural" v="cape" />
		<tag k="ssr:stedsnr" v="906299" />
	</node>
	<node id="-42751" lat="59.5064027761" lon="6.11403055709">
		<tag k="name" v="Indre Holsnevatnet" />
		<tag k="natural" v="water" />
		<tag k="ssr:stedsnr" v="904627" />
		<tag k="water" v="lake" />
	</node>
	<node id="-42750" lat="59.5007277753" lon="6.13719167179">
		<tag k="name" v="Sabekken" />
		<tag k="ssr:stedsnr" v="904623" />
		<tag k="waterway" v="stream" />
	</node>
	<node id="-42748" lat="59.6395833363" lon="5.73741666826">
		<tag k="alt_name" v="Storrindsvatnet" />
		<tag k="name" v="Storrindevatnet" />
		<tag k="natural" v="water" />
		<tag k="ssr:stedsnr" v="731428" />
	</node>
	<node id="-42747" lat="59.638210351" lon="5.57824292935">
		<tag k="alt_name" v="Bruarevatnet" />
		<tag k="name" v="Bruarvatnet" />
		<tag k="natural" v="water" />
		<tag k="ssr:stedsnr" v="731423" />
		<tag k="water" v="lake" />
	</node>
	<node id="-42743" lat="59.5764750025" lon="5.63657777167">
		<tag k="alt_name" v="Mårgansvatnet" />
		<tag k="name" v="Morgonsvatnet" />
		<tag k="natural" v="water" />
		<tag k="ssr:stedsnr" v="731323" />
		<tag k="water" v="lake" />
	</node>
	<node id="-42741" lat="59.583118687" lon="5.84610609225">
		<tag k="loc_name" v="Øklandsvatnet" />
		<tag k="name" v="Auklandsvatnet" />
		<tag k="natural" v="water" />
		<tag k="ssr:stedsnr" v="731315" />
		<tag k="water" v="lake" />
	</node>
	<node id="-44785" lat="59.5352455808" lon="5.55811171673">
		<tag k="name" v="Måkaholmen" />
		<tag k="place" v="islet" />
		<tag k="ssr:stedsnr" v="981017" />
	</node>
	<node id="-42721" lat="59.4747916709" lon="5.79645833022">
		<tag k="name" v="Lomatjørna" />
		<tag k="natural" v="water" />
		<tag k="ssr:stedsnr" v="723155" />
	</node>
	<node id="-44766" lat="59.5882556679" lon="5.75289573745">
		<tag k="name" v="Skiftesbekken" />
		<tag k="ssr:stedsnr" v="977276" />
		<tag k="waterway" v="stream" />
	</node>
	<node id="-44763" lat="59.5917035136" lon="5.73182125322">
		<tag k="name" v="Vågselva" />
		<tag k="ssr:stedsnr" v="977273" />
		<tag k="waterway" v="river" />
	</node>
	<node id="-44762" lat="59.5914988253" lon="5.72857716412">
		<tag k="name" v="Hetlandselva" />
		<tag k="ssr:stedsnr" v="977272" />
		<tag k="waterway" v="stream" />
	</node>
	<node id="-42712" lat="59.4966972239" lon="5.89637499849">
		<tag k="alt_name" v="Vikedalsosen" />
		<tag k="name" v="Vikadalsosen" />
		<tag k="natural" v="bay" />
		<tag k="ssr:stedsnr" v="891556" />
	</node>
	<node id="-42709" lat="59.5452305555" lon="5.62286945176">
		<tag k="name" v="Lyngnes" />
		<tag k="natural" v="cape" />
		<tag k="ssr:stedsnr" v="890830" />
	</node>
	<node id="-42696" lat="59.5781722261" lon="5.86344444409">
		<tag k="name" v="Skiftesbekken" />
		<tag k="ssr:stedsnr" v="664866" />
		<tag k="waterway" v="stream" />
	</node>
	<node id="-42695" lat="59.5818777767" lon="5.86701666099">
		<tag k="name" v="Hedlebekken" />
		<tag k="ssr:stedsnr" v="664865" />
		<tag k="waterway" v="stream" />
	</node>
	<node id="-42694" lat="59.5708055589" lon="5.78984443852">
		<tag k="name" v="Gamleskarbekken" />
		<tag k="ssr:stedsnr" v="664864" />
		<tag k="waterway" v="stream" />
	</node>
	<node id="-42691" lat="59.5247944415" lon="5.7614638912">
		<tag k="name" v="Gjerdesåna" />
		<tag k="ssr:stedsnr" v="663510" />
		<tag k="waterway" v="river" />
	</node>
	<node id="-42674" lat="59.5126180559" lon="5.7140378514">
		<tag k="alt_name" v="Storavatnet" />
		<tag k="name" v="Vatsvatnet" />
		<tag k="natural" v="water" />
		<tag k="ssr:stedsnr" v="731857" />
		<tag k="water" v="lake" />
	</node>
	<node id="-44721" lat="59.5938009091" lon="5.58873823047">
		<tag k="name" v="Plasselva" />
		<tag k="ssr:stedsnr" v="977214" />
		<tag k="waterway" v="stream" />
	</node>
	<node id="-42669" lat="59.572463886" lon="5.983180561">
		<tag k="name" v="Halsvatnet" />
		<tag k="natural" v="water" />
		<tag k="ssr:stedsnr" v="731538" />
		<tag k="water" v="lake" />
	</node>
	<node id="-42668" lat="59.567727774" lon="6.06651944307">
		<tag k="alt_name" v="Grunnåvatnet" />
		<tag k="name" v="Grunnavatnet" />
		<tag k="natural" v="water" />
		<tag k="ssr:stedsnr" v="731537" />
		<tag k="water" v="lake" />
	</node>
	<node id="-42663" lat="59.5589777751" lon="5.60113611779">
		<tag k="name" v="Skinåstjørna" />
		<tag k="natural" v="water" />
		<tag k="ssr:stedsnr" v="731276" />
		<tag k="water" v="lake" />
	</node>
	<node id="-42656" lat="59.5397121869" lon="5.61748007135">
		<tag k="name" v="Vassvika" />
		<tag k="natural" v="bay" />
		<tag k="ssr:stedsnr" v="731247" />
	</node>
	<node id="-42654" lat="59.5453438122" lon="5.6688725078">
		<tag k="name" v="Vatnedalsvatnet" />
		<tag k="natural" v="water" />
		<tag k="ssr:stedsnr" v="731240" />
		<tag k="water" v="lake" />
	</node>
	<node id="-42646" lat="59.5162111105" lon="5.52704999235">
		<tag k="name" v="Litleholmen" />
		<tag k="place" v="islet" />
		<tag k="ssr:stedsnr" v="731200" />
	</node>
	<node id="-44689" lat="59.608793274" lon="5.62824996078">
		<tag k="name" v="Olatjørn" />
		<tag k="natural" v="water" />
		<tag k="ssr:stedsnr" v="977172" />
	</node>
	<node id="-44681" lat="59.59588216" lon="5.65564430027">
		<tag k="name" v="Røytetjørn" />
		<tag k="natural" v="water" />
		<tag k="ssr:stedsnr" v="977162" />
	</node>
	<node id="-42631" lat="59.4908750005" lon="5.65643056402">
		<tag k="name" v="Andershølen" />
		<tag k="natural" v="water" />
		<tag k="ssr:stedsnr" v="730864" />
	</node>
	<node id="-42629" lat="59.4462750015" lon="5.71496666632">
		<tag k="alt_name" v="Norafjellstjørna" />
		<tag k="name" v="Nevratjørna" />
		<tag k="natural" v="water" />
		<tag k="ssr:stedsnr" v="730794" />
	</node>
	<node id="-44676" lat="59.6117290483" lon="5.71038874905">
		<tag k="name" v="Kolbeinshaugsvatnet" />
		<tag k="natural" v="water" />
		<tag k="ssr:stedsnr" v="977156" />
		<tag k="water" v="lake" />
	</node>
	<node id="-44674" lat="59.6088892724" lon="5.70722659999">
		<tag k="name" v="Røyretjørn" />
		<tag k="natural" v="water" />
		<tag k="ssr:stedsnr" v="977154" />
	</node>
	<node id="-42622" lat="59.5000499972" lon="6.04373888803">
		<tag k="alt_name" v="Hustveitåna" />
		<tag k="name" v="Hustveitelva" />
		<tag k="ssr:stedsnr" v="730275" />
		<tag k="waterway" v="river" />
	</node>
	<node id="-42612" lat="59.4943583364" lon="5.55575277715">
		<tag k="name" v="Kvednabekken" />
		<tag k="ssr:stedsnr" v="629705" />
		<tag k="waterway" v="stream" />
	</node>
	<node id="-42604" lat="59.5377222204" lon="5.71056665874">
		<tag k="name" v="Språktveitneset" />
		<tag k="natural" v="cape" />
		<tag k="ssr:stedsnr" v="726692" />
	</node>
	<node id="-42586" lat="59.4978694425" lon="6.00404166439">
		<tag k="name" v="Øreholmen" />
		<tag k="place" v="islet" />
		<tag k="ssr:stedsnr" v="724270" />
	</node>
	<node id="-42581" lat="59.5844444474" lon="5.90233889593">
		<tag k="name" v="Haukareidtjørna" />
		<tag k="natural" v="water" />
		<tag k="ssr:stedsnr" v="724195" />
	</node>
	<node id="-42577" lat="59.4753666676" lon="5.78366666457">
		<tag k="name" v="Øredalsbekken" />
		<tag k="ssr:stedsnr" v="723152" />
		<tag k="waterway" v="stream" />
	</node>
	<node id="-44623" lat="59.6080937105" lon="5.83760626118">
		<tag k="name" v="Røsarebekken" />
		<tag k="ssr:stedsnr" v="974901" />
		<tag k="waterway" v="stream" />
	</node>
	<node id="-44621" lat="59.6148357713" lon="5.85771339949">
		<tag k="name" v="Teigabekken" />
		<tag k="ssr:stedsnr" v="974874" />
		<tag k="waterway" v="stream" />
	</node>
	<node id="-42572" lat="59.4961444448" lon="5.80936666414">
		<tag k="name" v="Juvbekken" />
		<tag k="ssr:stedsnr" v="723082" />
		<tag k="waterway" v="stream" />
	</node>
	<node id="-42568" lat="59.5765871933" lon="5.76494806095">
		<tag k="alt_name" v="Gjerdevikstjørn" />
		<tag k="name" v="Gjerdesviktjørna" />
		<tag k="natural" v="water" />
		<tag k="ssr:stedsnr" v="610383" />
	</node>
	<node id="-42564" lat="59.5556637533" lon="6.06408446476">
		<tag k="alt_name" v="Stølstjørn" />
		<tag k="name" v="Stølstjørna" />
		<tag k="natural" v="water" />
		<tag k="ssr:stedsnr" v="609564" />
	</node>
	<node id="-44611" lat="59.6191304627" lon="5.87003005103">
		<tag k="name" v="Kamphaugbekken" />
		<tag k="ssr:stedsnr" v="974861" />
		<tag k="waterway" v="stream" />
	</node>
	<node id="-42562" lat="59.5637138865" lon="6.03818889482">
		<tag k="alt_name" v="Skåtanes" />
		<tag k="name" v="Skotanes" />
		<tag k="natural" v="cape" />
		<tag k="ssr:stedsnr" v="609558" />
	</node>
	<node id="-42558" lat="59.547127774" lon="5.84231389648">
		<tag k="name" v="Vestbøelva" />
		<tag k="ssr:stedsnr" v="604822" />
		<tag k="waterway" v="river" />
	</node>
	<node id="-42554" lat="59.5759527799" lon="5.81511110474">
		<tag k="name" v="Hauglandselva" />
		<tag k="ssr:stedsnr" v="603992" />
		<tag k="waterway" v="river" />
	</node>
	<node id="-42549" lat="59.5121333316" lon="6.03369722313">
		<tag k="name" v="Smaladalsbekken" />
		<tag k="ssr:stedsnr" v="603582" />
		<tag k="waterway" v="stream" />
	</node>
	<node id="-42544" lat="59.5930222258" lon="5.93646665757">
		<tag k="name" v="Ongelsbekken" />
		<tag k="ssr:stedsnr" v="602214" />
		<tag k="waterway" v="stream" />
	</node>
	<node id="-44588" lat="59.6222565603" lon="5.80514707467">
		<tag k="name" v="Kåtabøelva" />
		<tag k="ssr:stedsnr" v="974831" />
		<tag k="waterway" v="river" />
	</node>
	<node id="-42536" lat="59.5686444477" lon="5.61595277795">
		<tag k="name" v="Ytre Mørkadalsvatnet" />
		<tag k="natural" v="water" />
		<tag k="ssr:stedsnr" v="707148" />
		<tag k="water" v="lake" />
	</node>
	<node id="-42532" lat="59.5424250006" lon="5.7522999942">
		<tag k="name" v="Stemvatnet" />
		<tag k="natural" v="water" />
		<tag k="ssr:stedsnr" v="299549" />
		<tag k="water" v="lake" />
	</node>
	<node id="-42530" lat="59.6522805599" lon="5.57734999922">
		<tag k="alt_name" v="Tindelandstjørna, nordre;Tindelandstjørn n." />
		<tag k="name" v="Nordre Tindelandstjørna" />
		<tag k="natural" v="water" />
		<tag k="ssr:stedsnr" v="549027" />
	</node>
	<node id="-44576" lat="59.6196741005" lon="5.75454560007">
		<tag k="name" v="Vakaelva" />
		<tag k="ssr:stedsnr" v="974819" />
		<tag k="waterway" v="river" />
	</node>
	<node id="-44572" lat="59.6201898102" lon="5.720749599">
		<tag k="name" v="Krossvatnet" />
		<tag k="natural" v="water" />
		<tag k="ssr:stedsnr" v="974815" />
		<tag k="water" v="lake" />
	</node>
	<node id="-44571" lat="59.6237275469" lon="5.71438194557">
		<tag k="name" v="Lomavatna" />
		<tag k="natural" v="water" />
		<tag k="ssr:stedsnr" v="974814" />
		<tag k="water" v="lake" />
	</node>
	<node id="-44570" lat="59.6268734102" lon="5.72834583977">
		<tag k="name" v="Stemmetjørn" />
		<tag k="natural" v="water" />
		<tag k="ssr:stedsnr" v="974813" />
	</node>
	<node id="-44568" lat="59.6255450347" lon="5.72428778327">
		<tag k="name" v="Buvatnet" />
		<tag k="natural" v="water" />
		<tag k="ssr:stedsnr" v="974811" />
		<tag k="water" v="lake" />
	</node>
	<node id="-44566" lat="59.6284327936" lon="5.72528322704">
		<tag k="name" v="Gamlestemma" />
		<tag k="natural" v="water" />
		<tag k="ssr:stedsnr" v="974809" />
		<tag k="water" v="lake" />
	</node>
	<node id="-44563" lat="59.6286488305" lon="5.70639832975">
		<tag k="name" v="Skrubburevatna" />
		<tag k="natural" v="water" />
		<tag k="ssr:stedsnr" v="974706" />
		<tag k="water" v="lake" />
	</node>
	<node id="-44562" lat="59.625534243" lon="5.70773638916">
		<tag k="name" v="Tverrelva" />
		<tag k="ssr:stedsnr" v="974704" />
		<tag k="waterway" v="river" />
	</node>
	<node id="-42508" lat="59.5361266306" lon="5.60635832827">
		<tag k="alt_name" v="Tritjødnane" />
		<tag k="name" v="Tritjørnene" />
		<tag k="natural" v="water" />
		<tag k="ssr:stedsnr" v="690711" />
		<tag k="water" v="lake" />
	</node>
	<node id="-42507" lat="59.5168111114" lon="5.6293638847">
		<tag k="name" v="Sørhuselva" />
		<tag k="ssr:stedsnr" v="690706" />
		<tag k="waterway" v="river" />
	</node>
	<node id="-42506" lat="59.4937500002" lon="5.63709166786">
		<tag k="name" v="Sagelva" />
		<tag k="ssr:stedsnr" v="690701" />
		<tag k="waterway" v="river" />
	</node>
	<node id="-42498" lat="59.5454305558" lon="5.62895556256">
		<tag k="name" v="Storholmen" />
		<tag k="place" v="islet" />
		<tag k="ssr:stedsnr" v="525790" />
	</node>
	<node id="-44545" lat="59.6168298698" lon="5.68269623189">
		<tag k="name" v="Ølselva" />
		<tag k="ssr:stedsnr" v="974483" />
		<tag k="waterway" v="river" />
	</node>
	<node id="-44544" lat="59.6196538391" lon="5.6834555462">
		<tag k="name" v="Ølsfjellstjørna" />
		<tag k="natural" v="water" />
		<tag k="ssr:stedsnr" v="974482" />
	</node>
	<node id="-42492" lat="59.5158333317" lon="5.52047777409">
		<tag k="name" v="Kvednabekken" />
		<tag k="ssr:stedsnr" v="508715" />
		<tag k="waterway" v="stream" />
	</node>
	<node id="-42487" lat="59.5708138927" lon="5.61011111895">
		<tag k="name" v="Holmavatnet" />
		<tag k="natural" v="water" />
		<tag k="ssr:stedsnr" v="489344" />
	</node>
	<node id="-44531" lat="59.6304305935" lon="5.65286574457">
		<tag k="name" v="Tverrelva" />
		<tag k="ssr:stedsnr" v="974459" />
		<tag k="waterway" v="stream" />
	</node>
	<node id="-42466" lat="59.6496083363" lon="5.65849999833">
		<tag k="name" v="Bjoavatnet" />
		<tag k="natural" v="water" />
		<tag k="ssr:stedsnr" v="671470" />
		<tag k="water" v="lake" />
	</node>
	<node id="-42453" lat="59.4580472197" lon="5.68865555494">
		<tag k="alt_name" v="Ulvadalselva" />
		<tag k="name" v="Ulvadalsåna" />
		<tag k="ssr:stedsnr" v="670790" />
		<tag k="waterway" v="river" />
	</node>
	<node id="-42451" lat="59.4649499971" lon="5.7723500052">
		<tag k="name" v="Kvamstjørna" />
		<tag k="natural" v="water" />
		<tag k="ssr:stedsnr" v="670765" />
	</node>
	<node id="-42450" lat="59.4674041076" lon="5.78042534177">
		<tag k="name" v="Vatnakvamsvatnet" />
		<tag k="natural" v="water" />
		<tag k="ssr:stedsnr" v="670762" />
		<tag k="water" v="lake" />
	</node>
	<node id="-42447" lat="59.5326249995" lon="5.92884444594">
		<tag k="name" v="Lysebekken" />
		<tag k="ssr:stedsnr" v="670598" />
		<tag k="waterway" v="stream" />
	</node>
	<node id="-42446" lat="59.5490194452" lon="6.08905277238">
		<tag k="name" v="Halsvatnet" />
		<tag k="natural" v="water" />
		<tag k="ssr:stedsnr" v="670583" />
		<tag k="water" v="lake" />
	</node>
	<node id="-42445" lat="59.5725333295" lon="5.89148054779">
		<tag k="name" v="Rødneelva" />
		<tag k="ssr:stedsnr" v="670543" />
		<tag k="waterway" v="river" />
	</node>
	<node id="-42444" lat="59.5979166702" lon="5.93288333228">
		<tag k="name" v="Ongelsvatnet" />
		<tag k="natural" v="water" />
		<tag k="ssr:stedsnr" v="670527" />
		<tag k="water" v="lake" />
	</node>
	<node id="-42441" lat="59.6324749983" lon="5.69956388409">
		<tag k="alt_name" v="Lomavatn" />
		<tag k="name" v="Lomatjørna" />
		<tag k="natural" v="water" />
		<tag k="ssr:stedsnr" v="670434" />
		<tag k="water" v="lake" />
	</node>
	<node id="-44487" lat="59.6509702806" lon="5.72775330301">
		<tag k="name" v="Saltvikbekken" />
		<tag k="ssr:stedsnr" v="973779" />
		<tag k="waterway" v="stream" />
	</node>
	<node id="-42429" lat="59.4808240548" lon="5.83124492192">
		<tag k="alt_name" v="Løkjedne" />
		<tag k="name" v="Løkene" />
		<tag k="natural" v="water" />
		<tag k="ssr:stedsnr" v="669841" />
	</node>
	<node id="-42427" lat="59.4825833298" lon="5.68314166299">
		<tag k="name" v="Havåstjørna" />
		<tag k="natural" v="water" />
		<tag k="ssr:stedsnr" v="669836" />
	</node>
	<node id="-44471" lat="59.6469164261" lon="5.708085942">
		<tag k="name" v="Svehaugelva" />
		<tag k="ssr:stedsnr" v="973741" />
		<tag k="waterway" v="river" />
	</node>
	<node id="-42417" lat="59.4688388879" lon="5.49281111111">
		<tag k="name" v="Kalvalandstjørna" />
		<tag k="natural" v="water" />
		<tag k="ssr:stedsnr" v="667129" />
	</node>
	<node id="-42416" lat="59.4542694425" lon="5.50484445275">
		<tag k="name" v="Torvtjørna" />
		<tag k="natural" v="water" />
		<tag k="ssr:stedsnr" v="667120" />
	</node>
	<node id="-43933" lat="59.5442472251" lon="6.0245388825">
		<tag k="name" v="Røyravatnet" />
		<tag k="natural" v="water" />
		<tag k="ssr:stedsnr" v="609578" />
		<tag k="water" v="lake" />
	</node>
	<node id="-42401" lat="59.5376444434" lon="5.63813055077">
		<tag k="name" v="Stemmetjørna" />
		<tag k="natural" v="water" />
		<tag k="ssr:stedsnr" v="670276" />
	</node>
	<node id="-42392" lat="59.4697833319" lon="5.69750277201">
		<tag k="name" v="Røndalsbekken" />
		<tag k="ssr:stedsnr" v="665036" />
		<tag k="waterway" v="stream" />
	</node>
	<node id="-42383" lat="59.5834138913" lon="6.02802221928">
		<tag k="name" v="Bårdstjørnene" />
		<tag k="natural" v="water" />
		<tag k="ssr:stedsnr" v="664389" />
		<tag k="water" v="lake" />
	</node>
	<node id="-42379" lat="59.5957916643" lon="6.07531666985">
		<tag k="name" v="Flåtavassneset" />
		<tag k="natural" v="cape" />
		<tag k="ssr:stedsnr" v="664286" />
	</node>
	<node id="-42375" lat="59.5237749978" lon="5.67084999709">
		<tag k="name" v="Steintjørna" />
		<tag k="natural" v="water" />
		<tag k="ssr:stedsnr" v="663574" />
	</node>
	<node id="-42371" lat="59.547924996" lon="6.02626667342">
		<tag k="name" v="Moen" />
		<tag k="place" v="locality" />
		<tag k="ssr:stedsnr" v="663446" />
	</node>
	<node id="-42361" lat="59.5268083341" lon="6.03175277982">
		<tag k="name" v="Dyråna" />
		<tag k="ssr:stedsnr" v="663031" />
		<tag k="waterway" v="river" />
	</node>
	<node id="-44405" lat="59.6412262246" lon="5.63013146187">
		<tag k="name" v="Ørlibekken" />
		<tag k="ssr:stedsnr" v="973298" />
		<tag k="waterway" v="stream" />
	</node>
	<node id="-42356" lat="59.5625861134" lon="6.15251110207">
		<tag k="name" v="Risvasstranda" />
		<tag k="natural" v="beach" />
		<tag k="ssr:stedsnr" v="661988" />
	</node>
	<node id="-42355" lat="59.5571388898" lon="6.10936944832">
		<tag k="name" v="Litlaåna" />
		<tag k="ssr:stedsnr" v="661984" />
		<tag k="waterway" v="river" />
	</node>
	<node id="-44401" lat="59.6392433601" lon="5.59878374584">
		<tag k="name" v="Bleifossen" />
		<tag k="natural" v="waterfall" />
		<tag k="ssr:stedsnr" v="973267" />
	</node>
	<node id="-44385" lat="59.6705694232" lon="5.7387633063">
		<tag k="name" v="Herøytangen" />
		<tag k="natural" v="cape" />
		<tag k="ssr:stedsnr" v="973170" />
	</node>
	<node id="-42334" lat="59.4451210037" lon="5.70237992007">
		<tag k="name" v="Dalatjørna" />
		<tag k="natural" v="water" />
		<tag k="ssr:stedsnr" v="427718" />
	</node>
	<node id="-42330" lat="59.4288499997" lon="5.73168611484">
		<tag k="alt_name" v="Raunesvatnet" />
		<tag k="name" v="Raudnesvatnet" />
		<tag k="natural" v="water" />
		<tag k="ssr:stedsnr" v="427011" />
		<tag k="water" v="lake" />
	</node>
	<node id="-42326" lat="59.5444194489" lon="5.70095555586">
		<tag k="name" v="Alvseikjeåna" />
		<tag k="ssr:stedsnr" v="423706" />
		<tag k="waterway" v="stream" />
	</node>
	<node id="-42318" lat="59.4838305578" lon="5.84105832527">
		<tag k="name" v="Ulledalsbekken" />
		<tag k="ssr:stedsnr" v="420242" />
		<tag k="waterway" v="stream" />
	</node>
	<node id="-42281" lat="59.5404888885" lon="6.00947499524">
		<tag k="name" v="Ulvavollstjørna" />
		<tag k="natural" v="water" />
		<tag k="ssr:stedsnr" v="299035" />
	</node>
	<node id="-42280" lat="59.4805305554" lon="6.13022778068">
		<tag k="name" v="Vågaåna" />
		<tag k="ssr:stedsnr" v="366271" />
		<tag k="waterway" v="stream" />
	</node>
	<node id="-42278" lat="59.5263416683" lon="5.81450832761">
		<tag k="name" v="Årakbekken" />
		<tag k="ssr:stedsnr" v="361871" />
		<tag k="waterway" v="stream" />
	</node>
	<node id="-42273" lat="59.5674666665" lon="5.98373888379">
		<tag k="name" v="Svartetjørn" />
		<tag k="natural" v="water" />
		<tag k="ssr:stedsnr" v="361525" />
	</node>
	<node id="-42266" lat="59.5807305541" lon="5.89127221577">
		<tag k="name" v="Nipetjørna" />
		<tag k="natural" v="water" />
		<tag k="ssr:stedsnr" v="359207" />
	</node>
	<node id="-44312" lat="59.6623029149" lon="5.59204899721">
		<tag k="name" v="Storastemma" />
		<tag k="ssr:stedsnr" v="972629" />
		<tag k="waterway" v="dam" />
	</node>
	<node id="-42254" lat="59.6386277763" lon="5.60509999718">
		<tag k="name" v="Dalselva" />
		<tag k="ssr:stedsnr" v="489481" />
		<tag k="waterway" v="river" />
	</node>
	<node id="-42253" lat="59.6150166685" lon="5.59256388953">
		<tag k="name" v="Vasslivatnet" />
		<tag k="natural" v="water" />
		<tag k="ssr:stedsnr" v="489104" />
		<tag k="water" v="lake" />
	</node>
	<node id="-42247" lat="59.5300861146" lon="6.12848610495">
		<tag k="alt_name" v="Trodlabotnvatnet" />
		<tag k="name" v="Trollabotnsvatnet" />
		<tag k="natural" v="water" />
		<tag k="ssr:stedsnr" v="488893" />
		<tag k="water" v="lake" />
	</node>
	<node id="-42231" lat="59.5635305545" lon="6.14467500862">
		<tag k="name" v="Risvatnet" />
		<tag k="natural" v="water" />
		<tag k="ssr:stedsnr" v="488586" />
		<tag k="water" v="lake" />
	</node>
	<node id="-44270" lat="59.525191668" lon="5.69940555011">
		<tag k="name" v="Sjurseikjeneset" />
		<tag k="natural" v="cape" />
		<tag k="ssr:stedsnr" v="966590" />
	</node>
	<node id="-44269" lat="59.4729055566" lon="5.84299721479">
		<tag k="name" v="Flåtabekken" />
		<tag k="ssr:stedsnr" v="966240" />
		<tag k="waterway" v="stream" />
	</node>
	<node id="-42219" lat="59.6297931048" lon="5.82898096464">
		<tag k="name" v="Langavatnet" />
		<tag k="natural" v="water" />
		<tag k="ssr:stedsnr" v="488410" />
	</node>
	<node id="-42214" lat="59.5831750007" lon="5.73572777772">
		<tag k="name" v="Storebekken" />
		<tag k="ssr:stedsnr" v="488330" />
		<tag k="waterway" v="stream" />
	</node>
	<node id="-42197" lat="59.4837777742" lon="6.07416666968">
		<tag k="name" v="Akslandstjørna" />
		<tag k="natural" v="water" />
		<tag k="ssr:stedsnr" v="487328" />
	</node>
	<node id="-44237" lat="59.5353888888" lon="5.64930277415">
		<tag k="name" v="Slettarebekken" />
		<tag k="ssr:stedsnr" v="872693" />
		<tag k="waterway" v="stream" />
	</node>
	<node id="-44236" lat="59.51469167" lon="5.62816388857">
		<tag k="name" v="Kvikklo" />
		<tag k="natural" v="water" />
		<tag k="ssr:stedsnr" v="872691" />
		<tag k="water" v="lake" />
	</node>
	<node id="-44235" lat="59.5271916695" lon="5.55710000009">
		<tag k="name" v="Kjyngjagro" />
		<tag k="natural" v="bay" />
		<tag k="ssr:stedsnr" v="872678" />
	</node>
	<node id="-42185" lat="59.4466333375" lon="5.73901389546">
		<tag k="name" v="Raunesbekken" />
		<tag k="ssr:stedsnr" v="483944" />
		<tag k="waterway" v="stream" />
	</node>
	<node id="-42183" lat="59.5333055514" lon="5.90769167281">
		<tag k="name" v="Durmåltjørn" />
		<tag k="natural" v="water" />
		<tag k="ssr:stedsnr" v="483240" />
	</node>
	<node id="-42180" lat="59.5685944405" lon="5.69129166676">
		<tag k="name" v="Kvednabekken" />
		<tag k="ssr:stedsnr" v="482987" />
		<tag k="waterway" v="stream" />
	</node>
	<node id="-44226" lat="59.5904583302" lon="6.09500278412">
		<tag k="name" v="Knipselva" />
		<tag k="ssr:stedsnr" v="853546" />
		<tag k="waterway" v="stream" />
	</node>
	<node id="-42177" lat="59.5461916679" lon="5.8747750054">
		<tag k="name" v="Hålandselva" />
		<tag k="ssr:stedsnr" v="482794" />
		<tag k="waterway" v="river" />
	</node>
	<node id="-42175" lat="59.5271222217" lon="5.82149166684">
		<tag k="name" v="Juvbekken" />
		<tag k="ssr:stedsnr" v="482909" />
		<tag k="waterway" v="stream" />
	</node>
	<node id="-44221" lat="59.5467777809" lon="5.94224443568">
		<tag k="name" v="Trodalselva" />
		<tag k="ssr:stedsnr" v="853591" />
		<tag k="waterway" v="river" />
	</node>
	<node id="-44219" lat="59.6426305549" lon="5.57172500803">
		<tag k="name" v="Langetjørn" />
		<tag k="natural" v="water" />
		<tag k="ssr:stedsnr" v="853446" />
	</node>
	<node id="-42169" lat="59.5921027773" lon="5.68669167331">
		<tag k="name" v="Gronstølstjørna" />
		<tag k="natural" v="water" />
		<tag k="ssr:stedsnr" v="481825" />
	</node>
	<node id="-44216" lat="59.6288444404" lon="5.71273333733">
		<tag k="name" v="Skrubburdvatnet" />
		<tag k="natural" v="water" />
		<tag k="ssr:stedsnr" v="853428" />
		<tag k="water" v="lake" />
	</node>
	<node id="-42167" lat="59.5455555513" lon="5.75785832885">
		<tag k="name" v="Trettetjørnene" />
		<tag k="natural" v="water" />
		<tag k="ssr:stedsnr" v="481546" />
		<tag k="water" v="lake" />
	</node>
	<node id="-42166" lat="59.5233472184" lon="5.68157778133">
		<tag k="name" v="Stemmetjørna" />
		<tag k="natural" v="water" />
		<tag k="ssr:stedsnr" v="481588" />
	</node>
	<node id="-44210" lat="59.653399998" lon="5.56380554882">
		<tag k="name" v="Rullesviktjørna" />
		<tag k="natural" v="water" />
		<tag k="ssr:stedsnr" v="853022" />
	</node>
	<node id="-44206" lat="59.5579611116" lon="5.57699999246">
		<tag k="fixme" v="multiple name tags, choose one and add the other to alt_name" />
		<tag k="name" v="Holtengårdselva;Ulvebneelva;Vikabekken" />
		<tag k="ssr:stedsnr" v="853333" />
		<tag k="waterway" v="stream" />
	</node>
	<node id="-44202" lat="59.4735750041" lon="5.68335000438">
		<tag k="name" v="Haugavatnet" />
		<tag k="natural" v="water" />
		<tag k="ssr:stedsnr" v="852800" />
		<tag k="water" v="lake" />
	</node>
	<node id="-42153" lat="59.5817833327" lon="5.92823888523">
		<tag k="name" v="Sandvodno" />
		<tag k="place" v="locality" />
		<tag k="ssr:stedsnr" v="481185" />
	</node>
	<node id="-44199" lat="59.475211111" lon="5.81395555997">
		<tag k="name" v="Stokkadalsvatnet" />
		<tag k="natural" v="water" />
		<tag k="ssr:stedsnr" v="852777" />
		<tag k="water" v="lake" />
	</node>
	<node id="-42148" lat="59.485699996" lon="6.11080000285">
		<tag k="name" v="Kråkedalstjørna" />
		<tag k="natural" v="water" />
		<tag k="ssr:stedsnr" v="479620" />
	</node>
	<node id="-44188" lat="59.4747111126" lon="5.63526945272">
		<tag k="name" v="Giskaelva" />
		<tag k="ssr:stedsnr" v="849056" />
		<tag k="waterway" v="river" />
	</node>
	<node id="-44185" lat="59.5663166682" lon="5.70688889153">
		<tag k="name" v="Midttjørna" />
		<tag k="natural" v="water" />
		<tag k="ssr:stedsnr" v="847991" />
	</node>
	<node id="-44184" lat="59.5707638906" lon="5.68548054686">
		<tag k="name" v="Stemmetjørna" />
		<tag k="natural" v="water" />
		<tag k="ssr:stedsnr" v="847987" />
	</node>
	<node id="-42131" lat="59.6374000017" lon="5.6912166605">
		<tag k="alt_name" v="Krokavatn" />
		<tag k="name" v="Gråhorgvatnet" />
		<tag k="natural" v="water" />
		<tag k="ssr:stedsnr" v="306427" />
		<tag k="water" v="lake" />
	</node>
	<node id="-42130" lat="59.6313027777" lon="5.70787778523">
		<tag k="name" v="Krokavatnet" />
		<tag k="natural" v="water" />
		<tag k="ssr:stedsnr" v="306426" />
		<tag k="water" v="lake" />
	</node>
	<node id="-42127" lat="59.4882936145" lon="5.68235955461">
		<tag k="name" v="Holmavatnet" />
		<tag k="natural" v="water" />
		<tag k="ssr:stedsnr" v="305859" />
		<tag k="water" v="lake" />
	</node>
	<node id="-44174" lat="59.5221361148" lon="6.0432527852">
		<tag k="name" v="Fevatnet" />
		<tag k="natural" v="water" />
		<tag k="ssr:stedsnr" v="847406" />
		<tag k="water" v="lake" />
	</node>
	<node id="-44165" lat="59.5212666658" lon="5.66443054772">
		<tag k="name" v="Elleflåttjørna" />
		<tag k="natural" v="water" />
		<tag k="ssr:stedsnr" v="846569" />
	</node>
	<node id="-42116" lat="59.5556472259" lon="5.59969166091">
		<tag k="name" v="Steintjørn" />
		<tag k="natural" v="water" />
		<tag k="ssr:stedsnr" v="301105" />
	</node>
	<node id="-42115" lat="59.5599694478" lon="5.782961113">
		<tag k="name" v="Sønnanåelva" />
		<tag k="ssr:stedsnr" v="300868" />
		<tag k="waterway" v="river" />
	</node>
	<node id="-44152" lat="59.5889722209" lon="5.89010277506">
		<tag k="name" v="Frølandsvad" />
		<tag k="place" v="locality" />
		<tag k="ssr:stedsnr" v="845225" />
	</node>
	<node id="-44151" lat="59.477460674" lon="5.80857961998">
		<tag k="name" v="Vassvika" />
		<tag k="natural" v="bay" />
		<tag k="ssr:stedsnr" v="845194" />
	</node>
	<node id="-44150" lat="59.4732638878" lon="5.80785277306">
		<tag k="name" v="Neset" />
		<tag k="natural" v="cape" />
		<tag k="ssr:stedsnr" v="845157" />
	</node>
	<node id="-42524" lat="59.5188111133" lon="5.66083610476">
		<tag k="name" v="Sandvadtjørna" />
		<tag k="natural" v="water" />
		<tag k="ssr:stedsnr" v="542564" />
	</node>
	<node id="-44136" lat="59.4402694453" lon="5.70749443775">
		<tag k="name" v="Løkjene" />
		<tag k="natural" v="water" />
		<tag k="ssr:stedsnr" v="842590" />
		<tag k="water" v="lake" />
	</node>
	<node id="-42084" lat="59.5007361077" lon="5.64871111395">
		<tag k="name" v="Bergaelva" />
		<tag k="ssr:stedsnr" v="448696" />
		<tag k="waterway" v="river" />
	</node>
	<node id="-44127" lat="59.5495194473" lon="5.63584166414">
		<tag k="name" v="Stølsbekken" />
		<tag k="ssr:stedsnr" v="829813" />
		<tag k="waterway" v="stream" />
	</node>
	<node id="-44125" lat="59.4785749986" lon="5.48675554866">
		<tag k="name" v="Munkatjørn" />
		<tag k="natural" v="water" />
		<tag k="ssr:stedsnr" v="815289" />
	</node>
	<node id="-42073" lat="59.4713215191" lon="5.79832153128">
		<tag k="alt_name" v="Haraldstveittjørna" />
		<tag k="name" v="Haraldstveitvatnet" />
		<tag k="natural" v="water" />
		<tag k="ssr:stedsnr" v="245768" />
		<tag k="water" v="lake" />
	</node>
	<node id="-42071" lat="59.4934047096" lon="5.99216724232">
		<tag k="name" v="Ølmedalsvatnet" />
		<tag k="natural" v="water" />
		<tag k="ssr:stedsnr" v="245260" />
		<tag k="water" v="lake" />
	</node>
	<node id="-42062" lat="59.5397555537" lon="5.71102223047">
		<tag k="name" v="Landaholmen" />
		<tag k="place" v="islet" />
		<tag k="ssr:stedsnr" v="240695" />
	</node>
	<node id="-42061" lat="59.5385638921" lon="5.68756666093">
		<tag k="name" v="Sjurseikjebekken" />
		<tag k="ssr:stedsnr" v="240688" />
		<tag k="waterway" v="stream" />
	</node>
	<node id="-44104" lat="59.5274833293" lon="6.04391110668">
		<tag k="name" v="Øyevatnet" />
		<tag k="natural" v="water" />
		<tag k="ssr:stedsnr" v="792880" />
		<tag k="water" v="lake" />
	</node>
	<node id="-44101" lat="59.5809166688" lon="6.03252499234">
		<tag k="name" v="Bårdstjørna" />
		<tag k="natural" v="water" />
		<tag k="ssr:stedsnr" v="792550" />
	</node>
	<node id="-44096" lat="59.6222500003" lon="5.6751333375">
		<tag k="alt_name" v="Vikeelva" />
		<tag k="name" v="Vikelva" />
		<tag k="ssr:stedsnr" v="792403" />
		<tag k="waterway" v="stream" />
	</node>
	<node id="-44095" lat="59.5445666623" lon="6.12194999911">
		<tag k="name" v="Gullvatna" />
		<tag k="natural" v="water" />
		<tag k="ssr:stedsnr" v="792600" />
		<tag k="water" v="lake" />
	</node>
	<node id="-42045" lat="59.4338130727" lon="5.72793227938">
		<tag k="name" v="Stauråstjørna" />
		<tag k="natural" v="water" />
		<tag k="ssr:stedsnr" v="184021" />
	</node>
	<node id="-42039" lat="59.4793805523" lon="5.70211388056">
		<tag k="name" v="Frølandselva" />
		<tag k="ssr:stedsnr" v="180009" />
		<tag k="waterway" v="river" />
	</node>
	<node id="-44085" lat="59.5687138869" lon="5.615830556">
		<tag k="name" v="Mørkadalsvatnet" />
		<tag k="natural" v="water" />
		<tag k="ssr:stedsnr" v="792328" />
		<tag k="water" v="lake" />
	</node>
	<node id="-42035" lat="59.5126055522" lon="5.81033888049">
		<tag k="name" v="Korabekken" />
		<tag k="ssr:stedsnr" v="179852" />
		<tag k="waterway" v="stream" />
	</node>
	<node id="-42033" lat="59.5606138852" lon="5.75369999536">
		<tag k="name" v="Tverrbekken" />
		<tag k="ssr:stedsnr" v="179769" />
		<tag k="waterway" v="stream" />
	</node>
	<node id="-44080" lat="59.6214055544" lon="5.66300278177">
		<tag k="name" v="Tverselva" />
		<tag k="ssr:stedsnr" v="792400" />
		<tag k="waterway" v="stream" />
	</node>
	<node id="-44079" lat="59.6165583377" lon="5.61683888601">
		<tag k="alt_name" v="Dyrskårvatnet;Dyraskorvatnet;Dyraskorvatn" />
		<tag k="name" v="Dyraskarvatnet" />
		<tag k="natural" v="water" />
		<tag k="ssr:stedsnr" v="792387" />
		<tag k="water" v="lake" />
	</node>
	<node id="-44072" lat="59.5260945053" lon="5.52318675431">
		<tag k="alt_name" v="Arnhammarstjørnene" />
		<tag k="name" v="Arhammarstjørnane" />
		<tag k="natural" v="water" />
		<tag k="ssr:stedsnr" v="792271" />
		<tag k="water" v="lake" />
	</node>
	<node id="-42022" lat="59.5405472261" lon="5.86984722269">
		<tag k="name" v="Øyra" />
		<tag k="natural" v="bay" />
		<tag k="ssr:stedsnr" v="284558" />
	</node>
	<node id="-42020" lat="59.5365555525" lon="5.60168888359">
		<tag k="alt_name" v="Tritjødnebekken" />
		<tag k="name" v="Tritjørnebekken" />
		<tag k="ssr:stedsnr" v="283785" />
		<tag k="waterway" v="stream" />
	</node>
	<node id="-44066" lat="59.4583028401" lon="5.5100998628">
		<tag k="alt_name" v="Breidviktjørna" />
		<tag k="fixme" v="multiple name tags, choose one and add the other to alt_name" />
		<tag k="name" v="Svinakleivtjørna;Breiviktjørna" />
		<tag k="natural" v="water" />
		<tag k="ssr:stedsnr" v="791802" />
	</node>
	<node id="-44060" lat="59.4879111153" lon="6.12504444083">
		<tag k="alt_name" v="Vågavatnet, øvre" />
		<tag k="name" v="Øvre Vågavatnet" />
		<tag k="natural" v="water" />
		<tag k="ssr:stedsnr" v="791282" />
		<tag k="water" v="lake" />
	</node>
	<node id="-42010" lat="59.5676213492" lon="5.62483576373">
		<tag k="name" v="Indre Mørkadalsvatnet" />
		<tag k="natural" v="water" />
		<tag k="ssr:stedsnr" v="161154" />
		<tag k="water" v="lake" />
	</node>
	<node id="-42008" lat="59.5017166664" lon="5.47622500882">
		<tag k="name" v="Kvednabekken" />
		<tag k="ssr:stedsnr" v="269770" />
		<tag k="waterway" v="stream" />
	</node>
	<node id="-44055" lat="59.4680257527" lon="5.51627071883">
		<tag k="name" v="Teineelva" />
		<tag k="ssr:stedsnr" v="788108" />
		<tag k="waterway" v="river" />
	</node>
	<node id="-44053" lat="59.4815166699" lon="5.5397138805">
		<tag k="name" v="Vestråelva" />
		<tag k="ssr:stedsnr" v="788101" />
		<tag k="waterway" v="river" />
	</node>
	<node id="-42002" lat="59.5291083342" lon="5.55988610359">
		<tag k="name" v="Granholmen" />
		<tag k="place" v="islet" />
		<tag k="ssr:stedsnr" v="265689" />
	</node>
	<node id="-42000" lat="59.5595645518" lon="5.59124018135">
		<tag k="name" v="Grautvatnet" />
		<tag k="natural" v="water" />
		<tag k="ssr:stedsnr" v="124281" />
		<tag k="water" v="lake" />
	</node>
	<node id="-44045" lat="59.4489472266" lon="5.71584444676">
		<tag k="name" v="Stemmen" />
		<tag k="natural" v="water" />
		<tag k="ssr:stedsnr" v="786947" />
	</node>
	<node id="-44040" lat="59.5572611146" lon="5.70339999166">
		<tag k="name" v="Aurdalsåna" />
		<tag k="ssr:stedsnr" v="786693" />
		<tag k="waterway" v="river" />
	</node>
	<node id="-41991" lat="59.5941527801" lon="5.63973888126">
		<tag k="name" v="Langavatnet" />
		<tag k="natural" v="water" />
		<tag k="ssr:stedsnr" v="124320" />
		<tag k="water" v="lake" />
	</node>
	<node id="-44037" lat="59.5100027807" lon="6.02971388829">
		<tag k="name" v="Austeråna" />
		<tag k="ssr:stedsnr" v="786630" />
		<tag k="waterway" v="river" />
	</node>
	<node id="-44036" lat="59.4518305595" lon="5.80235554819">
		<tag k="name" v="Kvednabekken" />
		<tag k="ssr:stedsnr" v="786918" />
		<tag k="waterway" v="stream" />
	</node>
	<node id="-41983" lat="59.5380861141" lon="5.74480833401">
		<tag k="name" v="Fjellskarsbekken" />
		<tag k="ssr:stedsnr" v="117537" />
		<tag k="waterway" v="stream" />
	</node>
	<node id="-44027" lat="59.5529499964" lon="6.09753056343">
		<tag k="name" v="Stegatjørn" />
		<tag k="natural" v="water" />
		<tag k="ssr:stedsnr" v="786266" />
	</node>
	<node id="-44026" lat="59.5614694483" lon="6.10365000563">
		<tag k="name" v="Sjurstølelva" />
		<tag k="ssr:stedsnr" v="786265" />
		<tag k="waterway" v="river" />
	</node>
	<node id="-41976" lat="59.5805611092" lon="5.92780278261">
		<tag k="name" v="Kuhølen" />
		<tag k="place" v="locality" />
		<tag k="ssr:stedsnr" v="117204" />
	</node>
	<node id="-44023" lat="59.4915222257" lon="6.16698332978">
		<tag k="name" v="Vikabekken" />
		<tag k="ssr:stedsnr" v="785337" />
		<tag k="waterway" v="stream" />
	</node>
	<node id="-41974" lat="59.4967972188" lon="6.16408334201">
		<tag k="name" v="Hetlelitjørna" />
		<tag k="natural" v="water" />
		<tag k="ssr:stedsnr" v="115619" />
	</node>
	<node id="-41972" lat="59.4891777751" lon="6.13894721716">
		<tag k="name" v="Vassosen" />
		<tag k="natural" v="bay" />
		<tag k="ssr:stedsnr" v="115605" />
	</node>
	<node id="-44018" lat="59.5485249988" lon="5.75296944066">
		<tag k="name" v="Kjeaskårtjørna" />
		<tag k="natural" v="water" />
		<tag k="ssr:stedsnr" v="784562" />
	</node>
	<node id="-44017" lat="59.5316472255" lon="5.73636944121">
		<tag k="name" v="Blikraåna" />
		<tag k="ssr:stedsnr" v="784553" />
		<tag k="waterway" v="river" />
	</node>
	<node id="-41965" lat="59.5061694407" lon="6.08551667348">
		<tag k="alt_name" v="Krokadalsvatnet" />
		<tag k="name" v="Kråkedalsvatnet" />
		<tag k="natural" v="water" />
		<tag k="ssr:stedsnr" v="246926" />
		<tag k="water" v="lake" />
	</node>
	<node id="-41964" lat="59.539219449" lon="6.14574445127">
		<tag k="alt_name" v="Istjørn" />
		<tag k="name" v="Istjørna" />
		<tag k="natural" v="water" />
		<tag k="ssr:stedsnr" v="246891" />
	</node>
	<node id="-41961" lat="59.5129833369" lon="5.91817222559">
		<tag k="alt_name" v="Vikedalsåna;Vikadalselva;Vikedalselva" />
		<tag k="name" v="Vikadalsåna" />
		<tag k="ssr:stedsnr" v="246876" />
		<tag k="waterway" v="river" />
	</node>
	<node id="-41957" lat="59.558144442" lon="5.86515000757">
		<tag k="alt_name" v="Øvstabøelva" />
		<tag k="name" v="Østbøelva" />
		<tag k="ssr:stedsnr" v="246559" />
		<tag k="waterway" v="river" />
	</node>
	<node id="-41956" lat="59.5630798903" lon="6.02552389732">
		<tag k="name" v="Fjellgardsvatnet" />
		<tag k="natural" v="water" />
		<tag k="ssr:stedsnr" v="246554" />
		<tag k="water" v="lake" />
	</node>
	<node id="-43999" lat="59.4945972192" lon="5.73501944717">
		<tag k="name" v="Ragnillavågen" />
		<tag k="natural" v="bay" />
		<tag k="ssr:stedsnr" v="784048" />
	</node>
	<node id="-43998" lat="59.5554583346" lon="5.88774166547">
		<tag k="name" v="Rabnatjørn" />
		<tag k="natural" v="water" />
		<tag k="ssr:stedsnr" v="784040" />
	</node>
	<node id="-43996" lat="59.4905194403" lon="6.12731389238">
		<tag k="name" v="Straumen" />
		<tag k="place" v="locality" />
		<tag k="ssr:stedsnr" v="782614" />
	</node>
	<node id="-41940" lat="59.4828749969" lon="5.66982778333">
		<tag k="alt_name" v="Frølandselva" />
		<tag k="name" v="Trøsdalselva" />
		<tag k="ssr:stedsnr" v="245833" />
		<tag k="waterway" v="stream" />
	</node>
	<node id="-41936" lat="59.5014305591" lon="5.67976388251">
		<tag k="alt_name" v="Mosarevatnet" />
		<tag k="name" v="Mosarevvatnet" />
		<tag k="natural" v="water" />
		<tag k="ssr:stedsnr" v="245627" />
		<tag k="water" v="lake" />
	</node>
	<node id="-41933" lat="59.5422111113" lon="5.60647222182">
		<tag k="name" v="Bjordalselva" />
		<tag k="ssr:stedsnr" v="245281" />
		<tag k="waterway" v="stream" />
	</node>
	<node id="-43979" lat="59.5629194419" lon="5.62681666339">
		<tag k="name" v="Ulserihaugtjørna" />
		<tag k="natural" v="water" />
		<tag k="ssr:stedsnr" v="767122" />
	</node>
	<node id="-41925" lat="59.4706388897" lon="5.64190833431">
		<tag k="name" v="Raunlitjørna" />
		<tag k="natural" v="water" />
		<tag k="ssr:stedsnr" v="242043" />
	</node>
	<node id="-43972" lat="59.4868666629" lon="5.49524722716">
		<tag k="name" v="Naustdaltjørna" />
		<tag k="natural" v="water" />
		<tag k="ssr:stedsnr" v="751710" />
	</node>
	<node id="-41923" lat="59.6225750019" lon="5.58613611968">
		<tag k="alt_name" v="Listjørn" />
		<tag k="name" v="Listjørna" />
		<tag k="natural" v="water" />
		<tag k="ssr:stedsnr" v="64410" />
	</node>
	<node id="-41917" lat="59.563705552" lon="5.74071388106">
		<tag k="name" v="Aurdalselva" />
		<tag k="ssr:stedsnr" v="64332" />
		<tag k="waterway" v="stream" />
	</node>
	<node id="-41916" lat="59.5362999994" lon="5.55810278184">
		<tag k="alt_name" v="Vatnaskarvika" />
		<tag k="name" v="Vatneskardvika" />
		<tag k="natural" v="bay" />
		<tag k="ssr:stedsnr" v="64303" />
	</node>
	<node id="-41911" lat="59.4784443225" lon="5.62125965376">
		<tag k="fixme" v="multiple name tags, choose one and add the other to alt_name" />
		<tag k="name" v="Longalandstjørna;Paddetjørna" />
		<tag k="natural" v="water" />
		<tag k="ssr:stedsnr" v="63823" />
	</node>
	<node id="-41909" lat="59.4759305596" lon="5.73492500412">
		<tag k="name" v="Åmsosen" />
		<tag k="natural" v="bay" />
		<tag k="ssr:stedsnr" v="63817" />
	</node>
	<node id="-43954" lat="59.5014333349" lon="5.64194166311">
		<tag k="name" v="Grønemyrsbekken" />
		<tag k="ssr:stedsnr" v="629679" />
		<tag k="waterway" v="stream" />
	</node>
	<node id="-43951" lat="59.5164888855" lon="5.58866666366">
		<tag k="alt_name" v="Stemmetjønnsbekken" />
		<tag k="name" v="Stemmetjørnbekken" />
		<tag k="ssr:stedsnr" v="610661" />
		<tag k="waterway" v="stream" />
	</node>
	<node id="-43948" lat="59.6249509843" lon="5.82818397956">
		<tag k="name" v="Krokavatnet" />
		<tag k="natural" v="water" />
		<tag k="ssr:stedsnr" v="610468" />
		<tag k="water" v="lake" />
	</node>
	<node id="-43937" lat="59.4948688115" lon="5.487108933">
		<tag k="alt_name" v="Måkafjellstjørna;Måkefjellstjørna" />
		<tag k="name" v="Måkafjelltjørna" />
		<tag k="natural" v="water" />
		<tag k="ssr:stedsnr" v="609855" />
	</node>
	<node id="-41885" lat="59.5075111154" lon="6.10490277965">
		<tag k="name" v="Ytra Holsnesvatnet" />
		<tag k="natural" v="water" />
		<tag k="ssr:stedsnr" v="238533" />
		<tag k="water" v="lake" />
	</node>
	<node id="-43924" lat="59.5446973527" lon="5.62414074079">
		<tag k="alt_name" v="Longåsdalsvatnet" />
		<tag k="name" v="Langåsdalsvatnet" />
		<tag k="natural" v="water" />
		<tag k="ssr:stedsnr" v="609288" />
		<tag k="water" v="lake" />
	</node>
	<node id="-43922" lat="59.5463166689" lon="5.771830554">
		<tag k="alt_name" v="Måsarvatnet" />
		<tag k="name" v="Mosarevvatnet" />
		<tag k="natural" v="water" />
		<tag k="ssr:stedsnr" v="609282" />
		<tag k="water" v="lake" />
	</node>
	<node id="-41866" lat="59.5402972242" lon="6.03307777091">
		<tag k="name" v="Hedlebekken" />
		<tag k="ssr:stedsnr" v="56028" />
		<tag k="waterway" v="stream" />
	</node>
	<node id="-43909" lat="59.4942888899" lon="5.78958055998">
		<tag k="name" v="Stemmevatnet" />
		<tag k="natural" v="water" />
		<tag k="ssr:stedsnr" v="608880" />
	</node>
	<node id="-43892" lat="59.4884555576" lon="5.69774445131">
		<tag k="name" v="Stemmebekken" />
		<tag k="ssr:stedsnr" v="604906" />
		<tag k="waterway" v="stream" />
	</node>
	<node id="-41841" lat="59.5115055535" lon="5.47366110951">
		<tag k="name" v="Sandbekken" />
		<tag k="ssr:stedsnr" v="23707" />
		<tag k="waterway" v="stream" />
	</node>
	<node id="-41836" lat="59.5680888887" lon="5.62022223067">
		<tag k="name" v="Midtre Mørkadalsvatnet" />
		<tag k="natural" v="water" />
		<tag k="ssr:stedsnr" v="221121" />
		<tag k="water" v="lake" />
	</node>
	<node id="-41833" lat="59.5761194458" lon="5.60442777923">
		<tag k="name" v="Hestadalstjørna" />
		<tag k="natural" v="water" />
		<tag k="ssr:stedsnr" v="220079" />
	</node>
	<node id="-41832" lat="59.4850079112" lon="5.50274678283">
		<tag k="name" v="Vassåstjørna" />
		<tag k="natural" v="water" />
		<tag k="ssr:stedsnr" v="2856" />
	</node>
	<node id="-43872" lat="59.5184388915" lon="5.94617500857">
		<tag k="name" v="Moland" />
		<tag k="place" v="locality" />
		<tag k="ssr:stedsnr" v="603416" />
	</node>
	<node id="-43863" lat="59.5462916693" lon="6.02315277726">
		<tag k="name" v="Movika" />
		<tag k="natural" v="bay" />
		<tag k="ssr:stedsnr" v="602485" />
	</node>
	<node id="-43856" lat="59.5076861085" lon="5.72049444162">
		<tag k="name" v="Grautenes" />
		<tag k="natural" v="cape" />
		<tag k="ssr:stedsnr" v="602060" />
	</node>
	<node id="-43854" lat="59.4725660927" lon="5.82044555608">
		<tag k="name" v="Grønevik" />
		<tag k="natural" v="bay" />
		<tag k="ssr:stedsnr" v="602196" />
	</node>
	<node id="-43819" lat="59.6428165213" lon="5.58682590925">
		<tag k="alt_name" v="Rådalstjørn" />
		<tag k="name" v="Rådalstjørna" />
		<tag k="natural" v="water" />
		<tag k="ssr:stedsnr" v="549428" />
	</node>
	<node id="-43797" lat="59.4810694443" lon="5.8350083412">
		<tag k="alt_name" v="Sandviktjørna" />
		<tag k="name" v="Sandvikstjørna" />
		<tag k="natural" v="water" />
		<tag k="ssr:stedsnr" v="548834" />
	</node>
	<node id="-43796" lat="59.4785027794" lon="5.53206667193">
		<tag k="alt_name" v="Liaelva" />
		<tag k="name" v="Lielva" />
		<tag k="ssr:stedsnr" v="548819" />
		<tag k="waterway" v="stream" />
	</node>
	<node id="-43795" lat="59.4739059736" lon="5.71858992406">
		<tag k="name" v="Rakkartjørna" />
		<tag k="natural" v="water" />
		<tag k="ssr:stedsnr" v="548815" />
	</node>
	<node id="-43792" lat="59.4719637968" lon="5.64776792852">
		<tag k="alt_name" v="Longalandsvatnet" />
		<tag k="name" v="Langalandsvatnet" />
		<tag k="natural" v="water" />
		<tag k="ssr:stedsnr" v="548806" />
		<tag k="water" v="lake" />
	</node>
	<node id="-43789" lat="59.4609166644" lon="5.82293054824">
		<tag k="alt_name" v="Håfjellstjørna" />
		<tag k="name" v="Hovfjellstjørna" />
		<tag k="natural" v="water" />
		<tag k="ssr:stedsnr" v="548770" />
	</node>
	<node id="-43788" lat="59.4507496737" lon="5.69229649696">
		<tag k="name" v="Gåsvatnet" />
		<tag k="natural" v="water" />
		<tag k="ssr:stedsnr" v="548759" />
		<tag k="water" v="lake" />
	</node>
	<node id="-43778" lat="59.496599998" lon="6.05779999266">
		<tag k="alt_name" v="Vasstølsvatnet" />
		<tag k="name" v="Vasstølvatnet" />
		<tag k="natural" v="water" />
		<tag k="ssr:stedsnr" v="548287" />
		<tag k="water" v="lake" />
	</node>
	<node id="-43776" lat="59.4367043302" lon="5.73574952271">
		<tag k="name" v="Raudneselva" />
		<tag k="ssr:stedsnr" v="548031" />
		<tag k="waterway" v="stream" />
	</node>
	<node id="-43773" lat="59.4751439911" lon="5.5145646406">
		<tag k="name" v="Stemmen" />
		<tag k="natural" v="water" />
		<tag k="ssr:stedsnr" v="545100" />
	</node>
	<node id="-43772" lat="59.5196138876" lon="5.77545554764">
		<tag k="name" v="Døldå" />
		<tag k="ssr:stedsnr" v="544884" />
		<tag k="waterway" v="river" />
	</node>
	<node id="-43769" lat="59.5360972255" lon="5.70808610743">
		<tag k="name" v="Klopparvika" />
		<tag k="natural" v="bay" />
		<tag k="ssr:stedsnr" v="544684" />
	</node>
	<node id="-43765" lat="59.5526527784" lon="5.67470834099">
		<tag k="name" v="Vatnadalsbekken" />
		<tag k="ssr:stedsnr" v="543988" />
		<tag k="waterway" v="stream" />
	</node>
	<node id="-43758" lat="59.5147749999" lon="5.79063054959">
		<tag k="name" v="Stuttanes" />
		<tag k="natural" v="cape" />
		<tag k="ssr:stedsnr" v="543879" />
	</node>
	<node id="-43754" lat="59.5707472247" lon="5.94460277383">
		<tag k="name" v="Mørkavasstjørna" />
		<tag k="natural" v="water" />
		<tag k="ssr:stedsnr" v="543482" />
	</node>
	<node id="-43749" lat="59.546616669" lon="6.03310832943">
		<tag k="name" v="Træå" />
		<tag k="place" v="locality" />
		<tag k="ssr:stedsnr" v="542469" />
	</node>
	<node id="-43738" lat="59.4754472224" lon="5.82513333618">
		<tag k="name" v="Fisketjørna" />
		<tag k="natural" v="water" />
		<tag k="ssr:stedsnr" v="541194" />
	</node>
	<node id="-43737" lat="59.5769194427" lon="6.12625277107">
		<tag k="alt_name" v="Søre Bjønndalselva" />
		<tag k="name" v="Søre Bjørndalselva" />
		<tag k="ssr:stedsnr" v="540792" />
		<tag k="waterway" v="river" />
	</node>
	<node id="-43725" lat="59.5073581215" lon="6.10859746867">
		<tag k="name" v="Holsnevatna" />
		<tag k="natural" v="water" />
		<tag k="ssr:stedsnr" v="428926" />
		<tag k="water" v="lake" />
	</node>
	<node id="-43722" lat="59.512950001" lon="6.06370000068">
		<tag k="name" v="Krokavatnet" />
		<tag k="natural" v="water" />
		<tag k="ssr:stedsnr" v="428889" />
		<tag k="water" v="lake" />
	</node>
	<node id="-43721" lat="59.504663892" lon="6.12489166258">
		<tag k="alt_name" v="Hedlebekken" />
		<tag k="name" v="Hellebekken" />
		<tag k="ssr:stedsnr" v="428886" />
		<tag k="waterway" v="stream" />
	</node>
	<node id="-43701" lat="59.5756138902" lon="5.61398610895">
>>>>>>> e1d4bc35ff8a6074a6f2e91616a996b547c36f15
		<tag k="alt_name" v="Byrkjelivatnet" />
		<tag k="name" v="Børkjelivatnet" />
		<tag k="natural" v="water" />
		<tag k="ssr:stedsnr" v="428329" />
		<tag k="water" v="lake" />
	</node>
<<<<<<< HEAD
	<node lat="59.504663892035" lon="6.1248916625751315" id="-4444">
		<tag k="alt_name" v="Hedlebekken" />
		<tag k="name" v="Hellebekken" />
		<tag k="ssr:stedsnr" v="428886" />
		<tag k="waterway" v="stream" />
	</node>
	<node lat="59.51295000095271" lon="6.063700000678076" id="-4445">
		<tag k="name" v="Krokavatnet" />
		<tag k="natural" v="water" />
		<tag k="ssr:stedsnr" v="428889" />
		<tag k="water" v="lake" />
	</node>
	<node lat="59.50735812153093" lon="6.108597468665824" id="-4447">
		<tag k="name" v="Holsnevatna" />
		<tag k="natural" v="water" />
		<tag k="ssr:stedsnr" v="428926" />
		<tag k="water" v="lake" />
	</node>
	<node lat="59.5007361077467" lon="5.648711113945599" id="-4451">
		<tag k="name" v="Bergaelva" />
		<tag k="ssr:stedsnr" v="448696" />
		<tag k="waterway" v="river" />
	</node>
	<node lat="59.45804721966178" lon="5.688655554936033" id="-4453">
		<tag k="alt_name" v="Ulvadalselva" />
		<tag k="name" v="Ulvadalsåna" />
		<tag k="ssr:stedsnr" v="670790" />
		<tag k="waterway" v="river" />
	</node>
	<node lat="59.54543055579246" lon="5.628955562561166" id="-4466">
		<tag k="name" v="Storholmen" />
		<tag k="place" v="islet" />
		<tag k="ssr:stedsnr" v="525790" />
	</node>
	<node lat="59.57691944268503" lon="6.1262527710677785" id="-4478">
		<tag k="alt_name" v="Søre Bjønndalselva" />
		<tag k="name" v="Søre Bjørndalselva" />
		<tag k="ssr:stedsnr" v="540792" />
		<tag k="waterway" v="river" />
	</node>
	<node lat="59.475447222394806" lon="5.825133336178194" id="-4479">
		<tag k="name" v="Fisketjørna" />
		<tag k="natural" v="water" />
		<tag k="ssr:stedsnr" v="541194" />
	</node>
	<node lat="59.51881111326753" lon="5.660836104756088" id="-4485">
		<tag k="name" v="Sandvadtjørna" />
		<tag k="natural" v="water" />
		<tag k="ssr:stedsnr" v="542564" />
	</node>
	<node lat="59.47514399105692" lon="5.514564640602969" id="-4497">
		<tag k="name" v="Stemmen" />
		<tag k="natural" v="water" />
		<tag k="ssr:stedsnr" v="545100" />
	</node>
	<node lat="59.43670433019226" lon="5.735749522708418" id="-4501">
		<tag k="name" v="Raudneselva" />
		<tag k="ssr:stedsnr" v="548031" />
		<tag k="waterway" v="stream" />
	</node>
	<node lat="59.419071248441256" lon="5.68861525898037" id="-4502">
		<tag k="name" v="Måvatnet" />
		<tag k="natural" v="water" />
		<tag k="ssr:stedsnr" v="548058" />
		<tag k="water" v="lake" />
	</node>
	<node lat="59.49659999803524" lon="6.057799992660546" id="-4503">
		<tag k="alt_name" v="Vasstølsvatnet" />
		<tag k="name" v="Vasstølvatnet" />
		<tag k="natural" v="water" />
		<tag k="ssr:stedsnr" v="548287" />
		<tag k="water" v="lake" />
	</node>
	<node lat="59.481069444323445" lon="5.835008341199302" id="-4509">
		<tag k="alt_name" v="Sandviktjørna" />
		<tag k="name" v="Sandvikstjørna" />
		<tag k="natural" v="water" />
		<tag k="ssr:stedsnr" v="548834" />
	</node>
	<node lat="59.65228055985156" lon="5.57734999921563" id="-4517">
		<tag k="alt_name" v="Tindelandstjørna, nordre;Tindelandstjørn n." />
		<tag k="name" v="Nordre Tindelandstjørna" />
		<tag k="natural" v="water" />
		<tag k="ssr:stedsnr" v="549027" />
	</node>
	<node lat="59.47256609272345" lon="5.820445556077409" id="-4555">
		<tag k="name" v="Grønevik" />
		<tag k="natural" v="bay" />
		<tag k="ssr:stedsnr" v="602196" />
	</node>
	<node lat="59.54629166933865" lon="6.0231527772556515" id="-4562">
		<tag k="name" v="Movika" />
		<tag k="natural" v="bay" />
		<tag k="ssr:stedsnr" v="602485" />
	</node>
	<node lat="59.51843889146838" lon="5.946175008568916" id="-4565">
		<tag k="name" v="Moland" />
		<tag k="place" v="locality" />
		<tag k="ssr:stedsnr" v="603416" />
	</node>
	<node lat="59.51213333156677" lon="6.033697223131564" id="-4575">
		<tag k="name" v="Smaladalsbekken" />
		<tag k="ssr:stedsnr" v="603582" />
		<tag k="waterway" v="stream" />
	</node>
	<node lat="59.54712777399619" lon="5.842313896477951" id="-4580">
		<tag k="name" v="Vestbøelva" />
		<tag k="ssr:stedsnr" v="604822" />
		<tag k="waterway" v="river" />
	</node>
	<node lat="59.575952779876935" lon="5.815111104738647" id="-4586">
		<tag k="name" v="Hauglandselva" />
		<tag k="ssr:stedsnr" v="603992" />
		<tag k="waterway" v="river" />
	</node>
	<node lat="59.494288889907395" lon="5.789580559983508" id="-4605">
		<tag k="name" v="Stemmevatnet" />
		<tag k="natural" v="water" />
		<tag k="ssr:stedsnr" v="608880" />
	</node>
	<node lat="59.546316668886156" lon="5.771830554002214" id="-4617">
		<tag k="alt_name" v="Måsarvatnet" />
		<tag k="name" v="Mosarevvatnet" />
		<tag k="natural" v="water" />
		<tag k="ssr:stedsnr" v="609282" />
		<tag k="water" v="lake" />
	</node>
	<node lat="59.555663753272974" lon="6.064084464759081" id="-4619">
		<tag k="alt_name" v="Stølstjørn" />
		<tag k="name" v="Stølstjørna" />
		<tag k="natural" v="water" />
		<tag k="ssr:stedsnr" v="609564" />
	</node>
	<node lat="59.5442472250868" lon="6.024538882500502" id="-4620">
		<tag k="name" v="Røyravatnet" />
		<tag k="natural" v="water" />
		<tag k="ssr:stedsnr" v="609578" />
		<tag k="water" v="lake" />
	</node>
	<node lat="59.54277500082328" lon="6.1348972165695175" id="-4621">
		<tag k="name" v="Stutatjørnene" />
		<tag k="natural" v="water" />
		<tag k="ssr:stedsnr" v="609580" />
		<tag k="water" v="lake" />
	</node>
	<node lat="59.494868811515744" lon="5.4871089329997975" id="-4622">
		<tag k="alt_name" v="Måkafjellstjørna;Måkefjellstjørna" />
		<tag k="name" v="Måkafjelltjørna" />
		<tag k="natural" v="water" />
		<tag k="ssr:stedsnr" v="609855" />
	</node>
	<node lat="59.51648888551323" lon="5.58866666366429" id="-4631">
		<tag k="alt_name" v="Stemmetjønnsbekken" />
		<tag k="name" v="Stemmetjørnbekken" />
		<tag k="ssr:stedsnr" v="610661" />
		<tag k="waterway" v="stream" />
	</node>
	<node lat="59.62495098426492" lon="5.828183979559025" id="-4638">
		<tag k="name" v="Krokavatnet" />
		<tag k="natural" v="water" />
		<tag k="ssr:stedsnr" v="610468" />
		<tag k="water" v="lake" />
	</node>
	<node lat="59.5014333349246" lon="5.641941663111226" id="-4640">
		<tag k="name" v="Grønemyrsbekken" />
		<tag k="ssr:stedsnr" v="629679" />
		<tag k="waterway" v="stream" />
	</node>
	<node lat="59.562586113426725" lon="6.15251110207111" id="-4653">
		<tag k="name" v="Risvasstranda" />
		<tag k="natural" v="beach" />
		<tag k="ssr:stedsnr" v="661988" />
	</node>
	<node lat="59.506872222897826" lon="5.809927777087633" id="-4656">
		<tag k="name" v="Korabekken" />
		<tag k="ssr:stedsnr" v="663079" />
		<tag k="waterway" v="stream" />
	</node>
	<node lat="59.54792499604731" lon="6.0262666734216" id="-4662">
		<tag k="name" v="Moen" />
		<tag k="place" v="locality" />
		<tag k="ssr:stedsnr" v="663446" />
	</node>
	<node lat="59.524794441546035" lon="5.761463891195608" id="-4668">
		<tag k="name" v="Gjerdesåna" />
		<tag k="ssr:stedsnr" v="663510" />
		<tag k="waterway" v="river" />
	</node>
	<node lat="59.52377499778597" lon="5.670849997092401" id="-4671">
		<tag k="name" v="Steintjørna" />
		<tag k="natural" v="water" />
		<tag k="ssr:stedsnr" v="663574" />
	</node>
	<node lat="59.583413891319324" lon="6.028022219277452" id="-4676">
		<tag k="name" v="Bårdstjørnene" />
		<tag k="natural" v="water" />
		<tag k="ssr:stedsnr" v="664389" />
		<tag k="water" v="lake" />
	</node>
	<node lat="59.57080555894304" lon="5.789844438522851" id="-4684">
		<tag k="name" v="Gamleskarbekken" />
		<tag k="ssr:stedsnr" v="664864" />
		<tag k="waterway" v="stream" />
	</node>
	<node lat="59.581877776688565" lon="5.867016660992642" id="-4685">
		<tag k="name" v="Hedlebekken" />
		<tag k="ssr:stedsnr" v="664865" />
		<tag k="waterway" v="stream" />
	</node>
	<node lat="59.578172226121374" lon="5.863444444086335" id="-4686">
		<tag k="name" v="Skiftesbekken" />
		<tag k="ssr:stedsnr" v="664866" />
		<tag k="waterway" v="stream" />
	</node>
	<node lat="59.63247499826777" lon="5.699563884091533" id="-4698">
		<tag k="alt_name" v="Lomavatn" />
		<tag k="name" v="Lomatjørna" />
		<tag k="natural" v="water" />
		<tag k="ssr:stedsnr" v="670434" />
		<tag k="water" v="lake" />
	</node>
	<node lat="59.46740410760166" lon="5.780425341771123" id="-4703">
		<tag k="name" v="Vatnakvamsvatnet" />
		<tag k="natural" v="water" />
		<tag k="ssr:stedsnr" v="670762" />
		<tag k="water" v="lake" />
	</node>
	<node lat="59.46494999708538" lon="5.7723500051958165" id="-4704">
		<tag k="name" v="Kvamstjørna" />
		<tag k="natural" v="water" />
		<tag k="ssr:stedsnr" v="670765" />
	</node>
	<node lat="59.48258332975585" lon="5.683141662992295" id="-4708">
		<tag k="name" v="Havåstjørna" />
		<tag k="natural" v="water" />
		<tag k="ssr:stedsnr" v="669836" />
	</node>
	<node lat="59.48082405477824" lon="5.831244921918791" id="-4710">
		<tag k="alt_name" v="Løkjedne" />
		<tag k="name" v="Løkene" />
		<tag k="natural" v="water" />
		<tag k="ssr:stedsnr" v="669841" />
	</node>
	<node lat="59.549019445234606" lon="6.089052772378177" id="-4718">
		<tag k="name" v="Halsvatnet" />
		<tag k="natural" v="water" />
		<tag k="ssr:stedsnr" v="670583" />
		<tag k="water" v="lake" />
	</node>
	<node lat="59.532624999493414" lon="5.92884444594467" id="-4719">
		<tag k="name" v="Lysebekken" />
		<tag k="ssr:stedsnr" v="670598" />
		<tag k="waterway" v="stream" />
	</node>
	<node lat="59.597916670248" lon="5.932883332275681" id="-4721">
		<tag k="name" v="Ongelsvatnet" />
		<tag k="natural" v="water" />
		<tag k="ssr:stedsnr" v="670527" />
		<tag k="water" v="lake" />
	</node>
	<node lat="59.57253332949684" lon="5.891480547789676" id="-4722">
		<tag k="name" v="Rødneelva" />
		<tag k="ssr:stedsnr" v="670543" />
		<tag k="waterway" v="river" />
	</node>
	<node lat="59.47536666762022" lon="5.783666664572508" id="-4734">
		<tag k="name" v="Øredalsbekken" />
		<tag k="ssr:stedsnr" v="723152" />
		<tag k="waterway" v="stream" />
	</node>
	<node lat="59.47479167085239" lon="5.796458330219769" id="-4735">
		<tag k="name" v="Lomatjørna" />
		<tag k="natural" v="water" />
		<tag k="ssr:stedsnr" v="723155" />
	</node>
	<node lat="59.58444444735715" lon="5.902338895930399" id="-4737">
		<tag k="name" v="Haukareidtjørna" />
		<tag k="natural" v="water" />
		<tag k="ssr:stedsnr" v="724195" />
	</node>
	<node lat="59.50004999722739" lon="6.043738888028023" id="-4769">
		<tag k="alt_name" v="Hustveitåna" />
		<tag k="name" v="Hustveitelva" />
		<tag k="ssr:stedsnr" v="730275" />
		<tag k="waterway" v="river" />
	</node>
	<node lat="59.446275001488154" lon="5.714966666316672" id="-4775">
		<tag k="alt_name" v="Norafjellstjørna" />
		<tag k="name" v="Nevratjørna" />
		<tag k="natural" v="water" />
		<tag k="ssr:stedsnr" v="730794" />
	</node>
	<node lat="59.49087500047734" lon="5.656430564022208" id="-4776">
		<tag k="name" v="Andershølen" />
		<tag k="natural" v="water" />
		<tag k="ssr:stedsnr" v="730864" />
	</node>
	<node lat="59.54534381217733" lon="5.668872507799537" id="-4787">
		<tag k="name" v="Vatnedalsvatnet" />
		<tag k="natural" v="water" />
		<tag k="ssr:stedsnr" v="731240" />
		<tag k="water" v="lake" />
	</node>
	<node lat="59.53971218693684" lon="5.617480071353206" id="-4789">
		<tag k="name" v="Vassvika" />
		<tag k="natural" v="bay" />
		<tag k="ssr:stedsnr" v="731247" />
	</node>
	<node lat="59.516211110498595" lon="5.527049992346994" id="-4793">
		<tag k="name" v="Litleholmen" />
		<tag k="place" v="islet" />
		<tag k="ssr:stedsnr" v="731200" />
	</node>
	<node lat="59.63821035103209" lon="5.5782429293456515" id="-4807">
		<tag k="alt_name" v="Bruarevatnet" />
		<tag k="name" v="Bruarvatnet" />
		<tag k="natural" v="water" />
		<tag k="ssr:stedsnr" v="731423" />
		<tag k="water" v="lake" />
	</node>
	<node lat="59.63958333631803" lon="5.737416668264504" id="-4808">
		<tag k="alt_name" v="Storrindsvatnet" />
		<tag k="name" v="Storrindevatnet" />
		<tag k="natural" v="water" />
		<tag k="ssr:stedsnr" v="731428" />
	</node>
	<node lat="59.5919779303017" lon="6.029073920088454" id="-4811">
		<tag k="alt_name" v="Lysavatnet" />
		<tag k="name" v="Lysevatnet" />
		<tag k="natural" v="water" />
		<tag k="ssr:stedsnr" v="731528" />
		<tag k="water" v="lake" />
	</node>
	<node lat="59.5677277739827" lon="6.066519443072921" id="-4813">
		<tag k="alt_name" v="Grunnåvatnet" />
		<tag k="name" v="Grunnavatnet" />
		<tag k="natural" v="water" />
		<tag k="ssr:stedsnr" v="731537" />
		<tag k="water" v="lake" />
	</node>
	<node lat="59.57246388595959" lon="5.983180561003642" id="-4814">
		<tag k="name" v="Halsvatnet" />
		<tag k="natural" v="water" />
		<tag k="ssr:stedsnr" v="731538" />
		<tag k="water" v="lake" />
	</node>
	<node lat="59.562919441905684" lon="5.626816663390233" id="-4826">
		<tag k="name" v="Ulserihaugtjørna" />
		<tag k="natural" v="water" />
		<tag k="ssr:stedsnr" v="767122" />
	</node>
	<node lat="59.49051944034781" lon="6.127313892382988" id="-4834">
		<tag k="name" v="Straumen" />
		<tag k="place" v="locality" />
		<tag k="ssr:stedsnr" v="782614" />
	</node>
	<node lat="59.55545833458269" lon="5.887741665465929" id="-4835">
		<tag k="name" v="Rabnatjørn" />
		<tag k="natural" v="water" />
		<tag k="ssr:stedsnr" v="784040" />
	</node>
	<node lat="59.494597219227735" lon="5.735019447165074" id="-4837">
		<tag k="name" v="Ragnillavågen" />
		<tag k="natural" v="bay" />
		<tag k="ssr:stedsnr" v="784048" />
	</node>
	<node lat="59.49152222566065" lon="6.166983329776645" id="-4849">
		<tag k="name" v="Vikabekken" />
		<tag k="ssr:stedsnr" v="785337" />
		<tag k="waterway" v="stream" />
	</node>
	<node lat="59.561469448276505" lon="6.1036500056315" id="-4853">
		<tag k="name" v="Sjurstølelva" />
		<tag k="ssr:stedsnr" v="786265" />
		<tag k="waterway" v="river" />
	</node>
	<node lat="59.55294999642355" lon="6.097530563425702" id="-4854">
		<tag k="name" v="Stegatjørn" />
		<tag k="natural" v="water" />
		<tag k="ssr:stedsnr" v="786266" />
	</node>
	<node lat="59.515100000047404" lon="6.020672224800804" id="-4863">
		<tag k="name" v="Nordbekken" />
		<tag k="ssr:stedsnr" v="786595" />
		<tag k="waterway" v="stream" />
	</node>
	<node lat="59.51000278070741" lon="6.029713888292586" id="-4865">
		<tag k="name" v="Austeråna" />
		<tag k="ssr:stedsnr" v="786630" />
		<tag k="waterway" v="river" />
	</node>
	<node lat="59.55726111459803" lon="5.703399991657184" id="-4868">
		<tag k="name" v="Aurdalsåna" />
		<tag k="ssr:stedsnr" v="786693" />
		<tag k="waterway" v="river" />
	</node>
	<node lat="59.46802575267902" lon="5.516270718833878" id="-4881">
		<tag k="name" v="Teineelva" />
		<tag k="ssr:stedsnr" v="788108" />
		<tag k="waterway" v="river" />
	</node>
	<node lat="59.49249166997172" lon="5.693066673974409" id="-4884">
		<tag k="name" v="Stemmevatnet" />
		<tag k="natural" v="water" />
		<tag k="ssr:stedsnr" v="791852" />
		<tag k="water" v="lake" />
	</node>
	<node lat="59.48791111532879" lon="6.125044440833299" id="-4893">
		<tag k="alt_name" v="Vågavatnet, øvre" />
		<tag k="name" v="Øvre Vågavatnet" />
		<tag k="natural" v="water" />
		<tag k="ssr:stedsnr" v="791282" />
		<tag k="water" v="lake" />
	</node>
	<node lat="59.45830284008849" lon="5.510099862796067" id="-4897">
		<tag k="alt_name" v="Breidviktjørna" />
		<tag k="fixme" v="multiple name tags, choose one and add the other to alt_name" />
		<tag k="name" v="Svinakleivtjørna;Breiviktjørna" />
		<tag k="natural" v="water" />
		<tag k="ssr:stedsnr" v="791802" />
	</node>
	<node lat="59.58091666882476" lon="6.032524992339753" id="-4902">
		<tag k="name" v="Bårdstjørna" />
		<tag k="natural" v="water" />
		<tag k="ssr:stedsnr" v="792550" />
	</node>
	<node lat="59.574281383712794" lon="6.138306995703485" id="-4905">
		<tag k="alt_name" v="Bjørndalsvatnet, s;Søre Bjønndalsvatnet" />
		<tag k="name" v="Søre Bjørndalsvatnet" />
		<tag k="natural" v="water" />
		<tag k="ssr:stedsnr" v="792565" />
		<tag k="water" v="lake" />
	</node>
	<node lat="59.527483329254885" lon="6.043911106682651" id="-4907">
		<tag k="name" v="Øyevatnet" />
		<tag k="natural" v="water" />
		<tag k="ssr:stedsnr" v="792880" />
		<tag k="water" v="lake" />
	</node>
	<node lat="59.52609450530734" lon="5.523186754306074" id="-4915">
		<tag k="alt_name" v="Arnhammarstjørnene" />
		<tag k="name" v="Arhammarstjørnane" />
		<tag k="natural" v="water" />
		<tag k="ssr:stedsnr" v="792271" />
		<tag k="water" v="lake" />
	</node>
	<node lat="59.54951944734595" lon="5.635841664141779" id="-4928">
		<tag k="name" v="Stølsbekken" />
		<tag k="ssr:stedsnr" v="829813" />
		<tag k="waterway" v="stream" />
	</node>
	<node lat="59.47326388777163" lon="5.807852773058697" id="-4944">
		<tag k="name" v="Neset" />
		<tag k="natural" v="cape" />
		<tag k="ssr:stedsnr" v="845157" />
	</node>
	<node lat="59.52126666579899" lon="5.664430547715583" id="-4952">
		<tag k="name" v="Elleflåttjørna" />
		<tag k="natural" v="water" />
		<tag k="ssr:stedsnr" v="846569" />
	</node>
	<node lat="59.47471111255089" lon="5.635269452724964" id="-4964">
		<tag k="name" v="Giskaelva" />
		<tag k="ssr:stedsnr" v="849056" />
		<tag k="waterway" v="river" />
	</node>
	<node lat="59.45417499684073" lon="5.784005553356992" id="-4984">
		<tag k="alt_name" v="Tjeltveittjørnene" />
		<tag k="name" v="Tjelltveittjørna" />
		<tag k="natural" v="water" />
		<tag k="ssr:stedsnr" v="852753" />
		<tag k="water" v="lake" />
	</node>
	<node lat="59.47357500409391" lon="5.683350004377406" id="-4988">
		<tag k="name" v="Haugavatnet" />
		<tag k="natural" v="water" />
		<tag k="ssr:stedsnr" v="852800" />
		<tag k="water" v="lake" />
	</node>
	<node lat="59.590375001030594" lon="5.83901388035012" id="-4991">
		<tag k="name" v="Svartatjørna" />
		<tag k="natural" v="water" />
		<tag k="ssr:stedsnr" v="853356" />
	</node>
	<node lat="59.557961111626696" lon="5.576999992464487" id="-4994">
		<tag k="fixme" v="multiple name tags, choose one and add the other to alt_name" />
		<tag k="name" v="Vikabekken;Holtengårdselva;Ulvebneelva" />
		<tag k="ssr:stedsnr" v="853333" />
		<tag k="waterway" v="stream" />
	</node>
	<node lat="59.64263055488853" lon="5.571725008026564" id="-4999">
		<tag k="name" v="Langetjørn" />
		<tag k="natural" v="water" />
		<tag k="ssr:stedsnr" v="853446" />
	</node>
	<node lat="59.590458330198686" lon="6.095002784116469" id="-5002">
		<tag k="name" v="Knipselva" />
		<tag k="ssr:stedsnr" v="853546" />
		<tag k="waterway" v="stream" />
	</node>
	<node lat="59.546777780894544" lon="5.942244435680189" id="-5008">
		<tag k="name" v="Trodalselva" />
		<tag k="ssr:stedsnr" v="853591" />
		<tag k="waterway" v="river" />
	</node>
	<node lat="59.527191669466376" lon="5.5571000000873445" id="-5016">
		<tag k="name" v="Kjyngjagro" />
		<tag k="natural" v="bay" />
		<tag k="ssr:stedsnr" v="872678" />
	</node>
	<node lat="59.514691670002556" lon="5.628163888570782" id="-5017">
		<tag k="name" v="Kvikklo" />
		<tag k="natural" v="water" />
		<tag k="ssr:stedsnr" v="872691" />
		<tag k="water" v="lake" />
	</node>
	<node lat="59.53538888880772" lon="5.649302774151542" id="-5018">
		<tag k="name" v="Slettarebekken" />
		<tag k="ssr:stedsnr" v="872693" />
		<tag k="waterway" v="stream" />
	</node>
	<node lat="59.56060833432725" lon="5.621133338432836" id="-5040">
		<tag k="name" v="Gonlitjørna" />
		<tag k="natural" v="water" />
		<tag k="ssr:stedsnr" v="950173" />
	</node>
	<node lat="59.49521666327672" lon="6.138241660473015" id="-5055">
		<tag k="name" v="Stakknes" />
		<tag k="natural" v="cape" />
		<tag k="ssr:stedsnr" v="964615" />
	</node>
	<node lat="59.560169445865334" lon="6.154947220823201" id="-5056">
		<tag k="name" v="Vestreneset" />
		<tag k="natural" v="cape" />
		<tag k="ssr:stedsnr" v="964971" />
	</node>
	<node lat="59.57916388989847" lon="5.914216665858662" id="-5059">
		<tag k="name" v="Skillingsfossen" />
		<tag k="natural" v="waterfall" />
		<tag k="ssr:stedsnr" v="966219" />
	</node>
	<node lat="59.47290555661727" lon="5.842997214792398" id="-5064">
		<tag k="name" v="Flåtabekken" />
		<tag k="ssr:stedsnr" v="966240" />
		<tag k="waterway" v="stream" />
	</node>
	<node lat="59.569716670700174" lon="6.052572223129472" id="-5074">
		<tag k="name" v="Roalkvamneset" />
		<tag k="natural" v="cape" />
		<tag k="ssr:stedsnr" v="968278" />
	</node>
	<node lat="59.66230291485625" lon="5.59204899721367" id="-5094">
		<tag k="name" v="Storastemma" />
		<tag k="ssr:stedsnr" v="972629" />
		<tag k="waterway" v="dam" />
	</node>
	<node lat="59.64122622463809" lon="5.630131461874563" id="-5157">
		<tag k="name" v="Ørlibekken" />
		<tag k="ssr:stedsnr" v="973298" />
		<tag k="waterway" v="stream" />
	</node>
	<node lat="59.63924336014858" lon="5.598783745836853" id="-5185">
		<tag k="name" v="Bleifossen" />
		<tag k="natural" v="waterfall" />
		<tag k="ssr:stedsnr" v="973267" />
	</node>
	<node lat="59.64691642612191" lon="5.708085941996819" id="-5217">
		<tag k="name" v="Svehaugelva" />
		<tag k="ssr:stedsnr" v="973741" />
		<tag k="waterway" v="river" />
	</node>
	<node lat="59.63043059351448" lon="5.652865744573871" id="-5262">
		<tag k="name" v="Tverrelva" />
		<tag k="ssr:stedsnr" v="974459" />
		<tag k="waterway" v="stream" />
	</node>
	<node lat="59.619653839091846" lon="5.683455546200615" id="-5275">
		<tag k="name" v="Ølsfjellstjørna" />
		<tag k="natural" v="water" />
		<tag k="ssr:stedsnr" v="974482" />
	</node>
	<node lat="59.61682986979564" lon="5.682696231887927" id="-5276">
		<tag k="name" v="Ølselva" />
		<tag k="ssr:stedsnr" v="974483" />
		<tag k="waterway" v="river" />
	</node>
	<node lat="59.62553424295338" lon="5.707736389155207" id="-5279">
		<tag k="name" v="Tverrelva" />
		<tag k="ssr:stedsnr" v="974704" />
		<tag k="waterway" v="river" />
	</node>
	<node lat="59.627967203059356" lon="5.707077191626054" id="-5280">
		<tag k="name" v="Skrubburevatna" />
		<tag k="natural" v="water" />
		<tag k="ssr:stedsnr" v="974706" />
		<tag k="water" v="lake" />
	</node>
	<node lat="59.61967410054423" lon="5.754545600066754" id="-5283">
		<tag k="name" v="Vakaelva" />
		<tag k="ssr:stedsnr" v="974819" />
		<tag k="waterway" v="river" />
	</node>
	<node lat="59.61483577126281" lon="5.857713399490549" id="-5289">
		<tag k="name" v="Teigabekken" />
		<tag k="ssr:stedsnr" v="974874" />
		<tag k="waterway" v="stream" />
	</node>
	<node lat="59.62225656033046" lon="5.805147074668813" id="-5297">
		<tag k="name" v="Kåtabøelva" />
		<tag k="ssr:stedsnr" v="974831" />
		<tag k="waterway" v="river" />
	</node>
	<node lat="59.53524558078636" lon="5.558111716733501" id="-5367">
		<tag k="name" v="Måkaholmen" />
		<tag k="place" v="islet" />
		<tag k="ssr:stedsnr" v="981017" />
	</node>
	<node lat="59.54143615398154" lon="5.573552832612259" id="-5378">
		<tag k="name" v="Svendsbøfossen" />
		<tag k="natural" v="waterfall" />
		<tag k="ssr:stedsnr" v="981033" />
	</node>
	<node lat="59.53662749606425" lon="5.56337444286614" id="-5382">
		<tag k="name" v="Rundatjørn" />
		<tag k="natural" v="water" />
		<tag k="ssr:stedsnr" v="981039" />
	</node>
	<node lat="59.55674126545025" lon="5.660366383601104" id="-5398">
		<tag k="name" v="Husafjellstjørna" />
		<tag k="natural" v="water" />
		<tag k="ssr:stedsnr" v="1072007" />
=======
	<node id="-43699" lat="59.5276388906" lon="5.55921944763">
		<tag k="name" v="Epleholmen" />
		<tag k="place" v="islet" />
		<tag k="ssr:stedsnr" v="428268" />
	</node>
	<node id="-43698" lat="59.5293432667" lon="5.56442282194">
		<tag k="alt_name" v="Malasetvatn;Moldesetervatnet" />
		<tag k="name" v="Malasetvatnet" />
		<tag k="natural" v="water" />
		<tag k="ssr:stedsnr" v="428261" />
		<tag k="water" v="lake" />
	</node>
	<node id="-43691" lat="59.4719959333" lon="5.50056589922">
		<tag k="fixme" v="multiple name tags, choose one and add the other to alt_name" />
		<tag k="name" v="Kalvalandsstemmen;Stemmetjørna" />
		<tag k="natural" v="water" />
		<tag k="ssr:stedsnr" v="427776" />
	</node>
	<node id="-43683" lat="59.5382999981" lon="5.61002499955">
		<tag k="name" v="Paddetjørn" />
		<tag k="natural" v="water" />
		<tag k="ssr:stedsnr" v="423759" />
	</node>
	<node id="-43673" lat="59.5370527785" lon="5.91346944391">
		<tag k="name" v="Bergetjørna" />
		<tag k="natural" v="water" />
		<tag k="ssr:stedsnr" v="422779" />
	</node>
	<node id="-43672" lat="59.5495305538" lon="5.90227499582">
		<tag k="name" v="Haukakvamselva" />
		<tag k="ssr:stedsnr" v="422775" />
		<tag k="waterway" v="river" />
	</node>
	<node id="-43671" lat="59.5177833337" lon="5.78981388226">
		<tag k="name" v="Flåtedne" />
		<tag k="natural" v="beach" />
		<tag k="ssr:stedsnr" v="422858" />
	</node>
	<node id="-43663" lat="59.5152444457" lon="5.67606111631">
		<tag k="name" v="Haukadalsbekken" />
		<tag k="ssr:stedsnr" v="421575" />
		<tag k="waterway" v="stream" />
	</node>
	<node id="-43662" lat="59.5236499967" lon="5.69780277631">
		<tag k="name" v="Røyrvika" />
		<tag k="natural" v="bay" />
		<tag k="ssr:stedsnr" v="421566" />
	</node>
	<node id="-44823" lat="59.4559200532" lon="5.65832901153">
		<tag k="alt_name" v="Navarsvatnet" />
		<tag k="name" v="Navaren" />
		<tag k="natural" v="water" />
		<tag k="ssr:stedsnr" v="731753" />
		<tag k="water" v="lake" />
	</node>
	<node id="-43654" lat="59.4754950539" lon="5.80279016459">
		<tag k="name" v="Tømmervika" />
		<tag k="natural" v="bay" />
		<tag k="ssr:stedsnr" v="420150" />
	</node>
	<node id="-43634" lat="59.5014166648" lon="5.51152500644">
		<tag k="name" v="Løkabekken" />
		<tag k="ssr:stedsnr" v="387678" />
		<tag k="waterway" v="stream" />
	</node>
	<node id="-42088" lat="59.5685027799" lon="6.09388889103">
		<tag k="name" v="Hestaneset" />
		<tag k="natural" v="cape" />
		<tag k="ssr:stedsnr" v="451280" />
	</node>
	<node id="-43629" lat="59.5313361084" lon="6.11441111643">
		<tag k="name" v="Midvatnet" />
		<tag k="natural" v="water" />
		<tag k="ssr:stedsnr" v="367900" />
		<tag k="water" v="lake" />
	</node>
	<node id="-43624" lat="59.5325055519" lon="5.89410833282">
		<tag k="alt_name" v="Grautåna" />
		<tag k="name" v="Grautåbekken" />
		<tag k="ssr:stedsnr" v="367587" />
		<tag k="waterway" v="stream" />
	</node>
	<node id="-43614" lat="59.6041111113" lon="5.92977777414">
		<tag k="alt_name" v="Trodlatjørna" />
		<tag k="name" v="Trollatjørna" />
		<tag k="natural" v="water" />
		<tag k="ssr:stedsnr" v="367497" />
	</node>
	<node id="-43601" lat="59.6069500015" lon="5.83102499369">
		<tag k="name" v="Oselva" />
		<tag k="ssr:stedsnr" v="367334" />
		<tag k="waterway" v="stream" />
	</node>
	<node id="-43593" lat="59.5713388902" lon="5.59684166147">
		<tag k="name" v="Stemmevatnet" />
		<tag k="natural" v="water" />
		<tag k="ssr:stedsnr" v="367290" />
	</node>
	<node id="-43586" lat="59.5059296523" lon="5.77554920836">
		<tag k="alt_name" v="Gjeresdalsvatnet" />
		<tag k="name" v="Gjerdesdalsvatnet" />
		<tag k="natural" v="water" />
		<tag k="ssr:stedsnr" v="366833" />
		<tag k="water" v="lake" />
	</node>
	<node id="-43561" lat="59.5470638913" lon="5.80240554729">
		<tag k="name" v="Fagerdalsbekken" />
		<tag k="ssr:stedsnr" v="361937" />
		<tag k="waterway" v="stream" />
	</node>
	<node id="-43552" lat="59.5600416677" lon="6.0601833319">
		<tag k="name" v="Kvednabekken" />
		<tag k="ssr:stedsnr" v="361282" />
		<tag k="waterway" v="stream" />
	</node>
	<node id="-43551" lat="59.5237740429" lon="5.90817317748">
		<tag k="name" v="Fagerdalstjørna" />
		<tag k="natural" v="water" />
		<tag k="ssr:stedsnr" v="361188" />
	</node>
	<node id="-43549" lat="59.4679138883" lon="5.67629999229">
		<tag k="name" v="Tongjabekken" />
		<tag k="ssr:stedsnr" v="361032" />
		<tag k="waterway" v="stream" />
	</node>
	<node id="-43538" lat="59.479038885" lon="5.73316667527">
		<tag k="name" v="Åmselva" />
		<tag k="ssr:stedsnr" v="359051" />
		<tag k="waterway" v="river" />
	</node>
	<node id="-43537" lat="59.496716667" lon="5.73142221407">
		<tag k="name" v="Gurines" />
		<tag k="natural" v="cape" />
		<tag k="ssr:stedsnr" v="359049" />
	</node>
	<node id="-43530" lat="59.4903611132" lon="6.14010000245">
		<tag k="name" v="Lomaneset" />
		<tag k="natural" v="cape" />
		<tag k="ssr:stedsnr" v="357632" />
	</node>
	<node id="-43500" lat="59.6476277118" lon="5.57966659643">
		<tag k="alt_name" v="Tindelandstjørna, søre;Tindelandstjørn s." />
		<tag k="name" v="Søre Tindelandstjørna" />
		<tag k="natural" v="water" />
		<tag k="ssr:stedsnr" v="307488" />
	</node>
	<node id="-43492" lat="59.4889555563" lon="5.52701111352">
		<tag k="alt_name" v="Vestråtjørna" />
		<tag k="name" v="Mortveittjørna" />
		<tag k="natural" v="water" />
		<tag k="ssr:stedsnr" v="306869" />
	</node>
	<node id="-43485" lat="59.549397223" lon="6.06518333609">
		<tag k="alt_name" v="Træselva" />
		<tag k="name" v="Trædselva" />
		<tag k="ssr:stedsnr" v="306570" />
		<tag k="waterway" v="river" />
	</node>
	<node id="-43483" lat="59.580780553" lon="6.11241945058">
		<tag k="alt_name" v="Jupatjørna" />
		<tag k="name" v="Djupatjørn" />
		<tag k="natural" v="water" />
		<tag k="ssr:stedsnr" v="306547" />
		<tag k="water" v="lake" />
	</node>
	<node id="-43482" lat="59.5961583349" lon="5.95656389201">
		<tag k="alt_name" v="Forevasselva" />
		<tag k="name" v="Furevasselva" />
		<tag k="ssr:stedsnr" v="306526" />
		<tag k="waterway" v="river" />
	</node>
	<node id="-43471" lat="59.5414305552" lon="5.57311666513">
		<tag k="alt_name" v="Svendsbøelva" />
		<tag k="name" v="Svensbøelva" />
		<tag k="ssr:stedsnr" v="306285" />
		<tag k="waterway" v="stream" />
	</node>
	<node id="-43466" lat="59.5309500505" lon="5.65630540648">
		<tag k="name" v="Lintjørna" />
		<tag k="natural" v="water" />
		<tag k="ssr:stedsnr" v="306262" />
	</node>
	<node id="-43465" lat="59.5172737908" lon="5.52918593235">
		<tag k="alt_name" v="Anndalsvatnet" />
		<tag k="name" v="Alnedalsvatnet" />
		<tag k="natural" v="water" />
		<tag k="ssr:stedsnr" v="306248" />
		<tag k="water" v="lake" />
	</node>
	<node id="-43464" lat="59.5220083279" lon="5.58621980219">
		<tag k="name" v="Stemmetjørna" />
		<tag k="natural" v="water" />
		<tag k="ssr:stedsnr" v="306244" />
	</node>
	<node id="-43445" lat="59.4774666651" lon="6.08116111285">
		<tag k="name" v="Holmatjørna" />
		<tag k="natural" v="water" />
		<tag k="ssr:stedsnr" v="301699" />
	</node>
	<node id="-43442" lat="59.510619449" lon="5.87423334171">
		<tag k="name" v="Sandhamarbekken" />
		<tag k="ssr:stedsnr" v="301178" />
		<tag k="waterway" v="stream" />
	</node>
	<node id="-43441" lat="59.5712388912" lon="5.67900277149">
		<tag k="name" v="Nøkkatjørna" />
		<tag k="natural" v="water" />
		<tag k="ssr:stedsnr" v="300978" />
	</node>
	<node id="-43416" lat="59.6449749977" lon="5.62834999547">
		<tag k="name" v="Kistedalstjørna" />
		<tag k="natural" v="water" />
		<tag k="ssr:stedsnr" v="185426" />
	</node>
	<node id="-43405" lat="59.5881694429" lon="5.81005832613">
		<tag k="alt_name" v="Eideelva" />
		<tag k="name" v="Eidselva" />
		<tag k="ssr:stedsnr" v="185367" />
		<tag k="waterway" v="river" />
	</node>
	<node id="-43401" lat="59.5798749981" lon="5.75482778578">
		<tag k="alt_name" v="Vågstjørn" />
		<tag k="name" v="Vågstjørna" />
		<tag k="natural" v="water" />
		<tag k="ssr:stedsnr" v="185342" />
	</node>
	<node id="-43400" lat="59.5737291255" lon="5.7079344641">
		<tag k="alt_name" v="Eikjelandsvatnet;Eikelandsvatnet" />
		<tag k="name" v="Eikelandstjørna" />
		<tag k="natural" v="water" />
		<tag k="ssr:stedsnr" v="185323" />
	</node>
	<node id="-43399" lat="59.5527694457" lon="5.78324166767">
		<tag k="name" v="Stemmevatnet" />
		<tag k="natural" v="water" />
		<tag k="ssr:stedsnr" v="185297" />
	</node>
	<node id="-43394" lat="59.5385297715" lon="5.70977577678">
		<tag k="name" v="Landavatnet" />
		<tag k="natural" v="water" />
		<tag k="ssr:stedsnr" v="185265" />
		<tag k="water" v="lake" />
	</node>
	<node id="-43389" lat="59.6574277817" lon="5.6039583322">
		<tag k="name" v="Jektatjørna" />
		<tag k="natural" v="water" />
		<tag k="ssr:stedsnr" v="185024" />
	</node>
	<node id="-43386" lat="59.4839222199" lon="5.70681111681">
		<tag k="name" v="Frølandsvatnet" />
		<tag k="natural" v="water" />
		<tag k="ssr:stedsnr" v="184823" />
		<tag k="water" v="lake" />
	</node>
	<node id="-43378" lat="59.4534138854" lon="5.77426388265">
		<tag k="name" v="Røssåna" />
		<tag k="ssr:stedsnr" v="184757" />
		<tag k="waterway" v="river" />
	</node>
	<node id="-43375" lat="59.4840250016" lon="6.13090000716">
		<tag k="alt_name" v="Vågavatnet, nedre" />
		<tag k="name" v="Nedre Vågavatnet" />
		<tag k="natural" v="water" />
		<tag k="ssr:stedsnr" v="184305" />
		<tag k="water" v="lake" />
	</node>
	<node id="-43370" lat="59.5468249973" lon="6.10543889169">
		<tag k="name" v="Gullvatnet" />
		<tag k="natural" v="water" />
		<tag k="ssr:stedsnr" v="300596" />
		<tag k="water" v="lake" />
	</node>
	<node id="-43353" lat="59.5166861082" lon="5.95193888489">
		<tag k="name" v="Skreddarbekken" />
		<tag k="ssr:stedsnr" v="179429" />
		<tag k="waterway" v="stream" />
	</node>
	<node id="-43351" lat="59.5185944469" lon="6.12343889028">
		<tag k="name" v="Hedlebekktjørnene" />
		<tag k="natural" v="water" />
		<tag k="ssr:stedsnr" v="178226" />
		<tag k="water" v="lake" />
	</node>
	<node id="-43348" lat="59.543736115" lon="6.02973333725">
		<tag k="name" v="Olatræ" />
		<tag k="natural" v="cape" />
		<tag k="ssr:stedsnr" v="178042" />
	</node>
	<node id="-43328" lat="59.5470888931" lon="5.6287888927">
		<tag k="name" v="Slettaskjer" />
		<tag k="place" v="islet" />
		<tag k="ssr:stedsnr" v="161794" />
	</node>
	<node id="-43310" lat="59.5279777797" lon="5.63370555955">
		<tag k="name" v="Tveiteelva" />
		<tag k="ssr:stedsnr" v="144695" />
		<tag k="waterway" v="stream" />
	</node>
	<node id="-43305" lat="59.5200750015" lon="6.08633610616">
		<tag k="alt_name" v="Støladalsåna" />
		<tag k="name" v="Støledalselva" />
		<tag k="ssr:stedsnr" v="124930" />
		<tag k="waterway" v="river" />
	</node>
	<node id="-43302" lat="59.5280166634" lon="6.00129445262">
		<tag k="name" v="Ulvavollsvatnet" />
		<tag k="natural" v="water" />
		<tag k="ssr:stedsnr" v="124879" />
		<tag k="water" v="lake" />
	</node>
	<node id="-43287" lat="59.5003197316" lon="5.49270782354">
		<tag k="alt_name" v="Tosvoll-løkjene" />
		<tag k="name" v="Tosvolltjørna" />
		<tag k="natural" v="water" />
		<tag k="ssr:stedsnr" v="124556" />
	</node>
	<node id="-43285" lat="59.5561294861" lon="6.12112401368">
		<tag k="alt_name" v="Øyavatnet" />
		<tag k="name" v="Øyevatnet" />
		<tag k="natural" v="water" />
		<tag k="ssr:stedsnr" v="124539" />
		<tag k="water" v="lake" />
	</node>
	<node id="-43284" lat="59.5621210267" lon="5.94191020091">
		<tag k="alt_name" v="Longvatnet" />
		<tag k="name" v="Langavatnet" />
		<tag k="natural" v="water" />
		<tag k="ssr:stedsnr" v="124525" />
		<tag k="water" v="lake" />
	</node>
	<node id="-43282" lat="59.6028805513" lon="5.91744999223">
		<tag k="name" v="Toska" />
		<tag k="natural" v="water" />
		<tag k="ssr:stedsnr" v="124499" />
	</node>
	<node id="-42154" lat="59.4763363654" lon="5.81889592468">
		<tag k="name" v="Kleivavika" />
		<tag k="natural" v="bay" />
		<tag k="ssr:stedsnr" v="481213" />
	</node>
	<node id="-43275" lat="59.5236388857" lon="5.53703611387">
		<tag k="name" v="Haraldseidvatnet" />
		<tag k="natural" v="water" />
		<tag k="ssr:stedsnr" v="124218" />
		<tag k="water" v="lake" />
	</node>
	<node id="-43263" lat="59.4780777751" lon="5.83544721707">
		<tag k="alt_name" v="Svartetjørna" />
		<tag k="name" v="Svartatjørna" />
		<tag k="natural" v="water" />
		<tag k="ssr:stedsnr" v="123806" />
	</node>
	<node id="-43261" lat="59.4607224506" lon="5.80618341765">
		<tag k="name" v="Trolltjørna" />
		<tag k="natural" v="water" />
		<tag k="ssr:stedsnr" v="123794" />
	</node>
	<node id="-43254" lat="59.5623333333" lon="5.59260555174">
		<tag k="name" v="Litle Grautvatn" />
		<tag k="natural" v="water" />
		<tag k="ssr:stedsnr" v="120947" />
		<tag k="water" v="lake" />
	</node>
	<node id="-43253" lat="59.4760027782" lon="6.07521110504">
		<tag k="name" v="Elskovsbekken" />
		<tag k="ssr:stedsnr" v="119707" />
		<tag k="waterway" v="stream" />
	</node>
	<node id="-43249" lat="59.5594527815" lon="5.66970000069">
		<tag k="name" v="Husafjellsbekken" />
		<tag k="ssr:stedsnr" v="118990" />
		<tag k="waterway" v="stream" />
	</node>
	<node id="-43243" lat="59.5640194413" lon="5.76247500396">
		<tag k="name" v="Sønnåtjørna" />
		<tag k="natural" v="water" />
		<tag k="ssr:stedsnr" v="118766" />
	</node>
	<node id="-43240" lat="59.5113000011" lon="6.04692499544">
		<tag k="name" v="Brekkeåna" />
		<tag k="ssr:stedsnr" v="118566" />
		<tag k="waterway" v="river" />
	</node>
	<node id="-43239" lat="59.5227166693" lon="6.00793611459">
		<tag k="name" v="Ilstveitåna" />
		<tag k="ssr:stedsnr" v="118355" />
		<tag k="waterway" v="river" />
	</node>
	<node id="-43235" lat="59.507086307" lon="5.96700911454">
		<tag k="name" v="Krokavatnet" />
		<tag k="natural" v="water" />
		<tag k="ssr:stedsnr" v="117343" />
		<tag k="water" v="lake" />
	</node>
	<node id="-41948" lat="59.5837750034" lon="5.68396666912">
		<tag k="name" v="Krokavatnet" />
		<tag k="natural" v="water" />
		<tag k="ssr:stedsnr" v="246347" />
		<tag k="water" v="lake" />
	</node>
	<node id="-43229" lat="59.5919416623" lon="5.89679444047">
		<tag k="name" v="Tverrelva" />
		<tag k="ssr:stedsnr" v="117256" />
		<tag k="waterway" v="river" />
	</node>
	<node id="-43204" lat="59.5591805589" lon="5.60076943733">
		<tag k="name" v="Øvre Skjenåstjørn" />
		<tag k="natural" v="water" />
		<tag k="ssr:stedsnr" v="100141" />
	</node>
	<node id="-42528" lat="59.5717444414" lon="6.07359722883">
		<tag k="name" v="Barlundbekken" />
		<tag k="ssr:stedsnr" v="543318" />
		<tag k="waterway" v="stream" />
	</node>
	<node id="-43198" lat="59.5052694479" lon="5.53108054672">
		<tag k="name" v="Anndalsbekken" />
		<tag k="ssr:stedsnr" v="83693" />
		<tag k="waterway" v="stream" />
	</node>
	<node id="-42357" lat="59.5068722229" lon="5.80992777709">
		<tag k="name" v="Korabekken" />
		<tag k="ssr:stedsnr" v="663079" />
		<tag k="waterway" v="stream" />
	</node>
	<node id="-43183" lat="59.5738796581" lon="6.10724831712">
		<tag k="name" v="Krossvatnet" />
		<tag k="natural" v="water" />
		<tag k="ssr:stedsnr" v="64575" />
	</node>
	<node id="-43176" lat="59.5137444404" lon="5.65297222347">
		<tag k="name" v="Bjergatjørna" />
		<tag k="natural" v="water" />
		<tag k="ssr:stedsnr" v="64622" />
	</node>
	<node id="-43170" lat="59.532505559" lon="5.77269167485">
		<tag k="name" v="Døldarvatnet" />
		<tag k="natural" v="water" />
		<tag k="ssr:stedsnr" v="64283" />
		<tag k="water" v="lake" />
	</node>
	<node id="-43169" lat="59.5185611104" lon="5.52795555266">
		<tag k="name" v="Storeholmen" />
		<tag k="place" v="islet" />
		<tag k="ssr:stedsnr" v="64271" />
	</node>
	<node id="-43168" lat="59.5259166682" lon="5.58549445308">
		<tag k="name" v="Trolltjørna" />
		<tag k="natural" v="water" />
		<tag k="ssr:stedsnr" v="64267" />
	</node>
	<node id="-43147" lat="59.4931750031" lon="6.13735277647">
		<tag k="alt_name" v="Hustoptvatnet" />
		<tag k="name" v="Hustoftvatnet" />
		<tag k="natural" v="water" />
		<tag k="ssr:stedsnr" v="63315" />
		<tag k="water" v="lake" />
	</node>
	<node id="-43141" lat="59.4632750039" lon="5.52740000338">
		<tag k="name" v="Løkabekken" />
		<tag k="ssr:stedsnr" v="60113" />
		<tag k="waterway" v="stream" />
	</node>
	<node id="-43137" lat="59.5577444426" lon="5.59639166633">
		<tag k="name" v="Nedre Skjenåstjørn" />
		<tag k="natural" v="water" />
		<tag k="ssr:stedsnr" v="59940" />
	</node>
	<node id="-43136" lat="59.5619944488" lon="5.67881666912">
		<tag k="name" v="Eikjedalsåna" />
		<tag k="ssr:stedsnr" v="58993" />
		<tag k="waterway" v="river" />
	</node>
	<node id="-43116" lat="59.5371583331" lon="5.90569443988">
		<tag k="name" v="Såbekken" />
		<tag k="ssr:stedsnr" v="58241" />
		<tag k="waterway" v="stream" />
	</node>
	<node id="-43111" lat="59.5278805526" lon="5.7005222268">
		<tag k="name" v="Grunnanes" />
		<tag k="natural" v="cape" />
		<tag k="ssr:stedsnr" v="56595" />
	</node>
	<node id="-43106" lat="59.5462750036" lon="6.04226944633">
		<tag k="name" v="Træsbekken" />
		<tag k="ssr:stedsnr" v="56491" />
		<tag k="waterway" v="stream" />
	</node>
	<node id="-43099" lat="59.473652781" lon="5.81530556195">
		<tag k="name" v="Tednholmen" />
		<tag k="place" v="islet" />
		<tag k="ssr:stedsnr" v="56183" />
	</node>
	<node id="-43096" lat="59.503597219" lon="5.7811916647">
		<tag k="name" v="Kolltveitstranda" />
		<tag k="natural" v="beach" />
		<tag k="ssr:stedsnr" v="56065" />
	</node>
	<node id="-43095" lat="59.4929083307" lon="6.13135000172">
		<tag k="name" v="Eikjeneset" />
		<tag k="natural" v="cape" />
		<tag k="ssr:stedsnr" v="54643" />
	</node>
	<node id="-43081" lat="59.5856666711" lon="5.62396944995">
		<tag k="name" v="Fossane" />
		<tag k="natural" v="waterfall" />
		<tag k="ssr:stedsnr" v="38071" />
	</node>
	<node id="-43078" lat="59.4751666668" lon="5.73790277104">
		<tag k="loc_name" v="Åmosen" />
		<tag k="name" v="Åmsosen" />
		<tag k="natural" v="bay" />
		<tag k="ssr:stedsnr" v="25482" />
	</node>
	<node id="-43070" lat="59.5035055558" lon="5.944849994">
		<tag k="name" v="Ternevatnet" />
		<tag k="natural" v="water" />
		<tag k="ssr:stedsnr" v="3875" />
		<tag k="water" v="lake" />
	</node>
	<node id="-43066" lat="59.5414000012" lon="6.08663055018">
		<tag k="name" v="Søtetjørn" />
		<tag k="natural" v="water" />
		<tag k="ssr:stedsnr" v="3572" />
	</node>
	<node id="-43062" lat="59.5663805569" lon="5.94931944284">
		<tag k="alt_name" v="Mørkavatnet" />
		<tag k="name" v="Mørkatjørna" />
		<tag k="natural" v="water" />
		<tag k="ssr:stedsnr" v="3542" />
		<tag k="water" v="lake" />
	</node>
	<node id="-43061" lat="59.571236114" lon="5.87066389056">
		<tag k="alt_name" v="Fjellstølsbekken" />
		<tag k="name" v="Fjellstølbekken" />
		<tag k="ssr:stedsnr" v="3528" />
		<tag k="waterway" v="stream" />
	</node>
	<node id="-43060" lat="59.6272055543" lon="5.8585444437">
		<tag k="name" v="Stampetjørna" />
		<tag k="natural" v="water" />
		<tag k="ssr:stedsnr" v="3483" />
	</node>
	<node id="-42673" lat="59.497368622" lon="5.6405598761">
		<tag k="alt_name" v="Svanarvatnet" />
		<tag k="name" v="Svanavatnet" />
		<tag k="natural" v="water" />
		<tag k="ssr:stedsnr" v="731853" />
		<tag k="water" v="lake" />
	</node>
	<node id="-43042" lat="59.5416083317" lon="5.58678055352">
		<tag k="name" v="Bjordalsvatnet" />
		<tag k="natural" v="water" />
		<tag k="ssr:stedsnr" v="3275" />
		<tag k="water" v="lake" />
	</node>
	<node id="-43037" lat="59.5263568169" lon="5.68840105967">
		<tag k="name" v="Røyrtjørna" />
		<tag k="natural" v="water" />
		<tag k="ssr:stedsnr" v="3224" />
	</node>
	<node id="-41988" lat="59.4864527764" lon="5.97189167406">
		<tag k="alt_name" v="Byrkjelandsvatnet" />
		<tag k="name" v="Børkjelandsvatnet" />
		<tag k="natural" v="water" />
		<tag k="ssr:stedsnr" v="123312" />
		<tag k="water" v="lake" />
	</node>
	<node id="-43025" lat="59.4743250039" lon="5.54021388555">
		<tag k="alt_name" v="Liaosen" />
		<tag k="name" v="Liosen" />
		<tag k="natural" v="bay" />
		<tag k="ssr:stedsnr" v="2811" />
	</node>
	<node id="-43014" lat="59.4913762207" lon="6.17882124422">
		<tag k="name" v="Skjøljavatnet" />
		<tag k="natural" v="water" />
		<tag k="ssr:stedsnr" v="2313" />
>>>>>>> e1d4bc35ff8a6074a6f2e91616a996b547c36f15
		<tag k="water" v="lake" />
	</node>
</osm>
