<?xml version="1.0" encoding="UTF-8"?>
<osm generator="osmapis" version="0.6">
	<node id="-197112" lat="59.4154722234" lon="10.48508611">
		<tag k="amenity" v="townhall" />
		<tag k="name" v="Rådhuset" />
		<tag k="ssr:stedsnr" v="951650" />
	</node>
	<node id="-197110" lat="59.353052778" lon="10.4634333312">
		<tag k="name" v="Nygård" />
		<tag k="place" v="isolated_dwelling" />
		<tag k="ssr:stedsnr" v="948044" />
	</node>
	<node id="-197109" lat="59.430519441" lon="10.3503555561">
		<tag k="alt_name" v="Ås nedre" />
		<tag k="fixme" v="consider place=hamlet" />
		<tag k="name" v="Nedre Ås" />
		<tag k="place" v="farm" />
		<tag k="ssr:stedsnr" v="938834" />
	</node>
	<node id="-197108" lat="59.3767440382" lon="10.4401688117">
		<tag k="name" v="Glenne" />
		<tag k="place" v="hamlet" />
		<tag k="ssr:stedsnr" v="938380" />
	</node>
	<node id="-197107" lat="59.3609777759" lon="10.4117777847">
		<tag k="fixme" v="consider place=hamlet" />
		<tag k="name" v="Adal mellom" />
		<tag k="place" v="farm" />
		<tag k="ssr:stedsnr" v="938377" />
	</node>
	<node id="-197105" lat="59.3547555588" lon="10.4484138803">
		<tag k="name" v="Koterød" />
		<tag k="place" v="farm" />
		<tag k="ssr:stedsnr" v="938090" />
	</node>
	<node id="-197104" lat="59.4237916685" lon="10.3867749962">
		<tag k="name" v="Myrvang" />
		<tag k="place" v="farm" />
		<tag k="ssr:stedsnr" v="937890" />
	</node>
	<node id="-197102" lat="59.3888472255" lon="10.4630749991">
		<tag k="name" v="Vold" />
		<tag k="place" v="farm" />
		<tag k="ssr:stedsnr" v="935848" />
	</node>
	<node id="-197101" lat="59.3819472225" lon="10.4378027792">
		<tag k="name" v="Glenne nedre" />
		<tag k="place" v="farm" />
		<tag k="ssr:stedsnr" v="935845" />
	</node>
	<node id="-197100" lat="59.3994333329" lon="10.425647229">
		<tag k="fixme" v="consider place=hamlet" />
		<tag k="name" v="Solberg østre" />
		<tag k="place" v="farm" />
		<tag k="ssr:stedsnr" v="935842" />
	</node>
	<node id="-197099" lat="59.3997333374" lon="10.4111638841">
		<tag k="name" v="Rygland østre" />
		<tag k="place" v="farm" />
		<tag k="ssr:stedsnr" v="935826" />
	</node>
	<node id="-197098" lat="59.4057694477" lon="10.4783194475">
		<tag k="building" v="industrial" />
		<tag k="industrial" v="factory" />
		<tag k="name" v="Horten bryggeri" />
		<tag k="ssr:stedsnr" v="935823" />
	</node>
	<node id="-197097" lat="59.4203555548" lon="10.4206499976">
		<tag k="name" v="Vik mellom" />
		<tag k="place" v="farm" />
		<tag k="ssr:stedsnr" v="935818" />
	</node>
	<node id="-197095" lat="59.352597218" lon="10.4390527701">
		<tag k="name" v="Kjær" />
		<tag k="place" v="farm" />
		<tag k="ssr:stedsnr" v="935807" />
	</node>
	<node id="-197094" lat="59.4132083336" lon="10.3855166679">
		<tag k="fixme" v="consider place=hamlet" />
		<tag k="name" v="Austad" />
		<tag k="place" v="farm" />
		<tag k="ssr:stedsnr" v="913986" />
	</node>
	<node id="-197093" lat="59.4170555586" lon="10.3911611162">
		<tag k="fixme" v="consider place=hamlet" />
		<tag k="name" v="Prestegården" />
		<tag k="place" v="farm" />
		<tag k="ssr:stedsnr" v="913984" />
	</node>
	<node id="-197092" lat="59.4143361135" lon="10.4193472238">
		<tag k="fixme" v="consider place=hamlet" />
		<tag k="name" v="Haukeli" />
		<tag k="place" v="farm" />
		<tag k="ssr:stedsnr" v="913981" />
	</node>
	<node id="-197091" lat="59.4064182816" lon="10.3652076125">
		<tag k="name" v="Pauli" />
		<tag k="place" v="farm" />
		<tag k="ssr:stedsnr" v="913974" />
	</node>
	<node id="-197090" lat="59.4209027772" lon="10.3422499936">
		<tag k="name" v="Bakke" />
		<tag k="place" v="farm" />
		<tag k="ssr:stedsnr" v="913130" />
	</node>
	<node id="-197081" lat="59.3825361148" lon="10.4555500058">
		<tag k="name" v="Kirkebakken" />
		<tag k="place" v="quarter" />
		<tag k="ssr:stedsnr" v="874845" />
	</node>
	<node id="-197079" lat="59.3591638935" lon="10.4403888803">
		<tag k="name" v="Furuhaug" />
		<tag k="place" v="farm" />
		<tag k="ssr:stedsnr" v="874812" />
	</node>
	<node id="-197078" lat="59.3576555594" lon="10.4464500017">
		<tag k="name" v="Kirkenga" />
		<tag k="place" v="farm" />
		<tag k="ssr:stedsnr" v="874807" />
	</node>
	<node id="-197076" lat="59.4257027769" lon="10.3940305517">
		<tag k="name" v="Utheim" />
		<tag k="place" v="farm" />
		<tag k="ssr:stedsnr" v="852994" />
	</node>
	<node id="-197075" lat="59.4220749958" lon="10.4221499934">
		<tag k="alt_name" v="Vik" />
		<tag k="fixme" v="consider place=hamlet" />
		<tag k="name" v="Vik nordre" />
		<tag k="place" v="farm" />
		<tag k="ssr:stedsnr" v="852990" />
	</node>
	<node id="-197074" lat="59.4063333291" lon="10.3903611119">
		<tag k="fixme" v="consider place=hamlet" />
		<tag k="name" v="Føske" />
		<tag k="place" v="farm" />
		<tag k="ssr:stedsnr" v="852963" />
	</node>
	<node id="-197073" lat="59.4445361142" lon="10.3539249961">
		<tag k="fixme" v="consider place=hamlet" />
		<tag k="name" v="Tangen" />
		<tag k="place" v="farm" />
		<tag k="ssr:stedsnr" v="852943" />
	</node>
	<node id="-197072" lat="59.3690833312" lon="10.4048722205">
		<tag k="name" v="Skogly" />
		<tag k="place" v="farm" />
		<tag k="ssr:stedsnr" v="852550" />
	</node>
	<node id="-197071" lat="59.3818888906" lon="10.4379638832">
		<tag k="name" v="Borre" />
		<tag k="place" v="farm" />
		<tag k="ssr:stedsnr" v="852540" />
	</node>
	<node id="-197070" lat="59.3867694423" lon="10.4637916611">
		<tag k="alt_name" v="Voll;Nordre Vold" />
		<tag k="fixme" v="consider place=hamlet" />
		<tag k="name" v="Vold" />
		<tag k="place" v="farm" />
		<tag k="ssr:stedsnr" v="852526" />
	</node>
	<node id="-197069" lat="59.4348055519" lon="10.4470027849">
		<tag k="name" v="Evjeåsen" />
		<tag k="place" v="quarter" />
		<tag k="ssr:stedsnr" v="844682" />
	</node>
	<node id="-197064" lat="59.3684388896" lon="10.4600500038">
		<tag k="name" v="Fuglesangen" />
		<tag k="place" v="locality" />
		<tag k="ssr:stedsnr" v="817837" />
	</node>
	<node id="-197063" lat="59.3783638931" lon="10.4016555632">
		<tag k="name" v="Viulsrød" />
		<tag k="place" v="farm" />
		<tag k="ssr:stedsnr" v="817393" />
	</node>
	<node id="-197062" lat="59.3778222203" lon="10.4071805596">
		<tag k="fixme" v="consider place=hamlet" />
		<tag k="name" v="Viulsrød" />
		<tag k="place" v="farm" />
		<tag k="ssr:stedsnr" v="817391" />
	</node>
	<node id="-197055" lat="59.4393333299" lon="10.3695222141">
		<tag k="name" v="Freberg" />
		<tag k="place" v="hamlet" />
		<tag k="ssr:stedsnr" v="816855" />
	</node>
	<node id="-197054" lat="59.4015777773" lon="10.3715416594">
		<tag k="fixme" v="consider place=hamlet" />
		<tag k="name" v="Bergan" />
		<tag k="place" v="farm" />
		<tag k="ssr:stedsnr" v="816849" />
	</node>
	<node id="-197051" lat="59.3857777807" lon="10.4036083394">
		<tag k="name" v="Reir" />
		<tag k="place" v="farm" />
		<tag k="ssr:stedsnr" v="814840" />
	</node>
	<node id="-197049" lat="59.4227805538" lon="10.3841694362">
		<tag k="name" v="Nykirke" />
		<tag k="place" v="village" />
		<tag k="ssr:stedsnr" v="813200" />
	</node>
	<node id="-197048" lat="59.4323416657" lon="10.3774027747">
		<tag k="alt_name" v="Nøklegård øvre" />
		<tag k="name" v="Nøklegård" />
		<tag k="place" v="farm" />
		<tag k="ssr:stedsnr" v="791937" />
	</node>
	<node id="-197047" lat="59.3519527749" lon="10.3942749957">
		<tag k="name" v="Tangsrød" />
		<tag k="place" v="isolated_dwelling" />
		<tag k="ssr:stedsnr" v="791560" />
	</node>
	<node id="-197046" lat="59.3794833327" lon="10.4441722204">
		<tag k="alt_name" v="Glenne østre;Nedre Glenne" />
		<tag k="fixme" v="consider place=hamlet" />
		<tag k="name" v="Glenne" />
		<tag k="place" v="farm" />
		<tag k="ssr:stedsnr" v="791536" />
	</node>
	<node id="-197045" lat="59.3842527745" lon="10.3981250028">
		<tag k="name" v="Reir" />
		<tag k="place" v="farm" />
		<tag k="ssr:stedsnr" v="791531" />
	</node>
	<node id="-197044" lat="59.3999572006" lon="10.4617504467">
		<tag k="fixme" v="consider place=hamlet" />
		<tag k="name" v="Tveiten" />
		<tag k="place" v="farm" />
		<tag k="ssr:stedsnr" v="791507" />
	</node>
	<node id="-197043" lat="59.3989833338" lon="10.4480666749">
		<tag k="fixme" v="consider place=hamlet" />
		<tag k="name" v="Semb" />
		<tag k="place" v="farm" />
		<tag k="ssr:stedsnr" v="791505" />
	</node>
	<node id="-197037" lat="59.3656861077" lon="10.4169388893">
		<tag k="name" v="Bergan søndre" />
		<tag k="place" v="farm" />
		<tag k="ssr:stedsnr" v="756374" />
	</node>
	<node id="-197034" lat="59.4289138927" lon="10.3795500039">
		<tag k="fixme" v="consider place=hamlet" />
		<tag k="name" v="Nøklegård nedre" />
		<tag k="place" v="farm" />
		<tag k="ssr:stedsnr" v="755838" />
	</node>
	<node id="-197031" lat="59.4354638891" lon="10.4299194474">
		<tag k="amenity" v="school" />
		<tag k="name" v="Falkensten skole" />
		<tag k="ssr:stedsnr" v="753835" />
	</node>
	<node id="-197029" lat="59.4188388851" lon="10.423258325">
		<tag k="fixme" v="consider place=hamlet" />
		<tag k="name" v="Vik søndre" />
		<tag k="place" v="farm" />
		<tag k="ssr:stedsnr" v="753809" />
	</node>
	<node id="-197028" lat="59.3490416707" lon="10.4575805508">
		<tag k="name" v="Nygård" />
		<tag k="place" v="quarter" />
		<tag k="ssr:stedsnr" v="753803" />
	</node>
	<node id="-197027" lat="59.4000277785" lon="10.430797217">
		<tag k="name" v="Eikelund" />
		<tag k="place" v="farm" />
		<tag k="ssr:stedsnr" v="731476" />
	</node>
	<node id="-197025" lat="59.416858329" lon="10.3623166641">
		<tag k="fixme" v="consider place=hamlet" />
		<tag k="name" v="Eiketuft" />
		<tag k="place" v="farm" />
		<tag k="ssr:stedsnr" v="730977" />
	</node>
	<node id="-197023" lat="59.354919441" lon="10.4110916685">
		<tag k="alt_name" v="Sti, nordre;Sti nedre" />
		<tag k="name" v="Nordre Sti" />
		<tag k="place" v="farm" />
		<tag k="ssr:stedsnr" v="730620" />
	</node>
	<node id="-197022" lat="59.386127779" lon="10.4107749976">
		<tag k="name" v="Skoppum" />
		<tag k="place" v="village" />
		<tag k="ssr:stedsnr" v="730591" />
	</node>
	<node id="-197021" lat="59.3793638912" lon="10.389311107">
		<tag k="fixme" v="consider place=hamlet" />
		<tag k="name" v="Råen" />
		<tag k="place" v="farm" />
		<tag k="ssr:stedsnr" v="730589" />
	</node>
	<node id="-197019" lat="59.4125666663" lon="10.4001222153">
		<tag k="fixme" v="consider place=hamlet" />
		<tag k="name" v="Guttulfsrød" />
		<tag k="place" v="farm" />
		<tag k="ssr:stedsnr" v="730529" />
	</node>
	<node id="-197015" lat="59.3547472197" lon="10.4588277699">
		<tag k="name" v="Koterød" />
		<tag k="place" v="isolated_dwelling" />
		<tag k="ssr:stedsnr" v="723772" />
	</node>
	<node id="-197011" lat="59.4145805519" lon="10.4899277782">
		<tag k="building" v="civic" />
		<tag k="name" v="Horten havnevesen" />
		<tag k="ssr:stedsnr" v="708634" />
	</node>
	<node id="-197010" lat="59.3675416707" lon="10.4019638918">
		<tag k="name" v="Augedal" />
		<tag k="place" v="farm" />
		<tag k="ssr:stedsnr" v="696971" />
	</node>
	<node id="-197009" lat="59.431505552" lon="10.3616583284">
		<tag k="name" v="Bollerud" />
		<tag k="place" v="locality" />
		<tag k="ssr:stedsnr" v="695836" />
	</node>
	<node id="-197008" lat="59.4166861145" lon="10.3398499991">
		<tag k="name" v="Askim" />
		<tag k="place" v="farm" />
		<tag k="ssr:stedsnr" v="695832" />
	</node>
	<node id="-197007" lat="59.3564111116" lon="10.3934027711">
		<tag k="name" v="Tangsrød" />
		<tag k="place" v="locality" />
		<tag k="ssr:stedsnr" v="695402" />
	</node>
	<node id="-197005" lat="59.3661027788" lon="10.4024722276">
		<tag k="fixme" v="consider place=hamlet" />
		<tag k="name" v="Adal nordre" />
		<tag k="place" v="farm" />
		<tag k="ssr:stedsnr" v="695392" />
	</node>
	<node id="-196996" lat="59.3925638885" lon="10.4652333306">
		<tag k="name" v="Eik" />
		<tag k="place" v="farm" />
		<tag k="ssr:stedsnr" v="692845" />
	</node>
	<node id="-196993" lat="59.3979555539" lon="10.4621083251">
		<tag k="amenity" v="school" />
		<tag k="name" v="Granly skole" />
		<tag k="ssr:stedsnr" v="692834" />
	</node>
	<node id="-196992" lat="59.3491666699" lon="10.4566777778">
		<tag k="amenity" v="school" />
		<tag k="name" v="Nygård skole" />
		<tag k="ssr:stedsnr" v="692814" />
	</node>
	<node id="-196991" lat="59.4172138895" lon="10.4834361075">
		<tag k="name" v="Horten" />
		<tag k="place" v="town" />
		<tag k="ssr:stedsnr" v="692216" />
	</node>
	<node id="-196990" lat="59.3918611142" lon="10.3948749984">
		<tag k="fixme" v="consider place=hamlet" />
		<tag k="name" v="Løs" />
		<tag k="place" v="farm" />
		<tag k="ssr:stedsnr" v="670487" />
	</node>
	<node id="-196989" lat="59.422407266" lon="10.3752147946">
		<tag k="fixme" v="consider place=hamlet" />
		<tag k="name" v="Sletterød" />
		<tag k="place" v="farm" />
		<tag k="ssr:stedsnr" v="669996" />
	</node>
	<node id="-196988" lat="59.4310444427" lon="10.3546444494">
		<tag k="alt_name" v="Ås øvre;Ås" />
		<tag k="fixme" v="consider place=hamlet" />
		<tag k="name" v="Øvre Ås" />
		<tag k="place" v="farm" />
		<tag k="ssr:stedsnr" v="669993" />
	</node>
	<node id="-196987" lat="59.4286833322" lon="10.3940111123">
		<tag k="alt_name" v="Skåne søndre" />
		<tag k="fixme" v="consider place=hamlet" />
		<tag k="name" v="Skåne" />
		<tag k="place" v="farm" />
		<tag k="ssr:stedsnr" v="669992" />
	</node>
	<node id="-196985" lat="59.3681666626" lon="10.4149472146">
		<tag k="alt_name" v="Bergan nordre" />
		<tag k="fixme" v="consider place=hamlet" />
		<tag k="name" v="Bergan" />
		<tag k="place" v="farm" />
		<tag k="ssr:stedsnr" v="669573" />
	</node>
	<node id="-196981" lat="59.4223499996" lon="10.4426999925">
		<tag k="name" v="Kongsten" />
		<tag k="place" v="farm" />
		<tag k="ssr:stedsnr" v="664966" />
	</node>
	<node id="-196980" lat="59.3522499996" lon="10.4629416729">
		<tag k="name" v="Damåsen" />
		<tag k="place" v="quarter" />
		<tag k="ssr:stedsnr" v="662708" />
	</node>
	<node id="-196979" lat="59.3709805587" lon="10.4569194472">
		<tag k="name" v="Mastebakke" />
		<tag k="place" v="quarter" />
		<tag k="ssr:stedsnr" v="662689" />
	</node>
	<node id="-196978" lat="59.4344333313" lon="10.4539527724">
		<tag k="name" v="Kjølhalskogen" />
		<tag k="place" v="quarter" />
		<tag k="ssr:stedsnr" v="662687" />
	</node>
	<node id="-196972" lat="59.4248444405" lon="10.4664972229">
		<tag k="fixme" v="consider place=suburb, village or hamlet" />
		<tag k="name" v="Keisemarka" />
		<tag k="place" v="quarter" />
		<tag k="ssr:stedsnr" v="647518" />
	</node>
	<node id="-196967" lat="59.4418833289" lon="10.393980551">
		<tag k="name" v="Veggestua" />
		<tag k="place" v="farm" />
		<tag k="ssr:stedsnr" v="634085" />
	</node>
	<node id="-196964" lat="59.4310972259" lon="10.392108341">
		<tag k="fixme" v="consider place=hamlet" />
		<tag k="name" v="Skåne nordre" />
		<tag k="place" v="farm" />
		<tag k="ssr:stedsnr" v="631862" />
	</node>
	<node id="-196963" lat="59.3876444433" lon="10.4637833247">
		<tag k="name" v="Vold" />
		<tag k="place" v="farm" />
		<tag k="ssr:stedsnr" v="631859" />
	</node>
	<node id="-196961" lat="59.419113892" lon="10.3896777743">
		<tag k="name" v="Ramberg" />
		<tag k="place" v="farm" />
		<tag k="ssr:stedsnr" v="631832" />
	</node>
	<node id="-196960" lat="59.4157638875" lon="10.3960277734">
		<tag k="fixme" v="consider place=hamlet" />
		<tag k="name" v="Knatten" />
		<tag k="place" v="farm" />
		<tag k="ssr:stedsnr" v="609985" />
	</node>
	<node id="-196959" lat="59.4110000004" lon="10.3570499969">
		<tag k="name" v="Kjærran" />
		<tag k="place" v="hamlet" />
		<tag k="ssr:stedsnr" v="609980" />
	</node>
	<node id="-196958" lat="59.4002250001" lon="10.4076722227">
		<tag k="fixme" v="consider place=hamlet" />
		<tag k="name" v="Olsmyra" />
		<tag k="place" v="farm" />
		<tag k="ssr:stedsnr" v="609480" />
	</node>
	<node id="-196956" lat="59.4272833375" lon="10.4381305506">
		<tag k="name" v="Ramsli" />
		<tag k="place" v="locality" />
		<tag k="ssr:stedsnr" v="608989" />
	</node>
	<node id="-196955" lat="59.4306388883" lon="10.4167083308">
		<tag k="fixme" v="consider place=hamlet" />
		<tag k="name" v="Tufte" />
		<tag k="place" v="farm" />
		<tag k="ssr:stedsnr" v="608988" />
	</node>
	<node id="-196953" lat="59.3598666647" lon="10.4068083402">
		<tag k="name" v="Adal" />
		<tag k="place" v="farm" />
		<tag k="ssr:stedsnr" v="608604" />
	</node>
	<node id="-196952" lat="59.3677611119" lon="10.4454777819">
		<tag k="alt_name" v="Vestmanrød" />
		<tag k="fixme" v="consider place=hamlet" />
		<tag k="name" v="Vestmannrød" />
		<tag k="place" v="farm" />
		<tag k="ssr:stedsnr" v="608601" />
	</node>
	<node id="-196951" lat="59.3829249959" lon="10.3845972262">
		<tag k="name" v="Solheim" />
		<tag k="place" v="farm" />
		<tag k="ssr:stedsnr" v="608585" />
	</node>
	<node id="-196950" lat="59.381433334" lon="10.3818388889">
		<tag k="alt_name" v="Steinbjørnrød" />
		<tag k="fixme" v="consider place=hamlet" />
		<tag k="name" v="Stenbjørnrød" />
		<tag k="place" v="farm" />
		<tag k="ssr:stedsnr" v="608584" />
	</node>
	<node id="-196949" lat="59.421086114" lon="10.3835361106">
		<tag k="name" v="Klokkeråsen" />
		<tag k="place" v="quarter" />
		<tag k="ssr:stedsnr" v="604692" />
	</node>
	<node id="-196948" lat="59.3495777821" lon="10.4448888924">
		<tag k="name" v="Breidablikk" />
		<tag k="place" v="quarter" />
		<tag k="ssr:stedsnr" v="601683" />
	</node>
	<node id="-196945" lat="59.4308861148" lon="10.3799861129">
		<tag k="fixme" v="consider place=hamlet" />
		<tag k="name" v="Nøklegård øvre" />
		<tag k="place" v="farm" />
		<tag k="ssr:stedsnr" v="580572" />
	</node>
	<node id="-196944" lat="59.4359694441" lon="10.380230557">
		<tag k="name" v="Tveitan" />
		<tag k="place" v="farm" />
		<tag k="ssr:stedsnr" v="580565" />
	</node>
	<node id="-196934" lat="59.3847916661" lon="10.4179361065">
		<tag k="name" v="Sande mølle og sagbruk" />
		<tag k="place" v="quarter" />
		<tag k="ssr:stedsnr" v="571818" />
	</node>
	<node id="-196931" lat="59.3737472265" lon="10.4605361135">
		<tag k="name" v="Rishagerød" />
		<tag k="place" v="farm" />
		<tag k="ssr:stedsnr" v="570801" />
	</node>
	<node id="-196928" lat="59.4243499972" lon="10.3576833402">
		<tag k="name" v="Soleglad" />
		<tag k="place" v="farm" />
		<tag k="ssr:stedsnr" v="548998" />
	</node>
	<node id="-196927" lat="59.4187200548" lon="10.3442683052">
		<tag k="fixme" v="multiple name tags, choose one and add the other to alt_name; consider place=hamlet" />
		<tag k="name" v="Drengløs;Jalland" />
		<tag k="place" v="farm" />
		<tag k="ssr:stedsnr" v="548975" />
	</node>
	<node id="-196926" lat="59.4060305516" lon="10.350749993">
		<tag k="name" v="Fossøla" />
		<tag k="place" v="farm" />
		<tag k="ssr:stedsnr" v="548963" />
	</node>
	<node id="-196925" lat="59.4417305565" lon="10.3975333391">
		<tag k="alt_name" v="Vegge;Vegge nordre" />
		<tag k="fixme" v="consider place=hamlet" />
		<tag k="name" v="Nordre Vegge" />
		<tag k="place" v="farm" />
		<tag k="ssr:stedsnr" v="548944" />
	</node>
	<node id="-196924" lat="59.437233332" lon="10.3786944473">
		<tag k="fixme" v="consider place=hamlet" />
		<tag k="name" v="Tveitan" />
		<tag k="place" v="farm" />
		<tag k="ssr:stedsnr" v="548930" />
	</node>
	<node id="-196922" lat="59.3843027785" lon="10.4528027849">
		<tag k="name" v="Gannestad" />
		<tag k="place" v="isolated_dwelling" />
		<tag k="ssr:stedsnr" v="548556" />
	</node>
	<node id="-196918" lat="59.3560972255" lon="10.4666777692">
		<tag k="name" v="Skogstua" />
		<tag k="place" v="isolated_dwelling" />
		<tag k="ssr:stedsnr" v="523041" />
	</node>
	<node id="-196913" lat="59.4412000029" lon="10.4297833396">
		<tag k="building" v="industrial" />
		<tag k="industrial" v="factory" />
		<tag k="name" v="Falkensten" />
		<tag k="ssr:stedsnr" v="510882" />
	</node>
	<node id="-196910" lat="59.3965055573" lon="10.3849805642">
		<tag k="fixme" v="consider place=hamlet" />
		<tag k="name" v="Gusland nordre" />
		<tag k="place" v="farm" />
		<tag k="ssr:stedsnr" v="510860" />
	</node>
	<node id="-196909" lat="59.3985694426" lon="10.3912388898">
		<tag k="name" v="Støkke" />
		<tag k="place" v="farm" />
		<tag k="ssr:stedsnr" v="510858" />
	</node>
	<node id="-196907" lat="59.3520499963" lon="10.4435416662">
		<tag k="name" v="Øvre Åsgården" />
		<tag k="place" v="farm" />
		<tag k="ssr:stedsnr" v="510841" />
	</node>
	<node id="-196906" lat="59.3514361107" lon="10.4376861177">
		<tag k="fixme" v="consider place=hamlet" />
		<tag k="name" v="Kjær ytre" />
		<tag k="place" v="farm" />
		<tag k="ssr:stedsnr" v="510839" />
	</node>
	<node id="-196905" lat="59.4102277787" lon="10.3666388848">
		<tag k="alt_name" v="Mosekvisl;Moskvil;Moskvil, søndre" />
		<tag k="fixme" v="consider place=hamlet" />
		<tag k="name" v="Søndre Moskvil" />
		<tag k="place" v="farm" />
		<tag k="ssr:stedsnr" v="495677" />
	</node>
	<node id="-196904" lat="59.3973805596" lon="10.4357500081">
		<tag k="alt_name" v="Øvre Toen" />
		<tag k="fixme" v="consider place=hamlet" />
		<tag k="name" v="Toen" />
		<tag k="place" v="farm" />
		<tag k="ssr:stedsnr" v="488489" />
	</node>
	<node id="-196901" lat="59.4275249994" lon="10.4455999989">
		<tag k="name" v="Dampejordet" />
		<tag k="place" v="isolated_dwelling" />
		<tag k="ssr:stedsnr" v="487988" />
	</node>
	<node id="-196900" lat="59.4184194444" lon="10.4518166712">
		<tag k="name" v="Holtan" />
		<tag k="place" v="isolated_dwelling" />
		<tag k="ssr:stedsnr" v="487973" />
	</node>
	<node id="-196899" lat="59.4121694411" lon="10.378344445">
		<tag k="fixme" v="consider place=hamlet" />
		<tag k="name" v="Åsrød" />
		<tag k="place" v="farm" />
		<tag k="ssr:stedsnr" v="487966" />
	</node>
	<node id="-196898" lat="59.4405055593" lon="10.3690944498">
		<tag k="fixme" v="consider place=hamlet" />
		<tag k="name" v="Freberg nordre" />
		<tag k="place" v="farm" />
		<tag k="ssr:stedsnr" v="487955" />
	</node>
	<node id="-196896" lat="59.3662749988" lon="10.402641671">
		<tag k="name" v="Solheim" />
		<tag k="place" v="farm" />
		<tag k="ssr:stedsnr" v="487611" />
	</node>
	<node id="-196895" lat="59.3593888892" lon="10.4647388923">
		<tag k="name" v="Rosenville" />
		<tag k="place" v="farm" />
		<tag k="ssr:stedsnr" v="487609" />
	</node>
	<node id="-196894" lat="59.3738611145" lon="10.4136416664">
		<tag k="fixme" v="consider place=hamlet" />
		<tag k="name" v="Pjonkerød" />
		<tag k="place" v="farm" />
		<tag k="ssr:stedsnr" v="487605" />
	</node>
	<node id="-196893" lat="59.4043555529" lon="10.4073138898">
		<tag k="alt_name" v="Nordre Rygland" />
		<tag k="fixme" v="consider place=hamlet" />
		<tag k="name" v="Ryggland" />
		<tag k="place" v="farm" />
		<tag k="ssr:stedsnr" v="487548" />
	</node>
	<node id="-196892" lat="59.4297083369" lon="10.3366583312">
		<tag k="alt_name" v="Bruserød" />
		<tag k="fixme" v="consider place=hamlet" />
		<tag k="name" v="Bruserud" />
		<tag k="place" v="farm" />
		<tag k="ssr:stedsnr" v="487176" />
	</node>
	<node id="-196890" lat="59.4314444402" lon="10.4488166719">
		<tag k="name" v="Nordli" />
		<tag k="place" v="quarter" />
		<tag k="ssr:stedsnr" v="480679" />
	</node>
	<node id="-196886" lat="59.4141722261" lon="10.4713388951">
		<tag k="amenity" v="hospital" />
		<tag k="name" v="Horten sykehus" />
		<tag k="ssr:stedsnr" v="465625" />
	</node>
	<node id="-196880" lat="59.3921861092" lon="10.4789777777">
		<tag k="amenity" v="school" />
		<tag k="name" v="Borre havarivernskole" />
		<tag k="ssr:stedsnr" v="451241" />
	</node>
	<node id="-196878" lat="59.4467583372" lon="10.4406472281">
		<tag k="name" v="Vadfiskerstua" />
		<tag k="place" v="isolated_dwelling" />
		<tag k="ssr:stedsnr" v="450850" />
	</node>
	<node id="-196874" lat="59.4190611108" lon="10.3533027819">
		<tag k="alt_name" v="Vold" />
		<tag k="fixme" v="consider place=hamlet" />
		<tag k="name" v="Voll" />
		<tag k="place" v="farm" />
		<tag k="ssr:stedsnr" v="427979" />
	</node>
	<node id="-196873" lat="59.4130555522" lon="10.4224055608">
		<tag k="fixme" v="consider place=hamlet" />
		<tag k="name" v="Eikenes" />
		<tag k="place" v="farm" />
		<tag k="ssr:stedsnr" v="427971" />
	</node>
	<node id="-196872" lat="59.4311499965" lon="10.4240166585">
		<tag k="fixme" v="consider place=hamlet" />
		<tag k="name" v="Kotterød" />
		<tag k="place" v="farm" />
		<tag k="ssr:stedsnr" v="427939" />
	</node>
	<node id="-196870" lat="59.428444445" lon="10.4821416731">
		<tag k="building" v="industrial" />
		<tag k="industrial" v="factory" />
		<tag k="name" v="Horten verft" />
		<tag k="ssr:stedsnr" v="427926" />
	</node>
	<node id="-196867" lat="59.3596000013" lon="10.4319305502">
		<tag k="name" v="Læret" />
		<tag k="place" v="farm" />
		<tag k="ssr:stedsnr" v="427569" />
	</node>
	<node id="-196866" lat="59.368638886" lon="10.4308749977">
		<tag k="fixme" v="consider place=hamlet" />
		<tag k="name" v="Friberg" />
		<tag k="place" v="farm" />
		<tag k="ssr:stedsnr" v="427563" />
	</node>
	<node id="-196865" lat="59.3864166662" lon="10.4262944472">
		<tag k="fixme" v="consider place=hamlet" />
		<tag k="name" v="Vestre Sande" />
		<tag k="place" v="farm" />
		<tag k="ssr:stedsnr" v="427536" />
	</node>
	<node id="-196864" lat="59.3894722187" lon="10.4274777862">
		<tag k="alt_name" v="Sande nordre" />
		<tag k="fixme" v="consider place=hamlet" />
		<tag k="name" v="Sande bruk" />
		<tag k="place" v="farm" />
		<tag k="ssr:stedsnr" v="427537" />
	</node>
	<node id="-196863" lat="59.3993416633" lon="10.420549998">
		<tag k="alt_name" v="Solberg" />
		<tag k="fixme" v="consider place=hamlet" />
		<tag k="name" v="Mellom Solberg" />
		<tag k="place" v="farm" />
		<tag k="ssr:stedsnr" v="427528" />
	</node>
	<node id="-196862" lat="59.4081805517" lon="10.4599250019">
		<tag k="name" v="Holtan" />
		<tag k="place" v="farm" />
		<tag k="ssr:stedsnr" v="427523" />
	</node>
	<node id="-196861" lat="59.4250416701" lon="10.4502361044">
		<tag k="name" v="Laskenlia" />
		<tag k="place" v="quarter" />
		<tag k="ssr:stedsnr" v="419697" />
	</node>
	<node id="-196855" lat="59.4018305523" lon="10.4255111195">
		<tag k="alt_name" v="Solberg østre" />
		<tag k="name" v="Solberg" />
		<tag k="place" v="farm" />
		<tag k="ssr:stedsnr" v="252620" />
	</node>
	<node id="-196854" lat="59.418461114" lon="10.3720638848">
		<tag k="fixme" v="consider place=hamlet" />
		<tag k="loc_name" v="Skoppumteigen" />
		<tag k="name" v="Teigen" />
		<tag k="place" v="farm" />
		<tag k="ssr:stedsnr" v="245978" />
	</node>
	<node id="-196851" lat="59.3660972206" lon="10.3871499957">
		<tag k="fixme" v="consider place=hamlet" />
		<tag k="name" v="Ødegården" />
		<tag k="place" v="farm" />
		<tag k="ssr:stedsnr" v="245546" />
	</node>
	<node id="-196849" lat="59.3703361152" lon="10.4430722256">
		<tag k="name" v="Fagerlund" />
		<tag k="place" v="farm" />
		<tag k="ssr:stedsnr" v="245536" />
	</node>
	<node id="-196848" lat="59.3732416656" lon="10.4285749954">
		<tag k="name" v="Kimestad" />
		<tag k="place" v="farm" />
		<tag k="ssr:stedsnr" v="245534" />
	</node>
	<node id="-196847" lat="59.3888638916" lon="10.3853138876">
		<tag k="name" v="Kongelv" />
		<tag k="place" v="farm" />
		<tag k="ssr:stedsnr" v="245511" />
	</node>
	<node id="-196845" lat="59.4037250023" lon="10.4048388957">
		<tag k="alt_name" v="Solberg vestre" />
		<tag k="name" v="Solberg" />
		<tag k="place" v="farm" />
		<tag k="ssr:stedsnr" v="245487" />
	</node>
	<node id="-196844" lat="59.3485194403" lon="10.4559388909">
		<tag k="name" v="Øderydningen" />
		<tag k="place" v="quarter" />
		<tag k="ssr:stedsnr" v="237708" />
	</node>
	<node id="-196835" lat="59.4400416702" lon="10.3506638944">
		<tag k="name" v="Tangen" />
		<tag k="place" v="farm" />
		<tag k="ssr:stedsnr" v="209830" />
	</node>
	<node id="-196834" lat="59.378702776" lon="10.5274944485">
		<tag k="name" v="Foldin" />
		<tag k="place" v="isolated_dwelling" />
		<tag k="ssr:stedsnr" v="209190" />
	</node>
	<node id="-196832" lat="59.3949472181" lon="10.4151583392">
		<tag k="name" v="Rygland søndre" />
		<tag k="place" v="farm" />
		<tag k="ssr:stedsnr" v="207834" />
	</node>
	<node id="-196831" lat="59.3871250003" lon="10.4168444489">
		<tag k="name" v="Skoppum" />
		<tag k="place" v="farm" />
		<tag k="ssr:stedsnr" v="207832" />
	</node>
	<node id="-196830" lat="59.3843305524" lon="10.4042694382">
		<tag k="name" v="Reir" />
		<tag k="place" v="farm" />
		<tag k="ssr:stedsnr" v="207830" />
	</node>
	<node id="-196829" lat="59.3850500044" lon="10.4064444388">
		<tag k="name" v="Reir" />
		<tag k="place" v="locality" />
		<tag k="ssr:stedsnr" v="207829" />
	</node>
	<node id="-196828" lat="59.4147222234" lon="10.3671361049">
		<tag k="fixme" v="consider place=hamlet" />
		<tag k="name" v="Moskvil" />
		<tag k="place" v="farm" />
		<tag k="ssr:stedsnr" v="184974" />
	</node>
	<node id="-196826" lat="59.4379694468" lon="10.4426249916">
		<tag k="name" v="Skavli" />
		<tag k="place" v="quarter" />
		<tag k="ssr:stedsnr" v="184923" />
	</node>
	<node id="-196825" lat="59.3917111074" lon="10.465183334">
		<tag k="fixme" v="consider place=hamlet" />
		<tag k="name" v="Eik" />
		<tag k="place" v="farm" />
		<tag k="ssr:stedsnr" v="184537" />
	</node>
	<node id="-196824" lat="59.3925555515" lon="10.4094194514">
		<tag k="name" v="Jahrelunden" />
		<tag k="place" v="farm" />
		<tag k="ssr:stedsnr" v="184533" />
	</node>
	<node id="-196823" lat="59.409069443" lon="10.4424527851">
		<tag k="fixme" v="consider place=hamlet" />
		<tag k="name" v="Eskebekk" />
		<tag k="place" v="farm" />
		<tag k="ssr:stedsnr" v="184508" />
	</node>
	<node id="-196822" lat="59.3493833317" lon="10.4694833303">
		<tag k="name" v="Åsgårdstrand" />
		<tag k="place" v="town" />
		<tag k="ssr:stedsnr" v="184593" />
	</node>
	<node id="-196821" lat="59.3525083337" lon="10.4536777789">
		<tag k="alt_name" v="Åsgarden" />
		<tag k="name" v="Åsgården" />
		<tag k="place" v="farm" />
		<tag k="ssr:stedsnr" v="184580" />
	</node>
	<node id="-196818" lat="59.3790055566" lon="10.460591674">
		<tag k="name" v="Hallingstad" />
		<tag k="place" v="quarter" />
		<tag k="ssr:stedsnr" v="180671" />
	</node>
	<node id="-196808" lat="59.3837138886" lon="10.4097944526">
		<tag k="name" v="Tokerød" />
		<tag k="place" v="quarter" />
		<tag k="ssr:stedsnr" v="146811" />
	</node>
	<node id="-196805" lat="59.3509472199" lon="10.4582805486">
		<tag k="fixme" v="consider place=hamlet" />
		<tag k="name" v="Nygård" />
		<tag k="place" v="farm" />
		<tag k="ssr:stedsnr" v="146786" />
	</node>
	<node id="-196804" lat="59.3471472195" lon="10.4480250065">
		<tag k="leisure" v="pitch" />
		<tag k="name" v="Mellombanen" />
		<tag k="ssr:stedsnr" v="146783" />
	</node>
	<node id="-196802" lat="59.3920194406" lon="10.4313916608">
		<tag k="alt_name" v="Kjær, nordre" />
		<tag k="fixme" v="consider place=hamlet" />
		<tag k="name" v="Nordre Kjær" />
		<tag k="place" v="farm" />
		<tag k="ssr:stedsnr" v="124479" />
	</node>
	<node id="-196801" lat="59.3873194483" lon="10.3962416684">
		<tag k="name" v="Løvås" />
		<tag k="place" v="farm" />
		<tag k="ssr:stedsnr" v="124474" />
	</node>
	<node id="-196800" lat="59.3928166643" lon="10.3860055606">
		<tag k="alt_name" v="Gusland søndre" />
		<tag k="fixme" v="consider place=hamlet" />
		<tag k="name" v="Gusland" />
		<tag k="place" v="farm" />
		<tag k="ssr:stedsnr" v="124473" />
	</node>
	<node id="-196799" lat="59.3881249987" lon="10.4172416606">
		<tag k="fixme" v="consider place=hamlet" />
		<tag k="name" v="Skoppum" />
		<tag k="place" v="farm" />
		<tag k="ssr:stedsnr" v="124469" />
	</node>
	<node id="-196798" lat="59.4172277781" lon="10.4010472217">
		<tag k="fixme" v="consider place=hamlet" />
		<tag k="name" v="Skreppedal" />
		<tag k="place" v="farm" />
		<tag k="ssr:stedsnr" v="123981" />
	</node>
	<node id="-196797" lat="59.4196138908" lon="10.4873472194">
		<tag k="alt_name" v="Lystlunden" />
		<tag k="leisure" v="pitch" />
		<tag k="name" v="Lystlunden idrettsplass" />
		<tag k="ssr:stedsnr" v="123975" />
	</node>
	<node id="-196795" lat="59.4342333329" lon="10.402402775">
		<tag k="fixme" v="consider place=hamlet" />
		<tag k="name" v="Åsen" />
		<tag k="place" v="farm" />
		<tag k="ssr:stedsnr" v="123954" />
	</node>
	<node id="-196794" lat="59.4338472199" lon="10.4181194453">
		<tag k="alt_name" v="Vegge;Vegge søndre" />
		<tag k="fixme" v="consider place=hamlet" />
		<tag k="name" v="Søndre Vegge" />
		<tag k="place" v="farm" />
		<tag k="ssr:stedsnr" v="123953" />
	</node>
	<node id="-196793" lat="59.4004777797" lon="10.4318500033">
		<tag k="name" v="Ødegården" />
		<tag k="place" v="farm" />
		<tag k="ssr:stedsnr" v="123559" />
	</node>
	<node id="-196792" lat="59.4110944486" lon="10.3349583338">
		<tag k="alt_name" v="Bruserødteigen" />
		<tag k="fixme" v="consider place=hamlet" />
		<tag k="name" v="Teigen" />
		<tag k="place" v="farm" />
		<tag k="ssr:stedsnr" v="123161" />
	</node>
	<node id="-196790" lat="59.3818888876" lon="10.4564555471">
		<tag k="name" v="Borre" />
		<tag k="place" v="village" />
		<tag k="ssr:stedsnr" v="101283" />
	</node>
	<node id="-196789" lat="59.433588887" lon="10.377627774">
		<tag k="name" v="Tveitan" />
		<tag k="place" v="farm" />
		<tag k="ssr:stedsnr" v="95563" />
	</node>
	<node id="-196788" lat="59.3578749967" lon="10.4135388833">
		<tag k="fixme" v="consider place=hamlet" />
		<tag k="name" v="Adal søndre" />
		<tag k="place" v="farm" />
		<tag k="ssr:stedsnr" v="89415" />
	</node>
	<node id="-196787" lat="59.3752333376" lon="10.4116583306">
		<tag k="name" v="Pjonkerød nordre" />
		<tag k="place" v="farm" />
		<tag k="ssr:stedsnr" v="89406" />
	</node>
	<node id="-196786" lat="59.3780805525" lon="10.4035555625">
		<tag k="name" v="Viulsrød" />
		<tag k="place" v="farm" />
		<tag k="ssr:stedsnr" v="89405" />
	</node>
	<node id="-196785" lat="59.4370265309" lon="10.3694857257">
		<tag k="fixme" v="consider place=hamlet" />
		<tag k="name" v="Freberg søndre" />
		<tag k="place" v="farm" />
		<tag k="ssr:stedsnr" v="88816" />
	</node>
	<node id="-196784" lat="59.4114444415" lon="10.358494437">
		<tag k="fixme" v="consider place=hamlet" />
		<tag k="name" v="Kjærran nedre" />
		<tag k="place" v="farm" />
		<tag k="ssr:stedsnr" v="88804" />
	</node>
	<node id="-196783" lat="59.3763194425" lon="10.3784444425">
		<tag k="name" v="Steinbjørnrød" />
		<tag k="place" v="farm" />
		<tag k="ssr:stedsnr" v="88697" />
	</node>
	<node id="-196782" lat="59.4387111153" lon="10.4390222198">
		<tag k="name" v="Møllestua" />
		<tag k="place" v="isolated_dwelling" />
		<tag k="ssr:stedsnr" v="87862" />
	</node>
	<node id="-196775" lat="59.3536722186" lon="10.437558328">
		<tag k="amenity" v="school" />
		<tag k="name" v="Ra skole" />
		<tag k="ssr:stedsnr" v="86811" />
	</node>
	<node id="-196770" lat="59.4431416663" lon="10.3600944503">
		<tag k="fixme" v="consider place=hamlet" />
		<tag k="name" v="Haug" />
		<tag k="place" v="farm" />
		<tag k="ssr:stedsnr" v="63947" />
	</node>
	<node id="-196768" lat="59.3442694405" lon="10.4685750073">
		<tag k="alt_name" v="Stang" />
		<tag k="fixme" v="consider place=hamlet" />
		<tag k="name" v="Store Stang" />
		<tag k="place" v="farm" />
		<tag k="ssr:stedsnr" v="63599" />
	</node>
	<node id="-196762" lat="59.4384861127" lon="10.4365999984">
		<tag k="name" v="Skavli" />
		<tag k="place" v="quarter" />
		<tag k="ssr:stedsnr" v="55637" />
	</node>
	<node id="-196760" lat="59.4425861108" lon="10.4328583383">
		<tag k="fixme" v="consider place=suburb, village or hamlet" />
		<tag k="name" v="Falkensten" />
		<tag k="place" v="quarter" />
		<tag k="ssr:stedsnr" v="41827" />
	</node>
	<node id="-196758" lat="59.4158444457" lon="10.4854388917">
		<tag k="building" v="civic" />
		<tag k="name" v="Politistasjon" />
		<tag k="ssr:stedsnr" v="41638" />
	</node>
	<node id="-196756" lat="59.4118861143" lon="10.3548111195">
		<tag k="alt_name" v="Øvre Kjæran" />
		<tag k="fixme" v="consider place=hamlet" />
		<tag k="name" v="Kjærran øvre" />
		<tag k="place" v="farm" />
		<tag k="ssr:stedsnr" v="32819" />
	</node>
	<node id="-196752" lat="59.3600916673" lon="10.4261972194">
		<tag k="fixme" v="consider place=hamlet" />
		<tag k="name" v="Dal" />
		<tag k="place" v="farm" />
		<tag k="ssr:stedsnr" v="28406" />
	</node>
	<node id="-196748" lat="59.4255487261" lon="10.4517305699">
		<tag k="name" v="Apenes" />
		<tag k="place" v="quarter" />
		<tag k="ssr:stedsnr" v="27886" />
	</node>
	<node id="-196746" lat="59.3870499963" lon="10.4315666663">
		<tag k="fixme" v="consider place=hamlet" />
		<tag k="name" v="Sande østre" />
		<tag k="place" v="farm" />
		<tag k="ssr:stedsnr" v="25839" />
	</node>
	<node id="-196745" lat="59.3936305596" lon="10.4643027816">
		<tag k="name" v="Eik" />
		<tag k="place" v="farm" />
		<tag k="ssr:stedsnr" v="25835" />
	</node>
	<node id="-196743" lat="59.3691861091" lon="10.4431555563">
		<tag k="amenity" v="school" />
		<tag k="name" v="Bakkenteigen" />
		<tag k="ssr:stedsnr" v="21052" />
	</node>
	<node id="-196742" lat="59.3690583309" lon="10.425322221">
		<tag k="fixme" v="consider place=hamlet" />
		<tag k="name" v="Kimestad" />
		<tag k="place" v="farm" />
		<tag k="ssr:stedsnr" v="9665" />
	</node>
	<node id="-196741" lat="59.431588892" lon="10.4916305641">
		<tag k="landuse" v="military" />
		<tag k="name" v="Karljohansvern" />
		<tag k="ssr:stedsnr" v="2984" />
	</node>
	<node id="-196740" lat="59.4194166667" lon="10.3973138806">
		<tag k="name" v="Grette" />
		<tag k="place" v="farm" />
		<tag k="ssr:stedsnr" v="2980" />
	</node>
	<node id="-196739" lat="59.4193888892" lon="10.4412666713">
		<tag k="fixme" v="consider place=hamlet" />
		<tag k="name" v="Knutsrød" />
		<tag k="place" v="farm" />
		<tag k="ssr:stedsnr" v="2975" />
	</node>
	<node id="-196735" lat="59.4395277801" lon="10.3780444506">
		<tag k="name" v="Frebergsvik" />
		<tag k="place" v="neighbourhood" />
		<tag k="ssr:stedsnr" v="2936" />
	</node>
	<node id="-196734" lat="59.4321611145" lon="10.4477694364">
		<tag k="name" v="Orerønningen" />
		<tag k="place" v="isolated_dwelling" />
		<tag k="ssr:stedsnr" v="2932" />
	</node>
	<node id="-196733" lat="59.3766583318" lon="10.4258527748">
		<tag k="fixme" v="consider place=hamlet" />
		<tag k="name" v="Lørge" />
		<tag k="place" v="farm" />
		<tag k="ssr:stedsnr" v="2567" />
	</node>
	<node id="-196732" lat="59.3784083361" lon="10.3991000029">
		<tag k="name" v="Viulsrød" />
		<tag k="place" v="farm" />
		<tag k="ssr:stedsnr" v="2564" />
	</node>
	<node id="-196730" lat="59.3935194472" lon="10.4618805472">
		<tag k="fixme" v="consider place=hamlet" />
		<tag k="name" v="Røre" />
		<tag k="place" v="farm" />
		<tag k="ssr:stedsnr" v="2545" />
	</node>
	<node id="-196720" lat="59.4293050233" lon="10.490639097">
		<tag k="landuse" v="military" />
		<tag k="name" v="Orlogshavna" />
		<tag k="ssr:stedsnr" v="986009" />
	</node>
	<node id="-196719" lat="59.4355211009" lon="10.4143305606">
		<tag k="name" v="Vegge" />
		<tag k="place" v="hamlet" />
		<tag k="ssr:stedsnr" v="984714" />
	</node>
	<node id="-196718" lat="59.4354959955" lon="10.3933618829">
		<tag k="name" v="Såteskogen" />
		<tag k="place" v="locality" />
		<tag k="ssr:stedsnr" v="984712" />
	</node>
	<node id="-196717" lat="59.429984254" lon="10.3940141955">
		<tag k="name" v="Skåne" />
		<tag k="place" v="hamlet" />
		<tag k="ssr:stedsnr" v="984711" />
	</node>
	<node id="-196716" lat="59.4377373371" lon="10.3904848304">
		<tag k="fixme" v="consider place=hamlet" />
		<tag k="name" v="Teigen" />
		<tag k="place" v="farm" />
		<tag k="ssr:stedsnr" v="984709" />
	</node>
	<node id="-196715" lat="59.4299159747" lon="10.3801244171">
		<tag k="name" v="Nøklegård" />
		<tag k="place" v="hamlet" />
		<tag k="ssr:stedsnr" v="984662" />
	</node>
	<node id="-196714" lat="59.4309151938" lon="10.3522587016">
		<tag k="name" v="Ås" />
		<tag k="place" v="hamlet" />
		<tag k="ssr:stedsnr" v="984661" />
	</node>
	<node id="-196713" lat="59.3950076559" lon="10.3858392152">
		<tag k="name" v="Gusland" />
		<tag k="place" v="hamlet" />
		<tag k="ssr:stedsnr" v="984639" />
	</node>
	<node id="-196712" lat="59.3561327267" lon="10.4105073717">
		<tag k="fixme" v="consider place=hamlet" />
		<tag k="name" v="Sti" />
		<tag k="place" v="farm" />
		<tag k="ssr:stedsnr" v="984615" />
	</node>
	<node id="-196711" lat="59.3594763776" lon="10.4113533661">
		<tag k="name" v="Adal" />
		<tag k="place" v="hamlet" />
		<tag k="ssr:stedsnr" v="984614" />
	</node>
	<node id="-196710" lat="59.3826465642" lon="10.413329952">
		<tag k="name" v="Tokerød" />
		<tag k="place" v="locality" />
		<tag k="ssr:stedsnr" v="984544" />
	</node>
	<node id="-196709" lat="59.3882686908" lon="10.4279609058">
		<tag k="name" v="Sande" />
		<tag k="place" v="hamlet" />
		<tag k="ssr:stedsnr" v="984543" />
	</node>
	<node id="-196708" lat="59.3958748869" lon="10.4056083134">
		<tag k="name" v="Søndre Rygland" />
		<tag k="place" v="locality" />
		<tag k="ssr:stedsnr" v="984541" />
	</node>
	<node id="-196707" lat="59.3984914563" lon="10.4199994294">
		<tag k="name" v="Solberg" />
		<tag k="place" v="hamlet" />
		<tag k="ssr:stedsnr" v="984540" />
	</node>
	<node id="-196706" lat="59.4001525619" lon="10.4153317859">
		<tag k="fixme" v="consider place=hamlet" />
		<tag k="name" v="Vestre Solberg" />
		<tag k="place" v="farm" />
		<tag k="ssr:stedsnr" v="984539" />
	</node>
	<node id="-196705" lat="59.4226671537" lon="10.4212751372">
		<tag k="name" v="Vik" />
		<tag k="place" v="hamlet" />
		<tag k="ssr:stedsnr" v="984538" />
	</node>
	<node id="-196704" lat="59.405669358" lon="10.4665352976">
		<tag k="fixme" v="consider place=hamlet" />
		<tag k="name" v="Baggerød" />
		<tag k="place" v="farm" />
		<tag k="ssr:stedsnr" v="984537" />
	</node>
	<node id="-196703" lat="59.3866817756" lon="10.4629754753">
		<tag k="name" v="Vold" />
		<tag k="place" v="hamlet" />
		<tag k="ssr:stedsnr" v="984536" />
	</node>
	<node id="-196702" lat="59.3851883409" lon="10.4723934999">
		<tag k="name" v="Søndre Vold" />
		<tag k="place" v="locality" />
		<tag k="ssr:stedsnr" v="984535" />
	</node>
	<node id="-196701" lat="59.3827634202" lon="10.5268618652">
		<tag k="name" v="Bastø" />
		<tag k="place" v="locality" />
		<tag k="ssr:stedsnr" v="984534" />
	</node>
	<node id="-196700" lat="59.3833101513" lon="10.4598602327">
		<tag k="fixme" v="consider place=hamlet" />
		<tag k="name" v="Vasmarken" />
		<tag k="place" v="farm" />
		<tag k="ssr:stedsnr" v="984505" />
	</node>
	<node id="-196699" lat="59.3739062586" lon="10.4373690454">
		<tag k="name" v="Øvre Glenne" />
		<tag k="place" v="locality" />
		<tag k="ssr:stedsnr" v="984502" />
	</node>
	<node id="-196698" lat="59.373886111" lon="10.4140666599">
		<tag k="name" v="Pjonkerød søndre" />
		<tag k="place" v="farm" />
		<tag k="ssr:stedsnr" v="882666" />
	</node>
	<node id="-196693" lat="59.3593611118" lon="10.4526388833">
		<tag k="name" v="Jutestrand" />
		<tag k="place" v="farm" />
		<tag k="ssr:stedsnr" v="392849" />
	</node>
	<node id="-196686" lat="59.3835801376" lon="10.4136923233">
		<tag k="amenity" v="school" />
		<tag k="name" v="Lysheim skole" />
		<tag k="ssr:stedsnr" v="389829" />
	</node>
	<node id="-196683" lat="59.4411222215" lon="10.4294611031">
		<tag k="fixme" v="consider place=hamlet" />
		<tag k="name" v="Falkensten" />
		<tag k="place" v="farm" />
		<tag k="ssr:stedsnr" v="366936" />
	</node>
	<node id="-196682" lat="59.432949999" lon="10.4282638851">
		<tag k="building" v="industrial" />
		<tag k="industrial" v="factory" />
		<tag k="name" v="Øvremølla" />
		<tag k="ssr:stedsnr" v="366932" />
	</node>
	<node id="-196681" lat="59.3564388867" lon="10.4067750061">
		<tag k="alt_name" v="Sti, østre;Sti øvre" />
		<tag k="name" v="Østre Sti" />
		<tag k="place" v="farm" />
		<tag k="ssr:stedsnr" v="366584" />
	</node>
	<node id="-196680" lat="59.3535750007" lon="10.4474472141">
		<tag k="name" v="Snekkestad" />
		<tag k="place" v="farm" />
		<tag k="ssr:stedsnr" v="366583" />
	</node>
	<node id="-196679" lat="59.3641249972" lon="10.4271833321">
		<tag k="alt_name" v="Adal østre" />
		<tag k="fixme" v="consider place=hamlet" />
		<tag k="name" v="Adal" />
		<tag k="place" v="farm" />
		<tag k="ssr:stedsnr" v="366577" />
	</node>
	<node id="-196677" lat="59.3943555525" lon="10.3967555472">
		<tag k="fixme" v="consider place=hamlet" />
		<tag k="name" v="Snapsrød" />
		<tag k="place" v="farm" />
		<tag k="ssr:stedsnr" v="366535" />
	</node>
	<node id="-196676" lat="59.4017972196" lon="10.3538916668">
		<tag k="alt_name" v="Kjettetorp" />
		<tag k="fixme" v="consider place=hamlet" />
		<tag k="name" v="Kjettorp" />
		<tag k="place" v="farm" />
		<tag k="ssr:stedsnr" v="366525" />
	</node>
	<node id="-196674" lat="59.3860250023" lon="10.4752944481">
		<tag k="name" v="Birkely" />
		<tag k="place" v="quarter" />
		<tag k="ssr:stedsnr" v="358696" />
	</node>
	<node id="-196667" lat="59.3692194443" lon="10.3849861041">
		<tag k="name" v="Ødegården" />
		<tag k="place" v="farm" />
		<tag k="ssr:stedsnr" v="331375" />
	</node>
	<node id="-196666" lat="59.4378361125" lon="10.3709222213">
		<tag k="name" v="Rønningen" />
		<tag k="place" v="farm" />
		<tag k="ssr:stedsnr" v="331101" />
	</node>
	<node id="-196664" lat="59.3960222231" lon="10.4562083403">
		<tag k="fixme" v="consider place=hamlet" />
		<tag k="name" v="Semb søndre" />
		<tag k="place" v="farm" />
		<tag k="ssr:stedsnr" v="328854" />
	</node>
	<node id="-196663" lat="59.3890499963" lon="10.4651805626">
		<tag k="name" v="Vold" />
		<tag k="place" v="farm" />
		<tag k="ssr:stedsnr" v="328850" />
	</node>
	<node id="-196662" lat="59.419763887" lon="10.4866638898">
		<tag k="leisure" v="pitch" />
		<tag k="name" v="Horten stadion Gressbanen" />
		<tag k="ssr:stedsnr" v="328833" />
	</node>
	<node id="-196661" lat="59.3557750037" lon="10.4375527847">
		<tag k="name" v="Ra" />
		<tag k="place" v="farm" />
		<tag k="ssr:stedsnr" v="328803" />
	</node>
	<node id="-196660" lat="59.3792194425" lon="10.4583694515">
		<tag k="name" v="Hallingstad" />
		<tag k="place" v="farm" />
		<tag k="ssr:stedsnr" v="328797" />
	</node>
	<node id="-196651" lat="59.4105749965" lon="10.3916111074">
		<tag k="name" v="Rønningen" />
		<tag k="place" v="farm" />
		<tag k="ssr:stedsnr" v="306469" />
	</node>
	<node id="-196650" lat="59.4082055511" lon="10.4225972243">
		<tag k="name" v="Bergstad" />
		<tag k="place" v="farm" />
		<tag k="ssr:stedsnr" v="306467" />
	</node>
	<node id="-196648" lat="59.4260055531" lon="10.3633611028">
		<tag k="fixme" v="consider place=hamlet" />
		<tag k="name" v="Kopstad" />
		<tag k="place" v="farm" />
		<tag k="ssr:stedsnr" v="305992" />
	</node>
	<node id="-196647" lat="59.354275001" lon="10.4344055534">
		<tag k="name" v="Ra" />
		<tag k="place" v="farm" />
		<tag k="ssr:stedsnr" v="305626" />
	</node>
	<node id="-196646" lat="59.3650388934" lon="10.4026249979">
		<tag k="alt_name" v="Adal vestre" />
		<tag k="fixme" v="consider place=hamlet" />
		<tag k="name" v="Adal" />
		<tag k="place" v="farm" />
		<tag k="ssr:stedsnr" v="305619" />
	</node>
	<node id="-196645" lat="59.3631805533" lon="10.4461111131">
		<tag k="fixme" v="consider place=hamlet" />
		<tag k="name" v="Fjugstad" />
		<tag k="place" v="farm" />
		<tag k="ssr:stedsnr" v="305614" />
	</node>
	<node id="-196644" lat="59.38319722" lon="10.4639055493">
		<tag k="fixme" v="consider place=hamlet" />
		<tag k="name" v="Prestegården" />
		<tag k="place" v="farm" />
		<tag k="ssr:stedsnr" v="305605" />
	</node>
	<node id="-196642" lat="59.367775003" lon="10.4623972304">
		<tag k="name" v="Vestmannrød" />
		<tag k="place" v="isolated_dwelling" />
		<tag k="ssr:stedsnr" v="284047" />
	</node>
	<node id="-196640" lat="59.3849555565" lon="10.4053916638">
		<tag k="leisure" v="park" />
		<tag k="name" v="Reirparken" />
		<tag k="ssr:stedsnr" v="274827" />
	</node>
	<node id="-196639" lat="59.3777055579" lon="10.403422226">
		<tag k="name" v="Viulsrød" />
		<tag k="place" v="farm" />
		<tag k="ssr:stedsnr" v="271433" />
	</node>
	<node id="-196635" lat="59.4054777771" lon="10.3791138802">
		<tag k="fixme" v="consider place=hamlet" />
		<tag k="name" v="Skaug" />
		<tag k="place" v="farm" />
		<tag k="ssr:stedsnr" v="270812" />
	</node>
</osm>
