<?xml version="1.0" encoding="UTF-8"?>
<osm generator="osmapis" version="0.6">
	<node id="-481533" lat="60.8987861113" lon="5.95970277164">
		<tag k="name" v="Fureskogen" />
		<tag k="place" v="locality" />
		<tag k="ssr:stedsnr" v="226754" />
	</node>
	<node id="-481657" lat="60.9077277734" lon="5.97839166479">
		<tag k="name" v="Småslåttna" />
		<tag k="place" v="locality" />
		<tag k="ssr:stedsnr" v="530710" />
	</node>
	<node id="-481781" lat="60.8783722243" lon="6.00389165781">
		<tag k="historic" v="shieling" />
		<tag k="name" v="Vårstølen" />
		<tag k="place" v="locality" />
		<tag k="ssr:stedsnr" v="712546" />
	</node>
	<node id="-481256" lat="60.7599444475" lon="5.72908332824">
		<tag k="alt_name" v="Svaneura" />
		<tag k="name" v="Svanura" />
		<tag k="natural" v="scree" />
		<tag k="ssr:stedsnr" v="287654" />
	</node>
	<node id="-481883" lat="60.8579388929" lon="5.84628056382">
		<tag k="name" v="Svaena" />
		<tag k="place" v="locality" />
		<tag k="ssr:stedsnr" v="834515" />
	</node>
	<node id="-481238" lat="60.8543694467" lon="5.84715000846">
		<tag k="name" v="Glupsura" />
		<tag k="natural" v="scree" />
		<tag k="ssr:stedsnr" v="287550" />
	</node>
	<node id="-481621" lat="60.8474777752" lon="5.94790000113">
		<tag k="name" v="Vaulura" />
		<tag k="natural" v="scree" />
		<tag k="ssr:stedsnr" v="494120" />
	</node>
	<node id="-481748" lat="60.9613472226" lon="5.9675527815">
		<tag k="name" v="Botna slåtta" />
		<tag k="place" v="locality" />
		<tag k="ssr:stedsnr" v="651715" />
	</node>
	<node id="-481483" lat="60.8614944444" lon="5.96486944446">
		<tag k="name" v="Furskogen" />
		<tag k="place" v="locality" />
		<tag k="ssr:stedsnr" v="166540" />
	</node>
	<node id="-481862" lat="60.9834027811" lon="6.09804166545">
		<tag k="name" v="Geitura" />
		<tag k="natural" v="scree" />
		<tag k="ssr:stedsnr" v="798018" />
	</node>
	<node id="-481347" lat="60.8960416622" lon="6.02036944559">
		<tag k="historic" v="shieling" />
		<tag k="name" v="Fjellstølen" />
		<tag k="place" v="locality" />
		<tag k="ssr:stedsnr" v="409697" />
	</node>
	<node id="-481601" lat="60.8576611106" lon="6.00163333074">
		<tag k="historic" v="shieling" />
		<tag k="name" v="Gamlestølen" />
		<tag k="place" v="locality" />
		<tag k="ssr:stedsnr" v="469580" />
	</node>
	<node id="-481342" lat="60.8709527772" lon="6.00456666692">
		<tag k="name" v="Ura" />
		<tag k="natural" v="scree" />
		<tag k="ssr:stedsnr" v="409529" />
	</node>
	<node id="-481340" lat="60.8341305541" lon="5.90330277829">
		<tag k="name" v="Holmura" />
		<tag k="natural" v="scree" />
		<tag k="ssr:stedsnr" v="408614" />
	</node>
	<node id="-481331" lat="60.8474361088" lon="5.95915277151">
		<tag k="name" v="Vaulane" />
		<tag k="place" v="locality" />
		<tag k="ssr:stedsnr" v="373113" />
	</node>
	<node id="-481449" lat="60.879008334" lon="5.98452222718">
		<tag k="name" v="Magnejorda" />
		<tag k="place" v="locality" />
		<tag k="ssr:stedsnr" v="105570" />
	</node>
	<node id="-481444" lat="60.8509833307" lon="5.86368888311">
		<tag k="historic" v="shieling" />
		<tag k="name" v="Nærstølen" />
		<tag k="place" v="locality" />
		<tag k="ssr:stedsnr" v="105528" />
	</node>
	<node id="-481699" lat="60.7564805547" lon="5.75360000819">
		<tag k="historic" v="shieling" />
		<tag k="name" v="Langedalstølen" />
		<tag k="place" v="locality" />
		<tag k="ssr:stedsnr" v="590575" />
	</node>
	<node id="-481696" lat="60.8130361083" lon="5.88774166626">
		<tag k="historic" v="shieling" />
		<tag k="name" v="Knutstølen" />
		<tag k="place" v="locality" />
		<tag k="ssr:stedsnr" v="590544" />
	</node>
	<node id="-481818" lat="60.8326555597" lon="5.86086944686">
		<tag k="historic" v="shieling" />
		<tag k="name" v="Nærestølen" />
		<tag k="place" v="locality" />
		<tag k="ssr:stedsnr" v="772532" />
	</node>
	<node id="-481817" lat="60.7996527767" lon="5.75625834152">
		<tag k="name" v="Beitlelandet" />
		<tag k="place" v="locality" />
		<tag k="ssr:stedsnr" v="772158" />
	</node>
	<node id="-481940" lat="60.7571000015" lon="5.68942777511">
		<tag k="historic" v="shieling" />
		<tag k="name" v="Stølen" />
		<tag k="place" v="locality" />
		<tag k="ssr:stedsnr" v="954571" />
	</node>
	<node id="-481297" lat="60.8363444403" lon="5.86285556142">
		<tag k="historic" v="shieling" />
		<tag k="name" v="Vetlestølen" />
		<tag k="place" v="locality" />
		<tag k="ssr:stedsnr" v="347596" />
	</node>
	<node id="-481416" lat="60.8645888924" lon="5.84243888704">
		<tag k="name" v="Myrane" />
		<tag k="natural" v="wetland" />
		<tag k="ssr:stedsnr" v="44523" />
	</node>
</osm>
