<?xml version="1.0" encoding="UTF-8"?>
<osm generator="osmapis" version="0.6">
	<node id="-481279" lat="60.8525666669" lon="5.91512499673">
		<tag k="name" v="Sollidalen" />
		<tag k="natural" v="valley" />
		<tag k="place" v="locality" />
		<tag k="ssr:stedsnr" v="312156" />
	</node>
	<node id="-481278" lat="60.8842749992" lon="6.1048583262">
		<tag k="name" v="Krossgavlen" />
		<tag k="natural" v="hill" />
		<tag k="place" v="locality" />
		<tag k="ssr:stedsnr" v="312152" />
	</node>
	<node id="-481276" lat="60.8689527767" lon="6.05870833973">
		<tag k="name" v="Norddalsbotnen" />
		<tag k="natural" v="valley" />
		<tag k="place" v="locality" />
		<tag k="ssr:stedsnr" v="312142" />
	</node>
	<node id="-481275" lat="60.8658222192" lon="6.00621110565">
		<tag k="name" v="Krossdalen" />
		<tag k="natural" v="valley" />
		<tag k="place" v="locality" />
		<tag k="ssr:stedsnr" v="312139" />
	</node>
	<node id="-481273" lat="60.9201555576" lon="5.98891111603">
		<tag k="fixme" v="consider natural=peak for the most distinct mountains in the district" />
		<tag k="name" v="Grønfjellet" />
		<tag k="natural" v="hill" />
		<tag k="place" v="locality" />
		<tag k="ssr:stedsnr" v="312067" />
	</node>
	<node id="-481271" lat="60.966483337" lon="5.96266389365">
		<tag k="name" v="Tjuvhelleren" />
		<tag k="natural" v="valley" />
		<tag k="place" v="locality" />
		<tag k="ssr:stedsnr" v="312021" />
	</node>
	<node id="-481267" lat="60.9576833351" lon="6.06211944329">
		<tag k="name" v="Skålebotnen" />
		<tag k="natural" v="valley" />
		<tag k="place" v="locality" />
		<tag k="ssr:stedsnr" v="311117" />
	</node>
	<node id="-481266" lat="60.8225111104" lon="5.75161667326">
		<tag k="name" v="Bykset" />
		<tag k="natural" v="hill" />
		<tag k="place" v="locality" />
		<tag k="ssr:stedsnr" v="44628" />
	</node>
	<node id="-481265" lat="60.8371416675" lon="5.91749721585">
		<tag k="fixme" v="consider natural=peak for the most distinct mountains in the district" />
		<tag k="name" v="Solliåsen" />
		<tag k="natural" v="hill" />
		<tag k="place" v="locality" />
		<tag k="ssr:stedsnr" v="44613" />
	</node>
	<node id="-481264" lat="60.8343305594" lon="5.89632221402">
		<tag k="fixme" v="consider natural=peak for the most distinct mountains in the district" />
		<tag k="name" v="Åsen" />
		<tag k="natural" v="hill" />
		<tag k="place" v="locality" />
		<tag k="ssr:stedsnr" v="44611" />
	</node>
	<node id="-481263" lat="60.8380305585" lon="5.88068889004">
		<tag k="name" v="Hestelia" />
		<tag k="natural" v="slope" />
		<tag k="place" v="locality" />
		<tag k="ssr:stedsnr" v="44605" />
	</node>
	<node id="-481262" lat="60.83745833" lon="5.8882861199">
		<tag k="name" v="Verkalia" />
		<tag k="natural" v="slope" />
		<tag k="place" v="locality" />
		<tag k="ssr:stedsnr" v="44606" />
	</node>
	<node id="-481257" lat="60.8952638885" lon="6.0151083398">
		<tag k="name" v="Fjelltona" />
		<tag k="place" v="locality" />
		<tag k="ssr:stedsnr" v="287733" />
	</node>
	<node id="-481255" lat="60.7581944474" lon="5.72463055798">
		<tag k="name" v="Nakken" />
		<tag k="natural" v="ridge" />
		<tag k="place" v="locality" />
		<tag k="ssr:stedsnr" v="287653" />
	</node>
	<node id="-481253" lat="60.8421277778" lon="5.86372222769">
		<tag k="name" v="Rusta" />
		<tag k="natural" v="hill" />
		<tag k="place" v="locality" />
		<tag k="ssr:stedsnr" v="287637" />
	</node>
	<node id="-481252" lat="60.7768527751" lon="5.67506388795">
		<tag k="name" v="Geitabotnen" />
		<tag k="natural" v="valley" />
		<tag k="place" v="locality" />
		<tag k="ssr:stedsnr" v="287624" />
	</node>
	<node id="-481251" lat="60.7745027793" lon="5.69007222747">
		<tag k="name" v="Slettebrekkena" />
		<tag k="natural" v="slope" />
		<tag k="place" v="locality" />
		<tag k="ssr:stedsnr" v="287621" />
	</node>
	<node id="-481250" lat="60.7760138867" lon="5.73471389055">
		<tag k="name" v="Skjeggevikhelleren" />
		<tag k="place" v="locality" />
		<tag k="ssr:stedsnr" v="287612" />
	</node>
	<node id="-481249" lat="60.751269447" lon="5.7458305556">
		<tag k="fixme" v="consider natural=peak for the most distinct mountains in the district" />
		<tag k="name" v="Toppfjellet" />
		<tag k="natural" v="hill" />
		<tag k="place" v="locality" />
		<tag k="ssr:stedsnr" v="287607" />
	</node>
	<node id="-481248" lat="60.8776666634" lon="6.00724721511">
		<tag k="name" v="Hovden" />
		<tag k="natural" v="hill" />
		<tag k="place" v="locality" />
		<tag k="ssr:stedsnr" v="287603" />
	</node>
	<node id="-481247" lat="60.8454027736" lon="5.97834443973">
		<tag k="name" v="Tona" />
		<tag k="place" v="locality" />
		<tag k="ssr:stedsnr" v="287595" />
	</node>
	<node id="-481246" lat="60.8722305523" lon="5.99686388964">
		<tag k="fixme" v="consider natural=peak for the most distinct mountains in the district" />
		<tag k="name" v="Furskatknausane" />
		<tag k="natural" v="hill" />
		<tag k="ssr:stedsnr" v="287581" />
	</node>
	<node id="-481245" lat="60.8638749966" lon="6.01983055618">
		<tag k="name" v="Ubyttebotn" />
		<tag k="natural" v="valley" />
		<tag k="place" v="locality" />
		<tag k="ssr:stedsnr" v="287576" />
	</node>
	<node id="-481243" lat="60.8084055536" lon="5.87994999781">
		<tag k="fixme" v="consider natural=peak for the most distinct mountains in the district" />
		<tag k="name" v="Jorskarfjellet" />
		<tag k="natural" v="hill" />
		<tag k="place" v="locality" />
		<tag k="ssr:stedsnr" v="287569" />
	</node>
	<node id="-481242" lat="60.8295666707" lon="5.90510277079">
		<tag k="fixme" v="consider natural=peak for the most distinct mountains in the district" />
		<tag k="name" v="Åsane" />
		<tag k="natural" v="hill" />
		<tag k="place" v="locality" />
		<tag k="ssr:stedsnr" v="287562" />
	</node>
	<node id="-481241" lat="60.8294527817" lon="5.87839444106">
		<tag k="name" v="Storhaugen" />
		<tag k="natural" v="hill" />
		<tag k="place" v="locality" />
		<tag k="ssr:stedsnr" v="287559" />
	</node>
	<node id="-481240" lat="60.8864638915" lon="6.01820277095">
		<tag k="fixme" v="consider natural=peak for the most distinct mountains in the district" />
		<tag k="name" v="Krossåsen" />
		<tag k="natural" v="hill" />
		<tag k="place" v="locality" />
		<tag k="ssr:stedsnr" v="287555" />
	</node>
	<node id="-481239" lat="60.8488222212" lon="5.84648333791">
		<tag k="name" v="Skavlen" />
		<tag k="place" v="locality" />
		<tag k="ssr:stedsnr" v="287552" />
	</node>
	<node id="-481948" lat="60.9696055555" lon="5.9668166651">
		<tag k="name" v="Yrkje" />
		<tag k="place" v="locality" />
		<tag k="ssr:stedsnr" v="955717" />
	</node>
	<node id="-481946" lat="60.9170305563" lon="5.96205277259">
		<tag k="name" v="Rossevikhaugane" />
		<tag k="natural" v="hill" />
		<tag k="place" v="locality" />
		<tag k="ssr:stedsnr" v="955708" />
	</node>
	<node id="-481944" lat="60.8327055568" lon="5.96674999585">
		<tag k="name" v="Sæskarberget" />
		<tag k="natural" v="hill" />
		<tag k="place" v="locality" />
		<tag k="ssr:stedsnr" v="955567" />
	</node>
	<node id="-481943" lat="60.8152027751" lon="5.89729167313">
		<tag k="name" v="Jobotten" />
		<tag k="natural" v="valley" />
		<tag k="place" v="locality" />
		<tag k="ssr:stedsnr" v="955539" />
	</node>
	<node id="-481942" lat="60.8491916625" lon="5.85711388845">
		<tag k="name" v="Kvolven" />
		<tag k="place" v="locality" />
		<tag k="ssr:stedsnr" v="955506" />
	</node>
	<node id="-481937" lat="60.8289277798" lon="5.91931388698">
		<tag k="name" v="Midttoa" />
		<tag k="place" v="locality" />
		<tag k="ssr:stedsnr" v="954515" />
	</node>
	<node id="-481934" lat="60.8202500019" lon="5.82671944087">
		<tag k="fixme" v="consider natural=peak for the most distinct mountains in the district" />
		<tag k="name" v="Åsen" />
		<tag k="natural" v="hill" />
		<tag k="place" v="locality" />
		<tag k="ssr:stedsnr" v="919945" />
	</node>
	<node id="-481932" lat="60.839111112" lon="5.82488610603">
		<tag k="name" v="Kollebotnen" />
		<tag k="natural" v="valley" />
		<tag k="place" v="locality" />
		<tag k="ssr:stedsnr" v="919391" />
	</node>
	<node id="-481930" lat="60.8252749971" lon="5.97476389384">
		<tag k="name" v="Daurmålsbotnen" />
		<tag k="natural" v="valley" />
		<tag k="place" v="locality" />
		<tag k="ssr:stedsnr" v="919139" />
	</node>
	<node id="-481929" lat="60.8076833347" lon="5.87173888362">
		<tag k="fixme" v="consider natural=peak for the most distinct mountains in the district" />
		<tag k="name" v="Lågfjellet" />
		<tag k="natural" v="hill" />
		<tag k="place" v="locality" />
		<tag k="ssr:stedsnr" v="919130" />
	</node>
	<node id="-481924" lat="60.8861388918" lon="6.06164166101">
		<tag k="fixme" v="consider natural=peak for the most distinct mountains in the district" />
		<tag k="name" v="Daurmålshaugen" />
		<tag k="natural" v="hill" />
		<tag k="place" v="locality" />
		<tag k="ssr:stedsnr" v="919086" />
	</node>
	<node id="-481920" lat="60.7527361096" lon="5.74296388534">
		<tag k="name" v="Svanurskaret" />
		<tag k="natural" v="valley" />
		<tag k="place" v="locality" />
		<tag k="ssr:stedsnr" v="919061" />
	</node>
	<node id="-481919" lat="60.9561888922" lon="5.98112500513">
		<tag k="name" v="Bjørnanakken" />
		<tag k="natural" v="hill" />
		<tag k="place" v="locality" />
		<tag k="ssr:stedsnr" v="919024" />
	</node>
	<node id="-481918" lat="60.7927138897" lon="5.70803056345">
		<tag k="fixme" v="consider natural=peak for the most distinct mountains in the district" />
		<tag k="name" v="Tverrfjellet" />
		<tag k="natural" v="hill" />
		<tag k="place" v="locality" />
		<tag k="ssr:stedsnr" v="918521" />
	</node>
	<node id="-481916" lat="60.9422249962" lon="5.96035833651">
		<tag k="fixme" v="consider natural=peak for the most distinct mountains in the district" />
		<tag k="name" v="Furefjellet" />
		<tag k="natural" v="hill" />
		<tag k="place" v="locality" />
		<tag k="ssr:stedsnr" v="918104" />
	</node>
	<node id="-481912" lat="60.7881055582" lon="5.77573055734">
		<tag k="name" v="Nyløa" />
		<tag k="place" v="locality" />
		<tag k="ssr:stedsnr" v="858471" />
	</node>
	<node id="-481910" lat="60.8510249981" lon="5.71429999288">
		<tag k="name" v="Vemundsbotnen" />
		<tag k="natural" v="valley" />
		<tag k="place" v="locality" />
		<tag k="ssr:stedsnr" v="858425" />
	</node>
	<node id="-481909" lat="60.8281138894" lon="5.77817778474">
		<tag k="name" v="Øvstebotnen" />
		<tag k="natural" v="valley" />
		<tag k="place" v="locality" />
		<tag k="ssr:stedsnr" v="858392" />
	</node>
	<node id="-481908" lat="60.8649416677" lon="6.02757499695">
		<tag k="name" v="Norddalen" />
		<tag k="natural" v="valley" />
		<tag k="place" v="locality" />
		<tag k="ssr:stedsnr" v="858190" />
	</node>
	<node id="-481907" lat="60.8517944429" lon="5.93623055515">
		<tag k="fixme" v="consider natural=peak for the most distinct mountains in the district" />
		<tag k="name" v="Sturtungsgavlen" />
		<tag k="natural" v="hill" />
		<tag k="place" v="locality" />
		<tag k="ssr:stedsnr" v="858180" />
	</node>
	<node id="-481906" lat="60.8682499967" lon="6.0797055585">
		<tag k="fixme" v="consider natural=peak for the most distinct mountains in the district" />
		<tag k="name" v="Reinsnova" />
		<tag k="natural" v="hill" />
		<tag k="place" v="locality" />
		<tag k="ssr:stedsnr" v="858169" />
	</node>
	<node id="-481905" lat="60.8728888905" lon="5.99065833097">
		<tag k="fixme" v="consider natural=peak for the most distinct mountains in the district" />
		<tag k="name" v="Stimma" />
		<tag k="natural" v="hill" />
		<tag k="place" v="locality" />
		<tag k="ssr:stedsnr" v="858162" />
	</node>
	<node id="-481901" lat="60.8328361095" lon="5.9599138978">
		<tag k="name" v="Sesskaret" />
		<tag k="natural" v="valley" />
		<tag k="place" v="locality" />
		<tag k="ssr:stedsnr" v="858127" />
	</node>
	<node id="-481900" lat="60.9489749967" lon="5.96843333899">
		<tag k="name" v="Norddalen" />
		<tag k="natural" v="valley" />
		<tag k="place" v="locality" />
		<tag k="ssr:stedsnr" v="858094" />
	</node>
	<node id="-481899" lat="60.8985583323" lon="6.08521389277">
		<tag k="fixme" v="consider natural=peak for the most distinct mountains in the district" />
		<tag k="name" v="Saufjellet" />
		<tag k="natural" v="hill" />
		<tag k="place" v="locality" />
		<tag k="ssr:stedsnr" v="858080" />
	</node>
	<node id="-481894" lat="60.9912138855" lon="6.08833888158">
		<tag k="fixme" v="consider natural=peak for the most distinct mountains in the district" />
		<tag k="name" v="Blåfjellet" />
		<tag k="natural" v="hill" />
		<tag k="place" v="locality" />
		<tag k="ssr:stedsnr" v="858012" />
	</node>
	<node id="-481891" lat="60.8481027801" lon="6.01825277051">
		<tag k="name" v="Vidbotn" />
		<tag k="natural" v="valley" />
		<tag k="place" v="locality" />
		<tag k="ssr:stedsnr" v="834717" />
	</node>
	<node id="-481890" lat="60.8859750044" lon="6.01299999743">
		<tag k="name" v="Skjergrashaugane" />
		<tag k="natural" v="hill" />
		<tag k="place" v="locality" />
		<tag k="ssr:stedsnr" v="834582" />
	</node>
	<node id="-481889" lat="60.8376583364" lon="5.96619445222">
		<tag k="fixme" v="consider natural=peak for the most distinct mountains in the district" />
		<tag k="name" v="Kuldeåsen" />
		<tag k="natural" v="hill" />
		<tag k="place" v="locality" />
		<tag k="ssr:stedsnr" v="834567" />
	</node>
	<node id="-481887" lat="60.8708888875" lon="5.96798889376">
		<tag k="name" v="Godhola" />
		<tag k="natural" v="valley" />
		<tag k="place" v="locality" />
		<tag k="ssr:stedsnr" v="834555" />
	</node>
	<node id="-481886" lat="60.8600638862" lon="5.98973334148">
		<tag k="name" v="Furkammen" />
		<tag k="natural" v="hill" />
		<tag k="place" v="locality" />
		<tag k="ssr:stedsnr" v="834543" />
	</node>
	<node id="-481885" lat="60.8466555532" lon="5.85926110221">
		<tag k="name" v="Kleivane" />
		<tag k="natural" v="slope" />
		<tag k="place" v="locality" />
		<tag k="ssr:stedsnr" v="834525" />
	</node>
	<node id="-481884" lat="60.8836805566" lon="6.02077221394">
		<tag k="name" v="Åsskaret" />
		<tag k="natural" v="valley" />
		<tag k="place" v="locality" />
		<tag k="ssr:stedsnr" v="834523" />
	</node>
	<node id="-481882" lat="60.8516222254" lon="5.84940555006">
		<tag k="name" v="Runnhaugane" />
		<tag k="natural" v="hill" />
		<tag k="place" v="locality" />
		<tag k="ssr:stedsnr" v="834512" />
	</node>
	<node id="-481881" lat="60.85019722" lon="5.85446943682">
		<tag k="name" v="Slettabakken" />
		<tag k="natural" v="slope" />
		<tag k="place" v="locality" />
		<tag k="ssr:stedsnr" v="834500" />
	</node>
	<node id="-481880" lat="60.7621861108" lon="5.72904166021">
		<tag k="name" v="Nova" />
		<tag k="place" v="locality" />
		<tag k="ssr:stedsnr" v="833628" />
	</node>
	<node id="-481877" lat="60.7500638904" lon="5.66693610232">
		<tag k="name" v="Stengena" />
		<tag k="place" v="locality" />
		<tag k="ssr:stedsnr" v="833611" />
	</node>
	<node id="-481876" lat="60.7788861125" lon="5.71416665863">
		<tag k="name" v="Johanshola" />
		<tag k="natural" v="valley" />
		<tag k="place" v="locality" />
		<tag k="ssr:stedsnr" v="833588" />
	</node>
	<node id="-481874" lat="60.7501888851" lon="5.72691667311">
		<tag k="fixme" v="consider natural=peak for the most distinct mountains in the district" />
		<tag k="name" v="Skredfjellet" />
		<tag k="natural" v="hill" />
		<tag k="place" v="locality" />
		<tag k="ssr:stedsnr" v="833574" />
	</node>
	<node id="-481872" lat="60.7438361084" lon="5.66920555961">
		<tag k="name" v="Bjørnstødalen" />
		<tag k="natural" v="valley" />
		<tag k="place" v="locality" />
		<tag k="ssr:stedsnr" v="833609" />
	</node>
	<node id="-481871" lat="60.7445888883" lon="5.68314444321">
		<tag k="name" v="Raudhellerlia" />
		<tag k="natural" v="slope" />
		<tag k="place" v="locality" />
		<tag k="ssr:stedsnr" v="833610" />
	</node>
	<node id="-481867" lat="60.8142999972" lon="5.76535000604">
		<tag k="fixme" v="consider natural=peak for the most distinct mountains in the district" />
		<tag k="name" v="Haugane" />
		<tag k="natural" v="hill" />
		<tag k="place" v="locality" />
		<tag k="ssr:stedsnr" v="798445" />
	</node>
	<node id="-481866" lat="60.8264861122" lon="5.90063332856">
		<tag k="fixme" v="consider natural=peak for the most distinct mountains in the district" />
		<tag k="name" v="Middagsfjellet" />
		<tag k="natural" v="hill" />
		<tag k="place" v="locality" />
		<tag k="ssr:stedsnr" v="798142" />
	</node>
	<node id="-481865" lat="60.8455694466" lon="5.99114999965">
		<tag k="alt_name" v="Skålbotn" />
		<tag k="name" v="Skålbotnen" />
		<tag k="natural" v="valley" />
		<tag k="place" v="locality" />
		<tag k="ssr:stedsnr" v="798132" />
	</node>
	<node id="-481864" lat="60.9634305552" lon="6.05460277513">
		<tag k="fixme" v="consider natural=peak for the most distinct mountains in the district" />
		<tag k="name" v="Skålebotnnova" />
		<tag k="natural" v="hill" />
		<tag k="place" v="locality" />
		<tag k="ssr:stedsnr" v="798035" />
	</node>
	<node id="-481860" lat="60.8117277779" lon="5.80881944956">
		<tag k="fixme" v="consider natural=peak for the most distinct mountains in the district" />
		<tag k="name" v="Husafjellet" />
		<tag k="natural" v="hill" />
		<tag k="place" v="locality" />
		<tag k="ssr:stedsnr" v="797822" />
	</node>
	<node id="-481858" lat="60.8160555563" lon="5.733561111">
		<tag k="fixme" v="consider natural=peak for the most distinct mountains in the district" />
		<tag k="name" v="Stølsfjellet" />
		<tag k="natural" v="hill" />
		<tag k="place" v="locality" />
		<tag k="ssr:stedsnr" v="797489" />
	</node>
	<node id="-481857" lat="60.7954666642" lon="5.72389167574">
		<tag k="fixme" v="consider natural=peak for the most distinct mountains in the district" />
		<tag k="name" v="Beitlafjellet" />
		<tag k="natural" v="hill" />
		<tag k="place" v="locality" />
		<tag k="ssr:stedsnr" v="797458" />
	</node>
	<node id="-481856" lat="60.7961361076" lon="5.81246666408">
		<tag k="name" v="Botnen" />
		<tag k="natural" v="valley" />
		<tag k="place" v="locality" />
		<tag k="ssr:stedsnr" v="797455" />
	</node>
	<node id="-481855" lat="60.7772500027" lon="5.7352555638">
		<tag k="name" v="Skjerjadalen" />
		<tag k="natural" v="valley" />
		<tag k="place" v="locality" />
		<tag k="ssr:stedsnr" v="797440" />
	</node>
	<node id="-481854" lat="60.8326861095" lon="5.80899166824">
		<tag k="fixme" v="consider natural=peak for the most distinct mountains in the district" />
		<tag k="name" v="Austraberget" />
		<tag k="natural" v="hill" />
		<tag k="place" v="locality" />
		<tag k="ssr:stedsnr" v="797380" />
	</node>
	<node id="-481853" lat="60.8334305537" lon="5.74570555727">
		<tag k="name" v="Trollholene" />
		<tag k="natural" v="valley" />
		<tag k="place" v="locality" />
		<tag k="ssr:stedsnr" v="797377" />
	</node>
	<node id="-481850" lat="60.9448138932" lon="6.05083888838">
		<tag k="name" v="Sygnaskaret" />
		<tag k="natural" v="valley" />
		<tag k="place" v="locality" />
		<tag k="ssr:stedsnr" v="797118" />
	</node>
	<node id="-481849" lat="60.8883333304" lon="6.09728334115">
		<tag k="fixme" v="consider natural=peak for the most distinct mountains in the district" />
		<tag k="name" v="Flatafjellet" />
		<tag k="natural" v="hill" />
		<tag k="place" v="locality" />
		<tag k="ssr:stedsnr" v="797096" />
	</node>
	<node id="-481848" lat="60.8804638934" lon="5.85253610908">
		<tag k="name" v="Trollegilsbotnen" />
		<tag k="natural" v="valley" />
		<tag k="place" v="locality" />
		<tag k="ssr:stedsnr" v="797093" />
	</node>
	<node id="-481846" lat="60.886433336" lon="5.86998056097">
		<tag k="fixme" v="consider natural=peak for the most distinct mountains in the district" />
		<tag k="name" v="Nordbotnfjellet" />
		<tag k="natural" v="hill" />
		<tag k="place" v="locality" />
		<tag k="ssr:stedsnr" v="797087" />
	</node>
	<node id="-481845" lat="60.9074527799" lon="6.03960832879">
		<tag k="name" v="Kvanndalen" />
		<tag k="natural" v="valley" />
		<tag k="place" v="locality" />
		<tag k="ssr:stedsnr" v="797084" />
	</node>
	<node id="-481843" lat="60.7526999993" lon="5.65673611233">
		<tag k="fixme" v="consider natural=peak for the most distinct mountains in the district" />
		<tag k="name" v="Nipa" />
		<tag k="natural" v="hill" />
		<tag k="place" v="locality" />
		<tag k="ssr:stedsnr" v="797058" />
	</node>
	<node id="-481841" lat="60.7660888856" lon="5.76188888783">
		<tag k="name" v="Grønetørna" />
		<tag k="natural" v="valley" />
		<tag k="place" v="locality" />
		<tag k="ssr:stedsnr" v="797045" />
	</node>
	<node id="-481840" lat="60.9952750016" lon="6.0832138933">
		<tag k="name" v="Blådalen" />
		<tag k="natural" v="valley" />
		<tag k="place" v="locality" />
		<tag k="ssr:stedsnr" v="797002" />
	</node>
	<node id="-481839" lat="60.745138887" lon="5.68307777055">
		<tag k="name" v="Raudhelleren" />
		<tag k="place" v="locality" />
		<tag k="ssr:stedsnr" v="795506" />
	</node>
	<node id="-481835" lat="60.9587138871" lon="5.95518611757">
		<tag k="name" v="Botnelvskavlen" />
		<tag k="place" v="locality" />
		<tag k="ssr:stedsnr" v="773689" />
	</node>
	<node id="-481831" lat="60.8330222188" lon="5.94476666874">
		<tag k="name" v="Skavlen" />
		<tag k="natural" v="hill" />
		<tag k="place" v="locality" />
		<tag k="ssr:stedsnr" v="773540" />
	</node>
	<node id="-481830" lat="60.8617916711" lon="5.98195555677">
		<tag k="name" v="Fossdalen" />
		<tag k="natural" v="valley" />
		<tag k="place" v="locality" />
		<tag k="ssr:stedsnr" v="773517" />
	</node>
	<node id="-481828" lat="60.8852833379" lon="5.99478611965">
		<tag k="fixme" v="consider natural=peak for the most distinct mountains in the district" />
		<tag k="name" v="Nåmdalsfjellet" />
		<tag k="natural" v="hill" />
		<tag k="place" v="locality" />
		<tag k="ssr:stedsnr" v="773496" />
	</node>
	<node id="-481827" lat="60.8219361084" lon="5.78859722622">
		<tag k="name" v="Kvernhusbotn" />
		<tag k="natural" v="valley" />
		<tag k="place" v="locality" />
		<tag k="ssr:stedsnr" v="772622" />
	</node>
	<node id="-481826" lat="60.8382833304" lon="5.70801111066">
		<tag k="name" v="Orfallet" />
		<tag k="natural" v="cliff" />
		<tag k="ssr:stedsnr" v="772617" />
	</node>
	<node id="-481825" lat="60.7917111113" lon="5.7983194414">
		<tag k="name" v="Øvste Rinnen" />
		<tag k="natural" v="ridge" />
		<tag k="place" v="locality" />
		<tag k="ssr:stedsnr" v="772614" />
	</node>
	<node id="-481824" lat="60.8089166643" lon="5.7952333363">
		<tag k="name" v="Klettane" />
		<tag k="natural" v="hill" />
		<tag k="place" v="locality" />
		<tag k="ssr:stedsnr" v="772597" />
	</node>
	<node id="-481823" lat="60.8113444482" lon="5.8077361108">
		<tag k="name" v="Botnatoa" />
		<tag k="natural" v="valley" />
		<tag k="place" v="locality" />
		<tag k="ssr:stedsnr" v="772594" />
	</node>
	<node id="-481821" lat="60.7714333348" lon="5.6697638806">
		<tag k="name" v="Dalaskaret" />
		<tag k="natural" v="valley" />
		<tag k="place" v="locality" />
		<tag k="ssr:stedsnr" v="772582" />
	</node>
	<node id="-481820" lat="60.7713055547" lon="5.74889721565">
		<tag k="name" v="Basttoa" />
		<tag k="place" v="locality" />
		<tag k="ssr:stedsnr" v="772571" />
	</node>
	<node id="-481819" lat="60.8296944409" lon="5.87243889814">
		<tag k="name" v="Feta" />
		<tag k="place" v="locality" />
		<tag k="ssr:stedsnr" v="772531" />
	</node>
	<node id="-481814" lat="60.8102333299" lon="5.75919166966">
		<tag k="name" v="Stokkevikdalen" />
		<tag k="natural" v="valley" />
		<tag k="place" v="locality" />
		<tag k="ssr:stedsnr" v="737468" />
	</node>
	<node id="-481813" lat="60.8300333353" lon="5.78519999741">
		<tag k="fixme" v="consider natural=peak for the most distinct mountains in the district" />
		<tag k="name" v="Fjellkleivane" />
		<tag k="natural" v="hill" />
		<tag k="place" v="locality" />
		<tag k="ssr:stedsnr" v="737365" />
	</node>
	<node id="-481812" lat="60.8319666712" lon="5.76313889337">
		<tag k="name" v="Leitet" />
		<tag k="natural" v="hill" />
		<tag k="place" v="locality" />
		<tag k="ssr:stedsnr" v="737363" />
	</node>
	<node id="-481810" lat="60.8545416627" lon="5.94795832971">
		<tag k="alt_name" v="Gaubotn" />
		<tag k="name" v="Gauvbotnen" />
		<tag k="natural" v="valley" />
		<tag k="place" v="locality" />
		<tag k="ssr:stedsnr" v="737165" />
	</node>
	<node id="-481809" lat="60.8677055547" lon="5.90522499496">
		<tag k="name" v="Dalenden" />
		<tag k="natural" v="valley" />
		<tag k="place" v="locality" />
		<tag k="ssr:stedsnr" v="737162" />
	</node>
	<node id="-481808" lat="60.8813249993" lon="6.07775278567">
		<tag k="name" v="Viermyrdalen" />
		<tag k="natural" v="valley" />
		<tag k="place" v="locality" />
		<tag k="ssr:stedsnr" v="737158" />
	</node>
	<node id="-481807" lat="60.8706305559" lon="5.90772500045">
		<tag k="fixme" v="consider natural=peak for the most distinct mountains in the district" />
		<tag k="name" v="Altaret" />
		<tag k="natural" v="hill" />
		<tag k="place" v="locality" />
		<tag k="ssr:stedsnr" v="737154" />
	</node>
	<node id="-481806" lat="60.866133332" lon="5.88031665877">
		<tag k="fixme" v="consider natural=peak for the most distinct mountains in the district" />
		<tag k="name" v="Seljedalsfjellet" />
		<tag k="natural" v="hill" />
		<tag k="place" v="locality" />
		<tag k="ssr:stedsnr" v="737150" />
	</node>
	<node id="-481804" lat="60.8458611081" lon="5.93385832504">
		<tag k="name" v="Nova" />
		<tag k="natural" v="hill" />
		<tag k="place" v="locality" />
		<tag k="ssr:stedsnr" v="737121" />
	</node>
	<node id="-481803" lat="60.8926250004" lon="5.99882777267">
		<tag k="fixme" v="consider natural=peak for the most distinct mountains in the district" />
		<tag k="name" v="Nåmdalsfjellet" />
		<tag k="natural" v="hill" />
		<tag k="place" v="locality" />
		<tag k="ssr:stedsnr" v="737081" />
	</node>
	<node id="-481802" lat="60.8968555549" lon="6.04545833165">
		<tag k="fixme" v="consider natural=peak for the most distinct mountains in the district" />
		<tag k="name" v="Indreseglet" />
		<tag k="natural" v="hill" />
		<tag k="place" v="locality" />
		<tag k="ssr:stedsnr" v="737075" />
	</node>
	<node id="-481801" lat="60.8892444424" lon="5.96981389127">
		<tag k="name" v="Modalen" />
		<tag k="natural" v="valley" />
		<tag k="place" v="locality" />
		<tag k="ssr:stedsnr" v="737073" />
	</node>
	<node id="-481800" lat="60.9077416688" lon="6.02137500256">
		<tag k="name" v="Fitlia" />
		<tag k="natural" v="slope" />
		<tag k="place" v="locality" />
		<tag k="ssr:stedsnr" v="737072" />
	</node>
	<node id="-481799" lat="60.9151750001" lon="6.06566667555">
		<tag k="name" v="Kvanndalsbotnen" />
		<tag k="natural" v="valley" />
		<tag k="place" v="locality" />
		<tag k="ssr:stedsnr" v="737069" />
	</node>
	<node id="-481796" lat="60.9701833362" lon="6.13776666191">
		<tag k="name" v="Berdalen" />
		<tag k="natural" v="valley" />
		<tag k="place" v="locality" />
		<tag k="ssr:stedsnr" v="737015" />
	</node>
	<node id="-481795" lat="60.9735027809" lon="6.01137499123">
		<tag k="name" v="Norddalen" />
		<tag k="natural" v="valley" />
		<tag k="place" v="locality" />
		<tag k="ssr:stedsnr" v="737013" />
	</node>
	<node id="-481794" lat="60.7518750039" lon="5.70904444199">
		<tag k="fixme" v="consider natural=peak for the most distinct mountains in the district" />
		<tag k="name" v="Heiane" />
		<tag k="natural" v="hill" />
		<tag k="place" v="locality" />
		<tag k="ssr:stedsnr" v="736828" />
	</node>
	<node id="-481793" lat="60.7725388864" lon="5.75364999254">
		<tag k="name" v="Storehaugen" />
		<tag k="natural" v="hill" />
		<tag k="place" v="locality" />
		<tag k="ssr:stedsnr" v="736433" />
	</node>
	<node id="-481792" lat="60.7764777796" lon="5.7697888928">
		<tag k="name" v="Fjellbotnen" />
		<tag k="natural" v="valley" />
		<tag k="place" v="locality" />
		<tag k="ssr:stedsnr" v="736434" />
	</node>
	<node id="-481790" lat="60.9299083359" lon="6.03979444105">
		<tag k="fixme" v="consider natural=peak for the most distinct mountains in the district" />
		<tag k="name" v="Storfjellet" />
		<tag k="natural" v="hill" />
		<tag k="place" v="locality" />
		<tag k="ssr:stedsnr" v="736129" />
	</node>
	<node id="-481788" lat="60.7558194456" lon="5.74419166718">
		<tag k="fixme" v="consider natural=peak for the most distinct mountains in the district" />
		<tag k="name" v="Toppfjellet" />
		<tag k="natural" v="hill" />
		<tag k="place" v="locality" />
		<tag k="ssr:stedsnr" v="736058" />
	</node>
	<node id="-481785" lat="60.9068083321" lon="6.01531389016">
		<tag k="name" v="Fitjane" />
		<tag k="place" v="locality" />
		<tag k="ssr:stedsnr" v="712698" />
	</node>
	<node id="-481784" lat="60.904222221" lon="6.02851388488">
		<tag k="name" v="Seilæ" />
		<tag k="place" v="locality" />
		<tag k="ssr:stedsnr" v="712686" />
	</node>
	<node id="-481783" lat="60.9024611092" lon="6.02181389289">
		<tag k="name" v="Aksla" />
		<tag k="natural" v="ridge" />
		<tag k="place" v="locality" />
		<tag k="ssr:stedsnr" v="712684" />
	</node>
	<node id="-481780" lat="60.8351138931" lon="5.95359165808">
		<tag k="name" v="Almane" />
		<tag k="place" v="locality" />
		<tag k="ssr:stedsnr" v="712545" />
	</node>
	<node id="-481779" lat="60.8356472198" lon="5.9403416632">
		<tag k="name" v="Timmerlia" />
		<tag k="natural" v="slope" />
		<tag k="place" v="locality" />
		<tag k="ssr:stedsnr" v="712539" />
	</node>
	<node id="-481778" lat="60.8678888903" lon="5.99752778432">
		<tag k="name" v="Skorvstallane" />
		<tag k="place" v="locality" />
		<tag k="ssr:stedsnr" v="712516" />
	</node>
	<node id="-481777" lat="60.8080388865" lon="5.89916944727">
		<tag k="fixme" v="consider natural=peak for the most distinct mountains in the district" />
		<tag k="name" v="Jorskarnova" />
		<tag k="natural" v="hill" />
		<tag k="ssr:stedsnr" v="712511" />
	</node>
	<node id="-481776" lat="60.8098749962" lon="5.84868888961">
		<tag k="fixme" v="consider natural=peak for the most distinct mountains in the district" />
		<tag k="name" v="Øvrefjellet" />
		<tag k="natural" v="hill" />
		<tag k="place" v="locality" />
		<tag k="ssr:stedsnr" v="712509" />
	</node>
	<node id="-481774" lat="60.8620277807" lon="5.85058055906">
		<tag k="name" v="Alldalen" />
		<tag k="natural" v="valley" />
		<tag k="place" v="locality" />
		<tag k="ssr:stedsnr" v="712486" />
	</node>
	<node id="-481772" lat="60.7689833324" lon="5.72613334185">
		<tag k="name" v="Trollgjel" />
		<tag k="place" v="locality" />
		<tag k="ssr:stedsnr" v="711614" />
	</node>
	<node id="-481771" lat="60.8297722186" lon="5.92834444631">
		<tag k="name" v="Berget" />
		<tag k="natural" v="hill" />
		<tag k="place" v="locality" />
		<tag k="ssr:stedsnr" v="711612" />
	</node>
	<node id="-481770" lat="60.7766138918" lon="5.72395277743">
		<tag k="name" v="Sersjantlia" />
		<tag k="natural" v="slope" />
		<tag k="place" v="locality" />
		<tag k="ssr:stedsnr" v="711565" />
	</node>
	<node id="-481769" lat="60.7549472242" lon="5.736575003">
		<tag k="name" v="Storlia" />
		<tag k="natural" v="slope" />
		<tag k="place" v="locality" />
		<tag k="ssr:stedsnr" v="711561" />
	</node>
	<node id="-481767" lat="60.8027861132" lon="5.79519999504">
		<tag k="name" v="Geitaskaret" />
		<tag k="natural" v="valley" />
		<tag k="place" v="locality" />
		<tag k="ssr:stedsnr" v="676471" />
	</node>
	<node id="-481766" lat="60.8715083307" lon="6.03440556134">
		<tag k="fixme" v="consider natural=peak for the most distinct mountains in the district" />
		<tag k="name" v="Blånipa" />
		<tag k="natural" v="hill" />
		<tag k="place" v="locality" />
		<tag k="ssr:stedsnr" v="676156" />
	</node>
	<node id="-481765" lat="60.8768388915" lon="6.05407500453">
		<tag k="name" v="Reinshjellane" />
		<tag k="place" v="locality" />
		<tag k="ssr:stedsnr" v="676154" />
	</node>
	<node id="-481762" lat="60.8872305561" lon="5.99437499702">
		<tag k="fixme" v="consider natural=peak for the most distinct mountains in the district" />
		<tag k="name" v="Geitnipa" />
		<tag k="natural" v="hill" />
		<tag k="place" v="locality" />
		<tag k="ssr:stedsnr" v="676091" />
	</node>
	<node id="-481758" lat="60.768088888" lon="5.74798055779">
		<tag k="fixme" v="consider natural=peak for the most distinct mountains in the district" />
		<tag k="name" v="Veslafjellet" />
		<tag k="natural" v="hill" />
		<tag k="place" v="locality" />
		<tag k="ssr:stedsnr" v="676045" />
	</node>
	<node id="-481757" lat="60.7718249957" lon="5.73001943622">
		<tag k="fixme" v="consider natural=peak for the most distinct mountains in the district" />
		<tag k="name" v="Flotaneset" />
		<tag k="natural" v="hill" />
		<tag k="place" v="locality" />
		<tag k="ssr:stedsnr" v="676044" />
	</node>
	<node id="-481756" lat="60.9587611117" lon="5.98450277049">
		<tag k="fixme" v="consider natural=peak for the most distinct mountains in the district" />
		<tag k="name" v="Mona" />
		<tag k="natural" v="hill" />
		<tag k="place" v="locality" />
		<tag k="ssr:stedsnr" v="676027" />
	</node>
	<node id="-481755" lat="60.794725001" lon="5.75618054971">
		<tag k="fixme" v="consider natural=peak for the most distinct mountains in the district" />
		<tag k="name" v="Slottet" />
		<tag k="natural" v="hill" />
		<tag k="place" v="locality" />
		<tag k="ssr:stedsnr" v="675491" />
	</node>
	<node id="-481754" lat="60.7778083345" lon="5.68978888092">
		<tag k="name" v="Sætradalen" />
		<tag k="natural" v="valley" />
		<tag k="place" v="locality" />
		<tag k="ssr:stedsnr" v="675478" />
	</node>
	<node id="-481753" lat="60.7839611093" lon="5.71683333847">
		<tag k="fixme" v="consider natural=peak for the most distinct mountains in the district" />
		<tag k="name" v="Raunefjellet" />
		<tag k="natural" v="hill" />
		<tag k="place" v="locality" />
		<tag k="ssr:stedsnr" v="675471" />
	</node>
	<node id="-481752" lat="60.8518027811" lon="5.78238610511">
		<tag k="fixme" v="consider natural=peak for the most distinct mountains in the district" />
		<tag k="name" v="Høganipa" />
		<tag k="natural" v="hill" />
		<tag k="place" v="locality" />
		<tag k="ssr:stedsnr" v="675442" />
	</node>
	<node id="-481751" lat="60.931850002" lon="6.10251388174">
		<tag k="name" v="Sørdalsskaret" />
		<tag k="natural" v="valley" />
		<tag k="place" v="locality" />
		<tag k="ssr:stedsnr" v="675145" />
	</node>
	<node id="-481750" lat="60.9380277818" lon="5.98026110377">
		<tag k="name" v="Haugen" />
		<tag k="natural" v="hill" />
		<tag k="place" v="locality" />
		<tag k="ssr:stedsnr" v="675128" />
	</node>
	<node id="-481747" lat="60.9125638895" lon="5.95861111508">
		<tag k="name" v="Slette" />
		<tag k="place" v="locality" />
		<tag k="ssr:stedsnr" v="651712" />
	</node>
	<node id="-481746" lat="60.9161722211" lon="5.94282500342">
		<tag k="name" v="Revabotn" />
		<tag k="natural" v="valley" />
		<tag k="place" v="locality" />
		<tag k="ssr:stedsnr" v="651710" />
	</node>
	<node id="-481745" lat="60.9160361093" lon="5.97653889639">
		<tag k="name" v="Ræholna" />
		<tag k="place" v="locality" />
		<tag k="ssr:stedsnr" v="651704" />
	</node>
	<node id="-481744" lat="60.8646277753" lon="6.00466667443">
		<tag k="name" v="Tverrlia" />
		<tag k="natural" v="slope" />
		<tag k="place" v="locality" />
		<tag k="ssr:stedsnr" v="651591" />
	</node>
	<node id="-481742" lat="60.8322027757" lon="5.8446833255">
		<tag k="name" v="Botnane" />
		<tag k="natural" v="valley" />
		<tag k="place" v="locality" />
		<tag k="ssr:stedsnr" v="651542" />
	</node>
	<node id="-481741" lat="60.8847249987" lon="5.96675833934">
		<tag k="name" v="Skavlane" />
		<tag k="natural" v="hill" />
		<tag k="place" v="locality" />
		<tag k="ssr:stedsnr" v="651540" />
	</node>
	<node id="-481740" lat="60.8472638851" lon="5.85194722708">
		<tag k="name" v="Fitjane" />
		<tag k="place" v="locality" />
		<tag k="ssr:stedsnr" v="651527" />
	</node>
	<node id="-481739" lat="60.8211305591" lon="5.75962776859">
		<tag k="name" v="Fallet" />
		<tag k="natural" v="cliff" />
		<tag k="ssr:stedsnr" v="650584" />
	</node>
	<node id="-481738" lat="60.8248750024" lon="5.71164166543">
		<tag k="name" v="Hestefita" />
		<tag k="place" v="locality" />
		<tag k="ssr:stedsnr" v="650585" />
	</node>
	<node id="-481737" lat="60.8369694411" lon="5.85809721437">
		<tag k="name" v="Legda" />
		<tag k="place" v="locality" />
		<tag k="ssr:stedsnr" v="650570" />
	</node>
	<node id="-481736" lat="60.8352861123" lon="5.8539916724">
		<tag k="name" v="Løype" />
		<tag k="place" v="locality" />
		<tag k="ssr:stedsnr" v="650569" />
	</node>
	<node id="-481735" lat="60.839169441" lon="5.91391110904">
		<tag k="name" v="Sollia" />
		<tag k="natural" v="slope" />
		<tag k="place" v="locality" />
		<tag k="ssr:stedsnr" v="650564" />
	</node>
	<node id="-481734" lat="60.7633972248" lon="5.67780833388">
		<tag k="name" v="Vetlebotnen" />
		<tag k="natural" v="valley" />
		<tag k="place" v="locality" />
		<tag k="ssr:stedsnr" v="650552" />
	</node>
	<node id="-481733" lat="60.7637472207" lon="5.69038332689">
		<tag k="name" v="Krakelia" />
		<tag k="natural" v="slope" />
		<tag k="place" v="locality" />
		<tag k="ssr:stedsnr" v="650551" />
	</node>
	<node id="-481732" lat="60.7826583357" lon="5.74917499185">
		<tag k="name" v="Svinhelleren" />
		<tag k="place" v="locality" />
		<tag k="ssr:stedsnr" v="650533" />
	</node>
	<node id="-481730" lat="60.7598694425" lon="5.68752499963">
		<tag k="fixme" v="consider natural=peak for the most distinct mountains in the district" />
		<tag k="name" v="Åsen" />
		<tag k="natural" v="hill" />
		<tag k="place" v="locality" />
		<tag k="ssr:stedsnr" v="615788" />
	</node>
	<node id="-481729" lat="60.8127694448" lon="5.74706943787">
		<tag k="fixme" v="consider natural=peak for the most distinct mountains in the district" />
		<tag k="name" v="Botnafjellet" />
		<tag k="natural" v="hill" />
		<tag k="place" v="locality" />
		<tag k="ssr:stedsnr" v="615472" />
	</node>
	<node id="-481727" lat="60.7988277804" lon="5.75205277964">
		<tag k="name" v="Hestabotnen" />
		<tag k="natural" v="valley" />
		<tag k="place" v="locality" />
		<tag k="ssr:stedsnr" v="615459" />
	</node>
	<node id="-481726" lat="60.8417583376" lon="5.77759722787">
		<tag k="fixme" v="consider natural=peak for the most distinct mountains in the district" />
		<tag k="name" v="Høgahjellsnipa" />
		<tag k="natural" v="hill" />
		<tag k="place" v="locality" />
		<tag k="ssr:stedsnr" v="615372" />
	</node>
	<node id="-481725" lat="60.8668250011" lon="5.95144999281">
		<tag k="name" v="Kvernhusbotnen" />
		<tag k="natural" v="valley" />
		<tag k="place" v="locality" />
		<tag k="ssr:stedsnr" v="615161" />
	</node>
	<node id="-481724" lat="60.8372444479" lon="5.8690138889">
		<tag k="name" v="Heimalia" />
		<tag k="natural" v="slope" />
		<tag k="place" v="locality" />
		<tag k="ssr:stedsnr" v="615159" />
	</node>
	<node id="-481723" lat="60.8635499987" lon="5.84589444838">
		<tag k="name" v="Storehaugen" />
		<tag k="natural" v="hill" />
		<tag k="place" v="locality" />
		<tag k="ssr:stedsnr" v="615149" />
	</node>
	<node id="-481719" lat="60.8321694443" lon="5.93139166546">
		<tag k="name" v="Klauva" />
		<tag k="natural" v="slope" />
		<tag k="place" v="locality" />
		<tag k="ssr:stedsnr" v="615133" />
	</node>
	<node id="-481714" lat="60.7659833293" lon="5.67243610544">
		<tag k="name" v="Storebotnen" />
		<tag k="natural" v="valley" />
		<tag k="place" v="locality" />
		<tag k="ssr:stedsnr" v="615043" />
	</node>
	<node id="-481713" lat="60.9576305599" lon="6.00384444328">
		<tag k="fixme" v="consider natural=peak for the most distinct mountains in the district" />
		<tag k="name" v="Hytteberget" />
		<tag k="natural" v="hill" />
		<tag k="place" v="locality" />
		<tag k="ssr:stedsnr" v="615033" />
	</node>
	<node id="-481712" lat="60.9700027782" lon="6.13296110799">
		<tag k="name" v="Storehaugen" />
		<tag k="natural" v="hill" />
		<tag k="place" v="locality" />
		<tag k="ssr:stedsnr" v="615025" />
	</node>
	<node id="-481711" lat="60.7911944447" lon="5.77676111324">
		<tag k="name" v="Klettadalen" />
		<tag k="natural" v="valley" />
		<tag k="place" v="locality" />
		<tag k="ssr:stedsnr" v="614470" />
	</node>
	<node id="-481710" lat="60.7864111086" lon="5.78932221868">
		<tag k="name" v="Nyløholene" />
		<tag k="natural" v="valley" />
		<tag k="place" v="locality" />
		<tag k="ssr:stedsnr" v="614460" />
	</node>
	<node id="-481708" lat="60.8684166645" lon="5.83535278677">
		<tag k="name" v="Bleidalen" />
		<tag k="natural" v="valley" />
		<tag k="place" v="locality" />
		<tag k="ssr:stedsnr" v="614435" />
	</node>
	<node id="-481707" lat="60.8539083306" lon="5.80854999362">
		<tag k="fixme" v="consider natural=peak for the most distinct mountains in the district" />
		<tag k="name" v="Kupefjellet" />
		<tag k="natural" v="hill" />
		<tag k="place" v="locality" />
		<tag k="ssr:stedsnr" v="614405" />
	</node>
	<node id="-481706" lat="60.9290833327" lon="6.12063611063">
		<tag k="name" v="Skorvadalen" />
		<tag k="natural" v="valley" />
		<tag k="place" v="locality" />
		<tag k="ssr:stedsnr" v="614115" />
	</node>
	<node id="-481705" lat="60.9395944444" lon="5.95087778421">
		<tag k="fixme" v="consider natural=peak for the most distinct mountains in the district" />
		<tag k="name" v="Grånova" />
		<tag k="natural" v="hill" />
		<tag k="place" v="locality" />
		<tag k="ssr:stedsnr" v="614104" />
	</node>
	<node id="-481703" lat="60.8500999997" lon="6.01930832489">
		<tag k="name" v="Storebotn" />
		<tag k="natural" v="valley" />
		<tag k="place" v="locality" />
		<tag k="ssr:stedsnr" v="590724" />
	</node>
	<node id="-481702" lat="60.9071194437" lon="5.95971110225">
		<tag k="name" v="Illebrekkene" />
		<tag k="natural" v="slope" />
		<tag k="place" v="locality" />
		<tag k="ssr:stedsnr" v="590720" />
	</node>
	<node id="-481701" lat="60.9033527775" lon="5.98140277696">
		<tag k="name" v="Merkeskråa" />
		<tag k="place" v="locality" />
		<tag k="ssr:stedsnr" v="590709" />
	</node>
	<node id="-481700" lat="60.8439416626" lon="5.73793610872">
		<tag k="fixme" v="consider natural=peak for the most distinct mountains in the district" />
		<tag k="name" v="Torrisskarfjellet" />
		<tag k="natural" v="hill" />
		<tag k="place" v="locality" />
		<tag k="ssr:stedsnr" v="590622" />
	</node>
	<node id="-481698" lat="60.8562027791" lon="5.9886694505">
		<tag k="name" v="Dermannshaugen" />
		<tag k="natural" v="hill" />
		<tag k="place" v="locality" />
		<tag k="ssr:stedsnr" v="590557" />
	</node>
	<node id="-481695" lat="60.8296638852" lon="5.9121722232">
		<tag k="name" v="Hanrane" />
		<tag k="natural" v="ridge" />
		<tag k="place" v="locality" />
		<tag k="ssr:stedsnr" v="590542" />
	</node>
	<node id="-481694" lat="60.8326555582" lon="5.91635833353">
		<tag k="name" v="Skrena" />
		<tag k="natural" v="valley" />
		<tag k="place" v="locality" />
		<tag k="ssr:stedsnr" v="590543" />
	</node>
	<node id="-481693" lat="60.8271083358" lon="5.94925000357">
		<tag k="name" v="Flåtane" />
		<tag k="place" v="locality" />
		<tag k="ssr:stedsnr" v="590527" />
	</node>
	<node id="-481691" lat="60.8516250006" lon="5.8671666597">
		<tag k="name" v="Tveradalen" />
		<tag k="natural" v="valley" />
		<tag k="place" v="locality" />
		<tag k="ssr:stedsnr" v="554841" />
	</node>
	<node id="-481690" lat="60.8161250028" lon="5.94730000441">
		<tag k="name" v="Tverrdalen" />
		<tag k="natural" v="valley" />
		<tag k="place" v="locality" />
		<tag k="ssr:stedsnr" v="554837" />
	</node>
	<node id="-481689" lat="60.8013249971" lon="5.81066388152">
		<tag k="fixme" v="consider natural=peak for the most distinct mountains in the district" />
		<tag k="name" v="Øykjafjellet" />
		<tag k="natural" v="hill" />
		<tag k="place" v="locality" />
		<tag k="ssr:stedsnr" v="554506" />
	</node>
	<node id="-481688" lat="60.790288885" lon="5.69890555407">
		<tag k="name" v="Tverrbotnen" />
		<tag k="natural" v="valley" />
		<tag k="place" v="locality" />
		<tag k="ssr:stedsnr" v="554483" />
	</node>
	<node id="-481687" lat="60.7864138852" lon="5.71268610932">
		<tag k="name" v="Beitlaskaret" />
		<tag k="natural" v="valley" />
		<tag k="place" v="locality" />
		<tag k="ssr:stedsnr" v="554473" />
	</node>
	<node id="-481686" lat="60.8335500003" lon="5.77593889528">
		<tag k="fixme" v="consider natural=peak for the most distinct mountains in the district" />
		<tag k="name" v="Rusta" />
		<tag k="natural" v="hill" />
		<tag k="place" v="locality" />
		<tag k="ssr:stedsnr" v="554408" />
	</node>
	<node id="-481685" lat="60.8283611095" lon="5.75483334014">
		<tag k="fixme" v="consider natural=peak for the most distinct mountains in the district" />
		<tag k="name" v="Laurdagsfjellet" />
		<tag k="natural" v="hill" />
		<tag k="place" v="locality" />
		<tag k="ssr:stedsnr" v="554406" />
	</node>
	<node id="-481680" lat="60.8748333325" lon="6.02302500406">
		<tag k="fixme" v="consider natural=peak for the most distinct mountains in the district" />
		<tag k="name" v="Tverrfjellet" />
		<tag k="natural" v="hill" />
		<tag k="place" v="locality" />
		<tag k="ssr:stedsnr" v="554168" />
	</node>
	<node id="-481676" lat="60.8227861147" lon="5.86201943803">
		<tag k="name" v="Modalen" />
		<tag k="natural" v="valley" />
		<tag k="place" v="locality" />
		<tag k="ssr:stedsnr" v="554131" />
	</node>
	<node id="-481673" lat="60.9344750031" lon="5.94521945094">
		<tag k="name" v="Kvernhusbotnen" />
		<tag k="natural" v="valley" />
		<tag k="place" v="locality" />
		<tag k="ssr:stedsnr" v="554119" />
	</node>
	<node id="-481671" lat="60.9573527761" lon="6.12966389279">
		<tag k="fixme" v="consider natural=peak for the most distinct mountains in the district" />
		<tag k="name" v="Hornafjellet" />
		<tag k="natural" v="hill" />
		<tag k="place" v="locality" />
		<tag k="ssr:stedsnr" v="554105" />
	</node>
	<node id="-481666" lat="60.8962055528" lon="6.03474999824">
		<tag k="fixme" v="consider natural=peak for the most distinct mountains in the district" />
		<tag k="name" v="Knolten" />
		<tag k="natural" v="hill" />
		<tag k="place" v="locality" />
		<tag k="ssr:stedsnr" v="554077" />
	</node>
	<node id="-481664" lat="60.9121611069" lon="5.98698888214">
		<tag k="fixme" v="consider natural=peak for the most distinct mountains in the district" />
		<tag k="name" v="Holmanesfjellet" />
		<tag k="natural" v="hill" />
		<tag k="place" v="locality" />
		<tag k="ssr:stedsnr" v="554061" />
	</node>
	<node id="-481660" lat="60.9622638848" lon="6.01713889834">
		<tag k="fixme" v="consider natural=peak for the most distinct mountains in the district" />
		<tag k="name" v="Rusta" />
		<tag k="natural" v="hill" />
		<tag k="place" v="locality" />
		<tag k="ssr:stedsnr" v="554017" />
	</node>
	<node id="-481659" lat="60.9798527783" lon="5.91795000437">
		<tag k="name" v="Vestrebotnen" />
		<tag k="natural" v="valley" />
		<tag k="place" v="locality" />
		<tag k="ssr:stedsnr" v="554009" />
	</node>
	<node id="-481656" lat="60.8927833354" lon="5.94932499948">
		<tag k="name" v="Tverråbotn" />
		<tag k="natural" v="valley" />
		<tag k="place" v="locality" />
		<tag k="ssr:stedsnr" v="530705" />
	</node>
	<node id="-481655" lat="60.9043444489" lon="5.96336111347">
		<tag k="name" v="Nålten" />
		<tag k="place" v="locality" />
		<tag k="ssr:stedsnr" v="530701" />
	</node>
	<node id="-481652" lat="60.839677775" lon="5.97226111442">
		<tag k="name" v="Bjørkhaugane" />
		<tag k="natural" v="hill" />
		<tag k="place" v="locality" />
		<tag k="ssr:stedsnr" v="530585" />
	</node>
	<node id="-481651" lat="60.845697225" lon="5.94428055036">
		<tag k="name" v="Stortunga" />
		<tag k="place" v="locality" />
		<tag k="ssr:stedsnr" v="530579" />
	</node>
	<node id="-481649" lat="60.8710222223" lon="5.97232777159">
		<tag k="name" v="Bjørnbakken" />
		<tag k="natural" v="slope" />
		<tag k="place" v="locality" />
		<tag k="ssr:stedsnr" v="530565" />
	</node>
	<node id="-481648" lat="60.8860500003" lon="5.98477499098">
		<tag k="name" v="Stalleleitet" />
		<tag k="natural" v="slope" />
		<tag k="place" v="locality" />
		<tag k="ssr:stedsnr" v="530537" />
	</node>
	<node id="-481646" lat="60.8152972229" lon="5.77631111833">
		<tag k="name" v="Magnehjellane" />
		<tag k="place" v="locality" />
		<tag k="ssr:stedsnr" v="529613" />
	</node>
	<node id="-481643" lat="60.8389027742" lon="5.85725277909">
		<tag k="name" v="Esphaugen" />
		<tag k="natural" v="hill" />
		<tag k="place" v="locality" />
		<tag k="ssr:stedsnr" v="529588" />
	</node>
	<node id="-481642" lat="60.7776500032" lon="5.68055832584">
		<tag k="name" v="Åsbrekkena" />
		<tag k="natural" v="slope" />
		<tag k="place" v="locality" />
		<tag k="ssr:stedsnr" v="529574" />
	</node>
	<node id="-481641" lat="60.7259468831" lon="5.70085985099">
		<tag k="name" v="Fagerskaret" />
		<tag k="natural" v="valley" />
		<tag k="place" v="locality" />
		<tag k="ssr:stedsnr" v="529561" />
	</node>
	<node id="-481640" lat="60.7549805515" lon="5.70252222575">
		<tag k="name" v="Kjetoa" />
		<tag k="place" v="locality" />
		<tag k="ssr:stedsnr" v="529557" />
	</node>
	<node id="-481637" lat="60.9464444447" lon="5.97733888315">
		<tag k="fixme" v="consider natural=peak for the most distinct mountains in the district" />
		<tag k="name" v="Rusta" />
		<tag k="natural" v="hill" />
		<tag k="place" v="locality" />
		<tag k="ssr:stedsnr" v="494782" />
	</node>
	<node id="-481635" lat="60.80248333" lon="5.7426888971">
		<tag k="name" v="Kollhaugen" />
		<tag k="natural" v="hill" />
		<tag k="place" v="locality" />
		<tag k="ssr:stedsnr" v="494437" />
	</node>
	<node id="-481633" lat="60.8380750035" lon="5.77115832618">
		<tag k="name" v="Høgahjellane" />
		<tag k="place" v="locality" />
		<tag k="ssr:stedsnr" v="494369" />
	</node>
	<node id="-481632" lat="60.8344999995" lon="5.8232638866">
		<tag k="fixme" v="consider natural=peak for the most distinct mountains in the district" />
		<tag k="name" v="Tofjellet" />
		<tag k="natural" v="hill" />
		<tag k="place" v="locality" />
		<tag k="ssr:stedsnr" v="494343" />
	</node>
	<node id="-481628" lat="60.8481555539" lon="5.85076389774">
		<tag k="name" v="Hellandsdalen" />
		<tag k="natural" v="valley" />
		<tag k="place" v="locality" />
		<tag k="ssr:stedsnr" v="494149" />
	</node>
	<node id="-481627" lat="60.8724305597" lon="5.88764444807">
		<tag k="name" v="Nordbotnen" />
		<tag k="natural" v="valley" />
		<tag k="place" v="locality" />
		<tag k="ssr:stedsnr" v="494145" />
	</node>
	<node id="-481624" lat="60.825475003" lon="5.93591667492">
		<tag k="name" v="Ædnarusta" />
		<tag k="natural" v="slope" />
		<tag k="place" v="locality" />
		<tag k="ssr:stedsnr" v="494132" />
	</node>
	<node id="-481623" lat="60.821599998" lon="5.90467778065">
		<tag k="name" v="Bjørnabotnen" />
		<tag k="natural" v="valley" />
		<tag k="place" v="locality" />
		<tag k="ssr:stedsnr" v="494133" />
	</node>
	<node id="-481622" lat="60.8165499979" lon="5.89440277299">
		<tag k="name" v="Stølsdalen" />
		<tag k="natural" v="valley" />
		<tag k="place" v="locality" />
		<tag k="ssr:stedsnr" v="494127" />
	</node>
	<node id="-481620" lat="60.8339361108" lon="5.9387138975">
		<tag k="name" v="Heiane" />
		<tag k="natural" v="slope" />
		<tag k="place" v="locality" />
		<tag k="ssr:stedsnr" v="494115" />
	</node>
	<node id="-481614" lat="60.780075001" lon="5.77052777782">
		<tag k="name" v="Høgaberget" />
		<tag k="natural" v="hill" />
		<tag k="place" v="locality" />
		<tag k="ssr:stedsnr" v="493426" />
	</node>
	<node id="-481612" lat="60.7480999967" lon="5.74482778407">
		<tag k="fixme" v="consider natural=peak for the most distinct mountains in the district" />
		<tag k="name" v="Njuken" />
		<tag k="natural" v="hill" />
		<tag k="place" v="locality" />
		<tag k="ssr:stedsnr" v="491468" />
	</node>
	<node id="-481611" lat="60.7438361094" lon="5.66283611856">
		<tag k="name" v="Tverrdalen" />
		<tag k="natural" v="valley" />
		<tag k="place" v="locality" />
		<tag k="ssr:stedsnr" v="491466" />
	</node>
	<node id="-481608" lat="60.9301777773" lon="5.97954999302">
		<tag k="name" v="Leitet" />
		<tag k="natural" v="hill" />
		<tag k="place" v="locality" />
		<tag k="ssr:stedsnr" v="469748" />
	</node>
	<node id="-481607" lat="60.9127194477" lon="5.94510832653">
		<tag k="name" v="Seglet" />
		<tag k="place" v="locality" />
		<tag k="ssr:stedsnr" v="469737" />
	</node>
	<node id="-481606" lat="60.8992472264" lon="5.98466110804">
		<tag k="name" v="Geithelleren" />
		<tag k="place" v="locality" />
		<tag k="ssr:stedsnr" v="469729" />
	</node>
	<node id="-481604" lat="60.8936388931" lon="6.01406944633">
		<tag k="name" v="Ørne Kråa" />
		<tag k="place" v="locality" />
		<tag k="ssr:stedsnr" v="469708" />
	</node>
	<node id="-481603" lat="60.8767472183" lon="6.01252777435">
		<tag k="name" v="Hovdenberget" />
		<tag k="natural" v="hill" />
		<tag k="place" v="locality" />
		<tag k="ssr:stedsnr" v="469596" />
	</node>
	<node id="-481602" lat="60.8423388921" lon="5.95731111309">
		<tag k="name" v="Furehaugane" />
		<tag k="natural" v="hill" />
		<tag k="place" v="locality" />
		<tag k="ssr:stedsnr" v="469586" />
	</node>
	<node id="-481600" lat="60.8472388881" lon="5.95084999461">
		<tag k="name" v="Vetletunga" />
		<tag k="place" v="locality" />
		<tag k="ssr:stedsnr" v="469572" />
	</node>
	<node id="-481599" lat="60.8545833333" lon="5.97609166294">
		<tag k="name" v="Langhaugen" />
		<tag k="natural" v="hill" />
		<tag k="place" v="locality" />
		<tag k="ssr:stedsnr" v="469571" />
	</node>
	<node id="-481597" lat="60.8310944419" lon="5.84832500141">
		<tag k="name" v="Stegahamrane" />
		<tag k="natural" v="hill" />
		<tag k="place" v="locality" />
		<tag k="ssr:stedsnr" v="469554" />
	</node>
	<node id="-481596" lat="60.827475001" lon="5.83608055756">
		<tag k="name" v="Svalia" />
		<tag k="natural" v="slope" />
		<tag k="place" v="locality" />
		<tag k="ssr:stedsnr" v="469553" />
	</node>
	<node id="-481595" lat="60.8517694423" lon="5.84507778343">
		<tag k="name" v="Blombotn" />
		<tag k="natural" v="valley" />
		<tag k="place" v="locality" />
		<tag k="ssr:stedsnr" v="469542" />
	</node>
	<node id="-481592" lat="60.8260083336" lon="5.75393889524">
		<tag k="name" v="Øvstafallet" />
		<tag k="place" v="locality" />
		<tag k="ssr:stedsnr" v="468593" />
	</node>
	<node id="-481591" lat="60.7829861072" lon="5.73746110631">
		<tag k="name" v="Skjeggevikdalen" />
		<tag k="natural" v="valley" />
		<tag k="place" v="locality" />
		<tag k="ssr:stedsnr" v="468588" />
	</node>
	<node id="-481590" lat="60.769474999" lon="5.78652778428">
		<tag k="fixme" v="consider natural=peak for the most distinct mountains in the district" />
		<tag k="name" v="Slettafjellet" />
		<tag k="natural" v="hill" />
		<tag k="place" v="locality" />
		<tag k="ssr:stedsnr" v="468543" />
	</node>
	<node id="-481589" lat="60.7634611147" lon="5.66852499745">
		<tag k="name" v="Storbotsdalen" />
		<tag k="natural" v="valley" />
		<tag k="place" v="locality" />
		<tag k="ssr:stedsnr" v="468537" />
	</node>
	<node id="-481586" lat="60.8544583369" lon="6.00368333528">
		<tag k="name" v="Tveradalen" />
		<tag k="natural" v="valley" />
		<tag k="place" v="locality" />
		<tag k="ssr:stedsnr" v="434169" />
	</node>
	<node id="-481584" lat="60.8365333338" lon="5.88093888069">
		<tag k="name" v="Veslaseglet" />
		<tag k="natural" v="ridge" />
		<tag k="place" v="locality" />
		<tag k="ssr:stedsnr" v="434165" />
	</node>
	<node id="-481581" lat="60.8262694404" lon="5.95484999747">
		<tag k="name" v="Såta" />
		<tag k="natural" v="hill" />
		<tag k="place" v="locality" />
		<tag k="ssr:stedsnr" v="434135" />
	</node>
	<node id="-481580" lat="60.8140833327" lon="5.85954166561">
		<tag k="name" v="Modalsskaret" />
		<tag k="natural" v="valley" />
		<tag k="place" v="locality" />
		<tag k="ssr:stedsnr" v="434133" />
	</node>
	<node id="-481578" lat="60.9746583351" lon="6.11174166748">
		<tag k="name" v="Hjellane" />
		<tag k="place" v="locality" />
		<tag k="ssr:stedsnr" v="434007" />
	</node>
	<node id="-481576" lat="60.8464694441" lon="5.74796943613">
		<tag k="name" v="Torrisskaret" />
		<tag k="natural" v="valley" />
		<tag k="place" v="locality" />
		<tag k="ssr:stedsnr" v="433382" />
	</node>
	<node id="-481575" lat="60.8417055555" lon="5.76946389349">
		<tag k="name" v="Steinabotnen" />
		<tag k="natural" v="valley" />
		<tag k="place" v="locality" />
		<tag k="ssr:stedsnr" v="433377" />
	</node>
	<node id="-481573" lat="60.9036999967" lon="5.83613334014">
		<tag k="fixme" v="consider natural=peak for the most distinct mountains in the district" />
		<tag k="name" v="Skjerjavassryggen" />
		<tag k="natural" v="hill" />
		<tag k="place" v="locality" />
		<tag k="ssr:stedsnr" v="433335" />
	</node>
	<node id="-481570" lat="60.9251750018" lon="6.004016668">
		<tag k="name" v="Kvitavassdalen" />
		<tag k="natural" v="valley" />
		<tag k="place" v="locality" />
		<tag k="ssr:stedsnr" v="433121" />
	</node>
	<node id="-481569" lat="60.9445583296" lon="5.94711389416">
		<tag k="fixme" v="consider natural=peak for the most distinct mountains in the district" />
		<tag k="name" v="Sylvberget" />
		<tag k="natural" v="hill" />
		<tag k="place" v="locality" />
		<tag k="ssr:stedsnr" v="433119" />
	</node>
	<node id="-481568" lat="60.9549611121" lon="6.08273055628">
		<tag k="name" v="Rindadalen" />
		<tag k="natural" v="valley" />
		<tag k="place" v="locality" />
		<tag k="ssr:stedsnr" v="433115" />
	</node>
	<node id="-481567" lat="60.904613886" lon="6.02375000115">
		<tag k="fixme" v="consider natural=peak for the most distinct mountains in the district" />
		<tag k="name" v="Oksla" />
		<tag k="natural" v="hill" />
		<tag k="place" v="locality" />
		<tag k="ssr:stedsnr" v="433101" />
	</node>
	<node id="-481566" lat="60.9038861132" lon="6.006699999">
		<tag k="name" v="Ukristna" />
		<tag k="natural" v="slope" />
		<tag k="place" v="locality" />
		<tag k="ssr:stedsnr" v="433091" />
	</node>
	<node id="-481564" lat="60.7648944476" lon="5.69596943758">
		<tag k="fixme" v="consider natural=peak for the most distinct mountains in the district" />
		<tag k="name" v="Berget" />
		<tag k="natural" v="hill" />
		<tag k="place" v="locality" />
		<tag k="ssr:stedsnr" v="433047" />
	</node>
	<node id="-481561" lat="60.7350249997" lon="5.73512500709">
		<tag k="alt_name" v="Norenakken" />
		<tag k="fixme" v="consider natural=peak for the most distinct mountains in the district" />
		<tag k="name" v="Nordrenakken" />
		<tag k="natural" v="hill" />
		<tag k="place" v="locality" />
		<tag k="ssr:stedsnr" v="431321" />
	</node>
	<node id="-481560" lat="60.8097249978" lon="5.72808332759">
		<tag k="name" v="Sauabotnen" />
		<tag k="natural" v="valley" />
		<tag k="place" v="locality" />
		<tag k="ssr:stedsnr" v="251512" />
	</node>
	<node id="-481556" lat="61.0116888881" lon="5.92869166439">
		<tag k="fixme" v="consider natural=peak for the most distinct mountains in the district" />
		<tag k="name" v="Sundagsfjellet" />
		<tag k="natural" v="hill" />
		<tag k="place" v="locality" />
		<tag k="ssr:stedsnr" v="251386" />
	</node>
	<node id="-481554" lat="60.8185666627" lon="5.92077500599">
		<tag k="name" v="Almelibotnen" />
		<tag k="natural" v="valley" />
		<tag k="place" v="locality" />
		<tag k="ssr:stedsnr" v="251158" />
	</node>
	<node id="-481551" lat="60.953361113" lon="5.91312499685">
		<tag k="fixme" v="consider natural=peak for the most distinct mountains in the district" />
		<tag k="name" v="Eldhusfjellet" />
		<tag k="natural" v="hill" />
		<tag k="place" v="locality" />
		<tag k="ssr:stedsnr" v="251112" />
	</node>
	<node id="-481550" lat="60.9569277764" lon="6.07275833626">
		<tag k="fixme" v="consider natural=peak for the most distinct mountains in the district" />
		<tag k="name" v="Sørdalsrinden" />
		<tag k="natural" v="hill" />
		<tag k="place" v="locality" />
		<tag k="ssr:stedsnr" v="251109" />
	</node>
	<node id="-481547" lat="60.9018388881" lon="6.00474999588">
		<tag k="name" v="Kyrabotnane" />
		<tag k="natural" v="valley" />
		<tag k="place" v="locality" />
		<tag k="ssr:stedsnr" v="251083" />
	</node>
	<node id="-481544" lat="60.9656250038" lon="6.03454999511">
		<tag k="name" v="Verkalia" />
		<tag k="natural" v="slope" />
		<tag k="place" v="locality" />
		<tag k="ssr:stedsnr" v="251031" />
	</node>
	<node id="-481542" lat="60.987091666" lon="5.98063333696">
		<tag k="name" v="Austrebotnen" />
		<tag k="natural" v="valley" />
		<tag k="place" v="locality" />
		<tag k="ssr:stedsnr" v="251005" />
	</node>
	<node id="-481537" lat="60.8529999978" lon="5.95788611934">
		<tag k="name" v="Gjellane" />
		<tag k="place" v="locality" />
		<tag k="ssr:stedsnr" v="227553" />
	</node>
	<node id="-481536" lat="60.8280888885" lon="5.93897222263">
		<tag k="name" v="Gangelia" />
		<tag k="natural" v="slope" />
		<tag k="place" v="locality" />
		<tag k="ssr:stedsnr" v="227521" />
	</node>
	<node id="-481535" lat="60.8582972243" lon="5.84871110313">
		<tag k="name" v="Sæterbrekka" />
		<tag k="natural" v="slope" />
		<tag k="place" v="locality" />
		<tag k="ssr:stedsnr" v="227514" />
	</node>
	<node id="-481534" lat="60.8571111102" lon="5.84465000263">
		<tag k="name" v="Skaret" />
		<tag k="natural" v="valley" />
		<tag k="place" v="locality" />
		<tag k="ssr:stedsnr" v="227515" />
	</node>
	<node id="-481532" lat="60.8934805549" lon="6.00146945017">
		<tag k="fixme" v="consider natural=peak for the most distinct mountains in the district" />
		<tag k="name" v="Støfjellet" />
		<tag k="natural" v="hill" />
		<tag k="place" v="locality" />
		<tag k="ssr:stedsnr" v="226746" />
	</node>
	<node id="-481531" lat="60.901805559" lon="5.95682222418">
		<tag k="name" v="Brualia" />
		<tag k="natural" v="slope" />
		<tag k="place" v="locality" />
		<tag k="ssr:stedsnr" v="226738" />
	</node>
	<node id="-481530" lat="60.897799996" lon="5.95144165824">
		<tag k="name" v="Flærne" />
		<tag k="place" v="locality" />
		<tag k="ssr:stedsnr" v="226731" />
	</node>
	<node id="-481528" lat="60.824402775" lon="5.75416111796">
		<tag k="name" v="Nedstafallet" />
		<tag k="place" v="locality" />
		<tag k="ssr:stedsnr" v="226650" />
	</node>
	<node id="-481527" lat="60.7859500041" lon="5.72709722454">
		<tag k="name" v="Skaret" />
		<tag k="natural" v="valley" />
		<tag k="place" v="locality" />
		<tag k="ssr:stedsnr" v="226644" />
	</node>
	<node id="-481526" lat="60.8277500033" lon="5.81185832515">
		<tag k="name" v="Austragjelet" />
		<tag k="natural" v="valley" />
		<tag k="place" v="locality" />
		<tag k="ssr:stedsnr" v="226645" />
	</node>
	<node id="-481524" lat="60.7408861123" lon="5.69376389617">
		<tag k="name" v="Djupedalen" />
		<tag k="natural" v="valley" />
		<tag k="place" v="locality" />
		<tag k="ssr:stedsnr" v="226621" />
	</node>
	<node id="-481523" lat="60.7702388906" lon="5.68321388048">
		<tag k="name" v="Stølsdalen" />
		<tag k="natural" v="valley" />
		<tag k="place" v="locality" />
		<tag k="ssr:stedsnr" v="226615" />
	</node>
	<node id="-481522" lat="60.7705638853" lon="5.67763610675">
		<tag k="name" v="Kroksdalen" />
		<tag k="natural" v="valley" />
		<tag k="place" v="locality" />
		<tag k="ssr:stedsnr" v="226616" />
	</node>
	<node id="-481521" lat="60.7739611102" lon="5.71413055463">
		<tag k="name" v="Kjemmagjela" />
		<tag k="place" v="locality" />
		<tag k="ssr:stedsnr" v="226610" />
	</node>
	<node id="-481520" lat="60.8290111117" lon="5.89338333437">
		<tag k="name" v="Botnatoa" />
		<tag k="natural" v="valley" />
		<tag k="place" v="locality" />
		<tag k="ssr:stedsnr" v="226562" />
	</node>
	<node id="-481509" lat="60.9468138899" lon="5.88943055777">
		<tag k="name" v="Vardadalen" />
		<tag k="natural" v="valley" />
		<tag k="place" v="locality" />
		<tag k="ssr:stedsnr" v="191078" />
	</node>
	<node id="-481507" lat="60.8904888867" lon="5.95466389213">
		<tag k="fixme" v="consider natural=peak for the most distinct mountains in the district" />
		<tag k="name" v="Stortona" />
		<tag k="natural" v="hill" />
		<tag k="place" v="locality" />
		<tag k="ssr:stedsnr" v="191066" />
	</node>
	<node id="-481505" lat="60.961969442" lon="5.92213889525">
		<tag k="alt_name" v="Botnelvbotn" />
		<tag k="name" v="Botnelvbotnen" />
		<tag k="natural" v="valley" />
		<tag k="place" v="locality" />
		<tag k="ssr:stedsnr" v="191026" />
	</node>
	<node id="-481503" lat="60.8792083371" lon="6.07626943585">
		<tag k="name" v="Sauaholene" />
		<tag k="natural" v="valley" />
		<tag k="place" v="locality" />
		<tag k="ssr:stedsnr" v="190837" />
	</node>
	<node id="-481502" lat="60.8817694448" lon="5.9244749922">
		<tag k="fixme" v="consider natural=peak for the most distinct mountains in the district" />
		<tag k="name" v="Gråsida" />
		<tag k="natural" v="hill" />
		<tag k="place" v="locality" />
		<tag k="ssr:stedsnr" v="190836" />
	</node>
	<node id="-481500" lat="60.8437777808" lon="5.87297778">
		<tag k="fixme" v="consider natural=peak for the most distinct mountains in the district" />
		<tag k="name" v="Storfjellet" />
		<tag k="natural" v="hill" />
		<tag k="place" v="locality" />
		<tag k="ssr:stedsnr" v="190827" />
	</node>
	<node id="-481497" lat="60.7824916676" lon="5.69943333552">
		<tag k="name" v="Moltebotnen" />
		<tag k="natural" v="valley" />
		<tag k="place" v="locality" />
		<tag k="ssr:stedsnr" v="190475" />
	</node>
	<node id="-481496" lat="60.7845833334" lon="5.77425000321">
		<tag k="name" v="Bjørnabotnen" />
		<tag k="natural" v="valley" />
		<tag k="place" v="locality" />
		<tag k="ssr:stedsnr" v="190466" />
	</node>
	<node id="-481495" lat="60.8475777789" lon="5.76780000581">
		<tag k="name" v="Dyrabotnen" />
		<tag k="natural" v="valley" />
		<tag k="place" v="locality" />
		<tag k="ssr:stedsnr" v="190422" />
	</node>
	<node id="-481494" lat="60.8511111092" lon="5.76079444644">
		<tag k="fixme" v="consider natural=peak for the most distinct mountains in the district" />
		<tag k="name" v="Tverrfjellet" />
		<tag k="natural" v="hill" />
		<tag k="place" v="locality" />
		<tag k="ssr:stedsnr" v="190420" />
	</node>
	<node id="-481493" lat="60.8370861152" lon="5.75225556005">
		<tag k="fixme" v="consider natural=peak for the most distinct mountains in the district" />
		<tag k="name" v="Knausafjellet" />
		<tag k="natural" v="hill" />
		<tag k="place" v="locality" />
		<tag k="ssr:stedsnr" v="190417" />
	</node>
	<node id="-481492" lat="60.8318666694" lon="5.72574444567">
		<tag k="alt_name" v="Sødalsfjellet" />
		<tag k="fixme" v="consider natural=peak for the most distinct mountains in the district" />
		<tag k="name" v="Sørdalsfjellet" />
		<tag k="natural" v="hill" />
		<tag k="place" v="locality" />
		<tag k="ssr:stedsnr" v="190402" />
	</node>
	<node id="-481491" lat="60.9258555532" lon="6.1062888957">
		<tag k="fixme" v="consider natural=peak for the most distinct mountains in the district" />
		<tag k="name" v="Kvanngrødfjellet" />
		<tag k="natural" v="hill" />
		<tag k="place" v="locality" />
		<tag k="ssr:stedsnr" v="190130" />
	</node>
	<node id="-481490" lat="60.949016667" lon="6.10752777798">
		<tag k="name" v="Sørdalen" />
		<tag k="natural" v="valley" />
		<tag k="place" v="locality" />
		<tag k="ssr:stedsnr" v="190119" />
	</node>
	<node id="-481489" lat="60.9036305567" lon="6.10424999265">
		<tag k="fixme" v="consider natural=peak for the most distinct mountains in the district" />
		<tag k="name" v="Gavlafjellet" />
		<tag k="natural" v="hill" />
		<tag k="place" v="locality" />
		<tag k="ssr:stedsnr" v="190085" />
	</node>
	<node id="-481488" lat="60.9097499989" lon="6.07588889568">
		<tag k="name" v="Norddalseggene" />
		<tag k="natural" v="ridge" />
		<tag k="place" v="locality" />
		<tag k="ssr:stedsnr" v="190083" />
	</node>
	<node id="-481486" lat="60.9193277772" lon="5.95376111307">
		<tag k="name" v="Øyjordsberget" />
		<tag k="natural" v="hill" />
		<tag k="place" v="locality" />
		<tag k="ssr:stedsnr" v="166703" />
	</node>
	<node id="-481485" lat="60.8365194468" lon="5.95170277551">
		<tag k="name" v="Giljane" />
		<tag k="natural" v="hill" />
		<tag k="place" v="locality" />
		<tag k="ssr:stedsnr" v="166555" />
	</node>
	<node id="-481482" lat="60.8206222182" lon="5.84099721492">
		<tag k="name" v="Furhaugane" />
		<tag k="natural" v="hill" />
		<tag k="place" v="locality" />
		<tag k="ssr:stedsnr" v="166535" />
	</node>
	<node id="-481481" lat="60.8290305579" lon="5.83549444924">
		<tag k="name" v="Tona" />
		<tag k="place" v="locality" />
		<tag k="ssr:stedsnr" v="166521" />
	</node>
	<node id="-481480" lat="60.8863833337" lon="6.04542499094">
		<tag k="name" v="Øykjabotn" />
		<tag k="natural" v="valley" />
		<tag k="place" v="locality" />
		<tag k="ssr:stedsnr" v="166517" />
	</node>
	<node id="-481479" lat="60.8167888918" lon="5.7530138806">
		<tag k="name" v="Runnehaugen" />
		<tag k="natural" v="hill" />
		<tag k="place" v="locality" />
		<tag k="ssr:stedsnr" v="165626" />
	</node>
	<node id="-481478" lat="60.8200777784" lon="5.77549444845">
		<tag k="name" v="Grannova" />
		<tag k="place" v="locality" />
		<tag k="ssr:stedsnr" v="165618" />
	</node>
	<node id="-481477" lat="60.8352555563" lon="5.87914999916">
		<tag k="name" v="Krana" />
		<tag k="place" v="locality" />
		<tag k="ssr:stedsnr" v="165603" />
	</node>
	<node id="-481476" lat="60.7482055521" lon="5.67293056192">
		<tag k="name" v="Stokkedalen" />
		<tag k="natural" v="valley" />
		<tag k="place" v="locality" />
		<tag k="ssr:stedsnr" v="165585" />
	</node>
	<node id="-481475" lat="60.7538749999" lon="5.66431110614">
		<tag k="fixme" v="consider natural=peak for the most distinct mountains in the district" />
		<tag k="name" v="Storlifjellet" />
		<tag k="natural" v="hill" />
		<tag k="place" v="locality" />
		<tag k="ssr:stedsnr" v="165580" />
	</node>
	<node id="-481474" lat="60.7245750025" lon="5.71580277472">
		<tag k="name" v="Flånakken" />
		<tag k="natural" v="ridge" />
		<tag k="place" v="locality" />
		<tag k="ssr:stedsnr" v="165561" />
	</node>
	<node id="-481467" lat="60.8955277809" lon="6.06400556156">
		<tag k="name" v="Norddalen" />
		<tag k="natural" v="valley" />
		<tag k="place" v="locality" />
		<tag k="ssr:stedsnr" v="130764" />
	</node>
	<node id="-481464" lat="60.8424583326" lon="5.91493889022">
		<tag k="fixme" v="consider natural=peak for the most distinct mountains in the district" />
		<tag k="name" v="Kamben" />
		<tag k="natural" v="hill" />
		<tag k="place" v="locality" />
		<tag k="ssr:stedsnr" v="130154" />
	</node>
	<node id="-481463" lat="60.8867249974" lon="6.01870554815">
		<tag k="fixme" v="consider natural=peak for the most distinct mountains in the district" />
		<tag k="name" v="Åsen" />
		<tag k="natural" v="hill" />
		<tag k="place" v="locality" />
		<tag k="ssr:stedsnr" v="130063" />
	</node>
	<node id="-481462" lat="60.8843888856" lon="6.0256694516">
		<tag k="name" v="Moltemyrberget" />
		<tag k="natural" v="hill" />
		<tag k="place" v="locality" />
		<tag k="ssr:stedsnr" v="130142" />
	</node>
	<node id="-481460" lat="60.8216999969" lon="5.9254055523">
		<tag k="fixme" v="consider natural=peak for the most distinct mountains in the district" />
		<tag k="name" v="Trollavassfjellet" />
		<tag k="natural" v="hill" />
		<tag k="place" v="locality" />
		<tag k="ssr:stedsnr" v="130125" />
	</node>
	<node id="-481458" lat="60.9097833362" lon="5.89667777785">
		<tag k="fixme" v="consider natural=peak for the most distinct mountains in the district" />
		<tag k="name" v="Høgda" />
		<tag k="natural" v="hill" />
		<tag k="place" v="locality" />
		<tag k="ssr:stedsnr" v="130050" />
	</node>
	<node id="-481457" lat="60.7610222201" lon="5.6595611142">
		<tag k="fixme" v="consider natural=peak for the most distinct mountains in the district" />
		<tag k="name" v="Storlifjellet" />
		<tag k="natural" v="hill" />
		<tag k="place" v="locality" />
		<tag k="ssr:stedsnr" v="130045" />
	</node>
	<node id="-481456" lat="60.9241611089" lon="5.94107500388">
		<tag k="name" v="Gregusbotnen" />
		<tag k="natural" v="valley" />
		<tag k="place" v="locality" />
		<tag k="ssr:stedsnr" v="129145" />
	</node>
	<node id="-481454" lat="60.9060083367" lon="6.01890832526">
		<tag k="name" v="Steinevassbotn" />
		<tag k="natural" v="valley" />
		<tag k="place" v="locality" />
		<tag k="ssr:stedsnr" v="105726" />
	</node>
	<node id="-481453" lat="60.9020222209" lon="6.04398332921">
		<tag k="name" v="Lurveberget" />
		<tag k="natural" v="hill" />
		<tag k="place" v="locality" />
		<tag k="ssr:stedsnr" v="105716" />
	</node>
	<node id="-481452" lat="60.8369777739" lon="5.84329166351">
		<tag k="fixme" v="consider natural=peak for the most distinct mountains in the district" />
		<tag k="name" v="Nærafjellet" />
		<tag k="natural" v="hill" />
		<tag k="place" v="locality" />
		<tag k="ssr:stedsnr" v="105623" />
	</node>
	<node id="-481451" lat="60.8422888934" lon="5.85034722895">
		<tag k="name" v="Eikelida" />
		<tag k="natural" v="slope" />
		<tag k="place" v="locality" />
		<tag k="ssr:stedsnr" v="105618" />
	</node>
	<node id="-481450" lat="60.7263000001" lon="5.72218333481">
		<tag k="name" v="Skaret" />
		<tag k="natural" v="valley" />
		<tag k="place" v="locality" />
		<tag k="ssr:stedsnr" v="105582" />
	</node>
	<node id="-481448" lat="60.8529916702" lon="5.978941666">
		<tag k="name" v="Botn" />
		<tag k="natural" v="valley" />
		<tag k="place" v="locality" />
		<tag k="ssr:stedsnr" v="105558" />
	</node>
	<node id="-481447" lat="60.8702277781" lon="6.00871944981">
		<tag k="name" v="Botnane" />
		<tag k="natural" v="valley" />
		<tag k="place" v="locality" />
		<tag k="ssr:stedsnr" v="105554" />
	</node>
	<node id="-481446" lat="60.8263833296" lon="5.83708055229">
		<tag k="name" v="Svahaugen" />
		<tag k="natural" v="hill" />
		<tag k="place" v="locality" />
		<tag k="ssr:stedsnr" v="105551" />
	</node>
	<node id="-481445" lat="60.8597972257" lon="5.84785555783">
		<tag k="name" v="Botn" />
		<tag k="natural" v="valley" />
		<tag k="place" v="locality" />
		<tag k="ssr:stedsnr" v="105532" />
	</node>
	<node id="-481443" lat="60.85011111" lon="5.86062221999">
		<tag k="name" v="Kvitesvaa" />
		<tag k="place" v="locality" />
		<tag k="ssr:stedsnr" v="105525" />
	</node>
	<node id="-481440" lat="60.8597722191" lon="5.97853888034">
		<tag k="name" v="Balane" />
		<tag k="place" v="locality" />
		<tag k="ssr:stedsnr" v="69196" />
	</node>
	<node id="-481439" lat="60.8768083378" lon="5.8896000083">
		<tag k="name" v="Borga" />
		<tag k="natural" v="valley" />
		<tag k="place" v="locality" />
		<tag k="ssr:stedsnr" v="69181" />
	</node>
	<node id="-481437" lat="60.8209249979" lon="5.87694166169">
		<tag k="name" v="Almelidalen" />
		<tag k="natural" v="valley" />
		<tag k="place" v="locality" />
		<tag k="ssr:stedsnr" v="69132" />
	</node>
	<node id="-481436" lat="60.8378555522" lon="5.95857499484">
		<tag k="fixme" v="consider natural=peak for the most distinct mountains in the district" />
		<tag k="name" v="Kalvsåsen" />
		<tag k="natural" v="hill" />
		<tag k="place" v="locality" />
		<tag k="ssr:stedsnr" v="69130" />
	</node>
	<node id="-481435" lat="60.9176166652" lon="5.87142499381">
		<tag k="name" v="Steinadalen" />
		<tag k="natural" v="valley" />
		<tag k="place" v="locality" />
		<tag k="ssr:stedsnr" v="69124" />
	</node>
	<node id="-481431" lat="60.941958334" lon="5.97962778111">
		<tag k="name" v="Storehaugen" />
		<tag k="natural" v="hill" />
		<tag k="place" v="locality" />
		<tag k="ssr:stedsnr" v="69100" />
	</node>
	<node id="-481430" lat="60.9456638873" lon="5.99255833725">
		<tag k="name" v="Stølsdalen" />
		<tag k="natural" v="valley" />
		<tag k="place" v="locality" />
		<tag k="ssr:stedsnr" v="69096" />
	</node>
	<node id="-481429" lat="60.8956750029" lon="6.01434999499">
		<tag k="fixme" v="consider natural=peak for the most distinct mountains in the district" />
		<tag k="name" v="Stølsfjellsberget" />
		<tag k="natural" v="hill" />
		<tag k="place" v="locality" />
		<tag k="ssr:stedsnr" v="69092" />
	</node>
	<node id="-481427" lat="60.7644666639" lon="5.68236667083">
		<tag k="fixme" v="consider natural=peak for the most distinct mountains in the district" />
		<tag k="name" v="Midtfjellet" />
		<tag k="natural" v="hill" />
		<tag k="place" v="locality" />
		<tag k="ssr:stedsnr" v="69034" />
	</node>
	<node id="-481424" lat="60.9849138904" lon="6.06043610793">
		<tag k="name" v="Åsabotnen" />
		<tag k="natural" v="valley" />
		<tag k="place" v="locality" />
		<tag k="ssr:stedsnr" v="69002" />
	</node>
	<node id="-481423" lat="60.7660611068" lon="5.71462500445">
		<tag k="name" v="Fuglaberga" />
		<tag k="natural" v="hill" />
		<tag k="place" v="locality" />
		<tag k="ssr:stedsnr" v="60055" />
	</node>
	<node id="-481421" lat="60.8220027794" lon="5.94839721429">
		<tag k="name" v="Fjellkråa" />
		<tag k="natural" v="slope" />
		<tag k="place" v="locality" />
		<tag k="ssr:stedsnr" v="56131" />
	</node>
	<node id="-481420" lat="60.7778277732" lon="5.74488055024">
		<tag k="name" v="Skjeggedalen" />
		<tag k="natural" v="valley" />
		<tag k="place" v="locality" />
		<tag k="ssr:stedsnr" v="47081" />
	</node>
	<node id="-481419" lat="60.8479861101" lon="5.97736389402">
		<tag k="name" v="Midtbekkdalen" />
		<tag k="natural" v="valley" />
		<tag k="place" v="locality" />
		<tag k="ssr:stedsnr" v="44546" />
	</node>
	<node id="-481417" lat="60.814127778" lon="5.8317805485">
		<tag k="name" v="Røyrtørne" />
		<tag k="place" v="locality" />
		<tag k="ssr:stedsnr" v="44527" />
	</node>
	<node id="-481415" lat="60.8321055594" lon="5.88868889373">
		<tag k="name" v="Almelibotn" />
		<tag k="natural" v="valley" />
		<tag k="place" v="locality" />
		<tag k="ssr:stedsnr" v="44518" />
	</node>
	<node id="-481414" lat="60.8294444403" lon="5.84371665931">
		<tag k="name" v="Eikhaugane" />
		<tag k="natural" v="hill" />
		<tag k="place" v="locality" />
		<tag k="ssr:stedsnr" v="44514" />
	</node>
	<node id="-481413" lat="60.8600416683" lon="5.85110277576">
		<tag k="name" v="Tverrliane" />
		<tag k="natural" v="slope" />
		<tag k="place" v="locality" />
		<tag k="ssr:stedsnr" v="44501" />
	</node>
	<node id="-481412" lat="60.7554916673" lon="5.68373054874">
		<tag k="name" v="Storlia" />
		<tag k="natural" v="slope" />
		<tag k="place" v="locality" />
		<tag k="ssr:stedsnr" v="44591" />
	</node>
	<node id="-481410" lat="60.8787055546" lon="5.9955861194">
		<tag k="fixme" v="consider natural=peak for the most distinct mountains in the district" />
		<tag k="name" v="Seilæ" />
		<tag k="natural" v="hill" />
		<tag k="ssr:stedsnr" v="44557" />
	</node>
	<node id="-481404" lat="60.7998277751" lon="5.73208889055">
		<tag k="name" v="Storebotnen" />
		<tag k="natural" v="valley" />
		<tag k="place" v="locality" />
		<tag k="ssr:stedsnr" v="9470" />
	</node>
	<node id="-481401" lat="60.8638444459" lon="5.910774996">
		<tag k="fixme" v="consider natural=peak for the most distinct mountains in the district" />
		<tag k="name" v="Kvitafjellet" />
		<tag k="natural" v="hill" />
		<tag k="place" v="locality" />
		<tag k="ssr:stedsnr" v="9151" />
	</node>
	<node id="-481400" lat="60.866011113" lon="5.9003027712">
		<tag k="name" v="Steinabotnen" />
		<tag k="natural" v="valley" />
		<tag k="place" v="locality" />
		<tag k="ssr:stedsnr" v="9133" />
	</node>
	<node id="-481399" lat="60.8720027803" lon="5.95403055159">
		<tag k="fixme" v="consider natural=peak for the most distinct mountains in the district" />
		<tag k="name" v="Rusta" />
		<tag k="natural" v="hill" />
		<tag k="place" v="locality" />
		<tag k="ssr:stedsnr" v="9128" />
	</node>
	<node id="-481398" lat="60.8214916628" lon="5.85092499124">
		<tag k="fixme" v="consider natural=peak for the most distinct mountains in the district" />
		<tag k="name" v="Navene" />
		<tag k="natural" v="hill" />
		<tag k="place" v="locality" />
		<tag k="ssr:stedsnr" v="9125" />
	</node>
	<node id="-481396" lat="60.8315138898" lon="5.89392499228">
		<tag k="name" v="Botnen" />
		<tag k="natural" v="slope" />
		<tag k="place" v="locality" />
		<tag k="ssr:stedsnr" v="9112" />
	</node>
	<node id="-481395" lat="60.8361916622" lon="5.9478333295">
		<tag k="name" v="Haugen" />
		<tag k="natural" v="hill" />
		<tag k="place" v="locality" />
		<tag k="ssr:stedsnr" v="9100" />
	</node>
	<node id="-481394" lat="60.8348055591" lon="5.97791387947">
		<tag k="name" v="Sesskarberget" />
		<tag k="natural" v="hill" />
		<tag k="place" v="locality" />
		<tag k="ssr:stedsnr" v="9097" />
	</node>
	<node id="-481392" lat="60.8897055553" lon="6.07483056338">
		<tag k="name" v="Austredalen" />
		<tag k="natural" v="valley" />
		<tag k="place" v="locality" />
		<tag k="ssr:stedsnr" v="9059" />
	</node>
	<node id="-481389" lat="60.9011194409" lon="5.94240000774">
		<tag k="alt_name" v="Sæterbotn" />
		<tag k="name" v="Sæterbotnen" />
		<tag k="natural" v="valley" />
		<tag k="place" v="locality" />
		<tag k="ssr:stedsnr" v="9034" />
	</node>
	<node id="-481386" lat="60.8231916689" lon="5.74032500228">
		<tag k="name" v="Sørdalen" />
		<tag k="natural" v="valley" />
		<tag k="place" v="locality" />
		<tag k="ssr:stedsnr" v="8950" />
	</node>
	<node id="-481383" lat="60.7921027817" lon="5.7911027823">
		<tag k="fixme" v="consider natural=peak for the most distinct mountains in the district" />
		<tag k="name" v="Klettane" />
		<tag k="natural" v="hill" />
		<tag k="place" v="locality" />
		<tag k="ssr:stedsnr" v="8492" />
	</node>
	<node id="-481382" lat="60.782563886" lon="5.79424444294">
		<tag k="alt_name" v="Hodnefjellet" />
		<tag k="fixme" v="consider natural=peak for the most distinct mountains in the district" />
		<tag k="name" v="Hornafjellet" />
		<tag k="natural" v="hill" />
		<tag k="place" v="locality" />
		<tag k="ssr:stedsnr" v="8481" />
	</node>
	<node id="-481381" lat="60.7730499955" lon="5.69658332648">
		<tag k="fixme" v="consider natural=peak for the most distinct mountains in the district" />
		<tag k="name" v="Svida" />
		<tag k="natural" v="hill" />
		<tag k="place" v="locality" />
		<tag k="ssr:stedsnr" v="8476" />
	</node>
	<node id="-481380" lat="60.9232250014" lon="6.13694444576">
		<tag k="name" v="Helladalen" />
		<tag k="natural" v="valley" />
		<tag k="place" v="locality" />
		<tag k="ssr:stedsnr" v="8128" />
	</node>
	<node id="-481379" lat="60.9355166628" lon="6.1332000024">
		<tag k="fixme" v="consider natural=peak for the most distinct mountains in the district" />
		<tag k="name" v="Sørdalsfjellet" />
		<tag k="natural" v="hill" />
		<tag k="place" v="locality" />
		<tag k="ssr:stedsnr" v="8120" />
	</node>
	<node id="-481378" lat="60.9323" lon="5.98520000218">
		<tag k="name" v="Seglet" />
		<tag k="natural" v="gorge" />
		<tag k="ssr:stedsnr" v="8118" />
	</node>
	<node id="-481376" lat="60.941761112" lon="6.0204861155">
		<tag k="fixme" v="consider natural=peak for the most distinct mountains in the district" />
		<tag k="name" v="Smørstakken" />
		<tag k="natural" v="hill" />
		<tag k="place" v="locality" />
		<tag k="ssr:stedsnr" v="8112" />
	</node>
	<node id="-481373" lat="60.9881888845" lon="5.95352499121">
		<tag k="name" v="Trongedalen" />
		<tag k="natural" v="valley" />
		<tag k="place" v="locality" />
		<tag k="ssr:stedsnr" v="8012" />
	</node>
	<node id="-481371" lat="60.734294446" lon="5.71456944995">
		<tag k="name" v="Svartedalen" />
		<tag k="natural" v="valley" />
		<tag k="place" v="locality" />
		<tag k="ssr:stedsnr" v="6318" />
	</node>
	<node id="-481364" lat="60.9278388869" lon="5.98024165786">
		<tag k="name" v="Landelia" />
		<tag k="natural" v="slope" />
		<tag k="place" v="locality" />
		<tag k="ssr:stedsnr" v="894737" />
	</node>
	<node id="-481363" lat="60.8125305545" lon="5.75335555485">
		<tag k="name" v="Botnane" />
		<tag k="natural" v="valley" />
		<tag k="place" v="locality" />
		<tag k="ssr:stedsnr" v="894658" />
	</node>
	<node id="-481362" lat="60.81577222" lon="5.78388332523">
		<tag k="name" v="Krakelia" />
		<tag k="natural" v="slope" />
		<tag k="place" v="locality" />
		<tag k="ssr:stedsnr" v="894654" />
	</node>
	<node id="-481361" lat="60.7984388852" lon="5.80659445201">
		<tag k="name" v="Øvrebotn" />
		<tag k="natural" v="valley" />
		<tag k="place" v="locality" />
		<tag k="ssr:stedsnr" v="894647" />
	</node>
	<node id="-481360" lat="60.7657222199" lon="5.73821667542">
		<tag k="name" v="Håhelleren" />
		<tag k="place" v="locality" />
		<tag k="ssr:stedsnr" v="894643" />
	</node>
	<node id="-481358" lat="60.8334416693" lon="5.88762221695">
		<tag k="name" v="Eikebakken" />
		<tag k="natural" v="slope" />
		<tag k="place" v="locality" />
		<tag k="ssr:stedsnr" v="894636" />
	</node>
	<node id="-481357" lat="60.8583805555" lon="5.73255556271">
		<tag k="fixme" v="consider natural=peak for the most distinct mountains in the district" />
		<tag k="name" v="Vetlevassegga" />
		<tag k="natural" v="hill" />
		<tag k="ssr:stedsnr" v="894625" />
	</node>
	<node id="-481356" lat="60.7747277793" lon="5.67163055373">
		<tag k="name" v="Kroksheiane" />
		<tag k="natural" v="hill" />
		<tag k="place" v="locality" />
		<tag k="ssr:stedsnr" v="894615" />
	</node>
	<node id="-481354" lat="60.8443277762" lon="5.95908055379">
		<tag k="fixme" v="consider natural=peak for the most distinct mountains in the district" />
		<tag k="name" v="Åsen" />
		<tag k="natural" v="hill" />
		<tag k="place" v="locality" />
		<tag k="ssr:stedsnr" v="894587" />
	</node>
	<node id="-481351" lat="60.846611114" lon="5.86257777169">
		<tag k="name" v="Rustenden" />
		<tag k="natural" v="slope" />
		<tag k="place" v="locality" />
		<tag k="ssr:stedsnr" v="894568" />
	</node>
	<node id="-481348" lat="60.9432861151" lon="5.97531666299">
		<tag k="name" v="Halsen" />
		<tag k="natural" v="ridge" />
		<tag k="place" v="locality" />
		<tag k="ssr:stedsnr" v="409711" />
	</node>
	<node id="-481346" lat="60.8659277765" lon="5.9874194495">
		<tag k="name" v="Kåsane" />
		<tag k="place" v="locality" />
		<tag k="ssr:stedsnr" v="409560" />
	</node>
	<node id="-481345" lat="60.8574805553" lon="5.99908889182">
		<tag k="name" v="Tverrdalen" />
		<tag k="natural" v="valley" />
		<tag k="place" v="locality" />
		<tag k="ssr:stedsnr" v="409546" />
	</node>
	<node id="-481344" lat="60.8572611114" lon="5.98188055282">
		<tag k="name" v="Rusta" />
		<tag k="place" v="locality" />
		<tag k="ssr:stedsnr" v="409544" />
	</node>
	<node id="-481343" lat="60.871119445" lon="5.98239999929">
		<tag k="name" v="Rinnane" />
		<tag k="natural" v="hill" />
		<tag k="place" v="locality" />
		<tag k="ssr:stedsnr" v="409533" />
	</node>
	<node id="-481341" lat="60.8174416697" lon="5.85506944472">
		<tag k="name" v="Holmabrota" />
		<tag k="natural" v="hill" />
		<tag k="place" v="locality" />
		<tag k="ssr:stedsnr" v="409519" />
	</node>
	<node id="-481339" lat="60.8353916701" lon="5.84626111672">
		<tag k="name" v="Furehjellen" />
		<tag k="place" v="locality" />
		<tag k="ssr:stedsnr" v="408612" />
	</node>
	<node id="-481338" lat="60.727466665" lon="5.73225833261">
		<tag k="name" v="Midtnakken" />
		<tag k="natural" v="ridge" />
		<tag k="place" v="locality" />
		<tag k="ssr:stedsnr" v="408581" />
	</node>
	<node id="-481337" lat="60.7510555531" lon="5.70123332629">
		<tag k="name" v="Kjetoberget" />
		<tag k="natural" v="hill" />
		<tag k="place" v="locality" />
		<tag k="ssr:stedsnr" v="408574" />
	</node>
	<node id="-481335" lat="60.8102916625" lon="5.84648611058">
		<tag k="name" v="Smylmbotnane" />
		<tag k="natural" v="valley" />
		<tag k="place" v="locality" />
		<tag k="ssr:stedsnr" v="373124" />
	</node>
	<node id="-481334" lat="60.841008336" lon="6.01053888385">
		<tag k="name" v="Sørskaret" />
		<tag k="natural" v="valley" />
		<tag k="place" v="locality" />
		<tag k="ssr:stedsnr" v="373120" />
	</node>
	<node id="-481330" lat="60.8392777794" lon="5.99381944173">
		<tag k="fixme" v="consider natural=peak for the most distinct mountains in the district" />
		<tag k="name" v="Sørskarfjellet" />
		<tag k="natural" v="hill" />
		<tag k="place" v="locality" />
		<tag k="ssr:stedsnr" v="373106" />
	</node>
	<node id="-481329" lat="60.7935305551" lon="5.82831944145">
		<tag k="name" v="Hellersdalen" />
		<tag k="natural" v="valley" />
		<tag k="place" v="locality" />
		<tag k="ssr:stedsnr" v="372481" />
	</node>
	<node id="-481328" lat="60.827175002" lon="5.8178805465">
		<tag k="fixme" v="consider natural=peak for the most distinct mountains in the district" />
		<tag k="name" v="Storfjellet" />
		<tag k="natural" v="hill" />
		<tag k="place" v="locality" />
		<tag k="ssr:stedsnr" v="372391" />
	</node>
	<node id="-481327" lat="60.8624083342" lon="6.00813333384">
		<tag k="name" v="Oksla" />
		<tag k="natural" v="hill" />
		<tag k="place" v="locality" />
		<tag k="ssr:stedsnr" v="372194" />
	</node>
	<node id="-481326" lat="60.8652666669" lon="5.86431665898">
		<tag k="name" v="Seljedalen" />
		<tag k="natural" v="valley" />
		<tag k="place" v="locality" />
		<tag k="ssr:stedsnr" v="372177" />
	</node>
	<node id="-481324" lat="60.8791055534" lon="6.01838333645">
		<tag k="fixme" v="consider natural=peak for the most distinct mountains in the district" />
		<tag k="name" v="Skrednipa" />
		<tag k="natural" v="hill" />
		<tag k="place" v="locality" />
		<tag k="ssr:stedsnr" v="372171" />
	</node>
	<node id="-481323" lat="60.8625361106" lon="5.85166945245">
		<tag k="name" v="Tverrlia" />
		<tag k="natural" v="slope" />
		<tag k="place" v="locality" />
		<tag k="ssr:stedsnr" v="372162" />
	</node>
	<node id="-481322" lat="60.9250666632" lon="6.01257499851">
		<tag k="name" v="Sauaholene" />
		<tag k="natural" v="valley" />
		<tag k="place" v="locality" />
		<tag k="ssr:stedsnr" v="372129" />
	</node>
	<node id="-481319" lat="60.892777778" lon="6.01858610372">
		<tag k="alt_name" v="Nåmdalsåsen" />
		<tag k="fixme" v="consider natural=peak for the most distinct mountains in the district" />
		<tag k="name" v="Øvrehellandsåsen" />
		<tag k="natural" v="hill" />
		<tag k="place" v="locality" />
		<tag k="ssr:stedsnr" v="372094" />
	</node>
	<node id="-481317" lat="60.9020333378" lon="5.99414445104">
		<tag k="name" v="Kvelven" />
		<tag k="natural" v="valley" />
		<tag k="place" v="locality" />
		<tag k="ssr:stedsnr" v="372078" />
	</node>
	<node id="-481316" lat="60.9204249993" lon="6.15199999747">
		<tag k="fixme" v="consider natural=peak for the most distinct mountains in the district" />
		<tag k="name" v="Hellesåta" />
		<tag k="natural" v="hill" />
		<tag k="place" v="locality" />
		<tag k="ssr:stedsnr" v="372075" />
	</node>
	<node id="-481310" lat="61.0079333345" lon="5.97756387974">
		<tag k="name" v="Norddalen" />
		<tag k="natural" v="valley" />
		<tag k="place" v="locality" />
		<tag k="ssr:stedsnr" v="371429" />
	</node>
	<node id="-481309" lat="60.74518611" lon="5.71672500923">
		<tag k="name" v="Fossedalen" />
		<tag k="natural" v="valley" />
		<tag k="place" v="locality" />
		<tag k="ssr:stedsnr" v="370498" />
	</node>
	<node id="-481308" lat="60.7436527742" lon="5.67348334186">
		<tag k="fixme" v="consider natural=peak for the most distinct mountains in the district" />
		<tag k="name" v="Åsen" />
		<tag k="natural" v="hill" />
		<tag k="place" v="locality" />
		<tag k="ssr:stedsnr" v="370495" />
	</node>
	<node id="-481305" lat="60.9147611125" lon="5.95895555013">
		<tag k="name" v="Furhaugane" />
		<tag k="natural" v="hill" />
		<tag k="place" v="locality" />
		<tag k="ssr:stedsnr" v="348688" />
	</node>
	<node id="-481304" lat="60.8936388931" lon="6.01406944633">
		<tag k="name" v="Ørne Kråa" />
		<tag k="place" v="locality" />
		<tag k="ssr:stedsnr" v="348673" />
	</node>
	<node id="-481302" lat="60.8310055542" lon="5.94898056116">
		<tag k="name" v="Ossmusslia" />
		<tag k="natural" v="slope" />
		<tag k="place" v="locality" />
		<tag k="ssr:stedsnr" v="348543" />
	</node>
	<node id="-481301" lat="60.8824138905" lon="6.00363888728">
		<tag k="name" v="Heidalida" />
		<tag k="natural" v="slope" />
		<tag k="place" v="locality" />
		<tag k="ssr:stedsnr" v="348495" />
	</node>
	<node id="-481300" lat="60.8818583292" lon="5.96757500743">
		<tag k="name" v="Skredtorna" />
		<tag k="place" v="locality" />
		<tag k="ssr:stedsnr" v="348493" />
	</node>
	<node id="-481298" lat="60.8320777757" lon="5.92318888699">
		<tag k="name" v="Blombrekka" />
		<tag k="natural" v="slope" />
		<tag k="place" v="locality" />
		<tag k="ssr:stedsnr" v="347600" />
	</node>
	<node id="-481296" lat="60.8419138918" lon="5.84082777281">
		<tag k="fixme" v="consider natural=peak for the most distinct mountains in the district" />
		<tag k="name" v="Midtfjellet" />
		<tag k="natural" v="hill" />
		<tag k="place" v="locality" />
		<tag k="ssr:stedsnr" v="347589" />
	</node>
	<node id="-481295" lat="60.7598722195" lon="5.68405554773">
		<tag k="name" v="Stokkleiva" />
		<tag k="natural" v="slope" />
		<tag k="place" v="locality" />
		<tag k="ssr:stedsnr" v="347582" />
	</node>
	<node id="-481294" lat="60.7532416644" lon="5.67867499259">
		<tag k="name" v="Fitjane" />
		<tag k="place" v="locality" />
		<tag k="ssr:stedsnr" v="347580" />
	</node>
	<node id="-481292" lat="60.7690083322" lon="5.70399166436">
		<tag k="name" v="Nottveitgjela" />
		<tag k="natural" v="gorge" />
		<tag k="ssr:stedsnr" v="347563" />
	</node>
	<node id="-481291" lat="60.7442694469" lon="5.70006389248">
		<tag k="name" v="Mosura" />
		<tag k="place" v="locality" />
		<tag k="ssr:stedsnr" v="347554" />
	</node>
	<node id="-481288" lat="60.824886114" lon="5.80936666185">
		<tag k="fixme" v="consider natural=peak for the most distinct mountains in the district" />
		<tag k="name" v="Husafjellet" />
		<tag k="natural" v="hill" />
		<tag k="place" v="locality" />
		<tag k="ssr:stedsnr" v="312494" />
	</node>
	<node id="-481287" lat="60.7999277747" lon="5.82501666866">
		<tag k="name" v="Smylmbotnane" />
		<tag k="natural" v="valley" />
		<tag k="place" v="locality" />
		<tag k="ssr:stedsnr" v="312467" />
	</node>
	<node id="-481286" lat="60.8454250036" lon="5.83628332837">
		<tag k="name" v="Leina" />
		<tag k="natural" v="slope" />
		<tag k="place" v="locality" />
		<tag k="ssr:stedsnr" v="312374" />
	</node>
	<node id="-481285" lat="60.8408527784" lon="5.79385278303">
		<tag k="name" v="Kupa" />
		<tag k="natural" v="valley" />
		<tag k="place" v="locality" />
		<tag k="ssr:stedsnr" v="312369" />
	</node>
	<node id="-481283" lat="61.0138249974" lon="6.03736389693">
		<tag k="name" v="Åsabotnen" />
		<tag k="natural" v="valley" />
		<tag k="place" v="locality" />
		<tag k="ssr:stedsnr" v="312348" />
	</node>
	<node id="-481281" lat="60.8414944472" lon="5.84637500325">
		<tag k="name" v="Steiadalen" />
		<tag k="natural" v="valley" />
		<tag k="place" v="locality" />
		<tag k="ssr:stedsnr" v="312160" />
	</node>
</osm>
