<?xml version="1.0" encoding="UTF-8"?>
<osm generator="osmapis" version="0.6">
	<node id="-481280" lat="60.8534055593" lon="6.0072999955">
		<tag k="historic" v="shieling" />
		<tag k="name" v="Tveradalsstølen" />
		<tag k="place" v="locality" />
		<tag k="ssr:stedsnr" v="312159" />
	</node>
	<node id="-481662" lat="60.7689694452" lon="5.75652778394">
		<tag k="fixme" v="consider place=hamlet" />
		<tag k="name" v="Langedalen" />
		<tag k="place" v="farm" />
		<tag k="ssr:stedsnr" v="554034" />
	</node>
	<node id="-481405" lat="60.8150138913" lon="5.80286665731">
		<tag k="fixme" v="consider place=hamlet" />
		<tag k="name" v="Mo" />
		<tag k="place" v="village" />
		<tag k="ssr:stedsnr" v="9483" />
	</node>
	<node id="-481274" lat="60.8235527766" lon="5.84499444647">
		<tag k="alt_name" v="Nesheim" />
		<tag k="name" v="Nesjane" />
		<tag k="place" v="farm" />
		<tag k="ssr:stedsnr" v="312110" />
	</node>
	<node id="-481270" lat="60.9825750022" lon="6.10828610658">
		<tag k="historic" v="shieling" />
		<tag k="name" v="Steinslandsstølen" />
		<tag k="place" v="locality" />
		<tag k="ssr:stedsnr" v="312017" />
	</node>
	<node id="-481397" lat="60.8368444428" lon="5.89354166616">
		<tag k="name" v="Almelineset" />
		<tag k="place" v="farm" />
		<tag k="ssr:stedsnr" v="9113" />
	</node>
	<node id="-481268" lat="60.7758499969" lon="5.68290000798">
		<tag k="historic" v="shieling" />
		<tag k="name" v="Nottveitsætra" />
		<tag k="place" v="locality" />
		<tag k="ssr:stedsnr" v="311487" />
	</node>
	<node id="-481619" lat="60.8932444433" lon="6.06235277212">
		<tag k="historic" v="shieling" />
		<tag k="name" v="Krosstølen" />
		<tag k="place" v="locality" />
		<tag k="ssr:stedsnr" v="494090" />
	</node>
	<node id="-481904" lat="60.8709438067" lon="5.97750902503">
		<tag k="fixme" v="consider place=hamlet" />
		<tag k="name" v="Straume" />
		<tag k="place" v="farm" />
		<tag k="ssr:stedsnr" v="858163" />
	</node>
	<node id="-481390" lat="60.9094250032" lon="6.00409445191">
		<tag k="historic" v="shieling" />
		<tag k="name" v="Nystølen" />
		<tag k="place" v="locality" />
		<tag k="ssr:stedsnr" v="9039" />
	</node>
	<node id="-481517" lat="60.7535499957" lon="5.72525278402">
		<tag k="name" v="Mostraumen" />
		<tag k="place" v="farm" />
		<tag k="ssr:stedsnr" v="208287" />
	</node>
	<node id="-481644" lat="60.7648388925" lon="5.7271638856">
		<tag k="name" v="Mostraum" />
		<tag k="place" v="farm" />
		<tag k="ssr:stedsnr" v="529607" />
	</node>
	<node id="-481805" lat="60.8133277817" lon="5.88910833095">
		<tag k="name" v="Jobotnen" />
		<tag k="place" v="farm" />
		<tag k="ssr:stedsnr" v="737136" />
	</node>
	<node id="-481512" lat="60.8812138901" lon="6.10784999691">
		<tag k="name" v="Skjerjabotnen" />
		<tag k="place" v="isolated_dwelling" />
		<tag k="ssr:stedsnr" v="191137" />
	</node>
	<node id="-481511" lat="60.8762638893" lon="5.97522778258">
		<tag k="name" v="Heimdal" />
		<tag k="place" v="farm" />
		<tag k="ssr:stedsnr" v="191133" />
	</node>
	<node id="-481254" lat="60.8393194428" lon="5.92704166615">
		<tag k="name" v="Øyjordi" />
		<tag k="place" v="farm" />
		<tag k="ssr:stedsnr" v="287640" />
	</node>
	<node id="-481893" lat="60.8600805566" lon="5.97858611054">
		<tag k="name" v="Balane" />
		<tag k="place" v="quarter" />
		<tag k="ssr:stedsnr" v="844535" />
	</node>
	<node id="-481636" lat="60.8188922556" lon="5.81109253117">
		<tag k="fixme" v="consider place=hamlet" />
		<tag k="name" v="Otterstad" />
		<tag k="place" v="farm" />
		<tag k="ssr:stedsnr" v="494461" />
	</node>
	<node id="-481763" lat="60.8335163038" lon="5.87173090937">
		<tag k="alt_name" v="Nedrehelland;Helland" />
		<tag k="fixme" v="consider place=hamlet" />
		<tag k="name" v="Nedre Helland" />
		<tag k="place" v="farm" />
		<tag k="ssr:stedsnr" v="676143" />
	</node>
	<node id="-481504" lat="60.9644805578" lon="6.01412499429">
		<tag k="alt_name" v="Straumsstølen" />
		<tag k="historic" v="shieling" />
		<tag k="name" v="Fjellstølen" />
		<tag k="place" v="locality" />
		<tag k="ssr:stedsnr" v="191023" />
	</node>
	<node id="-481759" lat="60.7556944439" lon="5.71651388888">
		<tag k="name" v="Mostraumshaugen" />
		<tag k="place" v="farm" />
		<tag k="ssr:stedsnr" v="676057" />
	</node>
	<node id="-481630" lat="60.860636113" lon="6.0104750084">
		<tag k="name" v="Kroken" />
		<tag k="place" v="isolated_dwelling" />
		<tag k="ssr:stedsnr" v="494162" />
	</node>
	<node id="-481629" lat="60.8553944427" lon="5.85555832447">
		<tag k="historic" v="shieling" />
		<tag k="name" v="Sørstølen" />
		<tag k="place" v="locality" />
		<tag k="ssr:stedsnr" v="494158" />
	</node>
	<node id="-481499" lat="60.8201916647" lon="5.76339167209">
		<tag k="historic" v="shieling" />
		<tag k="name" v="Otterstadstølen" />
		<tag k="place" v="locality" />
		<tag k="ssr:stedsnr" v="190512" />
	</node>
	<node id="-481367" lat="60.8149776873" lon="5.80434536988">
		<tag k="fixme" v="consider place=hamlet" />
		<tag k="name" v="Mo" />
		<tag k="place" v="farm" />
		<tag k="ssr:stedsnr" v="989189" />
	</node>
	<node id="-481235" lat="60.861908334" lon="5.81529722306">
		<tag k="fixme" v="consider tourism=alpine_hut or tourism=chalet" />
		<tag k="name" v="Skavlabu" />
		<tag k="ssr:stedsnr" v="282115" />
		<tag k="tourism" v="wilderness_hut" />
	</node>
	<node id="-481234" lat="60.8522472215" lon="5.97376389716">
		<tag k="name" v="Øvre Helland" />
		<tag k="place" v="farm" />
		<tag k="ssr:stedsnr" v="269314" />
	</node>
	<node id="-481233" lat="60.8376194459" lon="5.92935833511">
		<tag k="name" v="Farestveit" />
		<tag k="place" v="farm" />
		<tag k="ssr:stedsnr" v="269308" />
	</node>
	<node id="-481232" lat="60.8365555574" lon="5.92395555327">
		<tag k="name" v="Farestveit" />
		<tag k="place" v="farm" />
		<tag k="ssr:stedsnr" v="269307" />
	</node>
	<node id="-481615" lat="60.7987749977" lon="5.80750000933">
		<tag k="historic" v="shieling" />
		<tag k="name" v="Mostølen" />
		<tag k="place" v="locality" />
		<tag k="ssr:stedsnr" v="493449" />
	</node>
	<node id="-481613" lat="60.7410999959" lon="5.72002500013">
		<tag k="historic" v="shieling" />
		<tag k="name" v="Mostraumstølen" />
		<tag k="place" v="locality" />
		<tag k="ssr:stedsnr" v="491320" />
	</node>
	<node id="-481868" lat="60.8369083296" lon="5.92570278115">
		<tag k="name" v="Farestveit" />
		<tag k="place" v="farm" />
		<tag k="ssr:stedsnr" v="815286" />
	</node>
	<node id="-481815" lat="60.8555160125" lon="5.97463037618">
		<tag k="fixme" v="consider place=hamlet" />
		<tag k="name" v="Øvre Helland" />
		<tag k="place" v="farm" />
		<tag k="ssr:stedsnr" v="754342" />
	</node>
	<node id="-481731" lat="60.852847224" lon="5.9704527779">
		<tag k="name" v="Øvre Helland" />
		<tag k="place" v="farm" />
		<tag k="ssr:stedsnr" v="632320" />
	</node>
	<node id="-481677" lat="60.8264666656" lon="5.8439527739">
		<tag k="name" v="Hugnadstad" />
		<tag k="place" v="farm" />
		<tag k="ssr:stedsnr" v="554135" />
	</node>
	<node id="-481728" lat="60.8135666693" lon="5.78153611312">
		<tag k="name" v="Grønhaug" />
		<tag k="place" v="farm" />
		<tag k="ssr:stedsnr" v="615470" />
	</node>
	<node id="-481638" lat="60.8387111114" lon="5.93538611231">
		<tag k="name" v="Farestveit" />
		<tag k="place" v="farm" />
		<tag k="ssr:stedsnr" v="512299" />
	</node>
	<node id="-481508" lat="60.8885333366" lon="6.03113056064">
		<tag k="name" v="Liland" />
		<tag k="place" v="farm" />
		<tag k="ssr:stedsnr" v="191073" />
	</node>
	<node id="-481588" lat="60.7553946155" lon="5.72034079597">
		<tag k="fixme" v="consider place=hamlet" />
		<tag k="name" v="Mostraumen" />
		<tag k="place" v="farm" />
		<tag k="ssr:stedsnr" v="451315" />
	</node>
	<node id="-481510" lat="60.8216999994" lon="5.94809165817">
		<tag k="historic" v="shieling" />
		<tag k="name" v="Todeilsstølen" />
		<tag k="place" v="locality" />
		<tag k="ssr:stedsnr" v="191118" />
	</node>
	<node id="-481717" lat="60.9004444438" lon="6.03024165863">
		<tag k="name" v="Sundet" />
		<tag k="place" v="isolated_dwelling" />
		<tag k="ssr:stedsnr" v="615074" />
	</node>
	<node id="-481844" lat="60.7549194478" lon="5.7216055553">
		<tag k="name" v="Mostraumsviki" />
		<tag k="place" v="farm" />
		<tag k="ssr:stedsnr" v="797059" />
	</node>
	<node id="-481459" lat="60.8257805528" lon="5.84525555701">
		<tag k="name" v="Granheim" />
		<tag k="place" v="farm" />
		<tag k="ssr:stedsnr" v="130103" />
	</node>
	<node id="-481842" lat="60.7658" lon="5.72857499682">
		<tag k="name" v="Straumen" />
		<tag k="place" v="farm" />
		<tag k="ssr:stedsnr" v="797044" />
	</node>
	<node id="-481585" lat="60.8448749963" lon="5.92041388494">
		<tag k="alt_name" v="Sollistølen" />
		<tag k="historic" v="shieling" />
		<tag k="name" v="Tringsstølen" />
		<tag k="place" v="locality" />
		<tag k="ssr:stedsnr" v="434166" />
	</node>
	<node id="-481582" lat="60.8603638861" lon="5.84528610348">
		<tag k="historic" v="shieling" />
		<tag k="name" v="Bleidalsstølen" />
		<tag k="place" v="locality" />
		<tag k="ssr:stedsnr" v="434144" />
	</node>
	<node id="-481579" lat="60.8215833342" lon="5.88918611692">
		<tag k="historic" v="shieling" />
		<tag k="name" v="Almelistølen" />
		<tag k="place" v="locality" />
		<tag k="ssr:stedsnr" v="434110" />
	</node>
	<node id="-481833" lat="60.8655638872" lon="5.9839111094">
		<tag k="name" v="Haugane" />
		<tag k="place" v="farm" />
		<tag k="ssr:stedsnr" v="773555" />
	</node>
	<node id="-481336" lat="60.8402249987" lon="5.95327223096">
		<tag k="name" v="Farestveit" />
		<tag k="place" v="farm" />
		<tag k="ssr:stedsnr" v="390292" />
	</node>
	<node id="-481829" lat="60.8637414049" lon="5.97995840897">
		<tag k="fixme" v="consider place=hamlet" />
		<tag k="name" v="Namdal" />
		<tag k="place" v="farm" />
		<tag k="ssr:stedsnr" v="773516" />
	</node>
	<node id="-481314" lat="60.7580749973" lon="5.75402776968">
		<tag k="historic" v="shieling" />
		<tag k="name" v="Fagerstølen" />
		<tag k="place" v="locality" />
		<tag k="ssr:stedsnr" v="372059" />
	</node>
	<node id="-481313" lat="60.7600055597" lon="5.69410555393">
		<tag k="fixme" v="consider place=hamlet" />
		<tag k="name" v="Nottveit" />
		<tag k="place" v="farm" />
		<tag k="ssr:stedsnr" v="372056" />
	</node>
	<node id="-481438" lat="60.832133332" lon="5.86300000433">
		<tag k="name" v="Krossdal" />
		<tag k="place" v="farm" />
		<tag k="ssr:stedsnr" v="69143" />
	</node>
	<node id="-481692" lat="60.8559472224" lon="5.97565000741">
		<tag k="name" v="Øvre Helland" />
		<tag k="place" v="farm" />
		<tag k="ssr:stedsnr" v="572318" />
	</node>
	<node id="-481816" lat="60.838575" lon="5.94255833337">
		<tag k="name" v="Farestveit" />
		<tag k="place" v="farm" />
		<tag k="ssr:stedsnr" v="754346" />
	</node>
	<node id="-481433" lat="60.9122416673" lon="5.96655555452">
		<tag k="historic" v="shieling" />
		<tag k="name" v="Straumsstølen" />
		<tag k="place" v="locality" />
		<tag k="ssr:stedsnr" v="69122" />
	</node>
	<node id="-481432" lat="60.943175004" lon="5.97162777077">
		<tag k="name" v="Heimdal" />
		<tag k="place" v="farm" />
		<tag k="ssr:stedsnr" v="69101" />
	</node>
	<node id="-481303" lat="60.8653611122" lon="5.97283610742">
		<tag k="name" v="Straume" />
		<tag k="place" v="farm" />
		<tag k="ssr:stedsnr" v="348550" />
	</node>
	<node id="-481683" lat="60.8614138881" lon="5.9791055568">
		<tag k="amenity" v="nursing_home" />
		<tag k="name" v="Modalen aldersheim" />
		<tag k="ssr:stedsnr" v="554192" />
	</node>
	<node id="-481658" lat="60.8918249971" lon="6.03591666337">
		<tag k="name" v="Krossen" />
		<tag k="place" v="farm" />
		<tag k="ssr:stedsnr" v="544757" />
	</node>
	<node id="-481675" lat="60.8377253516" lon="5.93402076394">
		<tag k="fixme" v="consider place=hamlet" />
		<tag k="name" v="Farestveit" />
		<tag k="place" v="farm" />
		<tag k="ssr:stedsnr" v="554128" />
	</node>
	<node id="-481552" lat="60.9373388904" lon="5.97233056347">
		<tag k="fixme" v="consider place=hamlet" />
		<tag k="name" v="Steinsland" />
		<tag k="place" v="farm" />
		<tag k="ssr:stedsnr" v="251122" />
	</node>
	<node id="-481935" lat="60.946893249" lon="5.88989271564">
		<tag k="fixme" v="consider tourism=alpine_hut or tourism=chalet" />
		<tag k="name" v="Vardadalsbu" />
		<tag k="ssr:stedsnr" v="938728" />
		<tag k="tourism" v="wilderness_hut" />
	</node>
	<node id="-481678" lat="60.8390249962" lon="5.90429999769">
		<tag k="fixme" v="consider place=hamlet" />
		<tag k="name" v="Almelii" />
		<tag k="place" v="farm" />
		<tag k="ssr:stedsnr" v="554138" />
	</node>
	<node id="-481549" lat="60.9573305537" lon="6.0264333409">
		<tag k="historic" v="shieling" />
		<tag k="name" v="Heimrestølen" />
		<tag k="place" v="locality" />
		<tag k="ssr:stedsnr" v="251102" />
	</node>
	<node id="-481931" lat="60.8655277738" lon="5.97441945158">
		<tag k="name" v="Nygard" />
		<tag k="place" v="farm" />
		<tag k="ssr:stedsnr" v="919167" />
	</node>
	<node id="-481289" lat="60.8379388866" lon="5.9329972304">
		<tag k="name" v="Farestveit" />
		<tag k="place" v="farm" />
		<tag k="ssr:stedsnr" v="330315" />
	</node>
	<node id="-481798" lat="60.9078111096" lon="5.84919721933">
		<tag k="alt_name" v="Skjerjavasshytta Th" />
		<tag k="name" v="Skjerjavasshytta" />
		<tag k="place" v="isolated_dwelling" />
		<tag k="ssr:stedsnr" v="737064" />
	</node>
	<node id="-481284" lat="61.0151111109" lon="5.99651667529">
		<tag k="fixme" v="consider tourism=alpine_hut or tourism=chalet" />
		<tag k="name" v="Norddalshytten" />
		<tag k="old_name" v="Norddalen" />
		<tag k="ssr:stedsnr" v="312349" />
		<tag k="tourism" v="wilderness_hut" />
	</node>
	<node id="-481667" lat="60.8914982965" lon="6.0361538308">
		<tag k="alt_name" v="Nygård" />
		<tag k="fixme" v="consider place=hamlet" />
		<tag k="name" v="Nygard" />
		<tag k="place" v="farm" />
		<tag k="ssr:stedsnr" v="554084" />
	</node>
	<node id="-481282" lat="60.8561777782" lon="5.8733861202">
		<tag k="historic" v="shieling" />
		<tag k="name" v="Tveradalsstølen" />
		<tag k="place" v="locality" />
		<tag k="ssr:stedsnr" v="312167" />
	</node>
</osm>
