<?xml version="1.0" encoding="UTF-8"?>
<osm generator="osmapis" version="0.6">
	<node changeset="66172086" id="6196191385" lat="59.6557" lon="10.2345278" timestamp="2019-01-09T18:47:05Z" uid="3497659" user="NKA" version="1">
		<tag k="name" v="Berg" />
		<tag k="place" v="farm" />
		<tag k="ssr:stedsnr" v="610162" />
		<tag k="ssr:type" v="bruk" />
	</node>
	<node changeset="66172086" id="6196191386" lat="59.623649" lon="10.2483633" timestamp="2019-01-09T18:47:05Z" uid="3497659" user="NKA" version="1">
		<tag k="name" v="Lærum sameie" />
		<tag k="place" v="farm" />
		<tag k="ssr:stedsnr" v="610092" />
		<tag k="ssr:type" v="bruk" />
	</node>
	<node changeset="66172086" id="6196191387" lat="59.6071056" lon="10.1485195" timestamp="2019-01-09T18:47:05Z" uid="3497659" user="NKA" version="1">
		<tag k="name" v="Sandåker" />
		<tag k="place" v="isolated_dwelling" />
		<tag k="ssr:stedsnr" v="610138" />
		<tag k="ssr:type" v="eneboligMindreBoligbygg" />
	</node>
	<node changeset="66172086" id="6196191388" lat="59.6404861" lon="10.2565306" timestamp="2019-01-09T18:47:05Z" uid="3497659" user="NKA" version="1">
		<tag k="name" v="Klinkelia" />
		<tag k="place" v="farm" />
		<tag k="ssr:stedsnr" v="610181" />
		<tag k="ssr:type" v="bruk" />
	</node>
	<node changeset="66172086" id="6196191389" lat="59.59395" lon="10.1427417" timestamp="2019-01-09T18:47:05Z" uid="3497659" user="NKA" version="1">
		<tag k="name" v="Høybråten" />
		<tag k="place" v="farm" />
		<tag k="ssr:stedsnr" v="28669" />
		<tag k="ssr:type" v="bruk" />
	</node>
	<node changeset="66172086" id="6196191390" lat="59.6262139" lon="10.2357944" timestamp="2019-01-09T18:47:05Z" uid="3497659" user="NKA" version="1">
		<tag k="name" v="Lærum mellom" />
		<tag k="place" v="farm" />
		<tag k="ssr:stedsnr" v="28656" />
		<tag k="ssr:type" v="bruk" />
	</node>
	<node changeset="66172086" id="6196191391" lat="59.573325" lon="10.1898639" timestamp="2019-01-09T18:47:05Z" uid="3497659" user="NKA" version="1">
		<tag k="name" v="Bråtan" />
		<tag k="place" v="isolated_dwelling" />
		<tag k="ssr:stedsnr" v="28581" />
		<tag k="ssr:type" v="fritidsbolig" />
	</node>
	<node changeset="66172086" id="6196191392" lat="59.5803278" lon="10.1906278" timestamp="2019-01-09T18:47:05Z" uid="3497659" user="NKA" version="1">
		<tag k="name" v="Teien østre" />
		<tag k="place" v="farm" />
		<tag k="ssr:stedsnr" v="28570" />
		<tag k="ssr:type" v="bruk" />
	</node>
	<node changeset="66172086" id="6196191393" lat="59.6118333" lon="10.2185444" timestamp="2019-01-09T18:47:05Z" uid="3497659" user="NKA" version="1">
		<tag k="name" v="Holsrud" />
		<tag k="place" v="farm" />
		<tag k="ssr:stedsnr" v="28956" />
		<tag k="ssr:type" v="bruk" />
	</node>
	<node changeset="66172086" id="6196191394" lat="59.556625" lon="10.3058389" timestamp="2019-01-09T18:47:05Z" uid="3497659" user="NKA" version="1">
		<tag k="name" v="Bekke store" />
		<tag k="place" v="farm" />
		<tag k="ssr:stedsnr" v="634248" />
		<tag k="ssr:type" v="bruk" />
	</node>
	<node changeset="66172086" id="6196191395" lat="59.6008806" lon="10.2389528" timestamp="2019-01-09T18:47:05Z" uid="3497659" user="NKA" version="1">
		<tag k="name" v="Veberg vestre" />
		<tag k="place" v="farm" />
		<tag k="ssr:stedsnr" v="28960" />
		<tag k="ssr:type" v="bruk" />
	</node>
	<node changeset="66172086" id="6196191396" lat="59.5951139" lon="10.1733611" timestamp="2019-01-09T18:47:05Z" uid="3497659" user="NKA" version="1">
		<tag k="name" v="Vardal søndre" />
		<tag k="place" v="farm" />
		<tag k="ssr:stedsnr" v="28917" />
		<tag k="ssr:type" v="bruk" />
	</node>
	<node changeset="66172086" id="6196191397" lat="59.5912306" lon="10.1796944" timestamp="2019-01-09T18:47:05Z" uid="3497659" user="NKA" version="1">
		<tag k="name" v="Bonden nedre" />
		<tag k="place" v="farm" />
		<tag k="ssr:stedsnr" v="634579" />
		<tag k="ssr:type" v="bruk" />
	</node>
	<node changeset="66172086" id="6196191398" lat="59.5978111" lon="10.2183361" timestamp="2019-01-09T18:47:05Z" uid="3497659" user="NKA" version="1">
		<tag k="name" v="Gran søndre" />
		<tag k="old_name" v="Løkka" />
		<tag k="place" v="farm" />
		<tag k="ssr:stedsnr" v="28923" />
		<tag k="ssr:type" v="bruk" />
	</node>
	<node changeset="66172086" id="6196191399" lat="59.57615" lon="10.2722305" timestamp="2019-01-09T18:47:05Z" uid="3497659" user="NKA" version="1">
		<tag k="name" v="Bråtan" />
		<tag k="place" v="isolated_dwelling" />
		<tag k="ssr:stedsnr" v="634267" />
		<tag k="ssr:type" v="fritidsbolig" />
	</node>
	<node changeset="66172086" id="6196191400" lat="59.5819194" lon="10.1896472" timestamp="2019-01-09T18:47:06Z" uid="3497659" user="NKA" version="1">
		<tag k="name" v="Teien østre" />
		<tag k="place" v="farm" />
		<tag k="ssr:stedsnr" v="634583" />
		<tag k="ssr:type" v="bruk" />
	</node>
	<node changeset="66172086" id="6196191401" lat="59.5762278" lon="10.1941139" timestamp="2019-01-09T18:47:06Z" uid="3497659" user="NKA" version="1">
		<tag k="name" v="Hauen-Teien" />
		<tag k="place" v="farm" />
		<tag k="ssr:stedsnr" v="634592" />
		<tag k="ssr:type" v="bruk" />
	</node>
	<node changeset="66172086" id="6196191402" lat="59.6418361" lon="10.2409639" timestamp="2019-01-09T18:47:06Z" uid="3497659" user="NKA" version="1">
		<tag k="name" v="Eikeberg" />
		<tag k="place" v="isolated_dwelling" />
		<tag k="ssr:stedsnr" v="28974" />
		<tag k="ssr:type" v="fritidsbolig" />
	</node>
	<node changeset="66172086" id="6196191403" lat="59.625625" lon="10.2283222" timestamp="2019-01-09T18:47:06Z" uid="3497659" user="NKA" version="1">
		<tag k="name" v="Bølum" />
		<tag k="place" v="farm" />
		<tag k="ssr:stedsnr" v="634658" />
		<tag k="ssr:type" v="bruk" />
	</node>
	<node changeset="66172086" id="6196191404" lat="59.5734083" lon="10.2207028" timestamp="2019-01-09T18:47:06Z" uid="3497659" user="NKA" version="1">
		<tag k="name" v="Breivold" />
		<tag k="place" v="farm" />
		<tag k="ssr:stedsnr" v="634608" />
		<tag k="ssr:type" v="bruk" />
	</node>
	<node changeset="66172086" id="6196191405" lat="59.5656833" lon="10.2249472" timestamp="2019-01-09T18:47:06Z" uid="3497659" user="NKA" version="1">
		<tag k="name" v="Ve lille" />
		<tag k="place" v="farm" />
		<tag k="ssr:stedsnr" v="634621" />
		<tag k="ssr:type" v="bruk" />
	</node>
	<node changeset="66172086" id="6196191406" lat="59.62985" lon="10.1082472" timestamp="2019-01-09T18:47:06Z" uid="3497659" user="NKA" version="1">
		<tag k="historic" v="shieling" />
		<tag k="name" v="Skogseterstulen" />
		<tag k="place" v="isolated_dwelling" />
		<tag k="ssr:stedsnr" v="64063" />
		<tag k="ssr:type" v="fritidsbolig" />
	</node>
	<node changeset="66172086" id="6196191407" lat="59.6242226" lon="10.2488494" timestamp="2019-01-09T18:47:06Z" uid="3497659" user="NKA" version="1">
		<tag k="name" v="Bergheim" />
		<tag k="place" v="farm" />
		<tag k="ssr:stedsnr" v="634664" />
		<tag k="ssr:type" v="bruk" />
	</node>
	<node changeset="66172086" id="6196191408" lat="59.6075556" lon="10.2171" timestamp="2019-01-09T18:47:06Z" uid="3497659" user="NKA" version="1">
		<tag k="name" v="Hallerud" />
		<tag k="place" v="farm" />
		<tag k="ssr:stedsnr" v="64095" />
		<tag k="ssr:type" v="bruk" />
	</node>
	<node changeset="66172086" id="6196191409" lat="59.609525" lon="10.1609722" timestamp="2019-01-09T18:47:06Z" uid="3497659" user="NKA" version="1">
		<tag k="alt_name" v="Rud vestre" />
		<tag k="name" v="Rud" />
		<tag k="place" v="farm" />
		<tag k="ssr:stedsnr" v="64097" />
		<tag k="ssr:type" v="bruk" />
	</node>
	<node changeset="66172086" id="6196191410" lat="59.6561224" lon="10.1129444" timestamp="2019-01-09T18:47:06Z" uid="3497659" user="NKA" version="1">
		<tag k="historic" v="shieling" />
		<tag k="name" v="Holsrudseter" />
		<tag k="place" v="locality" />
		<tag k="ssr:stedsnr" v="634768" />
		<tag k="ssr:type" v="gammelBosettingsplass" />
	</node>
	<node changeset="66172086" id="6196191411" lat="59.6069306" lon="10.1559972" timestamp="2019-01-09T18:47:06Z" uid="3497659" user="NKA" version="1">
		<tag k="name" v="Ødeskau" />
		<tag k="place" v="farm" />
		<tag k="ssr:stedsnr" v="64098" />
		<tag k="ssr:type" v="bruk" />
	</node>
	<node changeset="66172086" id="6196191412" lat="59.6504972" lon="10.2535806" timestamp="2019-01-09T18:47:06Z" uid="3497659" user="NKA" version="1">
		<tag k="name" v="Hagamyra" />
		<tag k="place" v="farm" />
		<tag k="ssr:stedsnr" v="634971" />
		<tag k="ssr:type" v="bruk" />
	</node>
	<node changeset="66172086" id="6196191413" lat="59.5612056" lon="10.2701222" timestamp="2019-01-09T18:47:06Z" uid="3497659" user="NKA" version="1">
		<tag k="name" v="Kverntangen" />
		<tag k="place" v="quarter" />
		<tag k="ssr:stedsnr" v="670037" />
		<tag k="ssr:type" v="fabrikk" />
	</node>
	<node changeset="66172086" id="6196191414" lat="59.5486917" lon="10.2241528" timestamp="2019-01-09T18:47:07Z" uid="3497659" user="NKA" version="1">
		<tag k="name" v="Heia" />
		<tag k="place" v="isolated_dwelling" />
		<tag k="ssr:stedsnr" v="64929" />
		<tag k="ssr:type" v="fritidsbolig" />
	</node>
	<node changeset="66172086" id="6196191415" lat="59.5575489" lon="10.2410004" timestamp="2019-01-09T18:47:07Z" uid="3497659" user="NKA" version="1">
		<tag k="name" v="Holmsåsen" />
		<tag k="place" v="hamlet" />
		<tag k="ssr:stedsnr" v="670039" />
		<tag k="ssr:type" v="fritidsbolig" />
	</node>
	<node changeset="66172086" id="6196191416" lat="59.5394667" lon="10.3562528" timestamp="2019-01-09T18:47:07Z" uid="3497659" user="NKA" version="1">
		<tag k="name" v="Mørkassel" />
		<tag k="place" v="farm" />
		<tag k="ssr:stedsnr" v="64558" />
		<tag k="ssr:type" v="bruk" />
	</node>
	<node changeset="66172086" id="6196191417" lat="59.5850444" lon="10.241875" timestamp="2019-01-09T18:47:07Z" uid="3497659" user="NKA" version="1">
		<tag k="alt_name" v="Rud, nedre" />
		<tag k="name" v="Nedre Rud" />
		<tag k="place" v="farm" />
		<tag k="ssr:stedsnr" v="670017" />
		<tag k="ssr:type" v="bruk" />
	</node>
	<node changeset="66172086" id="6196191418" lat="59.5423639" lon="10.3726528" timestamp="2019-01-09T18:47:07Z" uid="3497659" user="NKA" version="1">
		<tag k="name" v="Dyrdal" />
		<tag k="place" v="farm" />
		<tag k="ssr:stedsnr" v="64557" />
		<tag k="ssr:type" v="bruk" />
	</node>
	<node changeset="66172086" id="6196191419" lat="59.570225" lon="10.2002889" timestamp="2019-01-09T18:47:07Z" uid="3497659" user="NKA" version="1">
		<tag k="name" v="Stokke mellom" />
		<tag k="place" v="farm" />
		<tag k="ssr:stedsnr" v="85289" />
		<tag k="ssr:type" v="bruk" />
	</node>
	<node changeset="66172086" id="6196191420" lat="59.6389528" lon="10.2191" timestamp="2019-01-09T18:47:07Z" uid="3497659" user="NKA" version="1">
		<tag k="alt_name" v="Jahren" />
		<tag k="name" v="Jaren" />
		<tag k="place" v="farm" />
		<tag k="ssr:stedsnr" v="670190" />
		<tag k="ssr:type" v="bruk" />
	</node>
	<node changeset="66172086" id="6196191421" lat="59.612525" lon="10.2242278" timestamp="2019-01-09T18:47:07Z" uid="3497659" user="NKA" version="1">
		<tag k="alt_name" v="Rud, nordre;Ruud nordre" />
		<tag k="name" v="Nordre Rud" />
		<tag k="place" v="farm" />
		<tag k="ssr:stedsnr" v="65053" />
		<tag k="ssr:type" v="bruk" />
	</node>
	<node changeset="66172086" id="6196191422" lat="59.5582111" lon="10.2019" timestamp="2019-01-09T18:47:07Z" uid="3497659" user="NKA" version="1">
		<tag k="historic" v="shieling" />
		<tag k="name" v="Orebergsetra" />
		<tag k="place" v="isolated_dwelling" />
		<tag k="ssr:stedsnr" v="670043" />
		<tag k="ssr:type" v="fritidsbolig" />
	</node>
	<node changeset="66172086" id="6196191423" lat="59.616" lon="10.2391861" timestamp="2019-01-09T18:47:07Z" uid="3497659" user="NKA" version="1">
		<tag k="name" v="Budderud" />
		<tag k="place" v="farm" />
		<tag k="ssr:stedsnr" v="65056" />
		<tag k="ssr:type" v="bruk" />
	</node>
	<node changeset="66172086" id="6196191424" lat="59.5563" lon="10.277775" timestamp="2019-01-09T18:47:07Z" uid="3497659" user="NKA" version="1">
		<tag k="alt_name" v="Orevika" />
		<tag k="name" v="Orvika" />
		<tag k="place" v="farm" />
		<tag k="ssr:stedsnr" v="670918" />
		<tag k="ssr:type" v="bruk" />
	</node>
	<node changeset="66172086" id="6196191425" lat="59.5804278" lon="10.2415778" timestamp="2019-01-09T18:47:07Z" uid="3497659" user="NKA" version="1">
		<tag k="name" v="Østby" />
		<tag k="place" v="farm" />
		<tag k="ssr:stedsnr" v="671001" />
		<tag k="ssr:type" v="bruk" />
	</node>
	<node changeset="66172086" id="6196191426" lat="59.6034139" lon="10.188625" timestamp="2019-01-09T18:47:07Z" uid="3497659" user="NKA" version="1">
		<tag k="name" v="Bolstad søndre" />
		<tag k="place" v="farm" />
		<tag k="ssr:stedsnr" v="88907" />
		<tag k="ssr:type" v="bruk" />
	</node>
	<node changeset="66172086" id="6196191427" lat="59.627825" lon="10.198275" timestamp="2019-01-09T18:47:07Z" uid="3497659" user="NKA" version="1">
		<tag k="name" v="Myre" />
		<tag k="place" v="farm" />
		<tag k="ssr:stedsnr" v="671083" />
		<tag k="ssr:type" v="bruk" />
	</node>
	<node changeset="66172086" id="6196191428" lat="59.5748924" lon="10.1935076" timestamp="2019-01-09T18:47:08Z" uid="3497659" user="NKA" version="1">
		<tag k="alt_name" v="Lippestad" />
		<tag k="name" v="Leppestad" />
		<tag k="place" v="hamlet" />
		<tag k="ssr:stedsnr" v="671057" />
		<tag k="ssr:type" v="bruk" />
	</node>
	<node changeset="66172086" id="6196191429" lat="59.65105" lon="10.2235667" timestamp="2019-01-09T18:47:08Z" uid="3497659" user="NKA" version="1">
		<tag k="name" v="Hole" />
		<tag k="place" v="farm" />
		<tag k="ssr:stedsnr" v="671137" />
		<tag k="ssr:type" v="bruk" />
	</node>
	<node changeset="66172086" id="6196191430" lat="59.6326806" lon="10.2135722" timestamp="2019-01-09T18:47:08Z" uid="3497659" user="NKA" version="1">
		<tag k="name" v="Bjørge" />
		<tag k="place" v="hamlet" />
		<tag k="ssr:stedsnr" v="671165" />
		<tag k="ssr:type" v="bruk" />
	</node>
	<node changeset="66172086" id="6196191431" lat="59.5180694" lon="10.3464139" timestamp="2019-01-09T18:47:08Z" uid="3497659" user="NKA" version="1">
		<tag k="name" v="Hygga" />
		<tag k="place" v="isolated_dwelling" />
		<tag k="ssr:stedsnr" v="695004" />
		<tag k="ssr:type" v="fritidsbolig" />
	</node>
	<node changeset="66172086" id="6196191432" lat="59.6244944" lon="10.2014056" timestamp="2019-01-09T18:47:08Z" uid="3497659" user="NKA" version="1">
		<tag k="name" v="Hallan" />
		<tag k="place" v="farm" />
		<tag k="ssr:stedsnr" v="89628" />
		<tag k="ssr:type" v="bruk" />
	</node>
	<node changeset="66172086" id="6196191433" lat="59.5646139" lon="10.2260361" timestamp="2019-01-09T18:47:08Z" uid="3497659" user="NKA" version="1">
		<tag k="name" v="Ve mellom" />
		<tag k="place" v="farm" />
		<tag k="ssr:stedsnr" v="89596" />
		<tag k="ssr:type" v="bruk" />
	</node>
	<node changeset="66172086" id="6196191434" lat="59.5487278" lon="10.2982444" timestamp="2019-01-09T18:47:08Z" uid="3497659" user="NKA" version="1">
		<tag k="name" v="Bakke søndre" />
		<tag k="place" v="farm" />
		<tag k="ssr:stedsnr" v="695030" />
		<tag k="ssr:type" v="bruk" />
	</node>
	<node changeset="66172086" id="6196191435" lat="59.5992361" lon="10.2254639" timestamp="2019-01-09T18:47:08Z" uid="3497659" user="NKA" version="1">
		<tag k="name" v="Sjøl vestre" />
		<tag k="place" v="farm" />
		<tag k="ssr:stedsnr" v="695938" />
		<tag k="ssr:type" v="bruk" />
	</node>
	<node changeset="66172086" id="6196191436" lat="59.6410694" lon="10.0885778" timestamp="2019-01-09T18:47:08Z" uid="3497659" user="NKA" version="1">
		<tag k="historic" v="shieling" />
		<tag k="name" v="Hallerudseter" />
		<tag k="place" v="locality" />
		<tag k="ssr:stedsnr" v="89725" />
		<tag k="ssr:type" v="gammelBosettingsplass" />
	</node>
	<node changeset="66172086" id="6196191437" lat="59.5463806" lon="10.2329722" timestamp="2019-01-09T18:47:08Z" uid="3497659" user="NKA" version="1">
		<tag k="name" v="Haugen" />
		<tag k="place" v="farm" />
		<tag k="ssr:stedsnr" v="89827" />
		<tag k="ssr:type" v="bruk" />
	</node>
	<node changeset="66172086" id="6196191438" lat="59.6132" lon="10.1675028" timestamp="2019-01-09T18:47:08Z" uid="3497659" user="NKA" version="1">
		<tag k="name" v="Vestheim" />
		<tag k="place" v="farm" />
		<tag k="ssr:stedsnr" v="89900" />
		<tag k="ssr:type" v="bruk" />
	</node>
	<node changeset="66172086" id="6196191439" lat="59.6133556" lon="10.2044" timestamp="2019-01-09T18:47:08Z" uid="3497659" user="NKA" version="1">
		<tag k="name" v="Dalsrud" />
		<tag k="place" v="locality" />
		<tag k="ssr:stedsnr" v="89907" />
		<tag k="ssr:type" v="eiendom" />
	</node>
	<node changeset="66172086" id="6196191440" lat="59.56955" lon="10.2681917" timestamp="2019-01-09T18:47:08Z" uid="3497659" user="NKA" version="1">
		<tag k="name" v="Selvik øvre" />
		<tag k="place" v="farm" />
		<tag k="ssr:stedsnr" v="695254" />
		<tag k="ssr:type" v="bruk" />
	</node>
	<node changeset="66172086" id="6196191441" lat="59.6341361" lon="10.2611111" timestamp="2019-01-09T18:47:08Z" uid="3497659" user="NKA" version="1">
		<tag k="name" v="Lundeby" />
		<tag k="place" v="isolated_dwelling" />
		<tag k="ssr:stedsnr" v="89903" />
		<tag k="ssr:type" v="eneboligMindreBoligbygg" />
	</node>
	<node changeset="66172086" id="6196191442" lat="59.6145333" lon="10.2015611" timestamp="2019-01-09T18:47:08Z" uid="3497659" user="NKA" version="1">
		<tag k="name" v="Granheim" />
		<tag k="place" v="farm" />
		<tag k="ssr:stedsnr" v="89909" />
		<tag k="ssr:type" v="bruk" />
	</node>
	<node changeset="66172086" id="6196189395" lat="59.5761528" lon="10.2618611" timestamp="2019-01-09T18:46:50Z" uid="3497659" user="NKA" version="1">
		<tag k="name" v="Løkka" />
		<tag k="place" v="farm" />
		<tag k="ssr:stedsnr" v="817558" />
		<tag k="ssr:type" v="bruk" />
	</node>
	<node changeset="66172086" id="6196191444" lat="59.5658806" lon="10.2640028" timestamp="2019-01-09T18:47:09Z" uid="3497659" user="NKA" version="1">
		<tag k="name" v="Grønli" />
		<tag k="place" v="farm" />
		<tag k="ssr:stedsnr" v="695614" />
		<tag k="ssr:type" v="bruk" />
	</node>
	<node changeset="66172086" id="6196191445" lat="59.57415" lon="10.1939083" timestamp="2019-01-09T18:47:09Z" uid="3497659" user="NKA" version="1">
		<tag k="name" v="Stokke nordre" />
		<tag k="place" v="farm" />
		<tag k="ssr:stedsnr" v="695571" />
		<tag k="ssr:type" v="bruk" />
	</node>
	<node changeset="66172086" id="6196191446" lat="59.6477722" lon="10.2582472" timestamp="2019-01-09T18:47:09Z" uid="3497659" user="NKA" version="1">
		<tag k="name" v="Lialøkka" />
		<tag k="place" v="farm" />
		<tag k="ssr:stedsnr" v="89962" />
		<tag k="ssr:type" v="bruk" />
	</node>
	<node changeset="66172086" id="6196191447" lat="59.6021111" lon="10.234675" timestamp="2019-01-09T18:47:09Z" uid="3497659" user="NKA" version="1">
		<tag k="name" v="Sjøl østre" />
		<tag k="place" v="farm" />
		<tag k="ssr:stedsnr" v="89936" />
		<tag k="ssr:type" v="bruk" />
	</node>
	<node changeset="66172086" id="6196191448" lat="59.6262333" lon="10.2007222" timestamp="2019-01-09T18:47:09Z" uid="3497659" user="NKA" version="1">
		<tag k="name" v="Ruud nordre" />
		<tag k="place" v="farm" />
		<tag k="ssr:stedsnr" v="695627" />
		<tag k="ssr:type" v="bruk" />
	</node>
	<node changeset="66172086" id="6196191449" lat="59.6192139" lon="10.2099528" timestamp="2019-01-09T18:47:09Z" uid="3497659" user="NKA" version="1">
		<tag k="name" v="Ruud nordre" />
		<tag k="place" v="farm" />
		<tag k="ssr:stedsnr" v="116238" />
		<tag k="ssr:type" v="bruk" />
	</node>
	<node changeset="66172086" id="6196191450" lat="59.6114722" lon="10.2111972" timestamp="2019-01-09T18:47:09Z" uid="3497659" user="NKA" version="1">
		<tag k="name" v="Åsheim" />
		<tag k="place" v="hamlet" />
		<tag k="ssr:stedsnr" v="695897" />
		<tag k="ssr:type" v="bruk" />
	</node>
	<node changeset="66172086" id="6196191451" lat="59.5963972" lon="10.1871278" timestamp="2019-01-09T18:47:09Z" uid="3497659" user="NKA" version="1">
		<tag k="name" v="Stubberud" />
		<tag k="place" v="farm" />
		<tag k="ssr:stedsnr" v="695889" />
		<tag k="ssr:type" v="bruk" />
	</node>
	<node changeset="66172086" id="6196191452" lat="59.5635389" lon="10.3317278" timestamp="2019-01-09T18:47:09Z" uid="3497659" user="NKA" version="1">
		<tag k="alt_name" v="Warberg-Teigen" />
		<tag k="name" v="Varbergteigen" />
		<tag k="place" v="farm" />
		<tag k="ssr:stedsnr" v="124035" />
		<tag k="ssr:type" v="bruk" />
	</node>
	<node changeset="66172086" id="6196189405" lat="59.5722911" lon="10.2603542" timestamp="2019-01-09T18:46:51Z" uid="3497659" user="NKA" version="1">
		<tag k="name" v="Bjørndalen" />
		<tag k="place" v="farm" />
		<tag k="ssr:stedsnr" v="245048" />
		<tag k="ssr:type" v="bruk" />
	</node>
	<node changeset="66172086" id="6196189406" lat="59.6256194" lon="10.2522056" timestamp="2019-01-09T18:46:51Z" uid="3497659" user="NKA" version="1">
		<tag k="name" v="Fostvedtbråtan" />
		<tag k="place" v="farm" />
		<tag k="ssr:stedsnr" v="817937" />
		<tag k="ssr:type" v="bruk" />
	</node>
	<node changeset="66172086" id="6196189407" lat="59.5994361" lon="10.1938583" timestamp="2019-01-09T18:46:51Z" uid="3497659" user="NKA" version="1">
		<tag k="alt_name" v="Tandberg" />
		<tag k="name" v="Tannberg" />
		<tag k="place" v="farm" />
		<tag k="ssr:stedsnr" v="246096" />
		<tag k="ssr:type" v="bruk" />
	</node>
	<node changeset="66172086" id="6196189408" lat="59.6008556" lon="10.1729" timestamp="2019-01-09T18:46:51Z" uid="3497659" user="NKA" version="1">
		<tag k="alt_name" v="Vardal nordre;Øvre Verdal" />
		<tag k="name" v="Verdal, øvre" />
		<tag k="place" v="farm" />
		<tag k="ssr:stedsnr" v="246097" />
		<tag k="ssr:type" v="bruk" />
	</node>
	<node changeset="66172086" id="6196189409" lat="59.6143944" lon="10.2484139" timestamp="2019-01-09T18:46:51Z" uid="3497659" user="NKA" version="1">
		<tag k="name" v="Borgengruvene" />
		<tag k="place" v="locality" />
		<tag k="ssr:stedsnr" v="817950" />
		<tag k="ssr:type" v="industriområde" />
	</node>
	<node changeset="66172086" id="6196189410" lat="59.628077" lon="10.2306202" timestamp="2019-01-09T18:46:51Z" uid="3497659" user="NKA" version="1">
		<tag k="alt_name" v="Foss bruk" />
		<tag k="name" v="Foss mølle" />
		<tag k="place" v="locality" />
		<tag k="ssr:stedsnr" v="246083" />
		<tag k="ssr:type" v="fabrikk" />
	</node>
	<node changeset="66172086" id="6196189411" lat="59.6257889" lon="10.0771889" timestamp="2019-01-09T18:46:51Z" uid="3497659" user="NKA" version="1">
		<tag k="name" v="Kabretta" />
		<tag k="place" v="isolated_dwelling" />
		<tag k="ssr:stedsnr" v="246095" />
		<tag k="ssr:type" v="fritidsbolig" />
	</node>
	<node changeset="66172086" id="6196189412" lat="59.6519556" lon="10.2693444" timestamp="2019-01-09T18:46:51Z" uid="3497659" user="NKA" version="1">
		<tag k="name" v="Lysdalen" />
		<tag k="place" v="farm" />
		<tag k="ssr:stedsnr" v="852181" />
		<tag k="ssr:type" v="bruk" />
	</node>
	<node changeset="66172086" id="6196189413" lat="59.608975" lon="10.2438" timestamp="2019-01-09T18:46:51Z" uid="3497659" user="NKA" version="1">
		<tag k="name" v="Aunes" />
		<tag k="place" v="farm" />
		<tag k="ssr:stedsnr" v="246116" />
		<tag k="ssr:type" v="bruk" />
	</node>
	<node changeset="66172086" id="6196189414" lat="59.560825" lon="10.2097806" timestamp="2019-01-09T18:46:51Z" uid="3497659" user="NKA" version="1">
		<tag k="name" v="Orhus" />
		<tag k="place" v="farm" />
		<tag k="ssr:stedsnr" v="852045" />
		<tag k="ssr:type" v="bruk" />
	</node>
	<node changeset="66172086" id="6196189415" lat="59.5976611" lon="10.287475" timestamp="2019-01-09T18:46:51Z" uid="3497659" user="NKA" version="1">
		<tag k="alt_name" v="Sjølsetra" />
		<tag k="historic" v="shieling" />
		<tag k="name" v="Skjølsetra" />
		<tag k="place" v="isolated_dwelling" />
		<tag k="ssr:stedsnr" v="246100" />
		<tag k="ssr:type" v="fritidsbolig" />
	</node>
	<node changeset="66172086" id="6196189416" lat="59.6092917" lon="10.1766472" timestamp="2019-01-09T18:46:51Z" uid="3497659" user="NKA" version="1">
		<tag k="name" v="Solberg" />
		<tag k="place" v="farm" />
		<tag k="ssr:stedsnr" v="246111" />
		<tag k="ssr:type" v="bruk" />
	</node>
	<node changeset="66172086" id="6196191465" lat="59.5858556" lon="10.2056333" timestamp="2019-01-09T18:47:10Z" uid="3497659" user="NKA" version="1">
		<tag k="alt_name" v="Revå nordre" />
		<tag k="name" v="Rævo" />
		<tag k="place" v="farm" />
		<tag k="ssr:stedsnr" v="731014" />
		<tag k="ssr:type" v="bruk" />
	</node>
	<node changeset="66172086" id="6196189418" lat="59.63255" lon="10.2395111" timestamp="2019-01-09T18:46:52Z" uid="3497659" user="NKA" version="1">
		<tag k="alt_name" v="Lærum mellom" />
		<tag k="name" v="Lærum" />
		<tag k="place" v="farm" />
		<tag k="ssr:stedsnr" v="246164" />
		<tag k="ssr:type" v="bruk" />
	</node>
	<node changeset="66172086" id="6196189419" lat="59.605875" lon="10.2396444" timestamp="2019-01-09T18:46:52Z" uid="3497659" user="NKA" version="1">
		<tag k="alt_name" v="Veberg nordre" />
		<tag k="name" v="Veberg" />
		<tag k="place" v="farm" />
		<tag k="ssr:stedsnr" v="246119" />
		<tag k="ssr:type" v="bruk" />
	</node>
	<node changeset="66172086" id="6196191468" lat="59.6090288" lon="10.1943288" timestamp="2019-01-09T18:47:10Z" uid="3497659" user="NKA" version="1">
		<tag k="name" v="Haugan" />
		<tag k="place" v="farm" />
		<tag k="ssr:stedsnr" v="731096" />
		<tag k="ssr:type" v="bruk" />
	</node>
	<node changeset="66172086" id="6196191469" lat="59.6421528" lon="10.2061083" timestamp="2019-01-09T18:47:10Z" uid="3497659" user="NKA" version="1">
		<tag k="name" v="Gåserud" />
		<tag k="place" v="farm" />
		<tag k="ssr:stedsnr" v="124161" />
		<tag k="ssr:type" v="bruk" />
	</node>
	<node changeset="66172086" id="6196189422" lat="59.6050306" lon="10.1907778" timestamp="2019-01-09T18:46:52Z" uid="3497659" user="NKA" version="1">
		<tag k="alt_name" v="Bolstad mellom" />
		<tag k="name" v="Bolstad" />
		<tag k="place" v="farm" />
		<tag k="ssr:stedsnr" v="853086" />
		<tag k="ssr:type" v="bruk" />
	</node>
	<node changeset="66172086" id="6196191471" lat="59.5987389" lon="10.2295" timestamp="2019-01-09T18:47:11Z" uid="3497659" user="NKA" version="1">
		<tag k="alt_name" v="Sjøl" />
		<tag k="name" v="Skjøl" />
		<tag k="place" v="farm" />
		<tag k="ssr:stedsnr" v="731084" />
		<tag k="ssr:type" v="bruk" />
	</node>
	<node changeset="66172086" id="6196189424" lat="59.5665917" lon="10.2870139" timestamp="2019-01-09T18:46:52Z" uid="3497659" user="NKA" version="1">
		<tag k="alt_name" v="Syverud" />
		<tag k="name" v="Sjulerud" />
		<tag k="place" v="farm" />
		<tag k="ssr:stedsnr" v="427051" />
		<tag k="ssr:type" v="bruk" />
	</node>
	<node changeset="66172086" id="6196189425" lat="59.6445444" lon="10.2033889" timestamp="2019-01-09T18:46:52Z" uid="3497659" user="NKA" version="1">
		<tag k="name" v="Klevjer" />
		<tag k="place" v="farm" />
		<tag k="ssr:stedsnr" v="267345" />
		<tag k="ssr:type" v="bruk" />
	</node>
	<node changeset="66172086" id="6196189426" lat="59.6418028" lon="10.2462805" timestamp="2019-01-09T18:46:52Z" uid="3497659" user="NKA" version="1">
		<tag k="name" v="Løvås" />
		<tag k="place" v="farm" />
		<tag k="ssr:stedsnr" v="853124" />
		<tag k="ssr:type" v="bruk" />
	</node>
	<node changeset="66172086" id="6196191475" lat="59.6172861" lon="10.1983389" timestamp="2019-01-09T18:47:11Z" uid="3497659" user="NKA" version="1">
		<tag k="alt_name" v="Stensrud nordre" />
		<tag k="name" v="Stensrud" />
		<tag k="place" v="farm" />
		<tag k="ssr:stedsnr" v="732074" />
		<tag k="ssr:type" v="bruk" />
	</node>
	<node changeset="66172086" id="6196191476" lat="59.615575" lon="10.2033111" timestamp="2019-01-09T18:47:11Z" uid="3497659" user="NKA" version="1">
		<tag k="name" v="Ånnerud" />
		<tag k="place" v="farm" />
		<tag k="ssr:stedsnr" v="125069" />
		<tag k="ssr:type" v="bruk" />
	</node>
	<node changeset="66172086" id="6196189429" lat="59.5749639" lon="10.22575" timestamp="2019-01-09T18:46:53Z" uid="3497659" user="NKA" version="1">
		<tag k="name" v="Nes" />
		<tag k="place" v="isolated_dwelling" />
		<tag k="ssr:stedsnr" v="427053" />
		<tag k="ssr:type" v="eneboligMindreBoligbygg" />
	</node>
	<node changeset="66172086" id="6196189430" lat="59.5751778" lon="10.2439861" timestamp="2019-01-09T18:46:53Z" uid="3497659" user="NKA" version="1">
		<tag k="alt_name" v="Lersbryggen" />
		<tag k="name" v="Lersbrygga" />
		<tag k="place" v="farm" />
		<tag k="ssr:stedsnr" v="427056" />
		<tag k="ssr:type" v="bruk" />
	</node>
	<node changeset="66172086" id="6196189431" lat="59.607125" lon="10.2948444" timestamp="2019-01-09T18:46:53Z" uid="3497659" user="NKA" version="1">
		<tag k="name" v="Søthaugen" />
		<tag k="place" v="isolated_dwelling" />
		<tag k="ssr:stedsnr" v="877189" />
		<tag k="ssr:type" v="fritidsbolig" />
	</node>
	<node changeset="66172086" id="6196191480" lat="59.5774512" lon="10.2611727" timestamp="2019-01-09T18:47:11Z" uid="3497659" user="NKA" version="1">
		<tag k="name" v="Bjørnstadfeltet" />
		<tag k="place" v="quarter" />
		<tag k="ssr:stedsnr" v="141751" />
		<tag k="ssr:type" v="boligfelt" />
	</node>
	<node changeset="66172086" id="6196191481" lat="59.6398" lon="10.0700639" timestamp="2019-01-09T18:47:11Z" uid="3497659" user="NKA" version="1">
		<tag k="historic" v="shieling" />
		<tag k="name" v="Presteseter" />
		<tag k="place" v="isolated_dwelling" />
		<tag k="ssr:stedsnr" v="125182" />
		<tag k="ssr:type" v="fritidsbolig" />
	</node>
	<node changeset="66172086" id="6196191482" lat="59.553225" lon="10.2911861" timestamp="2019-01-09T18:47:12Z" uid="3497659" user="NKA" version="1">
		<tag k="name" v="Øgården" />
		<tag k="place" v="farm" />
		<tag k="ssr:stedsnr" v="149084" />
		<tag k="ssr:type" v="bruk" />
	</node>
	<node changeset="66172086" id="6196191483" lat="59.58645" lon="10.2895972" timestamp="2019-01-09T18:47:12Z" uid="3497659" user="NKA" version="1">
		<tag k="name" v="Kudalen" />
		<tag k="place" v="isolated_dwelling" />
		<tag k="ssr:stedsnr" v="756255" />
		<tag k="ssr:type" v="fritidsbolig" />
	</node>
	<node changeset="66172086" id="6196189436" lat="59.548975" lon="10.213025" timestamp="2019-01-09T18:46:53Z" uid="3497659" user="NKA" version="1">
		<tag k="alt_name" v="Vessetra" />
		<tag k="historic" v="shieling" />
		<tag k="name" v="Vesetra" />
		<tag k="place" v="locality" />
		<tag k="ssr:stedsnr" v="428923" />
		<tag k="ssr:type" v="gammelBosettingsplass" />
	</node>
	<node changeset="66172086" id="6196189437" lat="59.63" lon="10.3197028" timestamp="2019-01-09T18:46:53Z" uid="3497659" user="NKA" version="1">
		<tag k="historic" v="shieling" />
		<tag k="name" v="Eikelundseter" />
		<tag k="place" v="locality" />
		<tag k="ssr:stedsnr" v="271232" />
		<tag k="ssr:type" v="seterStøl" />
	</node>
	<node changeset="66172086" id="6196189438" lat="59.5923944" lon="10.1718667" timestamp="2019-01-09T18:46:53Z" uid="3497659" user="NKA" version="1">
		<tag k="name" v="Møllerløkka" />
		<tag k="place" v="isolated_dwelling" />
		<tag k="ssr:stedsnr" v="877568" />
		<tag k="ssr:type" v="fritidsbolig" />
	</node>
	<node changeset="66172086" id="6196189439" lat="59.6648556" lon="10.1427889" timestamp="2019-01-09T18:46:53Z" uid="3497659" user="NKA" version="1">
		<tag k="name" v="Gutudalsstua" />
		<tag k="place" v="isolated_dwelling" />
		<tag k="ssr:stedsnr" v="428130" />
		<tag k="ssr:type" v="fritidsbolig" />
	</node>
	<node changeset="66172086" id="6196189440" lat="59.5536028" lon="10.2918944" timestamp="2019-01-09T18:46:53Z" uid="3497659" user="NKA" version="1">
		<tag k="name" v="Bekke vestre" />
		<tag k="place" v="farm" />
		<tag k="ssr:stedsnr" v="271270" />
		<tag k="ssr:type" v="bruk" />
	</node>
	<node changeset="66172086" id="6196189441" lat="59.6188222" lon="10.228225" timestamp="2019-01-09T18:46:53Z" uid="3497659" user="NKA" version="1">
		<tag k="name" v="Ryggetangen nordre" />
		<tag k="place" v="farm" />
		<tag k="ssr:stedsnr" v="877655" />
		<tag k="ssr:type" v="bruk" />
	</node>
	<node changeset="66172086" id="6196189442" lat="59.5625389" lon="10.1876917" timestamp="2019-01-09T18:46:53Z" uid="3497659" user="NKA" version="1">
		<tag k="name" v="Stokkestua" />
		<tag k="place" v="isolated_dwelling" />
		<tag k="ssr:stedsnr" v="449339" />
		<tag k="ssr:type" v="fritidsbolig" />
	</node>
	<node changeset="66172086" id="6196189443" lat="59.6316389" lon="10.2044972" timestamp="2019-01-09T18:46:53Z" uid="3497659" user="NKA" version="1">
		<tag k="name" v="Smalhagen" />
		<tag k="place" v="isolated_dwelling" />
		<tag k="ssr:stedsnr" v="271659" />
		<tag k="ssr:type" v="eneboligMindreBoligbygg" />
	</node>
	<node changeset="66172086" id="6196189444" lat="59.5687833" lon="10.2596861" timestamp="2019-01-09T18:46:54Z" uid="3497659" user="NKA" version="1">
		<tag k="name" v="Brekke" />
		<tag k="place" v="farm" />
		<tag k="ssr:stedsnr" v="271642" />
		<tag k="ssr:type" v="bruk" />
	</node>
	<node changeset="66172086" id="6196189445" lat="59.5478722" lon="10.2444556" timestamp="2019-01-09T18:46:54Z" uid="3497659" user="NKA" version="1">
		<tag k="name" v="Ronvik" />
		<tag k="place" v="isolated_dwelling" />
		<tag k="ssr:stedsnr" v="877777" />
		<tag k="ssr:type" v="eneboligMindreBoligbygg" />
	</node>
	<node changeset="66172086" id="6196189446" lat="59.6038778" lon="10.1454167" timestamp="2019-01-09T18:46:54Z" uid="3497659" user="NKA" version="1">
		<tag k="name" v="Vestskog" />
		<tag k="place" v="isolated_dwelling" />
		<tag k="ssr:stedsnr" v="877746" />
		<tag k="ssr:type" v="eneboligMindreBoligbygg" />
	</node>
	<node changeset="66172086" id="6196189447" lat="59.6060778" lon="10.1710556" timestamp="2019-01-09T18:46:54Z" uid="3497659" user="NKA" version="1">
		<tag k="name" v="Gilhus" />
		<tag k="place" v="farm" />
		<tag k="ssr:stedsnr" v="877914" />
		<tag k="ssr:type" v="bruk" />
	</node>
	<node changeset="66172086" id="6196189448" lat="59.6118972" lon="10.16305" timestamp="2019-01-09T18:46:54Z" uid="3497659" user="NKA" version="1">
		<tag k="name" v="Fjøserud" />
		<tag k="place" v="farm" />
		<tag k="ssr:stedsnr" v="877926" />
		<tag k="ssr:type" v="bruk" />
	</node>
	<node changeset="66172086" id="6196189449" lat="59.6158278" lon="10.2151639" timestamp="2019-01-09T18:46:54Z" uid="3497659" user="NKA" version="1">
		<tag k="name" v="Kopstad" />
		<tag k="place" v="hamlet" />
		<tag k="ssr:stedsnr" v="877909" />
		<tag k="ssr:type" v="bruk" />
	</node>
	<node changeset="66172086" id="6196189450" lat="59.6087389" lon="10.1655278" timestamp="2019-01-09T18:46:54Z" uid="3497659" user="NKA" version="1">
		<tag k="name" v="Rud vestre" />
		<tag k="place" v="farm" />
		<tag k="ssr:stedsnr" v="271928" />
		<tag k="ssr:type" v="bruk" />
	</node>
	<node changeset="66172086" id="6196189451" lat="59.5987556" lon="10.200175" timestamp="2019-01-09T18:46:54Z" uid="3497659" user="NKA" version="1">
		<tag k="name" v="Underås" />
		<tag k="place" v="farm" />
		<tag k="ssr:stedsnr" v="271930" />
		<tag k="ssr:type" v="bruk" />
	</node>
	<node changeset="66172086" id="6196189452" lat="59.5742833" lon="10.2750861" timestamp="2019-01-09T18:46:54Z" uid="3497659" user="NKA" version="1">
		<tag k="name" v="Mikkelsbråten" />
		<tag k="place" v="farm" />
		<tag k="ssr:stedsnr" v="453281" />
		<tag k="ssr:type" v="bruk" />
	</node>
	<node changeset="66172086" id="6196189453" lat="59.6111889" lon="10.2329472" timestamp="2019-01-09T18:46:54Z" uid="3497659" user="NKA" version="1">
		<tag k="name" v="Fostvedt" />
		<tag k="place" v="farm" />
		<tag k="ssr:stedsnr" v="271952" />
		<tag k="ssr:type" v="bruk" />
	</node>
	<node changeset="66172086" id="6196189454" lat="59.64711" lon="10.2556574" timestamp="2019-01-09T18:46:54Z" uid="3497659" user="NKA" version="1">
		<tag k="name" v="Verket" />
		<tag k="place" v="farm" />
		<tag k="ssr:stedsnr" v="271965" />
		<tag k="ssr:type" v="bruk" />
	</node>
	<node changeset="66172086" id="6196189455" lat="59.6405528" lon="10.2189528" timestamp="2019-01-09T18:46:54Z" uid="3497659" user="NKA" version="1">
		<tag k="name" v="Jahren" />
		<tag k="place" v="farm" />
		<tag k="ssr:stedsnr" v="878961" />
		<tag k="ssr:type" v="bruk" />
	</node>
	<node changeset="66172086" id="6196189456" lat="59.5744417" lon="10.1904889" timestamp="2019-01-09T18:46:54Z" uid="3497659" user="NKA" version="1">
		<tag k="name" v="Granheim" />
		<tag k="place" v="farm" />
		<tag k="ssr:stedsnr" v="453583" />
		<tag k="ssr:type" v="bruk" />
	</node>
	<node changeset="66172086" id="6196189457" lat="59.6489944" lon="10.258575" timestamp="2019-01-09T18:46:54Z" uid="3497659" user="NKA" version="1">
		<tag k="name" v="Lia" />
		<tag k="place" v="farm" />
		<tag k="ssr:stedsnr" v="271966" />
		<tag k="ssr:type" v="bruk" />
	</node>
	<node changeset="66172086" id="6196189458" lat="59.6540222" lon="10.214475" timestamp="2019-01-09T18:46:54Z" uid="3497659" user="NKA" version="1">
		<tag k="name" v="Myrvolden" />
		<tag k="place" v="farm" />
		<tag k="ssr:stedsnr" v="878970" />
		<tag k="ssr:type" v="bruk" />
	</node>
	<node changeset="66172086" id="6196189459" lat="59.6549222" lon="10.2280389" timestamp="2019-01-09T18:46:54Z" uid="3497659" user="NKA" version="1">
		<tag k="name" v="Bergsenga" />
		<tag k="place" v="farm" />
		<tag k="ssr:stedsnr" v="271975" />
		<tag k="ssr:type" v="bruk" />
	</node>
	<node changeset="66172086" id="6196189460" lat="59.5731027" lon="10.2298591" timestamp="2019-01-09T18:46:55Z" uid="3497659" user="NKA" version="1">
		<tag k="alt_name" v="Åsnæs" />
		<tag k="name" v="Åsnes" />
		<tag k="place" v="farm" />
		<tag k="ssr:stedsnr" v="913050" />
		<tag k="ssr:type" v="bruk" />
	</node>
	<node changeset="66172086" id="6196189461" lat="59.6522861" lon="10.2036389" timestamp="2019-01-09T18:46:55Z" uid="3497659" user="NKA" version="1">
		<tag k="name" v="Øvre Klevjer" />
		<tag k="place" v="farm" />
		<tag k="ssr:stedsnr" v="290321" />
		<tag k="ssr:type" v="bruk" />
	</node>
	<node changeset="66172086" id="6196189462" lat="59.65435" lon="10.1417028" timestamp="2019-01-09T18:46:55Z" uid="3497659" user="NKA" version="1">
		<tag k="historic" v="shieling" />
		<tag k="name" v="Bjørgeseter" />
		<tag k="place" v="isolated_dwelling" />
		<tag k="ssr:stedsnr" v="913138" />
		<tag k="ssr:type" v="fritidsbolig" />
	</node>
	<node changeset="66172086" id="6196189463" lat="59.6189472" lon="10.2128889" timestamp="2019-01-09T18:46:55Z" uid="3497659" user="NKA" version="1">
		<tag k="name" v="Resningstad" />
		<tag k="place" v="isolated_dwelling" />
		<tag k="ssr:stedsnr" v="453648" />
		<tag k="ssr:type" v="fritidsbolig" />
	</node>
	<node changeset="66172086" id="6196189464" lat="59.6488611" lon="10.1433083" timestamp="2019-01-09T18:46:55Z" uid="3497659" user="NKA" version="1">
		<tag k="historic" v="shieling" />
		<tag k="name" v="Ryggetangseter" />
		<tag k="place" v="isolated_dwelling" />
		<tag k="ssr:stedsnr" v="913140" />
		<tag k="ssr:type" v="fritidsbolig" />
	</node>
	<node changeset="66172086" id="6196189465" lat="59.593825" lon="10.1789222" timestamp="2019-01-09T18:46:55Z" uid="3497659" user="NKA" version="1">
		<tag k="alt_name" v="Vardal nedre;Nedre Verdal" />
		<tag k="name" v="Verdal, nedre" />
		<tag k="place" v="farm" />
		<tag k="ssr:stedsnr" v="913095" />
		<tag k="ssr:type" v="bruk" />
	</node>
	<node changeset="66172086" id="6196189466" lat="59.667125" lon="10.2028528" timestamp="2019-01-09T18:46:55Z" uid="3497659" user="NKA" version="1">
		<tag k="name" v="Enga" />
		<tag k="place" v="locality" />
		<tag k="ssr:stedsnr" v="913217" />
		<tag k="ssr:type" v="bruk" />
	</node>
	<node changeset="66172086" id="6196189467" lat="59.6692611" lon="10.262975" timestamp="2019-01-09T18:46:55Z" uid="3497659" user="NKA" version="1">
		<tag k="alt_name" v="Tingelstad" />
		<tag k="name" v="Tingulstad" />
		<tag k="place" v="farm" />
		<tag k="ssr:stedsnr" v="306138" />
		<tag k="ssr:type" v="bruk" />
	</node>
	<node changeset="66172086" id="6196189468" lat="59.5517778" lon="10.3121417" timestamp="2019-01-09T18:46:55Z" uid="3497659" user="NKA" version="1">
		<tag k="alt_name" v="Bekke, store" />
		<tag k="name" v="Store Bekke" />
		<tag k="place" v="farm" />
		<tag k="ssr:stedsnr" v="306911" />
		<tag k="ssr:type" v="bruk" />
	</node>
	<node changeset="66172086" id="6196189469" lat="59.6680389" lon="10.1983333" timestamp="2019-01-09T18:46:55Z" uid="3497659" user="NKA" version="1">
		<tag k="alt_name" v="Trolsrud" />
		<tag k="name" v="Trollsrud" />
		<tag k="place" v="farm" />
		<tag k="ssr:stedsnr" v="306142" />
		<tag k="ssr:type" v="bruk" />
	</node>
	<node changeset="66172086" id="6196189470" lat="59.6118361" lon="10.2385" timestamp="2019-01-09T18:46:55Z" uid="3497659" user="NKA" version="1">
		<tag k="alt_name" v="Hagen" />
		<tag k="name" v="Skjølshagan" />
		<tag k="place" v="farm" />
		<tag k="ssr:stedsnr" v="914067" />
		<tag k="ssr:type" v="bruk" />
	</node>
	<node changeset="66172086" id="6196189471" lat="59.6128389" lon="10.234975" timestamp="2019-01-09T18:46:55Z" uid="3497659" user="NKA" version="1">
		<tag k="alt_name" v="Fosstvedt" />
		<tag k="name" v="Fosstvet" />
		<tag k="place" v="farm" />
		<tag k="ssr:stedsnr" v="914069" />
		<tag k="ssr:type" v="bruk" />
	</node>
	<node changeset="66172086" id="6196189472" lat="59.542278" lon="10.2521782" timestamp="2019-01-09T18:46:55Z" uid="3497659" user="NKA" version="1">
		<tag k="name" v="Ødegården" />
		<tag k="place" v="hamlet" />
		<tag k="ssr:stedsnr" v="453777" />
		<tag k="ssr:type" v="bruk" />
	</node>
	<node changeset="66172086" id="6196189473" lat="59.5491111" lon="10.23935" timestamp="2019-01-09T18:46:56Z" uid="3497659" user="NKA" version="1">
		<tag k="alt_name" v="Berg ytre" />
		<tag k="name" v="Berg" />
		<tag k="place" v="farm" />
		<tag k="ssr:stedsnr" v="306917" />
		<tag k="ssr:type" v="bruk" />
	</node>
	<node changeset="66172086" id="6196189474" lat="59.651961" lon="10.2410971" timestamp="2019-01-09T18:46:56Z" uid="3497659" user="NKA" version="1">
		<tag k="name" v="Kjeldås nordre" />
		<tag k="place" v="farm" />
		<tag k="ssr:stedsnr" v="914190" />
		<tag k="ssr:type" v="bruk" />
	</node>
	<node changeset="66172086" id="6196189475" lat="59.5569" lon="10.2856361" timestamp="2019-01-09T18:46:56Z" uid="3497659" user="NKA" version="1">
		<tag k="name" v="Killingdalen" />
		<tag k="place" v="farm" />
		<tag k="ssr:stedsnr" v="306915" />
		<tag k="ssr:type" v="bruk" />
	</node>
	<node changeset="66172086" id="6196189476" lat="59.6292083" lon="10.2257" timestamp="2019-01-09T18:46:56Z" uid="3497659" user="NKA" version="1">
		<tag k="name" v="Bølum" />
		<tag k="place" v="farm" />
		<tag k="ssr:stedsnr" v="914095" />
		<tag k="ssr:type" v="bruk" />
	</node>
	<node changeset="66172086" id="6196189477" lat="59.624975" lon="10.3227417" timestamp="2019-01-09T18:46:56Z" uid="3497659" user="NKA" version="1">
		<tag k="name" v="Svartevasshytta" />
		<tag k="place" v="isolated_dwelling" />
		<tag k="ssr:stedsnr" v="307076" />
		<tag k="ssr:type" v="fritidsbolig" />
	</node>
	<node changeset="66172086" id="6196189478" lat="59.6505556" lon="10.2048667" timestamp="2019-01-09T18:46:56Z" uid="3497659" user="NKA" version="1">
		<tag k="alt_name" v="Klevjer" />
		<tag k="name" v="Klever" />
		<tag k="place" v="farm" />
		<tag k="ssr:stedsnr" v="307144" />
		<tag k="ssr:type" v="bruk" />
	</node>
	<node changeset="66172086" id="6196189479" lat="59.6001028" lon="10.2433333" timestamp="2019-01-09T18:46:56Z" uid="3497659" user="NKA" version="1">
		<tag k="name" v="Veberg østre" />
		<tag k="place" v="farm" />
		<tag k="ssr:stedsnr" v="453934" />
		<tag k="ssr:type" v="bruk" />
	</node>
	<node changeset="66172086" id="6196189480" lat="59.6222556" lon="10.2355861" timestamp="2019-01-09T18:46:56Z" uid="3497659" user="NKA" version="1">
		<tag k="alt_name" v="Lærum østre" />
		<tag k="name" v="Lærum" />
		<tag k="place" v="farm" />
		<tag k="ssr:stedsnr" v="307084" />
		<tag k="ssr:type" v="bruk" />
	</node>
	<node changeset="66172086" id="6196189481" lat="59.5371361" lon="10.3570639" timestamp="2019-01-09T18:46:56Z" uid="3497659" user="NKA" version="1">
		<tag k="name" v="Mørkassel østre" />
		<tag k="place" v="farm" />
		<tag k="ssr:stedsnr" v="938024" />
		<tag k="ssr:type" v="bruk" />
	</node>
	<node changeset="66172086" id="6196189482" lat="59.6660583" lon="10.2015472" timestamp="2019-01-09T18:46:56Z" uid="3497659" user="NKA" version="1">
		<tag k="name" v="Granstad" />
		<tag k="place" v="farm" />
		<tag k="ssr:stedsnr" v="453926" />
		<tag k="ssr:type" v="bruk" />
	</node>
	<node changeset="66172086" id="6196189483" lat="59.6239361" lon="10.2230026" timestamp="2019-01-09T18:46:56Z" uid="3497659" user="NKA" version="1">
		<tag k="name" v="Galleberg" />
		<tag k="place" v="village" />
		<tag k="ssr:stedsnr" v="327563" />
		<tag k="ssr:type" v="bygdelagBygd" />
	</node>
	<node changeset="66172086" id="6196189484" lat="59.5489842" lon="10.243043" timestamp="2019-01-09T18:46:56Z" uid="3497659" user="NKA" version="1">
		<tag k="name" v="Skjervik" />
		<tag k="place" v="hamlet" />
		<tag k="ssr:stedsnr" v="485836" />
		<tag k="ssr:type" v="bruk" />
	</node>
	<node changeset="3923955" id="648221136" lat="59.6461021" lon="10.2206666" timestamp="2010-02-20T15:20:20Z" uid="160202" user="Vedeler" version="1" />
	<node changeset="4067455" id="662620667" lat="59.6418624" lon="10.0376774" timestamp="2010-03-07T22:52:13Z" uid="160202" user="Vedeler" version="1" />
	<node changeset="66172086" id="347306534" lat="59.5872896" lon="10.2075012" timestamp="2019-01-09T18:47:15Z" uid="3497659" user="NKA" version="4">
		<tag k="alt_name" v="Sande i Vestfold" />
		<tag k="name" v="Sande" />
		<tag k="place" v="village" />
		<tag k="population" v="2254" />
		<tag k="population:date" v="2017-01-01" />
		<tag k="ssr:stedsnr" v="913019" />
		<tag k="ssr:type" v="tettsted" />
	</node>
	<node changeset="66172086" id="412176941" lat="59.5788" lon="10.24905" timestamp="2019-01-09T18:47:15Z" uid="3497659" user="NKA" version="2">
		<tag k="loc_name" v="Skafiell-åsen" />
		<tag k="name" v="Skafjellåsen" />
		<tag k="place" v="quarter" />
		<tag k="ssr:stedsnr" v="694320" />
		<tag k="ssr:type" v="boligfelt" />
	</node>
	<node changeset="66172086" id="3126874695" lat="59.6413748" lon="10.0982157" timestamp="2019-01-09T18:47:15Z" uid="3497659" user="NKA" version="2">
		<tag k="historic" v="shieling" />
		<tag k="name" v="Gallebergsetra" />
		<tag k="place" v="locality" />
		<tag k="ssr:stedsnr" v="513753" />
		<tag k="ssr:type" v="seterStøl" />
	</node>
	<node changeset="66172086" id="6196192696" lat="59.6306639" lon="10.2364639" timestamp="2019-01-09T18:47:13Z" uid="3497659" user="NKA" version="1">
		<tag k="name" v="Lærum nordre" />
		<tag k="place" v="farm" />
		<tag k="ssr:stedsnr" v="149640" />
		<tag k="ssr:type" v="bruk" />
	</node>
	<node changeset="70863676" id="335709625" lat="59.6404388" lon="10.0382999" timestamp="2019-06-02T18:55:43Z" uid="6227194" user="ImMats" version="3" />
	<node changeset="4067455" id="335709626" lat="59.6401922" lon="10.0378491" timestamp="2010-03-07T22:52:12Z" uid="160202" user="Vedeler" version="2" />
	<node changeset="66172086" id="6196192699" lat="59.6353389" lon="10.2315083" timestamp="2019-01-09T18:47:13Z" uid="3497659" user="NKA" version="1">
		<tag k="name" v="Rølles" />
		<tag k="place" v="farm" />
		<tag k="ssr:stedsnr" v="756668" />
		<tag k="ssr:type" v="bruk" />
	</node>
	<node changeset="66172086" id="6196192700" lat="59.5961944" lon="10.19465" timestamp="2019-01-09T18:47:13Z" uid="3497659" user="NKA" version="1">
		<tag k="name" v="Tandberg" />
		<tag k="place" v="farm" />
		<tag k="ssr:stedsnr" v="756922" />
		<tag k="ssr:type" v="bruk" />
	</node>
	<node changeset="66172086" id="6196192701" lat="59.6607111" lon="10.2027972" timestamp="2019-01-09T18:47:13Z" uid="3497659" user="NKA" version="1">
		<tag k="name" v="Tennungen" />
		<tag k="place" v="farm" />
		<tag k="ssr:stedsnr" v="149936" />
		<tag k="ssr:type" v="bruk" />
	</node>
	<node changeset="66172086" id="6196192702" lat="59.5385306" lon="10.2416194" timestamp="2019-01-09T18:47:13Z" uid="3497659" user="NKA" version="1">
		<tag k="historic" v="shieling" />
		<tag k="name" v="Bringåkersetra" />
		<tag k="place" v="isolated_dwelling" />
		<tag k="ssr:stedsnr" v="756763" />
		<tag k="ssr:type" v="fritidsbolig" />
	</node>
	<node changeset="66172086" id="6196192703" lat="59.6049222" lon="10.236" timestamp="2019-01-09T18:47:13Z" uid="3497659" user="NKA" version="1">
		<tag k="name" v="Innlaget" />
		<tag k="place" v="farm" />
		<tag k="ssr:stedsnr" v="149948" />
		<tag k="ssr:type" v="bruk" />
	</node>
	<node changeset="66172086" id="6196189393" lat="59.5747778" lon="10.2494639" timestamp="2019-01-09T18:46:50Z" uid="3497659" user="NKA" version="1">
		<tag k="name" v="Lersbryggen øvre" />
		<tag k="place" v="farm" />
		<tag k="ssr:stedsnr" v="817566" />
		<tag k="ssr:type" v="bruk" />
	</node>
	<node changeset="16802232" id="2371607411" lat="59.6688111" lon="10.1700124" timestamp="2013-07-03T08:50:26Z" uid="1556391" user="relet" version="2" />
	<node changeset="16802232" id="2371607412" lat="59.6692066" lon="10.1735637" timestamp="2013-07-03T08:50:26Z" uid="1556391" user="relet" version="2" />
	<node changeset="16802232" id="2371607413" lat="59.6677383" lon="10.1721904" timestamp="2013-07-03T08:50:26Z" uid="1556391" user="relet" version="2" />
	<node changeset="66172086" id="6196190085" lat="59.6358889" lon="10.2581139" timestamp="2019-01-09T18:46:56Z" uid="3497659" user="NKA" version="1">
		<tag k="name" v="Lundeby" />
		<tag k="place" v="farm" />
		<tag k="ssr:stedsnr" v="307180" />
		<tag k="ssr:type" v="bruk" />
	</node>
	<node changeset="66172086" id="6196190086" lat="59.5679167" lon="10.2834972" timestamp="2019-01-09T18:46:56Z" uid="3497659" user="NKA" version="1">
		<tag k="name" v="Syverud nedre" />
		<tag k="place" v="farm" />
		<tag k="ssr:stedsnr" v="938228" />
		<tag k="ssr:type" v="bruk" />
	</node>
	<node changeset="66172086" id="6196190087" lat="59.5976556" lon="10.1468139" timestamp="2019-01-09T18:46:56Z" uid="3497659" user="NKA" version="1">
		<tag k="name" v="Skjørdal" />
		<tag k="place" v="farm" />
		<tag k="ssr:stedsnr" v="488090" />
		<tag k="ssr:type" v="bruk" />
	</node>
	<node changeset="66172086" id="6196190088" lat="59.5798083" lon="10.22355" timestamp="2019-01-09T18:46:57Z" uid="3497659" user="NKA" version="1">
		<tag k="name" v="Glypnes" />
		<tag k="place" v="farm" />
		<tag k="ssr:stedsnr" v="488002" />
		<tag k="ssr:type" v="bruk" />
	</node>
	<node changeset="66172086" id="6196190089" lat="59.5691111" lon="10.1937361" timestamp="2019-01-09T18:46:57Z" uid="3497659" user="NKA" version="1">
		<tag k="historic" v="shieling" />
		<tag k="name" v="Dylleberg" />
		<tag k="place" v="locality" />
		<tag k="ssr:stedsnr" v="328338" />
		<tag k="ssr:type" v="seterStøl" />
	</node>
	<node changeset="66172086" id="6196190090" lat="59.5897278" lon="10.17605" timestamp="2019-01-09T18:46:57Z" uid="3497659" user="NKA" version="1">
		<tag k="alt_name" v="Bonden øvre" />
		<tag k="name" v="Bondi" />
		<tag k="place" v="farm" />
		<tag k="ssr:stedsnr" v="488028" />
		<tag k="ssr:type" v="bruk" />
	</node>
	<node changeset="66172086" id="6196190091" lat="59.5734944" lon="10.1917222" timestamp="2019-01-09T18:46:57Z" uid="3497659" user="NKA" version="1">
		<tag k="name" v="Solvang" />
		<tag k="place" v="farm" />
		<tag k="ssr:stedsnr" v="938554" />
		<tag k="ssr:type" v="bruk" />
	</node>
	<node changeset="66172086" id="6196190092" lat="59.6642778" lon="10.1918667" timestamp="2019-01-09T18:46:57Z" uid="3497659" user="NKA" version="1">
		<tag k="name" v="Solli" />
		<tag k="place" v="farm" />
		<tag k="ssr:stedsnr" v="488138" />
		<tag k="ssr:type" v="bruk" />
	</node>
	<node changeset="66172086" id="6196190093" lat="59.6597778" lon="10.2115333" timestamp="2019-01-09T18:46:57Z" uid="3497659" user="NKA" version="1">
		<tag k="alt_name" v="Flåten søndre" />
		<tag k="name" v="Flåtan" />
		<tag k="place" v="farm" />
		<tag k="ssr:stedsnr" v="488140" />
		<tag k="ssr:type" v="bruk" />
	</node>
	<node changeset="66172086" id="6196190094" lat="59.66345" lon="10.2624306" timestamp="2019-01-09T18:46:57Z" uid="3497659" user="NKA" version="1">
		<tag k="name" v="Rød" />
		<tag k="place" v="farm" />
		<tag k="ssr:stedsnr" v="488120" />
		<tag k="ssr:type" v="bruk" />
	</node>
	<node changeset="66172086" id="6196190095" lat="59.6661417" lon="10.2518444" timestamp="2019-01-09T18:46:57Z" uid="3497659" user="NKA" version="1">
		<tag k="name" v="Trogstad" />
		<tag k="place" v="farm" />
		<tag k="ssr:stedsnr" v="488129" />
		<tag k="ssr:type" v="bruk" />
	</node>
	<node changeset="66172086" id="6196190096" lat="59.5625917" lon="10.218825" timestamp="2019-01-09T18:46:57Z" uid="3497659" user="NKA" version="1">
		<tag k="name" v="Skogly" />
		<tag k="place" v="isolated_dwelling" />
		<tag k="ssr:stedsnr" v="938582" />
		<tag k="ssr:type" v="fritidsbolig" />
	</node>
	<node changeset="66172086" id="6196190097" lat="59.5717444" lon="10.2488333" timestamp="2019-01-09T18:46:57Z" uid="3497659" user="NKA" version="1">
		<tag k="name" v="Furulund" />
		<tag k="place" v="isolated_dwelling" />
		<tag k="ssr:stedsnr" v="938576" />
		<tag k="ssr:type" v="fritidsbolig" />
	</node>
	<node changeset="66172086" id="6196190098" lat="59.5720841" lon="10.2293963" timestamp="2019-01-09T18:46:57Z" uid="3497659" user="NKA" version="1">
		<tag k="name" v="Åsnæs" />
		<tag k="place" v="farm" />
		<tag k="ssr:stedsnr" v="938578" />
		<tag k="ssr:type" v="bruk" />
	</node>
	<node changeset="66172086" id="6196190099" lat="59.6220472" lon="10.2008555" timestamp="2019-01-09T18:46:57Z" uid="3497659" user="NKA" version="1">
		<tag k="name" v="Sandbråten" />
		<tag k="place" v="isolated_dwelling" />
		<tag k="ssr:stedsnr" v="938603" />
		<tag k="ssr:type" v="eneboligMindreBoligbygg" />
	</node>
	<node changeset="66172086" id="6196190100" lat="59.6218306" lon="10.2485306" timestamp="2019-01-09T18:46:57Z" uid="3497659" user="NKA" version="1">
		<tag k="name" v="Berglund" />
		<tag k="place" v="isolated_dwelling" />
		<tag k="ssr:stedsnr" v="938627" />
		<tag k="ssr:type" v="fritidsbolig" />
	</node>
	<node changeset="66172086" id="6196190101" lat="59.5652083" lon="10.2605055" timestamp="2019-01-09T18:46:57Z" uid="3497659" user="NKA" version="1">
		<tag k="name" v="Langeli" />
		<tag k="place" v="isolated_dwelling" />
		<tag k="ssr:stedsnr" v="938593" />
		<tag k="ssr:type" v="eneboligMindreBoligbygg" />
	</node>
	<node changeset="66172086" id="6196190102" lat="59.5439083" lon="10.3136667" timestamp="2019-01-09T18:46:58Z" uid="3497659" user="NKA" version="1">
		<tag k="name" v="Sando vestre" />
		<tag k="place" v="farm" />
		<tag k="ssr:stedsnr" v="513049" />
		<tag k="ssr:type" v="bruk" />
	</node>
	<node changeset="66172086" id="6196190103" lat="59.5674306" lon="10.2292194" timestamp="2019-01-09T18:46:58Z" uid="3497659" user="NKA" version="1">
		<tag k="name" v="Åsnæs Bakken" />
		<tag k="place" v="farm" />
		<tag k="ssr:stedsnr" v="331585" />
		<tag k="ssr:type" v="bruk" />
	</node>
	<node changeset="66172086" id="6196190104" lat="59.6338444" lon="10.1340528" timestamp="2019-01-09T18:46:58Z" uid="3497659" user="NKA" version="1">
		<tag k="historic" v="shieling" />
		<tag k="name" v="Åassetra" />
		<tag k="place" v="locality" />
		<tag k="ssr:stedsnr" v="938683" />
		<tag k="ssr:type" v="seterStøl" />
	</node>
	<node changeset="66172086" id="6196190105" lat="59.6191472" lon="10.2474417" timestamp="2019-01-09T18:46:58Z" uid="3497659" user="NKA" version="1">
		<tag k="name" v="Lærum vestre" />
		<tag k="place" v="farm" />
		<tag k="ssr:stedsnr" v="938631" />
		<tag k="ssr:type" v="bruk" />
	</node>
	<node changeset="66172086" id="6196190106" lat="59.5350306" lon="10.3518028" timestamp="2019-01-09T18:46:58Z" uid="3497659" user="NKA" version="1">
		<tag k="name" v="Mørkassel vestre" />
		<tag k="place" v="farm" />
		<tag k="ssr:stedsnr" v="513019" />
		<tag k="ssr:type" v="bruk" />
	</node>
	<node changeset="66172086" id="6196190107" lat="59.5928972" lon="10.2296917" timestamp="2019-01-09T18:46:58Z" uid="3497659" user="NKA" version="1">
		<tag k="name" v="Simenstad øvre" />
		<tag k="place" v="farm" />
		<tag k="ssr:stedsnr" v="331559" />
		<tag k="ssr:type" v="bruk" />
	</node>
	<node changeset="66172086" id="6196190108" lat="59.5548583" lon="10.2290083" timestamp="2019-01-09T18:46:58Z" uid="3497659" user="NKA" version="1">
		<tag k="name" v="Solheim" />
		<tag k="place" v="farm" />
		<tag k="ssr:stedsnr" v="331602" />
		<tag k="ssr:type" v="bruk" />
	</node>
	<node changeset="66172086" id="6196190109" lat="59.6367417" lon="10.2135" timestamp="2019-01-09T18:46:58Z" uid="3497659" user="NKA" version="1">
		<tag k="name" v="Bjørge søndre" />
		<tag k="place" v="farm" />
		<tag k="ssr:stedsnr" v="331624" />
		<tag k="ssr:type" v="bruk" />
	</node>
	<node changeset="66172086" id="6196190110" lat="59.6322861" lon="10.2928583" timestamp="2019-01-09T18:46:58Z" uid="3497659" user="NKA" version="1">
		<tag k="name" v="Østre Kølabonn" />
		<tag k="place" v="isolated_dwelling" />
		<tag k="ssr:stedsnr" v="513213" />
		<tag k="ssr:type" v="fritidsbolig" />
	</node>
	<node changeset="66172086" id="6196190111" lat="59.6106222" lon="10.2075611" timestamp="2019-01-09T18:46:58Z" uid="3497659" user="NKA" version="1">
		<tag k="name" v="Dalsrud" />
		<tag k="place" v="farm" />
		<tag k="ssr:stedsnr" v="938923" />
		<tag k="ssr:type" v="bruk" />
	</node>
	<node changeset="66172086" id="6196190112" lat="59.6647806" lon="10.1997056" timestamp="2019-01-09T18:46:58Z" uid="3497659" user="NKA" version="1">
		<tag k="name" v="Askholtbakken" />
		<tag k="place" v="farm" />
		<tag k="ssr:stedsnr" v="938949" />
		<tag k="ssr:type" v="bruk" />
	</node>
	<node changeset="66172086" id="6196190113" lat="59.5396472" lon="10.320575" timestamp="2019-01-09T18:46:58Z" uid="3497659" user="NKA" version="1">
		<tag k="name" v="Bustrand" />
		<tag k="place" v="farm" />
		<tag k="ssr:stedsnr" v="331832" />
		<tag k="ssr:type" v="bruk" />
	</node>
	<node changeset="66172086" id="6196190114" lat="59.6134417" lon="10.1925556" timestamp="2019-01-09T18:46:58Z" uid="3497659" user="NKA" version="1">
		<tag k="name" v="Børstad" />
		<tag k="place" v="farm" />
		<tag k="ssr:stedsnr" v="331937" />
		<tag k="ssr:type" v="bruk" />
	</node>
	<node changeset="66172086" id="6196190115" lat="59.5718194" lon="10.2143944" timestamp="2019-01-09T18:46:58Z" uid="3497659" user="NKA" version="1">
		<tag k="name" v="Flåtastøa" />
		<tag k="place" v="locality" />
		<tag k="ssr:stedsnr" v="513619" />
		<tag k="ssr:type" v="eiendom" />
	</node>
	<node changeset="66172086" id="6196190116" lat="59.5746028" lon="10.2207417" timestamp="2019-01-09T18:46:58Z" uid="3497659" user="NKA" version="1">
		<tag k="name" v="Bakken" />
		<tag k="place" v="farm" />
		<tag k="ssr:stedsnr" v="513605" />
		<tag k="ssr:type" v="bruk" />
	</node>
	<node changeset="66172086" id="6196190117" lat="59.5230998" lon="10.3330483" timestamp="2019-01-09T18:46:59Z" uid="3497659" user="NKA" version="1">
		<tag k="name" v="Veslekillingen" />
		<tag k="operator" v="DNT Drammen og omegn" />
		<tag k="ssr:stedsnr" v="967736" />
		<tag k="ssr:type" v="turisthytte" />
		<tag k="tourism" v="chalet" />
	</node>
	<node changeset="66172086" id="6196190118" lat="59.5594806" lon="10.2155333" timestamp="2019-01-09T18:46:59Z" uid="3497659" user="NKA" version="1">
		<tag k="name" v="Hagen" />
		<tag k="place" v="isolated_dwelling" />
		<tag k="ssr:stedsnr" v="513630" />
		<tag k="ssr:type" v="eneboligMindreBoligbygg" />
	</node>
	<node changeset="66172086" id="6196190119" lat="59.6557806" lon="10.217475" timestamp="2019-01-09T18:46:59Z" uid="3497659" user="NKA" version="1">
		<tag k="name" v="Flåten søndre" />
		<tag k="place" v="farm" />
		<tag k="ssr:stedsnr" v="938972" />
		<tag k="ssr:type" v="bruk" />
	</node>
	<node changeset="66172086" id="6196190120" lat="59.562125" lon="10.2128" timestamp="2019-01-09T18:46:59Z" uid="3497659" user="NKA" version="1">
		<tag k="name" v="Oreberg" />
		<tag k="place" v="farm" />
		<tag k="ssr:stedsnr" v="367032" />
		<tag k="ssr:type" v="bruk" />
	</node>
	<node changeset="66172086" id="6196190121" lat="59.6239861" lon="10.2052778" timestamp="2019-01-09T18:46:59Z" uid="3497659" user="NKA" version="1">
		<tag k="name" v="Ryggtangen nordre" />
		<tag k="place" v="farm" />
		<tag k="ssr:stedsnr" v="513648" />
		<tag k="ssr:type" v="bruk" />
	</node>
	<node changeset="66172086" id="6196190122" lat="59.6178611" lon="10.1946945" timestamp="2019-01-09T18:46:59Z" uid="3497659" user="NKA" version="1">
		<tag k="name" v="Ås vestre" />
		<tag k="place" v="farm" />
		<tag k="ssr:stedsnr" v="513655" />
		<tag k="ssr:type" v="bruk" />
	</node>
	<node changeset="66172086" id="6196190123" lat="59.6359611" lon="10.2044306" timestamp="2019-01-09T18:46:59Z" uid="3497659" user="NKA" version="1">
		<tag k="name" v="Brekke" />
		<tag k="place" v="farm" />
		<tag k="ssr:stedsnr" v="513642" />
		<tag k="ssr:type" v="bruk" />
	</node>
	<node changeset="66172086" id="6196190124" lat="59.5639778" lon="10.2267833" timestamp="2019-01-09T18:46:59Z" uid="3497659" user="NKA" version="1">
		<tag k="alt_name" v="Ve søndre" />
		<tag k="name" v="Ve" />
		<tag k="place" v="farm" />
		<tag k="ssr:stedsnr" v="367030" />
		<tag k="ssr:type" v="bruk" />
	</node>
	<node changeset="66172086" id="6196190125" lat="59.6209472" lon="10.1989944" timestamp="2019-01-09T18:46:59Z" uid="3497659" user="NKA" version="1">
		<tag k="name" v="Konstad" />
		<tag k="place" v="farm" />
		<tag k="ssr:stedsnr" v="513645" />
		<tag k="ssr:type" v="bruk" />
	</node>
	<node changeset="66172086" id="6196190126" lat="59.5482" lon="10.326575" timestamp="2019-01-09T18:46:59Z" uid="3497659" user="NKA" version="1">
		<tag k="name" v="Skar" />
		<tag k="place" v="farm" />
		<tag k="ssr:stedsnr" v="367906" />
		<tag k="ssr:type" v="bruk" />
	</node>
	<node changeset="66172086" id="6196190127" lat="59.5962583" lon="10.2114083" timestamp="2019-01-09T18:46:59Z" uid="3497659" user="NKA" version="1">
		<tag k="alt_name" v="Gunnestad søndre" />
		<tag k="name" v="Gunnestad" />
		<tag k="place" v="farm" />
		<tag k="ssr:stedsnr" v="367087" />
		<tag k="ssr:type" v="bruk" />
	</node>
	<node changeset="66172086" id="6196190128" lat="59.6617389" lon="10.223675" timestamp="2019-01-09T18:46:59Z" uid="3497659" user="NKA" version="1">
		<tag k="name" v="Grimsrud" />
		<tag k="place" v="farm" />
		<tag k="ssr:stedsnr" v="367129" />
		<tag k="ssr:type" v="bruk" />
	</node>
	<node changeset="66172086" id="6196190129" lat="59.6203" lon="10.2366139" timestamp="2019-01-09T18:46:59Z" uid="3497659" user="NKA" version="1">
		<tag k="name" v="Ryggetangen" />
		<tag k="place" v="farm" />
		<tag k="ssr:stedsnr" v="368083" />
		<tag k="ssr:type" v="bruk" />
	</node>
	<node changeset="66172086" id="6196190130" lat="59.6158194" lon="10.1009445" timestamp="2019-01-09T18:46:59Z" uid="3497659" user="NKA" version="1">
		<tag k="historic" v="shieling" />
		<tag k="name" v="Kaldmosetra" />
		<tag k="place" v="locality" />
		<tag k="ssr:stedsnr" v="368093" />
		<tag k="ssr:type" v="seterStøl" />
	</node>
	<node changeset="66172086" id="6196190131" lat="59.555525" lon="10.3224056" timestamp="2019-01-09T18:47:00Z" uid="3497659" user="NKA" version="1">
		<tag k="alt_name" v="Warberg" />
		<tag k="name" v="Varberg" />
		<tag k="place" v="farm" />
		<tag k="ssr:stedsnr" v="367907" />
		<tag k="ssr:type" v="bruk" />
	</node>
	<node changeset="66172086" id="6196190132" lat="59.5435139" lon="10.3297" timestamp="2019-01-09T18:47:00Z" uid="3497659" user="NKA" version="1">
		<tag k="alt_name" v="Rolvsengen" />
		<tag k="name" v="Rolsenga" />
		<tag k="place" v="farm" />
		<tag k="ssr:stedsnr" v="367917" />
		<tag k="ssr:type" v="bruk" />
	</node>
	<node changeset="66172086" id="6196190133" lat="59.6036" lon="10.2291611" timestamp="2019-01-09T18:47:00Z" uid="3497659" user="NKA" version="1">
		<tag k="name" v="Gran søndre" />
		<tag k="place" v="farm" />
		<tag k="ssr:stedsnr" v="513946" />
		<tag k="ssr:type" v="bruk" />
	</node>
	<node changeset="66172086" id="6196190134" lat="59.6650889" lon="10.1989028" timestamp="2019-01-09T18:47:00Z" uid="3497659" user="NKA" version="1">
		<tag k="name" v="Trolsrud søndre" />
		<tag k="place" v="farm" />
		<tag k="ssr:stedsnr" v="513940" />
		<tag k="ssr:type" v="bruk" />
	</node>
	<node changeset="66172086" id="6196190135" lat="59.5388744" lon="10.3389742" timestamp="2019-01-09T18:47:00Z" uid="3497659" user="NKA" version="1">
		<tag k="name" v="Veberg" />
		<tag k="place" v="farm" />
		<tag k="ssr:stedsnr" v="392088" />
		<tag k="ssr:type" v="bruk" />
	</node>
	<node changeset="66172086" id="6196190136" lat="59.6495694" lon="10.2617639" timestamp="2019-01-09T18:47:00Z" uid="3497659" user="NKA" version="1">
		<tag k="name" v="Bråtan" />
		<tag k="place" v="farm" />
		<tag k="ssr:stedsnr" v="513969" />
		<tag k="ssr:type" v="bruk" />
	</node>
	<node changeset="66172086" id="6196190137" lat="59.5621806" lon="10.2259583" timestamp="2019-01-09T18:47:00Z" uid="3497659" user="NKA" version="1">
		<tag k="name" v="Bergan" />
		<tag k="place" v="isolated_dwelling" />
		<tag k="ssr:stedsnr" v="388995" />
		<tag k="ssr:type" v="eneboligMindreBoligbygg" />
	</node>
	<node changeset="66172086" id="6196190138" lat="59.6493111" lon="10.2396528" timestamp="2019-01-09T18:47:00Z" uid="3497659" user="NKA" version="1">
		<tag k="name" v="Repper-Kjeldås" />
		<tag k="place" v="farm" />
		<tag k="ssr:stedsnr" v="513970" />
		<tag k="ssr:type" v="bruk" />
	</node>
	<node changeset="66172086" id="6196190139" lat="59.59015" lon="10.2493917" timestamp="2019-01-09T18:47:00Z" uid="3497659" user="NKA" version="1">
		<tag k="name" v="Skafjell" />
		<tag k="place" v="farm" />
		<tag k="ssr:stedsnr" v="549029" />
		<tag k="ssr:type" v="bruk" />
	</node>
	<node changeset="66172086" id="6196190140" lat="59.630825" lon="10.2574806" timestamp="2019-01-09T18:47:00Z" uid="3497659" user="NKA" version="1">
		<tag k="name" v="Roligheta" />
		<tag k="place" v="farm" />
		<tag k="ssr:stedsnr" v="549097" />
		<tag k="ssr:type" v="bruk" />
	</node>
	<node changeset="66172086" id="6196190141" lat="59.5526222" lon="10.2929028" timestamp="2019-01-09T18:47:00Z" uid="3497659" user="NKA" version="1">
		<tag k="name" v="Bekke mellom" />
		<tag k="place" v="farm" />
		<tag k="ssr:stedsnr" v="392262" />
		<tag k="ssr:type" v="bruk" />
	</node>
	<node changeset="66172086" id="6196190142" lat="59.5915028" lon="10.2481306" timestamp="2019-01-09T18:47:00Z" uid="3497659" user="NKA" version="1">
		<tag k="name" v="Rud" />
		<tag k="place" v="farm" />
		<tag k="ssr:stedsnr" v="549028" />
		<tag k="ssr:type" v="bruk" />
	</node>
	<node changeset="66172086" id="6196190143" lat="59.5536722" lon="10.2837833" timestamp="2019-01-09T18:47:00Z" uid="3497659" user="NKA" version="1">
		<tag k="name" v="Ødegården" />
		<tag k="place" v="farm" />
		<tag k="ssr:stedsnr" v="392254" />
		<tag k="ssr:type" v="bruk" />
	</node>
	<node changeset="66172086" id="6196190144" lat="59.648278" lon="10.2289864" timestamp="2019-01-09T18:47:00Z" uid="3497659" user="NKA" version="1">
		<tag k="name" v="Gutu" />
		<tag k="place" v="farm" />
		<tag k="ssr:stedsnr" v="549147" />
		<tag k="ssr:type" v="bruk" />
	</node>
	<node changeset="66172086" id="6196190145" lat="59.60575" lon="10.2017722" timestamp="2019-01-09T18:47:00Z" uid="3497659" user="NKA" version="1">
		<tag k="name" v="Veierud" />
		<tag k="place" v="farm" />
		<tag k="ssr:stedsnr" v="549127" />
		<tag k="ssr:type" v="bruk" />
	</node>
	<node changeset="66172086" id="6196190146" lat="59.5694167" lon="10.2518417" timestamp="2019-01-09T18:47:01Z" uid="3497659" user="NKA" version="1">
		<tag k="name" v="Lersbryggen søndre" />
		<tag k="place" v="farm" />
		<tag k="ssr:stedsnr" v="392648" />
		<tag k="ssr:type" v="bruk" />
	</node>
	<node changeset="66172086" id="6196190147" lat="59.618725" lon="10.1467889" timestamp="2019-01-09T18:47:01Z" uid="3497659" user="NKA" version="1">
		<tag k="historic" v="shieling" />
		<tag k="name" v="Solbergsetra" />
		<tag k="place" v="isolated_dwelling" />
		<tag k="ssr:stedsnr" v="550083" />
		<tag k="ssr:type" v="fritidsbolig" />
	</node>
	<node changeset="66172086" id="6196190148" lat="59.6268086" lon="10.2115955" timestamp="2019-01-09T18:47:01Z" uid="3497659" user="NKA" version="1">
		<tag k="name" v="Myre" />
		<tag k="place" v="hamlet" />
		<tag k="ssr:stedsnr" v="392687" />
		<tag k="ssr:type" v="bruk" />
	</node>
	<node changeset="66172086" id="6196190149" lat="59.611175" lon="10.1871083" timestamp="2019-01-09T18:47:01Z" uid="3497659" user="NKA" version="1">
		<tag k="name" v="Bolstad nordre" />
		<tag k="place" v="farm" />
		<tag k="ssr:stedsnr" v="573887" />
		<tag k="ssr:type" v="bruk" />
	</node>
	<node changeset="66172086" id="6196190150" lat="59.5408314" lon="10.3578182" timestamp="2019-01-09T18:47:01Z" uid="3497659" user="NKA" version="1">
		<tag k="name" v="Flåbekk" />
		<tag k="old_name" v="Flåbekka" />
		<tag k="place" v="farm" />
		<tag k="ssr:stedsnr" v="574031" />
		<tag k="ssr:type" v="bruk" />
	</node>
	<node changeset="66172086" id="6196190151" lat="59.5995222" lon="10.2122361" timestamp="2019-01-09T18:47:01Z" uid="3497659" user="NKA" version="1">
		<tag k="name" v="Gunnestad nordre" />
		<tag k="place" v="farm" />
		<tag k="ssr:stedsnr" v="392920" />
		<tag k="ssr:type" v="bruk" />
	</node>
	<node changeset="66172086" id="6196190152" lat="59.6111278" lon="10.2009111" timestamp="2019-01-09T18:47:01Z" uid="3497659" user="NKA" version="1">
		<tag k="name" v="Løvald" />
		<tag k="place" v="farm" />
		<tag k="ssr:stedsnr" v="573905" />
		<tag k="ssr:type" v="bruk" />
	</node>
	<node changeset="66172086" id="6196190153" lat="59.6084944" lon="10.2054667" timestamp="2019-01-09T18:47:01Z" uid="3497659" user="NKA" version="1">
		<tag k="name" v="Lindås" />
		<tag k="place" v="farm" />
		<tag k="ssr:stedsnr" v="392931" />
		<tag k="ssr:type" v="bruk" />
	</node>
	<node changeset="66172086" id="6196190154" lat="59.5514409" lon="10.3252245" timestamp="2019-01-09T18:47:01Z" uid="3497659" user="NKA" version="1">
		<tag k="name" v="Kvisle" />
		<tag k="place" v="farm" />
		<tag k="ssr:stedsnr" v="574249" />
		<tag k="ssr:type" v="bruk" />
	</node>
	<node changeset="66172086" id="6196190155" lat="59.6491333" lon="10.2527889" timestamp="2019-01-09T18:47:01Z" uid="3497659" user="NKA" version="1">
		<tag k="name" v="Solli" />
		<tag k="place" v="farm" />
		<tag k="ssr:stedsnr" v="392968" />
		<tag k="ssr:type" v="bruk" />
	</node>
	<node changeset="66172086" id="6196190156" lat="59.5878111" lon="10.1758167" timestamp="2019-01-09T18:47:01Z" uid="3497659" user="NKA" version="1">
		<tag k="name" v="Solli" />
		<tag k="place" v="farm" />
		<tag k="ssr:stedsnr" v="574597" />
		<tag k="ssr:type" v="bruk" />
	</node>
	<node changeset="66172086" id="6196190157" lat="59.5929222" lon="10.2379111" timestamp="2019-01-09T18:47:01Z" uid="3497659" user="NKA" version="1">
		<tag k="alt_name" v="Øvre Rud" />
		<tag k="name" v="Rud østre" />
		<tag k="place" v="farm" />
		<tag k="ssr:stedsnr" v="574602" />
		<tag k="ssr:type" v="bruk" />
	</node>
	<node changeset="66172086" id="6196190158" lat="59.6591123" lon="10.2478887" timestamp="2019-01-09T18:47:01Z" uid="3497659" user="NKA" version="1">
		<tag k="name" v="Østren" />
		<tag k="place" v="farm" />
		<tag k="ssr:stedsnr" v="392972" />
		<tag k="ssr:type" v="bruk" />
	</node>
	<node changeset="66172086" id="6196190159" lat="59.5874667" lon="10.1920833" timestamp="2019-01-09T18:47:01Z" uid="3497659" user="NKA" version="1">
		<tag k="name" v="Tangen" />
		<tag k="place" v="locality" />
		<tag k="ssr:stedsnr" v="574596" />
		<tag k="ssr:type" v="eiendom" />
	</node>
	<node changeset="66172086" id="6196190160" lat="59.6206556" lon="10.2067778" timestamp="2019-01-09T18:47:02Z" uid="3497659" user="NKA" version="1">
		<tag k="name" v="Ruud søndre" />
		<tag k="place" v="farm" />
		<tag k="ssr:stedsnr" v="574648" />
		<tag k="ssr:type" v="bruk" />
	</node>
	<node changeset="66172086" id="6196190161" lat="59.5783917" lon="10.2163972" timestamp="2019-01-09T18:47:02Z" uid="3497659" user="NKA" version="1">
		<tag k="name" v="Gravningen" />
		<tag k="place" v="farm" />
		<tag k="ssr:stedsnr" v="3001" />
		<tag k="ssr:type" v="bruk" />
	</node>
	<node changeset="66172086" id="6196190162" lat="59.5836111" lon="10.2237639" timestamp="2019-01-09T18:47:02Z" uid="3497659" user="NKA" version="1">
		<tag k="alt_name" v="Ekeli" />
		<tag k="name" v="Eikeli" />
		<tag k="place" v="farm" />
		<tag k="ssr:stedsnr" v="3003" />
		<tag k="ssr:type" v="bruk" />
	</node>
	<node changeset="66172086" id="6196190163" lat="59.6307444" lon="10.2122639" timestamp="2019-01-09T18:47:02Z" uid="3497659" user="NKA" version="1">
		<tag k="name" v="Bølum nordre" />
		<tag k="place" v="farm" />
		<tag k="ssr:stedsnr" v="574658" />
		<tag k="ssr:type" v="bruk" />
	</node>
	<node changeset="66172086" id="6196190164" lat="59.5906611" lon="10.2349056" timestamp="2019-01-09T18:47:02Z" uid="3497659" user="NKA" version="1">
		<tag k="alt_name" v="Simenstad nedre" />
		<tag k="name" v="Simenstad" />
		<tag k="place" v="farm" />
		<tag k="ssr:stedsnr" v="3030" />
		<tag k="ssr:type" v="bruk" />
	</node>
	<node changeset="66172086" id="6196190165" lat="59.6123222" lon="10.0891333" timestamp="2019-01-09T18:47:02Z" uid="3497659" user="NKA" version="1">
		<tag k="historic" v="shieling" />
		<tag k="name" v="Skjørdalsseter" />
		<tag k="place" v="isolated_dwelling" />
		<tag k="ssr:stedsnr" v="574751" />
		<tag k="ssr:type" v="fritidsbolig" />
	</node>
	<node changeset="66172086" id="6196190166" lat="59.56045" lon="10.3284389" timestamp="2019-01-09T18:47:02Z" uid="3497659" user="NKA" version="1">
		<tag k="name" v="Holtan" />
		<tag k="place" v="farm" />
		<tag k="ssr:stedsnr" v="3036" />
		<tag k="ssr:type" v="bruk" />
	</node>
	<node changeset="66172086" id="6196190167" lat="59.654775" lon="10.2033667" timestamp="2019-01-09T18:47:02Z" uid="3497659" user="NKA" version="1">
		<tag k="name" v="Grytebakke" />
		<tag k="place" v="farm" />
		<tag k="ssr:stedsnr" v="3121" />
		<tag k="ssr:type" v="bruk" />
	</node>
	<node changeset="66172086" id="6196190168" lat="59.5470389" lon="10.2954722" timestamp="2019-01-09T18:47:02Z" uid="3497659" user="NKA" version="1">
		<tag k="name" v="Langdokk" />
		<tag k="place" v="neighbourhood" />
		<tag k="ssr:stedsnr" v="574853" />
		<tag k="ssr:type" v="tettbebyggelse" />
	</node>
	<node changeset="66172086" id="6196190169" lat="59.645475" lon="10.1942528" timestamp="2019-01-09T18:47:02Z" uid="3497659" user="NKA" version="1">
		<tag k="name" v="Bråtan" />
		<tag k="place" v="isolated_dwelling" />
		<tag k="ssr:stedsnr" v="3159" />
		<tag k="ssr:type" v="eneboligMindreBoligbygg" />
	</node>
	<node changeset="66172086" id="6196190170" lat="59.5469667" lon="10.2132" timestamp="2019-01-09T18:47:02Z" uid="3497659" user="NKA" version="1">
		<tag k="historic" v="shieling" />
		<tag k="name" v="Søndre Veseterstulen" />
		<tag k="place" v="isolated_dwelling" />
		<tag k="ssr:stedsnr" v="574797" />
		<tag k="ssr:type" v="fritidsbolig" />
	</node>
	<node changeset="66172086" id="6196190171" lat="59.6036806" lon="10.1480278" timestamp="2019-01-09T18:47:02Z" uid="3497659" user="NKA" version="1">
		<tag k="name" v="Kriken" />
		<tag k="place" v="farm" />
		<tag k="ssr:stedsnr" v="3112" />
		<tag k="ssr:type" v="bruk" />
	</node>
	<node changeset="66172086" id="6196190172" lat="59.6097049" lon="10.1950197" timestamp="2019-01-09T18:47:02Z" uid="3497659" user="NKA" version="1">
		<tag k="name" v="Åkerud" />
		<tag k="place" v="farm" />
		<tag k="ssr:stedsnr" v="574918" />
		<tag k="ssr:type" v="bruk" />
	</node>
	<node changeset="66172086" id="6196190173" lat="59.5365" lon="10.3351361" timestamp="2019-01-09T18:47:02Z" uid="3497659" user="NKA" version="1">
		<tag k="alt_name" v="Gyltesø" />
		<tag k="name" v="Gylteser" />
		<tag k="place" v="farm" />
		<tag k="ssr:stedsnr" v="3877" />
		<tag k="ssr:type" v="bruk" />
	</node>
	<node changeset="66172086" id="6196190174" lat="59.6189806" lon="10.2772833" timestamp="2019-01-09T18:47:02Z" uid="3497659" user="NKA" version="1">
		<tag k="historic" v="shieling" />
		<tag k="name" v="Lærumsetra" />
		<tag k="place" v="isolated_dwelling" />
		<tag k="ssr:stedsnr" v="4072" />
		<tag k="ssr:type" v="fritidsbolig" />
	</node>
	<node changeset="66172086" id="6196190175" lat="59.6493407" lon="10.2161368" timestamp="2019-01-09T18:47:03Z" uid="3497659" user="NKA" version="1">
		<tag k="name" v="Gryte" />
		<tag k="place" v="farm" />
		<tag k="ssr:stedsnr" v="574979" />
		<tag k="ssr:type" v="bruk" />
	</node>
	<node changeset="66172086" id="6196190176" lat="59.6390917" lon="10.2101417" timestamp="2019-01-09T18:47:03Z" uid="3497659" user="NKA" version="1">
		<tag k="name" v="Bjørge nordre" />
		<tag k="place" v="farm" />
		<tag k="ssr:stedsnr" v="574972" />
		<tag k="ssr:type" v="bruk" />
	</node>
	<node changeset="66172086" id="6196190177" lat="59.6477639" lon="10.2385556" timestamp="2019-01-09T18:47:03Z" uid="3497659" user="NKA" version="1">
		<tag k="name" v="Kjeldås vestre" />
		<tag k="place" v="farm" />
		<tag k="ssr:stedsnr" v="574975" />
		<tag k="ssr:type" v="bruk" />
	</node>
	<node changeset="66172086" id="6196190178" lat="59.6177389" lon="10.22115" timestamp="2019-01-09T18:47:04Z" uid="3497659" user="NKA" version="1">
		<tag k="name" v="Heimdal" />
		<tag k="place" v="farm" />
		<tag k="ssr:stedsnr" v="4068" />
		<tag k="ssr:type" v="bruk" />
	</node>
	<node changeset="66172086" id="6196190179" lat="59.5589278" lon="10.2764583" timestamp="2019-01-09T18:47:04Z" uid="3497659" user="NKA" version="1">
		<tag k="name" v="Saltbua" />
		<tag k="place" v="farm" />
		<tag k="ssr:stedsnr" v="574994" />
		<tag k="ssr:type" v="bruk" />
	</node>
	<node changeset="66172086" id="6196190180" lat="59.6389389" lon="10.2299917" timestamp="2019-01-09T18:47:04Z" uid="3497659" user="NKA" version="1">
		<tag k="alt_name" v="Rølles" />
		<tag k="name" v="Rødløs" />
		<tag k="place" v="farm" />
		<tag k="ssr:stedsnr" v="609165" />
		<tag k="ssr:type" v="bruk" />
	</node>
	<node changeset="66172086" id="6196190181" lat="59.5396389" lon="10.3288945" timestamp="2019-01-09T18:47:04Z" uid="3497659" user="NKA" version="1">
		<tag k="name" v="Haslestad" />
		<tag k="place" v="farm" />
		<tag k="ssr:stedsnr" v="28053" />
		<tag k="ssr:type" v="bruk" />
	</node>
	<node changeset="66172086" id="6196190182" lat="59.5857139" lon="10.1927694" timestamp="2019-01-09T18:47:04Z" uid="3497659" user="NKA" version="1">
		<tag k="name" v="Valle" />
		<tag k="place" v="farm" />
		<tag k="ssr:stedsnr" v="609016" />
		<tag k="ssr:type" v="bruk" />
	</node>
	<node changeset="66172086" id="6196190183" lat="59.5883889" lon="10.2251528" timestamp="2019-01-09T18:47:04Z" uid="3497659" user="NKA" version="1">
		<tag k="name" v="Duni" />
		<tag k="place" v="farm" />
		<tag k="ssr:stedsnr" v="609018" />
		<tag k="ssr:type" v="bruk" />
	</node>
	<node changeset="66172086" id="6196190184" lat="59.6574528" lon="10.2740083" timestamp="2019-01-09T18:47:04Z" uid="3497659" user="NKA" version="1">
		<tag k="alt_name" v="Snokop" />
		<tag k="name" v="Snokopp" />
		<tag k="place" v="farm" />
		<tag k="ssr:stedsnr" v="610152" />
		<tag k="ssr:type" v="bruk" />
	</node>
	<node changeset="3931565" id="648866793" lat="59.6522983" lon="10.2089558" timestamp="2010-02-21T11:08:46Z" uid="160202" user="Vedeler" version="1" />
	<node changeset="3931565" id="648866794" lat="59.6522441" lon="10.2083442" timestamp="2010-02-21T11:08:46Z" uid="160202" user="Vedeler" version="1" />
	<node changeset="3931565" id="648866795" lat="59.6522224" lon="10.2080653" timestamp="2010-02-21T11:08:46Z" uid="160202" user="Vedeler" version="1" />
	<node changeset="3931565" id="648866796" lat="59.6521845" lon="10.2076683" timestamp="2010-02-21T11:08:46Z" uid="160202" user="Vedeler" version="1" />
	<node changeset="3931565" id="648866797" lat="59.6521845" lon="10.2072177" timestamp="2010-02-21T11:08:46Z" uid="160202" user="Vedeler" version="1" />
	<node changeset="3931565" id="648866798" lat="59.6522766" lon="10.2066813" timestamp="2010-02-21T11:08:47Z" uid="160202" user="Vedeler" version="1" />
	<node changeset="3931565" id="648866799" lat="59.6524121" lon="10.2063379" timestamp="2010-02-21T11:08:47Z" uid="160202" user="Vedeler" version="1" />
	<node changeset="3931565" id="648866800" lat="59.6526344" lon="10.2059946" timestamp="2010-02-21T11:08:47Z" uid="160202" user="Vedeler" version="1" />
	<node changeset="3931565" id="648866801" lat="59.6527536" lon="10.2063058" timestamp="2010-02-21T11:08:47Z" uid="160202" user="Vedeler" version="1" />
	<node changeset="3931565" id="648866802" lat="59.6529" lon="10.2060483" timestamp="2010-02-21T11:08:47Z" uid="160202" user="Vedeler" version="1" />
	<node changeset="3931565" id="648866803" lat="59.6530789" lon="10.2056513" timestamp="2010-02-21T11:08:47Z" uid="160202" user="Vedeler" version="1" />
	<node changeset="3931565" id="648866804" lat="59.6534258" lon="10.2050183" timestamp="2010-02-21T11:08:47Z" uid="160202" user="Vedeler" version="1" />
	<node changeset="3931565" id="648866805" lat="59.6538432" lon="10.2043746" timestamp="2010-02-21T11:08:47Z" uid="160202" user="Vedeler" version="1" />
	<node changeset="3931565" id="648866806" lat="59.6541305" lon="10.2037737" timestamp="2010-02-21T11:08:47Z" uid="160202" user="Vedeler" version="1" />
	<node changeset="3931565" id="648866807" lat="59.6543798" lon="10.2025936" timestamp="2010-02-21T11:08:47Z" uid="160202" user="Vedeler" version="1" />
	<node changeset="3931565" id="648866808" lat="59.6545641" lon="10.2016924" timestamp="2010-02-21T11:08:47Z" uid="160202" user="Vedeler" version="1" />
	<node changeset="3931565" id="648866809" lat="59.6546888" lon="10.2012739" timestamp="2010-02-21T11:08:48Z" uid="160202" user="Vedeler" version="1" />
	<node changeset="3931565" id="648866810" lat="59.6550573" lon="10.200834" timestamp="2010-02-21T11:08:48Z" uid="160202" user="Vedeler" version="1" />
	<node changeset="3931565" id="648866811" lat="59.6553121" lon="10.2002654" timestamp="2010-02-21T11:08:48Z" uid="160202" user="Vedeler" version="1" />
	<node changeset="3931565" id="648866812" lat="59.6553988" lon="10.1997397" timestamp="2010-02-21T11:08:48Z" uid="160202" user="Vedeler" version="1" />
	<node changeset="3931565" id="648866813" lat="59.6553826" lon="10.1991496" timestamp="2010-02-21T11:08:48Z" uid="160202" user="Vedeler" version="1" />
	<node changeset="3931565" id="648866814" lat="59.6554422" lon="10.1987419" timestamp="2010-02-21T11:08:48Z" uid="160202" user="Vedeler" version="1" />
	<node changeset="3931565" id="648866815" lat="59.6557403" lon="10.1984201" timestamp="2010-02-21T11:08:48Z" uid="160202" user="Vedeler" version="1" />
	<node changeset="3931565" id="648866816" lat="59.6560113" lon="10.198066" timestamp="2010-02-21T11:08:48Z" uid="160202" user="Vedeler" version="1" />
	<node changeset="3931565" id="648866817" lat="59.6561847" lon="10.1976047" timestamp="2010-02-21T11:08:48Z" uid="160202" user="Vedeler" version="1" />
	<node changeset="3931565" id="648866818" lat="59.6562335" lon="10.1971862" timestamp="2010-02-21T11:08:49Z" uid="160202" user="Vedeler" version="1" />
	<node changeset="3931565" id="648866819" lat="59.6562064" lon="10.1968751" timestamp="2010-02-21T11:08:49Z" uid="160202" user="Vedeler" version="1" />
	<node changeset="3931565" id="648866820" lat="59.6561305" lon="10.1968215" timestamp="2010-02-21T11:08:49Z" uid="160202" user="Vedeler" version="1" />
	<node changeset="3931565" id="648866821" lat="59.6560655" lon="10.1970468" timestamp="2010-02-21T11:08:49Z" uid="160202" user="Vedeler" version="1" />
	<node changeset="3931565" id="648866822" lat="59.6559788" lon="10.1971219" timestamp="2010-02-21T11:08:49Z" uid="160202" user="Vedeler" version="1" />
	<node changeset="3931565" id="648866823" lat="59.6559191" lon="10.1970253" timestamp="2010-02-21T11:08:49Z" uid="160202" user="Vedeler" version="1" />
	<node changeset="3931565" id="648866824" lat="59.655892" lon="10.1967356" timestamp="2010-02-21T11:08:49Z" uid="160202" user="Vedeler" version="1" />
	<node changeset="3931565" id="648866825" lat="59.6559896" lon="10.1964889" timestamp="2010-02-21T11:08:49Z" uid="160202" user="Vedeler" version="1" />
	<node changeset="3931565" id="648866826" lat="59.6559625" lon="10.1961455" timestamp="2010-02-21T11:08:49Z" uid="160202" user="Vedeler" version="1" />
	<node changeset="3931565" id="648866827" lat="59.6558541" lon="10.1959417" timestamp="2010-02-21T11:08:49Z" uid="160202" user="Vedeler" version="1" />
	<node changeset="3931565" id="648866828" lat="59.6557294" lon="10.1959846" timestamp="2010-02-21T11:08:49Z" uid="160202" user="Vedeler" version="1" />
	<node changeset="3931565" id="648866829" lat="59.6556265" lon="10.1958451" timestamp="2010-02-21T11:08:50Z" uid="160202" user="Vedeler" version="1" />
	<node changeset="3931565" id="648866830" lat="59.6555343" lon="10.1954482" timestamp="2010-02-21T11:08:50Z" uid="160202" user="Vedeler" version="1" />
	<node changeset="3931565" id="648866831" lat="59.6555126" lon="10.1949546" timestamp="2010-02-21T11:08:50Z" uid="160202" user="Vedeler" version="1" />
	<node changeset="3931565" id="648866832" lat="59.6554042" lon="10.194783" timestamp="2010-02-21T11:08:50Z" uid="160202" user="Vedeler" version="1" />
	<node changeset="3931565" id="648866833" lat="59.6553067" lon="10.1947723" timestamp="2010-02-21T11:08:50Z" uid="160202" user="Vedeler" version="1" />
	<node changeset="3931565" id="648866834" lat="59.6552037" lon="10.1946972" timestamp="2010-02-21T11:08:50Z" uid="160202" user="Vedeler" version="1" />
	<node changeset="3931565" id="648866835" lat="59.6550682" lon="10.1942573" timestamp="2010-02-21T11:08:50Z" uid="160202" user="Vedeler" version="1" />
	<node changeset="3931565" id="648866836" lat="59.6549869" lon="10.1937423" timestamp="2010-02-21T11:08:50Z" uid="160202" user="Vedeler" version="1" />
	<node changeset="3931565" id="648866837" lat="59.6549002" lon="10.1934526" timestamp="2010-02-21T11:08:50Z" uid="160202" user="Vedeler" version="1" />
	<node changeset="3931565" id="648866838" lat="59.654743" lon="10.1932595" timestamp="2010-02-21T11:08:50Z" uid="160202" user="Vedeler" version="1" />
	<node changeset="3931565" id="648866839" lat="59.6544774" lon="10.1929805" timestamp="2010-02-21T11:08:50Z" uid="160202" user="Vedeler" version="1" />
	<node changeset="3931565" id="648866840" lat="59.6543852" lon="10.1927123" timestamp="2010-02-21T11:08:50Z" uid="160202" user="Vedeler" version="1" />
	<node changeset="3931565" id="648866841" lat="59.6543581" lon="10.1922939" timestamp="2010-02-21T11:08:50Z" uid="160202" user="Vedeler" version="1" />
	<node changeset="3931565" id="648866842" lat="59.6544069" lon="10.1917575" timestamp="2010-02-21T11:08:51Z" uid="160202" user="Vedeler" version="1" />
	<node changeset="3931565" id="648866843" lat="59.6543852" lon="10.1911674" timestamp="2010-02-21T11:08:51Z" uid="160202" user="Vedeler" version="1" />
	<node changeset="3931565" id="648866844" lat="59.6542768" lon="10.1904163" timestamp="2010-02-21T11:08:51Z" uid="160202" user="Vedeler" version="1" />
	<node changeset="3931565" id="648866845" lat="59.6542768" lon="10.1897512" timestamp="2010-02-21T11:08:51Z" uid="160202" user="Vedeler" version="1" />
	<node changeset="3931565" id="648866846" lat="59.6543906" lon="10.1892362" timestamp="2010-02-21T11:08:51Z" uid="160202" user="Vedeler" version="1" />
	<node changeset="3931565" id="648866847" lat="59.6545587" lon="10.1887319" timestamp="2010-02-21T11:08:51Z" uid="160202" user="Vedeler" version="1" />
	<node changeset="3931565" id="648866848" lat="59.6545912" lon="10.1882599" timestamp="2010-02-21T11:08:51Z" uid="160202" user="Vedeler" version="1" />
	<node changeset="3931565" id="648866849" lat="59.6545804" lon="10.1878951" timestamp="2010-02-21T11:08:51Z" uid="160202" user="Vedeler" version="1" />
	<node changeset="3931565" id="648866850" lat="59.654602" lon="10.1873908" timestamp="2010-02-21T11:08:51Z" uid="160202" user="Vedeler" version="1" />
	<node changeset="3931565" id="648866851" lat="59.6547321" lon="10.1869295" timestamp="2010-02-21T11:08:51Z" uid="160202" user="Vedeler" version="1" />
	<node changeset="3931565" id="648866852" lat="59.6548405" lon="10.1864467" timestamp="2010-02-21T11:08:51Z" uid="160202" user="Vedeler" version="1" />
	<node changeset="3931565" id="648866853" lat="59.655014" lon="10.1861141" timestamp="2010-02-21T11:08:52Z" uid="160202" user="Vedeler" version="1" />
	<node changeset="3931565" id="648866854" lat="59.6552741" lon="10.1857064" timestamp="2010-02-21T11:08:52Z" uid="160202" user="Vedeler" version="1" />
	<node changeset="3931565" id="648866855" lat="59.6554639" lon="10.185245" timestamp="2010-02-21T11:08:52Z" uid="160202" user="Vedeler" version="1" />
	<node changeset="3931565" id="648866856" lat="59.6555939" lon="10.1849876" timestamp="2010-02-21T11:08:52Z" uid="160202" user="Vedeler" version="1" />
	<node changeset="3931565" id="648866857" lat="59.6556807" lon="10.184612" timestamp="2010-02-21T11:08:52Z" uid="160202" user="Vedeler" version="1" />
	<node changeset="3931565" id="648866858" lat="59.6557891" lon="10.1841078" timestamp="2010-02-21T11:08:52Z" uid="160202" user="Vedeler" version="1" />
	<node changeset="3931565" id="648866859" lat="59.6558649" lon="10.1838074" timestamp="2010-02-21T11:08:52Z" uid="160202" user="Vedeler" version="1" />
	<node changeset="3931565" id="648866860" lat="59.6560655" lon="10.183507" timestamp="2010-02-21T11:08:52Z" uid="160202" user="Vedeler" version="1" />
	<node changeset="3931565" id="648866862" lat="59.6564883" lon="10.1830671" timestamp="2010-02-21T11:08:52Z" uid="160202" user="Vedeler" version="1" />
	<node changeset="3931565" id="648866863" lat="59.6567918" lon="10.1829705" timestamp="2010-02-21T11:08:52Z" uid="160202" user="Vedeler" version="1" />
	<node changeset="3931565" id="648866864" lat="59.6569706" lon="10.1829813" timestamp="2010-02-21T11:08:52Z" uid="160202" user="Vedeler" version="1" />
	<node changeset="3931565" id="648866865" lat="59.6571983" lon="10.1825521" timestamp="2010-02-21T11:08:53Z" uid="160202" user="Vedeler" version="1" />
	<node changeset="3931565" id="648866866" lat="59.6573717" lon="10.1819728" timestamp="2010-02-21T11:08:53Z" uid="160202" user="Vedeler" version="1" />
	<node changeset="3931565" id="648866867" lat="59.6576102" lon="10.1815543" timestamp="2010-02-21T11:08:53Z" uid="160202" user="Vedeler" version="1" />
	<node changeset="3931565" id="648866868" lat="59.6578866" lon="10.1812647" timestamp="2010-02-21T11:08:53Z" uid="160202" user="Vedeler" version="1" />
	<node changeset="3931565" id="648866869" lat="59.6580492" lon="10.1808784" timestamp="2010-02-21T11:08:53Z" uid="160202" user="Vedeler" version="1" />
	<node changeset="3931565" id="648866870" lat="59.6581305" lon="10.1804814" timestamp="2010-02-21T11:08:53Z" uid="160202" user="Vedeler" version="1" />
	<node changeset="3931565" id="648866871" lat="59.6581196" lon="10.1801274" timestamp="2010-02-21T11:08:53Z" uid="160202" user="Vedeler" version="1" />
	<node changeset="3931565" id="648866872" lat="59.65806" lon="10.1799128" timestamp="2010-02-21T11:08:53Z" uid="160202" user="Vedeler" version="1" />
	<node changeset="3931565" id="648866873" lat="59.6581034" lon="10.1795159" timestamp="2010-02-21T11:08:53Z" uid="160202" user="Vedeler" version="1" />
	<node changeset="3931565" id="648866874" lat="59.6581413" lon="10.1790331" timestamp="2010-02-21T11:08:53Z" uid="160202" user="Vedeler" version="1" />
	<node changeset="3931565" id="648866875" lat="59.6581738" lon="10.1787219" timestamp="2010-02-21T11:08:54Z" uid="160202" user="Vedeler" version="1" />
	<node changeset="3931565" id="648866876" lat="59.6582822" lon="10.1785824" timestamp="2010-02-21T11:08:54Z" uid="160202" user="Vedeler" version="1" />
	<node changeset="3931565" id="648866877" lat="59.6583202" lon="10.1782713" timestamp="2010-02-21T11:08:54Z" uid="160202" user="Vedeler" version="1" />
	<node changeset="3931565" id="648866878" lat="59.6584015" lon="10.1779602" timestamp="2010-02-21T11:08:54Z" uid="160202" user="Vedeler" version="1" />
	<node changeset="3931565" id="648866879" lat="59.6584231" lon="10.1776383" timestamp="2010-02-21T11:08:54Z" uid="160202" user="Vedeler" version="1" />
	<node changeset="3931565" id="648866880" lat="59.6585261" lon="10.1773915" timestamp="2010-02-21T11:08:54Z" uid="160202" user="Vedeler" version="1" />
	<node changeset="3931565" id="648866881" lat="59.6586562" lon="10.1771877" timestamp="2010-02-21T11:08:54Z" uid="160202" user="Vedeler" version="1" />
	<node changeset="3931565" id="648866882" lat="59.6587158" lon="10.1768873" timestamp="2010-02-21T11:08:54Z" uid="160202" user="Vedeler" version="1" />
	<node changeset="3931565" id="648866883" lat="59.6587592" lon="10.1763187" timestamp="2010-02-21T11:08:54Z" uid="160202" user="Vedeler" version="1" />
	<node changeset="3931565" id="648866884" lat="59.6587808" lon="10.1757929" timestamp="2010-02-21T11:08:54Z" uid="160202" user="Vedeler" version="1" />
	<node changeset="3931565" id="648866885" lat="59.658835" lon="10.175514" timestamp="2010-02-21T11:08:54Z" uid="160202" user="Vedeler" version="1" />
	<node changeset="3931565" id="648866886" lat="59.6588838" lon="10.1753209" timestamp="2010-02-21T11:08:54Z" uid="160202" user="Vedeler" version="1" />
	<node changeset="3931565" id="648866887" lat="59.6588892" lon="10.1750634" timestamp="2010-02-21T11:08:54Z" uid="160202" user="Vedeler" version="1" />
	<node changeset="3931565" id="648866888" lat="59.6588025" lon="10.174645" timestamp="2010-02-21T11:08:54Z" uid="160202" user="Vedeler" version="1" />
	<node changeset="3931565" id="648866889" lat="59.6586616" lon="10.1745269" timestamp="2010-02-21T11:08:54Z" uid="160202" user="Vedeler" version="1" />
	<node changeset="3931565" id="648866890" lat="59.6585044" lon="10.1744948" timestamp="2010-02-21T11:08:55Z" uid="160202" user="Vedeler" version="1" />
	<node changeset="3931565" id="648866891" lat="59.6583961" lon="10.1742587" timestamp="2010-02-21T11:08:55Z" uid="160202" user="Vedeler" version="1" />
	<node changeset="3931565" id="648866892" lat="59.658331" lon="10.1737437" timestamp="2010-02-21T11:08:55Z" uid="160202" user="Vedeler" version="1" />
	<node changeset="3931565" id="648866893" lat="59.6582768" lon="10.1734111" timestamp="2010-02-21T11:08:55Z" uid="160202" user="Vedeler" version="1" />
	<node changeset="3931565" id="648866894" lat="59.6583581" lon="10.1731107" timestamp="2010-02-21T11:08:55Z" uid="160202" user="Vedeler" version="1" />
	<node changeset="3931565" id="648866895" lat="59.6583798" lon="10.1729176" timestamp="2010-02-21T11:08:55Z" uid="160202" user="Vedeler" version="1" />
	<node changeset="3931565" id="648866896" lat="59.6584665" lon="10.1725743" timestamp="2010-02-21T11:08:55Z" uid="160202" user="Vedeler" version="1" />
	<node changeset="3931565" id="648866897" lat="59.6586454" lon="10.1723812" timestamp="2010-02-21T11:08:55Z" uid="160202" user="Vedeler" version="1" />
	<node changeset="3931565" id="648866898" lat="59.6586833" lon="10.1721451" timestamp="2010-02-21T11:08:55Z" uid="160202" user="Vedeler" version="1" />
	<node changeset="3931565" id="648866899" lat="59.6586941" lon="10.1719413" timestamp="2010-02-21T11:08:55Z" uid="160202" user="Vedeler" version="1" />
	<node changeset="3931565" id="648866900" lat="59.6587104" lon="10.1712976" timestamp="2010-02-21T11:08:55Z" uid="160202" user="Vedeler" version="1" />
	<node changeset="3931565" id="648866901" lat="59.6588025" lon="10.1707826" timestamp="2010-02-21T11:08:56Z" uid="160202" user="Vedeler" version="1" />
	<node changeset="3931565" id="648866902" lat="59.6589434" lon="10.1704393" timestamp="2010-02-21T11:08:56Z" uid="160202" user="Vedeler" version="1" />
	<node changeset="3931565" id="648866903" lat="59.6591223" lon="10.170171" timestamp="2010-02-21T11:08:56Z" uid="160202" user="Vedeler" version="1" />
	<node changeset="3931565" id="648866904" lat="59.6592253" lon="10.169699" timestamp="2010-02-21T11:08:56Z" uid="160202" user="Vedeler" version="1" />
	<node changeset="3931565" id="648866905" lat="59.6594366" lon="10.1689801" timestamp="2010-02-21T11:08:56Z" uid="160202" user="Vedeler" version="1" />
	<node changeset="3931565" id="648866906" lat="59.6597781" lon="10.1682291" timestamp="2010-02-21T11:08:56Z" uid="160202" user="Vedeler" version="1" />
	<node changeset="3931565" id="648866907" lat="59.6600978" lon="10.1675317" timestamp="2010-02-21T11:08:56Z" uid="160202" user="Vedeler" version="1" />
	<node changeset="3931565" id="648866908" lat="59.6603525" lon="10.1668987" timestamp="2010-02-21T11:08:56Z" uid="160202" user="Vedeler" version="1" />
	<node changeset="3931565" id="648866909" lat="59.6605314" lon="10.166534" timestamp="2010-02-21T11:08:56Z" uid="160202" user="Vedeler" version="1" />
	<node changeset="3931565" id="648866910" lat="59.6607156" lon="10.1663408" timestamp="2010-02-21T11:08:57Z" uid="160202" user="Vedeler" version="1" />
	<node changeset="3931565" id="648866911" lat="59.6608999" lon="10.165858" timestamp="2010-02-21T11:08:57Z" uid="160202" user="Vedeler" version="1" />
	<node changeset="3931565" id="648866912" lat="59.661057" lon="10.1653001" timestamp="2010-02-21T11:08:57Z" uid="160202" user="Vedeler" version="1" />
	<node changeset="3931565" id="648866913" lat="59.6611383" lon="10.1649568" timestamp="2010-02-21T11:08:57Z" uid="160202" user="Vedeler" version="1" />
	<node changeset="3931565" id="648866914" lat="59.6611166" lon="10.164356" timestamp="2010-02-21T11:08:57Z" uid="160202" user="Vedeler" version="1" />
	<node changeset="3931565" id="648866915" lat="59.6611437" lon="10.1632831" timestamp="2010-02-21T11:08:57Z" uid="160202" user="Vedeler" version="1" />
	<node changeset="3931565" id="648866916" lat="59.6611871" lon="10.1624463" timestamp="2010-02-21T11:08:57Z" uid="160202" user="Vedeler" version="1" />
	<node changeset="3931565" id="648866917" lat="59.6611546" lon="10.1616309" timestamp="2010-02-21T11:08:57Z" uid="160202" user="Vedeler" version="1" />
	<node changeset="3931565" id="648866918" lat="59.6611058" lon="10.1608477" timestamp="2010-02-21T11:08:57Z" uid="160202" user="Vedeler" version="1" />
	<node changeset="3931565" id="648866919" lat="59.6611979" lon="10.160322" timestamp="2010-02-21T11:08:57Z" uid="160202" user="Vedeler" version="1" />
	<node changeset="3931565" id="648866920" lat="59.6613768" lon="10.1596353" timestamp="2010-02-21T11:08:57Z" uid="160202" user="Vedeler" version="1" />
	<node changeset="3931565" id="648866921" lat="59.6614797" lon="10.159013" timestamp="2010-02-21T11:08:57Z" uid="160202" user="Vedeler" version="1" />
	<node changeset="3931565" id="648866922" lat="59.6616423" lon="10.1585195" timestamp="2010-02-21T11:08:58Z" uid="160202" user="Vedeler" version="1" />
	<node changeset="3931565" id="648866923" lat="59.6616423" lon="10.1580689" timestamp="2010-02-21T11:08:58Z" uid="160202" user="Vedeler" version="1" />
	<node changeset="3931565" id="648866924" lat="59.6615393" lon="10.157393" timestamp="2010-02-21T11:08:58Z" uid="160202" user="Vedeler" version="1" />
	<node changeset="3931565" id="648866925" lat="59.6614418" lon="10.156642" timestamp="2010-02-21T11:08:58Z" uid="160202" user="Vedeler" version="1" />
	<node changeset="3931565" id="648866926" lat="59.6613768" lon="10.1560626" timestamp="2010-02-21T11:08:58Z" uid="160202" user="Vedeler" version="1" />
	<node changeset="3931565" id="648866927" lat="59.6613551" lon="10.1555584" timestamp="2010-02-21T11:08:58Z" uid="160202" user="Vedeler" version="1" />
	<node changeset="3931565" id="648866928" lat="59.6613822" lon="10.1550005" timestamp="2010-02-21T11:08:58Z" uid="160202" user="Vedeler" version="1" />
	<node changeset="3931565" id="648866929" lat="59.6615285" lon="10.1543675" timestamp="2010-02-21T11:08:58Z" uid="160202" user="Vedeler" version="1" />
	<node changeset="3931565" id="648866930" lat="59.6616586" lon="10.153949" timestamp="2010-02-21T11:08:58Z" uid="160202" user="Vedeler" version="1" />
	<node changeset="3931565" id="648866931" lat="59.6618807" lon="10.1534448" timestamp="2010-02-21T11:08:59Z" uid="160202" user="Vedeler" version="1" />
	<node changeset="3931565" id="648866932" lat="59.66213" lon="10.1528547" timestamp="2010-02-21T11:08:59Z" uid="160202" user="Vedeler" version="1" />
	<node changeset="3931565" id="648866933" lat="59.6622005" lon="10.1523504" timestamp="2010-02-21T11:08:59Z" uid="160202" user="Vedeler" version="1" />
	<node changeset="3931565" id="648866934" lat="59.6622222" lon="10.1517604" timestamp="2010-02-21T11:08:59Z" uid="160202" user="Vedeler" version="1" />
	<node changeset="3931565" id="648866935" lat="59.6623847" lon="10.1508699" timestamp="2010-02-21T11:08:59Z" uid="160202" user="Vedeler" version="1" />
	<node changeset="3931565" id="648866936" lat="59.6625636" lon="10.1501725" timestamp="2010-02-21T11:08:59Z" uid="160202" user="Vedeler" version="1" />
	<node changeset="3931565" id="648866937" lat="59.6627153" lon="10.1498184" timestamp="2010-02-21T11:08:59Z" uid="160202" user="Vedeler" version="1" />
	<node changeset="3931565" id="648866938" lat="59.6628995" lon="10.1496897" timestamp="2010-02-21T11:08:59Z" uid="160202" user="Vedeler" version="1" />
	<node changeset="3931565" id="648866939" lat="59.6633818" lon="10.149518" timestamp="2010-02-21T11:08:59Z" uid="160202" user="Vedeler" version="1" />
	<node changeset="3931565" id="648866940" lat="59.6635173" lon="10.1490138" timestamp="2010-02-21T11:08:59Z" uid="160202" user="Vedeler" version="1" />
	<node changeset="3931565" id="648866941" lat="59.6635498" lon="10.1485524" timestamp="2010-02-21T11:08:59Z" uid="160202" user="Vedeler" version="1" />
	<node changeset="3931565" id="648866942" lat="59.6635661" lon="10.1481233" timestamp="2010-02-21T11:08:59Z" uid="160202" user="Vedeler" version="1" />
	<node changeset="3931565" id="648866943" lat="59.6636257" lon="10.1477049" timestamp="2010-02-21T11:08:59Z" uid="160202" user="Vedeler" version="1" />
	<node changeset="3931565" id="648866944" lat="59.6637395" lon="10.1474366" timestamp="2010-02-21T11:08:59Z" uid="160202" user="Vedeler" version="1" />
	<node changeset="3931565" id="648866945" lat="59.663902" lon="10.1466105" timestamp="2010-02-21T11:09:00Z" uid="160202" user="Vedeler" version="1" />
	<node changeset="3931565" id="648866946" lat="59.6639075" lon="10.1464388" timestamp="2010-02-21T11:09:00Z" uid="160202" user="Vedeler" version="1" />
	<node changeset="3931565" id="648866947" lat="59.6637232" lon="10.1459668" timestamp="2010-02-21T11:09:00Z" uid="160202" user="Vedeler" version="1" />
	<node changeset="3931565" id="648866948" lat="59.6636203" lon="10.1457951" timestamp="2010-02-21T11:09:00Z" uid="160202" user="Vedeler" version="1" />
	<node changeset="3931565" id="648866949" lat="59.6635986" lon="10.145602" timestamp="2010-02-21T11:09:00Z" uid="160202" user="Vedeler" version="1" />
	<node changeset="3931565" id="648866950" lat="59.6637124" lon="10.1452479" timestamp="2010-02-21T11:09:00Z" uid="160202" user="Vedeler" version="1" />
	<node changeset="3931565" id="648866951" lat="59.6638262" lon="10.1450977" timestamp="2010-02-21T11:09:00Z" uid="160202" user="Vedeler" version="1" />
	<node changeset="3931565" id="648866952" lat="59.664173" lon="10.1447008" timestamp="2010-02-21T11:09:00Z" uid="160202" user="Vedeler" version="1" />
	<node changeset="3931565" id="648866953" lat="59.6643735" lon="10.1444647" timestamp="2010-02-21T11:09:01Z" uid="160202" user="Vedeler" version="1" />
	<node changeset="3931565" id="648866954" lat="59.6646119" lon="10.1441965" timestamp="2010-02-21T11:09:01Z" uid="160202" user="Vedeler" version="1" />
	<node changeset="3931565" id="648866955" lat="59.6648991" lon="10.1437566" timestamp="2010-02-21T11:09:01Z" uid="160202" user="Vedeler" version="1" />
	<node changeset="3931565" id="648866956" lat="59.6650616" lon="10.1433704" timestamp="2010-02-21T11:09:01Z" uid="160202" user="Vedeler" version="1" />
	<node changeset="3931565" id="648866957" lat="59.6651754" lon="10.1429949" timestamp="2010-02-21T11:09:01Z" uid="160202" user="Vedeler" version="1" />
	<node changeset="3931565" id="648866958" lat="59.6654572" lon="10.1420722" timestamp="2010-02-21T11:09:01Z" uid="160202" user="Vedeler" version="1" />
	<node changeset="3931565" id="648866959" lat="59.6656035" lon="10.1418147" timestamp="2010-02-21T11:09:01Z" uid="160202" user="Vedeler" version="1" />
	<node changeset="3931565" id="648866960" lat="59.6656794" lon="10.1416001" timestamp="2010-02-21T11:09:01Z" uid="160202" user="Vedeler" version="1" />
	<node changeset="3931565" id="648866961" lat="59.6656739" lon="10.1413748" timestamp="2010-02-21T11:09:01Z" uid="160202" user="Vedeler" version="1" />
	<node changeset="3931565" id="648866962" lat="59.6655547" lon="10.1407848" timestamp="2010-02-21T11:09:01Z" uid="160202" user="Vedeler" version="1" />
	<node changeset="3931565" id="648866963" lat="59.6655602" lon="10.1403556" timestamp="2010-02-21T11:09:01Z" uid="160202" user="Vedeler" version="1" />
	<node changeset="3931565" id="648866964" lat="59.6655764" lon="10.1394758" timestamp="2010-02-21T11:09:02Z" uid="160202" user="Vedeler" version="1" />
	<node changeset="3931565" id="648866965" lat="59.6656577" lon="10.1390038" timestamp="2010-02-21T11:09:02Z" uid="160202" user="Vedeler" version="1" />
	<node changeset="3931565" id="648866966" lat="59.6658148" lon="10.1388536" timestamp="2010-02-21T11:09:02Z" uid="160202" user="Vedeler" version="1" />
	<node changeset="3931565" id="648866967" lat="59.6660803" lon="10.1387141" timestamp="2010-02-21T11:09:02Z" uid="160202" user="Vedeler" version="1" />
	<node changeset="3931565" id="648866968" lat="59.6663025" lon="10.1385532" timestamp="2010-02-21T11:09:02Z" uid="160202" user="Vedeler" version="1" />
	<node changeset="3931565" id="648866969" lat="59.6664109" lon="10.1383386" timestamp="2010-02-21T11:09:02Z" uid="160202" user="Vedeler" version="1" />
	<node changeset="3931565" id="648866970" lat="59.6664976" lon="10.138006" timestamp="2010-02-21T11:09:02Z" uid="160202" user="Vedeler" version="1" />
	<node changeset="3931565" id="648866971" lat="59.6666601" lon="10.1376627" timestamp="2010-02-21T11:09:02Z" uid="160202" user="Vedeler" version="1" />
	<node changeset="3931565" id="648866972" lat="59.6668064" lon="10.1373193" timestamp="2010-02-21T11:09:02Z" uid="160202" user="Vedeler" version="1" />
	<node changeset="3931565" id="648866973" lat="59.6667631" lon="10.1369009" timestamp="2010-02-21T11:09:03Z" uid="160202" user="Vedeler" version="1" />
	<node changeset="3931565" id="648866974" lat="59.6667143" lon="10.1366327" timestamp="2010-02-21T11:09:03Z" uid="160202" user="Vedeler" version="1" />
	<node changeset="3931565" id="648866975" lat="59.6666601" lon="10.136225" timestamp="2010-02-21T11:09:03Z" uid="160202" user="Vedeler" version="1" />
	<node changeset="3931565" id="648866976" lat="59.666698" lon="10.1358924" timestamp="2010-02-21T11:09:03Z" uid="160202" user="Vedeler" version="1" />
	<node changeset="3931565" id="648866977" lat="59.6667847" lon="10.1356349" timestamp="2010-02-21T11:09:03Z" uid="160202" user="Vedeler" version="1" />
	<node changeset="3931565" id="648866978" lat="59.666931" lon="10.135356" timestamp="2010-02-21T11:09:03Z" uid="160202" user="Vedeler" version="1" />
	<node changeset="3931565" id="648866979" lat="59.6669527" lon="10.1349912" timestamp="2010-02-21T11:09:03Z" uid="160202" user="Vedeler" version="1" />
	<node changeset="3931565" id="648866980" lat="59.6669798" lon="10.1344977" timestamp="2010-02-21T11:09:03Z" uid="160202" user="Vedeler" version="1" />
	<node changeset="3931565" id="648866981" lat="59.6670502" lon="10.1339719" timestamp="2010-02-21T11:09:03Z" uid="160202" user="Vedeler" version="1" />
	<node changeset="3931565" id="648866982" lat="59.6672236" lon="10.1335213" timestamp="2010-02-21T11:09:04Z" uid="160202" user="Vedeler" version="1" />
	<node changeset="3931565" id="648866983" lat="59.6673807" lon="10.1332317" timestamp="2010-02-21T11:09:04Z" uid="160202" user="Vedeler" version="1" />
	<node changeset="3931565" id="648866984" lat="59.667462" lon="10.1326845" timestamp="2010-02-21T11:09:04Z" uid="160202" user="Vedeler" version="1" />
	<node changeset="3931565" id="648866985" lat="59.6675433" lon="10.1322339" timestamp="2010-02-21T11:09:04Z" uid="160202" user="Vedeler" version="1" />
	<node changeset="3931565" id="648866986" lat="59.6676625" lon="10.1319871" timestamp="2010-02-21T11:09:04Z" uid="160202" user="Vedeler" version="1" />
	<node changeset="3931565" id="648866987" lat="59.6678142" lon="10.1318369" timestamp="2010-02-21T11:09:04Z" uid="160202" user="Vedeler" version="1" />
	<node changeset="3931565" id="648866988" lat="59.6678792" lon="10.1316545" timestamp="2010-02-21T11:09:04Z" uid="160202" user="Vedeler" version="1" />
	<node changeset="3931565" id="648866991" lat="59.6678955" lon="10.1313756" timestamp="2010-02-21T11:09:04Z" uid="160202" user="Vedeler" version="1" />
	<node changeset="3931565" id="648866992" lat="59.6678684" lon="10.131043" timestamp="2010-02-21T11:09:06Z" uid="160202" user="Vedeler" version="1" />
	<node changeset="3931565" id="648866993" lat="59.6677871" lon="10.1307962" timestamp="2010-02-21T11:09:06Z" uid="160202" user="Vedeler" version="1" />
	<node changeset="3931565" id="648866994" lat="59.6677275" lon="10.1306031" timestamp="2010-02-21T11:09:06Z" uid="160202" user="Vedeler" version="1" />
	<node changeset="3931565" id="648866995" lat="59.6676896" lon="10.1303027" timestamp="2010-02-21T11:09:06Z" uid="160202" user="Vedeler" version="1" />
	<node changeset="3931565" id="648866996" lat="59.6676679" lon="10.1298735" timestamp="2010-02-21T11:09:06Z" uid="160202" user="Vedeler" version="1" />
	<node changeset="3931565" id="648866997" lat="59.667695" lon="10.1294229" timestamp="2010-02-21T11:09:06Z" uid="160202" user="Vedeler" version="1" />
	<node changeset="3931565" id="648866998" lat="59.6677492" lon="10.1291332" timestamp="2010-02-21T11:09:06Z" uid="160202" user="Vedeler" version="1" />
	<node changeset="3931565" id="648866999" lat="59.6678575" lon="10.1286183" timestamp="2010-02-21T11:09:07Z" uid="160202" user="Vedeler" version="1" />
	<node changeset="3931565" id="648867000" lat="59.6679171" lon="10.1281569" timestamp="2010-02-21T11:09:07Z" uid="160202" user="Vedeler" version="1" />
	<node changeset="3931565" id="648867001" lat="59.6679009" lon="10.1277385" timestamp="2010-02-21T11:09:07Z" uid="160202" user="Vedeler" version="1" />
	<node changeset="3931565" id="648867002" lat="59.6678684" lon="10.1271913" timestamp="2010-02-21T11:09:07Z" uid="160202" user="Vedeler" version="1" />
	<node changeset="3931565" id="648867003" lat="59.6679659" lon="10.1266656" timestamp="2010-02-21T11:09:07Z" uid="160202" user="Vedeler" version="1" />
	<node changeset="3931565" id="648867005" lat="59.6680472" lon="10.1261184" timestamp="2010-02-21T11:09:08Z" uid="160202" user="Vedeler" version="1" />
	<node changeset="3931565" id="648867007" lat="59.6680959" lon="10.1254854" timestamp="2010-02-21T11:09:08Z" uid="160202" user="Vedeler" version="1" />
	<node changeset="3931565" id="648867009" lat="59.6680147" lon="10.1247773" timestamp="2010-02-21T11:09:08Z" uid="160202" user="Vedeler" version="1" />
	<node changeset="3931565" id="648867012" lat="59.6679822" lon="10.1243053" timestamp="2010-02-21T11:09:08Z" uid="160202" user="Vedeler" version="1" />
	<node changeset="3931565" id="648867014" lat="59.6679876" lon="10.123683" timestamp="2010-02-21T11:09:09Z" uid="160202" user="Vedeler" version="1" />
	<node changeset="3931565" id="648867017" lat="59.6680418" lon="10.12305" timestamp="2010-02-21T11:09:09Z" uid="160202" user="Vedeler" version="1" />
	<node changeset="3931565" id="648867019" lat="59.6681826" lon="10.1226423" timestamp="2010-02-21T11:09:09Z" uid="160202" user="Vedeler" version="1" />
	<node changeset="3931565" id="648867025" lat="59.6682422" lon="10.1222668" timestamp="2010-02-21T11:09:11Z" uid="160202" user="Vedeler" version="1" />
	<node changeset="3931565" id="648867026" lat="59.6682639" lon="10.1219449" timestamp="2010-02-21T11:09:12Z" uid="160202" user="Vedeler" version="1" />
	<node changeset="3931565" id="648867028" lat="59.6682531" lon="10.1216338" timestamp="2010-02-21T11:09:12Z" uid="160202" user="Vedeler" version="1" />
	<node changeset="3931565" id="648867029" lat="59.6683073" lon="10.1212261" timestamp="2010-02-21T11:09:13Z" uid="160202" user="Vedeler" version="1" />
	<node changeset="3931565" id="648867030" lat="59.6684373" lon="10.1208291" timestamp="2010-02-21T11:09:13Z" uid="160202" user="Vedeler" version="1" />
	<node changeset="3931565" id="648867031" lat="59.6685836" lon="10.1203785" timestamp="2010-02-21T11:09:13Z" uid="160202" user="Vedeler" version="1" />
	<node changeset="3931565" id="648867032" lat="59.6686269" lon="10.1199601" timestamp="2010-02-21T11:09:14Z" uid="160202" user="Vedeler" version="1" />
	<node changeset="3931565" id="648867033" lat="59.6686757" lon="10.1196382" timestamp="2010-02-21T11:09:14Z" uid="160202" user="Vedeler" version="1" />
	<node changeset="3931565" id="648867034" lat="59.668757" lon="10.1191125" timestamp="2010-02-21T11:09:14Z" uid="160202" user="Vedeler" version="1" />
	<node changeset="3931565" id="648867035" lat="59.6688707" lon="10.1187155" timestamp="2010-02-21T11:09:15Z" uid="160202" user="Vedeler" version="1" />
	<node changeset="3931565" id="648867036" lat="59.6689899" lon="10.1181898" timestamp="2010-02-21T11:09:15Z" uid="160202" user="Vedeler" version="1" />
	<node changeset="3931565" id="648867037" lat="59.6689953" lon="10.1177392" timestamp="2010-02-21T11:09:16Z" uid="160202" user="Vedeler" version="1" />
	<node changeset="3931565" id="648867039" lat="59.6689845" lon="10.1172886" timestamp="2010-02-21T11:09:16Z" uid="160202" user="Vedeler" version="1" />
	<node changeset="3931565" id="648867040" lat="59.6690766" lon="10.1166556" timestamp="2010-02-21T11:09:16Z" uid="160202" user="Vedeler" version="1" />
	<node changeset="3931565" id="648867041" lat="59.6691904" lon="10.1160548" timestamp="2010-02-21T11:09:17Z" uid="160202" user="Vedeler" version="1" />
	<node changeset="3931565" id="648867042" lat="59.6692283" lon="10.1156042" timestamp="2010-02-21T11:09:17Z" uid="160202" user="Vedeler" version="1" />
	<node changeset="3931565" id="648867043" lat="59.6691633" lon="10.1152609" timestamp="2010-02-21T11:09:18Z" uid="160202" user="Vedeler" version="1" />
	<node changeset="3931565" id="648867044" lat="59.6690279" lon="10.1149819" timestamp="2010-02-21T11:09:18Z" uid="160202" user="Vedeler" version="1" />
	<node changeset="3931565" id="648867045" lat="59.668822" lon="10.1148102" timestamp="2010-02-21T11:09:18Z" uid="160202" user="Vedeler" version="1" />
	<node changeset="3931565" id="648867046" lat="59.6686378" lon="10.1147888" timestamp="2010-02-21T11:09:18Z" uid="160202" user="Vedeler" version="1" />
	<node changeset="3931565" id="648867047" lat="59.6684048" lon="10.1146171" timestamp="2010-02-21T11:09:19Z" uid="160202" user="Vedeler" version="1" />
	<node changeset="3931565" id="648867049" lat="59.6681935" lon="10.1142416" timestamp="2010-02-21T11:09:19Z" uid="160202" user="Vedeler" version="1" />
	<node changeset="3931565" id="648867051" lat="59.6680634" lon="10.1139841" timestamp="2010-02-21T11:09:19Z" uid="160202" user="Vedeler" version="1" />
	<node changeset="3931565" id="648867052" lat="59.6680147" lon="10.1136301" timestamp="2010-02-21T11:09:20Z" uid="160202" user="Vedeler" version="1" />
	<node changeset="66172086" id="6196189394" lat="59.6023083" lon="10.2105778" timestamp="2019-01-09T18:46:50Z" uid="3497659" user="NKA" version="1">
		<tag k="name" v="Ås østre" />
		<tag k="place" v="farm" />
		<tag k="ssr:stedsnr" v="210913" />
		<tag k="ssr:type" v="bruk" />
	</node>
	<node changeset="3931565" id="648867054" lat="59.6679713" lon="10.1132546" timestamp="2010-02-21T11:09:20Z" uid="160202" user="Vedeler" version="1" />
	<node changeset="3931565" id="648867057" lat="59.6678142" lon="10.1129434" timestamp="2010-02-21T11:09:20Z" uid="160202" user="Vedeler" version="1" />
	<node changeset="66172086" id="6196191443" lat="59.5925778" lon="10.2080917" timestamp="2019-01-09T18:47:09Z" uid="3497659" user="NKA" version="1">
		<tag k="name" v="Prestegården" />
		<tag k="place" v="farm" />
		<tag k="ssr:stedsnr" v="695559" />
		<tag k="ssr:type" v="bruk" />
	</node>
	<node changeset="3931565" id="648867061" lat="59.6676787" lon="10.1123212" timestamp="2010-02-21T11:09:20Z" uid="160202" user="Vedeler" version="1" />
	<node changeset="3931565" id="648867063" lat="59.6675704" lon="10.1121388" timestamp="2010-02-21T11:09:20Z" uid="160202" user="Vedeler" version="1" />
	<node changeset="66172086" id="412175608" lat="59.5864014" lon="10.2256107" timestamp="2019-01-09T18:47:15Z" uid="3497659" user="NKA" version="2">
		<tag k="name" v="Dunihagen" />
		<tag k="place" v="quarter" />
		<tag k="ssr:stedsnr" v="870768" />
		<tag k="ssr:type" v="boligfelt" />
	</node>
	<node changeset="3931565" id="648867065" lat="59.6675487" lon="10.1119456" timestamp="2010-02-21T11:09:20Z" uid="160202" user="Vedeler" version="1" />
	<node changeset="3931565" id="648867067" lat="59.6676354" lon="10.1114843" timestamp="2010-02-21T11:09:21Z" uid="160202" user="Vedeler" version="1" />
	<node changeset="3931565" id="648867069" lat="59.6675325" lon="10.1109693" timestamp="2010-02-21T11:09:21Z" uid="160202" user="Vedeler" version="1" />
	<node changeset="66172086" id="6196189397" lat="59.6059694" lon="10.2004778" timestamp="2019-01-09T18:46:50Z" uid="3497659" user="NKA" version="1">
		<tag k="name" v="Ås vestre" />
		<tag k="place" v="farm" />
		<tag k="ssr:stedsnr" v="210920" />
		<tag k="ssr:type" v="bruk" />
	</node>
	<node changeset="3931565" id="648867073" lat="59.6670773" lon="10.1098213" timestamp="2010-02-21T11:09:21Z" uid="160202" user="Vedeler" version="1" />
	<node changeset="3931565" id="648867074" lat="59.6667685" lon="10.1093063" timestamp="2010-02-21T11:09:21Z" uid="160202" user="Vedeler" version="1" />
	<node changeset="3931565" id="648867075" lat="59.6666547" lon="10.1088879" timestamp="2010-02-21T11:09:21Z" uid="160202" user="Vedeler" version="1" />
	<node changeset="66172086" id="6196189398" lat="59.5619833" lon="10.2231" timestamp="2019-01-09T18:46:50Z" uid="3497659" user="NKA" version="1">
		<tag k="name" v="Ekelund" />
		<tag k="place" v="farm" />
		<tag k="ssr:stedsnr" v="817585" />
		<tag k="ssr:type" v="bruk" />
	</node>
	<node changeset="3931565" id="648867079" lat="59.6664542" lon="10.1082549" timestamp="2010-02-21T11:09:21Z" uid="160202" user="Vedeler" version="1" />
	<node changeset="3931565" id="648867080" lat="59.6663838" lon="10.1077185" timestamp="2010-02-21T11:09:22Z" uid="160202" user="Vedeler" version="1" />
	<node changeset="3931565" id="648867081" lat="59.6661941" lon="10.1073215" timestamp="2010-02-21T11:09:22Z" uid="160202" user="Vedeler" version="1" />
	<node changeset="66172086" id="6196189399" lat="59.6662867" lon="10.2301465" timestamp="2019-01-09T18:46:50Z" uid="3497659" user="NKA" version="1">
		<tag k="name" v="Jonsrud" />
		<tag k="place" v="farm" />
		<tag k="ssr:stedsnr" v="210931" />
		<tag k="ssr:type" v="bruk" />
	</node>
	<node changeset="3931565" id="648867084" lat="59.6661183" lon="10.107064" timestamp="2010-02-21T11:09:22Z" uid="160202" user="Vedeler" version="1" />
	<node changeset="3931565" id="648867086" lat="59.6661345" lon="10.1067314" timestamp="2010-02-21T11:09:23Z" uid="160202" user="Vedeler" version="1" />
	<node changeset="3931565" id="648867088" lat="59.6660153" lon="10.106195" timestamp="2010-02-21T11:09:23Z" uid="160202" user="Vedeler" version="1" />
	<node changeset="66172086" id="6196189400" lat="59.6274778" lon="10.1031639" timestamp="2019-01-09T18:46:50Z" uid="3497659" user="NKA" version="1">
		<tag k="name" v="Kjellbu" />
		<tag k="place" v="isolated_dwelling" />
		<tag k="ssr:stedsnr" v="817699" />
		<tag k="ssr:type" v="fritidsbolig" />
	</node>
	<node changeset="3931565" id="648867091" lat="59.6659395" lon="10.1051114" timestamp="2010-02-21T11:09:23Z" uid="160202" user="Vedeler" version="1" />
	<node changeset="3931565" id="648867092" lat="59.6658202" lon="10.1043282" timestamp="2010-02-21T11:09:23Z" uid="160202" user="Vedeler" version="1" />
	<node changeset="3931565" id="648867094" lat="59.6657986" lon="10.1037166" timestamp="2010-02-21T11:09:23Z" uid="160202" user="Vedeler" version="1" />
	<node changeset="66172086" id="6196189401" lat="59.6236083" lon="10.2366778" timestamp="2019-01-09T18:46:50Z" uid="3497659" user="NKA" version="1">
		<tag k="name" v="Lærum vestre" />
		<tag k="place" v="farm" />
		<tag k="ssr:stedsnr" v="817639" />
		<tag k="ssr:type" v="bruk" />
	</node>
	<node changeset="3931565" id="648867096" lat="59.6658528" lon="10.1033411" timestamp="2010-02-21T11:09:23Z" uid="160202" user="Vedeler" version="1" />
	<node changeset="3931565" id="648867097" lat="59.6657823" lon="10.1029763" timestamp="2010-02-21T11:09:23Z" uid="160202" user="Vedeler" version="1" />
	<node changeset="3931565" id="648867099" lat="59.6658365" lon="10.1025043" timestamp="2010-02-21T11:09:24Z" uid="160202" user="Vedeler" version="1" />
	<node changeset="66172086" id="6196189402" lat="59.61145" lon="10.2248806" timestamp="2019-01-09T18:46:50Z" uid="3497659" user="NKA" version="1">
		<tag k="name" v="Rud" />
		<tag k="place" v="hamlet" />
		<tag k="ssr:stedsnr" v="237256" />
		<tag k="ssr:type" v="navnegard" />
	</node>
	<node changeset="3931565" id="648867102" lat="59.6658419" lon="10.1021288" timestamp="2010-02-21T11:09:24Z" uid="160202" user="Vedeler" version="1" />
	<node changeset="3931565" id="648867106" lat="59.6658744" lon="10.1018713" timestamp="2010-02-21T11:09:24Z" uid="160202" user="Vedeler" version="1" />
	<node changeset="66172086" id="6196189403" lat="59.6634444" lon="10.2011667" timestamp="2019-01-09T18:46:51Z" uid="3497659" user="NKA" version="1">
		<tag k="name" v="Flåten nordre" />
		<tag k="place" v="farm" />
		<tag k="ssr:stedsnr" v="817944" />
		<tag k="ssr:type" v="bruk" />
	</node>
	<node changeset="3931565" id="648867110" lat="59.6659286" lon="10.1015923" timestamp="2010-02-21T11:09:24Z" uid="160202" user="Vedeler" version="1" />
	<node changeset="66172086" id="6196189404" lat="59.6647278" lon="10.2117778" timestamp="2019-01-09T18:46:51Z" uid="3497659" user="NKA" version="1">
		<tag k="name" v="Flåten nordre" />
		<tag k="place" v="farm" />
		<tag k="ssr:stedsnr" v="817945" />
		<tag k="ssr:type" v="bruk" />
	</node>
	<node changeset="3931565" id="648867115" lat="59.665804" lon="10.1009271" timestamp="2010-02-21T11:09:25Z" uid="160202" user="Vedeler" version="1" />
	<node changeset="3931565" id="648867118" lat="59.6657065" lon="10.1006482" timestamp="2010-02-21T11:09:25Z" uid="160202" user="Vedeler" version="1" />
	<node changeset="66172086" id="6196191453" lat="59.6507444" lon="10.2345722" timestamp="2019-01-09T18:47:09Z" uid="3497659" user="NKA" version="1">
		<tag k="name" v="Kjeldås vestre" />
		<tag k="place" v="farm" />
		<tag k="ssr:stedsnr" v="695965" />
		<tag k="ssr:type" v="bruk" />
	</node>
	<node changeset="3931565" id="648867120" lat="59.6657119" lon="10.1002619" timestamp="2010-02-21T11:09:25Z" uid="160202" user="Vedeler" version="1" />
	<node changeset="3931565" id="648867121" lat="59.6654897" lon="10.0999723" timestamp="2010-02-21T11:09:25Z" uid="160202" user="Vedeler" version="1" />
	<node changeset="3931565" id="648867123" lat="59.6653705" lon="10.0997362" timestamp="2010-02-21T11:09:26Z" uid="160202" user="Vedeler" version="1" />
	<node changeset="3931565" id="648867124" lat="59.6653109" lon="10.0995646" timestamp="2010-02-21T11:09:26Z" uid="160202" user="Vedeler" version="1" />
	<node changeset="66172086" id="6196191454" lat="59.582025" lon="10.2769472" timestamp="2019-01-09T18:47:09Z" uid="3497659" user="NKA" version="1">
		<tag k="name" v="Torget" />
		<tag k="place" v="isolated_dwelling" />
		<tag k="ssr:stedsnr" v="124006" />
		<tag k="ssr:type" v="fritidsbolig" />
	</node>
	<node changeset="3931565" id="648867127" lat="59.665273" lon="10.0994251" timestamp="2010-02-21T11:09:27Z" uid="160202" user="Vedeler" version="1" />
	<node changeset="3931565" id="648867130" lat="59.6651321" lon="10.0989959" timestamp="2010-02-21T11:09:27Z" uid="160202" user="Vedeler" version="1" />
	<node changeset="66172086" id="6196191455" lat="59.6466194" lon="10.2312556" timestamp="2019-01-09T18:47:09Z" uid="3497659" user="NKA" version="1">
		<tag k="name" v="Kløvstad" />
		<tag k="place" v="farm" />
		<tag k="ssr:stedsnr" v="695964" />
		<tag k="ssr:type" v="bruk" />
	</node>
	<node changeset="3931565" id="648867133" lat="59.664807" lon="10.097966" timestamp="2010-02-21T11:09:27Z" uid="160202" user="Vedeler" version="1" />
	<node changeset="3931565" id="648867136" lat="59.664704" lon="10.0975261" timestamp="2010-02-21T11:09:27Z" uid="160202" user="Vedeler" version="1" />
	<node changeset="66172086" id="6196191456" lat="59.5920278" lon="10.1916556" timestamp="2019-01-09T18:47:09Z" uid="3497659" user="NKA" version="1">
		<tag k="alt_name" v="Dye" />
		<tag k="name" v="Dyet" />
		<tag k="place" v="farm" />
		<tag k="ssr:stedsnr" v="124023" />
		<tag k="ssr:type" v="bruk" />
	</node>
	<node changeset="3931565" id="648867139" lat="59.6645144" lon="10.0969038" timestamp="2010-02-21T11:09:28Z" uid="160202" user="Vedeler" version="1" />
	<node changeset="3931565" id="648867142" lat="59.6643139" lon="10.0962601" timestamp="2010-02-21T11:09:28Z" uid="160202" user="Vedeler" version="1" />
	<node changeset="66172086" id="6196191457" lat="59.59575" lon="10.2517472" timestamp="2019-01-09T18:47:10Z" uid="3497659" user="NKA" version="1">
		<tag k="name" v="Dalen" />
		<tag k="place" v="farm" />
		<tag k="ssr:stedsnr" v="124098" />
		<tag k="ssr:type" v="bruk" />
	</node>
	<node changeset="3931565" id="648867144" lat="59.6642001" lon="10.0958953" timestamp="2010-02-21T11:09:28Z" uid="160202" user="Vedeler" version="1" />
	<node changeset="3931565" id="648867145" lat="59.6641134" lon="10.0954769" timestamp="2010-02-21T11:09:28Z" uid="160202" user="Vedeler" version="1" />
	<node changeset="3931565" id="648867146" lat="59.6641459" lon="10.0949082" timestamp="2010-02-21T11:09:28Z" uid="160202" user="Vedeler" version="1" />
	<node changeset="3931565" id="648867147" lat="59.664135" lon="10.0944469" timestamp="2010-02-21T11:09:28Z" uid="160202" user="Vedeler" version="1" />
	<node changeset="3931565" id="648867148" lat="59.6640863" lon="10.0941572" timestamp="2010-02-21T11:09:29Z" uid="160202" user="Vedeler" version="1" />
	<node changeset="66172086" id="6196191458" lat="59.6066611" lon="10.2031889" timestamp="2019-01-09T18:47:10Z" uid="3497659" user="NKA" version="1">
		<tag k="alt_name" v="Ås østre" />
		<tag k="name" v="Ås" />
		<tag k="place" v="farm" />
		<tag k="ssr:stedsnr" v="124103" />
		<tag k="ssr:type" v="bruk" />
	</node>
	<node changeset="3931565" id="648867151" lat="59.6638641" lon="10.0940499" timestamp="2010-02-21T11:09:29Z" uid="160202" user="Vedeler" version="1" />
	<node changeset="3931565" id="648867152" lat="59.6638045" lon="10.0932989" timestamp="2010-02-21T11:09:29Z" uid="160202" user="Vedeler" version="1" />
	<node changeset="3931565" id="648867153" lat="59.6638045" lon="10.0927839" timestamp="2010-02-21T11:09:29Z" uid="160202" user="Vedeler" version="1" />
	<node changeset="3931565" id="648867154" lat="59.6638153" lon="10.0922046" timestamp="2010-02-21T11:09:30Z" uid="160202" user="Vedeler" version="1" />
	<node changeset="66172086" id="6196191459" lat="59.6542" lon="10.22425" timestamp="2019-01-09T18:47:10Z" uid="3497659" user="NKA" version="1">
		<tag k="name" v="Holehaugen" />
		<tag k="place" v="farm" />
		<tag k="ssr:stedsnr" v="695972" />
		<tag k="ssr:type" v="bruk" />
	</node>
	<node changeset="3931565" id="648867156" lat="59.6638749" lon="10.0918934" timestamp="2010-02-21T11:09:30Z" uid="160202" user="Vedeler" version="1" />
	<node changeset="3931565" id="648867158" lat="59.6638966" lon="10.0915501" timestamp="2010-02-21T11:09:30Z" uid="160202" user="Vedeler" version="1" />
	<node changeset="3931565" id="648867160" lat="59.6639075" lon="10.0912604" timestamp="2010-02-21T11:09:30Z" uid="160202" user="Vedeler" version="1" />
	<node changeset="66172086" id="6196191460" lat="59.5743056" lon="10.2749722" timestamp="2019-01-09T18:47:10Z" uid="3497659" user="NKA" version="1">
		<tag k="name" v="Solberg" />
		<tag k="place" v="farm" />
		<tag k="ssr:stedsnr" v="124055" />
		<tag k="ssr:type" v="bruk" />
	</node>
	<node changeset="3931565" id="648867162" lat="59.6638262" lon="10.0907455" timestamp="2010-02-21T11:09:30Z" uid="160202" user="Vedeler" version="1" />
	<node changeset="66172086" id="6196191461" lat="59.6013417" lon="10.1542111" timestamp="2019-01-09T18:47:10Z" uid="3497659" user="NKA" version="1">
		<tag k="name" v="Skau" />
		<tag k="place" v="farm" />
		<tag k="ssr:stedsnr" v="124094" />
		<tag k="ssr:type" v="bruk" />
	</node>
	<node changeset="3931565" id="648867168" lat="59.6639725" lon="10.0906489" timestamp="2010-02-21T11:09:32Z" uid="160202" user="Vedeler" version="1" />
	<node changeset="3931565" id="648867169" lat="59.6640646" lon="10.0901446" timestamp="2010-02-21T11:09:32Z" uid="160202" user="Vedeler" version="1" />
	<node changeset="3931565" id="648867172" lat="59.6640429" lon="10.0890396" timestamp="2010-02-21T11:09:32Z" uid="160202" user="Vedeler" version="1" />
	<node changeset="66172086" id="6196191462" lat="59.653025" lon="10.2147861" timestamp="2019-01-09T18:47:10Z" uid="3497659" user="NKA" version="1">
		<tag k="name" v="Øye" />
		<tag k="place" v="farm" />
		<tag k="ssr:stedsnr" v="124117" />
		<tag k="ssr:type" v="bruk" />
	</node>
	<node changeset="3931565" id="648867174" lat="59.6639833" lon="10.0886319" timestamp="2010-02-21T11:09:32Z" uid="160202" user="Vedeler" version="1" />
	<node changeset="3931565" id="648867175" lat="59.6638749" lon="10.0880847" timestamp="2010-02-21T11:09:32Z" uid="160202" user="Vedeler" version="1" />
	<node changeset="3931565" id="648867176" lat="59.6638966" lon="10.0876663" timestamp="2010-02-21T11:09:33Z" uid="160202" user="Vedeler" version="1" />
	<node changeset="3931565" id="648867178" lat="59.6637828" lon="10.0872157" timestamp="2010-02-21T11:09:33Z" uid="160202" user="Vedeler" version="1" />
	<node changeset="66172086" id="6196191463" lat="59.5990028" lon="10.2469917" timestamp="2019-01-09T18:47:10Z" uid="3497659" user="NKA" version="1">
		<tag k="alt_name" v="Veberg østre" />
		<tag k="name" v="Veberg" />
		<tag k="place" v="farm" />
		<tag k="ssr:stedsnr" v="731082" />
		<tag k="ssr:type" v="bruk" />
	</node>
	<node changeset="3931565" id="648867180" lat="59.6637232" lon="10.08669" timestamp="2010-02-21T11:09:33Z" uid="160202" user="Vedeler" version="1" />
	<node changeset="3931565" id="648867184" lat="59.6636907" lon="10.0858102" timestamp="2010-02-21T11:09:33Z" uid="160202" user="Vedeler" version="1" />
	<node changeset="66172086" id="6196191464" lat="59.65645" lon="10.25" timestamp="2019-01-09T18:47:10Z" uid="3497659" user="NKA" version="1">
		<tag k="alt_name" v="Rinden" />
		<tag k="name" v="Rien" />
		<tag k="place" v="farm" />
		<tag k="ssr:stedsnr" v="124114" />
		<tag k="ssr:type" v="bruk" />
	</node>
	<node changeset="3931565" id="648867187" lat="59.6637503" lon="10.0852845" timestamp="2010-02-21T11:09:33Z" uid="160202" user="Vedeler" version="1" />
	<node changeset="3931565" id="648867190" lat="59.6637937" lon="10.0847051" timestamp="2010-02-21T11:09:33Z" uid="160202" user="Vedeler" version="1" />
	<node changeset="66172086" id="6196189417" lat="59.5973278" lon="10.1994889" timestamp="2019-01-09T18:46:51Z" uid="3497659" user="NKA" version="1">
		<tag k="name" v="Tømmerås" />
		<tag k="place" v="farm" />
		<tag k="ssr:stedsnr" v="853076" />
		<tag k="ssr:type" v="bruk" />
	</node>
	<node changeset="66172086" id="6196191466" lat="59.6033139" lon="10.1396889" timestamp="2019-01-09T18:47:10Z" uid="3497659" user="NKA" version="1">
		<tag k="name" v="Kaldmo" />
		<tag k="place" v="farm" />
		<tag k="ssr:stedsnr" v="731089" />
		<tag k="ssr:type" v="gard" />
	</node>
	<node changeset="66172086" id="6196191467" lat="59.6519333" lon="10.2604361" timestamp="2019-01-09T18:47:10Z" uid="3497659" user="NKA" version="1">
		<tag k="name" v="Fagerli" />
		<tag k="place" v="farm" />
		<tag k="ssr:stedsnr" v="124159" />
		<tag k="ssr:type" v="bruk" />
	</node>
	<node changeset="66172086" id="6196189420" lat="59.5798361" lon="10.2137028" timestamp="2019-01-09T18:46:52Z" uid="3497659" user="NKA" version="1">
		<tag k="alt_name" v="Revå søndre" />
		<tag k="name" v="Rævo" />
		<tag k="place" v="farm" />
		<tag k="ssr:stedsnr" v="853006" />
		<tag k="ssr:type" v="bruk" />
	</node>
	<node changeset="66172086" id="6196189421" lat="59.6484833" lon="10.2036889" timestamp="2019-01-09T18:46:52Z" uid="3497659" user="NKA" version="1">
		<tag k="name" v="Toppenhaug" />
		<tag k="place" v="farm" />
		<tag k="ssr:stedsnr" v="267346" />
		<tag k="ssr:type" v="bruk" />
	</node>
	<node changeset="66172086" id="6196191470" lat="59.5945778" lon="10.1555833" timestamp="2019-01-09T18:47:11Z" uid="3497659" user="NKA" version="1">
		<tag k="name" v="Bjerke" />
		<tag k="place" v="isolated_dwelling" />
		<tag k="ssr:stedsnr" v="731081" />
		<tag k="ssr:type" v="fritidsbolig" />
	</node>
	<node changeset="66172086" id="6196189423" lat="59.6077806" lon="10.2994361" timestamp="2019-01-09T18:46:52Z" uid="3497659" user="NKA" version="1">
		<tag k="historic" v="shieling" />
		<tag k="name" v="Vebergsetra" />
		<tag k="place" v="isolated_dwelling" />
		<tag k="ssr:stedsnr" v="853091" />
		<tag k="ssr:type" v="fritidsbolig" />
	</node>
	<node changeset="66172086" id="6196191472" lat="59.6450667" lon="10.2326472" timestamp="2019-01-09T18:47:11Z" uid="3497659" user="NKA" version="1">
		<tag k="alt_name" v="Kløvstad" />
		<tag k="name" v="Kløvestad" />
		<tag k="place" v="farm" />
		<tag k="ssr:stedsnr" v="124148" />
		<tag k="ssr:type" v="bruk" />
	</node>
	<node changeset="66172086" id="6196191473" lat="59.616875" lon="10.2483639" timestamp="2019-01-09T18:47:11Z" uid="3497659" user="NKA" version="1">
		<tag k="alt_name" v="Borgen" />
		<tag k="name" v="Borga" />
		<tag k="place" v="farm" />
		<tag k="ssr:stedsnr" v="732080" />
		<tag k="ssr:type" v="bruk" />
	</node>
	<node changeset="66172086" id="6196192685" lat="59.565325" lon="10.2615806" timestamp="2019-01-09T18:47:12Z" uid="3497659" user="NKA" version="1">
		<tag k="name" v="Ørbekk" />
		<tag k="place" v="isolated_dwelling" />
		<tag k="ssr:stedsnr" v="756620" />
		<tag k="ssr:type" v="eneboligMindreBoligbygg" />
	</node>
	<node changeset="66172086" id="6196192686" lat="59.5641111" lon="10.2312306" timestamp="2019-01-09T18:47:12Z" uid="3497659" user="NKA" version="1">
		<tag k="name" v="Ve søndre" />
		<tag k="place" v="farm" />
		<tag k="ssr:stedsnr" v="756609" />
		<tag k="ssr:type" v="bruk" />
	</node>
	<node changeset="66172086" id="6196192687" lat="59.5665583" lon="10.261975" timestamp="2019-01-09T18:47:12Z" uid="3497659" user="NKA" version="1">
		<tag k="name" v="Bekkevold" />
		<tag k="place" v="farm" />
		<tag k="ssr:stedsnr" v="149596" />
		<tag k="ssr:type" v="bruk" />
	</node>
	<node changeset="66172086" id="6196192688" lat="59.5899083" lon="10.2199028" timestamp="2019-01-09T18:47:12Z" uid="3497659" user="NKA" version="1">
		<tag k="name" v="Bø søndre" />
		<tag k="place" v="farm" />
		<tag k="ssr:stedsnr" v="149560" />
		<tag k="ssr:type" v="bruk" />
	</node>
	<node changeset="66172086" id="6196192689" lat="59.6229417" lon="10.2000194" timestamp="2019-01-09T18:47:12Z" uid="3497659" user="NKA" version="1">
		<tag k="name" v="Langerud" />
		<tag k="place" v="farm" />
		<tag k="ssr:stedsnr" v="149616" />
		<tag k="ssr:type" v="bruk" />
	</node>
	<node changeset="66172086" id="6196192690" lat="59.6163" lon="10.2003" timestamp="2019-01-09T18:47:12Z" uid="3497659" user="NKA" version="1">
		<tag k="name" v="Stensrud søndre" />
		<tag k="place" v="farm" />
		<tag k="ssr:stedsnr" v="756649" />
		<tag k="ssr:type" v="bruk" />
	</node>
	<node changeset="66172086" id="6196192691" lat="59.6201556" lon="10.1971111" timestamp="2019-01-09T18:47:12Z" uid="3497659" user="NKA" version="1">
		<tag k="name" v="Tollerud" />
		<tag k="place" v="farm" />
		<tag k="ssr:stedsnr" v="149621" />
		<tag k="ssr:type" v="bruk" />
	</node>
	<node changeset="66172086" id="6196192692" lat="59.6192389" lon="10.2045583" timestamp="2019-01-09T18:47:12Z" uid="3497659" user="NKA" version="1">
		<tag k="name" v="Dillerud" />
		<tag k="place" v="farm" />
		<tag k="ssr:stedsnr" v="756650" />
		<tag k="ssr:type" v="bruk" />
	</node>
	<node changeset="66172086" id="6196192693" lat="59.627625" lon="10.2049667" timestamp="2019-01-09T18:47:12Z" uid="3497659" user="NKA" version="1">
		<tag k="name" v="Heimdal" />
		<tag k="place" v="farm" />
		<tag k="ssr:stedsnr" v="756639" />
		<tag k="ssr:type" v="bruk" />
	</node>
	<node changeset="66172086" id="6196192694" lat="59.5562858" lon="10.2322451" timestamp="2019-01-09T18:47:12Z" uid="3497659" user="NKA" version="1">
		<tag k="name" v="Holm" />
		<tag k="place" v="hamlet" />
		<tag k="ssr:stedsnr" v="149606" />
		<tag k="ssr:type" v="bruk" />
	</node>
	<node changeset="66172086" id="6196192695" lat="59.6294472" lon="10.2130667" timestamp="2019-01-09T18:47:12Z" uid="3497659" user="NKA" version="1">
		<tag k="name" v="Bølum søndre" />
		<tag k="place" v="farm" />
		<tag k="ssr:stedsnr" v="756665" />
		<tag k="ssr:type" v="bruk" />
	</node>
	<node changeset="70863676" id="335709624" lat="59.640946" lon="10.0379827" timestamp="2019-06-02T18:55:43Z" uid="6227194" user="ImMats" version="3" />
	<node changeset="66172086" id="6196192697" lat="59.6174111" lon="10.2178583" timestamp="2019-01-09T18:47:13Z" uid="3497659" user="NKA" version="1">
		<tag k="name" v="Heimdal lille" />
		<tag k="place" v="farm" />
		<tag k="ssr:stedsnr" v="756657" />
		<tag k="ssr:type" v="bruk" />
	</node>
	<node changeset="66172086" id="6196192698" lat="59.6049972" lon="10.1384444" timestamp="2019-01-09T18:47:13Z" uid="3497659" user="NKA" version="1">
		<tag k="name" v="Øvre Kaldmo" />
		<tag k="place" v="farm" />
		<tag k="ssr:stedsnr" v="149732" />
		<tag k="ssr:type" v="bruk" />
	</node>
	<node changeset="4067455" id="335709627" lat="59.6402302" lon="10.0374521" timestamp="2010-03-07T22:52:12Z" uid="160202" user="Vedeler" version="2" />
	<node changeset="4067455" id="335709628" lat="59.6415262" lon="10.0366689" timestamp="2010-03-07T22:52:13Z" uid="160202" user="Vedeler" version="2" />
	<node changeset="4067455" id="335709629" lat="59.6422419" lon="10.0362397" timestamp="2010-03-07T22:52:13Z" uid="160202" user="Vedeler" version="2" />
	<node changeset="4067455" id="335709630" lat="59.6425293" lon="10.0362183" timestamp="2010-03-07T22:52:13Z" uid="160202" user="Vedeler" version="2" />
	<node changeset="827063" id="335709631" lat="59.6425" lon="10.03675" timestamp="2009-01-23T16:06:16Z" uid="71960" user="qwem" version="1" />
	<node changeset="66172086" id="6196192704" lat="59.6001222" lon="10.20035" timestamp="2019-01-09T18:47:13Z" uid="3497659" user="NKA" version="1">
		<tag k="name" v="Nordheim" />
		<tag k="place" v="farm" />
		<tag k="ssr:stedsnr" v="756928" />
		<tag k="ssr:type" v="bruk" />
	</node>
	<node changeset="66172086" id="6196192705" lat="59.6398111" lon="10.242475" timestamp="2019-01-09T18:47:13Z" uid="3497659" user="NKA" version="1">
		<tag k="name" v="Bjerke" />
		<tag k="place" v="isolated_dwelling" />
		<tag k="ssr:stedsnr" v="149960" />
		<tag k="ssr:type" v="fritidsbolig" />
	</node>
	<node changeset="66172086" id="6196192706" lat="59.5797278" lon="10.2303083" timestamp="2019-01-09T18:47:13Z" uid="3497659" user="NKA" version="1">
		<tag k="name" v="Hersgården" />
		<tag k="place" v="farm" />
		<tag k="ssr:stedsnr" v="185004" />
		<tag k="ssr:type" v="bruk" />
	</node>
	<node changeset="66172086" id="6196192707" lat="59.6064445" lon="10.235256" timestamp="2019-01-09T18:47:13Z" uid="3497659" user="NKA" version="1">
		<tag k="name" v="Gran" />
		<tag k="place" v="hamlet" />
		<tag k="ssr:stedsnr" v="185114" />
		<tag k="ssr:type" v="bruk" />
	</node>
	<node changeset="66172086" id="6196192708" lat="59.5973278" lon="10.1492639" timestamp="2019-01-09T18:47:13Z" uid="3497659" user="NKA" version="1">
		<tag k="alt_name" v="Skjørdal" />
		<tag k="name" v="Skogskroken" />
		<tag k="place" v="farm" />
		<tag k="ssr:stedsnr" v="185088" />
		<tag k="ssr:type" v="bruk" />
	</node>
	<node changeset="66172086" id="6196192709" lat="59.5796778" lon="10.1816194" timestamp="2019-01-09T18:47:13Z" uid="3497659" user="NKA" version="1">
		<tag k="name" v="Løvås" />
		<tag k="place" v="farm" />
		<tag k="ssr:stedsnr" v="792008" />
		<tag k="ssr:type" v="bruk" />
	</node>
	<node changeset="66172086" id="6196192710" lat="59.6002611" lon="10.2203389" timestamp="2019-01-09T18:47:14Z" uid="3497659" user="NKA" version="1">
		<tag k="name" v="Gran" />
		<tag k="place" v="farm" />
		<tag k="ssr:stedsnr" v="185093" />
		<tag k="ssr:type" v="bruk" />
	</node>
	<node changeset="66172086" id="6196192711" lat="59.5800917" lon="10.2024861" timestamp="2019-01-09T18:47:14Z" uid="3497659" user="NKA" version="1">
		<tag k="name" v="Finstad" />
		<tag k="place" v="farm" />
		<tag k="ssr:stedsnr" v="792006" />
		<tag k="ssr:type" v="bruk" />
	</node>
	<node changeset="66172086" id="6196192712" lat="59.6686278" lon="10.247325" timestamp="2019-01-09T18:47:14Z" uid="3497659" user="NKA" version="1">
		<tag k="name" v="Tuft" />
		<tag k="place" v="farm" />
		<tag k="ssr:stedsnr" v="185135" />
		<tag k="ssr:type" v="bruk" />
	</node>
	<node changeset="66172086" id="6196192713" lat="59.5783" lon="10.1899056" timestamp="2019-01-09T18:47:14Z" uid="3497659" user="NKA" version="1">
		<tag k="alt_name" v="Teien vestre" />
		<tag k="name" v="Teigen" />
		<tag k="place" v="farm" />
		<tag k="ssr:stedsnr" v="792010" />
		<tag k="ssr:type" v="bruk" />
	</node>
	<node changeset="66172086" id="6196192714" lat="59.644" lon="10.2151139" timestamp="2019-01-09T18:47:14Z" uid="3497659" user="NKA" version="1">
		<tag k="alt_name" v="Jahren" />
		<tag k="name" v="Jaren" />
		<tag k="place" v="farm" />
		<tag k="ssr:stedsnr" v="185145" />
		<tag k="ssr:type" v="bruk" />
	</node>
	<node changeset="66172086" id="6196192715" lat="59.5423611" lon="10.3174333" timestamp="2019-01-09T18:47:14Z" uid="3497659" user="NKA" version="1">
		<tag k="alt_name" v="Sando østre" />
		<tag k="name" v="Sando" />
		<tag k="place" v="farm" />
		<tag k="ssr:stedsnr" v="792913" />
		<tag k="ssr:type" v="bruk" />
	</node>
	<node changeset="66172086" id="6196192716" lat="59.5452361" lon="10.3089861" timestamp="2019-01-09T18:47:14Z" uid="3497659" user="NKA" version="1">
		<tag k="name" v="Grindvollen" />
		<tag k="place" v="farm" />
		<tag k="ssr:stedsnr" v="210046" />
		<tag k="ssr:type" v="bruk" />
	</node>
	<node changeset="66172086" id="6196192717" lat="59.6316611" lon="10.204725" timestamp="2019-01-09T18:47:14Z" uid="3497659" user="NKA" version="1">
		<tag k="name" v="Brekke" />
		<tag k="place" v="isolated_dwelling" />
		<tag k="ssr:stedsnr" v="792168" />
		<tag k="ssr:type" v="eneboligMindreBoligbygg" />
	</node>
	<node changeset="66172086" id="6196192718" lat="59.6323167" lon="10.2925639" timestamp="2019-01-09T18:47:14Z" uid="3497659" user="NKA" version="1">
		<tag k="name" v="Vestre Kølabonn" />
		<tag k="place" v="isolated_dwelling" />
		<tag k="ssr:stedsnr" v="210232" />
		<tag k="ssr:type" v="fritidsbolig" />
	</node>
	<node changeset="66172086" id="6196192719" lat="59.5637" lon="10.2722861" timestamp="2019-01-09T18:47:14Z" uid="3497659" user="NKA" version="1">
		<tag k="alt_name" v="Selvik søndre" />
		<tag k="name" v="Søndre Selvik" />
		<tag k="place" v="farm" />
		<tag k="ssr:stedsnr" v="210266" />
		<tag k="ssr:type" v="bruk" />
	</node>
	<node changeset="66172086" id="6196192720" lat="59.5420972" lon="10.30915" timestamp="2019-01-09T18:47:14Z" uid="3497659" user="NKA" version="1">
		<tag k="name" v="Grønsand" />
		<tag k="place" v="farm" />
		<tag k="ssr:stedsnr" v="817047" />
		<tag k="ssr:type" v="bruk" />
	</node>
	<node changeset="66172086" id="6196192721" lat="59.5730865" lon="10.2602026" timestamp="2019-01-09T18:47:14Z" uid="3497659" user="NKA" version="1">
		<tag k="name" v="Bjørnstad" />
		<tag k="place" v="farm" />
		<tag k="ssr:stedsnr" v="210588" />
		<tag k="ssr:type" v="bruk" />
	</node>
	<node changeset="66172086" id="6196192722" lat="59.5657917" lon="10.2610389" timestamp="2019-01-09T18:47:14Z" uid="3497659" user="NKA" version="1">
		<tag k="name" v="Solhaug" />
		<tag k="place" v="farm" />
		<tag k="ssr:stedsnr" v="210610" />
		<tag k="ssr:type" v="bruk" />
	</node>
	<node changeset="66172086" id="6196192723" lat="59.5910639" lon="10.1773389" timestamp="2019-01-09T18:47:15Z" uid="3497659" user="NKA" version="1">
		<tag k="name" v="Bonden mellom" />
		<tag k="place" v="farm" />
		<tag k="ssr:stedsnr" v="817544" />
		<tag k="ssr:type" v="bruk" />
	</node>
	<node changeset="66172086" id="6196192724" lat="59.6329056" lon="10.2348611" timestamp="2019-01-09T18:47:15Z" uid="3497659" user="NKA" version="1">
		<tag k="name" v="Røllesgruvene" />
		<tag k="place" v="locality" />
		<tag k="ssr:stedsnr" v="210660" />
		<tag k="ssr:type" v="industriområde" />
	</node>
	<node changeset="66172086" id="6196189433" lat="59.5353278" lon="10.32775" timestamp="2019-01-09T18:46:53Z" uid="3497659" user="NKA" version="1">
		<tag k="name" v="Gyltesø" />
		<tag k="place" v="farm" />
		<tag k="ssr:stedsnr" v="271057" />
		<tag k="ssr:type" v="bruk" />
	</node>
	<node changeset="66172086" id="6196189434" lat="59.5586111" lon="10.3022833" timestamp="2019-01-09T18:46:53Z" uid="3497659" user="NKA" version="1">
		<tag k="name" v="Bruserud" />
		<tag k="place" v="farm" />
		<tag k="ssr:stedsnr" v="428041" />
		<tag k="ssr:type" v="bruk" />
	</node>
	<node changeset="66172086" id="6196189435" lat="59.5700861" lon="10.2035528" timestamp="2019-01-09T18:46:53Z" uid="3497659" user="NKA" version="1">
		<tag k="alt_name" v="Stokke nordre" />
		<tag k="name" v="Stokke" />
		<tag k="place" v="farm" />
		<tag k="ssr:stedsnr" v="428055" />
		<tag k="ssr:type" v="bruk" />
	</node>
	<node changeset="66172086" id="6196191484" lat="59.5642139" lon="10.3365444" timestamp="2019-01-09T18:47:12Z" uid="3497659" user="NKA" version="1">
		<tag k="historic" v="shieling" />
		<tag k="name" v="Kvislesetra" />
		<tag k="place" v="locality" />
		<tag k="ssr:stedsnr" v="756224" />
		<tag k="ssr:type" v="seterStøl" />
	</node>
	<node changeset="3931565" id="648867071" lat="59.6672886" lon="10.1103363" timestamp="2010-02-21T11:09:21Z" uid="160202" user="Vedeler" version="1" />
	<node changeset="3931565" id="648867077" lat="59.6664921" lon="10.1085982" timestamp="2010-02-21T11:09:21Z" uid="160202" user="Vedeler" version="1" />
	<node changeset="66172086" id="5421094478" lat="59.5677362" lon="10.2592788" timestamp="2019-01-09T18:47:15Z" uid="3497659" user="NKA" version="2">
		<tag k="name" v="Selvik" />
		<tag k="place" v="village" />
		<tag k="population" v="2685" />
		<tag k="population:date" v="2017-01-01" />
		<tag k="ssr:stedsnr" v="852060" />
		<tag k="ssr:type" v="tettsted" />
	</node>
	<node changeset="66172086" id="5421094479" lat="59.647306" lon="10.2110774" timestamp="2019-01-09T18:47:15Z" uid="3497659" user="NKA" version="3">
		<tag k="name" v="Klevjerhagen" />
		<tag k="place" v="village" />
		<tag k="population" v="434" />
		<tag k="population:date" v="2017-01-01" />
		<tag k="ssr:stedsnr" v="149968" />
		<tag k="ssr:type" v="boligfelt" />
	</node>
	<node changeset="66172086" id="5421094480" lat="59.6395926" lon="10.2351185" timestamp="2019-01-09T18:47:15Z" uid="3497659" user="NKA" version="2">
		<tag k="alt_name" v="Eikeberg" />
		<tag k="name" v="Ekeberg" />
		<tag k="place" v="village" />
		<tag k="population" v="402" />
		<tag k="population:date" v="2017-01-01" />
		<tag k="ssr:stedsnr" v="89961" />
		<tag k="ssr:type" v="bruk" />
	</node>
	<node changeset="3931565" id="648867089" lat="59.6659828" lon="10.1054976" timestamp="2010-02-21T11:09:23Z" uid="160202" user="Vedeler" version="1" />
	<node changeset="70863676" id="6516824341" lat="59.6425613" lon="10.0364288" timestamp="2019-06-02T18:55:43Z" uid="6227194" user="ImMats" version="1" />
	<node changeset="70863676" id="6516824342" lat="59.6423887" lon="10.0361613" timestamp="2019-06-02T18:55:43Z" uid="6227194" user="ImMats" version="1" />
	<node changeset="70863676" id="6516824343" lat="59.6423584" lon="10.0371276" timestamp="2019-06-02T18:55:43Z" uid="6227194" user="ImMats" version="1" />
	<node changeset="70863676" id="6516824344" lat="59.6421104" lon="10.0374517" timestamp="2019-06-02T18:55:43Z" uid="6227194" user="ImMats" version="1" />
	<node changeset="70863676" id="6516824345" lat="59.6414011" lon="10.0379284" timestamp="2019-06-02T18:55:43Z" uid="6227194" user="ImMats" version="1" />
	<node changeset="70863676" id="6516824346" lat="59.6402502" lon="10.0381975" timestamp="2019-06-02T18:55:43Z" uid="6227194" user="ImMats" version="1" />
	<node changeset="70863676" id="6516824347" lat="59.6403373" lon="10.037325" timestamp="2019-06-02T18:55:43Z" uid="6227194" user="ImMats" version="1" />
	<node changeset="3931565" id="648867059" lat="59.66776" lon="10.1126537" timestamp="2010-02-21T11:09:20Z" uid="160202" user="Vedeler" version="1" />
	<node changeset="66172086" id="6196189396" lat="59.5665694" lon="10.2588305" timestamp="2019-01-09T18:46:50Z" uid="3497659" user="NKA" version="1">
		<tag k="name" v="Solbakken" />
		<tag k="place" v="farm" />
		<tag k="ssr:stedsnr" v="817589" />
		<tag k="ssr:type" v="bruk" />
	</node>
	<node changeset="3931565" id="648866769" lat="59.6461452" lon="10.2196202" timestamp="2010-02-21T11:08:44Z" uid="160202" user="Vedeler" version="1" />
	<node changeset="3931565" id="648866770" lat="59.6462537" lon="10.2183757" timestamp="2010-02-21T11:08:44Z" uid="160202" user="Vedeler" version="1" />
	<node changeset="3931565" id="648866771" lat="59.6464434" lon="10.217453" timestamp="2010-02-21T11:08:44Z" uid="160202" user="Vedeler" version="1" />
	<node changeset="3931565" id="648867113" lat="59.6658961" lon="10.1011632" timestamp="2010-02-21T11:09:24Z" uid="160202" user="Vedeler" version="1" />
	<node changeset="3931565" id="648866772" lat="59.646644" lon="10.2170346" timestamp="2010-02-21T11:08:44Z" uid="160202" user="Vedeler" version="1" />
	<node changeset="3931565" id="648866773" lat="59.646823" lon="10.2167664" timestamp="2010-02-21T11:08:44Z" uid="160202" user="Vedeler" version="1" />
	<node changeset="3931565" id="648866774" lat="59.6473488" lon="10.2162728" timestamp="2010-02-21T11:08:44Z" uid="160202" user="Vedeler" version="1" />
	<node changeset="3931565" id="648866775" lat="59.6476958" lon="10.2158544" timestamp="2010-02-21T11:08:44Z" uid="160202" user="Vedeler" version="1" />
	<node changeset="3931565" id="648866776" lat="59.6479777" lon="10.2153609" timestamp="2010-02-21T11:08:44Z" uid="160202" user="Vedeler" version="1" />
	<node changeset="3931565" id="648866777" lat="59.6481892" lon="10.2149532" timestamp="2010-02-21T11:08:44Z" uid="160202" user="Vedeler" version="1" />
	<node changeset="3931565" id="648866778" lat="59.6483952" lon="10.2144919" timestamp="2010-02-21T11:08:45Z" uid="160202" user="Vedeler" version="1" />
	<node changeset="3931565" id="648866779" lat="59.6487096" lon="10.2139661" timestamp="2010-02-21T11:08:45Z" uid="160202" user="Vedeler" version="1" />
	<node changeset="3931565" id="648866780" lat="59.6489915" lon="10.213537" timestamp="2010-02-21T11:08:45Z" uid="160202" user="Vedeler" version="1" />
	<node changeset="3931565" id="648866781" lat="59.6492138" lon="10.2133975" timestamp="2010-02-21T11:08:45Z" uid="160202" user="Vedeler" version="1" />
	<node changeset="3931565" id="648866783" lat="59.6495228" lon="10.2130113" timestamp="2010-02-21T11:08:45Z" uid="160202" user="Vedeler" version="1" />
	<node changeset="3931565" id="648866784" lat="59.6498481" lon="10.2125714" timestamp="2010-02-21T11:08:45Z" uid="160202" user="Vedeler" version="1" />
	<node changeset="3931565" id="648866785" lat="59.6502221" lon="10.2120242" timestamp="2010-02-21T11:08:45Z" uid="160202" user="Vedeler" version="1" />
	<node changeset="3931565" id="648866786" lat="59.6504715" lon="10.2114127" timestamp="2010-02-21T11:08:45Z" uid="160202" user="Vedeler" version="1" />
	<node changeset="3931565" id="648866787" lat="59.6506612" lon="10.2116487" timestamp="2010-02-21T11:08:45Z" uid="160202" user="Vedeler" version="1" />
	<node changeset="3931565" id="648866788" lat="59.6510569" lon="10.2116702" timestamp="2010-02-21T11:08:45Z" uid="160202" user="Vedeler" version="1" />
	<node changeset="3931565" id="648866789" lat="59.6514635" lon="10.2113483" timestamp="2010-02-21T11:08:46Z" uid="160202" user="Vedeler" version="1" />
	<node changeset="3931565" id="648866790" lat="59.651908" lon="10.2107904" timestamp="2010-02-21T11:08:46Z" uid="160202" user="Vedeler" version="1" />
	<node changeset="66172086" id="6196191474" lat="59.643575" lon="10.143575" timestamp="2019-01-09T18:47:11Z" uid="3497659" user="NKA" version="1">
		<tag k="historic" v="shieling" />
		<tag k="name" v="Kopstadseter" />
		<tag k="place" v="isolated_dwelling" />
		<tag k="ssr:stedsnr" v="124162" />
		<tag k="ssr:type" v="fritidsbolig" />
	</node>
	<node changeset="3931565" id="648866791" lat="59.6522983" lon="10.2100823" timestamp="2010-02-21T11:08:46Z" uid="160202" user="Vedeler" version="1" />
	<node changeset="3931565" id="648866792" lat="59.6522983" lon="10.2099321" timestamp="2010-02-21T11:08:46Z" uid="160202" user="Vedeler" version="1" />
	<node changeset="58620907" id="2371606395" lat="59.67115" lon="10.126103" timestamp="2018-05-02T17:05:38Z" uid="3497659" user="NKA" version="2">
		<tag k="name" v="Slåttsmyråsen" />
		<tag k="natural" v="peak" />
		<tag k="old_name" v="Slåsmyråsen;Slotsmyraas;Sletmyråsen" />
		<tag k="source:name" v="Kartverket" />
		<tag k="ssr:stedsnr" v="64222" />
	</node>
	<node changeset="16802218" id="2371606398" lat="59.6680366" lon="10.1551351" timestamp="2013-07-03T08:49:19Z" uid="1556391" user="relet" version="2" />
	<node changeset="16802218" id="2371606399" lat="59.6682479" lon="10.1579461" timestamp="2013-07-03T08:49:19Z" uid="1556391" user="relet" version="2" />
	<node changeset="16802218" id="2371606405" lat="59.6664003" lon="10.1581714" timestamp="2013-07-03T08:49:19Z" uid="1556391" user="relet" version="2" />
	<node changeset="66172086" id="6196189427" lat="59.5905111" lon="10.2201639" timestamp="2019-01-09T18:46:52Z" uid="3497659" user="NKA" version="1">
		<tag k="alt_name" v="Bø nordre" />
		<tag k="name" v="Bø" />
		<tag k="place" v="farm" />
		<tag k="ssr:stedsnr" v="428019" />
		<tag k="ssr:type" v="bruk" />
	</node>
	<node changeset="66172086" id="6196191477" lat="59.5523" lon="10.2991722" timestamp="2019-01-09T18:47:11Z" uid="3497659" user="NKA" version="1">
		<tag k="alt_name" v="Bekke søndre" />
		<tag k="name" v="Bekke" />
		<tag k="place" v="farm" />
		<tag k="ssr:stedsnr" v="124901" />
		<tag k="ssr:type" v="bruk" />
	</node>
	<node changeset="3931565" id="648867149" lat="59.6639671" lon="10.0940607" timestamp="2010-02-21T11:09:29Z" uid="160202" user="Vedeler" version="1" />
	<node changeset="66172086" id="6196189432" lat="59.6622806" lon="10.2500333" timestamp="2019-01-09T18:46:53Z" uid="3497659" user="NKA" version="1">
		<tag k="alt_name" v="Østren" />
		<tag k="name" v="Østri" />
		<tag k="place" v="farm" />
		<tag k="ssr:stedsnr" v="428125" />
		<tag k="ssr:type" v="bruk" />
	</node>
	<node changeset="66172086" id="6196191478" lat="59.642875" lon="10.2592111" timestamp="2019-01-09T18:47:11Z" uid="3497659" user="NKA" version="1">
		<tag k="name" v="Åsen" />
		<tag k="place" v="farm" />
		<tag k="ssr:stedsnr" v="125171" />
		<tag k="ssr:type" v="bruk" />
	</node>
	<node changeset="66172086" id="6196191479" lat="59.6098944" lon="10.222925" timestamp="2019-01-09T18:47:11Z" uid="3497659" user="NKA" version="1">
		<tag k="name" v="Søndre Rud" />
		<tag k="place" v="farm" />
		<tag k="ssr:stedsnr" v="125074" />
		<tag k="ssr:type" v="bruk" />
	</node>
	<way changeset="58620907" id="228484840" timestamp="2018-05-02T17:09:45Z" uid="3497659" user="NKA" version="3">
		<tag k="name" v="Fuglemyra" />
		<tag k="natural" v="wetland" />
		<tag k="source:name" v="Kartverket" />
		<tag k="ssr:stedsnr" v="731179" />
		<nd ref="2371607411" />
		<nd ref="2371607412" />
		<nd ref="2371607413" />
		<nd ref="2371607411" />
	</way>
	<way changeset="70863676" id="30419907" timestamp="2019-06-02T18:55:43Z" uid="6227194" user="ImMats" version="6">
		<tag k="alt_name" v="Lille Svartetjern" />
		<tag k="name" v="Vesle Svarttjern" />
		<tag k="natural" v="water" />
		<tag k="source" v="Yahoo" />
		<tag k="source:name" v="Kartverket" />
		<tag k="ssr:stedsnr" v="367142" />
		<tag k="water" v="lake" />
		<nd ref="335709624" />
		<nd ref="335709625" />
		<nd ref="6516824346" />
		<nd ref="335709626" />
		<nd ref="335709627" />
		<nd ref="6516824347" />
		<nd ref="335709628" />
		<nd ref="335709629" />
		<nd ref="6516824342" />
		<nd ref="335709630" />
		<nd ref="6516824341" />
		<nd ref="335709631" />
		<nd ref="6516824343" />
		<nd ref="6516824344" />
		<nd ref="662620667" />
		<nd ref="6516824345" />
		<nd ref="335709624" />
	</way>
	<way changeset="62012500" id="50884109" timestamp="2018-08-26T18:00:15Z" uid="1476146" user="Alecs01" version="5">
		<tag k="layer" v="-1" />
		<tag k="name" v="Gravdalsbekken" />
		<tag k="source:name" v="Kartverket" />
		<tag k="ssr:stedsnr" v="428127" />
		<tag k="waterway" v="stream" />
		<nd ref="648867190" />
		<nd ref="648867187" />
		<nd ref="648867184" />
		<nd ref="648867180" />
		<nd ref="648867178" />
		<nd ref="648867176" />
		<nd ref="648867175" />
		<nd ref="648867174" />
		<nd ref="648867172" />
		<nd ref="648867169" />
		<nd ref="648867168" />
		<nd ref="648867162" />
		<nd ref="648867160" />
		<nd ref="648867158" />
		<nd ref="648867156" />
		<nd ref="648867154" />
		<nd ref="648867153" />
		<nd ref="648867152" />
		<nd ref="648867151" />
		<nd ref="648867149" />
		<nd ref="648867148" />
		<nd ref="648867147" />
		<nd ref="648867146" />
		<nd ref="648867145" />
		<nd ref="648867144" />
		<nd ref="648867142" />
		<nd ref="648867139" />
		<nd ref="648867136" />
		<nd ref="648867133" />
		<nd ref="648867130" />
		<nd ref="648867127" />
		<nd ref="648867124" />
		<nd ref="648867123" />
		<nd ref="648867121" />
		<nd ref="648867120" />
		<nd ref="648867118" />
		<nd ref="648867115" />
		<nd ref="648867113" />
		<nd ref="648867110" />
		<nd ref="648867106" />
		<nd ref="648867102" />
		<nd ref="648867099" />
		<nd ref="648867097" />
		<nd ref="648867096" />
		<nd ref="648867094" />
		<nd ref="648867092" />
		<nd ref="648867091" />
		<nd ref="648867089" />
		<nd ref="648867088" />
		<nd ref="648867086" />
		<nd ref="648867084" />
		<nd ref="648867081" />
		<nd ref="648867080" />
		<nd ref="648867079" />
		<nd ref="648867077" />
		<nd ref="648867075" />
		<nd ref="648867074" />
		<nd ref="648867073" />
		<nd ref="648867071" />
		<nd ref="648867069" />
		<nd ref="648867067" />
		<nd ref="648867065" />
		<nd ref="648867063" />
		<nd ref="648867061" />
		<nd ref="648867059" />
		<nd ref="648867057" />
		<nd ref="648867054" />
		<nd ref="648867052" />
		<nd ref="648867051" />
		<nd ref="648867049" />
		<nd ref="648867047" />
		<nd ref="648867046" />
		<nd ref="648867045" />
		<nd ref="648867044" />
		<nd ref="648867043" />
		<nd ref="648867042" />
		<nd ref="648867041" />
		<nd ref="648867040" />
		<nd ref="648867039" />
		<nd ref="648867037" />
		<nd ref="648867036" />
		<nd ref="648867035" />
		<nd ref="648867034" />
		<nd ref="648867033" />
		<nd ref="648867032" />
		<nd ref="648867031" />
		<nd ref="648867030" />
		<nd ref="648867029" />
		<nd ref="648867028" />
		<nd ref="648867026" />
		<nd ref="648867025" />
		<nd ref="648867019" />
		<nd ref="648867017" />
		<nd ref="648867014" />
		<nd ref="648867012" />
		<nd ref="648867009" />
		<nd ref="648867007" />
		<nd ref="648867005" />
		<nd ref="648867003" />
		<nd ref="648867002" />
		<nd ref="648867001" />
		<nd ref="648867000" />
		<nd ref="648866999" />
		<nd ref="648866998" />
		<nd ref="648866997" />
		<nd ref="648866996" />
		<nd ref="648866995" />
		<nd ref="648866994" />
		<nd ref="648866993" />
		<nd ref="648866992" />
		<nd ref="648866991" />
		<nd ref="648866988" />
		<nd ref="648866987" />
		<nd ref="648866986" />
		<nd ref="648866985" />
		<nd ref="648866984" />
		<nd ref="648866983" />
		<nd ref="648866982" />
		<nd ref="648866981" />
		<nd ref="648866980" />
		<nd ref="648866979" />
		<nd ref="648866978" />
		<nd ref="648866977" />
		<nd ref="648866976" />
		<nd ref="648866975" />
		<nd ref="648866974" />
		<nd ref="648866973" />
		<nd ref="648866972" />
		<nd ref="648866971" />
		<nd ref="648866970" />
		<nd ref="648866969" />
		<nd ref="648866968" />
		<nd ref="648866967" />
		<nd ref="648866966" />
		<nd ref="648866965" />
		<nd ref="648866964" />
		<nd ref="648866963" />
		<nd ref="648866962" />
		<nd ref="648866961" />
		<nd ref="648866960" />
		<nd ref="648866959" />
		<nd ref="648866958" />
		<nd ref="648866957" />
		<nd ref="648866956" />
		<nd ref="648866955" />
		<nd ref="648866954" />
		<nd ref="648866953" />
		<nd ref="648866952" />
		<nd ref="648866951" />
		<nd ref="648866950" />
		<nd ref="648866949" />
		<nd ref="648866948" />
		<nd ref="648866947" />
		<nd ref="648866946" />
		<nd ref="648866945" />
		<nd ref="648866944" />
		<nd ref="648866943" />
		<nd ref="648866942" />
		<nd ref="648866941" />
		<nd ref="648866940" />
		<nd ref="648866939" />
		<nd ref="648866938" />
		<nd ref="648866937" />
		<nd ref="648866936" />
		<nd ref="648866935" />
		<nd ref="648866934" />
		<nd ref="648866933" />
		<nd ref="648866932" />
		<nd ref="648866931" />
		<nd ref="648866930" />
		<nd ref="648866929" />
		<nd ref="648866928" />
		<nd ref="648866927" />
		<nd ref="648866926" />
		<nd ref="648866925" />
		<nd ref="648866924" />
		<nd ref="648866923" />
		<nd ref="648866922" />
		<nd ref="648866921" />
		<nd ref="648866920" />
		<nd ref="648866919" />
		<nd ref="648866918" />
		<nd ref="648866917" />
		<nd ref="648866916" />
		<nd ref="648866915" />
		<nd ref="648866914" />
		<nd ref="648866913" />
		<nd ref="648866912" />
		<nd ref="648866911" />
		<nd ref="648866910" />
		<nd ref="648866909" />
		<nd ref="648866908" />
		<nd ref="648866907" />
		<nd ref="648866906" />
		<nd ref="648866905" />
		<nd ref="648866904" />
		<nd ref="648866903" />
		<nd ref="648866902" />
		<nd ref="648866901" />
		<nd ref="648866900" />
		<nd ref="648866899" />
		<nd ref="648866898" />
		<nd ref="648866897" />
		<nd ref="648866896" />
		<nd ref="648866895" />
		<nd ref="648866894" />
		<nd ref="648866893" />
		<nd ref="648866892" />
		<nd ref="648866891" />
		<nd ref="648866890" />
		<nd ref="648866889" />
		<nd ref="648866888" />
		<nd ref="648866887" />
		<nd ref="648866886" />
		<nd ref="648866885" />
		<nd ref="648866884" />
		<nd ref="648866883" />
		<nd ref="648866882" />
		<nd ref="648866881" />
		<nd ref="648866880" />
		<nd ref="648866879" />
		<nd ref="648866878" />
		<nd ref="648866877" />
		<nd ref="648866876" />
		<nd ref="648866875" />
		<nd ref="648866874" />
		<nd ref="648866873" />
		<nd ref="648866872" />
		<nd ref="648866871" />
		<nd ref="648866870" />
		<nd ref="648866869" />
		<nd ref="648866868" />
		<nd ref="648866867" />
		<nd ref="648866866" />
		<nd ref="648866865" />
		<nd ref="648866864" />
		<nd ref="648866863" />
		<nd ref="648866862" />
		<nd ref="648866860" />
		<nd ref="648866859" />
		<nd ref="648866858" />
		<nd ref="648866857" />
		<nd ref="648866856" />
		<nd ref="648866855" />
		<nd ref="648866854" />
		<nd ref="648866853" />
		<nd ref="648866852" />
		<nd ref="648866851" />
		<nd ref="648866850" />
		<nd ref="648866849" />
		<nd ref="648866848" />
		<nd ref="648866847" />
		<nd ref="648866846" />
		<nd ref="648866845" />
		<nd ref="648866844" />
		<nd ref="648866843" />
		<nd ref="648866842" />
		<nd ref="648866841" />
		<nd ref="648866840" />
		<nd ref="648866839" />
		<nd ref="648866838" />
		<nd ref="648866837" />
		<nd ref="648866836" />
		<nd ref="648866835" />
		<nd ref="648866834" />
		<nd ref="648866833" />
		<nd ref="648866832" />
		<nd ref="648866831" />
		<nd ref="648866830" />
		<nd ref="648866829" />
		<nd ref="648866828" />
		<nd ref="648866827" />
		<nd ref="648866826" />
		<nd ref="648866825" />
		<nd ref="648866824" />
		<nd ref="648866823" />
		<nd ref="648866822" />
		<nd ref="648866821" />
		<nd ref="648866820" />
		<nd ref="648866819" />
		<nd ref="648866818" />
		<nd ref="648866817" />
		<nd ref="648866816" />
		<nd ref="648866815" />
		<nd ref="648866814" />
		<nd ref="648866813" />
		<nd ref="648866812" />
		<nd ref="648866811" />
		<nd ref="648866810" />
		<nd ref="648866809" />
		<nd ref="648866808" />
		<nd ref="648866807" />
		<nd ref="648866806" />
		<nd ref="648866805" />
		<nd ref="648866804" />
		<nd ref="648866803" />
		<nd ref="648866802" />
		<nd ref="648866801" />
		<nd ref="648866800" />
		<nd ref="648866799" />
		<nd ref="648866798" />
		<nd ref="648866797" />
		<nd ref="648866796" />
		<nd ref="648866795" />
		<nd ref="648866794" />
		<nd ref="648866793" />
		<nd ref="648866792" />
		<nd ref="648866791" />
		<nd ref="648866790" />
		<nd ref="648866789" />
		<nd ref="648866788" />
		<nd ref="648866787" />
		<nd ref="648866786" />
		<nd ref="648866785" />
		<nd ref="648866784" />
		<nd ref="648866783" />
		<nd ref="648866781" />
		<nd ref="648866780" />
		<nd ref="648866779" />
		<nd ref="648866778" />
		<nd ref="648866777" />
		<nd ref="648866776" />
		<nd ref="648866775" />
		<nd ref="648866774" />
		<nd ref="648866773" />
		<nd ref="648866772" />
		<nd ref="648866771" />
		<nd ref="648866770" />
		<nd ref="648866769" />
		<nd ref="648221136" />
	</way>
	<way changeset="58620907" id="228484757" timestamp="2018-05-02T17:09:45Z" uid="3497659" user="NKA" version="3">
		<tag k="name" v="Vassmyra" />
		<tag k="natural" v="wetland" />
		<tag k="source:name" v="Kartverket" />
		<tag k="ssr:stedsnr" v="731181" />
		<nd ref="2371606398" />
		<nd ref="2371606399" />
		<nd ref="2371606405" />
		<nd ref="2371606398" />
	</way>
</osm>
