<?xml version="1.0" encoding="UTF-8"?>
<osm version="0.6" generator="osmapis">
	<node id="1721768267" lat="67.3743444" lon="15.632633" version="2" timestamp="2022-07-14T08:49:19Z" changeset="123597579" uid="3497659" user="NKA">
		<tag k="name" v="Helland" />
		<tag k="place" v="hamlet" />
		<tag k="ssr:stedsnr" v="379978" />
	</node>
	<node id="1721768297" lat="67.6862843" lon="15.8043267" version="2" timestamp="2022-07-14T08:49:19Z" changeset="123597579" uid="3497659" user="NKA">
		<tag k="name" v="Storeide" />
		<tag k="place" v="hamlet" />
		<tag k="ssr:stedsnr" v="623546" />
	</node>
	<node id="1721768298" lat="67.3484259" lon="15.5968083" version="8" timestamp="2022-07-14T08:49:19Z" changeset="123597579" uid="3497659" user="NKA">
		<tag k="name" v="Straumen" />
		<tag k="place" v="village" />
		<tag k="population" v="837" />
		<tag k="population:date" v="2021-01-01" />
		<tag k="ref:ssb_tettsted" v="7702" />
		<tag k="source:population" v="SSB - befolkning i tettstedet" />
		<tag k="ssr:stedsnr" v="319928" />
	</node>
	<node id="1721768320" lat="67.4813787" lon="15.5947424" version="2" timestamp="2022-07-14T08:49:19Z" changeset="123597579" uid="3497659" user="NKA">
		<tag k="alt_name" v="Aspfjorden" />
		<tag k="name" v="Aspfjord" />
		<tag k="place" v="hamlet" />
		<tag k="ssr:stedsnr" v="931787" />
	</node>
	<node id="3490202727" lat="67.4326073" lon="15.1509471" version="2" timestamp="2022-07-14T08:49:19Z" changeset="123597579" uid="3497659" user="NKA">
		<tag k="name" v="Sjunkfjorden" />
		<tag k="place" v="farm" />
		<tag k="ssr:stedsnr" v="141518" />
	</node>
	<node id="4716936853" lat="67.4785959" lon="15.5323201" version="2" timestamp="2022-07-14T08:49:19Z" changeset="123597579" uid="3497659" user="NKA">
		<tag k="name" v="Aspenes" />
		<tag k="place" v="hamlet" />
		<tag k="ssr:stedsnr" v="561619" />
	</node>
	<node id="5091596988" lat="67.6883717" lon="15.8142237" version="2" timestamp="2022-07-14T08:49:19Z" changeset="123597579" uid="3497659" user="NKA">
		<tag k="name" v="Skveiren" />
		<tag k="place" v="hamlet" />
		<tag k="ssr:stedsnr" v="21330" />
	</node>
	<node id="5685731628" lat="67.5763525" lon="15.7708837" version="2" timestamp="2022-07-14T08:49:19Z" changeset="123597579" uid="3497659" user="NKA">
		<tag k="alt_name" v="Leirfjordgården" />
		<tag k="name" v="Leirfjordgård" />
		<tag k="name:ru" v="Лейрфьюр" />
		<tag k="place" v="hamlet" />
		<tag k="ssr:stedsnr" v="380709" />
	</node>
	<node id="6205774478" lat="67.5853386" lon="15.8190488" version="2" timestamp="2022-07-14T08:49:19Z" changeset="123597579" uid="3497659" user="NKA">
		<tag k="name" v="Engan" />
		<tag k="place" v="hamlet" />
		<tag k="ssr:stedsnr" v="441598" />
	</node>
	<node id="6205774491" lat="67.4780838" lon="15.4620847" version="2" timestamp="2022-07-14T08:49:19Z" changeset="123597579" uid="3497659" user="NKA">
		<tag k="alt_name" v="Røsvik" />
		<tag k="name" v="Røsvika" />
		<tag k="place" v="village" />
		<tag k="ssr:stedsnr" v="683578" />
	</node>
	<node id="9331973244" lat="67.4525835" lon="15.771308" version="2" timestamp="2022-07-14T08:49:19Z" changeset="123597579" uid="3497659" user="NKA">
		<tag k="name" v="Lakshol" />
		<tag k="place" v="hamlet" />
		<tag k="ssr:stedsnr" v="259815" />
	</node>
	<node id="9886777133" lat="67.6883889" lon="15.8187278" version="1" timestamp="2022-07-14T08:49:19Z" changeset="123597579" uid="3497659" user="NKA">
		<tag k="name" v="Inner-Skveiren" />
		<tag k="place" v="farm" />
		<tag k="ssr:stedsnr" v="931330" />
	</node>
	<node id="9886777134" lat="67.3731437" lon="15.5436535" version="1" timestamp="2022-07-14T08:49:19Z" changeset="123597579" uid="3497659" user="NKA">
		<tag k="name" v="Gammelgarden" />
		<tag k="place" v="farm" />
		<tag k="ssr:stedsnr" v="334244" />
	</node>
	<node id="9886777135" lat="67.6378019" lon="15.9613623" version="1" timestamp="2022-07-14T08:49:19Z" changeset="123597579" uid="3497659" user="NKA">
		<tag k="name" v="Teigan" />
		<tag k="place" v="farm" />
		<tag k="ssr:stedsnr" v="152900" />
	</node>
	<node id="9886777136" lat="67.3548056" lon="15.5508805" version="1" timestamp="2022-07-14T08:49:19Z" changeset="123597579" uid="3497659" user="NKA">
		<tag k="alt_name" v="Seljåsdalen" />
		<tag k="name" v="Seljeåsdalen" />
		<tag k="place" v="farm" />
		<tag k="ssr:stedsnr" v="744870" />
	</node>
	<node id="9886777137" lat="67.3698177" lon="15.5347263" version="1" timestamp="2022-07-14T08:49:19Z" changeset="123597579" uid="3497659" user="NKA">
		<tag k="name" v="Elvenes" />
		<tag k="place" v="farm" />
		<tag k="ssr:stedsnr" v="1079251" />
	</node>
	<node id="9886777138" lat="67.7423889" lon="15.6686554" version="1" timestamp="2022-07-14T08:49:19Z" changeset="123597579" uid="3497659" user="NKA">
		<tag k="name" v="Naustneset" />
		<tag k="place" v="farm" />
		<tag k="ssr:stedsnr" v="562768" />
	</node>
	<node id="9886777139" lat="67.3605616" lon="15.5741949" version="1" timestamp="2022-07-14T08:49:19Z" changeset="123597579" uid="3497659" user="NKA">
		<tag k="name" v="Lakselv" />
		<tag k="place" v="farm" />
		<tag k="ssr:stedsnr" v="164193" />
	</node>
	<node id="9886777140" lat="67.4436611" lon="15.7415721" version="1" timestamp="2022-07-14T08:49:19Z" changeset="123597579" uid="3497659" user="NKA">
		<tag k="name" v="Kålhusmoa" />
		<tag k="place" v="farm" />
		<tag k="ssr:stedsnr" v="809563" />
	</node>
	<node id="9886777141" lat="67.3722835" lon="15.5749248" version="1" timestamp="2022-07-14T08:49:19Z" changeset="123597579" uid="3497659" user="NKA">
		<tag k="alt_name" v="Seljeåsnes" />
		<tag k="name" v="Seljåsneset" />
		<tag k="place" v="farm" />
		<tag k="ssr:stedsnr" v="198992" />
	</node>
	<node id="9886777142" lat="67.5602112" lon="15.6454501" version="1" timestamp="2022-07-14T08:49:19Z" changeset="123597579" uid="3497659" user="NKA">
		<tag k="name" v="Gunnarlægeret" />
		<tag k="place" v="locality" />
		<tag k="ssr:stedsnr" v="627920" />
	</node>
	<node id="9886777143" lat="67.4338639" lon="15.6742388" version="1" timestamp="2022-07-14T08:49:19Z" changeset="123597579" uid="3497659" user="NKA">
		<tag k="name" v="Solskinnsbakkan" />
		<tag k="old_name" v="Solskinsbakken" />
		<tag k="place" v="farm" />
		<tag k="ssr:stedsnr" v="683535" />
	</node>
	<node id="9886777144" lat="67.35185" lon="16.0270195" version="1" timestamp="2022-07-14T08:49:19Z" changeset="123597579" uid="3497659" user="NKA">
		<tag k="name" v="Veiskibu" />
		<tag k="place" v="isolated_dwelling" />
		<tag k="ssr:stedsnr" v="684290" />
	</node>
	<node id="9886777145" lat="67.381675" lon="15.5401779" version="1" timestamp="2022-07-14T08:49:19Z" changeset="123597579" uid="3497659" user="NKA">
		<tag k="name" v="Storelvmo" />
		<tag k="place" v="farm" />
		<tag k="ssr:stedsnr" v="893228" />
	</node>
	<node id="9886777146" lat="67.4420165" lon="15.7262947" version="1" timestamp="2022-07-14T08:49:19Z" changeset="123597579" uid="3497659" user="NKA">
		<tag k="name" v="Bakken" />
		<tag k="place" v="farm" />
		<tag k="ssr:stedsnr" v="684811" />
	</node>
	<node id="9886777147" lat="67.3892166" lon="15.5406971" version="1" timestamp="2022-07-14T08:49:19Z" changeset="123597579" uid="3497659" user="NKA">
		<tag k="name" v="Sandvik" />
		<tag k="place" v="farm" />
		<tag k="ssr:stedsnr" v="710236" />
	</node>
	<node id="9886777148" lat="67.3761753" lon="15.6394885" version="1" timestamp="2022-07-14T08:49:19Z" changeset="123597579" uid="3497659" user="NKA">
		<tag k="name" v="Solheim" />
		<tag k="place" v="farm" />
		<tag k="ssr:stedsnr" v="589194" />
	</node>
	<node id="9886777149" lat="67.6049214" lon="15.7282835" version="1" timestamp="2022-07-14T08:49:19Z" changeset="123597579" uid="3497659" user="NKA">
		<tag k="alt_name" v="Bonå" />
		<tag k="name" v="Bonnå" />
		<tag k="place" v="village" />
		<tag k="ssr:stedsnr" v="381605" />
	</node>
	<node id="9886777150" lat="67.5411194" lon="15.6475916" version="1" timestamp="2022-07-14T08:49:19Z" changeset="123597579" uid="3497659" user="NKA">
		<tag k="name" v="Lisj-Sommerset" />
		<tag k="place" v="locality" />
		<tag k="ssr:stedsnr" v="623986" />
	</node>
	<node id="9886777151" lat="67.724752" lon="15.9387859" version="1" timestamp="2022-07-14T08:49:19Z" changeset="123597579" uid="3497659" user="NKA">
		<tag k="name" v="Mørsry" />
		<tag k="place" v="hamlet" />
		<tag k="ssr:stedsnr" v="927536" />
	</node>
	<node id="9886777152" lat="67.4546575" lon="15.4723868" version="1" timestamp="2022-07-14T08:49:19Z" changeset="123597579" uid="3497659" user="NKA">
		<tag k="alt_name" v="Ånsvik;Ånunsvik" />
		<tag k="name" v="Ånsvika" />
		<tag k="place" v="hamlet" />
		<tag k="ssr:stedsnr" v="137512" />
	</node>
	<node id="9886777153" lat="67.5515416" lon="15.6283555" version="1" timestamp="2022-07-14T08:49:19Z" changeset="123597579" uid="3497659" user="NKA">
		<tag k="name" v="Brattlihula" />
		<tag k="place" v="locality" />
		<tag k="ssr:stedsnr" v="324837" />
	</node>
	<node id="9886777154" lat="67.4484917" lon="15.4707945" version="1" timestamp="2022-07-14T08:49:19Z" changeset="123597579" uid="3497659" user="NKA">
		<tag k="alt_name" v="Hopenga" />
		<tag k="name" v="Hopeng" />
		<tag k="place" v="farm" />
		<tag k="ssr:stedsnr" v="441504" />
	</node>
	<node id="9886777155" lat="67.3506569" lon="15.5761833" version="1" timestamp="2022-07-14T08:49:19Z" changeset="123597579" uid="3497659" user="NKA">
		<tag k="alt_name" v="Strømdal" />
		<tag k="name" v="Straumdal" />
		<tag k="place" v="farm" />
		<tag k="ssr:stedsnr" v="501905" />
	</node>
	<node id="9886777156" lat="67.5508401" lon="15.6709831" version="1" timestamp="2022-07-14T08:49:19Z" changeset="123597579" uid="3497659" user="NKA">
		<tag k="name" v="Sommerset" />
		<tag k="place" v="hamlet" />
		<tag k="ssr:stedsnr" v="320997" />
	</node>
	<node id="9886777157" lat="67.4446742" lon="15.5548279" version="1" timestamp="2022-07-14T08:49:19Z" changeset="123597579" uid="3497659" user="NKA">
		<tag k="name" v="Gyltvikmoen" />
		<tag k="place" v="hamlet" />
		<tag k="ssr:stedsnr" v="805516" />
	</node>
	<node id="9886777158" lat="67.5751264" lon="15.7668725" version="1" timestamp="2022-07-14T08:49:19Z" changeset="123597579" uid="3497659" user="NKA">
		<tag k="name" v="Leirfjord" />
		<tag k="place" v="farm" />
		<tag k="ssr:stedsnr" v="1075699" />
	</node>
	<node id="9886777159" lat="67.3456424" lon="15.5957514" version="1" timestamp="2022-07-14T08:49:19Z" changeset="123597579" uid="3497659" user="NKA">
		<tag k="name" v="Straumhaug" />
		<tag k="place" v="farm" />
		<tag k="ssr:stedsnr" v="528201" />
	</node>
	<node id="9886777160" lat="67.5195277" lon="15.5244278" version="1" timestamp="2022-07-14T08:49:19Z" changeset="123597579" uid="3497659" user="NKA">
		<tag k="name" v="Vollan" />
		<tag k="place" v="farm" />
		<tag k="ssr:stedsnr" v="516424" />
	</node>
	<node id="9886777161" lat="67.3716386" lon="15.5395855" version="1" timestamp="2022-07-14T08:49:19Z" changeset="123597579" uid="3497659" user="NKA">
		<tag k="name" v="Myrvoll" />
		<tag k="place" v="farm" />
		<tag k="ssr:stedsnr" v="273756" />
	</node>
	<node id="9886777162" lat="67.3749661" lon="15.5362233" version="1" timestamp="2022-07-14T08:49:19Z" changeset="123597579" uid="3497659" user="NKA">
		<tag k="name" v="Bakken" />
		<tag k="place" v="farm" />
		<tag k="ssr:stedsnr" v="286234" />
	</node>
	<node id="9886777163" lat="67.499271" lon="15.3879778" version="1" timestamp="2022-07-14T08:49:19Z" changeset="123597579" uid="3497659" user="NKA">
		<tag k="name" v="Gammovika" />
		<tag k="place" v="farm" />
		<tag k="ssr:stedsnr" v="501548" />
	</node>
	<node id="9886777164" lat="67.5162236" lon="15.5196431" version="1" timestamp="2022-07-14T08:49:19Z" changeset="123597579" uid="3497659" user="NKA">
		<tag k="name" v="Strøksnes" />
		<tag k="place" v="farm" />
		<tag k="ssr:stedsnr" v="525659" />
	</node>
	<node id="9886777165" lat="67.6059694" lon="15.7156972" version="1" timestamp="2022-07-14T08:49:19Z" changeset="123597579" uid="3497659" user="NKA">
		<tag k="name" v="Kroken" />
		<tag k="place" v="farm" />
		<tag k="ssr:stedsnr" v="274472" />
	</node>
	<node id="9886777166" lat="67.3662472" lon="15.5281056" version="1" timestamp="2022-07-14T08:49:19Z" changeset="123597579" uid="3497659" user="NKA">
		<tag k="alt_name" v="Skyttenga" />
		<tag k="name" v="Skytteng" />
		<tag k="place" v="farm" />
		<tag k="ssr:stedsnr" v="501869" />
	</node>
	<node id="9886777167" lat="67.5247444" lon="15.4945056" version="1" timestamp="2022-07-14T08:49:19Z" changeset="123597579" uid="3497659" user="NKA">
		<tag k="alt_name" v="Hjellvika" />
		<tag k="name" v="Hjellvik" />
		<tag k="place" v="hamlet" />
		<tag k="ssr:stedsnr" v="259941" />
	</node>
	<node id="9886777168" lat="67.4743107" lon="15.2287214" version="1" timestamp="2022-07-14T08:49:19Z" changeset="123597579" uid="3497659" user="NKA">
		<tag k="name" v="Vassvika" />
		<tag k="place" v="farm" />
		<tag k="ssr:stedsnr" v="744593" />
	</node>
	<node id="9886777169" lat="67.5523473" lon="15.6748861" version="1" timestamp="2022-07-14T08:49:19Z" changeset="123597579" uid="3497659" user="NKA">
		<tag k="name" v="Lisj-Kalvika" />
		<tag k="place" v="farm" />
		<tag k="ssr:stedsnr" v="142829" />
	</node>
	<node id="9886777170" lat="67.4080089" lon="15.5322067" version="1" timestamp="2022-07-14T08:49:19Z" changeset="123597579" uid="3497659" user="NKA">
		<tag k="alt_name" v="Hammerfall" />
		<tag k="name" v="Hammarfall" />
		<tag k="place" v="farm" />
		<tag k="ssr:stedsnr" v="744946" />
	</node>
	<node id="9886777171" lat="67.3972722" lon="15.7135389" version="1" timestamp="2022-07-14T08:49:19Z" changeset="123597579" uid="3497659" user="NKA">
		<tag k="name" v="Lappelva" />
		<tag k="place" v="farm" />
		<tag k="ssr:stedsnr" v="441967" />
	</node>
	<node id="9886777172" lat="67.689233" lon="15.8104949" version="1" timestamp="2022-07-14T08:49:19Z" changeset="123597579" uid="3497659" user="NKA">
		<tag k="name" v="Storeidet" />
		<tag k="place" v="farm" />
		<tag k="ssr:stedsnr" v="263318" />
	</node>
	<node id="9886777173" lat="67.6915655" lon="15.8454806" version="1" timestamp="2022-07-14T08:49:19Z" changeset="123597579" uid="3497659" user="NKA">
		<tag k="name" v="Sildhopen - Silldavuohppe" />
		<tag k="name:no" v="Sildhopen" />
		<tag k="name:smj" v="Silldavuohppe" />
		<tag k="old_name:smj" v="Sildavuohppi" />
		<tag k="place" v="hamlet" />
		<tag k="ssr:stedsnr" v="324121" />
	</node>
	<node id="9886777174" lat="67.501125" lon="15.2881305" version="1" timestamp="2022-07-14T08:49:19Z" changeset="123597579" uid="3497659" user="NKA">
		<tag k="name" v="Tennvika" />
		<tag k="place" v="farm" />
		<tag k="ssr:stedsnr" v="260971" />
	</node>
	<node id="9886777175" lat="67.7109377" lon="15.8537591" version="1" timestamp="2022-07-14T08:49:19Z" changeset="123597579" uid="3497659" user="NKA">
		<tag k="name" v="Elenjorda" />
		<tag k="place" v="hamlet" />
		<tag k="ssr:stedsnr" v="263090" />
	</node>
	<node id="9886777176" lat="67.6912139" lon="15.8055418" version="1" timestamp="2022-07-14T08:49:19Z" changeset="123597579" uid="3497659" user="NKA">
		<tag k="name" v="Lisjeide" />
		<tag k="place" v="hamlet" />
		<tag k="ssr:stedsnr" v="259513" />
	</node>
	<node id="9886777177" lat="67.4566389" lon="15.1837083" version="1" timestamp="2022-07-14T08:49:19Z" changeset="123597579" uid="3497659" user="NKA">
		<tag k="name" v="Sommarset" />
		<tag k="place" v="farm" />
		<tag k="ssr:stedsnr" v="16556" />
	</node>
	<node id="9886777178" lat="67.3799444" lon="15.5412029" version="1" timestamp="2022-07-14T08:49:19Z" changeset="123597579" uid="3497659" user="NKA">
		<tag k="name" v="Nymoen" />
		<tag k="place" v="farm" />
		<tag k="ssr:stedsnr" v="380965" />
	</node>
	<node id="9886777179" lat="67.6955259" lon="15.7983611" version="1" timestamp="2022-07-14T08:49:19Z" changeset="123597579" uid="3497659" user="NKA">
		<tag k="name" v="Skogheim" />
		<tag k="place" v="farm" />
		<tag k="ssr:stedsnr" v="77530" />
	</node>
	<node id="9886777180" lat="67.5774266" lon="15.7699813" version="1" timestamp="2022-07-14T08:49:19Z" changeset="123597579" uid="3497659" user="NKA">
		<tag k="name" v="Pålstein" />
		<tag k="place" v="isolated_dwelling" />
		<tag k="ssr:stedsnr" v="820438" />
	</node>
	<node id="9886777181" lat="67.7279805" lon="15.9206889" version="1" timestamp="2022-07-14T08:49:19Z" changeset="123597579" uid="3497659" user="NKA">
		<tag k="name" v="Moan" />
		<tag k="place" v="farm" />
		<tag k="ssr:stedsnr" v="21298" />
	</node>
	<node id="9886777182" lat="67.545828" lon="15.2607827" version="1" timestamp="2022-07-14T08:49:19Z" changeset="123597579" uid="3497659" user="NKA">
		<tag k="name" v="Ystrand" />
		<tag k="place" v="farm" />
		<tag k="ssr:stedsnr" v="867987" />
	</node>
	<node id="9886777183" lat="67.5747309" lon="15.7709601" version="1" timestamp="2022-07-14T08:49:19Z" changeset="123597579" uid="3497659" user="NKA">
		<tag k="name" v="Buberg" />
		<tag k="place" v="isolated_dwelling" />
		<tag k="ssr:stedsnr" v="516432" />
	</node>
	<node id="9886777184" lat="67.5080066" lon="15.2857645" version="1" timestamp="2022-07-14T08:49:19Z" changeset="123597579" uid="3497659" user="NKA">
		<tag k="name" v="Jovika" />
		<tag k="place" v="farm" />
		<tag k="ssr:stedsnr" v="1075875" />
	</node>
	<node id="9886777185" lat="67.7109074" lon="15.8453625" version="1" timestamp="2022-07-14T08:49:19Z" changeset="123597579" uid="3497659" user="NKA">
		<tag k="name" v="Mørsvik" />
		<tag k="place" v="farm" />
		<tag k="ssr:stedsnr" v="1075998" />
	</node>
	<node id="9886777186" lat="67.4356583" lon="15.7351916" version="1" timestamp="2022-07-14T08:49:19Z" changeset="123597579" uid="3497659" user="NKA">
		<tag k="name" v="Moenga" />
		<tag k="place" v="farm" />
		<tag k="ssr:stedsnr" v="258263" />
	</node>
	<node id="9886777187" lat="67.6909077" lon="15.8022642" version="1" timestamp="2022-07-14T08:49:19Z" changeset="123597579" uid="3497659" user="NKA">
		<tag k="name" v="Lisjeidet" />
		<tag k="place" v="farm" />
		<tag k="ssr:stedsnr" v="1076005" />
	</node>
	<node id="9886777188" lat="67.5883889" lon="15.2177722" version="1" timestamp="2022-07-14T08:49:19Z" changeset="123597579" uid="3497659" user="NKA">
		<tag k="name" v="Rognan" />
		<tag k="place" v="farm" />
		<tag k="ssr:stedsnr" v="567016" />
	</node>
	<node id="9886777189" lat="67.6293023" lon="15.7334672" version="1" timestamp="2022-07-14T08:49:19Z" changeset="123597579" uid="3497659" user="NKA">
		<tag k="name" v="Horndal - Tjoarvek" />
		<tag k="name:no" v="Horndal" />
		<tag k="name:smj" v="Tjoarvek" />
		<tag k="old_name:smj" v="Čoarvvek" />
		<tag k="place" v="farm" />
		<tag k="ssr:stedsnr" v="381641" />
	</node>
	<node id="9886777190" lat="67.4055381" lon="15.5370081" version="1" timestamp="2022-07-14T08:49:19Z" changeset="123597579" uid="3497659" user="NKA">
		<tag k="name" v="Lilleberg" />
		<tag k="place" v="farm" />
		<tag k="ssr:stedsnr" v="213672" />
	</node>
	<node id="9886777191" lat="67.4197218" lon="15.5674306" version="1" timestamp="2022-07-14T08:49:19Z" changeset="123597579" uid="3497659" user="NKA">
		<tag k="name" v="Inner-Låkthågen" />
		<tag k="place" v="farm" />
		<tag k="ssr:stedsnr" v="259529" />
	</node>
	<node id="9886777192" lat="67.4540159" lon="15.4678707" version="1" timestamp="2022-07-14T08:49:19Z" changeset="123597579" uid="3497659" user="NKA">
		<tag k="name" v="Stordal" />
		<tag k="place" v="farm" />
		<tag k="ssr:stedsnr" v="589917" />
	</node>
	<node id="9886777193" lat="67.7479939" lon="15.7384489" version="1" timestamp="2022-07-14T08:49:19Z" changeset="123597579" uid="3497659" user="NKA">
		<tag k="name" v="Ner-Salhus" />
		<tag k="place" v="farm" />
		<tag k="ssr:stedsnr" v="77584" />
	</node>
	<node id="9886777194" lat="67.708749" lon="15.8570056" version="1" timestamp="2022-07-14T08:49:19Z" changeset="123597579" uid="3497659" user="NKA">
		<tag k="name" v="Mørsvik - Murgos" />
		<tag k="name:no" v="Mørsvik" />
		<tag k="name:smj" v="Murgos" />
		<tag k="old_name:smj" v="Murrgus" />
		<tag k="place" v="hamlet" />
		<tag k="ssr:stedsnr" v="927545" />
	</node>
	<node id="9886777195" lat="67.566125" lon="15.8038249" version="1" timestamp="2022-07-14T08:49:19Z" changeset="123597579" uid="3497659" user="NKA">
		<tag k="name" v="Kjelvika" />
		<tag k="place" v="farm" />
		<tag k="ssr:stedsnr" v="927663" />
	</node>
	<node id="9886777196" lat="67.4745695" lon="15.5456004" version="1" timestamp="2022-07-14T08:49:19Z" changeset="123597579" uid="3497659" user="NKA">
		<tag k="name" v="Ytter-Kalvika" />
		<tag k="place" v="hamlet" />
		<tag k="ssr:stedsnr" v="259538" />
	</node>
	<node id="9886777197" lat="67.634865" lon="15.9419653" version="1" timestamp="2022-07-14T08:49:19Z" changeset="123597579" uid="3497659" user="NKA">
		<tag k="alt_name" v="Kobbskardmoen" />
		<tag k="name" v="Kobbskarmoen" />
		<tag k="place" v="hamlet" />
		<tag k="ssr:stedsnr" v="806619" />
	</node>
	<node id="9886777198" lat="67.5744295" lon="15.9080492" version="1" timestamp="2022-07-14T08:49:19Z" changeset="123597579" uid="3497659" user="NKA">
		<tag k="name" v="Sørfjorddalen" />
		<tag k="place" v="farm" />
		<tag k="ssr:stedsnr" v="745701" />
	</node>
	<node id="9886777199" lat="67.5348838" lon="15.4624903" version="1" timestamp="2022-07-14T08:49:19Z" changeset="123597579" uid="3497659" user="NKA">
		<tag k="name" v="Storslett" />
		<tag k="place" v="farm" />
		<tag k="ssr:stedsnr" v="772563" />
	</node>
	<node id="9886777200" lat="67.688784" lon="15.8132647" version="1" timestamp="2022-07-14T08:49:19Z" changeset="123597579" uid="3497659" user="NKA">
		<tag k="name" v="Klubben" />
		<tag k="place" v="farm" />
		<tag k="ssr:stedsnr" v="809357" />
	</node>
	<node id="9886777201" lat="67.5894025" lon="15.7133417" version="1" timestamp="2022-07-14T08:49:19Z" changeset="123597579" uid="3497659" user="NKA">
		<tag k="name" v="Svemobakken" />
		<tag k="place" v="farm" />
		<tag k="ssr:stedsnr" v="502909" />
	</node>
	<node id="9886777202" lat="67.576991" lon="15.8859391" version="1" timestamp="2022-07-14T08:49:19Z" changeset="123597579" uid="3497659" user="NKA">
		<tag k="alt_name" v="Sørfjordmo" />
		<tag k="name" v="Sørfjordmoen" />
		<tag k="place" v="hamlet" />
		<tag k="ssr:stedsnr" v="380619" />
	</node>
	<node id="9886777203" lat="67.5817243" lon="15.8927579" version="1" timestamp="2022-07-14T08:49:19Z" changeset="123597579" uid="3497659" user="NKA">
		<tag k="alt_name" v="Einkrågen;Engkråg" />
		<tag k="name" v="Einkråga" />
		<tag k="place" v="farm" />
		<tag k="ssr:stedsnr" v="806561" />
	</node>
	<node id="9886777204" lat="67.4959139" lon="15.2635362" version="1" timestamp="2022-07-14T08:49:19Z" changeset="123597579" uid="3497659" user="NKA">
		<tag k="name" v="Lundestad" />
		<tag k="place" v="farm" />
		<tag k="ssr:stedsnr" v="623579" />
	</node>
	<node id="9886777205" lat="67.4967972" lon="15.2503584" version="1" timestamp="2022-07-14T08:49:19Z" changeset="123597579" uid="3497659" user="NKA">
		<tag k="alt_name" v="Åkervika" />
		<tag k="name" v="Åkervik" />
		<tag k="place" v="farm" />
		<tag k="ssr:stedsnr" v="137542" />
	</node>
	<node id="9886777206" lat="67.5854942" lon="15.83502" version="1" timestamp="2022-07-14T08:49:19Z" changeset="123597579" uid="3497659" user="NKA">
		<tag k="name" v="Ørnes" />
		<tag k="place" v="farm" />
		<tag k="ssr:stedsnr" v="1075700" />
	</node>
	<node id="9886777207" lat="67.393558" lon="15.6881673" version="1" timestamp="2022-07-14T08:49:19Z" changeset="123597579" uid="3497659" user="NKA">
		<tag k="name" v="Andkilen" />
		<tag k="old_name" v="Andkilo" />
		<tag k="place" v="hamlet" />
		<tag k="ssr:stedsnr" v="502979" />
	</node>
	<node id="9886777208" lat="67.6297834" lon="15.929789" version="1" timestamp="2022-07-14T08:49:19Z" changeset="123597579" uid="3497659" user="NKA">
		<tag k="name" v="Hamran" />
		<tag k="place" v="isolated_dwelling" />
		<tag k="ssr:stedsnr" v="698907" />
	</node>
	<node id="9886777209" lat="67.6120722" lon="15.253389" version="1" timestamp="2022-07-14T08:49:19Z" changeset="123597579" uid="3497659" user="NKA">
		<tag k="name" v="Revsnes" />
		<tag k="place" v="farm" />
		<tag k="ssr:stedsnr" v="17901" />
	</node>
	<node id="9886777210" lat="67.5447559" lon="15.2638935" version="1" timestamp="2022-07-14T08:49:19Z" changeset="123597579" uid="3497659" user="NKA">
		<tag k="name" v="Haukenes" />
		<tag k="place" v="hamlet" />
		<tag k="ssr:stedsnr" v="138947" />
	</node>
	<node id="9886777211" lat="67.628681" lon="15.7336265" version="1" timestamp="2022-07-14T08:49:19Z" changeset="123597579" uid="3497659" user="NKA">
		<tag k="name" v="Kleksbakkan" />
		<tag k="place" v="hamlet" />
		<tag k="ssr:stedsnr" v="78580" />
	</node>
	<node id="9886777212" lat="67.3468832" lon="15.602094" version="1" timestamp="2022-07-14T08:49:19Z" changeset="123597579" uid="3497659" user="NKA">
		<tag k="name" v="Lapphaugen" />
		<tag k="place" v="farm" />
		<tag k="ssr:stedsnr" v="30219" />
	</node>
	<node id="9886777213" lat="67.5893819" lon="15.2235878" version="1" timestamp="2022-07-14T08:49:19Z" changeset="123597579" uid="3497659" user="NKA">
		<tag k="name" v="Rørstad" />
		<tag k="place" v="hamlet" />
		<tag k="ssr:stedsnr" v="684876" />
	</node>
	<node id="9886777214" lat="67.3509013" lon="15.5588603" version="1" timestamp="2022-07-14T08:49:19Z" changeset="123597579" uid="3497659" user="NKA">
		<tag k="alt_name" v="Seljåsen, nedre" />
		<tag k="name" v="Nerseljeåsen" />
		<tag k="place" v="farm" />
		<tag k="ssr:stedsnr" v="77891" />
	</node>
	<node id="9886777215" lat="67.4570389" lon="15.91455" version="1" timestamp="2022-07-14T08:49:19Z" changeset="123597579" uid="3497659" user="NKA">
		<tag k="name" v="Storskogvasshytta" />
		<tag k="place" v="isolated_dwelling" />
		<tag k="ssr:stedsnr" v="16797" />
	</node>
	<node id="9886777216" lat="67.6396124" lon="15.2821331" version="1" timestamp="2022-07-14T08:49:19Z" changeset="123597579" uid="3497659" user="NKA">
		<tag k="name" v="Movika" />
		<tag k="place" v="hamlet" />
		<tag k="ssr:stedsnr" v="320923" />
	</node>
	<node id="9886777317" lat="67.6288554" lon="15.9306507" version="1" timestamp="2022-07-14T08:49:19Z" changeset="123597579" uid="3497659" user="NKA">
		<tag k="name" v="Lundmo" />
		<tag k="place" v="farm" />
		<tag k="ssr:stedsnr" v="92893" />
	</node>
	<node id="9886777318" lat="67.5773699" lon="15.8991953" version="1" timestamp="2022-07-14T08:49:19Z" changeset="123597579" uid="3497659" user="NKA">
		<tag k="name" v="Kveldmoen" />
		<tag k="place" v="farm" />
		<tag k="ssr:stedsnr" v="334854" />
	</node>
	<node id="9886777319" lat="67.4635068" lon="15.473247" version="1" timestamp="2022-07-14T08:49:19Z" changeset="123597579" uid="3497659" user="NKA">
		<tag k="alt_name" v="Hammervik" />
		<tag k="name" v="Hammarvika" />
		<tag k="place" v="hamlet" />
		<tag k="ssr:stedsnr" v="953888" />
	</node>
	<node id="9886777320" lat="67.6370733" lon="15.9656466" version="1" timestamp="2022-07-14T08:49:19Z" changeset="123597579" uid="3497659" user="NKA">
		<tag k="name" v="Alfheim" />
		<tag k="place" v="farm" />
		<tag k="ssr:stedsnr" v="334876" />
	</node>
	<node id="9886777321" lat="67.5803945" lon="15.7287251" version="1" timestamp="2022-07-14T08:49:19Z" changeset="123597579" uid="3497659" user="NKA">
		<tag k="name" v="Myr" />
		<tag k="place" v="farm" />
		<tag k="ssr:stedsnr" v="441570" />
	</node>
	<node id="9886777322" lat="67.593337" lon="15.9089018" version="1" timestamp="2022-07-14T08:49:19Z" changeset="123597579" uid="3497659" user="NKA">
		<tag k="name" v="Moan" />
		<tag k="place" v="farm" />
		<tag k="ssr:stedsnr" v="17567" />
	</node>
	<node id="9886777323" lat="67.4891306" lon="15.8736307" version="1" timestamp="2022-07-14T08:49:19Z" changeset="123597579" uid="3497659" user="NKA">
		<tag k="name" v="Olavsbu" />
		<tag k="place" v="isolated_dwelling" />
		<tag k="ssr:stedsnr" v="16758" />
	</node>
	<node id="9886777324" lat="67.5363584" lon="15.4641222" version="1" timestamp="2022-07-14T08:49:19Z" changeset="123597579" uid="3497659" user="NKA">
		<tag k="name" v="Ytter-Strøksnes" />
		<tag k="old_name" v="Ytre Strøksnes;Styrkesnes nordre" />
		<tag k="place" v="farm" />
		<tag k="ssr:stedsnr" v="828762" />
	</node>
	<node id="9886777325" lat="67.5933328" lon="15.9278429" version="1" timestamp="2022-07-14T08:49:19Z" changeset="123597579" uid="3497659" user="NKA">
		<tag k="alt_name" v="Kvalhaugmo" />
		<tag k="name" v="Kvalhaugmoen" />
		<tag k="place" v="hamlet" />
		<tag k="ssr:stedsnr" v="17566" />
	</node>
	<node id="9886777326" lat="67.5813421" lon="15.7325592" version="1" timestamp="2022-07-14T08:49:19Z" changeset="123597579" uid="3497659" user="NKA">
		<tag k="name" v="Stormoen" />
		<tag k="place" v="farm" />
		<tag k="ssr:stedsnr" v="334285" />
	</node>
	<node id="9886777327" lat="67.4364849" lon="15.7217783" version="1" timestamp="2022-07-14T08:49:19Z" changeset="123597579" uid="3497659" user="NKA">
		<tag k="name" v="Nordfjord" />
		<tag k="place" v="hamlet" />
		<tag k="ssr:stedsnr" v="805804" />
	</node>
	<node id="9886777328" lat="67.5915583" lon="15.8583666" version="1" timestamp="2022-07-14T08:49:19Z" changeset="123597579" uid="3497659" user="NKA">
		<tag k="alt_name" v="Elvkroken" />
		<tag k="name" v="Elvekroken" />
		<tag k="place" v="locality" />
		<tag k="ssr:stedsnr" v="77611" />
	</node>
	<node id="9886777329" lat="67.5196028" lon="15.5209583" version="1" timestamp="2022-07-14T08:49:19Z" changeset="123597579" uid="3497659" user="NKA">
		<tag k="name" v="Skogvoll" />
		<tag k="place" v="farm" />
		<tag k="ssr:stedsnr" v="320965" />
	</node>
	<node id="9886777330" lat="67.6116555" lon="15.4286279" version="1" timestamp="2022-07-14T08:49:19Z" changeset="123597579" uid="3497659" user="NKA">
		<tag k="name" v="Sagfjorden" />
		<tag k="place" v="hamlet" />
		<tag k="ssr:stedsnr" v="381938" />
	</node>
	<node id="9886777331" lat="67.4695806" lon="15.4774416" version="1" timestamp="2022-07-14T08:49:19Z" changeset="123597579" uid="3497659" user="NKA">
		<tag k="alt_name" v="Tortenvika" />
		<tag k="name" v="Tortenvik" />
		<tag k="place" v="farm" />
		<tag k="ssr:stedsnr" v="926502" />
	</node>
	<node id="9886777332" lat="67.6865388" lon="15.8190694" version="1" timestamp="2022-07-14T08:49:19Z" changeset="123597579" uid="3497659" user="NKA">
		<tag k="name" v="Ytter-Skveiren" />
		<tag k="place" v="farm" />
		<tag k="ssr:stedsnr" v="866509" />
	</node>
	<node id="9886777333" lat="67.5777562" lon="15.8950148" version="1" timestamp="2022-07-14T08:49:19Z" changeset="123597579" uid="3497659" user="NKA">
		<tag k="name" v="Holmen" />
		<tag k="place" v="farm" />
		<tag k="ssr:stedsnr" v="17586" />
	</node>
	<node id="9886777334" lat="67.6243172" lon="15.9354006" version="1" timestamp="2022-07-14T08:49:19Z" changeset="123597579" uid="3497659" user="NKA">
		<tag k="alt_name" v="Elvegard" />
		<tag k="name" v="Elvegård" />
		<tag k="place" v="farm" />
		<tag k="ssr:stedsnr" v="17614" />
	</node>
	<node id="9886777335" lat="67.4522889" lon="15.4693307" version="1" timestamp="2022-07-14T08:49:19Z" changeset="123597579" uid="3497659" user="NKA">
		<tag k="name" v="Nytra" />
		<tag k="place" v="farm" />
		<tag k="ssr:stedsnr" v="805536" />
	</node>
	<node id="9886777336" lat="67.6268999" lon="15.9264981" version="1" timestamp="2022-07-14T08:49:19Z" changeset="123597579" uid="3497659" user="NKA">
		<tag k="name" v="Vesterbotn" />
		<tag k="place" v="hamlet" />
		<tag k="ssr:stedsnr" v="199603" />
	</node>
	<node id="9886777337" lat="67.5786082" lon="15.7741424" version="1" timestamp="2022-07-14T08:49:19Z" changeset="123597579" uid="3497659" user="NKA">
		<tag k="name" v="Haugan" />
		<tag k="place" v="isolated_dwelling" />
		<tag k="ssr:stedsnr" v="759389" />
	</node>
	<node id="9886777338" lat="67.4422113" lon="15.7355038" version="1" timestamp="2022-07-14T08:49:19Z" changeset="123597579" uid="3497659" user="NKA">
		<tag k="name" v="Bakkemoen" />
		<tag k="place" v="farm" />
		<tag k="ssr:stedsnr" v="865802" />
	</node>
	<node id="9886777339" lat="67.5917084" lon="15.8887903" version="1" timestamp="2022-07-14T08:49:19Z" changeset="123597579" uid="3497659" user="NKA">
		<tag k="name" v="Framsteg" />
		<tag k="place" v="isolated_dwelling" />
		<tag k="ssr:stedsnr" v="637577" />
	</node>
	<node id="9886777340" lat="67.627766" lon="15.9296121" version="1" timestamp="2022-07-14T08:49:19Z" changeset="123597579" uid="3497659" user="NKA">
		<tag k="name" v="Kolstrand" />
		<tag k="place" v="farm" />
		<tag k="ssr:stedsnr" v="941905" />
	</node>
	<node id="9886777341" lat="67.3972032" lon="15.7159788" version="1" timestamp="2022-07-14T08:49:19Z" changeset="123597579" uid="3497659" user="NKA">
		<tag k="alt_name" v="Hellarvik" />
		<tag k="name" v="Hellarvika" />
		<tag k="place" v="farm" />
		<tag k="ssr:stedsnr" v="1075797" />
	</node>
	<node id="9886777342" lat="67.6062467" lon="15.504387" version="1" timestamp="2022-07-14T08:49:19Z" changeset="123597579" uid="3497659" user="NKA">
		<tag k="name" v="Tennvatnet" />
		<tag k="place" v="hamlet" />
		<tag k="ssr:stedsnr" v="745908" />
	</node>
	<node id="9886777343" lat="67.5790285" lon="15.8970222" version="1" timestamp="2022-07-14T08:49:19Z" changeset="123597579" uid="3497659" user="NKA">
		<tag k="alt_name" v="Sørfjordskar" />
		<tag k="name" v="Sørfjordskardet" />
		<tag k="place" v="hamlet" />
		<tag k="ssr:stedsnr" v="866555" />
	</node>
	<node id="9886777344" lat="67.6013785" lon="15.9937492" version="1" timestamp="2022-07-14T08:49:19Z" changeset="123597579" uid="3497659" user="NKA">
		<tag k="name" v="Austerelva" />
		<tag k="place" v="farm" />
		<tag k="ssr:stedsnr" v="1075705" />
	</node>
	<node id="9886777345" lat="67.4823083" lon="15.5960473" version="1" timestamp="2022-07-14T08:49:19Z" changeset="123597579" uid="3497659" user="NKA">
		<tag k="name" v="Vestre Aspfjorden" />
		<tag k="place" v="farm" />
		<tag k="ssr:stedsnr" v="931790" />
	</node>
	<node id="9886777346" lat="67.3408187" lon="15.7132762" version="1" timestamp="2022-07-14T08:49:19Z" changeset="123597579" uid="3497659" user="NKA">
		<tag k="name" v="Fagerbakkan" />
		<tag k="place" v="farm" />
		<tag k="ssr:stedsnr" v="622932" />
	</node>
	<node id="9886777347" lat="67.5579583" lon="15.6451918" version="1" timestamp="2022-07-14T08:49:19Z" changeset="123597579" uid="3497659" user="NKA">
		<tag k="name" v="Ånlægeret" />
		<tag k="place" v="locality" />
		<tag k="ssr:stedsnr" v="931912" />
	</node>
	<node id="9886777348" lat="67.3956579" lon="15.6019153" version="1" timestamp="2022-07-14T08:49:19Z" changeset="123597579" uid="3497659" user="NKA">
		<tag k="name" v="Ura" />
		<tag k="place" v="farm" />
		<tag k="ssr:stedsnr" v="164181" />
	</node>
	<node id="9886777349" lat="67.5858944" lon="15.8305834" version="1" timestamp="2022-07-14T08:49:19Z" changeset="123597579" uid="3497659" user="NKA">
		<tag k="name" v="Ørnesmoen" />
		<tag k="place" v="hamlet" />
		<tag k="ssr:stedsnr" v="395492" />
	</node>
	<node id="9886777350" lat="67.3680806" lon="15.6279666" version="1" timestamp="2022-07-14T08:49:19Z" changeset="123597579" uid="3497659" user="NKA">
		<tag k="name" v="Rebåsbukt" />
		<tag k="place" v="farm" />
		<tag k="ssr:stedsnr" v="771196" />
	</node>
	<node id="9886777351" lat="67.4094278" lon="15.6813916" version="1" timestamp="2022-07-14T08:49:19Z" changeset="123597579" uid="3497659" user="NKA">
		<tag k="name" v="Fjellheim" />
		<tag k="place" v="farm" />
		<tag k="ssr:stedsnr" v="441942" />
	</node>
	<node id="9886777352" lat="67.4113129" lon="15.5829626" version="1" timestamp="2022-07-14T08:49:19Z" changeset="123597579" uid="3497659" user="NKA">
		<tag k="alt_name" v="Tørrfjordskjær" />
		<tag k="name" v="Tørrfjordskjæret" />
		<tag k="place" v="farm" />
		<tag k="ssr:stedsnr" v="1075791" />
	</node>
	<node id="9886777353" lat="67.692325" lon="15.8023222" version="1" timestamp="2022-07-14T08:49:19Z" changeset="123597579" uid="3497659" user="NKA">
		<tag k="name" v="Bratten" />
		<tag k="place" v="farm" />
		<tag k="ssr:stedsnr" v="684510" />
	</node>
	<node id="9886777354" lat="67.5154213" lon="15.5154381" version="1" timestamp="2022-07-14T08:49:19Z" changeset="123597579" uid="3497659" user="NKA">
		<tag k="name" v="Inner-Strøksnes" />
		<tag k="place" v="hamlet" />
		<tag k="ssr:stedsnr" v="571487" />
	</node>
	<node id="9886777355" lat="67.5642861" lon="15.6690111" version="1" timestamp="2022-07-14T08:49:19Z" changeset="123597579" uid="3497659" user="NKA">
		<tag k="name" v="Kvantoland" />
		<tag k="place" v="hamlet" />
		<tag k="ssr:stedsnr" v="381977" />
	</node>
	<node id="9886777356" lat="67.7354198" lon="15.6900384" version="1" timestamp="2022-07-14T08:49:19Z" changeset="123597579" uid="3497659" user="NKA">
		<tag k="alt_name" v="Reinvik" />
		<tag k="name" v="Reinvika" />
		<tag k="place" v="hamlet" />
		<tag k="ssr:stedsnr" v="501821" />
	</node>
	<node id="9886777357" lat="67.3977113" lon="15.5978421" version="1" timestamp="2022-07-14T08:49:19Z" changeset="123597579" uid="3497659" user="NKA">
		<tag k="name" v="Buvika" />
		<tag k="place" v="hamlet" />
		<tag k="ssr:stedsnr" v="16956" />
	</node>
	<node id="9886777358" lat="67.4078195" lon="15.6554667" version="1" timestamp="2022-07-14T08:49:19Z" changeset="123597579" uid="3497659" user="NKA">
		<tag k="alt_name" v="Nedregård" />
		<tag k="name" v="Nerigården" />
		<tag k="place" v="farm" />
		<tag k="ssr:stedsnr" v="744933" />
	</node>
	<node id="9886777359" lat="67.6207556" lon="15.4745306" version="1" timestamp="2022-07-14T08:49:19Z" changeset="123597579" uid="3497659" user="NKA">
		<tag k="name" v="Kroken" />
		<tag k="place" v="farm" />
		<tag k="ssr:stedsnr" v="506615" />
	</node>
	<node id="9886777360" lat="67.4041082" lon="15.681242" version="1" timestamp="2022-07-14T08:49:19Z" changeset="123597579" uid="3497659" user="NKA">
		<tag k="alt_name" v="Paulhaugøyr;Pålhaugsøyren" />
		<tag k="loc_name" v="Pålhågsøyra" />
		<tag k="name" v="Pålhaugsøyra" />
		<tag k="place" v="farm" />
		<tag k="ssr:stedsnr" v="334179" />
	</node>
	<node id="9886777361" lat="67.5928787" lon="15.923024" version="1" timestamp="2022-07-14T08:49:19Z" changeset="123597579" uid="3497659" user="NKA">
		<tag k="name" v="Skjelldal" />
		<tag k="place" v="farm" />
		<tag k="ssr:stedsnr" v="274541" />
	</node>
	<node id="9886777362" lat="67.5948406" lon="15.9350881" version="1" timestamp="2022-07-14T08:49:19Z" changeset="123597579" uid="3497659" user="NKA">
		<tag k="name" v="Westgård" />
		<tag k="place" v="farm" />
		<tag k="ssr:stedsnr" v="152603" />
	</node>
	<node id="9886777363" lat="67.4030956" lon="15.6879689" version="1" timestamp="2022-07-14T08:49:19Z" changeset="123597579" uid="3497659" user="NKA">
		<tag k="alt_name" v="Steinbakk;Steinbakken" />
		<tag k="name" v="Steinbakkan" />
		<tag k="place" v="farm" />
		<tag k="ssr:stedsnr" v="501956" />
	</node>
	<node id="9886777364" lat="67.5237444" lon="15.4945056" version="1" timestamp="2022-07-14T08:49:19Z" changeset="123597579" uid="3497659" user="NKA">
		<tag k="name" v="Hestvik" />
		<tag k="old_name" v="Hestvika" />
		<tag k="place" v="hamlet" />
		<tag k="ssr:stedsnr" v="632491" />
	</node>
	<node id="9886777365" lat="67.5823838" lon="15.8808423" version="1" timestamp="2022-07-14T08:49:19Z" changeset="123597579" uid="3497659" user="NKA">
		<tag k="name" v="Kvitnes" />
		<tag k="place" v="farm" />
		<tag k="ssr:stedsnr" v="92543" />
	</node>
	<node id="9886777366" lat="67.3611361" lon="15.6196528" version="1" timestamp="2022-07-14T08:49:19Z" changeset="123597579" uid="3497659" user="NKA">
		<tag k="name" v="Fjellheim" />
		<tag k="place" v="isolated_dwelling" />
		<tag k="ssr:stedsnr" v="198896" />
	</node>
	<node id="9886777367" lat="67.4042504" lon="15.6727657" version="1" timestamp="2022-07-14T08:49:19Z" changeset="123597579" uid="3497659" user="NKA">
		<tag k="alt_name" v="Lillegård" />
		<tag k="name" v="Litlgården" />
		<tag k="place" v="hamlet" />
		<tag k="ssr:stedsnr" v="441972" />
	</node>
	<node id="9886777368" lat="67.4099945" lon="15.5812166" version="1" timestamp="2022-07-14T08:49:19Z" changeset="123597579" uid="3497659" user="NKA">
		<tag k="name" v="Ytter-Tørrfjordskjæret" />
		<tag k="place" v="farm" />
		<tag k="ssr:stedsnr" v="204496" />
	</node>
	<node id="9886777369" lat="67.479825" lon="15.5939139" version="1" timestamp="2022-07-14T08:49:19Z" changeset="123597579" uid="3497659" user="NKA">
		<tag k="name" v="Vika" />
		<tag k="place" v="farm" />
		<tag k="ssr:stedsnr" v="203763" />
	</node>
	<node id="9886777370" lat="67.4186888" lon="15.6525486" version="1" timestamp="2022-07-14T08:49:19Z" changeset="123597579" uid="3497659" user="NKA">
		<tag k="alt_name" v="Torkeleng;Torkilseng" />
		<tag k="name" v="Torkelseng" />
		<tag k="place" v="farm" />
		<tag k="ssr:stedsnr" v="259530" />
	</node>
	<node id="9886777371" lat="67.3061122" lon="15.679852" version="1" timestamp="2022-07-14T08:49:19Z" changeset="123597579" uid="3497659" user="NKA">
		<tag k="name" v="Røyrvasseidet" />
		<tag k="place" v="locality" />
		<tag k="ssr:stedsnr" v="1075861" />
	</node>
	<node id="9886777372" lat="67.7210056" lon="15.8956417" version="1" timestamp="2022-07-14T08:49:19Z" changeset="123597579" uid="3497659" user="NKA">
		<tag k="name" v="Skamoa" />
		<tag k="place" v="isolated_dwelling" />
		<tag k="ssr:stedsnr" v="77554" />
	</node>
	<node id="9886777373" lat="67.5738293" lon="15.4621193" version="1" timestamp="2022-07-14T08:49:19Z" changeset="123597579" uid="3497659" user="NKA">
		<tag k="alt_name" v="Haugan" />
		<tag k="name" v="Jordbru" />
		<tag k="place" v="farm" />
		<tag k="ssr:stedsnr" v="623976" />
	</node>
	<node id="9886777374" lat="67.4019695" lon="15.6562249" version="1" timestamp="2022-07-14T08:49:19Z" changeset="123597579" uid="3497659" user="NKA">
		<tag k="alt_name" v="Nordre Evjen" />
		<tag k="name" v="Øvre Evja" />
		<tag k="place" v="farm" />
		<tag k="ssr:stedsnr" v="1075799" />
	</node>
	<node id="9886777375" lat="67.5384972" lon="15.4659527" version="1" timestamp="2022-07-14T08:49:19Z" changeset="123597579" uid="3497659" user="NKA">
		<tag k="name" v="Skogheim" />
		<tag k="place" v="farm" />
		<tag k="ssr:stedsnr" v="623955" />
	</node>
	<node id="9886777376" lat="67.4777833" lon="15.4628547" version="1" timestamp="2022-07-14T08:49:19Z" changeset="123597579" uid="3497659" user="NKA">
		<tag k="name" v="Skogstua" />
		<tag k="place" v="farm" />
		<tag k="ssr:stedsnr" v="334388" />
	</node>
	<node id="9886777377" lat="67.4996111" lon="15.3771888" version="1" timestamp="2022-07-14T08:49:19Z" changeset="123597579" uid="3497659" user="NKA">
		<tag k="name" v="Korsvika" />
		<tag k="place" v="hamlet" />
		<tag k="ssr:stedsnr" v="380603" />
	</node>
	<node id="9886777378" lat="67.3753851" lon="15.6357138" version="1" timestamp="2022-07-14T08:49:19Z" changeset="123597579" uid="3497659" user="NKA">
		<tag k="name" v="Lyngen" />
		<tag k="place" v="isolated_dwelling" />
		<tag k="ssr:stedsnr" v="893171" />
	</node>
	<node id="9886777379" lat="67.6306278" lon="15.933561" version="1" timestamp="2022-07-14T08:49:19Z" changeset="123597579" uid="3497659" user="NKA">
		<tag k="name" v="Skoglund" />
		<tag k="place" v="farm" />
		<tag k="ssr:stedsnr" v="31909" />
	</node>
	<node id="9886777380" lat="67.5273292" lon="15.4919273" version="1" timestamp="2022-07-14T08:49:19Z" changeset="123597579" uid="3497659" user="NKA">
		<tag k="name" v="Lia" />
		<tag k="place" v="farm" />
		<tag k="ssr:stedsnr" v="320951" />
	</node>
	<node id="9886777381" lat="67.4005545" lon="15.6891699" version="1" timestamp="2022-07-14T08:49:19Z" changeset="123597579" uid="3497659" user="NKA">
		<tag k="alt_name" v="Øyren" />
		<tag k="name" v="Øyra" />
		<tag k="place" v="farm" />
		<tag k="ssr:stedsnr" v="866964" />
	</node>
	<node id="9886777382" lat="67.397273" lon="15.6048063" version="1" timestamp="2022-07-14T08:49:19Z" changeset="123597579" uid="3497659" user="NKA">
		<tag k="name" v="Aspkråga" />
		<tag k="place" v="farm" />
		<tag k="ssr:stedsnr" v="334205" />
	</node>
	<node id="9886777383" lat="67.5736192" lon="15.4644012" version="1" timestamp="2022-07-14T08:49:19Z" changeset="123597579" uid="3497659" user="NKA">
		<tag k="name" v="Haugan" />
		<tag k="place" v="farm" />
		<tag k="ssr:stedsnr" v="259976" />
	</node>
	<node id="9886777384" lat="67.48245" lon="15.6003555" version="1" timestamp="2022-07-14T08:49:19Z" changeset="123597579" uid="3497659" user="NKA">
		<tag k="name" v="Austre Aspfjorden" />
		<tag k="place" v="farm" />
		<tag k="ssr:stedsnr" v="379611" />
	</node>
	<node id="9886777385" lat="67.369052" lon="15.5398841" version="1" timestamp="2022-07-14T08:49:19Z" changeset="123597579" uid="3497659" user="NKA">
		<tag k="name" v="Rye" />
		<tag k="place" v="farm" />
		<tag k="ssr:stedsnr" v="941716" />
	</node>
	<node id="9886777386" lat="67.5639499" lon="15.7614791" version="1" timestamp="2022-07-14T08:49:19Z" changeset="123597579" uid="3497659" user="NKA">
		<tag k="name" v="Lappstøvik" />
		<tag k="place" v="farm" />
		<tag k="ssr:stedsnr" v="104963" />
	</node>
	<node id="9886777387" lat="67.3983214" lon="15.5975963" version="1" timestamp="2022-07-14T08:49:19Z" changeset="123597579" uid="3497659" user="NKA">
		<tag k="name" v="Gammelgard" />
		<tag k="place" v="farm" />
		<tag k="ssr:stedsnr" v="334206" />
	</node>
	<node id="9886777388" lat="67.6013065" lon="15.717207" version="1" timestamp="2022-07-14T08:49:19Z" changeset="123597579" uid="3497659" user="NKA">
		<tag k="alt_name" v="Stormohalsen" />
		<tag k="name" v="Stormohals" />
		<tag k="place" v="farm" />
		<tag k="ssr:stedsnr" v="137862" />
	</node>
	<node id="9886777389" lat="67.5358361" lon="15.4585334" version="1" timestamp="2022-07-14T08:49:19Z" changeset="123597579" uid="3497659" user="NKA">
		<tag k="name" v="Jektvika" />
		<tag k="place" v="farm" />
		<tag k="ssr:stedsnr" v="78961" />
	</node>
	<node id="9886777390" lat="67.5510139" lon="15.4830889" version="1" timestamp="2022-07-14T08:49:19Z" changeset="123597579" uid="3497659" user="NKA">
		<tag k="name" v="Ytre Styrkesnes" />
		<tag k="place" v="farm" />
		<tag k="ssr:stedsnr" v="39762" />
	</node>
	<node id="9886777391" lat="67.4501056" lon="16.0676138" version="1" timestamp="2022-07-14T08:49:19Z" changeset="123597579" uid="3497659" user="NKA">
		<tag k="name" v="Ragohytta" />
		<tag k="place" v="isolated_dwelling" />
		<tag k="ssr:stedsnr" v="441821" />
	</node>
	<node id="9886777392" lat="67.361301" lon="15.5855383" version="1" timestamp="2022-07-14T08:49:19Z" changeset="123597579" uid="3497659" user="NKA">
		<tag k="alt_name" v="Valljord" />
		<tag k="name" v="Valljorda" />
		<tag k="place" v="neighbourhood" />
		<tag k="ssr:stedsnr" v="744892" />
	</node>
	<node id="9886777393" lat="67.4091565" lon="15.6571213" version="1" timestamp="2022-07-14T08:49:19Z" changeset="123597579" uid="3497659" user="NKA">
		<tag k="name" v="Hestmo" />
		<tag k="place" v="farm" />
		<tag k="ssr:stedsnr" v="274220" />
	</node>
	<node id="9886777394" lat="67.4250944" lon="15.9354361" version="1" timestamp="2022-07-14T08:49:19Z" changeset="123597579" uid="3497659" user="NKA">
		<tag k="name" v="Litlverivasshytta" />
		<tag k="place" v="isolated_dwelling" />
		<tag k="ssr:stedsnr" v="501239" />
	</node>
	<node id="9886777395" lat="67.3986028" lon="15.681725" version="1" timestamp="2022-07-14T08:49:19Z" changeset="123597579" uid="3497659" user="NKA">
		<tag k="name" v="Øyran" />
		<tag k="place" v="isolated_dwelling" />
		<tag k="ssr:stedsnr" v="407180" />
	</node>
	<node id="9886777396" lat="67.3566218" lon="15.5517209" version="1" timestamp="2022-07-14T08:49:19Z" changeset="123597579" uid="3497659" user="NKA">
		<tag k="name" v="Øvre Seljåsen" />
		<tag k="place" v="farm" />
		<tag k="ssr:stedsnr" v="1075866" />
	</node>
	<node id="9886777397" lat="67.6245584" lon="15.501756" version="1" timestamp="2022-07-14T08:49:19Z" changeset="123597579" uid="3497659" user="NKA">
		<tag k="name" v="Grovassbakken" />
		<tag k="place" v="farm" />
		<tag k="ssr:stedsnr" v="806937" />
	</node>
	<node id="9886777398" lat="67.7506361" lon="15.74465" version="1" timestamp="2022-07-14T08:49:19Z" changeset="123597579" uid="3497659" user="NKA">
		<tag k="name" v="Øver-Salhus" />
		<tag k="place" v="farm" />
		<tag k="ssr:stedsnr" v="684201" />
	</node>
	<node id="9886777399" lat="67.3979361" lon="15.6499278" version="1" timestamp="2022-07-14T08:49:19Z" changeset="123597579" uid="3497659" user="NKA">
		<tag k="name" v="Moan" />
		<tag k="place" v="locality" />
		<tag k="ssr:stedsnr" v="926953" />
	</node>
	<node id="9886777400" lat="67.4031222" lon="15.5391694" version="1" timestamp="2022-07-14T08:49:19Z" changeset="123597579" uid="3497659" user="NKA">
		<tag k="name" v="Skyttmoen" />
		<tag k="place" v="farm" />
		<tag k="ssr:stedsnr" v="16957" />
	</node>
	<node id="9886777401" lat="67.3770778" lon="15.5407028" version="1" timestamp="2022-07-14T08:49:19Z" changeset="123597579" uid="3497659" user="NKA">
		<tag k="alt_name" v="Enga" />
		<tag k="name" v="Enge" />
		<tag k="place" v="farm" />
		<tag k="ssr:stedsnr" v="16993" />
	</node>
	<node id="9886777402" lat="67.3993302" lon="15.6667599" version="1" timestamp="2022-07-14T08:49:19Z" changeset="123597579" uid="3497659" user="NKA">
		<tag k="name" v="Lindeheim" />
		<tag k="place" v="farm" />
		<tag k="ssr:stedsnr" v="92176" />
	</node>
	<node id="9886777403" lat="67.3981389" lon="15.6699974" version="1" timestamp="2022-07-14T08:49:19Z" changeset="123597579" uid="3497659" user="NKA">
		<tag k="name" v="Veslegård" />
		<tag k="place" v="farm" />
		<tag k="ssr:stedsnr" v="92175" />
	</node>
	<node id="9886777404" lat="67.3723861" lon="15.5355889" version="1" timestamp="2022-07-14T08:49:19Z" changeset="123597579" uid="3497659" user="NKA">
		<tag k="alt_name" v="Djupvik" />
		<tag k="name" v="Djupvika" />
		<tag k="place" v="hamlet" />
		<tag k="ssr:stedsnr" v="683995" />
	</node>
	<node id="9886777405" lat="67.4443778" lon="15.1371333" version="1" timestamp="2022-07-14T08:49:19Z" changeset="123597579" uid="3497659" user="NKA">
		<tag k="name" v="Tornesmarka" />
		<tag k="place" v="isolated_dwelling" />
		<tag k="ssr:stedsnr" v="346614" />
	</node>
	<node id="9886777406" lat="67.4614194" lon="15.5518668" version="1" timestamp="2022-07-14T08:49:19Z" changeset="123597579" uid="3497659" user="NKA">
		<tag k="alt_name" v="Litløverkvarv" />
		<tag k="name" v="Lillekvarv" />
		<tag k="place" v="farm" />
		<tag k="ssr:stedsnr" v="805534" />
	</node>
	<node id="9886777407" lat="67.4111278" lon="15.6096667" version="1" timestamp="2022-07-14T08:49:19Z" changeset="123597579" uid="3497659" user="NKA">
		<tag k="name" v="Slåttvika" />
		<tag k="place" v="farm" />
		<tag k="ssr:stedsnr" v="259939" />
	</node>
	<node id="9886777408" lat="67.4065519" lon="15.6592795" version="1" timestamp="2022-07-14T08:49:19Z" changeset="123597579" uid="3497659" user="NKA">
		<tag k="alt_name" v="Megård" />
		<tag k="name" v="Megården" />
		<tag k="place" v="hamlet" />
		<tag k="ssr:stedsnr" v="683931" />
	</node>
	<node id="9886777409" lat="67.4630137" lon="15.5644141" version="1" timestamp="2022-07-14T08:49:19Z" changeset="123597579" uid="3497659" user="NKA">
		<tag k="alt_name" v="Kvarv, øvre" />
		<tag k="name" v="Øvre Kvarv" />
		<tag k="place" v="hamlet" />
		<tag k="ssr:stedsnr" v="16486" />
	</node>
	<node id="9886777410" lat="67.4366398" lon="15.4847525" version="1" timestamp="2022-07-14T08:49:19Z" changeset="123597579" uid="3497659" user="NKA">
		<tag k="alt_name" v="Kinesmoen" />
		<tag k="name" v="Kines" />
		<tag k="place" v="farm" />
		<tag k="ssr:stedsnr" v="501531" />
	</node>
	<node id="9886777411" lat="67.4020361" lon="15.6682195" version="1" timestamp="2022-07-14T08:49:19Z" changeset="123597579" uid="3497659" user="NKA">
		<tag k="name" v="Åsheim" />
		<tag k="place" v="farm" />
		<tag k="ssr:stedsnr" v="31179" />
	</node>
	<node id="9886777412" lat="67.4760584" lon="15.5349926" version="1" timestamp="2022-07-14T08:49:19Z" changeset="123597579" uid="3497659" user="NKA">
		<tag k="name" v="Tømmervika" />
		<tag k="place" v="farm" />
		<tag k="ssr:stedsnr" v="379586" />
	</node>
	<node id="9886777413" lat="67.5239722" lon="15.4912945" version="1" timestamp="2022-07-14T08:49:19Z" changeset="123597579" uid="3497659" user="NKA">
		<tag k="name" v="Hestvika" />
		<tag k="place" v="farm" />
		<tag k="ssr:stedsnr" v="927977" />
	</node>
	<node id="9886777414" lat="67.514951" lon="15.1961897" version="1" timestamp="2022-07-14T08:49:19Z" changeset="123597579" uid="3497659" user="NKA">
		<tag k="alt_name" v="Furkvik" />
		<tag k="name" v="Purkvika" />
		<tag k="place" v="locality" />
		<tag k="ssr:stedsnr" v="1075997" />
	</node>
	<node id="9886777415" lat="67.5255392" lon="15.4891655" version="1" timestamp="2022-07-14T08:49:19Z" changeset="123597579" uid="3497659" user="NKA">
		<tag k="name" v="Strøksnes" />
		<tag k="place" v="hamlet" />
		<tag k="ssr:stedsnr" v="989226" />
	</node>
	<node id="9886777416" lat="67.4346305" lon="15.5028555" version="1" timestamp="2022-07-14T08:49:19Z" changeset="123597579" uid="3497659" user="NKA">
		<tag k="alt_name" v="Mobakken" />
		<tag k="name" v="Mobakk" />
		<tag k="place" v="farm" />
		<tag k="ssr:stedsnr" v="198542" />
	</node>
	<node id="9886777417" lat="67.5000331" lon="15.155326" version="1" timestamp="2022-07-14T08:49:19Z" changeset="123597579" uid="3497659" user="NKA">
		<tag k="name" v="Sjunkan" />
		<tag k="place" v="hamlet" />
		<tag k="ssr:stedsnr" v="379615" />
	</node>
	<node id="9886777418" lat="67.6366066" lon="15.9675574" version="1" timestamp="2022-07-14T08:49:19Z" changeset="123597579" uid="3497659" user="NKA">
		<tag k="name" v="Gjerelvmoen" />
		<tag k="place" v="hamlet" />
		<tag k="ssr:stedsnr" v="806624" />
	</node>
	<node id="9886777419" lat="67.4421706" lon="15.5540833" version="1" timestamp="2022-07-14T08:49:19Z" changeset="123597579" uid="3497659" user="NKA">
		<tag k="name" v="Gyltvika" />
		<tag k="place" v="farm" />
		<tag k="ssr:stedsnr" v="198543" />
	</node>
	<node id="9886777420" lat="67.5938139" lon="15.9403195" version="1" timestamp="2022-07-14T08:49:19Z" changeset="123597579" uid="3497659" user="NKA">
		<tag k="name" v="Sandmo" />
		<tag k="place" v="farm" />
		<tag k="ssr:stedsnr" v="759578" />
	</node>
	<node id="9886777421" lat="67.60345" lon="15.717336" version="1" timestamp="2022-07-14T08:49:19Z" changeset="123597579" uid="3497659" user="NKA">
		<tag k="name" v="Myrmo" />
		<tag k="place" v="farm" />
		<tag k="ssr:stedsnr" v="516546" />
	</node>
	<node id="9886777422" lat="67.6017334" lon="15.9924778" version="1" timestamp="2022-07-14T08:49:19Z" changeset="123597579" uid="3497659" user="NKA">
		<tag k="name" v="Austerheim" />
		<tag k="place" v="farm" />
		<tag k="ssr:stedsnr" v="805594" />
	</node>
	<node id="9886777423" lat="67.53785" lon="15.2951668" version="1" timestamp="2022-07-14T08:49:19Z" changeset="123597579" uid="3497659" user="NKA">
		<tag k="name" v="Storvika" />
		<tag k="place" v="farm" />
		<tag k="ssr:stedsnr" v="259944" />
	</node>
	<node id="9886777424" lat="67.7158654" lon="15.8717856" version="1" timestamp="2022-07-14T08:49:19Z" changeset="123597579" uid="3497659" user="NKA">
		<tag k="name" v="Forrbakken" />
		<tag k="place" v="farm" />
		<tag k="ssr:stedsnr" v="446076" />
	</node>
	<node id="9886777425" lat="67.4944281" lon="15.369212" version="1" timestamp="2022-07-14T08:49:19Z" changeset="123597579" uid="3497659" user="NKA">
		<tag k="name" v="Gammoen" />
		<tag k="place" v="locality" />
		<tag k="ssr:stedsnr" v="805589" />
	</node>
	<node id="9886777426" lat="67.424086" lon="15.5559988" version="1" timestamp="2022-07-14T08:49:19Z" changeset="123597579" uid="3497659" user="NKA">
		<tag k="name" v="Låkthågen" />
		<tag k="place" v="farm" />
		<tag k="ssr:stedsnr" v="1073840" />
	</node>
	<node id="9886777427" lat="67.6379042" lon="15.9679915" version="1" timestamp="2022-07-14T08:49:19Z" changeset="123597579" uid="3497659" user="NKA">
		<tag k="name" v="Myrvang" />
		<tag k="place" v="farm" />
		<tag k="ssr:stedsnr" v="516894" />
	</node>
	<node id="9886777428" lat="67.4102231" lon="15.5811155" version="1" timestamp="2022-07-14T08:49:19Z" changeset="123597579" uid="3497659" user="NKA">
		<tag k="name" v="Tørrfjordskjær" />
		<tag k="place" v="farm" />
		<tag k="ssr:stedsnr" v="771581" />
	</node>
	<node id="9886777429" lat="67.5943036" lon="15.9367021" version="1" timestamp="2022-07-14T08:49:19Z" changeset="123597579" uid="3497659" user="NKA">
		<tag k="name" v="Eidet" />
		<tag k="place" v="farm" />
		<tag k="ssr:stedsnr" v="698553" />
	</node>
	<node id="9886777430" lat="67.5021861" lon="15.6696556" version="1" timestamp="2022-07-14T08:49:19Z" changeset="123597579" uid="3497659" user="NKA">
		<tag k="name" v="Lapplægran" />
		<tag k="place" v="locality" />
		<tag k="ssr:stedsnr" v="81763" />
	</node>
	<node id="9886777431" lat="67.4561511" lon="15.4721947" version="1" timestamp="2022-07-14T08:49:19Z" changeset="123597579" uid="3497659" user="NKA">
		<tag k="name" v="Vollan" />
		<tag k="place" v="farm" />
		<tag k="ssr:stedsnr" v="744487" />
	</node>
	<node id="9886777432" lat="67.4516337" lon="15.5233258" version="1" timestamp="2022-07-14T08:49:19Z" changeset="123597579" uid="3497659" user="NKA">
		<tag k="alt_name" v="Kvarv, nedre;Nedre Kvarv" />
		<tag k="name" v="Ner-Kvarv" />
		<tag k="place" v="farm" />
		<tag k="ssr:stedsnr" v="866506" />
	</node>
	<node id="9886777433" lat="67.456275" lon="15.563036" version="1" timestamp="2022-07-14T08:49:19Z" changeset="123597579" uid="3497659" user="NKA">
		<tag k="name" v="Nova" />
		<tag k="place" v="isolated_dwelling" />
		<tag k="ssr:stedsnr" v="866504" />
	</node>
	<node id="9886777434" lat="67.5765445" lon="15.4382334" version="1" timestamp="2022-07-14T08:49:19Z" changeset="123597579" uid="3497659" user="NKA">
		<tag k="name" v="Botn" />
		<tag k="place" v="farm" />
		<tag k="ssr:stedsnr" v="259891" />
	</node>
	<node id="9886777435" lat="67.4795628" lon="15.4698611" version="1" timestamp="2022-07-14T08:49:19Z" changeset="123597579" uid="3497659" user="NKA">
		<tag k="name" v="Prestegård" />
		<tag k="place" v="farm" />
		<tag k="ssr:stedsnr" v="516407" />
	</node>
	<node id="9886777436" lat="67.5934861" lon="15.9433639" version="1" timestamp="2022-07-14T08:49:19Z" changeset="123597579" uid="3497659" user="NKA">
		<tag k="alt_name" v="Kobbelveidet" />
		<tag k="name" v="Kobbelveid" />
		<tag k="place" v="hamlet" />
		<tag k="ssr:stedsnr" v="137565" />
	</node>
	<node id="9886777437" lat="67.4173361" lon="15.518961" version="1" timestamp="2022-07-14T08:49:19Z" changeset="123597579" uid="3497659" user="NKA">
		<tag k="alt_name" v="Skavikenga;Skavenget" />
		<tag k="name" v="Skavikeng" />
		<tag k="place" v="farm" />
		<tag k="ssr:stedsnr" v="562537" />
	</node>
	<node id="9886777438" lat="67.5170276" lon="15.5885946" version="1" timestamp="2022-07-14T08:49:19Z" changeset="123597579" uid="3497659" user="NKA">
		<tag k="alt_name" v="Kalvik" />
		<tag k="name" v="Kalvika" />
		<tag k="place" v="farm" />
		<tag k="ssr:stedsnr" v="1075711" />
	</node>
	<node id="9886777439" lat="67.4376139" lon="15.4858445" version="1" timestamp="2022-07-14T08:49:19Z" changeset="123597579" uid="3497659" user="NKA">
		<tag k="name" v="Lærdal" />
		<tag k="place" v="farm" />
		<tag k="ssr:stedsnr" v="562553" />
	</node>
	<node id="9886777440" lat="67.4315878" lon="15.5033717" version="1" timestamp="2022-07-14T08:49:19Z" changeset="123597579" uid="3497659" user="NKA">
		<tag k="alt_name" v="Fornes" />
		<tag k="name" v="Furnes" />
		<tag k="place" v="hamlet" />
		<tag k="ssr:stedsnr" v="562532" />
	</node>
	<node id="9886777441" lat="67.4739476" lon="15.547671" version="1" timestamp="2022-07-14T08:49:19Z" changeset="123597579" uid="3497659" user="NKA">
		<tag k="name" v="Innergarden" />
		<tag k="place" v="farm" />
		<tag k="ssr:stedsnr" v="627778" />
	</node>
	<node id="9886777442" lat="67.5337417" lon="15.4681611" version="1" timestamp="2022-07-14T08:49:19Z" changeset="123597579" uid="3497659" user="NKA">
		<tag k="name" v="Strøksnes - Stulggá" />
		<tag k="name:no" v="Strøksnes" />
		<tag k="name:smj" v="Stulggá" />
		<tag k="place" v="hamlet" />
		<tag k="ssr:stedsnr" v="927959" />
	</node>
	<node id="9886777443" lat="67.7484007" lon="15.7411325" version="1" timestamp="2022-07-14T08:49:19Z" changeset="123597579" uid="3497659" user="NKA">
		<tag k="name" v="Salhus" />
		<tag k="place" v="hamlet" />
		<tag k="ssr:stedsnr" v="1074047" />
	</node>
	<node id="9886777444" lat="67.5183083" lon="15.5898" version="1" timestamp="2022-07-14T08:49:19Z" changeset="123597579" uid="3497659" user="NKA">
		<tag k="name" v="Plassan" />
		<tag k="place" v="locality" />
		<tag k="ssr:stedsnr" v="871834" />
	</node>
	<node id="9886777445" lat="67.4805732" lon="15.4658544" version="1" timestamp="2022-07-14T08:49:19Z" changeset="123597579" uid="3497659" user="NKA">
		<tag k="name" v="Kirkenær" />
		<tag k="place" v="farm" />
		<tag k="ssr:stedsnr" v="395402" />
	</node>
	<node id="9886777446" lat="67.4246576" lon="15.5545511" version="1" timestamp="2022-07-14T08:49:19Z" changeset="123597579" uid="3497659" user="NKA">
		<tag k="name" v="Ytter-Låkthågen" />
		<tag k="place" v="farm" />
		<tag k="ssr:stedsnr" v="684533" />
	</node>
	<node id="9886777447" lat="67.5390685" lon="15.3925522" version="1" timestamp="2022-07-14T08:49:19Z" changeset="123597579" uid="3497659" user="NKA">
		<tag k="name" v="Bjørnsvika" />
		<tag k="place" v="hamlet" />
		<tag k="ssr:stedsnr" v="745957" />
	</node>
	<node id="9886777448" lat="67.4687167" lon="15.5777112" version="1" timestamp="2022-07-14T08:49:19Z" changeset="123597579" uid="3497659" user="NKA">
		<tag k="alt_name" v="Hestmoa" />
		<tag k="name" v="Hestmoen" />
		<tag k="place" v="locality" />
		<tag k="ssr:stedsnr" v="622516" />
	</node>
	<node id="9886777449" lat="67.6325861" lon="15.9808777" version="1" timestamp="2022-07-14T08:49:19Z" changeset="123597579" uid="3497659" user="NKA">
		<tag k="name" v="Brennhaugmoa" />
		<tag k="place" v="farm" />
		<tag k="ssr:stedsnr" v="637037" />
	</node>
	<node id="9886777450" lat="67.4609833" lon="15.5199027" version="1" timestamp="2022-07-14T08:49:19Z" changeset="123597579" uid="3497659" user="NKA">
		<tag k="name" v="Kvarvshaugen" />
		<tag k="place" v="isolated_dwelling" />
		<tag k="ssr:stedsnr" v="319507" />
	</node>
	<node id="9886777451" lat="67.6979519" lon="15.7964465" version="1" timestamp="2022-07-14T08:49:19Z" changeset="123597579" uid="3497659" user="NKA">
		<tag k="name" v="Lillegård" />
		<tag k="place" v="farm" />
		<tag k="ssr:stedsnr" v="745510" />
	</node>
	<node id="9886777452" lat="67.4099556" lon="15.5873777" version="1" timestamp="2022-07-14T08:49:19Z" changeset="123597579" uid="3497659" user="NKA">
		<tag k="name" v="Inner-Tørrfjordsjæret" />
		<tag k="place" v="farm" />
		<tag k="ssr:stedsnr" v="446398" />
	</node>
	<node id="9886777453" lat="67.6076027" lon="15.7166973" version="1" timestamp="2022-07-14T08:49:19Z" changeset="123597579" uid="3497659" user="NKA">
		<tag k="name" v="Nordhei" />
		<tag k="place" v="farm" />
		<tag k="ssr:stedsnr" v="199881" />
	</node>
	<node id="9886777454" lat="67.5159861" lon="15.5842166" version="1" timestamp="2022-07-14T08:49:19Z" changeset="123597579" uid="3497659" user="NKA">
		<tag k="name" v="Inner-Kalvika" />
		<tag k="place" v="hamlet" />
		<tag k="ssr:stedsnr" v="867961" />
	</node>
	<node id="9886777455" lat="67.473972" lon="15.5464934" version="1" timestamp="2022-07-14T08:49:19Z" changeset="123597579" uid="3497659" user="NKA">
		<tag k="name" v="Inner-Aspenes" />
		<tag k="place" v="farm" />
		<tag k="ssr:stedsnr" v="258602" />
	</node>
	<node id="9886777456" lat="67.6916682" lon="15.8019372" version="1" timestamp="2022-07-14T08:49:19Z" changeset="123597579" uid="3497659" user="NKA">
		<tag k="name" v="Steinodden" />
		<tag k="place" v="isolated_dwelling" />
		<tag k="ssr:stedsnr" v="649790" />
	</node>
	<node id="9886777457" lat="67.4003936" lon="15.661988" version="1" timestamp="2022-07-14T08:49:19Z" changeset="123597579" uid="3497659" user="NKA">
		<tag k="alt_name" v="Nedre Evjen;Evja" />
		<tag k="name" v="Nedre Evja" />
		<tag k="place" v="farm" />
		<tag k="ssr:stedsnr" v="77965" />
	</node>
	<node id="9886777458" lat="67.3793611" lon="15.6073305" version="1" timestamp="2022-07-14T08:49:19Z" changeset="123597579" uid="3497659" user="NKA">
		<tag k="name" v="Aurvikhalsen" />
		<tag k="place" v="isolated_dwelling" />
		<tag k="ssr:stedsnr" v="927983" />
	</node>
	<node id="9886777459" lat="67.5783722" lon="15.7704834" version="1" timestamp="2022-07-14T08:49:19Z" changeset="123597579" uid="3497659" user="NKA">
		<tag k="name" v="Åsli" />
		<tag k="place" v="isolated_dwelling" />
		<tag k="ssr:stedsnr" v="759388" />
	</node>
	<node id="9886777460" lat="67.4582231" lon="15.4693821" version="1" timestamp="2022-07-14T08:49:19Z" changeset="123597579" uid="3497659" user="NKA">
		<tag k="name" v="Mølnmoen" />
		<tag k="place" v="farm" />
		<tag k="ssr:stedsnr" v="43922" />
	</node>
	<node id="9886777461" lat="67.4323722" lon="15.5045362" version="1" timestamp="2022-07-14T08:49:19Z" changeset="123597579" uid="3497659" user="NKA">
		<tag k="name" v="Burre" />
		<tag k="place" v="farm" />
		<tag k="ssr:stedsnr" v="77595" />
	</node>
	<node id="4965920802" lat="67.5936691" lon="15.9345622" version="1" timestamp="2017-07-12T11:13:35Z" changeset="50227076" uid="5732597" user="ENTUR Johan Wiklund" />
	<node id="4965920804" lat="67.5936615" lon="15.9330896" version="1" timestamp="2017-07-12T11:13:35Z" changeset="50227076" uid="5732597" user="ENTUR Johan Wiklund" />
	<node id="4965920809" lat="67.5937522" lon="15.9357918" version="1" timestamp="2017-07-12T11:13:35Z" changeset="50227076" uid="5732597" user="ENTUR Johan Wiklund" />
	<node id="4965920811" lat="67.5936588" lon="15.9342376" version="1" timestamp="2017-07-12T11:13:35Z" changeset="50227076" uid="5732597" user="ENTUR Johan Wiklund" />
	<node id="4965920818" lat="67.5936706" lon="15.93277" version="1" timestamp="2017-07-12T11:13:36Z" changeset="50227076" uid="5732597" user="ENTUR Johan Wiklund" />
	<node id="4965920926" lat="67.5936824" lon="15.9348486" version="1" timestamp="2017-07-12T11:13:36Z" changeset="50227076" uid="5732597" user="ENTUR Johan Wiklund" />
	<node id="4965920931" lat="67.5936546" lon="15.9339118" version="1" timestamp="2017-07-12T11:13:36Z" changeset="50227076" uid="5732597" user="ENTUR Johan Wiklund" />
	<node id="4965920935" lat="67.5937039" lon="15.9351826" version="1" timestamp="2017-07-12T11:13:36Z" changeset="50227076" uid="5732597" user="ENTUR Johan Wiklund" />
	<way id="506988983" version="5" timestamp="2022-07-23T15:04:31Z" changeset="123979426" uid="715936" user="Gazer75">
		<tag k="bridge" v="yes" />
		<tag k="bridge:structure" v="beam" />
		<tag k="highway" v="trunk" />
		<tag k="lane_markings" v="yes" />
		<tag k="lanes" v="2" />
		<tag k="layer" v="1" />
		<tag k="maxspeed" v="70" />
		<tag k="name" v="Kobbelva" />
		<tag k="ref" v="E 6" />
		<tag k="ssr:stedsnr" v="274546" />
		<tag k="surface" v="asphalt" />
		<tag k="wikidata" v="Q112714774" />
		<nd ref="4965920818" />
		<nd ref="4965920804" />
		<nd ref="4965920931" />
		<nd ref="4965920811" />
		<nd ref="4965920802" />
		<nd ref="4965920926" />
		<nd ref="4965920935" />
		<nd ref="4965920809" />
	</way>
</osm>
