<?xml version="1.0" encoding="UTF-8"?>
<osm version="0.6" generator="osmapis">
	<node lat="62.23899166872145" lon="8.001625004058313" id="-3403">
		<tag k="name" v="Stokkåa" />
		<tag k="ssr:stedsnr" v="11108" />
		<tag k="waterway" v="stream" />
	</node>
	<node lat="62.61621944053299" lon="7.78265277071638" id="-3408">
		<tag k="name" v="Småvatna" />
		<tag k="natural" v="water" />
		<tag k="ssr:stedsnr" v="11336" />
	</node>
	<node lat="62.58273611026122" lon="7.575883324692591" id="-3411">
		<tag k="name" v="Gjerdsetelva" />
		<tag k="ssr:stedsnr" v="11512" />
		<tag k="waterway" v="stream" />
	</node>
	<node lat="62.41983333019471" lon="7.3855388954839105" id="-3419">
		<tag k="name" v="Taskedalselva" />
		<tag k="ssr:stedsnr" v="21150" />
		<tag k="waterway" v="river" />
	</node>
	<node lat="62.49895833473728" lon="7.355191675255119" id="-3444">
		<tag k="name" v="Storfosshola" />
		<tag k="place" v="locality" />
		<tag k="ssr:stedsnr" v="36007" />
	</node>
	<node lat="62.56477777745024" lon="7.594069447447952" id="-3445">
		<tag k="name" v="Lønsgrova" />
		<tag k="ssr:stedsnr" v="36112" />
		<tag k="waterway" v="stream" />
	</node>
	<node lat="62.56000277929245" lon="7.842177772259308" id="-3457">
		<tag k="name" v="Moasaghølen" />
		<tag k="place" v="locality" />
		<tag k="ssr:stedsnr" v="36717" />
	</node>
	<node lat="62.467183329859566" lon="7.519386114390989" id="-3463">
		<tag k="name" v="Kvisla" />
		<tag k="ssr:stedsnr" v="36926" />
		<tag k="waterway" v="stream" />
	</node>
	<node lat="62.58075833103371" lon="7.906469435695014" id="-3466">
		<tag k="name" v="Holman" />
		<tag k="place" v="islet" />
		<tag k="ssr:stedsnr" v="37607" />
	</node>
	<node lat="62.58215278200116" lon="7.934600005439984" id="-3468">
		<tag k="name" v="Gammelbrukhølen" />
		<tag k="place" v="locality" />
		<tag k="ssr:stedsnr" v="37682" />
	</node>
	<node lat="62.42291388923697" lon="7.934205564437215" id="-3479">
		<tag k="name" v="Søstrin" />
		<tag k="ssr:stedsnr" v="72005" />
		<tag k="waterway" v="stream" />
	</node>
	<node lat="62.31268611237752" lon="7.802774990310892" id="-3483">
		<tag k="name" v="Litlhånådalsvatnet" />
		<tag k="natural" v="water" />
		<tag k="ssr:stedsnr" v="72210" />
		<tag k="water" v="lake" />
	</node>
	<node lat="62.54418333528703" lon="8.041686101678971" id="-3486">
		<tag k="alt_name" v="Bakkevatnet, øvre" />
		<tag k="name" v="Øvre Bakkevatnet" />
		<tag k="natural" v="water" />
		<tag k="ssr:stedsnr" v="72120" />
	</node>
	<node lat="62.365311115307065" lon="7.9170805544395675" id="-3493">
		<tag k="name" v="Tverråa" />
		<tag k="ssr:stedsnr" v="72624" />
		<tag k="waterway" v="stream" />
	</node>
	<node lat="62.66951666648866" lon="7.742505563120881" id="-3496">
		<tag k="name" v="Mittetelva" />
		<tag k="ssr:stedsnr" v="72702" />
		<tag k="waterway" v="river" />
	</node>
	<node lat="62.511191670683104" lon="7.357719446277801" id="-3504">
		<tag k="name" v="Venåsgrova" />
		<tag k="ssr:stedsnr" v="82100" />
		<tag k="waterway" v="stream" />
	</node>
	<node lat="62.622841664479814" lon="7.620066675629486" id="-3518">
		<tag k="name" v="Ølsnoselva" />
		<tag k="ssr:stedsnr" v="94712" />
		<tag k="waterway" v="stream" />
	</node>
	<node lat="62.52348889330955" lon="7.685063885764016" id="-3522">
		<tag k="name" v="Stordalsgrova" />
		<tag k="ssr:stedsnr" v="96680" />
		<tag k="waterway" v="stream" />
	</node>
	<node lat="62.52431111395765" lon="7.686502778764721" id="-3523">
		<tag k="name" v="Vargedalsgrova" />
		<tag k="ssr:stedsnr" v="96681" />
		<tag k="waterway" v="stream" />
	</node>
	<node lat="62.48984444683765" lon="7.5391916680146" id="-3525">
		<tag k="name" v="Nøsåa" />
		<tag k="ssr:stedsnr" v="96864" />
		<tag k="waterway" v="stream" />
	</node>
	<node lat="62.430275002161316" lon="7.910097227306119" id="-3526">
		<tag k="name" v="Stokkhølen" />
		<tag k="place" v="locality" />
		<tag k="ssr:stedsnr" v="96870" />
	</node>
	<node lat="62.43490555381588" lon="7.915561112138531" id="-3527">
		<tag k="name" v="Kvernabekken" />
		<tag k="ssr:stedsnr" v="96875" />
		<tag k="waterway" v="stream" />
	</node>
	<node lat="62.30267222265196" lon="8.109633336524798" id="-3537">
		<tag k="name" v="Purkehølen" />
		<tag k="place" v="locality" />
		<tag k="ssr:stedsnr" v="97523" />
	</node>
	<node lat="62.676488891072886" lon="7.77274444058937" id="-3549">
		<tag k="name" v="Tverråna" />
		<tag k="ssr:stedsnr" v="97969" />
		<tag k="waterway" v="river" />
	</node>
	<node lat="62.421199999955455" lon="7.770349998604688" id="-3561">
		<tag k="name" v="Søre Isglupen" />
		<tag k="natural" v="water" />
		<tag k="ssr:stedsnr" v="132002" />
		<tag k="water" v="lake" />
	</node>
	<node lat="62.41790277945029" lon="7.914191665012406" id="-3562">
		<tag k="name" v="Skiriholgrova" />
		<tag k="ssr:stedsnr" v="132007" />
		<tag k="waterway" v="stream" />
	</node>
	<node lat="62.421719445140106" lon="7.539361110863884" id="-3563">
		<tag k="name" v="Storbrevatnet" />
		<tag k="natural" v="water" />
		<tag k="ssr:stedsnr" v="131961" />
	</node>
	<node lat="62.21738333048557" lon="7.84607499463351" id="-3569">
		<tag k="name" v="Nyskreda" />
		<tag k="ssr:stedsnr" v="132175" />
		<tag k="waterway" v="stream" />
	</node>
	<node lat="62.33466388689533" lon="8.055383341649932" id="-3570">
		<tag k="alt_name" v="Steinbiten, l" />
		<tag k="name" v="Litlsteinbiten" />
		<tag k="ssr:stedsnr" v="132182" />
		<tag k="waterway" v="stream" />
	</node>
	<node lat="62.64865278037117" lon="7.6880611181053835" id="-3587">
		<tag k="fixme" v="multiple name tags, choose one and add the other to alt_name" />
		<tag k="name" v="Tverråa;Bollfjellelva" />
		<tag k="ssr:stedsnr" v="133604" />
		<tag k="waterway" v="stream" />
	</node>
	<node lat="62.64907221951282" lon="7.662247217614403" id="-3588">
		<tag k="fixme" v="multiple name tags, choose one and add the other to alt_name" />
		<tag k="name" v="Sladdertjørna;Litltjønna" />
		<tag k="natural" v="water" />
		<tag k="ssr:stedsnr" v="133605" />
	</node>
	<node lat="62.29006111144304" lon="7.924411106556796" id="-3594">
		<tag k="name" v="Grovaskarsvatnet" />
		<tag k="natural" v="water" />
		<tag k="ssr:stedsnr" v="253282" />
		<tag k="water" v="lake" />
	</node>
	<node lat="62.41904444309354" lon="7.350472214489259" id="-3600">
		<tag k="name" v="Kristoffertjørna" />
		<tag k="natural" v="water" />
		<tag k="ssr:stedsnr" v="253952" />
	</node>
	<node lat="62.31454166434922" lon="8.17951945301399" id="-3617">
		<tag k="alt_name" v="Bøvra" />
		<tag k="name" v="Nordre Bøvre" />
		<tag k="ssr:stedsnr" v="254208" />
		<tag k="waterway" v="stream" />
	</node>
	<node lat="62.6001416682663" lon="7.591361113371914" id="-3626">
		<tag k="name" v="Svartevatnet" />
		<tag k="natural" v="water" />
		<tag k="ssr:stedsnr" v="254557" />
	</node>
	<node lat="62.456319440286165" lon="7.711797220970451" id="-3641">
		<tag k="name" v="Stigbotnvatnet" />
		<tag k="natural" v="water" />
		<tag k="ssr:stedsnr" v="254966" />
	</node>
	<node lat="62.67548055857621" lon="7.565569451118591" id="-3650">
		<tag k="name" v="Smigrova" />
		<tag k="ssr:stedsnr" v="153921" />
		<tag k="waterway" v="stream" />
	</node>
	<node lat="62.64301944605518" lon="7.629761114465262" id="-3654">
		<tag k="name" v="Ølsnøselva" />
		<tag k="ssr:stedsnr" v="154214" />
		<tag k="waterway" v="river" />
	</node>
	<node lat="62.65193889040417" lon="7.578294446356768" id="-3655">
		<tag k="name" v="Teppinga" />
		<tag k="ssr:stedsnr" v="154758" />
		<tag k="waterway" v="dam" />
	</node>
	<node lat="62.614372218688345" lon="7.441758334191291" id="-3656">
		<tag k="name" v="Reselva" />
		<tag k="ssr:stedsnr" v="155554" />
		<tag k="waterway" v="stream" />
	</node>
	<node lat="62.58396666946495" lon="7.4448083426460165" id="-3669">
		<tag k="name" v="Halsneset" />
		<tag k="ssr:stedsnr" v="157553" />
		<tag k="waterway" v="stream" />
	</node>
	<node lat="62.48519444371132" lon="7.430844436097875" id="-3673">
		<tag k="name" v="Fremste Tverråna" />
		<tag k="ssr:stedsnr" v="157812" />
		<tag k="waterway" v="river" />
	</node>
	<node lat="62.486200000172595" lon="7.556788892579241" id="-3675">
		<tag k="name" v="Skjøråna" />
		<tag k="ssr:stedsnr" v="157856" />
		<tag k="waterway" v="stream" />
	</node>
	<node lat="62.3707972228463" lon="8.04410278297308" id="-3682">
		<tag k="name" v="Gjerdsgrova" />
		<tag k="ssr:stedsnr" v="158357" />
		<tag k="waterway" v="stream" />
	</node>
	<node lat="62.538347218310726" lon="7.836455562378224" id="-3685">
		<tag k="name" v="Saghauggrova" />
		<tag k="ssr:stedsnr" v="158754" />
		<tag k="waterway" v="stream" />
	</node>
	<node lat="62.51863333408137" lon="7.812277773775028" id="-3688">
		<tag k="name" v="Naustvika" />
		<tag k="natural" v="bay" />
		<tag k="ssr:stedsnr" v="158813" />
	</node>
	<node lat="62.66645555546221" lon="7.765752776301543" id="-3689">
		<tag k="name" v="Nyseterfossen" />
		<tag k="natural" v="waterfall" />
		<tag k="ssr:stedsnr" v="158966" />
	</node>
	<node lat="62.45982221801901" lon="7.511361113638435" id="-3698">
		<tag k="name" v="Kvessetjønna" />
		<tag k="natural" v="water" />
		<tag k="ssr:stedsnr" v="202602" />
	</node>
	<node lat="62.51396389201106" lon="7.761466666566685" id="-3703">
		<tag k="name" v="Venjastuholmen" />
		<tag k="place" v="islet" />
		<tag k="ssr:stedsnr" v="203639" />
	</node>
	<node lat="62.49183889038306" lon="7.663499999131522" id="-3706">
		<tag k="name" v="Orholmen" />
		<tag k="place" v="islet" />
		<tag k="ssr:stedsnr" v="203647" />
	</node>
	<node lat="62.55568611271119" lon="7.835588886617739" id="-3708">
		<tag k="name" v="Hjelldalsgrova" />
		<tag k="ssr:stedsnr" v="204511" />
		<tag k="waterway" v="stream" />
	</node>
	<node lat="62.48393333393692" lon="7.755727778605382" id="-3711">
		<tag k="name" v="Eidafossen" />
		<tag k="natural" v="waterfall" />
		<tag k="ssr:stedsnr" v="208947" />
	</node>
	<node lat="62.68870555982332" lon="7.711524993469814" id="-3715">
		<tag k="name" v="Storbekken" />
		<tag k="ssr:stedsnr" v="214485" />
		<tag k="waterway" v="stream" />
	</node>
	<node lat="62.495874997383595" lon="7.301552771830016" id="-3725">
		<tag k="name" v="Storgrova" />
		<tag k="ssr:stedsnr" v="218025" />
		<tag k="waterway" v="stream" />
	</node>
	<node lat="62.47107777738685" lon="7.51217777096513" id="-3730">
		<tag k="name" v="Langskrea" />
		<tag k="ssr:stedsnr" v="218193" />
		<tag k="waterway" v="stream" />
	</node>
	<node lat="62.597752773469175" lon="7.445402783821073" id="-3739">
		<tag k="name" v="Hatleselva" />
		<tag k="ssr:stedsnr" v="218580" />
		<tag k="waterway" v="stream" />
	</node>
	<node lat="62.47441666472271" lon="7.772516663722029" id="-3747">
		<tag k="name" v="Joengbekken" />
		<tag k="ssr:stedsnr" v="218906" />
		<tag k="waterway" v="stream" />
	</node>
	<node lat="62.580819447611084" lon="7.991180554280022" id="-3752">
		<tag k="name" v="Storholmen" />
		<tag k="place" v="islet" />
		<tag k="ssr:stedsnr" v="219604" />
	</node>
	<node lat="62.206361110351445" lon="7.936025000715055" id="-3766">
		<tag k="name" v="Trollkyrkjetjønna" />
		<tag k="natural" v="water" />
		<tag k="ssr:stedsnr" v="253212" />
	</node>
	<node lat="62.217780552008314" lon="7.908427770392334" id="-3768">
		<tag k="name" v="Døverhølen" />
		<tag k="place" v="locality" />
		<tag k="ssr:stedsnr" v="253217" />
	</node>
	<node lat="62.225836112067945" lon="8.016786102572846" id="-3769">
		<tag k="name" v="Horgheimtjønna" />
		<tag k="natural" v="water" />
		<tag k="ssr:stedsnr" v="253218" />
	</node>
	<node lat="62.218744445240795" lon="7.931894447995054" id="-3770">
		<tag k="name" v="Skarvåa" />
		<tag k="ssr:stedsnr" v="253220" />
		<tag k="waterway" v="stream" />
	</node>
	<node lat="62.34078333582452" lon="7.8880694361268775" id="-3773">
		<tag k="name" v="Vermehøtjønna" />
		<tag k="natural" v="water" />
		<tag k="ssr:stedsnr" v="253238" />
	</node>
	<node lat="62.59850000237621" lon="8.043247220682753" id="-3783">
		<tag k="name" v="Svartevatnet" />
		<tag k="natural" v="water" />
		<tag k="ssr:stedsnr" v="254290" />
	</node>
	<node lat="62.584333331943434" lon="7.780744438272631" id="-3784">
		<tag k="name" v="Breivikelva" />
		<tag k="ssr:stedsnr" v="254294" />
		<tag k="waterway" v="river" />
	</node>
	<node lat="62.58548333077811" lon="7.69437778049526" id="-3792">
		<tag k="name" v="Markaneselva" />
		<tag k="ssr:stedsnr" v="254468" />
		<tag k="waterway" v="stream" />
	</node>
	<node lat="62.488077774308806" lon="7.7560138950165065" id="-3796">
		<tag k="name" v="Malihølen" />
		<tag k="place" v="locality" />
		<tag k="ssr:stedsnr" v="254822" />
	</node>
	<node lat="62.66497222386544" lon="7.544475000822175" id="-3798">
		<tag k="name" v="Herjeelva" />
		<tag k="ssr:stedsnr" v="254718" />
		<tag k="waterway" v="stream" />
	</node>
	<node lat="62.54563333153828" lon="7.839097221463842" id="-3810">
		<tag k="name" v="Sælebotsgrova" />
		<tag k="ssr:stedsnr" v="264542" />
		<tag k="waterway" v="stream" />
	</node>
	<node lat="62.50755833162484" lon="7.777419441002405" id="-3811">
		<tag k="name" v="Bjørnavatnet" />
		<tag k="natural" v="water" />
		<tag k="ssr:stedsnr" v="264592" />
	</node>
	<node lat="62.57747500181391" lon="7.8837222141622325" id="-3835">
		<tag k="name" v="Nygjerdsgrova" />
		<tag k="ssr:stedsnr" v="278493" />
		<tag k="waterway" v="stream" />
	</node>
	<node lat="62.52411944803303" lon="7.752863880851712" id="-3840">
		<tag k="name" v="Risgrova" />
		<tag k="ssr:stedsnr" v="278585" />
		<tag k="waterway" v="stream" />
	</node>
	<node lat="62.532847222757056" lon="7.375755558516364" id="-3842">
		<tag k="name" v="Heisgrova" />
		<tag k="ssr:stedsnr" v="278588" />
		<tag k="waterway" v="stream" />
	</node>
	<node lat="62.43147777564024" lon="7.91044722756718" id="-3847">
		<tag k="name" v="Utøyan" />
		<tag k="place" v="island" />
		<tag k="ssr:stedsnr" v="278894" />
	</node>
	<node lat="62.43846111531259" lon="7.451900007308315" id="-3858">
		<tag k="name" v="Storgrova" />
		<tag k="ssr:stedsnr" v="279208" />
		<tag k="waterway" v="stream" />
	</node>
	<node lat="62.437949999625985" lon="7.446436102655704" id="-3859">
		<tag k="name" v="Fremste Storstaugrova" />
		<tag k="ssr:stedsnr" v="279212" />
		<tag k="waterway" v="stream" />
	</node>
	<node lat="62.30703889237539" lon="8.112869452866873" id="-3866">
		<tag k="name" v="Kvernagrova" />
		<tag k="ssr:stedsnr" v="279517" />
		<tag k="waterway" v="stream" />
	</node>
	<node lat="62.513191664340724" lon="7.775616668346215" id="-3887">
		<tag k="name" v="Brekkevatnet" />
		<tag k="natural" v="water" />
		<tag k="ssr:stedsnr" v="460791" />
	</node>
	<node lat="62.53593333482825" lon="7.8937333296153005" id="-3890">
		<tag k="name" v="Kvanndøla" />
		<tag k="ssr:stedsnr" v="460888" />
		<tag k="waterway" v="stream" />
	</node>
	<node lat="62.43592499915259" lon="7.427019448067644" id="-3895">
		<tag k="name" v="Gammelstølsgrova" />
		<tag k="ssr:stedsnr" v="461251" />
		<tag k="waterway" v="stream" />
	</node>
	<node lat="62.435647220271974" lon="7.414519437536219" id="-3896">
		<tag k="name" v="Innfjordselva" />
		<tag k="ssr:stedsnr" v="461255" />
		<tag k="waterway" v="river" />
	</node>
	<node lat="62.547830552369284" lon="7.6812638878314266" id="-3899">
		<tag k="name" v="Setnesgrova" />
		<tag k="ssr:stedsnr" v="461369" />
		<tag k="waterway" v="stream" />
	</node>
	<node lat="62.532336109704545" lon="7.734933330405426" id="-3903">
		<tag k="name" v="Yes-hølen" />
		<tag k="place" v="locality" />
		<tag k="ssr:stedsnr" v="461552" />
	</node>
	<node lat="62.531163884757184" lon="7.731697231448702" id="-3904">
		<tag k="name" v="Åkesholmen" />
		<tag k="place" v="islet" />
		<tag k="ssr:stedsnr" v="461553" />
	</node>
	<node lat="62.5841388922844" lon="7.705597225711708" id="-3908">
		<tag k="name" v="Maridalsgrova" />
		<tag k="ssr:stedsnr" v="461598" />
		<tag k="waterway" v="stream" />
	</node>
	<node lat="62.530519444278674" lon="7.905980565106052" id="-3920">
		<tag k="name" v="Åsgrova" />
		<tag k="ssr:stedsnr" v="461801" />
		<tag k="waterway" v="stream" />
	</node>
	<node lat="62.5855750011602" lon="7.978761110339198" id="-3932">
		<tag k="name" v="Høgseterelva" />
		<tag k="ssr:stedsnr" v="462588" />
		<tag k="waterway" v="river" />
	</node>
	<node lat="62.432030555981754" lon="7.8062000004362355" id="-3947">
		<tag k="name" v="Ølmevatna" />
		<tag k="natural" v="water" />
		<tag k="ssr:stedsnr" v="315004" />
		<tag k="water" v="lake" />
	</node>
	<node lat="62.517069441661405" lon="7.599772224454591" id="-3953">
		<tag k="name" v="Skoltatjørnane" />
		<tag k="natural" v="water" />
		<tag k="ssr:stedsnr" v="315361" />
	</node>
	<node lat="62.54050833251786" lon="7.416272227290724" id="-3956">
		<tag k="name" v="Storgrova" />
		<tag k="ssr:stedsnr" v="315407" />
		<tag k="waterway" v="stream" />
	</node>
	<node lat="62.65144166285456" lon="7.583522223169019" id="-3961">
		<tag k="name" v="Holmen" />
		<tag k="place" v="islet" />
		<tag k="ssr:stedsnr" v="315634" />
	</node>
	<node lat="62.22173611461756" lon="7.759475007518567" id="-3964">
		<tag k="name" v="Nørdre Botnvatnet" />
		<tag k="natural" v="water" />
		<tag k="ssr:stedsnr" v="324315" />
		<tag k="water" v="lake" />
	</node>
	<node lat="62.5063666639005" lon="7.775891670041972" id="-3967">
		<tag k="name" v="Gullkinnvatnet" />
		<tag k="natural" v="water" />
		<tag k="ssr:stedsnr" v="325606" />
	</node>
	<node lat="62.512263892410346" lon="7.65401667036766" id="-3986">
		<tag k="name" v="Brøtfonngrova" />
		<tag k="ssr:stedsnr" v="339112" />
		<tag k="waterway" v="stream" />
	</node>
	<node lat="62.534141670400324" lon="7.383616673314058" id="-3997">
		<tag k="name" v="Tørla" />
		<tag k="ssr:stedsnr" v="339513" />
		<tag k="waterway" v="river" />
	</node>
	<node lat="62.52205555208795" lon="7.36856666771275" id="-3998">
		<tag k="name" v="Svafossen" />
		<tag k="natural" v="waterfall" />
		<tag k="ssr:stedsnr" v="339516" />
	</node>
	<node lat="62.47051111489485" lon="7.524911102738302" id="-4006">
		<tag k="name" v="Løken" />
		<tag k="ssr:stedsnr" v="339912" />
		<tag k="waterway" v="stream" />
	</node>
	<node lat="62.5527527784396" lon="7.42163611229051" id="-4009">
		<tag k="name" v="Sandvikfonna" />
		<tag k="ssr:stedsnr" v="339899" />
		<tag k="waterway" v="stream" />
	</node>
	<node lat="62.37733055760879" lon="8.048627775290406" id="-4010">
		<tag k="name" v="Simonteiggrova" />
		<tag k="ssr:stedsnr" v="340356" />
		<tag k="waterway" v="stream" />
	</node>
	<node lat="62.58368610866404" lon="7.959366671211484" id="-4013">
		<tag k="name" v="Storgjerdsgrova" />
		<tag k="ssr:stedsnr" v="340617" />
		<tag k="waterway" v="river" />
	</node>
	<node lat="62.52478611467226" lon="7.940641669757881" id="-4016">
		<tag k="name" v="Glutarøyan" />
		<tag k="place" v="island" />
		<tag k="ssr:stedsnr" v="340756" />
	</node>
	<node lat="62.29834444378279" lon="8.116669447543241" id="-4026">
		<tag k="name" v="Rauma" />
		<tag k="ssr:stedsnr" v="374150" />
		<tag k="waterway" v="river" />
	</node>
	<node lat="62.571280552900234" lon="7.894011110278328" id="-4032">
		<tag k="name" v="Røndøla" />
		<tag k="ssr:stedsnr" v="375133" />
		<tag k="waterway" v="stream" />
	</node>
	<node lat="62.64227500434426" lon="7.765922213113186" id="-4039">
		<tag k="name" v="Såtevatnet" />
		<tag k="natural" v="water" />
		<tag k="ssr:stedsnr" v="375212" />
		<tag k="water" v="lake" />
	</node>
	<node lat="62.50060000450468" lon="7.637316674230838" id="-4043">
		<tag k="name" v="Svartebottsvatnet" />
		<tag k="natural" v="water" />
		<tag k="ssr:stedsnr" v="375342" />
	</node>
	<node lat="62.60237777478977" lon="7.4772888838397975" id="-4047">
		<tag k="name" v="Hatleelva" />
		<tag k="ssr:stedsnr" v="375539" />
		<tag k="waterway" v="stream" />
	</node>
	<node lat="62.573866668768304" lon="7.602277773103155" id="-4048">
		<tag k="name" v="Torvikelva" />
		<tag k="ssr:stedsnr" v="375482" />
		<tag k="waterway" v="stream" />
	</node>
	<node lat="62.692325004038" lon="7.670447228325135" id="-4068">
		<tag k="name" v="Svagrova" />
		<tag k="ssr:stedsnr" v="396393" />
		<tag k="waterway" v="stream" />
	</node>
	<node lat="62.67017777825927" lon="7.720769442916028" id="-4072">
		<tag k="name" v="Raudgrova" />
		<tag k="ssr:stedsnr" v="396986" />
		<tag k="waterway" v="stream" />
	</node>
	<node lat="62.593308331918564" lon="7.629238895103092" id="-4075">
		<tag k="name" v="Heimste Kjerringhaugelva" />
		<tag k="ssr:stedsnr" v="397394" />
		<tag k="waterway" v="stream" />
	</node>
	<node lat="62.572636107958765" lon="7.5585333290826" id="-4081">
		<tag k="name" v="Holmedraget" />
		<tag k="natural" v="strait" />
		<tag k="ssr:stedsnr" v="398933" />
	</node>
	<node lat="62.45362499712374" lon="7.482697221277126" id="-4085">
		<tag k="name" v="Heimste Kinnagrova" />
		<tag k="ssr:stedsnr" v="400203" />
		<tag k="waterway" v="stream" />
	</node>
	<node lat="62.43897777615709" lon="7.501983323934945" id="-4086">
		<tag k="name" v="Fossen" />
		<tag k="natural" v="waterfall" />
		<tag k="ssr:stedsnr" v="400229" />
	</node>
	<node lat="62.50339166254233" lon="7.3055305650137425" id="-4091">
		<tag k="name" v="Månvasselva" />
		<tag k="ssr:stedsnr" v="400379" />
		<tag k="waterway" v="river" />
	</node>
	<node lat="62.591047219284924" lon="7.739733335552511" id="-4092">
		<tag k="name" v="Litle Breivikelva" />
		<tag k="ssr:stedsnr" v="400505" />
		<tag k="waterway" v="stream" />
	</node>
	<node lat="62.2961777772491" lon="8.119483326713315" id="-4093">
		<tag k="name" v="Kleivhølen" />
		<tag k="place" v="locality" />
		<tag k="ssr:stedsnr" v="400512" />
	</node>
	<node lat="62.509600001993405" lon="7.3861333293434495" id="-4095">
		<tag k="name" v="Nonsgrova" />
		<tag k="ssr:stedsnr" v="400406" />
		<tag k="waterway" v="stream" />
	</node>
	<node lat="62.57546388680315" lon="7.842844442528872" id="-4098">
		<tag k="name" v="Kvennhushølen" />
		<tag k="place" v="locality" />
		<tag k="ssr:stedsnr" v="400484" />
	</node>
	<node lat="62.58224722549276" lon="7.665305563672833" id="-4099">
		<tag k="name" v="Kringla" />
		<tag k="ssr:stedsnr" v="400609" />
		<tag k="waterway" v="stream" />
	</node>
	<node lat="62.512991668866626" lon="7.435930563334667" id="-4104">
		<tag k="name" v="Langgrova" />
		<tag k="ssr:stedsnr" v="400795" />
		<tag k="waterway" v="stream" />
	</node>
	<node lat="62.52503888596539" lon="7.919274998004597" id="-4106">
		<tag k="name" v="Fonnresgrova" />
		<tag k="ssr:stedsnr" v="400804" />
		<tag k="waterway" v="stream" />
	</node>
	<node lat="62.50720277866954" lon="7.76407499345526" id="-4107">
		<tag k="name" v="Fivafossan" />
		<tag k="natural" v="waterfall" />
		<tag k="ssr:stedsnr" v="400809" />
	</node>
	<node lat="62.59196944266563" lon="7.90813611811797" id="-4113">
		<tag k="name" v="Seterelva" />
		<tag k="ssr:stedsnr" v="401686" />
		<tag k="waterway" v="river" />
	</node>
	<node lat="62.40738889113915" lon="8.008999999543825" id="-4117">
		<tag k="name" v="Gravdevatnet" />
		<tag k="natural" v="water" />
		<tag k="ssr:stedsnr" v="436013" />
	</node>
	<node lat="62.398702779182116" lon="8.024222230594232" id="-4118">
		<tag k="name" v="Skogagrova" />
		<tag k="ssr:stedsnr" v="436018" />
		<tag k="waterway" v="stream" />
	</node>
	<node lat="62.523636107735456" lon="7.515952786980546" id="-4137">
		<tag k="name" v="Bjørkåa" />
		<tag k="ssr:stedsnr" v="436380" />
		<tag k="waterway" v="stream" />
	</node>
	<node lat="62.639722224510706" lon="7.67780555052047" id="-4143">
		<tag k="fixme" v="multiple name tags, choose one and add the other to alt_name" />
		<tag k="name" v="Gravfjelltjørnane;Gravfjelltjønna" />
		<tag k="natural" v="water" />
		<tag k="ssr:stedsnr" v="436621" />
	</node>
	<node lat="62.62328333024571" lon="7.693958340689943" id="-4145">
		<tag k="fixme" v="multiple name tags, choose one and add the other to alt_name" />
		<tag k="name" v="Tverrelva;Kvartemskarelva" />
		<tag k="ssr:stedsnr" v="436656" />
		<tag k="waterway" v="stream" />
	</node>
	<node lat="62.49830277654404" lon="7.355213881535404" id="-4174">
		<tag k="name" v="Storfossen" />
		<tag k="natural" v="waterfall" />
		<tag k="ssr:stedsnr" v="461008" />
	</node>
	<node lat="62.437424998871656" lon="7.500344445452218" id="-4180">
		<tag k="name" v="Fossagrova" />
		<tag k="ssr:stedsnr" v="461258" />
		<tag k="waterway" v="stream" />
	</node>
	<node lat="62.577172220474715" lon="7.87244443747654" id="-4183">
		<tag k="name" v="Nebbevadhølen" />
		<tag k="place" v="locality" />
		<tag k="ssr:stedsnr" v="461430" />
	</node>
	<node lat="62.59089999918065" lon="7.725625004125933" id="-4188">
		<tag k="name" v="Rabbegrova" />
		<tag k="ssr:stedsnr" v="461511" />
		<tag k="waterway" v="stream" />
	</node>
	<node lat="62.56398888994815" lon="7.903980559206462" id="-4194">
		<tag k="name" v="Røndølå" />
		<tag k="ssr:stedsnr" v="461767" />
		<tag k="waterway" v="river" />
	</node>
	<node lat="62.37098610887055" lon="8.029938886647898" id="-4199">
		<tag k="name" v="Skjoradalsgrova" />
		<tag k="ssr:stedsnr" v="462328" />
		<tag k="waterway" v="stream" />
	</node>
	<node lat="62.399813890071115" lon="7.987502769031912" id="-4204">
		<tag k="name" v="Døntelva" />
		<tag k="ssr:stedsnr" v="678026" />
		<tag k="waterway" v="stream" />
	</node>
	<node lat="62.25272778102288" lon="7.868211108406449" id="-4211">
		<tag k="name" v="Langodden" />
		<tag k="natural" v="cape" />
		<tag k="ssr:stedsnr" v="678153" />
	</node>
	<node lat="62.60563611228838" lon="7.728283339352346" id="-4225">
		<tag k="name" v="Breivikvatnet" />
		<tag k="natural" v="water" />
		<tag k="ssr:stedsnr" v="679283" />
	</node>
	<node lat="62.42894722401164" lon="7.9024472239451695" id="-4248">
		<tag k="name" v="Ryggvatnet" />
		<tag k="natural" v="water" />
		<tag k="ssr:stedsnr" v="497001" />
	</node>
	<node lat="62.5393388851131" lon="8.063552778534142" id="-4250">
		<tag k="name" v="Haudukvatnet" />
		<tag k="natural" v="water" />
		<tag k="ssr:stedsnr" v="497149" />
	</node>
	<node lat="62.57469166946614" lon="7.556052783877454" id="-4257">
		<tag k="fixme" v="multiple name tags, choose one and add the other to alt_name" />
		<tag k="name" v="Gjerdsetholmen;Holmen" />
		<tag k="place" v="islet" />
		<tag k="ssr:stedsnr" v="497499" />
	</node>
	<node lat="62.661638887024864" lon="7.54954445325742" id="-4271">
		<tag k="name" v="Storfossen" />
		<tag k="natural" v="waterfall" />
		<tag k="ssr:stedsnr" v="518424" />
	</node>
	<node lat="62.65396944132062" lon="7.503494452637729" id="-4287">
		<tag k="name" v="Myragrova" />
		<tag k="ssr:stedsnr" v="521104" />
		<tag k="waterway" v="stream" />
	</node>
	<node lat="62.40943333157163" lon="7.4241388968968" id="-4289">
		<tag k="name" v="Sjøbolelva" />
		<tag k="ssr:stedsnr" v="521177" />
		<tag k="waterway" v="river" />
	</node>
	<node lat="62.53388333593825" lon="7.465413885968361" id="-4299">
		<tag k="name" v="Oterholmelva" />
		<tag k="ssr:stedsnr" v="521517" />
		<tag k="waterway" v="stream" />
	</node>
	<node lat="62.42644722318842" lon="7.935283329792278" id="-4304">
		<tag k="name" v="Rekhølen" />
		<tag k="place" v="locality" />
		<tag k="ssr:stedsnr" v="521872" />
	</node>
	<node lat="62.46919166686311" lon="7.533866673892411" id="-4308">
		<tag k="name" v="Blomøyløken" />
		<tag k="ssr:stedsnr" v="521911" />
		<tag k="waterway" v="stream" />
	</node>
	<node lat="62.583566671147686" lon="7.9304750091009835" id="-4315">
		<tag k="name" v="Storligrova" />
		<tag k="ssr:stedsnr" v="522660" />
		<tag k="waterway" v="stream" />
	</node>
	<node lat="62.539002777833744" lon="7.841669449338315" id="-4317">
		<tag k="name" v="Storskoggrova" />
		<tag k="ssr:stedsnr" v="522726" />
		<tag k="waterway" v="stream" />
	</node>
	<node lat="62.435205552862406" lon="7.878633333541902" id="-4321">
		<tag k="name" v="Mongeelva" />
		<tag k="ssr:stedsnr" v="522866" />
		<tag k="waterway" v="stream" />
	</node>
	<node lat="62.20941666903626" lon="7.980808331823867" id="-4327">
		<tag k="name" v="Storvatnet" />
		<tag k="natural" v="water" />
		<tag k="ssr:stedsnr" v="556212" />
		<tag k="water" v="lake" />
	</node>
	<node lat="62.32628055693189" lon="7.858749994825021" id="-4328">
		<tag k="name" v="Midtbottvatnet" />
		<tag k="natural" v="water" />
		<tag k="ssr:stedsnr" v="556226" />
		<tag k="water" v="lake" />
	</node>
	<node lat="62.48821110770952" lon="7.5551305553496855" id="-4333">
		<tag k="name" v="Innfjordselva" />
		<tag k="ssr:stedsnr" v="556880" />
		<tag k="waterway" v="river" />
	</node>
	<node lat="62.59116389215469" lon="7.841825003483814" id="-4341">
		<tag k="name" v="Heiaelva" />
		<tag k="ssr:stedsnr" v="557300" />
		<tag k="waterway" v="stream" />
	</node>
	<node lat="62.59248333314769" lon="7.738191659618742" id="-4347">
		<tag k="name" v="Litleelva" />
		<tag k="ssr:stedsnr" v="557321" />
		<tag k="waterway" v="stream" />
	</node>
	<node lat="62.64711389174462" lon="7.675466660470759" id="-4351">
		<tag k="name" v="Bollfjellvatnet" />
		<tag k="natural" v="water" />
		<tag k="ssr:stedsnr" v="557601" />
	</node>
	<node lat="62.65285277418413" lon="7.574847227301687" id="-4353">
		<tag k="name" v="Litlevatnet" />
		<tag k="natural" v="water" />
		<tag k="ssr:stedsnr" v="557607" />
	</node>
	<node lat="62.43463332922762" lon="7.99734721668651" id="-4354">
		<tag k="name" v="Kvernagrova" />
		<tag k="ssr:stedsnr" v="557608" />
		<tag k="waterway" v="stream" />
	</node>
	<node lat="62.43764722377728" lon="7.356494439590013" id="-4360">
		<tag k="name" v="Brynbottselva" />
		<tag k="ssr:stedsnr" v="689124" />
		<tag k="waterway" v="river" />
	</node>
	<node lat="62.51950833209202" lon="7.691313880182935" id="-4370">
		<tag k="name" v="Øya" />
		<tag k="place" v="island" />
		<tag k="ssr:stedsnr" v="567605" />
	</node>
	<node lat="62.17809494069627" lon="7.956221298177561" id="-4373">
		<tag k="name" v="Trollvatnet" />
		<tag k="natural" v="water" />
		<tag k="ssr:stedsnr" v="572609" />
		<tag k="water" v="lake" />
	</node>
	<node lat="62.675400000721524" lon="7.724613881516163" id="-4376">
		<tag k="name" v="Sjursneset" />
		<tag k="natural" v="cape" />
		<tag k="ssr:stedsnr" v="578420" />
	</node>
	<node lat="62.51604166778706" lon="7.667649996239005" id="-4401">
		<tag k="name" v="Ølmannsgrova" />
		<tag k="ssr:stedsnr" v="582109" />
		<tag k="waterway" v="stream" />
	</node>
	<node lat="62.50387777547904" lon="7.419513882174025" id="-4408">
		<tag k="name" v="Nyfonngrova" />
		<tag k="ssr:stedsnr" v="582804" />
		<tag k="waterway" v="stream" />
	</node>
	<node lat="62.47159166641951" lon="7.7975027745425365" id="-4410">
		<tag k="name" v="Årsgrova" />
		<tag k="ssr:stedsnr" v="582909" />
		<tag k="waterway" v="stream" />
	</node>
	<node lat="62.65078889309752" lon="7.658288893163612" id="-4426">
		<tag k="name" v="Tverrelva" />
		<tag k="ssr:stedsnr" v="700759" />
		<tag k="waterway" v="river" />
	</node>
	<node lat="62.258988889268345" lon="7.947799999829709" id="-4437">
		<tag k="name" v="Kabbebottvatnet" />
		<tag k="natural" v="water" />
		<tag k="ssr:stedsnr" v="617187" />
	</node>
	<node lat="62.28830277535005" lon="7.876033340110254" id="-4439">
		<tag k="name" v="Inste Grovaskarsvatnet" />
		<tag k="natural" v="water" />
		<tag k="ssr:stedsnr" v="617284" />
	</node>
	<node lat="62.296644444878375" lon="8.131358325263701" id="-4440">
		<tag k="name" v="Kleivbekken" />
		<tag k="ssr:stedsnr" v="617289" />
		<tag k="waterway" v="stream" />
	</node>
	<node lat="62.4632444463045" lon="7.513327770170073" id="-4448">
		<tag k="name" v="Uravatnet" />
		<tag k="natural" v="water" />
		<tag k="ssr:stedsnr" v="617977" />
	</node>
	<node lat="62.537941662458856" lon="7.6922361103646155" id="-4449">
		<tag k="name" v="Istra" />
		<tag k="ssr:stedsnr" v="617979" />
		<tag k="waterway" v="river" />
	</node>
	<node lat="62.570524996126395" lon="7.562347219933377" id="-4456">
		<tag k="name" v="Løken" />
		<tag k="natural" v="bay" />
		<tag k="ssr:stedsnr" v="701941" />
	</node>
	<node lat="62.631544444226506" lon="7.678755548926303" id="-4462">
		<tag k="name" v="Kvassetindvatnet" />
		<tag k="natural" v="water" />
		<tag k="ssr:stedsnr" v="618640" />
	</node>
	<node lat="62.43994721848121" lon="7.4327583387172576" id="-4469">
		<tag k="name" v="Måsholmen" />
		<tag k="place" v="islet" />
		<tag k="ssr:stedsnr" v="703275" />
	</node>
	<node lat="62.52224721828154" lon="7.705969449747697" id="-4474">
		<tag k="name" v="Oråa" />
		<tag k="ssr:stedsnr" v="627655" />
		<tag k="waterway" v="stream" />
	</node>
	<node lat="62.43237499801453" lon="7.902883328357646" id="-4483">
		<tag k="name" v="Rygghølen" />
		<tag k="place" v="locality" />
		<tag k="ssr:stedsnr" v="703891" />
	</node>
	<node lat="62.32596389006592" lon="8.064122216829155" id="-4489">
		<tag k="name" v="Sætergrova" />
		<tag k="ssr:stedsnr" v="704456" />
		<tag k="waterway" v="stream" />
	</node>
	<node lat="62.308483335538874" lon="8.10408610828062" id="-4490">
		<tag k="name" v="Litlehølen" />
		<tag k="place" v="locality" />
		<tag k="ssr:stedsnr" v="704485" />
	</node>
	<node lat="62.4214666667022" lon="7.954513893450695" id="-4494">
		<tag k="name" v="Jetmundhølen" />
		<tag k="place" v="locality" />
		<tag k="ssr:stedsnr" v="632980" />
	</node>
	<node lat="62.583472220414414" lon="7.9206888833279505" id="-4500">
		<tag k="name" v="Tverråa" />
		<tag k="ssr:stedsnr" v="704646" />
		<tag k="waterway" v="river" />
	</node>
	<node lat="62.60153055588141" lon="7.822586103322618" id="-4501">
		<tag k="name" v="Galtåa" />
		<tag k="ssr:stedsnr" v="704685" />
		<tag k="waterway" v="stream" />
	</node>
	<node lat="62.66926666555596" lon="7.762297231273437" id="-4512">
		<tag k="name" v="Litletverråna" />
		<tag k="ssr:stedsnr" v="704940" />
		<tag k="waterway" v="stream" />
	</node>
	<node lat="62.66733333729674" lon="7.786186113088624" id="-4513">
		<tag k="name" v="Romsteligrova" />
		<tag k="ssr:stedsnr" v="704945" />
		<tag k="waterway" v="river" />
	</node>
	<node lat="62.57480833586421" lon="7.537638896094341" id="-4521">
		<tag k="name" v="Sunnmørsrøysa" />
		<tag k="natural" v="cape" />
		<tag k="ssr:stedsnr" v="640991" />
	</node>
	<node lat="62.44189444796043" lon="7.482547216401794" id="-4525">
		<tag k="name" v="Litlefossen" />
		<tag k="natural" v="waterfall" />
		<tag k="ssr:stedsnr" v="642207" />
	</node>
	<node lat="62.33766944017921" lon="8.050505557876326" id="-4528">
		<tag k="name" v="Hjellgrova" />
		<tag k="ssr:stedsnr" v="642409" />
		<tag k="waterway" v="stream" />
	</node>
	<node lat="62.51211944398176" lon="7.342797219183662" id="-4534">
		<tag k="name" v="Tøftelva" />
		<tag k="ssr:stedsnr" v="642440" />
		<tag k="waterway" v="river" />
	</node>
	<node lat="62.47150555385285" lon="7.503363895661905" id="-4535">
		<tag k="name" v="Steinskreda" />
		<tag k="ssr:stedsnr" v="642178" />
		<tag k="waterway" v="stream" />
	</node>
	<node lat="62.52779444530174" lon="7.685100004578339" id="-4541">
		<tag k="name" v="Kvernagrova" />
		<tag k="ssr:stedsnr" v="642676" />
		<tag k="waterway" v="stream" />
	</node>
	<node lat="62.50018333512487" lon="7.439483331406114" id="-4545">
		<tag k="name" v="Kvitsteingrova" />
		<tag k="ssr:stedsnr" v="642777" />
		<tag k="waterway" v="stream" />
	</node>
	<node lat="62.47170277717679" lon="7.531875008643549" id="-4548">
		<tag k="name" v="Laugardammen" />
		<tag k="place" v="locality" />
		<tag k="ssr:stedsnr" v="642906" />
	</node>
	<node lat="62.524294446585664" lon="7.409527773368122" id="-4551">
		<tag k="name" v="Langodden" />
		<tag k="natural" v="cape" />
		<tag k="ssr:stedsnr" v="642988" />
	</node>
	<node lat="62.457683337486905" lon="7.886716667367861" id="-4563">
		<tag k="name" v="Mongevatnet" />
		<tag k="natural" v="water" />
		<tag k="ssr:stedsnr" v="678092" />
		<tag k="water" v="lake" />
	</node>
	<node lat="62.42701110868399" lon="7.705077774849896" id="-4571">
		<tag k="name" v="Isglupen" />
		<tag k="natural" v="water" />
		<tag k="ssr:stedsnr" v="678928" />
	</node>
	<node lat="62.519872224023395" lon="7.969541674488489" id="-4577">
		<tag k="name" v="Gluterfossen" />
		<tag k="natural" v="waterfall" />
		<tag k="ssr:stedsnr" v="679204" />
	</node>
	<node lat="62.3455444465038" lon="8.039472215378554" id="-4584">
		<tag k="name" v="Verma" />
		<tag k="ssr:stedsnr" v="679619" />
		<tag k="waterway" v="river" />
	</node>
	<node lat="62.49929444632303" lon="7.934572228049957" id="-4592">
		<tag k="name" v="Sauefonnvatnet" />
		<tag k="natural" v="water" />
		<tag k="ssr:stedsnr" v="679819" />
	</node>
	<node lat="62.49412777349681" lon="7.920858325359623" id="-4593">
		<tag k="name" v="Middagsfjellvatnet" />
		<tag k="natural" v="water" />
		<tag k="ssr:stedsnr" v="679822" />
		<tag k="water" v="lake" />
	</node>
	<node lat="62.503177776353496" lon="7.352580555703637" id="-4597">
		<tag k="name" v="Skarelva" />
		<tag k="ssr:stedsnr" v="689112" />
		<tag k="waterway" v="river" />
	</node>
	<node lat="62.638616668951784" lon="7.602483326825547" id="-4605">
		<tag k="name" v="Breielva" />
		<tag k="ssr:stedsnr" v="700185" />
		<tag k="waterway" v="river" />
	</node>
	<node lat="62.67649444727714" lon="7.737941675311016" id="-4607">
		<tag k="name" v="Litlegrovfonna" />
		<tag k="ssr:stedsnr" v="700470" />
		<tag k="waterway" v="stream" />
	</node>
	<node lat="62.670622224295144" lon="7.714163891506099" id="-4613">
		<tag k="name" v="Tverråa" />
		<tag k="ssr:stedsnr" v="700983" />
		<tag k="waterway" v="river" />
	</node>
	<node lat="62.47270832902583" lon="7.511819442968217" id="-4624">
		<tag k="name" v="Heggeskreda" />
		<tag k="ssr:stedsnr" v="703219" />
		<tag k="waterway" v="stream" />
	</node>
	<node lat="62.43979721813364" lon="7.449050000559425" id="-4625">
		<tag k="name" v="Heimste Storstaugrova" />
		<tag k="ssr:stedsnr" v="703225" />
		<tag k="waterway" v="stream" />
	</node>
	<node lat="62.4128333372662" lon="8.015838880154018" id="-4628">
		<tag k="name" v="Styggefonngrova" />
		<tag k="ssr:stedsnr" v="703436" />
		<tag k="waterway" v="river" />
	</node>
	<node lat="62.57752222638668" lon="7.853080562958256" id="-4630">
		<tag k="name" v="Sagneset" />
		<tag k="natural" v="cape" />
		<tag k="ssr:stedsnr" v="703510" />
	</node>
	<node lat="62.45897500194849" lon="7.677961118549059" id="-4636">
		<tag k="name" v="Tverelva" />
		<tag k="ssr:stedsnr" v="704060" />
		<tag k="waterway" v="stream" />
	</node>
	<node lat="62.50863889060599" lon="7.418911118452723" id="-4644">
		<tag k="name" v="Holmagrova" />
		<tag k="ssr:stedsnr" v="704771" />
		<tag k="waterway" v="stream" />
	</node>
	<node lat="62.42271111364561" lon="7.986994450417981" id="-4647">
		<tag k="name" v="Langøya" />
		<tag k="place" v="island" />
		<tag k="ssr:stedsnr" v="704811" />
	</node>
	<node lat="62.47334721849955" lon="7.5340944433176285" id="-4650">
		<tag k="name" v="Løkan" />
		<tag k="ssr:stedsnr" v="704910" />
		<tag k="waterway" v="stream" />
	</node>
	<node lat="62.54537222074427" lon="7.631072218054473" id="-4655">
		<tag k="loc_name" v="Insteelva" />
		<tag k="name" v="Indre Elva" />
		<tag k="ssr:stedsnr" v="900240" />
		<tag k="waterway" v="stream" />
	</node>
	<node lat="62.419016666998196" lon="8.00904166507807" id="-4659">
		<tag k="name" v="Styggefonngrova" />
		<tag k="ssr:stedsnr" v="739007" />
		<tag k="waterway" v="stream" />
	</node>
	<node lat="62.53988611356866" lon="7.900272229419378" id="-4663">
		<tag k="name" v="Glutra" />
		<tag k="ssr:stedsnr" v="739122" />
		<tag k="waterway" v="river" />
	</node>
	<node lat="62.43325833283925" lon="7.97246388609049" id="-4664">
		<tag k="name" v="Myrgrova" />
		<tag k="ssr:stedsnr" v="739100" />
		<tag k="waterway" v="stream" />
	</node>
	<node lat="62.63488888613696" lon="7.473494438823903" id="-4686">
		<tag k="name" v="Vikagrova" />
		<tag k="ssr:stedsnr" v="740639" />
		<tag k="waterway" v="stream" />
	</node>
	<node lat="62.69648888451462" lon="7.674233337834646" id="-4709">
		<tag k="name" v="Svagrova" />
		<tag k="ssr:stedsnr" v="760542" />
		<tag k="waterway" v="stream" />
	</node>
	<node lat="62.6963444473836" lon="7.6774611027549415" id="-4711">
		<tag k="name" v="Ljøsåa" />
		<tag k="ssr:stedsnr" v="760546" />
		<tag k="waterway" v="stream" />
	</node>
	<node lat="62.43727500177042" lon="7.509430556143595" id="-4732">
		<tag k="name" v="Berdalsgrova" />
		<tag k="ssr:stedsnr" v="764212" />
		<tag k="waterway" v="stream" />
	</node>
	<node lat="62.51533333022927" lon="7.760699998377873" id="-4741">
		<tag k="name" v="Storøya" />
		<tag k="place" v="island" />
		<tag k="ssr:stedsnr" v="764442" />
	</node>
	<node lat="62.58265000347175" lon="7.502602782542094" id="-4746">
		<tag k="name" v="Kvernaelva" />
		<tag k="ssr:stedsnr" v="764619" />
		<tag k="waterway" v="stream" />
	</node>
	<node lat="62.66843611190524" lon="7.7652833294779295" id="-4757">
		<tag k="name" v="Stortverråna" />
		<tag k="ssr:stedsnr" v="765959" />
		<tag k="waterway" v="river" />
	</node>
	<node lat="62.664238888574815" lon="7.8035166718223286" id="-4759">
		<tag k="name" v="Hjellgrova" />
		<tag k="ssr:stedsnr" v="765968" />
		<tag k="waterway" v="stream" />
	</node>
	<node lat="62.655894443050435" lon="7.79886110857228" id="-4760">
		<tag k="name" v="Svartevasselva" />
		<tag k="ssr:stedsnr" v="765972" />
		<tag k="waterway" v="river" />
	</node>
	<node lat="62.42854444512292" lon="7.921033335225221" id="-4763">
		<tag k="name" v="Skirihølen" />
		<tag k="place" v="locality" />
		<tag k="ssr:stedsnr" v="800002" />
	</node>
	<node lat="62.43499999935824" lon="7.9153555564187" id="-4764">
		<tag k="name" v="Kvernagrova" />
		<tag k="ssr:stedsnr" v="800107" />
		<tag k="waterway" v="stream" />
	</node>
	<node lat="62.42346111309623" lon="8.02211666615328" id="-4769">
		<tag k="name" v="Brurasløret" />
		<tag k="natural" v="waterfall" />
		<tag k="ssr:stedsnr" v="800011" />
	</node>
	<node lat="62.577786114665116" lon="7.505333329710917" id="-4776">
		<tag k="name" v="Oravatnet" />
		<tag k="natural" v="water" />
		<tag k="ssr:stedsnr" v="800512" />
		<tag k="water" v="lake" />
	</node>
	<node lat="62.50730555284692" lon="7.744608331013505" id="-4779">
		<tag k="name" v="Bjørnagrova" />
		<tag k="ssr:stedsnr" v="801216" />
		<tag k="waterway" v="stream" />
	</node>
	<node lat="62.45913889301362" lon="7.637227785618324" id="-4780">
		<tag k="name" v="Bispevatnet" />
		<tag k="natural" v="water" />
		<tag k="ssr:stedsnr" v="800973" />
	</node>
	<node lat="62.454738886601284" lon="7.41523332977697" id="-4781">
		<tag k="name" v="Tindevatnet" />
		<tag k="natural" v="water" />
		<tag k="ssr:stedsnr" v="800977" />
	</node>
	<node lat="62.593444447700556" lon="7.662627782457977" id="-4787">
		<tag k="name" v="Storstølgrova" />
		<tag k="ssr:stedsnr" v="801610" />
		<tag k="waterway" v="stream" />
	</node>
	<node lat="62.4904166634448" lon="7.988819441035301" id="-4790">
		<tag k="name" v="Grøttavatnet" />
		<tag k="natural" v="water" />
		<tag k="ssr:stedsnr" v="801811" />
		<tag k="water" v="lake" />
	</node>
	<node lat="62.49225555266459" lon="7.551924992799434" id="-4792">
		<tag k="name" v="Teppa" />
		<tag k="ssr:stedsnr" v="809548" />
		<tag k="waterway" v="river" />
	</node>
	<node lat="62.4766277786282" lon="7.771266660582351" id="-4800">
		<tag k="name" v="Skjervehølen" />
		<tag k="place" v="locality" />
		<tag k="ssr:stedsnr" v="811585" />
	</node>
	<node lat="62.38377499632565" lon="7.922677785792037" id="-4805">
		<tag k="name" v="Tverråa" />
		<tag k="ssr:stedsnr" v="921028" />
		<tag k="waterway" v="stream" />
	</node>
	<node lat="62.70091388763619" lon="7.694269438256539" id="-4809">
		<tag k="name" v="Lindsetkvisla" />
		<tag k="ssr:stedsnr" v="821491" />
		<tag k="waterway" v="stream" />
	</node>
	<node lat="62.671211111659225" lon="7.717663893735927" id="-4810">
		<tag k="name" v="Saglifossen" />
		<tag k="natural" v="waterfall" />
		<tag k="ssr:stedsnr" v="821981" />
	</node>
	<node lat="62.35605833032763" lon="8.01337776867664" id="-4811">
		<tag k="name" v="Lomtjønna" />
		<tag k="natural" v="water" />
		<tag k="ssr:stedsnr" v="921053" />
	</node>
	<node lat="62.32867778169756" lon="7.828563893396455" id="-4818">
		<tag k="name" v="Istjønna" />
		<tag k="natural" v="water" />
		<tag k="ssr:stedsnr" v="921206" />
	</node>
	<node lat="62.614077781801726" lon="7.445799996259445" id="-4822">
		<tag k="name" v="Hjellelva" />
		<tag k="ssr:stedsnr" v="822618" />
		<tag k="waterway" v="stream" />
	</node>
	<node lat="62.25560833691203" lon="7.882774991175001" id="-4825">
		<tag k="name" v="Storseilgrova" />
		<tag k="ssr:stedsnr" v="921152" />
		<tag k="waterway" v="stream" />
	</node>
	<node lat="62.18452778047595" lon="7.9025583358415386" id="-4826">
		<tag k="alt_name" v="Glupvatnet, inste" />
		<tag k="name" v="Inste Glupvatnet" />
		<tag k="natural" v="water" />
		<tag k="ssr:stedsnr" v="921176" />
		<tag k="water" v="lake" />
	</node>
	<node lat="62.55638888898798" lon="7.561902783039935" id="-4843">
		<tag k="name" v="Løypet" />
		<tag k="place" v="locality" />
		<tag k="ssr:stedsnr" v="825079" />
	</node>
	<node lat="62.585299998363865" lon="7.717966673290043" id="-4849">
		<tag k="name" v="Grøhardsgrova" />
		<tag k="ssr:stedsnr" v="825521" />
		<tag k="waterway" v="stream" />
	</node>
	<node lat="62.58629444060748" lon="7.759980548028513" id="-4850">
		<tag k="name" v="Finnmarkgrova" />
		<tag k="ssr:stedsnr" v="825532" />
		<tag k="waterway" v="stream" />
	</node>
	<node lat="62.537519444910636" lon="7.708299992202374" id="-4852">
		<tag k="name" v="Grova" />
		<tag k="ssr:stedsnr" v="825466" />
		<tag k="waterway" v="stream" />
	</node>
	<node lat="62.58065000192211" lon="7.682447212864035" id="-4858">
		<tag k="name" v="Kvernagrova" />
		<tag k="ssr:stedsnr" v="825575" />
		<tag k="waterway" v="stream" />
	</node>
	<node lat="62.554505554431266" lon="7.713647229394194" id="-4860">
		<tag k="name" v="Årstalgrova" />
		<tag k="ssr:stedsnr" v="825709" />
		<tag k="waterway" v="stream" />
	</node>
	<node lat="62.53239999708492" lon="7.438497222171857" id="-4866">
		<tag k="name" v="Kjeva" />
		<tag k="ssr:stedsnr" v="825912" />
		<tag k="waterway" v="stream" />
	</node>
	<node lat="62.47178055847835" lon="7.5761750019929135" id="-4868">
		<tag k="name" v="Grytåa" />
		<tag k="ssr:stedsnr" v="921884" />
		<tag k="waterway" v="stream" />
	</node>
	<node lat="62.47141944088201" lon="7.568994441884687" id="-4869">
		<tag k="name" v="Smøråa" />
		<tag k="ssr:stedsnr" v="921885" />
		<tag k="waterway" v="stream" />
	</node>
	<node lat="62.37697500264973" lon="8.0428555593456" id="-4878">
		<tag k="name" v="Ørnefonngrova" />
		<tag k="ssr:stedsnr" v="826375" />
		<tag k="waterway" v="stream" />
	</node>
	<node lat="62.581027775123175" lon="7.61467222113691" id="-4883">
		<tag k="name" v="Skarvatnet" />
		<tag k="natural" v="water" />
		<tag k="ssr:stedsnr" v="922466" />
	</node>
	<node lat="62.64786419880031" lon="7.60457669128652" id="-4889">
		<tag k="name" v="Herjevatnet" />
		<tag k="natural" v="water" />
		<tag k="ssr:stedsnr" v="922620" />
		<tag k="water" v="lake" />
	</node>
	<node lat="62.60563611228838" lon="7.728283339352346" id="-4892">
		<tag k="name" v="Selsætervatnet" />
		<tag k="natural" v="water" />
		<tag k="ssr:stedsnr" v="830006" />
	</node>
	<node lat="62.26033333040298" lon="8.083527775471838" id="-4895">
		<tag k="name" v="Elgskinnstjønna" />
		<tag k="natural" v="water" />
		<tag k="ssr:stedsnr" v="860173" />
	</node>
	<node lat="62.35104166233455" lon="7.916241674287311" id="-4897">
		<tag k="name" v="Veslbottvatnet" />
		<tag k="natural" v="water" />
		<tag k="ssr:stedsnr" v="860061" />
		<tag k="water" v="lake" />
	</node>
	<node lat="62.287147220848034" lon="8.024366662279583" id="-4901">
		<tag k="name" v="Storgrova" />
		<tag k="ssr:stedsnr" v="860282" />
		<tag k="waterway" v="stream" />
	</node>
	<node lat="62.33238611023599" lon="7.996375003737704" id="-4909">
		<tag k="name" v="Bjørnalauga" />
		<tag k="natural" v="water" />
		<tag k="ssr:stedsnr" v="861173" />
	</node>
	<node lat="62.31008611029366" lon="8.118877780042975" id="-4911">
		<tag k="name" v="Kvernagrova" />
		<tag k="ssr:stedsnr" v="861212" />
		<tag k="waterway" v="stream" />
	</node>
	<node lat="62.51971111392937" lon="7.393288891472971" id="-4924">
		<tag k="name" v="Måna" />
		<tag k="ssr:stedsnr" v="862414" />
		<tag k="waterway" v="river" />
	</node>
	<node lat="62.532891663959155" lon="7.390886104323359" id="-4925">
		<tag k="name" v="Tørla" />
		<tag k="ssr:stedsnr" v="862415" />
		<tag k="waterway" v="stream" />
	</node>
	<node lat="62.49031666909175" lon="7.554616665220961" id="-4929">
		<tag k="name" v="Stilla" />
		<tag k="place" v="locality" />
		<tag k="ssr:stedsnr" v="870535" />
	</node>
	<node lat="62.43275833456994" lon="7.3848722279093915" id="-4934">
		<tag k="name" v="Røstaelva" />
		<tag k="ssr:stedsnr" v="931132" />
		<tag k="waterway" v="river" />
	</node>
	<node lat="62.43359999747577" lon="7.84820554664849" id="-4939">
		<tag k="name" v="Kvernagrova" />
		<tag k="ssr:stedsnr" v="932546" />
		<tag k="waterway" v="stream" />
	</node>
	<node lat="62.62316666642173" lon="7.7411555606655424" id="-4946">
		<tag k="name" v="Såtskarelva" />
		<tag k="ssr:stedsnr" v="882915" />
		<tag k="waterway" v="river" />
	</node>
	<node lat="62.512566664085185" lon="7.417211105516726" id="-4971">
		<tag k="name" v="Slettfonngrova" />
		<tag k="ssr:stedsnr" v="886812" />
		<tag k="waterway" v="stream" />
	</node>
	<node lat="62.452441668824704" lon="7.971608340546933" id="-4979">
		<tag k="name" v="Rangåvatnet" />
		<tag k="natural" v="water" />
		<tag k="ssr:stedsnr" v="921094" />
		<tag k="water" v="lake" />
	</node>
	<node lat="62.312021956257624" lon="8.13264123925396" id="-4983">
		<tag k="alt_name" v="Raudåa, s" />
		<tag k="name" v="Søre Raudåa" />
		<tag k="ssr:stedsnr" v="921242" />
		<tag k="waterway" v="stream" />
	</node>
	<node lat="62.442811110696105" lon="7.895288885633883" id="-4985">
		<tag k="name" v="Mongefossen" />
		<tag k="natural" v="waterfall" />
		<tag k="ssr:stedsnr" v="921114" />
	</node>
	<node lat="62.55993889331827" lon="7.780130562415168" id="-4990">
		<tag k="name" v="Steinselva" />
		<tag k="ssr:stedsnr" v="921198" />
		<tag k="waterway" v="stream" />
	</node>
	<node lat="62.49382777546456" lon="7.292611118076246" id="-4996">
		<tag k="fixme" v="multiple name tags, choose one and add the other to alt_name" />
		<tag k="name" v="Månvasselva;Måna" />
		<tag k="ssr:stedsnr" v="921907" />
		<tag k="waterway" v="stream" />
	</node>
	<node lat="62.45505000402956" lon="7.500163895462441" id="-4999">
		<tag k="name" v="Demdalsvatnet" />
		<tag k="natural" v="water" />
		<tag k="ssr:stedsnr" v="921978" />
	</node>
	<node lat="62.549213888069424" lon="8.024313892948172" id="-5000">
		<tag k="name" v="Langtjørna" />
		<tag k="natural" v="water" />
		<tag k="ssr:stedsnr" v="922135" />
	</node>
	<node lat="62.475075004282274" lon="7.823744451230232" id="-5001">
		<tag k="name" v="Olaskarsgrova" />
		<tag k="ssr:stedsnr" v="922082" />
		<tag k="waterway" v="stream" />
	</node>
	<node lat="62.48723888979212" lon="7.551386110350467" id="-5015">
		<tag k="name" v="Sandøya" />
		<tag k="natural" v="cape" />
		<tag k="ssr:stedsnr" v="931547" />
	</node>
	<node lat="62.59980833704062" lon="7.628352784855649" id="-5032">
		<tag k="name" v="Fremste Kjerringhaugelva" />
		<tag k="ssr:stedsnr" v="944397" />
		<tag k="waterway" v="stream" />
	</node>
	<node lat="62.457925003464716" lon="7.5067500052624165" id="-5039">
		<tag k="name" v="Sandavatnet" />
		<tag k="natural" v="water" />
		<tag k="ssr:stedsnr" v="946181" />
		<tag k="water" v="lake" />
	</node>
	<node lat="62.44166388653922" lon="7.470449999440076" id="-5042">
		<tag k="name" v="Storfossen" />
		<tag k="natural" v="waterfall" />
		<tag k="ssr:stedsnr" v="946194" />
	</node>
	<node lat="62.53358055684293" lon="7.367861109911509" id="-5045">
		<tag k="name" v="Seterelva" />
		<tag k="ssr:stedsnr" v="946503" />
		<tag k="waterway" v="stream" />
	</node>
	<node lat="62.539122221457845" lon="7.355138895445885" id="-5046">
		<tag k="name" v="Storgrova" />
		<tag k="ssr:stedsnr" v="946505" />
		<tag k="waterway" v="river" />
	</node>
	<node lat="62.50879444790787" lon="7.760780562455242" id="-5048">
		<tag k="name" v="Kvernagrova" />
		<tag k="ssr:stedsnr" v="946408" />
		<tag k="waterway" v="stream" />
	</node>
	<node lat="62.563022224489686" lon="7.8297555463519855" id="-5055">
		<tag k="name" v="Steinsetergrova" />
		<tag k="ssr:stedsnr" v="946602" />
		<tag k="waterway" v="stream" />
	</node>
	<node lat="62.547611107636584" lon="7.868136116062293" id="-5056">
		<tag k="name" v="Øymogrova" />
		<tag k="ssr:stedsnr" v="946714" />
		<tag k="waterway" v="stream" />
	</node>
	<node lat="62.49120833027278" lon="7.605011116467189" id="-5060">
		<tag k="alt_name" v="Haugabottsfossen" />
		<tag k="name" v="Haugabotsfossen" />
		<tag k="natural" v="waterfall" />
		<tag k="ssr:stedsnr" v="946695" />
	</node>
	<node lat="62.59200277682237" lon="7.86737778513982" id="-5073">
		<tag k="name" v="Ådalselva" />
		<tag k="ssr:stedsnr" v="947686" />
		<tag k="waterway" v="stream" />
	</node>
	<node lat="62.41259999728701" lon="8.01459166377887" id="-5104">
		<tag k="name" v="Gravdefossen" />
		<tag k="natural" v="waterfall" />
		<tag k="ssr:stedsnr" v="11016" />
	</node>
	<node lat="62.38363888469519" lon="7.828952783301835" id="-5105">
		<tag k="name" v="Slettflybottelva" />
		<tag k="ssr:stedsnr" v="11024" />
		<tag k="waterway" v="stream" />
	</node>
	<node lat="62.43886388671305" lon="7.975716658621805" id="-5108">
		<tag k="name" v="Grønfonnåa" />
		<tag k="ssr:stedsnr" v="11097" />
		<tag k="waterway" v="stream" />
	</node>
	<node lat="62.32463889332747" lon="8.07776666220991" id="-5113">
		<tag k="name" v="Slettafossen" />
		<tag k="natural" v="waterfall" />
		<tag k="ssr:stedsnr" v="11205" />
	</node>
	<node lat="62.19750833354074" lon="7.941813881535541" id="-5122">
		<tag k="name" v="Nedre Laksetjønna" />
		<tag k="natural" v="water" />
		<tag k="ssr:stedsnr" v="11154" />
	</node>
	<node lat="62.52974444631805" lon="7.706722230685903" id="-5127">
		<tag k="name" v="Løtane" />
		<tag k="natural" v="cape" />
		<tag k="ssr:stedsnr" v="11412" />
	</node>
	<node lat="62.643233333845174" lon="7.710888884244355" id="-5134">
		<tag k="fixme" v="multiple name tags, choose one and add the other to alt_name" />
		<tag k="name" v="Litlebottenvatnet;Litlebotnvatnet" />
		<tag k="natural" v="water" />
		<tag k="ssr:stedsnr" v="11664" />
	</node>
	<node lat="62.47981388570698" lon="7.698136114112794" id="-5139">
		<tag k="name" v="Storgrova" />
		<tag k="ssr:stedsnr" v="11896" />
		<tag k="waterway" v="stream" />
	</node>
	<node lat="62.535636106932536" lon="7.590191669153771" id="-5144">
		<tag k="name" v="Sjølå" />
		<tag k="ssr:stedsnr" v="12390" />
		<tag k="waterway" v="stream" />
	</node>
	<node lat="62.598355559947755" lon="7.682508331432418" id="-5145">
		<tag k="name" v="Storstølvatnet" />
		<tag k="natural" v="water" />
		<tag k="ssr:stedsnr" v="12619" />
	</node>
	<node lat="62.545211110033385" lon="7.405833340473381" id="-5147">
		<tag k="name" v="Sæbøvatnet" />
		<tag k="natural" v="water" />
		<tag k="ssr:stedsnr" v="12550" />
	</node>
	<node lat="62.603861108321155" lon="7.657827786202605" id="-5149">
		<tag k="name" v="Ljøsåa" />
		<tag k="ssr:stedsnr" v="12605" />
		<tag k="waterway" v="river" />
	</node>
	<node lat="62.55880833043772" lon="7.819741667970068" id="-5156">
		<tag k="name" v="Vesleremgrova" />
		<tag k="ssr:stedsnr" v="21630" />
		<tag k="waterway" v="stream" />
	</node>
	<node lat="62.56197499900763" lon="7.839652776465322" id="-5159">
		<tag k="name" v="Kvennaholmen" />
		<tag k="place" v="islet" />
		<tag k="ssr:stedsnr" v="21637" />
	</node>
	<node lat="62.58575833706558" lon="7.795486118074114" id="-5161">
		<tag k="name" v="Kvernaholmen" />
		<tag k="place" v="islet" />
		<tag k="ssr:stedsnr" v="21952" />
	</node>
	<node lat="62.66581389281625" lon="7.747111104401777" id="-5166">
		<tag k="name" v="Stakkfjellelva" />
		<tag k="ssr:stedsnr" v="32999" />
		<tag k="waterway" v="river" />
	</node>
	<node lat="62.63975277729976" lon="7.677549995229095" id="-5168">
		<tag k="name" v="Småvatna" />
		<tag k="natural" v="water" />
		<tag k="ssr:stedsnr" v="32961" />
	</node>
	<node lat="62.666330558648326" lon="7.6262361064623825" id="-5172">
		<tag k="name" v="Tverrelva" />
		<tag k="ssr:stedsnr" v="33751" />
		<tag k="waterway" v="river" />
	</node>
	<node lat="62.452272220231976" lon="7.48604999316453" id="-5183">
		<tag k="name" v="Fremste Kinnagrova" />
		<tag k="ssr:stedsnr" v="36187" />
		<tag k="waterway" v="stream" />
	</node>
	<node lat="62.49008611247599" lon="7.751377770496179" id="-5185">
		<tag k="name" v="Halsateina" />
		<tag k="place" v="locality" />
		<tag k="ssr:stedsnr" v="36380" />
	</node>
	<node lat="62.485466668139786" lon="7.549672231069412" id="-5187">
		<tag k="name" v="Rønningshølen" />
		<tag k="place" v="locality" />
		<tag k="ssr:stedsnr" v="35866" />
	</node>
	<node lat="62.47905000059557" lon="7.707286111677175" id="-5192">
		<tag k="name" v="Storgrova" />
		<tag k="ssr:stedsnr" v="36072" />
		<tag k="waterway" v="stream" />
	</node>
	<node lat="62.57605000083253" lon="7.836649991734237" id="-5197">
		<tag k="name" v="Heggeneset" />
		<tag k="natural" v="cape" />
		<tag k="ssr:stedsnr" v="36437" />
	</node>
	<node lat="62.53439444122" lon="7.8928055586771375" id="-5200">
		<tag k="name" v="Stormyrgrova" />
		<tag k="ssr:stedsnr" v="36796" />
		<tag k="waterway" v="stream" />
	</node>
	<node lat="62.58215555624385" lon="7.754988880523842" id="-5201">
		<tag k="name" v="Kvernkvilten" />
		<tag k="ssr:stedsnr" v="36526" />
		<tag k="waterway" v="stream" />
	</node>
	<node lat="62.5410861067951" lon="7.848411110431182" id="-5209">
		<tag k="name" v="Ørrmyrgrova" />
		<tag k="ssr:stedsnr" v="36739" />
		<tag k="waterway" v="stream" />
	</node>
	<node lat="62.56194444829518" lon="7.832069450400069" id="-5210">
		<tag k="name" v="Ytstedalsgrova" />
		<tag k="ssr:stedsnr" v="36748" />
		<tag k="waterway" v="stream" />
	</node>
	<node lat="62.4234250021204" lon="7.914311111581045" id="-5212">
		<tag k="name" v="Skirihølgrova" />
		<tag k="ssr:stedsnr" v="36889" />
		<tag k="waterway" v="stream" />
	</node>
	<node lat="62.583780558689796" lon="7.7816694406570335" id="-5213">
		<tag k="name" v="Holman" />
		<tag k="place" v="islet" />
		<tag k="ssr:stedsnr" v="37436" />
	</node>
	<node lat="62.42761111254476" lon="7.987316671988622" id="-5219">
		<tag k="name" v="Fetjavatnet" />
		<tag k="natural" v="water" />
		<tag k="ssr:stedsnr" v="37835" />
		<tag k="water" v="lake" />
	</node>
	<node lat="62.3575777814046" lon="8.067213889082325" id="-5226">
		<tag k="name" v="Løkrabekken" />
		<tag k="ssr:stedsnr" v="71044" />
		<tag k="waterway" v="stream" />
	</node>
	<node lat="62.42590555499015" lon="7.586836120251169" id="-5235">
		<tag k="alt_name" v="Småholvatnet, inste" />
		<tag k="name" v="Inste Småholvatnet" />
		<tag k="natural" v="water" />
		<tag k="ssr:stedsnr" v="71965" />
	</node>
	<node lat="62.19264722412191" lon="7.949572223465266" id="-5239">
		<tag k="name" v="Øvre Laksetjønna" />
		<tag k="natural" v="water" />
		<tag k="ssr:stedsnr" v="72163" />
	</node>
	<node lat="62.52591388545346" lon="7.934816668592781" id="-5242">
		<tag k="name" v="Saufonngrova" />
		<tag k="ssr:stedsnr" v="72226" />
		<tag k="waterway" v="stream" />
	</node>
	<node lat="62.5001500012032" lon="7.580558336171251" id="-5247">
		<tag k="name" v="Tverråa" />
		<tag k="ssr:stedsnr" v="72357" />
		<tag k="waterway" v="stream" />
	</node>
	<node lat="62.52413610895181" lon="7.618016669396155" id="-5252">
		<tag k="name" v="Setervatna" />
		<tag k="natural" v="water" />
		<tag k="ssr:stedsnr" v="72383" />
		<tag k="water" v="lake" />
	</node>
	<node lat="62.577899996112784" lon="7.645275007558663" id="-5255">
		<tag k="name" v="Skorgeelva" />
		<tag k="ssr:stedsnr" v="72479" />
		<tag k="waterway" v="river" />
	</node>
	<node lat="62.60027499604354" lon="7.549780557099915" id="-5260">
		<tag k="fixme" v="multiple name tags, choose one and add the other to alt_name" />
		<tag k="name" v="Viåna;Viåa" />
		<tag k="ssr:stedsnr" v="72559" />
		<tag k="waterway" v="stream" />
	</node>
	<node lat="62.57828888702472" lon="7.600108336192831" id="-5273">
		<tag k="name" v="Bruntjønna" />
		<tag k="natural" v="water" />
		<tag k="ssr:stedsnr" v="81616" />
	</node>
	<node lat="62.59534444151661" lon="7.830938895893218" id="-5275">
		<tag k="name" v="Skarelva" />
		<tag k="ssr:stedsnr" v="82026" />
		<tag k="waterway" v="river" />
	</node>
	<node lat="62.42375277797622" lon="7.393363881653036" id="-5277">
		<tag k="name" v="Grønfonnelva" />
		<tag k="ssr:stedsnr" v="82278" />
		<tag k="waterway" v="river" />
	</node>
	<node lat="62.68110278051573" lon="7.6251916606657915" id="-5288">
		<tag k="name" v="Nyfonna" />
		<tag k="ssr:stedsnr" v="93697" />
		<tag k="waterway" v="stream" />
	</node>
	<node lat="62.63345833618681" lon="7.523697224548533" id="-5292">
		<tag k="name" v="Sandneselva" />
		<tag k="ssr:stedsnr" v="94101" />
		<tag k="waterway" v="stream" />
	</node>
	<node lat="62.63730277739903" lon="7.6098472303184455" id="-5293">
		<tag k="name" v="Neselva" />
		<tag k="ssr:stedsnr" v="94194" />
		<tag k="waterway" v="river" />
	</node>
	<node lat="62.34191389319027" lon="8.058177771118363" id="-5314">
		<tag k="name" v="Svarthølfallet" />
		<tag k="ssr:stedsnr" v="96427" />
		<tag k="waterway" v="rapids" />
	</node>
	<node lat="62.48434444066848" lon="7.548230552401563" id="-5329">
		<tag k="name" v="Pe-Larshølen" />
		<tag k="place" v="locality" />
		<tag k="ssr:stedsnr" v="96841" />
	</node>
	<node lat="62.26630555226901" lon="8.049013881620422" id="-5344">
		<tag k="name" v="Kvernhusgrova" />
		<tag k="ssr:stedsnr" v="97491" />
		<tag k="waterway" v="stream" />
	</node>
	<node lat="62.465850001644824" lon="7.524619447939196" id="-5359">
		<tag k="name" v="Stokkholman" />
		<tag k="place" v="islet" />
		<tag k="ssr:stedsnr" v="97940" />
	</node>
	<node lat="62.32790833646125" lon="8.069694435683285" id="-5364">
		<tag k="name" v="Øybakkgrova" />
		<tag k="ssr:stedsnr" v="98531" />
		<tag k="waterway" v="stream" />
	</node>
	<node lat="62.44402500385815" lon="7.96186111240456" id="-5375">
		<tag k="name" v="Rangåa" />
		<tag k="ssr:stedsnr" v="132090" />
		<tag k="waterway" v="stream" />
	</node>
	<node lat="62.277699999957335" lon="7.931425008983518" id="-5383">
		<tag k="name" v="Skirifjelltjønnin" />
		<tag k="natural" v="water" />
		<tag k="ssr:stedsnr" v="132220" />
	</node>
	<node lat="62.466913891305595" lon="7.377077783903402" id="-5392">
		<tag k="name" v="Hammartindvatnet" />
		<tag k="natural" v="water" />
		<tag k="ssr:stedsnr" v="132887" />
	</node>
	<node lat="62.51744722340398" lon="7.80886665812069" id="-5395">
		<tag k="name" v="Venjesdalsvatnet" />
		<tag k="natural" v="water" />
		<tag k="ssr:stedsnr" v="133133" />
	</node>
	<node lat="62.502041664208974" lon="7.936938887706941" id="-5397">
		<tag k="name" v="Saufonnvatnet" />
		<tag k="natural" v="water" />
		<tag k="ssr:stedsnr" v="133200" />
	</node>
	<node lat="62.607111115183734" lon="7.637824995736332" id="-5401">
		<tag k="name" v="Selsetervatnet" />
		<tag k="natural" v="water" />
		<tag k="ssr:stedsnr" v="133550" />
		<tag k="water" v="lake" />
	</node>
	<node lat="62.69916667009319" lon="7.733672230351052" id="-5421">
		<tag k="name" v="Milthaugtjønna" />
		<tag k="natural" v="water" />
		<tag k="ssr:stedsnr" v="143576" />
	</node>
	<node lat="62.664661110988014" lon="7.63773333064052" id="-5427">
		<tag k="name" v="Geilbekken" />
		<tag k="ssr:stedsnr" v="153776" />
		<tag k="waterway" v="stream" />
	</node>
	<node lat="62.666375003117096" lon="7.686141659852763" id="-5428">
		<tag k="name" v="Seterbekken" />
		<tag k="ssr:stedsnr" v="153785" />
		<tag k="waterway" v="stream" />
	</node>
	<node lat="62.6347361142127" lon="7.519916659863263" id="-5430">
		<tag k="name" v="Kalvåa" />
		<tag k="ssr:stedsnr" v="154105" />
		<tag k="waterway" v="stream" />
	</node>
	<node lat="62.69234444305716" lon="7.630136115170009" id="-5432">
		<tag k="name" v="Kjøreldgrova" />
		<tag k="ssr:stedsnr" v="154199" />
		<tag k="waterway" v="stream" />
	</node>
	<node lat="62.609827773677615" lon="7.416055558313484" id="-5444">
		<tag k="name" v="Midtskredløypet" />
		<tag k="ssr:stedsnr" v="155543" />
		<tag k="waterway" v="stream" />
	</node>
	<node lat="62.57678889021471" lon="7.837686116332286" id="-5463">
		<tag k="name" v="Bjørnahølen" />
		<tag k="place" v="locality" />
		<tag k="ssr:stedsnr" v="157435" />
	</node>
	<node lat="62.338452780327195" lon="8.048972231679972" id="-5466">
		<tag k="name" v="Sørjordgrova" />
		<tag k="ssr:stedsnr" v="157374" />
		<tag k="waterway" v="stream" />
	</node>
	<node lat="62.576269445777605" lon="7.885044443182656" id="-5471">
		<tag k="name" v="Røndøla" />
		<tag k="ssr:stedsnr" v="157391" />
		<tag k="waterway" v="stream" />
	</node>
	<node lat="62.543138886157834" lon="7.8970916572019645" id="-5477">
		<tag k="name" v="Råkhauggrova" />
		<tag k="ssr:stedsnr" v="157670" />
		<tag k="waterway" v="stream" />
	</node>
	<node lat="62.51377778064286" lon="7.7717416644528745" id="-5481">
		<tag k="name" v="Fåtjønna" />
		<tag k="natural" v="water" />
		<tag k="ssr:stedsnr" v="157761" />
	</node>
	<node lat="62.51595833104961" lon="7.693841660893816" id="-5487">
		<tag k="name" v="Fossen" />
		<tag k="natural" v="waterfall" />
		<tag k="ssr:stedsnr" v="158037" />
	</node>
	<node lat="62.55519167016504" lon="7.422702783803305" id="-5497">
		<tag k="name" v="Inste Sausetelva" />
		<tag k="ssr:stedsnr" v="158924" />
		<tag k="waterway" v="stream" />
	</node>
	<node lat="62.41842221930429" lon="7.521380550486708" id="-5505">
		<tag k="name" v="Merratjørna" />
		<tag k="natural" v="water" />
		<tag k="ssr:stedsnr" v="192948" />
	</node>
	<node lat="62.30360555914399" lon="8.126316663474787" id="-5516">
		<tag k="name" v="Skiftesbekken" />
		<tag k="ssr:stedsnr" v="193217" />
		<tag k="waterway" v="stream" />
	</node>
	<node lat="62.51151111114436" lon="7.475361105466904" id="-5529">
		<tag k="name" v="Klauvvatnet" />
		<tag k="natural" v="water" />
		<tag k="ssr:stedsnr" v="193418" />
	</node>
	<node lat="62.45548611499971" lon="7.67156944143854" id="-5541">
		<tag k="name" v="Stigfossen" />
		<tag k="natural" v="waterfall" />
		<tag k="ssr:stedsnr" v="193964" />
	</node>
	<node lat="62.49848888653615" lon="7.355366675688737" id="-5544">
		<tag k="name" v="Skardfossen" />
		<tag k="natural" v="waterfall" />
		<tag k="ssr:stedsnr" v="193928" />
	</node>
	<node lat="62.4922861111713" lon="7.29004445140844" id="-5545">
		<tag k="name" v="Tverrelva" />
		<tag k="ssr:stedsnr" v="193930" />
		<tag k="waterway" v="stream" />
	</node>
	<node lat="62.44283055654552" lon="7.594119448895301" id="-5546">
		<tag k="name" v="Småhola" />
		<tag k="natural" v="water" />
		<tag k="ssr:stedsnr" v="193991" />
		<tag k="water" v="lake" />
	</node>
	<node lat="62.50231388479053" lon="7.73872221447686" id="-5549">
		<tag k="name" v="Leirgrova" />
		<tag k="ssr:stedsnr" v="194204" />
		<tag k="waterway" v="stream" />
	</node>
	<node lat="62.259105558009345" lon="7.692588882108312" id="-5562">
		<tag k="name" v="Grønåa" />
		<tag k="ssr:stedsnr" v="194816" />
		<tag k="waterway" v="river" />
	</node>
	<node lat="62.59740277575463" lon="7.6179222312346395" id="-5586">
		<tag k="name" v="Tverrlielva" />
		<tag k="ssr:stedsnr" v="215415" />
		<tag k="waterway" v="stream" />
	</node>
	<node lat="62.61444167111887" lon="7.497155550367245" id="-5590">
		<tag k="name" v="Hjellelva" />
		<tag k="ssr:stedsnr" v="216529" />
		<tag k="waterway" v="stream" />
	</node>
	<node lat="62.62203055144732" lon="7.451527769553462" id="-5595">
		<tag k="name" v="Bakkeelva" />
		<tag k="ssr:stedsnr" v="216567" />
		<tag k="waterway" v="stream" />
	</node>
	<node lat="62.576783336139876" lon="7.551066663147663" id="-5598">
		<tag k="name" v="Mjørneset" />
		<tag k="natural" v="cape" />
		<tag k="ssr:stedsnr" v="216749" />
	</node>
	<node lat="62.58242222496138" lon="7.54001110442798" id="-5600">
		<tag k="name" v="Jektvika" />
		<tag k="natural" v="bay" />
		<tag k="ssr:stedsnr" v="216961" />
	</node>
	<node lat="62.526355554770774" lon="7.726188881297131" id="-5605">
		<tag k="name" v="Soggegrova" />
		<tag k="ssr:stedsnr" v="218518" />
		<tag k="waterway" v="stream" />
	</node>
	<node lat="62.57632222498299" lon="7.846602785097203" id="-5615">
		<tag k="name" v="Hammarhølen" />
		<tag k="place" v="locality" />
		<tag k="ssr:stedsnr" v="218470" />
	</node>
	<node lat="62.60688055955204" lon="7.488072221733776" id="-5622">
		<tag k="name" v="Fantetjønna" />
		<tag k="natural" v="water" />
		<tag k="ssr:stedsnr" v="218541" />
	</node>
	<node lat="62.49611111136889" lon="7.604105556651075" id="-5633">
		<tag k="name" v="Haugabottselva" />
		<tag k="ssr:stedsnr" v="218951" />
		<tag k="waterway" v="stream" />
	</node>
	<node lat="62.52790278189118" lon="7.827869449869625" id="-5636">
		<tag k="name" v="Tverrelva" />
		<tag k="ssr:stedsnr" v="218752" />
		<tag k="waterway" v="stream" />
	</node>
	<node lat="62.30624167055712" lon="8.104741664452126" id="-5639">
		<tag k="name" v="Kleivhølen" />
		<tag k="place" v="locality" />
		<tag k="ssr:stedsnr" v="219547" />
	</node>
	<node lat="62.273969442299396" lon="8.105988886342805" id="-5641">
		<tag k="name" v="Fonngrova" />
		<tag k="ssr:stedsnr" v="219565" />
		<tag k="waterway" v="stream" />
	</node>
	<node lat="62.436355552121036" lon="7.976316671495889" id="-5646">
		<tag k="name" v="Grønfonnåa" />
		<tag k="ssr:stedsnr" v="219835" />
		<tag k="waterway" v="stream" />
	</node>
	<node lat="62.44078888811356" lon="7.4629638819204045" id="-5667">
		<tag k="name" v="Juvafossen" />
		<tag k="natural" v="waterfall" />
		<tag k="ssr:stedsnr" v="278245" />
	</node>
	<node lat="62.50002222111718" lon="7.329752772455695" id="-5692">
		<tag k="name" v="Storfonna" />
		<tag k="ssr:stedsnr" v="279450" />
		<tag k="waterway" v="stream" />
	</node>
	<node lat="62.58402500366719" lon="7.740258335018373" id="-5701">
		<tag k="name" v="Litleelva" />
		<tag k="ssr:stedsnr" v="279598" />
		<tag k="waterway" v="stream" />
	</node>
	<node lat="62.375980556457236" lon="8.02184166012652" id="-5713">
		<tag k="name" v="Kvernagrova" />
		<tag k="ssr:stedsnr" v="280347" />
		<tag k="waterway" v="stream" />
	</node>
	<node lat="62.36808333546521" lon="8.140461109760722" id="-5725">
		<tag k="name" v="Kaldåa" />
		<tag k="ssr:stedsnr" v="314042" />
		<tag k="waterway" v="stream" />
	</node>
	<node lat="62.27343611262587" lon="8.037649991343239" id="-5729">
		<tag k="name" v="Ulvåa" />
		<tag k="ssr:stedsnr" v="314151" />
		<tag k="waterway" v="river" />
	</node>
	<node lat="62.295350002768245" lon="7.8662861157087365" id="-5730">
		<tag k="name" v="Skarvskartjønna" />
		<tag k="natural" v="water" />
		<tag k="ssr:stedsnr" v="314228" />
	</node>
	<node lat="62.28758332956982" lon="7.832069450021392" id="-5733">
		<tag k="name" v="Hånådalselva" />
		<tag k="ssr:stedsnr" v="314250" />
		<tag k="waterway" v="stream" />
	</node>
	<node lat="62.520033335973636" lon="7.328086106817793" id="-5736">
		<tag k="name" v="Tøftelva" />
		<tag k="ssr:stedsnr" v="314441" />
		<tag k="waterway" v="stream" />
	</node>
	<node lat="62.493744440176975" lon="7.981405549477695" id="-5739">
		<tag k="name" v="Tangen" />
		<tag k="natural" v="cape" />
		<tag k="ssr:stedsnr" v="315067" />
	</node>
	<node lat="62.473361111029206" lon="7.884038898137595" id="-5741">
		<tag k="name" v="Fetjavatnet" />
		<tag k="natural" v="water" />
		<tag k="ssr:stedsnr" v="315082" />
	</node>
	<node lat="62.480811112789794" lon="7.612608330722408" id="-5742">
		<tag k="name" v="Haugabotsvatnet" />
		<tag k="natural" v="water" />
		<tag k="ssr:stedsnr" v="314857" />
	</node>
	<node lat="62.4303777803826" lon="7.5093027847608615" id="-5748">
		<tag k="name" v="Fossgrova" />
		<tag k="ssr:stedsnr" v="314982" />
		<tag k="waterway" v="stream" />
	</node>
	<node lat="62.65065555692428" lon="7.7372027718852365" id="-5757">
		<tag k="name" v="Nebbavatna" />
		<tag k="natural" v="water" />
		<tag k="ssr:stedsnr" v="315243" />
	</node>
	<node lat="62.54641666837947" lon="7.376561119907894" id="-5762">
		<tag k="name" v="Tverråa" />
		<tag k="ssr:stedsnr" v="315535" />
		<tag k="waterway" v="stream" />
	</node>
	<node lat="62.26106111483518" lon="7.64756944411636" id="-5772">
		<tag k="name" v="Blanktjørna" />
		<tag k="natural" v="water" />
		<tag k="ssr:stedsnr" v="315820" />
	</node>
	<node lat="62.55023888667734" lon="7.844066675297518" id="-5787">
		<tag k="name" v="Orrmyrgrova" />
		<tag k="ssr:stedsnr" v="325546" />
		<tag k="waterway" v="stream" />
	</node>
	<node lat="62.57107499556125" lon="7.815580556822291" id="-5790">
		<tag k="name" v="Kvernhusøya" />
		<tag k="place" v="island" />
		<tag k="ssr:stedsnr" v="325946" />
	</node>
	<node lat="62.52225278033572" lon="7.669733326241095" id="-5791">
		<tag k="name" v="Orfonngrova" />
		<tag k="ssr:stedsnr" v="325645" />
		<tag k="waterway" v="stream" />
	</node>
	<node lat="62.56686388995424" lon="7.748605548437686" id="-5792">
		<tag k="name" v="Vikåa" />
		<tag k="ssr:stedsnr" v="325975" />
		<tag k="waterway" v="river" />
	</node>
	<node lat="62.70649722318132" lon="7.737730551265786" id="-5796">
		<tag k="name" v="Seilbekken" />
		<tag k="ssr:stedsnr" v="335691" />
		<tag k="waterway" v="stream" />
	</node>
	<node lat="62.640333335616354" lon="7.547438897632439" id="-5800">
		<tag k="name" v="Fonnagrova" />
		<tag k="ssr:stedsnr" v="336082" />
		<tag k="waterway" v="stream" />
	</node>
	<node lat="62.626188892482155" lon="7.540783330179191" id="-5803">
		<tag k="name" v="Frøysetelva" />
		<tag k="ssr:stedsnr" v="336558" />
		<tag k="waterway" v="stream" />
	</node>
	<node lat="62.357852781758666" lon="7.967508324121451" id="-5823">
		<tag k="name" v="Storgrøfsa" />
		<tag k="ssr:stedsnr" v="339277" />
		<tag k="waterway" v="stream" />
	</node>
	<node lat="62.505261113770786" lon="7.3355250053896" id="-5830">
		<tag k="name" v="Kriken" />
		<tag k="ssr:stedsnr" v="339430" />
		<tag k="waterway" v="stream" />
	</node>
	<node lat="62.51713332998778" lon="7.37914167401774" id="-5831">
		<tag k="name" v="Svafossgrova" />
		<tag k="ssr:stedsnr" v="339433" />
		<tag k="waterway" v="stream" />
	</node>
	<node lat="62.58128055324195" lon="7.904261106082875" id="-5844">
		<tag k="name" v="Litleelva" />
		<tag k="ssr:stedsnr" v="340582" />
		<tag k="waterway" v="river" />
	</node>
	<node lat="62.50362222099116" lon="7.9362055476458" id="-5851">
		<tag k="name" v="Saufonnvatnet" />
		<tag k="natural" v="water" />
		<tag k="ssr:stedsnr" v="340864" />
		<tag k="water" v="lake" />
	</node>
	<node lat="62.282983334816336" lon="7.751183342625127" id="-5860">
		<tag k="name" v="Børrebottelva" />
		<tag k="ssr:stedsnr" v="374266" />
		<tag k="waterway" v="stream" />
	</node>
	<node lat="62.404925002270176" lon="7.462977776491804" id="-5863">
		<tag k="name" v="Sjøbolet" />
		<tag k="natural" v="water" />
		<tag k="ssr:stedsnr" v="374976" />
		<tag k="water" v="lake" />
	</node>
	<node lat="62.402378438970004" lon="8.102416283708106" id="-5864">
		<tag k="fixme" v="multiple name tags, choose one and add the other to alt_name" />
		<tag k="name" v="Storvatnet;Store Sandgrovvatnet" />
		<tag k="natural" v="water" />
		<tag k="ssr:stedsnr" v="375014" />
		<tag k="water" v="lake" />
	</node>
	<node lat="62.43418333246455" lon="7.764855554430774" id="-5867">
		<tag k="name" v="Nørdre Isglupen" />
		<tag k="natural" v="water" />
		<tag k="ssr:stedsnr" v="375097" />
		<tag k="water" v="lake" />
	</node>
	<node lat="62.47721944787547" lon="7.962241663798669" id="-5871">
		<tag k="name" v="Fleskevatnet" />
		<tag k="natural" v="water" />
		<tag k="ssr:stedsnr" v="375066" />
		<tag k="water" v="lake" />
	</node>
	<node lat="62.44886667049958" lon="7.75537500550415" id="-5872">
		<tag k="name" v="Børtjønna" />
		<tag k="natural" v="water" />
		<tag k="ssr:stedsnr" v="375076" />
	</node>
	<node lat="62.519577773611246" lon="7.845652775267701" id="-5873">
		<tag k="name" v="Hurrungsvatnet" />
		<tag k="natural" v="water" />
		<tag k="ssr:stedsnr" v="375190" />
	</node>
	<node lat="62.50440277974366" lon="7.439858327898132" id="-5874">
		<tag k="name" v="Staursetgrova" />
		<tag k="ssr:stedsnr" v="375347" />
		<tag k="waterway" v="stream" />
	</node>
	<node lat="62.51675277557307" lon="7.2921944450826715" id="-5876">
		<tag k="name" v="Stavvasselva" />
		<tag k="ssr:stedsnr" v="375356" />
		<tag k="waterway" v="stream" />
	</node>
	<node lat="62.57753055562994" lon="7.5536583253002565" id="-5885">
		<tag k="name" v="Gjerdsetvatnet" />
		<tag k="natural" v="water" />
		<tag k="ssr:stedsnr" v="375471" />
		<tag k="water" v="lake" />
	</node>
	<node lat="62.5782527779938" lon="7.579780556852748" id="-5886">
		<tag k="name" v="Fosselva" />
		<tag k="ssr:stedsnr" v="375475" />
		<tag k="waterway" v="stream" />
	</node>
	<node lat="62.43983610812612" lon="7.669455564739032" id="-5893">
		<tag k="name" v="Alnesvatnet" />
		<tag k="natural" v="water" />
		<tag k="ssr:stedsnr" v="375998" />
	</node>
	<node lat="62.621552773959394" lon="7.552961102116368" id="-5909">
		<tag k="name" v="Oraelva" />
		<tag k="ssr:stedsnr" v="385583" />
		<tag k="waterway" v="river" />
	</node>
	<node lat="62.50419722666678" lon="7.77040556372901" id="-5912">
		<tag k="name" v="Kvernagrova" />
		<tag k="ssr:stedsnr" v="385613" />
		<tag k="waterway" v="stream" />
	</node>
	<node lat="62.56164722617202" lon="7.7823361090994085" id="-5913">
		<tag k="name" v="Jamnåa" />
		<tag k="ssr:stedsnr" v="385617" />
		<tag k="waterway" v="stream" />
	</node>
	<node lat="62.57016110945425" lon="7.60374721397199" id="-5933">
		<tag k="name" v="Storløypet" />
		<tag k="place" v="locality" />
		<tag k="ssr:stedsnr" v="398074" />
	</node>
	<node lat="62.30178610849584" lon="8.115752778853086" id="-5960">
		<tag k="name" v="Brufossen" />
		<tag k="natural" v="waterfall" />
		<tag k="ssr:stedsnr" v="400521" />
	</node>
	<node lat="62.58772499730132" lon="7.485558327200869" id="-5962">
		<tag k="name" v="Eidselva" />
		<tag k="ssr:stedsnr" v="400580" />
		<tag k="waterway" v="stream" />
	</node>
	<node lat="62.56417222219169" lon="7.828080555937348" id="-5969">
		<tag k="name" v="Stordalsgrova" />
		<tag k="ssr:stedsnr" v="400642" />
		<tag k="waterway" v="stream" />
	</node>
	<node lat="62.6649944456811" lon="7.7784083380904905" id="-5978">
		<tag k="name" v="Mittetelva" />
		<tag k="ssr:stedsnr" v="400961" />
		<tag k="waterway" v="river" />
	</node>
	<node lat="62.27703055977613" lon="8.105766672825752" id="-5982">
		<tag k="name" v="Slåbekken" />
		<tag k="ssr:stedsnr" v="401545" />
		<tag k="waterway" v="stream" />
	</node>
	<node lat="62.578525002795956" lon="7.896524992205945" id="-5987">
		<tag k="name" v="Purkøya" />
		<tag k="place" v="island" />
		<tag k="ssr:stedsnr" v="401568" />
	</node>
	<node lat="62.259899998364894" lon="7.973516660109408" id="-5992">
		<tag k="name" v="Kabbåa" />
		<tag k="ssr:stedsnr" v="435197" />
		<tag k="waterway" v="stream" />
	</node>
	<node lat="62.36777778119688" lon="8.11209999635266" id="-5995">
		<tag k="name" v="Kaldåtjønna" />
		<tag k="natural" v="water" />
		<tag k="ssr:stedsnr" v="435057" />
	</node>
	<node lat="62.48696111548337" lon="7.396347225999459" id="-6000">
		<tag k="name" v="Urhaugvatnet" />
		<tag k="natural" v="water" />
		<tag k="ssr:stedsnr" v="435901" />
	</node>
	<node lat="62.31513611326219" lon="7.903102771845936" id="-6007">
		<tag k="name" v="Midtbottjørnin" />
		<tag k="natural" v="water" />
		<tag k="ssr:stedsnr" v="436189" />
	</node>
	<node lat="62.33328888853385" lon="8.057152769678144" id="-6008">
		<tag k="name" v="Storsteinbiten" />
		<tag k="ssr:stedsnr" v="436200" />
		<tag k="waterway" v="stream" />
	</node>
	<node lat="62.61249166632127" lon="7.5646027841752135" id="-6021">
		<tag k="name" v="Holmemelva" />
		<tag k="ssr:stedsnr" v="436538" />
		<tag k="waterway" v="stream" />
	</node>
	<node lat="62.47198888864198" lon="7.324702772522645" id="-6023">
		<tag k="name" v="Stortrollvatnet" />
		<tag k="natural" v="water" />
		<tag k="ssr:stedsnr" v="436876" />
		<tag k="water" v="lake" />
	</node>
	<node lat="62.4655749997081" lon="7.446344448591934" id="-6026">
		<tag k="name" v="Middagsvatnet" />
		<tag k="natural" v="water" />
		<tag k="ssr:stedsnr" v="436892" />
	</node>
	<node lat="62.449938892284074" lon="7.360341657114952" id="-6027">
		<tag k="name" v="Brynbottsvatnet" />
		<tag k="natural" v="water" />
		<tag k="ssr:stedsnr" v="436971" />
	</node>
	<node lat="62.44026944293916" lon="7.434580553298311" id="-6028">
		<tag k="name" v="Berillvatnet" />
		<tag k="natural" v="water" />
		<tag k="ssr:stedsnr" v="437000" />
	</node>
	<node lat="62.59070277340255" lon="7.764730562518284" id="-6029">
		<tag k="name" v="Markåna" />
		<tag k="ssr:stedsnr" v="437338" />
		<tag k="waterway" v="stream" />
	</node>
	<node lat="62.59054167047239" lon="7.818988882883835" id="-6030">
		<tag k="name" v="Skarelva" />
		<tag k="ssr:stedsnr" v="437339" />
		<tag k="waterway" v="stream" />
	</node>
	<node lat="62.297819446413655" lon="8.098816674389369" id="-6041">
		<tag k="name" v="Svaåa" />
		<tag k="ssr:stedsnr" v="496263" />
		<tag k="waterway" v="stream" />
	</node>
	<node lat="62.446691663014384" lon="7.78112221648942" id="-6050">
		<tag k="name" v="Kråkenesvatna" />
		<tag k="natural" v="water" />
		<tag k="ssr:stedsnr" v="496093" />
		<tag k="water" v="lake" />
	</node>
	<node lat="62.247930555693614" lon="7.885277780522973" id="-6052">
		<tag k="name" v="Ulvådalsvatnet" />
		<tag k="natural" v="water" />
		<tag k="ssr:stedsnr" v="496129" />
		<tag k="water" v="lake" />
	</node>
	<node lat="62.25219444430392" lon="7.845975002051326" id="-6053">
		<tag k="name" v="Tungegrova" />
		<tag k="ssr:stedsnr" v="496146" />
		<tag k="waterway" v="stream" />
	</node>
	<node lat="62.20517222185844" lon="7.848002768182872" id="-6062">
		<tag k="name" v="Kalvholelva" />
		<tag k="ssr:stedsnr" v="496182" />
		<tag k="waterway" v="stream" />
	</node>
	<node lat="62.51321389018297" lon="7.465541659497588" id="-6064">
		<tag k="name" v="Sandgrovvatnet" />
		<tag k="natural" v="water" />
		<tag k="old_name" v="Sandgrovatnet" />
		<tag k="ssr:stedsnr" v="496425" />
	</node>
	<node lat="62.51118333215389" lon="7.425894444353446" id="-6065">
		<tag k="name" v="Vemora" />
		<tag k="ssr:stedsnr" v="496441" />
		<tag k="waterway" v="river" />
	</node>
	<node lat="62.62312778166702" lon="7.793716670982408" id="-6070">
		<tag k="name" v="Ljøsåvatnet" />
		<tag k="natural" v="water" />
		<tag k="ssr:stedsnr" v="497343" />
		<tag k="water" v="lake" />
	</node>
	<node lat="62.48826389247826" lon="7.8133500034854135" id="-6080">
		<tag k="name" v="Olaskarsvatnet" />
		<tag k="natural" v="water" />
		<tag k="ssr:stedsnr" v="497063" />
		<tag k="water" v="lake" />
	</node>
	<node lat="62.49447222231349" lon="7.359702785336368" id="-6082">
		<tag k="name" v="Måsvasselva" />
		<tag k="ssr:stedsnr" v="496919" />
		<tag k="waterway" v="stream" />
	</node>
	<node lat="62.25869999700246" lon="7.673713886291182" id="-6086">
		<tag k="name" v="Grønvatnet" />
		<tag k="natural" v="water" />
		<tag k="ssr:stedsnr" v="497835" />
	</node>
	<node lat="62.692124997683" lon="7.673533332843793" id="-6099">
		<tag k="name" v="Lysåna" />
		<tag k="ssr:stedsnr" v="497696" />
		<tag k="waterway" v="stream" />
	</node>
	<node lat="62.57219722504348" lon="7.465277777857497" id="-6104">
		<tag k="loc_name" v="Sankt Olavs-renna" />
		<tag k="name" v="Sankt-Olavsrennen" />
		<tag k="ssr:stedsnr" v="506987" />
		<tag k="waterway" v="stream" />
	</node>
	<node lat="62.68431666947703" lon="7.615677783918987" id="-6119">
		<tag k="name" v="Gammelfonna" />
		<tag k="ssr:stedsnr" v="519143" />
		<tag k="waterway" v="stream" />
	</node>
	<node lat="62.42369166899072" lon="7.393405561614759" id="-6133">
		<tag k="name" v="Grønnfonnelva" />
		<tag k="ssr:stedsnr" v="521038" />
		<tag k="waterway" v="river" />
	</node>
	<node lat="62.52360832893254" lon="7.6195972232773475" id="-6137">
		<tag k="name" v="Litlevatnet" />
		<tag k="natural" v="water" />
		<tag k="ssr:stedsnr" v="521143" />
	</node>
	<node lat="62.52620555756415" lon="7.613741663729791" id="-6138">
		<tag k="name" v="Storvatnet" />
		<tag k="natural" v="water" />
		<tag k="ssr:stedsnr" v="521144" />
	</node>
	<node lat="62.505997224445956" lon="7.3439249977977505" id="-6147">
		<tag k="name" v="Langgrova" />
		<tag k="ssr:stedsnr" v="521436" />
		<tag k="waterway" v="stream" />
	</node>
	<node lat="62.52788888585024" lon="7.505941667823659" id="-6152">
		<tag k="name" v="Middagsgrova" />
		<tag k="ssr:stedsnr" v="521539" />
		<tag k="waterway" v="stream" />
	</node>
	<node lat="62.54897499809318" lon="7.726366663343918" id="-6158">
		<tag k="name" v="Sågrova" />
		<tag k="ssr:stedsnr" v="521732" />
		<tag k="waterway" v="stream" />
	</node>
	<node lat="62.53454166323073" lon="7.8966694402868" id="-6161">
		<tag k="name" v="Stallvadgrova" />
		<tag k="ssr:stedsnr" v="521801" />
		<tag k="waterway" v="stream" />
	</node>
	<node lat="62.46424444507385" lon="7.517474991379472" id="-6166">
		<tag k="name" v="Svarthølen" />
		<tag k="place" v="locality" />
		<tag k="ssr:stedsnr" v="521935" />
	</node>
	<node lat="62.376472219383686" lon="8.049624992589333" id="-6169">
		<tag k="name" v="Hellarfonna" />
		<tag k="ssr:stedsnr" v="522353" />
		<tag k="waterway" v="stream" />
	</node>
	<node lat="62.57951944335024" lon="7.9085111049425585" id="-6175">
		<tag k="name" v="Bjørdemmå" />
		<tag k="ssr:stedsnr" v="522570" />
		<tag k="waterway" v="stream" />
	</node>
	<node lat="62.40170833562914" lon="7.8055500016456225" id="-6189">
		<tag k="name" v="Slettflybottvatnet" />
		<tag k="natural" v="water" />
		<tag k="ssr:stedsnr" v="556015" />
		<tag k="water" v="lake" />
	</node>
	<node lat="62.55421667060677" lon="7.926597223458102" id="-6208">
		<tag k="name" v="Unjemsvatnet" />
		<tag k="natural" v="water" />
		<tag k="ssr:stedsnr" v="557124" />
	</node>
	<node lat="62.55842777807716" lon="7.747338883698127" id="-6212">
		<tag k="name" v="Vikåa" />
		<tag k="ssr:stedsnr" v="557179" />
		<tag k="waterway" v="stream" />
	</node>
	<node lat="62.50673055802593" lon="7.2447194432903395" id="-6214">
		<tag k="name" v="Øspevatnet" />
		<tag k="natural" v="water" />
		<tag k="ssr:stedsnr" v="557380" />
	</node>
	<node lat="62.30773610723516" lon="7.842727775585181" id="-6249">
		<tag k="name" v="Hånådalshaugtjønna" />
		<tag k="natural" v="water" />
		<tag k="ssr:stedsnr" v="572981" />
	</node>
	<node lat="62.67639444077932" lon="7.573274992034492" id="-6257">
		<tag k="name" v="Rottøgrova" />
		<tag k="ssr:stedsnr" v="578723" />
		<tag k="waterway" v="stream" />
	</node>
	<node lat="62.66189444533855" lon="7.532544444267401" id="-6263">
		<tag k="name" v="Innlåggrova" />
		<tag k="ssr:stedsnr" v="579488" />
		<tag k="waterway" v="stream" />
	</node>
	<node lat="62.43963610912135" lon="7.42655277711857" id="-6272">
		<tag k="name" v="Tangan" />
		<tag k="natural" v="cape" />
		<tag k="ssr:stedsnr" v="581273" />
	</node>
	<node lat="62.34271388804307" lon="8.055466670447943" id="-6284">
		<tag k="name" v="Svarthølen" />
		<tag k="place" v="locality" />
		<tag k="ssr:stedsnr" v="581436" />
	</node>
	<node lat="62.511113887762086" lon="7.7641861187548615" id="-6290">
		<tag k="name" v="Fivahølen" />
		<tag k="place" v="locality" />
		<tag k="ssr:stedsnr" v="581774" />
	</node>
	<node lat="62.50801944163561" lon="7.776750006945822" id="-6291">
		<tag k="name" v="Kattavatnet" />
		<tag k="natural" v="water" />
		<tag k="ssr:stedsnr" v="581777" />
	</node>
	<node lat="62.50982777967613" lon="7.777605563388584" id="-6292">
		<tag k="name" v="Botnevatnet" />
		<tag k="natural" v="water" />
		<tag k="ssr:stedsnr" v="581779" />
	</node>
	<node lat="62.5179972227648" lon="7.385522213042744" id="-6294">
		<tag k="name" v="Bårdsholmen" />
		<tag k="place" v="islet" />
		<tag k="ssr:stedsnr" v="582448" />
	</node>
	<node lat="62.48038333372149" lon="7.54153610591465" id="-6295">
		<tag k="name" v="Krokhølen" />
		<tag k="place" v="locality" />
		<tag k="ssr:stedsnr" v="581871" />
	</node>
	<node lat="62.43383055786271" lon="7.895541661458636" id="-6297">
		<tag k="name" v="Hjellhølen" />
		<tag k="place" v="locality" />
		<tag k="ssr:stedsnr" v="581887" />
	</node>
	<node lat="62.56871110985664" lon="7.810297230885098" id="-6308">
		<tag k="name" v="Svagrova" />
		<tag k="ssr:stedsnr" v="582426" />
		<tag k="waterway" v="stream" />
	</node>
	<node lat="62.6538305552833" lon="7.797049998488699" id="-6315">
		<tag k="name" v="Såtvasselva" />
		<tag k="ssr:stedsnr" v="582969" />
		<tag k="waterway" v="river" />
	</node>
	<node lat="62.49301110987118" lon="7.533280563311734" id="-6319">
		<tag k="name" v="Rabbelva" />
		<tag k="ssr:stedsnr" v="582867" />
		<tag k="waterway" v="stream" />
	</node>
	<node lat="62.42800000252731" lon="7.955025009493716" id="-6323">
		<tag k="name" v="Kjerkjefossen" />
		<tag k="natural" v="waterfall" />
		<tag k="ssr:stedsnr" v="582828" />
	</node>
	<node lat="62.39988333443055" lon="8.000947217640782" id="-6334">
		<tag k="name" v="Døntefossen" />
		<tag k="natural" v="waterfall" />
		<tag k="ssr:stedsnr" v="617028" />
	</node>
	<node lat="62.20273888649389" lon="7.715113885762131" id="-6336">
		<tag k="name" v="Søre Botnvatnet" />
		<tag k="natural" v="water" />
		<tag k="ssr:stedsnr" v="617058" />
		<tag k="water" v="lake" />
	</node>
	<node lat="62.31824722243945" lon="8.104919435072583" id="-6340">
		<tag k="name" v="Raudåa" />
		<tag k="ssr:stedsnr" v="617241" />
		<tag k="waterway" v="stream" />
	</node>
	<node lat="62.277886113671464" lon="7.797125005069443" id="-6342">
		<tag k="name" v="Bjørnaelva" />
		<tag k="ssr:stedsnr" v="617279" />
		<tag k="waterway" v="stream" />
	</node>
	<node lat="62.49234444586054" lon="7.501108330612592" id="-6343">
		<tag k="name" v="Mollavatnet" />
		<tag k="natural" v="water" />
		<tag k="ssr:stedsnr" v="617919" />
	</node>
	<node lat="62.47215833697336" lon="7.358697216532036" id="-6350">
		<tag k="alt_name" v="Måsvatnet, litle" />
		<tag k="name" v="Litle Måsvatnet" />
		<tag k="natural" v="water" />
		<tag k="ssr:stedsnr" v="617875" />
		<tag k="water" v="lake" />
	</node>
	<node lat="62.40057777819375" lon="7.381058325815306" id="-6352">
		<tag k="name" v="Taskedalsvatnet" />
		<tag k="natural" v="water" />
		<tag k="ssr:stedsnr" v="617967" />
		<tag k="water" v="lake" />
	</node>
	<node lat="62.44027221963355" lon="7.8288944392111794" id="-6355">
		<tag k="name" v="Ølmåa" />
		<tag k="ssr:stedsnr" v="618107" />
		<tag k="waterway" v="stream" />
	</node>
	<node lat="62.54496111004339" lon="7.775572225185474" id="-6356">
		<tag k="name" v="Storhestvatnet" />
		<tag k="natural" v="water" />
		<tag k="ssr:stedsnr" v="618120" />
	</node>
	<node lat="62.57488610999814" lon="7.942397227167784" id="-6359">
		<tag k="name" v="Morgådalselva" />
		<tag k="ssr:stedsnr" v="618139" />
		<tag k="waterway" v="stream" />
	</node>
	<node lat="62.5803222225849" lon="7.910250007698684" id="-6360">
		<tag k="name" v="Isa" />
		<tag k="ssr:stedsnr" v="618143" />
		<tag k="waterway" v="river" />
	</node>
	<node lat="62.580788891077134" lon="7.595977767949844" id="-6370">
		<tag k="fixme" v="multiple name tags, choose one and add the other to alt_name" />
		<tag k="name" v="Grindsvatnet;Grensvatnet" />
		<tag k="natural" v="water" />
		<tag k="ssr:stedsnr" v="618513" />
	</node>
	<node lat="62.672777775924004" lon="7.741261112851051" id="-6388">
		<tag k="name" v="Nyløbekken" />
		<tag k="ssr:stedsnr" v="638401" />
		<tag k="waterway" v="stream" />
	</node>
	<node lat="62.69817778092159" lon="7.690622216579032" id="-6392">
		<tag k="name" v="Yttermittetbekken" />
		<tag k="ssr:stedsnr" v="638535" />
		<tag k="waterway" v="stream" />
	</node>
	<node lat="62.660955553991094" lon="7.68443611461573" id="-6405">
		<tag k="name" v="Djupmyrbekken" />
		<tag k="ssr:stedsnr" v="639765" />
		<tag k="waterway" v="stream" />
	</node>
	<node lat="62.4327388854789" lon="7.964344451922698" id="-6420">
		<tag k="name" v="Rangåa" />
		<tag k="ssr:stedsnr" v="643822" />
		<tag k="waterway" v="river" />
	</node>
	<node lat="62.425958336662994" lon="7.92855554983785" id="-6429">
		<tag k="name" v="Bjørnahølen" />
		<tag k="place" v="locality" />
		<tag k="ssr:stedsnr" v="642863" />
	</node>
	<node lat="62.46539721895661" lon="7.519494438192386" id="-6431">
		<tag k="name" v="Kvislan" />
		<tag k="ssr:stedsnr" v="642921" />
		<tag k="waterway" v="stream" />
	</node>
	<node lat="62.51226388629672" lon="7.688958336299625" id="-6433">
		<tag k="name" v="Ølgrova" />
		<tag k="ssr:stedsnr" v="643135" />
		<tag k="waterway" v="stream" />
	</node>
	<node lat="62.578508329577325" lon="7.888800008149765" id="-6436">
		<tag k="name" v="Østerøya" />
		<tag k="place" v="island" />
		<tag k="ssr:stedsnr" v="643550" />
	</node>
	<node lat="62.58255555496628" lon="7.986663896691169" id="-6440">
		<tag k="name" v="Rabbeneset" />
		<tag k="natural" v="cape" />
		<tag k="ssr:stedsnr" v="643573" />
	</node>
	<node lat="62.28401388796253" lon="7.988230552390564" id="-6461">
		<tag k="name" v="Tverrelva" />
		<tag k="ssr:stedsnr" v="738249" />
		<tag k="waterway" v="stream" />
	</node>
	<node lat="62.519972225737725" lon="7.287158335038149" id="-6487">
		<tag k="name" v="Stavvatnet" />
		<tag k="natural" v="water" />
		<tag k="ssr:stedsnr" v="739400" />
		<tag k="water" v="lake" />
	</node>
	<node lat="62.474375002220796" lon="7.419441657687875" id="-6490">
		<tag k="name" v="Vemora" />
		<tag k="ssr:stedsnr" v="739874" />
		<tag k="waterway" v="stream" />
	</node>
	<node lat="62.515349997590704" lon="7.978380551111699" id="-6494">
		<tag k="name" v="Glutervatnet" />
		<tag k="natural" v="water" />
		<tag k="ssr:stedsnr" v="740220" />
		<tag k="water" v="lake" />
	</node>
	<node lat="62.67024999897906" lon="7.619441674008864" id="-6502">
		<tag k="name" v="Slemmeelva" />
		<tag k="ssr:stedsnr" v="740725" />
		<tag k="waterway" v="stream" />
	</node>
	<node lat="62.58358611546582" lon="7.748088896133495" id="-6504">
		<tag k="name" v="Kreken" />
		<tag k="ssr:stedsnr" v="749988" />
		<tag k="waterway" v="stream" />
	</node>
	<node lat="62.67632777686874" lon="7.602283342326744" id="-6531">
		<tag k="name" v="Breigrova" />
		<tag k="ssr:stedsnr" v="761788" />
		<tag k="waterway" v="stream" />
	</node>
	<node lat="62.46418889005931" lon="7.494527784660486" id="-6545">
		<tag k="name" v="Keilskrea" />
		<tag k="ssr:stedsnr" v="764164" />
		<tag k="waterway" v="stream" />
	</node>
	<node lat="62.58535555712334" lon="7.70321666720354" id="-6553">
		<tag k="name" v="Skjergrova" />
		<tag k="ssr:stedsnr" v="764559" />
		<tag k="waterway" v="stream" />
	</node>
	<node lat="62.50148611076407" lon="7.424986109892566" id="-6561">
		<tag k="name" v="Kaldgrova" />
		<tag k="ssr:stedsnr" v="764818" />
		<tag k="waterway" v="stream" />
	</node>
	<node lat="62.502758329378835" lon="7.767680558681983" id="-6563">
		<tag k="name" v="Fivaholmen" />
		<tag k="place" v="islet" />
		<tag k="ssr:stedsnr" v="764823" />
	</node>
	<node lat="62.53870555112141" lon="7.896211111303984" id="-6564">
		<tag k="name" v="Snipå" />
		<tag k="ssr:stedsnr" v="764683" />
		<tag k="waterway" v="stream" />
	</node>
	<node lat="62.463899997479054" lon="7.820875007037509" id="-6567">
		<tag k="name" v="Myrabøgrova" />
		<tag k="ssr:stedsnr" v="764966" />
		<tag k="waterway" v="stream" />
	</node>
	<node lat="62.49730000262425" lon="7.434705549325359" id="-6570">
		<tag k="name" v="Nessetgrova" />
		<tag k="ssr:stedsnr" v="764835" />
		<tag k="waterway" v="stream" />
	</node>
	<node lat="62.26871111167168" lon="8.038474997607373" id="-6576">
		<tag k="name" v="Fiskegrova" />
		<tag k="ssr:stedsnr" v="765534" />
		<tag k="waterway" v="stream" />
	</node>
	<node lat="62.357663886141744" lon="8.118000006263431" id="-6584">
		<tag k="name" v="Kalhøtjønna" />
		<tag k="natural" v="water" />
		<tag k="ssr:stedsnr" v="800052" />
	</node>
	<node lat="62.342230558962264" lon="7.815463886408458" id="-6585">
		<tag k="name" v="Vermevatnet" />
		<tag k="natural" v="water" />
		<tag k="ssr:stedsnr" v="800054" />
		<tag k="water" v="lake" />
	</node>
	<node lat="62.194911113888274" lon="7.9112916653378464" id="-6596">
		<tag k="name" v="Heimste Glupvatnet" />
		<tag k="natural" v="water" />
		<tag k="ssr:stedsnr" v="800168" />
		<tag k="water" v="lake" />
	</node>
	<node lat="62.31616111277884" lon="7.978391662957458" id="-6603">
		<tag k="name" v="Restjønnin" />
		<tag k="natural" v="water" />
		<tag k="ssr:stedsnr" v="800224" />
	</node>
	<node lat="62.64046111414614" lon="7.796736116998763" id="-6606">
		<tag k="name" v="Svartevatnet" />
		<tag k="natural" v="water" />
		<tag k="ssr:stedsnr" v="800257" />
	</node>
	<node lat="62.48004722647122" lon="7.29850278251301" id="-6612">
		<tag k="name" v="Månvatnet" />
		<tag k="natural" v="water" />
		<tag k="ssr:stedsnr" v="800876" />
		<tag k="water" v="lake" />
	</node>
	<node lat="62.47958611035416" lon="7.358849991406279" id="-6615">
		<tag k="alt_name" v="Måsvatnet, store" />
		<tag k="name" v="Store Måsvatnet" />
		<tag k="natural" v="water" />
		<tag k="ssr:stedsnr" v="800872" />
		<tag k="water" v="lake" />
	</node>
	<node lat="62.48840833248265" lon="7.530300004592683" id="-6617">
		<tag k="name" v="Nøselva" />
		<tag k="ssr:stedsnr" v="800881" />
		<tag k="waterway" v="stream" />
	</node>
	<node lat="62.46381111337487" lon="7.395241661315744" id="-6619">
		<tag k="name" v="Grønvatnet" />
		<tag k="natural" v="water" />
		<tag k="ssr:stedsnr" v="800885" />
	</node>
	<node lat="62.47676666936565" lon="7.440888882507976" id="-6620">
		<tag k="name" v="Tverråa" />
		<tag k="ssr:stedsnr" v="800895" />
		<tag k="waterway" v="stream" />
	</node>
	<node lat="62.48161388951734" lon="7.516897216368642" id="-6621">
		<tag k="name" v="Nøsvatnet" />
		<tag k="natural" v="water" />
		<tag k="ssr:stedsnr" v="800897" />
	</node>
	<node lat="62.657452774448984" lon="7.620200009592154" id="-6626">
		<tag k="name" v="Lomtjønna" />
		<tag k="natural" v="water" />
		<tag k="ssr:stedsnr" v="801626" />
	</node>
	<node lat="62.50875833371184" lon="7.359763882970982" id="-6630">
		<tag k="name" v="Kjeøya" />
		<tag k="place" v="islet" />
		<tag k="ssr:stedsnr" v="810128" />
	</node>
	<node lat="62.49544166884385" lon="7.748116660357379" id="-6637">
		<tag k="name" v="Langhølen" />
		<tag k="place" v="locality" />
		<tag k="ssr:stedsnr" v="815953" />
	</node>
	<node lat="62.63343333627079" lon="7.534105557183421" id="-6646">
		<tag k="name" v="Lasseveita" />
		<tag k="ssr:stedsnr" v="822099" />
		<tag k="waterway" v="stream" />
	</node>
	<node lat="62.57190277553605" lon="7.551222228800903" id="-6650">
		<tag k="name" v="Åsabukta" />
		<tag k="natural" v="bay" />
		<tag k="ssr:stedsnr" v="823842" />
	</node>
	<node lat="62.49751389000822" lon="7.764916669302424" id="-6656">
		<tag k="name" v="Toftehølen" />
		<tag k="place" v="locality" />
		<tag k="ssr:stedsnr" v="824876" />
	</node>
	<node lat="62.48232778035681" lon="7.548480562149027" id="-6659">
		<tag k="name" v="Meierigrova" />
		<tag k="ssr:stedsnr" v="824862" />
		<tag k="waterway" v="stream" />
	</node>
	<node lat="62.488955554282306" lon="7.752894443029067" id="-6678">
		<tag k="name" v="Rekvedhølen" />
		<tag k="place" v="locality" />
		<tag k="ssr:stedsnr" v="825357" />
	</node>
	<node lat="62.53317500412458" lon="7.822136119699914" id="-6682">
		<tag k="name" v="Tverrelva" />
		<tag k="ssr:stedsnr" v="825733" />
		<tag k="waterway" v="stream" />
	</node>
	<node lat="62.4913166690088" lon="7.432608324595978" id="-6683">
		<tag k="name" v="Heimste Tverråna" />
		<tag k="ssr:stedsnr" v="825793" />
		<tag k="waterway" v="stream" />
	</node>
	<node lat="62.503588890498484" lon="7.5720250007819025" id="-6687">
		<tag k="name" v="Kyråna" />
		<tag k="ssr:stedsnr" v="825879" />
		<tag k="waterway" v="stream" />
	</node>
	<node lat="62.57750555401985" lon="7.99680832925952" id="-6693">
		<tag k="name" v="Kaldbekken" />
		<tag k="ssr:stedsnr" v="826587" />
		<tag k="waterway" v="river" />
	</node>
	<node lat="62.21414999558249" lon="7.828758324678175" id="-6702">
		<tag k="name" v="Puttåa" />
		<tag k="ssr:stedsnr" v="860146" />
		<tag k="waterway" v="river" />
	</node>
	<node lat="62.49738333402435" lon="7.24624166228329" id="-6710">
		<tag k="name" v="Geitemjølktindvatnet" />
		<tag k="natural" v="water" />
		<tag k="ssr:stedsnr" v="860951" />
	</node>
	<node lat="62.48530277407115" lon="7.257236119180102" id="-6713">
		<tag k="name" v="Kvassetindvatnet" />
		<tag k="natural" v="water" />
		<tag k="ssr:stedsnr" v="860898" />
		<tag k="water" v="lake" />
	</node>
	<node lat="62.48158055368973" lon="7.851000009155928" id="-6717">
		<tag k="name" v="Svartevatnet" />
		<tag k="natural" v="water" />
		<tag k="ssr:stedsnr" v="861080" />
		<tag k="water" v="lake" />
	</node>
	<node lat="62.45678055940929" lon="7.813241662253555" id="-6719">
		<tag k="name" v="Langodden" />
		<tag k="natural" v="cape" />
		<tag k="ssr:stedsnr" v="861094" />
	</node>
	<node lat="62.63152222574479" lon="7.73479721921389" id="-6725">
		<tag k="name" v="Såtskarvatnet" />
		<tag k="natural" v="water" />
		<tag k="ssr:stedsnr" v="861329" />
	</node>
	<node lat="62.54432222070965" lon="7.832175005302507" id="-6727">
		<tag k="name" v="Venjeåa" />
		<tag k="ssr:stedsnr" v="861123" />
		<tag k="waterway" v="river" />
	</node>
	<node lat="62.55504166565404" lon="8.028500002613857" id="-6728">
		<tag k="alt_name" v="Bakkevatnet, nedre" />
		<tag k="name" v="Nedre Bakkevatnet" />
		<tag k="natural" v="water" />
		<tag k="ssr:stedsnr" v="861127" />
	</node>
	<node lat="62.507822219415814" lon="7.276294447621154" id="-6733">
		<tag k="name" v="Øspevasselva" />
		<tag k="ssr:stedsnr" v="861356" />
		<tag k="waterway" v="stream" />
	</node>
	<node lat="62.50634999653622" lon="7.5163083345426465" id="-6742">
		<tag k="name" v="Stokkelva" />
		<tag k="ssr:stedsnr" v="861346" />
		<tag k="waterway" v="stream" />
	</node>
	<node lat="62.49633055579787" lon="7.799150002351389" id="-6750">
		<tag k="name" v="Hornvatnet" />
		<tag k="natural" v="water" />
		<tag k="ssr:stedsnr" v="861850" />
	</node>
	<node lat="62.588036110859385" lon="7.811808325442161" id="-6763">
		<tag k="name" v="Breivikelva" />
		<tag k="ssr:stedsnr" v="871759" />
		<tag k="waterway" v="river" />
	</node>
	<node lat="62.660563886314165" lon="7.703408330366159" id="-6773">
		<tag k="name" v="Bollfjellelva" />
		<tag k="ssr:stedsnr" v="882933" />
		<tag k="waterway" v="river" />
	</node>
	<node lat="62.64702222009778" lon="7.59112500398896" id="-6777">
		<tag k="name" v="Rypeneset" />
		<tag k="natural" v="cape" />
		<tag k="ssr:stedsnr" v="883194" />
	</node>
	<node lat="62.577449999707" lon="7.82553333004861" id="-6789">
		<tag k="name" v="Hestholhølen" />
		<tag k="place" v="locality" />
		<tag k="ssr:stedsnr" v="885491" />
	</node>
	<node lat="62.52756388976319" lon="7.471825004130172" id="-6791">
		<tag k="name" v="Sandgrova" />
		<tag k="ssr:stedsnr" v="885530" />
		<tag k="waterway" v="stream" />
	</node>
	<node lat="62.51710000225405" lon="7.764313891615947" id="-6794">
		<tag k="name" v="Løken" />
		<tag k="ssr:stedsnr" v="885732" />
		<tag k="waterway" v="stream" />
	</node>
	<node lat="62.50995833254981" lon="7.881916663600871" id="-6797">
		<tag k="name" v="Kvanndalsvatnet" />
		<tag k="natural" v="water" />
		<tag k="ssr:stedsnr" v="885831" />
	</node>
	<node lat="62.507194445027096" lon="7.345355565041603" id="-6800">
		<tag k="name" v="Måna" />
		<tag k="ssr:stedsnr" v="886377" />
		<tag k="waterway" v="river" />
	</node>
	<node lat="62.47785833641058" lon="7.663163885800524" id="-6805">
		<tag k="name" v="Holman" />
		<tag k="place" v="islet" />
		<tag k="ssr:stedsnr" v="886079" />
	</node>
	<node lat="62.50580277356078" lon="7.6780277691666585" id="-6806">
		<tag k="name" v="Skillinggrova" />
		<tag k="ssr:stedsnr" v="886084" />
		<tag k="waterway" v="stream" />
	</node>
	<node lat="62.459238888403384" lon="7.490511107079924" id="-6808">
		<tag k="name" v="Raskrofonna" />
		<tag k="ssr:stedsnr" v="886173" />
		<tag k="waterway" v="stream" />
	</node>
	<node lat="62.5841666641051" lon="7.707719444144529" id="-6813">
		<tag k="name" v="Myragrova" />
		<tag k="ssr:stedsnr" v="886558" />
		<tag k="waterway" v="stream" />
	</node>
	<node lat="62.55159722301941" lon="7.427308340797121" id="-6822">
		<tag k="name" v="Frugjølet" />
		<tag k="ssr:stedsnr" v="886912" />
		<tag k="waterway" v="stream" />
	</node>
	<node lat="62.58360277774387" lon="7.775797220257869" id="-6830">
		<tag k="name" v="Håkåhølen" />
		<tag k="place" v="locality" />
		<tag k="ssr:stedsnr" v="887426" />
	</node>
	<node lat="62.49400000415033" lon="7.752958325802101" id="-6834">
		<tag k="name" v="Arnehølen" />
		<tag k="place" v="locality" />
		<tag k="ssr:stedsnr" v="936987" />
	</node>
	<node lat="62.685411109220254" lon="7.718433338576458" id="-6844">
		<tag k="name" v="Hestholbekken" />
		<tag k="ssr:stedsnr" v="943510" />
		<tag k="waterway" v="stream" />
	</node>
	<node lat="62.67449166799703" lon="7.571277784018912" id="-6856">
		<tag k="name" v="Råkelva" />
		<tag k="ssr:stedsnr" v="943886" />
		<tag k="waterway" v="stream" />
	</node>
	<node lat="62.61873055977577" lon="7.7457916596274945" id="-6857">
		<tag k="name" v="Langdalsgrova" />
		<tag k="ssr:stedsnr" v="943911" />
		<tag k="waterway" v="stream" />
	</node>
	<node lat="62.64882222662726" lon="7.70562777155809" id="-6859">
		<tag k="name" v="Litlebotnelva" />
		<tag k="ssr:stedsnr" v="943948" />
		<tag k="waterway" v="river" />
	</node>
	<node lat="62.433205555460084" lon="7.428327785872372" id="-6864">
		<tag k="name" v="Gamlestølsfonna" />
		<tag k="ssr:stedsnr" v="946149" />
		<tag k="waterway" v="stream" />
	</node>
	<node lat="62.50467777802898" lon="7.318738885649938" id="-6870">
		<tag k="name" v="Sortedeplå" />
		<tag k="ssr:stedsnr" v="946347" />
		<tag k="waterway" v="stream" />
	</node>
	<node lat="62.506616662191036" lon="7.875858329450708" id="-6883">
		<tag k="name" v="Tverrelvan" />
		<tag k="ssr:stedsnr" v="946851" />
		<tag k="waterway" v="stream" />
	</node>
	<node lat="62.47199167047139" lon="7.538302785562385" id="-6887">
		<tag k="name" v="Kvennagrova" />
		<tag k="ssr:stedsnr" v="946920" />
		<tag k="waterway" v="stream" />
	</node>
	<node lat="62.49961388521127" lon="7.574811117819072" id="-6890">
		<tag k="name" v="Vikelva" />
		<tag k="ssr:stedsnr" v="946947" />
		<tag k="waterway" v="stream" />
	</node>
	<node lat="62.558463888398606" lon="7.413302784210288" id="-6913">
		<tag k="name" v="Yste Sausetelva" />
		<tag k="ssr:stedsnr" v="947910" />
		<tag k="waterway" v="stream" />
	</node>
	<node lat="62.43811735532223" lon="7.816879711657135" id="-6916">
		<tag k="name" v="Ølmåfossen" />
		<tag k="natural" v="waterfall" />
		<tag k="ssr:stedsnr" v="975783" />
	</node>
</osm>
