<?xml version="1.0" encoding="UTF-8"?>
<osm generator="osmapis" version="0.6">
	<node id="-9728" lat="62.5623972194" lon="7.6695472237">
		<tag k="name" v="Kamsodden" />
		<tag k="natural" v="cape" />
		<tag k="ssr:stedsnr" v="718001" />
	</node>
	<node id="-11774" lat="62.5845083302" lon="7.53313888279">
		<tag k="name" v="Kalveneset" />
		<tag k="natural" v="cape" />
		<tag k="ssr:stedsnr" v="640975" />
	</node>
	<node id="-12284" lat="62.6704027763" lon="7.50500000276">
		<tag k="alt_name" v="Herjeskjeret" />
		<tag k="fixme" v="consider seamark:type=rock or natural=shoal" />
		<tag k="name" v="Herjeskjæret" />
		<tag k="place" v="islet" />
		<tag k="ssr:stedsnr" v="861728" />
	</node>
	<node id="-9721" lat="62.6587416684" lon="7.49730554907">
		<tag k="name" v="Askeneset" />
		<tag k="natural" v="cape" />
		<tag k="ssr:stedsnr" v="582118" />
	</node>
	<node id="-11766" lat="62.5686166703" lon="7.63609445064">
		<tag k="name" v="Teigabukta" />
		<tag k="natural" v="bay" />
		<tag k="ssr:stedsnr" v="640430" />
	</node>
	<node id="-12277" lat="62.5550583319" lon="7.55107221651">
		<tag k="name" v="Skothammaren" />
		<tag k="natural" v="cape" />
		<tag k="ssr:stedsnr" v="861531" />
	</node>
	<node id="-10225" lat="62.5670749959" lon="7.74399167457">
		<tag k="name" v="Presthola" />
		<tag k="natural" v="bay" />
		<tag k="ssr:stedsnr" v="947588" />
	</node>
	<node id="-10224" lat="62.5678972227" lon="7.72413610511">
		<tag k="name" v="Nesstranda" />
		<tag k="natural" v="beach" />
		<tag k="place" v="locality" />
		<tag k="ssr:stedsnr" v="947584" />
	</node>
	<node id="-9711" lat="62.5899305557" lon="7.5263083302">
		<tag k="name" v="Askotbukta" />
		<tag k="natural" v="bay" />
		<tag k="ssr:stedsnr" v="580936" />
	</node>
	<node id="-9708" lat="62.637540813" lon="7.49057868881">
		<tag k="alt_name" v="Laberget" />
		<tag k="fixme" v="multiple name tags, choose one and add the other to alt_name" />
		<tag k="name" v="Laberget;Leberget" />
		<tag k="natural" v="cape" />
		<tag k="ssr:stedsnr" v="580308" />
	</node>
	<node id="-11243" lat="62.5563527757" lon="7.56497777627">
		<tag k="name" v="Hatleholå" />
		<tag k="natural" v="bay" />
		<tag k="ssr:stedsnr" v="400128" />
	</node>
	<node id="-10729" lat="62.5965111073" lon="7.36307500569">
		<tag k="name" v="Skarbukta" />
		<tag k="natural" v="bay" />
		<tag k="ssr:stedsnr" v="142156" />
	</node>
	<node id="-9701" lat="62.6801777737" lon="7.56785832419">
		<tag k="name" v="Tangen" />
		<tag k="natural" v="cape" />
		<tag k="ssr:stedsnr" v="578855" />
	</node>
	<node id="-10722" lat="62.5953972257" lon="7.36397499595">
		<tag k="name" v="Skardbukta" />
		<tag k="natural" v="bay" />
		<tag k="ssr:stedsnr" v="133565" />
	</node>
	<node id="-10207" lat="62.6023361107" lon="7.36481667084">
		<tag k="name" v="Purkevikneset" />
		<tag k="natural" v="cape" />
		<tag k="ssr:stedsnr" v="946657" />
	</node>
	<node id="-11742" lat="62.7015777744" lon="7.69245554612">
		<tag k="name" v="Årodden" />
		<tag k="natural" v="cape" />
		<tag k="ssr:stedsnr" v="638458" />
	</node>
	<node id="-10204" lat="62.571802779" lon="7.46287500639">
		<tag k="name" v="Ormetunga" />
		<tag k="natural" v="cape" />
		<tag k="ssr:stedsnr" v="946586" />
	</node>
	<node id="-11218" lat="62.6841583328" lon="7.60654444773">
		<tag k="name" v="Slemmebukta" />
		<tag k="natural" v="bay" />
		<tag k="ssr:stedsnr" v="397166" />
	</node>
	<node id="-11216" lat="62.6319972225" lon="7.51522221426">
		<tag k="name" v="Byneset" />
		<tag k="natural" v="cape" />
		<tag k="ssr:stedsnr" v="397070" />
	</node>
	<node id="-10703" lat="62.6377555557" lon="7.48793888473">
		<tag k="name" v="Stanganeset" />
		<tag k="natural" v="cape" />
		<tag k="ssr:stedsnr" v="132668" />
	</node>
	<node id="-8781" lat="62.6087083335" lon="7.28767499486">
		<tag k="name" v="Øygardsbukta" />
		<tag k="natural" v="bay" />
		<tag k="ssr:stedsnr" v="112836" />
	</node>
	<node id="-8651" lat="62.7017972243" lon="7.67005000593">
		<tag k="name" v="Mittetskallen" />
		<tag k="natural" v="shoal" />
		<tag k="place" v="locality" />
		<tag k="ssr:stedsnr" v="233899" />
	</node>
	<node id="-8649" lat="62.6049250012" lon="7.51026111776">
		<tag k="name" v="Kolåsstranda" />
		<tag k="natural" v="beach" />
		<tag k="place" v="locality" />
		<tag k="ssr:stedsnr" v="233176" />
	</node>
	<node id="-11719" lat="62.6975333373" lon="7.68261111626">
		<tag k="name" v="Yttermittetbukta" />
		<tag k="natural" v="bay" />
		<tag k="ssr:stedsnr" v="618671" />
	</node>
	<node id="-12226" lat="62.6281333328" lon="7.51822222409">
		<tag k="name" v="Helleflua" />
		<tag k="natural" v="shoal" />
		<tag k="place" v="locality" />
		<tag k="ssr:stedsnr" v="840998" />
	</node>
	<node id="-11201" lat="62.6554666705" lon="7.49992500198">
		<tag k="name" v="Innerneset" />
		<tag k="natural" v="cape" />
		<tag k="ssr:stedsnr" v="385996" />
	</node>
	<node id="-11712" lat="62.5921194463" lon="7.368497231">
		<tag k="name" v="Hamneneset" />
		<tag k="natural" v="cape" />
		<tag k="ssr:stedsnr" v="618574" />
	</node>
	<node id="-10175" lat="62.557722218" lon="7.57351389401">
		<tag k="name" v="Hagabukta" />
		<tag k="natural" v="bay" />
		<tag k="ssr:stedsnr" v="946123" />
	</node>
	<node id="-9662" lat="62.6080000025" lon="7.32873054592">
		<tag k="name" v="Lundsbøneset" />
		<tag k="natural" v="cape" />
		<tag k="ssr:stedsnr" v="704211" />
	</node>
	<node id="-11765" lat="62.5680833362" lon="7.62869721387">
		<tag k="name" v="Vikabukta" />
		<tag k="natural" v="bay" />
		<tag k="ssr:stedsnr" v="640429" />
	</node>
	<node id="-11707" lat="62.5810222237" lon="7.53547777209">
		<tag k="fixme" v="multiple name tags, choose one and add the other to alt_name" />
		<tag k="name" v="Hamrevågen;Straumsvågen" />
		<tag k="natural" v="bay" />
		<tag k="ssr:stedsnr" v="618515" />
	</node>
	<node id="-10169" lat="62.5881305517" lon="7.52988334256">
		<tag k="name" v="Tømmerbukta" />
		<tag k="natural" v="bay" />
		<tag k="ssr:stedsnr" v="944806" />
	</node>
	<node id="-9656" lat="62.5094194443" lon="7.54893889729">
		<tag k="name" v="Olasdjupet" />
		<tag k="place" v="locality" />
		<tag k="ssr:stedsnr" v="703916" />
	</node>
	<node id="-9460" lat="62.6616305596" lon="7.49630834258">
		<tag k="name" v="Åfarnesbåen" />
		<tag k="natural" v="shoal" />
		<tag k="place" v="locality" />
		<tag k="ssr:stedsnr" v="657847" />
	</node>
	<node id="-10166" lat="62.6179527822" lon="7.40640000782">
		<tag k="name" v="Lyngsteinbukta" />
		<tag k="natural" v="bay" />
		<tag k="ssr:stedsnr" v="944680" />
	</node>
	<node id="-10675" lat="62.6814333315" lon="7.60224721317">
		<tag k="name" v="Ytre Slemmebukta" />
		<tag k="natural" v="bay" />
		<tag k="ssr:stedsnr" v="111876" />
	</node>
	<node id="-10674" lat="62.6411333364" lon="7.46141388904">
		<tag k="name" v="Nosa" />
		<tag k="natural" v="cape" />
		<tag k="ssr:stedsnr" v="111987" />
	</node>
	<node id="-10673" lat="62.6504222194" lon="7.43045000232">
		<tag k="name" v="Katturdungen" />
		<tag k="natural" v="shoal" />
		<tag k="place" v="locality" />
		<tag k="ssr:stedsnr" v="111974" />
	</node>
	<node id="-10568" lat="62.6435611139" lon="7.50728056495">
		<tag k="name" v="Kroksetbukta" />
		<tag k="natural" v="bay" />
		<tag k="ssr:stedsnr" v="81986" />
	</node>
	<node id="-9642" lat="62.6207888846" lon="7.24252221342">
		<tag k="name" v="Hjelvikneset" />
		<tag k="natural" v="cape" />
		<tag k="ssr:stedsnr" v="703290" />
	</node>
	<node id="-11249" lat="62.6077944414" lon="7.35910000362">
		<tag k="alt_name" v="Helgestøneset" />
		<tag k="name" v="Helgestøsnagen" />
		<tag k="natural" v="cape" />
		<tag k="ssr:stedsnr" v="400210" />
	</node>
	<node id="-9124" lat="62.5647527786" lon="7.59933888364">
		<tag k="name" v="Torvikbukta" />
		<tag k="natural" v="bay" />
		<tag k="ssr:stedsnr" v="279136" />
	</node>
	<node id="-10653" lat="62.5956055574" lon="7.34867778208">
		<tag k="name" v="Kleivbukta" />
		<tag k="natural" v="bay" />
		<tag k="ssr:stedsnr" v="97689" />
	</node>
	<node id="-10080" lat="62.6345888924" lon="7.50906388307">
		<tag k="name" v="Hallarneset" />
		<tag k="natural" v="cape" />
		<tag k="ssr:stedsnr" v="823917" />
	</node>
	<node id="-9110" lat="62.6096222247" lon="7.54055556097">
		<tag k="name" v="Holmemneset" />
		<tag k="natural" v="cape" />
		<tag k="ssr:stedsnr" v="459537" />
	</node>
	<node id="-9544" lat="62.6392777807" lon="7.48459443879">
		<tag k="name" v="Ottestadbukta" />
		<tag k="natural" v="bay" />
		<tag k="ssr:stedsnr" v="519412" />
	</node>
	<node id="-12179" lat="62.5837555571" lon="7.72115555207">
		<tag k="name" v="Grøgardsneset" />
		<tag k="natural" v="cape" />
		<tag k="ssr:stedsnr" v="825538" />
	</node>
	<node id="-9105" lat="62.6412999979" lon="7.47798054916">
		<tag k="name" v="Røysneset" />
		<tag k="natural" v="cape" />
		<tag k="ssr:stedsnr" v="459345" />
	</node>
	<node id="-9614" lat="62.5413888882" lon="7.51532222504">
		<tag k="name" v="Hovdeneset" />
		<tag k="natural" v="cape" />
		<tag k="ssr:stedsnr" v="557407" />
	</node>
	<node id="-11661" lat="62.6159472187" lon="7.27253889236">
		<tag k="name" v="Kormesetbukta" />
		<tag k="natural" v="bay" />
		<tag k="ssr:stedsnr" v="597840" />
	</node>
	<node id="-11660" lat="62.5359416626" lon="7.47143056468">
		<tag k="name" v="Bogen" />
		<tag k="natural" v="bay" />
		<tag k="ssr:stedsnr" v="597348" />
	</node>
	<node id="-10766" lat="62.6928611097" lon="7.62295554697">
		<tag k="name" v="Morkaneset" />
		<tag k="natural" v="cape" />
		<tag k="ssr:stedsnr" v="154166" />
	</node>
	<node id="-9032" lat="62.5427277753" lon="7.51483056028">
		<tag k="name" v="Matflea" />
		<tag k="natural" v="cape" />
		<tag k="ssr:stedsnr" v="445569" />
	</node>
	<node id="-8708" lat="62.5261166637" lon="7.54555555852">
		<tag k="bay" v="fjord" />
		<tag k="name" v="Innfjorden" />
		<tag k="natural" v="bay" />
		<tag k="ssr:stedsnr" v="253930" />
	</node>
	<node id="-9601" lat="62.6195073979" lon="7.36710202886">
		<tag k="bay" v="fjord" />
		<tag k="name" v="Romsdalsfjorden" />
		<tag k="natural" v="bay" />
		<tag k="ssr:stedsnr" v="557053" />
	</node>
	<node id="-11136" lat="62.5051444453" lon="7.54052500646">
		<tag k="name" v="Stokkebogen" />
		<tag k="natural" v="bay" />
		<tag k="ssr:stedsnr" v="354340" />
	</node>
	<node id="-11135" lat="62.6050583369" lon="7.41217499861">
		<tag k="name" v="Hestaneset" />
		<tag k="natural" v="cape" />
		<tag k="ssr:stedsnr" v="354154" />
	</node>
	<node id="-8574" lat="62.5941750018" lon="7.34250000546">
		<tag k="name" v="Kjølsetneset" />
		<tag k="natural" v="cape" />
		<tag k="ssr:stedsnr" v="218672" />
	</node>
	<node id="-8573" lat="62.6062777762" lon="7.30775832463">
		<tag k="name" v="Aretbukta" />
		<tag k="natural" v="bay" />
		<tag k="ssr:stedsnr" v="218760" />
	</node>
	<node id="-9084" lat="62.6977083369" lon="7.67773887918">
		<tag k="alt_name" v="Lysåneset" />
		<tag k="name" v="Ljøsåneset" />
		<tag k="natural" v="cape" />
		<tag k="ssr:stedsnr" v="457531" />
	</node>
	<node id="-9279" lat="62.6215861092" lon="7.24733611937">
		<tag k="name" v="Kåvikneset" />
		<tag k="natural" v="cape" />
		<tag k="ssr:stedsnr" v="354836" />
	</node>
	<node id="-11638" lat="62.57448611" lon="7.65821943896">
		<tag k="name" v="Hegerholmsbukta" />
		<tag k="natural" v="bay" />
		<tag k="ssr:stedsnr" v="582612" />
	</node>
	<node id="-12146" lat="62.612286112" lon="7.24294721498">
		<tag k="name" v="Sanden" />
		<tag k="natural" v="beach" />
		<tag k="place" v="locality" />
		<tag k="ssr:stedsnr" v="825181" />
	</node>
	<node id="-10097" lat="62.5890055574" lon="7.54093054655">
		<tag k="name" v="Bakkeneset" />
		<tag k="natural" v="cape" />
		<tag k="ssr:stedsnr" v="216959" />
	</node>
	<node id="-11632" lat="62.6054388896" lon="7.3620444494">
		<tag k="name" v="Naustneset" />
		<tag k="natural" v="cape" />
		<tag k="ssr:stedsnr" v="582698" />
	</node>
	<node id="-10472" lat="62.5761944435" lon="7.66599723193">
		<tag k="name" v="Sjøløypneset" />
		<tag k="natural" v="cape" />
		<tag k="ssr:stedsnr" v="36558" />
	</node>
	<node id="-12142" lat="62.5355222188" lon="7.51550833563">
		<tag k="name" v="Kleivneset" />
		<tag k="natural" v="cape" />
		<tag k="ssr:stedsnr" v="825162" />
	</node>
	<node id="-12141" lat="62.5319888852" lon="7.559938896">
		<tag k="name" v="Skoltaneset" />
		<tag k="natural" v="cape" />
		<tag k="ssr:stedsnr" v="825159" />
	</node>
	<node id="-12138" lat="62.5069694477" lon="7.53994444176">
		<tag k="alt_name" v="Stokkeneset" />
		<tag k="name" v="Stokkneset" />
		<tag k="natural" v="cape" />
		<tag k="ssr:stedsnr" v="824901" />
	</node>
	<node id="-9577" lat="62.6165805547" lon="7.54100000798">
		<tag k="name" v="Seljevollbukta" />
		<tag k="natural" v="bay" />
		<tag k="ssr:stedsnr" v="700586" />
	</node>
	<node id="-9576" lat="62.6695083309" lon="7.53043056068">
		<tag k="name" v="Sagneset" />
		<tag k="natural" v="cape" />
		<tag k="ssr:stedsnr" v="700444" />
	</node>
	<node id="-8551" lat="62.6076944421" lon="7.29035278433">
		<tag k="name" v="Kvisla" />
		<tag k="natural" v="bay" />
		<tag k="ssr:stedsnr" v="218061" />
	</node>
	<node id="-12133" lat="62.594625001" lon="7.54551945203">
		<tag k="name" v="Stranda" />
		<tag k="natural" v="beach" />
		<tag k="place" v="locality" />
		<tag k="ssr:stedsnr" v="823984" />
	</node>
	<node id="-11620" lat="62.6212638914" lon="7.25014166546">
		<tag k="name" v="Kåvika" />
		<tag k="natural" v="bay" />
		<tag k="ssr:stedsnr" v="582240" />
	</node>
	<node id="-12131" lat="62.6074472181" lon="7.53545832851">
		<tag k="name" v="Notberget" />
		<tag k="natural" v="cape" />
		<tag k="ssr:stedsnr" v="823872" />
	</node>
	<node id="-10594" lat="62.6147194405" lon="7.50567777378">
		<tag k="name" v="Skitnevika" />
		<tag k="natural" v="bay" />
		<tag k="ssr:stedsnr" v="94612" />
	</node>
	<node id="-10592" lat="62.6220388926" lon="7.53573888836">
		<tag k="name" v="Vorpa" />
		<tag k="natural" v="bay" />
		<tag k="ssr:stedsnr" v="94572" />
	</node>
	<node id="-11611" lat="62.56164722" lon="7.5191944363">
		<tag k="name" v="Skoganeset" />
		<tag k="natural" v="cape" />
		<tag k="ssr:stedsnr" v="582152" />
	</node>
	<node id="-9201" lat="62.5624027816" lon="7.41443610242">
		<tag k="name" v="Strandaneset" />
		<tag k="natural" v="cape" />
		<tag k="ssr:stedsnr" v="461918" />
	</node>
	<node id="-10581" lat="62.7079055527" lon="7.70916945402">
		<tag k="name" v="Sjølaupet" />
		<tag k="natural" v="cape" />
		<tag k="ssr:stedsnr" v="93606" />
	</node>
	<node id="-10575" lat="62.5819555535" lon="7.70724444305">
		<tag k="name" v="Felneset" />
		<tag k="natural" v="cape" />
		<tag k="ssr:stedsnr" v="82984" />
	</node>
	<node id="-9549" lat="62.5331361122" lon="7.52369722609">
		<tag k="name" v="Søvikneset" />
		<tag k="natural" v="cape" />
		<tag k="ssr:stedsnr" v="688512" />
	</node>
	<node id="-9036" lat="62.6814555513" lon="7.56372500962">
		<tag k="fixme" v="consider seamark:type=rock or natural=shoal" />
		<tag k="name" v="Skjæret" />
		<tag k="place" v="islet" />
		<tag k="ssr:stedsnr" v="446574" />
	</node>
	<node id="-9033" lat="62.5669250004" lon="7.62024722617">
		<tag k="name" v="Bergkallneset" />
		<tag k="natural" v="cape" />
		<tag k="ssr:stedsnr" v="445575" />
	</node>
	<node id="-10056" lat="62.535719446" lon="7.51082221335">
		<tag k="alt_name" v="Hovdevika" />
		<tag k="name" v="Hovdebukta" />
		<tag k="natural" v="bay" />
		<tag k="ssr:stedsnr" v="801409" />
	</node>
	<node id="-11587" lat="62.5221361113" lon="7.29069166719">
		<tag k="name" v="Bølegbukta" />
		<tag k="natural" v="bay" />
		<tag k="ssr:stedsnr" v="581556" />
	</node>
	<node id="-10560" lat="62.5416583316" lon="7.50098055346">
		<tag k="name" v="Røsta" />
		<tag k="natural" v="bay" />
		<tag k="ssr:stedsnr" v="73437" />
	</node>
	<node id="-9535" lat="62.5642111149" lon="7.60350832988">
		<tag k="name" v="Bjørgeneset" />
		<tag k="natural" v="cape" />
		<tag k="ssr:stedsnr" v="497526" />
	</node>
	<node id="-11070" lat="62.5541777761" lon="7.54927221419">
		<tag k="name" v="Purkevika" />
		<tag k="natural" v="bay" />
		<tag k="ssr:stedsnr" v="339174" />
	</node>
	<node id="-10041" lat="62.6179555582" lon="7.49732777843">
		<tag k="name" v="Hammarvollbukta" />
		<tag k="natural" v="bay" />
		<tag k="ssr:stedsnr" v="922672" />
	</node>
	<node id="-11061" lat="62.6163499999" lon="7.27174167463">
		<tag k="name" v="Sanden" />
		<tag k="natural" v="bay" />
		<tag k="ssr:stedsnr" v="339094" />
	</node>
	<node id="-11060" lat="62.5993055581" lon="7.54359722284">
		<tag k="alt_name" v="Viåneset" />
		<tag k="name" v="Vidåneset" />
		<tag k="natural" v="cape" />
		<tag k="ssr:stedsnr" v="338000" />
	</node>
	<node id="-10547" lat="62.5621250017" lon="7.59146665996">
		<tag k="name" v="Korsvikneset" />
		<tag k="natural" v="cape" />
		<tag k="ssr:stedsnr" v="72537" />
	</node>
	<node id="-10032" lat="62.5972416673" lon="7.52243054815">
		<tag k="name" v="Eidsholmen" />
		<tag k="place" v="islet" />
		<tag k="ssr:stedsnr" v="922584" />
	</node>
	<node id="-10026" lat="62.6077570477" lon="7.35834856274">
		<tag k="alt_name" v="Lefseholet" />
		<tag k="name" v="Lefsehola" />
		<tag k="natural" v="bay" />
		<tag k="ssr:stedsnr" v="922542" />
	</node>
	<node id="-11048" lat="62.6222861138" lon="7.49748333853">
		<tag k="name" v="Nothusberga" />
		<tag k="natural" v="cape" />
		<tag k="ssr:stedsnr" v="337513" />
	</node>
	<node id="-9511" lat="62.5970694452" lon="7.33889166931">
		<tag k="name" v="Vågen" />
		<tag k="natural" v="bay" />
		<tag k="ssr:stedsnr" v="679548" />
	</node>
	<node id="-12068" lat="62.5664916635" lon="7.62971111173">
		<tag k="name" v="Kolmanneset" />
		<tag k="natural" v="cape" />
		<tag k="ssr:stedsnr" v="800528" />
	</node>
	<node id="-12067" lat="62.5772999985" lon="7.37795278556">
		<tag k="name" v="Vorpeneset" />
		<tag k="natural" v="cape" />
		<tag k="ssr:stedsnr" v="800520" />
	</node>
	<node id="-11554" lat="62.5688999977" lon="7.64345833939">
		<tag k="name" v="Uraneset" />
		<tag k="natural" v="cape" />
		<tag k="ssr:stedsnr" v="567765" />
	</node>
	<node id="-9503" lat="62.6498750016" lon="7.43061667437">
		<tag k="alt_name" v="Katturda" />
		<tag k="fixme" v="consider seamark:type=rock or natural=shoal" />
		<tag k="name" v="Kattora" />
		<tag k="place" v="islet" />
		<tag k="ssr:stedsnr" v="679597" />
	</node>
	<node id="-12061" lat="62.6157277802" lon="7.5022361132">
		<tag k="name" v="Snekkarneset" />
		<tag k="natural" v="cape" />
		<tag k="ssr:stedsnr" v="800580" />
	</node>
	<node id="-9498" lat="62.5339694402" lon="7.51594444454">
		<tag k="name" v="Søvikbukta" />
		<tag k="natural" v="bay" />
		<tag k="ssr:stedsnr" v="679374" />
	</node>
	<node id="-8985" lat="62.4986027781" lon="7.56528610528">
		<tag k="name" v="Vikebogen" />
		<tag k="natural" v="bay" />
		<tag k="ssr:stedsnr" v="294327" />
	</node>
	<node id="-8984" lat="62.6079138855" lon="7.53937777285">
		<tag k="name" v="Holmemsundet" />
		<tag k="natural" v="strait" />
		<tag k="ssr:stedsnr" v="294189" />
	</node>
	<node id="-8983" lat="62.5990916684" lon="7.41557222661">
		<tag k="name" v="Brattneset" />
		<tag k="natural" v="cape" />
		<tag k="ssr:stedsnr" v="294123" />
	</node>
	<node id="-8982" lat="62.6019499955" lon="7.3643361041">
		<tag k="name" v="Kvernan" />
		<tag k="natural" v="cape" />
		<tag k="ssr:stedsnr" v="294088" />
	</node>
	<node id="-11540" lat="62.497913893" lon="7.55574444354">
		<tag k="name" v="Bøleira" />
		<tag k="natural" v="beach" />
		<tag k="place" v="locality" />
		<tag k="ssr:stedsnr" v="566525" />
	</node>
	<node id="-11536" lat="62.6810888857" lon="7.56821667256">
		<tag k="name" v="Holmsholmen" />
		<tag k="place" v="islet" />
		<tag k="ssr:stedsnr" v="557687" />
	</node>
	<node id="-11533" lat="62.7029111105" lon="7.70184167316">
		<tag k="name" v="Innermittetbukta" />
		<tag k="natural" v="bay" />
		<tag k="ssr:stedsnr" v="557666" />
	</node>
	<node id="-9996" lat="62.5857444486" lon="7.5140722311">
		<tag k="name" v="Frisvollbukta" />
		<tag k="natural" v="bay" />
		<tag k="ssr:stedsnr" v="921533" />
	</node>
	<node id="-10882" lat="62.6151083327" lon="7.406313895">
		<tag k="name" v="Lyngsteinneset" />
		<tag k="natural" v="cape" />
		<tag k="ssr:stedsnr" v="193589" />
	</node>
	<node id="-10505" lat="62.6214916697" lon="7.50559167076">
		<tag k="name" v="Hammarvollflua" />
		<tag k="natural" v="shoal" />
		<tag k="place" v="locality" />
		<tag k="ssr:stedsnr" v="52000" />
	</node>
	<node id="-10504" lat="62.6893472264" lon="7.59097223057">
		<tag k="name" v="Slemmeskallen" />
		<tag k="natural" v="shoal" />
		<tag k="place" v="locality" />
		<tag k="ssr:stedsnr" v="51897" />
	</node>
	<node id="-11015" lat="62.541452782" lon="7.51486667017">
		<tag k="name" v="Meisterflea" />
		<tag k="natural" v="cape" />
		<tag k="ssr:stedsnr" v="324537" />
	</node>
	<node id="-11521" lat="62.5852194439" lon="7.44358612025">
		<tag k="name" v="Norvikhalsen" />
		<tag k="natural" v="cape" />
		<tag k="ssr:stedsnr" v="557576" />
	</node>
	<node id="-12032" lat="62.6406416655" lon="7.46832500707">
		<tag k="name" v="Ottestadneset" />
		<tag k="natural" v="cape" />
		<tag k="ssr:stedsnr" v="779983" />
	</node>
	<node id="-12031" lat="62.6744888919" lon="7.53826666364">
		<tag k="name" v="Indre Herjegrunna" />
		<tag k="natural" v="shoal" />
		<tag k="place" v="locality" />
		<tag k="ssr:stedsnr" v="779886" />
	</node>
	<node id="-12030" lat="62.6136694403" lon="7.30434444444">
		<tag k="name" v="Vågebukta" />
		<tag k="natural" v="bay" />
		<tag k="ssr:stedsnr" v="779833" />
	</node>
	<node id="-9764" lat="62.70892778" lon="7.71371943563">
		<tag k="name" v="Slettfjerdingneset" />
		<tag k="natural" v="cape" />
		<tag k="ssr:stedsnr" v="657488" />
	</node>
	<node id="-11004" lat="62.5908444405" lon="7.36763334311">
		<tag k="name" v="Vågsbukta" />
		<tag k="natural" v="bay" />
		<tag k="ssr:stedsnr" v="315570" />
	</node>
	<node id="-10996" lat="62.6334861125" lon="7.41118054607">
		<tag k="name" v="Oksestranda" />
		<tag k="natural" v="beach" />
		<tag k="place" v="locality" />
		<tag k="ssr:stedsnr" v="315628" />
	</node>
	<node id="-9459" lat="62.6413333291" lon="7.50143333989">
		<tag k="name" v="Kroksetflua" />
		<tag k="natural" v="shoal" />
		<tag k="place" v="locality" />
		<tag k="ssr:stedsnr" v="657846" />
	</node>
	<node id="-9458" lat="62.5550472232" lon="7.55751389068">
		<tag k="name" v="Klungneset" />
		<tag k="natural" v="cape" />
		<tag k="ssr:stedsnr" v="657235" />
	</node>
	<node id="-10993" lat="62.607149996" lon="7.53211667422">
		<tag k="name" v="Holmemsholmen" />
		<tag k="place" v="islet" />
		<tag k="ssr:stedsnr" v="315545" />
	</node>
	<node id="-9456" lat="62.5029888907" lon="7.56649443584">
		<tag k="name" v="Hjellebogen" />
		<tag k="natural" v="bay" />
		<tag k="ssr:stedsnr" v="657210" />
	</node>
	<node id="-9512" lat="62.7247092798" lon="7.73290866756">
		<tag k="bay" v="fjord" />
		<tag k="name" v="Langfjorden" />
		<tag k="natural" v="bay" />
		<tag k="ssr:stedsnr" v="679691" />
	</node>
	<node id="-11496" lat="62.6453777741" lon="7.48770833935">
		<tag k="name" v="Øygardsdjupet" />
		<tag k="place" v="locality" />
		<tag k="ssr:stedsnr" v="536881" />
	</node>
	<node id="-10470" lat="62.5667388913" lon="7.74499167267">
		<tag k="name" v="Vikabogan" />
		<tag k="natural" v="bay" />
		<tag k="ssr:stedsnr" v="36545" />
	</node>
	<node id="-9957" lat="62.5791472255" lon="7.3755194495">
		<tag k="name" v="Storvika" />
		<tag k="natural" v="bay" />
		<tag k="ssr:stedsnr" v="764545" />
	</node>
	<node id="-9955" lat="62.5417055549" lon="7.47739444469">
		<tag k="name" v="Kobbeneset" />
		<tag k="natural" v="cape" />
		<tag k="ssr:stedsnr" v="764526" />
	</node>
	<node id="-9440" lat="62.713199997" lon="7.73766111456">
		<tag k="name" v="Geilbukta" />
		<tag k="natural" v="bay" />
		<tag k="ssr:stedsnr" v="518717" />
	</node>
	<node id="-10974" lat="62.5860305568" lon="7.36896944922">
		<tag k="name" v="Vågsneset" />
		<tag k="natural" v="cape" />
		<tag k="ssr:stedsnr" v="314634" />
	</node>
	<node id="-9943" lat="62.6805611128" lon="7.56447222677">
		<tag k="name" v="Knubben" />
		<tag k="natural" v="cape" />
		<tag k="ssr:stedsnr" v="760871" />
	</node>
	<node id="-9941" lat="62.6976805588" lon="7.67576666937">
		<tag k="name" v="Ljøsåvika" />
		<tag k="natural" v="bay" />
		<tag k="ssr:stedsnr" v="760543" />
	</node>
	<node id="-11983" lat="62.6193277781" lon="7.248111106">
		<tag k="alt_name" v="Yttervika" />
		<tag k="name" v="Juvika" />
		<tag k="natural" v="bay" />
		<tag k="ssr:stedsnr" v="764217" />
	</node>
	<node id="-11981" lat="62.6112916705" lon="7.22383889355">
		<tag k="name" v="Stranda" />
		<tag k="natural" v="beach" />
		<tag k="place" v="locality" />
		<tag k="ssr:stedsnr" v="764215" />
	</node>
	<node id="-10885" lat="62.6129805521" lon="7.22918889527">
		<tag k="name" v="Hjelvikbukta" />
		<tag k="natural" v="bay" />
		<tag k="ssr:stedsnr" v="193649" />
	</node>
	<node id="-11977" lat="62.5383138893" lon="7.57935000687">
		<tag k="name" v="Langvika" />
		<tag k="natural" v="bay" />
		<tag k="ssr:stedsnr" v="764189" />
	</node>
	<node id="-11976" lat="62.5245583359" lon="7.56109723125">
		<tag k="name" v="Steinneset" />
		<tag k="natural" v="cape" />
		<tag k="ssr:stedsnr" v="764188" />
	</node>
	<node id="-9414" lat="62.5929611071" lon="7.35138054974">
		<tag k="name" v="Skarbukta" />
		<tag k="natural" v="bay" />
		<tag k="ssr:stedsnr" v="507119" />
	</node>
	<node id="-11461" lat="62.6229055598" lon="7.26128333797">
		<tag k="name" v="Skålhamnholmen" />
		<tag k="place" v="islet" />
		<tag k="ssr:stedsnr" v="522229" />
	</node>
	<node id="-9924" lat="62.6565249997" lon="7.44950000048">
		<tag k="name" v="Hestholmen" />
		<tag k="place" v="islet" />
		<tag k="ssr:stedsnr" v="740613" />
	</node>
	<node id="-10435" lat="62.6391888852" lon="7.48882777302">
		<tag k="name" v="Odden" />
		<tag k="natural" v="cape" />
		<tag k="ssr:stedsnr" v="34341" />
	</node>
	<node id="-10434" lat="62.6367500034" lon="7.49073332787">
		<tag k="name" v="Hunnesbukta" />
		<tag k="natural" v="bay" />
		<tag k="ssr:stedsnr" v="34338" />
	</node>
	<node id="-9409" lat="62.6187750033" lon="7.54018054651">
		<tag k="name" v="Oraneset" />
		<tag k="natural" v="cape" />
		<tag k="ssr:stedsnr" v="506566" />
	</node>
	<node id="-10425" lat="62.6170361133" lon="7.49892777791">
		<tag k="name" v="Lakshammaren" />
		<tag k="natural" v="cape" />
		<tag k="ssr:stedsnr" v="33634" />
	</node>
	<node id="-10441" lat="62.5854527746" lon="7.53823056155">
		<tag k="name" v="Lerheimsbukta" />
		<tag k="natural" v="bay" />
		<tag k="ssr:stedsnr" v="34973" />
	</node>
	<node id="-8880" lat="62.6037500038" lon="7.36282222582">
		<tag k="name" v="Purkevika" />
		<tag k="natural" v="bay" />
		<tag k="ssr:stedsnr" v="279696" />
	</node>
	<node id="-9903" lat="62.5898555567" lon="7.50901111139">
		<tag k="name" v="Eidsbukta" />
		<tag k="natural" v="bay" />
		<tag k="ssr:stedsnr" v="901144" />
	</node>
	<node id="-9902" lat="62.6060833318" lon="7.52051110969">
		<tag k="name" v="Skallen" />
		<tag k="natural" v="shoal" />
		<tag k="place" v="locality" />
		<tag k="ssr:stedsnr" v="901186" />
	</node>
	<node id="-9899" lat="62.6033194442" lon="7.53263054905">
		<tag k="name" v="Holmemskjæra" />
		<tag k="natural" v="strait" />
		<tag k="ssr:stedsnr" v="718191" />
	</node>
	<node id="-8870" lat="62.4974638903" lon="7.56002500471">
		<tag k="name" v="Tangneset" />
		<tag k="natural" v="cape" />
		<tag k="ssr:stedsnr" v="278873" />
	</node>
	<node id="-10865" lat="62.5364583367" lon="7.56836388165">
		<tag k="name" v="Skoltavika" />
		<tag k="natural" v="bay" />
		<tag k="ssr:stedsnr" v="172227" />
	</node>
	<node id="-10864" lat="62.5900305552" lon="7.36941389216">
		<tag k="name" v="Vågsflua" />
		<tag k="natural" v="shoal" />
		<tag k="place" v="locality" />
		<tag k="ssr:stedsnr" v="172088" />
	</node>
	<node id="-11973" lat="62.5638083331" lon="7.59730277235">
		<tag k="name" v="Saltneset" />
		<tag k="natural" v="cape" />
		<tag k="ssr:stedsnr" v="764129" />
	</node>
	<node id="-10778" lat="62.5792055548" lon="7.53054723015">
		<tag k="name" v="Håneset" />
		<tag k="natural" v="cape" />
		<tag k="ssr:stedsnr" v="155541" />
	</node>
	<node id="-9071" lat="62.6209519523" lon="7.50896592018">
		<tag k="bay" v="fjord" />
		<tag k="name" v="Rødvenfjorden" />
		<tag k="natural" v="bay" />
		<tag k="ssr:stedsnr" v="254655" />
	</node>
	<node id="-11928" lat="62.6209222256" lon="7.26342499844">
		<tag k="name" v="Orvika" />
		<tag k="natural" v="bay" />
		<tag k="ssr:stedsnr" v="749666" />
	</node>
	<node id="-9412" lat="62.5271527778" lon="7.56285277287">
		<tag k="name" v="Grisetstranda" />
		<tag k="natural" v="beach" />
		<tag k="place" v="locality" />
		<tag k="ssr:stedsnr" v="506993" />
	</node>
	<node id="-11926" lat="62.6092472184" lon="7.53735556101">
		<tag k="name" v="Stillet" />
		<tag k="natural" v="cape" />
		<tag k="ssr:stedsnr" v="749583" />
	</node>
	<node id="-11118" lat="62.5706805564" lon="7.77958611404">
		<tag k="name" v="Steen" />
		<tag k="natural" v="cape" />
		<tag k="ssr:stedsnr" v="340460" />
	</node>
	<node id="-10383" lat="62.5768611109" lon="7.72817777657">
		<tag k="bay" v="fjord" />
		<tag k="name" v="Isfjorden" />
		<tag k="natural" v="bay" />
		<tag k="ssr:stedsnr" v="12526" />
	</node>
	<node id="-10894" lat="62.538030557" lon="7.46592778255">
		<tag k="name" v="Vollabukta" />
		<tag k="natural" v="bay" />
		<tag k="ssr:stedsnr" v="194381" />
	</node>
	<node id="-9109" lat="62.5786277766" lon="7.37826111235">
		<tag k="name" v="Storvikneset" />
		<tag k="natural" v="cape" />
		<tag k="ssr:stedsnr" v="278603" />
	</node>
	<node id="-9922" lat="62.5446694414" lon="7.47885833684">
		<tag k="name" v="Oterholmneset" />
		<tag k="natural" v="cape" />
		<tag k="ssr:stedsnr" v="740408" />
	</node>
	<node id="-11401" lat="62.5635583365" lon="7.5942583413">
		<tag k="name" v="Lønsvika" />
		<tag k="natural" v="bay" />
		<tag k="ssr:stedsnr" v="521138" />
	</node>
	<node id="-10373" lat="62.6292944415" lon="7.39705278135">
		<tag k="loc_name" v="Oksneset" />
		<tag k="name" v="Okseneset" />
		<tag k="natural" v="cape" />
		<tag k="ssr:stedsnr" v="11667" />
	</node>
	<node id="-11396" lat="62.6646000002" lon="7.50598610832">
		<tag k="name" v="Klungervika" />
		<tag k="natural" v="bay" />
		<tag k="ssr:stedsnr" v="521099" />
	</node>
	<node id="-10883" lat="62.7123472256" lon="7.73349443909">
		<tag k="name" v="Grovaneset" />
		<tag k="natural" v="cape" />
		<tag k="ssr:stedsnr" v="193484" />
	</node>
	<node id="-11394" lat="62.618294448" lon="7.2715888938">
		<tag k="name" v="Morteberget" />
		<tag k="natural" v="cape" />
		<tag k="ssr:stedsnr" v="521058" />
	</node>
	<node id="-11393" lat="62.6234166707" lon="7.26352499805">
		<tag k="name" v="Skålhamnholmen" />
		<tag k="place" v="islet" />
		<tag k="ssr:stedsnr" v="521057" />
	</node>
	<node id="-9152" lat="62.6099694416" lon="7.3306250005">
		<tag k="name" v="Skarveneset" />
		<tag k="natural" v="cape" />
		<tag k="ssr:stedsnr" v="461229" />
	</node>
	<node id="-9854" lat="62.5690972178" lon="7.68853611032">
		<tag k="name" v="Stamneset" />
		<tag k="natural" v="cape" />
		<tag k="ssr:stedsnr" v="886626" />
	</node>
	<node id="-8553" lat="62.6211999989" lon="7.26010278726">
		<tag k="name" v="Skålhamna" />
		<tag k="natural" v="bay" />
		<tag k="ssr:stedsnr" v="218215" />
	</node>
	<node id="-11889" lat="62.5651694436" lon="7.40356110163">
		<tag k="name" v="Stolsneset" />
		<tag k="natural" v="cape" />
		<tag k="ssr:stedsnr" v="739545" />
	</node>
	<node id="-11888" lat="62.5668166647" lon="7.47648055456">
		<tag k="name" v="Vindsneset" />
		<tag k="natural" v="cape" />
		<tag k="ssr:stedsnr" v="739543" />
	</node>
	<node id="-11709" lat="62.5769972198" lon="7.45748610275">
		<tag k="name" v="Haukebergneset" />
		<tag k="natural" v="cape" />
		<tag k="ssr:stedsnr" v="618517" />
	</node>
	<node id="-10250" lat="62.5726111098" lon="7.37875834216">
		<tag k="alt_name" v="Farkvamvika" />
		<tag k="name" v="Farkvamsbukta" />
		<tag k="natural" v="bay" />
		<tag k="ssr:stedsnr" v="885563" />
	</node>
	<node id="-10171" lat="62.5915611139" lon="7.52432776928">
		<tag k="name" v="Mjørneset" />
		<tag k="natural" v="cape" />
		<tag k="ssr:stedsnr" v="862603" />
	</node>
	<node id="-11621" lat="62.5283638921" lon="7.5287305559">
		<tag k="name" v="Hansbogan" />
		<tag k="natural" v="cape" />
		<tag k="ssr:stedsnr" v="582242" />
	</node>
	<node id="-10843" lat="62.5483861114" lon="7.43644999487">
		<tag k="name" v="Sæbøneset" />
		<tag k="natural" v="cape" />
		<tag k="ssr:stedsnr" v="157908" />
	</node>
	<node id="-8794" lat="62.5823416699" lon="7.73550832973">
		<tag k="name" v="Breivikbukta" />
		<tag k="natural" v="bay" />
		<tag k="ssr:stedsnr" v="264792" />
	</node>
	<node id="-11108" lat="62.5440166659" lon="7.43672778376">
		<tag k="name" v="Sæbøstranda" />
		<tag k="natural" v="beach" />
		<tag k="place" v="locality" />
		<tag k="ssr:stedsnr" v="339893" />
	</node>
	<node id="-9913" lat="62.6094861106" lon="7.51396943848">
		<tag k="fixme" v="consider seamark:type=rock or natural=shoal" />
		<tag k="name" v="Dynneskjera" />
		<tag k="place" v="islet" />
		<tag k="ssr:stedsnr" v="739567" />
	</node>
	<node id="-10323" lat="62.5539249989" lon="7.42649444918">
		<tag k="name" v="Sandvika" />
		<tag k="natural" v="bay" />
		<tag k="ssr:stedsnr" v="947909" />
	</node>
	<node id="-10322" lat="62.5504499964" lon="7.43259445318">
		<tag k="name" v="Juvika" />
		<tag k="natural" v="bay" />
		<tag k="ssr:stedsnr" v="947908" />
	</node>
	<node id="-9809" lat="62.681377782" lon="7.56749443509">
		<tag k="alt_name" v="Holmsbukta" />
		<tag k="name" v="Holmevika" />
		<tag k="natural" v="bay" />
		<tag k="ssr:stedsnr" v="882840" />
	</node>
	<node id="-10317" lat="62.5696277751" lon="7.68741667114">
		<tag k="name" v="Stamnesodden" />
		<tag k="natural" v="cape" />
		<tag k="ssr:stedsnr" v="947606" />
	</node>
	<node id="-8780" lat="62.6252499974" lon="7.24807500816">
		<tag k="name" v="Kåvikgrunna" />
		<tag k="natural" v="shoal" />
		<tag k="place" v="locality" />
		<tag k="ssr:stedsnr" v="112832" />
	</node>
	<node id="-9570" lat="62.6333444408" lon="7.51383610337">
		<tag k="name" v="Kalvabukta" />
		<tag k="natural" v="bay" />
		<tag k="ssr:stedsnr" v="700088" />
	</node>
	<node id="-9797" lat="62.5879055538" lon="7.5311305503">
		<tag k="name" v="Saltaneset" />
		<tag k="natural" v="cape" />
		<tag k="ssr:stedsnr" v="679471" />
	</node>
	<node id="-11840" lat="62.5682861114" lon="7.71162222806">
		<tag k="name" v="Skjertneset" />
		<tag k="natural" v="cape" />
		<tag k="ssr:stedsnr" v="643594" />
	</node>
	<node id="-11839" lat="62.5794666648" lon="7.74811945224">
		<tag k="name" v="Vikbogen" />
		<tag k="natural" v="bay" />
		<tag k="ssr:stedsnr" v="643581" />
	</node>
	<node id="-11326" lat="62.5247416691" lon="7.53029721256">
		<tag k="name" v="Bjørkåneset" />
		<tag k="natural" v="cape" />
		<tag k="ssr:stedsnr" v="415367" />
	</node>
	<node id="-9909" lat="62.5838730292" lon="7.46132039579">
		<tag k="name" v="Nørvikbukta" />
		<tag k="natural" v="bay" />
		<tag k="ssr:stedsnr" v="739619" />
	</node>
	<node id="-10762" lat="62.678783333" lon="7.56746945324">
		<tag k="name" v="Holmesundet" />
		<tag k="natural" v="strait" />
		<tag k="ssr:stedsnr" v="153924" />
	</node>
	<node id="-8745" lat="62.6384083289" lon="7.45204444353">
		<tag k="name" v="Lybergsvikbukta" />
		<tag k="natural" v="bay" />
		<tag k="ssr:stedsnr" v="95359" />
	</node>
	<node id="-10791" lat="62.5566999993" lon="7.56910833007">
		<tag k="name" v="Sauvike" />
		<tag k="natural" v="bay" />
		<tag k="ssr:stedsnr" v="157112" />
	</node>
	<node id="-9254" lat="62.6200722255" lon="7.51560277746">
		<tag k="name" v="Seljevollflua" />
		<tag k="natural" v="shoal" />
		<tag k="place" v="locality" />
		<tag k="ssr:stedsnr" v="475999" />
	</node>
	<node id="-9253" lat="62.6383611135" lon="7.4896833257">
		<tag k="name" v="Saupneset" />
		<tag k="natural" v="cape" />
		<tag k="ssr:stedsnr" v="475995" />
	</node>
	<node id="-10788" lat="62.5899027752" lon="7.54398056485">
		<tag k="name" v="Myrabukta" />
		<tag k="natural" v="bay" />
		<tag k="ssr:stedsnr" v="155970" />
	</node>
	<node id="-11390" lat="62.5954222212" lon="7.54565277701">
		<tag k="name" v="Digerneset" />
		<tag k="natural" v="cape" />
		<tag k="ssr:stedsnr" v="519997" />
	</node>
	<node id="-11808" lat="62.6019361108" lon="7.33731943909">
		<tag k="name" v="Håhammarbukta" />
		<tag k="natural" v="bay" />
		<tag k="ssr:stedsnr" v="642623" />
	</node>
	<node id="-9759" lat="62.5837888847" lon="7.71154166373">
		<tag k="name" v="Breivikstranda" />
		<tag k="natural" v="beach" />
		<tag k="place" v="locality" />
		<tag k="ssr:stedsnr" v="628976" />
	</node>
	<node id="-11806" lat="62.5955638928" lon="7.42070833315">
		<tag k="name" v="Hesteneset" />
		<tag k="natural" v="cape" />
		<tag k="ssr:stedsnr" v="642599" />
	</node>
	<node id="-9757" lat="62.5925861155" lon="7.36982776814">
		<tag k="fixme" v="consider seamark:type=rock or natural=shoal" />
		<tag k="name" v="Vågsskjæret" />
		<tag k="place" v="islet" />
		<tag k="ssr:stedsnr" v="628110" />
	</node>
	<node id="-11292" lat="62.5901944413" lon="7.36587777014">
		<tag k="name" v="Stranda" />
		<tag k="natural" v="beach" />
		<tag k="place" v="locality" />
		<tag k="ssr:stedsnr" v="400689" />
	</node>
	<node id="-11291" lat="62.6015694403" lon="7.33411943624">
		<tag k="name" v="Bjørkøyra" />
		<tag k="natural" v="cape" />
		<tag k="ssr:stedsnr" v="400676" />
	</node>
	<node id="-11802" lat="62.5375083357" lon="7.47532777305">
		<tag k="name" v="Vika" />
		<tag k="natural" v="bay" />
		<tag k="ssr:stedsnr" v="642506" />
	</node>
	<node id="-8879" lat="62.5917527755" lon="7.36792778138">
		<tag k="name" v="Vågshamna" />
		<tag k="natural" v="bay" />
		<tag k="ssr:stedsnr" v="279690" />
	</node>
	<node id="-9220" lat="62.6286972212" lon="7.49838333687">
		<tag k="name" v="Korseneset" />
		<tag k="natural" v="cape" />
		<tag k="ssr:stedsnr" v="519584" />
	</node>
	<node id="-11286" lat="62.5861111113" lon="7.4408083395">
		<tag k="name" v="Telegrafbukta" />
		<tag k="natural" v="bay" />
		<tag k="ssr:stedsnr" v="400619" />
	</node>
	<node id="-9731" lat="62.6740277747" lon="7.52858333135">
		<tag k="name" v="Ytre Herjegrunna" />
		<tag k="natural" v="shoal" />
		<tag k="place" v="locality" />
		<tag k="ssr:stedsnr" v="718884" />
	</node>
	<node id="-11278" lat="62.5716000042" lon="7.3827805488">
		<tag k="name" v="Haugneset" />
		<tag k="natural" v="cape" />
		<tag k="ssr:stedsnr" v="400566" />
	</node>
	<node id="-9730" lat="62.6851250032" lon="7.60689999045">
		<tag k="name" v="Indre Slemmebukta" />
		<tag k="natural" v="bay" />
		<tag k="ssr:stedsnr" v="718882" />
	</node>
	<node id="-12298" lat="62.656780552" lon="7.49773888227">
		<tag k="name" v="Innernesbukta" />
		<tag k="natural" v="bay" />
		<tag k="ssr:stedsnr" v="870997" />
	</node>
	<node id="-11782" lat="62.5367277774" lon="7.57029444292">
		<tag k="alt_name" v="Inneset" />
		<tag k="name" v="Innsneset" />
		<tag k="natural" v="cape" />
		<tag k="ssr:stedsnr" v="642203" />
	</node>
	<node id="-9732" lat="62.6167000014" lon="7.500686115">
		<tag k="name" v="Snekkarnesbukta" />
		<tag k="natural" v="bay" />
		<tag k="ssr:stedsnr" v="718997" />
	</node>
	<node id="-11779" lat="62.6643361151" lon="7.50369165905">
		<tag k="name" v="Klungerneset" />
		<tag k="natural" v="cape" />
		<tag k="ssr:stedsnr" v="642096" />
	</node>
	<node id="-11778" lat="62.6068972225" lon="7.31957499525">
		<tag k="name" v="Grandan" />
		<tag k="natural" v="beach" />
		<tag k="place" v="locality" />
		<tag k="ssr:stedsnr" v="642068" />
	</node>
</osm>
