<?xml version="1.0" encoding="UTF-8"?>
<osm generator="osmapis" version="0.6">
	<node id="-69115" lat="62.4297777752" lon="7.96485276869">
		<tag k="bridge" v="yes" />
		<tag k="layer" v="1" />
		<tag k="name" v="Rangåbrua" />
		<tag k="ssr:stedsnr" v="514624" />
	</node>
	<node id="-70645" lat="62.6421944488" lon="7.52162777739">
		<tag k="name" v="Seterledet" />
		<tag k="place" v="locality" />
		<tag k="ssr:stedsnr" v="215182" />
	</node>
	<node id="-68593" lat="62.3091027745" lon="8.10330833573">
		<tag k="bridge" v="yes" />
		<tag k="layer" v="1" />
		<tag k="name" v="Raudstølbrua" />
		<tag k="ssr:stedsnr" v="279407" />
	</node>
	<node id="-70639" lat="62.6152638868" lon="7.21035834086">
		<tag k="bridge" v="yes" />
		<tag k="layer" v="1" />
		<tag k="name" v="Løvollbrua" />
		<tag k="ssr:stedsnr" v="211322" />
	</node>
	<node id="-70638" lat="62.4587388867" lon="7.67916945398">
		<tag k="bridge" v="yes" />
		<tag k="layer" v="1" />
		<tag k="name" v="Tverrelvbrua" />
		<tag k="ssr:stedsnr" v="211316" />
	</node>
	<node id="-70637" lat="62.4832666649" lon="7.54959722736">
		<tag k="bridge" v="yes" />
		<tag k="layer" v="1" />
		<tag k="name" v="Smøråbrua" />
		<tag k="ssr:stedsnr" v="211199" />
	</node>
	<node id="-70636" lat="62.3380916699" lon="8.05961389598">
		<tag k="bridge" v="yes" />
		<tag k="layer" v="1" />
		<tag k="name" v="Kyllingbrua" />
		<tag k="ssr:stedsnr" v="208991" />
	</node>
	<node id="-69099" lat="62.5863472242" lon="7.35281666273">
		<tag k="bridge" v="yes" />
		<tag k="layer" v="1" />
		<tag k="name" v="Øvre Vågsbrua" />
		<tag k="ssr:stedsnr" v="392514" />
	</node>
	<node id="-69098" lat="62.5313083347" lon="7.46961110575">
		<tag k="bridge" v="yes" />
		<tag k="layer" v="1" />
		<tag k="name" v="Oterholmsbrua" />
		<tag k="ssr:stedsnr" v="392507" />
	</node>
	<node id="-69097" lat="62.4967138884" lon="7.55498334151">
		<tag k="bridge" v="yes" />
		<tag k="layer" v="1" />
		<tag k="name" v="Bøbrua" />
		<tag k="ssr:stedsnr" v="392503" />
	</node>
	<node id="-70629" lat="62.469261114" lon="7.79398332794">
		<tag k="bridge" v="yes" />
		<tag k="layer" v="1" />
		<tag k="name" v="Lyngheimsbrua" />
		<tag k="ssr:stedsnr" v="204546" />
	</node>
	<node id="-70625" lat="62.5663527764" lon="7.85118054906">
		<tag k="name" v="Toreledet" />
		<tag k="place" v="locality" />
		<tag k="ssr:stedsnr" v="204500" />
	</node>
	<node id="-70821" lat="62.584175" lon="7.95482778047">
		<tag k="highway" v="path" />
		<tag k="name" v="Geilen" />
		<tag k="ssr:stedsnr" v="340618" />
	</node>
	<node id="-70107" lat="62.6067888904" lon="7.2905444458">
		<tag k="bridge" v="yes" />
		<tag k="layer" v="1" />
		<tag k="name" v="Austre Øygardsbrua" />
		<tag k="ssr:stedsnr" v="28480" />
	</node>
	<node id="-70106" lat="62.5901502133" lon="7.52438212203">
		<tag k="layer" v="-1" />
		<tag k="name" v="Haugaundergangen" />
		<tag k="ssr:stedsnr" v="28627" />
		<tag k="tunnel" v="yes" />
	</node>
	<node id="-70105" lat="62.5364939088" lon="7.72958000387">
		<tag k="bridge" v="yes" />
		<tag k="layer" v="1" />
		<tag k="name" v="Søre Åkesbrua" />
		<tag k="ssr:stedsnr" v="28615" />
	</node>
	<node id="-70104" lat="62.5202833308" lon="7.39406665895">
		<tag k="bridge" v="yes" />
		<tag k="layer" v="1" />
		<tag k="name" v="Bruasetbrua" />
		<tag k="ssr:stedsnr" v="28214" />
	</node>
	<node id="-70103" lat="62.607674999" lon="7.28673333386">
		<tag k="bridge" v="yes" />
		<tag k="layer" v="1" />
		<tag k="name" v="Geilgrovbrua" />
		<tag k="ssr:stedsnr" v="28452" />
	</node>
	<node id="-71635" lat="62.5408694475" lon="7.69625278439">
		<tag k="bridge" v="yes" />
		<tag k="layer" v="1" />
		<tag k="name" v="Isterbrua" />
		<tag k="ssr:stedsnr" v="756194" />
	</node>
	<node id="-71634" lat="62.5323999991" lon="7.73697221765">
		<tag k="bridge" v="yes" />
		<tag k="layer" v="1" />
		<tag k="name" v="Soggebrua" />
		<tag k="ssr:stedsnr" v="756111" />
	</node>
	<node id="-71106" lat="62.5910472255" lon="7.24643333601">
		<tag k="ford" v="yes" />
		<tag k="name" v="Flatevadet" />
		<tag k="place" v="locality" />
		<tag k="ssr:stedsnr" v="521192" />
	</node>
	<node id="-71611" lat="62.48061111" lon="7.56270278525">
		<tag k="highway" v="path" />
		<tag k="name" v="Brattegota" />
		<tag k="ssr:stedsnr" v="748549" />
	</node>
	<node id="-68534" lat="62.5712555541" lon="7.59879721625">
		<tag k="ford" v="yes" />
		<tag k="name" v="Langvadet" />
		<tag k="place" v="locality" />
		<tag k="ssr:stedsnr" v="276134" />
	</node>
	<node id="-71089" lat="62.6639500031" lon="7.50510832381">
		<tag k="amenity" v="ferry_terminal" />
		<tag k="name" v="Åfarnes ferjekai" />
		<tag k="ssr:stedsnr" v="520315" />
	</node>
	<node id="-68528" lat="62.5727666627" lon="7.37789721552">
		<tag k="bridge" v="yes" />
		<tag k="layer" v="1" />
		<tag k="name" v="Farkvamsbrua" />
		<tag k="ssr:stedsnr" v="149465" />
	</node>
	<node id="-68527" lat="62.5463985158" lon="7.71695610085">
		<tag k="layer" v="-1" />
		<tag k="name" v="Høljenesundergangen" />
		<tag k="ssr:stedsnr" v="149057" />
		<tag k="tunnel" v="yes" />
	</node>
	<node id="-68525" lat="62.6070055532" lon="7.2893472213">
		<tag k="bridge" v="yes" />
		<tag k="layer" v="1" />
		<tag k="name" v="Vestre Øygardsbrua" />
		<tag k="ssr:stedsnr" v="271484" />
	</node>
	<node id="-68524" lat="62.5991861076" lon="7.54457221372">
		<tag k="bridge" v="yes" />
		<tag k="layer" v="1" />
		<tag k="name" v="Vianesbrua" />
		<tag k="ssr:stedsnr" v="271374" />
	</node>
	<node id="-68337" lat="62.6083833313" lon="7.23431388344">
		<tag k="bridge" v="yes" />
		<tag k="layer" v="1" />
		<tag k="name" v="Vestre Hjelvikbrua" />
		<tag k="ssr:stedsnr" v="28318" />
	</node>
	<node id="-71564" lat="62.3487805556" lon="8.00371667116">
		<tag k="ford" v="yes" />
		<tag k="name" v="Holmevadet" />
		<tag k="place" v="locality" />
		<tag k="ssr:stedsnr" v="739059" />
	</node>
	<node id="-70535" lat="62.5144722249" lon="7.39091943668">
		<tag k="highway" v="path" />
		<tag k="name" v="Geitevegen" />
		<tag k="ssr:stedsnr" v="157822" />
	</node>
	<node id="-71042" lat="62.3469138851" lon="8.0589555627">
		<tag k="name" v="Verma" />
		<tag k="railway" v="station" />
		<tag k="ssr:stedsnr" v="436058" />
		<tag k="train" v="yes" />
	</node>
	<node id="-68757" lat="62.5762916658" lon="7.56946388511">
		<tag k="bridge" v="yes" />
		<tag k="layer" v="1" />
		<tag k="name" v="Gjerdsetbrua" />
		<tag k="ssr:stedsnr" v="453334" />
	</node>
	<node id="-68476" lat="62.5865805535" lon="7.77972499315">
		<tag k="highway" v="path" />
		<tag k="name" v="Skogsvegen" />
		<tag k="ssr:stedsnr" v="98422" />
	</node>
	<node id="-69995" lat="62.5366638925" lon="7.43723333762">
		<tag k="bridge" v="yes" />
		<tag k="layer" v="1" />
		<tag k="name" v="Litlebrua" />
		<tag k="ssr:stedsnr" v="939478" />
	</node>
	<node id="-69994" lat="62.5863888889" lon="7.36554166241">
		<tag k="bridge" v="yes" />
		<tag k="layer" v="1" />
		<tag k="name" v="Vågshamnbrua" />
		<tag k="ssr:stedsnr" v="939475" />
	</node>
	<node id="-71526" lat="62.5734944407" lon="7.82109721754">
		<tag k="highway" v="path" />
		<tag k="name" v="Geilen" />
		<tag k="ssr:stedsnr" v="643404" />
	</node>
	<node id="-68965" lat="62.5673305596" lon="7.74809443744">
		<tag k="bridge" v="yes" />
		<tag k="layer" v="1" />
		<tag k="name" v="Vikåbrua" />
		<tag k="ssr:stedsnr" v="332312" />
	</node>
	<node id="-68964" lat="62.5611388864" lon="7.68557499089">
		<tag k="bridge" v="yes" />
		<tag k="layer" v="1" />
		<tag k="name" v="Åndalsnesbrua" />
		<tag k="ssr:stedsnr" v="332308" />
	</node>
	<node id="-69987" lat="62.5086861155" lon="7.35487499739">
		<tag k="bridge" v="yes" />
		<tag k="layer" v="1" />
		<tag k="name" v="Skarbrua" />
		<tag k="ssr:stedsnr" v="931120" />
	</node>
	<node id="-70497" lat="62.5712416678" lon="7.85066388578">
		<tag k="highway" v="path" />
		<tag k="name" v="Moageilen" />
		<tag k="ssr:stedsnr" v="157384" />
	</node>
	<node id="-70495" lat="62.6005916682" lon="7.83502499833">
		<tag k="highway" v="path" />
		<tag k="name" v="Skardvegan" />
		<tag k="ssr:stedsnr" v="157377" />
	</node>
	<node id="-69470" lat="62.4342611091" lon="7.87841666482">
		<tag k="bridge" v="yes" />
		<tag k="layer" v="1" />
		<tag k="name" v="Mongebrua" />
		<tag k="ssr:stedsnr" v="878652" />
	</node>
	<node id="-71141" lat="62.595205556" lon="7.29291666176">
		<tag k="name" v="Holmeleet" />
		<tag k="place" v="locality" />
		<tag k="ssr:stedsnr" v="521770" />
	</node>
	<node id="-69468" lat="62.6061361086" lon="7.35212777267">
		<tag k="bridge" v="yes" />
		<tag k="layer" v="1" />
		<tag k="name" v="Reistadbrua" />
		<tag k="ssr:stedsnr" v="878522" />
	</node>
	<node id="-69467" lat="62.608450004" lon="7.23608333595">
		<tag k="bridge" v="yes" />
		<tag k="layer" v="1" />
		<tag k="name" v="Austre Hjelvikbrua" />
		<tag k="ssr:stedsnr" v="878345" />
	</node>
	<node id="-69466" lat="62.5864361138" lon="7.49727500405">
		<tag k="bridge" v="yes" />
		<tag k="layer" v="1" />
		<tag k="name" v="Hatlebrua" />
		<tag k="ssr:stedsnr" v="878226" />
	</node>
	<node id="-69465" lat="62.6690083289" lon="7.53069999774">
		<tag k="bridge" v="yes" />
		<tag k="layer" v="1" />
		<tag k="name" v="Herjebrua" />
		<tag k="ssr:stedsnr" v="878212" />
	</node>
	<node id="-69464" lat="62.5482388892" lon="7.65938888142">
		<tag k="layer" v="-1" />
		<tag k="name" v="Djupdalsoverbygget" />
		<tag k="ssr:stedsnr" v="878144" />
		<tag k="tunnel" v="yes" />
	</node>
	<node id="-70611" lat="62.4930388896" lon="7.52567500339">
		<tag k="highway" v="path" />
		<tag k="name" v="Øvste Kongsvegen" />
		<tag k="ssr:stedsnr" v="203525" />
	</node>
	<node id="-69458" lat="62.456897226" lon="7.67353333359">
		<tag k="bridge" v="yes" />
		<tag k="layer" v="1" />
		<tag k="name" v="Stigfossbrua" />
		<tag k="ssr:stedsnr" v="635306" />
	</node>
	<node id="-71999" lat="62.6083805541" lon="7.23527223205">
		<tag k="bridge" v="yes" />
		<tag k="layer" v="1" />
		<tag k="name" v="Hjelvikbruene" />
		<tag k="ssr:stedsnr" v="952091" />
	</node>
	<node id="-70461" lat="62.6367722238" lon="7.54288054661">
		<tag k="ford" v="yes" />
		<tag k="name" v="Raudmelvadet" />
		<tag k="place" v="locality" />
		<tag k="ssr:stedsnr" v="154086" />
	</node>
	<node id="-71483" lat="62.4358138872" lon="7.41776944707">
		<tag k="ford" v="yes" />
		<tag k="name" v="Stordalsvadet" />
		<tag k="place" v="locality" />
		<tag k="ssr:stedsnr" v="642216" />
	</node>
	<node id="-71992" lat="62.3671805546" lon="8.05682778605">
		<tag k="layer" v="-1" />
		<tag k="name" v="Stavemstunnelen" />
		<tag k="ssr:stedsnr" v="870050" />
		<tag k="tunnel" v="yes" />
	</node>
	<node id="-68919" lat="62.6252694426" lon="7.4759194355">
		<tag k="name" v="Kyrkjeledet" />
		<tag k="place" v="locality" />
		<tag k="ssr:stedsnr" v="519588" />
	</node>
	<node id="-70453" lat="62.6068833355" lon="7.28997499634">
		<tag k="bridge" v="yes" />
		<tag k="layer" v="1" />
		<tag k="name" v="Nedre Litleelvabrua" />
		<tag k="ssr:stedsnr" v="149445" />
	</node>
	<node id="-70452" lat="62.4541583347" lon="7.66439722919">
		<tag k="bridge" v="yes" />
		<tag k="layer" v="1" />
		<tag k="name" v="Stigrørbrua" />
		<tag k="ssr:stedsnr" v="149299" />
	</node>
	<node id="-70451" lat="62.4587888871" lon="7.67141665837">
		<tag k="bridge" v="yes" />
		<tag k="layer" v="1" />
		<tag k="name" v="Trollstigen halvbru" />
		<tag k="ssr:stedsnr" v="149292" />
	</node>
	<node id="-70450" lat="62.5828944464" lon="7.92225278281">
		<tag k="bridge" v="yes" />
		<tag k="layer" v="1" />
		<tag k="name" v="Tverråbrua" />
		<tag k="ssr:stedsnr" v="149197" />
	</node>
	<node id="-70445" lat="62.6331083324" lon="7.47946388904">
		<tag k="highway" v="path" />
		<tag k="name" v="Hunnesråket" />
		<tag k="ssr:stedsnr" v="142991" />
	</node>
	<node id="-71462" lat="62.5971861076" lon="7.63128056305">
		<tag k="highway" v="path" />
		<tag k="name" v="Eidsbygdvegen" />
		<tag k="ssr:stedsnr" v="640371" />
	</node>
	<node id="-68384" lat="62.5743499974" lon="7.79448889645">
		<tag k="bridge" v="yes" />
		<tag k="layer" v="1" />
		<tag k="name" v="Hensbrua" />
		<tag k="ssr:stedsnr" v="89215" />
	</node>
	<node id="-71813" lat="62.4158916672" lon="8.00289444552">
		<tag k="bridge" v="yes" />
		<tag k="layer" v="1" />
		<tag k="name" v="Styggfonnbrua" />
		<tag k="ssr:stedsnr" v="817597" />
	</node>
	<node id="-68892" lat="62.4455694443" lon="7.83208889623">
		<tag k="bridge" v="yes" />
		<tag k="layer" v="1" />
		<tag k="name" v="Alnesbrua" />
		<tag k="ssr:stedsnr" v="461794" />
	</node>
	<node id="-69594" lat="62.5460166668" lon="7.88136111903">
		<tag k="bridge" v="yes" />
		<tag k="layer" v="1" />
		<tag k="name" v="Røysbrua" />
		<tag k="ssr:stedsnr" v="703647" />
	</node>
	<node id="-70276" lat="62.5707777759" lon="7.78113889044">
		<tag k="bridge" v="yes" />
		<tag k="layer" v="1" />
		<tag k="name" v="Steinbrua" />
		<tag k="ssr:stedsnr" v="89337" />
	</node>
	<node id="-69909" lat="62.5327444409" lon="7.92196943812">
		<tag k="bridge" v="yes" />
		<tag k="layer" v="1" />
		<tag k="name" v="Erstadbrua" />
		<tag k="ssr:stedsnr" v="946669" />
	</node>
	<node id="-69395" lat="62.5626388855" lon="7.69100278183">
		<tag k="bridge" v="yes" />
		<tag k="layer" v="1" />
		<tag k="name" v="Nebbebrua" />
		<tag k="ssr:stedsnr" v="574878" />
	</node>
	<node id="-71811" lat="62.5250250011" lon="7.52871110614">
		<tag k="bridge" v="yes" />
		<tag k="layer" v="1" />
		<tag k="name" v="Bjørkåbrua" />
		<tag k="ssr:stedsnr" v="817452" />
	</node>
	<node id="-71436" lat="62.5140944473" lon="7.68852778428">
		<tag k="bridge" v="yes" />
		<tag k="layer" v="1" />
		<tag k="name" v="Grindøybrua" />
		<tag k="ssr:stedsnr" v="635297" />
	</node>
	<node id="-71435" lat="62.6218638875" lon="7.48643055421">
		<tag k="bridge" v="yes" />
		<tag k="layer" v="1" />
		<tag k="name" v="Harvolldalsbrua" />
		<tag k="ssr:stedsnr" v="635233" />
	</node>
	<node id="-71434" lat="62.5246083358" lon="7.42212221267">
		<tag k="bridge" v="yes" />
		<tag k="layer" v="1" />
		<tag k="name" v="Vemorbrua" />
		<tag k="ssr:stedsnr" v="635185" />
	</node>
	<node id="-69384" lat="62.4346583359" lon="7.86658054976">
		<tag k="bridge" v="yes" />
		<tag k="layer" v="1" />
		<tag k="name" v="Remmembrua" />
		<tag k="ssr:stedsnr" v="704864" />
	</node>
	<node id="-71422" lat="62.4975583372" lon="7.52965555923">
		<tag k="fixme" v="consider highway=path" />
		<tag k="highway" v="track" />
		<tag k="name" v="Nedste Kongsvegen" />
		<tag k="ssr:stedsnr" v="627538" />
	</node>
	<node id="-68860" lat="62.3463000037" lon="8.05083333737">
		<tag k="bridge" v="yes" />
		<tag k="layer" v="1" />
		<tag k="name" v="Ormemsbrua" />
		<tag k="ssr:stedsnr" v="461420" />
	</node>
	<node id="-71419" lat="62.4615027776" lon="7.67004723117">
		<tag k="highway" v="path" />
		<tag k="name" v="Kløvstien" />
		<tag k="ssr:stedsnr" v="627322" />
	</node>
	<node id="-70903" lat="62.6829638919" lon="7.60641944075">
		<tag k="bridge" v="yes" />
		<tag k="layer" v="1" />
		<tag k="name" v="Nedre Slemmebrua" />
		<tag k="ssr:stedsnr" v="392236" />
	</node>
	<node id="-70902" lat="62.5781083378" lon="7.8129333365">
		<tag k="bridge" v="yes" />
		<tag k="layer" v="1" />
		<tag k="name" v="Grøttabrua" />
		<tag k="ssr:stedsnr" v="392225" />
	</node>
	<node id="-68563" lat="62.5600388848" lon="7.84499445076">
		<tag k="fixme" v="consider highway=path" />
		<tag k="highway" v="track" />
		<tag k="name" v="Rausmovegen" />
		<tag k="ssr:stedsnr" v="278741" />
	</node>
	<node id="-70311" lat="62.578713885" lon="7.88412777752">
		<tag k="bridge" v="yes" />
		<tag k="layer" v="1" />
		<tag k="name" v="Unjemsbrua" />
		<tag k="ssr:stedsnr" v="96450" />
	</node>
	<node id="-68562" lat="62.5560472198" lon="7.8476722155">
		<tag k="bridge" v="yes" />
		<tag k="layer" v="1" />
		<tag k="name" v="Øysteinbrua" />
		<tag k="old_name" v="Øisteinbrua" />
		<tag k="ssr:stedsnr" v="278734" />
	</node>
	<node id="-71913" lat="62.5849833365" lon="7.9790027699">
		<tag k="bridge" v="yes" />
		<tag k="layer" v="1" />
		<tag k="name" v="Fløtabrua" />
		<tag k="ssr:stedsnr" v="826599" />
	</node>
	<node id="-69346" lat="62.5633888926" lon="7.83622222589">
		<tag k="bridge" v="yes" />
		<tag k="layer" v="1" />
		<tag k="name" v="Remmabrua" />
		<tag k="ssr:stedsnr" v="703769" />
	</node>
	<node id="-71905" lat="62.4655583306" lon="7.8202611135">
		<tag k="highway" v="path" />
		<tag k="name" v="Gamle Kongevegen" />
		<tag k="ssr:stedsnr" v="825962" />
	</node>
	<node id="-68826" lat="62.5395361142" lon="7.90593333916">
		<tag k="bridge" v="yes" />
		<tag k="layer" v="1" />
		<tag k="name" v="Kvanndalsbrua" />
		<tag k="ssr:stedsnr" v="279704" />
	</node>
	<node id="-70353" lat="62.5525805524" lon="7.70525277562">
		<tag k="bridge" v="yes" />
		<tag k="layer" v="1" />
		<tag k="name" v="Grøttørbrua" />
		<tag k="ssr:stedsnr" v="97744" />
	</node>
	<node id="-68727" lat="62.6017916663" lon="7.83685278194">
		<tag k="bridge" v="yes" />
		<tag k="layer" v="1" />
		<tag k="name" v="Skarbrua" />
		<tag k="ssr:stedsnr" v="445033" />
	</node>
	<node id="-69831" lat="62.5683749963" lon="7.60984444966">
		<tag k="highway" v="path" />
		<tag k="name" v="Bjørgastigen" />
		<tag k="ssr:stedsnr" v="944492" />
	</node>
	<node id="-70342" lat="62.5851222203" lon="7.24950278604">
		<tag k="highway" v="path" />
		<tag k="name" v="Stegan" />
		<tag k="ssr:stedsnr" v="97438" />
	</node>
	<node id="-68801" lat="62.6329666699" lon="7.48562500725">
		<tag k="highway" v="path" />
		<tag k="name" v="Hunnesråket" />
		<tag k="ssr:stedsnr" v="277269" />
	</node>
	<node id="-68280" lat="62.493516671" lon="7.60526110692">
		<tag k="highway" v="path" />
		<tag k="name" v="Bjørnastigen" />
		<tag k="ssr:stedsnr" v="218947" />
	</node>
	<node id="-68786" lat="62.5008666689" lon="7.5665666664">
		<tag k="bridge" v="yes" />
		<tag k="layer" v="1" />
		<tag k="name" v="Vikbrua" />
		<tag k="ssr:stedsnr" v="271521" />
	</node>
	<node id="-68785" lat="62.5609750022" lon="7.68474166456">
		<tag k="bridge" v="yes" />
		<tag k="layer" v="1" />
		<tag k="name" v="Vangsbrua" />
		<tag k="ssr:stedsnr" v="271354" />
	</node>
	<node id="-69806" lat="62.6624583308" lon="7.54694722683">
		<tag k="highway" v="path" />
		<tag k="name" v="Elvavegen" />
		<tag k="ssr:stedsnr" v="943440" />
	</node>
	<node id="-68778" lat="62.5370166693" lon="7.43644444561">
		<tag k="bridge" v="yes" />
		<tag k="layer" v="1" />
		<tag k="name" v="Månabrua" />
		<tag k="ssr:stedsnr" v="453479" />
	</node>
	<node id="-68570" lat="62.499269448" lon="7.76783055791">
		<tag k="ford" v="yes" />
		<tag k="name" v="Vadstranda" />
		<tag k="place" v="locality" />
		<tag k="ssr:stedsnr" v="278891" />
	</node>
	<node id="-69799" lat="62.5715444423" lon="7.78439167517">
		<tag k="bridge" v="yes" />
		<tag k="layer" v="1" />
		<tag k="name" v="Isabrua" />
		<tag k="ssr:stedsnr" v="939332" />
	</node>
	<node id="-69798" lat="62.5830916692" lon="7.73861111966">
		<tag k="bridge" v="yes" />
		<tag k="layer" v="1" />
		<tag k="name" v="Ytre Breivikbrua" />
		<tag k="ssr:stedsnr" v="939325" />
	</node>
	<node id="-69797" lat="62.5633249989" lon="7.8361083252">
		<tag k="bridge" v="yes" />
		<tag k="layer" v="1" />
		<tag k="name" v="Remmebrautbrua" />
		<tag k="ssr:stedsnr" v="939214" />
	</node>
	<node id="-68806" lat="62.6381249956" lon="7.46064999312">
		<tag k="highway" v="path" />
		<tag k="name" v="Stigen" />
		<tag k="ssr:stedsnr" v="459380" />
	</node>
	<node id="-69794" lat="62.6474694478" lon="7.50856388024">
		<tag k="highway" v="path" />
		<tag k="name" v="Sjøløypet" />
		<tag k="ssr:stedsnr" v="216929" />
	</node>
	<node id="-71327" lat="62.5086944426" lon="7.35040832499">
		<tag k="bridge" v="yes" />
		<tag k="layer" v="1" />
		<tag k="name" v="Tøftebrua" />
		<tag k="ssr:stedsnr" v="582437" />
	</node>
	<node id="-69100" lat="62.5370487031" lon="7.72948786633">
		<tag k="bridge" v="yes" />
		<tag k="layer" v="1" />
		<tag k="name" v="Nordre Åkesbrua" />
		<tag k="ssr:stedsnr" v="392655" />
	</node>
	<node id="-69783" lat="62.5628388882" lon="7.8757250047">
		<tag k="highway" v="path" />
		<tag k="name" v="Bjørnastigen" />
		<tag k="ssr:stedsnr" v="932485" />
	</node>
	<node id="-71317" lat="62.596413892" lon="7.24552778406">
		<tag k="ford" v="yes" />
		<tag k="name" v="Peholtvadet" />
		<tag k="place" v="locality" />
		<tag k="ssr:stedsnr" v="582211" />
	</node>
	<node id="-68756" lat="62.6096916638" lon="7.54425554635">
		<tag k="bridge" v="yes" />
		<tag k="layer" v="1" />
		<tag k="name" v="Holmembrua" />
		<tag k="ssr:stedsnr" v="453329" />
	</node>
	<node id="-69267" lat="62.507905554" lon="7.53912221325">
		<tag k="bridge" v="yes" />
		<tag k="layer" v="1" />
		<tag k="name" v="Stokkbrua" />
		<tag k="ssr:stedsnr" v="696486" />
	</node>
	<node id="-69266" lat="62.581608335" lon="7.74260554834">
		<tag k="bridge" v="yes" />
		<tag k="layer" v="1" />
		<tag k="name" v="Indre Breivikbrua" />
		<tag k="ssr:stedsnr" v="696329" />
	</node>
	<node id="-69265" lat="62.5620469311" lon="7.68867873928">
		<tag k="layer" v="-1" />
		<tag k="name" v="Vangsundergangen" />
		<tag k="ssr:stedsnr" v="696083" />
		<tag k="tunnel" v="yes" />
	</node>
	<node id="-69264" lat="62.5401099969" lon="7.72358515731">
		<tag k="layer" v="-1" />
		<tag k="name" v="Åkeshjellundergangen" />
		<tag k="ssr:stedsnr" v="696082" />
		<tag k="tunnel" v="yes" />
	</node>
	<node id="-70799" lat="62.5159333291" lon="7.42776111399">
		<tag k="highway" v="path" />
		<tag k="name" v="Myrvegen" />
		<tag k="ssr:stedsnr" v="339769" />
	</node>
	<node id="-68749" lat="62.5181027767" lon="7.69369443521">
		<tag k="bridge" v="yes" />
		<tag k="layer" v="1" />
		<tag k="name" v="Kvernabrua" />
		<tag k="ssr:stedsnr" v="453319" />
	</node>
	<node id="-70794" lat="62.5284444441" lon="7.68737500053">
		<tag k="bridge" v="yes" />
		<tag k="layer" v="1" />
		<tag k="name" v="Februa" />
		<tag k="ssr:stedsnr" v="339666" />
	</node>
	<node id="-69765" lat="62.57010278" lon="7.64723889371">
		<tag k="bridge" v="yes" />
		<tag k="layer" v="1" />
		<tag k="name" v="Nedre Skorgebrua" />
		<tag k="ssr:stedsnr" v="817320" />
	</node>
	<node id="-69764" lat="62.5831277764" lon="7.95318888429">
		<tag k="bridge" v="yes" />
		<tag k="layer" v="1" />
		<tag k="name" v="Grøvdalsbrua" />
		<tag k="ssr:stedsnr" v="817216" />
	</node>
	<node id="-70275" lat="62.4758500026" lon="7.66996945209">
		<tag k="bridge" v="yes" />
		<tag k="layer" v="1" />
		<tag k="name" v="Byteskredbrua" />
		<tag k="ssr:stedsnr" v="89326" />
	</node>
	<node id="-71810" lat="62.6059638867" lon="7.29497499581">
		<tag k="bridge" v="yes" />
		<tag k="layer" v="1" />
		<tag k="name" v="Gamle Reistadbrua" />
		<tag k="ssr:stedsnr" v="817228" />
	</node>
	<node id="-71018" lat="62.582838892" lon="7.98903333251">
		<tag k="bridge" v="yes" />
		<tag k="layer" v="1" />
		<tag k="name" v="Rabbebrua" />
		<tag k="ssr:stedsnr" v="401606" />
	</node>
	<node id="-69241" lat="62.3132194411" lon="8.09860277148">
		<tag k="bridge" v="yes" />
		<tag k="layer" v="1" />
		<tag k="name" v="Raudåbrua" />
		<tag k="ssr:stedsnr" v="514681" />
	</node>
	<node id="-69239" lat="62.4749750012" lon="7.78055277208">
		<tag k="bridge" v="yes" />
		<tag k="layer" v="1" />
		<tag k="name" v="Horgheimsfyllinga" />
		<tag k="ssr:stedsnr" v="506520" />
	</node>
	<node id="-69747" lat="62.4301944423" lon="7.9624416599">
		<tag k="name" v="Flatmark" />
		<tag k="railway" v="station" />
		<tag k="ssr:stedsnr" v="800010" />
		<tag k="train" v="yes" />
	</node>
	<node id="-71280" lat="62.5865777765" lon="7.536913886">
		<tag k="junction" v="yes" />
		<tag k="name" v="Lerheimskiftet" />
		<tag k="place" v="locality" />
		<tag k="ssr:stedsnr" v="580960" />
	</node>
	<node id="-70763" lat="62.5642138853" lon="7.59732499608">
		<tag k="man_made" v="quay" />
		<tag k="name" v="Torvik" />
		<tag k="place" v="locality" />
		<tag k="ssr:stedsnr" v="339156" />
	</node>
	<node id="-71780" lat="62.4765972232" lon="7.76890832585">
		<tag k="bridge" v="yes" />
		<tag k="layer" v="1" />
		<tag k="name" v="Skjervebrua" />
		<tag k="ssr:stedsnr" v="801066" />
	</node>
	<node id="-68966" lat="62.4288921909" lon="7.94145643822">
		<tag k="layer" v="-1" />
		<tag k="name" v="Skiriundergangen" />
		<tag k="ssr:stedsnr" v="332606" />
		<tag k="tunnel" v="yes" />
	</node>
	<node id="-71262" lat="62.4708944429" lon="7.79366111289">
		<tag k="bridge" v="yes" />
		<tag k="layer" v="1" />
		<tag k="name" v="Horgheimsbrua" />
		<tag k="ssr:stedsnr" v="574640" />
	</node>
	<node id="-71261" lat="62.4947037164" lon="7.76158474774">
		<tag k="layer" v="-1" />
		<tag k="name" v="Eidaundergangen" />
		<tag k="ssr:stedsnr" v="574636" />
		<tag k="tunnel" v="yes" />
	</node>
	<node id="-71260" lat="62.5895500009" lon="7.34888888849">
		<tag k="bridge" v="yes" />
		<tag k="layer" v="1" />
		<tag k="name" v="Nedre Vågsbrua" />
		<tag k="ssr:stedsnr" v="574244" />
	</node>
	<node id="-71259" lat="62.5864638896" lon="7.53146666948">
		<tag k="bridge" v="yes" />
		<tag k="layer" v="1" />
		<tag k="name" v="Straumsbrua" />
		<tag k="ssr:stedsnr" v="574234" />
	</node>
	<node id="-71258" lat="62.5251861108" lon="7.40858611611">
		<tag k="bridge" v="yes" />
		<tag k="layer" v="1" />
		<tag k="name" v="Tørlebrua" />
		<tag k="ssr:stedsnr" v="574217" />
	</node>
	<node id="-68452" lat="62.4975111089" lon="7.35617221598">
		<tag k="ford" v="yes" />
		<tag k="name" v="Nedre Vadet" />
		<tag k="place" v="locality" />
		<tag k="ssr:stedsnr" v="97011" />
	</node>
	<node id="-68963" lat="62.700041664" lon="7.69364444588">
		<tag k="bridge" v="yes" />
		<tag k="layer" v="1" />
		<tag k="name" v="Mittetbrua" />
		<tag k="ssr:stedsnr" v="332206" />
	</node>
	<node id="-70734" lat="62.4580888852" lon="7.67899722582">
		<tag k="bridge" v="yes" />
		<tag k="layer" v="1" />
		<tag k="name" v="Kjellstadsvingen halvbru" />
		<tag k="ssr:stedsnr" v="332294" />
	</node>
	<node id="-68684" lat="62.5575333365" lon="7.6821000084">
		<tag k="bridge" v="yes" />
		<tag k="layer" v="1" />
		<tag k="name" v="Raumabrua" />
		<tag k="ssr:stedsnr" v="203522" />
	</node>
	<node id="-68362" lat="62.3911277763" lon="8.01557222594">
		<tag k="bridge" v="yes" />
		<tag k="layer" v="1" />
		<tag k="name" v="Fossbrua" />
		<tag k="ssr:stedsnr" v="72026" />
	</node>
	<node id="-71812" lat="62.5287111145" lon="7.75424167241">
		<tag k="layer" v="-1" />
		<tag k="name" v="Halsaundergangen" />
		<tag k="ssr:stedsnr" v="817590" />
		<tag k="tunnel" v="yes" />
	</node>
	<node id="-69171" lat="62.5721361144" lon="7.82271667593">
		<tag k="highway" v="path" />
		<tag k="name" v="Gamlegeilen" />
		<tag k="ssr:stedsnr" v="461411" />
	</node>
	<node id="-69170" lat="62.3916665417" lon="8.01582933068">
		<tag k="layer" v="-1" />
		<tag k="name" v="Fossundergangen" />
		<tag k="ssr:stedsnr" v="453643" />
		<tag k="tunnel" v="yes" />
	</node>
	<node id="-69169" lat="62.463911112" lon="7.8194194438">
		<tag k="bridge" v="yes" />
		<tag k="layer" v="1" />
		<tag k="name" v="Myrabøbrua" />
		<tag k="ssr:stedsnr" v="453623" />
	</node>
	<node id="-69168" lat="62.5429827438" lon="7.71964258258">
		<tag k="bridge" v="yes" />
		<tag k="layer" v="1" />
		<tag k="name" v="Mjelvabrua" />
		<tag k="ssr:stedsnr" v="453615" />
	</node>
	<node id="-68777" lat="62.6139249975" lon="7.26803332677">
		<tag k="bridge" v="yes" />
		<tag k="layer" v="1" />
		<tag k="name" v="Kormesetbrua" />
		<tag k="ssr:stedsnr" v="453455" />
	</node>
	<node id="-68653" lat="62.5320750022" lon="7.73676388178">
		<tag k="bridge" v="yes" />
		<tag k="layer" v="1" />
		<tag k="name" v="Sogge bru" />
		<tag k="ssr:stedsnr" v="193121" />
	</node>
	<node id="-70182" lat="62.5911194474" lon="7.87300000409">
		<tag k="highway" v="path" />
		<tag k="name" v="Ostekjørelet" />
		<tag k="ssr:stedsnr" v="36701" />
	</node>
	<node id="-70178" lat="62.5420805521" lon="7.88894722236">
		<tag k="bridge" v="yes" />
		<tag k="layer" v="1" />
		<tag k="name" v="Dalebrua" />
		<tag k="ssr:stedsnr" v="36649" />
	</node>
	<node id="-69658" lat="62.4613194452" lon="7.81067221317">
		<tag k="bridge" v="yes" />
		<tag k="layer" v="1" />
		<tag k="name" v="Sælsbrua" />
		<tag k="ssr:stedsnr" v="764916" />
	</node>
	<node id="-69294" lat="62.447444444" lon="7.83339723008">
		<tag k="name" v="Marstein" />
		<tag k="railway" v="station" />
		<tag k="ssr:stedsnr" v="557108" />
		<tag k="train" v="yes" />
	</node>
	<node id="-70674" lat="62.5189083333" lon="7.75830277229">
		<tag k="name" v="Romsdalshorn" />
		<tag k="railway" v="station" />
		<tag k="ssr:stedsnr" v="315139" />
		<tag k="train" v="yes" />
	</node>
	<node id="-69648" lat="62.5761416696" lon="7.8508861111">
		<tag k="bridge" v="yes" />
		<tag k="layer" v="1" />
		<tag k="name" v="Kavlifossbrua" />
		<tag k="ssr:stedsnr" v="764471" />
	</node>
	<node id="-70158" lat="62.567213889" lon="7.84202499459">
		<tag k="highway" v="path" />
		<tag k="name" v="Gamlegardsvegen" />
		<tag k="ssr:stedsnr" v="36393" />
	</node>
	<node id="-68620" lat="62.5190249972" lon="7.41954445414">
		<tag k="name" v="Monaledet" />
		<tag k="place" v="locality" />
		<tag k="ssr:stedsnr" v="279795" />
	</node>
	<node id="-69469" lat="62.5017194418" lon="7.76987499672">
		<tag k="layer" v="-1" />
		<tag k="name" v="Venjastuundergangen" />
		<tag k="ssr:stedsnr" v="878649" />
		<tag k="tunnel" v="yes" />
	</node>
	<node id="-69635" lat="62.6067472213" lon="7.28988333264">
		<tag k="bridge" v="yes" />
		<tag k="layer" v="1" />
		<tag k="name" v="Øvre Litleelvbrua" />
		<tag k="ssr:stedsnr" v="756210" />
	</node>
	<node id="-71169" lat="62.2700138875" lon="8.06118055031">
		<tag k="bridge" v="yes" />
		<tag k="layer" v="1" />
		<tag k="name" v="Brøstbrua" />
		<tag k="ssr:stedsnr" v="522549" />
	</node>
</osm>
