<?xml version="1.0" encoding="UTF-8"?>
<osm version="0.6" generator="osmapis">
	<node lat="62.43799457372906" lon="7.850133908153717" id="-8163">
		<tag k="amenity" v="place_of_worship" />
		<tag k="denomination" v="lutheran" />
		<tag k="name" v="Kors kirke" />
		<tag k="religion" v="christian" />
		<tag k="ssr:stedsnr" v="11107" />
	</node>
	<node lat="62.676896547925516" lon="7.567795289267842" id="-8284">
		<tag k="amenity" v="place_of_worship" />
		<tag k="denomination" v="lutheran" />
		<tag k="name" v="Holm kyrkje" />
		<tag k="religion" v="christian" />
		<tag k="ssr:stedsnr" v="72690" />
	</node>
	<node lat="62.4311444418431" lon="7.953675005039871" id="-8562">
		<tag k="cemetery" v="grave" />
		<tag k="name" v="Kors" />
		<tag k="place" v="locality" />
		<tag k="ssr:stedsnr" v="219844" />
	</node>
	<node lat="62.681788887839474" lon="7.695030551612197" id="-8616">
		<tag k="name" v="Botolvløa" />
		<tag k="place" v="locality" />
		<tag k="ssr:stedsnr" v="264920" />
	</node>
	<node lat="62.589664269486335" lon="7.4970744884475415" id="-8711">
		<tag k="amenity" v="place_of_worship" />
		<tag k="denomination" v="lutheran" />
		<tag k="name" v="Eid kyrkje" />
		<tag k="religion" v="christian" />
		<tag k="ssr:stedsnr" v="315582" />
	</node>
	<node lat="62.64195555736626" lon="7.472833341755196" id="-8729">
		<tag k="name" v="Kalkverket" />
		<tag k="place" v="locality" />
		<tag k="ssr:stedsnr" v="459350" />
	</node>
	<node lat="62.55724999561813" lon="7.5558333338083665" id="-8762">
		<tag k="name" v="Per Klungnesbautaen" />
		<tag k="place" v="locality" />
		<tag k="ssr:stedsnr" v="339173" />
	</node>
	<node lat="62.53272174446527" lon="7.444046295044768" id="-9241">
		<tag k="amenity" v="place_of_worship" />
		<tag k="denomination" v="lutheran" />
		<tag k="name" v="Voll kyrkje" />
		<tag k="religion" v="christian" />
		<tag k="ssr:stedsnr" v="618392" />
	</node>
	<node lat="62.55273950365081" lon="7.672923609056298" id="-9604">
		<tag k="amenity" v="place_of_worship" />
		<tag k="denomination" v="lutheran" />
		<tag k="name" v="Grytten kirke" />
		<tag k="religion" v="christian" />
		<tag k="ssr:stedsnr" v="801426" />
	</node>
	<node lat="62.67767778116441" lon="7.694519435995329" id="-10004">
		<tag k="name" v="Storteigløa" />
		<tag k="place" v="locality" />
		<tag k="ssr:stedsnr" v="82925" />
	</node>
	<node lat="62.703161114366445" lon="7.704180560706446" id="-10014">
		<tag k="amenity" v="community_centre" />
		<tag k="name" v="Mittun" />
		<tag k="ssr:stedsnr" v="93599" />
	</node>
	<node lat="62.577455513429676" lon="7.791342282490144" id="-10103">
		<tag k="alt_name" v="Hen" />
		<tag k="amenity" v="place_of_worship" />
		<tag k="denomination" v="lutheran" />
		<tag k="name" v="Hen kirke" />
		<tag k="religion" v="christian" />
		<tag k="ssr:stedsnr" v="132300" />
	</node>
	<node lat="62.632791668718916" lon="7.490211112100552" id="-10153">
		<tag k="amenity" v="community_centre" />
		<tag k="name" v="Breidablikk" />
		<tag k="ssr:stedsnr" v="155029" />
	</node>
	<node lat="62.492912169524054" lon="7.559880603784669" id="-10667">
		<tag k="amenity" v="place_of_worship" />
		<tag k="fixme" v="specify religion=*, denomination=*, building=* etc" />
		<tag k="name" v="Innfjorden bedehuskapell" />
		<tag k="ssr:stedsnr" v="435946" />
	</node>
	<node lat="62.33566959917667" lon="8.068439246298588" id="-10850">
		<tag k="alt_name" v="Øverdal" />
		<tag k="amenity" v="place_of_worship" />
		<tag k="denomination" v="lutheran" />
		<tag k="name" v="Øverdalen kirke" />
		<tag k="religion" v="christian" />
		<tag k="ssr:stedsnr" v="556231" />
	</node>
	<node lat="62.62417842261398" lon="7.493680834605845" id="-10883">
		<tag k="amenity" v="place_of_worship" />
		<tag k="denomination" v="lutheran" />
		<tag k="name" v="Rødven stavkirke" />
		<tag k="religion" v="christian" />
		<tag k="ssr:stedsnr" v="557652" />
	</node>
	<node lat="62.510130555242455" lon="7.567102785748336" id="-11608">
		<tag k="name" v="Olanaustet" />
		<tag k="place" v="locality" />
		<tag k="ssr:stedsnr" v="961215" />
	</node>
	<node lat="62.624625607545184" lon="7.493778040235816" id="-11628">
		<tag k="amenity" v="place_of_worship" />
		<tag k="denomination" v="lutheran" />
		<tag k="name" v="Rødven kirke" />
		<tag k="religion" v="christian" />
		<tag k="ssr:stedsnr" v="990325" />
	</node>
	<node lat="62.544090251423334" lon="7.612790809982751" id="-11833">
		<tag k="name" v="Runehammaren" />
		<tag k="place" v="locality" />
		<tag k="ssr:stedsnr" v="1072266" />
	</node>
	<node lat="62.560740281490006" lon="7.712387960463811" id="-11842">
		<tag k="name" v="Rampestreken" />
		<tag k="ssr:stedsnr" v="1078399" />
		<tag k="tourism" v="viewpoint" />
	</node>
	<node lat="62.51798782194526" lon="7.7619177199787535" id="-11852">
		<tag k="name" v="Ner-Hole museum" />
		<tag k="ssr:stedsnr" v="1082565" />
		<tag k="tourism" v="museum" />
	</node>
</osm>
