<?xml version="1.0" encoding="UTF-8"?>
<osm version="0.6" generator="osmapis">
	<node lat="62.293878511536" lon="8.126301807134306" id="-7825">
		<tag k="fixme" v="consider place=hamlet" />
		<tag k="name" v="Kleiva" />
		<tag k="place" v="farm" />
		<tag k="ssr:stedsnr" v="10246" />
	</node>
	<node lat="62.43036282791831" lon="7.971440250119996" id="-7826">
		<tag k="fixme" v="consider place=hamlet" />
		<tag k="name" v="Flatmark" />
		<tag k="place" v="farm" />
		<tag k="ssr:stedsnr" v="11007" />
	</node>
	<node lat="62.577480552895196" lon="7.666244446820936" id="-7839">
		<tag k="name" v="Sjøløypet" />
		<tag k="place" v="farm" />
		<tag k="ssr:stedsnr" v="11517" />
	</node>
	<node lat="62.677272224896214" lon="7.562141668480263" id="-7856">
		<tag k="name" v="Teigen" />
		<tag k="place" v="farm" />
		<tag k="ssr:stedsnr" v="32871" />
	</node>
	<node lat="62.63355833234951" lon="7.516619447055286" id="-7858">
		<tag k="name" v="Sandneshagen" />
		<tag k="place" v="isolated_dwelling" />
		<tag k="ssr:stedsnr" v="33113" />
	</node>
	<node lat="62.5065527740763" lon="7.933847216078889" id="-7868">
		<tag k="fixme" v="consider tourism=alpine_hut or tourism=chalet" />
		<tag k="name" v="Saufonnhytta" />
		<tag k="ssr:stedsnr" v="236024" />
		<tag k="tourism" v="wilderness_hut" />
	</node>
	<node lat="62.586299997298994" lon="7.465111107181928" id="-7876">
		<tag k="name" v="Skallen" />
		<tag k="place" v="locality" />
		<tag k="ssr:stedsnr" v="36505" />
	</node>
	<node lat="62.58809203759608" lon="7.471682274117972" id="-7877">
		<tag k="fixme" v="consider place=hamlet" />
		<tag k="name" v="Hatle" />
		<tag k="place" v="farm" />
		<tag k="ssr:stedsnr" v="36506" />
	</node>
	<node lat="62.57559488757832" lon="7.656918544758013" id="-7879">
		<tag k="fixme" v="consider place=hamlet" />
		<tag k="name" v="Hegerholmen" />
		<tag k="place" v="farm" />
		<tag k="ssr:stedsnr" v="36562" />
	</node>
	<node lat="62.583788892254496" lon="7.490252780884257" id="-7881">
		<tag k="name" v="Skogan" />
		<tag k="place" v="locality" />
		<tag k="ssr:stedsnr" v="36580" />
	</node>
	<node lat="62.547266669188396" lon="7.884097224063173" id="-7884">
		<tag k="name" v="Holen" />
		<tag k="place" v="farm" />
		<tag k="ssr:stedsnr" v="36721" />
	</node>
	<node lat="62.47581743788737" lon="7.536282920922195" id="-7900">
		<tag k="fixme" v="consider place=hamlet" />
		<tag k="name" v="Engan" />
		<tag k="place" v="farm" />
		<tag k="ssr:stedsnr" v="71912" />
	</node>
	<node lat="62.43011818317127" lon="7.923881814701143" id="-7904">
		<tag k="fixme" v="consider place=hamlet" />
		<tag k="name" v="Skiri" />
		<tag k="place" v="farm" />
		<tag k="ssr:stedsnr" v="72002" />
	</node>
	<node lat="62.478883335825984" lon="7.76087777982339" id="-7908">
		<tag k="name" v="Engan" />
		<tag k="place" v="isolated_dwelling" />
		<tag k="ssr:stedsnr" v="72074" />
	</node>
	<node lat="62.53560492858391" lon="7.729936645716281" id="-7911">
		<tag k="fixme" v="consider place=hamlet" />
		<tag k="name" v="Åk" />
		<tag k="place" v="farm" />
		<tag k="ssr:stedsnr" v="72118" />
	</node>
	<node lat="62.33436389159284" lon="8.072816665106078" id="-7916">
		<tag k="name" v="Gjerdshaugen" />
		<tag k="place" v="farm" />
		<tag k="ssr:stedsnr" v="72189" />
	</node>
	<node lat="62.572388888616814" lon="7.651177770779188" id="-7921">
		<tag k="name" v="Rønning" />
		<tag k="place" v="farm" />
		<tag k="ssr:stedsnr" v="72513" />
	</node>
	<node lat="62.67713055716776" lon="7.584247222720032" id="-7923">
		<tag k="name" v="Løteigen" />
		<tag k="place" v="farm" />
		<tag k="ssr:stedsnr" v="72712" />
	</node>
	<node lat="62.54142499792694" lon="7.896905548270345" id="-7950">
		<tag k="name" v="Svaa" />
		<tag k="place" v="farm" />
		<tag k="ssr:stedsnr" v="96714" />
	</node>
	<node lat="62.52470833554582" lon="7.703561112860077" id="-7956">
		<tag k="name" v="Soggemoen" />
		<tag k="place" v="hamlet" />
		<tag k="ssr:stedsnr" v="97023" />
	</node>
	<node lat="62.29435833148756" lon="8.124972222282132" id="-7962">
		<tag k="name" v="Nedre Kleiva" />
		<tag k="place" v="isolated_dwelling" />
		<tag k="ssr:stedsnr" v="97518" />
	</node>
	<node lat="62.57983889012349" lon="7.887552772242168" id="-7980">
		<tag k="name" v="Unjemsbakken" />
		<tag k="place" v="farm" />
		<tag k="ssr:stedsnr" v="98584" />
	</node>
	<node lat="62.54628889326917" lon="7.887124995618457" id="-7990">
		<tag k="fixme" v="consider place=hamlet" />
		<tag k="name" v="Dalsbygda" />
		<tag k="place" v="village" />
		<tag k="ssr:stedsnr" v="132111" />
	</node>
	<node lat="62.57999225918678" lon="7.882204925441795" id="-7991">
		<tag k="name" v="Ekra" />
		<tag k="place" v="farm" />
		<tag k="ssr:stedsnr" v="132162" />
	</node>
	<node lat="62.50656667652407" lon="7.536816281851964" id="-7997">
		<tag k="fixme" v="consider place=hamlet" />
		<tag k="name" v="Stokke" />
		<tag k="place" v="farm" />
		<tag k="ssr:stedsnr" v="132360" />
	</node>
	<node lat="62.68976145396041" lon="7.627671377849066" id="-7999">
		<tag k="fixme" v="consider place=hamlet" />
		<tag k="name" v="Mork" />
		<tag k="place" v="farm" />
		<tag k="ssr:stedsnr" v="132708" />
	</node>
	<node lat="62.674512466447645" lon="7.5487969011798235" id="-8000">
		<tag k="alt_name" v="Langnes" />
		<tag k="fixme" v="consider place=hamlet" />
		<tag k="name" v="Langneset" />
		<tag k="place" v="farm" />
		<tag k="ssr:stedsnr" v="132720" />
	</node>
	<node lat="62.47721944420875" lon="7.7688194416156895" id="-8005">
		<tag k="name" v="Skjerveplassen" />
		<tag k="place" v="isolated_dwelling" />
		<tag k="ssr:stedsnr" v="133073" />
	</node>
	<node lat="62.53325833617248" lon="7.600002773126528" id="-8009">
		<tag k="name" v="Grisetsetra" />
		<tag k="place" v="isolated_dwelling" />
		<tag k="ssr:stedsnr" v="133366" />
	</node>
	<node lat="62.343338889178256" lon="8.058849991778171" id="-8018">
		<tag k="fixme" v="consider place=hamlet" />
		<tag k="name" v="Verma" />
		<tag k="place" v="village" />
		<tag k="ssr:stedsnr" v="253051" />
	</node>
	<node lat="62.53623942344635" lon="7.429781655760279" id="-8021">
		<tag k="fixme" v="consider place=hamlet" />
		<tag k="name" v="Sæbø" />
		<tag k="place" v="farm" />
		<tag k="ssr:stedsnr" v="254396" />
	</node>
	<node lat="62.45723333088203" lon="7.821105548213182" id="-8027">
		<tag k="name" v="Myrabølykkja" />
		<tag k="place" v="farm" />
		<tag k="ssr:stedsnr" v="254080" />
	</node>
	<node lat="62.4514310236751" lon="7.837797503231501" id="-8028">
		<tag k="fixme" v="consider place=hamlet" />
		<tag k="name" v="Marstein" />
		<tag k="place" v="farm" />
		<tag k="ssr:stedsnr" v="254082" />
	</node>
	<node lat="62.560077781642676" lon="7.827958333005159" id="-8038">
		<tag k="name" v="Litlebø" />
		<tag k="place" v="farm" />
		<tag k="ssr:stedsnr" v="254162" />
	</node>
	<node lat="62.65851944485056" lon="7.801780550350683" id="-8040">
		<tag k="name" v="Skrokkensetra" />
		<tag k="place" v="isolated_dwelling" />
		<tag k="ssr:stedsnr" v="254242" />
	</node>
	<node lat="62.529387731334566" lon="7.694598759271085" id="-8046">
		<tag k="fixme" v="consider place=hamlet" />
		<tag k="name" v="Grytten" />
		<tag k="place" v="farm" />
		<tag k="ssr:stedsnr" v="254366" />
	</node>
	<node lat="62.58098891147555" lon="7.517348784112064" id="-8048">
		<tag k="fixme" v="consider place=hamlet" />
		<tag k="name" v="Ora" />
		<tag k="place" v="farm" />
		<tag k="ssr:stedsnr" v="254480" />
	</node>
	<node lat="62.584900265792925" lon="7.483659389367792" id="-8049">
		<tag k="fixme" v="consider place=hamlet" />
		<tag k="name" v="Haukeberg" />
		<tag k="place" v="farm" />
		<tag k="ssr:stedsnr" v="254483" />
	</node>
	<node lat="62.61013333432928" lon="7.687480546717868" id="-8050">
		<tag k="historic" v="shieling" />
		<tag k="name" v="Norvikstølen" />
		<tag k="old_name" v="Nordvikstølen" />
		<tag k="place" v="isolated_dwelling" />
		<tag k="ssr:stedsnr" v="254546" />
	</node>
	<node lat="62.62885555596031" lon="7.475891668296537" id="-8056">
		<tag k="name" v="Nerland" />
		<tag k="place" v="farm" />
		<tag k="ssr:stedsnr" v="254629" />
	</node>
	<node lat="62.61966388673365" lon="7.622619447655155" id="-8062">
		<tag k="fixme" v="multiple name tags, choose one and add the other to alt_name" />
		<tag k="name" v="Nygardssetra;Nygardstølen" />
		<tag k="place" v="isolated_dwelling" />
		<tag k="ssr:stedsnr" v="254653" />
	</node>
	<node lat="62.62209720359964" lon="7.493531746262569" id="-8064">
		<tag k="fixme" v="consider place=hamlet" />
		<tag k="name" v="Hammarvoll" />
		<tag k="place" v="farm" />
		<tag k="ssr:stedsnr" v="254658" />
	</node>
	<node lat="62.58501666953639" lon="7.7530583429220385" id="-8070">
		<tag k="alt_name" v="Breivika" />
		<tag k="name" v="Gamlegjerdet" />
		<tag k="place" v="farm" />
		<tag k="ssr:stedsnr" v="142811" />
	</node>
	<node lat="62.685480552732486" lon="7.610591661192838" id="-8078">
		<tag k="name" v="Skiplassen" />
		<tag k="place" v="locality" />
		<tag k="ssr:stedsnr" v="154161" />
	</node>
	<node lat="62.54335555268019" lon="7.721983342024104" id="-8089">
		<tag k="alt_name" v="Mjølva" />
		<tag k="name" v="Mjelva" />
		<tag k="place" v="farm" />
		<tag k="ssr:stedsnr" v="157494" />
	</node>
	<node lat="62.56387733305438" lon="7.824550073157796" id="-8092">
		<tag k="name" v="Stølen" />
		<tag k="place" v="farm" />
		<tag k="ssr:stedsnr" v="157607" />
	</node>
	<node lat="62.52912777653156" lon="7.3835916735674605" id="-8094">
		<tag k="historic" v="shieling" />
		<tag k="name" v="Bøstølen" />
		<tag k="place" v="isolated_dwelling" />
		<tag k="ssr:stedsnr" v="157509" />
	</node>
	<node lat="62.652147223749004" lon="7.5032194381700625" id="-8106">
		<tag k="name" v="Strandheim" />
		<tag k="place" v="isolated_dwelling" />
		<tag k="ssr:stedsnr" v="157950" />
	</node>
	<node lat="62.65929166456501" lon="7.50066388076921" id="-8155">
		<tag k="name" v="Bakken" />
		<tag k="place" v="farm" />
		<tag k="ssr:stedsnr" v="218113" />
	</node>
	<node lat="62.577041670673594" lon="7.813266662351235" id="-8176">
		<tag k="name" v="Brauta" />
		<tag k="place" v="farm" />
		<tag k="ssr:stedsnr" v="219409" />
	</node>
	<node lat="62.34128611330619" lon="8.128158327200222" id="-8201">
		<tag k="name" v="Johanhytta" />
		<tag k="place" v="isolated_dwelling" />
		<tag k="ssr:stedsnr" v="253235" />
	</node>
	<node lat="62.5163865723393" lon="7.7680049977428185" id="-8208">
		<tag k="fixme" v="consider place=hamlet" />
		<tag k="name" v="Hole" />
		<tag k="place" v="farm" />
		<tag k="ssr:stedsnr" v="254112" />
	</node>
	<node lat="62.57777499910809" lon="7.79230556027509" id="-8214">
		<tag k="name" v="Isfjorden" />
		<tag k="place" v="village" />
		<tag k="ssr:stedsnr" v="254301" />
	</node>
	<node lat="62.56749166477041" lon="7.6870861198624" id="-8217">
		<tag k="name" v="Åndalsnes" />
		<tag k="place" v="town" />
		<tag k="ssr:stedsnr" v="254502" />
	</node>
	<node lat="62.56399444684075" lon="7.595405553662527" id="-8218">
		<tag k="name" v="Neset" />
		<tag k="place" v="farm" />
		<tag k="ssr:stedsnr" v="254510" />
	</node>
	<node lat="62.581043058559956" lon="7.686586167054551" id="-8219">
		<tag k="fixme" v="consider place=hamlet" />
		<tag k="name" v="Stranda" />
		<tag k="place" v="farm" />
		<tag k="ssr:stedsnr" v="254522" />
	</node>
	<node lat="62.58450277566239" lon="7.672180546016218" id="-8222">
		<tag k="historic" v="shieling" />
		<tag k="name" v="Fonnasetra" />
		<tag k="place" v="isolated_dwelling" />
		<tag k="ssr:stedsnr" v="254474" />
	</node>
	<node lat="62.675755559267444" lon="7.559411119594336" id="-8226">
		<tag k="fixme" v="multiple name tags, choose one and add the other to alt_name" />
		<tag k="name" v="Lundheim;Lunheim" />
		<tag k="place" v="farm" />
		<tag k="ssr:stedsnr" v="254704" />
	</node>
	<node lat="62.5701722232997" lon="7.636658329010663" id="-8251">
		<tag k="name" v="Teigan" />
		<tag k="place" v="farm" />
		<tag k="ssr:stedsnr" v="459542" />
	</node>
	<node lat="62.69352778101258" lon="7.63311389694188" id="-8256">
		<tag k="name" v="Stranda" />
		<tag k="place" v="farm" />
		<tag k="ssr:stedsnr" v="276202" />
	</node>
	<node lat="62.582233332600715" lon="7.834977772635162" id="-8265">
		<tag k="name" v="Reiten" />
		<tag k="place" v="farm" />
		<tag k="ssr:stedsnr" v="278520" />
	</node>
	<node lat="62.5331583342307" lon="7.602236116836358" id="-8286">
		<tag k="historic" v="shieling" />
		<tag k="name" v="Sjølbotnsetra" />
		<tag k="place" v="isolated_dwelling" />
		<tag k="ssr:stedsnr" v="279142" />
	</node>
	<node lat="62.56897700468393" lon="7.815228703331894" id="-8292">
		<tag k="fixme" v="consider place=hamlet" />
		<tag k="name" v="Ytterlia" />
		<tag k="place" v="farm" />
		<tag k="ssr:stedsnr" v="279420" />
	</node>
	<node lat="62.495366669057226" lon="7.530808326535185" id="-8301">
		<tag k="historic" v="shieling" />
		<tag k="name" v="Gammelsetra" />
		<tag k="place" v="isolated_dwelling" />
		<tag k="ssr:stedsnr" v="279868" />
	</node>
	<node lat="62.491069191588814" lon="7.756515360439939" id="-8326">
		<tag k="fixme" v="consider place=hamlet" />
		<tag k="name" v="Eidet" />
		<tag k="place" v="farm" />
		<tag k="ssr:stedsnr" v="461317" />
	</node>
	<node lat="62.45555833003322" lon="7.827263891299387" id="-8373">
		<tag k="name" v="Marsteingjerdet" />
		<tag k="place" v="farm" />
		<tag k="ssr:stedsnr" v="314103" />
	</node>
	<node lat="62.596825003886906" lon="7.635269452426431" id="-8375">
		<tag k="fixme" v="consider tourism=alpine_hut or tourism=chalet" />
		<tag k="name" v="Skorgedalsbu" />
		<tag k="ssr:stedsnr" v="466917" />
		<tag k="tourism" v="wilderness_hut" />
	</node>
	<node lat="62.50542777434982" lon="7.500644443568191" id="-8380">
		<tag k="historic" v="shieling" />
		<tag k="name" v="Hovdesetra" />
		<tag k="place" v="isolated_dwelling" />
		<tag k="ssr:stedsnr" v="315354" />
	</node>
	<node lat="62.50838702472194" lon="7.535390464231756" id="-8381">
		<tag k="fixme" v="consider place=hamlet" />
		<tag k="name" v="Lia" />
		<tag k="place" v="farm" />
		<tag k="ssr:stedsnr" v="315359" />
	</node>
	<node lat="62.641850000247594" lon="7.6137472240887965" id="-8391">
		<tag k="name" v="Nessetra" />
		<tag k="place" v="isolated_dwelling" />
		<tag k="ssr:stedsnr" v="315641" />
	</node>
	<node lat="62.67127499658331" lon="7.538927778476106" id="-8405">
		<tag k="name" v="Kariplassen" />
		<tag k="place" v="locality" />
		<tag k="ssr:stedsnr" v="336411" />
	</node>
	<node lat="62.61433888756909" lon="7.545913883356343" id="-8406">
		<tag k="name" v="Holmemhaugen" />
		<tag k="place" v="farm" />
		<tag k="ssr:stedsnr" v="336594" />
	</node>
	<node lat="62.535966663033584" lon="7.501641674175631" id="-8424">
		<tag k="name" v="Haugen" />
		<tag k="place" v="farm" />
		<tag k="ssr:stedsnr" v="339504" />
	</node>
	<node lat="62.5454388912468" lon="8.036397222692832" id="-8449">
		<tag k="fixme" v="consider tourism=alpine_hut or tourism=chalet" />
		<tag k="name" v="Haudukhyttå" />
		<tag k="ssr:stedsnr" v="357024" />
		<tag k="tourism" v="wilderness_hut" />
	</node>
	<node lat="62.495145197395914" lon="7.546889454080524" id="-8456">
		<tag k="fixme" v="consider place=hamlet" />
		<tag k="name" v="Skjelbostad" />
		<tag k="place" v="farm" />
		<tag k="ssr:stedsnr" v="374938" />
	</node>
	<node lat="62.431722223688794" lon="7.3834222240312295" id="-8458">
		<tag k="historic" v="shieling" />
		<tag k="name" v="Røsta" />
		<tag k="place" v="isolated_dwelling" />
		<tag k="ssr:stedsnr" v="374994" />
	</node>
	<node lat="62.449705559596424" lon="7.83232222626578" id="-8464">
		<tag k="name" v="Kvernebakken" />
		<tag k="place" v="farm" />
		<tag k="ssr:stedsnr" v="375085" />
	</node>
	<node lat="62.44498649486704" lon="7.8292591019873505" id="-8465">
		<tag k="fixme" v="consider place=hamlet" />
		<tag k="name" v="Alnes" />
		<tag k="place" v="farm" />
		<tag k="ssr:stedsnr" v="375091" />
	</node>
	<node lat="62.43570277442169" lon="7.8578749991749435" id="-8467">
		<tag k="name" v="Trøa" />
		<tag k="place" v="farm" />
		<tag k="ssr:stedsnr" v="375094" />
	</node>
	<node lat="62.66671111143963" lon="7.803208338893874" id="-8469">
		<tag k="name" v="Dalesetra" />
		<tag k="place" v="isolated_dwelling" />
		<tag k="ssr:stedsnr" v="375254" />
	</node>
	<node lat="62.610886114745774" lon="7.440313896083095" id="-8475">
		<tag k="name" v="Hammarvollsetra" />
		<tag k="place" v="isolated_dwelling" />
		<tag k="ssr:stedsnr" v="375537" />
	</node>
	<node lat="62.676109199509675" lon="7.567775820364239" id="-8482">
		<tag k="fixme" v="consider place=hamlet" />
		<tag k="name" v="Holm" />
		<tag k="place" v="farm" />
		<tag k="ssr:stedsnr" v="375711" />
	</node>
	<node lat="62.67725833273741" lon="7.564133334199212" id="-8500">
		<tag k="name" v="Fredheim" />
		<tag k="place" v="farm" />
		<tag k="ssr:stedsnr" v="396884" />
	</node>
	<node lat="62.65412221796391" lon="7.501833336387422" id="-8513">
		<tag k="name" v="Ødegard" />
		<tag k="place" v="farm" />
		<tag k="ssr:stedsnr" v="400098" />
	</node>
	<node lat="62.56041666996198" lon="7.567877776115265" id="-8519">
		<tag k="name" v="Øverhagen" />
		<tag k="place" v="isolated_dwelling" />
		<tag k="ssr:stedsnr" v="400129" />
	</node>
	<node lat="62.5528694447183" lon="7.8754694499146245" id="-8532">
		<tag k="name" v="Åsgrova" />
		<tag k="place" v="farm" />
		<tag k="ssr:stedsnr" v="400736" />
	</node>
	<node lat="62.531305555439026" lon="7.9248000005357655" id="-8534">
		<tag k="name" v="Erstad" />
		<tag k="place" v="hamlet" />
		<tag k="ssr:stedsnr" v="400803" />
	</node>
	<node lat="62.67818888713505" lon="7.731341664057293" id="-8561">
		<tag k="name" v="Haugen" />
		<tag k="place" v="farm" />
		<tag k="ssr:stedsnr" v="436275" />
	</node>
	<node lat="62.679003061577376" lon="7.729137795744912" id="-8562">
		<tag k="fixme" v="consider place=hamlet" />
		<tag k="name" v="Dale" />
		<tag k="place" v="farm" />
		<tag k="ssr:stedsnr" v="436276" />
	</node>
	<node lat="62.548143879983684" lon="7.717056610451479" id="-8563">
		<tag k="fixme" v="consider place=hamlet" />
		<tag k="name" v="Høljenes" />
		<tag k="place" v="farm" />
		<tag k="ssr:stedsnr" v="436410" />
	</node>
	<node lat="62.50526389209228" lon="7.56979999731542" id="-8564">
		<tag k="name" v="Bakken" />
		<tag k="place" v="farm" />
		<tag k="ssr:stedsnr" v="436357" />
	</node>
	<node lat="62.510494448152635" lon="7.51344166112136" id="-8565">
		<tag k="historic" v="shieling" />
		<tag k="name" v="Setsetra" />
		<tag k="place" v="isolated_dwelling" />
		<tag k="ssr:stedsnr" v="436370" />
	</node>
	<node lat="62.570727775654774" lon="7.570569438446547" id="-8568">
		<tag k="name" v="Nebba" />
		<tag k="place" v="farm" />
		<tag k="ssr:stedsnr" v="436513" />
	</node>
	<node lat="62.603366668912024" lon="7.546750000255133" id="-8569">
		<tag k="name" v="Botn" />
		<tag k="place" v="farm" />
		<tag k="ssr:stedsnr" v="436563" />
	</node>
	<node lat="62.310730067326304" lon="8.10205596295294" id="-8570">
		<tag k="name" v="Raudstøl" />
		<tag k="place" v="farm" />
		<tag k="ssr:stedsnr" v="436618" />
	</node>
	<node lat="62.64307245406047" lon="7.512576974326398" id="-8573">
		<tag k="fixme" v="consider place=hamlet" />
		<tag k="name" v="Krokset" />
		<tag k="place" v="farm" />
		<tag k="ssr:stedsnr" v="436623" />
	</node>
	<node lat="62.540818719272536" lon="7.590133682560415" id="-8577">
		<tag k="fixme" v="consider place=hamlet" />
		<tag k="name" v="Innholmen" />
		<tag k="place" v="farm" />
		<tag k="ssr:stedsnr" v="437449" />
	</node>
	<node lat="62.68461944629256" lon="7.692444452213454" id="-8590">
		<tag k="name" v="Øvreløen" />
		<tag k="place" v="locality" />
		<tag k="ssr:stedsnr" v="457404" />
	</node>
	<node lat="62.61974166635697" lon="7.596552773082074" id="-8597">
		<tag k="name" v="Seljevollhaugen" />
		<tag k="place" v="isolated_dwelling" />
		<tag k="ssr:stedsnr" v="459603" />
	</node>
	<node lat="62.59819722283699" lon="7.741233336137134" id="-8618">
		<tag k="historic" v="shieling" />
		<tag k="name" v="Breivikstølan" />
		<tag k="place" v="isolated_dwelling" />
		<tag k="ssr:stedsnr" v="461513" />
	</node>
	<node lat="62.53435277961932" lon="7.385338895033757" id="-8621">
		<tag k="historic" v="shieling" />
		<tag k="name" v="Gamlestølen" />
		<tag k="place" v="isolated_dwelling" />
		<tag k="ssr:stedsnr" v="461560" />
	</node>
	<node lat="62.5408749991969" lon="7.903186105233353" id="-8649">
		<tag k="name" v="Dalehaug" />
		<tag k="place" v="farm" />
		<tag k="ssr:stedsnr" v="679128" />
	</node>
	<node lat="62.509394440526044" lon="7.533305555701234" id="-8658">
		<tag k="name" v="Sethjellen" />
		<tag k="place" v="farm" />
		<tag k="ssr:stedsnr" v="679351" />
	</node>
	<node lat="62.51025309606746" lon="7.358435701591808" id="-8659">
		<tag k="fixme" v="consider place=hamlet" />
		<tag k="name" v="Venås" />
		<tag k="place" v="farm" />
		<tag k="ssr:stedsnr" v="679354" />
	</node>
	<node lat="62.57059167091545" lon="7.598947227491231" id="-8664">
		<tag k="name" v="Litlehjem" />
		<tag k="place" v="farm" />
		<tag k="ssr:stedsnr" v="679494" />
	</node>
	<node lat="62.50096666614527" lon="7.6737416688613616" id="-8665">
		<tag k="name" v="Soggesetra" />
		<tag k="place" v="isolated_dwelling" />
		<tag k="ssr:stedsnr" v="679447" />
	</node>
	<node lat="62.69528955465598" lon="7.694996723854977" id="-8666">
		<tag k="alt_name" v="Mittet, ytre" />
		<tag k="fixme" v="consider place=hamlet" />
		<tag k="name" v="Ytre Mittet" />
		<tag k="place" v="farm" />
		<tag k="ssr:stedsnr" v="679694" />
	</node>
	<node lat="62.69259444165548" lon="7.7141305483435145" id="-8668">
		<tag k="name" v="Staurset" />
		<tag k="place" v="farm" />
		<tag k="ssr:stedsnr" v="679696" />
	</node>
	<node lat="62.68747222033379" lon="7.618894444517999" id="-8669">
		<tag k="name" v="Haugan" />
		<tag k="place" v="farm" />
		<tag k="ssr:stedsnr" v="679699" />
	</node>
	<node lat="62.33883353731549" lon="8.064676356495005" id="-8670">
		<tag k="fixme" v="consider place=hamlet" />
		<tag k="name" v="Kylling" />
		<tag k="place" v="farm" />
		<tag k="ssr:stedsnr" v="496210" />
	</node>
	<node lat="62.54099670715927" lon="7.8974157506696905" id="-8678">
		<tag k="alt_name" v="Dale, øvre;Øvre Dale" />
		<tag k="fixme" v="consider place=hamlet" />
		<tag k="name" v="Øver-Dale" />
		<tag k="place" v="farm" />
		<tag k="ssr:stedsnr" v="497125" />
	</node>
	<node lat="62.569272222256956" lon="7.627033338327246" id="-8680">
		<tag k="name" v="Vika" />
		<tag k="place" v="farm" />
		<tag k="ssr:stedsnr" v="497512" />
	</node>
	<node lat="62.55769172873694" lon="7.559940633122726" id="-8684">
		<tag k="fixme" v="consider place=hamlet" />
		<tag k="name" v="Klungnes" />
		<tag k="place" v="farm" />
		<tag k="ssr:stedsnr" v="497531" />
	</node>
	<node lat="62.578502225962005" lon="7.566605780299808" id="-8687">
		<tag k="fixme" v="consider place=hamlet" />
		<tag k="name" v="Gjerdset" />
		<tag k="place" v="farm" />
		<tag k="ssr:stedsnr" v="497500" />
	</node>
	<node lat="62.66675388979572" lon="7.699976393430041" id="-8688">
		<tag k="alt_name" v="Mittetsetrane, yt;Yttermittetsetra" />
		<tag k="historic" v="shieling" />
		<tag k="name" v="Yttermittetsetra" />
		<tag k="place" v="isolated_dwelling" />
		<tag k="ssr:stedsnr" v="497604" />
	</node>
	<node lat="62.621013886531244" lon="7.470680560725465" id="-8689">
		<tag k="name" v="Bakketun" />
		<tag k="place" v="farm" />
		<tag k="ssr:stedsnr" v="497646" />
	</node>
	<node lat="62.61866666637952" lon="7.587344438855765" id="-8690">
		<tag k="fixme" v="multiple name tags, choose one and add the other to alt_name" />
		<tag k="name" v="Rabbesetra;Robbesetra" />
		<tag k="place" v="isolated_dwelling" />
		<tag k="ssr:stedsnr" v="497660" />
	</node>
	<node lat="62.641066666048225" lon="7.511661109787796" id="-8699">
		<tag k="name" v="Kroksethaugen" />
		<tag k="place" v="farm" />
		<tag k="ssr:stedsnr" v="518075" />
	</node>
	<node lat="62.66399444124484" lon="7.507491674721599" id="-8716">
		<tag k="name" v="Herjestranda" />
		<tag k="place" v="hamlet" />
		<tag k="ssr:stedsnr" v="521102" />
	</node>
	<node lat="62.31322777519545" lon="8.111502777091788" id="-8722">
		<tag k="historic" v="shieling" />
		<tag k="name" v="Stølan" />
		<tag k="place" v="isolated_dwelling" />
		<tag k="ssr:stedsnr" v="521410" />
	</node>
	<node lat="62.579972218807356" lon="7.832216659858143" id="-8727">
		<tag k="name" v="Andersgarden" />
		<tag k="place" v="farm" />
		<tag k="ssr:stedsnr" v="521460" />
	</node>
	<node lat="62.59369722391783" lon="7.503072231623925" id="-8731">
		<tag k="name" v="Lykkja" />
		<tag k="place" v="farm" />
		<tag k="ssr:stedsnr" v="521576" />
	</node>
	<node lat="62.472116668005896" lon="7.535197230048434" id="-8740">
		<tag k="historic" v="shieling" />
		<tag k="name" v="Sagsetra" />
		<tag k="place" v="isolated_dwelling" />
		<tag k="ssr:stedsnr" v="521926" />
	</node>
	<node lat="62.293372066335166" lon="7.8837757421113475" id="-8761">
		<tag k="name" v="Alnesherbørget" />
		<tag k="place" v="locality" />
		<tag k="ssr:stedsnr" v="556257" />
	</node>
	<node lat="62.537905558600436" lon="7.393569445629955" id="-8773">
		<tag k="historic" v="shieling" />
		<tag k="name" v="Høgsetra" />
		<tag k="place" v="isolated_dwelling" />
		<tag k="ssr:stedsnr" v="557409" />
	</node>
	<node lat="62.57578055131461" lon="7.998202773981854" id="-8774">
		<tag k="name" v="Stølen" />
		<tag k="place" v="isolated_dwelling" />
		<tag k="ssr:stedsnr" v="557149" />
	</node>
	<node lat="62.58408258266864" lon="7.953372713797314" id="-8775">
		<tag k="name" v="Øyan" />
		<tag k="place" v="locality" />
		<tag k="ssr:stedsnr" v="557164" />
	</node>
	<node lat="62.504581992125054" lon="7.524972761195133" id="-8779">
		<tag k="historic" v="shieling" />
		<tag k="name" v="Stokksetra" />
		<tag k="place" v="isolated_dwelling" />
		<tag k="ssr:stedsnr" v="557365" />
	</node>
	<node lat="62.66530833568653" lon="7.519919447113135" id="-8782">
		<tag k="name" v="Einen" />
		<tag k="place" v="farm" />
		<tag k="ssr:stedsnr" v="557720" />
	</node>
	<node lat="62.446864680561106" lon="7.5003641007319874" id="-8787">
		<tag k="fixme" v="consider place=hamlet" />
		<tag k="name" v="Berill" />
		<tag k="place" v="farm" />
		<tag k="ssr:stedsnr" v="557960" />
	</node>
	<node lat="62.68434722593119" lon="7.706469440985821" id="-8806">
		<tag k="name" v="Nygjerdet" />
		<tag k="place" v="locality" />
		<tag k="ssr:stedsnr" v="578396" />
	</node>
	<node lat="62.62918055806622" lon="7.526569452683365" id="-8812">
		<tag k="name" v="Nerhagen" />
		<tag k="place" v="farm" />
		<tag k="ssr:stedsnr" v="579642" />
	</node>
	<node lat="62.627291666792104" lon="7.530580550205705" id="-8813">
		<tag k="name" v="Rostad" />
		<tag k="place" v="farm" />
		<tag k="ssr:stedsnr" v="579597" />
	</node>
	<node lat="62.580518636277354" lon="7.552480179193015" id="-8820">
		<tag k="fixme" v="consider place=hamlet" />
		<tag k="name" v="Ytre Siem" />
		<tag k="place" v="farm" />
		<tag k="ssr:stedsnr" v="580753" />
	</node>
	<node lat="62.58068333310058" lon="7.832866662116751" id="-8825">
		<tag k="name" v="Unjemskollen" />
		<tag k="place" v="farm" />
		<tag k="ssr:stedsnr" v="581502" />
	</node>
	<node lat="62.51395555863402" lon="7.373852775195338" id="-8835">
		<tag k="name" v="Nedre Øygarden" />
		<tag k="place" v="locality" />
		<tag k="ssr:stedsnr" v="582451" />
	</node>
	<node lat="62.581741671081176" lon="7.4678972308340805" id="-8838">
		<tag k="name" v="Haukeberghagen" />
		<tag k="place" v="locality" />
		<tag k="ssr:stedsnr" v="582641" />
	</node>
	<node lat="62.697113893037546" lon="7.705999990940463" id="-8853">
		<tag k="name" v="Myra" />
		<tag k="place" v="farm" />
		<tag k="ssr:stedsnr" v="700678" />
	</node>
	<node lat="62.62580277856008" lon="7.410291664552836" id="-8860">
		<tag k="name" v="Gjølstølen" />
		<tag k="place" v="locality" />
		<tag k="ssr:stedsnr" v="701683" />
	</node>
	<node lat="62.36326056033378" lon="8.04072671287948" id="-8865">
		<tag k="fixme" v="consider place=hamlet" />
		<tag k="name" v="Stavem" />
		<tag k="place" v="farm" />
		<tag k="ssr:stedsnr" v="617051" />
	</node>
	<node lat="62.605044442399745" lon="7.542927783475952" id="-8873">
		<tag k="name" v="Innergardsbukta" />
		<tag k="place" v="farm" />
		<tag k="ssr:stedsnr" v="701799" />
	</node>
	<node lat="62.48889166258343" lon="7.431955560190349" id="-8876">
		<tag k="historic" v="shieling" />
		<tag k="name" v="Røsta" />
		<tag k="place" v="isolated_dwelling" />
		<tag k="ssr:stedsnr" v="617890" />
	</node>
	<node lat="62.4661416706644" lon="7.817291664188501" id="-8881">
		<tag k="name" v="Risen" />
		<tag k="place" v="farm" />
		<tag k="ssr:stedsnr" v="618080" />
	</node>
	<node lat="62.45277499627359" lon="7.832125005664223" id="-8882">
		<tag k="name" v="Vonheim" />
		<tag k="place" v="farm" />
		<tag k="ssr:stedsnr" v="618097" />
	</node>
	<node lat="62.432289147162884" lon="7.867779353171037" id="-8884">
		<tag k="fixme" v="consider place=hamlet" />
		<tag k="name" v="Remmem" />
		<tag k="place" v="farm" />
		<tag k="ssr:stedsnr" v="618102" />
	</node>
	<node lat="62.61860833519117" lon="7.737338886063187" id="-8885">
		<tag k="historic" v="shieling" />
		<tag k="name" v="Ingridsetra" />
		<tag k="place" v="isolated_dwelling" />
		<tag k="ssr:stedsnr" v="618329" />
	</node>
	<node lat="62.5937666673531" lon="7.624224999800765" id="-8888">
		<tag k="historic" v="shieling" />
		<tag k="name" v="Løytnantstølen" />
		<tag k="place" v="isolated_dwelling" />
		<tag k="ssr:stedsnr" v="618603" />
	</node>
	<node lat="62.62704235510782" lon="7.485371062792859" id="-8891">
		<tag k="fixme" v="consider place=hamlet" />
		<tag k="name" v="Vollan" />
		<tag k="place" v="farm" />
		<tag k="ssr:stedsnr" v="618636" />
	</node>
	<node lat="62.61615555135562" lon="7.438769451697398" id="-8894">
		<tag k="historic" v="shieling" />
		<tag k="name" v="Vollstølen" />
		<tag k="place" v="isolated_dwelling" />
		<tag k="ssr:stedsnr" v="618651" />
	</node>
	<node lat="62.61974166804235" lon="7.585486118754475" id="-8896">
		<tag k="name" v="Holmemsetra" />
		<tag k="place" v="isolated_dwelling" />
		<tag k="ssr:stedsnr" v="618656" />
	</node>
	<node lat="62.586816663018254" lon="7.494980549293226" id="-8898">
		<tag k="fixme" v="consider place=hamlet" />
		<tag k="name" v="Eidsbygda" />
		<tag k="place" v="village" />
		<tag k="ssr:stedsnr" v="618599" />
	</node>
	<node lat="62.56515555276646" lon="7.397661117989726" id="-8928">
		<tag k="name" v="Stolsstranda" />
		<tag k="place" v="locality" />
		<tag k="ssr:stedsnr" v="704568" />
	</node>
	<node lat="62.56813055622676" lon="7.729772212545679" id="-8929">
		<tag k="name" v="Nessetra" />
		<tag k="place" v="locality" />
		<tag k="ssr:stedsnr" v="704571" />
	</node>
	<node lat="62.49112222067114" lon="7.526388897847355" id="-8934">
		<tag k="historic" v="shieling" />
		<tag k="name" v="Mildridstølen" />
		<tag k="place" v="isolated_dwelling" />
		<tag k="ssr:stedsnr" v="704855" />
	</node>
	<node lat="62.699172226654916" lon="7.6938388861067" id="-8945">
		<tag k="name" v="Elvetun" />
		<tag k="place" v="isolated_dwelling" />
		<tag k="ssr:stedsnr" v="639411" />
	</node>
	<node lat="62.682008335652164" lon="7.727763895517966" id="-8946">
		<tag k="name" v="Fonna" />
		<tag k="place" v="farm" />
		<tag k="ssr:stedsnr" v="639524" />
	</node>
	<node lat="62.344824996712894" lon="8.048994439090967" id="-8960">
		<tag k="name" v="Slettalykkja" />
		<tag k="place" v="farm" />
		<tag k="ssr:stedsnr" v="642411" />
	</node>
	<node lat="62.556325000762776" lon="7.857019444239902" id="-8975">
		<tag k="name" v="Nedre Åsen" />
		<tag k="place" v="farm" />
		<tag k="ssr:stedsnr" v="642707" />
	</node>
	<node lat="62.429858329411914" lon="7.979038887386496" id="-8988">
		<tag k="name" v="Gamlegarden" />
		<tag k="place" v="locality" />
		<tag k="ssr:stedsnr" v="643810" />
	</node>
	<node lat="62.56518333630716" lon="7.679444442206535" id="-8991">
		<tag k="name" v="Nes" />
		<tag k="place" v="quarter" />
		<tag k="ssr:stedsnr" v="657212" />
	</node>
	<node lat="62.451986111217366" lon="7.825058333175352" id="-8998">
		<tag k="name" v="Alnes" />
		<tag k="place" v="farm" />
		<tag k="ssr:stedsnr" v="678114" />
	</node>
	<node lat="62.65465832890557" lon="7.58850000229649" id="-9011">
		<tag k="historic" v="shieling" />
		<tag k="name" v="Herjesetra" />
		<tag k="place" v="isolated_dwelling" />
		<tag k="ssr:stedsnr" v="679605" />
	</node>
	<node lat="62.639074996038524" lon="7.472033332148573" id="-9012">
		<tag k="fixme" v="multiple name tags, choose one and add the other to alt_name" />
		<tag k="name" v="Haustenga;Høsteng" />
		<tag k="place" v="farm" />
		<tag k="ssr:stedsnr" v="679611" />
	</node>
	<node lat="62.65004444536952" lon="7.541927786770113" id="-9014">
		<tag k="name" v="Nysetra" />
		<tag k="place" v="isolated_dwelling" />
		<tag k="ssr:stedsnr" v="679616" />
	</node>
	<node lat="62.62699722162635" lon="7.4900055519117865" id="-9018">
		<tag k="name" v="Myrvang" />
		<tag k="place" v="farm" />
		<tag k="ssr:stedsnr" v="679644" />
	</node>
	<node lat="62.59541388870979" lon="7.50761944298452" id="-9019">
		<tag k="name" v="Eidshagen" />
		<tag k="place" v="farm" />
		<tag k="ssr:stedsnr" v="679571" />
	</node>
	<node lat="62.65894690179651" lon="7.500587501101266" id="-9021">
		<tag k="fixme" v="consider place=hamlet" />
		<tag k="name" v="Åfarnes" />
		<tag k="place" v="farm" />
		<tag k="ssr:stedsnr" v="679584" />
	</node>
	<node lat="62.636900002925756" lon="7.437391670977723" id="-9045">
		<tag k="name" v="Oksastrandsetra" />
		<tag k="place" v="locality" />
		<tag k="ssr:stedsnr" v="701126" />
	</node>
	<node lat="62.65419721891425" lon="7.500933326529074" id="-9057">
		<tag k="name" v="Lybekk" />
		<tag k="place" v="farm" />
		<tag k="ssr:stedsnr" v="703104" />
	</node>
	<node lat="62.50030000401729" lon="7.567788885394724" id="-9065">
		<tag k="name" v="Røysan" />
		<tag k="place" v="quarter" />
		<tag k="ssr:stedsnr" v="703871" />
	</node>
	<node lat="62.307864179886444" lon="8.099858766342475" id="-9096">
		<tag k="fixme" v="consider place=hamlet" />
		<tag k="name" v="Brulia" />
		<tag k="place" v="farm" />
		<tag k="ssr:stedsnr" v="739217" />
	</node>
	<node lat="62.65753055955281" lon="7.7940944478213146" id="-9098">
		<tag k="name" v="Haugen" />
		<tag k="place" v="isolated_dwelling" />
		<tag k="ssr:stedsnr" v="739257" />
	</node>
	<node lat="62.50239600275445" lon="7.570132300429365" id="-9104">
		<tag k="fixme" v="consider place=hamlet" />
		<tag k="name" v="Hjellen" />
		<tag k="place" v="farm" />
		<tag k="ssr:stedsnr" v="739362" />
	</node>
	<node lat="62.58569166869404" lon="7.678319447711381" id="-9105">
		<tag k="name" v="Strandasetra" />
		<tag k="place" v="isolated_dwelling" />
		<tag k="ssr:stedsnr" v="739498" />
	</node>
	<node lat="62.63361666630875" lon="7.491075004715121" id="-9107">
		<tag k="fixme" v="multiple name tags, choose one and add the other to alt_name" />
		<tag k="name" v="Bakkåkran;Bakåkrane" />
		<tag k="place" v="farm" />
		<tag k="ssr:stedsnr" v="739658" />
	</node>
	<node lat="62.67302221824605" lon="7.543258334350747" id="-9110">
		<tag k="name" v="Hagen" />
		<tag k="place" v="farm" />
		<tag k="ssr:stedsnr" v="739727" />
	</node>
	<node lat="62.559222224242774" lon="7.565674996943644" id="-9115">
		<tag k="name" v="Myrset" />
		<tag k="place" v="farm" />
		<tag k="ssr:stedsnr" v="740545" />
	</node>
	<node lat="62.5916583293103" lon="7.65061389819192" id="-9116">
		<tag k="historic" v="shieling" />
		<tag k="name" v="Storstølen" />
		<tag k="place" v="isolated_dwelling" />
		<tag k="ssr:stedsnr" v="740604" />
	</node>
	<node lat="62.51915555708231" lon="7.96826667067104" id="-9118">
		<tag k="fixme" v="consider tourism=alpine_hut or tourism=chalet" />
		<tag k="name" v="Glutterstauå" />
		<tag k="ssr:stedsnr" v="903030" />
		<tag k="tourism" v="wilderness_hut" />
	</node>
	<node lat="62.554872222806196" lon="7.925097229009097" id="-9119">
		<tag k="fixme" v="consider tourism=alpine_hut or tourism=chalet" />
		<tag k="name" v="Unhjemsbotnhytta" />
		<tag k="ssr:stedsnr" v="903033" />
		<tag k="tourism" v="wilderness_hut" />
	</node>
	<node lat="62.60503888606829" lon="7.669919442894147" id="-9121">
		<tag k="historic" v="shieling" />
		<tag k="name" v="Haukebergstølen" />
		<tag k="place" v="isolated_dwelling" />
		<tag k="ssr:stedsnr" v="740590" />
	</node>
	<node lat="62.69571944617119" lon="7.683725004683323" id="-9143">
		<tag k="name" v="Lunheim" />
		<tag k="place" v="farm" />
		<tag k="ssr:stedsnr" v="760553" />
	</node>
	<node lat="62.631091670987004" lon="7.548927783977547" id="-9144">
		<tag k="name" v="Frøysetsetra" />
		<tag k="place" v="isolated_dwelling" />
		<tag k="ssr:stedsnr" v="761099" />
	</node>
	<node lat="62.61239166693192" lon="7.430113882272434" id="-9148">
		<tag k="name" v="Limsteinen" />
		<tag k="place" v="locality" />
		<tag k="ssr:stedsnr" v="761617" />
	</node>
	<node lat="62.63485277490581" lon="7.4214166643146475" id="-9157">
		<tag k="name" v="Ottestadsetra" />
		<tag k="place" v="locality" />
		<tag k="ssr:stedsnr" v="762751" />
	</node>
	<node lat="62.602036115565085" lon="7.545777772746342" id="-9159">
		<tag k="name" v="Slettbakken" />
		<tag k="place" v="farm" />
		<tag k="ssr:stedsnr" v="762758" />
	</node>
	<node lat="62.66713333677827" lon="7.767202769468039" id="-9189">
		<tag k="historic" v="shieling" />
		<tag k="name" v="Nysetra" />
		<tag k="place" v="isolated_dwelling" />
		<tag k="ssr:stedsnr" v="765963" />
	</node>
	<node lat="62.57850049583541" lon="7.778809118606184" id="-9201">
		<tag k="fixme" v="consider place=hamlet" />
		<tag k="name" v="Hagen" />
		<tag k="place" v="farm" />
		<tag k="ssr:stedsnr" v="800318" />
	</node>
	<node lat="62.524543525389866" lon="7.400737004361811" id="-9206">
		<tag k="fixme" v="consider place=hamlet" />
		<tag k="name" v="Moen" />
		<tag k="place" v="farm" />
		<tag k="ssr:stedsnr" v="800392" />
	</node>
	<node lat="62.576777269628664" lon="7.5387744001984895" id="-9208">
		<tag k="fixme" v="consider place=hamlet" />
		<tag k="name" v="Hamre" />
		<tag k="place" v="farm" />
		<tag k="ssr:stedsnr" v="800514" />
	</node>
	<node lat="62.574413893027426" lon="7.656358325505619" id="-9213">
		<tag k="name" v="Hegerholm" />
		<tag k="place" v="farm" />
		<tag k="ssr:stedsnr" v="801518" />
	</node>
	<node lat="62.67759444215542" lon="7.5912194483441695" id="-9219">
		<tag k="name" v="Myran" />
		<tag k="place" v="farm" />
		<tag k="ssr:stedsnr" v="801718" />
	</node>
	<node lat="62.62999167088763" lon="7.53455555904717" id="-9245">
		<tag k="name" v="Rosvang" />
		<tag k="place" v="farm" />
		<tag k="ssr:stedsnr" v="822086" />
	</node>
	<node lat="62.58933055907407" lon="7.654808327292981" id="-9268">
		<tag k="historic" v="shieling" />
		<tag k="name" v="Nysetra" />
		<tag k="place" v="isolated_dwelling" />
		<tag k="ssr:stedsnr" v="921526" />
	</node>
	<node lat="62.58221868798921" lon="7.572374808078934" id="-9269">
		<tag k="fixme" v="consider place=hamlet" />
		<tag k="name" v="Berg" />
		<tag k="place" v="farm" />
		<tag k="ssr:stedsnr" v="921528" />
	</node>
	<node lat="62.626388888986305" lon="7.461336103593617" id="-9272">
		<tag k="name" v="Øverland" />
		<tag k="place" v="farm" />
		<tag k="ssr:stedsnr" v="921674" />
	</node>
	<node lat="62.43070833052335" lon="7.941124998544422" id="-9304">
		<tag k="name" v="Skirilykkja" />
		<tag k="place" v="locality" />
		<tag k="ssr:stedsnr" v="825977" />
	</node>
	<node lat="62.52799266766259" lon="7.756124494126914" id="-9312">
		<tag k="fixme" v="consider place=hamlet" />
		<tag k="name" v="Halsa" />
		<tag k="place" v="farm" />
		<tag k="ssr:stedsnr" v="922147" />
	</node>
	<node lat="62.58121110721412" lon="7.638708325120382" id="-9316">
		<tag k="name" v="Vikasetra" />
		<tag k="place" v="isolated_dwelling" />
		<tag k="ssr:stedsnr" v="922468" />
	</node>
	<node lat="62.57539444838461" lon="7.636969446896457" id="-9317">
		<tag k="name" v="Gamlesetra" />
		<tag k="place" v="isolated_dwelling" />
		<tag k="ssr:stedsnr" v="922470" />
	</node>
	<node lat="62.58075833325186" lon="7.6568916618753" id="-9318">
		<tag k="historic" v="shieling" />
		<tag k="name" v="Hegerholmsetra" />
		<tag k="place" v="isolated_dwelling" />
		<tag k="ssr:stedsnr" v="922471" />
	</node>
	<node lat="62.59764722551187" lon="7.505833334947747" id="-9320">
		<tag k="name" v="Eidsgjerdet" />
		<tag k="place" v="farm" />
		<tag k="ssr:stedsnr" v="922564" />
	</node>
	<node lat="62.62337500399625" lon="7.4747305465218705" id="-9322">
		<tag k="name" v="Nybøen" />
		<tag k="place" v="farm" />
		<tag k="ssr:stedsnr" v="922656" />
	</node>
	<node lat="62.270316666538776" lon="7.833991661233038" id="-9331">
		<tag k="name" v="Reinsminnet" />
		<tag k="place" v="isolated_dwelling" />
		<tag k="ssr:stedsnr" v="860278" />
	</node>
	<node lat="62.27467222335231" lon="8.04956666082051" id="-9332">
		<tag k="historic" v="shieling" />
		<tag k="name" v="Gamlegarden" />
		<tag k="place" v="isolated_dwelling" />
		<tag k="ssr:stedsnr" v="860280" />
	</node>
	<node lat="62.558241671213615" lon="7.828438894027742" id="-9340">
		<tag k="name" v="Nygard" />
		<tag k="place" v="farm" />
		<tag k="ssr:stedsnr" v="861162" />
	</node>
	<node lat="62.57908888623042" lon="7.7541361097145325" id="-9346">
		<tag k="name" v="Tokle" />
		<tag k="place" v="farm" />
		<tag k="ssr:stedsnr" v="861299" />
	</node>
	<node lat="62.584669442384296" lon="7.480122214704193" id="-9349">
		<tag k="name" v="Eid prestegard" />
		<tag k="place" v="farm" />
		<tag k="ssr:stedsnr" v="861584" />
	</node>
	<node lat="62.67547221858318" lon="7.551908340917604" id="-9350">
		<tag k="fixme" v="multiple name tags, choose one and add the other to alt_name" />
		<tag k="name" v="Sjøløypet;Sjølaupet" />
		<tag k="place" v="farm" />
		<tag k="ssr:stedsnr" v="861709" />
	</node>
	<node lat="62.62603718865806" lon="7.467748646731374" id="-9353">
		<tag k="fixme" v="consider place=hamlet" />
		<tag k="name" v="Landre" />
		<tag k="place" v="farm" />
		<tag k="ssr:stedsnr" v="861618" />
	</node>
	<node lat="62.534469448623426" lon="7.36665833795701" id="-9358">
		<tag k="historic" v="shieling" />
		<tag k="name" v="Mosetra" />
		<tag k="place" v="isolated_dwelling" />
		<tag k="ssr:stedsnr" v="862417" />
	</node>
	<node lat="62.615136109295676" lon="7.5808000092624" id="-9380">
		<tag k="name" v="Hardholten" />
		<tag k="place" v="isolated_dwelling" />
		<tag k="ssr:stedsnr" v="883711" />
	</node>
	<node lat="62.49221666527015" lon="7.426275002646682" id="-9401">
		<tag k="name" v="Søvikstølen" />
		<tag k="place" v="locality" />
		<tag k="ssr:stedsnr" v="886806" />
	</node>
	<node lat="62.49752778084929" lon="7.564483342176895" id="-9409">
		<tag k="fixme" v="consider place=hamlet" />
		<tag k="name" v="Innfjorden" />
		<tag k="place" v="village" />
		<tag k="ssr:stedsnr" v="935390" />
	</node>
	<node lat="62.31477999450493" lon="8.09687890865837" id="-9414">
		<tag k="fixme" v="consider place=hamlet" />
		<tag k="name" v="Raudstøl" />
		<tag k="place" v="farm" />
		<tag k="ssr:stedsnr" v="921239" />
	</node>
	<node lat="62.56247221813688" lon="7.860255557196621" id="-9421">
		<tag k="name" v="Storgjerdet" />
		<tag k="place" v="farm" />
		<tag k="ssr:stedsnr" v="921196" />
	</node>
	<node lat="62.62588332962115" lon="7.536049992748579" id="-9426">
		<tag k="name" v="Holmemstranda" />
		<tag k="place" v="hamlet" />
		<tag k="ssr:stedsnr" v="921685" />
	</node>
	<node lat="62.499347223064404" lon="7.5418749926223265" id="-9429">
		<tag k="name" v="Geilen" />
		<tag k="place" v="farm" />
		<tag k="ssr:stedsnr" v="921913" />
	</node>
	<node lat="62.597402777557356" lon="7.546630554630746" id="-9442">
		<tag k="name" v="Lerheimsreiten" />
		<tag k="place" v="farm" />
		<tag k="ssr:stedsnr" v="922585" />
	</node>
	<node lat="62.68606389049629" lon="7.618738889468658" id="-9457">
		<tag k="name" v="Geilen" />
		<tag k="place" v="farm" />
		<tag k="ssr:stedsnr" v="944151" />
	</node>
	<node lat="62.60340555988105" lon="7.546672216174331" id="-9468">
		<tag k="name" v="Nyheim" />
		<tag k="place" v="farm" />
		<tag k="ssr:stedsnr" v="944782" />
	</node>
	<node lat="62.606277779715676" lon="7.548033338222521" id="-9469">
		<tag k="name" v="Innergarden" />
		<tag k="place" v="farm" />
		<tag k="ssr:stedsnr" v="944783" />
	</node>
	<node lat="62.57278055802229" lon="7.826749994325585" id="-9476">
		<tag k="name" v="Brekken" />
		<tag k="place" v="farm" />
		<tag k="ssr:stedsnr" v="946394" />
	</node>
	<node lat="62.580011113473645" lon="7.826536104385851" id="-9483">
		<tag k="name" v="Skuleteigen" />
		<tag k="place" v="isolated_dwelling" />
		<tag k="ssr:stedsnr" v="946438" />
	</node>
	<node lat="62.58637221823294" lon="7.449149994294209" id="-9484">
		<tag k="name" v="Halsaplassen" />
		<tag k="place" v="locality" />
		<tag k="ssr:stedsnr" v="946584" />
	</node>
	<node lat="62.5812888853747" lon="7.508911104900283" id="-9486">
		<tag k="name" v="Langset" />
		<tag k="place" v="locality" />
		<tag k="ssr:stedsnr" v="946594" />
	</node>
	<node lat="62.54312500120612" lon="7.895205553429011" id="-9493">
		<tag k="name" v="Teigen" />
		<tag k="place" v="farm" />
		<tag k="ssr:stedsnr" v="946697" />
	</node>
	<node lat="62.44331097171351" lon="8.007847115402669" id="-9510">
		<tag k="fixme" v="consider tourism=alpine_hut or tourism=chalet" />
		<tag k="name" v="Grønbotn" />
		<tag k="ssr:stedsnr" v="974864" />
		<tag k="tourism" v="wilderness_hut" />
	</node>
	<node lat="62.39221865996721" lon="7.821701452662642" id="-9511">
		<tag k="fixme" v="consider tourism=alpine_hut or tourism=chalet" />
		<tag k="name" v="Slettflybotn" />
		<tag k="ssr:stedsnr" v="974865" />
		<tag k="tourism" v="wilderness_hut" />
	</node>
	<node lat="62.20665926411585" lon="7.985660216144616" id="-9512">
		<tag k="name" v="Storvassbua" />
		<tag k="place" v="locality" />
		<tag k="ssr:stedsnr" v="975999" />
	</node>
	<node lat="62.205293297819686" lon="7.937257390178503" id="-9513">
		<tag k="name" v="Trollbua" />
		<tag k="place" v="locality" />
		<tag k="ssr:stedsnr" v="976000" />
	</node>
	<node lat="62.556925989809955" lon="7.857206782620677" id="-9514">
		<tag k="fixme" v="consider place=hamlet" />
		<tag k="name" v="Åsen" />
		<tag k="place" v="farm" />
		<tag k="ssr:stedsnr" v="981797" />
	</node>
	<node lat="62.531019567176806" lon="7.925898008423281" id="-9515">
		<tag k="fixme" v="consider place=hamlet" />
		<tag k="name" v="Erstad" />
		<tag k="place" v="farm" />
		<tag k="ssr:stedsnr" v="981799" />
	</node>
	<node lat="62.561571851522466" lon="7.8243611953199546" id="-9516">
		<tag k="fixme" v="consider place=hamlet" />
		<tag k="name" v="Steinsetra" />
		<tag k="place" v="farm" />
		<tag k="ssr:stedsnr" v="981811" />
	</node>
	<node lat="62.43516758948278" lon="7.8592007619794755" id="-9517">
		<tag k="fixme" v="consider place=hamlet" />
		<tag k="name" v="Monge" />
		<tag k="place" v="farm" />
		<tag k="ssr:stedsnr" v="981818" />
	</node>
	<node lat="62.66760311076084" lon="7.53326243623567" id="-9522">
		<tag k="name" v="Herje" />
		<tag k="place" v="hamlet" />
		<tag k="ssr:stedsnr" v="981922" />
	</node>
	<node lat="62.610648021809055" lon="7.546569157309984" id="-9523">
		<tag k="name" v="Holmem" />
		<tag k="place" v="hamlet" />
		<tag k="ssr:stedsnr" v="981925" />
	</node>
	<node lat="62.62883672580461" lon="7.492063695602169" id="-9524">
		<tag k="fixme" v="consider place=hamlet" />
		<tag k="name" v="Korsan" />
		<tag k="place" v="farm" />
		<tag k="ssr:stedsnr" v="981928" />
	</node>
	<node lat="62.6378635669457" lon="7.478356410930301" id="-9525">
		<tag k="fixme" v="consider place=hamlet" />
		<tag k="name" v="Ottestad" />
		<tag k="place" v="farm" />
		<tag k="ssr:stedsnr" v="981929" />
	</node>
	<node lat="62.60653895798323" lon="7.887365305294497" id="-9529">
		<tag k="fixme" v="consider tourism=alpine_hut or tourism=chalet" />
		<tag k="name" v="Stallen" />
		<tag k="ssr:stedsnr" v="984829" />
		<tag k="tourism" v="wilderness_hut" />
	</node>
	<node lat="62.42966601921803" lon="7.957928760838643" id="-9530">
		<tag k="name" v="Nordre Flatmark" />
		<tag k="place" v="farm" />
		<tag k="ssr:stedsnr" v="988817" />
	</node>
	<node lat="62.35259721946846" lon="8.047780561043833" id="-9532">
		<tag k="fixme" v="consider place=hamlet" />
		<tag k="name" v="Stokke" />
		<tag k="place" v="farm" />
		<tag k="ssr:stedsnr" v="11044" />
	</node>
	<node lat="62.268605551447344" lon="7.831691674742425" id="-9541">
		<tag k="fixme" v="consider tourism=alpine_hut or tourism=chalet" />
		<tag k="name" v="Vakkerstøylen" />
		<tag k="ssr:stedsnr" v="11123" />
		<tag k="tourism" v="wilderness_hut" />
	</node>
	<node lat="62.3223499966839" lon="8.079166660674197" id="-9544">
		<tag k="name" v="Slettaøya" />
		<tag k="place" v="farm" />
		<tag k="ssr:stedsnr" v="11204" />
	</node>
	<node lat="62.58127059634263" lon="7.809088114402399" id="-9549">
		<tag k="fixme" v="consider place=hamlet" />
		<tag k="name" v="Hatlen" />
		<tag k="place" v="farm" />
		<tag k="ssr:stedsnr" v="11309" />
	</node>
	<node lat="62.57103610889657" lon="7.871486104601155" id="-9552">
		<tag k="name" v="Bjerkeli" />
		<tag k="place" v="farm" />
		<tag k="ssr:stedsnr" v="11147" />
	</node>
	<node lat="62.5816416661077" lon="7.992961120008751" id="-9553">
		<tag k="name" v="Rabben" />
		<tag k="place" v="isolated_dwelling" />
		<tag k="ssr:stedsnr" v="11152" />
	</node>
	<node lat="62.58243055880294" lon="7.904419448834624" id="-9556">
		<tag k="name" v="Svartli" />
		<tag k="place" v="farm" />
		<tag k="ssr:stedsnr" v="11160" />
	</node>
	<node lat="62.58082221908586" lon="7.498949998346157" id="-9563">
		<tag k="name" v="Bakketun" />
		<tag k="place" v="farm" />
		<tag k="ssr:stedsnr" v="11522" />
	</node>
	<node lat="62.62450590172753" lon="7.5340541413854885" id="-9564">
		<tag k="fixme" v="consider place=hamlet" />
		<tag k="name" v="Frøyset" />
		<tag k="place" v="farm" />
		<tag k="ssr:stedsnr" v="11686" />
	</node>
	<node lat="62.63877326205416" lon="7.476857090909673" id="-9565">
		<tag k="alt_name" v="Ottestad, indre" />
		<tag k="name" v="Indre Ottestad" />
		<tag k="place" v="farm" />
		<tag k="ssr:stedsnr" v="11649" />
	</node>
	<node lat="62.560330551732854" lon="7.567799996361137" id="-9580">
		<tag k="alt_name" v="Hagen, øvre" />
		<tag k="name" v="Øvre Hagen" />
		<tag k="place" v="farm" />
		<tag k="ssr:stedsnr" v="12559" />
	</node>
	<node lat="62.67637222650966" lon="7.579147223806167" id="-9582">
		<tag k="name" v="Sande" />
		<tag k="place" v="farm" />
		<tag k="ssr:stedsnr" v="12724" />
	</node>
	<node lat="62.58569999902771" lon="7.74535833396085" id="-9634">
		<tag k="name" v="Toklegjerda" />
		<tag k="place" v="farm" />
		<tag k="ssr:stedsnr" v="36527" />
	</node>
	<node lat="62.556480551737295" lon="8.025944450119287" id="-9655">
		<tag k="fixme" v="consider tourism=alpine_hut or tourism=chalet" />
		<tag k="name" v="Fallebu" />
		<tag k="ssr:stedsnr" v="54035" />
		<tag k="tourism" v="wilderness_hut" />
	</node>
	<node lat="62.51682221818728" lon="8.010808328829562" id="-9656">
		<tag k="fixme" v="consider tourism=alpine_hut or tourism=chalet" />
		<tag k="name" v="Grytilbua" />
		<tag k="ssr:stedsnr" v="54965" />
		<tag k="tourism" v="wilderness_hut" />
	</node>
	<node lat="62.26370833746994" lon="8.094749993947378" id="-9657">
		<tag k="name" v="Stølan" />
		<tag k="place" v="locality" />
		<tag k="ssr:stedsnr" v="71141" />
	</node>
	<node lat="62.29496111498485" lon="8.091150006632969" id="-9662">
		<tag k="name" v="Svamarka" />
		<tag k="place" v="locality" />
		<tag k="ssr:stedsnr" v="71268" />
	</node>
	<node lat="62.53580629093194" lon="7.500226524743624" id="-9667">
		<tag k="name" v="Hovde" />
		<tag k="place" v="hamlet" />
		<tag k="ssr:stedsnr" v="73439" />
	</node>
	<node lat="62.443402426341514" lon="7.840020413167803" id="-9673">
		<tag k="fixme" v="consider place=hamlet" />
		<tag k="name" v="Alnestrøa" />
		<tag k="place" v="farm" />
		<tag k="ssr:stedsnr" v="72106" />
	</node>
	<node lat="62.31402500202738" lon="8.081200008768924" id="-9676">
		<tag k="historic" v="shieling" />
		<tag k="name" v="Midtstølen" />
		<tag k="place" v="isolated_dwelling" />
		<tag k="ssr:stedsnr" v="72228" />
	</node>
	<node lat="62.31170016541516" lon="8.102867035137773" id="-9677">
		<tag k="fixme" v="consider place=hamlet" />
		<tag k="name" v="Staurset" />
		<tag k="place" v="farm" />
		<tag k="ssr:stedsnr" v="72229" />
	</node>
	<node lat="62.50683888930271" lon="7.35088611710504" id="-9682">
		<tag k="name" v="Bakken" />
		<tag k="place" v="farm" />
		<tag k="ssr:stedsnr" v="72362" />
	</node>
	<node lat="62.53468610773766" lon="7.693641661999717" id="-9686">
		<tag k="name" v="Svartdalen" />
		<tag k="place" v="farm" />
		<tag k="ssr:stedsnr" v="72392" />
	</node>
	<node lat="62.58897499670045" lon="7.574502780074425" id="-9689">
		<tag k="historic" v="shieling" />
		<tag k="name" v="Siemsetra" />
		<tag k="place" v="isolated_dwelling" />
		<tag k="ssr:stedsnr" v="72480" />
	</node>
	<node lat="62.56171110945717" lon="7.571236115463041" id="-9691">
		<tag k="name" v="Dalen" />
		<tag k="place" v="farm" />
		<tag k="ssr:stedsnr" v="72536" />
	</node>
	<node lat="62.58455363686912" lon="7.948992214470548" id="-9694">
		<tag k="fixme" v="consider place=hamlet" />
		<tag k="name" v="Grøvdal" />
		<tag k="place" v="farm" />
		<tag k="ssr:stedsnr" v="72308" />
	</node>
	<node lat="62.60635833010377" lon="7.655791661587501" id="-9697">
		<tag k="historic" v="shieling" />
		<tag k="name" v="Langelisetra" />
		<tag k="place" v="isolated_dwelling" />
		<tag k="ssr:stedsnr" v="72582" />
	</node>
	<node lat="62.70012500050889" lon="7.691052782318017" id="-9699">
		<tag k="fixme" v="consider place=hamlet" />
		<tag k="name" v="Mittet" />
		<tag k="place" v="village" />
		<tag k="ssr:stedsnr" v="72679" />
	</node>
	<node lat="62.59065833350151" lon="7.580419443823854" id="-9704">
		<tag k="historic" v="shieling" />
		<tag k="name" v="Hamresetra" />
		<tag k="place" v="isolated_dwelling" />
		<tag k="ssr:stedsnr" v="73632" />
	</node>
	<node lat="62.71208391539536" lon="7.733866789517854" id="-9723">
		<tag k="fixme" v="consider place=hamlet" />
		<tag k="name" v="Grovaneset" />
		<tag k="place" v="farm" />
		<tag k="ssr:stedsnr" v="93659" />
	</node>
	<node lat="62.63768055560224" lon="7.464113895140007" id="-9737">
		<tag k="name" v="Gjerdplassen" />
		<tag k="place" v="locality" />
		<tag k="ssr:stedsnr" v="95361" />
	</node>
	<node lat="62.63457222422259" lon="7.419494436496051" id="-9740">
		<tag k="name" v="Nerhunnessetra" />
		<tag k="place" v="locality" />
		<tag k="ssr:stedsnr" v="95731" />
	</node>
	<node lat="62.607752776217666" lon="7.547172225612298" id="-9741">
		<tag k="name" v="Nygarden" />
		<tag k="place" v="farm" />
		<tag k="ssr:stedsnr" v="95746" />
	</node>
	<node lat="62.584963889920324" lon="7.724377770032728" id="-9744">
		<tag k="name" v="Myra" />
		<tag k="place" v="farm" />
		<tag k="ssr:stedsnr" v="97587" />
	</node>
	<node lat="62.51082222664687" lon="7.515880553955409" id="-9759">
		<tag k="historic" v="shieling" />
		<tag k="name" v="Sætsetra" />
		<tag k="place" v="isolated_dwelling" />
		<tag k="ssr:stedsnr" v="96885" />
	</node>
	<node lat="62.479791539206666" lon="7.539670263796516" id="-9766">
		<tag k="fixme" v="consider place=hamlet" />
		<tag k="name" v="Hafella" />
		<tag k="place" v="farm" />
		<tag k="ssr:stedsnr" v="96851" />
	</node>
	<node lat="62.469330556087094" lon="7.669786119581401" id="-9770">
		<tag k="historic" v="shieling" />
		<tag k="name" v="Midtstølen" />
		<tag k="place" v="isolated_dwelling" />
		<tag k="ssr:stedsnr" v="97091" />
	</node>
	<node lat="62.4671944431847" lon="7.669430563264717" id="-9772">
		<tag k="historic" v="shieling" />
		<tag k="name" v="Fremstestølen" />
		<tag k="place" v="isolated_dwelling" />
		<tag k="ssr:stedsnr" v="97096" />
	</node>
	<node lat="62.58096666681304" lon="7.670549991656568" id="-9781">
		<tag k="fixme" v="consider place=hamlet" />
		<tag k="name" v="Nakken" />
		<tag k="place" v="farm" />
		<tag k="ssr:stedsnr" v="97629" />
	</node>
	<node lat="62.451894444685074" lon="7.8254611090700035" id="-9785">
		<tag k="name" v="Bogningen" />
		<tag k="place" v="isolated_dwelling" />
		<tag k="ssr:stedsnr" v="97974" />
	</node>
	<node lat="62.586783331682554" lon="7.974852787432428" id="-9798">
		<tag k="historic" v="shieling" />
		<tag k="name" v="Stølan" />
		<tag k="place" v="isolated_dwelling" />
		<tag k="ssr:stedsnr" v="98624" />
	</node>
	<node lat="62.50190555939584" lon="7.925802772396945" id="-9800">
		<tag k="fixme" v="consider tourism=alpine_hut or tourism=chalet" />
		<tag k="name" v="Middagsfjellhytta" />
		<tag k="ssr:stedsnr" v="115961" />
		<tag k="tourism" v="wilderness_hut" />
	</node>
	<node lat="62.59453610836805" lon="7.506066662562144" id="-9801">
		<tag k="name" v="Litlehagen" />
		<tag k="place" v="farm" />
		<tag k="ssr:stedsnr" v="133568" />
	</node>
	<node lat="62.441633331112804" lon="7.8418388946259645" id="-9809">
		<tag k="name" v="Trøa" />
		<tag k="place" v="farm" />
		<tag k="ssr:stedsnr" v="132099" />
	</node>
	<node lat="62.28054444755764" lon="8.113208327424381" id="-9811">
		<tag k="name" v="Storhjellen" />
		<tag k="place" v="farm" />
		<tag k="ssr:stedsnr" v="132118" />
	</node>
	<node lat="62.520106277436675" lon="7.397580069620199" id="-9821">
		<tag k="fixme" v="consider place=hamlet" />
		<tag k="name" v="Bruaset" />
		<tag k="place" v="farm" />
		<tag k="ssr:stedsnr" v="132385" />
	</node>
	<node lat="62.58253332991627" lon="7.709177780711619" id="-9824">
		<tag k="name" v="Breivikstranda" />
		<tag k="place" v="farm" />
		<tag k="ssr:stedsnr" v="132538" />
	</node>
	<node lat="62.63755833725476" lon="7.4696333258458845" id="-9829">
		<tag k="name" v="Reitsletta" />
		<tag k="place" v="farm" />
		<tag k="ssr:stedsnr" v="133616" />
	</node>
	<node lat="62.60387500330419" lon="7.461527776873069" id="-9831">
		<tag k="historic" v="shieling" />
		<tag k="name" v="Hatlesetra" />
		<tag k="place" v="isolated_dwelling" />
		<tag k="ssr:stedsnr" v="133542" />
	</node>
	<node lat="62.693863887824726" lon="7.630644453125912" id="-9866">
		<tag k="name" v="Skiplassen" />
		<tag k="place" v="locality" />
		<tag k="ssr:stedsnr" v="154201" />
	</node>
	<node lat="62.62374158301798" lon="7.495318894614787" id="-9874">
		<tag k="fixme" v="consider place=hamlet" />
		<tag k="name" v="Rødven" />
		<tag k="place" v="farm" />
		<tag k="ssr:stedsnr" v="155457" />
	</node>
	<node lat="62.579544002685815" lon="7.5610144548038996" id="-9884">
		<tag k="name" v="Ner-Siem" />
		<tag k="place" v="farm" />
		<tag k="ssr:stedsnr" v="155745" />
	</node>
	<node lat="62.57914999832976" lon="7.844744435406954" id="-9895">
		<tag k="name" v="Teigen" />
		<tag k="place" v="farm" />
		<tag k="ssr:stedsnr" v="157422" />
	</node>
	<node lat="62.59063333113842" lon="7.4396138879846125" id="-9907">
		<tag k="name" v="Liastølen" />
		<tag k="place" v="locality" />
		<tag k="ssr:stedsnr" v="157581" />
	</node>
	<node lat="62.59001111006763" lon="7.486541662257905" id="-9909">
		<tag k="name" v="Eidsvollhaugen" />
		<tag k="place" v="farm" />
		<tag k="ssr:stedsnr" v="157540" />
	</node>
	<node lat="62.48999444723438" lon="7.529836102135574" id="-9916">
		<tag k="historic" v="shieling" />
		<tag k="name" v="Haugsetra" />
		<tag k="place" v="isolated_dwelling" />
		<tag k="ssr:stedsnr" v="157872" />
	</node>
	<node lat="62.578834603601074" lon="7.841316414510581" id="-9921">
		<tag k="alt_name" v="Kavli, indre" />
		<tag k="fixme" v="consider place=hamlet" />
		<tag k="name" v="Indre Kavli" />
		<tag k="place" v="farm" />
		<tag k="ssr:stedsnr" v="158045" />
	</node>
	<node lat="62.57883610862995" lon="7.765272229937101" id="-9923">
		<tag k="name" v="Tokle" />
		<tag k="place" v="hamlet" />
		<tag k="ssr:stedsnr" v="158463" />
	</node>
	<node lat="62.52564166300304" lon="7.930977769445929" id="-9929">
		<tag k="name" v="Veistad" />
		<tag k="place" v="locality" />
		<tag k="ssr:stedsnr" v="158781" />
	</node>
	<node lat="62.658597222730535" lon="7.799822227337622" id="-9933">
		<tag k="historic" v="shieling" />
		<tag k="name" v="Skrokken" />
		<tag k="place" v="isolated_dwelling" />
		<tag k="ssr:stedsnr" v="158975" />
	</node>
	<node lat="62.248977781723504" lon="7.988233334509448" id="-9945">
		<tag k="name" v="Kabben" />
		<tag k="place" v="isolated_dwelling" />
		<tag k="ssr:stedsnr" v="193128" />
	</node>
	<node lat="62.555999996440434" lon="7.834322218418443" id="-9946">
		<tag k="name" v="Madshaug" />
		<tag k="place" v="farm" />
		<tag k="ssr:stedsnr" v="193129" />
	</node>
	<node lat="62.574699950259365" lon="7.8167800634897615" id="-9952">
		<tag k="fixme" v="consider place=hamlet" />
		<tag k="name" v="Grøtta" />
		<tag k="place" v="farm" />
		<tag k="ssr:stedsnr" v="193151" />
	</node>
	<node lat="62.58236705938901" lon="7.948525009796251" id="-9953">
		<tag k="fixme" v="consider place=hamlet" />
		<tag k="name" v="Morstøl" />
		<tag k="place" v="farm" />
		<tag k="ssr:stedsnr" v="193161" />
	</node>
	<node lat="62.212752779521104" lon="7.798586102499986" id="-9954">
		<tag k="fixme" v="consider tourism=alpine_hut or tourism=chalet" />
		<tag k="name" v="Pyttbua" />
		<tag k="ssr:stedsnr" v="193164" />
		<tag k="tourism" v="wilderness_hut" />
	</node>
	<node lat="62.51631666272872" lon="7.385930561330664" id="-9963">
		<tag k="name" v="Øygarden" />
		<tag k="place" v="farm" />
		<tag k="ssr:stedsnr" v="193422" />
	</node>
	<node lat="62.626482957412854" lon="7.455230085502106" id="-9969">
		<tag k="fixme" v="consider place=hamlet" />
		<tag k="name" v="Bakken" />
		<tag k="place" v="farm" />
		<tag k="ssr:stedsnr" v="193646" />
	</node>
	<node lat="62.67488332920532" lon="7.7590777741509545" id="-9984">
		<tag k="name" v="Øverlia" />
		<tag k="place" v="isolated_dwelling" />
		<tag k="ssr:stedsnr" v="194279" />
	</node>
	<node lat="62.55853601814374" lon="7.567082042952062" id="-9986">
		<tag k="fixme" v="consider place=hamlet" />
		<tag k="name" v="Hagen" />
		<tag k="place" v="farm" />
		<tag k="ssr:stedsnr" v="194498" />
	</node>
	<node lat="62.55789166720094" lon="7.565088888604515" id="-9987">
		<tag k="fixme" v="consider place=hamlet" />
		<tag k="name" v="Torvikeidet" />
		<tag k="place" v="village" />
		<tag k="ssr:stedsnr" v="194499" />
	</node>
	<node lat="62.60520832993519" lon="7.481586107520955" id="-9989">
		<tag k="historic" v="shieling" />
		<tag k="name" v="Eidssetra" />
		<tag k="place" v="isolated_dwelling" />
		<tag k="ssr:stedsnr" v="194525" />
	</node>
	<node lat="62.60192499904048" lon="7.546177779911037" id="-9990">
		<tag k="name" v="Sletta" />
		<tag k="place" v="farm" />
		<tag k="ssr:stedsnr" v="194528" />
	</node>
	<node lat="62.597086109005815" lon="7.505355560387992" id="-9991">
		<tag k="name" v="Sandvik" />
		<tag k="place" v="farm" />
		<tag k="ssr:stedsnr" v="194551" />
	</node>
	<node lat="62.59070277508053" lon="7.476913894675932" id="-9992">
		<tag k="alt_name" v="Hatle, øvre" />
		<tag k="name" v="Øvre Hatle" />
		<tag k="place" v="farm" />
		<tag k="ssr:stedsnr" v="194554" />
	</node>
	<node lat="62.65550833337002" lon="7.5535611071177735" id="-9993">
		<tag k="name" v="Myrsetsetra" />
		<tag k="place" v="isolated_dwelling" />
		<tag k="ssr:stedsnr" v="194593" />
	</node>
	<node lat="62.53310680057455" lon="7.445529169936046" id="-10012">
		<tag k="alt_name" v="Voll" />
		<tag k="fixme" v="consider place=hamlet" />
		<tag k="name" v="Måndalen" />
		<tag k="place" v="village" />
		<tag k="ssr:stedsnr" v="207819" />
	</node>
	<node lat="62.700174996920346" lon="7.689713879576959" id="-10015">
		<tag k="name" v="Øyavollen" />
		<tag k="place" v="farm" />
		<tag k="ssr:stedsnr" v="214501" />
	</node>
	<node lat="62.68651111114466" lon="7.613180561215181" id="-10018">
		<tag k="name" v="Nygård" />
		<tag k="place" v="farm" />
		<tag k="ssr:stedsnr" v="215141" />
	</node>
	<node lat="62.5328999975643" lon="7.515194444247635" id="-10037">
		<tag k="name" v="Søvika" />
		<tag k="place" v="farm" />
		<tag k="ssr:stedsnr" v="218218" />
	</node>
	<node lat="62.65144166834313" lon="7.503727777113758" id="-10064">
		<tag k="name" v="Strandteigen" />
		<tag k="place" v="farm" />
		<tag k="ssr:stedsnr" v="218934" />
	</node>
	<node lat="62.56030833277991" lon="7.829008326373545" id="-10070">
		<tag k="name" v="Øvre Remmen" />
		<tag k="place" v="farm" />
		<tag k="ssr:stedsnr" v="218754" />
	</node>
	<node lat="62.58513055500962" lon="7.7658972290740245" id="-10071">
		<tag k="name" v="Breivikgjerdet" />
		<tag k="place" v="farm" />
		<tag k="ssr:stedsnr" v="219463" />
	</node>
	<node lat="62.68946944893216" lon="7.7042222235566244" id="-10085">
		<tag k="name" v="Brautin" />
		<tag k="place" v="farm" />
		<tag k="ssr:stedsnr" v="275450" />
	</node>
	<node lat="62.578113888697786" lon="7.529219452068354" id="-10100">
		<tag k="name" v="Vårnes" />
		<tag k="place" v="farm" />
		<tag k="ssr:stedsnr" v="277543" />
	</node>
	<node lat="62.54141666383585" lon="7.9018027841825775" id="-10111">
		<tag k="name" v="Dalereiten" />
		<tag k="place" v="farm" />
		<tag k="ssr:stedsnr" v="278730" />
	</node>
	<node lat="62.31494166379127" lon="8.134433334158622" id="-10120">
		<tag k="historic" v="shieling" />
		<tag k="name" v="Justsætra" />
		<tag k="place" v="isolated_dwelling" />
		<tag k="ssr:stedsnr" v="279395" />
	</node>
	<node lat="62.34783788255029" lon="8.053335289292816" id="-10125">
		<tag k="fixme" v="consider place=hamlet" />
		<tag k="name" v="Ormem" />
		<tag k="place" v="farm" />
		<tag k="ssr:stedsnr" v="279429" />
	</node>
	<node lat="62.605655556895435" lon="7.480261110273651" id="-10131">
		<tag k="historic" v="shieling" />
		<tag k="name" v="Eidsvollsetra" />
		<tag k="place" v="isolated_dwelling" />
		<tag k="ssr:stedsnr" v="279569" />
	</node>
	<node lat="62.59318888663791" lon="7.507913881870702" id="-10134">
		<tag k="name" v="Frilund" />
		<tag k="place" v="farm" />
		<tag k="ssr:stedsnr" v="279591" />
	</node>
	<node lat="62.578894446557754" lon="7.5004777719481215" id="-10138">
		<tag k="name" v="Storbakken" />
		<tag k="place" v="locality" />
		<tag k="ssr:stedsnr" v="279648" />
	</node>
	<node lat="62.51069999760025" lon="7.973258327941319" id="-10154">
		<tag k="fixme" v="consider tourism=alpine_hut or tourism=chalet" />
		<tag k="name" v="Grøttavassbu" />
		<tag k="ssr:stedsnr" v="296963" />
		<tag k="tourism" v="wilderness_hut" />
	</node>
	<node lat="62.684394444032485" lon="7.618430549148559" id="-10155">
		<tag k="name" v="Vollagjerdet" />
		<tag k="place" v="locality" />
		<tag k="ssr:stedsnr" v="337130" />
	</node>
	<node lat="62.46656666561561" lon="7.794566676342054" id="-10171">
		<tag k="name" v="Rønningen" />
		<tag k="place" v="farm" />
		<tag k="ssr:stedsnr" v="314091" />
	</node>
	<node lat="62.4687026760209" lon="7.529006859314426" id="-10178">
		<tag k="name" v="Holte" />
		<tag k="place" v="locality" />
		<tag k="ssr:stedsnr" v="314875" />
	</node>
	<node lat="62.497728024795606" lon="7.569638477237153" id="-10180">
		<tag k="fixme" v="consider place=hamlet" />
		<tag k="name" v="Vik" />
		<tag k="place" v="farm" />
		<tag k="ssr:stedsnr" v="314899" />
	</node>
	<node lat="62.529526365783084" lon="7.4402235215850965" id="-10188">
		<tag k="fixme" v="consider place=hamlet" />
		<tag k="name" v="Voll" />
		<tag k="place" v="farm" />
		<tag k="ssr:stedsnr" v="315389" />
	</node>
	<node lat="62.55400712402004" lon="7.68199188199629" id="-10192">
		<tag k="fixme" v="consider place=hamlet" />
		<tag k="name" v="Setnes" />
		<tag k="place" v="farm" />
		<tag k="ssr:stedsnr" v="315414" />
	</node>
	<node lat="62.58325915232148" lon="7.5239422142627435" id="-10194">
		<tag k="fixme" v="consider place=hamlet" />
		<tag k="name" v="Straume" />
		<tag k="place" v="farm" />
		<tag k="ssr:stedsnr" v="315501" />
	</node>
	<node lat="62.572344447476034" lon="7.534194447734553" id="-10195">
		<tag k="name" v="Øygarden" />
		<tag k="place" v="farm" />
		<tag k="ssr:stedsnr" v="315515" />
	</node>
	<node lat="62.61489444600165" lon="7.502413882532114" id="-10198">
		<tag k="name" v="Hammarvollneset" />
		<tag k="place" v="farm" />
		<tag k="ssr:stedsnr" v="315546" />
	</node>
	<node lat="62.593861109457514" lon="7.631369438550038" id="-10200">
		<tag k="historic" v="shieling" />
		<tag k="name" v="Kjerringhaugsetra" />
		<tag k="place" v="isolated_dwelling" />
		<tag k="ssr:stedsnr" v="315593" />
	</node>
	<node lat="62.69429166285859" lon="7.696122223819719" id="-10231">
		<tag k="name" v="Sveingarden" />
		<tag k="place" v="farm" />
		<tag k="ssr:stedsnr" v="335419" />
	</node>
	<node lat="62.69461666332537" lon="7.694669449403331" id="-10232">
		<tag k="name" v="Kristengarden" />
		<tag k="place" v="farm" />
		<tag k="ssr:stedsnr" v="335422" />
	</node>
	<node lat="62.69666944037748" lon="7.6654388920188845" id="-10233">
		<tag k="name" v="Hoåsstranda" />
		<tag k="place" v="farm" />
		<tag k="ssr:stedsnr" v="335542" />
	</node>
	<node lat="62.62550833524663" lon="7.482480559032367" id="-10242">
		<tag k="name" v="Vollheim" />
		<tag k="place" v="farm" />
		<tag k="ssr:stedsnr" v="337567" />
	</node>
	<node lat="62.58055057979574" lon="7.562202940695666" id="-10246">
		<tag k="fixme" v="consider place=hamlet" />
		<tag k="name" v="Indre Siem" />
		<tag k="place" v="farm" />
		<tag k="ssr:stedsnr" v="337752" />
	</node>
	<node lat="62.52250555680034" lon="7.895566675131941" id="-10284">
		<tag k="historic" v="shieling" />
		<tag k="name" v="Seterstølen" />
		<tag k="place" v="isolated_dwelling" />
		<tag k="ssr:stedsnr" v="340767" />
	</node>
	<node lat="62.56086944580324" lon="7.8773194459448135" id="-10287">
		<tag k="fixme" v="consider tourism=alpine_hut or tourism=chalet" />
		<tag k="name" v="Moanebba" />
		<tag k="ssr:stedsnr" v="357029" />
		<tag k="tourism" v="wilderness_hut" />
	</node>
	<node lat="62.35154722168711" lon="8.050266659171317" id="-10288">
		<tag k="alt_name" v="Øverdalen" />
		<tag k="amenity" v="school" />
		<tag k="name" v="Øverdalen skole" />
		<tag k="old_name" v="Øverdal skole" />
		<tag k="ssr:stedsnr" v="374065" />
	</node>
	<node lat="62.404683330868544" lon="8.016013883602135" id="-10299">
		<tag k="name" v="Gravdehaug" />
		<tag k="place" v="farm" />
		<tag k="ssr:stedsnr" v="375016" />
	</node>
	<node lat="62.56952584239996" lon="7.814243869051336" id="-10303">
		<tag k="alt_name" v="Ytterli" />
		<tag k="name" v="Ytterlia" />
		<tag k="place" v="farm" />
		<tag k="ssr:stedsnr" v="375130" />
	</node>
	<node lat="62.34328611032695" lon="8.062983323981102" id="-10311">
		<tag k="name" v="Plassen" />
		<tag k="place" v="farm" />
		<tag k="ssr:stedsnr" v="375162" />
	</node>
	<node lat="62.32236110997399" lon="8.10143889725268" id="-10312">
		<tag k="historic" v="shieling" />
		<tag k="name" v="Fyklia" />
		<tag k="place" v="isolated_dwelling" />
		<tag k="ssr:stedsnr" v="375179" />
	</node>
	<node lat="62.68941111162087" lon="7.719588889203678" id="-10313">
		<tag k="name" v="Øverbøen" />
		<tag k="place" v="farm" />
		<tag k="ssr:stedsnr" v="375266" />
	</node>
	<node lat="62.610908333731494" lon="7.55014444907664" id="-10314">
		<tag k="alt_name" v="Øvrebø" />
		<tag k="fixme" v="consider place=hamlet" />
		<tag k="name" v="Øverbøen" />
		<tag k="place" v="farm" />
		<tag k="ssr:stedsnr" v="375526" />
	</node>
	<node lat="62.522944444779306" lon="7.700683327169965" id="-10317">
		<tag k="name" v="Soggemoen" />
		<tag k="place" v="farm" />
		<tag k="ssr:stedsnr" v="375364" />
	</node>
	<node lat="62.60619166898654" lon="7.548074992345253" id="-10321">
		<tag k="alt_name" v="Holmem, in;Holmem" />
		<tag k="name" v="Indre Holmem" />
		<tag k="place" v="farm" />
		<tag k="ssr:stedsnr" v="375542" />
	</node>
	<node lat="62.60737778124749" lon="7.643294439681349" id="-10322">
		<tag k="historic" v="shieling" />
		<tag k="name" v="Selsetra" />
		<tag k="place" v="isolated_dwelling" />
		<tag k="ssr:stedsnr" v="375565" />
	</node>
	<node lat="62.67671111068463" lon="7.560597230315248" id="-10323">
		<tag k="fixme" v="multiple name tags, choose one and add the other to alt_name" />
		<tag k="name" v="Holmshaug;Holmshaugen" />
		<tag k="place" v="farm" />
		<tag k="ssr:stedsnr" v="375694" />
	</node>
	<node lat="62.6209472224258" lon="7.465302786571703" id="-10324">
		<tag k="name" v="Gjerstad" />
		<tag k="place" v="farm" />
		<tag k="ssr:stedsnr" v="375642" />
	</node>
	<node lat="62.61892835669009" lon="7.4567028948120955" id="-10325">
		<tag k="fixme" v="consider place=hamlet" />
		<tag k="name" v="Dalset" />
		<tag k="place" v="farm" />
		<tag k="ssr:stedsnr" v="375643" />
	</node>
	<node lat="62.61803055415824" lon="7.453913895832746" id="-10326">
		<tag k="name" v="Setervang" />
		<tag k="place" v="farm" />
		<tag k="ssr:stedsnr" v="375645" />
	</node>
	<node lat="62.53878888704536" lon="7.512247218459714" id="-10328">
		<tag k="name" v="Hovdenes" />
		<tag k="place" v="farm" />
		<tag k="ssr:stedsnr" v="376437" />
	</node>
	<node lat="62.64619444792535" lon="7.5096916683327235" id="-10331">
		<tag k="name" v="Skogly" />
		<tag k="place" v="farm" />
		<tag k="ssr:stedsnr" v="376656" />
	</node>
	<node lat="62.648097220211774" lon="7.587622220314469" id="-10332">
		<tag k="name" v="Vassetra" />
		<tag k="place" v="isolated_dwelling" />
		<tag k="ssr:stedsnr" v="376657" />
	</node>
	<node lat="62.69135555554645" lon="7.701191668389677" id="-10358">
		<tag k="name" v="Åsen" />
		<tag k="place" v="farm" />
		<tag k="ssr:stedsnr" v="396472" />
	</node>
	<node lat="62.70186388932261" lon="7.703036105668507" id="-10359">
		<tag k="name" v="Jacobstua" />
		<tag k="place" v="farm" />
		<tag k="ssr:stedsnr" v="396649" />
	</node>
	<node lat="62.57012778016889" lon="7.520502780181427" id="-10371">
		<tag k="name" v="Gamlesetra" />
		<tag k="place" v="locality" />
		<tag k="ssr:stedsnr" v="398561" />
	</node>
	<node lat="62.49606944543089" lon="7.565652775939422" id="-10376">
		<tag k="name" v="Indrevik" />
		<tag k="place" v="farm" />
		<tag k="ssr:stedsnr" v="399841" />
	</node>
	<node lat="62.653569446907994" lon="7.502433324065158" id="-10379">
		<tag k="name" v="Fredheim" />
		<tag k="place" v="farm" />
		<tag k="ssr:stedsnr" v="400100" />
	</node>
	<node lat="62.55403889041777" lon="7.663775008683667" id="-10384">
		<tag k="fixme" v="consider place=hamlet" />
		<tag k="name" v="Veblungen" />
		<tag k="place" v="farm" />
		<tag k="ssr:stedsnr" v="400246" />
	</node>
	<node lat="62.48764444262382" lon="7.6659500010778645" id="-10388">
		<tag k="historic" v="shieling" />
		<tag k="name" v="Bøen" />
		<tag k="place" v="isolated_dwelling" />
		<tag k="ssr:stedsnr" v="400321" />
	</node>
	<node lat="62.58330833687503" lon="7.710286112521017" id="-10395">
		<tag k="name" v="Myra" />
		<tag k="place" v="isolated_dwelling" />
		<tag k="ssr:stedsnr" v="400579" />
	</node>
	<node lat="62.560511111258904" lon="7.832736118441095" id="-10414">
		<tag k="name" v="Nedre Remmen" />
		<tag k="place" v="farm" />
		<tag k="ssr:stedsnr" v="400760" />
	</node>
	<node lat="62.478699996856285" lon="7.974666662432526" id="-10424">
		<tag k="fixme" v="consider tourism=alpine_hut or tourism=chalet" />
		<tag k="name" v="Fleskevassbua" />
		<tag k="ssr:stedsnr" v="418951" />
		<tag k="tourism" v="wilderness_hut" />
	</node>
	<node lat="62.58306110678262" lon="7.473430558472663" id="-10435">
		<tag k="name" v="Søberg" />
		<tag k="place" v="farm" />
		<tag k="ssr:stedsnr" v="436593" />
	</node>
	<node lat="62.335052779651" lon="8.03389443956178" id="-10440">
		<tag k="historic" v="shieling" />
		<tag k="name" v="Slettafjellsetra" />
		<tag k="place" v="isolated_dwelling" />
		<tag k="ssr:stedsnr" v="436187" />
	</node>
	<node lat="62.577561645074525" lon="7.794810998740076" id="-10445">
		<tag k="fixme" v="consider place=hamlet" />
		<tag k="name" v="Hen" />
		<tag k="place" v="farm" />
		<tag k="ssr:stedsnr" v="436295" />
	</node>
	<node lat="62.58339722606926" lon="7.66640833004395" id="-10452">
		<tag k="name" v="Einangsetra" />
		<tag k="place" v="isolated_dwelling" />
		<tag k="ssr:stedsnr" v="436486" />
	</node>
	<node lat="62.61498888555219" lon="7.584888882993781" id="-10456">
		<tag k="fixme" v="multiple name tags, choose one and add the other to alt_name" />
		<tag k="historic" v="shieling" />
		<tag k="name" v="Bøgardssetra;Høgstølen" />
		<tag k="place" v="isolated_dwelling" />
		<tag k="ssr:stedsnr" v="436539" />
	</node>
	<node lat="62.66548055470798" lon="7.522641661629699" id="-10458">
		<tag k="name" v="Herjegeilen" />
		<tag k="place" v="farm" />
		<tag k="ssr:stedsnr" v="436735" />
	</node>
	<node lat="62.66900711228659" lon="7.535585065358666" id="-10459">
		<tag k="alt_name" v="Herje, in;Herje" />
		<tag k="fixme" v="consider place=hamlet" />
		<tag k="name" v="Indre Herje" />
		<tag k="place" v="farm" />
		<tag k="ssr:stedsnr" v="436741" />
	</node>
	<node lat="62.368566669551534" lon="8.038422213444022" id="-10480">
		<tag k="name" v="Hersel" />
		<tag k="place" v="farm" />
		<tag k="ssr:stedsnr" v="496032" />
	</node>
	<node lat="62.35571429749598" lon="8.04668580059198" id="-10482">
		<tag k="fixme" v="consider place=hamlet" />
		<tag k="name" v="Løkra" />
		<tag k="place" v="farm" />
		<tag k="ssr:stedsnr" v="496050" />
	</node>
	<node lat="62.58023333670753" lon="7.85330833073391" id="-10492">
		<tag k="name" v="Melbø" />
		<tag k="place" v="farm" />
		<tag k="ssr:stedsnr" v="496173" />
	</node>
	<node lat="62.5622833342774" lon="7.826375007661342" id="-10497">
		<tag k="name" v="Liabygda" />
		<tag k="place" v="hamlet" />
		<tag k="ssr:stedsnr" v="496187" />
	</node>
	<node lat="62.6396526234013" lon="7.4761178566438105" id="-10507">
		<tag k="alt_name" v="Ottestad, ytre;Ottestad" />
		<tag k="name" v="Ytre Ottestad" />
		<tag k="place" v="farm" />
		<tag k="ssr:stedsnr" v="496668" />
	</node>
	<node lat="62.62060555381066" lon="7.454658324127947" id="-10508">
		<tag k="name" v="Dalsbø" />
		<tag k="place" v="farm" />
		<tag k="ssr:stedsnr" v="496679" />
	</node>
	<node lat="62.47956104095805" lon="7.546573454099692" id="-10511">
		<tag k="fixme" v="consider place=hamlet" />
		<tag k="name" v="Gjerde" />
		<tag k="place" v="farm" />
		<tag k="ssr:stedsnr" v="496890" />
	</node>
	<node lat="62.523633141453764" lon="7.761688213714806" id="-10519">
		<tag k="fixme" v="consider place=hamlet" />
		<tag k="name" v="Tomberg" />
		<tag k="place" v="farm" />
		<tag k="ssr:stedsnr" v="497143" />
	</node>
	<node lat="62.617474806472856" lon="7.592150327600457" id="-10530">
		<tag k="historic" v="shieling" />
		<tag k="name" v="Øverbøsetra" />
		<tag k="place" v="isolated_dwelling" />
		<tag k="ssr:stedsnr" v="497544" />
	</node>
	<node lat="62.66583055700114" lon="7.7505083253782034" id="-10544">
		<tag k="name" v="Halvorstølen" />
		<tag k="place" v="locality" />
		<tag k="ssr:stedsnr" v="518993" />
	</node>
	<node lat="62.69097499639155" lon="7.70221666639737" id="-10549">
		<tag k="name" v="Gjerdet" />
		<tag k="place" v="farm" />
		<tag k="ssr:stedsnr" v="518485" />
	</node>
	<node lat="62.62144166768257" lon="7.479447226094841" id="-10559">
		<tag k="name" v="Lykkjemya" />
		<tag k="place" v="farm" />
		<tag k="ssr:stedsnr" v="519590" />
	</node>
	<node lat="62.65913889114104" lon="7.502052768913892" id="-10573">
		<tag k="name" v="Løken" />
		<tag k="place" v="farm" />
		<tag k="ssr:stedsnr" v="521095" />
	</node>
	<node lat="62.57993333671857" lon="7.864049993053838" id="-10576">
		<tag k="name" v="Myran" />
		<tag k="place" v="farm" />
		<tag k="ssr:stedsnr" v="521430" />
	</node>
	<node lat="62.5806722216776" lon="7.50075554640907" id="-10588">
		<tag k="name" v="Litlebakken" />
		<tag k="place" v="locality" />
		<tag k="ssr:stedsnr" v="521625" />
	</node>
	<node lat="62.56508074488558" lon="7.798208615214319" id="-10589">
		<tag k="historic" v="shieling" />
		<tag k="name" v="Hestesetra" />
		<tag k="place" v="isolated_dwelling" />
		<tag k="ssr:stedsnr" v="521641" />
	</node>
	<node lat="62.579861115325755" lon="7.794727776002011" id="-10604">
		<tag k="name" v="Pundet" />
		<tag k="place" v="farm" />
		<tag k="ssr:stedsnr" v="522420" />
	</node>
	<node lat="62.27229999932405" lon="7.808444440900404" id="-10631">
		<tag k="name" v="Trollstølen" />
		<tag k="place" v="isolated_dwelling" />
		<tag k="ssr:stedsnr" v="556275" />
	</node>
	<node lat="62.584425001429956" lon="7.5933694539518735" id="-10634">
		<tag k="historic" v="shieling" />
		<tag k="name" v="Skrivarstølen" />
		<tag k="place" v="isolated_dwelling" />
		<tag k="ssr:stedsnr" v="557485" />
	</node>
	<node lat="62.434216662520534" lon="7.394116669959196" id="-10636">
		<tag k="historic" v="shieling" />
		<tag k="name" v="Bøstølen" />
		<tag k="place" v="isolated_dwelling" />
		<tag k="ssr:stedsnr" v="556988" />
	</node>
	<node lat="62.52799995537722" lon="7.7239420518535775" id="-10643">
		<tag k="name" v="Sogge" />
		<tag k="place" v="hamlet" />
		<tag k="ssr:stedsnr" v="557138" />
	</node>
	<node lat="62.66578889270475" lon="7.79211666457876" id="-10647">
		<tag k="name" v="Staursetsetra" />
		<tag k="place" v="isolated_dwelling" />
		<tag k="ssr:stedsnr" v="557277" />
	</node>
	<node lat="62.705902776571605" lon="7.745011106617905" id="-10651">
		<tag k="name" v="Grovanessetra" />
		<tag k="place" v="isolated_dwelling" />
		<tag k="ssr:stedsnr" v="557434" />
	</node>
	<node lat="62.55730092454741" lon="7.420662952090763" id="-10653">
		<tag k="fixme" v="consider place=hamlet" />
		<tag k="name" v="Sauset" />
		<tag k="place" v="farm" />
		<tag k="ssr:stedsnr" v="557534" />
	</node>
	<node lat="62.623772223710006" lon="7.442347216319224" id="-10655">
		<tag k="historic" v="shieling" />
		<tag k="name" v="Landresetra" />
		<tag k="place" v="isolated_dwelling" />
		<tag k="ssr:stedsnr" v="557640" />
	</node>
	<node lat="62.66719664203368" lon="7.639422639732752" id="-10656">
		<tag k="alt_name" v="Slemmesetra, in" />
		<tag k="fixme" v="multiple name tags, choose one and add the other to alt_name" />
		<tag k="historic" v="shieling" />
		<tag k="name" v="Slemmesetran;Indre Slemmesetra" />
		<tag k="place" v="isolated_dwelling" />
		<tag k="ssr:stedsnr" v="557724" />
	</node>
	<node lat="62.693519442896886" lon="7.633152777566346" id="-10690">
		<tag k="name" v="Stranda" />
		<tag k="place" v="isolated_dwelling" />
		<tag k="ssr:stedsnr" v="578721" />
	</node>
	<node lat="62.57059721880591" lon="7.60155832479285" id="-10695">
		<tag k="name" v="Bjørgaplassen" />
		<tag k="place" v="locality" />
		<tag k="ssr:stedsnr" v="580067" />
	</node>
	<node lat="62.659591664886044" lon="7.592405554220251" id="-10700">
		<tag k="name" v="Holmsetra" />
		<tag k="place" v="isolated_dwelling" />
		<tag k="ssr:stedsnr" v="579749" />
	</node>
	<node lat="62.56596110724556" lon="7.6003388798943545" id="-10703">
		<tag k="name" v="Hatlen" />
		<tag k="place" v="farm" />
		<tag k="ssr:stedsnr" v="580801" />
	</node>
	<node lat="62.56876110792981" lon="7.856894452585113" id="-10711">
		<tag k="name" v="Moareset" />
		<tag k="place" v="farm" />
		<tag k="ssr:stedsnr" v="581458" />
	</node>
	<node lat="62.58020555351909" lon="7.884938885328739" id="-10712">
		<tag k="name" v="Ottabakken" />
		<tag k="place" v="isolated_dwelling" />
		<tag k="ssr:stedsnr" v="581467" />
	</node>
	<node lat="62.58255833388154" lon="7.839622214846084" id="-10720">
		<tag k="name" v="Holen" />
		<tag k="place" v="farm" />
		<tag k="ssr:stedsnr" v="581500" />
	</node>
	<node lat="62.57974449221839" lon="7.83490265260203" id="-10732">
		<tag k="name" v="Kavli" />
		<tag k="place" v="hamlet" />
		<tag k="ssr:stedsnr" v="582025" />
	</node>
	<node lat="62.491705558501984" lon="7.759838886041614" id="-10741">
		<tag k="name" v="Gurålykkja" />
		<tag k="place" v="locality" />
		<tag k="ssr:stedsnr" v="582330" />
	</node>
	<node lat="62.335811107301474" lon="8.035916659669727" id="-10743">
		<tag k="historic" v="shieling" />
		<tag k="name" v="Slettafjellet" />
		<tag k="place" v="isolated_dwelling" />
		<tag k="ssr:stedsnr" v="582431" />
	</node>
	<node lat="62.66668055877241" lon="7.803505553796132" id="-10748">
		<tag k="historic" v="shieling" />
		<tag k="name" v="Odden" />
		<tag k="place" v="isolated_dwelling" />
		<tag k="ssr:stedsnr" v="582967" />
	</node>
	<node lat="62.58528888598246" lon="7.728494443139695" id="-10751">
		<tag k="name" v="Rabben" />
		<tag k="place" v="isolated_dwelling" />
		<tag k="ssr:stedsnr" v="582584" />
	</node>
	<node lat="62.59874999695113" lon="8.051319435798657" id="-10778">
		<tag k="fixme" v="consider tourism=alpine_hut or tourism=chalet" />
		<tag k="name" v="Svartvassbu" />
		<tag k="ssr:stedsnr" v="618288" />
		<tag k="tourism" v="wilderness_hut" />
	</node>
	<node lat="62.5376416655874" lon="7.695066665599743" id="-10782">
		<tag k="name" v="Øygard" />
		<tag k="place" v="farm" />
		<tag k="ssr:stedsnr" v="618404" />
	</node>
	<node lat="62.534794443334455" lon="7.372938882203975" id="-10783">
		<tag k="historic" v="shieling" />
		<tag k="name" v="Tverrlisetra" />
		<tag k="place" v="isolated_dwelling" />
		<tag k="ssr:stedsnr" v="618413" />
	</node>
	<node lat="62.66824167056988" lon="7.742330564007697" id="-10796">
		<tag k="fixme" v="multiple name tags, choose one and add the other to alt_name" />
		<tag k="historic" v="shieling" />
		<tag k="name" v="Innermittetsetra;Mittetsetra" />
		<tag k="place" v="isolated_dwelling" />
		<tag k="ssr:stedsnr" v="618252" />
	</node>
	<node lat="62.6868250035918" lon="7.725177787312998" id="-10798">
		<tag k="name" v="Bøland" />
		<tag k="place" v="farm" />
		<tag k="ssr:stedsnr" v="618265" />
	</node>
	<node lat="62.51175636979738" lon="7.535251607393457" id="-10799">
		<tag k="fixme" v="consider place=hamlet" />
		<tag k="name" v="Set" />
		<tag k="place" v="farm" />
		<tag k="ssr:stedsnr" v="618364" />
	</node>
	<node lat="62.582330554649225" lon="7.698947219770735" id="-10800">
		<tag k="name" v="Markanes" />
		<tag k="place" v="farm" />
		<tag k="ssr:stedsnr" v="618488" />
	</node>
	<node lat="62.58607222433446" lon="7.599116673498762" id="-10801">
		<tag k="fixme" v="multiple name tags, choose one and add the other to alt_name" />
		<tag k="historic" v="shieling" />
		<tag k="name" v="Gjerdsetsetran;Gjerdsetsetra" />
		<tag k="place" v="isolated_dwelling" />
		<tag k="ssr:stedsnr" v="618498" />
	</node>
	<node lat="62.709283612065406" lon="7.716546616100868" id="-10811">
		<tag k="alt_name" v="Slettfjerding" />
		<tag k="fixme" v="consider place=hamlet" />
		<tag k="name" v="Slettfjerdingen" />
		<tag k="place" v="farm" />
		<tag k="ssr:stedsnr" v="618667" />
	</node>
	<node lat="62.628780553905514" lon="7.547961114897263" id="-10831">
		<tag k="name" v="Gamlesetra" />
		<tag k="place" v="locality" />
		<tag k="ssr:stedsnr" v="639589" />
	</node>
	<node lat="62.617555553247286" lon="7.5463888891833655" id="-10832">
		<tag k="name" v="Rabben" />
		<tag k="place" v="farm" />
		<tag k="ssr:stedsnr" v="639591" />
	</node>
	<node lat="62.68431666947703" lon="7.615677783918987" id="-10835">
		<tag k="name" v="Vollan" />
		<tag k="place" v="farm" />
		<tag k="ssr:stedsnr" v="640146" />
	</node>
	<node lat="62.66463055421961" lon="7.527880549467346" id="-10837">
		<tag k="name" v="Liaplassen" />
		<tag k="place" v="locality" />
		<tag k="ssr:stedsnr" v="639462" />
	</node>
	<node lat="62.53679166412207" lon="7.500297227073976" id="-10858">
		<tag k="name" v="Øvre Hovde" />
		<tag k="place" v="farm" />
		<tag k="ssr:stedsnr" v="642489" />
	</node>
	<node lat="62.58882499601429" lon="7.973286108899558" id="-10873">
		<tag k="name" v="Stølan" />
		<tag k="place" v="locality" />
		<tag k="ssr:stedsnr" v="643569" />
	</node>
	<node lat="62.29315277680145" lon="8.128086108146043" id="-10880">
		<tag k="name" v="Øvre Kleiva" />
		<tag k="place" v="farm" />
		<tag k="ssr:stedsnr" v="643509" />
	</node>
	<node lat="62.6685972195195" lon="7.790277773778265" id="-10885">
		<tag k="historic" v="shieling" />
		<tag k="name" v="Aslaksetra" />
		<tag k="place" v="isolated_dwelling" />
		<tag k="ssr:stedsnr" v="643961" />
	</node>
	<node lat="62.62128888871417" lon="7.540863892569198" id="-10893">
		<tag k="name" v="Frøystad" />
		<tag k="place" v="farm" />
		<tag k="ssr:stedsnr" v="739676" />
	</node>
	<node lat="62.56652369046077" lon="7.897845405213864" id="-10906">
		<tag k="historic" v="shieling" />
		<tag k="name" v="Unjemssetra" />
		<tag k="place" v="isolated_dwelling" />
		<tag k="ssr:stedsnr" v="739155" />
	</node>
	<node lat="62.52796285359595" lon="7.74226663586963" id="-10910">
		<tag k="fixme" v="consider place=hamlet" />
		<tag k="name" v="Nora" />
		<tag k="place" v="farm" />
		<tag k="ssr:stedsnr" v="739133" />
	</node>
	<node lat="62.25327172913764" lon="7.986997635311459" id="-10913">
		<tag k="historic" v="shieling" />
		<tag k="name" v="Kabben" />
		<tag k="place" v="isolated_dwelling" />
		<tag k="ssr:stedsnr" v="739143" />
	</node>
	<node lat="62.57894349278351" lon="7.67681771994574" id="-10915">
		<tag k="fixme" v="consider place=hamlet" />
		<tag k="name" v="Fonna" />
		<tag k="place" v="farm" />
		<tag k="ssr:stedsnr" v="739551" />
	</node>
	<node lat="62.523576857420025" lon="7.4093956244615535" id="-10920">
		<tag k="fixme" v="consider place=hamlet" />
		<tag k="name" v="Samset" />
		<tag k="place" v="farm" />
		<tag k="ssr:stedsnr" v="739395" />
	</node>
	<node lat="62.481161114262015" lon="7.540413882252642" id="-10926">
		<tag k="name" v="Nyheim" />
		<tag k="place" v="farm" />
		<tag k="ssr:stedsnr" v="739882" />
	</node>
	<node lat="62.60332500153715" lon="7.83733888601458" id="-10930">
		<tag k="historic" v="shieling" />
		<tag k="name" v="Loftskarsætra" />
		<tag k="place" v="isolated_dwelling" />
		<tag k="ssr:stedsnr" v="740326" />
	</node>
	<node lat="62.59776111554682" lon="7.741083333282641" id="-10931">
		<tag k="historic" v="shieling" />
		<tag k="name" v="Breidviksetra" />
		<tag k="place" v="isolated_dwelling" />
		<tag k="ssr:stedsnr" v="740334" />
	</node>
	<node lat="62.590809714711" lon="7.495813656624206" id="-10935">
		<tag k="fixme" v="consider place=hamlet" />
		<tag k="name" v="Eide" />
		<tag k="place" v="farm" />
		<tag k="ssr:stedsnr" v="740585" />
	</node>
	<node lat="62.68835277936608" lon="7.721763895025818" id="-10957">
		<tag k="name" v="Slettan" />
		<tag k="place" v="farm" />
		<tag k="ssr:stedsnr" v="760476" />
	</node>
	<node lat="62.63300555330864" lon="7.519908338813882" id="-10961">
		<tag k="name" v="Myrhaugen" />
		<tag k="place" v="farm" />
		<tag k="ssr:stedsnr" v="761109" />
	</node>
	<node lat="62.535125001728176" lon="7.373016675454542" id="-10991">
		<tag k="historic" v="shieling" />
		<tag k="name" v="Gamlesetra" />
		<tag k="place" v="isolated_dwelling" />
		<tag k="ssr:stedsnr" v="764529" />
	</node>
	<node lat="62.48330555444253" lon="7.421208330231831" id="-10999">
		<tag k="name" v="Pålsøygardan" />
		<tag k="place" v="locality" />
		<tag k="ssr:stedsnr" v="764783" />
	</node>
	<node lat="62.52082499983901" lon="7.3997166607162805" id="-11005">
		<tag k="name" v="Holan" />
		<tag k="place" v="farm" />
		<tag k="ssr:stedsnr" v="764839" />
	</node>
	<node lat="62.53820000267669" lon="7.41416111113783" id="-11007">
		<tag k="name" v="Nysetran" />
		<tag k="place" v="locality" />
		<tag k="ssr:stedsnr" v="764980" />
	</node>
	<node lat="62.30364444660551" lon="8.093125002545275" id="-11038">
		<tag k="historic" v="shieling" />
		<tag k="name" v="Brulisetra" />
		<tag k="place" v="isolated_dwelling" />
		<tag k="ssr:stedsnr" v="800226" />
	</node>
	<node lat="62.63072777779647" lon="7.495588888711173" id="-11045">
		<tag k="name" v="Korsehagen" />
		<tag k="place" v="farm" />
		<tag k="ssr:stedsnr" v="800665" />
	</node>
	<node lat="62.48550833481188" lon="7.5525833240192375" id="-11048">
		<tag k="alt_name" v="Sandøyan" />
		<tag k="name" v="Vonheim" />
		<tag k="place" v="farm" />
		<tag k="ssr:stedsnr" v="800865" />
	</node>
	<node lat="62.53323870572793" lon="7.509654155627485" id="-11058">
		<tag k="alt_name" v="Sevik;Søvik" />
		<tag k="fixme" v="consider place=hamlet" />
		<tag k="name" v="Søvika" />
		<tag k="place" v="farm" />
		<tag k="ssr:stedsnr" v="801397" />
	</node>
	<node lat="62.66490833331328" lon="7.617902777875325" id="-11061">
		<tag k="fixme" v="multiple name tags, choose one and add the other to alt_name" />
		<tag k="historic" v="shieling" />
		<tag k="name" v="Ytter Slemmesetra;Slemmesetra, yt" />
		<tag k="place" v="isolated_dwelling" />
		<tag k="ssr:stedsnr" v="801732" />
	</node>
	<node lat="62.61520278002526" lon="7.541994440402108" id="-11076">
		<tag k="name" v="Askeneset" />
		<tag k="place" v="isolated_dwelling" />
		<tag k="ssr:stedsnr" v="822659" />
	</node>
	<node lat="62.63378055273373" lon="7.517469447891971" id="-11079">
		<tag k="name" v="Strandheim" />
		<tag k="place" v="farm" />
		<tag k="ssr:stedsnr" v="822097" />
	</node>
	<node lat="62.58128332947924" lon="7.4968861100572415" id="-11088">
		<tag k="name" v="Sundeplassen" />
		<tag k="place" v="locality" />
		<tag k="ssr:stedsnr" v="825586" />
	</node>
	<node lat="62.58018333256311" lon="7.881011112775802" id="-11100">
		<tag k="name" v="Hjellan" />
		<tag k="place" v="farm" />
		<tag k="ssr:stedsnr" v="825396" />
	</node>
	<node lat="62.535822222278036" lon="7.501686118008813" id="-11105">
		<tag k="name" v="Nedre Hovde" />
		<tag k="place" v="farm" />
		<tag k="ssr:stedsnr" v="825444" />
	</node>
	<node lat="62.30681944211843" lon="8.128294442923446" id="-11106">
		<tag k="historic" v="shieling" />
		<tag k="name" v="Gammelstølen" />
		<tag k="place" v="isolated_dwelling" />
		<tag k="ssr:stedsnr" v="825456" />
	</node>
	<node lat="62.58098333423568" lon="7.749894447425472" id="-11108">
		<tag k="name" v="Ytre Tokle" />
		<tag k="place" v="hamlet" />
		<tag k="ssr:stedsnr" v="825543" />
	</node>
	<node lat="62.472461115059545" lon="7.783722231657981" id="-11122">
		<tag k="alt_name" v="Ytre Lyngheim" />
		<tag k="name" v="Løkken" />
		<tag k="place" v="farm" />
		<tag k="ssr:stedsnr" v="825895" />
	</node>
	<node lat="62.596877777560216" lon="7.981563881177929" id="-11126">
		<tag k="name" v="Høgsetra" />
		<tag k="place" v="locality" />
		<tag k="ssr:stedsnr" v="826585" />
	</node>
	<node lat="62.37027777709969" lon="8.135216673356986" id="-11137">
		<tag k="name" v="Danielbua" />
		<tag k="place" v="locality" />
		<tag k="ssr:stedsnr" v="860046" />
	</node>
	<node lat="62.52622499815145" lon="7.701958341362048" id="-11169">
		<tag k="name" v="Midgard" />
		<tag k="place" v="farm" />
		<tag k="ssr:stedsnr" v="861362" />
	</node>
	<node lat="62.548982961986596" lon="7.678704072497209" id="-11170">
		<tag k="fixme" v="consider place=hamlet" />
		<tag k="name" v="Setnesreitan" />
		<tag k="place" v="farm" />
		<tag k="ssr:stedsnr" v="861397" />
	</node>
	<node lat="62.58152337276816" lon="7.558848578317389" id="-11173">
		<tag k="name" v="Siem" />
		<tag k="place" v="hamlet" />
		<tag k="ssr:stedsnr" v="861483" />
	</node>
	<node lat="62.633836108099366" lon="7.551150008728352" id="-11180">
		<tag k="historic" v="shieling" />
		<tag k="name" v="Rygjerdsetra" />
		<tag k="place" v="isolated_dwelling" />
		<tag k="ssr:stedsnr" v="861630" />
	</node>
	<node lat="62.58112222171838" lon="7.567072216738212" id="-11217">
		<tag k="name" v="Utigard" />
		<tag k="place" v="farm" />
		<tag k="ssr:stedsnr" v="884717" />
	</node>
	<node lat="62.57947499708559" lon="7.847500002995203" id="-11221">
		<tag k="name" v="Nyvoll" />
		<tag k="place" v="farm" />
		<tag k="ssr:stedsnr" v="885476" />
	</node>
	<node lat="62.57098333120365" lon="7.870372217616206" id="-11222">
		<tag k="alt_name" v="Bjerkeli" />
		<tag k="fixme" v="consider place=hamlet" />
		<tag k="name" v="Nebba" />
		<tag k="place" v="farm" />
		<tag k="ssr:stedsnr" v="885431" />
	</node>
	<node lat="62.59609721852313" lon="7.453902782284615" id="-11253">
		<tag k="name" v="Gamlestølen" />
		<tag k="place" v="locality" />
		<tag k="ssr:stedsnr" v="886540" />
	</node>
	<node lat="62.50228611276294" lon="7.430413889737561" id="-11259">
		<tag k="name" v="Megrovløa" />
		<tag k="place" v="locality" />
		<tag k="ssr:stedsnr" v="886795" />
	</node>
	<node lat="62.696205557122596" lon="7.655644436455043" id="-11277">
		<tag k="name" v="Strandheim" />
		<tag k="place" v="farm" />
		<tag k="ssr:stedsnr" v="943548" />
	</node>
	<node lat="62.66824166833264" lon="7.7581444350869635" id="-11292">
		<tag k="name" v="Ellingsetra" />
		<tag k="place" v="isolated_dwelling" />
		<tag k="ssr:stedsnr" v="943999" />
	</node>
	<node lat="62.31867222119162" lon="8.106283330591173" id="-11306">
		<tag k="historic" v="shieling" />
		<tag k="name" v="Åmillosætra" />
		<tag k="place" v="isolated_dwelling" />
		<tag k="ssr:stedsnr" v="946372" />
	</node>
	<node lat="62.52786944745808" lon="7.712638896278957" id="-11310">
		<tag k="name" v="Brekka" />
		<tag k="place" v="farm" />
		<tag k="ssr:stedsnr" v="946496" />
	</node>
	<node lat="62.549099997880944" lon="7.882297218313722" id="-11315">
		<tag k="name" v="Gyldenskog" />
		<tag k="place" v="farm" />
		<tag k="ssr:stedsnr" v="946719" />
	</node>
	<node lat="62.471419448133126" lon="7.562397231655058" id="-11320">
		<tag k="name" v="Setra" />
		<tag k="place" v="locality" />
		<tag k="ssr:stedsnr" v="946918" />
	</node>
	<node lat="62.58368055651573" lon="7.717049996027903" id="-11337">
		<tag k="name" v="Gjerdet" />
		<tag k="place" v="farm" />
		<tag k="ssr:stedsnr" v="947545" />
	</node>
	<node lat="62.4035527814593" lon="8.008624993711715" id="-11343">
		<tag k="name" v="Gravdehaug" />
		<tag k="place" v="farm" />
		<tag k="ssr:stedsnr" v="947873" />
	</node>
	<node lat="62.49700925256815" lon="7.798688031770416" id="-11351">
		<tag k="name" v="Hornvatnhytta" />
		<tag k="place" v="locality" />
		<tag k="ssr:stedsnr" v="975751" />
	</node>
	<node lat="62.29011067826391" lon="7.934292162194339" id="-11352">
		<tag k="name" v="Grovaskarsbu" />
		<tag k="place" v="locality" />
		<tag k="ssr:stedsnr" v="975752" />
	</node>
	<node lat="62.56603967018838" lon="7.6852131253787395" id="-11353">
		<tag k="fixme" v="consider place=hamlet" />
		<tag k="name" v="Nes" />
		<tag k="place" v="farm" />
		<tag k="ssr:stedsnr" v="981701" />
	</node>
	<node lat="62.52701606034026" lon="7.419969642534987" id="-11354">
		<tag k="fixme" v="consider place=hamlet" />
		<tag k="name" v="Roknem" />
		<tag k="place" v="farm" />
		<tag k="ssr:stedsnr" v="981873" />
	</node>
	<node lat="62.536637869365705" lon="7.828401336181644" id="-11560">
		<tag k="fixme" v="consider tourism=alpine_hut or tourism=chalet" />
		<tag k="name" v="Venjesdalsbu" />
		<tag k="ssr:stedsnr" v="1072264" />
		<tag k="tourism" v="wilderness_hut" />
	</node>
	<node lat="62.65420441732257" lon="7.593074327224555" id="-11568">
		<tag k="fixme" v="consider tourism=alpine_hut or tourism=chalet" />
		<tag k="name" v="Herjevassbu" />
		<tag k="ssr:stedsnr" v="1078224" />
		<tag k="tourism" v="wilderness_hut" />
	</node>
	<node lat="62.51785052601315" lon="7.762060578287289" id="-11583">
		<tag k="name" v="Ner-Hole" />
		<tag k="old_name" v="GRYTTEN MUSEUM" />
		<tag k="place" v="farm" />
		<tag k="ssr:stedsnr" v="1082564" />
	</node>
</osm>
