<?xml version="1.0" encoding="UTF-8"?>
<<<<<<< HEAD
<osm version="0.6" generator="osmapis">
	<node lat="62.46648055406875" lon="7.82448889091663" id="-4724">
		<tag k="name" v="Olaskarsfonna" />
		<tag k="place" v="locality" />
		<tag k="ssr:stedsnr" v="21587" />
	</node>
	<node lat="62.582138888021404" lon="7.767305565070937" id="-4725">
		<tag k="name" v="Toklemyran" />
		<tag k="natural" v="wetland" />
		<tag k="ssr:stedsnr" v="21588" />
	</node>
	<node lat="62.43887222316795" lon="7.422063881935317" id="-4727">
		<tag k="historic" v="shieling" />
		<tag k="name" v="Gamlestøløya" />
		<tag k="place" v="locality" />
		<tag k="ssr:stedsnr" v="21944" />
	</node>
	<node lat="62.47333055838765" lon="7.53818611644164" id="-4728">
		<tag k="name" v="Fagerøya" />
		<tag k="place" v="locality" />
		<tag k="ssr:stedsnr" v="21999" />
	</node>
	<node lat="62.68189444710612" lon="7.714822229479022" id="-4731">
		<tag k="name" v="Daleøyan" />
		<tag k="natural" v="wetland" />
		<tag k="ssr:stedsnr" v="32403" />
	</node>
	<node lat="62.62077777611493" lon="7.4711888949834675" id="-4738">
		<tag k="name" v="Naglet" />
		<tag k="natural" v="wetland" />
		<tag k="ssr:stedsnr" v="33620" />
	</node>
	<node lat="62.62077777611493" lon="7.4711888949834675" id="-4739">
		<tag k="name" v="Gjerdan" />
		<tag k="natural" v="wetland" />
		<tag k="ssr:stedsnr" v="33623" />
	</node>
	<node lat="62.62168610960274" lon="7.538166658652622" id="-4740">
		<tag k="name" v="Brettingen" />
		<tag k="place" v="locality" />
		<tag k="ssr:stedsnr" v="33665" />
	</node>
	<node lat="62.6377416644453" lon="7.452708326491275" id="-4742">
		<tag k="name" v="Byttesteinen" />
		<tag k="natural" v="stone" />
		<tag k="ssr:stedsnr" v="34373" />
	</node>
	<node lat="62.52262499914596" lon="7.757827778285265" id="-4752">
		<tag k="name" v="Langåkeren" />
		<tag k="place" v="locality" />
		<tag k="ssr:stedsnr" v="36410" />
	</node>
	<node lat="62.49785833690405" lon="7.621327783728597" id="-4764">
		<tag k="name" v="Fantesteinen" />
		<tag k="natural" v="stone" />
		<tag k="ssr:stedsnr" v="36678" />
	</node>
	<node lat="62.56464166874758" lon="7.398591659491703" id="-4765">
		<tag k="name" v="Håvardfonna" />
		<tag k="place" v="locality" />
		<tag k="ssr:stedsnr" v="36914" />
	</node>
	<node lat="62.57508611065862" lon="7.78365833134133" id="-4768">
		<tag k="name" v="Hensøran" />
		<tag k="place" v="locality" />
		<tag k="ssr:stedsnr" v="37502" />
	</node>
	<node lat="62.565275001103494" lon="7.862736118236655" id="-4791">
		<tag k="name" v="Litlegjerdet" />
		<tag k="place" v="locality" />
		<tag k="ssr:stedsnr" v="72180" />
	</node>
	<node lat="62.67222777845981" lon="7.624994441707559" id="-4805">
		<tag k="name" v="Mimarteigen" />
		<tag k="place" v="locality" />
		<tag k="ssr:stedsnr" v="81583" />
	</node>
	<node lat="62.68741944752439" lon="7.681872230172172" id="-4810">
		<tag k="name" v="Hogstrin" />
		<tag k="place" v="locality" />
		<tag k="ssr:stedsnr" v="82927" />
	</node>
	<node lat="62.65360555933011" lon="7.7021638923757205" id="-4815">
		<tag k="name" v="Åkrokan" />
		<tag k="natural" v="wetland" />
		<tag k="ssr:stedsnr" v="93968" />
	</node>
	<node lat="62.66320277935385" lon="7.701747228714547" id="-4816">
		<tag k="name" v="Djupmyra" />
		<tag k="natural" v="wetland" />
		<tag k="ssr:stedsnr" v="93971" />
	</node>
	<node lat="62.62263333046192" lon="7.536172220082822" id="-4818">
		<tag k="name" v="Depplan" />
		<tag k="place" v="locality" />
		<tag k="ssr:stedsnr" v="94611" />
	</node>
	<node lat="62.584261113888914" lon="7.836769449286344" id="-4823">
		<tag k="name" v="Ura" />
		<tag k="natural" v="scree" />
		<tag k="ssr:stedsnr" v="96475" />
	</node>
	<node lat="62.3103944469897" lon="8.116811104829548" id="-4835">
		<tag k="landuse" v="meadow" />
		<tag k="name" v="Storløslættet" />
		<tag k="ssr:stedsnr" v="97410" />
	</node>
	<node lat="62.522772219925265" lon="7.945002776757643" id="-4858">
		<tag k="name" v="Hellarsteinen" />
		<tag k="natural" v="stone" />
		<tag k="ssr:stedsnr" v="98862" />
	</node>
	<node lat="62.2064499970804" lon="7.808947225143996" id="-4870">
		<tag k="name" v="Svartsteinan" />
		<tag k="natural" v="stone" />
		<tag k="ssr:stedsnr" v="132168" />
	</node>
	<node lat="62.3642416633882" lon="7.972561108927918" id="-4893">
		<tag k="name" v="Gamlestølsmyra" />
		<tag k="natural" v="wetland" />
		<tag k="ssr:stedsnr" v="253039" />
	</node>
	<node lat="62.49612777686249" lon="7.551097221603561" id="-4932">
		<tag k="name" v="Øran" />
		<tag k="place" v="locality" />
		<tag k="ssr:stedsnr" v="141540" />
	</node>
	<node lat="62.685708329716" lon="7.689333331875907" id="-4950">
		<tag k="name" v="Steinløsteinen" />
		<tag k="natural" v="stone" />
		<tag k="ssr:stedsnr" v="153424" />
	</node>
	<node lat="62.53889722446848" lon="7.722375008416942" id="-4965">
		<tag k="name" v="Åkesreiten" />
		<tag k="place" v="locality" />
		<tag k="ssr:stedsnr" v="157488" />
	</node>
	<node lat="62.53089166703608" lon="7.88921110239395" id="-4975">
		<tag k="name" v="Stormyra" />
		<tag k="natural" v="wetland" />
		<tag k="ssr:stedsnr" v="157807" />
	</node>
	<node lat="62.48871111523718" lon="7.551888894696722" id="-4979">
		<tag k="name" v="Stormyra" />
		<tag k="natural" v="wetland" />
		<tag k="ssr:stedsnr" v="157864" />
	</node>
	<node lat="62.58980555234216" lon="7.808016658551733" id="-4987">
		<tag k="name" v="Hamran" />
		<tag k="natural" v="wetland" />
		<tag k="ssr:stedsnr" v="158712" />
	</node>
	<node lat="62.584316666288096" lon="7.617366671158498" id="-4993">
		<tag k="historic" v="shieling" />
		<tag k="name" v="Skarsetra" />
		<tag k="place" v="locality" />
		<tag k="ssr:stedsnr" v="263551" />
	</node>
	<node lat="62.52672500211135" lon="7.403816662573302" id="-4994">
		<tag k="name" v="Johansøya" />
		<tag k="place" v="locality" />
		<tag k="ssr:stedsnr" v="263960" />
	</node>
	<node lat="62.489358336688596" lon="7.667808333734311" id="-4997">
		<tag k="name" v="Nedre Almegjerdet" />
		<tag k="place" v="locality" />
		<tag k="ssr:stedsnr" v="264658" />
	</node>
	<node lat="62.45468055780001" lon="7.526902772975823" id="-5005">
		<tag k="name" v="Gråfonna" />
		<tag k="place" v="locality" />
		<tag k="ssr:stedsnr" v="203314" />
	</node>
	<node lat="62.49380555921323" lon="7.675733330957373" id="-5007">
		<tag k="name" v="Revsura" />
		<tag k="natural" v="scree" />
		<tag k="ssr:stedsnr" v="203643" />
	</node>
	<node lat="62.56186111535494" lon="7.868819438588796" id="-5013">
		<tag k="name" v="Urin" />
		<tag k="natural" v="scree" />
		<tag k="ssr:stedsnr" v="204588" />
	</node>
	<node lat="62.62729166288093" lon="7.491761109892511" id="-5023">
=======
<osm generator="osmapis" version="0.6">
	<node id="-75767" lat="62.429413885" lon="7.95401666353">
		<tag k="name" v="Kjerkjeura" />
		<tag k="natural" v="scree" />
		<tag k="ssr:stedsnr" v="340812" />
	</node>
	<node id="-75761" lat="62.5893055533" lon="7.80458054923">
		<tag k="name" v="Myran" />
		<tag k="natural" v="wetland" />
		<tag k="ssr:stedsnr" v="340711" />
	</node>
	<node id="-75759" lat="62.5802500042" lon="7.94000000502">
		<tag k="name" v="Rotfonnsteinan" />
		<tag k="natural" v="stone" />
		<tag k="ssr:stedsnr" v="340667" />
	</node>
	<node id="-75754" lat="62.5826027818" lon="7.91877500555">
		<tag k="name" v="Bakkegjerdet" />
		<tag k="place" v="locality" />
		<tag k="ssr:stedsnr" v="340580" />
	</node>
	<node id="-75743" lat="62.546447221" lon="7.4310722236">
		<tag k="name" v="Storfonna" />
		<tag k="place" v="locality" />
		<tag k="ssr:stedsnr" v="339895" />
	</node>
	<node id="-75740" lat="62.4966361107" lon="7.56916667442">
		<tag k="name" v="Vollan" />
		<tag k="place" v="locality" />
		<tag k="ssr:stedsnr" v="339845" />
	</node>
	<node id="-75739" lat="62.497091665" lon="7.56249999974">
		<tag k="name" v="Linvollen" />
		<tag k="place" v="locality" />
		<tag k="ssr:stedsnr" v="339843" />
	</node>
	<node id="-76111" lat="62.583594447" lon="8.00805277162">
		<tag k="name" v="Furuhaugsteinan" />
		<tag k="natural" v="stone" />
		<tag k="ssr:stedsnr" v="522597" />
	</node>
	<node id="-75732" lat="62.5607916662" lon="7.85839723029">
		<tag k="name" v="Botnegjerdet" />
		<tag k="place" v="locality" />
		<tag k="ssr:stedsnr" v="339722" />
	</node>
	<node id="-75731" lat="62.5389750024" lon="7.91969722469">
		<tag k="name" v="Bjørnafonna" />
		<tag k="natural" v="scree" />
		<tag k="ssr:stedsnr" v="339673" />
	</node>
	<node id="-75720" lat="62.5788694416" lon="7.82846389231">
		<tag k="name" v="Kringla" />
		<tag k="place" v="locality" />
		<tag k="ssr:stedsnr" v="339452" />
	</node>
	<node id="-73671" lat="62.5723833372" lon="7.3717055648">
		<tag k="name" v="Gråbein-Ivarsletta" />
		<tag k="natural" v="wetland" />
		<tag k="ssr:stedsnr" v="446656" />
	</node>
	<node id="-73656" lat="62.5808083307" lon="7.48716943828">
		<tag k="name" v="Myrateigen" />
		<tag k="natural" v="wetland" />
		<tag k="ssr:stedsnr" v="218603" />
	</node>
	<node id="-73650" lat="62.4990083377" lon="7.63818055968">
		<tag k="name" v="Urkleiva" />
		<tag k="natural" v="scree" />
		<tag k="ssr:stedsnr" v="218723" />
	</node>
	<node id="-73647" lat="62.5582361156" lon="7.84708889524">
		<tag k="name" v="Ølsteinen" />
		<tag k="natural" v="stone" />
		<tag k="ssr:stedsnr" v="218718" />
	</node>
	<node id="-73645" lat="62.5183472206" lon="7.37451943834">
		<tag k="name" v="Deplan" />
		<tag k="natural" v="wetland" />
		<tag k="ssr:stedsnr" v="218447" />
	</node>
	<node id="-73640" lat="62.5027166625" lon="7.34194167392">
		<tag k="name" v="Føremyra" />
		<tag k="natural" v="wetland" />
		<tag k="ssr:stedsnr" v="218429" />
	</node>
	<node id="-73639" lat="62.5068305515" lon="7.34855277905">
		<tag k="name" v="Ingridmyran" />
		<tag k="natural" v="wetland" />
		<tag k="ssr:stedsnr" v="218428" />
	</node>
	<node id="-73637" lat="62.5961444403" lon="7.82650278178">
		<tag k="name" v="Mjeltåmyra" />
		<tag k="natural" v="wetland" />
		<tag k="ssr:stedsnr" v="218419" />
	</node>
	<node id="-73635" lat="62.3226805587" lon="8.11812777147">
		<tag k="name" v="Tomaslykkja" />
		<tag k="place" v="locality" />
		<tag k="ssr:stedsnr" v="218407" />
	</node>
	<node id="-75676" lat="62.6608388904" lon="7.5830861184">
		<tag k="name" v="Setermyra" />
		<tag k="natural" v="wetland" />
		<tag k="ssr:stedsnr" v="336384" />
	</node>
	<node id="-73627" lat="62.5703666641" lon="7.57676388389">
		<tag k="name" v="Sletteidet" />
		<tag k="natural" v="wetland" />
		<tag k="ssr:stedsnr" v="216441" />
	</node>
	<node id="-75664" lat="62.5160861154" lon="7.76464443686">
		<tag k="name" v="Amundslættet" />
		<tag k="place" v="locality" />
		<tag k="ssr:stedsnr" v="325611" />
	</node>
	<node id="-73615" lat="62.4928222261" lon="7.72060833385">
		<tag k="name" v="Adelsbreen" />
		<tag k="natural" v="glacier" />
		<tag k="ssr:stedsnr" v="194827" />
	</node>
	<node id="-75656" lat="62.5743972186" lon="7.48055834095">
		<tag k="name" v="Urfonna" />
		<tag k="natural" v="scree" />
		<tag k="ssr:stedsnr" v="324984" />
	</node>
	<node id="-75651" lat="62.6821777746" lon="7.61161667589">
		<tag k="name" v="Broka" />
		<tag k="place" v="locality" />
		<tag k="ssr:stedsnr" v="324549" />
	</node>
	<node id="-73584" lat="62.5821638923" lon="7.94028332717">
		<tag k="name" v="Steingerdet" />
		<tag k="place" v="locality" />
		<tag k="ssr:stedsnr" v="280690" />
	</node>
	<node id="-73581" lat="62.5860555566" lon="8.00967499778">
		<tag k="name" v="Nyheia" />
		<tag k="natural" v="stone" />
		<tag k="ssr:stedsnr" v="280616" />
	</node>
	<node id="-73578" lat="62.5816972197" lon="7.91075277876">
		<tag k="name" v="Veslegjerdet" />
		<tag k="place" v="locality" />
		<tag k="ssr:stedsnr" v="280593" />
	</node>
	<node id="-73577" lat="62.5828000041" lon="7.92418056088">
		<tag k="name" v="Tverråmyran" />
		<tag k="natural" v="wetland" />
		<tag k="ssr:stedsnr" v="280584" />
	</node>
	<node id="-75622" lat="62.5857472217" lon="7.62617500944">
		<tag k="name" v="Toraldmyra" />
		<tag k="natural" v="wetland" />
		<tag k="ssr:stedsnr" v="315486" />
	</node>
	<node id="-73573" lat="62.5772777773" lon="7.78410000447">
		<tag k="name" v="Ørsbrekka" />
		<tag k="place" v="locality" />
		<tag k="ssr:stedsnr" v="280489" />
	</node>
	<node id="-73568" lat="62.4588000015" lon="7.80901389521">
		<tag k="name" v="Søre Selen" />
		<tag k="place" v="locality" />
		<tag k="ssr:stedsnr" v="279973" />
	</node>
	<node id="-73564" lat="62.4703305546" lon="7.52784167324">
		<tag k="landuse" v="meadow" />
		<tag k="name" v="Engevollan" />
		<tag k="ssr:stedsnr" v="279928" />
	</node>
	<node id="-73557" lat="62.4553638883" lon="7.83120834056">
		<tag k="name" v="Gjerdet" />
		<tag k="place" v="locality" />
		<tag k="ssr:stedsnr" v="279798" />
	</node>
	<node id="-75602" lat="62.3189750022" lon="8.11935000854">
		<tag k="name" v="Brumyran" />
		<tag k="natural" v="wetland" />
		<tag k="ssr:stedsnr" v="314235" />
	</node>
	<node id="-73550" lat="62.5923527778" lon="7.47951944936">
		<tag k="name" v="Frambøen" />
		<tag k="place" v="locality" />
		<tag k="ssr:stedsnr" v="279580" />
	</node>
	<node id="-73543" lat="62.4196555551" lon="8.00400834206">
		<tag k="name" v="Styggefonnura" />
		<tag k="natural" v="scree" />
		<tag k="ssr:stedsnr" v="158874" />
	</node>
	<node id="-73542" lat="62.4180805555" lon="7.99969444945">
		<tag k="name" v="Fonnimellom" />
		<tag k="natural" v="scree" />
		<tag k="ssr:stedsnr" v="158873" />
	</node>
	<node id="-75589" lat="62.6272916629" lon="7.49176110989">
>>>>>>> e1d4bc35ff8a6074a6f2e91616a996b547c36f15
		<tag k="name" v="Korsemeisa" />
		<tag k="place" v="locality" />
		<tag k="ssr:stedsnr" v="216474" />
	</node>
<<<<<<< HEAD
	<node lat="62.32268055869934" lon="8.118127771465991" id="-5034">
		<tag k="name" v="Tomaslykkja" />
		<tag k="place" v="locality" />
		<tag k="ssr:stedsnr" v="218407" />
	</node>
	<node lat="62.50683055146994" lon="7.3485527790520075" id="-5035">
		<tag k="name" v="Ingridmyran" />
		<tag k="natural" v="wetland" />
		<tag k="ssr:stedsnr" v="218428" />
	</node>
	<node lat="62.50271666249845" lon="7.341941673924298" id="-5036">
		<tag k="name" v="Føremyra" />
		<tag k="natural" v="wetland" />
		<tag k="ssr:stedsnr" v="218429" />
	</node>
	<node lat="62.58080833066109" lon="7.487169438276732" id="-5037">
		<tag k="name" v="Myrateigen" />
		<tag k="natural" v="wetland" />
		<tag k="ssr:stedsnr" v="218603" />
	</node>
	<node lat="62.48780278156972" lon="7.555988884845891" id="-5044">
		<tag k="name" v="Dalan" />
		<tag k="natural" v="wetland" />
		<tag k="ssr:stedsnr" v="218874" />
	</node>
	<node lat="62.488105559748675" lon="7.561991669183995" id="-5046">
		<tag k="name" v="Bjørsteinen" />
		<tag k="natural" v="stone" />
		<tag k="ssr:stedsnr" v="218886" />
	</node>
	<node lat="62.49900833772859" lon="7.638180559680584" id="-5047">
		<tag k="name" v="Urkleiva" />
		<tag k="natural" v="scree" />
		<tag k="ssr:stedsnr" v="218723" />
	</node>
	<node lat="62.58315833758654" lon="7.894911106314253" id="-5054">
		<tag k="name" v="Ryggteighamran" />
		<tag k="natural" v="scree" />
		<tag k="ssr:stedsnr" v="219588" />
	</node>
	<node lat="62.598925003021705" lon="7.507824991262884" id="-5106">
		<tag k="name" v="Sølfestgjerdet" />
		<tag k="place" v="locality" />
		<tag k="ssr:stedsnr" v="263985" />
	</node>
	<node lat="62.63463355810579" lon="7.4917900445589085" id="-5108">
		<tag k="name" v="Hulderstaua" />
		<tag k="place" v="locality" />
		<tag k="ssr:stedsnr" v="263987" />
	</node>
	<node lat="62.63086944228281" lon="7.460686107718876" id="-5109">
		<tag k="name" v="Skarmyra" />
		<tag k="natural" v="wetland" />
		<tag k="ssr:stedsnr" v="263994" />
	</node>
	<node lat="62.55086111252853" lon="7.854705546542249" id="-5112">
		<tag k="name" v="Orrmyra" />
		<tag k="natural" v="wetland" />
		<tag k="ssr:stedsnr" v="264541" />
	</node>
	<node lat="62.50547499911064" lon="7.765411120433596" id="-5115">
		<tag k="name" v="Nedre Rønningan" />
		<tag k="place" v="locality" />
		<tag k="ssr:stedsnr" v="264593" />
	</node>
	<node lat="62.47772778019713" lon="7.768608334774429" id="-5116">
		<tag k="name" v="Skjervelykkja" />
		<tag k="place" v="locality" />
		<tag k="ssr:stedsnr" v="265619" />
	</node>
	<node lat="62.45336388875626" lon="7.50796944579676" id="-5136">
		<tag k="name" v="Fonnasteinen" />
		<tag k="natural" v="stone" />
		<tag k="ssr:stedsnr" v="278276" />
	</node>
	<node lat="62.52453889030282" lon="7.378250007897795" id="-5146">
		<tag k="name" v="Svamyra" />
		<tag k="natural" v="wetland" />
		<tag k="ssr:stedsnr" v="278592" />
	</node>
	<node lat="62.47136944362608" lon="7.662874996928632" id="-5155">
		<tag k="name" v="Hundekyrkja" />
		<tag k="natural" v="stone" />
		<tag k="ssr:stedsnr" v="279113" />
	</node>
	<node lat="62.45880000145954" lon="7.809013895214654" id="-5176">
		<tag k="name" v="Søre Selen" />
		<tag k="place" v="locality" />
		<tag k="ssr:stedsnr" v="279973" />
	</node>
	<node lat="62.582800004134434" lon="7.924180560877821" id="-5183">
		<tag k="name" v="Tverråmyran" />
		<tag k="natural" v="wetland" />
		<tag k="ssr:stedsnr" v="280584" />
	</node>
	<node lat="62.58605555657437" lon="8.009674997781083" id="-5185">
		<tag k="name" v="Nyheia" />
		<tag k="natural" v="stone" />
		<tag k="ssr:stedsnr" v="280616" />
	</node>
	<node lat="62.5320472254149" lon="7.486761103702251" id="-5188">
		<tag k="name" v="Hovdemyra" />
		<tag k="natural" v="wetland" />
		<tag k="ssr:stedsnr" v="460572" />
	</node>
	<node lat="62.50556667052313" lon="7.873138879399351" id="-5192">
		<tag k="name" v="Jolgrøhamran" />
		<tag k="natural" v="scree" />
		<tag k="ssr:stedsnr" v="460884" />
	</node>
	<node lat="62.480541664120935" lon="7.548219448292287" id="-5194">
		<tag k="name" v="Lykkja" />
		<tag k="place" v="locality" />
		<tag k="ssr:stedsnr" v="460889" />
	</node>
	<node lat="62.48973055758627" lon="7.551705547143968" id="-5195">
		<tag k="name" v="Øyan" />
		<tag k="place" v="locality" />
		<tag k="ssr:stedsnr" v="460893" />
	</node>
	<node lat="62.494133330293884" lon="7.663038891870295" id="-5201">
		<tag k="name" v="Vadstadbakkmyra" />
		<tag k="natural" v="wetland" />
		<tag k="ssr:stedsnr" v="461335" />
	</node>
	<node lat="62.579105552672914" lon="7.755402779077095" id="-5210">
		<tag k="name" v="Risteigen" />
		<tag k="place" v="locality" />
		<tag k="ssr:stedsnr" v="461615" />
	</node>
	<node lat="62.545433330092465" lon="7.722888883125545" id="-5217">
		<tag k="landuse" v="meadow" />
		<tag k="name" v="Mjelvabøen" />
		<tag k="ssr:stedsnr" v="461732" />
	</node>
	<node lat="62.55858333655801" lon="7.702102774525443" id="-5219">
		<tag k="landuse" v="meadow" />
		<tag k="name" v="Neshagen" />
		<tag k="ssr:stedsnr" v="461736" />
	</node>
	<node lat="62.53708888473571" lon="7.439008329750623" id="-5224">
		<tag k="name" v="Øyran" />
		<tag k="place" v="locality" />
		<tag k="ssr:stedsnr" v="461907" />
	</node>
	<node lat="62.57795555155868" lon="7.890327781862641" id="-5233">
		<tag k="name" v="Hallvardgjerdet" />
		<tag k="place" v="locality" />
		<tag k="ssr:stedsnr" v="462581" />
	</node>
	<node lat="62.58006944351497" lon="7.917180562534692" id="-5234">
		<tag k="name" v="Heggefonngjerdet" />
		<tag k="place" v="locality" />
		<tag k="ssr:stedsnr" v="462584" />
	</node>
	<node lat="62.523491663278435" lon="7.9400000057568905" id="-5239">
		<tag k="name" v="Hellarteigen" />
		<tag k="place" v="locality" />
		<tag k="ssr:stedsnr" v="462763" />
	</node>
	<node lat="62.519425001278435" lon="7.889522221428313" id="-5240">
		<tag k="name" v="Osten" />
		<tag k="natural" v="stone" />
		<tag k="ssr:stedsnr" v="462772" />
	</node>
	<node lat="62.61058611021242" lon="7.4241166612508795" id="-5260">
		<tag k="name" v="Myran" />
		<tag k="natural" v="wetland" />
		<tag k="ssr:stedsnr" v="315551" />
	</node>
	<node lat="62.51608611535568" lon="7.7646444368605385" id="-5271">
		<tag k="name" v="Amundslættet" />
		<tag k="place" v="locality" />
		<tag k="ssr:stedsnr" v="325611" />
	</node>
	<node lat="62.65626388978828" lon="7.586019442365943" id="-5277">
		<tag k="name" v="Herjemyra" />
		<tag k="natural" v="wetland" />
		<tag k="ssr:stedsnr" v="336113" />
	</node>
	<node lat="62.57886944157732" lon="7.828463892309856" id="-5295">
		<tag k="name" v="Kringla" />
		<tag k="place" v="locality" />
		<tag k="ssr:stedsnr" v="339452" />
	</node>
	<node lat="62.49709166496822" lon="7.562499999737449" id="-5303">
		<tag k="name" v="Linvollen" />
		<tag k="place" v="locality" />
		<tag k="ssr:stedsnr" v="339843" />
	</node>
	<node lat="62.49663611065218" lon="7.569166674416758" id="-5304">
		<tag k="name" v="Vollan" />
		<tag k="place" v="locality" />
		<tag k="ssr:stedsnr" v="339845" />
	</node>
	<node lat="62.560791666163325" lon="7.8583972302868865" id="-5307">
		<tag k="name" v="Botnegjerdet" />
		<tag k="place" v="locality" />
		<tag k="ssr:stedsnr" v="339722" />
	</node>
	<node lat="62.5464472210459" lon="7.431072223596614" id="-5311">
		<tag k="name" v="Storfonna" />
		<tag k="place" v="locality" />
		<tag k="ssr:stedsnr" v="339895" />
	</node>
	<node lat="62.42941388502018" lon="7.954016663532222" id="-5321">
		<tag k="name" v="Kjerkjeura" />
		<tag k="natural" v="scree" />
		<tag k="ssr:stedsnr" v="340812" />
	</node>
	<node lat="62.61096540830227" lon="7.6926248820840755" id="-5347">
		<tag k="historic" v="shieling" />
		<tag k="name" v="Straumsetra" />
		<tag k="place" v="locality" />
		<tag k="ssr:stedsnr" v="375530" />
	</node>
	<node lat="62.56760277396822" lon="7.550519437870744" id="-5353">
		<tag k="name" v="Åsamyra" />
		<tag k="natural" v="wetland" />
		<tag k="ssr:stedsnr" v="375497" />
	</node>
	<node lat="62.45088055470159" lon="7.502422220260537" id="-5363">
		<tag k="name" v="Storura" />
		<tag k="natural" v="scree" />
		<tag k="ssr:stedsnr" v="385946" />
	</node>
	<node lat="62.450291668612444" lon="7.477661108401381" id="-5364">
		<tag k="name" v="Urfonna" />
		<tag k="place" v="locality" />
		<tag k="ssr:stedsnr" v="385953" />
	</node>
	<node lat="62.65521111413988" lon="7.500594438169014" id="-5366">
		<tag k="name" v="Oppistaua" />
		<tag k="place" v="locality" />
		<tag k="ssr:stedsnr" v="385998" />
	</node>
	<node lat="62.6987999983981" lon="7.694630546503783" id="-5372">
		<tag k="name" v="Einen" />
		<tag k="place" v="locality" />
		<tag k="ssr:stedsnr" v="396482" />
	</node>
	<node lat="62.65798055416463" lon="7.578852769388175" id="-5379">
		<tag k="name" v="Brødsteinen" />
		<tag k="natural" v="stone" />
		<tag k="ssr:stedsnr" v="397731" />
	</node>
	<node lat="62.62303333148417" lon="7.6011611105492785" id="-5383">
		<tag k="name" v="Stormyra" />
		<tag k="natural" v="wetland" />
		<tag k="ssr:stedsnr" v="398611" />
	</node>
	<node lat="62.5280333318324" lon="7.716869449717588" id="-5397">
		<tag k="name" v="Soggemelen" />
		<tag k="place" v="locality" />
		<tag k="ssr:stedsnr" v="400535" />
	</node>
	<node lat="62.57322500174206" lon="7.817386107523853" id="-5399">
		<tag k="name" v="Bugroteigen" />
		<tag k="place" v="locality" />
		<tag k="ssr:stedsnr" v="400408" />
	</node>
	<node lat="62.60690555218481" lon="7.839036119899923" id="-5400">
		<tag k="name" v="Fantesteinen" />
		<tag k="natural" v="stone" />
		<tag k="ssr:stedsnr" v="400426" />
	</node>
	<node lat="62.581486112769824" lon="7.497736103307407" id="-5403">
		<tag k="name" v="Kroken" />
		<tag k="place" v="locality" />
		<tag k="ssr:stedsnr" v="400627" />
	</node>
	<node lat="62.531908333145395" lon="7.698152775672495" id="-5404">
		<tag k="name" v="Smalmelan" />
		<tag k="place" v="locality" />
		<tag k="ssr:stedsnr" v="400702" />
	</node>
	<node lat="62.50805278225425" lon="7.786299999163323" id="-5411">
		<tag k="name" v="Seljefonna" />
		<tag k="place" v="locality" />
		<tag k="ssr:stedsnr" v="400811" />
	</node>
	<node lat="62.54161388467083" lon="7.88523610165136" id="-5425">
		<tag k="name" v="Dalemyra" />
		<tag k="natural" v="wetland" />
		<tag k="ssr:stedsnr" v="436118" />
	</node>
	<node lat="62.5215472185494" lon="7.376041663026033" id="-5455">
		<tag k="name" v="Urfonna" />
		<tag k="natural" v="scree" />
		<tag k="ssr:stedsnr" v="446102" />
	</node>
	<node lat="62.51917499590782" lon="7.765144453869019" id="-5473">
		<tag k="name" v="Nerholejordet" />
		<tag k="place" v="locality" />
		<tag k="ssr:stedsnr" v="460813" />
	</node>
	<node lat="62.51777222104685" lon="7.763949999713999" id="-5474">
		<tag k="name" v="Sjursteinen" />
		<tag k="natural" v="stone" />
		<tag k="ssr:stedsnr" v="460815" />
	</node>
	<node lat="62.51351666776387" lon="7.6651305598457045" id="-5480">
		<tag k="name" v="Hestemyra" />
		<tag k="natural" v="wetland" />
		<tag k="ssr:stedsnr" v="461112" />
	</node>
	<node lat="62.5831000010174" lon="7.84264722371644" id="-5490">
		<tag k="name" v="Kjerringhussteinen" />
		<tag k="natural" v="stone" />
		<tag k="ssr:stedsnr" v="461482" />
	</node>
	<node lat="62.62045555243298" lon="7.43371111214018" id="-5577">
		<tag k="name" v="Småmyran" />
		<tag k="natural" v="wetland" />
		<tag k="ssr:stedsnr" v="519603" />
	</node>
	<node lat="62.61123889135663" lon="7.621361108601027" id="-5582">
		<tag k="name" v="Hestefonna" />
		<tag k="place" v="locality" />
		<tag k="ssr:stedsnr" v="519678" />
	</node>
	<node lat="62.437591664211034" lon="7.473694452569518" id="-5586">
		<tag k="name" v="Slettefonna" />
		<tag k="place" v="locality" />
		<tag k="ssr:stedsnr" v="521212" />
	</node>
	<node lat="62.31334999922123" lon="8.12756388864945" id="-5593">
		<tag k="name" v="Tettmyra" />
		<tag k="natural" v="wetland" />
		<tag k="ssr:stedsnr" v="521403" />
	</node>
	<node lat="62.50291944776248" lon="7.366872213290557" id="-5597">
		<tag k="name" v="Kringletesvaet" />
		<tag k="place" v="locality" />
		<tag k="ssr:stedsnr" v="521421" />
	</node>
	<node lat="62.574097225741944" lon="7.851313894389917" id="-5598">
		<tag k="name" v="Kavliskogen" />
		<tag k="place" v="locality" />
		<tag k="ssr:stedsnr" v="521426" />
	</node>
	<node lat="62.58113333596748" lon="7.842333326055021" id="-5599">
		<tag k="name" v="Kalvegeilen" />
		<tag k="place" v="locality" />
		<tag k="ssr:stedsnr" v="521459" />
	</node>
	<node lat="62.53683333783523" lon="7.509638892223989" id="-5603">
		<tag k="name" v="Åttmællingan" />
		<tag k="place" v="locality" />
		<tag k="ssr:stedsnr" v="521525" />
	</node>
	<node lat="62.58332500296883" lon="7.9560444365880105" id="-5617">
		<tag k="name" v="Stormyrsteinen" />
		<tag k="natural" v="stone" />
		<tag k="ssr:stedsnr" v="522608" />
	</node>
	<node lat="62.53856110948687" lon="7.9226555497012265" id="-5623">
		<tag k="name" v="Bjørnasteinen" />
		<tag k="natural" v="stone" />
		<tag k="ssr:stedsnr" v="522785" />
	</node>
	<node lat="62.56301111420671" lon="7.517327769404055" id="-5629">
		<tag k="name" v="Orungen" />
		<tag k="natural" v="scree" />
		<tag k="ssr:stedsnr" v="688516" />
	</node>
	<node lat="62.65529167048381" lon="7.499441665056289" id="-5661">
		<tag k="name" v="Innernesberga" />
		<tag k="natural" v="scree" />
		<tag k="ssr:stedsnr" v="688997" />
	</node>
	<node lat="62.47392222662879" lon="7.523491674810131" id="-5662">
		<tag k="name" v="Urfonna" />
		<tag k="natural" v="scree" />
		<tag k="ssr:stedsnr" v="688999" />
	</node>
	<node lat="62.56203078109538" lon="7.787770921554335" id="-5666">
		<tag k="historic" v="shieling" />
		<tag k="name" v="Øvrestølen" />
		<tag k="place" v="locality" />
		<tag k="ssr:stedsnr" v="689572" />
	</node>
	<node lat="62.6750694432905" lon="7.573255557576141" id="-5672">
		<tag k="name" v="Urin" />
		<tag k="natural" v="scree" />
		<tag k="ssr:stedsnr" v="566564" />
	</node>
	<node lat="62.53990833360301" lon="7.697772213162412" id="-5674">
		<tag k="name" v="Øygardan" />
		<tag k="place" v="locality" />
		<tag k="ssr:stedsnr" v="567755" />
	</node>
	<node lat="62.61805277850662" lon="7.496402778939911" id="-5683">
		<tag k="name" v="Kobbesteinen" />
		<tag k="natural" v="stone" />
		<tag k="ssr:stedsnr" v="579640" />
	</node>
	<node lat="62.63599722065494" lon="7.428669437632442" id="-5687">
		<tag k="name" v="Kolla" />
		<tag k="natural" v="stone" />
		<tag k="ssr:stedsnr" v="580103" />
	</node>
	<node lat="62.61390833007978" lon="7.580988887366591" id="-5691">
		<tag k="name" v="Nyfonna" />
		<tag k="place" v="locality" />
		<tag k="ssr:stedsnr" v="580595" />
	</node>
	<node lat="62.45549722281444" lon="7.485255554769847" id="-5694">
		<tag k="name" v="Røyrfonna" />
		<tag k="place" v="locality" />
		<tag k="ssr:stedsnr" v="581247" />
	</node>
	<node lat="62.514436112825926" lon="7.671202769602343" id="-5703">
		<tag k="name" v="Gjefsemyra" />
=======
	<node id="-75583" lat="62.6786416623" lon="7.62798889759">
		<tag k="name" v="Etarsteinen" />
		<tag k="natural" v="stone" />
		<tag k="ssr:stedsnr" v="215789" />
	</node>
	<node id="-73524" lat="62.5336916644" lon="7.51966110787">
		<tag k="name" v="Orhola" />
		<tag k="natural" v="stone" />
		<tag k="ssr:stedsnr" v="279233" />
	</node>
	<node id="-75569" lat="62.5148833298" lon="7.40022499419">
		<tag k="name" v="Gråura" />
		<tag k="natural" v="scree" />
		<tag k="ssr:stedsnr" v="204964" />
	</node>
	<node id="-75568" lat="62.5208138921" lon="7.39395276795">
		<tag k="name" v="Øya" />
		<tag k="place" v="locality" />
		<tag k="ssr:stedsnr" v="204960" />
	</node>
	<node id="-75566" lat="62.5618611154" lon="7.86881943859">
		<tag k="name" v="Urin" />
		<tag k="natural" v="scree" />
		<tag k="ssr:stedsnr" v="204588" />
	</node>
	<node id="-73516" lat="62.5056388892" lon="7.66510833097">
		<tag k="name" v="Stormyra" />
		<tag k="natural" v="wetland" />
		<tag k="ssr:stedsnr" v="279092" />
	</node>
	<node id="-75558" lat="62.6911388865" lon="7.6547555568">
		<tag k="historic" v="shieling" />
		<tag k="name" v="Morkastrandsetra" />
		<tag k="place" v="locality" />
		<tag k="ssr:stedsnr" v="203940" />
	</node>
	<node id="-75554" lat="62.4938055592" lon="7.67573333096">
		<tag k="name" v="Revsura" />
		<tag k="natural" v="scree" />
		<tag k="ssr:stedsnr" v="203643" />
	</node>
	<node id="-73505" lat="62.4894583322" lon="7.57076111451">
		<tag k="name" v="Øverbømyran" />
		<tag k="natural" v="wetland" />
		<tag k="ssr:stedsnr" v="278883" />
	</node>
	<node id="-73503" lat="62.5088083368" lon="7.88880554868">
		<tag k="name" v="Skredå" />
		<tag k="natural" v="scree" />
		<tag k="ssr:stedsnr" v="278868" />
	</node>
	<node id="-75548" lat="62.4941416672" lon="7.54444166554">
		<tag k="name" v="Kringla" />
		<tag k="place" v="locality" />
		<tag k="ssr:stedsnr" v="203528" />
	</node>
	<node id="-75546" lat="62.4546805578" lon="7.52690277298">
		<tag k="name" v="Gråfonna" />
		<tag k="place" v="locality" />
		<tag k="ssr:stedsnr" v="203314" />
	</node>
	<node id="-73494" lat="62.5245388903" lon="7.3782500079">
		<tag k="name" v="Svamyra" />
		<tag k="natural" v="wetland" />
		<tag k="ssr:stedsnr" v="278592" />
	</node>
	<node id="-73482" lat="62.4533638888" lon="7.5079694458">
		<tag k="name" v="Fonnasteinen" />
		<tag k="natural" v="stone" />
		<tag k="ssr:stedsnr" v="278276" />
	</node>
	<node id="-73476" lat="62.6296722249" lon="7.46989999956">
		<tag k="name" v="Nautmyra" />
		<tag k="natural" v="wetland" />
		<tag k="ssr:stedsnr" v="277381" />
	</node>
	<node id="-73473" lat="62.6167944448" lon="7.5480861091">
		<tag k="name" v="Litleteigen" />
		<tag k="place" v="locality" />
		<tag k="ssr:stedsnr" v="276644" />
	</node>
	<node id="-73471" lat="62.6857083297" lon="7.68933333188">
		<tag k="name" v="Steinløsteinen" />
		<tag k="natural" v="stone" />
		<tag k="ssr:stedsnr" v="153424" />
	</node>
	<node id="-73465" lat="62.6760972261" lon="7.72241110985">
		<tag k="name" v="Sagøya" />
		<tag k="natural" v="wetland" />
		<tag k="ssr:stedsnr" v="275435" />
	</node>
	<node id="-73462" lat="62.5212055572" lon="7.67026388799">
		<tag k="name" v="Orfonna" />
		<tag k="place" v="locality" />
		<tag k="ssr:stedsnr" v="142654" />
	</node>
	<node id="-75495" lat="62.5898055523" lon="7.80801665855">
		<tag k="name" v="Hamran" />
		<tag k="natural" v="wetland" />
		<tag k="ssr:stedsnr" v="158712" />
	</node>
	<node id="-73446" lat="62.5632861127" lon="7.31791387958">
		<tag k="name" v="Langfjellmyrane" />
		<tag k="natural" v="wetland" />
		<tag k="ssr:stedsnr" v="132535" />
	</node>
	<node id="-76411" lat="62.6145388886" lon="7.26972499246">
		<tag k="name" v="Rønningan" />
		<tag k="place" v="locality" />
		<tag k="ssr:stedsnr" v="642066" />
	</node>
	<node id="-73432" lat="62.4777277802" lon="7.76860833477">
		<tag k="name" v="Skjervelykkja" />
		<tag k="place" v="locality" />
		<tag k="ssr:stedsnr" v="265619" />
	</node>
	<node id="-73427" lat="62.4893583367" lon="7.66780833373">
		<tag k="name" v="Nedre Almegjerdet" />
		<tag k="place" v="locality" />
		<tag k="ssr:stedsnr" v="264658" />
	</node>
	<node id="-73426" lat="62.5054749991" lon="7.76541112043">
		<tag k="name" v="Nedre Rønningan" />
		<tag k="place" v="locality" />
		<tag k="ssr:stedsnr" v="264593" />
	</node>
	<node id="-75473" lat="62.4887111152" lon="7.5518888947">
		<tag k="name" v="Stormyra" />
		<tag k="natural" v="wetland" />
		<tag k="ssr:stedsnr" v="157864" />
	</node>
	<node id="-73423" lat="62.5508611125" lon="7.85470554654">
		<tag k="name" v="Orrmyra" />
		<tag k="natural" v="wetland" />
		<tag k="ssr:stedsnr" v="264541" />
	</node>
	<node id="-73421" lat="62.6308694423" lon="7.46068610772">
		<tag k="name" v="Skarmyra" />
		<tag k="natural" v="wetland" />
		<tag k="ssr:stedsnr" v="263994" />
	</node>
	<node id="-73420" lat="62.6346335581" lon="7.49179004456">
		<tag k="name" v="Hulderstaua" />
		<tag k="place" v="locality" />
		<tag k="ssr:stedsnr" v="263987" />
	</node>
	<node id="-73418" lat="62.598925003" lon="7.50782499126">
		<tag k="name" v="Sølfestgjerdet" />
		<tag k="place" v="locality" />
		<tag k="ssr:stedsnr" v="263985" />
	</node>
	<node id="-73417" lat="62.5267250021" lon="7.40381666257">
		<tag k="name" v="Johansøya" />
		<tag k="place" v="locality" />
		<tag k="ssr:stedsnr" v="263960" />
	</node>
	<node id="-73416" lat="62.5843166663" lon="7.61736667116">
		<tag k="historic" v="shieling" />
		<tag k="name" v="Skarsetra" />
		<tag k="place" v="locality" />
		<tag k="ssr:stedsnr" v="263551" />
	</node>
	<node id="-75462" lat="62.5336444434" lon="7.68838055258">
		<tag k="landuse" v="meadow" />
		<tag k="name" v="Haubølan" />
		<tag k="ssr:stedsnr" v="157678" />
	</node>
	<node id="-73413" lat="62.5227722199" lon="7.94500277676">
		<tag k="name" v="Hellarsteinen" />
		<tag k="natural" v="stone" />
		<tag k="ssr:stedsnr" v="98862" />
	</node>
	<node id="-73404" lat="62.5394138889" lon="7.9141527866">
		<tag k="name" v="Storsteinura" />
		<tag k="natural" v="scree" />
		<tag k="ssr:stedsnr" v="97705" />
	</node>
	<node id="-75446" lat="62.5388972245" lon="7.72237500842">
		<tag k="name" v="Åkesreiten" />
		<tag k="place" v="locality" />
		<tag k="ssr:stedsnr" v="157488" />
	</node>
	<node id="-75444" lat="62.5289055517" lon="7.47557221734">
		<tag k="name" v="Fagermyra" />
		<tag k="natural" v="wetland" />
		<tag k="ssr:stedsnr" v="157482" />
	</node>
	<node id="-73391" lat="62.310394447" lon="8.11681110483">
		<tag k="landuse" v="meadow" />
		<tag k="name" v="Storløslættet" />
		<tag k="ssr:stedsnr" v="97410" />
	</node>
	<node id="-75436" lat="62.5105555534" lon="7.75967499756">
		<tag k="name" v="Trøin" />
		<tag k="place" v="locality" />
		<tag k="ssr:stedsnr" v="157395" />
	</node>
	<node id="-73384" lat="62.4921861113" lon="7.55225834119">
		<tag k="name" v="Tappa" />
		<tag k="place" v="locality" />
		<tag k="ssr:stedsnr" v="96854" />
	</node>
	<node id="-73383" lat="62.5842611139" lon="7.83676944929">
		<tag k="name" v="Ura" />
		<tag k="natural" v="scree" />
		<tag k="ssr:stedsnr" v="96475" />
	</node>
	<node id="-75420" lat="62.6323305547" lon="7.40175277878">
		<tag k="name" v="Oksesteinen" />
		<tag k="natural" v="stone" />
		<tag k="ssr:stedsnr" v="155729" />
	</node>
	<node id="-75415" lat="62.6263277735" lon="7.43551110672">
		<tag k="name" v="Limsteinen" />
		<tag k="natural" v="stone" />
		<tag k="ssr:stedsnr" v="155548" />
	</node>
	<node id="-75406" lat="62.6530555592" lon="7.51918610253">
		<tag k="name" v="Markusmyran" />
		<tag k="natural" v="wetland" />
		<tag k="ssr:stedsnr" v="154795" />
	</node>
	<node id="-75382" lat="62.7039972196" lon="7.71367499512">
		<tag k="name" v="Geiturmyra" />
		<tag k="natural" v="wetland" />
		<tag k="ssr:stedsnr" v="143574" />
	</node>
	<node id="-75380" lat="62.5171277741" lon="7.40046110397">
		<tag k="name" v="Urin" />
		<tag k="natural" v="scree" />
		<tag k="ssr:stedsnr" v="142966" />
	</node>
	<node id="-75373" lat="62.5135611148" lon="7.75924167086">
		<tag k="name" v="Urabakken" />
		<tag k="natural" v="scree" />
		<tag k="ssr:stedsnr" v="142615" />
	</node>
	<node id="-73324" lat="62.3642416634" lon="7.97256110893">
		<tag k="name" v="Gamlestølsmyra" />
		<tag k="natural" v="wetland" />
		<tag k="ssr:stedsnr" v="253039" />
	</node>
	<node id="-73318" lat="62.6874194475" lon="7.68187223017">
		<tag k="name" v="Hogstrin" />
		<tag k="place" v="locality" />
		<tag k="ssr:stedsnr" v="82927" />
	</node>
	<node id="-75360" lat="62.4961277769" lon="7.5510972216">
		<tag k="name" v="Øran" />
		<tag k="place" v="locality" />
		<tag k="ssr:stedsnr" v="141540" />
	</node>
	<node id="-73280" lat="62.5750861107" lon="7.78365833134">
		<tag k="name" v="Hensøran" />
		<tag k="place" v="locality" />
		<tag k="ssr:stedsnr" v="37502" />
	</node>
	<node id="-73278" lat="62.5646416687" lon="7.39859165949">
		<tag k="name" v="Håvardfonna" />
		<tag k="place" v="locality" />
		<tag k="ssr:stedsnr" v="36914" />
	</node>
	<node id="-73271" lat="62.4388722232" lon="7.42206388194">
		<tag k="historic" v="shieling" />
		<tag k="name" v="Gamlestøløya" />
		<tag k="place" v="locality" />
		<tag k="ssr:stedsnr" v="21944" />
	</node>
	<node id="-75317" lat="62.2064499971" lon="7.80894722514">
		<tag k="name" v="Svartsteinan" />
		<tag k="natural" v="stone" />
		<tag k="ssr:stedsnr" v="132168" />
	</node>
	<node id="-73268" lat="62.561927778" lon="7.82559444663">
		<tag k="name" v="Øvre Steinsetra" />
		<tag k="place" v="locality" />
		<tag k="ssr:stedsnr" v="21636" />
	</node>
	<node id="-73263" lat="62.6600083344" lon="7.6161194483">
		<tag k="name" v="Slemmemyrane" />
		<tag k="natural" v="wetland" />
		<tag k="ssr:stedsnr" v="12638" />
	</node>
	<node id="-75291" lat="62.4258138913" lon="7.98631388745">
		<tag k="name" v="Fekjalykkja" />
		<tag k="place" v="locality" />
		<tag k="ssr:stedsnr" v="97835" />
	</node>
	<node id="-73223" lat="62.5831583376" lon="7.89491110631">
		<tag k="name" v="Ryggteighamran" />
		<tag k="natural" v="scree" />
		<tag k="ssr:stedsnr" v="219588" />
	</node>
	<node id="-75268" lat="62.5038277778" lon="7.67250555119">
		<tag k="name" v="Deplemyra" />
		<tag k="natural" v="wetland" />
		<tag k="ssr:stedsnr" v="97094" />
	</node>
	<node id="-75265" lat="62.5145138871" lon="7.8831194475">
		<tag k="name" v="Rognin" />
		<tag k="natural" v="stone" />
		<tag k="ssr:stedsnr" v="96849" />
	</node>
	<node id="-75264" lat="62.5109638855" lon="7.88189721708">
		<tag k="name" v="Storsalen" />
		<tag k="natural" v="stone" />
		<tag k="ssr:stedsnr" v="96847" />
	</node>
	<node id="-73214" lat="62.4881055597" lon="7.56199166918">
		<tag k="name" v="Bjørsteinen" />
		<tag k="natural" v="stone" />
		<tag k="ssr:stedsnr" v="218886" />
	</node>
	<node id="-75261" lat="62.520647226" lon="7.88526667375">
		<tag k="name" v="Flaturhellaren" />
		<tag k="natural" v="scree" />
		<tag k="ssr:stedsnr" v="96836" />
	</node>
	<node id="-73212" lat="62.4878027816" lon="7.55598888485">
		<tag k="name" v="Dalan" />
		<tag k="natural" v="wetland" />
		<tag k="ssr:stedsnr" v="218874" />
	</node>
	<node id="-75249" lat="62.5298305587" lon="7.48127500613">
		<tag k="name" v="Tumyra" />
		<tag k="natural" v="wetland" />
		<tag k="ssr:stedsnr" v="96528" />
	</node>
	<node id="-75245" lat="62.5720361112" lon="7.86142499248">
		<tag k="name" v="Langmyra" />
		<tag k="natural" v="wetland" />
		<tag k="ssr:stedsnr" v="96436" />
	</node>
	<node id="-75236" lat="62.6151972247" lon="7.40528333474">
		<tag k="name" v="Kofferten" />
		<tag k="natural" v="stone" />
		<tag k="ssr:stedsnr" v="94686" />
	</node>
	<node id="-73186" lat="62.5081833373" lon="7.66630834076">
		<tag k="name" v="Lille Røshagen" />
		<tag k="place" v="locality" />
		<tag k="ssr:stedsnr" v="218098" />
	</node>
	<node id="-75227" lat="62.6226333305" lon="7.53617222008">
		<tag k="name" v="Depplan" />
		<tag k="place" v="locality" />
		<tag k="ssr:stedsnr" v="94611" />
	</node>
	<node id="-75223" lat="62.5705222179" lon="7.59593888044">
		<tag k="name" v="Reiten" />
		<tag k="place" v="locality" />
		<tag k="ssr:stedsnr" v="94131" />
	</node>
	<node id="-75220" lat="62.6632027794" lon="7.70174722871">
		<tag k="name" v="Djupmyra" />
>>>>>>> e1d4bc35ff8a6074a6f2e91616a996b547c36f15
		<tag k="natural" v="wetland" />
		<tag k="ssr:stedsnr" v="93971" />
	</node>
<<<<<<< HEAD
	<node lat="62.41224721810153" lon="7.409536114895648" id="-5706">
		<tag k="name" v="Grønfonnmyran" />
		<tag k="natural" v="wetland" />
		<tag k="ssr:stedsnr" v="582192" />
	</node>
	<node lat="62.56375555195063" lon="7.5585305493973385" id="-5755">
		<tag k="name" v="Stormyra" />
		<tag k="natural" v="wetland" />
		<tag k="ssr:stedsnr" v="618235" />
	</node>
	<node lat="62.53918333299782" lon="7.899408326924526" id="-5780">
		<tag k="name" v="Nøsasteinen" />
		<tag k="natural" v="stone" />
		<tag k="ssr:stedsnr" v="703695" />
	</node>
	<node lat="62.51601944628948" lon="7.691297222903014" id="-5787">
		<tag k="name" v="Kvernamyra" />
		<tag k="natural" v="wetland" />
		<tag k="ssr:stedsnr" v="704024" />
	</node>
	<node lat="62.562480552103494" lon="7.546819442132158" id="-5789">
		<tag k="name" v="Liamyra" />
		<tag k="natural" v="wetland" />
		<tag k="ssr:stedsnr" v="704153" />
	</node>
	<node lat="62.46964444153878" lon="7.519952775517809" id="-5813">
		<tag k="name" v="Mekjå" />
=======
	<node id="-75219" lat="62.6536055593" lon="7.70216389238">
		<tag k="name" v="Åkrokan" />
		<tag k="natural" v="wetland" />
		<tag k="ssr:stedsnr" v="93968" />
	</node>
	<node id="-75198" lat="62.6722277785" lon="7.62499444171">
		<tag k="name" v="Mimarteigen" />
		<tag k="place" v="locality" />
		<tag k="ssr:stedsnr" v="81583" />
	</node>
	<node id="-75167" lat="62.5166666667" lon="7.6717222128">
		<tag k="name" v="Stormyra" />
		<tag k="natural" v="wetland" />
		<tag k="ssr:stedsnr" v="72360" />
	</node>
	<node id="-75162" lat="62.5652750011" lon="7.86273611824">
		<tag k="name" v="Litlegjerdet" />
		<tag k="place" v="locality" />
		<tag k="ssr:stedsnr" v="72180" />
	</node>
	<node id="-75141" lat="62.2868527784" lon="8.11357500837">
		<tag k="name" v="Hellarmyra" />
		<tag k="natural" v="wetland" />
		<tag k="ssr:stedsnr" v="71259" />
	</node>
	<node id="-75133" lat="62.5728166705" lon="7.79856388599">
		<tag k="name" v="Hensengan" />
		<tag k="place" v="locality" />
		<tag k="ssr:stedsnr" v="37440" />
	</node>
	<node id="-75129" lat="62.4974333294" lon="7.58575556101">
		<tag k="name" v="Stormyra" />
		<tag k="natural" v="wetland" />
		<tag k="ssr:stedsnr" v="36945" />
	</node>
	<node id="-75126" lat="62.5137222249" lon="7.42742499599">
		<tag k="name" v="Kvisselsteinan" />
		<tag k="natural" v="stone" />
		<tag k="ssr:stedsnr" v="36789" />
	</node>
	<node id="-75121" lat="62.5394972253" lon="7.83470278136">
		<tag k="name" v="Storskogen" />
>>>>>>> e1d4bc35ff8a6074a6f2e91616a996b547c36f15
		<tag k="place" v="locality" />
		<tag k="ssr:stedsnr" v="36735" />
	</node>
<<<<<<< HEAD
	<node lat="62.67250555631181" lon="7.618525000068517" id="-5820">
		<tag k="name" v="Hjellmyran" />
		<tag k="natural" v="wetland" />
		<tag k="ssr:stedsnr" v="639722" />
	</node>
	<node lat="62.5402694413978" lon="7.516883336943563" id="-5827">
		<tag k="name" v="Geilhola" />
		<tag k="natural" v="stone" />
		<tag k="ssr:stedsnr" v="642206" />
	</node>
	<node lat="62.51185833163804" lon="7.761861104934012" id="-5835">
		<tag k="name" v="Storåkeren" />
		<tag k="place" v="locality" />
		<tag k="ssr:stedsnr" v="642431" />
	</node>
	<node lat="62.49779166421924" lon="7.622066668114915" id="-5846">
		<tag k="name" v="Kistesteinen" />
		<tag k="natural" v="stone" />
		<tag k="ssr:stedsnr" v="642696" />
	</node>
	<node lat="62.583250000180634" lon="7.749380549117797" id="-5904">
		<tag k="name" v="Øya" />
		<tag k="place" v="locality" />
		<tag k="ssr:stedsnr" v="689978" />
	</node>
	<node lat="62.65502499997297" lon="7.6298222245389" id="-5914">
		<tag k="name" v="Ølsnøssteinen" />
		<tag k="natural" v="stone" />
		<tag k="ssr:stedsnr" v="700714" />
	</node>
	<node lat="62.65265278151556" lon="7.532597215378621" id="-5915">
		<tag k="name" v="Ressteinen" />
		<tag k="natural" v="stone" />
		<tag k="ssr:stedsnr" v="700764" />
	</node>
	<node lat="62.693555559939796" lon="7.628269443123494" id="-5918">
		<tag k="name" v="Preststeinen" />
		<tag k="natural" v="stone" />
		<tag k="ssr:stedsnr" v="701215" />
	</node>
	<node lat="62.60890277755852" lon="7.547355555668605" id="-5922">
		<tag k="name" v="Bøgarden" />
		<tag k="place" v="locality" />
		<tag k="ssr:stedsnr" v="701626" />
	</node>
	<node lat="62.63151388826671" lon="7.39926666461938" id="-5923">
		<tag k="name" v="Kvarvesteinen" />
		<tag k="natural" v="stone" />
		<tag k="ssr:stedsnr" v="701772" />
	</node>
	<node lat="62.503136112331966" lon="7.346236120455814" id="-5932">
		<tag k="name" v="Langmyran" />
		<tag k="natural" v="wetland" />
		<tag k="ssr:stedsnr" v="703464" />
	</node>
	<node lat="62.535216663644775" lon="7.902272221379805" id="-5935">
		<tag k="name" v="Svartedalen" />
		<tag k="natural" v="wetland" />
		<tag k="ssr:stedsnr" v="703808" />
	</node>
	<node lat="62.50887778204171" lon="7.87783888623788" id="-5936">
		<tag k="name" v="Storstauå" />
		<tag k="natural" v="stone" />
		<tag k="ssr:stedsnr" v="703866" />
	</node>
	<node lat="62.57442778198345" lon="7.80643054858214" id="-5941">
		<tag k="name" v="Hensengan" />
		<tag k="place" v="locality" />
		<tag k="ssr:stedsnr" v="704378" />
	</node>
	<node lat="62.483436112322934" lon="7.580972214265488" id="-5994">
		<tag k="name" v="Skråura" />
		<tag k="natural" v="scree" />
		<tag k="ssr:stedsnr" v="748522" />
	</node>
	<node lat="62.505330553868994" lon="7.768772220435271" id="-5998">
		<tag k="name" v="Øvre Rønningan" />
		<tag k="place" v="locality" />
		<tag k="ssr:stedsnr" v="749625" />
	</node>
	<node lat="62.5854361155167" lon="7.812461101570723" id="-6003">
		<tag k="name" v="Hatlemyra" />
		<tag k="natural" v="wetland" />
		<tag k="ssr:stedsnr" v="749576" />
	</node>
	<node lat="62.608422226264885" lon="7.531574990825971" id="-6004">
		<tag k="name" v="Loftura" />
		<tag k="natural" v="scree" />
		<tag k="ssr:stedsnr" v="749582" />
	</node>
	<node lat="62.6104916665625" lon="7.553600004779687" id="-6027">
		<tag k="name" v="Øverbøen" />
		<tag k="place" v="locality" />
		<tag k="ssr:stedsnr" v="762542" />
	</node>
	<node lat="62.58533333096163" lon="7.552205550879835" id="-6030">
		<tag k="name" v="Vedmyra" />
		<tag k="natural" v="wetland" />
		<tag k="ssr:stedsnr" v="762752" />
	</node>
	<node lat="62.52664999899678" lon="7.529924996878196" id="-6034">
		<tag k="name" v="Purkesteinen" />
		<tag k="natural" v="stone" />
		<tag k="ssr:stedsnr" v="764191" />
	</node>
	<node lat="62.44942499795938" lon="7.506594444760921" id="-6036">
		<tag k="name" v="Slettegeilen" />
		<tag k="place" v="locality" />
		<tag k="ssr:stedsnr" v="764216" />
	</node>
	<node lat="62.568933334645706" lon="7.600644453635732" id="-6037">
		<tag k="name" v="Nygjerdet" />
		<tag k="place" v="locality" />
		<tag k="ssr:stedsnr" v="764248" />
	</node>
	<node lat="62.512927777409104" lon="7.375925005891498" id="-6045">
		<tag k="name" v="Bøen" />
		<tag k="place" v="locality" />
		<tag k="ssr:stedsnr" v="764452" />
	</node>
	<node lat="62.5844611107121" lon="7.957605553253202" id="-6057">
		<tag k="name" v="Storgjerdet" />
		<tag k="place" v="locality" />
		<tag k="ssr:stedsnr" v="765595" />
	</node>
	<node lat="62.68362499827325" lon="7.747830557323102" id="-6086">
		<tag k="name" v="Gråura" />
		<tag k="natural" v="scree" />
		<tag k="ssr:stedsnr" v="801290" />
	</node>
	<node lat="62.539683330353704" lon="7.425655556347299" id="-6096">
		<tag k="name" v="Gråura" />
		<tag k="natural" v="scree" />
		<tag k="ssr:stedsnr" v="809966" />
	</node>
	<node lat="62.69088610970794" lon="7.639000003580797" id="-6099">
		<tag k="name" v="Skomsura" />
		<tag k="natural" v="scree" />
		<tag k="ssr:stedsnr" v="810932" />
	</node>
	<node lat="62.48430555432233" lon="7.53558334087974" id="-6101">
		<tag k="name" v="Urin" />
		<tag k="natural" v="scree" />
		<tag k="ssr:stedsnr" v="810994" />
	</node>
	<node lat="62.471630558947275" lon="7.534608335310409" id="-6102">
		<tag k="name" v="Haugsetra" />
		<tag k="place" v="locality" />
		<tag k="ssr:stedsnr" v="810998" />
	</node>
	<node lat="62.613886110245005" lon="7.5015749923830874" id="-6124">
		<tag k="name" v="Stormyra" />
		<tag k="natural" v="wetland" />
		<tag k="ssr:stedsnr" v="822615" />
	</node>
	<node lat="62.50722221906028" lon="7.672891664522033" id="-6144">
		<tag k="name" v="Røshagmyra" />
		<tag k="natural" v="wetland" />
		<tag k="ssr:stedsnr" v="825063" />
	</node>
	<node lat="62.51619166655314" lon="7.658658342992814" id="-6145">
		<tag k="name" v="Kalesjurda" />
		<tag k="natural" v="scree" />
		<tag k="ssr:stedsnr" v="825066" />
	</node>
	<node lat="62.54102778018843" lon="7.596083331635763" id="-6147">
		<tag k="name" v="Svartholet" />
		<tag k="natural" v="stone" />
		<tag k="ssr:stedsnr" v="825094" />
	</node>
	<node lat="62.53544444135679" lon="7.696963898472891" id="-6157">
		<tag k="name" v="Flatmelan" />
		<tag k="place" v="locality" />
		<tag k="ssr:stedsnr" v="825678" />
	</node>
	<node lat="62.56606944539954" lon="7.854627769071296" id="-6164">
		<tag k="name" v="Stormyra" />
		<tag k="natural" v="wetland" />
		<tag k="ssr:stedsnr" v="825720" />
	</node>
	<node lat="62.46131944454668" lon="7.810711106306002" id="-6173">
		<tag k="name" v="Sælsbrua" />
		<tag k="place" v="locality" />
		<tag k="ssr:stedsnr" v="825968" />
	</node>
	<node lat="62.576783336139876" lon="7.551066663147663" id="-6185">
		<tag k="name" v="Gråura" />
		<tag k="natural" v="scree" />
		<tag k="ssr:stedsnr" v="922502" />
	</node>
	<node lat="62.516816663773795" lon="7.75715555978017" id="-6234">
		<tag k="name" v="Gamlefiva" />
		<tag k="place" v="locality" />
		<tag k="ssr:stedsnr" v="871610" />
	</node>
	<node lat="62.58448333312284" lon="7.721216674333731" id="-6235">
		<tag k="name" v="Innloga" />
		<tag k="place" v="locality" />
		<tag k="ssr:stedsnr" v="871931" />
	</node>
	<node lat="62.45152777368569" lon="7.508663897536964" id="-6257">
		<tag k="name" v="Storgeilen" />
		<tag k="place" v="locality" />
		<tag k="ssr:stedsnr" v="885254" />
	</node>
	<node lat="62.525019443097996" lon="7.383808336933473" id="-6258">
		<tag k="name" v="Fonna" />
		<tag k="place" v="locality" />
		<tag k="ssr:stedsnr" v="885548" />
	</node>
	<node lat="62.56058610664824" lon="7.851519439444409" id="-6259">
		<tag k="name" v="Trongmyra" />
		<tag k="natural" v="wetland" />
		<tag k="ssr:stedsnr" v="885705" />
	</node>
	<node lat="62.5138555528971" lon="7.295499995733557" id="-6261">
		<tag k="name" v="Dettalmyran" />
		<tag k="natural" v="wetland" />
		<tag k="ssr:stedsnr" v="886367" />
	</node>
	<node lat="62.569130558229794" lon="7.8227166748288335" id="-6262">
		<tag k="name" v="Storteigen" />
		<tag k="place" v="locality" />
		<tag k="ssr:stedsnr" v="886403" />
	</node>
	<node lat="62.37429444324888" lon="8.039755549563726" id="-6278">
		<tag k="name" v="Simonteigen" />
		<tag k="place" v="locality" />
		<tag k="ssr:stedsnr" v="887363" />
	</node>
	<node lat="62.329774996463314" lon="8.191936104113491" id="-6284">
		<tag k="name" v="Raudmyra" />
		<tag k="natural" v="wetland" />
		<tag k="ssr:stedsnr" v="921234" />
	</node>
	<node lat="62.57041666621754" lon="7.50980832762399" id="-6307">
		<tag k="name" v="Stormyra" />
		<tag k="natural" v="wetland" />
		<tag k="ssr:stedsnr" v="922504" />
	</node>
	<node lat="62.58534444508743" lon="7.578419438057665" id="-6320">
		<tag k="name" v="Ljøsrøstan" />
		<tag k="place" v="locality" />
		<tag k="ssr:stedsnr" v="931601" />
	</node>
	<node lat="62.454436107745174" lon="7.506752782405309" id="-6322">
		<tag k="landuse" v="meadow" />
		<tag k="name" v="Keila" />
		<tag k="ssr:stedsnr" v="932951" />
	</node>
	<node lat="62.45354722555068" lon="7.487349999451745" id="-6344">
		<tag k="name" v="Storfonna" />
		<tag k="place" v="locality" />
		<tag k="ssr:stedsnr" v="946190" />
	</node>
	<node lat="62.443833331714565" lon="7.464727769942328" id="-6346">
		<tag k="name" v="Kvitfonnin" />
		<tag k="place" v="locality" />
		<tag k="ssr:stedsnr" v="946195" />
	</node>
	<node lat="62.57784167018358" lon="7.83817221275654" id="-6352">
		<tag k="landuse" v="meadow" />
		<tag k="name" v="Tynnenga" />
		<tag k="ssr:stedsnr" v="946429" />
	</node>
	<node lat="62.5819083298237" lon="7.836402773647455" id="-6353">
		<tag k="name" v="Geilen" />
		<tag k="place" v="locality" />
		<tag k="ssr:stedsnr" v="946437" />
	</node>
	<node lat="62.58384167108366" lon="7.662969436119703" id="-6373">
		<tag k="name" v="Haugmyra" />
		<tag k="natural" v="wetland" />
		<tag k="ssr:stedsnr" v="947599" />
	</node>
	<node lat="62.56189166647788" lon="7.708636120065735" id="-6374">
		<tag k="name" v="Andersmyra" />
		<tag k="natural" v="wetland" />
		<tag k="ssr:stedsnr" v="947707" />
	</node>
	<node lat="62.458244444903166" lon="7.8058944429108195" id="-6405">
		<tag k="name" v="Styggemyra" />
		<tag k="natural" v="wetland" />
		<tag k="ssr:stedsnr" v="11075" />
	</node>
	<node lat="62.536661108901804" lon="7.988319446377451" id="-6421">
		<tag k="name" v="Storbreen" />
		<tag k="natural" v="glacier" />
		<tag k="ssr:stedsnr" v="12267" />
	</node>
	<node lat="62.46869112109963" lon="7.521162233584155" id="-6440">
		<tag k="historic" v="shieling" />
		<tag k="name" v="Vårsetra" />
		<tag k="place" v="locality" />
		<tag k="ssr:stedsnr" v="11890" />
	</node>
	<node lat="62.660008334441166" lon="7.616119448303645" id="-6449">
		<tag k="name" v="Slemmemyrane" />
		<tag k="natural" v="wetland" />
		<tag k="ssr:stedsnr" v="12638" />
	</node>
	<node lat="62.439158334989045" lon="7.421102776303852" id="-6454">
		<tag k="historic" v="shieling" />
		<tag k="name" v="Gamlestølen" />
		<tag k="place" v="locality" />
		<tag k="ssr:stedsnr" v="21317" />
	</node>
	<node lat="62.588505558846805" lon="7.468722213002422" id="-6455">
		<tag k="name" v="Tuftin" />
		<tag k="place" v="locality" />
		<tag k="ssr:stedsnr" v="20981" />
	</node>
	<node lat="62.59663055935902" lon="7.46362221420452" id="-6457">
		<tag k="name" v="Urin" />
		<tag k="natural" v="scree" />
		<tag k="ssr:stedsnr" v="20983" />
	</node>
	<node lat="62.597816664642984" lon="7.816836116432116" id="-6460">
		<tag k="name" v="Gråura" />
		<tag k="natural" v="scree" />
		<tag k="ssr:stedsnr" v="22584" />
	</node>
	<node lat="62.56192777801575" lon="7.825594446626684" id="-6461">
		<tag k="name" v="Øvre Steinsetra" />
		<tag k="place" v="locality" />
		<tag k="ssr:stedsnr" v="21636" />
	</node>
	<node lat="62.65843333613993" lon="7.538672222364268" id="-6472">
		<tag k="name" v="Litllømyra" />
		<tag k="natural" v="wetland" />
		<tag k="ssr:stedsnr" v="33486" />
	</node>
	<node lat="62.63479722129154" lon="7.49539443609498" id="-6478">
		<tag k="name" v="Hunden" />
		<tag k="natural" v="stone" />
		<tag k="ssr:stedsnr" v="34321" />
	</node>
	<node lat="62.588086115427686" lon="7.524005562813683" id="-6484">
		<tag k="name" v="Harpesteinen" />
		<tag k="natural" v="stone" />
		<tag k="ssr:stedsnr" v="34972" />
	</node>
	<node lat="62.51611389321428" lon="7.88439166748473" id="-6491">
		<tag k="name" v="Søstrin" />
		<tag k="natural" v="stone" />
		<tag k="ssr:stedsnr" v="35874" />
	</node>
	<node lat="62.517074996810706" lon="7.884222217063894" id="-6493">
		<tag k="name" v="Litleloftet" />
		<tag k="natural" v="stone" />
		<tag k="ssr:stedsnr" v="35855" />
	</node>
	<node lat="62.58892777365486" lon="7.770900007777849" id="-6501">
		<tag k="name" v="Markamyra" />
		<tag k="natural" v="wetland" />
		<tag k="ssr:stedsnr" v="36690" />
	</node>
	<node lat="62.513722224948765" lon="7.4274249959932455" id="-6502">
		<tag k="name" v="Kvisselsteinan" />
		<tag k="natural" v="stone" />
		<tag k="ssr:stedsnr" v="36789" />
	</node>
	<node lat="62.539497225288244" lon="7.834702781364297" id="-6511">
		<tag k="name" v="Storskogen" />
		<tag k="place" v="locality" />
		<tag k="ssr:stedsnr" v="36735" />
	</node>
	<node lat="62.57281667047682" lon="7.798563885986913" id="-6517">
		<tag k="name" v="Hensengan" />
		<tag k="place" v="locality" />
		<tag k="ssr:stedsnr" v="37440" />
	</node>
	<node lat="62.49743332943068" lon="7.585755561009959" id="-6518">
		<tag k="name" v="Stormyra" />
		<tag k="natural" v="wetland" />
		<tag k="ssr:stedsnr" v="36945" />
	</node>
	<node lat="62.286852778442515" lon="8.11357500836691" id="-6530">
		<tag k="name" v="Hellarmyra" />
		<tag k="natural" v="wetland" />
		<tag k="ssr:stedsnr" v="71259" />
	</node>
	<node lat="62.516666666742694" lon="7.67172221279875" id="-6551">
		<tag k="name" v="Stormyra" />
		<tag k="natural" v="wetland" />
		<tag k="ssr:stedsnr" v="72360" />
	</node>
	<node lat="62.570522217902756" lon="7.595938880444544" id="-6597">
		<tag k="name" v="Reiten" />
		<tag k="place" v="locality" />
		<tag k="ssr:stedsnr" v="94131" />
	</node>
	<node lat="62.615197224740555" lon="7.405283334744968" id="-6606">
		<tag k="name" v="Kofferten" />
		<tag k="natural" v="stone" />
		<tag k="ssr:stedsnr" v="94686" />
	</node>
	<node lat="62.53941388888671" lon="7.914152786600635" id="-6615">
		<tag k="name" v="Storsteinura" />
		<tag k="natural" v="scree" />
		<tag k="ssr:stedsnr" v="97705" />
	</node>
	<node lat="62.572036111194784" lon="7.861424992483467" id="-6618">
		<tag k="name" v="Langmyra" />
		<tag k="natural" v="wetland" />
		<tag k="ssr:stedsnr" v="96436" />
	</node>
	<node lat="62.52983055873538" lon="7.481275006126507" id="-6623">
		<tag k="name" v="Tumyra" />
		<tag k="natural" v="wetland" />
		<tag k="ssr:stedsnr" v="96528" />
	</node>
	<node lat="62.5147527752563" lon="7.770983326381283" id="-6628">
		<tag k="name" v="Kallegarden" />
		<tag k="place" v="locality" />
		<tag k="ssr:stedsnr" v="96751" />
	</node>
	<node lat="62.52064722603438" lon="7.885266673754981" id="-6631">
		<tag k="name" v="Flaturhellaren" />
		<tag k="natural" v="scree" />
		<tag k="ssr:stedsnr" v="96836" />
	</node>
	<node lat="62.51096388547802" lon="7.88189721707735" id="-6634">
		<tag k="name" v="Storsalen" />
		<tag k="natural" v="stone" />
		<tag k="ssr:stedsnr" v="96847" />
	</node>
	<node lat="62.514513887089066" lon="7.883119447496256" id="-6635">
		<tag k="name" v="Rognin" />
		<tag k="natural" v="stone" />
		<tag k="ssr:stedsnr" v="96849" />
	</node>
	<node lat="62.49218611130929" lon="7.552258341185071" id="-6637">
		<tag k="name" v="Tappa" />
		<tag k="place" v="locality" />
		<tag k="ssr:stedsnr" v="96854" />
	</node>
	<node lat="62.50382777784065" lon="7.672505551186902" id="-6641">
		<tag k="name" v="Deplemyra" />
		<tag k="natural" v="wetland" />
		<tag k="ssr:stedsnr" v="97094" />
	</node>
	<node lat="62.42581389129196" lon="7.986313887450882" id="-6654">
		<tag k="name" v="Fekjalykkja" />
		<tag k="place" v="locality" />
		<tag k="ssr:stedsnr" v="97835" />
	</node>
	<node lat="62.51356111475643" lon="7.759241670856359" id="-6716">
		<tag k="name" v="Urabakken" />
		<tag k="natural" v="scree" />
		<tag k="ssr:stedsnr" v="142615" />
	</node>
	<node lat="62.521205557162915" lon="7.670263887991485" id="-6718">
		<tag k="name" v="Orfonna" />
		<tag k="place" v="locality" />
		<tag k="ssr:stedsnr" v="142654" />
	</node>
	<node lat="62.517127774057094" lon="7.400461103973512" id="-6722">
		<tag k="name" v="Urin" />
		<tag k="natural" v="scree" />
		<tag k="ssr:stedsnr" v="142966" />
	</node>
	<node lat="62.70399721957813" lon="7.7136749951229975" id="-6723">
		<tag k="name" v="Geiturmyra" />
		<tag k="natural" v="wetland" />
		<tag k="ssr:stedsnr" v="143574" />
	</node>
	<node lat="62.653055559238176" lon="7.519186102526697" id="-6739">
		<tag k="name" v="Markusmyran" />
		<tag k="natural" v="wetland" />
		<tag k="ssr:stedsnr" v="154795" />
	</node>
	<node lat="62.6263277735288" lon="7.435511106721918" id="-6749">
		<tag k="name" v="Limsteinen" />
		<tag k="natural" v="stone" />
		<tag k="ssr:stedsnr" v="155548" />
	</node>
	<node lat="62.63233055472586" lon="7.401752778782987" id="-6753">
		<tag k="name" v="Oksesteinen" />
		<tag k="natural" v="stone" />
		<tag k="ssr:stedsnr" v="155729" />
	</node>
	<node lat="62.52890555165171" lon="7.475572217342227" id="-6755">
		<tag k="name" v="Fagermyra" />
		<tag k="natural" v="wetland" />
		<tag k="ssr:stedsnr" v="157482" />
	</node>
	<node lat="62.51055555342904" lon="7.759674997559887" id="-6775">
		<tag k="name" v="Trøin" />
		<tag k="place" v="locality" />
		<tag k="ssr:stedsnr" v="157395" />
	</node>
	<node lat="62.5336444434276" lon="7.688380552584596" id="-6782">
		<tag k="landuse" v="meadow" />
		<tag k="name" v="Haubølan" />
		<tag k="ssr:stedsnr" v="157678" />
	</node>
	<node lat="62.418080555527766" lon="7.999694449448879" id="-6801">
		<tag k="name" v="Fonnimellom" />
		<tag k="natural" v="scree" />
		<tag k="ssr:stedsnr" v="158873" />
	</node>
	<node lat="62.41965555505918" lon="8.004008342058224" id="-6802">
		<tag k="name" v="Styggefonnura" />
		<tag k="natural" v="scree" />
		<tag k="ssr:stedsnr" v="158874" />
	</node>
	<node lat="62.49244001734776" lon="7.715022379320314" id="-6867">
		<tag k="name" v="Adelsbreen" />
		<tag k="natural" v="glacier" />
		<tag k="ssr:stedsnr" v="194827" />
	</node>
	<node lat="62.62106666991476" lon="7.580505561609675" id="-6869">
		<tag k="name" v="Gråura" />
		<tag k="natural" v="scree" />
		<tag k="ssr:stedsnr" v="203576" />
	</node>
	<node lat="62.494141667208915" lon="7.544441665541686" id="-6872">
		<tag k="name" v="Kringla" />
		<tag k="place" v="locality" />
		<tag k="ssr:stedsnr" v="203528" />
	</node>
	<node lat="62.691138886518644" lon="7.654755556801341" id="-6875">
		<tag k="historic" v="shieling" />
		<tag k="name" v="Morkastrandsetra" />
		<tag k="place" v="locality" />
		<tag k="ssr:stedsnr" v="203940" />
	</node>
	<node lat="62.460347219459955" lon="7.8076861022500195" id="-6878">
		<tag k="name" v="Nørdre Selen" />
		<tag k="place" v="locality" />
		<tag k="ssr:stedsnr" v="204527" />
	</node>
	<node lat="62.52081389206526" lon="7.393952767953859" id="-6880">
		<tag k="name" v="Øya" />
		<tag k="place" v="locality" />
		<tag k="ssr:stedsnr" v="204960" />
	</node>
	<node lat="62.51488332984935" lon="7.400224994189731" id="-6881">
		<tag k="name" v="Gråura" />
		<tag k="natural" v="scree" />
		<tag k="ssr:stedsnr" v="204964" />
	</node>
	<node lat="62.6786416623424" lon="7.627988897587755" id="-6886">
		<tag k="name" v="Etarsteinen" />
		<tag k="natural" v="stone" />
		<tag k="ssr:stedsnr" v="215789" />
	</node>
	<node lat="62.57036666405541" lon="7.576763883893291" id="-6892">
		<tag k="name" v="Sletteidet" />
		<tag k="natural" v="wetland" />
		<tag k="ssr:stedsnr" v="216441" />
	</node>
	<node lat="62.50818333727114" lon="7.666308340759809" id="-6906">
		<tag k="name" v="Lille Røshagen" />
		<tag k="place" v="locality" />
		<tag k="ssr:stedsnr" v="218098" />
	</node>
	<node lat="62.51834722055903" lon="7.3745194383431425" id="-6915">
		<tag k="name" v="Deplan" />
		<tag k="natural" v="wetland" />
		<tag k="ssr:stedsnr" v="218447" />
	</node>
	<node lat="62.59614444025796" lon="7.826502781782297" id="-6920">
		<tag k="name" v="Mjeltåmyra" />
		<tag k="natural" v="wetland" />
		<tag k="ssr:stedsnr" v="218419" />
	</node>
	<node lat="62.55823611556538" lon="7.847088895243767" id="-6929">
		<tag k="name" v="Ølsteinen" />
		<tag k="natural" v="stone" />
		<tag k="ssr:stedsnr" v="218718" />
	</node>
	<node lat="62.67609722610653" lon="7.722411109854641" id="-6953">
		<tag k="name" v="Sagøya" />
		<tag k="natural" v="wetland" />
		<tag k="ssr:stedsnr" v="275435" />
	</node>
	<node lat="62.61679444482316" lon="7.548086109104838" id="-6962">
		<tag k="name" v="Litleteigen" />
		<tag k="place" v="locality" />
		<tag k="ssr:stedsnr" v="276644" />
	</node>
	<node lat="62.62967222485862" lon="7.4698999995565085" id="-6967">
		<tag k="name" v="Nautmyra" />
		<tag k="natural" v="wetland" />
		<tag k="ssr:stedsnr" v="277381" />
	</node>
	<node lat="62.5816972196844" lon="7.9107527787565814" id="-6972">
		<tag k="name" v="Veslegjerdet" />
		<tag k="place" v="locality" />
		<tag k="ssr:stedsnr" v="280593" />
	</node>
	<node lat="62.5088083368239" lon="7.888805548680487" id="-6976">
		<tag k="name" v="Skredå" />
		<tag k="natural" v="scree" />
		<tag k="ssr:stedsnr" v="278868" />
	</node>
	<node lat="62.489458332234484" lon="7.570761114513033" id="-6978">
		<tag k="name" v="Øverbømyran" />
		<tag k="natural" v="wetland" />
		<tag k="ssr:stedsnr" v="278883" />
	</node>
	<node lat="62.505638889221366" lon="7.6651083309663965" id="-6985">
		<tag k="name" v="Stormyra" />
		<tag k="natural" v="wetland" />
		<tag k="ssr:stedsnr" v="279092" />
	</node>
	<node lat="62.533691664439075" lon="7.519661107874213" id="-6992">
		<tag k="name" v="Orhola" />
=======
	<node id="-75117" lat="62.5889277737" lon="7.77090000778">
		<tag k="name" v="Markamyra" />
		<tag k="natural" v="wetland" />
		<tag k="ssr:stedsnr" v="36690" />
	</node>
	<node id="-75116" lat="62.4978583369" lon="7.62132778373">
		<tag k="name" v="Fantesteinen" />
		<tag k="natural" v="stone" />
		<tag k="ssr:stedsnr" v="36678" />
	</node>
	<node id="-75097" lat="62.5226249991" lon="7.75782777829">
		<tag k="name" v="Langåkeren" />
		<tag k="place" v="locality" />
		<tag k="ssr:stedsnr" v="36410" />
	</node>
	<node id="-75079" lat="62.5161138932" lon="7.88439166748">
		<tag k="name" v="Søstrin" />
		<tag k="natural" v="stone" />
		<tag k="ssr:stedsnr" v="35874" />
	</node>
	<node id="-75077" lat="62.5170749968" lon="7.88422221706">
		<tag k="name" v="Litleloftet" />
		<tag k="natural" v="stone" />
		<tag k="ssr:stedsnr" v="35855" />
	</node>
	<node id="-75074" lat="62.5880861154" lon="7.52400556281">
		<tag k="name" v="Harpesteinen" />
		<tag k="natural" v="stone" />
		<tag k="ssr:stedsnr" v="34972" />
	</node>
	<node id="-75070" lat="62.6377416644" lon="7.45270832649">
		<tag k="name" v="Byttesteinen" />
		<tag k="natural" v="stone" />
		<tag k="ssr:stedsnr" v="34373" />
	</node>
	<node id="-75067" lat="62.6347972213" lon="7.49539443609">
		<tag k="name" v="Hunden" />
		<tag k="natural" v="stone" />
		<tag k="ssr:stedsnr" v="34321" />
	</node>
	<node id="-75060" lat="62.6216861096" lon="7.53816665865">
		<tag k="name" v="Brettingen" />
		<tag k="place" v="locality" />
		<tag k="ssr:stedsnr" v="33665" />
	</node>
	<node id="-75058" lat="62.6207777761" lon="7.47118889498">
		<tag k="name" v="Gjerdan" />
		<tag k="natural" v="wetland" />
		<tag k="ssr:stedsnr" v="33623" />
	</node>
	<node id="-75057" lat="62.6207777761" lon="7.47118889498">
		<tag k="name" v="Naglet" />
		<tag k="natural" v="wetland" />
		<tag k="ssr:stedsnr" v="33620" />
	</node>
	<node id="-75056" lat="62.6584333361" lon="7.53867222236">
		<tag k="name" v="Litllømyra" />
		<tag k="natural" v="wetland" />
		<tag k="ssr:stedsnr" v="33486" />
	</node>
	<node id="-75046" lat="62.6818944471" lon="7.71482222948">
		<tag k="name" v="Daleøyan" />
		<tag k="natural" v="wetland" />
		<tag k="ssr:stedsnr" v="32403" />
	</node>
	<node id="-75037" lat="62.5978166646" lon="7.81683611643">
		<tag k="name" v="Gråura" />
		<tag k="natural" v="scree" />
		<tag k="ssr:stedsnr" v="22584" />
	</node>
	<node id="-75036" lat="62.4733305584" lon="7.53818611644">
		<tag k="name" v="Fagerøya" />
		<tag k="place" v="locality" />
		<tag k="ssr:stedsnr" v="21999" />
	</node>
	<node id="-75032" lat="62.582138888" lon="7.76730556507">
		<tag k="name" v="Toklemyran" />
		<tag k="natural" v="wetland" />
		<tag k="ssr:stedsnr" v="21588" />
	</node>
	<node id="-75031" lat="62.4664805541" lon="7.82448889092">
		<tag k="name" v="Olaskarsfonna" />
		<tag k="place" v="locality" />
		<tag k="ssr:stedsnr" v="21587" />
	</node>
	<node id="-75027" lat="62.439158335" lon="7.4211027763">
		<tag k="historic" v="shieling" />
		<tag k="name" v="Gamlestølen" />
		<tag k="place" v="locality" />
		<tag k="ssr:stedsnr" v="21317" />
	</node>
	<node id="-75026" lat="62.5966305594" lon="7.4636222142">
		<tag k="name" v="Urin" />
		<tag k="natural" v="scree" />
		<tag k="ssr:stedsnr" v="20983" />
	</node>
	<node id="-75025" lat="62.5885055588" lon="7.468722213">
		<tag k="name" v="Tuftin" />
		<tag k="place" v="locality" />
		<tag k="ssr:stedsnr" v="20981" />
	</node>
	<node id="-75016" lat="62.5366611089" lon="7.98831944638">
		<tag k="name" v="Storbreen" />
		<tag k="natural" v="glacier" />
		<tag k="ssr:stedsnr" v="12267" />
	</node>
	<node id="-74994" lat="62.4582444449" lon="7.80589444291">
		<tag k="name" v="Styggemyra" />
		<tag k="natural" v="wetland" />
		<tag k="ssr:stedsnr" v="11075" />
	</node>
	<node id="-74960" lat="62.5851472248" lon="7.94179445366">
		<tag k="name" v="Kvitsteindokka" />
		<tag k="natural" v="stone" />
		<tag k="ssr:stedsnr" v="947654" />
	</node>
	<node id="-74945" lat="62.5757361131" lon="7.795549995">
		<tag k="name" v="Hensbøen" />
		<tag k="place" v="locality" />
		<tag k="ssr:stedsnr" v="947412" />
	</node>
	<node id="-74942" lat="62.5117888922" lon="7.66961666987">
		<tag k="name" v="Røshagen" />
		<tag k="place" v="locality" />
		<tag k="ssr:stedsnr" v="947110" />
	</node>
	<node id="-74910" lat="62.3742944432" lon="8.03975554956">
		<tag k="name" v="Simonteigen" />
		<tag k="place" v="locality" />
		<tag k="ssr:stedsnr" v="887363" />
	</node>
	<node id="-74905" lat="62.5907249989" lon="7.50691666013">
		<tag k="name" v="Finnmarka" />
		<tag k="place" v="locality" />
		<tag k="ssr:stedsnr" v="886559" />
	</node>
	<node id="-74897" lat="62.5105555595" lon="7.75766110267">
		<tag k="name" v="Tuteigen" />
		<tag k="place" v="locality" />
		<tag k="ssr:stedsnr" v="886426" />
	</node>
	<node id="-74894" lat="62.5691305582" lon="7.82271667483">
		<tag k="name" v="Storteigen" />
		<tag k="place" v="locality" />
		<tag k="ssr:stedsnr" v="886403" />
	</node>
	<node id="-75629" lat="62.6105861102" lon="7.42411666125">
		<tag k="name" v="Myran" />
		<tag k="natural" v="wetland" />
		<tag k="ssr:stedsnr" v="315551" />
	</node>
	<node id="-74891" lat="62.5138555529" lon="7.29549999573">
		<tag k="name" v="Dettalmyran" />
		<tag k="natural" v="wetland" />
		<tag k="ssr:stedsnr" v="886367" />
	</node>
	<node id="-74887" lat="62.5605861066" lon="7.85151943944">
		<tag k="name" v="Trongmyra" />
		<tag k="natural" v="wetland" />
		<tag k="ssr:stedsnr" v="885705" />
	</node>
	<node id="-76934" lat="62.5844833331" lon="7.72121667433">
		<tag k="name" v="Innloga" />
		<tag k="place" v="locality" />
		<tag k="ssr:stedsnr" v="871931" />
	</node>
	<node id="-74885" lat="62.5054111091" lon="7.87706388849">
		<tag k="name" v="Telen" />
		<tag k="natural" v="scree" />
		<tag k="ssr:stedsnr" v="885826" />
	</node>
	<node id="-74882" lat="62.4515277737" lon="7.50866389754">
		<tag k="name" v="Storgeilen" />
		<tag k="place" v="locality" />
		<tag k="ssr:stedsnr" v="885254" />
	</node>
	<node id="-74879" lat="62.497794441" lon="7.29443888349">
		<tag k="name" v="Kjelen" />
		<tag k="natural" v="wetland" />
		<tag k="ssr:stedsnr" v="885023" />
	</node>
	<node id="-74874" lat="62.4505055579" lon="7.5082833409">
		<tag k="name" v="Litlegeilen" />
		<tag k="place" v="locality" />
		<tag k="ssr:stedsnr" v="871957" />
	</node>
	<node id="-74872" lat="62.5796416676" lon="7.65914166481">
		<tag k="name" v="Gråura" />
		<tag k="natural" v="scree" />
		<tag k="ssr:stedsnr" v="871754" />
	</node>
	<node id="-74870" lat="62.5168166638" lon="7.75715555978">
		<tag k="name" v="Gamlefiva" />
		<tag k="place" v="locality" />
		<tag k="ssr:stedsnr" v="871610" />
	</node>
	<node id="-74866" lat="62.5618916665" lon="7.70863612007">
		<tag k="name" v="Andersmyra" />
		<tag k="natural" v="wetland" />
		<tag k="ssr:stedsnr" v="947707" />
	</node>
	<node id="-74864" lat="62.606447223" lon="7.49737499613">
		<tag k="name" v="Stakkmyra" />
		<tag k="natural" v="wetland" />
		<tag k="ssr:stedsnr" v="947540" />
	</node>
	<node id="-74861" lat="62.5838416711" lon="7.66296943612">
		<tag k="name" v="Haugmyra" />
		<tag k="natural" v="wetland" />
		<tag k="ssr:stedsnr" v="947599" />
	</node>
	<node id="-74843" lat="62.5392333314" lon="7.88848888116">
		<tag k="name" v="Dalemyra" />
		<tag k="natural" v="wetland" />
		<tag k="ssr:stedsnr" v="946662" />
	</node>
	<node id="-74842" lat="62.5921722191" lon="7.34803888382">
		<tag k="name" v="Øyran" />
		<tag k="place" v="locality" />
		<tag k="ssr:stedsnr" v="946660" />
	</node>
	<node id="-76888" lat="62.3065333309" lon="7.9743194366">
		<tag k="name" v="Alteret" />
		<tag k="natural" v="stone" />
		<tag k="ssr:stedsnr" v="861184" />
	</node>
	<node id="-74828" lat="62.5819083298" lon="7.83640277365">
		<tag k="name" v="Geilen" />
		<tag k="place" v="locality" />
		<tag k="ssr:stedsnr" v="946437" />
	</node>
	<node id="-74827" lat="62.5778416702" lon="7.83817221276">
		<tag k="landuse" v="meadow" />
		<tag k="name" v="Tynnenga" />
		<tag k="ssr:stedsnr" v="946429" />
	</node>
	<node id="-73911" lat="62.5821444483" lon="7.31895000009">
		<tag k="name" v="Skråsteinen" />
		<tag k="natural" v="stone" />
		<tag k="ssr:stedsnr" v="339604" />
	</node>
	<node id="-74822" lat="62.3997527775" lon="8.01642777932">
		<tag k="name" v="Skogan" />
		<tag k="place" v="locality" />
		<tag k="ssr:stedsnr" v="946362" />
	</node>
	<node id="-74818" lat="62.4438333317" lon="7.46472776994">
		<tag k="name" v="Kvitfonnin" />
		<tag k="place" v="locality" />
		<tag k="ssr:stedsnr" v="946195" />
	</node>
	<node id="-74816" lat="62.4535472256" lon="7.48734999945">
		<tag k="name" v="Storfonna" />
		<tag k="place" v="locality" />
		<tag k="ssr:stedsnr" v="946190" />
	</node>
	<node id="-74812" lat="62.4296361089" lon="7.40693333379">
		<tag k="name" v="Tutsteinen" />
		<tag k="natural" v="stone" />
		<tag k="ssr:stedsnr" v="946152" />
	</node>
	<node id="-74810" lat="62.4263083299" lon="7.40317221331">
		<tag k="name" v="Tutmyran" />
		<tag k="natural" v="wetland" />
		<tag k="ssr:stedsnr" v="946148" />
	</node>
	<node id="-76852" lat="62.5917611069" lon="7.8892388934">
		<tag k="name" v="Olufgjerdet" />
		<tag k="place" v="locality" />
		<tag k="ssr:stedsnr" v="826678" />
	</node>
	<node id="-76842" lat="62.4613194445" lon="7.81071110631">
		<tag k="name" v="Sælsbrua" />
		<tag k="place" v="locality" />
		<tag k="ssr:stedsnr" v="825968" />
	</node>
	<node id="-74786" lat="62.6290388875" lon="7.53736944978">
		<tag k="name" v="Rolegheita" />
		<tag k="place" v="locality" />
		<tag k="ssr:stedsnr" v="944600" />
	</node>
	<node id="-76828" lat="62.5660694454" lon="7.85462776907">
		<tag k="name" v="Stormyra" />
		<tag k="natural" v="wetland" />
		<tag k="ssr:stedsnr" v="825720" />
	</node>
	<node id="-74779" lat="62.5609694444" lon="7.38956389732">
		<tag k="name" v="Stolssvaet" />
		<tag k="place" v="locality" />
		<tag k="ssr:stedsnr" v="861516" />
	</node>
	<node id="-73903" lat="62.6562638898" lon="7.58601944237">
		<tag k="name" v="Herjemyra" />
		<tag k="natural" v="wetland" />
		<tag k="ssr:stedsnr" v="336113" />
	</node>
	<node id="-76824" lat="62.5354444414" lon="7.69696389847">
		<tag k="name" v="Flatmelan" />
		<tag k="place" v="locality" />
		<tag k="ssr:stedsnr" v="825678" />
	</node>
	<node id="-76803" lat="62.4327166633" lon="7.90293610785">
		<tag k="name" v="Skorsteinen" />
		<tag k="natural" v="stone" />
		<tag k="ssr:stedsnr" v="825875" />
	</node>
	<node id="-74754" lat="62.6535638929" lon="7.51885834045">
		<tag k="name" v="Markussteinen" />
		<tag k="natural" v="stone" />
		<tag k="ssr:stedsnr" v="943741" />
	</node>
	<node id="-74751" lat="62.6535361097" lon="7.61661666362">
		<tag k="name" v="Djupmyra" />
		<tag k="natural" v="wetland" />
		<tag k="ssr:stedsnr" v="943691" />
	</node>
	<node id="-74750" lat="62.6980388877" lon="7.70250000768">
		<tag k="name" v="Teigen" />
		<tag k="place" v="locality" />
		<tag k="ssr:stedsnr" v="943666" />
	</node>
	<node id="-76792" lat="62.3257583306" lon="8.10488611123">
		<tag k="name" v="Grønlisvaet" />
		<tag k="place" v="locality" />
		<tag k="ssr:stedsnr" v="825351" />
	</node>
	<node id="-74580" lat="62.6104916666" lon="7.55360000478">
		<tag k="name" v="Øverbøen" />
		<tag k="place" v="locality" />
		<tag k="ssr:stedsnr" v="762542" />
	</node>
	<node id="-76785" lat="62.5410277802" lon="7.59608333164">
		<tag k="name" v="Svartholet" />
		<tag k="natural" v="stone" />
		<tag k="ssr:stedsnr" v="825094" />
	</node>
	<node id="-76783" lat="62.5161916666" lon="7.65865834299">
		<tag k="name" v="Kalesjurda" />
		<tag k="natural" v="scree" />
		<tag k="ssr:stedsnr" v="825066" />
	</node>
	<node id="-76782" lat="62.5072222191" lon="7.67289166452">
		<tag k="name" v="Røshagmyra" />
		<tag k="natural" v="wetland" />
		<tag k="ssr:stedsnr" v="825063" />
	</node>
	<node id="-75260" lat="62.5147527753" lon="7.77098332638">
		<tag k="name" v="Kallegarden" />
		<tag k="place" v="locality" />
		<tag k="ssr:stedsnr" v="96751" />
	</node>
	<node id="-74724" lat="62.4544361077" lon="7.50675278241">
		<tag k="landuse" v="meadow" />
		<tag k="name" v="Keila" />
		<tag k="ssr:stedsnr" v="932951" />
	</node>
	<node id="-76768" lat="62.5196027741" lon="7.77049444824">
		<tag k="name" v="Nygjerdet" />
		<tag k="place" v="locality" />
		<tag k="ssr:stedsnr" v="824769" />
	</node>
	<node id="-74711" lat="62.5687527752" lon="7.52011388031">
		<tag k="name" v="Langemyra" />
		<tag k="natural" v="wetland" />
		<tag k="ssr:stedsnr" v="823560" />
	</node>
	<node id="-74706" lat="62.6138861102" lon="7.50157499238">
		<tag k="name" v="Stormyra" />
		<tag k="natural" v="wetland" />
		<tag k="ssr:stedsnr" v="822615" />
	</node>
	<node id="-74703" lat="62.5853444451" lon="7.57841943806">
		<tag k="name" v="Ljøsrøstan" />
		<tag k="place" v="locality" />
		<tag k="ssr:stedsnr" v="931601" />
	</node>
	<node id="-76743" lat="62.4716305589" lon="7.53460833531">
		<tag k="name" v="Haugsetra" />
		<tag k="place" v="locality" />
		<tag k="ssr:stedsnr" v="810998" />
	</node>
	<node id="-76742" lat="62.4843055543" lon="7.53558334088">
		<tag k="name" v="Urin" />
		<tag k="natural" v="scree" />
		<tag k="ssr:stedsnr" v="810994" />
	</node>
	<node id="-76740" lat="62.6908861097" lon="7.63900000358">
		<tag k="name" v="Skomsura" />
		<tag k="natural" v="scree" />
		<tag k="ssr:stedsnr" v="810932" />
	</node>
	<node id="-76730" lat="62.5748583375" lon="7.50777777811">
		<tag k="name" v="Oragjerdet" />
		<tag k="place" v="locality" />
		<tag k="ssr:stedsnr" v="809984" />
	</node>
	<node id="-76729" lat="62.5396833304" lon="7.42565555635">
		<tag k="name" v="Gråura" />
		<tag k="natural" v="scree" />
		<tag k="ssr:stedsnr" v="809966" />
	</node>
	<node id="-74678" lat="62.5816888868" lon="8.01088888808">
		<tag k="name" v="Førhaugsteinan" />
		<tag k="natural" v="stone" />
		<tag k="ssr:stedsnr" v="800165" />
	</node>
	<node id="-76718" lat="62.6836249983" lon="7.74783055732">
		<tag k="name" v="Gråura" />
		<tag k="natural" v="scree" />
		<tag k="ssr:stedsnr" v="801290" />
	</node>
	<node id="-74657" lat="62.5704166662" lon="7.50980832762">
		<tag k="name" v="Stormyra" />
		<tag k="natural" v="wetland" />
		<tag k="ssr:stedsnr" v="922504" />
	</node>
	<node id="-74656" lat="62.5767833361" lon="7.55106666315">
		<tag k="name" v="Gråura" />
		<tag k="natural" v="scree" />
		<tag k="ssr:stedsnr" v="922502" />
	</node>
	<node id="-74635" lat="62.4922500032" lon="7.71504167372">
		<tag k="name" v="Adelsbreen" />
		<tag k="natural" v="glacier" />
		<tag k="ssr:stedsnr" v="921875" />
	</node>
	<node id="-74623" lat="62.3297749965" lon="8.19193610411">
		<tag k="name" v="Raudmyra" />
		<tag k="natural" v="wetland" />
		<tag k="ssr:stedsnr" v="921234" />
	</node>
	<node id="-73535" lat="62.5851944456" lon="7.31650277924">
		<tag k="name" v="Høgmyra" />
		<tag k="natural" v="wetland" />
		<tag k="ssr:stedsnr" v="279442" />
	</node>
	<node id="-76657" lat="62.5844611107" lon="7.95760555325">
		<tag k="name" v="Storgjerdet" />
		<tag k="place" v="locality" />
		<tag k="ssr:stedsnr" v="765595" />
	</node>
	<node id="-74599" lat="62.5971472207" lon="7.91611111012">
		<tag k="name" v="Kammyran" />
		<tag k="natural" v="wetland" />
		<tag k="ssr:stedsnr" v="765669" />
	</node>
	<node id="-74598" lat="62.5916527761" lon="7.89955833056">
		<tag k="name" v="Haugagjerdet" />
		<tag k="place" v="locality" />
		<tag k="ssr:stedsnr" v="765666" />
	</node>
	<node id="-74583" lat="62.50811111" lon="7.3420638886">
		<tag k="name" v="Øygardan" />
		<tag k="place" v="locality" />
		<tag k="ssr:stedsnr" v="764457" />
	</node>
	<node id="-76628" lat="62.5129277774" lon="7.37592500589">
		<tag k="name" v="Bøen" />
		<tag k="place" v="locality" />
		<tag k="ssr:stedsnr" v="764452" />
	</node>
	<node id="-76625" lat="62.5681777812" lon="7.84471111843">
		<tag k="name" v="Moabøen" />
		<tag k="place" v="locality" />
		<tag k="ssr:stedsnr" v="764432" />
	</node>
	<node id="-74572" lat="62.683761111" lon="7.71095555384">
		<tag k="name" v="Stormyra" />
		<tag k="natural" v="wetland" />
		<tag k="ssr:stedsnr" v="760440" />
	</node>
	<node id="-76618" lat="62.5689333346" lon="7.60064445364">
		<tag k="name" v="Nygjerdet" />
		<tag k="place" v="locality" />
		<tag k="ssr:stedsnr" v="764248" />
	</node>
	<node id="-74569" lat="62.504852778" lon="7.7566111088">
		<tag k="name" v="Botnaura" />
		<tag k="natural" v="scree" />
		<tag k="ssr:stedsnr" v="749645" />
	</node>
	<node id="-76616" lat="62.449424998" lon="7.50659444476">
		<tag k="name" v="Slettegeilen" />
		<tag k="place" v="locality" />
		<tag k="ssr:stedsnr" v="764216" />
	</node>
	<node id="-74567" lat="62.5053305539" lon="7.76877222044">
		<tag k="name" v="Øvre Rønningan" />
		<tag k="place" v="locality" />
		<tag k="ssr:stedsnr" v="749625" />
	</node>
	<node id="-76612" lat="62.526649999" lon="7.52992499688">
		<tag k="name" v="Purkesteinen" />
		<tag k="natural" v="stone" />
		<tag k="ssr:stedsnr" v="764191" />
	</node>
	<node id="-76603" lat="62.5158333347" lon="7.68153611316">
		<tag k="name" v="Brasmarka" />
		<tag k="place" v="locality" />
		<tag k="ssr:stedsnr" v="764027" />
	</node>
	<node id="-76601" lat="62.5213638871" lon="7.76672778407">
		<tag k="name" v="Klavmyra" />
		<tag k="natural" v="wetland" />
		<tag k="ssr:stedsnr" v="763768" />
	</node>
	<node id="-76599" lat="62.585333331" lon="7.55220555088">
		<tag k="name" v="Vedmyra" />
		<tag k="natural" v="wetland" />
		<tag k="ssr:stedsnr" v="762752" />
	</node>
	<node id="-76596" lat="62.5968055534" lon="7.55608888214">
		<tag k="name" v="Fonnenden" />
		<tag k="place" v="locality" />
		<tag k="ssr:stedsnr" v="762876" />
	</node>
	<node id="-76590" lat="62.573005554" lon="7.61472221893">
		<tag k="name" v="Løypmyran" />
		<tag k="natural" v="wetland" />
		<tag k="ssr:stedsnr" v="762376" />
	</node>
	<node id="-74531" lat="62.5160194463" lon="7.6912972229">
		<tag k="name" v="Kvernamyra" />
		<tag k="natural" v="wetland" />
		<tag k="ssr:stedsnr" v="704024" />
	</node>
	<node id="-74525" lat="62.6315138883" lon="7.39926666462">
		<tag k="name" v="Kvarvesteinen" />
		<tag k="natural" v="stone" />
		<tag k="ssr:stedsnr" v="701772" />
	</node>
	<node id="-74524" lat="62.6089027776" lon="7.54735555567">
		<tag k="name" v="Bøgarden" />
		<tag k="place" v="locality" />
		<tag k="ssr:stedsnr" v="701626" />
	</node>
	<node id="-76569" lat="62.7014722212" lon="7.71107500909">
		<tag k="name" v="Ura" />
		<tag k="natural" v="scree" />
		<tag k="ssr:stedsnr" v="750573" />
	</node>
	<node id="-74520" lat="62.6935555599" lon="7.62826944312">
		<tag k="name" v="Preststeinen" />
		<tag k="natural" v="stone" />
		<tag k="ssr:stedsnr" v="701215" />
	</node>
	<node id="-74519" lat="62.6526527815" lon="7.53259721538">
		<tag k="name" v="Ressteinen" />
		<tag k="natural" v="stone" />
		<tag k="ssr:stedsnr" v="700764" />
	</node>
	<node id="-76565" lat="62.6162749978" lon="7.48333054966">
		<tag k="name" v="Storura" />
		<tag k="natural" v="scree" />
		<tag k="ssr:stedsnr" v="749993" />
	</node>
	<node id="-76559" lat="62.6084222263" lon="7.53157499083">
		<tag k="name" v="Loftura" />
		<tag k="natural" v="scree" />
		<tag k="ssr:stedsnr" v="749582" />
	</node>
	<node id="-76558" lat="62.5854361155" lon="7.81246110157">
		<tag k="name" v="Hatlemyra" />
		<tag k="natural" v="wetland" />
		<tag k="ssr:stedsnr" v="749576" />
	</node>
	<node id="-74508" lat="62.5814638915" lon="7.92966943975">
		<tag k="name" v="Størkågjerdet" />
		<tag k="place" v="locality" />
		<tag k="ssr:stedsnr" v="887579" />
	</node>
	<node id="-75564" lat="62.4603472195" lon="7.80768610225">
		<tag k="name" v="Nørdre Selen" />
		<tag k="place" v="locality" />
		<tag k="ssr:stedsnr" v="204527" />
	</node>
	<node id="-74502" lat="62.4693305549" lon="7.53031388632">
		<tag k="landuse" v="meadow" />
		<tag k="name" v="Blomøyna" />
		<tag k="ssr:stedsnr" v="886944" />
	</node>
	<node id="-76546" lat="62.4849749958" lon="7.58180277769">
		<tag k="name" v="Fotura" />
		<tag k="natural" v="scree" />
		<tag k="ssr:stedsnr" v="748540" />
	</node>
	<node id="-74497" lat="62.4970694421" lon="7.54676667557">
		<tag k="name" v="Myran" />
		<tag k="place" v="locality" />
		<tag k="ssr:stedsnr" v="886833" />
	</node>
	<node id="-74476" lat="62.5445749966" lon="7.6173861116">
		<tag k="name" v="Kobbhola" />
		<tag k="natural" v="stone" />
		<tag k="ssr:stedsnr" v="886124" />
	</node>
	<node id="-73852" lat="62.5194250013" lon="7.88952222143">
		<tag k="name" v="Osten" />
		<tag k="natural" v="stone" />
		<tag k="ssr:stedsnr" v="462772" />
	</node>
	<node id="-74465" lat="62.5250194431" lon="7.38380833693">
		<tag k="name" v="Fonna" />
		<tag k="place" v="locality" />
		<tag k="ssr:stedsnr" v="885548" />
	</node>
	<node id="-74458" lat="62.5786333356" lon="7.54994443807">
		<tag k="name" v="Myran" />
		<tag k="natural" v="wetland" />
		<tag k="ssr:stedsnr" v="884722" />
	</node>
	<node id="-74452" lat="62.6238055524" lon="7.53418889194">
		<tag k="name" v="Storrøysa" />
		<tag k="place" v="locality" />
		<tag k="ssr:stedsnr" v="883641" />
	</node>
	<node id="-74447" lat="62.6574250002" lon="7.70913610973">
		<tag k="name" v="Tipphaugmyran" />
		<tag k="natural" v="wetland" />
		<tag k="ssr:stedsnr" v="882976" />
	</node>
	<node id="-76490" lat="62.2837499974" lon="8.11087777417">
		<tag k="name" v="Storhjellmarka" />
		<tag k="place" v="locality" />
		<tag k="ssr:stedsnr" v="738251" />
	</node>
	<node id="-73846" lat="62.5800694435" lon="7.91718056253">
		<tag k="name" v="Heggefonngjerdet" />
		<tag k="place" v="locality" />
		<tag k="ssr:stedsnr" v="462584" />
	</node>
	<node id="-75551" lat="62.6210666699" lon="7.58050556161">
		<tag k="name" v="Gråura" />
		<tag k="natural" v="scree" />
		<tag k="ssr:stedsnr" v="203576" />
	</node>
	<node id="-74407" lat="62.6895749973" lon="7.70945277581">
		<tag k="name" v="Staursetøyan" />
		<tag k="natural" v="wetland" />
		<tag k="ssr:stedsnr" v="882433" />
	</node>
	<node id="-76454" lat="62.4758722218" lon="7.54614166152">
		<tag k="name" v="Nebbamyra" />
		<tag k="natural" v="wetland" />
		<tag k="ssr:stedsnr" v="642891" />
	</node>
	<node id="-76446" lat="62.4977916642" lon="7.62206666811">
		<tag k="name" v="Kistesteinen" />
		<tag k="natural" v="stone" />
		<tag k="ssr:stedsnr" v="642696" />
	</node>
	<node id="-74395" lat="62.5018416675" lon="7.56619165815">
		<tag k="name" v="Øyra" />
		<tag k="place" v="locality" />
		<tag k="ssr:stedsnr" v="642853" />
	</node>
	<node id="-76441" lat="62.574577781" lon="7.47000555558">
		<tag k="name" v="Morskogurdin" />
		<tag k="natural" v="scree" />
		<tag k="ssr:stedsnr" v="642618" />
	</node>
	<node id="-76432" lat="62.5118583316" lon="7.76186110493">
		<tag k="name" v="Storåkeren" />
		<tag k="place" v="locality" />
		<tag k="ssr:stedsnr" v="642431" />
	</node>
	<node id="-74374" lat="62.563755552" lon="7.5585305494">
		<tag k="name" v="Stormyra" />
		<tag k="natural" v="wetland" />
		<tag k="ssr:stedsnr" v="618235" />
	</node>
	<node id="-76421" lat="62.5693027809" lon="7.59811666529">
		<tag k="name" v="Småhjellan" />
		<tag k="place" v="locality" />
		<tag k="ssr:stedsnr" v="642251" />
	</node>
	<node id="-76417" lat="62.5402694414" lon="7.51688333694">
		<tag k="name" v="Geilhola" />
>>>>>>> e1d4bc35ff8a6074a6f2e91616a996b547c36f15
		<tag k="natural" v="stone" />
		<tag k="ssr:stedsnr" v="642206" />
	</node>
<<<<<<< HEAD
	<node lat="62.45536388834164" lon="7.831208340557535" id="-6999">
		<tag k="name" v="Gjerdet" />
		<tag k="place" v="locality" />
		<tag k="ssr:stedsnr" v="279798" />
	</node>
	<node lat="62.59235277781252" lon="7.47951944935691" id="-7001">
		<tag k="name" v="Frambøen" />
		<tag k="place" v="locality" />
		<tag k="ssr:stedsnr" v="279580" />
	</node>
	<node lat="62.47033055464087" lon="7.527841673242744" id="-7010">
		<tag k="landuse" v="meadow" />
		<tag k="name" v="Engevollan" />
		<tag k="ssr:stedsnr" v="279928" />
	</node>
	<node lat="62.577277777274965" lon="7.7841000044651345" id="-7017">
		<tag k="name" v="Ørsbrekka" />
		<tag k="place" v="locality" />
		<tag k="ssr:stedsnr" v="280489" />
	</node>
	<node lat="62.58216389226693" lon="7.940283327170202" id="-7020">
		<tag k="name" v="Steingerdet" />
		<tag k="place" v="locality" />
		<tag k="ssr:stedsnr" v="280690" />
	</node>
	<node lat="62.31897500223338" lon="8.119350008542405" id="-7034">
		<tag k="name" v="Brumyran" />
		<tag k="natural" v="wetland" />
		<tag k="ssr:stedsnr" v="314235" />
	</node>
	<node lat="62.585747221729434" lon="7.626175009443215" id="-7059">
		<tag k="name" v="Toraldmyra" />
		<tag k="natural" v="wetland" />
		<tag k="ssr:stedsnr" v="315486" />
	</node>
	<node lat="62.682177774608675" lon="7.611616675889291" id="-7082">
		<tag k="name" v="Broka" />
		<tag k="place" v="locality" />
		<tag k="ssr:stedsnr" v="324549" />
	</node>
	<node lat="62.574397218637344" lon="7.480558340945823" id="-7085">
		<tag k="name" v="Urfonna" />
		<tag k="natural" v="scree" />
		<tag k="ssr:stedsnr" v="324984" />
	</node>
	<node lat="62.66083889042781" lon="7.583086118403057" id="-7105">
		<tag k="name" v="Setermyra" />
		<tag k="natural" v="wetland" />
		<tag k="ssr:stedsnr" v="336384" />
	</node>
	<node lat="62.53897500236733" lon="7.919697224692293" id="-7143">
		<tag k="name" v="Bjørnafonna" />
		<tag k="natural" v="scree" />
		<tag k="ssr:stedsnr" v="339673" />
	</node>
	<node lat="62.582602781787514" lon="7.91877500555218" id="-7146">
		<tag k="name" v="Bakkegjerdet" />
		<tag k="place" v="locality" />
		<tag k="ssr:stedsnr" v="340580" />
	</node>
	<node lat="62.58025000415413" lon="7.940000005018189" id="-7148">
		<tag k="name" v="Rotfonnsteinan" />
		<tag k="natural" v="stone" />
		<tag k="ssr:stedsnr" v="340667" />
	</node>
	<node lat="62.589305553312954" lon="7.804580549232516" id="-7149">
		<tag k="name" v="Myran" />
		<tag k="natural" v="wetland" />
		<tag k="ssr:stedsnr" v="340711" />
	</node>
	<node lat="62.65837500109305" lon="7.561758328742654" id="-7199">
		<tag k="name" v="Herjemyrane" />
		<tag k="natural" v="wetland" />
		<tag k="ssr:stedsnr" v="376642" />
	</node>
	<node lat="62.48645555538359" lon="7.5573638861277015" id="-7210">
		<tag k="name" v="Nerbømyran" />
		<tag k="natural" v="wetland" />
		<tag k="ssr:stedsnr" v="385518" />
	</node>
	<node lat="62.6289361142721" lon="7.52780555364963" id="-7234">
		<tag k="name" v="Rødset" />
		<tag k="place" v="locality" />
		<tag k="ssr:stedsnr" v="397561" />
	</node>
	<node lat="62.573000004218976" lon="7.618805552978379" id="-7237">
		<tag k="name" v="Slipsteinmyra" />
		<tag k="natural" v="wetland" />
		<tag k="ssr:stedsnr" v="398360" />
	</node>
	<node lat="62.61331111271682" lon="7.579933335731895" id="-7239">
		<tag k="name" v="Gammelfonna" />
		<tag k="place" v="locality" />
		<tag k="ssr:stedsnr" v="398615" />
	</node>
	<node lat="62.51534166516457" lon="7.776463888275313" id="-7244">
		<tag k="name" v="Hengjesteinen" />
		<tag k="natural" v="stone" />
		<tag k="ssr:stedsnr" v="399750" />
	</node>
	<node lat="62.5714500031098" lon="7.821525004409284" id="-7258">
		<tag k="name" v="Myrteigen" />
		<tag k="place" v="locality" />
		<tag k="ssr:stedsnr" v="400411" />
	</node>
	<node lat="62.56963610788361" lon="7.806213892086047" id="-7259">
		<tag k="name" v="Svarthammaren" />
		<tag k="place" v="locality" />
		<tag k="ssr:stedsnr" v="400414" />
	</node>
	<node lat="62.58086944831811" lon="7.83936110969405" id="-7267">
		<tag k="name" v="Vollen" />
		<tag k="place" v="locality" />
		<tag k="ssr:stedsnr" v="400475" />
	</node>
	<node lat="62.51902778100142" lon="7.944144444316404" id="-7287">
		<tag k="name" v="Fantesteinen" />
		<tag k="natural" v="stone" />
		<tag k="ssr:stedsnr" v="401822" />
	</node>
	<node lat="62.57835555203914" lon="7.902072218493173" id="-7289">
		<tag k="name" v="Langemyra" />
		<tag k="natural" v="wetland" />
		<tag k="ssr:stedsnr" v="401564" />
	</node>
	<node lat="62.58243333532559" lon="7.9157416672489225" id="-7291">
		<tag k="name" v="Morstølbakken" />
		<tag k="place" v="locality" />
		<tag k="ssr:stedsnr" v="401571" />
	</node>
	<node lat="62.512847225664274" lon="7.806002783085755" id="-7342">
		<tag k="name" v="Skreden" />
		<tag k="place" v="locality" />
		<tag k="ssr:stedsnr" v="446618" />
	</node>
	<node lat="62.376544444980155" lon="7.9325277791344195" id="-7347">
		<tag k="name" v="Stormyra" />
		<tag k="natural" v="wetland" />
		<tag k="ssr:stedsnr" v="496026" />
	</node>
	<node lat="62.48405277609761" lon="7.56679722014612" id="-7409">
		<tag k="name" v="Gråurin" />
		<tag k="natural" v="scree" />
		<tag k="ssr:stedsnr" v="506994" />
	</node>
	<node lat="62.57253333570806" lon="7.541361104485884" id="-7432">
		<tag k="name" v="Løypmyra" />
		<tag k="natural" v="wetland" />
		<tag k="ssr:stedsnr" v="519886" />
	</node>
	<node lat="62.59276944782098" lon="7.545844435641746" id="-7433">
		<tag k="name" v="Myra" />
		<tag k="natural" v="wetland" />
		<tag k="ssr:stedsnr" v="519991" />
	</node>
	<node lat="62.58549722625341" lon="7.827347225709794" id="-7454">
		<tag k="name" v="Stormyra" />
		<tag k="natural" v="wetland" />
		<tag k="ssr:stedsnr" v="521454" />
	</node>
	<node lat="62.56998888866931" lon="7.508486107926945" id="-7460">
		<tag k="name" v="Oramyra" />
		<tag k="natural" v="wetland" />
		<tag k="ssr:stedsnr" v="521652" />
	</node>
	<node lat="62.59189166902086" lon="7.835963880205346" id="-7475">
		<tag k="name" v="Brymyra" />
		<tag k="natural" v="wetland" />
		<tag k="ssr:stedsnr" v="522430" />
	</node>
	<node lat="62.58052222033564" lon="7.924158325929626" id="-7477">
		<tag k="name" v="Olegjerdet" />
		<tag k="place" v="locality" />
		<tag k="ssr:stedsnr" v="522559" />
	</node>
	<node lat="62.57036944110726" lon="7.996047220858901" id="-7485">
		<tag k="name" v="Storura" />
		<tag k="natural" v="scree" />
		<tag k="ssr:stedsnr" v="522582" />
	</node>
	<node lat="62.58359444703233" lon="8.008052771623131" id="-7486">
		<tag k="name" v="Furuhaugsteinan" />
		<tag k="natural" v="stone" />
		<tag k="ssr:stedsnr" v="522597" />
	</node>
	<node lat="62.51622777873226" lon="7.941780558640399" id="-7489">
		<tag k="name" v="Tverrbergura" />
		<tag k="natural" v="scree" />
		<tag k="ssr:stedsnr" v="522832" />
	</node>
	<node lat="62.35308888786198" lon="8.00617221524708" id="-7496">
		<tag k="name" v="Gråtarmyra" />
		<tag k="natural" v="wetland" />
		<tag k="ssr:stedsnr" v="556044" />
	</node>
	<node lat="62.35634474694853" lon="8.062743927430242" id="-7497">
		<tag k="historic" v="shieling" />
		<tag k="name" v="Løkrasætra" />
		<tag k="place" v="locality" />
		<tag k="ssr:stedsnr" v="556048" />
	</node>
	<node lat="62.566736110531444" lon="7.597461108425497" id="-7541">
		<tag k="landuse" v="meadow" />
		<tag k="name" v="Korgahola" />
		<tag k="ssr:stedsnr" v="566593" />
	</node>
	<node lat="62.59114444036807" lon="7.744888886141484" id="-7547">
		<tag k="name" v="Gråura" />
		<tag k="natural" v="scree" />
		<tag k="ssr:stedsnr" v="567753" />
	</node>
	<node lat="62.61053611246179" lon="7.463713895773773" id="-7568">
		<tag k="name" v="Kleppestølen" />
		<tag k="natural" v="wetland" />
		<tag k="ssr:stedsnr" v="579668" />
	</node>
	<node lat="62.466213887820814" lon="7.4279444403307595" id="-7579">
=======
	<node id="-74363" lat="62.6103194465" lon="7.41058888065">
		<tag k="name" v="Gråura" />
		<tag k="natural" v="scree" />
		<tag k="ssr:stedsnr" v="718143" />
	</node>
	<node id="-74361" lat="62.5721527791" lon="7.94383610804">
		<tag k="name" v="Snerpesteinen" />
		<tag k="natural" v="stone" />
		<tag k="ssr:stedsnr" v="583662" />
	</node>
	<node id="-76406" lat="62.6145944486" lon="7.46391943799">
		<tag k="name" v="Gulldroplesvaet" />
		<tag k="place" v="locality" />
		<tag k="ssr:stedsnr" v="640637" />
	</node>
	<node id="-76403" lat="62.6252944417" lon="7.43932221724">
		<tag k="name" v="Seteralmenningen" />
		<tag k="place" v="locality" />
		<tag k="ssr:stedsnr" v="640597" />
	</node>
	<node id="-74353" lat="62.5144361128" lon="7.6712027696">
		<tag k="name" v="Gjefsemyra" />
		<tag k="natural" v="wetland" />
		<tag k="ssr:stedsnr" v="582104" />
	</node>
	<node id="-76392" lat="62.669777775" lon="7.73896667453">
		<tag k="name" v="Mantalivollen" />
		<tag k="natural" v="wetland" />
		<tag k="ssr:stedsnr" v="639977" />
	</node>
	<node id="-76389" lat="62.6725055563" lon="7.61852500007">
		<tag k="name" v="Hjellmyran" />
		<tag k="natural" v="wetland" />
		<tag k="ssr:stedsnr" v="639722" />
	</node>
	<node id="-74339" lat="62.6359972207" lon="7.42866943763">
		<tag k="name" v="Kolla" />
		<tag k="natural" v="stone" />
		<tag k="ssr:stedsnr" v="580103" />
	</node>
	<node id="-74336" lat="62.6105361125" lon="7.46371389577">
		<tag k="name" v="Kleppestølen" />
		<tag k="natural" v="wetland" />
		<tag k="ssr:stedsnr" v="579668" />
	</node>
	<node id="-76378" lat="62.6738972207" lon="7.55603054858">
		<tag k="name" v="Herjeledmyran" />
		<tag k="natural" v="wetland" />
		<tag k="ssr:stedsnr" v="638867" />
	</node>
	<node id="-76374" lat="62.6966833329" lon="7.69341111965">
		<tag k="landuse" v="quarry" />
		<tag k="name" v="Joøyan" />
		<tag k="ssr:stedsnr" v="638444" />
	</node>
	<node id="-74325" lat="62.4696444415" lon="7.51995277552">
		<tag k="name" v="Mekjå" />
		<tag k="place" v="locality" />
		<tag k="ssr:stedsnr" v="704917" />
	</node>
	<node id="-76364" lat="62.6190499985" lon="7.27048889137">
		<tag k="name" v="Mortura" />
		<tag k="natural" v="scree" />
		<tag k="ssr:stedsnr" v="628636" />
	</node>
	<node id="-76361" lat="62.5580666664" lon="7.84543889239">
		<tag k="name" v="Øyan" />
		<tag k="place" v="locality" />
		<tag k="ssr:stedsnr" v="628491" />
	</node>
	<node id="-74299" lat="62.574427782" lon="7.80643054858">
		<tag k="name" v="Hensengan" />
		<tag k="place" v="locality" />
		<tag k="ssr:stedsnr" v="704378" />
	</node>
	<node id="-74293" lat="62.5624805521" lon="7.54681944213">
		<tag k="name" v="Liamyra" />
		<tag k="natural" v="wetland" />
		<tag k="ssr:stedsnr" v="704153" />
	</node>
	<node id="-74286" lat="62.508877782" lon="7.87783888624">
		<tag k="name" v="Storstauå" />
		<tag k="natural" v="stone" />
		<tag k="ssr:stedsnr" v="703866" />
	</node>
	<node id="-74285" lat="62.5352166636" lon="7.90227222138">
		<tag k="name" v="Svartedalen" />
		<tag k="natural" v="wetland" />
		<tag k="ssr:stedsnr" v="703808" />
	</node>
	<node id="-74279" lat="62.5031361123" lon="7.34623612046">
		<tag k="name" v="Langmyran" />
		<tag k="natural" v="wetland" />
		<tag k="ssr:stedsnr" v="703464" />
	</node>
	<node id="-74269" lat="62.539183333" lon="7.89940832692">
		<tag k="name" v="Nøsasteinen" />
		<tag k="natural" v="stone" />
		<tag k="ssr:stedsnr" v="703695" />
	</node>
	<node id="-76307" lat="62.3235722189" lon="8.05780833013">
		<tag k="name" v="Langmyra" />
		<tag k="natural" v="wetland" />
		<tag k="ssr:stedsnr" v="617247" />
	</node>
	<node id="-76545" lat="62.4834361123" lon="7.58097221427">
		<tag k="name" v="Skråura" />
		<tag k="natural" v="scree" />
		<tag k="ssr:stedsnr" v="748522" />
	</node>
	<node id="-76287" lat="62.5829361088" lon="7.81101110973">
		<tag k="name" v="Plassan" />
		<tag k="place" v="locality" />
		<tag k="ssr:stedsnr" v="583432" />
	</node>
	<node id="-76282" lat="62.5120583306" lon="7.57301388197">
		<tag k="name" v="Storurda" />
		<tag k="natural" v="scree" />
		<tag k="ssr:stedsnr" v="582876" />
	</node>
	<node id="-76280" lat="62.4152472255" lon="8.00959723024">
		<tag k="name" v="Styggefonna" />
		<tag k="natural" v="scree" />
		<tag k="ssr:stedsnr" v="582865" />
	</node>
	<node id="-76268" lat="62.5899444419" lon="7.28927776921">
		<tag k="name" v="Nyfonnsvaet" />
		<tag k="place" v="locality" />
		<tag k="ssr:stedsnr" v="582772" />
	</node>
	<node id="-76267" lat="62.541600001" lon="7.88063889211">
		<tag k="name" v="Mjølvateigen" />
		<tag k="place" v="locality" />
		<tag k="ssr:stedsnr" v="582758" />
	</node>
	<node id="-74215" lat="62.655025" lon="7.62982222454">
		<tag k="name" v="Ølsnøssteinen" />
		<tag k="natural" v="stone" />
		<tag k="ssr:stedsnr" v="700714" />
	</node>
	<node id="-76250" lat="62.4122472181" lon="7.4095361149">
		<tag k="name" v="Grønfonnmyran" />
		<tag k="natural" v="wetland" />
		<tag k="ssr:stedsnr" v="582192" />
	</node>
	<node id="-74198" lat="62.5832500002" lon="7.74938054912">
		<tag k="name" v="Øya" />
		<tag k="place" v="locality" />
		<tag k="ssr:stedsnr" v="689978" />
	</node>
	<node id="-74196" lat="62.5589166645" lon="7.78346111453">
		<tag k="historic" v="shieling" />
		<tag k="name" v="Øvrestølen" />
		<tag k="place" v="locality" />
		<tag k="ssr:stedsnr" v="689572" />
	</node>
	<node id="-74188" lat="62.4739222266" lon="7.52349167481">
		<tag k="name" v="Urfonna" />
		<tag k="natural" v="scree" />
		<tag k="ssr:stedsnr" v="688999" />
	</node>
	<node id="-74187" lat="62.6552916705" lon="7.49944166506">
		<tag k="name" v="Innernesberga" />
		<tag k="natural" v="scree" />
		<tag k="ssr:stedsnr" v="688997" />
	</node>
	<node id="-74184" lat="62.5630111142" lon="7.5173277694">
		<tag k="name" v="Orungen" />
		<tag k="natural" v="scree" />
		<tag k="ssr:stedsnr" v="688516" />
	</node>
	<node id="-74179" lat="62.5699888887" lon="7.50848610793">
		<tag k="name" v="Oramyra" />
		<tag k="natural" v="wetland" />
		<tag k="ssr:stedsnr" v="521652" />
	</node>
	<node id="-76220" lat="62.4554972228" lon="7.48525555477">
		<tag k="name" v="Røyrfonna" />
		<tag k="place" v="locality" />
		<tag k="ssr:stedsnr" v="581247" />
	</node>
	<node id="-76219" lat="62.4662138878" lon="7.42794444033">
>>>>>>> e1d4bc35ff8a6074a6f2e91616a996b547c36f15
		<tag k="name" v="Middagsfonna" />
		<tag k="place" v="locality" />
		<tag k="ssr:stedsnr" v="581235" />
	</node>
<<<<<<< HEAD
	<node lat="62.415247225548036" lon="8.009597230237683" id="-7621">
		<tag k="name" v="Styggefonna" />
		<tag k="natural" v="scree" />
		<tag k="ssr:stedsnr" v="582865" />
	</node>
	<node lat="62.51205833056782" lon="7.573013881968788" id="-7623">
		<tag k="name" v="Storurda" />
		<tag k="natural" v="scree" />
		<tag k="ssr:stedsnr" v="582876" />
	</node>
	<node lat="62.54160000099137" lon="7.880638892109241" id="-7625">
		<tag k="name" v="Mjølvateigen" />
		<tag k="place" v="locality" />
		<tag k="ssr:stedsnr" v="582758" />
	</node>
	<node lat="62.572152779086764" lon="7.943836108038414" id="-7628">
		<tag k="name" v="Snerpesteinen" />
		<tag k="natural" v="stone" />
		<tag k="ssr:stedsnr" v="583662" />
	</node>
	<node lat="62.582936108800766" lon="7.8110111097310835" id="-7632">
		<tag k="name" v="Plassan" />
		<tag k="place" v="locality" />
		<tag k="ssr:stedsnr" v="583432" />
	</node>
	<node lat="62.32357221885292" lon="8.057808330132854" id="-7644">
		<tag k="name" v="Langmyra" />
		<tag k="natural" v="wetland" />
		<tag k="ssr:stedsnr" v="617247" />
	</node>
	<node lat="62.558066666384605" lon="7.845438892394808" id="-7685">
		<tag k="name" v="Øyan" />
		<tag k="place" v="locality" />
		<tag k="ssr:stedsnr" v="628491" />
	</node>
	<node lat="62.696683332938726" lon="7.693411119650543" id="-7692">
		<tag k="landuse" v="quarry" />
		<tag k="name" v="Joøyan" />
		<tag k="ssr:stedsnr" v="638444" />
	</node>
	<node lat="62.67389722067179" lon="7.5560305485798835" id="-7698">
		<tag k="name" v="Herjeledmyran" />
		<tag k="natural" v="wetland" />
		<tag k="ssr:stedsnr" v="638867" />
	</node>
	<node lat="62.6697777750343" lon="7.738966674532569" id="-7710">
		<tag k="name" v="Mantalivollen" />
		<tag k="natural" v="wetland" />
		<tag k="ssr:stedsnr" v="639977" />
	</node>
	<node lat="62.625294441741936" lon="7.439322217244999" id="-7715">
		<tag k="name" v="Seteralmenningen" />
		<tag k="place" v="locality" />
		<tag k="ssr:stedsnr" v="640597" />
	</node>
	<node lat="62.6145944486311" lon="7.46391943799081" id="-7717">
		<tag k="name" v="Gulldroplesvaet" />
		<tag k="place" v="locality" />
		<tag k="ssr:stedsnr" v="640637" />
	</node>
	<node lat="62.5693027808916" lon="7.598116665288007" id="-7722">
		<tag k="name" v="Småhjellan" />
		<tag k="place" v="locality" />
		<tag k="ssr:stedsnr" v="642251" />
	</node>
	<node lat="62.574577780970884" lon="7.470005555575969" id="-7729">
		<tag k="name" v="Morskogurdin" />
		<tag k="natural" v="scree" />
		<tag k="ssr:stedsnr" v="642618" />
	</node>
	<node lat="62.501841667474295" lon="7.566191658145837" id="-7731">
		<tag k="name" v="Øyra" />
		<tag k="place" v="locality" />
		<tag k="ssr:stedsnr" v="642853" />
	</node>
	<node lat="62.47587222179558" lon="7.5461416615187655" id="-7733">
		<tag k="name" v="Nebbamyra" />
		<tag k="natural" v="wetland" />
		<tag k="ssr:stedsnr" v="642891" />
	</node>
	<node lat="62.61031944653442" lon="7.41058888065421" id="-7758">
		<tag k="name" v="Gråura" />
		<tag k="natural" v="scree" />
		<tag k="ssr:stedsnr" v="718143" />
	</node>
	<node lat="62.28374999736823" lon="8.110877774171627" id="-7765">
		<tag k="name" v="Storhjellmarka" />
		<tag k="place" v="locality" />
		<tag k="ssr:stedsnr" v="738251" />
	</node>
	<node lat="62.616274997841984" lon="7.4833305496604945" id="-7808">
		<tag k="name" v="Storura" />
		<tag k="natural" v="scree" />
		<tag k="ssr:stedsnr" v="749993" />
	</node>
	<node lat="62.48497499577804" lon="7.581802777692873" id="-7809">
		<tag k="name" v="Fotura" />
		<tag k="natural" v="scree" />
		<tag k="ssr:stedsnr" v="748540" />
	</node>
	<node lat="62.50485277800465" lon="7.756611108795473" id="-7819">
		<tag k="name" v="Botnaura" />
		<tag k="natural" v="scree" />
		<tag k="ssr:stedsnr" v="749645" />
	</node>
	<node lat="62.70147222122877" lon="7.711075009087591" id="-7822">
		<tag k="name" v="Ura" />
		<tag k="natural" v="scree" />
		<tag k="ssr:stedsnr" v="750573" />
	</node>
	<node lat="62.6837611110404" lon="7.710955553843755" id="-7824">
		<tag k="name" v="Stormyra" />
		<tag k="natural" v="wetland" />
		<tag k="ssr:stedsnr" v="760440" />
	</node>
	<node lat="62.57300555402157" lon="7.614722218926737" id="-7836">
		<tag k="name" v="Løypmyran" />
		<tag k="natural" v="wetland" />
		<tag k="ssr:stedsnr" v="762376" />
	</node>
	<node lat="62.59680555340036" lon="7.55608888213889" id="-7839">
		<tag k="name" v="Fonnenden" />
		<tag k="place" v="locality" />
		<tag k="ssr:stedsnr" v="762876" />
	</node>
	<node lat="62.521363887130995" lon="7.766727784074782" id="-7841">
		<tag k="name" v="Klavmyra" />
		<tag k="natural" v="wetland" />
		<tag k="ssr:stedsnr" v="763768" />
	</node>
	<node lat="62.51583333467859" lon="7.681536113163448" id="-7845">
		<tag k="name" v="Brasmarka" />
		<tag k="place" v="locality" />
		<tag k="ssr:stedsnr" v="764027" />
	</node>
	<node lat="62.50811111000282" lon="7.342063888602288" id="-7854">
		<tag k="name" v="Øygardan" />
		<tag k="place" v="locality" />
		<tag k="ssr:stedsnr" v="764457" />
	</node>
	<node lat="62.56817778119934" lon="7.844711118427207" id="-7858">
		<tag k="name" v="Moabøen" />
		<tag k="place" v="locality" />
		<tag k="ssr:stedsnr" v="764432" />
	</node>
	<node lat="62.59165277613247" lon="7.8995583305637895" id="-7881">
		<tag k="name" v="Haugagjerdet" />
		<tag k="place" v="locality" />
		<tag k="ssr:stedsnr" v="765666" />
	</node>
	<node lat="62.597147220741284" lon="7.916111110124161" id="-7882">
		<tag k="name" v="Kammyran" />
		<tag k="natural" v="wetland" />
		<tag k="ssr:stedsnr" v="765669" />
	</node>
	<node lat="62.58168888681639" lon="8.010888888075199" id="-7897">
		<tag k="name" v="Førhaugsteinan" />
		<tag k="natural" v="stone" />
		<tag k="ssr:stedsnr" v="800165" />
	</node>
	<node lat="62.57485833753425" lon="7.507777778107861" id="-7931">
		<tag k="name" v="Oragjerdet" />
		<tag k="place" v="locality" />
		<tag k="ssr:stedsnr" v="809984" />
	</node>
	<node lat="62.56875277518985" lon="7.520113880310227" id="-7954">
		<tag k="name" v="Langemyra" />
		<tag k="natural" v="wetland" />
		<tag k="ssr:stedsnr" v="823560" />
	</node>
	<node lat="62.5196027740585" lon="7.770494448244509" id="-7956">
		<tag k="name" v="Nygjerdet" />
		<tag k="place" v="locality" />
		<tag k="ssr:stedsnr" v="824769" />
	</node>
	<node lat="62.32575833056156" lon="8.1048861112268" id="-7980">
		<tag k="name" v="Grønlisvaet" />
		<tag k="place" v="locality" />
		<tag k="ssr:stedsnr" v="825351" />
	</node>
	<node lat="62.432716663295416" lon="7.902936107845904" id="-7989">
		<tag k="name" v="Skorsteinen" />
		<tag k="natural" v="stone" />
		<tag k="ssr:stedsnr" v="825875" />
	</node>
	<node lat="62.591761106853184" lon="7.88923889340413" id="-7998">
		<tag k="name" v="Olufgjerdet" />
		<tag k="place" v="locality" />
		<tag k="ssr:stedsnr" v="826678" />
	</node>
	<node lat="62.30653333093683" lon="7.974319436598767" id="-8024">
		<tag k="name" v="Alteret" />
		<tag k="natural" v="stone" />
		<tag k="ssr:stedsnr" v="861184" />
	</node>
	<node lat="62.5223277779268" lon="7.769388889424279" id="-8063">
		<tag k="name" v="Klavmyrura" />
		<tag k="natural" v="scree" />
		<tag k="ssr:stedsnr" v="871584" />
	</node>
	<node lat="62.57964166756514" lon="7.65914166481489" id="-8065">
		<tag k="name" v="Gråura" />
		<tag k="natural" v="scree" />
		<tag k="ssr:stedsnr" v="871754" />
	</node>
	<node lat="62.45050555786362" lon="7.508283340900834" id="-8067">
		<tag k="name" v="Litlegeilen" />
		<tag k="place" v="locality" />
		<tag k="ssr:stedsnr" v="871957" />
	</node>
	<node lat="62.68957499727804" lon="7.709452775810148" id="-8074">
		<tag k="name" v="Staursetøyan" />
		<tag k="natural" v="wetland" />
		<tag k="ssr:stedsnr" v="882433" />
	</node>
	<node lat="62.657425000249056" lon="7.7091361097335005" id="-8077">
		<tag k="name" v="Tipphaugmyran" />
		<tag k="natural" v="wetland" />
		<tag k="ssr:stedsnr" v="882976" />
	</node>
	<node lat="62.623805552430575" lon="7.534188891941284" id="-8082">
		<tag k="name" v="Storrøysa" />
		<tag k="place" v="locality" />
		<tag k="ssr:stedsnr" v="883641" />
	</node>
	<node lat="62.57863333560804" lon="7.549944438068412" id="-8087">
		<tag k="name" v="Myran" />
		<tag k="natural" v="wetland" />
		<tag k="ssr:stedsnr" v="884722" />
	</node>
	<node lat="62.497794441027175" lon="7.2944388834887866" id="-8088">
		<tag k="name" v="Kjelen" />
		<tag k="natural" v="wetland" />
		<tag k="ssr:stedsnr" v="885023" />
	</node>
	<node lat="62.50541110913183" lon="7.877063888491491" id="-8098">
		<tag k="name" v="Telen" />
		<tag k="natural" v="scree" />
		<tag k="ssr:stedsnr" v="885826" />
	</node>
	<node lat="62.544574996622345" lon="7.617386111601034" id="-8105">
		<tag k="name" v="Kobbhola" />
		<tag k="natural" v="stone" />
		<tag k="ssr:stedsnr" v="886124" />
	</node>
	<node lat="62.510555559472316" lon="7.7576611026692115" id="-8113">
		<tag k="name" v="Tuteigen" />
		<tag k="place" v="locality" />
		<tag k="ssr:stedsnr" v="886426" />
	</node>
	<node lat="62.59072499885223" lon="7.506916660128599" id="-8117">
		<tag k="name" v="Finnmarka" />
		<tag k="place" v="locality" />
		<tag k="ssr:stedsnr" v="886559" />
	</node>
	<node lat="62.49706944205275" lon="7.546766675570906" id="-8124">
		<tag k="name" v="Myran" />
		<tag k="place" v="locality" />
		<tag k="ssr:stedsnr" v="886833" />
	</node>
	<node lat="62.46933055488727" lon="7.530313886317752" id="-8127">
		<tag k="landuse" v="meadow" />
		<tag k="name" v="Blomøyna" />
		<tag k="ssr:stedsnr" v="886944" />
	</node>
	<node lat="62.58146389145179" lon="7.9296694397497935" id="-8135">
		<tag k="name" v="Størkågjerdet" />
		<tag k="place" v="locality" />
		<tag k="ssr:stedsnr" v="887579" />
	</node>
	<node lat="62.65353610972042" lon="7.616616663618232" id="-8148">
		<tag k="name" v="Djupmyra" />
		<tag k="natural" v="wetland" />
		<tag k="ssr:stedsnr" v="943691" />
	</node>
	<node lat="62.65356389288978" lon="7.518858340448177" id="-8152">
		<tag k="name" v="Markussteinen" />
		<tag k="natural" v="stone" />
		<tag k="ssr:stedsnr" v="943741" />
	</node>
	<node lat="62.698038887705415" lon="7.702500007676059" id="-8156">
		<tag k="name" v="Teigen" />
		<tag k="place" v="locality" />
		<tag k="ssr:stedsnr" v="943666" />
	</node>
	<node lat="62.62903888745754" lon="7.53736944978038" id="-8157">
		<tag k="name" v="Rolegheita" />
		<tag k="place" v="locality" />
		<tag k="ssr:stedsnr" v="944600" />
	</node>
	<node lat="62.42630832985018" lon="7.4031722133106" id="-8166">
		<tag k="name" v="Tutmyran" />
		<tag k="natural" v="wetland" />
		<tag k="ssr:stedsnr" v="946148" />
	</node>
	<node lat="62.39975277748976" lon="8.016427779317675" id="-8174">
		<tag k="name" v="Skogan" />
		<tag k="place" v="locality" />
		<tag k="ssr:stedsnr" v="946362" />
	</node>
	<node lat="62.42963610887711" lon="7.406933333793216" id="-8176">
		<tag k="name" v="Tutsteinen" />
		<tag k="natural" v="stone" />
		<tag k="ssr:stedsnr" v="946152" />
	</node>
	<node lat="62.53923333139507" lon="7.888488881159979" id="-8181">
		<tag k="name" v="Dalemyra" />
		<tag k="natural" v="wetland" />
		<tag k="ssr:stedsnr" v="946662" />
	</node>
	<node lat="62.51178889220316" lon="7.669616669869963" id="-8188">
		<tag k="name" v="Røshagen" />
		<tag k="place" v="locality" />
		<tag k="ssr:stedsnr" v="947110" />
	</node>
	<node lat="62.575736113077404" lon="7.795549995001265" id="-8202">
		<tag k="name" v="Hensbøen" />
		<tag k="place" v="locality" />
		<tag k="ssr:stedsnr" v="947412" />
	</node>
	<node lat="62.60644722297469" lon="7.4973749961286" id="-8205">
		<tag k="name" v="Stakkmyra" />
		<tag k="natural" v="wetland" />
		<tag k="ssr:stedsnr" v="947540" />
	</node>
	<node lat="62.58514722475498" lon="7.9417944536567155" id="-8211">
		<tag k="name" v="Kvitsteindokka" />
		<tag k="natural" v="stone" />
		<tag k="ssr:stedsnr" v="947654" />
=======
	<node id="-76213" lat="62.6139083301" lon="7.58098888737">
		<tag k="name" v="Nyfonna" />
		<tag k="place" v="locality" />
		<tag k="ssr:stedsnr" v="580595" />
	</node>
	<node id="-76210" lat="62.6180527785" lon="7.49640277894">
		<tag k="name" v="Kobbesteinen" />
		<tag k="natural" v="stone" />
		<tag k="ssr:stedsnr" v="579640" />
	</node>
	<node id="-76187" lat="62.5399083336" lon="7.69777221316">
		<tag k="name" v="Øygardan" />
		<tag k="place" v="locality" />
		<tag k="ssr:stedsnr" v="567755" />
	</node>
	<node id="-76186" lat="62.5911444404" lon="7.74488888614">
		<tag k="name" v="Gråura" />
		<tag k="natural" v="scree" />
		<tag k="ssr:stedsnr" v="567753" />
	</node>
	<node id="-76177" lat="62.5667361105" lon="7.59746110843">
		<tag k="landuse" v="meadow" />
		<tag k="name" v="Korgahola" />
		<tag k="ssr:stedsnr" v="566593" />
	</node>
	<node id="-76175" lat="62.6750694433" lon="7.57325555758">
		<tag k="name" v="Urin" />
		<tag k="natural" v="scree" />
		<tag k="ssr:stedsnr" v="566564" />
	</node>
	<node id="-74108" lat="62.5791055527" lon="7.75540277908">
		<tag k="name" v="Risteigen" />
		<tag k="place" v="locality" />
		<tag k="ssr:stedsnr" v="461615" />
	</node>
	<node id="-74101" lat="62.5128472257" lon="7.80600278309">
		<tag k="name" v="Skreden" />
		<tag k="place" v="locality" />
		<tag k="ssr:stedsnr" v="446618" />
	</node>
	<node id="-74097" lat="62.5215472185" lon="7.37604166303">
		<tag k="name" v="Urfonna" />
		<tag k="natural" v="scree" />
		<tag k="ssr:stedsnr" v="446102" />
	</node>
	<node id="-76134" lat="62.3530888879" lon="8.00617221525">
		<tag k="name" v="Gråtarmyra" />
		<tag k="natural" v="wetland" />
		<tag k="ssr:stedsnr" v="556044" />
	</node>
	<node id="-76124" lat="62.5162277787" lon="7.94178055864">
		<tag k="name" v="Tverrbergura" />
		<tag k="natural" v="scree" />
		<tag k="ssr:stedsnr" v="522832" />
	</node>
	<node id="-76122" lat="62.5385611095" lon="7.9226555497">
		<tag k="name" v="Bjørnasteinen" />
		<tag k="natural" v="stone" />
		<tag k="ssr:stedsnr" v="522785" />
	</node>
	<node id="-76115" lat="62.583325003" lon="7.95604443659">
		<tag k="name" v="Stormyrsteinen" />
		<tag k="natural" v="stone" />
		<tag k="ssr:stedsnr" v="522608" />
	</node>
	<node id="-74063" lat="62.5416138847" lon="7.88523610165">
		<tag k="name" v="Dalemyra" />
		<tag k="natural" v="wetland" />
		<tag k="ssr:stedsnr" v="436118" />
	</node>
	<node id="-76110" lat="62.5703694411" lon="7.99604722086">
		<tag k="name" v="Storura" />
		<tag k="natural" v="scree" />
		<tag k="ssr:stedsnr" v="522582" />
	</node>
	<node id="-76106" lat="62.5805222203" lon="7.92415832593">
		<tag k="name" v="Olegjerdet" />
		<tag k="place" v="locality" />
		<tag k="ssr:stedsnr" v="522559" />
	</node>
	<node id="-76101" lat="62.591891669" lon="7.83596388021">
		<tag k="name" v="Brymyra" />
		<tag k="natural" v="wetland" />
		<tag k="ssr:stedsnr" v="522430" />
	</node>
	<node id="-74047" lat="62.4840527761" lon="7.56679722015">
		<tag k="name" v="Gråurin" />
		<tag k="natural" v="scree" />
		<tag k="ssr:stedsnr" v="506994" />
	</node>
	<node id="-74029" lat="62.4502916686" lon="7.4776611084">
		<tag k="name" v="Urfonna" />
		<tag k="place" v="locality" />
		<tag k="ssr:stedsnr" v="385953" />
	</node>
	<node id="-74027" lat="62.4864555554" lon="7.55736388613">
		<tag k="name" v="Nerbømyran" />
		<tag k="natural" v="wetland" />
		<tag k="ssr:stedsnr" v="385518" />
	</node>
	<node id="-76067" lat="62.5368333378" lon="7.50963889222">
		<tag k="name" v="Åttmællingan" />
		<tag k="place" v="locality" />
		<tag k="ssr:stedsnr" v="521525" />
	</node>
	<node id="-74016" lat="62.6112388914" lon="7.6213611086">
		<tag k="name" v="Hestefonna" />
		<tag k="place" v="locality" />
		<tag k="ssr:stedsnr" v="519678" />
	</node>
	<node id="-76063" lat="62.581133336" lon="7.84233332606">
		<tag k="name" v="Kalvegeilen" />
		<tag k="place" v="locality" />
		<tag k="ssr:stedsnr" v="521459" />
	</node>
	<node id="-76062" lat="62.5854972263" lon="7.82734722571">
		<tag k="name" v="Stormyra" />
		<tag k="natural" v="wetland" />
		<tag k="ssr:stedsnr" v="521454" />
	</node>
	<node id="-76055" lat="62.5740972257" lon="7.85131389439">
		<tag k="name" v="Kavliskogen" />
		<tag k="place" v="locality" />
		<tag k="ssr:stedsnr" v="521426" />
	</node>
	<node id="-76054" lat="62.5029194478" lon="7.36687221329">
		<tag k="name" v="Kringletesvaet" />
		<tag k="place" v="locality" />
		<tag k="ssr:stedsnr" v="521421" />
	</node>
	<node id="-76050" lat="62.3133499992" lon="8.12756388865">
		<tag k="name" v="Tettmyra" />
		<tag k="natural" v="wetland" />
		<tag k="ssr:stedsnr" v="521403" />
	</node>
	<node id="-76043" lat="62.4375916642" lon="7.47369445257">
		<tag k="name" v="Slettefonna" />
		<tag k="place" v="locality" />
		<tag k="ssr:stedsnr" v="521212" />
	</node>
	<node id="-76040" lat="62.5996444401" lon="7.24750555168">
		<tag k="name" v="Myran" />
		<tag k="natural" v="wetland" />
		<tag k="ssr:stedsnr" v="521189" />
	</node>
	<node id="-76023" lat="62.5927694478" lon="7.54584443564">
		<tag k="name" v="Myra" />
		<tag k="natural" v="wetland" />
		<tag k="ssr:stedsnr" v="519991" />
	</node>
	<node id="-76022" lat="62.5725333357" lon="7.54136110449">
		<tag k="name" v="Løypmyra" />
		<tag k="natural" v="wetland" />
		<tag k="ssr:stedsnr" v="519886" />
	</node>
	<node id="-76933" lat="62.5223277779" lon="7.76938888942">
		<tag k="name" v="Klavmyrura" />
		<tag k="natural" v="scree" />
		<tag k="ssr:stedsnr" v="871584" />
	</node>
	<node id="-75468" lat="62.530891667" lon="7.88921110239">
		<tag k="name" v="Stormyra" />
		<tag k="natural" v="wetland" />
		<tag k="ssr:stedsnr" v="157807" />
	</node>
	<node id="-73916" lat="62.376544445" lon="7.93252777913">
		<tag k="name" v="Stormyra" />
		<tag k="natural" v="wetland" />
		<tag k="ssr:stedsnr" v="496026" />
	</node>
	<node id="-75959" lat="62.519027781" lon="7.94414444432">
		<tag k="name" v="Fantesteinen" />
		<tag k="natural" v="stone" />
		<tag k="ssr:stedsnr" v="401822" />
	</node>
	<node id="-75953" lat="62.5824333353" lon="7.91574166725">
		<tag k="name" v="Morstølbakken" />
		<tag k="place" v="locality" />
		<tag k="ssr:stedsnr" v="401571" />
	</node>
	<node id="-75951" lat="62.578355552" lon="7.90207221849">
		<tag k="name" v="Langemyra" />
		<tag k="natural" v="wetland" />
		<tag k="ssr:stedsnr" v="401564" />
	</node>
	<node id="-75940" lat="62.5080527823" lon="7.78629999916">
		<tag k="name" v="Seljefonna" />
		<tag k="place" v="locality" />
		<tag k="ssr:stedsnr" v="400811" />
	</node>
	<node id="-73891" lat="62.6204555524" lon="7.43371111214">
		<tag k="name" v="Småmyran" />
		<tag k="natural" v="wetland" />
		<tag k="ssr:stedsnr" v="519603" />
	</node>
	<node id="-75929" lat="62.5319083331" lon="7.69815277567">
		<tag k="name" v="Smalmelan" />
		<tag k="place" v="locality" />
		<tag k="ssr:stedsnr" v="400702" />
	</node>
	<node id="-75921" lat="62.5814861128" lon="7.49773610331">
		<tag k="name" v="Kroken" />
		<tag k="place" v="locality" />
		<tag k="ssr:stedsnr" v="400627" />
	</node>
	<node id="-75908" lat="62.5280333318" lon="7.71686944972">
		<tag k="name" v="Soggemelen" />
		<tag k="place" v="locality" />
		<tag k="ssr:stedsnr" v="400535" />
	</node>
	<node id="-75903" lat="62.5808694483" lon="7.83936110969">
		<tag k="name" v="Vollen" />
		<tag k="place" v="locality" />
		<tag k="ssr:stedsnr" v="400475" />
	</node>
	<node id="-75900" lat="62.6069055522" lon="7.8390361199">
		<tag k="name" v="Fantesteinen" />
		<tag k="natural" v="stone" />
		<tag k="ssr:stedsnr" v="400426" />
	</node>
	<node id="-73851" lat="62.5234916633" lon="7.94000000576">
		<tag k="name" v="Hellarteigen" />
		<tag k="place" v="locality" />
		<tag k="ssr:stedsnr" v="462763" />
	</node>
	<node id="-75896" lat="62.5696361079" lon="7.80621389209">
		<tag k="name" v="Svarthammaren" />
		<tag k="place" v="locality" />
		<tag k="ssr:stedsnr" v="400414" />
	</node>
	<node id="-75895" lat="62.5714500031" lon="7.82152500441">
		<tag k="name" v="Myrteigen" />
		<tag k="place" v="locality" />
		<tag k="ssr:stedsnr" v="400411" />
	</node>
	<node id="-75894" lat="62.5732250017" lon="7.81738610752">
		<tag k="name" v="Bugroteigen" />
		<tag k="place" v="locality" />
		<tag k="ssr:stedsnr" v="400408" />
	</node>
	<node id="-73845" lat="62.5779555516" lon="7.89032778186">
		<tag k="name" v="Hallvardgjerdet" />
		<tag k="place" v="locality" />
		<tag k="ssr:stedsnr" v="462581" />
	</node>
	<node id="-73833" lat="62.5370888847" lon="7.43900832975">
		<tag k="name" v="Øyran" />
		<tag k="place" v="locality" />
		<tag k="ssr:stedsnr" v="461907" />
	</node>
	<node id="-73824" lat="62.5585833366" lon="7.70210277453">
		<tag k="landuse" v="meadow" />
		<tag k="name" v="Neshagen" />
		<tag k="ssr:stedsnr" v="461736" />
	</node>
	<node id="-75871" lat="62.5153416652" lon="7.77646388828">
		<tag k="name" v="Hengjesteinen" />
		<tag k="natural" v="stone" />
		<tag k="ssr:stedsnr" v="399750" />
	</node>
	<node id="-73822" lat="62.5454333301" lon="7.72288888313">
		<tag k="landuse" v="meadow" />
		<tag k="name" v="Mjelvabøen" />
		<tag k="ssr:stedsnr" v="461732" />
	</node>
	<node id="-75867" lat="62.6133111127" lon="7.57993333573">
		<tag k="name" v="Gammelfonna" />
		<tag k="place" v="locality" />
		<tag k="ssr:stedsnr" v="398615" />
	</node>
	<node id="-75866" lat="62.6230333315" lon="7.60116111055">
		<tag k="name" v="Stormyra" />
		<tag k="natural" v="wetland" />
		<tag k="ssr:stedsnr" v="398611" />
	</node>
	<node id="-75862" lat="62.5730000042" lon="7.61880555298">
		<tag k="name" v="Slipsteinmyra" />
		<tag k="natural" v="wetland" />
		<tag k="ssr:stedsnr" v="398360" />
	</node>
	<node id="-75858" lat="62.6579805542" lon="7.57885276939">
		<tag k="name" v="Brødsteinen" />
		<tag k="natural" v="stone" />
		<tag k="ssr:stedsnr" v="397731" />
	</node>
	<node id="-75856" lat="62.6289361143" lon="7.52780555365">
		<tag k="name" v="Rødset" />
		<tag k="place" v="locality" />
		<tag k="ssr:stedsnr" v="397561" />
	</node>
	<node id="-73802" lat="62.583100001" lon="7.84264722372">
		<tag k="name" v="Kjerringhussteinen" />
		<tag k="natural" v="stone" />
		<tag k="ssr:stedsnr" v="461482" />
	</node>
	<node id="-75842" lat="62.6987999984" lon="7.6946305465">
		<tag k="name" v="Einen" />
		<tag k="place" v="locality" />
		<tag k="ssr:stedsnr" v="396482" />
	</node>
	<node id="-73792" lat="62.4941333303" lon="7.66303889187">
		<tag k="name" v="Vadstadbakkmyra" />
		<tag k="natural" v="wetland" />
		<tag k="ssr:stedsnr" v="461335" />
	</node>
	<node id="-75836" lat="62.6552111141" lon="7.50059443817">
		<tag k="name" v="Oppistaua" />
		<tag k="place" v="locality" />
		<tag k="ssr:stedsnr" v="385998" />
	</node>
	<node id="-75833" lat="62.4508805547" lon="7.50242222026">
		<tag k="name" v="Storura" />
		<tag k="natural" v="scree" />
		<tag k="ssr:stedsnr" v="385946" />
	</node>
	<node id="-73781" lat="62.5135166678" lon="7.66513055985">
		<tag k="name" v="Hestemyra" />
		<tag k="natural" v="wetland" />
		<tag k="ssr:stedsnr" v="461112" />
	</node>
	<node id="-75824" lat="62.6583750011" lon="7.56175832874">
		<tag k="name" v="Herjemyrane" />
		<tag k="natural" v="wetland" />
		<tag k="ssr:stedsnr" v="376642" />
	</node>
	<node id="-73775" lat="62.4897305576" lon="7.55170554714">
		<tag k="name" v="Øyan" />
		<tag k="place" v="locality" />
		<tag k="ssr:stedsnr" v="460893" />
	</node>
	<node id="-73774" lat="62.4805416641" lon="7.54821944829">
		<tag k="name" v="Lykkja" />
		<tag k="place" v="locality" />
		<tag k="ssr:stedsnr" v="460889" />
	</node>
	<node id="-73772" lat="62.5055666705" lon="7.8731388794">
		<tag k="name" v="Jolgrøhamran" />
		<tag k="natural" v="scree" />
		<tag k="ssr:stedsnr" v="460884" />
	</node>
	<node id="-73771" lat="62.517772221" lon="7.76394999971">
		<tag k="name" v="Sjursteinen" />
		<tag k="natural" v="stone" />
		<tag k="ssr:stedsnr" v="460815" />
	</node>
	<node id="-73770" lat="62.5191749959" lon="7.76514445387">
		<tag k="name" v="Nerholejordet" />
		<tag k="place" v="locality" />
		<tag k="ssr:stedsnr" v="460813" />
	</node>
	<node id="-73765" lat="62.5320472254" lon="7.4867611037">
		<tag k="name" v="Hovdemyra" />
		<tag k="natural" v="wetland" />
		<tag k="ssr:stedsnr" v="460572" />
	</node>
	<node id="-75804" lat="62.567602774" lon="7.55051943787">
		<tag k="name" v="Åsamyra" />
		<tag k="natural" v="wetland" />
		<tag k="ssr:stedsnr" v="375497" />
	</node>
	<node id="-73754" lat="62.4713694436" lon="7.66287499693">
		<tag k="name" v="Hundekyrkja" />
		<tag k="natural" v="stone" />
		<tag k="ssr:stedsnr" v="279113" />
>>>>>>> e1d4bc35ff8a6074a6f2e91616a996b547c36f15
	</node>
</osm>
