<?xml version="1.0" encoding="UTF-8"?>
<osm version="0.6" generator="osmapis">
	<node lat="61.77754167106066" lon="9.724036115459015" id="-20674">
		<tag k="name" v="Furusjøen" />
		<tag k="natural" v="water" />
		<tag k="ssr:date" v="2020-05-20" />
		<tag k="ssr:gruppe" v="stilleståendeVann" />
		<tag k="ssr:hovedgruppe" v="ferskvann" />
		<tag k="ssr:stedsnr" v="253579" />
		<tag k="ssr:type" v="vann" />
		<tag k="water" v="lake" />
	</node>
	<node lat="61.60553055396531" lon="9.762213893833433" id="-20675">
		<tag k="alt_name" v="Øvre Brenna" />
		<tag k="name" v="Brenna" />
		<tag k="place" v="farm" />
		<tag k="ssr:date" v="2019-12-27" />
		<tag k="ssr:gruppe" v="gardsbebyggelse" />
		<tag k="ssr:hovedgruppe" v="bebyggelse" />
		<tag k="ssr:stedsnr" v="253581" />
		<tag k="ssr:type" v="bruk" />
	</node>
	<node lat="61.471669445570015" lon="9.15568055532209" id="-20676">
		<tag k="name" v="Hinøgla" />
		<tag k="ssr:date" v="2019-12-27" />
		<tag k="ssr:gruppe" v="rennendeVann" />
		<tag k="ssr:hovedgruppe" v="ferskvann" />
		<tag k="ssr:stedsnr" v="7261" />
		<tag k="ssr:type" v="elv" />
		<tag k="waterway" v="river" />
	</node>
	<node lat="61.58548055988542" lon="9.307655549235042" id="-20677">
		<tag k="name" v="Ungstadbua" />
		<tag k="place" v="isolated_dwelling" />
		<tag k="ssr:date" v="2019-12-27" />
		<tag k="ssr:gruppe" v="bolighus" />
		<tag k="ssr:hovedgruppe" v="bebyggelse" />
		<tag k="ssr:stedsnr" v="231112" />
		<tag k="ssr:type" v="fritidsbolig" />
	</node>
	<node lat="61.350311107998785" lon="9.191305553818783" id="-20678">
		<tag k="name" v="Småosan" />
		<tag k="natural" v="bay" />
		<tag k="ssr:date" v="2019-12-27" />
		<tag k="ssr:gruppe" v="rennendeVann" />
		<tag k="ssr:hovedgruppe" v="ferskvann" />
		<tag k="ssr:stedsnr" v="8052" />
		<tag k="ssr:type" v="os" />
	</node>
	<node lat="61.398636115392726" lon="9.231524993406433" id="-20679">
		<tag k="alt_name" v="Raudaurbekken" />
		<tag k="name" v="Rauaurbekken" />
		<tag k="ssr:date" v="2019-12-27" />
		<tag k="ssr:gruppe" v="rennendeVann" />
		<tag k="ssr:hovedgruppe" v="ferskvann" />
		<tag k="ssr:stedsnr" v="8491" />
		<tag k="ssr:type" v="bekk" />
		<tag k="waterway" v="stream" />
	</node>
	<node lat="61.411630551482766" lon="9.355150007320203" id="-20680">
		<tag k="historic" v="shieling" />
		<tag k="name" v="Melbysætra" />
		<tag k="place" v="isolated_dwelling" />
		<tag k="ssr:date" v="2019-12-27" />
		<tag k="ssr:gruppe" v="gardsbebyggelse" />
		<tag k="ssr:hovedgruppe" v="bebyggelse" />
		<tag k="ssr:stedsnr" v="8495" />
		<tag k="ssr:type" v="seterStøl" />
	</node>
	<node lat="61.75929444348869" lon="9.817891668136182" id="-20681">
		<tag k="historic" v="shieling" />
		<tag k="name" v="Knipsætra" />
		<tag k="place" v="isolated_dwelling" />
		<tag k="ssr:date" v="2019-12-27" />
		<tag k="ssr:gruppe" v="gardsbebyggelse" />
		<tag k="ssr:hovedgruppe" v="bebyggelse" />
		<tag k="ssr:stedsnr" v="232440" />
		<tag k="ssr:type" v="seterStøl" />
	</node>
	<node lat="61.75356944587367" lon="9.813686117387252" id="-20682">
		<tag k="name" v="Hølmin" />
		<tag k="place" v="islet" />
		<tag k="ssr:date" v="2019-12-27" />
		<tag k="ssr:gruppe" v="ferskvannskontur" />
		<tag k="ssr:hovedgruppe" v="ferskvann" />
		<tag k="ssr:stedsnr" v="232445" />
		<tag k="ssr:type" v="holme" />
	</node>
	<node lat="61.76688611121677" lon="9.736824994087879" id="-20683">
		<tag k="name" v="Steinholmen" />
		<tag k="place" v="islet" />
		<tag k="ssr:date" v="2019-12-27" />
		<tag k="ssr:gruppe" v="ferskvannskontur" />
		<tag k="ssr:hovedgruppe" v="ferskvann" />
		<tag k="ssr:stedsnr" v="10495" />
		<tag k="ssr:type" v="holme" />
	</node>
	<node lat="61.766349999542875" lon="9.826775002432594" id="-20684">
		<tag k="name" v="Buåa" />
		<tag k="ssr:date" v="2019-12-27" />
		<tag k="ssr:gruppe" v="rennendeVann" />
		<tag k="ssr:hovedgruppe" v="ferskvann" />
		<tag k="ssr:stedsnr" v="10496" />
		<tag k="ssr:type" v="bekk" />
		<tag k="waterway" v="stream" />
	</node>
	<node lat="61.66322777482015" lon="9.570055560382164" id="-20685">
		<tag k="alt_name" v="Skuløya" />
		<tag k="name" v="Skurdøya" />
		<tag k="place" v="island" />
		<tag k="ssr:date" v="2019-12-27" />
		<tag k="ssr:gruppe" v="ferskvannskontur" />
		<tag k="ssr:hovedgruppe" v="ferskvann" />
		<tag k="ssr:stedsnr" v="10500" />
		<tag k="ssr:type" v="øy" />
	</node>
	<node lat="61.58320833125829" lon="9.725263888448387" id="-20686">
		<tag k="alt_name" v="Bryn" />
		<tag k="name" v="Nordgard Bryn" />
		<tag k="place" v="farm" />
		<tag k="ssr:date" v="2019-12-27" />
		<tag k="ssr:gruppe" v="gardsbebyggelse" />
		<tag k="ssr:hovedgruppe" v="bebyggelse" />
		<tag k="ssr:stedsnr" v="10603" />
		<tag k="ssr:type" v="bruk" />
	</node>
	<node lat="61.5881071279214" lon="9.77245901375689" id="-20687">
		<tag k="fixme" v="consider place=hamlet" />
		<tag k="name" v="Moen" />
		<tag k="place" v="farm" />
		<tag k="ssr:date" v="2019-12-27" />
		<tag k="ssr:gruppe" v="gardsbebyggelse" />
		<tag k="ssr:hovedgruppe" v="bebyggelse" />
		<tag k="ssr:stedsnr" v="10605" />
		<tag k="ssr:type" v="gard" />
	</node>
	<node lat="61.52194721846629" lon="9.391061105842747" id="-20688">
		<tag k="name" v="Kamsli" />
		<tag k="place" v="farm" />
		<tag k="ssr:date" v="2019-12-27" />
		<tag k="ssr:gruppe" v="gardsbebyggelse" />
		<tag k="ssr:hovedgruppe" v="bebyggelse" />
		<tag k="ssr:stedsnr" v="10612" />
		<tag k="ssr:type" v="bruk" />
	</node>
	<node lat="61.51038888786283" lon="9.338091674180067" id="-20689">
		<tag k="fixme" v="consider natural=peak for the most distinct mountains in the district" />
		<tag k="name" v="Skardfjellet" />
		<tag k="natural" v="hill" />
		<tag k="place" v="locality" />
		<tag k="ssr:date" v="2019-12-27" />
		<tag k="ssr:gruppe" v="høyder" />
		<tag k="ssr:hovedgruppe" v="terreng" />
		<tag k="ssr:stedsnr" v="10614" />
		<tag k="ssr:type" v="fjell" />
	</node>
	<node lat="61.55669444811208" lon="9.773016663337705" id="-20690">
		<tag k="alt_name" v="Jora" />
		<tag k="name" v="Jorda" />
		<tag k="ssr:date" v="2019-12-27" />
		<tag k="ssr:gruppe" v="rennendeVann" />
		<tag k="ssr:hovedgruppe" v="ferskvann" />
		<tag k="ssr:stedsnr" v="10616" />
		<tag k="ssr:type" v="bekk" />
		<tag k="waterway" v="stream" />
	</node>
	<node lat="61.52240209426054" lon="9.39970329125216" id="-20691">
		<tag k="fixme" v="consider place=hamlet" />
		<tag k="name" v="Kampesæter" />
		<tag k="old_name" v="Kampeseter" />
		<tag k="place" v="farm" />
		<tag k="ssr:date" v="2019-12-27" />
		<tag k="ssr:gruppe" v="gardsbebyggelse" />
		<tag k="ssr:hovedgruppe" v="bebyggelse" />
		<tag k="ssr:stedsnr" v="10638" />
		<tag k="ssr:type" v="gard" />
	</node>
	<node lat="61.61930025468207" lon="9.838295808613248" id="-20692">
		<tag k="historic" v="shieling" />
		<tag k="name" v="Nysætra" />
		<tag k="old_name" v="Nysæter" />
		<tag k="place" v="isolated_dwelling" />
		<tag k="ssr:date" v="2020-07-06" />
		<tag k="ssr:gruppe" v="gardsbebyggelse" />
		<tag k="ssr:hovedgruppe" v="bebyggelse" />
		<tag k="ssr:stedsnr" v="10501" />
		<tag k="ssr:type" v="seterStøl" />
	</node>
	<node lat="61.59024441598366" lon="9.787971484146409" id="-20693">
		<tag k="name" v="Brandvol" />
		<tag k="old_name" v="Brandvoll" />
		<tag k="place" v="hamlet" />
		<tag k="ssr:date" v="2019-12-27" />
		<tag k="ssr:gruppe" v="gardsbebyggelse" />
		<tag k="ssr:hovedgruppe" v="bebyggelse" />
		<tag k="ssr:stedsnr" v="10532" />
		<tag k="ssr:type" v="navnegard" />
	</node>
	<node lat="61.592508337738884" lon="9.743141664558893" id="-20694">
		<tag k="alt_name" v="Ytre Odden" />
		<tag k="name" v="Odden" />
		<tag k="place" v="farm" />
		<tag k="ssr:date" v="2019-12-27" />
		<tag k="ssr:gruppe" v="gardsbebyggelse" />
		<tag k="ssr:hovedgruppe" v="bebyggelse" />
		<tag k="ssr:stedsnr" v="10537" />
		<tag k="ssr:type" v="bruk" />
	</node>
	<node lat="61.60462777365616" lon="9.522138895668574" id="-20695">
		<tag k="alt_name" v="Masdøla" />
		<tag k="name" v="Massdøla" />
		<tag k="ssr:date" v="2019-12-27" />
		<tag k="ssr:gruppe" v="rennendeVann" />
		<tag k="ssr:hovedgruppe" v="ferskvann" />
		<tag k="ssr:stedsnr" v="10540" />
		<tag k="ssr:type" v="bekk" />
		<tag k="waterway" v="stream" />
	</node>
	<node lat="61.60447777635589" lon="9.464366675967483" id="-20696">
		<tag k="alt_name" v="Knivsteinan" />
		<tag k="name" v="Knivsteinen" />
		<tag k="place" v="locality" />
		<tag k="ssr:date" v="2019-12-27" />
		<tag k="ssr:gruppe" v="kulturminner" />
		<tag k="ssr:hovedgruppe" v="kultur" />
		<tag k="ssr:stedsnr" v="10542" />
		<tag k="ssr:type" v="annenKulturdetalj" />
	</node>
	<node lat="61.57542427502256" lon="9.732972018358993" id="-20697">
		<tag k="alt_name" v="Stor-Lunde" />
		<tag k="fixme" v="consider place=hamlet" />
		<tag k="name" v="Storlunde" />
		<tag k="place" v="farm" />
		<tag k="ssr:date" v="2019-12-27" />
		<tag k="ssr:gruppe" v="gardsbebyggelse" />
		<tag k="ssr:hovedgruppe" v="bebyggelse" />
		<tag k="ssr:stedsnr" v="10585" />
		<tag k="ssr:type" v="gard" />
	</node>
	<node lat="61.574819442398" lon="9.737802768517518" id="-20698">
		<tag k="fixme" v="consider place=hamlet" />
		<tag k="name" v="Ruste" />
		<tag k="place" v="village" />
		<tag k="ssr:date" v="2019-12-27" />
		<tag k="ssr:gruppe" v="bebyggelsesområder" />
		<tag k="ssr:hovedgruppe" v="bebyggelse" />
		<tag k="ssr:stedsnr" v="10587" />
		<tag k="ssr:type" v="bygdelagBygd" />
	</node>
	<node lat="61.580572218416755" lon="9.66122776926253" id="-20699">
		<tag k="name" v="Åsgård" />
		<tag k="old_name" v="Åsgard" />
		<tag k="place" v="farm" />
		<tag k="ssr:date" v="2019-12-27" />
		<tag k="ssr:gruppe" v="gardsbebyggelse" />
		<tag k="ssr:hovedgruppe" v="bebyggelse" />
		<tag k="ssr:stedsnr" v="10596" />
		<tag k="ssr:type" v="bruk" />
	</node>
	<node lat="61.5887000037514" lon="9.656100006841518" id="-20700">
		<tag k="fixme" v="multiple name tags, choose one and add the other to alt_name; consider natural=peak for the most distinct mountains in the district" />
		<tag k="name" v="Kongslikampen;Åsen" />
		<tag k="natural" v="hill" />
		<tag k="place" v="locality" />
		<tag k="ssr:date" v="2019-12-27" />
		<tag k="ssr:gruppe" v="høyder" />
		<tag k="ssr:hovedgruppe" v="terreng" />
		<tag k="ssr:stedsnr" v="10598" />
		<tag k="ssr:type" v="fjell" />
	</node>
	<node lat="61.5878505413216" lon="9.710564086550416" id="-20701">
		<tag k="fixme" v="consider place=hamlet" />
		<tag k="name" v="Lo" />
		<tag k="place" v="farm" />
		<tag k="ssr:date" v="2019-12-27" />
		<tag k="ssr:gruppe" v="gardsbebyggelse" />
		<tag k="ssr:hovedgruppe" v="bebyggelse" />
		<tag k="ssr:stedsnr" v="10599" />
		<tag k="ssr:type" v="gard" />
	</node>
	<node lat="61.665000001109675" lon="9.687733324528143" id="-20702">
		<tag k="name" v="Kvam" />
		<tag k="place" v="village" />
		<tag k="ssr:date" v="2019-12-27" />
		<tag k="ssr:gruppe" v="bebyggelsesområder" />
		<tag k="ssr:hovedgruppe" v="bebyggelse" />
		<tag k="ssr:stedsnr" v="10706" />
		<tag k="ssr:type" v="tettsted" />
	</node>
	<node lat="61.662694107282896" lon="9.725765166836764" id="-20703">
		<tag k="fixme" v="consider place=hamlet" />
		<tag k="name" v="Vik" />
		<tag k="place" v="farm" />
		<tag k="ssr:date" v="2019-12-27" />
		<tag k="ssr:gruppe" v="gardsbebyggelse" />
		<tag k="ssr:hovedgruppe" v="bebyggelse" />
		<tag k="ssr:stedsnr" v="10708" />
		<tag k="ssr:type" v="gard" />
	</node>
	<node lat="61.66943333694424" lon="9.580452775352022" id="-20704">
		<tag k="name" v="Bjørkerusta" />
		<tag k="place" v="hamlet" />
		<tag k="ssr:date" v="2019-12-27" />
		<tag k="ssr:gruppe" v="gardsbebyggelse" />
		<tag k="ssr:hovedgruppe" v="bebyggelse" />
		<tag k="ssr:stedsnr" v="10735" />
		<tag k="ssr:type" v="navnegard" />
	</node>
	<node lat="61.660375002339016" lon="9.687324993702905" id="-20705">
		<tag k="name" v="Lia" />
		<tag k="place" v="farm" />
		<tag k="ssr:date" v="2019-12-27" />
		<tag k="ssr:gruppe" v="gardsbebyggelse" />
		<tag k="ssr:hovedgruppe" v="bebyggelse" />
		<tag k="ssr:stedsnr" v="10740" />
		<tag k="ssr:type" v="bruk" />
	</node>
	<node lat="61.65560277534045" lon="9.60768889368776" id="-20706">
		<tag k="fixme" v="multiple name tags, choose one and add the other to alt_name" />
		<tag k="name" v="Feten;Ruststugufeten" />
		<tag k="place" v="farm" />
		<tag k="ssr:date" v="2019-12-27" />
		<tag k="ssr:gruppe" v="gardsbebyggelse" />
		<tag k="ssr:hovedgruppe" v="bebyggelse" />
		<tag k="ssr:stedsnr" v="10742" />
		<tag k="ssr:type" v="bruk" />
	</node>
	<node lat="61.50900000361033" lon="9.136749994293918" id="-20707">
		<tag k="historic" v="shieling" />
		<tag k="name" v="Åkresætra" />
		<tag k="place" v="isolated_dwelling" />
		<tag k="ssr:date" v="2019-12-27" />
		<tag k="ssr:gruppe" v="gardsbebyggelse" />
		<tag k="ssr:hovedgruppe" v="bebyggelse" />
		<tag k="ssr:stedsnr" v="10883" />
		<tag k="ssr:type" v="seterStøl" />
	</node>
	<node lat="61.50075833063138" lon="9.204211115886247" id="-20708">
		<tag k="alt_name" v="Kaldtjørna" />
		<tag k="name" v="Kaldtjønna" />
		<tag k="natural" v="water" />
		<tag k="ssr:date" v="2019-12-27" />
		<tag k="ssr:gruppe" v="stilleståendeVann" />
		<tag k="ssr:hovedgruppe" v="ferskvann" />
		<tag k="ssr:stedsnr" v="10887" />
		<tag k="ssr:type" v="tjern" />
	</node>
	<node lat="61.76114166977311" lon="9.763466660518489" id="-20709">
		<tag k="alt_name" v="Hovdesætrin" />
		<tag k="historic" v="shieling" />
		<tag k="name" v="Hovde" />
		<tag k="place" v="isolated_dwelling" />
		<tag k="ssr:date" v="2019-12-27" />
		<tag k="ssr:gruppe" v="gardsbebyggelse" />
		<tag k="ssr:hovedgruppe" v="bebyggelse" />
		<tag k="ssr:stedsnr" v="11509" />
		<tag k="ssr:type" v="seterStøl" />
	</node>
	<node lat="61.69424166886986" lon="9.59720556154749" id="-20710">
		<tag k="historic" v="shieling" />
		<tag k="name" v="Søre Kolloen seter" />
		<tag k="place" v="isolated_dwelling" />
		<tag k="ssr:date" v="2019-12-27" />
		<tag k="ssr:gruppe" v="gardsbebyggelse" />
		<tag k="ssr:hovedgruppe" v="bebyggelse" />
		<tag k="ssr:stedsnr" v="231945" />
		<tag k="ssr:type" v="seterStøl" />
	</node>
	<node lat="61.712433333636874" lon="9.607188892226327" id="-20711">
		<tag k="highway" v="path" />
		<tag k="name" v="Rustbakkråket" />
		<tag k="ssr:date" v="2019-12-27" />
		<tag k="ssr:gruppe" v="veg" />
		<tag k="ssr:hovedgruppe" v="infrastruktur" />
		<tag k="ssr:stedsnr" v="231947" />
		<tag k="ssr:type" v="sti" />
	</node>
	<node lat="61.73134444106502" lon="9.685269452876659" id="-20712">
		<tag k="name" v="Kjerringsletta" />
		<tag k="place" v="locality" />
		<tag k="ssr:date" v="2019-12-27" />
		<tag k="ssr:gruppe" v="flater" />
		<tag k="ssr:hovedgruppe" v="terreng" />
		<tag k="ssr:stedsnr" v="232232" />
		<tag k="ssr:type" v="slette" />
	</node>
	<node lat="61.709708335054" lon="9.887916663935224" id="-20713">
		<tag k="historic" v="shieling" />
		<tag k="name" v="Hågåsætra" />
		<tag k="place" v="isolated_dwelling" />
		<tag k="ssr:date" v="2019-12-27" />
		<tag k="ssr:gruppe" v="gardsbebyggelse" />
		<tag k="ssr:hovedgruppe" v="bebyggelse" />
		<tag k="ssr:stedsnr" v="233766" />
		<tag k="ssr:type" v="seterStøl" />
	</node>
	<node lat="61.485325000303874" lon="9.656580548956217" id="-20714">
		<tag k="name" v="Nørdre Berget" />
		<tag k="natural" v="hill" />
		<tag k="place" v="locality" />
		<tag k="ssr:date" v="2019-12-27" />
		<tag k="ssr:gruppe" v="høyder" />
		<tag k="ssr:hovedgruppe" v="terreng" />
		<tag k="ssr:stedsnr" v="234150" />
		<tag k="ssr:type" v="berg" />
	</node>
	<node lat="61.58023055572952" lon="9.676255551973192" id="-20715">
		<tag k="fixme" v="consider natural=peak for the most distinct mountains in the district" />
		<tag k="name" v="Kammen" />
		<tag k="natural" v="hill" />
		<tag k="place" v="locality" />
		<tag k="ssr:date" v="2019-12-27" />
		<tag k="ssr:gruppe" v="høyder" />
		<tag k="ssr:hovedgruppe" v="terreng" />
		<tag k="ssr:stedsnr" v="234066" />
		<tag k="ssr:type" v="ås" />
	</node>
	<node lat="61.47273888461272" lon="9.654641662616374" id="-20716">
		<tag k="name" v="Immerttjønnglupen" />
		<tag k="natural" v="valley" />
		<tag k="place" v="locality" />
		<tag k="ssr:date" v="2019-12-27" />
		<tag k="ssr:gruppe" v="senkninger" />
		<tag k="ssr:hovedgruppe" v="terreng" />
		<tag k="ssr:stedsnr" v="234125" />
		<tag k="ssr:type" v="skar" />
	</node>
	<node lat="61.54579999835135" lon="9.547141675986664" id="-20717">
		<tag k="fixme" v="consider natural=peak for the most distinct mountains in the district" />
		<tag k="name" v="Fuglhaugen" />
		<tag k="natural" v="hill" />
		<tag k="place" v="locality" />
		<tag k="ssr:date" v="2021-06-08" />
		<tag k="ssr:gruppe" v="høyder" />
		<tag k="ssr:hovedgruppe" v="terreng" />
		<tag k="ssr:stedsnr" v="24675" />
		<tag k="ssr:type" v="ås" />
	</node>
	<node lat="61.574516670205995" lon="9.609697218722557" id="-20718">
		<tag k="name" v="Tøftekleiva" />
		<tag k="natural" v="slope" />
		<tag k="place" v="locality" />
		<tag k="ssr:date" v="2019-12-27" />
		<tag k="ssr:gruppe" v="skråninger" />
		<tag k="ssr:hovedgruppe" v="terreng" />
		<tag k="ssr:stedsnr" v="234176" />
		<tag k="ssr:type" v="bakke" />
	</node>
	<node lat="61.667061107607466" lon="9.774427769456654" id="-20719">
		<tag k="historic" v="shieling" />
		<tag k="name" v="Lundsætra" />
		<tag k="place" v="isolated_dwelling" />
		<tag k="ssr:date" v="2019-12-27" />
		<tag k="ssr:gruppe" v="gardsbebyggelse" />
		<tag k="ssr:hovedgruppe" v="bebyggelse" />
		<tag k="ssr:stedsnr" v="235046" />
		<tag k="ssr:type" v="seterStøl" />
	</node>
	<node lat="61.52312500291544" lon="9.400474999847672" id="-20720">
		<tag k="name" v="Kampesæter Fjellstue" />
		<tag k="ssr:date" v="2019-12-27" />
		<tag k="ssr:gruppe" v="næring" />
		<tag k="ssr:hovedgruppe" v="bebyggelse" />
		<tag k="ssr:stedsnr" v="234271" />
		<tag k="ssr:type" v="hotell" />
		<tag k="tourism" v="hotel" />
	</node>
	<node lat="61.5275888897092" lon="9.413138885088548" id="-20721">
		<tag k="amenity" v="community_centre" />
		<tag k="name" v="Skåbu bygdahus" />
		<tag k="ssr:date" v="2019-12-27" />
		<tag k="ssr:gruppe" v="kulturinstitusjoner" />
		<tag k="ssr:hovedgruppe" v="kultur" />
		<tag k="ssr:stedsnr" v="234274" />
		<tag k="ssr:type" v="forsamlingshusKulturhus" />
	</node>
	<node lat="61.51477500128588" lon="9.435583341547646" id="-20722">
		<tag k="name" v="Lysgård" />
		<tag k="place" v="isolated_dwelling" />
		<tag k="ssr:date" v="2019-12-27" />
		<tag k="ssr:gruppe" v="bolighus" />
		<tag k="ssr:hovedgruppe" v="bebyggelse" />
		<tag k="ssr:stedsnr" v="234275" />
		<tag k="ssr:type" v="eneboligMindreBoligbygg" />
	</node>
	<node lat="61.51950277895501" lon="9.386508336854483" id="-20723">
		<tag k="name" v="Nordre Lia" />
		<tag k="place" v="farm" />
		<tag k="ssr:date" v="2019-12-27" />
		<tag k="ssr:gruppe" v="gardsbebyggelse" />
		<tag k="ssr:hovedgruppe" v="bebyggelse" />
		<tag k="ssr:stedsnr" v="234342" />
		<tag k="ssr:type" v="bruk" />
	</node>
	<node lat="61.51614722641213" lon="9.281561116629089" id="-20724">
		<tag k="name" v="Vesledammen" />
		<tag k="ssr:date" v="2019-12-27" />
		<tag k="ssr:gruppe" v="stilleståendeVann" />
		<tag k="ssr:hovedgruppe" v="ferskvann" />
		<tag k="ssr:stedsnr" v="234347" />
		<tag k="ssr:type" v="dam" />
		<tag k="waterway" v="dam" />
	</node>
	<node lat="61.42123333489688" lon="9.263955557046074" id="-20725">
		<tag k="name" v="Øyangshaugan" />
		<tag k="natural" v="hill" />
		<tag k="place" v="locality" />
		<tag k="ssr:date" v="2019-12-27" />
		<tag k="ssr:gruppe" v="høyder" />
		<tag k="ssr:hovedgruppe" v="terreng" />
		<tag k="ssr:stedsnr" v="234550" />
		<tag k="ssr:type" v="haug" />
	</node>
	<node lat="61.47722777787697" lon="9.354755561924817" id="-20726">
		<tag k="name" v="Slangslona" />
		<tag k="natural" v="water" />
		<tag k="ssr:date" v="2019-12-27" />
		<tag k="ssr:gruppe" v="rennendeVann" />
		<tag k="ssr:hovedgruppe" v="ferskvann" />
		<tag k="ssr:stedsnr" v="234524" />
		<tag k="ssr:type" v="lon" />
		<tag k="water" v="lake" />
	</node>
	<node lat="61.37444166359952" lon="9.304733329687513" id="-20727">
		<tag k="name" v="Hersjøhaugan" />
		<tag k="natural" v="hill" />
		<tag k="place" v="locality" />
		<tag k="ssr:date" v="2019-12-27" />
		<tag k="ssr:gruppe" v="høyder" />
		<tag k="ssr:hovedgruppe" v="terreng" />
		<tag k="ssr:stedsnr" v="234554" />
		<tag k="ssr:type" v="haug" />
	</node>
	<node lat="61.364647219384246" lon="9.275408330422218" id="-20728">
		<tag k="name" v="Vesletjønnbekken" />
		<tag k="ssr:date" v="2019-12-27" />
		<tag k="ssr:gruppe" v="rennendeVann" />
		<tag k="ssr:hovedgruppe" v="ferskvann" />
		<tag k="ssr:stedsnr" v="234557" />
		<tag k="ssr:type" v="bekk" />
		<tag k="waterway" v="stream" />
	</node>
	<node lat="61.50566389271173" lon="9.42288054736233" id="-20729">
		<tag k="name" v="Krakhaugan" />
		<tag k="natural" v="hill" />
		<tag k="place" v="locality" />
		<tag k="ssr:date" v="2019-12-27" />
		<tag k="ssr:gruppe" v="høyder" />
		<tag k="ssr:hovedgruppe" v="terreng" />
		<tag k="ssr:stedsnr" v="234574" />
		<tag k="ssr:type" v="haug" />
	</node>
	<node lat="61.668224997059184" lon="9.718447223659451" id="-20730">
		<tag k="name" v="Lunde" />
		<tag k="place" v="isolated_dwelling" />
		<tag k="ssr:date" v="2019-12-27" />
		<tag k="ssr:gruppe" v="bolighus" />
		<tag k="ssr:hovedgruppe" v="bebyggelse" />
		<tag k="ssr:stedsnr" v="234718" />
		<tag k="ssr:type" v="eneboligMindreBoligbygg" />
	</node>
	<node lat="61.50441389074703" lon="9.496333332957652" id="-20731">
		<tag k="name" v="Hattlonin" />
		<tag k="natural" v="water" />
		<tag k="ssr:date" v="2019-12-27" />
		<tag k="ssr:gruppe" v="rennendeVann" />
		<tag k="ssr:hovedgruppe" v="ferskvann" />
		<tag k="ssr:stedsnr" v="234641" />
		<tag k="ssr:type" v="lon" />
		<tag k="water" v="lake" />
	</node>
	<node lat="61.50503611161243" lon="9.50244167185675" id="-20732">
		<tag k="name" v="Stølbakken" />
		<tag k="natural" v="slope" />
		<tag k="place" v="locality" />
		<tag k="ssr:date" v="2019-12-27" />
		<tag k="ssr:gruppe" v="skråninger" />
		<tag k="ssr:hovedgruppe" v="terreng" />
		<tag k="ssr:stedsnr" v="234643" />
		<tag k="ssr:type" v="bakke" />
	</node>
	<node lat="61.50748610749261" lon="9.496836106299861" id="-20733">
		<tag k="historic" v="shieling" />
		<tag k="name" v="Lykkjesætra" />
		<tag k="place" v="isolated_dwelling" />
		<tag k="ssr:date" v="2019-12-27" />
		<tag k="ssr:gruppe" v="gardsbebyggelse" />
		<tag k="ssr:hovedgruppe" v="bebyggelse" />
		<tag k="ssr:stedsnr" v="234645" />
		<tag k="ssr:type" v="seterStøl" />
	</node>
	<node lat="61.6642972256563" lon="9.899374991496702" id="-20734">
		<tag k="name" v="Steingrim" />
		<tag k="place" v="locality" />
		<tag k="ssr:date" v="2019-12-27" />
		<tag k="ssr:gruppe" v="flater" />
		<tag k="ssr:hovedgruppe" v="terreng" />
		<tag k="ssr:stedsnr" v="234653" />
		<tag k="ssr:type" v="slette" />
	</node>
	<node lat="61.50162222553406" lon="9.15242777612652" id="-20735">
		<tag k="name" v="Grauphågånaustet" />
		<tag k="place" v="locality" />
		<tag k="ssr:date" v="2019-12-27" />
		<tag k="ssr:gruppe" v="gardsbebyggelse" />
		<tag k="ssr:hovedgruppe" v="bebyggelse" />
		<tag k="ssr:stedsnr" v="234676" />
		<tag k="ssr:type" v="byggForJordbrukFiskeOgFangst" />
	</node>
	<node lat="61.688366665983644" lon="9.903836109923574" id="-20736">
		<tag k="name" v="Brurbenken" />
		<tag k="natural" v="hill" />
		<tag k="place" v="locality" />
		<tag k="ssr:date" v="2019-12-27" />
		<tag k="ssr:gruppe" v="høyder" />
		<tag k="ssr:hovedgruppe" v="terreng" />
		<tag k="ssr:stedsnr" v="234742" />
		<tag k="ssr:type" v="haug" />
	</node>
	<node lat="61.67899166347671" lon="9.702288890699172" id="-20737">
		<tag k="name" v="Børeholet" />
		<tag k="natural" v="valley" />
		<tag k="place" v="locality" />
		<tag k="ssr:date" v="2019-12-27" />
		<tag k="ssr:gruppe" v="senkninger" />
		<tag k="ssr:hovedgruppe" v="terreng" />
		<tag k="ssr:stedsnr" v="234725" />
		<tag k="ssr:type" v="skar" />
	</node>
	<node lat="61.67216666717897" lon="9.609377772030673" id="-20738">
		<tag k="name" v="Legaberget" />
		<tag k="place" v="locality" />
		<tag k="ssr:date" v="2019-12-27" />
		<tag k="ssr:gruppe" v="skråninger" />
		<tag k="ssr:hovedgruppe" v="terreng" />
		<tag k="ssr:stedsnr" v="234823" />
		<tag k="ssr:type" v="fjellside" />
	</node>
	<node lat="61.697424997531954" lon="9.90597777280338" id="-20739">
		<tag k="historic" v="shieling" />
		<tag k="name" v="Hågåstugusætra" />
		<tag k="place" v="isolated_dwelling" />
		<tag k="ssr:date" v="2019-12-27" />
		<tag k="ssr:gruppe" v="gardsbebyggelse" />
		<tag k="ssr:hovedgruppe" v="bebyggelse" />
		<tag k="ssr:stedsnr" v="234753" />
		<tag k="ssr:type" v="seterStøl" />
	</node>
	<node lat="61.488066664546956" lon="9.611094440457261" id="-20740">
		<tag k="highway" v="path" />
		<tag k="name" v="Essdalsråket" />
		<tag k="ssr:date" v="2019-12-27" />
		<tag k="ssr:gruppe" v="veg" />
		<tag k="ssr:hovedgruppe" v="infrastruktur" />
		<tag k="ssr:stedsnr" v="234756" />
		<tag k="ssr:type" v="sti" />
	</node>
	<node lat="61.58901666793534" lon="9.631552778423702" id="-20741">
		<tag k="highway" v="path" />
		<tag k="name" v="Vintervegen" />
		<tag k="ssr:date" v="2019-12-27" />
		<tag k="ssr:gruppe" v="veg" />
		<tag k="ssr:hovedgruppe" v="infrastruktur" />
		<tag k="ssr:stedsnr" v="234916" />
		<tag k="ssr:type" v="sti" />
	</node>
	<node lat="61.68482500380245" lon="9.638033341139627" id="-20742">
		<tag k="name" v="Kvitfjellet" />
		<tag k="natural" v="hill" />
		<tag k="place" v="locality" />
		<tag k="ssr:date" v="2019-12-27" />
		<tag k="ssr:gruppe" v="høyder" />
		<tag k="ssr:hovedgruppe" v="terreng" />
		<tag k="ssr:stedsnr" v="234849" />
		<tag k="ssr:type" v="haug" />
	</node>
	<node lat="61.56725555271287" lon="9.790797213391633" id="-20743">
		<tag k="name" v="Bakkalykkja" />
		<tag k="place" v="locality" />
		<tag k="ssr:date" v="2019-12-27" />
		<tag k="ssr:gruppe" v="gardsbebyggelse" />
		<tag k="ssr:hovedgruppe" v="bebyggelse" />
		<tag k="ssr:stedsnr" v="234966" />
		<tag k="ssr:type" v="eiendom" />
	</node>
	<node lat="61.571922218501754" lon="9.76225554831632" id="-20744">
		<tag k="name" v="Skinnegeilen" />
		<tag k="place" v="locality" />
		<tag k="ssr:date" v="2019-12-27" />
		<tag k="ssr:gruppe" v="dyrkamark" />
		<tag k="ssr:hovedgruppe" v="markslag" />
		<tag k="ssr:stedsnr" v="234973" />
		<tag k="ssr:type" v="jorde" />
	</node>
	<node lat="61.67954444653485" lon="9.81399166106781" id="-20745">
		<tag k="fixme" v="consider natural=peak for the most distinct mountains in the district" />
		<tag k="name" v="Kluftåkampen" />
		<tag k="natural" v="hill" />
		<tag k="place" v="locality" />
		<tag k="ssr:date" v="2019-12-27" />
		<tag k="ssr:gruppe" v="høyder" />
		<tag k="ssr:hovedgruppe" v="terreng" />
		<tag k="ssr:stedsnr" v="235100" />
		<tag k="ssr:type" v="topp" />
	</node>
	<node lat="61.58491944583547" lon="9.604108339229128" id="-20746">
		<tag k="fixme" v="consider natural=peak for the most distinct mountains in the district" />
		<tag k="name" v="Vetlfjell" />
		<tag k="natural" v="hill" />
		<tag k="place" v="locality" />
		<tag k="ssr:date" v="2019-12-27" />
		<tag k="ssr:gruppe" v="høyder" />
		<tag k="ssr:hovedgruppe" v="terreng" />
		<tag k="ssr:stedsnr" v="234920" />
		<tag k="ssr:type" v="ås" />
	</node>
	<node lat="61.58596388737079" lon="9.798316657991464" id="-20747">
		<tag k="name" v="Kjørrasletta" />
		<tag k="place" v="isolated_dwelling" />
		<tag k="ssr:date" v="2019-12-27" />
		<tag k="ssr:gruppe" v="bolighus" />
		<tag k="ssr:hovedgruppe" v="bebyggelse" />
		<tag k="ssr:stedsnr" v="235017" />
		<tag k="ssr:type" v="eneboligMindreBoligbygg" />
	</node>
	<node lat="61.53848611204759" lon="9.55384444722274" id="-20748">
		<tag k="name" v="Blautmyrbekken" />
		<tag k="ssr:date" v="2019-12-27" />
		<tag k="ssr:gruppe" v="rennendeVann" />
		<tag k="ssr:hovedgruppe" v="ferskvann" />
		<tag k="ssr:stedsnr" v="235062" />
		<tag k="ssr:type" v="bekk" />
		<tag k="waterway" v="stream" />
	</node>
	<node lat="61.576883337250436" lon="9.650691657991114" id="-20749">
		<tag k="name" v="Bortastberget" />
		<tag k="natural" v="hill" />
		<tag k="place" v="locality" />
		<tag k="ssr:date" v="2019-12-27" />
		<tag k="ssr:gruppe" v="høyder" />
		<tag k="ssr:hovedgruppe" v="terreng" />
		<tag k="ssr:stedsnr" v="235071" />
		<tag k="ssr:type" v="berg" />
	</node>
	<node lat="61.58686944138254" lon="9.645827769984603" id="-20750">
		<tag k="name" v="Kringelmyra" />
		<tag k="natural" v="wetland" />
		<tag k="ssr:date" v="2019-12-27" />
		<tag k="ssr:gruppe" v="våtmark" />
		<tag k="ssr:hovedgruppe" v="markslag" />
		<tag k="ssr:stedsnr" v="235076" />
		<tag k="ssr:type" v="myr" />
	</node>
	<node lat="61.52678055422647" lon="9.562122222039616" id="-20751">
		<tag k="historic" v="shieling" />
		<tag k="name" v="Nørdre-Dalssætra" />
		<tag k="place" v="isolated_dwelling" />
		<tag k="ssr:date" v="2019-12-27" />
		<tag k="ssr:gruppe" v="gardsbebyggelse" />
		<tag k="ssr:hovedgruppe" v="bebyggelse" />
		<tag k="ssr:stedsnr" v="235128" />
		<tag k="ssr:type" v="seterStøl" />
	</node>
	<node lat="61.52397221869259" lon="9.573936108438426" id="-20752">
		<tag k="name" v="Nermokvea" />
		<tag k="place" v="locality" />
		<tag k="ssr:date" v="2019-12-27" />
		<tag k="ssr:gruppe" v="dyrkamark" />
		<tag k="ssr:hovedgruppe" v="markslag" />
		<tag k="ssr:stedsnr" v="235131" />
		<tag k="ssr:type" v="jorde" />
	</node>
	<node lat="61.57449167103498" lon="9.668825006896745" id="-20753">
		<tag k="name" v="Trongdal" />
		<tag k="natural" v="valley" />
		<tag k="place" v="locality" />
		<tag k="ssr:date" v="2019-12-27" />
		<tag k="ssr:gruppe" v="senkninger" />
		<tag k="ssr:hovedgruppe" v="terreng" />
		<tag k="ssr:stedsnr" v="235132" />
		<tag k="ssr:type" v="dal" />
	</node>
	<node lat="61.522924997188085" lon="9.591358341216319" id="-20754">
		<tag k="historic" v="shieling" />
		<tag k="name" v="Brånåsætra" />
		<tag k="place" v="isolated_dwelling" />
		<tag k="ssr:date" v="2019-12-27" />
		<tag k="ssr:gruppe" v="gardsbebyggelse" />
		<tag k="ssr:hovedgruppe" v="bebyggelse" />
		<tag k="ssr:stedsnr" v="235137" />
		<tag k="ssr:type" v="seterStøl" />
	</node>
	<node lat="61.523491668235074" lon="9.588180560490652" id="-20755">
		<tag k="historic" v="shieling" />
		<tag k="name" v="Øverlisætra" />
		<tag k="place" v="isolated_dwelling" />
		<tag k="ssr:date" v="2019-12-27" />
		<tag k="ssr:gruppe" v="gardsbebyggelse" />
		<tag k="ssr:hovedgruppe" v="bebyggelse" />
		<tag k="ssr:stedsnr" v="235138" />
		<tag k="ssr:type" v="seterStøl" />
	</node>
	<node lat="61.5687944476039" lon="9.589386115256973" id="-20756">
		<tag k="name" v="Vistadfyru" />
		<tag k="place" v="locality" />
		<tag k="ssr:date" v="2019-12-27" />
		<tag k="ssr:gruppe" v="vegetasjon" />
		<tag k="ssr:hovedgruppe" v="markslag" />
		<tag k="ssr:stedsnr" v="235175" />
		<tag k="ssr:type" v="skog" />
	</node>
	<node lat="61.55593611204522" lon="9.563705556701143" id="-20757">
		<tag k="name" v="Øvre Tonebuhaugen" />
		<tag k="natural" v="hill" />
		<tag k="place" v="locality" />
		<tag k="ssr:date" v="2019-12-27" />
		<tag k="ssr:gruppe" v="høyder" />
		<tag k="ssr:hovedgruppe" v="terreng" />
		<tag k="ssr:stedsnr" v="235221" />
		<tag k="ssr:type" v="haug" />
	</node>
	<node lat="61.616077780220095" lon="9.789613884292951" id="-20758">
		<tag k="name" v="Gråura" />
		<tag k="natural" v="scree" />
		<tag k="ssr:date" v="2019-12-27" />
		<tag k="ssr:gruppe" v="løsmasseavsetninger" />
		<tag k="ssr:hovedgruppe" v="markslag" />
		<tag k="ssr:stedsnr" v="235117" />
		<tag k="ssr:type" v="ur" />
	</node>
	<node lat="61.60333055461193" lon="9.799927778163253" id="-20759">
		<tag k="name" v="Klodstugu" />
		<tag k="place" v="farm" />
		<tag k="ssr:date" v="2019-12-27" />
		<tag k="ssr:gruppe" v="gardsbebyggelse" />
		<tag k="ssr:hovedgruppe" v="bebyggelse" />
		<tag k="ssr:stedsnr" v="235125" />
		<tag k="ssr:type" v="bruk" />
	</node>
	<node lat="61.62155278230938" lon="9.594341657858074" id="-20760">
		<tag k="name" v="Djupdalen" />
		<tag k="natural" v="valley" />
		<tag k="place" v="locality" />
		<tag k="ssr:date" v="2019-12-27" />
		<tag k="ssr:gruppe" v="senkninger" />
		<tag k="ssr:hovedgruppe" v="terreng" />
		<tag k="ssr:stedsnr" v="235942" />
		<tag k="ssr:type" v="dal" />
	</node>
	<node lat="61.57704444878797" lon="9.53442777373678" id="-20761">
		<tag k="name" v="Søre Korpberget" />
		<tag k="place" v="farm" />
		<tag k="ssr:date" v="2019-12-27" />
		<tag k="ssr:gruppe" v="gardsbebyggelse" />
		<tag k="ssr:hovedgruppe" v="bebyggelse" />
		<tag k="ssr:stedsnr" v="235440" />
		<tag k="ssr:type" v="bruk" />
	</node>
	<node lat="61.615574163749905" lon="9.73196806624934" id="-20762">
		<tag k="fixme" v="consider place=hamlet" />
		<tag k="name" v="Øvre Vika" />
		<tag k="place" v="farm" />
		<tag k="ssr:date" v="2019-12-27" />
		<tag k="ssr:gruppe" v="gardsbebyggelse" />
		<tag k="ssr:hovedgruppe" v="bebyggelse" />
		<tag k="ssr:stedsnr" v="235505" />
		<tag k="ssr:type" v="gard" />
	</node>
	<node lat="61.614069786208724" lon="9.734348278631069" id="-20763">
		<tag k="fixme" v="consider place=hamlet" />
		<tag k="name" v="Slettvika" />
		<tag k="place" v="farm" />
		<tag k="ssr:date" v="2019-12-27" />
		<tag k="ssr:gruppe" v="gardsbebyggelse" />
		<tag k="ssr:hovedgruppe" v="bebyggelse" />
		<tag k="ssr:stedsnr" v="235509" />
		<tag k="ssr:type" v="gard" />
	</node>
	<node lat="61.62061389333359" lon="9.710658334682117" id="-20764">
		<tag k="name" v="Einstapplykkja" />
		<tag k="place" v="locality" />
		<tag k="ssr:date" v="2019-12-27" />
		<tag k="ssr:gruppe" v="dyrkamark" />
		<tag k="ssr:hovedgruppe" v="markslag" />
		<tag k="ssr:stedsnr" v="235445" />
		<tag k="ssr:type" v="utmark" />
	</node>
	<node lat="61.563994442320116" lon="9.498699992294133" id="-20765">
		<tag k="name" v="Merramyra" />
		<tag k="natural" v="wetland" />
		<tag k="ssr:date" v="2019-12-27" />
		<tag k="ssr:gruppe" v="våtmark" />
		<tag k="ssr:hovedgruppe" v="markslag" />
		<tag k="ssr:stedsnr" v="235452" />
		<tag k="ssr:type" v="myr" />
	</node>
	<node lat="61.5536388892461" lon="9.497561120253744" id="-20766">
		<tag k="name" v="Sørås" />
		<tag k="place" v="farm" />
		<tag k="ssr:date" v="2019-12-27" />
		<tag k="ssr:gruppe" v="gardsbebyggelse" />
		<tag k="ssr:hovedgruppe" v="bebyggelse" />
		<tag k="ssr:stedsnr" v="235458" />
		<tag k="ssr:type" v="bruk" />
	</node>
	<node lat="61.54952499951926" lon="9.699466665013968" id="-20767">
		<tag k="highway" v="path" />
		<tag k="name" v="Øvre Veslbekkvegen" />
		<tag k="ssr:date" v="2019-12-27" />
		<tag k="ssr:gruppe" v="veg" />
		<tag k="ssr:hovedgruppe" v="infrastruktur" />
		<tag k="ssr:stedsnr" v="235461" />
		<tag k="ssr:type" v="sti" />
	</node>
	<node lat="61.58608333534375" lon="9.461186117395362" id="-20768">
		<tag k="name" v="Vistadhaugen" />
		<tag k="natural" v="hill" />
		<tag k="place" v="locality" />
		<tag k="ssr:date" v="2019-12-27" />
		<tag k="ssr:gruppe" v="høyder" />
		<tag k="ssr:hovedgruppe" v="terreng" />
		<tag k="ssr:stedsnr" v="235464" />
		<tag k="ssr:type" v="haug" />
	</node>
	<node lat="61.539138885643695" lon="9.75202222934739" id="-20769">
		<tag k="name" v="Rudlandsdokka" />
		<tag k="place" v="locality" />
		<tag k="ssr:date" v="2019-12-27" />
		<tag k="ssr:gruppe" v="dyrkamark" />
		<tag k="ssr:hovedgruppe" v="markslag" />
		<tag k="ssr:stedsnr" v="235470" />
		<tag k="ssr:type" v="utmark" />
	</node>
	<node lat="61.602228274661805" lon="9.384642671280861" id="-20770">
		<tag k="name" v="Måsåbuin" />
		<tag k="place" v="locality" />
		<tag k="ssr:date" v="2021-04-06" />
		<tag k="ssr:gruppe" v="bebyggelsesområder" />
		<tag k="ssr:hovedgruppe" v="bebyggelse" />
		<tag k="ssr:stedsnr" v="235531" />
		<tag k="ssr:type" v="tuft" />
	</node>
	<node lat="61.59231666613579" lon="9.401922215396825" id="-20771">
		<tag k="name" v="Vesle Breistultjønn" />
		<tag k="natural" v="water" />
		<tag k="ssr:date" v="2019-12-27" />
		<tag k="ssr:gruppe" v="stilleståendeVann" />
		<tag k="ssr:hovedgruppe" v="ferskvann" />
		<tag k="ssr:stedsnr" v="235532" />
		<tag k="ssr:type" v="tjern" />
	</node>
	<node lat="61.53270833422598" lon="9.705563894084667" id="-20772">
		<tag k="name" v="Teppinga" />
		<tag k="place" v="locality" />
		<tag k="ssr:date" v="2019-12-27" />
		<tag k="ssr:gruppe" v="flater" />
		<tag k="ssr:hovedgruppe" v="terreng" />
		<tag k="ssr:stedsnr" v="235540" />
		<tag k="ssr:type" v="slette" />
	</node>
	<node lat="61.56770555142369" lon="9.63531110397526" id="-20773">
		<tag k="name" v="Styggdalen" />
		<tag k="natural" v="valley" />
		<tag k="place" v="locality" />
		<tag k="ssr:date" v="2019-12-27" />
		<tag k="ssr:gruppe" v="senkninger" />
		<tag k="ssr:hovedgruppe" v="terreng" />
		<tag k="ssr:stedsnr" v="235576" />
		<tag k="ssr:type" v="dal" />
	</node>
	<node lat="61.65736944321014" lon="9.658172214698135" id="-20774">
		<tag k="name" v="Stromlyu" />
		<tag k="place" v="locality" />
		<tag k="ssr:date" v="2019-12-27" />
		<tag k="ssr:gruppe" v="gardsbebyggelse" />
		<tag k="ssr:hovedgruppe" v="bebyggelse" />
		<tag k="ssr:stedsnr" v="235627" />
		<tag k="ssr:type" v="byggForJordbrukFiskeOgFangst" />
	</node>
	<node lat="61.65691111477377" lon="9.648977772403786" id="-20775">
		<tag k="name" v="Andersheimen" />
		<tag k="place" v="locality" />
		<tag k="ssr:date" v="2019-12-27" />
		<tag k="ssr:gruppe" v="bolighus" />
		<tag k="ssr:hovedgruppe" v="bebyggelse" />
		<tag k="ssr:stedsnr" v="235629" />
		<tag k="ssr:type" v="gammelBosettingsplass" />
	</node>
	<node lat="61.66623423307257" lon="9.661964812267632" id="-20776">
		<tag k="name" v="Søre Bergum" />
		<tag k="place" v="farm" />
		<tag k="ssr:date" v="2020-05-08" />
		<tag k="ssr:gruppe" v="gardsbebyggelse" />
		<tag k="ssr:hovedgruppe" v="bebyggelse" />
		<tag k="ssr:stedsnr" v="235642" />
		<tag k="ssr:type" v="bruk" />
	</node>
	<node lat="61.664074996377614" lon="9.654827779758643" id="-20777">
		<tag k="name" v="Ivastugu" />
		<tag k="place" v="locality" />
		<tag k="ssr:date" v="2019-12-27" />
		<tag k="ssr:gruppe" v="gardsbebyggelse" />
		<tag k="ssr:hovedgruppe" v="bebyggelse" />
		<tag k="ssr:stedsnr" v="235646" />
		<tag k="ssr:type" v="eiendom" />
	</node>
	<node lat="61.60223497709228" lon="9.716321551351044" id="-20778">
		<tag k="loc_name" v="Givervollen" />
		<tag k="name" v="Givervolden" />
		<tag k="place" v="locality" />
		<tag k="ssr:date" v="2019-12-27" />
		<tag k="ssr:gruppe" v="gardsbebyggelse" />
		<tag k="ssr:hovedgruppe" v="bebyggelse" />
		<tag k="ssr:stedsnr" v="235524" />
		<tag k="ssr:type" v="eiendom" />
	</node>
</osm>
