<?xml version="1.0" encoding="UTF-8"?>
<osm version="0.6" generator="osmapis">
	<node lat="61.62029148875584" lon="9.836909070264554" id="-40479">
		<tag k="name" v="Djupdalssetervegen" />
		<tag k="ssr:date" v="2019-12-27" />
		<tag k="ssr:gruppe" v="veg" />
		<tag k="ssr:hovedgruppe" v="infrastruktur" />
		<tag k="ssr:stedsnr" v="222711" />
		<tag k="ssr:type" v="adressenavn" />
	</node>
	<node lat="61.600557208934745" lon="9.799004913489687" id="-40536">
		<tag k="name" v="Viskomvegen" />
		<tag k="ssr:date" v="2019-12-27" />
		<tag k="ssr:gruppe" v="veg" />
		<tag k="ssr:hovedgruppe" v="infrastruktur" />
		<tag k="ssr:stedsnr" v="58009" />
		<tag k="ssr:type" v="adressenavn" />
	</node>
	<node lat="61.478867826697154" lon="9.35753570471086" id="-40559">
		<tag k="name" v="Jotunheimvegen" />
		<tag k="ssr:date" v="2019-12-27" />
		<tag k="ssr:gruppe" v="veg" />
		<tag k="ssr:hovedgruppe" v="infrastruktur" />
		<tag k="ssr:stedsnr" v="87002" />
		<tag k="ssr:type" v="adressenavn" />
	</node>
	<node lat="61.7557148279608" lon="9.724176917602538" id="-40708">
		<tag k="name" v="Krøklingråket" />
		<tag k="ssr:date" v="2019-12-27" />
		<tag k="ssr:gruppe" v="veg" />
		<tag k="ssr:hovedgruppe" v="infrastruktur" />
		<tag k="ssr:stedsnr" v="119003" />
		<tag k="ssr:type" v="adressenavn" />
	</node>
	<node lat="61.7496183085068" lon="9.74982855667278" id="-40709">
		<tag k="name" v="Sildtjønnlia" />
		<tag k="ssr:date" v="2019-12-27" />
		<tag k="ssr:gruppe" v="veg" />
		<tag k="ssr:hovedgruppe" v="infrastruktur" />
		<tag k="ssr:stedsnr" v="119006" />
		<tag k="ssr:type" v="adressenavn" />
	</node>
	<node lat="61.762174295303225" lon="9.762992287347677" id="-40710">
		<tag k="name" v="Fryosvegen" />
		<tag k="ssr:date" v="2019-12-27" />
		<tag k="ssr:gruppe" v="veg" />
		<tag k="ssr:hovedgruppe" v="infrastruktur" />
		<tag k="ssr:stedsnr" v="119007" />
		<tag k="ssr:type" v="adressenavn" />
	</node>
	<node lat="61.60815419884034" lon="9.74743610502746" id="-40716">
		<tag k="name" v="Håmmårvegen" />
		<tag k="ssr:date" v="2019-12-27" />
		<tag k="ssr:gruppe" v="veg" />
		<tag k="ssr:hovedgruppe" v="infrastruktur" />
		<tag k="ssr:stedsnr" v="239281" />
		<tag k="ssr:type" v="adressenavn" />
	</node>
	<node lat="61.60315639513166" lon="9.715814941975745" id="-40734">
		<tag k="name" v="Badstuguvegen" />
		<tag k="ssr:date" v="2019-12-27" />
		<tag k="ssr:gruppe" v="veg" />
		<tag k="ssr:hovedgruppe" v="infrastruktur" />
		<tag k="ssr:stedsnr" v="240015" />
		<tag k="ssr:type" v="adressenavn" />
	</node>
	<node lat="61.66095664586773" lon="9.604534892796387" id="-40735">
		<tag k="name" v="Løftvegen" />
		<tag k="ssr:date" v="2019-12-27" />
		<tag k="ssr:gruppe" v="veg" />
		<tag k="ssr:hovedgruppe" v="infrastruktur" />
		<tag k="ssr:stedsnr" v="241089" />
		<tag k="ssr:type" v="adressenavn" />
	</node>
	<node lat="61.74128658156312" lon="9.734267205684658" id="-40975">
		<tag k="name" v="Sukkertoppråket" />
		<tag k="ssr:date" v="2019-12-27" />
		<tag k="ssr:gruppe" v="veg" />
		<tag k="ssr:hovedgruppe" v="infrastruktur" />
		<tag k="ssr:stedsnr" v="301005" />
		<tag k="ssr:type" v="adressenavn" />
	</node>
	<node lat="61.60889358264342" lon="9.81226468183538" id="-41023">
		<tag k="name" v="Limovnvegen" />
		<tag k="ssr:date" v="2019-12-27" />
		<tag k="ssr:gruppe" v="veg" />
		<tag k="ssr:hovedgruppe" v="infrastruktur" />
		<tag k="ssr:stedsnr" v="356108" />
		<tag k="ssr:type" v="adressenavn" />
	</node>
	<node lat="61.74971288957931" lon="9.724660188514639" id="-41068">
		<tag k="name" v="Ruststugusetervegen" />
		<tag k="ssr:date" v="2019-12-27" />
		<tag k="ssr:gruppe" v="veg" />
		<tag k="ssr:hovedgruppe" v="infrastruktur" />
		<tag k="ssr:stedsnr" v="361005" />
		<tag k="ssr:type" v="adressenavn" />
	</node>
	<node lat="61.511925675145434" lon="9.677734635053902" id="-41069">
		<tag k="name" v="Vesle-Ljoshaugvegen" />
		<tag k="ssr:date" v="2019-12-27" />
		<tag k="ssr:gruppe" v="veg" />
		<tag k="ssr:hovedgruppe" v="infrastruktur" />
		<tag k="ssr:stedsnr" v="361017" />
		<tag k="ssr:type" v="adressenavn" />
	</node>
	<node lat="61.718444637305474" lon="9.893592107708223" id="-41070">
		<tag k="name" v="Koltjønnvegen" />
		<tag k="ssr:date" v="2019-12-27" />
		<tag k="ssr:gruppe" v="veg" />
		<tag k="ssr:hovedgruppe" v="infrastruktur" />
		<tag k="ssr:stedsnr" v="361662" />
		<tag k="ssr:type" v="adressenavn" />
	</node>
	<node lat="61.64850520668605" lon="9.860814209334347" id="-41152">
		<tag k="name" v="Afstjønna" />
		<tag k="ssr:date" v="2019-12-27" />
		<tag k="ssr:gruppe" v="veg" />
		<tag k="ssr:hovedgruppe" v="infrastruktur" />
		<tag k="ssr:stedsnr" v="422658" />
		<tag k="ssr:type" v="adressenavn" />
	</node>
	<node lat="61.73504762121725" lon="9.732286235769186" id="-41153">
		<tag k="name" v="Gamle Nysetervegen" />
		<tag k="ssr:date" v="2019-12-27" />
		<tag k="ssr:gruppe" v="veg" />
		<tag k="ssr:hovedgruppe" v="infrastruktur" />
		<tag k="ssr:stedsnr" v="423006" />
		<tag k="ssr:type" v="adressenavn" />
	</node>
	<node lat="61.75937258059743" lon="9.745976922572618" id="-41154">
		<tag k="name" v="Furusjøråket" />
		<tag k="ssr:date" v="2019-12-27" />
		<tag k="ssr:gruppe" v="veg" />
		<tag k="ssr:hovedgruppe" v="infrastruktur" />
		<tag k="ssr:stedsnr" v="423012" />
		<tag k="ssr:type" v="adressenavn" />
	</node>
	<node lat="61.7602938851631" lon="9.74231996281974" id="-41155">
		<tag k="name" v="Skjemtjønnvegen" />
		<tag k="ssr:date" v="2019-12-27" />
		<tag k="ssr:gruppe" v="veg" />
		<tag k="ssr:hovedgruppe" v="infrastruktur" />
		<tag k="ssr:stedsnr" v="423013" />
		<tag k="ssr:type" v="adressenavn" />
	</node>
	<node lat="61.52286060471835" lon="9.678066738386224" id="-41156">
		<tag k="name" v="Feforosen" />
		<tag k="ssr:date" v="2019-12-27" />
		<tag k="ssr:gruppe" v="veg" />
		<tag k="ssr:hovedgruppe" v="infrastruktur" />
		<tag k="ssr:stedsnr" v="423017" />
		<tag k="ssr:type" v="adressenavn" />
	</node>
	<node lat="61.53496423449995" lon="9.670394002742974" id="-41157">
		<tag k="name" v="Flåbekkbakken" />
		<tag k="ssr:date" v="2019-12-27" />
		<tag k="ssr:gruppe" v="veg" />
		<tag k="ssr:hovedgruppe" v="infrastruktur" />
		<tag k="ssr:stedsnr" v="423019" />
		<tag k="ssr:type" v="adressenavn" />
	</node>
	<node lat="61.519439238098144" lon="9.385272974307215" id="-41186">
		<tag k="name" v="Gamle Holslåvegen" />
		<tag k="ssr:date" v="2019-12-27" />
		<tag k="ssr:gruppe" v="veg" />
		<tag k="ssr:hovedgruppe" v="infrastruktur" />
		<tag k="ssr:stedsnr" v="477363" />
		<tag k="ssr:type" v="adressenavn" />
	</node>
	<node lat="61.48833573978208" lon="9.675996723836047" id="-41263">
		<tag k="name" v="Fagerli" />
		<tag k="ssr:date" v="2019-12-27" />
		<tag k="ssr:gruppe" v="veg" />
		<tag k="ssr:hovedgruppe" v="infrastruktur" />
		<tag k="ssr:stedsnr" v="663150" />
		<tag k="ssr:type" v="adressenavn" />
	</node>
	<node lat="61.72852127115512" lon="9.724882831601082" id="-41264">
		<tag k="name" v="Tjønnsetervegen" />
		<tag k="ssr:date" v="2019-12-27" />
		<tag k="ssr:gruppe" v="veg" />
		<tag k="ssr:hovedgruppe" v="infrastruktur" />
		<tag k="ssr:stedsnr" v="464624" />
		<tag k="ssr:type" v="adressenavn" />
	</node>
	<node lat="61.62767012569716" lon="9.829046600165773" id="-41265">
		<tag k="name" v="Lauvåsvegen" />
		<tag k="ssr:date" v="2019-12-27" />
		<tag k="ssr:gruppe" v="veg" />
		<tag k="ssr:hovedgruppe" v="infrastruktur" />
		<tag k="ssr:stedsnr" v="465707" />
		<tag k="ssr:type" v="adressenavn" />
	</node>
	<node lat="61.72406172109731" lon="9.713672127264585" id="-41266">
		<tag k="name" v="Midtre Låvåshaugen" />
		<tag k="ssr:date" v="2019-12-27" />
		<tag k="ssr:gruppe" v="veg" />
		<tag k="ssr:hovedgruppe" v="infrastruktur" />
		<tag k="ssr:stedsnr" v="665098" />
		<tag k="ssr:type" v="adressenavn" />
	</node>
	<node lat="61.65937500366613" lon="9.674088896600495" id="-41267">
		<tag k="name" v="Baksidevegen" />
		<tag k="ssr:date" v="2019-12-27" />
		<tag k="ssr:gruppe" v="veg" />
		<tag k="ssr:hovedgruppe" v="infrastruktur" />
		<tag k="ssr:stedsnr" v="665099" />
		<tag k="ssr:type" v="adressenavn" />
	</node>
	<node lat="61.61931880326473" lon="9.843758125986405" id="-41331">
		<tag k="name" v="Torvmyrvegen" />
		<tag k="ssr:date" v="2019-12-27" />
		<tag k="ssr:gruppe" v="veg" />
		<tag k="ssr:hovedgruppe" v="infrastruktur" />
		<tag k="ssr:stedsnr" v="525703" />
		<tag k="ssr:type" v="adressenavn" />
	</node>
	<node lat="61.600229698573735" lon="9.762755713894414" id="-41415">
		<tag k="name" v="Berglandsvegen" />
		<tag k="ssr:date" v="2019-12-27" />
		<tag k="ssr:gruppe" v="veg" />
		<tag k="ssr:hovedgruppe" v="infrastruktur" />
		<tag k="ssr:stedsnr" v="542286" />
		<tag k="ssr:type" v="adressenavn" />
	</node>
	<node lat="61.747116063373745" lon="9.731875840503323" id="-41471">
		<tag k="name" v="Nysetervegen" />
		<tag k="ssr:date" v="2019-12-27" />
		<tag k="ssr:gruppe" v="veg" />
		<tag k="ssr:hovedgruppe" v="infrastruktur" />
		<tag k="ssr:stedsnr" v="603605" />
		<tag k="ssr:type" v="adressenavn" />
	</node>
	<node lat="61.772913892263375" lon="9.767372223770762" id="-41548">
		<tag k="name" v="Frylia" />
		<tag k="ssr:date" v="2019-12-27" />
		<tag k="ssr:gruppe" v="veg" />
		<tag k="ssr:hovedgruppe" v="infrastruktur" />
		<tag k="ssr:stedsnr" v="663141" />
		<tag k="ssr:type" v="adressenavn" />
	</node>
	<node lat="61.753932877940734" lon="9.72317624852702" id="-41549">
		<tag k="name" v="Blåbærråket" />
		<tag k="ssr:date" v="2019-12-27" />
		<tag k="ssr:gruppe" v="veg" />
		<tag k="ssr:hovedgruppe" v="infrastruktur" />
		<tag k="ssr:stedsnr" v="665005" />
		<tag k="ssr:type" v="adressenavn" />
	</node>
	<node lat="61.53522092361602" lon="9.664716071726433" id="-41550">
		<tag k="name" v="Flåbekklia" />
		<tag k="ssr:date" v="2019-12-27" />
		<tag k="ssr:gruppe" v="veg" />
		<tag k="ssr:hovedgruppe" v="infrastruktur" />
		<tag k="ssr:stedsnr" v="665014" />
		<tag k="ssr:type" v="adressenavn" />
	</node>
	<node lat="61.53773844725752" lon="9.649369382412564" id="-41551">
		<tag k="name" v="Huskelisetervegen" />
		<tag k="ssr:date" v="2019-12-27" />
		<tag k="ssr:gruppe" v="veg" />
		<tag k="ssr:hovedgruppe" v="infrastruktur" />
		<tag k="ssr:stedsnr" v="665016" />
		<tag k="ssr:type" v="adressenavn" />
	</node>
	<node lat="61.62796642440888" lon="9.830906416957625" id="-41578">
		<tag k="name" v="Brennseterlivegen" />
		<tag k="ssr:date" v="2019-12-27" />
		<tag k="ssr:gruppe" v="veg" />
		<tag k="ssr:hovedgruppe" v="infrastruktur" />
		<tag k="ssr:stedsnr" v="707690" />
		<tag k="ssr:type" v="adressenavn" />
	</node>
	<node lat="61.618853146169506" lon="9.79767372843674" id="-41652">
		<tag k="name" v="Midtstulvegen" />
		<tag k="ssr:date" v="2019-12-27" />
		<tag k="ssr:gruppe" v="veg" />
		<tag k="ssr:hovedgruppe" v="infrastruktur" />
		<tag k="ssr:stedsnr" v="768742" />
		<tag k="ssr:type" v="adressenavn" />
	</node>
	<node lat="61.502208092069154" lon="9.381308291104991" id="-41686">
		<tag k="name" v="Murudalsvegen" />
		<tag k="ssr:date" v="2019-12-27" />
		<tag k="ssr:gruppe" v="veg" />
		<tag k="ssr:hovedgruppe" v="infrastruktur" />
		<tag k="ssr:stedsnr" v="781321" />
		<tag k="ssr:type" v="adressenavn" />
	</node>
	<node lat="61.59341110882376" lon="9.418813890306517" id="-41739">
		<tag k="name" v="Tjønnsætervegen" />
		<tag k="ssr:date" v="2019-12-27" />
		<tag k="ssr:gruppe" v="veg" />
		<tag k="ssr:hovedgruppe" v="infrastruktur" />
		<tag k="ssr:stedsnr" v="902529" />
		<tag k="ssr:type" v="vegstrekning" />
	</node>
	<node lat="61.75110561840165" lon="9.721319475991384" id="-41886">
		<tag k="name" v="Viuråket" />
		<tag k="ssr:date" v="2019-12-27" />
		<tag k="ssr:gruppe" v="veg" />
		<tag k="ssr:hovedgruppe" v="infrastruktur" />
		<tag k="ssr:stedsnr" v="847004" />
		<tag k="ssr:type" v="adressenavn" />
	</node>
	<node lat="61.74795659389865" lon="9.754337243808758" id="-41887">
		<tag k="name" v="Øvre Sildtjønnlia" />
		<tag k="ssr:date" v="2019-12-27" />
		<tag k="ssr:gruppe" v="veg" />
		<tag k="ssr:hovedgruppe" v="infrastruktur" />
		<tag k="ssr:stedsnr" v="847009" />
		<tag k="ssr:type" v="adressenavn" />
	</node>
	<node lat="61.74800652887959" lon="9.740871796041137" id="-41913">
		<tag k="name" v="Gamle Hovdvegen" />
		<tag k="ssr:date" v="2019-12-27" />
		<tag k="ssr:gruppe" v="veg" />
		<tag k="ssr:hovedgruppe" v="infrastruktur" />
		<tag k="ssr:stedsnr" v="889596" />
		<tag k="ssr:type" v="adressenavn" />
	</node>
	<node lat="61.62174442958035" lon="9.67333662473468" id="-41927">
		<tag k="name" v="Søljurustvegen" />
		<tag k="ssr:date" v="2019-12-27" />
		<tag k="ssr:gruppe" v="veg" />
		<tag k="ssr:hovedgruppe" v="infrastruktur" />
		<tag k="ssr:stedsnr" v="902309" />
		<tag k="ssr:type" v="adressenavn" />
	</node>
	<node lat="61.53030782428626" lon="9.686961776642038" id="-41933">
		<tag k="name" v="Fagerlivegen" />
		<tag k="ssr:date" v="2019-12-27" />
		<tag k="ssr:gruppe" v="veg" />
		<tag k="ssr:hovedgruppe" v="infrastruktur" />
		<tag k="ssr:stedsnr" v="902468" />
		<tag k="ssr:type" v="adressenavn" />
	</node>
	<node lat="61.7661318627174" lon="9.748816911892654" id="-41962">
		<tag k="name" v="Røssumbuvika" />
		<tag k="ssr:date" v="2019-12-27" />
		<tag k="ssr:gruppe" v="veg" />
		<tag k="ssr:hovedgruppe" v="infrastruktur" />
		<tag k="ssr:stedsnr" v="908011" />
		<tag k="ssr:type" v="adressenavn" />
	</node>
	<node lat="61.75493552656785" lon="9.788868603539854" id="-41963">
		<tag k="name" v="Flakkshøvegen" />
		<tag k="ssr:date" v="2019-12-27" />
		<tag k="ssr:gruppe" v="veg" />
		<tag k="ssr:hovedgruppe" v="infrastruktur" />
		<tag k="ssr:stedsnr" v="908013" />
		<tag k="ssr:type" v="adressenavn" />
	</node>
	<node lat="61.60889358264342" lon="9.81226468183538" id="-41992">
		<tag k="name" v="Per Gynt Seterveg" />
		<tag k="ssr:date" v="2019-12-27" />
		<tag k="ssr:gruppe" v="veg" />
		<tag k="ssr:hovedgruppe" v="infrastruktur" />
		<tag k="ssr:stedsnr" v="950709" />
		<tag k="ssr:type" v="adressenavn" />
	</node>
	<node lat="61.71924833996896" lon="9.704177877778088" id="-42045">
		<tag k="name" v="Låvåshaugen" />
		<tag k="ssr:date" v="2019-12-27" />
		<tag k="ssr:gruppe" v="veg" />
		<tag k="ssr:hovedgruppe" v="infrastruktur" />
		<tag k="ssr:stedsnr" v="969101" />
		<tag k="ssr:type" v="adressenavn" />
	</node>
	<node lat="61.599688412589366" lon="9.756293372247786" id="-42047">
		<tag k="name" v="Søre Byrlykkja" />
		<tag k="ssr:date" v="2019-12-27" />
		<tag k="ssr:gruppe" v="veg" />
		<tag k="ssr:hovedgruppe" v="infrastruktur" />
		<tag k="ssr:stedsnr" v="979252" />
		<tag k="ssr:type" v="adressetilleggsnavn" />
	</node>
	<node lat="61.59608251729418" lon="9.778787280993534" id="-42048">
		<tag k="name" v="Nigard Tokse" />
		<tag k="ssr:date" v="2019-12-27" />
		<tag k="ssr:gruppe" v="veg" />
		<tag k="ssr:hovedgruppe" v="infrastruktur" />
		<tag k="ssr:stedsnr" v="979253" />
		<tag k="ssr:type" v="adressetilleggsnavn" />
	</node>
	<node lat="61.571432647308896" lon="9.803729622277483" id="-42049">
		<tag k="name" v="Morkavegen" />
		<tag k="ssr:date" v="2019-12-27" />
		<tag k="ssr:gruppe" v="veg" />
		<tag k="ssr:hovedgruppe" v="infrastruktur" />
		<tag k="ssr:stedsnr" v="979282" />
		<tag k="ssr:type" v="adressenavn" />
	</node>
	<node lat="61.596785029819785" lon="9.735901103543343" id="-42050">
		<tag k="name" v="Sundheimsvegen" />
		<tag k="ssr:date" v="2019-12-27" />
		<tag k="ssr:gruppe" v="veg" />
		<tag k="ssr:hovedgruppe" v="infrastruktur" />
		<tag k="ssr:stedsnr" v="979283" />
		<tag k="ssr:type" v="adressenavn" />
	</node>
	<node lat="61.649597394422166" lon="9.738300334509132" id="-42051">
		<tag k="name" v="Gravdalsvegen" />
		<tag k="ssr:date" v="2019-12-27" />
		<tag k="ssr:gruppe" v="veg" />
		<tag k="ssr:hovedgruppe" v="infrastruktur" />
		<tag k="ssr:stedsnr" v="979284" />
		<tag k="ssr:type" v="adressenavn" />
	</node>
	<node lat="61.50017771199261" lon="9.251220424576097" id="-42052">
		<tag k="name" v="Flysetervegen" />
		<tag k="ssr:date" v="2019-12-27" />
		<tag k="ssr:gruppe" v="veg" />
		<tag k="ssr:hovedgruppe" v="infrastruktur" />
		<tag k="ssr:stedsnr" v="979311" />
		<tag k="ssr:type" v="adressenavn" />
	</node>
	<node lat="61.532545987213666" lon="9.726277762890705" id="-42053">
		<tag k="name" v="Rudlandsetervegen" />
		<tag k="ssr:date" v="2019-12-27" />
		<tag k="ssr:gruppe" v="veg" />
		<tag k="ssr:hovedgruppe" v="infrastruktur" />
		<tag k="ssr:stedsnr" v="979314" />
		<tag k="ssr:type" v="adressenavn" />
	</node>
	<node lat="61.58064484955463" lon="9.658161955103731" id="-42054">
		<tag k="name" v="Kongslikammen" />
		<tag k="ssr:date" v="2019-12-27" />
		<tag k="ssr:gruppe" v="veg" />
		<tag k="ssr:hovedgruppe" v="infrastruktur" />
		<tag k="ssr:stedsnr" v="979316" />
		<tag k="ssr:type" v="adressenavn" />
	</node>
	<node lat="61.50518938439529" lon="9.365387700709377" id="-42055">
		<tag k="name" v="Rustsetervegen" />
		<tag k="ssr:date" v="2019-12-27" />
		<tag k="ssr:gruppe" v="veg" />
		<tag k="ssr:hovedgruppe" v="infrastruktur" />
		<tag k="ssr:stedsnr" v="979318" />
		<tag k="ssr:type" v="adressenavn" />
	</node>
	<node lat="61.60927897737634" lon="9.333676573284594" id="-42056">
		<tag k="name" v="Mugsætervegen" />
		<tag k="ssr:date" v="2019-12-27" />
		<tag k="ssr:gruppe" v="veg" />
		<tag k="ssr:hovedgruppe" v="infrastruktur" />
		<tag k="ssr:stedsnr" v="979321" />
		<tag k="ssr:type" v="adressenavn" />
	</node>
	<node lat="61.685358110753384" lon="9.582635899109194" id="-42057">
		<tag k="name" v="Holsætervegen" />
		<tag k="ssr:date" v="2019-12-27" />
		<tag k="ssr:gruppe" v="veg" />
		<tag k="ssr:hovedgruppe" v="infrastruktur" />
		<tag k="ssr:stedsnr" v="979322" />
		<tag k="ssr:type" v="adressenavn" />
	</node>
	<node lat="61.380154473926446" lon="9.20137610234326" id="-42058">
		<tag k="name" v="Merravika" />
		<tag k="ssr:date" v="2019-12-27" />
		<tag k="ssr:gruppe" v="veg" />
		<tag k="ssr:hovedgruppe" v="infrastruktur" />
		<tag k="ssr:stedsnr" v="979308" />
		<tag k="ssr:type" v="adressenavn" />
	</node>
	<node lat="61.35292611053817" lon="9.258573650703132" id="-42059">
		<tag k="name" v="Hersjøvegen" />
		<tag k="ssr:date" v="2019-12-27" />
		<tag k="ssr:gruppe" v="veg" />
		<tag k="ssr:hovedgruppe" v="infrastruktur" />
		<tag k="ssr:stedsnr" v="979309" />
		<tag k="ssr:type" v="adressenavn" />
	</node>
	<node lat="61.78742738973729" lon="9.711672673594125" id="-42060">
		<tag k="name" v="Furusjøvegen" />
		<tag k="ssr:date" v="2019-12-27" />
		<tag k="ssr:gruppe" v="veg" />
		<tag k="ssr:hovedgruppe" v="infrastruktur" />
		<tag k="ssr:stedsnr" v="979310" />
		<tag k="ssr:type" v="adressenavn" />
	</node>
	<node lat="61.52473157646845" lon="9.407671446048962" id="-42067">
		<tag k="name" v="Austlivegen" />
		<tag k="ssr:date" v="2019-12-27" />
		<tag k="ssr:gruppe" v="veg" />
		<tag k="ssr:hovedgruppe" v="infrastruktur" />
		<tag k="ssr:stedsnr" v="1012473" />
		<tag k="ssr:type" v="adressenavn" />
	</node>
	<node lat="61.60026686862717" lon="9.727577353260893" id="-42068">
		<tag k="name" v="Barhaugvegen" />
		<tag k="ssr:date" v="2019-12-27" />
		<tag k="ssr:gruppe" v="veg" />
		<tag k="ssr:hovedgruppe" v="infrastruktur" />
		<tag k="ssr:stedsnr" v="1012592" />
		<tag k="ssr:type" v="adressenavn" />
	</node>
	<node lat="61.59322684881275" lon="9.759432966437705" id="-42069">
		<tag k="name" v="Brakjevegen" />
		<tag k="ssr:date" v="2019-12-27" />
		<tag k="ssr:gruppe" v="veg" />
		<tag k="ssr:hovedgruppe" v="infrastruktur" />
		<tag k="ssr:stedsnr" v="1012792" />
		<tag k="ssr:type" v="adressenavn" />
	</node>
	<node lat="61.59629251926233" lon="9.725857737588154" id="-42070">
		<tag k="name" v="Givravegen" />
		<tag k="ssr:date" v="2019-12-27" />
		<tag k="ssr:gruppe" v="veg" />
		<tag k="ssr:hovedgruppe" v="infrastruktur" />
		<tag k="ssr:stedsnr" v="1013281" />
		<tag k="ssr:type" v="adressenavn" />
	</node>
	<node lat="61.66537603452206" lon="9.687697961253404" id="-42071">
		<tag k="name" v="Gamlevegen" />
		<tag k="ssr:date" v="2019-12-27" />
		<tag k="ssr:gruppe" v="veg" />
		<tag k="ssr:hovedgruppe" v="infrastruktur" />
		<tag k="ssr:stedsnr" v="1013517" />
		<tag k="ssr:type" v="adressenavn" />
	</node>
	<node lat="61.60303622427843" lon="9.721849767787623" id="-42072">
		<tag k="name" v="Harevegen" />
		<tag k="ssr:date" v="2019-12-27" />
		<tag k="ssr:gruppe" v="veg" />
		<tag k="ssr:hovedgruppe" v="infrastruktur" />
		<tag k="ssr:stedsnr" v="1013529" />
		<tag k="ssr:type" v="adressenavn" />
	</node>
	<node lat="61.66530171968564" lon="9.676990912394523" id="-42073">
		<tag k="name" v="Gunnersvingen" />
		<tag k="ssr:date" v="2019-12-27" />
		<tag k="ssr:gruppe" v="veg" />
		<tag k="ssr:hovedgruppe" v="infrastruktur" />
		<tag k="ssr:stedsnr" v="1013578" />
		<tag k="ssr:type" v="adressenavn" />
	</node>
	<node lat="61.602349740361824" lon="9.724874222223136" id="-42074">
		<tag k="name" v="Duevegen" />
		<tag k="ssr:date" v="2019-12-27" />
		<tag k="ssr:gruppe" v="veg" />
		<tag k="ssr:hovedgruppe" v="infrastruktur" />
		<tag k="ssr:stedsnr" v="1013597" />
		<tag k="ssr:type" v="adressenavn" />
	</node>
	<node lat="61.60069494479118" lon="9.725617289335869" id="-42075">
		<tag k="name" v="Ekornvegen" />
		<tag k="ssr:date" v="2019-12-27" />
		<tag k="ssr:gruppe" v="veg" />
		<tag k="ssr:hovedgruppe" v="infrastruktur" />
		<tag k="ssr:stedsnr" v="1013614" />
		<tag k="ssr:type" v="adressenavn" />
	</node>
	<node lat="61.59656399979508" lon="9.753908114621204" id="-42076">
		<tag k="name" v="Byrevegen" />
		<tag k="ssr:date" v="2019-12-27" />
		<tag k="ssr:gruppe" v="veg" />
		<tag k="ssr:hovedgruppe" v="infrastruktur" />
		<tag k="ssr:stedsnr" v="1013628" />
		<tag k="ssr:type" v="adressenavn" />
	</node>
	<node lat="61.59587866389423" lon="9.726417464841582" id="-42077">
		<tag k="name" v="Lohaugvegen" />
		<tag k="ssr:date" v="2019-12-27" />
		<tag k="ssr:gruppe" v="veg" />
		<tag k="ssr:hovedgruppe" v="infrastruktur" />
		<tag k="ssr:stedsnr" v="1014018" />
		<tag k="ssr:type" v="adressenavn" />
	</node>
	<node lat="61.59193564355064" lon="9.75608855780662" id="-42078">
		<tag k="name" v="Kåjavegen" />
		<tag k="ssr:date" v="2019-12-27" />
		<tag k="ssr:gruppe" v="veg" />
		<tag k="ssr:hovedgruppe" v="infrastruktur" />
		<tag k="ssr:stedsnr" v="1014040" />
		<tag k="ssr:type" v="adressenavn" />
	</node>
	<node lat="61.66361962996458" lon="9.690781429191121" id="-42079">
		<tag k="name" v="Linvegen" />
		<tag k="ssr:date" v="2019-12-27" />
		<tag k="ssr:gruppe" v="veg" />
		<tag k="ssr:hovedgruppe" v="infrastruktur" />
		<tag k="ssr:stedsnr" v="1013991" />
		<tag k="ssr:type" v="adressenavn" />
	</node>
	<node lat="61.664689809212355" lon="9.678998941438515" id="-42080">
		<tag k="name" v="Leikavegen" />
		<tag k="ssr:date" v="2019-12-27" />
		<tag k="ssr:gruppe" v="veg" />
		<tag k="ssr:hovedgruppe" v="infrastruktur" />
		<tag k="ssr:stedsnr" v="1014122" />
		<tag k="ssr:type" v="adressenavn" />
	</node>
	<node lat="61.59920942816701" lon="9.763249520050286" id="-42081">
		<tag k="name" v="Oppigardsvegen" />
		<tag k="ssr:date" v="2019-12-27" />
		<tag k="ssr:gruppe" v="veg" />
		<tag k="ssr:hovedgruppe" v="infrastruktur" />
		<tag k="ssr:stedsnr" v="1014221" />
		<tag k="ssr:type" v="adressenavn" />
	</node>
	<node lat="61.597746311611424" lon="9.745402701668993" id="-42082">
		<tag k="name" v="Hønhaugvegen" />
		<tag k="ssr:date" v="2019-12-27" />
		<tag k="ssr:gruppe" v="veg" />
		<tag k="ssr:hovedgruppe" v="infrastruktur" />
		<tag k="ssr:stedsnr" v="1014281" />
		<tag k="ssr:type" v="adressenavn" />
	</node>
	<node lat="61.59619855764702" lon="9.76685265151292" id="-42083">
		<tag k="name" v="Hesthagen" />
		<tag k="ssr:date" v="2019-12-27" />
		<tag k="ssr:gruppe" v="veg" />
		<tag k="ssr:hovedgruppe" v="infrastruktur" />
		<tag k="ssr:stedsnr" v="1014319" />
		<tag k="ssr:type" v="adressenavn" />
	</node>
	<node lat="61.60289744160194" lon="9.722332501998526" id="-42084">
		<tag k="name" v="Høgmovegen" />
		<tag k="ssr:date" v="2019-12-27" />
		<tag k="ssr:gruppe" v="veg" />
		<tag k="ssr:hovedgruppe" v="infrastruktur" />
		<tag k="ssr:stedsnr" v="1014325" />
		<tag k="ssr:type" v="adressenavn" />
	</node>
	<node lat="61.59851866262189" lon="9.748076076109227" id="-42085">
		<tag k="name" v="Knutheimen" />
		<tag k="ssr:date" v="2019-12-27" />
		<tag k="ssr:gruppe" v="veg" />
		<tag k="ssr:hovedgruppe" v="infrastruktur" />
		<tag k="ssr:stedsnr" v="1014376" />
		<tag k="ssr:type" v="adressenavn" />
	</node>
	<node lat="61.66186336945843" lon="9.676126187063135" id="-42086">
		<tag k="name" v="Industrivegen" />
		<tag k="ssr:date" v="2019-12-27" />
		<tag k="ssr:gruppe" v="veg" />
		<tag k="ssr:hovedgruppe" v="infrastruktur" />
		<tag k="ssr:stedsnr" v="1014520" />
		<tag k="ssr:type" v="adressenavn" />
	</node>
	<node lat="61.59681098421896" lon="9.76602383042787" id="-42087">
		<tag k="name" v="Kjeldevegen" />
		<tag k="ssr:date" v="2019-12-27" />
		<tag k="ssr:gruppe" v="veg" />
		<tag k="ssr:hovedgruppe" v="infrastruktur" />
		<tag k="ssr:stedsnr" v="1014537" />
		<tag k="ssr:type" v="adressenavn" />
	</node>
	<node lat="61.60008347894943" lon="9.728396306291472" id="-42088">
		<tag k="name" v="Sundvegen" />
		<tag k="ssr:date" v="2019-12-27" />
		<tag k="ssr:gruppe" v="veg" />
		<tag k="ssr:hovedgruppe" v="infrastruktur" />
		<tag k="ssr:stedsnr" v="1014733" />
		<tag k="ssr:type" v="adressenavn" />
	</node>
	<node lat="61.59655817925938" lon="9.768533213433892" id="-42089">
		<tag k="name" v="Stemningsvika" />
		<tag k="ssr:date" v="2019-12-27" />
		<tag k="ssr:gruppe" v="veg" />
		<tag k="ssr:hovedgruppe" v="infrastruktur" />
		<tag k="ssr:stedsnr" v="1015016" />
		<tag k="ssr:type" v="adressenavn" />
	</node>
	<node lat="61.591492084843374" lon="9.755186461090956" id="-42090">
		<tag k="name" v="Strandgata" />
		<tag k="ssr:date" v="2019-12-27" />
		<tag k="ssr:gruppe" v="veg" />
		<tag k="ssr:hovedgruppe" v="infrastruktur" />
		<tag k="ssr:stedsnr" v="1014988" />
		<tag k="ssr:type" v="adressenavn" />
	</node>
	<node lat="61.66861857827017" lon="9.684516156390965" id="-42091">
		<tag k="name" v="Sætrevegen" />
		<tag k="ssr:date" v="2019-12-27" />
		<tag k="ssr:gruppe" v="veg" />
		<tag k="ssr:hovedgruppe" v="infrastruktur" />
		<tag k="ssr:stedsnr" v="1015498" />
		<tag k="ssr:type" v="adressenavn" />
	</node>
	<node lat="61.6023167209729" lon="9.72711465131783" id="-42092">
		<tag k="name" v="Paal Kluftens veg" />
		<tag k="ssr:date" v="2019-12-27" />
		<tag k="ssr:gruppe" v="veg" />
		<tag k="ssr:hovedgruppe" v="infrastruktur" />
		<tag k="ssr:stedsnr" v="1016014" />
		<tag k="ssr:type" v="adressenavn" />
	</node>
	<node lat="61.59759573184126" lon="9.75266528671633" id="-42093">
		<tag k="name" v="Sletta" />
		<tag k="ssr:date" v="2019-12-27" />
		<tag k="ssr:gruppe" v="veg" />
		<tag k="ssr:hovedgruppe" v="infrastruktur" />
		<tag k="ssr:stedsnr" v="1016098" />
		<tag k="ssr:type" v="adressenavn" />
	</node>
	<node lat="61.53385939287618" lon="9.662605073161671" id="-42094">
		<tag k="name" v="Feforåsvegen" />
		<tag k="ssr:date" v="2019-12-27" />
		<tag k="ssr:gruppe" v="veg" />
		<tag k="ssr:hovedgruppe" v="infrastruktur" />
		<tag k="ssr:stedsnr" v="1017422" />
		<tag k="ssr:type" v="adressenavn" />
	</node>
	<node lat="61.53546961129158" lon="9.666695091222696" id="-42095">
		<tag k="name" v="Midtre Flåbekklia" />
		<tag k="ssr:date" v="2019-12-27" />
		<tag k="ssr:gruppe" v="veg" />
		<tag k="ssr:hovedgruppe" v="infrastruktur" />
		<tag k="ssr:stedsnr" v="1017423" />
		<tag k="ssr:type" v="adressenavn" />
	</node>
	<node lat="61.506794996913655" lon="9.49808759340755" id="-42096">
		<tag k="name" v="Hattdalssetrin" />
		<tag k="ssr:date" v="2019-12-27" />
		<tag k="ssr:gruppe" v="veg" />
		<tag k="ssr:hovedgruppe" v="infrastruktur" />
		<tag k="ssr:stedsnr" v="1017424" />
		<tag k="ssr:type" v="adressenavn" />
	</node>
	<node lat="61.587945128102795" lon="9.572057794665104" id="-42097">
		<tag k="name" v="Vardfjellbakken" />
		<tag k="ssr:date" v="2019-12-27" />
		<tag k="ssr:gruppe" v="veg" />
		<tag k="ssr:hovedgruppe" v="infrastruktur" />
		<tag k="ssr:stedsnr" v="1017425" />
		<tag k="ssr:type" v="adressenavn" />
	</node>
	<node lat="61.54152804150769" lon="9.693688082873367" id="-42098">
		<tag k="name" v="Sandsvegen" />
		<tag k="ssr:date" v="2019-12-27" />
		<tag k="ssr:gruppe" v="veg" />
		<tag k="ssr:hovedgruppe" v="infrastruktur" />
		<tag k="ssr:stedsnr" v="1017427" />
		<tag k="ssr:type" v="adressenavn" />
	</node>
	<node lat="61.53101874299506" lon="9.753937508778263" id="-42099">
		<tag k="name" v="Røykleiva" />
		<tag k="ssr:date" v="2019-12-27" />
		<tag k="ssr:gruppe" v="veg" />
		<tag k="ssr:hovedgruppe" v="infrastruktur" />
		<tag k="ssr:stedsnr" v="1017428" />
		<tag k="ssr:type" v="adressenavn" />
	</node>
	<node lat="61.53579070354416" lon="9.67278166263932" id="-42100">
		<tag k="name" v="Nedre Flåbekklia" />
		<tag k="ssr:date" v="2019-12-27" />
		<tag k="ssr:gruppe" v="veg" />
		<tag k="ssr:hovedgruppe" v="infrastruktur" />
		<tag k="ssr:stedsnr" v="1017430" />
		<tag k="ssr:type" v="adressenavn" />
	</node>
	<node lat="61.5278502266895" lon="9.571528789998085" id="-42101">
		<tag k="name" v="Raudbekkvegen" />
		<tag k="ssr:date" v="2019-12-27" />
		<tag k="ssr:gruppe" v="veg" />
		<tag k="ssr:hovedgruppe" v="infrastruktur" />
		<tag k="ssr:stedsnr" v="1017431" />
		<tag k="ssr:type" v="adressenavn" />
	</node>
	<node lat="61.5306939182207" lon="9.754058768830577" id="-42102">
		<tag k="name" v="Tiurlitoppen" />
		<tag k="ssr:date" v="2019-12-27" />
		<tag k="ssr:gruppe" v="veg" />
		<tag k="ssr:hovedgruppe" v="infrastruktur" />
		<tag k="ssr:stedsnr" v="1017432" />
		<tag k="ssr:type" v="adressenavn" />
	</node>
	<node lat="61.53092018232079" lon="9.75425196052983" id="-42103">
		<tag k="name" v="Tiurvegen" />
		<tag k="ssr:date" v="2019-12-27" />
		<tag k="ssr:gruppe" v="veg" />
		<tag k="ssr:hovedgruppe" v="infrastruktur" />
		<tag k="ssr:stedsnr" v="1017433" />
		<tag k="ssr:type" v="adressenavn" />
	</node>
	<node lat="61.53200303495046" lon="9.747301248760671" id="-42104">
		<tag k="name" v="Harestubben" />
		<tag k="ssr:date" v="2019-12-27" />
		<tag k="ssr:gruppe" v="veg" />
		<tag k="ssr:hovedgruppe" v="infrastruktur" />
		<tag k="ssr:stedsnr" v="1017434" />
		<tag k="ssr:type" v="adressenavn" />
	</node>
	<node lat="61.500070167427005" lon="9.43820950168631" id="-42105">
		<tag k="name" v="Sigtruhaugvegen" />
		<tag k="ssr:date" v="2019-12-27" />
		<tag k="ssr:gruppe" v="veg" />
		<tag k="ssr:hovedgruppe" v="infrastruktur" />
		<tag k="ssr:stedsnr" v="1017435" />
		<tag k="ssr:type" v="adressenavn" />
	</node>
	<node lat="61.49696336591183" lon="9.441732720089147" id="-42106">
		<tag k="name" v="Langtjønnråket" />
		<tag k="ssr:date" v="2019-12-27" />
		<tag k="ssr:gruppe" v="veg" />
		<tag k="ssr:hovedgruppe" v="infrastruktur" />
		<tag k="ssr:stedsnr" v="1017436" />
		<tag k="ssr:type" v="adressenavn" />
	</node>
	<node lat="61.49775142255076" lon="9.439009063127534" id="-42107">
		<tag k="name" v="Høgtjønnvegen" />
		<tag k="ssr:date" v="2019-12-27" />
		<tag k="ssr:gruppe" v="veg" />
		<tag k="ssr:hovedgruppe" v="infrastruktur" />
		<tag k="ssr:stedsnr" v="1017437" />
		<tag k="ssr:type" v="adressenavn" />
	</node>
	<node lat="61.67855543707975" lon="9.670574530090297" id="-42108">
		<tag k="name" v="Gamle Leinbakkvegen" />
		<tag k="ssr:date" v="2019-12-27" />
		<tag k="ssr:gruppe" v="veg" />
		<tag k="ssr:hovedgruppe" v="infrastruktur" />
		<tag k="ssr:stedsnr" v="1017514" />
		<tag k="ssr:type" v="adressenavn" />
	</node>
	<node lat="61.543292033785086" lon="9.515635084343549" id="-42109">
		<tag k="name" v="Graupmovegen" />
		<tag k="ssr:date" v="2019-12-27" />
		<tag k="ssr:gruppe" v="veg" />
		<tag k="ssr:hovedgruppe" v="infrastruktur" />
		<tag k="ssr:stedsnr" v="1017516" />
		<tag k="ssr:type" v="adressenavn" />
	</node>
	<node lat="61.53753612170327" lon="9.632344491519454" id="-42110">
		<tag k="name" v="Storhaugen" />
		<tag k="ssr:date" v="2019-12-27" />
		<tag k="ssr:gruppe" v="veg" />
		<tag k="ssr:hovedgruppe" v="infrastruktur" />
		<tag k="ssr:stedsnr" v="1017518" />
		<tag k="ssr:type" v="adressenavn" />
	</node>
	<node lat="61.35892619716267" lon="9.247023878477844" id="-42111">
		<tag k="name" v="Olabuvegen" />
		<tag k="ssr:date" v="2019-12-27" />
		<tag k="ssr:gruppe" v="veg" />
		<tag k="ssr:hovedgruppe" v="infrastruktur" />
		<tag k="ssr:stedsnr" v="1017520" />
		<tag k="ssr:type" v="adressenavn" />
	</node>
	<node lat="61.692619174518335" lon="9.678887569411707" id="-42112">
		<tag k="name" v="Leinsetervegen" />
		<tag k="ssr:date" v="2019-12-27" />
		<tag k="ssr:gruppe" v="veg" />
		<tag k="ssr:hovedgruppe" v="infrastruktur" />
		<tag k="ssr:stedsnr" v="1017523" />
		<tag k="ssr:type" v="adressenavn" />
	</node>
	<node lat="61.593636011952306" lon="9.725499151894919" id="-42113">
		<tag k="name" v="Vinstragata" />
		<tag k="ssr:date" v="2019-12-27" />
		<tag k="ssr:gruppe" v="veg" />
		<tag k="ssr:hovedgruppe" v="infrastruktur" />
		<tag k="ssr:stedsnr" v="1017472" />
		<tag k="ssr:type" v="adressenavn" />
	</node>
	<node lat="61.58819227314516" lon="9.739227417333883" id="-42114">
		<tag k="name" v="Servicevegen" />
		<tag k="ssr:date" v="2019-12-27" />
		<tag k="ssr:gruppe" v="veg" />
		<tag k="ssr:hovedgruppe" v="infrastruktur" />
		<tag k="ssr:stedsnr" v="1017473" />
		<tag k="ssr:type" v="adressenavn" />
	</node>
	<node lat="61.59842003042964" lon="9.726891149623194" id="-42115">
		<tag k="name" v="Barrustmoen" />
		<tag k="ssr:date" v="2019-12-27" />
		<tag k="ssr:gruppe" v="veg" />
		<tag k="ssr:hovedgruppe" v="infrastruktur" />
		<tag k="ssr:stedsnr" v="1017475" />
		<tag k="ssr:type" v="adressenavn" />
	</node>
	<node lat="61.57144729236041" lon="9.784101509002946" id="-42116">
		<tag k="name" v="Gamle Rustvegen" />
		<tag k="ssr:date" v="2019-12-27" />
		<tag k="ssr:gruppe" v="veg" />
		<tag k="ssr:hovedgruppe" v="infrastruktur" />
		<tag k="ssr:stedsnr" v="1017476" />
		<tag k="ssr:type" v="adressenavn" />
	</node>
	<node lat="61.60104971149966" lon="9.723809461466718" id="-42117">
		<tag k="name" v="Uglevegen" />
		<tag k="ssr:date" v="2019-12-27" />
		<tag k="ssr:gruppe" v="veg" />
		<tag k="ssr:hovedgruppe" v="infrastruktur" />
		<tag k="ssr:stedsnr" v="1017673" />
		<tag k="ssr:type" v="adressenavn" />
	</node>
	<node lat="61.59309935945539" lon="9.759650961669148" id="-42118">
		<tag k="name" v="Torehaugvegen" />
		<tag k="ssr:date" v="2019-12-27" />
		<tag k="ssr:gruppe" v="veg" />
		<tag k="ssr:hovedgruppe" v="infrastruktur" />
		<tag k="ssr:stedsnr" v="1017837" />
		<tag k="ssr:type" v="adressenavn" />
	</node>
	<node lat="61.58813918328563" lon="9.774918124017988" id="-42119">
		<tag k="name" v="Sag-Geilen" />
		<tag k="ssr:date" v="2019-12-27" />
		<tag k="ssr:gruppe" v="veg" />
		<tag k="ssr:hovedgruppe" v="infrastruktur" />
		<tag k="ssr:stedsnr" v="1017839" />
		<tag k="ssr:type" v="adressenavn" />
	</node>
	<node lat="61.588804229177875" lon="9.775132526044459" id="-42120">
		<tag k="name" v="Milsteingutu" />
		<tag k="ssr:date" v="2019-12-27" />
		<tag k="ssr:gruppe" v="veg" />
		<tag k="ssr:hovedgruppe" v="infrastruktur" />
		<tag k="ssr:stedsnr" v="1017840" />
		<tag k="ssr:type" v="adressenavn" />
	</node>
	<node lat="61.60579634694777" lon="9.739325273219439" id="-42121">
		<tag k="name" v="Øygardsvegen" />
		<tag k="ssr:date" v="2019-12-27" />
		<tag k="ssr:gruppe" v="veg" />
		<tag k="ssr:hovedgruppe" v="infrastruktur" />
		<tag k="ssr:stedsnr" v="1017846" />
		<tag k="ssr:type" v="adressenavn" />
	</node>
	<node lat="61.60166731575016" lon="9.762661011893956" id="-42122">
		<tag k="name" v="Snarvegen" />
		<tag k="ssr:date" v="2019-12-27" />
		<tag k="ssr:gruppe" v="veg" />
		<tag k="ssr:hovedgruppe" v="infrastruktur" />
		<tag k="ssr:stedsnr" v="1017914" />
		<tag k="ssr:type" v="adressenavn" />
	</node>
	<node lat="61.606052762078455" lon="9.716696522769464" id="-42123">
		<tag k="name" v="Sorperovegen" />
		<tag k="ssr:date" v="2019-12-27" />
		<tag k="ssr:gruppe" v="veg" />
		<tag k="ssr:hovedgruppe" v="infrastruktur" />
		<tag k="ssr:stedsnr" v="1017915" />
		<tag k="ssr:type" v="adressenavn" />
	</node>
	<node lat="61.66509650958135" lon="9.690093805057804" id="-42124">
		<tag k="name" v="Sagvegen" />
		<tag k="ssr:date" v="2019-12-27" />
		<tag k="ssr:gruppe" v="veg" />
		<tag k="ssr:hovedgruppe" v="infrastruktur" />
		<tag k="ssr:stedsnr" v="1017916" />
		<tag k="ssr:type" v="adressenavn" />
	</node>
	<node lat="61.71390001833747" lon="9.679133126845523" id="-42125">
		<tag k="name" v="Lauvåsfeltet" />
		<tag k="ssr:date" v="2019-12-27" />
		<tag k="ssr:gruppe" v="veg" />
		<tag k="ssr:hovedgruppe" v="infrastruktur" />
		<tag k="ssr:stedsnr" v="1018117" />
		<tag k="ssr:type" v="adressenavn" />
	</node>
	<node lat="61.75150797896761" lon="9.712956791252422" id="-42126">
		<tag k="name" v="Vålåsjøvegen" />
		<tag k="ssr:date" v="2019-12-27" />
		<tag k="ssr:gruppe" v="veg" />
		<tag k="ssr:hovedgruppe" v="infrastruktur" />
		<tag k="ssr:stedsnr" v="1018125" />
		<tag k="ssr:type" v="adressenavn" />
	</node>
	<node lat="61.64523263151137" lon="9.736389968407074" id="-42127">
		<tag k="name" v="Myrrustvegen" />
		<tag k="ssr:date" v="2019-12-27" />
		<tag k="ssr:gruppe" v="veg" />
		<tag k="ssr:hovedgruppe" v="infrastruktur" />
		<tag k="ssr:stedsnr" v="1018133" />
		<tag k="ssr:type" v="adressenavn" />
	</node>
	<node lat="61.6454105650367" lon="9.729015969089934" id="-42128">
		<tag k="name" v="Gardvegen" />
		<tag k="ssr:date" v="2019-12-27" />
		<tag k="ssr:gruppe" v="veg" />
		<tag k="ssr:hovedgruppe" v="infrastruktur" />
		<tag k="ssr:stedsnr" v="1018141" />
		<tag k="ssr:type" v="adressenavn" />
	</node>
	<node lat="61.59143360106404" lon="9.761235971720694" id="-42129">
		<tag k="name" v="Øvregata" />
		<tag k="ssr:date" v="2019-12-27" />
		<tag k="ssr:gruppe" v="veg" />
		<tag k="ssr:hovedgruppe" v="infrastruktur" />
		<tag k="ssr:stedsnr" v="1018151" />
		<tag k="ssr:type" v="adressenavn" />
	</node>
	<node lat="61.75175633314649" lon="9.781539495592476" id="-42130">
		<tag k="name" v="Bergemillomvegen" />
		<tag k="ssr:date" v="2019-12-27" />
		<tag k="ssr:gruppe" v="veg" />
		<tag k="ssr:hovedgruppe" v="infrastruktur" />
		<tag k="ssr:stedsnr" v="1018026" />
		<tag k="ssr:type" v="adressenavn" />
	</node>
	<node lat="61.7320578579599" lon="9.732386452963206" id="-42131">
		<tag k="name" v="Langtjønnvegen" />
		<tag k="ssr:date" v="2019-12-27" />
		<tag k="ssr:gruppe" v="veg" />
		<tag k="ssr:hovedgruppe" v="infrastruktur" />
		<tag k="ssr:stedsnr" v="1018090" />
		<tag k="ssr:type" v="adressenavn" />
	</node>
	<node lat="61.576411527971956" lon="9.675322368306261" id="-42222">
		<tag k="name" v="Høgsetervegen" />
		<tag k="ssr:date" v="2019-12-27" />
		<tag k="ssr:gruppe" v="veg" />
		<tag k="ssr:hovedgruppe" v="infrastruktur" />
		<tag k="ssr:stedsnr" v="53257" />
		<tag k="ssr:type" v="adressenavn" />
	</node>
	<node lat="61.61125078260529" lon="9.716594391151867" id="-42228">
		<tag k="name" v="Øldalsvegen" />
		<tag k="ssr:date" v="2019-12-27" />
		<tag k="ssr:gruppe" v="veg" />
		<tag k="ssr:hovedgruppe" v="infrastruktur" />
		<tag k="ssr:stedsnr" v="53297" />
		<tag k="ssr:type" v="adressenavn" />
	</node>
	<node lat="61.609056778592375" lon="9.808868551791248" id="-42364">
		<tag k="name" v="Temorkvegen" />
		<tag k="ssr:date" v="2019-12-27" />
		<tag k="ssr:gruppe" v="veg" />
		<tag k="ssr:hovedgruppe" v="infrastruktur" />
		<tag k="ssr:stedsnr" v="119760" />
		<tag k="ssr:type" v="adressenavn" />
	</node>
	<node lat="61.645913120111054" lon="9.804622725450988" id="-42405">
		<tag k="name" v="Skardtjønnvegen" />
		<tag k="ssr:date" v="2019-12-27" />
		<tag k="ssr:gruppe" v="veg" />
		<tag k="ssr:hovedgruppe" v="infrastruktur" />
		<tag k="ssr:stedsnr" v="161670" />
		<tag k="ssr:type" v="adressenavn" />
	</node>
	<node lat="61.563296900040726" lon="9.461484360758737" id="-42434">
		<tag k="name" v="Breistulvegen" />
		<tag k="ssr:date" v="2019-12-27" />
		<tag k="ssr:gruppe" v="veg" />
		<tag k="ssr:hovedgruppe" v="infrastruktur" />
		<tag k="ssr:stedsnr" v="174495" />
		<tag k="ssr:type" v="adressenavn" />
	</node>
	<node lat="61.632949245135734" lon="9.842682567457514" id="-42484">
		<tag k="name" v="Sulsetervegen" />
		<tag k="ssr:date" v="2019-12-27" />
		<tag k="ssr:gruppe" v="veg" />
		<tag k="ssr:hovedgruppe" v="infrastruktur" />
		<tag k="ssr:stedsnr" v="179642" />
		<tag k="ssr:type" v="adressenavn" />
	</node>
	<node lat="61.609061509073676" lon="9.816515912053307" id="-42511">
		<tag k="name" v="Ressvegen" />
		<tag k="ssr:date" v="2019-12-27" />
		<tag k="ssr:gruppe" v="veg" />
		<tag k="ssr:hovedgruppe" v="infrastruktur" />
		<tag k="ssr:stedsnr" v="283722" />
		<tag k="ssr:type" v="adressenavn" />
	</node>
	<node lat="61.595580554377996" lon="9.748272224251004" id="-42619">
		<tag k="name" v="Nord-Fron kommune" />
		<tag k="ssr:date" v="2019-12-27" />
		<tag k="ssr:gruppe" v="administrativeIndelinger" />
		<tag k="ssr:hovedgruppe" v="offentligAdministrasjon" />
		<tag k="ssr:stedsnr" v="328015" />
		<tag k="ssr:type" v="kommune" />
	</node>
	<node lat="61.66534763549297" lon="9.587103363734258" id="-42815">
		<tag k="name" v="Dalumsvegen" />
		<tag k="ssr:date" v="2019-12-27" />
		<tag k="ssr:gruppe" v="veg" />
		<tag k="ssr:hovedgruppe" v="infrastruktur" />
		<tag k="ssr:stedsnr" v="423095" />
		<tag k="ssr:type" v="adressenavn" />
	</node>
	<node lat="61.75035778229259" lon="9.72308981222406" id="-42850">
		<tag k="name" v="Røsslyngråket" />
		<tag k="ssr:date" v="2019-12-27" />
		<tag k="ssr:gruppe" v="veg" />
		<tag k="ssr:hovedgruppe" v="infrastruktur" />
		<tag k="ssr:stedsnr" v="483008" />
		<tag k="ssr:type" v="adressenavn" />
	</node>
	<node lat="61.74952209047885" lon="9.725116403828778" id="-42966">
		<tag k="name" v="Breiensdokka" />
		<tag k="ssr:date" v="2019-12-27" />
		<tag k="ssr:gruppe" v="veg" />
		<tag k="ssr:hovedgruppe" v="infrastruktur" />
		<tag k="ssr:stedsnr" v="544003" />
		<tag k="ssr:type" v="adressenavn" />
	</node>
	<node lat="61.750749620852666" lon="9.763736854965186" id="-42967">
		<tag k="name" v="Hovdvegen" />
		<tag k="ssr:date" v="2019-12-27" />
		<tag k="ssr:gruppe" v="veg" />
		<tag k="ssr:hovedgruppe" v="infrastruktur" />
		<tag k="ssr:stedsnr" v="544007" />
		<tag k="ssr:type" v="adressenavn" />
	</node>
	<node lat="61.75813698306109" lon="9.80283273849434" id="-42968">
		<tag k="name" v="Jørålia" />
		<tag k="ssr:date" v="2019-12-27" />
		<tag k="ssr:gruppe" v="veg" />
		<tag k="ssr:hovedgruppe" v="infrastruktur" />
		<tag k="ssr:stedsnr" v="544010" />
		<tag k="ssr:type" v="adressenavn" />
	</node>
	<node lat="61.726406327983675" lon="9.722237138397452" id="-42969">
		<tag k="name" v="Indre Låvåshaugen" />
		<tag k="ssr:date" v="2019-12-27" />
		<tag k="ssr:gruppe" v="veg" />
		<tag k="ssr:hovedgruppe" v="infrastruktur" />
		<tag k="ssr:stedsnr" v="544072" />
		<tag k="ssr:type" v="adressenavn" />
	</node>
	<node lat="61.78251388581611" lon="9.742755551186425" id="-43102">
		<tag k="name" v="Luseby" />
		<tag k="ssr:date" v="2019-12-27" />
		<tag k="ssr:gruppe" v="veg" />
		<tag k="ssr:hovedgruppe" v="infrastruktur" />
		<tag k="ssr:stedsnr" v="602134" />
		<tag k="ssr:type" v="adressenavn" />
	</node>
	<node lat="61.594218502803024" lon="9.7756594137618" id="-43254">
		<tag k="name" v="Sollivegen" />
		<tag k="ssr:date" v="2019-12-27" />
		<tag k="ssr:gruppe" v="veg" />
		<tag k="ssr:hovedgruppe" v="infrastruktur" />
		<tag k="ssr:stedsnr" v="720030" />
		<tag k="ssr:type" v="adressenavn" />
	</node>
	<node lat="61.59776359144719" lon="9.801083616202703" id="-43325">
		<tag k="name" v="Solbjørvegen" />
		<tag k="ssr:date" v="2019-12-27" />
		<tag k="ssr:gruppe" v="veg" />
		<tag k="ssr:hovedgruppe" v="infrastruktur" />
		<tag k="ssr:stedsnr" v="726752" />
		<tag k="ssr:type" v="adressenavn" />
	</node>
	<node lat="61.637991880406155" lon="9.813661335471638" id="-43366">
		<tag k="name" v="Steindalshøgda" />
		<tag k="ssr:date" v="2019-12-27" />
		<tag k="ssr:gruppe" v="veg" />
		<tag k="ssr:hovedgruppe" v="infrastruktur" />
		<tag k="ssr:stedsnr" v="768724" />
		<tag k="ssr:type" v="adressenavn" />
	</node>
	<node lat="61.594531994157684" lon="9.794724010750725" id="-43530">
		<tag k="name" v="Hågåvegen" />
		<tag k="ssr:date" v="2019-12-27" />
		<tag k="ssr:gruppe" v="veg" />
		<tag k="ssr:hovedgruppe" v="infrastruktur" />
		<tag k="ssr:stedsnr" v="848744" />
		<tag k="ssr:type" v="adressenavn" />
	</node>
	<node lat="61.61981516927668" lon="9.836661645045732" id="-43601">
		<tag k="name" v="Kleggåsvegen" />
		<tag k="ssr:date" v="2019-12-27" />
		<tag k="ssr:gruppe" v="veg" />
		<tag k="ssr:hovedgruppe" v="infrastruktur" />
		<tag k="ssr:stedsnr" v="950711" />
		<tag k="ssr:type" v="adressenavn" />
	</node>
	<node lat="61.74796658205863" lon="9.719836950735903" id="-43683">
		<tag k="name" v="Einerråket" />
		<tag k="ssr:date" v="2019-12-27" />
		<tag k="ssr:gruppe" v="veg" />
		<tag k="ssr:hovedgruppe" v="infrastruktur" />
		<tag k="ssr:stedsnr" v="968004" />
		<tag k="ssr:type" v="adressenavn" />
	</node>
	<node lat="61.761924158780744" lon="9.737844513506461" id="-43684">
		<tag k="name" v="Krokbekkvegen" />
		<tag k="ssr:date" v="2019-12-27" />
		<tag k="ssr:gruppe" v="veg" />
		<tag k="ssr:hovedgruppe" v="infrastruktur" />
		<tag k="ssr:stedsnr" v="968011" />
		<tag k="ssr:type" v="adressenavn" />
	</node>
	<node lat="61.59414479065297" lon="9.77489115008542" id="-43686">
		<tag k="name" v="Nedre Toksegrenda" />
		<tag k="ssr:date" v="2019-12-27" />
		<tag k="ssr:gruppe" v="veg" />
		<tag k="ssr:hovedgruppe" v="infrastruktur" />
		<tag k="ssr:stedsnr" v="979238" />
		<tag k="ssr:type" v="adressenavn" />
	</node>
	<node lat="61.595052292034715" lon="9.768375300386948" id="-43687">
		<tag k="name" v="Toksegrenda" />
		<tag k="ssr:date" v="2019-12-27" />
		<tag k="ssr:gruppe" v="veg" />
		<tag k="ssr:hovedgruppe" v="infrastruktur" />
		<tag k="ssr:stedsnr" v="979239" />
		<tag k="ssr:type" v="adressenavn" />
	</node>
	<node lat="61.67461112390267" lon="9.688420514266447" id="-43688">
		<tag k="name" v="Veikle" />
		<tag k="ssr:date" v="2021-06-08" />
		<tag k="ssr:gruppe" v="veg" />
		<tag k="ssr:hovedgruppe" v="infrastruktur" />
		<tag k="ssr:stedsnr" v="979242" />
		<tag k="ssr:type" v="adressetilleggsnavn" />
	</node>
	<node lat="61.5234463354629" lon="9.402794389445106" id="-43689">
		<tag k="name" v="Søre Kampesæter" />
		<tag k="ssr:date" v="2019-12-27" />
		<tag k="ssr:gruppe" v="veg" />
		<tag k="ssr:hovedgruppe" v="infrastruktur" />
		<tag k="ssr:stedsnr" v="979245" />
		<tag k="ssr:type" v="adressetilleggsnavn" />
	</node>
	<node lat="61.57443406393831" lon="9.74070838588354" id="-43690">
		<tag k="name" v="Hov" />
		<tag k="ssr:date" v="2019-12-27" />
		<tag k="ssr:gruppe" v="veg" />
		<tag k="ssr:hovedgruppe" v="infrastruktur" />
		<tag k="ssr:stedsnr" v="979246" />
		<tag k="ssr:type" v="adressetilleggsnavn" />
	</node>
	<node lat="61.66495635757629" lon="9.738200707437977" id="-43691">
		<tag k="name" v="Teige" />
		<tag k="ssr:date" v="2019-12-27" />
		<tag k="ssr:gruppe" v="veg" />
		<tag k="ssr:hovedgruppe" v="infrastruktur" />
		<tag k="ssr:stedsnr" v="979250" />
		<tag k="ssr:type" v="adressetilleggsnavn" />
	</node>
	<node lat="61.64370836643523" lon="9.718064762379004" id="-43692">
		<tag k="name" v="Dokka" />
		<tag k="ssr:date" v="2019-12-27" />
		<tag k="ssr:gruppe" v="veg" />
		<tag k="ssr:hovedgruppe" v="infrastruktur" />
		<tag k="ssr:stedsnr" v="979251" />
		<tag k="ssr:type" v="adressetilleggsnavn" />
	</node>
	<node lat="61.635090916311135" lon="9.720175225274561" id="-43693">
		<tag k="name" v="Støsvegen" />
		<tag k="ssr:date" v="2019-12-27" />
		<tag k="ssr:gruppe" v="veg" />
		<tag k="ssr:hovedgruppe" v="infrastruktur" />
		<tag k="ssr:stedsnr" v="979285" />
		<tag k="ssr:type" v="adressenavn" />
	</node>
	<node lat="61.53392067049059" lon="9.66263712652041" id="-43694">
		<tag k="name" v="Lomsetervegen" />
		<tag k="ssr:date" v="2019-12-27" />
		<tag k="ssr:gruppe" v="veg" />
		<tag k="ssr:hovedgruppe" v="infrastruktur" />
		<tag k="ssr:stedsnr" v="979286" />
		<tag k="ssr:type" v="adressenavn" />
	</node>
	<node lat="61.526320167648166" lon="9.58826885622247" id="-43695">
		<tag k="name" v="Tjyrubuvegen" />
		<tag k="ssr:date" v="2019-12-27" />
		<tag k="ssr:gruppe" v="veg" />
		<tag k="ssr:hovedgruppe" v="infrastruktur" />
		<tag k="ssr:stedsnr" v="979287" />
		<tag k="ssr:type" v="adressenavn" />
	</node>
	<node lat="61.574258414523555" lon="9.613288832075618" id="-43696">
		<tag k="name" v="Skjedalsvegen" />
		<tag k="ssr:date" v="2019-12-27" />
		<tag k="ssr:gruppe" v="veg" />
		<tag k="ssr:hovedgruppe" v="infrastruktur" />
		<tag k="ssr:stedsnr" v="979288" />
		<tag k="ssr:type" v="adressenavn" />
	</node>
	<node lat="61.56394206140211" lon="9.461657768536329" id="-43697">
		<tag k="name" v="Engebakkvegen" />
		<tag k="ssr:date" v="2019-12-27" />
		<tag k="ssr:gruppe" v="veg" />
		<tag k="ssr:hovedgruppe" v="infrastruktur" />
		<tag k="ssr:stedsnr" v="979289" />
		<tag k="ssr:type" v="adressenavn" />
	</node>
	<node lat="61.569708398090455" lon="9.455805914325296" id="-43698">
		<tag k="name" v="Nerseterlia" />
		<tag k="ssr:date" v="2019-12-27" />
		<tag k="ssr:gruppe" v="veg" />
		<tag k="ssr:hovedgruppe" v="infrastruktur" />
		<tag k="ssr:stedsnr" v="979290" />
		<tag k="ssr:type" v="adressenavn" />
	</node>
	<node lat="61.562059164724424" lon="9.45552918229197" id="-43699">
		<tag k="name" v="Tjønnfjellvegen" />
		<tag k="ssr:date" v="2019-12-27" />
		<tag k="ssr:gruppe" v="veg" />
		<tag k="ssr:hovedgruppe" v="infrastruktur" />
		<tag k="ssr:stedsnr" v="979291" />
		<tag k="ssr:type" v="adressenavn" />
	</node>
	<node lat="61.56768889114933" lon="9.417979575230918" id="-43700">
		<tag k="name" v="Nyseterlia" />
		<tag k="ssr:date" v="2019-12-27" />
		<tag k="ssr:gruppe" v="veg" />
		<tag k="ssr:hovedgruppe" v="infrastruktur" />
		<tag k="ssr:stedsnr" v="979292" />
		<tag k="ssr:type" v="adressenavn" />
	</node>
	<node lat="61.508972428662716" lon="9.402138035402803" id="-43701">
		<tag k="name" v="Kamfossvegen" />
		<tag k="ssr:date" v="2019-12-27" />
		<tag k="ssr:gruppe" v="veg" />
		<tag k="ssr:hovedgruppe" v="infrastruktur" />
		<tag k="ssr:stedsnr" v="979293" />
		<tag k="ssr:type" v="adressenavn" />
	</node>
	<node lat="61.48682948432237" lon="9.423373834756553" id="-43702">
		<tag k="name" v="Espedalsvegen" />
		<tag k="ssr:date" v="2019-12-27" />
		<tag k="ssr:gruppe" v="veg" />
		<tag k="ssr:hovedgruppe" v="infrastruktur" />
		<tag k="ssr:stedsnr" v="979294" />
		<tag k="ssr:type" v="adressenavn" />
	</node>
	<node lat="61.508972428662716" lon="9.402138035402803" id="-43703">
		<tag k="name" v="Baklivegen" />
		<tag k="ssr:date" v="2019-12-27" />
		<tag k="ssr:gruppe" v="veg" />
		<tag k="ssr:hovedgruppe" v="infrastruktur" />
		<tag k="ssr:stedsnr" v="979295" />
		<tag k="ssr:type" v="adressenavn" />
	</node>
	<node lat="61.51059924760355" lon="9.422107625676151" id="-43704">
		<tag k="name" v="Øybekklia" />
		<tag k="ssr:date" v="2019-12-27" />
		<tag k="ssr:gruppe" v="veg" />
		<tag k="ssr:hovedgruppe" v="infrastruktur" />
		<tag k="ssr:stedsnr" v="979296" />
		<tag k="ssr:type" v="adressenavn" />
	</node>
	<node lat="61.521264012129755" lon="9.388160045387462" id="-43705">
		<tag k="name" v="Sikkilsgrenda" />
		<tag k="ssr:date" v="2019-12-27" />
		<tag k="ssr:gruppe" v="veg" />
		<tag k="ssr:hovedgruppe" v="infrastruktur" />
		<tag k="ssr:stedsnr" v="979297" />
		<tag k="ssr:type" v="adressenavn" />
	</node>
	<node lat="61.50422293486231" lon="9.379881307265812" id="-43706">
		<tag k="name" v="Holslåvegen" />
		<tag k="ssr:date" v="2019-12-27" />
		<tag k="ssr:gruppe" v="veg" />
		<tag k="ssr:hovedgruppe" v="infrastruktur" />
		<tag k="ssr:stedsnr" v="979298" />
		<tag k="ssr:type" v="adressenavn" />
	</node>
	<node lat="61.50490370195177" lon="9.36700872873205" id="-43707">
		<tag k="name" v="Brennhaugvegen" />
		<tag k="ssr:date" v="2019-12-27" />
		<tag k="ssr:gruppe" v="veg" />
		<tag k="ssr:hovedgruppe" v="infrastruktur" />
		<tag k="ssr:stedsnr" v="979299" />
		<tag k="ssr:type" v="adressenavn" />
	</node>
	<node lat="61.53933377078935" lon="9.43766574377885" id="-43708">
		<tag k="name" v="Aursetvegen" />
		<tag k="ssr:date" v="2019-12-27" />
		<tag k="ssr:gruppe" v="veg" />
		<tag k="ssr:hovedgruppe" v="infrastruktur" />
		<tag k="ssr:stedsnr" v="979300" />
		<tag k="ssr:type" v="adressenavn" />
	</node>
	<node lat="61.53540483630947" lon="9.429802642315314" id="-43709">
		<tag k="name" v="Bakkerudhaugen" />
		<tag k="ssr:date" v="2019-12-27" />
		<tag k="ssr:gruppe" v="veg" />
		<tag k="ssr:hovedgruppe" v="infrastruktur" />
		<tag k="ssr:stedsnr" v="979301" />
		<tag k="ssr:type" v="adressenavn" />
	</node>
	<node lat="61.530393221952465" lon="9.417607820258597" id="-43710">
		<tag k="name" v="Grevlingfaret" />
		<tag k="ssr:date" v="2019-12-27" />
		<tag k="ssr:gruppe" v="veg" />
		<tag k="ssr:hovedgruppe" v="infrastruktur" />
		<tag k="ssr:stedsnr" v="979302" />
		<tag k="ssr:type" v="adressenavn" />
	</node>
	<node lat="61.495505557624924" lon="9.27707790214634" id="-43711">
		<tag k="name" v="Hinøglslivegen" />
		<tag k="ssr:date" v="2019-12-27" />
		<tag k="ssr:gruppe" v="veg" />
		<tag k="ssr:hovedgruppe" v="infrastruktur" />
		<tag k="ssr:stedsnr" v="979303" />
		<tag k="ssr:type" v="adressenavn" />
	</node>
	<node lat="61.50522234388552" lon="9.232828934718237" id="-43712">
		<tag k="name" v="Flekkmovegen" />
		<tag k="ssr:date" v="2019-12-27" />
		<tag k="ssr:gruppe" v="veg" />
		<tag k="ssr:hovedgruppe" v="infrastruktur" />
		<tag k="ssr:stedsnr" v="979304" />
		<tag k="ssr:type" v="adressenavn" />
	</node>
	<node lat="61.4652608096511" lon="9.342078479051612" id="-43713">
		<tag k="name" v="Storhølivegen" />
		<tag k="ssr:date" v="2019-12-27" />
		<tag k="ssr:gruppe" v="veg" />
		<tag k="ssr:hovedgruppe" v="infrastruktur" />
		<tag k="ssr:stedsnr" v="979305" />
		<tag k="ssr:type" v="adressenavn" />
	</node>
	<node lat="61.44458022469848" lon="9.249789156342157" id="-43714">
		<tag k="name" v="Øyangsvegen" />
		<tag k="ssr:date" v="2019-12-27" />
		<tag k="ssr:gruppe" v="veg" />
		<tag k="ssr:hovedgruppe" v="infrastruktur" />
		<tag k="ssr:stedsnr" v="979306" />
		<tag k="ssr:type" v="adressenavn" />
	</node>
	<node lat="61.396643713803805" lon="9.178141565120566" id="-43715">
		<tag k="name" v="Øyvassosvegen" />
		<tag k="ssr:date" v="2019-12-27" />
		<tag k="ssr:gruppe" v="veg" />
		<tag k="ssr:hovedgruppe" v="infrastruktur" />
		<tag k="ssr:stedsnr" v="979307" />
		<tag k="ssr:type" v="adressenavn" />
	</node>
	<node lat="61.60130750013628" lon="9.744627866728933" id="-43730">
		<tag k="name" v="Beinvegen" />
		<tag k="ssr:date" v="2019-12-27" />
		<tag k="ssr:gruppe" v="veg" />
		<tag k="ssr:hovedgruppe" v="infrastruktur" />
		<tag k="ssr:stedsnr" v="1012512" />
		<tag k="ssr:type" v="adressenavn" />
	</node>
	<node lat="61.665798582438256" lon="9.682167902831091" id="-43731">
		<tag k="name" v="Andersstugulykkja" />
		<tag k="ssr:date" v="2019-12-27" />
		<tag k="ssr:gruppe" v="veg" />
		<tag k="ssr:hovedgruppe" v="infrastruktur" />
		<tag k="ssr:stedsnr" v="1012709" />
		<tag k="ssr:type" v="adressenavn" />
	</node>
	<node lat="61.59727519814845" lon="9.748308285622445" id="-43732">
		<tag k="name" v="Brattråket" />
		<tag k="ssr:date" v="2019-12-27" />
		<tag k="ssr:gruppe" v="veg" />
		<tag k="ssr:hovedgruppe" v="infrastruktur" />
		<tag k="ssr:stedsnr" v="1012734" />
		<tag k="ssr:type" v="adressenavn" />
	</node>
	<node lat="61.57100621719823" lon="9.703355852541671" id="-43733">
		<tag k="name" v="Brattliflata" />
		<tag k="ssr:date" v="2019-12-27" />
		<tag k="ssr:gruppe" v="veg" />
		<tag k="ssr:hovedgruppe" v="infrastruktur" />
		<tag k="ssr:stedsnr" v="1012738" />
		<tag k="ssr:type" v="adressenavn" />
	</node>
	<node lat="61.66537521662266" lon="9.695899048374102" id="-43734">
		<tag k="name" v="Bygdahusvegen" />
		<tag k="ssr:date" v="2019-12-27" />
		<tag k="ssr:gruppe" v="veg" />
		<tag k="ssr:hovedgruppe" v="infrastruktur" />
		<tag k="ssr:stedsnr" v="1012741" />
		<tag k="ssr:type" v="adressenavn" />
	</node>
	<node lat="61.659758042717385" lon="9.678010365908847" id="-43735">
		<tag k="name" v="Brubakken" />
		<tag k="ssr:date" v="2019-12-27" />
		<tag k="ssr:gruppe" v="veg" />
		<tag k="ssr:hovedgruppe" v="infrastruktur" />
		<tag k="ssr:stedsnr" v="1012745" />
		<tag k="ssr:type" v="adressenavn" />
	</node>
	<node lat="61.664647031595884" lon="9.677162536877397" id="-43736">
		<tag k="name" v="Brendevegen" />
		<tag k="ssr:date" v="2019-12-27" />
		<tag k="ssr:gruppe" v="veg" />
		<tag k="ssr:hovedgruppe" v="infrastruktur" />
		<tag k="ssr:stedsnr" v="1012751" />
		<tag k="ssr:type" v="adressenavn" />
	</node>
	<node lat="61.593031510412565" lon="9.758939171826006" id="-43737">
		<tag k="name" v="Grannevegen" />
		<tag k="ssr:date" v="2019-12-27" />
		<tag k="ssr:gruppe" v="veg" />
		<tag k="ssr:hovedgruppe" v="infrastruktur" />
		<tag k="ssr:stedsnr" v="1013354" />
		<tag k="ssr:type" v="adressenavn" />
	</node>
	<node lat="61.60061860428933" lon="9.748053207614605" id="-43738">
		<tag k="name" v="Byrlykkjevegen" />
		<tag k="ssr:date" v="2019-12-27" />
		<tag k="ssr:gruppe" v="veg" />
		<tag k="ssr:hovedgruppe" v="infrastruktur" />
		<tag k="ssr:stedsnr" v="1013647" />
		<tag k="ssr:type" v="adressenavn" />
	</node>
	<node lat="61.5999904653528" lon="9.743653988158032" id="-43739">
		<tag k="name" v="Hesteskoen" />
		<tag k="ssr:date" v="2019-12-27" />
		<tag k="ssr:gruppe" v="veg" />
		<tag k="ssr:hovedgruppe" v="infrastruktur" />
		<tag k="ssr:stedsnr" v="1013555" />
		<tag k="ssr:type" v="adressenavn" />
	</node>
	<node lat="61.59727260793177" lon="9.764829511144788" id="-43740">
		<tag k="name" v="Djupdokka" />
		<tag k="ssr:date" v="2019-12-27" />
		<tag k="ssr:gruppe" v="veg" />
		<tag k="ssr:hovedgruppe" v="infrastruktur" />
		<tag k="ssr:stedsnr" v="1013608" />
		<tag k="ssr:type" v="adressenavn" />
	</node>
	<node lat="61.59800272374565" lon="9.736234316338082" id="-43741">
		<tag k="name" v="Kyrkjevegen" />
		<tag k="ssr:date" v="2019-12-27" />
		<tag k="ssr:gruppe" v="veg" />
		<tag k="ssr:hovedgruppe" v="infrastruktur" />
		<tag k="ssr:stedsnr" v="1014105" />
		<tag k="ssr:type" v="adressenavn" />
	</node>
	<node lat="61.60227772594108" lon="9.748441410592392" id="-43742">
		<tag k="name" v="Høglia" />
		<tag k="ssr:date" v="2019-12-27" />
		<tag k="ssr:gruppe" v="veg" />
		<tag k="ssr:hovedgruppe" v="infrastruktur" />
		<tag k="ssr:stedsnr" v="1014303" />
		<tag k="ssr:type" v="adressenavn" />
	</node>
	<node lat="61.66280115625054" lon="9.686858271368235" id="-43743">
		<tag k="name" v="Elvevegen" />
		<tag k="ssr:date" v="2019-12-27" />
		<tag k="ssr:gruppe" v="veg" />
		<tag k="ssr:hovedgruppe" v="infrastruktur" />
		<tag k="ssr:stedsnr" v="1013866" />
		<tag k="ssr:type" v="adressenavn" />
	</node>
	<node lat="61.66560680052942" lon="9.684499119265537" id="-43744">
		<tag k="name" v="Florinvegen" />
		<tag k="ssr:date" v="2019-12-27" />
		<tag k="ssr:gruppe" v="veg" />
		<tag k="ssr:hovedgruppe" v="infrastruktur" />
		<tag k="ssr:stedsnr" v="1013954" />
		<tag k="ssr:type" v="adressenavn" />
	</node>
	<node lat="61.5974969051892" lon="9.764742454263153" id="-43745">
		<tag k="name" v="Nordgardsvegen" />
		<tag k="ssr:date" v="2019-12-27" />
		<tag k="ssr:gruppe" v="veg" />
		<tag k="ssr:hovedgruppe" v="infrastruktur" />
		<tag k="ssr:stedsnr" v="1014233" />
		<tag k="ssr:type" v="adressenavn" />
	</node>
	<node lat="61.66391745331265" lon="9.68682505385729" id="-43746">
		<tag k="name" v="Moavegen" />
		<tag k="ssr:date" v="2019-12-27" />
		<tag k="ssr:gruppe" v="veg" />
		<tag k="ssr:hovedgruppe" v="infrastruktur" />
		<tag k="ssr:stedsnr" v="1014239" />
		<tag k="ssr:type" v="adressenavn" />
	</node>
	<node lat="61.66668822738245" lon="9.68679522489536" id="-43747">
		<tag k="name" v="Lykkjevegen" />
		<tag k="ssr:date" v="2019-12-27" />
		<tag k="ssr:gruppe" v="veg" />
		<tag k="ssr:hovedgruppe" v="infrastruktur" />
		<tag k="ssr:stedsnr" v="1014004" />
		<tag k="ssr:type" v="adressenavn" />
	</node>
	<node lat="61.5908516755394" lon="9.76269368933167" id="-43748">
		<tag k="name" v="Nedregata" />
		<tag k="ssr:date" v="2019-12-27" />
		<tag k="ssr:gruppe" v="veg" />
		<tag k="ssr:hovedgruppe" v="infrastruktur" />
		<tag k="ssr:stedsnr" v="1014204" />
		<tag k="ssr:type" v="adressenavn" />
	</node>
	<node lat="61.59863314653228" lon="9.763496262738114" id="-43749">
		<tag k="name" v="Nigardsvegen" />
		<tag k="ssr:date" v="2019-12-27" />
		<tag k="ssr:gruppe" v="veg" />
		<tag k="ssr:hovedgruppe" v="infrastruktur" />
		<tag k="ssr:stedsnr" v="1014266" />
		<tag k="ssr:type" v="adressenavn" />
	</node>
	<node lat="61.592658811888526" lon="9.764085988467691" id="-43750">
		<tag k="name" v="Hoppvegen" />
		<tag k="ssr:date" v="2019-12-27" />
		<tag k="ssr:gruppe" v="veg" />
		<tag k="ssr:hovedgruppe" v="infrastruktur" />
		<tag k="ssr:stedsnr" v="1014312" />
		<tag k="ssr:type" v="adressenavn" />
	</node>
	<node lat="61.66498195261897" lon="9.68770372568359" id="-43751">
		<tag k="name" v="Kvernvegen" />
		<tag k="ssr:date" v="2019-12-27" />
		<tag k="ssr:gruppe" v="veg" />
		<tag k="ssr:hovedgruppe" v="infrastruktur" />
		<tag k="ssr:stedsnr" v="1014454" />
		<tag k="ssr:type" v="adressenavn" />
	</node>
	<node lat="61.66790522702004" lon="9.68507639190112" id="-43752">
		<tag k="name" v="Jenslykkja" />
		<tag k="ssr:date" v="2019-12-27" />
		<tag k="ssr:gruppe" v="veg" />
		<tag k="ssr:hovedgruppe" v="infrastruktur" />
		<tag k="ssr:stedsnr" v="1014468" />
		<tag k="ssr:type" v="adressenavn" />
	</node>
	<node lat="61.599784618611125" lon="9.762974603738979" id="-43753">
		<tag k="name" v="Stubben" />
		<tag k="ssr:date" v="2019-12-27" />
		<tag k="ssr:gruppe" v="veg" />
		<tag k="ssr:hovedgruppe" v="infrastruktur" />
		<tag k="ssr:stedsnr" v="1014612" />
		<tag k="ssr:type" v="adressenavn" />
	</node>
	<node lat="61.59973182654169" lon="9.729075789966343" id="-43754">
		<tag k="name" v="Tamburvegen" />
		<tag k="ssr:date" v="2019-12-27" />
		<tag k="ssr:gruppe" v="veg" />
		<tag k="ssr:hovedgruppe" v="infrastruktur" />
		<tag k="ssr:stedsnr" v="1015064" />
		<tag k="ssr:type" v="adressenavn" />
	</node>
	<node lat="61.60303622427843" lon="9.721849767787623" id="-43755">
		<tag k="name" v="Rådyrvegen" />
		<tag k="ssr:date" v="2019-12-27" />
		<tag k="ssr:gruppe" v="veg" />
		<tag k="ssr:hovedgruppe" v="infrastruktur" />
		<tag k="ssr:stedsnr" v="1015511" />
		<tag k="ssr:type" v="adressenavn" />
	</node>
	<node lat="61.66729937356056" lon="9.68589732534581" id="-43756">
		<tag k="name" v="Parkvegen" />
		<tag k="ssr:date" v="2019-12-27" />
		<tag k="ssr:gruppe" v="veg" />
		<tag k="ssr:hovedgruppe" v="infrastruktur" />
		<tag k="ssr:stedsnr" v="1015953" />
		<tag k="ssr:type" v="adressenavn" />
	</node>
	<node lat="61.599962647470825" lon="9.72855025308034" id="-43757">
		<tag k="name" v="Salmakervegen" />
		<tag k="ssr:date" v="2019-12-27" />
		<tag k="ssr:gruppe" v="veg" />
		<tag k="ssr:hovedgruppe" v="infrastruktur" />
		<tag k="ssr:stedsnr" v="1016754" />
		<tag k="ssr:type" v="adressenavn" />
	</node>
	<node lat="61.651896447537325" lon="9.869745221965879" id="-43758">
		<tag k="name" v="Veslafstjønna" />
		<tag k="ssr:date" v="2019-12-27" />
		<tag k="ssr:gruppe" v="veg" />
		<tag k="ssr:hovedgruppe" v="infrastruktur" />
		<tag k="ssr:stedsnr" v="1017524" />
		<tag k="ssr:type" v="adressenavn" />
	</node>
	<node lat="61.63938157580626" lon="9.845334344450368" id="-43759">
		<tag k="name" v="Lensmannsgeilen" />
		<tag k="ssr:date" v="2019-12-27" />
		<tag k="ssr:gruppe" v="veg" />
		<tag k="ssr:hovedgruppe" v="infrastruktur" />
		<tag k="ssr:stedsnr" v="1017525" />
		<tag k="ssr:type" v="adressenavn" />
	</node>
	<node lat="61.36253324197758" lon="9.237886170115218" id="-43760">
		<tag k="name" v="Nedre Hundfetvegen" />
		<tag k="ssr:date" v="2019-12-27" />
		<tag k="ssr:gruppe" v="veg" />
		<tag k="ssr:hovedgruppe" v="infrastruktur" />
		<tag k="ssr:stedsnr" v="1017528" />
		<tag k="ssr:type" v="adressenavn" />
	</node>
	<node lat="61.36231069270679" lon="9.241344763621118" id="-43761">
		<tag k="name" v="Hundfetvegen" />
		<tag k="ssr:date" v="2019-12-27" />
		<tag k="ssr:gruppe" v="veg" />
		<tag k="ssr:hovedgruppe" v="infrastruktur" />
		<tag k="ssr:stedsnr" v="1017529" />
		<tag k="ssr:type" v="adressenavn" />
	</node>
	<node lat="61.74648058995819" lon="9.731893611456792" id="-43762">
		<tag k="name" v="Myrullvegen" />
		<tag k="ssr:date" v="2019-12-27" />
		<tag k="ssr:gruppe" v="veg" />
		<tag k="ssr:hovedgruppe" v="infrastruktur" />
		<tag k="ssr:stedsnr" v="1017530" />
		<tag k="ssr:type" v="adressenavn" />
	</node>
	<node lat="61.75097238319538" lon="9.720898154751957" id="-43763">
		<tag k="name" v="Blålyngråket" />
		<tag k="ssr:date" v="2019-12-27" />
		<tag k="ssr:gruppe" v="veg" />
		<tag k="ssr:hovedgruppe" v="infrastruktur" />
		<tag k="ssr:stedsnr" v="1017531" />
		<tag k="ssr:type" v="adressenavn" />
	</node>
	<node lat="61.71952294172113" lon="9.74218477417618" id="-43764">
		<tag k="name" v="Låvåslia" />
		<tag k="ssr:date" v="2019-12-27" />
		<tag k="ssr:gruppe" v="veg" />
		<tag k="ssr:hovedgruppe" v="infrastruktur" />
		<tag k="ssr:stedsnr" v="1017532" />
		<tag k="ssr:type" v="adressenavn" />
	</node>
	<node lat="61.7445481334651" lon="9.735688171751036" id="-43765">
		<tag k="name" v="Rondagrenda" />
		<tag k="ssr:date" v="2019-12-27" />
		<tag k="ssr:gruppe" v="veg" />
		<tag k="ssr:hovedgruppe" v="infrastruktur" />
		<tag k="ssr:stedsnr" v="1017533" />
		<tag k="ssr:type" v="adressenavn" />
	</node>
	<node lat="61.58763122974133" lon="9.715935545384482" id="-43766">
		<tag k="name" v="Rovvegen" />
		<tag k="ssr:date" v="2019-12-27" />
		<tag k="ssr:gruppe" v="veg" />
		<tag k="ssr:hovedgruppe" v="infrastruktur" />
		<tag k="ssr:stedsnr" v="1017536" />
		<tag k="ssr:type" v="adressenavn" />
	</node>
	<node lat="61.58097824526745" lon="9.520764146520756" id="-43767">
		<tag k="name" v="Åsen" />
		<tag k="ssr:date" v="2019-12-27" />
		<tag k="ssr:gruppe" v="veg" />
		<tag k="ssr:hovedgruppe" v="infrastruktur" />
		<tag k="ssr:stedsnr" v="1017537" />
		<tag k="ssr:type" v="adressenavn" />
	</node>
	<node lat="61.755531600509045" lon="9.723676781495223" id="-43768">
		<tag k="name" v="Tyttebærråket" />
		<tag k="ssr:date" v="2019-12-27" />
		<tag k="ssr:gruppe" v="veg" />
		<tag k="ssr:hovedgruppe" v="infrastruktur" />
		<tag k="ssr:stedsnr" v="1017538" />
		<tag k="ssr:type" v="adressenavn" />
	</node>
	<node lat="61.75429617017488" lon="9.72408038384428" id="-43769">
		<tag k="name" v="Årvillingsbakken" />
		<tag k="ssr:date" v="2019-12-27" />
		<tag k="ssr:gruppe" v="veg" />
		<tag k="ssr:hovedgruppe" v="infrastruktur" />
		<tag k="ssr:stedsnr" v="1017539" />
		<tag k="ssr:type" v="adressenavn" />
	</node>
	<node lat="61.51388214607558" lon="9.374452721278518" id="-43770">
		<tag k="name" v="Holslåråket" />
		<tag k="ssr:date" v="2019-12-27" />
		<tag k="ssr:gruppe" v="veg" />
		<tag k="ssr:hovedgruppe" v="infrastruktur" />
		<tag k="ssr:stedsnr" v="1017540" />
		<tag k="ssr:type" v="adressenavn" />
	</node>
	<node lat="61.51394176748243" lon="9.369610890668554" id="-43771">
		<tag k="name" v="Skardfjellbakken" />
		<tag k="ssr:date" v="2019-12-27" />
		<tag k="ssr:gruppe" v="veg" />
		<tag k="ssr:hovedgruppe" v="infrastruktur" />
		<tag k="ssr:stedsnr" v="1017541" />
		<tag k="ssr:type" v="adressenavn" />
	</node>
	<node lat="61.57741859700054" lon="9.524697592894565" id="-43772">
		<tag k="name" v="Åsengvegen" />
		<tag k="ssr:date" v="2019-12-27" />
		<tag k="ssr:gruppe" v="veg" />
		<tag k="ssr:hovedgruppe" v="infrastruktur" />
		<tag k="ssr:stedsnr" v="1017542" />
		<tag k="ssr:type" v="adressenavn" />
	</node>
	<node lat="61.59288058742252" lon="9.443045628817222" id="-43773">
		<tag k="name" v="Gamle Breistulvegen" />
		<tag k="ssr:date" v="2019-12-27" />
		<tag k="ssr:gruppe" v="veg" />
		<tag k="ssr:hovedgruppe" v="infrastruktur" />
		<tag k="ssr:stedsnr" v="1017543" />
		<tag k="ssr:type" v="adressenavn" />
	</node>
	<node lat="61.72347852162593" lon="9.721005731240133" id="-43774">
		<tag k="name" v="Låvåsfaret" />
		<tag k="ssr:date" v="2019-12-27" />
		<tag k="ssr:gruppe" v="veg" />
		<tag k="ssr:hovedgruppe" v="infrastruktur" />
		<tag k="ssr:stedsnr" v="1017544" />
		<tag k="ssr:type" v="adressenavn" />
	</node>
	<node lat="61.7188023813673" lon="9.72787940645087" id="-43775">
		<tag k="name" v="Låvåshaugråket" />
		<tag k="ssr:date" v="2019-12-27" />
		<tag k="ssr:gruppe" v="veg" />
		<tag k="ssr:hovedgruppe" v="infrastruktur" />
		<tag k="ssr:stedsnr" v="1017545" />
		<tag k="ssr:type" v="adressenavn" />
	</node>
	<node lat="61.512931423539165" lon="9.373537620616462" id="-43776">
		<tag k="name" v="Skardfjellvegen" />
		<tag k="ssr:date" v="2019-12-27" />
		<tag k="ssr:gruppe" v="veg" />
		<tag k="ssr:hovedgruppe" v="infrastruktur" />
		<tag k="ssr:stedsnr" v="1017546" />
		<tag k="ssr:type" v="adressenavn" />
	</node>
	<node lat="61.76244513553903" lon="9.701392201374816" id="-43777">
		<tag k="name" v="Vassmillomvegen" />
		<tag k="ssr:date" v="2019-12-27" />
		<tag k="ssr:gruppe" v="veg" />
		<tag k="ssr:hovedgruppe" v="infrastruktur" />
		<tag k="ssr:stedsnr" v="1017547" />
		<tag k="ssr:type" v="adressenavn" />
	</node>
	<node lat="61.66049948144475" lon="9.783353665333356" id="-43778">
		<tag k="name" v="Veslsetervegen" />
		<tag k="ssr:date" v="2019-12-27" />
		<tag k="ssr:gruppe" v="veg" />
		<tag k="ssr:hovedgruppe" v="infrastruktur" />
		<tag k="ssr:stedsnr" v="1017548" />
		<tag k="ssr:type" v="adressenavn" />
	</node>
	<node lat="61.661965914175184" lon="9.785163100928019" id="-43779">
		<tag k="name" v="Skårålia" />
		<tag k="ssr:date" v="2019-12-27" />
		<tag k="ssr:gruppe" v="veg" />
		<tag k="ssr:hovedgruppe" v="infrastruktur" />
		<tag k="ssr:stedsnr" v="1017549" />
		<tag k="ssr:type" v="adressenavn" />
	</node>
	<node lat="61.70750544150735" lon="9.889158669518263" id="-43780">
		<tag k="name" v="Storvassvegen" />
		<tag k="ssr:date" v="2019-12-27" />
		<tag k="ssr:gruppe" v="veg" />
		<tag k="ssr:hovedgruppe" v="infrastruktur" />
		<tag k="ssr:stedsnr" v="1017551" />
		<tag k="ssr:type" v="adressenavn" />
	</node>
	<node lat="61.6734499213821" lon="9.800799558005231" id="-43781">
		<tag k="name" v="Gravdalsmoråket" />
		<tag k="ssr:date" v="2019-12-27" />
		<tag k="ssr:gruppe" v="veg" />
		<tag k="ssr:hovedgruppe" v="infrastruktur" />
		<tag k="ssr:stedsnr" v="1017552" />
		<tag k="ssr:type" v="adressenavn" />
	</node>
	<node lat="61.49798534079722" lon="9.448304966139315" id="-43782">
		<tag k="name" v="Øybekktråkket" />
		<tag k="ssr:date" v="2019-12-27" />
		<tag k="ssr:gruppe" v="veg" />
		<tag k="ssr:hovedgruppe" v="infrastruktur" />
		<tag k="ssr:stedsnr" v="1017477" />
		<tag k="ssr:type" v="adressenavn" />
	</node>
	<node lat="61.596716610712214" lon="9.728675616746212" id="-43783">
		<tag k="name" v="Furulundvegen" />
		<tag k="ssr:date" v="2019-12-27" />
		<tag k="ssr:gruppe" v="veg" />
		<tag k="ssr:hovedgruppe" v="infrastruktur" />
		<tag k="ssr:stedsnr" v="1017478" />
		<tag k="ssr:type" v="adressenavn" />
	</node>
	<node lat="61.53525360633029" lon="9.425064727358043" id="-43784">
		<tag k="name" v="Bakkerudmyra" />
		<tag k="ssr:date" v="2019-12-27" />
		<tag k="ssr:gruppe" v="veg" />
		<tag k="ssr:hovedgruppe" v="infrastruktur" />
		<tag k="ssr:stedsnr" v="1017479" />
		<tag k="ssr:type" v="adressenavn" />
	</node>
	<node lat="61.497302542240796" lon="9.448683309873502" id="-43785">
		<tag k="name" v="Bekkefaret" />
		<tag k="ssr:date" v="2019-12-27" />
		<tag k="ssr:gruppe" v="veg" />
		<tag k="ssr:hovedgruppe" v="infrastruktur" />
		<tag k="ssr:stedsnr" v="1017481" />
		<tag k="ssr:type" v="adressenavn" />
	</node>
	<node lat="61.7612838001236" lon="9.683534248528774" id="-43786">
		<tag k="name" v="Kringsetervegen" />
		<tag k="ssr:date" v="2019-12-27" />
		<tag k="ssr:gruppe" v="veg" />
		<tag k="ssr:hovedgruppe" v="infrastruktur" />
		<tag k="ssr:stedsnr" v="1017483" />
		<tag k="ssr:type" v="adressenavn" />
	</node>
	<node lat="61.776594200231585" lon="9.701914809467334" id="-43787">
		<tag k="name" v="Elgsvika" />
		<tag k="ssr:date" v="2019-12-27" />
		<tag k="ssr:gruppe" v="veg" />
		<tag k="ssr:hovedgruppe" v="infrastruktur" />
		<tag k="ssr:stedsnr" v="1017485" />
		<tag k="ssr:type" v="adressenavn" />
	</node>
	<node lat="61.59884711500287" lon="9.763374488127923" id="-43788">
		<tag k="name" v="Nedre Solhellinga" />
		<tag k="ssr:date" v="2019-12-27" />
		<tag k="ssr:gruppe" v="veg" />
		<tag k="ssr:hovedgruppe" v="infrastruktur" />
		<tag k="ssr:stedsnr" v="1017490" />
		<tag k="ssr:type" v="adressenavn" />
	</node>
	<node lat="61.5711244274346" lon="9.697811689696056" id="-43789">
		<tag k="name" v="Huskelivegen" />
		<tag k="ssr:date" v="2019-12-27" />
		<tag k="ssr:gruppe" v="veg" />
		<tag k="ssr:hovedgruppe" v="infrastruktur" />
		<tag k="ssr:stedsnr" v="1017494" />
		<tag k="ssr:type" v="adressenavn" />
	</node>
	<node lat="61.76591379309802" lon="9.749817026990897" id="-43790">
		<tag k="name" v="Hovdråket" />
		<tag k="ssr:date" v="2019-12-27" />
		<tag k="ssr:gruppe" v="veg" />
		<tag k="ssr:hovedgruppe" v="infrastruktur" />
		<tag k="ssr:stedsnr" v="1017496" />
		<tag k="ssr:type" v="adressenavn" />
	</node>
	<node lat="61.810253338627746" lon="9.732825099967618" id="-43791">
		<tag k="name" v="Tjønnbakkvegen" />
		<tag k="ssr:date" v="2019-12-27" />
		<tag k="ssr:gruppe" v="veg" />
		<tag k="ssr:hovedgruppe" v="infrastruktur" />
		<tag k="ssr:stedsnr" v="1017498" />
		<tag k="ssr:type" v="adressenavn" />
	</node>
	<node lat="61.712498334019216" lon="9.678330662752945" id="-43792">
		<tag k="name" v="Metjønna" />
		<tag k="ssr:date" v="2019-12-27" />
		<tag k="ssr:gruppe" v="veg" />
		<tag k="ssr:hovedgruppe" v="infrastruktur" />
		<tag k="ssr:stedsnr" v="1017500" />
		<tag k="ssr:type" v="adressenavn" />
	</node>
	<node lat="61.60434780348653" lon="9.76380601248559" id="-43793">
		<tag k="name" v="Einlivegen" />
		<tag k="ssr:date" v="2019-12-27" />
		<tag k="ssr:gruppe" v="veg" />
		<tag k="ssr:hovedgruppe" v="infrastruktur" />
		<tag k="ssr:stedsnr" v="1017502" />
		<tag k="ssr:type" v="adressenavn" />
	</node>
	<node lat="61.68001189908208" lon="9.68922316696847" id="-43794">
		<tag k="name" v="Bergevegen" />
		<tag k="ssr:date" v="2019-12-27" />
		<tag k="ssr:gruppe" v="veg" />
		<tag k="ssr:hovedgruppe" v="infrastruktur" />
		<tag k="ssr:stedsnr" v="1017504" />
		<tag k="ssr:type" v="adressenavn" />
	</node>
	<node lat="61.60306845827727" lon="9.837960628791581" id="-43795">
		<tag k="name" v="Nedre Ressvegen" />
		<tag k="ssr:date" v="2019-12-27" />
		<tag k="ssr:gruppe" v="veg" />
		<tag k="ssr:hovedgruppe" v="infrastruktur" />
		<tag k="ssr:stedsnr" v="1017506" />
		<tag k="ssr:type" v="adressenavn" />
	</node>
	<node lat="61.614242707156464" lon="9.778219886564322" id="-43796">
		<tag k="name" v="Dalstjønnvegen" />
		<tag k="ssr:date" v="2019-12-27" />
		<tag k="ssr:gruppe" v="veg" />
		<tag k="ssr:hovedgruppe" v="infrastruktur" />
		<tag k="ssr:stedsnr" v="1017508" />
		<tag k="ssr:type" v="adressenavn" />
	</node>
	<node lat="61.52375916450362" lon="9.400550424621809" id="-43797">
		<tag k="name" v="Murudalsråket" />
		<tag k="ssr:date" v="2019-12-27" />
		<tag k="ssr:gruppe" v="veg" />
		<tag k="ssr:hovedgruppe" v="infrastruktur" />
		<tag k="ssr:stedsnr" v="1017510" />
		<tag k="ssr:type" v="adressenavn" />
	</node>
	<node lat="61.524132084793976" lon="9.405677868717305" id="-43798">
		<tag k="name" v="Kamssetervegen" />
		<tag k="ssr:date" v="2019-12-27" />
		<tag k="ssr:gruppe" v="veg" />
		<tag k="ssr:hovedgruppe" v="infrastruktur" />
		<tag k="ssr:stedsnr" v="1017512" />
		<tag k="ssr:type" v="adressenavn" />
	</node>
	<node lat="61.590560249505046" lon="9.763701313430989" id="-43799">
		<tag k="name" v="Toksevegen" />
		<tag k="ssr:date" v="2019-12-27" />
		<tag k="ssr:gruppe" v="veg" />
		<tag k="ssr:hovedgruppe" v="infrastruktur" />
		<tag k="ssr:stedsnr" v="1017812" />
		<tag k="ssr:type" v="adressenavn" />
	</node>
	<node lat="61.583045560962155" lon="9.711296787361361" id="-43800">
		<tag k="name" v="Kloveberget" />
		<tag k="ssr:date" v="2019-12-27" />
		<tag k="ssr:gruppe" v="veg" />
		<tag k="ssr:hovedgruppe" v="infrastruktur" />
		<tag k="ssr:stedsnr" v="1017922" />
		<tag k="ssr:type" v="adressenavn" />
	</node>
	<node lat="61.58560343639305" lon="9.79706913600607" id="-43801">
		<tag k="name" v="Kjørrasletta" />
		<tag k="ssr:date" v="2019-12-27" />
		<tag k="ssr:gruppe" v="veg" />
		<tag k="ssr:hovedgruppe" v="infrastruktur" />
		<tag k="ssr:stedsnr" v="1017924" />
		<tag k="ssr:type" v="adressenavn" />
	</node>
	<node lat="61.5859116961823" lon="9.828135311176027" id="-43802">
		<tag k="name" v="Gudbrandsdalsvegen" />
		<tag k="ssr:date" v="2019-12-27" />
		<tag k="ssr:gruppe" v="veg" />
		<tag k="ssr:hovedgruppe" v="infrastruktur" />
		<tag k="ssr:stedsnr" v="1017925" />
		<tag k="ssr:type" v="adressenavn" />
	</node>
	<node lat="61.66412323524314" lon="9.694524188849723" id="-43803">
		<tag k="name" v="Teigajordet" />
		<tag k="ssr:date" v="2019-12-27" />
		<tag k="ssr:gruppe" v="veg" />
		<tag k="ssr:hovedgruppe" v="infrastruktur" />
		<tag k="ssr:stedsnr" v="1017928" />
		<tag k="ssr:type" v="adressenavn" />
	</node>
	<node lat="61.587470383257404" lon="9.776343231263883" id="-43804">
		<tag k="name" v="Fyru" />
		<tag k="ssr:date" v="2019-12-27" />
		<tag k="ssr:gruppe" v="veg" />
		<tag k="ssr:hovedgruppe" v="infrastruktur" />
		<tag k="ssr:stedsnr" v="1017931" />
		<tag k="ssr:type" v="adressenavn" />
	</node>
	<node lat="61.58762598376993" lon="9.784613335028178" id="-43805">
		<tag k="name" v="Slåstugugeilen" />
		<tag k="ssr:date" v="2019-12-27" />
		<tag k="ssr:gruppe" v="veg" />
		<tag k="ssr:hovedgruppe" v="infrastruktur" />
		<tag k="ssr:stedsnr" v="1017933" />
		<tag k="ssr:type" v="adressenavn" />
	</node>
	<node lat="61.58592881176299" lon="9.790115575062707" id="-43806">
		<tag k="name" v="Gammelgata" />
		<tag k="ssr:date" v="2019-12-27" />
		<tag k="ssr:gruppe" v="veg" />
		<tag k="ssr:hovedgruppe" v="infrastruktur" />
		<tag k="ssr:stedsnr" v="1017934" />
		<tag k="ssr:type" v="adressenavn" />
	</node>
	<node lat="61.585889998615215" lon="9.790934136670202" id="-43807">
		<tag k="name" v="Nyheimsvegen" />
		<tag k="ssr:date" v="2019-12-27" />
		<tag k="ssr:gruppe" v="veg" />
		<tag k="ssr:hovedgruppe" v="infrastruktur" />
		<tag k="ssr:stedsnr" v="1017935" />
		<tag k="ssr:type" v="adressenavn" />
	</node>
	<node lat="61.41176301415989" lon="9.181653366145587" id="-43808">
		<tag k="name" v="Oskampvegen" />
		<tag k="ssr:date" v="2019-12-27" />
		<tag k="ssr:gruppe" v="veg" />
		<tag k="ssr:hovedgruppe" v="infrastruktur" />
		<tag k="ssr:stedsnr" v="1017445" />
		<tag k="ssr:type" v="adressenavn" />
	</node>
	<node lat="61.47387068906415" lon="9.351453198502496" id="-43809">
		<tag k="name" v="Sikkilsdalsvegen" />
		<tag k="ssr:date" v="2019-12-27" />
		<tag k="ssr:gruppe" v="veg" />
		<tag k="ssr:hovedgruppe" v="infrastruktur" />
		<tag k="ssr:stedsnr" v="1017450" />
		<tag k="ssr:type" v="adressenavn" />
	</node>
	<node lat="61.53788010279024" lon="9.64066010075358" id="-43810">
		<tag k="name" v="Granåsvegen" />
		<tag k="ssr:date" v="2019-12-27" />
		<tag k="ssr:gruppe" v="veg" />
		<tag k="ssr:hovedgruppe" v="infrastruktur" />
		<tag k="ssr:stedsnr" v="1017459" />
		<tag k="ssr:type" v="adressenavn" />
	</node>
	<node lat="61.58473828446285" lon="9.714502381158805" id="-43811">
		<tag k="name" v="Brynsvegen" />
		<tag k="ssr:date" v="2019-12-27" />
		<tag k="ssr:gruppe" v="veg" />
		<tag k="ssr:hovedgruppe" v="infrastruktur" />
		<tag k="ssr:stedsnr" v="1017461" />
		<tag k="ssr:type" v="adressenavn" />
	</node>
	<node lat="61.49653517135951" lon="9.664148201344432" id="-43812">
		<tag k="name" v="Graslivegen" />
		<tag k="ssr:date" v="2019-12-27" />
		<tag k="ssr:gruppe" v="veg" />
		<tag k="ssr:hovedgruppe" v="infrastruktur" />
		<tag k="ssr:stedsnr" v="1017467" />
		<tag k="ssr:type" v="adressenavn" />
	</node>
	<node lat="61.58531813677434" lon="9.718165743097257" id="-43813">
		<tag k="name" v="Nørdre Feforvegen" />
		<tag k="ssr:date" v="2019-12-27" />
		<tag k="ssr:gruppe" v="veg" />
		<tag k="ssr:hovedgruppe" v="infrastruktur" />
		<tag k="ssr:stedsnr" v="1017872" />
		<tag k="ssr:type" v="adressenavn" />
	</node>
	<node lat="61.57212429304407" lon="9.782033738630105" id="-43814">
		<tag k="name" v="Brenngeilen" />
		<tag k="ssr:date" v="2019-12-27" />
		<tag k="ssr:gruppe" v="veg" />
		<tag k="ssr:hovedgruppe" v="infrastruktur" />
		<tag k="ssr:stedsnr" v="1017873" />
		<tag k="ssr:type" v="adressenavn" />
	</node>
	<node lat="61.571017516574" lon="9.70229706218232" id="-43815">
		<tag k="name" v="Øvergrendsvegen" />
		<tag k="ssr:date" v="2019-12-27" />
		<tag k="ssr:gruppe" v="veg" />
		<tag k="ssr:hovedgruppe" v="infrastruktur" />
		<tag k="ssr:stedsnr" v="1017875" />
		<tag k="ssr:type" v="adressenavn" />
	</node>
	<node lat="61.571890005132644" lon="9.615386223249496" id="-43816">
		<tag k="name" v="Kvikneskogen" />
		<tag k="ssr:date" v="2019-12-27" />
		<tag k="ssr:gruppe" v="veg" />
		<tag k="ssr:hovedgruppe" v="infrastruktur" />
		<tag k="ssr:stedsnr" v="1017876" />
		<tag k="ssr:type" v="adressenavn" />
	</node>
	<node lat="61.57943312007139" lon="9.685906314176366" id="-43817">
		<tag k="name" v="Kviknehøgda" />
		<tag k="ssr:date" v="2019-12-27" />
		<tag k="ssr:gruppe" v="veg" />
		<tag k="ssr:hovedgruppe" v="infrastruktur" />
		<tag k="ssr:stedsnr" v="1017877" />
		<tag k="ssr:type" v="adressenavn" />
	</node>
	<node lat="61.57832030628538" lon="9.739908626335735" id="-43818">
		<tag k="name" v="Søre Feforvegen" />
		<tag k="ssr:date" v="2019-12-27" />
		<tag k="ssr:gruppe" v="veg" />
		<tag k="ssr:hovedgruppe" v="infrastruktur" />
		<tag k="ssr:stedsnr" v="1017879" />
		<tag k="ssr:type" v="adressenavn" />
	</node>
	<node lat="61.57189174259933" lon="9.615293448661063" id="-43819">
		<tag k="name" v="Kviknebaksida" />
		<tag k="ssr:date" v="2019-12-27" />
		<tag k="ssr:gruppe" v="veg" />
		<tag k="ssr:hovedgruppe" v="infrastruktur" />
		<tag k="ssr:stedsnr" v="1017881" />
		<tag k="ssr:type" v="adressenavn" />
	</node>
	<node lat="61.54560716033323" lon="9.455429598773303" id="-43820">
		<tag k="name" v="Skåbugardsvegen" />
		<tag k="ssr:date" v="2019-12-27" />
		<tag k="ssr:gruppe" v="veg" />
		<tag k="ssr:hovedgruppe" v="infrastruktur" />
		<tag k="ssr:stedsnr" v="1017882" />
		<tag k="ssr:type" v="adressenavn" />
	</node>
	<node lat="61.513238879825295" lon="9.402578302232184" id="-43821">
		<tag k="name" v="Engjomvegen" />
		<tag k="ssr:date" v="2019-12-27" />
		<tag k="ssr:gruppe" v="veg" />
		<tag k="ssr:hovedgruppe" v="infrastruktur" />
		<tag k="ssr:stedsnr" v="1017883" />
		<tag k="ssr:type" v="adressenavn" />
	</node>
	<node lat="61.52245065638871" lon="9.403968074254674" id="-43822">
		<tag k="name" v="Lykkja" />
		<tag k="ssr:date" v="2019-12-27" />
		<tag k="ssr:gruppe" v="veg" />
		<tag k="ssr:hovedgruppe" v="infrastruktur" />
		<tag k="ssr:stedsnr" v="1017885" />
		<tag k="ssr:type" v="adressenavn" />
	</node>
	<node lat="61.48188975999014" lon="9.363942523505026" id="-43823">
		<tag k="name" v="Almenningsvegen" />
		<tag k="ssr:date" v="2019-12-27" />
		<tag k="ssr:gruppe" v="veg" />
		<tag k="ssr:hovedgruppe" v="infrastruktur" />
		<tag k="ssr:stedsnr" v="1017887" />
		<tag k="ssr:type" v="adressenavn" />
	</node>
	<node lat="61.525730157777076" lon="9.410156808458625" id="-43824">
		<tag k="name" v="Nymogeilen" />
		<tag k="ssr:date" v="2019-12-27" />
		<tag k="ssr:gruppe" v="veg" />
		<tag k="ssr:hovedgruppe" v="infrastruktur" />
		<tag k="ssr:stedsnr" v="1017890" />
		<tag k="ssr:type" v="adressenavn" />
	</node>
	<node lat="61.595459646796435" lon="9.769778415726387" id="-43825">
		<tag k="name" v="Utsikta" />
		<tag k="ssr:date" v="2019-12-27" />
		<tag k="ssr:gruppe" v="veg" />
		<tag k="ssr:hovedgruppe" v="infrastruktur" />
		<tag k="ssr:stedsnr" v="1017747" />
		<tag k="ssr:type" v="adressenavn" />
	</node>
	<node lat="61.56636668162023" lon="9.697478690302308" id="-43826">
		<tag k="name" v="Feforvegen" />
		<tag k="ssr:date" v="2019-12-27" />
		<tag k="ssr:gruppe" v="veg" />
		<tag k="ssr:hovedgruppe" v="infrastruktur" />
		<tag k="ssr:stedsnr" v="1017849" />
		<tag k="ssr:type" v="adressenavn" />
	</node>
	<node lat="61.58380748125282" lon="9.725571906008199" id="-43827">
		<tag k="name" v="Rustmovegen" />
		<tag k="ssr:date" v="2019-12-27" />
		<tag k="ssr:gruppe" v="veg" />
		<tag k="ssr:hovedgruppe" v="infrastruktur" />
		<tag k="ssr:stedsnr" v="1017852" />
		<tag k="ssr:type" v="adressenavn" />
	</node>
	<node lat="61.6046743142735" lon="9.727024510961918" id="-43828">
		<tag k="name" v="Sundstugu" />
		<tag k="ssr:date" v="2019-12-27" />
		<tag k="ssr:gruppe" v="veg" />
		<tag k="ssr:hovedgruppe" v="infrastruktur" />
		<tag k="ssr:stedsnr" v="1017856" />
		<tag k="ssr:type" v="adressenavn" />
	</node>
	<node lat="61.57370787013526" lon="9.806754371643652" id="-43829">
		<tag k="name" v="Rudlandsvegen" />
		<tag k="old_name" v="Anleggsvegen" />
		<tag k="ssr:date" v="2019-12-27" />
		<tag k="ssr:gruppe" v="veg" />
		<tag k="ssr:hovedgruppe" v="infrastruktur" />
		<tag k="ssr:stedsnr" v="1017858" />
		<tag k="ssr:type" v="adressenavn" />
	</node>
	<node lat="61.57284978933532" lon="9.762199489149923" id="-43830">
		<tag k="name" v="Haugamovegen" />
		<tag k="ssr:date" v="2019-12-27" />
		<tag k="ssr:gruppe" v="veg" />
		<tag k="ssr:hovedgruppe" v="infrastruktur" />
		<tag k="ssr:stedsnr" v="1017860" />
		<tag k="ssr:type" v="adressenavn" />
	</node>
	<node lat="61.57801050525225" lon="9.751477369485452" id="-43831">
		<tag k="name" v="Granmorkvegen" />
		<tag k="ssr:date" v="2019-12-27" />
		<tag k="ssr:gruppe" v="veg" />
		<tag k="ssr:hovedgruppe" v="infrastruktur" />
		<tag k="ssr:stedsnr" v="1017865" />
		<tag k="ssr:type" v="adressenavn" />
	</node>
	<node lat="61.5767955572549" lon="9.747991332599987" id="-43832">
		<tag k="name" v="Nermovegen" />
		<tag k="ssr:date" v="2019-12-27" />
		<tag k="ssr:gruppe" v="veg" />
		<tag k="ssr:hovedgruppe" v="infrastruktur" />
		<tag k="ssr:stedsnr" v="1017868" />
		<tag k="ssr:type" v="adressenavn" />
	</node>
	<node lat="61.54201998916923" lon="9.693720632041277" id="-43833">
		<tag k="name" v="Heggeslåvegen" />
		<tag k="ssr:date" v="2019-12-27" />
		<tag k="ssr:gruppe" v="veg" />
		<tag k="ssr:hovedgruppe" v="infrastruktur" />
		<tag k="ssr:stedsnr" v="1017871" />
		<tag k="ssr:type" v="adressenavn" />
	</node>
	<node lat="61.67072436508333" lon="9.684973674781046" id="-43834">
		<tag k="name" v="Rondablikkvegen" />
		<tag k="ssr:date" v="2019-12-27" />
		<tag k="ssr:gruppe" v="veg" />
		<tag k="ssr:hovedgruppe" v="infrastruktur" />
		<tag k="ssr:stedsnr" v="1017892" />
		<tag k="ssr:type" v="adressenavn" />
	</node>
	<node lat="61.59291130500276" lon="9.757497853602791" id="-43835">
		<tag k="name" v="Sødorpvegen" />
		<tag k="ssr:date" v="2019-12-27" />
		<tag k="ssr:gruppe" v="veg" />
		<tag k="ssr:hovedgruppe" v="infrastruktur" />
		<tag k="ssr:stedsnr" v="1017893" />
		<tag k="ssr:type" v="adressenavn" />
	</node>
	<node lat="61.497016233547924" lon="9.382938657275668" id="-43836">
		<tag k="name" v="Slangslivegen" />
		<tag k="ssr:date" v="2019-12-27" />
		<tag k="ssr:gruppe" v="veg" />
		<tag k="ssr:hovedgruppe" v="infrastruktur" />
		<tag k="ssr:stedsnr" v="1017896" />
		<tag k="ssr:type" v="adressenavn" />
	</node>
	<node lat="61.666282549965686" lon="9.663181808924223" id="-43837">
		<tag k="name" v="Leinbakkvegen" />
		<tag k="ssr:date" v="2019-12-27" />
		<tag k="ssr:gruppe" v="veg" />
		<tag k="ssr:hovedgruppe" v="infrastruktur" />
		<tag k="ssr:stedsnr" v="1017897" />
		<tag k="ssr:type" v="adressenavn" />
	</node>
	<node lat="61.497016233547924" lon="9.382938657275668" id="-43838">
		<tag k="name" v="Skåbuvegen" />
		<tag k="ssr:date" v="2019-12-27" />
		<tag k="ssr:gruppe" v="veg" />
		<tag k="ssr:hovedgruppe" v="infrastruktur" />
		<tag k="ssr:stedsnr" v="1017899" />
		<tag k="ssr:type" v="adressenavn" />
	</node>
	<node lat="61.58267956800416" lon="9.539966157593334" id="-43839">
		<tag k="name" v="Åsvegen" />
		<tag k="ssr:date" v="2019-12-27" />
		<tag k="ssr:gruppe" v="veg" />
		<tag k="ssr:hovedgruppe" v="infrastruktur" />
		<tag k="ssr:stedsnr" v="1017901" />
		<tag k="ssr:type" v="adressenavn" />
	</node>
	<node lat="61.599354818751465" lon="9.726376540007768" id="-43840">
		<tag k="name" v="Baksidevegen" />
		<tag k="ssr:date" v="2019-12-27" />
		<tag k="ssr:gruppe" v="veg" />
		<tag k="ssr:hovedgruppe" v="infrastruktur" />
		<tag k="ssr:stedsnr" v="1017903" />
		<tag k="ssr:type" v="adressenavn" />
	</node>
	<node lat="61.57264327942724" lon="9.804513906111154" id="-43841">
		<tag k="name" v="Rustvegen" />
		<tag k="ssr:date" v="2019-12-27" />
		<tag k="ssr:gruppe" v="veg" />
		<tag k="ssr:hovedgruppe" v="infrastruktur" />
		<tag k="ssr:stedsnr" v="1017905" />
		<tag k="ssr:type" v="adressenavn" />
	</node>
	<node lat="61.60331318715766" lon="9.720961833947225" id="-43842">
		<tag k="name" v="Lyngvegen" />
		<tag k="ssr:date" v="2019-12-27" />
		<tag k="ssr:gruppe" v="veg" />
		<tag k="ssr:hovedgruppe" v="infrastruktur" />
		<tag k="ssr:stedsnr" v="1017908" />
		<tag k="ssr:type" v="adressenavn" />
	</node>
	<node lat="61.582289403726094" lon="9.709109481013526" id="-43843">
		<tag k="name" v="Furustubben" />
		<tag k="ssr:date" v="2019-12-27" />
		<tag k="ssr:gruppe" v="veg" />
		<tag k="ssr:hovedgruppe" v="infrastruktur" />
		<tag k="ssr:stedsnr" v="1017909" />
		<tag k="ssr:type" v="adressenavn" />
	</node>
	<node lat="61.606052762078455" lon="9.716696522769464" id="-43844">
		<tag k="name" v="Stormyrvegen" />
		<tag k="ssr:date" v="2019-12-27" />
		<tag k="ssr:gruppe" v="veg" />
		<tag k="ssr:hovedgruppe" v="infrastruktur" />
		<tag k="ssr:stedsnr" v="1017912" />
		<tag k="ssr:type" v="adressenavn" />
	</node>
	<node lat="61.584033288707985" lon="9.713029265779603" id="-43845">
		<tag k="name" v="Elvesuset" />
		<tag k="ssr:date" v="2019-12-27" />
		<tag k="ssr:gruppe" v="veg" />
		<tag k="ssr:hovedgruppe" v="infrastruktur" />
		<tag k="ssr:stedsnr" v="1017918" />
		<tag k="ssr:type" v="adressenavn" />
	</node>
	<node lat="61.66587707252863" lon="9.687584994527876" id="-43846">
		<tag k="name" v="Skreddarstuguvegen" />
		<tag k="ssr:date" v="2019-12-27" />
		<tag k="ssr:gruppe" v="veg" />
		<tag k="ssr:hovedgruppe" v="infrastruktur" />
		<tag k="ssr:stedsnr" v="1017919" />
		<tag k="ssr:type" v="adressenavn" />
	</node>
	<node lat="61.607847653256144" lon="9.718855838535523" id="-43847">
		<tag k="name" v="Dokkavegen" />
		<tag k="ssr:date" v="2019-12-27" />
		<tag k="ssr:gruppe" v="veg" />
		<tag k="ssr:hovedgruppe" v="infrastruktur" />
		<tag k="ssr:stedsnr" v="1017920" />
		<tag k="ssr:type" v="adressenavn" />
	</node>
	<node lat="61.74602454684791" lon="9.722605470902392" id="-43848">
		<tag k="name" v="Gunnersetervegen" />
		<tag k="ssr:date" v="2019-12-27" />
		<tag k="ssr:gruppe" v="veg" />
		<tag k="ssr:hovedgruppe" v="infrastruktur" />
		<tag k="ssr:stedsnr" v="1018100" />
		<tag k="ssr:type" v="adressenavn" />
	</node>
	<node lat="61.742417754184736" lon="9.72903705578043" id="-43849">
		<tag k="name" v="Haugsetervegen" />
		<tag k="ssr:date" v="2019-12-27" />
		<tag k="ssr:gruppe" v="veg" />
		<tag k="ssr:hovedgruppe" v="infrastruktur" />
		<tag k="ssr:stedsnr" v="1018104" />
		<tag k="ssr:type" v="adressenavn" />
	</node>
	<node lat="61.72697899946575" lon="9.724765932333362" id="-43850">
		<tag k="name" v="Gruvvegen" />
		<tag k="ssr:date" v="2019-12-27" />
		<tag k="ssr:gruppe" v="veg" />
		<tag k="ssr:hovedgruppe" v="infrastruktur" />
		<tag k="ssr:stedsnr" v="1018109" />
		<tag k="ssr:type" v="adressenavn" />
	</node>
	<node lat="61.74583268136853" lon="9.720104666733517" id="-43851">
		<tag k="name" v="Søre Haugsetervegen" />
		<tag k="ssr:date" v="2019-12-27" />
		<tag k="ssr:gruppe" v="veg" />
		<tag k="ssr:hovedgruppe" v="infrastruktur" />
		<tag k="ssr:stedsnr" v="1018113" />
		<tag k="ssr:type" v="adressenavn" />
	</node>
	<node lat="61.60804322495362" lon="9.722187557732905" id="-43852">
		<tag k="name" v="Tormodvegen" />
		<tag k="ssr:date" v="2019-12-27" />
		<tag k="ssr:gruppe" v="veg" />
		<tag k="ssr:hovedgruppe" v="infrastruktur" />
		<tag k="ssr:stedsnr" v="1018237" />
		<tag k="ssr:type" v="adressenavn" />
	</node>
	<node lat="61.59480825934793" lon="9.73166800990931" id="-43853">
		<tag k="name" v="Lomovegen" />
		<tag k="ssr:date" v="2019-12-27" />
		<tag k="ssr:gruppe" v="veg" />
		<tag k="ssr:hovedgruppe" v="infrastruktur" />
		<tag k="ssr:stedsnr" v="1018239" />
		<tag k="ssr:type" v="adressenavn" />
	</node>
	<node lat="61.600413638124635" lon="9.727603354751674" id="-43854">
		<tag k="name" v="Moahaugvegen" />
		<tag k="ssr:date" v="2019-12-27" />
		<tag k="ssr:gruppe" v="veg" />
		<tag k="ssr:hovedgruppe" v="infrastruktur" />
		<tag k="ssr:stedsnr" v="1018241" />
		<tag k="ssr:type" v="adressenavn" />
	</node>
	<node lat="61.60083807299439" lon="9.764258533863575" id="-43855">
		<tag k="name" v="Gangvegen" />
		<tag k="ssr:date" v="2019-12-27" />
		<tag k="ssr:gruppe" v="veg" />
		<tag k="ssr:hovedgruppe" v="infrastruktur" />
		<tag k="ssr:stedsnr" v="1018242" />
		<tag k="ssr:type" v="adressenavn" />
	</node>
	<node lat="61.596932307446835" lon="9.731839962491833" id="-43856">
		<tag k="name" v="Barhaugbakken" />
		<tag k="ssr:date" v="2019-12-27" />
		<tag k="ssr:gruppe" v="veg" />
		<tag k="ssr:hovedgruppe" v="infrastruktur" />
		<tag k="ssr:stedsnr" v="1018244" />
		<tag k="ssr:type" v="adressenavn" />
	</node>
	<node lat="61.6560281226954" lon="9.607020554693063" id="-43857">
		<tag k="name" v="Moagrenda" />
		<tag k="ssr:date" v="2019-12-27" />
		<tag k="ssr:gruppe" v="veg" />
		<tag k="ssr:hovedgruppe" v="infrastruktur" />
		<tag k="ssr:stedsnr" v="1018246" />
		<tag k="ssr:type" v="adressenavn" />
	</node>
	<node lat="61.52299032694945" lon="9.407877859530101" id="-43858">
		<tag k="name" v="Smiuvegen" />
		<tag k="ssr:date" v="2019-12-27" />
		<tag k="ssr:gruppe" v="veg" />
		<tag k="ssr:hovedgruppe" v="infrastruktur" />
		<tag k="ssr:stedsnr" v="1018248" />
		<tag k="ssr:type" v="adressenavn" />
	</node>
	<node lat="61.606587784065596" lon="9.723059396274113" id="-43859">
		<tag k="name" v="Prestgardsvegen" />
		<tag k="ssr:date" v="2019-12-27" />
		<tag k="ssr:gruppe" v="veg" />
		<tag k="ssr:hovedgruppe" v="infrastruktur" />
		<tag k="ssr:stedsnr" v="1018249" />
		<tag k="ssr:type" v="adressenavn" />
	</node>
	<node lat="61.666054409916285" lon="9.676609252717245" id="-43860">
		<tag k="name" v="Bergumvegen" />
		<tag k="ssr:date" v="2019-12-27" />
		<tag k="ssr:gruppe" v="veg" />
		<tag k="ssr:hovedgruppe" v="infrastruktur" />
		<tag k="ssr:stedsnr" v="1018250" />
		<tag k="ssr:type" v="adressenavn" />
	</node>
	<node lat="61.59798148046235" lon="9.736523143608446" id="-43861">
		<tag k="name" v="Gamle Skåbuvegen" />
		<tag k="ssr:date" v="2019-12-27" />
		<tag k="ssr:gruppe" v="veg" />
		<tag k="ssr:hovedgruppe" v="infrastruktur" />
		<tag k="ssr:stedsnr" v="1018251" />
		<tag k="ssr:type" v="adressenavn" />
	</node>
	<node lat="61.60695476932141" lon="9.722195692653353" id="-43862">
		<tag k="name" v="Kjerringdokka" />
		<tag k="ssr:date" v="2019-12-27" />
		<tag k="ssr:gruppe" v="veg" />
		<tag k="ssr:hovedgruppe" v="infrastruktur" />
		<tag k="ssr:stedsnr" v="1018253" />
		<tag k="ssr:type" v="adressenavn" />
	</node>
	<node lat="61.66559572827115" lon="9.67137837029169" id="-43863">
		<tag k="name" v="Steinråket" />
		<tag k="ssr:date" v="2019-12-27" />
		<tag k="ssr:gruppe" v="veg" />
		<tag k="ssr:hovedgruppe" v="infrastruktur" />
		<tag k="ssr:stedsnr" v="1018256" />
		<tag k="ssr:type" v="adressenavn" />
	</node>
	<node lat="61.599342192576216" lon="9.74109720347545" id="-43864">
		<tag k="name" v="Nordre Byre" />
		<tag k="ssr:date" v="2019-12-27" />
		<tag k="ssr:gruppe" v="veg" />
		<tag k="ssr:hovedgruppe" v="infrastruktur" />
		<tag k="ssr:stedsnr" v="1018258" />
		<tag k="ssr:type" v="adressenavn" />
	</node>
	<node lat="61.665794648185" lon="9.672532869202866" id="-43865">
		<tag k="name" v="Bjørklivegen" />
		<tag k="ssr:date" v="2019-12-27" />
		<tag k="ssr:gruppe" v="veg" />
		<tag k="ssr:hovedgruppe" v="infrastruktur" />
		<tag k="ssr:stedsnr" v="1018260" />
		<tag k="ssr:type" v="adressenavn" />
	</node>
	<node lat="61.66597155720597" lon="9.680070853446253" id="-43866">
		<tag k="name" v="Åvegen" />
		<tag k="ssr:date" v="2019-12-27" />
		<tag k="ssr:gruppe" v="veg" />
		<tag k="ssr:hovedgruppe" v="infrastruktur" />
		<tag k="ssr:stedsnr" v="1018264" />
		<tag k="ssr:type" v="adressenavn" />
	</node>
	<node lat="61.6073584897744" lon="9.723141418864747" id="-43867">
		<tag k="name" v="Sandbakkvegen" />
		<tag k="ssr:date" v="2019-12-27" />
		<tag k="ssr:gruppe" v="veg" />
		<tag k="ssr:hovedgruppe" v="infrastruktur" />
		<tag k="ssr:stedsnr" v="1018267" />
		<tag k="ssr:type" v="adressenavn" />
	</node>
	<node lat="61.58325746053053" lon="9.712676557902201" id="-43868">
		<tag k="name" v="Huskerovegen" />
		<tag k="ssr:date" v="2019-12-27" />
		<tag k="ssr:gruppe" v="veg" />
		<tag k="ssr:hovedgruppe" v="infrastruktur" />
		<tag k="ssr:stedsnr" v="1018269" />
		<tag k="ssr:type" v="adressenavn" />
	</node>
	<node lat="61.58761015286027" lon="9.784740607336227" id="-43869">
		<tag k="name" v="Sygardsvegen" />
		<tag k="ssr:date" v="2019-12-27" />
		<tag k="ssr:gruppe" v="veg" />
		<tag k="ssr:hovedgruppe" v="infrastruktur" />
		<tag k="ssr:stedsnr" v="1017936" />
		<tag k="ssr:type" v="adressenavn" />
	</node>
	<node lat="61.59264265583673" lon="9.732355824344692" id="-43870">
		<tag k="name" v="Tekstilvegen" />
		<tag k="ssr:date" v="2019-12-27" />
		<tag k="ssr:gruppe" v="veg" />
		<tag k="ssr:hovedgruppe" v="infrastruktur" />
		<tag k="ssr:stedsnr" v="1017938" />
		<tag k="ssr:type" v="adressenavn" />
	</node>
	<node lat="61.589631308120566" lon="9.768038508176014" id="-43871">
		<tag k="name" v="Kapellvegen" />
		<tag k="ssr:date" v="2019-12-27" />
		<tag k="ssr:gruppe" v="veg" />
		<tag k="ssr:hovedgruppe" v="infrastruktur" />
		<tag k="ssr:stedsnr" v="1017940" />
		<tag k="ssr:type" v="adressenavn" />
	</node>
	<node lat="61.59495662357756" lon="9.751326929340562" id="-43872">
		<tag k="name" v="Ellingsbakken" />
		<tag k="ssr:date" v="2019-12-27" />
		<tag k="ssr:gruppe" v="veg" />
		<tag k="ssr:hovedgruppe" v="infrastruktur" />
		<tag k="ssr:stedsnr" v="1017941" />
		<tag k="ssr:type" v="adressenavn" />
	</node>
	<node lat="61.5944392184311" lon="9.7320792838935" id="-43873">
		<tag k="name" v="Handelsvegen" />
		<tag k="ssr:date" v="2019-12-27" />
		<tag k="ssr:gruppe" v="veg" />
		<tag k="ssr:hovedgruppe" v="infrastruktur" />
		<tag k="ssr:stedsnr" v="1017943" />
		<tag k="ssr:type" v="adressenavn" />
	</node>
	<node lat="61.594282374830186" lon="9.73228163214495" id="-43874">
		<tag k="name" v="Støperivegen" />
		<tag k="ssr:date" v="2019-12-27" />
		<tag k="ssr:gruppe" v="veg" />
		<tag k="ssr:hovedgruppe" v="infrastruktur" />
		<tag k="ssr:stedsnr" v="1017944" />
		<tag k="ssr:type" v="adressenavn" />
	</node>
	<node lat="61.59415419190607" lon="9.738676651439786" id="-43875">
		<tag k="name" v="Maskinvegen" />
		<tag k="ssr:date" v="2019-12-27" />
		<tag k="ssr:gruppe" v="veg" />
		<tag k="ssr:hovedgruppe" v="infrastruktur" />
		<tag k="ssr:stedsnr" v="1017946" />
		<tag k="ssr:type" v="adressenavn" />
	</node>
	<node lat="61.59480544276562" lon="9.738056002451328" id="-43876">
		<tag k="name" v="Transportvegen" />
		<tag k="ssr:date" v="2019-12-27" />
		<tag k="ssr:gruppe" v="veg" />
		<tag k="ssr:hovedgruppe" v="infrastruktur" />
		<tag k="ssr:stedsnr" v="1017947" />
		<tag k="ssr:type" v="adressenavn" />
	</node>
	<node lat="60.795248707246294" lon="11.082591224285064" id="-43877">
		<tag k="name" v="Innlandet fylke" />
		<tag k="ssr:date" v="2022-01-03" />
		<tag k="ssr:gruppe" v="administrativeIndelinger" />
		<tag k="ssr:hovedgruppe" v="offentligAdministrasjon" />
		<tag k="ssr:stedsnr" v="1074406" />
		<tag k="ssr:type" v="fylke" />
	</node>
	<node lat="61.517664982463664" lon="9.375541151616819" id="-43885">
		<tag k="name" v="Nedre Storslåvegen" />
		<tag k="ssr:date" v="2020-11-20" />
		<tag k="ssr:gruppe" v="veg" />
		<tag k="ssr:hovedgruppe" v="infrastruktur" />
		<tag k="ssr:stedsnr" v="1079005" />
		<tag k="ssr:type" v="adressenavn" />
	</node>
	<node lat="61.51772759934157" lon="9.372346580800661" id="-43886">
		<tag k="name" v="Øvre Storslåvegen" />
		<tag k="ssr:date" v="2020-11-20" />
		<tag k="ssr:gruppe" v="veg" />
		<tag k="ssr:hovedgruppe" v="infrastruktur" />
		<tag k="ssr:stedsnr" v="1079006" />
		<tag k="ssr:type" v="adressenavn" />
	</node>
	<node lat="61.577566048493516" lon="9.802388892872898" id="-43887">
		<tag k="name" v="Anleggsvegen" />
		<tag k="ssr:date" v="2020-12-16" />
		<tag k="ssr:gruppe" v="veg" />
		<tag k="ssr:hovedgruppe" v="infrastruktur" />
		<tag k="ssr:stedsnr" v="1079379" />
		<tag k="ssr:type" v="adressenavn" />
	</node>
	<node lat="61.629238025326885" lon="9.827717967490969" id="-43892">
		<tag k="name" v="Brulimorka" />
		<tag k="ssr:date" v="2021-10-19" />
		<tag k="ssr:gruppe" v="veg" />
		<tag k="ssr:hovedgruppe" v="infrastruktur" />
		<tag k="ssr:stedsnr" v="1082615" />
		<tag k="ssr:type" v="adressenavn" />
	</node>
	<node lat="61.62437618100368" lon="9.845704649573856" id="-43894">
		<tag k="name" v="Midtstulfaret" />
		<tag k="ssr:date" v="2022-02-08" />
		<tag k="ssr:gruppe" v="veg" />
		<tag k="ssr:hovedgruppe" v="infrastruktur" />
		<tag k="ssr:stedsnr" v="1083750" />
		<tag k="ssr:type" v="adressenavn" />
	</node>
	<node lat="61.72225420096412" lon="9.722579897806897" id="-43897">
		<tag k="name" v="Låvåsstigen" />
		<tag k="ssr:date" v="2022-03-23" />
		<tag k="ssr:gruppe" v="veg" />
		<tag k="ssr:hovedgruppe" v="infrastruktur" />
		<tag k="ssr:stedsnr" v="1084229" />
		<tag k="ssr:type" v="adressenavn" />
	</node>
	<node lat="61.6004730094388" lon="9.761745738173346" id="-43899">
		<tag k="name" v="Øvre Solhellinga" />
		<tag k="ssr:date" v="2022-08-10" />
		<tag k="ssr:gruppe" v="veg" />
		<tag k="ssr:hovedgruppe" v="infrastruktur" />
		<tag k="ssr:stedsnr" v="1085674" />
		<tag k="ssr:type" v="adressenavn" />
	</node>
</osm>
