<?xml version="1.0" encoding="UTF-8"?>
<osm generator="osmapis" version="0.6">
	<node id="-33841" lat="59.7648089587" lon="10.9885556181">
		<tag k="name" v="Granittveien" />
		<tag k="ssr:date" v="2019-05-31" />
		<tag k="ssr:gruppe" v="veg" />
		<tag k="ssr:hovedgruppe" v="infrastruktur" />
		<tag k="ssr:stedsnr" v="1071086" />
		<tag k="ssr:type" v="adressenavn" />
	</node>
	<node id="-33846" lat="59.7364363614" lon="11.0360072941">
		<tag k="name" v="Hakkespettveien" />
		<tag k="ssr:date" v="2019-05-31" />
		<tag k="ssr:gruppe" v="veg" />
		<tag k="ssr:hovedgruppe" v="infrastruktur" />
		<tag k="ssr:stedsnr" v="981592" />
		<tag k="ssr:type" v="adressenavn" />
	</node>
	<node id="-33845" lat="59.7374878093" lon="11.0353951087">
		<tag k="name" v="Brinken" />
		<tag k="ssr:date" v="2019-05-31" />
		<tag k="ssr:gruppe" v="veg" />
		<tag k="ssr:hovedgruppe" v="infrastruktur" />
		<tag k="ssr:stedsnr" v="981591" />
		<tag k="ssr:type" v="adressenavn" />
	</node>
	<node id="-33844" lat="59.7374121154" lon="11.0344830597">
		<tag k="name" v="Knerotveien" />
		<tag k="ssr:date" v="2019-05-31" />
		<tag k="ssr:gruppe" v="veg" />
		<tag k="ssr:hovedgruppe" v="infrastruktur" />
		<tag k="ssr:stedsnr" v="981590" />
		<tag k="ssr:type" v="adressenavn" />
	</node>
	<node id="-33842" lat="59.7072038413" lon="11.0989757017">
		<tag k="name" v="Lyserbråtenveien" />
		<tag k="ssr:date" v="2019-05-31" />
		<tag k="ssr:gruppe" v="veg" />
		<tag k="ssr:hovedgruppe" v="infrastruktur" />
		<tag k="ssr:stedsnr" v="1071217" />
		<tag k="ssr:type" v="adressenavn" />
	</node>
	<node id="-34737" lat="60.5908609473" lon="9.63819281559">
		<tag k="fixme" v="multiple name tags, choose one and add the other to alt_name" />
		<tag k="name" v="Austlandet;Østlandet" />
		<tag k="ssr:date" v="2018-01-09" />
		<tag k="ssr:gruppe" v="administrativeIndelinger" />
		<tag k="ssr:hovedgruppe" v="offentligAdministrasjon" />
		<tag k="ssr:stedsnr" v="974775" />
		<tag k="ssr:type" v="annenAdministrativInndeling" />
	</node>
	<node id="-34437" lat="59.7645138846" lon="11.1449222229">
		<tag k="name" v="Enebakk kommune" />
		<tag k="ssr:date" v="2016-05-10" />
		<tag k="ssr:gruppe" v="administrativeIndelinger" />
		<tag k="ssr:hovedgruppe" v="offentligAdministrasjon" />
		<tag k="ssr:stedsnr" v="630816" />
		<tag k="ssr:type" v="kommune" />
	</node>
</osm>
