<?xml version="1.0" encoding="UTF-8"?>
<osm generator="osmapis" version="0.6">
	<node id="-188416" lat="59.801700004" lon="10.1723499942">
		<tag k="name" v="Fjellstup" />
		<tag k="place" v="isolated_dwelling" />
		<tag k="ssr:stedsnr" v="265096" />
	</node>
	<node id="-188415" lat="59.8780250016" lon="10.2830361099">
		<tag k="name" v="Kopperudstua" />
		<tag k="place" v="locality" />
		<tag k="ssr:stedsnr" v="264982" />
	</node>
	<node id="-188414" lat="59.762969444" lon="10.2319944511">
		<tag k="alt_name" v="Mellom Lian" />
		<tag k="name" v="Mellom-Lian" />
		<tag k="place" v="farm" />
		<tag k="ssr:stedsnr" v="264910" />
	</node>
	<node id="-188412" lat="59.7564222206" lon="10.2454694468">
		<tag k="amenity" v="school" />
		<tag k="name" v="Lier videregående skole" />
		<tag k="ssr:stedsnr" v="264903" />
	</node>
	<node id="-188411" lat="59.7509870133" lon="10.2825823794">
		<tag k="amenity" v="school" />
		<tag k="name" v="Gullaug skole" />
		<tag k="ssr:stedsnr" v="264873" />
	</node>
	<node id="-188410" lat="59.7607194484" lon="10.2374555636">
		<tag k="amenity" v="school" />
		<tag k="name" v="St. Hallvard videregående skole" />
		<tag k="ssr:stedsnr" v="264814" />
	</node>
	<node id="-188406" lat="59.8097437516" lon="10.3127089893">
		<tag k="fixme" v="consider place=hamlet" />
		<tag k="name" v="Kjenner" />
		<tag k="place" v="farm" />
		<tag k="ssr:stedsnr" v="264660" />
	</node>
	<node id="-188405" lat="59.7891416691" lon="10.269169446">
		<tag k="name" v="Nedre Stokke" />
		<tag k="place" v="farm" />
		<tag k="ssr:stedsnr" v="264657" />
	</node>
	<node id="-188404" lat="59.8005555552" lon="10.2888583262">
		<tag k="name" v="Leirdalen" />
		<tag k="place" v="isolated_dwelling" />
		<tag k="ssr:stedsnr" v="264653" />
	</node>
	<node id="-188394" lat="59.8273611127" lon="10.1297527774">
		<tag k="historic" v="shieling" />
		<tag k="name" v="Vallevollen" />
		<tag k="place" v="locality" />
		<tag k="ssr:stedsnr" v="264451" />
	</node>
	<node id="-188391" lat="59.8466694403" lon="10.1947305636">
		<tag k="name" v="Syversløkka" />
		<tag k="place" v="farm" />
		<tag k="ssr:stedsnr" v="264425" />
	</node>
	<node id="-188389" lat="59.8407138887" lon="10.2375944383">
		<tag k="name" v="Årdal" />
		<tag k="place" v="farm" />
		<tag k="ssr:stedsnr" v="264395" />
	</node>
	<node id="-188388" lat="59.8128555538" lon="10.2029527707">
		<tag k="name" v="Ytre Justad" />
		<tag k="place" v="farm" />
		<tag k="ssr:stedsnr" v="264379" />
	</node>
	<node id="-188387" lat="59.8142277795" lon="10.1964027858">
		<tag k="loc_name" v="Engebråtan" />
		<tag k="name" v="Engebråten" />
		<tag k="place" v="farm" />
		<tag k="ssr:stedsnr" v="264377" />
	</node>
	<node id="-188386" lat="59.832325001" lon="10.2103277832">
		<tag k="alt_name" v="Øksne" />
		<tag k="name" v="Mellom-Øksne" />
		<tag k="place" v="farm" />
		<tag k="ssr:stedsnr" v="264369" />
	</node>
	<node id="-188385" lat="59.8887555536" lon="10.2334472136">
		<tag k="name" v="Runterud" />
		<tag k="place" v="farm" />
		<tag k="ssr:stedsnr" v="264169" />
	</node>
	<node id="-188384" lat="59.861452774" lon="10.2220861138">
		<tag k="name" v="Vestby" />
		<tag k="place" v="isolated_dwelling" />
		<tag k="ssr:stedsnr" v="264138" />
	</node>
	<node id="-188382" lat="59.8516555525" lon="10.2666861127">
		<tag k="name" v="Libråtan" />
		<tag k="old_name" v="Nedre Oppsal;Nedre Opsal" />
		<tag k="place" v="farm" />
		<tag k="ssr:stedsnr" v="264101" />
	</node>
	<node id="-188381" lat="59.8521777757" lon="10.2694722278">
		<tag k="fixme" v="multiple name tags, choose one and add the other to alt_name" />
		<tag k="name" v="Sørli;Øvre Oppsal" />
		<tag k="place" v="farm" />
		<tag k="ssr:stedsnr" v="264099" />
	</node>
	<node id="-188377" lat="59.8162055578" lon="10.2965333363">
		<tag k="name" v="Lierskogen pukkverk" />
		<tag k="place" v="quarter" />
		<tag k="ssr:stedsnr" v="264044" />
	</node>
	<node id="-188376" lat="59.8219138911" lon="10.2769777732">
		<tag k="name" v="Vennerød" />
		<tag k="place" v="farm" />
		<tag k="ssr:stedsnr" v="264022" />
	</node>
	<node id="-188375" lat="59.7924555531" lon="10.2493361189">
		<tag k="name" v="Søndre Haskoll" />
		<tag k="place" v="farm" />
		<tag k="ssr:stedsnr" v="263752" />
	</node>
	<node id="-188374" lat="59.8046694445" lon="10.2612611116">
		<tag k="name" v="Båhus" />
		<tag k="place" v="farm" />
		<tag k="ssr:stedsnr" v="263750" />
	</node>
	<node id="-188373" lat="59.8068027752" lon="10.2464805488">
		<tag k="alt_name" v="Tranby-Utengen" />
		<tag k="name" v="Tranby-utenga" />
		<tag k="place" v="farm" />
		<tag k="ssr:stedsnr" v="263748" />
	</node>
	<node id="-188371" lat="59.8833166643" lon="10.3451611032">
		<tag k="name" v="Engerhytta" />
		<tag k="place" v="isolated_dwelling" />
		<tag k="ssr:stedsnr" v="247830" />
	</node>
	<node id="-188369" lat="59.8712694453" lon="10.2838500041">
		<tag k="name" v="Østenga" />
		<tag k="place" v="farm" />
		<tag k="ssr:stedsnr" v="247320" />
	</node>
	<node id="-188368" lat="59.8520111108" lon="10.2565750059">
		<tag k="name" v="Tamburhaugen" />
		<tag k="place" v="farm" />
		<tag k="ssr:stedsnr" v="247285" />
	</node>
	<node id="-188367" lat="59.8522972242" lon="10.301180547">
		<tag k="alt_name" v="Opsalsetra" />
		<tag k="historic" v="shieling" />
		<tag k="name" v="Oppsalsetra" />
		<tag k="place" v="locality" />
		<tag k="ssr:stedsnr" v="247282" />
	</node>
	<node id="-188366" lat="59.8427055563" lon="10.215661113">
		<tag k="name" v="Skrovle" />
		<tag k="place" v="isolated_dwelling" />
		<tag k="ssr:stedsnr" v="247275" />
	</node>
	<node id="-188365" lat="59.8440388916" lon="10.2094999951">
		<tag k="name" v="Hansebråtan" />
		<tag k="place" v="farm" />
		<tag k="ssr:stedsnr" v="247271" />
	</node>
	<node id="-188364" lat="59.8379888849" lon="10.3217583288">
		<tag k="name" v="Bøhagan" />
		<tag k="place" v="farm" />
		<tag k="ssr:stedsnr" v="247262" />
	</node>
	<node id="-188363" lat="59.8293662311" lon="10.2790910457">
		<tag k="fixme" v="consider place=hamlet" />
		<tag k="name" v="Kraft" />
		<tag k="place" v="farm" />
		<tag k="ssr:stedsnr" v="247187" />
	</node>
	<node id="-188362" lat="59.8336805519" lon="10.223894446">
		<tag k="name" v="Utenga" />
		<tag k="place" v="farm" />
		<tag k="ssr:stedsnr" v="247185" />
	</node>
	<node id="-188361" lat="59.7933053796" lon="10.2196638172">
		<tag k="fixme" v="consider place=hamlet" />
		<tag k="name" v="Helgerud" />
		<tag k="place" v="farm" />
		<tag k="ssr:stedsnr" v="247125" />
	</node>
	<node id="-188360" lat="59.7939926174" lon="10.2129656819">
		<tag k="fixme" v="consider place=hamlet" />
		<tag k="name" v="Nordby" />
		<tag k="place" v="farm" />
		<tag k="ssr:stedsnr" v="247122" />
	</node>
	<node id="-188359" lat="59.9050277808" lon="10.2637999936">
		<tag k="name" v="Kirketeigen" />
		<tag k="place" v="isolated_dwelling" />
		<tag k="ssr:stedsnr" v="246527" />
	</node>
	<node id="-188358" lat="59.9493416666" lon="10.2367888852">
		<tag k="historic" v="shieling" />
		<tag k="name" v="Breviksetra" />
		<tag k="place" v="locality" />
		<tag k="ssr:stedsnr" v="246384" />
	</node>
	<node id="-188356" lat="59.9063916643" lon="10.2670472136">
		<tag k="name" v="Rundsvoll" />
		<tag k="place" v="farm" />
		<tag k="ssr:stedsnr" v="246329" />
	</node>
	<node id="-188354" lat="59.8581611107" lon="10.1394916634">
		<tag k="historic" v="shieling" />
		<tag k="name" v="Veslesetra" />
		<tag k="place" v="locality" />
		<tag k="ssr:stedsnr" v="246259" />
	</node>
	<node id="-188353" lat="59.8564224253" lon="10.2701139853">
		<tag k="fixme" v="consider place=hamlet" />
		<tag k="name" v="Torsrud" />
		<tag k="place" v="farm" />
		<tag k="ssr:stedsnr" v="246255" />
	</node>
	<node id="-188352" lat="59.8148520092" lon="10.3003896114">
		<tag k="fixme" v="consider place=hamlet" />
		<tag k="name" v="Gjellebekk" />
		<tag k="place" v="farm" />
		<tag k="ssr:stedsnr" v="246226" />
	</node>
	<node id="-188350" lat="59.768436114" lon="10.2518472286">
		<tag k="name" v="Linnesvollen" />
		<tag k="place" v="farm" />
		<tag k="ssr:stedsnr" v="246177" />
	</node>
	<node id="-188349" lat="59.7594138898" lon="10.2881638935">
		<tag k="name" v="Tuverud" />
		<tag k="place" v="farm" />
		<tag k="ssr:stedsnr" v="246066" />
	</node>
	<node id="-188348" lat="59.761388891" lon="10.2391000034">
		<tag k="amenity" v="school" />
		<tag k="name" v="Høvik skole" />
		<tag k="old_name" v="Stoppen skole" />
		<tag k="ssr:stedsnr" v="240926" />
	</node>
	<node id="-188347" lat="59.7509777816" lon="10.2081999974">
		<tag k="name" v="Sankevollen" />
		<tag k="place" v="locality" />
		<tag k="ssr:stedsnr" v="239425" />
	</node>
	<node id="-188346" lat="59.7808416676" lon="10.2482194393">
		<tag k="name" v="Nedre Hegg" />
		<tag k="place" v="farm" />
		<tag k="ssr:stedsnr" v="222669" />
	</node>
	<node id="-188338" lat="59.9505499959" lon="10.2648000017">
		<tag k="name" v="Elvehytta" />
		<tag k="place" v="isolated_dwelling" />
		<tag k="ssr:stedsnr" v="204570" />
	</node>
	<node id="-188330" lat="59.8847111109" lon="10.2939249994">
		<tag k="name" v="Storbråtan" />
		<tag k="place" v="farm" />
		<tag k="ssr:stedsnr" v="203989" />
	</node>
	<node id="-188328" lat="59.8596722204" lon="10.263194438">
		<tag k="name" v="Korsrud" />
		<tag k="place" v="farm" />
		<tag k="ssr:stedsnr" v="203907" />
	</node>
	<node id="-188327" lat="59.7542888894" lon="10.2488666723">
		<tag k="alt_name" v="Høvik" />
		<tag k="name" v="Jensvoll" />
		<tag k="place" v="farm" />
		<tag k="ssr:stedsnr" v="203905" />
	</node>
	<node id="-188325" lat="59.7617967043" lon="10.2184264382">
		<tag k="name" v="Flåtan" />
		<tag k="place" v="hamlet" />
		<tag k="ssr:stedsnr" v="203895" />
	</node>
	<node id="-188322" lat="59.8702472213" lon="10.2258111162">
		<tag k="name" v="Vestenga" />
		<tag k="place" v="isolated_dwelling" />
		<tag k="ssr:stedsnr" v="203824" />
	</node>
	<node id="-188321" lat="59.8098055515" lon="10.3078055607">
		<tag k="alt_name" v="Kjenner" />
		<tag k="name" v="Vestre Kjenner" />
		<tag k="place" v="farm" />
		<tag k="ssr:stedsnr" v="203695" />
	</node>
	<node id="-188320" lat="59.785436115" lon="10.184541659">
		<tag k="name" v="Pantegutten" />
		<tag k="place" v="isolated_dwelling" />
		<tag k="ssr:stedsnr" v="203683" />
	</node>
	<node id="-188318" lat="59.7439267577" lon="10.291976073">
		<tag k="name" v="Gullaug" />
		<tag k="place" v="hamlet" />
		<tag k="ssr:stedsnr" v="203633" />
	</node>
	<node id="-188315" lat="59.8400611097" lon="10.2553500058">
		<tag k="name" v="Nordre Nedre Sørsdal" />
		<tag k="place" v="farm" />
		<tag k="ssr:stedsnr" v="203410" />
	</node>
	<node id="-188314" lat="59.8135000028" lon="10.1944166688">
		<tag k="name" v="Fjellberg" />
		<tag k="place" v="farm" />
		<tag k="ssr:stedsnr" v="203406" />
	</node>
	<node id="-188313" lat="59.8102727277" lon="10.2028740552">
		<tag k="fixme" v="consider place=hamlet" />
		<tag k="name" v="Nordre Ask" />
		<tag k="place" v="farm" />
		<tag k="ssr:stedsnr" v="203404" />
	</node>
	<node id="-188312" lat="59.8219666699" lon="10.2030888977">
		<tag k="name" v="Torstad" />
		<tag k="place" v="farm" />
		<tag k="ssr:stedsnr" v="203402" />
	</node>
	<node id="-188311" lat="59.8485861098" lon="10.2160749931">
		<tag k="name" v="Østre Lia" />
		<tag k="place" v="farm" />
		<tag k="ssr:stedsnr" v="203398" />
	</node>
	<node id="-188310" lat="59.9443694401" lon="10.2796916703">
		<tag k="name" v="Fuglerud" />
		<tag k="place" v="farm" />
		<tag k="ssr:stedsnr" v="204455" />
	</node>
	<node id="-188309" lat="59.8689249957" lon="10.1956888937">
		<tag k="name" v="Gifstadhytta" />
		<tag k="place" v="isolated_dwelling" />
		<tag k="ssr:stedsnr" v="203279" />
	</node>
	<node id="-188307" lat="59.8611166655" lon="10.2340833358">
		<tag k="name" v="Fagernes" />
		<tag k="place" v="farm" />
		<tag k="ssr:stedsnr" v="203182" />
	</node>
	<node id="-188306" lat="59.8570138873" lon="10.2398361133">
		<tag k="name" v="Øvre Mørk" />
		<tag k="place" v="farm" />
		<tag k="ssr:stedsnr" v="203179" />
	</node>
	<node id="-188305" lat="59.8219972232" lon="10.3408805547">
		<tag k="alt_name" v="Øgarden" />
		<tag k="name" v="Øgården" />
		<tag k="place" v="farm" />
		<tag k="ssr:stedsnr" v="203098" />
	</node>
	<node id="-188304" lat="59.8244305596" lon="10.3286055524">
		<tag k="name" v="Ekeberg" />
		<tag k="place" v="farm" />
		<tag k="ssr:stedsnr" v="203088" />
	</node>
	<node id="-188303" lat="59.8187527789" lon="10.3092805482">
		<tag k="name" v="Jordet" />
		<tag k="place" v="isolated_dwelling" />
		<tag k="ssr:stedsnr" v="203062" />
	</node>
	<node id="-188299" lat="59.8017500029" lon="10.2480833255">
		<tag k="name" v="Utenga" />
		<tag k="place" v="farm" />
		<tag k="ssr:stedsnr" v="202745" />
	</node>
	<node id="-188298" lat="59.7846722231" lon="10.2611083383">
		<tag k="name" v="Nordre Brastad" />
		<tag k="place" v="farm" />
		<tag k="ssr:stedsnr" v="202743" />
	</node>
	<node id="-188296" lat="59.8522361144" lon="10.2646888972">
		<tag k="alt_name" v="Opsalhaugen;Øvre Opsal" />
		<tag k="fixme" v="multiple name tags, choose one and add the other to alt_name" />
		<tag k="name" v="Oppsalhaugen;Øvre Oppsal" />
		<tag k="place" v="farm" />
		<tag k="ssr:stedsnr" v="203124" />
	</node>
	<node id="-188295" lat="59.8084929115" lon="10.3502118747">
		<tag k="fixme" v="consider place=hamlet" />
		<tag k="name" v="Ulven" />
		<tag k="place" v="farm" />
		<tag k="ssr:stedsnr" v="187726" />
	</node>
	<node id="-188289" lat="59.9580281387" lon="10.2809229297">
		<tag k="fixme" v="consider place=hamlet" />
		<tag k="name" v="Horn" />
		<tag k="place" v="farm" />
		<tag k="ssr:stedsnr" v="186424" />
	</node>
	<node id="-188287" lat="59.9333194423" lon="10.2579333395">
		<tag k="name" v="Øverskogen" />
		<tag k="place" v="hamlet" />
		<tag k="ssr:stedsnr" v="186409" />
	</node>
	<node id="-188286" lat="59.9476333376" lon="10.2804972234">
		<tag k="name" v="Øverby" />
		<tag k="place" v="farm" />
		<tag k="ssr:stedsnr" v="186404" />
	</node>
	<node id="-188285" lat="59.8761137829" lon="10.2691086564">
		<tag k="fixme" v="consider place=hamlet" />
		<tag k="name" v="Holtsmark" />
		<tag k="place" v="farm" />
		<tag k="ssr:stedsnr" v="186363" />
	</node>
	<node id="-188284" lat="59.8777251735" lon="10.2973480534">
		<tag k="fixme" v="consider place=hamlet" />
		<tag k="name" v="Asdøl" />
		<tag k="place" v="farm" />
		<tag k="ssr:stedsnr" v="186354" />
	</node>
	<node id="-188282" lat="59.8685750009" lon="10.0948111079">
		<tag k="name" v="Dammen" />
		<tag k="place" v="isolated_dwelling" />
		<tag k="ssr:stedsnr" v="186276" />
	</node>
	<node id="-188281" lat="59.8003769251" lon="10.2635879588">
		<tag k="name" v="Auvi" />
		<tag k="place" v="hamlet" />
		<tag k="ssr:stedsnr" v="186125" />
	</node>
	<node id="-188280" lat="59.7801577189" lon="10.2033670292">
		<tag k="name" v="Stein" />
		<tag k="place" v="farm" />
		<tag k="ssr:stedsnr" v="186156" />
	</node>
	<node id="-188279" lat="59.7796861094" lon="10.2374833269">
		<tag k="alt_name" v="Nedre Frogner" />
		<tag k="name" v="Frogner" />
		<tag k="place" v="farm" />
		<tag k="ssr:stedsnr" v="186152" />
	</node>
	<node id="-188278" lat="59.967888892" lon="10.2791527776">
		<tag k="name" v="Hornstua" />
		<tag k="place" v="locality" />
		<tag k="ssr:stedsnr" v="185429" />
	</node>
	<node id="-188274" lat="59.8167333332" lon="10.2534138958">
		<tag k="name" v="Tallaksrud" />
		<tag k="place" v="farm" />
		<tag k="ssr:stedsnr" v="185208" />
	</node>
	<node id="-188273" lat="59.8151086616" lon="10.2026599685">
		<tag k="fixme" v="consider place=hamlet" />
		<tag k="name" v="Justad" />
		<tag k="place" v="farm" />
		<tag k="ssr:stedsnr" v="185202" />
	</node>
	<node id="-188272" lat="59.7670749974" lon="10.2166666702">
		<tag k="alt_name" v="Øgarden;Ødegården" />
		<tag k="fixme" v="multiple name tags, choose one and add the other to alt_name" />
		<tag k="name" v="Nordre Lian;Øgården" />
		<tag k="place" v="farm" />
		<tag k="ssr:stedsnr" v="185152" />
	</node>
	<node id="-188269" lat="59.7799020201" lon="10.2045249608">
		<tag k="fixme" v="consider place=hamlet" />
		<tag k="name" v="Stein" />
		<tag k="place" v="farm" />
		<tag k="ssr:stedsnr" v="163270" />
	</node>
	<node id="-188268" lat="59.7854538212" lon="10.2262685422">
		<tag k="name" v="Saue" />
		<tag k="place" v="farm" />
		<tag k="ssr:stedsnr" v="162718" />
	</node>
	<node id="-188267" lat="59.7383777774" lon="10.3031722145">
		<tag k="name" v="Huser" />
		<tag k="place" v="locality" />
		<tag k="ssr:stedsnr" v="161686" />
	</node>
	<node id="-188265" lat="59.8175916652" lon="10.2182499929">
		<tag k="fixme" v="consider place=hamlet" />
		<tag k="name" v="Egge" />
		<tag k="place" v="village" />
		<tag k="ssr:stedsnr" v="145835" />
	</node>
	<node id="-188257" lat="59.7495742906" lon="10.230344117">
		<tag k="fixme" v="consider place=hamlet" />
		<tag k="name" v="Vestre Nøste" />
		<tag k="place" v="farm" />
		<tag k="ssr:stedsnr" v="142919" />
	</node>
	<node id="-188256" lat="59.7598027775" lon="10.237611116">
		<tag k="amenity" v="sports_centre" />
		<tag k="name" v="Lierhallen" />
		<tag k="ssr:stedsnr" v="142914" />
	</node>
	<node id="-188253" lat="59.8507472267" lon="10.2492583317">
		<tag k="loc_name" v="Nedre Åmot" />
		<tag k="name" v="Åmot" />
		<tag k="place" v="farm" />
		<tag k="ssr:stedsnr" v="142386" />
	</node>
	<node id="-188247" lat="59.826597222" lon="10.2311305562">
		<tag k="loc_name" v="Buttedalsand" />
		<tag k="name" v="Lamyra" />
		<tag k="place" v="farm" />
		<tag k="ssr:stedsnr" v="142143" />
	</node>
	<node id="-188245" lat="59.8256749997" lon="10.3493055539">
		<tag k="name" v="Vestli" />
		<tag k="place" v="isolated_dwelling" />
		<tag k="ssr:stedsnr" v="142116" />
	</node>
	<node id="-188242" lat="59.8575638895" lon="10.2359388869">
		<tag k="name" v="Årvoll" />
		<tag k="place" v="isolated_dwelling" />
		<tag k="ssr:stedsnr" v="142167" />
	</node>
	<node id="-188240" lat="59.7910500002" lon="10.2235472199">
		<tag k="name" v="Helgerud" />
		<tag k="place" v="farm" />
		<tag k="ssr:stedsnr" v="141719" />
	</node>
	<node id="-188239" lat="59.7871749981" lon="10.2530444427">
		<tag k="name" v="Ila" />
		<tag k="place" v="farm" />
		<tag k="ssr:stedsnr" v="141704" />
	</node>
	<node id="-188237" lat="59.780619448" lon="10.2430444514">
		<tag k="fixme" v="consider place=suburb, village or hamlet" />
		<tag k="name" v="Heggtoppen" />
		<tag k="old_name" v="Hegg" />
		<tag k="place" v="quarter" />
		<tag k="ssr:stedsnr" v="141697" />
	</node>
	<node id="-188236" lat="59.7819777753" lon="10.2159833383">
		<tag k="name" v="Søndre Eik" />
		<tag k="place" v="farm" />
		<tag k="ssr:stedsnr" v="141693" />
	</node>
	<node id="-188235" lat="59.7999833374" lon="10.2054083259">
		<tag k="amenity" v="nursing_home" />
		<tag k="name" v="Bergfløtt Behandlingssenter" />
		<tag k="ssr:stedsnr" v="141672" />
	</node>
	<node id="-188233" lat="59.8885722209" lon="10.2300611065">
		<tag k="name" v="Kanada" />
		<tag k="place" v="hamlet" />
		<tag k="ssr:stedsnr" v="125388" />
	</node>
	<node id="-188232" lat="59.8751861127" lon="10.2438583386">
		<tag k="alt_name" v="Broengen" />
		<tag k="name" v="Bruenga" />
		<tag k="place" v="farm" />
		<tag k="ssr:stedsnr" v="125376" />
	</node>
	<node id="-188228" lat="59.8092250037" lon="10.218058337">
		<tag k="name" v="Landfall" />
		<tag k="place" v="farm" />
		<tag k="ssr:stedsnr" v="125252" />
	</node>
	<node id="-188227" lat="59.8307777812" lon="10.3320611152">
		<tag k="name" v="Vestenga" />
		<tag k="place" v="farm" />
		<tag k="ssr:stedsnr" v="125219" />
	</node>
	<node id="-188225" lat="59.7779316918" lon="10.1943241042">
		<tag k="fixme" v="consider place=hamlet" />
		<tag k="name" v="Årkvisla" />
		<tag k="place" v="farm" />
		<tag k="ssr:stedsnr" v="125174" />
	</node>
	<node id="-188224" lat="59.7743477768" lon="10.2525761399">
		<tag k="alt_name" v="Store Valle" />
		<tag k="name" v="Valle" />
		<tag k="place" v="hamlet" />
		<tag k="ssr:stedsnr" v="125167" />
	</node>
	<node id="-188222" lat="59.7537214548" lon="10.2583168118">
		<tag k="fixme" v="consider place=hamlet" />
		<tag k="name" v="Frydenlund" />
		<tag k="place" v="farm" />
		<tag k="ssr:stedsnr" v="125099" />
	</node>
	<node id="-188221" lat="59.9030266584" lon="10.2662126889">
		<tag k="fixme" v="consider place=hamlet" />
		<tag k="name" v="Kirketeigen" />
		<tag k="place" v="farm" />
		<tag k="ssr:stedsnr" v="124282" />
	</node>
	<node id="-188220" lat="59.8202185925" lon="10.2051734353">
		<tag k="fixme" v="consider place=hamlet" />
		<tag k="name" v="Torstad" />
		<tag k="place" v="farm" />
		<tag k="ssr:stedsnr" v="124173" />
	</node>
	<node id="-188216" lat="59.84551944" lon="10.2169750082">
		<tag k="name" v="Åsen" />
		<tag k="place" v="farm" />
		<tag k="ssr:stedsnr" v="125332" />
	</node>
	<node id="-188215" lat="59.8471361137" lon="10.2218555544">
		<tag k="name" v="Steinberg" />
		<tag k="place" v="farm" />
		<tag k="ssr:stedsnr" v="125329" />
	</node>
	<node id="-188213" lat="59.8439361091" lon="10.1479666748">
		<tag k="name" v="Hestemyr" />
		<tag k="place" v="farm" />
		<tag k="ssr:stedsnr" v="125311" />
	</node>
	<node id="-188212" lat="59.8422666635" lon="10.3145888859">
		<tag k="name" v="Brenna" />
		<tag k="place" v="farm" />
		<tag k="ssr:stedsnr" v="125305" />
	</node>
	<node id="-188210" lat="59.8930944463" lon="10.2293527844">
		<tag k="name" v="Nordhagen" />
		<tag k="place" v="farm" />
		<tag k="ssr:stedsnr" v="102730" />
	</node>
	<node id="-188200" lat="59.7559555536" lon="10.2848305475">
		<tag k="name" v="Hestebråtan" />
		<tag k="place" v="locality" />
		<tag k="ssr:stedsnr" v="82892" />
	</node>
	<node id="-188199" lat="59.7273052762" lon="10.3114693787">
		<tag k="fixme" v="consider place=hamlet" />
		<tag k="name" v="Lahell" />
		<tag k="place" v="farm" />
		<tag k="ssr:stedsnr" v="82876" />
	</node>
	<node id="-188198" lat="59.7453361096" lon="10.232552785">
		<tag k="leisure" v="pitch" />
		<tag k="name" v="Brakerøya idrettsplass" />
		<tag k="ssr:stedsnr" v="82917" />
	</node>
	<node id="-188197" lat="59.9628750005" lon="10.2174611172">
		<tag k="name" v="Maidalshytta" />
		<tag k="place" v="isolated_dwelling" />
		<tag k="ssr:stedsnr" v="82727" />
	</node>
	<node id="-188193" lat="59.7727055538" lon="10.2834972162">
		<tag k="name" v="Sommerro" />
		<tag k="place" v="farm" />
		<tag k="ssr:stedsnr" v="82592" />
	</node>
	<node id="-188189" lat="59.8712251851" lon="10.2280316366">
		<tag k="fixme" v="consider place=hamlet" />
		<tag k="name" v="Vefferstad" />
		<tag k="place" v="farm" />
		<tag k="ssr:stedsnr" v="82820" />
	</node>
	<node id="-188188" lat="59.8418777757" lon="10.2297833396">
		<tag k="name" v="Søndre Meren" />
		<tag k="old_name" v="Søndre Mære" />
		<tag k="place" v="farm" />
		<tag k="ssr:stedsnr" v="82383" />
	</node>
	<node id="-188187" lat="59.8147944433" lon="10.2217444526">
		<tag k="name" v="Egge" />
		<tag k="place" v="farm" />
		<tag k="ssr:stedsnr" v="82372" />
	</node>
	<node id="-188185" lat="59.8196388873" lon="10.2400750077">
		<tag k="leisure" v="pitch" />
		<tag k="name" v="Lyngåsbanen" />
		<tag k="ssr:stedsnr" v="82130" />
	</node>
	<node id="-188184" lat="59.838033329" lon="10.2638666716">
		<tag k="name" v="Bakkeløkka" />
		<tag k="place" v="isolated_dwelling" />
		<tag k="ssr:stedsnr" v="82114" />
	</node>
	<node id="-188182" lat="59.8255277795" lon="10.3245361195">
		<tag k="name" v="Ovenstad" />
		<tag k="place" v="farm" />
		<tag k="ssr:stedsnr" v="82094" />
	</node>
	<node id="-188181" lat="59.818990862" lon="10.3410621953">
		<tag k="fixme" v="consider place=hamlet" />
		<tag k="name" v="Heia" />
		<tag k="place" v="farm" />
		<tag k="ssr:stedsnr" v="82066" />
	</node>
	<node id="-188178" lat="59.8705888898" lon="10.2456749942">
		<tag k="name" v="Roaldsrud" />
		<tag k="place" v="locality" />
		<tag k="ssr:stedsnr" v="82151" />
	</node>
	<node id="-188176" lat="59.8047055535" lon="10.2073277703">
		<tag k="name" v="Eriksrud" />
		<tag k="place" v="farm" />
		<tag k="ssr:stedsnr" v="81746" />
	</node>
	<node id="-188174" lat="59.8055361145" lon="10.2224388885">
		<tag k="name" v="Landfall" />
		<tag k="place" v="farm" />
		<tag k="ssr:stedsnr" v="81381" />
	</node>
	<node id="-188173" lat="59.7688138881" lon="10.2129055517">
		<tag k="name" v="Reksla" />
		<tag k="place" v="isolated_dwelling" />
		<tag k="ssr:stedsnr" v="81377" />
	</node>
	<node id="-188172" lat="59.78562222" lon="10.2263750034">
		<tag k="name" v="Saue" />
		<tag k="place" v="farm" />
		<tag k="ssr:stedsnr" v="81378" />
	</node>
	<node id="-188171" lat="59.7796957632" lon="10.222813348">
		<tag k="fixme" v="consider place=hamlet" />
		<tag k="name" v="Frogner prestegård" />
		<tag k="place" v="farm" />
		<tag k="ssr:stedsnr" v="81376" />
	</node>
	<node id="-188170" lat="59.7633611085" lon="10.2931249919">
		<tag k="name" v="Sørumlia" />
		<tag k="place" v="quarter" />
		<tag k="ssr:stedsnr" v="81191" />
	</node>
	<node id="-188169" lat="59.897061108" lon="10.3179638936">
		<tag k="name" v="Setrang" />
		<tag k="place" v="isolated_dwelling" />
		<tag k="ssr:stedsnr" v="81159" />
	</node>
	<node id="-188167" lat="59.9342527795" lon="10.3002777811">
		<tag k="alt_name" v="Nordre Drag" />
		<tag k="name" v="Drag" />
		<tag k="place" v="farm" />
		<tag k="ssr:stedsnr" v="65415" />
	</node>
	<node id="-188164" lat="59.7757956816" lon="10.2650813631">
		<tag k="fixme" v="consider place=hamlet" />
		<tag k="name" v="Stillesholmen" />
		<tag k="place" v="farm" />
		<tag k="ssr:stedsnr" v="65155" />
	</node>
	<node id="-188163" lat="59.7866698396" lon="10.2094131356">
		<tag k="fixme" v="consider place=hamlet" />
		<tag k="name" v="Gåserud" />
		<tag k="place" v="farm" />
		<tag k="ssr:stedsnr" v="65141" />
	</node>
	<node id="-188162" lat="59.7865083291" lon="10.2444750071">
		<tag k="name" v="Lierbyen" />
		<tag k="place" v="village" />
		<tag k="ssr:stedsnr" v="65140" />
	</node>
	<node id="-188161" lat="59.7843820161" lon="10.274720261">
		<tag k="alt_name" v="Søndre Stokke" />
		<tag k="name" v="Stokke" />
		<tag k="place" v="hamlet" />
		<tag k="ssr:stedsnr" v="65135" />
	</node>
	<node id="-188160" lat="59.7966249985" lon="10.3208111181">
		<tag k="name" v="Heggsjøbakken" />
		<tag k="place" v="isolated_dwelling" />
		<tag k="ssr:stedsnr" v="65129" />
	</node>
	<node id="-188157" lat="59.9652916678" lon="10.275752786">
		<tag k="name" v="Pålsrud" />
		<tag k="place" v="farm" />
		<tag k="ssr:stedsnr" v="64459" />
	</node>
	<node id="-188156" lat="59.8603750014" lon="10.2849583405">
		<tag k="name" v="Rundtomåsen" />
		<tag k="place" v="farm" />
		<tag k="ssr:stedsnr" v="64254" />
	</node>
	<node id="-188155" lat="59.8453861078" lon="10.193899999">
		<tag k="fixme" v="multiple name tags, choose one and add the other to alt_name" />
		<tag k="name" v="Kokopp;Øvre Kokopp" />
		<tag k="place" v="farm" />
		<tag k="ssr:stedsnr" v="64244" />
	</node>
	<node id="-188154" lat="59.8001305575" lon="10.2471083256">
		<tag k="alt_name" v="Overn-Utenga" />
		<tag k="name" v="Overnutenga" />
		<tag k="place" v="farm" />
		<tag k="ssr:stedsnr" v="64237" />
	</node>
	<node id="-188153" lat="59.808572223" lon="10.2089666612">
		<tag k="alt_name" v="Askvang" />
		<tag k="name" v="Ask" />
		<tag k="place" v="farm" />
		<tag k="ssr:stedsnr" v="64233" />
	</node>
	<node id="-188152" lat="59.8174686548" lon="10.3329260402">
		<tag k="fixme" v="consider place=hamlet" />
		<tag k="name" v="Sagvollen" />
		<tag k="place" v="farm" />
		<tag k="ssr:stedsnr" v="64227" />
	</node>
	<node id="-188151" lat="59.8180638898" lon="10.2909555603">
		<tag k="name" v="Svenskerud" />
		<tag k="place" v="farm" />
		<tag k="ssr:stedsnr" v="64208" />
	</node>
	<node id="-188150" lat="59.8248521222" lon="10.2513939603">
		<tag k="fixme" v="consider place=hamlet" />
		<tag k="name" v="Funnesdal" />
		<tag k="place" v="farm" />
		<tag k="ssr:stedsnr" v="64201" />
	</node>
	<node id="-188149" lat="59.7562540184" lon="10.2270880159">
		<tag k="fixme" v="consider place=hamlet" />
		<tag k="name" v="Stoppen" />
		<tag k="place" v="farm" />
		<tag k="ssr:stedsnr" v="64061" />
	</node>
	<node id="-188148" lat="59.7613943197" lon="10.2706421565">
		<tag k="fixme" v="consider place=hamlet" />
		<tag k="name" v="Huseby" />
		<tag k="place" v="farm" />
		<tag k="ssr:stedsnr" v="64051" />
	</node>
	<node id="-188147" lat="59.7828361117" lon="10.1700944458">
		<tag k="name" v="Saueseterhytta" />
		<tag k="place" v="isolated_dwelling" />
		<tag k="ssr:stedsnr" v="59248" />
	</node>
	<node id="-188146" lat="59.8811105685" lon="10.303303944">
		<tag k="fixme" v="consider place=hamlet" />
		<tag k="name" v="Kornerud" />
		<tag k="place" v="farm" />
		<tag k="ssr:stedsnr" v="65338" />
	</node>
	<node id="-188145" lat="59.9099176192" lon="10.294413567">
		<tag k="name" v="Røykås" />
		<tag k="place" v="farm" />
		<tag k="ssr:stedsnr" v="65317" />
	</node>
	<node id="-188140" lat="59.8685101309" lon="10.2255215647">
		<tag k="name" v="Svere" />
		<tag k="place" v="hamlet" />
		<tag k="ssr:stedsnr" v="65251" />
	</node>
	<node id="-188138" lat="59.9363000026" lon="10.2680027807">
		<tag k="alt_name" v="Midt-Røine;Midtre Røyne" />
		<tag k="name" v="Midt-Røyne" />
		<tag k="old_name" v="Midtrøine;Midtre Røine" />
		<tag k="place" v="farm" />
		<tag k="ssr:stedsnr" v="38527" />
	</node>
	<node id="-188129" lat="59.75797778" lon="10.2796777851">
		<tag k="name" v="Huseby" />
		<tag k="place" v="farm" />
		<tag k="ssr:stedsnr" v="22869" />
	</node>
	<node id="-188123" lat="59.7943361083" lon="10.2598416689">
		<tag k="alt_name" v="Lier" />
		<tag k="amenity" v="nursing_home" />
		<tag k="name" v="Lier sykehus" />
		<tag k="ssr:stedsnr" v="22122" />
	</node>
	<node id="-188121" lat="59.8898333343" lon="10.3124361023">
		<tag k="name" v="Øvre Bakkerud" />
		<tag k="place" v="farm" />
		<tag k="ssr:stedsnr" v="21958" />
	</node>
	<node id="-188119" lat="59.862224997" lon="10.2805694461">
		<tag k="name" v="Bjørnsrud" />
		<tag k="place" v="farm" />
		<tag k="ssr:stedsnr" v="21891" />
	</node>
	<node id="-188118" lat="59.7463527813" lon="10.2908416647">
		<tag k="name" v="Nordre Gullaug" />
		<tag k="place" v="farm" />
		<tag k="ssr:stedsnr" v="21878" />
	</node>
	<node id="-188114" lat="59.7789388888" lon="10.2698944383">
		<tag k="name" v="Søndre Stokke" />
		<tag k="place" v="farm" />
		<tag k="ssr:stedsnr" v="21629" />
	</node>
	<node id="-188112" lat="59.9014222194" lon="10.2623583283">
		<tag k="name" v="Østre Solberg" />
		<tag k="place" v="farm" />
		<tag k="ssr:stedsnr" v="21577" />
	</node>
	<node id="-188111" lat="59.911461109" lon="10.2493277728">
		<tag k="name" v="Fagerlihytta" />
		<tag k="place" v="isolated_dwelling" />
		<tag k="ssr:stedsnr" v="21560" />
	</node>
	<node id="-188110" lat="59.9486055522" lon="10.2915972248">
		<tag k="name" v="Solvang" />
		<tag k="place" v="isolated_dwelling" />
		<tag k="ssr:stedsnr" v="21542" />
	</node>
	<node id="-188109" lat="59.9325" lon="10.2776583399">
		<tag k="name" v="Nedre Skustad" />
		<tag k="place" v="farm" />
		<tag k="ssr:stedsnr" v="21538" />
	</node>
	<node id="-188104" lat="59.8505388849" lon="10.2368333269">
		<tag k="name" v="Roaldsrud" />
		<tag k="place" v="farm" />
		<tag k="ssr:stedsnr" v="21425" />
	</node>
	<node id="-188103" lat="59.8182138912" lon="10.2097416598">
		<tag k="name" v="Vestre Egge" />
		<tag k="place" v="farm" />
		<tag k="ssr:stedsnr" v="21416" />
	</node>
	<node id="-188102" lat="59.8483444461" lon="10.2497916676">
		<tag k="alt_name" v="Nedre Opsal;Opsal" />
		<tag k="name" v="Nedre Oppsal" />
		<tag k="place" v="farm" />
		<tag k="ssr:stedsnr" v="21409" />
	</node>
	<node id="-188101" lat="59.8122305592" lon="10.2025722178">
		<tag k="name" v="Askgrenda" />
		<tag k="place" v="hamlet" />
		<tag k="ssr:stedsnr" v="21408" />
	</node>
	<node id="-188099" lat="59.8865305566" lon="10.2293611026">
		<tag k="name" v="Fjellheim" />
		<tag k="place" v="farm" />
		<tag k="ssr:stedsnr" v="21225" />
	</node>
	<node id="-188098" lat="59.8807138916" lon="10.2354944412">
		<tag k="name" v="Rinen" />
		<tag k="place" v="isolated_dwelling" />
		<tag k="ssr:stedsnr" v="21223" />
	</node>
	<node id="-188097" lat="59.894344446" lon="10.2498888861">
		<tag k="name" v="Østre Solberg" />
		<tag k="place" v="farm" />
		<tag k="ssr:stedsnr" v="21205" />
	</node>
	<node id="-188096" lat="59.8923722254" lon="10.2353777709">
		<tag k="name" v="Damli" />
		<tag k="place" v="farm" />
		<tag k="ssr:stedsnr" v="21191" />
	</node>
	<node id="-188095" lat="59.8560249967" lon="10.2321249963">
		<tag k="name" v="Øvre Mørk" />
		<tag k="place" v="farm" />
		<tag k="ssr:stedsnr" v="21174" />
	</node>
	<node id="-188094" lat="59.8738138902" lon="10.230411112">
		<tag k="name" v="Bråtan" />
		<tag k="place" v="isolated_dwelling" />
		<tag k="ssr:stedsnr" v="21161" />
	</node>
	<node id="-188093" lat="59.8225194413" lon="10.2353972264">
		<tag k="name" v="Linnesvollen" />
		<tag k="place" v="locality" />
		<tag k="ssr:stedsnr" v="21139" />
	</node>
	<node id="-188092" lat="59.8124972218" lon="10.2566583363">
		<tag k="alt_name" v="Kimmerud" />
		<tag k="name" v="Kimerud" />
		<tag k="place" v="farm" />
		<tag k="ssr:stedsnr" v="21134" />
	</node>
	<node id="-188091" lat="59.8103888921" lon="10.3191305572">
		<tag k="name" v="Myra" />
		<tag k="place" v="farm" />
		<tag k="ssr:stedsnr" v="21105" />
	</node>
	<node id="-188088" lat="59.8175472217" lon="10.3230916646">
		<tag k="name" v="Solvang" />
		<tag k="place" v="farm" />
		<tag k="ssr:stedsnr" v="21082" />
	</node>
	<node id="-188087" lat="59.8177076004" lon="10.3110312422">
		<tag k="fixme" v="consider place=hamlet" />
		<tag k="name" v="Østre Grøstad" />
		<tag k="place" v="farm" />
		<tag k="ssr:stedsnr" v="21059" />
	</node>
	<node id="-188084" lat="59.793680558" lon="10.2257916687">
		<tag k="name" v="Østdal" />
		<tag k="place" v="farm" />
		<tag k="ssr:stedsnr" v="20774" />
	</node>
	<node id="-188082" lat="59.7671999972" lon="10.2261999977">
		<tag k="name" v="Nordre Lian" />
		<tag k="place" v="farm" />
		<tag k="ssr:stedsnr" v="20750" />
	</node>
	<node id="-188081" lat="59.7821499999" lon="10.2592916736">
		<tag k="alt_name" v="Ila" />
		<tag k="loc_name" v="Ilabråtan" />
		<tag k="name" v="Ilabråten" />
		<tag k="place" v="farm" />
		<tag k="ssr:stedsnr" v="20749" />
	</node>
	<node id="-188079" lat="59.8063916688" lon="10.2239277767">
		<tag k="name" v="Landfallenga" />
		<tag k="place" v="farm" />
		<tag k="ssr:stedsnr" v="20354" />
	</node>
	<node id="-188078" lat="59.8012500022" lon="10.2243611151">
		<tag k="name" v="Vestre Renskaug" />
		<tag k="place" v="farm" />
		<tag k="ssr:stedsnr" v="20352" />
	</node>
	<node id="-188077" lat="59.7719861098" lon="10.2216277745">
		<tag k="alt_name" v="Nordre Viulstad;Viulstad" />
		<tag k="fixme" v="multiple name tags, choose one and add the other to alt_name" />
		<tag k="name" v="Nordre Vivelstad;Vivelstad" />
		<tag k="place" v="farm" />
		<tag k="ssr:stedsnr" v="20339" />
	</node>
	<node id="-188075" lat="59.8925694451" lon="10.307205564">
		<tag k="alt_name" v="St. Hallvards kloster" />
		<tag k="name" v="Klosteret" />
		<tag k="place" v="isolated_dwelling" />
		<tag k="ssr:stedsnr" v="20164" />
	</node>
	<node id="-188074" lat="59.9265500003" lon="10.123347222">
		<tag k="name" v="Nykjua" />
		<tag k="place" v="isolated_dwelling" />
		<tag k="ssr:stedsnr" v="20161" />
	</node>
	<node id="-188070" lat="59.9358277773" lon="10.2956611099">
		<tag k="name" v="Øvre Eik" />
		<tag k="place" v="farm" />
		<tag k="ssr:stedsnr" v="4420" />
	</node>
	<node id="-188069" lat="59.9406944403" lon="10.2745805516">
		<tag k="name" v="Lybråtan" />
		<tag k="place" v="farm" />
		<tag k="ssr:stedsnr" v="4373" />
	</node>
	<node id="-188067" lat="59.8857536182" lon="10.2653150935">
		<tag k="fixme" v="consider place=hamlet" />
		<tag k="name" v="Gunnerud" />
		<tag k="place" v="farm" />
		<tag k="ssr:stedsnr" v="4345" />
	</node>
	<node id="-188066" lat="59.8841472265" lon="10.2914666678">
		<tag k="alt_name" v="Labråtan" />
		<tag k="name" v="Labråten" />
		<tag k="place" v="farm" />
		<tag k="ssr:stedsnr" v="4341" />
	</node>
	<node id="-188065" lat="59.8899166682" lon="10.271708326">
		<tag k="name" v="Gjerstad" />
		<tag k="place" v="farm" />
		<tag k="ssr:stedsnr" v="4309" />
	</node>
	<node id="-188064" lat="59.8511083328" lon="10.2428666721">
		<tag k="alt_name" v="Kåtarud" />
		<tag k="name" v="Kåterud" />
		<tag k="place" v="farm" />
		<tag k="ssr:stedsnr" v="4304" />
	</node>
	<node id="-188063" lat="59.8372027749" lon="10.3165250038">
		<tag k="name" v="Slåttebråtan" />
		<tag k="place" v="farm" />
		<tag k="ssr:stedsnr" v="4286" />
	</node>
	<node id="-188061" lat="59.873586114" lon="10.0825749942">
		<tag k="alt_name" v="Damhagen" />
		<tag k="name" v="Damhagan" />
		<tag k="place" v="isolated_dwelling" />
		<tag k="ssr:stedsnr" v="4270" />
	</node>
	<node id="-188060" lat="59.8665611075" lon="10.2414833315">
		<tag k="name" v="Muggerud" />
		<tag k="place" v="farm" />
		<tag k="ssr:stedsnr" v="4269" />
	</node>
	<node id="-188059" lat="59.8539249976" lon="10.2294972179">
		<tag k="name" v="Søhagan" />
		<tag k="place" v="farm" />
		<tag k="ssr:stedsnr" v="4259" />
	</node>
	<node id="-188058" lat="59.8308638866" lon="10.3100222214">
		<tag k="name" v="Langeland" />
		<tag k="place" v="farm" />
		<tag k="ssr:stedsnr" v="4196" />
	</node>
	<node id="-188057" lat="59.7857128842" lon="10.2276709346">
		<tag k="name" v="Saue" />
		<tag k="place" v="hamlet" />
		<tag k="ssr:stedsnr" v="4145" />
	</node>
	<node id="-188056" lat="59.87318889" lon="10.2929055562">
		<tag k="alt_name" v="Kittelsrud" />
		<tag k="name" v="Kittilsrud" />
		<tag k="place" v="farm" />
		<tag k="ssr:stedsnr" v="3307" />
	</node>
	<node id="-188055" lat="59.9008583321" lon="10.2592472262">
		<tag k="name" v="Fagerli" />
		<tag k="place" v="farm" />
		<tag k="ssr:stedsnr" v="3295" />
	</node>
	<node id="-188053" lat="59.8092396766" lon="10.2554973506">
		<tag k="fixme" v="consider place=hamlet" />
		<tag k="name" v="Tranby" />
		<tag k="place" v="farm" />
		<tag k="ssr:stedsnr" v="3196" />
	</node>
	<node id="-188052" lat="59.810285311" lon="10.2458600498">
		<tag k="fixme" v="consider place=hamlet" />
		<tag k="name" v="Hellum" />
		<tag k="place" v="farm" />
		<tag k="ssr:stedsnr" v="3195" />
	</node>
	<node id="-188051" lat="59.8241499959" lon="10.2390833338">
		<tag k="name" v="Rundtom" />
		<tag k="place" v="farm" />
		<tag k="ssr:stedsnr" v="3182" />
	</node>
	<node id="-188050" lat="59.7679249973" lon="10.248030551">
		<tag k="name" v="Kjellstad" />
		<tag k="place" v="hamlet" />
		<tag k="ssr:stedsnr" v="3155" />
	</node>
	<node id="-188049" lat="59.7551144806" lon="10.2403382046">
		<tag k="name" v="Høvik" />
		<tag k="place" v="hamlet" />
		<tag k="ssr:stedsnr" v="3080" />
	</node>
	<node id="-188039" lat="59.9363847638" lon="10.2971725749">
		<tag k="fixme" v="consider place=hamlet" />
		<tag k="name" v="Eik" />
		<tag k="place" v="farm" />
		<tag k="ssr:stedsnr" v="1072727" />
	</node>
	<node id="-188038" lat="59.9018633561" lon="10.2637325494">
		<tag k="name" v="Kyllerud" />
		<tag k="place" v="farm" />
		<tag k="ssr:stedsnr" v="1072726" />
	</node>
	<node id="-188037" lat="59.8975399011" lon="10.2748517988">
		<tag k="name" v="Sylling" />
		<tag k="place" v="hamlet" />
		<tag k="ssr:stedsnr" v="1072725" />
	</node>
	<node id="-188036" lat="59.8147649526" lon="10.3145898016">
		<tag k="fixme" v="consider place=hamlet" />
		<tag k="name" v="Tveiten" />
		<tag k="place" v="farm" />
		<tag k="ssr:stedsnr" v="1072715" />
	</node>
	<node id="-188035" lat="59.8342371781" lon="10.3290751923">
		<tag k="fixme" v="consider place=hamlet" />
		<tag k="name" v="Bø" />
		<tag k="place" v="farm" />
		<tag k="ssr:stedsnr" v="1072714" />
	</node>
	<node id="-188034" lat="59.8306046116" lon="10.3142269829">
		<tag k="fixme" v="consider place=hamlet" />
		<tag k="name" v="Tømte" />
		<tag k="place" v="farm" />
		<tag k="ssr:stedsnr" v="1072712" />
	</node>
	<node id="-188033" lat="59.8239890001" lon="10.206422827">
		<tag k="fixme" v="consider place=hamlet" />
		<tag k="name" v="Ringstad" />
		<tag k="place" v="farm" />
		<tag k="ssr:stedsnr" v="1072703" />
	</node>
	<node id="-188032" lat="59.79626219" lon="10.235515196">
		<tag k="name" v="Renskog" />
		<tag k="place" v="hamlet" />
		<tag k="ssr:stedsnr" v="1072702" />
	</node>
	<node id="-188031" lat="59.7642480914" lon="10.2249257855">
		<tag k="name" v="Lian" />
		<tag k="place" v="hamlet" />
		<tag k="ssr:stedsnr" v="1072700" />
	</node>
	<node id="-188030" lat="59.7497783651" lon="10.2309858028">
		<tag k="name" v="Nøste" />
		<tag k="place" v="hamlet" />
		<tag k="ssr:stedsnr" v="1072688" />
	</node>
	<node id="-188029" lat="59.9337259017" lon="10.2671766908">
		<tag k="name" v="Roa" />
		<tag k="place" v="farm" />
		<tag k="ssr:stedsnr" v="1072165" />
	</node>
	<node id="-188024" lat="59.7309027776" lon="10.3032555496">
		<tag k="name" v="Engersand havn" />
		<tag k="place" v="neighbourhood" />
		<tag k="ssr:stedsnr" v="404591" />
	</node>
	<node id="-188023" lat="59.7568111143" lon="10.2724388866">
		<tag k="name" v="Huseby" />
		<tag k="place" v="isolated_dwelling" />
		<tag k="ssr:stedsnr" v="404282" />
	</node>
	<node id="-188019" lat="59.8797833293" lon="10.3022194453">
		<tag k="name" v="Kornerud" />
		<tag k="place" v="farm" />
		<tag k="ssr:stedsnr" v="385990" />
	</node>
	<node id="-188018" lat="59.8917583343" lon="10.3049749977">
		<tag k="name" v="Østre Enger" />
		<tag k="place" v="farm" />
		<tag k="ssr:stedsnr" v="385988" />
	</node>
	<node id="-188014" lat="59.7661722238" lon="10.2484444505">
		<tag k="name" v="Kjellstad" />
		<tag k="place" v="farm" />
		<tag k="ssr:stedsnr" v="385915" />
	</node>
	<node id="-188013" lat="59.8582055548" lon="10.2748666727">
		<tag k="name" v="Torsrud" />
		<tag k="place" v="farm" />
		<tag k="ssr:stedsnr" v="385894" />
	</node>
	<node id="-188012" lat="59.7658440664" lon="10.2780596302">
		<tag k="fixme" v="consider place=hamlet" />
		<tag k="name" v="Hvalsenga" />
		<tag k="place" v="farm" />
		<tag k="ssr:stedsnr" v="385887" />
	</node>
	<node id="-188011" lat="59.7634388898" lon="10.2074583301">
		<tag k="fixme" v="consider tourism=alpine_hut or tourism=chalet" />
		<tag k="name" v="Stronghytta" />
		<tag k="ssr:stedsnr" v="385884" />
		<tag k="tourism" v="wilderness_hut" />
	</node>
	<node id="-188008" lat="59.8636972187" lon="10.2162500038">
		<tag k="loc_name" v="Gifstadbråtan" />
		<tag k="name" v="Gifstadbråten" />
		<tag k="place" v="isolated_dwelling" />
		<tag k="ssr:stedsnr" v="385818" />
	</node>
	<node id="-188002" lat="59.7716611087" lon="10.1903916755">
		<tag k="name" v="Arka" />
		<tag k="place" v="isolated_dwelling" />
		<tag k="ssr:stedsnr" v="385668" />
	</node>
	<node id="-187999" lat="59.7955666691" lon="10.2040222238">
		<tag k="name" v="Åsen" />
		<tag k="place" v="farm" />
		<tag k="ssr:stedsnr" v="385719" />
	</node>
	<node id="-187996" lat="59.9203194481" lon="10.2884055559">
		<tag k="name" v="Granum" />
		<tag k="place" v="isolated_dwelling" />
		<tag k="ssr:stedsnr" v="385490" />
	</node>
	<node id="-187993" lat="59.8426472218" lon="10.2201944392">
		<tag k="name" v="Vestre Meren" />
		<tag k="old_name" v="Bygningen" />
		<tag k="place" v="farm" />
		<tag k="ssr:stedsnr" v="385402" />
	</node>
	<node id="-187992" lat="59.8462749759" lon="10.2292585578">
		<tag k="fixme" v="consider place=hamlet" />
		<tag k="name" v="Bakkemeren" />
		<tag k="place" v="farm" />
		<tag k="ssr:stedsnr" v="385399" />
	</node>
	<node id="-187991" lat="59.8322861092" lon="10.2235055486">
		<tag k="name" v="Utenga" />
		<tag k="place" v="farm" />
		<tag k="ssr:stedsnr" v="385386" />
	</node>
	<node id="-187989" lat="59.9309583341" lon="10.2596166712">
		<tag k="name" v="Øvre Skustad" />
		<tag k="place" v="farm" />
		<tag k="ssr:stedsnr" v="385552" />
	</node>
	<node id="-187987" lat="59.9345250033" lon="10.2610527849">
		<tag k="name" v="Åsegård" />
		<tag k="place" v="farm" />
		<tag k="ssr:stedsnr" v="385505" />
	</node>
	<node id="-187985" lat="59.8641916703" lon="10.2437666681">
		<tag k="name" v="Kulberg" />
		<tag k="place" v="farm" />
		<tag k="ssr:stedsnr" v="385250" />
	</node>
	<node id="-187984" lat="59.861433336" lon="10.2529611043">
		<tag k="name" v="Kulberg" />
		<tag k="place" v="farm" />
		<tag k="ssr:stedsnr" v="385248" />
	</node>
	<node id="-187982" lat="59.8315666696" lon="10.3413583347">
		<tag k="name" v="Rypeløkka" />
		<tag k="place" v="farm" />
		<tag k="ssr:stedsnr" v="385084" />
	</node>
	<node id="-187981" lat="59.8201638908" lon="10.3369277711">
		<tag k="name" v="Solvang" />
		<tag k="old_name" v="Østre Solvang" />
		<tag k="place" v="farm" />
		<tag k="ssr:stedsnr" v="385083" />
	</node>
	<node id="-187980" lat="59.8217138932" lon="10.2634499945">
		<tag k="name" v="Vestre Hennum" />
		<tag k="place" v="farm" />
		<tag k="ssr:stedsnr" v="385064" />
	</node>
	<node id="-187976" lat="59.8568777766" lon="10.2087194448">
		<tag k="name" v="Kjåkadalen" />
		<tag k="place" v="farm" />
		<tag k="ssr:stedsnr" v="385152" />
	</node>
	<node id="-187975" lat="59.8239833374" lon="10.2576972177">
		<tag k="name" v="Dalenga" />
		<tag k="place" v="farm" />
		<tag k="ssr:stedsnr" v="385145" />
	</node>
	<node id="-187974" lat="59.8440027802" lon="10.2676611085">
		<tag k="name" v="Liverud" />
		<tag k="place" v="farm" />
		<tag k="ssr:stedsnr" v="385143" />
	</node>
	<node id="-187973" lat="59.8381305559" lon="10.2899388892">
		<tag k="alt_name" v="Søsetra" />
		<tag k="name" v="Sørsetra" />
		<tag k="place" v="locality" />
		<tag k="ssr:stedsnr" v="385131" />
	</node>
	<node id="-187970" lat="59.8338472217" lon="10.3204888873">
		<tag k="building" v="industrial" />
		<tag k="name" v="Ekebergsaga" />
		<tag k="ssr:stedsnr" v="385106" />
	</node>
	<node id="-187969" lat="59.7815944433" lon="10.2262111099">
		<tag k="name" v="Frognerlia" />
		<tag k="place" v="quarter" />
		<tag k="ssr:stedsnr" v="384369" />
	</node>
	<node id="-187968" lat="59.7769086647" lon="10.2256235139">
		<tag k="fixme" v="consider place=hamlet" />
		<tag k="name" v="Hval" />
		<tag k="place" v="farm" />
		<tag k="ssr:stedsnr" v="384367" />
	</node>
	<node id="-187965" lat="59.9337972178" lon="10.2846527788">
		<tag k="name" v="Slutten" />
		<tag k="place" v="isolated_dwelling" />
		<tag k="ssr:stedsnr" v="368463" />
	</node>
	<node id="-187962" lat="59.9217444429" lon="10.2899611115">
		<tag k="name" v="Steglehaugen" />
		<tag k="place" v="farm" />
		<tag k="ssr:stedsnr" v="368438" />
	</node>
	<node id="-187961" lat="59.8833638875" lon="10.2343305476">
		<tag k="name" v="Delekant" />
		<tag k="place" v="farm" />
		<tag k="ssr:stedsnr" v="368385" />
	</node>
	<node id="-187960" lat="59.876983332" lon="10.2570472202">
		<tag k="name" v="Nylendet" />
		<tag k="place" v="farm" />
		<tag k="ssr:stedsnr" v="368377" />
	</node>
	<node id="-187959" lat="59.8436249979" lon="10.1069805637">
		<tag k="alt_name" v="Lelangen" />
		<tag k="name" v="Lelangsplassen" />
		<tag k="place" v="isolated_dwelling" />
		<tag k="ssr:stedsnr" v="368317" />
	</node>
	<node id="-187958" lat="59.8426944476" lon="10.1333249914">
		<tag k="name" v="Kasta" />
		<tag k="place" v="isolated_dwelling" />
		<tag k="ssr:stedsnr" v="368315" />
	</node>
	<node id="-187957" lat="59.8420111098" lon="10.1935805484">
		<tag k="fixme" v="multiple name tags, choose one and add the other to alt_name" />
		<tag k="name" v="Siljuseter;Stensrud" />
		<tag k="place" v="farm" />
		<tag k="ssr:stedsnr" v="368309" />
	</node>
	<node id="-187954" lat="59.8631740686" lon="10.2509662979">
		<tag k="fixme" v="consider place=hamlet" />
		<tag k="name" v="Kulberg" />
		<tag k="place" v="farm" />
		<tag k="ssr:stedsnr" v="368298" />
	</node>
	<node id="-187953" lat="59.8667372193" lon="10.2225679782">
		<tag k="fixme" v="consider place=hamlet" />
		<tag k="name" v="Gifstad" />
		<tag k="place" v="farm" />
		<tag k="ssr:stedsnr" v="368296" />
	</node>
	<node id="-187952" lat="59.8566277764" lon="10.2277083251">
		<tag k="name" v="Nærstad" />
		<tag k="place" v="farm" />
		<tag k="ssr:stedsnr" v="368288" />
	</node>
	<node id="-187950" lat="59.805005555" lon="10.2547166748">
		<tag k="name" v="Haverstad" />
		<tag k="place" v="farm" />
		<tag k="ssr:stedsnr" v="368270" />
	</node>
	<node id="-187948" lat="59.8068027789" lon="10.2355916585">
		<tag k="name" v="Haslenes" />
		<tag k="place" v="farm" />
		<tag k="ssr:stedsnr" v="368266" />
	</node>
	<node id="-187947" lat="59.8025334744" lon="10.1999935635">
		<tag k="fixme" v="consider place=hamlet" />
		<tag k="name" v="Eriksrud" />
		<tag k="place" v="farm" />
		<tag k="ssr:stedsnr" v="368261" />
	</node>
	<node id="-187945" lat="59.8290792053" lon="10.2396900797">
		<tag k="alt_name" v="Ytre Fuglerud" />
		<tag k="fixme" v="consider place=hamlet" />
		<tag k="name" v="Fuglerud" />
		<tag k="place" v="farm" />
		<tag k="ssr:stedsnr" v="368217" />
	</node>
	<node id="-187944" lat="59.8355222243" lon="10.1638388821">
		<tag k="name" v="Lamyr" />
		<tag k="place" v="farm" />
		<tag k="ssr:stedsnr" v="368210" />
	</node>
	<node id="-187943" lat="59.7758638869" lon="10.2120833367">
		<tag k="name" v="Bjørndalen" />
		<tag k="place" v="farm" />
		<tag k="ssr:stedsnr" v="368190" />
	</node>
	<node id="-187942" lat="59.7861625499" lon="10.1990965868">
		<tag k="fixme" v="consider place=hamlet" />
		<tag k="name" v="Undersrud" />
		<tag k="place" v="farm" />
		<tag k="ssr:stedsnr" v="368172" />
	</node>
	<node id="-187941" lat="59.7812458634" lon="10.2713779706">
		<tag k="alt_name" v="Øvre Brastad" />
		<tag k="name" v="Brastad" />
		<tag k="place" v="hamlet" />
		<tag k="ssr:stedsnr" v="368163" />
	</node>
	<node id="-187940" lat="59.7828166641" lon="10.1701444445">
		<tag k="historic" v="shieling" />
		<tag k="name" v="Sauesetra" />
		<tag k="place" v="locality" />
		<tag k="ssr:stedsnr" v="368155" />
	</node>
	<node id="-187938" lat="59.8100555572" lon="10.3188777701">
		<tag k="name" v="Myra" />
		<tag k="place" v="farm" />
		<tag k="ssr:stedsnr" v="367180" />
	</node>
	<node id="-187937" lat="59.8159948908" lon="10.2507330863">
		<tag k="fixme" v="consider place=hamlet" />
		<tag k="name" v="Lyngås" />
		<tag k="place" v="farm" />
		<tag k="ssr:stedsnr" v="367176" />
	</node>
	<node id="-187936" lat="59.7640833319" lon="10.2242694525">
		<tag k="name" v="Nordre Lian" />
		<tag k="place" v="farm" />
		<tag k="ssr:stedsnr" v="367059" />
	</node>
	<node id="-187935" lat="59.7527499989" lon="10.2669277812">
		<tag k="name" v="Gilhus" />
		<tag k="place" v="farm" />
		<tag k="ssr:stedsnr" v="358653" />
	</node>
	<node id="-187932" lat="59.8680934809" lon="10.2281309632">
		<tag k="name" v="Nedre Svere" />
		<tag k="place" v="farm" />
		<tag k="ssr:stedsnr" v="344717" />
	</node>
	<node id="-187931" lat="59.9375888858" lon="10.2677055578">
		<tag k="alt_name" v="Nordre Røine" />
		<tag k="name" v="Nordre Røyne" />
		<tag k="place" v="farm" />
		<tag k="ssr:stedsnr" v="341820" />
	</node>
	<node id="-187927" lat="59.8881055595" lon="10.3081749942">
		<tag k="name" v="Søndre Bakkerud" />
		<tag k="place" v="farm" />
		<tag k="ssr:stedsnr" v="325948" />
	</node>
	<node id="-187922" lat="59.8553111146" lon="10.273800003">
		<tag k="alt_name" v="Nordhagen" />
		<tag k="name" v="Nordhagan" />
		<tag k="place" v="farm" />
		<tag k="ssr:stedsnr" v="325875" />
	</node>
	<node id="-187919" lat="59.7488111094" lon="10.3154083299">
		<tag k="loc_name" v="Steinberg" />
		<tag k="name" v="Stenberg" />
		<tag k="place" v="farm" />
		<tag k="ssr:stedsnr" v="325836" />
	</node>
	<node id="-187918" lat="59.8696388927" lon="10.2293527707">
		<tag k="name" v="Askelund" />
		<tag k="place" v="isolated_dwelling" />
		<tag k="ssr:stedsnr" v="325781" />
	</node>
	<node id="-187917" lat="59.8046888857" lon="10.2034944399">
		<tag k="name" v="Eriksrud" />
		<tag k="place" v="farm" />
		<tag k="ssr:stedsnr" v="325681" />
	</node>
	<node id="-187908" lat="59.9503777822" lon="10.2905888894">
		<tag k="name" v="Saga" />
		<tag k="place" v="isolated_dwelling" />
		<tag k="ssr:stedsnr" v="325507" />
	</node>
	<node id="-187902" lat="59.8938388849" lon="10.238980549">
		<tag k="name" v="Trolldalen" />
		<tag k="place" v="quarter" />
		<tag k="ssr:stedsnr" v="325151" />
	</node>
	<node id="-187901" lat="59.8627361094" lon="10.2238888877">
		<tag k="name" v="Østenga" />
		<tag k="place" v="isolated_dwelling" />
		<tag k="ssr:stedsnr" v="325126" />
	</node>
	<node id="-187900" lat="59.842572222" lon="10.2156777733">
		<tag k="name" v="Bakke" />
		<tag k="place" v="farm" />
		<tag k="ssr:stedsnr" v="325123" />
	</node>
	<node id="-187898" lat="59.8282277808" lon="10.2602583416">
		<tag k="fixme" v="multiple name tags, choose one and add the other to alt_name" />
		<tag k="name" v="Klinkenberghagen;Nedre Hennum" />
		<tag k="old_name" v="Rødenga" />
		<tag k="place" v="farm" />
		<tag k="ssr:stedsnr" v="325114" />
	</node>
	<node id="-187894" lat="59.826888889" lon="10.333777769">
		<tag k="name" v="Rypebråtan" />
		<tag k="place" v="isolated_dwelling" />
		<tag k="ssr:stedsnr" v="325051" />
	</node>
	<node id="-187893" lat="59.8304000023" lon="10.2748694497">
		<tag k="name" v="Enga" />
		<tag k="place" v="farm" />
		<tag k="ssr:stedsnr" v="325034" />
	</node>
	<node id="-187891" lat="59.7554527746" lon="10.2333333309">
		<tag k="alt_name" v="Stoppen" />
		<tag k="name" v="Nedre Stoppen" />
		<tag k="place" v="farm" />
		<tag k="ssr:stedsnr" v="324918" />
	</node>
	<node id="-187890" lat="59.7649666709" lon="10.2356138921">
		<tag k="name" v="Sandaker" />
		<tag k="place" v="farm" />
		<tag k="ssr:stedsnr" v="324914" />
	</node>
	<node id="-187885" lat="59.8258361564" lon="10.3459905539">
		<tag k="alt_name" v="Øvre Stabekk" />
		<tag k="name" v="Stabekk" />
		<tag k="place" v="hamlet" />
		<tag k="ssr:stedsnr" v="308711" />
	</node>
	<node id="-187881" lat="59.9350151807" lon="10.2691399505">
		<tag k="alt_name" v="Søndre Røine" />
		<tag k="fixme" v="consider place=hamlet" />
		<tag k="name" v="Søndre Røyne" />
		<tag k="place" v="farm" />
		<tag k="ssr:stedsnr" v="307443" />
	</node>
	<node id="-187878" lat="59.9396777814" lon="10.2632083289">
		<tag k="alt_name" v="Røyne, vestre;Nordre Røine;Nordre Røyne" />
		<tag k="name" v="Vestre Røyne" />
		<tag k="place" v="farm" />
		<tag k="ssr:stedsnr" v="307385" />
	</node>
	<node id="-187876" lat="59.8483916698" lon="10.1919722223">
		<tag k="name" v="Flåret" />
		<tag k="place" v="farm" />
		<tag k="ssr:stedsnr" v="307292" />
	</node>
	<node id="-187875" lat="59.8084805563" lon="10.3289361105">
		<tag k="name" v="Kjenner" />
		<tag k="place" v="farm" />
		<tag k="ssr:stedsnr" v="307286" />
	</node>
	<node id="-187872" lat="59.8202749982" lon="10.3285000051">
		<tag k="fixme" v="consider place=suburb, village or hamlet" />
		<tag k="name" v="Heia" />
		<tag k="place" v="quarter" />
		<tag k="ssr:stedsnr" v="307241" />
	</node>
	<node id="-187871" lat="59.8194061684" lon="10.2681118844">
		<tag k="fixme" v="consider place=hamlet" />
		<tag k="name" v="Haugerud" />
		<tag k="place" v="farm" />
		<tag k="ssr:stedsnr" v="307233" />
	</node>
	<node id="-187868" lat="59.7721022802" lon="10.2023281382">
		<tag k="fixme" v="consider place=hamlet" />
		<tag k="name" v="Tormodsrud" />
		<tag k="place" v="farm" />
		<tag k="ssr:stedsnr" v="307202" />
	</node>
	<node id="-187867" lat="59.7662444489" lon="10.2691222165">
		<tag k="name" v="Børreshaugen" />
		<tag k="place" v="farm" />
		<tag k="ssr:stedsnr" v="307200" />
	</node>
	<node id="-187866" lat="59.772232314" lon="10.2784436402">
		<tag k="fixme" v="consider place=hamlet" />
		<tag k="name" v="Viker" />
		<tag k="place" v="farm" />
		<tag k="ssr:stedsnr" v="307198" />
	</node>
	<node id="-187865" lat="59.7667856263" lon="10.2541931991">
		<tag k="fixme" v="consider place=hamlet" />
		<tag k="name" v="Åby" />
		<tag k="place" v="farm" />
		<tag k="ssr:stedsnr" v="307193" />
	</node>
	<node id="-187864" lat="59.7806826834" lon="10.2770963825">
		<tag k="fixme" v="consider place=hamlet" />
		<tag k="name" v="Solstad" />
		<tag k="place" v="farm" />
		<tag k="ssr:stedsnr" v="307183" />
	</node>
	<node id="-187863" lat="59.7758277802" lon="10.2308638922">
		<tag k="name" v="Hval" />
		<tag k="place" v="farm" />
		<tag k="ssr:stedsnr" v="307179" />
	</node>
	<node id="-187861" lat="59.7831416631" lon="10.2070916695">
		<tag k="name" v="Eikhagan" />
		<tag k="place" v="farm" />
		<tag k="ssr:stedsnr" v="307159" />
	</node>
	<node id="-187860" lat="59.7903476653" lon="10.2189650119">
		<tag k="fixme" v="consider place=hamlet" />
		<tag k="name" v="Jaren" />
		<tag k="place" v="farm" />
		<tag k="ssr:stedsnr" v="307158" />
	</node>
	<node id="-187859" lat="59.7842000005" lon="10.2469777835">
		<tag k="name" v="Holmen" />
		<tag k="place" v="farm" />
		<tag k="ssr:stedsnr" v="307155" />
	</node>
	<node id="-187858" lat="59.7886568027" lon="10.267350856">
		<tag k="fixme" v="consider place=hamlet" />
		<tag k="name" v="Haslum" />
		<tag k="place" v="farm" />
		<tag k="ssr:stedsnr" v="307152" />
	</node>
	<node id="-187857" lat="59.763579295" lon="10.2512510333">
		<tag k="fixme" v="consider place=hamlet" />
		<tag k="name" v="Moserud" />
		<tag k="place" v="farm" />
		<tag k="ssr:stedsnr" v="307078" />
	</node>
	<node id="-187855" lat="59.9073666655" lon="10.2928027845">
		<tag k="alt_name" v="Sanden" />
		<tag k="name" v="Sand" />
		<tag k="place" v="farm" />
		<tag k="ssr:stedsnr" v="307333" />
	</node>
	<node id="-187854" lat="59.8514749964" lon="10.2395083416">
		<tag k="name" v="Helgerud" />
		<tag k="place" v="farm" />
		<tag k="ssr:stedsnr" v="307328" />
	</node>
	<node id="-187853" lat="59.8467499963" lon="10.3243277807">
		<tag k="historic" v="shieling" />
		<tag k="name" v="Bøsetra" />
		<tag k="place" v="locality" />
		<tag k="ssr:stedsnr" v="307326" />
	</node>
	<node id="-187852" lat="59.8339027817" lon="10.1443777777">
		<tag k="name" v="Myra" />
		<tag k="place" v="locality" />
		<tag k="ssr:stedsnr" v="307314" />
	</node>
	<node id="-187851" lat="59.8688671933" lon="10.2335429534">
		<tag k="fixme" v="consider place=hamlet" />
		<tag k="name" v="Brurberg" />
		<tag k="place" v="farm" />
		<tag k="ssr:stedsnr" v="307303" />
	</node>
	<node id="-187850" lat="59.725697222" lon="10.313811105">
		<tag k="name" v="Lahell" />
		<tag k="place" v="hamlet" />
		<tag k="ssr:stedsnr" v="306253" />
	</node>
	<node id="-187846" lat="59.7556861123" lon="10.2266944533">
		<tag k="alt_name" v="Stoppen" />
		<tag k="name" v="Øvre Stoppen" />
		<tag k="place" v="farm" />
		<tag k="ssr:stedsnr" v="280644" />
	</node>
	<node id="-189224" lat="59.7751305561" lon="10.201163892">
		<tag k="name" v="Steinli" />
		<tag k="place" v="isolated_dwelling" />
		<tag k="ssr:stedsnr" v="965395" />
	</node>
	<node id="-189223" lat="59.863636114" lon="10.2823194365">
		<tag k="alt_name" v="Kittelsrud;Skogen" />
		<tag k="fixme" v="multiple name tags, choose one and add the other to alt_name" />
		<tag k="name" v="Kittilsrud;Skaugen" />
		<tag k="place" v="farm" />
		<tag k="ssr:stedsnr" v="963296" />
	</node>
	<node id="-189220" lat="59.7498166704" lon="10.2334833373">
		<tag k="name" v="Vestre Nøste" />
		<tag k="place" v="isolated_dwelling" />
		<tag k="ssr:stedsnr" v="951912" />
	</node>
	<node id="-189215" lat="59.8923249994" lon="10.2912361036">
		<tag k="amenity" v="school" />
		<tag k="name" v="Sylling skole" />
		<tag k="ssr:stedsnr" v="932987" />
	</node>
	<node id="-189214" lat="59.884488887" lon="10.2620138893">
		<tag k="name" v="Gunnerud" />
		<tag k="place" v="farm" />
		<tag k="ssr:stedsnr" v="932969" />
	</node>
	<node id="-189210" lat="59.8542527801" lon="10.2655000029">
		<tag k="alt_name" v="Opsal" />
		<tag k="fixme" v="multiple name tags, choose one and add the other to alt_name" />
		<tag k="name" v="Nordhagen;Nedre Oppsal" />
		<tag k="place" v="farm" />
		<tag k="ssr:stedsnr" v="932887" />
	</node>
	<node id="-189208" lat="59.7476111114" lon="10.3046527824">
		<tag k="name" v="Fagerhaug" />
		<tag k="place" v="farm" />
		<tag k="ssr:stedsnr" v="932835" />
	</node>
	<node id="-189206" lat="59.8684083361" lon="10.2215305504">
		<tag k="name" v="Bråtenåsen" />
		<tag k="place" v="isolated_dwelling" />
		<tag k="ssr:stedsnr" v="932775" />
	</node>
	<node id="-189203" lat="59.8083418265" lon="10.2019556621">
		<tag k="fixme" v="consider place=hamlet" />
		<tag k="name" v="Søndre Ask" />
		<tag k="place" v="farm" />
		<tag k="ssr:stedsnr" v="932665" />
	</node>
	<node id="-189202" lat="59.8741888871" lon="10.1920611197">
		<tag k="name" v="Høgli" />
		<tag k="place" v="isolated_dwelling" />
		<tag k="ssr:stedsnr" v="932658" />
	</node>
	<node id="-189195" lat="59.9319555583" lon="10.2253694502">
		<tag k="name" v="Øverbyhytta" />
		<tag k="place" v="isolated_dwelling" />
		<tag k="ssr:stedsnr" v="932516" />
	</node>
	<node id="-189191" lat="59.8472888884" lon="10.1618416709">
		<tag k="name" v="Sjåstadhytta" />
		<tag k="place" v="isolated_dwelling" />
		<tag k="ssr:stedsnr" v="932416" />
	</node>
	<node id="-189190" lat="59.8492694405" lon="10.2111361024">
		<tag k="name" v="Nordlia" />
		<tag k="place" v="farm" />
		<tag k="ssr:stedsnr" v="932384" />
	</node>
	<node id="-189189" lat="59.849222225" lon="10.218469444">
		<tag k="alt_name" v="Hakavoll" />
		<tag k="name" v="Hakaval" />
		<tag k="place" v="farm" />
		<tag k="ssr:stedsnr" v="932360" />
	</node>
	<node id="-189185" lat="59.8681888896" lon="10.2403111165">
		<tag k="name" v="Nordhagan" />
		<tag k="place" v="farm" />
		<tag k="ssr:stedsnr" v="932141" />
	</node>
	<node id="-189184" lat="59.819855553" lon="10.251569451">
		<tag k="name" v="Buttedal" />
		<tag k="place" v="farm" />
		<tag k="ssr:stedsnr" v="932107" />
	</node>
	<node id="-189183" lat="59.8347399604" lon="10.269455846">
		<tag k="fixme" v="multiple name tags, choose one and add the other to alt_name" />
		<tag k="name" v="Knipen;Sørsdalsbråten" />
		<tag k="place" v="farm" />
		<tag k="ssr:stedsnr" v="932099" />
	</node>
	<node id="-189180" lat="59.7614111142" lon="10.2327833263">
		<tag k="name" v="Søndre Lian" />
		<tag k="place" v="farm" />
		<tag k="ssr:stedsnr" v="931927" />
	</node>
	<node id="-189179" lat="59.7623888905" lon="10.24474444">
		<tag k="name" v="Kjellbo" />
		<tag k="place" v="farm" />
		<tag k="ssr:stedsnr" v="931925" />
	</node>
	<node id="-189178" lat="59.7661861137" lon="10.2758861199">
		<tag k="name" v="Stavsenga" />
		<tag k="place" v="farm" />
		<tag k="ssr:stedsnr" v="931894" />
	</node>
	<node id="-189177" lat="59.8081222248" lon="10.2215722236">
		<tag k="name" v="Enga" />
		<tag k="place" v="farm" />
		<tag k="ssr:stedsnr" v="931780" />
	</node>
	<node id="-189176" lat="59.7727444423" lon="10.2521250006">
		<tag k="name" v="Lille Valle" />
		<tag k="place" v="farm" />
		<tag k="ssr:stedsnr" v="931768" />
	</node>
	<node id="-189175" lat="59.7830833326" lon="10.2505111081">
		<tag k="name" v="Elvebakken" />
		<tag k="place" v="farm" />
		<tag k="ssr:stedsnr" v="931754" />
	</node>
	<node id="-189173" lat="59.7887388856" lon="10.274374998">
		<tag k="name" v="Nordre Stokke" />
		<tag k="place" v="farm" />
		<tag k="ssr:stedsnr" v="931714" />
	</node>
	<node id="-189172" lat="59.781774416" lon="10.2032480135">
		<tag k="name" v="Stein" />
		<tag k="place" v="farm" />
		<tag k="ssr:stedsnr" v="931676" />
	</node>
	<node id="-189171" lat="59.7431804844" lon="10.3101014577">
		<tag k="fixme" v="consider place=hamlet" />
		<tag k="name" v="Kovestad" />
		<tag k="place" v="farm" />
		<tag k="ssr:stedsnr" v="931649" />
	</node>
	<node id="-189169" lat="59.8119027807" lon="10.2686638919">
		<tag k="amenity" v="nursing_home" />
		<tag k="name" v="Liertun" />
		<tag k="ssr:stedsnr" v="932052" />
	</node>
	<node id="-189163" lat="59.9302750041" lon="10.2827666726">
		<tag k="alt_name" v="Nedre Skustad" />
		<tag k="name" v="Nerskustad" />
		<tag k="place" v="farm" />
		<tag k="ssr:stedsnr" v="914427" />
	</node>
	<node id="-189162" lat="59.9246888853" lon="10.2660861185">
		<tag k="name" v="Skustadenga" />
		<tag k="place" v="farm" />
		<tag k="ssr:stedsnr" v="914410" />
	</node>
	<node id="-189161" lat="59.9448472264" lon="10.2874552829">
		<tag k="fixme" v="consider place=hamlet" />
		<tag k="name" v="Brevik" />
		<tag k="place" v="farm" />
		<tag k="ssr:stedsnr" v="914378" />
	</node>
	<node id="-189160" lat="59.8757333364" lon="10.3124750014">
		<tag k="name" v="Askenbergsetra" />
		<tag k="place" v="locality" />
		<tag k="ssr:stedsnr" v="914340" />
	</node>
	<node id="-189159" lat="59.8531475135" lon="10.2510159982">
		<tag k="fixme" v="consider place=hamlet" />
		<tag k="name" v="Åmot" />
		<tag k="place" v="farm" />
		<tag k="ssr:stedsnr" v="914312" />
	</node>
	<node id="-189157" lat="59.8411638861" lon="10.2186277692">
		<tag k="name" v="Olstad" />
		<tag k="place" v="farm" />
		<tag k="ssr:stedsnr" v="914303" />
	</node>
	<node id="-189156" lat="59.8349027754" lon="10.2772666753">
		<tag k="name" v="Fjell" />
		<tag k="place" v="farm" />
		<tag k="ssr:stedsnr" v="914302" />
	</node>
	<node id="-189155" lat="59.8396801101" lon="10.2578714817">
		<tag k="alt_name" v="Øvre nordre Sørsdal" />
		<tag k="name" v="Sørsdal" />
		<tag k="place" v="hamlet" />
		<tag k="ssr:stedsnr" v="914299" />
	</node>
	<node id="-189154" lat="59.8335250042" lon="10.3291388909">
		<tag k="name" v="Nedre Bø" />
		<tag k="place" v="farm" />
		<tag k="ssr:stedsnr" v="914293" />
	</node>
	<node id="-189152" lat="59.8679500034" lon="10.2432305535">
		<tag k="name" v="Linløkka" />
		<tag k="place" v="farm" />
		<tag k="ssr:stedsnr" v="914284" />
	</node>
	<node id="-189150" lat="59.8015305527" lon="10.2174611068">
		<tag k="name" v="Jordbru" />
		<tag k="place" v="farm" />
		<tag k="ssr:stedsnr" v="914265" />
	</node>
	<node id="-189149" lat="59.8119444416" lon="10.3142833332">
		<tag k="name" v="Kjenner" />
		<tag k="place" v="farm" />
		<tag k="ssr:stedsnr" v="914251" />
	</node>
	<node id="-189148" lat="59.8104250036" lon="10.274955552">
		<tag k="name" v="Høgda" />
		<tag k="place" v="farm" />
		<tag k="ssr:stedsnr" v="914249" />
	</node>
	<node id="-189147" lat="59.8175817489" lon="10.3070487481">
		<tag k="alt_name" v="Vestre Grøstad" />
		<tag k="name" v="Grøstad" />
		<tag k="place" v="hamlet" />
		<tag k="ssr:stedsnr" v="914232" />
	</node>
	<node id="-189146" lat="59.8280527813" lon="10.2080555624">
		<tag k="name" v="Åserud" />
		<tag k="place" v="farm" />
		<tag k="ssr:stedsnr" v="914200" />
	</node>
	<node id="-189145" lat="59.8337434656" lon="10.2121853397">
		<tag k="name" v="Øksne" />
		<tag k="place" v="hamlet" />
		<tag k="ssr:stedsnr" v="914194" />
	</node>
	<node id="-189144" lat="59.7708666704" lon="10.2163277863">
		<tag k="alt_name" v="Dambråten" />
		<tag k="name" v="Dambråtan" />
		<tag k="place" v="farm" />
		<tag k="ssr:stedsnr" v="914188" />
	</node>
	<node id="-189143" lat="59.7763279264" lon="10.2902829572">
		<tag k="name" v="Reistad" />
		<tag k="place" v="village" />
		<tag k="ssr:stedsnr" v="914174" />
	</node>
	<node id="-189141" lat="59.775388892" lon="10.2381138935">
		<tag k="name" v="Grette" />
		<tag k="place" v="farm" />
		<tag k="ssr:stedsnr" v="914161" />
	</node>
	<node id="-189140" lat="59.7896061206" lon="10.2061033812">
		<tag k="fixme" v="consider place=hamlet" />
		<tag k="name" v="Rød" />
		<tag k="place" v="farm" />
		<tag k="ssr:stedsnr" v="914151" />
	</node>
	<node id="-189138" lat="59.7942638882" lon="10.2776055529">
		<tag k="name" v="Bråtan" />
		<tag k="place" v="hamlet" />
		<tag k="ssr:stedsnr" v="914131" />
	</node>
	<node id="-189137" lat="59.7589527814" lon="10.2309250044">
		<tag k="name" v="Risenga" />
		<tag k="place" v="farm" />
		<tag k="ssr:stedsnr" v="914081" />
	</node>
	<node id="-189136" lat="59.7468722236" lon="10.3127833316">
		<tag k="name" v="Tronerud" />
		<tag k="place" v="farm" />
		<tag k="ssr:stedsnr" v="913339" />
	</node>
	<node id="-189135" lat="59.8327222225" lon="10.1809388923">
		<tag k="name" v="Sørsetra" />
		<tag k="place" v="farm" />
		<tag k="ssr:stedsnr" v="914198" />
	</node>
	<node id="-189134" lat="59.8735515676" lon="10.293089742">
		<tag k="alt_name" v="Kittelsrud" />
		<tag k="fixme" v="consider place=hamlet" />
		<tag k="name" v="Kittilsrud" />
		<tag k="place" v="farm" />
		<tag k="ssr:stedsnr" v="904827" />
	</node>
	<node id="-189133" lat="59.8112000037" lon="10.305541671">
		<tag k="building" v="commercial" />
		<tag k="name" v="Liertoppen kjøpesenter" />
		<tag k="ssr:stedsnr" v="877857" />
	</node>
	<node id="-189124" lat="59.8753888868" lon="10.2972777806">
		<tag k="fixme" v="multiple name tags, choose one and add the other to alt_name" />
		<tag k="name" v="Asdøldalen;Kittilsrud" />
		<tag k="place" v="farm" />
		<tag k="ssr:stedsnr" v="871952" />
	</node>
	<node id="-189122" lat="59.8885666706" lon="10.3108000086">
		<tag k="name" v="Sjåhit" />
		<tag k="place" v="isolated_dwelling" />
		<tag k="ssr:stedsnr" v="871870" />
	</node>
	<node id="-189120" lat="59.7894000037" lon="10.1979916698">
		<tag k="name" v="Plassløkka" />
		<tag k="place" v="locality" />
		<tag k="ssr:stedsnr" v="871679" />
	</node>
	<node id="-189118" lat="59.8072194465" lon="10.1956722247">
		<tag k="name" v="Søndre Ask" />
		<tag k="old_name" v="Aasen" />
		<tag k="place" v="farm" />
		<tag k="ssr:stedsnr" v="871673" />
	</node>
	<node id="-189112" lat="59.7716111081" lon="10.2908277839">
		<tag k="alt_name" v="Sørum" />
		<tag k="name" v="Østre Sørum" />
		<tag k="place" v="locality" />
		<tag k="ssr:stedsnr" v="871564" />
	</node>
	<node id="-189103" lat="59.846708334" lon="10.1956250051">
		<tag k="name" v="Nedre Kokopp" />
		<tag k="place" v="farm" />
		<tag k="ssr:stedsnr" v="871400" />
	</node>
	<node id="-189101" lat="59.8303222227" lon="10.2285444479">
		<tag k="name" v="Søndre Meren" />
		<tag k="old_name" v="Søndre Mære" />
		<tag k="place" v="farm" />
		<tag k="ssr:stedsnr" v="871374" />
	</node>
	<node id="-189100" lat="59.8485388882" lon="10.2065444499">
		<tag k="alt_name" v="Sørbråten" />
		<tag k="loc_name" v="Sørbråtan" />
		<tag k="name" v="Søbråtan" />
		<tag k="place" v="farm" />
		<tag k="ssr:stedsnr" v="871370" />
	</node>
	<node id="-189099" lat="59.8137666686" lon="10.21574445">
		<tag k="name" v="Øvre Egge" />
		<tag k="place" v="farm" />
		<tag k="ssr:stedsnr" v="871365" />
	</node>
	<node id="-189095" lat="59.8519638867" lon="10.2081305609">
		<tag k="name" v="Kokstad" />
		<tag k="place" v="isolated_dwelling" />
		<tag k="ssr:stedsnr" v="871109" />
	</node>
	<node id="-189094" lat="59.8520055592" lon="10.2055972298">
		<tag k="name" v="Murerstua" />
		<tag k="place" v="isolated_dwelling" />
		<tag k="ssr:stedsnr" v="871110" />
	</node>
	<node id="-189093" lat="59.8221055536" lon="10.3470305596">
		<tag k="name" v="Nedre Stabekk" />
		<tag k="place" v="farm" />
		<tag k="ssr:stedsnr" v="871076" />
	</node>
	<node id="-189092" lat="59.8195444414" lon="10.3266166668">
		<tag k="building" v="industrial" />
		<tag k="industrial" v="factory" />
		<tag k="name" v="Tangen" />
		<tag k="ssr:stedsnr" v="871071" />
	</node>
	<node id="-189091" lat="59.8216749986" lon="10.3244916734">
		<tag k="alt_name" v="Onstad" />
		<tag k="name" v="Ovenstad" />
		<tag k="place" v="farm" />
		<tag k="ssr:stedsnr" v="871069" />
	</node>
	<node id="-189089" lat="59.8186222182" lon="10.3465694412">
		<tag k="name" v="Nedre Stabekk" />
		<tag k="place" v="farm" />
		<tag k="ssr:stedsnr" v="871064" />
	</node>
	<node id="-189088" lat="59.8188583331" lon="10.3215444454">
		<tag k="name" v="Gravdal" />
		<tag k="place" v="farm" />
		<tag k="ssr:stedsnr" v="871063" />
	</node>
	<node id="-189087" lat="59.8172583367" lon="10.2134444431">
		<tag k="name" v="Østre Grøstad" />
		<tag k="place" v="farm" />
		<tag k="ssr:stedsnr" v="871036" />
	</node>
	<node id="-189086" lat="59.8016027773" lon="10.2132916752">
		<tag k="name" v="Langbråten" />
		<tag k="place" v="farm" />
		<tag k="ssr:stedsnr" v="870746" />
	</node>
	<node id="-189085" lat="59.7845666659" lon="10.2065361072">
		<tag k="name" v="Gåserud" />
		<tag k="place" v="farm" />
		<tag k="ssr:stedsnr" v="870735" />
	</node>
	<node id="-189083" lat="59.807822224" lon="10.1481138849">
		<tag k="historic" v="shieling" />
		<tag k="name" v="Setervang" />
		<tag k="place" v="locality" />
		<tag k="ssr:stedsnr" v="870697" />
	</node>
	<node id="-189082" lat="59.8091222252" lon="10.3245111186">
		<tag k="name" v="Skogli" />
		<tag k="place" v="farm" />
		<tag k="ssr:stedsnr" v="870574" />
	</node>
	<node id="-189081" lat="59.7781972231" lon="10.2333916734">
		<tag k="name" v="Solbakken" />
		<tag k="place" v="isolated_dwelling" />
		<tag k="ssr:stedsnr" v="870369" />
	</node>
	<node id="-189067" lat="59.875949417" lon="10.2815146343">
		<tag k="fixme" v="consider place=hamlet" />
		<tag k="name" v="Kopperud" />
		<tag k="place" v="farm" />
		<tag k="ssr:stedsnr" v="854316" />
	</node>
	<node id="-189066" lat="59.8914943835" lon="10.2826870432">
		<tag k="fixme" v="consider place=hamlet" />
		<tag k="name" v="Valstad" />
		<tag k="place" v="farm" />
		<tag k="ssr:stedsnr" v="854291" />
	</node>
	<node id="-189065" lat="59.8313944452" lon="10.2912388888">
		<tag k="name" v="Snekkerstua" />
		<tag k="place" v="farm" />
		<tag k="ssr:stedsnr" v="854178" />
	</node>
	<node id="-189064" lat="59.8277833377" lon="10.217261106">
		<tag k="name" v="Elvestad" />
		<tag k="place" v="farm" />
		<tag k="ssr:stedsnr" v="854176" />
	</node>
	<node id="-189063" lat="59.7742527821" lon="10.2995611121">
		<tag k="name" v="Åsen" />
		<tag k="place" v="isolated_dwelling" />
		<tag k="ssr:stedsnr" v="854164" />
	</node>
	<node id="-189062" lat="59.7734166677" lon="10.2666944395">
		<tag k="name" v="Vinbekk" />
		<tag k="place" v="farm" />
		<tag k="ssr:stedsnr" v="854154" />
	</node>
	<node id="-189061" lat="59.7954682637" lon="10.2371975791">
		<tag k="alt_name" v="Søndre Renskaug" />
		<tag k="name" v="Søndre Renskog" />
		<tag k="place" v="farm" />
		<tag k="ssr:stedsnr" v="854112" />
	</node>
	<node id="-189058" lat="59.8513416686" lon="10.1418611056">
		<tag k="name" v="Haskollsetra" />
		<tag k="place" v="locality" />
		<tag k="ssr:stedsnr" v="853229" />
	</node>
	<node id="-189055" lat="59.8147698188" lon="10.2630265697">
		<tag k="fixme" v="consider place=hamlet" />
		<tag k="name" v="Hallingstad" />
		<tag k="place" v="farm" />
		<tag k="ssr:stedsnr" v="853198" />
	</node>
	<node id="-189054" lat="59.81335556" lon="10.2893861125">
		<tag k="name" v="Griserud" />
		<tag k="place" v="farm" />
		<tag k="ssr:stedsnr" v="853199" />
	</node>
	<node id="-189053" lat="59.8217055558" lon="10.2288666724">
		<tag k="alt_name" v="Elverhøi" />
		<tag k="name" v="Elvehøy" />
		<tag k="place" v="farm" />
		<tag k="ssr:stedsnr" v="853181" />
	</node>
	<node id="-189052" lat="59.8241499963" lon="10.2226111043">
		<tag k="alt_name" v="Utenga" />
		<tag k="name" v="Øvre Egge" />
		<tag k="place" v="farm" />
		<tag k="ssr:stedsnr" v="853175" />
	</node>
	<node id="-189051" lat="59.7621888858" lon="10.277647226">
		<tag k="name" v="Øgården" />
		<tag k="place" v="farm" />
		<tag k="ssr:stedsnr" v="853055" />
	</node>
	<node id="-189050" lat="59.7547277782" lon="10.2201722271">
		<tag k="name" v="Fagerhøy" />
		<tag k="place" v="farm" />
		<tag k="ssr:stedsnr" v="848790" />
	</node>
	<node id="-189049" lat="59.75591389" lon="10.2852027744">
		<tag k="name" v="Tuverud" />
		<tag k="place" v="locality" />
		<tag k="ssr:stedsnr" v="844945" />
	</node>
	<node id="-189045" lat="59.7557916628" lon="10.2332055642">
		<tag k="alt_name" v="Stoppen" />
		<tag k="name" v="Nordre Stoppen" />
		<tag k="place" v="farm" />
		<tag k="ssr:stedsnr" v="829935" />
	</node>
	<node id="-189044" lat="59.8096194443" lon="10.3111027809">
		<tag k="name" v="Kjenner" />
		<tag k="place" v="farm" />
		<tag k="ssr:stedsnr" v="829165" />
	</node>
	<node id="-189037" lat="59.9481972235" lon="10.3493277802">
		<tag k="name" v="Dovrehytta" />
		<tag k="place" v="isolated_dwelling" />
		<tag k="ssr:stedsnr" v="811576" />
	</node>
	<node id="-189032" lat="59.7610361093" lon="10.2412583361">
		<tag k="loc_name" v="Kjellstadhagan" />
		<tag k="name" v="Kjellstadhagen" />
		<tag k="place" v="farm" />
		<tag k="ssr:stedsnr" v="810899" />
	</node>
	<node id="-189031" lat="59.8650111116" lon="10.3140888887">
		<tag k="name" v="Klunken" />
		<tag k="place" v="isolated_dwelling" />
		<tag k="ssr:stedsnr" v="810900" />
	</node>
	<node id="-189028" lat="59.8104999962" lon="10.2608277693">
		<tag k="name" v="Tranby" />
		<tag k="place" v="village" />
		<tag k="ssr:stedsnr" v="810684" />
	</node>
	<node id="-189026" lat="59.7784761326" lon="10.2848106146">
		<tag k="fixme" v="consider place=hamlet" />
		<tag k="name" v="Store Reistad" />
		<tag k="place" v="farm" />
		<tag k="ssr:stedsnr" v="810596" />
	</node>
	<node id="-189024" lat="59.9002888886" lon="10.3119472262">
		<tag k="name" v="Tangen" />
		<tag k="place" v="isolated_dwelling" />
		<tag k="ssr:stedsnr" v="810545" />
	</node>
	<node id="-189022" lat="59.8986305548" lon="10.2575333366">
		<tag k="name" v="Rydningen" />
		<tag k="place" v="isolated_dwelling" />
		<tag k="ssr:stedsnr" v="810532" />
	</node>
	<node id="-189019" lat="59.9318416667" lon="10.2687444374">
		<tag k="name" v="Nordset" />
		<tag k="place" v="farm" />
		<tag k="ssr:stedsnr" v="810507" />
	</node>
	<node id="-189017" lat="59.9283250029" lon="10.2997361195">
		<tag k="name" v="Drag" />
		<tag k="place" v="farm" />
		<tag k="ssr:stedsnr" v="810494" />
	</node>
	<node id="-189016" lat="59.8198888922" lon="10.1321027833">
		<tag k="name" v="Garsjøbråtan" />
		<tag k="place" v="isolated_dwelling" />
		<tag k="ssr:stedsnr" v="810464" />
	</node>
	<node id="-189014" lat="59.8119000024" lon="10.2110333373">
		<tag k="name" v="Ytre Justad" />
		<tag k="place" v="farm" />
		<tag k="ssr:stedsnr" v="810381" />
	</node>
	<node id="-189013" lat="59.815561115" lon="10.1968083406">
		<tag k="name" v="Solspillet" />
		<tag k="place" v="farm" />
		<tag k="ssr:stedsnr" v="810375" />
	</node>
	<node id="-189010" lat="59.8543888858" lon="10.1898972196">
		<tag k="name" v="Lund" />
		<tag k="place" v="locality" />
		<tag k="ssr:stedsnr" v="810248" />
	</node>
	<node id="-189009" lat="59.8668472252" lon="10.2386416602">
		<tag k="name" v="Brurberg" />
		<tag k="place" v="farm" />
		<tag k="ssr:stedsnr" v="810244" />
	</node>
	<node id="-189008" lat="59.8555249974" lon="10.2302222223">
		<tag k="name" v="Solhaug" />
		<tag k="place" v="isolated_dwelling" />
		<tag k="ssr:stedsnr" v="810164" />
	</node>
	<node id="-189006" lat="59.8622749974" lon="10.2178249919">
		<tag k="alt_name" v="Oddevall" />
		<tag k="amenity" v="school" />
		<tag k="name" v="Oddevall skole" />
		<tag k="old_name" v="Oddevald skole" />
		<tag k="ssr:stedsnr" v="810160" />
	</node>
	<node id="-189005" lat="59.8426944456" lon="10.2642138922">
		<tag k="name" v="Storenga" />
		<tag k="place" v="farm" />
		<tag k="ssr:stedsnr" v="810141" />
	</node>
	<node id="-189002" lat="59.8216916686" lon="10.2727027803">
		<tag k="name" v="Søndre Hennum" />
		<tag k="place" v="farm" />
		<tag k="ssr:stedsnr" v="810069" />
	</node>
	<node id="-189001" lat="59.8255111141" lon="10.2635055491">
		<tag k="name" v="Nedre Hennum" />
		<tag k="place" v="farm" />
		<tag k="ssr:stedsnr" v="810066" />
	</node>
	<node id="-189000" lat="59.8150138897" lon="10.2829500066">
		<tag k="building" v="industrial" />
		<tag k="industrial" v="factory" />
		<tag k="name" v="Kværner Eureka" />
		<tag k="ssr:stedsnr" v="810057" />
	</node>
	<node id="-188999" lat="59.8216888871" lon="10.2793138825">
		<tag k="amenity" v="kindergarten" />
		<tag k="name" v="Hennumhagan barnehage" />
		<tag k="ssr:stedsnr" v="810027" />
	</node>
	<node id="-188998" lat="59.8072083376" lon="10.2451888963">
		<tag k="name" v="Hellumbråtan" />
		<tag k="place" v="farm" />
		<tag k="ssr:stedsnr" v="809753" />
	</node>
	<node id="-188997" lat="59.787572222" lon="10.2592722199">
		<tag k="name" v="Haslum" />
		<tag k="place" v="farm" />
		<tag k="ssr:stedsnr" v="809746" />
	</node>
	<node id="-188996" lat="59.767552774" lon="10.2584638886">
		<tag k="name" v="Vestre Linnes" />
		<tag k="place" v="farm" />
		<tag k="ssr:stedsnr" v="809736" />
	</node>
	<node id="-188992" lat="59.9368470317" lon="10.2661260906">
		<tag k="name" v="Røyne" />
		<tag k="place" v="hamlet" />
		<tag k="ssr:stedsnr" v="793398" />
	</node>
	<node id="-188991" lat="59.879954841" lon="10.2506863869">
		<tag k="fixme" v="consider place=hamlet" />
		<tag k="name" v="Hvam" />
		<tag k="place" v="farm" />
		<tag k="ssr:stedsnr" v="793373" />
	</node>
	<node id="-188990" lat="59.9082556038" lon="10.2845952009">
		<tag k="fixme" v="consider place=hamlet" />
		<tag k="name" v="Hørte" />
		<tag k="place" v="farm" />
		<tag k="ssr:stedsnr" v="793352" />
	</node>
	<node id="-188989" lat="59.847844444" lon="10.2772861159">
		<tag k="alt_name" v="Opsalåsen" />
		<tag k="historic" v="shieling" />
		<tag k="name" v="Oppsalåsen" />
		<tag k="place" v="locality" />
		<tag k="ssr:stedsnr" v="793321" />
	</node>
	<node id="-188988" lat="59.8370055512" lon="10.2397888932">
		<tag k="name" v="Kortnes" />
		<tag k="place" v="farm" />
		<tag k="ssr:stedsnr" v="793301" />
	</node>
	<node id="-188987" lat="59.829068911" lon="10.3381519488">
		<tag k="fixme" v="consider place=hamlet" />
		<tag k="name" v="Rype" />
		<tag k="place" v="farm" />
		<tag k="ssr:stedsnr" v="793213" />
	</node>
	<node id="-188986" lat="59.8195805515" lon="10.1273166736">
		<tag k="fixme" v="consider tourism=alpine_hut or tourism=chalet" />
		<tag k="name" v="Eiksetra" />
		<tag k="ssr:stedsnr" v="793214" />
		<tag k="tourism" v="wilderness_hut" />
	</node>
	<node id="-188985" lat="59.8346517763" lon="10.323525324">
		<tag k="fixme" v="consider place=hamlet" />
		<tag k="name" v="Ekeberg" />
		<tag k="place" v="farm" />
		<tag k="ssr:stedsnr" v="793212" />
	</node>
	<node id="-188984" lat="59.827659632" lon="10.2551657288">
		<tag k="alt_name" v="Nordal" />
		<tag k="fixme" v="consider place=hamlet" />
		<tag k="name" v="Norddal" />
		<tag k="place" v="farm" />
		<tag k="ssr:stedsnr" v="793203" />
	</node>
	<node id="-188983" lat="59.8350389102" lon="10.1926803604">
		<tag k="name" v="Dambekk" />
		<tag k="place" v="farm" />
		<tag k="ssr:stedsnr" v="793201" />
	</node>
	<node id="-188981" lat="59.7861086285" lon="10.2180858096">
		<tag k="fixme" v="consider place=hamlet" />
		<tag k="name" v="Haugerud" />
		<tag k="place" v="farm" />
		<tag k="ssr:stedsnr" v="793150" />
	</node>
	<node id="-188980" lat="59.7869166658" lon="10.2768194396">
		<tag k="alt_name" v="Nordre Brastad" />
		<tag k="name" v="Brastad" />
		<tag k="place" v="farm" />
		<tag k="ssr:stedsnr" v="793146" />
	</node>
	<node id="-188976" lat="59.9602250038" lon="10.2747638849">
		<tag k="alt_name" v="Løvlia" />
		<tag k="name" v="Lauvlia" />
		<tag k="place" v="farm" />
		<tag k="ssr:stedsnr" v="792378" />
	</node>
	<node id="-188975" lat="59.9048222218" lon="10.2731666603">
		<tag k="name" v="Enga" />
		<tag k="place" v="isolated_dwelling" />
		<tag k="ssr:stedsnr" v="792322" />
	</node>
	<node id="-188972" lat="59.8128828084" lon="10.2496602126">
		<tag k="fixme" v="consider place=hamlet" />
		<tag k="name" v="Hårberg" />
		<tag k="place" v="farm" />
		<tag k="ssr:stedsnr" v="792219" />
	</node>
	<node id="-188971" lat="59.8187789309" lon="10.314700406">
		<tag k="fixme" v="consider place=hamlet" />
		<tag k="name" v="Gravdal" />
		<tag k="place" v="farm" />
		<tag k="ssr:stedsnr" v="792211" />
	</node>
	<node id="-188969" lat="59.8225000011" lon="10.2088722189">
		<tag k="name" v="Myra" />
		<tag k="place" v="farm" />
		<tag k="ssr:stedsnr" v="792202" />
	</node>
	<node id="-188968" lat="59.7535012774" lon="10.2866243506">
		<tag k="alt_name" v="Søndre Linnes" />
		<tag k="name" v="Linnes" />
		<tag k="place" v="hamlet" />
		<tag k="ssr:stedsnr" v="792100" />
	</node>
	<node id="-188967" lat="59.7608749995" lon="10.2557805636">
		<tag k="name" v="Haga" />
		<tag k="place" v="farm" />
		<tag k="ssr:stedsnr" v="792079" />
	</node>
	<node id="-188965" lat="59.8164638932" lon="10.2148694444">
		<tag k="alt_name" v="Egge mellom" />
		<tag k="name" v="Mellom-Egge" />
		<tag k="place" v="farm" />
		<tag k="ssr:stedsnr" v="787439" />
	</node>
	<node id="-188964" lat="59.7387805593" lon="10.2885916669">
		<tag k="alt_name" v="Gullaug søndre" />
		<tag k="name" v="Søndre Gullaug" />
		<tag k="place" v="farm" />
		<tag k="ssr:stedsnr" v="783257" />
	</node>
	<node id="-188963" lat="59.9294665683" lon="10.2666060216">
		<tag k="name" v="Skustad" />
		<tag k="place" v="hamlet" />
		<tag k="ssr:stedsnr" v="793469" />
	</node>
	<node id="-188962" lat="59.9410882602" lon="10.2971735301">
		<tag k="fixme" v="consider place=hamlet" />
		<tag k="name" v="Holmen" />
		<tag k="place" v="farm" />
		<tag k="ssr:stedsnr" v="793453" />
	</node>
	<node id="-188961" lat="59.9157111129" lon="10.2840861175">
		<tag k="alt_name" v="Nordre Hørtebråtan" />
		<tag k="name" v="Svingen" />
		<tag k="place" v="farm" />
		<tag k="ssr:stedsnr" v="793438" />
	</node>
	<node id="-188960" lat="59.9254834875" lon="10.1787891316">
		<tag k="alt_name" v="Rustan;Rudstaden" />
		<tag k="fixme" v="consider place=hamlet" />
		<tag k="name" v="Rustaden" />
		<tag k="place" v="farm" />
		<tag k="ssr:stedsnr" v="793436" />
	</node>
	<node id="-188958" lat="59.9173261009" lon="10.2635266173">
		<tag k="fixme" v="consider place=hamlet" />
		<tag k="name" v="Svarteberg" />
		<tag k="place" v="farm" />
		<tag k="ssr:stedsnr" v="793435" />
	</node>
	<node id="-188957" lat="59.919595208" lon="10.3399714002">
		<tag k="fixme" v="consider place=hamlet" />
		<tag k="name" v="Toverud" />
		<tag k="place" v="farm" />
		<tag k="ssr:stedsnr" v="793431" />
	</node>
	<node id="-188946" lat="59.7491722186" lon="10.3176000018">
		<tag k="name" v="Askerud" />
		<tag k="place" v="farm" />
		<tag k="ssr:stedsnr" v="750836" />
	</node>
	<node id="-188941" lat="59.88724167" lon="10.3075916639">
		<tag k="name" v="Lappen" />
		<tag k="place" v="farm" />
		<tag k="ssr:stedsnr" v="749973" />
	</node>
	<node id="-188938" lat="59.8653722201" lon="10.2986388945">
		<tag k="name" v="Tyrigløtt" />
		<tag k="place" v="isolated_dwelling" />
		<tag k="ssr:stedsnr" v="749936" />
	</node>
	<node id="-188936" lat="59.7646353104" lon="10.2454834647">
		<tag k="fixme" v="consider place=hamlet" />
		<tag k="name" v="Kjellstad" />
		<tag k="place" v="farm" />
		<tag k="ssr:stedsnr" v="749924" />
	</node>
	<node id="-188934" lat="59.753130552" lon="10.2270861152">
		<tag k="leisure" v="park" />
		<tag k="name" v="Parken" />
		<tag k="ssr:stedsnr" v="749896" />
	</node>
	<node id="-188933" lat="59.8677861107" lon="10.2255444484">
		<tag k="name" v="Øvre Svere" />
		<tag k="place" v="farm" />
		<tag k="ssr:stedsnr" v="749840" />
	</node>
	<node id="-188931" lat="59.7903749964" lon="10.2691361147">
		<tag k="name" v="Fosshaugen" />
		<tag k="place" v="isolated_dwelling" />
		<tag k="ssr:stedsnr" v="749702" />
	</node>
	<node id="-188929" lat="59.8088416708" lon="10.3263000039">
		<tag k="name" v="Fjellheim" />
		<tag k="place" v="isolated_dwelling" />
		<tag k="ssr:stedsnr" v="749577" />
	</node>
	<node id="-188928" lat="59.8051416682" lon="10.3534972151">
		<tag k="name" v="Ulvegløtt" />
		<tag k="place" v="isolated_dwelling" />
		<tag k="ssr:stedsnr" v="749575" />
	</node>
	<node id="-188926" lat="59.926569442" lon="10.2729638899">
		<tag k="name" v="Søndre Skustad" />
		<tag k="place" v="farm" />
		<tag k="ssr:stedsnr" v="749553" />
	</node>
	<node id="-188921" lat="59.8116166623" lon="10.2189833348">
		<tag k="amenity" v="nursing_home" />
		<tag k="name" v="Frogner sykehjem" />
		<tag k="ssr:stedsnr" v="749430" />
	</node>
	<node id="-188920" lat="59.8426944414" lon="10.2224916753">
		<tag k="name" v="Vestgård" />
		<tag k="place" v="farm" />
		<tag k="ssr:stedsnr" v="749427" />
	</node>
	<node id="-188916" lat="59.875277777" lon="10.2598305576">
		<tag k="name" v="Bråten" />
		<tag k="place" v="isolated_dwelling" />
		<tag k="ssr:stedsnr" v="749171" />
	</node>
	<node id="-188915" lat="59.8729333357" lon="10.2311611073">
		<tag k="name" v="Bergli" />
		<tag k="place" v="isolated_dwelling" />
		<tag k="ssr:stedsnr" v="749138" />
	</node>
	<node id="-188914" lat="59.8616166627" lon="10.2295444359">
		<tag k="name" v="Østby" />
		<tag k="place" v="isolated_dwelling" />
		<tag k="ssr:stedsnr" v="749135" />
	</node>
	<node id="-188913" lat="59.8151472221" lon="10.2108388955">
		<tag k="building" v="industrial" />
		<tag k="industrial" v="factory" />
		<tag k="name" v="Egge meieri" />
		<tag k="ssr:stedsnr" v="749111" />
	</node>
	<node id="-188912" lat="59.8311194403" lon="10.2762666583">
		<tag k="name" v="Nordenga" />
		<tag k="place" v="farm" />
		<tag k="ssr:stedsnr" v="749040" />
	</node>
	<node id="-188909" lat="59.8210638933" lon="10.280536112">
		<tag k="amenity" v="school" />
		<tag k="name" v="Hennummarka skole" />
		<tag k="ssr:stedsnr" v="749011" />
	</node>
	<node id="-188907" lat="59.8013972229" lon="10.2373805502">
		<tag k="name" v="Kikut" />
		<tag k="place" v="farm" />
		<tag k="ssr:stedsnr" v="748752" />
	</node>
	<node id="-188906" lat="59.7675611076" lon="10.240808337">
		<tag k="name" v="Steinset" />
		<tag k="place" v="farm" />
		<tag k="ssr:stedsnr" v="748741" />
	</node>
	<node id="-188905" lat="59.7957472217" lon="10.1812305548">
		<tag k="name" v="Knutesetra" />
		<tag k="place" v="locality" />
		<tag k="ssr:stedsnr" v="748728" />
	</node>
	<node id="-188903" lat="59.7749749986" lon="10.212719447">
		<tag k="name" v="Hvalsdalen" />
		<tag k="place" v="isolated_dwelling" />
		<tag k="ssr:stedsnr" v="748352" />
	</node>
	<node id="-188900" lat="59.9041527784" lon="10.2623555531">
		<tag k="name" v="Fagerliåsen" />
		<tag k="place" v="quarter" />
		<tag k="ssr:stedsnr" v="748161" />
	</node>
	<node id="-188897" lat="59.7758138897" lon="10.2669472164">
		<tag k="name" v="Stokkeholmen" />
		<tag k="place" v="farm" />
		<tag k="ssr:stedsnr" v="749624" />
	</node>
	<node id="-188896" lat="59.7850166674" lon="10.2830777859">
		<tag k="name" v="Solstadhagan" />
		<tag k="place" v="locality" />
		<tag k="ssr:stedsnr" v="749605" />
	</node>
	<node id="-188894" lat="59.931297224" lon="10.3598722295">
		<tag k="name" v="Lindeberget" />
		<tag k="place" v="isolated_dwelling" />
		<tag k="ssr:stedsnr" v="732945" />
	</node>
	<node id="-188890" lat="59.932247218" lon="10.2851916616">
		<tag k="name" v="Langeland" />
		<tag k="place" v="farm" />
		<tag k="ssr:stedsnr" v="732455" />
	</node>
	<node id="-188889" lat="59.9268352407" lon="10.2991503975">
		<tag k="alt_name" v="Søndre Drag" />
		<tag k="name" v="Drag" />
		<tag k="place" v="hamlet" />
		<tag k="ssr:stedsnr" v="732451" />
	</node>
	<node id="-188884" lat="59.9430282821" lon="10.2773703473">
		<tag k="fixme" v="consider place=hamlet" />
		<tag k="name" v="Fuglerud" />
		<tag k="place" v="farm" />
		<tag k="ssr:stedsnr" v="732422" />
	</node>
	<node id="-188881" lat="59.8822055578" lon="10.2433333319">
		<tag k="fixme" v="consider place=hamlet" />
		<tag k="name" v="Tronstad" />
		<tag k="place" v="village" />
		<tag k="ssr:stedsnr" v="732367" />
	</node>
	<node id="-188879" lat="59.873707597" lon="10.2533634377">
		<tag k="fixme" v="consider place=hamlet" />
		<tag k="name" v="Guransrud" />
		<tag k="place" v="farm" />
		<tag k="ssr:stedsnr" v="732356" />
	</node>
	<node id="-188877" lat="59.9158666683" lon="10.3371055504">
		<tag k="alt_name" v="Ødegården" />
		<tag k="name" v="Øgarden" />
		<tag k="place" v="locality" />
		<tag k="ssr:stedsnr" v="732337" />
	</node>
	<node id="-188876" lat="59.8919777504" lon="10.3014638147">
		<tag k="alt_name" v="Midtre Enger" />
		<tag k="name" v="Enger" />
		<tag k="place" v="hamlet" />
		<tag k="ssr:stedsnr" v="732325" />
	</node>
	<node id="-188875" lat="59.8967747331" lon="10.2912248739">
		<tag k="fixme" v="consider place=hamlet" />
		<tag k="name" v="Svang" />
		<tag k="place" v="farm" />
		<tag k="ssr:stedsnr" v="732321" />
	</node>
	<node id="-188874" lat="59.8910444454" lon="10.2578138888">
		<tag k="alt_name" v="Østvoll Rinen" />
		<tag k="name" v="Østvoll" />
		<tag k="place" v="farm" />
		<tag k="ssr:stedsnr" v="732320" />
	</node>
	<node id="-188873" lat="59.8930241789" lon="10.2392020928">
		<tag k="alt_name" v="Vestre Solberg" />
		<tag k="name" v="Solberg" />
		<tag k="place" v="hamlet" />
		<tag k="ssr:stedsnr" v="732317" />
	</node>
	<node id="-188872" lat="59.8470083357" lon="10.2424666638">
		<tag k="name" v="Rønningen" />
		<tag k="place" v="farm" />
		<tag k="ssr:stedsnr" v="732314" />
	</node>
	<node id="-188870" lat="59.8369888871" lon="10.2136083291">
		<tag k="name" v="Treffen" />
		<tag k="place" v="farm" />
		<tag k="ssr:stedsnr" v="732300" />
	</node>
	<node id="-188869" lat="59.8365972238" lon="10.3294555537">
		<tag k="alt_name" v="Bø øvre" />
		<tag k="name" v="Øvre Bø" />
		<tag k="place" v="farm" />
		<tag k="ssr:stedsnr" v="732294" />
	</node>
	<node id="-188868" lat="59.8571916696" lon="10.1950611025">
		<tag k="name" v="Grønfoss" />
		<tag k="place" v="isolated_dwelling" />
		<tag k="ssr:stedsnr" v="732281" />
	</node>
	<node id="-188867" lat="59.8562843477" lon="10.2397979184">
		<tag k="alt_name" v="Øvre Mørk" />
		<tag k="fixme" v="consider place=hamlet" />
		<tag k="name" v="Mørk" />
		<tag k="place" v="farm" />
		<tag k="ssr:stedsnr" v="732274" />
	</node>
	<node id="-188866" lat="59.8532222222" lon="10.2013333394">
		<tag k="name" v="Nordbråtan" />
		<tag k="place" v="farm" />
		<tag k="ssr:stedsnr" v="732267" />
	</node>
	<node id="-188864" lat="59.8146249968" lon="10.2389694485">
		<tag k="name" v="Sand" />
		<tag k="place" v="farm" />
		<tag k="ssr:stedsnr" v="732236" />
	</node>
	<node id="-188863" lat="59.8273292785" lon="10.3211755957">
		<tag k="alt_name" v="Ovenstad" />
		<tag k="fixme" v="consider place=hamlet" />
		<tag k="name" v="Onstad" />
		<tag k="place" v="farm" />
		<tag k="ssr:stedsnr" v="732229" />
	</node>
	<node id="-188862" lat="59.780019441" lon="10.2680472194">
		<tag k="name" v="Enga" />
		<tag k="place" v="farm" />
		<tag k="ssr:stedsnr" v="732181" />
	</node>
	<node id="-188861" lat="59.7880805588" lon="10.1849194482">
		<tag k="loc_name" v="Eikbråtan" />
		<tag k="name" v="Purkebråten" />
		<tag k="place" v="farm" />
		<tag k="ssr:stedsnr" v="732148" />
	</node>
	<node id="-188859" lat="59.759405553" lon="10.2544305504">
		<tag k="name" v="Solli" />
		<tag k="place" v="farm" />
		<tag k="ssr:stedsnr" v="732089" />
	</node>
	<node id="-188858" lat="59.9623972204" lon="10.2797999978">
		<tag k="alt_name" v="Horn" />
		<tag k="name" v="Nordre Horn" />
		<tag k="place" v="farm" />
		<tag k="ssr:stedsnr" v="731440" />
	</node>
	<node id="-188857" lat="59.7363972242" lon="10.316441673">
		<tag k="name" v="Hval" />
		<tag k="place" v="farm" />
		<tag k="ssr:stedsnr" v="731317" />
	</node>
	<node id="-188856" lat="59.9049083339" lon="10.2659944358">
		<tag k="alt_name" v="Skogli" />
		<tag k="name" v="Myrabråten" />
		<tag k="place" v="farm" />
		<tag k="ssr:stedsnr" v="731286" />
	</node>
	<node id="-188853" lat="59.7275250011" lon="10.3023888923">
		<tag k="name" v="Engersand" />
		<tag k="place" v="isolated_dwelling" />
		<tag k="ssr:stedsnr" v="731210" />
	</node>
	<node id="-188852" lat="59.8188365693" lon="10.2137435871">
		<tag k="alt_name" v="Øvre Egge" />
		<tag k="name" v="Egge" />
		<tag k="place" v="hamlet" />
		<tag k="ssr:stedsnr" v="731163" />
	</node>
	<node id="-188850" lat="59.7683194456" lon="10.2248166723">
		<tag k="name" v="Haug" />
		<tag k="place" v="farm" />
		<tag k="ssr:stedsnr" v="731140" />
	</node>
	<node id="-188848" lat="59.7556624716" lon="10.2410562875">
		<tag k="name" v="Høvik" />
		<tag k="place" v="farm" />
		<tag k="ssr:stedsnr" v="725855" />
	</node>
	<node id="-188847" lat="59.7560388848" lon="10.2621750019">
		<tag k="name" v="Huseby" />
		<tag k="place" v="isolated_dwelling" />
		<tag k="ssr:stedsnr" v="725295" />
	</node>
	<node id="-188842" lat="59.892635743" lon="10.2284870548">
		<tag k="name" v="Nordhagen" />
		<tag k="place" v="locality" />
		<tag k="ssr:stedsnr" v="709657" />
	</node>
	<node id="-188841" lat="59.8486166654" lon="10.2688055583">
		<tag k="alt_name" v="Øvre Opsal" />
		<tag k="name" v="Øvre Oppsal" />
		<tag k="place" v="farm" />
		<tag k="ssr:stedsnr" v="709656" />
	</node>
	<node id="-188837" lat="59.9288611116" lon="10.3568888861">
		<tag k="name" v="Rolighet" />
		<tag k="place" v="isolated_dwelling" />
		<tag k="ssr:stedsnr" v="690603" />
	</node>
	<node id="-188836" lat="59.8950333352" lon="10.2931666661">
		<tag k="name" v="Østbråtan" />
		<tag k="place" v="farm" />
		<tag k="ssr:stedsnr" v="689989" />
	</node>
	<node id="-188835" lat="59.8556472186" lon="10.3246083397">
		<tag k="name" v="Heiahytta" />
		<tag k="place" v="isolated_dwelling" />
		<tag k="ssr:stedsnr" v="689965" />
	</node>
	<node id="-188833" lat="59.8802222216" lon="10.3064166687">
		<tag k="alt_name" v="Kornerudbråten" />
		<tag k="name" v="Kornerudbråtan" />
		<tag k="place" v="isolated_dwelling" />
		<tag k="ssr:stedsnr" v="689954" />
	</node>
	<node id="-188832" lat="59.8744555531" lon="10.2948944401">
		<tag k="name" v="Salerud" />
		<tag k="place" v="farm" />
		<tag k="ssr:stedsnr" v="689906" />
	</node>
	<node id="-188831" lat="59.7628694432" lon="10.2368555583">
		<tag k="leisure" v="pitch" />
		<tag k="name" v="Lier stadion" />
		<tag k="ssr:stedsnr" v="689900" />
	</node>
	<node id="-188830" lat="59.7615444445" lon="10.2574611131">
		<tag k="name" v="Huseby" />
		<tag k="place" v="farm" />
		<tag k="ssr:stedsnr" v="689870" />
	</node>
	<node id="-188828" lat="59.7342027808" lon="10.311850004">
		<tag k="name" v="Ytre Mørk" />
		<tag k="place" v="farm" />
		<tag k="ssr:stedsnr" v="689834" />
	</node>
	<node id="-188827" lat="59.8656972182" lon="10.2218083263">
		<tag k="amenity" v="nursing_home" />
		<tag k="name" v="Gifstad sykehjem" />
		<tag k="ssr:stedsnr" v="689785" />
	</node>
	<node id="-188825" lat="59.9447583372" lon="10.1873027832">
		<tag k="name" v="Dragshytta" />
		<tag k="place" v="isolated_dwelling" />
		<tag k="ssr:stedsnr" v="689646" />
	</node>
	<node id="-188824" lat="59.7785722207" lon="10.2048666668">
		<tag k="name" v="Stein" />
		<tag k="place" v="farm" />
		<tag k="ssr:stedsnr" v="689628" />
	</node>
	<node id="-188822" lat="59.7690583352" lon="10.2810277692">
		<tag k="name" v="Sommerrosletta" />
		<tag k="place" v="farm" />
		<tag k="ssr:stedsnr" v="689573" />
	</node>
	<node id="-188814" lat="59.83931389" lon="10.2575972161">
		<tag k="alt_name" v="Øvre Søre Sørsdal" />
		<tag k="name" v="Øvre Søndre Sørsdal" />
		<tag k="place" v="farm" />
		<tag k="ssr:stedsnr" v="689373" />
	</node>
	<node id="-188813" lat="59.8468805568" lon="10.2139416684">
		<tag k="name" v="Sjemmedal" />
		<tag k="place" v="farm" />
		<tag k="ssr:stedsnr" v="689369" />
	</node>
	<node id="-188811" lat="59.8618333356" lon="10.2273972183">
		<tag k="name" v="Fagerheim" />
		<tag k="place" v="isolated_dwelling" />
		<tag k="ssr:stedsnr" v="689137" />
	</node>
	<node id="-188810" lat="59.8173999963" lon="10.2186638889">
		<tag k="alt_name" v="Mellom Egge" />
		<tag k="name" v="Mellom-Egge" />
		<tag k="place" v="farm" />
		<tag k="ssr:stedsnr" v="689125" />
	</node>
	<node id="-188807" lat="59.8263722227" lon="10.3245166682">
		<tag k="name" v="Fredheim" />
		<tag k="place" v="isolated_dwelling" />
		<tag k="ssr:stedsnr" v="689097" />
	</node>
	<node id="-188806" lat="59.8231388931" lon="10.3466305582">
		<tag k="name" v="Solbekk" />
		<tag k="old_name" v="Solbakk" />
		<tag k="place" v="isolated_dwelling" />
		<tag k="ssr:stedsnr" v="689094" />
	</node>
	<node id="-188804" lat="59.8190722239" lon="10.2783166683">
		<tag k="alt_name" v="Hansebråten" />
		<tag k="name" v="Hansebråtan" />
		<tag k="place" v="isolated_dwelling" />
		<tag k="ssr:stedsnr" v="689060" />
	</node>
	<node id="-188803" lat="59.8151305525" lon="10.2698138954">
		<tag k="amenity" v="nursing_home" />
		<tag k="name" v="Hallingstadtunet" />
		<tag k="ssr:stedsnr" v="689055" />
	</node>
	<node id="-188800" lat="59.8081833367" lon="10.2469027733">
		<tag k="name" v="Hellum" />
		<tag k="place" v="farm" />
		<tag k="ssr:stedsnr" v="688747" />
	</node>
	<node id="-188799" lat="59.8063416688" lon="10.2382083419">
		<tag k="name" v="Hellumsand" />
		<tag k="place" v="farm" />
		<tag k="ssr:stedsnr" v="688746" />
	</node>
	<node id="-188798" lat="59.8000861132" lon="10.1729416644">
		<tag k="name" v="Skogly" />
		<tag k="place" v="isolated_dwelling" />
		<tag k="ssr:stedsnr" v="688713" />
	</node>
	<node id="-188794" lat="59.7701452568" lon="10.2567905784">
		<tag k="fixme" v="consider place=hamlet" />
		<tag k="name" v="Kors-Valle" />
		<tag k="place" v="farm" />
		<tag k="ssr:stedsnr" v="688378" />
	</node>
	<node id="-188790" lat="59.8896277773" lon="10.3065083384">
		<tag k="name" v="Bakkerud" />
		<tag k="place" v="farm" />
		<tag k="ssr:stedsnr" v="672331" />
	</node>
	<node id="-188788" lat="59.8978305574" lon="10.3064583285">
		<tag k="name" v="Skjæret" />
		<tag k="place" v="farm" />
		<tag k="ssr:stedsnr" v="672284" />
	</node>
	<node id="-188784" lat="59.9391638928" lon="10.2980527829">
		<tag k="name" v="Nedre Eik" />
		<tag k="place" v="farm" />
		<tag k="ssr:stedsnr" v="671413" />
	</node>
	<node id="-188781" lat="59.9398638878" lon="10.2838750023">
		<tag k="name" v="Skjeggerud" />
		<tag k="place" v="isolated_dwelling" />
		<tag k="ssr:stedsnr" v="671378" />
	</node>
	<node id="-188780" lat="59.9383638916" lon="10.2832333335">
		<tag k="name" v="Myrbråtan" />
		<tag k="place" v="farm" />
		<tag k="ssr:stedsnr" v="671375" />
	</node>
	<node id="-188778" lat="59.9065611153" lon="10.272966658">
		<tag k="alt_name" v="Stendike" />
		<tag k="name" v="Åsli" />
		<tag k="place" v="farm" />
		<tag k="ssr:stedsnr" v="671331" />
	</node>
	<node id="-188777" lat="59.903250002" lon="10.2575888859">
		<tag k="name" v="Flittig" />
		<tag k="place" v="isolated_dwelling" />
		<tag k="ssr:stedsnr" v="671328" />
	</node>
	<node id="-188775" lat="59.8473923637" lon="10.2669962544">
		<tag k="name" v="Oppsal" />
		<tag k="place" v="hamlet" />
		<tag k="ssr:stedsnr" v="671307" />
	</node>
	<node id="-188774" lat="59.8402000023" lon="10.3079083288">
		<tag k="name" v="Gulliksrud" />
		<tag k="place" v="farm" />
		<tag k="ssr:stedsnr" v="671290" />
	</node>
	<node id="-188771" lat="59.8688083295" lon="10.2182805622">
		<tag k="alt_name" v="Svarthavna" />
		<tag k="name" v="Svarthamna" />
		<tag k="place" v="isolated_dwelling" />
		<tag k="ssr:stedsnr" v="671277" />
	</node>
	<node id="-188769" lat="59.8277277779" lon="10.253169444">
		<tag k="alt_name" v="Ånnerud" />
		<tag k="name" v="Ånerud" />
		<tag k="place" v="farm" />
		<tag k="ssr:stedsnr" v="671197" />
	</node>
	<node id="-188768" lat="59.7698965653" lon="10.239908478">
		<tag k="alt_name" v="Østre Sandaker" />
		<tag k="name" v="Sandaker" />
		<tag k="place" v="hamlet" />
		<tag k="ssr:stedsnr" v="671171" />
	</node>
	<node id="-188765" lat="59.7987654807" lon="10.2065778665">
		<tag k="fixme" v="consider place=hamlet" />
		<tag k="name" v="Berfløtt" />
		<tag k="place" v="farm" />
		<tag k="ssr:stedsnr" v="671132" />
	</node>
	<node id="-188764" lat="59.7508888929" lon="10.2958305479">
		<tag k="name" v="Linneslia" />
		<tag k="place" v="quarter" />
		<tag k="ssr:stedsnr" v="671068" />
	</node>
	<node id="-188763" lat="59.8615777735" lon="10.1872111127">
		<tag k="name" v="Vestbråtan" />
		<tag k="place" v="farm" />
		<tag k="ssr:stedsnr" v="671267" />
	</node>
	<node id="-188761" lat="59.8017589108" lon="10.2669778179">
		<tag k="fixme" v="consider place=hamlet" />
		<tag k="name" v="Skjeggerud" />
		<tag k="place" v="farm" />
		<tag k="ssr:stedsnr" v="671248" />
	</node>
	<node id="-188759" lat="59.8198111137" lon="10.3309250024">
		<tag k="fixme" v="consider place=hamlet" />
		<tag k="name" v="Lierskogen" />
		<tag k="place" v="village" />
		<tag k="ssr:stedsnr" v="671211" />
	</node>
	<node id="-188753" lat="59.747575001" lon="10.2351083272">
		<tag k="name" v="Østre Nøste" />
		<tag k="place" v="isolated_dwelling" />
		<tag k="ssr:stedsnr" v="647924" />
	</node>
	<node id="-188745" lat="59.8683972193" lon="10.2960944394">
		<tag k="name" v="Kubbeløkka" />
		<tag k="place" v="isolated_dwelling" />
		<tag k="ssr:stedsnr" v="628896" />
	</node>
	<node id="-188743" lat="59.8697166659" lon="10.2163388848">
		<tag k="name" v="Bergan" />
		<tag k="place" v="isolated_dwelling" />
		<tag k="ssr:stedsnr" v="628782" />
	</node>
	<node id="-188741" lat="59.9659833353" lon="10.2434472134">
		<tag k="name" v="Christensenhytta" />
		<tag k="place" v="isolated_dwelling" />
		<tag k="ssr:stedsnr" v="628715" />
	</node>
	<node id="-188734" lat="59.7762833341" lon="10.3141249932">
		<tag k="name" v="Sørumvollen" />
		<tag k="place" v="locality" />
		<tag k="ssr:stedsnr" v="628586" />
	</node>
	<node id="-188732" lat="59.9044027767" lon="10.2689916727">
		<tag k="name" v="Hørte" />
		<tag k="place" v="farm" />
		<tag k="ssr:stedsnr" v="628548" />
	</node>
	<node id="-188731" lat="59.9054472241" lon="10.2669583258">
		<tag k="name" v="Poverudbyen" />
		<tag k="place" v="quarter" />
		<tag k="ssr:stedsnr" v="628546" />
	</node>
	<node id="-188730" lat="59.9485138931" lon="10.2931333336">
		<tag k="name" v="Tangen" />
		<tag k="place" v="isolated_dwelling" />
		<tag k="ssr:stedsnr" v="628504" />
	</node>
	<node id="-188729" lat="59.9414833317" lon="10.2851416747">
		<tag k="name" v="Nygård" />
		<tag k="place" v="isolated_dwelling" />
		<tag k="ssr:stedsnr" v="628502" />
	</node>
	<node id="-188727" lat="59.8211555579" lon="10.1117972254">
		<tag k="historic" v="shieling" />
		<tag k="name" v="Eiksetra" />
		<tag k="place" v="locality" />
		<tag k="ssr:stedsnr" v="628447" />
	</node>
	<node id="-188719" lat="59.8932722259" lon="10.2459583411">
		<tag k="name" v="Bekkom" />
		<tag k="place" v="isolated_dwelling" />
		<tag k="ssr:stedsnr" v="628158" />
	</node>
	<node id="-188717" lat="59.8877499958" lon="10.2391111188">
		<tag k="name" v="Ringen" />
		<tag k="place" v="isolated_dwelling" />
		<tag k="ssr:stedsnr" v="628153" />
	</node>
	<node id="-188716" lat="59.8636777734" lon="10.2214277812">
		<tag k="name" v="Alfstad" />
		<tag k="place" v="isolated_dwelling" />
		<tag k="ssr:stedsnr" v="628106" />
	</node>
	<node id="-188715" lat="59.8499833328" lon="10.2723527777">
		<tag k="name" v="Fagerbakken" />
		<tag k="place" v="isolated_dwelling" />
		<tag k="ssr:stedsnr" v="628088" />
	</node>
	<node id="-188714" lat="59.8210055542" lon="10.3299472139">
		<tag k="amenity" v="school" />
		<tag k="name" v="Heia skole" />
		<tag k="ssr:stedsnr" v="628070" />
	</node>
	<node id="-188713" lat="59.8185472186" lon="10.3039833415">
		<tag k="name" v="Storjordet" />
		<tag k="place" v="farm" />
		<tag k="ssr:stedsnr" v="628043" />
	</node>
	<node id="-188708" lat="59.8296305549" lon="10.2843277812">
		<tag k="name" v="Hagan" />
		<tag k="place" v="farm" />
		<tag k="ssr:stedsnr" v="628014" />
	</node>
	<node id="-188707" lat="59.7663027812" lon="10.2450083329">
		<tag k="name" v="Kjellstad" />
		<tag k="place" v="farm" />
		<tag k="ssr:stedsnr" v="627938" />
	</node>
	<node id="-188706" lat="59.7578583322" lon="10.2460361157">
		<tag k="name" v="Jensvoll" />
		<tag k="place" v="farm" />
		<tag k="ssr:stedsnr" v="627931" />
	</node>
	<node id="-188705" lat="59.7861333335" lon="10.2100388868">
		<tag k="name" v="Gåserud" />
		<tag k="place" v="farm" />
		<tag k="ssr:stedsnr" v="627745" />
	</node>
	<node id="-188704" lat="59.787661115" lon="10.2104055492">
		<tag k="name" v="Gåserud" />
		<tag k="place" v="farm" />
		<tag k="ssr:stedsnr" v="627743" />
	</node>
	<node id="-188703" lat="59.7864694422" lon="10.1904638813">
		<tag k="name" v="Steinsbråtan" />
		<tag k="place" v="farm" />
		<tag k="ssr:stedsnr" v="627677" />
	</node>
	<node id="-188702" lat="59.7810416707" lon="10.1957861054">
		<tag k="name" v="Finnebråtan" />
		<tag k="place" v="farm" />
		<tag k="ssr:stedsnr" v="627676" />
	</node>
	<node id="-188701" lat="59.74425556" lon="10.2907333324">
		<tag k="alt_name" v="Mellom Gullaug;Gullaug" />
		<tag k="name" v="Mellom-Gullaug" />
		<tag k="old_name" v="Gullaug mellem" />
		<tag k="place" v="farm" />
		<tag k="ssr:stedsnr" v="627650" />
	</node>
	<node id="-188700" lat="59.7765472255" lon="10.2660472238">
		<tag k="name" v="Bikkjeholmen" />
		<tag k="place" v="farm" />
		<tag k="ssr:stedsnr" v="627634" />
	</node>
	<node id="-188699" lat="59.8817416669" lon="10.3206638916">
		<tag k="alt_name" v="Tveitasetra" />
		<tag k="historic" v="shieling" />
		<tag k="name" v="Tveitsetra" />
		<tag k="place" v="locality" />
		<tag k="ssr:stedsnr" v="611377" />
	</node>
	<node id="-188698" lat="59.8818759044" lon="10.2551956371">
		<tag k="fixme" v="consider place=hamlet" />
		<tag k="name" v="Skjeggerud" />
		<tag k="place" v="farm" />
		<tag k="ssr:stedsnr" v="611368" />
	</node>
	<node id="-188697" lat="59.8930249972" lon="10.2910472206">
		<tag k="name" v="Sylling" />
		<tag k="place" v="village" />
		<tag k="ssr:stedsnr" v="611311" />
	</node>
	<node id="-188696" lat="59.8964083367" lon="10.2567555529">
		<tag k="alt_name" v="Rinen" />
		<tag k="name" v="Rinden" />
		<tag k="place" v="farm" />
		<tag k="ssr:stedsnr" v="611309" />
	</node>
	<node id="-188691" lat="59.8499555566" lon="10.2564638829">
		<tag k="name" v="Nerenga" />
		<tag k="place" v="isolated_dwelling" />
		<tag k="ssr:stedsnr" v="610344" />
	</node>
	<node id="-188690" lat="59.8667750034" lon="10.2102805635">
		<tag k="name" v="Løkka" />
		<tag k="place" v="farm" />
		<tag k="ssr:stedsnr" v="610314" />
	</node>
	<node id="-188688" lat="59.7978584017" lon="10.2514037164">
		<tag k="fixme" v="consider place=hamlet" />
		<tag k="name" v="Gommerud" />
		<tag k="place" v="farm" />
		<tag k="ssr:stedsnr" v="610149" />
	</node>
	<node id="-188687" lat="59.7923027762" lon="10.2647527845">
		<tag k="fixme" v="consider place=hamlet" />
		<tag k="name" v="Lier" />
		<tag k="place" v="village" />
		<tag k="ssr:stedsnr" v="610144" />
	</node>
	<node id="-188685" lat="59.8218027807" lon="10.1155666754">
		<tag k="fixme" v="consider tourism=alpine_hut or tourism=chalet" />
		<tag k="name" v="Garsjøkoia" />
		<tag k="ssr:stedsnr" v="606279" />
		<tag k="tourism" v="wilderness_hut" />
	</node>
	<node id="-188684" lat="59.8678083311" lon="10.2827666695">
		<tag k="alt_name" v="Nuen;Kittilsrud" />
		<tag k="name" v="Nuven" />
		<tag k="place" v="farm" />
		<tag k="ssr:stedsnr" v="599243" />
	</node>
	<node id="-188680" lat="59.7716833322" lon="10.2288750028">
		<tag k="alt_name" v="Nordre Vivelstad" />
		<tag k="name" v="Nordre Viulstad" />
		<tag k="place" v="farm" />
		<tag k="ssr:stedsnr" v="587717" />
	</node>
	<node id="-188679" lat="59.7566333331" lon="10.2934166585">
		<tag k="name" v="Kunterud" />
		<tag k="place" v="isolated_dwelling" />
		<tag k="ssr:stedsnr" v="585435" />
	</node>
	<node id="-188676" lat="59.8287583295" lon="10.2572361072">
		<tag k="amenity" v="school" />
		<tag k="name" v="Nordal skole" />
		<tag k="ssr:stedsnr" v="568904" />
	</node>
	<node id="-188673" lat="59.7900083363" lon="10.2350194486">
		<tag k="fixme" v="consider place=suburb, village or hamlet" />
		<tag k="name" v="Eikenga" />
		<tag k="place" v="quarter" />
		<tag k="ssr:stedsnr" v="568855" />
	</node>
	<node id="-188672" lat="59.7919388865" lon="10.2587000032">
		<tag k="amenity" v="school" />
		<tag k="name" v="Lierbyen skole" />
		<tag k="old_name" v="Foss skole" />
		<tag k="ssr:stedsnr" v="568852" />
	</node>
	<node id="-188665" lat="59.8931916669" lon="10.2737555505">
		<tag k="name" v="Grønlund" />
		<tag k="place" v="farm" />
		<tag k="ssr:stedsnr" v="567987" />
	</node>
	<node id="-188664" lat="59.8593166636" lon="10.3284861188">
		<tag k="name" v="Kipen" />
		<tag k="place" v="isolated_dwelling" />
		<tag k="ssr:stedsnr" v="567972" />
	</node>
	<node id="-188662" lat="59.7599611141" lon="10.2392277855">
		<tag k="amenity" v="school" />
		<tag k="name" v="Høvik skole" />
		<tag k="ssr:stedsnr" v="567917" />
	</node>
	<node id="-188661" lat="59.7576777745" lon="10.2527638884">
		<tag k="name" v="Vitbank" />
		<tag k="place" v="farm" />
		<tag k="ssr:stedsnr" v="567904" />
	</node>
	<node id="-188660" lat="59.752358333" lon="10.2694749931">
		<tag k="name" v="Gilhus" />
		<tag k="place" v="farm" />
		<tag k="ssr:stedsnr" v="567887" />
	</node>
	<node id="-188657" lat="59.7755611073" lon="10.1947138854">
		<tag k="name" v="Årkvisla" />
		<tag k="place" v="farm" />
		<tag k="ssr:stedsnr" v="567662" />
	</node>
	<node id="-188653" lat="59.8973083303" lon="10.2783083282">
		<tag k="name" v="Østre Sylling" />
		<tag k="place" v="farm" />
		<tag k="ssr:stedsnr" v="567534" />
	</node>
	<node id="-188650" lat="59.9460083292" lon="10.2774777807">
		<tag k="name" v="Kleivbråtan" />
		<tag k="place" v="isolated_dwelling" />
		<tag k="ssr:stedsnr" v="567500" />
	</node>
	<node id="-188649" lat="59.945900001" lon="10.2856388938">
		<tag k="name" v="Nordre Brevik" />
		<tag k="place" v="farm" />
		<tag k="ssr:stedsnr" v="567496" />
	</node>
	<node id="-188647" lat="59.8228861102" lon="10.1372888884">
		<tag k="name" v="Myrvang" />
		<tag k="place" v="farm" />
		<tag k="ssr:stedsnr" v="567445" />
	</node>
	<node id="-188646" lat="59.8226083308" lon="10.1332305595">
		<tag k="historic" v="shieling" />
		<tag k="name" v="Eiksetra" />
		<tag k="place" v="locality" />
		<tag k="ssr:stedsnr" v="567446" />
	</node>
	<node id="-188640" lat="59.8333583312" lon="10.2563166578">
		<tag k="alt_name" v="Østre Rød" />
		<tag k="name" v="Rød" />
		<tag k="place" v="farm" />
		<tag k="ssr:stedsnr" v="567371" />
	</node>
	<node id="-188639" lat="59.8526972242" lon="10.2228972308">
		<tag k="name" v="Øvre Rød" />
		<tag k="place" v="farm" />
		<tag k="ssr:stedsnr" v="567363" />
	</node>
	<node id="-188636" lat="59.8249777745" lon="10.3381361181">
		<tag k="name" v="Skogli" />
		<tag k="place" v="isolated_dwelling" />
		<tag k="ssr:stedsnr" v="567090" />
	</node>
	<node id="-188634" lat="59.8181666702" lon="10.2652444358">
		<tag k="alt_name" v="Stustad" />
		<tag k="name" v="Søndre Hennum" />
		<tag k="place" v="farm" />
		<tag k="ssr:stedsnr" v="567051" />
	</node>
	<node id="-188633" lat="59.8270500007" lon="10.2674777793">
		<tag k="name" v="Øvre Hennum" />
		<tag k="place" v="farm" />
		<tag k="ssr:stedsnr" v="567049" />
	</node>
	<node id="-188632" lat="59.8156972191" lon="10.2699833296">
		<tag k="name" v="Haugerudbråtan" />
		<tag k="place" v="isolated_dwelling" />
		<tag k="ssr:stedsnr" v="567050" />
	</node>
	<node id="-188631" lat="59.7913388911" lon="10.2604611066">
		<tag k="name" v="Foss" />
		<tag k="place" v="farm" />
		<tag k="ssr:stedsnr" v="566755" />
	</node>
	<node id="-188629" lat="59.8611361096" lon="10.2785583346">
		<tag k="alt_name" v="Skonnarud" />
		<tag k="name" v="Skonarud" />
		<tag k="place" v="farm" />
		<tag k="ssr:stedsnr" v="610299" />
	</node>
	<node id="-188628" lat="59.8588703317" lon="10.2550144523">
		<tag k="fixme" v="consider place=hamlet" />
		<tag k="name" v="Korsrud" />
		<tag k="place" v="farm" />
		<tag k="ssr:stedsnr" v="610297" />
	</node>
	<node id="-188627" lat="59.8079833302" lon="10.2289638887">
		<tag k="name" v="Snarum" />
		<tag k="place" v="farm" />
		<tag k="ssr:stedsnr" v="610285" />
	</node>
	<node id="-188625" lat="59.8196055521" lon="10.1170305575">
		<tag k="fixme" v="consider tourism=alpine_hut or tourism=chalet" />
		<tag k="name" v="Solvang" />
		<tag k="ssr:stedsnr" v="610243" />
		<tag k="tourism" v="wilderness_hut" />
	</node>
	<node id="-188624" lat="59.8354638886" lon="10.2119361025">
		<tag k="name" v="Ødegården" />
		<tag k="place" v="farm" />
		<tag k="ssr:stedsnr" v="610230" />
	</node>
	<node id="-188623" lat="59.7719529877" lon="10.2289658326">
		<tag k="alt_name" v="Vivelstad" />
		<tag k="fixme" v="consider place=hamlet" />
		<tag k="name" v="Viulstad" />
		<tag k="place" v="farm" />
		<tag k="ssr:stedsnr" v="610212" />
	</node>
	<node id="-188621" lat="59.9257777799" lon="10.2748527799">
		<tag k="name" v="Sørbråtan" />
		<tag k="place" v="farm" />
		<tag k="ssr:stedsnr" v="550421" />
	</node>
	<node id="-188620" lat="59.9204249995" lon="10.2954666633">
		<tag k="name" v="Gampedalen" />
		<tag k="place" v="farm" />
		<tag k="ssr:stedsnr" v="550398" />
	</node>
	<node id="-188617" lat="59.8892527747" lon="10.2641611174">
		<tag k="name" v="Sørli" />
		<tag k="place" v="farm" />
		<tag k="ssr:stedsnr" v="550349" />
	</node>
	<node id="-188616" lat="59.8765055524" lon="10.11333611">
		<tag k="name" v="Saga" />
		<tag k="place" v="isolated_dwelling" />
		<tag k="ssr:stedsnr" v="550340" />
	</node>
	<node id="-188612" lat="59.8962083344" lon="10.3375916721">
		<tag k="historic" v="shieling" />
		<tag k="name" v="Engersetra" />
		<tag k="place" v="locality" />
		<tag k="ssr:stedsnr" v="550303" />
	</node>
	<node id="-188611" lat="59.897652776" lon="10.2712583384">
		<tag k="name" v="Vestre Sylling" />
		<tag k="place" v="farm" />
		<tag k="ssr:stedsnr" v="550298" />
	</node>
	<node id="-188610" lat="59.8944805579" lon="10.2624472151">
		<tag k="alt_name" v="Stokkerinen" />
		<tag k="name" v="Stokkerinden" />
		<tag k="place" v="farm" />
		<tag k="ssr:stedsnr" v="550296" />
	</node>
	<node id="-188606" lat="59.7449927802" lon="10.3155617633">
		<tag k="name" v="Enga" />
		<tag k="place" v="farm" />
		<tag k="ssr:stedsnr" v="549362" />
	</node>
	<node id="-188605" lat="59.8989108138" lon="10.2833448614">
		<tag k="fixme" v="consider place=hamlet" />
		<tag k="name" v="Kirkerud" />
		<tag k="place" v="farm" />
		<tag k="ssr:stedsnr" v="549343" />
	</node>
	<node id="-188603" lat="59.8530658003" lon="10.2126393212">
		<tag k="fixme" v="consider place=hamlet" />
		<tag k="loc_name" v="Skjåstad" />
		<tag k="name" v="Sjåstad" />
		<tag k="old_name" v="Skjaastad;Sjaastad" />
		<tag k="place" v="farm" />
		<tag k="ssr:stedsnr" v="549313" />
	</node>
	<node id="-188601" lat="59.8231803009" lon="10.2685310519">
		<tag k="name" v="Hennum" />
		<tag k="place" v="hamlet" />
		<tag k="ssr:stedsnr" v="549209" />
	</node>
	<node id="-188600" lat="59.8233648904" lon="10.248531438">
		<tag k="fixme" v="consider place=hamlet" />
		<tag k="name" v="Klemmetsdal" />
		<tag k="place" v="farm" />
		<tag k="ssr:stedsnr" v="549210" />
	</node>
	<node id="-188598" lat="59.7709861096" lon="10.2671722218">
		<tag k="name" v="Vikerholmen" />
		<tag k="place" v="farm" />
		<tag k="ssr:stedsnr" v="549180" />
	</node>
	<node id="-188597" lat="59.7532027782" lon="10.316066667">
		<tag k="name" v="Myrvoll" />
		<tag k="place" v="farm" />
		<tag k="ssr:stedsnr" v="549105" />
	</node>
	<node id="-188596" lat="59.7501765335" lon="10.3183526913">
		<tag k="fixme" v="consider place=hamlet" />
		<tag k="name" v="Dauerud" />
		<tag k="place" v="farm" />
		<tag k="ssr:stedsnr" v="549102" />
	</node>
	<node id="-188592" lat="59.8921194466" lon="10.2279833349">
		<tag k="alt_name" v="Nordhagen" />
		<tag k="name" v="Søndre Nordhagen" />
		<tag k="place" v="farm" />
		<tag k="ssr:stedsnr" v="526168" />
	</node>
	<node id="-188589" lat="59.9067805595" lon="10.2004250042">
		<tag k="name" v="Damstua" />
		<tag k="place" v="isolated_dwelling" />
		<tag k="ssr:stedsnr" v="508944" />
	</node>
	<node id="-188587" lat="59.8921722264" lon="10.2965555605">
		<tag k="name" v="Vestre Enger" />
		<tag k="place" v="farm" />
		<tag k="ssr:stedsnr" v="507994" />
	</node>
	<node id="-188586" lat="59.8889055536" lon="10.3058194454">
		<tag k="name" v="Solli" />
		<tag k="place" v="locality" />
		<tag k="ssr:stedsnr" v="507958" />
	</node>
	<node id="-188582" lat="59.8228055571" lon="10.3229500026">
		<tag k="fixme" v="consider place=suburb, village or hamlet" />
		<tag k="name" v="Ovenstadlia" />
		<tag k="place" v="quarter" />
		<tag k="ssr:stedsnr" v="507876" />
	</node>
	<node id="-188578" lat="59.7779333377" lon="10.2829916652">
		<tag k="alt_name" v="Reistad" />
		<tag k="name" v="Store Reistad" />
		<tag k="place" v="farm" />
		<tag k="ssr:stedsnr" v="507595" />
	</node>
	<node id="-188575" lat="59.9083166686" lon="10.2821277866">
		<tag k="name" v="Hørte" />
		<tag k="place" v="farm" />
		<tag k="ssr:stedsnr" v="507537" />
	</node>
	<node id="-188572" lat="59.8111222255" lon="10.15109722">
		<tag k="name" v="Jarenhytta" />
		<tag k="place" v="isolated_dwelling" />
		<tag k="ssr:stedsnr" v="507398" />
	</node>
	<node id="-188570" lat="59.8152861149" lon="10.2050444429">
		<tag k="loc_name" v="Justad" />
		<tag k="name" v="Ytre Justad" />
		<tag k="place" v="farm" />
		<tag k="ssr:stedsnr" v="507378" />
	</node>
	<node id="-188569" lat="59.8465027775" lon="10.2246555481">
		<tag k="name" v="Bakkemeren" />
		<tag k="place" v="farm" />
		<tag k="ssr:stedsnr" v="507360" />
	</node>
	<node id="-188568" lat="59.8486500007" lon="10.2093083288">
		<tag k="name" v="Fisker" />
		<tag k="place" v="farm" />
		<tag k="ssr:stedsnr" v="507359" />
	</node>
	<node id="-188565" lat="59.846094443" lon="10.2712499963">
		<tag k="name" v="Bråten" />
		<tag k="place" v="isolated_dwelling" />
		<tag k="ssr:stedsnr" v="507110" />
	</node>
	<node id="-188563" lat="59.8209499956" lon="10.2500388818">
		<tag k="name" v="Bråten" />
		<tag k="place" v="farm" />
		<tag k="ssr:stedsnr" v="507099" />
	</node>
	<node id="-188562" lat="59.8323027788" lon="10.2653916643">
		<tag k="name" v="Kleiva" />
		<tag k="place" v="isolated_dwelling" />
		<tag k="ssr:stedsnr" v="507090" />
	</node>
	<node id="-188561" lat="59.830636107" lon="10.3204722297">
		<tag k="name" v="Ovenstadhagan" />
		<tag k="place" v="isolated_dwelling" />
		<tag k="ssr:stedsnr" v="507074" />
	</node>
	<node id="-188558" lat="59.8169735373" lon="10.3033116208">
		<tag k="fixme" v="consider place=hamlet" />
		<tag k="name" v="Vestre Grøstad" />
		<tag k="place" v="farm" />
		<tag k="ssr:stedsnr" v="507034" />
	</node>
	<node id="-188555" lat="59.7645944432" lon="10.2780749941">
		<tag k="alt_name" v="Homleskauen" />
		<tag k="name" v="Humleskauen" />
		<tag k="place" v="farm" />
		<tag k="ssr:stedsnr" v="506883" />
	</node>
	<node id="-188554" lat="59.7954944428" lon="10.2361305477">
		<tag k="alt_name" v="Mellom Renskaug" />
		<tag k="name" v="Mellom-Renskaug" />
		<tag k="place" v="farm" />
		<tag k="ssr:stedsnr" v="506744" />
	</node>
	<node id="-188553" lat="59.7784694403" lon="10.2490722284">
		<tag k="name" v="Valle" />
		<tag k="place" v="farm" />
		<tag k="ssr:stedsnr" v="506731" />
	</node>
	<node id="-188552" lat="59.7767845914" lon="10.2072475211">
		<tag k="name" v="Stein" />
		<tag k="place" v="farm" />
		<tag k="ssr:stedsnr" v="506729" />
	</node>
	<node id="-188549" lat="59.7763583373" lon="10.198544439">
		<tag k="name" v="Årkvisla" />
		<tag k="place" v="farm" />
		<tag k="ssr:stedsnr" v="506683" />
	</node>
	<node id="-188547" lat="59.7854027761" lon="10.223288895">
		<tag k="fixme" v="multiple name tags, choose one and add the other to alt_name" />
		<tag k="loc_name" v="Lund" />
		<tag k="name" v="Haugen;Vestre Haugerud" />
		<tag k="place" v="farm" />
		<tag k="ssr:stedsnr" v="506375" />
	</node>
	<node id="-188546" lat="59.8248749972" lon="10.2861972204">
		<tag k="name" v="Hennummarka" />
		<tag k="place" v="quarter" />
		<tag k="ssr:stedsnr" v="505193" />
	</node>
	<node id="-188545" lat="59.9016222266" lon="10.2152111029">
		<tag k="building" v="industrial" />
		<tag k="industrial" v="factory" />
		<tag k="name" v="Grytefoss" />
		<tag k="ssr:stedsnr" v="505167" />
	</node>
	<node id="-188542" lat="59.9620222196" lon="10.3252027823">
		<tag k="name" v="Vefsrud" />
		<tag k="place" v="farm" />
		<tag k="ssr:stedsnr" v="489504" />
	</node>
	<node id="-188541" lat="59.9590388865" lon="10.2455138915">
		<tag k="historic" v="shieling" />
		<tag k="name" v="Hornsetra" />
		<tag k="place" v="locality" />
		<tag k="ssr:stedsnr" v="489408" />
	</node>
	<node id="-188539" lat="59.8722166692" lon="10.2443111176">
		<tag k="name" v="Rønningen" />
		<tag k="place" v="farm" />
		<tag k="ssr:stedsnr" v="489367" />
	</node>
	<node id="-188537" lat="59.8722861085" lon="10.2984944515">
		<tag k="name" v="Haukelia" />
		<tag k="place" v="farm" />
		<tag k="ssr:stedsnr" v="489351" />
	</node>
	<node id="-188535" lat="59.8531902067" lon="10.2233565865">
		<tag k="fixme" v="multiple name tags, choose one and add the other to alt_name; consider place=hamlet" />
		<tag k="name" v="Rød;Øvre Rød" />
		<tag k="place" v="farm" />
		<tag k="ssr:stedsnr" v="489326" />
	</node>
	<node id="-188534" lat="59.8412500044" lon="10.1646361165">
		<tag k="name" v="Kvistås" />
		<tag k="place" v="farm" />
		<tag k="ssr:stedsnr" v="489319" />
	</node>
	<node id="-188533" lat="59.8426544539" lon="10.2295343616">
		<tag k="alt_name" v="Nordre Meren" />
		<tag k="name" v="Meren" />
		<tag k="place" v="hamlet" />
		<tag k="ssr:stedsnr" v="489317" />
	</node>
	<node id="-188530" lat="59.8609148378" lon="10.213689971">
		<tag k="fixme" v="consider place=hamlet" />
		<tag k="name" v="Justad" />
		<tag k="place" v="farm" />
		<tag k="ssr:stedsnr" v="489296" />
	</node>
	<node id="-188529" lat="59.8034186169" lon="10.2562058448">
		<tag k="alt_name" v="Overn" />
		<tag k="fixme" v="consider place=hamlet" />
		<tag k="name" v="Overen" />
		<tag k="place" v="farm" />
		<tag k="ssr:stedsnr" v="489278" />
	</node>
	<node id="-188526" lat="59.8328765231" lon="10.2558527997">
		<tag k="fixme" v="consider place=hamlet" />
		<tag k="name" v="Rød" />
		<tag k="place" v="farm" />
		<tag k="ssr:stedsnr" v="489218" />
	</node>
	<node id="-188525" lat="59.8326444482" lon="10.2421166615">
		<tag k="name" v="Trollerud" />
		<tag k="place" v="farm" />
		<tag k="ssr:stedsnr" v="489216" />
	</node>
	<node id="-188524" lat="59.7663924138" lon="10.2887719053">
		<tag k="name" v="Sørum" />
		<tag k="place" v="hamlet" />
		<tag k="ssr:stedsnr" v="489207" />
	</node>
	<node id="-188523" lat="59.782604524" lon="10.2174213044">
		<tag k="alt_name" v="Nordre Eik" />
		<tag k="name" v="Eik" />
		<tag k="place" v="hamlet" />
		<tag k="ssr:stedsnr" v="489182" />
	</node>
	<node id="-188522" lat="59.7765194429" lon="10.1809361186">
		<tag k="name" v="Hvalsvollen" />
		<tag k="place" v="isolated_dwelling" />
		<tag k="ssr:stedsnr" v="489181" />
	</node>
	<node id="-188521" lat="59.7810825493" lon="10.2471201722">
		<tag k="name" v="Hegg" />
		<tag k="place" v="locality" />
		<tag k="ssr:stedsnr" v="489177" />
	</node>
	<node id="-188520" lat="59.7874361116" lon="10.198472224">
		<tag k="name" v="Grinda" />
		<tag k="place" v="farm" />
		<tag k="ssr:stedsnr" v="489163" />
	</node>
	<node id="-188519" lat="59.7883479155" lon="10.2510705558">
		<tag k="fixme" v="consider place=hamlet" />
		<tag k="name" v="Ila" />
		<tag k="place" v="farm" />
		<tag k="ssr:stedsnr" v="489158" />
	</node>
	<node id="-188517" lat="59.7934372565" lon="10.2488899778">
		<tag k="alt_name" v="Nordre Haskoll" />
		<tag k="name" v="Haskoll" />
		<tag k="place" v="hamlet" />
		<tag k="ssr:stedsnr" v="489136" />
	</node>
	<node id="-188516" lat="59.7532390746" lon="10.266738061">
		<tag k="fixme" v="consider place=hamlet" />
		<tag k="name" v="Gilhus" />
		<tag k="place" v="farm" />
		<tag k="ssr:stedsnr" v="489109" />
	</node>
	<node id="-188513" lat="59.7239972238" lon="10.3115416708">
		<tag k="name" v="Søndre Lahell" />
		<tag k="place" v="farm" />
		<tag k="ssr:stedsnr" v="464734" />
	</node>
	<node id="-188512" lat="59.8235555554" lon="10.2667249991">
		<tag k="name" v="Hennum" />
		<tag k="place" v="farm" />
		<tag k="ssr:stedsnr" v="464671" />
	</node>
	<node id="-188494" lat="59.7526611111" lon="10.2429972243">
		<tag k="name" v="Høvik" />
		<tag k="place" v="farm" />
		<tag k="ssr:stedsnr" v="446908" />
	</node>
	<node id="-188491" lat="59.7445027753" lon="10.2904916738">
		<tag k="name" v="Ytre Mørk" />
		<tag k="place" v="farm" />
		<tag k="ssr:stedsnr" v="446862" />
	</node>
	<node id="-188490" lat="59.7246014909" lon="10.3065916295">
		<tag k="name" v="Wilhelmsborg" />
		<tag k="place" v="farm" />
		<tag k="ssr:stedsnr" v="446860" />
	</node>
	<node id="-188487" lat="59.7900611118" lon="10.2752999955">
		<tag k="alt_name" v="Utsikten" />
		<tag k="name" v="Lierutsikten" />
		<tag k="place" v="isolated_dwelling" />
		<tag k="ssr:stedsnr" v="446691" />
	</node>
	<node id="-188484" lat="59.7747222189" lon="10.2703444415">
		<tag k="name" v="Reistadholmen" />
		<tag k="place" v="farm" />
		<tag k="ssr:stedsnr" v="446615" />
	</node>
	<node id="-188481" lat="59.7682833359" lon="10.292194443">
		<tag k="name" v="Nordvestre Sørum" />
		<tag k="place" v="farm" />
		<tag k="ssr:stedsnr" v="446595" />
	</node>
	<node id="-188473" lat="59.8103111139" lon="10.2226027816">
		<tag k="fixme" v="multiple name tags, choose one and add the other to alt_name" />
		<tag k="name" v="Solhaug;Solum" />
		<tag k="place" v="farm" />
		<tag k="ssr:stedsnr" v="446418" />
	</node>
	<node id="-188472" lat="59.8508999988" lon="10.2247416591">
		<tag k="name" v="Sole" />
		<tag k="place" v="farm" />
		<tag k="ssr:stedsnr" v="446399" />
	</node>
	<node id="-188468" lat="59.8694444454" lon="10.2546472235">
		<tag k="name" v="Granli" />
		<tag k="place" v="isolated_dwelling" />
		<tag k="ssr:stedsnr" v="446274" />
	</node>
	<node id="-188467" lat="59.8403361109" lon="10.2539083317">
		<tag k="alt_name" v="Søre Nedre Sørsdal" />
		<tag k="name" v="Søndre Nedre Sørsdal" />
		<tag k="place" v="farm" />
		<tag k="ssr:stedsnr" v="446405" />
	</node>
	<node id="-188466" lat="59.8241222199" lon="10.2543333296">
		<tag k="name" v="Skjønhaug" />
		<tag k="place" v="isolated_dwelling" />
		<tag k="ssr:stedsnr" v="446153" />
	</node>
	<node id="-188465" lat="59.8474972189" lon="10.2646638839">
		<tag k="alt_name" v="Nedre Opsal" />
		<tag k="name" v="Nedre Oppsal" />
		<tag k="place" v="farm" />
		<tag k="ssr:stedsnr" v="446148" />
	</node>
	<node id="-188464" lat="59.847474998" lon="10.2718805587">
		<tag k="name" v="Linløkka" />
		<tag k="place" v="farm" />
		<tag k="ssr:stedsnr" v="446147" />
	</node>
	<node id="-188463" lat="59.8164555591" lon="10.2148500077">
		<tag k="alt_name" v="Mellom Egge" />
		<tag k="name" v="Mellom-Egge" />
		<tag k="place" v="farm" />
		<tag k="ssr:stedsnr" v="446140" />
	</node>
	<node id="-188462" lat="59.8301472193" lon="10.2354000075">
		<tag k="name" v="Follestad" />
		<tag k="place" v="farm" />
		<tag k="ssr:stedsnr" v="446132" />
	</node>
	<node id="-188461" lat="59.834150001" lon="10.3029333407">
		<tag k="name" v="Rotuløkkene" />
		<tag k="place" v="locality" />
		<tag k="ssr:stedsnr" v="446123" />
	</node>
	<node id="-188458" lat="59.8120777792" lon="10.3287638901">
		<tag k="name" v="Nordli" />
		<tag k="place" v="isolated_dwelling" />
		<tag k="ssr:stedsnr" v="446084" />
	</node>
	<node id="-188455" lat="59.8242972196" lon="10.2689472157">
		<tag k="alt_name" v="Hennumtorget" />
		<tag k="name" v="Hennumskroken" />
		<tag k="place" v="hamlet" />
		<tag k="ssr:stedsnr" v="446069" />
	</node>
	<node id="-188454" lat="59.8144694436" lon="10.3146805482">
		<tag k="alt_name" v="Ytre Tveten" />
		<tag k="name" v="Ytre Tveiten" />
		<tag k="place" v="farm" />
		<tag k="ssr:stedsnr" v="446052" />
	</node>
	<node id="-188453" lat="59.8597305547" lon="10.1408666628">
		<tag k="name" v="Vesleløkka" />
		<tag k="old_name" v="Vesleløkken" />
		<tag k="place" v="farm" />
		<tag k="ssr:stedsnr" v="446007" />
	</node>
	<node id="-188449" lat="59.9168722186" lon="10.3494805553">
		<tag k="alt_name" v="Toverud sæter" />
		<tag k="historic" v="shieling" />
		<tag k="name" v="Toverudsetra" />
		<tag k="place" v="locality" />
		<tag k="ssr:stedsnr" v="429937" />
	</node>
	<node id="-188446" lat="59.8840582137" lon="10.3083500561">
		<tag k="fixme" v="consider place=hamlet" />
		<tag k="name" v="Tveiten" />
		<tag k="place" v="farm" />
		<tag k="ssr:stedsnr" v="429345" />
	</node>
	<node id="-188445" lat="59.8768394926" lon="10.2390348063">
		<tag k="alt_name" v="Ellevog" />
		<tag k="fixme" v="consider place=hamlet" />
		<tag k="name" v="Ellevåg" />
		<tag k="place" v="farm" />
		<tag k="ssr:stedsnr" v="429331" />
	</node>
	<node id="-188443" lat="59.8898361093" lon="10.2290361184">
		<tag k="name" v="Tomas" />
		<tag k="place" v="farm" />
		<tag k="ssr:stedsnr" v="429289" />
	</node>
	<node id="-188442" lat="59.8382883869" lon="10.2208368582">
		<tag k="fixme" v="consider place=hamlet" />
		<tag k="name" v="Øksnevoll" />
		<tag k="place" v="farm" />
		<tag k="ssr:stedsnr" v="429268" />
	</node>
	<node id="-188441" lat="59.8350250036" lon="10.1506694418">
		<tag k="alt_name" v="Avdal" />
		<tag k="name" v="Avdalen" />
		<tag k="place" v="farm" />
		<tag k="ssr:stedsnr" v="429255" />
	</node>
	<node id="-188436" lat="59.8009888861" lon="10.2310083372">
		<tag k="alt_name" v="Nordre Renskaug" />
		<tag k="name" v="Nordre Renskog" />
		<tag k="place" v="farm" />
		<tag k="ssr:stedsnr" v="429124" />
	</node>
	<node id="-188434" lat="59.9048416689" lon="10.3241333274">
		<tag k="name" v="Kvisla" />
		<tag k="place" v="isolated_dwelling" />
		<tag k="ssr:stedsnr" v="428310" />
	</node>
	<node id="-188433" lat="59.7344888639" lon="10.3125728676">
		<tag k="alt_name" v="Mellom Mørk" />
		<tag k="fixme" v="consider place=hamlet" />
		<tag k="name" v="Mørk" />
		<tag k="place" v="farm" />
		<tag k="ssr:stedsnr" v="428243" />
	</node>
	<node id="-188432" lat="59.8588805542" lon="10.2969499995">
		<tag k="name" v="Moldkastet" />
		<tag k="place" v="isolated_dwelling" />
		<tag k="ssr:stedsnr" v="428242" />
	</node>
	<node id="-188430" lat="59.8477972248" lon="10.2094999968">
		<tag k="name" v="Lia" />
		<tag k="place" v="farm" />
		<tag k="ssr:stedsnr" v="428236" />
	</node>
	<node id="-188429" lat="59.8461416686" lon="10.2103833312">
		<tag k="alt_name" v="Pettersbråtan" />
		<tag k="name" v="Petersrud" />
		<tag k="place" v="farm" />
		<tag k="ssr:stedsnr" v="428234" />
	</node>
	<node id="-188427" lat="59.8110611089" lon="10.3154166647">
		<tag k="name" v="Haugen" />
		<tag k="place" v="farm" />
		<tag k="ssr:stedsnr" v="428204" />
	</node>
	<node id="-188426" lat="59.8160111116" lon="10.2276694522">
		<tag k="name" v="Grøtte" />
		<tag k="place" v="isolated_dwelling" />
		<tag k="ssr:stedsnr" v="428196" />
	</node>
	<node id="-188425" lat="59.8219146662" lon="10.2567858682">
		<tag k="fixme" v="consider place=hamlet" />
		<tag k="name" v="Buttedal" />
		<tag k="place" v="farm" />
		<tag k="ssr:stedsnr" v="428185" />
	</node>
	<node id="-188424" lat="59.7592333327" lon="10.2613361077">
		<tag k="name" v="Bærø" />
		<tag k="place" v="farm" />
		<tag k="ssr:stedsnr" v="428070" />
	</node>
	<node id="-188423" lat="59.751847221" lon="10.2525111121">
		<tag k="name" v="Høvik" />
		<tag k="place" v="quarter" />
		<tag k="ssr:stedsnr" v="422307" />
	</node>
	<node id="-188422" lat="59.8329416642" lon="10.2305388892">
		<tag k="name" v="Nordalholmen" />
		<tag k="place" v="farm" />
		<tag k="ssr:stedsnr" v="265934" />
	</node>
</osm>
