<?xml version="1.0" encoding="UTF-8"?>
<osm generator="osmapis" version="0.6">
	<node id="-188063" lat="59.7988416641" lon="10.2574388836">
		<tag k="alt_name" v="Overen" />
		<tag k="name" v="Overn" />
		<tag k="ssr:stedsnr" v="202747" />
		<tag k="tourism" v="museum" />
	</node>
	<node id="-188855" lat="59.8198305577" lon="10.3333805516">
		<tag k="alt_name" v="Lierskogen" />
		<tag k="amenity" v="place_of_worship" />
		<tag k="denomination" v="lutheran" />
		<tag k="name" v="Lierskogen kirke" />
		<tag k="religion" v="christian" />
		<tag k="ssr:stedsnr" v="871068" />
	</node>
	<node id="-187797" lat="59.9171972177" lon="10.2835305579">
		<tag k="name" v="Svingen" />
		<tag k="place" v="locality" />
		<tag k="ssr:stedsnr" v="386700" />
	</node>
	<node id="-188398" lat="59.8202027753" lon="10.3320944491">
		<tag k="amenity" v="community_centre" />
		<tag k="name" v="Lierskogen samfunnshus" />
		<tag k="ssr:stedsnr" v="567070" />
	</node>
	<node id="-188524" lat="59.8106583372" lon="10.256527785">
		<tag k="alt_name" v="Tranby" />
		<tag k="amenity" v="place_of_worship" />
		<tag k="denomination" v="lutheran" />
		<tag k="name" v="Tranby kirke" />
		<tag k="religion" v="christian" />
		<tag k="ssr:stedsnr" v="671224" />
	</node>
	<node id="-188299" lat="59.8986555583" lon="10.2815055583">
		<tag k="alt_name" v="Sylling" />
		<tag k="amenity" v="place_of_worship" />
		<tag k="denomination" v="lutheran" />
		<tag k="name" v="Sylling kirke" />
		<tag k="religion" v="christian" />
		<tag k="ssr:stedsnr" v="489341" />
	</node>
	<node id="-187689" lat="59.962480557" lon="10.3319166753">
		<tag k="name" v="Skansen" />
		<tag k="ssr:stedsnr" v="325582" />
		<tag k="tourism" v="viewpoint" />
	</node>
	<node id="-188200" lat="59.7787055531" lon="10.2251416746">
		<tag k="alt_name" v="Frogner" />
		<tag k="amenity" v="place_of_worship" />
		<tag k="denomination" v="lutheran" />
		<tag k="name" v="Frogner kirke" />
		<tag k="religion" v="christian" />
		<tag k="ssr:stedsnr" v="429156" />
	</node>
	<node id="-187972" lat="59.7489833315" lon="10.2764833395">
		<tag k="alt_name" v="Gullaug" />
		<tag k="amenity" v="place_of_worship" />
		<tag k="denomination" v="lutheran" />
		<tag k="name" v="Gullaug kirke" />
		<tag k="religion" v="christian" />
		<tag k="ssr:stedsnr" v="94874" />
	</node>
	<node id="-188771" lat="59.8562083312" lon="10.2189361185">
		<tag k="amenity" v="community_centre" />
		<tag k="name" v="Sjåstad samfunnshus" />
		<tag k="ssr:stedsnr" v="810161" />
	</node>
	<node id="-188194" lat="59.8501083306" lon="10.2135416729">
		<tag k="alt_name" v="Sjåstad" />
		<tag k="amenity" v="place_of_worship" />
		<tag k="denomination" v="lutheran" />
		<tag k="name" v="Sjåstad kirke" />
		<tag k="religion" v="christian" />
		<tag k="ssr:stedsnr" v="428237" />
	</node>
	<node id="-188001" lat="59.7873333297" lon="10.2397666651">
		<tag k="amenity" v="community_centre" />
		<tag k="name" v="Haugestad" />
		<tag k="ssr:stedsnr" v="141698" />
	</node>
</osm>
