<?xml version="1.0" encoding="UTF-8"?>
<osm generator="osmapis" version="0.6">
	<node id="-187904" lat="59.8681194465" lon="10.2557777833">
		<tag k="name" v="Iledalen" />
		<tag k="natural" v="valley" />
		<tag k="place" v="locality" />
		<tag k="ssr:stedsnr" v="65253" />
	</node>
	<node id="-188536" lat="59.8700277787" lon="10.1500861023">
		<tag k="fixme" v="consider natural=peak for the most distinct mountains in the district" />
		<tag k="name" v="Neverkollen" />
		<tag k="natural" v="hill" />
		<tag k="place" v="locality" />
		<tag k="ssr:stedsnr" v="671279" />
	</node>
	<node id="-187897" lat="59.8669833371" lon="10.0964472243">
		<tag k="name" v="Damdalen" />
		<tag k="natural" v="valley" />
		<tag k="place" v="locality" />
		<tag k="ssr:stedsnr" v="22924" />
	</node>
	<node id="-188407" lat="59.818491667" lon="10.1053055514">
		<tag k="name" v="Snaret" />
		<tag k="natural" v="hill" />
		<tag k="place" v="locality" />
		<tag k="ssr:stedsnr" v="567438" />
	</node>
	<node id="-188406" lat="59.8465277747" lon="10.1554416654">
		<tag k="alt_name" v="Harestokken" />
		<tag k="name" v="Harastokken" />
		<tag k="natural" v="ridge" />
		<tag k="place" v="locality" />
		<tag k="ssr:stedsnr" v="567420" />
	</node>
	<node id="-188405" lat="59.8473138881" lon="10.1741666645">
		<tag k="name" v="Seterdalen" />
		<tag k="natural" v="valley" />
		<tag k="place" v="locality" />
		<tag k="ssr:stedsnr" v="567408" />
	</node>
	<node id="-188404" lat="59.8425555538" lon="10.2001277723">
		<tag k="fixme" v="consider natural=peak for the most distinct mountains in the district" />
		<tag k="name" v="Høgåsen" />
		<tag k="natural" v="hill" />
		<tag k="place" v="locality" />
		<tag k="ssr:stedsnr" v="567406" />
	</node>
	<node id="-188401" lat="59.8531750016" lon="10.1694333313">
		<tag k="name" v="Gravdal" />
		<tag k="natural" v="valley" />
		<tag k="place" v="locality" />
		<tag k="ssr:stedsnr" v="567242" />
	</node>
	<node id="-188400" lat="59.8372833309" lon="10.283733329">
		<tag k="name" v="Bjønndalen" />
		<tag k="natural" v="valley" />
		<tag k="place" v="locality" />
		<tag k="ssr:stedsnr" v="567116" />
	</node>
	<node id="-187885" lat="59.8978166664" lon="10.3160527725">
		<tag k="fixme" v="consider natural=peak for the most distinct mountains in the district" />
		<tag k="name" v="Høgåsen" />
		<tag k="natural" v="hill" />
		<tag k="place" v="locality" />
		<tag k="ssr:stedsnr" v="21987" />
	</node>
	<node id="-188393" lat="59.8058111077" lon="10.1619138844">
		<tag k="name" v="Storehei" />
		<tag k="natural" v="hill" />
		<tag k="place" v="locality" />
		<tag k="ssr:stedsnr" v="566706" />
	</node>
	<node id="-187878" lat="59.9469361133" lon="10.2211416667">
		<tag k="fixme" v="consider natural=peak for the most distinct mountains in the district" />
		<tag k="name" v="Furudamsåsen" />
		<tag k="natural" v="hill" />
		<tag k="place" v="locality" />
		<tag k="ssr:stedsnr" v="21645" />
	</node>
	<node id="-188389" lat="59.813969441" lon="10.1513166647">
		<tag k="fixme" v="multiple name tags, choose one and add the other to alt_name; consider natural=peak for the most distinct mountains in the district" />
		<tag k="name" v="Eikheia;Eikheiane" />
		<tag k="natural" v="hill" />
		<tag k="place" v="locality" />
		<tag k="ssr:stedsnr" v="610265" />
	</node>
	<node id="-187876" lat="59.9615083362" lon="10.2851111132">
		<tag k="name" v="Ulbråtan" />
		<tag k="natural" v="hill" />
		<tag k="place" v="locality" />
		<tag k="ssr:stedsnr" v="21614" />
	</node>
	<node id="-188896" lat="59.9351277771" lon="10.3364694371">
		<tag k="name" v="Rennekastet" />
		<tag k="natural" v="cliff" />
		<tag k="ssr:stedsnr" v="872935" />
	</node>
	<node id="-188381" lat="59.8854472242" lon="10.1473583376">
		<tag k="alt_name" v="Slettfjell;Slettefjell" />
		<tag k="fixme" v="consider natural=peak for the most distinct mountains in the district" />
		<tag k="name" v="Slettfjella" />
		<tag k="natural" v="hill" />
		<tag k="place" v="locality" />
		<tag k="ssr:stedsnr" v="550359" />
	</node>
	<node id="-188891" lat="59.8876111147" lon="10.2994944482">
		<tag k="alt_name" v="Tvetendalen" />
		<tag k="name" v="Tveitendalen" />
		<tag k="natural" v="valley" />
		<tag k="place" v="locality" />
		<tag k="ssr:stedsnr" v="871989" />
	</node>
	<node id="-188890" lat="59.8948611079" lon="10.3207555641">
		<tag k="loc_name" v="Engerkleivene" />
		<tag k="name" v="Engerkleiva" />
		<tag k="natural" v="slope" />
		<tag k="place" v="locality" />
		<tag k="ssr:stedsnr" v="871960" />
	</node>
	<node id="-188376" lat="59.8942083376" lon="10.3286722245">
		<tag k="name" v="Vestergyllen" />
		<tag k="natural" v="hill" />
		<tag k="place" v="locality" />
		<tag k="ssr:stedsnr" v="550302" />
	</node>
	<node id="-188417" lat="59.780099997" lon="10.2974027805">
		<tag k="name" v="Løksekollen" />
		<tag k="natural" v="hill" />
		<tag k="place" v="locality" />
		<tag k="ssr:stedsnr" v="567574" />
	</node>
	<node id="-188665" lat="59.8864948733" lon="10.3171119856">
		<tag k="fixme" v="consider natural=peak for the most distinct mountains in the district" />
		<tag k="name" v="Nordåsen" />
		<tag k="natural" v="hill" />
		<tag k="place" v="locality" />
		<tag k="ssr:stedsnr" v="748178" />
	</node>
	<node id="-188372" lat="59.7849444439" lon="10.2911972165">
		<tag k="fixme" v="consider natural=peak for the most distinct mountains in the district" />
		<tag k="name" v="Reistadåsen" />
		<tag k="natural" v="hill" />
		<tag k="place" v="locality" />
		<tag k="ssr:stedsnr" v="550164" />
	</node>
	<node id="-188370" lat="59.9455555572" lon="10.2581611137">
		<tag k="alt_name" v="Rogneholtet" />
		<tag k="fixme" v="consider natural=peak for the most distinct mountains in the district" />
		<tag k="name" v="Rognholtet" />
		<tag k="natural" v="hill" />
		<tag k="place" v="locality" />
		<tag k="ssr:stedsnr" v="549395" />
	</node>
	<node id="-188835" lat="59.8849666648" lon="10.1133749932">
		<tag k="alt_name" v="Kvigeberga" />
		<tag k="fixme" v="consider natural=peak for the most distinct mountains in the district" />
		<tag k="name" v="Kvibergåsen" />
		<tag k="natural" v="hill" />
		<tag k="place" v="locality" />
		<tag k="ssr:stedsnr" v="854352" />
	</node>
	<node id="-188880" lat="59.9409305559" lon="10.2220861095">
		<tag k="alt_name" v="Svartvssåsen" />
		<tag k="fixme" v="consider natural=peak for the most distinct mountains in the district" />
		<tag k="name" v="Svartvannsåsen" />
		<tag k="natural" v="hill" />
		<tag k="place" v="locality" />
		<tag k="ssr:stedsnr" v="871611" />
	</node>
	<node id="-188367" lat="59.9024249988" lon="10.3390472135">
		<tag k="name" v="Nordbråtan" />
		<tag k="natural" v="hill" />
		<tag k="place" v="locality" />
		<tag k="ssr:stedsnr" v="549323" />
	</node>
	<node id="-188365" lat="59.812894441" lon="10.1795444473">
		<tag k="fixme" v="consider natural=peak for the most distinct mountains in the district" />
		<tag k="name" v="Askfjellet" />
		<tag k="natural" v="hill" />
		<tag k="place" v="locality" />
		<tag k="ssr:stedsnr" v="549215" />
	</node>
	<node id="-188875" lat="59.9027833368" lon="10.3576277774">
		<tag k="fixme" v="consider natural=peak for the most distinct mountains in the district" />
		<tag k="name" v="Bjønnåsen" />
		<tag k="natural" v="hill" />
		<tag k="place" v="locality" />
		<tag k="ssr:stedsnr" v="871546" />
	</node>
	<node id="-188874" lat="59.9101027735" lon="10.3458749912">
		<tag k="name" v="Hørtebonn" />
		<tag k="natural" v="valley" />
		<tag k="place" v="locality" />
		<tag k="ssr:stedsnr" v="871545" />
	</node>
	<node id="-188872" lat="59.9191416657" lon="10.229047231">
		<tag k="name" v="Brennhusdalen" />
		<tag k="natural" v="valley" />
		<tag k="place" v="locality" />
		<tag k="ssr:stedsnr" v="871512" />
	</node>
	<node id="-188492" lat="59.7925166661" lon="10.1821027772">
		<tag k="name" v="Gladbakk" />
		<tag k="natural" v="slope" />
		<tag k="place" v="locality" />
		<tag k="ssr:stedsnr" v="628687" />
	</node>
	<node id="-187846" lat="59.8031194406" lon="10.2492388844">
		<tag k="name" v="Tronbergfjella" />
		<tag k="natural" v="slope" />
		<tag k="place" v="locality" />
		<tag k="ssr:stedsnr" v="20762" />
	</node>
	<node id="-188918" lat="59.8283388876" lon="10.1149999952">
		<tag k="fixme" v="consider natural=peak for the most distinct mountains in the district" />
		<tag k="name" v="Høgståsen" />
		<tag k="natural" v="hill" />
		<tag k="place" v="locality" />
		<tag k="ssr:stedsnr" v="914291" />
	</node>
	<node id="-188351" lat="59.9410333351" lon="10.2314611104">
		<tag k="fixme" v="consider natural=peak for the most distinct mountains in the district" />
		<tag k="name" v="Hullbekkåsen" />
		<tag k="natural" v="hill" />
		<tag k="place" v="locality" />
		<tag k="ssr:stedsnr" v="508934" />
	</node>
	<node id="-188861" lat="59.8838638859" lon="10.212000008">
		<tag k="name" v="Vefferstadholene" />
		<tag k="natural" v="hill" />
		<tag k="place" v="locality" />
		<tag k="ssr:stedsnr" v="871154" />
	</node>
	<node id="-187835" lat="59.9203638909" lon="10.3466527691">
		<tag k="fixme" v="consider natural=peak for the most distinct mountains in the district" />
		<tag k="name" v="Himåsen" />
		<tag k="natural" v="hill" />
		<tag k="place" v="locality" />
		<tag k="ssr:stedsnr" v="4938" />
	</node>
	<node id="-188346" lat="59.8211777764" lon="10.0963083409">
		<tag k="name" v="Skorpeberget" />
		<tag k="natural" v="hill" />
		<tag k="place" v="locality" />
		<tag k="ssr:stedsnr" v="507911" />
	</node>
	<node id="-188343" lat="59.7759722199" lon="10.1722194449">
		<tag k="name" v="Grønnlia" />
		<tag k="natural" v="slope" />
		<tag k="place" v="locality" />
		<tag k="ssr:stedsnr" v="507674" />
	</node>
	<node id="-188340" lat="59.768280558" lon="10.2955416693">
		<tag k="name" v="Andreasbråtan" />
		<tag k="natural" v="slope" />
		<tag k="place" v="locality" />
		<tag k="ssr:stedsnr" v="507593" />
	</node>
	<node id="-188339" lat="59.9141499964" lon="10.3486888854">
		<tag k="name" v="Toverudbonn" />
		<tag k="natural" v="valley" />
		<tag k="place" v="locality" />
		<tag k="ssr:stedsnr" v="507571" />
	</node>
	<node id="-188849" lat="59.7939749986" lon="10.1890611058">
		<tag k="fixme" v="consider natural=peak for the most distinct mountains in the district" />
		<tag k="name" v="Veslehei" />
		<tag k="natural" v="hill" />
		<tag k="place" v="locality" />
		<tag k="ssr:stedsnr" v="870705" />
	</node>
	<node id="-188336" lat="59.8334527757" lon="10.0914777722">
		<tag k="fixme" v="consider natural=peak for the most distinct mountains in the district" />
		<tag k="name" v="Hølbekkåsen" />
		<tag k="natural" v="hill" />
		<tag k="place" v="locality" />
		<tag k="ssr:stedsnr" v="507418" />
	</node>
	<node id="-188842" lat="59.8953416711" lon="10.35088333">
		<tag k="name" v="Kjennerhaugen" />
		<tag k="natural" v="hill" />
		<tag k="place" v="locality" />
		<tag k="ssr:stedsnr" v="854867" />
	</node>
	<node id="-188327" lat="59.8163000025" lon="10.2065000089">
		<tag k="name" v="Stokkaruddalen" />
		<tag k="natural" v="valley" />
		<tag k="place" v="locality" />
		<tag k="ssr:stedsnr" v="507106" />
	</node>
	<node id="-188837" lat="59.9499222242" lon="10.2021138832">
		<tag k="fixme" v="consider natural=peak for the most distinct mountains in the district" />
		<tag k="name" v="Stormoen" />
		<tag k="natural" v="hill" />
		<tag k="place" v="locality" />
		<tag k="ssr:stedsnr" v="854373" />
	</node>
	<node id="-188323" lat="59.8415833335" lon="10.3274583356">
		<tag k="fixme" v="consider natural=peak for the most distinct mountains in the district" />
		<tag k="name" v="Bøåsen" />
		<tag k="natural" v="hill" />
		<tag k="place" v="locality" />
		<tag k="ssr:stedsnr" v="507068" />
	</node>
	<node id="-188834" lat="59.888641663" lon="10.1473750055">
		<tag k="fixme" v="consider natural=peak for the most distinct mountains in the district" />
		<tag k="name" v="Knausen" />
		<tag k="natural" v="hill" />
		<tag k="place" v="locality" />
		<tag k="ssr:stedsnr" v="854351" />
	</node>
	<node id="-188319" lat="59.7510388879" lon="10.2268694449">
		<tag k="name" v="Tomineborgdalen" />
		<tag k="natural" v="valley" />
		<tag k="place" v="locality" />
		<tag k="ssr:stedsnr" v="506886" />
	</node>
	<node id="-187805" lat="59.8847611088" lon="10.0487027715">
		<tag k="name" v="Finnemarka" />
		<tag k="natural" v="wood" />
		<tag k="ssr:stedsnr" v="854346" />
	</node>
	<node id="-188313" lat="59.8011749965" lon="10.1870749916">
		<tag k="fixme" v="consider natural=peak for the most distinct mountains in the district" />
		<tag k="name" v="Ravnefjell" />
		<tag k="natural" v="hill" />
		<tag k="place" v="locality" />
		<tag k="ssr:stedsnr" v="506694" />
	</node>
	<node id="-188311" lat="59.8020499985" lon="10.2774416604">
		<tag k="fixme" v="consider natural=peak for the most distinct mountains in the district" />
		<tag k="name" v="Damåsen" />
		<tag k="natural" v="hill" />
		<tag k="place" v="locality" />
		<tag k="ssr:stedsnr" v="506675" />
	</node>
	<node id="-188822" lat="59.850433332" lon="10.1601999946">
		<tag k="fixme" v="consider natural=peak for the most distinct mountains in the district" />
		<tag k="name" v="Barlindåsen" />
		<tag k="natural" v="hill" />
		<tag k="place" v="locality" />
		<tag k="ssr:stedsnr" v="853219" />
	</node>
	<node id="-188821" lat="59.8009194488" lon="10.1493666666">
		<tag k="name" v="Skimtheia" />
		<tag k="natural" v="hill" />
		<tag k="place" v="locality" />
		<tag k="ssr:stedsnr" v="853211" />
	</node>
	<node id="-187796" lat="59.918499998" lon="10.3541111093">
		<tag k="fixme" v="consider natural=peak for the most distinct mountains in the district" />
		<tag k="name" v="Toverudbrenna" />
		<tag k="natural" v="hill" />
		<tag k="place" v="locality" />
		<tag k="ssr:stedsnr" v="386548" />
	</node>
	<node id="-187792" lat="59.8594833341" lon="10.3218333379">
		<tag k="name" v="Bødalen" />
		<tag k="natural" v="valley" />
		<tag k="place" v="locality" />
		<tag k="ssr:stedsnr" v="385969" />
	</node>
	<node id="-188301" lat="59.8764194418" lon="10.1499944516">
		<tag k="alt_name" v="Vikeråsen" />
		<tag k="fixme" v="consider natural=peak for the most distinct mountains in the district" />
		<tag k="name" v="Vikerås" />
		<tag k="natural" v="hill" />
		<tag k="place" v="locality" />
		<tag k="ssr:stedsnr" v="489358" />
	</node>
	<node id="-187786" lat="59.7361694432" lon="10.306122217">
		<tag k="fixme" v="consider natural=peak for the most distinct mountains in the district" />
		<tag k="name" v="Gullaugfjellet" />
		<tag k="natural" v="hill" />
		<tag k="place" v="locality" />
		<tag k="ssr:stedsnr" v="385860" />
	</node>
	<node id="-188808" lat="59.9203166649" lon="10.3720055469">
		<tag k="name" v="Møllerbonnhaugane" />
		<tag k="natural" v="hill" />
		<tag k="place" v="locality" />
		<tag k="ssr:stedsnr" v="811926" />
	</node>
	<node id="-188807" lat="59.9175416674" lon="10.3579305602">
		<tag k="name" v="Svervehøla" />
		<tag k="natural" v="valley" />
		<tag k="place" v="locality" />
		<tag k="ssr:stedsnr" v="811880" />
	</node>
	<node id="-188294" lat="59.8552416635" lon="10.1015750003">
		<tag k="name" v="Skrangledalen" />
		<tag k="natural" v="valley" />
		<tag k="place" v="locality" />
		<tag k="ssr:stedsnr" v="489298" />
	</node>
	<node id="-187781" lat="59.8020472223" lon="10.2953055478">
		<tag k="fixme" v="consider natural=peak for the most distinct mountains in the district" />
		<tag k="name" v="Gunnaråsen" />
		<tag k="natural" v="hill" />
		<tag k="place" v="locality" />
		<tag k="ssr:stedsnr" v="385687" />
	</node>
	<node id="-188804" lat="59.8551111085" lon="10.1672055552">
		<tag k="fixme" v="consider natural=peak for the most distinct mountains in the district" />
		<tag k="name" v="Tømmerlundåsen" />
		<tag k="natural" v="hill" />
		<tag k="place" v="locality" />
		<tag k="ssr:stedsnr" v="811674" />
	</node>
	<node id="-187779" lat="59.7682250006" lon="10.1849166663">
		<tag k="name" v="Trappesteinberget" />
		<tag k="natural" v="hill" />
		<tag k="place" v="locality" />
		<tag k="ssr:stedsnr" v="385674" />
	</node>
	<node id="-188290" lat="59.8278361074" lon="10.1447305548">
		<tag k="name" v="Sauekollen" />
		<tag k="natural" v="hill" />
		<tag k="place" v="locality" />
		<tag k="ssr:stedsnr" v="489233" />
	</node>
	<node id="-188801" lat="59.9099194468" lon="10.3359611184">
		<tag k="name" v="Brenninga" />
		<tag k="natural" v="slope" />
		<tag k="place" v="locality" />
		<tag k="ssr:stedsnr" v="811553" />
	</node>
	<node id="-187776" lat="59.940624999" lon="10.2156888858">
		<tag k="name" v="Veslemoen" />
		<tag k="natural" v="hill" />
		<tag k="place" v="locality" />
		<tag k="ssr:stedsnr" v="385639" />
	</node>
	<node id="-188798" lat="59.9335111126" lon="10.1403388976">
		<tag k="name" v="Tverråsaksla" />
		<tag k="natural" v="hill" />
		<tag k="place" v="locality" />
		<tag k="ssr:stedsnr" v="810930" />
	</node>
	<node id="-187773" lat="59.9211805532" lon="10.299225007">
		<tag k="fixme" v="consider natural=peak for the most distinct mountains in the district" />
		<tag k="name" v="Dragsåsen" />
		<tag k="natural" v="hill" />
		<tag k="place" v="locality" />
		<tag k="ssr:stedsnr" v="385491" />
	</node>
	<node id="-187771" lat="59.8401249987" lon="10.1451250084">
		<tag k="name" v="Almedalen" />
		<tag k="natural" v="valley" />
		<tag k="place" v="locality" />
		<tag k="ssr:stedsnr" v="385464" />
	</node>
	<node id="-188794" lat="59.9359388884" lon="10.1858722135">
		<tag k="fixme" v="consider natural=peak for the most distinct mountains in the district" />
		<tag k="name" v="Svartåsen" />
		<tag k="natural" v="hill" />
		<tag k="place" v="locality" />
		<tag k="ssr:stedsnr" v="810694" />
	</node>
	<node id="-188792" lat="59.9515722245" lon="10.2363888805">
		<tag k="fixme" v="consider natural=peak for the most distinct mountains in the district" />
		<tag k="name" v="Seteråsen" />
		<tag k="natural" v="hill" />
		<tag k="place" v="locality" />
		<tag k="ssr:stedsnr" v="810631" />
	</node>
	<node id="-188790" lat="59.8977083365" lon="10.3508083289">
		<tag k="name" v="Brenna" />
		<tag k="natural" v="slope" />
		<tag k="place" v="locality" />
		<tag k="ssr:stedsnr" v="810577" />
	</node>
	<node id="-188788" lat="59.9031583359" lon="10.2423111155">
		<tag k="loc_name" v="Veslevannsdalen" />
		<tag k="name" v="Veslevassdalen" />
		<tag k="natural" v="valley" />
		<tag k="place" v="locality" />
		<tag k="ssr:stedsnr" v="810535" />
	</node>
	<node id="-188734" lat="59.8264111096" lon="10.1728361137">
		<tag k="fixme" v="consider natural=peak for the most distinct mountains in the district" />
		<tag k="name" v="Eggekollane" />
		<tag k="natural" v="hill" />
		<tag k="place" v="locality" />
		<tag k="ssr:stedsnr" v="792203" />
	</node>
	<node id="-187762" lat="59.8703027791" lon="10.1787361129">
		<tag k="alt_name" v="Veslevasshagen" />
		<tag k="name" v="Veslevannshagan" />
		<tag k="natural" v="ridge" />
		<tag k="place" v="locality" />
		<tag k="ssr:stedsnr" v="385263" />
	</node>
	<node id="-188273" lat="59.855900004" lon="10.1137666705">
		<tag k="name" v="Streikebryterlia" />
		<tag k="natural" v="slope" />
		<tag k="place" v="locality" />
		<tag k="ssr:stedsnr" v="447917" />
	</node>
	<node id="-188271" lat="59.9136694413" lon="10.3667305466">
		<tag k="name" v="Rennardalen" />
		<tag k="natural" v="valley" />
		<tag k="place" v="locality" />
		<tag k="ssr:stedsnr" v="447884" />
	</node>
	<node id="-188782" lat="59.9242388865" lon="10.2844222237">
		<tag k="fixme" v="consider natural=peak for the most distinct mountains in the district" />
		<tag k="name" v="Skarpåsen" />
		<tag k="natural" v="hill" />
		<tag k="place" v="locality" />
		<tag k="ssr:stedsnr" v="810497" />
	</node>
	<node id="-188267" lat="59.9535638918" lon="10.3380055492">
		<tag k="name" v="Dybla" />
		<tag k="natural" v="valley" />
		<tag k="place" v="locality" />
		<tag k="ssr:stedsnr" v="447560" />
	</node>
	<node id="-188266" lat="59.8994694461" lon="10.3196416666">
		<tag k="loc_name" v="Klemgjota" />
		<tag k="name" v="Klemjota" />
		<tag k="natural" v="valley" />
		<tag k="place" v="locality" />
		<tag k="ssr:stedsnr" v="447540" />
	</node>
	<node id="-187753" lat="59.8685305529" lon="10.1376361179">
		<tag k="name" v="Vestkollen" />
		<tag k="natural" v="ridge" />
		<tag k="place" v="locality" />
		<tag k="ssr:stedsnr" v="385005" />
	</node>
	<node id="-188264" lat="59.8604944433" lon="10.2829749951">
		<tag k="name" v="Skonarudkleiva" />
		<tag k="natural" v="slope" />
		<tag k="place" v="locality" />
		<tag k="ssr:stedsnr" v="447260" />
	</node>
	<node id="-188263" lat="59.8861861133" lon="10.3263916644">
		<tag k="name" v="Svangseterdalen" />
		<tag k="natural" v="valley" />
		<tag k="place" v="locality" />
		<tag k="ssr:stedsnr" v="446980" />
	</node>
	<node id="-188260" lat="59.87383333" lon="10.3106499981">
		<tag k="name" v="Asdøljuvet" />
		<tag k="natural" v="gorge" />
		<tag k="ssr:stedsnr" v="446930" />
	</node>
	<node id="-188256" lat="59.7359111147" lon="10.3008166713">
		<tag k="name" v="Berget" />
		<tag k="natural" v="hill" />
		<tag k="place" v="locality" />
		<tag k="ssr:stedsnr" v="446867" />
	</node>
	<node id="-187742" lat="59.8538277811" lon="10.091127769">
		<tag k="fixme" v="consider natural=peak for the most distinct mountains in the district" />
		<tag k="name" v="Grasåsen" />
		<tag k="natural" v="hill" />
		<tag k="place" v="locality" />
		<tag k="ssr:stedsnr" v="368543" />
	</node>
	<node id="-188759" lat="59.8079944418" lon="10.183380557">
		<tag k="name" v="Bekkedalen" />
		<tag k="natural" v="valley" />
		<tag k="place" v="locality" />
		<tag k="ssr:stedsnr" v="809723" />
	</node>
	<node id="-188246" lat="59.7765416703" lon="10.3052138814">
		<tag k="name" v="Bullekippen" />
		<tag k="natural" v="slope" />
		<tag k="place" v="locality" />
		<tag k="ssr:stedsnr" v="446600" />
	</node>
	<node id="-188757" lat="59.9086722239" lon="10.3568138925">
		<tag k="alt_name" v="Butterudbotn" />
		<tag k="name" v="Butterudbonn" />
		<tag k="natural" v="valley" />
		<tag k="place" v="locality" />
		<tag k="ssr:stedsnr" v="793932" />
	</node>
	<node id="-187731" lat="59.8728388923" lon="10.1712500071">
		<tag k="name" v="Laukedalen" />
		<tag k="natural" v="valley" />
		<tag k="place" v="locality" />
		<tag k="ssr:stedsnr" v="368301" />
	</node>
	<node id="-188170" lat="59.948658335" lon="10.2154944404">
		<tag k="name" v="St. Hanshaugen" />
		<tag k="natural" v="hill" />
		<tag k="place" v="locality" />
		<tag k="ssr:stedsnr" v="264662" />
	</node>
	<node id="-188240" lat="59.8517222181" lon="10.1328277792">
		<tag k="fixme" v="consider natural=peak for the most distinct mountains in the district" />
		<tag k="name" v="Kastadåsen" />
		<tag k="natural" v="hill" />
		<tag k="place" v="locality" />
		<tag k="ssr:stedsnr" v="446463" />
	</node>
	<node id="-187727" lat="59.8455761745" lon="10.1301523231">
		<tag k="fixme" v="consider natural=peak for the most distinct mountains in the district" />
		<tag k="name" v="Kapitelen" />
		<tag k="natural" v="hill" />
		<tag k="place" v="locality" />
		<tag k="ssr:stedsnr" v="368279" />
	</node>
	<node id="-187658" lat="59.9122166674" lon="10.3633861101">
		<tag k="fixme" v="consider natural=peak for the most distinct mountains in the district" />
		<tag k="name" v="Gampen" />
		<tag k="natural" v="hill" />
		<tag k="place" v="locality" />
		<tag k="ssr:stedsnr" v="307912" />
	</node>
	<node id="-188746" lat="59.7772472215" lon="10.3127833306">
		<tag k="fixme" v="consider natural=peak for the most distinct mountains in the district" />
		<tag k="name" v="Kaperåsen" />
		<tag k="natural" v="hill" />
		<tag k="place" v="locality" />
		<tag k="ssr:stedsnr" v="793177" />
	</node>
	<node id="-188743" lat="59.9462638897" lon="10.2119527802">
		<tag k="fixme" v="consider natural=peak for the most distinct mountains in the district" />
		<tag k="name" v="Flagret" />
		<tag k="natural" v="hill" />
		<tag k="place" v="locality" />
		<tag k="ssr:stedsnr" v="792384" />
	</node>
	<node id="-188742" lat="59.9585527775" lon="10.202725004">
		<tag k="name" v="Rassballhaugane" />
		<tag k="natural" v="hill" />
		<tag k="place" v="locality" />
		<tag k="ssr:stedsnr" v="792380" />
	</node>
	<node id="-188741" lat="59.9515555589" lon="10.248736104">
		<tag k="fixme" v="consider natural=peak for the most distinct mountains in the district" />
		<tag k="name" v="Vindfallåsen" />
		<tag k="natural" v="hill" />
		<tag k="place" v="locality" />
		<tag k="ssr:stedsnr" v="792379" />
	</node>
	<node id="-188711" lat="59.8177277811" lon="10.3385055488">
		<tag k="name" v="Heiatoppen" />
		<tag k="natural" v="hill" />
		<tag k="place" v="locality" />
		<tag k="ssr:stedsnr" v="750846" />
	</node>
	<node id="-188738" lat="59.856472219" lon="10.1330472185">
		<tag k="name" v="Seterbrenna" />
		<tag k="natural" v="hill" />
		<tag k="place" v="locality" />
		<tag k="ssr:stedsnr" v="792258" />
	</node>
	<node id="-188737" lat="59.8101777809" lon="10.171263881">
		<tag k="fixme" v="consider natural=peak for the most distinct mountains in the district" />
		<tag k="name" v="Storsteinsfjell" />
		<tag k="natural" v="hill" />
		<tag k="place" v="locality" />
		<tag k="ssr:stedsnr" v="792231" />
	</node>
	<node id="-188223" lat="59.8375305556" lon="10.2749277767">
		<tag k="fixme" v="consider natural=peak for the most distinct mountains in the district" />
		<tag k="name" v="Gyllentopp" />
		<tag k="natural" v="hill" />
		<tag k="place" v="locality" />
		<tag k="ssr:stedsnr" v="446118" />
	</node>
	<node id="-188222" lat="59.8341555558" lon="10.2788805479">
		<tag k="alt_name" v="Torishaugen" />
		<tag k="name" v="Toreshaugen" />
		<tag k="natural" v="hill" />
		<tag k="place" v="locality" />
		<tag k="ssr:stedsnr" v="446119" />
	</node>
	<node id="-187706" lat="59.9098527808" lon="10.3312055553">
		<tag k="name" v="Brennengkastet" />
		<tag k="natural" v="cliff" />
		<tag k="ssr:stedsnr" v="326877" />
	</node>
	<node id="-188214" lat="59.8063055538" lon="10.1794194415">
		<tag k="fixme" v="consider natural=peak for the most distinct mountains in the district" />
		<tag k="name" v="Mellemåsen" />
		<tag k="natural" v="hill" />
		<tag k="place" v="locality" />
		<tag k="ssr:stedsnr" v="445724" />
	</node>
	<node id="-188213" lat="59.8419666654" lon="10.3363583335">
		<tag k="fixme" v="consider natural=peak for the most distinct mountains in the district" />
		<tag k="name" v="Rognekollen" />
		<tag k="natural" v="hill" />
		<tag k="place" v="locality" />
		<tag k="ssr:stedsnr" v="445181" />
	</node>
	<node id="-188723" lat="59.9110694431" lon="10.2657027713">
		<tag k="fixme" v="consider natural=peak for the most distinct mountains in the district" />
		<tag k="name" v="Hørtekollen" />
		<tag k="natural" v="hill" />
		<tag k="place" v="locality" />
		<tag k="ssr:stedsnr" v="793437" />
	</node>
	<node id="-188211" lat="59.9171083377" lon="10.1978138812">
		<tag k="fixme" v="consider natural=peak for the most distinct mountains in the district" />
		<tag k="name" v="Grasåsen" />
		<tag k="natural" v="hill" />
		<tag k="place" v="locality" />
		<tag k="ssr:stedsnr" v="429398" />
	</node>
	<node id="-187696" lat="59.8391055566" lon="10.2941888963">
		<tag k="name" v="Lyarhorn" />
		<tag k="natural" v="slope" />
		<tag k="place" v="locality" />
		<tag k="ssr:stedsnr" v="325848" />
	</node>
	<node id="-188207" lat="59.8736861085" lon="10.1247444529">
		<tag k="fixme" v="consider natural=peak for the most distinct mountains in the district" />
		<tag k="name" v="Sagåsen" />
		<tag k="natural" v="hill" />
		<tag k="place" v="locality" />
		<tag k="ssr:stedsnr" v="429322" />
	</node>
	<node id="-188893" lat="59.8975333306" lon="10.3413194356">
		<tag k="name" v="Grisebonn" />
		<tag k="natural" v="valley" />
		<tag k="place" v="locality" />
		<tag k="ssr:stedsnr" v="872601" />
	</node>
	<node id="-188203" lat="59.7998555566" lon="10.1758388888">
		<tag k="fixme" v="consider natural=peak for the most distinct mountains in the district" />
		<tag k="name" v="Rødsåsen" />
		<tag k="natural" v="hill" />
		<tag k="place" v="locality" />
		<tag k="ssr:stedsnr" v="429489" />
	</node>
	<node id="-188714" lat="59.8619499975" lon="10.1377138824">
		<tag k="name" v="Kollelia" />
		<tag k="natural" v="slope" />
		<tag k="place" v="locality" />
		<tag k="ssr:stedsnr" v="750919" />
	</node>
	<node id="-188713" lat="59.8277500023" lon="10.1996638911">
		<tag k="fixme" v="consider natural=peak for the most distinct mountains in the district" />
		<tag k="name" v="Øksnekollen" />
		<tag k="natural" v="hill" />
		<tag k="place" v="locality" />
		<tag k="ssr:stedsnr" v="750906" />
	</node>
	<node id="-187688" lat="59.9035833293" lon="10.3514222307">
		<tag k="name" v="Dragsbonn" />
		<tag k="natural" v="valley" />
		<tag k="place" v="locality" />
		<tag k="ssr:stedsnr" v="325572" />
	</node>
	<node id="-187687" lat="59.9260333309" lon="10.3578277755">
		<tag k="name" v="Munken" />
		<tag k="natural" v="hill" />
		<tag k="place" v="locality" />
		<tag k="ssr:stedsnr" v="325559" />
	</node>
	<node id="-187686" lat="59.924434264" lon="10.3570447947">
		<tag k="alt_name" v="Kveisebotten" />
		<tag k="name" v="Kveisebonn" />
		<tag k="natural" v="valley" />
		<tag k="place" v="locality" />
		<tag k="ssr:stedsnr" v="325557" />
	</node>
	<node id="-188806" lat="59.9137166632" lon="10.3605638913">
		<tag k="fixme" v="consider natural=peak for the most distinct mountains in the district" />
		<tag k="name" v="Vesle Rennaren" />
		<tag k="natural" v="hill" />
		<tag k="place" v="locality" />
		<tag k="ssr:stedsnr" v="811851" />
	</node>
	<node id="-187682" lat="59.825808335" lon="10.0938861099">
		<tag k="alt_name" v="Svarthavndalen" />
		<tag k="name" v="Svarthamndalen" />
		<tag k="natural" v="valley" />
		<tag k="place" v="locality" />
		<tag k="ssr:stedsnr" v="325448" />
	</node>
	<node id="-187681" lat="59.8382888925" lon="10.1497222162">
		<tag k="fixme" v="consider natural=peak for the most distinct mountains in the district" />
		<tag k="name" v="Kruttjernåsen" />
		<tag k="natural" v="hill" />
		<tag k="place" v="locality" />
		<tag k="ssr:stedsnr" v="325433" />
	</node>
	<node id="-188704" lat="59.9408305517" lon="10.1379250038">
		<tag k="name" v="Damtjernhallen" />
		<tag k="natural" v="slope" />
		<tag k="place" v="locality" />
		<tag k="ssr:stedsnr" v="749944" />
	</node>
	<node id="-187673" lat="59.8350861086" lon="10.2922611148">
		<tag k="fixme" v="consider natural=peak for the most distinct mountains in the district" />
		<tag k="name" v="Guttåsen" />
		<tag k="natural" v="hill" />
		<tag k="place" v="locality" />
		<tag k="ssr:stedsnr" v="325112" />
	</node>
	<node id="-188184" lat="59.8653611082" lon="10.1005111119">
		<tag k="fixme" v="consider natural=peak for the most distinct mountains in the district" />
		<tag k="name" v="Lahølbrenna" />
		<tag k="natural" v="hill" />
		<tag k="place" v="locality" />
		<tag k="ssr:stedsnr" v="265925" />
	</node>
	<node id="-188183" lat="59.9237694416" lon="10.3575583256">
		<tag k="name" v="Munken" />
		<tag k="natural" v="hill" />
		<tag k="place" v="locality" />
		<tag k="ssr:stedsnr" v="265923" />
	</node>
	<node id="-188694" lat="59.7935527803" lon="10.270202772">
		<tag k="fixme" v="consider natural=peak for the most distinct mountains in the district" />
		<tag k="name" v="Fosskollen" />
		<tag k="natural" v="hill" />
		<tag k="place" v="locality" />
		<tag k="ssr:stedsnr" v="749698" />
	</node>
	<node id="-188180" lat="59.7927055576" lon="10.1943166657">
		<tag k="fixme" v="consider natural=peak for the most distinct mountains in the district" />
		<tag k="name" v="Grindene" />
		<tag k="natural" v="hill" />
		<tag k="place" v="locality" />
		<tag k="ssr:stedsnr" v="265098" />
	</node>
	<node id="-188691" lat="59.9167611132" lon="10.2097249946">
		<tag k="loc_name" v="Kårevannslia" />
		<tag k="name" v="Kårevasslia" />
		<tag k="natural" v="slope" />
		<tag k="place" v="locality" />
		<tag k="ssr:stedsnr" v="749556" />
	</node>
	<node id="-187665" lat="59.7918777799" lon="10.3001083272">
		<tag k="fixme" v="consider natural=peak for the most distinct mountains in the district" />
		<tag k="name" v="Stormyråsen" />
		<tag k="natural" v="hill" />
		<tag k="place" v="locality" />
		<tag k="ssr:stedsnr" v="324672" />
	</node>
	<node id="-188176" lat="59.8628138885" lon="10.265238896">
		<tag k="name" v="Haugen" />
		<tag k="natural" v="hill" />
		<tag k="place" v="locality" />
		<tag k="ssr:stedsnr" v="264908" />
	</node>
	<node id="-187663" lat="59.7953527744" lon="10.233533342">
		<tag k="loc_name" v="Renskaudalen" />
		<tag k="name" v="Renskaugdalen" />
		<tag k="natural" v="valley" />
		<tag k="place" v="locality" />
		<tag k="ssr:stedsnr" v="324724" />
	</node>
	<node id="-187662" lat="59.8997499979" lon="10.2866611146">
		<tag k="fixme" v="consider natural=peak for the most distinct mountains in the district" />
		<tag k="name" v="Altanåsen" />
		<tag k="natural" v="hill" />
		<tag k="place" v="locality" />
		<tag k="ssr:stedsnr" v="323173" />
	</node>
	<node id="-188172" lat="59.9638166688" lon="10.2125944411">
		<tag k="name" v="Maidalen" />
		<tag k="natural" v="valley" />
		<tag k="place" v="locality" />
		<tag k="ssr:stedsnr" v="264739" />
	</node>
	<node id="-188171" lat="59.9638250023" lon="10.2195222239">
		<tag k="name" v="Kjerringmyrhaugane" />
		<tag k="natural" v="hill" />
		<tag k="place" v="locality" />
		<tag k="ssr:stedsnr" v="264734" />
	</node>
	<node id="-187888" lat="59.9367083331" lon="10.2037111043">
		<tag k="name" v="Monsetjerndalen" />
		<tag k="natural" v="valley" />
		<tag k="place" v="locality" />
		<tag k="ssr:stedsnr" v="22526" />
	</node>
	<node id="-188681" lat="59.8627916686" lon="10.1990416732">
		<tag k="fixme" v="consider natural=peak for the most distinct mountains in the district" />
		<tag k="name" v="Øverbyåsen" />
		<tag k="natural" v="hill" />
		<tag k="place" v="locality" />
		<tag k="ssr:stedsnr" v="749260" />
	</node>
	<node id="-187656" lat="59.9098388897" lon="10.2301333274">
		<tag k="fixme" v="consider natural=peak for the most distinct mountains in the district" />
		<tag k="name" v="Solbergåsen" />
		<tag k="natural" v="hill" />
		<tag k="place" v="locality" />
		<tag k="ssr:stedsnr" v="307420" />
	</node>
	<node id="-188164" lat="59.9565361115" lon="10.2154083311">
		<tag k="name" v="Flisemyrhaugen" />
		<tag k="natural" v="hill" />
		<tag k="place" v="locality" />
		<tag k="ssr:stedsnr" v="264618" />
	</node>
	<node id="-188674" lat="59.8611694418" lon="10.1002777715">
		<tag k="name" v="Dølahallene" />
		<tag k="place" v="locality" />
		<tag k="ssr:stedsnr" v="749018" />
	</node>
	<node id="-188161" lat="59.9521694441" lon="10.2838388867">
		<tag k="fixme" v="consider natural=peak for the most distinct mountains in the district" />
		<tag k="name" v="Sagåsen" />
		<tag k="natural" v="hill" />
		<tag k="place" v="locality" />
		<tag k="ssr:stedsnr" v="264586" />
	</node>
	<node id="-188160" lat="59.9312583306" lon="10.2284027826">
		<tag k="fixme" v="consider natural=peak for the most distinct mountains in the district" />
		<tag k="name" v="Røynelihøgda" />
		<tag k="natural" v="hill" />
		<tag k="old_name" v="Røinelihøgda" />
		<tag k="place" v="locality" />
		<tag k="ssr:stedsnr" v="264538" />
	</node>
	<node id="-188159" lat="59.9493111126" lon="10.2799027787">
		<tag k="fixme" v="consider natural=peak for the most distinct mountains in the district" />
		<tag k="name" v="Tømte" />
		<tag k="natural" v="hill" />
		<tag k="place" v="locality" />
		<tag k="ssr:stedsnr" v="264519" />
	</node>
	<node id="-188158" lat="59.8384638883" lon="10.1149777773">
		<tag k="fixme" v="consider natural=peak for the most distinct mountains in the district" />
		<tag k="name" v="Ormtjernåsen" />
		<tag k="natural" v="hill" />
		<tag k="place" v="locality" />
		<tag k="ssr:stedsnr" v="264455" />
	</node>
	<node id="-188668" lat="59.8010722196" lon="10.1912083298">
		<tag k="fixme" v="consider natural=peak for the most distinct mountains in the district" />
		<tag k="name" v="Brann" />
		<tag k="natural" v="hill" />
		<tag k="place" v="locality" />
		<tag k="ssr:stedsnr" v="748718" />
	</node>
	<node id="-188155" lat="59.81134444" lon="10.1124055609">
		<tag k="name" v="Vakkertjernheia" />
		<tag k="natural" v="hill" />
		<tag k="place" v="locality" />
		<tag k="ssr:stedsnr" v="264448" />
	</node>
	<node id="-188153" lat="59.8367000041" lon="10.1980666646">
		<tag k="fixme" v="consider natural=peak for the most distinct mountains in the district" />
		<tag k="name" v="Dambekkåsen" />
		<tag k="natural" v="hill" />
		<tag k="place" v="locality" />
		<tag k="ssr:stedsnr" v="264418" />
	</node>
	<node id="-188663" lat="59.9484055572" lon="10.2420166601">
		<tag k="name" v="Kluften" />
		<tag k="natural" v="valley" />
		<tag k="place" v="locality" />
		<tag k="ssr:stedsnr" v="749635" />
	</node>
	<node id="-187638" lat="59.785086111" lon="10.3095361084">
		<tag k="alt_name" v="Børkusåsen" />
		<tag k="fixme" v="consider natural=peak for the most distinct mountains in the district" />
		<tag k="name" v="Borkhusåsen" />
		<tag k="natural" v="hill" />
		<tag k="place" v="locality" />
		<tag k="ssr:stedsnr" v="307169" />
	</node>
	<node id="-188659" lat="59.8733833309" lon="10.0903999927">
		<tag k="fixme" v="consider natural=peak for the most distinct mountains in the district" />
		<tag k="name" v="Korpåsen" />
		<tag k="natural" v="hill" />
		<tag k="place" v="locality" />
		<tag k="ssr:stedsnr" v="733477" />
	</node>
	<node id="-188146" lat="59.8354166709" lon="10.2966444369">
		<tag k="fixme" v="consider natural=peak for the most distinct mountains in the district" />
		<tag k="name" v="Rotuåsen" />
		<tag k="natural" v="hill" />
		<tag k="place" v="locality" />
		<tag k="ssr:stedsnr" v="264111" />
	</node>
	<node id="-188656" lat="59.9259805581" lon="10.2537500088">
		<tag k="name" v="Bollen" />
		<tag k="natural" v="hill" />
		<tag k="place" v="locality" />
		<tag k="ssr:stedsnr" v="732459" />
	</node>
	<node id="-188143" lat="59.8518222236" lon="10.3099944456">
		<tag k="alt_name" v="Tangane" />
		<tag k="fixme" v="consider natural=peak for the most distinct mountains in the district" />
		<tag k="name" v="Tangene" />
		<tag k="natural" v="hill" />
		<tag k="place" v="locality" />
		<tag k="ssr:stedsnr" v="264093" />
	</node>
	<node id="-188141" lat="59.8261111077" lon="10.313697224">
		<tag k="name" v="Grøstaddalsberget" />
		<tag k="natural" v="ridge" />
		<tag k="place" v="locality" />
		<tag k="ssr:stedsnr" v="264046" />
	</node>
	<node id="-188649" lat="59.9150222196" lon="10.2905833355">
		<tag k="fixme" v="consider natural=peak for the most distinct mountains in the district" />
		<tag k="name" v="Brekkeåsen" />
		<tag k="natural" v="hill" />
		<tag k="place" v="locality" />
		<tag k="ssr:stedsnr" v="732430" />
	</node>
	<node id="-188133" lat="59.9315111071" lon="10.2169361039">
		<tag k="alt_name" v="Enhesthaugane" />
		<tag k="name" v="Endeløshaugen" />
		<tag k="natural" v="ridge" />
		<tag k="place" v="locality" />
		<tag k="ssr:stedsnr" v="247400" />
	</node>
	<node id="-187699" lat="59.8689527805" lon="10.3027861146">
		<tag k="alt_name" v="Steinbråten" />
		<tag k="name" v="Steinbråtan" />
		<tag k="natural" v="hill" />
		<tag k="place" v="locality" />
		<tag k="ssr:stedsnr" v="325897" />
	</node>
	<node id="-188879" lat="59.9400583329" lon="10.2183138915">
		<tag k="name" v="Smørseterdalen" />
		<tag k="natural" v="valley" />
		<tag k="place" v="locality" />
		<tag k="ssr:stedsnr" v="871607" />
	</node>
	<node id="-188120" lat="59.9355249959" lon="10.1513916624">
		<tag k="fixme" v="consider natural=peak for the most distinct mountains in the district" />
		<tag k="name" v="Tverråsen" />
		<tag k="natural" v="hill" />
		<tag k="place" v="locality" />
		<tag k="ssr:stedsnr" v="246378" />
	</node>
	<node id="-188964" lat="59.9591722217" lon="10.2314777867">
		<tag k="fixme" v="consider natural=peak for the most distinct mountains in the district" />
		<tag k="name" v="Grasåsen" />
		<tag k="natural" v="hill" />
		<tag k="place" v="locality" />
		<tag k="ssr:stedsnr" v="932599" />
	</node>
	<node id="-188118" lat="59.8961527758" lon="10.1488888804">
		<tag k="fixme" v="consider natural=peak for the most distinct mountains in the district" />
		<tag k="name" v="Kardåsen" />
		<tag k="natural" v="hill" />
		<tag k="place" v="locality" />
		<tag k="ssr:stedsnr" v="246318" />
	</node>
	<node id="-187869" lat="59.8610524159" lon="10.1256807491">
		<tag k="fixme" v="consider natural=peak for the most distinct mountains in the district" />
		<tag k="name" v="Seteråsen" />
		<tag k="natural" v="hill" />
		<tag k="place" v="locality" />
		<tag k="ssr:stedsnr" v="21477" />
	</node>
	<node id="-188108" lat="59.9124972247" lon="10.339305556">
		<tag k="name" v="Hitomdit" />
		<tag k="natural" v="hill" />
		<tag k="place" v="locality" />
		<tag k="ssr:stedsnr" v="204875" />
	</node>
	<node id="-188706" lat="59.9463916701" lon="10.3454305507">
		<tag k="name" v="Langmyrdalen" />
		<tag k="natural" v="valley" />
		<tag k="place" v="locality" />
		<tag k="ssr:stedsnr" v="750577" />
	</node>
	<node id="-188615" lat="59.7677222186" lon="10.3058888914">
		<tag k="fixme" v="consider natural=peak for the most distinct mountains in the district" />
		<tag k="name" v="Sørumåsen" />
		<tag k="natural" v="hill" />
		<tag k="old_name" v="Sørumsåsen" />
		<tag k="place" v="locality" />
		<tag k="ssr:stedsnr" v="731146" />
	</node>
	<node id="-188100" lat="59.9524083346" lon="10.2613388957">
		<tag k="fixme" v="consider natural=peak for the most distinct mountains in the district" />
		<tag k="name" v="Siljuåsen" />
		<tag k="natural" v="hill" />
		<tag k="place" v="locality" />
		<tag k="ssr:stedsnr" v="204571" />
	</node>
	<node id="-188098" lat="59.9341277742" lon="10.2497527712">
		<tag k="alt_name" v="Røinehaugen" />
		<tag k="name" v="Røynehaugen" />
		<tag k="natural" v="hill" />
		<tag k="place" v="locality" />
		<tag k="ssr:stedsnr" v="204483" />
	</node>
	<node id="-188619" lat="59.8928388877" lon="10.1866555606">
		<tag k="fixme" v="consider natural=peak for the most distinct mountains in the district" />
		<tag k="name" v="Gjevlekollen" />
		<tag k="natural" v="hill" />
		<tag k="place" v="locality" />
		<tag k="ssr:stedsnr" v="731283" />
	</node>
	<node id="-188096" lat="59.9280722227" lon="10.3454944421">
		<tag k="name" v="Bringebærkastet" />
		<tag k="natural" v="slope" />
		<tag k="place" v="locality" />
		<tag k="ssr:stedsnr" v="204920" />
	</node>
	<node id="-188095" lat="59.9501583376" lon="10.3449555544">
		<tag k="fixme" v="consider natural=peak for the most distinct mountains in the district" />
		<tag k="name" v="Hulderåsen" />
		<tag k="natural" v="hill" />
		<tag k="place" v="locality" />
		<tag k="ssr:stedsnr" v="204253" />
	</node>
	<node id="-188092" lat="59.865838892" lon="10.3104055532">
		<tag k="name" v="Klippedalen" />
		<tag k="natural" v="valley" />
		<tag k="place" v="locality" />
		<tag k="ssr:stedsnr" v="203933" />
	</node>
	<node id="-188603" lat="59.9221138885" lon="10.1288805513">
		<tag k="name" v="Valsstuen" />
		<tag k="natural" v="valley" />
		<tag k="place" v="locality" />
		<tag k="ssr:stedsnr" v="690741" />
	</node>
	<node id="-188089" lat="59.8545388845" lon="10.3008750007">
		<tag k="name" v="Folaberga" />
		<tag k="natural" v="hill" />
		<tag k="place" v="locality" />
		<tag k="ssr:stedsnr" v="203896" />
	</node>
	<node id="-188598" lat="59.8639777782" lon="10.326869452">
		<tag k="fixme" v="consider natural=peak for the most distinct mountains in the district" />
		<tag k="name" v="Vassåsen" />
		<tag k="natural" v="hill" />
		<tag k="place" v="locality" />
		<tag k="ssr:stedsnr" v="689964" />
	</node>
	<node id="-188080" lat="59.7794555596" lon="10.3182388805">
		<tag k="fixme" v="consider natural=peak for the most distinct mountains in the district" />
		<tag k="name" v="Klunken" />
		<tag k="natural" v="hill" />
		<tag k="place" v="locality" />
		<tag k="ssr:stedsnr" v="203610" />
	</node>
	<node id="-188079" lat="59.8321583345" lon="10.1601694513">
		<tag k="fixme" v="consider natural=peak for the most distinct mountains in the district" />
		<tag k="name" v="Kleggern" />
		<tag k="natural" v="hill" />
		<tag k="place" v="locality" />
		<tag k="ssr:stedsnr" v="203446" />
	</node>
	<node id="-188590" lat="59.9656416647" lon="10.257163897">
		<tag k="fixme" v="consider natural=peak for the most distinct mountains in the district" />
		<tag k="name" v="Haukedalsåsen" />
		<tag k="natural" v="hill" />
		<tag k="place" v="locality" />
		<tag k="ssr:stedsnr" v="689705" />
	</node>
	<node id="-188486" lat="59.8853388889" lon="10.3464222202">
		<tag k="name" v="Midtengerbonn" />
		<tag k="natural" v="valley" />
		<tag k="place" v="locality" />
		<tag k="ssr:stedsnr" v="628282" />
	</node>
	<node id="-188585" lat="59.9542027809" lon="10.2734805486">
		<tag k="name" v="Fuglestokka" />
		<tag k="natural" v="slope" />
		<tag k="place" v="locality" />
		<tag k="ssr:stedsnr" v="689559" />
	</node>
	<node id="-188071" lat="59.8597388933" lon="10.1880444485">
		<tag k="fixme" v="consider natural=peak for the most distinct mountains in the district" />
		<tag k="name" v="Jonsrudåsen" />
		<tag k="natural" v="hill" />
		<tag k="place" v="locality" />
		<tag k="ssr:stedsnr" v="203274" />
	</node>
	<node id="-188582" lat="59.898605559" lon="10.3459694463">
		<tag k="name" v="Toppenhaug" />
		<tag k="natural" v="hill" />
		<tag k="place" v="locality" />
		<tag k="ssr:stedsnr" v="689529" />
	</node>
	<node id="-188581" lat="59.9034305543" lon="10.1507499997">
		<tag k="fixme" v="consider natural=peak for the most distinct mountains in the district" />
		<tag k="loc_name" v="Damvannsåsen" />
		<tag k="name" v="Damvassåsen" />
		<tag k="natural" v="hill" />
		<tag k="place" v="locality" />
		<tag k="ssr:stedsnr" v="689497" />
	</node>
	<node id="-188870" lat="59.8293277742" lon="10.1312805627">
		<tag k="fixme" v="consider natural=peak for the most distinct mountains in the district" />
		<tag k="name" v="Vallevollåsen" />
		<tag k="natural" v="hill" />
		<tag k="place" v="locality" />
		<tag k="ssr:stedsnr" v="871434" />
	</node>
	<node id="-188064" lat="59.8690277795" lon="10.1266305522">
		<tag k="name" v="Svenskehaugene" />
		<tag k="natural" v="hill" />
		<tag k="place" v="locality" />
		<tag k="ssr:stedsnr" v="203005" />
	</node>
	<node id="-188055" lat="59.9138388851" lon="10.2542777718">
		<tag k="name" v="Svenskehaugen" />
		<tag k="natural" v="hill" />
		<tag k="place" v="locality" />
		<tag k="ssr:stedsnr" v="186461" />
	</node>
	<node id="-188054" lat="59.922713888" lon="10.2384722174">
		<tag k="fixme" v="consider natural=peak for the most distinct mountains in the district" />
		<tag k="name" v="Gruveåsen" />
		<tag k="natural" v="hill" />
		<tag k="place" v="locality" />
		<tag k="ssr:stedsnr" v="186457" />
	</node>
	<node id="-188566" lat="59.8905444478" lon="10.0950999958">
		<tag k="name" v="Trollmyrhaugen" />
		<tag k="natural" v="hill" />
		<tag k="place" v="locality" />
		<tag k="ssr:stedsnr" v="689030" />
	</node>
	<node id="-188583" lat="59.9126000033" lon="10.367938889">
		<tag k="fixme" v="consider natural=peak for the most distinct mountains in the district" />
		<tag k="name" v="Furubrenna" />
		<tag k="natural" v="hill" />
		<tag k="place" v="locality" />
		<tag k="ssr:stedsnr" v="689530" />
	</node>
	<node id="-187843" lat="59.7999750006" lon="10.1963749928">
		<tag k="name" v="Torshaugen" />
		<tag k="natural" v="hill" />
		<tag k="place" v="locality" />
		<tag k="ssr:stedsnr" v="20721" />
	</node>
	<node id="-188696" lat="59.9625944406" lon="10.2589555592">
		<tag k="name" v="Furumoen" />
		<tag k="place" v="locality" />
		<tag k="ssr:stedsnr" v="749774" />
	</node>
	<node id="-188557" lat="59.8801000023" lon="10.1754861199">
		<tag k="fixme" v="consider natural=peak for the most distinct mountains in the district" />
		<tag k="name" v="Lurtopp" />
		<tag k="natural" v="hill" />
		<tag k="place" v="locality" />
		<tag k="ssr:stedsnr" v="672341" />
	</node>
	<node id="-188556" lat="59.8878305579" lon="10.0913222218">
		<tag k="fixme" v="consider natural=peak for the most distinct mountains in the district" />
		<tag k="name" v="Elgtjernsbrenna" />
		<tag k="natural" v="hill" />
		<tag k="place" v="locality" />
		<tag k="ssr:stedsnr" v="672335" />
	</node>
	<node id="-188551" lat="59.9346722232" lon="10.3528583339">
		<tag k="alt_name" v="Brennhogget" />
		<tag k="fixme" v="consider natural=peak for the most distinct mountains in the district" />
		<tag k="name" v="Brennhoggfjellet" />
		<tag k="natural" v="hill" />
		<tag k="place" v="locality" />
		<tag k="ssr:stedsnr" v="671975" />
	</node>
	<node id="-187755" lat="59.8238749959" lon="10.3000888873">
		<tag k="name" v="Grøstadmarka" />
		<tag k="natural" v="hill" />
		<tag k="old_name" v="Grøstadmarken" />
		<tag k="place" v="locality" />
		<tag k="ssr:stedsnr" v="385055" />
	</node>
	<node id="-188543" lat="59.9467416635" lon="10.3330055529">
		<tag k="name" v="Tverrbergkastet" />
		<tag k="natural" v="cliff" />
		<tag k="ssr:stedsnr" v="671368" />
	</node>
	<node id="-188026" lat="59.8469607911" lon="10.127668713">
		<tag k="name" v="Kapiteldalen" />
		<tag k="natural" v="valley" />
		<tag k="place" v="locality" />
		<tag k="ssr:stedsnr" v="143905" />
	</node>
	<node id="-188024" lat="59.905213891" lon="10.3407472161">
		<tag k="name" v="Husdalen" />
		<tag k="natural" v="valley" />
		<tag k="place" v="locality" />
		<tag k="ssr:stedsnr" v="143559" />
	</node>
	<node id="-188023" lat="59.7588249999" lon="10.214122229">
		<tag k="fixme" v="consider natural=peak for the most distinct mountains in the district" />
		<tag k="name" v="Stoppenåsen" />
		<tag k="natural" v="hill" />
		<tag k="place" v="locality" />
		<tag k="ssr:stedsnr" v="142884" />
	</node>
	<node id="-188022" lat="59.9402166696" lon="10.1185027729">
		<tag k="fixme" v="consider natural=peak for the most distinct mountains in the district" />
		<tag k="name" v="Tomåsen" />
		<tag k="natural" v="hill" />
		<tag k="place" v="locality" />
		<tag k="ssr:stedsnr" v="142937" />
	</node>
	<node id="-188021" lat="59.9218749984" lon="10.1353249963">
		<tag k="name" v="Eftasmyrhaugen" />
		<tag k="natural" v="hill" />
		<tag k="place" v="locality" />
		<tag k="ssr:stedsnr" v="142928" />
	</node>
	<node id="-188018" lat="59.9536777744" lon="10.2573138961">
		<tag k="fixme" v="consider natural=peak for the most distinct mountains in the district" />
		<tag k="name" v="Siljuåsen" />
		<tag k="natural" v="hill" />
		<tag k="place" v="locality" />
		<tag k="ssr:stedsnr" v="142620" />
	</node>
	<node id="-188017" lat="59.911611114" lon="10.25716667">
		<tag k="name" v="Ollehaugen" />
		<tag k="natural" v="hill" />
		<tag k="place" v="locality" />
		<tag k="ssr:stedsnr" v="142511" />
	</node>
	<node id="-188015" lat="59.8492722225" lon="10.1940444531">
		<tag k="name" v="Trollhaugen" />
		<tag k="natural" v="hill" />
		<tag k="place" v="locality" />
		<tag k="ssr:stedsnr" v="142406" />
	</node>
	<node id="-188013" lat="59.8678277815" lon="10.1665999918">
		<tag k="fixme" v="consider natural=peak for the most distinct mountains in the district" />
		<tag k="name" v="Sporhaugane" />
		<tag k="natural" v="hill" />
		<tag k="place" v="locality" />
		<tag k="ssr:stedsnr" v="142255" />
	</node>
	<node id="-188522" lat="59.8254750039" lon="10.159355552">
		<tag k="fixme" v="consider natural=peak for the most distinct mountains in the district" />
		<tag k="name" v="Storkollen" />
		<tag k="natural" v="hill" />
		<tag k="place" v="locality" />
		<tag k="ssr:stedsnr" v="671207" />
	</node>
	<node id="-188006" lat="59.8869638917" lon="10.1332222247">
		<tag k="name" v="Brenneriet" />
		<tag k="natural" v="hill" />
		<tag k="place" v="locality" />
		<tag k="ssr:stedsnr" v="142048" />
	</node>
	<node id="-188689" lat="59.9365055585" lon="10.2092750001">
		<tag k="name" v="Festningen" />
		<tag k="natural" v="slope" />
		<tag k="place" v="locality" />
		<tag k="ssr:stedsnr" v="749529" />
	</node>
	<node id="-188516" lat="59.9201666655" lon="10.3560250082">
		<tag k="name" v="Seterbakken" />
		<tag k="natural" v="slope" />
		<tag k="place" v="locality" />
		<tag k="ssr:stedsnr" v="629941" />
	</node>
	<node id="-188515" lat="59.9210666644" lon="10.3574611067">
		<tag k="name" v="Kvisebonn" />
		<tag k="natural" v="valley" />
		<tag k="place" v="locality" />
		<tag k="ssr:stedsnr" v="629940" />
	</node>
	<node id="-188514" lat="59.9216861114" lon="10.3347499953">
		<tag k="name" v="Svarteberget" />
		<tag k="natural" v="slope" />
		<tag k="place" v="locality" />
		<tag k="ssr:stedsnr" v="629938" />
	</node>
	<node id="-188803" lat="59.9377611087" lon="10.3359361139">
		<tag k="alt_name" v="Dypdalen" />
		<tag k="name" v="Djupdalen" />
		<tag k="natural" v="gorge" />
		<tag k="ssr:stedsnr" v="811583" />
	</node>
	<node id="-188512" lat="59.8623027795" lon="10.3246944514">
		<tag k="name" v="Bøgapet" />
		<tag k="place" v="locality" />
		<tag k="ssr:stedsnr" v="628947" />
	</node>
	<node id="-187664" lat="59.7933333315" lon="10.3156138882">
		<tag k="fixme" v="consider natural=peak for the most distinct mountains in the district" />
		<tag k="name" v="Lyfjell" />
		<tag k="natural" v="hill" />
		<tag k="place" v="locality" />
		<tag k="ssr:stedsnr" v="324673" />
	</node>
	<node id="-188510" lat="59.8548583341" lon="10.2883305612">
		<tag k="alt_name" v="Opsalkleiva" />
		<tag k="name" v="Oppsalkleiva" />
		<tag k="natural" v="slope" />
		<tag k="place" v="locality" />
		<tag k="ssr:stedsnr" v="628898" />
	</node>
	<node id="-187997" lat="59.9242138895" lon="10.3688972191">
		<tag k="name" v="Damefallet" />
		<tag k="place" v="locality" />
		<tag k="ssr:stedsnr" v="125952" />
	</node>
	<node id="-187834" lat="59.8922694445" lon="10.3464166742">
		<tag k="fixme" v="consider natural=peak for the most distinct mountains in the district" />
		<tag k="name" v="Engerbrenna" />
		<tag k="natural" v="hill" />
		<tag k="place" v="locality" />
		<tag k="ssr:stedsnr" v="4884" />
	</node>
	<node id="-188506" lat="59.9641222183" lon="10.2364722262">
		<tag k="fixme" v="consider natural=peak for the most distinct mountains in the district" />
		<tag k="name" v="Tjernsåsen" />
		<tag k="natural" v="hill" />
		<tag k="place" v="locality" />
		<tag k="ssr:stedsnr" v="628724" />
	</node>
	<node id="-187993" lat="59.9005055527" lon="10.1873888882">
		<tag k="name" v="Borkebrenna" />
		<tag k="natural" v="hill" />
		<tag k="place" v="locality" />
		<tag k="ssr:stedsnr" v="125352" />
	</node>
	<node id="-187748" lat="59.8425833321" lon="10.287047224">
		<tag k="name" v="Myssmørkleiva" />
		<tag k="natural" v="valley" />
		<tag k="place" v="locality" />
		<tag k="ssr:stedsnr" v="385130" />
	</node>
	<node id="-188502" lat="59.8823472255" lon="10.3065805588">
		<tag k="name" v="Tveitebakken" />
		<tag k="natural" v="slope" />
		<tag k="place" v="locality" />
		<tag k="ssr:stedsnr" v="628679" />
	</node>
	<node id="-188501" lat="59.7780000019" lon="10.1693888945">
		<tag k="fixme" v="consider natural=peak for the most distinct mountains in the district" />
		<tag k="name" v="Veslehei" />
		<tag k="natural" v="hill" />
		<tag k="place" v="locality" />
		<tag k="ssr:stedsnr" v="628650" />
	</node>
	<node id="-188497" lat="59.9561805555" lon="10.3445388805">
		<tag k="name" v="Brekoll" />
		<tag k="natural" v="hill" />
		<tag k="place" v="locality" />
		<tag k="ssr:stedsnr" v="628567" />
	</node>
	<node id="-188888" lat="59.8589027751" lon="10.3150277709">
		<tag k="alt_name" v="Opsalhaugbånn" />
		<tag k="loc_name" v="Opsalhaugbonn" />
		<tag k="name" v="Oppsalhaugbonn" />
		<tag k="natural" v="slope" />
		<tag k="place" v="locality" />
		<tag k="ssr:stedsnr" v="871871" />
	</node>
	<node id="-188683" lat="59.8888694479" lon="10.1584611084">
		<tag k="alt_name" v="Svartvassholen" />
		<tag k="fixme" v="consider natural=peak for the most distinct mountains in the district" />
		<tag k="name" v="Svartvannsholen" />
		<tag k="natural" v="hill" />
		<tag k="place" v="locality" />
		<tag k="ssr:stedsnr" v="749276" />
	</node>
	<node id="-187980" lat="59.9357861136" lon="10.24780556">
		<tag k="name" v="Høgbråtan" />
		<tag k="natural" v="hill" />
		<tag k="place" v="locality" />
		<tag k="ssr:stedsnr" v="125402" />
	</node>
	<node id="-188490" lat="59.9521333303" lon="10.3443972135">
		<tag k="fixme" v="consider natural=peak for the most distinct mountains in the district" />
		<tag k="name" v="Korpåsen" />
		<tag k="natural" v="hill" />
		<tag k="place" v="locality" />
		<tag k="ssr:stedsnr" v="628290" />
	</node>
	<node id="-188488" lat="59.8683527812" lon="10.2681277727">
		<tag k="name" v="Byttingen" />
		<tag k="natural" v="valley" />
		<tag k="place" v="locality" />
		<tag k="ssr:stedsnr" v="628287" />
	</node>
	<node id="-187660" lat="59.8894305543" lon="10.1209250041">
		<tag k="alt_name" v="Kløftetangane" />
		<tag k="name" v="Kluftetangene" />
		<tag k="place" v="locality" />
		<tag k="ssr:stedsnr" v="308347" />
	</node>
	<node id="-187974" lat="59.8395666707" lon="10.2815916698">
		<tag k="fixme" v="consider natural=peak for the most distinct mountains in the district" />
		<tag k="name" v="Glasåsen" />
		<tag k="natural" v="hill" />
		<tag k="place" v="locality" />
		<tag k="ssr:stedsnr" v="125306" />
	</node>
	<node id="-188513" lat="59.9089944438" lon="10.3471916601">
		<tag k="name" v="Bakkebonn" />
		<tag k="natural" v="valley" />
		<tag k="place" v="locality" />
		<tag k="ssr:stedsnr" v="629889" />
	</node>
	<node id="-187970" lat="59.9265166672" lon="10.3711527721">
		<tag k="name" v="Buråsen" />
		<tag k="natural" v="hill" />
		<tag k="place" v="locality" />
		<tag k="ssr:stedsnr" v="83923" />
	</node>
	<node id="-187969" lat="59.9106027745" lon="10.2705527774">
		<tag k="name" v="Bjørneleina" />
		<tag k="natural" v="valley" />
		<tag k="place" v="locality" />
		<tag k="ssr:stedsnr" v="83711" />
	</node>
	<node id="-187965" lat="59.883588893" lon="10.3490500055">
		<tag k="fixme" v="consider natural=peak for the most distinct mountains in the district" />
		<tag k="name" v="Lågbrenna" />
		<tag k="natural" v="hill" />
		<tag k="place" v="locality" />
		<tag k="ssr:stedsnr" v="83288" />
	</node>
	<node id="-187964" lat="59.8866527737" lon="10.3232250055">
		<tag k="name" v="Buttedalsholen" />
		<tag k="natural" v="valley" />
		<tag k="place" v="locality" />
		<tag k="ssr:stedsnr" v="83287" />
	</node>
	<node id="-188475" lat="59.855711108" lon="10.0741944375">
		<tag k="name" v="Gampedalen" />
		<tag k="natural" v="valley" />
		<tag k="place" v="locality" />
		<tag k="ssr:stedsnr" v="628023" />
	</node>
	<node id="-188474" lat="59.8700972217" lon="10.1311277814">
		<tag k="name" v="Mastedalen" />
		<tag k="natural" v="valley" />
		<tag k="place" v="locality" />
		<tag k="ssr:stedsnr" v="628024" />
	</node>
	<node id="-188511" lat="59.9254166709" lon="10.1231888881">
		<tag k="name" v="Hvalskollen" />
		<tag k="natural" v="hill" />
		<tag k="place" v="locality" />
		<tag k="ssr:stedsnr" v="628903" />
	</node>
	<node id="-188984" lat="59.9291472179" lon="10.3518472273">
		<tag k="name" v="Lindebergkleiva" />
		<tag k="natural" v="slope" />
		<tag k="place" v="locality" />
		<tag k="ssr:stedsnr" v="933936" />
	</node>
	<node id="-188983" lat="59.9356444418" lon="10.3474638859">
		<tag k="name" v="Djupdalsberga" />
		<tag k="natural" v="ridge" />
		<tag k="place" v="locality" />
		<tag k="ssr:stedsnr" v="933934" />
	</node>
	<node id="-187958" lat="59.9589333351" lon="10.192283325">
		<tag k="name" v="Hornsenka" />
		<tag k="natural" v="hill" />
		<tag k="place" v="locality" />
		<tag k="ssr:stedsnr" v="82672" />
	</node>
	<node id="-187957" lat="59.7751916666" lon="10.1730305471">
		<tag k="name" v="Kjerringræva" />
		<tag k="natural" v="valley" />
		<tag k="place" v="locality" />
		<tag k="ssr:stedsnr" v="82645" />
	</node>
	<node id="-187659" lat="59.9429055589" lon="10.3507277702">
		<tag k="fixme" v="consider natural=peak for the most distinct mountains in the district" />
		<tag k="name" v="Høgbrennåsen" />
		<tag k="natural" v="hill" />
		<tag k="place" v="locality" />
		<tag k="ssr:stedsnr" v="307979" />
	</node>
	<node id="-188969" lat="59.9165499974" lon="10.1374694381">
		<tag k="name" v="Kringlehølsstuen" />
		<tag k="natural" v="valley" />
		<tag k="place" v="locality" />
		<tag k="ssr:stedsnr" v="932667" />
	</node>
	<node id="-188453" lat="59.8590666698" lon="10.0944722167">
		<tag k="fixme" v="consider natural=peak for the most distinct mountains in the district" />
		<tag k="name" v="Gampåsen" />
		<tag k="natural" v="hill" />
		<tag k="place" v="locality" />
		<tag k="ssr:stedsnr" v="610305" />
	</node>
	<node id="-187940" lat="59.885699999" lon="10.1042749977">
		<tag k="fixme" v="consider natural=peak for the most distinct mountains in the district" />
		<tag k="name" v="Nyseterbrenna" />
		<tag k="natural" v="hill" />
		<tag k="place" v="locality" />
		<tag k="ssr:stedsnr" v="82027" />
	</node>
	<node id="-188963" lat="59.960272224" lon="10.2397333268">
		<tag k="fixme" v="consider natural=peak for the most distinct mountains in the district" />
		<tag k="name" v="Seteråsen" />
		<tag k="natural" v="hill" />
		<tag k="place" v="locality" />
		<tag k="ssr:stedsnr" v="932598" />
	</node>
	<node id="-188962" lat="59.7750805569" lon="10.3104805628">
		<tag k="name" v="Melkebakken" />
		<tag k="natural" v="slope" />
		<tag k="old_name" v="Mjelkebakken" />
		<tag k="place" v="locality" />
		<tag k="ssr:stedsnr" v="932567" />
	</node>
	<node id="-188961" lat="59.9341305581" lon="10.339038881">
		<tag k="name" v="Nygardsletta" />
		<tag k="place" v="locality" />
		<tag k="ssr:stedsnr" v="932550" />
	</node>
	<node id="-188959" lat="59.9257722221" lon="10.2073138864">
		<tag k="name" v="Seterkollen" />
		<tag k="natural" v="hill" />
		<tag k="place" v="locality" />
		<tag k="ssr:stedsnr" v="932513" />
	</node>
	<node id="-188958" lat="59.9104055571" lon="10.2248444364">
		<tag k="name" v="Dypedal" />
		<tag k="natural" v="valley" />
		<tag k="place" v="locality" />
		<tag k="ssr:stedsnr" v="932511" />
	</node>
	<node id="-188952" lat="59.8601666685" lon="10.1586111028">
		<tag k="fixme" v="consider natural=peak for the most distinct mountains in the district" />
		<tag k="name" v="Bjørnåsen" />
		<tag k="natural" v="hill" />
		<tag k="place" v="locality" />
		<tag k="ssr:stedsnr" v="932238" />
	</node>
	<node id="-188946" lat="59.8510472233" lon="10.3060444362">
		<tag k="name" v="Rotudalen" />
		<tag k="natural" v="valley" />
		<tag k="place" v="locality" />
		<tag k="ssr:stedsnr" v="932089" />
	</node>
	<node id="-188432" lat="59.9315972205" lon="10.3674333277">
		<tag k="name" v="Langbakken" />
		<tag k="natural" v="slope" />
		<tag k="place" v="locality" />
		<tag k="ssr:stedsnr" v="568578" />
	</node>
	<node id="-188431" lat="59.9220611088" lon="10.3726305604">
		<tag k="alt_name" v="Møllerbotten" />
		<tag k="name" v="Møllerbonn" />
		<tag k="natural" v="valley" />
		<tag k="place" v="locality" />
		<tag k="ssr:stedsnr" v="568541" />
	</node>
	<node id="-188430" lat="59.9478138864" lon="10.3436055506">
		<tag k="fixme" v="consider natural=peak for the most distinct mountains in the district" />
		<tag k="name" v="Langmyrhogget" />
		<tag k="natural" v="hill" />
		<tag k="place" v="locality" />
		<tag k="ssr:stedsnr" v="568296" />
	</node>
	<node id="-188429" lat="59.8872138859" lon="10.3487055555">
		<tag k="fixme" v="consider natural=peak for the most distinct mountains in the district" />
		<tag k="name" v="Høgbrenna" />
		<tag k="natural" v="hill" />
		<tag k="place" v="locality" />
		<tag k="ssr:stedsnr" v="568287" />
	</node>
	<node id="-188930" lat="59.868941666" lon="10.3063666692">
		<tag k="fixme" v="consider natural=peak for the most distinct mountains in the district" />
		<tag k="name" v="Furuåsen" />
		<tag k="natural" v="hill" />
		<tag k="place" v="locality" />
		<tag k="ssr:stedsnr" v="930177" />
	</node>
	<node id="-188426" lat="59.8736694404" lon="10.3067249977">
		<tag k="name" v="Bjønnekastet" />
		<tag k="natural" v="cliff" />
		<tag k="ssr:stedsnr" v="567934" />
	</node>
	<node id="-188422" lat="59.9610805567" lon="10.2467749997">
		<tag k="fixme" v="consider natural=peak for the most distinct mountains in the district" />
		<tag k="loc_name" v="Almedalsfjellet" />
		<tag k="name" v="Almdalsfjellet" />
		<tag k="natural" v="hill" />
		<tag k="place" v="locality" />
		<tag k="ssr:stedsnr" v="567732" />
	</node>
	<node id="-188421" lat="59.7921055525" lon="10.2018055505">
		<tag k="name" v="Saueberga" />
		<tag k="natural" v="hill" />
		<tag k="place" v="locality" />
		<tag k="ssr:stedsnr" v="567684" />
	</node>
	<node id="-188932" lat="59.8606277761" lon="10.0758166696">
		<tag k="name" v="Rabergrenna" />
		<tag k="natural" v="slope" />
		<tag k="place" v="locality" />
		<tag k="ssr:stedsnr" v="932027" />
	</node>
	<node id="-187906" lat="59.8379555583" lon="10.1771638855">
		<tag k="fixme" v="consider natural=peak for the most distinct mountains in the district" />
		<tag k="name" v="Overskylda" />
		<tag k="natural" v="hill" />
		<tag k="place" v="locality" />
		<tag k="ssr:stedsnr" v="65282" />
	</node>
	<node id="-187905" lat="59.8347638897" lon="10.2869694405">
		<tag k="fixme" v="consider natural=peak for the most distinct mountains in the district" />
		<tag k="name" v="Kraftkollen" />
		<tag k="natural" v="hill" />
		<tag k="place" v="locality" />
		<tag k="ssr:stedsnr" v="65270" />
	</node>
</osm>
