<?xml version="1.0" encoding="UTF-8"?>
<osm generator="osmapis" version="0.6">
	<node id="-187904" lat="59.8912555571" lon="10.331369442">
		<tag k="name" v="Midtskogen" />
		<tag k="place" v="locality" />
		<tag k="ssr:stedsnr" v="325307" />
	</node>
	<node id="-189012" lat="59.8636055557" lon="10.1699388875">
		<tag k="alt_name" v="Kastebonn" />
		<tag k="name" v="Kastebånn" />
		<tag k="place" v="locality" />
		<tag k="ssr:stedsnr" v="810252" />
	</node>
	<node id="-187892" lat="59.8140805551" lon="10.2937277723">
		<tag k="loc_name" v="Gabrielshagan" />
		<tag k="name" v="Gabrielshagen" />
		<tag k="place" v="locality" />
		<tag k="ssr:stedsnr" v="325031" />
	</node>
	<node id="-188400" lat="59.9542194408" lon="10.2456194389">
		<tag k="name" v="Hestemyr" />
		<tag k="natural" v="wetland" />
		<tag k="ssr:stedsnr" v="264616" />
	</node>
	<node id="-188393" lat="59.822686115" lon="10.1021805531">
		<tag k="name" v="Gråbeinmyra" />
		<tag k="natural" v="wetland" />
		<tag k="ssr:stedsnr" v="264447" />
	</node>
	<node id="-188871" lat="59.8477666703" lon="10.2940055569">
		<tag k="alt_name" v="Storemyr" />
		<tag k="name" v="Stormyr" />
		<tag k="natural" v="wetland" />
		<tag k="ssr:stedsnr" v="732312" />
	</node>
	<node id="-188860" lat="59.791055558" lon="10.3045111086">
		<tag k="name" v="Stormyr" />
		<tag k="natural" v="wetland" />
		<tag k="ssr:stedsnr" v="732140" />
	</node>
	<node id="-188344" lat="59.9639" lon="10.2571166738">
		<tag k="name" v="Sjursmyr" />
		<tag k="natural" v="wetland" />
		<tag k="ssr:stedsnr" v="204709" />
	</node>
	<node id="-188343" lat="59.9670805545" lon="10.2264194388">
		<tag k="name" v="Tømmermyr" />
		<tag k="natural" v="wetland" />
		<tag k="ssr:stedsnr" v="204707" />
	</node>
	<node id="-188342" lat="59.925119442" lon="10.243641662">
		<tag k="name" v="Sjursmyr" />
		<tag k="natural" v="wetland" />
		<tag k="ssr:stedsnr" v="204672" />
	</node>
	<node id="-188341" lat="59.9340111137" lon="10.2253944533">
		<tag k="name" v="Doplemyr" />
		<tag k="natural" v="wetland" />
		<tag k="ssr:stedsnr" v="204668" />
	</node>
	<node id="-188336" lat="59.9199944488" lon="10.2408888899">
		<tag k="name" v="Torgermyra" />
		<tag k="natural" v="wetland" />
		<tag k="ssr:stedsnr" v="204487" />
	</node>
	<node id="-188334" lat="59.9425638865" lon="10.2572000087">
		<tag k="name" v="Heggemyr" />
		<tag k="natural" v="wetland" />
		<tag k="ssr:stedsnr" v="204927" />
	</node>
	<node id="-188331" lat="59.8842777811" lon="10.3334694421">
		<tag k="name" v="Engermidtskogen" />
		<tag k="place" v="locality" />
		<tag k="ssr:stedsnr" v="204251" />
	</node>
	<node id="-188838" lat="59.9212916627" lon="10.3639666687">
		<tag k="name" v="Puttemyra" />
		<tag k="natural" v="wetland" />
		<tag k="ssr:stedsnr" v="690607" />
	</node>
	<node id="-188820" lat="59.7699793125" lon="10.3116800463">
		<tag k="alt_name" v="Tjennsløkka" />
		<tag k="name" v="Tjernsløkka" />
		<tag k="place" v="locality" />
		<tag k="ssr:stedsnr" v="689558" />
	</node>
	<node id="-188815" lat="59.8447666658" lon="10.1789194439">
		<tag k="name" v="Bakkesetra" />
		<tag k="place" v="locality" />
		<tag k="ssr:stedsnr" v="689411" />
	</node>
	<node id="-188297" lat="59.8356583345" lon="10.2881361117">
		<tag k="name" v="Hellene" />
		<tag k="natural" v="wetland" />
		<tag k="ssr:stedsnr" v="203135" />
	</node>
	<node id="-188797" lat="59.8065361132" lon="10.187077783">
		<tag k="name" v="Lunneplassen" />
		<tag k="place" v="locality" />
		<tag k="ssr:stedsnr" v="688705" />
	</node>
	<node id="-188796" lat="59.7956749991" lon="10.3122388858">
		<tag k="historic" v="shieling" />
		<tag k="name" v="Reistadvollen" />
		<tag k="place" v="locality" />
		<tag k="ssr:stedsnr" v="688684" />
	</node>
	<node id="-188283" lat="59.8400805568" lon="10.2433111193">
		<tag k="name" v="Larsenga" />
		<tag k="place" v="locality" />
		<tag k="ssr:stedsnr" v="186291" />
	</node>
	<node id="-188479" lat="59.7989694407" lon="10.326983337">
		<tag k="name" v="Kudalsmyr" />
		<tag k="natural" v="wetland" />
		<tag k="ssr:stedsnr" v="446571" />
	</node>
	<node id="-188786" lat="59.9231722205" lon="10.3727083329">
		<tag k="name" v="Rokkemyra" />
		<tag k="natural" v="wetland" />
		<tag k="ssr:stedsnr" v="671926" />
	</node>
	<node id="-188264" lat="59.905844443" lon="10.1673249979">
		<tag k="name" v="Brokomsmyr" />
		<tag k="natural" v="wetland" />
		<tag k="ssr:stedsnr" v="143929" />
	</node>
	<node id="-188262" lat="59.9322111131" lon="10.2196083375">
		<tag k="name" v="Langemyr" />
		<tag k="natural" v="wetland" />
		<tag k="ssr:stedsnr" v="143686" />
	</node>
	<node id="-188767" lat="59.7796444436" lon="10.3243277858">
		<tag k="alt_name" v="Åsmyra" />
		<tag k="name" v="Åsmyr" />
		<tag k="natural" v="wetland" />
		<tag k="ssr:stedsnr" v="671169" />
	</node>
	<node id="-188246" lat="59.8184083359" lon="10.2396194513">
		<tag k="landuse" v="quarry" />
		<tag k="name" v="Lyngåsåsen" />
		<tag k="ssr:stedsnr" v="142142" />
	</node>
	<node id="-188241" lat="59.8162027789" lon="10.2757722227">
		<tag k="name" v="Haugerudmyrene" />
		<tag k="natural" v="wetland" />
		<tag k="ssr:stedsnr" v="142059" />
	</node>
	<node id="-188744" lat="59.858569448" lon="10.3064666712">
		<tag k="fixme" v="multiple name tags, choose one and add the other to alt_name" />
		<tag k="historic" v="shieling" />
		<tag k="name" v="Haukelisetervollen;Haukelisetra" />
		<tag k="place" v="locality" />
		<tag k="ssr:stedsnr" v="628869" />
	</node>
	<node id="-188736" lat="59.9505861069" lon="10.2220861059">
		<tag k="name" v="Kalvekumyra" />
		<tag k="natural" v="wetland" />
		<tag k="ssr:stedsnr" v="628623" />
	</node>
	<node id="-188725" lat="59.8606666633" lon="10.262555563">
		<tag k="name" v="Gamle Rønningen" />
		<tag k="place" v="locality" />
		<tag k="ssr:stedsnr" v="628289" />
	</node>
	<node id="-188723" lat="59.8684472208" lon="10.2620750083">
		<tag k="name" v="Vamstadmyra" />
		<tag k="natural" v="wetland" />
		<tag k="ssr:stedsnr" v="628286" />
	</node>
	<node id="-188720" lat="59.8617333312" lon="10.1684694504">
		<tag k="name" v="Apalmyra" />
		<tag k="natural" v="wetland" />
		<tag k="ssr:stedsnr" v="628225" />
	</node>
	<node id="-188204" lat="59.9247611101" lon="10.3380249967">
		<tag k="landuse" v="meadow" />
		<tag k="name" v="Nordløkka" />
		<tag k="ssr:stedsnr" v="83584" />
	</node>
	<node id="-188203" lat="59.8595277807" lon="10.2651055542">
		<tag k="landuse" v="meadow" />
		<tag k="name" v="Åkerløkka" />
		<tag k="ssr:stedsnr" v="83290" />
	</node>
	<node id="-188712" lat="59.8123111138" lon="10.2997194362">
		<tag k="loc_name" v="Gjellebekkhagan" />
		<tag k="name" v="Gjellebekkhagen" />
		<tag k="place" v="locality" />
		<tag k="ssr:stedsnr" v="628036" />
	</node>
	<node id="-189217" lat="59.9342527811" lon="10.3640249914">
		<tag k="name" v="Tjæremyr" />
		<tag k="natural" v="wetland" />
		<tag k="ssr:stedsnr" v="933932" />
	</node>
	<node id="-189216" lat="59.8080638861" lon="10.2933222155">
		<tag k="name" v="Gjellebekk" />
		<tag k="place" v="locality" />
		<tag k="ssr:stedsnr" v="933102" />
	</node>
	<node id="-189213" lat="59.8715861123" lon="10.322116669">
		<tag k="landuse" v="meadow" />
		<tag k="name" v="Seterenga" />
		<tag k="ssr:stedsnr" v="932958" />
	</node>
	<node id="-189212" lat="59.8582083365" lon="10.1439194521">
		<tag k="name" v="Morgenmyr" />
		<tag k="natural" v="wetland" />
		<tag k="ssr:stedsnr" v="932910" />
	</node>
	<node id="-189207" lat="59.8459277817" lon="10.1517861102">
		<tag k="historic" v="shieling" />
		<tag k="name" v="Vikervollen" />
		<tag k="place" v="locality" />
		<tag k="ssr:stedsnr" v="932804" />
	</node>
	<node id="-189201" lat="59.9312555567" lon="10.1809861078">
		<tag k="name" v="Geithusmyra" />
		<tag k="natural" v="wetland" />
		<tag k="ssr:stedsnr" v="932640" />
	</node>
	<node id="-189200" lat="59.9233055547" lon="10.1962472226">
		<tag k="name" v="Kuntemyrene" />
		<tag k="natural" v="wetland" />
		<tag k="ssr:stedsnr" v="932641" />
	</node>
	<node id="-188686" lat="59.7476694405" lon="10.3003055566">
		<tag k="name" v="Kvernsletta" />
		<tag k="place" v="locality" />
		<tag k="ssr:stedsnr" v="609341" />
	</node>
	<node id="-188168" lat="59.9365555551" lon="10.3554666724">
		<tag k="name" v="Rødmyr" />
		<tag k="natural" v="wetland" />
		<tag k="ssr:stedsnr" v="65978" />
	</node>
	<node id="-188677" lat="59.8182250027" lon="10.1681583341">
		<tag k="historic" v="shieling" />
		<tag k="name" v="Justadvollen" />
		<tag k="place" v="locality" />
		<tag k="ssr:stedsnr" v="568917" />
	</node>
	<node id="-189188" lat="59.9424694428" lon="10.2740916673">
		<tag k="landuse" v="meadow" />
		<tag k="name" v="Engene" />
		<tag k="ssr:stedsnr" v="932292" />
	</node>
	<node id="-188674" lat="59.9078527791" lon="10.3287083333">
		<tag k="name" v="Skogsenga" />
		<tag k="place" v="locality" />
		<tag k="ssr:stedsnr" v="568892" />
	</node>
	<node id="-189182" lat="59.8436333361" lon="10.2920972294">
		<tag k="name" v="Vendemyr" />
		<tag k="natural" v="wetland" />
		<tag k="ssr:stedsnr" v="932091" />
	</node>
	<node id="-189170" lat="59.7986972181" lon="10.3366444428">
		<tag k="name" v="Ulvenmarka" />
		<tag k="place" v="locality" />
		<tag k="ssr:stedsnr" v="931581" />
	</node>
	<node id="-188656" lat="59.9588749973" lon="10.2427416752">
		<tag k="name" v="Hornsetermyra" />
		<tag k="natural" v="wetland" />
		<tag k="ssr:stedsnr" v="567615" />
	</node>
	<node id="-188655" lat="59.9475722212" lon="10.2242277789">
		<tag k="name" v="Furudamsmyra" />
		<tag k="natural" v="wetland" />
		<tag k="ssr:stedsnr" v="567601" />
	</node>
	<node id="-188137" lat="59.8548138873" lon="10.3314305546">
		<tag k="name" v="Sollimyra" />
		<tag k="natural" v="wetland" />
		<tag k="ssr:stedsnr" v="23961" />
	</node>
	<node id="-188136" lat="59.9210138894" lon="10.3743388914">
		<tag k="alt_name" v="Møllerbonnmyr" />
		<tag k="name" v="Møllerbonnmyra" />
		<tag k="natural" v="wetland" />
		<tag k="ssr:stedsnr" v="22937" />
	</node>
	<node id="-188645" lat="59.8160444455" lon="10.1038888932">
		<tag k="historic" v="shieling" />
		<tag k="name" v="Lisetervollen" />
		<tag k="place" v="locality" />
		<tag k="ssr:stedsnr" v="567442" />
	</node>
	<node id="-188132" lat="59.8280833357" lon="10.1356888956">
		<tag k="name" v="Stormyr" />
		<tag k="natural" v="wetland" />
		<tag k="ssr:stedsnr" v="22907" />
	</node>
	<node id="-188131" lat="59.8969999964" lon="10.3372861079">
		<tag k="name" v="Suterudmyrene" />
		<tag k="natural" v="wetland" />
		<tag k="ssr:stedsnr" v="22870" />
	</node>
	<node id="-188130" lat="59.8966277765" lon="10.3448138864">
		<tag k="name" v="Bergmyra" />
		<tag k="natural" v="wetland" />
		<tag k="ssr:stedsnr" v="22871" />
	</node>
	<node id="-188795" lat="59.7998916711" lon="10.3454416637">
		<tag k="name" v="Tørråsmyr" />
		<tag k="natural" v="wetland" />
		<tag k="ssr:stedsnr" v="688578" />
	</node>
	<node id="-188124" lat="59.8947083355" lon="10.3485694358">
		<tag k="name" v="Langmyr" />
		<tag k="natural" v="wetland" />
		<tag k="ssr:stedsnr" v="22275" />
	</node>
	<node id="-188120" lat="59.9280999975" lon="10.1329749969">
		<tag k="name" v="Slåttemyrene" />
		<tag k="natural" v="wetland" />
		<tag k="ssr:stedsnr" v="21915" />
	</node>
	<node id="-188116" lat="59.9561444471" lon="10.1909861193">
		<tag k="name" v="Kalvekumyra" />
		<tag k="natural" v="wetland" />
		<tag k="ssr:stedsnr" v="21704" />
	</node>
	<node id="-189139" lat="59.7962055543" lon="10.3010611103">
		<tag k="alt_name" v="Søvollen" />
		<tag k="historic" v="shieling" />
		<tag k="name" v="Sørvollen" />
		<tag k="place" v="locality" />
		<tag k="ssr:stedsnr" v="914133" />
	</node>
	<node id="-189116" lat="59.8069361153" lon="10.2903916583">
		<tag k="name" v="Hølaløkka" />
		<tag k="place" v="locality" />
		<tag k="ssr:stedsnr" v="871652" />
	</node>
	<node id="-188090" lat="59.837163889" lon="10.3368361065">
		<tag k="name" v="Bømyra" />
		<tag k="natural" v="wetland" />
		<tag k="ssr:stedsnr" v="21100" />
	</node>
	<node id="-189113" lat="59.773883337" lon="10.3125888918">
		<tag k="name" v="Sørummyra" />
		<tag k="natural" v="wetland" />
		<tag k="ssr:stedsnr" v="871574" />
	</node>
	<node id="-189111" lat="59.9147083323" lon="10.3463249936">
		<tag k="name" v="Lauvskauen" />
		<tag k="place" v="locality" />
		<tag k="ssr:stedsnr" v="871547" />
	</node>
	<node id="-188085" lat="59.8251888858" lon="10.2765944378">
		<tag k="name" v="Slåttebråtan" />
		<tag k="place" v="locality" />
		<tag k="ssr:stedsnr" v="21022" />
	</node>
	<node id="-188581" lat="59.9234027812" lon="10.2502972257">
		<tag k="name" v="Skustadmyr" />
		<tag k="natural" v="wetland" />
		<tag k="ssr:stedsnr" v="507708" />
	</node>
	<node id="-189080" lat="59.9363249988" lon="10.364619442">
		<tag k="name" v="Persmyra" />
		<tag k="natural" v="wetland" />
		<tag k="ssr:stedsnr" v="854953" />
	</node>
	<node id="-189078" lat="59.9080527808" lon="10.3512972257">
		<tag k="name" v="Blakkemyr" />
		<tag k="natural" v="wetland" />
		<tag k="ssr:stedsnr" v="854912" />
	</node>
	<node id="-188183" lat="59.8338194403" lon="10.3115722261">
		<tag k="name" v="Tømtehagan" />
		<tag k="place" v="locality" />
		<tag k="ssr:stedsnr" v="82102" />
	</node>
	<node id="-189060" lat="59.9671499976" lon="10.232597221">
		<tag k="name" v="Ringemyr" />
		<tag k="natural" v="wetland" />
		<tag k="ssr:stedsnr" v="853462" />
	</node>
	<node id="-188532" lat="59.8659527743" lon="10.1176888877">
		<tag k="name" v="Tranemyrene" />
		<tag k="natural" v="wetland" />
		<tag k="ssr:stedsnr" v="489310" />
	</node>
	<node id="-188017" lat="59.881544446" lon="10.3350027733">
		<tag k="name" v="Vendemyra" />
		<tag k="natural" v="wetland" />
		<tag k="ssr:stedsnr" v="385973" />
	</node>
	<node id="-189040" lat="59.9350305538" lon="10.2296888846">
		<tag k="name" v="Bjørnemyr" />
		<tag k="natural" v="wetland" />
		<tag k="ssr:stedsnr" v="811683" />
	</node>
	<node id="-188015" lat="59.7650638885" lon="10.1888805552">
		<tag k="name" v="Rosentorvmyra" />
		<tag k="natural" v="wetland" />
		<tag k="ssr:stedsnr" v="385919" />
	</node>
	<node id="-189030" lat="59.9580972237" lon="10.2007972294">
		<tag k="name" v="Sjutjernsmyrene" />
		<tag k="natural" v="wetland" />
		<tag k="ssr:stedsnr" v="810697" />
	</node>
	<node id="-188001" lat="59.9583749958" lon="10.2267305503">
		<tag k="name" v="Brentemyrene" />
		<tag k="natural" v="wetland" />
		<tag k="ssr:stedsnr" v="385648" />
	</node>
	<node id="-188506" lat="59.9389499988" lon="10.2310277754">
		<tag k="name" v="Hullbekkmyr" />
		<tag k="natural" v="wetland" />
		<tag k="ssr:stedsnr" v="447679" />
	</node>
	<node id="-188089" lat="59.8483777794" lon="10.3240694379">
		<tag k="name" v="Bømarka" />
		<tag k="place" v="locality" />
		<tag k="ssr:stedsnr" v="21098" />
	</node>
	<node id="-187988" lat="59.9103083332" lon="10.1848194479">
		<tag k="name" v="Dammyrene" />
		<tag k="natural" v="wetland" />
		<tag k="ssr:stedsnr" v="385531" />
	</node>
	<node id="-188496" lat="59.871097219" lon="10.3086138939">
		<tag k="historic" v="shieling" />
		<tag k="name" v="Nysetra" />
		<tag k="place" v="locality" />
		<tag k="ssr:stedsnr" v="446925" />
	</node>
	<node id="-188495" lat="59.8654444411" lon="10.2630444497">
		<tag k="name" v="Holtsmarkhagan" />
		<tag k="place" v="locality" />
		<tag k="ssr:stedsnr" v="446918" />
	</node>
	<node id="-189004" lat="59.8373194401" lon="10.3051805525">
		<tag k="name" v="Snareløkka" />
		<tag k="place" v="locality" />
		<tag k="ssr:stedsnr" v="810131" />
	</node>
	<node id="-188489" lat="59.9409666622" lon="10.1757000077">
		<tag k="name" v="Fallmyra" />
		<tag k="natural" v="wetland" />
		<tag k="ssr:stedsnr" v="446705" />
	</node>
	<node id="-188480" lat="59.9112777745" lon="10.371333332">
		<tag k="name" v="Fantebråtan" />
		<tag k="place" v="locality" />
		<tag k="ssr:stedsnr" v="446577" />
	</node>
	<node id="-187967" lat="59.916825003" lon="10.3719694394">
		<tag k="name" v="Lamyr" />
		<tag k="natural" v="wetland" />
		<tag k="ssr:stedsnr" v="368932" />
	</node>
	<node id="-188474" lat="59.8420361113" lon="10.0845194416">
		<tag k="name" v="Kuskallmyrene" />
		<tag k="natural" v="wetland" />
		<tag k="ssr:stedsnr" v="446442" />
	</node>
	<node id="-187939" lat="59.8111249989" lon="10.3342861024">
		<tag k="alt_name" v="Foksmyr" />
		<tag k="name" v="Foksmyra" />
		<tag k="natural" v="wetland" />
		<tag k="old_name" v="Foksmyren" />
		<tag k="ssr:stedsnr" v="367183" />
	</node>
	<node id="-187928" lat="59.8800611152" lon="10.3218416638">
		<tag k="name" v="Tveitmyra" />
		<tag k="natural" v="wetland" />
		<tag k="ssr:stedsnr" v="325961" />
	</node>
	<node id="-187925" lat="59.8666416672" lon="10.1076083325">
		<tag k="name" v="Grisemyr" />
		<tag k="natural" v="wetland" />
		<tag k="ssr:stedsnr" v="325917" />
	</node>
	<node id="-188948" lat="59.9169750018" lon="10.3643000055">
		<tag k="name" v="Furumyr" />
		<tag k="natural" v="wetland" />
		<tag k="ssr:stedsnr" v="750853" />
	</node>
	<node id="-187914" lat="59.9370861128" lon="10.1620444431">
		<tag k="name" v="Fugleleikmyra" />
		<tag k="natural" v="wetland" />
		<tag k="ssr:stedsnr" v="325665" />
	</node>
	<node id="-188935" lat="59.8558916637" lon="10.2946805606">
		<tag k="name" v="Sørsdalsmarka" />
		<tag k="place" v="locality" />
		<tag k="ssr:stedsnr" v="749898" />
	</node>
	<node id="-187909" lat="59.9117833307" lon="10.167080549">
		<tag k="name" v="Briskemyra" />
		<tag k="natural" v="wetland" />
		<tag k="ssr:stedsnr" v="325525" />
	</node>
	<node id="-188418" lat="59.897024998" lon="10.3393583332">
		<tag k="name" v="Suterudmyrene" />
		<tag k="natural" v="wetland" />
		<tag k="ssr:stedsnr" v="265586" />
	</node>
</osm>
