<?xml version="1.0" encoding="UTF-8"?>
<osm generator="osmapis" version="0.6">
	<node id="-188415" lat="59.9045611127" lon="10.1608416614">
		<tag k="name" v="Nedre Damtjern" />
		<tag k="natural" v="water" />
		<tag k="ssr:stedsnr" v="567520" />
	</node>
	<node id="-188414" lat="59.9337527764" lon="10.2119305497">
		<tag k="name" v="Svarttjern" />
		<tag k="natural" v="water" />
		<tag k="ssr:stedsnr" v="567516" />
	</node>
	<node id="-188411" lat="59.9316777769" lon="10.3001361073">
		<tag k="name" v="Dragbekken" />
		<tag k="ssr:stedsnr" v="567484" />
		<tag k="waterway" v="stream" />
	</node>
	<node id="-187898" lat="59.8601388845" lon="10.1106027826">
		<tag k="name" v="Lahølen" />
		<tag k="place" v="locality" />
		<tag k="ssr:stedsnr" v="22925" />
	</node>
	<node id="-187896" lat="59.9569666667" lon="10.2032333323">
		<tag k="name" v="Sjutjern" />
		<tag k="natural" v="water" />
		<tag k="ssr:stedsnr" v="22919" />
	</node>
	<node id="-187817" lat="59.8553749968" lon="10.1306916633">
		<tag k="name" v="Fløyten" />
		<tag k="place" v="locality" />
		<tag k="ssr:stedsnr" v="3233" />
	</node>
	<node id="-188916" lat="59.8577277782" lon="10.1144444362">
		<tag k="name" v="Glitra" />
		<tag k="ssr:stedsnr" v="914277" />
		<tag k="waterway" v="river" />
	</node>
	<node id="-187891" lat="59.9096249978" lon="10.2951222238">
		<tag k="name" v="Hørtevika" />
		<tag k="natural" v="bay" />
		<tag k="ssr:stedsnr" v="22697" />
	</node>
	<node id="-187890" lat="59.9023694484" lon="10.264605552">
		<tag k="name" v="Teigenbekken" />
		<tag k="ssr:stedsnr" v="22682" />
		<tag k="waterway" v="stream" />
	</node>
	<node id="-187889" lat="59.9285361136" lon="10.3514083368">
		<tag k="name" v="Bringebærbekken" />
		<tag k="ssr:stedsnr" v="22590" />
		<tag k="waterway" v="stream" />
	</node>
	<node id="-188907" lat="59.8427111086" lon="10.2458055604">
		<tag k="name" v="Lierelva" />
		<tag k="ssr:stedsnr" v="914162" />
		<tag k="waterway" v="river" />
	</node>
	<node id="-188441" lat="59.8695972253" lon="10.1176055489">
		<tag k="name" v="Tjurujelshølen" />
		<tag k="place" v="locality" />
		<tag k="ssr:stedsnr" v="568925" />
	</node>
	<node id="-188526" lat="59.8489388891" lon="10.0825666642">
		<tag k="name" v="Himmerikstjern" />
		<tag k="natural" v="water" />
		<tag k="ssr:stedsnr" v="671260" />
	</node>
	<node id="-188385" lat="59.8291555548" lon="10.1487027856">
		<tag k="name" v="Ormetjern" />
		<tag k="natural" v="water" />
		<tag k="ssr:stedsnr" v="550499" />
	</node>
	<node id="-188895" lat="59.7922416699" lon="10.2299805561">
		<tag k="name" v="Berfløtbekken" />
		<tag k="ssr:stedsnr" v="872867" />
		<tag k="waterway" v="stream" />
	</node>
	<node id="-187870" lat="59.8129777734" lon="10.1200388831">
		<tag k="name" v="Vakkertjernsbekken" />
		<tag k="ssr:stedsnr" v="21500" />
		<tag k="waterway" v="stream" />
	</node>
	<node id="-187868" lat="59.8331194453" lon="10.2064083263">
		<tag k="name" v="Øksnebekken" />
		<tag k="ssr:stedsnr" v="21455" />
		<tag k="waterway" v="stream" />
	</node>
	<node id="-188378" lat="59.9032707965" lon="10.1243305759">
		<tag k="alt_name" v="Søndre Sneisa" />
		<tag k="name" v="Sørsneisa" />
		<tag k="natural" v="water" />
		<tag k="old_name" v="S Snejsa" />
		<tag k="ssr:stedsnr" v="550327" />
		<tag k="water" v="lake" />
	</node>
	<node id="-188377" lat="59.9019777818" lon="10.1386916706">
		<tag k="alt_name" v="Kroktjernet" />
		<tag k="name" v="Kroktjern" />
		<tag k="natural" v="water" />
		<tag k="ssr:stedsnr" v="550313" />
	</node>
	<node id="-188886" lat="59.8643138864" lon="10.2107916678">
		<tag k="name" v="Stampebekken" />
		<tag k="ssr:stedsnr" v="871791" />
		<tag k="waterway" v="stream" />
	</node>
	<node id="-188371" lat="59.7999416659" lon="10.1433972211">
		<tag k="alt_name" v="Skimtvannet" />
		<tag k="name" v="Skimten" />
		<tag k="natural" v="water" />
		<tag k="ssr:stedsnr" v="550143" />
	</node>
	<node id="-188882" lat="59.9469722261" lon="10.2001666587">
		<tag k="name" v="Skustadsetertjern" />
		<tag k="natural" v="water" />
		<tag k="ssr:stedsnr" v="871662" />
	</node>
	<node id="-188362" lat="59.8114722184" lon="10.21406666">
		<tag k="name" v="Sogna" />
		<tag k="ssr:stedsnr" v="549208" />
		<tag k="waterway" v="stream" />
	</node>
	<node id="-187849" lat="59.873586114" lon="10.0825749942">
		<tag k="name" v="Elgtjernsbekken" />
		<tag k="ssr:stedsnr" v="21025" />
		<tag k="waterway" v="stream" />
	</node>
	<node id="-188871" lat="59.9122583367" lon="10.1573861185">
		<tag k="name" v="Briskemyrbekken" />
		<tag k="ssr:stedsnr" v="871507" />
		<tag k="waterway" v="stream" />
	</node>
	<node id="-188869" lat="59.836277782" lon="10.1040666658">
		<tag k="name" v="Lelangsbekken" />
		<tag k="ssr:stedsnr" v="871414" />
		<tag k="waterway" v="stream" />
	</node>
	<node id="-188867" lat="59.8218027811" lon="10.1823416713">
		<tag k="name" v="Kleivdammen" />
		<tag k="natural" v="water" />
		<tag k="ssr:stedsnr" v="871397" />
	</node>
	<node id="-188863" lat="59.8496194475" lon="10.1781277692">
		<tag k="loc_name" v="De hvite bekkane" />
		<tag k="name" v="Kvitbekken" />
		<tag k="ssr:stedsnr" v="871230" />
		<tag k="waterway" v="stream" />
	</node>
	<node id="-188862" lat="59.8922666686" lon="10.2098861029">
		<tag k="name" v="Tomasbekken" />
		<tag k="ssr:stedsnr" v="871160" />
		<tag k="waterway" v="river" />
	</node>
	<node id="-187836" lat="59.8140111148" lon="10.3512916597">
		<tag k="alt_name" v="Ulvenvannet" />
		<tag k="name" v="Ulvenvatnet" />
		<tag k="natural" v="water" />
		<tag k="ssr:stedsnr" v="5741" />
	</node>
	<node id="-188347" lat="59.8194888853" lon="10.0998694418">
		<tag k="name" v="Stenbekken" />
		<tag k="ssr:stedsnr" v="507915" />
		<tag k="waterway" v="stream" />
	</node>
	<node id="-187831" lat="59.9499749987" lon="10.3374055482">
		<tag k="name" v="Dupla" />
		<tag k="place" v="locality" />
		<tag k="ssr:stedsnr" v="4363" />
	</node>
	<node id="-188342" lat="59.9447027777" lon="10.2326055515">
		<tag k="name" v="Furudambekken" />
		<tag k="ssr:stedsnr" v="507627" />
		<tag k="waterway" v="stream" />
	</node>
	<node id="-188337" lat="59.8271583356" lon="10.1188305547">
		<tag k="name" v="Eggefløyten" />
		<tag k="ssr:stedsnr" v="507430" />
		<tag k="waterway" v="river" />
	</node>
	<node id="-188844" lat="59.9079000008" lon="10.3579638975">
		<tag k="name" v="Sørelva" />
		<tag k="ssr:stedsnr" v="854913" />
		<tag k="waterway" v="stream" />
	</node>
	<node id="-188330" lat="59.8380027734" lon="10.2086055574">
		<tag k="name" v="Treffenbekken" />
		<tag k="ssr:stedsnr" v="507351" />
		<tag k="waterway" v="stream" />
	</node>
	<node id="-188329" lat="59.8585611129" lon="10.2841611068">
		<tag k="name" v="Torsrudbekken" />
		<tag k="ssr:stedsnr" v="507275" />
		<tag k="waterway" v="stream" />
	</node>
	<node id="-188840" lat="59.9089119743" lon="10.1232211847">
		<tag k="alt_name" v="Lillesneisa" />
		<tag k="fixme" v="multiple name tags, choose one and add the other to alt_name" />
		<tag k="loc_name" v="Midtsneisa;Veslesneisa" />
		<tag k="name" v="Lille Sneisa;Mellomsneisa" />
		<tag k="natural" v="water" />
		<tag k="old_name" v="L Snejsa" />
		<tag k="ssr:stedsnr" v="854400" />
		<tag k="water" v="lake" />
	</node>
	<node id="-188839" lat="59.9100499984" lon="10.2417666603">
		<tag k="name" v="Veslevannet" />
		<tag k="natural" v="water" />
		<tag k="ssr:stedsnr" v="854397" />
	</node>
	<node id="-188838" lat="59.9392499977" lon="10.2058000084">
		<tag k="name" v="Monsetjern" />
		<tag k="natural" v="water" />
		<tag k="ssr:stedsnr" v="854378" />
	</node>
	<node id="-188836" lat="59.9386138886" lon="10.1376555561">
		<tag k="name" v="Øvre Damtjern" />
		<tag k="natural" v="water" />
		<tag k="ssr:stedsnr" v="854358" />
	</node>
	<node id="-187811" lat="59.8932714074" lon="10.362459031">
		<tag k="name" v="Øyevann" />
		<tag k="natural" v="water" />
		<tag k="ssr:stedsnr" v="732859" />
	</node>
	<node id="-188833" lat="59.8840861089" lon="10.1884388963">
		<tag k="alt_name" v="Skjærsvatnet;Skjersvannet" />
		<tag k="name" v="Skjærsvannet" />
		<tag k="natural" v="water" />
		<tag k="old_name" v="Skjærsvandet" />
		<tag k="ssr:stedsnr" v="854348" />
	</node>
	<node id="-188824" lat="59.8987194444" lon="10.1556472308">
		<tag k="alt_name" v="Damtjern" />
		<tag k="name" v="Øvre Damtjern" />
		<tag k="natural" v="water" />
		<tag k="ssr:stedsnr" v="853319" />
	</node>
	<node id="-187798" lat="59.8167999984" lon="10.1198444469">
		<tag k="name" v="Heiabekken" />
		<tag k="ssr:stedsnr" v="386911" />
		<tag k="waterway" v="stream" />
	</node>
	<node id="-188307" lat="59.9106027791" lon="10.3035472202">
		<tag k="alt_name" v="Nordøya" />
		<tag k="name" v="Storøya" />
		<tag k="place" v="island" />
		<tag k="ssr:stedsnr" v="505164" />
	</node>
	<node id="-188306" lat="59.8870361078" lon="10.172763888">
		<tag k="name" v="Gampetjern" />
		<tag k="natural" v="water" />
		<tag k="ssr:stedsnr" v="490359" />
	</node>
	<node id="-187722" lat="59.8100861073" lon="10.1179888935">
		<tag k="name" v="Vakkertjern" />
		<tag k="natural" v="water" />
		<tag k="ssr:stedsnr" v="368257" />
	</node>
	<node id="-188303" lat="59.9393083317" lon="10.2213611097">
		<tag k="alt_name" v="Svartvatnet" />
		<tag k="name" v="Svartvannet" />
		<tag k="natural" v="water" />
		<tag k="ssr:stedsnr" v="489399" />
	</node>
	<node id="-187785" lat="59.7506305589" lon="10.3085222157">
		<tag k="name" v="Sprengstoffdammen" />
		<tag k="ssr:stedsnr" v="385857" />
		<tag k="waterway" v="dam" />
	</node>
	<node id="-187783" lat="59.9254972212" lon="10.1850944506">
		<tag k="name" v="Blekkhusbekken" />
		<tag k="ssr:stedsnr" v="385700" />
		<tag k="waterway" v="stream" />
	</node>
	<node id="-188291" lat="59.8031472259" lon="10.1565249976">
		<tag k="name" v="Eikdammen" />
		<tag k="natural" v="water" />
		<tag k="ssr:stedsnr" v="489273" />
	</node>
	<node id="-188800" lat="59.9114499993" lon="10.337030556">
		<tag k="name" v="Olavsbekken" />
		<tag k="ssr:stedsnr" v="811554" />
		<tag k="waterway" v="stream" />
	</node>
	<node id="-188799" lat="59.9436361112" lon="10.2956861043">
		<tag k="name" v="Holmenvika" />
		<tag k="natural" v="bay" />
		<tag k="ssr:stedsnr" v="811278" />
	</node>
	<node id="-187774" lat="59.9438472262" lon="10.1904305609">
		<tag k="name" v="Ovnstjern" />
		<tag k="natural" v="water" />
		<tag k="ssr:stedsnr" v="385707" />
	</node>
	<node id="-188565" lat="59.8932647135" lon="10.109027676">
		<tag k="name" v="Karussputten" />
		<tag k="natural" v="water" />
		<tag k="ssr:stedsnr" v="689027" />
		<tag k="water" v="pond" />
	</node>
	<node id="-188281" lat="59.7943055579" lon="10.3219972222">
		<tag k="name" v="Heggsjø" />
		<tag k="natural" v="water" />
		<tag k="ssr:stedsnr" v="489151" />
	</node>
	<node id="-188278" lat="59.7580611129" lon="10.2111083329">
		<tag k="alt_name" v="Kloptjern" />
		<tag k="name" v="Klopptjern" />
		<tag k="natural" v="water" />
		<tag k="ssr:stedsnr" v="489096" />
	</node>
	<node id="-188786" lat="59.9045361087" lon="10.1610500047">
		<tag k="alt_name" v="Småvatna" />
		<tag k="name" v="Småvanna" />
		<tag k="natural" v="water" />
		<tag k="ssr:stedsnr" v="810530" />
	</node>
	<node id="-188784" lat="59.9594027804" lon="10.2890944379">
		<tag k="name" v="Hornsvika" />
		<tag k="natural" v="bay" />
		<tag k="ssr:stedsnr" v="810511" />
	</node>
	<node id="-187759" lat="59.8173277742" lon="10.3343916664">
		<tag k="name" v="Grobruelva" />
		<tag k="ssr:stedsnr" v="385087" />
		<tag k="waterway" v="river" />
	</node>
	<node id="-188270" lat="59.9036611075" lon="10.208747214">
		<tag k="name" v="Kårefoss" />
		<tag k="natural" v="waterfall" />
		<tag k="ssr:stedsnr" v="447681" />
	</node>
	<node id="-187754" lat="59.8672916685" lon="10.0989750077">
		<tag k="name" v="Svarthølen" />
		<tag k="place" v="locality" />
		<tag k="ssr:stedsnr" v="385040" />
	</node>
	<node id="-188265" lat="59.9399111082" lon="10.2979722189">
		<tag k="name" v="Holmenelva" />
		<tag k="ssr:stedsnr" v="447266" />
		<tag k="waterway" v="stream" />
	</node>
	<node id="-188775" lat="59.8631777758" lon="10.2614333264">
		<tag k="name" v="Nordelva" />
		<tag k="ssr:stedsnr" v="810250" />
		<tag k="waterway" v="river" />
	</node>
	<node id="-188262" lat="59.8771666649" lon="10.338141661">
		<tag k="name" v="Kjemmelibekken" />
		<tag k="ssr:stedsnr" v="446978" />
		<tag k="waterway" v="stream" />
	</node>
	<node id="-188261" lat="59.9203521604" lon="10.116465897">
		<tag k="alt_name" v="Nordre Sneisa" />
		<tag k="name" v="Nordsneisa" />
		<tag k="natural" v="water" />
		<tag k="ssr:stedsnr" v="446935" />
		<tag k="water" v="lake" />
	</node>
	<node id="-187747" lat="59.8443999968" lon="10.2991166604">
		<tag k="name" v="Pyntebekk" />
		<tag k="ssr:stedsnr" v="385119" />
		<tag k="waterway" v="stream" />
	</node>
	<node id="-187740" lat="59.922074998" lon="10.1872222154">
		<tag k="alt_name" v="Svartvasselva" />
		<tag k="name" v="Svartvannselva" />
		<tag k="ssr:stedsnr" v="368452" />
		<tag k="waterway" v="stream" />
	</node>
	<node id="-188251" lat="59.9482999981" lon="10.1997000002">
		<tag k="name" v="Uleputten" />
		<tag k="natural" v="water" />
		<tag k="ssr:stedsnr" v="446699" />
		<tag k="water" v="pond" />
	</node>
	<node id="-188248" lat="59.9439555533" lon="10.2183305571">
		<tag k="alt_name" v="Svinetjernet" />
		<tag k="name" v="Svinetjern" />
		<tag k="natural" v="water" />
		<tag k="ssr:stedsnr" v="446641" />
	</node>
	<node id="-188758" lat="59.9082777776" lon="10.3031277781">
		<tag k="alt_name" v="Kråkøy" />
		<tag k="name" v="Kavringen" />
		<tag k="place" v="island" />
		<tag k="ssr:stedsnr" v="809162" />
	</node>
	<node id="-188245" lat="59.9627638908" lon="10.2846472175">
		<tag k="name" v="Storrvika" />
		<tag k="natural" v="bay" />
		<tag k="ssr:stedsnr" v="446599" />
	</node>
	<node id="-187732" lat="59.8361111077" lon="10.1167499947">
		<tag k="alt_name" v="Ormtjern" />
		<tag k="name" v="Ormetjern" />
		<tag k="natural" v="water" />
		<tag k="ssr:stedsnr" v="368305" />
	</node>
	<node id="-188239" lat="59.8527472243" lon="10.1250666684">
		<tag k="name" v="Svarttjernsbekken" />
		<tag k="ssr:stedsnr" v="446462" />
		<tag k="waterway" v="stream" />
	</node>
	<node id="-188238" lat="59.816586107" lon="10.0991916645">
		<tag k="name" v="Lorttjern" />
		<tag k="natural" v="water" />
		<tag k="ssr:stedsnr" v="446456" />
	</node>
	<node id="-187725" lat="59.8027999996" lon="10.2838944451">
		<tag k="name" v="Damtjern" />
		<tag k="natural" v="water" />
		<tag k="ssr:stedsnr" v="368267" />
	</node>
	<node id="-188234" lat="59.8930060208" lon="10.1652918921">
		<tag k="name" v="Nedre Høymyrtjern" />
		<tag k="natural" v="water" />
		<tag k="old_name" v="Nedre Høgmyrtjern" />
		<tag k="ssr:stedsnr" v="446282" />
	</node>
	<node id="-188233" lat="59.8776055536" lon="10.1670277839">
		<tag k="name" v="Laukedalsbekken" />
		<tag k="ssr:stedsnr" v="446277" />
		<tag k="waterway" v="stream" />
	</node>
	<node id="-188232" lat="59.8763974013" lon="10.1765309699">
		<tag k="name" v="Karussputten" />
		<tag k="natural" v="water" />
		<tag k="ssr:stedsnr" v="446278" />
	</node>
	<node id="-187710" lat="59.8228055512" lon="10.1220194504">
		<tag k="name" v="Garsjø" />
		<tag k="natural" v="water" />
		<tag k="ssr:stedsnr" v="429192" />
		<tag k="water" v="lake" />
	</node>
	<node id="-187705" lat="59.8751527777" lon="10.3104694424">
		<tag k="name" v="Høgfossen" />
		<tag k="natural" v="waterfall" />
		<tag k="ssr:stedsnr" v="325993" />
	</node>
	<node id="-187702" lat="59.8817888861" lon="10.1443305473">
		<tag k="name" v="Kulbergmyrputt" />
		<tag k="natural" v="water" />
		<tag k="ssr:stedsnr" v="325920" />
		<tag k="water" v="pond" />
	</node>
	<node id="-188382" lat="59.9366749969" lon="10.2832555609">
		<tag k="name" v="Holmenelva" />
		<tag k="ssr:stedsnr" v="550373" />
		<tag k="waterway" v="stream" />
	</node>
	<node id="-188210" lat="59.8851611137" lon="10.1002833312">
		<tag k="alt_name" v="Snikeputten" />
		<tag k="name" v="Snikeputt" />
		<tag k="natural" v="water" />
		<tag k="ssr:stedsnr" v="429348" />
	</node>
	<node id="-187697" lat="59.8338749982" lon="10.3509611148">
		<tag k="name" v="Delebekken" />
		<tag k="ssr:stedsnr" v="325852" />
		<tag k="waterway" v="stream" />
	</node>
	<node id="-187692" lat="59.9058500028" lon="10.2905972294">
		<tag k="name" v="Sandsbekken" />
		<tag k="ssr:stedsnr" v="325672" />
		<tag k="waterway" v="stream" />
	</node>
	<node id="-187691" lat="59.9218111121" lon="10.1497138961">
		<tag k="alt_name" v="Småvatna" />
		<tag k="name" v="Småvanna" />
		<tag k="natural" v="water" />
		<tag k="ssr:stedsnr" v="325666" />
		<tag k="water" v="lake" />
	</node>
	<node id="-188202" lat="59.9278250012" lon="10.1667972285">
		<tag k="fixme" v="multiple name tags, choose one and add the other to alt_name" />
		<tag k="name" v="Elgstjernelva;Fallsbekken;Tverrelva" />
		<tag k="ssr:stedsnr" v="429488" />
		<tag k="waterway" v="stream" />
	</node>
	<node id="-188201" lat="59.9130805526" lon="10.2102777765">
		<tag k="name" v="Kårevannet" />
		<tag k="natural" v="water" />
		<tag k="ssr:stedsnr" v="429402" />
	</node>
	<node id="-188892" lat="59.924102779" lon="10.3645666689">
		<tag k="name" v="Lamyrbekken" />
		<tag k="ssr:stedsnr" v="872596" />
		<tag k="waterway" v="stream" />
	</node>
	<node id="-188198" lat="59.9489055538" lon="10.2487027731">
		<tag k="name" v="Sagelva" />
		<tag k="ssr:stedsnr" v="428360" />
		<tag k="waterway" v="stream" />
	</node>
	<node id="-188709" lat="59.9148555521" lon="10.1360888952">
		<tag k="name" v="Kringlehølen" />
		<tag k="place" v="locality" />
		<tag k="ssr:stedsnr" v="750685" />
	</node>
	<node id="-188708" lat="59.8949250009" lon="10.1575027864">
		<tag k="name" v="Svartvannsbekken" />
		<tag k="ssr:stedsnr" v="750675" />
		<tag k="waterway" v="stream" />
	</node>
	<node id="-187683" lat="59.9459972186" lon="10.2925527819">
		<tag k="name" v="Bryggebekken" />
		<tag k="ssr:stedsnr" v="325508" />
		<tag k="waterway" v="stream" />
	</node>
	<node id="-188191" lat="59.8496194475" lon="10.1781277692">
		<tag k="name" v="Lundsbekken" />
		<tag k="ssr:stedsnr" v="428230" />
		<tag k="waterway" v="stream" />
	</node>
	<node id="-188701" lat="59.7691722248" lon="10.2304388828">
		<tag k="name" v="Sandakerelva" />
		<tag k="ssr:stedsnr" v="749927" />
		<tag k="waterway" v="river" />
	</node>
	<node id="-187675" lat="59.8207361148" lon="10.2560666591">
		<tag k="name" v="Buttedalsbekken" />
		<tag k="ssr:stedsnr" v="325117" />
		<tag k="waterway" v="stream" />
	</node>
	<node id="-188434" lat="59.890827779" lon="10.246177779">
		<tag k="alt_name" v="Veslevannsbekken" />
		<tag k="name" v="Veslevassbekken" />
		<tag k="ssr:stedsnr" v="568687" />
		<tag k="waterway" v="stream" />
	</node>
	<node id="-188182" lat="59.949291671" lon="10.2030666691">
		<tag k="name" v="Urtjern" />
		<tag k="natural" v="water" />
		<tag k="ssr:stedsnr" v="265924" />
	</node>
	<node id="-188687" lat="59.8414666688" lon="10.1358805634">
		<tag k="name" v="Meriputten" />
		<tag k="natural" v="water" />
		<tag k="ssr:stedsnr" v="749484" />
		<tag k="water" v="pond" />
	</node>
	<node id="-188686" lat="59.8348944427" lon="10.0869750067">
		<tag k="name" v="Hølbekken" />
		<tag k="ssr:stedsnr" v="749461" />
		<tag k="waterway" v="stream" />
	</node>
	<node id="-188894" lat="59.9375277746" lon="10.2086888973">
		<tag k="name" v="Katteputt" />
		<tag k="natural" v="water" />
		<tag k="ssr:stedsnr" v="872729" />
		<tag k="water" v="pond" />
	</node>
	<node id="-188682" lat="59.8884292281" lon="10.1704104776">
		<tag k="name" v="Øvre Høymyrtjern" />
		<tag k="natural" v="water" />
		<tag k="ssr:stedsnr" v="749274" />
	</node>
	<node id="-187655" lat="59.9425222245" lon="10.1979833381">
		<tag k="name" v="Gråtjern" />
		<tag k="natural" v="water" />
		<tag k="ssr:stedsnr" v="307390" />
	</node>
	<node id="-188166" lat="59.7723749992" lon="10.187733332">
		<tag k="name" v="Hvalsbekken" />
		<tag k="ssr:stedsnr" v="264639" />
		<tag k="waterway" v="stream" />
	</node>
	<node id="-188165" lat="59.9586361124" lon="10.2121916606">
		<tag k="alt_name" v="Grynteputt" />
		<tag k="name" v="Krynteputt" />
		<tag k="natural" v="water" />
		<tag k="ssr:stedsnr" v="264617" />
		<tag k="water" v="pond" />
	</node>
	<node id="-188675" lat="59.8553861126" lon="10.1302388804">
		<tag k="name" v="Fløyten" />
		<tag k="natural" v="water" />
		<tag k="ssr:stedsnr" v="749019" />
		<tag k="water" v="lake" />
	</node>
	<node id="-187650" lat="59.8164749985" lon="10.1096750006">
		<tag k="name" v="Lisbekken" />
		<tag k="ssr:stedsnr" v="307252" />
		<tag k="waterway" v="stream" />
	</node>
	<node id="-187649" lat="59.8146722265" lon="10.0984250027">
		<tag k="name" v="Løken" />
		<tag k="natural" v="water" />
		<tag k="ssr:stedsnr" v="307249" />
	</node>
	<node id="-188672" lat="59.8627027772" lon="10.1333833375">
		<tag k="alt_name" v="Rotfossen" />
		<tag k="loc_name" v="Rotefossen;Rotofossen" />
		<tag k="name" v="Rotufossen" />
		<tag k="natural" v="waterfall" />
		<tag k="ssr:stedsnr" v="749001" />
	</node>
	<node id="-187646" lat="59.8204805581" lon="10.0951083423">
		<tag k="name" v="Skorpen" />
		<tag k="natural" v="water" />
		<tag k="ssr:stedsnr" v="307224" />
	</node>
	<node id="-188458" lat="59.9381861078" lon="10.1303638945">
		<tag k="name" v="Nedre Damtjern" />
		<tag k="natural" v="water" />
		<tag k="ssr:stedsnr" v="610405" />
	</node>
	<node id="-188348" lat="59.8834222193" lon="10.1357138951">
		<tag k="name" v="Brenneriputt" />
		<tag k="natural" v="water" />
		<tag k="ssr:stedsnr" v="507935" />
		<tag k="water" v="pond" />
	</node>
	<node id="-188662" lat="59.9430472219" lon="10.2420222274">
		<tag k="name" v="Steinarbekken" />
		<tag k="ssr:stedsnr" v="749631" />
		<tag k="waterway" v="stream" />
	</node>
	<node id="-188657" lat="59.9070861073" lon="10.3637416612">
		<tag k="name" v="Damvann" />
		<tag k="natural" v="water" />
		<tag k="ssr:stedsnr" v="732864" />
	</node>
	<node id="-187632" lat="59.8918138884" lon="10.1541777819">
		<tag k="name" v="Svartvannet" />
		<tag k="natural" v="water" />
		<tag k="ssr:stedsnr" v="307339" />
	</node>
	<node id="-188655" lat="59.9281777799" lon="10.2406444519">
		<tag k="name" v="Pålstjern" />
		<tag k="natural" v="water" />
		<tag k="ssr:stedsnr" v="732457" />
	</node>
	<node id="-188142" lat="59.8280444458" lon="10.3308277718">
		<tag k="name" v="Ekebergelva" />
		<tag k="ssr:stedsnr" v="264079" />
		<tag k="waterway" v="river" />
	</node>
	<node id="-188652" lat="59.9309138897" lon="10.2396583303">
		<tag k="alt_name" v="Damvannet" />
		<tag k="name" v="Damtjern" />
		<tag k="natural" v="water" />
		<tag k="ssr:stedsnr" v="732443" />
	</node>
	<node id="-188650" lat="59.9241722254" lon="10.1196333371">
		<tag k="name" v="Hvalsputten" />
		<tag k="natural" v="water" />
		<tag k="ssr:stedsnr" v="732434" />
	</node>
	<node id="-187625" lat="59.9533777818" lon="10.1874666607">
		<tag k="name" v="Djupombekken" />
		<tag k="ssr:stedsnr" v="300118" />
		<tag k="waterway" v="stream" />
	</node>
	<node id="-188647" lat="59.9549277816" lon="10.2236500083">
		<tag k="alt_name" v="Grytevatnet" />
		<tag k="name" v="Grytevannet" />
		<tag k="natural" v="water" />
		<tag k="ssr:stedsnr" v="732418" />
	</node>
	<node id="-188646" lat="59.9342833291" lon="10.1223833398">
		<tag k="alt_name" v="Bomlebekken" />
		<tag k="name" v="Bumlebekken" />
		<tag k="ssr:stedsnr" v="732386" />
		<tag k="waterway" v="stream" />
	</node>
	<node id="-188644" lat="59.8719805545" lon="10.1874361095">
		<tag k="name" v="Veslevannet" />
		<tag k="natural" v="water" />
		<tag k="ssr:stedsnr" v="732360" />
	</node>
	<node id="-188642" lat="59.879330557" lon="10.0972333355">
		<tag k="alt_name" v="Grunnvatnet" />
		<tag k="name" v="Grunnvannet" />
		<tag k="natural" v="water" />
		<tag k="ssr:stedsnr" v="732351" />
	</node>
	<node id="-188841" lat="59.7954111139" lon="10.3443333316">
		<tag k="name" v="Åstjern" />
		<tag k="natural" v="water" />
		<tag k="ssr:stedsnr" v="854692" />
	</node>
	<node id="-188629" lat="59.8032749976" lon="10.1870416585">
		<tag k="name" v="Eriksrudtjern" />
		<tag k="natural" v="water" />
		<tag k="ssr:stedsnr" v="732259" />
	</node>
	<node id="-188114" lat="59.7686333325" lon="10.310149992">
		<tag k="name" v="Skapertjern" />
		<tag k="natural" v="water" />
		<tag k="ssr:stedsnr" v="246187" />
	</node>
	<node id="-188707" lat="59.8975888914" lon="10.2875583317">
		<tag k="name" v="Svangbekken" />
		<tag k="ssr:stedsnr" v="750673" />
		<tag k="waterway" v="stream" />
	</node>
	<node id="-188618" lat="59.8975666681" lon="10.125833328">
		<tag k="name" v="Sneisebekken" />
		<tag k="ssr:stedsnr" v="731281" />
		<tag k="waterway" v="stream" />
	</node>
	<node id="-188103" lat="59.9532972202" lon="10.2178666708">
		<tag k="name" v="Knivtjernet" />
		<tag k="natural" v="water" />
		<tag k="ssr:stedsnr" v="204610" />
	</node>
	<node id="-187766" lat="59.903133337" lon="10.3551249935">
		<tag k="name" v="Bukkebekken" />
		<tag k="ssr:stedsnr" v="385575" />
		<tag k="waterway" v="stream" />
	</node>
	<node id="-187679" lat="59.8770249972" lon="10.348302781">
		<tag k="name" v="Fløyten" />
		<tag k="place" v="locality" />
		<tag k="ssr:stedsnr" v="325303" />
	</node>
	<node id="-188087" lat="59.7466333326" lon="10.2725666623">
		<tag k="name" v="Møysund" />
		<tag k="natural" v="water" />
		<tag k="ssr:stedsnr" v="203890" />
		<tag k="water" v="pond" />
	</node>
	<node id="-188873" lat="59.9267333355" lon="10.2356416592">
		<tag k="name" v="Øvre Øyentjern" />
		<tag k="natural" v="water" />
		<tag k="ssr:stedsnr" v="871517" />
	</node>
	<node id="-188082" lat="59.9400138866" lon="10.2085611116">
		<tag k="alt_name" v="Kattepytten" />
		<tag k="name" v="Katteputten" />
		<tag k="natural" v="water" />
		<tag k="ssr:stedsnr" v="203637" />
		<tag k="water" v="pond" />
	</node>
	<node id="-188593" lat="59.726227781" lon="10.3154361118">
		<tag k="name" v="Lahelldammen" />
		<tag k="natural" v="water" />
		<tag k="ssr:stedsnr" v="689835" />
	</node>
	<node id="-188587" lat="59.9553027767" lon="10.226005554">
		<tag k="name" v="Rømmebekken" />
		<tag k="ssr:stedsnr" v="689590" />
		<tag k="waterway" v="stream" />
	</node>
	<node id="-188703" lat="59.9338777803" lon="10.1102638829">
		<tag k="name" v="Grukkedøla" />
		<tag k="ssr:stedsnr" v="749943" />
		<tag k="waterway" v="stream" />
	</node>
	<node id="-188580" lat="59.9539611073" lon="10.2937111132">
		<tag k="name" v="Åsodden" />
		<tag k="natural" v="cape" />
		<tag k="ssr:stedsnr" v="689479" />
	</node>
	<node id="-188065" lat="59.8704833366" lon="10.0894583317">
		<tag k="name" v="Damvika" />
		<tag k="natural" v="bay" />
		<tag k="ssr:stedsnr" v="203041" />
	</node>
	<node id="-188576" lat="59.8712361101" lon="10.1877694447">
		<tag k="loc_name" v="Veslevannsbekken" />
		<tag k="name" v="Veslevassbekken" />
		<tag k="ssr:stedsnr" v="689259" />
		<tag k="waterway" v="stream" />
	</node>
	<node id="-188573" lat="59.8216194401" lon="10.2503861041">
		<tag k="name" v="Sagdalsbekken" />
		<tag k="ssr:stedsnr" v="689121" />
		<tag k="waterway" v="stream" />
	</node>
	<node id="-188572" lat="59.8343277794" lon="10.3188583385">
		<tag k="name" v="Rotuelva" />
		<tag k="ssr:stedsnr" v="689104" />
		<tag k="waterway" v="river" />
	</node>
	<node id="-188057" lat="59.9088444464" lon="10.1960666603">
		<tag k="name" v="Dammyrdammen" />
		<tag k="natural" v="water" />
		<tag k="ssr:stedsnr" v="186464" />
		<tag k="water" v="lake" />
	</node>
	<node id="-188056" lat="59.9081138895" lon="10.1691638815">
		<tag k="name" v="Nykjua" />
		<tag k="ssr:stedsnr" v="186463" />
		<tag k="waterway" v="river" />
	</node>
	<node id="-188053" lat="59.9532611081" lon="10.2035055573">
		<tag k="name" v="Ormetjern" />
		<tag k="natural" v="water" />
		<tag k="ssr:stedsnr" v="186433" />
	</node>
	<node id="-188051" lat="59.9374194487" lon="10.2446444526">
		<tag k="name" v="Svarteputt" />
		<tag k="natural" v="water" />
		<tag k="ssr:stedsnr" v="186419" />
	</node>
	<node id="-188555" lat="59.8893138906" lon="10.1088749988">
		<tag k="alt_name" v="Karusstjernet" />
		<tag k="name" v="Karusstjern" />
		<tag k="natural" v="water" />
		<tag k="ssr:stedsnr" v="672333" />
	</node>
	<node id="-188553" lat="59.8721055577" lon="10.2765916701">
		<tag k="name" v="Gåsebekken" />
		<tag k="ssr:stedsnr" v="672322" />
		<tag k="waterway" v="stream" />
	</node>
	<node id="-188039" lat="59.8956888868" lon="10.131191663">
		<tag k="alt_name" v="Sneiseholene" />
		<tag k="name" v="Sneiseholane" />
		<tag k="natural" v="water" />
		<tag k="ssr:stedsnr" v="185311" />
		<tag k="water" v="pond" />
	</node>
	<node id="-188038" lat="59.8151111072" lon="10.1815222232">
		<tag k="alt_name" v="Øvre Svarttjern;Nedre Svarttjern" />
		<tag k="name" v="Svarttjerna" />
		<tag k="natural" v="water" />
		<tag k="ssr:stedsnr" v="185200" />
	</node>
	<node id="-188549" lat="59.8833277767" lon="10.3526611058">
		<tag k="alt_name" v="Svartbekken" />
		<tag k="name" v="Svartebekk" />
		<tag k="ssr:stedsnr" v="671871" />
		<tag k="waterway" v="stream" />
	</node>
	<node id="-188547" lat="59.9142935996" lon="10.120509741">
		<tag k="fixme" v="multiple name tags, choose one and add the other to alt_name" />
		<tag k="loc_name" v="Storsneisa;Nordsneisa" />
		<tag k="name" v="Damsneisa;Nordre Sneisa" />
		<tag k="natural" v="water" />
		<tag k="old_name" v="St Snejsa" />
		<tag k="ssr:stedsnr" v="671401" />
		<tag k="water" v="lake" />
	</node>
	<node id="-188546" lat="59.9438555566" lon="10.2247444414">
		<tag k="name" v="Furudammen" />
		<tag k="natural" v="water" />
		<tag k="ssr:stedsnr" v="671382" />
	</node>
	<node id="-188540" lat="59.9026444478" lon="10.1468805472">
		<tag k="alt_name" v="Langvatnet" />
		<tag k="name" v="Langvannet" />
		<tag k="natural" v="water" />
		<tag k="ssr:stedsnr" v="671326" />
	</node>
	<node id="-188931" lat="59.8769527784" lon="10.1090611153">
		<tag k="alt_name" v="Grunnvassbekken" />
		<tag k="name" v="Grunnvannsbekken" />
		<tag k="ssr:stedsnr" v="932024" />
		<tag k="waterway" v="stream" />
	</node>
	<node id="-188537" lat="59.8546722217" lon="10.1384138852">
		<tag k="name" v="Egga" />
		<tag k="ssr:stedsnr" v="671280" />
		<tag k="waterway" v="stream" />
	</node>
	<node id="-188534" lat="59.8656944417" lon="10.1242805639">
		<tag k="alt_name" v="Rotåa" />
		<tag k="name" v="Rotua" />
		<tag k="ssr:stedsnr" v="671275" />
		<tag k="waterway" v="river" />
	</node>
	<node id="-188923" lat="59.840897222" lon="10.1168416716">
		<tag k="name" v="Svarttjern" />
		<tag k="natural" v="water" />
		<tag k="ssr:stedsnr" v="914305" />
	</node>
	<node id="-188530" lat="59.7910277775" lon="10.324850005">
		<tag k="name" v="Sagelva" />
		<tag k="ssr:stedsnr" v="671154" />
		<tag k="waterway" v="stream" />
	</node>
	<node id="-188014" lat="59.8764055526" lon="10.1765805614">
		<tag k="name" v="Skjærsvannsbekken" />
		<tag k="natural" v="water" />
		<tag k="ssr:stedsnr" v="142259" />
	</node>
	<node id="-188012" lat="59.8904999962" lon="10.2461583376">
		<tag k="name" v="Veslevassbekken" />
		<tag k="ssr:stedsnr" v="142200" />
		<tag k="waterway" v="stream" />
	</node>
	<node id="-188011" lat="59.884844444" lon="10.223386118">
		<tag k="name" v="Fjellheimbekken" />
		<tag k="ssr:stedsnr" v="142210" />
		<tag k="waterway" v="stream" />
	</node>
	<node id="-188521" lat="59.8247333358" lon="10.1078833346">
		<tag k="alt_name" v="Grunnvatnet" />
		<tag k="name" v="Grunnvannet" />
		<tag k="natural" v="water" />
		<tag k="ssr:stedsnr" v="671203" />
	</node>
	<node id="-188007" lat="59.8800805561" lon="10.1435222273">
		<tag k="alt_name" v="Justad-Svartvatnet" />
		<tag k="name" v="Justad-Svartvannet" />
		<tag k="natural" v="water" />
		<tag k="ssr:stedsnr" v="142049" />
		<tag k="water" v="lake" />
	</node>
	<node id="-188433" lat="59.9032694487" lon="10.2679361064">
		<tag k="name" v="Sjektedalsbekken" />
		<tag k="ssr:stedsnr" v="568676" />
		<tag k="waterway" v="stream" />
	</node>
	<node id="-187994" lat="59.8912194426" lon="10.1211972163">
		<tag k="name" v="Fjellbekken" />
		<tag k="ssr:stedsnr" v="125365" />
		<tag k="waterway" v="stream" />
	</node>
	<node id="-187992" lat="59.8036666696" lon="10.3046916693">
		<tag k="name" v="Småvanna" />
		<tag k="natural" v="water" />
		<tag k="ssr:stedsnr" v="125269" />
		<tag k="water" v="lake" />
	</node>
	<node id="-188503" lat="59.7988999975" lon="10.1952666741">
		<tag k="name" v="Eriksrudbekken" />
		<tag k="ssr:stedsnr" v="628681" />
		<tag k="waterway" v="stream" />
	</node>
	<node id="-187989" lat="59.7667611132" lon="10.2001916737">
		<tag k="name" v="Svarttjern" />
		<tag k="natural" v="water" />
		<tag k="ssr:stedsnr" v="125189" />
	</node>
	<node id="-188499" lat="59.9472916707" lon="10.2149055604">
		<tag k="loc_name" v="Flagerputten" />
		<tag k="name" v="Flaggerputten" />
		<tag k="natural" v="water" />
		<tag k="ssr:stedsnr" v="628610" />
		<tag k="water" v="pond" />
	</node>
	<node id="-187986" lat="59.7838361134" lon="10.303694448">
		<tag k="name" v="Stuvstjern" />
		<tag k="natural" v="water" />
		<tag k="ssr:stedsnr" v="125163" />
	</node>
	<node id="-187981" lat="59.927336107" lon="10.1204361088">
		<tag k="alt_name" v="Lille Nykjua" />
		<tag k="name" v="Vesle Nykjua" />
		<tag k="natural" v="water" />
		<tag k="ssr:stedsnr" v="125446" />
		<tag k="water" v="lake" />
	</node>
	<node id="-187977" lat="59.8372999977" lon="10.1001055528">
		<tag k="name" v="Lelangen" />
		<tag k="natural" v="water" />
		<tag k="ssr:stedsnr" v="125313" />
		<tag k="water" v="lake" />
	</node>
	<node id="-188485" lat="59.8851277823" lon="10.1777249976">
		<tag k="alt_name" v="Kjakatjernet" />
		<tag k="name" v="Kjakatjern" />
		<tag k="natural" v="water" />
		<tag k="ssr:stedsnr" v="628232" />
	</node>
	<node id="-188482" lat="59.8860138869" lon="10.2494194459">
		<tag k="name" v="Skuggebekken" />
		<tag k="ssr:stedsnr" v="628152" />
		<tag k="waterway" v="stream" />
	</node>
	<node id="-187968" lat="59.899688888" lon="10.2923750067">
		<tag k="name" v="Sagvika" />
		<tag k="natural" v="bay" />
		<tag k="ssr:stedsnr" v="83700" />
	</node>
	<node id="-188473" lat="59.8914055576" lon="10.0973277859">
		<tag k="name" v="Trollmyrputten" />
		<tag k="natural" v="water" />
		<tag k="ssr:stedsnr" v="628020" />
		<tag k="water" v="pond" />
	</node>
	<node id="-187959" lat="59.7884583355" lon="10.1742444515">
		<tag k="name" v="Brokebekk" />
		<tag k="ssr:stedsnr" v="82690" />
		<tag k="waterway" v="stream" />
	</node>
	<node id="-187955" lat="59.7773861069" lon="10.2970444434">
		<tag k="name" v="Stuvstjernbekken" />
		<tag k="ssr:stedsnr" v="82576" />
		<tag k="waterway" v="stream" />
	</node>
	<node id="-187954" lat="59.8042416675" lon="10.31687222">
		<tag k="name" v="Småvannsbekken" />
		<tag k="ssr:stedsnr" v="82553" />
		<tag k="waterway" v="stream" />
	</node>
	<node id="-187953" lat="59.9065583353" lon="10.2104694515">
		<tag k="loc_name" v="Kårevannsbekken" />
		<tag k="name" v="Kårevassbekken" />
		<tag k="ssr:stedsnr" v="82545" />
		<tag k="waterway" v="stream" />
	</node>
	<node id="-188976" lat="59.8203777789" lon="10.2684222174">
		<tag k="name" v="Buttedalsbekken" />
		<tag k="ssr:stedsnr" v="932897" />
		<tag k="waterway" v="stream" />
	</node>
	<node id="-188974" lat="59.7942444425" lon="10.2350611143">
		<tag k="name" v="Vellingbekken" />
		<tag k="ssr:stedsnr" v="932845" />
		<tag k="waterway" v="stream" />
	</node>
	<node id="-187949" lat="59.8901543749" lon="10.1786301822">
		<tag k="name" v="Sjutjern" />
		<tag k="natural" v="water" />
		<tag k="ssr:stedsnr" v="82243" />
	</node>
	<node id="-188459" lat="59.9628749968" lon="10.244133341">
		<tag k="alt_name" v="Hornstjern;Hornstjernet" />
		<tag k="name" v="Horntjern" />
		<tag k="natural" v="water" />
		<tag k="ssr:stedsnr" v="610521" />
	</node>
	<node id="-188970" lat="59.9105666679" lon="10.2871555555">
		<tag k="name" v="Hørtebekken" />
		<tag k="ssr:stedsnr" v="932670" />
		<tag k="waterway" v="stream" />
	</node>
	<node id="-188457" lat="59.8709583357" lon="10.324788891">
		<tag k="name" v="Asdøla" />
		<tag k="ssr:stedsnr" v="610386" />
		<tag k="waterway" v="river" />
	</node>
	<node id="-188456" lat="59.8984972217" lon="10.29346111">
		<tag k="name" v="Svangstrand" />
		<tag k="natural" v="beach" />
		<tag k="ssr:stedsnr" v="610371" />
	</node>
	<node id="-187942" lat="59.8922277752" lon="10.2330388951">
		<tag k="name" v="Solbergdammen" />
		<tag k="ssr:stedsnr" v="82161" />
		<tag k="waterway" v="dam" />
	</node>
	<node id="-187825" lat="59.8362333292" lon="10.1539138961">
		<tag k="name" v="Kruttjern" />
		<tag k="natural" v="water" />
		<tag k="ssr:stedsnr" v="4271" />
	</node>
	<node id="-187938" lat="59.7965472203" lon="10.2220249961">
		<tag k="name" v="Helgerudbekken" />
		<tag k="ssr:stedsnr" v="81383" />
		<tag k="waterway" v="stream" />
	</node>
	<node id="-187739" lat="59.9224388929" lon="10.2268250006">
		<tag k="alt_name" v="Nedre Øyentjern" />
		<tag k="name" v="Øyetjern" />
		<tag k="natural" v="water" />
		<tag k="ssr:stedsnr" v="368442" />
	</node>
	<node id="-188957" lat="59.8126833362" lon="10.1306305572">
		<tag k="name" v="Starrmyrbekken" />
		<tag k="ssr:stedsnr" v="932434" />
		<tag k="waterway" v="stream" />
	</node>
	<node id="-187929" lat="59.8231027757" lon="10.1423888807">
		<tag k="alt_name" v="Damvatnet" />
		<tag k="name" v="Damvannet" />
		<tag k="natural" v="water" />
		<tag k="ssr:stedsnr" v="65205" />
	</node>
	<node id="-187928" lat="59.7721014727" lon="10.1814297267">
		<tag k="name" v="Hvalsdammen" />
		<tag k="natural" v="water" />
		<tag k="ssr:stedsnr" v="65160" />
	</node>
	<node id="-188951" lat="59.8753853246" lon="10.2040089391">
		<tag k="name" v="Klostertjern" />
		<tag k="natural" v="water" />
		<tag k="ssr:stedsnr" v="932182" />
	</node>
	<node id="-188438" lat="59.8281583322" lon="10.2139749936">
		<tag k="name" v="Øksnebekken" />
		<tag k="ssr:stedsnr" v="568900" />
		<tag k="waterway" v="stream" />
	</node>
	<node id="-187653" lat="59.8512444423" lon="10.0770638872">
		<tag k="name" v="Gampedalsbekken" />
		<tag k="ssr:stedsnr" v="307299" />
		<tag k="waterway" v="stream" />
	</node>
	<node id="-187922" lat="59.7945777733" lon="10.1716305599">
		<tag k="name" v="Eikdambekken" />
		<tag k="ssr:stedsnr" v="65119" />
		<tag k="waterway" v="stream" />
	</node>
	<node id="-187921" lat="59.8767194454" lon="10.345272225">
		<tag k="alt_name" v="Engerfløyta" />
		<tag k="name" v="Engerfløyten" />
		<tag k="place" v="locality" />
		<tag k="ssr:stedsnr" v="64847" />
	</node>
	<node id="-188504" lat="59.9115722194" lon="10.1343583348">
		<tag k="name" v="Sjåstadflåren" />
		<tag k="natural" v="water" />
		<tag k="ssr:stedsnr" v="628685" />
	</node>
	<node id="-188939" lat="59.8078111155" lon="10.1606083385">
		<tag k="loc_name" v="Eggedammane" />
		<tag k="name" v="Eggedammene" />
		<tag k="natural" v="water" />
		<tag k="ssr:stedsnr" v="931728" />
	</node>
	<node id="-188933" lat="59.8564083298" lon="10.1197750074">
		<tag k="name" v="Atalstadfløyten" />
		<tag k="place" v="locality" />
		<tag k="ssr:stedsnr" v="932031" />
	</node>
	<node id="-188135" lat="59.9290361126" lon="10.340402777">
		<tag k="name" v="Nordelva" />
		<tag k="ssr:stedsnr" v="247944" />
		<tag k="waterway" v="stream" />
	</node>
	<node id="-187907" lat="59.9063111083" lon="10.200269437">
		<tag k="name" v="Solbergelva" />
		<tag k="ssr:stedsnr" v="65306" />
		<tag k="waterway" v="river" />
	</node>
	<node id="-188929" lat="59.9095361128" lon="10.3040777825">
		<tag k="alt_name" v="Midtøy" />
		<tag k="name" v="Midtøya" />
		<tag k="place" v="island" />
		<tag k="ssr:stedsnr" v="930156" />
	</node>
</osm>
