<?xml version="1.0" encoding="UTF-8"?>
<osm version="0.6" generator="osmapis">
	<node id="256745680" lat="62.9166682" lon="7.4481068" version="9" timestamp="2022-08-07T07:21:05Z" changeset="124585500" uid="3497659" user="NKA">
		<tag k="name" v="Eide" />
		<tag k="place" v="village" />
		<tag k="population" v="1428" />
		<tag k="population:date" v="2021-01-01" />
		<tag k="ref:ssb_tettsted" v="6251" />
		<tag k="source:population" v="SSB - befolkning i tettstedet" />
		<tag k="ssr:stedsnr" v="133487" />
		<tag k="wikidata" v="Q12714369" />
		<tag k="wikipedia" v="en:Eide, Møre og Romsdal" />
	</node>
	<node id="444244092" lat="62.8233312" lon="7.0264726" version="2" timestamp="2022-08-07T07:21:05Z" changeset="124585500" uid="3497659" user="NKA">
		<tag k="name" v="Vågøya" />
		<tag k="place" v="hamlet" />
		<tag k="ssr:stedsnr" v="981185" />
	</node>
	<node id="444244593" lat="62.788787" lon="7.0345947" version="2" timestamp="2022-08-07T07:21:05Z" changeset="124585500" uid="3497659" user="NKA">
		<tag k="name" v="Helset" />
		<tag k="place" v="hamlet" />
		<tag k="ssr:stedsnr" v="216012" />
	</node>
	<node id="444244693" lat="62.7869011" lon="7.0133529" version="3" timestamp="2022-08-07T07:21:05Z" changeset="124585500" uid="3497659" user="NKA">
		<tag k="name" v="Jendem" />
		<tag k="place" v="village" />
		<tag k="ssr:stedsnr" v="193842" />
	</node>
	<node id="444245590" lat="62.818" lon="7.036187" version="2" timestamp="2022-08-07T07:21:05Z" changeset="124585500" uid="3497659" user="NKA">
		<tag k="alt_name" v="Hoem" />
		<tag k="name" v="Ytre Hoem" />
		<tag k="place" v="hamlet" />
		<tag k="ssr:stedsnr" v="496775" />
	</node>
	<node id="444246096" lat="62.7769153" lon="7.0636753" version="2" timestamp="2022-08-07T07:21:05Z" changeset="124585500" uid="3497659" user="NKA">
		<tag k="name" v="Åndal" />
		<tag k="place" v="hamlet" />
		<tag k="ssr:stedsnr" v="274857" />
	</node>
	<node id="444248159" lat="62.8162009" lon="7.1950766" version="2" timestamp="2022-08-07T07:21:05Z" changeset="124585500" uid="3497659" user="NKA">
		<tag k="name" v="Lindset" />
		<tag k="place" v="hamlet" />
		<tag k="ssr:stedsnr" v="800765" />
	</node>
	<node id="444248583" lat="62.8168106" lon="7.2392697" version="5" timestamp="2022-08-07T07:21:05Z" changeset="124585500" uid="3497659" user="NKA">
		<tag k="name" v="Malmefjorden" />
		<tag k="place" v="village" />
		<tag k="population" v="497" />
		<tag k="population:date" v="2021-01-01" />
		<tag k="ref:ssb_tettsted" v="6248" />
		<tag k="source:population" v="SSB - befolkning i tettstedet" />
		<tag k="ssr:stedsnr" v="809796" />
	</node>
	<node id="444249338" lat="62.8537693" lon="7.205591" version="2" timestamp="2022-08-07T07:21:05Z" changeset="124585500" uid="3497659" user="NKA">
		<tag k="name" v="Myrbostad" />
		<tag k="place" v="hamlet" />
		<tag k="ssr:stedsnr" v="740194" />
	</node>
	<node id="444249836" lat="62.8533303" lon="7.1550965" version="7" timestamp="2022-08-07T07:21:05Z" changeset="124585500" uid="3497659" user="NKA">
		<tag k="name" v="Elnesvågen" />
		<tag k="place" v="village" />
		<tag k="population" v="2642" />
		<tag k="population:date" v="2021-01-01" />
		<tag k="ref:ssb_tettsted" v="6241" />
		<tag k="source:population" v="SSB - befolkning i tettstedet" />
		<tag k="ssr:stedsnr" v="861182" />
	</node>
	<node id="785004827" lat="62.9072115" lon="6.9143693" version="7" timestamp="2022-08-07T07:21:05Z" changeset="124585500" uid="3497659" user="NKA">
		<tag k="name" v="Bud" />
		<tag k="place" v="village" />
		<tag k="population" v="800" />
		<tag k="population:date" v="2021-01-01" />
		<tag k="ref:ssb_tettsted" v="6242" />
		<tag k="source:population" v="SSB - befolkning i tettstedet" />
		<tag k="ssr:stedsnr" v="679075" />
		<tag k="wikidata" v="Q1000456" />
		<tag k="wikipedia" v="en:Bud, Norway" />
	</node>
	<node id="990817108" lat="62.8843357" lon="6.9704219" version="2" timestamp="2022-08-07T07:21:05Z" changeset="124585500" uid="3497659" user="NKA">
		<tag k="name" v="Harøysundet" />
		<tag k="place" v="hamlet" />
		<tag k="ssr:stedsnr" v="254146" />
	</node>
	<node id="996456729" lat="62.9836255" lon="7.311203" version="2" timestamp="2022-08-07T07:21:05Z" changeset="124585500" uid="3497659" user="NKA">
		<tag k="name" v="Gaustad" />
		<tag k="place" v="hamlet" />
		<tag k="ssr:stedsnr" v="558918" />
	</node>
	<node id="996456732" lat="62.9615604" lon="7.3703856" version="2" timestamp="2022-08-07T07:21:05Z" changeset="124585500" uid="3497659" user="NKA">
		<tag k="name" v="Lyngstad" />
		<tag k="place" v="village" />
		<tag k="ssr:stedsnr" v="436951" />
	</node>
	<node id="1374246348" lat="62.8804149" lon="7.2371434" version="3" timestamp="2022-08-07T07:21:05Z" changeset="124585500" uid="3497659" user="NKA">
		<tag k="historic" v="shieling" />
		<tag k="name" v="Myrbostadsetra" />
		<tag k="place" v="isolated_dwelling" />
		<tag k="ssr:stedsnr" v="740624" />
	</node>
	<node id="1398399338" lat="62.9741663" lon="7.1613384" version="5" timestamp="2022-08-07T07:21:05Z" changeset="124585500" uid="3497659" user="NKA">
		<tag k="name" v="Farstad" />
		<tag k="place" v="village" />
		<tag k="population" v="258" />
		<tag k="population:date" v="2021-01-01" />
		<tag k="ref:ssb_tettsted" v="6247" />
		<tag k="source:population" v="SSB - befolkning i tettstedet" />
		<tag k="ssr:stedsnr" v="255040" />
	</node>
	<node id="1398409990" lat="62.9245259" lon="6.9602825" version="2" timestamp="2022-08-07T07:21:05Z" changeset="124585500" uid="3497659" user="NKA">
		<tag k="name" v="Bergset" />
		<tag k="old_name" v="Ersholmen" />
		<tag k="place" v="village" />
		<tag k="ssr:stedsnr" v="475675" />
	</node>
	<node id="3883999952" lat="62.8140631" lon="7.1004503" version="3" timestamp="2022-08-07T07:21:05Z" changeset="124585500" uid="3497659" user="NKA">
		<tag k="name" v="Aureosen" />
		<tag k="place" v="village" />
		<tag k="ssr:stedsnr" v="375759" />
	</node>
	<node id="4809310812" lat="62.9081902" lon="6.9256299" version="2" timestamp="2022-08-07T07:21:05Z" changeset="124585500" uid="3497659" user="NKA">
		<tag k="name" v="Persengjerdet" />
		<tag k="place" v="farm" />
		<tag k="ssr:stedsnr" v="277336" />
	</node>
	<node id="4809310813" lat="62.9103949" lon="6.9213839" version="2" timestamp="2022-08-07T07:21:05Z" changeset="124585500" uid="3497659" user="NKA">
		<tag k="name" v="Skreddargjerdet" />
		<tag k="place" v="farm" />
		<tag k="ssr:stedsnr" v="460075" />
	</node>
	<node id="4809310814" lat="62.9097049" lon="6.924636" version="2" timestamp="2022-08-07T07:21:05Z" changeset="124585500" uid="3497659" user="NKA">
		<tag k="name" v="Mortensgjerdet" />
		<tag k="place" v="farm" />
		<tag k="ssr:stedsnr" v="460833" />
	</node>
	<node id="5916022713" lat="62.8994624" lon="7.4567759" version="2" timestamp="2022-01-26T07:34:57Z" changeset="116611763" uid="3497659" user="NKA">
		<tag k="junction" v="yes" />
		<tag k="name" v="Breia" />
		<tag k="ssr:stedsnr" v="520447" />
	</node>
	<node id="6185353606" lat="62.8416098" lon="7.0333716" version="5" timestamp="2022-08-07T07:21:05Z" changeset="124585500" uid="3497659" user="NKA">
		<tag k="alt_name" v="Tornes i Romsdal" />
		<tag k="name" v="Tornes" />
		<tag k="place" v="village" />
		<tag k="population" v="559" />
		<tag k="population:date" v="2021-01-01" />
		<tag k="ref:ssb_tettsted" v="6244" />
		<tag k="source:population" v="SSB - befolkning i tettstedet" />
		<tag k="ssr:stedsnr" v="678202" />
	</node>
	<node id="6216715387" lat="63.0048974" lon="7.2956551" version="2" timestamp="2022-08-07T07:21:05Z" changeset="124585500" uid="3497659" user="NKA">
		<tag k="name" v="Vevang" />
		<tag k="place" v="hamlet" />
		<tag k="ssr:stedsnr" v="922381" />
	</node>
	<node id="6216715400" lat="62.954337" lon="7.0958817" version="2" timestamp="2022-08-07T07:21:05Z" changeset="124585500" uid="3497659" user="NKA">
		<tag k="name" v="Hustad" />
		<tag k="place" v="village" />
		<tag k="ssr:stedsnr" v="437012" />
	</node>
	<node id="6857283752" lat="62.9592436" lon="7.1133912" version="2" timestamp="2022-01-26T07:34:57Z" changeset="116611763" uid="3497659" user="NKA">
		<tag k="junction" v="yes" />
		<tag k="name" v="Nerlandskiftet" />
		<tag k="ssr:stedsnr" v="580711" />
	</node>
	<node id="7857775643" lat="62.9036566" lon="7.0870744" version="2" timestamp="2022-08-07T07:21:05Z" changeset="124585500" uid="3497659" user="NKA">
		<tag k="name" v="Skardset" />
		<tag k="place" v="hamlet" />
		<tag k="ssr:stedsnr" v="496176" />
	</node>
	<node id="7857775644" lat="62.8975794" lon="7.1631285" version="2" timestamp="2022-08-07T07:21:05Z" changeset="124585500" uid="3497659" user="NKA">
		<tag k="name" v="Hatle" />
		<tag k="place" v="hamlet" />
		<tag k="ssr:stedsnr" v="861142" />
	</node>
	<node id="9936785987" lat="62.9094931" lon="7.2219171" version="1" timestamp="2022-08-07T07:21:05Z" changeset="124585500" uid="3497659" user="NKA">
		<tag k="name" v="Orrestein" />
		<tag k="place" v="farm" />
		<tag k="ssr:stedsnr" v="12590" />
	</node>
	<node id="9936785988" lat="62.8933611" lon="7.3671278" version="1" timestamp="2022-08-07T07:21:05Z" changeset="124585500" uid="3497659" user="NKA">
		<tag k="name" v="Trøa" />
		<tag k="place" v="farm" />
		<tag k="ssr:stedsnr" v="11561" />
	</node>
	<node id="9936785989" lat="62.946443" lon="7.0199734" version="1" timestamp="2022-08-07T07:21:05Z" changeset="124585500" uid="3497659" user="NKA">
		<tag k="name" v="Brennholmen" />
		<tag k="place" v="farm" />
		<tag k="ssr:stedsnr" v="801122" />
	</node>
	<node id="9936785990" lat="62.9170728" lon="7.2998027" version="1" timestamp="2022-08-07T07:21:05Z" changeset="124585500" uid="3497659" user="NKA">
		<tag k="name" v="Myrland" />
		<tag k="place" v="farm" />
		<tag k="ssr:stedsnr" v="922508" />
	</node>
	<node id="9936785991" lat="62.9689988" lon="7.0942366" version="1" timestamp="2022-08-07T07:21:05Z" changeset="124585500" uid="3497659" user="NKA">
		<tag k="name" v="Nausthaugen" />
		<tag k="place" v="farm" />
		<tag k="ssr:stedsnr" v="945009" />
	</node>
	<node id="9936785992" lat="62.8880611" lon="6.9971807" version="1" timestamp="2022-08-07T07:21:05Z" changeset="124585500" uid="3497659" user="NKA">
		<tag k="name" v="Mjølkeremman" />
		<tag k="place" v="locality" />
		<tag k="ssr:stedsnr" v="921149" />
	</node>
	<node id="9936785993" lat="62.9101945" lon="7.2251361" version="1" timestamp="2022-08-07T07:21:05Z" changeset="124585500" uid="3497659" user="NKA">
		<tag k="name" v="Brennhaug" />
		<tag k="place" v="farm" />
		<tag k="ssr:stedsnr" v="922511" />
	</node>
	<node id="9936785994" lat="62.8711028" lon="7.2712028" version="1" timestamp="2022-08-07T07:21:05Z" changeset="124585500" uid="3497659" user="NKA">
		<tag k="name" v="Holasetra" />
		<tag k="place" v="locality" />
		<tag k="ssr:stedsnr" v="824873" />
	</node>
	<node id="9936785995" lat="62.8518666" lon="7.2339807" version="1" timestamp="2022-08-07T07:21:05Z" changeset="124585500" uid="3497659" user="NKA">
		<tag k="name" v="Midtbø" />
		<tag k="place" v="farm" />
		<tag k="ssr:stedsnr" v="921698" />
	</node>
	<node id="9936785996" lat="62.8807287" lon="6.9739294" version="1" timestamp="2022-08-07T07:21:05Z" changeset="124585500" uid="3497659" user="NKA">
		<tag k="name" v="Vikan" />
		<tag k="place" v="hamlet" />
		<tag k="ssr:stedsnr" v="739162" />
	</node>
	<node id="9936785997" lat="62.9271" lon="7.3092695" version="1" timestamp="2022-08-07T07:21:05Z" changeset="124585500" uid="3497659" user="NKA">
		<tag k="name" v="Torelia" />
		<tag k="place" v="farm" />
		<tag k="ssr:stedsnr" v="861528" />
	</node>
	<node id="9936785998" lat="62.9110939" lon="6.9723303" version="1" timestamp="2022-08-07T07:21:05Z" changeset="124585500" uid="3497659" user="NKA">
		<tag k="name" v="Solli" />
		<tag k="place" v="farm" />
		<tag k="ssr:stedsnr" v="680090" />
	</node>
	<node id="9936785999" lat="62.8871" lon="7.3800862" version="1" timestamp="2022-08-07T07:21:05Z" changeset="124585500" uid="3497659" user="NKA">
		<tag k="name" v="Furumo" />
		<tag k="place" v="farm" />
		<tag k="ssr:stedsnr" v="193612" />
	</node>
	<node id="9936786000" lat="62.8941472" lon="7.0731751" version="1" timestamp="2022-08-07T07:21:05Z" changeset="124585500" uid="3497659" user="NKA">
		<tag k="name" v="Bergtun" />
		<tag k="place" v="farm" />
		<tag k="ssr:stedsnr" v="800152" />
	</node>
	<node id="9936786001" lat="62.8642694" lon="7.0055445" version="1" timestamp="2022-08-07T07:21:05Z" changeset="124585500" uid="3497659" user="NKA">
		<tag k="name" v="Lunheim" />
		<tag k="place" v="farm" />
		<tag k="ssr:stedsnr" v="618111" />
	</node>
	<node id="9936786002" lat="62.9243083" lon="7.3043696" version="1" timestamp="2022-08-07T07:21:05Z" changeset="124585500" uid="3497659" user="NKA">
		<tag k="name" v="Peplassen" />
		<tag k="place" v="locality" />
		<tag k="ssr:stedsnr" v="763242" />
	</node>
	<node id="9936786003" lat="62.8278758" lon="7.2555114" version="1" timestamp="2022-08-07T07:21:05Z" changeset="124585500" uid="3497659" user="NKA">
		<tag k="alt_name" v="Rødset" />
		<tag k="name" v="Røset" />
		<tag k="place" v="farm" />
		<tag k="ssr:stedsnr" v="770126" />
	</node>
	<node id="9936786004" lat="62.9238667" lon="7.3219806" version="1" timestamp="2022-08-07T07:21:05Z" changeset="124585500" uid="3497659" user="NKA">
		<tag k="name" v="Furuli" />
		<tag k="place" v="farm" />
		<tag k="ssr:stedsnr" v="679521" />
	</node>
	<node id="9936786005" lat="62.9724999" lon="7.1664466" version="1" timestamp="2022-08-07T07:21:05Z" changeset="124585500" uid="3497659" user="NKA">
		<tag k="name" v="Reset" />
		<tag k="place" v="farm" />
		<tag k="ssr:stedsnr" v="763049" />
	</node>
	<node id="9936786006" lat="62.8717528" lon="7.2496944" version="1" timestamp="2022-08-07T07:21:05Z" changeset="124585500" uid="3497659" user="NKA">
		<tag k="historic" v="shieling" />
		<tag k="name" v="Myrbostadsetra" />
		<tag k="place" v="isolated_dwelling" />
		<tag k="ssr:stedsnr" v="557614" />
	</node>
	<node id="9936786007" lat="62.9265345" lon="7.3231357" version="1" timestamp="2022-08-07T07:21:05Z" changeset="124585500" uid="3497659" user="NKA">
		<tag k="name" v="Skogli" />
		<tag k="place" v="farm" />
		<tag k="ssr:stedsnr" v="557535" />
	</node>
	<node id="9936786008" lat="62.8325835" lon="7.2122295" version="1" timestamp="2022-08-07T07:21:05Z" changeset="124585500" uid="3497659" user="NKA">
		<tag k="name" v="Syltefeta" />
		<tag k="place" v="farm" />
		<tag k="ssr:stedsnr" v="739758" />
	</node>
	<node id="9936786009" lat="62.9446445" lon="7.426789" version="1" timestamp="2022-08-07T07:21:05Z" changeset="124585500" uid="3497659" user="NKA">
		<tag k="name" v="Kronborga" />
		<tag k="place" v="farm" />
		<tag k="ssr:stedsnr" v="739535" />
	</node>
	<node id="9936786010" lat="62.9412382" lon="7.0154928" version="1" timestamp="2022-08-07T07:21:05Z" changeset="124585500" uid="3497659" user="NKA">
		<tag k="name" v="Myrstad" />
		<tag k="place" v="farm" />
		<tag k="ssr:stedsnr" v="316129" />
	</node>
	<node id="9936786011" lat="62.9006415" lon="6.9828816" version="1" timestamp="2022-08-07T07:21:05Z" changeset="124585500" uid="3497659" user="NKA">
		<tag k="name" v="Nyhagen" />
		<tag k="place" v="farm" />
		<tag k="ssr:stedsnr" v="375140" />
	</node>
	<node id="9936786012" lat="62.8780056" lon="7.0010335" version="1" timestamp="2022-08-07T07:21:05Z" changeset="124585500" uid="3497659" user="NKA">
		<tag k="name" v="Lotsberg" />
		<tag k="place" v="farm" />
		<tag k="ssr:stedsnr" v="132143" />
	</node>
	<node id="9936786013" lat="62.9872583" lon="7.2193917" version="1" timestamp="2022-08-07T07:21:05Z" changeset="124585500" uid="3497659" user="NKA">
		<tag k="name" v="Austheim" />
		<tag k="place" v="farm" />
		<tag k="ssr:stedsnr" v="680923" />
	</node>
	<node id="9936786014" lat="62.9250354" lon="7.1034512" version="1" timestamp="2022-08-07T07:21:05Z" changeset="124585500" uid="3497659" user="NKA">
		<tag k="name" v="Korsmo" />
		<tag k="place" v="hamlet" />
		<tag k="ssr:stedsnr" v="680096" />
	</node>
	<node id="9936786015" lat="62.99225" lon="7.2764612" version="1" timestamp="2022-08-07T07:21:05Z" changeset="124585500" uid="3497659" user="NKA">
		<tag k="name" v="Risestølen" />
		<tag k="place" v="farm" />
		<tag k="ssr:stedsnr" v="680913" />
	</node>
	<node id="9936786016" lat="62.9545555" lon="7.3698307" version="1" timestamp="2022-08-07T07:21:05Z" changeset="124585500" uid="3497659" user="NKA">
		<tag k="name" v="Helgåsen" />
		<tag k="place" v="farm" />
		<tag k="ssr:stedsnr" v="678967" />
	</node>
	<node id="9936814217" lat="62.9880236" lon="7.2460016" version="1" timestamp="2022-08-07T07:21:05Z" changeset="124585500" uid="3497659" user="NKA">
		<tag k="name" v="Langbakken" />
		<tag k="place" v="hamlet" />
		<tag k="ssr:stedsnr" v="801891" />
	</node>
	<node id="9936814218" lat="62.9308528" lon="7.1111307" version="1" timestamp="2022-08-07T07:21:05Z" changeset="124585500" uid="3497659" user="NKA">
		<tag k="name" v="Råa" />
		<tag k="place" v="farm" />
		<tag k="ssr:stedsnr" v="619105" />
	</node>
	<node id="9936814219" lat="62.994939" lon="7.2172347" version="1" timestamp="2022-08-07T07:21:05Z" changeset="124585500" uid="3497659" user="NKA">
		<tag k="name" v="Nergård" />
		<tag k="place" v="farm" />
		<tag k="ssr:stedsnr" v="763063" />
	</node>
	<node id="9936814220" lat="62.9197324" lon="7.3519128" version="1" timestamp="2022-08-07T07:21:05Z" changeset="124585500" uid="3497659" user="NKA">
		<tag k="name" v="Myran" />
		<tag k="place" v="farm" />
		<tag k="ssr:stedsnr" v="740514" />
	</node>
	<node id="9936814221" lat="62.9011639" lon="6.95145" version="1" timestamp="2022-08-07T07:21:05Z" changeset="124585500" uid="3497659" user="NKA">
		<tag k="name" v="Nedre Gule" />
		<tag k="place" v="farm" />
		<tag k="ssr:stedsnr" v="34357" />
	</node>
	<node id="9936814222" lat="62.779282" lon="7.1603758" version="1" timestamp="2022-08-07T07:21:05Z" changeset="124585500" uid="3497659" user="NKA">
		<tag k="historic" v="shieling" />
		<tag k="name" v="Storsetra" />
		<tag k="place" v="isolated_dwelling" />
		<tag k="ssr:stedsnr" v="618820" />
	</node>
	<node id="9936814223" lat="62.9604173" lon="7.0572382" version="1" timestamp="2022-08-07T07:21:05Z" changeset="124585500" uid="3497659" user="NKA">
		<tag k="name" v="Lindset" />
		<tag k="place" v="farm" />
		<tag k="ssr:stedsnr" v="73015" />
	</node>
	<node id="9936814224" lat="62.9478571" lon="7.2737182" version="1" timestamp="2022-08-07T07:21:05Z" changeset="124585500" uid="3497659" user="NKA">
		<tag k="name" v="Gådalen" />
		<tag k="place" v="farm" />
		<tag k="ssr:stedsnr" v="618971" />
	</node>
	<node id="9936814225" lat="62.8764787" lon="6.9858954" version="1" timestamp="2022-08-07T07:21:05Z" changeset="124585500" uid="3497659" user="NKA">
		<tag k="name" v="Ytre Stavika" />
		<tag k="place" v="farm" />
		<tag k="ssr:stedsnr" v="72146" />
	</node>
	<node id="9936814226" lat="62.9129444" lon="6.9898501" version="1" timestamp="2022-08-07T07:21:05Z" changeset="124585500" uid="3497659" user="NKA">
		<tag k="alt_name" v="Nordgård" />
		<tag k="name" v="Norgard" />
		<tag k="place" v="farm" />
		<tag k="ssr:stedsnr" v="73074" />
	</node>
	<node id="9936814227" lat="62.8391441" lon="7.0555523" version="1" timestamp="2022-08-07T07:21:05Z" changeset="124585500" uid="3497659" user="NKA">
		<tag k="name" v="Ausa" />
		<tag k="place" v="farm" />
		<tag k="ssr:stedsnr" v="618169" />
	</node>
	<node id="9936814228" lat="62.8610917" lon="7.0163555" version="1" timestamp="2022-08-07T07:21:05Z" changeset="124585500" uid="3497659" user="NKA">
		<tag k="name" v="Øverbø" />
		<tag k="place" v="farm" />
		<tag k="ssr:stedsnr" v="72238" />
	</node>
	<node id="9936814229" lat="62.8530722" lon="7.1177196" version="1" timestamp="2022-08-07T07:21:05Z" changeset="124585500" uid="3497659" user="NKA">
		<tag k="name" v="Urda" />
		<tag k="place" v="farm" />
		<tag k="ssr:stedsnr" v="618173" />
	</node>
	<node id="9936814230" lat="62.9204971" lon="7.3687015" version="1" timestamp="2022-08-07T07:21:05Z" changeset="124585500" uid="3497659" user="NKA">
		<tag k="name" v="Dyrhaugen" />
		<tag k="place" v="hamlet" />
		<tag k="ssr:stedsnr" v="679509" />
	</node>
	<node id="9936814231" lat="62.9898717" lon="7.1596314" version="1" timestamp="2022-08-07T07:21:05Z" changeset="124585500" uid="3497659" user="NKA">
		<tag k="name" v="Breivika" />
		<tag k="place" v="hamlet" />
		<tag k="ssr:stedsnr" v="618042" />
	</node>
	<node id="9936814232" lat="62.9044861" lon="7.0100168" version="1" timestamp="2022-08-07T07:21:05Z" changeset="124585500" uid="3497659" user="NKA">
		<tag k="name" v="Hundehaugan" />
		<tag k="place" v="farm" />
		<tag k="ssr:stedsnr" v="20126" />
	</node>
	<node id="9936814233" lat="62.8216754" lon="7.0701642" version="1" timestamp="2022-08-07T07:21:05Z" changeset="124585500" uid="3497659" user="NKA">
		<tag k="name" v="Møstad" />
		<tag k="place" v="farm" />
		<tag k="ssr:stedsnr" v="596234" />
	</node>
	<node id="9936814234" lat="62.9303111" lon="7.3277973" version="1" timestamp="2022-08-07T07:21:05Z" changeset="124585500" uid="3497659" user="NKA">
		<tag k="name" v="Furuli" />
		<tag k="place" v="farm" />
		<tag k="ssr:stedsnr" v="679465" />
	</node>
	<node id="9936814235" lat="62.8841974" lon="6.9867879" version="1" timestamp="2022-08-07T07:21:05Z" changeset="124585500" uid="3497659" user="NKA">
		<tag k="name" v="Solberg" />
		<tag k="place" v="farm" />
		<tag k="ssr:stedsnr" v="11155" />
	</node>
	<node id="9936814236" lat="62.9539528" lon="7.3518029" version="1" timestamp="2022-08-07T07:21:05Z" changeset="124585500" uid="3497659" user="NKA">
		<tag k="name" v="Solbakken" />
		<tag k="place" v="farm" />
		<tag k="ssr:stedsnr" v="618967" />
	</node>
	<node id="9936814237" lat="62.8634833" lon="7.0210891" version="1" timestamp="2022-08-07T07:21:05Z" changeset="124585500" uid="3497659" user="NKA">
		<tag k="name" v="Råkvoll" />
		<tag k="place" v="farm" />
		<tag k="ssr:stedsnr" v="861128" />
	</node>
	<node id="9936814238" lat="62.8943278" lon="6.9682585" version="1" timestamp="2022-08-07T07:21:05Z" changeset="124585500" uid="3497659" user="NKA">
		<tag k="name" v="Strandheim" />
		<tag k="place" v="farm" />
		<tag k="ssr:stedsnr" v="11171" />
	</node>
	<node id="9936814239" lat="62.891208" lon="6.9768855" version="1" timestamp="2022-08-07T07:21:05Z" changeset="124585500" uid="3497659" user="NKA">
		<tag k="name" v="Vestad" />
		<tag k="place" v="hamlet" />
		<tag k="ssr:stedsnr" v="861144" />
	</node>
	<node id="9936814240" lat="62.9606278" lon="7.3793361" version="1" timestamp="2022-08-07T07:21:05Z" changeset="124585500" uid="3497659" user="NKA">
		<tag k="name" v="Bogen" />
		<tag k="place" v="farm" />
		<tag k="ssr:stedsnr" v="506622" />
	</node>
	<node id="9936814241" lat="63.000317" lon="7.2837333" version="1" timestamp="2022-08-07T07:21:05Z" changeset="124585500" uid="3497659" user="NKA">
		<tag k="name" v="Groravika" />
		<tag k="place" v="village" />
		<tag k="ssr:stedsnr" v="384582" />
	</node>
	<node id="9936814242" lat="62.9842472" lon="7.2585974" version="1" timestamp="2022-08-07T07:21:05Z" changeset="124585500" uid="3497659" user="NKA">
		<tag k="name" v="Tøsse" />
		<tag k="place" v="farm" />
		<tag k="ssr:stedsnr" v="437878" />
	</node>
	<node id="9936814243" lat="62.9553241" lon="7.0316282" version="1" timestamp="2022-08-07T07:21:05Z" changeset="124585500" uid="3497659" user="NKA">
		<tag k="name" v="Nygard" />
		<tag k="place" v="farm" />
		<tag k="ssr:stedsnr" v="194009" />
	</node>
	<node id="9936814244" lat="62.86242" lon="7.0097865" version="1" timestamp="2022-08-07T07:21:05Z" changeset="124585500" uid="3497659" user="NKA">
		<tag k="name" v="Kjørsvika" />
		<tag k="place" v="hamlet" />
		<tag k="ssr:stedsnr" v="193230" />
	</node>
	<node id="9936814245" lat="62.9387028" lon="6.9948418" version="1" timestamp="2022-08-07T07:21:05Z" changeset="124585500" uid="3497659" user="NKA">
		<tag k="name" v="Åsheim" />
		<tag k="place" v="farm" />
		<tag k="ssr:stedsnr" v="194118" />
	</node>
	<node id="9936814246" lat="62.8391668" lon="7.2397814" version="1" timestamp="2022-08-07T07:21:05Z" changeset="124585500" uid="3497659" user="NKA">
		<tag k="name" v="Moen" />
		<tag k="place" v="neighbourhood" />
		<tag k="ssr:stedsnr" v="566811" />
	</node>
	<node id="9936814247" lat="62.897521" lon="6.9797397" version="1" timestamp="2022-08-07T07:21:05Z" changeset="124585500" uid="3497659" user="NKA">
		<tag k="name" v="Vågen" />
		<tag k="place" v="farm" />
		<tag k="ssr:stedsnr" v="193170" />
	</node>
	<node id="9936814248" lat="62.9931134" lon="7.2220746" version="1" timestamp="2022-08-07T07:21:05Z" changeset="124585500" uid="3497659" user="NKA">
		<tag k="name" v="Flatmo" />
		<tag k="place" v="hamlet" />
		<tag k="ssr:stedsnr" v="558903" />
	</node>
	<node id="9936814249" lat="62.8667814" lon="7.0118702" version="1" timestamp="2022-08-07T07:21:05Z" changeset="124585500" uid="3497659" user="NKA">
		<tag k="name" v="Myrlykkja" />
		<tag k="place" v="farm" />
		<tag k="ssr:stedsnr" v="739108" />
	</node>
	<node id="9936814250" lat="62.8924538" lon="6.9914034" version="1" timestamp="2022-08-07T07:21:05Z" changeset="124585500" uid="3497659" user="NKA">
		<tag k="name" v="Vestadremma" />
		<tag k="place" v="farm" />
		<tag k="ssr:stedsnr" v="193152" />
	</node>
	<node id="9936814251" lat="62.8341511" lon="7.1423039" version="1" timestamp="2022-08-07T07:21:05Z" changeset="124585500" uid="3497659" user="NKA">
		<tag k="name" v="Svenøya" />
		<tag k="place" v="farm" />
		<tag k="ssr:stedsnr" v="981175" />
	</node>
	<node id="9936814252" lat="62.9902167" lon="7.2534639" version="1" timestamp="2022-08-07T07:21:05Z" changeset="124585500" uid="3497659" user="NKA">
		<tag k="name" v="Litl-Vevang" />
		<tag k="place" v="farm" />
		<tag k="ssr:stedsnr" v="558904" />
	</node>
	<node id="9936814253" lat="62.7922723" lon="7.2421473" version="1" timestamp="2022-08-07T07:21:05Z" changeset="124585500" uid="3497659" user="NKA">
		<tag k="name" v="Vollbakken" />
		<tag k="place" v="farm" />
		<tag k="ssr:stedsnr" v="942820" />
	</node>
	<node id="9936814254" lat="62.9553306" lon="7.3802361" version="1" timestamp="2022-08-07T07:21:05Z" changeset="124585500" uid="3497659" user="NKA">
		<tag k="name" v="Nylund" />
		<tag k="place" v="farm" />
		<tag k="ssr:stedsnr" v="314973" />
	</node>
	<node id="9936814255" lat="62.8569972" lon="7.2298613" version="1" timestamp="2022-08-07T07:21:05Z" changeset="124585500" uid="3497659" user="NKA">
		<tag k="name" v="Slettvold" />
		<tag k="place" v="farm" />
		<tag k="ssr:stedsnr" v="824049" />
	</node>
	<node id="9936814256" lat="62.9446167" lon="7.3115695" version="1" timestamp="2022-08-07T07:21:05Z" changeset="124585500" uid="3497659" user="NKA">
		<tag k="name" v="Barkongla" />
		<tag k="place" v="isolated_dwelling" />
		<tag k="ssr:stedsnr" v="254998" />
	</node>
	<node id="9936814257" lat="62.908667" lon="7.1207875" version="1" timestamp="2022-08-07T07:21:05Z" changeset="124585500" uid="3497659" user="NKA">
		<tag k="name" v="Herskaret" />
		<tag k="place" v="farm" />
		<tag k="ssr:stedsnr" v="520618" />
	</node>
	<node id="9936814258" lat="62.9993111" lon="7.2331361" version="1" timestamp="2022-08-07T07:21:05Z" changeset="124585500" uid="3497659" user="NKA">
		<tag k="alt_name" v="Fjærvoll" />
		<tag k="name" v="Fjervoll" />
		<tag k="place" v="farm" />
		<tag k="ssr:stedsnr" v="133880" />
	</node>
	<node id="9936814259" lat="62.8435758" lon="7.236154" version="1" timestamp="2022-08-07T07:21:05Z" changeset="124585500" uid="3497659" user="NKA">
		<tag k="name" v="Lauvbakken" />
		<tag k="place" v="farm" />
		<tag k="ssr:stedsnr" v="800661" />
	</node>
	<node id="9936814260" lat="62.9393333" lon="7.3438751" version="1" timestamp="2022-08-07T07:21:05Z" changeset="124585500" uid="3497659" user="NKA">
		<tag k="name" v="Midtbø" />
		<tag k="place" v="farm" />
		<tag k="ssr:stedsnr" v="132512" />
	</node>
	<node id="9936814261" lat="62.9032595" lon="6.972459" version="1" timestamp="2022-08-07T07:21:05Z" changeset="124585500" uid="3497659" user="NKA">
		<tag k="alt_name" v="Gunnhildhagen" />
		<tag k="name" v="Råkhaugbakken" />
		<tag k="place" v="farm" />
		<tag k="ssr:stedsnr" v="641022" />
	</node>
	<node id="9936814262" lat="62.9081583" lon="6.957889" version="1" timestamp="2022-08-07T07:21:05Z" changeset="124585500" uid="3497659" user="NKA">
		<tag k="name" v="Bjølstad" />
		<tag k="place" v="farm" />
		<tag k="ssr:stedsnr" v="558099" />
	</node>
	<node id="9936814263" lat="62.8704806" lon="6.9996168" version="1" timestamp="2022-08-07T07:21:05Z" changeset="124585500" uid="3497659" user="NKA">
		<tag k="name" v="Storvika" />
		<tag k="place" v="farm" />
		<tag k="ssr:stedsnr" v="679125" />
	</node>
	<node id="9936814264" lat="62.9862648" lon="7.3054926" version="1" timestamp="2022-08-07T07:21:05Z" changeset="124585500" uid="3497659" user="NKA">
		<tag k="name" v="Remma" />
		<tag k="place" v="farm" />
		<tag k="ssr:stedsnr" v="497900" />
	</node>
	<node id="9936814265" lat="62.8342085" lon="7.2096067" version="1" timestamp="2022-08-07T07:21:05Z" changeset="124585500" uid="3497659" user="NKA">
		<tag k="name" v="Grøtholen" />
		<tag k="place" v="farm" />
		<tag k="ssr:stedsnr" v="763052" />
	</node>
	<node id="9936814266" lat="62.9942066" lon="7.2157043" version="1" timestamp="2022-08-07T07:21:05Z" changeset="124585500" uid="3497659" user="NKA">
		<tag k="name" v="Solstad" />
		<tag k="place" v="farm" />
		<tag k="ssr:stedsnr" v="1080973" />
	</node>
	<node id="9936814267" lat="63.0055417" lon="7.2769807" version="1" timestamp="2022-08-07T07:21:05Z" changeset="124585500" uid="3497659" user="NKA">
		<tag k="name" v="Steinen" />
		<tag k="place" v="farm" />
		<tag k="ssr:stedsnr" v="497399" />
	</node>
	<node id="9936814268" lat="62.8744916" lon="7.2729307" version="1" timestamp="2022-08-07T07:21:05Z" changeset="124585500" uid="3497659" user="NKA">
		<tag k="name" v="Troasetra" />
		<tag k="place" v="isolated_dwelling" />
		<tag k="ssr:stedsnr" v="520031" />
	</node>
	<node id="9936814269" lat="62.8545325" lon="7.2771738" version="1" timestamp="2022-08-07T07:21:05Z" changeset="124585500" uid="3497659" user="NKA">
		<tag k="name" v="Syltesetra" />
		<tag k="place" v="hamlet" />
		<tag k="ssr:stedsnr" v="496684" />
	</node>
	<node id="9936814270" lat="62.818583" lon="7.2167461" version="1" timestamp="2022-08-07T07:21:05Z" changeset="124585500" uid="3497659" user="NKA">
		<tag k="name" v="Ukkelberg" />
		<tag k="place" v="farm" />
		<tag k="ssr:stedsnr" v="497731" />
	</node>
	<node id="9936814271" lat="62.9241222" lon="7.4049084" version="1" timestamp="2022-08-07T07:21:05Z" changeset="124585500" uid="3497659" user="NKA">
		<tag k="name" v="Vikasetra" />
		<tag k="place" v="locality" />
		<tag k="ssr:stedsnr" v="460435" />
	</node>
	<node id="9936814272" lat="62.850625" lon="7.2582222" version="1" timestamp="2022-08-07T07:21:05Z" changeset="124585500" uid="3497659" user="NKA">
		<tag k="name" v="Nymoen" />
		<tag k="place" v="farm" />
		<tag k="ssr:stedsnr" v="496683" />
	</node>
	<node id="9936814273" lat="62.9429319" lon="7.0129969" version="1" timestamp="2022-08-07T07:21:05Z" changeset="124585500" uid="3497659" user="NKA">
		<tag k="name" v="Remmen" />
		<tag k="place" v="farm" />
		<tag k="ssr:stedsnr" v="231634" />
	</node>
	<node id="9936814274" lat="62.8771805" lon="7.0034861" version="1" timestamp="2022-08-07T07:21:05Z" changeset="124585500" uid="3497659" user="NKA">
		<tag k="name" v="Botnateigen" />
		<tag k="place" v="farm" />
		<tag k="ssr:stedsnr" v="460030" />
	</node>
	<node id="9936814275" lat="62.9691022" lon="7.3413892" version="1" timestamp="2022-08-07T07:21:05Z" changeset="124585500" uid="3497659" user="NKA">
		<tag k="name" v="Mekvika" />
		<tag k="place" v="hamlet" />
		<tag k="ssr:stedsnr" v="922926" />
	</node>
	<node id="9936814276" lat="62.9522063" lon="7.1365104" version="1" timestamp="2022-08-07T07:21:05Z" changeset="124585500" uid="3497659" user="NKA">
		<tag k="name" v="Myrstad" />
		<tag k="place" v="farm" />
		<tag k="ssr:stedsnr" v="437137" />
	</node>
	<node id="9936814277" lat="62.9707111" lon="7.3127862" version="1" timestamp="2022-08-07T07:21:05Z" changeset="124585500" uid="3497659" user="NKA">
		<tag k="name" v="Skardet" />
		<tag k="place" v="farm" />
		<tag k="ssr:stedsnr" v="862943" />
	</node>
	<node id="9936814278" lat="62.9659503" lon="7.0970876" version="1" timestamp="2022-08-07T07:21:05Z" changeset="124585500" uid="3497659" user="NKA">
		<tag k="name" v="Kvilaren" />
		<tag k="place" v="farm" />
		<tag k="ssr:stedsnr" v="437032" />
	</node>
	<node id="9936814279" lat="62.8842889" lon="7.4017639" version="1" timestamp="2022-08-07T07:21:05Z" changeset="124585500" uid="3497659" user="NKA">
		<tag k="name" v="Markus-setra" />
		<tag k="place" v="locality" />
		<tag k="ssr:stedsnr" v="460387" />
	</node>
	<node id="9936814280" lat="62.9280479" lon="6.9908796" version="1" timestamp="2022-08-07T07:21:05Z" changeset="124585500" uid="3497659" user="NKA">
		<tag k="name" v="Remman" />
		<tag k="place" v="farm" />
		<tag k="ssr:stedsnr" v="885006" />
	</node>
	<node id="9936814281" lat="62.8653149" lon="7.2736039" version="1" timestamp="2022-08-07T07:21:05Z" changeset="124585500" uid="3497659" user="NKA">
		<tag k="name" v="Kolbergstølen" />
		<tag k="place" v="isolated_dwelling" />
		<tag k="ssr:stedsnr" v="460041" />
	</node>
	<node id="9936814282" lat="62.9234305" lon="7.1576668" version="1" timestamp="2022-08-07T07:21:05Z" changeset="124585500" uid="3497659" user="NKA">
		<tag k="name" v="Nerlandssetra" />
		<tag k="place" v="locality" />
		<tag k="ssr:stedsnr" v="399632" />
	</node>
	<node id="9936814283" lat="62.9373989" lon="7.3217937" version="1" timestamp="2022-08-07T07:21:05Z" changeset="124585500" uid="3497659" user="NKA">
		<tag k="name" v="Børråplassen" />
		<tag k="place" v="farm" />
		<tag k="ssr:stedsnr" v="884217" />
	</node>
	<node id="9936814284" lat="62.921392" lon="7.3527717" version="1" timestamp="2022-08-07T07:21:05Z" changeset="124585500" uid="3497659" user="NKA">
		<tag k="name" v="Åsen" />
		<tag k="place" v="farm" />
		<tag k="ssr:stedsnr" v="800547" />
	</node>
	<node id="9936814285" lat="62.7996007" lon="7.2328311" version="1" timestamp="2022-08-07T07:21:05Z" changeset="124585500" uid="3497659" user="NKA">
		<tag k="name" v="Malme" />
		<tag k="place" v="hamlet" />
		<tag k="ssr:stedsnr" v="316766" />
	</node>
	<node id="9936814286" lat="62.9430861" lon="7.3462251" version="1" timestamp="2022-08-07T07:21:05Z" changeset="124585500" uid="3497659" user="NKA">
		<tag k="name" v="Nyvoll" />
		<tag k="place" v="farm" />
		<tag k="ssr:stedsnr" v="375485" />
	</node>
	<node id="9936814287" lat="62.868725" lon="7.2719722" version="1" timestamp="2022-08-07T07:21:05Z" changeset="124585500" uid="3497659" user="NKA">
		<tag k="name" v="Nøsastølen" />
		<tag k="place" v="isolated_dwelling" />
		<tag k="ssr:stedsnr" v="399030" />
	</node>
	<node id="9936814288" lat="62.9653126" lon="7.3594217" version="1" timestamp="2022-08-07T07:21:05Z" changeset="124585500" uid="3497659" user="NKA">
		<tag k="name" v="Vik" />
		<tag k="place" v="farm" />
		<tag k="ssr:stedsnr" v="194933" />
	</node>
	<node id="9936814289" lat="62.8859306" lon="7.3758834" version="1" timestamp="2022-08-07T07:21:05Z" changeset="124585500" uid="3497659" user="NKA">
		<tag k="name" v="Fredlund" />
		<tag k="place" v="farm" />
		<tag k="ssr:stedsnr" v="921629" />
	</node>
	<node id="9936814290" lat="62.9276147" lon="7.1069673" version="1" timestamp="2022-08-07T07:21:05Z" changeset="124585500" uid="3497659" user="NKA">
		<tag k="name" v="Gammelsetra" />
		<tag k="place" v="hamlet" />
		<tag k="ssr:stedsnr" v="255115" />
	</node>
	<node id="9936814291" lat="62.8555389" lon="7.1978778" version="1" timestamp="2022-08-07T07:21:05Z" changeset="124585500" uid="3497659" user="NKA">
		<tag k="name" v="Nyheim" />
		<tag k="place" v="farm" />
		<tag k="ssr:stedsnr" v="254199" />
	</node>
	<node id="9936814292" lat="63.0062" lon="7.279489" version="1" timestamp="2022-08-07T07:21:05Z" changeset="124585500" uid="3497659" user="NKA">
		<tag k="name" v="Gjengstøa" />
		<tag k="place" v="farm" />
		<tag k="ssr:stedsnr" v="862416" />
	</node>
	<node id="9936814293" lat="62.9809638" lon="7.135604" version="1" timestamp="2022-08-07T07:21:05Z" changeset="124585500" uid="3497659" user="NKA">
		<tag k="name" v="Solåsen" />
		<tag k="place" v="farm" />
		<tag k="ssr:stedsnr" v="156053" />
	</node>
	<node id="9936814294" lat="62.9612417" lon="7.3588278" version="1" timestamp="2022-08-07T07:21:05Z" changeset="124585500" uid="3497659" user="NKA">
		<tag k="name" v="Nerland" />
		<tag k="place" v="farm" />
		<tag k="ssr:stedsnr" v="800961" />
	</node>
	<node id="9936814295" lat="62.997953" lon="7.2977792" version="1" timestamp="2022-08-07T07:21:05Z" changeset="124585500" uid="3497659" user="NKA">
		<tag k="name" v="Hammaren" />
		<tag k="place" v="hamlet" />
		<tag k="ssr:stedsnr" v="862893" />
	</node>
	<node id="9936814296" lat="62.9016934" lon="7.428894" version="1" timestamp="2022-08-07T07:21:05Z" changeset="124585500" uid="3497659" user="NKA">
		<tag k="name" v="Vågsbøen" />
		<tag k="place" v="farm" />
		<tag k="ssr:stedsnr" v="496635" />
	</node>
	<node id="9936814297" lat="62.9428381" lon="7.1996083" version="1" timestamp="2022-08-07T07:21:05Z" changeset="124585500" uid="3497659" user="NKA">
		<tag k="name" v="Hostad" />
		<tag k="place" v="hamlet" />
		<tag k="ssr:stedsnr" v="862130" />
	</node>
	<node id="9936814298" lat="62.9239111" lon="7.2971417" version="1" timestamp="2022-08-07T07:21:05Z" changeset="124585500" uid="3497659" user="NKA">
		<tag k="alt_name" v="Bakken, nordre" />
		<tag k="name" v="Nordre Bakken" />
		<tag k="place" v="farm" />
		<tag k="ssr:stedsnr" v="922523" />
	</node>
	<node id="9936814299" lat="63.0220776" lon="7.235628" version="1" timestamp="2022-08-07T07:21:05Z" changeset="124585500" uid="3497659" user="NKA">
		<tag k="name" v="Kvitholmen" />
		<tag k="place" v="farm" />
		<tag k="ssr:stedsnr" v="713912" />
	</node>
	<node id="9936814300" lat="62.9747004" lon="7.310467" version="1" timestamp="2022-08-07T07:21:05Z" changeset="124585500" uid="3497659" user="NKA">
		<tag k="name" v="Storvika" />
		<tag k="place" v="farm" />
		<tag k="ssr:stedsnr" v="740913" />
	</node>
	<node id="9936814301" lat="62.9120441" lon="7.3291002" version="1" timestamp="2022-08-07T07:21:05Z" changeset="124585500" uid="3497659" user="NKA">
		<tag k="name" v="Dalen" />
		<tag k="place" v="farm" />
		<tag k="ssr:stedsnr" v="740518" />
	</node>
	<node id="9936814302" lat="62.9666187" lon="7.3532072" version="1" timestamp="2022-08-07T07:21:05Z" changeset="124585500" uid="3497659" user="NKA">
		<tag k="alt_name" v="Ørjavik" />
		<tag k="name" v="Ørjavika" />
		<tag k="place" v="hamlet" />
		<tag k="ssr:stedsnr" v="618933" />
	</node>
	<node id="9936814303" lat="62.9070385" lon="7.5148175" version="1" timestamp="2022-08-07T07:21:05Z" changeset="124585500" uid="3497659" user="NKA">
		<tag k="name" v="Kjøl" />
		<tag k="place" v="farm" />
		<tag k="ssr:stedsnr" v="678572" />
	</node>
	<node id="9936814304" lat="62.9719416" lon="7.3302722" version="1" timestamp="2022-08-07T07:21:05Z" changeset="124585500" uid="3497659" user="NKA">
		<tag k="name" v="Sandvika" />
		<tag k="place" v="farm" />
		<tag k="ssr:stedsnr" v="618922" />
	</node>
	<node id="9936814305" lat="62.9029886" lon="7.4850458" version="1" timestamp="2022-08-07T07:21:05Z" changeset="124585500" uid="3497659" user="NKA">
		<tag k="alt_name" v="Lia" />
		<tag k="name" v="Reialia" />
		<tag k="old_name" v="Lien" />
		<tag k="place" v="hamlet" />
		<tag k="ssr:stedsnr" v="375589" />
	</node>
	<node id="9936814306" lat="62.9998639" lon="7.3041916" version="1" timestamp="2022-08-07T07:21:05Z" changeset="124585500" uid="3497659" user="NKA">
		<tag k="name" v="Årsbogen" />
		<tag k="place" v="hamlet" />
		<tag k="ssr:stedsnr" v="679375" />
	</node>
	<node id="9936814307" lat="62.9111373" lon="7.5436575" version="1" timestamp="2022-08-07T07:21:05Z" changeset="124585500" uid="3497659" user="NKA">
		<tag k="name" v="Rotåkeren" />
		<tag k="old_name" v="Øvergarden;Flaten" />
		<tag k="place" v="farm" />
		<tag k="ssr:stedsnr" v="557542" />
	</node>
	<node id="9936814308" lat="62.9129571" lon="7.4349047" version="1" timestamp="2022-08-07T07:21:05Z" changeset="124585500" uid="3497659" user="NKA">
		<tag k="name" v="Rabben" />
		<tag k="place" v="farm" />
		<tag k="ssr:stedsnr" v="375498" />
	</node>
	<node id="9936814309" lat="62.9446778" lon="7.4241862" version="1" timestamp="2022-08-07T07:21:05Z" changeset="124585500" uid="3497659" user="NKA">
		<tag k="name" v="Silnesmyran" />
		<tag k="place" v="farm" />
		<tag k="ssr:stedsnr" v="496549" />
	</node>
	<node id="9936814310" lat="62.9517597" lon="7.4115605" version="1" timestamp="2022-08-07T07:21:05Z" changeset="124585500" uid="3497659" user="NKA">
		<tag k="name" v="Øygarden" />
		<tag k="place" v="hamlet" />
		<tag k="ssr:stedsnr" v="506972" />
	</node>
	<node id="9936814311" lat="62.9180139" lon="7.4525361" version="1" timestamp="2022-08-07T07:21:05Z" changeset="124585500" uid="3497659" user="NKA">
		<tag k="name" v="Søreide" />
		<tag k="place" v="farm" />
		<tag k="ssr:stedsnr" v="133490" />
	</node>
	<node id="9936814312" lat="62.9308806" lon="7.316989" version="1" timestamp="2022-08-07T07:21:05Z" changeset="124585500" uid="3497659" user="NKA">
		<tag k="name" v="Eriklia" />
		<tag k="place" v="farm" />
		<tag k="ssr:stedsnr" v="436490" />
	</node>
	<node id="9936814313" lat="62.8955978" lon="7.4737429" version="1" timestamp="2022-08-07T07:21:05Z" changeset="124585500" uid="3497659" user="NKA">
		<tag k="name" v="Vegen" />
		<tag k="place" v="farm" />
		<tag k="ssr:stedsnr" v="132632" />
	</node>
	<node id="9936814314" lat="62.8842917" lon="7.4936056" version="1" timestamp="2022-08-07T07:21:05Z" changeset="124585500" uid="3497659" user="NKA">
		<tag k="name" v="Liaursetra" />
		<tag k="place" v="locality" />
		<tag k="ssr:stedsnr" v="95268" />
	</node>
	<node id="9936814315" lat="62.9956944" lon="7.2319501" version="1" timestamp="2022-08-07T07:21:05Z" changeset="124585500" uid="3497659" user="NKA">
		<tag k="name" v="Øvervikan" />
		<tag k="place" v="farm" />
		<tag k="ssr:stedsnr" v="255906" />
	</node>
	<node id="9936814316" lat="62.9320769" lon="6.9494731" version="1" timestamp="2022-08-07T07:21:05Z" changeset="124585500" uid="3497659" user="NKA">
		<tag k="name" v="Dråga" />
		<tag k="place" v="hamlet" />
		<tag k="ssr:stedsnr" v="978311" />
	</node>
	<node id="9936814317" lat="62.9894667" lon="7.3183557" version="1" timestamp="2022-08-07T07:21:05Z" changeset="124585500" uid="3497659" user="NKA">
		<tag k="name" v="Løkan" />
		<tag k="place" v="farm" />
		<tag k="ssr:stedsnr" v="133906" />
	</node>
	<node id="9936814318" lat="62.8528355" lon="7.1401673" version="1" timestamp="2022-08-07T07:21:05Z" changeset="124585500" uid="3497659" user="NKA">
		<tag k="name" v="Nedre Teigen" />
		<tag k="place" v="farm" />
		<tag k="ssr:stedsnr" v="969620" />
	</node>
	<node id="9936814319" lat="62.952575" lon="7.3476612" version="1" timestamp="2022-08-07T07:21:05Z" changeset="124585500" uid="3497659" user="NKA">
		<tag k="name" v="Lyngstadgjerdet" />
		<tag k="place" v="farm" />
		<tag k="ssr:stedsnr" v="72962" />
	</node>
	<node id="9936814320" lat="62.9941989" lon="7.2016677" version="1" timestamp="2022-08-07T07:21:05Z" changeset="124585500" uid="3497659" user="NKA">
		<tag k="name" v="Sjånesberget" />
		<tag k="place" v="farm" />
		<tag k="ssr:stedsnr" v="35812" />
	</node>
	<node id="9936814321" lat="62.9517537" lon="7.0390388" version="1" timestamp="2022-08-07T07:21:05Z" changeset="124585500" uid="3497659" user="NKA">
		<tag k="name" v="Litlebø" />
		<tag k="place" v="farm" />
		<tag k="ssr:stedsnr" v="777566" />
	</node>
	<node id="9936814322" lat="62.8943679" lon="7.3827927" version="1" timestamp="2022-08-07T07:21:05Z" changeset="124585500" uid="3497659" user="NKA">
		<tag k="name" v="Nås" />
		<tag k="place" v="hamlet" />
		<tag k="ssr:stedsnr" v="11564" />
	</node>
	<node id="9936814323" lat="62.8762084" lon="7.3868806" version="1" timestamp="2022-08-07T07:21:05Z" changeset="124585500" uid="3497659" user="NKA">
		<tag k="historic" v="shieling" />
		<tag k="name" v="Halåssetra" />
		<tag k="place" v="isolated_dwelling" />
		<tag k="ssr:stedsnr" v="11637" />
	</node>
	<node id="9936814324" lat="62.8865833" lon="7.520875" version="1" timestamp="2022-08-07T07:21:05Z" changeset="124585500" uid="3497659" user="NKA">
		<tag k="name" v="Ugelstadsetra" />
		<tag k="place" v="isolated_dwelling" />
		<tag k="ssr:stedsnr" v="11598" />
	</node>
	<node id="9936814325" lat="62.9266672" lon="7.4477058" version="1" timestamp="2022-08-07T07:21:05Z" changeset="124585500" uid="3497659" user="NKA">
		<tag k="name" v="Bjerkelund" />
		<tag k="place" v="farm" />
		<tag k="ssr:stedsnr" v="1073420" />
	</node>
	<node id="9936814326" lat="62.788321" lon="7.0041171" version="1" timestamp="2022-08-07T07:21:05Z" changeset="124585500" uid="3497659" user="NKA">
		<tag k="name" v="Solheim" />
		<tag k="place" v="farm" />
		<tag k="ssr:stedsnr" v="944021" />
	</node>
	<node id="9936814327" lat="62.7962555" lon="6.991614" version="1" timestamp="2022-08-07T07:21:05Z" changeset="124585500" uid="3497659" user="NKA">
		<tag k="name" v="Vorpebakken" />
		<tag k="place" v="farm" />
		<tag k="ssr:stedsnr" v="922798" />
	</node>
	<node id="9936814328" lat="62.9624306" lon="7.1090557" version="1" timestamp="2022-08-07T07:21:05Z" changeset="124585500" uid="3497659" user="NKA">
		<tag k="name" v="Nerlandsremma" />
		<tag k="place" v="farm" />
		<tag k="ssr:stedsnr" v="922011" />
	</node>
	<node id="9936814329" lat="62.8514155" lon="7.1623509" version="1" timestamp="2022-08-07T07:21:05Z" changeset="124585500" uid="3497659" user="NKA">
		<tag k="name" v="Feta" />
		<tag k="place" v="farm" />
		<tag k="ssr:stedsnr" v="801195" />
	</node>
	<node id="9936814330" lat="62.8230615" lon="7.0303743" version="1" timestamp="2022-08-07T07:21:05Z" changeset="124585500" uid="3497659" user="NKA">
		<tag k="name" v="Preststova" />
		<tag k="place" v="farm" />
		<tag k="ssr:stedsnr" v="702434" />
	</node>
	<node id="9936814331" lat="62.9169305" lon="7.2175195" version="1" timestamp="2022-08-07T07:21:05Z" changeset="124585500" uid="3497659" user="NKA">
		<tag k="name" v="Sandstad" />
		<tag k="place" v="farm" />
		<tag k="ssr:stedsnr" v="921063" />
	</node>
	<node id="9936814332" lat="62.9548778" lon="7.1311528" version="1" timestamp="2022-08-07T07:21:05Z" changeset="124585500" uid="3497659" user="NKA">
		<tag k="name" v="Vassmyr" />
		<tag k="place" v="farm" />
		<tag k="ssr:stedsnr" v="680009" />
	</node>
	<node id="9936814333" lat="62.8854306" lon="7.067864" version="1" timestamp="2022-08-07T07:21:05Z" changeset="124585500" uid="3497659" user="NKA">
		<tag k="name" v="Bjerke" />
		<tag k="place" v="farm" />
		<tag k="ssr:stedsnr" v="921145" />
	</node>
	<node id="9936814334" lat="62.8870635" lon="6.8121927" version="1" timestamp="2022-08-07T07:21:05Z" changeset="124585500" uid="3497659" user="NKA">
		<tag k="name" v="Bjørnsund" />
		<tag k="place" v="hamlet" />
		<tag k="ssr:stedsnr" v="679172" />
	</node>
	<node id="9936814335" lat="62.8366528" lon="7.1840694" version="1" timestamp="2022-08-07T07:21:05Z" changeset="124585500" uid="3497659" user="NKA">
		<tag k="name" v="Nygardsneset" />
		<tag k="place" v="farm" />
		<tag k="ssr:stedsnr" v="678740" />
	</node>
	<node id="9936814336" lat="62.8911166" lon="7.3881083" version="1" timestamp="2022-08-07T07:21:05Z" changeset="124585500" uid="3497659" user="NKA">
		<tag k="name" v="Sørbøen" />
		<tag k="place" v="farm" />
		<tag k="ssr:stedsnr" v="193615" />
	</node>
	<node id="9936814337" lat="62.8207401" lon="7.0343678" version="1" timestamp="2022-08-07T07:21:05Z" changeset="124585500" uid="3497659" user="NKA">
		<tag k="name" v="Kringsvoll" />
		<tag k="place" v="farm" />
		<tag k="ssr:stedsnr" v="701022" />
	</node>
	<node id="9936814338" lat="62.9253916" lon="7.5759585" version="1" timestamp="2022-08-07T07:21:05Z" changeset="124585500" uid="3497659" user="NKA">
		<tag k="name" v="Buskneset" />
		<tag k="place" v="farm" />
		<tag k="ssr:stedsnr" v="194493" />
	</node>
	<node id="9936814339" lat="62.9312752" lon="6.9839318" version="1" timestamp="2022-08-07T07:21:05Z" changeset="124585500" uid="3497659" user="NKA">
		<tag k="name" v="Sunde" />
		<tag k="place" v="hamlet" />
		<tag k="ssr:stedsnr" v="619104" />
	</node>
	<node id="9936814340" lat="62.8437139" lon="7.0359723" version="1" timestamp="2022-08-07T07:21:05Z" changeset="124585500" uid="3497659" user="NKA">
		<tag k="name" v="Fredheim" />
		<tag k="place" v="farm" />
		<tag k="ssr:stedsnr" v="618166" />
	</node>
	<node id="9936814341" lat="62.840825" lon="7.0672196" version="1" timestamp="2022-08-07T07:21:05Z" changeset="124585500" uid="3497659" user="NKA">
		<tag k="name" v="Solbakken" />
		<tag k="place" v="farm" />
		<tag k="ssr:stedsnr" v="618165" />
	</node>
	<node id="9936814342" lat="62.8742195" lon="7.4150278" version="1" timestamp="2022-08-07T07:21:05Z" changeset="124585500" uid="3497659" user="NKA">
		<tag k="name" v="Finnsetra" />
		<tag k="place" v="farm" />
		<tag k="ssr:stedsnr" v="740606" />
	</node>
	<node id="9936814343" lat="62.9624108" lon="7.1801816" version="1" timestamp="2022-08-07T07:21:05Z" changeset="124585500" uid="3497659" user="NKA">
		<tag k="name" v="Helgetun" />
		<tag k="place" v="farm" />
		<tag k="ssr:stedsnr" v="824019" />
	</node>
	<node id="9936814344" lat="62.9128982" lon="7.5406991" version="1" timestamp="2022-08-07T07:21:05Z" changeset="124585500" uid="3497659" user="NKA">
		<tag k="name" v="Strand" />
		<tag k="place" v="hamlet" />
		<tag k="ssr:stedsnr" v="193597" />
	</node>
	<node id="9936814345" lat="62.9049139" lon="6.9908529" version="1" timestamp="2022-08-07T07:21:05Z" changeset="124585500" uid="3497659" user="NKA">
		<tag k="name" v="Nytun" />
		<tag k="place" v="farm" />
		<tag k="ssr:stedsnr" v="618148" />
	</node>
	<node id="9936814346" lat="62.8878492" lon="7.4119771" version="1" timestamp="2022-08-07T07:21:05Z" changeset="124585500" uid="3497659" user="NKA">
		<tag k="name" v="Halåsen" />
		<tag k="place" v="hamlet" />
		<tag k="ssr:stedsnr" v="861578" />
	</node>
	<node id="9936814347" lat="62.8600972" lon="7.0708668" version="1" timestamp="2022-08-07T07:21:05Z" changeset="124585500" uid="3497659" user="NKA">
		<tag k="name" v="Sørås" />
		<tag k="place" v="farm" />
		<tag k="ssr:stedsnr" v="497234" />
	</node>
	<node id="9936814348" lat="62.8210357" lon="7.2327412" version="1" timestamp="2022-08-07T07:21:05Z" changeset="124585500" uid="3497659" user="NKA">
		<tag k="name" v="Holen" />
		<tag k="place" v="hamlet" />
		<tag k="ssr:stedsnr" v="801685" />
	</node>
	<node id="9936814349" lat="62.8558662" lon="7.1578599" version="1" timestamp="2022-08-07T07:21:05Z" changeset="124585500" uid="3497659" user="NKA">
		<tag k="name" v="Haukås" />
		<tag k="place" v="quarter" />
		<tag k="ssr:stedsnr" v="800248" />
	</node>
	<node id="9936814350" lat="62.9503673" lon="7.1464544" version="1" timestamp="2022-08-07T07:21:05Z" changeset="124585500" uid="3497659" user="NKA">
		<tag k="name" v="Solhaug" />
		<tag k="place" v="farm" />
		<tag k="ssr:stedsnr" v="581014" />
	</node>
	<node id="9936814351" lat="62.9242195" lon="7.5957369" version="1" timestamp="2022-08-07T07:21:05Z" changeset="124585500" uid="3497659" user="NKA">
		<tag k="name" v="Krekvika" />
		<tag k="place" v="hamlet" />
		<tag k="ssr:stedsnr" v="861524" />
	</node>
	<node id="9936814352" lat="62.8102361" lon="7.0612194" version="1" timestamp="2022-08-07T07:21:05Z" changeset="124585500" uid="3497659" user="NKA">
		<tag k="name" v="Gammelstølen" />
		<tag k="place" v="locality" />
		<tag k="ssr:stedsnr" v="338526" />
	</node>
	<node id="9936814353" lat="62.8412482" lon="7.026867" version="1" timestamp="2022-08-07T07:21:05Z" changeset="124585500" uid="3497659" user="NKA">
		<tag k="name" v="Arnegarden" />
		<tag k="place" v="farm" />
		<tag k="ssr:stedsnr" v="519028" />
	</node>
	<node id="9936814354" lat="62.8262352" lon="7.0658875" version="1" timestamp="2022-08-07T07:21:05Z" changeset="124585500" uid="3497659" user="NKA">
		<tag k="name" v="Kvalsneset" />
		<tag k="place" v="hamlet" />
		<tag k="ssr:stedsnr" v="314746" />
	</node>
	<node id="9936814355" lat="62.8112361" lon="7.1552028" version="1" timestamp="2022-08-07T07:21:05Z" changeset="124585500" uid="3497659" user="NKA">
		<tag k="name" v="Sande" />
		<tag k="place" v="hamlet" />
		<tag k="ssr:stedsnr" v="315773" />
	</node>
	<node id="9936814356" lat="62.9190111" lon="7.0924946" version="1" timestamp="2022-08-07T07:21:05Z" changeset="124585500" uid="3497659" user="NKA">
		<tag k="name" v="Liljuvang" />
		<tag k="place" v="farm" />
		<tag k="ssr:stedsnr" v="741122" />
	</node>
	<node id="9936814357" lat="62.8604222" lon="7.1753695" version="1" timestamp="2022-08-07T07:21:05Z" changeset="124585500" uid="3497659" user="NKA">
		<tag k="name" v="Hauglia" />
		<tag k="place" v="quarter" />
		<tag k="ssr:stedsnr" v="262127" />
	</node>
	<node id="9936814358" lat="62.9420972" lon="7.1457668" version="1" timestamp="2022-08-07T07:21:05Z" changeset="124585500" uid="3497659" user="NKA">
		<tag k="name" v="Sletteland" />
		<tag k="place" v="farm" />
		<tag k="ssr:stedsnr" v="437132" />
	</node>
	<node id="9936814359" lat="62.8956306" lon="7.5500361" version="1" timestamp="2022-08-07T07:21:05Z" changeset="124585500" uid="3497659" user="NKA">
		<tag k="name" v="Strandastølen" />
		<tag k="place" v="locality" />
		<tag k="ssr:stedsnr" v="641328" />
	</node>
	<node id="9936814360" lat="62.8399409" lon="7.0676639" version="1" timestamp="2022-08-07T07:21:05Z" changeset="124585500" uid="3497659" user="NKA">
		<tag k="name" v="Løset" />
		<tag k="place" v="farm" />
		<tag k="ssr:stedsnr" v="437826" />
	</node>
	<node id="9936814361" lat="62.9907056" lon="7.2015528" version="1" timestamp="2022-08-07T07:21:05Z" changeset="124585500" uid="3497659" user="NKA">
		<tag k="name" v="Reset" />
		<tag k="place" v="farm" />
		<tag k="ssr:stedsnr" v="740044" />
	</node>
	<node id="9936814362" lat="62.8128051" lon="7.0942808" version="1" timestamp="2022-08-07T07:21:05Z" changeset="124585500" uid="3497659" user="NKA">
		<tag k="name" v="Aure" />
		<tag k="place" v="hamlet" />
		<tag k="ssr:stedsnr" v="254758" />
	</node>
	<node id="9936814363" lat="62.8532074" lon="7.0158944" version="1" timestamp="2022-08-07T07:21:05Z" changeset="124585500" uid="3497659" user="NKA">
		<tag k="name" v="Levran" />
		<tag k="place" v="farm" />
		<tag k="ssr:stedsnr" v="740221" />
	</node>
	<node id="9936814364" lat="62.896019" lon="6.9823646" version="1" timestamp="2022-08-07T07:21:05Z" changeset="124585500" uid="3497659" user="NKA">
		<tag k="name" v="Vestadvågen" />
		<tag k="place" v="farm" />
		<tag k="ssr:stedsnr" v="436142" />
	</node>
	<node id="9936814365" lat="62.9078645" lon="7.4279909" version="1" timestamp="2022-08-07T07:21:05Z" changeset="124585500" uid="3497659" user="NKA">
		<tag k="name" v="Skjelvika" />
		<tag k="place" v="quarter" />
		<tag k="ssr:stedsnr" v="641303" />
	</node>
	<node id="9936814366" lat="62.8657417" lon="7.1688667" version="1" timestamp="2022-08-07T07:21:05Z" changeset="124585500" uid="3497659" user="NKA">
		<tag k="name" v="Storsetra" />
		<tag k="place" v="isolated_dwelling" />
		<tag k="ssr:stedsnr" v="132117" />
	</node>
	<node id="9936814367" lat="62.8987087" lon="6.9762924" version="1" timestamp="2022-08-07T07:21:05Z" changeset="124585500" uid="3497659" user="NKA">
		<tag k="name" v="Brekkebakken" />
		<tag k="old_name" v="Brekkehaugen;BRÆKKEBAKKEN" />
		<tag k="place" v="farm" />
		<tag k="ssr:stedsnr" v="375142" />
	</node>
	<node id="9936814368" lat="62.9076889" lon="7.5477444" version="1" timestamp="2022-08-07T07:21:05Z" changeset="124585500" uid="3497659" user="NKA">
		<tag k="name" v="Haugen" />
		<tag k="place" v="farm" />
		<tag k="ssr:stedsnr" v="557544" />
	</node>
	<node id="9936814369" lat="62.8438802" lon="7.077489" version="1" timestamp="2022-08-07T07:21:05Z" changeset="124585500" uid="3497659" user="NKA">
		<tag k="name" v="Løset" />
		<tag k="place" v="hamlet" />
		<tag k="ssr:stedsnr" v="97775" />
	</node>
	<node id="9936814370" lat="62.8514833" lon="7.1750585" version="1" timestamp="2022-08-07T07:21:05Z" changeset="124585500" uid="3497659" user="NKA">
		<tag k="name" v="Skardet" />
		<tag k="place" v="farm" />
		<tag k="ssr:stedsnr" v="72211" />
	</node>
	<node id="9936814371" lat="62.83481" lon="7.2417671" version="1" timestamp="2022-08-07T07:21:05Z" changeset="124585500" uid="3497659" user="NKA">
		<tag k="name" v="Rødvang" />
		<tag k="place" v="farm" />
		<tag k="ssr:stedsnr" v="702056" />
	</node>
	<node id="9936814372" lat="62.8339129" lon="7.227909" version="1" timestamp="2022-08-07T07:21:05Z" changeset="124585500" uid="3497659" user="NKA">
		<tag k="name" v="Syltebøen" />
		<tag k="place" v="farm" />
		<tag k="ssr:stedsnr" v="702055" />
	</node>
	<node id="9936814373" lat="62.9219612" lon="7.3458274" version="1" timestamp="2022-08-07T07:21:05Z" changeset="124585500" uid="3497659" user="NKA">
		<tag k="name" v="Trøin" />
		<tag k="place" v="farm" />
		<tag k="ssr:stedsnr" v="254534" />
	</node>
	<node id="9936814374" lat="62.8509722" lon="7.1156139" version="1" timestamp="2022-08-07T07:21:05Z" changeset="124585500" uid="3497659" user="NKA">
		<tag k="name" v="Rønningen" />
		<tag k="place" v="farm" />
		<tag k="ssr:stedsnr" v="72206" />
	</node>
	<node id="9936814375" lat="62.9164056" lon="7.0915611" version="1" timestamp="2022-08-07T07:21:05Z" changeset="124585500" uid="3497659" user="NKA">
		<tag k="name" v="Reimstad" />
		<tag k="place" v="farm" />
		<tag k="ssr:stedsnr" v="680093" />
	</node>
	<node id="9936814376" lat="62.9524322" lon="7.004016" version="1" timestamp="2022-08-07T07:21:05Z" changeset="124585500" uid="3497659" user="NKA">
		<tag k="name" v="Skutholmen" />
		<tag k="place" v="farm" />
		<tag k="ssr:stedsnr" v="981211" />
	</node>
	<node id="9936814377" lat="62.902794" lon="7.3640475" version="1" timestamp="2022-08-07T07:21:05Z" changeset="124585500" uid="3497659" user="NKA">
		<tag k="name" v="Langneset" />
		<tag k="place" v="hamlet" />
		<tag k="ssr:stedsnr" v="314603" />
	</node>
	<node id="9936814378" lat="62.812883" lon="7.1146875" version="1" timestamp="2022-08-07T07:21:05Z" changeset="124585500" uid="3497659" user="NKA">
		<tag k="name" v="Stranda" />
		<tag k="place" v="farm" />
		<tag k="ssr:stedsnr" v="11784" />
	</node>
	<node id="9936814379" lat="62.9203187" lon="6.9419776" version="1" timestamp="2022-08-07T07:21:05Z" changeset="124585500" uid="3497659" user="NKA">
		<tag k="name" v="Fagervika" />
		<tag k="place" v="farm" />
		<tag k="ssr:stedsnr" v="981212" />
	</node>
	<node id="9936814380" lat="62.9633778" lon="7.0507473" version="1" timestamp="2022-08-07T07:21:05Z" changeset="124585500" uid="3497659" user="NKA">
		<tag k="name" v="Åsbøen" />
		<tag k="place" v="farm" />
		<tag k="ssr:stedsnr" v="679029" />
	</node>
	<node id="9936814381" lat="62.8477583" lon="7.0832085" version="1" timestamp="2022-08-07T07:21:05Z" changeset="124585500" uid="3497659" user="NKA">
		<tag k="name" v="Nygjerdet" />
		<tag k="place" v="farm" />
		<tag k="ssr:stedsnr" v="12234" />
	</node>
	<node id="9936814382" lat="62.883222" lon="6.9556761" version="1" timestamp="2022-08-07T07:21:05Z" changeset="124585500" uid="3497659" user="NKA">
		<tag k="name" v="Indre Harøya" />
		<tag k="place" v="farm" />
		<tag k="ssr:stedsnr" v="981174" />
	</node>
	<node id="9936814383" lat="62.8568167" lon="7.0640446" version="1" timestamp="2022-08-07T07:21:05Z" changeset="124585500" uid="3497659" user="NKA">
		<tag k="name" v="Åstun" />
		<tag k="place" v="farm" />
		<tag k="ssr:stedsnr" v="618209" />
	</node>
	<node id="9936814384" lat="62.8409333" lon="7.0354307" version="1" timestamp="2022-08-07T07:21:05Z" changeset="124585500" uid="3497659" user="NKA">
		<tag k="name" v="Heimdal" />
		<tag k="place" v="farm" />
		<tag k="ssr:stedsnr" v="678209" />
	</node>
	<node id="9936814385" lat="62.8177559" lon="7.0494676" version="1" timestamp="2022-08-07T07:21:05Z" changeset="124585500" uid="3497659" user="NKA">
		<tag k="name" v="Lindset" />
		<tag k="place" v="farm" />
		<tag k="ssr:stedsnr" v="884017" />
	</node>
	<node id="9936814386" lat="62.844025" lon="7.0825862" version="1" timestamp="2022-08-07T07:21:05Z" changeset="124585500" uid="3497659" user="NKA">
		<tag k="name" v="Rabben" />
		<tag k="place" v="farm" />
		<tag k="ssr:stedsnr" v="618164" />
	</node>
	<node id="9936814387" lat="62.945986" lon="7.0183819" version="1" timestamp="2022-08-07T07:21:05Z" changeset="124585500" uid="3497659" user="NKA">
		<tag k="name" v="Vikan" />
		<tag k="place" v="hamlet" />
		<tag k="ssr:stedsnr" v="619146" />
	</node>
	<node id="9936814388" lat="62.895407" lon="7.1597267" version="1" timestamp="2022-08-07T07:21:05Z" changeset="124585500" uid="3497659" user="NKA">
		<tag k="name" v="Løken" />
		<tag k="place" v="farm" />
		<tag k="ssr:stedsnr" v="618142" />
	</node>
	<node id="9936814389" lat="62.8402694" lon="7.0100002" version="1" timestamp="2022-08-07T07:21:05Z" changeset="124585500" uid="3497659" user="NKA">
		<tag k="name" v="Nygard" />
		<tag k="place" v="farm" />
		<tag k="ssr:stedsnr" v="618163" />
	</node>
	<node id="9936814390" lat="62.859375" lon="7.0673167" version="1" timestamp="2022-08-07T07:21:05Z" changeset="124585500" uid="3497659" user="NKA">
		<tag k="name" v="Nerås" />
		<tag k="place" v="farm" />
		<tag k="ssr:stedsnr" v="193235" />
	</node>
	<node id="9936814391" lat="62.8121063" lon="7.2118672" version="1" timestamp="2022-08-07T07:21:05Z" changeset="124585500" uid="3497659" user="NKA">
		<tag k="name" v="Vikahaugen" />
		<tag k="place" v="farm" />
		<tag k="ssr:stedsnr" v="581053" />
	</node>
	<node id="9936814392" lat="62.853575" lon="7.1735334" version="1" timestamp="2022-08-07T07:21:05Z" changeset="124585500" uid="3497659" user="NKA">
		<tag k="name" v="Holten" />
		<tag k="place" v="farm" />
		<tag k="ssr:stedsnr" v="740196" />
	</node>
	<node id="9936814393" lat="62.8237156" lon="7.0728151" version="1" timestamp="2022-08-07T07:21:05Z" changeset="124585500" uid="3497659" user="NKA">
		<tag k="alt_name" v="Hoem" />
		<tag k="name" v="Indre Hoem" />
		<tag k="place" v="hamlet" />
		<tag k="ssr:stedsnr" v="861760" />
	</node>
	<node id="9936814394" lat="62.8147722" lon="7.1532525" version="1" timestamp="2022-08-07T07:21:05Z" changeset="124585500" uid="3497659" user="NKA">
		<tag k="name" v="Sommarnes" />
		<tag k="place" v="farm" />
		<tag k="ssr:stedsnr" v="641004" />
	</node>
	<node id="9936814395" lat="62.9367" lon="7.1879807" version="1" timestamp="2022-08-07T07:21:05Z" changeset="124585500" uid="3497659" user="NKA">
		<tag k="alt_name" v="Åsgård" />
		<tag k="name" v="Åsgard" />
		<tag k="place" v="farm" />
		<tag k="ssr:stedsnr" v="498123" />
	</node>
	<node id="9936814396" lat="62.8864917" lon="6.9793716" version="1" timestamp="2022-08-07T07:21:05Z" changeset="124585500" uid="3497659" user="NKA">
		<tag k="alt_name" v="Rishaugen" />
		<tag k="name" v="Rishaug" />
		<tag k="place" v="hamlet" />
		<tag k="ssr:stedsnr" v="436148" />
	</node>
	<node id="9936814397" lat="62.8454972" lon="7.0241056" version="1" timestamp="2022-08-07T07:21:05Z" changeset="124585500" uid="3497659" user="NKA">
		<tag k="name" v="Øygarden" />
		<tag k="place" v="farm" />
		<tag k="ssr:stedsnr" v="436214" />
	</node>
	<node id="9936814398" lat="62.8549306" lon="7.0180668" version="1" timestamp="2022-08-07T07:21:05Z" changeset="124585500" uid="3497659" user="NKA">
		<tag k="name" v="Skråbakken" />
		<tag k="place" v="farm" />
		<tag k="ssr:stedsnr" v="800243" />
	</node>
	<node id="9936814399" lat="62.7903318" lon="6.9964338" version="1" timestamp="2022-08-07T07:21:05Z" changeset="124585500" uid="3497659" user="NKA">
		<tag k="name" v="Nygård" />
		<tag k="place" v="farm" />
		<tag k="ssr:stedsnr" v="762016" />
	</node>
	<node id="9936814400" lat="62.8678472" lon="7.1403557" version="1" timestamp="2022-08-07T07:21:05Z" changeset="124585500" uid="3497659" user="NKA">
		<tag k="name" v="Eigarden" />
		<tag k="place" v="farm" />
		<tag k="ssr:stedsnr" v="641001" />
	</node>
	<node id="9936814401" lat="62.8997144" lon="6.9302799" version="1" timestamp="2022-08-07T07:21:05Z" changeset="124585500" uid="3497659" user="NKA">
		<tag k="name" v="Kalsneset" />
		<tag k="place" v="farm" />
		<tag k="ssr:stedsnr" v="496068" />
	</node>
	<node id="9936814402" lat="62.8403111" lon="7.0083667" version="1" timestamp="2022-08-07T07:21:05Z" changeset="124585500" uid="3497659" user="NKA">
		<tag k="name" v="Myra" />
		<tag k="place" v="farm" />
		<tag k="ssr:stedsnr" v="678205" />
	</node>
	<node id="9936814403" lat="62.7922165" lon="7.0240398" version="1" timestamp="2022-08-07T07:21:05Z" changeset="124585500" uid="3497659" user="NKA">
		<tag k="name" v="Jendemshagen" />
		<tag k="place" v="farm" />
		<tag k="ssr:stedsnr" v="762014" />
	</node>
	<node id="9936814404" lat="62.8489056" lon="7.0232279" version="1" timestamp="2022-08-07T07:21:05Z" changeset="124585500" uid="3497659" user="NKA">
		<tag k="name" v="Vonheim" />
		<tag k="place" v="farm" />
		<tag k="ssr:stedsnr" v="679208" />
	</node>
	<node id="9936814405" lat="62.83875" lon="7.0041306" version="1" timestamp="2022-08-07T07:21:05Z" changeset="124585500" uid="3497659" user="NKA">
		<tag k="name" v="Skardhaugen" />
		<tag k="place" v="farm" />
		<tag k="ssr:stedsnr" v="375159" />
	</node>
	<node id="9936814406" lat="62.8530528" lon="7.0193335" version="1" timestamp="2022-08-07T07:21:05Z" changeset="124585500" uid="3497659" user="NKA">
		<tag k="name" v="Tømmerbakken" />
		<tag k="place" v="farm" />
		<tag k="ssr:stedsnr" v="375203" />
	</node>
	<node id="9936814407" lat="62.9815984" lon="7.1593926" version="1" timestamp="2022-08-07T07:21:05Z" changeset="124585500" uid="3497659" user="NKA">
		<tag k="name" v="Stegan" />
		<tag k="place" v="farm" />
		<tag k="ssr:stedsnr" v="460062" />
	</node>
	<node id="9936814408" lat="62.8537917" lon="7.1377894" version="1" timestamp="2022-08-07T07:21:05Z" changeset="124585500" uid="3497659" user="NKA">
		<tag k="name" v="Øvre Teigen" />
		<tag k="place" v="farm" />
		<tag k="ssr:stedsnr" v="423652" />
	</node>
	<node id="9936814409" lat="62.8698611" lon="7.1805639" version="1" timestamp="2022-08-07T07:21:05Z" changeset="124585500" uid="3497659" user="NKA">
		<tag k="name" v="Haukåssetra" />
		<tag k="place" v="isolated_dwelling" />
		<tag k="ssr:stedsnr" v="436120" />
	</node>
	<node id="9936814410" lat="63.0142167" lon="7.3424162" version="1" timestamp="2022-08-07T07:21:05Z" changeset="124585500" uid="3497659" user="NKA">
		<tag k="name" v="Hulvågen" />
		<tag k="place" v="farm" />
		<tag k="ssr:stedsnr" v="980911" />
	</node>
	<node id="9936814411" lat="62.9953741" lon="7.2903943" version="1" timestamp="2022-08-07T07:21:05Z" changeset="124585500" uid="3497659" user="NKA">
		<tag k="name" v="Bjørnevika" />
		<tag k="place" v="farm" />
		<tag k="ssr:stedsnr" v="959906" />
	</node>
	<node id="9936814412" lat="62.8426936" lon="7.0198373" version="1" timestamp="2022-08-07T07:21:05Z" changeset="124585500" uid="3497659" user="NKA">
		<tag k="name" v="Øver-Tornes" />
		<tag k="place" v="farm" />
		<tag k="ssr:stedsnr" v="254168" />
	</node>
	<node id="9936814413" lat="62.9434695" lon="7.222489" version="1" timestamp="2022-08-07T07:21:05Z" changeset="124585500" uid="3497659" user="NKA">
		<tag k="name" v="Hostadsetra" />
		<tag k="place" v="locality" />
		<tag k="ssr:stedsnr" v="314996" />
	</node>
	<node id="9936814414" lat="62.9638119" lon="7.0406759" version="1" timestamp="2022-08-07T07:21:05Z" changeset="124585500" uid="3497659" user="NKA">
		<tag k="name" v="Myrset" />
		<tag k="place" v="farm" />
		<tag k="ssr:stedsnr" v="376035" />
	</node>
	<node id="9936814415" lat="62.8371444" lon="7.0023361" version="1" timestamp="2022-08-07T07:21:05Z" changeset="124585500" uid="3497659" user="NKA">
		<tag k="name" v="Solbakken" />
		<tag k="place" v="farm" />
		<tag k="ssr:stedsnr" v="72194" />
	</node>
	<node id="9936814416" lat="62.7937916" lon="7.0179001" version="1" timestamp="2022-08-07T07:21:05Z" changeset="124585500" uid="3497659" user="NKA">
		<tag k="name" v="Jendemsbakken" />
		<tag k="place" v="farm" />
		<tag k="ssr:stedsnr" v="95370" />
	</node>
	<node id="9936814417" lat="62.8942639" lon="7.5684751" version="1" timestamp="2022-08-07T07:21:05Z" changeset="124585500" uid="3497659" user="NKA">
		<tag k="name" v="Herskedalssetra" />
		<tag k="place" v="locality" />
		<tag k="ssr:stedsnr" v="922567" />
	</node>
	<node id="9936814418" lat="62.8475113" lon="7.0981685" version="1" timestamp="2022-08-07T07:21:05Z" changeset="124585500" uid="3497659" user="NKA">
		<tag k="name" v="Håset" />
		<tag k="place" v="farm" />
		<tag k="ssr:stedsnr" v="254186" />
	</node>
	<node id="9936814419" lat="62.9609884" lon="7.3633506" version="1" timestamp="2022-08-07T07:21:05Z" changeset="124585500" uid="3497659" user="NKA">
		<tag k="name" v="Myra" />
		<tag k="place" v="farm" />
		<tag k="ssr:stedsnr" v="899712" />
	</node>
	<node id="9936814420" lat="62.8483444" lon="7.1793779" version="1" timestamp="2022-08-07T07:21:05Z" changeset="124585500" uid="3497659" user="NKA">
		<tag k="name" v="Vågavangen" />
		<tag k="place" v="farm" />
		<tag k="ssr:stedsnr" v="254187" />
	</node>
	<node id="9936814421" lat="62.8369551" lon="7.2405307" version="1" timestamp="2022-08-07T07:21:05Z" changeset="124585500" uid="3497659" user="NKA">
		<tag k="name" v="Trøan" />
		<tag k="place" v="farm" />
		<tag k="ssr:stedsnr" v="156028" />
	</node>
	<node id="9936814422" lat="62.9822324" lon="7.1621259" version="1" timestamp="2022-08-07T07:21:05Z" changeset="124585500" uid="3497659" user="NKA">
		<tag k="name" v="Hagen" />
		<tag k="place" v="farm" />
		<tag k="ssr:stedsnr" v="156048" />
	</node>
	<node id="9936814423" lat="62.9042583" lon="7.5582251" version="1" timestamp="2022-08-07T07:21:05Z" changeset="124585500" uid="3497659" user="NKA">
		<tag k="name" v="Haltvika" />
		<tag k="place" v="farm" />
		<tag k="ssr:stedsnr" v="800622" />
	</node>
	<node id="9936814424" lat="62.7887531" lon="6.9897844" version="1" timestamp="2022-08-07T07:21:05Z" changeset="124585500" uid="3497659" user="NKA">
		<tag k="name" v="Jendemssjøen" />
		<tag k="place" v="farm" />
		<tag k="ssr:stedsnr" v="640017" />
	</node>
	<node id="9936814425" lat="62.84395" lon="6.9957889" version="1" timestamp="2022-08-07T07:21:05Z" changeset="124585500" uid="3497659" user="NKA">
		<tag k="name" v="Levra" />
		<tag k="place" v="farm" />
		<tag k="ssr:stedsnr" v="566446" />
	</node>
	<node id="9936814426" lat="62.8630626" lon="7.0757204" version="1" timestamp="2022-08-07T07:21:05Z" changeset="124585500" uid="3497659" user="NKA">
		<tag k="name" v="Ås" />
		<tag k="place" v="hamlet" />
		<tag k="ssr:stedsnr" v="254213" />
	</node>
	<node id="9936814427" lat="62.9689267" lon="7.1445159" version="1" timestamp="2022-08-07T07:21:05Z" changeset="124585500" uid="3497659" user="NKA">
		<tag k="name" v="Solvang" />
		<tag k="place" v="farm" />
		<tag k="ssr:stedsnr" v="156012" />
	</node>
	<node id="9936814428" lat="62.9206223" lon="7.3021196" version="1" timestamp="2022-08-07T07:21:05Z" changeset="124585500" uid="3497659" user="NKA">
		<tag k="name" v="Høybubakken" />
		<tag k="place" v="farm" />
		<tag k="ssr:stedsnr" v="800556" />
	</node>
	<node id="9936814429" lat="62.9340452" lon="7.4428364" version="1" timestamp="2022-08-07T07:21:05Z" changeset="124585500" uid="3497659" user="NKA">
		<tag k="name" v="Silset" />
		<tag k="place" v="hamlet" />
		<tag k="ssr:stedsnr" v="800489" />
	</node>
	<node id="9936814430" lat="62.9084218" lon="7.233163" version="1" timestamp="2022-08-07T07:21:05Z" changeset="124585500" uid="3497659" user="NKA">
		<tag k="name" v="Tverrfjella" />
		<tag k="place" v="hamlet" />
		<tag k="ssr:stedsnr" v="921619" />
	</node>
	<node id="9936814431" lat="62.8396777" lon="7.0718695" version="1" timestamp="2022-08-07T07:21:05Z" changeset="124585500" uid="3497659" user="NKA">
		<tag k="name" v="Danelplassen" />
		<tag k="place" v="locality" />
		<tag k="ssr:stedsnr" v="217587" />
	</node>
	<node id="9936814432" lat="62.8818665" lon="7.4462355" version="1" timestamp="2022-08-07T07:21:05Z" changeset="124585500" uid="3497659" user="NKA">
		<tag k="name" v="Vasskor" />
		<tag k="place" v="hamlet" />
		<tag k="ssr:stedsnr" v="740634" />
	</node>
	<node id="9936814433" lat="62.8554185" lon="7.052076" version="1" timestamp="2022-08-07T07:21:05Z" changeset="124585500" uid="3497659" user="NKA">
		<tag k="alt_name" v="Bergtun" />
		<tag k="name" v="Bergetun" />
		<tag k="place" v="farm" />
		<tag k="ssr:stedsnr" v="497238" />
	</node>
	<node id="9936814434" lat="62.921225" lon="7.4368111" version="1" timestamp="2022-08-07T07:21:05Z" changeset="124585500" uid="3497659" user="NKA">
		<tag k="name" v="Lysgård" />
		<tag k="place" v="farm" />
		<tag k="ssr:stedsnr" v="679508" />
	</node>
	<node id="9936814435" lat="62.9204482" lon="7.3489498" version="1" timestamp="2022-08-07T07:21:05Z" changeset="124585500" uid="3497659" user="NKA">
		<tag k="name" v="Slættet" />
		<tag k="place" v="farm" />
		<tag k="ssr:stedsnr" v="618555" />
	</node>
	<node id="9936814436" lat="62.82665" lon="7.1218639" version="1" timestamp="2022-08-07T07:21:05Z" changeset="124585500" uid="3497659" user="NKA">
		<tag k="name" v="Skotneset" />
		<tag k="place" v="farm" />
		<tag k="ssr:stedsnr" v="398531" />
	</node>
	<node id="9936814437" lat="62.922932" lon="7.2925414" version="1" timestamp="2022-08-07T07:21:05Z" changeset="124585500" uid="3497659" user="NKA">
		<tag k="alt_name" v="Bakken;Bakken, Søre" />
		<tag k="name" v="Søre Bakken" />
		<tag k="place" v="farm" />
		<tag k="ssr:stedsnr" v="618549" />
	</node>
	<node id="9936814438" lat="62.8052803" lon="7.0952854" version="1" timestamp="2022-08-07T07:21:05Z" changeset="124585500" uid="3497659" user="NKA">
		<tag k="name" v="Nygardsvollen" />
		<tag k="place" v="farm" />
		<tag k="ssr:stedsnr" v="497795" />
	</node>
	<node id="9936814439" lat="63.0062373" lon="7.2987573" version="1" timestamp="2022-08-07T07:21:05Z" changeset="124585500" uid="3497659" user="NKA">
		<tag k="name" v="Hamna" />
		<tag k="place" v="farm" />
		<tag k="ssr:stedsnr" v="581476" />
	</node>
	<node id="9936814440" lat="62.7885676" lon="7.1600716" version="1" timestamp="2022-08-07T07:21:05Z" changeset="124585500" uid="3497659" user="NKA">
		<tag k="name" v="Holssetra" />
		<tag k="place" v="farm" />
		<tag k="ssr:stedsnr" v="496825" />
	</node>
	<node id="9936814441" lat="62.9098944" lon="7.5649751" version="1" timestamp="2022-08-07T07:21:05Z" changeset="124585500" uid="3497659" user="NKA">
		<tag k="historic" v="shieling" />
		<tag k="name" v="Strandsetra" />
		<tag k="place" v="isolated_dwelling" />
		<tag k="ssr:stedsnr" v="581424" />
	</node>
	<node id="9936814442" lat="62.9435444" lon="7.2979722" version="1" timestamp="2022-08-07T07:21:05Z" changeset="124585500" uid="3497659" user="NKA">
		<tag k="name" v="Skardsholt" />
		<tag k="place" v="farm" />
		<tag k="ssr:stedsnr" v="496997" />
	</node>
	<node id="9936814443" lat="62.9374249" lon="7.3427417" version="1" timestamp="2022-08-07T07:21:05Z" changeset="124585500" uid="3497659" user="NKA">
		<tag k="name" v="Nygard" />
		<tag k="place" v="farm" />
		<tag k="ssr:stedsnr" v="497494" />
	</node>
	<node id="9936814444" lat="62.8069836" lon="7.0852025" version="1" timestamp="2022-08-07T07:21:05Z" changeset="124585500" uid="3497659" user="NKA">
		<tag k="name" v="Orrem" />
		<tag k="place" v="hamlet" />
		<tag k="ssr:stedsnr" v="436792" />
	</node>
	<node id="9936814445" lat="62.8007744" lon="7.1695708" version="1" timestamp="2022-08-07T07:21:05Z" changeset="124585500" uid="3497659" user="NKA">
		<tag k="name" v="Hol" />
		<tag k="place" v="hamlet" />
		<tag k="ssr:stedsnr" v="436810" />
	</node>
	<node id="9936814446" lat="62.9124972" lon="7.5405557" version="1" timestamp="2022-08-07T07:21:05Z" changeset="124585500" uid="3497659" user="NKA">
		<tag k="name" v="Tuftin" />
		<tag k="place" v="farm" />
		<tag k="ssr:stedsnr" v="436553" />
	</node>
	<node id="9936814447" lat="63.0051361" lon="7.2968334" version="1" timestamp="2022-08-07T07:21:05Z" changeset="124585500" uid="3497659" user="NKA">
		<tag k="name" v="Berget" />
		<tag k="place" v="farm" />
		<tag k="ssr:stedsnr" v="437436" />
	</node>
	<node id="9936814448" lat="62.9292861" lon="7.3474778" version="1" timestamp="2022-08-07T07:21:05Z" changeset="124585500" uid="3497659" user="NKA">
		<tag k="name" v="Myrebø" />
		<tag k="place" v="farm" />
		<tag k="ssr:stedsnr" v="436494" />
	</node>
	<node id="9936814449" lat="62.9634" lon="7.3528112" version="1" timestamp="2022-08-07T07:21:05Z" changeset="124585500" uid="3497659" user="NKA">
		<tag k="name" v="Øverland" />
		<tag k="place" v="farm" />
		<tag k="ssr:stedsnr" v="436956" />
	</node>
	<node id="9936814450" lat="62.7897909" lon="7.0409095" version="1" timestamp="2022-08-07T07:21:05Z" changeset="124585500" uid="3497659" user="NKA">
		<tag k="name" v="Hjellen" />
		<tag k="place" v="farm" />
		<tag k="ssr:stedsnr" v="95019" />
	</node>
	<node id="9936814451" lat="62.8001139" lon="7.1289611" version="1" timestamp="2022-08-07T07:21:05Z" changeset="124585500" uid="3497659" user="NKA">
		<tag k="historic" v="shieling" />
		<tag k="name" v="Haugastølane" />
		<tag k="place" v="isolated_dwelling" />
		<tag k="ssr:stedsnr" v="95430" />
	</node>
	<node id="9936814452" lat="62.7979888" lon="7.0803641" version="1" timestamp="2022-08-07T07:21:05Z" changeset="124585500" uid="3497659" user="NKA">
		<tag k="name" v="Vallhaugen" />
		<tag k="place" v="farm" />
		<tag k="ssr:stedsnr" v="72796" />
	</node>
	<node id="9936814453" lat="62.8041421" lon="7.1579231" version="1" timestamp="2022-08-07T07:21:05Z" changeset="124585500" uid="3497659" user="NKA">
		<tag k="name" v="Sande" />
		<tag k="place" v="farm" />
		<tag k="ssr:stedsnr" v="35009" />
	</node>
	<node id="9936814454" lat="62.7866073" lon="7.0767928" version="1" timestamp="2022-08-07T07:21:05Z" changeset="124585500" uid="3497659" user="NKA">
		<tag k="name" v="Hestad" />
		<tag k="place" v="hamlet" />
		<tag k="ssr:stedsnr" v="678818" />
	</node>
	<node id="9936814455" lat="62.7837864" lon="7.0646445" version="1" timestamp="2022-08-07T07:21:05Z" changeset="124585500" uid="3497659" user="NKA">
		<tag k="name" v="Undhaugen" />
		<tag k="place" v="farm" />
		<tag k="ssr:stedsnr" v="557822" />
	</node>
	<node id="9936814456" lat="62.8467866" lon="7.0884713" version="1" timestamp="2022-08-07T07:21:05Z" changeset="124585500" uid="3497659" user="NKA">
		<tag k="name" v="Oksegrova" />
		<tag k="place" v="hamlet" />
		<tag k="ssr:stedsnr" v="12233" />
	</node>
	<node id="9936814457" lat="62.7802752" lon="7.0371308" version="1" timestamp="2022-08-07T07:21:05Z" changeset="124585500" uid="3497659" user="NKA">
		<tag k="name" v="Hagåsen" />
		<tag k="place" v="farm" />
		<tag k="ssr:stedsnr" v="11863" />
	</node>
	<node id="9936814458" lat="62.7643667" lon="7.0466612" version="1" timestamp="2022-08-07T07:21:05Z" changeset="124585500" uid="3497659" user="NKA">
		<tag k="name" v="Lisetra" />
		<tag k="place" v="isolated_dwelling" />
		<tag k="ssr:stedsnr" v="12863" />
	</node>
	<node id="9936814459" lat="62.8039" lon="6.9994696" version="1" timestamp="2022-08-07T07:21:05Z" changeset="124585500" uid="3497659" user="NKA">
		<tag k="name" v="Storvika" />
		<tag k="place" v="farm" />
		<tag k="ssr:stedsnr" v="436795" />
	</node>
	<node id="9936814460" lat="62.8002889" lon="7.1203834" version="1" timestamp="2022-08-07T07:21:05Z" changeset="124585500" uid="3497659" user="NKA">
		<tag k="alt_name" v="Bøysetra" />
		<tag k="historic" v="shieling" />
		<tag k="name" v="Fjellsetra" />
		<tag k="place" v="isolated_dwelling" />
		<tag k="ssr:stedsnr" v="641441" />
	</node>
	<node id="9936814461" lat="62.8012372" lon="7.0819321" version="1" timestamp="2022-08-07T07:21:05Z" changeset="124585500" uid="3497659" user="NKA">
		<tag k="name" v="Valle" />
		<tag k="place" v="hamlet" />
		<tag k="ssr:stedsnr" v="194787" />
	</node>
	<node id="9936814462" lat="62.8756061" lon="6.9683342" version="1" timestamp="2022-08-07T07:21:05Z" changeset="124585500" uid="3497659" user="NKA">
		<tag k="name" v="Skomakarneset" />
		<tag k="place" v="farm" />
		<tag k="ssr:stedsnr" v="921158" />
	</node>
	<node id="9936814463" lat="62.8462304" lon="7.247652" version="1" timestamp="2022-08-07T07:21:05Z" changeset="124585500" uid="3497659" user="NKA">
		<tag k="name" v="Nonshaugen" />
		<tag k="place" v="farm" />
		<tag k="ssr:stedsnr" v="921686" />
	</node>
	<node id="9936814464" lat="62.8452326" lon="7.0779931" version="1" timestamp="2022-08-07T07:21:05Z" changeset="124585500" uid="3497659" user="NKA">
		<tag k="name" v="Rørset" />
		<tag k="place" v="farm" />
		<tag k="ssr:stedsnr" v="194215" />
	</node>
	<node id="9936814465" lat="62.7621166" lon="7.0924084" version="1" timestamp="2022-08-07T07:21:05Z" changeset="124585500" uid="3497659" user="NKA">
		<tag k="name" v="Malisetra" />
		<tag k="place" v="locality" />
		<tag k="ssr:stedsnr" v="699970" />
	</node>
	<node id="9936814466" lat="62.7826539" lon="7.0546385" version="1" timestamp="2022-08-07T07:21:05Z" changeset="124585500" uid="3497659" user="NKA">
		<tag k="name" v="Sagmo" />
		<tag k="place" v="farm" />
		<tag k="ssr:stedsnr" v="96010" />
	</node>
	<node id="9936814467" lat="62.8268222" lon="7.2320083" version="1" timestamp="2022-08-07T07:21:05Z" changeset="124585500" uid="3497659" user="NKA">
		<tag k="name" v="Nøsamyra" />
		<tag k="place" v="farm" />
		<tag k="ssr:stedsnr" v="702057" />
	</node>
	<node id="9936814468" lat="62.8649389" lon="7.2736528" version="1" timestamp="2022-08-07T07:21:05Z" changeset="124585500" uid="3497659" user="NKA">
		<tag k="name" v="Sylteeidet" />
		<tag k="place" v="isolated_dwelling" />
		<tag k="ssr:stedsnr" v="688805" />
	</node>
	<node id="9936814469" lat="62.8271917" lon="7.1919945" version="1" timestamp="2022-08-07T07:21:05Z" changeset="124585500" uid="3497659" user="NKA">
		<tag k="name" v="Syltevorpa" />
		<tag k="place" v="farm" />
		<tag k="ssr:stedsnr" v="618759" />
	</node>
	<node id="9936814470" lat="62.8390222" lon="7.0587752" version="1" timestamp="2022-08-07T07:21:05Z" changeset="124585500" uid="3497659" user="NKA">
		<tag k="name" v="Lerkesletta" />
		<tag k="place" v="farm" />
		<tag k="ssr:stedsnr" v="436184" />
	</node>
	<node id="9936814471" lat="62.7703584" lon="7.1011695" version="1" timestamp="2022-08-07T07:21:05Z" changeset="124585500" uid="3497659" user="NKA">
		<tag k="name" v="Åndalssetra" />
		<tag k="place" v="isolated_dwelling" />
		<tag k="ssr:stedsnr" v="12864" />
	</node>
	<node id="9936814472" lat="62.7688869" lon="7.0563095" version="1" timestamp="2022-08-07T07:21:05Z" changeset="124585500" uid="3497659" user="NKA">
		<tag k="name" v="Tverrlia" />
		<tag k="place" v="farm" />
		<tag k="ssr:stedsnr" v="12865" />
	</node>
	<node id="9936814473" lat="62.8517361" lon="7.2229057" version="1" timestamp="2022-08-07T07:21:05Z" changeset="124585500" uid="3497659" user="NKA">
		<tag k="name" v="Vestmarka" />
		<tag k="place" v="farm" />
		<tag k="ssr:stedsnr" v="496689" />
	</node>
	<node id="9936814474" lat="62.8893995" lon="7.0693308" version="1" timestamp="2022-08-07T07:21:05Z" changeset="124585500" uid="3497659" user="NKA">
		<tag k="name" v="Fjell" />
		<tag k="place" v="farm" />
		<tag k="ssr:stedsnr" v="375118" />
	</node>
	<node id="9936814475" lat="62.8318708" lon="7.2928222" version="1" timestamp="2022-08-07T07:21:05Z" changeset="124585500" uid="3497659" user="NKA">
		<tag k="alt_name" v="Rødal" />
		<tag k="name" v="Rødalen" />
		<tag k="place" v="hamlet" />
		<tag k="ssr:stedsnr" v="497697" />
	</node>
	<node id="9936814476" lat="62.8573462" lon="7.0151882" version="1" timestamp="2022-08-07T07:21:05Z" changeset="124585500" uid="3497659" user="NKA">
		<tag k="name" v="Bakkemyra" />
		<tag k="place" v="farm" />
		<tag k="ssr:stedsnr" v="398034" />
	</node>
	<node id="9936814477" lat="62.8617889" lon="7.019275" version="1" timestamp="2022-08-07T07:21:05Z" changeset="124585500" uid="3497659" user="NKA">
		<tag k="name" v="Soltun" />
		<tag k="place" v="farm" />
		<tag k="ssr:stedsnr" v="315227" />
	</node>
	<node id="9936814478" lat="62.908574" lon="6.9025362" version="1" timestamp="2022-08-07T07:21:05Z" changeset="124585500" uid="3497659" user="NKA">
		<tag k="name" v="Vika" />
		<tag k="place" v="farm" />
		<tag k="ssr:stedsnr" v="945024" />
	</node>
	<node id="9936814479" lat="62.837575" lon="7.2347779" version="1" timestamp="2022-08-07T07:21:05Z" changeset="124585500" uid="3497659" user="NKA">
		<tag k="name" v="Syltemyra" />
		<tag k="place" v="farm" />
		<tag k="ssr:stedsnr" v="437718" />
	</node>
	<node id="9936814480" lat="62.7894942" lon="7.0289803" version="1" timestamp="2022-08-07T07:21:05Z" changeset="124585500" uid="3497659" user="NKA">
		<tag k="name" v="Risholen" />
		<tag k="place" v="farm" />
		<tag k="ssr:stedsnr" v="459017" />
	</node>
	<node id="9936814481" lat="62.8882701" lon="7.4648408" version="1" timestamp="2022-08-07T07:21:05Z" changeset="124585500" uid="3497659" user="NKA">
		<tag k="name" v="Øyen" />
		<tag k="place" v="locality" />
		<tag k="ssr:stedsnr" v="980992" />
	</node>
	<node id="9936814482" lat="62.8555917" lon="7.2259751" version="1" timestamp="2022-08-07T07:21:05Z" changeset="124585500" uid="3497659" user="NKA">
		<tag k="name" v="Bjørnhaug" />
		<tag k="place" v="farm" />
		<tag k="ssr:stedsnr" v="375646" />
	</node>
	<node id="9936814483" lat="62.8444611" lon="7.0289891" version="1" timestamp="2022-08-07T07:21:05Z" changeset="124585500" uid="3497659" user="NKA">
		<tag k="name" v="Rotheim" />
		<tag k="place" v="farm" />
		<tag k="ssr:stedsnr" v="254205" />
	</node>
	<node id="9936814484" lat="62.8247651" lon="7.0882194" version="1" timestamp="2022-08-07T07:21:05Z" changeset="124585500" uid="3497659" user="NKA">
		<tag k="name" v="Hoemsneset" />
		<tag k="place" v="hamlet" />
		<tag k="ssr:stedsnr" v="436757" />
	</node>
	<node id="9936814485" lat="62.8456705" lon="7.2218751" version="1" timestamp="2022-08-07T07:21:05Z" changeset="124585500" uid="3497659" user="NKA">
		<tag k="alt_name" v="Sylteløken" />
		<tag k="name" v="Løken" />
		<tag k="place" v="farm" />
		<tag k="ssr:stedsnr" v="316894" />
	</node>
	<node id="9936814486" lat="62.7741001" lon="7.0472562" version="1" timestamp="2022-08-07T07:21:05Z" changeset="124585500" uid="3497659" user="NKA">
		<tag k="name" v="Bringslia" />
		<tag k="place" v="farm" />
		<tag k="ssr:stedsnr" v="254833" />
	</node>
	<node id="9936814487" lat="62.8343389" lon="7.2101917" version="1" timestamp="2022-08-07T07:21:05Z" changeset="124585500" uid="3497659" user="NKA">
		<tag k="name" v="Flatmo" />
		<tag k="place" v="farm" />
		<tag k="ssr:stedsnr" v="254726" />
	</node>
	<node id="9936814488" lat="62.8150472" lon="7.2195863" version="1" timestamp="2022-08-07T07:21:05Z" changeset="124585500" uid="3497659" user="NKA">
		<tag k="name" v="Sletta" />
		<tag k="place" v="farm" />
		<tag k="ssr:stedsnr" v="255756" />
	</node>
	<node id="9936814489" lat="62.84835" lon="7.2226585" version="1" timestamp="2022-08-07T07:21:05Z" changeset="124585500" uid="3497659" user="NKA">
		<tag k="name" v="Fagerlia" />
		<tag k="place" v="farm" />
		<tag k="ssr:stedsnr" v="132690" />
	</node>
	<node id="9936814490" lat="62.8528028" lon="7.2199334" version="1" timestamp="2022-08-07T07:21:05Z" changeset="124585500" uid="3497659" user="NKA">
		<tag k="name" v="Nordbakk" />
		<tag k="place" v="farm" />
		<tag k="ssr:stedsnr" v="132684" />
	</node>
	<node id="9936814491" lat="62.8526501" lon="7.2773879" version="1" timestamp="2022-08-07T07:21:05Z" changeset="124585500" uid="3497659" user="NKA">
		<tag k="name" v="Gjerdhaugen" />
		<tag k="place" v="farm" />
		<tag k="ssr:stedsnr" v="739678" />
	</node>
	<node id="9936814492" lat="62.809217" lon="7.2466688" version="1" timestamp="2022-08-07T07:21:05Z" changeset="124585500" uid="3497659" user="NKA">
		<tag k="name" v="Julset" />
		<tag k="place" v="hamlet" />
		<tag k="ssr:stedsnr" v="73733" />
	</node>
	<node id="9936814493" lat="62.8373084" lon="7.2039896" version="1" timestamp="2022-08-07T07:21:05Z" changeset="124585500" uid="3497659" user="NKA">
		<tag k="name" v="Syltegjerdet" />
		<tag k="place" v="hamlet" />
		<tag k="ssr:stedsnr" v="72199" />
	</node>
	<node id="9936814494" lat="62.8335488" lon="7.2412538" version="1" timestamp="2022-08-07T07:21:05Z" changeset="124585500" uid="3497659" user="NKA">
		<tag k="alt_name" v="Rødset" />
		<tag k="name" v="Røset" />
		<tag k="place" v="hamlet" />
		<tag k="ssr:stedsnr" v="73726" />
	</node>
	<node id="9936814495" lat="62.8418277" lon="7.2239168" version="1" timestamp="2022-08-07T07:21:05Z" changeset="124585500" uid="3497659" user="NKA">
		<tag k="name" v="Sylteløken" />
		<tag k="place" v="farm" />
		<tag k="ssr:stedsnr" v="72643" />
	</node>
	<node id="9936814496" lat="62.7942851" lon="7.3139915" version="1" timestamp="2022-08-07T07:21:05Z" changeset="124585500" uid="3497659" user="NKA">
		<tag k="name" v="Nøtskaret" />
		<tag k="place" v="locality" />
		<tag k="ssr:stedsnr" v="580824" />
	</node>
	<node id="9936814497" lat="62.8430305" lon="7.3529334" version="1" timestamp="2022-08-07T07:21:05Z" changeset="124585500" uid="3497659" user="NKA">
		<tag k="name" v="Stølane" />
		<tag k="place" v="locality" />
		<tag k="ssr:stedsnr" v="398951" />
	</node>
	<node id="9936814498" lat="62.8360278" lon="7.1948667" version="1" timestamp="2022-08-07T07:21:05Z" changeset="124585500" uid="3497659" user="NKA">
		<tag k="name" v="Kråkneset" />
		<tag k="place" v="farm" />
		<tag k="ssr:stedsnr" v="11749" />
	</node>
	<node id="9936814499" lat="62.8392445" lon="7.2085001" version="1" timestamp="2022-08-07T07:21:05Z" changeset="124585500" uid="3497659" user="NKA">
		<tag k="name" v="Lynghaug" />
		<tag k="place" v="farm" />
		<tag k="ssr:stedsnr" v="800207" />
	</node>
	<node id="9936814500" lat="62.8167166" lon="7.202628" version="1" timestamp="2022-08-07T07:21:05Z" changeset="124585500" uid="3497659" user="NKA">
		<tag k="name" v="Kolberg" />
		<tag k="place" v="farm" />
		<tag k="ssr:stedsnr" v="861779" />
	</node>
	<node id="9936814501" lat="62.8144879" lon="7.2250551" version="1" timestamp="2022-08-07T07:21:05Z" changeset="124585500" uid="3497659" user="NKA">
		<tag k="name" v="Kaven" />
		<tag k="place" v="farm" />
		<tag k="ssr:stedsnr" v="885053" />
	</node>
	<node id="9936814502" lat="62.8557139" lon="7.2003417" version="1" timestamp="2022-08-07T07:21:05Z" changeset="124585500" uid="3497659" user="NKA">
		<tag k="name" v="Dalstein" />
		<tag k="place" v="farm" />
		<tag k="ssr:stedsnr" v="861187" />
	</node>
	<node id="9936814503" lat="62.7950398" lon="7.2577617" version="1" timestamp="2022-08-07T07:21:05Z" changeset="124585500" uid="3497659" user="NKA">
		<tag k="name" v="Bømarka" />
		<tag k="place" v="farm" />
		<tag k="ssr:stedsnr" v="35042" />
	</node>
	<node id="9936814504" lat="62.8518651" lon="7.2637544" version="1" timestamp="2022-08-07T07:21:05Z" changeset="124585500" uid="3497659" user="NKA">
		<tag k="name" v="Lunheim" />
		<tag k="place" v="farm" />
		<tag k="ssr:stedsnr" v="11683" />
	</node>
	<node id="9936814505" lat="62.8306194" lon="7.325239" version="1" timestamp="2022-08-07T07:21:05Z" changeset="124585500" uid="3497659" user="NKA">
		<tag k="historic" v="shieling" />
		<tag k="name" v="Rødalssetra" />
		<tag k="place" v="isolated_dwelling" />
		<tag k="ssr:stedsnr" v="740698" />
	</node>
	<node id="9936814506" lat="62.8142383" lon="7.2304586" version="1" timestamp="2022-08-07T07:21:05Z" changeset="124585500" uid="3497659" user="NKA">
		<tag k="name" v="Nøsavik" />
		<tag k="place" v="farm" />
		<tag k="ssr:stedsnr" v="641045" />
	</node>
	<node id="9936814507" lat="62.8370834" lon="7.2135389" version="1" timestamp="2022-08-07T07:21:05Z" changeset="124585500" uid="3497659" user="NKA">
		<tag k="name" v="Lundemo" />
		<tag k="place" v="farm" />
		<tag k="ssr:stedsnr" v="739753" />
	</node>
	<node id="9936814508" lat="62.827307" lon="7.2475193" version="1" timestamp="2022-08-07T07:21:05Z" changeset="124585500" uid="3497659" user="NKA">
		<tag k="alt_name" v="Elvebakk" />
		<tag k="name" v="Elvebakken" />
		<tag k="place" v="farm" />
		<tag k="ssr:stedsnr" v="619728" />
	</node>
	<node id="9936814509" lat="62.7927948" lon="7.2562401" version="1" timestamp="2022-08-07T07:21:05Z" changeset="124585500" uid="3497659" user="NKA">
		<tag k="name" v="Malmedalen" />
		<tag k="place" v="hamlet" />
		<tag k="ssr:stedsnr" v="133713" />
	</node>
	<node id="9936814510" lat="62.8565417" lon="7.2618806" version="1" timestamp="2022-08-07T07:21:05Z" changeset="124585500" uid="3497659" user="NKA">
		<tag k="name" v="Brandshol" />
		<tag k="place" v="farm" />
		<tag k="ssr:stedsnr" v="72612" />
	</node>
	<node id="9936814511" lat="62.8227701" lon="7.2269688" version="1" timestamp="2022-08-07T07:21:05Z" changeset="124585500" uid="3497659" user="NKA">
		<tag k="name" v="Nøsa" />
		<tag k="place" v="farm" />
		<tag k="ssr:stedsnr" v="619727" />
	</node>
	<node id="9936814512" lat="62.795325" lon="7.2635667" version="1" timestamp="2022-08-07T07:21:05Z" changeset="124585500" uid="3497659" user="NKA">
		<tag k="name" v="Gjerdet" />
		<tag k="place" v="farm" />
		<tag k="ssr:stedsnr" v="12770" />
	</node>
	<node id="9936814513" lat="62.8145058" lon="7.2361007" version="1" timestamp="2022-08-07T07:21:05Z" changeset="124585500" uid="3497659" user="NKA">
		<tag k="name" v="Ytre Julset" />
		<tag k="place" v="farm" />
		<tag k="ssr:stedsnr" v="35814" />
	</node>
	<node id="9936814514" lat="62.7950472" lon="7.2456472" version="1" timestamp="2022-08-07T07:21:05Z" changeset="124585500" uid="3497659" user="NKA">
		<tag k="name" v="Reitan" />
		<tag k="place" v="isolated_dwelling" />
		<tag k="ssr:stedsnr" v="638821" />
	</node>
	<node id="9936814515" lat="62.7995794" lon="7.2213513" version="1" timestamp="2022-08-07T07:21:05Z" changeset="124585500" uid="3497659" user="NKA">
		<tag k="name" v="Røsshol" />
		<tag k="place" v="hamlet" />
		<tag k="ssr:stedsnr" v="558758" />
	</node>
	<node id="9936814516" lat="62.8927501" lon="6.8269667" version="1" timestamp="2022-08-07T07:21:05Z" changeset="124585500" uid="3497659" user="NKA">
		<tag k="alt_name" v="Bjørnsund, Nørdre" />
		<tag k="name" v="Nørdre Bjørnsund" />
		<tag k="place" v="hamlet" />
		<tag k="ssr:stedsnr" v="262131" />
	</node>
	<node id="9936814517" lat="62.9240527" lon="7.5911084" version="1" timestamp="2022-08-07T07:21:05Z" changeset="124585500" uid="3497659" user="NKA">
		<tag k="name" v="Einhaugen" />
		<tag k="place" v="farm" />
		<tag k="ssr:stedsnr" v="679510" />
	</node>
	<node id="9936814518" lat="62.9068395" lon="6.9024823" version="1" timestamp="2022-08-07T07:21:05Z" changeset="124585500" uid="3497659" user="NKA">
		<tag k="alt_name" v="Kleppa" />
		<tag k="name" v="Kleppen" />
		<tag k="place" v="farm" />
		<tag k="ssr:stedsnr" v="95018" />
	</node>
	<node id="9936814519" lat="62.9078902" lon="7.5519379" version="1" timestamp="2022-08-07T07:21:05Z" changeset="124585500" uid="3497659" user="NKA">
		<tag k="name" v="Herskedalen" />
		<tag k="place" v="hamlet" />
		<tag k="ssr:stedsnr" v="618565" />
	</node>
	<node id="9936814520" lat="62.7962583" lon="6.985039" version="1" timestamp="2022-08-07T07:21:05Z" changeset="124585500" uid="3497659" user="NKA">
		<tag k="name" v="Jendemsvorpa" />
		<tag k="place" v="farm" />
		<tag k="ssr:stedsnr" v="983524" />
	</node>
	<node id="9936814521" lat="62.9146889" lon="6.9823445" version="1" timestamp="2022-08-07T07:21:05Z" changeset="124585500" uid="3497659" user="NKA">
		<tag k="name" v="Solbu" />
		<tag k="place" v="farm" />
		<tag k="ssr:stedsnr" v="741091" />
	</node>
	<node id="9936814522" lat="62.8577269" lon="7.2730416" version="1" timestamp="2022-08-07T07:21:05Z" changeset="124585500" uid="3497659" user="NKA">
		<tag k="name" v="Syltestølen" />
		<tag k="place" v="isolated_dwelling" />
		<tag k="ssr:stedsnr" v="520034" />
	</node>
	<node id="9936814523" lat="62.8901972" lon="6.9888307" version="1" timestamp="2022-08-07T07:21:05Z" changeset="124585500" uid="3497659" user="NKA">
		<tag k="alt_name" v="Vestadskaret" />
		<tag k="name" v="Skardet" />
		<tag k="place" v="farm" />
		<tag k="ssr:stedsnr" v="315157" />
	</node>
	<node id="9936814524" lat="62.8774907" lon="6.9941647" version="1" timestamp="2022-08-07T07:21:05Z" changeset="124585500" uid="3497659" user="NKA">
		<tag k="name" v="Indre Stavika" />
		<tag k="place" v="farm" />
		<tag k="ssr:stedsnr" v="254130" />
	</node>
	<node id="9936814525" lat="62.8874667" lon="7.1474057" version="1" timestamp="2022-08-07T07:21:05Z" changeset="124585500" uid="3497659" user="NKA">
		<tag k="name" v="Hatlemyra" />
		<tag k="place" v="farm" />
		<tag k="ssr:stedsnr" v="254114" />
	</node>
	<node id="9936814526" lat="62.912375" lon="6.984514" version="1" timestamp="2022-08-07T07:21:05Z" changeset="124585500" uid="3497659" user="NKA">
		<tag k="name" v="Fredly" />
		<tag k="place" v="farm" />
		<tag k="ssr:stedsnr" v="73079" />
	</node>
	<node id="9936814527" lat="62.8602889" lon="7.2680055" version="1" timestamp="2022-08-07T07:21:05Z" changeset="124585500" uid="3497659" user="NKA">
		<tag k="name" v="Stølen" />
		<tag k="place" v="farm" />
		<tag k="ssr:stedsnr" v="254609" />
	</node>
	<node id="9936814528" lat="62.8634077" lon="7.1381435" version="1" timestamp="2022-08-07T07:21:05Z" changeset="124585500" uid="3497659" user="NKA">
		<tag k="name" v="Skogly" />
		<tag k="place" v="farm" />
		<tag k="ssr:stedsnr" v="132237" />
	</node>
	<node id="9936814529" lat="62.9285361" lon="6.9873529" version="1" timestamp="2022-08-07T07:21:05Z" changeset="124585500" uid="3497659" user="NKA">
		<tag k="name" v="Langmyra" />
		<tag k="place" v="farm" />
		<tag k="ssr:stedsnr" v="763007" />
	</node>
	<node id="9936814530" lat="62.8754792" lon="7.1528245" version="1" timestamp="2022-08-07T07:21:05Z" changeset="124585500" uid="3497659" user="NKA">
		<tag k="name" v="Talstad" />
		<tag k="place" v="hamlet" />
		<tag k="ssr:stedsnr" v="72142" />
	</node>
	<node id="9936814531" lat="62.8877278" lon="6.9835113" version="1" timestamp="2022-08-07T07:21:05Z" changeset="124585500" uid="3497659" user="NKA">
		<tag k="name" v="Sørenplassen" />
		<tag k="place" v="locality" />
		<tag k="ssr:stedsnr" v="824421" />
	</node>
	<node id="9936814532" lat="62.8439111" lon="7.2336723" version="1" timestamp="2022-08-07T07:21:05Z" changeset="124585500" uid="3497659" user="NKA">
		<tag k="name" v="Elvebakken" />
		<tag k="place" v="farm" />
		<tag k="ssr:stedsnr" v="945771" />
	</node>
	<node id="9936814533" lat="62.8601588" lon="7.2461641" version="1" timestamp="2022-08-07T07:21:05Z" changeset="124585500" uid="3497659" user="NKA">
		<tag k="name" v="Varholen" />
		<tag k="place" v="hamlet" />
		<tag k="ssr:stedsnr" v="801624" />
	</node>
	<node id="9936814534" lat="62.908388" lon="7.2437186" version="1" timestamp="2022-08-07T07:21:05Z" changeset="124585500" uid="3497659" user="NKA">
		<tag k="name" v="Lunden" />
		<tag k="place" v="farm" />
		<tag k="ssr:stedsnr" v="96049" />
	</node>
	<node id="9936814535" lat="62.8814278" lon="7.3329029" version="1" timestamp="2022-08-07T07:21:05Z" changeset="124585500" uid="3497659" user="NKA">
		<tag k="name" v="Sjurhaugen" />
		<tag k="place" v="isolated_dwelling" />
		<tag k="ssr:stedsnr" v="641195" />
	</node>
	<node id="9936814536" lat="62.9120722" lon="7.2320474" version="1" timestamp="2022-08-07T07:21:05Z" changeset="124585500" uid="3497659" user="NKA">
		<tag k="name" v="Grønset" />
		<tag k="place" v="farm" />
		<tag k="ssr:stedsnr" v="254520" />
	</node>
	<node id="9936814537" lat="62.8686833" lon="7.1155612" version="1" timestamp="2022-08-07T07:21:05Z" changeset="124585500" uid="3497659" user="NKA">
		<tag k="name" v="Lindely" />
		<tag k="place" v="farm" />
		<tag k="ssr:stedsnr" v="557125" />
	</node>
	<node id="9936814538" lat="62.903728" lon="7.1906571" version="1" timestamp="2022-08-07T07:21:05Z" changeset="124585500" uid="3497659" user="NKA">
		<tag k="name" v="Bjørsnøs" />
		<tag k="place" v="hamlet" />
		<tag k="ssr:stedsnr" v="861156" />
	</node>
	<node id="9936814539" lat="62.9588793" lon="7.0826295" version="1" timestamp="2022-08-07T07:21:05Z" changeset="124585500" uid="3497659" user="NKA">
		<tag k="alt_name" v="LØGSET" />
		<tag k="name" v="Løkset" />
		<tag k="place" v="farm" />
		<tag k="ssr:stedsnr" v="922012" />
	</node>
	<node id="9936814540" lat="62.9126361" lon="7.3243556" version="1" timestamp="2022-08-07T07:21:05Z" changeset="124585500" uid="3497659" user="NKA">
		<tag k="name" v="Sandneshaugen" />
		<tag k="place" v="farm" />
		<tag k="ssr:stedsnr" v="194475" />
	</node>
	<node id="9936814541" lat="62.9019472" lon="7.1788307" version="1" timestamp="2022-08-07T07:21:05Z" changeset="124585500" uid="3497659" user="NKA">
		<tag k="name" v="Bjørsnøs" />
		<tag k="place" v="farm" />
		<tag k="ssr:stedsnr" v="866881" />
	</node>
	<node id="9936814542" lat="62.9087805" lon="7.2177584" version="1" timestamp="2022-08-07T07:21:05Z" changeset="124585500" uid="3497659" user="NKA">
		<tag k="name" v="Asphaug" />
		<tag k="place" v="farm" />
		<tag k="ssr:stedsnr" v="193180" />
	</node>
	<node id="9936814543" lat="62.9058111" lon="7.2129807" version="1" timestamp="2022-08-07T07:21:05Z" changeset="124585500" uid="3497659" user="NKA">
		<tag k="historic" v="shieling" />
		<tag k="name" v="Farstadsetra" />
		<tag k="place" v="isolated_dwelling" />
		<tag k="ssr:stedsnr" v="399043" />
	</node>
	<node id="9936814544" lat="62.8803722" lon="7.3283223" version="1" timestamp="2022-08-07T07:21:05Z" changeset="124585500" uid="3497659" user="NKA">
		<tag k="name" v="Johaugen" />
		<tag k="place" v="isolated_dwelling" />
		<tag k="ssr:stedsnr" v="581459" />
	</node>
	<node id="9936814545" lat="62.8559754" lon="7.1861346" version="1" timestamp="2022-08-07T07:21:05Z" changeset="124585500" uid="3497659" user="NKA">
		<tag k="name" v="Dale" />
		<tag k="place" v="hamlet" />
		<tag k="ssr:stedsnr" v="800245" />
	</node>
	<node id="9936814546" lat="62.9116787" lon="7.1924467" version="1" timestamp="2022-08-07T07:21:05Z" changeset="124585500" uid="3497659" user="NKA">
		<tag k="name" v="Bjørsnøs" />
		<tag k="place" v="farm" />
		<tag k="ssr:stedsnr" v="355872" />
	</node>
	<node id="9936814547" lat="62.9637393" lon="7.169368" version="1" timestamp="2022-08-07T07:21:05Z" changeset="124585500" uid="3497659" user="NKA">
		<tag k="alt_name" v="Elvebakk" />
		<tag k="name" v="Elvebakken" />
		<tag k="place" v="farm" />
		<tag k="ssr:stedsnr" v="922024" />
	</node>
	<node id="9936814548" lat="63.0123226" lon="7.3283242" version="1" timestamp="2022-08-07T07:21:05Z" changeset="124585500" uid="3497659" user="NKA">
		<tag k="name" v="Skarvøya" />
		<tag k="place" v="farm" />
		<tag k="ssr:stedsnr" v="980913" />
	</node>
	<node id="9936814549" lat="62.9282784" lon="7.2206645" version="1" timestamp="2022-08-07T07:21:05Z" changeset="124585500" uid="3497659" user="NKA">
		<tag k="name" v="Vassenden" />
		<tag k="place" v="hamlet" />
		<tag k="ssr:stedsnr" v="739511" />
	</node>
	<node id="9936814550" lat="62.9527977" lon="7.1661261" version="1" timestamp="2022-08-07T07:21:05Z" changeset="124585500" uid="3497659" user="NKA">
		<tag k="name" v="Lønset" />
		<tag k="place" v="farm" />
		<tag k="ssr:stedsnr" v="801114" />
	</node>
	<node id="9936814551" lat="62.9230334" lon="7.0911112" version="1" timestamp="2022-08-07T07:21:05Z" changeset="124585500" uid="3497659" user="NKA">
		<tag k="name" v="Elvehaug" />
		<tag k="place" v="farm" />
		<tag k="ssr:stedsnr" v="619098" />
	</node>
	<node id="9936814552" lat="62.8640565" lon="7.0584156" version="1" timestamp="2022-08-07T07:21:05Z" changeset="124585500" uid="3497659" user="NKA">
		<tag k="name" v="Slutåsen" />
		<tag k="place" v="farm" />
		<tag k="ssr:stedsnr" v="315137" />
	</node>
	<node id="9936814553" lat="62.9106111" lon="6.9930418" version="1" timestamp="2022-08-07T07:21:05Z" changeset="124585500" uid="3497659" user="NKA">
		<tag k="name" v="Austerheim" />
		<tag k="place" v="farm" />
		<tag k="ssr:stedsnr" v="558082" />
	</node>
	<node id="9936814554" lat="62.9505556" lon="7.1728501" version="1" timestamp="2022-08-07T07:21:05Z" changeset="124585500" uid="3497659" user="NKA">
		<tag k="name" v="Okstad" />
		<tag k="place" v="farm" />
		<tag k="ssr:stedsnr" v="740112" />
	</node>
	<node id="9936814555" lat="62.8734717" lon="6.9995334" version="1" timestamp="2022-08-07T07:21:05Z" changeset="124585500" uid="3497659" user="NKA">
		<tag k="name" v="Fugleberget" />
		<tag k="place" v="farm" />
		<tag k="ssr:stedsnr" v="520021" />
	</node>
	<node id="9936814556" lat="62.9043874" lon="7.1985256" version="1" timestamp="2022-08-07T07:21:05Z" changeset="124585500" uid="3497659" user="NKA">
		<tag k="name" v="Bjørnstad" />
		<tag k="place" v="farm" />
		<tag k="ssr:stedsnr" v="156044" />
	</node>
	<node id="9936814557" lat="62.9218824" lon="7.350759" version="1" timestamp="2022-08-07T07:21:05Z" changeset="124585500" uid="3497659" user="NKA">
		<tag k="name" v="Lyngstadås" />
		<tag k="place" v="farm" />
		<tag k="ssr:stedsnr" v="980995" />
	</node>
	<node id="9936814558" lat="62.9916722" lon="7.1488279" version="1" timestamp="2022-08-07T07:21:05Z" changeset="124585500" uid="3497659" user="NKA">
		<tag k="name" v="Breiviknausta" />
		<tag k="place" v="locality" />
		<tag k="ssr:stedsnr" v="580706" />
	</node>
	<node id="9936814559" lat="62.8001421" lon="7.2417438" version="1" timestamp="2022-08-07T07:21:05Z" changeset="124585500" uid="3497659" user="NKA">
		<tag k="name" v="Malmegjerdet" />
		<tag k="place" v="isolated_dwelling" />
		<tag k="ssr:stedsnr" v="960020" />
	</node>
	<node id="9936814560" lat="62.9284789" lon="7.3458466" version="1" timestamp="2022-08-07T07:21:05Z" changeset="124585500" uid="3497659" user="NKA">
		<tag k="name" v="Myrstad" />
		<tag k="place" v="farm" />
		<tag k="ssr:stedsnr" v="945372" />
	</node>
	<node id="9936814561" lat="62.943444" lon="7.0203519" version="1" timestamp="2022-08-07T07:21:05Z" changeset="124585500" uid="3497659" user="NKA">
		<tag k="name" v="Gjerdet" />
		<tag k="place" v="farm" />
		<tag k="ssr:stedsnr" v="959536" />
	</node>
	<node id="9936814562" lat="62.9533944" lon="7.4113167" version="1" timestamp="2022-08-07T07:21:05Z" changeset="124585500" uid="3497659" user="NKA">
		<tag k="name" v="Myran" />
		<tag k="place" v="farm" />
		<tag k="ssr:stedsnr" v="921971" />
	</node>
	<node id="9936814563" lat="62.9234865" lon="7.2972893" version="1" timestamp="2022-08-07T07:21:05Z" changeset="124585500" uid="3497659" user="NKA">
		<tag k="name" v="Bakken" />
		<tag k="place" v="hamlet" />
		<tag k="ssr:stedsnr" v="479028" />
	</node>
	<node id="9936814564" lat="62.9569306" lon="7.1229168" version="1" timestamp="2022-08-07T07:21:05Z" changeset="124585500" uid="3497659" user="NKA">
		<tag k="name" v="Hamar" />
		<tag k="place" v="farm" />
		<tag k="ssr:stedsnr" v="376010" />
	</node>
	<node id="9936814565" lat="62.9821167" lon="7.2621778" version="1" timestamp="2022-08-07T07:21:05Z" changeset="124585500" uid="3497659" user="NKA">
		<tag k="name" v="Brenthaugen" />
		<tag k="place" v="farm" />
		<tag k="ssr:stedsnr" v="376912" />
	</node>
	<node id="9936814566" lat="62.9152639" lon="7.2200029" version="1" timestamp="2022-08-07T07:21:05Z" changeset="124585500" uid="3497659" user="NKA">
		<tag k="name" v="Svarstad" />
		<tag k="place" v="farm" />
		<tag k="ssr:stedsnr" v="375511" />
	</node>
	<node id="9936814567" lat="62.9180972" lon="7.2154" version="1" timestamp="2022-08-07T07:21:05Z" changeset="124585500" uid="3497659" user="NKA">
		<tag k="name" v="Solheim" />
		<tag k="place" v="farm" />
		<tag k="ssr:stedsnr" v="376065" />
	</node>
	<node id="9936814568" lat="62.8260139" lon="7.24195" version="1" timestamp="2022-08-07T07:21:05Z" changeset="124585500" uid="3497659" user="NKA">
		<tag k="name" v="Lauvåsen" />
		<tag k="place" v="farm" />
		<tag k="ssr:stedsnr" v="520051" />
	</node>
	<node id="9936814569" lat="62.9478139" lon="7.395425" version="1" timestamp="2022-08-07T07:21:05Z" changeset="124585500" uid="3497659" user="NKA">
		<tag k="historic" v="shieling" />
		<tag k="name" v="Lindsetsetra" />
		<tag k="place" v="isolated_dwelling" />
		<tag k="ssr:stedsnr" v="519390" />
	</node>
	<node id="9936814570" lat="62.9884139" lon="7.2497806" version="1" timestamp="2022-08-07T07:21:05Z" changeset="124585500" uid="3497659" user="NKA">
		<tag k="name" v="Solli" />
		<tag k="place" v="farm" />
		<tag k="ssr:stedsnr" v="338034" />
	</node>
	<node id="9936814571" lat="62.9742609" lon="7.1590696" version="1" timestamp="2022-08-07T07:21:05Z" changeset="124585500" uid="3497659" user="NKA">
		<tag k="name" v="Ivargarden" />
		<tag k="place" v="farm" />
		<tag k="ssr:stedsnr" v="338685" />
	</node>
	<node id="9936814572" lat="62.9186083" lon="7.3697418" version="1" timestamp="2022-08-07T07:21:05Z" changeset="124585500" uid="3497659" user="NKA">
		<tag k="name" v="Innlegget" />
		<tag k="place" v="farm" />
		<tag k="ssr:stedsnr" v="315521" />
	</node>
	<node id="9936814573" lat="62.9391806" lon="7.1769889" version="1" timestamp="2022-08-07T07:21:05Z" changeset="124585500" uid="3497659" user="NKA">
		<tag k="name" v="Borgestrand" />
		<tag k="place" v="farm" />
		<tag k="ssr:stedsnr" v="255123" />
	</node>
	<node id="9936814574" lat="62.9565691" lon="7.1759525" version="1" timestamp="2022-08-07T07:21:05Z" changeset="124585500" uid="3497659" user="NKA">
		<tag k="name" v="Brandshaug" />
		<tag k="place" v="farm" />
		<tag k="ssr:stedsnr" v="983521" />
	</node>
	<node id="9936814575" lat="62.9493139" lon="7.3414389" version="1" timestamp="2022-08-07T07:21:05Z" changeset="124585500" uid="3497659" user="NKA">
		<tag k="name" v="Iverhjellen" />
		<tag k="place" v="locality" />
		<tag k="ssr:stedsnr" v="254955" />
	</node>
	<node id="9936814576" lat="62.9198786" lon="7.2363817" version="1" timestamp="2022-08-07T07:21:05Z" changeset="124585500" uid="3497659" user="NKA">
		<tag k="name" v="Kolmannskog" />
		<tag k="place" v="farm" />
		<tag k="ssr:stedsnr" v="824052" />
	</node>
	<node id="9936814577" lat="62.9012649" lon="6.9329773" version="1" timestamp="2022-08-07T07:21:05Z" changeset="124585500" uid="3497659" user="NKA">
		<tag k="name" v="Kalsvika" />
		<tag k="place" v="hamlet" />
		<tag k="ssr:stedsnr" v="800062" />
	</node>
	<node id="9936814578" lat="62.9384458" lon="7.2046137" version="1" timestamp="2022-08-07T07:21:05Z" changeset="124585500" uid="3497659" user="NKA">
		<tag k="name" v="Ekren" />
		<tag k="place" v="farm" />
		<tag k="ssr:stedsnr" v="156060" />
	</node>
	<node id="9936814579" lat="62.9793475" lon="7.3114699" version="1" timestamp="2022-08-07T07:21:05Z" changeset="124585500" uid="3497659" user="NKA">
		<tag k="name" v="Lillevik" />
		<tag k="place" v="farm" />
		<tag k="ssr:stedsnr" v="923928" />
	</node>
	<node id="9936814580" lat="62.9254306" lon="7.1919862" version="1" timestamp="2022-08-07T07:21:05Z" changeset="124585500" uid="3497659" user="NKA">
		<tag k="name" v="Kvadsheimbruka" />
		<tag k="place" v="farm" />
		<tag k="ssr:stedsnr" v="824074" />
	</node>
	<node id="9936814581" lat="62.9421174" lon="7.1820583" version="1" timestamp="2022-08-07T07:21:05Z" changeset="124585500" uid="3497659" user="NKA">
		<tag k="name" v="Håland" />
		<tag k="place" v="farm" />
		<tag k="ssr:stedsnr" v="96025" />
	</node>
	<node id="9936814582" lat="62.9579306" lon="7.373725" version="1" timestamp="2022-08-07T07:21:05Z" changeset="124585500" uid="3497659" user="NKA">
		<tag k="name" v="Øverbogen" />
		<tag k="place" v="farm" />
		<tag k="ssr:stedsnr" v="679951" />
	</node>
	<node id="9936814583" lat="62.9935951" lon="7.1633999" version="1" timestamp="2022-08-07T07:21:05Z" changeset="124585500" uid="3497659" user="NKA">
		<tag k="name" v="Julshamn" />
		<tag k="place" v="farm" />
		<tag k="ssr:stedsnr" v="96014" />
	</node>
	<node id="9936814584" lat="62.9698111" lon="7.1563834" version="1" timestamp="2022-08-07T07:21:05Z" changeset="124585500" uid="3497659" user="NKA">
		<tag k="name" v="Myrset" />
		<tag k="place" v="farm" />
		<tag k="ssr:stedsnr" v="96018" />
	</node>
	<node id="9936814585" lat="62.8756111" lon="7.0010779" version="1" timestamp="2022-08-07T07:21:05Z" changeset="124585500" uid="3497659" user="NKA">
		<tag k="name" v="Flatmo" />
		<tag k="place" v="farm" />
		<tag k="ssr:stedsnr" v="496151" />
	</node>
	<node id="9936814586" lat="62.7938132" lon="7.1461573" version="1" timestamp="2022-08-07T07:21:05Z" changeset="124585500" uid="3497659" user="NKA">
		<tag k="historic" v="shieling" />
		<tag k="name" v="Sandsetra" />
		<tag k="place" v="isolated_dwelling" />
		<tag k="ssr:stedsnr" v="801781" />
	</node>
	<node id="9936814587" lat="62.8941806" lon="7.5393223" version="1" timestamp="2022-08-07T07:21:05Z" changeset="124585500" uid="3497659" user="NKA">
		<tag k="name" v="Kjølasetra" />
		<tag k="place" v="isolated_dwelling" />
		<tag k="ssr:stedsnr" v="922570" />
	</node>
	<node id="9936814588" lat="62.9376833" lon="7.1495529" version="1" timestamp="2022-08-07T07:21:05Z" changeset="124585500" uid="3497659" user="NKA">
		<tag k="name" v="Nyseterholen" />
		<tag k="place" v="farm" />
		<tag k="ssr:stedsnr" v="619119" />
	</node>
	<node id="9936814589" lat="62.9822506" lon="7.1426969" version="1" timestamp="2022-08-07T07:21:05Z" changeset="124585500" uid="3497659" user="NKA">
		<tag k="name" v="Farstadberget" />
		<tag k="place" v="farm" />
		<tag k="ssr:stedsnr" v="95037" />
	</node>
	<node id="9936814590" lat="62.9140519" lon="7.0932997" version="1" timestamp="2022-08-07T07:21:05Z" changeset="124585500" uid="3497659" user="NKA">
		<tag k="name" v="Skarset" />
		<tag k="place" v="farm" />
		<tag k="ssr:stedsnr" v="945002" />
	</node>
	<node id="9936814591" lat="62.9579222" lon="7.2988472" version="1" timestamp="2022-08-07T07:21:05Z" changeset="124585500" uid="3497659" user="NKA">
		<tag k="name" v="Gautviksetra" />
		<tag k="place" v="locality" />
		<tag k="ssr:stedsnr" v="35317" />
	</node>
	<node id="9936814592" lat="62.9909469" lon="7.1758532" version="1" timestamp="2022-08-07T07:21:05Z" changeset="124585500" uid="3497659" user="NKA">
		<tag k="name" v="Grova" />
		<tag k="place" v="farm" />
		<tag k="ssr:stedsnr" v="35063" />
	</node>
	<node id="9936814593" lat="62.9561361" lon="7.1854028" version="1" timestamp="2022-08-07T07:21:05Z" changeset="124585500" uid="3497659" user="NKA">
		<tag k="name" v="Storrødalen" />
		<tag k="place" v="farm" />
		<tag k="ssr:stedsnr" v="35014" />
	</node>
	<node id="9936814594" lat="62.9529277" lon="7.0828141" version="1" timestamp="2022-08-07T07:21:05Z" changeset="124585500" uid="3497659" user="NKA">
		<tag k="name" v="Reset" />
		<tag k="place" v="farm" />
		<tag k="ssr:stedsnr" v="922130" />
	</node>
	<node id="9936814595" lat="62.9712652" lon="7.1591888" version="1" timestamp="2022-08-07T07:21:05Z" changeset="124585500" uid="3497659" user="NKA">
		<tag k="name" v="Reitan" />
		<tag k="place" v="farm" />
		<tag k="ssr:stedsnr" v="35017" />
	</node>
	<node id="9936814596" lat="62.9120111" lon="7.0886972" version="1" timestamp="2022-08-07T07:21:05Z" changeset="124585500" uid="3497659" user="NKA">
		<tag k="name" v="Berg" />
		<tag k="place" v="farm" />
		<tag k="ssr:stedsnr" v="923091" />
	</node>
	<node id="9936814597" lat="62.9885071" lon="7.2102787" version="1" timestamp="2022-08-07T07:21:05Z" changeset="124585500" uid="3497659" user="NKA">
		<tag k="name" v="Skotten" />
		<tag k="place" v="hamlet" />
		<tag k="ssr:stedsnr" v="73051" />
	</node>
	<node id="9936814598" lat="62.9538611" lon="7.0559751" version="1" timestamp="2022-08-07T07:21:05Z" changeset="124585500" uid="3497659" user="NKA">
		<tag k="name" v="Skutholm" />
		<tag k="place" v="farm" />
		<tag k="ssr:stedsnr" v="740006" />
	</node>
	<node id="9936814599" lat="62.9330606" lon="7.3321985" version="1" timestamp="2022-08-07T07:21:05Z" changeset="124585500" uid="3497659" user="NKA">
		<tag k="name" v="Furumo" />
		<tag k="place" v="hamlet" />
		<tag k="ssr:stedsnr" v="72484" />
	</node>
	<node id="9936814600" lat="62.9687232" lon="7.3177159" version="1" timestamp="2022-08-07T07:21:05Z" changeset="124585500" uid="3497659" user="NKA">
		<tag k="name" v="Gautvika" />
		<tag k="place" v="hamlet" />
		<tag k="ssr:stedsnr" v="12934" />
	</node>
	<node id="9936814601" lat="62.880925" lon="7.0568694" version="1" timestamp="2022-08-07T07:21:05Z" changeset="124585500" uid="3497659" user="NKA">
		<tag k="name" v="Fjellvang" />
		<tag k="place" v="farm" />
		<tag k="ssr:stedsnr" v="739128" />
	</node>
	<node id="9936814602" lat="62.8737723" lon="7.1484668" version="1" timestamp="2022-08-07T07:21:05Z" changeset="124585500" uid="3497659" user="NKA">
		<tag k="name" v="Fjellstad" />
		<tag k="place" v="farm" />
		<tag k="ssr:stedsnr" v="679142" />
	</node>
	<node id="9936814603" lat="62.9192223" lon="7.2077695" version="1" timestamp="2022-08-07T07:21:05Z" changeset="124585500" uid="3497659" user="NKA">
		<tag k="name" v="Frostad" />
		<tag k="place" v="farm" />
		<tag k="ssr:stedsnr" v="13096" />
	</node>
	<node id="9936814604" lat="62.888125" lon="7.1517306" version="1" timestamp="2022-08-07T07:21:05Z" changeset="124585500" uid="3497659" user="NKA">
		<tag k="name" v="Utheim" />
		<tag k="place" v="farm" />
		<tag k="ssr:stedsnr" v="678146" />
	</node>
	<node id="9936814605" lat="62.9524583" lon="7.1936501" version="1" timestamp="2022-08-07T07:21:05Z" changeset="124585500" uid="3497659" user="NKA">
		<tag k="name" v="Orheim" />
		<tag k="place" v="farm" />
		<tag k="ssr:stedsnr" v="12128" />
	</node>
	<node id="9936814606" lat="62.8390917" lon="7.0129862" version="1" timestamp="2022-08-07T07:21:05Z" changeset="124585500" uid="3497659" user="NKA">
		<tag k="name" v="Kvilheim" />
		<tag k="place" v="farm" />
		<tag k="ssr:stedsnr" v="254172" />
	</node>
	<node id="9936814607" lat="62.9908909" lon="7.1722442" version="1" timestamp="2022-08-07T07:21:05Z" changeset="124585500" uid="3497659" user="NKA">
		<tag k="name" v="Sandvika" />
		<tag k="place" v="hamlet" />
		<tag k="ssr:stedsnr" v="12051" />
	</node>
	<node id="9936814608" lat="62.9276282" lon="7.3241658" version="1" timestamp="2022-08-07T07:21:05Z" changeset="124585500" uid="3497659" user="NKA">
		<tag k="name" v="Solli" />
		<tag k="place" v="farm" />
		<tag k="ssr:stedsnr" v="922528" />
	</node>
	<node id="9936814609" lat="62.9185966" lon="7.2898415" version="1" timestamp="2022-08-07T07:21:05Z" changeset="124585500" uid="3497659" user="NKA">
		<tag k="name" v="Lia" />
		<tag k="place" v="farm" />
		<tag k="ssr:stedsnr" v="922510" />
	</node>
	<node id="9936814610" lat="62.9852722" lon="7.3040472" version="1" timestamp="2022-08-07T07:21:05Z" changeset="124585500" uid="3497659" user="NKA">
		<tag k="name" v="Nylund" />
		<tag k="place" v="farm" />
		<tag k="ssr:stedsnr" v="862908" />
	</node>
	<node id="9936814611" lat="62.8507947" lon="7.0182759" version="1" timestamp="2022-08-07T07:21:05Z" changeset="124585500" uid="3497659" user="NKA">
		<tag k="name" v="Utheim" />
		<tag k="place" v="farm" />
		<tag k="ssr:stedsnr" v="12230" />
	</node>
	<node id="9936814612" lat="62.9654277" lon="7.3164669" version="1" timestamp="2022-08-07T07:21:05Z" changeset="124585500" uid="3497659" user="NKA">
		<tag k="name" v="Brandshaug" />
		<tag k="place" v="farm" />
		<tag k="ssr:stedsnr" v="862945" />
	</node>
	<node id="9936814613" lat="62.8488792" lon="7.0372084" version="1" timestamp="2022-08-07T07:21:05Z" changeset="124585500" uid="3497659" user="NKA">
		<tag k="name" v="Myrstad" />
		<tag k="place" v="farm" />
		<tag k="ssr:stedsnr" v="1082680" />
	</node>
	<node id="9936814614" lat="62.8648861" lon="7.0078029" version="1" timestamp="2022-08-07T07:21:05Z" changeset="124585500" uid="3497659" user="NKA">
		<tag k="name" v="Seierstad" />
		<tag k="place" v="farm" />
		<tag k="ssr:stedsnr" v="72115" />
	</node>
	<node id="9936814615" lat="62.9835048" lon="7.243237" version="1" timestamp="2022-08-07T07:21:05Z" changeset="124585500" uid="3497659" user="NKA">
		<tag k="alt_name" v="Sandblost" />
		<tag k="name" v="Sandblåst" />
		<tag k="place" v="farm" />
		<tag k="ssr:stedsnr" v="801903" />
	</node>
	<node id="9936814616" lat="62.8366801" lon="6.9998641" version="1" timestamp="2022-08-07T07:21:05Z" changeset="124585500" uid="3497659" user="NKA">
		<tag k="name" v="Hamnneset" />
		<tag k="place" v="hamlet" />
		<tag k="ssr:stedsnr" v="861172" />
	</node>
	<node id="9936814617" lat="62.8800355" lon="6.9864999" version="1" timestamp="2022-08-07T07:21:05Z" changeset="124585500" uid="3497659" user="NKA">
		<tag k="name" v="Søholt" />
		<tag k="place" v="hamlet" />
		<tag k="ssr:stedsnr" v="496172" />
	</node>
	<node id="9936814618" lat="62.8640388" lon="7.0126945" version="1" timestamp="2022-08-07T07:21:05Z" changeset="124585500" uid="3497659" user="NKA">
		<tag k="name" v="Remma" />
		<tag k="place" v="farm" />
		<tag k="ssr:stedsnr" v="72116" />
	</node>
	<node id="9936814619" lat="62.793253" lon="6.9821499" version="1" timestamp="2022-08-07T07:21:05Z" changeset="124585500" uid="3497659" user="NKA">
		<tag k="name" v="Litlevikvorpa" />
		<tag k="place" v="farm" />
		<tag k="ssr:stedsnr" v="861826" />
	</node>
	<node id="9936814620" lat="62.9068111" lon="6.989739" version="1" timestamp="2022-08-07T07:21:05Z" changeset="124585500" uid="3497659" user="NKA">
		<tag k="name" v="Austvoll" />
		<tag k="place" v="farm" />
		<tag k="ssr:stedsnr" v="376075" />
	</node>
	<node id="9936814621" lat="62.8690889" lon="7.0205917" version="1" timestamp="2022-08-07T07:21:05Z" changeset="124585500" uid="3497659" user="NKA">
		<tag k="name" v="Solheim" />
		<tag k="place" v="farm" />
		<tag k="ssr:stedsnr" v="861119" />
	</node>
	<node id="9936814622" lat="62.999" lon="7.2826001" version="1" timestamp="2022-08-07T07:21:05Z" changeset="124585500" uid="3497659" user="NKA">
		<tag k="alt_name" v="Stølen" />
		<tag k="name" v="Mjølkstølen" />
		<tag k="place" v="farm" />
		<tag k="ssr:stedsnr" v="194876" />
	</node>
	<node id="9936814623" lat="62.9513725" lon="7.0977503" version="1" timestamp="2022-08-07T07:21:05Z" changeset="124585500" uid="3497659" user="NKA">
		<tag k="name" v="Solstad" />
		<tag k="place" v="farm" />
		<tag k="ssr:stedsnr" v="437153" />
	</node>
	<node id="9936814624" lat="62.9366861" lon="7.1799417" version="1" timestamp="2022-08-07T07:21:05Z" changeset="124585500" uid="3497659" user="NKA">
		<tag k="name" v="Tveiten" />
		<tag k="place" v="farm" />
		<tag k="ssr:stedsnr" v="437134" />
	</node>
	<node id="9936814625" lat="62.9857111" lon="7.2507917" version="1" timestamp="2022-08-07T07:21:05Z" changeset="124585500" uid="3497659" user="NKA">
		<tag k="name" v="Karlsvik" />
		<tag k="place" v="farm" />
		<tag k="ssr:stedsnr" v="194895" />
	</node>
	<node id="9936814626" lat="62.9348445" lon="7.1624222" version="1" timestamp="2022-08-07T07:21:05Z" changeset="124585500" uid="3497659" user="NKA">
		<tag k="name" v="Byggjordet" />
		<tag k="place" v="farm" />
		<tag k="ssr:stedsnr" v="194099" />
	</node>
	<node id="9936814627" lat="62.9976166" lon="7.3076" version="1" timestamp="2022-08-07T07:21:05Z" changeset="124585500" uid="3497659" user="NKA">
		<tag k="name" v="Vika" />
		<tag k="place" v="farm" />
		<tag k="ssr:stedsnr" v="194874" />
	</node>
	<node id="9936814628" lat="62.9352972" lon="7.1593974" version="1" timestamp="2022-08-07T07:21:05Z" changeset="124585500" uid="3497659" user="NKA">
		<tag k="name" v="Grøttjord" />
		<tag k="place" v="farm" />
		<tag k="ssr:stedsnr" v="437127" />
	</node>
	<node id="9936814629" lat="62.9515195" lon="7.1339306" version="1" timestamp="2022-08-07T07:21:05Z" changeset="124585500" uid="3497659" user="NKA">
		<tag k="name" v="Åsheim" />
		<tag k="place" v="farm" />
		<tag k="ssr:stedsnr" v="194111" />
	</node>
	<node id="9936814630" lat="62.9332556" lon="7.1652195" version="1" timestamp="2022-08-07T07:21:05Z" changeset="124585500" uid="3497659" user="NKA">
		<tag k="name" v="Rødalsmyr" />
		<tag k="place" v="farm" />
		<tag k="ssr:stedsnr" v="194096" />
	</node>
	<node id="9936814631" lat="62.8404912" lon="7.0271751" version="1" timestamp="2022-08-07T07:21:05Z" changeset="124585500" uid="3497659" user="NKA">
		<tag k="name" v="Ner-Tornes" />
		<tag k="place" v="farm" />
		<tag k="ssr:stedsnr" v="557191" />
	</node>
	<node id="9936814632" lat="62.9408222" lon="7.1845529" version="1" timestamp="2022-08-07T07:21:05Z" changeset="124585500" uid="3497659" user="NKA">
		<tag k="name" v="Vatneli" />
		<tag k="place" v="farm" />
		<tag k="ssr:stedsnr" v="862126" />
	</node>
	<node id="9936814633" lat="62.96165" lon="7.2790529" version="1" timestamp="2022-08-07T07:21:05Z" changeset="124585500" uid="3497659" user="NKA">
		<tag k="name" v="Årøyan" />
		<tag k="place" v="locality" />
		<tag k="ssr:stedsnr" v="193939" />
	</node>
	<node id="9936814634" lat="62.9656414" lon="7.1765642" version="1" timestamp="2022-08-07T07:21:05Z" changeset="124585500" uid="3497659" user="NKA">
		<tag k="name" v="Haugen" />
		<tag k="place" v="farm" />
		<tag k="ssr:stedsnr" v="641011" />
	</node>
	<node id="9936814635" lat="62.9346028" lon="7.181864" version="1" timestamp="2022-08-07T07:21:05Z" changeset="124585500" uid="3497659" user="NKA">
		<tag k="name" v="Stokke" />
		<tag k="place" v="farm" />
		<tag k="ssr:stedsnr" v="862105" />
	</node>
	<node id="9936814636" lat="62.7915867" lon="7.0058654" version="1" timestamp="2022-08-07T07:21:05Z" changeset="124585500" uid="3497659" user="NKA">
		<tag k="name" v="Jendemsgjerdet" />
		<tag k="place" v="farm" />
		<tag k="ssr:stedsnr" v="35508" />
	</node>
	<node id="9936814637" lat="62.9391555" lon="7.1474306" version="1" timestamp="2022-08-07T07:21:05Z" changeset="124585500" uid="3497659" user="NKA">
		<tag k="name" v="Seter" />
		<tag k="place" v="farm" />
		<tag k="ssr:stedsnr" v="316111" />
	</node>
	<node id="9936814638" lat="62.9141277" lon="7.1010834" version="1" timestamp="2022-08-07T07:21:05Z" changeset="124585500" uid="3497659" user="NKA">
		<tag k="name" v="Nordmark" />
		<tag k="place" v="farm" />
		<tag k="ssr:stedsnr" v="316072" />
	</node>
	<node id="9936814639" lat="62.9038156" lon="6.9583122" version="1" timestamp="2022-08-07T07:21:05Z" changeset="124585500" uid="3497659" user="NKA">
		<tag k="name" v="Øvre Gule" />
		<tag k="place" v="farm" />
		<tag k="ssr:stedsnr" v="460035" />
	</node>
	<node id="9936814640" lat="62.8898528" lon="6.9950307" version="1" timestamp="2022-08-07T07:21:05Z" changeset="124585500" uid="3497659" user="NKA">
		<tag k="name" v="Øverland" />
		<tag k="place" v="farm" />
		<tag k="ssr:stedsnr" v="315155" />
	</node>
	<node id="9936814641" lat="62.9480278" lon="7.0283501" version="1" timestamp="2022-08-07T07:21:05Z" changeset="124585500" uid="3497659" user="NKA">
		<tag k="name" v="Leirheim" />
		<tag k="place" v="farm" />
		<tag k="ssr:stedsnr" v="255136" />
	</node>
	<node id="9936814642" lat="62.990791" lon="7.1696666" version="1" timestamp="2022-08-07T07:21:05Z" changeset="124585500" uid="3497659" user="NKA">
		<tag k="name" v="Rabben" />
		<tag k="place" v="farm" />
		<tag k="ssr:stedsnr" v="641041" />
	</node>
	<node id="9936814643" lat="62.9543243" lon="7.0275413" version="1" timestamp="2022-08-07T07:21:05Z" changeset="124585500" uid="3497659" user="NKA">
		<tag k="name" v="Myrabø" />
		<tag k="place" v="farm" />
		<tag k="ssr:stedsnr" v="255014" />
	</node>
	<node id="9936814644" lat="62.9660832" lon="7.068669" version="1" timestamp="2022-08-07T07:21:05Z" changeset="124585500" uid="3497659" user="NKA">
		<tag k="name" v="Male" />
		<tag k="place" v="hamlet" />
		<tag k="ssr:stedsnr" v="255027" />
	</node>
	<node id="9936814645" lat="62.9010135" lon="6.960886" version="1" timestamp="2022-08-07T07:21:05Z" changeset="124585500" uid="3497659" user="NKA">
		<tag k="name" v="Grunnhaugen" />
		<tag k="place" v="farm" />
		<tag k="ssr:stedsnr" v="460033" />
	</node>
	<node id="9936814646" lat="62.9603444" lon="7.1694778" version="1" timestamp="2022-08-07T07:21:05Z" changeset="124585500" uid="3497659" user="NKA">
		<tag k="name" v="Slyngstad" />
		<tag k="place" v="farm" />
		<tag k="ssr:stedsnr" v="558002" />
	</node>
	<node id="9936814647" lat="62.959575" lon="7.1725444" version="1" timestamp="2022-08-07T07:21:05Z" changeset="124585500" uid="3497659" user="NKA">
		<tag k="name" v="Austad" />
		<tag k="place" v="farm" />
		<tag k="ssr:stedsnr" v="497003" />
	</node>
	<node id="9936814648" lat="62.8811111" lon="6.9691667" version="1" timestamp="2022-08-07T07:21:05Z" changeset="124585500" uid="3497659" user="NKA">
		<tag k="name" v="Vestadvika" />
		<tag k="place" v="farm" />
		<tag k="ssr:stedsnr" v="217028" />
	</node>
	<node id="9936814649" lat="62.9637684" lon="7.050329" version="1" timestamp="2022-08-07T07:21:05Z" changeset="124585500" uid="3497659" user="NKA">
		<tag k="name" v="Askevåg" />
		<tag k="place" v="farm" />
		<tag k="ssr:stedsnr" v="239331" />
	</node>
	<node id="9936814650" lat="62.9728576" lon="7.3093982" version="1" timestamp="2022-08-07T07:21:05Z" changeset="124585500" uid="3497659" user="NKA">
		<tag k="name" v="Rå" />
		<tag k="place" v="isolated_dwelling" />
		<tag k="ssr:stedsnr" v="656736" />
	</node>
	<node id="9936814651" lat="62.9007268" lon="6.9739861" version="1" timestamp="2022-08-07T07:21:05Z" changeset="124585500" uid="3497659" user="NKA">
		<tag k="name" v="Leirvadet" />
		<tag k="place" v="farm" />
		<tag k="ssr:stedsnr" v="96041" />
	</node>
	<node id="9936814652" lat="62.9094111" lon="7.0888668" version="1" timestamp="2022-08-07T07:21:05Z" changeset="124585500" uid="3497659" user="NKA">
		<tag k="name" v="Olstad" />
		<tag k="place" v="farm" />
		<tag k="ssr:stedsnr" v="134087" />
	</node>
	<node id="9936814653" lat="62.9225695" lon="6.9721917" version="1" timestamp="2022-08-07T07:21:05Z" changeset="124585500" uid="3497659" user="NKA">
		<tag k="name" v="Solheim" />
		<tag k="place" v="farm" />
		<tag k="ssr:stedsnr" v="134111" />
	</node>
	<node id="9936814654" lat="62.9767324" lon="7.1464804" version="1" timestamp="2022-08-07T07:21:05Z" changeset="124585500" uid="3497659" user="NKA">
		<tag k="name" v="Berghaugen" />
		<tag k="place" v="farm" />
		<tag k="ssr:stedsnr" v="399692" />
	</node>
	<node id="9936814655" lat="62.9618056" lon="7.1868745" version="1" timestamp="2022-08-07T07:21:05Z" changeset="124585500" uid="3497659" user="NKA">
		<tag k="name" v="Litlrødalen" />
		<tag k="place" v="farm" />
		<tag k="ssr:stedsnr" v="460019" />
	</node>
	<node id="9936814656" lat="62.9117611" lon="7.0967083" version="1" timestamp="2022-08-07T07:21:05Z" changeset="124585500" uid="3497659" user="NKA">
		<tag k="name" v="Fagerheim" />
		<tag k="place" v="farm" />
		<tag k="ssr:stedsnr" v="134085" />
	</node>
	<node id="9936814657" lat="62.8749917" lon="7.0044029" version="1" timestamp="2022-08-07T07:21:05Z" changeset="124585500" uid="3497659" user="NKA">
		<tag k="name" v="Nyvoll" />
		<tag k="place" v="farm" />
		<tag k="ssr:stedsnr" v="132142" />
	</node>
	<node id="9936814658" lat="62.9700023" lon="7.1697598" version="1" timestamp="2022-08-07T07:21:05Z" changeset="124585500" uid="3497659" user="NKA">
		<tag k="name" v="Farstadvoll" />
		<tag k="place" v="farm" />
		<tag k="ssr:stedsnr" v="96022" />
	</node>
	<node id="9936814659" lat="62.8834204" lon="6.9697261" version="1" timestamp="2022-08-07T07:21:05Z" changeset="124585500" uid="3497659" user="NKA">
		<tag k="alt_name" v="Engelset" />
		<tag k="name" v="Engelsetet" />
		<tag k="place" v="farm" />
		<tag k="ssr:stedsnr" v="35033" />
	</node>
	<node id="9936814660" lat="62.9465056" lon="7.1404001" version="1" timestamp="2022-08-07T07:21:05Z" changeset="124585500" uid="3497659" user="NKA">
		<tag k="name" v="Bakkemyr" />
		<tag k="place" v="farm" />
		<tag k="ssr:stedsnr" v="315109" />
	</node>
	<node id="9936814661" lat="62.9023215" lon="6.9570557" version="1" timestamp="2022-08-07T07:21:05Z" changeset="124585500" uid="3497659" user="NKA">
		<tag k="name" v="Gule" />
		<tag k="place" v="hamlet" />
		<tag k="ssr:stedsnr" v="193067" />
	</node>
	<node id="9936814662" lat="62.9574" lon="7.1626223" version="1" timestamp="2022-08-07T07:21:05Z" changeset="124585500" uid="3497659" user="NKA">
		<tag k="name" v="Almås" />
		<tag k="place" v="farm" />
		<tag k="ssr:stedsnr" v="315010" />
	</node>
	<node id="9936814663" lat="62.9688389" lon="7.1495611" version="1" timestamp="2022-08-07T07:21:05Z" changeset="124585500" uid="3497659" user="NKA">
		<tag k="name" v="Leite" />
		<tag k="place" v="farm" />
		<tag k="ssr:stedsnr" v="278019" />
	</node>
	<node id="9936814664" lat="62.9000167" lon="7.1634445" version="1" timestamp="2022-08-07T07:21:05Z" changeset="124585500" uid="3497659" user="NKA">
		<tag k="name" v="Sjurplassen" />
		<tag k="place" v="locality" />
		<tag k="ssr:stedsnr" v="95597" />
	</node>
	<node id="9936814665" lat="62.9654058" lon="7.1734814" version="1" timestamp="2022-08-07T07:21:05Z" changeset="124585500" uid="3497659" user="NKA">
		<tag k="name" v="Svorva" />
		<tag k="place" v="farm" />
		<tag k="ssr:stedsnr" v="278012" />
	</node>
	<node id="9936814666" lat="62.9827972" lon="7.2494639" version="1" timestamp="2022-08-07T07:21:05Z" changeset="124585500" uid="3497659" user="NKA">
		<tag k="name" v="Marka" />
		<tag k="place" v="farm" />
		<tag k="ssr:stedsnr" v="278038" />
	</node>
	<node id="9936814667" lat="62.9225272" lon="7.5626448" version="1" timestamp="2022-08-07T07:21:05Z" changeset="124585500" uid="3497659" user="NKA">
		<tag k="name" v="Stakkvika" />
		<tag k="place" v="farm" />
		<tag k="ssr:stedsnr" v="801546" />
	</node>
	<node id="9936814668" lat="62.9660232" lon="7.0449811" version="1" timestamp="2022-08-07T07:21:05Z" changeset="124585500" uid="3497659" user="NKA">
		<tag k="alt_name" v="Ørnehagen" />
		<tag k="name" v="Hagen" />
		<tag k="place" v="farm" />
		<tag k="ssr:stedsnr" v="73027" />
	</node>
	<node id="9936814669" lat="62.9218916" lon="7.0982168" version="1" timestamp="2022-08-07T07:21:05Z" changeset="124585500" uid="3497659" user="NKA">
		<tag k="name" v="Elvetun" />
		<tag k="place" v="farm" />
		<tag k="ssr:stedsnr" v="13098" />
	</node>
	<node id="9936814670" lat="62.9136063" lon="7.0737053" version="1" timestamp="2022-08-07T07:21:05Z" changeset="124585500" uid="3497659" user="NKA">
		<tag k="name" v="Rambjøra" />
		<tag k="place" v="farm" />
		<tag k="ssr:stedsnr" v="13092" />
	</node>
	<node id="9936814671" lat="62.8871361" lon="7.3840973" version="1" timestamp="2022-08-07T07:21:05Z" changeset="124585500" uid="3497659" user="NKA">
		<tag k="name" v="Flatmo" />
		<tag k="place" v="farm" />
		<tag k="ssr:stedsnr" v="618592" />
	</node>
	<node id="9936814673" lat="62.9708111" lon="7.1014889" version="1" timestamp="2022-08-07T07:21:05Z" changeset="124585500" uid="3497659" user="NKA">
		<tag k="name" v="Oksebåsen" />
		<tag k="place" v="farm" />
		<tag k="ssr:stedsnr" v="12041" />
	</node>
	<node id="9936814674" lat="62.9985304" lon="7.2302207" version="1" timestamp="2022-08-07T07:21:05Z" changeset="124585500" uid="3497659" user="NKA">
		<tag k="alt_name" v="Skottensvik" />
		<tag k="name" v="Skotheimsvik" />
		<tag k="place" v="farm" />
		<tag k="ssr:stedsnr" v="885032" />
	</node>
	<node id="9936814675" lat="62.9507361" lon="7.0312834" version="1" timestamp="2022-08-07T07:21:05Z" changeset="124585500" uid="3497659" user="NKA">
		<tag k="name" v="Myra" />
		<tag k="place" v="farm" />
		<tag k="ssr:stedsnr" v="922128" />
	</node>
	<node id="9936814676" lat="62.9539778" lon="7.0557389" version="1" timestamp="2022-08-07T07:21:05Z" changeset="124585500" uid="3497659" user="NKA">
		<tag k="name" v="Bakkely" />
		<tag k="place" v="farm" />
		<tag k="ssr:stedsnr" v="824014" />
	</node>
	<node id="9936814677" lat="62.8922638" lon="7.0719806" version="1" timestamp="2022-08-07T07:21:05Z" changeset="124585500" uid="3497659" user="NKA">
		<tag k="name" v="Fjelltun" />
		<tag k="place" v="farm" />
		<tag k="ssr:stedsnr" v="11143" />
	</node>
	<node id="9936814678" lat="62.9099278" lon="7.5437363" version="1" timestamp="2022-08-07T07:21:05Z" changeset="124585500" uid="3497659" user="NKA">
		<tag k="name" v="Myran" />
		<tag k="place" v="farm" />
		<tag k="ssr:stedsnr" v="496596" />
	</node>
	<node id="9936814679" lat="62.8933028" lon="7.5018278" version="1" timestamp="2022-08-07T07:21:05Z" changeset="124585500" uid="3497659" user="NKA">
		<tag k="name" v="Liasetra" />
		<tag k="place" v="locality" />
		<tag k="ssr:stedsnr" v="497577" />
	</node>
	<node id="9936814680" lat="62.9465306" lon="7.1505889" version="1" timestamp="2022-08-07T07:21:05Z" changeset="124585500" uid="3497659" user="NKA">
		<tag k="name" v="Rørset" />
		<tag k="place" v="farm" />
		<tag k="ssr:stedsnr" v="133107" />
	</node>
	<node id="9936814681" lat="62.9593274" lon="7.183536" version="1" timestamp="2022-08-07T07:21:05Z" changeset="124585500" uid="3497659" user="NKA">
		<tag k="name" v="Rødalen" />
		<tag k="place" v="hamlet" />
		<tag k="ssr:stedsnr" v="801003" />
	</node>
	<node id="9936814682" lat="62.8549111" lon="7.1763" version="1" timestamp="2022-08-07T07:21:05Z" changeset="124585500" uid="3497659" user="NKA">
		<tag k="name" v="Dalset" />
		<tag k="place" v="farm" />
		<tag k="ssr:stedsnr" v="436194" />
	</node>
	<node id="9936814683" lat="62.8148175" lon="7.2280906" version="1" timestamp="2022-08-07T07:21:05Z" changeset="124585500" uid="3497659" user="NKA">
		<tag k="name" v="Føret" />
		<tag k="place" v="hamlet" />
		<tag k="ssr:stedsnr" v="740737" />
	</node>
	<node id="9936814684" lat="62.9400833" lon="7.039214" version="1" timestamp="2022-08-07T07:21:05Z" changeset="124585500" uid="3497659" user="NKA">
		<tag k="name" v="Kyrkjestølen" />
		<tag k="place" v="locality" />
		<tag k="ssr:stedsnr" v="884448" />
	</node>
	<node id="9936814685" lat="62.8547056" lon="7.2176583" version="1" timestamp="2022-08-07T07:21:05Z" changeset="124585500" uid="3497659" user="NKA">
		<tag k="name" v="Vollan" />
		<tag k="place" v="farm" />
		<tag k="ssr:stedsnr" v="497200" />
	</node>
	<node id="9936814686" lat="62.925575" lon="7.0977611" version="1" timestamp="2022-08-07T07:21:05Z" changeset="124585500" uid="3497659" user="NKA">
		<tag k="name" v="Hauglanda" />
		<tag k="place" v="farm" />
		<tag k="ssr:stedsnr" v="740100" />
	</node>
	<node id="9936814687" lat="62.9374694" lon="7.0020807" version="1" timestamp="2022-08-07T07:21:05Z" changeset="124585500" uid="3497659" user="NKA">
		<tag k="name" v="Solheim" />
		<tag k="place" v="farm" />
		<tag k="ssr:stedsnr" v="194119" />
	</node>
	<node id="9936814688" lat="62.8403064" lon="7.0557285" version="1" timestamp="2022-08-07T07:21:05Z" changeset="124585500" uid="3497659" user="NKA">
		<tag k="name" v="Torneskleiva" />
		<tag k="place" v="quarter" />
		<tag k="ssr:stedsnr" v="945404" />
	</node>
	<node id="9936814689" lat="62.831859" lon="7.2281708" version="1" timestamp="2022-08-07T07:21:05Z" changeset="124585500" uid="3497659" user="NKA">
		<tag k="name" v="Øvrebø" />
		<tag k="place" v="farm" />
		<tag k="ssr:stedsnr" v="399052" />
	</node>
	<node id="9936814690" lat="62.8344915" lon="7.2330935" version="1" timestamp="2022-08-07T07:21:05Z" changeset="124585500" uid="3497659" user="NKA">
		<tag k="name" v="Nygjerdet" />
		<tag k="place" v="farm" />
		<tag k="ssr:stedsnr" v="399051" />
	</node>
	<node id="9936814691" lat="62.9367417" lon="7.1069278" version="1" timestamp="2022-08-07T07:21:05Z" changeset="124585500" uid="3497659" user="NKA">
		<tag k="name" v="Fjellstad" />
		<tag k="place" v="farm" />
		<tag k="ssr:stedsnr" v="740103" />
	</node>
	<node id="9936814692" lat="62.9359972" lon="7.1116668" version="1" timestamp="2022-08-07T07:21:05Z" changeset="124585500" uid="3497659" user="NKA">
		<tag k="name" v="Fjellset" />
		<tag k="place" v="farm" />
		<tag k="ssr:stedsnr" v="194100" />
	</node>
	<node id="9936814693" lat="62.8533386" lon="7.1441148" version="1" timestamp="2022-08-07T07:21:05Z" changeset="124585500" uid="3497659" user="NKA">
		<tag k="alt_name" v="Hatlen" />
		<tag k="name" v="Hatle" />
		<tag k="place" v="quarter" />
		<tag k="ssr:stedsnr" v="375168" />
	</node>
	<node id="9936814694" lat="62.8996238" lon="7.4769786" version="1" timestamp="2022-08-07T07:21:05Z" changeset="124585500" uid="3497659" user="NKA">
		<tag k="name" v="Sorset" />
		<tag k="place" v="hamlet" />
		<tag k="ssr:stedsnr" v="315590" />
	</node>
	<node id="9936814695" lat="62.8997279" lon="7.4417103" version="1" timestamp="2022-08-07T07:21:05Z" changeset="124585500" uid="3497659" user="NKA">
		<tag k="name" v="Svanvika" />
		<tag k="place" v="hamlet" />
		<tag k="ssr:stedsnr" v="315595" />
	</node>
	<node id="9936814696" lat="62.9407529" lon="7.1549023" version="1" timestamp="2022-08-07T07:21:05Z" changeset="124585500" uid="3497659" user="NKA">
		<tag k="name" v="Høgmo" />
		<tag k="place" v="farm" />
		<tag k="ssr:stedsnr" v="862129" />
	</node>
	<node id="9936814697" lat="62.9625751" lon="7.0819839" version="1" timestamp="2022-08-07T07:21:05Z" changeset="124585500" uid="3497659" user="NKA">
		<tag k="name" v="Malefeta" />
		<tag k="place" v="farm" />
		<tag k="ssr:stedsnr" v="862031" />
	</node>
	<node id="9936814698" lat="62.9601922" lon="7.06938" version="1" timestamp="2022-08-07T07:21:05Z" changeset="124585500" uid="3497659" user="NKA">
		<tag k="alt_name" v="Stien" />
		<tag k="name" v="Lysaker" />
		<tag k="place" v="farm" />
		<tag k="ssr:stedsnr" v="862012" />
	</node>
	<node id="9936814699" lat="62.8082584" lon="7.1506029" version="1" timestamp="2022-08-07T07:21:05Z" changeset="124585500" uid="3497659" user="NKA">
		<tag k="name" v="Sandhaugen" />
		<tag k="place" v="farm" />
		<tag k="ssr:stedsnr" v="254778" />
	</node>
	<node id="9936814700" lat="62.8503139" lon="7.1620445" version="1" timestamp="2022-08-07T07:21:05Z" changeset="124585500" uid="3497659" user="NKA">
		<tag k="name" v="Naustvollen" />
		<tag k="place" v="farm" />
		<tag k="ssr:stedsnr" v="217005" />
	</node>
	<node id="9936814701" lat="62.8956167" lon="7.4896418" version="1" timestamp="2022-08-07T07:21:05Z" changeset="124585500" uid="3497659" user="NKA">
		<tag k="name" v="Sorsetsetra" />
		<tag k="place" v="locality" />
		<tag k="ssr:stedsnr" v="277303" />
	</node>
	<node id="9936814702" lat="62.8576222" lon="7.133014" version="1" timestamp="2022-08-07T07:21:05Z" changeset="124585500" uid="3497659" user="NKA">
		<tag k="name" v="Eidem" />
		<tag k="place" v="neighbourhood" />
		<tag k="ssr:stedsnr" v="132236" />
	</node>
	<node id="9936814703" lat="62.8906305" lon="7.0706112" version="1" timestamp="2022-08-07T07:21:05Z" changeset="124585500" uid="3497659" user="NKA">
		<tag k="alt_name" v="Brunvoll" />
		<tag k="name" v="Bruvoll" />
		<tag k="place" v="farm" />
		<tag k="ssr:stedsnr" v="618137" />
	</node>
	<node id="9936814704" lat="62.8570833" lon="7.2340612" version="1" timestamp="2022-08-07T07:21:05Z" changeset="124585500" uid="3497659" user="NKA">
		<tag k="name" v="Nygarden" />
		<tag k="place" v="farm" />
		<tag k="ssr:stedsnr" v="72610" />
	</node>
	<node id="9936814705" lat="62.8991256" lon="7.4429306" version="1" timestamp="2022-08-07T07:21:05Z" changeset="124585500" uid="3497659" user="NKA">
		<tag k="name" v="Einset" />
		<tag k="place" v="farm" />
		<tag k="ssr:stedsnr" v="96165" />
	</node>
	<node id="9936814706" lat="62.8917" lon="7.4737361" version="1" timestamp="2022-08-07T07:21:05Z" changeset="124585500" uid="3497659" user="NKA">
		<tag k="name" v="Bortate" />
		<tag k="place" v="farm" />
		<tag k="ssr:stedsnr" v="72581" />
	</node>
	<node id="9936814707" lat="62.838775" lon="7.2309168" version="1" timestamp="2022-08-07T07:21:05Z" changeset="124585500" uid="3497659" user="NKA">
		<tag k="name" v="Nermoen" />
		<tag k="place" v="farm" />
		<tag k="ssr:stedsnr" v="11669" />
	</node>
	<node id="9936814708" lat="62.844347" lon="7.2420628" version="1" timestamp="2022-08-07T07:21:05Z" changeset="124585500" uid="3497659" user="NKA">
		<tag k="name" v="Modalsgarden" />
		<tag k="place" v="farm" />
		<tag k="ssr:stedsnr" v="861624" />
	</node>
	<node id="9936814709" lat="62.9628308" lon="7.1274713" version="1" timestamp="2022-08-07T07:21:05Z" changeset="124585500" uid="3497659" user="NKA">
		<tag k="name" v="Stormskjold" />
		<tag k="place" v="farm" />
		<tag k="ssr:stedsnr" v="520007" />
	</node>
	<node id="9936814710" lat="62.9637349" lon="7.1017037" version="1" timestamp="2022-08-07T07:21:05Z" changeset="124585500" uid="3497659" user="NKA">
		<tag k="name" v="Nerland" />
		<tag k="place" v="hamlet" />
		<tag k="ssr:stedsnr" v="679025" />
	</node>
	<node id="9936814711" lat="62.8425439" lon="7.1750163" version="1" timestamp="2022-08-07T07:21:05Z" changeset="124585500" uid="3497659" user="NKA">
		<tag k="name" v="Elnes" />
		<tag k="place" v="hamlet" />
		<tag k="ssr:stedsnr" v="800208" />
	</node>
	<node id="9936814712" lat="62.8390055" lon="7.2129918" version="1" timestamp="2022-08-07T07:21:05Z" changeset="124585500" uid="3497659" user="NKA">
		<tag k="name" v="Myrvoll" />
		<tag k="place" v="farm" />
		<tag k="ssr:stedsnr" v="800209" />
	</node>
	<node id="9936814713" lat="62.8123128" lon="7.2064929" version="1" timestamp="2022-08-07T07:21:05Z" changeset="124585500" uid="3497659" user="NKA">
		<tag k="name" v="Blokkehaugen" />
		<tag k="place" v="farm" />
		<tag k="ssr:stedsnr" v="884664" />
	</node>
	<node id="9936814714" lat="62.8956054" lon="7.0737142" version="1" timestamp="2022-08-07T07:21:05Z" changeset="124585500" uid="3497659" user="NKA">
		<tag k="name" v="Bakkely" />
		<tag k="place" v="farm" />
		<tag k="ssr:stedsnr" v="460003" />
	</node>
	<node id="9936814715" lat="62.8878416" lon="7.4145852" version="1" timestamp="2022-08-07T07:21:05Z" changeset="124585500" uid="3497659" user="NKA">
		<tag k="name" v="Hagen" />
		<tag k="place" v="farm" />
		<tag k="ssr:stedsnr" v="11607" />
	</node>
	<node id="9936814716" lat="62.8505945" lon="7.23555" version="1" timestamp="2022-08-07T07:21:05Z" changeset="124585500" uid="3497659" user="NKA">
		<tag k="name" v="Fagermo" />
		<tag k="place" v="farm" />
		<tag k="ssr:stedsnr" v="861645" />
	</node>
	<node id="9936814717" lat="62.8817639" lon="7.454075" version="1" timestamp="2022-08-07T07:21:05Z" changeset="124585500" uid="3497659" user="NKA">
		<tag k="name" v="Reitan" />
		<tag k="place" v="farm" />
		<tag k="ssr:stedsnr" v="11642" />
	</node>
	<node id="9936814718" lat="62.8504174" lon="7.1571138" version="1" timestamp="2022-08-07T07:21:05Z" changeset="124585500" uid="3497659" user="NKA">
		<tag k="name" v="Røysavollen" />
		<tag k="place" v="farm" />
		<tag k="ssr:stedsnr" v="641003" />
	</node>
	<node id="9936814719" lat="62.893226" lon="7.4737351" version="1" timestamp="2022-08-07T07:21:05Z" changeset="124585500" uid="3497659" user="NKA">
		<tag k="name" v="Ugelstad" />
		<tag k="place" v="hamlet" />
		<tag k="ssr:stedsnr" v="11602" />
	</node>
	<node id="9936814720" lat="62.8802833" lon="7.4521889" version="1" timestamp="2022-08-07T07:21:05Z" changeset="124585500" uid="3497659" user="NKA">
		<tag k="name" v="Øvergarden" />
		<tag k="place" v="farm" />
		<tag k="ssr:stedsnr" v="202876" />
	</node>
	<node id="9936814721" lat="62.9206833" lon="7.1065472" version="1" timestamp="2022-08-07T07:21:05Z" changeset="124585500" uid="3497659" user="NKA">
		<tag k="name" v="Lunheim" />
		<tag k="place" v="farm" />
		<tag k="ssr:stedsnr" v="376086" />
	</node>
	<node id="9936814722" lat="62.950219" lon="7.092379" version="1" timestamp="2022-08-07T07:21:05Z" changeset="124585500" uid="3497659" user="NKA">
		<tag k="name" v="Hustadremma" />
		<tag k="place" v="farm" />
		<tag k="ssr:stedsnr" v="535691" />
	</node>
	<node id="9936814723" lat="62.9603111" lon="7.1566806" version="1" timestamp="2022-08-07T07:21:05Z" changeset="124585500" uid="3497659" user="NKA">
		<tag k="name" v="Einset" />
		<tag k="place" v="farm" />
		<tag k="ssr:stedsnr" v="315011" />
	</node>
	<node id="9936814724" lat="62.9169834" lon="7.4225281" version="1" timestamp="2022-08-07T07:21:05Z" changeset="124585500" uid="3497659" user="NKA">
		<tag k="name" v="Krakalia" />
		<tag k="place" v="hamlet" />
		<tag k="ssr:stedsnr" v="801527" />
	</node>
	<node id="9936814725" lat="62.8112469" lon="7.1471682" version="1" timestamp="2022-08-07T07:21:05Z" changeset="124585500" uid="3497659" user="NKA">
		<tag k="name" v="Skarsbø" />
		<tag k="place" v="farm" />
		<tag k="ssr:stedsnr" v="399003" />
	</node>
	<node id="9936814726" lat="62.9719041" lon="7.101155" version="1" timestamp="2022-08-07T07:21:05Z" changeset="124585500" uid="3497659" user="NKA">
		<tag k="name" v="Nerlandsvika" />
		<tag k="place" v="farm" />
		<tag k="ssr:stedsnr" v="232646" />
	</node>
	<node id="9936814727" lat="62.9293389" lon="7.4369834" version="1" timestamp="2022-08-07T07:21:05Z" changeset="124585500" uid="3497659" user="NKA">
		<tag k="historic" v="shieling" />
		<tag k="name" v="Silsetsetra" />
		<tag k="place" v="isolated_dwelling" />
		<tag k="ssr:stedsnr" v="885378" />
	</node>
	<node id="9936814728" lat="62.9612944" lon="7.1674668" version="1" timestamp="2022-08-07T07:21:05Z" changeset="124585500" uid="3497659" user="NKA">
		<tag k="alt_name" v="Tjønneland" />
		<tag k="name" v="Tjørneland" />
		<tag k="place" v="farm" />
		<tag k="ssr:stedsnr" v="255006" />
	</node>
	<node id="9936814729" lat="62.7972207" lon="7.1711293" version="1" timestamp="2022-08-07T07:21:05Z" changeset="124585500" uid="3497659" user="NKA">
		<tag k="name" v="Holslia" />
		<tag k="place" v="farm" />
		<tag k="ssr:stedsnr" v="278008" />
	</node>
	<node id="9936814730" lat="62.9210555" lon="7.1195724" version="1" timestamp="2022-08-07T07:21:05Z" changeset="124585500" uid="3497659" user="NKA">
		<tag k="name" v="Stølen" />
		<tag k="place" v="locality" />
		<tag k="ssr:stedsnr" v="277983" />
	</node>
	<node id="9936814731" lat="62.9276982" lon="7.4474566" version="1" timestamp="2022-08-07T07:21:05Z" changeset="124585500" uid="3497659" user="NKA">
		<tag k="name" v="Toremyran" />
		<tag k="place" v="farm" />
		<tag k="ssr:stedsnr" v="194497" />
	</node>
	<node id="9936814732" lat="62.9129417" lon="7.541814" version="1" timestamp="2022-08-07T07:21:05Z" changeset="124585500" uid="3497659" user="NKA">
		<tag k="name" v="Nergarden" />
		<tag k="place" v="farm" />
		<tag k="ssr:stedsnr" v="193588" />
	</node>
	<node id="9936814733" lat="62.8354965" lon="7.2217947" version="1" timestamp="2022-08-07T07:21:05Z" changeset="124585500" uid="3497659" user="NKA">
		<tag k="name" v="Sylte" />
		<tag k="place" v="hamlet" />
		<tag k="ssr:stedsnr" v="619749" />
	</node>
	<node id="9936814734" lat="62.8321222" lon="7.2223223" version="1" timestamp="2022-08-07T07:21:05Z" changeset="124585500" uid="3497659" user="NKA">
		<tag k="name" v="Skjennabakken" />
		<tag k="place" v="farm" />
		<tag k="ssr:stedsnr" v="133704" />
	</node>
	<node id="9936814735" lat="62.9476862" lon="7.3710974" version="1" timestamp="2022-08-07T07:21:05Z" changeset="124585500" uid="3497659" user="NKA">
		<tag k="name" v="Visnessetra" />
		<tag k="place" v="locality" />
		<tag k="ssr:stedsnr" v="824306" />
	</node>
	<node id="9936814736" lat="62.9590166" lon="7.1675307" version="1" timestamp="2022-08-07T07:21:05Z" changeset="124585500" uid="3497659" user="NKA">
		<tag k="name" v="Midtbø" />
		<tag k="place" v="farm" />
		<tag k="ssr:stedsnr" v="194003" />
	</node>
	<node id="9936814737" lat="62.900175" lon="7.3836168" version="1" timestamp="2022-08-07T07:21:05Z" changeset="124585500" uid="3497659" user="NKA">
		<tag k="name" v="Sommarhaugen" />
		<tag k="place" v="farm" />
		<tag k="ssr:stedsnr" v="557536" />
	</node>
	<node id="9936814738" lat="62.9644407" lon="7.3732545" version="1" timestamp="2022-08-07T07:21:05Z" changeset="124585500" uid="3497659" user="NKA">
		<tag k="name" v="Naustvika" />
		<tag k="place" v="farm" />
		<tag k="ssr:stedsnr" v="132953" />
	</node>
	<node id="9936814739" lat="62.9396722" lon="7.1872252" version="1" timestamp="2022-08-07T07:21:05Z" changeset="124585500" uid="3497659" user="NKA">
		<tag k="name" v="Vangen" />
		<tag k="place" v="farm" />
		<tag k="ssr:stedsnr" v="133105" />
	</node>
	<node id="9936814740" lat="62.9032667" lon="7.1808639" version="1" timestamp="2022-08-07T07:21:05Z" changeset="124585500" uid="3497659" user="NKA">
		<tag k="name" v="Nøsahaugen" />
		<tag k="place" v="farm" />
		<tag k="ssr:stedsnr" v="95602" />
	</node>
	<node id="9936814741" lat="62.9535778" lon="7.1428889" version="1" timestamp="2022-08-07T07:21:05Z" changeset="124585500" uid="3497659" user="NKA">
		<tag k="name" v="Hol" />
		<tag k="place" v="farm" />
		<tag k="ssr:stedsnr" v="73009" />
	</node>
	<node id="9936814742" lat="62.908321" lon="7.5246814" version="1" timestamp="2022-08-07T07:21:05Z" changeset="124585500" uid="3497659" user="NKA">
		<tag k="alt_name" v="Lillemyren" />
		<tag k="name" v="Litlmyra" />
		<tag k="place" v="farm" />
		<tag k="ssr:stedsnr" v="302705" />
	</node>
	<node id="9936814743" lat="62.9434305" lon="7.3327056" version="1" timestamp="2022-08-07T07:21:05Z" changeset="124585500" uid="3497659" user="NKA">
		<tag k="name" v="Bollimyran" />
		<tag k="place" v="farm" />
		<tag k="ssr:stedsnr" v="861494" />
	</node>
	<node id="9936814744" lat="62.9288417" lon="7.0732389" version="1" timestamp="2022-08-07T07:21:05Z" changeset="124585500" uid="3497659" user="NKA">
		<tag k="name" v="Myrvang" />
		<tag k="place" v="farm" />
		<tag k="ssr:stedsnr" v="12107" />
	</node>
	<node id="9936814745" lat="62.9442223" lon="7.3648945" version="1" timestamp="2022-08-07T07:21:05Z" changeset="124585500" uid="3497659" user="NKA">
		<tag k="name" v="Vikasetra" />
		<tag k="place" v="locality" />
		<tag k="ssr:stedsnr" v="277227" />
	</node>
	<node id="9936814746" lat="62.9577973" lon="7.3928303" version="1" timestamp="2022-08-07T07:21:05Z" changeset="124585500" uid="3497659" user="NKA">
		<tag k="name" v="Jørgenvågen" />
		<tag k="place" v="farm" />
		<tag k="ssr:stedsnr" v="679945" />
	</node>
	<node id="9936814747" lat="62.955025" lon="7.1644473" version="1" timestamp="2022-08-07T07:21:05Z" changeset="124585500" uid="3497659" user="NKA">
		<tag k="name" v="Myrvang" />
		<tag k="place" v="farm" />
		<tag k="ssr:stedsnr" v="12002" />
	</node>
	<node id="9936814748" lat="62.9833909" lon="7.1213473" version="1" timestamp="2022-08-07T07:21:05Z" changeset="124585500" uid="3497659" user="NKA">
		<tag k="name" v="Storholmen" />
		<tag k="place" v="farm" />
		<tag k="ssr:stedsnr" v="981206" />
	</node>
	<node id="9936814749" lat="62.9571444" lon="7.1700529" version="1" timestamp="2022-08-07T07:21:05Z" changeset="124585500" uid="3497659" user="NKA">
		<tag k="name" v="Myrvoll" />
		<tag k="place" v="farm" />
		<tag k="ssr:stedsnr" v="12006" />
	</node>
	<node id="9936814750" lat="62.9569584" lon="7.4103944" version="1" timestamp="2022-08-07T07:21:05Z" changeset="124585500" uid="3497659" user="NKA">
		<tag k="name" v="Neset" />
		<tag k="place" v="farm" />
		<tag k="ssr:stedsnr" v="254970" />
	</node>
	<node id="9936814751" lat="62.9543528" lon="7.4150111" version="1" timestamp="2022-08-07T07:21:05Z" changeset="124585500" uid="3497659" user="NKA">
		<tag k="name" v="Brisshaugen" />
		<tag k="place" v="farm" />
		<tag k="ssr:stedsnr" v="375969" />
	</node>
	<node id="9936814752" lat="62.9509908" lon="7.4151155" version="1" timestamp="2022-08-07T07:21:05Z" changeset="124585500" uid="3497659" user="NKA">
		<tag k="name" v="Lindset" />
		<tag k="place" v="locality" />
		<tag k="ssr:stedsnr" v="118648" />
	</node>
	<node id="9936814753" lat="62.9347917" lon="7.4392" version="1" timestamp="2022-08-07T07:21:05Z" changeset="124585500" uid="3497659" user="NKA">
		<tag k="name" v="Steinbakken" />
		<tag k="place" v="farm" />
		<tag k="ssr:stedsnr" v="72473" />
	</node>
	<node id="9936814754" lat="62.9104862" lon="7.5800473" version="1" timestamp="2022-08-07T07:21:05Z" changeset="124585500" uid="3497659" user="NKA">
		<tag k="name" v="Strandasetra" />
		<tag k="place" v="locality" />
		<tag k="ssr:stedsnr" v="11575" />
	</node>
	<node id="9936814755" lat="62.9541321" lon="7.4023546" version="1" timestamp="2022-08-07T07:21:05Z" changeset="124585500" uid="3497659" user="NKA">
		<tag k="name" v="Visnes" />
		<tag k="place" v="hamlet" />
		<tag k="ssr:stedsnr" v="11961" />
	</node>
	<node id="9936814756" lat="62.9747978" lon="7.1601896" version="1" timestamp="2022-08-07T07:21:05Z" changeset="124585500" uid="3497659" user="NKA">
		<tag k="name" v="Johangarden" />
		<tag k="place" v="farm" />
		<tag k="ssr:stedsnr" v="884063" />
	</node>
	<node id="9936814757" lat="62.9727639" lon="7.1031002" version="1" timestamp="2022-08-07T07:21:05Z" changeset="124585500" uid="3497659" user="NKA">
		<tag k="name" v="Hellaremma" />
		<tag k="place" v="farm" />
		<tag k="ssr:stedsnr" v="801033" />
	</node>
	<node id="9936814758" lat="62.9381139" lon="7.4402834" version="1" timestamp="2022-08-07T07:21:05Z" changeset="124585500" uid="3497659" user="NKA">
		<tag k="name" v="Djupåbukta" />
		<tag k="place" v="farm" />
		<tag k="ssr:stedsnr" v="315518" />
	</node>
	<node id="9936814759" lat="62.9771472" lon="7.1123057" version="1" timestamp="2022-08-07T07:21:05Z" changeset="124585500" uid="3497659" user="NKA">
		<tag k="name" v="Flataker" />
		<tag k="place" v="farm" />
		<tag k="ssr:stedsnr" v="520046" />
	</node>
	<node id="9936814760" lat="62.8671139" lon="7.108939" version="1" timestamp="2022-08-07T07:21:05Z" changeset="124585500" uid="3497659" user="NKA">
		<tag k="name" v="Myr" />
		<tag k="place" v="farm" />
		<tag k="ssr:stedsnr" v="618127" />
	</node>
	<node id="9936814761" lat="62.9841583" lon="7.0944055" version="1" timestamp="2022-08-07T07:21:05Z" changeset="124585500" uid="3497659" user="NKA">
		<tag k="name" v="Hogsneset" />
		<tag k="place" v="farm" />
		<tag k="ssr:stedsnr" v="315035" />
	</node>
	<node id="9936814762" lat="62.9376722" lon="7.4199529" version="1" timestamp="2022-08-07T07:21:05Z" changeset="124585500" uid="3497659" user="NKA">
		<tag k="name" v="Silnessetra" />
		<tag k="place" v="isolated_dwelling" />
		<tag k="ssr:stedsnr" v="194441" />
	</node>
	<node id="9936814763" lat="62.9740694" lon="7.1000363" version="1" timestamp="2022-08-07T07:21:05Z" changeset="124585500" uid="3497659" user="NKA">
		<tag k="name" v="Litlevika" />
		<tag k="place" v="farm" />
		<tag k="ssr:stedsnr" v="497031" />
	</node>
	<node id="9936814764" lat="62.9837167" lon="7.1604223" version="1" timestamp="2022-08-07T07:21:05Z" changeset="124585500" uid="3497659" user="NKA">
		<tag k="name" v="Hola" />
		<tag k="place" v="farm" />
		<tag k="ssr:stedsnr" v="338050" />
	</node>
	<node id="9936814765" lat="62.9381815" lon="7.4348603" version="1" timestamp="2022-08-07T07:21:05Z" changeset="124585500" uid="3497659" user="NKA">
		<tag k="name" v="Silnes" />
		<tag k="place" v="hamlet" />
		<tag k="ssr:stedsnr" v="193541" />
	</node>
	<node id="9936814766" lat="62.9749389" lon="7.1066278" version="1" timestamp="2022-08-07T07:21:05Z" changeset="124585500" uid="3497659" user="NKA">
		<tag k="alt_name" v="Nygård" />
		<tag k="name" v="Nygard" />
		<tag k="place" v="farm" />
		<tag k="ssr:stedsnr" v="376047" />
	</node>
	<node id="9936814767" lat="63.0118776" lon="7.2825883" version="1" timestamp="2022-08-07T07:21:05Z" changeset="124585500" uid="3497659" user="NKA">
		<tag k="name" v="Smørholmen" />
		<tag k="place" v="farm" />
		<tag k="ssr:stedsnr" v="980916" />
	</node>
	<node id="9936814768" lat="62.8662833" lon="7.0832779" version="1" timestamp="2022-08-07T07:21:05Z" changeset="124585500" uid="3497659" user="NKA">
		<tag k="name" v="Åsbakken" />
		<tag k="place" v="farm" />
		<tag k="ssr:stedsnr" v="375107" />
	</node>
	<node id="9936814769" lat="62.9401135" lon="7.3274429" version="1" timestamp="2022-08-07T07:21:05Z" changeset="124585500" uid="3497659" user="NKA">
		<tag k="name" v="Bollia" />
		<tag k="place" v="hamlet" />
		<tag k="ssr:stedsnr" v="739528" />
	</node>
	<node id="9936814770" lat="62.9077611" lon="7.2186861" version="1" timestamp="2022-08-07T07:21:05Z" changeset="124585500" uid="3497659" user="NKA">
		<tag k="name" v="Ringstad" />
		<tag k="place" v="farm" />
		<tag k="ssr:stedsnr" v="740568" />
	</node>
	<node id="9936814771" lat="62.9218194" lon="7.4400278" version="1" timestamp="2022-08-07T07:21:05Z" changeset="124585500" uid="3497659" user="NKA">
		<tag k="name" v="Vollan" />
		<tag k="place" v="farm" />
		<tag k="ssr:stedsnr" v="739552" />
	</node>
	<node id="9936814772" lat="62.829833" lon="7.2357137" version="1" timestamp="2022-08-07T07:21:05Z" changeset="124585500" uid="3497659" user="NKA">
		<tag k="name" v="Jobakkrøra" />
		<tag k="place" v="farm" />
		<tag k="ssr:stedsnr" v="338781" />
	</node>
	<node id="9936814773" lat="62.8792444" lon="7.1030863" version="1" timestamp="2022-08-07T07:21:05Z" changeset="124585500" uid="3497659" user="NKA">
		<tag k="name" v="Åssetra" />
		<tag k="place" v="locality" />
		<tag k="ssr:stedsnr" v="702907" />
	</node>
	<node id="9936814774" lat="62.9475966" lon="7.1060515" version="1" timestamp="2022-08-07T07:21:05Z" changeset="124585500" uid="3497659" user="NKA">
		<tag k="alt_name" v="Hustadreitan" />
		<tag k="name" v="Reitan" />
		<tag k="place" v="farm" />
		<tag k="ssr:stedsnr" v="73130" />
	</node>
	<node id="9936814775" lat="62.9135561" lon="7.0909247" version="1" timestamp="2022-08-07T07:21:05Z" changeset="124585500" uid="3497659" user="NKA">
		<tag k="name" v="Vestlia" />
		<tag k="place" v="farm" />
		<tag k="ssr:stedsnr" v="73081" />
	</node>
	<node id="9936814776" lat="62.8521149" lon="7.2088457" version="1" timestamp="2022-08-07T07:21:05Z" changeset="124585500" uid="3497659" user="NKA">
		<tag k="name" v="Negarden" />
		<tag k="place" v="farm" />
		<tag k="ssr:stedsnr" v="581057" />
	</node>
	<node id="9936814777" lat="62.9636722" lon="7.1079084" version="1" timestamp="2022-08-07T07:21:05Z" changeset="124585500" uid="3497659" user="NKA">
		<tag k="name" v="Litleremma" />
		<tag k="place" v="farm" />
		<tag k="ssr:stedsnr" v="73022" />
	</node>
	<node id="9936814778" lat="62.9250592" lon="7.087838" version="1" timestamp="2022-08-07T07:21:05Z" changeset="124585500" uid="3497659" user="NKA">
		<tag k="name" v="Rydjatun" />
		<tag k="place" v="farm" />
		<tag k="ssr:stedsnr" v="73101" />
	</node>
	<node id="9936814779" lat="62.8633584" lon="7.0702973" version="1" timestamp="2022-08-07T07:21:05Z" changeset="124585500" uid="3497659" user="NKA">
		<tag k="name" v="Åsgjerdet" />
		<tag k="place" v="farm" />
		<tag k="ssr:stedsnr" v="72132" />
	</node>
	<node id="9936814780" lat="62.9613944" lon="7.0749807" version="1" timestamp="2022-08-07T07:21:05Z" changeset="124585500" uid="3497659" user="NKA">
		<tag k="alt_name" v="Bjørsnos" />
		<tag k="name" v="Myrvoll" />
		<tag k="place" v="farm" />
		<tag k="ssr:stedsnr" v="73023" />
	</node>
	<node id="9936814781" lat="62.9386556" lon="7.1064696" version="1" timestamp="2022-08-07T07:21:05Z" changeset="124585500" uid="3497659" user="NKA">
		<tag k="name" v="Solberg" />
		<tag k="place" v="farm" />
		<tag k="ssr:stedsnr" v="923126" />
	</node>
	<node id="9936814782" lat="62.8760936" lon="7.3224607" version="1" timestamp="2022-08-07T07:21:05Z" changeset="124585500" uid="3497659" user="NKA">
		<tag k="name" v="Gammelseterstølen" />
		<tag k="place" v="isolated_dwelling" />
		<tag k="ssr:stedsnr" v="338190" />
	</node>
	<node id="9936814783" lat="62.8840583" lon="7.4536974" version="1" timestamp="2022-08-07T07:21:05Z" changeset="124585500" uid="3497659" user="NKA">
		<tag k="name" v="Bythaugen" />
		<tag k="place" v="farm" />
		<tag k="ssr:stedsnr" v="740633" />
	</node>
	<node id="9936814784" lat="62.93535" lon="6.9825196" version="1" timestamp="2022-08-07T07:21:05Z" changeset="124585500" uid="3497659" user="NKA">
		<tag k="name" v="Yttersunde" />
		<tag k="place" v="farm" />
		<tag k="ssr:stedsnr" v="740118" />
	</node>
	<node id="9936814785" lat="62.962875" lon="7.0572306" version="1" timestamp="2022-08-07T07:21:05Z" changeset="124585500" uid="3497659" user="NKA">
		<tag k="name" v="Remma" />
		<tag k="place" v="farm" />
		<tag k="ssr:stedsnr" v="194019" />
	</node>
	<node id="9936814786" lat="62.9173245" lon="7.1043809" version="1" timestamp="2022-08-07T07:21:05Z" changeset="124585500" uid="3497659" user="NKA">
		<tag k="name" v="Brant" />
		<tag k="place" v="farm" />
		<tag k="ssr:stedsnr" v="437107" />
	</node>
	<node id="9936814787" lat="62.9263835" lon="7.0597369" version="1" timestamp="2022-08-07T07:21:05Z" changeset="124585500" uid="3497659" user="NKA">
		<tag k="name" v="Venås" />
		<tag k="place" v="hamlet" />
		<tag k="ssr:stedsnr" v="862117" />
	</node>
	<node id="9936814788" lat="62.8969772" lon="6.9728229" version="1" timestamp="2022-08-07T07:21:05Z" changeset="124585500" uid="3497659" user="NKA">
		<tag k="name" v="Seterneset" />
		<tag k="place" v="hamlet" />
		<tag k="ssr:stedsnr" v="436067" />
	</node>
	<node id="9936814789" lat="62.9822666" lon="7.1012584" version="1" timestamp="2022-08-07T07:21:05Z" changeset="124585500" uid="3497659" user="NKA">
		<tag k="name" v="Flatmark" />
		<tag k="place" v="farm" />
		<tag k="ssr:stedsnr" v="618032" />
	</node>
	<node id="9936814790" lat="62.881525" lon="7.0496335" version="1" timestamp="2022-08-07T07:21:05Z" changeset="124585500" uid="3497659" user="NKA">
		<tag k="name" v="Haugtun" />
		<tag k="place" v="farm" />
		<tag k="ssr:stedsnr" v="193138" />
	</node>
	<node id="9936814791" lat="62.8771056" lon="7.0475474" version="1" timestamp="2022-08-07T07:21:05Z" changeset="124585500" uid="3497659" user="NKA">
		<tag k="name" v="Byrkjeland" />
		<tag k="place" v="farm" />
		<tag k="ssr:stedsnr" v="557139" />
	</node>
	<node id="9936814792" lat="62.83348" lon="7.2363416" version="1" timestamp="2022-08-07T07:21:05Z" changeset="124585500" uid="3497659" user="NKA">
		<tag k="name" v="Birkeland" />
		<tag k="place" v="farm" />
		<tag k="ssr:stedsnr" v="945047" />
	</node>
	<node id="9936814793" lat="62.9049053" lon="6.9227866" version="1" timestamp="2022-08-07T07:21:05Z" changeset="124585500" uid="3497659" user="NKA">
		<tag k="name" v="Myra" />
		<tag k="place" v="farm" />
		<tag k="ssr:stedsnr" v="156021" />
	</node>
	<node id="9936814794" lat="62.9682722" lon="7.0619178" version="1" timestamp="2022-08-07T07:21:05Z" changeset="124585500" uid="3497659" user="NKA">
		<tag k="name" v="Malehaugen" />
		<tag k="place" v="farm" />
		<tag k="ssr:stedsnr" v="535681" />
	</node>
	<node id="9936814795" lat="62.8727395" lon="7.0089617" version="1" timestamp="2022-08-07T07:21:05Z" changeset="124585500" uid="3497659" user="NKA">
		<tag k="name" v="Dalsbø" />
		<tag k="place" v="farm" />
		<tag k="ssr:stedsnr" v="496148" />
	</node>
	<node id="9936814796" lat="62.9350833" lon="7.3412389" version="1" timestamp="2022-08-07T07:21:05Z" changeset="124585500" uid="3497659" user="NKA">
		<tag k="name" v="Hjellset" />
		<tag k="place" v="farm" />
		<tag k="ssr:stedsnr" v="800497" />
	</node>
	<node id="9936814797" lat="62.9706028" lon="7.0899389" version="1" timestamp="2022-08-07T07:21:05Z" changeset="124585500" uid="3497659" user="NKA">
		<tag k="name" v="Berget" />
		<tag k="place" v="locality" />
		<tag k="ssr:stedsnr" v="217972" />
	</node>
	<node id="9936814798" lat="62.7938834" lon="7.0212779" version="1" timestamp="2022-08-07T07:21:05Z" changeset="124585500" uid="3497659" user="NKA">
		<tag k="name" v="Skjerpå" />
		<tag k="place" v="locality" />
		<tag k="ssr:stedsnr" v="338825" />
	</node>
	<node id="9936814799" lat="62.9601362" lon="7.1094196" version="1" timestamp="2022-08-07T07:21:05Z" changeset="124585500" uid="3497659" user="NKA">
		<tag k="name" v="Løkhaugen" />
		<tag k="place" v="farm" />
		<tag k="ssr:stedsnr" v="133003" />
	</node>
	<node id="9936814800" lat="62.92695" lon="7.2231167" version="1" timestamp="2022-08-07T07:21:05Z" changeset="124585500" uid="3497659" user="NKA">
		<tag k="name" v="Eidsvoll" />
		<tag k="place" v="farm" />
		<tag k="ssr:stedsnr" v="338039" />
	</node>
	<node id="9936814801" lat="62.9557" lon="7.3911834" version="1" timestamp="2022-08-07T07:21:05Z" changeset="124585500" uid="3497659" user="NKA">
		<tag k="name" v="Vikan" />
		<tag k="place" v="farm" />
		<tag k="ssr:stedsnr" v="263642" />
	</node>
	<node id="9936814802" lat="62.8056934" lon="7.2431066" version="1" timestamp="2022-08-07T07:21:05Z" changeset="124585500" uid="3497659" user="NKA">
		<tag k="name" v="Øygarden" />
		<tag k="place" v="farm" />
		<tag k="ssr:stedsnr" v="437727" />
	</node>
	<node id="9936814803" lat="62.9349028" lon="7.3342555" version="1" timestamp="2022-08-07T07:21:05Z" changeset="124585500" uid="3497659" user="NKA">
		<tag k="name" v="Hjellmyra" />
		<tag k="place" v="farm" />
		<tag k="ssr:stedsnr" v="254482" />
	</node>
	<node id="9936814804" lat="62.9907472" lon="7.1588279" version="1" timestamp="2022-08-07T07:21:05Z" changeset="124585500" uid="3497659" user="NKA">
		<tag k="name" v="Tugarden" />
		<tag k="place" v="farm" />
		<tag k="ssr:stedsnr" v="520009" />
	</node>
	<node id="9936814805" lat="62.8554654" lon="7.1411533" version="1" timestamp="2022-08-07T07:21:05Z" changeset="124585500" uid="3497659" user="NKA">
		<tag k="name" v="Hatlebakken" />
		<tag k="place" v="quarter" />
		<tag k="ssr:stedsnr" v="739240" />
	</node>
	<node id="9936814806" lat="62.8060132" lon="7.328893" version="1" timestamp="2022-08-07T07:21:05Z" changeset="124585500" uid="3497659" user="NKA">
		<tag k="name" v="Melsetra" />
		<tag k="place" v="hamlet" />
		<tag k="ssr:stedsnr" v="255742" />
	</node>
	<node id="9936814807" lat="62.8866926" lon="7.3485997" version="1" timestamp="2022-08-07T07:21:05Z" changeset="124585500" uid="3497659" user="NKA">
		<tag k="name" v="Brandsetra" />
		<tag k="place" v="hamlet" />
		<tag k="ssr:stedsnr" v="557570" />
	</node>
	<node id="9936814808" lat="62.9343028" lon="7.4250862" version="1" timestamp="2022-08-07T07:21:05Z" changeset="124585500" uid="3497659" user="NKA">
		<tag k="alt_name" v="Gl. Silnessetra" />
		<tag k="name" v="Gamle Silnessetra" />
		<tag k="place" v="locality" />
		<tag k="ssr:stedsnr" v="824382" />
	</node>
	<node id="9936814809" lat="62.9804362" lon="7.1082805" version="1" timestamp="2022-08-07T07:21:05Z" changeset="124585500" uid="3497659" user="NKA">
		<tag k="name" v="Rotvika" />
		<tag k="place" v="hamlet" />
		<tag k="ssr:stedsnr" v="437057" />
	</node>
	<node id="9936814810" lat="62.9220889" lon="7.2330029" version="1" timestamp="2022-08-07T07:21:05Z" changeset="124585500" uid="3497659" user="NKA">
		<tag k="name" v="Kolstad" />
		<tag k="place" v="farm" />
		<tag k="ssr:stedsnr" v="497533" />
	</node>
	<node id="9936814811" lat="62.7836056" lon="7.0862418" version="1" timestamp="2022-08-07T07:21:05Z" changeset="124585500" uid="3497659" user="NKA">
		<tag k="name" v="Hestadsetra" />
		<tag k="place" v="isolated_dwelling" />
		<tag k="ssr:stedsnr" v="436827" />
	</node>
	<node id="9936814812" lat="62.8954694" lon="7.4079" version="1" timestamp="2022-08-07T07:21:05Z" changeset="124585500" uid="3497659" user="NKA">
		<tag k="name" v="Hjellen" />
		<tag k="place" v="farm" />
		<tag k="ssr:stedsnr" v="436537" />
	</node>
	<node id="9936814813" lat="62.9511111" lon="7.3445917" version="1" timestamp="2022-08-07T07:21:05Z" changeset="124585500" uid="3497659" user="NKA">
		<tag k="name" v="Auinghjellen" />
		<tag k="place" v="isolated_dwelling" />
		<tag k="ssr:stedsnr" v="436965" />
	</node>
	<node id="9936814814" lat="62.916177" lon="7.3985332" version="1" timestamp="2022-08-07T07:21:05Z" changeset="124585500" uid="3497659" user="NKA">
		<tag k="name" v="Eidssetra" />
		<tag k="place" v="farm" />
		<tag k="ssr:stedsnr" v="436510" />
	</node>
	<node id="9936814815" lat="62.913225" lon="7.3087168" version="1" timestamp="2022-08-07T07:21:05Z" changeset="124585500" uid="3497659" user="NKA">
		<tag k="name" v="Osteigen" />
		<tag k="place" v="locality" />
		<tag k="ssr:stedsnr" v="399465" />
	</node>
	<node id="9936814816" lat="62.852683" lon="7.1290585" version="1" timestamp="2022-08-07T07:21:05Z" changeset="124585500" uid="3497659" user="NKA">
		<tag k="name" v="Eidem" />
		<tag k="place" v="quarter" />
		<tag k="ssr:stedsnr" v="436188" />
	</node>
	<node id="9936814817" lat="62.9050722" lon="7.2455418" version="1" timestamp="2022-08-07T07:21:05Z" changeset="124585500" uid="3497659" user="NKA">
		<tag k="name" v="Storsteinen" />
		<tag k="place" v="locality" />
		<tag k="ssr:stedsnr" v="314605" />
	</node>
	<node id="9936814818" lat="62.9053003" lon="7.3473274" version="1" timestamp="2022-08-07T07:21:05Z" changeset="124585500" uid="3497659" user="NKA">
		<tag k="name" v="Storslettet" />
		<tag k="place" v="farm" />
		<tag k="ssr:stedsnr" v="399267" />
	</node>
	<node id="9936814819" lat="62.9039566" lon="7.3599003" version="1" timestamp="2022-08-07T07:21:05Z" changeset="124585500" uid="3497659" user="NKA">
		<tag k="name" v="Slettet" />
		<tag k="place" v="farm" />
		<tag k="ssr:stedsnr" v="217420" />
	</node>
	<node id="9936814820" lat="62.9521862" lon="7.4084057" version="1" timestamp="2022-08-07T07:21:05Z" changeset="124585500" uid="3497659" user="NKA">
		<tag k="name" v="Rughaugen" />
		<tag k="place" v="farm" />
		<tag k="ssr:stedsnr" v="375984" />
	</node>
	<node id="9936814821" lat="62.8123305" lon="7.3648528" version="1" timestamp="2022-08-07T07:21:05Z" changeset="124585500" uid="3497659" user="NKA">
		<tag k="historic" v="shieling" />
		<tag k="name" v="Malmesetra" />
		<tag k="place" v="isolated_dwelling" />
		<tag k="ssr:stedsnr" v="437723" />
	</node>
	<node id="9936814822" lat="62.8911833" lon="7.4114362" version="1" timestamp="2022-08-07T07:21:05Z" changeset="124585500" uid="3497659" user="NKA">
		<tag k="name" v="Ekkerhaugen" />
		<tag k="place" v="farm" />
		<tag k="ssr:stedsnr" v="375568" />
	</node>
	<node id="9936814823" lat="62.8733972" lon="7.4291889" version="1" timestamp="2022-08-07T07:21:05Z" changeset="124585500" uid="3497659" user="NKA">
		<tag k="name" v="Vasskorsetra" />
		<tag k="place" v="locality" />
		<tag k="ssr:stedsnr" v="95272" />
	</node>
	<node id="9936814824" lat="63.0067237" lon="7.2530384" version="1" timestamp="2022-08-07T07:21:05Z" changeset="124585500" uid="3497659" user="NKA">
		<tag k="name" v="Orøya" />
		<tag k="place" v="farm" />
		<tag k="ssr:stedsnr" v="980926" />
	</node>
	<node id="9936814825" lat="63.0079628" lon="7.2727558" version="1" timestamp="2022-08-07T07:21:05Z" changeset="124585500" uid="3497659" user="NKA">
		<tag k="name" v="Langøya" />
		<tag k="place" v="farm" />
		<tag k="ssr:stedsnr" v="980925" />
	</node>
	<node id="9936814826" lat="62.9161656" lon="6.9367266" version="1" timestamp="2022-08-07T07:21:05Z" changeset="124585500" uid="3497659" user="NKA">
		<tag k="name" v="Engelsberget" />
		<tag k="place" v="locality" />
		<tag k="ssr:stedsnr" v="981213" />
	</node>
	<node id="9936814827" lat="62.9640909" lon="7.0495425" version="1" timestamp="2022-08-07T07:21:05Z" changeset="124585500" uid="3497659" user="NKA">
		<tag k="name" v="Vågen" />
		<tag k="place" v="farm" />
		<tag k="ssr:stedsnr" v="960584" />
	</node>
	<node id="9936814828" lat="62.8776873" lon="6.9718971" version="1" timestamp="2022-08-07T07:21:05Z" changeset="124585500" uid="3497659" user="NKA">
		<tag k="name" v="Tuftin" />
		<tag k="place" v="farm" />
		<tag k="ssr:stedsnr" v="824030" />
	</node>
	<node id="9936814829" lat="62.9221722" lon="7.3184362" version="1" timestamp="2022-08-07T07:21:05Z" changeset="124585500" uid="3497659" user="NKA">
		<tag k="name" v="Furuset" />
		<tag k="place" v="farm" />
		<tag k="ssr:stedsnr" v="72544" />
	</node>
</osm>
