<?xml version="1.0" encoding="UTF-8"?>
<osm generator="osmapis" version="0.6">
	<node id="-780270" lat="70.6202527773" lon="23.7085249114">
		<tag k="name" v="Trangskaret" />
		<tag k="natural" v="valley" />
		<tag k="place" v="locality" />
		<tag k="ssr:stedsnr" v="152260" />
	</node>
	<node id="-780269" lat="70.6225222273" lon="23.7122887992">
		<tag k="name" v="Fjordholla" />
		<tag k="natural" v="valley" />
		<tag k="place" v="locality" />
		<tag k="ssr:stedsnr" v="152259" />
	</node>
	<node id="-780268" lat="70.6235555576" lon="23.7224304565">
		<tag k="name" v="Tverrfjellbruna" />
		<tag k="place" v="locality" />
		<tag k="ssr:stedsnr" v="152257" />
	</node>
	<node id="-780267" lat="70.6246277813" lon="23.6820276988">
		<tag k="alt_name" v="Saragammfjellet" />
		<tag k="fixme" v="consider natural=peak for the most distinct mountains in the district" />
		<tag k="name" v="Saragamfjellet" />
		<tag k="natural" v="hill" />
		<tag k="place" v="locality" />
		<tag k="ssr:stedsnr" v="152255" />
	</node>
	<node id="-780265" lat="70.6722888952" lon="23.6777943486">
		<tag k="name" v="Ellenannabergan" />
		<tag k="natural" v="hill" />
		<tag k="place" v="locality" />
		<tag k="ssr:stedsnr" v="152240" />
	</node>
	<node id="-780264" lat="70.6967972258" lon="23.7415888015">
		<tag k="name" v="Forsølhøgda" />
		<tag k="natural" v="hill" />
		<tag k="place" v="locality" />
		<tag k="ssr:stedsnr" v="152233" />
	</node>
	<node id="-780260" lat="70.6127388917" lon="23.6990860281">
		<tag k="fixme" v="consider natural=peak for the most distinct mountains in the district" />
		<tag k="name" v="Ørntinden" />
		<tag k="natural" v="hill" />
		<tag k="place" v="locality" />
		<tag k="ssr:stedsnr" v="152227" />
	</node>
	<node id="-780257" lat="70.6093583322" lon="23.6652221338">
		<tag k="name" v="Vedskaret" />
		<tag k="natural" v="valley" />
		<tag k="place" v="locality" />
		<tag k="ssr:stedsnr" v="152199" />
	</node>
	<node id="-780256" lat="70.6297194446" lon="23.6639693664">
		<tag k="alt_name" v="Leirvikflaket" />
		<tag k="name" v="Leirvikfloget" />
		<tag k="natural" v="hill" />
		<tag k="place" v="locality" />
		<tag k="ssr:stedsnr" v="152190" />
	</node>
	<node id="-780247" lat="70.6466333345" lon="23.7225110121">
		<tag k="name" v="Tyvskaret" />
		<tag k="natural" v="valley" />
		<tag k="place" v="locality" />
		<tag k="ssr:stedsnr" v="145436" />
	</node>
	<node id="-780246" lat="70.6466277832" lon="23.6963804641">
		<tag k="name" v="Tyvsletta" />
		<tag k="place" v="locality" />
		<tag k="ssr:stedsnr" v="145435" />
	</node>
	<node id="-780242" lat="70.6839888871" lon="22.939233261">
		<tag k="name" v="Fugleberga" />
		<tag k="natural" v="hill" />
		<tag k="place" v="locality" />
		<tag k="ssr:stedsnr" v="141479" />
	</node>
	<node id="-780241" lat="70.6838111167" lon="23.2555415925">
		<tag k="fixme" v="consider natural=peak for the most distinct mountains in the district" />
		<tag k="name" v="Værfjellet - Virru" />
		<tag k="name:no" v="Værfjellet" />
		<tag k="name:se" v="Virru" />
		<tag k="natural" v="hill" />
		<tag k="old_name:se" v="Virro" />
		<tag k="place" v="locality" />
		<tag k="ssr:stedsnr" v="141478" />
	</node>
	<node id="-780238" lat="70.6751250064" lon="23.1439277006">
		<tag k="name" v="Ørntind" />
		<tag k="natural" v="hill" />
		<tag k="place" v="locality" />
		<tag k="ssr:stedsnr" v="141461" />
	</node>
	<node id="-780237" lat="70.7026361135" lon="22.8758166177">
		<tag k="name" v="Rislia" />
		<tag k="natural" v="slope" />
		<tag k="place" v="locality" />
		<tag k="ssr:stedsnr" v="141511" />
	</node>
	<node id="-780235" lat="70.5600305595" lon="23.4109360218">
		<tag k="name" v="Storklubben" />
		<tag k="natural" v="hill" />
		<tag k="place" v="locality" />
		<tag k="ssr:stedsnr" v="141394" />
	</node>
	<node id="-780232" lat="70.6175388944" lon="22.9807832635">
		<tag k="fixme" v="consider natural=peak for the most distinct mountains in the district" />
		<tag k="name" v="Hamnefjordfjellet" />
		<tag k="natural" v="hill" />
		<tag k="place" v="locality" />
		<tag k="ssr:stedsnr" v="141433" />
	</node>
	<node id="-780230" lat="70.6191888941" lon="23.0278999358">
		<tag k="alt_name" v="Flatfjell" />
		<tag k="fixme" v="consider natural=peak for the most distinct mountains in the district" />
		<tag k="name" v="Flatfjellet" />
		<tag k="natural" v="hill" />
		<tag k="place" v="locality" />
		<tag k="ssr:stedsnr" v="141432" />
	</node>
	<node id="-780229" lat="70.591369444" lon="22.914463817">
		<tag k="fixme" v="consider natural=peak for the most distinct mountains in the district" />
		<tag k="name" v="Bukkhornet" />
		<tag k="natural" v="hill" />
		<tag k="place" v="locality" />
		<tag k="ssr:stedsnr" v="141421" />
	</node>
	<node id="-780222" lat="70.6182888887" lon="23.4454804754">
		<tag k="name" v="Jallačohkka" />
		<tag k="name:se" v="Jallačohkka" />
		<tag k="natural" v="hill" />
		<tag k="old_name:se" v="Jallačåkka" />
		<tag k="place" v="locality" />
		<tag k="ssr:stedsnr" v="141231" />
	</node>
	<node id="-780218" lat="70.7924583354" lon="23.4652777078">
		<tag k="fixme" v="consider natural=peak for the most distinct mountains in the district" />
		<tag k="name" v="Rundhompen" />
		<tag k="natural" v="hill" />
		<tag k="place" v="locality" />
		<tag k="ssr:stedsnr" v="141160" />
	</node>
	<node id="-780216" lat="70.8296111165" lon="23.4330388122">
		<tag k="name" v="Stauren" />
		<tag k="natural" v="hill" />
		<tag k="place" v="locality" />
		<tag k="ssr:stedsnr" v="141152" />
	</node>
	<node id="-780215" lat="70.8542388857" lon="23.0694832788">
		<tag k="name" v="Storstauren" />
		<tag k="natural" v="hill" />
		<tag k="place" v="locality" />
		<tag k="ssr:stedsnr" v="141119" />
	</node>
	<node id="-780202" lat="70.7435055602" lon="23.7657498962">
		<tag k="fixme" v="consider natural=peak for the most distinct mountains in the district" />
		<tag k="name" v="Migan" />
		<tag k="natural" v="hill" />
		<tag k="place" v="locality" />
		<tag k="ssr:stedsnr" v="141098" />
	</node>
	<node id="-780193" lat="70.8274000057" lon="23.4121804746">
		<tag k="fixme" v="consider natural=peak for the most distinct mountains in the district" />
		<tag k="name" v="Staurfjellet" />
		<tag k="natural" v="hill" />
		<tag k="place" v="locality" />
		<tag k="ssr:stedsnr" v="141064" />
	</node>
	<node id="-780191" lat="70.7019611183" lon="23.8509026755">
		<tag k="fixme" v="consider natural=peak for the most distinct mountains in the district" />
		<tag k="name" v="Kvalfjordfjellet - Fálloaivi" />
		<tag k="name:no" v="Kvalfjordfjellet" />
		<tag k="name:se" v="Fálloaivi" />
		<tag k="natural" v="hill" />
		<tag k="old_name:no" v="Rugelfjell;Ruglfjellet" />
		<tag k="old_name:se" v="Falloaivi" />
		<tag k="place" v="locality" />
		<tag k="ssr:stedsnr" v="141060" />
	</node>
	<node id="-780187" lat="70.4647416739" lon="23.2669360296">
		<tag k="name" v="Skarddalen - Heastavággi" />
		<tag k="name:no" v="Skarddalen" />
		<tag k="name:se" v="Heastavággi" />
		<tag k="natural" v="valley" />
		<tag k="old_name:se" v="Hæstavaggi" />
		<tag k="place" v="locality" />
		<tag k="ssr:stedsnr" v="140057" />
	</node>
	<node id="-780185" lat="70.4480138908" lon="22.9914554886">
		<tag k="alt_name:no" v="Bumannsfjorddalen, s" />
		<tag k="name" v="Søre Bumannsfjorddalen - Oarjjit Dáččavuonvággi" />
		<tag k="name:no" v="Søre Bumannsfjorddalen" />
		<tag k="name:se" v="Oarjjit Dáččavuonvággi" />
		<tag k="natural" v="valley" />
		<tag k="old_name:se" v="oarjit Dažžavuonvaggi" />
		<tag k="place" v="locality" />
		<tag k="ssr:stedsnr" v="140052" />
	</node>
	<node id="-780183" lat="70.4436861169" lon="23.144533266">
		<tag k="name" v="Straumdalen - Strovmmavággi" />
		<tag k="name:no" v="Straumdalen" />
		<tag k="name:se" v="Strovmmavággi" />
		<tag k="natural" v="valley" />
		<tag k="old_name:se" v="Stråvmavaggi" />
		<tag k="place" v="locality" />
		<tag k="ssr:stedsnr" v="140048" />
	</node>
	<node id="-780162" lat="70.6279083387" lon="23.7006332328">
		<tag k="name" v="Laugsletta" />
		<tag k="place" v="locality" />
		<tag k="ssr:stedsnr" v="92240" />
	</node>
	<node id="-780161" lat="70.6240000061" lon="23.6929471323">
		<tag k="alt_name" v="Østredalen" />
		<tag k="name" v="Østerdalen" />
		<tag k="natural" v="valley" />
		<tag k="place" v="locality" />
		<tag k="ssr:stedsnr" v="92233" />
	</node>
	<node id="-780160" lat="70.7310694472" lon="23.7548665867">
		<tag k="fixme" v="consider natural=peak for the most distinct mountains in the district" />
		<tag k="name" v="Storfjelltoppen" />
		<tag k="natural" v="hill" />
		<tag k="place" v="locality" />
		<tag k="ssr:stedsnr" v="92204" />
	</node>
	<node id="-780158" lat="70.6542166674" lon="23.6597971253">
		<tag k="name" v="Klinkastupet" />
		<tag k="natural" v="cliff" />
		<tag k="ssr:stedsnr" v="92177" />
	</node>
	<node id="-780157" lat="70.6152444437" lon="23.6547887868">
		<tag k="name" v="Edvartskaret" />
		<tag k="natural" v="valley" />
		<tag k="place" v="locality" />
		<tag k="ssr:stedsnr" v="92138" />
	</node>
	<node id="-780154" lat="70.6007916666" lon="23.6090415712">
		<tag k="name" v="Brattberget" />
		<tag k="natural" v="hill" />
		<tag k="place" v="locality" />
		<tag k="ssr:stedsnr" v="92055" />
	</node>
	<node id="-780153" lat="70.6377388907" lon="23.7280526741">
		<tag k="fixme" v="consider natural=peak for the most distinct mountains in the district" />
		<tag k="name" v="Tverrfjellet" />
		<tag k="natural" v="hill" />
		<tag k="place" v="locality" />
		<tag k="ssr:stedsnr" v="91169" />
	</node>
	<node id="-780152" lat="70.6820527842" lon="23.6342332504">
		<tag k="name" v="Melandskjerringa" />
		<tag k="natural" v="cliff" />
		<tag k="ssr:stedsnr" v="91125" />
	</node>
	<node id="-780148" lat="70.7076916692" lon="23.1219082741">
		<tag k="fixme" v="consider natural=peak for the most distinct mountains in the district" />
		<tag k="name" v="Keipen" />
		<tag k="natural" v="hill" />
		<tag k="place" v="locality" />
		<tag k="ssr:stedsnr" v="81521" />
	</node>
	<node id="-780147" lat="70.6672250008" lon="23.113338814">
		<tag k="alt_name" v="Olajordtind" />
		<tag k="fixme" v="consider natural=peak for the most distinct mountains in the district" />
		<tag k="name" v="Olajordtinden" />
		<tag k="natural" v="hill" />
		<tag k="place" v="locality" />
		<tag k="ssr:stedsnr" v="81484" />
	</node>
	<node id="-780141" lat="70.6179055572" lon="23.0710915927">
		<tag k="alt_name" v="Mørkedalen, l" />
		<tag k="name" v="Lille Mørkedalen" />
		<tag k="natural" v="valley" />
		<tag k="place" v="locality" />
		<tag k="ssr:stedsnr" v="81444" />
	</node>
	<node id="-780138" lat="70.5993999992" lon="22.9176527065">
		<tag k="name" v="Hamnefjorddalen" />
		<tag k="natural" v="valley" />
		<tag k="place" v="locality" />
		<tag k="ssr:stedsnr" v="81432" />
	</node>
	<node id="-780137" lat="70.5894055567" lon="22.9756027147">
		<tag k="name" v="Pederdalen" />
		<tag k="natural" v="valley" />
		<tag k="place" v="locality" />
		<tag k="ssr:stedsnr" v="81421" />
	</node>
	<node id="-780135" lat="70.7458805583" lon="22.8255555098">
		<tag k="name" v="Fuglberget" />
		<tag k="natural" v="hill" />
		<tag k="place" v="locality" />
		<tag k="ssr:stedsnr" v="81296" />
	</node>
	<node id="-780134" lat="70.7403638909" lon="23.2695749164">
		<tag k="fixme" v="consider natural=peak for the most distinct mountains in the district" />
		<tag k="name" v="Brennfjellet" />
		<tag k="natural" v="hill" />
		<tag k="place" v="locality" />
		<tag k="ssr:stedsnr" v="81294" />
	</node>
	<node id="-780130" lat="70.5807500055" lon="23.7881499168">
		<tag k="loc_name:se" v="Guohcačohkka" />
		<tag k="name" v="Grøtneshumpen" />
		<tag k="name:no" v="Grøtneshumpen" />
		<tag k="natural" v="hill" />
		<tag k="place" v="locality" />
		<tag k="ssr:stedsnr" v="81259" />
	</node>
	<node id="-780127" lat="70.5734472291" lon="23.5169360228">
		<tag k="name" v="Ánnásulvággi" />
		<tag k="name:se" v="Ánnásulvággi" />
		<tag k="natural" v="valley" />
		<tag k="old_name:se" v="Annasulvaggi" />
		<tag k="place" v="locality" />
		<tag k="ssr:stedsnr" v="81212" />
	</node>
	<node id="-780122" lat="70.7823638945" lon="23.3662193773">
		<tag k="fixme" v="consider natural=peak for the most distinct mountains in the district" />
		<tag k="name" v="Rossefjellet" />
		<tag k="natural" v="hill" />
		<tag k="place" v="locality" />
		<tag k="ssr:stedsnr" v="81156" />
	</node>
	<node id="-780120" lat="70.8074138939" lon="23.2120471662">
		<tag k="alt_name" v="Seihammaren, in" />
		<tag k="name" v="Indre Seihammaren" />
		<tag k="natural" v="hill" />
		<tag k="place" v="locality" />
		<tag k="ssr:stedsnr" v="81096" />
	</node>
	<node id="-780119" lat="70.7469944499" lon="23.7856499179">
		<tag k="name" v="Rødberga" />
		<tag k="natural" v="hill" />
		<tag k="place" v="locality" />
		<tag k="ssr:stedsnr" v="81090" />
	</node>
	<node id="-780118" lat="70.7462611133" lon="23.7574749204">
		<tag k="name" v="Franslia" />
		<tag k="natural" v="slope" />
		<tag k="place" v="locality" />
		<tag k="ssr:stedsnr" v="81089" />
	</node>
	<node id="-780114" lat="70.5071944507" lon="23.0955804783">
		<tag k="name" v="Seinesdalen" />
		<tag k="natural" v="valley" />
		<tag k="place" v="locality" />
		<tag k="ssr:stedsnr" v="81072" />
	</node>
	<node id="-780111" lat="70.7096361154" lon="23.7110249059">
		<tag k="fixme" v="consider natural=peak for the most distinct mountains in the district" />
		<tag k="name" v="Miillethárji" />
		<tag k="name:se" v="Miillethárji" />
		<tag k="natural" v="hill" />
		<tag k="old_name:se" v="Miiletharji" />
		<tag k="place" v="locality" />
		<tag k="ssr:stedsnr" v="81055" />
	</node>
	<node id="-780108" lat="70.6282861176" lon="23.086294375">
		<tag k="name" v="Klubben" />
		<tag k="natural" v="hill" />
		<tag k="place" v="locality" />
		<tag k="ssr:stedsnr" v="81033" />
	</node>
	<node id="-780105" lat="70.7362666703" lon="23.7756693478">
		<tag k="fixme" v="consider natural=peak for the most distinct mountains in the district" />
		<tag k="name" v="Forsøllitoppen - Muvravárri" />
		<tag k="name:no" v="Forsøllitoppen" />
		<tag k="name:se" v="Muvravárri" />
		<tag k="natural" v="hill" />
		<tag k="old_name:se" v="Muvravarri" />
		<tag k="place" v="locality" />
		<tag k="ssr:stedsnr" v="81102" />
	</node>
	<node id="-780104" lat="70.6952944491" lon="22.8797416165">
		<tag k="name" v="Storlia" />
		<tag k="natural" v="slope" />
		<tag k="place" v="locality" />
		<tag k="ssr:stedsnr" v="80488" />
	</node>
	<node id="-780098" lat="70.5732361169" lon="22.9544638233">
		<tag k="fixme" v="consider natural=peak for the most distinct mountains in the district" />
		<tag k="name" v="Risen" />
		<tag k="natural" v="hill" />
		<tag k="place" v="locality" />
		<tag k="ssr:stedsnr" v="80396" />
	</node>
	<node id="-780095" lat="70.6814444434" lon="23.0937915869">
		<tag k="fixme" v="consider natural=peak for the most distinct mountains in the district" />
		<tag k="name" v="Skogfjellet" />
		<tag k="natural" v="hill" />
		<tag k="place" v="locality" />
		<tag k="ssr:stedsnr" v="80457" />
	</node>
	<node id="-780093" lat="70.6127388917" lon="23.6990860281">
		<tag k="fixme" v="consider natural=peak for the most distinct mountains in the district" />
		<tag k="name" v="Rávdnjevárri" />
		<tag k="name:se" v="Rávdnjevárri" />
		<tag k="natural" v="hill" />
		<tag k="old_name:se" v="Ravdnjevarri" />
		<tag k="place" v="locality" />
		<tag k="ssr:stedsnr" v="80239" />
	</node>
	<node id="-780085" lat="70.4812555532" lon="23.1744332616">
		<tag k="name" v="Bohtalvággi" />
		<tag k="name:se" v="Bohtalvággi" />
		<tag k="natural" v="valley" />
		<tag k="old_name:se" v="Båttalvaggi" />
		<tag k="place" v="locality" />
		<tag k="ssr:stedsnr" v="80081" />
	</node>
	<node id="-780084" lat="70.4957472281" lon="23.2330443693">
		<tag k="name" v="Stuoraskoarru" />
		<tag k="name:se" v="Stuoraskoarru" />
		<tag k="natural" v="valley" />
		<tag k="old_name:se" v="Stuoraskoarro" />
		<tag k="place" v="locality" />
		<tag k="ssr:stedsnr" v="80078" />
	</node>
	<node id="-780082" lat="70.4660000037" lon="23.2874471374">
		<tag k="fixme" v="consider natural=peak for the most distinct mountains in the district" />
		<tag k="name" v="Hestfjell - Heasta" />
		<tag k="name:no" v="Hestfjell" />
		<tag k="name:se" v="Heasta" />
		<tag k="natural" v="hill" />
		<tag k="old_name:se" v="Hæsta" />
		<tag k="place" v="locality" />
		<tag k="ssr:stedsnr" v="80071" />
	</node>
	<node id="-780061" lat="70.6289222201" lon="23.6750304743">
		<tag k="alt_name" v="Vestredalen" />
		<tag k="name" v="Vesterdalen" />
		<tag k="natural" v="valley" />
		<tag k="place" v="locality" />
		<tag k="ssr:stedsnr" v="31239" />
	</node>
	<node id="-780054" lat="70.7182777841" lon="23.810819348">
		<tag k="name" v="Granberget" />
		<tag k="natural" v="hill" />
		<tag k="place" v="locality" />
		<tag k="ssr:stedsnr" v="31194" />
	</node>
	<node id="-780052" lat="70.6079750007" lon="23.6225554616">
		<tag k="name" v="Storhaugen" />
		<tag k="natural" v="hill" />
		<tag k="place" v="locality" />
		<tag k="ssr:stedsnr" v="31071" />
	</node>
	<node id="-780046" lat="70.6887694429" lon="23.5885832535">
		<tag k="name" v="Fyrberget" />
		<tag k="natural" v="hill" />
		<tag k="place" v="locality" />
		<tag k="ssr:stedsnr" v="30111" />
	</node>
	<node id="-780044" lat="70.6689361118" lon="23.7105610161">
		<tag k="fixme" v="consider natural=peak for the most distinct mountains in the district" />
		<tag k="loc_name:se" v="Mollavárri" />
		<tag k="name" v="Mollafjellet" />
		<tag k="name:no" v="Mollafjellet" />
		<tag k="natural" v="hill" />
		<tag k="place" v="locality" />
		<tag k="ssr:stedsnr" v="28804" />
	</node>
	<node id="-780043" lat="70.7069194495" lon="23.9202776908">
		<tag k="name" v="Russeguden" />
		<tag k="natural" v="hill" />
		<tag k="place" v="locality" />
		<tag k="ssr:stedsnr" v="24896" />
	</node>
	<node id="-780041" lat="70.6002277802" lon="23.8845776826">
		<tag k="name" v="Torskefjordhøyden" />
		<tag k="natural" v="hill" />
		<tag k="place" v="locality" />
		<tag k="ssr:stedsnr" v="24886" />
	</node>
	<node id="-780035" lat="70.6624944452" lon="22.9916471656">
		<tag k="alt_name" v="Straumtind" />
		<tag k="name" v="Straumtinden" />
		<tag k="natural" v="hill" />
		<tag k="place" v="locality" />
		<tag k="ssr:stedsnr" v="20441" />
	</node>
	<node id="-780034" lat="70.6553000043" lon="23.0712082667">
		<tag k="alt_name:no" v="Kuvikfjell" />
		<tag k="fixme" v="consider natural=peak for the most distinct mountains in the district" />
		<tag k="name" v="Kuvikfjellet - Gussarášša" />
		<tag k="name:no" v="Kuvikfjellet" />
		<tag k="name:se" v="Gussarášša" />
		<tag k="natural" v="hill" />
		<tag k="old_name:se" v="Gussarašša" />
		<tag k="place" v="locality" />
		<tag k="ssr:stedsnr" v="20437" />
	</node>
	<node id="-780028" lat="70.5657194444" lon="22.8622888171">
		<tag k="fixme" v="consider natural=peak for the most distinct mountains in the district" />
		<tag k="name" v="Trolltind" />
		<tag k="natural" v="hill" />
		<tag k="place" v="locality" />
		<tag k="ssr:stedsnr" v="20378" />
	</node>
	<node id="-780027" lat="70.5610527801" lon="22.84693605">
		<tag k="fixme" v="consider natural=peak for the most distinct mountains in the district" />
		<tag k="name" v="Vatnafjordfjellet" />
		<tag k="natural" v="hill" />
		<tag k="place" v="locality" />
		<tag k="ssr:stedsnr" v="20379" />
	</node>
	<node id="-780026" lat="70.5685194467" lon="22.8587082721">
		<tag k="name" v="Svartdalen" />
		<tag k="natural" v="valley" />
		<tag k="place" v="locality" />
		<tag k="ssr:stedsnr" v="20375" />
	</node>
	<node id="-780025" lat="70.5237277765" lon="22.7649277264">
		<tag k="fixme" v="consider natural=peak for the most distinct mountains in the district" />
		<tag k="name" v="Strandafjellet" />
		<tag k="natural" v="hill" />
		<tag k="place" v="locality" />
		<tag k="ssr:stedsnr" v="20313" />
	</node>
	<node id="-780017" lat="70.7607249987" lon="23.3721249202">
		<tag k="fixme" v="consider natural=peak for the most distinct mountains in the district" />
		<tag k="name" v="Ramntinden" />
		<tag k="natural" v="hill" />
		<tag k="place" v="locality" />
		<tag k="ssr:stedsnr" v="20178" />
	</node>
	<node id="-780015" lat="70.6428527782" lon="24.0153193456">
		<tag k="name" v="Torskefjorddalen - Olggut Dorskavuonávži" />
		<tag k="name:no" v="Torskefjorddalen" />
		<tag k="name:se" v="Olggut Dorskavuonávži" />
		<tag k="natural" v="valley" />
		<tag k="old_name:se" v="Dårskavuonavži, ålgot" />
		<tag k="place" v="locality" />
		<tag k="ssr:stedsnr" v="20139" />
	</node>
	<node id="-780005" lat="70.8078888883" lon="23.3245665926">
		<tag k="fixme" v="consider natural=peak for the most distinct mountains in the district" />
		<tag k="name" v="Sandfjellet" />
		<tag k="natural" v="hill" />
		<tag k="place" v="locality" />
		<tag k="ssr:stedsnr" v="20083" />
	</node>
	<node id="-779995" lat="70.6914472274" lon="23.6719526832">
		<tag k="fixme" v="consider natural=peak for the most distinct mountains in the district" />
		<tag k="name" v="Storfjellet - Boazovárri" />
		<tag k="name:no" v="Storfjellet" />
		<tag k="name:se" v="Boazovárri" />
		<tag k="natural" v="hill" />
		<tag k="old_name:se" v="Boazuvarri" />
		<tag k="place" v="locality" />
		<tag k="ssr:stedsnr" v="20050" />
	</node>
	<node id="-779992" lat="70.6701888945" lon="23.8933804549">
		<tag k="fixme" v="consider natural=peak for the most distinct mountains in the district" />
		<tag k="loc_name:se" v="Storvihvárri" />
		<tag k="name" v="Larsfjellet" />
		<tag k="name:no" v="Larsfjellet" />
		<tag k="natural" v="hill" />
		<tag k="place" v="locality" />
		<tag k="ssr:stedsnr" v="20016" />
	</node>
	<node id="-779989" lat="70.6857611158" lon="23.7864610213">
		<tag k="name" v="Kvalfjorddalen - Bollovággi" />
		<tag k="name:no" v="Kvalfjorddalen" />
		<tag k="name:se" v="Bollovággi" />
		<tag k="natural" v="valley" />
		<tag k="old_name:se" v="Bålluvaggi" />
		<tag k="place" v="locality" />
		<tag k="ssr:stedsnr" v="20003" />
	</node>
	<node id="-779988" lat="70.4665250024" lon="22.9695749365">
		<tag k="fixme" v="consider natural=peak for the most distinct mountains in the district" />
		<tag k="name" v="Sjutalet" />
		<tag k="natural" v="hill" />
		<tag k="place" v="locality" />
		<tag k="ssr:stedsnr" v="19048" />
	</node>
	<node id="-779987" lat="70.4069888894" lon="22.975249925">
		<tag k="name" v="Bårdfjorddalen - Viektavuonvággi" />
		<tag k="name:no" v="Bårdfjorddalen" />
		<tag k="name:se" v="Viektavuonvággi" />
		<tag k="natural" v="valley" />
		<tag k="old_name:se" v="Viektavuonvaggi" />
		<tag k="place" v="locality" />
		<tag k="ssr:stedsnr" v="19026" />
	</node>
	<node id="-779976" lat="70.5116805539" lon="23.0641388203">
		<tag k="name" v="Sørkollen" />
		<tag k="natural" v="hill" />
		<tag k="place" v="locality" />
		<tag k="ssr:stedsnr" v="882904" />
	</node>
	<node id="-779956" lat="70.7909555568" lon="23.1452971434">
		<tag k="fixme" v="consider natural=peak for the most distinct mountains in the district" />
		<tag k="name" v="Finnfjordfjellet" />
		<tag k="natural" v="hill" />
		<tag k="place" v="locality" />
		<tag k="ssr:stedsnr" v="396259" />
	</node>
	<node id="-779954" lat="70.7225944496" lon="23.7538637949">
		<tag k="fixme" v="consider natural=peak for the most distinct mountains in the district" />
		<tag k="name" v="Storfjellet" />
		<tag k="natural" v="hill" />
		<tag k="place" v="locality" />
		<tag k="ssr:stedsnr" v="395223" />
	</node>
	<node id="-779952" lat="70.6044194459" lon="23.6499888012">
		<tag k="name" v="Seihaugen" />
		<tag k="natural" v="hill" />
		<tag k="place" v="locality" />
		<tag k="ssr:stedsnr" v="395190" />
	</node>
	<node id="-779951" lat="70.6320416643" lon="23.6630332485">
		<tag k="name" v="Leirvikhaugen" />
		<tag k="natural" v="hill" />
		<tag k="place" v="locality" />
		<tag k="ssr:stedsnr" v="395183" />
	</node>
	<node id="-779949" lat="70.6480861139" lon="23.6395554584">
		<tag k="name" v="Langstranddalen" />
		<tag k="natural" v="valley" />
		<tag k="place" v="locality" />
		<tag k="ssr:stedsnr" v="395179" />
	</node>
	<node id="-779947" lat="70.6773666647" lon="23.6425971386">
		<tag k="name" v="Stigen" />
		<tag k="natural" v="slope" />
		<tag k="place" v="locality" />
		<tag k="ssr:stedsnr" v="394094" />
	</node>
	<node id="-779896" lat="70.6168861156" lon="23.7390776873">
		<tag k="fixme" v="consider natural=peak for the most distinct mountains in the district" />
		<tag k="name" v="Indrefjordtind" />
		<tag k="natural" v="hill" />
		<tag k="ssr:stedsnr" v="392830" />
	</node>
	<node id="-779892" lat="70.5712416699" lon="23.5163749119">
		<tag k="fixme" v="consider natural=peak for the most distinct mountains in the district" />
		<tag k="name" v="Melkartinden" />
		<tag k="natural" v="hill" />
		<tag k="ssr:stedsnr" v="388892" />
	</node>
	<node id="-779891" lat="70.6740750045" lon="23.7813582317">
		<tag k="name" v="Svartberget" />
		<tag k="natural" v="hill" />
		<tag k="place" v="locality" />
		<tag k="ssr:stedsnr" v="388878" />
	</node>
	<node id="-779890" lat="70.64267222" lon="23.839249911">
		<tag k="fixme" v="consider natural=peak for the most distinct mountains in the district" />
		<tag k="name" v="Vestfjellet" />
		<tag k="natural" v="hill" />
		<tag k="place" v="locality" />
		<tag k="ssr:stedsnr" v="388871" />
	</node>
	<node id="-779887" lat="70.4857583321" lon="23.090733263">
		<tag k="fixme" v="consider natural=peak for the most distinct mountains in the district" />
		<tag k="name" v="Lossefjellet - Lossavárri" />
		<tag k="name:no" v="Lossefjellet" />
		<tag k="name:se" v="Lossavárri" />
		<tag k="natural" v="hill" />
		<tag k="old_name:se" v="Låssavarri" />
		<tag k="place" v="locality" />
		<tag k="ssr:stedsnr" v="388073" />
	</node>
	<node id="-779885" lat="70.7082833353" lon="23.1629832547">
		<tag k="fixme" v="consider natural=peak for the most distinct mountains in the district" />
		<tag k="name" v="Værbotnhompen" />
		<tag k="natural" v="hill" />
		<tag k="place" v="locality" />
		<tag k="ssr:stedsnr" v="384491" />
	</node>
	<node id="-779881" lat="70.653647226" lon="23.1121971591">
		<tag k="name" v="Kuvikdalen" />
		<tag k="natural" v="valley" />
		<tag k="place" v="locality" />
		<tag k="ssr:stedsnr" v="384444" />
	</node>
	<node id="-779880" lat="70.6470416711" lon="22.9016360503">
		<tag k="fixme" v="consider natural=peak for the most distinct mountains in the district" />
		<tag k="name" v="Ulvetinden" />
		<tag k="natural" v="hill" />
		<tag k="place" v="locality" />
		<tag k="ssr:stedsnr" v="384439" />
	</node>
	<node id="-779876" lat="70.5928749971" lon="23.0326666062">
		<tag k="name" v="Hammarnakkan" />
		<tag k="natural" v="hill" />
		<tag k="place" v="locality" />
		<tag k="ssr:stedsnr" v="384402" />
	</node>
	<node id="-779869" lat="70.5293916695" lon="23.3304249214">
		<tag k="name" v="Vikahalsen" />
		<tag k="natural" v="valley" />
		<tag k="place" v="locality" />
		<tag k="ssr:stedsnr" v="384145" />
	</node>
	<node id="-779861" lat="70.8020666684" lon="23.3456360259">
		<tag k="name" v="Botnskaret" />
		<tag k="natural" v="valley" />
		<tag k="place" v="locality" />
		<tag k="ssr:stedsnr" v="384100" />
	</node>
	<node id="-779860" lat="70.4984055592" lon="23.0379554911">
		<tag k="alt_name" v="Vassvikdalen, nordre" />
		<tag k="name" v="Nordre Vassvikdalen" />
		<tag k="natural" v="valley" />
		<tag k="place" v="locality" />
		<tag k="ssr:stedsnr" v="384097" />
	</node>
	<node id="-779852" lat="70.8236750011" lon="23.3791916003">
		<tag k="fixme" v="consider natural=peak for the most distinct mountains in the district" />
		<tag k="name" v="Trollbuktfjellet" />
		<tag k="natural" v="hill" />
		<tag k="place" v="locality" />
		<tag k="ssr:stedsnr" v="384075" />
	</node>
	<node id="-779850" lat="70.6957500042" lon="23.7365360241">
		<tag k="name" v="Fuglenesdalen" />
		<tag k="natural" v="valley" />
		<tag k="place" v="locality" />
		<tag k="ssr:stedsnr" v="384068" />
	</node>
	<node id="-779847" lat="70.6541333374" lon="23.6742137972">
		<tag k="fixme" v="consider natural=peak for the most distinct mountains in the district" />
		<tag k="name" v="Salen - Rakča" />
		<tag k="name:no" v="Salen" />
		<tag k="name:se" v="Rakča" />
		<tag k="natural" v="hill" />
		<tag k="place" v="locality" />
		<tag k="ssr:stedsnr" v="384022" />
	</node>
	<node id="-779845" lat="70.6626972239" lon="24.0248860036">
		<tag k="fixme" v="consider natural=peak for the most distinct mountains in the district" />
		<tag k="name" v="Jalgesvárit" />
		<tag k="name:se" v="Jalgesvárit" />
		<tag k="natural" v="hill" />
		<tag k="old_name:se" v="Jalgesvarit" />
		<tag k="place" v="locality" />
		<tag k="ssr:stedsnr" v="384019" />
	</node>
	<node id="-779838" lat="70.6885138922" lon="22.8469832657">
		<tag k="name" v="Koppardalen - Gohppardálla" />
		<tag k="name:no" v="Koppardalen" />
		<tag k="name:se" v="Gohppardálla" />
		<tag k="natural" v="valley" />
		<tag k="place" v="locality" />
		<tag k="ssr:stedsnr" v="383498" />
	</node>
	<node id="-779837" lat="70.6792833353" lon="23.1090527119">
		<tag k="name" v="Låterhøyden" />
		<tag k="natural" v="hill" />
		<tag k="place" v="locality" />
		<tag k="ssr:stedsnr" v="383491" />
	</node>
	<node id="-779836" lat="70.5807833376" lon="23.3967860223">
		<tag k="name" v="Kokkeberget" />
		<tag k="natural" v="hill" />
		<tag k="place" v="locality" />
		<tag k="ssr:stedsnr" v="383412" />
	</node>
	<node id="-779827" lat="70.8632083374" lon="23.3222527028">
		<tag k="name" v="Tarhalsskaret" />
		<tag k="natural" v="valley" />
		<tag k="place" v="locality" />
		<tag k="ssr:stedsnr" v="383114" />
	</node>
	<node id="-779826" lat="70.4761027802" lon="23.2081138205">
		<tag k="fixme" v="consider natural=peak for the most distinct mountains in the district" />
		<tag k="loc_name" v="Gåsoppfjellet" />
		<tag k="name" v="Hakkfjellet" />
		<tag k="natural" v="hill" />
		<tag k="place" v="locality" />
		<tag k="ssr:stedsnr" v="383073" />
	</node>
	<node id="-779825" lat="70.4710777763" lon="23.1025888209">
		<tag k="name" v="Sørdalen" />
		<tag k="natural" v="valley" />
		<tag k="place" v="locality" />
		<tag k="ssr:stedsnr" v="383070" />
	</node>
	<node id="-779824" lat="70.4699750015" lon="23.0206193754">
		<tag k="alt_name:no" v="Bumannsfjorddalen, nordre" />
		<tag k="name" v="Nordre Bumannsfjorddalen - Nuorttat Dáččavuonvággi" />
		<tag k="name:no" v="Nordre Bumannsfjorddalen" />
		<tag k="name:se" v="Nuorttat Dáččavuonvággi" />
		<tag k="natural" v="valley" />
		<tag k="old_name:se" v="Dažžavuonvaggi nuortat" />
		<tag k="place" v="locality" />
		<tag k="ssr:stedsnr" v="383066" />
	</node>
	<node id="-779822" lat="70.4365416661" lon="22.9272360435">
		<tag k="fixme" v="consider natural=peak for the most distinct mountains in the district" />
		<tag k="name" v="Bårdfjordfjell - Dáččavuongáisá" />
		<tag k="name:no" v="Bårdfjordfjell" />
		<tag k="name:se" v="Dáččavuongáisá" />
		<tag k="natural" v="hill" />
		<tag k="old_name:se" v="Dažžavuongaisa" />
		<tag k="place" v="locality" />
		<tag k="ssr:stedsnr" v="383055" />
	</node>
	<node id="-779821" lat="70.4186722251" lon="22.9481721578">
		<tag k="name" v="Gumpečohkavággi" />
		<tag k="name:se" v="Gumpečohkavággi" />
		<tag k="natural" v="valley" />
		<tag k="old_name:se" v="Gumpečåkkavaggi" />
		<tag k="place" v="locality" />
		<tag k="ssr:stedsnr" v="383050" />
	</node>
	<node id="-779796" lat="70.6089249992" lon="23.6554693518">
		<tag k="alt_name" v="Sjurdberget" />
		<tag k="name" v="Sjurberget" />
		<tag k="natural" v="hill" />
		<tag k="place" v="locality" />
		<tag k="ssr:stedsnr" v="334176" />
	</node>
	<node id="-779794" lat="70.6886472251" lon="23.5974221301">
		<tag k="name" v="Ravneberget" />
		<tag k="natural" v="hill" />
		<tag k="place" v="locality" />
		<tag k="ssr:stedsnr" v="334095" />
	</node>
	<node id="-779788" lat="70.4787222206" lon="23.4273110343">
		<tag k="fixme" v="consider natural=peak for the most distinct mountains in the district" />
		<tag k="name" v="Suolorášša" />
		<tag k="name:se" v="Suolorášša" />
		<tag k="natural" v="hill" />
		<tag k="old_name:se" v="Suolurašša" />
		<tag k="place" v="locality" />
		<tag k="ssr:stedsnr" v="323971" />
	</node>
	<node id="-779786" lat="70.7110250043" lon="23.0899860499">
		<tag k="fixme" v="consider natural=peak for the most distinct mountains in the district" />
		<tag k="name" v="Blåfjellet" />
		<tag k="natural" v="hill" />
		<tag k="place" v="locality" />
		<tag k="ssr:stedsnr" v="323502" />
	</node>
	<node id="-779784" lat="70.6874805604" lon="23.2222721478">
		<tag k="name" v="Svartbotn" />
		<tag k="natural" v="valley" />
		<tag k="place" v="locality" />
		<tag k="ssr:stedsnr" v="323491" />
	</node>
	<node id="-779778" lat="70.6529000015" lon="22.9301277227">
		<tag k="fixme" v="consider natural=peak for the most distinct mountains in the district" />
		<tag k="name" v="Jernfjellet" />
		<tag k="natural" v="hill" />
		<tag k="place" v="locality" />
		<tag k="ssr:stedsnr" v="323441" />
	</node>
	<node id="-779776" lat="70.6323749986" lon="23.0266554944">
		<tag k="name" v="Slettnesfjorddalen" />
		<tag k="natural" v="valley" />
		<tag k="place" v="locality" />
		<tag k="ssr:stedsnr" v="323430" />
	</node>
	<node id="-779772" lat="70.5778888933" lon="22.8819166148">
		<tag k="name" v="Polldalen" />
		<tag k="natural" v="valley" />
		<tag k="place" v="locality" />
		<tag k="ssr:stedsnr" v="323391" />
	</node>
	<node id="-779765" lat="70.7214027752" lon="23.2111221528">
		<tag k="fixme" v="consider natural=peak for the most distinct mountains in the district" />
		<tag k="name" v="Steinfjellet" />
		<tag k="natural" v="hill" />
		<tag k="place" v="locality" />
		<tag k="ssr:stedsnr" v="323258" />
	</node>
	<node id="-779764" lat="70.5911000073" lon="23.7573026829">
		<tag k="fixme" v="consider natural=peak for the most distinct mountains in the district" />
		<tag k="name" v="Mollstrandfjellet - Molstrandráŋŋa" />
		<tag k="name:no" v="Mollstrandfjellet" />
		<tag k="name:se" v="Molstrandráŋŋa" />
		<tag k="natural" v="hill" />
		<tag k="place" v="locality" />
		<tag k="ssr:stedsnr" v="323255" />
	</node>
	<node id="-779755" lat="70.7790527793" lon="23.3288721448">
		<tag k="fixme" v="multiple name tags, choose one and add the other to alt_name" />
		<tag k="name" v="Vesterelvdalen;Vestrelodalen" />
		<tag k="natural" v="valley" />
		<tag k="place" v="locality" />
		<tag k="ssr:stedsnr" v="323172" />
	</node>
	<node id="-779751" lat="70.8508388928" lon="23.0677610491">
		<tag k="name" v="Lillestauren" />
		<tag k="natural" v="hill" />
		<tag k="place" v="locality" />
		<tag k="ssr:stedsnr" v="323127" />
	</node>
	<node id="-779750" lat="70.8480500043" lon="23.3139610407">
		<tag k="fixme" v="consider natural=peak for the most distinct mountains in the district" />
		<tag k="name" v="Høgfjellet" />
		<tag k="natural" v="hill" />
		<tag k="place" v="locality" />
		<tag k="ssr:stedsnr" v="323125" />
	</node>
	<node id="-779746" lat="70.4962138909" lon="23.2004638025">
		<tag k="name" v="Mårkedalen" />
		<tag k="natural" v="valley" />
		<tag k="place" v="locality" />
		<tag k="ssr:stedsnr" v="323081" />
	</node>
	<node id="-779744" lat="70.6922555602" lon="23.7648610215">
		<tag k="name" v="Fállevággi" />
		<tag k="name:se" v="Fállevággi" />
		<tag k="natural" v="valley" />
		<tag k="old_name:se" v="Fallevaggi" />
		<tag k="place" v="locality" />
		<tag k="ssr:stedsnr" v="323067" />
	</node>
	<node id="-779742" lat="70.7011527776" lon="23.683180454">
		<tag k="fixme" v="consider natural=peak for the most distinct mountains in the district" />
		<tag k="name" v="Steinfjellet - Miilletaláš" />
		<tag k="name:no" v="Steinfjellet" />
		<tag k="name:se" v="Miilletaláš" />
		<tag k="natural" v="hill" />
		<tag k="old_name:se" v="Miiletalaš" />
		<tag k="place" v="locality" />
		<tag k="ssr:stedsnr" v="323054" />
	</node>
	<node id="-779740" lat="70.6266611138" lon="23.9894304557">
		<tag k="fixme" v="consider natural=peak for the most distinct mountains in the district" />
		<tag k="name" v="Blåhukerten - Dorskavuončohkka" />
		<tag k="name:no" v="Blåhukerten" />
		<tag k="name:se" v="Dorskavuončohkka" />
		<tag k="natural" v="hill" />
		<tag k="old_name:se" v="Dårskavuončåkka" />
		<tag k="place" v="locality" />
		<tag k="ssr:stedsnr" v="323022" />
	</node>
	<node id="-779737" lat="70.6777138889" lon="23.7248026977">
		<tag k="fixme" v="consider natural=peak for the most distinct mountains in the district" />
		<tag k="name" v="Muotkevárri" />
		<tag k="name:se" v="Muotkevárri" />
		<tag k="natural" v="hill" />
		<tag k="old_name:se" v="Muotkevarri" />
		<tag k="place" v="locality" />
		<tag k="ssr:stedsnr" v="323001" />
	</node>
	<node id="-779734" lat="70.4134361126" lon="22.9582804974">
		<tag k="name" v="Pederdalen" />
		<tag k="natural" v="valley" />
		<tag k="place" v="locality" />
		<tag k="ssr:stedsnr" v="322046" />
	</node>
	<node id="-779717" lat="70.8486805564" lon="23.310208255">
		<tag k="name" v="Storefjell" />
		<tag k="natural" v="hill" />
		<tag k="place" v="locality" />
		<tag k="ssr:stedsnr" v="275446" />
	</node>
	<node id="-779715" lat="70.6687694488" lon="23.6594721342">
		<tag k="name" v="Skansen" />
		<tag k="place" v="locality" />
		<tag k="ssr:stedsnr" v="275406" />
	</node>
	<node id="-779710" lat="70.8083305605" lon="23.1269860379">
		<tag k="name" v="Tjaula" />
		<tag k="natural" v="hill" />
		<tag k="place" v="locality" />
		<tag k="ssr:stedsnr" v="275231" />
	</node>
	<node id="-779706" lat="70.6793527825" lon="23.7053249184">
		<tag k="name" v="Stordalen" />
		<tag k="natural" v="valley" />
		<tag k="place" v="locality" />
		<tag k="ssr:stedsnr" v="274205" />
	</node>
	<node id="-779703" lat="70.7124194443" lon="23.7788026793">
		<tag k="fixme" v="consider natural=peak for the most distinct mountains in the district" />
		<tag k="name" v="Tovassfjellet" />
		<tag k="natural" v="hill" />
		<tag k="place" v="locality" />
		<tag k="ssr:stedsnr" v="274182" />
	</node>
	<node id="-779698" lat="70.6471361153" lon="23.6824749239">
		<tag k="name" v="Jegerfrubakken" />
		<tag k="natural" v="slope" />
		<tag k="place" v="locality" />
		<tag k="ssr:stedsnr" v="273165" />
	</node>
	<node id="-779697" lat="70.6832333367" lon="23.6481388024">
		<tag k="name" v="Melandsdalen" />
		<tag k="natural" v="valley" />
		<tag k="place" v="locality" />
		<tag k="ssr:stedsnr" v="273131" />
	</node>
	<node id="-781325" lat="70.5828193252" lon="23.4783435315">
		<tag k="name" v="Jussagohppi" />
		<tag k="name:se" v="Jussagohppi" />
		<tag k="natural" v="valley" />
		<tag k="place" v="locality" />
		<tag k="ssr:stedsnr" v="975949" />
	</node>
	<node id="-781305" lat="70.4933305595" lon="23.1151971665">
		<tag k="fixme" v="consider natural=peak for the most distinct mountains in the district" />
		<tag k="name" v="Ørntinden - Goaskinčohkka" />
		<tag k="name:no" v="Ørntinden" />
		<tag k="name:se" v="Goaskinčohkka" />
		<tag k="natural" v="hill" />
		<tag k="place" v="locality" />
		<tag k="ssr:stedsnr" v="967544" />
	</node>
	<node id="-781290" lat="70.6725111105" lon="23.0038304894">
		<tag k="name" v="Sandøybotn" />
		<tag k="natural" v="valley" />
		<tag k="place" v="locality" />
		<tag k="ssr:stedsnr" v="943534" />
	</node>
	<node id="-781287" lat="70.581950001" lon="23.692222134">
		<tag k="name" v="Madamskogen" />
		<tag k="natural" v="slope" />
		<tag k="place" v="locality" />
		<tag k="ssr:stedsnr" v="942400" />
	</node>
	<node id="-781284" lat="70.5743527827" lon="23.6960887857">
		<tag k="name" v="Storlia" />
		<tag k="natural" v="slope" />
		<tag k="place" v="locality" />
		<tag k="ssr:stedsnr" v="941219" />
	</node>
	<node id="-781283" lat="70.6701388907" lon="23.695361027">
		<tag k="name" v="Hamran" />
		<tag k="natural" v="hill" />
		<tag k="place" v="locality" />
		<tag k="ssr:stedsnr" v="941215" />
	</node>
	<node id="-781279" lat="70.7162500038" lon="23.8101276851">
		<tag k="fixme" v="consider natural=peak for the most distinct mountains in the district" />
		<tag k="name" v="Middagsfjellet" />
		<tag k="natural" v="hill" />
		<tag k="place" v="locality" />
		<tag k="ssr:stedsnr" v="941187" />
	</node>
	<node id="-781277" lat="70.6039888931" lon="23.6653499199">
		<tag k="fixme" v="consider natural=peak for the most distinct mountains in the district" />
		<tag k="name" v="Stabbfjellet" />
		<tag k="natural" v="hill" />
		<tag k="place" v="locality" />
		<tag k="ssr:stedsnr" v="941165" />
	</node>
	<node id="-781273" lat="70.6923944465" lon="23.607288794">
		<tag k="name" v="Brattlia" />
		<tag k="natural" v="slope" />
		<tag k="place" v="locality" />
		<tag k="ssr:stedsnr" v="941098" />
	</node>
	<node id="-781269" lat="70.6023222295" lon="23.5972804606">
		<tag k="name" v="Fyrnakken" />
		<tag k="natural" v="hill" />
		<tag k="place" v="locality" />
		<tag k="ssr:stedsnr" v="941058" />
	</node>
	<node id="-781267" lat="70.6774499993" lon="23.688102672">
		<tag k="name" v="Lilledalen" />
		<tag k="natural" v="valley" />
		<tag k="place" v="locality" />
		<tag k="ssr:stedsnr" v="938777" />
	</node>
	<node id="-781263" lat="70.6891361168" lon="22.9901554858">
		<tag k="name" v="Lilleklubben" />
		<tag k="natural" v="hill" />
		<tag k="place" v="locality" />
		<tag k="ssr:stedsnr" v="930502" />
	</node>
	<node id="-781261" lat="70.6871611163" lon="22.8935610565">
		<tag k="name" v="Djupberget" />
		<tag k="natural" v="hill" />
		<tag k="place" v="locality" />
		<tag k="ssr:stedsnr" v="930491" />
	</node>
	<node id="-781258" lat="70.6585055535" lon="23.1795471485">
		<tag k="name" v="Varden" />
		<tag k="natural" v="hill" />
		<tag k="place" v="locality" />
		<tag k="ssr:stedsnr" v="930469" />
	</node>
	<node id="-781257" lat="70.6455916653" lon="22.9302832795">
		<tag k="alt_name" v="Jernfjellet, øvre" />
		<tag k="fixme" v="consider natural=peak for the most distinct mountains in the district" />
		<tag k="name" v="Øvre Jernfjell" />
		<tag k="natural" v="hill" />
		<tag k="place" v="locality" />
		<tag k="ssr:stedsnr" v="930456" />
	</node>
	<node id="-781254" lat="70.6202666682" lon="23.0641221569">
		<tag k="name" v="Dragnesaksla" />
		<tag k="natural" v="hill" />
		<tag k="place" v="locality" />
		<tag k="ssr:stedsnr" v="930436" />
	</node>
	<node id="-781251" lat="70.602516669" lon="23.075374934">
		<tag k="fixme" v="consider natural=peak for the most distinct mountains in the district" />
		<tag k="name" v="Urtinden" />
		<tag k="natural" v="hill" />
		<tag k="place" v="locality" />
		<tag k="ssr:stedsnr" v="930414" />
	</node>
	<node id="-781238" lat="70.7719388906" lon="23.2351249432">
		<tag k="alt_name" v="Bastafjordfjellet" />
		<tag k="fixme" v="consider natural=peak for the most distinct mountains in the district" />
		<tag k="name" v="Finnfjordhompen" />
		<tag k="natural" v="hill" />
		<tag k="place" v="locality" />
		<tag k="ssr:stedsnr" v="930167" />
	</node>
	<node id="-781234" lat="70.80200834" lon="23.4186026983">
		<tag k="fixme" v="consider natural=peak for the most distinct mountains in the district" />
		<tag k="name" v="Fuglefjellet" />
		<tag k="natural" v="hill" />
		<tag k="place" v="locality" />
		<tag k="ssr:stedsnr" v="930151" />
	</node>
	<node id="-781233" lat="70.6711944446" lon="24.0071249017">
		<tag k="fixme" v="consider natural=peak for the most distinct mountains in the district" />
		<tag k="name" v="Hukerten" />
		<tag k="natural" v="hill" />
		<tag k="place" v="locality" />
		<tag k="ssr:stedsnr" v="930133" />
	</node>
	<node id="-781231" lat="70.848750005" lon="23.0670916037">
		<tag k="name" v="Hatten" />
		<tag k="natural" v="hill" />
		<tag k="place" v="locality" />
		<tag k="ssr:stedsnr" v="930120" />
	</node>
	<node id="-781230" lat="70.5381416711" lon="22.9184610499">
		<tag k="name" v="Hamneaksla" />
		<tag k="natural" v="hill" />
		<tag k="place" v="locality" />
		<tag k="ssr:stedsnr" v="930118" />
	</node>
	<node id="-781227" lat="70.8126444494" lon="23.2058193811">
		<tag k="alt_name" v="Seihammaren, yt" />
		<tag k="fixme" v="multiple name tags, choose one and add the other to alt_name" />
		<tag k="name" v="Seglhammaren;Ytre Seihammaren" />
		<tag k="natural" v="hill" />
		<tag k="place" v="locality" />
		<tag k="ssr:stedsnr" v="930099" />
	</node>
	<node id="-781226" lat="70.8059555538" lon="23.1138082785">
		<tag k="fixme" v="consider natural=peak for the most distinct mountains in the district" />
		<tag k="name" v="Saksnæringtindane" />
		<tag k="natural" v="hill" />
		<tag k="place" v="locality" />
		<tag k="ssr:stedsnr" v="930093" />
	</node>
	<node id="-781220" lat="70.6908583364" lon="23.6473999169">
		<tag k="alt_name:no" v="Vedhammeren" />
		<tag k="loc_name:se" v="Mielkenjunni" />
		<tag k="name" v="Vedhammaren" />
		<tag k="name:no" v="Vedhammaren" />
		<tag k="natural" v="hill" />
		<tag k="place" v="locality" />
		<tag k="ssr:stedsnr" v="930058" />
	</node>
	<node id="-781216" lat="70.6237861126" lon="23.7006943481">
		<tag k="loc_name:se" v="Lávželuohvággi" />
		<tag k="name" v="Indrefjorddalen" />
		<tag k="name:no" v="Indrefjorddalen" />
		<tag k="natural" v="valley" />
		<tag k="place" v="locality" />
		<tag k="ssr:stedsnr" v="930024" />
	</node>
	<node id="-781214" lat="70.4811777823" lon="23.3279721405">
		<tag k="fixme" v="consider natural=peak for the most distinct mountains in the district" />
		<tag k="name" v="Stormastra" />
		<tag k="natural" v="hill" />
		<tag k="place" v="locality" />
		<tag k="ssr:stedsnr" v="929055" />
	</node>
	<node id="-781210" lat="70.396941665" lon="22.964219379">
		<tag k="fixme" v="consider natural=peak for the most distinct mountains in the district" />
		<tag k="name" v="Unna Káráš" />
		<tag k="name:se" v="Unna Káráš" />
		<tag k="natural" v="hill" />
		<tag k="old_name:se" v="Karaš, unna" />
		<tag k="place" v="locality" />
		<tag k="ssr:stedsnr" v="929018" />
	</node>
	<node id="-781206" lat="70.6221277767" lon="23.6842082515">
		<tag k="name" v="Djupdalen" />
		<tag k="natural" v="valley" />
		<tag k="place" v="locality" />
		<tag k="ssr:stedsnr" v="881225" />
	</node>
	<node id="-781205" lat="70.6217527778" lon="23.6730776822">
		<tag k="name" v="Lillevassdalen" />
		<tag k="natural" v="valley" />
		<tag k="place" v="locality" />
		<tag k="ssr:stedsnr" v="881226" />
	</node>
	<node id="-781203" lat="70.663061117" lon="23.7259915795">
		<tag k="name" v="Sætergamdalen" />
		<tag k="natural" v="valley" />
		<tag k="place" v="locality" />
		<tag k="ssr:stedsnr" v="881195" />
	</node>
	<node id="-781202" lat="70.6658333365" lon="23.7104388074">
		<tag k="name" v="Breilia" />
		<tag k="natural" v="slope" />
		<tag k="place" v="locality" />
		<tag k="ssr:stedsnr" v="881192" />
	</node>
	<node id="-781199" lat="70.6033833346" lon="23.6938665668">
		<tag k="name" v="Sandfallet" />
		<tag k="natural" v="slope" />
		<tag k="place" v="locality" />
		<tag k="ssr:stedsnr" v="881143" />
	</node>
	<node id="-781198" lat="70.6421333376" lon="23.6811804677">
		<tag k="fixme" v="consider natural=peak for the most distinct mountains in the district" />
		<tag k="name" v="Bjørkåsen" />
		<tag k="natural" v="hill" />
		<tag k="place" v="locality" />
		<tag k="ssr:stedsnr" v="880155" />
	</node>
	<node id="-781197" lat="70.6553638926" lon="23.7237110294">
		<tag k="name" v="Tunnelbakken" />
		<tag k="natural" v="slope" />
		<tag k="place" v="locality" />
		<tag k="ssr:stedsnr" v="880144" />
	</node>
	<node id="-781194" lat="70.6027666738" lon="23.8079776745">
		<tag k="name" v="Montenegrohøyden" />
		<tag k="natural" v="hill" />
		<tag k="place" v="locality" />
		<tag k="ssr:stedsnr" v="874879" />
	</node>
	<node id="-781182" lat="70.7351305585" lon="23.369858272">
		<tag k="name" v="Skippernestinden" />
		<tag k="natural" v="hill" />
		<tag k="place" v="locality" />
		<tag k="ssr:stedsnr" v="870305" />
	</node>
	<node id="-781178" lat="70.7685750019" lon="23.1859304925">
		<tag k="fixme" v="consider natural=peak for the most distinct mountains in the district" />
		<tag k="name" v="Hårfjellet" />
		<tag k="natural" v="hill" />
		<tag k="place" v="locality" />
		<tag k="ssr:stedsnr" v="870198" />
	</node>
	<node id="-781166" lat="70.6878222241" lon="23.0239860359">
		<tag k="fixme" v="consider natural=peak for the most distinct mountains in the district" />
		<tag k="name" v="Ramsslåtten" />
		<tag k="natural" v="hill" />
		<tag k="place" v="locality" />
		<tag k="ssr:stedsnr" v="869517" />
	</node>
	<node id="-781153" lat="70.5366583317" lon="23.2755332579">
		<tag k="name" v="Jøfjordveggen" />
		<tag k="natural" v="slope" />
		<tag k="place" v="locality" />
		<tag k="ssr:stedsnr" v="869122" />
	</node>
	<node id="-781148" lat="70.4986722262" lon="23.2350832597">
		<tag k="fixme" v="consider natural=peak for the most distinct mountains in the district" />
		<tag k="name" v="Sautind" />
		<tag k="natural" v="hill" />
		<tag k="place" v="locality" />
		<tag k="ssr:stedsnr" v="869082" />
	</node>
	<node id="-781145" lat="70.4525777828" lon="23.2659693654">
		<tag k="fixme" v="consider natural=peak for the most distinct mountains in the district" />
		<tag k="name" v="Breidhovdet - Govdoaivi" />
		<tag k="name:no" v="Breidhovdet" />
		<tag k="name:se" v="Govdoaivi" />
		<tag k="natural" v="hill" />
		<tag k="old_name:se" v="Gåvdoaivi" />
		<tag k="place" v="locality" />
		<tag k="ssr:stedsnr" v="869062" />
	</node>
	<node id="-781119" lat="70.620699999" lon="23.6579387929">
		<tag k="name" v="Strupen" />
		<tag k="natural" v="valley" />
		<tag k="place" v="locality" />
		<tag k="ssr:stedsnr" v="820193" />
	</node>
	<node id="-781116" lat="70.6398555594" lon="23.7468193442">
		<tag k="name" v="Freidigholla" />
		<tag k="natural" v="valley" />
		<tag k="place" v="locality" />
		<tag k="ssr:stedsnr" v="819176" />
	</node>
	<node id="-781112" lat="70.5908861107" lon="23.4781082468">
		<tag k="fixme" v="consider natural=peak for the most distinct mountains in the district" />
		<tag k="name" v="Tjukkfjellet - Gassavárri" />
		<tag k="name:no" v="Tjukkfjellet" />
		<tag k="name:se" v="Gassavárri" />
		<tag k="natural" v="hill" />
		<tag k="old_name:se" v="Gassavarri" />
		<tag k="place" v="locality" />
		<tag k="ssr:stedsnr" v="815237" />
	</node>
	<node id="-781108" lat="70.6996027779" lon="23.1156832753">
		<tag k="fixme" v="consider natural=peak for the most distinct mountains in the district" />
		<tag k="name" v="Skillefjellet" />
		<tag k="natural" v="hill" />
		<tag k="place" v="locality" />
		<tag k="ssr:stedsnr" v="809508" />
	</node>
	<node id="-781102" lat="70.6449611123" lon="23.1166054875">
		<tag k="alt_name" v="Bollevasstind" />
		<tag k="fixme" v="consider natural=peak for the most distinct mountains in the district" />
		<tag k="name" v="Bollvasstinden" />
		<tag k="natural" v="hill" />
		<tag k="place" v="locality" />
		<tag k="ssr:stedsnr" v="809460" />
	</node>
	<node id="-781100" lat="70.6347111163" lon="23.1148138265">
		<tag k="name" v="Brønnaksla" />
		<tag k="natural" v="hill" />
		<tag k="place" v="locality" />
		<tag k="ssr:stedsnr" v="809456" />
	</node>
	<node id="-781097" lat="70.7313888941" lon="23.1163332821">
		<tag k="name" v="Vesterskaret" />
		<tag k="natural" v="valley" />
		<tag k="place" v="locality" />
		<tag k="ssr:stedsnr" v="809295" />
	</node>
	<node id="-781096" lat="70.7302944505" lon="23.3625860285">
		<tag k="name" v="Skippernesklubben" />
		<tag k="natural" v="hill" />
		<tag k="place" v="locality" />
		<tag k="ssr:stedsnr" v="809291" />
	</node>
	<node id="-781087" lat="70.7703472286" lon="23.1446499342">
		<tag k="name" v="Sæterdalen" />
		<tag k="natural" v="valley" />
		<tag k="place" v="locality" />
		<tag k="ssr:stedsnr" v="809171" />
	</node>
	<node id="-781085" lat="70.5382250028" lon="23.196822163">
		<tag k="name" v="Kobbevikdalen" />
		<tag k="natural" v="valley" />
		<tag k="place" v="locality" />
		<tag k="ssr:stedsnr" v="809131" />
	</node>
	<node id="-781074" lat="70.7138138893" lon="23.651833245">
		<tag k="loc_name:se" v="Miilletnjunni" />
		<tag k="name" v="Skarvberget" />
		<tag k="name:no" v="Skarvberget" />
		<tag k="natural" v="hill" />
		<tag k="place" v="locality" />
		<tag k="ssr:stedsnr" v="809054" />
	</node>
	<node id="-781071" lat="70.6371583404" lon="23.8578526794">
		<tag k="fixme" v="consider natural=peak for the most distinct mountains in the district" />
		<tag k="name" v="Lássesvárri" />
		<tag k="name:se" v="Lássesvárri" />
		<tag k="natural" v="hill" />
		<tag k="old_name:se" v="Lassesvarri" />
		<tag k="place" v="locality" />
		<tag k="ssr:stedsnr" v="809028" />
	</node>
	<node id="-781068" lat="70.6737916718" lon="23.7879415721">
		<tag k="fixme" v="consider natural=peak for the most distinct mountains in the district" />
		<tag k="name" v="Kvalfjordtinden - Guhkeshárji" />
		<tag k="name:no" v="Kvalfjordtinden" />
		<tag k="name:se" v="Guhkeshárji" />
		<tag k="natural" v="hill" />
		<tag k="old_name:se" v="Gukkesharji" />
		<tag k="place" v="locality" />
		<tag k="ssr:stedsnr" v="809014" />
	</node>
	<node id="-781067" lat="70.5667777829" lon="22.975230482">
		<tag k="name" v="Elvedalen" />
		<tag k="natural" v="valley" />
		<tag k="place" v="locality" />
		<tag k="ssr:stedsnr" v="808376" />
	</node>
	<node id="-781063" lat="70.532872224" lon="22.8003916106">
		<tag k="fixme" v="consider natural=peak for the most distinct mountains in the district" />
		<tag k="name" v="Straumfjellet" />
		<tag k="natural" v="hill" />
		<tag k="place" v="locality" />
		<tag k="ssr:stedsnr" v="808285" />
	</node>
	<node id="-781034" lat="70.5846499985" lon="23.7097388021">
		<tag k="fixme" v="consider natural=peak for the most distinct mountains in the district" />
		<tag k="name" v="Grøtnesfjellet" />
		<tag k="natural" v="hill" />
		<tag k="place" v="locality" />
		<tag k="ssr:stedsnr" v="759225" />
	</node>
	<node id="-781032" lat="70.7189416728" lon="23.8183554566">
		<tag k="name" v="Kråkbergan" />
		<tag k="natural" v="hill" />
		<tag k="place" v="locality" />
		<tag k="ssr:stedsnr" v="759203" />
	</node>
	<node id="-781028" lat="70.6115305528" lon="23.6657249191">
		<tag k="name" v="Pederskaret" />
		<tag k="natural" v="valley" />
		<tag k="place" v="locality" />
		<tag k="ssr:stedsnr" v="759180" />
	</node>
	<node id="-781024" lat="70.6165722247" lon="23.6448582504">
		<tag k="name" v="Lillevikhøgda" />
		<tag k="natural" v="hill" />
		<tag k="place" v="locality" />
		<tag k="ssr:stedsnr" v="759159" />
	</node>
	<node id="-781023" lat="70.6559888895" lon="23.7121249197">
		<tag k="name" v="Gratishaugen" />
		<tag k="natural" v="hill" />
		<tag k="place" v="locality" />
		<tag k="ssr:stedsnr" v="759154" />
	</node>
	<node id="-781019" lat="70.6076055609" lon="23.6141721252">
		<tag k="alt_name" v="Kvannsloka" />
		<tag k="name" v="Kvannslåka" />
		<tag k="natural" v="valley" />
		<tag k="place" v="locality" />
		<tag k="ssr:stedsnr" v="759065" />
	</node>
	<node id="-781017" lat="70.681324999" lon="23.8024637897">
		<tag k="fixme" v="consider natural=peak for the most distinct mountains in the district" />
		<tag k="name" v="Kvalfjordtind - Bolloaivi" />
		<tag k="name:no" v="Kvalfjordtind" />
		<tag k="name:se" v="Bolloaivi" />
		<tag k="natural" v="hill" />
		<tag k="ssr:stedsnr" v="756787" />
	</node>
	<node id="-781016" lat="70.6018333338" lon="23.7214415626">
		<tag k="fixme" v="consider natural=peak for the most distinct mountains in the district" />
		<tag k="name" v="Svarthammeren" />
		<tag k="natural" v="hill" />
		<tag k="place" v="locality" />
		<tag k="ssr:stedsnr" v="752881" />
	</node>
	<node id="-781007" lat="70.699205559" lon="22.8560304911">
		<tag k="fixme" v="consider natural=peak for the most distinct mountains in the district" />
		<tag k="name" v="Koppardalfjellet" />
		<tag k="natural" v="hill" />
		<tag k="place" v="locality" />
		<tag k="ssr:stedsnr" v="748506" />
	</node>
	<node id="-781006" lat="70.6546805576" lon="22.9554471603">
		<tag k="fixme" v="consider natural=peak for the most distinct mountains in the district" />
		<tag k="name" v="Tverrfjellet" />
		<tag k="natural" v="hill" />
		<tag k="place" v="locality" />
		<tag k="ssr:stedsnr" v="748447" />
	</node>
	<node id="-781004" lat="70.6442194452" lon="23.050338819">
		<tag k="name" v="Straumsletta" />
		<tag k="place" v="locality" />
		<tag k="ssr:stedsnr" v="748436" />
	</node>
	<node id="-781003" lat="70.6333361126" lon="23.072705483">
		<tag k="name" v="Skardberget" />
		<tag k="natural" v="hill" />
		<tag k="place" v="locality" />
		<tag k="ssr:stedsnr" v="748431" />
	</node>
	<node id="-781002" lat="70.6169777835" lon="23.0819388275">
		<tag k="alt_name" v="Mørkedalen, store" />
		<tag k="fixme" v="multiple name tags, choose one and add the other to alt_name" />
		<tag k="name" v="Mørkedalen;Store Mørkedalen" />
		<tag k="natural" v="valley" />
		<tag k="place" v="locality" />
		<tag k="ssr:stedsnr" v="748410" />
	</node>
	<node id="-781000" lat="70.6069250041" lon="23.0499888371">
		<tag k="alt_name" v="Sandvikfjell" />
		<tag k="fixme" v="consider natural=peak for the most distinct mountains in the district" />
		<tag k="name" v="Sandvikfjellet" />
		<tag k="natural" v="hill" />
		<tag k="place" v="locality" />
		<tag k="ssr:stedsnr" v="748400" />
	</node>
	<node id="-780999" lat="70.5932416642" lon="23.0465138213">
		<tag k="fixme" v="consider natural=peak for the most distinct mountains in the district" />
		<tag k="name" v="Urelvtinden" />
		<tag k="natural" v="hill" />
		<tag k="place" v="locality" />
		<tag k="ssr:stedsnr" v="748395" />
	</node>
	<node id="-780996" lat="70.7333694493" lon="23.2056221451">
		<tag k="fixme" v="consider natural=peak for the most distinct mountains in the district" />
		<tag k="name" v="Hønsebyfjellet" />
		<tag k="natural" v="hill" />
		<tag k="place" v="locality" />
		<tag k="ssr:stedsnr" v="748286" />
	</node>
	<node id="-780987" lat="70.7761444478" lon="23.3766776909">
		<tag k="name" v="Finnelvdalen" />
		<tag k="natural" v="valley" />
		<tag k="place" v="locality" />
		<tag k="ssr:stedsnr" v="748165" />
	</node>
	<node id="-780968" lat="70.5265027791" lon="23.3923193602">
		<tag k="name" v="Skavhaugen" />
		<tag k="natural" v="hill" />
		<tag k="place" v="locality" />
		<tag k="ssr:stedsnr" v="748064" />
	</node>
	<node id="-780963" lat="70.6803777786" lon="23.6512638046">
		<tag k="fixme" v="consider natural=peak for the most distinct mountains in the district" />
		<tag k="name" v="Vardfjellet" />
		<tag k="natural" v="hill" />
		<tag k="place" v="locality" />
		<tag k="ssr:stedsnr" v="748017" />
	</node>
	<node id="-780961" lat="70.5811972262" lon="22.9611749344">
		<tag k="fixme" v="consider natural=peak for the most distinct mountains in the district" />
		<tag k="name" v="Husfjordfjellet" />
		<tag k="natural" v="hill" />
		<tag k="place" v="locality" />
		<tag k="ssr:stedsnr" v="747381" />
	</node>
	<node id="-780959" lat="70.5442277773" lon="22.7967749475">
		<tag k="name" v="Strandakorset" />
		<tag k="natural" v="valley" />
		<tag k="place" v="locality" />
		<tag k="ssr:stedsnr" v="747313" />
	</node>
	<node id="-780957" lat="70.6694416713" lon="24.0667415647">
		<tag k="name" v="Kjerka" />
		<tag k="natural" v="hill" />
		<tag k="place" v="locality" />
		<tag k="ssr:stedsnr" v="747113" />
	</node>
	<node id="-780952" lat="70.454322228" lon="23.2394999277">
		<tag k="name" v="Breidhovddalen" />
		<tag k="natural" v="valley" />
		<tag k="place" v="locality" />
		<tag k="ssr:stedsnr" v="747037" />
	</node>
	<node id="-780948" lat="70.6138583357" lon="23.9320665591">
		<tag k="fixme" v="consider natural=peak for the most distinct mountains in the district" />
		<tag k="name" v="Linjefjellet - Linnjavárri" />
		<tag k="name:no" v="Linjefjellet" />
		<tag k="name:se" v="Linnjavárri" />
		<tag k="natural" v="hill" />
		<tag k="old_name:se" v="Linnjavarri" />
		<tag k="place" v="locality" />
		<tag k="ssr:stedsnr" v="747220" />
	</node>
	<node id="-780942" lat="70.6137194477" lon="23.7725304694">
		<tag k="name" v="Molstrandvákkigiera" />
		<tag k="name:se" v="Molstrandvákkigiera" />
		<tag k="natural" v="valley" />
		<tag k="place" v="locality" />
		<tag k="ssr:stedsnr" v="707614" />
	</node>
	<node id="-780937" lat="70.6105194436" lon="23.6240499141">
		<tag k="name" v="Jassaskora" />
		<tag k="natural" v="valley" />
		<tag k="place" v="locality" />
		<tag k="ssr:stedsnr" v="700399" />
	</node>
	<node id="-780932" lat="70.5714972202" lon="23.6981082419">
		<tag k="name" v="Kvitbergan" />
		<tag k="natural" v="hill" />
		<tag k="place" v="locality" />
		<tag k="ssr:stedsnr" v="698213" />
	</node>
	<node id="-780930" lat="70.7247527848" lon="23.7643749087">
		<tag k="name" v="Mylingskaret" />
		<tag k="natural" v="valley" />
		<tag k="place" v="locality" />
		<tag k="ssr:stedsnr" v="698188" />
	</node>
	<node id="-780927" lat="70.6510777766" lon="23.7055721306">
		<tag k="name" v="Sukkertoppen" />
		<tag k="natural" v="hill" />
		<tag k="place" v="locality" />
		<tag k="ssr:stedsnr" v="698127" />
	</node>
	<node id="-780924" lat="70.4941000073" lon="23.325591584">
		<tag k="fixme" v="consider natural=peak for the most distinct mountains in the district" />
		<tag k="name" v="Huefjellet - Gahpirvárri" />
		<tag k="name:no" v="Huefjellet" />
		<tag k="name:se" v="Gahpirvárri" />
		<tag k="natural" v="hill" />
		<tag k="old_name:se" v="Gappirvarri" />
		<tag k="place" v="locality" />
		<tag k="ssr:stedsnr" v="693088" />
	</node>
	<node id="-780922" lat="70.6815916699" lon="23.8759276819">
		<tag k="name" v="Storviktåta" />
		<tag k="natural" v="hill" />
		<tag k="place" v="locality" />
		<tag k="ssr:stedsnr" v="692877" />
	</node>
	<node id="-780917" lat="70.5896666732" lon="22.8712138196">
		<tag k="name" v="Storhaugen" />
		<tag k="natural" v="hill" />
		<tag k="place" v="locality" />
		<tag k="ssr:stedsnr" v="688416" />
	</node>
	<node id="-780916" lat="70.7192944507" lon="22.9099860463">
		<tag k="fixme" v="consider natural=peak for the most distinct mountains in the district" />
		<tag k="name" v="Fuglnesfjellet" />
		<tag k="natural" v="hill" />
		<tag k="place" v="locality" />
		<tag k="ssr:stedsnr" v="688285" />
	</node>
	<node id="-780913" lat="70.754019442" lon="23.395441598">
		<tag k="fixme" v="consider natural=peak for the most distinct mountains in the district" />
		<tag k="name" v="Nova" />
		<tag k="natural" v="hill" />
		<tag k="place" v="locality" />
		<tag k="ssr:stedsnr" v="688199" />
	</node>
	<node id="-780912" lat="70.7560500006" lon="23.316322151">
		<tag k="name" v="Tjuven" />
		<tag k="natural" v="hill" />
		<tag k="place" v="locality" />
		<tag k="ssr:stedsnr" v="688198" />
	</node>
	<node id="-780910" lat="70.6489416646" lon="23.7953749087">
		<tag k="name" v="Riebansilbavárri" />
		<tag k="name:se" v="Riebansilbavárri" />
		<tag k="natural" v="hill" />
		<tag k="old_name:se" v="Riebansilbavarri" />
		<tag k="place" v="locality" />
		<tag k="ssr:stedsnr" v="688017" />
	</node>
	<node id="-780909" lat="70.4728749987" lon="23.4596888103">
		<tag k="name" v="Geaidnovággi" />
		<tag k="name:se" v="Geaidnovággi" />
		<tag k="natural" v="valley" />
		<tag k="old_name:se" v="Gæidnuvaggi" />
		<tag k="place" v="locality" />
		<tag k="ssr:stedsnr" v="687960" />
	</node>
	<node id="-780906" lat="70.6820277768" lon="22.9414804867">
		<tag k="name" v="Skilleberg" />
		<tag k="natural" v="hill" />
		<tag k="place" v="locality" />
		<tag k="ssr:stedsnr" v="687475" />
	</node>
	<node id="-780898" lat="70.7455027783" lon="23.2078471418">
		<tag k="name" v="Hønsebydalen" />
		<tag k="natural" v="valley" />
		<tag k="place" v="locality" />
		<tag k="ssr:stedsnr" v="687261" />
	</node>
	<node id="-780895" lat="70.5855194515" lon="23.5211804678">
		<tag k="fixme" v="consider natural=peak for the most distinct mountains in the district" />
		<tag k="name" v="Boskavágevárri" />
		<tag k="name:se" v="Boskavágevárri" />
		<tag k="natural" v="hill" />
		<tag k="old_name:se" v="Båskavagevarri" />
		<tag k="place" v="locality" />
		<tag k="ssr:stedsnr" v="687239" />
	</node>
	<node id="-780888" lat="70.7684222211" lon="23.4190387995">
		<tag k="fixme" v="consider natural=peak for the most distinct mountains in the district" />
		<tag k="name" v="Borvikklubben" />
		<tag k="natural" v="hill" />
		<tag k="place" v="locality" />
		<tag k="ssr:stedsnr" v="687161" />
	</node>
	<node id="-780881" lat="70.5287638907" lon="22.835302732">
		<tag k="fixme" v="consider natural=peak for the most distinct mountains in the district" />
		<tag k="name" v="Lillefjellet" />
		<tag k="natural" v="hill" />
		<tag k="place" v="locality" />
		<tag k="ssr:stedsnr" v="687117" />
	</node>
	<node id="-780876" lat="70.5370750024" lon="22.9051888411">
		<tag k="name" v="Vatnedalen" />
		<tag k="natural" v="valley" />
		<tag k="place" v="locality" />
		<tag k="ssr:stedsnr" v="687106" />
	</node>
	<node id="-780867" lat="70.8326222242" lon="23.3599277161">
		<tag k="name" v="Tinden" />
		<tag k="natural" v="hill" />
		<tag k="place" v="locality" />
		<tag k="ssr:stedsnr" v="687075" />
	</node>
	<node id="-780866" lat="70.8267000006" lon="23.3869610398">
		<tag k="name" v="Klipadalen" />
		<tag k="natural" v="valley" />
		<tag k="place" v="locality" />
		<tag k="ssr:stedsnr" v="687074" />
	</node>
	<node id="-780862" lat="70.4449583364" lon="22.9016999371">
		<tag k="alt_name" v="Bårdveggen" />
		<tag k="fixme" v="consider natural=peak for the most distinct mountains in the district" />
		<tag k="name" v="Ytre Bårdveggen" />
		<tag k="natural" v="hill" />
		<tag k="old_name" v="Bårdveggen, ytre" />
		<tag k="place" v="locality" />
		<tag k="ssr:stedsnr" v="687050" />
	</node>
	<node id="-780840" lat="70.5884916714" lon="23.6824082419">
		<tag k="name" v="Lyngsletta" />
		<tag k="place" v="locality" />
		<tag k="ssr:stedsnr" v="637257" />
	</node>
	<node id="-780837" lat="70.715238895" lon="23.7673276843">
		<tag k="name" v="Grytadalen" />
		<tag k="natural" v="valley" />
		<tag k="place" v="locality" />
		<tag k="ssr:stedsnr" v="637222" />
	</node>
	<node id="-780834" lat="70.6062527799" lon="23.6566304633">
		<tag k="name" v="Bekkelia" />
		<tag k="natural" v="slope" />
		<tag k="place" v="locality" />
		<tag k="ssr:stedsnr" v="637198" />
	</node>
	<node id="-780833" lat="70.6263749999" lon="23.6651499086">
		<tag k="name" v="Saragamdalen" />
		<tag k="natural" v="valley" />
		<tag k="place" v="locality" />
		<tag k="ssr:stedsnr" v="637187" />
	</node>
	<node id="-780831" lat="70.6497888879" lon="23.7380915787">
		<tag k="name" v="Mellomskaret" />
		<tag k="natural" v="valley" />
		<tag k="place" v="locality" />
		<tag k="ssr:stedsnr" v="637177" />
	</node>
	<node id="-780830" lat="70.6467138961" lon="23.6611304573">
		<tag k="name" v="Rørvikhaugen" />
		<tag k="natural" v="hill" />
		<tag k="place" v="locality" />
		<tag k="ssr:stedsnr" v="637167" />
	</node>
	<node id="-780826" lat="70.6124361173" lon="23.6967193429">
		<tag k="fixme" v="consider natural=peak for the most distinct mountains in the district" />
		<tag k="name" v="Ørntinden" />
		<tag k="natural" v="hill" />
		<tag k="ssr:stedsnr" v="634811" />
	</node>
	<node id="-780821" lat="70.575491666" lon="23.5251026823">
		<tag k="name" v="Seilandstunga" />
		<tag k="natural" v="hill" />
		<tag k="place" v="locality" />
		<tag k="ssr:stedsnr" v="630898" />
	</node>
	<node id="-780820" lat="70.6690083329" lon="23.7603360069">
		<tag k="name" v="Storvikskaret" />
		<tag k="natural" v="valley" />
		<tag k="place" v="locality" />
		<tag k="ssr:stedsnr" v="630868" />
	</node>
	<node id="-780815" lat="70.6140888931" lon="23.100724942">
		<tag k="fixme" v="consider natural=peak for the most distinct mountains in the district" />
		<tag k="name" v="Gjeltinden - Čohkkavárri" />
		<tag k="name:no" v="Gjeltinden" />
		<tag k="name:se" v="Čohkkavárri" />
		<tag k="natural" v="hill" />
		<tag k="old_name:se" v="Čåkkavarri" />
		<tag k="place" v="locality" />
		<tag k="ssr:stedsnr" v="627435" />
	</node>
	<node id="-780814" lat="70.6076861102" lon="23.3951387975">
		<tag k="name" v="Kopparberget" />
		<tag k="natural" v="hill" />
		<tag k="place" v="locality" />
		<tag k="ssr:stedsnr" v="627431" />
	</node>
	<node id="-780813" lat="70.5993388926" lon="23.0299860486">
		<tag k="name" v="Hammarnakkdalen" />
		<tag k="natural" v="valley" />
		<tag k="place" v="locality" />
		<tag k="ssr:stedsnr" v="627427" />
	</node>
	<node id="-780812" lat="70.7293166659" lon="23.1497499391">
		<tag k="name" v="Langstranddalen" />
		<tag k="natural" v="valley" />
		<tag k="place" v="locality" />
		<tag k="ssr:stedsnr" v="627283" />
	</node>
	<node id="-780811" lat="70.7254527835" lon="23.2620415875">
		<tag k="fixme" v="consider natural=peak for the most distinct mountains in the district" />
		<tag k="name" v="Engesfjellet" />
		<tag k="natural" v="hill" />
		<tag k="place" v="locality" />
		<tag k="ssr:stedsnr" v="627279" />
	</node>
	<node id="-780809" lat="70.7564944457" lon="23.1424554981">
		<tag k="fixme" v="consider natural=peak for the most distinct mountains in the district" />
		<tag k="name" v="Skarvtinden" />
		<tag k="natural" v="hill" />
		<tag k="place" v="locality" />
		<tag k="ssr:stedsnr" v="627200" />
	</node>
	<node id="-780806" lat="70.6530555536" lon="23.8537165762">
		<tag k="fixme" v="consider natural=peak for the most distinct mountains in the district" />
		<tag k="name" v="Jalgesvárri" />
		<tag k="name:se" v="Jalgesvárri" />
		<tag k="natural" v="hill" />
		<tag k="old_name:se" v="Jalgesvarri" />
		<tag k="place" v="locality" />
		<tag k="ssr:stedsnr" v="627012" />
	</node>
	<node id="-780798" lat="70.5758527793" lon="22.9825666085">
		<tag k="fixme" v="consider natural=peak for the most distinct mountains in the district" />
		<tag k="name" v="Stortinden" />
		<tag k="natural" v="hill" />
		<tag k="place" v="locality" />
		<tag k="ssr:stedsnr" v="626429" />
	</node>
	<node id="-780790" lat="70.5233416704" lon="23.422074908">
		<tag k="name" v="Njižževuonvággi" />
		<tag k="name:se" v="Njižževuonvággi" />
		<tag k="natural" v="valley" />
		<tag k="old_name:se" v="Njižževuonvaggi" />
		<tag k="place" v="locality" />
		<tag k="ssr:stedsnr" v="626220" />
	</node>
	<node id="-780786" lat="70.6521055561" lon="24.0308610047">
		<tag k="fixme" v="consider natural=peak for the most distinct mountains in the district" />
		<tag k="name" v="Kultfjellet" />
		<tag k="natural" v="hill" />
		<tag k="place" v="locality" />
		<tag k="ssr:stedsnr" v="626185" />
	</node>
	<node id="-780779" lat="70.5536388879" lon="22.9293860398">
		<tag k="name" v="Skarvlia" />
		<tag k="natural" v="slope" />
		<tag k="place" v="locality" />
		<tag k="ssr:stedsnr" v="626124" />
	</node>
	<node id="-780775" lat="70.5014416696" lon="23.1154804947">
		<tag k="fixme" v="consider natural=peak for the most distinct mountains in the district" />
		<tag k="name" v="Rundtinden" />
		<tag k="natural" v="hill" />
		<tag k="place" v="locality" />
		<tag k="ssr:stedsnr" v="626106" />
	</node>
	<node id="-780774" lat="70.5010416665" lon="23.1291943709">
		<tag k="name" v="Flaska" />
		<tag k="natural" v="hill" />
		<tag k="place" v="locality" />
		<tag k="ssr:stedsnr" v="626107" />
	</node>
	<node id="-780765" lat="70.4462055533" lon="23.0955915951">
		<tag k="fixme" v="consider natural=peak for the most distinct mountains in the district" />
		<tag k="name" v="Seilandstuva" />
		<tag k="natural" v="hill" />
		<tag k="place" v="locality" />
		<tag k="ssr:stedsnr" v="626073" />
	</node>
	<node id="-780762" lat="70.7011861122" lon="23.9776304612">
		<tag k="name" v="Hammaren" />
		<tag k="natural" v="hill" />
		<tag k="place" v="locality" />
		<tag k="ssr:stedsnr" v="626067" />
	</node>
	<node id="-780761" lat="70.7205000048" lon="23.7044026978">
		<tag k="fixme" v="consider natural=peak for the most distinct mountains in the district" />
		<tag k="name" v="Steinfjellet - Gámmevárri" />
		<tag k="name:no" v="Steinfjellet" />
		<tag k="name:se" v="Gámmevárri" />
		<tag k="natural" v="hill" />
		<tag k="old_name:se" v="Gammevarri" />
		<tag k="place" v="locality" />
		<tag k="ssr:stedsnr" v="626061" />
	</node>
	<node id="-780759" lat="70.7111111183" lon="23.8803999033">
		<tag k="name" v="Skarvberget" />
		<tag k="natural" v="hill" />
		<tag k="place" v="locality" />
		<tag k="ssr:stedsnr" v="626049" />
	</node>
	<node id="-780756" lat="70.424605558" lon="23.0187054964">
		<tag k="name" v="Ruonáriiddit" />
		<tag k="name:se" v="Ruonáriiddit" />
		<tag k="natural" v="valley" />
		<tag k="old_name:se" v="Ruonariidit" />
		<tag k="place" v="locality" />
		<tag k="ssr:stedsnr" v="625041" />
	</node>
	<node id="-780739" lat="70.7453972213" lon="23.7980110229">
		<tag k="name" v="Migberget" />
		<tag k="natural" v="hill" />
		<tag k="old_name" v="Midberget" />
		<tag k="place" v="locality" />
		<tag k="ssr:stedsnr" v="578785" />
	</node>
	<node id="-780733" lat="70.6670833404" lon="23.7022915691">
		<tag k="name" v="Fjellplatået" />
		<tag k="natural" v="slope" />
		<tag k="place" v="locality" />
		<tag k="ssr:stedsnr" v="577239" />
	</node>
	<node id="-780732" lat="70.7357194494" lon="23.7922832369">
		<tag k="name" v="Forsøllia" />
		<tag k="natural" v="slope" />
		<tag k="place" v="locality" />
		<tag k="ssr:stedsnr" v="577222" />
	</node>
	<node id="-780726" lat="70.6098222243" lon="23.6319276893">
		<tag k="name" v="Lille Storvikraet" />
		<tag k="natural" v="ridge" />
		<tag k="place" v="locality" />
		<tag k="ssr:stedsnr" v="577076" />
	</node>
	<node id="-780723" lat="70.6037666683" lon="23.600544369">
		<tag k="name" v="Steinviknakken" />
		<tag k="natural" v="hill" />
		<tag k="place" v="locality" />
		<tag k="ssr:stedsnr" v="577065" />
	</node>
	<node id="-780722" lat="70.6570027785" lon="23.6944943412">
		<tag k="name" v="Baksalen" />
		<tag k="natural" v="slope" />
		<tag k="place" v="locality" />
		<tag k="ssr:stedsnr" v="576148" />
	</node>
	<node id="-780720" lat="70.6913638871" lon="23.5976943647">
		<tag k="name" v="Minefeltet" />
		<tag k="place" v="locality" />
		<tag k="ssr:stedsnr" v="576104" />
	</node>
	<node id="-780713" lat="70.6048222226" lon="23.7015915653">
		<tag k="fixme" v="multiple name tags, choose one and add the other to alt_name" />
		<tag k="name" v="Akkarfjorddalen;Mollstranddalen - Molstrandvággi" />
		<tag k="name:no" v="Akkarfjorddalen;Mollstranddalen" />
		<tag k="name:se" v="Molstrandvággi" />
		<tag k="natural" v="valley" />
		<tag k="place" v="locality" />
		<tag k="ssr:stedsnr" v="570893" />
	</node>
	<node id="-780712" lat="70.6873694511" lon="23.8794665662">
		<tag k="fixme" v="consider natural=peak for the most distinct mountains in the district" />
		<tag k="name" v="Storfjellet" />
		<tag k="natural" v="hill" />
		<tag k="place" v="locality" />
		<tag k="ssr:stedsnr" v="570885" />
	</node>
	<node id="-780711" lat="70.7013222205" lon="23.2660443744">
		<tag k="fixme" v="consider natural=peak for the most distinct mountains in the district" />
		<tag k="name" v="Pikfjellet" />
		<tag k="natural" v="hill" />
		<tag k="place" v="locality" />
		<tag k="ssr:stedsnr" v="566502" />
	</node>
	<node id="-780710" lat="70.7100805546" lon="23.049399925">
		<tag k="name" v="Grasdalen" />
		<tag k="natural" v="valley" />
		<tag k="place" v="locality" />
		<tag k="ssr:stedsnr" v="566499" />
	</node>
	<node id="-780708" lat="70.649438893" lon="23.1509471452">
		<tag k="fixme" v="consider natural=peak for the most distinct mountains in the district" />
		<tag k="name" v="Ramntinden - Goaskinčohkka" />
		<tag k="name:no" v="Ramntinden" />
		<tag k="name:se" v="Goaskinčohkka" />
		<tag k="natural" v="hill" />
		<tag k="old_name:se" v="Goaskinčåkka" />
		<tag k="place" v="locality" />
		<tag k="ssr:stedsnr" v="566453" />
	</node>
	<node id="-780707" lat="70.6478750038" lon="22.8675055042">
		<tag k="name" v="Vegdalen" />
		<tag k="natural" v="valley" />
		<tag k="place" v="locality" />
		<tag k="ssr:stedsnr" v="566441" />
	</node>
	<node id="-780705" lat="70.6186638891" lon="23.0103277227">
		<tag k="fixme" v="consider natural=peak for the most distinct mountains in the district" />
		<tag k="name" v="Bátnerášša" />
		<tag k="name:se" v="Bátnerášša" />
		<tag k="natural" v="hill" />
		<tag k="old_name:se" v="Badnerašša" />
		<tag k="place" v="locality" />
		<tag k="ssr:stedsnr" v="566426" />
	</node>
	<node id="-780704" lat="70.6187111164" lon="23.3692638168">
		<tag k="fixme" v="consider natural=peak for the most distinct mountains in the district" />
		<tag k="name" v="Grunnvågklubben - Hárabeaski" />
		<tag k="name:no" v="Grunnvågklubben" />
		<tag k="name:se" v="Hárabeaski" />
		<tag k="natural" v="hill" />
		<tag k="old_name:se" v="Harabæski" />
		<tag k="place" v="locality" />
		<tag k="ssr:stedsnr" v="566422" />
	</node>
	<node id="-780703" lat="70.585636111" lon="22.9367082587">
		<tag k="fixme" v="consider natural=peak for the most distinct mountains in the district" />
		<tag k="name" v="Langlengda" />
		<tag k="natural" v="hill" />
		<tag k="place" v="locality" />
		<tag k="ssr:stedsnr" v="566403" />
	</node>
	<node id="-780702" lat="70.746322219" lon="23.3535693802">
		<tag k="name" v="Markusjorddalen" />
		<tag k="natural" v="valley" />
		<tag k="place" v="locality" />
		<tag k="ssr:stedsnr" v="566289" />
	</node>
	<node id="-780689" lat="70.537161116" lon="23.4053749354">
		<tag k="name" v="Olgočohkka" />
		<tag k="name:se" v="Olgočohkka" />
		<tag k="natural" v="hill" />
		<tag k="old_name:se" v="Ålgučåkka" />
		<tag k="place" v="locality" />
		<tag k="ssr:stedsnr" v="566124" />
	</node>
	<node id="-780686" lat="70.5423944464" lon="23.1686360377">
		<tag k="fixme" v="consider natural=peak for the most distinct mountains in the district" />
		<tag k="name" v="Kårhamnfjellet" />
		<tag k="natural" v="hill" />
		<tag k="place" v="locality" />
		<tag k="ssr:stedsnr" v="566113" />
	</node>
	<node id="-780685" lat="70.5180861118" lon="23.3698276932">
		<tag k="fixme" v="consider natural=peak for the most distinct mountains in the district" />
		<tag k="name" v="Sørfjellet - Oarjevárri" />
		<tag k="name:no" v="Sørfjellet" />
		<tag k="name:se" v="Oarjevárri" />
		<tag k="natural" v="hill" />
		<tag k="old_name:se" v="Oarjevarri" />
		<tag k="place" v="locality" />
		<tag k="ssr:stedsnr" v="566080" />
	</node>
	<node id="-780683" lat="70.5214999994" lon="22.8287360637">
		<tag k="fixme" v="consider natural=peak for the most distinct mountains in the district" />
		<tag k="name" v="Gåshopfjellet" />
		<tag k="natural" v="hill" />
		<tag k="place" v="locality" />
		<tag k="ssr:stedsnr" v="566076" />
	</node>
	<node id="-780679" lat="70.6484638931" lon="23.6532776935">
		<tag k="alt_name:no" v="Rypefjellet;Rypfjellet" />
		<tag k="fixme" v="multiple name tags, choose one and add the other to alt_name; consider natural=peak for the most distinct mountains in the district" />
		<tag k="loc_name:se" v="Rievssatvárri" />
		<tag k="name" v="Rypefjell - Rypefjellet;Rypfjellet" />
		<tag k="name:no" v="Rypefjell" />
		<tag k="name:se" v="Rypefjellet;Rypfjellet" />
		<tag k="natural" v="hill" />
		<tag k="place" v="locality" />
		<tag k="ssr:stedsnr" v="566027" />
	</node>
	<node id="-780670" lat="70.5806888917" lon="22.9984527277">
		<tag k="name" v="Breidlia" />
		<tag k="natural" v="slope" />
		<tag k="place" v="locality" />
		<tag k="ssr:stedsnr" v="565378" />
	</node>
	<node id="-780669" lat="70.5741111112" lon="23.0537804855">
		<tag k="fixme" v="consider natural=peak for the most distinct mountains in the district" />
		<tag k="name" v="Fellakollen" />
		<tag k="natural" v="hill" />
		<tag k="place" v="locality" />
		<tag k="ssr:stedsnr" v="565367" />
	</node>
	<node id="-780666" lat="70.5757138898" lon="23.5376999002">
		<tag k="fixme" v="consider natural=peak for the most distinct mountains in the district" />
		<tag k="name" v="Ánnásulvárri" />
		<tag k="name:se" v="Ánnásulvárri" />
		<tag k="natural" v="hill" />
		<tag k="old_name:se" v="Annasulvarri" />
		<tag k="place" v="locality" />
		<tag k="ssr:stedsnr" v="565228" />
	</node>
	<node id="-780663" lat="70.6162055613" lon="23.5451915803">
		<tag k="fixme" v="consider natural=peak for the most distinct mountains in the district" />
		<tag k="name" v="Hundnesryggen" />
		<tag k="natural" v="hill" />
		<tag k="place" v="locality" />
		<tag k="ssr:stedsnr" v="565221" />
	</node>
	<node id="-780658" lat="70.6568500007" lon="24.0863443408">
		<tag k="name" v="Oterhaugen" />
		<tag k="natural" v="hill" />
		<tag k="place" v="locality" />
		<tag k="ssr:stedsnr" v="565129" />
	</node>
	<node id="-780654" lat="70.5437027801" lon="22.857080484">
		<tag k="name" v="Straumdalen" />
		<tag k="natural" v="valley" />
		<tag k="place" v="locality" />
		<tag k="ssr:stedsnr" v="565094" />
	</node>
	<node id="-780648" lat="70.4779999983" lon="23.2992471504">
		<tag k="name" v="Fosselvdalen - Sevdnjosvággi" />
		<tag k="name:no" v="Fosselvdalen" />
		<tag k="name:se" v="Sevdnjosvággi" />
		<tag k="natural" v="valley" />
		<tag k="old_name:se" v="Sevdnjusvaggi" />
		<tag k="place" v="locality" />
		<tag k="ssr:stedsnr" v="565066" />
	</node>
	<node id="-780647" lat="70.4754666674" lon="23.0715110506">
		<tag k="fixme" v="consider natural=peak for the most distinct mountains in the district" />
		<tag k="name" v="Seinesfjellet - Seinnesgáisá" />
		<tag k="name:no" v="Seinesfjellet" />
		<tag k="name:se" v="Seinnesgáisá" />
		<tag k="natural" v="hill" />
		<tag k="old_name:se" v="Seinesgaisa" />
		<tag k="place" v="locality" />
		<tag k="ssr:stedsnr" v="565063" />
	</node>
	<node id="-780646" lat="70.4262777759" lon="22.9239249336">
		<tag k="fixme" v="consider natural=peak for the most distinct mountains in the district" />
		<tag k="name" v="Indre Bårdveggen - Buolahárji" />
		<tag k="name:no" v="Indre Bårdveggen" />
		<tag k="name:se" v="Buolahárji" />
		<tag k="natural" v="hill" />
		<tag k="old_name:no" v="Bårdveggen, indre" />
		<tag k="old_name:se" v="Buolaharji" />
		<tag k="place" v="locality" />
		<tag k="ssr:stedsnr" v="565042" />
	</node>
	<node id="-780644" lat="70.6288166671" lon="23.7302665595">
		<tag k="fixme" v="consider natural=peak for the most distinct mountains in the district" />
		<tag k="name" v="Tverrfjellet" />
		<tag k="natural" v="hill" />
		<tag k="place" v="locality" />
		<tag k="ssr:stedsnr" v="565023" />
	</node>
	<node id="-780633" lat="70.5561499997" lon="23.5542832433">
		<tag k="name" v="Klubben" />
		<tag k="natural" v="hill" />
		<tag k="place" v="locality" />
		<tag k="ssr:stedsnr" v="517406" />
	</node>
	<node id="-780624" lat="70.6507416706" lon="23.6518943704">
		<tag k="name" v="Heia" />
		<tag k="natural" v="hill" />
		<tag k="place" v="locality" />
		<tag k="ssr:stedsnr" v="516161" />
	</node>
	<node id="-780617" lat="70.6877250022" lon="23.8211304676">
		<tag k="name" v="Kvalfjordskaret" />
		<tag k="natural" v="valley" />
		<tag k="place" v="locality" />
		<tag k="ssr:stedsnr" v="513803" />
	</node>
	<node id="-780609" lat="70.6822666718" lon="22.8561221541">
		<tag k="fixme" v="consider natural=peak for the most distinct mountains in the district" />
		<tag k="name" v="Buktafjellet" />
		<tag k="natural" v="hill" />
		<tag k="place" v="locality" />
		<tag k="ssr:stedsnr" v="505483" />
	</node>
	<node id="-780603" lat="70.5767277784" lon="22.8651638349">
		<tag k="fixme" v="consider natural=peak for the most distinct mountains in the district" />
		<tag k="name" v="Midterryggen" />
		<tag k="natural" v="hill" />
		<tag k="place" v="locality" />
		<tag k="ssr:stedsnr" v="505399" />
	</node>
	<node id="-780600" lat="70.7274194469" lon="22.8209888247">
		<tag k="fixme" v="consider natural=peak for the most distinct mountains in the district" />
		<tag k="name" v="Talborfjellet" />
		<tag k="natural" v="hill" />
		<tag k="place" v="locality" />
		<tag k="ssr:stedsnr" v="505279" />
	</node>
	<node id="-780598" lat="70.7146722195" lon="23.2096082651">
		<tag k="fixme" v="consider natural=peak for the most distinct mountains in the district" />
		<tag k="name" v="Børsenasfjellet" />
		<tag k="natural" v="hill" />
		<tag k="place" v="locality" />
		<tag k="ssr:stedsnr" v="505268" />
	</node>
	<node id="-780592" lat="70.5998055591" lon="23.8281804576">
		<tag k="fixme" v="consider natural=peak for the most distinct mountains in the district" />
		<tag k="name" v="Guohcarášša" />
		<tag k="name:se" v="Guohcarášša" />
		<tag k="natural" v="hill" />
		<tag k="old_name:se" v="Guoccarašša" />
		<tag k="place" v="locality" />
		<tag k="ssr:stedsnr" v="505238" />
	</node>
	<node id="-780586" lat="70.7708277793" lon="23.1119416016">
		<tag k="fixme" v="consider natural=peak for the most distinct mountains in the district" />
		<tag k="name" v="Sætertinden" />
		<tag k="natural" v="hill" />
		<tag k="place" v="locality" />
		<tag k="ssr:stedsnr" v="505174" />
	</node>
	<node id="-780585" lat="70.7758666725" lon="23.1049193855">
		<tag k="fixme" v="consider natural=peak for the most distinct mountains in the district" />
		<tag k="name" v="Svartfjellet" />
		<tag k="natural" v="hill" />
		<tag k="place" v="locality" />
		<tag k="ssr:stedsnr" v="505173" />
	</node>
	<node id="-780575" lat="70.5475972281" lon="22.9170499402">
		<tag k="fixme" v="consider natural=peak for the most distinct mountains in the district" />
		<tag k="name" v="Slåttafjellet" />
		<tag k="natural" v="hill" />
		<tag k="place" v="locality" />
		<tag k="ssr:stedsnr" v="505108" />
	</node>
	<node id="-780573" lat="70.7368333354" lon="23.7041054728">
		<tag k="fixme" v="consider natural=peak for the most distinct mountains in the district" />
		<tag k="name" v="Mylingen" />
		<tag k="natural" v="hill" />
		<tag k="place" v="locality" />
		<tag k="ssr:stedsnr" v="505102" />
	</node>
	<node id="-780567" lat="70.4933527834" lon="23.0115027102">
		<tag k="alt_name:no" v="Vassvikdalen, s" />
		<tag k="name" v="Søre Vassvikdalen - Šortavággi" />
		<tag k="name:no" v="Søre Vassvikdalen" />
		<tag k="name:se" v="Šortavággi" />
		<tag k="natural" v="valley" />
		<tag k="old_name:se" v="Šårtavaggi" />
		<tag k="place" v="locality" />
		<tag k="ssr:stedsnr" v="505083" />
	</node>
	<node id="-780565" lat="70.7911833345" lon="23.38353325">
		<tag k="fixme" v="consider natural=peak for the most distinct mountains in the district" />
		<tag k="name" v="Stigfjellet" />
		<tag k="natural" v="hill" />
		<tag k="place" v="locality" />
		<tag k="ssr:stedsnr" v="505080" />
	</node>
	<node id="-780564" lat="70.8441500034" lon="23.3148582767">
		<tag k="fixme" v="multiple name tags, choose one and add the other to alt_name; consider natural=peak for the most distinct mountains in the district" />
		<tag k="name" v="Vardfjellet;Kjøttvikfjellet" />
		<tag k="natural" v="hill" />
		<tag k="old_name" v="Kjøtvikfjellet;Kjøtvikfjell" />
		<tag k="place" v="locality" />
		<tag k="ssr:stedsnr" v="505073" />
	</node>
	<node id="-780561" lat="70.699433335" lon="23.7061888099">
		<tag k="name" v="Reindalen - Boazovággi" />
		<tag k="name:no" v="Reindalen" />
		<tag k="name:se" v="Boazovággi" />
		<tag k="natural" v="valley" />
		<tag k="old_name:se" v="Boazuvaggi" />
		<tag k="place" v="locality" />
		<tag k="ssr:stedsnr" v="505056" />
	</node>
	<node id="-780558" lat="70.7431583379" lon="23.8003304667">
		<tag k="name" v="Miilletčáhcebákti" />
		<tag k="name:se" v="Miilletčáhcebákti" />
		<tag k="natural" v="hill" />
		<tag k="old_name:se" v="Miiletčaccebakti" />
		<tag k="place" v="locality" />
		<tag k="ssr:stedsnr" v="505039" />
	</node>
	<node id="-780552" lat="70.4815861128" lon="23.201624936">
		<tag k="fixme" v="consider natural=peak for the most distinct mountains in the district" />
		<tag k="name" v="Jernesfjellet - Lávnjárgáisá" />
		<tag k="name:no" v="Jernesfjellet" />
		<tag k="name:se" v="Lávnjárgáisá" />
		<tag k="natural" v="hill" />
		<tag k="old_name:se" v="Lavnjargaisa" />
		<tag k="place" v="locality" />
		<tag k="ssr:stedsnr" v="504052" />
	</node>
	<node id="-780550" lat="70.4352222255" lon="22.8983249344">
		<tag k="name" v="Hompavikdalen - Buolavággi" />
		<tag k="name:no" v="Hompavikdalen" />
		<tag k="name:se" v="Buolavággi" />
		<tag k="natural" v="valley" />
		<tag k="old_name:se" v="Buolavaggi" />
		<tag k="place" v="locality" />
		<tag k="ssr:stedsnr" v="504030" />
	</node>
	<node id="-780534" lat="70.6716583388" lon="23.7059971379">
		<tag k="name" v="Blåbærdalen" />
		<tag k="natural" v="valley" />
		<tag k="place" v="locality" />
		<tag k="ssr:stedsnr" v="456239" />
	</node>
	<node id="-780530" lat="70.7187222228" lon="23.799338806">
		<tag k="name" v="Reavangurra" />
		<tag k="name:se" v="Reavangurra" />
		<tag k="natural" v="valley" />
		<tag k="place" v="locality" />
		<tag k="ssr:stedsnr" v="456212" />
	</node>
	<node id="-780528" lat="70.6551166705" lon="23.6745054712">
		<tag k="name" v="Kubakken" />
		<tag k="natural" v="slope" />
		<tag k="place" v="locality" />
		<tag k="ssr:stedsnr" v="456190" />
	</node>
	<node id="-780527" lat="70.6168027781" lon="23.6575054566">
		<tag k="alt_name" v="Saragammfjellet" />
		<tag k="fixme" v="consider natural=peak for the most distinct mountains in the district" />
		<tag k="name" v="Saragamfjellet" />
		<tag k="natural" v="hill" />
		<tag k="place" v="locality" />
		<tag k="ssr:stedsnr" v="456181" />
	</node>
	<node id="-780525" lat="70.6436000023" lon="23.7120665844">
		<tag k="name" v="Revskaret" />
		<tag k="natural" v="valley" />
		<tag k="place" v="locality" />
		<tag k="ssr:stedsnr" v="455159" />
	</node>
	<node id="-780524" lat="70.6543055583" lon="23.6749471288">
		<tag k="name" v="Kubakken" />
		<tag k="natural" v="slope" />
		<tag k="place" v="locality" />
		<tag k="ssr:stedsnr" v="455151" />
	</node>
	<node id="-780521" lat="70.700311112" lon="23.8840387833">
		<tag k="fixme" v="consider natural=peak for the most distinct mountains in the district" />
		<tag k="name" v="Sørhamnfjellet" />
		<tag k="natural" v="hill" />
		<tag k="place" v="locality" />
		<tag k="ssr:stedsnr" v="449870" />
	</node>
	<node id="-780520" lat="70.7077361163" lon="23.7138777023">
		<tag k="name" v="Steindalen" />
		<tag k="natural" v="valley" />
		<tag k="place" v="locality" />
		<tag k="ssr:stedsnr" v="449413" />
	</node>
	<node id="-780519" lat="70.5091194503" lon="23.4950804825">
		<tag k="fixme" v="consider natural=peak for the most distinct mountains in the district" />
		<tag k="name" v="Eidvågtind - Buogovárri" />
		<tag k="name:no" v="Eidvågtind" />
		<tag k="name:se" v="Buogovárri" />
		<tag k="natural" v="hill" />
		<tag k="old_name:se" v="Buogovarri" />
		<tag k="place" v="locality" />
		<tag k="ssr:stedsnr" v="449145" />
	</node>
	<node id="-780516" lat="70.4915472297" lon="23.47670824">
		<tag k="name" v="Buogovárčeabetvággi" />
		<tag k="name:se" v="Buogovárčeabetvággi" />
		<tag k="natural" v="valley" />
		<tag k="old_name:se" v="Buoguvarčæbetvaggi" />
		<tag k="place" v="locality" />
		<tag k="ssr:stedsnr" v="445947" />
	</node>
	<node id="-780512" lat="70.6645722283" lon="23.0251832681">
		<tag k="alt_name" v="Straumtind" />
		<tag k="fixme" v="consider natural=peak for the most distinct mountains in the district" />
		<tag k="name" v="Straumtinden" />
		<tag k="natural" v="hill" />
		<tag k="place" v="locality" />
		<tag k="ssr:stedsnr" v="445471" />
	</node>
	<node id="-780509" lat="70.6152000003" lon="22.9365110396">
		<tag k="fixme" v="consider natural=peak for the most distinct mountains in the district" />
		<tag k="name" v="Gaskarášša" />
		<tag k="name:se" v="Gaskarášša" />
		<tag k="natural" v="hill" />
		<tag k="old_name:se" v="Gaskarašša" />
		<tag k="place" v="locality" />
		<tag k="ssr:stedsnr" v="445436" />
	</node>
	<node id="-780508" lat="70.59659167" lon="23.0648582748">
		<tag k="name" v="Urelvdalen" />
		<tag k="natural" v="valley" />
		<tag k="place" v="locality" />
		<tag k="ssr:stedsnr" v="445417" />
	</node>
	<node id="-780506" lat="70.5853583318" lon="22.8583721492">
		<tag k="fixme" v="consider natural=peak for the most distinct mountains in the district" />
		<tag k="name" v="Kjeftfjellet" />
		<tag k="natural" v="hill" />
		<tag k="place" v="locality" />
		<tag k="ssr:stedsnr" v="445413" />
	</node>
	<node id="-780503" lat="70.7255166674" lon="22.927699941">
		<tag k="name" v="Kalveskåra" />
		<tag k="natural" v="valley" />
		<tag k="place" v="locality" />
		<tag k="ssr:stedsnr" v="445265" />
	</node>
	<node id="-780501" lat="70.7752750042" lon="23.0886055048">
		<tag k="name" v="Keildalen" />
		<tag k="natural" v="valley" />
		<tag k="place" v="locality" />
		<tag k="ssr:stedsnr" v="445167" />
	</node>
	<node id="-780500" lat="70.5332388929" lon="23.2014110373">
		<tag k="fixme" v="consider natural=peak for the most distinct mountains in the district" />
		<tag k="name" v="Stortinden" />
		<tag k="natural" v="hill" />
		<tag k="place" v="locality" />
		<tag k="ssr:stedsnr" v="445120" />
	</node>
	<node id="-780498" lat="70.5064972283" lon="23.4175526884">
		<tag k="fixme" v="consider natural=peak for the most distinct mountains in the district" />
		<tag k="name" v="Glimmerfjellet" />
		<tag k="natural" v="hill" />
		<tag k="place" v="locality" />
		<tag k="ssr:stedsnr" v="445084" />
	</node>
	<node id="-780493" lat="70.5285583349" lon="23.376308256">
		<tag k="name" v="Ørneberget" />
		<tag k="natural" v="hill" />
		<tag k="place" v="locality" />
		<tag k="ssr:stedsnr" v="445066" />
	</node>
	<node id="-780482" lat="70.6398805606" lon="23.6983665855">
		<tag k="fixme" v="consider natural=peak for the most distinct mountains in the district" />
		<tag k="loc_name:se" v="Čuven" />
		<tag k="name" v="Tyven" />
		<tag k="name:no" v="Tyven" />
		<tag k="natural" v="hill" />
		<tag k="place" v="locality" />
		<tag k="ssr:stedsnr" v="445017" />
	</node>
	<node id="-780480" lat="70.6511250045" lon="23.7475887922">
		<tag k="name" v="Vearavággi" />
		<tag k="name:se" v="Vearavággi" />
		<tag k="natural" v="valley" />
		<tag k="old_name:se" v="Væravaggi" />
		<tag k="place" v="locality" />
		<tag k="ssr:stedsnr" v="445011" />
	</node>
	<node id="-780476" lat="70.6864138879" lon="22.8760082791">
		<tag k="name" v="Bukta" />
		<tag k="natural" v="valley" />
		<tag k="place" v="locality" />
		<tag k="ssr:stedsnr" v="444459" />
	</node>
	<node id="-780470" lat="70.4701750007" lon="23.1276721632">
		<tag k="name" v="Gargodalen" />
		<tag k="natural" v="valley" />
		<tag k="place" v="locality" />
		<tag k="ssr:stedsnr" v="444060" />
	</node>
	<node id="-780469" lat="70.4765111158" lon="23.370455464">
		<tag k="name" v="Storevatndalen - Stuorajárvággi" />
		<tag k="name:no" v="Storevatndalen" />
		<tag k="name:se" v="Stuorajárvággi" />
		<tag k="natural" v="valley" />
		<tag k="old_name:se" v="Stuorajarvaggi" />
		<tag k="place" v="locality" />
		<tag k="ssr:stedsnr" v="444057" />
	</node>
	<node id="-780460" lat="70.6770055553" lon="23.7953138002">
		<tag k="name" v="Mellomskaret" />
		<tag k="natural" v="valley" />
		<tag k="place" v="locality" />
		<tag k="ssr:stedsnr" v="267907" />
	</node>
	<node id="-780457" lat="70.7114222274" lon="23.7686999118">
		<tag k="fixme" v="consider natural=peak for the most distinct mountains in the district" />
		<tag k="loc_name:se" v="Fošølvárri" />
		<tag k="name" v="Årresjåfjellet" />
		<tag k="name:no" v="Årresjåfjellet" />
		<tag k="natural" v="hill" />
		<tag k="place" v="locality" />
		<tag k="ssr:stedsnr" v="267398" />
	</node>
	<node id="-780448" lat="70.7194000028" lon="23.0366221552">
		<tag k="name" v="Gavahaugen" />
		<tag k="natural" v="hill" />
		<tag k="place" v="locality" />
		<tag k="ssr:stedsnr" v="263298" />
	</node>
	<node id="-780446" lat="70.5607611112" lon="23.481458255">
		<tag k="fixme" v="consider natural=peak for the most distinct mountains in the district" />
		<tag k="name" v="Skarvfjellet - Skárfovárri" />
		<tag k="name:no" v="Skarvfjellet" />
		<tag k="name:se" v="Skárfovárri" />
		<tag k="natural" v="hill" />
		<tag k="old_name:se" v="Skarfuvarri" />
		<tag k="place" v="locality" />
		<tag k="ssr:stedsnr" v="263232" />
	</node>
	<node id="-780444" lat="70.5260444517" lon="23.1841776975">
		<tag k="name" v="Stordalen" />
		<tag k="natural" v="valley" />
		<tag k="place" v="locality" />
		<tag k="ssr:stedsnr" v="263144" />
	</node>
	<node id="-780439" lat="70.6982305622" lon="23.9279998999">
		<tag k="fixme" v="consider natural=peak for the most distinct mountains in the district" />
		<tag k="name" v="Middagsfjell" />
		<tag k="natural" v="hill" />
		<tag k="place" v="locality" />
		<tag k="ssr:stedsnr" v="263082" />
	</node>
	<node id="-780438" lat="70.7003305595" lon="23.7142110254">
		<tag k="fixme" v="consider natural=peak for the most distinct mountains in the district" />
		<tag k="name" v="Latnjavárri" />
		<tag k="name:se" v="Latnjavárri" />
		<tag k="natural" v="hill" />
		<tag k="old_name:se" v="Ladnjavarri" />
		<tag k="place" v="locality" />
		<tag k="ssr:stedsnr" v="263078" />
	</node>
	<node id="-780437" lat="70.7172694519" lon="23.7257165679">
		<tag k="fixme" v="consider natural=peak for the most distinct mountains in the district" />
		<tag k="name" v="Miillet" />
		<tag k="name:se" v="Miillet" />
		<tag k="natural" v="hill" />
		<tag k="old_name:se" v="Miilet" />
		<tag k="place" v="locality" />
		<tag k="ssr:stedsnr" v="263069" />
	</node>
	<node id="-780433" lat="70.6777222282" lon="23.6977332524">
		<tag k="fixme" v="consider natural=peak for the most distinct mountains in the district" />
		<tag k="name" v="Fuglenesfjellet" />
		<tag k="natural" v="hill" />
		<tag k="place" v="locality" />
		<tag k="ssr:stedsnr" v="263019" />
	</node>
	<node id="-780429" lat="70.6862555552" lon="22.9897471684">
		<tag k="name" v="Klubben" />
		<tag k="natural" v="hill" />
		<tag k="place" v="locality" />
		<tag k="ssr:stedsnr" v="262499" />
	</node>
	<node id="-780413" lat="70.6068388918" lon="23.5234221263">
		<tag k="fixme" v="consider natural=peak for the most distinct mountains in the district" />
		<tag k="name" v="Beatnatnjárgačohkka" />
		<tag k="name:se" v="Beatnatnjárgačohkka" />
		<tag k="natural" v="hill" />
		<tag k="old_name:se" v="Bædnatnjargačåkka" />
		<tag k="place" v="locality" />
		<tag k="ssr:stedsnr" v="262218" />
	</node>
	<node id="-780408" lat="70.5326611172" lon="23.3083693697">
		<tag k="fixme" v="consider natural=peak for the most distinct mountains in the district" />
		<tag k="name" v="Veggen" />
		<tag k="natural" v="hill" />
		<tag k="place" v="locality" />
		<tag k="ssr:stedsnr" v="262110" />
	</node>
	<node id="-780405" lat="70.540700001" lon="22.8816027087">
		<tag k="fixme" v="consider natural=peak for the most distinct mountains in the district" />
		<tag k="name" v="Komagaksla" />
		<tag k="natural" v="hill" />
		<tag k="place" v="locality" />
		<tag k="ssr:stedsnr" v="262099" />
	</node>
	<node id="-780402" lat="70.8032333343" lon="23.3845749281">
		<tag k="fixme" v="consider natural=peak for the most distinct mountains in the district" />
		<tag k="name" v="To-seksognittifjellet" />
		<tag k="natural" v="hill" />
		<tag k="place" v="locality" />
		<tag k="ssr:stedsnr" v="262074" />
	</node>
	<node id="-780398" lat="70.4752833383" lon="23.1604888079">
		<tag k="fixme" v="consider natural=peak for the most distinct mountains in the district" />
		<tag k="name" v="Flasketind - Bohtal" />
		<tag k="name:no" v="Flasketind" />
		<tag k="name:se" v="Bohtal" />
		<tag k="natural" v="hill" />
		<tag k="old_name:se" v="Båttal" />
		<tag k="place" v="locality" />
		<tag k="ssr:stedsnr" v="262063" />
	</node>
	<node id="-780374" lat="70.5985083392" lon="23.6741249167">
		<tag k="name" v="Mollstrandberget" />
		<tag k="natural" v="hill" />
		<tag k="place" v="locality" />
		<tag k="ssr:stedsnr" v="213195" />
	</node>
	<node id="-780372" lat="70.6454416663" lon="23.6894693403">
		<tag k="alt_name" v="Trælen" />
		<tag k="name" v="Trellen" />
		<tag k="natural" v="slope" />
		<tag k="place" v="locality" />
		<tag k="ssr:stedsnr" v="213170" />
	</node>
	<node id="-780370" lat="70.6144472239" lon="23.6378804615">
		<tag k="fixme" v="consider natural=peak for the most distinct mountains in the district" />
		<tag k="name" v="Benkan" />
		<tag k="natural" v="hill" />
		<tag k="place" v="locality" />
		<tag k="ssr:stedsnr" v="213161" />
	</node>
	<node id="-780369" lat="70.6490611146" lon="23.6768443638">
		<tag k="name" v="Jansvasshaugen" />
		<tag k="natural" v="hill" />
		<tag k="place" v="locality" />
		<tag k="ssr:stedsnr" v="213151" />
	</node>
	<node id="-780367" lat="70.6086222215" lon="23.6192915773">
		<tag k="name" v="Kvannslåkhøgda" />
		<tag k="natural" v="hill" />
		<tag k="place" v="locality" />
		<tag k="ssr:stedsnr" v="213080" />
	</node>
	<node id="-780361" lat="70.4935444491" lon="23.517683261">
		<tag k="name" v="Čáhcegopvággi" />
		<tag k="name:se" v="Čáhcegopvággi" />
		<tag k="natural" v="valley" />
		<tag k="old_name:se" v="Čaccegåpvaggi" />
		<tag k="place" v="locality" />
		<tag k="ssr:stedsnr" v="202948" />
	</node>
	<node id="-780357" lat="70.6659277837" lon="23.1411610432">
		<tag k="name" v="Skjertinden" />
		<tag k="natural" v="hill" />
		<tag k="place" v="locality" />
		<tag k="ssr:stedsnr" v="202456" />
	</node>
	<node id="-780353" lat="70.6387027832" lon="23.1134943895">
		<tag k="name" v="Trolldalen" />
		<tag k="natural" v="valley" />
		<tag k="place" v="locality" />
		<tag k="ssr:stedsnr" v="202429" />
	</node>
	<node id="-780352" lat="70.637633336" lon="23.0792832572">
		<tag k="fixme" v="consider natural=peak for the most distinct mountains in the district" />
		<tag k="name" v="Brønnfjellet" />
		<tag k="natural" v="hill" />
		<tag k="place" v="locality" />
		<tag k="ssr:stedsnr" v="202427" />
	</node>
	<node id="-780347" lat="70.5517611087" lon="23.4208027076">
		<tag k="fixme" v="consider natural=peak for the most distinct mountains in the district" />
		<tag k="name" v="Hønsebyfjellet" />
		<tag k="natural" v="hill" />
		<tag k="place" v="locality" />
		<tag k="ssr:stedsnr" v="202184" />
	</node>
	<node id="-780346" lat="70.7576444479" lon="23.2588249277">
		<tag k="fixme" v="consider natural=peak for the most distinct mountains in the district" />
		<tag k="name" v="Skippernesfjellet - Duiskavárri" />
		<tag k="name:no" v="Skippernesfjellet" />
		<tag k="name:se" v="Duiskavárri" />
		<tag k="natural" v="hill" />
		<tag k="place" v="locality" />
		<tag k="ssr:stedsnr" v="202175" />
	</node>
	<node id="-780334" lat="70.8461555546" lon="23.3600388122">
		<tag k="fixme" v="consider natural=peak for the most distinct mountains in the district" />
		<tag k="name" v="Kjøttvikvarden" />
		<tag k="natural" v="hill" />
		<tag k="ssr:stedsnr" v="202113" />
	</node>
	<node id="-780333" lat="70.5447972236" lon="23.1753693639">
		<tag k="name" v="Skarvberget" />
		<tag k="natural" v="hill" />
		<tag k="place" v="locality" />
		<tag k="ssr:stedsnr" v="202107" />
	</node>
	<node id="-780329" lat="70.744275002" lon="23.7252360293">
		<tag k="name" v="Murtoboađovággi" />
		<tag k="name:se" v="Murtoboađovággi" />
		<tag k="natural" v="valley" />
		<tag k="old_name:se" v="Murtuboađuvaggi" />
		<tag k="place" v="locality" />
		<tag k="ssr:stedsnr" v="202089" />
	</node>
	<node id="-780320" lat="70.4954638881" lon="23.1871971613">
		<tag k="fixme" v="consider natural=peak for the most distinct mountains in the district" />
		<tag k="name" v="Storskallen" />
		<tag k="natural" v="hill" />
		<tag k="place" v="locality" />
		<tag k="ssr:stedsnr" v="202068" />
	</node>
	<node id="-780316" lat="70.7040944497" lon="23.8653554575">
		<tag k="name" v="Ørntinden" />
		<tag k="natural" v="hill" />
		<tag k="place" v="locality" />
		<tag k="ssr:stedsnr" v="202061" />
	</node>
	<node id="-780303" lat="70.7422194456" lon="23.3928526892">
		<tag k="alt_name" v="Høgenova" />
		<tag k="fixme" v="consider natural=peak for the most distinct mountains in the district" />
		<tag k="name" v="Høgnova" />
		<tag k="natural" v="hill" />
		<tag k="place" v="locality" />
		<tag k="ssr:stedsnr" v="202273" />
	</node>
	<node id="-780300" lat="70.7165833346" lon="23.1662110363">
		<tag k="fixme" v="consider natural=peak for the most distinct mountains in the district" />
		<tag k="name" v="Veststraumfjellet" />
		<tag k="natural" v="hill" />
		<tag k="place" v="locality" />
		<tag k="ssr:stedsnr" v="202266" />
	</node>
	<node id="-780292" lat="70.4536611144" lon="23.1914721543">
		<tag k="name" v="Sommarhaugen" />
		<tag k="natural" v="hill" />
		<tag k="place" v="locality" />
		<tag k="ssr:stedsnr" v="201044" />
	</node>
	<node id="-780290" lat="70.425972228" lon="22.9577304895">
		<tag k="fixme" v="consider natural=peak for the most distinct mountains in the district" />
		<tag k="name" v="Gumpečohkka" />
		<tag k="name:se" v="Gumpečohkka" />
		<tag k="natural" v="hill" />
		<tag k="old_name:se" v="Gumpečåkka" />
		<tag k="place" v="locality" />
		<tag k="ssr:stedsnr" v="201037" />
	</node>
	<node id="-780289" lat="70.4170305576" lon="23.0507027127">
		<tag k="fixme" v="consider natural=peak for the most distinct mountains in the district" />
		<tag k="name" v="Spisstind - Suolovárri" />
		<tag k="name:no" v="Spisstind" />
		<tag k="name:se" v="Suolovárri" />
		<tag k="natural" v="hill" />
		<tag k="old_name:se" v="Suoluvarri" />
		<tag k="place" v="locality" />
		<tag k="ssr:stedsnr" v="201036" />
	</node>
</osm>
