<?xml version="1.0" encoding="UTF-8"?>
<osm generator="osmapis" version="0.6">
	<node id="-782734" lat="70.6342305611" lon="23.6791388104">
		<tag k="amenity" v="place_of_worship" />
		<tag k="denomination" v="lutheran" />
		<tag k="name" v="Indrefjord kapell" />
		<tag k="religion" v="christian" />
		<tag k="ssr:stedsnr" v="943799" />
	</node>
	<node id="-781131" lat="70.6908250061" lon="23.6152332573">
		<tag k="name" v="Far si stua" />
		<tag k="place" v="locality" />
		<tag k="ssr:stedsnr" v="273113" />
	</node>
	<node id="-782058" lat="70.6952388917" lon="23.6149499175">
		<tag k="name" v="Støtta" />
		<tag k="place" v="locality" />
		<tag k="ssr:stedsnr" v="516103" />
	</node>
	<node id="-782278" lat="70.6612555606" lon="23.6768138108">
		<tag k="cemetery" v="grave" />
		<tag k="name" v="Haugen" />
		<tag k="place" v="locality" />
		<tag k="ssr:stedsnr" v="637229" />
	</node>
	<node id="-781829" lat="70.6700055545" lon="23.6634137947">
		<tag k="name" v="Meridianstøtta" />
		<tag k="ssr:stedsnr" v="226600" />
		<tag k="tourism" v="attraction" />
	</node>
	<node id="-781507" lat="70.6617666699" lon="23.6756749235">
		<tag k="amenity" v="place_of_worship" />
		<tag k="denomination" v="lutheran" />
		<tag k="name" v="Hammerfest  kirke" />
		<tag k="religion" v="christian" />
		<tag k="ssr:stedsnr" v="33836" />
	</node>
	<node id="-782561" lat="70.6570250023" lon="23.6764943685">
		<tag k="name" v="Utsikten" />
		<tag k="ssr:stedsnr" v="821346" />
		<tag k="tourism" v="viewpoint" />
	</node>
</osm>
