<?xml version="1.0" encoding="UTF-8"?>
<osm generator="osmapis" version="0.6">
	<node id="-782333" lat="70.6107305598" lon="23.5007388145">
		<tag k="name" v="Ersvikelva - Jallajohka" />
		<tag k="name:no" v="Ersvikelva" />
		<tag k="name:se" v="Jallajohka" />
		<tag k="old_name:se" v="Jallajåkka" />
		<tag k="ssr:stedsnr" v="687231" />
		<tag k="waterway" v="stream" />
	</node>
	<node id="-782238" lat="70.6326000054" lon="23.0526999367">
		<tag k="name" v="Storvannet" />
		<tag k="natural" v="water" />
		<tag k="ssr:stedsnr" v="626458" />
	</node>
	<node id="-782328" lat="70.677513889" lon="24.0058304563">
		<tag k="name" v="Hukertvannet" />
		<tag k="natural" v="water" />
		<tag k="ssr:stedsnr" v="687169" />
		<tag k="water" v="lake" />
	</node>
	<node id="-781302" lat="70.5433972237" lon="22.8984916148">
		<tag k="name" v="Vatnedalvannet" />
		<tag k="natural" v="water" />
		<tag k="ssr:stedsnr" v="384137" />
		<tag k="water" v="lake" />
	</node>
	<node id="-782325" lat="70.7870111104" lon="23.1164943806">
		<tag k="name" v="Saksfjordvannet" />
		<tag k="natural" v="water" />
		<tag k="ssr:stedsnr" v="687151" />
	</node>
	<node id="-781811" lat="70.650511117" lon="23.680299902">
		<tag k="name" v="Kukjønna" />
		<tag k="natural" v="water" />
		<tag k="ssr:stedsnr" v="213163" />
	</node>
	<node id="-781298" lat="70.8097388922" lon="23.3893416058">
		<tag k="name" v="Småvannene" />
		<tag k="natural" v="water" />
		<tag k="ssr:stedsnr" v="384110" />
		<tag k="water" v="lake" />
	</node>
	<node id="-781297" lat="70.8002500032" lon="23.402024936">
		<tag k="name" v="Hamnevannet" />
		<tag k="natural" v="water" />
		<tag k="ssr:stedsnr" v="384104" />
	</node>
	<node id="-781806" lat="70.7006305605" lon="23.863730463">
		<tag k="name" v="Ørntindvannet" />
		<tag k="natural" v="water" />
		<tag k="ssr:stedsnr" v="206888" />
		<tag k="water" v="lake" />
	</node>
	<node id="-782317" lat="70.5449305606" lon="23.39925826">
		<tag k="name" v="Karbuktvannet" />
		<tag k="natural" v="water" />
		<tag k="ssr:stedsnr" v="687108" />
	</node>
	<node id="-781804" lat="70.7180000032" lon="23.6638860299">
		<tag k="name" v="Kvalvikvannene" />
		<tag k="natural" v="water" />
		<tag k="ssr:stedsnr" v="206873" />
		<tag k="water" v="lake" />
	</node>
	<node id="-781803" lat="70.6006416707" lon="23.6833110143">
		<tag k="name" v="Mollstrandvannet - Molstrandjávri" />
		<tag k="name:no" v="Mollstrandvannet" />
		<tag k="name:se" v="Molstrandjávri" />
		<tag k="natural" v="water" />
		<tag k="ssr:stedsnr" v="206863" />
		<tag k="water" v="lake" />
	</node>
	<node id="-781799" lat="70.6826749997" lon="23.0128138177">
		<tag k="name" v="Fiskenesvannet" />
		<tag k="natural" v="water" />
		<tag k="ssr:stedsnr" v="202484" />
	</node>
	<node id="-781285" lat="70.5216444467" lon="23.3442499355">
		<tag k="name" v="Tverrfjordvannet - Doaresvuonjávri" />
		<tag k="name:no" v="Tverrfjordvannet" />
		<tag k="name:se" v="Doaresvuonjávri" />
		<tag k="natural" v="water" />
		<tag k="old_name:se" v="Doaresvuonjavri" />
		<tag k="ssr:stedsnr" v="384074" />
	</node>
	<node id="-781795" lat="70.655375001" lon="23.1141916037">
		<tag k="name" v="Kuvikvannet" />
		<tag k="natural" v="water" />
		<tag k="ssr:stedsnr" v="202449" />
	</node>
	<node id="-781794" lat="70.6439361123" lon="22.8886304909">
		<tag k="name" v="Ulvetindvannet" />
		<tag k="natural" v="water" />
		<tag k="ssr:stedsnr" v="202436" />
	</node>
	<node id="-781280" lat="70.6453722292" lon="23.9305387818">
		<tag k="name" v="Holmvannet - Dápmotjávri" />
		<tag k="name:no" v="Holmvannet" />
		<tag k="name:se" v="Dápmotjávri" />
		<tag k="natural" v="water" />
		<tag k="old_name:se" v="Dabmutjavri;Dabmutjávrrit" />
		<tag k="ssr:stedsnr" v="384017" />
		<tag k="water" v="lake" />
	</node>
	<node id="-781791" lat="70.5989638931" lon="23.0216277144">
		<tag k="name" v="Hammarnakkvannet" />
		<tag k="natural" v="water" />
		<tag k="ssr:stedsnr" v="202407" />
	</node>
	<node id="-781790" lat="70.5811055595" lon="22.9125832867">
		<tag k="name" v="Nordbotnvannet" />
		<tag k="natural" v="water" />
		<tag k="ssr:stedsnr" v="202396" />
	</node>
	<node id="-781276" lat="70.6969416727" lon="23.0634915969">
		<tag k="name" v="Korselva" />
		<tag k="ssr:stedsnr" v="383509" />
		<tag k="waterway" v="stream" />
	</node>
	<node id="-781778" lat="70.6582944475" lon="24.006955457">
		<tag k="name" v="Kultfjellvannet" />
		<tag k="natural" v="water" />
		<tag k="ssr:stedsnr" v="202130" />
		<tag k="water" v="lake" />
	</node>
	<node id="-781731" lat="70.4557916727" lon="23.1862943792">
		<tag k="name" v="Sommarvannet - Geassejávri" />
		<tag k="name:no" v="Sommarvannet" />
		<tag k="name:se" v="Geassejávri" />
		<tag k="natural" v="water" />
		<tag k="old_name:se" v="Gæssejavri" />
		<tag k="ssr:stedsnr" v="201045" />
	</node>
	<node id="-782287" lat="70.7104388947" lon="23.6944443654">
		<tag k="name" v="Doaresjávri" />
		<tag k="name:se" v="Doaresjávri" />
		<tag k="natural" v="water" />
		<tag k="ssr:stedsnr" v="646349" />
	</node>
	<node id="-781770" lat="70.8096888877" lon="23.4097110257">
		<tag k="name" v="Mefjellvannet" />
		<tag k="natural" v="water" />
		<tag k="ssr:stedsnr" v="202090" />
	</node>
	<node id="-782410" lat="70.828069446" lon="23.3563582637">
		<tag k="name" v="Klipavannene" />
		<tag k="natural" v="water" />
		<tag k="ssr:stedsnr" v="748067" />
		<tag k="water" v="lake" />
	</node>
	<node id="-781768" lat="70.4985027782" lon="23.1297249392">
		<tag k="name" v="Hamnevannet" />
		<tag k="natural" v="water" />
		<tag k="ssr:stedsnr" v="202087" />
	</node>
	<node id="-781765" lat="70.8049250044" lon="23.3073054952">
		<tag k="name" v="Finnvikvannet" />
		<tag k="natural" v="water" />
		<tag k="ssr:stedsnr" v="202084" />
	</node>
	<node id="-781762" lat="70.8374250006" lon="23.3356471581">
		<tag k="name" v="Vassvikvannet" />
		<tag k="natural" v="water" />
		<tag k="ssr:stedsnr" v="202078" />
	</node>
	<node id="-781387" lat="70.6599000018" lon="23.7128082452">
		<tag k="name" v="Elvestrand" />
		<tag k="natural" v="beach" />
		<tag k="ssr:stedsnr" v="395220" />
	</node>
	<node id="-781755" lat="70.5242583383" lon="23.3906110329">
		<tag k="name" v="Pervannet" />
		<tag k="natural" v="water" />
		<tag k="ssr:stedsnr" v="202062" />
	</node>
	<node id="-781753" lat="70.7172777846" lon="23.7772887986">
		<tag k="fixme" v="multiple name tags, choose one and add the other to alt_name" />
		<tag k="loc_name:se" v="Foŋøljávri" />
		<tag k="name" v="Forsølvannet;Vassbotnvannet" />
		<tag k="name:no" v="Forsølvannet;Vassbotnvannet" />
		<tag k="natural" v="water" />
		<tag k="ssr:stedsnr" v="202038" />
	</node>
	<node id="-782264" lat="70.6550194463" lon="23.7361693616">
		<tag k="name" v="Inntaksdammen" />
		<tag k="natural" v="water" />
		<tag k="ssr:stedsnr" v="634795" />
		<tag k="water" v="lake" />
	</node>
	<node id="-782263" lat="70.6444000061" lon="23.7525332375">
		<tag k="name" v="Nedre Freidigvannet" />
		<tag k="natural" v="water" />
		<tag k="ssr:stedsnr" v="634794" />
		<tag k="water" v="lake" />
	</node>
	<node id="-782262" lat="70.7030416689" lon="23.7793471421">
		<tag k="name" v="Årresjåelva" />
		<tag k="ssr:stedsnr" v="631431" />
		<tag k="waterway" v="river" />
	</node>
	<node id="-781747" lat="70.673333334" lon="23.956341555">
		<tag k="name" v="Rennervannene" />
		<tag k="natural" v="water" />
		<tag k="ssr:stedsnr" v="202002" />
		<tag k="water" v="lake" />
	</node>
	<node id="-781234" lat="70.6719027784" lon="23.6901248975">
		<tag k="name" v="Svartelva" />
		<tag k="ssr:stedsnr" v="334222" />
		<tag k="waterway" v="stream" />
	</node>
	<node id="-781233" lat="70.6638055562" lon="23.7060499067">
		<tag k="name" v="Holmen" />
		<tag k="natural" v="cape" />
		<tag k="ssr:stedsnr" v="334203" />
	</node>
	<node id="-781384" lat="70.6169166693" lon="23.669383245">
		<tag k="name" v="Nerneset" />
		<tag k="natural" v="cape" />
		<tag k="ssr:stedsnr" v="395180" />
	</node>
	<node id="-781742" lat="70.7208805615" lon="23.0684749314">
		<tag k="name" v="Elvavannet" />
		<tag k="natural" v="water" />
		<tag k="ssr:stedsnr" v="202269" />
		<tag k="water" v="lake" />
	</node>
	<node id="-781739" lat="70.5892444484" lon="23.4611693632">
		<tag k="name" v="Tommyvannet - Josságopjávri" />
		<tag k="name:no" v="Tommyvannet" />
		<tag k="name:se" v="Josságopjávri" />
		<tag k="natural" v="water" />
		<tag k="old_name:se" v="Jåssagåpjavri" />
		<tag k="ssr:stedsnr" v="202249" />
	</node>
	<node id="-781226" lat="70.5310388899" lon="23.34373603">
		<tag k="name" v="Vikavannet" />
		<tag k="natural" v="water" />
		<tag k="ssr:stedsnr" v="331891" />
		<tag k="water" v="lake" />
	</node>
	<node id="-781225" lat="70.6931111158" lon="23.6634221254">
		<tag k="name" v="Melandsvannene" />
		<tag k="natural" v="water" />
		<tag k="ssr:stedsnr" v="331771" />
		<tag k="water" v="lake" />
	</node>
	<node id="-782243" lat="70.4975777805" lon="23.4526387958">
		<tag k="name" v="Buogovárčeabetjávri" />
		<tag k="name:se" v="Buogovárčeabetjávri" />
		<tag k="natural" v="water" />
		<tag k="old_name:se" v="Buoguvarčæbetjavri" />
		<tag k="ssr:stedsnr" v="626965" />
	</node>
	<node id="-782754" lat="70.6644913344" lon="22.9606453898">
		<tag k="name" v="Mebotn" />
		<tag k="natural" v="bay" />
		<tag k="ssr:stedsnr" v="975654" />
	</node>
	<node id="-782241" lat="70.6803" lon="23.0518860398">
		<tag k="name" v="Båtsfjordvannet" />
		<tag k="natural" v="water" />
		<tag k="ssr:stedsnr" v="626509" />
		<tag k="water" v="lake" />
	</node>
	<node id="-781216" lat="70.6691388874" lon="22.9232554978">
		<tag k="name" v="Sommarsetvannet" />
		<tag k="natural" v="water" />
		<tag k="ssr:stedsnr" v="323470" />
	</node>
	<node id="-781215" lat="70.6684416708" lon="23.0537721671">
		<tag k="name" v="Ráššajávri" />
		<tag k="name:se" v="Ráššajávri" />
		<tag k="natural" v="water" />
		<tag k="old_name:se" v="Raššajavri" />
		<tag k="ssr:stedsnr" v="323455" />
	</node>
	<node id="-781214" lat="70.6572194471" lon="22.8798138395">
		<tag k="name" v="Steinvannet" />
		<tag k="natural" v="water" />
		<tag k="ssr:stedsnr" v="323444" />
	</node>
	<node id="-781213" lat="70.6557222194" lon="22.9102999404">
		<tag k="name" v="Trollkorsvannet" />
		<tag k="natural" v="water" />
		<tag k="ssr:stedsnr" v="323443" />
	</node>
	<node id="-782232" lat="70.74383611" lon="23.1669415898">
		<tag k="name" v="Mikkelelva" />
		<tag k="ssr:stedsnr" v="626284" />
		<tag k="waterway" v="stream" />
	</node>
	<node id="-781207" lat="70.5807611096" lon="22.9329471663">
		<tag k="name" v="Hamnefjordelva" />
		<tag k="ssr:stedsnr" v="323397" />
		<tag k="waterway" v="stream" />
	</node>
	<node id="-781805" lat="70.6600222225" lon="23.8200332317">
		<tag k="name" v="Kvitsteinvannet" />
		<tag k="natural" v="water" />
		<tag k="ssr:stedsnr" v="206882" />
		<tag k="water" v="lake" />
	</node>
	<node id="-781703" lat="70.6820000042" lon="23.7034332552">
		<tag k="name" v="Storvannet" />
		<tag k="natural" v="water" />
		<tag k="ssr:stedsnr" v="152232" />
		<tag k="water" v="lake" />
	</node>
	<node id="-781190" lat="70.5044972248" lon="23.5056943692">
		<tag k="name" v="Tindvannene - Čáhcegopjávrrit" />
		<tag k="name:no" v="Tindvannene" />
		<tag k="name:se" v="Čáhcegopjávrrit" />
		<tag k="natural" v="water" />
		<tag k="old_name:se" v="Čaccegåpjavrit" />
		<tag k="ssr:stedsnr" v="323176" />
	</node>
	<node id="-781701" lat="70.6806361133" lon="23.772511019">
		<tag k="loc_name:se" v="Bollojohka" />
		<tag k="name" v="Sjåvasselva" />
		<tag k="name:no" v="Sjåvasselva" />
		<tag k="ssr:stedsnr" v="152231" />
		<tag k="waterway" v="stream" />
	</node>
	<node id="-782212" lat="70.5072694478" lon="23.3775054854">
		<tag k="name" v="Storvannet - Stuorajávri" />
		<tag k="name:no" v="Storvannet" />
		<tag k="name:se" v="Stuorajávri" />
		<tag k="natural" v="water" />
		<tag k="old_name:se" v="Stuorajavri" />
		<tag k="ssr:stedsnr" v="626102" />
		<tag k="water" v="lake" />
	</node>
	<node id="-781699" lat="70.7133305634" lon="23.8025776738">
		<tag k="name" v="Storvannet" />
		<tag k="natural" v="water" />
		<tag k="ssr:stedsnr" v="152213" />
	</node>
	<node id="-782209" lat="70.4810305537" lon="23.3758360291">
		<tag k="name" v="Mellanvannet" />
		<tag k="natural" v="water" />
		<tag k="ssr:stedsnr" v="626093" />
	</node>
	<node id="-782208" lat="70.8212388872" lon="23.3490415941">
		<tag k="name" v="Jensvardvannet" />
		<tag k="natural" v="water" />
		<tag k="ssr:stedsnr" v="626090" />
	</node>
	<node id="-781695" lat="70.6481888907" lon="23.6621665807">
		<tag k="name" v="Rørvikvannet" />
		<tag k="natural" v="water" />
		<tag k="ssr:stedsnr" v="152182" />
	</node>
	<node id="-781694" lat="70.6548777826" lon="23.7107582426">
		<tag k="name" v="Rumpetrollvannet" />
		<tag k="natural" v="water" />
		<tag k="ssr:stedsnr" v="152164" />
	</node>
	<node id="-782205" lat="70.4415111131" lon="23.1612249169">
		<tag k="name" v="Strovmmajávri" />
		<tag k="name:se" v="Strovmmajávri" />
		<tag k="natural" v="water" />
		<tag k="old_name:se" v="Stråvmajavri;Strovmmajavri" />
		<tag k="ssr:stedsnr" v="626075" />
		<tag k="water" v="lake" />
	</node>
	<node id="-782715" lat="70.6494222226" lon="23.65204436">
		<tag k="name" v="Kjønna" />
		<tag k="natural" v="water" />
		<tag k="ssr:stedsnr" v="941149" />
	</node>
	<node id="-782202" lat="70.7020777837" lon="23.9244887947">
		<tag k="loc_name:se" v="Risvahluoppal" />
		<tag k="name" v="Risvågvannet" />
		<tag k="name:no" v="Risvågvannet" />
		<tag k="natural" v="water" />
		<tag k="ssr:stedsnr" v="626069" />
	</node>
	<node id="-781688" lat="70.5894833315" lon="23.486380477">
		<tag k="name" v="Moanvannet" />
		<tag k="natural" v="water" />
		<tag k="ssr:stedsnr" v="145906" />
		<tag k="water" v="lake" />
	</node>
	<node id="-782711" lat="70.6987472273" lon="23.626663798">
		<tag k="name" v="Skjærvikelva" />
		<tag k="ssr:stedsnr" v="941091" />
		<tag k="waterway" v="stream" />
	</node>
	<node id="-782710" lat="70.6065611099" lon="23.6240749129">
		<tag k="name" v="Sennavannet" />
		<tag k="natural" v="water" />
		<tag k="ssr:stedsnr" v="941070" />
	</node>
	<node id="-782709" lat="70.611019447" lon="23.6322999202">
		<tag k="name" v="Storvikvannet" />
		<tag k="natural" v="water" />
		<tag k="ssr:stedsnr" v="941061" />
	</node>
	<node id="-782196" lat="70.7294611174" lon="23.7342054688">
		<tag k="name" v="Kuskarvannene - Gámmejávrrit" />
		<tag k="name:no" v="Kuskarvannene" />
		<tag k="name:se" v="Gámmejávrrit" />
		<tag k="natural" v="water" />
		<tag k="old_name:se" v="Gammejavrit" />
		<tag k="ssr:stedsnr" v="626037" />
	</node>
	<node id="-782707" lat="70.6082944426" lon="23.6247665888">
		<tag k="name" v="Jossavannet" />
		<tag k="natural" v="water" />
		<tag k="ssr:stedsnr" v="938798" />
	</node>
	<node id="-781680" lat="70.6728805604" lon="22.8903416087">
		<tag k="name" v="Djupvannet" />
		<tag k="natural" v="water" />
		<tag k="ssr:stedsnr" v="141477" />
	</node>
	<node id="-782703" lat="70.6645333396" lon="23.8761971203">
		<tag k="name" v="Larsfjellvannet" />
		<tag k="natural" v="water" />
		<tag k="ssr:stedsnr" v="934873" />
		<tag k="water" v="lake" />
	</node>
	<node id="-782699" lat="70.6774999969" lon="22.8955110547">
		<tag k="name" v="Fuglebergvannan" />
		<tag k="natural" v="water" />
		<tag k="ssr:stedsnr" v="930486" />
		<tag k="water" v="lake" />
	</node>
	<node id="-781482" lat="70.6692222215" lon="23.8633193353">
		<tag k="name" v="Øvre Kvalfjordvannet - Bajit Fállejávri" />
		<tag k="name:no" v="Øvre Kvalfjordvannet" />
		<tag k="name:se" v="Bajit Fállejávri" />
		<tag k="natural" v="water" />
		<tag k="ssr:stedsnr" v="24891" />
		<tag k="water" v="lake" />
	</node>
	<node id="-781673" lat="70.6429555538" lon="23.0157638285">
		<tag k="name" v="Straumvannet" />
		<tag k="natural" v="water" />
		<tag k="ssr:stedsnr" v="141442" />
		<tag k="water" v="lake" />
	</node>
	<node id="-782695" lat="70.6412222235" lon="23.1292999451">
		<tag k="name" v="Lillevannet" />
		<tag k="natural" v="water" />
		<tag k="ssr:stedsnr" v="930450" />
	</node>
	<node id="-781668" lat="70.5977472192" lon="22.9643138355">
		<tag k="name" v="Hamnefjordvannan" />
		<tag k="natural" v="water" />
		<tag k="ssr:stedsnr" v="141422" />
		<tag k="water" v="lake" />
	</node>
	<node id="-781665" lat="70.5966750038" lon="23.5136082423">
		<tag k="name" v="Rasladdvannet - Rásláttjávri" />
		<tag k="name:no" v="Rasladdvannet" />
		<tag k="name:se" v="Rásláttjávri" />
		<tag k="natural" v="water" />
		<tag k="old_name:se" v="Rasladdjavri" />
		<tag k="ssr:stedsnr" v="141246" />
	</node>
	<node id="-782688" lat="70.5618416722" lon="22.744838836">
		<tag k="name" v="Kobbefjordvannet" />
		<tag k="natural" v="water" />
		<tag k="ssr:stedsnr" v="930359" />
	</node>
	<node id="-782686" lat="70.7355777811" lon="23.2347054998">
		<tag k="name" v="Holmevannet" />
		<tag k="natural" v="water" />
		<tag k="ssr:stedsnr" v="930289" />
		<tag k="water" v="lake" />
	</node>
	<node id="-782169" lat="70.7200194508" lon="23.7770304564">
		<tag k="name" v="Mylingskarselva" />
		<tag k="ssr:stedsnr" v="577206" />
		<tag k="waterway" v="stream" />
	</node>
	<node id="-782679" lat="70.5332916656" lon="23.4606554794">
		<tag k="name" v="Eidvågvannet - Muotkevuonjávri" />
		<tag k="name:no" v="Eidvågvannet" />
		<tag k="name:se" v="Muotkevuonjávri" />
		<tag k="natural" v="water" />
		<tag k="old_name:se" v="Muotkevuonjavri" />
		<tag k="ssr:stedsnr" v="930215" />
		<tag k="water" v="lake" />
	</node>
	<node id="-782166" lat="70.6141722251" lon="23.6471110089">
		<tag k="name" v="Dikvannet" />
		<tag k="natural" v="water" />
		<tag k="ssr:stedsnr" v="577149" />
	</node>
	<node id="-781139" lat="70.7190833369" lon="23.7896388097">
		<tag k="name" v="Vassbotnelva" />
		<tag k="ssr:stedsnr" v="274187" />
		<tag k="waterway" v="river" />
	</node>
	<node id="-781649" lat="70.6508000017" lon="23.6711971242">
		<tag k="name" v="Jansvannet" />
		<tag k="natural" v="water" />
		<tag k="ssr:stedsnr" v="141025" />
	</node>
	<node id="-781134" lat="70.6389250028" lon="23.7100693517">
		<tag k="name" v="Tyvvannet" />
		<tag k="natural" v="water" />
		<tag k="ssr:stedsnr" v="273175" />
	</node>
	<node id="-782156" lat="70.5402805546" lon="23.1457665919">
		<tag k="name" v="Vannverkvannet" />
		<tag k="natural" v="water" />
		<tag k="ssr:stedsnr" v="574908" />
		<tag k="water" v="lake" />
	</node>
	<node id="-782155" lat="70.7024777763" lon="23.7664332355">
		<tag k="name" v="Årresjåvannet" />
		<tag k="natural" v="water" />
		<tag k="ssr:stedsnr" v="574886" />
	</node>
	<node id="-782153" lat="70.5644222206" lon="23.5142888107">
		<tag k="name" v="Tyvvannet" />
		<tag k="natural" v="water" />
		<tag k="ssr:stedsnr" v="570898" />
		<tag k="water" v="lake" />
	</node>
	<node id="-781636" lat="70.517691668" lon="23.3981638193">
		<tag k="name" v="Ráššajávri" />
		<tag k="name:se" v="Ráššajávri" />
		<tag k="natural" v="water" />
		<tag k="old_name:se" v="Raššajavri" />
		<tag k="ssr:stedsnr" v="141070" />
	</node>
	<node id="-782145" lat="70.6399527821" lon="23.1080693755">
		<tag k="name" v="Trollvannet" />
		<tag k="natural" v="water" />
		<tag k="ssr:stedsnr" v="566437" />
	</node>
	<node id="-782654" lat="70.6766444438" lon="23.7798832505">
		<tag k="name" v="Dobbelvannene - Bollojávri" />
		<tag k="name:no" v="Dobbelvannene" />
		<tag k="name:se" v="Bollojávri" />
		<tag k="natural" v="water" />
		<tag k="old_name:se" v="Bållujavri" />
		<tag k="ssr:stedsnr" v="930001" />
	</node>
	<node id="-782652" lat="70.4704722219" lon="23.3747527001">
		<tag k="name" v="Øvrevannet" />
		<tag k="natural" v="water" />
		<tag k="ssr:stedsnr" v="929050" />
		<tag k="water" v="lake" />
	</node>
	<node id="-782651" lat="70.4084138936" lon="22.9468443848">
		<tag k="name" v="Lárasjávri" />
		<tag k="name:se" v="Lárasjávri" />
		<tag k="natural" v="water" />
		<tag k="old_name:se" v="Larasjavri" />
		<tag k="ssr:stedsnr" v="929028" />
	</node>
	<node id="-782138" lat="70.7258999998" lon="23.3040999285">
		<tag k="alt_name" v="Setervatnet" />
		<tag k="name" v="Sætervatnet" />
		<tag k="natural" v="water" />
		<tag k="ssr:stedsnr" v="566269" />
	</node>
	<node id="-781624" lat="70.4479444453" lon="23.190561032">
		<tag k="name" v="Straumvannene" />
		<tag k="natural" v="water" />
		<tag k="ssr:stedsnr" v="140049" />
		<tag k="water" v="lake" />
	</node>
	<node id="-782133" lat="70.7533416731" lon="23.1988943695">
		<tag k="name" v="Øvre Hårfjellvannet" />
		<tag k="natural" v="water" />
		<tag k="ssr:stedsnr" v="566189" />
	</node>
	<node id="-782131" lat="70.7670055565" lon="23.1402860338">
		<tag k="name" v="Lomvannet" />
		<tag k="natural" v="water" />
		<tag k="ssr:stedsnr" v="566176" />
	</node>
	<node id="-782639" lat="70.6171916678" lon="23.654233242">
		<tag k="name" v="Gjørmevannet" />
		<tag k="natural" v="water" />
		<tag k="ssr:stedsnr" v="881155" />
	</node>
	<node id="-781874" lat="70.6360027806" lon="23.7926526755">
		<tag k="name" v="Vearajávrrit" />
		<tag k="name:se" v="Vearajávrrit" />
		<tag k="natural" v="water" />
		<tag k="old_name:se" v="Værajavrit" />
		<tag k="ssr:stedsnr" v="263023" />
		<tag k="water" v="lake" />
	</node>
	<node id="-782121" lat="70.6942638915" lon="23.9571415519">
		<tag k="name" v="Fjellvikvannet" />
		<tag k="natural" v="water" />
		<tag k="ssr:stedsnr" v="566067" />
	</node>
	<node id="-782631" lat="70.6449138953" lon="23.6342415858">
		<tag k="name" v="Rypklubbeidet" />
		<tag k="natural" v="strait" />
		<tag k="ssr:stedsnr" v="874051" />
	</node>
	<node id="-782117" lat="70.649152779" lon="23.7700443443">
		<tag k="name" v="Riebansilbaskáidi" />
		<tag k="name:se" v="Riebansilbaskáidi" />
		<tag k="natural" v="cape" />
		<tag k="old_name:se" v="Riebansilbaskaidi" />
		<tag k="ssr:stedsnr" v="566025" />
	</node>
	<node id="-782116" lat="70.6789999984" lon="23.8411582339">
		<tag k="name" v="Kvalfjordvannet - Vuolit Fállejávri" />
		<tag k="name:no" v="Kvalfjordvannet" />
		<tag k="name:se" v="Vuolit Fállejávri" />
		<tag k="natural" v="water" />
		<tag k="ssr:stedsnr" v="566005" />
		<tag k="water" v="lake" />
	</node>
	<node id="-782627" lat="70.6521750041" lon="23.0013471518">
		<tag k="name" v="Johanvannet" />
		<tag k="natural" v="water" />
		<tag k="ssr:stedsnr" v="870454" />
	</node>
	<node id="-782624" lat="70.6101972276" lon="23.0110193836">
		<tag k="name" v="Melkarvannet" />
		<tag k="natural" v="water" />
		<tag k="ssr:stedsnr" v="870425" />
		<tag k="water" v="lake" />
	</node>
	<node id="-781599" lat="70.6616722227" lon="23.6918693606">
		<tag k="name" v="Salsvannet" />
		<tag k="natural" v="water" />
		<tag k="ssr:stedsnr" v="92200" />
	</node>
	<node id="-782622" lat="70.5919083315" lon="22.8609971517">
		<tag k="name" v="Øvre Hamnefjordvannet" />
		<tag k="natural" v="water" />
		<tag k="ssr:stedsnr" v="870417" />
	</node>
	<node id="-782077" lat="70.6412972268" lon="23.7911610064">
		<tag k="name" v="Vestfjelldammen" />
		<tag k="natural" v="water" />
		<tag k="ssr:stedsnr" v="526993" />
		<tag k="water" v="lake" />
	</node>
	<node id="-782724" lat="70.614930559" lon="23.7165110096">
		<tag k="name" v="Nedre Olavannet" />
		<tag k="natural" v="water" />
		<tag k="ssr:stedsnr" v="941225" />
	</node>
	<node id="-781287" lat="70.8360555548" lon="23.3518804688">
		<tag k="name" v="Kjøttvikvannet" />
		<tag k="natural" v="water" />
		<tag k="ssr:stedsnr" v="384077" />
	</node>
	<node id="-782098" lat="70.8013305604" lon="23.4586527136">
		<tag k="name" v="Russevikvannet" />
		<tag k="natural" v="water" />
		<tag k="ssr:stedsnr" v="565134" />
	</node>
	<node id="-782609" lat="70.6709361101" lon="23.755805458">
		<tag k="name" v="Langvannet - Guhkesjávri" />
		<tag k="name:no" v="Langvannet" />
		<tag k="name:se" v="Guhkesjávri" />
		<tag k="natural" v="water" />
		<tag k="old_name:se" v="Gukkesjavri" />
		<tag k="ssr:stedsnr" v="870015" />
	</node>
	<node id="-782608" lat="70.6621750048" lon="23.790794356">
		<tag k="name" v="Glimmevannet - Riebansilbajávri" />
		<tag k="name:no" v="Glimmevannet" />
		<tag k="name:se" v="Riebansilbajávri" />
		<tag k="natural" v="water" />
		<tag k="old_name:se" v="Riebansilbajavri" />
		<tag k="ssr:stedsnr" v="870011" />
		<tag k="water" v="lake" />
	</node>
	<node id="-781583" lat="70.654441671" lon="22.976080498">
		<tag k="name" v="Mebotnvannet" />
		<tag k="natural" v="water" />
		<tag k="ssr:stedsnr" v="81466" />
		<tag k="water" v="lake" />
	</node>
	<node id="-782721" lat="70.7361388878" lon="23.8035693607">
		<tag k="name" v="Láttu" />
		<tag k="name:se" v="Láttu" />
		<tag k="natural" v="water" />
		<tag k="ssr:stedsnr" v="941204" />
	</node>
	<node id="-781571" lat="70.7288694431" lon="23.1956888274">
		<tag k="name" v="Langstrandvannet" />
		<tag k="natural" v="water" />
		<tag k="ssr:stedsnr" v="81284" />
		<tag k="water" v="lake" />
	</node>
	<node id="-781569" lat="70.5257388876" lon="23.4477638047">
		<tag k="name" v="Torvannet - Durejávri" />
		<tag k="name:no" v="Torvannet" />
		<tag k="name:se" v="Durejávri" />
		<tag k="natural" v="water" />
		<tag k="old_name:se" v="Durejavri" />
		<tag k="ssr:stedsnr" v="81230" />
	</node>
	<node id="-781566" lat="70.6854111127" lon="24.0050748886">
		<tag k="name" v="Småvannene" />
		<tag k="natural" v="water" />
		<tag k="ssr:stedsnr" v="81181" />
		<tag k="water" v="lake" />
	</node>
	<node id="-782589" lat="70.812841665" lon="23.3617110474">
		<tag k="name" v="Gamvikvannet" />
		<tag k="natural" v="water" />
		<tag k="ssr:stedsnr" v="869094" />
	</node>
	<node id="-781563" lat="70.7796472261" lon="23.1360610449">
		<tag k="name" v="Sætravannet" />
		<tag k="natural" v="water" />
		<tag k="ssr:stedsnr" v="81157" />
	</node>
	<node id="-782065" lat="70.6933916648" lon="23.7783110235">
		<tag k="name" v="Vesterpollelva" />
		<tag k="ssr:stedsnr" v="516226" />
		<tag k="waterway" v="stream" />
	</node>
	<node id="-782064" lat="70.7126777814" lon="23.7581610274">
		<tag k="name" v="Grytavannet" />
		<tag k="natural" v="water" />
		<tag k="ssr:stedsnr" v="516212" />
	</node>
	<node id="-782062" lat="70.6513027806" lon="23.7521443516">
		<tag k="name" v="Ingebrigtsvannet" />
		<tag k="natural" v="water" />
		<tag k="ssr:stedsnr" v="516158" />
	</node>
	<node id="-781547" lat="70.6880638903" lon="23.9683165751">
		<tag k="name" v="Storvikvannet" />
		<tag k="natural" v="water" />
		<tag k="ssr:stedsnr" v="81006" />
		<tag k="water" v="lake" />
	</node>
	<node id="-782571" lat="70.7784444461" lon="23.3820971547">
		<tag k="name" v="Finnelv" />
		<tag k="ssr:stedsnr" v="821710" />
		<tag k="waterway" v="river" />
	</node>
	<node id="-782049" lat="70.6839555578" lon="24.0163471267">
		<tag k="name" v="Skogvikvannet" />
		<tag k="natural" v="water" />
		<tag k="ssr:stedsnr" v="506195" />
	</node>
	<node id="-781520" lat="70.4043027784" lon="22.9784665965">
		<tag k="name" v="Máŋnajávri" />
		<tag k="name:se" v="Máŋnajávri" />
		<tag k="natural" v="water" />
		<tag k="old_name:se" v="Maŋnajavri" />
		<tag k="ssr:stedsnr" v="80027" />
	</node>
	<node id="-782046" lat="70.6398027795" lon="22.8796388389">
		<tag k="name" v="Fiskevannet" />
		<tag k="natural" v="water" />
		<tag k="ssr:stedsnr" v="505439" />
	</node>
	<node id="-781690" lat="70.661688896" lon="23.7330832323">
		<tag k="name" v="Svartvannet" />
		<tag k="natural" v="water" />
		<tag k="ssr:stedsnr" v="149783" />
	</node>
	<node id="-782552" lat="70.6227472236" lon="23.7519193528">
		<tag k="name" v="Tverrfjellvannene" />
		<tag k="natural" v="water" />
		<tag k="ssr:stedsnr" v="817783" />
		<tag k="water" v="lake" />
	</node>
	<node id="-782036" lat="70.7229416682" lon="23.3157471501">
		<tag k="name" v="Sæterelva" />
		<tag k="ssr:stedsnr" v="505259" />
		<tag k="waterway" v="stream" />
	</node>
	<node id="-781518" lat="70.5405472254" lon="23.4105276897">
		<tag k="name" v="Fjordvannet" />
		<tag k="natural" v="water" />
		<tag k="ssr:stedsnr" v="80105" />
	</node>
	<node id="-782033" lat="70.6151888882" lon="23.6690471254">
		<tag k="name" v="Saragamvannet - Rávdnjejávri" />
		<tag k="name:no" v="Saragamvannet" />
		<tag k="name:se" v="Rávdnjejávri" />
		<tag k="natural" v="water" />
		<tag k="old_name:se" v="Ravdnjejavri" />
		<tag k="ssr:stedsnr" v="505242" />
	</node>
	<node id="-782544" lat="70.6717722217" lon="23.1126388183">
		<tag k="name" v="Olajordvannet" />
		<tag k="natural" v="water" />
		<tag k="ssr:stedsnr" v="809480" />
	</node>
	<node id="-781519" lat="70.5429194443" lon="23.4056138019">
		<tag k="name" v="Vollavannet" />
		<tag k="natural" v="water" />
		<tag k="ssr:stedsnr" v="80107" />
	</node>
	<node id="-782030" lat="70.6062583329" lon="23.4920860271">
		<tag k="name" v="Ersvikvannet - Jallajávri" />
		<tag k="name:no" v="Ersvikvannet" />
		<tag k="name:se" v="Jallajávri" />
		<tag k="natural" v="water" />
		<tag k="old_name:se" v="Jallajavri" />
		<tag k="ssr:stedsnr" v="505234" />
	</node>
	<node id="-782540" lat="70.6396916685" lon="23.1243082621">
		<tag k="name" v="Storvannet" />
		<tag k="natural" v="water" />
		<tag k="ssr:stedsnr" v="809457" />
	</node>
	<node id="-782026" lat="70.5119194447" lon="23.5255526993">
		<tag k="name" v="Čáhcegopjohka" />
		<tag k="name:se" v="Čáhcegopjohka" />
		<tag k="old_name:se" v="Čaccegåpjåkka" />
		<tag k="ssr:stedsnr" v="505181" />
		<tag k="waterway" v="stream" />
	</node>
	<node id="-782021" lat="70.5321166726" lon="23.3777832628">
		<tag k="name" v="Hamnevannet" />
		<tag k="natural" v="water" />
		<tag k="ssr:stedsnr" v="505125" />
	</node>
	<node id="-781266" lat="70.6186472274" lon="23.8205554597">
		<tag k="name" v="Montenegrovannet - Guhkesjávri" />
		<tag k="name:no" v="Montenegrovannet" />
		<tag k="name:se" v="Guhkesjávri" />
		<tag k="natural" v="water" />
		<tag k="old_name:se" v="Gukkesjavri" />
		<tag k="ssr:stedsnr" v="383250" />
	</node>
	<node id="-782530" lat="70.5452944469" lon="23.5234665838">
		<tag k="name" v="Eidevannet - Čohkadoggejávri" />
		<tag k="name:no" v="Eidevannet" />
		<tag k="name:se" v="Čohkadoggejávri" />
		<tag k="natural" v="water" />
		<tag k="old_name:se" v="Čåkkadåggejavri" />
		<tag k="ssr:stedsnr" v="809220" />
	</node>
	<node id="-782528" lat="70.7649027832" lon="23.1605610339">
		<tag k="name" v="Nedre Hårfjellvannet" />
		<tag k="natural" v="water" />
		<tag k="ssr:stedsnr" v="809177" />
	</node>
	<node id="-782527" lat="70.7633194451" lon="23.1737666118">
		<tag k="name" v="Mikkelvannene" />
		<tag k="natural" v="water" />
		<tag k="ssr:stedsnr" v="809175" />
		<tag k="water" v="lake" />
	</node>
	<node id="-781502" lat="70.6211388898" lon="23.6770776887">
		<tag k="name" v="Lillevannet" />
		<tag k="natural" v="water" />
		<tag k="ssr:stedsnr" v="31244" />
	</node>
	<node id="-781685" lat="70.4935833343" lon="23.4996026828">
		<tag k="name" v="Vassbuktvannet - Buogojávri" />
		<tag k="name:no" v="Vassbuktvannet" />
		<tag k="name:se" v="Buogojávri" />
		<tag k="natural" v="water" />
		<tag k="old_name:se" v="Buogujavri" />
		<tag k="ssr:stedsnr" v="141940" />
		<tag k="water" v="lake" />
	</node>
	<node id="-782011" lat="70.8196944496" lon="23.4135971364">
		<tag k="name" v="Trollbuktvannet" />
		<tag k="natural" v="water" />
		<tag k="ssr:stedsnr" v="505095" />
	</node>
	<node id="-782521" lat="70.7331250023" lon="23.7661832331">
		<tag k="loc_name:se" v="Muvrajávri" />
		<tag k="name" v="Pisselvvannet" />
		<tag k="name:no" v="Pisselvvannet" />
		<tag k="natural" v="water" />
		<tag k="ssr:stedsnr" v="809103" />
	</node>
	<node id="-782520" lat="70.8252555605" lon="23.4000249157">
		<tag k="name" v="Klipavannet" />
		<tag k="natural" v="water" />
		<tag k="ssr:stedsnr" v="809098" />
	</node>
	<node id="-782519" lat="70.7429111122" lon="23.7803165865">
		<tag k="name" v="Pisselva" />
		<tag k="ssr:stedsnr" v="809093" />
		<tag k="waterway" v="stream" />
	</node>
	<node id="-782517" lat="70.6954138944" lon="23.9180026768">
		<tag k="loc_name:se" v="Risváhjávri" />
		<tag k="name" v="Middagsfjellvannet" />
		<tag k="name:no" v="Middagsfjellvannet" />
		<tag k="natural" v="water" />
		<tag k="ssr:stedsnr" v="809070" />
	</node>
	<node id="-781490" lat="70.592380562" lon="23.6841665667">
		<tag k="name" v="Baggajohka" />
		<tag k="name:se" v="Baggajohka" />
		<tag k="ssr:stedsnr" v="31156" />
		<tag k="waterway" v="stream" />
	</node>
	<node id="-781485" lat="70.5230916697" lon="23.326608249">
		<tag k="name" v="Tverrfjordelva - Doaresvuonjohka" />
		<tag k="name:no" v="Tverrfjordelva" />
		<tag k="name:se" v="Doaresvuonjohka" />
		<tag k="ssr:stedsnr" v="28900" />
		<tag k="waterway" v="river" />
	</node>
	<node id="-781995" lat="70.6584722228" lon="22.9267860548">
		<tag k="name" v="Storelva" />
		<tag k="ssr:stedsnr" v="505033" />
		<tag k="waterway" v="river" />
	</node>
	<node id="-781994" lat="70.6769055599" lon="23.7431276993">
		<tag k="name" v="Hyggevannet - Njárgajávri" />
		<tag k="name:no" v="Hyggevannet" />
		<tag k="name:se" v="Njárgajávri" />
		<tag k="natural" v="water" />
		<tag k="old_name:se" v="Njargajavri" />
		<tag k="ssr:stedsnr" v="505016" />
		<tag k="water" v="lake" />
	</node>
	<node id="-781630" lat="70.6986277821" lon="23.2283888247">
		<tag k="name" v="Korsdalsvannet" />
		<tag k="natural" v="water" />
		<tag k="ssr:stedsnr" v="140467" />
	</node>
	<node id="-781472" lat="70.6166416663" lon="23.0378138291">
		<tag k="name" v="Sløkvannet" />
		<tag k="natural" v="water" />
		<tag k="ssr:stedsnr" v="20411" />
	</node>
	<node id="-782475" lat="70.6795972249" lon="23.6825082361">
		<tag k="name" v="Mellomvannet" />
		<tag k="natural" v="water" />
		<tag k="ssr:stedsnr" v="759232" />
	</node>
	<node id="-782470" lat="70.7202416694" lon="23.756363788">
		<tag k="name" v="Marinevannet" />
		<tag k="natural" v="water" />
		<tag k="ssr:stedsnr" v="759199" />
	</node>
	<node id="-782469" lat="70.7124277783" lon="23.7842332301">
		<tag k="name" v="Tovannene" />
		<tag k="natural" v="water" />
		<tag k="ssr:stedsnr" v="759197" />
		<tag k="water" v="lake" />
	</node>
	<node id="-782468" lat="70.7086972293" lon="23.793324903">
		<tag k="name" v="Kalvelva" />
		<tag k="ssr:stedsnr" v="759196" />
		<tag k="waterway" v="stream" />
	</node>
	<node id="-781443" lat="70.8394194451" lon="23.040347172">
		<tag k="name" v="Storevannet" />
		<tag k="natural" v="water" />
		<tag k="ssr:stedsnr" v="20073" />
	</node>
	<node id="-781953" lat="70.671222223" lon="23.143755491">
		<tag k="name" v="Jakobbuktvannet" />
		<tag k="natural" v="water" />
		<tag k="ssr:stedsnr" v="445481" />
	</node>
	<node id="-781950" lat="70.6439666652" lon="22.8591277075">
		<tag k="name" v="Vegdalvannet" />
		<tag k="natural" v="water" />
		<tag k="ssr:stedsnr" v="445461" />
	</node>
	<node id="-782461" lat="70.6141583318" lon="23.6689110176">
		<tag k="name" v="Øvreneset" />
		<tag k="natural" v="cape" />
		<tag k="ssr:stedsnr" v="759146" />
	</node>
	<node id="-781434" lat="70.6311111142" lon="23.7951526945">
		<tag k="name" v="Rundvannet" />
		<tag k="natural" v="water" />
		<tag k="ssr:stedsnr" v="20023" />
		<tag k="water" v="lake" />
	</node>
	<node id="-782457" lat="70.5418055589" lon="23.1366249345">
		<tag k="name" v="Klemetbuktvannet" />
		<tag k="natural" v="water" />
		<tag k="ssr:stedsnr" v="756905" />
		<tag k="water" v="lake" />
	</node>
	<node id="-781432" lat="70.6627027815" lon="23.7079054667">
		<tag k="name" v="Storvannet - Gávpotjávri" />
		<tag k="name:no" v="Storvannet" />
		<tag k="name:se" v="Gávpotjávri" />
		<tag k="natural" v="water" />
		<tag k="old_name:se" v="Gavputjavri" />
		<tag k="ssr:stedsnr" v="20014" />
		<tag k="water" v="lake" />
	</node>
	<node id="-782454" lat="70.6121444472" lon="23.8851443535">
		<tag k="name" v="Linjevannet" />
		<tag k="natural" v="water" />
		<tag k="ssr:stedsnr" v="752878" />
		<tag k="water" v="lake" />
	</node>
	<node id="-782452" lat="70.4888805615" lon="23.5626026897">
		<tag k="name" v="Reinvatnet - Boazojávri" />
		<tag k="name:no" v="Reinvatnet" />
		<tag k="name:se" v="Boazojávri" />
		<tag k="natural" v="water" />
		<tag k="old_name:se" v="Boazujavri" />
		<tag k="ssr:stedsnr" v="748962" />
	</node>
	<node id="-781219" lat="70.6969944438" lon="23.1903054725">
		<tag k="name" v="Blåvannene" />
		<tag k="natural" v="water" />
		<tag k="ssr:stedsnr" v="323497" />
		<tag k="water" v="lake" />
	</node>
	<node id="-782444" lat="70.6438666658" lon="22.9640499224">
		<tag k="name" v="Øvre Mebotnvannet" />
		<tag k="natural" v="water" />
		<tag k="ssr:stedsnr" v="748445" />
	</node>
	<node id="-781304" lat="70.7693694471" lon="23.333405492">
		<tag k="name" v="Linjevannet" />
		<tag k="natural" v="water" />
		<tag k="ssr:stedsnr" v="384182" />
	</node>
	<node id="-782440" lat="70.6157472258" lon="23.4066054823">
		<tag k="name" v="Fagervikvannet - Fádderviikjávri" />
		<tag k="name:no" v="Fagervikvannet" />
		<tag k="name:se" v="Fádderviikjávri" />
		<tag k="natural" v="water" />
		<tag k="ssr:stedsnr" v="748409" />
	</node>
	<node id="-781924" lat="70.650569451" lon="23.7181888048">
		<tag k="name" v="Langvannet" />
		<tag k="natural" v="water" />
		<tag k="ssr:stedsnr" v="445022" />
	</node>
	<node id="-781918" lat="70.6875805566" lon="23.8663526718">
		<tag k="name" v="Dalvannet" />
		<tag k="natural" v="water" />
		<tag k="ssr:stedsnr" v="445002" />
	</node>
	<node id="-781917" lat="70.6857500014" lon="23.0790554782">
		<tag k="name" v="Stokklivannet" />
		<tag k="natural" v="water" />
		<tag k="ssr:stedsnr" v="444474" />
	</node>
	<node id="-781497" lat="70.7302972231" lon="23.785927696">
		<tag k="name" v="Forsøllivannet" />
		<tag k="natural" v="water" />
		<tag k="ssr:stedsnr" v="31209" />
	</node>
	<node id="-782417" lat="70.7422055569" lon="23.7320499219">
		<tag k="name" v="Mortebåvannene" />
		<tag k="natural" v="water" />
		<tag k="ssr:stedsnr" v="748090" />
		<tag k="water" v="lake" />
	</node>
	<node id="-782416" lat="70.5016194503" lon="23.1905304827">
		<tag k="fixme" v="multiple name tags, choose one and add the other to alt_name" />
		<tag k="name" v="Storvannet;Engedalsvannet" />
		<tag k="natural" v="water" />
		<tag k="ssr:stedsnr" v="748087" />
	</node>
	<node id="-781901" lat="70.5926472211" lon="23.8241137948">
		<tag k="name" v="Svartfjellvannene" />
		<tag k="natural" v="water" />
		<tag k="ssr:stedsnr" v="267909" />
		<tag k="water" v="lake" />
	</node>
	<node id="-781899" lat="70.7041972278" lon="23.7176860109">
		<tag k="loc_name:se" v="Latnjajávri" />
		<tag k="name" v="Steinvannet" />
		<tag k="name:no" v="Steinvannet" />
		<tag k="natural" v="water" />
		<tag k="ssr:stedsnr" v="267891" />
		<tag k="water" v="lake" />
	</node>
	<node id="-781898" lat="70.6972222276" lon="23.6733360247">
		<tag k="name" v="Skjåvikvannet" />
		<tag k="natural" v="water" />
		<tag k="ssr:stedsnr" v="267890" />
		<tag k="water" v="lake" />
	</node>
	<node id="-782408" lat="70.5266861138" lon="23.4100887992">
		<tag k="name" v="Mollavannet" />
		<tag k="natural" v="water" />
		<tag k="ssr:stedsnr" v="748065" />
	</node>
	<node id="-781892" lat="70.6529749985" lon="22.9635471447">
		<tag k="name" v="Tverrfjellvannet" />
		<tag k="natural" v="water" />
		<tag k="ssr:stedsnr" v="263462" />
	</node>
	<node id="-781493" lat="70.6063277838" lon="23.6179138105">
		<tag k="name" v="Olavannet" />
		<tag k="natural" v="water" />
		<tag k="ssr:stedsnr" v="31073" />
	</node>
	<node id="-781882" lat="70.5096777808" lon="23.229786028">
		<tag k="name" v="Martavannet" />
		<tag k="natural" v="water" />
		<tag k="ssr:stedsnr" v="263099" />
	</node>
	<node id="-782393" lat="70.4741555546" lon="23.2792582662">
		<tag k="name" v="Fosselv" />
		<tag k="ssr:stedsnr" v="747050" />
		<tag k="waterway" v="stream" />
	</node>
	<node id="-781172" lat="70.683777782" lon="23.8487860028">
		<tag k="name" v="Langgårsvannet" />
		<tag k="natural" v="water" />
		<tag k="ssr:stedsnr" v="323004" />
	</node>
	<node id="-781217" lat="70.6808305555" lon="22.8854388371">
		<tag k="name" v="Buktafjellvannene" />
		<tag k="natural" v="water" />
		<tag k="ssr:stedsnr" v="323482" />
		<tag k="water" v="lake" />
	</node>
	<node id="-782386" lat="70.6112333328" lon="23.8216971213">
		<tag k="name" v="Harehoppvannet" />
		<tag k="natural" v="water" />
		<tag k="ssr:stedsnr" v="728996" />
	</node>
	<node id="-781235" lat="70.6703500033" lon="23.7011610334">
		<tag k="name" v="Mollabekken" />
		<tag k="ssr:stedsnr" v="334224" />
		<tag k="waterway" v="stream" />
	</node>
	<node id="-781872" lat="70.6860416663" lon="23.791855468">
		<tag k="name" v="Sjåvannet - Bolloluoppal" />
		<tag k="name:no" v="Sjåvannet" />
		<tag k="name:se" v="Bolloluoppal" />
		<tag k="natural" v="water" />
		<tag k="old_name:se" v="Bålluluobbal" />
		<tag k="ssr:stedsnr" v="263002" />
	</node>
	<node id="-781867" lat="70.6815527749" lon="23.1091249392">
		<tag k="name" v="Låtervannet" />
		<tag k="natural" v="water" />
		<tag k="ssr:stedsnr" v="262486" />
	</node>
	<node id="-781866" lat="70.6871416635" lon="23.0623193876">
		<tag k="name" v="Rundvannet" />
		<tag k="natural" v="water" />
		<tag k="ssr:stedsnr" v="262485" />
	</node>
	<node id="-781865" lat="70.6749944419" lon="23.1349388268">
		<tag k="name" v="Straumvannet" />
		<tag k="natural" v="water" />
		<tag k="ssr:stedsnr" v="262479" />
	</node>
	<node id="-781864" lat="70.6781194494" lon="23.0305638356">
		<tag k="name" v="Mellomvannet" />
		<tag k="natural" v="water" />
		<tag k="ssr:stedsnr" v="262476" />
	</node>
	<node id="-781863" lat="70.6722444472" lon="23.0509388378">
		<tag k="name" v="Korsvannet" />
		<tag k="natural" v="water" />
		<tag k="ssr:stedsnr" v="262470" />
	</node>
	<node id="-781862" lat="70.6708638948" lon="23.024088832">
		<tag k="name" v="Sandvikvannet" />
		<tag k="natural" v="water" />
		<tag k="ssr:stedsnr" v="262469" />
	</node>
	<node id="-782372" lat="70.6815944461" lon="23.6950554787">
		<tag k="name" v="Tvillingvannene" />
		<tag k="natural" v="water" />
		<tag k="ssr:stedsnr" v="698218" />
		<tag k="water" v="lake" />
	</node>
	<node id="-782364" lat="70.6337361102" lon="23.6899221239">
		<tag k="name" v="Breidablikkvannet" />
		<tag k="natural" v="water" />
		<tag k="ssr:stedsnr" v="695793" />
		<tag k="water" v="lake" />
	</node>
	<node id="-782362" lat="70.6701638941" lon="23.8024915853">
		<tag k="name" v="Mellomskarvannene" />
		<tag k="natural" v="water" />
		<tag k="ssr:stedsnr" v="692887" />
		<tag k="water" v="lake" />
	</node>
	<node id="-781231" lat="70.7195416672" lon="23.7647971237">
		<tag k="name" v="Reindalselva" />
		<tag k="ssr:stedsnr" v="334196" />
		<tag k="waterway" v="stream" />
	</node>
	<node id="-781839" lat="70.4803027786" lon="23.1380999278">
		<tag k="name" v="Bohtalskáidi" />
		<tag k="name:se" v="Bohtalskáidi" />
		<tag k="natural" v="cape" />
		<tag k="old_name:se" v="Båttalskaidi" />
		<tag k="ssr:stedsnr" v="262065" />
	</node>
	<node id="-781837" lat="70.4553333344" lon="22.9521415967">
		<tag k="name" v="Dáččavuonjávri" />
		<tag k="name:se" v="Dáččavuonjávri" />
		<tag k="natural" v="water" />
		<tag k="old_name:se" v="Dažžavuonjavri" />
		<tag k="ssr:stedsnr" v="262053" />
		<tag k="water" v="lake" />
	</node>
	<node id="-781323" lat="70.6902888924" lon="23.9219276795">
		<tag k="name" v="Lomvannene" />
		<tag k="natural" v="water" />
		<tag k="ssr:stedsnr" v="388865" />
		<tag k="water" v="lake" />
	</node>
	<node id="-781322" lat="70.6362972258" lon="23.6977137971">
		<tag k="name" v="Tyvelva" />
		<tag k="ssr:stedsnr" v="388410" />
		<tag k="waterway" v="river" />
	</node>
	<node id="-782343" lat="70.6560444486" lon="22.9906443813">
		<tag k="name" v="Lomungen" />
		<tag k="natural" v="water" />
		<tag k="ssr:stedsnr" v="687437" />
	</node>
	<node id="-782342" lat="70.6385888959" lon="22.8990082637">
		<tag k="name" v="Moltebærvannet" />
		<tag k="natural" v="water" />
		<tag k="ssr:stedsnr" v="687426" />
	</node>
	<node id="-781142" lat="70.6880805606" lon="23.7243165889">
		<tag k="name" v="Rundvannet" />
		<tag k="natural" v="water" />
		<tag k="ssr:stedsnr" v="274206" />
	</node>
	<node id="-781313" lat="70.6420277763" lon="22.9202443784">
		<tag k="name" v="Blådalvannene" />
		<tag k="natural" v="water" />
		<tag k="ssr:stedsnr" v="384429" />
		<tag k="water" v="lake" />
	</node>
</osm>
