<?xml version="1.0" encoding="UTF-8"?>
<osm generator="osmapis" version="0.6">
	<node id="-780288" lat="70.4163555573" lon="22.8869360583">
		<tag k="name" v="Doajahatnjárga" />
		<tag k="name:se" v="Doajahatnjárga" />
		<tag k="natural" v="cape" />
		<tag k="old_name:se" v="Doajahatnjarga" />
		<tag k="ssr:stedsnr" v="201034" />
	</node>
	<node id="-780283" lat="70.4998722212" lon="23.2058943631">
		<tag k="name" v="Sandvannet" />
		<tag k="natural" v="bay" />
		<tag k="ssr:stedsnr" v="179558" />
	</node>
	<node id="-780282" lat="70.502716671" lon="23.1360193795">
		<tag k="name" v="Ytterhamna - Olgohámna" />
		<tag k="name:no" v="Ytterhamna" />
		<tag k="name:se" v="Olgohámna" />
		<tag k="natural" v="bay" />
		<tag k="ssr:stedsnr" v="179551" />
	</node>
	<node id="-780278" lat="70.5036888924" lon="23.0206471673">
		<tag k="name" v="Kobbmålneset" />
		<tag k="natural" v="cape" />
		<tag k="ssr:stedsnr" v="153943" />
	</node>
	<node id="-780277" lat="70.6688416697" lon="23.6232915745">
		<tag k="name" v="Godgrunnen" />
		<tag k="natural" v="shoal" />
		<tag k="place" v="locality" />
		<tag k="ssr:stedsnr" v="153716" />
	</node>
	<node id="-780276" lat="70.5767416702" lon="23.0119415971">
		<tag k="fixme" v="consider seamark:type=rock or natural=shoal" />
		<tag k="name" v="Breidliskjæret" />
		<tag k="place" v="islet" />
		<tag k="ssr:stedsnr" v="153593" />
	</node>
	<node id="-780275" lat="70.5583750046" lon="22.9161999507">
		<tag k="name" v="Sommarnesbukta" />
		<tag k="natural" v="bay" />
		<tag k="ssr:stedsnr" v="153581" />
	</node>
	<node id="-780274" lat="70.674227782" lon="22.9703054853">
		<tag k="fixme" v="consider seamark:type=rock or natural=shoal" />
		<tag k="name" v="Skarvskjæret" />
		<tag k="place" v="islet" />
		<tag k="ssr:stedsnr" v="153544" />
	</node>
	<node id="-780273" lat="70.5997055609" lon="23.5831221372">
		<tag k="name" v="Kommagnesgrunnen" />
		<tag k="natural" v="shoal" />
		<tag k="place" v="locality" />
		<tag k="ssr:stedsnr" v="153406" />
	</node>
	<node id="-780272" lat="70.6059555575" lon="23.5999082524">
		<tag k="name" v="Steinvikgrunnen" />
		<tag k="natural" v="shoal" />
		<tag k="place" v="locality" />
		<tag k="ssr:stedsnr" v="153404" />
	</node>
	<node id="-780266" lat="70.579711114" lon="23.6887665787">
		<tag k="name" v="Grøtneslandet" />
		<tag k="natural" v="beach" />
		<tag k="place" v="locality" />
		<tag k="ssr:stedsnr" v="152251" />
	</node>
	<node id="-780262" lat="70.7305333391" lon="23.825094357">
		<tag k="name" v="Holmegava" />
		<tag k="natural" v="bay" />
		<tag k="ssr:stedsnr" v="152230" />
	</node>
	<node id="-780258" lat="70.6487916682" lon="23.6359943608">
		<tag k="name" v="Langstrand" />
		<tag k="natural" v="beach" />
		<tag k="place" v="locality" />
		<tag k="ssr:stedsnr" v="152202" />
	</node>
	<node id="-780251" lat="70.6007333386" lon="23.6677165732">
		<tag k="alt_name:no" v="Lilleakkarfjorden" />
		<tag k="bay" v="fjord" />
		<tag k="loc_name:se" v="Unna Áhkárvuotna" />
		<tag k="name" v="Lille Akkarfjord - Lilleakkarfjorden" />
		<tag k="name:no" v="Lille Akkarfjord" />
		<tag k="name:se" v="Lilleakkarfjorden" />
		<tag k="natural" v="bay" />
		<tag k="ssr:stedsnr" v="149801" />
	</node>
	<node id="-780244" lat="70.7026805543" lon="23.041130497">
		<tag k="name" v="Stabban" />
		<tag k="natural" v="cape" />
		<tag k="ssr:stedsnr" v="141494" />
	</node>
	<node id="-780234" lat="70.7428138955" lon="22.9612499302">
		<tag k="name" v="Lille-Sandøya" />
		<tag k="place" v="island" />
		<tag k="ssr:stedsnr" v="141287" />
	</node>
	<node id="-780231" lat="70.621380559" lon="23.1018999333">
		<tag k="name" v="Kjerraneset" />
		<tag k="natural" v="cape" />
		<tag k="ssr:stedsnr" v="141434" />
	</node>
	<node id="-780227" lat="70.5110527807" lon="22.8125166078">
		<tag k="name" v="Rundholmen" />
		<tag k="place" v="islet" />
		<tag k="ssr:stedsnr" v="141304" />
	</node>
	<node id="-780226" lat="70.5155388907" lon="22.773799934">
		<tag k="alt_name" v="Langstranda" />
		<tag k="name" v="Langstrand" />
		<tag k="natural" v="beach" />
		<tag k="place" v="locality" />
		<tag k="ssr:stedsnr" v="141303" />
	</node>
	<node id="-780224" lat="70.5883888915" lon="23.6316665751">
		<tag k="name" v="Lysgrunnen" />
		<tag k="natural" v="shoal" />
		<tag k="place" v="locality" />
		<tag k="ssr:stedsnr" v="141237" />
	</node>
	<node id="-780220" lat="70.777300003" lon="23.2723832584">
		<tag k="bay" v="fjord" />
		<tag k="name" v="Bastafjorden" />
		<tag k="natural" v="bay" />
		<tag k="ssr:stedsnr" v="141171" />
	</node>
	<node id="-780219" lat="70.7872916728" lon="22.9707610522">
		<tag k="name" v="Mortenandersskallen" />
		<tag k="natural" v="shoal" />
		<tag k="place" v="locality" />
		<tag k="ssr:stedsnr" v="141165" />
	</node>
	<node id="-780217" lat="70.8237000061" lon="23.4479443646">
		<tag k="name" v="Trollbuktgrunnen" />
		<tag k="natural" v="shoal" />
		<tag k="place" v="locality" />
		<tag k="ssr:stedsnr" v="141157" />
	</node>
	<node id="-780214" lat="70.5357222277" lon="23.1234360441">
		<tag k="alt_name" v="Torveneset" />
		<tag k="name" v="Torvenes" />
		<tag k="natural" v="cape" />
		<tag k="ssr:stedsnr" v="141115" />
	</node>
	<node id="-780213" lat="70.8174666649" lon="23.0721749407">
		<tag k="name" v="Saksnæringen" />
		<tag k="natural" v="cape" />
		<tag k="ssr:stedsnr" v="141106" />
	</node>
	<node id="-780212" lat="70.7284416728" lon="23.6601165726">
		<tag k="alt_name" v="Kvalvika, yt" />
		<tag k="name" v="Ytre Kvalvika" />
		<tag k="natural" v="bay" />
		<tag k="ssr:stedsnr" v="141043" />
	</node>
	<node id="-780211" lat="70.7236388902" lon="23.6468026813">
		<tag k="alt_name" v="Kvalvika, in" />
		<tag k="name" v="Indre Kvalvika" />
		<tag k="natural" v="bay" />
		<tag k="ssr:stedsnr" v="141042" />
	</node>
	<node id="-780210" lat="70.7231388885" lon="23.6447888064">
		<tag k="name" v="Kvalvikneset" />
		<tag k="natural" v="cape" />
		<tag k="ssr:stedsnr" v="141038" />
	</node>
	<node id="-780208" lat="70.5792527838" lon="23.5781054712">
		<tag k="name" v="Nordneset - Nuortanjárga" />
		<tag k="name:no" v="Nordneset" />
		<tag k="name:se" v="Nuortanjárga" />
		<tag k="natural" v="cape" />
		<tag k="old_name:se" v="Nuortanjarga" />
		<tag k="ssr:stedsnr" v="141019" />
	</node>
	<node id="-780207" lat="70.6715944497" lon="23.6603360348">
		<tag k="name" v="Rossmolbukta" />
		<tag k="natural" v="bay" />
		<tag k="ssr:stedsnr" v="141015" />
	</node>
	<node id="-780206" lat="70.6709388934" lon="23.514905475">
		<tag k="name" v="Frimarkgrunnen" />
		<tag k="natural" v="shoal" />
		<tag k="place" v="locality" />
		<tag k="ssr:stedsnr" v="141014" />
	</node>
	<node id="-780205" lat="70.6943111152" lon="23.8104748982">
		<tag k="name" v="Pollen - Bollovuotna" />
		<tag k="name:no" v="Pollen" />
		<tag k="name:se" v="Bollovuotna" />
		<tag k="natural" v="bay" />
		<tag k="old_name:se" v="Bålluvuodna" />
		<tag k="ssr:stedsnr" v="141006" />
	</node>
	<node id="-780204" lat="70.7415083367" lon="23.1197721518">
		<tag k="name" v="Hønsebyneset" />
		<tag k="natural" v="cape" />
		<tag k="ssr:stedsnr" v="141284" />
	</node>
	<node id="-780203" lat="70.7192833377" lon="22.9399749471">
		<tag k="name" v="Markelasskjæret" />
		<tag k="natural" v="cape" />
		<tag k="ssr:stedsnr" v="141281" />
	</node>
	<node id="-780201" lat="70.5014805618" lon="23.1615138121">
		<tag k="name" v="Hamnebukta" />
		<tag k="natural" v="bay" />
		<tag k="ssr:stedsnr" v="141092" />
	</node>
	<node id="-780200" lat="70.7899916681" lon="23.3081054935">
		<tag k="name" v="Finnvika" />
		<tag k="natural" v="bay" />
		<tag k="ssr:stedsnr" v="141084" />
	</node>
	<node id="-780199" lat="70.7927083364" lon="23.3295832559">
		<tag k="name" v="Nordbukta" />
		<tag k="natural" v="bay" />
		<tag k="ssr:stedsnr" v="141083" />
	</node>
	<node id="-780197" lat="70.4819083358" lon="22.962130498">
		<tag k="bay" v="fjord" />
		<tag k="name" v="Nordefjorden - Nuorttat Dáččavuotna" />
		<tag k="name:no" v="Nordefjorden" />
		<tag k="name:se" v="Nuorttat Dáččavuotna" />
		<tag k="natural" v="bay" />
		<tag k="old_name:se" v="nuortat Dažžavuodna" />
		<tag k="ssr:stedsnr" v="141074" />
	</node>
	<node id="-780195" lat="70.5098722237" lon="23.1405304745">
		<tag k="bay" v="fjord" />
		<tag k="name" v="Flaskefjorden - Bohtalvuotna" />
		<tag k="name:no" v="Flaskefjorden" />
		<tag k="name:se" v="Bohtalvuotna" />
		<tag k="natural" v="bay" />
		<tag k="old_name:se" v="Båttalvuodna" />
		<tag k="ssr:stedsnr" v="141068" />
	</node>
	<node id="-780192" lat="70.8251055551" lon="23.2116138093">
		<tag k="name" v="Fjordgrunnen" />
		<tag k="natural" v="shoal" />
		<tag k="place" v="locality" />
		<tag k="ssr:stedsnr" v="141063" />
	</node>
	<node id="-780189" lat="70.576711112" lon="23.3480499179">
		<tag k="name" v="Kalvvikneset" />
		<tag k="natural" v="cape" />
		<tag k="ssr:stedsnr" v="140397" />
	</node>
	<node id="-780188" lat="70.4837305552" lon="23.2602360381">
		<tag k="bay" v="fjord" />
		<tag k="name" v="Jøfjorden - Stuoravuotna" />
		<tag k="name:no" v="Jøfjorden" />
		<tag k="name:se" v="Stuoravuotna" />
		<tag k="natural" v="bay" />
		<tag k="old_name:se" v="Stuoravuodna;Stuorravuodna" />
		<tag k="ssr:stedsnr" v="140059" />
	</node>
	<node id="-780186" lat="70.4688638937" lon="23.2433304896">
		<tag k="name" v="Straumnes" />
		<tag k="natural" v="cape" />
		<tag k="ssr:stedsnr" v="140055" />
	</node>
	<node id="-780182" lat="70.4050861104" lon="22.9337360359">
		<tag k="bay" v="fjord" />
		<tag k="name" v="Bårdfjorden - Viektavuotna" />
		<tag k="name:no" v="Bårdfjorden" />
		<tag k="name:se" v="Viektavuotna" />
		<tag k="natural" v="bay" />
		<tag k="old_name:se" v="Viektavuodna" />
		<tag k="ssr:stedsnr" v="140031" />
	</node>
	<node id="-780181" lat="70.9205444432" lon="23.6918887982">
		<tag k="name" v="Skipsholmen" />
		<tag k="place" v="islet" />
		<tag k="ssr:stedsnr" v="140122" />
	</node>
	<node id="-780171" lat="70.759436111" lon="22.9657499519">
		<tag k="fixme" v="consider seamark:type=rock or natural=shoal" />
		<tag k="name" v="Flaugskjæret" />
		<tag k="place" v="islet" />
		<tag k="ssr:stedsnr" v="94197" />
	</node>
	<node id="-780170" lat="70.5524750069" lon="23.3664360297">
		<tag k="name" v="Ytre Nordmannsneset" />
		<tag k="natural" v="cape" />
		<tag k="ssr:stedsnr" v="93736" />
	</node>
	<node id="-780169" lat="70.5705388899" lon="23.0135832657">
		<tag k="name" v="Råttenvikneset" />
		<tag k="natural" v="cape" />
		<tag k="ssr:stedsnr" v="93509" />
	</node>
	<node id="-780168" lat="70.5607416677" lon="23.6935193636">
		<tag k="name" v="Indrevalen" />
		<tag k="place" v="locality" />
		<tag k="ssr:stedsnr" v="93426" />
	</node>
	<node id="-780167" lat="70.6122722248" lon="23.5840832385">
		<tag k="fixme" v="consider seamark:type=rock or natural=shoal" />
		<tag k="name" v="Lilleskjæret" />
		<tag k="place" v="islet" />
		<tag k="ssr:stedsnr" v="93400" />
	</node>
	<node id="-780164" lat="70.7852111156" lon="23.3763388102">
		<tag k="name" v="Akkarfjordbotn" />
		<tag k="natural" v="bay" />
		<tag k="ssr:stedsnr" v="93216" />
	</node>
	<node id="-780155" lat="70.6128555587" lon="23.6294332459">
		<tag k="name" v="Storvika" />
		<tag k="natural" v="bay" />
		<tag k="ssr:stedsnr" v="92057" />
	</node>
	<node id="-780151" lat="70.5801861107" lon="23.4771443572">
		<tag k="name" v="Krangelnes" />
		<tag k="natural" v="cape" />
		<tag k="ssr:stedsnr" v="85886" />
	</node>
	<node id="-780150" lat="70.5119166686" lon="23.1664638231">
		<tag k="name" v="Gåsengbukta" />
		<tag k="natural" v="bay" />
		<tag k="ssr:stedsnr" v="85008" />
	</node>
	<node id="-780149" lat="70.7076305544" lon="23.3240249346">
		<tag k="name" v="Piggsteinen" />
		<tag k="natural" v="cape" />
		<tag k="ssr:stedsnr" v="81524" />
	</node>
	<node id="-780146" lat="70.6608277837" lon="23.1817749275">
		<tag k="name" v="Gammelheimen" />
		<tag k="natural" v="bay" />
		<tag k="ssr:stedsnr" v="81480" />
	</node>
	<node id="-780145" lat="70.6672916681" lon="22.9544249485">
		<tag k="name" v="Storelvnes" />
		<tag k="natural" v="cape" />
		<tag k="ssr:stedsnr" v="81479" />
	</node>
	<node id="-780144" lat="70.6560333364" lon="23.1743165925">
		<tag k="name" v="Gåsvika" />
		<tag k="natural" v="bay" />
		<tag k="ssr:stedsnr" v="81470" />
	</node>
	<node id="-780142" lat="70.6298694477" lon="23.0943916128">
		<tag k="name" v="Øyrnes" />
		<tag k="natural" v="cape" />
		<tag k="ssr:stedsnr" v="81447" />
	</node>
	<node id="-780140" lat="70.6253277815" lon="23.1072276992">
		<tag k="bay" v="fjord" />
		<tag k="name" v="Slettnesfjorden" />
		<tag k="natural" v="bay" />
		<tag k="ssr:stedsnr" v="81445" />
	</node>
	<node id="-780139" lat="70.6098888883" lon="23.3879971496">
		<tag k="name" v="Lille Fagervika - Unna-Fádderviikaš" />
		<tag k="name:no" v="Lille Fagervika" />
		<tag k="name:se" v="Unna-Fádderviikaš" />
		<tag k="natural" v="bay" />
		<tag k="ssr:stedsnr" v="81436" />
	</node>
	<node id="-780136" lat="70.7362194434" lon="22.9644610351">
		<tag k="name" v="Per-Nilsagrunnen" />
		<tag k="natural" v="shoal" />
		<tag k="place" v="locality" />
		<tag k="ssr:stedsnr" v="81300" />
	</node>
	<node id="-780133" lat="70.7130722236" lon="23.3329165846">
		<tag k="name" v="Nordnes" />
		<tag k="natural" v="cape" />
		<tag k="ssr:stedsnr" v="81289" />
	</node>
	<node id="-780132" lat="70.7268333309" lon="22.8687777167">
		<tag k="name" v="Reppaneset" />
		<tag k="natural" v="cape" />
		<tag k="ssr:stedsnr" v="81287" />
	</node>
	<node id="-780125" lat="70.7650416733" lon="23.126136038">
		<tag k="name" v="Skarvfjorden" />
		<tag k="natural" v="bay" />
		<tag k="ssr:stedsnr" v="81177" />
	</node>
	<node id="-780124" lat="70.7773111159" lon="23.0627804866">
		<tag k="alt_name" v="Skarvnæringsbukta, in" />
		<tag k="name" v="Indre Skarvnæringsbukta" />
		<tag k="natural" v="bay" />
		<tag k="ssr:stedsnr" v="81165" />
	</node>
	<node id="-780121" lat="70.7392333345" lon="23.6658193678">
		<tag k="name" v="Gaukvika" />
		<tag k="natural" v="bay" />
		<tag k="ssr:stedsnr" v="81099" />
	</node>
	<node id="-780117" lat="70.7453861119" lon="23.6913749108">
		<tag k="name" v="Mylingsbukta" />
		<tag k="natural" v="bay" />
		<tag k="ssr:stedsnr" v="81087" />
	</node>
	<node id="-780116" lat="70.4968722216" lon="23.145972158">
		<tag k="alt_name:no" v="Kalvenes" />
		<tag k="name" v="Kalveneset - Gálbenjárga" />
		<tag k="name:no" v="Kalveneset" />
		<tag k="name:se" v="Gálbenjárga" />
		<tag k="natural" v="cape" />
		<tag k="ssr:stedsnr" v="81083" />
	</node>
	<node id="-780115" lat="70.5054416725" lon="23.2740221529">
		<tag k="name" v="Urholmen - Juovvasuolu" />
		<tag k="name:no" v="Urholmen" />
		<tag k="name:se" v="Juovvasuolu" />
		<tag k="old_name:se" v="Juovvasuolo" />
		<tag k="place" v="islet" />
		<tag k="ssr:stedsnr" v="81073" />
	</node>
	<node id="-780113" lat="70.5189194427" lon="23.1633443656">
		<tag k="bay" v="fjord" />
		<tag k="name" v="Lille Skreifjorden - Muotkevuonna" />
		<tag k="name:no" v="Lille Skreifjorden" />
		<tag k="name:se" v="Muotkevuonna" />
		<tag k="natural" v="bay" />
		<tag k="old_name:se" v="Muotkevuodna" />
		<tag k="ssr:stedsnr" v="81070" />
	</node>
	<node id="-780112" lat="70.6952277814" lon="23.9878443479">
		<tag k="name" v="Storvika" />
		<tag k="natural" v="bay" />
		<tag k="ssr:stedsnr" v="81063" />
	</node>
	<node id="-780110" lat="70.5190388948" lon="23.2955249277">
		<tag k="bay" v="fjord" />
		<tag k="name" v="Tverrfjorden - Doaresvuonna" />
		<tag k="name:no" v="Tverrfjorden" />
		<tag k="name:se" v="Doaresvuonna" />
		<tag k="natural" v="bay" />
		<tag k="old_name:se" v="Doaresvuodna" />
		<tag k="ssr:stedsnr" v="81035" />
	</node>
	<node id="-780109" lat="70.5136388937" lon="23.0800360318">
		<tag k="name" v="Seines" />
		<tag k="natural" v="cape" />
		<tag k="ssr:stedsnr" v="81034" />
	</node>
	<node id="-780106" lat="70.8162083318" lon="23.2573638174">
		<tag k="bay" v="fjord" />
		<tag k="name" v="Gamvikfjorden" />
		<tag k="natural" v="bay" />
		<tag k="ssr:stedsnr" v="81104" />
	</node>
	<node id="-780101" lat="70.6910555575" lon="23.2613193712">
		<tag k="name" v="Råtenvika" />
		<tag k="natural" v="bay" />
		<tag k="ssr:stedsnr" v="80471" />
	</node>
	<node id="-780100" lat="70.671091668" lon="23.0026832616">
		<tag k="name" v="Daudmannsneset" />
		<tag k="natural" v="cape" />
		<tag k="ssr:stedsnr" v="80451" />
	</node>
	<node id="-780097" lat="70.6720111123" lon="22.9513471662">
		<tag k="name" v="Storelvholmen" />
		<tag k="place" v="islet" />
		<tag k="ssr:stedsnr" v="80464" />
	</node>
	<node id="-780096" lat="70.6753833309" lon="22.9456027228">
		<tag k="name" v="Innerbukta" />
		<tag k="natural" v="bay" />
		<tag k="ssr:stedsnr" v="80462" />
	</node>
	<node id="-780094" lat="70.786991669" lon="23.5046915898">
		<tag k="name" v="Lillenæringen" />
		<tag k="natural" v="cape" />
		<tag k="ssr:stedsnr" v="80241" />
	</node>
	<node id="-780092" lat="70.4441333373" lon="22.5031944035">
		<tag k="bay" v="fjord" />
		<tag k="name" v="Sørøysundet" />
		<tag k="natural" v="bay" />
		<tag k="ssr:stedsnr" v="80188" />
	</node>
	<node id="-780091" lat="70.8162249989" lon="23.4663526972">
		<tag k="fixme" v="multiple name tags, choose one and add the other to alt_name" />
		<tag k="name" v="Trollbuktneset;Ytre Møyneset" />
		<tag k="natural" v="cape" />
		<tag k="ssr:stedsnr" v="80172" />
	</node>
	<node id="-780090" lat="70.8132166645" lon="23.4386249232">
		<tag k="name" v="Svinlandet" />
		<tag k="natural" v="beach" />
		<tag k="place" v="locality" />
		<tag k="ssr:stedsnr" v="80167" />
	</node>
	<node id="-780089" lat="70.8676027838" lon="23.6956249171">
		<tag k="name" v="Lillegrunnen" />
		<tag k="natural" v="shoal" />
		<tag k="place" v="locality" />
		<tag k="ssr:stedsnr" v="80163" />
	</node>
	<node id="-780088" lat="70.8749527762" lon="23.5453693759">
		<tag k="name" v="Nordfarreid" />
		<tag k="natural" v="shoal" />
		<tag k="place" v="locality" />
		<tag k="ssr:stedsnr" v="80164" />
	</node>
	<node id="-780087" lat="70.8923416705" lon="23.5810777021">
		<tag k="name" v="Tipsen" />
		<tag k="natural" v="shoal" />
		<tag k="place" v="locality" />
		<tag k="ssr:stedsnr" v="80161" />
	</node>
	<node id="-780081" lat="70.4606472215" lon="22.923908255">
		<tag k="name" v="Søre Garggo - Áhkášgeailu" />
		<tag k="name:no" v="Søre Garggo" />
		<tag k="name:se" v="Áhkášgeailu" />
		<tag k="natural" v="cape" />
		<tag k="old_name:se" v="Akkašgæilo" />
		<tag k="ssr:stedsnr" v="80066" />
	</node>
	<node id="-780070" lat="70.5539444477" lon="22.9296721637">
		<tag k="name" v="Dreggeklubben" />
		<tag k="natural" v="cape" />
		<tag k="ssr:stedsnr" v="34859" />
	</node>
	<node id="-780069" lat="70.5250250067" lon="22.8918860442">
		<tag k="fixme" v="consider seamark:type=rock or natural=shoal" />
		<tag k="name" v="Rødbergskjæret" />
		<tag k="place" v="islet" />
		<tag k="ssr:stedsnr" v="34612" />
	</node>
	<node id="-780066" lat="70.7471555555" lon="22.9681582689">
		<tag k="fixme" v="consider seamark:type=rock or natural=shoal" />
		<tag k="name" v="Stangskjæret" />
		<tag k="place" v="islet" />
		<tag k="ssr:stedsnr" v="33585" />
	</node>
	<node id="-780063" lat="70.6201194423" lon="23.0872610529">
		<tag k="name" v="Mørkedalsbukta" />
		<tag k="natural" v="bay" />
		<tag k="ssr:stedsnr" v="32522" />
	</node>
	<node id="-780059" lat="70.6957500017" lon="23.8072582297">
		<tag k="name" v="Revet" />
		<tag k="natural" v="strait" />
		<tag k="ssr:stedsnr" v="31220" />
	</node>
	<node id="-780055" lat="70.7208833345" lon="23.8246304457">
		<tag k="name" v="Kvernnes" />
		<tag k="natural" v="cape" />
		<tag k="ssr:stedsnr" v="31196" />
	</node>
	<node id="-780051" lat="70.6015361093" lon="23.617102694">
		<tag k="name" v="Gambukta" />
		<tag k="natural" v="bay" />
		<tag k="ssr:stedsnr" v="31059" />
	</node>
	<node id="-780047" lat="70.6865638891" lon="23.6304387968">
		<tag k="name" v="Kransviknes" />
		<tag k="natural" v="cape" />
		<tag k="ssr:stedsnr" v="30117" />
	</node>
	<node id="-780040" lat="70.7120444481" lon="23.023313831">
		<tag k="name" v="Grasdalgrunnen" />
		<tag k="natural" v="shoal" />
		<tag k="place" v="locality" />
		<tag k="ssr:stedsnr" v="20487" />
	</node>
	<node id="-780037" lat="70.6781194442" lon="22.943463833">
		<tag k="name" v="Ytterbukta" />
		<tag k="natural" v="bay" />
		<tag k="ssr:stedsnr" v="20453" />
	</node>
	<node id="-780033" lat="70.6261805585" lon="23.3987666027">
		<tag k="name" v="Grunnvågen - Coagesváhki" />
		<tag k="name:no" v="Grunnvågen" />
		<tag k="name:se" v="Coagesváhki" />
		<tag k="natural" v="bay" />
		<tag k="old_name:se" v="Coagesvakki" />
		<tag k="ssr:stedsnr" v="20417" />
	</node>
	<node id="-780032" lat="70.6019111095" lon="23.3352832591">
		<tag k="name" v="Lille-Vinna - Unna Skihččol" />
		<tag k="name:no" v="Lille-Vinna" />
		<tag k="name:se" v="Unna Skihččol" />
		<tag k="old_name:se" v="Skiččul unna" />
		<tag k="place" v="island" />
		<tag k="ssr:stedsnr" v="20413" />
	</node>
	<node id="-780030" lat="70.5866083364" lon="23.0100860361">
		<tag k="name" v="Krånki" />
		<tag k="natural" v="bay" />
		<tag k="ssr:stedsnr" v="20397" />
	</node>
	<node id="-780029" lat="70.5782888914" lon="23.3861860194">
		<tag k="name" v="Vinna - Stuora Skihččol" />
		<tag k="name:no" v="Vinna" />
		<tag k="name:se" v="Stuora Skihččol" />
		<tag k="old_name:se" v="Skiččul stuora" />
		<tag k="place" v="island" />
		<tag k="ssr:stedsnr" v="20393" />
	</node>
	<node id="-780024" lat="70.7335722242" lon="22.9544305009">
		<tag k="name" v="Svegrunnen" />
		<tag k="natural" v="shoal" />
		<tag k="place" v="locality" />
		<tag k="ssr:stedsnr" v="20286" />
	</node>
	<node id="-780022" lat="70.6164555561" lon="23.5521915675">
		<tag k="name" v="Skålbukta" />
		<tag k="natural" v="bay" />
		<tag k="ssr:stedsnr" v="20231" />
	</node>
	<node id="-780021" lat="70.7800500036" lon="23.8177026834">
		<tag k="name" v="Forsølgrunnen" />
		<tag k="natural" v="shoal" />
		<tag k="place" v="locality" />
		<tag k="ssr:stedsnr" v="20219" />
	</node>
	<node id="-780020" lat="70.5290888876" lon="23.5472527018">
		<tag k="name" v="Kleppeneset - Liehppenjárga" />
		<tag k="name:no" v="Kleppeneset" />
		<tag k="name:se" v="Liehppenjárga" />
		<tag k="natural" v="cape" />
		<tag k="old_name:se" v="Lieppenjarga" />
		<tag k="ssr:stedsnr" v="20211" />
	</node>
	<node id="-780019" lat="70.5648111104" lon="23.456277684">
		<tag k="name" v="Eidvågneset" />
		<tag k="natural" v="cape" />
		<tag k="ssr:stedsnr" v="20193" />
	</node>
	<node id="-780014" lat="70.5317444495" lon="23.13701937">
		<tag k="name" v="Mellabukta - Gaskagohppi" />
		<tag k="name:no" v="Mellabukta" />
		<tag k="name:se" v="Gaskagohppi" />
		<tag k="natural" v="bay" />
		<tag k="old_name:se" v="Gaskagåppi" />
		<tag k="ssr:stedsnr" v="20123" />
	</node>
	<node id="-780013" lat="70.9152472247" lon="23.3269610365">
		<tag k="name" v="Rolvsøyskolten" />
		<tag k="natural" v="shoal" />
		<tag k="place" v="locality" />
		<tag k="ssr:stedsnr" v="20119" />
	</node>
	<node id="-780012" lat="70.9534361116" lon="23.1591277201">
		<tag k="name" v="Sandskallen" />
		<tag k="natural" v="shoal" />
		<tag k="place" v="locality" />
		<tag k="ssr:stedsnr" v="20118" />
	</node>
	<node id="-780011" lat="70.9673138878" lon="23.3465138125">
		<tag k="name" v="Øvre-Tubåen" />
		<tag k="natural" v="shoal" />
		<tag k="place" v="locality" />
		<tag k="ssr:stedsnr" v="20117" />
	</node>
	<node id="-780010" lat="70.8613722207" lon="23.2316166081">
		<tag k="name" v="Skipsholmgrunnen" />
		<tag k="natural" v="shoal" />
		<tag k="place" v="locality" />
		<tag k="ssr:stedsnr" v="20114" />
	</node>
	<node id="-780009" lat="70.8628250007" lon="22.8838499314">
		<tag k="fixme" v="consider seamark:type=rock or natural=shoal" />
		<tag k="name" v="Flatskjæret" />
		<tag k="place" v="islet" />
		<tag k="ssr:stedsnr" v="20112" />
	</node>
	<node id="-780008" lat="70.5474611099" lon="23.2479860418">
		<tag k="alt_name" v="Veggenes, s" />
		<tag k="name" v="Søre Veggenes" />
		<tag k="natural" v="cape" />
		<tag k="ssr:stedsnr" v="20096" />
	</node>
	<node id="-780007" lat="70.5480388954" lon="22.9382360442">
		<tag k="name" v="Skredbukta" />
		<tag k="natural" v="bay" />
		<tag k="ssr:stedsnr" v="20094" />
	</node>
	<node id="-780006" lat="70.8166527827" lon="23.0544638245">
		<tag k="alt_name" v="Saksnæringskjera" />
		<tag k="fixme" v="consider seamark:type=rock or natural=shoal" />
		<tag k="name" v="Saksnæringskjæran" />
		<tag k="place" v="islet" />
		<tag k="ssr:stedsnr" v="20088" />
	</node>
	<node id="-780004" lat="70.8459611164" lon="23.0655860506">
		<tag k="name" v="Lille-Kamøysundet" />
		<tag k="natural" v="strait" />
		<tag k="ssr:stedsnr" v="20075" />
	</node>
	<node id="-780003" lat="70.5143166669" lon="23.1644943778">
		<tag k="name" v="Sandabukta" />
		<tag k="natural" v="bay" />
		<tag k="ssr:stedsnr" v="20074" />
	</node>
	<node id="-780001" lat="70.8372722211" lon="23.0414332593">
		<tag k="name" v="Kamøya" />
		<tag k="place" v="island" />
		<tag k="ssr:stedsnr" v="20072" />
	</node>
	<node id="-780000" lat="70.8393361111" lon="23.3797082458">
		<tag k="alt_name" v="Kvitneset, in" />
		<tag k="fixme" v="multiple name tags, choose one and add the other to alt_name" />
		<tag k="name" v="Nasen;Indre Kvitneset" />
		<tag k="natural" v="cape" />
		<tag k="ssr:stedsnr" v="20068" />
	</node>
	<node id="-779999" lat="70.5146694516" lon="23.2324221401">
		<tag k="name" v="Skreifjordeidet - Muotki" />
		<tag k="name:no" v="Skreifjordeidet" />
		<tag k="name:se" v="Muotki" />
		<tag k="place" v="locality" />
		<tag k="ssr:stedsnr" v="20067" />
	</node>
	<node id="-779998" lat="70.8385833349" lon="23.3766610292">
		<tag k="name" v="Nasen" />
		<tag k="natural" v="cape" />
		<tag k="ssr:stedsnr" v="20066" />
	</node>
	<node id="-779997" lat="70.8365333342" lon="23.3123471419">
		<tag k="alt_name" v="Vasvika" />
		<tag k="name" v="Vassvika" />
		<tag k="natural" v="bay" />
		<tag k="ssr:stedsnr" v="20064" />
	</node>
	<node id="-779996" lat="70.8212361092" lon="23.173638825">
		<tag k="name" v="Finnfjordnæringen" />
		<tag k="natural" v="cape" />
		<tag k="ssr:stedsnr" v="20062" />
	</node>
	<node id="-779994" lat="70.7365361181" lon="23.8131498972">
		<tag k="alt_name" v="Laddoskjeret" />
		<tag k="fixme" v="consider seamark:type=rock or natural=shoal" />
		<tag k="name" v="Laddoskjæran" />
		<tag k="place" v="islet" />
		<tag k="ssr:stedsnr" v="20038" />
	</node>
	<node id="-779990" lat="70.6575138886" lon="23.4352610237">
		<tag k="name" v="Håja - Jievju" />
		<tag k="name:no" v="Håja" />
		<tag k="name:se" v="Jievju" />
		<tag k="old_name:se" v="Jievjo" />
		<tag k="place" v="island" />
		<tag k="ssr:stedsnr" v="20011" />
	</node>
	<node id="-779986" lat="70.4927611143" lon="22.164411069">
		<tag k="name" v="Sørøya - Sállan" />
		<tag k="name:no" v="Sørøya" />
		<tag k="name:se" v="Sállan" />
		<tag k="old_name:no" v="Sørøy" />
		<tag k="old_name:se" v="Sallan" />
		<tag k="place" v="island" />
		<tag k="ssr:stedsnr" v="140319" />
	</node>
	<node id="-779983" lat="70.762841671" lon="23.9799776825">
		<tag k="name" v="Indre Tjuvgrunnen" />
		<tag k="natural" v="shoal" />
		<tag k="place" v="locality" />
		<tag k="ssr:stedsnr" v="898909" />
	</node>
	<node id="-779978" lat="70.5238916695" lon="22.6752332817">
		<tag k="name" v="Sundgrunnen" />
		<tag k="natural" v="shoal" />
		<tag k="place" v="locality" />
		<tag k="ssr:stedsnr" v="884877" />
	</node>
	<node id="-779975" lat="70.5359333386" lon="23.1130193766">
		<tag k="fixme" v="consider seamark:type=rock or natural=shoal" />
		<tag k="name" v="Klemetskjæret" />
		<tag k="place" v="islet" />
		<tag k="ssr:stedsnr" v="882883" />
	</node>
	<node id="-779974" lat="70.5972166704" lon="23.6448054675">
		<tag k="name" v="Anderssaragrunnan" />
		<tag k="natural" v="shoal" />
		<tag k="place" v="locality" />
		<tag k="ssr:stedsnr" v="882339" />
	</node>
	<node id="-779973" lat="70.5921055535" lon="23.5907304758">
		<tag k="name" v="Perbuktnesgrunnen" />
		<tag k="natural" v="shoal" />
		<tag k="place" v="locality" />
		<tag k="ssr:stedsnr" v="882338" />
	</node>
	<node id="-779966" lat="70.5205000034" lon="23.1341249368">
		<tag k="name" v="Skreifjordflua" />
		<tag k="place" v="locality" />
		<tag k="seamark:type" v="rock" />
		<tag k="ssr:stedsnr" v="396915" />
	</node>
	<node id="-779965" lat="70.4827916693" lon="23.1273193645">
		<tag k="name" v="Skreifjordbotn" />
		<tag k="natural" v="bay" />
		<tag k="ssr:stedsnr" v="396895" />
	</node>
	<node id="-779963" lat="70.6927499993" lon="23.0061221523">
		<tag k="name" v="Jernneset" />
		<tag k="natural" v="cape" />
		<tag k="ssr:stedsnr" v="396515" />
	</node>
	<node id="-779962" lat="70.6126138917" lon="23.5870804775">
		<tag k="fixme" v="consider seamark:type=rock or natural=shoal" />
		<tag k="name" v="Bukkøyskjæret" />
		<tag k="place" v="islet" />
		<tag k="ssr:stedsnr" v="396442" />
	</node>
	<node id="-779961" lat="70.6526416695" lon="23.6347943484">
		<tag k="name" v="Molvikbåen" />
		<tag k="place" v="locality" />
		<tag k="seamark:type" v="rock" />
		<tag k="ssr:stedsnr" v="396436" />
	</node>
	<node id="-779960" lat="70.6002611096" lon="23.5977165815">
		<tag k="name" v="Straumsnesgrunnen" />
		<tag k="natural" v="shoal" />
		<tag k="place" v="locality" />
		<tag k="ssr:stedsnr" v="396371" />
	</node>
	<node id="-779959" lat="70.6070083386" lon="23.5653943535">
		<tag k="name" v="Bukkøygrunnen" />
		<tag k="natural" v="shoal" />
		<tag k="place" v="locality" />
		<tag k="ssr:stedsnr" v="396355" />
	</node>
	<node id="-779958" lat="70.6015749988" lon="23.6491860233">
		<tag k="name" v="Langneset" />
		<tag k="natural" v="cape" />
		<tag k="ssr:stedsnr" v="396307" />
	</node>
	<node id="-779957" lat="71.0126333377" lon="23.3631665853">
		<tag k="name" v="Ytre Tubåen" />
		<tag k="natural" v="shoal" />
		<tag k="place" v="locality" />
		<tag k="ssr:stedsnr" v="396268" />
	</node>
	<node id="-779955" lat="70.7160694437" lon="23.8300637982">
		<tag k="name" v="Badjolbmogávva" />
		<tag k="name:se" v="Badjolbmogávva" />
		<tag k="natural" v="bay" />
		<tag k="ssr:stedsnr" v="395293" />
	</node>
	<node id="-779948" lat="70.619908333" lon="23.6468915794">
		<tag k="name" v="Kuvika" />
		<tag k="natural" v="bay" />
		<tag k="ssr:stedsnr" v="395169" />
	</node>
	<node id="-779886" lat="70.8081750032" lon="23.1455388256">
		<tag k="bay" v="fjord" />
		<tag k="name" v="Finnfjorden" />
		<tag k="natural" v="bay" />
		<tag k="ssr:stedsnr" v="384517" />
	</node>
	<node id="-779884" lat="70.6806500029" lon="23.2273832743">
		<tag k="name" v="Sandfjorden" />
		<tag k="natural" v="bay" />
		<tag k="ssr:stedsnr" v="384460" />
	</node>
	<node id="-779882" lat="70.6772444457" lon="23.2445138151">
		<tag k="name" v="Værfjellodden" />
		<tag k="natural" v="cape" />
		<tag k="ssr:stedsnr" v="384454" />
	</node>
	<node id="-779877" lat="70.6090055567" lon="23.1085721572">
		<tag k="name" v="Søre Gjeltindneset" />
		<tag k="natural" v="cape" />
		<tag k="ssr:stedsnr" v="384411" />
	</node>
	<node id="-779875" lat="70.7226055601" lon="22.8757443881">
		<tag k="alt_name" v="Rekbukta" />
		<tag k="name" v="Rekvedbukta" />
		<tag k="natural" v="bay" />
		<tag k="ssr:stedsnr" v="384284" />
	</node>
	<node id="-779874" lat="70.7743861162" lon="23.7776110214">
		<tag k="name" v="Laibagrunnen" />
		<tag k="natural" v="shoal" />
		<tag k="place" v="locality" />
		<tag k="ssr:stedsnr" v="384231" />
	</node>
	<node id="-779873" lat="70.5506944478" lon="23.5530554813">
		<tag k="name" v="Fiskebuktholmen - Guollegopnjárga" />
		<tag k="name:no" v="Fiskebuktholmen" />
		<tag k="name:se" v="Guollegopnjárga" />
		<tag k="natural" v="cape" />
		<tag k="old_name:se" v="Guollegåpnjarga" />
		<tag k="ssr:stedsnr" v="384206" />
	</node>
	<node id="-779872" lat="70.7550527798" lon="23.4048138166">
		<tag k="name" v="Hyseneset" />
		<tag k="natural" v="cape" />
		<tag k="ssr:stedsnr" v="384192" />
	</node>
	<node id="-779871" lat="70.7691583322" lon="22.8454443937">
		<tag k="name" v="Bakskallen" />
		<tag k="natural" v="shoal" />
		<tag k="place" v="locality" />
		<tag k="ssr:stedsnr" v="384184" />
	</node>
	<node id="-779867" lat="70.737877783" lon="23.8036776966">
		<tag k="alt_name" v="Seljebukta" />
		<tag k="name" v="Seljevika" />
		<tag k="natural" v="bay" />
		<tag k="ssr:stedsnr" v="384118" />
	</node>
	<node id="-779866" lat="70.7429194464" lon="23.806205454">
		<tag k="name" v="Skipsbukta" />
		<tag k="natural" v="bay" />
		<tag k="ssr:stedsnr" v="384113" />
	</node>
	<node id="-779865" lat="70.7449888909" lon="23.8054276933">
		<tag k="name" v="Mignasen" />
		<tag k="natural" v="cape" />
		<tag k="ssr:stedsnr" v="384112" />
	</node>
	<node id="-779862" lat="70.4912361178" lon="23.1477915919">
		<tag k="name" v="Garnklubben" />
		<tag k="natural" v="cape" />
		<tag k="ssr:stedsnr" v="384102" />
	</node>
	<node id="-779858" lat="70.5065500061" lon="23.2802943676">
		<tag k="name" v="Urholmneset" />
		<tag k="natural" v="cape" />
		<tag k="ssr:stedsnr" v="384093" />
	</node>
	<node id="-779857" lat="70.7957250014" lon="23.1971610299">
		<tag k="name" v="Skipsvika" />
		<tag k="natural" v="bay" />
		<tag k="ssr:stedsnr" v="384088" />
	</node>
	<node id="-779856" lat="70.8308750054" lon="23.1787610489">
		<tag k="fixme" v="consider seamark:type=rock or natural=shoal" />
		<tag k="name" v="Finnfjordskjæret" />
		<tag k="place" v="islet" />
		<tag k="ssr:stedsnr" v="384082" />
	</node>
	<node id="-779855" lat="70.4887194514" lon="23.2813249222">
		<tag k="name" v="Purkholmen" />
		<tag k="place" v="islet" />
		<tag k="ssr:stedsnr" v="384080" />
	</node>
	<node id="-779854" lat="70.5248555586" lon="23.1534554993">
		<tag k="name" v="Amundneset" />
		<tag k="natural" v="cape" />
		<tag k="ssr:stedsnr" v="384076" />
	</node>
	<node id="-779849" lat="70.5819277762" lon="23.0389860509">
		<tag k="alt_name" v="Gamneset" />
		<tag k="name" v="Gamnes" />
		<tag k="natural" v="cape" />
		<tag k="ssr:stedsnr" v="384040" />
	</node>
	<node id="-779848" lat="70.627347223" lon="23.6580054721">
		<tag k="alt_name" v="Indre Leirvik" />
		<tag k="name" v="Leirvika" />
		<tag k="natural" v="bay" />
		<tag k="ssr:stedsnr" v="384036" />
	</node>
	<node id="-779844" lat="70.6982000038" lon="23.2540832599">
		<tag k="loc_name:no" v="Lunhavdna" />
		<tag k="name" v="Lunnhamna - Lunhávdna" />
		<tag k="name:no" v="Lunnhamna" />
		<tag k="name:se" v="Lunhávdna" />
		<tag k="natural" v="bay" />
		<tag k="ssr:stedsnr" v="383516" />
	</node>
	<node id="-779843" lat="70.7002083354" lon="23.270597149">
		<tag k="name" v="Pikfjellneset" />
		<tag k="natural" v="cape" />
		<tag k="ssr:stedsnr" v="383517" />
	</node>
	<node id="-779841" lat="70.6875944462" lon="22.9978277176">
		<tag k="name" v="Stor-Sandvika" />
		<tag k="natural" v="bay" />
		<tag k="ssr:stedsnr" v="383507" />
	</node>
	<node id="-779840" lat="70.6924833363" lon="22.9001166115">
		<tag k="name" v="Koppardalsbukta" />
		<tag k="natural" v="bay" />
		<tag k="ssr:stedsnr" v="383505" />
	</node>
	<node id="-779839" lat="70.6830194432" lon="22.9918305048">
		<tag k="name" v="Klubbebukta" />
		<tag k="natural" v="bay" />
		<tag k="ssr:stedsnr" v="383501" />
	</node>
	<node id="-779835" lat="70.5696000026" lon="23.042224936">
		<tag k="name" v="Lilleholmen" />
		<tag k="place" v="islet" />
		<tag k="ssr:stedsnr" v="383410" />
	</node>
	<node id="-779834" lat="70.5737611133" lon="23.0149388302">
		<tag k="name" v="Råtenvika" />
		<tag k="natural" v="bay" />
		<tag k="ssr:stedsnr" v="383411" />
	</node>
	<node id="-779833" lat="70.5720361149" lon="23.0475276998">
		<tag k="name" v="Fellaholmen" />
		<tag k="place" v="islet" />
		<tag k="ssr:stedsnr" v="383408" />
	</node>
	<node id="-779831" lat="70.7831611158" lon="23.4623943733">
		<tag k="name" v="Bismarvika" />
		<tag k="natural" v="bay" />
		<tag k="ssr:stedsnr" v="383243" />
	</node>
	<node id="-779830" lat="70.8716000035" lon="23.8558693601">
		<tag k="name" v="Perlogas" />
		<tag k="natural" v="shoal" />
		<tag k="place" v="locality" />
		<tag k="ssr:stedsnr" v="383149" />
	</node>
	<node id="-779829" lat="70.9271305539" lon="23.7722832391">
		<tag k="name" v="Skipsgrunnen" />
		<tag k="natural" v="shoal" />
		<tag k="place" v="locality" />
		<tag k="ssr:stedsnr" v="383140" />
	</node>
	<node id="-779828" lat="70.9866944465" lon="23.409827714">
		<tag k="alt_name" v="Tubåfallet" />
		<tag k="name" v="Tubåen" />
		<tag k="natural" v="shoal" />
		<tag k="place" v="locality" />
		<tag k="ssr:stedsnr" v="383121" />
	</node>
	<node id="-779823" lat="70.4648055594" lon="22.9387721735">
		<tag k="bay" v="fjord" />
		<tag k="name" v="Sørefjorden - Oarjjit Dáččavuotna" />
		<tag k="name:no" v="Sørefjorden" />
		<tag k="name:se" v="Oarjjit Dáččavuotna" />
		<tag k="natural" v="bay" />
		<tag k="old_name:se" v="oarjit Dažžavuodna" />
		<tag k="ssr:stedsnr" v="383064" />
	</node>
	<node id="-779820" lat="70.4005638933" lon="22.9252165924">
		<tag k="alt_name" v="Kalvebukt, yt" />
		<tag k="name" v="Ytre Kalvebukt" />
		<tag k="natural" v="bay" />
		<tag k="ssr:stedsnr" v="383047" />
	</node>
	<node id="-779819" lat="70.4022638938" lon="22.9382943797">
		<tag k="alt_name" v="Kalvebukt, in" />
		<tag k="name" v="Indre Kalvebukt" />
		<tag k="natural" v="bay" />
		<tag k="ssr:stedsnr" v="383045" />
	</node>
	<node id="-779812" lat="70.7187777794" lon="22.9386249465">
		<tag k="name" v="Fugleneset" />
		<tag k="natural" v="cape" />
		<tag k="ssr:stedsnr" v="355044" />
	</node>
	<node id="-779811" lat="70.5861555572" lon="23.0791443754">
		<tag k="name" v="Nordbukta" />
		<tag k="natural" v="bay" />
		<tag k="ssr:stedsnr" v="342869" />
	</node>
	<node id="-779810" lat="70.5217444459" lon="22.7489221662">
		<tag k="name" v="Lammeneset" />
		<tag k="natural" v="cape" />
		<tag k="ssr:stedsnr" v="337713" />
	</node>
	<node id="-779809" lat="70.4998583405" lon="23.1376749203">
		<tag k="name" v="Sommarsæterbukta" />
		<tag k="natural" v="bay" />
		<tag k="ssr:stedsnr" v="336933" />
	</node>
	<node id="-779808" lat="70.5154000004" lon="23.1436138122">
		<tag k="name" v="Holmegrunnen" />
		<tag k="natural" v="shoal" />
		<tag k="place" v="locality" />
		<tag k="ssr:stedsnr" v="336931" />
	</node>
	<node id="-779806" lat="70.7462083368" lon="22.9187277282">
		<tag k="name" v="Stokkenesgrunnen" />
		<tag k="natural" v="shoal" />
		<tag k="place" v="locality" />
		<tag k="ssr:stedsnr" v="336508" />
	</node>
	<node id="-779805" lat="70.5550583378" lon="23.5353193627">
		<tag k="name" v="Nordre Kristinehamna" />
		<tag k="natural" v="bay" />
		<tag k="ssr:stedsnr" v="336321" />
	</node>
	<node id="-779804" lat="70.6032555593" lon="23.5991277023">
		<tag k="name" v="Čáhcegeailu" />
		<tag k="name:se" v="Čáhcegeailu" />
		<tag k="natural" v="cape" />
		<tag k="ssr:stedsnr" v="335868" />
	</node>
	<node id="-779802" lat="70.7252833335" lon="23.0140221636">
		<tag k="name" v="Mebotngrunnen" />
		<tag k="natural" v="shoal" />
		<tag k="place" v="locality" />
		<tag k="ssr:stedsnr" v="335512" />
	</node>
	<node id="-779798" lat="70.7196222228" lon="23.8242665707">
		<tag k="fixme" v="consider seamark:type=rock or natural=shoal" />
		<tag k="name" v="Jeddalass" />
		<tag k="place" v="islet" />
		<tag k="ssr:stedsnr" v="334200" />
	</node>
	<node id="-779795" lat="70.629875001" lon="23.6508776791">
		<tag k="name" v="Leirvika" />
		<tag k="natural" v="strait" />
		<tag k="ssr:stedsnr" v="334163" />
	</node>
	<node id="-779793" lat="70.6125694498" lon="23.6281249102">
		<tag k="name" v="Storvikneset" />
		<tag k="natural" v="cape" />
		<tag k="ssr:stedsnr" v="334069" />
	</node>
	<node id="-779789" lat="70.6022250043" lon="23.6231221286">
		<tag k="name" v="Klokkarøyhamna" />
		<tag k="natural" v="bay" />
		<tag k="ssr:stedsnr" v="328073" />
	</node>
	<node id="-779787" lat="70.7387861107" lon="22.800519379">
		<tag k="name" v="Storsteinen" />
		<tag k="natural" v="cape" />
		<tag k="ssr:stedsnr" v="323754" />
	</node>
	<node id="-779777" lat="70.6483055562" lon="23.2993777148">
		<tag k="name" v="Hjelmen - Guovdesuolu" />
		<tag k="name:no" v="Hjelmen" />
		<tag k="name:se" v="Guovdesuolu" />
		<tag k="old_name:se" v="Guovdesuolo" />
		<tag k="place" v="island" />
		<tag k="ssr:stedsnr" v="323436" />
	</node>
	<node id="-779774" lat="70.5890277795" lon="23.0894693776">
		<tag k="name" v="Nordneset" />
		<tag k="natural" v="cape" />
		<tag k="ssr:stedsnr" v="323398" />
	</node>
	<node id="-779771" lat="70.5706027762" lon="23.0607471632">
		<tag k="name" v="Fella" />
		<tag k="natural" v="cape" />
		<tag k="ssr:stedsnr" v="323381" />
	</node>
	<node id="-779770" lat="70.5036166721" lon="22.7035916153">
		<tag k="name" v="Ramnnes" />
		<tag k="natural" v="cape" />
		<tag k="ssr:stedsnr" v="323301" />
	</node>
	<node id="-779769" lat="70.5046638928" lon="22.7220804912">
		<tag k="name" v="Skallen" />
		<tag k="natural" v="shoal" />
		<tag k="place" v="locality" />
		<tag k="ssr:stedsnr" v="323296" />
	</node>
	<node id="-779768" lat="70.7483666677" lon="22.8304749346">
		<tag k="alt_name" v="Bogstokken" />
		<tag k="name" v="Bogstakken" />
		<tag k="natural" v="cape" />
		<tag k="ssr:stedsnr" v="323279" />
	</node>
	<node id="-779767" lat="70.7129416703" lon="22.9319582622">
		<tag k="name" v="Stevenesbukta" />
		<tag k="natural" v="bay" />
		<tag k="ssr:stedsnr" v="323265" />
	</node>
	<node id="-779766" lat="70.7260194482" lon="23.0415749323">
		<tag k="fixme" v="multiple name tags, choose one and add the other to alt_name; consider seamark:type=rock or natural=shoal" />
		<tag k="name" v="Veststraumskjæret;Elvaskjæret" />
		<tag k="place" v="islet" />
		<tag k="ssr:stedsnr" v="323261" />
	</node>
	<node id="-779763" lat="70.5941027785" lon="23.5596332424">
		<tag k="name" v="Storbukta - Njuorjoluokta" />
		<tag k="name:no" v="Storbukta" />
		<tag k="name:se" v="Njuorjoluokta" />
		<tag k="natural" v="bay" />
		<tag k="old_name:se" v="Njuorjuluokta" />
		<tag k="ssr:stedsnr" v="323251" />
	</node>
	<node id="-779761" lat="70.7805138919" lon="23.4975443682">
		<tag k="name" v="Akkarfjordnæringen" />
		<tag k="natural" v="cape" />
		<tag k="ssr:stedsnr" v="323232" />
	</node>
	<node id="-779760" lat="70.5232583361" lon="23.5344888015">
		<tag k="name" v="Vassbukta - Čáhcegohppi" />
		<tag k="name:no" v="Vassbukta" />
		<tag k="name:se" v="Čáhcegohppi" />
		<tag k="natural" v="bay" />
		<tag k="old_name:se" v="Čaccegåppi" />
		<tag k="ssr:stedsnr" v="323217" />
	</node>
	<node id="-779759" lat="70.6862305615" lon="24.0383859939">
		<tag k="name" v="Skogvika" />
		<tag k="natural" v="bay" />
		<tag k="ssr:stedsnr" v="323187" />
	</node>
	<node id="-779754" lat="70.5267722263" lon="23.2702388046">
		<tag k="name" v="Gammelværgrunnen" />
		<tag k="natural" v="shoal" />
		<tag k="place" v="locality" />
		<tag k="ssr:stedsnr" v="323140" />
	</node>
	<node id="-779752" lat="70.8539027819" lon="23.0643721514">
		<tag k="name" v="Lille-Kamøya" />
		<tag k="place" v="island" />
		<tag k="ssr:stedsnr" v="323131" />
	</node>
	<node id="-779749" lat="70.8755083378" lon="22.7368082887">
		<tag k="name" v="Rundskjærskallen" />
		<tag k="natural" v="shoal" />
		<tag k="place" v="locality" />
		<tag k="ssr:stedsnr" v="323111" />
	</node>
	<node id="-779748" lat="70.5029638869" lon="23.1311610368">
		<tag k="name" v="Kråkebukta" />
		<tag k="natural" v="bay" />
		<tag k="ssr:stedsnr" v="323089" />
	</node>
	<node id="-779747" lat="70.5050333367" lon="23.0305082622">
		<tag k="alt_name" v="Vassvika, nordre" />
		<tag k="fixme" v="multiple name tags, choose one and add the other to alt_name" />
		<tag k="name" v="Vassvika;Nordre Vassvika" />
		<tag k="natural" v="bay" />
		<tag k="ssr:stedsnr" v="323088" />
	</node>
	<node id="-779745" lat="70.5223694451" lon="22.8633027087">
		<tag k="name" v="Komagfjordneset" />
		<tag k="natural" v="cape" />
		<tag k="ssr:stedsnr" v="323077" />
	</node>
	<node id="-779741" lat="70.7248500051" lon="23.8391832501">
		<tag k="alt_name:no" v="Brattnes" />
		<tag k="name" v="Brattneset - Sivlonjárga" />
		<tag k="name:no" v="Brattneset" />
		<tag k="name:se" v="Sivlonjárga" />
		<tag k="natural" v="cape" />
		<tag k="old_name:se" v="Sivlunjarga" />
		<tag k="ssr:stedsnr" v="323040" />
	</node>
	<node id="-779739" lat="70.68801945" lon="23.6301554737">
		<tag k="name" v="Kransvika" />
		<tag k="natural" v="bay" />
		<tag k="ssr:stedsnr" v="323007" />
	</node>
	<node id="-779736" lat="70.4701111163" lon="23.2609221461">
		<tag k="alt_name" v="Kraknes" />
		<tag k="name" v="Kartnes" />
		<tag k="natural" v="cape" />
		<tag k="ssr:stedsnr" v="322071" />
	</node>
	<node id="-779735" lat="70.415797223" lon="22.8315916089">
		<tag k="fixme" v="multiple name tags, choose one and add the other to alt_name" />
		<tag k="name" v="Skarstolodden;Tåneset - Skárstovla" />
		<tag k="name:no" v="Skarstolodden;Tåneset" />
		<tag k="name:se" v="Skárstovla" />
		<tag k="natural" v="cape" />
		<tag k="old_name:se" v="Skarståvla" />
		<tag k="ssr:stedsnr" v="322049" />
	</node>
	<node id="-779729" lat="70.8414388878" lon="23.2414054852">
		<tag k="fixme" v="consider seamark:type=rock or natural=shoal" />
		<tag k="name" v="Gamvikskjæran" />
		<tag k="place" v="islet" />
		<tag k="ssr:stedsnr" v="285716" />
	</node>
	<node id="-779721" lat="70.6873527766" lon="23.001733274">
		<tag k="name" v="Store Sandvik" />
		<tag k="natural" v="beach" />
		<tag k="place" v="locality" />
		<tag k="ssr:stedsnr" v="276601" />
	</node>
	<node id="-779719" lat="70.4964500023" lon="22.9939610352">
		<tag k="fixme" v="consider seamark:type=rock or natural=shoal" />
		<tag k="name" v="Svartvikskjæran" />
		<tag k="place" v="islet" />
		<tag k="ssr:stedsnr" v="275924" />
	</node>
	<node id="-779718" lat="70.5427833363" lon="23.1202721655">
		<tag k="name" v="Brenteneset" />
		<tag k="natural" v="cape" />
		<tag k="ssr:stedsnr" v="275897" />
	</node>
	<node id="-779716" lat="70.811694444" lon="23.3216915875">
		<tag k="name" v="Store Sand" />
		<tag k="natural" v="beach" />
		<tag k="place" v="locality" />
		<tag k="ssr:stedsnr" v="275443" />
	</node>
	<node id="-779714" lat="70.6328250033" lon="23.4360860287">
		<tag k="name" v="Skogvikskallen" />
		<tag k="natural" v="shoal" />
		<tag k="place" v="locality" />
		<tag k="ssr:stedsnr" v="275405" />
	</node>
	<node id="-779713" lat="70.8071277756" lon="23.4506249284">
		<tag k="name" v="Nordanvindshamna" />
		<tag k="natural" v="bay" />
		<tag k="ssr:stedsnr" v="275388" />
	</node>
	<node id="-779712" lat="70.6052750039" lon="23.5488665924">
		<tag k="name" v="Tranbukta" />
		<tag k="natural" v="bay" />
		<tag k="ssr:stedsnr" v="275358" />
	</node>
	<node id="-779711" lat="70.8043805553" lon="23.1464666042">
		<tag k="name" v="Jernklubben" />
		<tag k="natural" v="cape" />
		<tag k="ssr:stedsnr" v="275274" />
	</node>
	<node id="-779708" lat="70.6708500002" lon="23.6805026749">
		<tag k="name" v="Fuglenesfjæra" />
		<tag k="natural" v="beach" />
		<tag k="place" v="locality" />
		<tag k="ssr:stedsnr" v="274211" />
	</node>
	<node id="-779705" lat="70.723272225" lon="23.8139388021">
		<tag k="name" v="Sandbuktnes" />
		<tag k="natural" v="cape" />
		<tag k="ssr:stedsnr" v="274202" />
	</node>
	<node id="-779701" lat="70.6187972223" lon="23.6436110182">
		<tag k="name" v="Lillevika" />
		<tag k="natural" v="bay" />
		<tag k="ssr:stedsnr" v="274141" />
	</node>
	<node id="-781321" lat="70.4937553631" lon="23.1413247353">
		<tag k="name" v="Kalvebukta - Gálbegohppi" />
		<tag k="name:no" v="Kalvebukta" />
		<tag k="name:se" v="Gálbegohppi" />
		<tag k="natural" v="bay" />
		<tag k="ssr:stedsnr" v="975940" />
	</node>
	<node id="-781320" lat="70.4942617848" lon="23.1417987678">
		<tag k="name" v="Gálbegohppi" />
		<tag k="name:se" v="Gálbegohppi" />
		<tag k="natural" v="bay" />
		<tag k="ssr:stedsnr" v="975929" />
	</node>
	<node id="-781314" lat="70.4832212561" lon="23.1543010008">
		<tag k="name" v="Gárgu" />
		<tag k="name:se" v="Gárgu" />
		<tag k="natural" v="cape" />
		<tag k="ssr:stedsnr" v="975490" />
	</node>
	<node id="-781304" lat="70.7756666681" lon="23.9821249015">
		<tag k="name" v="Ytre Tjuvgrunnen" />
		<tag k="natural" v="shoal" />
		<tag k="place" v="locality" />
		<tag k="ssr:stedsnr" v="958926" />
	</node>
	<node id="-781296" lat="70.496688895" lon="23.1568360433">
		<tag k="loc_name" v="Revneset" />
		<tag k="name" v="Reveneset" />
		<tag k="natural" v="cape" />
		<tag k="ssr:stedsnr" v="943896" />
	</node>
	<node id="-781292" lat="70.5667638915" lon="23.0498221649">
		<tag k="name" v="Fellagrunnan" />
		<tag k="natural" v="shoal" />
		<tag k="place" v="locality" />
		<tag k="ssr:stedsnr" v="943579" />
	</node>
	<node id="-781291" lat="70.4720749978" lon="22.942708269">
		<tag k="name" v="Nordre Garggo" />
		<tag k="natural" v="cape" />
		<tag k="ssr:stedsnr" v="943576" />
	</node>
	<node id="-781288" lat="70.6419416702" lon="23.5449304629">
		<tag k="name" v="Daudmannsgrunnen" />
		<tag k="natural" v="shoal" />
		<tag k="place" v="locality" />
		<tag k="ssr:stedsnr" v="942448" />
	</node>
	<node id="-781286" lat="70.5745833365" lon="23.6640054595">
		<tag k="name" v="Basbåen" />
		<tag k="natural" v="shoal" />
		<tag k="place" v="locality" />
		<tag k="ssr:stedsnr" v="942399" />
	</node>
	<node id="-781278" lat="70.6402361152" lon="23.6193999101">
		<tag k="name" v="Rypklubbodden" />
		<tag k="natural" v="cape" />
		<tag k="ssr:stedsnr" v="941170" />
	</node>
	<node id="-781275" lat="70.6853555543" lon="23.5842276819">
		<tag k="fixme" v="consider seamark:type=rock or natural=shoal" />
		<tag k="name" v="Silskallen" />
		<tag k="place" v="islet" />
		<tag k="ssr:stedsnr" v="941118" />
	</node>
	<node id="-781265" lat="70.7639611138" lon="23.1134777071">
		<tag k="name" v="Lilleholmen" />
		<tag k="place" v="islet" />
		<tag k="ssr:stedsnr" v="935467" />
	</node>
	<node id="-781262" lat="70.6920805542" lon="23.0389804822">
		<tag k="alt_name:no" v="Bottsfjorden" />
		<tag k="bay" v="fjord" />
		<tag k="name" v="Båtsfjorden - Beassevuotna" />
		<tag k="name:no" v="Båtsfjorden" />
		<tag k="name:se" v="Beassevuotna" />
		<tag k="natural" v="bay" />
		<tag k="old_name:se" v="Bæssevuodna" />
		<tag k="ssr:stedsnr" v="930500" />
	</node>
	<node id="-781259" lat="70.6770083308" lon="22.947249935">
		<tag k="name" v="Avløysinga" />
		<tag k="natural" v="cape" />
		<tag k="ssr:stedsnr" v="930485" />
	</node>
	<node id="-781255" lat="70.6271722204" lon="23.0539943711">
		<tag k="name" v="Fjordabotn" />
		<tag k="natural" v="bay" />
		<tag k="ssr:stedsnr" v="930443" />
	</node>
	<node id="-781253" lat="70.6155638929" lon="23.1172054939">
		<tag k="name" v="Storbrønnen" />
		<tag k="natural" v="bay" />
		<tag k="ssr:stedsnr" v="930426" />
	</node>
	<node id="-781252" lat="70.6035805553" lon="23.0989804995">
		<tag k="name" v="Skattdøra" />
		<tag k="natural" v="cape" />
		<tag k="ssr:stedsnr" v="930416" />
	</node>
	<node id="-781250" lat="70.5890527832" lon="23.4095221484">
		<tag k="name" v="Rissundet" />
		<tag k="natural" v="strait" />
		<tag k="ssr:stedsnr" v="930407" />
	</node>
	<node id="-781248" lat="70.5144055523" lon="22.7429221736">
		<tag k="name" v="Stoneset" />
		<tag k="natural" v="cape" />
		<tag k="ssr:stedsnr" v="930299" />
	</node>
	<node id="-781246" lat="70.728452778" lon="22.9381499341">
		<tag k="alt_name" v="Jernholmen" />
		<tag k="name" v="Jernnesholmen" />
		<tag k="place" v="islet" />
		<tag k="ssr:stedsnr" v="930269" />
	</node>
	<node id="-781245" lat="70.7151777782" lon="23.3315054697">
		<tag k="name" v="Nordnesbukta" />
		<tag k="natural" v="bay" />
		<tag k="ssr:stedsnr" v="930270" />
	</node>
	<node id="-781244" lat="70.6012638891" lon="23.448219356">
		<tag k="name" v="Hestevika" />
		<tag k="natural" v="bay" />
		<tag k="ssr:stedsnr" v="930252" />
	</node>
	<node id="-781243" lat="70.5913194443" lon="23.5851665666">
		<tag k="name" v="Perbuktneset" />
		<tag k="natural" v="cape" />
		<tag k="ssr:stedsnr" v="930249" />
	</node>
	<node id="-781242" lat="70.5736416699" lon="23.4908415939">
		<tag k="loc_name" v="Survik" />
		<tag k="name" v="Lille Survika" />
		<tag k="natural" v="bay" />
		<tag k="ssr:stedsnr" v="930236" />
	</node>
	<node id="-781241" lat="70.7748499993" lon="23.429430486">
		<tag k="name" v="Ladda" />
		<tag k="natural" v="bay" />
		<tag k="ssr:stedsnr" v="930222" />
	</node>
	<node id="-781237" lat="70.7742222282" lon="23.2713027021">
		<tag k="alt_name" v="Veivika, l" />
		<tag k="name" v="Lille Veivika" />
		<tag k="natural" v="bay" />
		<tag k="ssr:stedsnr" v="930162" />
	</node>
	<node id="-781236" lat="70.5062749989" lon="23.5971165871">
		<tag k="name" v="Lianeset - Riidenjárga" />
		<tag k="name:no" v="Lianeset" />
		<tag k="name:se" v="Riidenjárga" />
		<tag k="natural" v="cape" />
		<tag k="old_name:se" v="Riidenjarga" />
		<tag k="ssr:stedsnr" v="930158" />
	</node>
	<node id="-781235" lat="70.7974666684" lon="23.4993582404">
		<tag k="name" v="Stornæringen" />
		<tag k="natural" v="cape" />
		<tag k="ssr:stedsnr" v="930152" />
	</node>
	<node id="-781232" lat="70.950744447" lon="23.2908749416">
		<tag k="name" v="Stålskallen" />
		<tag k="natural" v="shoal" />
		<tag k="place" v="locality" />
		<tag k="ssr:stedsnr" v="930124" />
	</node>
	<node id="-781229" lat="70.5434777843" lon="23.1160888122">
		<tag k="name" v="Brentenesgrunnen" />
		<tag k="natural" v="shoal" />
		<tag k="place" v="locality" />
		<tag k="ssr:stedsnr" v="930105" />
	</node>
	<node id="-781228" lat="70.5483444463" lon="23.1576416045">
		<tag k="name" v="Skjeraneset" />
		<tag k="natural" v="cape" />
		<tag k="ssr:stedsnr" v="930103" />
	</node>
	<node id="-781225" lat="70.8120777776" lon="23.3171527084">
		<tag k="name" v="Sandfjellsanden" />
		<tag k="natural" v="bay" />
		<tag k="ssr:stedsnr" v="930089" />
	</node>
	<node id="-781224" lat="70.7953194461" lon="22.8943888258">
		<tag k="name" v="Steinbitgrunnen" />
		<tag k="natural" v="shoal" />
		<tag k="place" v="locality" />
		<tag k="ssr:stedsnr" v="930085" />
	</node>
	<node id="-781222" lat="70.5123805555" lon="23.05813604">
		<tag k="fixme" v="consider seamark:type=rock or natural=shoal" />
		<tag k="name" v="Sørskjæret" />
		<tag k="place" v="islet" />
		<tag k="ssr:stedsnr" v="930075" />
	</node>
	<node id="-781221" lat="70.7010805621" lon="23.8251499027">
		<tag k="name" v="Ruglbukta" />
		<tag k="natural" v="bay" />
		<tag k="ssr:stedsnr" v="930064" />
	</node>
	<node id="-781219" lat="70.7046194457" lon="23.7900971319">
		<tag k="name" v="Årresjåbukta" />
		<tag k="natural" v="bay" />
		<tag k="ssr:stedsnr" v="930057" />
	</node>
	<node id="-781218" lat="70.70300556" lon="23.9604082358">
		<tag k="name" v="Fjellvika" />
		<tag k="natural" v="bay" />
		<tag k="ssr:stedsnr" v="930049" />
	</node>
	<node id="-781217" lat="70.7325833322" lon="23.6382610238">
		<tag k="name" v="Fluengrunnen" />
		<tag k="natural" v="shoal" />
		<tag k="place" v="locality" />
		<tag k="ssr:stedsnr" v="930040" />
	</node>
	<node id="-781211" lat="70.4019388937" lon="22.9318054823">
		<tag k="name" v="Simonanjárga" />
		<tag k="name:se" v="Simonanjárga" />
		<tag k="natural" v="cape" />
		<tag k="old_name:se" v="Simunanjarga" />
		<tag k="ssr:stedsnr" v="929021" />
	</node>
	<node id="-781209" lat="70.5005333318" lon="23.1383332572">
		<tag k="loc_name:se" v="Hámna" />
		<tag k="name" v="Hamna" />
		<tag k="name:no" v="Hamna" />
		<tag k="natural" v="bay" />
		<tag k="ssr:stedsnr" v="907549" />
	</node>
	<node id="-781208" lat="70.5022388942" lon="23.15963881">
		<tag k="name" v="Hamneklubben" />
		<tag k="natural" v="cape" />
		<tag k="ssr:stedsnr" v="907521" />
	</node>
	<node id="-781201" lat="70.633600004" lon="23.6600193483">
		<tag k="name" v="Kvalvika" />
		<tag k="natural" v="bay" />
		<tag k="ssr:stedsnr" v="881158" />
	</node>
	<node id="-781196" lat="70.6934611111" lon="23.600024926">
		<tag k="name" v="Nordnes" />
		<tag k="natural" v="cape" />
		<tag k="ssr:stedsnr" v="880102" />
	</node>
	<node id="-781195" lat="70.5571305557" lon="23.4650082368">
		<tag k="name" v="Sennabukta" />
		<tag k="natural" v="bay" />
		<tag k="ssr:stedsnr" v="875891" />
	</node>
	<node id="-781193" lat="70.6006888947" lon="23.5959804803">
		<tag k="name" v="Strømsnesodden" />
		<tag k="natural" v="cape" />
		<tag k="ssr:stedsnr" v="874102" />
	</node>
	<node id="-781191" lat="70.6355416732" lon="23.6712832343">
		<tag k="bay" v="fjord" />
		<tag k="name" v="Indrefjorden" />
		<tag k="natural" v="bay" />
		<tag k="ssr:stedsnr" v="874049" />
	</node>
	<node id="-781190" lat="70.60054445" lon="23.6004526926">
		<tag k="name" v="Strømsnesbukta" />
		<tag k="natural" v="bay" />
		<tag k="ssr:stedsnr" v="874038" />
	</node>
	<node id="-781187" lat="70.6302638918" lon="23.1460916058">
		<tag k="name" v="Slettnes" />
		<tag k="natural" v="cape" />
		<tag k="ssr:stedsnr" v="870434" />
	</node>
	<node id="-781186" lat="70.6315722283" lon="23.1014721595">
		<tag k="name" v="Brønnen" />
		<tag k="natural" v="bay" />
		<tag k="ssr:stedsnr" v="870432" />
	</node>
	<node id="-781184" lat="70.6034027789" lon="23.4198527058">
		<tag k="name" v="Store Fagervika - Stuora Fádderviika" />
		<tag k="name:no" v="Store Fagervika" />
		<tag k="name:se" v="Stuora Fádderviika" />
		<tag k="natural" v="bay" />
		<tag k="ssr:stedsnr" v="870420" />
	</node>
	<node id="-781177" lat="70.7602583327" lon="23.2987415897">
		<tag k="name" v="Bastafjordeidet" />
		<tag k="place" v="locality" />
		<tag k="ssr:stedsnr" v="870196" />
	</node>
	<node id="-781176" lat="70.7644916678" lon="23.4021110301">
		<tag k="name" v="Borvika" />
		<tag k="natural" v="bay" />
		<tag k="ssr:stedsnr" v="870195" />
	</node>
	<node id="-781175" lat="70.7608277771" lon="23.0862443814">
		<tag k="name" v="Skarvfjordholmen" />
		<tag k="place" v="islet" />
		<tag k="ssr:stedsnr" v="870191" />
	</node>
	<node id="-781174" lat="70.5130777787" lon="23.5567332482">
		<tag k="name" v="Sáragohppi" />
		<tag k="name:se" v="Sáragohppi" />
		<tag k="natural" v="bay" />
		<tag k="old_name:se" v="Saragåppi" />
		<tag k="ssr:stedsnr" v="870190" />
	</node>
	<node id="-781173" lat="70.7885666703" lon="22.9917471603">
		<tag k="fixme" v="multiple name tags, choose one and add the other to alt_name; consider seamark:type=rock or natural=shoal" />
		<tag k="name" v="Kobbskjæran;Kobbhaugskjæran" />
		<tag k="place" v="islet" />
		<tag k="ssr:stedsnr" v="870175" />
	</node>
	<node id="-781172" lat="70.5160777813" lon="23.1990804888">
		<tag k="name" v="Sandaholmen" />
		<tag k="place" v="islet" />
		<tag k="ssr:stedsnr" v="870077" />
	</node>
	<node id="-781171" lat="70.7116527802" lon="23.6309582553">
		<tag k="alt_name" v="Skjåvika, yt" />
		<tag k="name" v="Ytre Skjåvika" />
		<tag k="natural" v="bay" />
		<tag k="ssr:stedsnr" v="870048" />
	</node>
	<node id="-781168" lat="70.6973361156" lon="22.905624945">
		<tag k="name" v="Skillsteinen" />
		<tag k="natural" v="cape" />
		<tag k="ssr:stedsnr" v="869527" />
	</node>
	<node id="-781167" lat="70.69556389" lon="23.3380749287">
		<tag k="name" v="Værosgrunnen" />
		<tag k="natural" v="shoal" />
		<tag k="place" v="locality" />
		<tag k="ssr:stedsnr" v="869525" />
	</node>
	<node id="-781165" lat="70.6840083375" lon="23.1482360434">
		<tag k="name" v="Låterneset" />
		<tag k="natural" v="cape" />
		<tag k="ssr:stedsnr" v="869500" />
	</node>
	<node id="-781164" lat="70.5838916651" lon="23.0375082619">
		<tag k="name" v="Gamnesbukta" />
		<tag k="natural" v="bay" />
		<tag k="ssr:stedsnr" v="869435" />
	</node>
	<node id="-781163" lat="70.5755527821" lon="22.9193027253">
		<tag k="name" v="Nordbotn" />
		<tag k="natural" v="bay" />
		<tag k="ssr:stedsnr" v="869430" />
	</node>
	<node id="-781162" lat="70.568277784" lon="23.331613802">
		<tag k="name" v="Vinnaskagen" />
		<tag k="natural" v="cape" />
		<tag k="ssr:stedsnr" v="869427" />
	</node>
	<node id="-781161" lat="70.5711638943" lon="23.3599082693">
		<tag k="name" v="Vinnaeidet" />
		<tag k="place" v="locality" />
		<tag k="ssr:stedsnr" v="869423" />
	</node>
	<node id="-781160" lat="70.5675388865" lon="22.8995277144">
		<tag k="name" v="Storholmen" />
		<tag k="place" v="islet" />
		<tag k="ssr:stedsnr" v="869422" />
	</node>
	<node id="-781159" lat="70.5162916722" lon="22.8146693891">
		<tag k="name" v="Leirbukta" />
		<tag k="natural" v="bay" />
		<tag k="ssr:stedsnr" v="869309" />
	</node>
	<node id="-781158" lat="70.5863611146" lon="23.5795415769">
		<tag k="name" v="Støvelhamna - Stevvelhávdna" />
		<tag k="name:no" v="Støvelhamna" />
		<tag k="name:se" v="Stevvelhávdna" />
		<tag k="natural" v="bay" />
		<tag k="ssr:stedsnr" v="869274" />
	</node>
	<node id="-781156" lat="70.6259111162" lon="23.4865443625">
		<tag k="name" v="Ersvikneset" />
		<tag k="natural" v="cape" />
		<tag k="ssr:stedsnr" v="869252" />
	</node>
	<node id="-781154" lat="70.6042305538" lon="23.5526249129">
		<tag k="name" v="Troneset" />
		<tag k="natural" v="cape" />
		<tag k="ssr:stedsnr" v="869241" />
	</node>
	<node id="-781152" lat="70.9020638893" lon="23.3407999314">
		<tag k="name" v="Tarhalsfallet" />
		<tag k="natural" v="shoal" />
		<tag k="place" v="locality" />
		<tag k="ssr:stedsnr" v="869123" />
	</node>
	<node id="-781151" lat="70.7720777822" lon="22.8082693922">
		<tag k="name" v="Stålgrunnen" />
		<tag k="natural" v="shoal" />
		<tag k="place" v="locality" />
		<tag k="ssr:stedsnr" v="869100" />
	</node>
	<node id="-781149" lat="70.4827361112" lon="23.1513110377">
		<tag k="name" v="Gargobukta" />
		<tag k="natural" v="bay" />
		<tag k="ssr:stedsnr" v="869088" />
	</node>
	<node id="-781147" lat="70.4713083351" lon="23.2640026897">
		<tag k="name" v="Bekkebukt" />
		<tag k="natural" v="bay" />
		<tag k="ssr:stedsnr" v="869075" />
	</node>
	<node id="-781146" lat="70.4623527824" lon="23.2180582748">
		<tag k="name" v="Straumen - Strovma" />
		<tag k="name:no" v="Straumen" />
		<tag k="name:se" v="Strovma" />
		<tag k="natural" v="bay" />
		<tag k="old_name:se" v="Stråvma" />
		<tag k="ssr:stedsnr" v="869066" />
	</node>
	<node id="-781143" lat="70.5448722242" lon="23.3380804885">
		<tag k="bay" v="fjord" />
		<tag k="name" v="Hønsebyfjorden - Njižževuotna" />
		<tag k="name:no" v="Hønsebyfjorden" />
		<tag k="name:se" v="Njižževuotna" />
		<tag k="natural" v="bay" />
		<tag k="old_name:se" v="Njižževuodna" />
		<tag k="ssr:stedsnr" v="869108" />
	</node>
	<node id="-781133" lat="70.4155444487" lon="22.879424937">
		<tag k="name" v="Brytenesbåen" />
		<tag k="place" v="locality" />
		<tag k="seamark:type" v="rock" />
		<tag k="ssr:stedsnr" v="823640" />
	</node>
	<node id="-781130" lat="70.5970305577" lon="22.9856804814">
		<tag k="name" v="Hamnefjordbotn" />
		<tag k="natural" v="bay" />
		<tag k="ssr:stedsnr" v="821568" />
	</node>
	<node id="-781129" lat="70.4627527845" lon="23.2177360351">
		<tag k="name" v="Kjosen" />
		<tag k="natural" v="bay" />
		<tag k="ssr:stedsnr" v="821563" />
	</node>
	<node id="-781128" lat="70.5972999988" lon="23.6625971384">
		<tag k="fixme" v="consider seamark:type=rock or natural=shoal" />
		<tag k="name" v="Mollstrandskjæret" />
		<tag k="place" v="islet" />
		<tag k="ssr:stedsnr" v="821438" />
	</node>
	<node id="-781126" lat="70.6053250044" lon="23.6020415711">
		<tag k="name" v="Steinvikneset" />
		<tag k="natural" v="cape" />
		<tag k="ssr:stedsnr" v="821396" />
	</node>
	<node id="-781125" lat="70.6019222232" lon="23.5957443605">
		<tag k="name" v="Fyrneset" />
		<tag k="natural" v="cape" />
		<tag k="ssr:stedsnr" v="821395" />
	</node>
	<node id="-781120" lat="70.6060888898" lon="23.6344110295">
		<tag k="alt_name" v="Langneset" />
		<tag k="name" v="Langnes" />
		<tag k="natural" v="cape" />
		<tag k="ssr:stedsnr" v="820201" />
	</node>
	<node id="-781118" lat="70.597950004" lon="23.6232776858">
		<tag k="name" v="Holmen" />
		<tag k="place" v="islet" />
		<tag k="ssr:stedsnr" v="820087" />
	</node>
	<node id="-781117" lat="70.6003805568" lon="23.6308026926">
		<tag k="name" v="Lilleøyvalen" />
		<tag k="natural" v="strait" />
		<tag k="ssr:stedsnr" v="820086" />
	</node>
	<node id="-781114" lat="70.6956472219" lon="23.8113082457">
		<tag k="loc_name:se" v="Bollovuonnjárga" />
		<tag k="name" v="Pollnes" />
		<tag k="name:no" v="Pollnes" />
		<tag k="natural" v="cape" />
		<tag k="ssr:stedsnr" v="817788" />
	</node>
	<node id="-781111" lat="70.7067666729" lon="23.929755449">
		<tag k="name" v="Mellom-Risvåg" />
		<tag k="natural" v="bay" />
		<tag k="ssr:stedsnr" v="813884" />
	</node>
	<node id="-781110" lat="70.709794445" lon="23.9369860106">
		<tag k="name" v="Såldbuktneset" />
		<tag k="natural" v="cape" />
		<tag k="ssr:stedsnr" v="813871" />
	</node>
	<node id="-781109" lat="70.7847333367" lon="23.3924360485">
		<tag k="bay" v="fjord" />
		<tag k="name" v="Akkarfjorden" />
		<tag k="natural" v="bay" />
		<tag k="ssr:stedsnr" v="809554" />
	</node>
	<node id="-781107" lat="70.6984694499" lon="23.0282721701">
		<tag k="alt_name" v="Bottsfjordneset" />
		<tag k="name" v="Båtsfjordneset" />
		<tag k="natural" v="cape" />
		<tag k="ssr:stedsnr" v="809506" />
	</node>
	<node id="-781106" lat="70.6738888928" lon="23.1642666114">
		<tag k="alt_name:no" v="Krakneset" />
		<tag k="name" v="Kraken - Kráhkanjárga" />
		<tag k="name:no" v="Kraken" />
		<tag k="name:se" v="Kráhkanjárga" />
		<tag k="natural" v="cape" />
		<tag k="ssr:stedsnr" v="809486" />
	</node>
	<node id="-781104" lat="70.6593972238" lon="23.1868804805">
		<tag k="name" v="Odden - Boazonjárga" />
		<tag k="name:no" v="Odden" />
		<tag k="name:se" v="Boazonjárga" />
		<tag k="natural" v="cape" />
		<tag k="old_name:se" v="Boazunjarga" />
		<tag k="ssr:stedsnr" v="809475" />
	</node>
	<node id="-781103" lat="70.6682305562" lon="23.0014554954">
		<tag k="name" v="Straumsundet" />
		<tag k="natural" v="strait" />
		<tag k="ssr:stedsnr" v="809471" />
	</node>
	<node id="-781098" lat="70.5094888902" lon="22.7444999352">
		<tag k="alt_name" v="Kobbefjordneset" />
		<tag k="name" v="Kobbefjordnes" />
		<tag k="natural" v="cape" />
		<tag k="ssr:stedsnr" v="809318" />
	</node>
	<node id="-781095" lat="70.7417250021" lon="23.3283915869">
		<tag k="bay" v="fjord" />
		<tag k="name" v="Skippernesfjorden - Skihppanasvuonna" />
		<tag k="name:no" v="Skippernesfjorden" />
		<tag k="name:se" v="Skihppanasvuonna" />
		<tag k="natural" v="bay" />
		<tag k="ssr:stedsnr" v="809282" />
	</node>
	<node id="-781094" lat="70.7258722276" lon="23.0661582744">
		<tag k="name" v="Elva" />
		<tag k="natural" v="bay" />
		<tag k="ssr:stedsnr" v="809268" />
	</node>
	<node id="-781093" lat="70.5868527815" lon="23.4299526957">
		<tag k="name" v="Risvika" />
		<tag k="natural" v="bay" />
		<tag k="ssr:stedsnr" v="809260" />
	</node>
	<node id="-781092" lat="70.7626888925" lon="23.9805554533">
		<tag k="alt_name" v="Tjuvgrunnen, in" />
		<tag k="name" v="Indre Tjuvgrunnen" />
		<tag k="natural" v="shoal" />
		<tag k="place" v="locality" />
		<tag k="ssr:stedsnr" v="809227" />
	</node>
	<node id="-781090" lat="70.5474416715" lon="23.4942471384">
		<tag k="bay" v="fjord" />
		<tag k="name" v="Eidvågen - Muotkevuotna" />
		<tag k="name:no" v="Eidvågen" />
		<tag k="name:se" v="Muotkevuotna" />
		<tag k="natural" v="bay" />
		<tag k="old_name:se" v="Muotkevuodna" />
		<tag k="ssr:stedsnr" v="809200" />
	</node>
	<node id="-781084" lat="70.5564472262" lon="23.4075832637">
		<tag k="name" v="Vollalandet" />
		<tag k="natural" v="beach" />
		<tag k="place" v="locality" />
		<tag k="ssr:stedsnr" v="809108" />
	</node>
	<node id="-781083" lat="70.8177000047" lon="23.3168582731">
		<tag k="name" v="Gamvika" />
		<tag k="natural" v="bay" />
		<tag k="ssr:stedsnr" v="809106" />
	</node>
	<node id="-781079" lat="70.8045694481" lon="23.2982471503">
		<tag k="name" v="Finnvikneset" />
		<tag k="natural" v="cape" />
		<tag k="ssr:stedsnr" v="809087" />
	</node>
	<node id="-781077" lat="70.6940916695" lon="23.631061019">
		<tag k="name" v="Fjellvika" />
		<tag k="natural" v="bay" />
		<tag k="ssr:stedsnr" v="809068" />
	</node>
	<node id="-781076" lat="70.7085888921" lon="23.9214193414">
		<tag k="name" v="Sørhamna" />
		<tag k="natural" v="cape" />
		<tag k="ssr:stedsnr" v="809062" />
	</node>
	<node id="-781075" lat="70.6121305567" lon="23.5850054662">
		<tag k="fixme" v="consider seamark:type=rock or natural=shoal" />
		<tag k="name" v="Lilleskjæret" />
		<tag k="place" v="islet" />
		<tag k="ssr:stedsnr" v="809061" />
	</node>
	<node id="-781073" lat="70.7303111164" lon="23.8365860267">
		<tag k="name" v="Forsølholmen - Sivlosuolu" />
		<tag k="name:no" v="Forsølholmen" />
		<tag k="name:se" v="Sivlosuolu" />
		<tag k="old_name:se" v="Sivlusuolo" />
		<tag k="place" v="island" />
		<tag k="ssr:stedsnr" v="809043" />
	</node>
	<node id="-781072" lat="70.5444611109" lon="22.7624499296">
		<tag k="alt_name" v="Nordbukt" />
		<tag k="name" v="Nordbotnen" />
		<tag k="natural" v="bay" />
		<tag k="ssr:stedsnr" v="809029" />
	</node>
	<node id="-781070" lat="70.6461944516" lon="23.6341360153">
		<tag k="name" v="Rievssatnjárga" />
		<tag k="name:se" v="Rievssatnjárga" />
		<tag k="natural" v="cape" />
		<tag k="old_name:se" v="Rievsatnjarga" />
		<tag k="ssr:stedsnr" v="809023" />
	</node>
	<node id="-781069" lat="70.6413250002" lon="23.6297138127">
		<tag k="name" v="Rypklubben" />
		<tag k="natural" v="cape" />
		<tag k="ssr:stedsnr" v="809020" />
	</node>
	<node id="-781066" lat="70.568344444" lon="23.3309166001">
		<tag k="name" v="Vinnaneset" />
		<tag k="natural" v="cape" />
		<tag k="ssr:stedsnr" v="808374" />
	</node>
	<node id="-781065" lat="70.5606305596" lon="23.3675360402">
		<tag k="bay" v="fjord" />
		<tag k="name" v="Vinnasundet" />
		<tag k="natural" v="bay" />
		<tag k="ssr:stedsnr" v="808373" />
	</node>
	<node id="-781064" lat="70.5399083366" lon="22.7184388397">
		<tag k="alt_name" v="Rekneset" />
		<tag k="name" v="Rekvedneset" />
		<tag k="natural" v="cape" />
		<tag k="ssr:stedsnr" v="808313" />
	</node>
	<node id="-781062" lat="70.6065833357" lon="23.6402193507">
		<tag k="alt_name:no" v="Akkarfjord" />
		<tag k="bay" v="fjord" />
		<tag k="name" v="Akkarfjorden - Áhkárvuotna" />
		<tag k="name:no" v="Akkarfjorden" />
		<tag k="name:se" v="Áhkárvuotna" />
		<tag k="natural" v="bay" />
		<tag k="old_name:se" v="Akkarvuodna" />
		<tag k="ssr:stedsnr" v="808199" />
	</node>
	<node id="-781061" lat="70.8119250061" lon="23.4657999132">
		<tag k="fixme" v="multiple name tags, choose one and add the other to alt_name" />
		<tag k="name" v="Indre Møyneset;Møyneset" />
		<tag k="natural" v="cape" />
		<tag k="ssr:stedsnr" v="808136" />
	</node>
	<node id="-781060" lat="70.7833638905" lon="22.7934888351">
		<tag k="name" v="Mellomgrunnen" />
		<tag k="natural" v="shoal" />
		<tag k="place" v="locality" />
		<tag k="ssr:stedsnr" v="808080" />
	</node>
	<node id="-781059" lat="70.5540166653" lon="23.3773943644">
		<tag k="name" v="Skoltbukta" />
		<tag k="natural" v="bay" />
		<tag k="ssr:stedsnr" v="808078" />
	</node>
	<node id="-781058" lat="70.402008338" lon="22.8951888339">
		<tag k="name" v="Skogbukt" />
		<tag k="natural" v="bay" />
		<tag k="ssr:stedsnr" v="808024" />
	</node>
	<node id="-781046" lat="70.5290666651" lon="22.7476721766">
		<tag k="fixme" v="consider seamark:type=rock or natural=shoal" />
		<tag k="name" v="Skarvskjæran" />
		<tag k="place" v="islet" />
		<tag k="ssr:stedsnr" v="762707" />
	</node>
	<node id="-781045" lat="70.4067694468" lon="22.9112277076">
		<tag k="name" v="Brattholmflua" />
		<tag k="place" v="locality" />
		<tag k="seamark:type" v="rock" />
		<tag k="ssr:stedsnr" v="762658" />
	</node>
	<node id="-781044" lat="70.5009166647" lon="23.2817749216">
		<tag k="name" v="Lamholmen" />
		<tag k="place" v="islet" />
		<tag k="ssr:stedsnr" v="760970" />
	</node>
	<node id="-781043" lat="70.6203527791" lon="23.6134943537">
		<tag k="name" v="Nordmannsgrunnen" />
		<tag k="natural" v="shoal" />
		<tag k="place" v="locality" />
		<tag k="ssr:stedsnr" v="760736" />
	</node>
	<node id="-781042" lat="70.7183222246" lon="23.0335193908">
		<tag k="name" v="Veststraumnes" />
		<tag k="natural" v="cape" />
		<tag k="ssr:stedsnr" v="760607" />
	</node>
	<node id="-781041" lat="70.7429472218" lon="23.1323499361">
		<tag k="name" v="Hønsebygrunnen" />
		<tag k="natural" v="shoal" />
		<tag k="place" v="locality" />
		<tag k="ssr:stedsnr" v="760493" />
	</node>
	<node id="-781040" lat="70.6165972271" lon="23.5431915827">
		<tag k="name" v="Skålbuktneset" />
		<tag k="natural" v="cape" />
		<tag k="ssr:stedsnr" v="760492" />
	</node>
	<node id="-781039" lat="70.5591055552" lon="23.5763443587">
		<tag k="name" v="Skallen" />
		<tag k="natural" v="shoal" />
		<tag k="place" v="locality" />
		<tag k="ssr:stedsnr" v="760424" />
	</node>
	<node id="-781033" lat="70.6689861134" lon="23.6949082316">
		<tag k="name" v="Mollafjæra" />
		<tag k="natural" v="beach" />
		<tag k="place" v="locality" />
		<tag k="ssr:stedsnr" v="759219" />
	</node>
	<node id="-781026" lat="70.6459916685" lon="23.66333603">
		<tag k="name" v="Nordnes" />
		<tag k="natural" v="cape" />
		<tag k="ssr:stedsnr" v="759172" />
	</node>
	<node id="-781025" lat="70.6378527799" lon="23.6710360127">
		<tag k="name" v="Båtvik" />
		<tag k="natural" v="bay" />
		<tag k="ssr:stedsnr" v="759168" />
	</node>
	<node id="-781021" lat="70.6596472208" lon="23.668580464">
		<tag k="name" v="Dungan" />
		<tag k="natural" v="beach" />
		<tag k="place" v="locality" />
		<tag k="ssr:stedsnr" v="759134" />
	</node>
	<node id="-781020" lat="70.598458337" lon="23.625288789">
		<tag k="name" v="Holmevalen" />
		<tag k="natural" v="strait" />
		<tag k="ssr:stedsnr" v="759069" />
	</node>
	<node id="-781014" lat="70.5217444488" lon="22.9309360636">
		<tag k="name" v="Vatnholmen - Váhttánsuolu" />
		<tag k="name:no" v="Vatnholmen" />
		<tag k="name:se" v="Váhttánsuolu" />
		<tag k="place" v="islet" />
		<tag k="ssr:stedsnr" v="752011" />
	</node>
	<node id="-781012" lat="70.7339972255" lon="22.8048832804">
		<tag k="name" v="Reppapollen" />
		<tag k="natural" v="bay" />
		<tag k="ssr:stedsnr" v="748758" />
	</node>
	<node id="-781011" lat="70.8101666723" lon="23.439163823">
		<tag k="name" v="Nasen" />
		<tag k="natural" v="cape" />
		<tag k="ssr:stedsnr" v="748550" />
	</node>
	<node id="-781010" lat="70.8324833321" lon="23.4439249179">
		<tag k="name" v="Staurneset" />
		<tag k="natural" v="cape" />
		<tag k="ssr:stedsnr" v="748546" />
	</node>
	<node id="-781009" lat="70.7028666674" lon="22.916722154">
		<tag k="name" v="Salomonesbukta" />
		<tag k="natural" v="bay" />
		<tag k="ssr:stedsnr" v="748513" />
	</node>
	<node id="-781008" lat="70.7004027754" lon="22.916063825">
		<tag k="name" v="Salomonneset" />
		<tag k="natural" v="cape" />
		<tag k="ssr:stedsnr" v="748511" />
	</node>
	<node id="-780998" lat="70.7379111144" lon="22.865286041">
		<tag k="alt_name" v="Stauneset" />
		<tag k="name" v="Staurneset" />
		<tag k="natural" v="cape" />
		<tag k="ssr:stedsnr" v="748292" />
	</node>
	<node id="-780997" lat="70.7399361115" lon="22.9280554872">
		<tag k="name" v="Trimannsgrunnen" />
		<tag k="natural" v="shoal" />
		<tag k="place" v="locality" />
		<tag k="ssr:stedsnr" v="748291" />
	</node>
	<node id="-780995" lat="70.7119166656" lon="23.2895832522">
		<tag k="name" v="Hellefjorden - Heallovuonna" />
		<tag k="name:no" v="Hellefjorden" />
		<tag k="name:se" v="Heallovuonna" />
		<tag k="natural" v="bay" />
		<tag k="ssr:stedsnr" v="748263" />
	</node>
	<node id="-780994" lat="70.7266527828" lon="22.9375943887">
		<tag k="alt_name" v="Jernholmneset" />
		<tag k="name" v="Jernneset" />
		<tag k="natural" v="cape" />
		<tag k="ssr:stedsnr" v="748260" />
	</node>
	<node id="-780993" lat="70.5804527832" lon="23.4294554672">
		<tag k="alt_name" v="Russeneset" />
		<tag k="name" v="Risneset" />
		<tag k="natural" v="cape" />
		<tag k="ssr:stedsnr" v="748240" />
	</node>
	<node id="-780991" lat="70.7918555579" lon="23.4919277125">
		<tag k="name" v="Stornæringsbukta" />
		<tag k="natural" v="bay" />
		<tag k="ssr:stedsnr" v="748230" />
	</node>
	<node id="-780988" lat="70.7665777827" lon="23.0848332725">
		<tag k="name" v="Tjeldklubben" />
		<tag k="natural" v="cape" />
		<tag k="ssr:stedsnr" v="748172" />
	</node>
	<node id="-780986" lat="70.7836166663" lon="23.0411249293">
		<tag k="alt_name" v="Skarvnæringsbukta, yt" />
		<tag k="name" v="Ytre Skarvnæringsbukta" />
		<tag k="natural" v="bay" />
		<tag k="ssr:stedsnr" v="748163" />
	</node>
	<node id="-780985" lat="70.7840499998" lon="22.9864027117">
		<tag k="name" v="Mortgrunnen" />
		<tag k="natural" v="shoal" />
		<tag k="place" v="locality" />
		<tag k="ssr:stedsnr" v="748160" />
	</node>
	<node id="-780984" lat="70.7861027833" lon="23.2938499269">
		<tag k="name" v="Bastafjordnæringen" />
		<tag k="natural" v="cape" />
		<tag k="ssr:stedsnr" v="748158" />
	</node>
	<node id="-780983" lat="70.8027500059" lon="23.466577702">
		<tag k="name" v="Russevika" />
		<tag k="natural" v="bay" />
		<tag k="ssr:stedsnr" v="748153" />
	</node>
	<node id="-780982" lat="70.6625583353" lon="24.0805165576">
		<tag k="name" v="Geitvika" />
		<tag k="natural" v="bay" />
		<tag k="ssr:stedsnr" v="748133" />
	</node>
	<node id="-780981" lat="70.5260416697" lon="23.2263638157">
		<tag k="name" v="Seljebukta" />
		<tag k="natural" v="bay" />
		<tag k="ssr:stedsnr" v="748129" />
	</node>
	<node id="-780979" lat="70.7409999987" lon="23.9479054649">
		<tag k="name" v="Joholgrunnen" />
		<tag k="natural" v="shoal" />
		<tag k="place" v="locality" />
		<tag k="ssr:stedsnr" v="748098" />
	</node>
	<node id="-780976" lat="70.4963444497" lon="22.9976166116">
		<tag k="alt_name" v="Svartvika" />
		<tag k="name" v="Vassvik" />
		<tag k="natural" v="bay" />
		<tag k="ssr:stedsnr" v="748085" />
	</node>
	<node id="-780974" lat="70.8449861122" lon="22.8708554999">
		<tag k="name" v="Håtteskallen" />
		<tag k="natural" v="shoal" />
		<tag k="place" v="locality" />
		<tag k="ssr:stedsnr" v="748075" />
	</node>
	<node id="-780972" lat="70.4948000049" lon="23.148016587">
		<tag k="name" v="Kalveholmen - Rissesullot" />
		<tag k="name:no" v="Kalveholmen" />
		<tag k="name:se" v="Rissesullot" />
		<tag k="place" v="islet" />
		<tag k="ssr:stedsnr" v="748070" />
	</node>
	<node id="-780970" lat="70.8316888881" lon="23.3775693819">
		<tag k="name" v="Kjøttvika" />
		<tag k="natural" v="bay" />
		<tag k="ssr:stedsnr" v="748066" />
	</node>
	<node id="-780967" lat="70.6899694478" lon="23.5989887915">
		<tag k="name" v="Melkøya - Muolkkut" />
		<tag k="name:no" v="Melkøya" />
		<tag k="name:se" v="Muolkkut" />
		<tag k="old_name:se" v="Muolkot" />
		<tag k="place" v="island" />
		<tag k="ssr:stedsnr" v="748055" />
	</node>
	<node id="-780965" lat="70.6386138907" lon="23.6480471241">
		<tag k="bay" v="fjord" />
		<tag k="name" v="Rypefjorden - Lávželuokta" />
		<tag k="name:no" v="Rypefjorden" />
		<tag k="name:se" v="Lávželuokta" />
		<tag k="natural" v="bay" />
		<tag k="old_name:se" v="Lavželuokta" />
		<tag k="ssr:stedsnr" v="748026" />
	</node>
	<node id="-780964" lat="70.5607888902" lon="23.5638971355">
		<tag k="alt_name:no" v="Kvistnesfjordholmen" />
		<tag k="name" v="Kvistnes - Vilgesnjárga" />
		<tag k="name:no" v="Kvistnes" />
		<tag k="name:se" v="Vilgesnjárga" />
		<tag k="natural" v="cape" />
		<tag k="old_name:se" v="Vilgesnjarga" />
		<tag k="ssr:stedsnr" v="748023" />
	</node>
	<node id="-780962" lat="70.6816972244" lon="23.1625332693">
		<tag k="bay" v="fjord" />
		<tag k="name" v="Langstrand-fjorden" />
		<tag k="natural" v="bay" />
		<tag k="old_name" v="Langstrandfjorden" />
		<tag k="ssr:stedsnr" v="747471" />
	</node>
	<node id="-780958" lat="70.6822250068" lon="24.0471749006">
		<tag k="name" v="Sekkevika" />
		<tag k="natural" v="bay" />
		<tag k="ssr:stedsnr" v="747157" />
	</node>
	<node id="-780956" lat="70.7569277805" lon="22.7990277107">
		<tag k="name" v="Gamberget" />
		<tag k="natural" v="cape" />
		<tag k="ssr:stedsnr" v="747099" />
	</node>
	<node id="-780955" lat="70.5492111133" lon="23.3276471319">
		<tag k="name" v="Hønsebygrunnen" />
		<tag k="natural" v="shoal" />
		<tag k="place" v="locality" />
		<tag k="ssr:stedsnr" v="747071" />
	</node>
	<node id="-780953" lat="70.4708166659" lon="23.2375304776">
		<tag k="name" v="Saubukt" />
		<tag k="natural" v="bay" />
		<tag k="ssr:stedsnr" v="747048" />
	</node>
	<node id="-780951" lat="70.4018444449" lon="22.8802582709">
		<tag k="name" v="Storbukta" />
		<tag k="natural" v="bay" />
		<tag k="ssr:stedsnr" v="747025" />
	</node>
	<node id="-780950" lat="70.627172224" lon="23.4549999192">
		<tag k="name" v="Skogneset" />
		<tag k="natural" v="cape" />
		<tag k="ssr:stedsnr" v="747019" />
	</node>
	<node id="-780949" lat="70.6325777784" lon="23.8986082446">
		<tag k="alt_name:no" v="Kvaløy" />
		<tag k="name" v="Kvaløya - Fálá" />
		<tag k="name:no" v="Kvaløya" />
		<tag k="name:se" v="Fálá" />
		<tag k="old_name:se" v="Fala" />
		<tag k="place" v="island" />
		<tag k="ssr:stedsnr" v="747017" />
	</node>
	<node id="-780946" lat="70.5153305605" lon="23.1989221404">
		<tag k="name" v="Sandan" />
		<tag k="natural" v="beach" />
		<tag k="place" v="locality" />
		<tag k="ssr:stedsnr" v="728989" />
	</node>
	<node id="-780943" lat="70.5365999993" lon="23.343058241">
		<tag k="name" v="Veggvika" />
		<tag k="natural" v="bay" />
		<tag k="ssr:stedsnr" v="707905" />
	</node>
	<node id="-780940" lat="70.7254666713" lon="23.8979026728">
		<tag k="name" v="Bortre Tjuvgrunnen" />
		<tag k="natural" v="shoal" />
		<tag k="place" v="locality" />
		<tag k="ssr:stedsnr" v="700661" />
	</node>
	<node id="-780939" lat="70.6256916705" lon="23.0739471683">
		<tag k="name" v="Klubbneset" />
		<tag k="natural" v="cape" />
		<tag k="ssr:stedsnr" v="700568" />
	</node>
	<node id="-780938" lat="70.6151055596" lon="23.5600499031">
		<tag k="name" v="Sprengsnesgrunnen" />
		<tag k="natural" v="shoal" />
		<tag k="place" v="locality" />
		<tag k="ssr:stedsnr" v="700494" />
	</node>
	<node id="-780936" lat="70.5944333366" lon="23.5942665875">
		<tag k="name" v="Klakkgrunnen" />
		<tag k="natural" v="shoal" />
		<tag k="place" v="locality" />
		<tag k="ssr:stedsnr" v="700396" />
	</node>
	<node id="-780935" lat="70.5472222287" lon="23.5433026972">
		<tag k="name" v="Søre Kristinehamna" />
		<tag k="natural" v="bay" />
		<tag k="ssr:stedsnr" v="700345" />
	</node>
	<node id="-780931" lat="70.7254277801" lon="23.8314665822">
		<tag k="name" v="Lilleholmen" />
		<tag k="natural" v="cape" />
		<tag k="ssr:stedsnr" v="698193" />
	</node>
	<node id="-780929" lat="70.721725" lon="23.8264888037">
		<tag k="name" v="Fállágohppi" />
		<tag k="name:se" v="Fállágohppi" />
		<tag k="natural" v="bay" />
		<tag k="ssr:stedsnr" v="698181" />
	</node>
	<node id="-780926" lat="70.6673305601" lon="23.6552054755">
		<tag k="name" v="Fuglenesodden" />
		<tag k="natural" v="cape" />
		<tag k="ssr:stedsnr" v="698116" />
	</node>
	<node id="-780921" lat="70.5736333328" lon="23.4910887908">
		<tag k="name" v="Store Survika" />
		<tag k="natural" v="bay" />
		<tag k="ssr:stedsnr" v="692871" />
	</node>
	<node id="-780920" lat="70.576850004" lon="23.4915665734">
		<tag k="name" v="Lille-Survika" />
		<tag k="natural" v="bay" />
		<tag k="ssr:stedsnr" v="692867" />
	</node>
	<node id="-780919" lat="70.5907138876" lon="23.0087971435">
		<tag k="name" v="Indre-Djupvika" />
		<tag k="natural" v="bay" />
		<tag k="ssr:stedsnr" v="692047" />
	</node>
	<node id="-780918" lat="70.6997055543" lon="23.029491604">
		<tag k="name" v="Stormola" />
		<tag k="natural" v="bay" />
		<tag k="ssr:stedsnr" v="688491" />
	</node>
	<node id="-780915" lat="70.7170138914" lon="23.0355304915">
		<tag k="name" v="Gávva" />
		<tag k="name:se" v="Gávva" />
		<tag k="natural" v="bay" />
		<tag k="old_name:se" v="Gava" />
		<tag k="ssr:stedsnr" v="688283" />
	</node>
	<node id="-780914" lat="70.6905583366" lon="22.9592499443">
		<tag k="bay" v="fjord" />
		<tag k="name" v="Sandøyfjorden - Sáttovuotna" />
		<tag k="name:no" v="Sandøyfjorden" />
		<tag k="name:se" v="Sáttovuotna" />
		<tag k="natural" v="bay" />
		<tag k="old_name:se" v="Sadduvuodna" />
		<tag k="ssr:stedsnr" v="688278" />
	</node>
	<node id="-780911" lat="70.524325005" lon="22.8494582794">
		<tag k="bay" v="fjord" />
		<tag k="name" v="Komagfjorden" />
		<tag k="natural" v="bay" />
		<tag k="ssr:stedsnr" v="688030" />
	</node>
	<node id="-780908" lat="70.7455416692" lon="22.7991499479">
		<tag k="name" v="Ytre-Reppa" />
		<tag k="natural" v="bay" />
		<tag k="ssr:stedsnr" v="687757" />
	</node>
	<node id="-780905" lat="70.6608749995" lon="23.007194373">
		<tag k="name" v="Straumen" />
		<tag k="natural" v="bay" />
		<tag k="ssr:stedsnr" v="687438" />
	</node>
	<node id="-780902" lat="70.6210583362" lon="23.3617804784">
		<tag k="name" v="Russesteinen" />
		<tag k="natural" v="cape" />
		<tag k="ssr:stedsnr" v="687414" />
	</node>
	<node id="-780901" lat="70.579586109" lon="23.3556332616">
		<tag k="name" v="Kalvvika" />
		<tag k="natural" v="bay" />
		<tag k="ssr:stedsnr" v="687391" />
	</node>
	<node id="-780897" lat="70.7251722207" lon="22.9533860622">
		<tag k="alt_name" v="Fuglenesgrunnan" />
		<tag k="name" v="Fuglnesgrunnan" />
		<tag k="natural" v="shoal" />
		<tag k="place" v="locality" />
		<tag k="ssr:stedsnr" v="687249" />
	</node>
	<node id="-780896" lat="70.5962305605" lon="23.6755471236">
		<tag k="name" v="Mollstranda" />
		<tag k="natural" v="beach" />
		<tag k="place" v="locality" />
		<tag k="ssr:stedsnr" v="687242" />
	</node>
	<node id="-780893" lat="70.6226777819" lon="23.561324905">
		<tag k="name" v="Hundneset - Beatnatnjárga" />
		<tag k="name:no" v="Hundneset" />
		<tag k="name:se" v="Beatnatnjárga" />
		<tag k="natural" v="cape" />
		<tag k="old_name:se" v="Bædnatnjarga" />
		<tag k="ssr:stedsnr" v="687224" />
	</node>
	<node id="-780892" lat="70.6009055584" lon="23.4058860313">
		<tag k="name" v="Fagervika - Fádderviika" />
		<tag k="name:no" v="Fagervika" />
		<tag k="name:se" v="Fádderviika" />
		<tag k="natural" v="bay" />
		<tag k="ssr:stedsnr" v="687222" />
	</node>
	<node id="-780891" lat="70.5475694509" lon="23.4863304725">
		<tag k="name" v="Sommarneset" />
		<tag k="natural" v="cape" />
		<tag k="ssr:stedsnr" v="687212" />
	</node>
	<node id="-780890" lat="70.5549416718" lon="23.4737804648">
		<tag k="name" v="Revneset" />
		<tag k="natural" v="cape" />
		<tag k="ssr:stedsnr" v="687185" />
	</node>
	<node id="-780887" lat="70.7910750004" lon="23.2365999336">
		<tag k="fixme" v="multiple name tags, choose one and add the other to alt_name" />
		<tag k="name" v="Store Veivika;Veivika" />
		<tag k="natural" v="bay" />
		<tag k="ssr:stedsnr" v="687152" />
	</node>
	<node id="-780885" lat="70.8833333343" lon="23.7027776786">
		<tag k="name" v="Fallet" />
		<tag k="natural" v="shoal" />
		<tag k="place" v="locality" />
		<tag k="ssr:stedsnr" v="687141" />
	</node>
	<node id="-780884" lat="70.8771472208" lon="23.7115749207">
		<tag k="name" v="Revsholmen" />
		<tag k="place" v="islet" />
		<tag k="ssr:stedsnr" v="687137" />
	</node>
	<node id="-780883" lat="70.8740972233" lon="22.8393082799">
		<tag k="name" v="Flatskjærskallen" />
		<tag k="natural" v="shoal" />
		<tag k="place" v="locality" />
		<tag k="ssr:stedsnr" v="687119" />
	</node>
	<node id="-780882" lat="70.5315416684" lon="22.8482416047">
		<tag k="name" v="Komagfjordbotn" />
		<tag k="natural" v="bay" />
		<tag k="ssr:stedsnr" v="687118" />
	</node>
	<node id="-780879" lat="70.8487972231" lon="23.3660193615">
		<tag k="name" v="Vardbukta" />
		<tag k="natural" v="bay" />
		<tag k="ssr:stedsnr" v="687111" />
	</node>
	<node id="-780877" lat="70.5473694442" lon="23.3664332572">
		<tag k="name" v="Nordmannsneset - Dážanjárga" />
		<tag k="name:no" v="Nordmannsneset" />
		<tag k="name:se" v="Dážanjárga" />
		<tag k="natural" v="cape" />
		<tag k="old_name:se" v="Dažanjarga" />
		<tag k="ssr:stedsnr" v="687109" />
	</node>
	<node id="-780875" lat="70.5533750031" lon="22.9556221622">
		<tag k="name" v="Vinnaskallen" />
		<tag k="natural" v="shoal" />
		<tag k="place" v="locality" />
		<tag k="ssr:stedsnr" v="687102" />
	</node>
	<node id="-780874" lat="70.547277779" lon="23.1382777028">
		<tag k="name" v="Kårhamnneset" />
		<tag k="natural" v="cape" />
		<tag k="ssr:stedsnr" v="687100" />
	</node>
	<node id="-780873" lat="70.5567138891" lon="22.9211554877">
		<tag k="name" v="Sommarsetneset" />
		<tag k="natural" v="cape" />
		<tag k="ssr:stedsnr" v="687098" />
	</node>
	<node id="-780872" lat="70.7969000037" lon="23.0474749494">
		<tag k="name" v="Bustervika" />
		<tag k="natural" v="bay" />
		<tag k="ssr:stedsnr" v="687089" />
	</node>
	<node id="-780871" lat="70.7943499982" lon="23.1769027172">
		<tag k="name" v="Finnfjordholmen" />
		<tag k="place" v="islet" />
		<tag k="ssr:stedsnr" v="687086" />
	</node>
	<node id="-780870" lat="70.8441027819" lon="23.3889915897">
		<tag k="name" v="Kvitnesgrunnen" />
		<tag k="natural" v="shoal" />
		<tag k="place" v="locality" />
		<tag k="ssr:stedsnr" v="687081" />
	</node>
	<node id="-780869" lat="70.5156833351" lon="22.8235110656">
		<tag k="name" v="Gåshopen" />
		<tag k="natural" v="cape" />
		<tag k="ssr:stedsnr" v="687079" />
	</node>
	<node id="-780868" lat="70.8442000043" lon="23.3830721613">
		<tag k="alt_name" v="Kvitneset, yt" />
		<tag k="fixme" v="multiple name tags, choose one and add the other to alt_name" />
		<tag k="name" v="Kvitneset;Ytre Kvitneset" />
		<tag k="natural" v="cape" />
		<tag k="ssr:stedsnr" v="687077" />
	</node>
	<node id="-780865" lat="70.827169444" lon="23.0585082645">
		<tag k="name" v="Kamøysundet" />
		<tag k="natural" v="strait" />
		<tag k="ssr:stedsnr" v="687069" />
	</node>
	<node id="-780864" lat="70.6979166716" lon="23.6249999074">
		<tag k="alt_name" v="Skjervika" />
		<tag k="name" v="Skjærvika" />
		<tag k="natural" v="bay" />
		<tag k="ssr:stedsnr" v="687058" />
	</node>
	<node id="-780863" lat="70.7054833336" lon="23.9402582323">
		<tag k="name" v="Risvåg" />
		<tag k="natural" v="bay" />
		<tag k="ssr:stedsnr" v="687052" />
	</node>
	<node id="-780861" lat="70.7090666671" lon="23.9639165664">
		<tag k="fixme" v="multiple name tags, choose one and add the other to alt_name; consider seamark:type=rock or natural=shoal" />
		<tag k="name" v="Risvågskjæret;Storskjæret" />
		<tag k="place" v="islet" />
		<tag k="ssr:stedsnr" v="687047" />
	</node>
	<node id="-780860" lat="70.6965111153" lon="23.7830610172">
		<tag k="alt_name" v="Kvalfjordbotn" />
		<tag k="name" v="Vesterbotn" />
		<tag k="natural" v="bay" />
		<tag k="ssr:stedsnr" v="687043" />
	</node>
	<node id="-780859" lat="70.7205194501" lon="23.839438794">
		<tag k="alt_name" v="Kirkegårdsbukta" />
		<tag k="name" v="Kjerkegårdsbukta" />
		<tag k="natural" v="bay" />
		<tag k="ssr:stedsnr" v="687040" />
	</node>
	<node id="-780858" lat="70.7077000013" lon="23.8169915696">
		<tag k="bay" v="fjord" />
		<tag k="name" v="Kvalfjorden - Fállevuonna" />
		<tag k="name:no" v="Kvalfjorden" />
		<tag k="name:se" v="Fállevuonna" />
		<tag k="natural" v="bay" />
		<tag k="old_name:se" v="Fallevuodna" />
		<tag k="ssr:stedsnr" v="687038" />
	</node>
	<node id="-780857" lat="70.7140277773" lon="23.8579776688">
		<tag k="name" v="Kvalfjordneset - Fállenjárga" />
		<tag k="name:no" v="Kvalfjordneset" />
		<tag k="name:se" v="Fállenjárga" />
		<tag k="natural" v="cape" />
		<tag k="ssr:stedsnr" v="687037" />
	</node>
	<node id="-780856" lat="70.7316361145" lon="23.8029387932">
		<tag k="name" v="Ytter-Forsøl" />
		<tag k="natural" v="bay" />
		<tag k="ssr:stedsnr" v="687031" />
	</node>
	<node id="-780850" lat="70.5826000014" lon="23.0751332643">
		<tag k="name" v="Oksevika" />
		<tag k="natural" v="bay" />
		<tag k="ssr:stedsnr" v="646887" />
	</node>
	<node id="-780847" lat="70.7997527827" lon="23.0925415947">
		<tag k="name" v="Saksfjord" />
		<tag k="natural" v="cape" />
		<tag k="ssr:stedsnr" v="640027" />
	</node>
	<node id="-780846" lat="70.5723222274" lon="23.3512388137">
		<tag k="name" v="Skjærbukta" />
		<tag k="natural" v="bay" />
		<tag k="ssr:stedsnr" v="639796" />
	</node>
	<node id="-780843" lat="70.691891666" lon="22.9945138346">
		<tag k="fixme" v="consider seamark:type=rock or natural=shoal" />
		<tag k="name" v="Sandvikskjæran" />
		<tag k="place" v="islet" />
		<tag k="ssr:stedsnr" v="638576" />
	</node>
	<node id="-780842" lat="70.7722638901" lon="23.0609999345">
		<tag k="alt_name" v="Raudberggrunnen" />
		<tag k="name" v="Rødberggrunnen" />
		<tag k="natural" v="shoal" />
		<tag k="place" v="locality" />
		<tag k="ssr:stedsnr" v="638483" />
	</node>
	<node id="-780841" lat="70.6628000004" lon="23.6747276961">
		<tag k="name" v="Prestvika" />
		<tag k="natural" v="bay" />
		<tag k="ssr:stedsnr" v="638392" />
	</node>
	<node id="-780836" lat="70.7031388863" lon="23.7930388046">
		<tag k="name" v="Gammelheimnes" />
		<tag k="natural" v="cape" />
		<tag k="ssr:stedsnr" v="637216" />
	</node>
	<node id="-780832" lat="70.6253277833" lon="23.6308693688">
		<tag k="alt_name" v="Småskjæret" />
		<tag k="fixme" v="consider seamark:type=rock or natural=shoal" />
		<tag k="name" v="Småskjæran" />
		<tag k="place" v="islet" />
		<tag k="ssr:stedsnr" v="637185" />
	</node>
	<node id="-780829" lat="70.6170888884" lon="23.6395499134">
		<tag k="alt_name" v="Kuvikneset" />
		<tag k="name" v="Kuviknes" />
		<tag k="natural" v="cape" />
		<tag k="ssr:stedsnr" v="637154" />
	</node>
	<node id="-780827" lat="70.6059416727" lon="23.6033888034">
		<tag k="name" v="Steinvika" />
		<tag k="natural" v="bay" />
		<tag k="ssr:stedsnr" v="637067" />
	</node>
	<node id="-780822" lat="70.5705888891" lon="23.0582138085">
		<tag k="name" v="Fellahamna" />
		<tag k="natural" v="bay" />
		<tag k="ssr:stedsnr" v="631036" />
	</node>
	<node id="-780819" lat="70.8110083323" lon="23.4496832466">
		<tag k="bay" v="fjord" />
		<tag k="name" v="Mefjorden" />
		<tag k="natural" v="bay" />
		<tag k="ssr:stedsnr" v="627541" />
	</node>
	<node id="-780818" lat="70.7071861103" lon="23.3114943677">
		<tag k="name" v="Værosodden - Vardas" />
		<tag k="name:no" v="Værosodden" />
		<tag k="name:se" v="Vardas" />
		<tag k="natural" v="cape" />
		<tag k="ssr:stedsnr" v="627516" />
	</node>
	<node id="-780817" lat="70.6249750041" lon="23.3814082568">
		<tag k="name" v="Hysevågen - Juksováhki" />
		<tag k="name:no" v="Hysevågen" />
		<tag k="name:se" v="Juksováhki" />
		<tag k="natural" v="bay" />
		<tag k="old_name:se" v="Juksuvakki" />
		<tag k="ssr:stedsnr" v="627443" />
	</node>
	<node id="-780816" lat="70.6203472256" lon="23.1163082749">
		<tag k="fixme" v="multiple name tags, choose one and add the other to alt_name" />
		<tag k="name" v="Gjeltindneset;Nordre Gjeltindneset" />
		<tag k="natural" v="cape" />
		<tag k="ssr:stedsnr" v="627436" />
	</node>
	<node id="-780810" lat="70.7584861135" lon="23.04114994">
		<tag k="name" v="Yttergrunnen" />
		<tag k="natural" v="shoal" />
		<tag k="place" v="locality" />
		<tag k="ssr:stedsnr" v="627205" />
	</node>
	<node id="-780808" lat="70.6920583353" lon="24.0153609917">
		<tag k="fixme" v="multiple name tags, choose one and add the other to alt_name" />
		<tag k="loc_name:se" v="Storvihnjárga" />
		<tag k="name" v="Indreneset;Storvikneset" />
		<tag k="name:no" v="Indreneset;Storvikneset" />
		<tag k="natural" v="cape" />
		<tag k="ssr:stedsnr" v="627199" />
	</node>
	<node id="-780807" lat="70.6742111105" lon="23.64947769">
		<tag k="name" v="Rossmola" />
		<tag k="natural" v="cape" />
		<tag k="ssr:stedsnr" v="627015" />
	</node>
	<node id="-780803" lat="70.6892111158" lon="22.9273221683">
		<tag k="alt_name" v="Falkeneset" />
		<tag k="name" v="Falkenes" />
		<tag k="natural" v="cape" />
		<tag k="ssr:stedsnr" v="626510" />
	</node>
	<node id="-780797" lat="70.578241671" lon="23.073902709">
		<tag k="name" v="Laukvika" />
		<tag k="natural" v="bay" />
		<tag k="ssr:stedsnr" v="626426" />
	</node>
	<node id="-780796" lat="70.5661416709" lon="23.2484499322">
		<tag k="name" v="Veggebåen" />
		<tag k="natural" v="shoal" />
		<tag k="place" v="locality" />
		<tag k="ssr:stedsnr" v="626422" />
	</node>
	<node id="-780795" lat="70.5356333353" lon="22.7532832688">
		<tag k="name" v="Klubbneset" />
		<tag k="natural" v="cape" />
		<tag k="ssr:stedsnr" v="626332" />
	</node>
	<node id="-780794" lat="70.7445055584" lon="23.1408165881">
		<tag k="name" v="Grasdalneset" />
		<tag k="natural" v="cape" />
		<tag k="ssr:stedsnr" v="626285" />
	</node>
	<node id="-780792" lat="70.6179333324" lon="23.5082749113">
		<tag k="name" v="Ersvika" />
		<tag k="natural" v="bay" />
		<tag k="ssr:stedsnr" v="626243" />
	</node>
	<node id="-780789" lat="70.5566055544" lon="23.5579388081">
		<tag k="name" v="Klubbneset" />
		<tag k="natural" v="cape" />
		<tag k="ssr:stedsnr" v="626217" />
	</node>
	<node id="-780788" lat="70.5629000024" lon="23.4370443499">
		<tag k="name" v="Hellegjengneset" />
		<tag k="natural" v="cape" />
		<tag k="ssr:stedsnr" v="626212" />
	</node>
	<node id="-780785" lat="70.5302027827" lon="23.2189888067">
		<tag k="name" v="Tindalandet" />
		<tag k="natural" v="beach" />
		<tag k="place" v="locality" />
		<tag k="ssr:stedsnr" v="626155" />
	</node>
	<node id="-780784" lat="70.5289277818" lon="23.1470166015">
		<tag k="name" v="Jonsbukta - Geassegohppi" />
		<tag k="name:no" v="Jonsbukta" />
		<tag k="name:se" v="Geassegohppi" />
		<tag k="natural" v="bay" />
		<tag k="old_name:se" v="Gæssegåppi" />
		<tag k="ssr:stedsnr" v="626152" />
	</node>
	<node id="-780783" lat="70.9735444437" lon="23.0794888213">
		<tag k="name" v="Forsagdeskallen" />
		<tag k="natural" v="shoal" />
		<tag k="place" v="locality" />
		<tag k="ssr:stedsnr" v="626151" />
	</node>
	<node id="-780782" lat="70.8711444482" lon="23.3173499391">
		<tag k="fixme" v="consider seamark:type=rock or natural=shoal" />
		<tag k="name" v="Tarhalsskjæran" />
		<tag k="place" v="islet" />
		<tag k="ssr:stedsnr" v="626147" />
	</node>
	<node id="-780781" lat="70.8786527826" lon="22.9161277346">
		<tag k="name" v="Blindingen" />
		<tag k="natural" v="shoal" />
		<tag k="place" v="locality" />
		<tag k="ssr:stedsnr" v="626148" />
	</node>
	<node id="-780780" lat="70.8525583339" lon="23.3148749341">
		<tag k="name" v="Storbukta" />
		<tag k="natural" v="bay" />
		<tag k="ssr:stedsnr" v="626139" />
	</node>
	<node id="-780778" lat="70.859302781" lon="22.8076138457">
		<tag k="fixme" v="consider seamark:type=rock or natural=shoal" />
		<tag k="name" v="Rundskjæret" />
		<tag k="place" v="islet" />
		<tag k="ssr:stedsnr" v="626122" />
	</node>
	<node id="-780777" lat="70.5614750009" lon="22.9353277083">
		<tag k="bay" v="fjord" />
		<tag k="name" v="Husfjorden - Iibmavuotna" />
		<tag k="name:no" v="Husfjorden" />
		<tag k="name:se" v="Iibmavuotna" />
		<tag k="natural" v="bay" />
		<tag k="old_name:se" v="Iibmavuodna" />
		<tag k="ssr:stedsnr" v="626121" />
	</node>
	<node id="-780776" lat="70.7428833399" lon="23.9004693521">
		<tag k="name" v="Borvikgrunnen" />
		<tag k="natural" v="shoal" />
		<tag k="place" v="locality" />
		<tag k="ssr:stedsnr" v="626117" />
	</node>
	<node id="-780771" lat="70.8220249994" lon="23.3090388051">
		<tag k="name" v="Skarvberget" />
		<tag k="natural" v="cape" />
		<tag k="ssr:stedsnr" v="626094" />
	</node>
	<node id="-780768" lat="70.4849805554" lon="23.2420832557">
		<tag k="alt_name" v="Jerneset" />
		<tag k="name" v="Jernes" />
		<tag k="natural" v="cape" />
		<tag k="ssr:stedsnr" v="626088" />
	</node>
	<node id="-780767" lat="70.7017222268" lon="23.820494357">
		<tag k="name" v="Kvalfjordholmen - Fállesuolu" />
		<tag k="name:no" v="Kvalfjordholmen" />
		<tag k="name:se" v="Fállesuolu" />
		<tag k="place" v="islet" />
		<tag k="ssr:stedsnr" v="626086" />
	</node>
	<node id="-780764" lat="70.4300722277" lon="22.8739082737">
		<tag k="alt_name:no" v="Hompevika" />
		<tag k="name" v="Hompavika - Buola" />
		<tag k="name:no" v="Hompavika" />
		<tag k="name:se" v="Buola" />
		<tag k="natural" v="bay" />
		<tag k="ssr:stedsnr" v="626070" />
	</node>
	<node id="-780760" lat="70.7189277776" lon="23.8410387936">
		<tag k="alt_name" v="Kirkenes" />
		<tag k="name" v="Kjerkegårdsneset" />
		<tag k="natural" v="cape" />
		<tag k="ssr:stedsnr" v="626053" />
	</node>
	<node id="-780758" lat="70.7117333356" lon="23.8963332397">
		<tag k="name" v="Geitelineset" />
		<tag k="natural" v="cape" />
		<tag k="ssr:stedsnr" v="626048" />
	</node>
	<node id="-780755" lat="70.4099972197" lon="22.9067277143">
		<tag k="name" v="Bårdfjordholmane" />
		<tag k="place" v="islet" />
		<tag k="ssr:stedsnr" v="625028" />
	</node>
	<node id="-780743" lat="70.5482055609" lon="22.7331471608">
		<tag k="name" v="Kvitneset" />
		<tag k="natural" v="cape" />
		<tag k="ssr:stedsnr" v="580705" />
	</node>
	<node id="-780742" lat="70.7303861161" lon="22.8655221606">
		<tag k="name" v="Indre Reppagrunnen" />
		<tag k="natural" v="shoal" />
		<tag k="place" v="locality" />
		<tag k="ssr:stedsnr" v="579584" />
	</node>
	<node id="-780741" lat="70.4776833373" lon="23.2575693596">
		<tag k="name" v="Midtgrunnen" />
		<tag k="natural" v="shoal" />
		<tag k="place" v="locality" />
		<tag k="ssr:stedsnr" v="578953" />
	</node>
	<node id="-780740" lat="70.4968805616" lon="23.1368527096">
		<tag k="name" v="Hamneklubben" />
		<tag k="natural" v="cape" />
		<tag k="ssr:stedsnr" v="578890" />
	</node>
	<node id="-780738" lat="70.5329611109" lon="23.4076471449">
		<tag k="name" v="Hønsebybotn" />
		<tag k="natural" v="bay" />
		<tag k="ssr:stedsnr" v="578754" />
	</node>
	<node id="-780737" lat="70.4567194436" lon="23.208502694">
		<tag k="name" v="Jøfjordbotn" />
		<tag k="natural" v="bay" />
		<tag k="ssr:stedsnr" v="578548" />
	</node>
	<node id="-780736" lat="70.6244055613" lon="23.5680971521">
		<tag k="name" v="Hundnesnaget" />
		<tag k="natural" v="strait" />
		<tag k="ssr:stedsnr" v="578391" />
	</node>
	<node id="-780735" lat="70.7711500018" lon="23.2966193675">
		<tag k="name" v="Ytre Bastafjord" />
		<tag k="natural" v="cape" />
		<tag k="ssr:stedsnr" v="578320" />
	</node>
	<node id="-780734" lat="70.6598972282" lon="23.1608749215">
		<tag k="name" v="Storbukta" />
		<tag k="natural" v="bay" />
		<tag k="ssr:stedsnr" v="578281" />
	</node>
	<node id="-780729" lat="70.6501500052" lon="23.6382304639">
		<tag k="name" v="Langstrandnes" />
		<tag k="natural" v="cape" />
		<tag k="ssr:stedsnr" v="577184" />
	</node>
	<node id="-780728" lat="70.608094449" lon="23.639208239">
		<tag k="name" v="Lille Storvika" />
		<tag k="natural" v="bay" />
		<tag k="ssr:stedsnr" v="577180" />
	</node>
	<node id="-780725" lat="70.6014972242" lon="23.633055478">
		<tag k="name" v="Lilleøya" />
		<tag k="place" v="islet" />
		<tag k="ssr:stedsnr" v="577072" />
	</node>
	<node id="-780724" lat="70.6021500049" lon="23.6200999001">
		<tag k="name" v="Valen" />
		<tag k="place" v="locality" />
		<tag k="ssr:stedsnr" v="577068" />
	</node>
	<node id="-780721" lat="70.657694447" lon="23.6633165807">
		<tag k="name" v="Mollviknes" />
		<tag k="natural" v="cape" />
		<tag k="ssr:stedsnr" v="576123" />
	</node>
	<node id="-780718" lat="70.6969861184" lon="23.6205721297">
		<tag k="fixme" v="consider seamark:type=rock or natural=shoal" />
		<tag k="name" v="Skjærvikskjæran" />
		<tag k="place" v="islet" />
		<tag k="ssr:stedsnr" v="576081" />
	</node>
	<node id="-780715" lat="70.5461138879" lon="23.5079749181">
		<tag k="name" v="Kårvika" />
		<tag k="natural" v="bay" />
		<tag k="ssr:stedsnr" v="570901" />
	</node>
	<node id="-780709" lat="70.7117750017" lon="22.9317166175">
		<tag k="alt_name" v="Steinvikneset" />
		<tag k="name" v="Stevenes" />
		<tag k="natural" v="cape" />
		<tag k="ssr:stedsnr" v="566498" />
	</node>
	<node id="-780701" lat="70.7173277797" lon="22.9600416176">
		<tag k="name" v="Bagangrunnen" />
		<tag k="natural" v="shoal" />
		<tag k="place" v="locality" />
		<tag k="ssr:stedsnr" v="566283" />
	</node>
	<node id="-780700" lat="70.7224249976" lon="22.8450305053">
		<tag k="name" v="Indre-Reppa" />
		<tag k="natural" v="bay" />
		<tag k="ssr:stedsnr" v="566278" />
	</node>
	<node id="-780698" lat="70.7801000055" lon="23.487574934">
		<tag k="name" v="Tua" />
		<tag k="natural" v="cape" />
		<tag k="ssr:stedsnr" v="566235" />
	</node>
	<node id="-780697" lat="70.7573777818" lon="23.7751526797">
		<tag k="name" v="Brosmeklakken" />
		<tag k="natural" v="shoal" />
		<tag k="place" v="locality" />
		<tag k="ssr:stedsnr" v="566232" />
	</node>
	<node id="-780696" lat="70.7613000022" lon="23.9468526772">
		<tag k="name" v="Øvregrunnen" />
		<tag k="natural" v="shoal" />
		<tag k="place" v="locality" />
		<tag k="ssr:stedsnr" v="566230" />
	</node>
	<node id="-780695" lat="70.7530916695" lon="23.1076415951">
		<tag k="name" v="Smalneset" />
		<tag k="natural" v="cape" />
		<tag k="ssr:stedsnr" v="566193" />
	</node>
	<node id="-780693" lat="70.7510305586" lon="23.3198999248">
		<tag k="name" v="Skippernesbotn" />
		<tag k="natural" v="bay" />
		<tag k="ssr:stedsnr" v="566188" />
	</node>
	<node id="-780691" lat="70.773308334" lon="23.0704416065">
		<tag k="alt_name" v="Rødbergodden;Raudbergodden" />
		<tag k="name" v="Raudbergneset" />
		<tag k="natural" v="cape" />
		<tag k="ssr:stedsnr" v="566173" />
	</node>
	<node id="-780690" lat="70.7885527802" lon="23.3411527002">
		<tag k="name" v="Eidet" />
		<tag k="place" v="locality" />
		<tag k="ssr:stedsnr" v="566163" />
	</node>
	<node id="-780688" lat="70.5362166665" lon="22.8265971653">
		<tag k="name" v="Straumen" />
		<tag k="natural" v="bay" />
		<tag k="ssr:stedsnr" v="566125" />
	</node>
	<node id="-780684" lat="70.5214916692" lon="23.1955721581">
		<tag k="name" v="Skreifjordstranda" />
		<tag k="natural" v="beach" />
		<tag k="place" v="locality" />
		<tag k="ssr:stedsnr" v="566078" />
	</node>
	<node id="-780681" lat="70.7171500077" lon="23.9250360059">
		<tag k="name" v="Seigrunnen" />
		<tag k="natural" v="shoal" />
		<tag k="place" v="locality" />
		<tag k="ssr:stedsnr" v="566044" />
	</node>
	<node id="-780680" lat="70.6289750035" lon="23.6374304729">
		<tag k="alt_name" v="Finnøy" />
		<tag k="name" v="Finnøya" />
		<tag k="place" v="island" />
		<tag k="ssr:stedsnr" v="566036" />
	</node>
	<node id="-780675" lat="70.6819555602" lon="22.9946860568">
		<tag k="name" v="Fiskenes" />
		<tag k="natural" v="cape" />
		<tag k="ssr:stedsnr" v="565458" />
	</node>
	<node id="-780674" lat="70.668525001" lon="23.1497916041">
		<tag k="name" v="Jakobbukta" />
		<tag k="natural" v="bay" />
		<tag k="ssr:stedsnr" v="565441" />
	</node>
	<node id="-780673" lat="70.6768499986" lon="23.2092971503">
		<tag k="name" v="Gamnes" />
		<tag k="natural" v="cape" />
		<tag k="ssr:stedsnr" v="565438" />
	</node>
	<node id="-780671" lat="70.5882750012" lon="23.0148582766">
		<tag k="name" v="Langholmen" />
		<tag k="place" v="islet" />
		<tag k="ssr:stedsnr" v="565379" />
	</node>
	<node id="-780668" lat="70.5748194468" lon="23.3898776934">
		<tag k="name" v="Vinnalandet" />
		<tag k="natural" v="beach" />
		<tag k="place" v="locality" />
		<tag k="ssr:stedsnr" v="565365" />
	</node>
	<node id="-780667" lat="70.5138249984" lon="22.7991554934">
		<tag k="alt_name" v="Markusneset" />
		<tag k="name" v="Markusnes" />
		<tag k="natural" v="cape" />
		<tag k="ssr:stedsnr" v="565273" />
	</node>
	<node id="-780665" lat="70.5745527794" lon="23.5750693462">
		<tag k="name" v="Kjerringholmen - Ánnásuolu" />
		<tag k="name:no" v="Kjerringholmen" />
		<tag k="name:se" v="Ánnásuolu" />
		<tag k="old_name:se" v="Annasuolo" />
		<tag k="place" v="islet" />
		<tag k="ssr:stedsnr" v="565227" />
	</node>
	<node id="-780664" lat="70.5746805541" lon="23.456563801">
		<tag k="name" v="Survika" />
		<tag k="natural" v="bay" />
		<tag k="ssr:stedsnr" v="565226" />
	</node>
	<node id="-780661" lat="70.7848388886" lon="23.5018388108">
		<tag k="name" v="Lillenæringsbukta" />
		<tag k="natural" v="bay" />
		<tag k="ssr:stedsnr" v="565208" />
	</node>
	<node id="-780657" lat="70.869777778" lon="22.8974471732">
		<tag k="alt_name" v="Bondøy" />
		<tag k="name" v="Bondøya" />
		<tag k="place" v="island" />
		<tag k="ssr:stedsnr" v="565105" />
	</node>
	<node id="-780655" lat="70.8609305557" lon="23.0509665965">
		<tag k="name" v="Lille-Kamøyenden" />
		<tag k="natural" v="cape" />
		<tag k="ssr:stedsnr" v="565099" />
	</node>
	<node id="-780653" lat="70.5455194453" lon="23.159927698">
		<tag k="name" v="Kårhamna - Jáhkogohppi" />
		<tag k="name:no" v="Kårhamna" />
		<tag k="name:se" v="Jáhkogohppi" />
		<tag k="natural" v="bay" />
		<tag k="old_name:se" v="Jakkugåppi" />
		<tag k="ssr:stedsnr" v="565092" />
	</node>
	<node id="-780651" lat="70.5418194442" lon="23.2553471477">
		<tag k="name" v="Vegglandet" />
		<tag k="natural" v="beach" />
		<tag k="place" v="locality" />
		<tag k="ssr:stedsnr" v="565090" />
	</node>
	<node id="-780650" lat="70.8422638877" lon="23.0280749474">
		<tag k="name" v="Sørbukta" />
		<tag k="natural" v="bay" />
		<tag k="ssr:stedsnr" v="565072" />
	</node>
	<node id="-780649" lat="70.494138894" lon="23.2755082595">
		<tag k="name" v="Skjelbukt" />
		<tag k="natural" v="bay" />
		<tag k="ssr:stedsnr" v="565070" />
	</node>
	<node id="-780645" lat="70.4133055545" lon="22.8518027184">
		<tag k="fixme" v="multiple name tags, choose one and add the other to alt_name" />
		<tag k="name" v="Skarstolholman;Tåholmen - Rásláttatsuolu" />
		<tag k="name:no" v="Skarstolholman;Tåholmen" />
		<tag k="name:se" v="Rásláttatsuolu" />
		<tag k="old_name:se" v="Rasladdatsuolo" />
		<tag k="place" v="islet" />
		<tag k="ssr:stedsnr" v="565040" />
	</node>
	<node id="-780642" lat="70.6898611096" lon="23.6282443673">
		<tag k="name" v="Sprengsnes" />
		<tag k="natural" v="cape" />
		<tag k="ssr:stedsnr" v="540952" />
	</node>
	<node id="-780634" lat="70.5627500047" lon="23.6906332352">
		<tag k="name" v="Ytrevalen" />
		<tag k="place" v="locality" />
		<tag k="ssr:stedsnr" v="517489" />
	</node>
	<node id="-780632" lat="70.5828472275" lon="23.5853610393">
		<tag k="name" v="Ytreneset" />
		<tag k="natural" v="cape" />
		<tag k="ssr:stedsnr" v="517371" />
	</node>
	<node id="-780630" lat="70.6459722244" lon="23.1625054912">
		<tag k="name" v="Ramneset" />
		<tag k="natural" v="cape" />
		<tag k="ssr:stedsnr" v="517279" />
	</node>
	<node id="-780628" lat="70.6287055544" lon="23.08663603">
		<tag k="name" v="Ørnes" />
		<tag k="natural" v="cape" />
		<tag k="ssr:stedsnr" v="516957" />
	</node>
	<node id="-780627" lat="70.5868805543" lon="23.6809249194">
		<tag k="name" v="Stuorluokta" />
		<tag k="name:se" v="Stuorluokta" />
		<tag k="natural" v="bay" />
		<tag k="ssr:stedsnr" v="516249" />
	</node>
	<node id="-780622" lat="70.640922226" lon="23.6687693495">
		<tag k="name" v="Stornes" />
		<tag k="natural" v="cape" />
		<tag k="ssr:stedsnr" v="516148" />
	</node>
	<node id="-780621" lat="70.6211055547" lon="23.6180221388">
		<tag k="fixme" v="consider seamark:type=rock or natural=shoal" />
		<tag k="name" v="Rundskjæret" />
		<tag k="place" v="islet" />
		<tag k="ssr:stedsnr" v="516139" />
	</node>
	<node id="-780618" lat="70.6877638923" lon="23.6088860333">
		<tag k="name" v="Sundfjæra" />
		<tag k="natural" v="beach" />
		<tag k="place" v="locality" />
		<tag k="ssr:stedsnr" v="516099" />
	</node>
	<node id="-780616" lat="70.6008277787" lon="23.6469443451">
		<tag k="alt_name" v="Akkarfjordneset" />
		<tag k="name" v="Akkarfjordnes" />
		<tag k="natural" v="cape" />
		<tag k="ssr:stedsnr" v="513801" />
	</node>
	<node id="-780615" lat="70.5706194477" lon="23.0555221588">
		<tag k="name" v="Fellavalen" />
		<tag k="natural" v="bay" />
		<tag k="ssr:stedsnr" v="510029" />
	</node>
	<node id="-780614" lat="70.5743833369" lon="23.5721443503">
		<tag k="name" v="Kjerringholmsundet" />
		<tag k="natural" v="strait" />
		<tag k="ssr:stedsnr" v="510030" />
	</node>
	<node id="-780613" lat="70.5933638944" lon="22.9863443721">
		<tag k="name" v="Indre-Gåsvika" />
		<tag k="natural" v="bay" />
		<tag k="ssr:stedsnr" v="510025" />
	</node>
	<node id="-780612" lat="71.0638027778" lon="23.2469360419">
		<tag k="name" v="Ytre-Tubåen" />
		<tag k="natural" v="shoal" />
		<tag k="place" v="locality" />
		<tag k="ssr:stedsnr" v="510010" />
	</node>
	<node id="-780611" lat="70.7027611135" lon="23.9834526672">
		<tag k="name" v="Breines" />
		<tag k="natural" v="cape" />
		<tag k="ssr:stedsnr" v="509874" />
	</node>
	<node id="-780608" lat="70.6644027818" lon="23.1479971567">
		<tag k="fixme" v="multiple name tags, choose one and add the other to alt_name; consider seamark:type=rock or natural=shoal" />
		<tag k="name" v="Kuvikskjæret;Skjæret" />
		<tag k="place" v="islet" />
		<tag k="ssr:stedsnr" v="505461" />
	</node>
	<node id="-780604" lat="70.6065222249" lon="23.1004860477">
		<tag k="name" v="Sandvika" />
		<tag k="natural" v="bay" />
		<tag k="ssr:stedsnr" v="505413" />
	</node>
	<node id="-780602" lat="70.7409638879" lon="22.8560388333">
		<tag k="name" v="Talborvika" />
		<tag k="natural" v="bay" />
		<tag k="ssr:stedsnr" v="505287" />
	</node>
	<node id="-780601" lat="70.7296000048" lon="23.3656415812">
		<tag k="name" v="Lottabukta" />
		<tag k="natural" v="bay" />
		<tag k="ssr:stedsnr" v="505282" />
	</node>
	<node id="-780599" lat="70.7203361129" lon="22.936283279">
		<tag k="name" v="Fuglnesbukta" />
		<tag k="natural" v="bay" />
		<tag k="ssr:stedsnr" v="505272" />
	</node>
	<node id="-780593" lat="70.6021444481" lon="23.5555415797">
		<tag k="name" v="Notneset - Nuohttenjárga" />
		<tag k="name:no" v="Notneset" />
		<tag k="name:se" v="Nuohttenjárga" />
		<tag k="natural" v="cape" />
		<tag k="old_name:se" v="Nuottenjarga" />
		<tag k="ssr:stedsnr" v="505239" />
	</node>
	<node id="-780590" lat="70.5528777836" lon="23.5458388167">
		<tag k="name" v="Fiskebukta - Guollegohppi" />
		<tag k="name:no" v="Fiskebukta" />
		<tag k="name:se" v="Guollegohppi" />
		<tag k="natural" v="bay" />
		<tag k="old_name:se" v="Guollegåppi" />
		<tag k="ssr:stedsnr" v="505205" />
	</node>
	<node id="-780589" lat="70.7631305536" lon="22.9806416141">
		<tag k="name" v="Flaugskolten" />
		<tag k="natural" v="shoal" />
		<tag k="place" v="locality" />
		<tag k="ssr:stedsnr" v="505190" />
	</node>
	<node id="-780584" lat="70.7724583346" lon="23.0772721624">
		<tag k="name" v="Keila" />
		<tag k="natural" v="bay" />
		<tag k="ssr:stedsnr" v="505170" />
	</node>
	<node id="-780583" lat="70.9706833358" lon="23.7235443699">
		<tag k="alt_name" v="Votten, yt" />
		<tag k="name" v="Ytre Votten" />
		<tag k="natural" v="shoal" />
		<tag k="place" v="locality" />
		<tag k="ssr:stedsnr" v="505139" />
	</node>
	<node id="-780581" lat="70.8672638952" lon="23.3197943745">
		<tag k="name" v="Tarhalsen" />
		<tag k="natural" v="cape" />
		<tag k="ssr:stedsnr" v="505123" />
	</node>
	<node id="-780580" lat="70.5400000015" lon="23.212477713">
		<tag k="name" v="Kobbebukta" />
		<tag k="natural" v="bay" />
		<tag k="ssr:stedsnr" v="505124" />
	</node>
	<node id="-780578" lat="70.8530861084" lon="23.1273666086">
		<tag k="name" v="Kamøygrunnen" />
		<tag k="natural" v="shoal" />
		<tag k="place" v="locality" />
		<tag k="ssr:stedsnr" v="505120" />
	</node>
	<node id="-780577" lat="70.5431000053" lon="22.9494166157">
		<tag k="name" v="Slåttgrunnen" />
		<tag k="natural" v="shoal" />
		<tag k="place" v="locality" />
		<tag k="ssr:stedsnr" v="505119" />
	</node>
	<node id="-780574" lat="70.5597138912" lon="22.9994693837">
		<tag k="name" v="Husfjordnes - Ipmannjárga" />
		<tag k="name:no" v="Husfjordnes" />
		<tag k="name:se" v="Ipmannjárga" />
		<tag k="natural" v="cape" />
		<tag k="ssr:stedsnr" v="505104" />
	</node>
	<node id="-780571" lat="70.741850005" lon="23.8072360315">
		<tag k="name" v="Skipsbuktnasen" />
		<tag k="natural" v="cape" />
		<tag k="ssr:stedsnr" v="505094" />
	</node>
	<node id="-780570" lat="70.803850001" lon="23.0772249446">
		<tag k="bay" v="fjord" />
		<tag k="name" v="Saksfjorden" />
		<tag k="natural" v="bay" />
		<tag k="ssr:stedsnr" v="505091" />
	</node>
	<node id="-780568" lat="70.7448750016" lon="23.676969349">
		<tag k="name" v="Fyranjárga" />
		<tag k="name:se" v="Fyranjárga" />
		<tag k="natural" v="cape" />
		<tag k="old_name:se" v="Fyranjarga" />
		<tag k="ssr:stedsnr" v="505085" />
	</node>
	<node id="-780566" lat="70.5004055613" lon="23.2787415876">
		<tag k="name" v="Skjelbuktholmen" />
		<tag k="place" v="islet" />
		<tag k="ssr:stedsnr" v="505082" />
	</node>
	<node id="-780562" lat="70.8351666684" lon="22.9214999385">
		<tag k="name" v="Smågrunnan" />
		<tag k="natural" v="shoal" />
		<tag k="place" v="locality" />
		<tag k="ssr:stedsnr" v="505070" />
	</node>
	<node id="-780560" lat="70.6991305595" lon="23.8042721225">
		<tag k="alt_name:no" v="Midtnes" />
		<tag k="name" v="Midtneset - Bollonjárga" />
		<tag k="name:no" v="Midtneset" />
		<tag k="name:se" v="Bollonjárga" />
		<tag k="natural" v="cape" />
		<tag k="old_name:se" v="Bållunjarga" />
		<tag k="ssr:stedsnr" v="505049" />
	</node>
	<node id="-780559" lat="70.7174750003" lon="23.6370499201">
		<tag k="name" v="Kjemperevva" />
		<tag k="natural" v="cape" />
		<tag k="ssr:stedsnr" v="505047" />
	</node>
	<node id="-780557" lat="70.7276777758" lon="23.8453776873">
		<tag k="name" v="Lilleholmen" />
		<tag k="place" v="islet" />
		<tag k="ssr:stedsnr" v="505036" />
	</node>
	<node id="-780553" lat="70.6783416729" lon="23.6414915793">
		<tag k="name" v="Melandet" />
		<tag k="natural" v="beach" />
		<tag k="place" v="locality" />
		<tag k="ssr:stedsnr" v="505002" />
	</node>
	<node id="-780551" lat="70.4409944479" lon="22.8661027247">
		<tag k="name" v="Stuorageađgi" />
		<tag k="name:se" v="Stuorageađgi" />
		<tag k="natural" v="cape" />
		<tag k="old_name:se" v="Stuoragæđgi" />
		<tag k="ssr:stedsnr" v="504034" />
	</node>
	<node id="-780546" lat="70.4965333379" lon="23.1558693726">
		<tag k="loc_name:se" v="Fyranjárga" />
		<tag k="name" v="Fyrneset" />
		<tag k="name:no" v="Fyrneset" />
		<tag k="natural" v="cape" />
		<tag k="ssr:stedsnr" v="482569" />
	</node>
	<node id="-780541" lat="70.5324777786" lon="22.9329805054">
		<tag k="name" v="Vatnhamna - Váhttángohppi" />
		<tag k="name:no" v="Vatnhamna" />
		<tag k="name:se" v="Váhttángohppi" />
		<tag k="natural" v="bay" />
		<tag k="ssr:stedsnr" v="457566" />
	</node>
	<node id="-780540" lat="70.6943166692" lon="22.9808721551">
		<tag k="name" v="Klubbenesgrunnen" />
		<tag k="natural" v="shoal" />
		<tag k="place" v="locality" />
		<tag k="ssr:stedsnr" v="457521" />
	</node>
	<node id="-780539" lat="70.7409222227" lon="23.1360499458">
		<tag k="bay" v="fjord" />
		<tag k="name" v="Hønsebyfjorden" />
		<tag k="natural" v="bay" />
		<tag k="ssr:stedsnr" v="457480" />
	</node>
	<node id="-780538" lat="70.8179138917" lon="23.3195499209">
		<tag k="name" v="Lille Sand" />
		<tag k="natural" v="beach" />
		<tag k="place" v="locality" />
		<tag k="ssr:stedsnr" v="457460" />
	</node>
	<node id="-780537" lat="70.6166000058" lon="23.5763971422">
		<tag k="name" v="Taregrunnen" />
		<tag k="natural" v="shoal" />
		<tag k="place" v="locality" />
		<tag k="ssr:stedsnr" v="457448" />
	</node>
	<node id="-780536" lat="70.6084611165" lon="23.3437860418">
		<tag k="name" v="Svegrunnen" />
		<tag k="natural" v="shoal" />
		<tag k="place" v="locality" />
		<tag k="ssr:stedsnr" v="457272" />
	</node>
	<node id="-780535" lat="70.642677778" lon="23.1550499246">
		<tag k="name" v="Nordsida" />
		<tag k="natural" v="beach" />
		<tag k="place" v="locality" />
		<tag k="ssr:stedsnr" v="456995" />
	</node>
	<node id="-780533" lat="70.7302916686" lon="23.8109582364">
		<tag k="name" v="Auersbukta" />
		<tag k="natural" v="bay" />
		<tag k="ssr:stedsnr" v="456227" />
	</node>
	<node id="-780529" lat="70.634913892" lon="23.6635193662">
		<tag k="name" v="Kvalviknes" />
		<tag k="natural" v="cape" />
		<tag k="ssr:stedsnr" v="456200" />
	</node>
	<node id="-780526" lat="70.6453361126" lon="23.6515332439">
		<tag k="name" v="Rørvik" />
		<tag k="natural" v="bay" />
		<tag k="ssr:stedsnr" v="456176" />
	</node>
	<node id="-780523" lat="70.6833249989" lon="23.5859832544">
		<tag k="name" v="Skagodden" />
		<tag k="natural" v="cape" />
		<tag k="ssr:stedsnr" v="455119" />
	</node>
	<node id="-780522" lat="70.6898472213" lon="23.6167276814">
		<tag k="name" v="Melkøyneset" />
		<tag k="natural" v="cape" />
		<tag k="ssr:stedsnr" v="455097" />
	</node>
	<node id="-780518" lat="70.4751027765" lon="22.9305277232">
		<tag k="bay" v="fjord" />
		<tag k="name" v="Bumannsfjorden" />
		<tag k="natural" v="bay" />
		<tag k="ssr:stedsnr" v="449023" />
	</node>
	<node id="-780517" lat="70.582972228" lon="23.0086749389">
		<tag k="name" v="Ytre-Djupvika" />
		<tag k="natural" v="bay" />
		<tag k="ssr:stedsnr" v="449021" />
	</node>
	<node id="-780515" lat="70.6727444475" lon="22.9989527259">
		<tag k="name" v="Sandøybotn" />
		<tag k="natural" v="bay" />
		<tag k="ssr:stedsnr" v="445510" />
	</node>
	<node id="-780514" lat="70.6805333379" lon="23.1469610453">
		<tag k="name" v="Låterbukta" />
		<tag k="natural" v="bay" />
		<tag k="ssr:stedsnr" v="445482" />
	</node>
	<node id="-780511" lat="70.6651333351" lon="23.3202776915">
		<tag k="name" v="Storebåen" />
		<tag k="natural" v="shoal" />
		<tag k="place" v="locality" />
		<tag k="ssr:stedsnr" v="445467" />
	</node>
	<node id="-780505" lat="70.5096055603" lon="22.7689221731">
		<tag k="name" v="Klubbholmen" />
		<tag k="place" v="islet" />
		<tag k="ssr:stedsnr" v="445302" />
	</node>
	<node id="-780504" lat="70.7323250012" lon="23.0577610424">
		<tag k="name" v="Veststraumgrunnen" />
		<tag k="natural" v="shoal" />
		<tag k="place" v="locality" />
		<tag k="ssr:stedsnr" v="445292" />
	</node>
	<node id="-780502" lat="70.5839388917" lon="23.6837721281">
		<tag k="fixme" v="multiple name tags, choose one and add the other to alt_name" />
		<tag k="name" v="Irveluokta;Ivvárluokta" />
		<tag k="name:se" v="Irveluokta;Ivvárluokta" />
		<tag k="natural" v="bay" />
		<tag k="old_name:se" v="Ivvarluokta" />
		<tag k="ssr:stedsnr" v="445241" />
	</node>
	<node id="-780499" lat="70.4967250055" lon="23.1375360476">
		<tag k="alt_name" v="Kalveklubben" />
		<tag k="name" v="Hamneneset" />
		<tag k="natural" v="cape" />
		<tag k="ssr:stedsnr" v="445090" />
	</node>
	<node id="-780496" lat="70.4989000041" lon="23.2821721404">
		<tag k="alt_name:no" v="Storhamna" />
		<tag k="name" v="Skjelbukthamna - Skálžogohppi" />
		<tag k="name:no" v="Skjelbukthamna" />
		<tag k="name:se" v="Skálžogohppi" />
		<tag k="natural" v="bay" />
		<tag k="old_name:se" v="Skalžugåppi" />
		<tag k="ssr:stedsnr" v="445080" />
	</node>
	<node id="-780495" lat="70.8339777817" lon="23.3089638268">
		<tag k="name" v="Halmneset" />
		<tag k="natural" v="cape" />
		<tag k="ssr:stedsnr" v="445072" />
	</node>
	<node id="-780494" lat="70.8306472228" lon="23.2935416008">
		<tag k="alt_name" v="Vasviknæringen" />
		<tag k="name" v="Vassviknæringen" />
		<tag k="natural" v="cape" />
		<tag k="ssr:stedsnr" v="445071" />
	</node>
	<node id="-780492" lat="70.6905777805" lon="23.6219665933">
		<tag k="name" v="Melkøysundet - Muolkkuidnuorri" />
		<tag k="name:no" v="Melkøysundet" />
		<tag k="name:se" v="Muolkkuidnuorri" />
		<tag k="natural" v="strait" />
		<tag k="old_name:se" v="Muolkoidnuorri" />
		<tag k="ssr:stedsnr" v="445058" />
	</node>
	<node id="-780491" lat="70.7102500017" lon="23.9304832194">
		<tag k="name" v="Storklubben" />
		<tag k="natural" v="cape" />
		<tag k="ssr:stedsnr" v="445042" />
	</node>
	<node id="-780490" lat="70.7284083338" lon="23.6205249131">
		<tag k="name" v="Kvalvikgrunnen" />
		<tag k="natural" v="shoal" />
		<tag k="place" v="locality" />
		<tag k="ssr:stedsnr" v="445037" />
	</node>
	<node id="-780489" lat="70.723752779" lon="23.8085637846">
		<tag k="name" v="Sandbukta" />
		<tag k="natural" v="bay" />
		<tag k="ssr:stedsnr" v="445032" />
	</node>
	<node id="-780487" lat="70.6346888919" lon="23.6569860239">
		<tag k="name" v="Tennskjæret" />
		<tag k="natural" v="cape" />
		<tag k="ssr:stedsnr" v="445028" />
	</node>
	<node id="-780486" lat="70.6322222209" lon="23.5953749089">
		<tag k="fixme" v="consider seamark:type=rock or natural=shoal" />
		<tag k="name" v="Rypklubbskjæret - Ávjjot" />
		<tag k="name:no" v="Rypklubbskjæret" />
		<tag k="name:se" v="Ávjjot" />
		<tag k="old_name:se" v="Avjut" />
		<tag k="place" v="islet" />
		<tag k="ssr:stedsnr" v="445027" />
	</node>
	<node id="-780483" lat="70.6570749987" lon="23.6612471393">
		<tag k="name" v="Molvika" />
		<tag k="natural" v="bay" />
		<tag k="ssr:stedsnr" v="445018" />
	</node>
	<node id="-780475" lat="70.5628805589" lon="23.0336888138">
		<tag k="bay" v="fjord" />
		<tag k="name" v="Hamnefjorden - Rostavuonna" />
		<tag k="name:no" v="Hamnefjorden" />
		<tag k="name:se" v="Rostavuonna" />
		<tag k="natural" v="bay" />
		<tag k="old_name:se" v="Råstavuodna" />
		<tag k="ssr:stedsnr" v="444377" />
	</node>
	<node id="-780473" lat="70.5744388947" lon="23.3494665982">
		<tag k="name" v="Jensneset" />
		<tag k="natural" v="cape" />
		<tag k="ssr:stedsnr" v="444367" />
	</node>
	<node id="-780471" lat="70.5598388894" lon="22.8978582585">
		<tag k="name" v="Sørbotn" />
		<tag k="natural" v="bay" />
		<tag k="ssr:stedsnr" v="444092" />
	</node>
	<node id="-780467" lat="70.4123888855" lon="22.8291805046">
		<tag k="name" v="Bårdfjordnesbukta" />
		<tag k="natural" v="bay" />
		<tag k="ssr:stedsnr" v="444034" />
	</node>
	<node id="-780466" lat="70.6125444497" lon="23.5514110293">
		<tag k="name" v="Sprengsneset" />
		<tag k="natural" v="cape" />
		<tag k="ssr:stedsnr" v="444211" />
	</node>
	<node id="-780456" lat="70.6752555548" lon="23.00391659">
		<tag k="name" v="Sandvika" />
		<tag k="natural" v="bay" />
		<tag k="ssr:stedsnr" v="267015" />
	</node>
	<node id="-780455" lat="70.7079944462" lon="22.9306499313">
		<tag k="alt_name" v="Bromleneset" />
		<tag k="name" v="Brommelnes" />
		<tag k="natural" v="cape" />
		<tag k="ssr:stedsnr" v="263527" />
	</node>
	<node id="-780454" lat="70.7099888945" lon="22.9334499344">
		<tag k="name" v="Kvalvika" />
		<tag k="natural" v="bay" />
		<tag k="ssr:stedsnr" v="263525" />
	</node>
	<node id="-780453" lat="70.6977249982" lon="23.1602388249">
		<tag k="name" v="Værbotn" />
		<tag k="natural" v="bay" />
		<tag k="ssr:stedsnr" v="263514" />
	</node>
	<node id="-780451" lat="70.6271472218" lon="23.3915221319">
		<tag k="name" v="Grunnvågneset" />
		<tag k="natural" v="cape" />
		<tag k="ssr:stedsnr" v="263443" />
	</node>
	<node id="-780447" lat="70.7290944436" lon="23.3606887993">
		<tag k="name" v="Skippernesodden - Skihppanas" />
		<tag k="name:no" v="Skippernesodden" />
		<tag k="name:se" v="Skihppanas" />
		<tag k="natural" v="cape" />
		<tag k="ssr:stedsnr" v="263291" />
	</node>
	<node id="-780445" lat="70.7551611158" lon="23.0737915976">
		<tag k="alt_name" v="Holmegrunnen" />
		<tag k="name" v="Holmgrunnen" />
		<tag k="natural" v="shoal" />
		<tag k="place" v="locality" />
		<tag k="ssr:stedsnr" v="263204" />
	</node>
	<node id="-780443" lat="70.5072194458" lon="23.2482749131">
		<tag k="alt_name" v="Sauneset" />
		<tag k="name" v="Sandnes" />
		<tag k="natural" v="cape" />
		<tag k="ssr:stedsnr" v="263100" />
	</node>
	<node id="-780441" lat="70.5200499994" lon="23.2762610301">
		<tag k="name" v="Gammelværneset" />
		<tag k="natural" v="cape" />
		<tag k="ssr:stedsnr" v="263096" />
	</node>
	<node id="-780440" lat="70.5221777782" lon="23.1120193622">
		<tag k="bay" v="fjord" />
		<tag k="name" v="Skreifjorden - Govdavuonna" />
		<tag k="name:no" v="Skreifjorden" />
		<tag k="name:se" v="Govdavuonna" />
		<tag k="natural" v="bay" />
		<tag k="old_name:se" v="Gåvdavuodna" />
		<tag k="ssr:stedsnr" v="263093" />
	</node>
	<node id="-780436" lat="70.7239222231" lon="23.88831101">
		<tag k="alt_name" v="Tjuvgrunnen, øvre" />
		<tag k="name" v="Øvre Tjuvgrunnen" />
		<tag k="natural" v="shoal" />
		<tag k="place" v="locality" />
		<tag k="ssr:stedsnr" v="263044" />
	</node>
	<node id="-780431" lat="70.6933916708" lon="23.001672154">
		<tag k="name" v="Stor-Sandvikholmen" />
		<tag k="place" v="islet" />
		<tag k="ssr:stedsnr" v="262506" />
	</node>
	<node id="-780428" lat="70.6786722283" lon="23.3952110278">
		<tag k="name" v="Ravelsgrunnen" />
		<tag k="natural" v="shoal" />
		<tag k="place" v="locality" />
		<tag k="ssr:stedsnr" v="262493" />
	</node>
	<node id="-780421" lat="70.6635833322" lon="22.9807277195">
		<tag k="name" v="Tverrlandet" />
		<tag k="natural" v="beach" />
		<tag k="place" v="locality" />
		<tag k="ssr:stedsnr" v="262463" />
	</node>
	<node id="-780420" lat="70.5739111103" lon="22.8874027227">
		<tag k="name" v="Pollen" />
		<tag k="natural" v="bay" />
		<tag k="old_name" v="Mebotn;Midbotn" />
		<tag k="ssr:stedsnr" v="262398" />
	</node>
	<node id="-780419" lat="70.5745416698" lon="23.0672971446">
		<tag k="alt_name" v="Finnfellbukta" />
		<tag k="name" v="Finnfellen" />
		<tag k="natural" v="bay" />
		<tag k="ssr:stedsnr" v="262393" />
	</node>
	<node id="-780418" lat="70.5234500003" lon="22.7294610532">
		<tag k="bay" v="fjord" />
		<tag k="name" v="Kobbefjorden - Gohppalvuotna" />
		<tag k="name:no" v="Kobbefjorden" />
		<tag k="name:se" v="Gohppalvuotna" />
		<tag k="natural" v="bay" />
		<tag k="old_name:se" v="Gåppalvuodna" />
		<tag k="ssr:stedsnr" v="262298" />
	</node>
	<node id="-780417" lat="70.5393250044" lon="22.7165777119">
		<tag k="name" v="Rekvedbukta" />
		<tag k="natural" v="bay" />
		<tag k="ssr:stedsnr" v="262289" />
	</node>
	<node id="-780416" lat="70.5980500003" lon="23.6653415882">
		<tag k="name" v="Mollstrandneset - Molstrandnjárga" />
		<tag k="name:no" v="Mollstrandneset" />
		<tag k="name:se" v="Molstrandnjárga" />
		<tag k="natural" v="cape" />
		<tag k="ssr:stedsnr" v="262239" />
	</node>
	<node id="-780415" lat="70.6103499996" lon="23.5747443481">
		<tag k="name" v="Bukkøya - Bohkkasuolu" />
		<tag k="name:no" v="Bukkøya" />
		<tag k="name:se" v="Bohkkasuolu" />
		<tag k="old_name:se" v="Båkkasuolo" />
		<tag k="place" v="island" />
		<tag k="ssr:stedsnr" v="262227" />
	</node>
	<node id="-780412" lat="70.8761250047" lon="23.738433252">
		<tag k="name" v="Austergrunnen" />
		<tag k="natural" v="shoal" />
		<tag k="place" v="locality" />
		<tag k="ssr:stedsnr" v="262151" />
	</node>
	<node id="-780411" lat="70.884166666" lon="23.6249999191">
		<tag k="name" v="Yttergrunnen" />
		<tag k="natural" v="shoal" />
		<tag k="place" v="locality" />
		<tag k="ssr:stedsnr" v="262148" />
	</node>
	<node id="-780410" lat="70.7656277783" lon="22.7676332892">
		<tag k="name" v="Kjerringbukta" />
		<tag k="natural" v="bay" />
		<tag k="ssr:stedsnr" v="262122" />
	</node>
	<node id="-780407" lat="70.5389472224" lon="23.1246082757">
		<tag k="name" v="Klemetbukta - Lohnjárgohppi" />
		<tag k="name:no" v="Klemetbukta" />
		<tag k="name:se" v="Lohnjárgohppi" />
		<tag k="natural" v="bay" />
		<tag k="old_name:se" v="Låtnjargåppi" />
		<tag k="ssr:stedsnr" v="262104" />
	</node>
	<node id="-780406" lat="70.5417444503" lon="23.2132027106">
		<tag k="name" v="Kobbevikneset" />
		<tag k="natural" v="cape" />
		<tag k="ssr:stedsnr" v="262098" />
	</node>
	<node id="-780404" lat="70.8163194472" lon="22.9502360655">
		<tag k="name" v="Skarvholmskallen" />
		<tag k="natural" v="shoal" />
		<tag k="place" v="locality" />
		<tag k="ssr:stedsnr" v="262084" />
	</node>
	<node id="-780401" lat="70.4842555593" lon="23.1317082668">
		<tag k="name" v="Sørbotn" />
		<tag k="natural" v="bay" />
		<tag k="ssr:stedsnr" v="262070" />
	</node>
	<node id="-780400" lat="70.8441222204" lon="23.2312332619">
		<tag k="alt_name" v="Gamvikskjera, store" />
		<tag k="fixme" v="consider seamark:type=rock or natural=shoal" />
		<tag k="name" v="Store Gamvikskjera" />
		<tag k="place" v="islet" />
		<tag k="ssr:stedsnr" v="262069" />
	</node>
	<node id="-780382" lat="70.4100027819" lon="22.9066915932">
		<tag k="name" v="Flatholmen" />
		<tag k="place" v="islet" />
		<tag k="ssr:stedsnr" v="216640" />
	</node>
	<node id="-780380" lat="70.7803416687" lon="23.0492804877">
		<tag k="name" v="Øvreneset" />
		<tag k="natural" v="cape" />
		<tag k="ssr:stedsnr" v="214517" />
	</node>
	<node id="-780378" lat="70.5853000028" lon="23.5819804667">
		<tag k="name" v="Støvelhamnneset" />
		<tag k="natural" v="cape" />
		<tag k="ssr:stedsnr" v="214360" />
	</node>
	<node id="-780375" lat="70.7003722224" lon="23.7896415618">
		<tag k="fixme" v="consider seamark:type=rock or natural=shoal" />
		<tag k="name" v="Langskjæret" />
		<tag k="place" v="islet" />
		<tag k="ssr:stedsnr" v="213210" />
	</node>
	<node id="-780373" lat="70.5995500061" lon="23.6664638011">
		<tag k="name" v="Anderssaranes" />
		<tag k="natural" v="cape" />
		<tag k="ssr:stedsnr" v="213194" />
	</node>
	<node id="-780368" lat="70.6861138897" lon="23.6032776962">
		<tag k="name" v="Lillekeila" />
		<tag k="natural" v="bay" />
		<tag k="ssr:stedsnr" v="213114" />
	</node>
	<node id="-780362" lat="70.5936638866" lon="22.9998638219">
		<tag k="name" v="Gåsvika" />
		<tag k="natural" v="bay" />
		<tag k="ssr:stedsnr" v="206047" />
	</node>
	<node id="-780360" lat="70.7906305599" lon="23.0284721568">
		<tag k="name" v="Skarvnæringen" />
		<tag k="natural" v="cape" />
		<tag k="ssr:stedsnr" v="202553" />
	</node>
	<node id="-780356" lat="70.6618527841" lon="23.1411304836">
		<tag k="name" v="Kuvika - Gussagohppi" />
		<tag k="name:no" v="Kuvika" />
		<tag k="name:se" v="Gussagohppi" />
		<tag k="natural" v="bay" />
		<tag k="old_name:se" v="Gussagåppi" />
		<tag k="ssr:stedsnr" v="202455" />
	</node>
	<node id="-780349" lat="70.5709750023" lon="22.892486054">
		<tag k="name" v="Pollholmen" />
		<tag k="place" v="islet" />
		<tag k="ssr:stedsnr" v="202386" />
	</node>
	<node id="-780348" lat="70.5594361158" lon="23.4499776875">
		<tag k="name" v="Djupvika" />
		<tag k="natural" v="bay" />
		<tag k="ssr:stedsnr" v="202194" />
	</node>
	<node id="-780345" lat="70.7566277821" lon="22.8535193925">
		<tag k="name" v="Reppagrunnan" />
		<tag k="natural" v="shoal" />
		<tag k="place" v="locality" />
		<tag k="ssr:stedsnr" v="202172" />
	</node>
	<node id="-780343" lat="70.7864500035" lon="23.0195388294">
		<tag k="fixme" v="consider seamark:type=rock or natural=shoal" />
		<tag k="name" v="Skarvskjæret" />
		<tag k="place" v="islet" />
		<tag k="ssr:stedsnr" v="202158" />
	</node>
	<node id="-780342" lat="70.7858361102" lon="23.1871416106">
		<tag k="name" v="Finnfjordbotn" />
		<tag k="natural" v="bay" />
		<tag k="ssr:stedsnr" v="202157" />
	</node>
	<node id="-780341" lat="70.7868472261" lon="23.3269221647">
		<tag k="alt_name" v="Akkarsand" />
		<tag k="name" v="Storsand" />
		<tag k="natural" v="beach" />
		<tag k="place" v="locality" />
		<tag k="ssr:stedsnr" v="202155" />
	</node>
	<node id="-780339" lat="70.8226944508" lon="23.431199927">
		<tag k="name" v="Trollbukta" />
		<tag k="natural" v="bay" />
		<tag k="ssr:stedsnr" v="202148" />
	</node>
	<node id="-780337" lat="70.9904861176" lon="23.4261971393">
		<tag k="name" v="Nedre-Tubåen" />
		<tag k="natural" v="shoal" />
		<tag k="place" v="locality" />
		<tag k="ssr:stedsnr" v="202127" />
	</node>
	<node id="-780332" lat="70.5480416684" lon="23.3033610396">
		<tag k="alt_name" v="Veggenes, nordre" />
		<tag k="name" v="Nordre Veggenes" />
		<tag k="natural" v="cape" />
		<tag k="ssr:stedsnr" v="202104" />
	</node>
	<node id="-780331" lat="70.7697694459" lon="22.7983499419">
		<tag k="name" v="Stålet" />
		<tag k="natural" v="cape" />
		<tag k="ssr:stedsnr" v="202099" />
	</node>
	<node id="-780327" lat="70.7462777798" lon="23.7286388085">
		<tag k="alt_name" v="Mortebøbukta" />
		<tag k="name" v="Mortebåbukta" />
		<tag k="natural" v="bay" />
		<tag k="ssr:stedsnr" v="202088" />
	</node>
	<node id="-780324" lat="70.7935944496" lon="23.4116166049">
		<tag k="name" v="Hamna" />
		<tag k="natural" v="bay" />
		<tag k="ssr:stedsnr" v="202083" />
	</node>
	<node id="-780323" lat="70.8401916643" lon="23.2519832681">
		<tag k="alt_name" v="Gamvikskjera, l" />
		<tag k="fixme" v="consider seamark:type=rock or natural=shoal" />
		<tag k="name" v="Lille Gamvikskjera" />
		<tag k="place" v="islet" />
		<tag k="ssr:stedsnr" v="202080" />
	</node>
	<node id="-780321" lat="70.5133888901" lon="23.1601193704">
		<tag k="name" v="Gåsengholmen" />
		<tag k="place" v="islet" />
		<tag k="ssr:stedsnr" v="202076" />
	</node>
	<node id="-780319" lat="70.5127444464" lon="22.8242443806">
		<tag k="name" v="Gåshopholmen" />
		<tag k="place" v="islet" />
		<tag k="ssr:stedsnr" v="202069" />
	</node>
	<node id="-780318" lat="70.5144250054" lon="23.0950693702">
		<tag k="alt_name" v="Lossenpynten" />
		<tag k="name" v="Lossen" />
		<tag k="natural" v="cape" />
		<tag k="ssr:stedsnr" v="202065" />
	</node>
	<node id="-780317" lat="70.5250722242" lon="22.8833416132">
		<tag k="name" v="Lilandet" />
		<tag k="natural" v="beach" />
		<tag k="place" v="locality" />
		<tag k="ssr:stedsnr" v="202064" />
	</node>
	<node id="-780314" lat="70.7040500062" lon="23.6276832523">
		<tag k="alt_name" v="Skjåvika, in" />
		<tag k="name" v="Indre Skjåvika" />
		<tag k="natural" v="bay" />
		<tag k="ssr:stedsnr" v="202040" />
	</node>
	<node id="-780312" lat="70.7201805616" lon="23.8048665754">
		<tag k="name" v="Forsølbukta" />
		<tag k="natural" v="bay" />
		<tag k="ssr:stedsnr" v="202036" />
	</node>
	<node id="-780311" lat="70.7333027843" lon="23.8054360199">
		<tag k="alt_name" v="Laddones" />
		<tag k="name" v="Laddoneset" />
		<tag k="natural" v="cape" />
		<tag k="ssr:stedsnr" v="202032" />
	</node>
	<node id="-780310" lat="70.6315500007" lon="23.6433943478">
		<tag k="name" v="Kirkegårdsøya" />
		<tag k="place" v="island" />
		<tag k="ssr:stedsnr" v="202023" />
	</node>
	<node id="-780309" lat="70.5517583375" lon="22.7287721713">
		<tag k="fixme" v="multiple name tags, choose one and add the other to alt_name" />
		<tag k="name" v="Sørbotnen;Vesterbukt" />
		<tag k="natural" v="bay" />
		<tag k="ssr:stedsnr" v="202020" />
	</node>
	<node id="-780308" lat="70.6246583404" lon="23.4430776907">
		<tag k="name" v="Skogvika" />
		<tag k="natural" v="bay" />
		<tag k="ssr:stedsnr" v="202019" />
	</node>
	<node id="-780306" lat="70.7396333343" lon="23.1596110385">
		<tag k="name" v="Hønsebyvika" />
		<tag k="natural" v="bay" />
		<tag k="ssr:stedsnr" v="202282" />
	</node>
	<node id="-780305" lat="70.7473638898" lon="22.9341304999">
		<tag k="name" v="Sandøya - Sáttát" />
		<tag k="name:no" v="Sandøya" />
		<tag k="name:se" v="Sáttát" />
		<tag k="old_name:se" v="Saddat" />
		<tag k="place" v="island" />
		<tag k="ssr:stedsnr" v="202279" />
	</node>
	<node id="-780304" lat="70.7441944425" lon="23.3115693646">
		<tag k="name" v="Oterbukta" />
		<tag k="natural" v="bay" />
		<tag k="ssr:stedsnr" v="202275" />
	</node>
	<node id="-780301" lat="70.7212916648" lon="23.0966527088">
		<tag k="name" v="Veststraumen" />
		<tag k="natural" v="bay" />
		<tag k="ssr:stedsnr" v="202267" />
	</node>
	<node id="-780298" lat="70.6001416655" lon="23.6208276812">
		<tag k="name" v="Klokkarøya - Goahtesullot" />
		<tag k="name:no" v="Klokkarøya" />
		<tag k="name:se" v="Goahtesullot" />
		<tag k="old_name:se" v="Goattesullut" />
		<tag k="place" v="island" />
		<tag k="ssr:stedsnr" v="202239" />
	</node>
	<node id="-780297" lat="70.6037861093" lon="23.6098499215">
		<tag k="name" v="Strømsneset - Rávdnjenjárga" />
		<tag k="name:no" v="Strømsneset" />
		<tag k="name:se" v="Rávdnjenjárga" />
		<tag k="natural" v="cape" />
		<tag k="old_name:se" v="Ravdnjenjarga" />
		<tag k="ssr:stedsnr" v="202223" />
	</node>
	<node id="-780296" lat="70.5977222239" lon="23.5884776866">
		<tag k="name" v="Strømmen" />
		<tag k="natural" v="strait" />
		<tag k="ssr:stedsnr" v="202222" />
	</node>
	<node id="-780295" lat="70.7750000011" lon="23.9833332329">
		<tag k="alt_name" v="Tjuvgrunnen, yt" />
		<tag k="name" v="Ytre Tjuvgrunnen" />
		<tag k="natural" v="shoal" />
		<tag k="place" v="locality" />
		<tag k="ssr:stedsnr" v="202221" />
	</node>
	<node id="-780294" lat="70.6065944455" lon="23.4540554753">
		<tag k="name" v="Kuvika" />
		<tag k="natural" v="bay" />
		<tag k="ssr:stedsnr" v="202218" />
	</node>
	<node id="-780293" lat="70.7693861169" lon="23.9422499158">
		<tag k="name" v="Nygrunnen" />
		<tag k="natural" v="shoal" />
		<tag k="place" v="locality" />
		<tag k="ssr:stedsnr" v="202215" />
	</node>
</osm>
