<?xml version="1.0" encoding="UTF-8"?>
<osm generator="osmapis" version="0.6">
	<node id="-781312" lat="70.5713833371" lon="23.4879026962">
		<tag k="name" v="Store Survika" />
		<tag k="place" v="farm" />
		<tag k="ssr:stedsnr" v="970577" />
	</node>
	<node id="-781311" lat="70.5741194487" lon="23.4930276933">
		<tag k="name" v="Store Survika" />
		<tag k="place" v="farm" />
		<tag k="ssr:stedsnr" v="970572" />
	</node>
	<node id="-781310" lat="70.7161194497" lon="23.2950721491">
		<tag k="name" v="Hellefjorden" />
		<tag k="place" v="farm" />
		<tag k="ssr:stedsnr" v="970043" />
	</node>
	<node id="-781309" lat="70.7116472212" lon="23.3001582554">
		<tag k="name" v="Hellefjord" />
		<tag k="place" v="farm" />
		<tag k="ssr:stedsnr" v="970034" />
	</node>
	<node id="-781308" lat="70.6806114542" lon="23.0014674029">
		<tag k="name" v="Fiskenes" />
		<tag k="place" v="farm" />
		<tag k="ssr:stedsnr" v="970010" />
	</node>
	<node id="-779775" lat="70.5986888939" lon="23.0935971478">
		<tag k="name" v="Nordbø" />
		<tag k="place" v="isolated_dwelling" />
		<tag k="ssr:stedsnr" v="323403" />
	</node>
	<node id="-781303" lat="70.6313638941" lon="23.1385554759">
		<tag k="name" v="Slettnes" />
		<tag k="place" v="hamlet" />
		<tag k="ssr:stedsnr" v="952058" />
	</node>
	<node id="-780787" lat="70.7664027817" lon="23.1273666128">
		<tag k="name" v="Sæter" />
		<tag k="place" v="isolated_dwelling" />
		<tag k="ssr:stedsnr" v="626194" />
	</node>
	<node id="-781298" lat="70.5248944479" lon="22.8103832869">
		<tag k="name" v="Straumen" />
		<tag k="place" v="isolated_dwelling" />
		<tag k="ssr:stedsnr" v="944722" />
	</node>
	<node id="-780271" lat="70.6015916663" lon="23.6734860124">
		<tag k="name" v="Akkarfjord" />
		<tag k="place" v="farm" />
		<tag k="ssr:stedsnr" v="153322" />
	</node>
	<node id="-779757" lat="70.7590527787" lon="23.1195082791">
		<tag k="name" v="Skarvfjordhamn" />
		<tag k="place" v="hamlet" />
		<tag k="ssr:stedsnr" v="323179" />
	</node>
	<node id="-781289" lat="70.6754222252" lon="23.0059110576">
		<tag k="name" v="Sandvik" />
		<tag k="place" v="locality" />
		<tag k="ssr:stedsnr" v="942556" />
	</node>
	<node id="-780754" lat="70.5220000054" lon="22.9303499473">
		<tag k="name" v="Vatnholmen" />
		<tag k="place" v="farm" />
		<tag k="ssr:stedsnr" v="606966" />
	</node>
	<node id="-781281" lat="70.6570888909" lon="23.7080971223">
		<tag k="name" v="Gratishaugen" />
		<tag k="place" v="suburb" />
		<tag k="ssr:stedsnr" v="941195" />
	</node>
	<node id="-779743" lat="70.7047000071" lon="23.9367360081">
		<tag k="fixme" v="multiple name tags, choose one and add the other to alt_name" />
		<tag k="name" v="Indre Risvåg;Risvåg" />
		<tag k="place" v="isolated_dwelling" />
		<tag k="ssr:stedsnr" v="323060" />
	</node>
	<node id="-780253" lat="70.6789888939" lon="23.6395860233">
		<tag k="name" v="Meland" />
		<tag k="place" v="hamlet" />
		<tag k="ssr:stedsnr" v="152140" />
	</node>
	<node id="-779733" lat="70.6083027791" lon="23.0950027226">
		<tag k="name" v="Hjelltinvik" />
		<tag k="place" v="farm" />
		<tag k="ssr:stedsnr" v="303959" />
	</node>
	<node id="-780243" lat="70.6923472242" lon="23.1743888245">
		<tag k="fixme" v="consider place=hamlet" />
		<tag k="name" v="Langstrand" />
		<tag k="place" v="village" />
		<tag k="ssr:stedsnr" v="141493" />
	</node>
	<node id="-781266" lat="70.6594527836" lon="23.1848638131">
		<tag k="name" v="Odden" />
		<tag k="place" v="farm" />
		<tag k="ssr:stedsnr" v="937019" />
	</node>
	<node id="-780753" lat="70.7478944477" lon="23.3290971379">
		<tag k="name" v="Skippernesfjorden" />
		<tag k="place" v="farm" />
		<tag k="ssr:stedsnr" v="606588" />
	</node>
	<node id="-780239" lat="70.6836472221" lon="23.1416665853">
		<tag k="name" v="Låtret" />
		<tag k="place" v="isolated_dwelling" />
		<tag k="ssr:stedsnr" v="141468" />
	</node>
	<node id="-780236" lat="70.7046638923" lon="22.905086059">
		<tag k="name" v="Sanden" />
		<tag k="place" v="locality" />
		<tag k="ssr:stedsnr" v="141508" />
	</node>
	<node id="-779723" lat="70.5263555576" lon="22.8567610524">
		<tag k="name" v="Komagfjord" />
		<tag k="place" v="locality" />
		<tag k="ssr:stedsnr" v="277707" />
	</node>
	<node id="-779722" lat="70.4044916663" lon="22.9491832601">
		<tag k="name" v="Lakselv" />
		<tag k="place" v="locality" />
		<tag k="ssr:stedsnr" v="276905" />
	</node>
	<node id="-780744" lat="70.5299333351" lon="22.9119416092">
		<tag k="loc_name:se" v="Vattan" />
		<tag k="name" v="Vatnan" />
		<tag k="name:no" v="Vatnan" />
		<tag k="place" v="hamlet" />
		<tag k="ssr:stedsnr" v="585898" />
	</node>
	<node id="-780223" lat="70.5832027803" lon="23.4772915952">
		<tag k="alt_name" v="Moen" />
		<tag k="name" v="Moan" />
		<tag k="place" v="isolated_dwelling" />
		<tag k="ssr:stedsnr" v="141234" />
	</node>
	<node id="-780221" lat="70.6072750049" lon="23.5441527016">
		<tag k="name" v="Rásláttat" />
		<tag k="name:se" v="Rásláttat" />
		<tag k="old_name:se" v="Rasladdat" />
		<tag k="place" v="farm" />
		<tag k="ssr:stedsnr" v="141220" />
	</node>
	<node id="-779883" lat="70.6675944472" lon="22.9457193924">
		<tag k="name" v="Storelv" />
		<tag k="place" v="isolated_dwelling" />
		<tag k="ssr:stedsnr" v="384457" />
	</node>
	<node id="-781239" lat="70.5561333364" lon="23.464824929">
		<tag k="name" v="Lillevoll" />
		<tag k="place" v="farm" />
		<tag k="ssr:stedsnr" v="930187" />
	</node>
	<node id="-779700" lat="70.7426777826" lon="23.1509415933">
		<tag k="name" v="Hønseby" />
		<tag k="place" v="hamlet" />
		<tag k="ssr:stedsnr" v="274090" />
	</node>
	<node id="-779762" lat="70.61409167" lon="23.4452054802">
		<tag k="name" v="Store Fagervika" />
		<tag k="place" v="farm" />
		<tag k="ssr:stedsnr" v="323241" />
	</node>
	<node id="-780103" lat="70.6908194494" lon="23.0557054841">
		<tag k="alt_name" v="Bottsfjord" />
		<tag k="fixme" v="consider place=hamlet" />
		<tag k="name" v="Båtsfjord" />
		<tag k="place" v="village" />
		<tag k="ssr:stedsnr" v="80481" />
	</node>
	<node id="-781223" lat="70.5148666707" lon="23.2062582525">
		<tag k="name" v="Vestre Sandan" />
		<tag k="place" v="farm" />
		<tag k="ssr:stedsnr" v="930077" />
	</node>
	<node id="-780198" lat="70.5121527815" lon="23.1698860419">
		<tag k="name" v="Gåsenga - Dálvesadji" />
		<tag k="name:no" v="Gåsenga" />
		<tag k="name:se" v="Dálvesadji" />
		<tag k="old_name:se" v="Dalvesaddji" />
		<tag k="place" v="isolated_dwelling" />
		<tag k="ssr:stedsnr" v="141080" />
	</node>
	<node id="-780194" lat="70.5234388927" lon="23.1609221664">
		<tag k="name" v="Rastaby" />
		<tag k="place" v="isolated_dwelling" />
		<tag k="ssr:stedsnr" v="141066" />
	</node>
	<node id="-781204" lat="70.6591583365" lon="23.7169054771">
		<tag k="name" v="Bybo" />
		<tag k="place" v="suburb" />
		<tag k="ssr:stedsnr" v="881197" />
	</node>
	<node id="-780179" lat="70.5938444467" lon="22.9790555062">
		<tag k="name" v="Vestre Hamnefjorden" />
		<tag k="place" v="farm" />
		<tag k="ssr:stedsnr" v="121958" />
	</node>
	<node id="-780178" lat="70.5648944432" lon="22.9813471508">
		<tag k="name" v="Søndre Husfjordlia" />
		<tag k="place" v="farm" />
		<tag k="ssr:stedsnr" v="121955" />
	</node>
	<node id="-780687" lat="70.5327972216" lon="23.409813818">
		<tag k="fixme" v="consider place=hamlet" />
		<tag k="name" v="Hønsebybotn" />
		<tag k="place" v="village" />
		<tag k="ssr:stedsnr" v="566123" />
	</node>
	<node id="-780173" lat="70.4055722223" lon="22.9489110315">
		<tag k="name" v="Bårdfjorden" />
		<tag k="place" v="locality" />
		<tag k="ssr:stedsnr" v="101399" />
	</node>
	<node id="-780172" lat="70.5772555576" lon="23.494408237">
		<tag k="name" v="Lille Survika" />
		<tag k="place" v="farm" />
		<tag k="ssr:stedsnr" v="99958" />
	</node>
	<node id="-780166" lat="70.8387861138" lon="23.3716138142">
		<tag k="name" v="Kjøttvika" />
		<tag k="place" v="farm" />
		<tag k="ssr:stedsnr" v="93364" />
	</node>
	<node id="-781189" lat="70.6587138927" lon="23.1599610369">
		<tag k="name" v="Storbukta" />
		<tag k="place" v="isolated_dwelling" />
		<tag k="ssr:stedsnr" v="870458" />
	</node>
	<node id="-780676" lat="70.7013000008" lon="23.2398804956">
		<tag k="name" v="Lunnhamn" />
		<tag k="place" v="locality" />
		<tag k="ssr:stedsnr" v="565469" />
	</node>
	<node id="-780163" lat="70.6074527846" lon="23.4115526974">
		<tag k="name" v="Øra" />
		<tag k="place" v="farm" />
		<tag k="ssr:stedsnr" v="93164" />
	</node>
	<node id="-781181" lat="70.7299361117" lon="23.3180638014">
		<tag k="alt_name" v="Sætra" />
		<tag k="name" v="Sæter" />
		<tag k="place" v="farm" />
		<tag k="ssr:stedsnr" v="870307" />
	</node>
	<node id="-781180" lat="70.7427583362" lon="23.3554749382">
		<tag k="alt_name" v="Markusjord" />
		<tag k="name" v="Markusjorda" />
		<tag k="place" v="locality" />
		<tag k="ssr:stedsnr" v="870292" />
	</node>
	<node id="-781179" lat="70.532391669" lon="23.4193054859">
		<tag k="name" v="Hønseby" />
		<tag k="place" v="farm" />
		<tag k="ssr:stedsnr" v="870242" />
	</node>
	<node id="-781313" lat="70.5651916646" lon="22.9684693882">
		<tag k="name" v="Nordre Husfjordlia" />
		<tag k="place" v="farm" />
		<tag k="ssr:stedsnr" v="970687" />
	</node>
	<node id="-780180" lat="70.5157277798" lon="23.2287360381">
		<tag k="name" v="Skreifjordeidet" />
		<tag k="place" v="farm" />
		<tag k="ssr:stedsnr" v="121992" />
	</node>
	<node id="-780662" lat="70.7881833341" lon="23.4218999133">
		<tag k="name" v="Ytre Akkarfjord" />
		<tag k="old_name" v="Akkarfjord, yt" />
		<tag k="place" v="hamlet" />
		<tag k="ssr:stedsnr" v="565213" />
	</node>
	<node id="-779753" lat="70.5362583389" lon="23.3708388046">
		<tag k="name" v="Hønsebyhamn" />
		<tag k="place" v="farm" />
		<tag k="ssr:stedsnr" v="323132" />
	</node>
	<node id="-780660" lat="70.5648000054" lon="23.5582165775">
		<tag k="name" v="Vika" />
		<tag k="place" v="isolated_dwelling" />
		<tag k="ssr:stedsnr" v="565176" />
	</node>
	<node id="-781057" lat="70.5763972238" lon="23.4939915701">
		<tag k="name" v="Lille Survik" />
		<tag k="place" v="farm" />
		<tag k="ssr:stedsnr" v="788867" />
	</node>
	<node id="-781157" lat="70.607336111" lon="23.6529610104">
		<tag k="name" v="Akkarfjord" />
		<tag k="place" v="farm" />
		<tag k="ssr:stedsnr" v="869257" />
	</node>
	<node id="-781155" lat="70.6203444453" lon="23.6501915845">
		<tag k="name" v="Saragammen" />
		<tag k="place" v="isolated_dwelling" />
		<tag k="ssr:stedsnr" v="869247" />
	</node>
	<node id="-780128" lat="70.5701805586" lon="23.6986943518">
		<tag k="name" v="Nilsjorda" />
		<tag k="place" v="locality" />
		<tag k="ssr:stedsnr" v="81215" />
	</node>
	<node id="-780635" lat="70.4111111149" lon="22.9298971461">
		<tag k="name" v="Ulvetind" />
		<tag k="place" v="locality" />
		<tag k="ssr:stedsnr" v="519874" />
	</node>
	<node id="-781144" lat="70.5356777815" lon="23.1401249444">
		<tag k="name" v="Boie" />
		<tag k="place" v="locality" />
		<tag k="ssr:stedsnr" v="869116" />
	</node>
	<node id="-781142" lat="70.5764722284" lon="22.8835499354">
		<tag k="name" v="Husfjordbunnen" />
		<tag k="place" v="farm" />
		<tag k="ssr:stedsnr" v="849973" />
	</node>
	<node id="-781141" lat="70.5956055619" lon="23.0244054916">
		<tag k="name" v="Østre Hamnefjord" />
		<tag k="place" v="farm" />
		<tag k="ssr:stedsnr" v="849961" />
	</node>
	<node id="-781140" lat="70.4950972266" lon="23.4994638055">
		<tag k="fixme" v="consider tourism=alpine_hut or tourism=chalet" />
		<tag k="name" v="Tindstua" />
		<tag k="ssr:stedsnr" v="849554" />
		<tag k="tourism" v="wilderness_hut" />
	</node>
	<node id="-781138" lat="70.6210944458" lon="23.8312498985">
		<tag k="fixme" v="consider tourism=alpine_hut or tourism=chalet" />
		<tag k="name" v="Monte Negrohytta" />
		<tag k="ssr:stedsnr" v="845591" />
		<tag k="tourism" v="wilderness_hut" />
	</node>
	<node id="-781131" lat="70.561680554" lon="22.8878138307">
		<tag k="alt_name" v="Husfjord" />
		<tag k="fixme" v="consider place=hamlet" />
		<tag k="name" v="Husfjorden" />
		<tag k="place" v="village" />
		<tag k="ssr:stedsnr" v="821572" />
	</node>
	<node id="-780800" lat="70.6642027763" lon="23.1288999269">
		<tag k="name" v="Olajordet" />
		<tag k="place" v="locality" />
		<tag k="ssr:stedsnr" v="626490" />
	</node>
	<node id="-781127" lat="70.5606111184" lon="23.5573276879">
		<tag k="name" v="Kvistnesfjord" />
		<tag k="place" v="farm" />
		<tag k="ssr:stedsnr" v="821424" />
	</node>
	<node id="-780102" lat="70.6932055567" lon="23.0501915952">
		<tag k="name" v="Saramyra" />
		<tag k="place" v="isolated_dwelling" />
		<tag k="ssr:stedsnr" v="80480" />
	</node>
	<node id="-780099" lat="70.5859222255" lon="23.0754999419">
		<tag k="name" v="Nordbukta" />
		<tag k="place" v="isolated_dwelling" />
		<tag k="ssr:stedsnr" v="80398" />
	</node>
	<node id="-780605" lat="70.6319888863" lon="23.1388832652">
		<tag k="name" v="Sørsida" />
		<tag k="place" v="farm" />
		<tag k="ssr:stedsnr" v="505429" />
	</node>
	<node id="-780086" lat="70.5444583318" lon="23.1482832512">
		<tag k="fixme" v="consider place=suburb, village or hamlet" />
		<tag k="name" v="Kårhamn" />
		<tag k="place" v="quarter" />
		<tag k="ssr:stedsnr" v="80098" />
	</node>
	<node id="-780596" lat="70.5762083376" lon="23.4938110288">
		<tag k="alt_name" v="Survik, yt" />
		<tag k="loc_name" v="Store Survika" />
		<tag k="name" v="Ytre Survik" />
		<tag k="place" v="farm" />
		<tag k="ssr:stedsnr" v="505253" />
	</node>
	<node id="-780595" lat="70.5891277774" lon="23.6824888009">
		<tag k="name" v="Lyngslett" />
		<tag k="place" v="isolated_dwelling" />
		<tag k="ssr:stedsnr" v="505250" />
	</node>
	<node id="-780083" lat="70.8218444488" lon="23.3191693617">
		<tag k="name" v="Gamvik" />
		<tag k="place" v="farm" />
		<tag k="ssr:stedsnr" v="80075" />
	</node>
	<node id="-780077" lat="70.5859250041" lon="23.5778332604">
		<tag k="name" v="Støvelhamna" />
		<tag k="place" v="farm" />
		<tag k="ssr:stedsnr" v="60995" />
	</node>
	<node id="-780588" lat="70.514011113" lon="23.5464832427">
		<tag k="name" v="Vassbukt" />
		<tag k="place" v="farm" />
		<tag k="ssr:stedsnr" v="505183" />
	</node>
	<node id="-781099" lat="70.52408056" lon="22.7895027156">
		<tag k="name" v="Strandvollen" />
		<tag k="place" v="locality" />
		<tag k="ssr:stedsnr" v="809331" />
	</node>
	<node id="-780074" lat="70.6324166672" lon="23.8362498928">
		<tag k="fixme" v="consider tourism=alpine_hut or tourism=chalet" />
		<tag k="name" v="Rundvannshytta" />
		<tag k="ssr:stedsnr" v="56584" />
		<tag k="tourism" v="wilderness_hut" />
	</node>
	<node id="-780068" lat="70.4072805536" lon="22.9432999278">
		<tag k="name" v="Perselv" />
		<tag k="place" v="locality" />
		<tag k="ssr:stedsnr" v="33874" />
	</node>
	<node id="-780579" lat="70.5334777816" lon="23.3831304832">
		<tag k="name" v="Sommarset" />
		<tag k="place" v="locality" />
		<tag k="ssr:stedsnr" v="505122" />
	</node>
	<node id="-780065" lat="70.5124916695" lon="23.07467494">
		<tag k="name" v="Vestre Seines" />
		<tag k="place" v="isolated_dwelling" />
		<tag k="ssr:stedsnr" v="32930" />
	</node>
	<node id="-780576" lat="70.5391055617" lon="23.3920082636">
		<tag k="name" v="Skakkebakken" />
		<tag k="place" v="hamlet" />
		<tag k="ssr:stedsnr" v="505116" />
	</node>
	<node id="-781086" lat="70.7886444474" lon="23.2966693734">
		<tag k="name" v="Sommarset" />
		<tag k="place" v="locality" />
		<tag k="ssr:stedsnr" v="809158" />
	</node>
	<node id="-780165" lat="70.6270388935" lon="23.3993832568">
		<tag k="name" v="Grunnvåg" />
		<tag k="place" v="farm" />
		<tag k="ssr:stedsnr" v="93229" />
	</node>
	<node id="-780060" lat="70.6684944443" lon="23.6973610282">
		<tag k="name" v="Molla" />
		<tag k="place" v="suburb" />
		<tag k="ssr:stedsnr" v="31226" />
	</node>
	<node id="-780058" lat="70.6879888944" lon="23.6898943594">
		<tag k="name" v="Prærien" />
		<tag k="place" v="suburb" />
		<tag k="ssr:stedsnr" v="31215" />
	</node>
	<node id="-780563" lat="70.522208339" lon="23.2816665861">
		<tag k="name" v="Gammelvær" />
		<tag k="place" v="isolated_dwelling" />
		<tag k="ssr:stedsnr" v="505071" />
	</node>
	<node id="-780554" lat="70.6909666739" lon="23.9896582324">
		<tag k="name" v="Storvik" />
		<tag k="place" v="isolated_dwelling" />
		<tag k="ssr:stedsnr" v="505005" />
	</node>
	<node id="-780039" lat="70.7203527764" lon="23.1032582759">
		<tag k="name" v="Veststraumen" />
		<tag k="place" v="isolated_dwelling" />
		<tag k="ssr:stedsnr" v="20483" />
	</node>
	<node id="-780038" lat="70.6795027766" lon="23.0056832784">
		<tag k="name" v="Gammelheim" />
		<tag k="place" v="farm" />
		<tag k="ssr:stedsnr" v="20469" />
	</node>
	<node id="-780549" lat="70.7012000029" lon="23.2385443859">
		<tag k="name" v="Lundhavn" />
		<tag k="place" v="farm" />
		<tag k="ssr:stedsnr" v="485471" />
	</node>
	<node id="-780548" lat="70.5595277753" lon="22.9975277204">
		<tag k="name" v="Husfjordnes" />
		<tag k="place" v="farm" />
		<tag k="ssr:stedsnr" v="485964" />
	</node>
	<node id="-780547" lat="70.7797250002" lon="23.3835360459">
		<tag k="name" v="Finnelva" />
		<tag k="place" v="isolated_dwelling" />
		<tag k="ssr:stedsnr" v="484890" />
	</node>
	<node id="-780545" lat="70.6488444442" lon="23.8293776868">
		<tag k="fixme" v="consider tourism=alpine_hut or tourism=chalet" />
		<tag k="name" v="Glimmevannshytta" />
		<tag k="ssr:stedsnr" v="480536" />
		<tag k="tourism" v="wilderness_hut" />
	</node>
	<node id="-781056" lat="70.7163138897" lon="23.2937860507">
		<tag k="name" v="Hellefjorden" />
		<tag k="place" v="farm" />
		<tag k="ssr:stedsnr" v="788523" />
	</node>
	<node id="-780286" lat="70.8632277789" lon="23.3226193793">
		<tag k="name" v="Tarhalshytta" />
		<tag k="place" v="isolated_dwelling" />
		<tag k="ssr:stedsnr" v="180688" />
	</node>
	<node id="-780023" lat="70.716036113" lon="23.2938582524">
		<tag k="alt_name:no" v="Indre Hellefjord" />
		<tag k="fixme" v="consider place=hamlet" />
		<tag k="loc_name:se" v="Heallovuonna" />
		<tag k="name" v="Hellefjord" />
		<tag k="name:no" v="Hellefjord" />
		<tag k="place" v="village" />
		<tag k="ssr:stedsnr" v="20261" />
	</node>
	<node id="-780532" lat="70.665125002" lon="23.6981554572">
		<tag k="name" v="Elvetun" />
		<tag k="place" v="suburb" />
		<tag k="ssr:stedsnr" v="456218" />
	</node>
	<node id="-780018" lat="70.5557224441" lon="23.5334458032">
		<tag k="name" v="Kristinehamn" />
		<tag k="place" v="hamlet" />
		<tag k="ssr:stedsnr" v="20186" />
	</node>
	<node id="-780016" lat="70.8112250009" lon="23.4288471563">
		<tag k="name" v="Mefjord" />
		<tag k="place" v="hamlet" />
		<tag k="ssr:stedsnr" v="20147" />
	</node>
	<node id="-781037" lat="70.6120836127" lon="23.4590331663">
		<tag k="name" v="Store Fagervika" />
		<tag k="place" v="farm" />
		<tag k="ssr:stedsnr" v="760188" />
	</node>
	<node id="-781035" lat="70.6342583344" lon="23.6831499202">
		<tag k="name" v="Breidablikk" />
		<tag k="place" v="suburb" />
		<tag k="ssr:stedsnr" v="759230" />
	</node>
	<node id="-780326" lat="70.8009305532" lon="23.3167277135">
		<tag k="fixme" v="multiple name tags, choose one and add the other to alt_name" />
		<tag k="name" v="Finnvik;Østre Finnvik" />
		<tag k="place" v="isolated_dwelling" />
		<tag k="ssr:stedsnr" v="202086" />
	</node>
	<node id="-780507" lat="70.5930194429" lon="23.0877499395">
		<tag k="loc_name:no" v="Urelva" />
		<tag k="name" v="Urdelv - Juovvajohka" />
		<tag k="name:no" v="Urdelv" />
		<tag k="name:se" v="Juovvajohka" />
		<tag k="old_name:se" v="Juovvajåkka" />
		<tag k="place" v="hamlet" />
		<tag k="ssr:stedsnr" v="445412" />
	</node>
	<node id="-780479" lat="70.6633583391" lon="23.6820610153">
		<tag k="name" v="Hammerfest" />
		<tag k="place" v="town" />
		<tag k="ssr:stedsnr" v="445004" />
	</node>
	<node id="-780497" lat="70.5147583339" lon="23.216505479">
		<tag k="name" v="Østre Sandan" />
		<tag k="place" v="farm" />
		<tag k="ssr:stedsnr" v="445081" />
	</node>
	<node id="-779977" lat="70.5745472217" lon="23.4899888174">
		<tag k="name" v="Surviknes" />
		<tag k="old_name" v="Indre Survik" />
		<tag k="place" v="farm" />
		<tag k="ssr:stedsnr" v="883127" />
	</node>
	<node id="-780488" lat="70.6353416677" lon="23.6791665879">
		<tag k="fixme" v="consider place=suburb, village or hamlet" />
		<tag k="name" v="Indrefjord" />
		<tag k="place" v="quarter" />
		<tag k="ssr:stedsnr" v="445030" />
	</node>
	<node id="-780481" lat="70.6412583371" lon="23.6721249225">
		<tag k="name" v="Rypefjord" />
		<tag k="place" v="village" />
		<tag k="ssr:stedsnr" v="445016" />
	</node>
	<node id="-780992" lat="70.6003444508" lon="23.6275915752">
		<tag k="name" v="Strømsnes" />
		<tag k="place" v="hamlet" />
		<tag k="ssr:stedsnr" v="748229" />
	</node>
	<node id="-780064" lat="70.5259388888" lon="23.1505110391">
		<tag k="name" v="Rastabynes" />
		<tag k="place" v="isolated_dwelling" />
		<tag k="ssr:stedsnr" v="32931" />
	</node>
	<node id="-780990" lat="70.5395472254" lon="23.536608251">
		<tag k="name" v="Eidvågeidet - Roavvi" />
		<tag k="name:no" v="Eidvågeidet" />
		<tag k="name:se" v="Roavvi" />
		<tag k="place" v="hamlet" />
		<tag k="ssr:stedsnr" v="748211" />
	</node>
	<node id="-780989" lat="70.7519055553" lon="22.9522999247">
		<tag k="name" v="Sandøy" />
		<tag k="place" v="isolated_dwelling" />
		<tag k="ssr:stedsnr" v="748179" />
	</node>
	<node id="-779964" lat="70.6887722219" lon="23.0105777203">
		<tag k="name" v="Store Sandvik" />
		<tag k="place" v="isolated_dwelling" />
		<tag k="ssr:stedsnr" v="396583" />
	</node>
	<node id="-780474" lat="70.583044445" lon="23.0713221574">
		<tag k="name" v="Oksevika" />
		<tag k="place" v="isolated_dwelling" />
		<tag k="ssr:stedsnr" v="444376" />
	</node>
	<node id="-780472" lat="70.7836444504" lon="23.463002708">
		<tag k="name" v="Bismervik" />
		<tag k="place" v="farm" />
		<tag k="ssr:stedsnr" v="444199" />
	</node>
	<node id="-780980" lat="70.5420111113" lon="22.9371416153">
		<tag k="name" v="Slåtten" />
		<tag k="place" v="locality" />
		<tag k="ssr:stedsnr" v="748118" />
	</node>
	<node id="-780975" lat="70.5069666648" lon="23.1683443687">
		<tag k="name" v="Engdal" />
		<tag k="place" v="isolated_dwelling" />
		<tag k="ssr:stedsnr" v="748082" />
	</node>
	<node id="-780966" lat="70.7219083373" lon="23.8063082359">
		<tag k="fixme" v="consider place=hamlet" />
		<tag k="name" v="Forsøl" />
		<tag k="place" v="village" />
		<tag k="ssr:stedsnr" v="748044" />
	</node>
	<node id="-780450" lat="70.6392305566" lon="23.1474499233">
		<tag k="name" v="Nordsida" />
		<tag k="place" v="farm" />
		<tag k="ssr:stedsnr" v="263440" />
	</node>
	<node id="-780960" lat="70.5648777785" lon="22.9694777026">
		<tag k="name" v="Elvedalen" />
		<tag k="place" v="isolated_dwelling" />
		<tag k="ssr:stedsnr" v="747369" />
	</node>
	<node id="-780435" lat="70.629163891" lon="23.6575110342">
		<tag k="name" v="Leirvik" />
		<tag k="place" v="hamlet" />
		<tag k="ssr:stedsnr" v="263041" />
	</node>
	<node id="-780945" lat="70.5339583312" lon="22.8904971553">
		<tag k="name" v="Vestre Vatnan" />
		<tag k="place" v="farm" />
		<tag k="ssr:stedsnr" v="728964" />
	</node>
	<node id="-780430" lat="70.6883166643" lon="22.8795749451">
		<tag k="name" v="Koppardalen" />
		<tag k="place" v="farm" />
		<tag k="ssr:stedsnr" v="262503" />
	</node>
	<node id="-780934" lat="70.6059000017" lon="23.6306582392">
		<tag k="name" v="Berg" />
		<tag k="place" v="farm" />
		<tag k="ssr:stedsnr" v="699322" />
	</node>
	<node id="-780395" lat="70.6022277799" lon="23.6907221408">
		<tag k="name" v="Mollstranda" />
		<tag k="place" v="farm" />
		<tag k="ssr:stedsnr" v="242912" />
	</node>
	<node id="-780928" lat="70.6122027836" lon="23.6498721282">
		<tag k="loc_name:se" v="Áhkkárvuotna" />
		<tag k="name" v="Akkarfjord" />
		<tag k="name:no" v="Akkarfjord" />
		<tag k="place" v="hamlet" />
		<tag k="ssr:stedsnr" v="698157" />
	</node>
	<node id="-780414" lat="70.6207166653" lon="23.4762776958">
		<tag k="name" v="Ersvik" />
		<tag k="place" v="isolated_dwelling" />
		<tag k="ssr:stedsnr" v="262226" />
	</node>
	<node id="-780409" lat="70.5336250046" lon="22.9305665985">
		<tag k="name" v="Vatnhamna" />
		<tag k="place" v="farm" />
		<tag k="ssr:stedsnr" v="262119" />
	</node>
	<node id="-779709" lat="70.7098138907" lon="23.3025943789">
		<tag k="fixme" v="consider place=hamlet" />
		<tag k="name" v="Ytre Hellefjord" />
		<tag k="place" v="village" />
		<tag k="ssr:stedsnr" v="275142" />
	</node>
	<node id="-780396" lat="70.5220388904" lon="23.3207693691">
		<tag k="name" v="Sør-Tverrfjorden" />
		<tag k="place" v="farm" />
		<tag k="ssr:stedsnr" v="242992" />
	</node>
	<node id="-780907" lat="70.6941555563" lon="22.8897305002">
		<tag k="name" v="Olajordet" />
		<tag k="place" v="isolated_dwelling" />
		<tag k="ssr:stedsnr" v="687479" />
	</node>
	<node id="-780394" lat="70.7090333365" lon="23.3029804838">
		<tag k="name" v="Hellefjorden" />
		<tag k="place" v="farm" />
		<tag k="ssr:stedsnr" v="242491" />
	</node>
	<node id="-780392" lat="70.6918694485" lon="23.5990693589">
		<tag k="building" v="industrial" />
		<tag k="industrial" v="factory" />
		<tag k="name" v="Flammetårn" />
		<tag k="ssr:stedsnr" v="237792" />
	</node>
	<node id="-780391" lat="70.6844416706" lon="23.5849637952">
		<tag k="building" v="industrial" />
		<tag k="industrial" v="factory" />
		<tag k="name" v="Statoil Melkøya" />
		<tag k="ssr:stedsnr" v="237775" />
	</node>
	<node id="-779878" lat="70.6101888948" lon="23.3909193614">
		<tag k="name" v="Lille Fagervika" />
		<tag k="place" v="farm" />
		<tag k="ssr:stedsnr" v="384416" />
	</node>
	<node id="-780900" lat="70.7327111138" lon="23.3592665959">
		<tag k="name" v="Skippernes" />
		<tag k="place" v="farm" />
		<tag k="ssr:stedsnr" v="687272" />
	</node>
	<node id="-780899" lat="70.7425805533" lon="23.1487110478">
		<tag k="name" v="Hønseby" />
		<tag k="place" v="farm" />
		<tag k="ssr:stedsnr" v="687262" />
	</node>
	<node id="-780381" lat="70.5292583367" lon="23.1498943865">
		<tag k="name" v="Jonsbukta" />
		<tag k="place" v="locality" />
		<tag k="ssr:stedsnr" v="214948" />
	</node>
	<node id="-780076" lat="70.6795027766" lon="23.0056832784">
		<tag k="name" v="Gammelheim" />
		<tag k="place" v="farm" />
		<tag k="ssr:stedsnr" v="60481" />
	</node>
	<node id="-780379" lat="70.8016333369" lon="23.3114415895">
		<tag k="name" v="Vestre Finnvik" />
		<tag k="place" v="isolated_dwelling" />
		<tag k="ssr:stedsnr" v="214475" />
	</node>
	<node id="-780377" lat="70.6371499993" lon="23.1475915942">
		<tag k="name" v="Slettnes" />
		<tag k="place" v="farm" />
		<tag k="ssr:stedsnr" v="214269" />
	</node>
	<node id="-779859" lat="70.7947416722" lon="23.4091110252">
		<tag k="fixme" v="consider place=suburb, village or hamlet" />
		<tag k="loc_name:se" v="Áhkkárvuotna" />
		<tag k="name" v="Akkarfjord" />
		<tag k="name:no" v="Akkarfjord" />
		<tag k="place" v="quarter" />
		<tag k="ssr:stedsnr" v="384094" />
	</node>
	<node id="-780643" lat="70.4899941246" lon="23.1469673379">
		<tag k="name" v="Kalvebukta med Kargen" />
		<tag k="place" v="farm" />
		<tag k="ssr:stedsnr" v="545970" />
	</node>
	<node id="-780880" lat="70.5343055592" lon="23.344308247">
		<tag k="name" v="Veggvika" />
		<tag k="place" v="isolated_dwelling" />
		<tag k="ssr:stedsnr" v="687113" />
	</node>
	<node id="-780358" lat="70.6872972262" lon="22.913266597">
		<tag k="name" v="Koppardalsommarset" />
		<tag k="place" v="locality" />
		<tag k="ssr:stedsnr" v="202476" />
	</node>
	<node id="-780344" lat="70.7797250002" lon="23.3835360459">
		<tag k="name" v="Finnelva" />
		<tag k="place" v="hamlet" />
		<tag k="ssr:stedsnr" v="202162" />
	</node>
	<node id="-780855" lat="70.5043861141" lon="22.7035054873">
		<tag k="name" v="Ramnneset" />
		<tag k="place" v="farm" />
		<tag k="ssr:stedsnr" v="667966" />
	</node>
	<node id="-780854" lat="70.6404027804" lon="23.6693943652">
		<tag k="building" v="industrial" />
		<tag k="industrial" v="factory" />
		<tag k="name" v="Tankanlegg" />
		<tag k="ssr:stedsnr" v="662800" />
	</node>
	<node id="-780336" lat="70.5236027842" lon="23.3277610298">
		<tag k="loc_name:se" v="Doaresvuotna" />
		<tag k="name" v="Tverrfjorden" />
		<tag k="name:no" v="Tverrfjorden" />
		<tag k="place" v="hamlet" />
		<tag k="ssr:stedsnr" v="202123" />
	</node>
	<node id="-780335" lat="70.5303527763" lon="22.9110221557">
		<tag k="name" v="Øster-Vatnan" />
		<tag k="place" v="farm" />
		<tag k="ssr:stedsnr" v="202120" />
	</node>
	<node id="-780845" lat="70.5123805591" lon="23.2848665921">
		<tag k="name" v="Gippelværnes" />
		<tag k="place" v="locality" />
		<tag k="ssr:stedsnr" v="638962" />
	</node>
	<node id="-780844" lat="70.5223750018" lon="23.3217554666">
		<tag k="name" v="Sinmyr" />
		<tag k="place" v="farm" />
		<tag k="ssr:stedsnr" v="638963" />
	</node>
	<node id="-779818" lat="70.5173888867" lon="23.2246193752">
		<tag k="name" v="Skreifjordstrand" />
		<tag k="place" v="farm" />
		<tag k="ssr:stedsnr" v="363990" />
	</node>
	<node id="-779817" lat="70.6765916716" lon="22.9448471579">
		<tag k="name" v="Solnes" />
		<tag k="place" v="farm" />
		<tag k="ssr:stedsnr" v="363465" />
	</node>
	<node id="-779816" lat="70.693308334" lon="22.884658267">
		<tag k="name" v="Kopperdalen" />
		<tag k="place" v="farm" />
		<tag k="ssr:stedsnr" v="363464" />
	</node>
	<node id="-780838" lat="70.660425003" lon="23.7071110086">
		<tag k="name" v="Rairo" />
		<tag k="place" v="suburb" />
		<tag k="ssr:stedsnr" v="637227" />
	</node>
	<node id="-779807" lat="70.512530555" lon="23.0822832619">
		<tag k="name" v="Østre Seines" />
		<tag k="place" v="isolated_dwelling" />
		<tag k="ssr:stedsnr" v="336929" />
	</node>
	<node id="-779803" lat="70.6677222217" lon="23.0054388183">
		<tag k="name" v="Straumen" />
		<tag k="place" v="isolated_dwelling" />
		<tag k="ssr:stedsnr" v="335723" />
	</node>
	<node id="-780542" lat="70.5764194445" lon="23.4935110346">
		<tag k="name" v="Lille Survika" />
		<tag k="place" v="farm" />
		<tag k="ssr:stedsnr" v="464926" />
	</node>
	<node id="-780036" lat="70.6635472207" lon="22.9609749277">
		<tag k="name" v="Mebotn" />
		<tag k="place" v="farm" />
		<tag k="ssr:stedsnr" v="20443" />
	</node>
	<node id="-781332" lat="70.529101045" lon="23.3925028957">
		<tag k="name" v="Sørelven" />
		<tag k="place" v="farm" />
		<tag k="ssr:stedsnr" v="980822" />
	</node>
	<node id="-781331" lat="70.5289403359" lon="23.4038938221">
		<tag k="name" v="Sørelva" />
		<tag k="place" v="farm" />
		<tag k="ssr:stedsnr" v="980821" />
	</node>
	<node id="-781328" lat="70.6119629664" lon="23.4591709949">
		<tag k="name" v="Stuora Fádderviika" />
		<tag k="name:se" v="Stuora Fádderviika" />
		<tag k="place" v="locality" />
		<tag k="ssr:stedsnr" v="975963" />
	</node>
	<node id="-781327" lat="70.6142428811" lon="23.4454313432">
		<tag k="name" v="Stuora Fádderviika" />
		<tag k="name:se" v="Stuora Fádderviika" />
		<tag k="place" v="locality" />
		<tag k="ssr:stedsnr" v="975956" />
	</node>
	<node id="-781326" lat="70.6101290725" lon="23.3910093022">
		<tag k="name" v="Unna-Fádderviikaš" />
		<tag k="name:se" v="Unna-Fádderviikaš" />
		<tag k="place" v="locality" />
		<tag k="ssr:stedsnr" v="975954" />
	</node>
	<node id="-781324" lat="70.5562903407" lon="23.4640140783">
		<tag k="name" v="Suoidnegohppi" />
		<tag k="name:se" v="Suoidnegohppi" />
		<tag k="place" v="locality" />
		<tag k="ssr:stedsnr" v="975948" />
	</node>
	<node id="-781323" lat="70.5744420949" lon="23.4899616584">
		<tag k="name" v="Gáŋku" />
		<tag k="name:se" v="Gáŋku" />
		<tag k="place" v="locality" />
		<tag k="ssr:stedsnr" v="975943" />
	</node>
	<node id="-781322" lat="70.6162114599" lon="23.5503996362">
		<tag k="name" v="Sparegot" />
		<tag k="place" v="farm" />
		<tag k="ssr:stedsnr" v="975944" />
	</node>
	<node id="-781319" lat="70.5857976203" lon="23.5780175092">
		<tag k="name" v="Stevvelhavna" />
		<tag k="name:se" v="Stevvelhavna" />
		<tag k="place" v="locality" />
		<tag k="ssr:stedsnr" v="975928" />
	</node>
	<node id="-781318" lat="70.5763987118" lon="23.4934637894">
		<tag k="name" v="Gaskagohppi" />
		<tag k="name:se" v="Gaskagohppi" />
		<tag k="place" v="locality" />
		<tag k="ssr:stedsnr" v="975924" />
	</node>
	<node id="-781317" lat="70.5740426162" lon="23.4931573607">
		<tag k="name" v="Gáŋku" />
		<tag k="name:se" v="Gáŋku" />
		<tag k="place" v="locality" />
		<tag k="ssr:stedsnr" v="975925" />
	</node>
	<node id="-781316" lat="70.5771655957" lon="23.4944044303">
		<tag k="name" v="Gaskagohppi" />
		<tag k="name:se" v="Gaskagohppi" />
		<tag k="place" v="locality" />
		<tag k="ssr:stedsnr" v="975923" />
	</node>
	<node id="-780801" lat="70.6753388928" lon="23.0069860561">
		<tag k="name" v="Oterurda" />
		<tag k="place" v="farm" />
		<tag k="ssr:stedsnr" v="626494" />
	</node>
</osm>
