<?xml version="1.0" encoding="UTF-8"?>
<osm generator="osmapis" version="0.6">
	<node id="-781406" lat="70.7923694445" lon="23.4138999268">
		<tag k="man_made" v="quay" />
		<tag k="name" v="Hamna" />
		<tag k="place" v="locality" />
		<tag k="ssr:stedsnr" v="882227" />
	</node>
	<node id="-781692" lat="70.5757083374" lon="23.5731499149">
		<tag k="amenity" v="ferry_terminal" />
		<tag k="name" v="Kjerringholmen" />
		<tag k="ssr:stedsnr" v="151721" />
	</node>
	<node id="-782170" lat="70.6633750051" lon="23.6865721383">
		<tag k="man_made" v="quay" />
		<tag k="name" v="Jernteppet" />
		<tag k="place" v="locality" />
		<tag k="ssr:stedsnr" v="577209" />
	</node>
	<node id="-781137" lat="70.6242249986" lon="23.66362214">
		<tag k="highway" v="path" />
		<tag k="name" v="Straumvegen" />
		<tag k="ssr:stedsnr" v="274155" />
	</node>
	<node id="-782189" lat="70.6772583346" lon="23.6755110266">
		<tag k="man_made" v="tower" />
		<tag k="name" v="Hammerfest Radio" />
		<tag k="ssr:stedsnr" v="602764" />
		<tag k="tower:type" v="communications" />
	</node>
	<node id="-781224" lat="70.6803583375" lon="23.6768804767">
		<tag k="aeroway" v="aerodrome" />
		<tag k="alt_name" v="Hammerfest" />
		<tag k="name" v="Hammerfest lufthavn" />
		<tag k="ssr:stedsnr" v="330886" />
	</node>
	<node id="-782563" lat="70.6645305595" lon="23.6788193567">
		<tag k="man_made" v="quay" />
		<tag k="name" v="Batteriet" />
		<tag k="place" v="locality" />
		<tag k="ssr:stedsnr" v="821365" />
	</node>
</osm>
