<?xml version="1.0" encoding="UTF-8"?>
<osm generator="osmapis" version="0.6">
	<node id="-780156" lat="70.6030694465" lon="23.685805465">
		<tag k="name" v="Stormyra" />
		<tag k="natural" v="wetland" />
		<tag k="ssr:stedsnr" v="92134" />
	</node>
	<node id="-780403" lat="70.8158861161" lon="23.3759166078">
		<tag k="name" v="Stormyra" />
		<tag k="natural" v="wetland" />
		<tag k="ssr:stedsnr" v="262078" />
	</node>
	<node id="-781297" lat="70.4469305543" lon="22.8708054887">
		<tag k="name" v="Storura" />
		<tag k="natural" v="scree" />
		<tag k="ssr:stedsnr" v="944828" />
	</node>
	<node id="-781038" lat="70.7685000023" lon="23.2982749304">
		<tag k="name" v="Indre Bastafjord" />
		<tag k="place" v="locality" />
		<tag k="ssr:stedsnr" v="760344" />
	</node>
	<node id="-781293" lat="70.7953444452" lon="23.1998415956">
		<tag k="name" v="Skipsvik" />
		<tag k="place" v="locality" />
		<tag k="ssr:stedsnr" v="943729" />
	</node>
	<node id="-781027" lat="70.6017027771" lon="23.6571915708">
		<tag k="name" v="Stabban" />
		<tag k="natural" v="stone" />
		<tag k="ssr:stedsnr" v="759177" />
	</node>
	<node id="-781280" lat="70.6643916715" lon="23.7144165791">
		<tag k="name" v="Kallandskogen" />
		<tag k="place" v="locality" />
		<tag k="ssr:stedsnr" v="941191" />
	</node>
	<node id="-780376" lat="70.7111305575" lon="23.8062082446">
		<tag k="name" v="Láidderohtu" />
		<tag k="name:se" v="Láidderohtu" />
		<tag k="place" v="locality" />
		<tag k="ssr:stedsnr" v="213216" />
	</node>
	<node id="-780629" lat="70.7259500012" lon="23.0620777115">
		<tag k="name" v="Veststraumelva" />
		<tag k="place" v="locality" />
		<tag k="ssr:stedsnr" v="517195" />
	</node>
	<node id="-780620" lat="70.6898833371" lon="23.6045388071">
		<tag k="alt_name" v="Øvre Storsteinen" />
		<tag k="name" v="Øvre Storstein" />
		<tag k="natural" v="stone" />
		<tag k="ssr:stedsnr" v="516106" />
	</node>
	<node id="-779720" lat="70.783777778" lon="23.1970416084">
		<tag k="name" v="Finnfjord" />
		<tag k="place" v="locality" />
		<tag k="ssr:stedsnr" v="276599" />
	</node>
	<node id="-781123" lat="70.783777778" lon="23.1970416084">
		<tag k="name" v="Finnfjord" />
		<tag k="place" v="locality" />
		<tag k="ssr:stedsnr" v="821354" />
	</node>
	<node id="-781121" lat="70.5818138942" lon="23.6928776742">
		<tag k="name" v="Madamskogen" />
		<tag k="place" v="locality" />
		<tag k="ssr:stedsnr" v="820242" />
	</node>
	<node id="-781115" lat="70.6895694467" lon="23.6060554664">
		<tag k="alt_name" v="Indrermyra" />
		<tag k="name" v="Innermyra" />
		<tag k="natural" v="wetland" />
		<tag k="ssr:stedsnr" v="819104" />
	</node>
	<node id="-780468" lat="70.4540194499" lon="23.0839721643">
		<tag k="name" v="Nordmannsjøkelen - Dáččavuonjiehkki" />
		<tag k="name:no" v="Nordmannsjøkelen" />
		<tag k="name:se" v="Dáččavuonjiehkki" />
		<tag k="natural" v="glacier" />
		<tag k="old_name:se" v="Dažžavuonjiekki" />
		<tag k="ssr:stedsnr" v="444052" />
	</node>
	<node id="-780340" lat="70.7963277762" lon="23.4444193745">
		<tag k="name" v="Myrane" />
		<tag k="natural" v="wetland" />
		<tag k="ssr:stedsnr" v="202153" />
	</node>
	<node id="-780719" lat="70.6893916711" lon="23.5936054689">
		<tag k="name" v="Stormyra" />
		<tag k="natural" v="wetland" />
		<tag k="ssr:stedsnr" v="576103" />
	</node>
	<node id="-780835" lat="70.703941673" lon="23.7879943428">
		<tag k="name" v="Perheimen" />
		<tag k="place" v="locality" />
		<tag k="ssr:stedsnr" v="637215" />
	</node>
	<node id="-780828" lat="70.6869972213" lon="23.6043749104">
		<tag k="alt_name" v="Storsteinen" />
		<tag k="name" v="Storstein" />
		<tag k="natural" v="stone" />
		<tag k="ssr:stedsnr" v="637112" />
	</node>
	<node id="-780056" lat="70.6613916717" lon="23.7225137939">
		<tag k="name" v="Nissenstykket" />
		<tag k="place" v="locality" />
		<tag k="ssr:stedsnr" v="31201" />
	</node>
	<node id="-780049" lat="70.6533805597" lon="23.7532971385">
		<tag k="name" v="Glimmevassmyra" />
		<tag k="natural" v="wetland" />
		<tag k="ssr:stedsnr" v="30156" />
	</node>
	<node id="-780048" lat="70.6523083392" lon="23.6744860198">
		<tag k="name" v="Jansvasskogen" />
		<tag k="place" v="locality" />
		<tag k="ssr:stedsnr" v="30154" />
	</node>
</osm>
