<?xml version="1.0" encoding="UTF-8"?>
<osm version="0.6" generator="osmapis">
	<node lat="70.03981944682924" lon="20.974722191471624" id="-41970">
		<tag k="fixme" v="consider natural=peak for the most distinct mountains in the district" />
		<tag k="name" v="Gråtafjellet" />
		<tag k="natural" v="hill" />
		<tag k="place" v="locality" />
		<tag k="ssr:stedsnr" v="230146" />
	</node>
	<node lat="70.02626944938204" lon="20.96946663750125" id="-41973">
		<tag k="name" v="Soltjyven" />
		<tag k="natural" v="hill" />
		<tag k="place" v="locality" />
		<tag k="ssr:stedsnr" v="230168" />
	</node>
	<node lat="70.03621666890697" lon="20.981077746577995" id="-41974">
		<tag k="name" v="Skjervøyberget" />
		<tag k="natural" v="hill" />
		<tag k="place" v="locality" />
		<tag k="ssr:stedsnr" v="230173" />
	</node>
	<node lat="70.06141388786101" lon="20.994430530113924" id="-41976">
		<tag k="name" v="Lykthaugen" />
		<tag k="natural" v="hill" />
		<tag k="place" v="locality" />
		<tag k="ssr:stedsnr" v="230192" />
	</node>
	<node lat="70.06049999649343" lon="20.996530541558503" id="-41977">
		<tag k="name" v="Flatbergan" />
		<tag k="natural" v="hill" />
		<tag k="place" v="locality" />
		<tag k="ssr:stedsnr" v="230195" />
	</node>
	<node lat="70.1219250004838" lon="20.88613331564084" id="-41979">
		<tag k="name" v="Lia" />
		<tag k="natural" v="slope" />
		<tag k="place" v="locality" />
		<tag k="ssr:stedsnr" v="230199" />
	</node>
	<node lat="69.98285833712677" lon="20.957333319508574" id="-41980">
		<tag k="name" v="Sletten" />
		<tag k="place" v="locality" />
		<tag k="ssr:stedsnr" v="230250" />
	</node>
	<node lat="69.87237222161279" lon="20.63701941544973" id="-41981">
		<tag k="name" v="Svarttindaksla" />
		<tag k="place" v="locality" />
		<tag k="ssr:stedsnr" v="230328" />
	</node>
	<node lat="69.99517778158052" lon="21.04672498171671" id="-41984">
		<tag k="name" v="Skaret" />
		<tag k="natural" v="valley" />
		<tag k="place" v="locality" />
		<tag k="ssr:stedsnr" v="230348" />
	</node>
	<node lat="69.91695832915781" lon="20.6890638788791" id="-41985">
		<tag k="name" v="Langbakken" />
		<tag k="natural" v="slope" />
		<tag k="place" v="locality" />
		<tag k="ssr:stedsnr" v="230356" />
	</node>
	<node lat="69.99631111103068" lon="21.021111083004843" id="-41986">
		<tag k="name" v="Strupen" />
		<tag k="natural" v="valley" />
		<tag k="place" v="locality" />
		<tag k="ssr:stedsnr" v="230360" />
	</node>
	<node lat="69.90548610755545" lon="20.703030541481507" id="-41988">
		<tag k="name" v="Tyttebærhaugen" />
		<tag k="natural" v="hill" />
		<tag k="place" v="locality" />
		<tag k="ssr:stedsnr" v="230558" />
	</node>
	<node lat="69.98674444604946" lon="20.984630521617355" id="-41989">
		<tag k="fixme" v="consider natural=peak for the most distinct mountains in the district" />
		<tag k="name" v="Bruna" />
		<tag k="natural" v="hill" />
		<tag k="place" v="locality" />
		<tag k="ssr:stedsnr" v="230659" />
	</node>
	<node lat="70.07018333392494" lon="20.63743332404744" id="-41990">
		<tag k="name" v="Sletta" />
		<tag k="place" v="locality" />
		<tag k="ssr:stedsnr" v="230740" />
	</node>
	<node lat="70.04965833108889" lon="20.442252759071156" id="-41993">
		<tag k="name" v="Nakkheia" />
		<tag k="natural" v="slope" />
		<tag k="place" v="locality" />
		<tag k="ssr:stedsnr" v="230871" />
	</node>
	<node lat="70.05296388865176" lon="20.436149986309353" id="-41994">
		<tag k="name" v="Aksla" />
		<tag k="place" v="locality" />
		<tag k="ssr:stedsnr" v="230872" />
	</node>
	<node lat="69.92469444917478" lon="20.855491641968296" id="-41995">
		<tag k="name" v="Sørnesberget" />
		<tag k="natural" v="hill" />
		<tag k="place" v="locality" />
		<tag k="ssr:stedsnr" v="230878" />
	</node>
	<node lat="70.0552833357611" lon="20.798344422651635" id="-41999">
		<tag k="name" v="Hamnebergan" />
		<tag k="natural" v="hill" />
		<tag k="place" v="locality" />
		<tag k="ssr:stedsnr" v="231026" />
	</node>
	<node lat="70.04964444258403" lon="20.7484277642258" id="-42000">
		<tag k="name" v="Tyttebærryggen" />
		<tag k="natural" v="ridge" />
		<tag k="place" v="locality" />
		<tag k="ssr:stedsnr" v="231125" />
	</node>
	<node lat="70.21263611250725" lon="20.796674975828854" id="-42001">
		<tag k="name" v="Storskorra" />
		<tag k="natural" v="valley" />
		<tag k="place" v="locality" />
		<tag k="ssr:stedsnr" v="231154" />
	</node>
	<node lat="70.1503166638516" lon="20.774461094920486" id="-42006">
		<tag k="name" v="Tempen" />
		<tag k="natural" v="hill" />
		<tag k="place" v="locality" />
		<tag k="ssr:stedsnr" v="231166" />
	</node>
	<node lat="70.15109444323474" lon="20.758777764280023" id="-42008">
		<tag k="name" v="Hesteøran" />
		<tag k="natural" v="hill" />
		<tag k="place" v="locality" />
		<tag k="ssr:stedsnr" v="231172" />
	</node>
	<node lat="69.95649444679101" lon="20.959713877786324" id="-42009">
		<tag k="name" v="Sjurberget" />
		<tag k="natural" v="hill" />
		<tag k="place" v="locality" />
		<tag k="ssr:stedsnr" v="231176" />
	</node>
	<node lat="70.03806944761367" lon="21.242511081261252" id="-42012">
		<tag k="alt_name" v="Rundhompen" />
		<tag k="name" v="Rundhumpen" />
		<tag k="natural" v="hill" />
		<tag k="place" v="locality" />
		<tag k="ssr:stedsnr" v="231260" />
	</node>
	<node lat="70.04500833127163" lon="20.609202760083235" id="-42017">
		<tag k="name" v="Lille-Ørnhammaran" />
		<tag k="natural" v="hill" />
		<tag k="place" v="locality" />
		<tag k="ssr:stedsnr" v="231716" />
	</node>
	<node lat="70.0335388898545" lon="20.573572209665844" id="-42018">
		<tag k="name" v="Kvitsteinbergan" />
		<tag k="natural" v="hill" />
		<tag k="place" v="locality" />
		<tag k="ssr:stedsnr" v="231850" />
	</node>
	<node lat="70.04616111521926" lon="20.6955638641563" id="-42020">
		<tag k="name" v="Småbergan" />
		<tag k="natural" v="hill" />
		<tag k="place" v="locality" />
		<tag k="ssr:stedsnr" v="231868" />
	</node>
	<node lat="70.04665000130109" lon="20.668116656351305" id="-42021">
		<tag k="name" v="Gambergan" />
		<tag k="natural" v="hill" />
		<tag k="place" v="locality" />
		<tag k="ssr:stedsnr" v="231870" />
	</node>
	<node lat="70.12686944389485" lon="20.69917498427139" id="-42024">
		<tag k="name" v="Fossbakken" />
		<tag k="natural" v="slope" />
		<tag k="place" v="locality" />
		<tag k="ssr:stedsnr" v="19046" />
	</node>
	<node lat="70.13230000020518" lon="20.61549997508488" id="-42025">
		<tag k="name" v="Skardalen" />
		<tag k="natural" v="valley" />
		<tag k="place" v="locality" />
		<tag k="ssr:stedsnr" v="19049" />
	</node>
	<node lat="70.20148889069387" lon="20.80735276429578" id="-42027">
		<tag k="name" v="Faulberget" />
		<tag k="natural" v="hill" />
		<tag k="place" v="locality" />
		<tag k="ssr:stedsnr" v="19094" />
	</node>
	<node lat="69.96322777749315" lon="20.96116387010479" id="-42042">
		<tag k="name" v="Torvhatten" />
		<tag k="natural" v="hill" />
		<tag k="place" v="locality" />
		<tag k="ssr:stedsnr" v="45874" />
	</node>
	<node lat="69.86838055886757" lon="20.641333325417502" id="-42044">
		<tag k="name" v="Veddalen" />
		<tag k="natural" v="valley" />
		<tag k="place" v="locality" />
		<tag k="ssr:stedsnr" v="48313" />
	</node>
	<node lat="69.9453666658953" lon="20.650519434182392" id="-42046">
		<tag k="fixme" v="consider natural=peak for the most distinct mountains in the district" />
		<tag k="name" v="Trollvasshøgda" />
		<tag k="natural" v="hill" />
		<tag k="place" v="locality" />
		<tag k="ssr:stedsnr" v="48513" />
	</node>
	<node lat="70.07955555469468" lon="20.74688053156756" id="-42048">
		<tag k="name" v="Middagstinden" />
		<tag k="natural" v="hill" />
		<tag k="place" v="locality" />
		<tag k="ssr:stedsnr" v="49005" />
	</node>
	<node lat="70.07838888766057" lon="20.8190805448797" id="-42050">
		<tag k="name" v="Elvenesdalen" />
		<tag k="natural" v="valley" />
		<tag k="place" v="locality" />
		<tag k="ssr:stedsnr" v="49074" />
	</node>
	<node lat="70.03550277966578" lon="20.566316661014042" id="-42059">
		<tag k="name" v="Gåshammaren" />
		<tag k="natural" v="hill" />
		<tag k="place" v="locality" />
		<tag k="ssr:stedsnr" v="49825" />
	</node>
	<node lat="70.06995833178551" lon="20.5219083132686" id="-42085">
		<tag k="name" v="Bukkelian" />
		<tag k="natural" v="slope" />
		<tag k="place" v="locality" />
		<tag k="ssr:stedsnr" v="109115" />
	</node>
	<node lat="70.0391749972078" lon="20.994880539271268" id="-42086">
		<tag k="fixme" v="consider natural=peak for the most distinct mountains in the district" />
		<tag k="name" v="Fiskenesfjellet" />
		<tag k="natural" v="hill" />
		<tag k="place" v="locality" />
		<tag k="ssr:stedsnr" v="109137" />
	</node>
	<node lat="70.0585277819492" lon="20.992722188957956" id="-42091">
		<tag k="name" v="Smihaugen" />
		<tag k="natural" v="hill" />
		<tag k="place" v="locality" />
		<tag k="ssr:stedsnr" v="109187" />
	</node>
	<node lat="69.9409777767969" lon="20.647561098462734" id="-42093">
		<tag k="name" v="Lilleelvedalen" />
		<tag k="natural" v="valley" />
		<tag k="place" v="locality" />
		<tag k="ssr:stedsnr" v="109511" />
	</node>
	<node lat="70.19867500250056" lon="20.685194416475706" id="-42098">
		<tag k="name" v="Haugan" />
		<tag k="natural" v="hill" />
		<tag k="place" v="locality" />
		<tag k="ssr:stedsnr" v="109919" />
	</node>
	<node lat="69.97292499973692" lon="20.970436099337075" id="-42099">
		<tag k="name" v="Bjørndalen" />
		<tag k="natural" v="valley" />
		<tag k="place" v="locality" />
		<tag k="ssr:stedsnr" v="109808" />
	</node>
	<node lat="70.05414722266539" lon="20.430338869164025" id="-42100">
		<tag k="name" v="Brudesløret" />
		<tag k="natural" v="cliff" />
		<tag k="ssr:stedsnr" v="109873" />
	</node>
	<node lat="70.03754999814188" lon="20.539449971504546" id="-42102">
		<tag k="name" v="Hollberget" />
		<tag k="natural" v="hill" />
		<tag k="place" v="locality" />
		<tag k="ssr:stedsnr" v="109875" />
	</node>
	<node lat="70.0739694477278" lon="20.387413864997008" id="-42103">
		<tag k="name" v="Øverloftet" />
		<tag k="natural" v="slope" />
		<tag k="place" v="locality" />
		<tag k="ssr:stedsnr" v="109876" />
	</node>
	<node lat="70.09072499874306" lon="20.464830525690825" id="-42105">
		<tag k="name" v="Gamhaugan" />
		<tag k="natural" v="hill" />
		<tag k="place" v="locality" />
		<tag k="ssr:stedsnr" v="110006" />
	</node>
	<node lat="70.010008335849" lon="20.954133314512344" id="-42107">
		<tag k="name" v="Doaŋgeroggi" />
		<tag k="name:se" v="Doaŋgeroggi" />
		<tag k="natural" v="valley" />
		<tag k="place" v="locality" />
		<tag k="ssr:stedsnr" v="110311" />
	</node>
	<node lat="70.19566667183788" lon="20.53460275470712" id="-42108">
		<tag k="name" v="Beritlia" />
		<tag k="natural" v="slope" />
		<tag k="place" v="locality" />
		<tag k="ssr:stedsnr" v="110315" />
	</node>
	<node lat="70.19030833473826" lon="20.492261101878892" id="-42109">
		<tag k="name" v="Storbolgerhaugen" />
		<tag k="natural" v="hill" />
		<tag k="place" v="locality" />
		<tag k="ssr:stedsnr" v="110320" />
	</node>
	<node lat="69.94780277450323" lon="20.94726385993022" id="-42111">
		<tag k="name" v="Permarjaplassen" />
		<tag k="natural" v="slope" />
		<tag k="place" v="locality" />
		<tag k="ssr:stedsnr" v="110325" />
	</node>
	<node lat="69.94760555254719" lon="20.666499988724887" id="-42115">
		<tag k="name" v="Bøtthaugbakken" />
		<tag k="natural" v="slope" />
		<tag k="place" v="locality" />
		<tag k="ssr:stedsnr" v="110596" />
	</node>
	<node lat="70.03714444861232" lon="20.589719421972937" id="-42116">
		<tag k="name" v="Kråkebergan" />
		<tag k="natural" v="hill" />
		<tag k="place" v="locality" />
		<tag k="ssr:stedsnr" v="110689" />
	</node>
	<node lat="70.05558055776454" lon="20.56718331251435" id="-42117">
		<tag k="fixme" v="consider natural=peak for the most distinct mountains in the district" />
		<tag k="name" v="Lillefjellet" />
		<tag k="natural" v="hill" />
		<tag k="place" v="locality" />
		<tag k="ssr:stedsnr" v="110697" />
	</node>
	<node lat="70.06186111000912" lon="20.462763874974602" id="-42122">
		<tag k="name" v="Bjørnbåsen" />
		<tag k="natural" v="valley" />
		<tag k="place" v="locality" />
		<tag k="ssr:stedsnr" v="140185" />
	</node>
	<node lat="70.09288611662815" lon="20.827480529560475" id="-42123">
		<tag k="fixme" v="consider natural=peak for the most distinct mountains in the district" />
		<tag k="name" v="Langnestinden" />
		<tag k="natural" v="hill" />
		<tag k="place" v="locality" />
		<tag k="ssr:stedsnr" v="140197" />
	</node>
	<node lat="70.10199444543522" lon="20.924099983623098" id="-42139">
		<tag k="name" v="Novefloget" />
		<tag k="natural" v="hill" />
		<tag k="place" v="locality" />
		<tag k="ssr:stedsnr" v="170212" />
	</node>
	<node lat="70.05283889162585" lon="21.241972208656705" id="-42141">
		<tag k="name" v="Bukkelia" />
		<tag k="natural" v="slope" />
		<tag k="place" v="locality" />
		<tag k="ssr:stedsnr" v="170255" />
	</node>
	<node lat="70.02554444662725" lon="20.967686098632285" id="-42143">
		<tag k="fixme" v="consider natural=peak for the most distinct mountains in the district" />
		<tag k="name" v="Anna Malenafjellet" />
		<tag k="natural" v="hill" />
		<tag k="place" v="locality" />
		<tag k="ssr:stedsnr" v="170165" />
	</node>
	<node lat="70.03573581384568" lon="20.986108664319932" id="-42144">
		<tag k="name" v="Strømmeberget" />
		<tag k="natural" v="hill" />
		<tag k="place" v="locality" />
		<tag k="ssr:stedsnr" v="170168" />
	</node>
	<node lat="69.99506666950897" lon="21.002958314166584" id="-42147">
		<tag k="fixme" v="consider natural=peak for the most distinct mountains in the district" />
		<tag k="name" v="Vestbergan" />
		<tag k="natural" v="hill" />
		<tag k="place" v="locality" />
		<tag k="ssr:stedsnr" v="170366" />
	</node>
	<node lat="69.97142499861589" lon="20.62763608091857" id="-42150">
		<tag k="name" v="Storskorra" />
		<tag k="natural" v="valley" />
		<tag k="place" v="locality" />
		<tag k="ssr:stedsnr" v="170605" />
	</node>
	<node lat="69.88950833360066" lon="20.63646386792712" id="-42151">
		<tag k="name" v="Flogan" />
		<tag k="place" v="locality" />
		<tag k="ssr:stedsnr" v="170606" />
	</node>
	<node lat="70.03682221900924" lon="20.578674987021945" id="-42152">
		<tag k="name" v="Bromlia" />
		<tag k="natural" v="slope" />
		<tag k="place" v="locality" />
		<tag k="ssr:stedsnr" v="170662" />
	</node>
	<node lat="69.98055000541915" lon="20.992411078754518" id="-42153">
		<tag k="name" v="Bergan" />
		<tag k="natural" v="hill" />
		<tag k="place" v="locality" />
		<tag k="ssr:stedsnr" v="170868" />
	</node>
	<node lat="70.04543333373607" lon="20.68312775198363" id="-42154">
		<tag k="name" v="Loftbergan" />
		<tag k="natural" v="hill" />
		<tag k="place" v="locality" />
		<tag k="ssr:stedsnr" v="170872" />
	</node>
	<node lat="69.92720833638982" lon="20.846858305011875" id="-42155">
		<tag k="name" v="Torvehaugen" />
		<tag k="natural" v="hill" />
		<tag k="place" v="locality" />
		<tag k="ssr:stedsnr" v="170903" />
	</node>
	<node lat="70.00604166288264" lon="20.883858319570113" id="-42158">
		<tag k="name" v="Brenthaugan" />
		<tag k="natural" v="hill" />
		<tag k="place" v="locality" />
		<tag k="ssr:stedsnr" v="171310" />
	</node>
	<node lat="70.05301793362425" lon="21.003515295161325" id="-42168">
		<tag k="name" v="Prestberget" />
		<tag k="natural" v="hill" />
		<tag k="place" v="locality" />
		<tag k="ssr:stedsnr" v="262229" />
	</node>
	<node lat="69.98369166429718" lon="20.631230541532886" id="-42170">
		<tag k="name" v="Eneshaugen" />
		<tag k="natural" v="hill" />
		<tag k="place" v="locality" />
		<tag k="ssr:stedsnr" v="262614" />
	</node>
	<node lat="70.13198611433035" lon="20.557336089739028" id="-42179">
		<tag k="alt_name" v="Kattdalen" />
		<tag k="name" v="Kappdalen" />
		<tag k="natural" v="valley" />
		<tag k="place" v="locality" />
		<tag k="ssr:stedsnr" v="201049" />
	</node>
	<node lat="70.03470555488828" lon="20.578011090813725" id="-42180">
		<tag k="name" v="Bergan" />
		<tag k="natural" v="hill" />
		<tag k="place" v="locality" />
		<tag k="ssr:stedsnr" v="201202" />
	</node>
	<node lat="70.05691944757848" lon="20.49318053256485" id="-42190">
		<tag k="name" v="Sandbakken" />
		<tag k="natural" v="slope" />
		<tag k="place" v="locality" />
		<tag k="ssr:stedsnr" v="267966" />
	</node>
	<node lat="69.94021666715659" lon="20.63958054630494" id="-42197">
		<tag k="name" v="Gulbrandberget" />
		<tag k="natural" v="hill" />
		<tag k="place" v="locality" />
		<tag k="ssr:stedsnr" v="230529" />
	</node>
	<node lat="70.04803055899838" lon="20.455819434199192" id="-42198">
		<tag k="name" v="Storfloget" />
		<tag k="natural" v="hill" />
		<tag k="place" v="locality" />
		<tag k="ssr:stedsnr" v="230879" />
	</node>
	<node lat="69.93083055496848" lon="20.88009720657906" id="-42200">
		<tag k="name" v="Sletta" />
		<tag k="place" v="locality" />
		<tag k="ssr:stedsnr" v="230903" />
	</node>
	<node lat="70.04870555644322" lon="20.483822198433067" id="-42201">
		<tag k="name" v="Nessebakken" />
		<tag k="natural" v="slope" />
		<tag k="place" v="locality" />
		<tag k="ssr:stedsnr" v="230904" />
	</node>
	<node lat="70.11110000010864" lon="20.733380536914314" id="-42202">
		<tag k="name" v="Breitindbakkan" />
		<tag k="natural" v="slope" />
		<tag k="place" v="locality" />
		<tag k="ssr:stedsnr" v="231205" />
	</node>
	<node lat="70.04208610685873" lon="20.62288054244877" id="-42208">
		<tag k="name" v="Reinbakken" />
		<tag k="natural" v="slope" />
		<tag k="place" v="locality" />
		<tag k="ssr:stedsnr" v="231703" />
	</node>
	<node lat="70.04651389404364" lon="20.54875553226637" id="-42209">
		<tag k="name" v="Toftelia" />
		<tag k="natural" v="slope" />
		<tag k="place" v="locality" />
		<tag k="ssr:stedsnr" v="231734" />
	</node>
	<node lat="69.92691667136985" lon="20.813469417875304" id="-42210">
		<tag k="name" v="Noveslettan" />
		<tag k="place" v="locality" />
		<tag k="ssr:stedsnr" v="231884" />
	</node>
	<node lat="70.17647777559296" lon="20.53144164834049" id="-42224">
		<tag k="name" v="Årvikdalen" />
		<tag k="natural" v="valley" />
		<tag k="place" v="locality" />
		<tag k="ssr:stedsnr" v="262011" />
	</node>
	<node lat="70.19048055549173" lon="20.651055533384337" id="-42225">
		<tag k="alt_name" v="Fjellfinnhola, nedre" />
		<tag k="name" v="Nedre Fjellfinnholla" />
		<tag k="natural" v="valley" />
		<tag k="place" v="locality" />
		<tag k="ssr:stedsnr" v="262015" />
	</node>
	<node lat="70.19269166848937" lon="20.802002747147867" id="-42226">
		<tag k="name" v="Veggen" />
		<tag k="natural" v="slope" />
		<tag k="place" v="locality" />
		<tag k="ssr:stedsnr" v="262020" />
	</node>
	<node lat="70.1601805589292" lon="20.760522208533033" id="-42228">
		<tag k="fixme" v="consider natural=peak for the most distinct mountains in the district" />
		<tag k="name" v="Tarenesfjellet" />
		<tag k="natural" v="hill" />
		<tag k="place" v="locality" />
		<tag k="ssr:stedsnr" v="262001" />
	</node>
	<node lat="70.12370833319078" lon="20.404972210127404" id="-42230">
		<tag k="fixme" v="consider natural=peak for the most distinct mountains in the district" />
		<tag k="name" v="Holbergtinden" />
		<tag k="natural" v="hill" />
		<tag k="place" v="locality" />
		<tag k="ssr:stedsnr" v="262897" />
	</node>
	<node lat="70.05063610808098" lon="20.766561102296176" id="-42235">
		<tag k="name" v="Njerran" />
		<tag k="natural" v="slope" />
		<tag k="place" v="locality" />
		<tag k="ssr:stedsnr" v="267981" />
	</node>
	<node lat="70.05138611357391" lon="20.965649991510702" id="-42240">
		<tag k="name" v="Skarvberget" />
		<tag k="natural" v="hill" />
		<tag k="place" v="locality" />
		<tag k="ssr:stedsnr" v="272795" />
	</node>
	<node lat="70.00362777681984" lon="20.744736085180005" id="-42242">
		<tag k="name" v="Naskardalen" />
		<tag k="natural" v="valley" />
		<tag k="place" v="locality" />
		<tag k="ssr:stedsnr" v="291112" />
	</node>
	<node lat="70.14931666318228" lon="20.531608314544723" id="-42247">
		<tag k="name" v="Høgtindfloget" />
		<tag k="natural" v="hill" />
		<tag k="place" v="locality" />
		<tag k="ssr:stedsnr" v="291291" />
	</node>
	<node lat="70.16362777516217" lon="20.50794165511323" id="-42248">
		<tag k="name" v="Storhaugen" />
		<tag k="natural" v="hill" />
		<tag k="place" v="locality" />
		<tag k="ssr:stedsnr" v="291292" />
	</node>
	<node lat="69.98179444103012" lon="20.996283321024162" id="-42254">
		<tag k="name" v="Sjåbergan" />
		<tag k="natural" v="hill" />
		<tag k="place" v="locality" />
		<tag k="ssr:stedsnr" v="291847" />
	</node>
	<node lat="69.96797778000133" lon="20.661099981209848" id="-42255">
		<tag k="name" v="Lilleflagda" />
		<tag k="natural" v="hill" />
		<tag k="place" v="locality" />
		<tag k="ssr:stedsnr" v="291581" />
	</node>
	<node lat="69.99773888831376" lon="21.053174972823534" id="-42257">
		<tag k="name" v="Skjærnesbakken" />
		<tag k="natural" v="slope" />
		<tag k="place" v="locality" />
		<tag k="ssr:stedsnr" v="292189" />
	</node>
	<node lat="70.01871389185219" lon="21.077091648738595" id="-42259">
		<tag k="name" v="Røytlia" />
		<tag k="natural" v="slope" />
		<tag k="place" v="locality" />
		<tag k="ssr:stedsnr" v="292192" />
	</node>
	<node lat="70.0215583312869" lon="20.94039442567115" id="-42264">
		<tag k="fixme" v="consider natural=peak for the most distinct mountains in the district" />
		<tag k="loc_name:se" v="Goaskimčohkka" />
		<tag k="name" v="Skattørfjellet" />
		<tag k="name:no" v="Skattørfjellet" />
		<tag k="natural" v="hill" />
		<tag k="place" v="locality" />
		<tag k="ssr:stedsnr" v="322133" />
	</node>
	<node lat="69.97918333624004" lon="20.962822208892135" id="-42273">
		<tag k="fixme" v="consider natural=peak for the most distinct mountains in the district" />
		<tag k="name" v="Taskebyfjellet" />
		<tag k="natural" v="hill" />
		<tag k="place" v="locality" />
		<tag k="ssr:stedsnr" v="322632" />
	</node>
	<node lat="69.99171944709161" lon="21.034280522505885" id="-42274">
		<tag k="fixme" v="consider natural=peak for the most distinct mountains in the district" />
		<tag k="name" v="Stortua" />
		<tag k="natural" v="hill" />
		<tag k="place" v="locality" />
		<tag k="ssr:stedsnr" v="322903" />
	</node>
	<node lat="70.16015277601012" lon="20.719119428906666" id="-42275">
		<tag k="fixme" v="consider natural=peak for the most distinct mountains in the district" />
		<tag k="name" v="Rødhetta" />
		<tag k="natural" v="hill" />
		<tag k="place" v="locality" />
		<tag k="ssr:stedsnr" v="323027" />
	</node>
	<node lat="70.06569166962369" lon="20.794697194041696" id="-42281">
		<tag k="name" v="Sommarfjøssletta" />
		<tag k="place" v="locality" />
		<tag k="ssr:stedsnr" v="473049" />
	</node>
	<node lat="70.06848610870907" lon="20.381133311262623" id="-42282">
		<tag k="name" v="Storskorra" />
		<tag k="natural" v="valley" />
		<tag k="place" v="locality" />
		<tag k="ssr:stedsnr" v="473908" />
	</node>
	<node lat="70.04801944837209" lon="20.46968609511427" id="-42283">
		<tag k="name" v="Nufset" />
		<tag k="natural" v="slope" />
		<tag k="place" v="locality" />
		<tag k="ssr:stedsnr" v="473909" />
	</node>
	<node lat="70.14035000520136" lon="20.859711082024077" id="-42286">
		<tag k="name" v="Omnebergan" />
		<tag k="natural" v="hill" />
		<tag k="place" v="locality" />
		<tag k="ssr:stedsnr" v="473231" />
	</node>
	<node lat="70.1889333316226" lon="20.494277768743075" id="-42292">
		<tag k="name" v="Lillebolgerhaugen" />
		<tag k="natural" v="hill" />
		<tag k="place" v="locality" />
		<tag k="ssr:stedsnr" v="473334" />
	</node>
	<node lat="69.86629444113572" lon="20.569338871031885" id="-42293">
		<tag k="name" v="Kvænnesdalen" />
		<tag k="natural" v="valley" />
		<tag k="place" v="locality" />
		<tag k="ssr:stedsnr" v="473337" />
	</node>
	<node lat="70.00083055688103" lon="21.033952743846918" id="-42298">
		<tag k="name" v="Notberget" />
		<tag k="natural" v="hill" />
		<tag k="place" v="locality" />
		<tag k="ssr:stedsnr" v="473405" />
	</node>
	<node lat="69.97215277799222" lon="20.63201943909041" id="-42299">
		<tag k="fixme" v="consider natural=peak for the most distinct mountains in the district" />
		<tag k="name" v="Trondalsfjellet" />
		<tag k="natural" v="hill" />
		<tag k="place" v="locality" />
		<tag k="ssr:stedsnr" v="473522" />
	</node>
	<node lat="69.97008056084314" lon="20.649477753391093" id="-42300">
		<tag k="fixme" v="consider natural=peak for the most distinct mountains in the district" />
		<tag k="name" v="Prestfjellet" />
		<tag k="natural" v="hill" />
		<tag k="place" v="locality" />
		<tag k="ssr:stedsnr" v="473581" />
	</node>
	<node lat="69.96863055826456" lon="20.628913862185" id="-42301">
		<tag k="name" v="Irvien" />
		<tag k="natural" v="slope" />
		<tag k="place" v="locality" />
		<tag k="ssr:stedsnr" v="473583" />
	</node>
	<node lat="69.88679166842624" lon="20.584291652489554" id="-42303">
		<tag k="name" v="Storsevigorra" />
		<tag k="natural" v="valley" />
		<tag k="place" v="locality" />
		<tag k="ssr:stedsnr" v="473597" />
	</node>
	<node lat="70.05004999895445" lon="20.63132498195245" id="-42306">
		<tag k="name" v="Sandbakken" />
		<tag k="natural" v="slope" />
		<tag k="place" v="locality" />
		<tag k="ssr:stedsnr" v="473632" />
	</node>
	<node lat="70.03703888606512" lon="20.607172214117032" id="-42307">
		<tag k="name" v="Holtebergan" />
		<tag k="natural" v="hill" />
		<tag k="place" v="locality" />
		<tag k="ssr:stedsnr" v="473654" />
	</node>
	<node lat="70.04774722407099" lon="20.59562775025613" id="-42308">
		<tag k="name" v="Sør-Kjedalskråa" />
		<tag k="place" v="locality" />
		<tag k="ssr:stedsnr" v="473678" />
	</node>
	<node lat="70.05241111311747" lon="20.628444419456248" id="-42309">
		<tag k="name" v="Singelsletta" />
		<tag k="place" v="locality" />
		<tag k="ssr:stedsnr" v="473680" />
	</node>
	<node lat="70.03787222563753" lon="20.552566648204703" id="-42310">
		<tag k="name" v="Oddedalen" />
		<tag k="natural" v="valley" />
		<tag k="place" v="locality" />
		<tag k="ssr:stedsnr" v="473685" />
	</node>
	<node lat="70.05801666763931" lon="20.57286109214915" id="-42312">
		<tag k="fixme" v="consider natural=peak for the most distinct mountains in the district" />
		<tag k="name" v="Tufjellet" />
		<tag k="natural" v="hill" />
		<tag k="place" v="locality" />
		<tag k="ssr:stedsnr" v="473782" />
	</node>
	<node lat="70.06582777522353" lon="20.565997190161404" id="-42314">
		<tag k="name" v="Stakeromnan" />
		<tag k="natural" v="slope" />
		<tag k="place" v="locality" />
		<tag k="ssr:stedsnr" v="473757" />
	</node>
	<node lat="70.04744999965972" lon="20.97014443248511" id="-42315">
		<tag k="name" v="Bakaromnen" />
		<tag k="natural" v="cliff" />
		<tag k="ssr:stedsnr" v="473822" />
	</node>
	<node lat="70.04835833347344" lon="21.005016652503443" id="-42318">
		<tag k="name" v="Elin Kjerstinahaugen" />
		<tag k="natural" v="hill" />
		<tag k="place" v="locality" />
		<tag k="ssr:stedsnr" v="473842" />
	</node>
	<node lat="70.05579444189976" lon="20.434838869574744" id="-42319">
		<tag k="name" v="Revreika" />
		<tag k="natural" v="valley" />
		<tag k="place" v="locality" />
		<tag k="ssr:stedsnr" v="473893" />
	</node>
	<node lat="70.05174444136969" lon="20.45348886333795" id="-42320">
		<tag k="name" v="Geitvikdalen" />
		<tag k="natural" v="valley" />
		<tag k="place" v="locality" />
		<tag k="ssr:stedsnr" v="473894" />
	</node>
	<node lat="70.07317500081034" lon="20.383438876867277" id="-42322">
		<tag k="name" v="Lilleloftan" />
		<tag k="natural" v="slope" />
		<tag k="place" v="locality" />
		<tag k="ssr:stedsnr" v="473907" />
	</node>
	<node lat="70.17622222285107" lon="20.61189999521278" id="-42324">
		<tag k="name" v="Laksevannsbakkan" />
		<tag k="natural" v="slope" />
		<tag k="place" v="locality" />
		<tag k="ssr:stedsnr" v="473922" />
	</node>
	<node lat="70.22288610775054" lon="20.759791651286122" id="-42325">
		<tag k="name" v="Kokberget" />
		<tag k="natural" v="hill" />
		<tag k="place" v="locality" />
		<tag k="ssr:stedsnr" v="474130" />
	</node>
	<node lat="69.91578610960033" lon="20.690880524483756" id="-42328">
		<tag k="name" v="Småbergan" />
		<tag k="natural" v="hill" />
		<tag k="place" v="locality" />
		<tag k="ssr:stedsnr" v="351355" />
	</node>
	<node lat="70.05134722091574" lon="21.25062220124143" id="-42331">
		<tag k="name" v="Skarberghaugen" />
		<tag k="natural" v="hill" />
		<tag k="place" v="locality" />
		<tag k="ssr:stedsnr" v="474215" />
	</node>
	<node lat="70.01802777489651" lon="21.086947195235062" id="-42332">
		<tag k="name" v="Løklia" />
		<tag k="natural" v="slope" />
		<tag k="place" v="locality" />
		<tag k="ssr:stedsnr" v="474220" />
	</node>
	<node lat="69.96193889103105" lon="20.645638866455627" id="-42334">
		<tag k="name" v="Vitedalen" />
		<tag k="natural" v="valley" />
		<tag k="place" v="locality" />
		<tag k="ssr:stedsnr" v="351556" />
	</node>
	<node lat="69.9928749985592" lon="21.063927749826362" id="-42335">
		<tag k="name" v="Svineryggen" />
		<tag k="natural" v="slope" />
		<tag k="place" v="locality" />
		<tag k="ssr:stedsnr" v="474206" />
	</node>
	<node lat="70.07663055270666" lon="20.464983310366684" id="-42336">
		<tag k="name" v="Urbakken" />
		<tag k="natural" v="slope" />
		<tag k="place" v="locality" />
		<tag k="ssr:stedsnr" v="352019" />
	</node>
	<node lat="70.039461109158" lon="21.279113851904913" id="-42339">
		<tag k="name" v="Terstaberget" />
		<tag k="natural" v="hill" />
		<tag k="place" v="locality" />
		<tag k="ssr:stedsnr" v="474228" />
	</node>
	<node lat="70.04869166692157" lon="20.43776109919647" id="-42344">
		<tag k="name" v="Møllberget" />
		<tag k="natural" v="hill" />
		<tag k="place" v="locality" />
		<tag k="ssr:stedsnr" v="352858" />
	</node>
	<node lat="70.0659999978891" lon="20.69700830016511" id="-42345">
		<tag k="name" v="Oksehaugen" />
		<tag k="natural" v="hill" />
		<tag k="place" v="locality" />
		<tag k="ssr:stedsnr" v="352968" />
	</node>
	<node lat="70.19571944383839" lon="20.808611093810836" id="-42347">
		<tag k="name" v="Rødbergan" />
		<tag k="natural" v="hill" />
		<tag k="place" v="locality" />
		<tag k="ssr:stedsnr" v="353154" />
	</node>
	<node lat="70.0494305568726" lon="20.603497204964754" id="-42354">
		<tag k="name" v="Sør-Kjedalen" />
		<tag k="natural" v="valley" />
		<tag k="place" v="locality" />
		<tag k="ssr:stedsnr" v="383253" />
	</node>
	<node lat="70.11172777651483" lon="20.40869164204042" id="-42358">
		<tag k="fixme" v="consider natural=peak for the most distinct mountains in the district" />
		<tag k="loc_name:se" v="Ruksesolbmágáisá" />
		<tag k="name" v="Rødbergtinden" />
		<tag k="name:no" v="Rødbergtinden" />
		<tag k="natural" v="hill" />
		<tag k="place" v="locality" />
		<tag k="ssr:stedsnr" v="383903" />
	</node>
	<node lat="69.87471944734563" lon="20.67729165097732" id="-42365">
		<tag k="name" v="Skavdalen" />
		<tag k="natural" v="valley" />
		<tag k="place" v="locality" />
		<tag k="ssr:stedsnr" v="412307" />
	</node>
	<node lat="69.87142500048134" lon="20.680261093210625" id="-42366">
		<tag k="name" v="Geitlia" />
		<tag k="natural" v="slope" />
		<tag k="place" v="locality" />
		<tag k="ssr:stedsnr" v="412318" />
	</node>
	<node lat="70.06136388840318" lon="20.775452751488725" id="-42369">
		<tag k="name" v="Singeldalen" />
		<tag k="natural" v="valley" />
		<tag k="place" v="locality" />
		<tag k="ssr:stedsnr" v="413043" />
	</node>
	<node lat="70.05834722327053" lon="20.974936087808825" id="-42372">
		<tag k="name" v="Skaret" />
		<tag k="natural" v="valley" />
		<tag k="place" v="locality" />
		<tag k="ssr:stedsnr" v="413206" />
	</node>
	<node lat="70.17959167183099" lon="20.50829998116125" id="-42375">
		<tag k="name" v="Sengberget" />
		<tag k="natural" v="hill" />
		<tag k="place" v="locality" />
		<tag k="ssr:stedsnr" v="413245" />
	</node>
	<node lat="70.04008889374367" lon="20.98115275570369" id="-42377">
		<tag k="name" v="Russeleiren" />
		<tag k="place" v="locality" />
		<tag k="ssr:stedsnr" v="413146" />
	</node>
	<node lat="70.19132222353755" lon="20.539513874575928" id="-42379">
		<tag k="name" v="Kroklia" />
		<tag k="natural" v="slope" />
		<tag k="place" v="locality" />
		<tag k="ssr:stedsnr" v="413342" />
	</node>
	<node lat="69.95134166827363" lon="20.61670276310714" id="-42381">
		<tag k="name" v="Petrikaberget" />
		<tag k="natural" v="hill" />
		<tag k="place" v="locality" />
		<tag k="ssr:stedsnr" v="413610" />
	</node>
	<node lat="69.98736666833419" lon="20.644002765673672" id="-42382">
		<tag k="name" v="Lauparen" />
		<tag k="natural" v="slope" />
		<tag k="place" v="locality" />
		<tag k="ssr:stedsnr" v="413544" />
	</node>
	<node lat="69.98757777838999" lon="20.646486084967485" id="-42383">
		<tag k="name" v="Gammelstøberget" />
		<tag k="natural" v="hill" />
		<tag k="place" v="locality" />
		<tag k="ssr:stedsnr" v="413547" />
	</node>
	<node lat="70.03635277826108" lon="20.558555532978243" id="-42384">
		<tag k="name" v="Einehaugen" />
		<tag k="natural" v="hill" />
		<tag k="place" v="locality" />
		<tag k="ssr:stedsnr" v="413705" />
	</node>
	<node lat="70.04301389047997" lon="20.61598610704734" id="-42385">
		<tag k="name" v="Lilleberget" />
		<tag k="natural" v="hill" />
		<tag k="place" v="locality" />
		<tag k="ssr:stedsnr" v="413689" />
	</node>
	<node lat="70.05544444675009" lon="20.423788887216922" id="-42390">
		<tag k="name" v="Asbistfloget" />
		<tag k="natural" v="hill" />
		<tag k="place" v="locality" />
		<tag k="ssr:stedsnr" v="413896" />
	</node>
	<node lat="70.06348055388715" lon="20.613688864685557" id="-42391">
		<tag k="fixme" v="consider natural=peak for the most distinct mountains in the district" />
		<tag k="name" v="Svarthammaren" />
		<tag k="natural" v="hill" />
		<tag k="place" v="locality" />
		<tag k="ssr:stedsnr" v="413786" />
	</node>
	<node lat="70.06532222334491" lon="20.649369426371535" id="-42394">
		<tag k="name" v="Gamtofta" />
		<tag k="place" v="locality" />
		<tag k="ssr:stedsnr" v="413973" />
	</node>
	<node lat="69.98528888864251" lon="20.88535553195991" id="-42401">
		<tag k="fixme" v="consider natural=peak for the most distinct mountains in the district" />
		<tag k="name" v="Trolltinden" />
		<tag k="natural" v="hill" />
		<tag k="place" v="locality" />
		<tag k="ssr:stedsnr" v="444586" />
	</node>
	<node lat="69.97083333160523" lon="20.868566638690954" id="-42402">
		<tag k="fixme" v="consider natural=peak for the most distinct mountains in the district" />
		<tag k="name" v="Mølnfjellet" />
		<tag k="natural" v="hill" />
		<tag k="place" v="locality" />
		<tag k="ssr:stedsnr" v="444590" />
	</node>
	<node lat="69.98025555583928" lon="20.80666109001513" id="-42403">
		<tag k="alt_name" v="Reddotinden" />
		<tag k="fixme" v="consider natural=peak for the most distinct mountains in the district" />
		<tag k="name" v="Redotinden" />
		<tag k="natural" v="hill" />
		<tag k="place" v="locality" />
		<tag k="ssr:stedsnr" v="444604" />
	</node>
	<node lat="70.01237222092433" lon="21.082258296510016" id="-42409">
		<tag k="name" v="Teistebergan" />
		<tag k="natural" v="hill" />
		<tag k="place" v="locality" />
		<tag k="ssr:stedsnr" v="473218" />
	</node>
	<node lat="70.17675000275388" lon="20.532361083431265" id="-42412">
		<tag k="name" v="Rødveita" />
		<tag k="natural" v="valley" />
		<tag k="place" v="locality" />
		<tag k="ssr:stedsnr" v="473275" />
	</node>
	<node lat="69.9102833344895" lon="20.7027805374465" id="-42413">
		<tag k="name" v="Kuberget" />
		<tag k="natural" v="hill" />
		<tag k="place" v="locality" />
		<tag k="ssr:stedsnr" v="473419" />
	</node>
	<node lat="70.15951944405501" lon="20.769716638924745" id="-42415">
		<tag k="name" v="Tareneslia" />
		<tag k="natural" v="slope" />
		<tag k="place" v="locality" />
		<tag k="ssr:stedsnr" v="473165" />
	</node>
	<node lat="70.03058888737894" lon="20.95188331541551" id="-42416">
		<tag k="name" v="Høgda" />
		<tag k="natural" v="hill" />
		<tag k="place" v="locality" />
		<tag k="ssr:stedsnr" v="473166" />
	</node>
	<node lat="70.00657499957543" lon="21.044261082330166" id="-42418">
		<tag k="name" v="Rundhaugen" />
		<tag k="natural" v="hill" />
		<tag k="place" v="locality" />
		<tag k="ssr:stedsnr" v="473362" />
	</node>
	<node lat="69.86219444257475" lon="20.683288869896852" id="-42419">
		<tag k="name" v="Bakken" />
		<tag k="natural" v="slope" />
		<tag k="place" v="locality" />
		<tag k="ssr:stedsnr" v="473372" />
	</node>
	<node lat="69.97634444142487" lon="20.66104443040417" id="-42420">
		<tag k="name" v="Langnesberget" />
		<tag k="natural" v="hill" />
		<tag k="place" v="locality" />
		<tag k="ssr:stedsnr" v="473515" />
	</node>
	<node lat="69.97982777820135" lon="20.640180550197293" id="-42421">
		<tag k="name" v="Duorgavággi" />
		<tag k="name:se" v="Duorgavággi" />
		<tag k="natural" v="valley" />
		<tag k="place" v="locality" />
		<tag k="ssr:stedsnr" v="473516" />
	</node>
	<node lat="70.05319722322879" lon="20.606658323055804" id="-42423">
		<tag k="name" v="Kjedalsaksla" />
		<tag k="place" v="locality" />
		<tag k="ssr:stedsnr" v="473675" />
	</node>
	<node lat="70.06613333793007" lon="20.417341641083183" id="-42429">
		<tag k="name" v="Maritelvskorra" />
		<tag k="natural" v="valley" />
		<tag k="place" v="locality" />
		<tag k="ssr:stedsnr" v="473972" />
	</node>
	<node lat="70.03591944443977" lon="20.5542610885541" id="-42432">
		<tag k="name" v="Uraberreoggi" />
		<tag k="name:se" v="Uraberreoggi" />
		<tag k="natural" v="valley" />
		<tag k="place" v="locality" />
		<tag k="ssr:stedsnr" v="474819" />
	</node>
	<node lat="70.03503611170349" lon="20.55947497522509" id="-42434">
		<tag k="name" v="Speielen" />
		<tag k="natural" v="hill" />
		<tag k="place" v="locality" />
		<tag k="ssr:stedsnr" v="474825" />
	</node>
	<node lat="70.08858055319045" lon="20.594636079389495" id="-42436">
		<tag k="fixme" v="consider natural=peak for the most distinct mountains in the district" />
		<tag k="name" v="Småtindan" />
		<tag k="natural" v="hill" />
		<tag k="place" v="locality" />
		<tag k="ssr:stedsnr" v="504170" />
	</node>
	<node lat="69.96923888988492" lon="20.785730543462986" id="-42438">
		<tag k="alt_name" v="Sandnesdalen" />
		<tag k="name" v="Storsandnesdalen" />
		<tag k="natural" v="valley" />
		<tag k="place" v="locality" />
		<tag k="ssr:stedsnr" v="504617" />
	</node>
	<node lat="69.94676667177491" lon="20.819094423650764" id="-42441">
		<tag k="fixme" v="consider natural=peak for the most distinct mountains in the district" />
		<tag k="name" v="Blåtinden" />
		<tag k="natural" v="hill" />
		<tag k="place" v="locality" />
		<tag k="ssr:stedsnr" v="504576" />
	</node>
	<node lat="69.94695555661865" lon="20.651355545656855" id="-42442">
		<tag k="name" v="Trollvassfloget" />
		<tag k="natural" v="hill" />
		<tag k="place" v="locality" />
		<tag k="ssr:stedsnr" v="504577" />
	</node>
	<node lat="70.15136389136036" lon="20.48872776971963" id="-42443">
		<tag k="fixme" v="consider natural=peak for the most distinct mountains in the district" />
		<tag k="name" v="Dalbakken" />
		<tag k="natural" v="hill" />
		<tag k="place" v="locality" />
		<tag k="ssr:stedsnr" v="505004" />
	</node>
	<node lat="70.0852138890937" lon="20.734502755196168" id="-42444">
		<tag k="name" v="Skardalen" />
		<tag k="natural" v="valley" />
		<tag k="place" v="locality" />
		<tag k="ssr:stedsnr" v="505502" />
	</node>
	<node lat="70.15041111101291" lon="20.846183310942397" id="-42452">
		<tag k="name" v="Skarveberget" />
		<tag k="natural" v="hill" />
		<tag k="place" v="locality" />
		<tag k="ssr:stedsnr" v="515312" />
	</node>
	<node lat="70.00023055552617" lon="20.798052750279908" id="-42459">
		<tag k="alt_name:no" v="Kågtinden, store;Kågtinden" />
		<tag k="fixme" v="consider natural=peak for the most distinct mountains in the district" />
		<tag k="loc_name:se" v="Gávvirgáisi" />
		<tag k="name" v="Store Kågtinden" />
		<tag k="name:no" v="Store Kågtinden" />
		<tag k="natural" v="hill" />
		<tag k="place" v="locality" />
		<tag k="ssr:stedsnr" v="686125" />
	</node>
	<node lat="70.03748611092858" lon="20.95627776055004" id="-42460">
		<tag k="fixme" v="consider natural=peak for the most distinct mountains in the district" />
		<tag k="loc_name:se" v="Gaskabruggu" />
		<tag k="name" v="Lailafjellet" />
		<tag k="name:no" v="Lailafjellet" />
		<tag k="natural" v="hill" />
		<tag k="place" v="locality" />
		<tag k="ssr:stedsnr" v="686210" />
	</node>
	<node lat="70.02635555407777" lon="20.811394417332846" id="-42464">
		<tag k="alt_name" v="Breidkågen" />
		<tag k="fixme" v="consider natural=peak for the most distinct mountains in the district" />
		<tag k="name" v="Breikågen" />
		<tag k="natural" v="hill" />
		<tag k="place" v="locality" />
		<tag k="ssr:stedsnr" v="686214" />
	</node>
	<node lat="70.05403889217177" lon="20.975999985067446" id="-42467">
		<tag k="fixme" v="multiple name tags, choose one and add the other to alt_name" />
		<tag k="name" v="Skjervøytrollet;Brusen" />
		<tag k="natural" v="hill" />
		<tag k="place" v="locality" />
		<tag k="ssr:stedsnr" v="686231" />
	</node>
	<node lat="70.05658611106833" lon="20.743405526672227" id="-42468">
		<tag k="fixme" v="consider natural=peak for the most distinct mountains in the district" />
		<tag k="loc_name:se" v="Siŋalčohkka" />
		<tag k="name" v="Singeltinden" />
		<tag k="name:no" v="Singeltinden" />
		<tag k="natural" v="hill" />
		<tag k="place" v="locality" />
		<tag k="ssr:stedsnr" v="686232" />
	</node>
	<node lat="70.05077778183102" lon="21.230594412630968" id="-42469">
		<tag k="name" v="Skarvberget" />
		<tag k="natural" v="hill" />
		<tag k="place" v="locality" />
		<tag k="ssr:stedsnr" v="686300" />
	</node>
	<node lat="70.06877500089571" lon="20.52519442708635" id="-42473">
		<tag k="name" v="Josmohaugen" />
		<tag k="natural" v="hill" />
		<tag k="place" v="locality" />
		<tag k="ssr:stedsnr" v="533107" />
	</node>
	<node lat="70.12904721950795" lon="20.38280555178988" id="-42474">
		<tag k="name" v="Lia" />
		<tag k="natural" v="slope" />
		<tag k="place" v="locality" />
		<tag k="ssr:stedsnr" v="533085" />
	</node>
	<node lat="70.0497444488001" lon="20.76323609100493" id="-42480">
		<tag k="name" v="Grasryggen" />
		<tag k="natural" v="ridge" />
		<tag k="place" v="locality" />
		<tag k="ssr:stedsnr" v="534102" />
	</node>
	<node lat="70.18443055615178" lon="20.79890830950447" id="-42481">
		<tag k="fixme" v="consider natural=peak for the most distinct mountains in the district" />
		<tag k="name" v="Flufjellet" />
		<tag k="natural" v="hill" />
		<tag k="place" v="locality" />
		<tag k="ssr:stedsnr" v="534216" />
	</node>
	<node lat="70.02335555385758" lon="20.973091637986503" id="-42482">
		<tag k="name" v="Vågadalen" />
		<tag k="natural" v="valley" />
		<tag k="place" v="locality" />
		<tag k="ssr:stedsnr" v="534168" />
	</node>
	<node lat="69.87736111388521" lon="20.61648887549846" id="-42484">
		<tag k="name" v="Svarttinddalen" />
		<tag k="natural" v="valley" />
		<tag k="place" v="locality" />
		<tag k="ssr:stedsnr" v="534309" />
	</node>
	<node lat="69.91650278162187" lon="20.684502768518772" id="-42485">
		<tag k="name" v="Storhaugen" />
		<tag k="natural" v="hill" />
		<tag k="place" v="locality" />
		<tag k="ssr:stedsnr" v="534371" />
	</node>
	<node lat="69.98486666380059" lon="20.62752775061969" id="-42486">
		<tag k="name" v="Falkedalen" />
		<tag k="natural" v="valley" />
		<tag k="place" v="locality" />
		<tag k="ssr:stedsnr" v="534567" />
	</node>
	<node lat="69.94379722129028" lon="20.663399969944376" id="-42487">
		<tag k="name" v="Brentaksla" />
		<tag k="place" v="locality" />
		<tag k="ssr:stedsnr" v="534570" />
	</node>
	<node lat="70.03788611534839" lon="20.596161098142364" id="-42489">
		<tag k="name" v="Lillehaugen" />
		<tag k="natural" v="hill" />
		<tag k="place" v="locality" />
		<tag k="ssr:stedsnr" v="534669" />
	</node>
	<node lat="70.05361388909182" lon="20.481255527656998" id="-42492">
		<tag k="name" v="Okshaugen" />
		<tag k="natural" v="hill" />
		<tag k="place" v="locality" />
		<tag k="ssr:stedsnr" v="534902" />
	</node>
	<node lat="70.19123055437613" lon="20.56722497766259" id="-42493">
		<tag k="fixme" v="consider natural=peak for the most distinct mountains in the district" />
		<tag k="name" v="Storfjellet" />
		<tag k="natural" v="hill" />
		<tag k="place" v="locality" />
		<tag k="ssr:stedsnr" v="534909" />
	</node>
	<node lat="70.21039444641683" lon="20.641136096876384" id="-42494">
		<tag k="name" v="Nord-Rekvikaksla" />
		<tag k="place" v="locality" />
		<tag k="ssr:stedsnr" v="534917" />
	</node>
	<node lat="70.03532500137631" lon="20.553144436868074" id="-42499">
		<tag k="name" v="Irvi" />
		<tag k="name:se" v="Irvi" />
		<tag k="place" v="locality" />
		<tag k="ssr:stedsnr" v="535813" />
	</node>
	<node lat="70.11526666526888" lon="20.42644719271541" id="-42506">
		<tag k="name" v="Trolldalen" />
		<tag k="natural" v="valley" />
		<tag k="place" v="locality" />
		<tag k="ssr:stedsnr" v="687023" />
	</node>
	<node lat="70.11764444170112" lon="20.586255546421857" id="-42509">
		<tag k="fixme" v="consider natural=peak for the most distinct mountains in the district" />
		<tag k="name" v="Røyskattfjellet" />
		<tag k="natural" v="hill" />
		<tag k="place" v="locality" />
		<tag k="ssr:stedsnr" v="687054" />
	</node>
	<node lat="70.13068888990996" lon="20.730194424634217" id="-42510">
		<tag k="alt_name:no" v="Tjyvtinden" />
		<tag k="fixme" v="consider natural=peak for the most distinct mountains in the district" />
		<tag k="loc_name:se" v="Givačohkka" />
		<tag k="name" v="Tjuvtinden" />
		<tag k="name:no" v="Tjuvtinden" />
		<tag k="natural" v="hill" />
		<tag k="place" v="locality" />
		<tag k="ssr:stedsnr" v="687063" />
	</node>
	<node lat="70.09904999878498" lon="20.69592775038665" id="-42511">
		<tag k="fixme" v="consider natural=peak for the most distinct mountains in the district" />
		<tag k="name" v="Svartskogtinden" />
		<tag k="natural" v="hill" />
		<tag k="place" v="locality" />
		<tag k="ssr:stedsnr" v="687210" />
	</node>
	<node lat="70.10281666538263" lon="20.706552752515094" id="-42512">
		<tag k="fixme" v="consider natural=peak for the most distinct mountains in the district" />
		<tag k="name" v="Breifjellet" />
		<tag k="natural" v="hill" />
		<tag k="place" v="locality" />
		<tag k="ssr:stedsnr" v="687211" />
	</node>
	<node lat="69.87463055140178" lon="20.644033323316602" id="-42515">
		<tag k="fixme" v="consider natural=peak for the most distinct mountains in the district" />
		<tag k="name" v="Kankeliheia" />
		<tag k="natural" v="hill" />
		<tag k="place" v="locality" />
		<tag k="ssr:stedsnr" v="687508" />
	</node>
	<node lat="70.11551111524457" lon="20.379424975570643" id="-42520">
		<tag k="name" v="Rødbergan" />
		<tag k="natural" v="hill" />
		<tag k="place" v="locality" />
		<tag k="ssr:stedsnr" v="687906" />
	</node>
	<node lat="70.15468889356943" lon="20.565727766942935" id="-42524">
		<tag k="fixme" v="consider natural=peak for the most distinct mountains in the district" />
		<tag k="loc_name:se" v="Hárjevárri" />
		<tag k="name" v="Svarttindfjellet" />
		<tag k="name:no" v="Svarttindfjellet" />
		<tag k="natural" v="hill" />
		<tag k="place" v="locality" />
		<tag k="ssr:stedsnr" v="565006" />
	</node>
	<node lat="69.89494444461535" lon="20.675052759703956" id="-42529">
		<tag k="fixme" v="consider natural=peak for the most distinct mountains in the district" />
		<tag k="name" v="Arontinden" />
		<tag k="natural" v="hill" />
		<tag k="place" v="locality" />
		<tag k="ssr:stedsnr" v="565565" />
	</node>
	<node lat="70.10936666459864" lon="20.38653332598191" id="-42536">
		<tag k="name" v="Breiskaret" />
		<tag k="natural" v="valley" />
		<tag k="place" v="locality" />
		<tag k="ssr:stedsnr" v="570357" />
	</node>
	<node lat="70.21813611562366" lon="20.530097203114348" id="-42542">
		<tag k="name" v="Gryta" />
		<tag k="natural" v="valley" />
		<tag k="place" v="locality" />
		<tag k="ssr:stedsnr" v="575348" />
	</node>
	<node lat="70.11255833673789" lon="20.74394998510335" id="-42551">
		<tag k="name" v="Lauksletta" />
		<tag k="place" v="locality" />
		<tag k="ssr:stedsnr" v="594017" />
	</node>
	<node lat="70.15906110886885" lon="20.77642497402585" id="-42552">
		<tag k="name" v="Småbakkan" />
		<tag k="natural" v="slope" />
		<tag k="place" v="locality" />
		<tag k="ssr:stedsnr" v="594154" />
	</node>
	<node lat="70.13237778123164" lon="20.52149719543134" id="-42553">
		<tag k="name" v="Bjørndalen" />
		<tag k="natural" v="valley" />
		<tag k="place" v="locality" />
		<tag k="ssr:stedsnr" v="594158" />
	</node>
	<node lat="70.00265832980696" lon="21.028822196842874" id="-42560">
		<tag k="name" v="Ørnaberget" />
		<tag k="natural" v="hill" />
		<tag k="place" v="locality" />
		<tag k="ssr:stedsnr" v="594353" />
	</node>
	<node lat="69.98204166859426" lon="20.644330546919832" id="-42563">
		<tag k="name" v="Gåsvikhaugen" />
		<tag k="natural" v="hill" />
		<tag k="place" v="locality" />
		<tag k="ssr:stedsnr" v="594506" />
	</node>
	<node lat="70.07047778011687" lon="20.623261098721514" id="-42566">
		<tag k="fixme" v="consider natural=peak for the most distinct mountains in the district" />
		<tag k="name" v="Sløkedalskulen" />
		<tag k="natural" v="hill" />
		<tag k="place" v="locality" />
		<tag k="ssr:stedsnr" v="594762" />
	</node>
	<node lat="70.05591667057621" lon="20.988913856308294" id="-42567">
		<tag k="name" v="Brennerpasset" />
		<tag k="natural" v="valley" />
		<tag k="place" v="locality" />
		<tag k="ssr:stedsnr" v="594799" />
	</node>
	<node lat="70.05702499841426" lon="20.427080546796674" id="-42570">
		<tag k="fixme" v="consider natural=peak for the most distinct mountains in the district" />
		<tag k="name" v="Revfjellet" />
		<tag k="natural" v="hill" />
		<tag k="place" v="locality" />
		<tag k="ssr:stedsnr" v="594916" />
	</node>
	<node lat="70.04209722062672" lon="20.57526109799812" id="-42573">
		<tag k="fixme" v="consider natural=peak for the most distinct mountains in the district" />
		<tag k="name" v="Nordre Faueltinden" />
		<tag k="natural" v="hill" />
		<tag k="place" v="locality" />
		<tag k="ssr:stedsnr" v="595657" />
	</node>
	<node lat="70.0355972263796" lon="20.595338884991254" id="-42574">
		<tag k="name" v="Holtevollen" />
		<tag k="place" v="locality" />
		<tag k="ssr:stedsnr" v="595813" />
	</node>
	<node lat="70.15317221990085" lon="20.744766644052643" id="-42576">
		<tag k="name" v="Lilledalen" />
		<tag k="natural" v="valley" />
		<tag k="place" v="locality" />
		<tag k="ssr:stedsnr" v="626003" />
	</node>
	<node lat="70.15248333693333" lon="20.42937499476088" id="-42578">
		<tag k="name" v="Tobbevikdalen" />
		<tag k="natural" v="valley" />
		<tag k="place" v="locality" />
		<tag k="ssr:stedsnr" v="626006" />
	</node>
	<node lat="70.0319333330266" lon="20.95829996502241" id="-42587">
		<tag k="name" v="Haugen" />
		<tag k="natural" v="hill" />
		<tag k="place" v="locality" />
		<tag k="ssr:stedsnr" v="651992" />
	</node>
	<node lat="70.10556944743749" lon="20.917663866082037" id="-42590">
		<tag k="name" v="Grunntoftsberget" />
		<tag k="natural" v="hill" />
		<tag k="place" v="locality" />
		<tag k="ssr:stedsnr" v="655207" />
	</node>
	<node lat="70.01656111023411" lon="20.788388865632648" id="-42593">
		<tag k="name" v="Vittnesdalen" />
		<tag k="natural" v="valley" />
		<tag k="place" v="locality" />
		<tag k="ssr:stedsnr" v="655134" />
	</node>
	<node lat="69.91079444391417" lon="20.708041659494178" id="-42595">
		<tag k="name" v="Garnberget" />
		<tag k="natural" v="hill" />
		<tag k="place" v="locality" />
		<tag k="ssr:stedsnr" v="655385" />
	</node>
	<node lat="69.9770222226705" lon="20.641955538730848" id="-42596">
		<tag k="name" v="Smådalan" />
		<tag k="natural" v="valley" />
		<tag k="place" v="locality" />
		<tag k="ssr:stedsnr" v="655512" />
	</node>
	<node lat="69.96484722328907" lon="20.64307774968452" id="-42597">
		<tag k="name" v="Sleparbakken - Javedearbmi" />
		<tag k="name:no" v="Sleparbakken" />
		<tag k="name:se" v="Javedearbmi" />
		<tag k="natural" v="slope" />
		<tag k="place" v="locality" />
		<tag k="ssr:stedsnr" v="655581" />
	</node>
	<node lat="70.04312777435045" lon="20.587288873819872" id="-42599">
		<tag k="name" v="Bruna" />
		<tag k="natural" v="slope" />
		<tag k="place" v="locality" />
		<tag k="ssr:stedsnr" v="655681" />
	</node>
	<node lat="69.96193333594032" lon="20.754136082136462" id="-42600">
		<tag k="name" v="Lilleberget" />
		<tag k="natural" v="hill" />
		<tag k="place" v="locality" />
		<tag k="ssr:stedsnr" v="655884" />
	</node>
	<node lat="69.93561111644448" lon="20.809736088484147" id="-42601">
		<tag k="name" v="Vedhøgga" />
		<tag k="natural" v="slope" />
		<tag k="place" v="locality" />
		<tag k="ssr:stedsnr" v="655887" />
	</node>
	<node lat="70.09903888799283" lon="20.570988858467466" id="-42602">
		<tag k="name" v="Lyngnesdalen" />
		<tag k="natural" v="valley" />
		<tag k="place" v="locality" />
		<tag k="ssr:stedsnr" v="655786" />
	</node>
	<node lat="70.01072778195702" lon="20.960316649269792" id="-42604">
		<tag k="name" v="Gussaroggi" />
		<tag k="name:se" v="Gussaroggi" />
		<tag k="natural" v="valley" />
		<tag k="place" v="locality" />
		<tag k="ssr:stedsnr" v="656308" />
	</node>
	<node lat="70.00784722004853" lon="20.8912388684318" id="-42605">
		<tag k="name" v="Tennberget" />
		<tag k="natural" v="hill" />
		<tag k="place" v="locality" />
		<tag k="ssr:stedsnr" v="656309" />
	</node>
	<node lat="70.01290278190353" lon="20.917583302519173" id="-42606">
		<tag k="name" v="Tráhppabákti" />
		<tag k="name:se" v="Tráhppabákti" />
		<tag k="natural" v="hill" />
		<tag k="place" v="locality" />
		<tag k="ssr:stedsnr" v="656313" />
	</node>
	<node lat="70.07459166957726" lon="20.431822214620443" id="-42607">
		<tag k="fixme" v="consider natural=peak for the most distinct mountains in the district" />
		<tag k="loc_name:se" v="Stállogáisá" />
		<tag k="name" v="Trolltinden" />
		<tag k="name:no" v="Trolltinden" />
		<tag k="natural" v="hill" />
		<tag k="place" v="locality" />
		<tag k="ssr:stedsnr" v="686189" />
	</node>
	<node lat="70.22580278250501" lon="20.612847199363106" id="-42615">
		<tag k="name" v="Nord-Rekvikaksla" />
		<tag k="place" v="locality" />
		<tag k="ssr:stedsnr" v="697379" />
	</node>
	<node lat="70.06554444869465" lon="20.844894413411012" id="-42623">
		<tag k="name" v="Notberget" />
		<tag k="natural" v="hill" />
		<tag k="place" v="locality" />
		<tag k="ssr:stedsnr" v="898028" />
	</node>
	<node lat="70.0652750007522" lon="20.52172776726164" id="-42625">
		<tag k="name" v="Kjerkenesaksla" />
		<tag k="place" v="locality" />
		<tag k="ssr:stedsnr" v="898098" />
	</node>
	<node lat="70.0595222238768" lon="20.97845552743049" id="-42628">
		<tag k="name" v="Laen" />
		<tag k="natural" v="hill" />
		<tag k="place" v="locality" />
		<tag k="ssr:stedsnr" v="898178" />
	</node>
	<node lat="70.14929722055675" lon="20.74922219743157" id="-42633">
		<tag k="name" v="Storhammaren" />
		<tag k="natural" v="hill" />
		<tag k="place" v="locality" />
		<tag k="ssr:stedsnr" v="898143" />
	</node>
	<node lat="70.0250305559671" lon="20.957874973207932" id="-42636">
		<tag k="fixme" v="consider natural=peak for the most distinct mountains in the district" />
		<tag k="name" v="Urfjellet" />
		<tag k="natural" v="hill" />
		<tag k="place" v="locality" />
		<tag k="ssr:stedsnr" v="898150" />
	</node>
	<node lat="70.12817222628317" lon="20.745286097876697" id="-42638">
		<tag k="name" v="Urbakken" />
		<tag k="natural" v="slope" />
		<tag k="place" v="locality" />
		<tag k="ssr:stedsnr" v="898200" />
	</node>
	<node lat="69.98691389106925" lon="20.89849442594455" id="-42639">
		<tag k="name" v="Storhylla" />
		<tag k="place" v="locality" />
		<tag k="ssr:stedsnr" v="898256" />
	</node>
	<node lat="70.20137499741412" lon="20.52926387766986" id="-42641">
		<tag k="name" v="Baklia" />
		<tag k="natural" v="slope" />
		<tag k="place" v="locality" />
		<tag k="ssr:stedsnr" v="898295" />
	</node>
	<node lat="69.89410277786584" lon="20.600438867088915" id="-42644">
		<tag k="name" v="Lávkaroggi" />
		<tag k="name:se" v="Lávkaroggi" />
		<tag k="natural" v="valley" />
		<tag k="place" v="locality" />
		<tag k="ssr:stedsnr" v="898577" />
	</node>
	<node lat="69.98619444699327" lon="20.96871386702461" id="-42645">
		<tag k="name" v="Småkvalbergan" />
		<tag k="natural" v="hill" />
		<tag k="place" v="locality" />
		<tag k="ssr:stedsnr" v="898548" />
	</node>
	<node lat="70.0943777787211" lon="20.55411108878974" id="-42646">
		<tag k="name" v="Lyngnesbakken" />
		<tag k="natural" v="slope" />
		<tag k="place" v="locality" />
		<tag k="ssr:stedsnr" v="898798" />
	</node>
	<node lat="70.05040555810778" lon="20.61742498008095" id="-42647">
		<tag k="name" v="Grønnlia" />
		<tag k="natural" v="slope" />
		<tag k="place" v="locality" />
		<tag k="ssr:stedsnr" v="898681" />
	</node>
	<node lat="69.9233249963631" lon="20.84563331895124" id="-42648">
		<tag k="name" v="Rundberget" />
		<tag k="natural" v="hill" />
		<tag k="place" v="locality" />
		<tag k="ssr:stedsnr" v="898881" />
	</node>
	<node lat="70.07988889230839" lon="20.39302498978061" id="-42650">
		<tag k="name" v="Rødmannsdalen" />
		<tag k="natural" v="valley" />
		<tag k="place" v="locality" />
		<tag k="ssr:stedsnr" v="898889" />
	</node>
	<node lat="70.04875278150145" lon="20.472527757983077" id="-42651">
		<tag k="fixme" v="consider natural=peak for the most distinct mountains in the district" />
		<tag k="name" v="Bjørnsteinfjellet" />
		<tag k="natural" v="hill" />
		<tag k="place" v="locality" />
		<tag k="ssr:stedsnr" v="898899" />
	</node>
	<node lat="70.1806111133543" lon="20.548524973474564" id="-42654">
		<tag k="name" v="Bjørnbåsen" />
		<tag k="natural" v="hill" />
		<tag k="place" v="locality" />
		<tag k="ssr:stedsnr" v="898914" />
	</node>
	<node lat="70.1597611079584" lon="20.55468331155204" id="-42655">
		<tag k="name" v="Svarttindaksla" />
		<tag k="place" v="locality" />
		<tag k="ssr:stedsnr" v="898918" />
	</node>
	<node lat="70.16333055431053" lon="20.40618054807322" id="-42658">
		<tag k="name" v="Tennhaugen" />
		<tag k="natural" v="hill" />
		<tag k="place" v="locality" />
		<tag k="ssr:stedsnr" v="716203" />
	</node>
	<node lat="70.22933889184843" lon="20.613099995214885" id="-42661">
		<tag k="alt_name" v="Hompan" />
		<tag k="name" v="Humpan" />
		<tag k="natural" v="hill" />
		<tag k="place" v="locality" />
		<tag k="ssr:stedsnr" v="898926" />
	</node>
	<node lat="70.04920277637872" lon="20.746961102450392" id="-42662">
		<tag k="name" v="Blåbærdalen" />
		<tag k="natural" v="valley" />
		<tag k="place" v="locality" />
		<tag k="ssr:stedsnr" v="716111" />
	</node>
	<node lat="70.04662777995817" lon="20.722416655812633" id="-42663">
		<tag k="name" v="Øvre Haugdalen" />
		<tag k="natural" v="valley" />
		<tag k="place" v="locality" />
		<tag k="ssr:stedsnr" v="716118" />
	</node>
	<node lat="70.05189444875987" lon="20.76788610321719" id="-42664">
		<tag k="name" v="Storlia" />
		<tag k="natural" v="slope" />
		<tag k="place" v="locality" />
		<tag k="ssr:stedsnr" v="716123" />
	</node>
	<node lat="70.1236277818746" lon="20.543099993990904" id="-42665">
		<tag k="name" v="Tua" />
		<tag k="natural" v="hill" />
		<tag k="place" v="locality" />
		<tag k="ssr:stedsnr" v="716179" />
	</node>
	<node lat="70.20085000240007" lon="20.531099985908163" id="-42666">
		<tag k="name" v="Storlia" />
		<tag k="natural" v="slope" />
		<tag k="place" v="locality" />
		<tag k="ssr:stedsnr" v="716322" />
	</node>
	<node lat="70.19421389273478" lon="20.537122205567883" id="-42668">
		<tag k="name" v="Ambruseslia" />
		<tag k="natural" v="slope" />
		<tag k="place" v="locality" />
		<tag k="ssr:stedsnr" v="716325" />
	</node>
	<node lat="70.18706666395695" lon="20.51362220140743" id="-42669">
		<tag k="name" v="Rundberget" />
		<tag k="natural" v="hill" />
		<tag k="place" v="locality" />
		<tag k="ssr:stedsnr" v="716329" />
	</node>
	<node lat="69.98002222563068" lon="20.625833303969358" id="-42672">
		<tag k="name" v="Sleiphella" />
		<tag k="natural" v="slope" />
		<tag k="place" v="locality" />
		<tag k="ssr:stedsnr" v="716575" />
	</node>
	<node lat="69.94497499835812" lon="20.64190274731439" id="-42673">
		<tag k="name" v="Storelvedalen" />
		<tag k="natural" v="valley" />
		<tag k="place" v="locality" />
		<tag k="ssr:stedsnr" v="716580" />
	</node>
	<node lat="69.95596667079205" lon="20.65068053672231" id="-42674">
		<tag k="name" v="Høgda" />
		<tag k="natural" v="hill" />
		<tag k="place" v="locality" />
		<tag k="ssr:stedsnr" v="716589" />
	</node>
	<node lat="70.03632778032511" lon="20.577530540255964" id="-42675">
		<tag k="name" v="Bukkhalli - Gáicahálli" />
		<tag k="name:no" v="Bukkhalli" />
		<tag k="name:se" v="Gáicahálli" />
		<tag k="natural" v="slope" />
		<tag k="place" v="locality" />
		<tag k="ssr:stedsnr" v="716677" />
	</node>
	<node lat="70.01580000049756" lon="21.075741633607596" id="-42679">
		<tag k="name" v="Stigen" />
		<tag k="natural" v="hill" />
		<tag k="place" v="locality" />
		<tag k="ssr:stedsnr" v="717215" />
	</node>
	<node lat="70.03705555712415" lon="21.268769430870496" id="-42684">
		<tag k="name" v="Balsaskaret" />
		<tag k="natural" v="valley" />
		<tag k="place" v="locality" />
		<tag k="ssr:stedsnr" v="899232" />
	</node>
	<node lat="70.15992777631986" lon="20.604238878830355" id="-42688">
		<tag k="name" v="Klovsteinbakken" />
		<tag k="natural" v="slope" />
		<tag k="place" v="locality" />
		<tag k="ssr:stedsnr" v="747004" />
	</node>
	<node lat="70.18158889403075" lon="20.443133312638352" id="-42690">
		<tag k="alt_name" v="Falkberget" />
		<tag k="name" v="Falkeberget" />
		<tag k="natural" v="hill" />
		<tag k="place" v="locality" />
		<tag k="ssr:stedsnr" v="747009" />
	</node>
	<node lat="70.166772222711" lon="20.45094443581825" id="-42691">
		<tag k="name" v="Keiledalen" />
		<tag k="natural" v="valley" />
		<tag k="place" v="locality" />
		<tag k="ssr:stedsnr" v="747012" />
	</node>
	<node lat="70.16195833407309" lon="20.509283324337584" id="-42692">
		<tag k="name" v="Høgtindkråa" />
		<tag k="natural" v="valley" />
		<tag k="place" v="locality" />
		<tag k="ssr:stedsnr" v="747015" />
	</node>
	<node lat="70.09167499744898" lon="20.507877746777954" id="-42693">
		<tag k="fixme" v="consider natural=peak for the most distinct mountains in the district" />
		<tag k="name" v="Lappeguden" />
		<tag k="natural" v="hill" />
		<tag k="place" v="locality" />
		<tag k="ssr:stedsnr" v="747213" />
	</node>
	<node lat="69.96167500310533" lon="20.889333307221232" id="-42695">
		<tag k="name" v="Stokknesdalen" />
		<tag k="natural" v="valley" />
		<tag k="place" v="locality" />
		<tag k="ssr:stedsnr" v="747566" />
	</node>
	<node lat="69.87044166411194" lon="20.687669430646032" id="-42708">
		<tag k="name" v="Haugen" />
		<tag k="natural" v="hill" />
		<tag k="place" v="locality" />
		<tag k="ssr:stedsnr" v="776306" />
	</node>
	<node lat="69.90078333613702" lon="20.67577219296216" id="-42709">
		<tag k="name" v="Dverberget" />
		<tag k="natural" v="hill" />
		<tag k="place" v="locality" />
		<tag k="ssr:stedsnr" v="776551" />
	</node>
	<node lat="69.90137222385705" lon="20.645697197880185" id="-42710">
		<tag k="name" v="Novebergan" />
		<tag k="natural" v="hill" />
		<tag k="place" v="locality" />
		<tag k="ssr:stedsnr" v="776557" />
	</node>
	<node lat="70.04936111517341" lon="20.759302772755657" id="-42714">
		<tag k="name" v="Storsteinryggen" />
		<tag k="natural" v="ridge" />
		<tag k="place" v="locality" />
		<tag k="ssr:stedsnr" v="777103" />
	</node>
	<node lat="69.999925003701" lon="21.020094423525954" id="-42718">
		<tag k="name" v="Eberget" />
		<tag k="natural" v="hill" />
		<tag k="place" v="locality" />
		<tag k="ssr:stedsnr" v="777326" />
	</node>
	<node lat="70.07607222298775" lon="20.48590276026754" id="-42719">
		<tag k="name" v="Rishaugen" />
		<tag k="natural" v="hill" />
		<tag k="place" v="locality" />
		<tag k="ssr:stedsnr" v="777058" />
	</node>
	<node lat="70.03862222527742" lon="20.57722221531821" id="-42721">
		<tag k="name" v="Nerdalen" />
		<tag k="natural" v="valley" />
		<tag k="place" v="locality" />
		<tag k="ssr:stedsnr" v="777658" />
	</node>
	<node lat="70.21548611107303" lon="20.627230525500288" id="-42723">
		<tag k="fixme" v="consider natural=peak for the most distinct mountains in the district" />
		<tag k="name" v="Middagstinden" />
		<tag k="natural" v="hill" />
		<tag k="place" v="locality" />
		<tag k="ssr:stedsnr" v="777900" />
	</node>
	<node lat="70.22868611175983" lon="20.627522209335716" id="-42724">
		<tag k="name" v="Svartsøyla" />
		<tag k="natural" v="slope" />
		<tag k="place" v="locality" />
		<tag k="ssr:stedsnr" v="777908" />
	</node>
	<node lat="70.23061388669561" lon="20.601577760180895" id="-42725">
		<tag k="name" v="Storstua" />
		<tag k="natural" v="hill" />
		<tag k="place" v="locality" />
		<tag k="ssr:stedsnr" v="777915" />
	</node>
	<node lat="70.20328333693593" lon="20.69486108919304" id="-42726">
		<tag k="name" v="Tjyven" />
		<tag k="natural" v="slope" />
		<tag k="place" v="locality" />
		<tag k="ssr:stedsnr" v="777921" />
	</node>
	<node lat="70.2353194492672" lon="20.693113872133473" id="-42727">
		<tag k="name" v="Hyllebergan" />
		<tag k="natural" v="hill" />
		<tag k="place" v="locality" />
		<tag k="ssr:stedsnr" v="777924" />
	</node>
	<node lat="70.2310055575893" lon="20.686291655195696" id="-42729">
		<tag k="name" v="Grønnbakkan" />
		<tag k="natural" v="slope" />
		<tag k="place" v="locality" />
		<tag k="ssr:stedsnr" v="777929" />
	</node>
	<node lat="70.0679250032091" lon="20.4428666570666" id="-42730">
		<tag k="fixme" v="consider natural=peak for the most distinct mountains in the district" />
		<tag k="name" v="Lilletinden" />
		<tag k="natural" v="hill" />
		<tag k="place" v="locality" />
		<tag k="ssr:stedsnr" v="777974" />
	</node>
	<node lat="69.96027778343608" lon="20.95860830046146" id="-42732">
		<tag k="name" v="Finnhaugen" />
		<tag k="natural" v="hill" />
		<tag k="place" v="locality" />
		<tag k="ssr:stedsnr" v="778157" />
	</node>
	<node lat="70.01341111400174" lon="20.91532776948329" id="-42733">
		<tag k="name" v="Hogobákti" />
		<tag k="name:se" v="Hogobákti" />
		<tag k="natural" v="hill" />
		<tag k="place" v="locality" />
		<tag k="ssr:stedsnr" v="778311" />
	</node>
	<node lat="69.91427777571823" lon="20.678641645593792" id="-42748">
		<tag k="name" v="Båtberget" />
		<tag k="natural" v="hill" />
		<tag k="place" v="locality" />
		<tag k="ssr:stedsnr" v="837379" />
	</node>
	<node lat="69.90251111123705" lon="20.64974720549372" id="-42749">
		<tag k="name" v="Flatberget" />
		<tag k="natural" v="hill" />
		<tag k="place" v="locality" />
		<tag k="ssr:stedsnr" v="837583" />
	</node>
	<node lat="70.04519999751437" lon="20.71571386605531" id="-42752">
		<tag k="name" v="Springarbakkan" />
		<tag k="natural" v="slope" />
		<tag k="place" v="locality" />
		<tag k="ssr:stedsnr" v="838129" />
	</node>
	<node lat="70.0440527804126" lon="20.715730536728465" id="-42753">
		<tag k="name" v="Springarbergan" />
		<tag k="natural" v="hill" />
		<tag k="place" v="locality" />
		<tag k="ssr:stedsnr" v="838131" />
	</node>
	<node lat="70.03833611566705" lon="21.003236092010017" id="-42754">
		<tag k="name" v="Sofaen" />
		<tag k="natural" v="hill" />
		<tag k="place" v="locality" />
		<tag k="ssr:stedsnr" v="838181" />
	</node>
	<node lat="70.07013056022754" lon="20.57279442566585" id="-42757">
		<tag k="name" v="Rikardlian" />
		<tag k="natural" v="slope" />
		<tag k="place" v="locality" />
		<tag k="ssr:stedsnr" v="838778" />
	</node>
	<node lat="70.06803611464154" lon="20.569922213547233" id="-42758">
		<tag k="name" v="Lilleskreda" />
		<tag k="natural" v="slope" />
		<tag k="place" v="locality" />
		<tag k="ssr:stedsnr" v="838779" />
	</node>
	<node lat="70.0487194431564" lon="20.476416656178213" id="-42759">
		<tag k="name" v="Geitskaret" />
		<tag k="natural" v="valley" />
		<tag k="place" v="locality" />
		<tag k="ssr:stedsnr" v="838909" />
	</node>
	<node lat="69.93171944824496" lon="20.87084720432185" id="-42761">
		<tag k="name" v="Hamnedalen" />
		<tag k="natural" v="valley" />
		<tag k="place" v="locality" />
		<tag k="ssr:stedsnr" v="838913" />
	</node>
	<node lat="70.06398055873086" lon="20.624561106603043" id="-42762">
		<tag k="name" v="Langskreda" />
		<tag k="natural" v="slope" />
		<tag k="place" v="locality" />
		<tag k="ssr:stedsnr" v="838805" />
	</node>
	<node lat="70.04736389095152" lon="20.670705532740605" id="-42765">
		<tag k="name" v="Hatteberget" />
		<tag k="natural" v="hill" />
		<tag k="place" v="locality" />
		<tag k="ssr:stedsnr" v="838880" />
	</node>
	<node lat="70.19195277611642" lon="20.613297196930226" id="-42773">
		<tag k="name" v="Nord-Rekvikdalen" />
		<tag k="natural" v="valley" />
		<tag k="place" v="locality" />
		<tag k="ssr:stedsnr" v="929012" />
	</node>
	<node lat="70.17772500211777" lon="20.58222497676237" id="-42774">
		<tag k="alt_name" v="Trongdalen" />
		<tag k="name" v="Trongedalen" />
		<tag k="natural" v="valley" />
		<tag k="place" v="locality" />
		<tag k="ssr:stedsnr" v="929016" />
	</node>
	<node lat="70.09655832895655" lon="20.374266656737714" id="-42775">
		<tag k="loc_name:se" v="Uvssut" />
		<tag k="name" v="Ytter-Omnan" />
		<tag k="name:no" v="Ytter-Omnan" />
		<tag k="place" v="locality" />
		<tag k="ssr:stedsnr" v="929076" />
	</node>
	<node lat="70.21158610989112" lon="20.765747191764802" id="-42778">
		<tag k="name" v="Sørdalen" />
		<tag k="natural" v="valley" />
		<tag k="place" v="locality" />
		<tag k="ssr:stedsnr" v="929088" />
	</node>
	<node lat="70.08110833350484" lon="20.45132498724908" id="-42782">
		<tag k="name" v="Skavdalen" />
		<tag k="natural" v="valley" />
		<tag k="place" v="locality" />
		<tag k="ssr:stedsnr" v="929194" />
	</node>
	<node lat="69.96258888779658" lon="20.83067220947512" id="-42784">
		<tag k="fixme" v="consider natural=peak for the most distinct mountains in the district" />
		<tag k="name" v="Storsandnestinden" />
		<tag k="natural" v="hill" />
		<tag k="place" v="locality" />
		<tag k="ssr:stedsnr" v="929549" />
	</node>
	<node lat="70.12175833741878" lon="20.861399992417592" id="-42792">
		<tag k="fixme" v="consider natural=peak for the most distinct mountains in the district" />
		<tag k="name" v="Kveitviktinden" />
		<tag k="natural" v="hill" />
		<tag k="place" v="locality" />
		<tag k="ssr:stedsnr" v="930036" />
	</node>
	<node lat="70.12019722143833" lon="20.467794423583303" id="-42795">
		<tag k="name" v="Dalskiftet" />
		<tag k="natural" v="valley" />
		<tag k="place" v="locality" />
		<tag k="ssr:stedsnr" v="930061" />
	</node>
	<node lat="70.0615222268437" lon="20.450480543261712" id="-42799">
		<tag k="fixme" v="consider natural=peak for the most distinct mountains in the district" />
		<tag k="name" v="Trolltindaksla" />
		<tag k="natural" v="hill" />
		<tag k="place" v="locality" />
		<tag k="ssr:stedsnr" v="868222" />
	</node>
	<node lat="70.19400833198308" lon="20.79215276182301" id="-42804">
		<tag k="fixme" v="consider natural=peak for the most distinct mountains in the district" />
		<tag k="name" v="Flutinden" />
		<tag k="natural" v="hill" />
		<tag k="place" v="locality" />
		<tag k="ssr:stedsnr" v="869022" />
	</node>
	<node lat="70.06588333322088" lon="20.397108317682036" id="-42805">
		<tag k="name" v="Svartbergan" />
		<tag k="natural" v="hill" />
		<tag k="place" v="locality" />
		<tag k="ssr:stedsnr" v="869080" />
	</node>
	<node lat="69.99408055632368" lon="20.759519436071724" id="-42811">
		<tag k="name" v="Steinbakkdalen" />
		<tag k="natural" v="valley" />
		<tag k="place" v="locality" />
		<tag k="ssr:stedsnr" v="930667" />
	</node>
	<node lat="70.20595277419116" lon="20.69926108856775" id="-42812">
		<tag k="name" v="Norddalen" />
		<tag k="natural" v="valley" />
		<tag k="place" v="locality" />
		<tag k="ssr:stedsnr" v="931512" />
	</node>
	<node lat="69.97258611118716" lon="20.92083052076909" id="-42814">
		<tag k="name" v="Møllnesdalen" />
		<tag k="natural" v="valley" />
		<tag k="place" v="locality" />
		<tag k="ssr:stedsnr" v="879260" />
	</node>
	<node lat="70.09324444729859" lon="20.720083314252623" id="-42817">
		<tag k="fixme" v="consider natural=peak for the most distinct mountains in the district" />
		<tag k="name" v="Lillefjellet" />
		<tag k="natural" v="hill" />
		<tag k="place" v="locality" />
		<tag k="ssr:stedsnr" v="898005" />
	</node>
	<node lat="70.18583888791404" lon="20.482061083429326" id="-42821">
		<tag k="name" v="Nilsbakk" />
		<tag k="natural" v="slope" />
		<tag k="place" v="locality" />
		<tag k="ssr:stedsnr" v="898221" />
	</node>
	<node lat="69.86490833272133" lon="20.65836387648286" id="-42825">
		<tag k="name" v="Skarbakken" />
		<tag k="natural" v="slope" />
		<tag k="place" v="locality" />
		<tag k="ssr:stedsnr" v="898320" />
	</node>
	<node lat="69.96802500394294" lon="20.658430527354827" id="-42826">
		<tag k="name" v="Gammelværskaret" />
		<tag k="natural" v="valley" />
		<tag k="place" v="locality" />
		<tag k="ssr:stedsnr" v="898554" />
	</node>
	<node lat="70.04527778248111" lon="20.708466640958417" id="-42827">
		<tag k="name" v="Gråbergan" />
		<tag k="natural" v="hill" />
		<tag k="place" v="locality" />
		<tag k="ssr:stedsnr" v="898866" />
	</node>
	<node lat="70.13577777644551" lon="20.545494414859085" id="-42828">
		<tag k="name" v="Finnvollan" />
		<tag k="place" v="locality" />
		<tag k="ssr:stedsnr" v="898969" />
	</node>
	<node lat="70.10469166998995" lon="20.568661105637478" id="-42830">
		<tag k="name" v="Lyngnesdalen" />
		<tag k="natural" v="valley" />
		<tag k="place" v="locality" />
		<tag k="ssr:stedsnr" v="898974" />
	</node>
	<node lat="70.05102777479226" lon="20.771836093797045" id="-42831">
		<tag k="name" v="Blomsterlia" />
		<tag k="natural" v="slope" />
		<tag k="place" v="locality" />
		<tag k="ssr:stedsnr" v="899107" />
	</node>
	<node lat="70.14955833373389" lon="20.763599981977787" id="-42833">
		<tag k="name" v="Langryggen" />
		<tag k="natural" v="ridge" />
		<tag k="place" v="locality" />
		<tag k="ssr:stedsnr" v="899156" />
	</node>
	<node lat="69.97114444421928" lon="20.956099977774315" id="-42834">
		<tag k="name" v="Kobbepollsletta" />
		<tag k="place" v="locality" />
		<tag k="ssr:stedsnr" v="899163" />
	</node>
	<node lat="70.1798861137693" lon="20.639633323168447" id="-42839">
		<tag k="alt_name" v="Fjellfinnhola, øvre" />
		<tag k="name" v="Øvre Fjellfinnholla" />
		<tag k="natural" v="valley" />
		<tag k="place" v="locality" />
		<tag k="ssr:stedsnr" v="929010" />
	</node>
	<node lat="70.0496972192888" lon="20.452099986413067" id="-42841">
		<tag k="name" v="Søraksla" />
		<tag k="natural" v="hill" />
		<tag k="place" v="locality" />
		<tag k="ssr:stedsnr" v="929213" />
	</node>
	<node lat="70.10976110951995" lon="20.807152751098428" id="-42842">
		<tag k="fixme" v="consider natural=peak for the most distinct mountains in the district" />
		<tag k="name" v="Hamnnestinden" />
		<tag k="natural" v="hill" />
		<tag k="place" v="locality" />
		<tag k="ssr:stedsnr" v="930045" />
	</node>
	<node lat="70.10218055806409" lon="20.67583887970991" id="-42845">
		<tag k="fixme" v="consider natural=peak for the most distinct mountains in the district" />
		<tag k="name" v="Tågtinden" />
		<tag k="natural" v="hill" />
		<tag k="place" v="locality" />
		<tag k="ssr:stedsnr" v="930211" />
	</node>
	<node lat="70.05005833738794" lon="20.756036080434193" id="-42848">
		<tag k="name" v="Elveryggen" />
		<tag k="natural" v="ridge" />
		<tag k="place" v="locality" />
		<tag k="ssr:stedsnr" v="958106" />
	</node>
	<node lat="70.18075555638364" lon="20.458033306022752" id="-42853">
		<tag k="name" v="Storsteinshaugen" />
		<tag k="natural" v="hill" />
		<tag k="place" v="locality" />
		<tag k="ssr:stedsnr" v="958186" />
	</node>
	<node lat="69.95219722623168" lon="20.66308054009074" id="-42857">
		<tag k="name" v="Bøtthaugen" />
		<tag k="natural" v="hill" />
		<tag k="place" v="locality" />
		<tag k="ssr:stedsnr" v="958593" />
	</node>
	<node lat="70.05443888773965" lon="20.612072213896834" id="-42858">
		<tag k="name" v="Inner-Kjedalskulen" />
		<tag k="natural" v="hill" />
		<tag k="place" v="locality" />
		<tag k="ssr:stedsnr" v="958694" />
	</node>
	<node lat="70.05024721985953" lon="20.59875554715591" id="-42859">
		<tag k="fixme" v="consider natural=peak for the most distinct mountains in the district" />
		<tag k="name" v="Tverrfjellet" />
		<tag k="natural" v="hill" />
		<tag k="place" v="locality" />
		<tag k="ssr:stedsnr" v="958698" />
	</node>
	<node lat="70.1167416631912" lon="20.899519430021822" id="-42860">
		<tag k="name" v="Svartberget" />
		<tag k="natural" v="hill" />
		<tag k="place" v="locality" />
		<tag k="ssr:stedsnr" v="959171" />
	</node>
	<node lat="70.12298611120923" lon="20.742977756567026" id="-42862">
		<tag k="name" v="Dalbakkan" />
		<tag k="natural" v="slope" />
		<tag k="place" v="locality" />
		<tag k="ssr:stedsnr" v="959184" />
	</node>
	<node lat="70.04452777620165" lon="20.598552754878575" id="-42867">
		<tag k="fixme" v="consider natural=peak for the most distinct mountains in the district" />
		<tag k="name" v="Lillefjellet" />
		<tag k="natural" v="hill" />
		<tag k="place" v="locality" />
		<tag k="ssr:stedsnr" v="959638" />
	</node>
	<node lat="70.04299444747906" lon="20.61176108208754" id="-42868">
		<tag k="name" v="Blåbærlia" />
		<tag k="natural" v="slope" />
		<tag k="place" v="locality" />
		<tag k="ssr:stedsnr" v="959643" />
	</node>
	<node lat="70.03995555965471" lon="20.61213053523115" id="-42869">
		<tag k="name" v="Skjellberget" />
		<tag k="natural" v="hill" />
		<tag k="place" v="locality" />
		<tag k="ssr:stedsnr" v="959645" />
	</node>
	<node lat="69.9910416689327" lon="20.629616646148875" id="-42870">
		<tag k="name" v="Skagbergan" />
		<tag k="natural" v="hill" />
		<tag k="place" v="locality" />
		<tag k="ssr:stedsnr" v="959535" />
	</node>
	<node lat="69.98678333694686" lon="20.62144442020909" id="-42871">
		<tag k="name" v="Enesbergan" />
		<tag k="natural" v="hill" />
		<tag k="place" v="locality" />
		<tag k="ssr:stedsnr" v="959537" />
	</node>
	<node lat="69.93963889362065" lon="20.65612497075404" id="-42872">
		<tag k="name" v="Sjurhammaren" />
		<tag k="place" v="locality" />
		<tag k="ssr:stedsnr" v="959542" />
	</node>
	<node lat="69.98364722477852" lon="21.037774966789986" id="-42874">
		<tag k="name" v="Oterstokkbergan" />
		<tag k="natural" v="hill" />
		<tag k="place" v="locality" />
		<tag k="ssr:stedsnr" v="959853" />
	</node>
	<node lat="70.0676833377172" lon="20.382577752219476" id="-42875">
		<tag k="name" v="Stakkevollen" />
		<tag k="place" v="locality" />
		<tag k="ssr:stedsnr" v="959891" />
	</node>
	<node lat="70.03933888703081" lon="20.543872214015416" id="-42876">
		<tag k="name" v="Storsteinaksla" />
		<tag k="place" v="locality" />
		<tag k="ssr:stedsnr" v="959895" />
	</node>
	<node lat="69.93522222162996" lon="20.80613609251847" id="-42877">
		<tag k="name" v="Stakmarka" />
		<tag k="natural" v="slope" />
		<tag k="place" v="locality" />
		<tag k="ssr:stedsnr" v="959899" />
	</node>
	<node lat="69.92646389243318" lon="20.820899987099914" id="-42883">
		<tag k="name" v="Lutbergan" />
		<tag k="natural" v="hill" />
		<tag k="place" v="locality" />
		<tag k="ssr:stedsnr" v="960355" />
	</node>
	<node lat="70.07079999663021" lon="20.435505538376475" id="-42886">
		<tag k="name" v="Sotnesdalen" />
		<tag k="natural" v="valley" />
		<tag k="place" v="locality" />
		<tag k="ssr:stedsnr" v="19059" />
	</node>
	<node lat="70.13369999845877" lon="20.654558323537128" id="-42889">
		<tag k="name" v="Isbakken" />
		<tag k="natural" v="slope" />
		<tag k="place" v="locality" />
		<tag k="ssr:stedsnr" v="19042" />
	</node>
	<node lat="70.22165278243452" lon="20.741669426887693" id="-42890">
		<tag k="name" v="Norddalen" />
		<tag k="natural" v="valley" />
		<tag k="place" v="locality" />
		<tag k="ssr:stedsnr" v="19087" />
	</node>
	<node lat="70.04494167194026" lon="20.727586086187095" id="-42895">
		<tag k="name" v="Haugen" />
		<tag k="natural" v="hill" />
		<tag k="place" v="locality" />
		<tag k="ssr:stedsnr" v="19213" />
	</node>
	<node lat="70.13073055168061" lon="20.381594432491777" id="-42908">
		<tag k="name" v="Holberget" />
		<tag k="natural" v="hill" />
		<tag k="place" v="locality" />
		<tag k="ssr:stedsnr" v="20482" />
	</node>
	<node lat="70.03167777895624" lon="21.21976663220755" id="-42914">
		<tag k="name" v="Storbakken" />
		<tag k="natural" v="slope" />
		<tag k="place" v="locality" />
		<tag k="ssr:stedsnr" v="29650" />
	</node>
	<node lat="70.15111666898764" lon="20.76830554941511" id="-42919">
		<tag k="name" v="Skansen" />
		<tag k="natural" v="slope" />
		<tag k="place" v="locality" />
		<tag k="ssr:stedsnr" v="49186" />
	</node>
	<node lat="70.05524444772172" lon="20.627947199986995" id="-42925">
		<tag k="name" v="Storbakken" />
		<tag k="natural" v="slope" />
		<tag k="place" v="locality" />
		<tag k="ssr:stedsnr" v="48652" />
	</node>
	<node lat="70.08822222311176" lon="20.6309361044036" id="-42926">
		<tag k="name" v="Gamhaugan" />
		<tag k="natural" v="hill" />
		<tag k="place" v="locality" />
		<tag k="ssr:stedsnr" v="48749" />
	</node>
	<node lat="70.05901944590349" lon="20.610855542416967" id="-42928">
		<tag k="name" v="Inner-Kjedalen" />
		<tag k="natural" v="valley" />
		<tag k="place" v="locality" />
		<tag k="ssr:stedsnr" v="48765" />
	</node>
	<node lat="70.07250555678385" lon="20.870999972662702" id="-42930">
		<tag k="name" v="Sandbakkskorra" />
		<tag k="natural" v="valley" />
		<tag k="place" v="locality" />
		<tag k="ssr:stedsnr" v="49036" />
	</node>
	<node lat="70.0731861117719" lon="20.76536108231012" id="-42932">
		<tag k="name" v="Aksla" />
		<tag k="place" v="locality" />
		<tag k="ssr:stedsnr" v="49049" />
	</node>
	<node lat="70.07156944397694" lon="20.373602759789893" id="-42933">
		<tag k="alt_name" v="Sotneshompen" />
		<tag k="name" v="Sotneshumpen" />
		<tag k="natural" v="hill" />
		<tag k="place" v="locality" />
		<tag k="ssr:stedsnr" v="48964" />
	</node>
	<node lat="70.04520555931377" lon="20.725297208097803" id="-42936">
		<tag k="name" v="Haugdalen" />
		<tag k="natural" v="valley" />
		<tag k="place" v="locality" />
		<tag k="ssr:stedsnr" v="49133" />
	</node>
	<node lat="70.04306389041311" lon="20.725455531939563" id="-42937">
		<tag k="name" v="Skuteberget" />
		<tag k="natural" v="hill" />
		<tag k="place" v="locality" />
		<tag k="ssr:stedsnr" v="49134" />
	</node>
	<node lat="70.05301110961693" lon="20.787702765349902" id="-42938">
		<tag k="name" v="Storčorru" />
		<tag k="name:se" v="Storčorru" />
		<tag k="natural" v="hill" />
		<tag k="place" v="locality" />
		<tag k="ssr:stedsnr" v="49138" />
	</node>
	<node lat="70.22070833357768" lon="20.75333054534091" id="-42939">
		<tag k="name" v="Sløkelia" />
		<tag k="natural" v="slope" />
		<tag k="place" v="locality" />
		<tag k="ssr:stedsnr" v="49164" />
	</node>
	<node lat="69.97496110928446" lon="20.937777758002337" id="-42940">
		<tag k="name" v="Eideberget" />
		<tag k="natural" v="hill" />
		<tag k="place" v="locality" />
		<tag k="ssr:stedsnr" v="49297" />
	</node>
	<node lat="70.19778889246913" lon="20.53270275026983" id="-42941">
		<tag k="name" v="Ograslia" />
		<tag k="natural" v="slope" />
		<tag k="place" v="locality" />
		<tag k="ssr:stedsnr" v="49345" />
	</node>
	<node lat="70.20556388807759" lon="20.522605525810608" id="-42942">
		<tag k="name" v="Preikstolen" />
		<tag k="natural" v="hill" />
		<tag k="place" v="locality" />
		<tag k="ssr:stedsnr" v="49349" />
	</node>
	<node lat="70.1871194486126" lon="20.49041109213064" id="-42944">
		<tag k="name" v="Bromlia" />
		<tag k="natural" v="slope" />
		<tag k="place" v="locality" />
		<tag k="ssr:stedsnr" v="49364" />
	</node>
	<node lat="69.989963894813" lon="21.05546107717117" id="-42945">
		<tag k="name" v="Sæterbergan" />
		<tag k="natural" v="hill" />
		<tag k="place" v="locality" />
		<tag k="ssr:stedsnr" v="49251" />
	</node>
	<node lat="70.00230278110092" lon="21.02276943199067" id="-42948">
		<tag k="name" v="Benken" />
		<tag k="natural" v="hill" />
		<tag k="place" v="locality" />
		<tag k="ssr:stedsnr" v="49418" />
	</node>
	<node lat="70.05680555458424" lon="20.991777752473883" id="-42950">
		<tag k="name" v="Sannahollet" />
		<tag k="natural" v="valley" />
		<tag k="place" v="locality" />
		<tag k="ssr:stedsnr" v="49812" />
	</node>
	<node lat="70.03558055306" lon="20.555108309080865" id="-42951">
		<tag k="name" v="Slatthallo" />
		<tag k="name:se" v="Slatthallo" />
		<tag k="natural" v="valley" />
		<tag k="place" v="locality" />
		<tag k="ssr:stedsnr" v="49817" />
	</node>
	<node lat="70.1881861128605" lon="20.547752764349678" id="-42952">
		<tag k="name" v="Breilia" />
		<tag k="natural" v="slope" />
		<tag k="place" v="locality" />
		<tag k="ssr:stedsnr" v="49925" />
	</node>
	<node lat="70.23223610822731" lon="20.693716638782362" id="-42954">
		<tag k="name" v="Hyllereika" />
		<tag k="natural" v="valley" />
		<tag k="place" v="locality" />
		<tag k="ssr:stedsnr" v="49937" />
	</node>
	<node lat="70.0509972214344" lon="20.63046664807349" id="-42956">
		<tag k="name" v="Kjergårdsmoan" />
		<tag k="place" v="locality" />
		<tag k="ssr:stedsnr" v="49846" />
	</node>
	<node lat="70.05615556050624" lon="20.44105275257912" id="-42957">
		<tag k="name" v="Revhaugen" />
		<tag k="natural" v="hill" />
		<tag k="place" v="locality" />
		<tag k="ssr:stedsnr" v="49882" />
	</node>
	<node lat="69.95939721849842" lon="20.75521386949245" id="-42958">
		<tag k="name" v="Ryggen" />
		<tag k="natural" v="ridge" />
		<tag k="place" v="locality" />
		<tag k="ssr:stedsnr" v="49883" />
	</node>
	<node lat="70.07008055288121" lon="20.38844721621144" id="-42960">
		<tag k="name" v="Storhaugen" />
		<tag k="natural" v="hill" />
		<tag k="place" v="locality" />
		<tag k="ssr:stedsnr" v="49889" />
	</node>
	<node lat="70.05037778142884" lon="20.478788873379997" id="-42961">
		<tag k="fixme" v="consider natural=peak for the most distinct mountains in the district" />
		<tag k="name" v="Bjørntinden" />
		<tag k="natural" v="hill" />
		<tag k="place" v="locality" />
		<tag k="ssr:stedsnr" v="49899" />
	</node>
	<node lat="70.13906666571891" lon="20.50140276812164" id="-42963">
		<tag k="alt_name:no" v="Høgtind" />
		<tag k="fixme" v="consider natural=peak for the most distinct mountains in the district" />
		<tag k="loc_name:se" v="Allačohkka" />
		<tag k="name" v="Høgtinden" />
		<tag k="name:no" v="Høgtinden" />
		<tag k="natural" v="hill" />
		<tag k="place" v="locality" />
		<tag k="ssr:stedsnr" v="80013" />
	</node>
	<node lat="70.16977221913785" lon="20.724594412456423" id="-42965">
		<tag k="fixme" v="consider natural=peak for the most distinct mountains in the district" />
		<tag k="name" v="Brattfjellet" />
		<tag k="natural" v="hill" />
		<tag k="place" v="locality" />
		<tag k="ssr:stedsnr" v="80025" />
	</node>
	<node lat="70.11666111470126" lon="20.6423833264237" id="-42966">
		<tag k="name" v="Isbotnen" />
		<tag k="natural" v="valley" />
		<tag k="place" v="locality" />
		<tag k="ssr:stedsnr" v="80033" />
	</node>
	<node lat="70.12908888496497" lon="20.43754721121207" id="-42967">
		<tag k="name" v="Sør-Rekvikdalen" />
		<tag k="natural" v="valley" />
		<tag k="place" v="locality" />
		<tag k="ssr:stedsnr" v="80046" />
	</node>
	<node lat="70.10203889302201" lon="20.60465277261077" id="-42970">
		<tag k="fixme" v="consider natural=peak for the most distinct mountains in the district" />
		<tag k="name" v="Lyngnestindan" />
		<tag k="natural" v="hill" />
		<tag k="place" v="locality" />
		<tag k="ssr:stedsnr" v="80036" />
	</node>
	<node lat="70.07812222190599" lon="20.852136082429578" id="-42971">
		<tag k="fixme" v="consider natural=peak for the most distinct mountains in the district" />
		<tag k="name" v="Nikkebytinden" />
		<tag k="natural" v="hill" />
		<tag k="place" v="locality" />
		<tag k="ssr:stedsnr" v="80204" />
	</node>
	<node lat="70.08742222218342" lon="20.647549973192277" id="-42972">
		<tag k="loc_name:se" v="Rudnesvuonvággi" />
		<tag k="name" v="Grunnfjorddalen" />
		<tag k="name:no" v="Grunnfjorddalen" />
		<tag k="natural" v="valley" />
		<tag k="place" v="locality" />
		<tag k="ssr:stedsnr" v="80214" />
	</node>
	<node lat="70.10172778060951" lon="20.396919417300023" id="-42974">
		<tag k="fixme" v="consider natural=peak for the most distinct mountains in the district" />
		<tag k="name" v="Breiskartinden" />
		<tag k="natural" v="hill" />
		<tag k="place" v="locality" />
		<tag k="ssr:stedsnr" v="80083" />
	</node>
	<node lat="70.0667555595458" lon="20.741505530308224" id="-42976">
		<tag k="fixme" v="consider natural=peak for the most distinct mountains in the district" />
		<tag k="name" v="Småtindan" />
		<tag k="natural" v="hill" />
		<tag k="place" v="locality" />
		<tag k="ssr:stedsnr" v="80258" />
	</node>
	<node lat="70.039138890466" lon="21.23367776399165" id="-42977">
		<tag k="fixme" v="consider natural=peak for the most distinct mountains in the district" />
		<tag k="name" v="Haukøyfjellet" />
		<tag k="natural" v="hill" />
		<tag k="place" v="locality" />
		<tag k="ssr:stedsnr" v="80331" />
	</node>
	<node lat="70.14417499836283" lon="20.767352770189177" id="-42989">
		<tag k="name" v="Halsen" />
		<tag k="natural" v="valley" />
		<tag k="place" v="locality" />
		<tag k="ssr:stedsnr" v="90273" />
	</node>
	<node lat="69.98353055337256" lon="20.95869165188394" id="-43001">
		<tag k="name" v="Småbergan" />
		<tag k="natural" v="hill" />
		<tag k="place" v="locality" />
		<tag k="ssr:stedsnr" v="109245" />
	</node>
	<node lat="69.98537777852252" lon="20.96460554301594" id="-43002">
		<tag k="name" v="Kvalbergan" />
		<tag k="natural" v="hill" />
		<tag k="place" v="locality" />
		<tag k="ssr:stedsnr" v="109250" />
	</node>
	<node lat="70.05957221857763" lon="20.400027758550323" id="-43004">
		<tag k="name" v="Nakken" />
		<tag k="natural" v="hill" />
		<tag k="place" v="locality" />
		<tag k="ssr:stedsnr" v="109978" />
	</node>
	<node lat="69.90315555708472" lon="20.66290554410788" id="-43006">
		<tag k="name" v="Hollberget" />
		<tag k="natural" v="hill" />
		<tag k="place" v="locality" />
		<tag k="ssr:stedsnr" v="109538" />
	</node>
	<node lat="70.04955555631405" lon="20.61452497855138" id="-43008">
		<tag k="name" v="Brenta" />
		<tag k="natural" v="slope" />
		<tag k="place" v="locality" />
		<tag k="ssr:stedsnr" v="109639" />
	</node>
	<node lat="70.09219722495459" lon="20.668283310952194" id="-43009">
		<tag k="name" v="Rødsanddalen" />
		<tag k="natural" v="valley" />
		<tag k="place" v="locality" />
		<tag k="ssr:stedsnr" v="109718" />
	</node>
	<node lat="70.06804167080577" lon="20.637549984680206" id="-43011">
		<tag k="name" v="Holmenkollen" />
		<tag k="natural" v="hill" />
		<tag k="place" v="locality" />
		<tag k="ssr:stedsnr" v="109738" />
	</node>
	<node lat="70.07006388918714" lon="20.606391662135998" id="-43012">
		<tag k="fixme" v="consider natural=peak for the most distinct mountains in the district" />
		<tag k="name" v="Spisstinden" />
		<tag k="natural" v="hill" />
		<tag k="place" v="locality" />
		<tag k="ssr:stedsnr" v="109742" />
	</node>
	<node lat="70.05383610985315" lon="20.659019424722764" id="-43013">
		<tag k="name" v="Tyttebærlia" />
		<tag k="natural" v="slope" />
		<tag k="place" v="locality" />
		<tag k="ssr:stedsnr" v="109829" />
	</node>
	<node lat="70.03535277954859" lon="20.549733305600423" id="-43015">
		<tag k="name" v="Kjelberget" />
		<tag k="natural" v="hill" />
		<tag k="place" v="locality" />
		<tag k="ssr:stedsnr" v="109835" />
	</node>
	<node lat="70.04787499774369" lon="20.457424976369303" id="-43016">
		<tag k="name" v="Kulia" />
		<tag k="natural" v="slope" />
		<tag k="place" v="locality" />
		<tag k="ssr:stedsnr" v="109864" />
	</node>
	<node lat="70.04718055973078" lon="20.45907220877815" id="-43017">
		<tag k="name" v="Storberget" />
		<tag k="natural" v="hill" />
		<tag k="place" v="locality" />
		<tag k="ssr:stedsnr" v="109866" />
	</node>
	<node lat="70.05241389050967" lon="20.7899694256009" id="-43018">
		<tag k="name" v="Øverbakken" />
		<tag k="natural" v="slope" />
		<tag k="place" v="locality" />
		<tag k="ssr:stedsnr" v="110085" />
	</node>
	<node lat="70.0201722215597" lon="21.086405530471747" id="-43023">
		<tag k="name" v="Skarvberget" />
		<tag k="natural" v="hill" />
		<tag k="place" v="locality" />
		<tag k="ssr:stedsnr" v="110196" />
	</node>
	<node lat="70.2030361125666" lon="20.526208307182138" id="-43024">
		<tag k="name" v="Grønnbakken" />
		<tag k="natural" v="slope" />
		<tag k="place" v="locality" />
		<tag k="ssr:stedsnr" v="110301" />
	</node>
	<node lat="70.21066388609113" lon="20.539583303050758" id="-43026">
		<tag k="fixme" v="consider natural=peak for the most distinct mountains in the district" />
		<tag k="name" v="Storfjellet" />
		<tag k="natural" v="hill" />
		<tag k="place" v="locality" />
		<tag k="ssr:stedsnr" v="110261" />
	</node>
	<node lat="69.9801444426746" lon="20.637558323740564" id="-43028">
		<tag k="name" v="Jongariidi" />
		<tag k="name:se" v="Jongariidi" />
		<tag k="place" v="locality" />
		<tag k="ssr:stedsnr" v="110556" />
	</node>
	<node lat="69.97298055386386" lon="20.638466652650646" id="-43029">
		<tag k="name" v="Gaskaland" />
		<tag k="natural" v="slope" />
		<tag k="place" v="locality" />
		<tag k="ssr:stedsnr" v="110558" />
	</node>
	<node lat="69.98006666977899" lon="20.64415275232667" id="-43030">
		<tag k="name" v="Langnesdalen" />
		<tag k="natural" v="valley" />
		<tag k="place" v="locality" />
		<tag k="ssr:stedsnr" v="110565" />
	</node>
	<node lat="70.04259444445894" lon="20.62119165601895" id="-43031">
		<tag k="name" v="Grindvollan" />
		<tag k="place" v="locality" />
		<tag k="ssr:stedsnr" v="110663" />
	</node>
	<node lat="70.17640555334371" lon="20.737688880031662" id="-43035">
		<tag k="fixme" v="consider natural=peak for the most distinct mountains in the district" />
		<tag k="name" v="Slettfjellvarden" />
		<tag k="natural" v="hill" />
		<tag k="place" v="locality" />
		<tag k="ssr:stedsnr" v="140022" />
	</node>
	<node lat="70.00600555429527" lon="20.748747190744965" id="-43036">
		<tag k="name" v="Nymodalen" />
		<tag k="natural" v="valley" />
		<tag k="place" v="locality" />
		<tag k="ssr:stedsnr" v="140127" />
	</node>
	<node lat="70.09008055306595" lon="20.88622496853188" id="-43037">
		<tag k="fixme" v="consider natural=peak for the most distinct mountains in the district" />
		<tag k="name" v="Ramnbergtinden" />
		<tag k="natural" v="hill" />
		<tag k="place" v="locality" />
		<tag k="ssr:stedsnr" v="140202" />
	</node>
	<node lat="70.14091667158523" lon="20.716872203169864" id="-43040">
		<tag k="fixme" v="consider natural=peak for the most distinct mountains in the district" />
		<tag k="name" v="Laukslettinden" />
		<tag k="natural" v="hill" />
		<tag k="place" v="locality" />
		<tag k="ssr:stedsnr" v="140051" />
	</node>
	<node lat="69.9534444468934" lon="20.935419410573733" id="-43048">
		<tag k="fixme" v="consider natural=peak for the most distinct mountains in the district" />
		<tag k="name" v="Skognestinden" />
		<tag k="natural" v="hill" />
		<tag k="place" v="locality" />
		<tag k="ssr:stedsnr" v="140560" />
	</node>
	<node lat="70.19978611015928" lon="20.53162775640016" id="-43065">
		<tag k="name" v="Einelia" />
		<tag k="natural" v="slope" />
		<tag k="place" v="locality" />
		<tag k="ssr:stedsnr" v="170327" />
	</node>
	<node lat="70.00482778100864" lon="21.03720831533035" id="-43066">
		<tag k="name" v="Kaggeberget" />
		<tag k="natural" v="hill" />
		<tag k="place" v="locality" />
		<tag k="ssr:stedsnr" v="170354" />
	</node>
	<node lat="70.05551944557224" lon="20.784605523007336" id="-43067">
		<tag k="name" v="Singelaksla" />
		<tag k="place" v="locality" />
		<tag k="ssr:stedsnr" v="169091" />
	</node>
	<node lat="70.06812777977777" lon="20.515458320828873" id="-43069">
		<tag k="name" v="Storlia" />
		<tag k="natural" v="slope" />
		<tag k="place" v="locality" />
		<tag k="ssr:stedsnr" v="169099" />
	</node>
	<node lat="70.04724999607812" lon="20.605116649736914" id="-43074">
		<tag k="name" v="Sør-Kjedalskulen" />
		<tag k="natural" v="hill" />
		<tag k="place" v="locality" />
		<tag k="ssr:stedsnr" v="169666" />
	</node>
	<node lat="70.08956944685188" lon="20.80072221352633" id="-43077">
		<tag k="name" v="Bjørndalen" />
		<tag k="natural" v="valley" />
		<tag k="place" v="locality" />
		<tag k="ssr:stedsnr" v="170053" />
	</node>
	<node lat="70.12072222516628" lon="20.739869433283154" id="-43079">
		<tag k="name" v="Dalbakkan" />
		<tag k="natural" v="slope" />
		<tag k="place" v="locality" />
		<tag k="ssr:stedsnr" v="170199" />
	</node>
	<node lat="69.97923611468116" lon="20.96301942253787" id="-43082">
		<tag k="alt_name" v="Middagshompen" />
		<tag k="name" v="Middagshumpen" />
		<tag k="natural" v="hill" />
		<tag k="place" v="locality" />
		<tag k="ssr:stedsnr" v="170286" />
	</node>
	<node lat="69.97202777907395" lon="20.88323609543327" id="-43083">
		<tag k="fixme" v="consider natural=peak for the most distinct mountains in the district" />
		<tag k="name" v="Møllnesfjellet" />
		<tag k="natural" v="hill" />
		<tag k="place" v="locality" />
		<tag k="ssr:stedsnr" v="170292" />
	</node>
	<node lat="70.17210000419819" lon="20.52049721014086" id="-43086">
		<tag k="name" v="Dollarhaugen" />
		<tag k="natural" v="hill" />
		<tag k="place" v="locality" />
		<tag k="ssr:stedsnr" v="170298" />
	</node>
	<node lat="70.04462777753133" lon="20.98348607914139" id="-43088">
		<tag k="name" v="Premiebakken" />
		<tag k="natural" v="slope" />
		<tag k="place" v="locality" />
		<tag k="ssr:stedsnr" v="170145" />
	</node>
	<node lat="70.16688055955711" lon="20.54013610830196" id="-43091">
		<tag k="name" v="Svarttindfloget" />
		<tag k="natural" v="cliff" />
		<tag k="ssr:stedsnr" v="170239" />
	</node>
	<node lat="70.180247219365" lon="20.49623332480003" id="-43093">
		<tag k="name" v="Akslan" />
		<tag k="place" v="locality" />
		<tag k="ssr:stedsnr" v="170244" />
	</node>
	<node lat="70.16559929181035" lon="20.74856555918142" id="-43094">
		<tag k="name" v="Øverdalen" />
		<tag k="natural" v="valley" />
		<tag k="place" v="locality" />
		<tag k="ssr:stedsnr" v="170245" />
	</node>
	<node lat="69.97423610843968" lon="20.65212774486846" id="-43095">
		<tag k="name" v="Monseberget" />
		<tag k="natural" v="hill" />
		<tag k="place" v="locality" />
		<tag k="ssr:stedsnr" v="170523" />
	</node>
	<node lat="69.98931110950318" lon="20.63407220412992" id="-43096">
		<tag k="name" v="Haugen" />
		<tag k="natural" v="hill" />
		<tag k="place" v="locality" />
		<tag k="ssr:stedsnr" v="170529" />
	</node>
	<node lat="69.97886667158683" lon="20.644330528807334" id="-43097">
		<tag k="fixme" v="consider natural=peak for the most distinct mountains in the district" />
		<tag k="name" v="Reinfjellet" />
		<tag k="natural" v="hill" />
		<tag k="place" v="locality" />
		<tag k="ssr:stedsnr" v="170531" />
	</node>
	<node lat="70.04887777912752" lon="20.550019435042667" id="-43099">
		<tag k="name" v="Toftebergan" />
		<tag k="natural" v="hill" />
		<tag k="place" v="locality" />
		<tag k="ssr:stedsnr" v="170687" />
	</node>
	<node lat="70.04088889006113" lon="20.56179443867427" id="-43100">
		<tag k="fixme" v="consider natural=peak for the most distinct mountains in the district" />
		<tag k="name" v="Faueltinden" />
		<tag k="natural" v="hill" />
		<tag k="place" v="locality" />
		<tag k="ssr:stedsnr" v="170695" />
	</node>
	<node lat="70.09132500247229" lon="20.556202765156975" id="-43103">
		<tag k="name" v="Lyngnesvollen" />
		<tag k="place" v="locality" />
		<tag k="ssr:stedsnr" v="170817" />
	</node>
	<node lat="70.0331527796373" lon="20.57428887223238" id="-43104">
		<tag k="name" v="Sjåbergan" />
		<tag k="natural" v="hill" />
		<tag k="place" v="locality" />
		<tag k="ssr:stedsnr" v="170841" />
	</node>
	<node lat="69.94564722711492" lon="20.883513868855967" id="-43108">
		<tag k="fixme" v="consider natural=peak for the most distinct mountains in the district" />
		<tag k="name" v="Kågfjellet" />
		<tag k="natural" v="hill" />
		<tag k="place" v="locality" />
		<tag k="ssr:stedsnr" v="171150" />
	</node>
	<node lat="69.9357083391493" lon="20.8168916369441" id="-43110">
		<tag k="fixme" v="consider natural=peak for the most distinct mountains in the district" />
		<tag k="name" v="Novefjellet" />
		<tag k="natural" v="hill" />
		<tag k="place" v="locality" />
		<tag k="ssr:stedsnr" v="170915" />
	</node>
	<node lat="69.98734167123821" lon="20.855291650215158" id="-43118">
		<tag k="name" v="Storbuktdalen" />
		<tag k="natural" v="valley" />
		<tag k="place" v="locality" />
		<tag k="ssr:stedsnr" v="201562" />
	</node>
	<node lat="70.09048333419459" lon="20.41331665971286" id="-43121">
		<tag k="fixme" v="consider natural=peak for the most distinct mountains in the district" />
		<tag k="name" v="Trolldalstinden" />
		<tag k="natural" v="hill" />
		<tag k="place" v="locality" />
		<tag k="ssr:stedsnr" v="201072" />
	</node>
	<node lat="70.0785388890321" lon="20.692669434304463" id="-43129">
		<tag k="name" v="Smellskaret" />
		<tag k="natural" v="valley" />
		<tag k="place" v="locality" />
		<tag k="ssr:stedsnr" v="201178" />
	</node>
	<node lat="70.06805833602093" lon="20.4479888792332" id="-43130">
		<tag k="loc_name:se" v="Cirguriehppi" />
		<tag k="name" v="Trollhola" />
		<tag k="name:no" v="Trollhola" />
		<tag k="natural" v="valley" />
		<tag k="place" v="locality" />
		<tag k="ssr:stedsnr" v="201182" />
	</node>
	<node lat="70.06739999895171" lon="20.60028610047139" id="-43131">
		<tag k="fixme" v="consider natural=peak for the most distinct mountains in the district" />
		<tag k="name" v="Svarthamartinden" />
		<tag k="natural" v="hill" />
		<tag k="place" v="locality" />
		<tag k="ssr:stedsnr" v="201185" />
	</node>
	<node lat="70.07857222106013" lon="20.524049978918143" id="-43132">
		<tag k="fixme" v="consider natural=peak for the most distinct mountains in the district" />
		<tag k="name" v="Sandnestinden" />
		<tag k="natural" v="hill" />
		<tag k="place" v="locality" />
		<tag k="ssr:stedsnr" v="201186" />
	</node>
	<node lat="70.04606944596928" lon="20.57398886283546" id="-43133">
		<tag k="fixme" v="consider natural=peak for the most distinct mountains in the district" />
		<tag k="loc_name:se" v="Hovvanášvárri" />
		<tag k="name" v="Langfjordfjellet" />
		<tag k="name:no" v="Langfjordfjellet" />
		<tag k="natural" v="hill" />
		<tag k="place" v="locality" />
		<tag k="ssr:stedsnr" v="201212" />
	</node>
	<node lat="69.96534444905744" lon="20.636452765323877" id="-43143">
		<tag k="name" v="Djupdalen" />
		<tag k="natural" v="valley" />
		<tag k="place" v="locality" />
		<tag k="ssr:stedsnr" v="201582" />
	</node>
	<node lat="69.99878889144766" lon="20.87552220801399" id="-43146">
		<tag k="name" v="Storbukthaugen" />
		<tag k="natural" v="hill" />
		<tag k="place" v="locality" />
		<tag k="ssr:stedsnr" v="201624" />
	</node>
	<node lat="70.21271111617945" lon="20.635019417333275" id="-43149">
		<tag k="name" v="Rekvikaksla" />
		<tag k="place" v="locality" />
		<tag k="ssr:stedsnr" v="206245" />
	</node>
	<node lat="70.17426666934323" lon="20.42451941726269" id="-43159">
		<tag k="name" v="Bergebakken" />
		<tag k="natural" v="slope" />
		<tag k="place" v="locality" />
		<tag k="ssr:stedsnr" v="291178" />
	</node>
	<node lat="70.09165277835291" lon="20.92116665685402" id="-43160">
		<tag k="name" v="Laberget" />
		<tag k="natural" v="hill" />
		<tag k="place" v="locality" />
		<tag k="ssr:stedsnr" v="291181" />
	</node>
	<node lat="70.17913610932388" lon="20.496024985503425" id="-43161">
		<tag k="name" v="Haugan" />
		<tag k="natural" v="hill" />
		<tag k="place" v="locality" />
		<tag k="ssr:stedsnr" v="291183" />
	</node>
	<node lat="70.13384167028562" lon="20.72802498803874" id="-43165">
		<tag k="name" v="Andreadalen" />
		<tag k="natural" v="valley" />
		<tag k="place" v="locality" />
		<tag k="ssr:stedsnr" v="291218" />
	</node>
	<node lat="70.0390416724204" lon="20.991811078311056" id="-43167">
		<tag k="name" v="Engnesdalen" />
		<tag k="natural" v="valley" />
		<tag k="place" v="locality" />
		<tag k="ssr:stedsnr" v="291140" />
	</node>
	<node lat="70.16447500176561" lon="20.77319999439453" id="-43170">
		<tag k="name" v="Finnsletta" />
		<tag k="place" v="locality" />
		<tag k="ssr:stedsnr" v="291154" />
	</node>
	<node lat="70.02857222006935" lon="20.95233330727563" id="-43172">
		<tag k="name" v="Spellemannsdalen" />
		<tag k="natural" v="valley" />
		<tag k="place" v="locality" />
		<tag k="ssr:stedsnr" v="291158" />
	</node>
	<node lat="70.02852222383405" lon="20.98313052822749" id="-43173">
		<tag k="name" v="Sandvåghaugen" />
		<tag k="natural" v="hill" />
		<tag k="place" v="locality" />
		<tag k="ssr:stedsnr" v="291168" />
	</node>
	<node lat="70.18603333141763" lon="20.496991649499833" id="-43175">
		<tag k="name" v="Skattemagen" />
		<tag k="natural" v="slope" />
		<tag k="place" v="locality" />
		<tag k="ssr:stedsnr" v="291237" />
	</node>
	<node lat="70.18072500400903" lon="20.798311083512104" id="-43176">
		<tag k="name" v="Bjørnlia" />
		<tag k="natural" v="slope" />
		<tag k="place" v="locality" />
		<tag k="ssr:stedsnr" v="291246" />
	</node>
	<node lat="70.20776110795568" lon="20.52006666031265" id="-43178">
		<tag k="name" v="Novlia" />
		<tag k="natural" v="slope" />
		<tag k="place" v="locality" />
		<tag k="ssr:stedsnr" v="291318" />
	</node>
	<node lat="69.86489999859974" lon="20.557341635250598" id="-43179">
		<tag k="name" v="Kirka" />
		<tag k="natural" v="hill" />
		<tag k="place" v="locality" />
		<tag k="ssr:stedsnr" v="291336" />
	</node>
	<node lat="69.87405833425338" lon="20.615897214124292" id="-43180">
		<tag k="name" v="Krangelhaugen" />
		<tag k="natural" v="hill" />
		<tag k="place" v="locality" />
		<tag k="ssr:stedsnr" v="291337" />
	</node>
	<node lat="69.92499166692956" lon="20.67278609829169" id="-43182">
		<tag k="name" v="Sleipskorra" />
		<tag k="natural" v="valley" />
		<tag k="place" v="locality" />
		<tag k="ssr:stedsnr" v="291370" />
	</node>
	<node lat="69.91753333124655" lon="20.665283302815116" id="-43183">
		<tag k="name" v="Hellarhaugen" />
		<tag k="natural" v="hill" />
		<tag k="place" v="locality" />
		<tag k="ssr:stedsnr" v="291371" />
	</node>
	<node lat="69.99851111262375" lon="21.003877747883454" id="-43184">
		<tag k="name" v="Skarvberget" />
		<tag k="natural" v="hill" />
		<tag k="place" v="locality" />
		<tag k="ssr:stedsnr" v="291373" />
	</node>
	<node lat="69.99818610696622" lon="21.021191650838304" id="-43186">
		<tag k="name" v="Simavågberget" />
		<tag k="natural" v="hill" />
		<tag k="place" v="locality" />
		<tag k="ssr:stedsnr" v="291396" />
	</node>
	<node lat="69.90304444201779" lon="20.696413855112112" id="-43187">
		<tag k="name" v="Skaret" />
		<tag k="natural" v="valley" />
		<tag k="place" v="locality" />
		<tag k="ssr:stedsnr" v="291589" />
	</node>
	<node lat="69.95254721973706" lon="20.666866634131893" id="-43188">
		<tag k="name" v="Bøtthaugtua" />
		<tag k="natural" v="hill" />
		<tag k="place" v="locality" />
		<tag k="ssr:stedsnr" v="291571" />
	</node>
	<node lat="70.05697500497374" lon="20.61554442644166" id="-43189">
		<tag k="name" v="Inner-Kjedalsbakken" />
		<tag k="natural" v="slope" />
		<tag k="place" v="locality" />
		<tag k="ssr:stedsnr" v="291674" />
	</node>
	<node lat="70.04969166296392" lon="20.97190275833288" id="-43192">
		<tag k="name" v="Kjerringa" />
		<tag k="natural" v="slope" />
		<tag k="place" v="locality" />
		<tag k="ssr:stedsnr" v="291816" />
	</node>
	<node lat="70.04835555500425" lon="20.96956663025753" id="-43193">
		<tag k="name" v="Mannen" />
		<tag k="natural" v="hill" />
		<tag k="place" v="locality" />
		<tag k="ssr:stedsnr" v="291818" />
	</node>
	<node lat="69.92617222606809" lon="20.823449971345223" id="-43195">
		<tag k="name" v="Rebekkas fryd" />
		<tag k="natural" v="hill" />
		<tag k="place" v="locality" />
		<tag k="ssr:stedsnr" v="291883" />
	</node>
	<node lat="69.93053611394446" lon="20.84782498604778" id="-43198">
		<tag k="name" v="Maursunddalen" />
		<tag k="natural" v="valley" />
		<tag k="place" v="locality" />
		<tag k="ssr:stedsnr" v="291889" />
	</node>
	<node lat="70.05262777640914" lon="20.48503609213123" id="-43199">
		<tag k="name" v="Elseskaret" />
		<tag k="natural" v="valley" />
		<tag k="place" v="locality" />
		<tag k="ssr:stedsnr" v="291901" />
	</node>
	<node lat="70.04641666894962" lon="20.464683307412027" id="-43201">
		<tag k="name" v="Slåka" />
		<tag k="natural" v="valley" />
		<tag k="place" v="locality" />
		<tag k="ssr:stedsnr" v="291905" />
	</node>
	<node lat="70.17266110720055" lon="20.5460833266859" id="-43202">
		<tag k="name" v="Svarttindbakken" />
		<tag k="natural" v="slope" />
		<tag k="place" v="locality" />
		<tag k="ssr:stedsnr" v="291909" />
	</node>
	<node lat="70.22503888553425" lon="20.69978331936045" id="-43205">
		<tag k="name" v="Skaret" />
		<tag k="natural" v="valley" />
		<tag k="place" v="locality" />
		<tag k="ssr:stedsnr" v="291923" />
	</node>
	<node lat="70.05260000325978" lon="20.99587776933408" id="-43206">
		<tag k="name" v="Torvhaugen" />
		<tag k="natural" v="hill" />
		<tag k="place" v="locality" />
		<tag k="ssr:stedsnr" v="291836" />
	</node>
	<node lat="70.0509055593602" lon="20.680497214472133" id="-43208">
		<tag k="name" v="Loftaksla" />
		<tag k="place" v="locality" />
		<tag k="ssr:stedsnr" v="291852" />
	</node>
	<node lat="70.05005833237324" lon="20.66367776021334" id="-43210">
		<tag k="name" v="Draugneslia" />
		<tag k="natural" v="slope" />
		<tag k="place" v="locality" />
		<tag k="ssr:stedsnr" v="291864" />
	</node>
	<node lat="70.06967777484402" lon="20.455280544599493" id="-43212">
		<tag k="name" v="Trolltindholla" />
		<tag k="natural" v="valley" />
		<tag k="place" v="locality" />
		<tag k="ssr:stedsnr" v="291970" />
	</node>
	<node lat="70.05160833748363" lon="20.74291388371739" id="-43213">
		<tag k="name" v="Svartflogan" />
		<tag k="place" v="locality" />
		<tag k="ssr:stedsnr" v="292102" />
	</node>
	<node lat="69.9763444452176" lon="20.63016386558198" id="-43215">
		<tag k="name" v="Mellaberget" />
		<tag k="natural" v="hill" />
		<tag k="place" v="locality" />
		<tag k="ssr:stedsnr" v="292536" />
	</node>
	<node lat="69.98352500207261" lon="20.620363884668187" id="-43216">
		<tag k="name" v="Omnsholla" />
		<tag k="natural" v="hill" />
		<tag k="place" v="locality" />
		<tag k="ssr:stedsnr" v="292548" />
	</node>
	<node lat="70.04600832967654" lon="20.607108319940625" id="-43217">
		<tag k="name" v="Ørnhammaran" />
		<tag k="natural" v="hill" />
		<tag k="place" v="locality" />
		<tag k="ssr:stedsnr" v="292649" />
	</node>
	<node lat="70.0498250027967" lon="20.553202756410325" id="-43218">
		<tag k="name" v="Tofteryggen" />
		<tag k="natural" v="ridge" />
		<tag k="place" v="locality" />
		<tag k="ssr:stedsnr" v="292670" />
	</node>
	<node lat="70.06220278134361" lon="20.40365553278245" id="-43220">
		<tag k="fixme" v="consider natural=peak for the most distinct mountains in the district" />
		<tag k="name" v="Revfjellet" />
		<tag k="natural" v="hill" />
		<tag k="place" v="locality" />
		<tag k="ssr:stedsnr" v="322081" />
	</node>
	<node lat="70.17212500038005" lon="20.474399975989623" id="-43223">
		<tag k="name" v="Rundhaugen" />
		<tag k="natural" v="hill" />
		<tag k="place" v="locality" />
		<tag k="ssr:stedsnr" v="322019" />
	</node>
	<node lat="70.05026667026443" lon="20.479011099143015" id="-43228">
		<tag k="name" v="Oksehaugen" />
		<tag k="natural" v="hill" />
		<tag k="place" v="locality" />
		<tag k="ssr:stedsnr" v="322219" />
	</node>
	<node lat="69.94663333760074" lon="20.85941665420555" id="-43231">
		<tag k="fixme" v="consider natural=peak for the most distinct mountains in the district" />
		<tag k="name" v="Maursundtinden" />
		<tag k="natural" v="hill" />
		<tag k="place" v="locality" />
		<tag k="ssr:stedsnr" v="322565" />
	</node>
	<node lat="70.10543610829792" lon="20.48750274806908" id="-43239">
		<tag k="fixme" v="consider natural=peak for the most distinct mountains in the district" />
		<tag k="name" v="Høgtindan" />
		<tag k="natural" v="hill" />
		<tag k="place" v="locality" />
		<tag k="ssr:stedsnr" v="323047" />
	</node>
	<node lat="69.98348888795577" lon="21.02588886369967" id="-43264">
		<tag k="fixme" v="multiple name tags, choose one and add the other to alt_name" />
		<tag k="name" v="Hagebergan;Hakkebergan" />
		<tag k="natural" v="hill" />
		<tag k="place" v="locality" />
		<tag k="ssr:stedsnr" v="349932" />
	</node>
	<node lat="70.07099166477443" lon="20.497094430852187" id="-43269">
		<tag k="name" v="Nordsida" />
		<tag k="place" v="locality" />
		<tag k="ssr:stedsnr" v="351117" />
	</node>
	<node lat="69.85408889442715" lon="20.69433886315692" id="-43270">
		<tag k="name" v="Mettenga" />
		<tag k="place" v="locality" />
		<tag k="ssr:stedsnr" v="351346" />
	</node>
	<node lat="69.89181388923214" lon="20.616016647847697" id="-43272">
		<tag k="name" v="Storvikdalen" />
		<tag k="natural" v="valley" />
		<tag k="place" v="locality" />
		<tag k="ssr:stedsnr" v="351574" />
	</node>
	<node lat="70.05336666241757" lon="20.79846943020432" id="-43273">
		<tag k="name" v="Oppsettarberget" />
		<tag k="natural" v="hill" />
		<tag k="place" v="locality" />
		<tag k="ssr:stedsnr" v="352027" />
	</node>
	<node lat="70.13545555530706" lon="20.753238856620047" id="-43274">
		<tag k="name" v="Storbakken" />
		<tag k="natural" v="slope" />
		<tag k="place" v="locality" />
		<tag k="ssr:stedsnr" v="352030" />
	</node>
	<node lat="70.07009444197148" lon="20.858869414371654" id="-43275">
		<tag k="fixme" v="consider natural=peak for the most distinct mountains in the district" />
		<tag k="name" v="Finnkeilfjellet" />
		<tag k="natural" v="hill" />
		<tag k="place" v="locality" />
		<tag k="ssr:stedsnr" v="352036" />
	</node>
	<node lat="70.0406833328569" lon="20.986244412442964" id="-43280">
		<tag k="name" v="Holmenkollen" />
		<tag k="natural" v="hill" />
		<tag k="place" v="locality" />
		<tag k="ssr:stedsnr" v="352133" />
	</node>
	<node lat="69.985947228013" lon="20.985680525111025" id="-43281">
		<tag k="fixme" v="consider natural=peak for the most distinct mountains in the district" />
		<tag k="name" v="Brunfjellet" />
		<tag k="natural" v="hill" />
		<tag k="place" v="locality" />
		<tag k="ssr:stedsnr" v="352243" />
	</node>
	<node lat="70.18765555780357" lon="20.48328610132463" id="-43284">
		<tag k="name" v="Kvitstein" />
		<tag k="natural" v="hill" />
		<tag k="place" v="locality" />
		<tag k="ssr:stedsnr" v="352298" />
	</node>
	<node lat="70.11663055300235" lon="20.73855275423785" id="-43285">
		<tag k="name" v="Ormebakkan" />
		<tag k="natural" v="slope" />
		<tag k="place" v="locality" />
		<tag k="ssr:stedsnr" v="352171" />
	</node>
	<node lat="70.22294166752516" lon="20.587452764670285" id="-43291">
		<tag k="name" v="Rotvågdalen" />
		<tag k="natural" v="valley" />
		<tag k="place" v="locality" />
		<tag k="ssr:stedsnr" v="352906" />
	</node>
	<node lat="69.97263055959905" lon="20.647786085422585" id="-43295">
		<tag k="name" v="Laigurra" />
		<tag k="name:se" v="Laigurra" />
		<tag k="natural" v="valley" />
		<tag k="place" v="locality" />
		<tag k="ssr:stedsnr" v="352522" />
	</node>
	<node lat="69.98920555893355" lon="20.627266652251055" id="-43298">
		<tag k="name" v="Mellaberget" />
		<tag k="natural" v="hill" />
		<tag k="place" v="locality" />
		<tag k="ssr:stedsnr" v="352551" />
	</node>
	<node lat="70.00353055262269" lon="21.027224976526128" id="-43302">
		<tag k="name" v="Preikestolen" />
		<tag k="natural" v="hill" />
		<tag k="place" v="locality" />
		<tag k="ssr:stedsnr" v="352318" />
	</node>
	<node lat="69.9767222235826" lon="20.75335275524297" id="-43304">
		<tag k="name" v="Lia" />
		<tag k="natural" v="slope" />
		<tag k="place" v="locality" />
		<tag k="ssr:stedsnr" v="352350" />
	</node>
	<node lat="70.04754166549515" lon="20.75016387797545" id="-43305">
		<tag k="name" v="Jonnemarjasletta" />
		<tag k="place" v="locality" />
		<tag k="ssr:stedsnr" v="352351" />
	</node>
	<node lat="69.9883694460646" lon="21.00628329797664" id="-43306">
		<tag k="name" v="Einehaugen" />
		<tag k="natural" v="hill" />
		<tag k="place" v="locality" />
		<tag k="ssr:stedsnr" v="352462" />
	</node>
	<node lat="69.94087778003406" lon="20.660624970380173" id="-43308">
		<tag k="name" v="Fjøsbakken" />
		<tag k="natural" v="slope" />
		<tag k="place" v="locality" />
		<tag k="ssr:stedsnr" v="352556" />
	</node>
	<node lat="70.04281944249028" lon="20.547916653704778" id="-43314">
		<tag k="name" v="Teistefloget" />
		<tag k="natural" v="hill" />
		<tag k="place" v="locality" />
		<tag k="ssr:stedsnr" v="352643" />
	</node>
	<node lat="70.04657777452557" lon="20.68657776715833" id="-43316">
		<tag k="name" v="Preikestolen" />
		<tag k="natural" v="hill" />
		<tag k="place" v="locality" />
		<tag k="ssr:stedsnr" v="352836" />
	</node>
	<node lat="70.03577500144213" lon="20.550222206396672" id="-43317">
		<tag k="name" v="Oddebergan" />
		<tag k="natural" v="hill" />
		<tag k="place" v="locality" />
		<tag k="ssr:stedsnr" v="352850" />
	</node>
	<node lat="69.93028333576954" lon="20.799783306538078" id="-43320">
		<tag k="name" v="Novebergan" />
		<tag k="natural" v="hill" />
		<tag k="place" v="locality" />
		<tag k="ssr:stedsnr" v="352877" />
	</node>
	<node lat="70.04696944075839" lon="20.481605537400966" id="-43322">
		<tag k="name" v="Leirholla" />
		<tag k="natural" v="valley" />
		<tag k="place" v="locality" />
		<tag k="ssr:stedsnr" v="352883" />
	</node>
	<node lat="70.13806110847497" lon="20.454113865594945" id="-43329">
		<tag k="fixme" v="multiple name tags, choose one and add the other to alt_name; consider natural=peak for the most distinct mountains in the district" />
		<tag k="name" v="Klovsteinfjellet;Luten" />
		<tag k="natural" v="hill" />
		<tag k="place" v="locality" />
		<tag k="ssr:stedsnr" v="383016" />
	</node>
	<node lat="70.15009722662435" lon="20.66155831022419" id="-43330">
		<tag k="fixme" v="consider natural=peak for the most distinct mountains in the district" />
		<tag k="name" v="Silstøaksla" />
		<tag k="natural" v="hill" />
		<tag k="place" v="locality" />
		<tag k="ssr:stedsnr" v="383019" />
	</node>
	<node lat="70.11050555579274" lon="20.628655535680746" id="-43332">
		<tag k="fixme" v="consider natural=peak for the most distinct mountains in the district" />
		<tag k="name" v="Fosstinden" />
		<tag k="natural" v="hill" />
		<tag k="place" v="locality" />
		<tag k="ssr:stedsnr" v="383049" />
	</node>
	<node lat="70.13035555354674" lon="20.491702769276475" id="-43333">
		<tag k="fixme" v="consider natural=peak for the most distinct mountains in the district" />
		<tag k="name" v="Dalbakktinden" />
		<tag k="natural" v="hill" />
		<tag k="place" v="locality" />
		<tag k="ssr:stedsnr" v="383051" />
	</node>
	<node lat="70.06061388772677" lon="20.67788054677133" id="-43340">
		<tag k="fixme" v="consider natural=peak for the most distinct mountains in the district" />
		<tag k="name" v="Botnfjellet" />
		<tag k="natural" v="hill" />
		<tag k="place" v="locality" />
		<tag k="ssr:stedsnr" v="383271" />
	</node>
	<node lat="69.8426944478763" lon="20.69673887958792" id="-43345">
		<tag k="fixme" v="consider natural=peak for the most distinct mountains in the district" />
		<tag k="name" v="Skrednesfjellet" />
		<tag k="natural" v="hill" />
		<tag k="place" v="locality" />
		<tag k="ssr:stedsnr" v="383994" />
	</node>
	<node lat="69.9655361081207" lon="20.655230546980917" id="-43357">
		<tag k="name" v="Storflagda" />
		<tag k="natural" v="hill" />
		<tag k="place" v="locality" />
		<tag k="ssr:stedsnr" v="412526" />
	</node>
	<node lat="70.06468611128818" lon="20.489705525787794" id="-43359">
		<tag k="name" v="Hamnebakken" />
		<tag k="natural" v="slope" />
		<tag k="place" v="locality" />
		<tag k="ssr:stedsnr" v="412082" />
	</node>
	<node lat="70.05935555565526" lon="20.464561102049593" id="-43362">
		<tag k="name" v="Rundhaugen" />
		<tag k="natural" v="hill" />
		<tag k="place" v="locality" />
		<tag k="ssr:stedsnr" v="413012" />
	</node>
	<node lat="70.00171666472737" lon="21.036155542005652" id="-43364">
		<tag k="name" v="Storberget" />
		<tag k="natural" v="hill" />
		<tag k="place" v="locality" />
		<tag k="ssr:stedsnr" v="413387" />
	</node>
	<node lat="70.14211666643253" lon="20.744322190193778" id="-43365">
		<tag k="fixme" v="consider natural=peak for the most distinct mountains in the district" />
		<tag k="name" v="Lillefjellet" />
		<tag k="natural" v="hill" />
		<tag k="place" v="locality" />
		<tag k="ssr:stedsnr" v="413030" />
	</node>
	<node lat="70.11349166982045" lon="20.783424989833676" id="-43368">
		<tag k="fixme" v="consider natural=peak for the most distinct mountains in the district" />
		<tag k="name" v="Blåhammaren" />
		<tag k="natural" v="hill" />
		<tag k="place" v="locality" />
		<tag k="ssr:stedsnr" v="413214" />
	</node>
	<node lat="70.11735000377959" lon="20.884894434854232" id="-43369">
		<tag k="name" v="Kveitvikdalen" />
		<tag k="natural" v="valley" />
		<tag k="place" v="locality" />
		<tag k="ssr:stedsnr" v="413217" />
	</node>
	<node lat="70.12636111115816" lon="20.73914165953264" id="-43370">
		<tag k="name" v="Svarthammaren" />
		<tag k="natural" v="hill" />
		<tag k="place" v="locality" />
		<tag k="ssr:stedsnr" v="413225" />
	</node>
	<node lat="70.16258888858755" lon="20.772427757167183" id="-43372">
		<tag k="name" v="Langryggen" />
		<tag k="natural" v="ridge" />
		<tag k="place" v="locality" />
		<tag k="ssr:stedsnr" v="413159" />
	</node>
	<node lat="70.02748611066252" lon="20.952336083597356" id="-43373">
		<tag k="fixme" v="consider natural=peak for the most distinct mountains in the district" />
		<tag k="name" v="Gjøkfjellet" />
		<tag k="natural" v="hill" />
		<tag k="place" v="locality" />
		<tag k="ssr:stedsnr" v="413160" />
	</node>
	<node lat="69.97500277813563" lon="20.95478329828563" id="-43376">
		<tag k="name" v="Rødnakken" />
		<tag k="place" v="locality" />
		<tag k="ssr:stedsnr" v="413277" />
	</node>
	<node lat="69.97847777690585" lon="20.943758316691692" id="-43377">
		<tag k="name" v="Bottensletta" />
		<tag k="place" v="locality" />
		<tag k="ssr:stedsnr" v="413278" />
	</node>
	<node lat="69.93785277368589" lon="20.655111096205165" id="-43379">
		<tag k="name" v="Brattberget" />
		<tag k="natural" v="hill" />
		<tag k="place" v="locality" />
		<tag k="ssr:stedsnr" v="413578" />
	</node>
	<node lat="69.95046388875225" lon="20.949674983367704" id="-43381">
		<tag k="name" v="Jaunaplassen" />
		<tag k="place" v="locality" />
		<tag k="ssr:stedsnr" v="413374" />
	</node>
	<node lat="70.0508916691036" lon="20.556672198967362" id="-43383">
		<tag k="name" v="Bjørnholla" />
		<tag k="natural" v="valley" />
		<tag k="place" v="locality" />
		<tag k="ssr:stedsnr" v="413697" />
	</node>
	<node lat="70.07984444718166" lon="20.577513868150206" id="-43384">
		<tag k="name" v="Storlia" />
		<tag k="natural" v="slope" />
		<tag k="place" v="locality" />
		<tag k="ssr:stedsnr" v="413809" />
	</node>
	<node lat="70.05484999702055" lon="20.97289163517359" id="-43385">
		<tag k="name" v="Langlia" />
		<tag k="natural" v="slope" />
		<tag k="place" v="locality" />
		<tag k="ssr:stedsnr" v="413825" />
	</node>
	<node lat="70.04788611327737" lon="20.696744414790288" id="-43388">
		<tag k="name" v="Dalbakken" />
		<tag k="natural" v="slope" />
		<tag k="place" v="locality" />
		<tag k="ssr:stedsnr" v="413863" />
	</node>
	<node lat="70.22947222668206" lon="20.697863873423497" id="-43390">
		<tag k="name" v="Odinreika" />
		<tag k="natural" v="hill" />
		<tag k="place" v="locality" />
		<tag k="ssr:stedsnr" v="413933" />
	</node>
	<node lat="70.05746667077113" lon="20.659222208189753" id="-43392">
		<tag k="name" v="Grindfaren" />
		<tag k="natural" v="slope" />
		<tag k="place" v="locality" />
		<tag k="ssr:stedsnr" v="413875" />
	</node>
	<node lat="70.03509166883475" lon="20.57060275081009" id="-43393">
		<tag k="name" v="Halsebakken" />
		<tag k="natural" v="slope" />
		<tag k="place" v="locality" />
		<tag k="ssr:stedsnr" v="413877" />
	</node>
	<node lat="70.1874555588681" lon="20.668897211412098" id="-43394">
		<tag k="fixme" v="consider natural=peak for the most distinct mountains in the district" />
		<tag k="name" v="Svarttind" />
		<tag k="natural" v="hill" />
		<tag k="place" v="locality" />
		<tag k="ssr:stedsnr" v="413938" />
	</node>
	<node lat="70.01173333467584" lon="20.7642971954627" id="-43397">
		<tag k="fixme" v="consider natural=peak for the most distinct mountains in the district" />
		<tag k="name" v="Kågtindan" />
		<tag k="natural" v="hill" />
		<tag k="place" v="locality" />
		<tag k="ssr:stedsnr" v="444144" />
	</node>
	<node lat="70.1531361117146" lon="20.70054996939195" id="-43400">
		<tag k="fixme" v="consider natural=peak for the most distinct mountains in the district" />
		<tag k="name" v="Arnøyhøgda" />
		<tag k="natural" v="hill" />
		<tag k="place" v="locality" />
		<tag k="ssr:stedsnr" v="444001" />
	</node>
	<node lat="70.12997222193289" lon="20.64503608852695" id="-43406">
		<tag k="fixme" v="consider natural=peak for the most distinct mountains in the district" />
		<tag k="name" v="Sukkertoppen" />
		<tag k="natural" v="hill" />
		<tag k="place" v="locality" />
		<tag k="ssr:stedsnr" v="444056" />
	</node>
	<node lat="70.1024194502151" lon="20.896191635568606" id="-43407">
		<tag k="name" v="Novedalen" />
		<tag k="natural" v="valley" />
		<tag k="place" v="locality" />
		<tag k="ssr:stedsnr" v="444191" />
	</node>
	<node lat="70.09481389284564" lon="20.47938609521609" id="-43408">
		<tag k="name" v="Akkarvikdalen" />
		<tag k="natural" v="valley" />
		<tag k="place" v="locality" />
		<tag k="ssr:stedsnr" v="444194" />
	</node>
	<node lat="70.07805277386899" lon="20.457441660447532" id="-43412">
		<tag k="fixme" v="consider natural=peak for the most distinct mountains in the district" />
		<tag k="name" v="Røstet" />
		<tag k="natural" v="hill" />
		<tag k="place" v="locality" />
		<tag k="ssr:stedsnr" v="444176" />
	</node>
	<node lat="69.87321389002956" lon="20.587069438890335" id="-43415">
		<tag k="fixme" v="consider natural=peak for the most distinct mountains in the district" />
		<tag k="name" v="Svarttinden" />
		<tag k="natural" v="hill" />
		<tag k="place" v="locality" />
		<tag k="ssr:stedsnr" v="444500" />
	</node>
	<node lat="70.09379444430292" lon="20.49631666316201" id="-43431">
		<tag k="fixme" v="consider natural=peak for the most distinct mountains in the district" />
		<tag k="loc_name:se" v="Girku" />
		<tag k="name" v="Finnkjerka" />
		<tag k="name:no" v="Finnkjerka" />
		<tag k="natural" v="hill" />
		<tag k="place" v="locality" />
		<tag k="ssr:stedsnr" v="504194" />
	</node>
	<node lat="70.05109444739266" lon="20.59189997519969" id="-43432">
		<tag k="fixme" v="consider natural=peak for the most distinct mountains in the district" />
		<tag k="name" v="Kjedalsfjellet" />
		<tag k="natural" v="hill" />
		<tag k="place" v="locality" />
		<tag k="ssr:stedsnr" v="504200" />
	</node>
	<node lat="69.97970000331566" lon="20.876963876994548" id="-43434">
		<tag k="name" v="Trolldalen" />
		<tag k="natural" v="valley" />
		<tag k="place" v="locality" />
		<tag k="ssr:stedsnr" v="504629" />
	</node>
	<node lat="70.16532003263211" lon="20.772326333866157" id="-43444">
		<tag k="name" v="Storelvdalen" />
		<tag k="natural" v="valley" />
		<tag k="place" v="locality" />
		<tag k="ssr:stedsnr" v="505030" />
	</node>
	<node lat="70.14245277905647" lon="20.655611091833965" id="-43446">
		<tag k="name" v="Isbakkdalen" />
		<tag k="natural" v="valley" />
		<tag k="place" v="locality" />
		<tag k="ssr:stedsnr" v="505055" />
	</node>
	<node lat="70.11710833825646" lon="20.53521664208404" id="-43447">
		<tag k="alt_name" v="Langfjordbotnen" />
		<tag k="name" v="Langfjordbotn" />
		<tag k="natural" v="valley" />
		<tag k="place" v="locality" />
		<tag k="ssr:stedsnr" v="505057" />
	</node>
	<node lat="70.10295556020176" lon="20.859947196192287" id="-43450">
		<tag k="fixme" v="consider natural=peak for the most distinct mountains in the district" />
		<tag k="name" v="Novetinden" />
		<tag k="natural" v="hill" />
		<tag k="place" v="locality" />
		<tag k="ssr:stedsnr" v="505231" />
	</node>
	<node lat="70.04930833506292" lon="20.753447211288087" id="-43461">
		<tag k="name" v="Bringebærholla" />
		<tag k="natural" v="slope" />
		<tag k="place" v="locality" />
		<tag k="ssr:stedsnr" v="533096" />
	</node>
	<node lat="69.95634166667439" lon="20.64471387673964" id="-43464">
		<tag k="name" v="Langbakken" />
		<tag k="natural" v="slope" />
		<tag k="place" v="locality" />
		<tag k="ssr:stedsnr" v="533576" />
	</node>
	<node lat="69.94660000007212" lon="20.65752774755549" id="-43466">
		<tag k="name" v="Strupen" />
		<tag k="natural" v="valley" />
		<tag k="place" v="locality" />
		<tag k="ssr:stedsnr" v="533558" />
	</node>
	<node lat="70.01171666805257" lon="20.738766635321614" id="-43478">
		<tag k="name" v="Kvaldalen" />
		<tag k="natural" v="valley" />
		<tag k="place" v="locality" />
		<tag k="ssr:stedsnr" v="534115" />
	</node>
	<node lat="69.95588055596507" lon="20.755097214784485" id="-43480">
		<tag k="name" v="Tverrberget" />
		<tag k="natural" v="hill" />
		<tag k="place" v="locality" />
		<tag k="ssr:stedsnr" v="534892" />
	</node>
	<node lat="70.053394447921" lon="20.489641646151455" id="-43481">
		<tag k="name" v="Stormoa" />
		<tag k="place" v="locality" />
		<tag k="ssr:stedsnr" v="534897" />
	</node>
	<node lat="69.94924721874452" lon="20.85323054425061" id="-43482">
		<tag k="fixme" v="consider natural=peak for the most distinct mountains in the district" />
		<tag k="name" v="Søre Kågtinden" />
		<tag k="natural" v="hill" />
		<tag k="old_name" v="Kågtinden, s" />
		<tag k="place" v="locality" />
		<tag k="ssr:stedsnr" v="534898" />
	</node>
	<node lat="70.17447778060053" lon="20.49164721007281" id="-43487">
		<tag k="name" v="Jotan" />
		<tag k="natural" v="valley" />
		<tag k="place" v="locality" />
		<tag k="ssr:stedsnr" v="534258" />
	</node>
	<node lat="70.1607861151447" lon="20.520972199094402" id="-43488">
		<tag k="name" v="Ressebakken" />
		<tag k="natural" v="slope" />
		<tag k="place" v="locality" />
		<tag k="ssr:stedsnr" v="534265" />
	</node>
	<node lat="69.86606388673044" lon="20.675838868090068" id="-43492">
		<tag k="name" v="Fururabben" />
		<tag k="natural" v="slope" />
		<tag k="place" v="locality" />
		<tag k="ssr:stedsnr" v="534340" />
	</node>
	<node lat="69.98276389324143" lon="20.62494721415444" id="-43494">
		<tag k="name" v="Hellarsletta" />
		<tag k="place" v="locality" />
		<tag k="ssr:stedsnr" v="534566" />
	</node>
	<node lat="69.96701388758984" lon="20.65941664519887" id="-43496">
		<tag k="name" v="Liivvasčorru" />
		<tag k="name:se" v="Liivvasčorru" />
		<tag k="natural" v="hill" />
		<tag k="place" v="locality" />
		<tag k="ssr:stedsnr" v="534592" />
	</node>
	<node lat="70.05045277538338" lon="20.964994431512256" id="-43497">
		<tag k="name" v="Larsberget" />
		<tag k="natural" v="hill" />
		<tag k="place" v="locality" />
		<tag k="ssr:stedsnr" v="534847" />
	</node>
	<node lat="70.04665833034383" lon="20.69752498918235" id="-43498">
		<tag k="name" v="Elvebakken" />
		<tag k="natural" v="slope" />
		<tag k="place" v="locality" />
		<tag k="ssr:stedsnr" v="534849" />
	</node>
	<node lat="70.03815278085592" lon="20.568911091469808" id="-43499">
		<tag k="name" v="Øverdalen" />
		<tag k="natural" v="valley" />
		<tag k="place" v="locality" />
		<tag k="ssr:stedsnr" v="534664" />
	</node>
	<node lat="70.2244972206883" lon="20.636044428666942" id="-43501">
		<tag k="name" v="Steinheia" />
		<tag k="place" v="locality" />
		<tag k="ssr:stedsnr" v="534925" />
	</node>
	<node lat="70.20021388792759" lon="20.60994165811236" id="-43502">
		<tag k="name" v="Rotvågdalen" />
		<tag k="natural" v="valley" />
		<tag k="place" v="locality" />
		<tag k="ssr:stedsnr" v="534927" />
	</node>
	<node lat="70.20381388800438" lon="20.65617220014061" id="-43503">
		<tag k="name" v="Storhaugen" />
		<tag k="natural" v="hill" />
		<tag k="place" v="locality" />
		<tag k="ssr:stedsnr" v="534928" />
	</node>
	<node lat="70.14761388517756" lon="20.771905534341844" id="-43505">
		<tag k="name" v="Sandmelen" />
		<tag k="natural" v="slope" />
		<tag k="place" v="locality" />
		<tag k="ssr:stedsnr" v="535144" />
	</node>
	<node lat="69.9593833325208" lon="20.964074981246775" id="-43506">
		<tag k="name" v="Kuberget" />
		<tag k="natural" v="hill" />
		<tag k="place" v="locality" />
		<tag k="ssr:stedsnr" v="535156" />
	</node>
	<node lat="70.08234444813257" lon="20.397391648190037" id="-43510">
		<tag k="fixme" v="consider natural=peak for the most distinct mountains in the district" />
		<tag k="loc_name:se" v="Suovttavárri" />
		<tag k="name" v="Sotnestinden" />
		<tag k="name:no" v="Sotnestinden" />
		<tag k="natural" v="hill" />
		<tag k="place" v="locality" />
		<tag k="ssr:stedsnr" v="564079" />
	</node>
	<node lat="70.08698333570138" lon="20.62981942907796" id="-43513">
		<tag k="name" v="Gammhaugdalen" />
		<tag k="natural" v="valley" />
		<tag k="place" v="locality" />
		<tag k="ssr:stedsnr" v="564182" />
	</node>
	<node lat="70.05823333516084" lon="20.578663867230325" id="-43518">
		<tag k="name" v="Tuva" />
		<tag k="natural" v="hill" />
		<tag k="place" v="locality" />
		<tag k="ssr:stedsnr" v="564228" />
	</node>
	<node lat="70.16577777405872" lon="20.57008053807808" id="-43521">
		<tag k="name" v="Ytre Svarttinddalen" />
		<tag k="natural" v="valley" />
		<tag k="place" v="locality" />
		<tag k="ssr:stedsnr" v="565021" />
	</node>
	<node lat="70.11791111480407" lon="20.80545553057251" id="-43522">
		<tag k="fixme" v="consider natural=peak for the most distinct mountains in the district" />
		<tag k="name" v="Sandnestinden" />
		<tag k="natural" v="hill" />
		<tag k="place" v="locality" />
		<tag k="ssr:stedsnr" v="565031" />
	</node>
	<node lat="70.21772778024608" lon="20.709605541349653" id="-43525">
		<tag k="fixme" v="consider natural=peak for the most distinct mountains in the district" />
		<tag k="loc_name:se" v="Hildovárri" />
		<tag k="name" v="Hyllefjellet" />
		<tag k="name:no" v="Hyllefjellet" />
		<tag k="natural" v="hill" />
		<tag k="place" v="locality" />
		<tag k="ssr:stedsnr" v="565081" />
	</node>
	<node lat="70.22279721853522" lon="20.608572207277877" id="-43526">
		<tag k="fixme" v="consider natural=peak for the most distinct mountains in the district" />
		<tag k="name" v="Makeiltinden" />
		<tag k="natural" v="hill" />
		<tag k="place" v="locality" />
		<tag k="ssr:stedsnr" v="565085" />
	</node>
	<node lat="69.87713610859697" lon="20.576958305430797" id="-43530">
		<tag k="fixme" v="consider natural=peak for the most distinct mountains in the district" />
		<tag k="name" v="Komagteppen - Njunnáš" />
		<tag k="name:no" v="Komagteppen" />
		<tag k="name:se" v="Njunnáš" />
		<tag k="natural" v="hill" />
		<tag k="place" v="locality" />
		<tag k="ssr:stedsnr" v="565499" />
	</node>
	<node lat="69.98561666630708" lon="20.761816656373707" id="-43533">
		<tag k="name" v="Bruttodalen" />
		<tag k="natural" v="valley" />
		<tag k="place" v="locality" />
		<tag k="ssr:stedsnr" v="565613" />
	</node>
	<node lat="69.88655555963209" lon="20.648319421936563" id="-43536">
		<tag k="fixme" v="consider natural=peak for the most distinct mountains in the district" />
		<tag k="name" v="Reinrabben" />
		<tag k="natural" v="hill" />
		<tag k="place" v="locality" />
		<tag k="ssr:stedsnr" v="565553" />
	</node>
	<node lat="70.02049722356753" lon="20.71959442993578" id="-43540">
		<tag k="name" v="Ottarhola" />
		<tag k="natural" v="valley" />
		<tag k="place" v="locality" />
		<tag k="ssr:stedsnr" v="570134" />
	</node>
	<node lat="70.06688888558232" lon="20.52473887777743" id="-43542">
		<tag k="name" v="Flathella" />
		<tag k="place" v="locality" />
		<tag k="ssr:stedsnr" v="570152" />
	</node>
	<node lat="70.03950278237616" lon="20.53785830599321" id="-43545">
		<tag k="name" v="Storsteinbergan" />
		<tag k="natural" v="hill" />
		<tag k="place" v="locality" />
		<tag k="ssr:stedsnr" v="570919" />
	</node>
	<node lat="70.12878055924412" lon="20.868594428809068" id="-43551">
		<tag k="name" v="Tennkeildalen" />
		<tag k="natural" v="valley" />
		<tag k="place" v="locality" />
		<tag k="ssr:stedsnr" v="575232" />
	</node>
	<node lat="69.9967111094458" lon="20.743511084897985" id="-43558">
		<tag k="fixme" v="consider natural=peak for the most distinct mountains in the district" />
		<tag k="name" v="Steinbakkaksla" />
		<tag k="natural" v="hill" />
		<tag k="place" v="locality" />
		<tag k="ssr:stedsnr" v="594124" />
	</node>
	<node lat="70.07010555790858" lon="20.514019423657462" id="-43559">
		<tag k="name" v="Lilledalen" />
		<tag k="natural" v="valley" />
		<tag k="place" v="locality" />
		<tag k="ssr:stedsnr" v="594125" />
	</node>
	<node lat="70.17016666312672" lon="20.785577758048937" id="-43562">
		<tag k="name" v="Urlia" />
		<tag k="natural" v="slope" />
		<tag k="place" v="locality" />
		<tag k="ssr:stedsnr" v="594225" />
	</node>
	<node lat="70.14059167094213" lon="20.763622203289053" id="-43566">
		<tag k="name" v="Lyngnesbakken" />
		<tag k="natural" v="slope" />
		<tag k="place" v="locality" />
		<tag k="ssr:stedsnr" v="594197" />
	</node>
	<node lat="70.04042777800886" lon="20.957766648764178" id="-43572">
		<tag k="name" v="Skaret" />
		<tag k="natural" v="valley" />
		<tag k="place" v="locality" />
		<tag k="ssr:stedsnr" v="594821" />
	</node>
	<node lat="69.92650833426136" lon="20.818461099768122" id="-43579">
		<tag k="name" v="Manndrapet" />
		<tag k="place" v="locality" />
		<tag k="ssr:stedsnr" v="594867" />
	</node>
	<node lat="69.92236667146392" lon="20.836974976501487" id="-43580">
		<tag k="name" v="Stangnesrabben" />
		<tag k="natural" v="slope" />
		<tag k="place" v="locality" />
		<tag k="ssr:stedsnr" v="594872" />
	</node>
	<node lat="69.92539722002509" lon="20.856372189847797" id="-43581">
		<tag k="name" v="Rundhaugen" />
		<tag k="natural" v="hill" />
		<tag k="place" v="locality" />
		<tag k="ssr:stedsnr" v="594873" />
	</node>
	<node lat="70.12843333750988" lon="20.54944998304821" id="-43585">
		<tag k="name" v="Kvilarbakken" />
		<tag k="natural" v="slope" />
		<tag k="place" v="locality" />
		<tag k="ssr:stedsnr" v="594959" />
	</node>
	<node lat="70.05214444765573" lon="20.790261101976224" id="-43586">
		<tag k="name" v="Nerbakken" />
		<tag k="natural" v="slope" />
		<tag k="place" v="locality" />
		<tag k="ssr:stedsnr" v="595083" />
	</node>
	<node lat="69.92962222321445" lon="20.87233330147226" id="-43589">
		<tag k="name" v="Reinslakteriet" />
		<tag k="place" v="locality" />
		<tag k="ssr:stedsnr" v="595346" />
	</node>
	<node lat="69.94242500430381" lon="20.668047202437844" id="-43591">
		<tag k="name" v="Haugen" />
		<tag k="natural" v="hill" />
		<tag k="place" v="locality" />
		<tag k="ssr:stedsnr" v="595546" />
	</node>
	<node lat="70.04658055540301" lon="20.61106386367135" id="-43592">
		<tag k="name" v="Blomlia" />
		<tag k="natural" v="slope" />
		<tag k="place" v="locality" />
		<tag k="ssr:stedsnr" v="595640" />
	</node>
	<node lat="69.95556666933592" lon="20.886988878518952" id="-43608">
		<tag k="fixme" v="consider natural=peak for the most distinct mountains in the district" />
		<tag k="name" v="Høgfjellet" />
		<tag k="natural" v="hill" />
		<tag k="place" v="locality" />
		<tag k="ssr:stedsnr" v="625552" />
	</node>
	<node lat="70.11252778158615" lon="20.438458314192015" id="-43610">
		<tag k="name" v="Rundhaugen" />
		<tag k="natural" v="hill" />
		<tag k="place" v="locality" />
		<tag k="ssr:stedsnr" v="626033" />
	</node>
	<node lat="70.11109444050186" lon="20.495708322173304" id="-43611">
		<tag k="fixme" v="consider natural=peak for the most distinct mountains in the district" />
		<tag k="name" v="Kistefjellet" />
		<tag k="natural" v="hill" />
		<tag k="place" v="locality" />
		<tag k="ssr:stedsnr" v="626034" />
	</node>
	<node lat="70.12346111056345" lon="20.717513873949468" id="-43612">
		<tag k="alt_name:no" v="Tjyvdalen" />
		<tag k="loc_name:se" v="Givavággi" />
		<tag k="name" v="Tjuvdalen" />
		<tag k="name:no" v="Tjuvdalen" />
		<tag k="natural" v="valley" />
		<tag k="place" v="locality" />
		<tag k="ssr:stedsnr" v="626040" />
	</node>
	<node lat="70.12306388551424" lon="20.630416650442125" id="-43613">
		<tag k="fixme" v="consider natural=peak for the most distinct mountains in the district" />
		<tag k="name" v="Grunnfjordtindan" />
		<tag k="natural" v="hill" />
		<tag k="place" v="locality" />
		<tag k="ssr:stedsnr" v="626042" />
	</node>
	<node lat="70.04917499727526" lon="20.631661096158535" id="-43624">
		<tag k="name" v="Hamna" />
		<tag k="natural" v="valley" />
		<tag k="place" v="locality" />
		<tag k="ssr:stedsnr" v="631164" />
	</node>
	<node lat="70.23198888879728" lon="20.702672200997707" id="-43632">
		<tag k="name" v="Hyllaksla" />
		<tag k="place" v="locality" />
		<tag k="ssr:stedsnr" v="636258" />
	</node>
	<node lat="70.20551666930805" lon="20.80526664688366" id="-43633">
		<tag k="name" v="Bukkeberget" />
		<tag k="natural" v="hill" />
		<tag k="place" v="locality" />
		<tag k="ssr:stedsnr" v="656123" />
	</node>
	<node lat="69.9939416642551" lon="21.065527739761944" id="-43636">
		<tag k="name" v="Marilia" />
		<tag k="natural" v="slope" />
		<tag k="place" v="locality" />
		<tag k="ssr:stedsnr" v="656197" />
	</node>
	<node lat="70.06001111154973" lon="20.798666641456208" id="-43645">
		<tag k="name" v="Singelbergan" />
		<tag k="natural" v="hill" />
		<tag k="place" v="locality" />
		<tag k="ssr:stedsnr" v="655046" />
	</node>
	<node lat="70.0421611097092" lon="20.987924973176533" id="-43646">
		<tag k="fixme" v="consider natural=peak for the most distinct mountains in the district" />
		<tag k="name" v="Vardefjellet" />
		<tag k="natural" v="hill" />
		<tag k="place" v="locality" />
		<tag k="ssr:stedsnr" v="655152" />
	</node>
	<node lat="70.03836111334397" lon="21.00128608886519" id="-43647">
		<tag k="name" v="Bratta" />
		<tag k="natural" v="slope" />
		<tag k="place" v="locality" />
		<tag k="ssr:stedsnr" v="655157" />
	</node>
	<node lat="70.05206944484411" lon="20.746586087675627" id="-43649">
		<tag k="name" v="Kvitflogan" />
		<tag k="place" v="locality" />
		<tag k="ssr:stedsnr" v="655125" />
	</node>
	<node lat="70.00894444351731" lon="21.04141108640409" id="-43652">
		<tag k="name" v="Hummaren" />
		<tag k="natural" v="hill" />
		<tag k="place" v="locality" />
		<tag k="ssr:stedsnr" v="655324" />
	</node>
	<node lat="69.98210833707354" lon="20.642049981028304" id="-43654">
		<tag k="name" v="Gåsvikdalen" />
		<tag k="natural" v="valley" />
		<tag k="place" v="locality" />
		<tag k="ssr:stedsnr" v="655513" />
	</node>
	<node lat="69.9775138854525" lon="20.935597194232095" id="-43655">
		<tag k="name" v="Langbakken" />
		<tag k="natural" v="slope" />
		<tag k="place" v="locality" />
		<tag k="ssr:stedsnr" v="655260" />
	</node>
	<node lat="70.18221944208027" lon="20.531972208408586" id="-43656">
		<tag k="name" v="Finskjebakken" />
		<tag k="natural" v="slope" />
		<tag k="place" v="locality" />
		<tag k="ssr:stedsnr" v="655269" />
	</node>
	<node lat="69.92240555716627" lon="20.685511105135138" id="-43660">
		<tag k="name" v="Høeghberget" />
		<tag k="natural" v="hill" />
		<tag k="place" v="locality" />
		<tag k="ssr:stedsnr" v="655345" />
	</node>
	<node lat="69.92651388593426" lon="20.676547191432622" id="-43662">
		<tag k="name" v="Floget" />
		<tag k="natural" v="hill" />
		<tag k="place" v="locality" />
		<tag k="ssr:stedsnr" v="655352" />
	</node>
	<node lat="70.00250594255954" lon="21.037976620160432" id="-43663">
		<tag k="name" v="Småbergan" />
		<tag k="natural" v="hill" />
		<tag k="place" v="locality" />
		<tag k="ssr:stedsnr" v="655360" />
	</node>
	<node lat="69.90870833374578" lon="20.698733314446752" id="-43664">
		<tag k="name" v="Bystuhollet" />
		<tag k="natural" v="valley" />
		<tag k="place" v="locality" />
		<tag k="ssr:stedsnr" v="655377" />
	</node>
	<node lat="69.98041111322239" lon="20.62765832181158" id="-43665">
		<tag k="name" v="Hellaren" />
		<tag k="natural" v="slope" />
		<tag k="place" v="locality" />
		<tag k="ssr:stedsnr" v="655555" />
	</node>
	<node lat="69.96912221891202" lon="20.669244423329364" id="-43666">
		<tag k="name" v="Storbakken" />
		<tag k="natural" v="slope" />
		<tag k="place" v="locality" />
		<tag k="ssr:stedsnr" v="655578" />
	</node>
	<node lat="70.03788611534839" lon="20.596161098142364" id="-43667">
		<tag k="name" v="Storhaugen" />
		<tag k="natural" v="hill" />
		<tag k="place" v="locality" />
		<tag k="ssr:stedsnr" v="655656" />
	</node>
	<node lat="70.04196944487947" lon="20.614063870649098" id="-43669">
		<tag k="name" v="Bakaromnsberget" />
		<tag k="natural" v="hill" />
		<tag k="place" v="locality" />
		<tag k="ssr:stedsnr" v="655661" />
	</node>
	<node lat="70.06903888978445" lon="20.570188864309742" id="-43671">
		<tag k="name" v="Storskreda" />
		<tag k="natural" v="slope" />
		<tag k="place" v="locality" />
		<tag k="ssr:stedsnr" v="655744" />
	</node>
	<node lat="70.04622222276852" lon="20.698974992580265" id="-43672">
		<tag k="name" v="Tyttebærryggen" />
		<tag k="natural" v="slope" />
		<tag k="place" v="locality" />
		<tag k="ssr:stedsnr" v="655842" />
	</node>
	<node lat="70.05156944800444" lon="20.665124970781534" id="-43674">
		<tag k="name" v="Langhammaren" />
		<tag k="natural" v="hill" />
		<tag k="place" v="locality" />
		<tag k="ssr:stedsnr" v="655852" />
	</node>
	<node lat="70.03402222596533" lon="20.555166662075624" id="-43675">
		<tag k="name" v="Storbakken" />
		<tag k="natural" v="slope" />
		<tag k="place" v="locality" />
		<tag k="ssr:stedsnr" v="655859" />
	</node>
	<node lat="69.91026944991906" lon="20.716422192834404" id="-43676">
		<tag k="name" v="Grythadda" />
		<tag k="natural" v="slope" />
		<tag k="place" v="locality" />
		<tag k="ssr:stedsnr" v="655866" />
	</node>
	<node lat="69.89140278238092" lon="20.710736082916334" id="-43687">
		<tag k="name" v="Bukteberget" />
		<tag k="natural" v="hill" />
		<tag k="place" v="locality" />
		<tag k="ssr:stedsnr" v="716621" />
	</node>
	<node lat="70.06682222696153" lon="20.63265552935602" id="-43689">
		<tag k="name" v="Langbakken" />
		<tag k="natural" v="slope" />
		<tag k="place" v="locality" />
		<tag k="ssr:stedsnr" v="716775" />
	</node>
	<node lat="70.16767500251981" lon="20.77366665659277" id="-43693">
		<tag k="name" v="Storlia" />
		<tag k="natural" v="slope" />
		<tag k="place" v="locality" />
		<tag k="ssr:stedsnr" v="716242" />
	</node>
	<node lat="70.01351944187387" lon="20.971583305345195" id="-43696">
		<tag k="name" v="Søppelhaugen" />
		<tag k="natural" v="hill" />
		<tag k="place" v="locality" />
		<tag k="ssr:stedsnr" v="716341" />
	</node>
	<node lat="70.00111667126363" lon="21.035577749486244" id="-43701">
		<tag k="name" v="Teistberget" />
		<tag k="natural" v="hill" />
		<tag k="place" v="locality" />
		<tag k="ssr:stedsnr" v="716395" />
	</node>
	<node lat="69.99059999693816" lon="20.633605529179192" id="-43702">
		<tag k="name" v="Fyrberget" />
		<tag k="natural" v="hill" />
		<tag k="place" v="locality" />
		<tag k="ssr:stedsnr" v="716539" />
	</node>
	<node lat="69.93838055180153" lon="20.649772202012496" id="-43704">
		<tag k="name" v="Vorterøyendhaugen" />
		<tag k="natural" v="hill" />
		<tag k="place" v="locality" />
		<tag k="ssr:stedsnr" v="716568" />
	</node>
	<node lat="70.05435278089006" lon="20.59804721821922" id="-43705">
		<tag k="name" v="Inner-Kjedalskråa" />
		<tag k="place" v="locality" />
		<tag k="ssr:stedsnr" v="716700" />
	</node>
	<node lat="70.00167777941945" lon="20.891244422148205" id="-43707">
		<tag k="name" v="Finnelvdalen" />
		<tag k="natural" v="valley" />
		<tag k="place" v="locality" />
		<tag k="ssr:stedsnr" v="717320" />
	</node>
	<node lat="70.07611110733627" lon="20.65071388128668" id="-43708">
		<tag k="name" v="Stormelen" />
		<tag k="place" v="locality" />
		<tag k="ssr:stedsnr" v="716771" />
	</node>
	<node lat="69.9309166687589" lon="20.822363867684288" id="-43713">
		<tag k="name" v="Novedalen" />
		<tag k="natural" v="valley" />
		<tag k="place" v="locality" />
		<tag k="ssr:stedsnr" v="716886" />
	</node>
	<node lat="70.15342777541936" lon="20.773611083328863" id="-43714">
		<tag k="name" v="Larsnesbakken" />
		<tag k="natural" v="slope" />
		<tag k="place" v="locality" />
		<tag k="ssr:stedsnr" v="717140" />
	</node>
	<node lat="70.1607166648297" lon="20.44443331069322" id="-43718">
		<tag k="fixme" v="consider natural=peak for the most distinct mountains in the district" />
		<tag k="name" v="Keiletinden" />
		<tag k="natural" v="hill" />
		<tag k="place" v="locality" />
		<tag k="ssr:stedsnr" v="747014" />
	</node>
	<node lat="70.20241666479424" lon="20.562813871146222" id="-43721">
		<tag k="fixme" v="consider natural=peak for the most distinct mountains in the district" />
		<tag k="name" v="Storfjellet" />
		<tag k="natural" v="hill" />
		<tag k="place" v="locality" />
		<tag k="ssr:stedsnr" v="747077" />
	</node>
	<node lat="70.1925027794458" lon="20.744280545670925" id="-43722">
		<tag k="fixme" v="consider natural=peak for the most distinct mountains in the district" />
		<tag k="name" v="Slettfjellet" />
		<tag k="natural" v="hill" />
		<tag k="place" v="locality" />
		<tag k="ssr:stedsnr" v="747086" />
	</node>
	<node lat="70.17463333757223" lon="20.77817498764643" id="-43724">
		<tag k="fixme" v="consider natural=peak for the most distinct mountains in the district" />
		<tag k="name" v="Urtinden" />
		<tag k="natural" v="hill" />
		<tag k="place" v="locality" />
		<tag k="ssr:stedsnr" v="747022" />
	</node>
	<node lat="70.13177500000833" lon="20.84576943578707" id="-43726">
		<tag k="fixme" v="consider natural=peak for the most distinct mountains in the district" />
		<tag k="name" v="Hellnesfjellet" />
		<tag k="natural" v="hill" />
		<tag k="place" v="locality" />
		<tag k="ssr:stedsnr" v="747031" />
	</node>
	<node lat="70.12845277809217" lon="20.535586097247517" id="-43728">
		<tag k="name" v="Langfjorddalen" />
		<tag k="natural" v="valley" />
		<tag k="place" v="locality" />
		<tag k="ssr:stedsnr" v="747043" />
	</node>
	<node lat="69.89199722591215" lon="20.574338879510414" id="-43743">
		<tag k="name" v="Geithaugen" />
		<tag k="natural" v="hill" />
		<tag k="place" v="locality" />
		<tag k="ssr:stedsnr" v="747551" />
	</node>
	<node lat="70.18804444324975" lon="20.456524974349446" id="-43749">
		<tag k="name" v="Båberget" />
		<tag k="natural" v="hill" />
		<tag k="place" v="locality" />
		<tag k="ssr:stedsnr" v="752481" />
	</node>
	<node lat="69.94421666753502" lon="20.658688875244785" id="-43763">
		<tag k="name" v="Brenta" />
		<tag k="natural" v="slope" />
		<tag k="place" v="locality" />
		<tag k="ssr:stedsnr" v="776529" />
	</node>
	<node lat="69.96306389301225" lon="20.68116110591964" id="-43765">
		<tag k="name" v="Kåvikberget" />
		<tag k="natural" v="hill" />
		<tag k="place" v="locality" />
		<tag k="ssr:stedsnr" v="776545" />
	</node>
	<node lat="70.07113333511337" lon="20.8277388645754" id="-43767">
		<tag k="name" v="Sjurkjerka" />
		<tag k="natural" v="hill" />
		<tag k="place" v="locality" />
		<tag k="ssr:stedsnr" v="777043" />
	</node>
	<node lat="70.1307777750022" lon="20.75389998651892" id="-43769">
		<tag k="name" v="Lillebakken" />
		<tag k="natural" v="slope" />
		<tag k="place" v="locality" />
		<tag k="ssr:stedsnr" v="777186" />
	</node>
	<node lat="70.13407500308419" lon="20.746927756418273" id="-43770">
		<tag k="name" v="Kulia" />
		<tag k="natural" v="slope" />
		<tag k="place" v="locality" />
		<tag k="ssr:stedsnr" v="777187" />
	</node>
	<node lat="70.13897222021662" lon="20.759580524292073" id="-43771">
		<tag k="name" v="Magnusbakken" />
		<tag k="natural" v="slope" />
		<tag k="place" v="locality" />
		<tag k="ssr:stedsnr" v="777190" />
	</node>
	<node lat="70.12790555258732" lon="20.739674986282942" id="-43772">
		<tag k="name" v="Breilia" />
		<tag k="natural" v="slope" />
		<tag k="place" v="locality" />
		<tag k="ssr:stedsnr" v="777193" />
	</node>
	<node lat="70.04577222114624" lon="20.69294441534931" id="-43774">
		<tag k="loc_name:se" v="Ealva" />
		<tag k="name" v="Elvesletta" />
		<tag k="name:no" v="Elvesletta" />
		<tag k="place" v="locality" />
		<tag k="ssr:stedsnr" v="777816" />
	</node>
	<node lat="70.04863055574029" lon="20.70828886079334" id="-43776">
		<tag k="name" v="Elveskorra" />
		<tag k="natural" v="valley" />
		<tag k="place" v="locality" />
		<tag k="ssr:stedsnr" v="777820" />
	</node>
	<node lat="70.06107222523335" lon="20.6992861009291" id="-43778">
		<tag k="loc_name:se" v="Ealvavággi" />
		<tag k="name" v="Elvedalen" />
		<tag k="name:no" v="Elvedalen" />
		<tag k="natural" v="valley" />
		<tag k="place" v="locality" />
		<tag k="ssr:stedsnr" v="777824" />
	</node>
	<node lat="70.05364167081501" lon="20.701913874210344" id="-43779">
		<tag k="alt_name" v="Lillehompen" />
		<tag k="name" v="Lillehumpen" />
		<tag k="natural" v="hill" />
		<tag k="place" v="locality" />
		<tag k="ssr:stedsnr" v="777825" />
	</node>
	<node lat="70.05051388959764" lon="20.661963862633254" id="-43780">
		<tag k="name" v="Blåberget" />
		<tag k="natural" v="hill" />
		<tag k="place" v="locality" />
		<tag k="ssr:stedsnr" v="777830" />
	</node>
	<node lat="70.05448055220961" lon="20.659088863267606" id="-43781">
		<tag k="name" v="Heksehula" />
		<tag k="natural" v="valley" />
		<tag k="place" v="locality" />
		<tag k="ssr:stedsnr" v="777831" />
	</node>
	<node lat="70.0323333308243" lon="20.557355533167822" id="-43782">
		<tag k="name" v="Reinan" />
		<tag k="place" v="locality" />
		<tag k="ssr:stedsnr" v="777834" />
	</node>
	<node lat="70.03660833082468" lon="20.972391651187003" id="-43784">
		<tag k="name" v="Sankthanshaugen" />
		<tag k="natural" v="hill" />
		<tag k="place" v="locality" />
		<tag k="ssr:stedsnr" v="777136" />
	</node>
	<node lat="70.15155000237219" lon="20.778936105349548" id="-43788">
		<tag k="name" v="Sommarvollan" />
		<tag k="place" v="locality" />
		<tag k="ssr:stedsnr" v="777147" />
	</node>
	<node lat="70.20507778092502" lon="20.52211386890879" id="-43790">
		<tag k="name" v="Hammarsberget" />
		<tag k="natural" v="hill" />
		<tag k="place" v="locality" />
		<tag k="ssr:stedsnr" v="777288" />
	</node>
	<node lat="69.9970388937343" lon="21.01479998073721" id="-43792">
		<tag k="name" v="Bersvenndalen" />
		<tag k="natural" v="valley" />
		<tag k="place" v="locality" />
		<tag k="ssr:stedsnr" v="777359" />
	</node>
	<node lat="69.99828611477238" lon="21.014224984026363" id="-43793">
		<tag k="name" v="Jørgendalen" />
		<tag k="natural" v="valley" />
		<tag k="place" v="locality" />
		<tag k="ssr:stedsnr" v="777361" />
	</node>
	<node lat="69.99016111629838" lon="20.988505524095437" id="-43794">
		<tag k="name" v="Storvedberget" />
		<tag k="natural" v="hill" />
		<tag k="place" v="locality" />
		<tag k="ssr:stedsnr" v="777433" />
	</node>
	<node lat="69.973600001162" lon="20.65248054402825" id="-43795">
		<tag k="name" v="Trondalsskaret" />
		<tag k="natural" v="valley" />
		<tag k="place" v="locality" />
		<tag k="ssr:stedsnr" v="777529" />
	</node>
	<node lat="70.04769166455561" lon="20.44154442883234" id="-43799">
		<tag k="name" v="Tjukkberget" />
		<tag k="natural" v="hill" />
		<tag k="place" v="locality" />
		<tag k="ssr:stedsnr" v="777854" />
	</node>
	<node lat="70.05085833079637" lon="20.439463880971424" id="-43801">
		<tag k="name" v="Storbakken" />
		<tag k="natural" v="slope" />
		<tag k="place" v="locality" />
		<tag k="ssr:stedsnr" v="777859" />
	</node>
	<node lat="70.17562778146974" lon="20.560022197537368" id="-43803">
		<tag k="name" v="Årvikaksla" />
		<tag k="place" v="locality" />
		<tag k="ssr:stedsnr" v="777887" />
	</node>
	<node lat="70.13926388890167" lon="20.570816652764645" id="-43807">
		<tag k="alt_name" v="Svarttinddalen, in" />
		<tag k="name" v="Indre Svarttinddalen" />
		<tag k="natural" v="valley" />
		<tag k="place" v="locality" />
		<tag k="ssr:stedsnr" v="808006" />
	</node>
	<node lat="70.14985278001383" lon="20.74222220792361" id="-43809">
		<tag k="alt_name" v="Litlefjellet" />
		<tag k="fixme" v="consider natural=peak for the most distinct mountains in the district" />
		<tag k="name" v="Lillefjellet" />
		<tag k="natural" v="hill" />
		<tag k="place" v="locality" />
		<tag k="ssr:stedsnr" v="808009" />
	</node>
	<node lat="69.9581500033508" lon="20.64826665231704" id="-43813">
		<tag k="fixme" v="consider natural=peak for the most distinct mountains in the district" />
		<tag k="name" v="Viten" />
		<tag k="natural" v="hill" />
		<tag k="place" v="locality" />
		<tag k="ssr:stedsnr" v="808605" />
	</node>
	<node lat="70.00831666417278" lon="20.76563052482512" id="-43822">
		<tag k="name" v="Solhakket" />
		<tag k="natural" v="valley" />
		<tag k="place" v="locality" />
		<tag k="ssr:stedsnr" v="808128" />
	</node>
	<node lat="70.07097222405146" lon="20.614863877930492" id="-43824">
		<tag k="name" v="Sløkedalen" />
		<tag k="natural" v="valley" />
		<tag k="place" v="locality" />
		<tag k="ssr:stedsnr" v="808174" />
	</node>
	<node lat="70.05399722431402" lon="20.441402763457393" id="-43829">
		<tag k="name" v="Nakkeheia" />
		<tag k="natural" v="hill" />
		<tag k="place" v="locality" />
		<tag k="ssr:stedsnr" v="808225" />
	</node>
	<node lat="69.92838056026353" lon="20.830724973387" id="-43839">
		<tag k="name" v="Vardhaugen" />
		<tag k="natural" v="hill" />
		<tag k="place" v="locality" />
		<tag k="ssr:stedsnr" v="808583" />
	</node>
	<node lat="70.12150555519511" lon="20.37925277188613" id="-43844">
		<tag k="name" v="Skarveberget" />
		<tag k="natural" v="hill" />
		<tag k="place" v="locality" />
		<tag k="ssr:stedsnr" v="808883" />
	</node>
	<node lat="69.82566388992913" lon="20.67014719429547" id="-43846">
		<tag k="fixme" v="consider natural=peak for the most distinct mountains in the district" />
		<tag k="loc_name:se" v="Seahttároalgi" />
		<tag k="name" v="Sæteraksla" />
		<tag k="name:no" v="Sæteraksla" />
		<tag k="natural" v="hill" />
		<tag k="place" v="locality" />
		<tag k="ssr:stedsnr" v="808969" />
	</node>
	<node lat="70.0887055558048" lon="20.375402763996192" id="-43849">
		<tag k="name" v="Inner-Omnan" />
		<tag k="place" v="locality" />
		<tag k="ssr:stedsnr" v="813374" />
	</node>
	<node lat="69.98376666223527" lon="20.63129998922495" id="-43855">
		<tag k="name" v="Hellarfjellet" />
		<tag k="natural" v="hill" />
		<tag k="place" v="locality" />
		<tag k="ssr:stedsnr" v="819938" />
	</node>
	<node lat="70.01029444849863" lon="20.741011085089422" id="-43857">
		<tag k="alt_name" v="Storhompen" />
		<tag k="name" v="Storhumpen" />
		<tag k="natural" v="hill" />
		<tag k="place" v="locality" />
		<tag k="ssr:stedsnr" v="837097" />
	</node>
	<node lat="69.91968333618804" lon="20.667727768173986" id="-43862">
		<tag k="name" v="Lilleberget" />
		<tag k="natural" v="hill" />
		<tag k="place" v="locality" />
		<tag k="ssr:stedsnr" v="837353" />
	</node>
	<node lat="69.95566389150598" lon="20.68086943578507" id="-43864">
		<tag k="name" v="Bukkhollet" />
		<tag k="natural" v="valley" />
		<tag k="place" v="locality" />
		<tag k="ssr:stedsnr" v="837562" />
	</node>
	<node lat="70.05251110922269" lon="20.60816665409305" id="-43865">
		<tag k="alt_name" v="Kjedalshompen" />
		<tag k="name" v="Kjeldalshumpen" />
		<tag k="natural" v="hill" />
		<tag k="place" v="locality" />
		<tag k="ssr:stedsnr" v="837675" />
	</node>
	<node lat="70.08359999737861" lon="20.47790276295987" id="-43870">
		<tag k="name" v="Laksebakken" />
		<tag k="natural" v="slope" />
		<tag k="place" v="locality" />
		<tag k="ssr:stedsnr" v="838011" />
	</node>
	<node lat="70.05107777669235" lon="20.774513880947854" id="-43872">
		<tag k="name" v="Geitberget" />
		<tag k="natural" v="hill" />
		<tag k="place" v="locality" />
		<tag k="ssr:stedsnr" v="838122" />
	</node>
	<node lat="70.03367777763813" lon="20.978194434278187" id="-43874">
		<tag k="name" v="Seppolaberget" />
		<tag k="natural" v="hill" />
		<tag k="place" v="locality" />
		<tag k="ssr:stedsnr" v="838202" />
	</node>
	<node lat="69.97359722114557" lon="20.628094414034997" id="-43880">
		<tag k="name" v="Nissebergan" />
		<tag k="natural" v="hill" />
		<tag k="place" v="locality" />
		<tag k="ssr:stedsnr" v="838590" />
	</node>
	<node lat="70.05459999962255" lon="20.565891647295793" id="-43883">
		<tag k="fixme" v="consider natural=peak for the most distinct mountains in the district" />
		<tag k="name" v="Breifjellet" />
		<tag k="natural" v="hill" />
		<tag k="place" v="locality" />
		<tag k="ssr:stedsnr" v="838699" />
	</node>
	<node lat="70.04512777883055" lon="20.962586101174516" id="-43887">
		<tag k="name" v="Rødberget" />
		<tag k="natural" v="hill" />
		<tag k="place" v="locality" />
		<tag k="ssr:stedsnr" v="838867" />
	</node>
	<node lat="69.98068055153044" lon="20.968147203922108" id="-43889">
		<tag k="name" v="Skansan" />
		<tag k="natural" v="hill" />
		<tag k="place" v="locality" />
		<tag k="ssr:stedsnr" v="838872" />
	</node>
	<node lat="69.98824167116693" lon="20.980677745183307" id="-43890">
		<tag k="name" v="Småvedbergan" />
		<tag k="natural" v="hill" />
		<tag k="place" v="locality" />
		<tag k="ssr:stedsnr" v="838874" />
	</node>
	<node lat="70.2123305573141" lon="20.679216641283343" id="-43891">
		<tag k="name" v="Blåberget" />
		<tag k="natural" v="hill" />
		<tag k="place" v="locality" />
		<tag k="ssr:stedsnr" v="838936" />
	</node>
	<node lat="70.00628333356798" lon="20.897641638981604" id="-43894">
		<tag k="name" v="Brattberget" />
		<tag k="natural" v="hill" />
		<tag k="place" v="locality" />
		<tag k="ssr:stedsnr" v="839326" />
	</node>
	<node lat="70.07922500425005" lon="20.87629720455563" id="-43896">
		<tag k="name" v="Ramnbergdalen" />
		<tag k="natural" v="valley" />
		<tag k="place" v="locality" />
		<tag k="ssr:stedsnr" v="868177" />
	</node>
	<node lat="70.0892833378436" lon="20.690669433818755" id="-43897">
		<tag k="fixme" v="consider natural=peak for the most distinct mountains in the district" />
		<tag k="loc_name:se" v="Skárračohkka" />
		<tag k="name" v="Skartinden" />
		<tag k="name:no" v="Skartinden" />
		<tag k="natural" v="hill" />
		<tag k="place" v="locality" />
		<tag k="ssr:stedsnr" v="868182" />
	</node>
	<node lat="70.08268611612212" lon="20.41991941999559" id="-43898">
		<tag k="name" v="Sotnesskaret" />
		<tag k="natural" v="valley" />
		<tag k="place" v="locality" />
		<tag k="ssr:stedsnr" v="868185" />
	</node>
	<node lat="70.05536944542919" lon="20.60336109533693" id="-43900">
		<tag k="name" v="Inner-Kjedalen" />
		<tag k="natural" v="valley" />
		<tag k="place" v="locality" />
		<tag k="ssr:stedsnr" v="868216" />
	</node>
	<node lat="70.17625277834463" lon="20.676761079599636" id="-43904">
		<tag k="fixme" v="consider natural=peak for the most distinct mountains in the district" />
		<tag k="name" v="Svarttinden" />
		<tag k="natural" v="hill" />
		<tag k="place" v="locality" />
		<tag k="ssr:stedsnr" v="869031" />
	</node>
	<node lat="70.11801666441568" lon="20.872436082589005" id="-43905">
		<tag k="name" v="Kveitvikdalen" />
		<tag k="natural" v="valley" />
		<tag k="place" v="locality" />
		<tag k="ssr:stedsnr" v="869039" />
	</node>
	<node lat="70.0241611078675" lon="20.982133310678627" id="-43913">
		<tag k="fixme" v="consider natural=peak for the most distinct mountains in the district" />
		<tag k="name" v="Stussnesfjellet" />
		<tag k="natural" v="hill" />
		<tag k="place" v="locality" />
		<tag k="ssr:stedsnr" v="869167" />
	</node>
	<node lat="70.14094444828338" lon="20.571863862843962" id="-43922">
		<tag k="alt_name:no" v="Svarttindan" />
		<tag k="fixme" v="consider natural=peak for the most distinct mountains in the district" />
		<tag k="loc_name:se" v="Čáhppesčohkka" />
		<tag k="name" v="Svarttinden" />
		<tag k="name:no" v="Svarttinden" />
		<tag k="natural" v="hill" />
		<tag k="place" v="locality" />
		<tag k="ssr:stedsnr" v="870498" />
	</node>
	<node lat="70.17901944446541" lon="20.788472192745708" id="-43932">
		<tag k="name" v="Tippsteindalen" />
		<tag k="natural" v="valley" />
		<tag k="place" v="locality" />
		<tag k="ssr:stedsnr" v="879285" />
	</node>
	<node lat="69.87646388760898" lon="20.633747201833504" id="-43948">
		<tag k="fixme" v="consider natural=peak for the most distinct mountains in the district" />
		<tag k="name" v="Svarttinden" />
		<tag k="natural" v="hill" />
		<tag k="place" v="locality" />
		<tag k="ssr:stedsnr" v="958344" />
	</node>
	<node lat="70.06510832978266" lon="20.462522209133912" id="-43954">
		<tag k="name" v="Lille Trolltindholla" />
		<tag k="natural" v="valley" />
		<tag k="place" v="locality" />
		<tag k="ssr:stedsnr" v="959022" />
	</node>
	<node lat="70.07882777786948" lon="20.772530530396224" id="-43958">
		<tag k="name" v="Sandbakken" />
		<tag k="natural" v="slope" />
		<tag k="place" v="locality" />
		<tag k="ssr:stedsnr" v="959051" />
	</node>
	<node lat="70.04309444972635" lon="21.013441638978183" id="-43960">
		<tag k="name" v="Ramnneshaugen" />
		<tag k="natural" v="hill" />
		<tag k="place" v="locality" />
		<tag k="ssr:stedsnr" v="959139" />
	</node>
	<node lat="70.0300472263059" lon="20.99564443604787" id="-43961">
		<tag k="name" v="Steinbergan" />
		<tag k="natural" v="hill" />
		<tag k="place" v="locality" />
		<tag k="ssr:stedsnr" v="959143" />
	</node>
	<node lat="70.09121944485105" lon="20.916561099327584" id="-43962">
		<tag k="name" v="Lia" />
		<tag k="natural" v="slope" />
		<tag k="place" v="locality" />
		<tag k="ssr:stedsnr" v="959158" />
	</node>
	<node lat="70.18956944452502" lon="20.541058328662253" id="-43964">
		<tag k="name" v="Trollalia" />
		<tag k="natural" v="slope" />
		<tag k="place" v="locality" />
		<tag k="ssr:stedsnr" v="959282" />
	</node>
	<node lat="69.94176667024496" lon="20.904224980172803" id="-43968">
		<tag k="name" v="Kågelvdalen" />
		<tag k="natural" v="valley" />
		<tag k="place" v="locality" />
		<tag k="ssr:stedsnr" v="960143" />
	</node>
	<node lat="70.04897222728958" lon="20.61023052790541" id="-43969">
		<tag k="name" v="Sør-Kjedalsbakken" />
		<tag k="natural" v="slope" />
		<tag k="place" v="locality" />
		<tag k="ssr:stedsnr" v="959671" />
	</node>
	<node lat="70.0567416637004" lon="20.98539442710634" id="-43972">
		<tag k="name" v="Gjerdet" />
		<tag k="natural" v="slope" />
		<tag k="place" v="locality" />
		<tag k="ssr:stedsnr" v="959813" />
	</node>
	<node lat="69.98471666707682" lon="21.03389998533463" id="-43974">
		<tag k="name" v="Sæterskaret" />
		<tag k="natural" v="valley" />
		<tag k="place" v="locality" />
		<tag k="ssr:stedsnr" v="959855" />
	</node>
	<node lat="70.05481111459832" lon="20.657980544683642" id="-43975">
		<tag k="name" v="Bringebærberget" />
		<tag k="natural" v="hill" />
		<tag k="place" v="locality" />
		<tag k="ssr:stedsnr" v="959864" />
	</node>
	<node lat="70.05164722069232" lon="20.433741654443384" id="-43977">
		<tag k="name" v="Lillebakken" />
		<tag k="natural" v="slope" />
		<tag k="place" v="locality" />
		<tag k="ssr:stedsnr" v="959879" />
	</node>
	<node lat="70.14629999934962" lon="20.76896664184905" id="-43980">
		<tag k="name" v="Nygårdsbakkan" />
		<tag k="natural" v="slope" />
		<tag k="place" v="locality" />
		<tag k="ssr:stedsnr" v="960129" />
	</node>
</osm>
