<?xml version="1.0" encoding="UTF-8"?>
<osm version="0.6" generator="osmapis">
	<node lat="70.14206389313908" lon="20.546147202273946" id="-102984">
		<tag k="name" v="Langfjordura" />
		<tag k="natural" v="scree" />
		<tag k="ssr:stedsnr" v="19005" />
	</node>
	<node lat="70.1628750026468" lon="20.78631387139923" id="-103014">
		<tag k="name" v="Storelvsteinen" />
		<tag k="natural" v="stone" />
		<tag k="ssr:stedsnr" v="49179" />
	</node>
	<node lat="70.03381666583519" lon="20.584902758790253" id="-103023">
		<tag k="name" v="Buskesteinen" />
		<tag k="natural" v="stone" />
		<tag k="ssr:stedsnr" v="49820" />
	</node>
	<node lat="70.21537499842015" lon="20.67157220455048" id="-103029">
		<tag k="name" v="Rødmelen" />
		<tag k="place" v="locality" />
		<tag k="ssr:stedsnr" v="49921" />
	</node>
	<node lat="70.05944166586663" lon="20.651544419936503" id="-103052">
		<tag k="name" v="Gabrielstykket" />
		<tag k="place" v="locality" />
		<tag k="ssr:stedsnr" v="230977" />
	</node>
	<node lat="70.16750833614297" lon="20.784177772875182" id="-103096">
		<tag k="name" v="Stormyra" />
		<tag k="natural" v="wetland" />
		<tag k="ssr:stedsnr" v="109214" />
	</node>
	<node lat="70.17561944558665" lon="20.443663885449173" id="-103098">
		<tag k="name" v="Keileskogen" />
		<tag k="place" v="locality" />
		<tag k="ssr:stedsnr" v="109172" />
	</node>
	<node lat="70.01211111404703" lon="20.97782496732059" id="-103100">
		<tag k="name" v="Langøra" />
		<tag k="place" v="locality" />
		<tag k="ssr:stedsnr" v="109320" />
	</node>
	<node lat="70.04953333504847" lon="20.76704721390522" id="-103111">
		<tag k="name" v="Sommarsetet" />
		<tag k="place" v="locality" />
		<tag k="ssr:stedsnr" v="110087" />
	</node>
	<node lat="70.06435277548994" lon="20.63601108218211" id="-103113">
		<tag k="name" v="Kvilarsteinen" />
		<tag k="natural" v="stone" />
		<tag k="ssr:stedsnr" v="109975" />
	</node>
	<node lat="70.03723055906994" lon="20.98905553878327" id="-103180">
		<tag k="name" v="Kiiljorda" />
		<tag k="place" v="locality" />
		<tag k="ssr:stedsnr" v="230150" />
	</node>
	<node lat="69.99613055504928" lon="21.03384165448348" id="-103185">
		<tag k="name" v="Lillevollen" />
		<tag k="place" v="locality" />
		<tag k="ssr:stedsnr" v="230346" />
	</node>
	<node lat="70.17376110877338" lon="20.79285831278144" id="-103195">
		<tag k="name" v="Midteruran" />
		<tag k="natural" v="scree" />
		<tag k="ssr:stedsnr" v="231245" />
	</node>
	<node lat="69.99173888826397" lon="20.63324442671159" id="-103198">
		<tag k="name" v="Dauingssteinan" />
		<tag k="natural" v="stone" />
		<tag k="ssr:stedsnr" v="231594" />
	</node>
	<node lat="70.09378055651267" lon="20.555361089248308" id="-103263">
		<tag k="name" v="Tynnstein" />
		<tag k="natural" v="stone" />
		<tag k="ssr:stedsnr" v="291803" />
	</node>
	<node lat="70.08179166286509" lon="20.57387220279843" id="-103265">
		<tag k="name" v="Storskogen" />
		<tag k="place" v="locality" />
		<tag k="ssr:stedsnr" v="291800" />
	</node>
	<node lat="69.94467777681798" lon="20.936716631475182" id="-103273">
		<tag k="name" v="Slåtten" />
		<tag k="place" v="locality" />
		<tag k="ssr:stedsnr" v="292145" />
	</node>
	<node lat="69.96149444506756" lon="20.657572204543147" id="-103310">
		<tag k="name" v="Stormyra" />
		<tag k="natural" v="wetland" />
		<tag k="ssr:stedsnr" v="352578" />
	</node>
	<node lat="70.22929721864006" lon="20.684224992214162" id="-103314">
		<tag k="name" v="Brødrene" />
		<tag k="natural" v="stone" />
		<tag k="ssr:stedsnr" v="352914" />
	</node>
	<node lat="70.22602500237835" lon="20.685174995960896" id="-103315">
		<tag k="name" v="Preikestolen" />
		<tag k="natural" v="stone" />
		<tag k="ssr:stedsnr" v="352916" />
	</node>
	<node lat="69.96915277760563" lon="20.75564721043362" id="-103320">
		<tag k="name" v="Erikvollen" />
		<tag k="place" v="locality" />
		<tag k="ssr:stedsnr" v="352872" />
	</node>
	<node lat="69.94897500036382" lon="20.76777498575081" id="-103322">
		<tag k="name" v="Nøysomhet" />
		<tag k="place" v="locality" />
		<tag k="ssr:stedsnr" v="352879" />
	</node>
	<node lat="69.95769167159588" lon="20.96199163497879" id="-103323">
		<tag k="name" v="Rødestykket" />
		<tag k="place" v="locality" />
		<tag k="ssr:stedsnr" v="353183" />
	</node>
	<node lat="70.04051944446512" lon="20.98002498571124" id="-103374">
		<tag k="name" v="Russemyra" />
		<tag k="natural" v="wetland" />
		<tag k="ssr:stedsnr" v="473827" />
	</node>
	<node lat="69.95651666793798" lon="20.96136664431879" id="-103385">
		<tag k="name" v="Telegrammen" />
		<tag k="place" v="locality" />
		<tag k="ssr:stedsnr" v="474157" />
	</node>
	<node lat="69.94371945008903" lon="20.90097774909608" id="-103386">
		<tag k="name" v="Kjerringa" />
		<tag k="natural" v="stone" />
		<tag k="ssr:stedsnr" v="474161" />
	</node>
	<node lat="70.1786583359942" lon="20.446699972240793" id="-103389">
		<tag k="name" v="Storsteinan" />
		<tag k="natural" v="stone" />
		<tag k="ssr:stedsnr" v="412161" />
	</node>
	<node lat="70.04371666645774" lon="20.719513871181114" id="-103393">
		<tag k="name" v="Springarvollen" />
		<tag k="place" v="locality" />
		<tag k="ssr:stedsnr" v="413112" />
	</node>
	<node lat="70.04089444227284" lon="20.96429997386319" id="-103407">
		<tag k="name" v="Måsemyra" />
		<tag k="natural" v="wetland" />
		<tag k="ssr:stedsnr" v="413847" />
	</node>
	<node lat="70.22131389371826" lon="20.658130529590867" id="-103414">
		<tag k="name" v="Stormyra" />
		<tag k="natural" v="wetland" />
		<tag k="ssr:stedsnr" v="444095" />
	</node>
	<node lat="69.95435833265267" lon="20.63601664396924" id="-103484">
		<tag k="name" v="Rotthollmyran" />
		<tag k="natural" v="wetland" />
		<tag k="ssr:stedsnr" v="533587" />
	</node>
	<node lat="69.86501389013549" lon="20.680174991149876" id="-103493">
		<tag k="name" v="Stormyra" />
		<tag k="natural" v="wetland" />
		<tag k="ssr:stedsnr" v="534329" />
	</node>
	<node lat="69.82191110922659" lon="20.72030832162412" id="-103564">
		<tag k="name" v="Klokksteinen" />
		<tag k="natural" v="stone" />
		<tag k="ssr:stedsnr" v="686974" />
	</node>
	<node lat="70.08400277596044" lon="20.565013862570076" id="-103590">
		<tag k="name" v="Kvitsteinen" />
		<tag k="natural" v="stone" />
		<tag k="ssr:stedsnr" v="692955" />
	</node>
	<node lat="69.98465556022524" lon="21.010994425594188" id="-103605">
		<tag k="name" v="Myra" />
		<tag k="natural" v="wetland" />
		<tag k="ssr:stedsnr" v="655843" />
	</node>
	<node lat="70.01754722102933" lon="21.07983886267824" id="-103608">
		<tag k="name" v="Myra" />
		<tag k="natural" v="wetland" />
		<tag k="ssr:stedsnr" v="656206" />
	</node>
	<node lat="70.0001138917485" lon="21.024861098129477" id="-103640">
		<tag k="name" v="Rypeskaua" />
		<tag k="place" v="locality" />
		<tag k="ssr:stedsnr" v="716389" />
	</node>
	<node lat="69.9820166681854" lon="21.005913863842487" id="-103645">
		<tag k="name" v="Brunsteinen" />
		<tag k="natural" v="stone" />
		<tag k="ssr:stedsnr" v="716836" />
	</node>
	<node lat="69.9534027753876" lon="20.758708302072563" id="-103646">
		<tag k="name" v="Storura" />
		<tag k="natural" v="scree" />
		<tag k="ssr:stedsnr" v="716879" />
	</node>
	<node lat="70.17181389057956" lon="20.792322194347133" id="-103657">
		<tag k="name" v="Uran" />
		<tag k="natural" v="scree" />
		<tag k="ssr:stedsnr" v="747021" />
	</node>
	<node lat="69.99554722121519" lon="20.96712775409942" id="-103691">
		<tag k="name" v="Skjærnesmyra" />
		<tag k="natural" v="wetland" />
		<tag k="ssr:stedsnr" v="898338" />
	</node>
	<node lat="69.95706389025442" lon="20.754116643517186" id="-103703">
		<tag k="name" v="Lilleura" />
		<tag k="natural" v="scree" />
		<tag k="ssr:stedsnr" v="898888" />
	</node>
	<node lat="70.02867222183598" lon="21.241927738215807" id="-103706">
		<tag k="name" v="Mellomjord" />
		<tag k="place" v="locality" />
		<tag k="ssr:stedsnr" v="899227" />
	</node>
	<node lat="70.10236388601423" lon="20.535327758094855" id="-103750">
		<tag k="name" v="Lillevollen" />
		<tag k="place" v="locality" />
		<tag k="ssr:stedsnr" v="837136" />
	</node>
	<node lat="70.15026666561245" lon="20.778763871321324" id="-103760">
		<tag k="name" v="Hollsteinen" />
		<tag k="natural" v="stone" />
		<tag k="ssr:stedsnr" v="838196" />
	</node>
	<node lat="70.05932499587547" lon="20.986652762180363" id="-103793">
		<tag k="name" v="Stormyra" />
		<tag k="natural" v="wetland" />
		<tag k="ssr:stedsnr" v="898171" />
	</node>
	<node lat="69.87213611577153" lon="20.692852755247838" id="-103831">
		<tag k="name" v="Klosterskogen" />
		<tag k="place" v="locality" />
		<tag k="ssr:stedsnr" v="958348" />
	</node>
	<node lat="69.95400000305867" lon="20.67719443931074" id="-103834">
		<tag k="name" v="Rødura" />
		<tag k="natural" v="scree" />
		<tag k="ssr:stedsnr" v="958589" />
	</node>
	<node lat="70.17805833441963" lon="20.54572775827265" id="-103843">
		<tag k="name" v="Dalmyran" />
		<tag k="natural" v="wetland" />
		<tag k="ssr:stedsnr" v="959903" />
	</node>
	<node lat="70.01089166917787" lon="20.916883306717526" id="-103876">
		<tag k="loc_name:se" v="Skátter" />
		<tag k="name" v="Skattøra" />
		<tag k="name:no" v="Skattøra" />
		<tag k="place" v="locality" />
		<tag k="ssr:stedsnr" v="19134" />
	</node>
	<node lat="70.04885555498555" lon="20.49865552566343" id="-103880">
		<tag k="name" v="Nesøra" />
		<tag k="place" v="locality" />
		<tag k="ssr:stedsnr" v="19222" />
	</node>
	<node lat="70.18106944394593" lon="20.44893609251954" id="-103905">
		<tag k="name" v="Falkebergskogen" />
		<tag k="place" v="locality" />
		<tag k="ssr:stedsnr" v="48151" />
	</node>
	<node lat="70.04146666531199" lon="20.606066659399715" id="-103934">
		<tag k="name" v="Storura" />
		<tag k="natural" v="scree" />
		<tag k="ssr:stedsnr" v="49699" />
	</node>
	<node lat="70.23145556011218" lon="20.683369419614877" id="-103936">
		<tag k="name" v="Jostein" />
		<tag k="natural" v="stone" />
		<tag k="ssr:stedsnr" v="49935" />
	</node>
	<node lat="70.06871667004577" lon="20.656305527315887" id="-103995">
		<tag k="name" v="Karstenmyrhollet" />
		<tag k="natural" v="wetland" />
		<tag k="ssr:stedsnr" v="109731" />
	</node>
	<node lat="70.0658416688983" lon="20.640477762557175" id="-103997">
		<tag k="name" v="Stormyra" />
		<tag k="natural" v="wetland" />
		<tag k="ssr:stedsnr" v="109737" />
	</node>
	<node lat="69.88576944526973" lon="20.564952749380012" id="-104007">
		<tag k="name" v="Melen" />
		<tag k="place" v="locality" />
		<tag k="ssr:stedsnr" v="110329" />
	</node>
	<node lat="69.97462777990619" lon="20.650291647673992" id="-104015">
		<tag k="name" v="Storsteinen" />
		<tag k="natural" v="stone" />
		<tag k="ssr:stedsnr" v="110550" />
	</node>
	<node lat="70.06993888755393" lon="20.87815276822292" id="-104030">
		<tag k="name" v="Sandbakken" />
		<tag k="place" v="locality" />
		<tag k="ssr:stedsnr" v="140246" />
	</node>
	<node lat="70.06898889172771" lon="20.495724988814743" id="-104053">
		<tag k="name" v="Elvøra" />
		<tag k="place" v="locality" />
		<tag k="ssr:stedsnr" v="169096" />
	</node>
	<node lat="69.91463889270565" lon="20.7012833052813" id="-104057">
		<tag k="name" v="Sandøra" />
		<tag k="place" v="locality" />
		<tag k="ssr:stedsnr" v="169347" />
	</node>
	<node lat="70.17546666849292" lon="20.793791653946208" id="-104065">
		<tag k="name" v="Ytteruran" />
		<tag k="natural" v="scree" />
		<tag k="ssr:stedsnr" v="170241" />
	</node>
	<node lat="69.98784722564176" lon="20.92071941838451" id="-104079">
		<tag k="name" v="Storsteinen" />
		<tag k="natural" v="stone" />
		<tag k="ssr:stedsnr" v="170296" />
	</node>
	<node lat="70.06960000512639" lon="20.650086087582817" id="-104090">
		<tag k="name" v="Rødsandmelen" />
		<tag k="place" v="locality" />
		<tag k="ssr:stedsnr" v="170785" />
	</node>
	<node lat="70.19743333239242" lon="20.650136090919812" id="-104107">
		<tag k="name" v="Festningsura" />
		<tag k="natural" v="scree" />
		<tag k="ssr:stedsnr" v="201093" />
	</node>
	<node lat="70.07459166506585" lon="20.816169433402827" id="-104141">
		<tag k="name" v="Kjerringtoften" />
		<tag k="place" v="locality" />
		<tag k="ssr:stedsnr" v="212374" />
	</node>
	<node lat="70.01113055245936" lon="21.071688863090458" id="-104176">
		<tag k="name" v="Hakksteinøra" />
		<tag k="place" v="locality" />
		<tag k="ssr:stedsnr" v="291220" />
	</node>
	<node lat="70.03287500256681" lon="20.951902764560213" id="-104180">
		<tag k="name" v="Kaffelunden" />
		<tag k="place" v="locality" />
		<tag k="ssr:stedsnr" v="291157" />
	</node>
	<node lat="69.9214111128883" lon="20.68108886767783" id="-104197">
		<tag k="name" v="Sandøra" />
		<tag k="place" v="locality" />
		<tag k="ssr:stedsnr" v="291387" />
	</node>
	<node lat="70.18897500312505" lon="20.63347220897948" id="-104206">
		<tag k="name" v="Handelssletta" />
		<tag k="natural" v="wetland" />
		<tag k="ssr:stedsnr" v="291931" />
	</node>
	<node lat="70.15957778237758" lon="20.40560276174047" id="-104274">
		<tag k="name" v="Tobbevikura" />
		<tag k="natural" v="scree" />
		<tag k="ssr:stedsnr" v="351189" />
	</node>
	<node lat="69.95641388646216" lon="20.658752744703218" id="-104278">
		<tag k="name" v="Allmenningen" />
		<tag k="natural" v="wetland" />
		<tag k="ssr:stedsnr" v="351545" />
	</node>
	<node lat="69.96567222268027" lon="20.665977771718797" id="-104279">
		<tag k="name" v="Håan" />
		<tag k="place" v="locality" />
		<tag k="ssr:stedsnr" v="351552" />
	</node>
	<node lat="70.19334722348934" lon="20.539044422013124" id="-104302">
		<tag k="name" v="Nils-Mortenura" />
		<tag k="natural" v="scree" />
		<tag k="ssr:stedsnr" v="352293" />
	</node>
	<node lat="70.01262222551028" lon="20.974047200716235" id="-104306">
		<tag k="name" v="Nilsengen" />
		<tag k="place" v="locality" />
		<tag k="ssr:stedsnr" v="352311" />
	</node>
	<node lat="69.97401944624694" lon="20.642399990525156" id="-104309">
		<tag k="name" v="Trondalsmyra" />
		<tag k="natural" v="wetland" />
		<tag k="ssr:stedsnr" v="352528" />
	</node>
	<node lat="69.94066388551796" lon="20.66216941893831" id="-104311">
		<tag k="name" v="Storvollen" />
		<tag k="place" v="locality" />
		<tag k="ssr:stedsnr" v="352554" />
	</node>
	<node lat="70.04569999660993" lon="20.549405531460643" id="-104316">
		<tag k="name" v="Monsslettura" />
		<tag k="natural" v="scree" />
		<tag k="ssr:stedsnr" v="352644" />
	</node>
	<node lat="70.0604861156685" lon="20.56366664987837" id="-104321">
		<tag k="name" v="Teppsteinen" />
		<tag k="natural" v="stone" />
		<tag k="ssr:stedsnr" v="352731" />
	</node>
	<node lat="70.08137222390161" lon="20.64523332750183" id="-104322">
		<tag k="name" v="Moldbredden" />
		<tag k="place" v="locality" />
		<tag k="ssr:stedsnr" v="352735" />
	</node>
	<node lat="70.03301666972442" lon="20.55463887072833" id="-104399">
		<tag k="name" v="Ullsteinen" />
		<tag k="natural" v="stone" />
		<tag k="ssr:stedsnr" v="413842" />
	</node>
	<node lat="70.04086388604367" lon="20.5338388688402" id="-104400">
		<tag k="name" v="Storsteinøra" />
		<tag k="place" v="locality" />
		<tag k="ssr:stedsnr" v="413914" />
	</node>
	<node lat="70.19206667058488" lon="20.706580538016446" id="-104402">
		<tag k="name" v="Johanura" />
		<tag k="natural" v="scree" />
		<tag k="ssr:stedsnr" v="413936" />
	</node>
	<node lat="69.94336944665335" lon="20.63419719818775" id="-104441">
		<tag k="name" v="Gammelværskogen" />
		<tag k="place" v="locality" />
		<tag k="ssr:stedsnr" v="533564" />
	</node>
	<node lat="70.16254444539385" lon="20.78689720634182" id="-104444">
		<tag k="name" v="Gjømmersteinen" />
		<tag k="natural" v="stone" />
		<tag k="ssr:stedsnr" v="534147" />
	</node>
	<node lat="69.97917777987963" lon="20.94423053085928" id="-104451">
		<tag k="name" v="Sanden" />
		<tag k="natural" v="beach" />
		<tag k="ssr:stedsnr" v="534247" />
		<tag k="surface" v="sand" />
	</node>
	<node lat="70.12961389364719" lon="20.743291649548304" id="-104456">
		<tag k="name" v="Ura" />
		<tag k="natural" v="scree" />
		<tag k="ssr:stedsnr" v="534200" />
	</node>
	<node lat="70.17245833197245" lon="20.527041653699012" id="-104459">
		<tag k="name" v="Slåttemyran" />
		<tag k="natural" v="wetland" />
		<tag k="ssr:stedsnr" v="534257" />
	</node>
	<node lat="70.06944999627868" lon="20.646066658784232" id="-104477">
		<tag k="name" v="Gaiabermelen" />
		<tag k="place" v="locality" />
		<tag k="ssr:stedsnr" v="534773" />
	</node>
	<node lat="70.0064666667455" lon="20.95269719684775" id="-104486">
		<tag k="name" v="Langøra" />
		<tag k="place" v="locality" />
		<tag k="ssr:stedsnr" v="535320" />
	</node>
	<node lat="69.957969446708" lon="20.850733319779856" id="-104512">
		<tag k="name" v="Blåisen" />
		<tag k="natural" v="glacier" />
		<tag k="ssr:stedsnr" v="565450" />
	</node>
	<node lat="70.03612222732782" lon="20.608141648632117" id="-104530">
		<tag k="alt_name" v="Skarvesteinen" />
		<tag k="name" v="Skarvsteinen" />
		<tag k="natural" v="stone" />
		<tag k="ssr:stedsnr" v="570989" />
	</node>
	<node lat="70.11697221979249" lon="20.378133316670738" id="-104533">
		<tag k="loc_name:se" v="Dánus" />
		<tag k="name" v="Dankussen" />
		<tag k="name:no" v="Dankussen" />
		<tag k="natural" v="scree" />
		<tag k="ssr:stedsnr" v="575355" />
	</node>
	<node lat="70.0675583329904" lon="20.533844423260387" id="-104542">
		<tag k="name" v="Josmosteinen" />
		<tag k="natural" v="stone" />
		<tag k="ssr:stedsnr" v="594130" />
	</node>
	<node lat="70.04316666476055" lon="21.003255537971313" id="-104543">
		<tag k="name" v="Danielmyra" />
		<tag k="natural" v="wetland" />
		<tag k="ssr:stedsnr" v="594140" />
	</node>
	<node lat="70.17214444023794" lon="20.78988887856834" id="-104544">
		<tag k="name" v="Urskjolten" />
		<tag k="natural" v="scree" />
		<tag k="ssr:stedsnr" v="594219" />
	</node>
	<node lat="69.9992972242918" lon="20.977916638743103" id="-104554">
		<tag k="name" v="Maritmyra" />
		<tag k="natural" v="wetland" />
		<tag k="ssr:stedsnr" v="594348" />
	</node>
	<node lat="70.04584166300475" lon="20.647861094085506" id="-104558">
		<tag k="name" v="Draugnesøra" />
		<tag k="place" v="locality" />
		<tag k="ssr:stedsnr" v="594842" />
	</node>
	<node lat="69.90912500016455" lon="20.72436664262399" id="-104562">
		<tag k="name" v="Storsteinmyra" />
		<tag k="natural" v="wetland" />
		<tag k="ssr:stedsnr" v="594864" />
	</node>
	<node lat="70.2310277787745" lon="20.63738609729281" id="-104569">
		<tag k="name" v="Sørøra" />
		<tag k="place" v="locality" />
		<tag k="ssr:stedsnr" v="594925" />
	</node>
	<node lat="70.00418333747203" lon="20.93108610144181" id="-104577">
		<tag k="alt_name" v="Sandøyra" />
		<tag k="name" v="Sandøra" />
		<tag k="place" v="locality" />
		<tag k="ssr:stedsnr" v="625134" />
	</node>
	<node lat="70.09718888754846" lon="20.469586107231788" id="-104620">
		<tag k="name" v="Gråstein" />
		<tag k="natural" v="stone" />
		<tag k="ssr:stedsnr" v="655010" />
	</node>
	<node lat="70.17234444609572" lon="20.508077759381766" id="-104630">
		<tag k="name" v="Slåttan" />
		<tag k="place" v="locality" />
		<tag k="ssr:stedsnr" v="655270" />
	</node>
	<node lat="69.8633500016968" lon="20.678455530278686" id="-104635">
		<tag k="name" v="Stormyra" />
		<tag k="natural" v="wetland" />
		<tag k="ssr:stedsnr" v="655333" />
	</node>
	<node lat="70.20587222525991" lon="20.673177751563703" id="-104650">
		<tag k="name" v="Kumyran" />
		<tag k="natural" v="wetland" />
		<tag k="ssr:stedsnr" v="655925" />
	</node>
	<node lat="70.23203333197728" lon="20.655544421851676" id="-104651">
		<tag k="name" v="Nordøra" />
		<tag k="place" v="locality" />
		<tag k="ssr:stedsnr" v="655927" />
	</node>
	<node lat="70.18831111207943" lon="20.519436094406736" id="-104689">
		<tag k="name" v="Pikstein" />
		<tag k="natural" v="stone" />
		<tag k="ssr:stedsnr" v="716336" />
	</node>
	<node lat="70.19303888533724" lon="20.608780540674445" id="-104699">
		<tag k="name" v="Stormyra" />
		<tag k="natural" v="wetland" />
		<tag k="ssr:stedsnr" v="716925" />
	</node>
	<node lat="70.06867500262706" lon="20.64508330509465" id="-104702">
		<tag k="name" v="Småmelen" />
		<tag k="place" v="locality" />
		<tag k="ssr:stedsnr" v="716772" />
	</node>
	<node lat="69.98830277552972" lon="21.033016644605315" id="-104704">
		<tag k="name" v="Oterstokkmyran" />
		<tag k="natural" v="wetland" />
		<tag k="ssr:stedsnr" v="716838" />
	</node>
	<node lat="69.89613333487677" lon="20.718724994033337" id="-104705">
		<tag k="name" v="Klauvnesvollen" />
		<tag k="place" v="locality" />
		<tag k="ssr:stedsnr" v="716874" />
	</node>
	<node lat="70.15166389213323" lon="20.755552751642146" id="-104769">
		<tag k="name" v="Lilledalsskjolten" />
		<tag k="natural" v="scree" />
		<tag k="ssr:stedsnr" v="777138" />
	</node>
	<node lat="70.03123611352052" lon="20.750166660347908" id="-104803">
		<tag k="name" v="Snarstein" />
		<tag k="natural" v="stone" />
		<tag k="ssr:stedsnr" v="808203" />
	</node>
	<node lat="70.10014166720829" lon="20.465272216071128" id="-104863">
		<tag k="name" v="Kløvstein" />
		<tag k="natural" v="stone" />
		<tag k="ssr:stedsnr" v="838009" />
	</node>
	<node lat="70.04193610937787" lon="20.967080519888714" id="-104878">
		<tag k="name" v="Isakeidmyra" />
		<tag k="natural" v="wetland" />
		<tag k="ssr:stedsnr" v="838846" />
	</node>
	<node lat="69.95103888737171" lon="20.95308331542694" id="-104894">
		<tag k="name" v="Finnsteinan" />
		<tag k="natural" v="stone" />
		<tag k="ssr:stedsnr" v="839146" />
	</node>
	<node lat="70.19946666543157" lon="20.522983308610232" id="-104913">
		<tag k="name" v="Brurstein" />
		<tag k="natural" v="stone" />
		<tag k="ssr:stedsnr" v="869114" />
	</node>
	<node lat="69.91976666465854" lon="20.694347190064057" id="-104974">
		<tag k="name" v="Kvitsanden" />
		<tag k="natural" v="beach" />
		<tag k="ssr:stedsnr" v="958360" />
		<tag k="surface" v="sand" />
	</node>
	<node lat="70.03679722663966" lon="20.97551385710106" id="-104982">
		<tag k="name" v="Prestejorda" />
		<tag k="place" v="locality" />
		<tag k="ssr:stedsnr" v="959134" />
	</node>
	<node lat="70.03932222682194" lon="20.62537220653029" id="-104994">
		<tag k="name" v="Stakenesøra" />
		<tag k="place" v="locality" />
		<tag k="ssr:stedsnr" v="959655" />
	</node>
	<node lat="70.04245833640334" lon="20.981544420062644" id="-105003">
		<tag k="name" v="Olufmyra" />
		<tag k="natural" v="wetland" />
		<tag k="ssr:stedsnr" v="959819" />
	</node>
</osm>
