<?xml version="1.0" encoding="UTF-8"?>
<osm version="0.6" generator="osmapis">
	<node lat="70.05816944200288" lon="20.99716387353423" id="-65117">
		<tag k="name" v="Porten" />
		<tag k="natural" v="bay" />
		<tag k="ssr:stedsnr" v="230197" />
	</node>
	<node lat="69.92273888811131" lon="20.686758312881825" id="-65121">
		<tag k="name" v="Høeghbergbukta" />
		<tag k="natural" v="bay" />
		<tag k="ssr:stedsnr" v="230341" />
	</node>
	<node lat="69.90538055496705" lon="20.579283308160623" id="-65126">
		<tag k="name" v="Ytre Rakkenesodden" />
		<tag k="natural" v="cape" />
		<tag k="ssr:stedsnr" v="230366" />
	</node>
	<node lat="69.98182222269119" lon="20.999922204759862" id="-65130">
		<tag k="name" v="Bukta" />
		<tag k="natural" v="bay" />
		<tag k="ssr:stedsnr" v="230817" />
	</node>
	<node lat="70.23713055657284" lon="20.7077138755475" id="-65135">
		<tag k="name" v="Rubertkeila" />
		<tag k="natural" v="bay" />
		<tag k="ssr:stedsnr" v="230938" />
	</node>
	<node lat="70.14307777443942" lon="20.373947199542144" id="-65136">
		<tag k="name" v="Trollbuktneset" />
		<tag k="natural" v="cape" />
		<tag k="ssr:stedsnr" v="230962" />
	</node>
	<node lat="70.2245888878304" lon="20.758847195495473" id="-65142">
		<tag k="name" v="Indre Klubbekråa" />
		<tag k="natural" v="bay" />
		<tag k="ssr:stedsnr" v="231157" />
	</node>
	<node lat="70.22661388603733" lon="20.75781664260498" id="-65143">
		<tag k="name" v="Ytre Klubbekråa" />
		<tag k="natural" v="bay" />
		<tag k="ssr:stedsnr" v="231158" />
	</node>
	<node lat="69.9727472217951" lon="20.625780527771425" id="-65153">
		<tag k="name" v="Slånken" />
		<tag k="natural" v="bay" />
		<tag k="ssr:stedsnr" v="231617" />
	</node>
	<node lat="69.94573333379427" lon="20.67264442109832" id="-65154">
		<tag k="name" v="Bjørnvikneset" />
		<tag k="natural" v="cape" />
		<tag k="ssr:stedsnr" v="231627" />
	</node>
	<node lat="70.23073888855481" lon="20.644333321565068" id="-65158">
		<tag k="name" v="Bukta" />
		<tag k="natural" v="bay" />
		<tag k="ssr:stedsnr" v="231921" />
	</node>
	<node lat="69.94646944178572" lon="20.76966941786293" id="-65169">
		<tag k="name" v="Jektsetodden" />
		<tag k="natural" v="cape" />
		<tag k="ssr:stedsnr" v="19545" />
	</node>
	<node lat="69.94916666709565" lon="20.677791656984045" id="-65170">
		<tag k="alt_name" v="Forraneset" />
		<tag k="name" v="Furuneset" />
		<tag k="natural" v="cape" />
		<tag k="ssr:stedsnr" v="19547" />
	</node>
	<node lat="70.18052499743007" lon="20.424397214780825" id="-65175">
		<tag k="name" v="Slumpen" />
		<tag k="natural" v="cape" />
		<tag k="ssr:stedsnr" v="24502" />
	</node>
	<node lat="70.05862222632004" lon="20.6362416565268" id="-65177">
		<tag k="name" v="Rotnes" />
		<tag k="natural" v="cape" />
		<tag k="ssr:stedsnr" v="25987" />
	</node>
	<node lat="70.13880555491708" lon="20.769127753764902" id="-65180">
		<tag k="name" v="Lyngnes" />
		<tag k="natural" v="cape" />
		<tag k="ssr:stedsnr" v="29318" />
	</node>
	<node lat="69.92543888587936" lon="20.66800276040041" id="-65184">
		<tag k="fixme" v="consider seamark:type=rock or natural=shoal" />
		<tag k="name" v="Kvitsteinan" />
		<tag k="place" v="islet" />
		<tag k="ssr:stedsnr" v="48323" />
	</node>
	<node lat="70.0564444410527" lon="20.49650275356961" id="-65199">
		<tag k="name" v="Sandbakkbukta" />
		<tag k="natural" v="bay" />
		<tag k="ssr:stedsnr" v="49904" />
	</node>
	<node lat="70.15494999670003" lon="20.84010554288626" id="-65202">
		<tag k="name" v="Hellnesodden" />
		<tag k="natural" v="cape" />
		<tag k="ssr:stedsnr" v="80002" />
	</node>
	<node lat="70.15758611255985" lon="20.787186103202377" id="-65203">
		<tag k="name" v="Tarenesbukta" />
		<tag k="natural" v="bay" />
		<tag k="ssr:stedsnr" v="80006" />
	</node>
	<node lat="70.20736111481229" lon="20.807747194427957" id="-65204">
		<tag k="name" v="Skutekråa" />
		<tag k="natural" v="bay" />
		<tag k="ssr:stedsnr" v="80102" />
	</node>
	<node lat="70.04295860913295" lon="21.01561157172199" id="-65207">
		<tag k="name" v="Ramnnes" />
		<tag k="natural" v="cape" />
		<tag k="ssr:stedsnr" v="80238" />
	</node>
	<node lat="70.02903610739958" lon="21.221369419682457" id="-65208">
		<tag k="name" v="Nesbukta" />
		<tag k="natural" v="bay" />
		<tag k="ssr:stedsnr" v="80340" />
	</node>
	<node lat="69.97406944221015" lon="20.626855533828042" id="-65209">
		<tag k="alt_name" v="Tronddalsneset" />
		<tag k="name" v="Trondalsneset" />
		<tag k="natural" v="cape" />
		<tag k="ssr:stedsnr" v="80605" />
	</node>
	<node lat="69.91755822537648" lon="20.68737688237022" id="-65210">
		<tag k="alt_name" v="Follesøya, l" />
		<tag k="name" v="Lille Follesøya" />
		<tag k="place" v="island" />
		<tag k="ssr:stedsnr" v="80587" />
	</node>
	<node lat="70.19886110870411" lon="20.446577771108906" id="-65211">
		<tag k="name" v="Bentsgrunnen" />
		<tag k="natural" v="shoal" />
		<tag k="place" v="locality" />
		<tag k="ssr:stedsnr" v="84495" />
	</node>
	<node lat="70.03634999790421" lon="20.535961081594934" id="-65212">
		<tag k="name" v="Oddebukta" />
		<tag k="natural" v="bay" />
		<tag k="ssr:stedsnr" v="85924" />
	</node>
	<node lat="70.05717499628084" lon="20.40385276064698" id="-65213">
		<tag k="name" v="Nakkekeila" />
		<tag k="natural" v="bay" />
		<tag k="ssr:stedsnr" v="86905" />
	</node>
	<node lat="70.07102500095348" lon="20.35873886283899" id="-65214">
		<tag k="name" v="Godklakk" />
		<tag k="natural" v="shoal" />
		<tag k="ssr:stedsnr" v="86877" />
	</node>
	<node lat="70.21399999852105" lon="20.99531387339151" id="-65216">
		<tag k="name" v="Breitindskallen" />
		<tag k="natural" v="shoal" />
		<tag k="place" v="locality" />
		<tag k="ssr:stedsnr" v="90176" />
	</node>
	<node lat="70.0366999962874" lon="21.271938865622854" id="-65218">
		<tag k="name" v="Klubben" />
		<tag k="natural" v="cape" />
		<tag k="ssr:stedsnr" v="106039" />
	</node>
	<node lat="70.00280636908423" lon="21.037951130212665" id="-65219">
		<tag k="name" v="Leirvågneset" />
		<tag k="natural" v="cape" />
		<tag k="ssr:stedsnr" v="106978" />
	</node>
	<node lat="70.13204166714323" lon="20.760847197201993" id="-65220">
		<tag k="name" v="Neset" />
		<tag k="natural" v="cape" />
		<tag k="ssr:stedsnr" v="109203" />
	</node>
	<node lat="70.17288055284867" lon="20.41206387388415" id="-65227">
		<tag k="name" v="Bergeneset" />
		<tag k="natural" v="cape" />
		<tag k="ssr:stedsnr" v="109171" />
	</node>
	<node lat="70.16833333392015" lon="20.411663882916418" id="-65229">
		<tag k="name" v="Hallerenna" />
		<tag k="natural" v="bay" />
		<tag k="ssr:stedsnr" v="109179" />
	</node>
	<node lat="70.225358334684" lon="20.75738053477359" id="-65245">
		<tag k="name" v="Langkeila" />
		<tag k="natural" v="bay" />
		<tag k="ssr:stedsnr" v="110124" />
	</node>
	<node lat="69.99298333510384" lon="20.91150829951821" id="-65252">
		<tag k="name" v="Laksenotneset" />
		<tag k="natural" v="cape" />
		<tag k="ssr:stedsnr" v="110332" />
	</node>
	<node lat="70.18754444321473" lon="20.449874984022962" id="-65253">
		<tag k="fixme" v="consider seamark:type=rock or natural=shoal" />
		<tag k="name" v="Steinen" />
		<tag k="place" v="islet" />
		<tag k="ssr:stedsnr" v="110272" />
	</node>
	<node lat="70.13705833404889" lon="20.870438877151628" id="-65258">
		<tag k="name" v="Molneset" />
		<tag k="natural" v="cape" />
		<tag k="ssr:stedsnr" v="140041" />
	</node>
	<node lat="70.1286027817961" lon="20.881299969769543" id="-65259">
		<tag k="name" v="Tennkeilvika" />
		<tag k="natural" v="bay" />
		<tag k="ssr:stedsnr" v="140042" />
	</node>
	<node lat="70.23080833148461" lon="20.75564721101288" id="-65260">
		<tag k="name" v="Klubben" />
		<tag k="natural" v="cape" />
		<tag k="ssr:stedsnr" v="140089" />
	</node>
	<node lat="69.98223055633268" lon="20.49874999343705" id="-65264">
		<tag k="name" v="Lyngsbåen" />
		<tag k="natural" v="shoal" />
		<tag k="ssr:stedsnr" v="140586" />
	</node>
	<node lat="69.95498889332193" lon="20.61114443629265" id="-65265">
		<tag k="name" v="Klubben" />
		<tag k="natural" v="cape" />
		<tag k="ssr:stedsnr" v="140592" />
	</node>
	<node lat="70.04875277408003" lon="20.64208609536873" id="-65267">
		<tag k="bay" v="fjord" />
		<tag k="loc_name:se" v="Rudnesvuotna" />
		<tag k="name" v="Grunnfjorden" />
		<tag k="name:no" v="Grunnfjorden" />
		<tag k="natural" v="bay" />
		<tag k="ssr:stedsnr" v="141505" />
	</node>
	<node lat="69.9010833323461" lon="20.768877745912405" id="-65269">
		<tag k="name" v="Klakken" />
		<tag k="natural" v="shoal" />
		<tag k="place" v="locality" />
		<tag k="ssr:stedsnr" v="145735" />
	</node>
	<node lat="70.0256055554891" lon="20.856497187907774" id="-65271">
		<tag k="name" v="Torvberget" />
		<tag k="natural" v="cape" />
		<tag k="ssr:stedsnr" v="150806" />
	</node>
	<node lat="69.90514166959656" lon="20.608888875043867" id="-65273">
		<tag k="name" v="Berlevika" />
		<tag k="natural" v="bay" />
		<tag k="ssr:stedsnr" v="166809" />
	</node>
	<node lat="70.16957778226042" lon="20.41107497716717" id="-65274">
		<tag k="name" v="Kvitberg" />
		<tag k="natural" v="cape" />
		<tag k="ssr:stedsnr" v="169165" />
	</node>
	<node lat="70.12726666592182" lon="20.882888870228175" id="-65275">
		<tag k="name" v="Tennkeilodden" />
		<tag k="natural" v="cape" />
		<tag k="ssr:stedsnr" v="170203" />
	</node>
	<node lat="70.06115555387737" lon="20.996322201738693" id="-65276">
		<tag k="name" v="Engnes" />
		<tag k="natural" v="cape" />
		<tag k="ssr:stedsnr" v="170205" />
	</node>
	<node lat="70.11579166726641" lon="20.901763870761872" id="-65279">
		<tag k="name" v="Midterneset" />
		<tag k="natural" v="cape" />
		<tag k="ssr:stedsnr" v="170220" />
	</node>
	<node lat="69.99673055911106" lon="21.036591646659016" id="-65287">
		<tag k="name" v="Ringneset" />
		<tag k="natural" v="cape" />
		<tag k="ssr:stedsnr" v="170373" />
	</node>
	<node lat="69.9699805531894" lon="20.626719430336394" id="-65288">
		<tag k="name" v="Irvineset" />
		<tag k="natural" v="cape" />
		<tag k="ssr:stedsnr" v="170602" />
	</node>
	<node lat="69.9960444453531" lon="20.904055535351063" id="-65296">
		<tag k="name" v="Flua" />
		<tag k="place" v="locality" />
		<tag k="seamark:type" v="rock" />
		<tag k="ssr:stedsnr" v="171306" />
	</node>
	<node lat="70.08080277922386" lon="20.36958888305583" id="-65298">
		<tag k="fixme" v="consider seamark:type=rock or natural=shoal" />
		<tag k="name" v="Rødmannen" />
		<tag k="place" v="islet" />
		<tag k="ssr:stedsnr" v="261095" />
	</node>
	<node lat="69.96264999715133" lon="20.683111085020784" id="-65299">
		<tag k="name" v="Kåvikneset" />
		<tag k="natural" v="cape" />
		<tag k="ssr:stedsnr" v="261581" />
	</node>
	<node lat="70.03140791924075" lon="20.84757137267597" id="-65305">
		<tag k="fixme" v="consider seamark:type=rock or natural=shoal" />
		<tag k="name" v="Storstein" />
		<tag k="place" v="islet" />
		<tag k="ssr:stedsnr" v="262222" />
	</node>
	<node lat="70.0266333310621" lon="20.715244433833444" id="-65306">
		<tag k="name" v="Kåggrunnen" />
		<tag k="natural" v="shoal" />
		<tag k="place" v="locality" />
		<tag k="ssr:stedsnr" v="262225" />
	</node>
	<node lat="69.99242777732599" lon="21.06355829881157" id="-65311">
		<tag k="name" v="Marilineset" />
		<tag k="natural" v="cape" />
		<tag k="ssr:stedsnr" v="262913" />
	</node>
	<node lat="70.1652388864352" lon="20.40923608989405" id="-65312">
		<tag k="name" v="Tennurbukta" />
		<tag k="natural" v="bay" />
		<tag k="ssr:stedsnr" v="262942" />
	</node>
	<node lat="70.02246111456034" lon="21.059033299822747" id="-65314">
		<tag k="name" v="Måsefloggrunnen" />
		<tag k="natural" v="shoal" />
		<tag k="place" v="locality" />
		<tag k="ssr:stedsnr" v="272599" />
	</node>
	<node lat="70.10196944046366" lon="21.117205536303345" id="-65315">
		<tag k="name" v="Skjærvøybåan" />
		<tag k="natural" v="shoal" />
		<tag k="place" v="locality" />
		<tag k="ssr:stedsnr" v="272695" />
	</node>
	<node lat="70.04754722192176" lon="20.655849981610036" id="-65320">
		<tag k="name" v="Draugneset" />
		<tag k="natural" v="cape" />
		<tag k="ssr:stedsnr" v="201205" />
	</node>
	<node lat="70.05607499648256" lon="20.798730538687234" id="-65322">
		<tag k="alt_name" v="Litlesingla" />
		<tag k="name" v="Lille Singla" />
		<tag k="natural" v="cape" />
		<tag k="ssr:stedsnr" v="201210" />
	</node>
	<node lat="70.03219444716238" lon="20.559616638983474" id="-65324">
		<tag k="loc_name:se" v="Hovvanšši" />
		<tag k="name" v="Haugnes" />
		<tag k="name:no" v="Haugnes" />
		<tag k="natural" v="cape" />
		<tag k="ssr:stedsnr" v="201198" />
	</node>
	<node lat="69.99481389409758" lon="20.985358307535083" id="-65325">
		<tag k="name" v="Øya" />
		<tag k="natural" v="cape" />
		<tag k="ssr:stedsnr" v="201620" />
	</node>
	<node lat="70.14442222026975" lon="20.855472211456622" id="-65327">
		<tag k="name" v="Omnan" />
		<tag k="natural" v="cape" />
		<tag k="ssr:stedsnr" v="202503" />
	</node>
	<node lat="69.9494861128014" lon="20.766983311468753" id="-65328">
		<tag k="name" v="Jektsetet" />
		<tag k="natural" v="beach" />
		<tag k="ssr:stedsnr" v="267745" />
	</node>
	<node lat="70.05236111396222" lon="20.548077754567114" id="-65330">
		<tag k="name" v="Toftenesbukta" />
		<tag k="natural" v="bay" />
		<tag k="ssr:stedsnr" v="206939" />
	</node>
	<node lat="70.05191388620592" lon="20.51176108496234" id="-65331">
		<tag k="name" v="Revet" />
		<tag k="natural" v="shoal" />
		<tag k="place" v="locality" />
		<tag k="ssr:stedsnr" v="207613" />
	</node>
	<node lat="70.04598889380559" lon="20.450227758517833" id="-65332">
		<tag k="name" v="Ytter-Bergneset" />
		<tag k="natural" v="cape" />
		<tag k="ssr:stedsnr" v="268910" />
	</node>
	<node lat="70.010475002007" lon="21.05187219510766" id="-65333">
		<tag k="alt_name" v="Småskjæran" />
		<tag k="fixme" v="consider seamark:type=rock or natural=shoal" />
		<tag k="name" v="Småskjæret" />
		<tag k="place" v="islet" />
		<tag k="ssr:stedsnr" v="228980" />
	</node>
	<node lat="70.28684722111713" lon="20.824155545368324" id="-65334">
		<tag k="name" v="Vester-Votten" />
		<tag k="natural" v="shoal" />
		<tag k="place" v="locality" />
		<tag k="ssr:stedsnr" v="449447" />
	</node>
	<node lat="70.11848333223361" lon="20.753966649314496" id="-65343">
		<tag k="name" v="Solnes" />
		<tag k="natural" v="cape" />
		<tag k="ssr:stedsnr" v="231207" />
	</node>
	<node lat="70.06518888920921" lon="20.49181386257252" id="-65352">
		<tag k="name" v="Hamna" />
		<tag k="natural" v="bay" />
		<tag k="ssr:stedsnr" v="450156" />
	</node>
	<node lat="70.10059722721836" lon="20.775411082575566" id="-65353">
		<tag k="name" v="Kjelvågbukta" />
		<tag k="natural" v="bay" />
		<tag k="ssr:stedsnr" v="454426" />
	</node>
	<node lat="70.26318888778839" lon="20.600919430095175" id="-65354">
		<tag k="name" v="Rekvikklakken" />
		<tag k="natural" v="shoal" />
		<tag k="place" v="locality" />
		<tag k="ssr:stedsnr" v="454219" />
	</node>
	<node lat="70.2845833336058" lon="20.70773053777639" id="-65355">
		<tag k="name" v="Larsklakk" />
		<tag k="natural" v="shoal" />
		<tag k="place" v="locality" />
		<tag k="ssr:stedsnr" v="454256" />
	</node>
	<node lat="70.0432333340845" lon="21.165519415939933" id="-65357">
		<tag k="name" v="Skallen" />
		<tag k="natural" v="shoal" />
		<tag k="place" v="locality" />
		<tag k="ssr:stedsnr" v="454647" />
	</node>
	<node lat="70.10099166617788" lon="20.965883299978167" id="-65359">
		<tag k="name" v="Novibakken" />
		<tag k="natural" v="shoal" />
		<tag k="place" v="locality" />
		<tag k="ssr:stedsnr" v="454743" />
	</node>
	<node lat="70.04375555996265" lon="20.96324719603434" id="-65360">
		<tag k="name" v="Mellaeidet" />
		<tag k="place" v="locality" />
		<tag k="ssr:stedsnr" v="454833" />
	</node>
	<node lat="69.97069167034485" lon="20.966958300323203" id="-65361">
		<tag k="name" v="Kobbpollneset" />
		<tag k="natural" v="cape" />
		<tag k="ssr:stedsnr" v="261605" />
	</node>
	<node lat="70.21365833673784" lon="20.401908317350877" id="-65370">
		<tag k="name" v="Næringstø" />
		<tag k="natural" v="shoal" />
		<tag k="place" v="locality" />
		<tag k="ssr:stedsnr" v="266431" />
	</node>
	<node lat="70.22097221809966" lon="20.412805547870914" id="-65371">
		<tag k="name" v="Juksen" />
		<tag k="natural" v="shoal" />
		<tag k="place" v="locality" />
		<tag k="ssr:stedsnr" v="266504" />
	</node>
	<node lat="69.95652777576397" lon="20.48285553840321" id="-65372">
		<tag k="name" v="Borterskallen" />
		<tag k="natural" v="shoal" />
		<tag k="ssr:stedsnr" v="267738" />
	</node>
	<node lat="70.07581666772776" lon="20.37205554405494" id="-65375">
		<tag k="name" v="Skarvholet" />
		<tag k="natural" v="bay" />
		<tag k="ssr:stedsnr" v="268868" />
	</node>
	<node lat="70.03779444252218" lon="20.803552748059676" id="-65378">
		<tag k="name" v="Nordre Vittnesbukta" />
		<tag k="natural" v="bay" />
		<tag k="ssr:stedsnr" v="272802" />
	</node>
	<node lat="69.91609166802229" lon="20.66593052569971" id="-65383">
		<tag k="name" v="Hellaren" />
		<tag k="natural" v="cape" />
		<tag k="ssr:stedsnr" v="291386" />
	</node>
	<node lat="69.90944999654073" lon="20.690197197364164" id="-65389">
		<tag k="name" v="Steinbiten" />
		<tag k="natural" v="shoal" />
		<tag k="place" v="locality" />
		<tag k="ssr:stedsnr" v="291409" />
	</node>
	<node lat="69.8938055529008" lon="20.554283323362988" id="-65391">
		<tag k="name" v="Lille Rakkenesbukta" />
		<tag k="natural" v="bay" />
		<tag k="ssr:stedsnr" v="291603" />
	</node>
	<node lat="70.04985833057094" lon="21.225130525804" id="-65397">
		<tag k="fixme" v="consider seamark:type=rock or natural=shoal" />
		<tag k="name" v="Småskjæran" />
		<tag k="place" v="islet" />
		<tag k="ssr:stedsnr" v="292190" />
	</node>
	<node lat="69.95140555771569" lon="20.612988870472677" id="-65399">
		<tag k="name" v="Pinnhollet" />
		<tag k="natural" v="bay" />
		<tag k="ssr:stedsnr" v="292592" />
	</node>
	<node lat="69.95721666841924" lon="20.612830551287765" id="-65400">
		<tag k="name" v="Klubbebukta" />
		<tag k="natural" v="bay" />
		<tag k="ssr:stedsnr" v="292594" />
	</node>
	<node lat="70.03423055910764" lon="20.53831665430635" id="-65401">
		<tag k="name" v="Haugnesodden" />
		<tag k="natural" v="cape" />
		<tag k="ssr:stedsnr" v="322206" />
	</node>
	<node lat="70.06909722015168" lon="20.53782221294427" id="-65405">
		<tag k="name" v="Kjelvågen" />
		<tag k="natural" v="bay" />
		<tag k="ssr:stedsnr" v="322182" />
	</node>
	<node lat="69.91261111020302" lon="20.725863856665825" id="-65407">
		<tag k="name" v="Ramnkloa" />
		<tag k="natural" v="cape" />
		<tag k="ssr:stedsnr" v="322535" />
	</node>
	<node lat="69.94244444164315" lon="20.934711095379274" id="-65408">
		<tag k="alt_name" v="Floteneset" />
		<tag k="name" v="Flåteneset" />
		<tag k="natural" v="cape" />
		<tag k="ssr:stedsnr" v="322589" />
	</node>
	<node lat="69.94520833643851" lon="20.959644417033513" id="-65409">
		<tag k="name" v="Storsteingrunnen" />
		<tag k="natural" v="shoal" />
		<tag k="place" v="locality" />
		<tag k="ssr:stedsnr" v="322590" />
	</node>
	<node lat="69.97107778142126" lon="20.675047203435973" id="-65410">
		<tag k="alt_name" v="Gammelværneset" />
		<tag k="name" v="Gamleværneset" />
		<tag k="natural" v="cape" />
		<tag k="ssr:stedsnr" v="322626" />
	</node>
	<node lat="70.17671666515848" lon="20.41094998679759" id="-65415">
		<tag k="name" v="Skjåvikneset" />
		<tag k="natural" v="cape" />
		<tag k="ssr:stedsnr" v="327492" />
	</node>
	<node lat="70.08041666914323" lon="20.773302746014856" id="-65419">
		<tag k="name" v="Sandbakkneset" />
		<tag k="natural" v="cape" />
		<tag k="ssr:stedsnr" v="473074" />
	</node>
	<node lat="70.12365278205594" lon="20.764130539660542" id="-65423">
		<tag k="name" v="Revet" />
		<tag k="natural" v="shoal" />
		<tag k="place" v="locality" />
		<tag k="ssr:stedsnr" v="473225" />
	</node>
	<node lat="69.99956944746631" lon="21.056244432294466" id="-65424">
		<tag k="name" v="Skjærneset" />
		<tag k="natural" v="cape" />
		<tag k="ssr:stedsnr" v="473229" />
	</node>
	<node lat="70.05927222641965" lon="20.99729441870673" id="-65427">
		<tag k="name" v="Samuelstøa" />
		<tag k="natural" v="bay" />
		<tag k="ssr:stedsnr" v="473197" />
	</node>
	<node lat="69.92576110827383" lon="20.670586087782084" id="-65429">
		<tag k="name" v="Storbenken" />
		<tag k="natural" v="bay" />
		<tag k="ssr:stedsnr" v="473379" />
	</node>
	<node lat="69.87611666730649" lon="20.552547205777575" id="-65434">
		<tag k="name" v="Gáiskelokti" />
		<tag k="name:se" v="Gáiskelokti" />
		<tag k="natural" v="bay" />
		<tag k="ssr:stedsnr" v="473340" />
	</node>
	<node lat="69.86621111220242" lon="20.550183322971684" id="-65435">
		<tag k="name" v="Kvænnesbukta" />
		<tag k="natural" v="bay" />
		<tag k="ssr:stedsnr" v="473342" />
	</node>
	<node lat="69.92329722121468" lon="20.688863864551816" id="-65436">
		<tag k="name" v="Storøyneset" />
		<tag k="natural" v="cape" />
		<tag k="ssr:stedsnr" v="473399" />
	</node>
	<node lat="69.98818333495338" lon="20.62233608894574" id="-65441">
		<tag k="name" v="Oterhollet" />
		<tag k="natural" v="bay" />
		<tag k="ssr:stedsnr" v="473552" />
	</node>
	<node lat="69.8915833326943" lon="20.551513861208473" id="-65443">
		<tag k="name" v="Indre Rakkenesodden" />
		<tag k="natural" v="cape" />
		<tag k="ssr:stedsnr" v="473598" />
	</node>
	<node lat="70.04756944505597" lon="20.632549969342236" id="-65444">
		<tag k="name" v="Lasseneset" />
		<tag k="natural" v="cape" />
		<tag k="ssr:stedsnr" v="473629" />
	</node>
	<node lat="70.05893888651858" lon="20.63713054682571" id="-65450">
		<tag k="name" v="Rotnesbukta" />
		<tag k="natural" v="cape" />
		<tag k="ssr:stedsnr" v="473780" />
	</node>
	<node lat="69.90355805044388" lon="20.737815212099864" id="-65460">
		<tag k="name" v="Klauvnesbukt" />
		<tag k="natural" v="bay" />
		<tag k="ssr:stedsnr" v="473901" />
	</node>
	<node lat="70.05236944661345" lon="20.49814998707371" id="-65462">
		<tag k="name" v="Bukta" />
		<tag k="natural" v="bay" />
		<tag k="ssr:stedsnr" v="473919" />
	</node>
	<node lat="70.0482416703436" lon="20.76180275432521" id="-65465">
		<tag k="name" v="Singellandet" />
		<tag k="natural" v="bay" />
		<tag k="ssr:stedsnr" v="351103" />
	</node>
	<node lat="70.21991944521271" lon="20.52926387656006" id="-65466">
		<tag k="name" v="Skapet" />
		<tag k="natural" v="bay" />
		<tag k="ssr:stedsnr" v="351160" />
	</node>
	<node lat="69.99891944566066" lon="21.06805831163757" id="-65469">
		<tag k="name" v="Mellanessan" />
		<tag k="natural" v="cape" />
		<tag k="ssr:stedsnr" v="474213" />
	</node>
	<node lat="70.08706388673194" lon="20.76139164407103" id="-65476">
		<tag k="name" v="Skarbukta" />
		<tag k="natural" v="bay" />
		<tag k="ssr:stedsnr" v="352062" />
	</node>
	<node lat="70.04988055634705" lon="21.227388853892705" id="-65479">
		<tag k="name" v="Skarbergmolla" />
		<tag k="natural" v="bay" />
		<tag k="ssr:stedsnr" v="352209" />
	</node>
	<node lat="70.00305555989893" lon="21.024394428471883" id="-65480">
		<tag k="fixme" v="consider seamark:type=rock or natural=shoal" />
		<tag k="name" v="Skjæret" />
		<tag k="place" v="islet" />
		<tag k="ssr:stedsnr" v="352354" />
	</node>
	<node lat="70.04498333553578" lon="20.6936638584658" id="-65482">
		<tag k="name" v="Stranda" />
		<tag k="natural" v="beach" />
		<tag k="ssr:stedsnr" v="352832" />
	</node>
	<node lat="70.06134999693407" lon="20.6449444373061" id="-65485">
		<tag k="name" v="Gåsneset" />
		<tag k="natural" v="cape" />
		<tag k="ssr:stedsnr" v="352969" />
	</node>
	<node lat="70.03447777383808" lon="20.94720276182341" id="-65490">
		<tag k="name" v="Bratteidet" />
		<tag k="place" v="locality" />
		<tag k="ssr:stedsnr" v="383158" />
	</node>
	<node lat="70.08514722662969" lon="20.909563864263962" id="-65492">
		<tag k="name" v="Vassnes" />
		<tag k="natural" v="cape" />
		<tag k="ssr:stedsnr" v="383210" />
	</node>
	<node lat="69.9034638898374" lon="20.591680544227582" id="-65494">
		<tag k="name" v="Rakkenesodden" />
		<tag k="natural" v="cape" />
		<tag k="ssr:stedsnr" v="383563" />
	</node>
	<node lat="69.93489167083494" lon="20.904933300174815" id="-65495">
		<tag k="name" v="Fjellfinnbukta" />
		<tag k="natural" v="bay" />
		<tag k="ssr:stedsnr" v="383604" />
	</node>
	<node lat="69.98703333724725" lon="21.05154997681815" id="-65498">
		<tag k="alt_name" v="Sæterneset" />
		<tag k="name" v="Seterneset" />
		<tag k="natural" v="cape" />
		<tag k="ssr:stedsnr" v="383911" />
	</node>
	<node lat="70.14161111427944" lon="20.377049994216318" id="-65499">
		<tag k="name" v="Trollbukta" />
		<tag k="natural" v="bay" />
		<tag k="ssr:stedsnr" v="383892" />
	</node>
	<node lat="70.09584167162168" lon="20.548158306571477" id="-65500">
		<tag k="name" v="Lyngnesbukta" />
		<tag k="natural" v="bay" />
		<tag k="ssr:stedsnr" v="388953" />
	</node>
	<node lat="70.03116944766637" lon="21.098519418073227" id="-65501">
		<tag k="name" v="Andersskallen" />
		<tag k="natural" v="shoal" />
		<tag k="place" v="locality" />
		<tag k="ssr:stedsnr" v="393626" />
	</node>
	<node lat="70.0365904025427" lon="20.99698630317558" id="-65502">
		<tag k="name" v="Fiskenes" />
		<tag k="natural" v="cape" />
		<tag k="ssr:stedsnr" v="393633" />
	</node>
	<node lat="70.09102500145578" lon="20.78213330702931" id="-65503">
		<tag k="name" v="Lilleskredneset" />
		<tag k="natural" v="cape" />
		<tag k="ssr:stedsnr" v="393841" />
	</node>
	<node lat="69.90681666455414" lon="20.684519429157262" id="-65506">
		<tag k="name" v="Lilleværvika" />
		<tag k="natural" v="bay" />
		<tag k="ssr:stedsnr" v="412544" />
	</node>
	<node lat="69.91398333845059" lon="20.67444441733444" id="-65507">
		<tag k="fixme" v="consider seamark:type=rock or natural=shoal" />
		<tag k="name" v="Sauskjæret" />
		<tag k="place" v="islet" />
		<tag k="ssr:stedsnr" v="412340" />
	</node>
	<node lat="69.97244166345043" lon="20.94113331528047" id="-65510">
		<tag k="name" v="Møllneset" />
		<tag k="natural" v="cape" />
		<tag k="ssr:stedsnr" v="413202" />
	</node>
	<node lat="70.11675833229906" lon="20.771955536836952" id="-65512">
		<tag k="name" v="Storsteinnesbukta" />
		<tag k="natural" v="bay" />
		<tag k="ssr:stedsnr" v="413210" />
	</node>
	<node lat="70.0536972208245" lon="21.24382220308005" id="-65513">
		<tag k="name" v="Skarberglandet" />
		<tag k="natural" v="beach" />
		<tag k="ssr:stedsnr" v="413237" />
	</node>
	<node lat="70.19930833867485" lon="20.809424973713835" id="-65515">
		<tag k="name" v="Fauelberghollan" />
		<tag k="natural" v="bay" />
		<tag k="ssr:stedsnr" v="413144" />
	</node>
	<node lat="70.00544167066717" lon="20.90123608247216" id="-65517">
		<tag k="name" v="Geitvika" />
		<tag k="natural" v="bay" />
		<tag k="ssr:stedsnr" v="413339" />
	</node>
	<node lat="70.05479444806221" lon="20.96734996799638" id="-65526">
		<tag k="fixme" v="consider seamark:type=rock or natural=shoal" />
		<tag k="name" v="Storsteinen" />
		<tag k="place" v="islet" />
		<tag k="ssr:stedsnr" v="413841" />
	</node>
	<node lat="70.20868333152845" lon="20.518722193996418" id="-65535">
		<tag k="name" v="Nova" />
		<tag k="natural" v="cape" />
		<tag k="ssr:stedsnr" v="444103" />
	</node>
	<node lat="70.19226388991781" lon="20.467808328353062" id="-65536">
		<tag k="fixme" v="consider seamark:type=rock or natural=shoal" />
		<tag k="name" v="Sundskjæret" />
		<tag k="place" v="islet" />
		<tag k="ssr:stedsnr" v="444104" />
	</node>
	<node lat="70.04268333517301" lon="21.195730518373626" id="-65537">
		<tag k="loc_name:se" v="Sálnášši" />
		<tag k="name" v="Finnvikneset" />
		<tag k="name:no" v="Finnvikneset" />
		<tag k="natural" v="cape" />
		<tag k="ssr:stedsnr" v="444306" />
	</node>
	<node lat="69.98933333310436" lon="20.73352219724406" id="-65539">
		<tag k="name" v="Storvollbukta" />
		<tag k="natural" v="bay" />
		<tag k="ssr:stedsnr" v="444585" />
	</node>
	<node lat="70.20138888505487" lon="20.41599998716445" id="-65543">
		<tag k="name" v="Falkebekkskallen" />
		<tag k="natural" v="shoal" />
		<tag k="place" v="locality" />
		<tag k="ssr:stedsnr" v="448521" />
	</node>
	<node lat="70.03643611278581" lon="21.043616650384507" id="-65545">
		<tag k="name" v="Stasjonsgrunnen" />
		<tag k="natural" v="shoal" />
		<tag k="place" v="locality" />
		<tag k="ssr:stedsnr" v="272591" />
	</node>
	<node lat="70.01249444150162" lon="21.044536081748767" id="-65546">
		<tag k="fixme" v="consider seamark:type=rock or natural=shoal" />
		<tag k="name" v="Rundskjæret" />
		<tag k="place" v="islet" />
		<tag k="ssr:stedsnr" v="470974" />
	</node>
	<node lat="70.06928888617556" lon="20.50008054617018" id="-65547">
		<tag k="name" v="Akkarvikbotnet" />
		<tag k="natural" v="bay" />
		<tag k="ssr:stedsnr" v="473060" />
	</node>
	<node lat="69.98116944002328" lon="20.952205543023098" id="-65549">
		<tag k="name" v="Steinstranda" />
		<tag k="natural" v="beach" />
		<tag k="ssr:stedsnr" v="473271" />
	</node>
	<node lat="70.00391388457818" lon="21.029819429403773" id="-65556">
		<tag k="name" v="Neset" />
		<tag k="natural" v="cape" />
		<tag k="ssr:stedsnr" v="473359" />
	</node>
	<node lat="69.94258889087654" lon="20.629377748918564" id="-65563">
		<tag k="name" v="Gammelværneset" />
		<tag k="natural" v="cape" />
		<tag k="ssr:stedsnr" v="473567" />
	</node>
	<node lat="70.15298333624456" lon="20.8259749914183" id="-65569">
		<tag k="fixme" v="consider seamark:type=rock or natural=shoal" />
		<tag k="name" v="Skjæret" />
		<tag k="place" v="islet" />
		<tag k="ssr:stedsnr" v="474120" />
	</node>
	<node lat="70.03268611347497" lon="20.54858330602308" id="-65572">
		<tag k="name" v="Midterneset" />
		<tag k="natural" v="cape" />
		<tag k="ssr:stedsnr" v="474823" />
	</node>
	<node lat="70.12061666484063" lon="20.754205538056198" id="-65574">
		<tag k="name" v="Tareneset" />
		<tag k="natural" v="cape" />
		<tag k="ssr:stedsnr" v="272153" />
	</node>
	<node lat="70.04648888728728" lon="21.2708749617062" id="-65576">
		<tag k="name" v="Haukøylandet" />
		<tag k="natural" v="beach" />
		<tag k="ssr:stedsnr" v="504308" />
	</node>
	<node lat="69.85925278289288" lon="20.693491637579807" id="-65578">
		<tag k="loc_name:se" v="Ulimohkki" />
		<tag k="name" v="Uløybukta" />
		<tag k="name:no" v="Uløybukta" />
		<tag k="natural" v="bay" />
		<tag k="ssr:stedsnr" v="504506" />
	</node>
	<node lat="69.9379583336089" lon="20.65897499015729" id="-65579">
		<tag k="name" v="Sandodden" />
		<tag k="natural" v="cape" />
		<tag k="ssr:stedsnr" v="504572" />
	</node>
	<node lat="69.98653889387428" lon="20.617338862750348" id="-65585">
		<tag k="name" v="Enesodden" />
		<tag k="natural" v="cape" />
		<tag k="ssr:stedsnr" v="505616" />
	</node>
	<node lat="70.23201944849914" lon="20.610894438270073" id="-65587">
		<tag k="name" v="Makeila" />
		<tag k="natural" v="bay" />
		<tag k="ssr:stedsnr" v="510307" />
	</node>
	<node lat="70.23913333057307" lon="20.945222211874256" id="-65589">
		<tag k="name" v="Kista" />
		<tag k="natural" v="shoal" />
		<tag k="place" v="locality" />
		<tag k="ssr:stedsnr" v="515233" />
	</node>
	<node lat="70.19484444225414" lon="20.810844412725704" id="-65590">
		<tag k="name" v="Hundholet" />
		<tag k="natural" v="bay" />
		<tag k="ssr:stedsnr" v="515263" />
	</node>
	<node lat="70.03952222237764" lon="21.03713886061512" id="-65592">
		<tag k="name" v="Ramnnesgrunnen" />
		<tag k="natural" v="shoal" />
		<tag k="place" v="locality" />
		<tag k="ssr:stedsnr" v="515639" />
	</node>
	<node lat="70.04677222587527" lon="21.00895275475817" id="-65593">
		<tag k="name" v="Skinnstakkvika" />
		<tag k="natural" v="bay" />
		<tag k="ssr:stedsnr" v="515762" />
	</node>
	<node lat="70.09613610926829" lon="20.343219419840544" id="-65595">
		<tag k="name" v="Skarpbåen" />
		<tag k="natural" v="shoal" />
		<tag k="place" v="locality" />
		<tag k="ssr:stedsnr" v="686077" />
	</node>
	<node lat="70.23206666707308" lon="20.745855545245888" id="-65596">
		<tag k="name" v="Skarvholet" />
		<tag k="natural" v="bay" />
		<tag k="ssr:stedsnr" v="686087" />
	</node>
	<node lat="69.98091944153391" lon="20.654986078829644" id="-65597">
		<tag k="name" v="Langnesbukta" />
		<tag k="natural" v="bay" />
		<tag k="ssr:stedsnr" v="686600" />
	</node>
	<node lat="70.0881222242321" lon="20.787505528684754" id="-65602">
		<tag k="name" v="Bjørnen" />
		<tag k="natural" v="cape" />
		<tag k="ssr:stedsnr" v="686188" />
	</node>
	<node lat="70.04513889244538" lon="20.740422193068845" id="-65604">
		<tag k="name" v="Haugbukta" />
		<tag k="natural" v="bay" />
		<tag k="ssr:stedsnr" v="686222" />
	</node>
	<node lat="70.0393833361935" lon="21.19921664331723" id="-65609">
		<tag k="name" v="Finnvika" />
		<tag k="natural" v="bay" />
		<tag k="ssr:stedsnr" v="686310" />
	</node>
	<node lat="70.00888610819712" lon="21.043422194787077" id="-65610">
		<tag k="name" v="Små-Hakksteinan - Fáŋgasuolu" />
		<tag k="name:no" v="Små-Hakksteinan" />
		<tag k="name:se" v="Fáŋgasuolu" />
		<tag k="old_name:se" v="Faŋgasuolo" />
		<tag k="place" v="islet" />
		<tag k="ssr:stedsnr" v="686329" />
	</node>
	<node lat="70.09743888839205" lon="20.748452769475456" id="-65615">
		<tag k="name" v="Svartskogan" />
		<tag k="natural" v="beach" />
		<tag k="ssr:stedsnr" v="534007" />
	</node>
	<node lat="70.0615944422399" lon="20.985180527938798" id="-65622">
		<tag k="name" v="Steinbithollet" />
		<tag k="natural" v="bay" />
		<tag k="ssr:stedsnr" v="534186" />
	</node>
	<node lat="70.20387778177083" lon="20.806763877917646" id="-65635">
		<tag k="name" v="Fauelbergbukta" />
		<tag k="natural" v="bay" />
		<tag k="ssr:stedsnr" v="535126" />
	</node>
	<node lat="70.03425833122643" lon="20.59452499273471" id="-65637">
		<tag k="name" v="Holteneset" />
		<tag k="natural" v="cape" />
		<tag k="ssr:stedsnr" v="535806" />
	</node>
	<node lat="69.94178888555138" lon="20.766466647387166" id="-65640">
		<tag k="alt_name" v="Sandnesgrunnen, l" />
		<tag k="name" v="Lille Sandnesgrunnen" />
		<tag k="natural" v="shoal" />
		<tag k="place" v="locality" />
		<tag k="ssr:stedsnr" v="686576" />
	</node>
	<node lat="69.96273333304032" lon="20.963697196384445" id="-65641">
		<tag k="name" v="Jovika" />
		<tag k="natural" v="bay" />
		<tag k="ssr:stedsnr" v="686582" />
	</node>
	<node lat="69.97383055331662" lon="20.97483052755006" id="-65643">
		<tag k="name" v="Storsandvikneset" />
		<tag k="natural" v="cape" />
		<tag k="ssr:stedsnr" v="686623" />
	</node>
	<node lat="70.10977222633306" lon="20.911772205930355" id="-65647">
		<tag k="name" v="Inner-Kveitvika" />
		<tag k="natural" v="bay" />
		<tag k="ssr:stedsnr" v="687039" />
	</node>
	<node lat="70.10138611479013" lon="20.776172207956684" id="-65652">
		<tag k="name" v="Kjelvågodden" />
		<tag k="natural" v="cape" />
		<tag k="ssr:stedsnr" v="687213" />
	</node>
	<node lat="69.92376110871602" lon="21.109422207309226" id="-65656">
		<tag k="bay" v="fjord" />
		<tag k="name" v="Reisafjorden - Ráisavuotna - Raisinvuono" />
		<tag k="name:fkv" v="Raisinvuono" />
		<tag k="name:no" v="Reisafjorden" />
		<tag k="name:se" v="Ráisavuotna" />
		<tag k="natural" v="bay" />
		<tag k="ssr:stedsnr" v="687462" />
	</node>
	<node lat="69.88206388980545" lon="20.557213884401722" id="-65657">
		<tag k="alt_name:no" v="Rakkenesbukta, in" />
		<tag k="loc_name:se" v="Vuoreluokta" />
		<tag k="name" v="Indre Rakkenesbukta" />
		<tag k="name:no" v="Indre Rakkenesbukta" />
		<tag k="natural" v="bay" />
		<tag k="ssr:stedsnr" v="687560" />
	</node>
	<node lat="69.99186944462026" lon="20.731158303544937" id="-65658">
		<tag k="name" v="Steinbakkneset" />
		<tag k="natural" v="cape" />
		<tag k="ssr:stedsnr" v="687655" />
	</node>
	<node lat="70.02915833043825" lon="21.251219411101438" id="-65660">
		<tag k="name" v="Hamneneset - Gárgu" />
		<tag k="name:no" v="Hamneneset" />
		<tag k="name:se" v="Gárgu" />
		<tag k="natural" v="cape" />
		<tag k="old_name:se" v="Gargo" />
		<tag k="ssr:stedsnr" v="688505" />
	</node>
	<node lat="70.19348888945933" lon="20.480702774396214" id="-65661">
		<tag k="name" v="Innerneset" />
		<tag k="natural" v="cape" />
		<tag k="ssr:stedsnr" v="691520" />
	</node>
	<node lat="70.02909999719647" lon="20.569788864066343" id="-65665">
		<tag k="alt_name" v="Skjeggebåen" />
		<tag k="name" v="Haugnesgrunnen" />
		<tag k="natural" v="shoal" />
		<tag k="place" v="locality" />
		<tag k="ssr:stedsnr" v="565202" />
	</node>
	<node lat="70.05911666739851" lon="20.553291647804315" id="-65671">
		<tag k="name" v="Stokkenesbukta" />
		<tag k="natural" v="bay" />
		<tag k="ssr:stedsnr" v="692930" />
	</node>
	<node lat="70.06553610746586" lon="20.56268054614308" id="-65672">
		<tag k="name" v="Stakkeromsneset" />
		<tag k="natural" v="cape" />
		<tag k="ssr:stedsnr" v="692953" />
	</node>
	<node lat="70.19511666848707" lon="20.42564442711979" id="-65674">
		<tag k="name" v="Kjellshauggrunnen" />
		<tag k="natural" v="shoal" />
		<tag k="place" v="locality" />
		<tag k="ssr:stedsnr" v="570328" />
	</node>
	<node lat="69.87165555943069" lon="20.693899984643544" id="-65676">
		<tag k="name" v="Gåsnebben" />
		<tag k="natural" v="cape" />
		<tag k="ssr:stedsnr" v="570803" />
	</node>
	<node lat="70.04565555717032" lon="20.470533311868646" id="-65677">
		<tag k="name" v="Inner-Bergneset" />
		<tag k="natural" v="cape" />
		<tag k="ssr:stedsnr" v="571906" />
	</node>
	<node lat="70.0365111089622" lon="21.100958313573493" id="-65680">
		<tag k="name" v="Ytre Jøvardgrunnen" />
		<tag k="natural" v="shoal" />
		<tag k="place" v="locality" />
		<tag k="ssr:stedsnr" v="575618" />
	</node>
	<node lat="70.10004166719163" lon="21.087133305923818" id="-65683">
		<tag k="name" v="Sørbåen" />
		<tag k="natural" v="shoal" />
		<tag k="place" v="locality" />
		<tag k="ssr:stedsnr" v="575698" />
	</node>
	<node lat="69.91674999938121" lon="20.688336082537685" id="-65684">
		<tag k="name" v="Follesøyan" />
		<tag k="place" v="island" />
		<tag k="ssr:stedsnr" v="694860" />
	</node>
	<node lat="70.22722222065163" lon="20.39916665394388" id="-65685">
		<tag k="name" v="Sørjukset" />
		<tag k="natural" v="shoal" />
		<tag k="place" v="locality" />
		<tag k="ssr:stedsnr" v="577544" />
	</node>
	<node lat="70.24803889306922" lon="20.753533315680365" id="-65687">
		<tag k="name" v="Kvitsteingrunnen" />
		<tag k="natural" v="shoal" />
		<tag k="place" v="locality" />
		<tag k="ssr:stedsnr" v="697232" />
	</node>
	<node lat="70.02893610963173" lon="20.987302754402524" id="-65688">
		<tag k="name" v="Sandvågen" />
		<tag k="natural" v="bay" />
		<tag k="ssr:stedsnr" v="697619" />
	</node>
	<node lat="70.01497777496026" lon="21.073013852296505" id="-65693">
		<tag k="name" v="Einevika" />
		<tag k="natural" v="bay" />
		<tag k="ssr:stedsnr" v="594205" />
	</node>
	<node lat="70.14286111117087" lon="20.857186092990514" id="-65694">
		<tag k="name" v="Omnan" />
		<tag k="natural" v="bay" />
		<tag k="ssr:stedsnr" v="594214" />
	</node>
	<node lat="69.99912222709182" lon="21.05273329939887" id="-65695">
		<tag k="name" v="Båtbukta" />
		<tag k="natural" v="bay" />
		<tag k="ssr:stedsnr" v="594215" />
	</node>
	<node lat="69.92707222366889" lon="20.682936095211602" id="-65700">
		<tag k="name" v="Flogneset" />
		<tag k="natural" v="cape" />
		<tag k="ssr:stedsnr" v="594358" />
	</node>
	<node lat="69.91883055626234" lon="20.697883325466357" id="-65701">
		<tag k="name" v="Latdorri" />
		<tag k="natural" v="cape" />
		<tag k="ssr:stedsnr" v="594364" />
	</node>
	<node lat="70.14328888882616" lon="20.930516653276683" id="-65703">
		<tag k="name" v="Øvre Kjerringgrunnen" />
		<tag k="natural" v="shoal" />
		<tag k="place" v="locality" />
		<tag k="ssr:stedsnr" v="697655" />
	</node>
	<node lat="70.05629999899894" lon="20.80183053571253" id="-65710">
		<tag k="name" v="Hamna" />
		<tag k="natural" v="bay" />
		<tag k="ssr:stedsnr" v="595021" />
	</node>
	<node lat="69.95318611001213" lon="20.75769165621078" id="-65714">
		<tag k="alt_name" v="Skjellneset" />
		<tag k="name" v="Skilneset" />
		<tag k="natural" v="cape" />
		<tag k="ssr:stedsnr" v="625557" />
	</node>
	<node lat="70.16050555935217" lon="20.78515274704119" id="-65718">
		<tag k="name" v="Tareneset" />
		<tag k="natural" v="cape" />
		<tag k="ssr:stedsnr" v="626009" />
	</node>
	<node lat="70.08661944176762" lon="20.843905541249807" id="-65719">
		<tag k="name" v="Laukøya - Unna Ártnás" />
		<tag k="name:no" v="Laukøya" />
		<tag k="name:se" v="Unna Ártnás" />
		<tag k="place" v="island" />
		<tag k="ssr:stedsnr" v="626057" />
	</node>
	<node lat="69.92156666722747" lon="20.712322214024937" id="-65720">
		<tag k="loc_name:se" v="Bátnjalmađđi" />
		<tag k="name" v="Follesøygrunnen" />
		<tag k="name:no" v="Follesøygrunnen" />
		<tag k="natural" v="shoal" />
		<tag k="place" v="locality" />
		<tag k="ssr:stedsnr" v="626608" />
	</node>
	<node lat="69.92586944574386" lon="20.687155531345187" id="-65722">
		<tag k="name" v="Svartskjærbukta" />
		<tag k="natural" v="bay" />
		<tag k="ssr:stedsnr" v="704754" />
	</node>
	<node lat="70.04730555919373" lon="20.965236099391348" id="-65724">
		<tag k="name" v="Isakeidet" />
		<tag k="place" v="locality" />
		<tag k="ssr:stedsnr" v="636826" />
	</node>
	<node lat="70.11999166885717" lon="20.890888879709063" id="-65730">
		<tag k="name" v="Kveitvikkeila" />
		<tag k="natural" v="bay" />
		<tag k="ssr:stedsnr" v="655208" />
	</node>
	<node lat="70.1779916689586" lon="20.800055532145475" id="-65731">
		<tag k="fixme" v="consider seamark:type=rock or natural=shoal" />
		<tag k="name" v="Teppstein" />
		<tag k="place" v="islet" />
		<tag k="ssr:stedsnr" v="655232" />
	</node>
	<node lat="69.9071055538004" lon="20.684724977053" id="-65737">
		<tag k="name" v="Værvikneset" />
		<tag k="natural" v="cape" />
		<tag k="ssr:stedsnr" v="655599" />
	</node>
	<node lat="70.03769166853161" lon="21.27800829603398" id="-65749">
		<tag k="alt_name" v="Balsaneset" />
		<tag k="name" v="Ballsaneset" />
		<tag k="natural" v="cape" />
		<tag k="ssr:stedsnr" v="686307" />
	</node>
	<node lat="69.90693333457014" lon="20.491683326197062" id="-65750">
		<tag k="name" v="Rakkenesskallen" />
		<tag k="natural" v="shoal" />
		<tag k="place" v="locality" />
		<tag k="ssr:stedsnr" v="687535" />
	</node>
	<node lat="70.14041666983853" lon="20.378719429757837" id="-65751">
		<tag k="name" v="Rekvikneset" />
		<tag k="natural" v="cape" />
		<tag k="ssr:stedsnr" v="687893" />
	</node>
	<node lat="70.05123888683914" lon="20.36271108914516" id="-65752">
		<tag k="name" v="Nakkeklakken" />
		<tag k="natural" v="shoal" />
		<tag k="ssr:stedsnr" v="693907" />
	</node>
	<node lat="70.22577222282656" lon="20.548808323484067" id="-65755">
		<tag k="alt_name" v="Avløysningsskjæret" />
		<tag k="fixme" v="consider seamark:type=rock or natural=shoal" />
		<tag k="name" v="Avløsningsskjæret" />
		<tag k="place" v="islet" />
		<tag k="ssr:stedsnr" v="697382" />
	</node>
	<node lat="70.15085278283382" lon="21.014222189664064" id="-65756">
		<tag k="name" v="Nikkebyskallen" />
		<tag k="natural" v="shoal" />
		<tag k="place" v="locality" />
		<tag k="ssr:stedsnr" v="697664" />
	</node>
	<node lat="70.01570000482269" lon="21.012138855996977" id="-65757">
		<tag k="name" v="Kobbepollgrunnen" />
		<tag k="natural" v="shoal" />
		<tag k="place" v="locality" />
		<tag k="ssr:stedsnr" v="895990" />
	</node>
	<node lat="69.89172500378939" lon="20.710808320609946" id="-65758">
		<tag k="name" v="Kvitneset" />
		<tag k="natural" v="cape" />
		<tag k="ssr:stedsnr" v="895749" />
	</node>
	<node lat="70.00804722253852" lon="21.03868331851593" id="-65759">
		<tag k="name" v="Lille Hakksteingrunnen" />
		<tag k="natural" v="shoal" />
		<tag k="place" v="locality" />
		<tag k="ssr:stedsnr" v="895901" />
	</node>
	<node lat="70.18275000418018" lon="20.805163877805473" id="-65760">
		<tag k="fixme" v="consider seamark:type=rock or natural=shoal" />
		<tag k="name" v="Lilleflua" />
		<tag k="place" v="islet" />
		<tag k="ssr:stedsnr" v="898225" />
	</node>
	<node lat="70.18547221829671" lon="20.808413872053585" id="-65761">
		<tag k="name" v="Hundhollet" />
		<tag k="natural" v="bay" />
		<tag k="ssr:stedsnr" v="898227" />
	</node>
	<node lat="70.13399444516719" lon="20.381472210561764" id="-65763">
		<tag k="name" v="Sør-Rekvikbukta" />
		<tag k="natural" v="bay" />
		<tag k="ssr:stedsnr" v="898096" />
	</node>
	<node lat="70.11209166577622" lon="20.907022188874947" id="-65768">
		<tag k="name" v="Indre Kveitvikneset" />
		<tag k="natural" v="cape" />
		<tag k="ssr:stedsnr" v="898182" />
	</node>
	<node lat="70.1140972237537" lon="20.90277221438937" id="-65769">
		<tag k="fixme" v="consider seamark:type=rock or natural=shoal" />
		<tag k="name" v="Kveitvikskjæret" />
		<tag k="place" v="islet" />
		<tag k="ssr:stedsnr" v="898184" />
	</node>
	<node lat="70.0417583377229" lon="21.014069423954005" id="-65773">
		<tag k="name" v="Indre Ramnnesbukta" />
		<tag k="natural" v="bay" />
		<tag k="ssr:stedsnr" v="898146" />
	</node>
	<node lat="70.04382222127035" lon="21.01207497417931" id="-65774">
		<tag k="name" v="Ytre Ramnneset" />
		<tag k="natural" v="cape" />
		<tag k="ssr:stedsnr" v="898147" />
	</node>
	<node lat="70.11031666830029" lon="20.770236083863534" id="-65776">
		<tag k="name" v="Hamnnesbukta" />
		<tag k="natural" v="bay" />
		<tag k="ssr:stedsnr" v="898194" />
	</node>
	<node lat="69.96917221973253" lon="20.67745830958671" id="-65779">
		<tag k="name" v="Sandnes" />
		<tag k="natural" v="cape" />
		<tag k="ssr:stedsnr" v="711874" />
	</node>
	<node lat="69.91360000187412" lon="20.676408323919595" id="-65781">
		<tag k="name" v="Hjellneset" />
		<tag k="natural" v="cape" />
		<tag k="ssr:stedsnr" v="898378" />
	</node>
	<node lat="70.12593889102791" lon="20.75704165408109" id="-65796">
		<tag k="name" v="Melkeneset" />
		<tag k="natural" v="cape" />
		<tag k="ssr:stedsnr" v="716227" />
	</node>
	<node lat="70.14426944484204" lon="20.37842219878369" id="-65798">
		<tag k="name" v="Eggemedneset" />
		<tag k="natural" v="cape" />
		<tag k="ssr:stedsnr" v="716205" />
	</node>
	<node lat="70.19216666669041" lon="20.496841644792116" id="-65806">
		<tag k="name" v="Hollet" />
		<tag k="natural" v="bay" />
		<tag k="ssr:stedsnr" v="716324" />
	</node>
	<node lat="70.03645833688205" lon="20.611355535278907" id="-65815">
		<tag k="fixme" v="consider seamark:type=rock or natural=shoal" />
		<tag k="name" v="Badesteinen" />
		<tag k="place" v="islet" />
		<tag k="ssr:stedsnr" v="716691" />
	</node>
	<node lat="70.02123055278942" lon="21.08585831005996" id="-65819">
		<tag k="name" v="Skarvholla" />
		<tag k="natural" v="bay" />
		<tag k="ssr:stedsnr" v="717218" />
	</node>
	<node lat="70.04142777561741" lon="20.62399164840216" id="-65821">
		<tag k="name" v="Stakenesbukta" />
		<tag k="natural" v="bay" />
		<tag k="ssr:stedsnr" v="717385" />
	</node>
	<node lat="69.94682222319375" lon="20.675424974979297" id="-65825">
		<tag k="name" v="Lillebjørnvika" />
		<tag k="natural" v="bay" />
		<tag k="ssr:stedsnr" v="899567" />
	</node>
	<node lat="70.16439444103187" lon="20.798863861395425" id="-65826">
		<tag k="name" v="Kvænangsgrunnen" />
		<tag k="natural" v="shoal" />
		<tag k="place" v="locality" />
		<tag k="ssr:stedsnr" v="747003" />
	</node>
	<node lat="70.02417500248167" lon="20.87559999143225" id="-65833">
		<tag k="name" v="Skattørsundet" />
		<tag k="natural" v="strait" />
		<tag k="ssr:stedsnr" v="747215" />
	</node>
	<node lat="69.92059999618127" lon="20.678936092075425" id="-65835">
		<tag k="name" v="Follesøysundet" />
		<tag k="natural" v="strait" />
		<tag k="ssr:stedsnr" v="752727" />
	</node>
	<node lat="70.13162500124496" lon="20.381147195651394" id="-65837">
		<tag k="fixme" v="consider seamark:type=rock or natural=shoal" />
		<tag k="name" v="Pikenstein" />
		<tag k="place" v="islet" />
		<tag k="ssr:stedsnr" v="752962" />
	</node>
	<node lat="70.02250833122838" lon="20.72151942999043" id="-65838">
		<tag k="name" v="Grunneset" />
		<tag k="natural" v="cape" />
		<tag k="ssr:stedsnr" v="757148" />
	</node>
	<node lat="70.04455277933565" lon="21.1744555296315" id="-65840">
		<tag k="name" v="Finnvikgrunnen" />
		<tag k="natural" v="shoal" />
		<tag k="place" v="locality" />
		<tag k="ssr:stedsnr" v="757609" />
	</node>
	<node lat="70.04298611402787" lon="21.081222192862707" id="-65841">
		<tag k="name" v="Langskallen" />
		<tag k="natural" v="shoal" />
		<tag k="place" v="locality" />
		<tag k="ssr:stedsnr" v="757612" />
	</node>
	<node lat="70.16315555355676" lon="20.886355521634105" id="-65842">
		<tag k="name" v="Hamnestindgrunnan" />
		<tag k="natural" v="shoal" />
		<tag k="place" v="locality" />
		<tag k="ssr:stedsnr" v="757661" />
	</node>
	<node lat="70.03340000080252" lon="20.837786092633024" id="-65843">
		<tag k="name" v="Storsteinneset" />
		<tag k="natural" v="cape" />
		<tag k="ssr:stedsnr" v="773918" />
	</node>
	<node lat="69.99266666409184" lon="21.075397199159852" id="-65844">
		<tag k="name" v="Taskebynesgrunnen" />
		<tag k="natural" v="shoal" />
		<tag k="place" v="locality" />
		<tag k="ssr:stedsnr" v="774923" />
	</node>
	<node lat="69.94438333798043" lon="20.94163053143966" id="-65855">
		<tag k="name" v="Slåttebukta" />
		<tag k="natural" v="bay" />
		<tag k="ssr:stedsnr" v="777156" />
	</node>
	<node lat="70.23186111625827" lon="20.67374720234003" id="-65867">
		<tag k="name" v="Nordvika" />
		<tag k="natural" v="bay" />
		<tag k="ssr:stedsnr" v="777928" />
	</node>
	<node lat="70.06215833078501" lon="20.390441640162578" id="-65870">
		<tag k="name" v="Sjurskeila" />
		<tag k="natural" v="bay" />
		<tag k="ssr:stedsnr" v="777977" />
	</node>
	<node lat="69.90180833672586" lon="20.634399991667667" id="-65875">
		<tag k="loc_name:se" v="Stuoraluokta" />
		<tag k="name" v="Storvika" />
		<tag k="name:no" v="Storvika" />
		<tag k="natural" v="bay" />
		<tag k="ssr:stedsnr" v="808526" />
	</node>
	<node lat="69.92357222394652" lon="20.672024974158703" id="-65879">
		<tag k="alt_name:no" v="Follesøya, store" />
		<tag k="name" v="Store Follesøya - Báŋal" />
		<tag k="name:no" v="Store Follesøya" />
		<tag k="name:se" v="Báŋal" />
		<tag k="place" v="island" />
		<tag k="ssr:stedsnr" v="810213" />
	</node>
	<node lat="70.2473249979406" lon="20.928602763755936" id="-65882">
		<tag k="name" v="Brusen" />
		<tag k="natural" v="shoal" />
		<tag k="place" v="locality" />
		<tag k="ssr:stedsnr" v="818228" />
	</node>
	<node lat="70.20132500397531" lon="20.523841646121816" id="-65883">
		<tag k="name" v="Stranden" />
		<tag k="natural" v="beach" />
		<tag k="ssr:stedsnr" v="818232" />
	</node>
	<node lat="69.99076944725456" lon="20.912774975905517" id="-65885">
		<tag k="name" v="Hamnebukta" />
		<tag k="natural" v="bay" />
		<tag k="ssr:stedsnr" v="835927" />
	</node>
	<node lat="70.0163305567352" lon="21.05128331876244" id="-65886">
		<tag k="name" v="Sakariasgrunnen" />
		<tag k="natural" v="shoal" />
		<tag k="place" v="locality" />
		<tag k="ssr:stedsnr" v="835987" />
	</node>
	<node lat="70.01146111015642" lon="21.07457220496385" id="-65890">
		<tag k="name" v="Støa" />
		<tag k="natural" v="bay" />
		<tag k="ssr:stedsnr" v="838235" />
	</node>
	<node lat="70.05065277480438" lon="20.499424984933185" id="-65899">
		<tag k="name" v="Valen" />
		<tag k="natural" v="beach" />
		<tag k="ssr:stedsnr" v="838910" />
	</node>
	<node lat="70.22111111453286" lon="20.760024990528244" id="-65905">
		<tag k="name" v="Støa" />
		<tag k="natural" v="bay" />
		<tag k="ssr:stedsnr" v="839129" />
	</node>
	<node lat="70.22479444905133" lon="20.549569428323938" id="-65915">
		<tag k="alt_name" v="Avløysninga" />
		<tag k="name" v="Avløysingen" />
		<tag k="natural" v="cape" />
		<tag k="ssr:stedsnr" v="929082" />
	</node>
	<node lat="70.1973916720345" lon="20.463641641128433" id="-65916">
		<tag k="name" v="Munken" />
		<tag k="place" v="islet" />
		<tag k="ssr:stedsnr" v="929087" />
	</node>
	<node lat="70.18583888938313" lon="20.44032220580199" id="-65918">
		<tag k="name" v="Støvelneset" />
		<tag k="natural" v="cape" />
		<tag k="ssr:stedsnr" v="929093" />
	</node>
	<node lat="70.01087499836257" lon="21.057324979749726" id="-65922">
		<tag k="name" v="Hakksteinsundet" />
		<tag k="natural" v="strait" />
		<tag k="ssr:stedsnr" v="929319" />
	</node>
	<node lat="70.15450277703567" lon="20.38721108343197" id="-65927">
		<tag k="loc_name:se" v="Bossoaivi" />
		<tag k="name" v="Kvalshausen" />
		<tag k="name:no" v="Kvalshausen" />
		<tag k="natural" v="cape" />
		<tag k="ssr:stedsnr" v="929931" />
	</node>
	<node lat="70.1183527774807" lon="20.895191639234547" id="-65930">
		<tag k="loc_name:se" v="Suonjirluokta" />
		<tag k="name" v="Ytter-Kveitvika" />
		<tag k="name:no" v="Ytter-Kveitvika" />
		<tag k="natural" v="bay" />
		<tag k="ssr:stedsnr" v="930034" />
	</node>
	<node lat="70.0824777812136" lon="20.797599977846968" id="-65935">
		<tag k="alt_name" v="Langenes;Langneset" />
		<tag k="name" v="Langnes" />
		<tag k="natural" v="cape" />
		<tag k="ssr:stedsnr" v="868175" />
	</node>
	<node lat="69.96599722634642" lon="20.977591646022113" id="-65939">
		<tag k="name" v="Kobbepollgrunnen" />
		<tag k="natural" v="shoal" />
		<tag k="place" v="locality" />
		<tag k="ssr:stedsnr" v="868570" />
	</node>
	<node lat="69.96318888646269" lon="20.691541651759934" id="-65940">
		<tag k="name" v="Kåvikgrunnen" />
		<tag k="natural" v="shoal" />
		<tag k="place" v="locality" />
		<tag k="ssr:stedsnr" v="868573" />
	</node>
	<node lat="69.96553056016953" lon="20.62353887563892" id="-65941">
		<tag k="name" v="Djupdalsbukta" />
		<tag k="natural" v="bay" />
		<tag k="ssr:stedsnr" v="868579" />
	</node>
	<node lat="70.21602778007461" lon="20.78371387580952" id="-65942">
		<tag k="name" v="Lille Moldforvika" />
		<tag k="natural" v="bay" />
		<tag k="ssr:stedsnr" v="869111" />
	</node>
	<node lat="70.06380555620846" lon="20.54259998157111" id="-65947">
		<tag k="bay" v="fjord" />
		<tag k="loc_name:se" v="Guhkesvuotna" />
		<tag k="name" v="Langfjorden" />
		<tag k="name:no" v="Langfjorden" />
		<tag k="natural" v="bay" />
		<tag k="ssr:stedsnr" v="870504" />
	</node>
	<node lat="69.99149444884702" lon="20.912222209857084" id="-65949">
		<tag k="name" v="Hamneneset" />
		<tag k="natural" v="cape" />
		<tag k="ssr:stedsnr" v="930666" />
	</node>
	<node lat="70.21266944697024" lon="20.81949165842981" id="-65952">
		<tag k="name" v="Tørrskuta" />
		<tag k="natural" v="shoal" />
		<tag k="place" v="locality" />
		<tag k="ssr:stedsnr" v="879258" />
	</node>
	<node lat="70.08028333612855" lon="20.547233308073334" id="-65954">
		<tag k="name" v="Sandnesbukta" />
		<tag k="natural" v="bay" />
		<tag k="ssr:stedsnr" v="934964" />
	</node>
	<node lat="69.87776666706752" lon="20.556161089210793" id="-65955">
		<tag k="name" v="Melen" />
		<tag k="natural" v="cape" />
		<tag k="ssr:stedsnr" v="935150" />
	</node>
	<node lat="70.08884444545288" lon="20.75976386483484" id="-65957">
		<tag k="name" v="Skarneset" />
		<tag k="natural" v="cape" />
		<tag k="ssr:stedsnr" v="898054" />
	</node>
	<node lat="69.9947833344864" lon="21.069641631891226" id="-65958">
		<tag k="name" v="Neskeila" />
		<tag k="natural" v="bay" />
		<tag k="ssr:stedsnr" v="898205" />
	</node>
	<node lat="70.13923056040214" lon="20.861616639042374" id="-65959">
		<tag k="name" v="Mollafjæra" />
		<tag k="natural" v="beach" />
		<tag k="ssr:stedsnr" v="898210" />
	</node>
	<node lat="70.00812682086409" lon="21.042421333097174" id="-65961">
		<tag k="name" v="Veststøa" />
		<tag k="natural" v="bay" />
		<tag k="ssr:stedsnr" v="898313" />
	</node>
	<node lat="70.00572222404926" lon="21.043211077011122" id="-65963">
		<tag k="name" v="Avdelinga" />
		<tag k="place" v="island" />
		<tag k="ssr:stedsnr" v="898315" />
	</node>
	<node lat="69.94831388555299" lon="20.950138867725247" id="-65974">
		<tag k="name" v="Skrednesbukta" />
		<tag k="natural" v="bay" />
		<tag k="ssr:stedsnr" v="899168" />
	</node>
	<node lat="70.09429444279506" lon="20.534744435645656" id="-65975">
		<tag k="name" v="Elveneset" />
		<tag k="natural" v="cape" />
		<tag k="ssr:stedsnr" v="899007" />
	</node>
	<node lat="70.03040000043897" lon="21.21720829473325" id="-65976">
		<tag k="name" v="Stenga" />
		<tag k="natural" v="cape" />
		<tag k="ssr:stedsnr" v="899221" />
	</node>
	<node lat="70.04394721769442" lon="20.628886103296246" id="-65977">
		<tag k="name" v="Naustneset" />
		<tag k="natural" v="cape" />
		<tag k="ssr:stedsnr" v="899653" />
	</node>
	<node lat="70.07275555602364" lon="20.340044420481004" id="-65979">
		<tag k="name" v="Finnklakken" />
		<tag k="natural" v="shoal" />
		<tag k="ssr:stedsnr" v="929058" />
	</node>
	<node lat="70.06406388955496" lon="20.521572197714036" id="-65989">
		<tag k="loc_name:se" v="Girkonjárga" />
		<tag k="name" v="Kjerkenes" />
		<tag k="name:no" v="Kjerkenes" />
		<tag k="natural" v="cape" />
		<tag k="ssr:stedsnr" v="958090" />
	</node>
	<node lat="69.90335555784011" lon="20.66908055071949" id="-65993">
		<tag k="name" v="Lassamok" />
		<tag k="natural" v="bay" />
		<tag k="ssr:stedsnr" v="958611" />
	</node>
	<node lat="69.90424166676124" lon="20.668441658679477" id="-65994">
		<tag k="fixme" v="consider seamark:type=rock or natural=shoal" />
		<tag k="name" v="Lassamokskjæret" />
		<tag k="place" v="islet" />
		<tag k="ssr:stedsnr" v="958612" />
	</node>
	<node lat="70.11380278020073" lon="20.904616652750587" id="-66000">
		<tag k="name" v="Midtervika" />
		<tag k="natural" v="bay" />
		<tag k="ssr:stedsnr" v="959176" />
	</node>
	<node lat="69.99947500440722" lon="21.068688858464686" id="-66002">
		<tag k="fixme" v="consider seamark:type=rock or natural=shoal" />
		<tag k="name" v="Margretesteinen" />
		<tag k="place" v="islet" />
		<tag k="ssr:stedsnr" v="959192" />
	</node>
	<node lat="70.00093889220412" lon="21.015169424521545" id="-66003">
		<tag k="name" v="Oterholla" />
		<tag k="natural" v="bay" />
		<tag k="ssr:stedsnr" v="959313" />
	</node>
	<node lat="69.97703333709465" lon="20.981630529090673" id="-66012">
		<tag k="name" v="Lillesandvikneset" />
		<tag k="natural" v="cape" />
		<tag k="ssr:stedsnr" v="959845" />
	</node>
	<node lat="70.22870555416108" lon="20.57952219708747" id="-66020">
		<tag k="name" v="Nordkeila" />
		<tag k="natural" v="bay" />
		<tag k="ssr:stedsnr" v="959911" />
	</node>
	<node lat="70.19091944877478" lon="20.81128332201243" id="-66027">
		<tag k="name" v="Skarvesteinen" />
		<tag k="natural" v="cape" />
		<tag k="ssr:stedsnr" v="19019" />
	</node>
	<node lat="70.02679722393702" lon="20.931405522040702" id="-66033">
		<tag k="name" v="Sjøburdneset" />
		<tag k="natural" v="cape" />
		<tag k="ssr:stedsnr" v="19209" />
	</node>
	<node lat="70.04855833697478" lon="20.54487775393965" id="-66035">
		<tag k="name" v="Tofteneset" />
		<tag k="natural" v="cape" />
		<tag k="ssr:stedsnr" v="19215" />
	</node>
	<node lat="70.06639166675852" lon="20.862863880865852" id="-66037">
		<tag k="name" v="Finnkeila" />
		<tag k="natural" v="bay" />
		<tag k="ssr:stedsnr" v="19227" />
	</node>
	<node lat="69.97108611204628" lon="20.75224996941273" id="-66045">
		<tag k="name" v="Kågbukta" />
		<tag k="natural" v="bay" />
		<tag k="ssr:stedsnr" v="19587" />
	</node>
	<node lat="70.11061666453725" lon="20.542622190573056" id="-66048">
		<tag k="alt_name" v="Langfjordbotnen" />
		<tag k="name" v="Langfjordbotn" />
		<tag k="natural" v="bay" />
		<tag k="ssr:stedsnr" v="24961" />
	</node>
	<node lat="70.06446111527204" lon="20.492497196140434" id="-66049">
		<tag k="name" v="Slettnes" />
		<tag k="natural" v="cape" />
		<tag k="ssr:stedsnr" v="24964" />
	</node>
	<node lat="70.07241667049772" lon="20.373519424315138" id="-66050">
		<tag k="name" v="Breistøa" />
		<tag k="natural" v="bay" />
		<tag k="ssr:stedsnr" v="25456" />
	</node>
	<node lat="69.9603416707779" lon="20.682769434670362" id="-66051">
		<tag k="name" v="Kåvika" />
		<tag k="natural" v="bay" />
		<tag k="ssr:stedsnr" v="25782" />
	</node>
	<node lat="70.02610833425643" lon="21.10476386558384" id="-66052">
		<tag k="name" v="Indre Jøvardgrunnen" />
		<tag k="natural" v="shoal" />
		<tag k="place" v="locality" />
		<tag k="ssr:stedsnr" v="29635" />
	</node>
	<node lat="69.95259166900443" lon="20.95773332040529" id="-66059">
		<tag k="fixme" v="consider seamark:type=rock or natural=shoal" />
		<tag k="name" v="Storstein" />
		<tag k="place" v="islet" />
		<tag k="ssr:stedsnr" v="49192" />
	</node>
	<node lat="69.90331111414196" lon="20.674819430716244" id="-66060">
		<tag k="name" v="Mellavika" />
		<tag k="natural" v="bay" />
		<tag k="ssr:stedsnr" v="48545" />
	</node>
	<node lat="70.08618333303224" lon="20.561444419995073" id="-66063">
		<tag k="name" v="Storslettneset" />
		<tag k="natural" v="cape" />
		<tag k="ssr:stedsnr" v="48793" />
	</node>
	<node lat="70.19150555497463" lon="20.50085275368555" id="-66082">
		<tag k="name" v="Mollvika" />
		<tag k="natural" v="bay" />
		<tag k="ssr:stedsnr" v="49353" />
	</node>
	<node lat="70.04493611196824" lon="20.680747202230666" id="-66094">
		<tag k="name" v="Loftneset" />
		<tag k="natural" v="cape" />
		<tag k="ssr:stedsnr" v="49838" />
	</node>
	<node lat="69.96761666502776" lon="20.753547210068792" id="-66098">
		<tag k="name" v="Kvenbukta" />
		<tag k="natural" v="bay" />
		<tag k="ssr:stedsnr" v="49884" />
	</node>
	<node lat="70.09423332932016" lon="20.548477768634296" id="-66112">
		<tag k="name" v="Lyngnes" />
		<tag k="natural" v="cape" />
		<tag k="ssr:stedsnr" v="80224" />
	</node>
	<node lat="70.04494444214477" lon="21.236758314455862" id="-66117">
		<tag k="name" v="Haukøya - Ávku" />
		<tag k="name:no" v="Haukøya" />
		<tag k="name:se" v="Ávku" />
		<tag k="old_name:se" v="Avko" />
		<tag k="place" v="island" />
		<tag k="ssr:stedsnr" v="80332" />
	</node>
	<node lat="70.0518916703898" lon="21.269163861173993" id="-66118">
		<tag k="alt_name" v="Kvassneset" />
		<tag k="name" v="Kvassnes" />
		<tag k="natural" v="cape" />
		<tag k="ssr:stedsnr" v="80335" />
	</node>
	<node lat="69.84586944931812" lon="20.749174984323165" id="-66122">
		<tag k="alt_name:no" v="Rottsund" />
		<tag k="alt_name:se" v="Gárggonuorri" />
		<tag k="loc_name:se" v="Ulinuorri" />
		<tag k="name" v="Rotsundet - Guohcanuorri - Nuora" />
		<tag k="name:fkv" v="Nuora" />
		<tag k="name:no" v="Rotsundet" />
		<tag k="name:se" v="Guohcanuorri" />
		<tag k="natural" v="strait" />
		<tag k="ssr:stedsnr" v="80972" />
	</node>
	<node lat="70.09836944211256" lon="20.9274999818749" id="-66123">
		<tag k="name" v="Nova" />
		<tag k="natural" v="cape" />
		<tag k="ssr:stedsnr" v="81513" />
	</node>
	<node lat="70.04088610850864" lon="20.433169440126857" id="-66125">
		<tag k="name" v="Geitvikskallen" />
		<tag k="natural" v="shoal" />
		<tag k="ssr:stedsnr" v="86912" />
	</node>
	<node lat="70.17938333256726" lon="20.423452772679777" id="-66126">
		<tag k="name" v="Kvalvika" />
		<tag k="natural" v="bay" />
		<tag k="ssr:stedsnr" v="85420" />
	</node>
	<node lat="70.24095833336611" lon="20.968911078717902" id="-66127">
		<tag k="name" v="Alketindskallen" />
		<tag k="natural" v="shoal" />
		<tag k="place" v="locality" />
		<tag k="ssr:stedsnr" v="90191" />
	</node>
	<node lat="70.22375277819202" lon="20.53789164885794" id="-66129">
		<tag k="alt_name" v="Skarvhollet" />
		<tag k="name" v="Skarvholet" />
		<tag k="natural" v="bay" />
		<tag k="ssr:stedsnr" v="90362" />
	</node>
	<node lat="70.07401388820067" lon="20.885272207615127" id="-66130">
		<tag k="name" v="Torveneset" />
		<tag k="natural" v="cape" />
		<tag k="ssr:stedsnr" v="90812" />
	</node>
	<node lat="69.99835000567698" lon="20.99882219094833" id="-66134">
		<tag k="name" v="Enesbuktan" />
		<tag k="natural" v="bay" />
		<tag k="ssr:stedsnr" v="109328" />
	</node>
	<node lat="70.06294444511035" lon="20.79934999101002" id="-66136">
		<tag k="name" v="Valen" />
		<tag k="natural" v="bay" />
		<tag k="ssr:stedsnr" v="109032" />
	</node>
	<node lat="70.02987778284074" lon="21.004197201760743" id="-66137">
		<tag k="name" v="Stussneskeila" />
		<tag k="natural" v="bay" />
		<tag k="ssr:stedsnr" v="109156" />
	</node>
	<node lat="69.99287499655264" lon="21.065472207092338" id="-66160">
		<tag k="fixme" v="consider seamark:type=rock or natural=shoal" />
		<tag k="name" v="Flua" />
		<tag k="place" v="islet" />
		<tag k="ssr:stedsnr" v="110184" />
	</node>
	<node lat="70.18501111048148" lon="20.816288880456305" id="-66172">
		<tag k="name" v="Flua" />
		<tag k="natural" v="shoal" />
		<tag k="place" v="locality" />
		<tag k="ssr:stedsnr" v="140015" />
	</node>
	<node lat="70.10441666853733" lon="20.92063609826293" id="-66177">
		<tag k="name" v="Kanonan" />
		<tag k="natural" v="cape" />
		<tag k="ssr:stedsnr" v="140207" />
	</node>
	<node lat="70.02292222194086" lon="21.216133294396133" id="-66183">
		<tag k="name" v="Haukøysundet" />
		<tag k="natural" v="strait" />
		<tag k="ssr:stedsnr" v="140357" />
	</node>
	<node lat="69.88647222307479" lon="20.703461089958225" id="-66185">
		<tag k="name" v="Storbukta" />
		<tag k="natural" v="bay" />
		<tag k="ssr:stedsnr" v="140536" />
	</node>
	<node lat="70.17528888779984" lon="20.410805550063547" id="-66190">
		<tag k="name" v="Skjåvika" />
		<tag k="natural" v="bay" />
		<tag k="ssr:stedsnr" v="140916" />
	</node>
	<node lat="70.21286944432663" lon="20.45096108411335" id="-66191">
		<tag k="name" v="Nyrås" />
		<tag k="natural" v="shoal" />
		<tag k="place" v="locality" />
		<tag k="ssr:stedsnr" v="144473" />
	</node>
	<node lat="69.9970027760121" lon="20.722736086037653" id="-66193">
		<tag k="alt_name" v="Skarvsteinen" />
		<tag k="fixme" v="consider seamark:type=rock or natural=shoal" />
		<tag k="name" v="Skarvesteinen" />
		<tag k="place" v="islet" />
		<tag k="ssr:stedsnr" v="146976" />
	</node>
	<node lat="70.28851388649905" lon="20.858963873288644" id="-66195">
		<tag k="name" v="Votten" />
		<tag k="natural" v="shoal" />
		<tag k="place" v="locality" />
		<tag k="ssr:stedsnr" v="150244" />
	</node>
	<node lat="70.22662777929538" lon="20.506013866654776" id="-66197">
		<tag k="name" v="Terninggrunnen" />
		<tag k="natural" v="shoal" />
		<tag k="place" v="locality" />
		<tag k="ssr:stedsnr" v="150377" />
	</node>
	<node lat="70.02135833703807" lon="21.07867496445079" id="-66198">
		<tag k="name" v="Måsefloget" />
		<tag k="natural" v="cape" />
		<tag k="ssr:stedsnr" v="150625" />
	</node>
	<node lat="70.09808611177384" lon="21.0914138755436" id="-66199">
		<tag k="name" v="Isbåen" />
		<tag k="natural" v="shoal" />
		<tag k="place" v="locality" />
		<tag k="ssr:stedsnr" v="150703" />
	</node>
	<node lat="70.14329722102597" lon="20.961274990454402" id="-66200">
		<tag k="name" v="Bortre Kjerringgrunnen" />
		<tag k="natural" v="shoal" />
		<tag k="place" v="locality" />
		<tag k="ssr:stedsnr" v="150655" />
	</node>
	<node lat="70.07291944666721" lon="20.98785553919673" id="-66201">
		<tag k="name" v="Storskallen" />
		<tag k="natural" v="shoal" />
		<tag k="place" v="locality" />
		<tag k="ssr:stedsnr" v="150700" />
	</node>
	<node lat="70.00421389447344" lon="20.999449971677524" id="-66203">
		<tag k="name" v="Ryggen" />
		<tag k="natural" v="shoal" />
		<tag k="place" v="locality" />
		<tag k="ssr:stedsnr" v="167993" />
	</node>
	<node lat="70.07551944169093" lon="20.98198885144865" id="-66217">
		<tag k="name" v="Klipa" />
		<tag k="natural" v="bay" />
		<tag k="ssr:stedsnr" v="170196" />
	</node>
	<node lat="69.9903555589201" lon="20.91549996966043" id="-66223">
		<tag k="name" v="Hamneklubben" />
		<tag k="natural" v="cape" />
		<tag k="ssr:stedsnr" v="170294" />
	</node>
	<node lat="70.00000555789796" lon="21.035497200762542" id="-66226">
		<tag k="name" v="Sandvågneset" />
		<tag k="natural" v="cape" />
		<tag k="ssr:stedsnr" v="170389" />
	</node>
	<node lat="70.04548055419102" lon="21.01186665307289" id="-66228">
		<tag k="name" v="Klubben" />
		<tag k="natural" v="cape" />
		<tag k="ssr:stedsnr" v="170153" />
	</node>
	<node lat="69.92244167020252" lon="20.841541650930647" id="-66244">
		<tag k="name" v="Stangnesbukta" />
		<tag k="natural" v="bay" />
		<tag k="ssr:stedsnr" v="170894" />
	</node>
	<node lat="69.96183888831537" lon="20.964566648704395" id="-66245">
		<tag k="name" v="Langbukta" />
		<tag k="natural" v="bay" />
		<tag k="ssr:stedsnr" v="171137" />
	</node>
	<node lat="69.94140277772858" lon="20.932572195954254" id="-66246">
		<tag k="name" v="Loken" />
		<tag k="natural" v="bay" />
		<tag k="ssr:stedsnr" v="171145" />
	</node>
	<node lat="69.94148889157003" lon="20.774622207498485" id="-66248">
		<tag k="name" v="Lillesandnesodden" />
		<tag k="natural" v="cape" />
		<tag k="ssr:stedsnr" v="170909" />
	</node>
	<node lat="70.22568055386574" lon="20.552305542395104" id="-66250">
		<tag k="name" v="Knepet" />
		<tag k="natural" v="bay" />
		<tag k="ssr:stedsnr" v="170932" />
	</node>
	<node lat="69.77967777947062" lon="20.382683316093747" id="-66252">
		<tag k="alt_name:no" v="Lyngenfjorden" />
		<tag k="bay" v="fjord" />
		<tag k="name" v="Lyngen - Ivguvuotna - Yykeänvuono" />
		<tag k="name:fkv" v="Yykeänvuono" />
		<tag k="name:no" v="Lyngen" />
		<tag k="name:se" v="Ivguvuotna" />
		<tag k="natural" v="bay" />
		<tag k="ssr:stedsnr" v="200243" />
	</node>
	<node lat="69.98033055876549" lon="20.62363054342807" id="-66255">
		<tag k="alt_name" v="Hellarodden" />
		<tag k="name" v="Hellerneset" />
		<tag k="natural" v="cape" />
		<tag k="ssr:stedsnr" v="201556" />
	</node>
	<node lat="69.97612778137585" lon="20.504036105491824" id="-66256">
		<tag k="alt_name" v="Vittebåen" />
		<tag k="name" v="Nittebåen" />
		<tag k="natural" v="shoal" />
		<tag k="ssr:stedsnr" v="201557" />
	</node>
	<node lat="70.02341666632094" lon="20.954574973169713" id="-66264">
		<tag k="alt_name:no" v="Skjervøy" />
		<tag k="name" v="Skjervøya - Skiervá" />
		<tag k="name:no" v="Skjervøya" />
		<tag k="name:se" v="Skiervá" />
		<tag k="place" v="island" />
		<tag k="ssr:stedsnr" v="201132" />
	</node>
	<node lat="70.03067500313168" lon="20.944666653382388" id="-66265">
		<tag k="loc_name:se" v="Sámemuotki" />
		<tag k="name" v="Finneidet" />
		<tag k="name:no" v="Finneidet" />
		<tag k="place" v="locality" />
		<tag k="ssr:stedsnr" v="201136" />
	</node>
	<node lat="70.01547529623218" lon="20.714166275434284" id="-66267">
		<tag k="name" v="Kvalvika" />
		<tag k="natural" v="bay" />
		<tag k="ssr:stedsnr" v="201139" />
	</node>
	<node lat="70.05793333071175" lon="20.55359164368415" id="-66275">
		<tag k="name" v="Stokkenes" />
		<tag k="natural" v="cape" />
		<tag k="ssr:stedsnr" v="201219" />
	</node>
	<node lat="70.03082499759296" lon="21.255988868264353" id="-66276">
		<tag k="name" v="Balsa" />
		<tag k="name:se" v="Balsa" />
		<tag k="natural" v="bay" />
		<tag k="old_name:se" v="Ballsa" />
		<tag k="ssr:stedsnr" v="201321" />
	</node>
	<node lat="70.18064444266768" lon="20.410916641338936" id="-66287">
		<tag k="fixme" v="consider seamark:type=rock or natural=shoal" />
		<tag k="name" v="Skjåvikskjæret" />
		<tag k="place" v="islet" />
		<tag k="ssr:stedsnr" v="201919" />
	</node>
	<node lat="70.21148888654268" lon="20.518419421301626" id="-66292">
		<tag k="name" v="Sløkebenken" />
		<tag k="natural" v="cape" />
		<tag k="ssr:stedsnr" v="212366" />
	</node>
	<node lat="69.8577249985836" lon="20.703133322281627" id="-66295">
		<tag k="name" v="Floget" />
		<tag k="natural" v="shoal" />
		<tag k="place" v="locality" />
		<tag k="ssr:stedsnr" v="227664" />
	</node>
	<node lat="70.15924722477835" lon="20.397797212952618" id="-66301">
		<tag k="fixme" v="consider seamark:type=rock or natural=shoal" />
		<tag k="name" v="Sengskjæret" />
		<tag k="place" v="islet" />
		<tag k="ssr:stedsnr" v="291184" />
	</node>
	<node lat="70.05984444860593" lon="20.974436078005322" id="-66302">
		<tag k="name" v="Teisthollet" />
		<tag k="natural" v="bay" />
		<tag k="ssr:stedsnr" v="291196" />
	</node>
	<node lat="70.07631666575999" lon="20.983277765113044" id="-66303">
		<tag k="name" v="Flua" />
		<tag k="place" v="locality" />
		<tag k="seamark:type" v="rock" />
		<tag k="ssr:stedsnr" v="291197" />
	</node>
	<node lat="70.04445833437681" lon="21.011972195320084" id="-66308">
		<tag k="name" v="Ytre Ramnnesbukta" />
		<tag k="natural" v="bay" />
		<tag k="ssr:stedsnr" v="291147" />
	</node>
	<node lat="70.0033027768858" lon="21.037783310532593" id="-66324">
		<tag k="name" v="Leirvågen" />
		<tag k="natural" v="bay" />
		<tag k="ssr:stedsnr" v="291374" />
	</node>
	<node lat="69.92346666966714" lon="20.824613857495358" id="-66336">
		<tag k="name" v="Lutbergkråa" />
		<tag k="natural" v="bay" />
		<tag k="ssr:stedsnr" v="291886" />
	</node>
	<node lat="70.227972220086" lon="20.571988866321966" id="-66342">
		<tag k="name" v="Rotvåg" />
		<tag k="natural" v="bay" />
		<tag k="ssr:stedsnr" v="291915" />
	</node>
	<node lat="70.0451972201382" lon="20.63059720832372" id="-66348">
		<tag k="name" v="Såteneset" />
		<tag k="natural" v="cape" />
		<tag k="ssr:stedsnr" v="291859" />
	</node>
	<node lat="70.22388889050461" lon="20.541174995285534" id="-66360">
		<tag k="name" v="Terningen" />
		<tag k="natural" v="cape" />
		<tag k="ssr:stedsnr" v="322090" />
	</node>
	<node lat="70.05242778322537" lon="20.41444442125908" id="-66365">
		<tag k="name" v="Geitvikrevet" />
		<tag k="natural" v="shoal" />
		<tag k="place" v="locality" />
		<tag k="ssr:stedsnr" v="322095" />
	</node>
	<node lat="70.0030166660577" lon="20.900902744267096" id="-66366">
		<tag k="name" v="Perlarsaneset" />
		<tag k="natural" v="cape" />
		<tag k="ssr:stedsnr" v="322121" />
	</node>
	<node lat="70.15694166696888" lon="20.395458314367062" id="-66368">
		<tag k="name" v="Kvalshausbukta" />
		<tag k="natural" v="bay" />
		<tag k="ssr:stedsnr" v="322935" />
	</node>
	<node lat="70.00028611087743" lon="21.064130534016762" id="-66369">
		<tag k="name" v="Taskebyneset" />
		<tag k="natural" v="cape" />
		<tag k="ssr:stedsnr" v="322332" />
	</node>
	<node lat="69.96223889293323" lon="20.733030551018153" id="-66371">
		<tag k="name" v="Skallen" />
		<tag k="natural" v="shoal" />
		<tag k="place" v="locality" />
		<tag k="ssr:stedsnr" v="322570" />
	</node>
	<node lat="69.96781511576853" lon="20.852506313108318" id="-66372">
		<tag k="name" v="Kågen - Gávvir" />
		<tag k="name:no" v="Kågen" />
		<tag k="name:se" v="Gávvir" />
		<tag k="old_name:se" v="Gavvir" />
		<tag k="place" v="island" />
		<tag k="ssr:stedsnr" v="322618" />
	</node>
	<node lat="69.8371583328861" lon="20.732927745986714" id="-66374">
		<tag k="name" v="Sommarsetneset" />
		<tag k="natural" v="cape" />
		<tag k="ssr:stedsnr" v="322990" />
	</node>
	<node lat="69.83562500505231" lon="20.742869425302498" id="-66375">
		<tag k="name" v="Hakkebåen" />
		<tag k="natural" v="shoal" />
		<tag k="place" v="locality" />
		<tag k="ssr:stedsnr" v="322993" />
	</node>
	<node lat="70.1077555568812" lon="20.53949721443605" id="-66377">
		<tag k="name" v="Laksebukta" />
		<tag k="natural" v="bay" />
		<tag k="ssr:stedsnr" v="323034" />
	</node>
	<node lat="70.1477833364488" lon="20.818208323701302" id="-66379">
		<tag k="name" v="Korsneset" />
		<tag k="natural" v="cape" />
		<tag k="ssr:stedsnr" v="323008" />
	</node>
	<node lat="69.8689249993975" lon="20.549786101822207" id="-66382">
		<tag k="alt_name" v="Kvænnes" />
		<tag k="name" v="Kvenneset" />
		<tag k="natural" v="cape" />
		<tag k="ssr:stedsnr" v="323528" />
	</node>
	<node lat="69.84569166955434" lon="20.716347213542015" id="-66383">
		<tag k="name" v="Skredneset" />
		<tag k="natural" v="cape" />
		<tag k="ssr:stedsnr" v="323471" />
	</node>
	<node lat="70.10245555376542" lon="20.37419997285846" id="-66384">
		<tag k="name" v="Urneset" />
		<tag k="natural" v="cape" />
		<tag k="ssr:stedsnr" v="323496" />
	</node>
	<node lat="70.06587500543206" lon="20.853983307653387" id="-66385">
		<tag k="name" v="Grunneset" />
		<tag k="natural" v="cape" />
		<tag k="ssr:stedsnr" v="323501" />
	</node>
	<node lat="69.97961944130313" lon="20.71909443580173" id="-66386">
		<tag k="bay" v="fjord" />
		<tag k="name" v="Kjølmangen - Čoalbmi" />
		<tag k="name:no" v="Kjølmangen" />
		<tag k="name:se" v="Čoalbmi" />
		<tag k="natural" v="bay" />
		<tag k="ssr:stedsnr" v="323616" />
	</node>
	<node lat="69.99827500213266" lon="20.971969417210108" id="-66387">
		<tag k="alt_name" v="Lilleøya" />
		<tag k="name" v="Litløya" />
		<tag k="natural" v="cape" />
		<tag k="ssr:stedsnr" v="323669" />
	</node>
	<node lat="69.99343055857382" lon="20.960402747734086" id="-66388">
		<tag k="alt_name" v="Skjerneset" />
		<tag k="name" v="Skjærneset" />
		<tag k="natural" v="cape" />
		<tag k="ssr:stedsnr" v="323671" />
	</node>
	<node lat="70.07493888992077" lon="20.571102758746953" id="-66389">
		<tag k="name" v="Vintersetbukta" />
		<tag k="natural" v="bay" />
		<tag k="ssr:stedsnr" v="327949" />
	</node>
	<node lat="69.8863555584329" lon="20.735011091656556" id="-66392">
		<tag k="name" v="Kista" />
		<tag k="natural" v="shoal" />
		<tag k="place" v="locality" />
		<tag k="ssr:stedsnr" v="328748" />
	</node>
	<node lat="70.02203888582534" lon="20.715952766243543" id="-66393">
		<tag k="name" v="Garnstadan" />
		<tag k="natural" v="shoal" />
		<tag k="place" v="locality" />
		<tag k="ssr:stedsnr" v="328749" />
	</node>
	<node lat="70.01291944089967" lon="20.712894429458274" id="-66394">
		<tag k="name" v="Kvalvikneset" />
		<tag k="natural" v="cape" />
		<tag k="ssr:stedsnr" v="328751" />
	</node>
	<node lat="70.02729444299216" lon="21.23448886139356" id="-66395">
		<tag k="name" v="Vinkenes" />
		<tag k="natural" v="cape" />
		<tag k="ssr:stedsnr" v="332789" />
	</node>
	<node lat="70.24942777587293" lon="20.900913870829633" id="-66396">
		<tag k="name" v="Hanseskallen" />
		<tag k="natural" v="shoal" />
		<tag k="place" v="locality" />
		<tag k="ssr:stedsnr" v="333223" />
	</node>
	<node lat="70.26368333135298" lon="20.758919426520162" id="-66397">
		<tag k="name" v="Arnøybåen" />
		<tag k="natural" v="shoal" />
		<tag k="place" v="locality" />
		<tag k="ssr:stedsnr" v="333240" />
	</node>
	<node lat="70.10198333623876" lon="21.096197207955925" id="-66398">
		<tag k="name" v="Kuræva" />
		<tag k="natural" v="shoal" />
		<tag k="place" v="locality" />
		<tag k="ssr:stedsnr" v="333712" />
	</node>
	<node lat="70.09831388789837" lon="21.11576386227539" id="-66399">
		<tag k="name" v="Nordbåen" />
		<tag k="natural" v="shoal" />
		<tag k="place" v="locality" />
		<tag k="ssr:stedsnr" v="333730" />
	</node>
	<node lat="70.0585500023735" lon="21.044213869061636" id="-66400">
		<tag k="name" v="Ytter-Villomen" />
		<tag k="natural" v="shoal" />
		<tag k="place" v="locality" />
		<tag k="ssr:stedsnr" v="333741" />
	</node>
	<node lat="69.9177694485837" lon="20.661130544902605" id="-66401">
		<tag k="name" v="Tobasbukta" />
		<tag k="natural" v="bay" />
		<tag k="ssr:stedsnr" v="340770" />
	</node>
	<node lat="69.88762222369424" lon="20.69757498054005" id="-66402">
		<tag k="name" v="Bukkekråa" />
		<tag k="natural" v="bay" />
		<tag k="ssr:stedsnr" v="348748" />
	</node>
	<node lat="70.00655555878018" lon="21.07798887254515" id="-66404">
		<tag k="name" v="Flågrunnen" />
		<tag k="natural" v="shoal" />
		<tag k="place" v="locality" />
		<tag k="ssr:stedsnr" v="349946" />
	</node>
	<node lat="69.98510833362874" lon="20.963269430766005" id="-66405">
		<tag k="name" v="Hyseberget" />
		<tag k="natural" v="cape" />
		<tag k="ssr:stedsnr" v="349948" />
	</node>
	<node lat="70.0747777750982" lon="20.81264442558787" id="-66417">
		<tag k="name" v="Bukta" />
		<tag k="natural" v="bay" />
		<tag k="ssr:stedsnr" v="352043" />
	</node>
	<node lat="70.19281944652657" lon="20.474166654623534" id="-66421">
		<tag k="name" v="Bukkevika" />
		<tag k="natural" v="bay" />
		<tag k="ssr:stedsnr" v="352289" />
	</node>
	<node lat="70.12294721912184" lon="20.88815830156328" id="-66425">
		<tag k="name" v="Kveitvika" />
		<tag k="natural" v="bay" />
		<tag k="ssr:stedsnr" v="352176" />
	</node>
	<node lat="70.01337222036688" lon="21.072247188306285" id="-66427">
		<tag k="name" v="Mannan" />
		<tag k="natural" v="cape" />
		<tag k="ssr:stedsnr" v="352186" />
	</node>
	<node lat="70.00006110820999" lon="21.05949442885404" id="-66428">
		<tag k="name" v="Dampbukta" />
		<tag k="natural" v="bay" />
		<tag k="ssr:stedsnr" v="352193" />
	</node>
	<node lat="69.93860833755289" lon="20.921480524210214" id="-66438">
		<tag k="name" v="Støa" />
		<tag k="natural" v="bay" />
		<tag k="ssr:stedsnr" v="352305" />
	</node>
	<node lat="70.19146944814683" lon="20.503549973746832" id="-66439">
		<tag k="name" v="Brygga" />
		<tag k="natural" v="cape" />
		<tag k="ssr:stedsnr" v="352309" />
	</node>
	<node lat="70.05332777778371" lon="21.234574981932855" id="-66442">
		<tag k="name" v="Skarbergodden" />
		<tag k="natural" v="cape" />
		<tag k="ssr:stedsnr" v="352339" />
	</node>
	<node lat="69.953750004041" lon="20.95992775746697" id="-66464">
		<tag k="name" v="Sandbukta" />
		<tag k="natural" v="bay" />
		<tag k="ssr:stedsnr" v="353185" />
	</node>
	<node lat="69.99430833293131" lon="20.907416635624923" id="-66465">
		<tag k="name" v="Skjellhamna" />
		<tag k="natural" v="bay" />
		<tag k="ssr:stedsnr" v="353338" />
	</node>
	<node lat="70.01009444297353" lon="20.88357219860028" id="-66466">
		<tag k="fixme" v="consider seamark:type=rock or natural=shoal" />
		<tag k="name" v="Molskjæret" />
		<tag k="place" v="islet" />
		<tag k="ssr:stedsnr" v="353341" />
	</node>
	<node lat="70.01491111526154" lon="20.98712774635945" id="-66473">
		<tag k="name" v="Hollendarvika" />
		<tag k="natural" v="bay" />
		<tag k="ssr:stedsnr" v="383146" />
	</node>
	<node lat="70.06553888758822" lon="20.838666641809287" id="-66474">
		<tag k="alt_name" v="Nikkebyneset" />
		<tag k="name" v="Neset" />
		<tag k="natural" v="cape" />
		<tag k="ssr:stedsnr" v="383266" />
	</node>
	<node lat="70.09366110857542" lon="20.78010552932267" id="-66476">
		<tag k="name" v="Storskredneset" />
		<tag k="natural" v="cape" />
		<tag k="ssr:stedsnr" v="383224" />
	</node>
	<node lat="70.09033610821521" lon="20.537463868651862" id="-66477">
		<tag k="name" v="Kajoneset" />
		<tag k="natural" v="cape" />
		<tag k="ssr:stedsnr" v="383234" />
	</node>
	<node lat="70.03438889244106" lon="20.831558308426082" id="-66478">
		<tag k="name" v="Kågbergan" />
		<tag k="natural" v="cape" />
		<tag k="ssr:stedsnr" v="383241" />
	</node>
	<node lat="70.02631388674615" lon="21.225516638657595" id="-66480">
		<tag k="name" v="Haukøyneset - Ávkonjárga" />
		<tag k="name:no" v="Haukøyneset" />
		<tag k="name:se" v="Ávkonjárga" />
		<tag k="natural" v="cape" />
		<tag k="old_name:se" v="Avkunjarga" />
		<tag k="ssr:stedsnr" v="383344" />
	</node>
	<node lat="69.95787499759571" lon="20.963816641603994" id="-66481">
		<tag k="name" v="Skognesbukta" />
		<tag k="natural" v="bay" />
		<tag k="ssr:stedsnr" v="383601" />
	</node>
	<node lat="70.08418610821724" lon="20.36535832338409" id="-66485">
		<tag k="fixme" v="consider seamark:type=rock or natural=shoal" />
		<tag k="name" v="Skarvesteinen" />
		<tag k="place" v="islet" />
		<tag k="ssr:stedsnr" v="388355" />
	</node>
	<node lat="70.19471944559814" lon="20.484433326863545" id="-66486">
		<tag k="name" v="Steintaren" />
		<tag k="natural" v="shoal" />
		<tag k="place" v="locality" />
		<tag k="ssr:stedsnr" v="388331" />
	</node>
	<node lat="70.19321666425098" lon="20.491916659016173" id="-66487">
		<tag k="name" v="Heimerneset" />
		<tag k="natural" v="cape" />
		<tag k="ssr:stedsnr" v="388483" />
	</node>
	<node lat="70.07292777805493" lon="20.542952773964462" id="-66488">
		<tag k="name" v="Lille-Kjelvågen" />
		<tag k="natural" v="bay" />
		<tag k="ssr:stedsnr" v="388958" />
	</node>
	<node lat="69.91732222297804" lon="20.661919435430256" id="-66489">
		<tag k="alt_name" v="Tobasneset" />
		<tag k="name" v="Tobakksneset" />
		<tag k="natural" v="cape" />
		<tag k="ssr:stedsnr" v="388736" />
	</node>
	<node lat="69.98992222795003" lon="20.62159719403876" id="-66490">
		<tag k="name" v="Krøkebærvika" />
		<tag k="natural" v="bay" />
		<tag k="ssr:stedsnr" v="389161" />
	</node>
	<node lat="70.0552222268177" lon="20.639322203805605" id="-66491">
		<tag k="name" v="Leira" />
		<tag k="natural" v="bay" />
		<tag k="ssr:stedsnr" v="389184" />
	</node>
	<node lat="70.13838889375985" lon="21.078563858922365" id="-66494">
		<tag k="name" v="Karisen" />
		<tag k="natural" v="shoal" />
		<tag k="place" v="locality" />
		<tag k="ssr:stedsnr" v="393676" />
	</node>
	<node lat="70.05803333228035" lon="20.496436095425523" id="-66499">
		<tag k="name" v="Sandbakkneset" />
		<tag k="natural" v="cape" />
		<tag k="ssr:stedsnr" v="412083" />
	</node>
	<node lat="70.14966944141761" lon="20.849038875279152" id="-66513">
		<tag k="name" v="Omnan" />
		<tag k="natural" v="cape" />
		<tag k="ssr:stedsnr" v="413166" />
	</node>
	<node lat="70.028675003114" lon="20.98877220168253" id="-66514">
		<tag k="name" v="Guhkásfjæra" />
		<tag k="natural" v="beach" />
		<tag k="ssr:stedsnr" v="413174" />
	</node>
	<node lat="69.9777833302234" lon="20.628386102025395" id="-66519">
		<tag k="name" v="Trondalsbukta" />
		<tag k="natural" v="bay" />
		<tag k="ssr:stedsnr" v="413581" />
	</node>
	<node lat="69.88858055757458" lon="20.706969434678477" id="-66521">
		<tag k="name" v="Bukta" />
		<tag k="natural" v="bay" />
		<tag k="ssr:stedsnr" v="413619" />
	</node>
	<node lat="69.97462778284563" lon="20.976555523989845" id="-66530">
		<tag k="name" v="Storsandvika" />
		<tag k="natural" v="bay" />
		<tag k="ssr:stedsnr" v="413865" />
	</node>
	<node lat="70.00263333428408" lon="20.971755525059333" id="-66534">
		<tag k="name" v="Enessundet" />
		<tag k="natural" v="strait" />
		<tag k="ssr:stedsnr" v="444135" />
	</node>
	<node lat="70.01432222535777" lon="20.875686099949068" id="-66535">
		<tag k="name" v="Isbukta" />
		<tag k="natural" v="bay" />
		<tag k="ssr:stedsnr" v="444141" />
	</node>
	<node lat="70.02977777378317" lon="21.00136387051085" id="-66537">
		<tag k="name" v="Stussnes" />
		<tag k="natural" v="cape" />
		<tag k="ssr:stedsnr" v="444147" />
	</node>
	<node lat="70.0190527819625" lon="20.91611665810039" id="-66538">
		<tag k="name" v="Tennskjærneset" />
		<tag k="natural" v="cape" />
		<tag k="ssr:stedsnr" v="444150" />
	</node>
	<node lat="70.084125001875" lon="20.36587219587075" id="-66540">
		<tag k="loc_name:se" v="Skárfagárgu" />
		<tag k="name" v="Skarvesteinneset" />
		<tag k="name:no" v="Skarvesteinneset" />
		<tag k="natural" v="cape" />
		<tag k="ssr:stedsnr" v="444084" />
	</node>
	<node lat="70.13902500094844" lon="20.866738879545217" id="-66543">
		<tag k="name" v="Molnesbukta" />
		<tag k="natural" v="bay" />
		<tag k="ssr:stedsnr" v="444040" />
	</node>
	<node lat="70.05569444901646" lon="20.99926386078868" id="-66548">
		<tag k="name" v="Engnesbukta" />
		<tag k="natural" v="bay" />
		<tag k="ssr:stedsnr" v="444220" />
	</node>
	<node lat="69.95209999801556" lon="20.51180553966319" id="-66558">
		<tag k="loc_name:se" v="Ivgolássáboađut" />
		<tag k="name" v="Lyngsbåan" />
		<tag k="name:no" v="Lyngsbåan" />
		<tag k="natural" v="shoal" />
		<tag k="place" v="locality" />
		<tag k="ssr:stedsnr" v="444560" />
	</node>
	<node lat="69.98392777837506" lon="21.03863053502398" id="-66562">
		<tag k="fixme" v="multiple name tags, choose one and add the other to alt_name" />
		<tag k="name" v="Oterstokken;Oterstokkneset" />
		<tag k="natural" v="cape" />
		<tag k="ssr:stedsnr" v="444909" />
	</node>
	<node lat="70.17131944112445" lon="20.412080543267095" id="-66563">
		<tag k="alt_name:no" v="Pankekeila" />
		<tag k="loc_name:se" v="Báŋkgeailu" />
		<tag k="name" v="Bankekeila" />
		<tag k="name:no" v="Bankekeila" />
		<tag k="natural" v="bay" />
		<tag k="ssr:stedsnr" v="444918" />
	</node>
	<node lat="70.20483889374235" lon="20.415713874626636" id="-66564">
		<tag k="name" v="Grunnstø" />
		<tag k="natural" v="shoal" />
		<tag k="place" v="locality" />
		<tag k="ssr:stedsnr" v="448528" />
	</node>
	<node lat="70.20681111487515" lon="20.410261104798632" id="-66565">
		<tag k="name" v="Klubbestø" />
		<tag k="natural" v="shoal" />
		<tag k="place" v="locality" />
		<tag k="ssr:stedsnr" v="448492" />
	</node>
	<node lat="70.18304722475293" lon="20.434136096374313" id="-66566">
		<tag k="alt_name" v="Falkenbergbukta" />
		<tag k="name" v="Falkebergbukta" />
		<tag k="natural" v="bay" />
		<tag k="ssr:stedsnr" v="504011" />
	</node>
	<node lat="70.07376944111219" lon="20.32468609562781" id="-66567">
		<tag k="name" v="Snerpen" />
		<tag k="natural" v="shoal" />
		<tag k="ssr:stedsnr" v="504047" />
	</node>
	<node lat="69.93127099017254" lon="20.886060563664234" id="-66576">
		<tag k="name" v="Øksneset" />
		<tag k="natural" v="cape" />
		<tag k="ssr:stedsnr" v="504592" />
	</node>
	<node lat="69.94163888516549" lon="20.537197212549387" id="-66577">
		<tag k="name" v="Nyskallen" />
		<tag k="natural" v="shoal" />
		<tag k="ssr:stedsnr" v="504596" />
	</node>
	<node lat="69.93316944576397" lon="20.66118331725619" id="-66578">
		<tag k="name" v="Vorterøysundet - Virttánuorri" />
		<tag k="name:no" v="Vorterøysundet" />
		<tag k="name:se" v="Virttánuorri" />
		<tag k="natural" v="strait" />
		<tag k="ssr:stedsnr" v="504598" />
	</node>
	<node lat="69.9955111094377" lon="21.070352754186704" id="-66579">
		<tag k="alt_name" v="Taskebyneset, in" />
		<tag k="name" v="Indre Taskebyneset" />
		<tag k="natural" v="cape" />
		<tag k="ssr:stedsnr" v="504901" />
	</node>
	<node lat="70.06685555286055" lon="20.56337219354481" id="-66591">
		<tag k="name" v="Stakkeromsbukta" />
		<tag k="natural" v="bay" />
		<tag k="ssr:stedsnr" v="509945" />
	</node>
	<node lat="70.05346111524645" lon="20.63339164646589" id="-66592">
		<tag k="name" v="Bjørnbukta" />
		<tag k="natural" v="bay" />
		<tag k="ssr:stedsnr" v="510996" />
	</node>
	<node lat="70.0325583380043" lon="20.98782496673055" id="-66593">
		<tag k="name" v="Ytre Havn" />
		<tag k="natural" v="bay" />
		<tag k="ssr:stedsnr" v="515651" />
	</node>
	<node lat="70.04008055706569" lon="21.01089165096277" id="-66594">
		<tag k="fixme" v="consider seamark:type=rock or natural=shoal" />
		<tag k="name" v="Skinkaskjæret" />
		<tag k="place" v="islet" />
		<tag k="ssr:stedsnr" v="515760" />
	</node>
	<node lat="70.23739166537965" lon="20.700883322975166" id="-66595">
		<tag k="name" v="Hylla" />
		<tag k="natural" v="cape" />
		<tag k="ssr:stedsnr" v="515259" />
	</node>
	<node lat="70.14574166690784" lon="21.01221385416885" id="-66597">
		<tag k="name" v="Indre Nikkebyskallen" />
		<tag k="natural" v="shoal" />
		<tag k="place" v="locality" />
		<tag k="ssr:stedsnr" v="515685" />
	</node>
	<node lat="69.94589722670031" lon="20.620852763479405" id="-66602">
		<tag k="name" v="Leirbakkneset" />
		<tag k="natural" v="cape" />
		<tag k="ssr:stedsnr" v="533573" />
	</node>
	<node lat="70.07528611482884" lon="20.975705521785624" id="-66611">
		<tag k="name" v="Skjærtoga" />
		<tag k="place" v="locality" />
		<tag k="seamark:type" v="rock" />
		<tag k="ssr:stedsnr" v="534187" />
	</node>
	<node lat="70.11858333743841" lon="20.775072214020714" id="-66612">
		<tag k="name" v="Storsteinnesodden" />
		<tag k="natural" v="cape" />
		<tag k="ssr:stedsnr" v="534197" />
	</node>
	<node lat="70.19270833855235" lon="20.48524719605016" id="-66628">
		<tag k="name" v="Slåka" />
		<tag k="natural" v="bay" />
		<tag k="ssr:stedsnr" v="534299" />
	</node>
	<node lat="69.87099999964691" lon="20.69383054790238" id="-66630">
		<tag k="name" v="Blåbærvika" />
		<tag k="natural" v="bay" />
		<tag k="ssr:stedsnr" v="534330" />
	</node>
	<node lat="69.92077499782626" lon="20.672252763543497" id="-66632">
		<tag k="name" v="Sandbukta" />
		<tag k="natural" v="bay" />
		<tag k="ssr:stedsnr" v="534344" />
	</node>
	<node lat="69.91214722389198" lon="20.71817219644763" id="-66643">
		<tag k="name" v="Steinvollneset" />
		<tag k="natural" v="cape" />
		<tag k="ssr:stedsnr" v="534935" />
	</node>
	<node lat="69.97084166660815" lon="20.95198885397029" id="-66646">
		<tag k="name" v="Makkleira" />
		<tag k="natural" v="beach" />
		<tag k="ssr:stedsnr" v="535160" />
	</node>
	<node lat="69.94008333050773" lon="20.927791638599775" id="-66647">
		<tag k="name" v="Gammelflåten" />
		<tag k="natural" v="bay" />
		<tag k="ssr:stedsnr" v="535162" />
	</node>
	<node lat="70.07641389224749" lon="20.810024989407655" id="-66650">
		<tag k="name" v="Elvenes" />
		<tag k="natural" v="cape" />
		<tag k="ssr:stedsnr" v="564174" />
	</node>
	<node lat="70.0756638886197" lon="20.9805166416446" id="-66651">
		<tag k="name" v="Skjervøyskjæret" />
		<tag k="place" v="islet" />
		<tag k="ssr:stedsnr" v="564176" />
	</node>
	<node lat="70.0456388846115" lon="20.456013880475744" id="-66656">
		<tag k="name" v="Lillevika" />
		<tag k="natural" v="bay" />
		<tag k="ssr:stedsnr" v="564220" />
	</node>
	<node lat="69.95867222461398" lon="20.749991651976124" id="-66658">
		<tag k="alt_name" v="Sandnesodden" />
		<tag k="name" v="Storsandnesodden" />
		<tag k="natural" v="cape" />
		<tag k="ssr:stedsnr" v="564581" />
	</node>
	<node lat="70.10260833589743" lon="20.54674721431293" id="-66662">
		<tag k="name" v="Lille-Lyngnes" />
		<tag k="natural" v="cape" />
		<tag k="ssr:stedsnr" v="565035" />
	</node>
	<node lat="70.2143472200898" lon="20.79441941750296" id="-66666">
		<tag k="loc_name:se" v="Skuvtá" />
		<tag k="name" v="Skuta" />
		<tag k="name:no" v="Skuta" />
		<tag k="natural" v="cape" />
		<tag k="ssr:stedsnr" v="565089" />
	</node>
	<node lat="70.05948888825044" lon="20.396277764900447" id="-66667">
		<tag k="name" v="Nakken" />
		<tag k="natural" v="cape" />
		<tag k="ssr:stedsnr" v="565098" />
	</node>
	<node lat="69.98232500113659" lon="20.671494417830232" id="-66676">
		<tag k="name" v="Langnesgrunnen" />
		<tag k="natural" v="shoal" />
		<tag k="place" v="locality" />
		<tag k="ssr:stedsnr" v="565619" />
	</node>
	<node lat="69.99147777620915" lon="20.6325416418805" id="-66677">
		<tag k="name" v="Skagodden" />
		<tag k="natural" v="cape" />
		<tag k="ssr:stedsnr" v="565660" />
	</node>
	<node lat="69.99799722368613" lon="20.901888879707254" id="-66678">
		<tag k="name" v="Storbukta" />
		<tag k="natural" v="bay" />
		<tag k="ssr:stedsnr" v="565662" />
	</node>
	<node lat="69.99051944363657" lon="20.526502747491637" id="-66682">
		<tag k="name" v="Klakken" />
		<tag k="natural" v="shoal" />
		<tag k="ssr:stedsnr" v="570745" />
	</node>
	<node lat="70.05105000031406" lon="20.49791942300364" id="-66685">
		<tag k="fixme" v="multiple name tags, choose one and add the other to alt_name" />
		<tag k="name" v="Akkarfjordneset;Neset" />
		<tag k="natural" v="cape" />
		<tag k="ssr:stedsnr" v="570945" />
	</node>
	<node lat="70.06106666756112" lon="20.638616656595158" id="-66686">
		<tag k="name" v="Sikbukta" />
		<tag k="natural" v="bay" />
		<tag k="ssr:stedsnr" v="570982" />
	</node>
	<node lat="70.0653166634787" lon="21.22495830351832" id="-66691">
		<tag k="name" v="Haukøyfallan" />
		<tag k="natural" v="shoal" />
		<tag k="place" v="locality" />
		<tag k="ssr:stedsnr" v="575623" />
	</node>
	<node lat="70.05796944097104" lon="21.01749720959677" id="-66692">
		<tag k="name" v="Villomen" />
		<tag k="natural" v="shoal" />
		<tag k="place" v="locality" />
		<tag k="ssr:stedsnr" v="575715" />
	</node>
	<node lat="69.92613610961712" lon="20.69051942174674" id="-66693">
		<tag k="fixme" v="consider seamark:type=rock or natural=shoal" />
		<tag k="name" v="Svartskjæret" />
		<tag k="place" v="islet" />
		<tag k="ssr:stedsnr" v="583773" />
	</node>
	<node lat="70.00334444938969" lon="21.054474967179555" id="-66695">
		<tag k="name" v="Lille Taskebynesgrunnen" />
		<tag k="natural" v="shoal" />
		<tag k="place" v="locality" />
		<tag k="ssr:stedsnr" v="591899" />
	</node>
	<node lat="69.99918333162307" lon="20.986430532730797" id="-66696">
		<tag k="name" v="Enesbuktan" />
		<tag k="natural" v="bay" />
		<tag k="ssr:stedsnr" v="591995" />
	</node>
	<node lat="70.18335277903013" lon="20.805711100314088" id="-66702">
		<tag k="name" v="Flua" />
		<tag k="natural" v="cape" />
		<tag k="ssr:stedsnr" v="594231" />
	</node>
	<node lat="70.17606944910959" lon="20.797563862516686" id="-66703">
		<tag k="name" v="Hønsa" />
		<tag k="natural" v="cape" />
		<tag k="ssr:stedsnr" v="594236" />
	</node>
	<node lat="70.16693888629808" lon="20.40525831159508" id="-66704">
		<tag k="name" v="Buktan" />
		<tag k="natural" v="bay" />
		<tag k="ssr:stedsnr" v="594177" />
	</node>
	<node lat="69.99857499640429" lon="21.049849977057352" id="-66706">
		<tag k="name" v="Skjellbukta" />
		<tag k="natural" v="bay" />
		<tag k="ssr:stedsnr" v="594199" />
	</node>
	<node lat="70.21689722176141" lon="20.52546666296448" id="-66708">
		<tag k="name" v="Mednova" />
		<tag k="natural" v="cape" />
		<tag k="ssr:stedsnr" v="594288" />
	</node>
	<node lat="69.9992333323597" lon="21.034711096327737" id="-66709">
		<tag k="name" v="Havnering" />
		<tag k="natural" v="bay" />
		<tag k="ssr:stedsnr" v="594375" />
	</node>
	<node lat="70.05659444320496" lon="20.410227748496013" id="-66721">
		<tag k="name" v="Molla" />
		<tag k="natural" v="beach" />
		<tag k="ssr:stedsnr" v="594876" />
	</node>
	<node lat="70.00967222448584" lon="20.917361090932644" id="-66726">
		<tag k="name" v="Vuoksámalo" />
		<tag k="name:se" v="Vuoksámalo" />
		<tag k="natural" v="cape" />
		<tag k="ssr:stedsnr" v="595271" />
	</node>
	<node lat="69.93658888886239" lon="20.915166649238127" id="-66727">
		<tag k="name" v="Kågelvøra" />
		<tag k="natural" v="beach" />
		<tag k="ssr:stedsnr" v="595281" />
	</node>
	<node lat="69.94742222455302" lon="20.6749971977237" id="-66729">
		<tag k="name" v="Lillebjørnvikneset" />
		<tag k="natural" v="cape" />
		<tag k="ssr:stedsnr" v="595544" />
	</node>
	<node lat="70.22595555218237" lon="20.761602754356407" id="-66734">
		<tag k="name" v="Klubbekråa" />
		<tag k="natural" v="bay" />
		<tag k="ssr:stedsnr" v="625099" />
	</node>
	<node lat="70.06498611095721" lon="20.50402220703727" id="-66736">
		<tag k="loc_name:se" v="Áhkarvuotna" />
		<tag k="name" v="Akkarvika" />
		<tag k="name:no" v="Akkarvika" />
		<tag k="natural" v="bay" />
		<tag k="ssr:stedsnr" v="625194" />
	</node>
	<node lat="70.00122500397796" lon="20.98166109681802" id="-66737">
		<tag k="alt_name" v="Æneset" />
		<tag k="name" v="Eneset" />
		<tag k="natural" v="cape" />
		<tag k="ssr:stedsnr" v="625139" />
	</node>
	<node lat="70.03744166940952" lon="20.791983309888867" id="-66739">
		<tag k="loc_name:se" v="Várnjárga" />
		<tag k="name" v="Vittnes" />
		<tag k="name:no" v="Vittnes" />
		<tag k="natural" v="cape" />
		<tag k="ssr:stedsnr" v="625219" />
	</node>
	<node lat="70.03555000418089" lon="20.644674992540338" id="-66740">
		<tag k="name" v="Grunnfjordgrunnen" />
		<tag k="natural" v="shoal" />
		<tag k="place" v="locality" />
		<tag k="ssr:stedsnr" v="625221" />
	</node>
	<node lat="70.06323333630534" lon="20.52193331936642" id="-66743">
		<tag k="alt_name" v="Kjerknesodden" />
		<tag k="name" v="Kjerkenesodden" />
		<tag k="natural" v="cape" />
		<tag k="ssr:stedsnr" v="625249" />
	</node>
	<node lat="69.97303333879798" lon="20.75276386389927" id="-66745">
		<tag k="alt_name" v="Reddoneset" />
		<tag k="name" v="Redoneset" />
		<tag k="natural" v="cape" />
		<tag k="ssr:stedsnr" v="625580" />
	</node>
	<node lat="69.86193611024619" lon="20.61643330455511" id="-66753">
		<tag k="name" v="Uløya - Ulisuolu" />
		<tag k="name:no" v="Uløya" />
		<tag k="name:se" v="Ulisuolu" />
		<tag k="old_name:no" v="Uløy" />
		<tag k="place" v="island" />
		<tag k="ssr:stedsnr" v="626536" />
	</node>
	<node lat="69.90066111107821" lon="20.57121664227247" id="-66754">
		<tag k="alt_name" v="Rakkenesbukta, yt" />
		<tag k="name" v="Ytre Rakkenesbukta" />
		<tag k="natural" v="bay" />
		<tag k="ssr:stedsnr" v="626565" />
	</node>
	<node lat="69.91249722715834" lon="20.594072196573855" id="-66756">
		<tag k="name" v="Holten" />
		<tag k="natural" v="shoal" />
		<tag k="place" v="locality" />
		<tag k="ssr:stedsnr" v="626572" />
	</node>
	<node lat="69.91216111026024" lon="20.676297208427034" id="-66757">
		<tag k="name" v="Kavringen" />
		<tag k="place" v="islet" />
		<tag k="ssr:stedsnr" v="626579" />
	</node>
	<node lat="69.90498889166827" lon="20.68011387065602" id="-66758">
		<tag k="name" v="Værvika" />
		<tag k="natural" v="bay" />
		<tag k="ssr:stedsnr" v="626590" />
	</node>
	<node lat="69.89100000442907" lon="20.73476942427007" id="-66759">
		<tag k="alt_name" v="Kasmemargrunnen" />
		<tag k="name" v="Kaspermarkgrunnen" />
		<tag k="natural" v="shoal" />
		<tag k="place" v="locality" />
		<tag k="ssr:stedsnr" v="626595" />
	</node>
	<node lat="70.01868610842108" lon="21.08019441439654" id="-66760">
		<tag k="name" v="Hakkstein - Árasgeađgi" />
		<tag k="name:no" v="Hakkstein" />
		<tag k="name:se" v="Árasgeađgi" />
		<tag k="old_name:se" v="Arasgæđgi" />
		<tag k="place" v="island" />
		<tag k="ssr:stedsnr" v="625349" />
	</node>
	<node lat="70.02343055156398" lon="20.724063877957434" id="-66762">
		<tag k="name" v="Sommarsetneset" />
		<tag k="natural" v="cape" />
		<tag k="ssr:stedsnr" v="631148" />
	</node>
	<node lat="70.03943889064212" lon="20.704838876899586" id="-66764">
		<tag k="name" v="Elvegrunnen" />
		<tag k="natural" v="shoal" />
		<tag k="place" v="locality" />
		<tag k="ssr:stedsnr" v="631978" />
	</node>
	<node lat="70.06941667093436" lon="20.37548055127429" id="-66765">
		<tag k="alt_name" v="Tågå" />
		<tag k="name" v="Sotnestågå" />
		<tag k="natural" v="beach" />
		<tag k="ssr:stedsnr" v="631891" />
	</node>
	<node lat="70.07833333296298" lon="20.371058321265988" id="-66766">
		<tag k="name" v="Rødmannsneset" />
		<tag k="natural" v="cape" />
		<tag k="ssr:stedsnr" v="631893" />
	</node>
	<node lat="70.0812833306844" lon="20.36878610570465" id="-66767">
		<tag k="name" v="Rødmannsbukta" />
		<tag k="natural" v="bay" />
		<tag k="ssr:stedsnr" v="631895" />
	</node>
	<node lat="70.2554527812248" lon="20.752330529873007" id="-66770">
		<tag k="name" v="Laukgrunnen" />
		<tag k="natural" v="shoal" />
		<tag k="place" v="locality" />
		<tag k="ssr:stedsnr" v="636217" />
	</node>
	<node lat="69.98915000366677" lon="21.054383320948542" id="-66773">
		<tag k="name" v="Sæterbukta" />
		<tag k="natural" v="bay" />
		<tag k="ssr:stedsnr" v="656195" />
	</node>
	<node lat="70.04441944539184" lon="21.198188861374952" id="-66774">
		<tag k="name" v="Molla" />
		<tag k="natural" v="bay" />
		<tag k="ssr:stedsnr" v="656196" />
	</node>
	<node lat="70.05314722602526" lon="20.420174974365658" id="-66778">
		<tag k="name" v="Revneset" />
		<tag k="natural" v="cape" />
		<tag k="ssr:stedsnr" v="655920" />
	</node>
	<node lat="70.09286111396159" lon="20.752744413959572" id="-66781">
		<tag k="name" v="Hamnebukta" />
		<tag k="natural" v="bay" />
		<tag k="ssr:stedsnr" v="655011" />
	</node>
	<node lat="70.02502499818318" lon="20.859569408743646" id="-66783">
		<tag k="name" v="Skavnesbukta" />
		<tag k="natural" v="bay" />
		<tag k="ssr:stedsnr" v="655024" />
	</node>
	<node lat="70.03133055591339" lon="20.944666634302607" id="-66787">
		<tag k="name" v="Finneidneset" />
		<tag k="natural" v="cape" />
		<tag k="ssr:stedsnr" v="655164" />
	</node>
	<node lat="70.12059167103868" lon="20.890594435824205" id="-66789">
		<tag k="name" v="Ytre Kveitvikneset" />
		<tag k="natural" v="cape" />
		<tag k="ssr:stedsnr" v="655211" />
	</node>
	<node lat="69.99896389396308" lon="20.968563857711718" id="-66797">
		<tag k="fixme" v="consider seamark:type=rock or natural=shoal" />
		<tag k="name" v="Kobbeskjæret" />
		<tag k="place" v="islet" />
		<tag k="ssr:stedsnr" v="655338" />
	</node>
	<node lat="69.85399722305928" lon="20.699022213305195" id="-66798">
		<tag k="name" v="Kabelbukta" />
		<tag k="natural" v="bay" />
		<tag k="ssr:stedsnr" v="655339" />
	</node>
	<node lat="69.91962500497188" lon="20.680255525891763" id="-66800">
		<tag k="name" v="Sandbukta" />
		<tag k="natural" v="bay" />
		<tag k="ssr:stedsnr" v="655349" />
	</node>
	<node lat="70.04043611365816" lon="20.62291109965193" id="-66807">
		<tag k="name" v="Stakeneset" />
		<tag k="natural" v="cape" />
		<tag k="ssr:stedsnr" v="655659" />
	</node>
	<node lat="69.92452778034666" lon="20.819102770892247" id="-66816">
		<tag k="fixme" v="consider seamark:type=rock or natural=shoal" />
		<tag k="name" v="Novesteinan" />
		<tag k="place" v="islet" />
		<tag k="ssr:stedsnr" v="655874" />
	</node>
	<node lat="70.05579722621192" lon="20.41342775669935" id="-66817">
		<tag k="fixme" v="consider seamark:type=rock or natural=shoal" />
		<tag k="name" v="Storsteinan" />
		<tag k="place" v="islet" />
		<tag k="ssr:stedsnr" v="655879" />
	</node>
	<node lat="70.10935832989418" lon="20.375674987488214" id="-66819">
		<tag k="name" v="Breiskarmolla" />
		<tag k="natural" v="bay" />
		<tag k="ssr:stedsnr" v="655958" />
	</node>
	<node lat="70.04000278002533" lon="21.008780534203822" id="-66829">
		<tag k="name" v="Klipa" />
		<tag k="natural" v="bay" />
		<tag k="ssr:stedsnr" v="716151" />
	</node>
	<node lat="70.18071388813006" lon="20.802988872488356" id="-66833">
		<tag k="fixme" v="consider seamark:type=rock or natural=shoal" />
		<tag k="name" v="Bjørnan" />
		<tag k="place" v="islet" />
		<tag k="ssr:stedsnr" v="716243" />
	</node>
	<node lat="70.17706667001568" lon="20.799008320674204" id="-66834">
		<tag k="fixme" v="consider seamark:type=rock or natural=shoal" />
		<tag k="name" v="Teppsteinan" />
		<tag k="place" v="islet" />
		<tag k="ssr:stedsnr" v="716244" />
	</node>
	<node lat="70.000480556204" lon="20.976316644528808" id="-66836">
		<tag k="name" v="Kvalhollet" />
		<tag k="natural" v="bay" />
		<tag k="ssr:stedsnr" v="716344" />
	</node>
	<node lat="70.01721388656081" lon="20.915677755497548" id="-66838">
		<tag k="name" v="Basvallo" />
		<tag k="natural" v="cape" />
		<tag k="ssr:stedsnr" v="716182" />
	</node>
	<node lat="70.08773889392705" lon="20.370747204066404" id="-66858">
		<tag k="name" v="Skarvesteinbukta" />
		<tag k="natural" v="bay" />
		<tag k="ssr:stedsnr" v="747068" />
	</node>
	<node lat="70.22920555783043" lon="20.57098332569788" id="-66859">
		<tag k="fixme" v="consider seamark:type=rock or natural=shoal" />
		<tag k="name" v="Rotvågskjæret" />
		<tag k="place" v="islet" />
		<tag k="ssr:stedsnr" v="747072" />
	</node>
	<node lat="70.07955555623035" lon="20.547249983157332" id="-66868">
		<tag k="name" v="Sandneset" />
		<tag k="natural" v="cape" />
		<tag k="ssr:stedsnr" v="747196" />
	</node>
	<node lat="70.06072222346599" lon="20.97687776069407" id="-66872">
		<tag k="loc_name:se" v="Mortováhki" />
		<tag k="name" v="Mortevågen" />
		<tag k="name:no" v="Mortevågen" />
		<tag k="natural" v="bay" />
		<tag k="ssr:stedsnr" v="747229" />
	</node>
	<node lat="70.06093333487951" lon="20.99464718923296" id="-66873">
		<tag k="name" v="Engnesodden" />
		<tag k="natural" v="cape" />
		<tag k="ssr:stedsnr" v="747236" />
	</node>
	<node lat="69.91222499697675" lon="20.69512775357128" id="-66874">
		<tag k="name" v="Bysundet - Báŋalnuorri" />
		<tag k="name:no" v="Bysundet" />
		<tag k="name:se" v="Báŋalnuorri" />
		<tag k="natural" v="strait" />
		<tag k="old_name:se" v="Bánalnuorri" />
		<tag k="ssr:stedsnr" v="747532" />
	</node>
	<node lat="69.93086944356061" lon="20.796149975310744" id="-66878">
		<tag k="name" v="Novneset" />
		<tag k="natural" v="cape" />
		<tag k="ssr:stedsnr" v="747581" />
	</node>
	<node lat="69.97854444451279" lon="20.65922775786312" id="-66879">
		<tag k="alt_name" v="Langnes" />
		<tag k="name" v="Langnesodden" />
		<tag k="natural" v="cape" />
		<tag k="ssr:stedsnr" v="747586" />
	</node>
	<node lat="69.94412222443327" lon="20.6705277486895" id="-66884">
		<tag k="name" v="Bjørnvika" />
		<tag k="natural" v="bay" />
		<tag k="ssr:stedsnr" v="747556" />
	</node>
	<node lat="69.99380000012916" lon="20.937116632652085" id="-66885">
		<tag k="alt_name" v="Kobbepollen" />
		<tag k="name" v="Kobbpollen" />
		<tag k="natural" v="bay" />
		<tag k="ssr:stedsnr" v="747654" />
	</node>
	<node lat="70.19836944619773" lon="20.47639720042124" id="-66887">
		<tag k="name" v="Spenntaren" />
		<tag k="natural" v="shoal" />
		<tag k="place" v="locality" />
		<tag k="ssr:stedsnr" v="752339" />
	</node>
	<node lat="69.92166111004695" lon="20.66124997338564" id="-66889">
		<tag k="name" v="Galjeneset" />
		<tag k="natural" v="cape" />
		<tag k="ssr:stedsnr" v="752728" />
	</node>
	<node lat="70.03544722277859" lon="20.777488880786457" id="-66891">
		<tag k="name" v="Søre Vittnesbukta" />
		<tag k="natural" v="bay" />
		<tag k="ssr:stedsnr" v="753135" />
	</node>
	<node lat="70.07146944338062" lon="21.20252218985338" id="-66892">
		<tag k="name" v="Langgrunnen" />
		<tag k="natural" v="shoal" />
		<tag k="place" v="locality" />
		<tag k="ssr:stedsnr" v="757626" />
	</node>
	<node lat="70.06104166456544" lon="21.2371277576385" id="-66893">
		<tag k="name" v="Øverfallet" />
		<tag k="place" v="locality" />
		<tag k="seamark:type" v="rock" />
		<tag k="ssr:stedsnr" v="757627" />
	</node>
	<node lat="70.07612777840329" lon="20.96949998929492" id="-66894">
		<tag k="name" v="Tåga" />
		<tag k="natural" v="shoal" />
		<tag k="place" v="locality" />
		<tag k="ssr:stedsnr" v="757701" />
	</node>
	<node lat="70.11505277935609" lon="20.77086943218997" id="-66895">
		<tag k="name" v="Sandnesodden" />
		<tag k="natural" v="cape" />
		<tag k="ssr:stedsnr" v="757801" />
	</node>
	<node lat="70.10548055282385" lon="20.77405554626203" id="-66896">
		<tag k="name" v="Gjeskeodden" />
		<tag k="natural" v="cape" />
		<tag k="ssr:stedsnr" v="757816" />
	</node>
	<node lat="69.92429722234348" lon="20.665774984919615" id="-66898">
		<tag k="name" v="Mortohallo" />
		<tag k="natural" v="bay" />
		<tag k="ssr:stedsnr" v="765769" />
	</node>
	<node lat="70.03627222076835" lon="20.995408297219324" id="-66899">
		<tag k="fixme" v="multiple name tags, choose one and add the other to alt_name" />
		<tag k="name" v="Fiskeneset;Fiskenesodden" />
		<tag k="natural" v="cape" />
		<tag k="ssr:stedsnr" v="773993" />
	</node>
	<node lat="70.01654444791329" lon="20.996302751171065" id="-66900">
		<tag k="name" v="Hollendarvikgrunnen" />
		<tag k="natural" v="shoal" />
		<tag k="place" v="locality" />
		<tag k="ssr:stedsnr" v="774992" />
	</node>
	<node lat="69.9270944479052" lon="20.67969721045848" id="-66901">
		<tag k="name" v="Anehallo" />
		<tag k="natural" v="bay" />
		<tag k="ssr:stedsnr" v="776337" />
	</node>
	<node lat="70.09306944107854" lon="20.375005543803425" id="-66905">
		<tag k="name" v="Innerurneset" />
		<tag k="natural" v="cape" />
		<tag k="ssr:stedsnr" v="776967" />
	</node>
	<node lat="70.04986111300653" lon="20.964941635742075" id="-66912">
		<tag k="name" v="Brygga" />
		<tag k="natural" v="cape" />
		<tag k="ssr:stedsnr" v="777813" />
	</node>
	<node lat="69.98291666753579" lon="21.014841635379415" id="-66916">
		<tag k="fixme" v="consider seamark:type=rock or natural=shoal" />
		<tag k="name" v="Rødsteinen" />
		<tag k="place" v="islet" />
		<tag k="ssr:stedsnr" v="777823" />
	</node>
	<node lat="70.0328083347726" lon="20.572013878611354" id="-66922">
		<tag k="name" v="Bukta" />
		<tag k="natural" v="bay" />
		<tag k="ssr:stedsnr" v="777840" />
	</node>
	<node lat="69.96235555930924" lon="20.621049995767432" id="-66935">
		<tag k="name" v="Djupdalsneset" />
		<tag k="natural" v="cape" />
		<tag k="ssr:stedsnr" v="777599" />
	</node>
	<node lat="70.04585833152359" lon="20.451516656859567" id="-66939">
		<tag k="name" v="Molltjønna" />
		<tag k="natural" v="bay" />
		<tag k="ssr:stedsnr" v="777855" />
	</node>
	<node lat="69.92784444736283" lon="20.86693054623616" id="-66941">
		<tag k="name" v="Vollneset" />
		<tag k="natural" v="cape" />
		<tag k="ssr:stedsnr" v="777860" />
	</node>
	<node lat="70.15890833412499" lon="20.838524976528554" id="-66947">
		<tag k="name" v="Hellnesgrunnen" />
		<tag k="natural" v="shoal" />
		<tag k="place" v="locality" />
		<tag k="ssr:stedsnr" v="808008" />
	</node>
	<node lat="69.9609500046805" lon="20.64853330860513" id="-66953">
		<tag k="name" v="Vorterøya - Virtá" />
		<tag k="name:no" v="Vorterøya" />
		<tag k="name:se" v="Virtá" />
		<tag k="place" v="island" />
		<tag k="ssr:stedsnr" v="808606" />
	</node>
	<node lat="70.07135656719593" lon="20.37297704306451" id="-66954">
		<tag k="alt_name" v="Sotnes" />
		<tag k="name" v="Sotneset" />
		<tag k="natural" v="cape" />
		<tag k="ssr:stedsnr" v="808050" />
	</node>
	<node lat="70.07982222360725" lon="20.324963867078505" id="-66955">
		<tag k="name" v="Sotnesskallen" />
		<tag k="natural" v="shoal" />
		<tag k="ssr:stedsnr" v="808051" />
	</node>
	<node lat="70.0822055546441" lon="20.347611094809015" id="-66956">
		<tag k="name" v="Sotnesbåen" />
		<tag k="natural" v="shoal" />
		<tag k="place" v="locality" />
		<tag k="ssr:stedsnr" v="808075" />
	</node>
	<node lat="70.21970555151283" lon="20.7665999835481" id="-66957">
		<tag k="loc_name:se" v="Várreluokta" />
		<tag k="name" v="Moldforvika" />
		<tag k="name:no" v="Moldforvika" />
		<tag k="natural" v="bay" />
		<tag k="ssr:stedsnr" v="808083" />
	</node>
	<node lat="70.1957805604319" lon="20.503286094365805" id="-66958">
		<tag k="name" v="Årvikbukta" />
		<tag k="natural" v="bay" />
		<tag k="ssr:stedsnr" v="808092" />
	</node>
	<node lat="70.24516110868758" lon="20.95015830698325" id="-66959">
		<tag k="name" v="Alketinden" />
		<tag k="natural" v="shoal" />
		<tag k="place" v="locality" />
		<tag k="ssr:stedsnr" v="808102" />
	</node>
	<node lat="70.09568611231781" lon="20.758474989466716" id="-66964">
		<tag k="loc_name:se" v="Lovsnuorri" />
		<tag k="name" v="Lauksundet" />
		<tag k="name:no" v="Lauksundet" />
		<tag k="natural" v="strait" />
		<tag k="ssr:stedsnr" v="808184" />
	</node>
	<node lat="70.06173055802307" lon="20.642258328787992" id="-66967">
		<tag k="name" v="Sjøvollan" />
		<tag k="natural" v="beach" />
		<tag k="ssr:stedsnr" v="808224" />
	</node>
	<node lat="70.03275556132125" lon="21.21028607478866" id="-66969">
		<tag k="name" v="Bjørnvika" />
		<tag k="natural" v="bay" />
		<tag k="ssr:stedsnr" v="808321" />
	</node>
	<node lat="69.74616110889669" lon="22.088297185498178" id="-66970">
		<tag k="bay" v="fjord" />
		<tag k="name" v="Kvænangen - Návuonna" />
		<tag k="name:no" v="Kvænangen" />
		<tag k="name:se" v="Návuonna" />
		<tag k="natural" v="bay" />
		<tag k="old_name:se" v="Navuotna;Navuodna" />
		<tag k="ssr:stedsnr" v="808281" />
	</node>
	<node lat="70.44176111481191" lon="21.133344427653814" id="-66971">
		<tag k="alt_name" v="Loppahavet" />
		<tag k="name" v="Lopphavet" />
		<tag k="natural" v="bay" />
		<tag k="ssr:stedsnr" v="808359" />
	</node>
	<node lat="69.94937222285795" lon="20.950108300236355" id="-66975">
		<tag k="name" v="Skredneset" />
		<tag k="natural" v="cape" />
		<tag k="ssr:stedsnr" v="808559" />
	</node>
	<node lat="69.92026111623095" lon="20.675574976074426" id="-66976">
		<tag k="alt_name" v="Follesøyklipa" />
		<tag k="name" v="Klipa" />
		<tag k="natural" v="strait" />
		<tag k="ssr:stedsnr" v="808573" />
	</node>
	<node lat="69.98198333471805" lon="21.003397189258813" id="-66979">
		<tag k="name" v="Værneset" />
		<tag k="natural" v="cape" />
		<tag k="ssr:stedsnr" v="808612" />
	</node>
	<node lat="70.06344444222864" lon="20.736644413799038" id="-66982">
		<tag k="name" v="Arnøya - Árdni" />
		<tag k="name:no" v="Arnøya" />
		<tag k="name:se" v="Árdni" />
		<tag k="old_name:no" v="Arnøy" />
		<tag k="place" v="island" />
		<tag k="ssr:stedsnr" v="808909" />
	</node>
	<node lat="70.24166666285616" lon="20.391666659119682" id="-66984">
		<tag k="loc_name:se" v="Hovlenuorri" />
		<tag k="name" v="Fugløysundet" />
		<tag k="name:no" v="Fugløysundet" />
		<tag k="natural" v="bay" />
		<tag k="ssr:stedsnr" v="808949" />
	</node>
	<node lat="70.13458888953924" lon="20.362522213667358" id="-66986">
		<tag k="name" v="Rekvikklakken" />
		<tag k="natural" v="shoal" />
		<tag k="place" v="locality" />
		<tag k="ssr:stedsnr" v="813358" />
	</node>
	<node lat="70.19294722154551" lon="20.429661099451604" id="-66987">
		<tag k="name" v="Steinskallen" />
		<tag k="natural" v="shoal" />
		<tag k="place" v="locality" />
		<tag k="ssr:stedsnr" v="813318" />
	</node>
	<node lat="69.99243610796863" lon="20.61937776728593" id="-66989">
		<tag k="name" v="Skagegrunnen" />
		<tag k="natural" v="shoal" />
		<tag k="place" v="locality" />
		<tag k="ssr:stedsnr" v="813757" />
	</node>
	<node lat="70.06053610817982" lon="20.647219431157847" id="-66990">
		<tag k="name" v="Røynesbukta" />
		<tag k="natural" v="bay" />
		<tag k="ssr:stedsnr" v="813997" />
	</node>
	<node lat="70.06037777813644" lon="20.494961092036522" id="-66991">
		<tag k="name" v="Transportneset" />
		<tag k="natural" v="cape" />
		<tag k="ssr:stedsnr" v="814228" />
	</node>
	<node lat="70.02891667015334" lon="20.97059164098367" id="-66992">
		<tag k="name" v="Vågen" />
		<tag k="natural" v="bay" />
		<tag k="ssr:stedsnr" v="818658" />
	</node>
	<node lat="70.08152777683938" lon="20.902399990090892" id="-66993">
		<tag k="name" v="Kvalbukta" />
		<tag k="natural" v="bay" />
		<tag k="ssr:stedsnr" v="818834" />
	</node>
	<node lat="70.17539166762879" lon="20.41159444100474" id="-66999">
		<tag k="alt_name" v="Sjåvikskjæret" />
		<tag k="fixme" v="consider seamark:type=rock or natural=shoal" />
		<tag k="name" v="Skjåvikskjæret" />
		<tag k="place" v="islet" />
		<tag k="ssr:stedsnr" v="837159" />
	</node>
	<node lat="69.8702555551169" lon="20.693347189575416" id="-67000">
		<tag k="name" v="Friarvika" />
		<tag k="natural" v="bay" />
		<tag k="ssr:stedsnr" v="837338" />
	</node>
	<node lat="69.91651666496153" lon="20.677013862722557" id="-67002">
		<tag k="name" v="Gaskamohkki" />
		<tag k="name:se" v="Gaskamohkki" />
		<tag k="natural" v="bay" />
		<tag k="ssr:stedsnr" v="837366" />
	</node>
	<node lat="70.00607222277922" lon="21.04349998073868" id="-67018">
		<tag k="name" v="Rundhaugsundet" />
		<tag k="natural" v="strait" />
		<tag k="ssr:stedsnr" v="838364" />
	</node>
	<node lat="69.97749166491418" lon="20.9840110908399" id="-67027">
		<tag k="name" v="Lillesandvika" />
		<tag k="natural" v="bay" />
		<tag k="ssr:stedsnr" v="838870" />
	</node>
	<node lat="70.02932222459253" lon="20.978277744959986" id="-67034">
		<tag k="name" v="Dokka" />
		<tag k="natural" v="beach" />
		<tag k="ssr:stedsnr" v="839368" />
	</node>
	<node lat="69.96858889442537" lon="20.95560830175472" id="-67040">
		<tag k="alt_name" v="Kobbpollen, l;Lille-Kobbepollen" />
		<tag k="name" v="Lille Kobbpollen" />
		<tag k="natural" v="bay" />
		<tag k="ssr:stedsnr" v="868569" />
	</node>
	<node lat="69.99850555765912" lon="21.038783322991286" id="-67041">
		<tag k="name" v="Taskebyvågen" />
		<tag k="natural" v="bay" />
		<tag k="ssr:stedsnr" v="868864" />
	</node>
	<node lat="70.23145277586264" lon="20.611497193835234" id="-67050">
		<tag k="name" v="Makeiltangen" />
		<tag k="natural" v="cape" />
		<tag k="ssr:stedsnr" v="869130" />
	</node>
	<node lat="70.04638333487154" lon="20.797502758899874" id="-67054">
		<tag k="loc_name:se" v="Dusnuorri" />
		<tag k="name" v="Kågsundet" />
		<tag k="name:no" v="Kågsundet" />
		<tag k="natural" v="strait" />
		<tag k="ssr:stedsnr" v="869243" />
	</node>
	<node lat="69.92477777415178" lon="20.875691650183747" id="-67056">
		<tag k="name" v="Maursundet - Márnuorri" />
		<tag k="name:no" v="Maursundet" />
		<tag k="name:se" v="Márnuorri" />
		<tag k="natural" v="strait" />
		<tag k="ssr:stedsnr" v="869621" />
	</node>
	<node lat="69.98736944439976" lon="20.96701108218434" id="-67058">
		<tag k="name" v="Kvalbukta" />
		<tag k="natural" v="bay" />
		<tag k="ssr:stedsnr" v="869641" />
	</node>
	<node lat="70.08850555346697" lon="20.557816644649584" id="-67062">
		<tag k="name" v="Sommarsetneset" />
		<tag k="natural" v="cape" />
		<tag k="ssr:stedsnr" v="874197" />
	</node>
	<node lat="70.19068055649976" lon="20.342347210769557" id="-67063">
		<tag k="name" v="Elvestø" />
		<tag k="natural" v="shoal" />
		<tag k="place" v="locality" />
		<tag k="ssr:stedsnr" v="874372" />
	</node>
	<node lat="69.97429721837685" lon="20.665655539690405" id="-67064">
		<tag k="name" v="Jekthamna" />
		<tag k="natural" v="bay" />
		<tag k="ssr:stedsnr" v="874770" />
	</node>
	<node lat="70.24731944020516" lon="20.473277769582175" id="-67065">
		<tag k="name" v="Rovet" />
		<tag k="natural" v="shoal" />
		<tag k="place" v="locality" />
		<tag k="ssr:stedsnr" v="874490" />
	</node>
	<node lat="70.23283333463249" lon="20.479119433223683" id="-67066">
		<tag k="name" v="Øverstø" />
		<tag k="natural" v="shoal" />
		<tag k="place" v="locality" />
		<tag k="ssr:stedsnr" v="874497" />
	</node>
	<node lat="70.060094447494" lon="20.64606942092849" id="-67067">
		<tag k="name" v="Røynes" />
		<tag k="natural" v="cape" />
		<tag k="ssr:stedsnr" v="874991" />
	</node>
	<node lat="70.05280556067305" lon="20.63298330936505" id="-67068">
		<tag k="name" v="Bjørnbuktneset" />
		<tag k="natural" v="cape" />
		<tag k="ssr:stedsnr" v="874993" />
	</node>
	<node lat="70.02954444282797" lon="20.985386098730974" id="-67069">
		<tag k="name" v="Kollagerneset" />
		<tag k="natural" v="cape" />
		<tag k="ssr:stedsnr" v="879618" />
	</node>
	<node lat="70.06836111058772" lon="21.236555530983434" id="-67070">
		<tag k="name" v="Borterfallet" />
		<tag k="place" v="locality" />
		<tag k="seamark:type" v="rock" />
		<tag k="ssr:stedsnr" v="879623" />
	</node>
	<node lat="69.92240833300072" lon="20.66301108337723" id="-67072">
		<tag k="name" v="Galjenesbukta" />
		<tag k="natural" v="bay" />
		<tag k="ssr:stedsnr" v="887770" />
	</node>
	<node lat="69.92583055615057" lon="20.691594418779356" id="-67073">
		<tag k="fixme" v="consider seamark:type=rock or natural=shoal" />
		<tag k="name" v="Eskjæret" />
		<tag k="place" v="islet" />
		<tag k="ssr:stedsnr" v="935755" />
	</node>
	<node lat="69.95273333734777" lon="20.507858322166836" id="-67074">
		<tag k="fixme" v="consider seamark:type=rock or natural=shoal" />
		<tag k="loc_name:se" v="Ivgolássis" />
		<tag k="name" v="Lyngsskjæret" />
		<tag k="name:no" v="Lyngsskjæret" />
		<tag k="place" v="islet" />
		<tag k="ssr:stedsnr" v="935757" />
	</node>
	<node lat="70.05410278118346" lon="20.414949986383466" id="-67077">
		<tag k="loc_name:se" v="Gáicamohkki" />
		<tag k="name" v="Geitvika" />
		<tag k="name:no" v="Geitvika" />
		<tag k="natural" v="bay" />
		<tag k="ssr:stedsnr" v="937772" />
	</node>
	<node lat="70.33514722599476" lon="20.790536082083086" id="-67078">
		<tag k="name" v="Evengrunnen" />
		<tag k="natural" v="shoal" />
		<tag k="place" v="locality" />
		<tag k="ssr:stedsnr" v="940244" />
	</node>
	<node lat="70.15842500438144" lon="20.806844420966264" id="-67079">
		<tag k="name" v="Småseigrunnen" />
		<tag k="natural" v="shoal" />
		<tag k="place" v="locality" />
		<tag k="ssr:stedsnr" v="940305" />
	</node>
	<node lat="70.15432777885138" lon="20.78413054473969" id="-67080">
		<tag k="name" v="Larsnes" />
		<tag k="natural" v="cape" />
		<tag k="ssr:stedsnr" v="940373" />
	</node>
	<node lat="70.02682777833604" lon="21.02140554494277" id="-67081">
		<tag k="name" v="Stussnesgrunnen" />
		<tag k="natural" v="shoal" />
		<tag k="place" v="locality" />
		<tag k="ssr:stedsnr" v="940627" />
	</node>
	<node lat="70.0223027758232" lon="20.864988858249" id="-67082">
		<tag k="name" v="Skarvneset" />
		<tag k="natural" v="cape" />
		<tag k="ssr:stedsnr" v="940827" />
	</node>
	<node lat="70.05117222538178" lon="21.02768053112989" id="-67083">
		<tag k="name" v="Prestberggrunnen" />
		<tag k="natural" v="shoal" />
		<tag k="place" v="locality" />
		<tag k="ssr:stedsnr" v="940744" />
	</node>
	<node lat="70.08738055964912" lon="21.032016644324493" id="-67084">
		<tag k="name" v="Klubbenesgrunnen" />
		<tag k="natural" v="shoal" />
		<tag k="place" v="locality" />
		<tag k="ssr:stedsnr" v="940714" />
	</node>
	<node lat="69.98414722635015" lon="20.742566655453352" id="-67085">
		<tag k="name" v="Bruttoneset" />
		<tag k="natural" v="cape" />
		<tag k="ssr:stedsnr" v="955841" />
	</node>
	<node lat="70.06778055725488" lon="20.490522209630125" id="-67086">
		<tag k="name" v="Kriken" />
		<tag k="natural" v="cape" />
		<tag k="ssr:stedsnr" v="958122" />
	</node>
	<node lat="69.91671389307278" lon="20.663547198849542" id="-67090">
		<tag k="name" v="Hellarbukta" />
		<tag k="natural" v="bay" />
		<tag k="ssr:stedsnr" v="958362" />
	</node>
	<node lat="70.0753749984377" lon="20.97888609207244" id="-67102">
		<tag k="name" v="Bukta" />
		<tag k="natural" v="bay" />
		<tag k="ssr:stedsnr" v="959161" />
	</node>
	<node lat="69.95507778099031" lon="20.9614666379235" id="-67106">
		<tag k="fixme" v="consider seamark:type=rock or natural=shoal" />
		<tag k="name" v="Klokkstein" />
		<tag k="place" v="islet" />
		<tag k="ssr:stedsnr" v="960139" />
	</node>
	<node lat="69.92902222352147" lon="20.874311100770175" id="-67115">
		<tag k="name" v="Hamna" />
		<tag k="natural" v="bay" />
		<tag k="ssr:stedsnr" v="959872" />
	</node>
</osm>
