<?xml version="1.0" encoding="UTF-8"?>
<osm version="0.6" generator="osmapis">
	<node lat="70.10140387299356" lon="20.746488962602214" id="-33597">
		<tag k="name" v="Vangen" />
		<tag k="place" v="farm" />
		<tag k="ssr:stedsnr" v="231219" />
	</node>
	<node lat="70.0549388930433" lon="20.650622216826253" id="-33602">
		<tag k="name" v="Grunnfjord" />
		<tag k="place" v="isolated_dwelling" />
		<tag k="ssr:stedsnr" v="231697" />
	</node>
	<node lat="70.03577309690785" lon="20.981430636467554" id="-33608">
		<tag k="name" v="Skjervøy" />
		<tag k="place" v="village" />
		<tag k="ssr:stedsnr" v="19142" />
	</node>
	<node lat="69.83101900437241" lon="20.732008123818026" id="-33621">
		<tag k="fixme" v="consider place=hamlet" />
		<tag k="loc_name:se" v="Seahttár" />
		<tag k="name" v="Sætra" />
		<tag k="name:no" v="Sætra" />
		<tag k="place" v="farm" />
		<tag k="ssr:stedsnr" v="19992" />
	</node>
	<node lat="70.0074455371377" lon="20.71522986839074" id="-33625">
		<tag k="alt_name" v="Kågneset" />
		<tag k="name" v="Kågen" />
		<tag k="place" v="locality" />
		<tag k="ssr:stedsnr" v="26713" />
	</node>
	<node lat="70.1436999999519" lon="20.813972210457916" id="-33626">
		<tag k="name" v="Nordstrand" />
		<tag k="place" v="isolated_dwelling" />
		<tag k="ssr:stedsnr" v="29307" />
	</node>
	<node lat="70.08973055124079" lon="20.757413875759216" id="-33633">
		<tag k="building" v="industrial" />
		<tag k="industrial" v="factory" />
		<tag k="name" v="Skarbruket" />
		<tag k="ssr:stedsnr" v="49002" />
	</node>
	<node lat="70.22653055181199" lon="20.585461090536583" id="-33652">
		<tag k="name" v="Rotvåg" />
		<tag k="place" v="locality" />
		<tag k="ssr:stedsnr" v="80092" />
	</node>
	<node lat="69.93261111255232" lon="20.889408320332368" id="-33696">
		<tag k="name" v="Nylund" />
		<tag k="place" v="isolated_dwelling" />
		<tag k="ssr:stedsnr" v="110323" />
	</node>
	<node lat="69.96743333085773" lon="20.755536082726454" id="-33713">
		<tag k="name" v="Solli" />
		<tag k="place" v="farm" />
		<tag k="ssr:stedsnr" v="140597" />
	</node>
	<node lat="70.11554166804501" lon="20.75305553623126" id="-33717">
		<tag k="name" v="Stykkenes" />
		<tag k="place" v="farm" />
		<tag k="ssr:stedsnr" v="150171" />
	</node>
	<node lat="69.96692221989368" lon="20.680130533157524" id="-33719">
		<tag k="name" v="Gammelsandnes" />
		<tag k="place" v="locality" />
		<tag k="ssr:stedsnr" v="165866" />
	</node>
	<node lat="70.11563333176687" lon="20.749363862546822" id="-33724">
		<tag k="name" v="Nyvoll" />
		<tag k="place" v="isolated_dwelling" />
		<tag k="ssr:stedsnr" v="170210" />
	</node>
	<node lat="69.96578055786823" lon="20.75341110145107" id="-33742">
		<tag k="name" v="Storsandnes" />
		<tag k="place" v="locality" />
		<tag k="ssr:stedsnr" v="170907" />
	</node>
	<node lat="69.9787805528932" lon="20.632738863582816" id="-33747">
		<tag k="name" v="Soleng" />
		<tag k="place" v="farm" />
		<tag k="ssr:stedsnr" v="261592" />
	</node>
	<node lat="70.05802222112926" lon="20.650694427108682" id="-33755">
		<tag k="name" v="Solbakke" />
		<tag k="place" v="farm" />
		<tag k="ssr:stedsnr" v="262232" />
	</node>
	<node lat="69.98331666787028" lon="20.649699980449984" id="-33757">
		<tag k="name" v="Nystrand" />
		<tag k="place" v="farm" />
		<tag k="ssr:stedsnr" v="262615" />
	</node>
	<node lat="70.0341537834849" lon="20.569146821066557" id="-33763">
		<tag k="name" v="Nergård" />
		<tag k="place" v="farm" />
		<tag k="ssr:stedsnr" v="267141" />
	</node>
	<node lat="70.13192777546102" lon="20.75748888098902" id="-33764">
		<tag k="name" v="Laukeng" />
		<tag k="place" v="farm" />
		<tag k="ssr:stedsnr" v="201048" />
	</node>
	<node lat="70.09498055564238" lon="20.748508322097535" id="-33770">
		<tag k="alt_name" v="Nystad" />
		<tag k="name" v="Nysted" />
		<tag k="place" v="isolated_dwelling" />
		<tag k="ssr:stedsnr" v="201194" />
	</node>
	<node lat="70.05325833615959" lon="20.651408308409955" id="-33798">
		<tag k="name" v="Heimen" />
		<tag k="place" v="farm" />
		<tag k="ssr:stedsnr" v="450155" />
	</node>
	<node lat="70.14535603664729" lon="20.773021845111064" id="-33809">
		<tag k="name" v="Nygård" />
		<tag k="place" v="farm" />
		<tag k="ssr:stedsnr" v="262009" />
	</node>
	<node lat="70.1284861141384" lon="20.794180543037708" id="-33813">
		<tag k="name" v="Storelv" />
		<tag k="place" v="farm" />
		<tag k="ssr:stedsnr" v="262052" />
	</node>
	<node lat="70.06406666911427" lon="20.492524977557796" id="-33815">
		<tag k="fixme" v="consider place=hamlet" />
		<tag k="name" v="Akkarvik" />
		<tag k="place" v="village" />
		<tag k="ssr:stedsnr" v="262193" />
	</node>
	<node lat="70.04036747814844" lon="20.62091497024115" id="-33820">
		<tag k="name" v="Stakenes" />
		<tag k="place" v="hamlet" />
		<tag k="ssr:stedsnr" v="267877" />
	</node>
	<node lat="70.11204227779695" lon="20.77182130149989" id="-33827">
		<tag k="name" v="Hamnnes" />
		<tag k="place" v="hamlet" />
		<tag k="ssr:stedsnr" v="279469" />
	</node>
	<node lat="70.13174722673216" lon="20.798736091575236" id="-33832">
		<tag k="name" v="Blomli" />
		<tag k="place" v="isolated_dwelling" />
		<tag k="ssr:stedsnr" v="291233" />
	</node>
	<node lat="70.07409722210524" lon="20.482416655171953" id="-33853">
		<tag k="name" v="Akkarvik" />
		<tag k="place" v="farm" />
		<tag k="ssr:stedsnr" v="322183" />
	</node>
</osm>
