<?xml version="1.0" encoding="UTF-8"?>
<osm generator="osmapis" version="0.6">
	<node id="-890452" lat="69.9583194416" lon="20.6480527643">
		<tag k="man_made" v="cairn" />
		<tag k="name" v="Varden" />
		<tag k="place" v="locality" />
		<tag k="ssr:stedsnr" v="595577" />
	</node>
	<node id="-889453" lat="69.9059555529" lon="20.7393805385">
		<tag k="amenity" v="ferry_terminal" />
		<tag k="name" v="Klauvnes fergeleie" />
		<tag k="ssr:stedsnr" v="655880" />
	</node>
	<node id="-890299" lat="70.0456777775" lon="21.000891637">
		<tag k="highway" v="path" />
		<tag k="name" v="Engnesveien" />
		<tag k="ssr:stedsnr" v="534142" />
	</node>
	<node id="-890719" lat="69.9346888917" lon="20.8980444206">
		<tag k="highway" v="path" />
		<tag k="name" v="Torveveien" />
		<tag k="ssr:stedsnr" v="839335" />
	</node>
	<node id="-890333" lat="70.0318943031" lon="20.8444738645">
		<tag k="amenity" v="ferry_terminal" />
		<tag k="name" v="Storstein" />
		<tag k="ssr:stedsnr" v="655023" />
	</node>
	<node id="-889177" lat="69.9844388883" lon="20.9763083049">
		<tag k="highway" v="path" />
		<tag k="name" v="Brunaveien" />
		<tag k="ssr:stedsnr" v="473858" />
	</node>
	<node id="-889556" lat="70.0404583319" lon="20.9993166388">
		<tag k="highway" v="path" />
		<tag k="name" v="Rødveian" />
		<tag k="ssr:stedsnr" v="777137" />
	</node>
	<node id="-889552" lat="70.053830555" lon="20.6218527659">
		<tag k="highway" v="path" />
		<tag k="name" v="Fjellveien" />
		<tag k="ssr:stedsnr" v="776655" />
	</node>
	<node id="-889933" lat="70.0306472243" lon="20.9734499887">
		<tag k="amenity" v="ferry_terminal" />
		<tag k="name" v="Skjervøy fergeleie" />
		<tag k="ssr:stedsnr" v="170169" />
	</node>
	<node id="-888900" lat="70.0511944492" lon="20.6129194182">
		<tag k="highway" v="path" />
		<tag k="name" v="Sauveien" />
		<tag k="ssr:stedsnr" v="109632" />
	</node>
	<node id="-890433" lat="70.0520888886" lon="20.6696055348">
		<tag k="man_made" v="cairn" />
		<tag k="name" v="Varden" />
		<tag k="place" v="locality" />
		<tag k="ssr:stedsnr" v="594843" />
	</node>
	<node id="-890683" lat="70.074205554" lon="20.8153305288">
		<tag k="amenity" v="ferry_terminal" />
		<tag k="name" v="Nikkeby fergeleie" />
		<tag k="ssr:stedsnr" v="838044" />
	</node>
	<node id="-889401" lat="69.8863055519" lon="20.5782222034">
		<tag k="highway" v="path" />
		<tag k="name" v="Lillesevigorra" />
		<tag k="ssr:stedsnr" v="716628" />
	</node>
	<node id="-889649" lat="70.1135000035" lon="20.5482749966">
		<tag k="junction" v="yes" />
		<tag k="name" v="Akkarvikkrysset" />
		<tag k="place" v="locality" />
		<tag k="ssr:stedsnr" v="898972" />
	</node>
	<node id="-889007" lat="70.073830559" lon="20.3762944303">
		<tag k="highway" v="path" />
		<tag k="name" v="Sandveien" />
		<tag k="ssr:stedsnr" v="291950" />
	</node>
	<node id="-890786" lat="70.0791194488" lon="20.7761305385">
		<tag k="amenity" v="ferry_terminal" />
		<tag k="name" v="Lauksundskaret fergeleie" />
		<tag k="ssr:stedsnr" v="959049" />
	</node>
	<node id="-890142" lat="69.9872916642" lon="20.646544423">
		<tag k="fixme" v="verify maritime location" />
		<tag k="mooring" v="yes" />
		<tag k="name" v="Gammelstøa" />
		<tag k="place" v="locality" />
		<tag k="ssr:stedsnr" v="352526" />
	</node>
	<node id="-889116" lat="70.0468833318" lon="20.4442972056">
		<tag k="highway" v="path" />
		<tag k="name" v="Stigen" />
		<tag k="ssr:stedsnr" v="291884" />
	</node>
	<node id="-890779" lat="69.970433332" lon="20.6424333132">
		<tag k="highway" v="path" />
		<tag k="name" v="Sommarveien" />
		<tag k="ssr:stedsnr" v="958599" />
	</node>
	<node id="-889618" lat="70.0083694439" lon="21.0464555187">
		<tag k="fixme" v="verify maritime location" />
		<tag k="mooring" v="yes" />
		<tag k="name" v="Auststøa" />
		<tag k="place" v="locality" />
		<tag k="ssr:stedsnr" v="838357" />
	</node>
	<node id="-889617" lat="70.0393527809" lon="21.2353860955">
		<tag k="man_made" v="cairn" />
		<tag k="name" v="Varden" />
		<tag k="place" v="locality" />
		<tag k="ssr:stedsnr" v="838260" />
	</node>
	<node id="-889863" lat="69.9968777798" lon="21.0549805442">
		<tag k="highway" v="path" />
		<tag k="name" v="Midtveien" />
		<tag k="ssr:stedsnr" v="110185" />
	</node>
	<node id="-889424" lat="70.2286055579" lon="20.5897777682">
		<tag k="highway" v="path" />
		<tag k="name" v="Rotvågveien" />
		<tag k="ssr:stedsnr" v="716908" />
	</node>
</osm>
