<?xml version="1.0" encoding="UTF-8"?>
<osm version="0.6" generator="osmapis">
	<node lat="70.13275833248424" lon="20.529502763211852" id="-41972">
		<tag k="name" v="Bjørndalselva" />
		<tag k="ssr:stedsnr" v="230160" />
		<tag k="waterway" v="stream" />
	</node>
	<node lat="70.00302778117496" lon="20.72776666129835" id="-41975">
		<tag k="name" v="Naskarelva" />
		<tag k="ssr:stedsnr" v="230126" />
		<tag k="waterway" v="stream" />
	</node>
	<node lat="70.0601388854315" lon="20.567405549353666" id="-41992">
		<tag k="name" v="Rikardelva" />
		<tag k="ssr:stedsnr" v="230745" />
		<tag k="waterway" v="stream" />
	</node>
	<node lat="70.19766388838457" lon="20.768233309259564" id="-42002">
		<tag k="name" v="Nedre Sørdalsvannet" />
		<tag k="natural" v="water" />
		<tag k="ssr:stedsnr" v="231155" />
		<tag k="water" v="lake" />
	</node>
	<node lat="70.2200916644199" lon="20.755508317702674" id="-42005">
		<tag k="name" v="Norddalselva" />
		<tag k="ssr:stedsnr" v="231160" />
		<tag k="waterway" v="stream" />
	</node>
	<node lat="70.15468333252232" lon="20.768238869088478" id="-42007">
		<tag k="name" v="Lomvannet" />
		<tag k="natural" v="water" />
		<tag k="ssr:stedsnr" v="231167" />
	</node>
	<node lat="70.10653889192504" lon="20.747763871859497" id="-42010">
		<tag k="name" v="Paulinavannet" />
		<tag k="natural" v="water" />
		<tag k="ssr:stedsnr" v="231217" />
	</node>
	<node lat="70.15005833319813" lon="20.53702777379764" id="-42026">
		<tag k="loc_name:se" v="Guhkesvuonjávri" />
		<tag k="name" v="Langfjordvannet" />
		<tag k="name:no" v="Langfjordvannet" />
		<tag k="natural" v="water" />
		<tag k="ssr:stedsnr" v="19009" />
		<tag k="water" v="lake" />
	</node>
	<node lat="69.99123888688247" lon="20.863880534825658" id="-42028">
		<tag k="name" v="Storbuktelva" />
		<tag k="ssr:stedsnr" v="19449" />
		<tag k="waterway" v="river" />
	</node>
	<node lat="69.84598888827928" lon="20.673833312659664" id="-42029">
		<tag k="name" v="Mettengelva" />
		<tag k="ssr:stedsnr" v="19513" />
		<tag k="waterway" v="river" />
	</node>
	<node lat="69.97944167000759" lon="20.911722195068737" id="-42032">
		<tag k="alt_name" v="Lilleelva" />
		<tag k="name" v="Litlelva" />
		<tag k="ssr:stedsnr" v="19590" />
		<tag k="waterway" v="stream" />
	</node>
	<node lat="69.87337500177964" lon="20.683172199082204" id="-42043">
		<tag k="name" v="Skjellelva" />
		<tag k="ssr:stedsnr" v="48311" />
		<tag k="waterway" v="stream" />
	</node>
	<node lat="70.0757472231555" lon="20.491538880425985" id="-42049">
		<tag k="name" v="Storelva" />
		<tag k="ssr:stedsnr" v="49013" />
		<tag k="waterway" v="river" />
	</node>
	<node lat="70.1774611086574" lon="20.536808307568283" id="-42051">
		<tag k="name" v="Longvannet" />
		<tag k="natural" v="water" />
		<tag k="ssr:stedsnr" v="49303" />
	</node>
	<node lat="70.1766527804623" lon="20.519361108581776" id="-42052">
		<tag k="name" v="Elvedalelva" />
		<tag k="ssr:stedsnr" v="49312" />
		<tag k="waterway" v="stream" />
	</node>
	<node lat="69.98337222075905" lon="20.97589163213553" id="-42054">
		<tag k="name" v="Taskebyvannet" />
		<tag k="natural" v="water" />
		<tag k="ssr:stedsnr" v="49316" />
	</node>
	<node lat="70.03992499986968" lon="21.255866643621072" id="-42055">
		<tag k="name" v="Johannavannet" />
		<tag k="natural" v="water" />
		<tag k="ssr:stedsnr" v="49268" />
	</node>
	<node lat="70.12141110719271" lon="20.73200831792391" id="-42056">
		<tag k="alt_name" v="Storelva" />
		<tag k="name" v="Tjyvdalselva" />
		<tag k="ssr:stedsnr" v="49218" />
		<tag k="waterway" v="stream" />
	</node>
	<node lat="70.05325555632854" lon="20.99438052806614" id="-42058">
		<tag k="name" v="Sivvannet" />
		<tag k="natural" v="water" />
		<tag k="ssr:stedsnr" v="49822" />
	</node>
	<node lat="70.2210944418679" lon="20.587755533624815" id="-42067">
		<tag k="name" v="Rotvågelva" />
		<tag k="ssr:stedsnr" v="80099" />
		<tag k="waterway" v="stream" />
	</node>
	<node lat="70.07218611160894" lon="20.608724990503095" id="-42076">
		<tag k="name" v="Øvre Sløkedalsvannet" />
		<tag k="natural" v="water" />
		<tag k="ssr:stedsnr" v="90441" />
	</node>
	<node lat="70.12738611142197" lon="20.795349969366846" id="-42082">
		<tag k="name" v="Kvantoelva" />
		<tag k="ssr:stedsnr" v="109204" />
		<tag k="waterway" v="stream" />
	</node>
	<node lat="70.05088611422998" lon="20.779347202826425" id="-42084">
		<tag k="name" v="Vaskarelva" />
		<tag k="ssr:stedsnr" v="109104" />
		<tag k="waterway" v="stream" />
	</node>
	<node lat="70.14940833395109" lon="20.75982777064428" id="-42087">
		<tag k="name" v="Bekkvannet" />
		<tag k="natural" v="water" />
		<tag k="ssr:stedsnr" v="109146" />
	</node>
	<node lat="70.06205278011352" lon="20.642961098809316" id="-42095">
		<tag k="name" v="Flynderelva" />
		<tag k="ssr:stedsnr" v="109734" />
		<tag k="waterway" v="stream" />
	</node>
	<node lat="70.08066666762565" lon="20.57607776255301" id="-42096">
		<tag k="name" v="Storskogelva" />
		<tag k="ssr:stedsnr" v="109773" />
		<tag k="waterway" v="stream" />
	</node>
	<node lat="70.16790555743215" lon="20.63973610506029" id="-42097">
		<tag k="name" v="Djupvannet" />
		<tag k="natural" v="water" />
		<tag k="ssr:stedsnr" v="109904" />
	</node>
	<node lat="70.05311111537588" lon="20.428527754214503" id="-42101">
		<tag k="name" v="Revelva" />
		<tag k="ssr:stedsnr" v="109874" />
		<tag k="waterway" v="stream" />
	</node>
	<node lat="70.05330833737408" lon="20.466241663665823" id="-42104">
		<tag k="name" v="Lomvannet" />
		<tag k="natural" v="water" />
		<tag k="ssr:stedsnr" v="109884" />
	</node>
	<node lat="70.1123666705451" lon="20.66823332572692" id="-42118">
		<tag k="name" v="Grunnfjordvannet" />
		<tag k="natural" v="water" />
		<tag k="ssr:stedsnr" v="140038" />
	</node>
	<node lat="69.99396388839332" lon="20.746741637698776" id="-42124">
		<tag k="name" v="Steinbakkelva" />
		<tag k="ssr:stedsnr" v="140642" />
		<tag k="waterway" v="river" />
	</node>
	<node lat="70.01559444503323" lon="20.9496888727514" id="-42142">
		<tag k="loc_name:se" v="Goaskimjávri" />
		<tag k="name" v="Godskejávri" />
		<tag k="name:se" v="Godskejávri" />
		<tag k="natural" v="water" />
		<tag k="ssr:stedsnr" v="170164" />
	</node>
	<node lat="69.98915555132456" lon="20.973030542418975" id="-42146">
		<tag k="name" v="Kalvelva" />
		<tag k="ssr:stedsnr" v="170306" />
		<tag k="waterway" v="stream" />
	</node>
	<node lat="69.964191667929" lon="20.65634999099797" id="-42162">
		<tag k="name" v="Flagdevannet" />
		<tag k="natural" v="water" />
		<tag k="ssr:stedsnr" v="261612" />
	</node>
	<node lat="69.97951944439538" lon="20.968847192692596" id="-42163">
		<tag k="name" v="Skansevannet" />
		<tag k="natural" v="water" />
		<tag k="ssr:stedsnr" v="261616" />
	</node>
	<node lat="70.09030278202283" lon="20.640555538703364" id="-42164">
		<tag k="loc_name:se" v="Rudnesvuonjohka" />
		<tag k="name" v="Grunnfjordelva" />
		<tag k="name:no" v="Grunnfjordelva" />
		<tag k="ssr:stedsnr" v="262030" />
		<tag k="waterway" v="river" />
	</node>
	<node lat="70.21193611045868" lon="20.67047776545621" id="-42174">
		<tag k="name" v="Norddalselva" />
		<tag k="ssr:stedsnr" v="263517" />
		<tag k="waterway" v="river" />
	</node>
	<node lat="70.16608056102062" lon="20.760213862872256" id="-42187">
		<tag k="fixme" v="multiple name tags, choose one and add the other to alt_name" />
		<tag k="name" v="Storelva;Kvænangselva" />
		<tag k="ssr:stedsnr" v="202500" />
		<tag k="waterway" v="river" />
	</node>
	<node lat="70.03516110721483" lon="20.790824979966857" id="-42196">
		<tag k="name" v="Vittneselva" />
		<tag k="ssr:stedsnr" v="230031" />
		<tag k="waterway" v="stream" />
	</node>
	<node lat="70.08775555362652" lon="20.644099980007365" id="-42199">
		<tag k="name" v="Fossan" />
		<tag k="natural" v="waterfall" />
		<tag k="ssr:stedsnr" v="230730" />
	</node>
	<node lat="70.117769446812" lon="20.749233324362333" id="-42203">
		<tag k="name" v="Solneselva" />
		<tag k="ssr:stedsnr" v="231206" />
		<tag k="waterway" v="stream" />
	</node>
	<node lat="69.94913611523394" lon="20.93834999112574" id="-42206">
		<tag k="name" v="Skredneselva" />
		<tag k="ssr:stedsnr" v="231184" />
		<tag k="waterway" v="stream" />
	</node>
	<node lat="69.94492777789812" lon="20.896086090041667" id="-42207">
		<tag k="name" v="Lillevannet" />
		<tag k="natural" v="water" />
		<tag k="ssr:stedsnr" v="231185" />
	</node>
	<node lat="69.92773889006627" lon="20.849936083923932" id="-42211">
		<tag k="name" v="Vannsjåelva" />
		<tag k="ssr:stedsnr" v="231895" />
		<tag k="waterway" v="stream" />
	</node>
	<node lat="70.05155000561487" lon="20.76546663904116" id="-42237">
		<tag k="name" v="Njerranelva" />
		<tag k="ssr:stedsnr" v="272103" />
		<tag k="waterway" v="stream" />
	</node>
	<node lat="70.08224166545244" lon="20.725755529672018" id="-42243">
		<tag k="name" v="Skarelva" />
		<tag k="ssr:stedsnr" v="291003" />
		<tag k="waterway" v="stream" />
	</node>
	<node lat="70.16442778090305" lon="20.505016640197454" id="-42249">
		<tag k="name" v="Mosselva" />
		<tag k="ssr:stedsnr" v="291295" />
		<tag k="waterway" v="stream" />
	</node>
	<node lat="69.89967222105223" lon="20.656233315180213" id="-42251">
		<tag k="name" v="Skjellelva" />
		<tag k="ssr:stedsnr" v="291602" />
		<tag k="waterway" v="stream" />
	</node>
	<node lat="70.02328333145965" lon="20.79941664940333" id="-42265">
		<tag k="name" v="Vittnesvannan" />
		<tag k="natural" v="water" />
		<tag k="ssr:stedsnr" v="322137" />
		<tag k="water" v="lake" />
	</node>
	<node lat="70.10944999707743" lon="20.779013866628915" id="-42287">
		<tag k="name" v="Jeskebakkelva" />
		<tag k="ssr:stedsnr" v="473253" />
		<tag k="waterway" v="stream" />
	</node>
	<node lat="69.98873611316921" lon="21.003483306714408" id="-42289">
		<tag k="name" v="Lillevannet" />
		<tag k="natural" v="water" />
		<tag k="ssr:stedsnr" v="473292" />
	</node>
	<node lat="69.99597499877635" lon="21.046438856492113" id="-42291">
		<tag k="name" v="Skarelva" />
		<tag k="ssr:stedsnr" v="473389" />
		<tag k="waterway" v="stream" />
	</node>
	<node lat="69.87748611193706" lon="20.562677750388566" id="-42294">
		<tag k="name" v="Båtelva" />
		<tag k="ssr:stedsnr" v="473339" />
		<tag k="waterway" v="stream" />
	</node>
	<node lat="70.0683916633186" lon="20.633811092826576" id="-42313">
		<tag k="name" v="Sløkedalselva" />
		<tag k="ssr:stedsnr" v="473754" />
		<tag k="waterway" v="stream" />
	</node>
	<node lat="70.0431749962529" lon="20.992886096042096" id="-42342">
		<tag k="name" v="Hestvannet" />
		<tag k="natural" v="water" />
		<tag k="ssr:stedsnr" v="352807" />
	</node>
	<node lat="69.94759444990926" lon="20.774611082616563" id="-42357">
		<tag k="name" v="Jektsetelva - Jávttaseahtujohka" />
		<tag k="name:no" v="Jektsetelva" />
		<tag k="name:se" v="Jávttaseahtujohka" />
		<tag k="ssr:stedsnr" v="383598" />
		<tag k="waterway" v="stream" />
	</node>
	<node lat="70.07043055765347" lon="20.784319436790362" id="-42370">
		<tag k="name" v="Ytre Oterelva" />
		<tag k="ssr:stedsnr" v="413048" />
		<tag k="waterway" v="stream" />
	</node>
	<node lat="70.05135278201797" lon="20.99824165810209" id="-42386">
		<tag k="name" v="Grønnvannet" />
		<tag k="natural" v="water" />
		<tag k="ssr:stedsnr" v="413840" />
	</node>
	<node lat="70.07509166813364" lon="20.401183305518224" id="-42392">
		<tag k="name" v="Sotneselva" />
		<tag k="ssr:stedsnr" v="413903" />
		<tag k="waterway" v="stream" />
	</node>
	<node lat="70.1018666666807" lon="20.436322211827868" id="-42395">
		<tag k="name" v="Trolldalselva" />
		<tag k="ssr:stedsnr" v="444031" />
		<tag k="waterway" v="stream" />
	</node>
	<node lat="70.17656944306493" lon="20.539155536004365" id="-42411">
		<tag k="name" v="Lille Rekvikelva" />
		<tag k="ssr:stedsnr" v="473274" />
		<tag k="waterway" v="stream" />
	</node>
	<node lat="70.07880278158112" lon="20.710863871883404" id="-42461">
		<tag k="name" v="Skardalsvannet" />
		<tag k="natural" v="water" />
		<tag k="ssr:stedsnr" v="686180" />
	</node>
	<node lat="70.06758888603147" lon="20.489108317594383" id="-42472">
		<tag k="name" v="Krikelva" />
		<tag k="ssr:stedsnr" v="533103" />
		<tag k="waterway" v="stream" />
	</node>
	<node lat="70.06835555725043" lon="20.78828331261892" id="-42478">
		<tag k="name" v="Midtre Oterelva" />
		<tag k="ssr:stedsnr" v="534039" />
		<tag k="waterway" v="stream" />
	</node>
	<node lat="70.04211667180441" lon="20.993752750286582" id="-42490">
		<tag k="name" v="Engnesvannet" />
		<tag k="natural" v="water" />
		<tag k="ssr:stedsnr" v="534814" />
	</node>
	<node lat="69.97106666444446" lon="20.91248885959505" id="-42503">
		<tag k="alt_name" v="Mølnelva" />
		<tag k="name" v="Møllneselva" />
		<tag k="ssr:stedsnr" v="686613" />
		<tag k="waterway" v="stream" />
	</node>
	<node lat="70.11728333030005" lon="20.82400831163411" id="-42507">
		<tag k="name" v="Storelvvannet" />
		<tag k="natural" v="water" />
		<tag k="ssr:stedsnr" v="687028" />
	</node>
	<node lat="69.86336944702042" lon="20.664011092913174" id="-42514">
		<tag k="name" v="Lomvannet" />
		<tag k="natural" v="water" />
		<tag k="ssr:stedsnr" v="687501" />
	</node>
	<node lat="69.87048055408918" lon="20.623644421716236" id="-42516">
		<tag k="fixme" v="multiple name tags, choose one and add the other to alt_name" />
		<tag k="name" v="Svarttinddalsvannet;Storvannet" />
		<tag k="natural" v="water" />
		<tag k="ssr:stedsnr" v="687511" />
	</node>
	<node lat="70.18734444581608" lon="20.681638862064414" id="-42525">
		<tag k="fixme" v="multiple name tags, choose one and add the other to alt_name" />
		<tag k="name" v="Nedre Norddalsvannet;Norddalsvannet" />
		<tag k="natural" v="water" />
		<tag k="ssr:stedsnr" v="565016" />
	</node>
	<node lat="69.98526389054626" lon="20.753049968171624" id="-42527">
		<tag k="name" v="Bruttoelva" />
		<tag k="ssr:stedsnr" v="565611" />
		<tag k="waterway" v="stream" />
	</node>
	<node lat="69.89421388790082" lon="20.614408302846773" id="-42528">
		<tag k="name" v="Storelva" />
		<tag k="ssr:stedsnr" v="565564" />
		<tag k="waterway" v="stream" />
	</node>
	<node lat="69.83383333765453" lon="20.712458318263593" id="-42530">
		<tag k="loc_name:se" v="Seahttárjohka" />
		<tag k="name" v="Sæterelva" />
		<tag k="name:no" v="Sæterelva" />
		<tag k="ssr:stedsnr" v="565998" />
		<tag k="waterway" v="stream" />
	</node>
	<node lat="70.06925278010796" lon="20.700955527914605" id="-42540">
		<tag k="name" v="Øvre Elvedalsvannet" />
		<tag k="natural" v="water" />
		<tag k="ssr:stedsnr" v="575112" />
	</node>
	<node lat="69.9771972195547" lon="20.9520582998696" id="-42558">
		<tag k="name" v="Eidedalsvannet" />
		<tag k="natural" v="water" />
		<tag k="ssr:stedsnr" v="594263" />
	</node>
	<node lat="69.85595278145342" lon="20.679219422739166" id="-42559">
		<tag k="name" v="Lilleelva" />
		<tag k="ssr:stedsnr" v="594351" />
		<tag k="waterway" v="stream" />
	</node>
	<node lat="70.04365833752738" lon="20.988552745180915" id="-42565">
		<tag k="name" v="Holmevannet" />
		<tag k="natural" v="water" />
		<tag k="ssr:stedsnr" v="594802" />
	</node>
	<node lat="70.22416944129604" lon="20.660336092355653" id="-42568">
		<tag k="name" v="Lilleelva" />
		<tag k="ssr:stedsnr" v="594909" />
		<tag k="waterway" v="stream" />
	</node>
	<node lat="70.21339444492612" lon="20.67758609072271" id="-42569">
		<tag k="name" v="Blåbergodden" />
		<tag k="natural" v="cape" />
		<tag k="ssr:stedsnr" v="594913" />
	</node>
	<node lat="70.07293888820048" lon="20.579352761906822" id="-42608">
		<tag k="name" v="Vintersetelva" />
		<tag k="ssr:stedsnr" v="686193" />
		<tag k="waterway" v="stream" />
	</node>
	<node lat="70.0979194407701" lon="20.719144428994515" id="-42609">
		<tag k="name" v="Svartskogvannet" />
		<tag k="natural" v="water" />
		<tag k="ssr:stedsnr" v="686195" />
	</node>
	<node lat="70.10523055578173" lon="20.90452496725019" id="-42631">
		<tag k="name" v="Noveelva" />
		<tag k="ssr:stedsnr" v="898185" />
		<tag k="waterway" v="stream" />
	</node>
	<node lat="70.04757499737313" lon="20.485949986767316" id="-42652">
		<tag k="name" v="Skittenbekken" />
		<tag k="ssr:stedsnr" v="898908" />
		<tag k="waterway" v="stream" />
	</node>
	<node lat="70.20006389271937" lon="20.645205542902655" id="-42653">
		<tag k="name" v="Oterelva" />
		<tag k="ssr:stedsnr" v="898912" />
		<tag k="waterway" v="stream" />
	</node>
	<node lat="70.09906389116503" lon="20.737641655065687" id="-42656">
		<tag k="name" v="Svartskogelva" />
		<tag k="ssr:stedsnr" v="716010" />
		<tag k="waterway" v="stream" />
	</node>
	<node lat="70.11579166864134" lon="20.77997498072261" id="-42660">
		<tag k="name" v="Tofteelva" />
		<tag k="ssr:stedsnr" v="716217" />
		<tag k="waterway" v="stream" />
	</node>
	<node lat="70.2151527824617" lon="20.764727757778914" id="-42681">
		<tag k="name" v="Sørdalselva" />
		<tag k="ssr:stedsnr" v="717123" />
		<tag k="waterway" v="stream" />
	</node>
	<node lat="69.99633611221961" lon="20.893708314961728" id="-42685">
		<tag k="name" v="Fossen" />
		<tag k="natural" v="waterfall" />
		<tag k="ssr:stedsnr" v="899318" />
	</node>
	<node lat="70.15505555810466" lon="20.596988859761783" id="-42689">
		<tag k="name" v="Ytre Svarttindvannet" />
		<tag k="natural" v="water" />
		<tag k="ssr:stedsnr" v="747005" />
	</node>
	<node lat="70.06174166679935" lon="20.635505541306625" id="-42700">
		<tag k="name" v="Sikelva" />
		<tag k="ssr:stedsnr" v="757099" />
		<tag k="waterway" v="stream" />
	</node>
	<node lat="70.06272777741071" lon="20.47974165844976" id="-42706">
		<tag k="name" v="Hamnelva" />
		<tag k="ssr:stedsnr" v="776116" />
		<tag k="waterway" v="stream" />
	</node>
	<node lat="69.89787500072089" lon="20.59948052947888" id="-42711">
		<tag k="name" v="Svartvannet" />
		<tag k="natural" v="water" />
		<tag k="ssr:stedsnr" v="776559" />
	</node>
	<node lat="70.0460444407803" lon="20.989577758539816" id="-42715">
		<tag k="name" v="Geitvannet" />
		<tag k="natural" v="water" />
		<tag k="ssr:stedsnr" v="777123" />
	</node>
	<node lat="70.04432778299888" lon="21.24449996605035" id="-42720">
		<tag k="name" v="Småvannan" />
		<tag k="natural" v="water" />
		<tag k="ssr:stedsnr" v="777217" />
		<tag k="water" v="lake" />
	</node>
	<node lat="70.04648333082142" lon="20.995116642656868" id="-42722">
		<tag k="name" v="Svartvannet" />
		<tag k="natural" v="water" />
		<tag k="ssr:stedsnr" v="777804" />
	</node>
	<node lat="69.85128333666412" lon="20.61684441819269" id="-42735">
		<tag k="name" v="Blåtindvannet" />
		<tag k="natural" v="water" />
		<tag k="ssr:stedsnr" v="808513" />
	</node>
	<node lat="69.89097777887507" lon="20.5975138708372" id="-42737">
		<tag k="name" v="Hansevannet" />
		<tag k="natural" v="water" />
		<tag k="ssr:stedsnr" v="808539" />
	</node>
	<node lat="69.9880277825162" lon="20.983674979794948" id="-42739">
		<tag k="name" v="Lillevannet" />
		<tag k="natural" v="water" />
		<tag k="ssr:stedsnr" v="808595" />
	</node>
	<node lat="70.0233805590311" lon="20.799730546248014" id="-42745">
		<tag k="name" v="Andre Vittnesvannet" />
		<tag k="natural" v="water" />
		<tag k="ssr:stedsnr" v="818170" />
		<tag k="water" v="lake" />
	</node>
	<node lat="69.88774444849604" lon="20.588963878744654" id="-42750">
		<tag k="name" v="Sevigorvannet" />
		<tag k="natural" v="water" />
		<tag k="ssr:stedsnr" v="837587" />
	</node>
	<node lat="70.14859444366726" lon="20.76651388169765" id="-42755">
		<tag k="name" v="Bekkelva" />
		<tag k="ssr:stedsnr" v="838188" />
		<tag k="waterway" v="stream" />
	</node>
	<node lat="70.14965277583066" lon="20.77344165453381" id="-42756">
		<tag k="name" v="Skanseelva" />
		<tag k="ssr:stedsnr" v="838193" />
		<tag k="waterway" v="stream" />
	</node>
	<node lat="70.05875833367273" lon="20.698374993002247" id="-42764">
		<tag k="loc_name:se" v="Ealvajohka" />
		<tag k="name" v="Elveelva" />
		<tag k="name:no" v="Elveelva" />
		<tag k="ssr:stedsnr" v="838878" />
		<tag k="waterway" v="river" />
	</node>
	<node lat="70.00199444819143" lon="20.89378331528766" id="-42768">
		<tag k="name" v="Finnelva" />
		<tag k="ssr:stedsnr" v="839331" />
		<tag k="waterway" v="stream" />
	</node>
	<node lat="69.9386083376273" lon="20.917274971259484" id="-42769">
		<tag k="name" v="Flåtelva" />
		<tag k="ssr:stedsnr" v="839333" />
		<tag k="waterway" v="stream" />
	</node>
	<node lat="70.06560563716097" lon="20.700435264270272" id="-42771">
		<tag k="name" v="Elvedalsvannan" />
		<tag k="natural" v="water" />
		<tag k="ssr:stedsnr" v="929217" />
	</node>
	<node lat="70.15166111204218" lon="20.39997220117152" id="-42789">
		<tag k="name" v="Tobbevikelva" />
		<tag k="ssr:stedsnr" v="929932" />
		<tag k="waterway" v="stream" />
	</node>
	<node lat="70.13400277741756" lon="20.517966649109766" id="-42790">
		<tag k="name" v="Bjørndalsvannet" />
		<tag k="natural" v="water" />
		<tag k="ssr:stedsnr" v="930011" />
	</node>
	<node lat="69.87707777776458" lon="20.598288880481523" id="-42809">
		<tag k="name" v="Langvannet" />
		<tag k="natural" v="water" />
		<tag k="ssr:stedsnr" v="930535" />
	</node>
	<node lat="70.13493055135311" lon="20.73716109967211" id="-42843">
		<tag k="fixme" v="multiple name tags, choose one and add the other to alt_name" />
		<tag k="name" v="Andreavannet;Tjuvlivannet" />
		<tag k="natural" v="water" />
		<tag k="ssr:stedsnr" v="930052" />
	</node>
	<node lat="70.0692333369579" lon="20.618038869053525" id="-42847">
		<tag k="name" v="Nedre Sløkedalsvannet" />
		<tag k="natural" v="water" />
		<tag k="ssr:stedsnr" v="940039" />
	</node>
	<node lat="70.13459722770237" lon="20.409088863529803" id="-42849">
		<tag k="name" v="Sør-Rekvikelva" />
		<tag k="ssr:stedsnr" v="958089" />
		<tag k="waterway" v="river" />
	</node>
	<node lat="70.04774166771635" lon="21.26995829939509" id="-42865">
		<tag k="name" v="Skjellelva" />
		<tag k="ssr:stedsnr" v="959207" />
		<tag k="waterway" v="stream" />
	</node>
	<node lat="70.05153610962265" lon="20.63084998209083" id="-42866">
		<tag k="name" v="Kjergårdselva" />
		<tag k="ssr:stedsnr" v="959614" />
		<tag k="waterway" v="stream" />
	</node>
	<node lat="70.17368055282202" lon="20.653716635450444" id="-42880">
		<tag k="name" v="Fjellfinnhollvannet" />
		<tag k="natural" v="water" />
		<tag k="ssr:stedsnr" v="959908" />
	</node>
	<node lat="70.11076944781937" lon="20.557024982290955" id="-42882">
		<tag k="name" v="Leirbakkelva" />
		<tag k="ssr:stedsnr" v="959952" />
		<tag k="waterway" v="stream" />
	</node>
	<node lat="69.93647222425217" lon="20.897983305495362" id="-42884">
		<tag k="name" v="Fjellfinnbuktelva" />
		<tag k="ssr:stedsnr" v="960302" />
		<tag k="waterway" v="stream" />
	</node>
	<node lat="70.1446750007417" lon="20.74024163480609" id="-42887">
		<tag k="name" v="Lillefjellvannet" />
		<tag k="natural" v="water" />
		<tag k="ssr:stedsnr" v="19013" />
		<tag k="water" v="lake" />
	</node>
	<node lat="70.09139721844292" lon="20.666858324612807" id="-42893">
		<tag k="name" v="Rødsandelva" />
		<tag k="ssr:stedsnr" v="19194" />
		<tag k="waterway" v="river" />
	</node>
	<node lat="69.96383888626308" lon="20.933155528210108" id="-42900">
		<tag k="name" v="Stokkneselva" />
		<tag k="ssr:stedsnr" v="19551" />
		<tag k="waterway" v="river" />
	</node>
	<node lat="69.93144999684431" lon="20.819461081409894" id="-42902">
		<tag k="name" v="Novelva" />
		<tag k="ssr:stedsnr" v="19565" />
		<tag k="waterway" v="stream" />
	</node>
	<node lat="69.93012222323934" lon="20.84589719744475" id="-42903">
		<tag k="name" v="Maursundelva" />
		<tag k="ssr:stedsnr" v="19566" />
		<tag k="waterway" v="stream" />
	</node>
	<node lat="70.16523055455623" lon="20.77614721509995" id="-42917">
		<tag k="name" v="Hesteskovannet" />
		<tag k="natural" v="water" />
		<tag k="ssr:stedsnr" v="49174" />
	</node>
	<node lat="70.08169999929818" lon="20.47529443609793" id="-42922">
		<tag k="name" v="Skavdalselva" />
		<tag k="ssr:stedsnr" v="48028" />
		<tag k="waterway" v="stream" />
	</node>
	<node lat="70.08626944482441" lon="20.631891643846615" id="-42927">
		<tag k="name" v="Gamhaugelva" />
		<tag k="ssr:stedsnr" v="48750" />
		<tag k="waterway" v="stream" />
	</node>
	<node lat="70.03367500199846" lon="20.791811102916757" id="-42929">
		<tag k="name" v="Vittnesfossen" />
		<tag k="natural" v="waterfall" />
		<tag k="ssr:stedsnr" v="49032" />
	</node>
	<node lat="70.0681722218653" lon="20.8684777563909" id="-42931">
		<tag k="name" v="Lillevannet" />
		<tag k="natural" v="water" />
		<tag k="ssr:stedsnr" v="49037" />
	</node>
	<node lat="70.11149444913201" lon="20.71572774932428" id="-42934">
		<tag k="name" v="Breitindvannan" />
		<tag k="natural" v="water" />
		<tag k="ssr:stedsnr" v="49224" />
		<tag k="water" v="lake" />
	</node>
	<node lat="70.12718055155295" lon="20.74685276621419" id="-42935">
		<tag k="name" v="Melkeneselva" />
		<tag k="ssr:stedsnr" v="49239" />
		<tag k="waterway" v="stream" />
	</node>
	<node lat="70.05052778037154" lon="21.254077750533522" id="-42946">
		<tag k="name" v="Skarbergvannet" />
		<tag k="natural" v="water" />
		<tag k="ssr:stedsnr" v="49256" />
	</node>
	<node lat="70.042852777512" lon="21.27191385306311" id="-42947">
		<tag k="name" v="Klubbelva" />
		<tag k="ssr:stedsnr" v="49258" />
		<tag k="waterway" v="stream" />
	</node>
	<node lat="70.19091111404633" lon="20.623499995624453" id="-42964">
		<tag k="name" v="Lainevannet" />
		<tag k="natural" v="water" />
		<tag k="ssr:stedsnr" v="80021" />
	</node>
	<node lat="70.11982221845292" lon="20.59879999266197" id="-42969">
		<tag k="name" v="Kappdalsvannet" />
		<tag k="natural" v="water" />
		<tag k="ssr:stedsnr" v="80062" />
	</node>
	<node lat="70.16637499936418" lon="20.780705537037992" id="-42994">
		<tag k="name" v="Lillevannet" />
		<tag k="natural" v="water" />
		<tag k="ssr:stedsnr" v="109216" />
	</node>
	<node lat="70.17936666856221" lon="20.79475830296127" id="-43000">
		<tag k="name" v="Teppsteinvannet" />
		<tag k="natural" v="water" />
		<tag k="ssr:stedsnr" v="109239" />
	</node>
	<node lat="69.95200555183155" lon="20.642933320368027" id="-43005">
		<tag k="name" v="Lomvannet" />
		<tag k="natural" v="water" />
		<tag k="ssr:stedsnr" v="109517" />
	</node>
	<node lat="70.11821110797875" lon="20.732866635474238" id="-43020">
		<tag k="name" v="Storvannet" />
		<tag k="natural" v="water" />
		<tag k="ssr:stedsnr" v="110171" />
	</node>
	<node lat="70.17246110972089" lon="20.541358308990773" id="-43025">
		<tag k="name" v="Svarttindelva" />
		<tag k="ssr:stedsnr" v="110250" />
		<tag k="waterway" v="stream" />
	</node>
	<node lat="70.14431389195185" lon="20.75835553907632" id="-43032">
		<tag k="name" v="Halselva" />
		<tag k="ssr:stedsnr" v="140011" />
		<tag k="waterway" v="stream" />
	</node>
	<node lat="70.17530000036504" lon="20.694769423837034" id="-43034">
		<tag k="name" v="Mellavannet" />
		<tag k="natural" v="water" />
		<tag k="ssr:stedsnr" v="140021" />
	</node>
	<node lat="70.1309888927134" lon="20.670666651393468" id="-43041">
		<tag k="name" v="Isbakkvannet" />
		<tag k="natural" v="water" />
		<tag k="ssr:stedsnr" v="140056" />
	</node>
	<node lat="70.01945555991128" lon="20.795047193897275" id="-43057">
		<tag k="name" v="Tredje Vittnesvannet" />
		<tag k="natural" v="water" />
		<tag k="ssr:stedsnr" v="150181" />
		<tag k="water" v="lake" />
	</node>
	<node lat="70.10944167185174" lon="20.528558310691103" id="-43070">
		<tag k="name" v="Laksebuktelva" />
		<tag k="ssr:stedsnr" v="169140" />
		<tag k="waterway" v="stream" />
	</node>
	<node lat="70.06606944376229" lon="20.788780523504464" id="-43076">
		<tag k="name" v="Indre Oterelva" />
		<tag k="ssr:stedsnr" v="170044" />
		<tag k="waterway" v="stream" />
	</node>
	<node lat="70.1155388911051" lon="20.738722193034796" id="-43080">
		<tag k="name" v="Stykkeneselva" />
		<tag k="ssr:stedsnr" v="170201" />
		<tag k="waterway" v="stream" />
	</node>
	<node lat="69.97481110766016" lon="20.94515553789793" id="-43081">
		<tag k="name" v="Kobbepolleidet" />
		<tag k="place" v="locality" />
		<tag k="ssr:stedsnr" v="170278" />
	</node>
	<node lat="70.05358055802589" lon="20.556088879317326" id="-43098">
		<tag k="name" v="Rundelva" />
		<tag k="ssr:stedsnr" v="170685" />
		<tag k="waterway" v="stream" />
	</node>
	<node lat="70.06340277656183" lon="20.64490832593354" id="-43102">
		<tag k="name" v="Djuphollet" />
		<tag k="natural" v="water" />
		<tag k="ssr:stedsnr" v="170787" />
		<tag k="water" v="lake" />
	</node>
	<node lat="69.98325555767083" lon="20.915186090199278" id="-43115">
		<tag k="name" v="Storelva" />
		<tag k="ssr:stedsnr" v="201555" />
		<tag k="waterway" v="stream" />
	</node>
	<node lat="70.13344444510611" lon="20.473755548454296" id="-43119">
		<tag k="name" v="Dalbakkvannet" />
		<tag k="natural" v="water" />
		<tag k="ssr:stedsnr" v="201010" />
	</node>
	<node lat="70.21618055320792" lon="20.730169414900057" id="-43122">
		<tag k="name" v="Norddalsvannet" />
		<tag k="natural" v="water" />
		<tag k="ssr:stedsnr" v="201085" />
	</node>
	<node lat="70.02147222281275" lon="20.825841638281137" id="-43127">
		<tag k="name" v="Isbuktelva" />
		<tag k="ssr:stedsnr" v="201137" />
		<tag k="waterway" v="river" />
	</node>
	<node lat="70.06109167011921" lon="20.78023886999774" id="-43135">
		<tag k="name" v="Singelelva" />
		<tag k="ssr:stedsnr" v="201216" />
		<tag k="waterway" v="stream" />
	</node>
	<node lat="69.90266944542269" lon="20.696855546322727" id="-43140">
		<tag k="name" v="Skarvannet" />
		<tag k="natural" v="water" />
		<tag k="ssr:stedsnr" v="201521" />
	</node>
	<node lat="69.98058889017616" lon="20.843613874105216" id="-43145">
		<tag k="name" v="Fjellvannet" />
		<tag k="natural" v="water" />
		<tag k="ssr:stedsnr" v="201587" />
	</node>
	<node lat="70.14415277861539" lon="20.751841641165047" id="-43168">
		<tag k="name" v="Halselvhollet" />
		<tag k="natural" v="water" />
		<tag k="ssr:stedsnr" v="291145" />
		<tag k="water" v="lake" />
	</node>
	<node lat="69.86390555331417" lon="20.64966109715958" id="-43181">
		<tag k="name" v="Trollvannet" />
		<tag k="natural" v="water" />
		<tag k="ssr:stedsnr" v="291362" />
	</node>
	<node lat="69.93179721995385" lon="20.799847211646604" id="-43200">
		<tag k="name" v="Novebergelva" />
		<tag k="ssr:stedsnr" v="291902" />
		<tag k="waterway" v="stream" />
	</node>
	<node lat="70.22890277647078" lon="20.674402760852203" id="-43204">
		<tag k="name" v="Kjosen" />
		<tag k="ssr:stedsnr" v="291920" />
		<tag k="waterway" v="stream" />
	</node>
	<node lat="70.18091944459611" lon="20.535199981448997" id="-43222">
		<tag k="name" v="Årvikelva" />
		<tag k="ssr:stedsnr" v="322015" />
		<tag k="waterway" v="river" />
	</node>
	<node lat="70.17102499883583" lon="20.581252755069325" id="-43224">
		<tag k="name" v="Langvannet" />
		<tag k="natural" v="water" />
		<tag k="ssr:stedsnr" v="322028" />
	</node>
	<node lat="69.83086111291068" lon="20.629791639298784" id="-43237">
		<tag k="name" v="Isvannet" />
		<tag k="natural" v="water" />
		<tag k="ssr:stedsnr" v="322996" />
		<tag k="water" v="lake" />
	</node>
	<node lat="70.16157222278495" lon="20.627630550508698" id="-43241">
		<tag k="name" v="Laksevannet" />
		<tag k="natural" v="water" />
		<tag k="ssr:stedsnr" v="323023" />
	</node>
	<node lat="69.87547499945562" lon="20.655430542342366" id="-43242">
		<tag k="name" v="Oksevannet" />
		<tag k="natural" v="water" />
		<tag k="ssr:stedsnr" v="323524" />
	</node>
	<node lat="70.17332777887506" lon="20.433791643402618" id="-43267">
		<tag k="name" v="Keileelva" />
		<tag k="ssr:stedsnr" v="351185" />
		<tag k="waterway" v="stream" />
	</node>
	<node lat="70.07648055996927" lon="20.88830275827517" id="-43276">
		<tag k="name" v="Ramnbergelva" />
		<tag k="ssr:stedsnr" v="352039" />
		<tag k="waterway" v="stream" />
	</node>
	<node lat="70.07736944409648" lon="20.761897193774505" id="-43279">
		<tag k="name" v="Sandbakkelva" />
		<tag k="ssr:stedsnr" v="352064" />
		<tag k="waterway" v="stream" />
	</node>
	<node lat="70.11844722492201" lon="20.88844443159238" id="-43287">
		<tag k="name" v="Kveitvikelva" />
		<tag k="ssr:stedsnr" v="352178" />
		<tag k="waterway" v="stream" />
	</node>
	<node lat="70.03084444743737" lon="21.24161108841517" id="-43290">
		<tag k="name" v="Skjellelva" />
		<tag k="ssr:stedsnr" v="352201" />
		<tag k="waterway" v="stream" />
	</node>
	<node lat="70.20010277795137" lon="20.624969415169883" id="-43294">
		<tag k="name" v="Stillkjosen" />
		<tag k="natural" v="water" />
		<tag k="ssr:stedsnr" v="352919" />
		<tag k="water" v="lake" />
	</node>
	<node lat="69.96778333114213" lon="20.64519998129305" id="-43310">
		<tag k="name" v="Djupdalsvannet" />
		<tag k="natural" v="water" />
		<tag k="ssr:stedsnr" v="352579" />
	</node>
	<node lat="69.96872222395385" lon="20.63825274791945" id="-43311">
		<tag k="name" v="Fjellvannan" />
		<tag k="natural" v="water" />
		<tag k="ssr:stedsnr" v="352582" />
	</node>
	<node lat="70.0611222254756" lon="20.399116648265267" id="-43318">
		<tag k="name" v="Maritelva" />
		<tag k="ssr:stedsnr" v="352977" />
		<tag k="waterway" v="stream" />
	</node>
	<node lat="70.04914166346417" lon="20.464272196982918" id="-43323">
		<tag k="name" v="Lillevikelva" />
		<tag k="ssr:stedsnr" v="352893" />
		<tag k="waterway" v="stream" />
	</node>
	<node lat="70.10834166922147" lon="20.515186107418998" id="-43331">
		<tag k="name" v="Laksebuktelva" />
		<tag k="ssr:stedsnr" v="383040" />
		<tag k="waterway" v="stream" />
	</node>
	<node lat="70.09613610928798" lon="20.831697212370422" id="-43336">
		<tag k="name" v="Svartvannet" />
		<tag k="natural" v="water" />
		<tag k="ssr:stedsnr" v="383222" />
	</node>
	<node lat="69.96937777602257" lon="20.77484718839012" id="-43343">
		<tag k="alt_name" v="Buktelva" />
		<tag k="name" v="Storsandneselva" />
		<tag k="ssr:stedsnr" v="383624" />
		<tag k="waterway" v="stream" />
	</node>
	<node lat="69.93346111213224" lon="20.885827757402847" id="-43363">
		<tag k="name" v="Øksneselva" />
		<tag k="ssr:stedsnr" v="413334" />
		<tag k="waterway" v="stream" />
	</node>
	<node lat="70.0334222249689" lon="20.957019417247054" id="-43371">
		<tag k="name" v="Eidevannet" />
		<tag k="natural" v="water" />
		<tag k="ssr:stedsnr" v="413157" />
	</node>
	<node lat="70.18025833320453" lon="20.539522210894045" id="-43378">
		<tag k="name" v="Gammelnessan" />
		<tag k="natural" v="cape" />
		<tag k="ssr:stedsnr" v="413283" />
	</node>
	<node lat="70.06667500504818" lon="20.65896664693861" id="-43386">
		<tag k="name" v="Lakselva" />
		<tag k="ssr:stedsnr" v="413783" />
		<tag k="waterway" v="stream" />
	</node>
	<node lat="70.2044805602172" lon="20.639466650716326" id="-43410">
		<tag k="name" v="Nord-Rekvikelva" />
		<tag k="ssr:stedsnr" v="444101" />
		<tag k="waterway" v="river" />
	</node>
	<node lat="69.88198333318091" lon="20.595069431112062" id="-43414">
		<tag k="name" v="Holmevannet" />
		<tag k="natural" v="water" />
		<tag k="ssr:stedsnr" v="444498" />
	</node>
	<node lat="69.9009861120665" lon="20.71763332327964" id="-43417">
		<tag k="name" v="Lomvannet" />
		<tag k="natural" v="water" />
		<tag k="ssr:stedsnr" v="444544" />
	</node>
	<node lat="69.97411110745036" lon="20.76160831447766" id="-43433">
		<tag k="name" v="Redoneselva" />
		<tag k="ssr:stedsnr" v="504627" />
		<tag k="waterway" v="stream" />
	</node>
	<node lat="69.84261388693584" lon="20.643541657548628" id="-43442">
		<tag k="name" v="Blåvannet" />
		<tag k="natural" v="water" />
		<tag k="ssr:stedsnr" v="504993" />
	</node>
	<node lat="70.16484444417647" lon="20.692880544174354" id="-43443">
		<tag k="name" v="Innervannet" />
		<tag k="natural" v="water" />
		<tag k="ssr:stedsnr" v="505029" />
	</node>
	<node lat="70.10813055290396" lon="20.612963857075822" id="-43445">
		<tag k="name" v="Fossvannan" />
		<tag k="natural" v="water" />
		<tag k="ssr:stedsnr" v="505046" />
		<tag k="water" v="lake" />
	</node>
	<node lat="70.1269750046067" lon="20.80465830379605" id="-43448">
		<tag k="name" v="Storelva" />
		<tag k="ssr:stedsnr" v="505061" />
		<tag k="waterway" v="stream" />
	</node>
	<node lat="70.10330555191926" lon="20.825672203617863" id="-43449">
		<tag k="name" v="Inner-Kveitvikvannet" />
		<tag k="natural" v="water" />
		<tag k="ssr:stedsnr" v="505225" />
	</node>
	<node lat="69.88581667170237" lon="20.566280531973224" id="-43451">
		<tag k="name" v="Rakkeneselva" />
		<tag k="ssr:stedsnr" v="505555" />
		<tag k="waterway" v="stream" />
	</node>
	<node lat="70.02781111532158" lon="20.791174975238356" id="-43457">
		<tag k="loc_name:se" v="Várnjárgjávri" />
		<tag k="name" v="Første Vittnesvannet" />
		<tag k="name:no" v="Første Vittnesvannet" />
		<tag k="natural" v="water" />
		<tag k="ssr:stedsnr" v="515192" />
		<tag k="water" v="lake" />
	</node>
	<node lat="70.0567250041534" lon="20.794733306682584" id="-43460">
		<tag k="name" v="Hamneelva" />
		<tag k="ssr:stedsnr" v="533094" />
		<tag k="waterway" v="stream" />
	</node>
	<node lat="70.04756388677713" lon="20.621469426552455" id="-43468">
		<tag k="name" v="Bekkhuselva" />
		<tag k="ssr:stedsnr" v="533686" />
		<tag k="waterway" v="stream" />
	</node>
	<node lat="70.08185833328331" lon="20.80189997611367" id="-43470">
		<tag k="name" v="Søsterelva" />
		<tag k="ssr:stedsnr" v="534055" />
		<tag k="waterway" v="stream" />
	</node>
	<node lat="70.09573611645584" lon="20.558688863890637" id="-43479">
		<tag k="name" v="Lyngneselva" />
		<tag k="ssr:stedsnr" v="534799" />
		<tag k="waterway" v="stream" />
	</node>
	<node lat="70.15457499853936" lon="20.77338608201347" id="-43483">
		<tag k="name" v="Larsneselva" />
		<tag k="ssr:stedsnr" v="534227" />
		<tag k="waterway" v="stream" />
	</node>
	<node lat="70.07679167081008" lon="20.579363866403565" id="-43514">
		<tag k="alt_name" v="Skilelva" />
		<tag k="name" v="Skjellelva" />
		<tag k="ssr:stedsnr" v="564186" />
		<tag k="waterway" v="stream" />
	</node>
	<node lat="70.07026877060626" lon="20.612707144926127" id="-43515">
		<tag k="name" v="Sløkedalsvannan" />
		<tag k="natural" v="water" />
		<tag k="ssr:stedsnr" v="564187" />
		<tag k="water" v="lake" />
	</node>
	<node lat="70.19428889153882" lon="20.765572203036342" id="-43520">
		<tag k="name" v="Sørdalsvannan" />
		<tag k="natural" v="water" />
		<tag k="ssr:stedsnr" v="565019" />
		<tag k="water" v="lake" />
	</node>
	<node lat="70.1380416635059" lon="20.59368330768719" id="-43524">
		<tag k="name" v="Indre Svarttindvannet" />
		<tag k="natural" v="water" />
		<tag k="ssr:stedsnr" v="565047" />
	</node>
	<node lat="69.98713055522829" lon="20.977091634093693" id="-43568">
		<tag k="name" v="Storelva" />
		<tag k="ssr:stedsnr" v="594282" />
		<tag k="waterway" v="stream" />
	</node>
	<node lat="70.10074444945694" lon="20.5576860925817" id="-43577">
		<tag k="name" v="Lille-Lyngneselva" />
		<tag k="ssr:stedsnr" v="594779" />
		<tag k="waterway" v="stream" />
	</node>
	<node lat="70.05801944460416" lon="20.495149988301463" id="-43583">
		<tag k="name" v="Sandbakkelva" />
		<tag k="ssr:stedsnr" v="594884" />
		<tag k="waterway" v="stream" />
	</node>
	<node lat="69.9305638890085" lon="20.869941652655683" id="-43584">
		<tag k="name" v="Hamneelva" />
		<tag k="ssr:stedsnr" v="594886" />
		<tag k="waterway" v="stream" />
	</node>
	<node lat="70.02010000390656" lon="20.971680528993772" id="-43599">
		<tag k="name" v="Vågavannet" />
		<tag k="natural" v="water" />
		<tag k="ssr:stedsnr" v="625147" />
	</node>
	<node lat="69.9488638854277" lon="20.649886092413123" id="-43605">
		<tag k="name" v="Trollvannet" />
		<tag k="natural" v="water" />
		<tag k="ssr:stedsnr" v="625562" />
	</node>
	<node lat="70.06446388627889" lon="20.646258314849657" id="-43622">
		<tag k="name" v="Storelva" />
		<tag k="ssr:stedsnr" v="627513" />
		<tag k="waterway" v="river" />
	</node>
	<node lat="70.21998610866264" lon="20.66212497663655" id="-43638">
		<tag k="name" v="Hollelva" />
		<tag k="ssr:stedsnr" v="655916" />
		<tag k="waterway" v="stream" />
	</node>
	<node lat="70.04917777695941" lon="20.63068331731742" id="-43670">
		<tag k="name" v="Sandbakkelva" />
		<tag k="ssr:stedsnr" v="655671" />
		<tag k="waterway" v="stream" />
	</node>
	<node lat="69.9438166675158" lon="20.89718885753663" id="-43681">
		<tag k="name" v="Kanalen" />
		<tag k="place" v="locality" />
		<tag k="ssr:stedsnr" v="656155" />
	</node>
	<node lat="69.96459999915122" lon="20.95193053444802" id="-43682">
		<tag k="name" v="Geitelva" />
		<tag k="ssr:stedsnr" v="656176" />
		<tag k="waterway" v="stream" />
	</node>
	<node lat="70.06956666520307" lon="20.872488861551872" id="-43684">
		<tag k="name" v="Storvannet" />
		<tag k="natural" v="water" />
		<tag k="ssr:stedsnr" v="716032" />
	</node>
	<node lat="70.07019722015133" lon="20.877427749661358" id="-43685">
		<tag k="name" v="Sandbakkvannet" />
		<tag k="natural" v="water" />
		<tag k="ssr:stedsnr" v="716033" />
	</node>
	<node lat="70.13337777720368" lon="20.74722497021928" id="-43692">
		<tag k="name" v="Kulielva" />
		<tag k="ssr:stedsnr" v="716231" />
		<tag k="waterway" v="stream" />
	</node>
	<node lat="70.0023888866684" lon="21.035788868644786" id="-43698">
		<tag k="name" v="Leirvågvannet" />
		<tag k="natural" v="water" />
		<tag k="ssr:stedsnr" v="716370" />
	</node>
	<node lat="70.01078332906175" lon="20.93801109917789" id="-43706">
		<tag k="name" v="Čohkkajávri" />
		<tag k="name:se" v="Čohkkajávri" />
		<tag k="natural" v="water" />
		<tag k="ssr:stedsnr" v="717317" />
	</node>
	<node lat="69.94776666657422" lon="20.889905538555773" id="-43716">
		<tag k="name" v="Storvannet" />
		<tag k="natural" v="water" />
		<tag k="ssr:stedsnr" v="717159" />
		<tag k="water" v="lake" />
	</node>
	<node lat="69.94173055628897" lon="20.926588863035413" id="-43717">
		<tag k="name" v="Gammelflåtelva" />
		<tag k="ssr:stedsnr" v="717371" />
		<tag k="waterway" v="stream" />
	</node>
	<node lat="70.09644444893489" lon="20.634291638162008" id="-43725">
		<tag k="name" v="Fosselva" />
		<tag k="ssr:stedsnr" v="747026" />
		<tag k="waterway" v="stream" />
	</node>
	<node lat="70.01240277714298" lon="20.72541388045099" id="-43730">
		<tag k="name" v="Kvalelva" />
		<tag k="ssr:stedsnr" v="747136" />
		<tag k="waterway" v="stream" />
	</node>
	<node lat="69.9880861127803" lon="20.82546665811067" id="-43742">
		<tag k="name" v="Storbuktvannet" />
		<tag k="natural" v="water" />
		<tag k="ssr:stedsnr" v="747594" />
	</node>
	<node lat="69.94080833184297" lon="20.90478054320343" id="-43744">
		<tag k="name" v="Kågelva" />
		<tag k="ssr:stedsnr" v="747555" />
		<tag k="waterway" v="stream" />
	</node>
	<node lat="70.06265555773452" lon="20.696583326634062" id="-43758">
		<tag k="name" v="Nedre Elvedalsvannet" />
		<tag k="natural" v="water" />
		<tag k="ssr:stedsnr" v="758139" />
	</node>
	<node lat="69.9599194495" lon="20.65458886294177" id="-43764">
		<tag k="name" v="Malenavannet" />
		<tag k="natural" v="water" />
		<tag k="ssr:stedsnr" v="776544" />
	</node>
	<node lat="70.11906666610243" lon="20.735597195680434" id="-43768">
		<tag k="name" v="Lillevannet" />
		<tag k="natural" v="water" />
		<tag k="ssr:stedsnr" v="777173" />
	</node>
	<node lat="69.99206389167138" lon="20.998586101370567" id="-43775">
		<tag k="name" v="Holman" />
		<tag k="place" v="islet" />
		<tag k="ssr:stedsnr" v="777817" />
	</node>
	<node lat="70.16199444290531" lon="20.7759194298956" id="-43787">
		<tag k="name" v="Skjærvannet" />
		<tag k="natural" v="water" />
		<tag k="ssr:stedsnr" v="777142" />
	</node>
	<node lat="69.99662499938573" lon="20.974749983433828" id="-43789">
		<tag k="name" v="Enesvannet" />
		<tag k="natural" v="water" />
		<tag k="ssr:stedsnr" v="777338" />
	</node>
	<node lat="70.13108333015452" lon="20.558330548561734" id="-43797">
		<tag k="name" v="Kattdalselva" />
		<tag k="ssr:stedsnr" v="777957" />
		<tag k="waterway" v="stream" />
	</node>
	<node lat="70.12410000200956" lon="20.54142775421031" id="-43804">
		<tag k="loc_name:se" v="Guhkesvuonjohka" />
		<tag k="name" v="Langfjordelva" />
		<tag k="name:no" v="Langfjordelva" />
		<tag k="ssr:stedsnr" v="808044" />
		<tag k="waterway" v="river" />
	</node>
	<node lat="70.1525055534112" lon="20.638422209525626" id="-43805">
		<tag k="name" v="Øver-Laksvannet" />
		<tag k="natural" v="water" />
		<tag k="ssr:stedsnr" v="808001" />
	</node>
	<node lat="70.15831666750127" lon="20.46651664822662" id="-43806">
		<tag k="name" v="Keilevannet" />
		<tag k="natural" v="water" />
		<tag k="ssr:stedsnr" v="808004" />
		<tag k="water" v="lake" />
	</node>
	<node lat="70.11163055240708" lon="20.834502749245406" id="-43810">
		<tag k="name" v="Ytter-Kveitvikvannet" />
		<tag k="natural" v="water" />
		<tag k="ssr:stedsnr" v="808035" />
	</node>
	<node lat="70.01214166615691" lon="20.842591647249108" id="-43821">
		<tag k="name" v="Isbuktvannet" />
		<tag k="natural" v="water" />
		<tag k="ssr:stedsnr" v="808126" />
	</node>
	<node lat="69.85898888695537" lon="20.666969416502393" id="-43833">
		<tag k="name" v="Bakkelva" />
		<tag k="ssr:stedsnr" v="808483" />
		<tag k="waterway" v="river" />
	</node>
	<node lat="70.07735833523135" lon="20.812436093459553" id="-43868">
		<tag k="name" v="Elveneselva" />
		<tag k="ssr:stedsnr" v="838069" />
		<tag k="waterway" v="stream" />
	</node>
	<node lat="70.08777500311258" lon="20.793188874685164" id="-43869">
		<tag k="name" v="Bjørnelva" />
		<tag k="ssr:stedsnr" v="838075" />
		<tag k="waterway" v="stream" />
	</node>
	<node lat="70.04643888680033" lon="20.728169417597396" id="-43871">
		<tag k="name" v="Haugelva" />
		<tag k="ssr:stedsnr" v="838120" />
		<tag k="waterway" v="stream" />
	</node>
	<node lat="70.13026666382699" lon="20.748527746367834" id="-43875">
		<tag k="name" v="Laksevannet" />
		<tag k="natural" v="water" />
		<tag k="ssr:stedsnr" v="838239" />
	</node>
	<node lat="70.16569458365467" lon="20.777376263890048" id="-43876">
		<tag k="name" v="Storvannet" />
		<tag k="natural" v="water" />
		<tag k="ssr:stedsnr" v="838252" />
	</node>
	<node lat="69.96976666488555" lon="20.664027748616498" id="-43881">
		<tag k="name" v="Gammelværelva" />
		<tag k="ssr:stedsnr" v="838617" />
		<tag k="waterway" v="stream" />
	</node>
	<node lat="70.0670249972449" lon="20.648738874797875" id="-43886">
		<tag k="name" v="Sennahollet" />
		<tag k="natural" v="water" />
		<tag k="ssr:stedsnr" v="838797" />
		<tag k="water" v="lake" />
	</node>
	<node lat="70.13768333316968" lon="20.55906108529874" id="-43892">
		<tag k="name" v="Indre Svarttindelva" />
		<tag k="ssr:stedsnr" v="838959" />
		<tag k="waterway" v="stream" />
	</node>
	<node lat="70.18995555968576" lon="20.763744416931278" id="-43893">
		<tag k="name" v="Øvre Sørdalsvannet" />
		<tag k="natural" v="water" />
		<tag k="ssr:stedsnr" v="839121" />
		<tag k="water" v="lake" />
	</node>
	<node lat="70.0954083320167" lon="20.881691641751758" id="-43899">
		<tag k="name" v="Novevannet" />
		<tag k="natural" v="water" />
		<tag k="ssr:stedsnr" v="868186" />
	</node>
	<node lat="70.14417500057614" lon="20.48594442972101" id="-43906">
		<tag k="name" v="Høgtindvannet" />
		<tag k="natural" v="water" />
		<tag k="ssr:stedsnr" v="869013" />
	</node>
	<node lat="70.10396666843603" lon="20.424263861335454" id="-43909">
		<tag k="name" v="Trolldalsvannet" />
		<tag k="natural" v="water" />
		<tag k="ssr:stedsnr" v="869045" />
	</node>
	<node lat="69.86554166763197" lon="20.638569418810846" id="-43916">
		<tag k="fixme" v="multiple name tags, choose one and add the other to alt_name" />
		<tag k="name" v="Laksevannet;Elvevannet" />
		<tag k="natural" v="water" />
		<tag k="ssr:stedsnr" v="869549" />
	</node>
	<node lat="69.99203610942918" lon="20.996691639207565" id="-43921">
		<tag k="name" v="Storvannet" />
		<tag k="natural" v="water" />
		<tag k="ssr:stedsnr" v="869648" />
	</node>
	<node lat="70.076641662953" lon="20.372319432351222" id="-43956">
		<tag k="name" v="Otertjønna" />
		<tag k="natural" v="water" />
		<tag k="ssr:stedsnr" v="958966" />
		<tag k="water" v="pond" />
	</node>
	<node lat="69.99512777838387" lon="21.02786663582937" id="-43965">
		<tag k="name" v="Sivertelva" />
		<tag k="ssr:stedsnr" v="959316" />
		<tag k="waterway" v="stream" />
	</node>
	<node lat="70.07752778070756" lon="20.668861083836813" id="-43970">
		<tag k="name" v="Skarelva" />
		<tag k="ssr:stedsnr" v="959757" />
		<tag k="waterway" v="stream" />
	</node>
	<node lat="70.04996388793128" lon="20.439433303648645" id="-43978">
		<tag k="name" v="Møllelva" />
		<tag k="ssr:stedsnr" v="959882" />
		<tag k="waterway" v="stream" />
	</node>
</osm>
