<?xml version="1.0" encoding="UTF-8"?>
<<<<<<< HEAD
<osm version="0.6" generator="osmapis">
	<node lat="59.401074339415416" lon="10.966186720999529" id="-15097">
		<tag k="alt_name" v="Sjursbråtetjern;Sjursbråtetjern" />
		<tag k="fixme" v="multiple name tags, choose one and add the other to alt_name" />
		<tag k="name" v="Sjursbråtatjerna;Tostentjern" />
=======
<osm generator="osmapis" version="0.6">
	<node id="-243192" lat="59.4011861133" lon="10.8060499945">
		<tag k="name" v="Sundkjeften" />
		<tag k="natural" v="strait" />
		<tag k="ssr:stedsnr" v="235888" />
	</node>
	<node id="-243191" lat="59.404861113" lon="10.8526666605">
		<tag k="alt_name" v="Kreierten nordre" />
		<tag k="name" v="Nordre Kreierten" />
		<tag k="place" v="islet" />
		<tag k="ssr:stedsnr" v="235747" />
	</node>
	<node id="-243190" lat="59.4121416697" lon="10.7919194495">
		<tag k="name" v="Marsholmene" />
		<tag k="place" v="islet" />
		<tag k="ssr:stedsnr" v="235700" />
	</node>
	<node id="-243699" lat="59.4409111105" lon="10.9530305594">
		<tag k="name" v="Flesjøvannet" />
		<tag k="natural" v="water" />
		<tag k="ssr:stedsnr" v="366372" />
	</node>
	<node id="-243692" lat="59.4218595621" lon="10.943777857">
		<tag k="alt_name" v="Røstadtjern;Rødstadtjern" />
		<tag k="fixme" v="multiple name tags, choose one and add the other to alt_name" />
		<tag k="name" v="Røstadtjernet;Vettretjern" />
		<tag k="natural" v="water" />
		<tag k="ssr:stedsnr" v="366334" />
	</node>
	<node id="-243179" lat="59.4685666685" lon="11.0541611158">
		<tag k="name" v="Drøkkenbekken" />
		<tag k="ssr:stedsnr" v="23834" />
		<tag k="waterway" v="stream" />
	</node>
	<node id="-243177" lat="59.496011113" lon="10.8673944399">
		<tag k="name" v="Folkestadbekken" />
		<tag k="ssr:stedsnr" v="23809" />
		<tag k="waterway" v="stream" />
	</node>
	<node id="-243688" lat="59.4023527749" lon="10.8014805544">
		<tag k="name" v="Furuholmen" />
		<tag k="place" v="islet" />
		<tag k="ssr:stedsnr" v="356869" />
	</node>
	<node id="-243686" lat="59.4112666689" lon="10.8227444493">
		<tag k="name" v="Kjærnestangen" />
		<tag k="natural" v="cape" />
		<tag k="ssr:stedsnr" v="356664" />
	</node>
	<node id="-243685" lat="59.4175138877" lon="10.8074666634">
		<tag k="name" v="Marikova" />
		<tag k="natural" v="bay" />
		<tag k="ssr:stedsnr" v="356660" />
	</node>
	<node id="-243668" lat="59.4860611155" lon="11.000527779">
		<tag k="alt_name" v="Ulfsrødtjern" />
		<tag k="name" v="Ulfsrødtjernet" />
		<tag k="natural" v="water" />
		<tag k="ssr:stedsnr" v="306666" />
	</node>
	<node id="-243651" lat="59.4074888851" lon="10.7922805512">
		<tag k="name" v="Store Tømmerøya" />
		<tag k="place" v="island" />
		<tag k="ssr:stedsnr" v="205892" />
	</node>
	<node id="-243650" lat="59.3994416669" lon="10.8213944447">
		<tag k="name" v="Virebukt" />
		<tag k="natural" v="bay" />
		<tag k="ssr:stedsnr" v="205891" />
	</node>
	<node id="-243647" lat="59.3993055549" lon="10.8785555593">
		<tag k="name" v="Tellebergsund" />
		<tag k="natural" v="strait" />
		<tag k="ssr:stedsnr" v="205875" />
	</node>
	<node id="-243646" lat="59.4435194466" lon="10.9251416642">
		<tag k="name" v="Høljeren" />
		<tag k="natural" v="water" />
		<tag k="ssr:stedsnr" v="205874" />
	</node>
	<node id="-243644" lat="59.479235173" lon="11.0718350904">
		<tag k="name" v="Svarttjern" />
>>>>>>> e1d4bc35ff8a6074a6f2e91616a996b547c36f15
		<tag k="natural" v="water" />
		<tag k="ssr:stedsnr" v="2331" />
	</node>
<<<<<<< HEAD
	<node lat="59.397430559902325" lon="11.045497222742407" id="-15098">
		<tag k="alt_name" v="Fisketjern" />
		<tag k="name" v="Fisketjernet" />
=======
	<node id="-243634" lat="59.4875527788" lon="11.0626916739">
		<tag k="name" v="Svarttjernet" />
>>>>>>> e1d4bc35ff8a6074a6f2e91616a996b547c36f15
		<tag k="natural" v="water" />
		<tag k="ssr:stedsnr" v="2334" />
	</node>
<<<<<<< HEAD
	<node lat="59.48102500217721" lon="11.046316658844793" id="-15108">
		<tag k="alt_name" v="Igletjern" />
		<tag k="name" v="Igletjernet" />
=======
	<node id="-243633" lat="59.4986861069" lon="11.0531666652">
		<tag k="alt_name" v="Bergsjøtjern" />
		<tag k="name" v="Bergsjøtjernet" />
>>>>>>> e1d4bc35ff8a6074a6f2e91616a996b547c36f15
		<tag k="natural" v="water" />
		<tag k="ssr:stedsnr" v="3684" />
	</node>
<<<<<<< HEAD
	<node lat="59.40995546683962" lon="10.89462157447437" id="-15114">
		<tag k="alt_name" v="Tomnøya" />
		<tag k="name" v="Tombøya" />
		<tag k="place" v="island" />
		<tag k="ssr:stedsnr" v="23795" />
	</node>
	<node lat="59.49601111299518" lon="10.867394439855072" id="-15115">
		<tag k="name" v="Folkestadbekken" />
		<tag k="ssr:stedsnr" v="23809" />
		<tag k="waterway" v="stream" />
	</node>
	<node lat="59.51563888767779" lon="10.947966657817563" id="-15116">
		<tag k="name" v="Brårødelva" />
		<tag k="ssr:stedsnr" v="23882" />
		<tag k="waterway" v="river" />
	</node>
	<node lat="59.41214166966622" lon="10.791919449486677" id="-15122">
		<tag k="name" v="Marsholmene" />
		<tag k="place" v="islet" />
		<tag k="ssr:stedsnr" v="235700" />
	</node>
	<node lat="59.40486111302344" lon="10.852666660514746" id="-15123">
		<tag k="alt_name" v="Kreierten nordre" />
		<tag k="name" v="Nordre Kreierten" />
=======
	<node id="-243631" lat="59.4520333368" lon="10.7862500019">
		<tag k="alt_name" v="Sperbundbukta" />
		<tag k="loc_name" v="Sperrebunnbukta" />
		<tag k="name" v="Sperrebotn" />
		<tag k="natural" v="bay" />
		<tag k="ssr:stedsnr" v="184379" />
	</node>
	<node id="-243630" lat="59.4506444485" lon="10.9054444524">
		<tag k="name" v="Tiurøya" />
		<tag k="place" v="islet" />
		<tag k="ssr:stedsnr" v="184369" />
	</node>
	<node id="-243628" lat="59.443694444" lon="10.8926249944">
		<tag k="alt_name" v="Rosfjorden" />
		<tag k="name" v="Rosefjorden" />
		<tag k="natural" v="bay" />
		<tag k="ssr:stedsnr" v="184366" />
	</node>
	<node id="-243625" lat="59.4027399151" lon="11.0006632803">
		<tag k="alt_name" v="Ravnsjø" />
		<tag k="name" v="Ravnsjøen" />
		<tag k="natural" v="water" />
		<tag k="ssr:stedsnr" v="184307" />
	</node>
	<node id="-243621" lat="59.399594443" lon="10.8471666662">
		<tag k="alt_name" v="Kreierten søndre" />
		<tag k="name" v="Søndre Kreierten" />
>>>>>>> e1d4bc35ff8a6074a6f2e91616a996b547c36f15
		<tag k="place" v="islet" />
		<tag k="ssr:stedsnr" v="235747" />
	</node>
<<<<<<< HEAD
	<node lat="59.40118611327866" lon="10.806049994492625" id="-15124">
		<tag k="name" v="Sundkjeften" />
		<tag k="natural" v="strait" />
		<tag k="ssr:stedsnr" v="235888" />
	</node>
	<node lat="59.38721666771556" lon="10.855947216039265" id="-15130">
		<tag k="alt_name" v="Vannsjø" />
		<tag k="name" v="Vansjø" />
		<tag k="natural" v="water" />
		<tag k="ssr:stedsnr" v="63316" />
		<tag k="water" v="lake" />
	</node>
	<node lat="59.42863055232574" lon="10.982277769407226" id="-15131">
		<tag k="name" v="Sæbyvannet" />
=======
	<node id="-243782" lat="59.4029972218" lon="10.7978499938">
		<tag k="name" v="Åboren" />
		<tag k="place" v="islet" />
		<tag k="ssr:stedsnr" v="598865" />
	</node>
	<node id="-243617" lat="59.4603277789" lon="10.9044777739">
		<tag k="name" v="Haugerelva" />
		<tag k="ssr:stedsnr" v="173456" />
		<tag k="waterway" v="river" />
	</node>
	<node id="-243610" lat="59.4686138862" lon="11.0627361181">
		<tag k="name" v="Tjernøyet" />
>>>>>>> e1d4bc35ff8a6074a6f2e91616a996b547c36f15
		<tag k="natural" v="water" />
		<tag k="ssr:stedsnr" v="63367" />
		<tag k="water" v="lake" />
	</node>
<<<<<<< HEAD
	<node lat="59.39823889003276" lon="10.870850004725696" id="-15158">
		<tag k="name" v="Østenrødøya" />
		<tag k="place" v="island" />
		<tag k="ssr:stedsnr" v="245296" />
	</node>
	<node lat="59.42671666504484" lon="11.030925007437231" id="-15160">
		<tag k="name" v="Svinna" />
		<tag k="ssr:stedsnr" v="245327" />
		<tag k="waterway" v="stream" />
	</node>
	<node lat="59.51064722329339" lon="11.016224998721102" id="-15168">
		<tag k="name" v="Muskedalstjernet" />
=======
	<node id="-243609" lat="59.4357166693" lon="11.0688472223">
		<tag k="name" v="Kirkerødbekken" />
		<tag k="ssr:stedsnr" v="144795" />
		<tag k="waterway" v="stream" />
	</node>
	<node id="-243605" lat="59.4047222181" lon="11.0819499922">
		<tag k="alt_name" v="Svartetjern" />
		<tag k="name" v="Svarttjernet" />
>>>>>>> e1d4bc35ff8a6074a6f2e91616a996b547c36f15
		<tag k="natural" v="water" />
		<tag k="ssr:stedsnr" v="246086" />
	</node>
	<node lat="59.41874722084422" lon="10.811161110940203" id="-15174">
		<tag k="name" v="Jonsholmen" />
		<tag k="natural" v="cape" />
		<tag k="ssr:stedsnr" v="114672" />
	</node>
	<node lat="59.411266662380356" lon="10.796736108106586" id="-15175">
		<tag k="name" v="Lille Tømmerøya" />
		<tag k="place" v="island" />
		<tag k="ssr:stedsnr" v="114677" />
	</node>
<<<<<<< HEAD
	<node lat="59.44522777520363" lon="10.843849993191771" id="-15177">
=======
	<node id="-243598" lat="59.4452277752" lon="10.8438499932">
>>>>>>> e1d4bc35ff8a6074a6f2e91616a996b547c36f15
		<tag k="name" v="Hobølelva" />
		<tag k="ssr:stedsnr" v="123762" />
		<tag k="waterway" v="river" />
	</node>
<<<<<<< HEAD
	<node lat="59.43381110971877" lon="10.802263890621544" id="-15178">
		<tag k="alt_name" v="Brønnerødtjernet" />
		<tag k="name" v="Brønnerødtjern" />
		<tag k="natural" v="water" />
		<tag k="ssr:stedsnr" v="124306" />
	</node>
	<node lat="59.40472221810309" lon="11.081949992161746" id="-15188">
		<tag k="alt_name" v="Svartetjern" />
		<tag k="name" v="Svarttjernet" />
		<tag k="natural" v="water" />
		<tag k="ssr:stedsnr" v="130781" />
	</node>
	<node lat="59.46032777892638" lon="10.904477773923539" id="-15191">
		<tag k="name" v="Haugerelva" />
		<tag k="ssr:stedsnr" v="173456" />
		<tag k="waterway" v="river" />
	</node>
	<node lat="59.49868610685159" lon="11.05316666519272" id="-15198">
		<tag k="alt_name" v="Bergsjøtjern" />
		<tag k="name" v="Bergsjøtjernet" />
		<tag k="natural" v="water" />
		<tag k="ssr:stedsnr" v="185634" />
	</node>
	<node lat="59.499972220136655" lon="10.970969450890433" id="-15199">
		<tag k="name" v="Kasteneset" />
=======
	<node id="-243597" lat="59.4724916657" lon="11.0744666741">
		<tag k="alt_name" v="Langetjern" />
		<tag k="name" v="Langtjernet" />
		<tag k="natural" v="water" />
		<tag k="ssr:stedsnr" v="123750" />
	</node>
	<node id="-243590" lat="59.4049611073" lon="10.8136861115">
		<tag k="name" v="Båtålen" />
		<tag k="natural" v="strait" />
		<tag k="ssr:stedsnr" v="114885" />
	</node>
	<node id="-243589" lat="59.4112666624" lon="10.7967361081">
		<tag k="name" v="Lille Tømmerøya" />
		<tag k="place" v="island" />
		<tag k="ssr:stedsnr" v="114677" />
	</node>
	<node id="-243588" lat="59.4187472208" lon="10.8111611109">
		<tag k="name" v="Jonsholmen" />
		<tag k="natural" v="cape" />
		<tag k="ssr:stedsnr" v="114672" />
	</node>
	<node id="-243586" lat="59.4554583377" lon="10.9670861032">
		<tag k="name" v="Spjøterbekken" />
		<tag k="ssr:stedsnr" v="114156" />
		<tag k="waterway" v="stream" />
	</node>
	<node id="-243585" lat="59.4486194413" lon="10.9090222281">
		<tag k="name" v="Neset" />
>>>>>>> e1d4bc35ff8a6074a6f2e91616a996b547c36f15
		<tag k="natural" v="cape" />
		<tag k="ssr:stedsnr" v="264964" />
	</node>
<<<<<<< HEAD
	<node lat="59.41504166847423" lon="10.851922229618728" id="-15201">
		<tag k="name" v="Gjeddesund" />
		<tag k="natural" v="strait" />
		<tag k="ssr:stedsnr" v="266752" />
	</node>
	<node lat="59.43871944589214" lon="11.02268333718318" id="-15206">
		<tag k="name" v="Huklabekken" />
		<tag k="ssr:stedsnr" v="266828" />
		<tag k="waterway" v="stream" />
	</node>
	<node lat="59.39944166691082" lon="10.821394444663786" id="-15215">
		<tag k="name" v="Virebukt" />
		<tag k="natural" v="bay" />
		<tag k="ssr:stedsnr" v="205891" />
	</node>
	<node lat="59.4074888850838" lon="10.792280551171828" id="-15216">
		<tag k="name" v="Store Tømmerøya" />
		<tag k="place" v="island" />
		<tag k="ssr:stedsnr" v="205892" />
	</node>
	<node lat="59.49168889030508" lon="11.004983328383739" id="-15227">
		<tag k="name" v="Fløterbekken" />
		<tag k="ssr:stedsnr" v="264938" />
		<tag k="waterway" v="stream" />
	</node>
	<node lat="59.49410555460661" lon="11.047941661925282" id="-15231">
		<tag k="name" v="Slora" />
		<tag k="ssr:stedsnr" v="266818" />
		<tag k="waterway" v="river" />
	</node>
	<node lat="59.44156110857899" lon="10.947388884812067" id="-15237">
		<tag k="name" v="Klypa" />
		<tag k="place" v="locality" />
		<tag k="ssr:stedsnr" v="295528" />
	</node>
	<node lat="59.4337194406968" lon="10.888783341634335" id="-15248">
		<tag k="name" v="Angelsprett" />
		<tag k="place" v="island" />
		<tag k="ssr:stedsnr" v="327723" />
	</node>
	<node lat="59.417513887693545" lon="10.807466663365869" id="-15252">
		<tag k="name" v="Marikova" />
		<tag k="natural" v="bay" />
		<tag k="ssr:stedsnr" v="356660" />
	</node>
	<node lat="59.4112666688771" lon="10.822744449262032" id="-15253">
		<tag k="name" v="Kjærnestangen" />
		<tag k="natural" v="cape" />
		<tag k="ssr:stedsnr" v="356664" />
	</node>
	<node lat="59.421859562087114" lon="10.94377785696036" id="-15259">
		<tag k="alt_name" v="Røstadtjern;Rødstadtjern" />
		<tag k="fixme" v="multiple name tags, choose one and add the other to alt_name" />
		<tag k="name" v="Røstadtjernet;Vettretjern" />
		<tag k="natural" v="water" />
		<tag k="ssr:stedsnr" v="366334" />
	</node>
	<node lat="59.41864999688685" lon="11.10097499412458" id="-15267">
		<tag k="alt_name" v="Rusviktjern" />
		<tag k="name" v="Rusviktjernet" />
=======
	<node id="-243565" lat="59.4286305523" lon="10.9822777694">
		<tag k="name" v="Sæbyvannet" />
		<tag k="natural" v="water" />
		<tag k="ssr:stedsnr" v="63367" />
		<tag k="water" v="lake" />
	</node>
	<node id="-243562" lat="59.3872166677" lon="10.855947216">
		<tag k="alt_name" v="Vannsjø" />
		<tag k="name" v="Vansjø" />
		<tag k="natural" v="water" />
		<tag k="ssr:stedsnr" v="63316" />
		<tag k="water" v="lake" />
	</node>
	<node id="-243561" lat="59.4069277737" lon="10.7868888902">
		<tag k="name" v="Mjøsund" />
		<tag k="natural" v="strait" />
		<tag k="ssr:stedsnr" v="53899" />
	</node>
	<node id="-243560" lat="59.3984666698" lon="10.8265833291">
		<tag k="name" v="Haratangen" />
		<tag k="natural" v="cape" />
		<tag k="ssr:stedsnr" v="53894" />
	</node>
	<node id="-243558" lat="59.4407138861" lon="10.9773416594">
		<tag k="name" v="Engsbekken" />
		<tag k="ssr:stedsnr" v="53533" />
		<tag k="waterway" v="stream" />
	</node>
	<node id="-243557" lat="59.3981170751" lon="10.9539281474">
		<tag k="name" v="Vetretjerna" />
		<tag k="natural" v="water" />
		<tag k="ssr:stedsnr" v="53558" />
		<tag k="water" v="lake" />
	</node>
	<node id="-243174" lat="59.4810250022" lon="11.0463166588">
		<tag k="alt_name" v="Igletjern" />
		<tag k="name" v="Igletjernet" />
		<tag k="natural" v="water" />
		<tag k="ssr:stedsnr" v="3684" />
	</node>
	<node id="-243548" lat="59.5156388877" lon="10.9479666578">
		<tag k="name" v="Brårødelva" />
		<tag k="ssr:stedsnr" v="23882" />
		<tag k="waterway" v="river" />
	</node>
	<node id="-243545" lat="59.4096777742" lon="10.8936944527">
		<tag k="alt_name" v="Tomnøya" />
		<tag k="name" v="Tombøya" />
		<tag k="place" v="island" />
		<tag k="ssr:stedsnr" v="23795" />
	</node>
	<node id="-243541" lat="59.4991805569" lon="10.8700472277">
		<tag k="name" v="Potetbråten" />
		<tag k="place" v="islet" />
		<tag k="ssr:stedsnr" v="22872" />
	</node>
	<node id="-243524" lat="59.3974305599" lon="11.0454972227">
		<tag k="alt_name" v="Fisketjern" />
		<tag k="name" v="Fisketjernet" />
>>>>>>> e1d4bc35ff8a6074a6f2e91616a996b547c36f15
		<tag k="natural" v="water" />
		<tag k="ssr:stedsnr" v="487118" />
	</node>
<<<<<<< HEAD
	<node lat="59.39433996495953" lon="11.035332354880993" id="-15268">
=======
	<node id="-243523" lat="59.4010743394" lon="10.966186721">
		<tag k="alt_name" v="Sjursbråtetjern;Sjursbråtetjern" />
>>>>>>> e1d4bc35ff8a6074a6f2e91616a996b547c36f15
		<tag k="fixme" v="multiple name tags, choose one and add the other to alt_name" />
		<tag k="name" v="Vasstvettjernet;Agnalttjern" />
		<tag k="natural" v="water" />
		<tag k="ssr:stedsnr" v="487327" />
	</node>
<<<<<<< HEAD
	<node lat="59.41152499668521" lon="10.874105549677434" id="-15269">
		<tag k="name" v="Dyrholmene" />
		<tag k="place" v="islet" />
		<tag k="ssr:stedsnr" v="487336" />
	</node>
	<node lat="59.461844444064305" lon="10.765363889805727" id="-15273">
		<tag k="alt_name" v="Rødsund" />
		<tag k="name" v="Rødsundet" />
		<tag k="natural" v="strait" />
		<tag k="ssr:stedsnr" v="487767" />
	</node>
	<node lat="59.40859722229518" lon="10.820786105019092" id="-15278">
		<tag k="name" v="Holmefjorden" />
=======
	<node id="-243519" lat="59.431783331" lon="10.8083749992">
		<tag k="name" v="Brønnerødbekken" />
		<tag k="ssr:stedsnr" v="934827" />
		<tag k="waterway" v="stream" />
	</node>
	<node id="-243793" lat="59.5299388912" lon="10.9168249948">
		<tag k="alt_name" v="Veidalelva" />
		<tag k="name" v="Veidalselva" />
		<tag k="ssr:stedsnr" v="611056" />
		<tag k="waterway" v="stream" />
	</node>
	<node id="-243499" lat="59.4125388886" lon="11.0767555494">
		<tag k="alt_name" v="Sverigetjern" />
		<tag k="name" v="Sverigetjernet" />
		<tag k="natural" v="water" />
		<tag k="ssr:stedsnr" v="852326" />
	</node>
	<node id="-243498" lat="59.404227776" lon="11.050877779">
		<tag k="alt_name" v="Svarttjern" />
		<tag k="name" v="Svarttjernet" />
>>>>>>> e1d4bc35ff8a6074a6f2e91616a996b547c36f15
		<tag k="natural" v="water" />
		<tag k="ssr:stedsnr" v="417706" />
	</node>
<<<<<<< HEAD
	<node lat="59.49290278179255" lon="11.031383326781091" id="-15282">
		<tag k="alt_name" v="Moertjern" />
		<tag k="name" v="Moatjernet" />
=======
	<node id="-243483" lat="59.4054111151" lon="10.9709138831">
		<tag k="name" v="Sjurebråtetjern" />
>>>>>>> e1d4bc35ff8a6074a6f2e91616a996b547c36f15
		<tag k="natural" v="water" />
		<tag k="ssr:stedsnr" v="488677" />
	</node>
<<<<<<< HEAD
	<node lat="59.43030555925352" lon="10.827713894660192" id="-15288">
		<tag k="name" v="Grepperødfjorden" />
=======
	<node id="-243481" lat="59.4171888878" lon="10.993258325">
		<tag k="name" v="Sæbybunn" />
>>>>>>> e1d4bc35ff8a6074a6f2e91616a996b547c36f15
		<tag k="natural" v="bay" />
		<tag k="ssr:stedsnr" v="427373" />
	</node>
<<<<<<< HEAD
	<node lat="59.52816944549124" lon="10.979169443950495" id="-15306">
		<tag k="name" v="Nordmørkelva" />
		<tag k="ssr:stedsnr" v="448826" />
		<tag k="waterway" v="stream" />
	</node>
	<node lat="59.4153444481231" lon="10.803877776024544" id="-15317">
		<tag k="name" v="Ramsund" />
		<tag k="natural" v="strait" />
		<tag k="ssr:stedsnr" v="478660" />
	</node>
	<node lat="59.480252781410705" lon="11.056775002934309" id="-15323">
		<tag k="name" v="Morttjernet" />
		<tag k="natural" v="water" />
		<tag k="ssr:stedsnr" v="488699" />
	</node>
	<node lat="59.41417778186152" lon="10.802461117661036" id="-15339">
		<tag k="name" v="Kuholmen" />
=======
	<node id="-243474" lat="59.4801491007" lon="11.064956002">
		<tag k="name" v="Blektjernet" />
		<tag k="natural" v="water" />
		<tag k="ssr:stedsnr" v="913681" />
	</node>
	<node id="-243462" lat="59.4213527821" lon="10.8828972307">
		<tag k="name" v="Gressøya" />
		<tag k="place" v="island" />
		<tag k="ssr:stedsnr" v="912342" />
	</node>
	<node id="-243461" lat="59.4182055552" lon="10.8601944496">
		<tag k="name" v="Groholmen" />
>>>>>>> e1d4bc35ff8a6074a6f2e91616a996b547c36f15
		<tag k="place" v="islet" />
		<tag k="ssr:stedsnr" v="538665" />
	</node>
<<<<<<< HEAD
	<node lat="59.445852779888156" lon="10.860275008062857" id="-15348">
		<tag k="name" v="Skirødbekken" />
		<tag k="ssr:stedsnr" v="691750" />
		<tag k="waterway" v="stream" />
	</node>
	<node lat="59.44979999802391" lon="10.9137250053304" id="-15349">
		<tag k="name" v="Nesfossen" />
		<tag k="natural" v="waterfall" />
		<tag k="ssr:stedsnr" v="691751" />
	</node>
	<node lat="59.48899999762708" lon="10.921499992163234" id="-15356">
		<tag k="name" v="Nordbyelva" />
		<tag k="ssr:stedsnr" v="568878" />
		<tag k="waterway" v="river" />
	</node>
	<node lat="59.49970000081142" lon="10.957205561922402" id="-15369">
		<tag k="alt_name" v="Femtegjelbekken" />
		<tag k="name" v="Femtegjeldbekken" />
		<tag k="ssr:stedsnr" v="628949" />
		<tag k="waterway" v="stream" />
	</node>
	<node lat="59.5288916667121" lon="10.838944435746022" id="-15371">
		<tag k="name" v="Kurefossen" />
		<tag k="natural" v="waterfall" />
		<tag k="ssr:stedsnr" v="630813" />
	</node>
	<node lat="59.477236112447876" lon="11.072302781807396" id="-15372">
		<tag k="name" v="Streperthølet" />
=======
	<node id="-243458" lat="59.4967388896" lon="10.9845833399">
		<tag k="name" v="Svartebekk" />
		<tag k="ssr:stedsnr" v="750939" />
		<tag k="waterway" v="stream" />
	</node>
	<node id="-243456" lat="59.412555557" lon="10.8146388839">
		<tag k="name" v="Brattholmen" />
		<tag k="natural" v="cape" />
		<tag k="ssr:stedsnr" v="903643" />
	</node>
	<node id="-243453" lat="59.4153166691" lon="10.8124583294">
		<tag k="name" v="Svalahella" />
		<tag k="natural" v="cape" />
		<tag k="ssr:stedsnr" v="901550" />
	</node>
	<node id="-243444" lat="59.4455222212" lon="10.8484527727">
		<tag k="alt_name" v="Bjørnrødvannet" />
		<tag k="name" v="Bjørnrødvann" />
		<tag k="natural" v="water" />
		<tag k="ssr:stedsnr" v="731328" />
	</node>
	<node id="-243443" lat="59.4501333329" lon="10.8896305501">
		<tag k="name" v="Kilebukta" />
>>>>>>> e1d4bc35ff8a6074a6f2e91616a996b547c36f15
		<tag k="natural" v="bay" />
		<tag k="ssr:stedsnr" v="630817" />
	</node>
<<<<<<< HEAD
	<node lat="59.40711389140891" lon="10.809238882953712" id="-15375">
		<tag k="name" v="Bliksøya" />
		<tag k="place" v="island" />
		<tag k="ssr:stedsnr" v="630797" />
	</node>
	<node lat="59.406291664823584" lon="10.799238895326843" id="-15378">
=======
	<node id="-243437" lat="59.4062916648" lon="10.7992388953">
>>>>>>> e1d4bc35ff8a6074a6f2e91616a996b547c36f15
		<tag k="name" v="Vaktmesteren" />
		<tag k="place" v="islet" />
		<tag k="ssr:stedsnr" v="659891" />
	</node>
<<<<<<< HEAD
	<node lat="59.45634589493818" lon="11.009148517223693" id="-15386">
		<tag k="name" v="Bråtatjerna" />
		<tag k="natural" v="water" />
		<tag k="ssr:stedsnr" v="670722" />
		<tag k="water" v="lake" />
	</node>
	<node lat="59.450133332940055" lon="10.88963055013024" id="-15398">
		<tag k="name" v="Kilebukta" />
		<tag k="natural" v="bay" />
		<tag k="ssr:stedsnr" v="731322" />
	</node>
	<node lat="59.44552222124963" lon="10.848452772708345" id="-15399">
		<tag k="alt_name" v="Bjørnrødvannet" />
		<tag k="name" v="Bjørnrødvann" />
=======
	<node id="-243433" lat="59.4222944421" lon="10.98181944">
		<tag k="name" v="Ertnestangen" />
		<tag k="natural" v="cape" />
		<tag k="ssr:stedsnr" v="659521" />
	</node>
	<node id="-243425" lat="59.48623611" lon="10.994975006">
		<tag k="alt_name" v="Solbergtjern" />
		<tag k="name" v="Solbergtjernet" />
>>>>>>> e1d4bc35ff8a6074a6f2e91616a996b547c36f15
		<tag k="natural" v="water" />
		<tag k="ssr:stedsnr" v="731328" />
	</node>
<<<<<<< HEAD
	<node lat="59.481383335677016" lon="10.782838885113916" id="-15400">
=======
	<node id="-243424" lat="59.4813833357" lon="10.7828388851">
>>>>>>> e1d4bc35ff8a6074a6f2e91616a996b547c36f15
		<tag k="name" v="Lødengfjorden" />
		<tag k="natural" v="bay" />
		<tag k="ssr:stedsnr" v="731657" />
	</node>
<<<<<<< HEAD
	<node lat="59.48623611004194" lon="10.994975006010991" id="-15401">
		<tag k="alt_name" v="Solbergtjern" />
		<tag k="name" v="Solbergtjernet" />
=======
	<node id="-243423" lat="59.4973611147" lon="10.7876333367">
		<tag k="name" v="Lødengtjernet" />
>>>>>>> e1d4bc35ff8a6074a6f2e91616a996b547c36f15
		<tag k="natural" v="water" />
		<tag k="ssr:stedsnr" v="731665" />
	</node>
<<<<<<< HEAD
	<node lat="59.41255555703388" lon="10.814638883936702" id="-15417">
		<tag k="name" v="Brattholmen" />
		<tag k="natural" v="cape" />
		<tag k="ssr:stedsnr" v="903643" />
	</node>
	<node lat="59.49673888959778" lon="10.984583339881612" id="-15419">
		<tag k="name" v="Svartebekk" />
		<tag k="ssr:stedsnr" v="750939" />
		<tag k="waterway" v="stream" />
	</node>
	<node lat="59.41936757551772" lon="10.879602963802775" id="-15432">
		<tag k="name" v="Gressøya" />
		<tag k="place" v="island" />
		<tag k="ssr:stedsnr" v="912342" />
	</node>
	<node lat="59.39829166508204" lon="10.853433340888555" id="-15444">
		<tag k="name" v="Paradisbukta" />
		<tag k="natural" v="bay" />
		<tag k="ssr:stedsnr" v="812782" />
	</node>
	<node lat="59.45733611202582" lon="11.01007500302685" id="-15448">
=======
	<node id="-243408" lat="59.410594446" lon="10.7960500004">
		<tag k="name" v="Veslenaveren" />
		<tag k="natural" v="strait" />
		<tag k="ssr:stedsnr" v="721642" />
	</node>
	<node id="-243404" lat="59.4553805552" lon="11.0082277792">
>>>>>>> e1d4bc35ff8a6074a6f2e91616a996b547c36f15
		<tag k="name" v="Bråtetjern" />
		<tag k="natural" v="water" />
		<tag k="ssr:stedsnr" v="842082" />
	</node>
<<<<<<< HEAD
	<node lat="59.43178333101725" lon="10.808374999206812" id="-15465">
		<tag k="name" v="Brønnerødbekken" />
		<tag k="ssr:stedsnr" v="934827" />
		<tag k="waterway" v="stream" />
	</node>
	<node lat="59.41531666910314" lon="10.812458329351754" id="-15466">
		<tag k="name" v="Svalahella" />
		<tag k="natural" v="cape" />
		<tag k="ssr:stedsnr" v="901550" />
	</node>
	<node lat="59.41820555523434" lon="10.860194449552097" id="-15470">
		<tag k="name" v="Groholmen" />
		<tag k="place" v="islet" />
		<tag k="ssr:stedsnr" v="912341" />
	</node>
	<node lat="59.48014910071793" lon="11.064956002001676" id="-15476">
		<tag k="name" v="Blektjernet" />
=======
	<node id="-243401" lat="59.4717916658" lon="10.8975833387">
		<tag k="name" v="Haugerelva" />
		<tag k="ssr:stedsnr" v="598583" />
		<tag k="waterway" v="river" />
	</node>
	<node id="-243390" lat="59.449799998" lon="10.9137250053">
		<tag k="name" v="Nesfossen" />
		<tag k="natural" v="waterfall" />
		<tag k="ssr:stedsnr" v="691751" />
	</node>
	<node id="-243389" lat="59.4458527799" lon="10.8602750081">
		<tag k="name" v="Skirødbekken" />
		<tag k="ssr:stedsnr" v="691750" />
		<tag k="waterway" v="stream" />
	</node>
	<node id="-243378" lat="59.4186499969" lon="11.1009749941">
		<tag k="alt_name" v="Rusviktjern" />
		<tag k="name" v="Rusviktjernet" />
>>>>>>> e1d4bc35ff8a6074a6f2e91616a996b547c36f15
		<tag k="natural" v="water" />
		<tag k="ssr:stedsnr" v="913681" />
	</node>
<<<<<<< HEAD
	<node lat="59.49918055692625" lon="10.870047227705747" id="-15498">
		<tag k="name" v="Potetbråten" />
		<tag k="place" v="islet" />
		<tag k="ssr:stedsnr" v="22872" />
	</node>
	<node lat="59.46856666853996" lon="11.054161115820897" id="-15499">
		<tag k="name" v="Drøkkenbekken" />
		<tag k="ssr:stedsnr" v="23834" />
		<tag k="waterway" v="stream" />
	</node>
	<node lat="59.44071388613431" lon="10.97734165936769" id="-15508">
		<tag k="name" v="Engsbekken" />
		<tag k="ssr:stedsnr" v="53533" />
		<tag k="waterway" v="stream" />
	</node>
	<node lat="59.398117075142075" lon="10.9539281474322" id="-15510">
		<tag k="name" v="Vetretjerna" />
=======
	<node id="-243376" lat="59.4153444481" lon="10.803877776">
		<tag k="name" v="Ramsund" />
		<tag k="natural" v="strait" />
		<tag k="ssr:stedsnr" v="478660" />
	</node>
	<node id="-243365" lat="59.4563458949" lon="11.0091485172">
		<tag k="name" v="Bråtatjerna" />
>>>>>>> e1d4bc35ff8a6074a6f2e91616a996b547c36f15
		<tag k="natural" v="water" />
		<tag k="ssr:stedsnr" v="53558" />
		<tag k="water" v="lake" />
	</node>
<<<<<<< HEAD
	<node lat="59.3984666698192" lon="10.826583329141728" id="-15513">
		<tag k="name" v="Haratangen" />
		<tag k="natural" v="cape" />
		<tag k="ssr:stedsnr" v="53894" />
	</node>
	<node lat="59.40692777365798" lon="10.786888890242093" id="-15514">
		<tag k="name" v="Mjøsund" />
		<tag k="natural" v="strait" />
		<tag k="ssr:stedsnr" v="53899" />
	</node>
	<node lat="59.44861944129134" lon="10.909022228077779" id="-15527">
		<tag k="name" v="Neset" />
		<tag k="natural" v="cape" />
		<tag k="ssr:stedsnr" v="113498" />
	</node>
	<node lat="59.4554583377009" lon="10.96708610324547" id="-15528">
		<tag k="name" v="Spjøterbekken" />
		<tag k="ssr:stedsnr" v="114156" />
		<tag k="waterway" v="stream" />
	</node>
	<node lat="59.41189444360865" lon="10.84950833117" id="-15529">
		<tag k="name" v="Brasenbogen" />
		<tag k="natural" v="bay" />
		<tag k="ssr:stedsnr" v="114735" />
	</node>
	<node lat="59.4049611072807" lon="10.81368611147186" id="-15530">
		<tag k="name" v="Båtålen" />
		<tag k="natural" v="strait" />
		<tag k="ssr:stedsnr" v="114885" />
	</node>
	<node lat="59.47249166569198" lon="11.074466674120247" id="-15540">
		<tag k="alt_name" v="Langetjern" />
		<tag k="name" v="Langtjernet" />
=======
	<node id="-243355" lat="59.4009111081" lon="10.8544777827">
		<tag k="name" v="Gudøya" />
		<tag k="place" v="islet" />
		<tag k="ssr:stedsnr" v="669282" />
	</node>
	<node id="-243354" lat="59.4075249981" lon="10.7925333287">
		<tag k="name" v="Tømmerøya" />
		<tag k="place" v="islet" />
		<tag k="ssr:stedsnr" v="669281" />
	</node>
	<node id="-243344" lat="59.5281694455" lon="10.979169444">
		<tag k="name" v="Nordmørkelva" />
		<tag k="ssr:stedsnr" v="448826" />
		<tag k="waterway" v="stream" />
	</node>
	<node id="-243337" lat="59.5305777756" lon="10.8810999922">
		<tag k="alt_name" v="Askerødtjern" />
		<tag k="name" v="Askerødtjernet" />
		<tag k="natural" v="water" />
		<tag k="ssr:stedsnr" v="429009" />
	</node>
	<node id="-243330" lat="59.4085972223" lon="10.820786105">
		<tag k="name" v="Holmefjorden" />
>>>>>>> e1d4bc35ff8a6074a6f2e91616a996b547c36f15
		<tag k="natural" v="water" />
		<tag k="ssr:stedsnr" v="123750" />
	</node>
<<<<<<< HEAD
	<node lat="59.4357166692601" lon="11.068847222299318" id="-15543">
		<tag k="name" v="Kirkerødbekken" />
		<tag k="ssr:stedsnr" v="144795" />
		<tag k="waterway" v="stream" />
	</node>
	<node lat="59.46861388620102" lon="11.062736118126992" id="-15544">
		<tag k="name" v="Tjernøyet" />
=======
	<node id="-243841" lat="59.4847555529" lon="10.8744194409">
		<tag k="name" v="Kirkeelva" />
		<tag k="ssr:stedsnr" v="842641" />
		<tag k="waterway" v="river" />
	</node>
	<node id="-243839" lat="59.457336112" lon="11.010075003">
		<tag k="name" v="Bråtetjern" />
>>>>>>> e1d4bc35ff8a6074a6f2e91616a996b547c36f15
		<tag k="natural" v="water" />
		<tag k="ssr:stedsnr" v="144799" />
	</node>
<<<<<<< HEAD
	<node lat="59.43502499966858" lon="11.012858325786944" id="-15551">
		<tag k="name" v="Sukkebekken" />
		<tag k="ssr:stedsnr" v="174550" />
		<tag k="waterway" v="stream" />
	</node>
	<node lat="59.399594443048066" lon="10.847166666218254" id="-15554">
		<tag k="alt_name" v="Kreierten søndre" />
		<tag k="name" v="Søndre Kreierten" />
		<tag k="place" v="islet" />
		<tag k="ssr:stedsnr" v="174750" />
	</node>
	<node lat="59.402739915077845" lon="11.000663280319847" id="-15557">
		<tag k="alt_name" v="Ravnsjø" />
		<tag k="name" v="Ravnsjøen" />
=======
	<node id="-243833" lat="59.4456833365" lon="10.9182944512">
		<tag k="name" v="Neselva" />
		<tag k="ssr:stedsnr" v="812867" />
		<tag k="waterway" v="river" />
	</node>
	<node id="-243828" lat="59.3982916651" lon="10.8534333409">
		<tag k="name" v="Paradisbukta" />
		<tag k="natural" v="bay" />
		<tag k="ssr:stedsnr" v="812782" />
	</node>
	<node id="-243307" lat="59.4802527814" lon="11.0567750029">
		<tag k="name" v="Morttjernet" />
>>>>>>> e1d4bc35ff8a6074a6f2e91616a996b547c36f15
		<tag k="natural" v="water" />
		<tag k="ssr:stedsnr" v="184307" />
	</node>
<<<<<<< HEAD
	<node lat="59.44369444404787" lon="10.89262499440702" id="-15558">
		<tag k="alt_name" v="Rosfjorden" />
		<tag k="name" v="Rosefjorden" />
		<tag k="natural" v="bay" />
		<tag k="ssr:stedsnr" v="184366" />
	</node>
	<node lat="59.45064444851946" lon="10.905444452435777" id="-15560">
		<tag k="name" v="Tiurøya" />
=======
	<node id="-243818" lat="59.4008" lon="10.8106083373">
		<tag k="name" v="Mortestein" />
>>>>>>> e1d4bc35ff8a6074a6f2e91616a996b547c36f15
		<tag k="place" v="islet" />
		<tag k="ssr:stedsnr" v="184369" />
	</node>
<<<<<<< HEAD
	<node lat="59.45203333679505" lon="10.786250001865914" id="-15561">
		<tag k="alt_name" v="Sperbundbukta" />
		<tag k="loc_name" v="Sperrebunnbukta" />
		<tag k="name" v="Sperrebotn" />
=======
	<node id="-243816" lat="59.4109833373" lon="10.8164750015">
		<tag k="name" v="Flåtastan" />
>>>>>>> e1d4bc35ff8a6074a6f2e91616a996b547c36f15
		<tag k="natural" v="bay" />
		<tag k="ssr:stedsnr" v="184379" />
	</node>
<<<<<<< HEAD
	<node lat="59.4875527788243" lon="11.062691673894022" id="-15565">
		<tag k="name" v="Svarttjernet" />
=======
	<node id="-243303" lat="59.4929027818" lon="11.0313833268">
		<tag k="alt_name" v="Moertjern" />
		<tag k="name" v="Moatjernet" />
>>>>>>> e1d4bc35ff8a6074a6f2e91616a996b547c36f15
		<tag k="natural" v="water" />
		<tag k="ssr:stedsnr" v="185657" />
	</node>
<<<<<<< HEAD
	<node lat="59.44351944655009" lon="10.925141664152138" id="-15575">
		<tag k="name" v="Høljeren" />
		<tag k="natural" v="water" />
		<tag k="ssr:stedsnr" v="205874" />
	</node>
	<node lat="59.39930555494549" lon="10.87855555931629" id="-15576">
		<tag k="name" v="Tellebergsund" />
=======
	<node id="-243295" lat="59.4618444441" lon="10.7653638898">
		<tag k="alt_name" v="Rødsund" />
		<tag k="name" v="Rødsundet" />
>>>>>>> e1d4bc35ff8a6074a6f2e91616a996b547c36f15
		<tag k="natural" v="strait" />
		<tag k="ssr:stedsnr" v="205875" />
	</node>
<<<<<<< HEAD
	<node lat="59.481358334637214" lon="10.878169452248304" id="-15580">
		<tag k="name" v="Flesbergtjern" />
		<tag k="natural" v="water" />
		<tag k="ssr:stedsnr" v="296607" />
	</node>
	<node lat="59.413503285289664" lon="10.830705224408407" id="-15581">
		<tag k="name" v="Rødsengkilen" />
		<tag k="natural" v="bay" />
		<tag k="ssr:stedsnr" v="296650" />
	</node>
	<node lat="59.48606111546131" lon="11.00052777897008" id="-15594">
		<tag k="alt_name" v="Ulfsrødtjern" />
		<tag k="name" v="Ulfsrødtjernet" />
		<tag k="natural" v="water" />
		<tag k="ssr:stedsnr" v="306666" />
	</node>
	<node lat="59.40235277488358" lon="10.80148055440157" id="-15611">
		<tag k="name" v="Furuholmen" />
		<tag k="place" v="islet" />
		<tag k="ssr:stedsnr" v="356869" />
	</node>
	<node lat="59.44091111048786" lon="10.95303055942481" id="-15620">
		<tag k="name" v="Flesjøvannet" />
		<tag k="natural" v="water" />
		<tag k="ssr:stedsnr" v="366372" />
	</node>
	<node lat="59.45746944514968" lon="10.994105551623138" id="-15636">
=======
	<node id="-243291" lat="59.4115249967" lon="10.8741055497">
		<tag k="name" v="Dyrholmene" />
		<tag k="place" v="islet" />
		<tag k="ssr:stedsnr" v="487336" />
	</node>
	<node id="-243290" lat="59.394339965" lon="11.0353323549">
		<tag k="fixme" v="multiple name tags, choose one and add the other to alt_name" />
		<tag k="name" v="Agnalttjern;Vasstvettjernet" />
		<tag k="natural" v="water" />
		<tag k="ssr:stedsnr" v="487327" />
	</node>
	<node id="-243801" lat="59.5288916667" lon="10.8389444357">
		<tag k="name" v="Kurefossen" />
		<tag k="natural" v="waterfall" />
		<tag k="ssr:stedsnr" v="630813" />
	</node>
	<node id="-243288" lat="59.4337194407" lon="10.8887833416">
		<tag k="name" v="Angelsprett" />
		<tag k="place" v="island" />
		<tag k="ssr:stedsnr" v="327723" />
	</node>
	<node id="-243795" lat="59.4997000008" lon="10.9572055619">
		<tag k="alt_name" v="Femtegjelbekken" />
		<tag k="name" v="Femtegjeldbekken" />
		<tag k="ssr:stedsnr" v="628949" />
		<tag k="waterway" v="stream" />
	</node>
	<node id="-243281" lat="59.4220416655" lon="10.8523388954">
		<tag k="name" v="Mosserosflasken" />
		<tag k="natural" v="strait" />
		<tag k="ssr:stedsnr" v="448785" />
	</node>
	<node id="-243278" lat="59.4574694451" lon="10.9941055516">
>>>>>>> e1d4bc35ff8a6074a6f2e91616a996b547c36f15
		<tag k="name" v="Frubekk" />
		<tag k="ssr:stedsnr" v="448859" />
		<tag k="waterway" v="stream" />
	</node>
<<<<<<< HEAD
	<node lat="59.47881423722258" lon="11.072745444823248" id="-15651">
		<tag k="alt_name" v="Trolltjernet" />
		<tag k="fixme" v="multiple name tags, choose one and add the other to alt_name" />
		<tag k="name" v="Mortetjern;Svarttjern" />
=======
	<node id="-243273" lat="59.4135032853" lon="10.8307052244">
		<tag k="name" v="Rødsengkilen" />
		<tag k="natural" v="bay" />
		<tag k="ssr:stedsnr" v="296650" />
	</node>
	<node id="-243271" lat="59.4813583346" lon="10.8781694522">
		<tag k="name" v="Flesbergtjern" />
>>>>>>> e1d4bc35ff8a6074a6f2e91616a996b547c36f15
		<tag k="natural" v="water" />
		<tag k="ssr:stedsnr" v="428688" />
	</node>
<<<<<<< HEAD
	<node lat="59.53057777563122" lon="10.881099992216946" id="-15653">
		<tag k="alt_name" v="Askerødtjern" />
		<tag k="name" v="Askerødtjernet" />
		<tag k="natural" v="water" />
		<tag k="ssr:stedsnr" v="429009" />
	</node>
	<node lat="59.42204166554652" lon="10.852338895368785" id="-15655">
		<tag k="name" v="Mosserosflasken" />
		<tag k="natural" v="strait" />
		<tag k="ssr:stedsnr" v="448785" />
	</node>
	<node lat="59.50167499912496" lon="10.926641669881855" id="-15675">
		<tag k="fixme" v="multiple name tags, choose one and add the other to alt_name" />
		<tag k="name" v="Mørkelva;Trollhetta" />
		<tag k="ssr:stedsnr" v="550093" />
		<tag k="waterway" v="stream" />
	</node>
	<node lat="59.47393055238226" lon="11.060161105827389" id="-15679">
		<tag k="name" v="Langerødbekken" />
		<tag k="ssr:stedsnr" v="569772" />
		<tag k="waterway" v="stream" />
	</node>
	<node lat="59.502541665121335" lon="11.008300001363676" id="-15682">
=======
	<node id="-243270" lat="59.4415611086" lon="10.9473888848">
		<tag k="name" v="Klypa" />
		<tag k="place" v="locality" />
		<tag k="ssr:stedsnr" v="295528" />
	</node>
	<node id="-243777" lat="59.4314916621" lon="10.9665277837">
		<tag k="name" v="Unumselva" />
		<tag k="ssr:stedsnr" v="569833" />
		<tag k="waterway" v="river" />
	</node>
	<node id="-243264" lat="59.4350249997" lon="11.0128583258">
		<tag k="name" v="Sukkebekken" />
		<tag k="ssr:stedsnr" v="174550" />
		<tag k="waterway" v="stream" />
	</node>
	<node id="-243775" lat="59.4629416673" lon="10.9755722148">
		<tag k="name" v="Lunderbekken" />
		<tag k="ssr:stedsnr" v="569820" />
		<tag k="waterway" v="stream" />
	</node>
	<node id="-243772" lat="59.5025416651" lon="11.0083000014">
>>>>>>> e1d4bc35ff8a6074a6f2e91616a996b547c36f15
		<tag k="name" v="Føterbekken" />
		<tag k="ssr:stedsnr" v="569799" />
		<tag k="waterway" v="stream" />
	</node>
<<<<<<< HEAD
	<node lat="59.46294166731325" lon="10.975572214772798" id="-15684">
		<tag k="name" v="Lunderbekken" />
		<tag k="ssr:stedsnr" v="569820" />
		<tag k="waterway" v="stream" />
	</node>
	<node lat="59.43149166211692" lon="10.966527783722482" id="-15686">
		<tag k="name" v="Unumselva" />
		<tag k="ssr:stedsnr" v="569833" />
		<tag k="waterway" v="river" />
	</node>
	<node lat="59.47179166582155" lon="10.89758333867294" id="-15689">
		<tag k="name" v="Haugerelva" />
		<tag k="ssr:stedsnr" v="598583" />
		<tag k="waterway" v="river" />
	</node>
	<node lat="59.40299722179488" lon="10.797849993760021" id="-15690">
		<tag k="name" v="Åboren" />
		<tag k="place" v="islet" />
		<tag k="ssr:stedsnr" v="598865" />
	</node>
	<node lat="59.52993889120132" lon="10.91682499476812" id="-15697">
		<tag k="alt_name" v="Veidalelva" />
		<tag k="name" v="Veidalselva" />
		<tag k="ssr:stedsnr" v="611056" />
		<tag k="waterway" v="stream" />
	</node>
	<node lat="59.42229444205432" lon="10.981819440031368" id="-15706">
		<tag k="name" v="Ertnestangen" />
=======
	<node id="-243258" lat="59.4387194459" lon="11.0226833372">
		<tag k="name" v="Huklabekken" />
		<tag k="ssr:stedsnr" v="266828" />
		<tag k="waterway" v="stream" />
	</node>
	<node id="-243769" lat="59.4739305524" lon="11.0601611058">
		<tag k="name" v="Langerødbekken" />
		<tag k="ssr:stedsnr" v="569772" />
		<tag k="waterway" v="stream" />
	</node>
	<node id="-243255" lat="59.4941055546" lon="11.0479416619">
		<tag k="name" v="Slora" />
		<tag k="ssr:stedsnr" v="266818" />
		<tag k="waterway" v="river" />
	</node>
	<node id="-243765" lat="59.4889999976" lon="10.9214999922">
		<tag k="name" v="Nordbyelva" />
		<tag k="ssr:stedsnr" v="568878" />
		<tag k="waterway" v="river" />
	</node>
	<node id="-243761" lat="59.5016749991" lon="10.9266416699">
		<tag k="fixme" v="multiple name tags, choose one and add the other to alt_name" />
		<tag k="name" v="Mørkelva;Trollhetta" />
		<tag k="ssr:stedsnr" v="550093" />
		<tag k="waterway" v="stream" />
	</node>
	<node id="-243245" lat="59.4150416685" lon="10.8519222296">
		<tag k="name" v="Gjeddesund" />
		<tag k="natural" v="strait" />
		<tag k="ssr:stedsnr" v="266752" />
	</node>
	<node id="-243241" lat="59.4999722201" lon="10.9709694509">
		<tag k="name" v="Kasteneset" />
>>>>>>> e1d4bc35ff8a6074a6f2e91616a996b547c36f15
		<tag k="natural" v="cape" />
		<tag k="ssr:stedsnr" v="659521" />
	</node>
<<<<<<< HEAD
	<node lat="59.407524998136374" lon="10.792533328724232" id="-15712">
		<tag k="name" v="Tømmerøya" />
		<tag k="place" v="islet" />
		<tag k="ssr:stedsnr" v="669281" />
	</node>
	<node lat="59.400911108124305" lon="10.854477782653795" id="-15713">
		<tag k="name" v="Gudøya" />
=======
	<node id="-243240" lat="59.4916888903" lon="11.0049833284">
		<tag k="name" v="Fløterbekken" />
		<tag k="ssr:stedsnr" v="264938" />
		<tag k="waterway" v="stream" />
	</node>
	<node id="-243748" lat="59.4141777819" lon="10.8024611177">
		<tag k="name" v="Kuholmen" />
>>>>>>> e1d4bc35ff8a6074a6f2e91616a996b547c36f15
		<tag k="place" v="islet" />
		<tag k="ssr:stedsnr" v="669282" />
	</node>
<<<<<<< HEAD
	<node lat="59.45538055516932" lon="11.008227779200563" id="-15718">
		<tag k="name" v="Bråtetjern" />
=======
	<node id="-243235" lat="59.4338111097" lon="10.8022638906">
		<tag k="alt_name" v="Brønnerødtjernet" />
		<tag k="name" v="Brønnerødtjern" />
>>>>>>> e1d4bc35ff8a6074a6f2e91616a996b547c36f15
		<tag k="natural" v="water" />
		<tag k="ssr:stedsnr" v="720134" />
	</node>
<<<<<<< HEAD
	<node lat="59.41059444603751" lon="10.796050000433109" id="-15722">
		<tag k="name" v="Veslenaveren" />
		<tag k="natural" v="strait" />
		<tag k="ssr:stedsnr" v="721642" />
	</node>
	<node lat="59.49736111471801" lon="10.78763333671887" id="-15731">
		<tag k="name" v="Lødengtjernet" />
=======
	<node id="-243230" lat="59.4118944436" lon="10.8495083312">
		<tag k="name" v="Brasenbogen" />
		<tag k="natural" v="bay" />
		<tag k="ssr:stedsnr" v="114735" />
	</node>
	<node id="-243802" lat="59.4772361124" lon="11.0723027818">
		<tag k="name" v="Streperthølet" />
		<tag k="natural" v="bay" />
		<tag k="ssr:stedsnr" v="630817" />
	</node>
	<node id="-243734" lat="59.4788142372" lon="11.0727454448">
		<tag k="fixme" v="multiple name tags, choose one and add the other to alt_name" />
		<tag k="name" v="Mortetjern;Trolltjernet" />
>>>>>>> e1d4bc35ff8a6074a6f2e91616a996b547c36f15
		<tag k="natural" v="water" />
		<tag k="ssr:stedsnr" v="731648" />
	</node>
<<<<<<< HEAD
	<node lat="59.4171888878329" lon="10.99325832500715" id="-15740">
		<tag k="name" v="Sæbybunn" />
		<tag k="natural" v="bay" />
		<tag k="ssr:stedsnr" v="781523" />
	</node>
	<node lat="59.4054111151213" lon="10.970913883148956" id="-15742">
		<tag k="name" v="Sjurebråtetjern" />
		<tag k="natural" v="water" />
		<tag k="ssr:stedsnr" v="781546" />
	</node>
	<node lat="59.41098333731164" lon="10.816475001461665" id="-15747">
		<tag k="name" v="Flåtastan" />
		<tag k="natural" v="bay" />
		<tag k="ssr:stedsnr" v="781672" />
	</node>
	<node lat="59.40079999997026" lon="10.810608337325776" id="-15749">
		<tag k="name" v="Mortestein" />
		<tag k="place" v="islet" />
		<tag k="ssr:stedsnr" v="781883" />
	</node>
	<node lat="59.44568333648926" lon="10.918294451197331" id="-15763">
		<tag k="name" v="Neselva" />
		<tag k="ssr:stedsnr" v="812867" />
		<tag k="waterway" v="river" />
	</node>
	<node lat="59.484755552857436" lon="10.874419440949103" id="-15768">
		<tag k="name" v="Kirkeelva" />
		<tag k="ssr:stedsnr" v="842641" />
		<tag k="waterway" v="river" />
	</node>
	<node lat="59.404227775953565" lon="11.05087777902852" id="-15770">
		<tag k="alt_name" v="Svarttjern" />
		<tag k="name" v="Svarttjernet" />
		<tag k="natural" v="water" />
		<tag k="ssr:stedsnr" v="852322" />
	</node>
	<node lat="59.412538888583065" lon="11.076755549424298" id="-15771">
		<tag k="alt_name" v="Sverigetjern" />
		<tag k="name" v="Sverigetjernet" />
		<tag k="natural" v="water" />
		<tag k="ssr:stedsnr" v="852326" />
=======
	<node id="-243800" lat="59.4071138914" lon="10.809238883">
		<tag k="name" v="Bliksøya" />
		<tag k="place" v="island" />
		<tag k="ssr:stedsnr" v="630797" />
	</node>
	<node id="-243725" lat="59.4303055593" lon="10.8277138947">
		<tag k="name" v="Grepperødfjorden" />
		<tag k="natural" v="bay" />
		<tag k="ssr:stedsnr" v="427373" />
	</node>
	<node id="-243212" lat="59.5106472233" lon="11.0162249987">
		<tag k="name" v="Muskedalstjernet" />
		<tag k="natural" v="water" />
		<tag k="ssr:stedsnr" v="246086" />
	</node>
	<node id="-243208" lat="59.39823889" lon="10.8708500047">
		<tag k="name" v="Østenrødøya" />
		<tag k="place" v="island" />
		<tag k="ssr:stedsnr" v="245296" />
	</node>
	<node id="-243205" lat="59.426716665" lon="11.0309250074">
		<tag k="name" v="Svinna" />
		<tag k="ssr:stedsnr" v="245327" />
		<tag k="waterway" v="stream" />
>>>>>>> e1d4bc35ff8a6074a6f2e91616a996b547c36f15
	</node>
</osm>
