<?xml version="1.0" encoding="UTF-8"?>
<<<<<<< HEAD
<osm version="0.6" generator="osmapis">
	<node lat="59.397025000696466" lon="11.051611112351464" id="-15099">
		<tag k="fixme" v="consider natural=peak for the most distinct mountains in the district" />
		<tag k="name" v="Tjernåsen" />
		<tag k="natural" v="hill" />
		<tag k="place" v="locality" />
		<tag k="ssr:stedsnr" v="2335" />
	</node>
	<node lat="59.48101388755385" lon="11.068438896307542" id="-15106">
		<tag k="fixme" v="consider natural=peak for the most distinct mountains in the district" />
		<tag k="name" v="Taraldrudåsen" />
		<tag k="natural" v="hill" />
		<tag k="place" v="locality" />
		<tag k="ssr:stedsnr" v="3680" />
	</node>
	<node lat="59.510149995970295" lon="10.792386114934507" id="-15112">
		<tag k="fixme" v="consider natural=peak for the most distinct mountains in the district" />
		<tag k="name" v="Gylderåsen" />
		<tag k="natural" v="hill" />
		<tag k="place" v="locality" />
		<tag k="ssr:stedsnr" v="22894" />
	</node>
	<node lat="59.47645833148196" lon="10.83283332557886" id="-15117">
		<tag k="fixme" v="consider natural=peak for the most distinct mountains in the district" />
		<tag k="name" v="Bjørnåsen" />
		<tag k="natural" v="hill" />
		<tag k="place" v="locality" />
		<tag k="ssr:stedsnr" v="23887" />
	</node>
	<node lat="59.53046666696406" lon="10.81905556252049" id="-15145">
		<tag k="fixme" v="consider natural=peak for the most distinct mountains in the district" />
		<tag k="name" v="Ravnåsen" />
		<tag k="natural" v="hill" />
		<tag k="place" v="locality" />
		<tag k="ssr:stedsnr" v="65004" />
	</node>
	<node lat="59.53434444012718" lon="10.943255547755271" id="-15153">
		<tag k="fixme" v="consider natural=peak for the most distinct mountains in the district" />
		<tag k="name" v="Festningen" />
		<tag k="natural" v="hill" />
		<tag k="place" v="locality" />
		<tag k="ssr:stedsnr" v="84820" />
	</node>
	<node lat="59.485363888704256" lon="10.944208324874547" id="-15155">
		<tag k="fixme" v="consider natural=peak for the most distinct mountains in the district" />
		<tag k="name" v="Leinaåsen" />
		<tag k="natural" v="hill" />
		<tag k="place" v="locality" />
		<tag k="ssr:stedsnr" v="84829" />
	</node>
	<node lat="59.48232222036355" lon="10.99505833340431" id="-15156">
		<tag k="fixme" v="consider natural=peak for the most distinct mountains in the district" />
		<tag k="name" v="Orrhaneåsen" />
		<tag k="natural" v="hill" />
		<tag k="place" v="locality" />
		<tag k="ssr:stedsnr" v="84835" />
	</node>
	<node lat="59.47705833254525" lon="11.03638889065169" id="-15171">
		<tag k="fixme" v="consider natural=peak for the most distinct mountains in the district" />
		<tag k="name" v="Pelsrødåsen" />
		<tag k="natural" v="hill" />
		<tag k="place" v="locality" />
		<tag k="ssr:stedsnr" v="113110" />
	</node>
	<node lat="59.4755083315702" lon="10.97582500677426" id="-15172">
		<tag k="name" v="Solheimtoppen" />
		<tag k="place" v="locality" />
		<tag k="ssr:stedsnr" v="113116" />
	</node>
	<node lat="59.45157777560408" lon="11.076327781793298" id="-15181">
		<tag k="name" v="Ørebru" />
=======
<osm generator="osmapis" version="0.6">
	<node id="-243582" lat="59.4456833309" lon="10.9225972247">
		<tag k="name" v="Frølandshagen" />
		<tag k="place" v="locality" />
		<tag k="ssr:stedsnr" v="113048" />
	</node>
	<node id="-243837" lat="59.4598222236" lon="10.8923083358">
		<tag k="fixme" v="consider natural=peak for the most distinct mountains in the district" />
		<tag k="name" v="Munkekirkeås" />
		<tag k="natural" v="hill" />
		<tag k="place" v="locality" />
		<tag k="ssr:stedsnr" v="841493" />
	</node>
	<node id="-243579" lat="59.4823222204" lon="10.9950583334">
		<tag k="fixme" v="consider natural=peak for the most distinct mountains in the district" />
		<tag k="name" v="Orrhaneåsen" />
		<tag k="natural" v="hill" />
		<tag k="place" v="locality" />
		<tag k="ssr:stedsnr" v="84835" />
	</node>
	<node id="-243706" lat="59.4636519491" lon="10.9828729017">
		<tag k="fixme" v="consider natural=peak for the most distinct mountains in the district" />
		<tag k="name" v="Svinndalvarden" />
		<tag k="natural" v="hill" />
		<tag k="place" v="locality" />
		<tag k="ssr:stedsnr" v="366739" />
	</node>
	<node id="-243451" lat="59.5385749983" lon="10.9544472222">
		<tag k="fixme" v="consider natural=peak for the most distinct mountains in the district" />
		<tag k="name" v="Røysås" />
		<tag k="natural" v="hill" />
		<tag k="place" v="locality" />
		<tag k="ssr:stedsnr" v="732044" />
	</node>
	<node id="-243832" lat="59.4529861115" lon="11.0050166699">
		<tag k="name" v="Bratteflau" />
		<tag k="natural" v="cliff" />
		<tag k="ssr:stedsnr" v="812854" />
	</node>
	<node id="-243318" lat="59.442672222" lon="10.806880547">
		<tag k="name" v="Hasseldalen" />
		<tag k="natural" v="valley" />
		<tag k="place" v="locality" />
		<tag k="ssr:stedsnr" v="387871" />
	</node>
	<node id="-243326" lat="59.4785361138" lon="10.9580638862">
		<tag k="fixme" v="consider natural=peak for the most distinct mountains in the district" />
		<tag k="name" v="Gunnersås" />
		<tag k="natural" v="hill" />
		<tag k="place" v="locality" />
		<tag k="ssr:stedsnr" v="509830" />
	</node>
	<node id="-243185" lat="59.4703138877" lon="10.9814361188">
		<tag k="name" v="Lunderdalen" />
		<tag k="natural" v="valley" />
		<tag k="place" v="locality" />
		<tag k="ssr:stedsnr" v="235079" />
	</node>
	<node id="-243543" lat="59.510149996" lon="10.7923861149">
		<tag k="fixme" v="consider natural=peak for the most distinct mountains in the district" />
		<tag k="name" v="Gylderåsen" />
		<tag k="natural" v="hill" />
		<tag k="place" v="locality" />
		<tag k="ssr:stedsnr" v="22894" />
	</node>
	<node id="-243820" lat="59.431680558" lon="11.0390555538">
		<tag k="fixme" v="consider natural=peak for the most distinct mountains in the district" />
		<tag k="name" v="Onsakeråsen" />
		<tag k="natural" v="hill" />
		<tag k="place" v="locality" />
		<tag k="ssr:stedsnr" v="791337" />
	</node>
	<node id="-243563" lat="59.4063416709" lon="11.0402027732">
		<tag k="fixme" v="consider natural=peak for the most distinct mountains in the district" />
		<tag k="name" v="Damås" />
		<tag k="natural" v="hill" />
		<tag k="place" v="locality" />
		<tag k="ssr:stedsnr" v="63344" />
	</node>
	<node id="-243559" lat="59.4097027747" lon="11.0087833398">
		<tag k="fixme" v="consider natural=peak for the most distinct mountains in the district" />
		<tag k="name" v="Myreåsen" />
		<tag k="natural" v="hill" />
		<tag k="place" v="locality" />
		<tag k="ssr:stedsnr" v="53545" />
	</node>
	<node id="-243813" lat="59.4468555563" lon="11.0216222165">
		<tag k="name" v="Sukkedalen" />
		<tag k="natural" v="valley" />
>>>>>>> e1d4bc35ff8a6074a6f2e91616a996b547c36f15
		<tag k="place" v="locality" />
		<tag k="ssr:stedsnr" v="781091" />
	</node>
<<<<<<< HEAD
	<node lat="59.49185833299574" lon="10.985924991780822" id="-15184">
		<tag k="fixme" v="consider natural=peak for the most distinct mountains in the district" />
		<tag k="name" v="Brannåsen" />
		<tag k="natural" v="hill" />
		<tag k="place" v="locality" />
		<tag k="ssr:stedsnr" v="124636" />
	</node>
	<node lat="59.42265000306008" lon="11.097727772905216" id="-15194">
		<tag k="fixme" v="consider natural=peak for the most distinct mountains in the district" />
		<tag k="name" v="Grøttvetåsen" />
=======
	<node id="-243172" lat="59.4810138876" lon="11.0684388963">
		<tag k="fixme" v="consider natural=peak for the most distinct mountains in the district" />
		<tag k="name" v="Taraldrudåsen" />
		<tag k="natural" v="hill" />
		<tag k="place" v="locality" />
		<tag k="ssr:stedsnr" v="3680" />
	</node>
	<node id="-243682" lat="59.4025694416" lon="10.9454194414">
		<tag k="alt_name" v="Haukelia" />
		<tag k="name" v="Hauklia" />
		<tag k="place" v="locality" />
		<tag k="ssr:stedsnr" v="327794" />
	</node>
	<node id="-243809" lat="59.5090083289" lon="11.0148277784">
		<tag k="name" v="Muskedalen" />
		<tag k="natural" v="valley" />
		<tag k="place" v="locality" />
		<tag k="ssr:stedsnr" v="751836" />
	</node>
	<node id="-243680" lat="59.4843638889" lon="10.9555944448">
		<tag k="fixme" v="consider natural=peak for the most distinct mountains in the district" />
		<tag k="name" v="Skjønnerødåsen" />
		<tag k="natural" v="hill" />
		<tag k="place" v="locality" />
		<tag k="ssr:stedsnr" v="327766" />
	</node>
	<node id="-243549" lat="59.4764583315" lon="10.8328333256">
		<tag k="fixme" v="consider natural=peak for the most distinct mountains in the district" />
		<tag k="name" v="Bjørnåsen" />
>>>>>>> e1d4bc35ff8a6074a6f2e91616a996b547c36f15
		<tag k="natural" v="hill" />
		<tag k="old_name" v="Grøtvetåsen" />
		<tag k="place" v="locality" />
<<<<<<< HEAD
		<tag k="ssr:stedsnr" v="175157" />
	</node>
	<node lat="59.49927222476206" lon="11.031022230377326" id="-15213">
		<tag k="fixme" v="consider natural=peak for the most distinct mountains in the district" />
		<tag k="name" v="Fagerås" />
		<tag k="natural" v="hill" />
		<tag k="place" v="locality" />
		<tag k="ssr:stedsnr" v="266867" />
	</node>
	<node lat="59.45919166580188" lon="10.873108337962025" id="-15218">
		<tag k="fixme" v="consider natural=peak for the most distinct mountains in the district" />
		<tag k="name" v="Bratterødåsen" />
		<tag k="natural" v="hill" />
		<tag k="place" v="locality" />
		<tag k="ssr:stedsnr" v="234609" />
	</node>
	<node lat="59.47031388773466" lon="10.98143611881972" id="-15219">
		<tag k="name" v="Lunderdalen" />
		<tag k="natural" v="valley" />
		<tag k="place" v="locality" />
		<tag k="ssr:stedsnr" v="235079" />
	</node>
	<node lat="59.489033334849836" lon="11.044605550857352" id="-15232">
		<tag k="fixme" v="consider natural=peak for the most distinct mountains in the district" />
		<tag k="name" v="Regina" />
		<tag k="natural" v="hill" />
		<tag k="place" v="locality" />
		<tag k="ssr:stedsnr" v="266819" />
	</node>
	<node lat="59.4843638888597" lon="10.955594444830579" id="-15249">
		<tag k="fixme" v="consider natural=peak for the most distinct mountains in the district" />
		<tag k="name" v="Skjønnerødåsen" />
		<tag k="natural" v="hill" />
		<tag k="place" v="locality" />
		<tag k="ssr:stedsnr" v="327766" />
	</node>
	<node lat="59.45887918323033" lon="10.789180435759638" id="-15265">
		<tag k="loc_name" v="Teksneslia" />
		<tag k="name" v="Texnæslia" />
		<tag k="natural" v="slope" />
		<tag k="place" v="locality" />
		<tag k="ssr:stedsnr" v="478743" />
	</node>
	<node lat="59.47146666372464" lon="11.068044445827013" id="-15304">
		<tag k="name" v="Langerødåsen" />
		<tag k="natural" v="valley" />
		<tag k="place" v="locality" />
		<tag k="ssr:stedsnr" v="448823" />
	</node>
	<node lat="59.41008889051863" lon="10.801997220646593" id="-15318">
		<tag k="name" v="Grådalen" />
		<tag k="natural" v="valley" />
		<tag k="place" v="locality" />
		<tag k="ssr:stedsnr" v="478671" />
	</node>
	<node lat="59.39541776307075" lon="11.066363180580872" id="-15319">
		<tag k="fixme" v="consider natural=peak for the most distinct mountains in the district" />
		<tag k="name" v="Kallen" />
		<tag k="natural" v="hill" />
		<tag k="place" v="locality" />
		<tag k="ssr:stedsnr" v="487312" />
	</node>
	<node lat="59.47445277899729" lon="10.933286116791027" id="-15331">
		<tag k="name" v="Lunderdalen" />
		<tag k="natural" v="valley" />
		<tag k="place" v="locality" />
		<tag k="ssr:stedsnr" v="509723" />
	</node>
	<node lat="59.50214722087517" lon="10.916347213717755" id="-15359">
		<tag k="name" v="Svartedal" />
		<tag k="natural" v="valley" />
		<tag k="place" v="locality" />
		<tag k="ssr:stedsnr" v="569757" />
	</node>
	<node lat="59.4555583363351" lon="10.959241661379231" id="-15365">
		<tag k="fixme" v="consider natural=peak for the most distinct mountains in the district" />
		<tag k="name" v="Dælingåsen" />
		<tag k="natural" v="hill" />
		<tag k="place" v="locality" />
		<tag k="ssr:stedsnr" v="609699" />
	</node>
	<node lat="59.48393333397534" lon="11.06147221948048" id="-15377">
=======
		<tag k="ssr:stedsnr" v="23887" />
	</node>
	<node id="-243450" lat="59.5236166632" lon="10.8879027859">
		<tag k="fixme" v="consider natural=peak for the most distinct mountains in the district" />
		<tag k="name" v="Røysås" />
		<tag k="natural" v="hill" />
		<tag k="place" v="locality" />
		<tag k="ssr:stedsnr" v="732043" />
	</node>
	<node id="-243289" lat="59.3954177631" lon="11.0663631806">
		<tag k="fixme" v="consider natural=peak for the most distinct mountains in the district" />
		<tag k="name" v="Kallen" />
		<tag k="natural" v="hill" />
		<tag k="place" v="locality" />
		<tag k="ssr:stedsnr" v="487312" />
	</node>
	<node id="-243287" lat="59.4588791832" lon="10.7891804358">
		<tag k="loc_name" v="Teksneslia" />
		<tag k="name" v="Texnæslia" />
		<tag k="natural" v="slope" />
		<tag k="place" v="locality" />
		<tag k="ssr:stedsnr" v="478743" />
	</node>
	<node id="-243322" lat="59.4232500043" lon="10.9513555595">
		<tag k="fixme" v="consider natural=peak for the most distinct mountains in the district" />
		<tag k="name" v="Grindalsåsen" />
		<tag k="natural" v="hill" />
		<tag k="place" v="locality" />
		<tag k="ssr:stedsnr" v="509791" />
	</node>
	<node id="-243789" lat="59.4555583363" lon="10.9592416614">
		<tag k="fixme" v="consider natural=peak for the most distinct mountains in the district" />
		<tag k="name" v="Dælingåsen" />
		<tag k="natural" v="hill" />
		<tag k="place" v="locality" />
		<tag k="ssr:stedsnr" v="609699" />
	</node>
	<node id="-243660" lat="59.4698833345" lon="11.0689777697">
		<tag k="fixme" v="consider natural=peak for the most distinct mountains in the district" />
		<tag k="name" v="Grevlingåsen" />
		<tag k="natural" v="hill" />
		<tag k="place" v="locality" />
		<tag k="ssr:stedsnr" v="305733" />
	</node>
	<node id="-243426" lat="59.4939111111" lon="10.9797388956">
		<tag k="fixme" v="consider natural=peak for the most distinct mountains in the district" />
		<tag k="name" v="Femtegjeldåsen" />
		<tag k="natural" v="hill" />
		<tag k="place" v="locality" />
		<tag k="ssr:stedsnr" v="731670" />
	</node>
	<node id="-243786" lat="59.4656277789" lon="10.9501972246">
		<tag k="fixme" v="consider natural=peak for the most distinct mountains in the district" />
		<tag k="name" v="Torebråte" />
		<tag k="natural" v="hill" />
		<tag k="place" v="locality" />
		<tag k="ssr:stedsnr" v="608781" />
	</node>
	<node id="-243767" lat="59.5021472209" lon="10.9163472137">
		<tag k="name" v="Svartedal" />
		<tag k="natural" v="valley" />
		<tag k="place" v="locality" />
		<tag k="ssr:stedsnr" v="569757" />
	</node>
	<node id="-243169" lat="59.4846555573" lon="10.8320333347">
		<tag k="alt_name" v="Våler varde" />
		<tag k="fixme" v="consider natural=peak for the most distinct mountains in the district" />
		<tag k="name" v="Vålervarden" />
		<tag k="natural" v="hill" />
		<tag k="place" v="locality" />
		<tag k="ssr:stedsnr" v="3656" />
	</node>
	<node id="-243229" lat="59.4755083316" lon="10.9758250068">
		<tag k="name" v="Solheimtoppen" />
		<tag k="place" v="locality" />
		<tag k="ssr:stedsnr" v="113116" />
	</node>
	<node id="-243275" lat="59.4591916658" lon="10.873108338">
		<tag k="fixme" v="consider natural=peak for the most distinct mountains in the district" />
		<tag k="name" v="Bratterødåsen" />
		<tag k="natural" v="hill" />
		<tag k="place" v="locality" />
		<tag k="ssr:stedsnr" v="234609" />
	</node>
	<node id="-243262" lat="59.4992722248" lon="11.0310222304">
>>>>>>> e1d4bc35ff8a6074a6f2e91616a996b547c36f15
		<tag k="fixme" v="consider natural=peak for the most distinct mountains in the district" />
		<tag k="name" v="Fagerås" />
		<tag k="natural" v="hill" />
		<tag k="place" v="locality" />
		<tag k="ssr:stedsnr" v="266867" />
	</node>
<<<<<<< HEAD
	<node lat="59.49391111109661" lon="10.979738895634474" id="-15402">
		<tag k="fixme" v="consider natural=peak for the most distinct mountains in the district" />
		<tag k="name" v="Femtegjeldåsen" />
		<tag k="natural" v="hill" />
		<tag k="place" v="locality" />
		<tag k="ssr:stedsnr" v="731670" />
	</node>
	<node lat="59.419927778472" lon="10.963069444980857" id="-15413">
		<tag k="fixme" v="consider natural=peak for the most distinct mountains in the district" />
		<tag k="name" v="Boslangåsen" />
		<tag k="natural" v="hill" />
		<tag k="place" v="locality" />
		<tag k="ssr:stedsnr" v="902554" />
	</node>
	<node lat="59.408591667703064" lon="11.04448611848987" id="-15415">
		<tag k="fixme" v="consider natural=peak for the most distinct mountains in the district" />
		<tag k="name" v="Kompås" />
		<tag k="natural" v="hill" />
		<tag k="place" v="locality" />
		<tag k="ssr:stedsnr" v="902563" />
	</node>
	<node lat="59.49796111535702" lon="10.994030549178959" id="-15420">
		<tag k="name" v="Setradalen" />
=======
	<node id="-243857" lat="59.4420111126" lon="11.0818611128">
		<tag k="fixme" v="consider natural=peak for the most distinct mountains in the district" />
		<tag k="name" v="Brannås" />
		<tag k="natural" v="hill" />
		<tag k="place" v="locality" />
		<tag k="ssr:stedsnr" v="873774" />
	</node>
	<node id="-243514" lat="59.4939055569" lon="10.8776527701">
		<tag k="fixme" v="consider natural=peak for the most distinct mountains in the district" />
		<tag k="name" v="Sandås" />
		<tag k="natural" v="hill" />
		<tag k="place" v="locality" />
		<tag k="ssr:stedsnr" v="933907" />
	</node>
	<node id="-243385" lat="59.4348083366" lon="10.8498861117">
		<tag k="name" v="Havnåsen" />
		<tag k="natural" v="hill" />
		<tag k="place" v="locality" />
		<tag k="ssr:stedsnr" v="509733" />
	</node>
	<node id="-243256" lat="59.4890333348" lon="11.0446055509">
		<tag k="fixme" v="consider natural=peak for the most distinct mountains in the district" />
		<tag k="name" v="Regina" />
		<tag k="natural" v="hill" />
		<tag k="place" v="locality" />
		<tag k="ssr:stedsnr" v="266819" />
	</node>
	<node id="-243383" lat="59.474452779" lon="10.9332861168">
		<tag k="name" v="Lunderdalen" />
>>>>>>> e1d4bc35ff8a6074a6f2e91616a996b547c36f15
		<tag k="natural" v="valley" />
		<tag k="place" v="locality" />
		<tag k="ssr:stedsnr" v="509723" />
	</node>
<<<<<<< HEAD
	<node lat="59.431680558037854" lon="11.039055553757537" id="-15428">
		<tag k="fixme" v="consider natural=peak for the most distinct mountains in the district" />
		<tag k="name" v="Onsakeråsen" />
		<tag k="natural" v="hill" />
		<tag k="place" v="locality" />
		<tag k="ssr:stedsnr" v="791337" />
	</node>
	<node lat="59.445602777146014" lon="11.041527773653634" id="-15437">
		<tag k="fixme" v="consider natural=peak for the most distinct mountains in the district" />
		<tag k="name" v="Kattekloåsen" />
		<tag k="natural" v="hill" />
		<tag k="place" v="locality" />
		<tag k="ssr:stedsnr" v="913354" />
	</node>
	<node lat="59.510813891945325" lon="10.87889721842191" id="-15440">
		<tag k="alt_name" v="Preståsene" />
		<tag k="fixme" v="consider natural=peak for the most distinct mountains in the district" />
		<tag k="name" v="Preståsen" />
		<tag k="natural" v="hill" />
		<tag k="place" v="locality" />
		<tag k="ssr:stedsnr" v="914049" />
	</node>
	<node lat="59.45982222356261" lon="10.892308335756109" id="-15447">
=======
	<node id="-243510" lat="59.4085916677" lon="11.0444861185">
		<tag k="fixme" v="consider natural=peak for the most distinct mountains in the district" />
		<tag k="name" v="Kompås" />
		<tag k="natural" v="hill" />
		<tag k="place" v="locality" />
		<tag k="ssr:stedsnr" v="902563" />
	</node>
	<node id="-243508" lat="59.4199277785" lon="10.963069445">
>>>>>>> e1d4bc35ff8a6074a6f2e91616a996b547c36f15
		<tag k="fixme" v="consider natural=peak for the most distinct mountains in the district" />
		<tag k="name" v="Boslangåsen" />
		<tag k="natural" v="hill" />
		<tag k="place" v="locality" />
		<tag k="ssr:stedsnr" v="902554" />
	</node>
<<<<<<< HEAD
	<node lat="59.51818333261258" lon="10.933655551048544" id="-15457">
		<tag k="name" v="Bukkesvingen" />
		<tag k="place" v="locality" />
		<tag k="ssr:stedsnr" v="871922" />
	</node>
	<node lat="59.41279166587917" lon="11.001158338941822" id="-15469">
		<tag k="alt_name" v="Bunnåsen" />
		<tag k="fixme" v="consider natural=peak for the most distinct mountains in the district" />
		<tag k="name" v="Båndåsen" />
		<tag k="natural" v="hill" />
		<tag k="place" v="locality" />
		<tag k="ssr:stedsnr" v="912331" />
	</node>
	<node lat="59.4158194457674" lon="11.1091250018217" id="-15477">
		<tag k="fixme" v="consider natural=peak for the most distinct mountains in the district" />
		<tag k="name" v="Tjernsåsen" />
		<tag k="natural" v="hill" />
		<tag k="place" v="locality" />
		<tag k="ssr:stedsnr" v="933742" />
	</node>
	<node lat="59.49390555690484" lon="10.877652770140081" id="-15479">
		<tag k="fixme" v="consider natural=peak for the most distinct mountains in the district" />
		<tag k="name" v="Sandås" />
		<tag k="natural" v="hill" />
		<tag k="place" v="locality" />
		<tag k="ssr:stedsnr" v="933907" />
	</node>
	<node lat="59.40560833599506" lon="10.811041661253237" id="-15483">
		<tag k="name" v="Danielbakken" />
		<tag k="natural" v="slope" />
		<tag k="place" v="locality" />
		<tag k="ssr:stedsnr" v="963902" />
	</node>
	<node lat="59.48465555727281" lon="10.832033334661185" id="-15495">
		<tag k="alt_name" v="Våler varde" />
		<tag k="fixme" v="consider natural=peak for the most distinct mountains in the district" />
		<tag k="name" v="Vålervarden" />
		<tag k="natural" v="hill" />
		<tag k="place" v="locality" />
		<tag k="ssr:stedsnr" v="3656" />
	</node>
	<node lat="59.48624703535644" lon="10.94704698263042" id="-15496">
		<tag k="fixme" v="multiple name tags, choose one and add the other to alt_name; consider natural=peak for the most distinct mountains in the district" />
		<tag k="name" v="Moneåsen;Leinaåsen" />
		<tag k="natural" v="hill" />
		<tag k="place" v="locality" />
		<tag k="ssr:stedsnr" v="3666" />
	</node>
	<node lat="59.40970277473765" lon="11.00878333979602" id="-15509">
		<tag k="fixme" v="consider natural=peak for the most distinct mountains in the district" />
		<tag k="name" v="Myreåsen" />
		<tag k="natural" v="hill" />
		<tag k="place" v="locality" />
		<tag k="ssr:stedsnr" v="53545" />
	</node>
	<node lat="59.406341670935696" lon="11.040202773150758" id="-15515">
=======
	<node id="-243377" lat="59.4100888905" lon="10.8019972206">
		<tag k="name" v="Grådalen" />
		<tag k="natural" v="valley" />
		<tag k="place" v="locality" />
		<tag k="ssr:stedsnr" v="478671" />
	</node>
	<node id="-243805" lat="59.4115944421" lon="11.0852027803">
		<tag k="fixme" v="consider natural=peak for the most distinct mountains in the district" />
		<tag k="name" v="Skinnstakkåsen" />
		<tag k="natural" v="hill" />
		<tag k="place" v="locality" />
		<tag k="ssr:stedsnr" v="750687" />
	</node>
	<node id="-243228" lat="59.4770583325" lon="11.0363888907">
		<tag k="fixme" v="consider natural=peak for the most distinct mountains in the district" />
		<tag k="name" v="Pelsrødåsen" />
		<tag k="natural" v="hill" />
		<tag k="place" v="locality" />
		<tag k="ssr:stedsnr" v="113110" />
	</node>
	<node id="-243170" lat="59.4862470354" lon="10.9470469826">
		<tag k="fixme" v="multiple name tags, choose one and add the other to alt_name; consider natural=peak for the most distinct mountains in the district" />
		<tag k="name" v="Leinaåsen;Moneåsen" />
		<tag k="natural" v="hill" />
		<tag k="place" v="locality" />
		<tag k="ssr:stedsnr" v="3666" />
	</node>
	<node id="-243623" lat="59.4226500031" lon="11.0977277729">
		<tag k="fixme" v="consider natural=peak for the most distinct mountains in the district" />
		<tag k="name" v="Grøttvetåsen" />
		<tag k="natural" v="hill" />
		<tag k="old_name" v="Grøtvetåsen" />
		<tag k="place" v="locality" />
		<tag k="ssr:stedsnr" v="175157" />
	</node>
	<node id="-243238" lat="59.4515777756" lon="11.0763277818">
		<tag k="name" v="Ørebru" />
		<tag k="place" v="locality" />
		<tag k="ssr:stedsnr" v="124316" />
	</node>
	<node id="-243505" lat="59.5181833326" lon="10.933655551">
		<tag k="name" v="Bukkesvingen" />
		<tag k="place" v="locality" />
		<tag k="ssr:stedsnr" v="871922" />
	</node>
	<node id="-243745" lat="59.4523027776" lon="11.050672228">
		<tag k="name" v="Kulpedalen" />
		<tag k="natural" v="valley" />
		<tag k="place" v="locality" />
		<tag k="ssr:stedsnr" v="538095" />
	</node>
	<node id="-243232" lat="59.3961265588" lon="11.0591672361">
		<tag k="fixme" v="consider natural=peak for the most distinct mountains in the district" />
		<tag k="name" v="Haukåsen" />
		<tag k="natural" v="hill" />
		<tag k="place" v="locality" />
		<tag k="ssr:stedsnr" v="123338" />
	</node>
	<node id="-243493" lat="59.4158194458" lon="11.1091250018">
		<tag k="fixme" v="consider natural=peak for the most distinct mountains in the district" />
		<tag k="name" v="Tjernsåsen" />
		<tag k="natural" v="hill" />
		<tag k="place" v="locality" />
		<tag k="ssr:stedsnr" v="933742" />
	</node>
	<node id="-243614" lat="59.4942138922" lon="10.9785833305">
>>>>>>> e1d4bc35ff8a6074a6f2e91616a996b547c36f15
		<tag k="fixme" v="consider natural=peak for the most distinct mountains in the district" />
		<tag k="name" v="Rørmyråsen" />
		<tag k="natural" v="hill" />
		<tag k="place" v="locality" />
		<tag k="ssr:stedsnr" v="144821" />
	</node>
<<<<<<< HEAD
	<node lat="59.44568333093648" lon="10.922597224698434" id="-15525">
		<tag k="name" v="Frølandshagen" />
		<tag k="place" v="locality" />
		<tag k="ssr:stedsnr" v="113048" />
	</node>
	<node lat="59.39612655877437" lon="11.059167236124486" id="-15532">
=======
	<node id="-243397" lat="59.4597055574" lon="10.8060305618">
>>>>>>> e1d4bc35ff8a6074a6f2e91616a996b547c36f15
		<tag k="fixme" v="consider natural=peak for the most distinct mountains in the district" />
		<tag k="name" v="Haukåsen" />
		<tag k="natural" v="hill" />
		<tag k="place" v="locality" />
		<tag k="ssr:stedsnr" v="123338" />
	</node>
<<<<<<< HEAD
	<node lat="59.409313887197" lon="11.081316670754944" id="-15533">
		<tag k="fixme" v="consider natural=peak for the most distinct mountains in the district" />
		<tag k="name" v="Skinnstakken" />
		<tag k="natural" v="hill" />
		<tag k="place" v="locality" />
		<tag k="ssr:stedsnr" v="123342" />
	</node>
	<node lat="59.414016662601924" lon="11.067505552276739" id="-15536">
		<tag k="fixme" v="consider natural=peak for the most distinct mountains in the district" />
		<tag k="name" v="Hustangåsen" />
		<tag k="natural" v="hill" />
		<tag k="place" v="locality" />
		<tag k="ssr:stedsnr" v="123354" />
	</node>
	<node lat="59.4229944445846" lon="10.902855556259746" id="-15539">
		<tag k="fixme" v="consider natural=peak for the most distinct mountains in the district" />
		<tag k="name" v="Marbukollen" />
		<tag k="natural" v="hill" />
		<tag k="place" v="locality" />
		<tag k="ssr:stedsnr" v="123375" />
	</node>
	<node lat="59.49421389223331" lon="10.978583330532116" id="-15550">
		<tag k="fixme" v="consider natural=peak for the most distinct mountains in the district" />
		<tag k="name" v="Rørmyråsen" />
		<tag k="natural" v="hill" />
		<tag k="place" v="locality" />
		<tag k="ssr:stedsnr" v="144821" />
	</node>
	<node lat="59.469883334454906" lon="11.068977769722007" id="-15590">
		<tag k="fixme" v="consider natural=peak for the most distinct mountains in the district" />
		<tag k="name" v="Grevlingåsen" />
		<tag k="natural" v="hill" />
		<tag k="place" v="locality" />
		<tag k="ssr:stedsnr" v="305733" />
	</node>
	<node lat="59.40256944156042" lon="10.9454194413942" id="-15607">
		<tag k="alt_name" v="Haukelia" />
		<tag k="name" v="Hauklia" />
=======
	<node id="-243356" lat="59.4070166652" lon="11.069199999">
		<tag k="fixme" v="consider natural=peak for the most distinct mountains in the district" />
		<tag k="name" v="Hagaåsen" />
		<tag k="natural" v="hill" />
		<tag k="place" v="locality" />
		<tag k="ssr:stedsnr" v="669296" />
	</node>
	<node id="-243482" lat="59.413291668" lon="11.020591666">
		<tag k="name" v="Prinsedalen" />
		<tag k="natural" v="valley" />
		<tag k="place" v="locality" />
		<tag k="ssr:stedsnr" v="781537" />
	</node>
	<node id="-243225" lat="59.4853638887" lon="10.9442083249">
		<tag k="fixme" v="consider natural=peak for the most distinct mountains in the district" />
		<tag k="name" v="Leinaåsen" />
		<tag k="natural" v="hill" />
		<tag k="place" v="locality" />
		<tag k="ssr:stedsnr" v="84829" />
	</node>
	<node id="-243736" lat="59.5377250009" lon="10.9859722225">
		<tag k="fixme" v="consider natural=peak for the most distinct mountains in the district" />
		<tag k="name" v="Lommetjernåsen" />
		<tag k="natural" v="hill" />
		<tag k="place" v="locality" />
		<tag k="ssr:stedsnr" v="429024" />
	</node>
	<node id="-243223" lat="59.5343444401" lon="10.9432555478">
		<tag k="fixme" v="consider natural=peak for the most distinct mountains in the district" />
		<tag k="name" v="Festningen" />
		<tag k="natural" v="hill" />
>>>>>>> e1d4bc35ff8a6074a6f2e91616a996b547c36f15
		<tag k="place" v="locality" />
		<tag k="ssr:stedsnr" v="84820" />
	</node>
<<<<<<< HEAD
	<node lat="59.4636519490549" lon="10.982872901725907" id="-15625">
		<tag k="fixme" v="consider natural=peak for the most distinct mountains in the district" />
		<tag k="name" v="Svinndalvarden" />
		<tag k="natural" v="hill" />
		<tag k="place" v="locality" />
		<tag k="ssr:stedsnr" v="366739" />
	</node>
	<node lat="59.4426722219645" lon="10.806880546956295" id="-15635">
		<tag k="name" v="Hasseldalen" />
		<tag k="natural" v="valley" />
		<tag k="place" v="locality" />
		<tag k="ssr:stedsnr" v="387871" />
	</node>
	<node lat="59.43776667011744" lon="10.789994449362299" id="-15640">
		<tag k="fixme" v="consider natural=peak for the most distinct mountains in the district" />
		<tag k="name" v="Sønsterudåsen" />
		<tag k="natural" v="hill" />
		<tag k="place" v="locality" />
		<tag k="ssr:stedsnr" v="417676" />
	</node>
	<node lat="59.537725000868875" lon="10.98597222246186" id="-15654">
		<tag k="fixme" v="consider natural=peak for the most distinct mountains in the district" />
		<tag k="name" v="Lommetjernåsen" />
		<tag k="natural" v="hill" />
		<tag k="place" v="locality" />
		<tag k="ssr:stedsnr" v="429024" />
	</node>
	<node lat="59.43480833660313" lon="10.849886111656327" id="-15659">
		<tag k="name" v="Havnåsen" />
		<tag k="natural" v="hill" />
		<tag k="place" v="locality" />
		<tag k="ssr:stedsnr" v="509733" />
	</node>
	<node lat="59.423250004328004" lon="10.951355559520753" id="-15660">
		<tag k="fixme" v="consider natural=peak for the most distinct mountains in the district" />
		<tag k="name" v="Grindalsåsen" />
		<tag k="natural" v="hill" />
		<tag k="place" v="locality" />
		<tag k="ssr:stedsnr" v="509791" />
	</node>
	<node lat="59.47853611378267" lon="10.958063886234621" id="-15663">
		<tag k="fixme" v="consider natural=peak for the most distinct mountains in the district" />
		<tag k="name" v="Gunnersås" />
		<tag k="natural" v="hill" />
		<tag k="place" v="locality" />
		<tag k="ssr:stedsnr" v="509830" />
	</node>
	<node lat="59.452302777623544" lon="11.050672227970386" id="-15668">
		<tag k="name" v="Kulpedalen" />
		<tag k="natural" v="valley" />
		<tag k="place" v="locality" />
		<tag k="ssr:stedsnr" v="538095" />
	</node>
	<node lat="59.39173888723617" lon="11.060450005995817" id="-15669">
		<tag k="fixme" v="consider natural=peak for the most distinct mountains in the district" />
		<tag k="loc_name" v="Haukeflo" />
		<tag k="name" v="Haukåsen" />
		<tag k="natural" v="hill" />
		<tag k="place" v="locality" />
		<tag k="ssr:stedsnr" v="538056" />
	</node>
	<node lat="59.45970555741784" lon="10.806030561842757" id="-15670">
		<tag k="fixme" v="consider natural=peak for the most distinct mountains in the district" />
		<tag k="name" v="Bergeråsen" />
		<tag k="natural" v="hill" />
		<tag k="place" v="locality" />
		<tag k="ssr:stedsnr" v="538758" />
	</node>
	<node lat="59.4056000003465" lon="10.79545000126936" id="-15671">
		<tag k="fixme" v="consider natural=peak for the most distinct mountains in the district" />
		<tag k="name" v="Skolemesteren" />
		<tag k="natural" v="hill" />
		<tag k="place" v="locality" />
		<tag k="ssr:stedsnr" v="538885" />
	</node>
	<node lat="59.42641666653159" lon="11.120569450099163" id="-15680">
		<tag k="fixme" v="consider natural=peak for the most distinct mountains in the district" />
		<tag k="name" v="Tyrihjell" />
		<tag k="natural" v="hill" />
		<tag k="place" v="locality" />
		<tag k="ssr:stedsnr" v="569774" />
	</node>
	<node lat="59.4656277788603" lon="10.95019722460732" id="-15691">
=======
	<node id="-243861" lat="59.405608336" lon="10.8110416613">
		<tag k="name" v="Danielbakken" />
		<tag k="natural" v="slope" />
		<tag k="place" v="locality" />
		<tag k="ssr:stedsnr" v="963902" />
	</node>
	<node id="-243476" lat="59.5108138919" lon="10.8788972184">
		<tag k="alt_name" v="Preståsene" />
		<tag k="fixme" v="consider natural=peak for the most distinct mountains in the district" />
		<tag k="name" v="Preståsen" />
		<tag k="natural" v="hill" />
		<tag k="place" v="locality" />
		<tag k="ssr:stedsnr" v="914049" />
	</node>
	<node id="-243741" lat="59.3917388872" lon="11.060450006">
		<tag k="fixme" v="consider natural=peak for the most distinct mountains in the district" />
		<tag k="loc_name" v="Haukeflo" />
		<tag k="name" v="Haukåsen" />
		<tag k="natural" v="hill" />
		<tag k="place" v="locality" />
		<tag k="ssr:stedsnr" v="538056" />
	</node>
	<node id="-243749" lat="59.4056000003" lon="10.7954500013">
		<tag k="fixme" v="consider natural=peak for the most distinct mountains in the district" />
		<tag k="name" v="Skolemesteren" />
		<tag k="natural" v="hill" />
		<tag k="place" v="locality" />
		<tag k="ssr:stedsnr" v="538885" />
	</node>
	<node id="-243601" lat="59.491858333" lon="10.9859249918">
		<tag k="fixme" v="consider natural=peak for the most distinct mountains in the district" />
		<tag k="name" v="Brannåsen" />
		<tag k="natural" v="hill" />
		<tag k="place" v="locality" />
		<tag k="ssr:stedsnr" v="124636" />
	</node>
	<node id="-243471" lat="59.4456027771" lon="11.0415277737">
		<tag k="fixme" v="consider natural=peak for the most distinct mountains in the district" />
		<tag k="name" v="Kattekloåsen" />
		<tag k="natural" v="hill" />
		<tag k="place" v="locality" />
		<tag k="ssr:stedsnr" v="913354" />
	</node>
	<node id="-243342" lat="59.4714666637" lon="11.0680444458">
		<tag k="name" v="Langerødåsen" />
		<tag k="natural" v="valley" />
		<tag k="place" v="locality" />
		<tag k="ssr:stedsnr" v="448823" />
	</node>
	<node id="-243459" lat="59.4979611154" lon="10.9940305492">
		<tag k="name" v="Setradalen" />
		<tag k="natural" v="valley" />
		<tag k="place" v="locality" />
		<tag k="ssr:stedsnr" v="750943" />
	</node>
	<node id="-243596" lat="59.4229944446" lon="10.9028555563">
		<tag k="fixme" v="consider natural=peak for the most distinct mountains in the district" />
		<tag k="name" v="Marbukollen" />
		<tag k="natural" v="hill" />
		<tag k="place" v="locality" />
		<tag k="ssr:stedsnr" v="123375" />
	</node>
	<node id="-243339" lat="59.483933334" lon="11.0614722195">
		<tag k="fixme" v="consider natural=peak for the most distinct mountains in the district" />
		<tag k="name" v="Tveitåsen" />
		<tag k="natural" v="hill" />
		<tag k="place" v="locality" />
		<tag k="ssr:stedsnr" v="659132" />
	</node>
	<node id="-243233" lat="59.4093138872" lon="11.0813166708">
		<tag k="fixme" v="consider natural=peak for the most distinct mountains in the district" />
		<tag k="name" v="Skinnstakken" />
		<tag k="natural" v="hill" />
		<tag k="place" v="locality" />
		<tag k="ssr:stedsnr" v="123342" />
	</node>
	<node id="-243593" lat="59.4140166626" lon="11.0675055523">
		<tag k="fixme" v="consider natural=peak for the most distinct mountains in the district" />
		<tag k="name" v="Hustangåsen" />
		<tag k="natural" v="hill" />
		<tag k="place" v="locality" />
		<tag k="ssr:stedsnr" v="123354" />
	</node>
	<node id="-243770" lat="59.4264166665" lon="11.1205694501">
>>>>>>> e1d4bc35ff8a6074a6f2e91616a996b547c36f15
		<tag k="fixme" v="consider natural=peak for the most distinct mountains in the district" />
		<tag k="name" v="Tyrihjell" />
		<tag k="natural" v="hill" />
		<tag k="place" v="locality" />
		<tag k="ssr:stedsnr" v="569774" />
	</node>
<<<<<<< HEAD
	<node lat="59.41102499943134" lon="11.05191111438203" id="-15708">
		<tag k="name" v="Struten" />
		<tag k="natural" v="valley" />
		<tag k="place" v="locality" />
		<tag k="ssr:stedsnr" v="659526" />
	</node>
	<node lat="59.4070166651665" lon="11.069199998999519" id="-15714">
		<tag k="fixme" v="consider natural=peak for the most distinct mountains in the district" />
		<tag k="name" v="Hagaåsen" />
		<tag k="natural" v="hill" />
		<tag k="place" v="locality" />
		<tag k="ssr:stedsnr" v="669296" />
	</node>
	<node lat="59.52361666320328" lon="10.887902785866538" id="-15733">
		<tag k="fixme" v="consider natural=peak for the most distinct mountains in the district" />
		<tag k="name" v="Røysås" />
		<tag k="natural" v="hill" />
		<tag k="place" v="locality" />
		<tag k="ssr:stedsnr" v="732043" />
	</node>
	<node lat="59.538574998330155" lon="10.954447222173453" id="-15734">
=======
	<node id="-243718" lat="59.4377666701" lon="10.7899944494">
		<tag k="fixme" v="consider natural=peak for the most distinct mountains in the district" />
		<tag k="name" v="Sønsterudåsen" />
		<tag k="natural" v="hill" />
		<tag k="place" v="locality" />
		<tag k="ssr:stedsnr" v="417676" />
	</node>
	<node id="-243460" lat="59.4127916659" lon="11.0011583389">
		<tag k="alt_name" v="Bunnåsen" />
		<tag k="fixme" v="consider natural=peak for the most distinct mountains in the district" />
		<tag k="name" v="Båndåsen" />
		<tag k="natural" v="hill" />
		<tag k="place" v="locality" />
		<tag k="ssr:stedsnr" v="912331" />
	</node>
	<node id="-243525" lat="59.3970250007" lon="11.0516111124">
>>>>>>> e1d4bc35ff8a6074a6f2e91616a996b547c36f15
		<tag k="fixme" v="consider natural=peak for the most distinct mountains in the district" />
		<tag k="name" v="Røysås" />
		<tag k="natural" v="hill" />
		<tag k="place" v="locality" />
		<tag k="ssr:stedsnr" v="732044" />
	</node>
<<<<<<< HEAD
	<node lat="59.4115944421043" lon="11.08520278029711" id="-15737">
		<tag k="fixme" v="consider natural=peak for the most distinct mountains in the district" />
		<tag k="name" v="Skinnstakkåsen" />
		<tag k="natural" v="hill" />
		<tag k="place" v="locality" />
		<tag k="ssr:stedsnr" v="750687" />
	</node>
	<node lat="59.5090083289424" lon="11.014827778351814" id="-15738">
		<tag k="name" v="Muskedalen" />
		<tag k="natural" v="valley" />
		<tag k="place" v="locality" />
		<tag k="ssr:stedsnr" v="751836" />
	</node>
	<node lat="59.41329166804479" lon="11.020591666017337" id="-15741">
		<tag k="name" v="Prinsedalen" />
		<tag k="natural" v="valley" />
		<tag k="place" v="locality" />
		<tag k="ssr:stedsnr" v="781537" />
	</node>
	<node lat="59.44685555627429" lon="11.021622216483049" id="-15744">
		<tag k="name" v="Sukkedalen" />
		<tag k="natural" v="valley" />
		<tag k="place" v="locality" />
		<tag k="ssr:stedsnr" v="781091" />
	</node>
	<node lat="59.4529861114942" lon="11.00501666991879" id="-15762">
		<tag k="name" v="Bratteflau" />
		<tag k="natural" v="cliff" />
		<tag k="ssr:stedsnr" v="812854" />
	</node>
	<node lat="59.44201111264217" lon="11.08186111275404" id="-15784">
		<tag k="fixme" v="consider natural=peak for the most distinct mountains in the district" />
		<tag k="name" v="Brannås" />
		<tag k="natural" v="hill" />
		<tag k="place" v="locality" />
		<tag k="ssr:stedsnr" v="873774" />
=======
	<node id="-243202" lat="59.530466667" lon="10.8190555625">
		<tag k="fixme" v="consider natural=peak for the most distinct mountains in the district" />
		<tag k="name" v="Ravnåsen" />
		<tag k="natural" v="hill" />
		<tag k="place" v="locality" />
		<tag k="ssr:stedsnr" v="65004" />
	</node>
	<node id="-243435" lat="59.4110249994" lon="11.0519111144">
		<tag k="name" v="Struten" />
		<tag k="natural" v="valley" />
		<tag k="place" v="locality" />
		<tag k="ssr:stedsnr" v="659526" />
>>>>>>> e1d4bc35ff8a6074a6f2e91616a996b547c36f15
	</node>
</osm>
