<?xml version="1.0" encoding="UTF-8"?>
<osm generator="osmapis" version="0.6">
	<node id="-23398" lat="59.4727035474" lon="10.7903209957">
		<tag k="fixme" v="consider place=hamlet" />
		<tag k="name" v="Auerød" />
		<tag k="place" v="farm" />
		<tag k="ssr:stedsnr" v="1078320" />
	</node>
	<node id="-23397" lat="59.5159474518" lon="10.9035058059">
		<tag k="name" v="Veidal" />
		<tag k="place" v="hamlet" />
		<tag k="ssr:stedsnr" v="1078310" />
	</node>
	<node id="-23396" lat="59.4858392536" lon="10.8951777043">
		<tag k="fixme" v="consider place=hamlet" />
		<tag k="name" v="Holm" />
		<tag k="place" v="farm" />
		<tag k="ssr:stedsnr" v="1078309" />
	</node>
	<node id="-23395" lat="59.4577043902" lon="10.9018200984">
		<tag k="fixme" v="consider place=hamlet" />
		<tag k="name" v="Bratterød" />
		<tag k="place" v="farm" />
		<tag k="ssr:stedsnr" v="1078308" />
	</node>
	<node id="-23394" lat="59.4508634431" lon="10.8408687088">
		<tag k="fixme" v="consider place=hamlet" />
		<tag k="name" v="Paulshus" />
		<tag k="place" v="farm" />
		<tag k="ssr:stedsnr" v="1078307" />
	</node>
	<node id="-23393" lat="59.5164139618" lon="10.7871028126">
		<tag k="fixme" v="consider place=hamlet" />
		<tag k="name" v="Kåter" />
		<tag k="place" v="farm" />
		<tag k="ssr:stedsnr" v="1078293" />
	</node>
	<node id="-23392" lat="59.5110278981" lon="10.8378209734">
		<tag k="name" v="Strøm" />
		<tag k="place" v="hamlet" />
		<tag k="ssr:stedsnr" v="1078289" />
	</node>
	<node id="-23373" lat="59.4029536561" lon="10.8533860497">
		<tag k="name" v="Gudøyhuken" />
		<tag k="place" v="locality" />
		<tag k="ssr:stedsnr" v="989271" />
	</node>
	<node id="-23370" lat="59.4493611137" lon="11.019319452">
		<tag k="name" v="Sukke" />
		<tag k="place" v="farm" />
		<tag k="ssr:stedsnr" v="963094" />
	</node>
	<node id="-23368" lat="59.4222356361" lon="11.0716827973">
		<tag k="name" v="Østenrød" />
		<tag k="place" v="farm" />
		<tag k="ssr:stedsnr" v="873783" />
	</node>
	<node id="-23366" lat="59.5210388847" lon="10.9641000031">
		<tag k="name" v="Stallheim" />
		<tag k="place" v="farm" />
		<tag k="ssr:stedsnr" v="873692" />
	</node>
	<node id="-23363" lat="59.4532694461" lon="10.88646945">
		<tag k="name" v="Kilen" />
		<tag k="place" v="isolated_dwelling" />
		<tag k="ssr:stedsnr" v="873738" />
	</node>
	<node id="-23362" lat="59.4832749959" lon="10.9329472176">
		<tag k="name" v="Skovdal" />
		<tag k="place" v="isolated_dwelling" />
		<tag k="ssr:stedsnr" v="873737" />
	</node>
	<node id="-23361" lat="59.4786558992" lon="10.7859375084">
		<tag k="fixme" v="consider place=hamlet" />
		<tag k="name" v="Kjesebotn" />
		<tag k="place" v="farm" />
		<tag k="ssr:stedsnr" v="853692" />
	</node>
	<node id="-23360" lat="59.4885742857" lon="10.8548058696">
		<tag k="fixme" v="consider place=hamlet" />
		<tag k="name" v="Folkestad" />
		<tag k="place" v="farm" />
		<tag k="ssr:stedsnr" v="853687" />
	</node>
	<node id="-23359" lat="59.4929333333" lon="10.9358055613">
		<tag k="alt_name" v="Veliødegard" />
		<tag k="name" v="Ødegården" />
		<tag k="place" v="farm" />
		<tag k="ssr:stedsnr" v="853685" />
	</node>
	<node id="-23358" lat="59.5070805588" lon="10.8829499959">
		<tag k="alt_name" v="Vilskog" />
		<tag k="name" v="Villskog" />
		<tag k="place" v="isolated_dwelling" />
		<tag k="ssr:stedsnr" v="853043" />
	</node>
	<node id="-23357" lat="59.4593055562" lon="10.90246112">
		<tag k="alt_name" v="Bratterød nordre;Bratterød" />
		<tag k="name" v="Nordre Bratterød" />
		<tag k="place" v="farm" />
		<tag k="ssr:stedsnr" v="852699" />
	</node>
	<node id="-23356" lat="59.4660277796" lon="10.775941662">
		<tag k="alt_name" v="Rød nordre" />
		<tag k="name" v="Nordre Rød" />
		<tag k="place" v="farm" />
		<tag k="ssr:stedsnr" v="852687" />
	</node>
	<node id="-23355" lat="59.4177059812" lon="10.986275118">
		<tag k="fixme" v="multiple name tags, choose one and add the other to alt_name" />
		<tag k="name" v="Berget;Holbakken" />
		<tag k="place" v="farm" />
		<tag k="ssr:stedsnr" v="852331" />
	</node>
	<node id="-23354" lat="59.4451916671" lon="10.7871527766">
		<tag k="name" v="Bjerkeli" />
		<tag k="place" v="farm" />
		<tag k="ssr:stedsnr" v="852375" />
	</node>
	<node id="-23353" lat="59.4448805524" lon="10.9490416646">
		<tag k="alt_name" v="Gjerredalen" />
		<tag k="name" v="Gjerdalen" />
		<tag k="place" v="farm" />
		<tag k="ssr:stedsnr" v="852369" />
	</node>
	<node id="-23352" lat="59.4625972245" lon="10.7745249938">
		<tag k="name" v="Rød" />
		<tag k="place" v="hamlet" />
		<tag k="ssr:stedsnr" v="842743" />
	</node>
	<node id="-23350" lat="59.4843805556" lon="10.8426305525">
		<tag k="name" v="Elvestad" />
		<tag k="place" v="isolated_dwelling" />
		<tag k="ssr:stedsnr" v="842634" />
	</node>
	<node id="-23348" lat="59.4371416627" lon="10.9345805558">
		<tag k="name" v="Bjerkedalsbingen" />
		<tag k="place" v="farm" />
		<tag k="ssr:stedsnr" v="841513" />
	</node>
	<node id="-23346" lat="59.5165856578" lon="10.8531681184">
		<tag k="name" v="Ombåstvet" />
		<tag k="old_name" v="Ombaastvet;Ombudstvet" />
		<tag k="place" v="hamlet" />
		<tag k="ssr:stedsnr" v="830864" />
	</node>
	<node id="-23345" lat="59.485001336" lon="10.8681315514">
		<tag k="fixme" v="consider place=hamlet" />
		<tag k="name" v="Flesberg" />
		<tag k="place" v="farm" />
		<tag k="ssr:stedsnr" v="830090" />
	</node>
	<node id="-23344" lat="59.4537527761" lon="11.0728333254">
		<tag k="name" v="Orebru" />
		<tag k="place" v="locality" />
		<tag k="ssr:stedsnr" v="812874" />
	</node>
	<node id="-23337" lat="59.518527778" lon="10.8614027774">
		<tag k="name" v="Folkestadbråten" />
		<tag k="place" v="isolated_dwelling" />
		<tag k="ssr:stedsnr" v="793053" />
	</node>
	<node id="-23336" lat="59.4719141618" lon="10.8589756957">
		<tag k="fixme" v="consider place=hamlet" />
		<tag k="name" v="Kalverød" />
		<tag k="place" v="farm" />
		<tag k="ssr:stedsnr" v="792716" />
	</node>
	<node id="-23335" lat="59.4865111124" lon="10.8997999997">
		<tag k="name" v="Navestad" />
		<tag k="place" v="isolated_dwelling" />
		<tag k="ssr:stedsnr" v="792706" />
	</node>
	<node id="-23334" lat="59.48746803" lon="10.9184276498">
		<tag k="fixme" v="consider place=hamlet" />
		<tag k="name" v="Nordby" />
		<tag k="place" v="farm" />
		<tag k="ssr:stedsnr" v="792680" />
	</node>
	<node id="-23333" lat="59.4849727011" lon="10.8638064571">
		<tag k="fixme" v="consider place=hamlet" />
		<tag k="name" v="Ven" />
		<tag k="place" v="farm" />
		<tag k="ssr:stedsnr" v="792668" />
	</node>
	<node id="-23332" lat="59.507011115" lon="11.0211333413">
		<tag k="alt_name" v="Nordengen" />
		<tag k="name" v="Nordeng" />
		<tag k="place" v="farm" />
		<tag k="ssr:stedsnr" v="792085" />
	</node>
	<node id="-23331" lat="59.441141664" lon="10.8793750075">
		<tag k="alt_name" v="Brattengen" />
		<tag k="name" v="Brattenga" />
		<tag k="place" v="farm" />
		<tag k="ssr:stedsnr" v="791339" />
	</node>
	<node id="-23329" lat="59.4333999957" lon="11.1050972255">
		<tag k="name" v="Kirkerød" />
		<tag k="place" v="farm" />
		<tag k="ssr:stedsnr" v="791214" />
	</node>
	<node id="-23327" lat="59.4837638893" lon="10.7874861193">
		<tag k="name" v="Hellhaugen" />
		<tag k="place" v="isolated_dwelling" />
		<tag k="ssr:stedsnr" v="781745" />
	</node>
	<node id="-23325" lat="59.4782222201" lon="11.0012499974">
		<tag k="name" v="Brøndal" />
		<tag k="place" v="farm" />
		<tag k="ssr:stedsnr" v="781124" />
	</node>
	<node id="-23322" lat="59.4523972225" lon="10.973999992">
		<tag k="name" v="Kjernsrød" />
		<tag k="place" v="farm" />
		<tag k="ssr:stedsnr" v="781090" />
	</node>
	<node id="-23316" lat="59.4288472255" lon="10.8625083268">
		<tag k="name" v="Stareng" />
		<tag k="place" v="farm" />
		<tag k="ssr:stedsnr" v="751804" />
	</node>
	<node id="-23313" lat="59.4442250032" lon="10.8543555497">
		<tag k="alt_name" v="Jonsrød søndre" />
		<tag k="name" v="Søndre Jonsrød" />
		<tag k="place" v="farm" />
		<tag k="ssr:stedsnr" v="630819" />
	</node>
	<node id="-23308" lat="59.4897749968" lon="10.9180305469">
		<tag k="name" v="Skogly" />
		<tag k="place" v="farm" />
		<tag k="ssr:stedsnr" v="629933" />
	</node>
	<node id="-23307" lat="59.496287645" lon="10.8338840568">
		<tag k="alt_name" v="Kåbbel nordre" />
		<tag k="name" v="Nordre Kåbbel" />
		<tag k="place" v="farm" />
		<tag k="ssr:stedsnr" v="629897" />
	</node>
	<node id="-23306" lat="59.4973027784" lon="10.8402194393">
		<tag k="name" v="Torsheim" />
		<tag k="place" v="isolated_dwelling" />
		<tag k="ssr:stedsnr" v="629895" />
	</node>
	<node id="-23302" lat="59.5012333303" lon="10.8966861058">
		<tag k="alt_name" v="Bredengen" />
		<tag k="name" v="Breidenga" />
		<tag k="place" v="farm" />
		<tag k="ssr:stedsnr" v="610107" />
	</node>
	<node id="-23301" lat="59.503261112" lon="10.8992749971">
		<tag k="name" v="Holmen" />
		<tag k="place" v="farm" />
		<tag k="ssr:stedsnr" v="610106" />
	</node>
	<node id="-23300" lat="59.4999222233" lon="11.0472277805">
		<tag k="name" v="Holter" />
		<tag k="place" v="farm" />
		<tag k="ssr:stedsnr" v="610096" />
	</node>
	<node id="-23298" lat="59.4926999995" lon="11.0099611109">
		<tag k="name" v="Ødemark" />
		<tag k="place" v="farm" />
		<tag k="ssr:stedsnr" v="609662" />
	</node>
	<node id="-23297" lat="59.4680750021" lon="10.8363555576">
		<tag k="name" v="Solheim" />
		<tag k="place" v="farm" />
		<tag k="ssr:stedsnr" v="608741" />
	</node>
	<node id="-23295" lat="59.4140361125" lon="11.0135638905">
		<tag k="name" v="Myre" />
		<tag k="place" v="farm" />
		<tag k="ssr:stedsnr" v="608337" />
	</node>
	<node id="-23294" lat="59.4378111105" lon="11.0529305629">
		<tag k="alt_name" v="Rødsekk" />
		<tag k="name" v="Røsek" />
		<tag k="place" v="farm" />
		<tag k="ssr:stedsnr" v="608364" />
	</node>
	<node id="-23293" lat="59.4228304555" lon="11.0434467997">
		<tag k="alt_name" v="Løkeberg" />
		<tag k="fixme" v="consider place=hamlet" />
		<tag k="name" v="Lokoberg" />
		<tag k="place" v="farm" />
		<tag k="ssr:stedsnr" v="600350" />
	</node>
	<node id="-23291" lat="59.4843083291" lon="10.9503111141">
		<tag k="name" v="Nordli" />
		<tag k="place" v="farm" />
		<tag k="ssr:stedsnr" v="598114" />
	</node>
	<node id="-23289" lat="59.418274197" lon="10.8219883909">
		<tag k="alt_name" v="Kjernes" />
		<tag k="fixme" v="consider place=hamlet" />
		<tag k="name" v="Kjærnes" />
		<tag k="place" v="farm" />
		<tag k="ssr:stedsnr" v="584347" />
	</node>
	<node id="-23288" lat="59.4998749969" lon="10.8171194462">
		<tag k="name" v="Koto" />
		<tag k="place" v="farm" />
		<tag k="ssr:stedsnr" v="569846" />
	</node>
	<node id="-23286" lat="59.4623250025" lon="10.8109249948">
		<tag k="name" v="Roan" />
		<tag k="place" v="farm" />
		<tag k="ssr:stedsnr" v="569829" />
	</node>
	<node id="-23283" lat="59.5061333377" lon="10.9580527832">
		<tag k="name" v="Nygårdsbingen" />
		<tag k="place" v="locality" />
		<tag k="ssr:stedsnr" v="569802" />
	</node>
	<node id="-23278" lat="59.4520277786" lon="11.0858805624">
		<tag k="name" v="Tatermyr" />
		<tag k="place" v="locality" />
		<tag k="ssr:stedsnr" v="569766" />
	</node>
	<node id="-23276" lat="59.4719138935" lon="10.9152138836">
		<tag k="name" v="Navestadhytta" />
		<tag k="place" v="isolated_dwelling" />
		<tag k="ssr:stedsnr" v="569741" />
	</node>
	<node id="-23274" lat="59.4214006475" lon="11.0753372326">
		<tag k="name" v="Østenrød" />
		<tag k="place" v="farm" />
		<tag k="ssr:stedsnr" v="568699" />
	</node>
	<node id="-23273" lat="59.5079083377" lon="10.9678194481">
		<tag k="name" v="Belgeskogen" />
		<tag k="place" v="farm" />
		<tag k="ssr:stedsnr" v="567974" />
	</node>
	<node id="-23272" lat="59.5244631124" lon="10.8229283439">
		<tag k="alt_name" v="Stensrød søndre" />
		<tag k="name" v="Søndre Stensrød" />
		<tag k="place" v="farm" />
		<tag k="ssr:stedsnr" v="567911" />
	</node>
	<node id="-23270" lat="59.5190583321" lon="10.9367888817">
		<tag k="alt_name" v="Høyden" />
		<tag k="name" v="Høgda" />
		<tag k="place" v="farm" />
		<tag k="ssr:stedsnr" v="550066" />
	</node>
	<node id="-23269" lat="59.5230249959" lon="10.937777777">
		<tag k="name" v="Bråten" />
		<tag k="place" v="isolated_dwelling" />
		<tag k="ssr:stedsnr" v="550012" />
	</node>
	<node id="-23268" lat="59.482742174" lon="10.8857620605">
		<tag k="fixme" v="consider place=hamlet" />
		<tag k="name" v="Vestland" />
		<tag k="place" v="farm" />
		<tag k="ssr:stedsnr" v="549699" />
	</node>
	<node id="-23267" lat="59.4799833364" lon="10.8553805545">
		<tag k="name" v="Tangen" />
		<tag k="place" v="farm" />
		<tag k="ssr:stedsnr" v="549669" />
	</node>
	<node id="-23266" lat="59.4526777753" lon="10.8926777802">
		<tag k="fixme" v="multiple name tags, choose one and add the other to alt_name" />
		<tag k="name" v="Brattenga;Bratterøddalen" />
		<tag k="place" v="farm" />
		<tag k="ssr:stedsnr" v="548722" />
	</node>
	<node id="-23265" lat="59.4692874888" lon="10.9186896767">
		<tag k="fixme" v="consider place=hamlet" />
		<tag k="name" v="Lunder" />
		<tag k="place" v="farm" />
		<tag k="ssr:stedsnr" v="548718" />
	</node>
	<node id="-23264" lat="59.4701506746" lon="11.0017835564">
		<tag k="fixme" v="consider place=hamlet" />
		<tag k="name" v="Lunder" />
		<tag k="place" v="farm" />
		<tag k="ssr:stedsnr" v="548711" />
	</node>
	<node id="-23263" lat="59.4531444426" lon="10.84350555">
		<tag k="alt_name" v="Pålshus nordre" />
		<tag k="name" v="Nordre Paulshus" />
		<tag k="place" v="farm" />
		<tag k="ssr:stedsnr" v="548393" />
	</node>
	<node id="-23262" lat="59.4143861123" lon="11.0836527714">
		<tag k="name" v="Langebråte" />
		<tag k="place" v="farm" />
		<tag k="ssr:stedsnr" v="548346" />
	</node>
	<node id="-23261" lat="59.4410421307" lon="11.1048779828">
		<tag k="alt_name" v="Bjerketvedt;Bjerketvet" />
		<tag k="name" v="Bjørketvet" />
		<tag k="place" v="farm" />
		<tag k="ssr:stedsnr" v="548200" />
	</node>
	<node id="-23260" lat="59.5187276091" lon="10.9455497884">
		<tag k="alt_name" v="Tveter" />
		<tag k="fixme" v="consider place=hamlet" />
		<tag k="name" v="Tveiter" />
		<tag k="place" v="farm" />
		<tag k="ssr:stedsnr" v="543069" />
	</node>
	<node id="-23256" lat="59.4503722254" lon="11.0200694413">
		<tag k="alt_name" v="Sukke nordre" />
		<tag k="name" v="Nordre Sukke" />
		<tag k="place" v="farm" />
		<tag k="ssr:stedsnr" v="538103" />
	</node>
	<node id="-23254" lat="59.4577112602" lon="11.0133731994">
		<tag k="alt_name" v="Bråte vestre" />
		<tag k="name" v="Vestre Bråte" />
		<tag k="place" v="farm" />
		<tag k="ssr:stedsnr" v="538091" />
	</node>
	<node id="-23253" lat="59.4589951682" lon="11.0169361343">
		<tag k="alt_name" v="Bråte østre" />
		<tag k="fixme" v="consider place=hamlet" />
		<tag k="name" v="Østre Bråte" />
		<tag k="place" v="farm" />
		<tag k="ssr:stedsnr" v="538089" />
	</node>
	<node id="-23252" lat="59.4576680182" lon="11.0153147217">
		<tag k="name" v="Bråte" />
		<tag k="place" v="hamlet" />
		<tag k="ssr:stedsnr" v="538087" />
	</node>
	<node id="-23249" lat="59.4940437234" lon="10.8328862378">
		<tag k="alt_name" v="Kåbbel" />
		<tag k="name" v="Kåbøl" />
		<tag k="old_name" v="Østre Kaabøl" />
		<tag k="place" v="farm" />
		<tag k="ssr:stedsnr" v="526104" />
	</node>
	<node id="-23248" lat="59.5020138919" lon="11.0207638895">
		<tag k="alt_name" v="Vildskog" />
		<tag k="name" v="Villskog" />
		<tag k="place" v="farm" />
		<tag k="ssr:stedsnr" v="429075" />
	</node>
	<node id="-23247" lat="59.5018527767" lon="10.9930749915">
		<tag k="alt_name" v="Setra" />
		<tag k="name" v="Sætra" />
		<tag k="place" v="farm" />
		<tag k="ssr:stedsnr" v="429074" />
	</node>
	<node id="-23245" lat="59.4782026685" lon="10.9926226284">
		<tag k="fixme" v="consider place=hamlet" />
		<tag k="name" v="Solberg" />
		<tag k="place" v="farm" />
		<tag k="ssr:stedsnr" v="428691" />
	</node>
	<node id="-23243" lat="59.4889364956" lon="10.9250088542">
		<tag k="alt_name" v="Nordbyødegård" />
		<tag k="name" v="Nordbyødegården" />
		<tag k="place" v="farm" />
		<tag k="ssr:stedsnr" v="428680" />
	</node>
	<node id="-23242" lat="59.4788071681" lon="10.8483667189">
		<tag k="alt_name" v="Risheim" />
		<tag k="fixme" v="consider place=hamlet" />
		<tag k="name" v="Risum" />
		<tag k="place" v="farm" />
		<tag k="ssr:stedsnr" v="428664" />
	</node>
	<node id="-23241" lat="59.4978027821" lon="10.8792527765">
		<tag k="alt_name" v="Orskaug" />
		<tag k="name" v="Orskog" />
		<tag k="place" v="farm" />
		<tag k="ssr:stedsnr" v="428660" />
	</node>
	<node id="-23240" lat="59.5109167721" lon="10.9352801739">
		<tag k="fixme" v="consider place=hamlet" />
		<tag k="name" v="Frosterød" />
		<tag k="place" v="farm" />
		<tag k="ssr:stedsnr" v="428049" />
	</node>
	<node id="-23239" lat="59.514208837" lon="10.8380369572">
		<tag k="alt_name" v="Strøm, nordre" />
		<tag k="fixme" v="consider place=hamlet" />
		<tag k="name" v="Nordre Strøm" />
		<tag k="place" v="farm" />
		<tag k="ssr:stedsnr" v="428045" />
	</node>
	<node id="-23238" lat="59.5082055577" lon="10.8017777748">
		<tag k="alt_name" v="Gylderdammen søndre;Dammen" />
		<tag k="name" v="Søndre Gylderdammen" />
		<tag k="place" v="farm" />
		<tag k="ssr:stedsnr" v="428042" />
	</node>
	<node id="-23237" lat="59.4702055536" lon="10.8540722201">
		<tag k="name" v="Bakketun" />
		<tag k="place" v="farm" />
		<tag k="ssr:stedsnr" v="427693" />
	</node>
	<node id="-23236" lat="59.4294722225" lon="10.8524555555">
		<tag k="name" v="Mosserosenga" />
		<tag k="place" v="farm" />
		<tag k="ssr:stedsnr" v="427375" />
	</node>
	<node id="-23234" lat="59.4239416982" lon="11.0099103854">
		<tag k="fixme" v="consider place=hamlet" />
		<tag k="name" v="Gunnerød" />
		<tag k="place" v="farm" />
		<tag k="ssr:stedsnr" v="427371" />
	</node>
	<node id="-23233" lat="59.4308281892" lon="11.0106770679">
		<tag k="alt_name" v="Bøgle" />
		<tag k="fixme" v="consider place=hamlet" />
		<tag k="name" v="Bøle" />
		<tag k="place" v="farm" />
		<tag k="ssr:stedsnr" v="427369" />
	</node>
	<node id="-23232" lat="59.4161222254" lon="10.83585278">
		<tag k="alt_name" v="Rødsengen" />
		<tag k="name" v="Rødsenga" />
		<tag k="place" v="farm" />
		<tag k="ssr:stedsnr" v="427359" />
	</node>
	<node id="-23231" lat="59.4170305534" lon="10.9715333352">
		<tag k="name" v="Boslangen" />
		<tag k="place" v="farm" />
		<tag k="ssr:stedsnr" v="427354" />
	</node>
	<node id="-23230" lat="59.4233750019" lon="11.1309722135">
		<tag k="name" v="Stokkebekk" />
		<tag k="place" v="farm" />
		<tag k="ssr:stedsnr" v="427182" />
	</node>
	<node id="-23229" lat="59.4369249967" lon="10.8241777723">
		<tag k="name" v="Tokerød" />
		<tag k="place" v="farm" />
		<tag k="ssr:stedsnr" v="417683" />
	</node>
	<node id="-23227" lat="59.4613805523" lon="11.0227916656">
		<tag k="name" v="Nygård" />
		<tag k="place" v="farm" />
		<tag k="ssr:stedsnr" v="417074" />
	</node>
	<node id="-23226" lat="59.4985750021" lon="11.0177388866">
		<tag k="name" v="Fløterneset" />
		<tag k="place" v="farm" />
		<tag k="ssr:stedsnr" v="386939" />
	</node>
	<node id="-23224" lat="59.5020277787" lon="11.0401472253">
		<tag k="name" v="Holterdalen" />
		<tag k="place" v="isolated_dwelling" />
		<tag k="ssr:stedsnr" v="368106" />
	</node>
	<node id="-23223" lat="59.5154277797" lon="10.832727773">
		<tag k="alt_name" v="Flakstad søndre" />
		<tag k="name" v="Søndre Flakestad" />
		<tag k="place" v="farm" />
		<tag k="ssr:stedsnr" v="368070" />
	</node>
	<node id="-23222" lat="59.5209972224" lon="10.9102249918">
		<tag k="name" v="Enga" />
		<tag k="place" v="farm" />
		<tag k="ssr:stedsnr" v="368068" />
	</node>
	<node id="-23221" lat="59.4829909415" lon="10.9193566797">
		<tag k="fixme" v="consider place=hamlet" />
		<tag k="name" v="Bjerke" />
		<tag k="place" v="farm" />
		<tag k="ssr:stedsnr" v="367702" />
	</node>
	<node id="-23220" lat="59.4926000006" lon="10.8151111151">
		<tag k="alt_name" v="Voldengen" />
		<tag k="name" v="Voldenga" />
		<tag k="place" v="farm" />
		<tag k="ssr:stedsnr" v="367661" />
	</node>
	<node id="-23219" lat="59.4904166632" lon="10.8068166684">
		<tag k="name" v="Klypen" />
		<tag k="place" v="farm" />
		<tag k="ssr:stedsnr" v="367660" />
	</node>
	<node id="-23218" lat="59.5033861136" lon="10.9726500085">
		<tag k="name" v="Keiserdalen" />
		<tag k="place" v="farm" />
		<tag k="ssr:stedsnr" v="367063" />
	</node>
	<node id="-23217" lat="59.5058166666" lon="10.8128888834">
		<tag k="name" v="Gyldermyra" />
		<tag k="place" v="farm" />
		<tag k="ssr:stedsnr" v="367034" />
	</node>
	<node id="-23215" lat="59.464012938" lon="11.0086474789">
		<tag k="alt_name" v="Lundem" />
		<tag k="name" v="Lundum" />
		<tag k="place" v="hamlet" />
		<tag k="ssr:stedsnr" v="366737" />
	</node>
	<node id="-23214" lat="59.463153729" lon="10.9628863954">
		<tag k="alt_name" v="Aspjøt" />
		<tag k="fixme" v="consider place=hamlet" />
		<tag k="name" v="Åspjøt" />
		<tag k="place" v="farm" />
		<tag k="ssr:stedsnr" v="366734" />
	</node>
	<node id="-23213" lat="59.4579222192" lon="11.0751972232">
		<tag k="alt_name" v="Nybråte" />
		<tag k="name" v="Nybråten" />
		<tag k="place" v="farm" />
		<tag k="ssr:stedsnr" v="366731" />
	</node>
	<node id="-23212" lat="59.4707166661" lon="11.0583305515">
		<tag k="name" v="Svartedal" />
		<tag k="place" v="isolated_dwelling" />
		<tag k="ssr:stedsnr" v="366722" />
	</node>
	<node id="-23211" lat="59.4685805588" lon="10.8999611087">
		<tag k="alt_name" v="Lahella" />
		<tag k="name" v="Lahelle" />
		<tag k="place" v="farm" />
		<tag k="ssr:stedsnr" v="366715" />
	</node>
	<node id="-23210" lat="59.4469152104" lon="10.865405669">
		<tag k="fixme" v="consider place=hamlet" />
		<tag k="name" v="Skirød" />
		<tag k="place" v="farm" />
		<tag k="ssr:stedsnr" v="366385" />
	</node>
	<node id="-23208" lat="59.4389166693" lon="10.9670750088">
		<tag k="name" v="Vestli" />
		<tag k="place" v="farm" />
		<tag k="ssr:stedsnr" v="366370" />
	</node>
	<node id="-23207" lat="59.4363631225" lon="10.8203897108">
		<tag k="fixme" v="consider place=hamlet" />
		<tag k="name" v="Tokerød" />
		<tag k="place" v="farm" />
		<tag k="ssr:stedsnr" v="366364" />
	</node>
	<node id="-23206" lat="59.4380824079" lon="11.0431410557">
		<tag k="fixme" v="consider place=hamlet" />
		<tag k="name" v="Røstad" />
		<tag k="place" v="farm" />
		<tag k="ssr:stedsnr" v="366362" />
	</node>
	<node id="-23205" lat="59.4383114178" lon="10.97798905">
		<tag k="fixme" v="consider place=hamlet" />
		<tag k="name" v="Eng" />
		<tag k="place" v="farm" />
		<tag k="ssr:stedsnr" v="366357" />
	</node>
	<node id="-23204" lat="59.431988887" lon="11.0760416612">
		<tag k="name" v="Solvang" />
		<tag k="place" v="farm" />
		<tag k="ssr:stedsnr" v="366352" />
	</node>
	<node id="-23203" lat="59.4270050887" lon="10.9681359064">
		<tag k="fixme" v="consider place=hamlet" />
		<tag k="name" v="Unum" />
		<tag k="place" v="farm" />
		<tag k="ssr:stedsnr" v="366351" />
	</node>
	<node id="-23201" lat="59.4199038749" lon="10.9824965318">
		<tag k="fixme" v="consider place=hamlet" />
		<tag k="name" v="Ertnes" />
		<tag k="place" v="farm" />
		<tag k="ssr:stedsnr" v="366332" />
	</node>
	<node id="-23200" lat="59.4183138902" lon="11.0525416617">
		<tag k="alt_name" v="Måleng" />
		<tag k="name" v="Målenga" />
		<tag k="place" v="farm" />
		<tag k="ssr:stedsnr" v="366326" />
	</node>
	<node id="-23199" lat="59.4135805599" lon="10.8408083255">
		<tag k="alt_name" v="Tollengen" />
		<tag k="name" v="Tålenga" />
		<tag k="place" v="farm" />
		<tag k="ssr:stedsnr" v="366318" />
	</node>
	<node id="-23197" lat="59.457941542" lon="10.8081980224">
		<tag k="fixme" v="consider place=hamlet" />
		<tag k="loc_name" v="Sperrebunn" />
		<tag k="name" v="Sperbund" />
		<tag k="place" v="farm" />
		<tag k="ssr:stedsnr" v="356740" />
	</node>
	<node id="-23194" lat="59.4301722194" lon="11.0018499996">
		<tag k="fixme" v="consider place=suburb, village or hamlet" />
		<tag k="name" v="Fosseberget" />
		<tag k="place" v="quarter" />
		<tag k="ssr:stedsnr" v="356516" />
	</node>
	<node id="-23193" lat="59.4247936414" lon="10.7928004979">
		<tag k="fixme" v="consider place=hamlet" />
		<tag k="name" v="Vesetrød" />
		<tag k="place" v="farm" />
		<tag k="ssr:stedsnr" v="327796" />
	</node>
	<node id="-23191" lat="59.4319083348" lon="11.0157750063">
		<tag k="name" v="Vårli" />
		<tag k="place" v="farm" />
		<tag k="ssr:stedsnr" v="327779" />
	</node>
	<node id="-23189" lat="59.491783332" lon="10.9379277775">
		<tag k="alt_name" v="Guttulsrød nordre" />
		<tag k="name" v="Nordre Guttulsrød" />
		<tag k="place" v="farm" />
		<tag k="ssr:stedsnr" v="326893" />
	</node>
	<node id="-23188" lat="59.4334638914" lon="11.1049027826">
		<tag k="alt_name" v="Ødegaarden, Kirkerød lille" />
		<tag k="name" v="Ødegård" />
		<tag k="place" v="farm" />
		<tag k="ssr:stedsnr" v="326971" />
	</node>
	<node id="-23187" lat="59.4398888135" lon="11.1182864866">
		<tag k="alt_name" v="Bjørketvet lille;Bjerketvet" />
		<tag k="name" v="Lille Bjørketvet" />
		<tag k="place" v="farm" />
		<tag k="ssr:stedsnr" v="326968" />
	</node>
	<node id="-23186" lat="59.4390166664" lon="11.1127055538">
		<tag k="alt_name" v="Bjerketvet" />
		<tag k="name" v="Bjørketvet" />
		<tag k="place" v="farm" />
		<tag k="ssr:stedsnr" v="326966" />
	</node>
	<node id="-23185" lat="59.4980666659" lon="10.8197305504">
		<tag k="name" v="Bråtenes" />
		<tag k="place" v="locality" />
		<tag k="ssr:stedsnr" v="325873" />
	</node>
	<node id="-23184" lat="59.5102086163" lon="10.9426200004">
		<tag k="alt_name" v="Gurød" />
		<tag k="fixme" v="consider place=hamlet" />
		<tag k="name" v="Gurrød" />
		<tag k="place" v="farm" />
		<tag k="ssr:stedsnr" v="307049" />
	</node>
	<node id="-23183" lat="59.5073999962" lon="10.8335250074">
		<tag k="alt_name" v="Såstad søndre;Såstad" />
		<tag k="name" v="Søndre Såstad" />
		<tag k="place" v="farm" />
		<tag k="ssr:stedsnr" v="307045" />
	</node>
	<node id="-23182" lat="59.4553833335" lon="10.9026611185">
		<tag k="alt_name" v="Bratterød søndre" />
		<tag k="name" v="Søndre Bratterød" />
		<tag k="place" v="farm" />
		<tag k="ssr:stedsnr" v="306719" />
	</node>
	<node id="-23181" lat="59.4543777755" lon="11.0361472308">
		<tag k="name" v="Lunden" />
		<tag k="place" v="isolated_dwelling" />
		<tag k="ssr:stedsnr" v="306709" />
	</node>
	<node id="-23180" lat="59.478619443" lon="10.9623027846">
		<tag k="alt_name" v="Helgedal" />
		<tag k="name" v="Helgedalen" />
		<tag k="place" v="farm" />
		<tag k="ssr:stedsnr" v="306688" />
	</node>
	<node id="-23179" lat="59.4902388867" lon="10.9526777839">
		<tag k="alt_name" v="Vesleengen" />
		<tag k="name" v="Vesleenga" />
		<tag k="place" v="farm" />
		<tag k="ssr:stedsnr" v="306670" />
	</node>
	<node id="-23177" lat="59.4902604045" lon="10.7867727663">
		<tag k="fixme" v="consider place=hamlet" />
		<tag k="name" v="Lødeng" />
		<tag k="place" v="farm" />
		<tag k="ssr:stedsnr" v="306640" />
	</node>
	<node id="-23176" lat="59.4956222253" lon="11.0240555596">
		<tag k="alt_name" v="Kjernsbekk" />
		<tag k="name" v="Tjernsbekk" />
		<tag k="place" v="farm" />
		<tag k="ssr:stedsnr" v="306635" />
	</node>
	<node id="-23175" lat="59.4543666675" lon="11.0613222159">
		<tag k="name" v="Langerødødegården" />
		<tag k="place" v="farm" />
		<tag k="ssr:stedsnr" v="306361" />
	</node>
	<node id="-23174" lat="59.4506411428" lon="10.8519727642">
		<tag k="fixme" v="consider place=hamlet" />
		<tag k="name" v="Botner" />
		<tag k="place" v="farm" />
		<tag k="ssr:stedsnr" v="306360" />
	</node>
	<node id="-23173" lat="59.5301194482" lon="10.9441083307">
		<tag k="alt_name" v="Bergby" />
		<tag k="name" v="Berby" />
		<tag k="place" v="farm" />
		<tag k="ssr:stedsnr" v="307016" />
	</node>
	<node id="-23172" lat="59.4326749955" lon="11.0933972307">
		<tag k="name" v="Hammersborg" />
		<tag k="place" v="farm" />
		<tag k="ssr:stedsnr" v="306207" />
	</node>
	<node id="-23171" lat="59.4696055527" lon="10.897708335">
		<tag k="name" v="Ringvoll" />
		<tag k="place" v="farm" />
		<tag k="ssr:stedsnr" v="305735" />
	</node>
	<node id="-23169" lat="59.4353718773" lon="10.9959398854">
		<tag k="alt_name" v="Mellegård" />
		<tag k="fixme" v="consider place=hamlet" />
		<tag k="name" v="Mellegarden" />
		<tag k="place" v="farm" />
		<tag k="ssr:stedsnr" v="305368" />
	</node>
	<node id="-23168" lat="59.4290055548" lon="11.0044916634">
		<tag k="name" v="Elvestad" />
		<tag k="place" v="farm" />
		<tag k="ssr:stedsnr" v="305357" />
	</node>
	<node id="-23167" lat="59.427775002" lon="11.0854000083">
		<tag k="name" v="Berg" />
		<tag k="place" v="farm" />
		<tag k="ssr:stedsnr" v="305345" />
	</node>
	<node id="-23166" lat="59.4244000006" lon="10.7746027822">
		<tag k="name" v="Ånnerød" />
		<tag k="place" v="locality" />
		<tag k="ssr:stedsnr" v="305343" />
	</node>
	<node id="-23165" lat="59.4184722193" lon="10.7886777825">
		<tag k="alt_name" v="Kjersund" />
		<tag k="name" v="Kjærsund" />
		<tag k="place" v="farm" />
		<tag k="ssr:stedsnr" v="305342" />
	</node>
	<node id="-23164" lat="59.4148203633" lon="10.7951234574">
		<tag k="fixme" v="consider place=hamlet" />
		<tag k="name" v="Ødegårdssletta" />
		<tag k="place" v="farm" />
		<tag k="ssr:stedsnr" v="305333" />
	</node>
	<node id="-23163" lat="59.4064444487" lon="10.9083361152">
		<tag k="name" v="Sandå" />
		<tag k="place" v="farm" />
		<tag k="ssr:stedsnr" v="305332" />
	</node>
	<node id="-23162" lat="59.4679441166" lon="10.8022197907">
		<tag k="name" v="Våk" />
		<tag k="place" v="hamlet" />
		<tag k="ssr:stedsnr" v="305724" />
	</node>
	<node id="-23159" lat="59.4202499957" lon="11.0409694487">
		<tag k="alt_name" v="Vastvet nedre;Vastvedt nedre" />
		<tag k="name" v="Nedre Vastvet" />
		<tag k="place" v="farm" />
		<tag k="ssr:stedsnr" v="205887" />
	</node>
	<node id="-23153" lat="59.4457583344" lon="10.9086027799">
		<tag k="alt_name" v="Ros nordre;Ros, nordre" />
		<tag k="name" v="Nordre Ros" />
		<tag k="place" v="farm" />
		<tag k="ssr:stedsnr" v="205800" />
	</node>
	<node id="-23152" lat="59.4381638933" lon="11.1045000002">
		<tag k="alt_name" v="Bjerketvet" />
		<tag k="name" v="Bjørketvet" />
		<tag k="place" v="farm" />
		<tag k="ssr:stedsnr" v="204972" />
	</node>
	<node id="-23151" lat="59.4928916674" lon="11.0056166649">
		<tag k="name" v="Ødemark" />
		<tag k="place" v="farm" />
		<tag k="ssr:stedsnr" v="204946" />
	</node>
	<node id="-23149" lat="59.494516671" lon="10.8442777804">
		<tag k="alt_name" v="Torsnes" />
		<tag k="name" v="Søndre Torsnes" />
		<tag k="place" v="farm" />
		<tag k="ssr:stedsnr" v="204879" />
	</node>
	<node id="-23148" lat="59.429299996" lon="11.1046944514">
		<tag k="alt_name" v="Skaug" />
		<tag k="name" v="Skog" />
		<tag k="place" v="farm" />
		<tag k="ssr:stedsnr" v="191771" />
	</node>
	<node id="-23147" lat="59.5015222224" lon="10.8868611149">
		<tag k="name" v="Hagen" />
		<tag k="place" v="farm" />
		<tag k="ssr:stedsnr" v="186086" />
	</node>
	<node id="-23146" lat="59.515578803" lon="10.9510784267">
		<tag k="fixme" v="consider place=hamlet" />
		<tag k="name" v="Brårød" />
		<tag k="place" v="farm" />
		<tag k="ssr:stedsnr" v="186065" />
	</node>
	<node id="-23145" lat="59.471578804" lon="10.8090562853">
		<tag k="fixme" v="consider place=hamlet" />
		<tag k="name" v="Kjuksrød" />
		<tag k="place" v="farm" />
		<tag k="ssr:stedsnr" v="185668" />
	</node>
	<node id="-23142" lat="59.4465750022" lon="11.0319055624">
		<tag k="name" v="Sukkebråten" />
		<tag k="place" v="farm" />
		<tag k="ssr:stedsnr" v="185348" />
	</node>
	<node id="-23139" lat="59.4418909349" lon="10.9588254041">
		<tag k="fixme" v="consider place=hamlet" />
		<tag k="name" v="Flesjø" />
		<tag k="place" v="farm" />
		<tag k="ssr:stedsnr" v="184368" />
	</node>
	<node id="-23137" lat="59.4231081671" lon="11.0425307996">
		<tag k="fixme" v="multiple name tags, choose one and add the other to alt_name" />
		<tag k="name" v="Høyda;Løkeberg" />
		<tag k="place" v="farm" />
		<tag k="ssr:stedsnr" v="184337" />
	</node>
	<node id="-23136" lat="59.4252555535" lon="11.0399138944">
		<tag k="name" v="Lokoberg" />
		<tag k="place" v="isolated_dwelling" />
		<tag k="ssr:stedsnr" v="184336" />
	</node>
	<node id="-23134" lat="59.5147161466" lon="10.8540692548">
		<tag k="alt_name" v="Ombåstvet, søndre;Ombustvedt søndre" />
		<tag k="fixme" v="consider place=hamlet" />
		<tag k="name" v="Søndre Ombåstvet" />
		<tag k="place" v="farm" />
		<tag k="ssr:stedsnr" v="179065" />
	</node>
	<node id="-23132" lat="59.4702083357" lon="10.7823027702">
		<tag k="alt_name" v="Augerød søndre" />
		<tag k="name" v="Søndre Augerød" />
		<tag k="place" v="farm" />
		<tag k="ssr:stedsnr" v="174760" />
	</node>
	<node id="-23130" lat="59.4283250005" lon="10.8180027704">
		<tag k="name" v="Brønnerød" />
		<tag k="place" v="farm" />
		<tag k="ssr:stedsnr" v="174678" />
	</node>
	<node id="-23129" lat="59.4265833318" lon="11.0359805513">
		<tag k="name" v="Fossum" />
		<tag k="place" v="farm" />
		<tag k="ssr:stedsnr" v="174566" />
	</node>
	<node id="-23128" lat="59.437083331" lon="10.9769166671">
		<tag k="name" v="Eng" />
		<tag k="place" v="farm" />
		<tag k="ssr:stedsnr" v="174564" />
	</node>
	<node id="-23117" lat="59.5117638922" lon="10.9361833272">
		<tag k="alt_name" v="Frosterød nordre;Frosterud nordre" />
		<tag k="name" v="Nordre Frosterød" />
		<tag k="place" v="farm" />
		<tag k="ssr:stedsnr" v="143925" />
	</node>
	<node id="-23116" lat="59.4947805587" lon="10.8251305556">
		<tag k="name" v="Kåbbel" />
		<tag k="place" v="farm" />
		<tag k="ssr:stedsnr" v="143887" />
	</node>
	<node id="-23114" lat="59.4818444436" lon="10.9309527734">
		<tag k="alt_name" v="Skovdal" />
		<tag k="name" v="Skavdalen" />
		<tag k="place" v="farm" />
		<tag k="ssr:stedsnr" v="124664" />
	</node>
	<node id="-23113" lat="59.484430559" lon="10.9875611189">
		<tag k="alt_name" v="Grimsrødødegård" />
		<tag k="name" v="Grimsrødødegården" />
		<tag k="place" v="farm" />
		<tag k="ssr:stedsnr" v="124663" />
	</node>
	<node id="-23112" lat="59.4734194403" lon="10.7914194392">
		<tag k="alt_name" v="Augerød nordre" />
		<tag k="name" v="Nordre Auerød" />
		<tag k="place" v="farm" />
		<tag k="ssr:stedsnr" v="124653" />
	</node>
	<node id="-23109" lat="59.4899749965" lon="11.0106638934">
		<tag k="name" v="Ås" />
		<tag k="place" v="farm" />
		<tag k="ssr:stedsnr" v="124632" />
	</node>
	<node id="-23105" lat="59.4268378259" lon="10.84357509">
		<tag k="fixme" v="consider place=hamlet" />
		<tag k="name" v="Mosseros" />
		<tag k="place" v="farm" />
		<tag k="ssr:stedsnr" v="123374" />
	</node>
	<node id="-23104" lat="59.414763885" lon="11.0543888873">
		<tag k="alt_name" v="Enga" />
		<tag k="name" v="Engen" />
		<tag k="place" v="farm" />
		<tag k="ssr:stedsnr" v="123356" />
	</node>
	<node id="-23102" lat="59.4190527736" lon="11.0608333419">
		<tag k="name" v="Tangen" />
		<tag k="place" v="farm" />
		<tag k="ssr:stedsnr" v="123352" />
	</node>
	<node id="-23101" lat="59.4408159964" lon="11.1086300239">
		<tag k="alt_name" v="Bjerketvet;Bjerketvedt" />
		<tag k="fixme" v="consider place=hamlet" />
		<tag k="name" v="Bjørketvet" />
		<tag k="place" v="farm" />
		<tag k="ssr:stedsnr" v="117425" />
	</node>
	<node id="-23094" lat="59.4483611128" lon="10.8585388871">
		<tag k="alt_name" v="Jonsrød nordre" />
		<tag k="name" v="Nordre Jonsrød" />
		<tag k="place" v="farm" />
		<tag k="ssr:stedsnr" v="113477" />
	</node>
	<node id="-23093" lat="59.4564038683" lon="11.0117265386">
		<tag k="alt_name" v="Bråte søndre" />
		<tag k="fixme" v="consider place=hamlet" />
		<tag k="name" v="Søndre Bråte" />
		<tag k="place" v="farm" />
		<tag k="ssr:stedsnr" v="113074" />
	</node>
	<node id="-23091" lat="59.493855828" lon="10.8244734605">
		<tag k="fixme" v="consider place=hamlet" />
		<tag k="name" v="Søndre Kåbøl" />
		<tag k="place" v="farm" />
		<tag k="ssr:stedsnr" v="102098" />
	</node>
	<node id="-23088" lat="59.4952472186" lon="10.8891527746">
		<tag k="name" v="Bjørnstad" />
		<tag k="place" v="isolated_dwelling" />
		<tag k="ssr:stedsnr" v="83889" />
	</node>
	<node id="-23087" lat="59.4856070073" lon="10.8591236345">
		<tag k="fixme" v="consider place=hamlet" />
		<tag k="name" v="Løken" />
		<tag k="place" v="farm" />
		<tag k="ssr:stedsnr" v="64691" />
	</node>
	<node id="-23086" lat="59.4952500012" lon="11.0182916676">
		<tag k="name" v="Ås" />
		<tag k="place" v="farm" />
		<tag k="ssr:stedsnr" v="64667" />
	</node>
	<node id="-23085" lat="59.523200004" lon="10.9481722213">
		<tag k="alt_name" v="Tveiter, vestre;Tveter vestre" />
		<tag k="name" v="Vestre Tveiter" />
		<tag k="place" v="farm" />
		<tag k="ssr:stedsnr" v="65007" />
	</node>
	<node id="-23084" lat="59.5067700596" lon="10.7784924219">
		<tag k="fixme" v="consider place=hamlet" />
		<tag k="name" v="Grav" />
		<tag k="place" v="farm" />
		<tag k="ssr:stedsnr" v="64080" />
	</node>
	<node id="-23083" lat="59.5060916697" lon="10.9004583339">
		<tag k="name" v="Voll" />
		<tag k="place" v="farm" />
		<tag k="ssr:stedsnr" v="64039" />
	</node>
	<node id="-23082" lat="59.50901309" lon="10.9555614568">
		<tag k="fixme" v="consider place=hamlet" />
		<tag k="name" v="Belgen" />
		<tag k="place" v="farm" />
		<tag k="ssr:stedsnr" v="64038" />
	</node>
	<node id="-23081" lat="59.5090436868" lon="10.837798848">
		<tag k="alt_name" v="Strøm, søndre;Strøm søndre" />
		<tag k="fixme" v="consider place=hamlet" />
		<tag k="name" v="Søndre Strøm" />
		<tag k="place" v="farm" />
		<tag k="ssr:stedsnr" v="64037" />
	</node>
	<node id="-23080" lat="59.4546722212" lon="10.9914166615">
		<tag k="name" v="Dammen" />
		<tag k="place" v="locality" />
		<tag k="ssr:stedsnr" v="63724" />
	</node>
	<node id="-23079" lat="59.4744416633" lon="10.9194777816">
		<tag k="name" v="Tangen" />
		<tag k="place" v="farm" />
		<tag k="ssr:stedsnr" v="63722" />
	</node>
	<node id="-23078" lat="59.4428488208" lon="10.8658898996">
		<tag k="fixme" v="consider place=hamlet" />
		<tag k="name" v="Østenrød" />
		<tag k="place" v="farm" />
		<tag k="ssr:stedsnr" v="63388" />
	</node>
	<node id="-23077" lat="59.4475861115" lon="11.0138694435">
		<tag k="name" v="Sandbråten" />
		<tag k="place" v="farm" />
		<tag k="ssr:stedsnr" v="63384" />
	</node>
	<node id="-23076" lat="59.4409999965" lon="11.0132666741">
		<tag k="name" v="Sukkehagen" />
		<tag k="place" v="farm" />
		<tag k="ssr:stedsnr" v="63383" />
	</node>
	<node id="-23074" lat="59.420464508" lon="11.0398567035">
		<tag k="alt_name" v="Vasstvet;Vastvedt søndre;Vastvet, s" />
		<tag k="fixme" v="consider place=hamlet" />
		<tag k="name" v="Søndre Vasstvet" />
		<tag k="place" v="farm" />
		<tag k="ssr:stedsnr" v="63361" />
	</node>
	<node id="-23066" lat="59.461587774" lon="11.0156980812">
		<tag k="alt_name" v="Bråte nordre" />
		<tag k="fixme" v="consider place=hamlet" />
		<tag k="name" v="Nordre Bråte" />
		<tag k="place" v="farm" />
		<tag k="ssr:stedsnr" v="53085" />
	</node>
	<node id="-23064" lat="59.4757027756" lon="10.8667333262">
		<tag k="name" v="Turen" />
		<tag k="place" v="farm" />
		<tag k="ssr:stedsnr" v="52580" />
	</node>
	<node id="-23061" lat="59.5305175642" lon="10.8300631408">
		<tag k="alt_name" v="Høgås" />
		<tag k="name" v="Høyås" />
		<tag k="old_name" v="Vestre Heiaas;Nordre Høiaas" />
		<tag k="place" v="farm" />
		<tag k="ssr:stedsnr" v="39180" />
	</node>
	<node id="-23060" lat="59.4289416686" lon="10.7761777865">
		<tag k="name" v="Finkastet" />
		<tag k="place" v="isolated_dwelling" />
		<tag k="ssr:stedsnr" v="23891" />
	</node>
	<node id="-23054" lat="59.4436027745" lon="10.9342861173">
		<tag k="name" v="Stareng" />
		<tag k="place" v="locality" />
		<tag k="ssr:stedsnr" v="23792" />
	</node>
	<node id="-23052" lat="59.5257527776" lon="10.825236108">
		<tag k="alt_name" v="Stensrød nordre" />
		<tag k="name" v="Nordre Stensrød" />
		<tag k="place" v="farm" />
		<tag k="ssr:stedsnr" v="22892" />
	</node>
	<node id="-23050" lat="59.4969027822" lon="10.9584416587">
		<tag k="alt_name" v="Femtegjeld nedre" />
		<tag k="name" v="Nedre Femtegjeld" />
		<tag k="place" v="farm" />
		<tag k="ssr:stedsnr" v="22963" />
	</node>
	<node id="-23049" lat="59.5288888899" lon="10.9089555616">
		<tag k="name" v="Enden" />
		<tag k="place" v="farm" />
		<tag k="ssr:stedsnr" v="4006" />
	</node>
	<node id="-23048" lat="59.4024388892" lon="11.0948166661">
		<tag k="name" v="Allerno" />
		<tag k="place" v="locality" />
		<tag k="ssr:stedsnr" v="2819" />
	</node>
	<node id="-23047" lat="59.4603250006" lon="10.9715833318">
		<tag k="alt_name" v="Spjøter vesle" />
		<tag k="name" v="Vesle Spjøter" />
		<tag k="place" v="farm" />
		<tag k="ssr:stedsnr" v="2740" />
	</node>
	<node id="-23046" lat="59.4568700116" lon="10.7839263337">
		<tag k="alt_name" v="Texsnæs" />
		<tag k="fixme" v="consider place=hamlet" />
		<tag k="name" v="Teksnes" />
		<tag k="place" v="farm" />
		<tag k="ssr:stedsnr" v="2738" />
	</node>
	<node id="-23045" lat="59.4533226454" lon="11.0264216864">
		<tag k="fixme" v="consider place=hamlet" />
		<tag k="name" v="Tveter" />
		<tag k="place" v="farm" />
		<tag k="ssr:stedsnr" v="2729" />
	</node>
	<node id="-23044" lat="59.4503249999" lon="10.9754277733">
		<tag k="alt_name" v="Tjernsrød" />
		<tag k="name" v="Kjernsrød" />
		<tag k="place" v="farm" />
		<tag k="ssr:stedsnr" v="2727" />
	</node>
	<node id="-23043" lat="59.4636916629" lon="10.7738027714">
		<tag k="alt_name" v="Rød søndre" />
		<tag k="name" v="Søndre Rød" />
		<tag k="place" v="farm" />
		<tag k="ssr:stedsnr" v="2719" />
	</node>
	<node id="-23042" lat="59.4621611135" lon="10.831555547">
		<tag k="name" v="Sanderød" />
		<tag k="place" v="farm" />
		<tag k="ssr:stedsnr" v="2710" />
	</node>
	<node id="-23041" lat="59.4468537567" lon="10.857083272">
		<tag k="fixme" v="consider place=hamlet" />
		<tag k="name" v="Jonsrød" />
		<tag k="place" v="farm" />
		<tag k="ssr:stedsnr" v="2390" />
	</node>
	<node id="-23040" lat="59.4362936735" lon="10.9907621249">
		<tag k="fixme" v="consider place=hamlet" />
		<tag k="name" v="Frøland" />
		<tag k="place" v="farm" />
		<tag k="ssr:stedsnr" v="2376" />
	</node>
	<node id="-23039" lat="59.4325684505" lon="11.0685757798">
		<tag k="fixme" v="consider place=hamlet" />
		<tag k="name" v="Drillestad" />
		<tag k="place" v="farm" />
		<tag k="ssr:stedsnr" v="2372" />
	</node>
	<node id="-23037" lat="59.4199166644" lon="10.9010250013">
		<tag k="alt_name" v="Gjertebråten" />
		<tag k="name" v="Hjertebråten" />
		<tag k="place" v="farm" />
		<tag k="ssr:stedsnr" v="2352" />
	</node>
	<node id="-23036" lat="59.4115361143" lon="11.0396388875">
		<tag k="name" v="Åsheim" />
		<tag k="place" v="farm" />
		<tag k="ssr:stedsnr" v="2340" />
	</node>
	<node id="-23032" lat="59.425916666" lon="10.8444583372">
		<tag k="name" v="Mosseros" />
		<tag k="place" v="farm" />
		<tag k="ssr:stedsnr" v="963694" />
	</node>
	<node id="-23031" lat="59.4397277758" lon="10.8255444504">
		<tag k="alt_name" v="Guthus søndre" />
		<tag k="name" v="Søndre Guthus" />
		<tag k="place" v="farm" />
		<tag k="ssr:stedsnr" v="963681" />
	</node>
	<node id="-23030" lat="59.4943138849" lon="10.8400805584">
		<tag k="alt_name" v="Torsnes" />
		<tag k="name" v="Søndre Torsnes" />
		<tag k="old_name" v="S Tosnes" />
		<tag k="place" v="farm" />
		<tag k="ssr:stedsnr" v="951124" />
	</node>
	<node id="-23028" lat="59.414124996" lon="10.9602861123">
		<tag k="name" v="Bråtan" />
		<tag k="place" v="locality" />
		<tag k="ssr:stedsnr" v="934818" />
	</node>
	<node id="-23025" lat="59.4896333373" lon="10.9338416755">
		<tag k="name" v="Søndre Guttulsrød" />
		<tag k="place" v="farm" />
		<tag k="ssr:stedsnr" v="933933" />
	</node>
	<node id="-23023" lat="59.4985055576" lon="10.8409027807">
		<tag k="alt_name" v="Torsnes" />
		<tag k="name" v="Nordre Torsnes" />
		<tag k="old_name" v="N Tosnes" />
		<tag k="place" v="farm" />
		<tag k="ssr:stedsnr" v="933905" />
	</node>
	<node id="-23021" lat="59.4434186928" lon="10.9044984439">
		<tag k="fixme" v="consider place=hamlet" />
		<tag k="name" v="Ros" />
		<tag k="place" v="farm" />
		<tag k="ssr:stedsnr" v="904311" />
	</node>
	<node id="-23019" lat="59.417080559" lon="10.9762444417">
		<tag k="name" v="Ertnesberget" />
		<tag k="place" v="isolated_dwelling" />
		<tag k="ssr:stedsnr" v="902555" />
	</node>
	<node id="-23017" lat="59.4693166647" lon="10.9611305592">
		<tag k="alt_name" v="Haugen nordre" />
		<tag k="name" v="Nordre Haugen" />
		<tag k="place" v="farm" />
		<tag k="ssr:stedsnr" v="902066" />
	</node>
	<node id="-23016" lat="59.4520750019" lon="10.8907111097">
		<tag k="name" v="Stangerengen" />
		<tag k="place" v="isolated_dwelling" />
		<tag k="ssr:stedsnr" v="901510" />
	</node>
	<node id="-23014" lat="59.4956834419" lon="10.955487745">
		<tag k="fixme" v="consider place=hamlet" />
		<tag k="name" v="Femtegjeld" />
		<tag k="place" v="farm" />
		<tag k="ssr:stedsnr" v="853665" />
	</node>
	<node id="-23013" lat="59.4890833294" lon="10.836749994">
		<tag k="name" v="Solli" />
		<tag k="place" v="farm" />
		<tag k="ssr:stedsnr" v="853660" />
	</node>
	<node id="-23012" lat="59.4970071204" lon="11.0136168218">
		<tag k="fixme" v="consider place=hamlet" />
		<tag k="name" v="Fløter" />
		<tag k="place" v="farm" />
		<tag k="ssr:stedsnr" v="853657" />
	</node>
	<node id="-23011" lat="59.5032500031" lon="10.9501777775">
		<tag k="alt_name" v="Nesset" />
		<tag k="name" v="Neset" />
		<tag k="place" v="farm" />
		<tag k="ssr:stedsnr" v="853064" />
	</node>
	<node id="-23010" lat="59.4560918663" lon="10.8021876229">
		<tag k="loc_name" v="Sperrebunn" />
		<tag k="name" v="Sperbund" />
		<tag k="place" v="farm" />
		<tag k="ssr:stedsnr" v="852709" />
	</node>
	<node id="-23007" lat="59.427585768" lon="10.9953509345">
		<tag k="name" v="Sæby" />
		<tag k="place" v="farm" />
		<tag k="ssr:stedsnr" v="842524" />
	</node>
	<node id="-23006" lat="59.4520750019" lon="10.8907111097">
		<tag k="name" v="Stangerengen" />
		<tag k="place" v="isolated_dwelling" />
		<tag k="ssr:stedsnr" v="841485" />
	</node>
	<node id="-23005" lat="59.4287405808" lon="11.0685734302">
		<tag k="alt_name" v="Skotvedt" />
		<tag k="fixme" v="consider place=hamlet" />
		<tag k="name" v="Skotvet" />
		<tag k="place" v="farm" />
		<tag k="ssr:stedsnr" v="937376" />
	</node>
	<node id="-23002" lat="59.5102966868" lon="10.9562171816">
		<tag k="alt_name" v="Belgen nordre" />
		<tag k="name" v="Nordre Belgen" />
		<tag k="place" v="farm" />
		<tag k="ssr:stedsnr" v="932982" />
	</node>
	<node id="-23001" lat="59.5072333317" lon="10.8074861094">
		<tag k="name" v="Kaspertomta" />
		<tag k="place" v="locality" />
		<tag k="ssr:stedsnr" v="932884" />
	</node>
	<node id="-23000" lat="59.4422111125" lon="11.1072361199">
		<tag k="alt_name" v="Bjerketvet" />
		<tag k="name" v="Bjørketvet" />
		<tag k="place" v="farm" />
		<tag k="ssr:stedsnr" v="811965" />
	</node>
	<node id="-22999" lat="59.5099166623" lon="10.9346638973">
		<tag k="alt_name" v="Frosterød søndre" />
		<tag k="name" v="Søndre Frosterød" />
		<tag k="place" v="farm" />
		<tag k="ssr:stedsnr" v="811962" />
	</node>
	<node id="-22998" lat="59.4345916706" lon="11.104974997">
		<tag k="name" v="Ødegård" />
		<tag k="place" v="farm" />
		<tag k="ssr:stedsnr" v="811960" />
	</node>
	<node id="-22996" lat="59.5028805568" lon="11.0565694521">
		<tag k="name" v="Knatten" />
		<tag k="place" v="farm" />
		<tag k="ssr:stedsnr" v="811932" />
	</node>
	<node id="-22995" lat="59.4218750013" lon="11.1108805473">
		<tag k="name" v="Tjernsbekk" />
		<tag k="place" v="farm" />
		<tag k="ssr:stedsnr" v="791164" />
	</node>
	<node id="-22994" lat="59.4507366553" lon="10.8317763504">
		<tag k="alt_name" v="Sjulerød;Store Syverød;Syverød" />
		<tag k="fixme" v="consider place=hamlet" />
		<tag k="name" v="Store Sjulerød" />
		<tag k="place" v="farm" />
		<tag k="ssr:stedsnr" v="786415" />
	</node>
	<node id="-22989" lat="59.4977297509" lon="10.8343010048">
		<tag k="fixme" v="consider place=hamlet" />
		<tag k="name" v="Nordre Kåbøl" />
		<tag k="place" v="farm" />
		<tag k="ssr:stedsnr" v="769119" />
	</node>
	<node id="-22987" lat="59.5204500013" lon="10.8331750049">
		<tag k="alt_name" v="Flakstad nordre" />
		<tag k="name" v="Nordre Flakestad" />
		<tag k="place" v="farm" />
		<tag k="ssr:stedsnr" v="914056" />
	</node>
	<node id="-22985" lat="59.4530111082" lon="11.0442166706">
		<tag k="name" v="Vang" />
		<tag k="place" v="farm" />
		<tag k="ssr:stedsnr" v="913715" />
	</node>
	<node id="-22983" lat="59.4949789845" lon="10.8307098599">
		<tag k="name" v="Kåbøl" />
		<tag k="old_name" v="Kaabøl;Kaabel" />
		<tag k="place" v="hamlet" />
		<tag k="ssr:stedsnr" v="913651" />
	</node>
	<node id="-22982" lat="59.4955560342" lon="10.8409201527">
		<tag k="alt_name" v="Tosnes" />
		<tag k="fixme" v="consider place=hamlet" />
		<tag k="name" v="Torsnes" />
		<tag k="place" v="farm" />
		<tag k="ssr:stedsnr" v="913650" />
	</node>
	<node id="-22980" lat="59.4420489331" lon="10.8202150362">
		<tag k="fixme" v="consider place=hamlet" />
		<tag k="name" v="Toverød" />
		<tag k="place" v="farm" />
		<tag k="ssr:stedsnr" v="913348" />
	</node>
	<node id="-22979" lat="59.4664750001" lon="11.0023500004">
		<tag k="alt_name" v="Bjerkeli" />
		<tag k="name" v="Bjørkelia" />
		<tag k="place" v="farm" />
		<tag k="ssr:stedsnr" v="912752" />
	</node>
	<node id="-22978" lat="59.4725611137" lon="10.9058361185">
		<tag k="alt_name" v="Grønnæs" />
		<tag k="name" v="Grønnes" />
		<tag k="place" v="farm" />
		<tag k="ssr:stedsnr" v="912737" />
	</node>
	<node id="-22976" lat="59.4393719324" lon="10.9365087695">
		<tag k="alt_name" v="Bjerkedal" />
		<tag k="fixme" v="consider place=hamlet" />
		<tag k="name" v="Bjørkedal" />
		<tag k="place" v="farm" />
		<tag k="ssr:stedsnr" v="912368" />
	</node>
	<node id="-22975" lat="59.4375753297" lon="11.0658368809">
		<tag k="fixme" v="consider place=hamlet" />
		<tag k="name" v="Kirkerød" />
		<tag k="place" v="farm" />
		<tag k="ssr:stedsnr" v="912358" />
	</node>
	<node id="-22974" lat="59.4319931818" lon="10.9435559898">
		<tag k="fixme" v="consider place=hamlet" />
		<tag k="name" v="Røstad" />
		<tag k="place" v="farm" />
		<tag k="ssr:stedsnr" v="912357" />
	</node>
	<node id="-22973" lat="59.4263028957" lon="11.0171486229">
		<tag k="fixme" v="consider place=hamlet" />
		<tag k="name" v="Ingulstad" />
		<tag k="place" v="farm" />
		<tag k="ssr:stedsnr" v="912350" />
	</node>
	<node id="-22967" lat="59.4947416663" lon="11.0103055526">
		<tag k="name" v="Ødemark" />
		<tag k="place" v="farm" />
		<tag k="ssr:stedsnr" v="750933" />
	</node>
	<node id="-22965" lat="59.4298611121" lon="10.8442499938">
		<tag k="name" v="Mosseros" />
		<tag k="place" v="farm" />
		<tag k="ssr:stedsnr" v="903523" />
	</node>
	<node id="-22964" lat="59.4582975875" lon="10.9701341759">
		<tag k="fixme" v="consider place=hamlet" />
		<tag k="name" v="Spjøter" />
		<tag k="place" v="farm" />
		<tag k="ssr:stedsnr" v="902094" />
	</node>
	<node id="-22959" lat="59.536097226" lon="10.9449666582">
		<tag k="name" v="Slåttemyr" />
		<tag k="place" v="isolated_dwelling" />
		<tag k="ssr:stedsnr" v="732031" />
	</node>
	<node id="-22958" lat="59.5318676331" lon="10.8327035104">
		<tag k="alt_name" v="Høgås" />
		<tag k="name" v="Høyås" />
		<tag k="old_name" v="Heiaas;Høiaas" />
		<tag k="place" v="hamlet" />
		<tag k="ssr:stedsnr" v="732003" />
	</node>
	<node id="-22957" lat="59.4995256669" lon="10.8369381228">
		<tag k="alt_name" v="Skårnæs" />
		<tag k="fixme" v="consider place=hamlet" />
		<tag k="name" v="Skårnes" />
		<tag k="place" v="farm" />
		<tag k="ssr:stedsnr" v="732108" />
	</node>
	<node id="-22956" lat="59.501802775" lon="11.0105388831">
		<tag k="alt_name" v="Bråten" />
		<tag k="name" v="Fløterbråten" />
		<tag k="place" v="farm" />
		<tag k="ssr:stedsnr" v="732104" />
	</node>
	<node id="-22955" lat="59.4499418035" lon="11.0196818275">
		<tag k="fixme" v="consider place=hamlet" />
		<tag k="name" v="Sukke" />
		<tag k="place" v="farm" />
		<tag k="ssr:stedsnr" v="731723" />
	</node>
	<node id="-22952" lat="59.4354361148" lon="10.9646888819">
		<tag k="name" v="Laksebekk" />
		<tag k="place" v="isolated_dwelling" />
		<tag k="ssr:stedsnr" v="730362" />
	</node>
	<node id="-22951" lat="59.4354112779" lon="11.08572636">
		<tag k="alt_name" v="Brokhaug" />
		<tag k="fixme" v="consider place=hamlet" />
		<tag k="name" v="Brokhaugen" />
		<tag k="place" v="farm" />
		<tag k="ssr:stedsnr" v="730358" />
	</node>
	<node id="-22949" lat="59.4853111134" lon="10.9129638913">
		<tag k="name" v="Veli" />
		<tag k="place" v="farm" />
		<tag k="ssr:stedsnr" v="891145" />
	</node>
	<node id="-22946" lat="59.4289355043" lon="11.0874213651">
		<tag k="alt_name" v="Grøttvedt" />
		<tag k="name" v="Grøttvet" />
		<tag k="place" v="hamlet" />
		<tag k="ssr:stedsnr" v="877366" />
	</node>
	<node id="-22944" lat="59.4293666676" lon="10.9951749986">
		<tag k="name" v="Sæby" />
		<tag k="place" v="farm" />
		<tag k="ssr:stedsnr" v="659522" />
	</node>
	<node id="-22941" lat="59.4424444414" lon="10.8488499975">
		<tag k="name" v="Bjørnerød" />
		<tag k="place" v="farm" />
		<tag k="ssr:stedsnr" v="658541" />
	</node>
	<node id="-22940" lat="59.5170640441" lon="10.8325378344">
		<tag k="alt_name" v="Flakstad mellom" />
		<tag k="name" v="Mellom-Flakestad" />
		<tag k="old_name" v="Flakestad mellem" />
		<tag k="place" v="farm" />
		<tag k="ssr:stedsnr" v="732065" />
	</node>
	<node id="-22939" lat="59.4833805562" lon="10.8718888933">
		<tag k="alt_name" v="Flesberg;Flesberg søndre" />
		<tag k="name" v="Søndre Flesberg" />
		<tag k="place" v="farm" />
		<tag k="ssr:stedsnr" v="731694" />
	</node>
	<node id="-22938" lat="59.4858595981" lon="10.9144950551">
		<tag k="alt_name" v="Væli" />
		<tag k="fixme" v="consider place=hamlet" />
		<tag k="name" v="Veli" />
		<tag k="place" v="farm" />
		<tag k="ssr:stedsnr" v="731684" />
	</node>
	<node id="-22932" lat="59.4958442391" lon="11.0547517274">
		<tag k="fixme" v="consider place=hamlet" />
		<tag k="name" v="Bergsjø" />
		<tag k="place" v="farm" />
		<tag k="ssr:stedsnr" v="731641" />
	</node>
	<node id="-22931" lat="59.4981500021" lon="10.9958000077">
		<tag k="name" v="Sperredalen" />
		<tag k="place" v="farm" />
		<tag k="ssr:stedsnr" v="731637" />
	</node>
	<node id="-22930" lat="59.5123258387" lon="10.9088663446">
		<tag k="alt_name" v="Veidal;Veidal østre" />
		<tag k="fixme" v="consider place=hamlet" />
		<tag k="name" v="Østre Veidal" />
		<tag k="place" v="farm" />
		<tag k="ssr:stedsnr" v="732051" />
	</node>
	<node id="-22929" lat="59.511397222" lon="10.8106805594">
		<tag k="alt_name" v="Gylder, m;Gylder mellem" />
		<tag k="name" v="Mellom-Gylder" />
		<tag k="place" v="farm" />
		<tag k="ssr:stedsnr" v="732048" />
	</node>
	<node id="-22928" lat="59.5099250023" lon="10.8325111171">
		<tag k="alt_name" v="Såstad;Såstad nordre" />
		<tag k="name" v="Nordre Såstad" />
		<tag k="place" v="farm" />
		<tag k="ssr:stedsnr" v="732047" />
	</node>
	<node id="-22927" lat="59.4533182667" lon="10.7952651124">
		<tag k="alt_name" v="Veker" />
		<tag k="fixme" v="consider place=hamlet" />
		<tag k="name" v="Hveker" />
		<tag k="place" v="farm" />
		<tag k="ssr:stedsnr" v="730783" />
	</node>
	<node id="-22926" lat="59.4659861135" lon="11.0223888924">
		<tag k="name" v="Bråtegarden" />
		<tag k="place" v="farm" />
		<tag k="ssr:stedsnr" v="730781" />
	</node>
	<node id="-22925" lat="59.4281082851" lon="10.9940754775">
		<tag k="fixme" v="consider place=hamlet" />
		<tag k="name" v="Sæby" />
		<tag k="place" v="farm" />
		<tag k="ssr:stedsnr" v="730346" />
	</node>
	<node id="-22924" lat="59.4211810147" lon="11.077939775">
		<tag k="fixme" v="consider place=hamlet" />
		<tag k="name" v="Østenrød" />
		<tag k="place" v="farm" />
		<tag k="ssr:stedsnr" v="730324" />
	</node>
	<node id="-22923" lat="59.4039194488" lon="11.0059888889">
		<tag k="name" v="Fjellet" />
		<tag k="place" v="farm" />
		<tag k="ssr:stedsnr" v="730306" />
	</node>
	<node id="-22922" lat="59.4166999961" lon="11.0986249948">
		<tag k="name" v="Rusvik" />
		<tag k="place" v="locality" />
		<tag k="ssr:stedsnr" v="730117" />
	</node>
	<node id="-22920" lat="59.4613999989" lon="10.799222219">
		<tag k="amenity" v="school" />
		<tag k="name" v="Våk skole" />
		<tag k="ssr:stedsnr" v="630803" />
	</node>
	<node id="-22917" lat="59.4112916623" lon="11.0325972202">
		<tag k="name" v="Ekornmyr" />
		<tag k="place" v="farm" />
		<tag k="ssr:stedsnr" v="720543" />
	</node>
	<node id="-22915" lat="59.4173638852" lon="10.9883861146">
		<tag k="name" v="Bustein" />
		<tag k="place" v="farm" />
		<tag k="ssr:stedsnr" v="720531" />
	</node>
	<node id="-22913" lat="59.5184196714" lon="10.8168839558">
		<tag k="fixme" v="consider place=hamlet" />
		<tag k="name" v="Boslangen" />
		<tag k="place" v="farm" />
		<tag k="ssr:stedsnr" v="610053" />
	</node>
	<node id="-22912" lat="59.434884842" lon="10.7843931699">
		<tag k="fixme" v="consider place=hamlet" />
		<tag k="name" v="Sønsterød" />
		<tag k="place" v="farm" />
		<tag k="ssr:stedsnr" v="609352" />
	</node>
	<node id="-22910" lat="59.4842555596" lon="10.9168611115">
		<tag k="name" v="Bjerke" />
		<tag k="place" v="farm" />
		<tag k="ssr:stedsnr" v="598604" />
	</node>
	<node id="-22908" lat="59.4584583309" lon="10.794741666">
		<tag k="name" v="Teksnes" />
		<tag k="place" v="village" />
		<tag k="ssr:stedsnr" v="692120" />
	</node>
	<node id="-22904" lat="59.4610472226" lon="10.9988194381">
		<tag k="name" v="Granli" />
		<tag k="place" v="farm" />
		<tag k="ssr:stedsnr" v="691831" />
	</node>
	<node id="-22898" lat="59.4512055578" lon="10.8351805546">
		<tag k="name" v="Syverød" />
		<tag k="place" v="farm" />
		<tag k="ssr:stedsnr" v="537594" />
	</node>
	<node id="-22897" lat="59.4905527743" lon="10.8683833415">
		<tag k="name" v="Kjos ( Våler prestegård )" />
		<tag k="place" v="farm" />
		<tag k="ssr:stedsnr" v="510682" />
	</node>
	<node id="-22894" lat="59.4448111133" lon="10.9036388854">
		<tag k="alt_name" v="Ros mellom" />
		<tag k="name" v="Mellom-Ros" />
		<tag k="place" v="farm" />
		<tag k="ssr:stedsnr" v="509731" />
	</node>
	<node id="-22891" lat="59.4881222181" lon="10.8617333249">
		<tag k="name" v="Storengen" />
		<tag k="place" v="farm" />
		<tag k="ssr:stedsnr" v="508899" />
	</node>
	<node id="-22890" lat="59.4967916636" lon="10.8419805526">
		<tag k="name" v="Strømnes" />
		<tag k="place" v="farm" />
		<tag k="ssr:stedsnr" v="508892" />
	</node>
	<node id="-22889" lat="59.4237150774" lon="11.0491953977">
		<tag k="alt_name" v="Vasstvet;Vastvedt nordre;Vastvet, n" />
		<tag k="fixme" v="consider place=hamlet" />
		<tag k="name" v="Nordre Vasstvet" />
		<tag k="place" v="farm" />
		<tag k="ssr:stedsnr" v="487413" />
	</node>
	<node id="-22885" lat="59.4319472203" lon="10.8230277797">
		<tag k="name" v="Brønnerød" />
		<tag k="place" v="farm" />
		<tag k="ssr:stedsnr" v="478656" />
	</node>
	<node id="-22884" lat="59.4780694459" lon="10.9524749988">
		<tag k="name" v="Skjønnerøddalen" />
		<tag k="place" v="farm" />
		<tag k="ssr:stedsnr" v="477113" />
	</node>
	<node id="-22883" lat="59.4773220003" lon="10.8531819622">
		<tag k="fixme" v="consider place=hamlet" />
		<tag k="name" v="Lødeng" />
		<tag k="place" v="farm" />
		<tag k="ssr:stedsnr" v="671728" />
	</node>
	<node id="-22882" lat="59.5022583322" lon="10.9765361061">
		<tag k="name" v="Kastet" />
		<tag k="place" v="farm" />
		<tag k="ssr:stedsnr" v="671092" />
	</node>
	<node id="-22881" lat="59.522513891" lon="10.8180972193">
		<tag k="alt_name" v="Høyås" />
		<tag k="name" v="Ødegården" />
		<tag k="place" v="farm" />
		<tag k="ssr:stedsnr" v="671053" />
	</node>
	<node id="-22880" lat="59.5148305573" lon="10.7890333361">
		<tag k="alt_name" v="Kåter østre;Kåter" />
		<tag k="name" v="Østre Kåter" />
		<tag k="place" v="farm" />
		<tag k="ssr:stedsnr" v="671052" />
	</node>
	<node id="-22879" lat="59.5111277812" lon="10.8569305482">
		<tag k="name" v="Fjellstad" />
		<tag k="place" v="farm" />
		<tag k="ssr:stedsnr" v="671049" />
	</node>
	<node id="-22878" lat="59.5140049459" lon="10.8100659087">
		<tag k="alt_name" v="Gylder nordre" />
		<tag k="fixme" v="consider place=hamlet" />
		<tag k="name" v="Nordre Gylder" />
		<tag k="place" v="farm" />
		<tag k="ssr:stedsnr" v="671046" />
	</node>
	<node id="-22877" lat="59.509552779" lon="10.8118888845">
		<tag k="alt_name" v="Gylder, østre;Gylder østre" />
		<tag k="name" v="Østre Gylder" />
		<tag k="place" v="farm" />
		<tag k="ssr:stedsnr" v="671045" />
	</node>
	<node id="-22876" lat="59.5254804428" lon="10.8228711798">
		<tag k="fixme" v="consider place=hamlet" />
		<tag k="name" v="Steinsrud" />
		<tag k="place" v="farm" />
		<tag k="ssr:stedsnr" v="671008" />
	</node>
	<node id="-22874" lat="59.4818140886" lon="10.9037410456">
		<tag k="fixme" v="consider place=hamlet" />
		<tag k="name" v="Hauger" />
		<tag k="place" v="farm" />
		<tag k="ssr:stedsnr" v="670704" />
	</node>
	<node id="-22873" lat="59.4916583316" lon="10.8746416598">
		<tag k="name" v="Prestegården" />
		<tag k="place" v="farm" />
		<tag k="ssr:stedsnr" v="670685" />
	</node>
	<node id="-22872" lat="59.4746728162" lon="10.8614019496">
		<tag k="fixme" v="consider place=hamlet" />
		<tag k="name" v="Skallerød" />
		<tag k="place" v="farm" />
		<tag k="ssr:stedsnr" v="669722" />
	</node>
	<node id="-22871" lat="59.4681160882" lon="10.9622384133">
		<tag k="fixme" v="consider place=hamlet" />
		<tag k="name" v="Haugen" />
		<tag k="place" v="farm" />
		<tag k="ssr:stedsnr" v="669716" />
	</node>
	<node id="-22870" lat="59.4687055534" lon="10.7794666644">
		<tag k="name" v="Gjestvang" />
		<tag k="place" v="locality" />
		<tag k="ssr:stedsnr" v="669714" />
	</node>
	<node id="-22869" lat="59.4367611079" lon="11.0365222239">
		<tag k="name" v="Myrvoll" />
		<tag k="place" v="farm" />
		<tag k="ssr:stedsnr" v="669336" />
	</node>
	<node id="-22868" lat="59.4254221696" lon="11.0229239914">
		<tag k="alt_name" v="Onsåker" />
		<tag k="fixme" v="consider place=hamlet" />
		<tag k="name" v="Onsaker" />
		<tag k="place" v="farm" />
		<tag k="ssr:stedsnr" v="669320" />
	</node>
	<node id="-22867" lat="59.4218527823" lon="11.067722216">
		<tag k="name" v="Furuset" />
		<tag k="place" v="farm" />
		<tag k="ssr:stedsnr" v="669315" />
	</node>
	<node id="-22862" lat="59.5167833339" lon="10.8325333325">
		<tag k="fixme" v="consider place=hamlet" />
		<tag k="loc_name" v="Flakastad" />
		<tag k="name" v="Flakestad" />
		<tag k="place" v="farm" />
		<tag k="ssr:stedsnr" v="464870" />
	</node>
	<node id="-22861" lat="59.4865777788" lon="10.8726305607">
		<tag k="alt_name" v="Berg vestre" />
		<tag k="name" v="Vestre Berg" />
		<tag k="place" v="farm" />
		<tag k="ssr:stedsnr" v="660639" />
	</node>
	<node id="-22858" lat="59.4235801038" lon="11.0165879933">
		<tag k="name" v="Svinndal" />
		<tag k="place" v="village" />
		<tag k="ssr:stedsnr" v="448847" />
	</node>
	<node id="-22855" lat="59.5174833372" lon="10.9559805486">
		<tag k="name" v="Torget" />
		<tag k="place" v="locality" />
		<tag k="ssr:stedsnr" v="448827" />
	</node>
	<node id="-22853" lat="59.5137972228" lon="10.9784777737">
		<tag k="name" v="Havnedalen" />
		<tag k="place" v="farm" />
		<tag k="ssr:stedsnr" v="448825" />
	</node>
	<node id="-22851" lat="59.5172026131" lon="10.9052789099">
		<tag k="alt_name" v="Veidal mellem" />
		<tag k="fixme" v="consider place=hamlet" />
		<tag k="name" v="Mellom-Veidal" />
		<tag k="place" v="farm" />
		<tag k="ssr:stedsnr" v="448811" />
	</node>
	<node id="-22848" lat="59.4481499989" lon="11.0196722166">
		<tag k="alt_name" v="Sukke søndre" />
		<tag k="name" v="Søndre Sukke" />
		<tag k="place" v="farm" />
		<tag k="ssr:stedsnr" v="659112" />
	</node>
	<node id="-22846" lat="59.5257161192" lon="10.860735089">
		<tag k="alt_name" v="Ombustvedt" />
		<tag k="name" v="Ødegård" />
		<tag k="old_name" v="Ødegaarden" />
		<tag k="place" v="farm" />
		<tag k="ssr:stedsnr" v="429003" />
	</node>
	<node id="-22845" lat="59.4629529458" lon="11.0589805991">
		<tag k="alt_name" v="Langerød" />
		<tag k="fixme" v="consider place=hamlet" />
		<tag k="name" v="Langrød" />
		<tag k="place" v="farm" />
		<tag k="ssr:stedsnr" v="427712" />
	</node>
	<node id="-22844" lat="59.4586416667" lon="10.9542138926">
		<tag k="name" v="Høybråten" />
		<tag k="place" v="farm" />
		<tag k="ssr:stedsnr" v="427710" />
	</node>
	<node id="-22843" lat="59.4570583296" lon="10.9703166741">
		<tag k="alt_name" v="Spjøter store" />
		<tag k="name" v="Store Spjøter" />
		<tag k="place" v="farm" />
		<tag k="ssr:stedsnr" v="427709" />
	</node>
	<node id="-22842" lat="59.4553370925" lon="10.8630121294">
		<tag k="alt_name" v="Fjeld" />
		<tag k="fixme" v="consider place=hamlet" />
		<tag k="name" v="Fjell" />
		<tag k="place" v="farm" />
		<tag k="ssr:stedsnr" v="427708" />
	</node>
	<node id="-22841" lat="59.404921056" lon="10.9722262293">
		<tag k="name" v="Sjursbråten" />
		<tag k="place" v="isolated_dwelling" />
		<tag k="ssr:stedsnr" v="427336" />
	</node>
	<node id="-22839" lat="59.4175222237" lon="10.8211777721">
		<tag k="name" v="Kjærnes" />
		<tag k="place" v="farm" />
		<tag k="ssr:stedsnr" v="417704" />
	</node>
	<node id="-22837" lat="59.4920999994" lon="10.8743222181">
		<tag k="name" v="Kirkebygda" />
		<tag k="place" v="village" />
		<tag k="ssr:stedsnr" v="513364" />
	</node>
	<node id="-22835" lat="59.4209472205" lon="11.0400944486">
		<tag k="alt_name" v="Vastvet øvre;Vastvedt øvre" />
		<tag k="name" v="Øvre Vastvet" />
		<tag k="place" v="farm" />
		<tag k="ssr:stedsnr" v="509810" />
	</node>
	<node id="-22831" lat="59.4871888867" lon="10.9592694473">
		<tag k="name" v="Ås" />
		<tag k="place" v="farm" />
		<tag k="ssr:stedsnr" v="509772" />
	</node>
	<node id="-22830" lat="59.4875472262" lon="10.9060416658">
		<tag k="name" v="Trudvang" />
		<tag k="place" v="farm" />
		<tag k="ssr:stedsnr" v="509739" />
	</node>
	<node id="-22829" lat="59.4386138874" lon="11.1202472143">
		<tag k="alt_name" v="Bjerketvet" />
		<tag k="name" v="Bjørketvet" />
		<tag k="place" v="farm" />
		<tag k="ssr:stedsnr" v="508975" />
	</node>
	<node id="-22826" lat="59.4644583376" lon="10.836769441">
		<tag k="name" v="Kolsrød" />
		<tag k="place" v="isolated_dwelling" />
		<tag k="ssr:stedsnr" v="387767" />
	</node>
	<node id="-22825" lat="59.4902214657" lon="10.9353308799">
		<tag k="fixme" v="consider place=hamlet" />
		<tag k="name" v="Guttulsrød" />
		<tag k="place" v="farm" />
		<tag k="ssr:stedsnr" v="363679" />
	</node>
	<node id="-22824" lat="59.5188564781" lon="10.8575845217">
		<tag k="alt_name" v="Ombåstvet, nordre;Ombustvedt nordre" />
		<tag k="fixme" v="consider place=hamlet" />
		<tag k="name" v="Nordre Ombåstvet" />
		<tag k="place" v="farm" />
		<tag k="ssr:stedsnr" v="361063" />
	</node>
	<node id="-22823" lat="59.466738891" lon="10.962994448">
		<tag k="alt_name" v="Haugen søndre" />
		<tag k="name" v="Søndre Haugen" />
		<tag k="place" v="farm" />
		<tag k="ssr:stedsnr" v="356072" />
	</node>
	<node id="-22822" lat="59.4997277753" lon="10.8882638958">
		<tag k="alt_name" v="Bergskogen" />
		<tag k="name" v="Bergskog" />
		<tag k="place" v="farm" />
		<tag k="ssr:stedsnr" v="489108" />
	</node>
	<node id="-22821" lat="59.505758332" lon="11.0144861137">
		<tag k="name" v="Bråtenes" />
		<tag k="place" v="farm" />
		<tag k="ssr:stedsnr" v="489103" />
	</node>
	<node id="-22820" lat="59.5242293149" lon="10.8399191912">
		<tag k="fixme" v="consider place=hamlet" />
		<tag k="name" v="Kure" />
		<tag k="place" v="farm" />
		<tag k="ssr:stedsnr" v="489010" />
	</node>
	<node id="-22819" lat="59.4528666658" lon="11.0594666741">
		<tag k="alt_name" v="Lie" />
		<tag k="name" v="Li" />
		<tag k="place" v="farm" />
		<tag k="ssr:stedsnr" v="488731" />
	</node>
	<node id="-22818" lat="59.4818613473" lon="10.8949181354">
		<tag k="fixme" v="consider place=hamlet" />
		<tag k="name" v="Stanger" />
		<tag k="place" v="farm" />
		<tag k="ssr:stedsnr" v="488708" />
	</node>
	<node id="-22816" lat="59.4742555565" lon="10.7982805616">
		<tag k="name" v="Hellerød" />
		<tag k="place" v="isolated_dwelling" />
		<tag k="ssr:stedsnr" v="488690" />
	</node>
	<node id="-22815" lat="59.4954500035" lon="10.8649722139">
		<tag k="name" v="Ulvestad" />
		<tag k="place" v="farm" />
		<tag k="ssr:stedsnr" v="488686" />
	</node>
	<node id="-22814" lat="59.4865621562" lon="10.8744724851">
		<tag k="fixme" v="consider place=hamlet" />
		<tag k="name" v="Berg" />
		<tag k="place" v="farm" />
		<tag k="ssr:stedsnr" v="488683" />
	</node>
	<node id="-22812" lat="59.4965555577" lon="10.8890750009">
		<tag k="name" v="Bjørnstad" />
		<tag k="place" v="farm" />
		<tag k="ssr:stedsnr" v="488666" />
	</node>
	<node id="-22811" lat="59.4992027778" lon="10.9467111155">
		<tag k="name" v="Bråten" />
		<tag k="place" v="farm" />
		<tag k="ssr:stedsnr" v="488663" />
	</node>
	<node id="-22810" lat="59.4976138878" lon="10.8403277796">
		<tag k="name" v="Kåbøl" />
		<tag k="place" v="isolated_dwelling" />
		<tag k="ssr:stedsnr" v="488657" />
	</node>
	<node id="-22809" lat="59.4408611149" lon="10.8997500003">
		<tag k="alt_name" v="Ros søndre" />
		<tag k="name" v="Søndre Ros" />
		<tag k="place" v="farm" />
		<tag k="ssr:stedsnr" v="488342" />
	</node>
	<node id="-22808" lat="59.4417067997" lon="10.8493364533">
		<tag k="fixme" v="consider place=hamlet" />
		<tag k="name" v="Bjørnerød" />
		<tag k="place" v="farm" />
		<tag k="ssr:stedsnr" v="488331" />
	</node>
	<node id="-22806" lat="59.4590221393" lon="11.0090878417">
		<tag k="alt_name" v="Sandem" />
		<tag k="fixme" v="consider place=hamlet" />
		<tag k="name" v="Sandum" />
		<tag k="place" v="farm" />
		<tag k="ssr:stedsnr" v="487771" />
	</node>
	<node id="-22804" lat="59.4750405991" lon="10.9904224882">
		<tag k="fixme" v="consider place=hamlet" />
		<tag k="name" v="Ulfsrød" />
		<tag k="place" v="farm" />
		<tag k="ssr:stedsnr" v="487754" />
	</node>
	<node id="-22803" lat="59.4760888857" lon="10.9791555631">
		<tag k="fixme" v="multiple name tags, choose one and add the other to alt_name" />
		<tag k="name" v="Grimsrød;Solheim" />
		<tag k="place" v="farm" />
		<tag k="ssr:stedsnr" v="487753" />
	</node>
	<node id="-22802" lat="59.4311888895" lon="10.7886916603">
		<tag k="name" v="Svellebråten" />
		<tag k="place" v="locality" />
		<tag k="ssr:stedsnr" v="487370" />
	</node>
	<node id="-22796" lat="59.4866916688" lon="10.8665444383">
		<tag k="alt_name" v="Flesberg nordre;Flesberg" />
		<tag k="name" v="Nordre Flesberg" />
		<tag k="place" v="farm" />
		<tag k="ssr:stedsnr" v="478640" />
	</node>
	<node id="-22795" lat="59.5173531889" lon="10.8465862319">
		<tag k="alt_name" v="Ombustvedt vestre" />
		<tag k="fixme" v="consider place=hamlet" />
		<tag k="loc_name" v="Ombustvedt, vestre" />
		<tag k="name" v="Vestre Ombåstvet" />
		<tag k="place" v="farm" />
		<tag k="ssr:stedsnr" v="325921" />
	</node>
	<node id="-22794" lat="59.4827194453" lon="10.9033361104">
		<tag k="alt_name" v="Hauger nordre" />
		<tag k="name" v="Nordre Hauger" />
		<tag k="place" v="farm" />
		<tag k="ssr:stedsnr" v="477657" />
	</node>
	<node id="-22793" lat="59.4408888901" lon="10.846330562">
		<tag k="name" v="Bjørnerød" />
		<tag k="place" v="farm" />
		<tag k="ssr:stedsnr" v="476532" />
	</node>
	<node id="-22792" lat="59.5228555545" lon="10.9123333378">
		<tag k="name" v="Daler" />
		<tag k="place" v="farm" />
		<tag k="ssr:stedsnr" v="307008" />
	</node>
	<node id="-22790" lat="59.443030553" lon="11.0865805612">
		<tag k="name" v="Nordbyhytta" />
		<tag k="place" v="locality" />
		<tag k="ssr:stedsnr" v="448879" />
	</node>
	<node id="-22789" lat="59.5100423061" lon="10.8092099959">
		<tag k="alt_name" v="Gylder søndre" />
		<tag k="fixme" v="consider place=hamlet" />
		<tag k="name" v="Søndre Gylder" />
		<tag k="place" v="farm" />
		<tag k="ssr:stedsnr" v="448864" />
	</node>
	<node id="-22787" lat="59.4609611128" lon="10.9057083279">
		<tag k="alt_name" v="Hauger;Hauger søndre" />
		<tag k="name" v="Søndre Hauger" />
		<tag k="place" v="farm" />
		<tag k="ssr:stedsnr" v="245720" />
	</node>
	<node id="-22786" lat="59.4568083322" lon="11.0653888945">
		<tag k="alt_name" v="Sandaker" />
		<tag k="name" v="Sandåker" />
		<tag k="place" v="farm" />
		<tag k="ssr:stedsnr" v="245355" />
	</node>
	<node id="-22784" lat="59.5118695417" lon="10.8123007201">
		<tag k="name" v="Gylder" />
		<tag k="place" v="hamlet" />
		<tag k="ssr:stedsnr" v="297323" />
	</node>
	<node id="-22782" lat="59.4842622504" lon="10.9055059802">
		<tag k="fixme" v="consider place=hamlet" />
		<tag k="name" v="Navestad" />
		<tag k="place" v="farm" />
		<tag k="ssr:stedsnr" v="296636" />
	</node>
	<node id="-22779" lat="59.456186113" lon="11.0551583398">
		<tag k="name" v="Tveterhytta" />
		<tag k="place" v="isolated_dwelling" />
		<tag k="ssr:stedsnr" v="295082" />
	</node>
	<node id="-22777" lat="59.5088000004" lon="11.015797231">
		<tag k="name" v="Muskedalen" />
		<tag k="place" v="farm" />
		<tag k="ssr:stedsnr" v="185079" />
	</node>
	<node id="-22776" lat="59.5067833306" lon="10.9743611111">
		<tag k="alt_name" v="Belgeskogen" />
		<tag k="name" v="Belgskogen" />
		<tag k="place" v="farm" />
		<tag k="ssr:stedsnr" v="185078" />
	</node>
	<node id="-22775" lat="59.4039249998" lon="11.0041777699">
		<tag k="fixme" v="consider tourism=alpine_hut or tourism=chalet" />
		<tag k="name" v="Ravnsjøhytta" />
		<tag k="ssr:stedsnr" v="179760" />
		<tag k="tourism" v="wilderness_hut" />
	</node>
	<node id="-22773" lat="59.5043305473" lon="10.8945863041">
		<tag k="alt_name" v="Lille Sjulerød;Syverud;Syverøe" />
		<tag k="fixme" v="consider place=hamlet" />
		<tag k="name" v="Sjulerød" />
		<tag k="place" v="farm" />
		<tag k="ssr:stedsnr" v="282099" />
	</node>
	<node id="-22771" lat="59.4182833328" lon="11.03698333">
		<tag k="name" v="Åsen" />
		<tag k="place" v="locality" />
		<tag k="ssr:stedsnr" v="266853" />
	</node>
	<node id="-22770" lat="59.4149527798" lon="11.0085666581">
		<tag k="alt_name" v="Bakkon" />
		<tag k="name" v="Bakken" />
		<tag k="place" v="farm" />
		<tag k="ssr:stedsnr" v="266852" />
	</node>
	<node id="-22769" lat="59.423296484" lon="11.0485413917">
		<tag k="alt_name" v="Vastvet nordre" />
		<tag k="loc_name" v="Nordre Vasstvet" />
		<tag k="name" v="Nordre Vastvet" />
		<tag k="place" v="farm" />
		<tag k="ssr:stedsnr" v="266843" />
	</node>
	<node id="-22764" lat="59.5267444431" lon="10.9482611055">
		<tag k="name" v="Bekkhus" />
		<tag k="place" v="locality" />
		<tag k="ssr:stedsnr" v="266804" />
	</node>
	<node id="-22762" lat="59.5209305597" lon="10.9391055629">
		<tag k="name" v="Stein" />
		<tag k="place" v="farm" />
		<tag k="ssr:stedsnr" v="266791" />
	</node>
	<node id="-22761" lat="59.5196352459" lon="10.9038773682">
		<tag k="alt_name" v="Veidal nordre" />
		<tag k="fixme" v="consider place=hamlet" />
		<tag k="name" v="Nordre Veidal" />
		<tag k="place" v="farm" />
		<tag k="ssr:stedsnr" v="266788" />
	</node>
	<node id="-22758" lat="59.4900222243" lon="10.8582305638">
		<tag k="alt_name" v="Kirkebygden skole" />
		<tag k="amenity" v="school" />
		<tag k="name" v="Kirkebygda skole" />
		<tag k="ssr:stedsnr" v="266775" />
	</node>
	<node id="-22754" lat="59.509501282" lon="10.9563166903">
		<tag k="alt_name" v="Belgen mellem" />
		<tag k="name" v="Mellom-Belgen" />
		<tag k="place" v="farm" />
		<tag k="ssr:stedsnr" v="264998" />
	</node>
	<node id="-22753" lat="59.5113555595" lon="10.9750999966">
		<tag k="name" v="Havnås" />
		<tag k="place" v="isolated_dwelling" />
		<tag k="ssr:stedsnr" v="264992" />
	</node>
	<node id="-22752" lat="59.5077261802" lon="10.9549853428">
		<tag k="alt_name" v="Belgen søndre" />
		<tag k="name" v="Søndre Belgen" />
		<tag k="place" v="farm" />
		<tag k="ssr:stedsnr" v="264967" />
	</node>
	<node id="-22749" lat="59.5051527759" lon="11.0130333323">
		<tag k="name" v="Bråtenes" />
		<tag k="place" v="farm" />
		<tag k="ssr:stedsnr" v="264937" />
	</node>
	<node id="-22747" lat="59.4434836188" lon="10.82977733">
		<tag k="fixme" v="consider place=hamlet" />
		<tag k="name" v="Guthus" />
		<tag k="place" v="farm" />
		<tag k="ssr:stedsnr" v="124313" />
	</node>
	<node id="-22746" lat="59.4399527789" lon="11.0752472209">
		<tag k="name" v="Vestereng" />
		<tag k="place" v="farm" />
		<tag k="ssr:stedsnr" v="124311" />
	</node>
	<node id="-22744" lat="59.4107217727" lon="10.8096680747">
		<tag k="alt_name" v="Bliksøen" />
		<tag k="fixme" v="consider place=hamlet" />
		<tag k="name" v="Bliksøya" />
		<tag k="place" v="farm" />
		<tag k="ssr:stedsnr" v="123347" />
	</node>
	<node id="-22737" lat="59.4664583332" lon="11.0085499917">
		<tag k="alt_name" v="Lundem nordre" />
		<tag k="name" v="Nordre Lundem" />
		<tag k="place" v="farm" />
		<tag k="ssr:stedsnr" v="113105" />
	</node>
	<node id="-22732" lat="59.441069448" lon="11.1144055528">
		<tag k="name" v="Grønli" />
		<tag k="place" v="farm" />
		<tag k="ssr:stedsnr" v="84819" />
	</node>
	<node id="-22729" lat="59.486472223" lon="10.8758638935">
		<tag k="alt_name" v="Berg østre" />
		<tag k="name" v="Østre Berg" />
		<tag k="place" v="farm" />
		<tag k="ssr:stedsnr" v="84803" />
	</node>
	<node id="-22728" lat="59.4346944429" lon="11.0965250067">
		<tag k="name" v="Nordby" />
		<tag k="place" v="farm" />
		<tag k="ssr:stedsnr" v="83966" />
	</node>
	<node id="-22727" lat="59.4875666665" lon="10.9480388856">
		<tag k="name" v="Leina" />
		<tag k="place" v="isolated_dwelling" />
		<tag k="ssr:stedsnr" v="82957" />
	</node>
	<node id="-22726" lat="59.5170083314" lon="10.7841638882">
		<tag k="alt_name" v="Kåter vestre" />
		<tag k="name" v="Vestre Kåter" />
		<tag k="place" v="farm" />
		<tag k="ssr:stedsnr" v="247045" />
	</node>
	<node id="-22725" lat="59.5203666623" lon="10.9514194428">
		<tag k="alt_name" v="Tveiter, østre;Tveter nordre;Tveter østre;Tveiter østre;Tveiter" />
		<tag k="name" v="Østre Tveiter" />
		<tag k="place" v="farm" />
		<tag k="ssr:stedsnr" v="247014" />
	</node>
	<node id="-22724" lat="59.4966777777" lon="10.9060250043">
		<tag k="name" v="Nybråten" />
		<tag k="place" v="isolated_dwelling" />
		<tag k="ssr:stedsnr" v="246656" />
	</node>
	<node id="-22723" lat="59.5114416667" lon="10.8023555545">
		<tag k="alt_name" v="Gylderdammen nordre;Gylderdammen" />
		<tag k="name" v="Nordre Gylderdammen" />
		<tag k="place" v="farm" />
		<tag k="ssr:stedsnr" v="246042" />
	</node>
	<node id="-22721" lat="59.4619999975" lon="10.8041555489">
		<tag k="name" v="Dammyr" />
		<tag k="place" v="farm" />
		<tag k="ssr:stedsnr" v="245689" />
	</node>
	<node id="-22720" lat="59.4488361097" lon="10.8409083251">
		<tag k="alt_name" v="Pålhus søndre" />
		<tag k="name" v="Søndre Paulshus" />
		<tag k="place" v="farm" />
		<tag k="ssr:stedsnr" v="245351" />
	</node>
	<node id="-22719" lat="59.4300593163" lon="10.8205813942">
		<tag k="fixme" v="consider place=hamlet" />
		<tag k="name" v="Brønnerød" />
		<tag k="place" v="farm" />
		<tag k="ssr:stedsnr" v="245336" />
	</node>
	<node id="-22717" lat="59.4331250385" lon="10.8371819931">
		<tag k="fixme" v="consider place=hamlet" />
		<tag k="name" v="Grepperød" />
		<tag k="place" v="farm" />
		<tag k="ssr:stedsnr" v="245332" />
	</node>
	<node id="-22716" lat="59.4299562909" lon="11.0172282875">
		<tag k="fixme" v="consider place=hamlet" />
		<tag k="name" v="Foko" />
		<tag k="place" v="farm" />
		<tag k="ssr:stedsnr" v="245331" />
	</node>
	<node id="-22714" lat="59.4302552176" lon="11.0526545424">
		<tag k="fixme" v="consider place=hamlet" />
		<tag k="name" v="Havoll" />
		<tag k="place" v="farm" />
		<tag k="ssr:stedsnr" v="245325" />
	</node>
	<node id="-22713" lat="59.4388570627" lon="11.0959191975">
		<tag k="fixme" v="consider place=hamlet" />
		<tag k="name" v="Nordby" />
		<tag k="place" v="farm" />
		<tag k="ssr:stedsnr" v="245178" />
	</node>
	<node id="-22711" lat="59.4709858631" lon="10.8609778851">
		<tag k="fixme" v="consider place=hamlet" />
		<tag k="name" v="Røstad" />
		<tag k="place" v="farm" />
		<tag k="ssr:stedsnr" v="64744" />
	</node>
	<node id="-22710" lat="59.4883888858" lon="10.8967777761">
		<tag k="alt_name" v="Holm nordre" />
		<tag k="name" v="Nordre Holm" />
		<tag k="place" v="farm" />
		<tag k="ssr:stedsnr" v="64727" />
	</node>
	<node id="-22709" lat="59.481844446" lon="10.9499916695">
		<tag k="alt_name" v="Skjønnerød" />
		<tag k="name" v="Sjønnerød" />
		<tag k="place" v="farm" />
		<tag k="ssr:stedsnr" v="64717" />
	</node>
	<node id="-22708" lat="59.479058762" lon="11.0251565506">
		<tag k="fixme" v="consider place=hamlet" />
		<tag k="name" v="Pelsrød" />
		<tag k="place" v="farm" />
		<tag k="ssr:stedsnr" v="64715" />
	</node>
	<node id="-22707" lat="59.4724691372" lon="10.8442227054">
		<tag k="fixme" v="consider place=hamlet" />
		<tag k="name" v="Eng" />
		<tag k="place" v="farm" />
		<tag k="ssr:stedsnr" v="64706" />
	</node>
	<node id="-22705" lat="59.4417611121" lon="10.7875444425">
		<tag k="name" v="Bjerkeli" />
		<tag k="place" v="farm" />
		<tag k="ssr:stedsnr" v="53660" />
	</node>
	<node id="-22699" lat="59.4215750034" lon="11.0246972234">
		<tag k="alt_name" v="Onsaker søndre" />
		<tag k="name" v="Søndre Onsaker" />
		<tag k="place" v="farm" />
		<tag k="ssr:stedsnr" v="235568" />
	</node>
	<node id="-22698" lat="59.4255058105" lon="11.0172458325">
		<tag k="name" v="Ingulstad" />
		<tag k="place" v="farm" />
		<tag k="ssr:stedsnr" v="235561" />
	</node>
	<node id="-22697" lat="59.4626416656" lon="10.9927055583">
		<tag k="alt_name" v="Lundemødegården" />
		<tag k="loc_name" v="Rud" />
		<tag k="name" v="Ruud" />
		<tag k="place" v="farm" />
		<tag k="ssr:stedsnr" v="235188" />
	</node>
	<node id="-22696" lat="59.477506427" lon="10.9863115291">
		<tag k="fixme" v="consider place=hamlet" />
		<tag k="name" v="Grimsrød" />
		<tag k="place" v="farm" />
		<tag k="ssr:stedsnr" v="235139" />
	</node>
	<node id="-22694" lat="59.4532555533" lon="10.8897888968">
		<tag k="name" v="Kilen" />
		<tag k="place" v="farm" />
		<tag k="ssr:stedsnr" v="234489" />
	</node>
	<node id="-22693" lat="59.4344333299" lon="10.9210249972">
		<tag k="name" v="Bjerkedaldalen" />
		<tag k="place" v="farm" />
		<tag k="ssr:stedsnr" v="234513" />
	</node>
	<node id="-22691" lat="59.5044388915" lon="11.0001694436">
		<tag k="name" v="Bekakoia" />
		<tag k="place" v="locality" />
		<tag k="ssr:stedsnr" v="23854" />
	</node>
	<node id="-22690" lat="59.4660694456" lon="11.0218166616">
		<tag k="name" v="Bråteødegård" />
		<tag k="place" v="farm" />
		<tag k="ssr:stedsnr" v="23844" />
	</node>
	<node id="-22686" lat="59.4836694441" lon="10.894347218">
		<tag k="alt_name" v="Holm søndre" />
		<tag k="name" v="Søndre Holm" />
		<tag k="place" v="farm" />
		<tag k="ssr:stedsnr" v="3692" />
	</node>
	<node id="-22685" lat="59.4791500024" lon="10.8905805555">
		<tag k="name" v="Haug" />
		<tag k="place" v="farm" />
		<tag k="ssr:stedsnr" v="3690" />
	</node>
	<node id="-22681" lat="59.4912722184" lon="10.9559333407">
		<tag k="name" v="Holen" />
		<tag k="place" v="farm" />
		<tag k="ssr:stedsnr" v="3668" />
	</node>
	<node id="-22678" lat="59.4249157811" lon="11.111181668">
		<tag k="alt_name" v="Skaug" />
		<tag k="fixme" v="consider place=hamlet" />
		<tag k="name" v="Skog" />
		<tag k="place" v="farm" />
		<tag k="ssr:stedsnr" v="2172" />
	</node>
</osm>
