<?xml version="1.0" encoding="UTF-8"?>
<osm version="0.6" generator="osmapis">
	<node lat="59.47996944629231" lon="11.044508340659643" id="-26508">
		<tag k="alt_name" v="Igletjernmosen" />
		<tag k="name" v="Igletjernmosan" />
		<tag k="natural" v="wetland" />
		<tag k="ssr:stedsnr" v="3682" />
	</node>
	<node lat="59.40476666543207" lon="10.804338887199764" id="-26530">
		<tag k="name" v="Såstadbingen" />
		<tag k="place" v="locality" />
		<tag k="ssr:stedsnr" v="53902" />
	</node>
	<node lat="59.48231388632825" lon="11.020155563354505" id="-26555">
		<tag k="name" v="Langemyr" />
		<tag k="natural" v="wetland" />
		<tag k="ssr:stedsnr" v="84825" />
	</node>
	<node lat="59.49087777959862" lon="11.063708328589609" id="-26584">
		<tag k="name" v="Høymyr" />
		<tag k="natural" v="wetland" />
		<tag k="ssr:stedsnr" v="124634" />
	</node>
	<node lat="59.39091197482866" lon="11.053214661305551" id="-26590">
		<tag k="alt_name" v="Tjuetmyra" />
		<tag k="name" v="Tjuutmyra" />
		<tag k="natural" v="wetland" />
		<tag k="ssr:stedsnr" v="143689" />
	</node>
	<node lat="59.513933335787904" lon="10.927908324820137" id="-26636">
		<tag k="name" v="Langemyr" />
		<tag k="natural" v="wetland" />
		<tag k="ssr:stedsnr" v="266786" />
	</node>
	<node lat="59.45939721893461" lon="11.030119440873692" id="-26637">
		<tag k="name" v="Kuhagen" />
		<tag k="place" v="locality" />
		<tag k="ssr:stedsnr" v="295079" />
	</node>
	<node lat="59.39272490719679" lon="11.041071873811266" id="-26656">
		<tag k="name" v="Tjuutmyr" />
		<tag k="natural" v="wetland" />
		<tag k="ssr:stedsnr" v="476062" />
	</node>
	<node lat="59.46965277621872" lon="10.875191665480987" id="-26704">
		<tag k="name" v="Flesbergmosen" />
		<tag k="natural" v="wetland" />
		<tag k="ssr:stedsnr" v="448808" />
	</node>
	<node lat="59.40674166593666" lon="10.941102774655098" id="-26732">
		<tag k="name" v="Langmyr" />
		<tag k="natural" v="wetland" />
		<tag k="ssr:stedsnr" v="509721" />
	</node>
	<node lat="59.474052775439674" lon="11.048230552916134" id="-26737">
		<tag k="name" v="Tømmermosen" />
		<tag k="natural" v="wetland" />
		<tag k="ssr:stedsnr" v="538122" />
	</node>
	<node lat="59.43147222130985" lon="10.806127777115377" id="-26755">
		<tag k="name" v="Brønnerødmosen" />
		<tag k="natural" v="wetland" />
		<tag k="ssr:stedsnr" v="691850" />
	</node>
	<node lat="59.459936107665214" lon="11.049905554482384" id="-26760">
		<tag k="name" v="Reverumpemyra" />
		<tag k="natural" v="wetland" />
		<tag k="ssr:stedsnr" v="569811" />
	</node>
	<node lat="59.42589721909835" lon="10.857183329136376" id="-26781">
		<tag k="landuse" v="meadow" />
		<tag k="name" v="Stareng" />
		<tag k="ssr:stedsnr" v="660546" />
	</node>
	<node lat="59.468063885548446" lon="11.0429249993583" id="-26794">
		<tag k="name" v="Mørkemyr" />
		<tag k="natural" v="wetland" />
		<tag k="ssr:stedsnr" v="691795" />
	</node>
	<node lat="59.53644166605037" lon="10.962288880534597" id="-26843">
		<tag k="name" v="Breidmosan" />
		<tag k="natural" v="wetland" />
		<tag k="ssr:stedsnr" v="914224" />
	</node>
	<node lat="59.49357222218743" lon="11.013769450000007" id="-26862">
		<tag k="name" v="Fløtermosen" />
		<tag k="natural" v="wetland" />
		<tag k="ssr:stedsnr" v="932934" />
	</node>
	<node lat="59.47013333411538" lon="11.0462916612625" id="-26872">
		<tag k="alt_name" v="Breimosen" />
		<tag k="name" v="Breidmosan" />
		<tag k="natural" v="wetland" />
		<tag k="ssr:stedsnr" v="912730" />
	</node>
	<node lat="59.43490833635348" lon="10.859100005937773" id="-26881">
		<tag k="name" v="Oremyr" />
		<tag k="natural" v="wetland" />
		<tag k="ssr:stedsnr" v="934746" />
	</node>
	<node lat="59.46138055275388" lon="10.9099361089208" id="-26907">
		<tag k="name" v="Lunderbogen" />
		<tag k="place" v="locality" />
		<tag k="ssr:stedsnr" v="52457" />
	</node>
	<node lat="59.46576388518256" lon="10.787294452726622" id="-26924">
		<tag k="name" v="Augerødmosen" />
		<tag k="natural" v="wetland" />
		<tag k="ssr:stedsnr" v="84865" />
	</node>
	<node lat="59.399169442279884" lon="11.065847223657627" id="-26933">
		<tag k="name" v="Grasmyra" />
		<tag k="natural" v="wetland" />
		<tag k="ssr:stedsnr" v="123337" />
	</node>
	<node lat="59.529577782142624" lon="10.932799992832926" id="-26944">
		<tag k="name" v="Breimosen" />
		<tag k="natural" v="wetland" />
		<tag k="ssr:stedsnr" v="144789" />
	</node>
	<node lat="59.477069442927665" lon="11.00958056250227" id="-26947">
		<tag k="name" v="Bjørneklevmyra" />
		<tag k="natural" v="wetland" />
		<tag k="ssr:stedsnr" v="144810" />
	</node>
	<node lat="59.510427781515496" lon="10.975997213763687" id="-27034">
		<tag k="landuse" v="meadow" />
		<tag k="name" v="Roligheten" />
		<tag k="ssr:stedsnr" v="385983" />
	</node>
	<node lat="59.51067777547596" lon="10.96966389111583" id="-27084">
		<tag k="name" v="Belgemosen" />
		<tag k="natural" v="wetland" />
		<tag k="ssr:stedsnr" v="569780" />
	</node>
	<node lat="59.49242777545196" lon="10.98264721471562" id="-27102">
		<tag k="name" v="Langemyr" />
		<tag k="natural" v="wetland" />
		<tag k="ssr:stedsnr" v="628923" />
	</node>
	<node lat="59.40884444724839" lon="10.816658331868625" id="-27114">
		<tag k="name" v="Grannestein" />
		<tag k="natural" v="stone" />
		<tag k="ssr:stedsnr" v="660664" />
	</node>
	<node lat="59.410822225118984" lon="11.095791665084656" id="-27115">
		<tag k="alt_name" v="Langemyr" />
		<tag k="name" v="Langmyra" />
		<tag k="natural" v="wetland" />
		<tag k="ssr:stedsnr" v="669125" />
	</node>
	<node lat="59.50188333666211" lon="10.957488893342001" id="-27160">
		<tag k="name" v="Nordengen" />
		<tag k="place" v="locality" />
		<tag k="ssr:stedsnr" v="811958" />
	</node>
	<node lat="59.48606944428856" lon="10.961661119516785" id="-27164">
		<tag k="name" v="Futemyra" />
		<tag k="natural" v="wetland" />
		<tag k="ssr:stedsnr" v="812828" />
	</node>
	<node lat="59.49645277837109" lon="10.982402785320607" id="-27165">
		<tag k="name" v="Rørmyr" />
		<tag k="natural" v="wetland" />
		<tag k="ssr:stedsnr" v="812840" />
	</node>
</osm>
