<?xml version="1.0" encoding="UTF-8"?>
<osm version="0.6" generator="osmapis">
	<node lat="59.42453889046296" lon="11.063500001622725" id="-15150">
		<tag k="name" v="Kongehaugen" />
		<tag k="place" v="locality" />
		<tag k="ssr:stedsnr" v="84812" />
	</node>
	<node lat="59.43516388570452" lon="11.074752772595591" id="-15151">
		<tag k="name" v="Drillestadholtet" />
		<tag k="place" v="locality" />
		<tag k="ssr:stedsnr" v="84816" />
	</node>
	<node lat="59.45681111551701" lon="11.024124995723309" id="-15157">
		<tag k="name" v="Fjellbo" />
		<tag k="place" v="locality" />
		<tag k="ssr:stedsnr" v="84853" />
	</node>
	<node lat="59.43466111507443" lon="11.00319166505889" id="-15173">
		<tag k="name" v="Mellegårdsbingen" />
		<tag k="place" v="locality" />
		<tag k="ssr:stedsnr" v="114534" />
	</node>
	<node lat="59.44100000239539" lon="11.058819441880889" id="-15204">
		<tag k="name" v="Kirkerødhytta" />
		<tag k="place" v="locality" />
		<tag k="ssr:stedsnr" v="266797" />
	</node>
	<node lat="59.50629444796799" lon="10.948772217264434" id="-15205">
		<tag k="name" v="Gurødhytta" />
		<tag k="place" v="locality" />
		<tag k="ssr:stedsnr" v="266826" />
	</node>
	<node lat="59.47010278200906" lon="10.902708335517003" id="-15209">
		<tag k="name" v="Lahellklypa" />
		<tag k="place" v="locality" />
		<tag k="ssr:stedsnr" v="266763" />
	</node>
	<node lat="59.48750555888914" lon="10.86291667338523" id="-15210">
		<tag k="amenity" v="community_centre" />
		<tag k="name" v="Solvang" />
		<tag k="ssr:stedsnr" v="266765" />
	</node>
	<node lat="59.49811388528043" lon="10.922097220712912" id="-15212">
		<tag k="name" v="Rasa" />
		<tag k="place" v="locality" />
		<tag k="ssr:stedsnr" v="266778" />
	</node>
	<node lat="59.50524166992956" lon="10.875205548825999" id="-15239">
		<tag k="name" v="Potetbråten" />
		<tag k="place" v="locality" />
		<tag k="ssr:stedsnr" v="509737" />
	</node>
	<node lat="59.47483889045936" lon="10.955977783111315" id="-15275">
		<tag k="name" v="Struthullet" />
		<tag k="place" v="locality" />
		<tag k="ssr:stedsnr" v="417121" />
	</node>
	<node lat="59.48545833254444" lon="10.96950276976654" id="-15308">
		<tag k="loc_name" v="Sandbunnleina" />
		<tag k="name" v="Sandbunnleima" />
		<tag k="place" v="locality" />
		<tag k="ssr:stedsnr" v="448831" />
	</node>
	<node lat="59.425938887079816" lon="11.031625001572134" id="-15309">
		<tag k="name" v="Oreholtet" />
		<tag k="place" v="locality" />
		<tag k="ssr:stedsnr" v="448841" />
	</node>
	<node lat="59.43954166237934" lon="11.01490555052752" id="-15311">
		<tag k="name" v="Fokohytta" />
		<tag k="place" v="locality" />
		<tag k="ssr:stedsnr" v="448850" />
	</node>
	<node lat="59.456633329858796" lon="11.018027771076532" id="-15332">
		<tag k="name" v="Leikvoll" />
		<tag k="place" v="locality" />
		<tag k="ssr:stedsnr" v="509798" />
	</node>
	<node lat="59.425844446938015" lon="10.87845000622659" id="-15350">
		<tag k="name" v="Grønnlokk" />
		<tag k="place" v="locality" />
		<tag k="ssr:stedsnr" v="691754" />
	</node>
	<node lat="59.42144721908208" lon="10.995558327448897" id="-15352">
		<tag k="name" v="Grønnebakke" />
		<tag k="place" v="locality" />
		<tag k="ssr:stedsnr" v="691833" />
	</node>
	<node lat="59.440911115322265" lon="10.948127775717955" id="-15374">
		<tag k="name" v="Fossli" />
		<tag k="place" v="locality" />
		<tag k="ssr:stedsnr" v="630789" />
	</node>
	<node lat="59.46694167091216" lon="10.987955554249718" id="-15391">
		<tag k="name" v="Kølabunn" />
		<tag k="place" v="locality" />
		<tag k="ssr:stedsnr" v="691803" />
	</node>
	<node lat="59.4885972267487" lon="10.868130547628285" id="-15403">
		<tag k="amenity" v="place_of_worship" />
		<tag k="denomination" v="lutheran" />
		<tag k="name" v="Våler kirke" />
		<tag k="religion" v="christian" />
		<tag k="ssr:stedsnr" v="731675" />
	</node>
	<node lat="59.42910833167205" lon="10.896816670903275" id="-15411">
		<tag k="name" v="Gjøvik" />
		<tag k="place" v="locality" />
		<tag k="ssr:stedsnr" v="901536" />
	</node>
	<node lat="59.50085555759348" lon="10.869405563339196" id="-15422">
		<tag k="name" v="Langebråte" />
		<tag k="place" v="locality" />
		<tag k="ssr:stedsnr" v="751809" />
	</node>
	<node lat="59.498533335905584" lon="10.943408341890994" id="-15423">
		<tag k="name" v="Skvalen" />
		<tag k="place" v="locality" />
		<tag k="ssr:stedsnr" v="751812" />
	</node>
	<node lat="59.43657777854539" lon="10.981461117089552" id="-15425">
		<tag k="name" v="Engsand" />
		<tag k="place" v="locality" />
		<tag k="ssr:stedsnr" v="751858" />
	</node>
	<node lat="59.52297222353303" lon="10.91287778445182" id="-15445">
		<tag k="name" v="Daler" />
		<tag k="place" v="locality" />
		<tag k="ssr:stedsnr" v="812801" />
	</node>
	<node lat="59.49024166579206" lon="10.93043054860089" id="-15463">
		<tag k="name" v="Brennheit" />
		<tag k="place" v="locality" />
		<tag k="ssr:stedsnr" v="934756" />
	</node>
	<node lat="59.42406666962607" lon="11.016244438527146" id="-15491">
		<tag k="amenity" v="place_of_worship" />
		<tag k="denomination" v="lutheran" />
		<tag k="name" v="Svinndal kirke" />
		<tag k="religion" v="christian" />
		<tag k="ssr:stedsnr" v="2364" />
	</node>
	<node lat="59.48988055517232" lon="10.847172223805748" id="-15500">
		<tag k="name" v="Folkestadhøgda" />
		<tag k="place" v="locality" />
		<tag k="ssr:stedsnr" v="23821" />
	</node>
	<node lat="59.43700555329678" lon="11.033805553618603" id="-15503">
		<tag k="name" v="Bjørnemyr" />
		<tag k="place" v="locality" />
		<tag k="ssr:stedsnr" v="23857" />
	</node>
	<node lat="59.455586110317064" lon="10.9924083275925" id="-15504">
		<tag k="name" v="Sandemdammen" />
		<tag k="place" v="locality" />
		<tag k="ssr:stedsnr" v="23867" />
	</node>
	<node lat="59.48126944119716" lon="10.947591667637226" id="-15507">
		<tag k="name" v="Skjønnerød" />
		<tag k="place" v="locality" />
		<tag k="ssr:stedsnr" v="53127" />
	</node>
	<node lat="59.466263889817036" lon="10.814286116001266" id="-15546">
		<tag k="amenity" v="place_of_worship" />
		<tag k="fixme" v="specify religion=*, denomination=*, building=* etc" />
		<tag k="name" v="Varna" />
		<tag k="ssr:stedsnr" v="144847" />
	</node>
	<node lat="59.48502222222749" lon="10.972766669251216" id="-15547">
		<tag k="name" v="Lua" />
		<tag k="place" v="locality" />
		<tag k="ssr:stedsnr" v="144867" />
	</node>
	<node lat="59.475202773474706" lon="10.98089721991846" id="-15548">
		<tag k="name" v="Svaehagen" />
		<tag k="place" v="locality" />
		<tag k="ssr:stedsnr" v="144816" />
	</node>
	<node lat="59.50265555139562" lon="11.002391662161415" id="-15549">
		<tag k="name" v="Føterbråten" />
		<tag k="place" v="locality" />
		<tag k="ssr:stedsnr" v="144818" />
	</node>
	<node lat="59.476747220686285" lon="10.969044441720323" id="-15574">
		<tag k="name" v="Skubakkene" />
		<tag k="place" v="locality" />
		<tag k="ssr:stedsnr" v="205832" />
	</node>
	<node lat="59.425277776748544" lon="11.115183332130814" id="-15577">
		<tag k="name" v="Bergemellom" />
		<tag k="place" v="locality" />
		<tag k="ssr:stedsnr" v="205883" />
	</node>
	<node lat="59.43907222043005" lon="11.074150002078639" id="-15634">
		<tag k="name" v="Drillestadhytta" />
		<tag k="place" v="locality" />
		<tag k="ssr:stedsnr" v="387863" />
	</node>
	<node lat="59.40731944268192" lon="11.03381944094833" id="-15661">
		<tag k="name" v="Demme" />
		<tag k="place" v="locality" />
		<tag k="ssr:stedsnr" v="509802" />
	</node>
	<node lat="59.404608336848305" lon="10.995375005828638" id="-15705">
		<tag k="name" v="Lungedalen" />
		<tag k="place" v="locality" />
		<tag k="ssr:stedsnr" v="659516" />
	</node>
	<node lat="59.41203333252995" lon="11.005572221282172" id="-15719">
		<tag k="name" v="Moen" />
		<tag k="place" v="locality" />
		<tag k="ssr:stedsnr" v="720541" />
	</node>
	<node lat="59.458272223601014" lon="10.80696111062789" id="-15721">
		<tag k="name" v="Våk" />
		<tag k="place" v="locality" />
		<tag k="ssr:stedsnr" v="721703" />
	</node>
	<node lat="59.48552500444236" lon="10.989991669093925" id="-15745">
		<tag k="name" v="Ramla" />
		<tag k="place" v="locality" />
		<tag k="ssr:stedsnr" v="781118" />
	</node>
	<node lat="59.49633610956682" lon="10.876391672152984" id="-15782">
		<tag k="name" v="Syverstua" />
		<tag k="place" v="locality" />
		<tag k="ssr:stedsnr" v="873746" />
	</node>
	<node lat="59.472711112482806" lon="10.949797228995415" id="-15786">
		<tag k="name" v="Furumoen" />
		<tag k="place" v="locality" />
		<tag k="ssr:stedsnr" v="873793" />
	</node>
	<node lat="59.44963055977796" lon="10.99149167199882" id="-15787">
		<tag k="name" v="Frølandshytta" />
		<tag k="place" v="locality" />
		<tag k="ssr:stedsnr" v="873817" />
	</node>
</osm>
