<?xml version="1.0" encoding="UTF-8"?>
<osm version="0.6" generator="osmapis">
	<node id="8291494238" lat="67.5171968" lon="12.1168953" version="4" timestamp="2022-06-22T17:22:50Z" changeset="122721432" uid="3497659" user="NKA">
		<tag k="name" v="Røst" />
		<tag k="place" v="village" />
		<tag k="population" v="339" />
		<tag k="population:date" v="2021-01-01" />
		<tag k="ref:ssb_tettsted" v="7771" />
		<tag k="source:population" v="SSB - befolkning i tettstedet" />
		<tag k="ssr:stedsnr" v="502282" />
		<tag k="wikidata" v="Q58831889" />
	</node>
	<node id="9839320254" lat="67.5217412" lon="12.1308205" version="1" timestamp="2022-06-22T17:22:50Z" changeset="122721432" uid="3497659" user="NKA">
		<tag k="name" v="Klokkargården" />
		<tag k="place" v="farm" />
		<tag k="ssr:stedsnr" v="839559" />
	</node>
	<node id="9839320255" lat="67.5234854" lon="12.1290896" version="1" timestamp="2022-06-22T17:22:50Z" changeset="122721432" uid="3497659" user="NKA">
		<tag k="name" v="Meland" />
		<tag k="place" v="farm" />
		<tag k="ssr:stedsnr" v="502305" />
	</node>
	<node id="9839320256" lat="67.5121111" lon="12.1122779" version="1" timestamp="2022-06-22T17:22:50Z" changeset="122721432" uid="3497659" user="NKA">
		<tag k="alt_name" v="Vassneset" />
		<tag k="name" v="Vasnes" />
		<tag k="place" v="farm" />
		<tag k="ssr:stedsnr" v="138365" />
	</node>
	<node id="9839320257" lat="67.5152422" lon="12.0871706" version="1" timestamp="2022-06-22T17:22:50Z" changeset="122721432" uid="3497659" user="NKA">
		<tag k="name" v="Brasen" />
		<tag k="place" v="farm" />
		<tag k="ssr:stedsnr" v="17362" />
	</node>
	<node id="9839320258" lat="67.5166568" lon="12.0886442" version="1" timestamp="2022-06-22T17:22:50Z" changeset="122721432" uid="3497659" user="NKA">
		<tag k="name" v="Kongsjorda" />
		<tag k="place" v="locality" />
		<tag k="ssr:stedsnr" v="1075876" />
	</node>
	<node id="9839320259" lat="67.5152636" lon="12.0983908" version="1" timestamp="2022-06-22T17:22:50Z" changeset="122721432" uid="3497659" user="NKA">
		<tag k="name" v="Klakken" />
		<tag k="place" v="farm" />
		<tag k="ssr:stedsnr" v="866312" />
	</node>
	<node id="9839320260" lat="67.5148439" lon="12.1139081" version="1" timestamp="2022-06-22T17:22:50Z" changeset="122721432" uid="3497659" user="NKA">
		<tag k="loc_name" v="Hammar" />
		<tag k="name" v="Hammer" />
		<tag k="place" v="farm" />
		<tag k="ssr:stedsnr" v="78337" />
	</node>
	<node id="9839320261" lat="67.5226917" lon="12.1347888" version="1" timestamp="2022-06-22T17:22:50Z" changeset="122721432" uid="3497659" user="NKA">
		<tag k="name" v="Demma" />
		<tag k="place" v="locality" />
		<tag k="ssr:stedsnr" v="805309" />
	</node>
	<node id="9839320262" lat="67.5278389" lon="12.1402806" version="1" timestamp="2022-06-22T17:22:50Z" changeset="122721432" uid="3497659" user="NKA">
		<tag k="name" v="Nedreneset" />
		<tag k="place" v="farm" />
		<tag k="ssr:stedsnr" v="380728" />
	</node>
	<node id="9839320263" lat="67.4684166" lon="11.9498639" version="1" timestamp="2022-06-22T17:22:50Z" changeset="122721432" uid="3497659" user="NKA">
		<tag k="name" v="Sanden" />
		<tag k="place" v="farm" />
		<tag k="ssr:stedsnr" v="927275" />
	</node>
	<node id="9839320264" lat="67.5273695" lon="12.1219695" version="1" timestamp="2022-06-22T17:22:50Z" changeset="122721432" uid="3497659" user="NKA">
		<tag k="name" v="Kvalvåg" />
		<tag k="place" v="farm" />
		<tag k="ssr:stedsnr" v="839547" />
	</node>
	<node id="9839320265" lat="67.5201749" lon="12.1305082" version="1" timestamp="2022-06-22T17:22:50Z" changeset="122721432" uid="3497659" user="NKA">
		<tag k="name" v="Brygga" />
		<tag k="place" v="farm" />
		<tag k="ssr:stedsnr" v="380328" />
	</node>
	<node id="9839320266" lat="67.5164423" lon="12.1242885" version="1" timestamp="2022-06-22T17:22:50Z" changeset="122721432" uid="3497659" user="NKA">
		<tag k="name" v="Grav" />
		<tag k="place" v="farm" />
		<tag k="ssr:stedsnr" v="562323" />
	</node>
	<node id="9839320267" lat="67.5250386" lon="12.1361487" version="1" timestamp="2022-06-22T17:22:50Z" changeset="122721432" uid="3497659" user="NKA">
		<tag k="name" v="Skau" />
		<tag k="place" v="farm" />
		<tag k="ssr:stedsnr" v="502314" />
	</node>
	<node id="9839320268" lat="67.5243052" lon="12.114457" version="1" timestamp="2022-06-22T17:22:50Z" changeset="122721432" uid="3497659" user="NKA">
		<tag k="name" v="Røstlandet" />
		<tag k="place" v="hamlet" />
		<tag k="ssr:stedsnr" v="745353" />
	</node>
	<node id="9839320269" lat="67.5217139" lon="12.1180972" version="1" timestamp="2022-06-22T17:22:50Z" changeset="122721432" uid="3497659" user="NKA">
		<tag k="name" v="Gråsonen" />
		<tag k="place" v="neighbourhood" />
		<tag k="ssr:stedsnr" v="111520" />
	</node>
	<node id="9839320270" lat="67.5141833" lon="12.1058494" version="1" timestamp="2022-06-22T17:22:50Z" changeset="122721432" uid="3497659" user="NKA">
		<tag k="alt_name" v="Stamneset" />
		<tag k="name" v="Stamnes" />
		<tag k="place" v="farm" />
		<tag k="ssr:stedsnr" v="562318" />
	</node>
	<node id="9839320271" lat="67.4581333" lon="11.9341499" version="1" timestamp="2022-06-22T17:22:50Z" changeset="122721432" uid="3497659" user="NKA">
		<tag k="name" v="Tufter" />
		<tag k="place" v="locality" />
		<tag k="ssr:stedsnr" v="596049" />
	</node>
	<node id="9839320272" lat="67.5189353" lon="12.1153045" version="1" timestamp="2022-06-22T17:22:50Z" changeset="122721432" uid="3497659" user="NKA">
		<tag k="name" v="Golan" />
		<tag k="place" v="neighbourhood" />
		<tag k="ssr:stedsnr" v="353549" />
	</node>
	<node id="9839320273" lat="67.5270976" lon="12.1322783" version="1" timestamp="2022-06-22T17:22:50Z" changeset="122721432" uid="3497659" user="NKA">
		<tag k="alt_name" v="Nordneset;Nesset" />
		<tag k="name" v="Neset" />
		<tag k="place" v="farm" />
		<tag k="ssr:stedsnr" v="77709" />
	</node>
	<node id="9839320274" lat="67.516396" lon="12.0836576" version="1" timestamp="2022-06-22T17:22:50Z" changeset="122721432" uid="3497659" user="NKA">
		<tag k="alt_name" v="Ytstneset" />
		<tag k="name" v="Ystneset" />
		<tag k="place" v="farm" />
		<tag k="ssr:stedsnr" v="684337" />
	</node>
	<node id="9839320275" lat="67.4612528" lon="11.9251223" version="1" timestamp="2022-06-22T17:22:50Z" changeset="122721432" uid="3497659" user="NKA">
		<tag k="name" v="Husan" />
		<tag k="place" v="locality" />
		<tag k="ssr:stedsnr" v="718009" />
	</node>
</osm>
