<?xml version="1.0" encoding="UTF-8"?>
<osm generator="osmapis" version="0.6">
	<node id="-3706" lat="59.4397796618" lon="10.6665580489">
		<tag k="name" v="Bernt Ankers gate" />
		<tag k="ssr:date" v="2019-05-31" />
		<tag k="ssr:gruppe" v="veg" />
		<tag k="ssr:hovedgruppe" v="infrastruktur" />
		<tag k="ssr:stedsnr" v="1063831" />
		<tag k="ssr:type" v="adressenavn" />
	</node>
	<node id="-3705" lat="59.4405953383" lon="10.666993217">
		<tag k="name" v="Elisabeth von Hübschs gate" />
		<tag k="ssr:date" v="2019-05-31" />
		<tag k="ssr:gruppe" v="veg" />
		<tag k="ssr:hovedgruppe" v="infrastruktur" />
		<tag k="ssr:stedsnr" v="1063829" />
		<tag k="ssr:type" v="adressenavn" />
	</node>
	<node id="-3704" lat="59.4396933848" lon="10.665224153">
		<tag k="name" v="Rebækkas gate" />
		<tag k="ssr:date" v="2019-05-31" />
		<tag k="ssr:gruppe" v="veg" />
		<tag k="ssr:hovedgruppe" v="infrastruktur" />
		<tag k="ssr:stedsnr" v="1063827" />
		<tag k="ssr:type" v="adressenavn" />
	</node>
	<node id="-3703" lat="59.4416319708" lon="10.6727916719">
		<tag k="name" v="Elvebredden" />
		<tag k="ssr:date" v="2019-05-31" />
		<tag k="ssr:gruppe" v="veg" />
		<tag k="ssr:hovedgruppe" v="infrastruktur" />
		<tag k="ssr:stedsnr" v="1063823" />
		<tag k="ssr:type" v="adressenavn" />
	</node>
	<node id="-3702" lat="59.4266375342" lon="10.6817470155">
		<tag k="name" v="Soliehagen" />
		<tag k="ssr:date" v="2019-05-31" />
		<tag k="ssr:gruppe" v="veg" />
		<tag k="ssr:hovedgruppe" v="infrastruktur" />
		<tag k="ssr:stedsnr" v="1063326" />
		<tag k="ssr:type" v="adressenavn" />
	</node>
	<node id="-3694" lat="59.4817412717" lon="10.6942749225">
		<tag k="name" v="Fridas vei" />
		<tag k="ssr:date" v="2019-05-31" />
		<tag k="ssr:gruppe" v="veg" />
		<tag k="ssr:hovedgruppe" v="infrastruktur" />
		<tag k="ssr:stedsnr" v="1060331" />
		<tag k="ssr:type" v="adressenavn" />
	</node>
	<node id="-3689" lat="59.4365077303" lon="10.6623873835">
		<tag k="name" v="Bjørnson terrasse" />
		<tag k="ssr:date" v="2019-05-31" />
		<tag k="ssr:gruppe" v="veg" />
		<tag k="ssr:hovedgruppe" v="infrastruktur" />
		<tag k="ssr:stedsnr" v="1059165" />
		<tag k="ssr:type" v="adressenavn" />
	</node>
	<node id="-3656" lat="59.4280361103" lon="10.6547444502">
		<tag k="alt_name" v="Verlebukta" />
		<tag k="name" v="Verlebukta lykt" />
		<tag k="ssr:date" v="2016-05-10" />
		<tag k="ssr:gruppe" v="navigasjon" />
		<tag k="ssr:hovedgruppe" v="infrastruktur" />
		<tag k="ssr:stedsnr" v="300255" />
		<tag k="ssr:type" v="fyrlykt" />
	</node>
	<node id="-3783" lat="59.4351222246" lon="10.5768333408">
		<tag k="alt_name" v="Gullholmen" />
		<tag k="name" v="Gullholmen fyr" />
		<tag k="old_name" v="Guldholmen" />
		<tag k="ssr:date" v="2016-05-10" />
		<tag k="ssr:gruppe" v="navigasjon" />
		<tag k="ssr:hovedgruppe" v="infrastruktur" />
		<tag k="ssr:stedsnr" v="184929" />
		<tag k="ssr:type" v="fyrlykt" />
	</node>
	<node id="-3750" lat="59.4342597849" lon="10.6595570867">
		<tag k="alt_name" v="Moss" />
		<tag k="name" v="Moss kommune" />
		<tag k="ssr:date" v="2019-12-04" />
		<tag k="ssr:gruppe" v="administrativeIndelinger" />
		<tag k="ssr:hovedgruppe" v="offentligAdministrasjon" />
		<tag k="ssr:stedsnr" v="85050" />
		<tag k="ssr:type" v="kommune" />
	</node>
	<node id="-3781" lat="59.4865428876" lon="10.6752892063">
		<tag k="name" v="Kippenes lykt" />
		<tag k="ssr:date" v="2018-10-08" />
		<tag k="ssr:gruppe" v="navigasjon" />
		<tag k="ssr:hovedgruppe" v="infrastruktur" />
		<tag k="ssr:stedsnr" v="184889" />
		<tag k="ssr:type" v="fyrlykt" />
	</node>
	<node id="-4003" lat="60.5908609473" lon="9.63819281559">
		<tag k="fixme" v="multiple name tags, choose one and add the other to alt_name" />
		<tag k="name" v="Austlandet;Østlandet" />
		<tag k="ssr:date" v="2018-01-09" />
		<tag k="ssr:gruppe" v="administrativeIndelinger" />
		<tag k="ssr:hovedgruppe" v="offentligAdministrasjon" />
		<tag k="ssr:stedsnr" v="974775" />
		<tag k="ssr:type" v="annenAdministrativInndeling" />
	</node>
</osm>
