<?xml version="1.0" encoding="UTF-8"?>
<osm version="0.6" generator="osmapis">
	<node lat="66.50426111323097" lon="12.01348887997178" id="-17517">
		<tag k="fixme" v="consider natural=peak for the most distinct mountains in the district" />
		<tag k="name" v="Ålvoren" />
		<tag k="natural" v="hill" />
		<tag k="place" v="locality" />
		<tag k="ssr:stedsnr" v="77707" />
	</node>
	<node lat="66.5010138848623" lon="12.043313878943657" id="-17584">
		<tag k="name" v="Gumpen" />
		<tag k="natural" v="hill" />
		<tag k="place" v="locality" />
		<tag k="ssr:stedsnr" v="353211" />
	</node>
	<node lat="66.5522444410299" lon="12.247122227011657" id="-17586">
		<tag k="fixme" v="consider natural=peak for the most distinct mountains in the district" />
		<tag k="name" v="Mellatinden" />
		<tag k="natural" v="hill" />
		<tag k="place" v="locality" />
		<tag k="ssr:stedsnr" v="353771" />
	</node>
	<node lat="66.50114999945475" lon="12.073708324814856" id="-17613">
		<tag k="fixme" v="consider natural=peak for the most distinct mountains in the district" />
		<tag k="name" v="Ramberget" />
		<tag k="natural" v="hill" />
		<tag k="place" v="locality" />
		<tag k="ssr:stedsnr" v="475162" />
	</node>
	<node lat="66.58630833537552" lon="12.231763896437498" id="-17646">
		<tag k="name" v="Stonghaugen" />
		<tag k="natural" v="hill" />
		<tag k="place" v="locality" />
		<tag k="ssr:stedsnr" v="534768" />
	</node>
	<node lat="66.5387750021258" lon="12.247472219513659" id="-17648">
		<tag k="name" v="Storhågen" />
		<tag k="natural" v="hill" />
		<tag k="place" v="locality" />
		<tag k="ssr:stedsnr" v="535788" />
	</node>
	<node lat="66.5527305521542" lon="12.243230562168991" id="-17684">
		<tag k="fixme" v="consider natural=peak for the most distinct mountains in the district" />
		<tag k="name" v="Vestertinden" />
		<tag k="natural" v="hill" />
		<tag k="place" v="locality" />
		<tag k="ssr:stedsnr" v="717775" />
	</node>
	<node lat="66.50032778140857" lon="12.092686121552598" id="-17687">
		<tag k="name" v="Storhågen" />
		<tag k="natural" v="hill" />
		<tag k="place" v="locality" />
		<tag k="ssr:stedsnr" v="900188" />
	</node>
	<node lat="66.49917222278437" lon="12.052658335404319" id="-17719">
		<tag k="name" v="Langhågen" />
		<tag k="natural" v="ridge" />
		<tag k="place" v="locality" />
		<tag k="ssr:stedsnr" v="900204" />
	</node>
	<node lat="66.5017916642446" lon="12.017288882740523" id="-17745">
		<tag k="alt_name" v="Sauhaugen" />
		<tag k="name" v="Sauhågen" />
		<tag k="natural" v="hill" />
		<tag k="place" v="locality" />
		<tag k="ssr:stedsnr" v="16670" />
	</node>
	<node lat="66.49412777821418" lon="12.068797212504785" id="-17762">
		<tag k="name" v="Støttberget" />
		<tag k="natural" v="ridge" />
		<tag k="place" v="locality" />
		<tag k="ssr:stedsnr" v="50149" />
	</node>
	<node lat="66.53957500357807" lon="12.227861119697856" id="-17769">
		<tag k="name" v="Dårkista" />
		<tag k="natural" v="valley" />
		<tag k="place" v="locality" />
		<tag k="ssr:stedsnr" v="50751" />
	</node>
	<node lat="66.4980805552439" lon="12.090722211851615" id="-17784">
		<tag k="name" v="Kamshågen" />
		<tag k="natural" v="hill" />
		<tag k="place" v="locality" />
		<tag k="ssr:stedsnr" v="111162" />
	</node>
	<node lat="66.5005583323309" lon="12.098519434444654" id="-17845">
		<tag k="name" v="Burshågen" />
		<tag k="natural" v="hill" />
		<tag k="place" v="locality" />
		<tag k="ssr:stedsnr" v="353198" />
	</node>
	<node lat="66.50640833472538" lon="12.017033324166665" id="-17847">
		<tag k="name" v="Hornskorra" />
		<tag k="place" v="locality" />
		<tag k="ssr:stedsnr" v="353786" />
	</node>
	<node lat="66.54073333465335" lon="12.2309888886012" id="-17863">
		<tag k="name" v="Drengen" />
		<tag k="natural" v="hill" />
		<tag k="place" v="locality" />
		<tag k="ssr:stedsnr" v="414765" />
	</node>
	<node lat="66.50455555194495" lon="12.03840554423062" id="-17864">
		<tag k="name" v="Øksendalsfjellet" />
		<tag k="natural" v="cliff" />
		<tag k="ssr:stedsnr" v="414775" />
	</node>
	<node lat="66.50198055961795" lon="12.094538889670272" id="-17888">
		<tag k="name" v="Kubbhågen" />
		<tag k="natural" v="hill" />
		<tag k="old_name" v="Klubbhågen" />
		<tag k="place" v="locality" />
		<tag k="ssr:stedsnr" v="535169" />
	</node>
	<node lat="66.55317221810587" lon="12.250802783526307" id="-17891">
		<tag k="fixme" v="consider natural=peak for the most distinct mountains in the district" />
		<tag k="name" v="Ørkjetinden" />
		<tag k="natural" v="hill" />
		<tag k="place" v="locality" />
		<tag k="ssr:stedsnr" v="535762" />
	</node>
	<node lat="66.5422861094315" lon="12.251091672709537" id="-17944">
		<tag k="name" v="Hammaren" />
		<tag k="natural" v="hill" />
		<tag k="place" v="locality" />
		<tag k="ssr:stedsnr" v="717801" />
	</node>
	<node lat="66.50289722224967" lon="12.017563884861096" id="-17958">
		<tag k="name" v="Sauhågen" />
		<tag k="natural" v="ridge" />
		<tag k="place" v="locality" />
		<tag k="ssr:stedsnr" v="778780" />
	</node>
	<node lat="66.50392222387234" lon="12.013111104639812" id="-17982">
		<tag k="name" v="Skarvberget" />
		<tag k="natural" v="ridge" />
		<tag k="place" v="locality" />
		<tag k="ssr:stedsnr" v="839174" />
	</node>
	<node lat="66.50711110862589" lon="12.037408331275723" id="-17983">
		<tag k="fixme" v="consider natural=peak for the most distinct mountains in the district" />
		<tag k="name" v="Øksendalshågen" />
		<tag k="natural" v="hill" />
		<tag k="place" v="locality" />
		<tag k="ssr:stedsnr" v="839782" />
	</node>
	<node lat="66.50491944262058" lon="12.005149997854515" id="-18011">
		<tag k="name" v="Raudbergslåga" />
		<tag k="natural" v="valley" />
		<tag k="place" v="locality" />
		<tag k="ssr:stedsnr" v="960163" />
	</node>
</osm>
