<?xml version="1.0" encoding="UTF-8"?>
<osm generator="osmapis" version="0.6">
	<node id="-151058" lat="66.5484611142" lon="12.2666305472">
		<tag k="name" v="Sør-Bærholmen" />
		<tag k="place" v="islet" />
		<tag k="ssr:stedsnr" v="960751" />
	</node>
	<node id="-151056" lat="66.5943222201" lon="12.228713889">
		<tag k="fixme" v="consider seamark:type=rock or natural=shoal" />
		<tag k="name" v="Lyngøyskjæret" />
		<tag k="place" v="islet" />
		<tag k="ssr:stedsnr" v="959769" />
	</node>
	<node id="-151055" lat="66.5024027743" lon="12.0588666678">
		<tag k="name" v="Hellarvikja" />
		<tag k="natural" v="bay" />
		<tag k="ssr:stedsnr" v="960169" />
	</node>
	<node id="-151053" lat="66.5008638889" lon="12.0317500082">
		<tag k="name" v="Storhaga" />
		<tag k="natural" v="bay" />
		<tag k="ssr:stedsnr" v="960160" />
	</node>
	<node id="-151052" lat="66.5477305561" lon="12.2713027752">
		<tag k="name" v="Langskjæret" />
		<tag k="place" v="islet" />
		<tag k="ssr:stedsnr" v="866835" />
	</node>
	<node id="-151051" lat="66.6664999987" lon="12.2429333397">
		<tag k="name" v="Skåkbåen" />
		<tag k="natural" v="shoal" />
		<tag k="place" v="locality" />
		<tag k="ssr:stedsnr" v="866716" />
	</node>
	<node id="-151050" lat="66.5084694452" lon="11.9481583408">
		<tag k="name" v="Katten" />
		<tag k="natural" v="shoal" />
		<tag k="place" v="locality" />
		<tag k="ssr:stedsnr" v="866679" />
	</node>
	<node id="-151049" lat="66.5114222208" lon="12.0956638863">
		<tag k="name" v="Buholman" />
		<tag k="place" v="islet" />
		<tag k="ssr:stedsnr" v="866655" />
	</node>
	<node id="-151048" lat="66.5173138933" lon="12.3197388907">
		<tag k="name" v="Jekthaugskallen" />
		<tag k="natural" v="shoal" />
		<tag k="place" v="locality" />
		<tag k="ssr:stedsnr" v="865828" />
	</node>
	<node id="-151047" lat="66.5290083313" lon="12.0026805487">
		<tag k="name" v="Brimholmen" />
		<tag k="place" v="islet" />
		<tag k="ssr:stedsnr" v="865685" />
	</node>
	<node id="-151046" lat="66.5807444464" lon="12.2128416588">
		<tag k="name" v="Ytterlamholmen" />
		<tag k="place" v="islet" />
		<tag k="ssr:stedsnr" v="865684" />
	</node>
	<node id="-151045" lat="66.5694861154" lon="12.1374055622">
		<tag k="name" v="Innerrossøya" />
		<tag k="place" v="islet" />
		<tag k="ssr:stedsnr" v="865668" />
	</node>
	<node id="-151044" lat="66.5540666682" lon="12.0641722127">
		<tag k="name" v="Storkangvad" />
		<tag k="place" v="islet" />
		<tag k="ssr:stedsnr" v="865666" />
	</node>
	<node id="-151043" lat="66.6119805571" lon="12.1232805462">
		<tag k="fixme" v="consider seamark:type=rock or natural=shoal" />
		<tag k="name" v="Vesternipskjæret" />
		<tag k="place" v="islet" />
		<tag k="ssr:stedsnr" v="865661" />
	</node>
	<node id="-151042" lat="66.6575361121" lon="12.2043555552">
		<tag k="name" v="Hårgrunnen" />
		<tag k="natural" v="shoal" />
		<tag k="place" v="locality" />
		<tag k="ssr:stedsnr" v="865640" />
	</node>
	<node id="-151041" lat="66.4811861094" lon="12.0627944413">
		<tag k="name" v="Surnøykalven" />
		<tag k="place" v="islet" />
		<tag k="ssr:stedsnr" v="865277" />
	</node>
	<node id="-151040" lat="66.4820305525" lon="11.9762444519">
		<tag k="name" v="Haugøya" />
		<tag k="place" v="islet" />
		<tag k="ssr:stedsnr" v="865271" />
	</node>
	<node id="-151039" lat="66.4898944449" lon="12.0154055667">
		<tag k="fixme" v="multiple name tags, choose one and add the other to alt_name" />
		<tag k="name" v="Djupsagnskjæret;Juksongskjæret" />
		<tag k="place" v="islet" />
		<tag k="ssr:stedsnr" v="865269" />
	</node>
	<node id="-151038" lat="66.4810805557" lon="12.0465222167">
		<tag k="name" v="Hiøya" />
		<tag k="place" v="islet" />
		<tag k="ssr:stedsnr" v="865265" />
	</node>
	<node id="-151037" lat="66.5025694399" lon="11.9805916736">
		<tag k="name" v="Svartskjærkåsa" />
		<tag k="place" v="locality" />
		<tag k="ssr:stedsnr" v="865261" />
	</node>
	<node id="-151036" lat="66.5056500009" lon="12.0469305589">
		<tag k="name" v="Sanna" />
		<tag k="place" v="island" />
		<tag k="ssr:stedsnr" v="865254" />
	</node>
	<node id="-151035" lat="66.4907277757" lon="12.3354027831">
		<tag k="fixme" v="consider seamark:type=rock or natural=shoal" />
		<tag k="name" v="Mellomskjæret" />
		<tag k="place" v="islet" />
		<tag k="ssr:stedsnr" v="865249" />
	</node>
	<node id="-151034" lat="66.5074888901" lon="12.0551444504">
		<tag k="name" v="Heimersand" />
		<tag k="natural" v="beach" />
		<tag k="place" v="locality" />
		<tag k="ssr:stedsnr" v="839783" />
	</node>
	<node id="-151032" lat="66.4921750041" lon="12.0680111161">
		<tag k="alt_name" v="Heirsand" />
		<tag k="name" v="Heirsanden" />
		<tag k="natural" v="bay" />
		<tag k="ssr:stedsnr" v="839177" />
	</node>
	<node id="-151030" lat="66.496705552" lon="12.0348027764">
		<tag k="name" v="Ildvikja" />
		<tag k="natural" v="bay" />
		<tag k="ssr:stedsnr" v="839173" />
	</node>
	<node id="-151029" lat="66.5864000043" lon="12.2237777757">
		<tag k="name" v="Nord-Sommarauken" />
		<tag k="place" v="island" />
		<tag k="ssr:stedsnr" v="838808" />
	</node>
	<node id="-151028" lat="66.5942583344" lon="12.2254027831">
		<tag k="fixme" v="consider seamark:type=rock or natural=shoal" />
		<tag k="name" v="Per-Nilsa-skjæran" />
		<tag k="place" v="islet" />
		<tag k="ssr:stedsnr" v="838806" />
	</node>
	<node id="-151027" lat="66.5962083334" lon="12.2315944541">
		<tag k="name" v="Varøykila" />
		<tag k="natural" v="bay" />
		<tag k="ssr:stedsnr" v="838780" />
	</node>
	<node id="-151026" lat="66.5976416651" lon="12.220855562">
		<tag k="fixme" v="consider seamark:type=rock or natural=shoal" />
		<tag k="name" v="Indremerra" />
		<tag k="place" v="islet" />
		<tag k="ssr:stedsnr" v="821343" />
	</node>
	<node id="-151024" lat="66.5825138933" lon="12.2305777682">
		<tag k="name" v="Olderøya" />
		<tag k="place" v="islet" />
		<tag k="ssr:stedsnr" v="805792" />
	</node>
	<node id="-151023" lat="66.5797194443" lon="12.2242833444">
		<tag k="name" v="Buøya" />
		<tag k="place" v="islet" />
		<tag k="ssr:stedsnr" v="805791" />
	</node>
	<node id="-151022" lat="66.5480777811" lon="12.2296444367">
		<tag k="name" v="Hellholmen" />
		<tag k="place" v="islet" />
		<tag k="ssr:stedsnr" v="805787" />
	</node>
	<node id="-151021" lat="66.5624999997" lon="12.2815194418">
		<tag k="name" v="Grasholmen" />
		<tag k="place" v="islet" />
		<tag k="ssr:stedsnr" v="805770" />
	</node>
	<node id="-151020" lat="66.6354027775" lon="12.279919446">
		<tag k="fixme" v="consider seamark:type=rock or natural=shoal" />
		<tag k="name" v="Buran" />
		<tag k="place" v="islet" />
		<tag k="ssr:stedsnr" v="805731" />
	</node>
	<node id="-151019" lat="66.625097218" lon="12.2525194512">
		<tag k="fixme" v="consider seamark:type=rock or natural=shoal" />
		<tag k="name" v="Ytterleiskjæret" />
		<tag k="place" v="islet" />
		<tag k="ssr:stedsnr" v="805727" />
	</node>
	<node id="-151017" lat="66.5176499983" lon="12.0307333255">
		<tag k="name" v="Stavfjellbåen" />
		<tag k="natural" v="shoal" />
		<tag k="place" v="locality" />
		<tag k="ssr:stedsnr" v="805671" />
	</node>
	<node id="-151015" lat="66.5219527782" lon="12.142438895">
		<tag k="alt_name" v="Æmorsøya;Emårsøya" />
		<tag k="name" v="Emårsøyen" />
		<tag k="place" v="islet" />
		<tag k="ssr:stedsnr" v="805658" />
	</node>
	<node id="-151014" lat="66.5424194475" lon="12.2102916575">
		<tag k="name" v="Vågsholmtaren" />
		<tag k="natural" v="shoal" />
		<tag k="place" v="locality" />
		<tag k="ssr:stedsnr" v="805657" />
	</node>
	<node id="-151013" lat="66.6678138866" lon="12.2116888845">
		<tag k="fixme" v="consider seamark:type=rock or natural=shoal" />
		<tag k="name" v="Storhongskjæret" />
		<tag k="place" v="islet" />
		<tag k="ssr:stedsnr" v="804647" />
	</node>
	<node id="-151012" lat="66.6399555519" lon="12.2085749958">
		<tag k="fixme" v="consider seamark:type=rock or natural=shoal" />
		<tag k="name" v="Trælskjæret" />
		<tag k="place" v="islet" />
		<tag k="ssr:stedsnr" v="804643" />
	</node>
	<node id="-151011" lat="66.4948666669" lon="12.1219500012">
		<tag k="fixme" v="consider seamark:type=rock or natural=shoal" />
		<tag k="name" v="Langskjæret" />
		<tag k="place" v="islet" />
		<tag k="ssr:stedsnr" v="804267" />
	</node>
	<node id="-151009" lat="66.5036555526" lon="12.0158861062">
		<tag k="name" v="Trongvika" />
		<tag k="natural" v="bay" />
		<tag k="ssr:stedsnr" v="778783" />
	</node>
	<node id="-151007" lat="66.5413916666" lon="12.1560222135">
		<tag k="name" v="Langskjæret" />
		<tag k="place" v="islet" />
		<tag k="ssr:stedsnr" v="778764" />
	</node>
	<node id="-151006" lat="66.4885777761" lon="12.0678861036">
		<tag k="name" v="Storneset" />
		<tag k="natural" v="cape" />
		<tag k="ssr:stedsnr" v="778180" />
	</node>
	<node id="-151005" lat="66.5844666703" lon="12.232827786">
		<tag k="name" v="Fjæraholmen" />
		<tag k="natural" v="cape" />
		<tag k="ssr:stedsnr" v="777760" />
	</node>
	<node id="-151004" lat="66.6008027792" lon="12.2012722141">
		<tag k="fixme" v="consider seamark:type=rock or natural=shoal" />
		<tag k="name" v="Reinsøyskjæran" />
		<tag k="place" v="islet" />
		<tag k="ssr:stedsnr" v="777745" />
	</node>
	<node id="-151003" lat="66.6012499993" lon="12.2616888922">
		<tag k="name" v="Sendingsflua" />
		<tag k="natural" v="shoal" />
		<tag k="place" v="locality" />
		<tag k="ssr:stedsnr" v="760348" />
	</node>
	<node id="-151002" lat="66.6280861099" lon="12.2041250023">
		<tag k="name" v="Måøysteinen" />
		<tag k="place" v="islet" />
		<tag k="ssr:stedsnr" v="743648" />
	</node>
	<node id="-151001" lat="66.464655553" lon="11.9517527833">
		<tag k="name" v="Storfroa" />
		<tag k="place" v="island" />
		<tag k="ssr:stedsnr" v="743280" />
	</node>
	<node id="-151000" lat="66.4721777781" lon="12.095402778">
		<tag k="name" v="Surnøybåen" />
		<tag k="natural" v="shoal" />
		<tag k="place" v="locality" />
		<tag k="ssr:stedsnr" v="743276" />
	</node>
	<node id="-150998" lat="66.4938722204" lon="11.9973333327">
		<tag k="alt_name" v="Flatskyrsholmen" />
		<tag k="name" v="Flatsjyrsholmen" />
		<tag k="place" v="islet" />
		<tag k="ssr:stedsnr" v="743249" />
	</node>
	<node id="-150997" lat="66.4921277762" lon="12.0048972253">
		<tag k="name" v="Skyrsholmen" />
		<tag k="place" v="islet" />
		<tag k="ssr:stedsnr" v="743247" />
	</node>
	<node id="-150996" lat="66.6245027757" lon="12.1839805542">
		<tag k="name" v="Måøyknausen" />
		<tag k="place" v="islet" />
		<tag k="ssr:stedsnr" v="638921" />
	</node>
	<node id="-150995" lat="66.4450777772" lon="12.0270916761">
		<tag k="name" v="Brørne" />
		<tag k="natural" v="shoal" />
		<tag k="place" v="locality" />
		<tag k="ssr:stedsnr" v="637970" />
	</node>
	<node id="-150994" lat="66.4911416634" lon="12.4215194488">
		<tag k="name" v="Ytteråsbrakrevet" />
		<tag k="natural" v="shoal" />
		<tag k="place" v="locality" />
		<tag k="ssr:stedsnr" v="637498" />
	</node>
	<node id="-150992" lat="66.5387055541" lon="12.2726583268">
		<tag k="name" v="Ternskjærkallen" />
		<tag k="natural" v="shoal" />
		<tag k="place" v="locality" />
		<tag k="ssr:stedsnr" v="623867" />
	</node>
	<node id="-150991" lat="66.5450305588" lon="12.2477944515">
		<tag k="name" v="Geitøya" />
		<tag k="place" v="islet" />
		<tag k="ssr:stedsnr" v="623864" />
	</node>
	<node id="-150990" lat="66.545438885" lon="12.2288916703">
		<tag k="name" v="Brattholmen" />
		<tag k="place" v="islet" />
		<tag k="ssr:stedsnr" v="623851" />
	</node>
	<node id="-150989" lat="66.53896389" lon="12.24981944">
		<tag k="name" v="Dørværøya" />
		<tag k="place" v="island" />
		<tag k="ssr:stedsnr" v="622800" />
	</node>
	<node id="-150988" lat="66.5282250004" lon="12.2241138957">
		<tag k="name" v="Skarvbåen" />
		<tag k="natural" v="shoal" />
		<tag k="place" v="locality" />
		<tag k="ssr:stedsnr" v="622795" />
	</node>
	<node id="-150987" lat="66.5808333298" lon="12.3077138841">
		<tag k="name" v="Skallen" />
		<tag k="natural" v="shoal" />
		<tag k="place" v="locality" />
		<tag k="ssr:stedsnr" v="622780" />
	</node>
	<node id="-150986" lat="66.5632999962" lon="12.2869499968">
		<tag k="name" v="Steinsholmen" />
		<tag k="place" v="islet" />
		<tag k="ssr:stedsnr" v="622767" />
	</node>
	<node id="-150984" lat="66.5904944429" lon="12.2463527666">
		<tag k="name" v="Selvær" />
		<tag k="place" v="island" />
		<tag k="ssr:stedsnr" v="622748" />
	</node>
	<node id="-150983" lat="66.5268861143" lon="12.0001055607">
		<tag k="name" v="Brimholmbåen" />
		<tag k="natural" v="shoal" />
		<tag k="place" v="locality" />
		<tag k="ssr:stedsnr" v="622679" />
	</node>
	<node id="-150982" lat="66.5272333312" lon="12.13315278">
		<tag k="fixme" v="consider seamark:type=rock or natural=shoal" />
		<tag k="name" v="Tverrskjæran" />
		<tag k="place" v="islet" />
		<tag k="ssr:stedsnr" v="622671" />
	</node>
	<node id="-150981" lat="66.5345416688" lon="12.0278361217">
		<tag k="fixme" v="consider seamark:type=rock or natural=shoal" />
		<tag k="name" v="Kvalhausen" />
		<tag k="place" v="islet" />
		<tag k="ssr:stedsnr" v="622657" />
	</node>
	<node id="-150980" lat="66.577394446" lon="12.0541361113">
		<tag k="name" v="Måsflesa" />
		<tag k="place" v="islet" />
		<tag k="ssr:stedsnr" v="622651" />
	</node>
	<node id="-150979" lat="66.5820083352" lon="12.1869972235">
		<tag k="name" v="Omundsholmen" />
		<tag k="place" v="islet" />
		<tag k="ssr:stedsnr" v="622648" />
	</node>
	<node id="-150978" lat="66.5607111078" lon="12.0143388828">
		<tag k="name" v="Per Jensa-skallen" />
		<tag k="natural" v="shoal" />
		<tag k="place" v="locality" />
		<tag k="ssr:stedsnr" v="622636" />
	</node>
	<node id="-150976" lat="66.5924638869" lon="12.0336611192">
		<tag k="name" v="Froholman" />
		<tag k="place" v="islet" />
		<tag k="ssr:stedsnr" v="622617" />
	</node>
	<node id="-150975" lat="66.6082972194" lon="12.1471722325">
		<tag k="fixme" v="consider seamark:type=rock or natural=shoal" />
		<tag k="name" v="Sørnipskjæret" />
		<tag k="place" v="islet" />
		<tag k="ssr:stedsnr" v="621674" />
	</node>
	<node id="-150974" lat="66.4688805562" lon="12.040066663">
		<tag k="name" v="Olsdrettan" />
		<tag k="place" v="islet" />
		<tag k="ssr:stedsnr" v="621252" />
	</node>
	<node id="-150973" lat="66.4796611111" lon="12.0301638904">
		<tag k="fixme" v="consider seamark:type=rock or natural=shoal" />
		<tag k="name" v="Sørkvaløyskjæret" />
		<tag k="place" v="islet" />
		<tag k="ssr:stedsnr" v="621244" />
	</node>
	<node id="-150972" lat="66.4474138893" lon="11.9742194482">
		<tag k="name" v="Brakvadskiten" />
		<tag k="natural" v="shoal" />
		<tag k="place" v="locality" />
		<tag k="ssr:stedsnr" v="621194" />
	</node>
	<node id="-150971" lat="66.5031583321" lon="12.0212583404">
		<tag k="name" v="Laukvågen" />
		<tag k="natural" v="bay" />
		<tag k="ssr:stedsnr" v="596779" />
	</node>
	<node id="-150970" lat="66.5488222223" lon="12.2638027699">
		<tag k="name" v="Buholmen" />
		<tag k="place" v="islet" />
		<tag k="ssr:stedsnr" v="596763" />
	</node>
	<node id="-150969" lat="66.546575004" lon="12.2356194389">
		<tag k="name" v="Rognholmen" />
		<tag k="place" v="islet" />
		<tag k="ssr:stedsnr" v="596758" />
	</node>
	<node id="-150968" lat="66.5528694424" lon="12.2643222239">
		<tag k="name" v="Austervika" />
		<tag k="natural" v="bay" />
		<tag k="ssr:stedsnr" v="596752" />
	</node>
	<node id="-150967" lat="66.4970694428" lon="12.0726833285">
		<tag k="name" v="Husøyvågen" />
		<tag k="natural" v="bay" />
		<tag k="ssr:stedsnr" v="596164" />
	</node>
	<node id="-150966" lat="66.4975222181" lon="12.0918027806">
		<tag k="name" v="Kvernnesvågen" />
		<tag k="natural" v="bay" />
		<tag k="ssr:stedsnr" v="596161" />
	</node>
	<node id="-150965" lat="66.488747225" lon="12.0810833417">
		<tag k="name" v="Kobbholmen" />
		<tag k="place" v="islet" />
		<tag k="ssr:stedsnr" v="596158" />
	</node>
	<node id="-150964" lat="66.5960166654" lon="12.2384583277">
		<tag k="name" v="Bergholmen" />
		<tag k="place" v="islet" />
		<tag k="ssr:stedsnr" v="595757" />
	</node>
	<node id="-150963" lat="66.5820083371" lon="12.2341888888">
		<tag k="fixme" v="consider seamark:type=rock or natural=shoal" />
		<tag k="name" v="Daumannskjæret" />
		<tag k="place" v="islet" />
		<tag k="ssr:stedsnr" v="595750" />
	</node>
	<node id="-150962" lat="66.6015472201" lon="12.2478500097">
		<tag k="name" v="Vester-Senningskjæret" />
		<tag k="natural" v="bay" />
		<tag k="ssr:stedsnr" v="595738" />
	</node>
	<node id="-150961" lat="66.5033333307" lon="12.1083333274">
		<tag k="name" v="Bursholmen" />
		<tag k="place" v="islet" />
		<tag k="ssr:stedsnr" v="566558" />
	</node>
	<node id="-150960" lat="66.5985527779" lon="12.2817777867">
		<tag k="fixme" v="consider seamark:type=rock or natural=shoal" />
		<tag k="name" v="Kvitingsskjæran" />
		<tag k="place" v="islet" />
		<tag k="ssr:stedsnr" v="562729" />
	</node>
	<node id="-150959" lat="66.6397611126" lon="12.293008326">
		<tag k="name" v="Nordbursbåen" />
		<tag k="natural" v="shoal" />
		<tag k="place" v="locality" />
		<tag k="ssr:stedsnr" v="562722" />
	</node>
	<node id="-150958" lat="66.6514194469" lon="12.2852333241">
		<tag k="name" v="Kobbholman" />
		<tag k="place" v="islet" />
		<tag k="ssr:stedsnr" v="562703" />
	</node>
	<node id="-150956" lat="66.6200805568" lon="12.1663111211">
		<tag k="fixme" v="consider seamark:type=rock or natural=shoal" />
		<tag k="name" v="Seiholmskjæran" />
		<tag k="place" v="islet" />
		<tag k="ssr:stedsnr" v="561644" />
	</node>
	<node id="-150955" lat="66.6591611075" lon="12.2770916686">
		<tag k="name" v="Storskarvholmen" />
		<tag k="place" v="islet" />
		<tag k="ssr:stedsnr" v="561739" />
	</node>
	<node id="-150954" lat="66.5280527758" lon="12.1092722279">
		<tag k="fixme" v="consider seamark:type=rock or natural=shoal" />
		<tag k="name" v="Eskjæret" />
		<tag k="place" v="islet" />
		<tag k="ssr:stedsnr" v="561701" />
	</node>
	<node id="-150953" lat="66.5219083358" lon="12.0026138792">
		<tag k="name" v="Tverrbåen" />
		<tag k="natural" v="shoal" />
		<tag k="place" v="locality" />
		<tag k="ssr:stedsnr" v="561698" />
	</node>
	<node id="-150952" lat="66.5239111097" lon="12.1607833372">
		<tag k="name" v="Nordsandøya" />
		<tag k="place" v="island" />
		<tag k="ssr:stedsnr" v="561685" />
	</node>
	<node id="-150951" lat="66.4909416713" lon="12.0967027715">
		<tag k="name" v="Innerhakksholmen" />
		<tag k="place" v="islet" />
		<tag k="ssr:stedsnr" v="561251" />
	</node>
	<node id="-150950" lat="66.4878222229" lon="12.0220611101">
		<tag k="name" v="Spanna" />
		<tag k="place" v="islet" />
		<tag k="ssr:stedsnr" v="561234" />
	</node>
	<node id="-150949" lat="66.4857083309" lon="12.3671805475">
		<tag k="name" v="Litltaren" />
		<tag k="natural" v="shoal" />
		<tag k="place" v="locality" />
		<tag k="ssr:stedsnr" v="561221" />
	</node>
	<node id="-150948" lat="66.4937083302" lon="12.3128611095">
		<tag k="name" v="Vesterfallet" />
		<tag k="natural" v="shoal" />
		<tag k="place" v="locality" />
		<tag k="ssr:stedsnr" v="561209" />
	</node>
	<node id="-150947" lat="66.4332027812" lon="11.9637361075">
		<tag k="name" v="Merra" />
		<tag k="place" v="islet" />
		<tag k="ssr:stedsnr" v="561190" />
	</node>
	<node id="-150946" lat="66.4992111128" lon="12.0315805591">
		<tag k="name" v="Storhaugklubben" />
		<tag k="natural" v="cape" />
		<tag k="ssr:stedsnr" v="535174" />
	</node>
	<node id="-150944" lat="66.4954083356" lon="12.085833339">
		<tag k="name" v="Fløttingsundet" />
		<tag k="natural" v="strait" />
		<tag k="ssr:stedsnr" v="535164" />
	</node>
	<node id="-150942" lat="66.5916416683" lon="12.2200722158">
		<tag k="fixme" v="consider seamark:type=rock or natural=shoal" />
		<tag k="name" v="Galtmonskjæret" />
		<tag k="place" v="islet" />
		<tag k="ssr:stedsnr" v="534785" />
	</node>
	<node id="-150941" lat="66.5936111118" lon="12.2322611017">
		<tag k="name" v="Yttereinholmen" />
		<tag k="place" v="islet" />
		<tag k="ssr:stedsnr" v="534781" />
	</node>
	<node id="-150939" lat="66.4772277796" lon="12.00132778">
		<tag k="name" v="Litlselsholmen" />
		<tag k="place" v="islet" />
		<tag k="ssr:stedsnr" v="530547" />
	</node>
	<node id="-150938" lat="66.5987861094" lon="12.0762888849">
		<tag k="name" v="Seiholman" />
		<tag k="place" v="islet" />
		<tag k="ssr:stedsnr" v="530330" />
	</node>
	<node id="-150935" lat="66.5421944446" lon="12.249361106">
		<tag k="name" v="Nordvika" />
		<tag k="natural" v="bay" />
		<tag k="ssr:stedsnr" v="414763" />
	</node>
	<node id="-150934" lat="66.500111115" lon="12.0380333292">
		<tag k="name" v="Sørsanna" />
		<tag k="place" v="island" />
		<tag k="ssr:stedsnr" v="414191" />
	</node>
	<node id="-150933" lat="66.4967000001" lon="12.1122833342">
		<tag k="name" v="Lilt-Torvøya" />
		<tag k="place" v="islet" />
		<tag k="ssr:stedsnr" v="414162" />
	</node>
	<node id="-150932" lat="66.5806527802" lon="12.2181499982">
		<tag k="name" v="Innerlamholmen" />
		<tag k="place" v="islet" />
		<tag k="ssr:stedsnr" v="413779" />
	</node>
	<node id="-150930" lat="66.583388887" lon="12.2229083278">
		<tag k="name" v="Stongodden" />
		<tag k="natural" v="cape" />
		<tag k="ssr:stedsnr" v="413775" />
	</node>
	<node id="-150929" lat="66.4900416658" lon="12.0547833267">
		<tag k="name" v="Reinsøygalten" />
		<tag k="natural" v="shoal" />
		<tag k="place" v="locality" />
		<tag k="ssr:stedsnr" v="395854" />
	</node>
	<node id="-150928" lat="66.5541388917" lon="12.2389444492">
		<tag k="fixme" v="consider seamark:type=rock or natural=shoal" />
		<tag k="name" v="Ørkjekalven" />
		<tag k="place" v="islet" />
		<tag k="ssr:stedsnr" v="395273" />
	</node>
	<node id="-150926" lat="66.4949999991" lon="12.0883333231">
		<tag k="name" v="Fløttingen" />
		<tag k="place" v="islet" />
		<tag k="ssr:stedsnr" v="384545" />
	</node>
	<node id="-150925" lat="66.5537722237" lon="12.2930222159">
		<tag k="name" v="Storkverna" />
		<tag k="place" v="islet" />
		<tag k="ssr:stedsnr" v="380838" />
	</node>
	<node id="-150924" lat="66.5588055583" lon="12.2762638876">
		<tag k="fixme" v="consider seamark:type=rock or natural=shoal" />
		<tag k="name" v="Stikkveskjæran" />
		<tag k="place" v="islet" />
		<tag k="ssr:stedsnr" v="380797" />
	</node>
	<node id="-150923" lat="66.5939305594" lon="12.2471527828">
		<tag k="name" v="Årøya" />
		<tag k="place" v="islet" />
		<tag k="ssr:stedsnr" v="380766" />
	</node>
	<node id="-150922" lat="66.5111638866" lon="12.1113361197">
		<tag k="fixme" v="consider seamark:type=rock or natural=shoal" />
		<tag k="name" v="Ørna" />
		<tag k="place" v="islet" />
		<tag k="ssr:stedsnr" v="380733" />
	</node>
	<node id="-150921" lat="66.5386277795" lon="12.1311444427">
		<tag k="name" v="Omnholmen" />
		<tag k="place" v="islet" />
		<tag k="ssr:stedsnr" v="380697" />
	</node>
	<node id="-150920" lat="66.5366527809" lon="12.0749444419">
		<tag k="fixme" v="consider seamark:type=rock or natural=shoal" />
		<tag k="name" v="Kyllingskjæret" />
		<tag k="place" v="islet" />
		<tag k="ssr:stedsnr" v="380692" />
	</node>
	<node id="-150918" lat="66.4687222254" lon="11.967997228">
		<tag k="name" v="Rakflesa" />
		<tag k="natural" v="shoal" />
		<tag k="place" v="locality" />
		<tag k="ssr:stedsnr" v="379246" />
	</node>
	<node id="-150917" lat="66.4887194465" lon="12.1133749984">
		<tag k="name" v="Skarvøya" />
		<tag k="place" v="island" />
		<tag k="ssr:stedsnr" v="379241" />
	</node>
	<node id="-150916" lat="66.4869500003" lon="11.9486055455">
		<tag k="name" v="Flåtaren" />
		<tag k="natural" v="shoal" />
		<tag k="place" v="locality" />
		<tag k="ssr:stedsnr" v="379231" />
	</node>
	<node id="-150915" lat="66.4951833296" lon="12.0556138849">
		<tag k="name" v="Reinsøya" />
		<tag k="place" v="island" />
		<tag k="ssr:stedsnr" v="379220" />
	</node>
	<node id="-150914" lat="66.5349055575" lon="12.2424916604">
		<tag k="name" v="Øyneset" />
		<tag k="natural" v="cape" />
		<tag k="ssr:stedsnr" v="353791" />
	</node>
	<node id="-150912" lat="66.5037861078" lon="12.0616111016">
		<tag k="name" v="Merrahella" />
		<tag k="natural" v="shoal" />
		<tag k="place" v="locality" />
		<tag k="ssr:stedsnr" v="353783" />
	</node>
	<node id="-150910" lat="66.4921638904" lon="12.0143527786">
		<tag k="fixme" v="consider seamark:type=rock or natural=shoal" />
		<tag k="name" v="Røsnesskjæran" />
		<tag k="place" v="islet" />
		<tag k="ssr:stedsnr" v="353217" />
	</node>
	<node id="-150908" lat="66.5041666672" lon="12.1038166623">
		<tag k="name" v="Galtneset" />
		<tag k="natural" v="cape" />
		<tag k="ssr:stedsnr" v="353203" />
	</node>
	<node id="-150906" lat="66.5868666706" lon="12.2282472293">
		<tag k="name" v="Selværsundet" />
		<tag k="natural" v="strait" />
		<tag k="ssr:stedsnr" v="352764" />
	</node>
	<node id="-150905" lat="66.5950722242" lon="12.2434805582">
		<tag k="name" v="Årøyvalen" />
		<tag k="natural" v="strait" />
		<tag k="ssr:stedsnr" v="352756" />
	</node>
	<node id="-150904" lat="66.5818555551" lon="12.2314222275">
		<tag k="fixme" v="consider seamark:type=rock or natural=shoal" />
		<tag k="name" v="Kvilskjæret" />
		<tag k="place" v="islet" />
		<tag k="ssr:stedsnr" v="352751" />
	</node>
	<node id="-150903" lat="66.5860805593" lon="12.2341166568">
		<tag k="name" v="Osen" />
		<tag k="natural" v="bay" />
		<tag k="ssr:stedsnr" v="352748" />
	</node>
	<node id="-150902" lat="66.4866222259" lon="12.0477166781">
		<tag k="fixme" v="consider seamark:type=rock or natural=shoal" />
		<tag k="name" v="Nordkvaløyskjæret" />
		<tag k="place" v="islet" />
		<tag k="ssr:stedsnr" v="350695" />
	</node>
	<node id="-150901" lat="66.4958416649" lon="12.0909027709">
		<tag k="name" v="Kvernneset" />
		<tag k="place" v="islet" />
		<tag k="ssr:stedsnr" v="323570" />
	</node>
	<node id="-150900" lat="66.5457833354" lon="12.2827638967">
		<tag k="fixme" v="multiple name tags, choose one and add the other to alt_name; consider seamark:type=rock or natural=shoal" />
		<tag k="name" v="Bonden;Bondskjæret" />
		<tag k="place" v="islet" />
		<tag k="ssr:stedsnr" v="320855" />
	</node>
	<node id="-150899" lat="66.545033334" lon="12.2582111065">
		<tag k="name" v="Torvøya" />
		<tag k="place" v="island" />
		<tag k="ssr:stedsnr" v="320853" />
	</node>
	<node id="-150898" lat="66.5493249959" lon="12.2501027753">
		<tag k="name" v="Dørvær" />
		<tag k="place" v="island" />
		<tag k="ssr:stedsnr" v="320843" />
	</node>
	<node id="-150897" lat="66.6014638887" lon="12.2719861133">
		<tag k="fixme" v="consider seamark:type=rock or natural=shoal" />
		<tag k="name" v="Kvitingan" />
		<tag k="place" v="islet" />
		<tag k="ssr:stedsnr" v="319747" />
	</node>
	<node id="-150896" lat="66.6369249971" lon="12.2650527746">
		<tag k="name" v="Bursfluan" />
		<tag k="natural" v="shoal" />
		<tag k="place" v="locality" />
		<tag k="ssr:stedsnr" v="319746" />
	</node>
	<node id="-150895" lat="66.6121972208" lon="12.288894433">
		<tag k="fixme" v="consider seamark:type=rock or natural=shoal" />
		<tag k="name" v="Nordre Trollskjæret" />
		<tag k="place" v="islet" />
		<tag k="ssr:stedsnr" v="319735" />
	</node>
	<node id="-150894" lat="66.6587000006" lon="12.2708749946">
		<tag k="fixme" v="consider seamark:type=rock or natural=shoal" />
		<tag k="name" v="Storskarvholmmerra" />
		<tag k="place" v="islet" />
		<tag k="ssr:stedsnr" v="319734" />
	</node>
	<node id="-150892" lat="66.5223527768" lon="11.9708527702">
		<tag k="name" v="Fallet" />
		<tag k="natural" v="shoal" />
		<tag k="place" v="locality" />
		<tag k="ssr:stedsnr" v="319668" />
	</node>
	<node id="-150891" lat="66.5145500027" lon="12.0722083278">
		<tag k="fixme" v="consider seamark:type=rock or natural=shoal" />
		<tag k="name" v="Ausa" />
		<tag k="place" v="islet" />
		<tag k="ssr:stedsnr" v="319661" />
	</node>
	<node id="-150890" lat="66.5439694416" lon="12.1528833356">
		<tag k="name" v="Torvvær" />
		<tag k="place" v="island" />
		<tag k="ssr:stedsnr" v="319650" />
	</node>
	<node id="-150889" lat="66.5372416687" lon="12.1720805632">
		<tag k="name" v="Slettholmen" />
		<tag k="place" v="islet" />
		<tag k="ssr:stedsnr" v="319641" />
	</node>
	<node id="-150888" lat="66.5898277801" lon="12.1900611164">
		<tag k="name" v="Rørholmen" />
		<tag k="place" v="islet" />
		<tag k="ssr:stedsnr" v="319613" />
	</node>
	<node id="-150887" lat="66.5918666687" lon="12.1438694422">
		<tag k="name" v="Vestbrya" />
		<tag k="place" v="islet" />
		<tag k="ssr:stedsnr" v="319610" />
	</node>
	<node id="-150886" lat="66.5982944455" lon="12.1884777695">
		<tag k="name" v="Ytterongelskjærbåen" />
		<tag k="place" v="locality" />
		<tag k="seamark:type" v="rock" />
		<tag k="ssr:stedsnr" v="319609" />
	</node>
	<node id="-150885" lat="66.602036112" lon="12.1372750064">
		<tag k="name" v="Sørnipskjærtaren" />
		<tag k="natural" v="shoal" />
		<tag k="place" v="locality" />
		<tag k="ssr:stedsnr" v="318657" />
	</node>
	<node id="-150884" lat="66.6400611128" lon="12.1998749957">
		<tag k="name" v="Trælskjærbåen" />
		<tag k="natural" v="shoal" />
		<tag k="place" v="locality" />
		<tag k="ssr:stedsnr" v="318634" />
	</node>
	<node id="-150883" lat="66.4889555527" lon="12.1037444469">
		<tag k="name" v="Valløya" />
		<tag k="place" v="island" />
		<tag k="ssr:stedsnr" v="318235" />
	</node>
	<node id="-150882" lat="66.4767888851" lon="11.9966444481">
		<tag k="name" v="Selsholmen" />
		<tag k="place" v="islet" />
		<tag k="ssr:stedsnr" v="318231" />
	</node>
	<node id="-150881" lat="66.4787666638" lon="11.9881749945">
		<tag k="name" v="Skarvholman" />
		<tag k="place" v="islet" />
		<tag k="ssr:stedsnr" v="318229" />
	</node>
	<node id="-150880" lat="66.4982111068" lon="12.1093944483">
		<tag k="name" v="Torvøya" />
		<tag k="place" v="islet" />
		<tag k="ssr:stedsnr" v="318224" />
	</node>
	<node id="-150879" lat="66.6314777795" lon="12.2213333291">
		<tag k="name" v="Stabben" />
		<tag k="place" v="locality" />
		<tag k="seamark:type" v="rock" />
		<tag k="ssr:stedsnr" v="214943" />
	</node>
	<node id="-150878" lat="66.5057444424" lon="12.0027083427">
		<tag k="name" v="Ålvorsneset" />
		<tag k="natural" v="cape" />
		<tag k="ssr:stedsnr" v="213675" />
	</node>
	<node id="-150876" lat="66.5800277791" lon="12.2342222203">
		<tag k="name" v="Sjurøya" />
		<tag k="place" v="islet" />
		<tag k="ssr:stedsnr" v="198793" />
	</node>
	<node id="-150875" lat="66.5547138915" lon="12.2496638842">
		<tag k="name" v="Ørkja" />
		<tag k="place" v="island" />
		<tag k="ssr:stedsnr" v="198789" />
	</node>
	<node id="-150874" lat="66.5392111103" lon="12.1704277839">
		<tag k="name" v="Medholmen" />
		<tag k="place" v="islet" />
		<tag k="ssr:stedsnr" v="198661" />
	</node>
	<node id="-150873" lat="66.5400138865" lon="12.0709277759">
		<tag k="name" v="Raudholmbåen" />
		<tag k="natural" v="shoal" />
		<tag k="place" v="locality" />
		<tag k="ssr:stedsnr" v="198658" />
	</node>
	<node id="-150871" lat="66.5703194462" lon="12.1012750047">
		<tag k="name" v="Klubbåsen" />
		<tag k="place" v="islet" />
		<tag k="ssr:stedsnr" v="198641" />
	</node>
	<node id="-150870" lat="66.5608277762" lon="12.0574027674">
		<tag k="fixme" v="consider seamark:type=rock or natural=shoal" />
		<tag k="name" v="Kangvadskjæran" />
		<tag k="place" v="islet" />
		<tag k="ssr:stedsnr" v="198636" />
	</node>
	<node id="-150869" lat="66.561791667" lon="12.1067138825">
		<tag k="fixme" v="consider seamark:type=rock or natural=shoal" />
		<tag k="name" v="Båsskjæran" />
		<tag k="place" v="islet" />
		<tag k="ssr:stedsnr" v="198635" />
	</node>
	<node id="-150868" lat="66.5921527805" lon="12.1839277889">
		<tag k="fixme" v="consider seamark:type=rock or natural=shoal" />
		<tag k="name" v="Bjørskjæran" />
		<tag k="place" v="islet" />
		<tag k="ssr:stedsnr" v="198626" />
	</node>
	<node id="-150867" lat="66.5881249964" lon="12.03191111">
		<tag k="name" v="Kobbholmen" />
		<tag k="place" v="islet" />
		<tag k="ssr:stedsnr" v="198625" />
	</node>
	<node id="-150866" lat="66.6147194488" lon="12.2154083376">
		<tag k="name" v="Andholmen" />
		<tag k="place" v="islet" />
		<tag k="ssr:stedsnr" v="197670" />
	</node>
	<node id="-150864" lat="66.4593722181" lon="12.0780555522">
		<tag k="name" v="Fjellskallen" />
		<tag k="natural" v="shoal" />
		<tag k="place" v="locality" />
		<tag k="ssr:stedsnr" v="197271" />
	</node>
	<node id="-150862" lat="66.4757555515" lon="11.9513277738">
		<tag k="name" v="Djupbåen" />
		<tag k="natural" v="shoal" />
		<tag k="place" v="locality" />
		<tag k="ssr:stedsnr" v="197265" />
	</node>
	<node id="-150861" lat="66.4917277742" lon="11.9708027709">
		<tag k="name" v="Styrtaren" />
		<tag k="natural" v="shoal" />
		<tag k="place" v="locality" />
		<tag k="ssr:stedsnr" v="197255" />
	</node>
	<node id="-150860" lat="66.4932583371" lon="12.0308944384">
		<tag k="name" v="Røssneset" />
		<tag k="natural" v="cape" />
		<tag k="ssr:stedsnr" v="197254" />
	</node>
	<node id="-150859" lat="66.4984916678" lon="12.0619444461">
		<tag k="name" v="Sandasundet" />
		<tag k="natural" v="strait" />
		<tag k="ssr:stedsnr" v="197251" />
	</node>
	<node id="-150858" lat="66.4137527755" lon="11.9833972124">
		<tag k="name" v="Ol Nilsa-skallen" />
		<tag k="natural" v="shoal" />
		<tag k="place" v="locality" />
		<tag k="ssr:stedsnr" v="197233" />
	</node>
	<node id="-150857" lat="66.5275555563" lon="12.015494446">
		<tag k="name" v="Eskjæran" />
		<tag k="place" v="island" />
		<tag k="ssr:stedsnr" v="171800" />
	</node>
	<node id="-150856" lat="66.5350138846" lon="12.0480499951">
		<tag k="name" v="Inner-Skarvholmen" />
		<tag k="place" v="islet" />
		<tag k="ssr:stedsnr" v="171799" />
	</node>
	<node id="-150855" lat="66.5433861087" lon="12.2208666599">
		<tag k="fixme" v="consider seamark:type=rock or natural=shoal" />
		<tag k="name" v="Buøyskjæret" />
		<tag k="place" v="islet" />
		<tag k="ssr:stedsnr" v="171794" />
	</node>
	<node id="-150854" lat="66.504886115" lon="12.1017166718">
		<tag k="name" v="Ishusvika" />
		<tag k="natural" v="bay" />
		<tag k="ssr:stedsnr" v="171154" />
	</node>
	<node id="-150853" lat="66.6245333307" lon="12.2015611054">
		<tag k="fixme" v="consider seamark:type=rock or natural=shoal" />
		<tag k="name" v="Måøyteisten" />
		<tag k="place" v="islet" />
		<tag k="ssr:stedsnr" v="170768" />
	</node>
	<node id="-150852" lat="66.4987611077" lon="12.1238388858">
		<tag k="name" v="Innerstongholmen" />
		<tag k="place" v="islet" />
		<tag k="ssr:stedsnr" v="168979" />
	</node>
	<node id="-150851" lat="66.5532916642" lon="12.2944694334">
		<tag k="name" v="Litlkverna" />
		<tag k="place" v="islet" />
		<tag k="ssr:stedsnr" v="168948" />
	</node>
	<node id="-150850" lat="66.6304249969" lon="12.2899360998">
		<tag k="name" v="Mellombursbåen" />
		<tag k="natural" v="shoal" />
		<tag k="place" v="locality" />
		<tag k="ssr:stedsnr" v="153903" />
	</node>
	<node id="-150849" lat="66.5979944436" lon="12.2346972155">
		<tag k="name" v="Vardøya" />
		<tag k="place" v="islet" />
		<tag k="ssr:stedsnr" v="137745" />
	</node>
	<node id="-150848" lat="66.6065999995" lon="12.2249111116">
		<tag k="fixme" v="consider seamark:type=rock or natural=shoal" />
		<tag k="name" v="Gotterongsskjæret" />
		<tag k="place" v="islet" />
		<tag k="ssr:stedsnr" v="137734" />
	</node>
	<node id="-150847" lat="66.6297138863" lon="12.3066666674">
		<tag k="name" v="Aurflua" />
		<tag k="natural" v="shoal" />
		<tag k="place" v="locality" />
		<tag k="ssr:stedsnr" v="137708" />
	</node>
	<node id="-150846" lat="66.5066472226" lon="11.9280527666">
		<tag k="name" v="Solken" />
		<tag k="natural" v="shoal" />
		<tag k="place" v="locality" />
		<tag k="ssr:stedsnr" v="137666" />
	</node>
	<node id="-150843" lat="66.54121944" lon="11.9989750101">
		<tag k="name" v="Rumpa" />
		<tag k="natural" v="shoal" />
		<tag k="place" v="locality" />
		<tag k="ssr:stedsnr" v="137630" />
	</node>
	<node id="-150842" lat="66.5890527743" lon="12.204888882">
		<tag k="name" v="Verholmen" />
		<tag k="place" v="islet" />
		<tag k="ssr:stedsnr" v="137618" />
	</node>
	<node id="-150841" lat="66.5582666704" lon="12.1628444525">
		<tag k="fixme" v="consider seamark:type=rock or natural=shoal" />
		<tag k="name" v="Marøyskjæran" />
		<tag k="place" v="islet" />
		<tag k="ssr:stedsnr" v="137613" />
	</node>
	<node id="-150840" lat="66.5710027809" lon="12.209858332">
		<tag k="name" v="Nautøybåen" />
		<tag k="natural" v="shoal" />
		<tag k="place" v="locality" />
		<tag k="ssr:stedsnr" v="137612" />
	</node>
	<node id="-150839" lat="66.548402779" lon="12.0598388802">
		<tag k="name" v="Litlkangva" />
		<tag k="place" v="islet" />
		<tag k="ssr:stedsnr" v="137611" />
	</node>
	<node id="-150838" lat="66.6153277762" lon="12.1635694428">
		<tag k="name" v="Skrælingsfluan" />
		<tag k="natural" v="shoal" />
		<tag k="place" v="locality" />
		<tag k="ssr:stedsnr" v="136648" />
	</node>
	<node id="-150837" lat="66.4967666688" lon="11.9560639003">
		<tag k="name" v="Gauvan" />
		<tag k="natural" v="shoal" />
		<tag k="place" v="locality" />
		<tag k="ssr:stedsnr" v="136255" />
	</node>
	<node id="-150836" lat="66.5120111116" lon="12.0604861111">
		<tag k="fixme" v="consider seamark:type=rock or natural=shoal" />
		<tag k="name" v="Flæsa" />
		<tag k="place" v="islet" />
		<tag k="ssr:stedsnr" v="111777" />
	</node>
	<node id="-150835" lat="66.5433194407" lon="12.2515027749">
		<tag k="name" v="Tana" />
		<tag k="natural" v="cape" />
		<tag k="ssr:stedsnr" v="111772" />
	</node>
	<node id="-150834" lat="66.5059500015" lon="12.0331472231">
		<tag k="name" v="Øksendalsvika" />
		<tag k="natural" v="bay" />
		<tag k="ssr:stedsnr" v="111770" />
	</node>
	<node id="-150833" lat="66.5058138862" lon="12.0642111078">
		<tag k="name" v="Grytneset" />
		<tag k="natural" v="cape" />
		<tag k="ssr:stedsnr" v="111762" />
	</node>
	<node id="-150832" lat="66.5503944445" lon="12.2660611171">
		<tag k="name" v="Nord-Bærholmen" />
		<tag k="place" v="islet" />
		<tag k="ssr:stedsnr" v="111744" />
	</node>
	<node id="-150830" lat="66.6228416652" lon="12.2158305659">
		<tag k="fixme" v="consider seamark:type=rock or natural=shoal" />
		<tag k="name" v="Ytterleiskjæret" />
		<tag k="place" v="islet" />
		<tag k="ssr:stedsnr" v="110764" />
	</node>
	<node id="-150829" lat="66.4785666672" lon="11.9539666694">
		<tag k="name" v="Djupenbaken" />
		<tag k="place" v="islet" />
		<tag k="ssr:stedsnr" v="110139" />
	</node>
	<node id="-150828" lat="66.5537972207" lon="12.1135555627">
		<tag k="name" v="Storarværet" />
		<tag k="place" v="islet" />
		<tag k="ssr:stedsnr" v="106266" />
	</node>
	<node id="-150827" lat="66.6088944451" lon="12.2712138961">
		<tag k="name" v="Bålskjærfluan" />
		<tag k="natural" v="shoal" />
		<tag k="place" v="locality" />
		<tag k="ssr:stedsnr" v="92902" />
	</node>
	<node id="-150825" lat="66.5783111094" lon="12.234524996">
		<tag k="name" v="Sjurdøydragan" />
		<tag k="natural" v="strait" />
		<tag k="ssr:stedsnr" v="77798" />
	</node>
	<node id="-150824" lat="66.596105553" lon="12.243008339">
		<tag k="name" v="Sekkeholmen" />
		<tag k="place" v="islet" />
		<tag k="ssr:stedsnr" v="77784" />
	</node>
	<node id="-150823" lat="66.6379249964" lon="12.2350749923">
		<tag k="name" v="Tjørnholmen" />
		<tag k="place" v="islet" />
		<tag k="ssr:stedsnr" v="77759" />
	</node>
	<node id="-150822" lat="66.6202888926" lon="12.2426499945">
		<tag k="name" v="Raudholmfluan" />
		<tag k="natural" v="shoal" />
		<tag k="place" v="locality" />
		<tag k="ssr:stedsnr" v="77753" />
	</node>
	<node id="-150821" lat="66.6631638854" lon="12.2295194379">
		<tag k="fixme" v="consider seamark:type=rock or natural=shoal" />
		<tag k="name" v="Litlhongskjæret" />
		<tag k="place" v="islet" />
		<tag k="ssr:stedsnr" v="77738" />
	</node>
	<node id="-150820" lat="66.6558361109" lon="12.2642888861">
		<tag k="name" v="Tjuvtaren" />
		<tag k="natural" v="shoal" />
		<tag k="place" v="locality" />
		<tag k="ssr:stedsnr" v="77729" />
	</node>
	<node id="-150818" lat="66.5113027735" lon="12.1436444511">
		<tag k="name" v="Verholman" />
		<tag k="place" v="islet" />
		<tag k="ssr:stedsnr" v="77703" />
	</node>
	<node id="-150817" lat="66.5215361098" lon="12.048294435">
		<tag k="name" v="Laukøya" />
		<tag k="place" v="islet" />
		<tag k="ssr:stedsnr" v="77693" />
	</node>
	<node id="-150816" lat="66.5198694461" lon="12.0227194358">
		<tag k="name" v="Bukkøybåen" />
		<tag k="natural" v="shoal" />
		<tag k="place" v="locality" />
		<tag k="ssr:stedsnr" v="77691" />
	</node>
	<node id="-150815" lat="66.5715083308" lon="12.1029416757">
		<tag k="name" v="Båsan" />
		<tag k="place" v="island" />
		<tag k="ssr:stedsnr" v="77663" />
	</node>
	<node id="-150814" lat="66.5597388869" lon="12.0361833222">
		<tag k="name" v="Bollbåen" />
		<tag k="natural" v="shoal" />
		<tag k="place" v="locality" />
		<tag k="ssr:stedsnr" v="77655" />
	</node>
	<node id="-150813" lat="66.5873888859" lon="12.1803055618">
		<tag k="fixme" v="consider seamark:type=rock or natural=shoal" />
		<tag k="name" v="Rørholmskjæran" />
		<tag k="place" v="islet" />
		<tag k="ssr:stedsnr" v="77642" />
	</node>
	<node id="-150812" lat="66.592619445" lon="12.0479055654">
		<tag k="name" v="Rundholmen" />
		<tag k="place" v="islet" />
		<tag k="ssr:stedsnr" v="77641" />
	</node>
	<node id="-150811" lat="66.4856444406" lon="12.0877722136">
		<tag k="name" v="Lamholmen" />
		<tag k="place" v="islet" />
		<tag k="ssr:stedsnr" v="76260" />
	</node>
	<node id="-150810" lat="66.4824083302" lon="12.1066638994">
		<tag k="name" v="Skarvskjæret" />
		<tag k="place" v="islet" />
		<tag k="ssr:stedsnr" v="76255" />
	</node>
	<node id="-150809" lat="66.4777750003" lon="12.0700083326">
		<tag k="name" v="Surnøya" />
		<tag k="place" v="islet" />
		<tag k="ssr:stedsnr" v="76254" />
	</node>
	<node id="-150808" lat="66.4889333346" lon="11.9610027864">
		<tag k="name" v="Brørne" />
		<tag k="natural" v="shoal" />
		<tag k="place" v="locality" />
		<tag k="ssr:stedsnr" v="76248" />
	</node>
	<node id="-150807" lat="66.4863611124" lon="12.0301500112">
		<tag k="name" v="Hudfatskjæret" />
		<tag k="place" v="islet" />
		<tag k="ssr:stedsnr" v="76244" />
	</node>
	<node id="-150806" lat="66.425830559" lon="11.9890555593">
		<tag k="name" v="Djuphesten" />
		<tag k="natural" v="shoal" />
		<tag k="place" v="locality" />
		<tag k="ssr:stedsnr" v="76224" />
	</node>
	<node id="-150805" lat="66.4332305566" lon="11.9941361207">
		<tag k="name" v="Heimfallet" />
		<tag k="natural" v="shoal" />
		<tag k="place" v="locality" />
		<tag k="ssr:stedsnr" v="76211" />
	</node>
	<node id="-150804" lat="66.5386222223" lon="12.2385888895">
		<tag k="name" v="Kuvågen" />
		<tag k="natural" v="bay" />
		<tag k="ssr:stedsnr" v="50749" />
	</node>
	<node id="-150803" lat="66.5084833334" lon="12.0372083394">
		<tag k="name" v="Ytter-Nøvvikja" />
		<tag k="natural" v="bay" />
		<tag k="ssr:stedsnr" v="50738" />
	</node>
	<node id="-150801" lat="66.4982194406" lon="12.0355166766">
		<tag k="name" v="Lilthaga" />
		<tag k="natural" v="bay" />
		<tag k="ssr:stedsnr" v="50178" />
	</node>
	<node id="-150800" lat="66.5046194458" lon="12.0810555476">
		<tag k="name" v="Kjerkvågen" />
		<tag k="natural" v="bay" />
		<tag k="ssr:stedsnr" v="50174" />
	</node>
	<node id="-150798" lat="66.5879750031" lon="12.2460138848">
		<tag k="name" v="Neset" />
		<tag k="natural" v="cape" />
		<tag k="ssr:stedsnr" v="49780" />
	</node>
	<node id="-150797" lat="66.6321194482" lon="12.2919499911">
		<tag k="name" v="Bursbåan" />
		<tag k="natural" v="shoal" />
		<tag k="place" v="locality" />
		<tag k="ssr:stedsnr" v="47491" />
	</node>
	<node id="-150796" lat="66.5507944489" lon="12.1087833359">
		<tag k="name" v="Litlarværet" />
		<tag k="place" v="islet" />
		<tag k="ssr:stedsnr" v="45267" />
	</node>
	<node id="-150795" lat="66.5283333338" lon="12.0999999961">
		<tag k="name" v="Storflua" />
		<tag k="natural" v="shoal" />
		<tag k="place" v="locality" />
		<tag k="ssr:stedsnr" v="20579" />
	</node>
	<node id="-150794" lat="66.5832361094" lon="12.2400027811">
		<tag k="name" v="Laukholmen" />
		<tag k="place" v="islet" />
		<tag k="ssr:stedsnr" v="16798" />
	</node>
	<node id="-150792" lat="66.5590305589" lon="12.2909416647">
		<tag k="name" v="Lyngøya" />
		<tag k="place" v="islet" />
		<tag k="ssr:stedsnr" v="16777" />
	</node>
	<node id="-150791" lat="66.6467361148" lon="12.2820999944">
		<tag k="name" v="Løholmen" />
		<tag k="place" v="islet" />
		<tag k="ssr:stedsnr" v="16698" />
	</node>
	<node id="-150790" lat="66.5136944424" lon="12.1545472325">
		<tag k="fixme" v="consider seamark:type=rock or natural=shoal" />
		<tag k="name" v="Storskjæret" />
		<tag k="place" v="islet" />
		<tag k="ssr:stedsnr" v="16676" />
	</node>
	<node id="-150788" lat="66.5273277753" lon="12.0447277741">
		<tag k="name" v="Litllamøya" />
		<tag k="place" v="island" />
		<tag k="ssr:stedsnr" v="16645" />
	</node>
	<node id="-150787" lat="66.5424888912" lon="12.16629999">
		<tag k="name" v="Raudskjærholmen" />
		<tag k="place" v="islet" />
		<tag k="ssr:stedsnr" v="16636" />
	</node>
	<node id="-150786" lat="66.5374138913" lon="12.0454638979">
		<tag k="bay" v="fjord" />
		<tag k="name" v="Skarvholmkåsa" />
		<tag k="natural" v="bay" />
		<tag k="ssr:stedsnr" v="16632" />
	</node>
	<node id="-150785" lat="66.5313777777" lon="12.128969447">
		<tag k="fixme" v="consider seamark:type=rock or natural=shoal" />
		<tag k="name" v="Gregusskjæran" />
		<tag k="place" v="islet" />
		<tag k="ssr:stedsnr" v="16620" />
	</node>
	<node id="-150784" lat="66.5350444417" lon="12.0480583351">
		<tag k="name" v="Skarvholman" />
		<tag k="place" v="islet" />
		<tag k="ssr:stedsnr" v="16618" />
	</node>
	<node id="-150783" lat="66.5833555542" lon="12.1596944424">
		<tag k="name" v="Grasholman" />
		<tag k="place" v="islet" />
		<tag k="ssr:stedsnr" v="16614" />
	</node>
	<node id="-150782" lat="66.562188893" lon="12.1009833415">
		<tag k="name" v="Kobbåsen" />
		<tag k="place" v="islet" />
		<tag k="ssr:stedsnr" v="16612" />
	</node>
	<node id="-150781" lat="66.5577166698" lon="12.1410805553">
		<tag k="name" v="Rossøyfluan" />
		<tag k="natural" v="shoal" />
		<tag k="place" v="locality" />
		<tag k="ssr:stedsnr" v="16609" />
	</node>
	<node id="-150780" lat="66.5652555534" lon="12.1462750077">
		<tag k="fixme" v="consider seamark:type=rock or natural=shoal" />
		<tag k="name" v="Rossøykalven" />
		<tag k="place" v="islet" />
		<tag k="ssr:stedsnr" v="16604" />
	</node>
	<node id="-150779" lat="66.6120250007" lon="12.2075083224">
		<tag k="name" v="Andholmflua" />
		<tag k="natural" v="shoal" />
		<tag k="place" v="locality" />
		<tag k="ssr:stedsnr" v="16601" />
	</node>
	<node id="-150778" lat="66.5963194415" lon="12.2003305579">
		<tag k="fixme" v="consider seamark:type=rock or natural=shoal" />
		<tag k="name" v="Ongelskjæret" />
		<tag k="place" v="islet" />
		<tag k="ssr:stedsnr" v="16597" />
	</node>
	<node id="-150777" lat="66.5914444444" lon="12.0440361035">
		<tag k="name" v="Storfroholmen" />
		<tag k="place" v="islet" />
		<tag k="ssr:stedsnr" v="16592" />
	</node>
	<node id="-150776" lat="66.6059194477" lon="12.1065194382">
		<tag k="name" v="Breiskallen" />
		<tag k="natural" v="shoal" />
		<tag k="place" v="locality" />
		<tag k="ssr:stedsnr" v="15669" />
	</node>
	<node id="-150775" lat="66.6116499966" lon="12.0708305534">
		<tag k="name" v="Seiholmgrunnen" />
		<tag k="natural" v="shoal" />
		<tag k="place" v="locality" />
		<tag k="ssr:stedsnr" v="15662" />
	</node>
	<node id="-150774" lat="66.4634833345" lon="11.9587249893">
		<tag k="name" v="Litlfroa" />
		<tag k="place" v="islet" />
		<tag k="ssr:stedsnr" v="15271" />
	</node>
	<node id="-150773" lat="66.4753527809" lon="11.9908111038">
		<tag k="name" v="Rodussen" />
		<tag k="place" v="islet" />
		<tag k="ssr:stedsnr" v="15270" />
	</node>
	<node id="-150772" lat="66.4724472252" lon="12.0035611081">
		<tag k="name" v="Fløttingen" />
		<tag k="place" v="islet" />
		<tag k="ssr:stedsnr" v="15268" />
	</node>
	<node id="-150771" lat="66.4597916664" lon="11.9527749977">
		<tag k="name" v="Fromerra" />
		<tag k="place" v="islet" />
		<tag k="ssr:stedsnr" v="15264" />
	</node>
	<node id="-150770" lat="66.4923574009" lon="12.0811989306">
		<tag k="name" v="Ærøya" />
		<tag k="place" v="islet" />
		<tag k="ssr:stedsnr" v="15251" />
	</node>
	<node id="-150769" lat="66.4991472226" lon="12.1180583362">
		<tag k="name" v="Ytterstongholmen" />
		<tag k="place" v="islet" />
		<tag k="ssr:stedsnr" v="15246" />
	</node>
	<node id="-150764" lat="66.5071027822" lon="12.0599500026">
		<tag k="name" v="Hundberget" />
		<tag k="natural" v="cape" />
		<tag k="ssr:stedsnr" v="960766" />
	</node>
	<node id="-150763" lat="66.5284472219" lon="12.0078694485">
		<tag k="name" v="Bremholman" />
		<tag k="place" v="island" />
		<tag k="ssr:stedsnr" v="960757" />
	</node>
	<node id="-150762" lat="66.4870888848" lon="12.0703361007">
		<tag k="name" v="Kvitneset" />
		<tag k="natural" v="cape" />
		<tag k="ssr:stedsnr" v="960137" />
	</node>
	<node id="-150760" lat="66.5889944404" lon="12.2100111012">
		<tag k="name" v="Ytteråkerøya" />
		<tag k="place" v="island" />
		<tag k="ssr:stedsnr" v="899790" />
	</node>
	<node id="-150759" lat="66.4552999963" lon="12.0627555624">
		<tag k="name" v="Larsskallen" />
		<tag k="natural" v="shoal" />
		<tag k="place" v="locality" />
		<tag k="ssr:stedsnr" v="865226" />
	</node>
	<node id="-150758" lat="66.645202777" lon="12.2206055539">
		<tag k="name" v="Lurøytaren" />
		<tag k="natural" v="shoal" />
		<tag k="place" v="locality" />
		<tag k="ssr:stedsnr" v="942426" />
	</node>
	<node id="-150757" lat="66.5357972198" lon="12.2207833416">
		<tag k="fixme" v="consider seamark:type=rock or natural=shoal" />
		<tag k="name" v="Sauskjæret" />
		<tag k="place" v="islet" />
		<tag k="ssr:stedsnr" v="942334" />
	</node>
	<node id="-150756" lat="66.5922166694" lon="12.2102000097">
		<tag k="name" v="Kobbholmen" />
		<tag k="place" v="islet" />
		<tag k="ssr:stedsnr" v="821363" />
	</node>
	<node id="-150755" lat="66.5676749969" lon="12.2964916727">
		<tag k="name" v="Storflua" />
		<tag k="natural" v="shoal" />
		<tag k="place" v="locality" />
		<tag k="ssr:stedsnr" v="821275" />
	</node>
	<node id="-150754" lat="66.4911694475" lon="12.0892111019">
		<tag k="name" v="Ytterhakksholmen" />
		<tag k="place" v="islet" />
		<tag k="ssr:stedsnr" v="820854" />
	</node>
	<node id="-150753" lat="66.4183527767" lon="12.1335027684">
		<tag k="bay" v="fjord" />
		<tag k="name" v="Trænfjorden" />
		<tag k="natural" v="bay" />
		<tag k="ssr:stedsnr" v="804238" />
	</node>
	<node id="-150752" lat="66.4397749973" lon="11.9895333399">
		<tag k="name" v="Brakvad" />
		<tag k="place" v="islet" />
		<tag k="ssr:stedsnr" v="804231" />
	</node>
	<node id="-150751" lat="66.6003027767" lon="12.2416194538">
		<tag k="name" v="Vardøykalven" />
		<tag k="place" v="islet" />
		<tag k="ssr:stedsnr" v="926779" />
	</node>
	<node id="-150750" lat="66.6180944484" lon="12.2838194384">
		<tag k="fixme" v="consider seamark:type=rock or natural=shoal" />
		<tag k="name" v="Bålskjæran" />
		<tag k="place" v="islet" />
		<tag k="ssr:stedsnr" v="926738" />
	</node>
	<node id="-150749" lat="66.6404222249" lon="12.31026945">
		<tag k="name" v="Raudskjærtaren" />
		<tag k="natural" v="shoal" />
		<tag k="place" v="locality" />
		<tag k="ssr:stedsnr" v="926717" />
	</node>
	<node id="-150747" lat="66.5262833373" lon="12.0268722154">
		<tag k="name" v="Storlamøya" />
		<tag k="place" v="island" />
		<tag k="ssr:stedsnr" v="926675" />
	</node>
	<node id="-150746" lat="66.5127388912" lon="12.1012944451">
		<tag k="name" v="Kveita" />
		<tag k="place" v="islet" />
		<tag k="ssr:stedsnr" v="926670" />
	</node>
	<node id="-150745" lat="66.5077861123" lon="11.99316945">
		<tag k="name" v="Ålvorsbåen" />
		<tag k="natural" v="shoal" />
		<tag k="place" v="locality" />
		<tag k="ssr:stedsnr" v="926666" />
	</node>
	<node id="-150744" lat="66.5199000038" lon="12.1539916716">
		<tag k="name" v="Sørsandøya" />
		<tag k="place" v="island" />
		<tag k="ssr:stedsnr" v="926664" />
	</node>
	<node id="-150743" lat="66.5315166677" lon="12.0316083282">
		<tag k="name" v="Sannavær" />
		<tag k="place" v="island" />
		<tag k="ssr:stedsnr" v="926653" />
	</node>
	<node id="-150742" lat="66.5273361096" lon="12.0156555554">
		<tag k="name" v="Litle Eskjæret" />
		<tag k="place" v="islet" />
		<tag k="ssr:stedsnr" v="926643" />
	</node>
	<node id="-150741" lat="66.574738887" lon="12.134208344">
		<tag k="fixme" v="consider seamark:type=rock or natural=shoal" />
		<tag k="name" v="Rossøyskjæran" />
		<tag k="place" v="islet" />
		<tag k="ssr:stedsnr" v="926639" />
	</node>
	<node id="-150740" lat="66.5913194414" lon="12.2077694389">
		<tag k="name" v="Kobbholmskjeret" />
		<tag k="place" v="islet" />
		<tag k="ssr:stedsnr" v="926613" />
	</node>
	<node id="-150739" lat="66.5891000015" lon="12.1027000054">
		<tag k="name" v="Djupbåen" />
		<tag k="natural" v="shoal" />
		<tag k="place" v="locality" />
		<tag k="ssr:stedsnr" v="926611" />
	</node>
	<node id="-150738" lat="66.6311416625" lon="12.1991305491">
		<tag k="name" v="Rya" />
		<tag k="place" v="islet" />
		<tag k="ssr:stedsnr" v="925664" />
	</node>
	<node id="-150737" lat="66.5044388867" lon="12.0225027867">
		<tag k="name" v="Træna" />
		<tag k="place" v="island" />
		<tag k="ssr:stedsnr" v="925281" />
	</node>
	<node id="-150736" lat="66.4551277759" lon="12.0022388946">
		<tag k="fixme" v="consider seamark:type=rock or natural=shoal" />
		<tag k="name" v="Flatskjæret" />
		<tag k="place" v="islet" />
		<tag k="ssr:stedsnr" v="925277" />
	</node>
	<node id="-150735" lat="66.4805916644" lon="12.055227772">
		<tag k="name" v="Hiøykalven" />
		<tag k="place" v="islet" />
		<tag k="ssr:stedsnr" v="925266" />
	</node>
	<node id="-150734" lat="66.4953824199" lon="12.0749241114">
		<tag k="name" v="Husøya" />
		<tag k="place" v="island" />
		<tag k="ssr:stedsnr" v="925264" />
	</node>
	<node id="-150733" lat="66.4890611142" lon="12.3546805577">
		<tag k="fixme" v="consider seamark:type=rock or natural=shoal" />
		<tag k="name" v="Austerskjæret" />
		<tag k="place" v="islet" />
		<tag k="ssr:stedsnr" v="925239" />
	</node>
	<node id="-150732" lat="66.4928416625" lon="12.3283111005">
		<tag k="fixme" v="consider seamark:type=rock or natural=shoal" />
		<tag k="name" v="Vesterskjæret" />
		<tag k="place" v="islet" />
		<tag k="ssr:stedsnr" v="925236" />
	</node>
	<node id="-150731" lat="66.3688805545" lon="11.9680777788">
		<tag k="name" v="Samskallen" />
		<tag k="natural" v="shoal" />
		<tag k="place" v="locality" />
		<tag k="ssr:stedsnr" v="925218" />
	</node>
	<node id="-150730" lat="66.4417555569" lon="12.0185750086">
		<tag k="fixme" v="consider seamark:type=rock or natural=shoal" />
		<tag k="name" v="Brørne" />
		<tag k="place" v="islet" />
		<tag k="ssr:stedsnr" v="925207" />
	</node>
	<node id="-150729" lat="66.4513666692" lon="11.9580083335">
		<tag k="name" v="Nesøytaren" />
		<tag k="natural" v="shoal" />
		<tag k="place" v="locality" />
		<tag k="ssr:stedsnr" v="925204" />
	</node>
	<node id="-150728" lat="66.4501694459" lon="12.0252388834">
		<tag k="name" v="Ytterflåtaren" />
		<tag k="natural" v="shoal" />
		<tag k="place" v="locality" />
		<tag k="ssr:stedsnr" v="925202" />
	</node>
	<node id="-150727" lat="66.4408500041" lon="12.0270277858">
		<tag k="fixme" v="consider seamark:type=rock or natural=shoal" />
		<tag k="name" v="Bålskjæret" />
		<tag k="place" v="islet" />
		<tag k="ssr:stedsnr" v="925196" />
	</node>
	<node id="-150725" lat="66.5968777799" lon="12.2543138993">
		<tag k="name" v="Sendingan" />
		<tag k="place" v="islet" />
		<tag k="ssr:stedsnr" v="744730" />
	</node>
	<node id="-150724" lat="66.6227083327" lon="12.238725007">
		<tag k="name" v="Raudholmen" />
		<tag k="place" v="islet" />
		<tag k="ssr:stedsnr" v="744715" />
	</node>
	<node id="-150723" lat="66.5456277738" lon="12.15422501">
		<tag k="name" v="Marøya" />
		<tag k="place" v="islet" />
		<tag k="ssr:stedsnr" v="744630" />
	</node>
	<node id="-150721" lat="66.571225001" lon="12.0385999958">
		<tag k="name" v="Måsflesskallan" />
		<tag k="natural" v="shoal" />
		<tag k="place" v="locality" />
		<tag k="ssr:stedsnr" v="744618" />
	</node>
	<node id="-150720" lat="66.5691361077" lon="12.1310222186">
		<tag k="name" v="Ytterrossøya" />
		<tag k="place" v="islet" />
		<tag k="ssr:stedsnr" v="744615" />
	</node>
	<node id="-150719" lat="66.4834333326" lon="12.0372416691">
		<tag k="name" v="Kvaløya" />
		<tag k="place" v="islet" />
		<tag k="ssr:stedsnr" v="743257" />
	</node>
	<node id="-150718" lat="66.5361083293" lon="12.0422833379">
		<tag k="name" v="Ytter-Skarvholmen" />
		<tag k="place" v="islet" />
		<tag k="ssr:stedsnr" v="900789" />
	</node>
	<node id="-150717" lat="66.5493388862" lon="12.2588305586">
		<tag k="name" v="Hammervika" />
		<tag k="natural" v="bay" />
		<tag k="ssr:stedsnr" v="900779" />
	</node>
	<node id="-150715" lat="66.4977694488" lon="12.07157223">
		<tag k="name" v="Husøyvågneset" />
		<tag k="natural" v="cape" />
		<tag k="ssr:stedsnr" v="900181" />
	</node>
	<node id="-150714" lat="66.5060166706" lon="12.0624499996">
		<tag k="name" v="Grytnesvågen" />
		<tag k="natural" v="bay" />
		<tag k="ssr:stedsnr" v="717806" />
	</node>
	<node id="-150713" lat="66.5103555559" lon="12.0417944469">
		<tag k="name" v="Heimer-Nøvvikja" />
		<tag k="natural" v="bay" />
		<tag k="ssr:stedsnr" v="717797" />
	</node>
	<node id="-150712" lat="66.5258111115" lon="12.0671972219">
		<tag k="name" v="Sannaværet" />
		<tag k="place" v="island" />
		<tag k="ssr:stedsnr" v="717785" />
	</node>
	<node id="-150710" lat="66.4973194476" lon="11.9732194548">
		<tag k="name" v="Laukeskallen" />
		<tag k="natural" v="shoal" />
		<tag k="place" v="locality" />
		<tag k="ssr:stedsnr" v="699767" />
	</node>
	<node id="-150709" lat="66.5301499988" lon="12.0840638808">
		<tag k="name" v="Storraudholmen" />
		<tag k="place" v="islet" />
		<tag k="ssr:stedsnr" v="699362" />
	</node>
	<node id="-150708" lat="66.5785999976" lon="12.1615055559">
		<tag k="name" v="Klubbgrasholmen" />
		<tag k="place" v="islet" />
		<tag k="ssr:stedsnr" v="683627" />
	</node>
	<node id="-150707" lat="66.5537972207" lon="12.1135555627">
		<tag k="name" v="Arværet" />
		<tag k="place" v="island" />
		<tag k="ssr:stedsnr" v="683620" />
	</node>
	<node id="-150706" lat="66.5640055551" lon="12.162713882">
		<tag k="name" v="Larsbåen" />
		<tag k="natural" v="shoal" />
		<tag k="place" v="locality" />
		<tag k="ssr:stedsnr" v="683618" />
	</node>
	<node id="-150705" lat="66.573930558" lon="12.1573444522">
		<tag k="fixme" v="consider seamark:type=rock or natural=shoal" />
		<tag k="name" v="Grasholmskjæran" />
		<tag k="place" v="islet" />
		<tag k="ssr:stedsnr" v="683614" />
	</node>
	<node id="-150704" lat="66.602502774" lon="12.2089222307">
		<tag k="name" v="Reinsøya" />
		<tag k="place" v="islet" />
		<tag k="ssr:stedsnr" v="683603" />
	</node>
	<node id="-150703" lat="66.4806666674" lon="12.3902194486">
		<tag k="name" v="Kringeltaren" />
		<tag k="natural" v="shoal" />
		<tag k="place" v="locality" />
		<tag k="ssr:stedsnr" v="683207" />
	</node>
	<node id="-150702" lat="66.4371888921" lon="12.0254416661">
		<tag k="name" v="Bålskjærbåen" />
		<tag k="natural" v="shoal" />
		<tag k="place" v="locality" />
		<tag k="ssr:stedsnr" v="682212" />
	</node>
	<node id="-150701" lat="66.5986000012" lon="12.2116027839">
		<tag k="fixme" v="consider seamark:type=rock or natural=shoal" />
		<tag k="name" v="Ytremerra" />
		<tag k="place" v="islet" />
		<tag k="ssr:stedsnr" v="882292" />
	</node>
	<node id="-150700" lat="66.5745694468" lon="12.1164250001">
		<tag k="fixme" v="consider seamark:type=rock or natural=shoal" />
		<tag k="name" v="Båsskjæret" />
		<tag k="place" v="islet" />
		<tag k="ssr:stedsnr" v="655742" />
	</node>
	<node id="-150699" lat="66.6141083308" lon="12.2077666641">
		<tag k="fixme" v="consider seamark:type=rock or natural=shoal" />
		<tag k="name" v="Skrælingskjæret" />
		<tag k="place" v="islet" />
		<tag k="ssr:stedsnr" v="655740" />
	</node>
	<node id="-150697" lat="66.5036305598" lon="12.0252138962">
		<tag k="name" v="Sørstorvika" />
		<tag k="natural" v="bay" />
		<tag k="ssr:stedsnr" v="717798" />
	</node>
	<node id="-150696" lat="66.5062527743" lon="12.0821722316">
		<tag k="name" v="Svendsholmen" />
		<tag k="natural" v="cape" />
		<tag k="ssr:stedsnr" v="717174" />
	</node>
	<node id="-150695" lat="66.5976083361" lon="12.1957944435">
		<tag k="name" v="Innerongelskjærbåen" />
		<tag k="place" v="locality" />
		<tag k="seamark:type" v="rock" />
		<tag k="ssr:stedsnr" v="578331" />
	</node>
	<node id="-150694" lat="66.5689250012" lon="12.2867027769">
		<tag k="fixme" v="consider seamark:type=rock or natural=shoal" />
		<tag k="name" v="Svartskjæret" />
		<tag k="place" v="islet" />
		<tag k="ssr:stedsnr" v="562810" />
	</node>
	<node id="-150693" lat="66.5068249973" lon="12.0990361107">
		<tag k="name" v="Fløholmen" />
		<tag k="place" v="islet" />
		<tag k="ssr:stedsnr" v="561710" />
	</node>
	<node id="-150692" lat="66.5097583338" lon="12.2948249897">
		<tag k="name" v="Tverrtaren" />
		<tag k="natural" v="shoal" />
		<tag k="place" v="locality" />
		<tag k="ssr:stedsnr" v="561821" />
	</node>
	<node id="-150691" lat="66.5358361071" lon="12.1621555465">
		<tag k="alt_name" v="Litltorvvær" />
		<tag k="name" v="Litltørvær" />
		<tag k="place" v="islet" />
		<tag k="ssr:stedsnr" v="561676" />
	</node>
	<node id="-150690" lat="66.531763891" lon="12.014591671">
		<tag k="alt_name" v="Kovrosholmen" />
		<tag k="name" v="Kovrosholman" />
		<tag k="place" v="islet" />
		<tag k="ssr:stedsnr" v="561668" />
	</node>
	<node id="-150689" lat="66.5803305569" lon="12.1970055453">
		<tag k="name" v="Lamholmskjæret" />
		<tag k="place" v="islet" />
		<tag k="ssr:stedsnr" v="561666" />
	</node>
	<node id="-150688" lat="66.4563277762" lon="11.9800416711">
		<tag k="name" v="Gjersholmen" />
		<tag k="place" v="islet" />
		<tag k="ssr:stedsnr" v="561257" />
	</node>
	<node id="-150686" lat="66.5526944468" lon="12.268202772">
		<tag k="fixme" v="consider seamark:type=rock or natural=shoal" />
		<tag k="name" v="Kobbskjæret" />
		<tag k="place" v="islet" />
		<tag k="ssr:stedsnr" v="535767" />
	</node>
	<node id="-150684" lat="66.4960749984" lon="12.0869444524">
		<tag k="name" v="Torsholmen" />
		<tag k="place" v="islet" />
		<tag k="ssr:stedsnr" v="688555" />
	</node>
	<node id="-150683" lat="66.6047805579" lon="12.2819472301">
		<tag k="fixme" v="consider seamark:type=rock or natural=shoal" />
		<tag k="name" v="Søre Trollskjæret" />
		<tag k="place" v="islet" />
		<tag k="ssr:stedsnr" v="683752" />
	</node>
	<node id="-150682" lat="66.5887777748" lon="12.2303583256">
		<tag k="name" v="Hestøya" />
		<tag k="place" v="islet" />
		<tag k="ssr:stedsnr" v="683738" />
	</node>
	<node id="-150681" lat="66.6464416654" lon="12.2458305639">
		<tag k="fixme" v="consider seamark:type=rock or natural=shoal" />
		<tag k="name" v="Tjønnholmmerra" />
		<tag k="place" v="islet" />
		<tag k="ssr:stedsnr" v="683718" />
	</node>
	<node id="-150680" lat="66.5391027809" lon="12.1538694392">
		<tag k="name" v="Stortorvvær" />
		<tag k="place" v="island" />
		<tag k="ssr:stedsnr" v="683649" />
	</node>
	<node id="-150679" lat="66.534063887" lon="12.1451666717">
		<tag k="name" v="Einbærholmen" />
		<tag k="place" v="islet" />
		<tag k="ssr:stedsnr" v="683642" />
	</node>
	<node id="-150678" lat="66.5319972181" lon="12.0526416559">
		<tag k="alt_name" v="Ænakkan" />
		<tag k="name" v="Enakken" />
		<tag k="place" v="islet" />
		<tag k="ssr:stedsnr" v="683637" />
	</node>
	<node id="-150677" lat="66.5031611079" lon="12.0326027757">
		<tag k="name" v="Hagabukta" />
		<tag k="natural" v="bay" />
		<tag k="ssr:stedsnr" v="683687" />
	</node>
	<node id="-150676" lat="66.5209305518" lon="11.9481916667">
		<tag k="name" v="Grunnskolten" />
		<tag k="natural" v="shoal" />
		<tag k="place" v="locality" />
		<tag k="ssr:stedsnr" v="683664" />
	</node>
	<node id="-150675" lat="66.6319444425" lon="12.1520416742">
		<tag k="name" v="Litlhavsula" />
		<tag k="place" v="islet" />
		<tag k="ssr:stedsnr" v="682673" />
	</node>
	<node id="-150674" lat="66.629136115" lon="12.1518555644">
		<tag k="name" v="Storhavsula" />
		<tag k="place" v="islet" />
		<tag k="ssr:stedsnr" v="682672" />
	</node>
	<node id="-150673" lat="66.6202888856" lon="12.2262027826">
		<tag k="name" v="Nordbrya" />
		<tag k="place" v="islet" />
		<tag k="ssr:stedsnr" v="501709" />
	</node>
	<node id="-150672" lat="66.5215361117" lon="11.9509194547">
		<tag k="name" v="Vårfiskskolten" />
		<tag k="natural" v="shoal" />
		<tag k="place" v="locality" />
		<tag k="ssr:stedsnr" v="501652" />
	</node>
	<node id="-150670" lat="66.5098777772" lon="12.0557083266">
		<tag k="name" v="Nordsand" />
		<tag k="natural" v="beach" />
		<tag k="place" v="locality" />
		<tag k="ssr:stedsnr" v="657774" />
	</node>
	<node id="-150669" lat="66.5428833326" lon="12.1500166762">
		<tag k="name" v="Brattholmen" />
		<tag k="place" v="islet" />
		<tag k="ssr:stedsnr" v="657766" />
	</node>
	<node id="-150668" lat="66.6169333349" lon="12.2569722241">
		<tag k="fixme" v="consider seamark:type=rock or natural=shoal" />
		<tag k="name" v="Innerleiskjæret" />
		<tag k="place" v="islet" />
		<tag k="ssr:stedsnr" v="441752" />
	</node>
	<node id="-150667" lat="66.5493555589" lon="12.2492388822">
		<tag k="name" v="Bukkøya" />
		<tag k="place" v="islet" />
		<tag k="ssr:stedsnr" v="441809" />
	</node>
	<node id="-150666" lat="66.5534222228" lon="12.2625638827">
		<tag k="name" v="Nordskarven" />
		<tag k="place" v="island" />
		<tag k="ssr:stedsnr" v="441806" />
	</node>
	<node id="-150665" lat="66.4964138894" lon="12.1033555602">
		<tag k="name" v="Likholmen" />
		<tag k="place" v="islet" />
		<tag k="ssr:stedsnr" v="657161" />
	</node>
	<node id="-150664" lat="66.480294447" lon="11.9929944511">
		<tag k="name" v="Seingstaget" />
		<tag k="place" v="islet" />
		<tag k="ssr:stedsnr" v="657150" />
	</node>
	<node id="-150663" lat="66.530416669" lon="12.0188638987">
		<tag k="name" v="Ovnholmen" />
		<tag k="place" v="islet" />
		<tag k="ssr:stedsnr" v="656817" />
	</node>
	<node id="-150662" lat="66.5921361124" lon="12.2260277756">
		<tag k="fixme" v="consider seamark:type=rock or natural=shoal" />
		<tag k="name" v="Galtmonskjæran" />
		<tag k="place" v="islet" />
		<tag k="ssr:stedsnr" v="655763" />
	</node>
	<node id="-150661" lat="66.5909750004" lon="12.2408444558">
		<tag k="name" v="Langskjæret" />
		<tag k="place" v="islet" />
		<tag k="ssr:stedsnr" v="655759" />
	</node>
	<node id="-150660" lat="66.5042055578" lon="12.1373166762">
		<tag k="name" v="Bergeholmen" />
		<tag k="place" v="islet" />
		<tag k="ssr:stedsnr" v="517872" />
	</node>
	<node id="-150659" lat="66.5319027749" lon="12.1717861063">
		<tag k="fixme" v="consider seamark:type=rock or natural=shoal" />
		<tag k="name" v="Raudskjæran" />
		<tag k="place" v="islet" />
		<tag k="ssr:stedsnr" v="517474" />
	</node>
	<node id="-150658" lat="66.6567499958" lon="12.3084638836">
		<tag k="name" v="Revet" />
		<tag k="place" v="islet" />
		<tag k="ssr:stedsnr" v="517428" />
	</node>
	<node id="-150657" lat="66.5353361119" lon="12.2251138814">
		<tag k="fixme" v="consider seamark:type=rock or natural=shoal" />
		<tag k="name" v="Kjørsøyskjæret" />
		<tag k="place" v="islet" />
		<tag k="ssr:stedsnr" v="517343" />
	</node>
	<node id="-150655" lat="66.5557555586" lon="12.2281388945">
		<tag k="fixme" v="consider seamark:type=rock or natural=shoal" />
		<tag k="name" v="Kjerringskjæret" />
		<tag k="place" v="islet" />
		<tag k="ssr:stedsnr" v="516281" />
	</node>
	<node id="-150653" lat="66.5440916629" lon="12.3042444416">
		<tag k="bay" v="fjord" />
		<tag k="name" v="Kvernleia" />
		<tag k="natural" v="bay" />
		<tag k="ssr:stedsnr" v="502849" />
	</node>
	<node id="-150652" lat="66.5404722222" lon="12.2312333321">
		<tag k="name" v="Buøya" />
		<tag k="place" v="island" />
		<tag k="ssr:stedsnr" v="501810" />
	</node>
	<node id="-150651" lat="66.505736108" lon="12.3062250016">
		<tag k="name" v="Langtaren" />
		<tag k="natural" v="shoal" />
		<tag k="place" v="locality" />
		<tag k="ssr:stedsnr" v="501800" />
	</node>
	<node id="-150650" lat="66.5244500018" lon="12.3065444481">
		<tag k="name" v="Knausen" />
		<tag k="natural" v="shoal" />
		<tag k="place" v="locality" />
		<tag k="ssr:stedsnr" v="501792" />
	</node>
	<node id="-150649" lat="66.5662666695" lon="12.2540000105">
		<tag k="name" v="Selværflaget" />
		<tag k="place" v="locality" />
		<tag k="ssr:stedsnr" v="501789" />
	</node>
	<node id="-150648" lat="66.5785361069" lon="12.2901416729">
		<tag k="name" v="Storflua" />
		<tag k="natural" v="shoal" />
		<tag k="place" v="locality" />
		<tag k="ssr:stedsnr" v="501781" />
	</node>
	<node id="-150647" lat="66.5176972189" lon="12.1384888924">
		<tag k="name" v="Innerhellholmen" />
		<tag k="place" v="islet" />
		<tag k="ssr:stedsnr" v="501649" />
	</node>
	<node id="-150646" lat="66.5184749985" lon="12.1077166762">
		<tag k="name" v="Sendingan" />
		<tag k="place" v="islet" />
		<tag k="ssr:stedsnr" v="501647" />
	</node>
	<node id="-150644" lat="66.540641671" lon="12.0642277749">
		<tag k="fixme" v="consider seamark:type=rock or natural=shoal" />
		<tag k="name" v="Brosmaskjæret" />
		<tag k="place" v="islet" />
		<tag k="ssr:stedsnr" v="501635" />
	</node>
	<node id="-150643" lat="66.5373972178" lon="12.0689638933">
		<tag k="name" v="Litlraudholmen" />
		<tag k="place" v="islet" />
		<tag k="ssr:stedsnr" v="501634" />
	</node>
	<node id="-150642" lat="66.5870277782" lon="12.2166277709">
		<tag k="alt_name" v="Åkerøya" />
		<tag k="name" v="Inneråkerøya" />
		<tag k="place" v="islet" />
		<tag k="ssr:stedsnr" v="501620" />
	</node>
	<node id="-150641" lat="66.590694447" lon="12.2252999996">
		<tag k="name" v="Galtmoen" />
		<tag k="place" v="islet" />
		<tag k="ssr:stedsnr" v="501734" />
	</node>
	<node id="-150640" lat="66.621650004" lon="12.1232999953">
		<tag k="name" v="Langtaren" />
		<tag k="natural" v="shoal" />
		<tag k="place" v="locality" />
		<tag k="ssr:stedsnr" v="500697" />
	</node>
	<node id="-150639" lat="66.6136027801" lon="12.193361105">
		<tag k="name" v="Skrælingstaren" />
		<tag k="natural" v="shoal" />
		<tag k="place" v="locality" />
		<tag k="ssr:stedsnr" v="500695" />
	</node>
	<node id="-150638" lat="66.6279694447" lon="12.1801750036">
		<tag k="name" v="Selvær" />
		<tag k="place" v="islet" />
		<tag k="ssr:stedsnr" v="500683" />
	</node>
	<node id="-150637" lat="66.5207861148" lon="12.0571972187">
		<tag k="alt_name" v="Bussøya" />
		<tag k="name" v="Bussøyan" />
		<tag k="place" v="islet" />
		<tag k="ssr:stedsnr" v="380712" />
	</node>
	<node id="-150636" lat="66.51715556" lon="12.0877027697">
		<tag k="name" v="Stornesholmen" />
		<tag k="place" v="islet" />
		<tag k="ssr:stedsnr" v="380706" />
	</node>
	<node id="-150635" lat="66.4634777733" lon="11.9448000072">
		<tag k="name" v="Froskiten" />
		<tag k="place" v="islet" />
		<tag k="ssr:stedsnr" v="500285" />
	</node>
	<node id="-150634" lat="66.4713249965" lon="11.9563083239">
		<tag k="name" v="Skåktaren" />
		<tag k="natural" v="shoal" />
		<tag k="place" v="locality" />
		<tag k="ssr:stedsnr" v="500282" />
	</node>
	<node id="-150633" lat="66.4902111108" lon="12.0757861001">
		<tag k="name" v="Hikelen" />
		<tag k="place" v="island" />
		<tag k="ssr:stedsnr" v="500270" />
	</node>
	<node id="-150632" lat="66.4786472259" lon="11.9380194516">
		<tag k="name" v="Båvarden" />
		<tag k="place" v="islet" />
		<tag k="ssr:stedsnr" v="500269" />
	</node>
	<node id="-150631" lat="66.4933305597" lon="12.2914166644">
		<tag k="name" v="Okstindryggen" />
		<tag k="natural" v="shoal" />
		<tag k="place" v="locality" />
		<tag k="ssr:stedsnr" v="500230" />
	</node>
	<node id="-150630" lat="66.4294916654" lon="11.9666583222">
		<tag k="name" v="Sørholmen" />
		<tag k="place" v="islet" />
		<tag k="ssr:stedsnr" v="500210" />
	</node>
	<node id="-150629" lat="66.4500416626" lon="12.2842055499">
		<tag k="name" v="Handrevan" />
		<tag k="natural" v="shoal" />
		<tag k="place" v="locality" />
		<tag k="ssr:stedsnr" v="500185" />
	</node>
	<node id="-150628" lat="66.4811305557" lon="11.939388886">
		<tag k="fixme" v="consider seamark:type=rock or natural=shoal" />
		<tag k="name" v="Leiskjæret" />
		<tag k="place" v="islet" />
		<tag k="ssr:stedsnr" v="500260" />
	</node>
	<node id="-150627" lat="66.4818999983" lon="11.9829833358">
		<tag k="name" v="Oterholmen" />
		<tag k="place" v="islet" />
		<tag k="ssr:stedsnr" v="500258" />
	</node>
	<node id="-150626" lat="66.5570888906" lon="12.0642583233">
		<tag k="name" v="Kangva" />
		<tag k="place" v="islet" />
		<tag k="ssr:stedsnr" v="475795" />
	</node>
	<node id="-150625" lat="66.5026472186" lon="12.1021777818">
		<tag k="name" v="Janeset" />
		<tag k="natural" v="cape" />
		<tag k="ssr:stedsnr" v="475164" />
	</node>
	<node id="-150623" lat="66.4943055533" lon="12.0773472139">
		<tag k="name" v="Fallavika" />
		<tag k="natural" v="bay" />
		<tag k="ssr:stedsnr" v="475152" />
	</node>
	<node id="-150622" lat="66.4809166701" lon="11.9651750026">
		<tag k="fixme" v="consider seamark:type=rock or natural=shoal" />
		<tag k="name" v="Haugøyskjæran" />
		<tag k="place" v="islet" />
		<tag k="ssr:stedsnr" v="475150" />
	</node>
	<node id="-150621" lat="66.5288805549" lon="12.1450277831">
		<tag k="fixme" v="consider seamark:type=rock or natural=shoal" />
		<tag k="name" v="Langskjæret" />
		<tag k="place" v="islet" />
		<tag k="ssr:stedsnr" v="319655" />
	</node>
	<node id="-150620" lat="66.5380249961" lon="12.2161694433">
		<tag k="name" v="Vågsholmen" />
		<tag k="place" v="islet" />
		<tag k="ssr:stedsnr" v="319652" />
	</node>
	<node id="-150618" lat="66.4806861123" lon="12.3657861201">
		<tag k="name" v="Austerfallet" />
		<tag k="natural" v="shoal" />
		<tag k="place" v="locality" />
		<tag k="ssr:stedsnr" v="318202" />
	</node>
	<node id="-150617" lat="66.5852388875" lon="12.2201277783">
		<tag k="name" v="Sør-Sommarauken" />
		<tag k="place" v="island" />
		<tag k="ssr:stedsnr" v="473789" />
	</node>
	<node id="-150615" lat="66.5686138849" lon="12.1329638906">
		<tag k="name" v="Rossøyan" />
		<tag k="place" v="islet" />
		<tag k="ssr:stedsnr" v="290660" />
	</node>
	<node id="-150614" lat="66.5145416697" lon="12.0007250075">
		<tag k="name" v="Bukta" />
		<tag k="natural" v="bay" />
		<tag k="ssr:stedsnr" v="274778" />
	</node>
	<node id="-150613" lat="66.6188805542" lon="12.2288916712">
		<tag k="name" v="Litlbrya" />
		<tag k="place" v="islet" />
		<tag k="ssr:stedsnr" v="457199" />
	</node>
	<node id="-150612" lat="66.610408334" lon="12.2249138891">
		<tag k="name" v="Gotterongsflua" />
		<tag k="natural" v="shoal" />
		<tag k="place" v="locality" />
		<tag k="ssr:stedsnr" v="456929" />
	</node>
	<node id="-150611" lat="66.6115861078" lon="12.1468583302">
		<tag k="fixme" v="consider seamark:type=rock or natural=shoal" />
		<tag k="name" v="Nordnipskjæret" />
		<tag k="place" v="islet" />
		<tag k="ssr:stedsnr" v="456596" />
	</node>
	<node id="-150610" lat="66.5314138911" lon="12.1620000058">
		<tag k="fixme" v="consider seamark:type=rock or natural=shoal" />
		<tag k="name" v="Seglskjæret" />
		<tag k="place" v="islet" />
		<tag k="ssr:stedsnr" v="456465" />
	</node>
	<node id="-150609" lat="66.5338666685" lon="12.2329361051">
		<tag k="name" v="Sørskarven" />
		<tag k="place" v="islet" />
		<tag k="ssr:stedsnr" v="258811" />
	</node>
	<node id="-150608" lat="66.544652778" lon="12.1713666656">
		<tag k="name" v="Austholmen" />
		<tag k="place" v="islet" />
		<tag k="ssr:stedsnr" v="258678" />
	</node>
	<node id="-150607" lat="66.54985" lon="12.1375805664">
		<tag k="name" v="Marøybåen" />
		<tag k="natural" v="shoal" />
		<tag k="place" v="locality" />
		<tag k="ssr:stedsnr" v="258674" />
	</node>
	<node id="-150606" lat="66.5251666694" lon="11.9815249942">
		<tag k="name" v="Nordmjågrunnen" />
		<tag k="natural" v="shoal" />
		<tag k="place" v="locality" />
		<tag k="ssr:stedsnr" v="258669" />
	</node>
	<node id="-150605" lat="66.565536114" lon="12.1029111202">
		<tag k="name" v="Kisbåsen" />
		<tag k="place" v="islet" />
		<tag k="ssr:stedsnr" v="258660" />
	</node>
	<node id="-150604" lat="66.5479361083" lon="12.0154500071">
		<tag k="name" v="Lavrumskallen" />
		<tag k="natural" v="shoal" />
		<tag k="place" v="locality" />
		<tag k="ssr:stedsnr" v="258656" />
	</node>
	<node id="-150603" lat="66.5048333352" lon="12.1283333267">
		<tag k="name" v="Remningsvågen" />
		<tag k="place" v="islet" />
		<tag k="ssr:stedsnr" v="258705" />
	</node>
	<node id="-150602" lat="66.4225055552" lon="12.0041305456">
		<tag k="name" v="Mjågrunnen" />
		<tag k="natural" v="shoal" />
		<tag k="place" v="locality" />
		<tag k="ssr:stedsnr" v="258209" />
	</node>
	<node id="-150601" lat="66.4492388919" lon="12.036552777">
		<tag k="name" v="Innerflåtaren" />
		<tag k="natural" v="shoal" />
		<tag k="place" v="locality" />
		<tag k="ssr:stedsnr" v="258202" />
	</node>
	<node id="-150600" lat="66.5165666681" lon="12.148386102">
		<tag k="name" v="Matskjæret" />
		<tag k="place" v="islet" />
		<tag k="ssr:stedsnr" v="445574" />
	</node>
	<node id="-150599" lat="66.5955055528" lon="12.23268334">
		<tag k="name" v="Lyngøya" />
		<tag k="place" v="island" />
		<tag k="ssr:stedsnr" v="231808" />
	</node>
	<node id="-150598" lat="66.6189611072" lon="12.3025222185">
		<tag k="name" v="Bårdskjerhovudet" />
		<tag k="natural" v="shoal" />
		<tag k="place" v="locality" />
		<tag k="ssr:stedsnr" v="441745" />
	</node>
	<node id="-150597" lat="66.6628194439" lon="12.2641277671">
		<tag k="name" v="Jo Tomsa-skallen" />
		<tag k="natural" v="shoal" />
		<tag k="place" v="locality" />
		<tag k="ssr:stedsnr" v="441742" />
	</node>
	<node id="-150595" lat="66.5254166638" lon="12.0982472162">
		<tag k="name" v="Eskjærsteinen" />
		<tag k="natural" v="shoal" />
		<tag k="place" v="locality" />
		<tag k="ssr:stedsnr" v="441697" />
	</node>
	<node id="-150594" lat="66.5229027734" lon="12.0767694433">
		<tag k="name" v="Visvær" />
		<tag k="place" v="islet" />
		<tag k="ssr:stedsnr" v="441695" />
	</node>
	<node id="-150593" lat="66.5231527748" lon="12.0398333292">
		<tag k="name" v="Bukkøya" />
		<tag k="place" v="island" />
		<tag k="ssr:stedsnr" v="441693" />
	</node>
	<node id="-150592" lat="66.5176083294" lon="12.128752769">
		<tag k="name" v="Ytterhellholmen" />
		<tag k="place" v="islet" />
		<tag k="ssr:stedsnr" v="441687" />
	</node>
	<node id="-150591" lat="66.5232861133" lon="12.126047213">
		<tag k="name" v="Lyngøya" />
		<tag k="place" v="islet" />
		<tag k="ssr:stedsnr" v="441679" />
	</node>
	<node id="-150590" lat="66.5343444452" lon="12.1652944401">
		<tag k="fixme" v="multiple name tags, choose one and add the other to alt_name" />
		<tag k="name" v="Bergeholmen;Seglholmen" />
		<tag k="place" v="islet" />
		<tag k="ssr:stedsnr" v="441671" />
	</node>
	<node id="-150589" lat="66.5283750026" lon="12.0068416612">
		<tag k="name" v="Store Eskjæret" />
		<tag k="place" v="islet" />
		<tag k="ssr:stedsnr" v="441667" />
	</node>
	<node id="-150588" lat="66.5753500027" lon="12.0280944429">
		<tag k="name" v="Steinen" />
		<tag k="natural" v="shoal" />
		<tag k="place" v="locality" />
		<tag k="ssr:stedsnr" v="441658" />
	</node>
	<node id="-150587" lat="66.6274472261" lon="12.1944944473">
		<tag k="name" v="Litlmåøya" />
		<tag k="place" v="islet" />
		<tag k="ssr:stedsnr" v="440621" />
	</node>
	<node id="-150586" lat="66.6229666676" lon="12.1919249967">
		<tag k="name" v="Stormåøya" />
		<tag k="place" v="islet" />
		<tag k="ssr:stedsnr" v="440619" />
	</node>
	<node id="-150585" lat="66.4627611108" lon="12.0134444381">
		<tag k="name" v="Hunden" />
		<tag k="natural" v="shoal" />
		<tag k="place" v="locality" />
		<tag k="ssr:stedsnr" v="440269" />
	</node>
	<node id="-150584" lat="66.4969361119" lon="12.1408388955">
		<tag k="name" v="Slønga" />
		<tag k="natural" v="shoal" />
		<tag k="place" v="locality" />
		<tag k="ssr:stedsnr" v="440263" />
	</node>
	<node id="-150583" lat="66.486699996" lon="12.2975138989">
		<tag k="name" v="Sterktaren" />
		<tag k="natural" v="shoal" />
		<tag k="place" v="locality" />
		<tag k="ssr:stedsnr" v="440253" />
	</node>
	<node id="-150582" lat="66.605244442" lon="12.2478527812">
		<tag k="fixme" v="consider seamark:type=rock or natural=shoal" />
		<tag k="name" v="Vardøygalten" />
		<tag k="place" v="islet" />
		<tag k="ssr:stedsnr" v="213924" />
	</node>
	<node id="-150581" lat="66.500963893" lon="12.0246972246">
		<tag k="fixme" v="consider seamark:type=rock or natural=shoal" />
		<tag k="name" v="Hagaskjæran" />
		<tag k="place" v="islet" />
		<tag k="ssr:stedsnr" v="213805" />
	</node>
	<node id="-150580" lat="66.5070083372" lon="12.0631000062">
		<tag k="name" v="Pålneset" />
		<tag k="natural" v="cape" />
		<tag k="ssr:stedsnr" v="293813" />
	</node>
	<node id="-150579" lat="66.5431166697" lon="12.2704444491">
		<tag k="name" v="Ternskjæret" />
		<tag k="place" v="islet" />
		<tag k="ssr:stedsnr" v="198840" />
	</node>
	<node id="-150578" lat="66.6352999976" lon="12.3093361136">
		<tag k="fixme" v="consider seamark:type=rock or natural=shoal" />
		<tag k="name" v="Raudskjæret" />
		<tag k="place" v="islet" />
		<tag k="ssr:stedsnr" v="198735" />
	</node>
	<node id="-150577" lat="66.6263888868" lon="12.230516662">
		<tag k="fixme" v="consider seamark:type=rock or natural=shoal" />
		<tag k="name" v="Raudholmskjæran" />
		<tag k="place" v="islet" />
		<tag k="ssr:stedsnr" v="198734" />
	</node>
	<node id="-150576" lat="66.6264361106" lon="12.2789555494">
		<tag k="name" v="Sørbursbåen" />
		<tag k="natural" v="shoal" />
		<tag k="place" v="locality" />
		<tag k="ssr:stedsnr" v="198732" />
	</node>
	<node id="-150575" lat="66.6492888885" lon="12.2638777844">
		<tag k="name" v="Litlskarvholmen" />
		<tag k="place" v="islet" />
		<tag k="ssr:stedsnr" v="198715" />
	</node>
	<node id="-150574" lat="66.5938333304" lon="12.2364472299">
		<tag k="name" v="Innereinholmen" />
		<tag k="place" v="islet" />
		<tag k="ssr:stedsnr" v="292769" />
	</node>
	<node id="-150573" lat="66.6016805578" lon="12.2548833342">
		<tag k="fixme" v="consider seamark:type=rock or natural=shoal" />
		<tag k="name" v="Auster-Senningskjæret" />
		<tag k="place" v="islet" />
		<tag k="ssr:stedsnr" v="292753" />
	</node>
	<node id="-150571" lat="66.6327444472" lon="12.2448194377">
		<tag k="fixme" v="consider seamark:type=rock or natural=shoal" />
		<tag k="name" v="Tjønnholmskjæran" />
		<tag k="place" v="islet" />
		<tag k="ssr:stedsnr" v="275929" />
	</node>
	<node id="-150570" lat="66.5244305577" lon="12.322105566">
		<tag k="name" v="Hellfallet" />
		<tag k="natural" v="shoal" />
		<tag k="place" v="locality" />
		<tag k="ssr:stedsnr" v="137792" />
	</node>
	<node id="-150569" lat="66.6438666709" lon="12.2023611076">
		<tag k="name" v="Jarntaren" />
		<tag k="natural" v="shoal" />
		<tag k="place" v="locality" />
		<tag k="ssr:stedsnr" v="136638" />
	</node>
	<node id="-150568" lat="66.637527778" lon="12.1662694471">
		<tag k="name" v="Havsultaren" />
		<tag k="natural" v="shoal" />
		<tag k="place" v="locality" />
		<tag k="ssr:stedsnr" v="136635" />
	</node>
	<node id="-150567" lat="66.4295888934" lon="11.971919445">
		<tag k="name" v="Austholmen" />
		<tag k="place" v="islet" />
		<tag k="ssr:stedsnr" v="136221" />
	</node>
	<node id="-150566" lat="66.4931305553" lon="12.0748861205">
		<tag k="name" v="Heirsandsundet" />
		<tag k="natural" v="strait" />
		<tag k="ssr:stedsnr" v="263570" />
	</node>
	<node id="-150565" lat="66.5932111134" lon="12.273750004">
		<tag k="name" v="Kvitingsfluan" />
		<tag k="natural" v="shoal" />
		<tag k="place" v="locality" />
		<tag k="ssr:stedsnr" v="259757" />
	</node>
	<node id="-150564" lat="66.612069442" lon="12.1651250023">
		<tag k="fixme" v="multiple name tags, choose one and add the other to alt_name" />
		<tag k="name" v="Selværseiholmen;Seiholmen" />
		<tag k="place" v="islet" />
		<tag k="ssr:stedsnr" v="258648" />
	</node>
	<node id="-150563" lat="66.6163222234" lon="12.2065583373">
		<tag k="name" v="Skrælingan" />
		<tag k="place" v="islet" />
		<tag k="ssr:stedsnr" v="258646" />
	</node>
	<node id="-150562" lat="66.5986805589" lon="12.0765916708">
		<tag k="name" v="Trænseiholmen" />
		<tag k="place" v="islet" />
		<tag k="ssr:stedsnr" v="258630" />
	</node>
	<node id="-150561" lat="66.5962250031" lon="12.0761027756">
		<tag k="name" v="Litltrænseiholmen" />
		<tag k="place" v="islet" />
		<tag k="ssr:stedsnr" v="258629" />
	</node>
	<node id="-150560" lat="66.5282277805" lon="12.0735055559">
		<tag k="name" v="Likholmen" />
		<tag k="place" v="islet" />
		<tag k="ssr:stedsnr" v="258690" />
	</node>
	<node id="-150559" lat="66.6519833379" lon="12.1978194403">
		<tag k="name" v="Kuskallen" />
		<tag k="natural" v="shoal" />
		<tag k="place" v="locality" />
		<tag k="ssr:stedsnr" v="258626" />
	</node>
	<node id="-150558" lat="66.6327777822" lon="12.2069194402">
		<tag k="fixme" v="consider seamark:type=rock or natural=shoal" />
		<tag k="name" v="Klubbskjæret" />
		<tag k="place" v="islet" />
		<tag k="ssr:stedsnr" v="258618" />
	</node>
	<node id="-150557" lat="66.4611333367" lon="12.0374638781">
		<tag k="fixme" v="consider seamark:type=rock or natural=shoal" />
		<tag k="name" v="Grunnskjæran" />
		<tag k="place" v="islet" />
		<tag k="ssr:stedsnr" v="258247" />
	</node>
	<node id="-150556" lat="66.4974194458" lon="11.9821416756">
		<tag k="fixme" v="consider seamark:type=rock or natural=shoal" />
		<tag k="name" v="Svartskjæret" />
		<tag k="place" v="islet" />
		<tag k="ssr:stedsnr" v="258229" />
	</node>
	<node id="-150555" lat="66.5366277812" lon="12.2298027865">
		<tag k="name" v="Kjørsøya" />
		<tag k="place" v="island" />
		<tag k="ssr:stedsnr" v="50752" />
	</node>
	<node id="-150553" lat="66.5013972192" lon="12.1016722294">
		<tag k="name" v="Selværneset" />
		<tag k="natural" v="cape" />
		<tag k="ssr:stedsnr" v="50166" />
	</node>
	<node id="-150552" lat="66.5054972212" lon="12.0278666773">
		<tag k="name" v="Nordstorvika" />
		<tag k="natural" v="bay" />
		<tag k="ssr:stedsnr" v="232772" />
	</node>
	<node id="-150551" lat="66.6226138851" lon="12.2226222141">
		<tag k="fixme" v="consider seamark:type=rock or natural=shoal" />
		<tag k="name" v="Bryskjæran" />
		<tag k="place" v="islet" />
		<tag k="ssr:stedsnr" v="16724" />
	</node>
	<node id="-150550" lat="66.6629555527" lon="12.2422444481">
		<tag k="name" v="Skåka" />
		<tag k="natural" v="shoal" />
		<tag k="place" v="locality" />
		<tag k="ssr:stedsnr" v="16712" />
	</node>
	<node id="-150549" lat="66.6495361123" lon="12.2529361021">
		<tag k="fixme" v="consider seamark:type=rock or natural=shoal" />
		<tag k="name" v="Litlskarvholmmerra" />
		<tag k="place" v="islet" />
		<tag k="ssr:stedsnr" v="16701" />
	</node>
	<node id="-150548" lat="66.491300002" lon="12.3433277834">
		<tag k="name" v="Stokkholmen" />
		<tag k="place" v="islet" />
		<tag k="ssr:stedsnr" v="15225" />
	</node>
	<node id="-150547" lat="66.4094527813" lon="11.9654916664">
		<tag k="name" v="Øvskallen" />
		<tag k="natural" v="shoal" />
		<tag k="place" v="locality" />
		<tag k="ssr:stedsnr" v="15206" />
	</node>
	<node id="-150546" lat="66.4381222203" lon="11.9509444379">
		<tag k="name" v="Langtaren" />
		<tag k="natural" v="shoal" />
		<tag k="place" v="locality" />
		<tag k="ssr:stedsnr" v="15202" />
	</node>
</osm>
