<?xml version="1.0" encoding="UTF-8"?>
<<<<<<< HEAD
<osm version="0.6" generator="osmapis">
	<node lat="66.50658889005793" lon="12.052422212332184" id="-10078">
=======
<osm generator="osmapis" version="0.6">
	<node id="-160127" lat="66.5065888901" lon="12.0524222123">
>>>>>>> e1d4bc35ff8a6074a6f2e91616a996b547c36f15
		<tag k="name" v="Sannagården" />
		<tag k="place" v="farm" />
		<tag k="ssr:stedsnr" v="171802" />
	</node>
<<<<<<< HEAD
	<node lat="66.58488333569719" lon="12.238633341246736" id="-10151">
		<tag k="name" v="Olderstad" />
		<tag k="place" v="hamlet" />
		<tag k="ssr:stedsnr" v="473775" />
	</node>
	<node lat="66.58521111260713" lon="12.235686106204245" id="-10390">
		<tag k="name" v="Larsstøa" />
		<tag k="place" v="farm" />
		<tag k="ssr:stedsnr" v="413777" />
	</node>
	<node lat="66.58567777940083" lon="12.227630547093232" id="-10417">
=======
	<node id="-160498" lat="66.5856777794" lon="12.2276305471">
>>>>>>> e1d4bc35ff8a6074a6f2e91616a996b547c36f15
		<tag k="name" v="Stangen" />
		<tag k="place" v="hamlet" />
		<tag k="ssr:stedsnr" v="534789" />
	</node>
<<<<<<< HEAD
	<node lat="66.58772500160913" lon="12.241127774715952" id="-10503">
=======
	<node id="-160621" lat="66.5872063259" lon="12.2425708057">
		<tag k="fixme" v="consider place=hamlet" />
>>>>>>> e1d4bc35ff8a6074a6f2e91616a996b547c36f15
		<tag k="name" v="Selvær" />
		<tag k="place" v="hamlet" />
		<tag k="ssr:stedsnr" v="805742" />
	</node>
<<<<<<< HEAD
	<node lat="66.50036667065191" lon="12.0873732335471" id="-10546">
=======
	<node id="-160620" lat="66.5404202945" lon="12.2506569536">
>>>>>>> e1d4bc35ff8a6074a6f2e91616a996b547c36f15
		<tag k="fixme" v="consider place=hamlet" />
		<tag k="name" v="Husøya" />
		<tag k="place" v="farm" />
		<tag k="ssr:stedsnr" v="1072438" />
	</node>
<<<<<<< HEAD
	<node lat="66.49289183534401" lon="12.083800883113792" id="-10547">
		<tag k="name" v="Ærøya" />
		<tag k="place" v="locality" />
		<tag k="ssr:stedsnr" v="1072439" />
	</node>
	<node lat="66.49202258443451" lon="12.085512752511903" id="-10548">
		<tag k="name" v="Hikelen" />
		<tag k="place" v="locality" />
		<tag k="ssr:stedsnr" v="1072440" />
	</node>
	<node lat="66.50614683599454" lon="12.053868485646264" id="-10549">
=======
	<node id="-160619" lat="66.5430222219" lon="12.1646272388">
		<tag k="fixme" v="consider place=hamlet" />
		<tag k="name" v="Rødskjærholmen" />
		<tag k="place" v="farm" />
		<tag k="ssr:stedsnr" v="1072486" />
	</node>
	<node id="-160618" lat="66.506146836" lon="12.0538684856">
>>>>>>> e1d4bc35ff8a6074a6f2e91616a996b547c36f15
		<tag k="alt_name" v="Sande" />
		<tag k="fixme" v="consider place=hamlet" />
		<tag k="name" v="Sanna" />
		<tag k="place" v="farm" />
		<tag k="ssr:stedsnr" v="1072464" />
	</node>
<<<<<<< HEAD
	<node lat="66.52192784945586" lon="12.156647647257717" id="-10550">
		<tag k="fixme" v="consider place=hamlet" />
		<tag k="name" v="Sandøya" />
		<tag k="place" v="farm" />
		<tag k="ssr:stedsnr" v="1072485" />
	</node>
	<node lat="66.54302222194191" lon="12.164627238776648" id="-10551">
		<tag k="fixme" v="consider place=hamlet" />
		<tag k="name" v="Rødskjærholmen" />
		<tag k="place" v="farm" />
		<tag k="ssr:stedsnr" v="1072486" />
	</node>
	<node lat="66.54042029446698" lon="12.250656953643267" id="-10552">
=======
	<node id="-160617" lat="66.4920225844" lon="12.0855127525">
		<tag k="name" v="Hikelen" />
		<tag k="place" v="locality" />
		<tag k="ssr:stedsnr" v="1072440" />
	</node>
	<node id="-160616" lat="66.4928918353" lon="12.0838008831">
		<tag k="name" v="Ærøya" />
		<tag k="place" v="locality" />
		<tag k="ssr:stedsnr" v="1072439" />
	</node>
	<node id="-160615" lat="66.5003666707" lon="12.0873732335">
		<tag k="fixme" v="consider place=hamlet" />
		<tag k="name" v="Husøya" />
		<tag k="place" v="farm" />
		<tag k="ssr:stedsnr" v="1072438" />
	</node>
	<node id="-160486" lat="66.5852111126" lon="12.2356861062">
		<tag k="name" v="Larsstøa" />
		<tag k="place" v="farm" />
		<tag k="ssr:stedsnr" v="413777" />
	</node>
	<node id="-160580" lat="66.5877250016" lon="12.2411277747">
		<tag k="name" v="Selvær" />
		<tag k="place" v="hamlet" />
		<tag k="ssr:stedsnr" v="805742" />
	</node>
	<node id="-160323" lat="66.5219278495" lon="12.1566476473">
>>>>>>> e1d4bc35ff8a6074a6f2e91616a996b547c36f15
		<tag k="fixme" v="consider place=hamlet" />
		<tag k="name" v="Dørvær" />
		<tag k="place" v="farm" />
		<tag k="ssr:stedsnr" v="1072487" />
	</node>
<<<<<<< HEAD
	<node lat="66.58720632590334" lon="12.242570805667478" id="-10553">
		<tag k="fixme" v="consider place=hamlet" />
		<tag k="name" v="Selvær" />
		<tag k="place" v="farm" />
		<tag k="ssr:stedsnr" v="1072488" />
=======
	<node id="-160171" lat="66.5848833357" lon="12.2386333412">
		<tag k="name" v="Olderstad" />
		<tag k="place" v="hamlet" />
		<tag k="ssr:stedsnr" v="473775" />
>>>>>>> e1d4bc35ff8a6074a6f2e91616a996b547c36f15
	</node>
</osm>
