<?xml version="1.0" encoding="UTF-8"?>
<osm version="0.6" generator="osmapis">
	<node id="31264095" lat="59.415651" lon="10.4851179" version="17" timestamp="2021-10-29T14:41:32Z" changeset="113127928" uid="3497659" user="NKA">
		<tag k="name" v="Horten" />
		<tag k="name:ru" v="Хортен" />
		<tag k="place" v="town" />
		<tag k="population" v="20717" />
		<tag k="population:date" v="2021-01-01" />
		<tag k="ref:ssb_tettsted" v="2511" />
		<tag k="source:population" v="SSB - befolkning i tettstedet" />
		<tag k="ssr:stedsnr" v="692216" />
		<tag k="ssr:type" v="by" />
		<tag k="wikidata" v="Q109048" />
	</node>
	<node id="252585942" lat="59.3491387" lon="10.4680198" version="10" timestamp="2021-10-29T06:11:26Z" changeset="113107708" uid="3497659" user="NKA">
		<tag k="name" v="Åsgårdstrand" />
		<tag k="place" v="town" />
		<tag k="population" v="2939" />
		<tag k="population:date" v="2021-01-01" />
		<tag k="ref:ssb_tettsted" v="2603" />
		<tag k="source:population" v="SSB - befolkning i tettstedet" />
		<tag k="ssr:stedsnr" v="184593" />
		<tag k="ssr:type" v="by" />
	</node>
	<node id="324371284" lat="59.4244396" lon="10.3835706" version="8" timestamp="2021-10-29T06:11:26Z" changeset="113107708" uid="3497659" user="NKA">
		<tag k="name" v="Nykirke" />
		<tag k="place" v="village" />
		<tag k="population" v="715" />
		<tag k="population:date" v="2021-01-01" />
		<tag k="ref:ssb_tettsted" v="2601" />
		<tag k="source:population" v="SSB - befolkning i tettstedet" />
		<tag k="ssr:stedsnr" v="813200" />
		<tag k="ssr:type" v="tettsted" />
	</node>
	<node id="324371411" lat="59.3598482" lon="10.4087784" version="2" timestamp="2019-01-06T12:15:11Z" changeset="66068268" uid="3497659" user="NKA">
		<tag k="name" v="Adal" />
		<tag k="place" v="hamlet" />
		<tag k="ssr:stedsnr" v="984614" />
		<tag k="ssr:type" v="navnegard" />
	</node>
	<node id="324372557" lat="59.3814716" lon="10.4551472" version="3" timestamp="2019-01-06T12:15:11Z" changeset="66068268" uid="3497659" user="NKA">
		<tag k="name" v="Borre" />
		<tag k="place" v="village" />
		<tag k="ssr:stedsnr" v="101283" />
		<tag k="ssr:type" v="tettsted" />
	</node>
	<node id="324381859" lat="59.3555713" lon="10.4386549" version="2" timestamp="2019-01-06T12:15:11Z" changeset="66068268" uid="3497659" user="NKA">
		<tag k="name" v="Ra" />
		<tag k="place" v="hamlet" />
		<tag k="ssr:stedsnr" v="328803" />
		<tag k="ssr:type" v="bruk" />
	</node>
	<node id="324459505" lat="59.4417216" lon="10.4315387" version="4" timestamp="2019-01-06T12:15:11Z" changeset="66068268" uid="3497659" user="NKA">
		<tag k="name" v="Falkensten" />
		<tag k="place" v="quarter" />
		<tag k="ssr:stedsnr" v="41827" />
		<tag k="ssr:type" v="tettbebyggelse" />
	</node>
	<node id="774093533" lat="59.3989424" lon="10.4486042" version="4" timestamp="2019-01-06T12:15:11Z" changeset="66068268" uid="3497659" user="NKA">
		<tag k="alt_name" v="Semb" />
		<tag k="name" v="Semb hovedgård" />
		<tag k="place" v="farm" />
		<tag k="ssr:stedsnr" v="791505" />
		<tag k="ssr:type" v="gard" />
	</node>
	<node id="3941197338" lat="59.4096059" lon="10.4421014" version="2" timestamp="2019-01-06T12:15:11Z" changeset="66068268" uid="3497659" user="NKA">
		<tag k="name" v="Eskebekk" />
		<tag k="place" v="farm" />
		<tag k="ssr:stedsnr" v="184508" />
		<tag k="ssr:type" v="gard" />
	</node>
	<node id="5421094462" lat="59.4269163" lon="10.4556429" version="2" timestamp="2019-01-06T12:15:11Z" changeset="66068268" uid="3497659" user="NKA">
		<tag k="name" v="Apenes" />
		<tag k="place" v="suburb" />
		<tag k="ssr:stedsnr" v="27886" />
		<tag k="ssr:type" v="boligfelt" />
	</node>
	<node id="5421094464" lat="59.3855869" lon="10.4087472" version="6" timestamp="2021-10-29T06:11:26Z" changeset="113107708" uid="3497659" user="NKA">
		<tag k="name" v="Skoppum" />
		<tag k="place" v="village" />
		<tag k="population" v="1694" />
		<tag k="population:date" v="2021-01-01" />
		<tag k="ref:ssb_tettsted" v="2602" />
		<tag k="source:population" v="SSB - befolkning i tettstedet" />
		<tag k="ssr:stedsnr" v="730591" />
		<tag k="ssr:type" v="tettsted" />
	</node>
	<node id="5425246145" lat="59.4373966" lon="10.4430434" version="3" timestamp="2019-01-06T12:15:11Z" changeset="66068268" uid="3497659" user="NKA">
		<tag k="name" v="Skavli" />
		<tag k="place" v="neighbourhood" />
		<tag k="ssr:stedsnr" v="184923" />
		<tag k="ssr:type" v="boligfelt" />
	</node>
	<node id="5437368193" lat="59.386025" lon="10.4752944" version="2" timestamp="2019-01-06T12:15:11Z" changeset="66068268" uid="3497659" user="NKA">
		<tag k="name" v="Birkely" />
		<tag k="place" v="hamlet" />
		<tag k="ssr:stedsnr" v="358696" />
		<tag k="ssr:type" v="boligfelt" />
	</node>
	<node id="6187712541" lat="59.4405056" lon="10.3690944" version="1" timestamp="2019-01-06T12:14:57Z" changeset="66068268" uid="3497659" user="NKA">
		<tag k="name" v="Freberg nordre" />
		<tag k="place" v="farm" />
		<tag k="ssr:stedsnr" v="487955" />
		<tag k="ssr:type" v="gard" />
	</node>
	<node id="6187712542" lat="59.4121694" lon="10.3783444" version="1" timestamp="2019-01-06T12:14:57Z" changeset="66068268" uid="3497659" user="NKA">
		<tag k="name" v="Åsrød" />
		<tag k="place" v="farm" />
		<tag k="ssr:stedsnr" v="487966" />
		<tag k="ssr:type" v="gard" />
	</node>
	<node id="6187712543" lat="59.4184194" lon="10.4518167" version="1" timestamp="2019-01-06T12:14:57Z" changeset="66068268" uid="3497659" user="NKA">
		<tag k="name" v="Holtan" />
		<tag k="place" v="isolated_dwelling" />
		<tag k="ssr:stedsnr" v="487973" />
		<tag k="ssr:type" v="eneboligMindreBoligbygg" />
	</node>
	<node id="6187712544" lat="59.3593611" lon="10.4526389" version="1" timestamp="2019-01-06T12:14:57Z" changeset="66068268" uid="3497659" user="NKA">
		<tag k="name" v="Jutestrand" />
		<tag k="place" v="farm" />
		<tag k="ssr:stedsnr" v="392849" />
		<tag k="ssr:type" v="bruk" />
	</node>
	<node id="6187712545" lat="59.427525" lon="10.4456" version="1" timestamp="2019-01-06T12:14:57Z" changeset="66068268" uid="3497659" user="NKA">
		<tag k="name" v="Dampejordet" />
		<tag k="place" v="isolated_dwelling" />
		<tag k="ssr:stedsnr" v="487988" />
		<tag k="ssr:type" v="eneboligMindreBoligbygg" />
	</node>
	<node id="6187712546" lat="59.3973806" lon="10.43575" version="1" timestamp="2019-01-06T12:14:57Z" changeset="66068268" uid="3497659" user="NKA">
		<tag k="alt_name" v="Øvre Toen" />
		<tag k="name" v="Toen" />
		<tag k="place" v="farm" />
		<tag k="ssr:stedsnr" v="488489" />
		<tag k="ssr:type" v="gard" />
	</node>
	<node id="6187712547" lat="59.4102278" lon="10.3666389" version="1" timestamp="2019-01-06T12:14:58Z" changeset="66068268" uid="3497659" user="NKA">
		<tag k="alt_name" v="Mosekvisl;Moskvil;Moskvil, søndre" />
		<tag k="name" v="Søndre Moskvil" />
		<tag k="place" v="farm" />
		<tag k="ssr:stedsnr" v="495677" />
		<tag k="ssr:type" v="gard" />
	</node>
	<node id="6187712548" lat="59.3738861" lon="10.4140667" version="1" timestamp="2019-01-06T12:14:58Z" changeset="66068268" uid="3497659" user="NKA">
		<tag k="name" v="Pjonkerød søndre" />
		<tag k="place" v="farm" />
		<tag k="ssr:stedsnr" v="882666" />
		<tag k="ssr:type" v="bruk" />
	</node>
	<node id="6187712549" lat="59.3514361" lon="10.4376861" version="1" timestamp="2019-01-06T12:14:58Z" changeset="66068268" uid="3497659" user="NKA">
		<tag k="name" v="Kjær ytre" />
		<tag k="place" v="farm" />
		<tag k="ssr:stedsnr" v="510839" />
		<tag k="ssr:type" v="gard" />
	</node>
	<node id="6187712550" lat="59.3739063" lon="10.437369" version="1" timestamp="2019-01-06T12:14:58Z" changeset="66068268" uid="3497659" user="NKA">
		<tag k="name" v="Øvre Glenne" />
		<tag k="place" v="locality" />
		<tag k="ssr:stedsnr" v="984502" />
		<tag k="ssr:type" v="eiendom" />
	</node>
	<node id="6187712551" lat="59.35205" lon="10.4435417" version="1" timestamp="2019-01-06T12:14:58Z" changeset="66068268" uid="3497659" user="NKA">
		<tag k="name" v="Øvre Åsgården" />
		<tag k="place" v="farm" />
		<tag k="ssr:stedsnr" v="510841" />
		<tag k="ssr:type" v="bruk" />
	</node>
	<node id="6187712552" lat="59.3833102" lon="10.4598602" version="1" timestamp="2019-01-06T12:14:58Z" changeset="66068268" uid="3497659" user="NKA">
		<tag k="name" v="Vasmarken" />
		<tag k="place" v="farm" />
		<tag k="ssr:stedsnr" v="984505" />
		<tag k="ssr:type" v="gard" />
	</node>
	<node id="6187712553" lat="59.3851883" lon="10.4723935" version="1" timestamp="2019-01-06T12:14:58Z" changeset="66068268" uid="3497659" user="NKA">
		<tag k="name" v="Søndre Vold" />
		<tag k="place" v="locality" />
		<tag k="ssr:stedsnr" v="984535" />
		<tag k="ssr:type" v="eiendom" />
	</node>
	<node id="6187712554" lat="59.3985694" lon="10.3912389" version="1" timestamp="2019-01-06T12:14:58Z" changeset="66068268" uid="3497659" user="NKA">
		<tag k="name" v="Støkke" />
		<tag k="place" v="farm" />
		<tag k="ssr:stedsnr" v="510858" />
		<tag k="ssr:type" v="bruk" />
	</node>
	<node id="6187712555" lat="59.3965056" lon="10.3849806" version="1" timestamp="2019-01-06T12:14:58Z" changeset="66068268" uid="3497659" user="NKA">
		<tag k="name" v="Gusland nordre" />
		<tag k="place" v="farm" />
		<tag k="ssr:stedsnr" v="510860" />
		<tag k="ssr:type" v="gard" />
	</node>
	<node id="6187712556" lat="59.3880531" lon="10.4641878" version="1" timestamp="2019-01-06T12:14:58Z" changeset="66068268" uid="3497659" user="NKA">
		<tag k="name" v="Vold" />
		<tag k="place" v="hamlet" />
		<tag k="ssr:stedsnr" v="984536" />
		<tag k="ssr:type" v="navnegard" />
	</node>
	<node id="6187712557" lat="59.4056694" lon="10.4665353" version="1" timestamp="2019-01-06T12:14:58Z" changeset="66068268" uid="3497659" user="NKA">
		<tag k="name" v="Baggerød" />
		<tag k="place" v="farm" />
		<tag k="ssr:stedsnr" v="984537" />
		<tag k="ssr:type" v="gard" />
	</node>
	<node id="6187712558" lat="59.4229291" lon="10.4207172" version="1" timestamp="2019-01-06T12:14:58Z" changeset="66068268" uid="3497659" user="NKA">
		<tag k="name" v="Vik" />
		<tag k="place" v="hamlet" />
		<tag k="ssr:stedsnr" v="984538" />
		<tag k="ssr:type" v="navnegard" />
	</node>
	<node id="6187712559" lat="59.4001526" lon="10.4153318" version="1" timestamp="2019-01-06T12:14:58Z" changeset="66068268" uid="3497659" user="NKA">
		<tag k="name" v="Vestre Solberg" />
		<tag k="place" v="farm" />
		<tag k="ssr:stedsnr" v="984539" />
		<tag k="ssr:type" v="gard" />
	</node>
	<node id="6187712560" lat="59.4006542" lon="10.4211796" version="1" timestamp="2019-01-06T12:14:58Z" changeset="66068268" uid="3497659" user="NKA">
		<tag k="name" v="Solberg" />
		<tag k="place" v="hamlet" />
		<tag k="ssr:stedsnr" v="984540" />
		<tag k="ssr:type" v="navnegard" />
	</node>
	<node id="6187712561" lat="59.3882687" lon="10.4279609" version="1" timestamp="2019-01-06T12:14:59Z" changeset="66068268" uid="3497659" user="NKA">
		<tag k="name" v="Sande" />
		<tag k="place" v="hamlet" />
		<tag k="ssr:stedsnr" v="984543" />
		<tag k="ssr:type" v="navnegard" />
	</node>
	<node id="6187712562" lat="59.3826466" lon="10.41333" version="1" timestamp="2019-01-06T12:14:59Z" changeset="66068268" uid="3497659" user="NKA">
		<tag k="name" v="Tokerød" />
		<tag k="place" v="locality" />
		<tag k="ssr:stedsnr" v="984544" />
		<tag k="ssr:type" v="eiendom" />
	</node>
	<node id="6187712563" lat="59.3560972" lon="10.4666778" version="1" timestamp="2019-01-06T12:14:59Z" changeset="66068268" uid="3497659" user="NKA">
		<tag k="name" v="Skogstua" />
		<tag k="place" v="isolated_dwelling" />
		<tag k="ssr:stedsnr" v="523041" />
		<tag k="ssr:type" v="eneboligMindreBoligbygg" />
	</node>
	<node id="6187712564" lat="59.3561327" lon="10.4105074" version="1" timestamp="2019-01-06T12:14:59Z" changeset="66068268" uid="3497659" user="NKA">
		<tag k="name" v="Sti" />
		<tag k="place" v="farm" />
		<tag k="ssr:stedsnr" v="984615" />
		<tag k="ssr:type" v="gard" />
	</node>
	<node id="6187712565" lat="59.3947564" lon="10.3855817" version="1" timestamp="2019-01-06T12:14:59Z" changeset="66068268" uid="3497659" user="NKA">
		<tag k="name" v="Gusland" />
		<tag k="place" v="hamlet" />
		<tag k="ssr:stedsnr" v="984639" />
		<tag k="ssr:type" v="navnegard" />
	</node>
	<node id="6187712566" lat="59.3843028" lon="10.4528028" version="1" timestamp="2019-01-06T12:14:59Z" changeset="66068268" uid="3497659" user="NKA">
		<tag k="name" v="Gannestad" />
		<tag k="place" v="isolated_dwelling" />
		<tag k="ssr:stedsnr" v="548556" />
		<tag k="ssr:type" v="eneboligMindreBoligbygg" />
	</node>
	<node id="6187712567" lat="59.4307617" lon="10.3798884" version="1" timestamp="2019-01-06T12:14:59Z" changeset="66068268" uid="3497659" user="NKA">
		<tag k="name" v="Nøklegård" />
		<tag k="place" v="hamlet" />
		<tag k="ssr:stedsnr" v="984662" />
		<tag k="ssr:type" v="navnegard" />
	</node>
	<node id="6187712568" lat="59.4377373" lon="10.3904848" version="1" timestamp="2019-01-06T12:14:59Z" changeset="66068268" uid="3497659" user="NKA">
		<tag k="name" v="Teigen" />
		<tag k="place" v="farm" />
		<tag k="ssr:stedsnr" v="984709" />
		<tag k="ssr:type" v="gard" />
	</node>
	<node id="6187712569" lat="59.4368515" lon="10.3790807" version="1" timestamp="2019-01-06T12:14:59Z" changeset="66068268" uid="3497659" user="NKA">
		<tag k="name" v="Tveitan" />
		<tag k="place" v="farm" />
		<tag k="ssr:stedsnr" v="548930" />
		<tag k="ssr:type" v="gard" />
	</node>
	<node id="6187712570" lat="59.4417306" lon="10.3975333" version="1" timestamp="2019-01-06T12:14:59Z" changeset="66068268" uid="3497659" user="NKA">
		<tag k="alt_name" v="Vegge;Vegge nordre" />
		<tag k="name" v="Nordre Vegge" />
		<tag k="place" v="farm" />
		<tag k="ssr:stedsnr" v="548944" />
		<tag k="ssr:type" v="gard" />
	</node>
	<node id="6187712571" lat="59.4060306" lon="10.35075" version="1" timestamp="2019-01-06T12:14:59Z" changeset="66068268" uid="3497659" user="NKA">
		<tag k="name" v="Fossøla" />
		<tag k="place" v="farm" />
		<tag k="ssr:stedsnr" v="548963" />
		<tag k="ssr:type" v="bruk" />
	</node>
	<node id="6187712572" lat="59.4185781" lon="10.3445258" version="1" timestamp="2019-01-06T12:14:59Z" changeset="66068268" uid="3497659" user="NKA">
		<tag k="alt_name" v="Drengløs" />
		<tag k="name" v="Jalland" />
		<tag k="place" v="farm" />
		<tag k="ssr:stedsnr" v="548975" />
		<tag k="ssr:type" v="gard" />
	</node>
	<node id="6187712573" lat="59.42435" lon="10.3576833" version="1" timestamp="2019-01-06T12:14:59Z" changeset="66068268" uid="3497659" user="NKA">
		<tag k="name" v="Soleglad" />
		<tag k="place" v="farm" />
		<tag k="ssr:stedsnr" v="548998" />
		<tag k="ssr:type" v="bruk" />
	</node>
	<node id="6187712574" lat="59.3737472" lon="10.4605361" version="1" timestamp="2019-01-06T12:14:59Z" changeset="66068268" uid="3497659" user="NKA">
		<tag k="name" v="Rishagerød" />
		<tag k="place" v="farm" />
		<tag k="ssr:stedsnr" v="570801" />
		<tag k="ssr:type" v="bruk" />
	</node>
	<node id="6187712575" lat="59.4321356" lon="10.3774541" version="1" timestamp="2019-01-06T12:15:00Z" changeset="66068268" uid="3497659" user="NKA">
		<tag k="name" v="Nøklegård øvre" />
		<tag k="place" v="farm" />
		<tag k="ssr:stedsnr" v="580572" />
		<tag k="ssr:type" v="gard" />
	</node>
	<node id="6187712576" lat="59.3495778" lon="10.4448889" version="1" timestamp="2019-01-06T12:15:00Z" changeset="66068268" uid="3497659" user="NKA">
		<tag k="name" v="Breidablikk" />
		<tag k="place" v="quarter" />
		<tag k="ssr:stedsnr" v="601683" />
		<tag k="ssr:type" v="boligfelt" />
	</node>
	<node id="6187712577" lat="59.4201037" lon="10.3833859" version="1" timestamp="2019-01-06T12:15:00Z" changeset="66068268" uid="3497659" user="NKA">
		<tag k="name" v="Klokkeråsen" />
		<tag k="place" v="quarter" />
		<tag k="ssr:stedsnr" v="604692" />
		<tag k="ssr:type" v="boligfelt" />
	</node>
	<node id="6187712578" lat="59.3814333" lon="10.3818389" version="1" timestamp="2019-01-06T12:15:00Z" changeset="66068268" uid="3497659" user="NKA">
		<tag k="alt_name" v="Steinbjørnrød" />
		<tag k="name" v="Stenbjørnrød" />
		<tag k="place" v="farm" />
		<tag k="ssr:stedsnr" v="608584" />
		<tag k="ssr:type" v="gard" />
	</node>
	<node id="6187712579" lat="59.382925" lon="10.3845972" version="1" timestamp="2019-01-06T12:15:00Z" changeset="66068268" uid="3497659" user="NKA">
		<tag k="name" v="Solheim" />
		<tag k="place" v="farm" />
		<tag k="ssr:stedsnr" v="608585" />
		<tag k="ssr:type" v="bruk" />
	</node>
	<node id="6187712580" lat="59.3677611" lon="10.4454778" version="1" timestamp="2019-01-06T12:15:00Z" changeset="66068268" uid="3497659" user="NKA">
		<tag k="alt_name" v="Vestmanrød" />
		<tag k="name" v="Vestmannrød" />
		<tag k="place" v="farm" />
		<tag k="ssr:stedsnr" v="608601" />
		<tag k="ssr:type" v="gard" />
	</node>
	<node id="6187712581" lat="59.4306389" lon="10.4167083" version="1" timestamp="2019-01-06T12:15:00Z" changeset="66068268" uid="3497659" user="NKA">
		<tag k="name" v="Tufte" />
		<tag k="place" v="farm" />
		<tag k="ssr:stedsnr" v="608988" />
		<tag k="ssr:type" v="gard" />
	</node>
	<node id="6187712582" lat="59.4272833" lon="10.4381306" version="1" timestamp="2019-01-06T12:15:00Z" changeset="66068268" uid="3497659" user="NKA">
		<tag k="name" v="Ramsli" />
		<tag k="place" v="locality" />
		<tag k="ssr:stedsnr" v="608989" />
		<tag k="ssr:type" v="eiendom" />
	</node>
	<node id="6187712583" lat="59.400225" lon="10.4076722" version="1" timestamp="2019-01-06T12:15:00Z" changeset="66068268" uid="3497659" user="NKA">
		<tag k="name" v="Olsmyra" />
		<tag k="place" v="farm" />
		<tag k="ssr:stedsnr" v="609480" />
		<tag k="ssr:type" v="gard" />
	</node>
	<node id="6187712584" lat="59.4105305" lon="10.3558055" version="1" timestamp="2019-01-06T12:15:00Z" changeset="66068268" uid="3497659" user="NKA">
		<tag k="name" v="Kjærran" />
		<tag k="place" v="hamlet" />
		<tag k="ssr:stedsnr" v="609980" />
		<tag k="ssr:type" v="navnegard" />
	</node>
	<node id="6187715585" lat="59.4157639" lon="10.3960278" version="1" timestamp="2019-01-06T12:15:00Z" changeset="66068268" uid="3497659" user="NKA">
		<tag k="name" v="Knatten" />
		<tag k="place" v="farm" />
		<tag k="ssr:stedsnr" v="609985" />
		<tag k="ssr:type" v="gard" />
	</node>
	<node id="6187715586" lat="59.4191139" lon="10.3896778" version="1" timestamp="2019-01-06T12:15:00Z" changeset="66068268" uid="3497659" user="NKA">
		<tag k="name" v="Ramberg" />
		<tag k="place" v="farm" />
		<tag k="ssr:stedsnr" v="631832" />
		<tag k="ssr:type" v="bruk" />
	</node>
	<node id="6187715587" lat="59.4316483" lon="10.3914753" version="1" timestamp="2019-01-06T12:15:00Z" changeset="66068268" uid="3497659" user="NKA">
		<tag k="name" v="Skåne nordre" />
		<tag k="place" v="farm" />
		<tag k="ssr:stedsnr" v="631862" />
		<tag k="ssr:type" v="gard" />
	</node>
	<node id="6187715588" lat="59.4418833" lon="10.3939806" version="1" timestamp="2019-01-06T12:15:00Z" changeset="66068268" uid="3497659" user="NKA">
		<tag k="name" v="Veggestua" />
		<tag k="place" v="farm" />
		<tag k="ssr:stedsnr" v="634085" />
		<tag k="ssr:type" v="bruk" />
	</node>
	<node id="6187715589" lat="59.4248444" lon="10.4664972" version="1" timestamp="2019-01-06T12:15:00Z" changeset="66068268" uid="3497659" user="NKA">
		<tag k="name" v="Keisermarka" />
		<tag k="place" v="neighbourhood" />
		<tag k="ssr:stedsnr" v="647518" />
		<tag k="ssr:type" v="tettbebyggelse" />
	</node>
	<node id="6187715590" lat="59.4344333" lon="10.4539528" version="1" timestamp="2019-01-06T12:15:01Z" changeset="66068268" uid="3497659" user="NKA">
		<tag k="name" v="Kjølhalskogen" />
		<tag k="place" v="neighbourhood" />
		<tag k="ssr:stedsnr" v="662687" />
		<tag k="ssr:type" v="boligfelt" />
	</node>
	<node id="6187715591" lat="59.3709806" lon="10.4569194" version="1" timestamp="2019-01-06T12:15:01Z" changeset="66068268" uid="3497659" user="NKA">
		<tag k="name" v="Mastebakke" />
		<tag k="place" v="neighbourhood" />
		<tag k="ssr:stedsnr" v="662689" />
		<tag k="ssr:type" v="boligfelt" />
	</node>
	<node id="6187715592" lat="59.35225" lon="10.4629417" version="1" timestamp="2019-01-06T12:15:01Z" changeset="66068268" uid="3497659" user="NKA">
		<tag k="name" v="Damåsen" />
		<tag k="place" v="neighbourhood" />
		<tag k="ssr:stedsnr" v="662708" />
		<tag k="ssr:type" v="boligfelt" />
	</node>
	<node id="6187715593" lat="59.42235" lon="10.4427" version="1" timestamp="2019-01-06T12:15:01Z" changeset="66068268" uid="3497659" user="NKA">
		<tag k="name" v="Kongsten" />
		<tag k="place" v="farm" />
		<tag k="ssr:stedsnr" v="664966" />
		<tag k="ssr:type" v="bruk" />
	</node>
	<node id="6187715594" lat="59.3681667" lon="10.4149472" version="1" timestamp="2019-01-06T12:15:01Z" changeset="66068268" uid="3497659" user="NKA">
		<tag k="alt_name" v="Bergan nordre" />
		<tag k="name" v="Bergan" />
		<tag k="place" v="farm" />
		<tag k="ssr:stedsnr" v="669573" />
		<tag k="ssr:type" v="gard" />
	</node>
	<node id="6187715595" lat="59.4285033" lon="10.3940648" version="1" timestamp="2019-01-06T12:15:01Z" changeset="66068268" uid="3497659" user="NKA">
		<tag k="name" v="Skåne søndre" />
		<tag k="place" v="farm" />
		<tag k="ssr:stedsnr" v="669992" />
		<tag k="ssr:type" v="gard" />
	</node>
	<node id="6187715596" lat="59.4308971" lon="10.3547517" version="1" timestamp="2019-01-06T12:15:01Z" changeset="66068268" uid="3497659" user="NKA">
		<tag k="alt_name" v="Ås øvre;Ås" />
		<tag k="name" v="Øvre Ås" />
		<tag k="place" v="farm" />
		<tag k="ssr:stedsnr" v="669993" />
		<tag k="ssr:type" v="gard" />
	</node>
	<node id="6187715597" lat="59.4302571" lon="10.3948725" version="1" timestamp="2019-01-06T12:15:01Z" changeset="66068268" uid="3497659" user="NKA">
		<tag k="name" v="Skåne" />
		<tag k="place" v="hamlet" />
		<tag k="ssr:stedsnr" v="984711" />
		<tag k="ssr:type" v="navnegard" />
	</node>
	<node id="6187715598" lat="59.435496" lon="10.3933619" version="1" timestamp="2019-01-06T12:15:01Z" changeset="66068268" uid="3497659" user="NKA">
		<tag k="name" v="Såteskogen" />
		<tag k="place" v="locality" />
		<tag k="ssr:stedsnr" v="984712" />
		<tag k="ssr:type" v="eiendom" />
	</node>
	<node id="6187715599" lat="59.4224073" lon="10.3752148" version="1" timestamp="2019-01-06T12:15:01Z" changeset="66068268" uid="3497659" user="NKA">
		<tag k="name" v="Sletterød" />
		<tag k="place" v="farm" />
		<tag k="ssr:stedsnr" v="669996" />
		<tag k="ssr:type" v="gard" />
	</node>
	<node id="6187715600" lat="59.3918611" lon="10.394875" version="1" timestamp="2019-01-06T12:15:01Z" changeset="66068268" uid="3497659" user="NKA">
		<tag k="name" v="Løs" />
		<tag k="place" v="farm" />
		<tag k="ssr:stedsnr" v="670487" />
		<tag k="ssr:type" v="gard" />
	</node>
	<node id="6187715601" lat="59.4355211" lon="10.4143306" version="1" timestamp="2019-01-06T12:15:01Z" changeset="66068268" uid="3497659" user="NKA">
		<tag k="name" v="Vegge" />
		<tag k="place" v="hamlet" />
		<tag k="ssr:stedsnr" v="984714" />
		<tag k="ssr:type" v="navnegard" />
	</node>
	<node id="6187715602" lat="59.4300144" lon="10.4880749" version="1" timestamp="2019-01-06T12:15:01Z" changeset="66068268" uid="3497659" user="NKA">
		<tag k="name" v="Orlogshavna" />
		<tag k="natural" v="bay" />
		<tag k="ssr:stedsnr" v="986009" />
		<tag k="ssr:type" v="militærtByggAnlegg" />
	</node>
	<node id="6187715603" lat="59.3935194" lon="10.4618805" version="1" timestamp="2019-01-06T12:15:01Z" changeset="66068268" uid="3497659" user="NKA">
		<tag k="name" v="Røre" />
		<tag k="place" v="farm" />
		<tag k="ssr:stedsnr" v="2545" />
		<tag k="ssr:type" v="gard" />
	</node>
	<node id="6187715604" lat="59.3922525" lon="10.4652655" version="1" timestamp="2019-01-06T12:15:01Z" changeset="66068268" uid="3497659" user="NKA">
		<tag k="name" v="Eik" />
		<tag k="place" v="farm" />
		<tag k="ssr:stedsnr" v="692845" />
		<tag k="ssr:type" v="bruk" />
	</node>
	<node id="6187715605" lat="59.3766583" lon="10.4258528" version="1" timestamp="2019-01-06T12:15:02Z" changeset="66068268" uid="3497659" user="NKA">
		<tag k="name" v="Lørge" />
		<tag k="place" v="farm" />
		<tag k="ssr:stedsnr" v="2567" />
		<tag k="ssr:type" v="gard" />
	</node>
	<node id="6187715606" lat="59.4321611" lon="10.4477694" version="1" timestamp="2019-01-06T12:15:02Z" changeset="66068268" uid="3497659" user="NKA">
		<tag k="name" v="Orerønningen" />
		<tag k="place" v="isolated_dwelling" />
		<tag k="ssr:stedsnr" v="2932" />
		<tag k="ssr:type" v="eneboligMindreBoligbygg" />
	</node>
	<node id="6187715607" lat="59.4395278" lon="10.3780445" version="1" timestamp="2019-01-06T12:15:02Z" changeset="66068268" uid="3497659" user="NKA">
		<tag k="name" v="Frebergsvik" />
		<tag k="place" v="neighbourhood" />
		<tag k="ssr:stedsnr" v="2936" />
		<tag k="ssr:type" v="hyttefelt" />
	</node>
	<node id="6187715608" lat="59.3662777" lon="10.403588" version="1" timestamp="2019-01-06T12:15:02Z" changeset="66068268" uid="3497659" user="NKA">
		<tag k="name" v="Adal nordre" />
		<tag k="place" v="farm" />
		<tag k="ssr:stedsnr" v="695392" />
		<tag k="ssr:type" v="gard" />
	</node>
	<node id="6187715609" lat="59.4193889" lon="10.4412667" version="1" timestamp="2019-01-06T12:15:02Z" changeset="66068268" uid="3497659" user="NKA">
		<tag k="name" v="Knutsrød" />
		<tag k="place" v="farm" />
		<tag k="ssr:stedsnr" v="2975" />
		<tag k="ssr:type" v="gard" />
	</node>
	<node id="6187715610" lat="59.4194167" lon="10.3973139" version="1" timestamp="2019-01-06T12:15:02Z" changeset="66068268" uid="3497659" user="NKA">
		<tag k="name" v="Grette" />
		<tag k="place" v="farm" />
		<tag k="ssr:stedsnr" v="2980" />
		<tag k="ssr:type" v="bruk" />
	</node>
	<node id="6187715611" lat="59.3562635" lon="10.3936495" version="1" timestamp="2019-01-06T12:15:02Z" changeset="66068268" uid="3497659" user="NKA">
		<tag k="name" v="Tangsrød" />
		<tag k="place" v="locality" />
		<tag k="ssr:stedsnr" v="695402" />
		<tag k="ssr:type" v="gammelBosettingsplass" />
	</node>
	<node id="6187715612" lat="59.3690583" lon="10.4253222" version="1" timestamp="2019-01-06T12:15:02Z" changeset="66068268" uid="3497659" user="NKA">
		<tag k="name" v="Kimestad" />
		<tag k="place" v="farm" />
		<tag k="ssr:stedsnr" v="9665" />
		<tag k="ssr:type" v="gard" />
	</node>
	<node id="6187715613" lat="59.4166861" lon="10.33985" version="1" timestamp="2019-01-06T12:15:02Z" changeset="66068268" uid="3497659" user="NKA">
		<tag k="name" v="Askim" />
		<tag k="place" v="farm" />
		<tag k="ssr:stedsnr" v="695832" />
		<tag k="ssr:type" v="bruk" />
	</node>
	<node id="6187715614" lat="59.4315056" lon="10.3616583" version="1" timestamp="2019-01-06T12:15:02Z" changeset="66068268" uid="3497659" user="NKA">
		<tag k="name" v="Bollerud" />
		<tag k="place" v="locality" />
		<tag k="ssr:stedsnr" v="695836" />
		<tag k="ssr:type" v="eiendom" />
	</node>
	<node id="6187715615" lat="59.3675417" lon="10.4019639" version="1" timestamp="2019-01-06T12:15:02Z" changeset="66068268" uid="3497659" user="NKA">
		<tag k="name" v="Augedal" />
		<tag k="place" v="farm" />
		<tag k="ssr:stedsnr" v="696971" />
		<tag k="ssr:type" v="bruk" />
	</node>
	<node id="6187715616" lat="59.38705" lon="10.4315667" version="1" timestamp="2019-01-06T12:15:02Z" changeset="66068268" uid="3497659" user="NKA">
		<tag k="name" v="Sande østre" />
		<tag k="place" v="farm" />
		<tag k="ssr:stedsnr" v="25839" />
		<tag k="ssr:type" v="gard" />
	</node>
	<node id="6187715617" lat="59.3547472" lon="10.4588278" version="1" timestamp="2019-01-06T12:15:02Z" changeset="66068268" uid="3497659" user="NKA">
		<tag k="name" v="Koterød" />
		<tag k="place" v="isolated_dwelling" />
		<tag k="ssr:stedsnr" v="723772" />
		<tag k="ssr:type" v="eneboligMindreBoligbygg" />
	</node>
	<node id="6187715618" lat="59.4125667" lon="10.4001222" version="1" timestamp="2019-01-06T12:15:02Z" changeset="66068268" uid="3497659" user="NKA">
		<tag k="name" v="Guttulfsrød" />
		<tag k="place" v="farm" />
		<tag k="ssr:stedsnr" v="730529" />
		<tag k="ssr:type" v="gard" />
	</node>
	<node id="6187715619" lat="59.3600917" lon="10.4261972" version="1" timestamp="2019-01-06T12:15:02Z" changeset="66068268" uid="3497659" user="NKA">
		<tag k="name" v="Dal" />
		<tag k="place" v="farm" />
		<tag k="ssr:stedsnr" v="28406" />
		<tag k="ssr:type" v="gard" />
	</node>
	<node id="6187715620" lat="59.3793639" lon="10.3893111" version="1" timestamp="2019-01-06T12:15:02Z" changeset="66068268" uid="3497659" user="NKA">
		<tag k="name" v="Råen" />
		<tag k="place" v="farm" />
		<tag k="ssr:stedsnr" v="730589" />
		<tag k="ssr:type" v="gard" />
	</node>
	<node id="6187715621" lat="59.3549194" lon="10.4110917" version="1" timestamp="2019-01-06T12:15:03Z" changeset="66068268" uid="3497659" user="NKA">
		<tag k="alt_name" v="Sti, nordre;Sti nedre" />
		<tag k="name" v="Nordre Sti" />
		<tag k="place" v="farm" />
		<tag k="ssr:stedsnr" v="730620" />
		<tag k="ssr:type" v="bruk" />
	</node>
	<node id="6187715622" lat="59.4118861" lon="10.3548111" version="1" timestamp="2019-01-06T12:15:03Z" changeset="66068268" uid="3497659" user="NKA">
		<tag k="alt_name" v="Øvre Kjæran" />
		<tag k="name" v="Kjærran øvre" />
		<tag k="place" v="farm" />
		<tag k="ssr:stedsnr" v="32819" />
		<tag k="ssr:type" v="gard" />
	</node>
	<node id="6187715623" lat="59.4168583" lon="10.3623167" version="1" timestamp="2019-01-06T12:15:03Z" changeset="66068268" uid="3497659" user="NKA">
		<tag k="name" v="Eiketuft" />
		<tag k="place" v="farm" />
		<tag k="ssr:stedsnr" v="730977" />
		<tag k="ssr:type" v="gard" />
	</node>
	<node id="6187715624" lat="59.4000278" lon="10.4307972" version="1" timestamp="2019-01-06T12:15:03Z" changeset="66068268" uid="3497659" user="NKA">
		<tag k="name" v="Eikelund" />
		<tag k="place" v="farm" />
		<tag k="ssr:stedsnr" v="731476" />
		<tag k="ssr:type" v="bruk" />
	</node>
	<node id="6187715625" lat="59.3489323" lon="10.4574089" version="1" timestamp="2019-01-06T12:15:03Z" changeset="66068268" uid="3497659" user="NKA">
		<tag k="name" v="Nygård" />
		<tag k="place" v="quarter" />
		<tag k="ssr:stedsnr" v="753803" />
		<tag k="ssr:type" v="boligfelt" />
	</node>
	<node id="6187715626" lat="59.4188389" lon="10.4232583" version="1" timestamp="2019-01-06T12:15:03Z" changeset="66068268" uid="3497659" user="NKA">
		<tag k="name" v="Vik søndre" />
		<tag k="place" v="farm" />
		<tag k="ssr:stedsnr" v="753809" />
		<tag k="ssr:type" v="gard" />
	</node>
	<node id="6187715627" lat="59.4384861" lon="10.4366" version="1" timestamp="2019-01-06T12:15:03Z" changeset="66068268" uid="3497659" user="NKA">
		<tag k="name" v="Skavli" />
		<tag k="place" v="neighbourhood" />
		<tag k="ssr:stedsnr" v="55637" />
		<tag k="ssr:type" v="boligfelt" />
	</node>
	<node id="6187715628" lat="59.4289139" lon="10.37955" version="1" timestamp="2019-01-06T12:15:03Z" changeset="66068268" uid="3497659" user="NKA">
		<tag k="name" v="Nøklegård nedre" />
		<tag k="place" v="farm" />
		<tag k="ssr:stedsnr" v="755838" />
		<tag k="ssr:type" v="gard" />
	</node>
	<node id="6187715629" lat="59.3442694" lon="10.468575" version="1" timestamp="2019-01-06T12:15:03Z" changeset="66068268" uid="3497659" user="NKA">
		<tag k="alt_name" v="Stang" />
		<tag k="name" v="Store Stang" />
		<tag k="place" v="farm" />
		<tag k="ssr:stedsnr" v="63599" />
		<tag k="ssr:type" v="gard" />
	</node>
	<node id="6187715630" lat="59.4431417" lon="10.3600945" version="1" timestamp="2019-01-06T12:15:03Z" changeset="66068268" uid="3497659" user="NKA">
		<tag k="name" v="Haug" />
		<tag k="place" v="farm" />
		<tag k="ssr:stedsnr" v="63947" />
		<tag k="ssr:type" v="gard" />
	</node>
	<node id="6187715631" lat="59.3656861" lon="10.4169389" version="1" timestamp="2019-01-06T12:15:03Z" changeset="66068268" uid="3497659" user="NKA">
		<tag k="name" v="Bergan søndre" />
		<tag k="place" v="farm" />
		<tag k="ssr:stedsnr" v="756374" />
		<tag k="ssr:type" v="bruk" />
	</node>
	<node id="6187715632" lat="59.3536688" lon="10.4376509" version="1" timestamp="2019-01-06T12:15:03Z" changeset="66068268" uid="3497659" user="NKA">
		<tag k="name" v="Gamle Ra skole" />
		<tag k="place" v="locality" />
		<tag k="ssr:stedsnr" v="86811" />
		<tag k="ssr:type" v="skole" />
	</node>
	<node id="6187715633" lat="59.3999872" lon="10.4623834" version="1" timestamp="2019-01-06T12:15:03Z" changeset="66068268" uid="3497659" user="NKA">
		<tag k="name" v="Tveiten" />
		<tag k="place" v="farm" />
		<tag k="ssr:stedsnr" v="791507" />
		<tag k="ssr:type" v="gard" />
	</node>
	<node id="6187715634" lat="59.3794833" lon="10.4441722" version="1" timestamp="2019-01-06T12:15:03Z" changeset="66068268" uid="3497659" user="NKA">
		<tag k="alt_name" v="Glenne østre;Nedre Glenne" />
		<tag k="name" v="Glenne" />
		<tag k="place" v="farm" />
		<tag k="ssr:stedsnr" v="791536" />
		<tag k="ssr:type" v="gard" />
	</node>
	<node id="6187715635" lat="59.3519528" lon="10.394275" version="1" timestamp="2019-01-06T12:15:03Z" changeset="66068268" uid="3497659" user="NKA">
		<tag k="name" v="Tangsrød" />
		<tag k="place" v="isolated_dwelling" />
		<tag k="ssr:stedsnr" v="791560" />
		<tag k="ssr:type" v="fritidsbolig" />
	</node>
	<node id="6187715636" lat="59.4387111" lon="10.4390222" version="1" timestamp="2019-01-06T12:15:04Z" changeset="66068268" uid="3497659" user="NKA">
		<tag k="name" v="Møllestua" />
		<tag k="place" v="isolated_dwelling" />
		<tag k="ssr:stedsnr" v="87862" />
		<tag k="ssr:type" v="fritidsbolig" />
	</node>
	<node id="6187715637" lat="59.3763194" lon="10.3784444" version="1" timestamp="2019-01-06T12:15:04Z" changeset="66068268" uid="3497659" user="NKA">
		<tag k="name" v="Steinbjørnrød" />
		<tag k="place" v="farm" />
		<tag k="ssr:stedsnr" v="88697" />
		<tag k="ssr:type" v="bruk" />
	</node>
	<node id="6187715638" lat="59.4114008" lon="10.3577005" version="1" timestamp="2019-01-06T12:15:04Z" changeset="66068268" uid="3497659" user="NKA">
		<tag k="name" v="Kjærran nedre" />
		<tag k="place" v="farm" />
		<tag k="ssr:stedsnr" v="88804" />
		<tag k="ssr:type" v="gard" />
	</node>
	<node id="6187715639" lat="59.4370265" lon="10.3694857" version="1" timestamp="2019-01-06T12:15:04Z" changeset="66068268" uid="3497659" user="NKA">
		<tag k="name" v="Freberg søndre" />
		<tag k="place" v="farm" />
		<tag k="ssr:stedsnr" v="88816" />
		<tag k="ssr:type" v="gard" />
	</node>
	<node id="6187715640" lat="59.4015778" lon="10.3715417" version="1" timestamp="2019-01-06T12:15:04Z" changeset="66068268" uid="3497659" user="NKA">
		<tag k="name" v="Bergan" />
		<tag k="place" v="farm" />
		<tag k="ssr:stedsnr" v="816849" />
		<tag k="ssr:type" v="gard" />
	</node>
	<node id="6187715641" lat="59.3752333" lon="10.4116583" version="1" timestamp="2019-01-06T12:15:04Z" changeset="66068268" uid="3497659" user="NKA">
		<tag k="name" v="Pjonkerød nordre" />
		<tag k="place" v="farm" />
		<tag k="ssr:stedsnr" v="89406" />
		<tag k="ssr:type" v="bruk" />
	</node>
	<node id="6187715642" lat="59.4393333" lon="10.3695222" version="1" timestamp="2019-01-06T12:15:04Z" changeset="66068268" uid="3497659" user="NKA">
		<tag k="name" v="Freberg" />
		<tag k="place" v="hamlet" />
		<tag k="ssr:stedsnr" v="816855" />
		<tag k="ssr:type" v="navnegard" />
	</node>
	<node id="6187715643" lat="59.357875" lon="10.4135389" version="1" timestamp="2019-01-06T12:15:04Z" changeset="66068268" uid="3497659" user="NKA">
		<tag k="name" v="Adal søndre" />
		<tag k="place" v="farm" />
		<tag k="ssr:stedsnr" v="89415" />
		<tag k="ssr:type" v="gard" />
	</node>
	<node id="6187715644" lat="59.4335889" lon="10.3776278" version="1" timestamp="2019-01-06T12:15:04Z" changeset="66068268" uid="3497659" user="NKA">
		<tag k="name" v="Tveitan" />
		<tag k="place" v="farm" />
		<tag k="ssr:stedsnr" v="95563" />
		<tag k="ssr:type" v="bruk" />
	</node>
	<node id="6187715646" lat="59.4004778" lon="10.43185" version="1" timestamp="2019-01-06T12:15:04Z" changeset="66068268" uid="3497659" user="NKA">
		<tag k="name" v="Ødegården" />
		<tag k="place" v="farm" />
		<tag k="ssr:stedsnr" v="123559" />
		<tag k="ssr:type" v="bruk" />
	</node>
	<node id="6187715647" lat="59.4338472" lon="10.4181194" version="1" timestamp="2019-01-06T12:15:04Z" changeset="66068268" uid="3497659" user="NKA">
		<tag k="alt_name" v="Vegge;Vegge søndre" />
		<tag k="name" v="Søndre Vegge" />
		<tag k="place" v="farm" />
		<tag k="ssr:stedsnr" v="123953" />
		<tag k="ssr:type" v="gard" />
	</node>
	<node id="6187715648" lat="59.4342333" lon="10.4024028" version="1" timestamp="2019-01-06T12:15:04Z" changeset="66068268" uid="3497659" user="NKA">
		<tag k="name" v="Åsen" />
		<tag k="place" v="farm" />
		<tag k="ssr:stedsnr" v="123954" />
		<tag k="ssr:type" v="gard" />
	</node>
	<node id="6187715649" lat="59.3782376" lon="10.4016445" version="1" timestamp="2019-01-06T12:15:04Z" changeset="66068268" uid="3497659" user="NKA">
		<tag k="name" v="Viulsrød" />
		<tag k="place" v="farm" />
		<tag k="ssr:stedsnr" v="817391" />
		<tag k="ssr:type" v="gard" />
	</node>
	<node id="6187715650" lat="59.4172278" lon="10.4010472" version="1" timestamp="2019-01-06T12:15:04Z" changeset="66068268" uid="3497659" user="NKA">
		<tag k="name" v="Skreppedal" />
		<tag k="place" v="farm" />
		<tag k="ssr:stedsnr" v="123981" />
		<tag k="ssr:type" v="gard" />
	</node>
	<node id="6187715651" lat="59.3684389" lon="10.46005" version="1" timestamp="2019-01-06T12:15:05Z" changeset="66068268" uid="3497659" user="NKA">
		<tag k="name" v="Fuglesangen" />
		<tag k="place" v="locality" />
		<tag k="ssr:stedsnr" v="817837" />
		<tag k="ssr:type" v="gammelBosettingsplass" />
	</node>
	<node id="6187715652" lat="59.388125" lon="10.4172417" version="1" timestamp="2019-01-06T12:15:05Z" changeset="66068268" uid="3497659" user="NKA">
		<tag k="name" v="Skoppum" />
		<tag k="place" v="farm" />
		<tag k="ssr:stedsnr" v="124469" />
		<tag k="ssr:type" v="gard" />
	</node>
	<node id="6187715653" lat="59.3928167" lon="10.3860056" version="1" timestamp="2019-01-06T12:15:05Z" changeset="66068268" uid="3497659" user="NKA">
		<tag k="name" v="Gusland søndre" />
		<tag k="place" v="farm" />
		<tag k="ssr:stedsnr" v="124473" />
		<tag k="ssr:type" v="gard" />
	</node>
	<node id="6187715654" lat="59.3873194" lon="10.3962417" version="1" timestamp="2019-01-06T12:15:05Z" changeset="66068268" uid="3497659" user="NKA">
		<tag k="name" v="Løvås" />
		<tag k="place" v="farm" />
		<tag k="ssr:stedsnr" v="124474" />
		<tag k="ssr:type" v="bruk" />
	</node>
	<node id="6187715655" lat="59.4348056" lon="10.4470028" version="1" timestamp="2019-01-06T12:15:05Z" changeset="66068268" uid="3497659" user="NKA">
		<tag k="name" v="Evjeåsen" />
		<tag k="place" v="neighbourhood" />
		<tag k="ssr:stedsnr" v="844682" />
		<tag k="ssr:type" v="boligfelt" />
	</node>
	<node id="6187715656" lat="59.3920194" lon="10.4313917" version="1" timestamp="2019-01-06T12:15:05Z" changeset="66068268" uid="3497659" user="NKA">
		<tag k="alt_name" v="Kjær, nordre" />
		<tag k="name" v="Nordre Kjær" />
		<tag k="place" v="farm" />
		<tag k="ssr:stedsnr" v="124479" />
		<tag k="ssr:type" v="gard" />
	</node>
	<node id="6187715657" lat="59.3815228" lon="10.438275" version="1" timestamp="2019-01-06T12:15:05Z" changeset="66068268" uid="3497659" user="NKA">
		<tag k="name" v="Borre" />
		<tag k="place" v="farm" />
		<tag k="ssr:stedsnr" v="852540" />
		<tag k="ssr:type" v="bruk" />
	</node>
	<node id="6187715658" lat="59.3471472" lon="10.448025" version="1" timestamp="2019-01-06T12:15:05Z" changeset="66068268" uid="3497659" user="NKA">
		<tag k="name" v="Mellombanen" />
		<tag k="place" v="locality" />
		<tag k="ssr:stedsnr" v="146783" />
		<tag k="ssr:type" v="idrettsanlegg" />
	</node>
	<node id="6187715659" lat="59.3690833" lon="10.4048722" version="1" timestamp="2019-01-06T12:15:05Z" changeset="66068268" uid="3497659" user="NKA">
		<tag k="name" v="Skogly" />
		<tag k="place" v="farm" />
		<tag k="ssr:stedsnr" v="852550" />
		<tag k="ssr:type" v="bruk" />
	</node>
	<node id="6187715660" lat="59.4445361" lon="10.353925" version="1" timestamp="2019-01-06T12:15:05Z" changeset="66068268" uid="3497659" user="NKA">
		<tag k="name" v="Tangen" />
		<tag k="place" v="farm" />
		<tag k="ssr:stedsnr" v="852943" />
		<tag k="ssr:type" v="gard" />
	</node>
	<node id="6187715661" lat="59.3509472" lon="10.4582805" version="1" timestamp="2019-01-06T12:15:05Z" changeset="66068268" uid="3497659" user="NKA">
		<tag k="name" v="Nygård" />
		<tag k="place" v="farm" />
		<tag k="ssr:stedsnr" v="146786" />
		<tag k="ssr:type" v="gard" />
	</node>
	<node id="6187715662" lat="59.4063333" lon="10.3903611" version="1" timestamp="2019-01-06T12:15:05Z" changeset="66068268" uid="3497659" user="NKA">
		<tag k="name" v="Føske" />
		<tag k="place" v="farm" />
		<tag k="ssr:stedsnr" v="852963" />
		<tag k="ssr:type" v="gard" />
	</node>
	<node id="6187715663" lat="59.422075" lon="10.42215" version="1" timestamp="2019-01-06T12:15:05Z" changeset="66068268" uid="3497659" user="NKA">
		<tag k="alt_name" v="Vik" />
		<tag k="name" v="Vik nordre" />
		<tag k="place" v="farm" />
		<tag k="ssr:stedsnr" v="852990" />
		<tag k="ssr:type" v="gard" />
	</node>
	<node id="6187715664" lat="59.3822167" lon="10.4089576" version="1" timestamp="2019-01-06T12:15:05Z" changeset="66068268" uid="3497659" user="NKA">
		<tag k="name" v="Tokerød" />
		<tag k="place" v="quarter" />
		<tag k="ssr:stedsnr" v="146811" />
		<tag k="ssr:type" v="boligfelt" />
	</node>
	<node id="6187715665" lat="59.4257028" lon="10.3940306" version="1" timestamp="2019-01-06T12:15:05Z" changeset="66068268" uid="3497659" user="NKA">
		<tag k="name" v="Utheim" />
		<tag k="place" v="farm" />
		<tag k="ssr:stedsnr" v="852994" />
		<tag k="ssr:type" v="bruk" />
	</node>
	<node id="6187715666" lat="59.3576556" lon="10.44645" version="1" timestamp="2019-01-06T12:15:05Z" changeset="66068268" uid="3497659" user="NKA">
		<tag k="name" v="Kirkenga" />
		<tag k="place" v="farm" />
		<tag k="ssr:stedsnr" v="874807" />
		<tag k="ssr:type" v="bruk" />
	</node>
	<node id="6187715667" lat="59.3591639" lon="10.4403889" version="1" timestamp="2019-01-06T12:15:06Z" changeset="66068268" uid="3497659" user="NKA">
		<tag k="name" v="Furuhaug" />
		<tag k="place" v="farm" />
		<tag k="ssr:stedsnr" v="874812" />
		<tag k="ssr:type" v="bruk" />
	</node>
	<node id="6187715668" lat="59.3824022" lon="10.4585809" version="1" timestamp="2019-01-06T12:15:06Z" changeset="66068268" uid="3497659" user="NKA">
		<tag k="name" v="Kirkebakken" />
		<tag k="place" v="neighbourhood" />
		<tag k="ssr:stedsnr" v="874845" />
		<tag k="ssr:type" v="boligfelt" />
	</node>
	<node id="6187715669" lat="59.3788198" lon="10.4597119" version="1" timestamp="2019-01-06T12:15:06Z" changeset="66068268" uid="3497659" user="NKA">
		<tag k="name" v="Hallingstad" />
		<tag k="place" v="neighbourhood" />
		<tag k="ssr:stedsnr" v="180671" />
		<tag k="ssr:type" v="boligfelt" />
	</node>
	<node id="6187715670" lat="59.3525083" lon="10.4536778" version="1" timestamp="2019-01-06T12:15:06Z" changeset="66068268" uid="3497659" user="NKA">
		<tag k="alt_name" v="Åsgarden" />
		<tag k="name" v="Åsgården" />
		<tag k="place" v="farm" />
		<tag k="ssr:stedsnr" v="184580" />
		<tag k="ssr:type" v="bruk" />
	</node>
	<node id="6187715671" lat="59.4209028" lon="10.34225" version="1" timestamp="2019-01-06T12:15:06Z" changeset="66068268" uid="3497659" user="NKA">
		<tag k="name" v="Bakke" />
		<tag k="place" v="farm" />
		<tag k="ssr:stedsnr" v="913130" />
		<tag k="ssr:type" v="bruk" />
	</node>
	<node id="6187715672" lat="59.4061417" lon="10.3650389" version="1" timestamp="2019-01-06T12:15:06Z" changeset="66068268" uid="3497659" user="NKA">
		<tag k="name" v="Pauli" />
		<tag k="place" v="farm" />
		<tag k="ssr:stedsnr" v="913974" />
		<tag k="ssr:type" v="bruk" />
	</node>
	<node id="6187715673" lat="59.3925556" lon="10.4094195" version="1" timestamp="2019-01-06T12:15:06Z" changeset="66068268" uid="3497659" user="NKA">
		<tag k="name" v="Jahrelunden" />
		<tag k="place" v="farm" />
		<tag k="ssr:stedsnr" v="184533" />
		<tag k="ssr:type" v="bruk" />
	</node>
	<node id="6187715674" lat="59.4143361" lon="10.4193472" version="1" timestamp="2019-01-06T12:15:06Z" changeset="66068268" uid="3497659" user="NKA">
		<tag k="name" v="Haukeli" />
		<tag k="place" v="farm" />
		<tag k="ssr:stedsnr" v="913981" />
		<tag k="ssr:type" v="gard" />
	</node>
	<node id="6187715675" lat="59.4170556" lon="10.3911611" version="1" timestamp="2019-01-06T12:15:06Z" changeset="66068268" uid="3497659" user="NKA">
		<tag k="name" v="Prestegården" />
		<tag k="place" v="farm" />
		<tag k="ssr:stedsnr" v="913984" />
		<tag k="ssr:type" v="gard" />
	</node>
	<node id="6187715676" lat="59.4132083" lon="10.3855167" version="1" timestamp="2019-01-06T12:15:06Z" changeset="66068268" uid="3497659" user="NKA">
		<tag k="name" v="Austad" />
		<tag k="place" v="farm" />
		<tag k="ssr:stedsnr" v="913986" />
		<tag k="ssr:type" v="gard" />
	</node>
	<node id="6187715677" lat="59.3525972" lon="10.4390528" version="1" timestamp="2019-01-06T12:15:06Z" changeset="66068268" uid="3497659" user="NKA">
		<tag k="name" v="Kjær" />
		<tag k="place" v="farm" />
		<tag k="ssr:stedsnr" v="935807" />
		<tag k="ssr:type" v="bruk" />
	</node>
	<node id="6187715678" lat="59.4133247" lon="10.3659559" version="1" timestamp="2019-01-06T12:15:06Z" changeset="66068268" uid="3497659" user="NKA">
		<tag k="name" v="Moskvil" />
		<tag k="place" v="hamlet" />
		<tag k="ssr:stedsnr" v="184974" />
		<tag k="ssr:type" v="gard" />
	</node>
	<node id="6187715679" lat="59.4203556" lon="10.42065" version="1" timestamp="2019-01-06T12:15:06Z" changeset="66068268" uid="3497659" user="NKA">
		<tag k="name" v="Vik mellom" />
		<tag k="place" v="farm" />
		<tag k="ssr:stedsnr" v="935818" />
		<tag k="ssr:type" v="bruk" />
	</node>
	<node id="6187715680" lat="59.3852157" lon="10.4034111" version="1" timestamp="2019-01-06T12:15:06Z" changeset="66068268" uid="3497659" user="NKA">
		<tag k="name" v="Reir" />
		<tag k="place" v="quarter" />
		<tag k="ssr:stedsnr" v="207830" />
		<tag k="ssr:type" v="bruk" />
	</node>
	<node id="6187715681" lat="59.3997333" lon="10.4111639" version="1" timestamp="2019-01-06T12:15:07Z" changeset="66068268" uid="3497659" user="NKA">
		<tag k="name" v="Rygland østre" />
		<tag k="place" v="farm" />
		<tag k="ssr:stedsnr" v="935826" />
		<tag k="ssr:type" v="bruk" />
	</node>
	<node id="6187715682" lat="59.4005365" lon="10.425261" version="1" timestamp="2019-01-06T12:15:07Z" changeset="66068268" uid="3497659" user="NKA">
		<tag k="name" v="Solberg østre" />
		<tag k="place" v="farm" />
		<tag k="ssr:stedsnr" v="935842" />
		<tag k="ssr:type" v="gard" />
	</node>
	<node id="6187715683" lat="59.3949472" lon="10.4151583" version="1" timestamp="2019-01-06T12:15:07Z" changeset="66068268" uid="3497659" user="NKA">
		<tag k="name" v="Rygland søndre" />
		<tag k="place" v="farm" />
		<tag k="ssr:stedsnr" v="207834" />
		<tag k="ssr:type" v="bruk" />
	</node>
	<node id="6187715684" lat="59.3821822" lon="10.4372878" version="1" timestamp="2019-01-06T12:15:07Z" changeset="66068268" uid="3497659" user="NKA">
		<tag k="name" v="Glenne nedre" />
		<tag k="place" v="farm" />
		<tag k="ssr:stedsnr" v="935845" />
		<tag k="ssr:type" v="bruk" />
	</node>
	<node id="6187715685" lat="59.3787028" lon="10.5274944" version="1" timestamp="2019-01-06T12:15:07Z" changeset="66068268" uid="3497659" user="NKA">
		<tag k="name" v="Foldin" />
		<tag k="place" v="isolated_dwelling" />
		<tag k="ssr:stedsnr" v="209190" />
		<tag k="ssr:type" v="eneboligMindreBoligbygg" />
	</node>
	<node id="6187715686" lat="59.4400417" lon="10.3506639" version="1" timestamp="2019-01-06T12:15:07Z" changeset="66068268" uid="3497659" user="NKA">
		<tag k="name" v="Tangen" />
		<tag k="place" v="farm" />
		<tag k="ssr:stedsnr" v="209830" />
		<tag k="ssr:type" v="bruk" />
	</node>
	<node id="6187715687" lat="59.4237917" lon="10.386775" version="1" timestamp="2019-01-06T12:15:07Z" changeset="66068268" uid="3497659" user="NKA">
		<tag k="name" v="Myrvang" />
		<tag k="place" v="farm" />
		<tag k="ssr:stedsnr" v="937890" />
		<tag k="ssr:type" v="bruk" />
	</node>
	<node id="6187715688" lat="59.3547556" lon="10.4484139" version="1" timestamp="2019-01-06T12:15:07Z" changeset="66068268" uid="3497659" user="NKA">
		<tag k="name" v="Koterød" />
		<tag k="place" v="farm" />
		<tag k="ssr:stedsnr" v="938090" />
		<tag k="ssr:type" v="bruk" />
	</node>
	<node id="6187715689" lat="59.3609778" lon="10.4117778" version="1" timestamp="2019-01-06T12:15:07Z" changeset="66068268" uid="3497659" user="NKA">
		<tag k="name" v="Adal mellom" />
		<tag k="place" v="farm" />
		<tag k="ssr:stedsnr" v="938377" />
		<tag k="ssr:type" v="gard" />
	</node>
	<node id="6187715690" lat="59.3786896" lon="10.4387311" version="1" timestamp="2019-01-06T12:15:07Z" changeset="66068268" uid="3497659" user="NKA">
		<tag k="name" v="Glenne" />
		<tag k="place" v="hamlet" />
		<tag k="ssr:stedsnr" v="938380" />
		<tag k="ssr:type" v="navnegard" />
	</node>
	<node id="6187715691" lat="59.4304649" lon="10.3497547" version="1" timestamp="2019-01-06T12:15:07Z" changeset="66068268" uid="3497659" user="NKA">
		<tag k="alt_name" v="Ås nedre" />
		<tag k="name" v="Nedre Ås" />
		<tag k="place" v="farm" />
		<tag k="ssr:stedsnr" v="938834" />
		<tag k="ssr:type" v="gard" />
	</node>
	<node id="6187715692" lat="59.3530528" lon="10.4634333" version="1" timestamp="2019-01-06T12:15:07Z" changeset="66068268" uid="3497659" user="NKA">
		<tag k="name" v="Nygård" />
		<tag k="place" v="isolated_dwelling" />
		<tag k="ssr:stedsnr" v="948044" />
		<tag k="ssr:type" v="eneboligMindreBoligbygg" />
	</node>
	<node id="6187715693" lat="59.3480873" lon="10.4562339" version="1" timestamp="2019-01-06T12:15:07Z" changeset="66068268" uid="3497659" user="NKA">
		<tag k="name" v="Øderydningen" />
		<tag k="place" v="neighbourhood" />
		<tag k="ssr:stedsnr" v="237708" />
		<tag k="ssr:type" v="boligfelt" />
	</node>
	<node id="6187715694" lat="59.403725" lon="10.4048389" version="1" timestamp="2019-01-06T12:15:07Z" changeset="66068268" uid="3497659" user="NKA">
		<tag k="alt_name" v="Solberg vestre" />
		<tag k="name" v="Solberg" />
		<tag k="place" v="farm" />
		<tag k="ssr:stedsnr" v="245487" />
		<tag k="ssr:type" v="bruk" />
	</node>
	<node id="6187715695" lat="59.4054778" lon="10.3791139" version="1" timestamp="2019-01-06T12:15:07Z" changeset="66068268" uid="3497659" user="NKA">
		<tag k="name" v="Skaug" />
		<tag k="place" v="farm" />
		<tag k="ssr:stedsnr" v="270812" />
		<tag k="ssr:type" v="gard" />
	</node>
	<node id="6187715696" lat="59.3888639" lon="10.3853139" version="1" timestamp="2019-01-06T12:15:08Z" changeset="66068268" uid="3497659" user="NKA">
		<tag k="name" v="Kongelv" />
		<tag k="place" v="farm" />
		<tag k="ssr:stedsnr" v="245511" />
		<tag k="ssr:type" v="bruk" />
	</node>
	<node id="6187715697" lat="59.3732417" lon="10.428575" version="1" timestamp="2019-01-06T12:15:08Z" changeset="66068268" uid="3497659" user="NKA">
		<tag k="name" v="Kimestad" />
		<tag k="place" v="farm" />
		<tag k="ssr:stedsnr" v="245534" />
		<tag k="ssr:type" v="bruk" />
	</node>
	<node id="6187715698" lat="59.3703361" lon="10.4430722" version="1" timestamp="2019-01-06T12:15:08Z" changeset="66068268" uid="3497659" user="NKA">
		<tag k="name" v="Fagerlund" />
		<tag k="place" v="farm" />
		<tag k="ssr:stedsnr" v="245536" />
		<tag k="ssr:type" v="bruk" />
	</node>
	<node id="6187715699" lat="59.3683823" lon="10.3874075" version="1" timestamp="2019-01-06T12:15:08Z" changeset="66068268" uid="3497659" user="NKA">
		<tag k="name" v="Ødegården" />
		<tag k="place" v="farm" />
		<tag k="ssr:stedsnr" v="245546" />
		<tag k="ssr:type" v="gard" />
	</node>
	<node id="6187715700" lat="59.4184611" lon="10.3720639" version="1" timestamp="2019-01-06T12:15:08Z" changeset="66068268" uid="3497659" user="NKA">
		<tag k="loc_name" v="Skoppumteigen" />
		<tag k="name" v="Teigen" />
		<tag k="place" v="farm" />
		<tag k="ssr:stedsnr" v="245978" />
		<tag k="ssr:type" v="gard" />
	</node>
	<node id="6187715701" lat="59.367775" lon="10.4623972" version="1" timestamp="2019-01-06T12:15:08Z" changeset="66068268" uid="3497659" user="NKA">
		<tag k="name" v="Vestmannrød" />
		<tag k="place" v="isolated_dwelling" />
		<tag k="ssr:stedsnr" v="284047" />
		<tag k="ssr:type" v="eneboligMindreBoligbygg" />
	</node>
	<node id="6187715702" lat="59.3831972" lon="10.4639055" version="1" timestamp="2019-01-06T12:15:08Z" changeset="66068268" uid="3497659" user="NKA">
		<tag k="name" v="Prestegården" />
		<tag k="place" v="farm" />
		<tag k="ssr:stedsnr" v="305605" />
		<tag k="ssr:type" v="gard" />
	</node>
	<node id="6187715703" lat="59.3638093" lon="10.4455639" version="1" timestamp="2019-01-06T12:15:08Z" changeset="66068268" uid="3497659" user="NKA">
		<tag k="name" v="Fjugstad" />
		<tag k="place" v="hamlet" />
		<tag k="ssr:stedsnr" v="305614" />
		<tag k="ssr:type" v="gard" />
	</node>
	<node id="6187715704" lat="59.3650389" lon="10.402625" version="1" timestamp="2019-01-06T12:15:08Z" changeset="66068268" uid="3497659" user="NKA">
		<tag k="name" v="Adal vestre" />
		<tag k="place" v="farm" />
		<tag k="ssr:stedsnr" v="305619" />
		<tag k="ssr:type" v="gard" />
	</node>
	<node id="6187715705" lat="59.4249687" lon="10.3635328" version="1" timestamp="2019-01-06T12:15:08Z" changeset="66068268" uid="3497659" user="NKA">
		<tag k="name" v="Kopstad" />
		<tag k="place" v="hamlet" />
		<tag k="ssr:stedsnr" v="305992" />
		<tag k="ssr:type" v="gard" />
	</node>
	<node id="6187715706" lat="59.4250417" lon="10.4502361" version="1" timestamp="2019-01-06T12:15:08Z" changeset="66068268" uid="3497659" user="NKA">
		<tag k="name" v="Laskenlia" />
		<tag k="place" v="neighbourhood" />
		<tag k="ssr:stedsnr" v="419697" />
		<tag k="ssr:type" v="boligfelt" />
	</node>
	<node id="6187715707" lat="59.4081806" lon="10.459925" version="1" timestamp="2019-01-06T12:15:08Z" changeset="66068268" uid="3497659" user="NKA">
		<tag k="name" v="Holtan" />
		<tag k="place" v="farm" />
		<tag k="ssr:stedsnr" v="427523" />
		<tag k="ssr:type" v="bruk" />
	</node>
	<node id="6187715708" lat="59.3990904" lon="10.4209362" version="1" timestamp="2019-01-06T12:15:08Z" changeset="66068268" uid="3497659" user="NKA">
		<tag k="alt_name" v="Solberg" />
		<tag k="name" v="Mellom Solberg" />
		<tag k="place" v="farm" />
		<tag k="ssr:stedsnr" v="427528" />
		<tag k="ssr:type" v="gard" />
	</node>
	<node id="6187715709" lat="59.4082056" lon="10.4225972" version="1" timestamp="2019-01-06T12:15:08Z" changeset="66068268" uid="3497659" user="NKA">
		<tag k="name" v="Bergstad" />
		<tag k="place" v="farm" />
		<tag k="ssr:stedsnr" v="306467" />
		<tag k="ssr:type" v="bruk" />
	</node>
	<node id="6187715710" lat="59.410575" lon="10.3916111" version="1" timestamp="2019-01-06T12:15:09Z" changeset="66068268" uid="3497659" user="NKA">
		<tag k="name" v="Rønningen" />
		<tag k="place" v="farm" />
		<tag k="ssr:stedsnr" v="306469" />
		<tag k="ssr:type" v="bruk" />
	</node>
	<node id="6187715711" lat="59.3894722" lon="10.4274778" version="1" timestamp="2019-01-06T12:15:09Z" changeset="66068268" uid="3497659" user="NKA">
		<tag k="alt_name" v="Sande nordre" />
		<tag k="name" v="Sande bruk" />
		<tag k="place" v="farm" />
		<tag k="ssr:stedsnr" v="427537" />
		<tag k="ssr:type" v="gard" />
	</node>
	<node id="6187715712" lat="59.3864167" lon="10.4262944" version="1" timestamp="2019-01-06T12:15:09Z" changeset="66068268" uid="3497659" user="NKA">
		<tag k="name" v="Vestre Sande" />
		<tag k="place" v="farm" />
		<tag k="ssr:stedsnr" v="427536" />
		<tag k="ssr:type" v="gard" />
	</node>
	<node id="6187715713" lat="59.3686389" lon="10.430875" version="1" timestamp="2019-01-06T12:15:09Z" changeset="66068268" uid="3497659" user="NKA">
		<tag k="name" v="Friberg" />
		<tag k="place" v="farm" />
		<tag k="ssr:stedsnr" v="427563" />
		<tag k="ssr:type" v="gard" />
	</node>
	<node id="6187715714" lat="59.3596" lon="10.4319306" version="1" timestamp="2019-01-06T12:15:09Z" changeset="66068268" uid="3497659" user="NKA">
		<tag k="name" v="Læret" />
		<tag k="place" v="farm" />
		<tag k="ssr:stedsnr" v="427569" />
		<tag k="ssr:type" v="bruk" />
	</node>
	<node id="6187715715" lat="59.4275986" lon="10.4825923" version="1" timestamp="2019-01-06T12:15:09Z" changeset="66068268" uid="3497659" user="NKA">
		<tag k="name" v="Horten verft" />
		<tag k="place" v="locality" />
		<tag k="ssr:stedsnr" v="427926" />
		<tag k="ssr:type" v="fabrikk" />
	</node>
	<node id="6187715716" lat="59.3960222" lon="10.4562083" version="1" timestamp="2019-01-06T12:15:09Z" changeset="66068268" uid="3497659" user="NKA">
		<tag k="name" v="Semb søndre" />
		<tag k="place" v="farm" />
		<tag k="ssr:stedsnr" v="328854" />
		<tag k="ssr:type" v="gard" />
	</node>
	<node id="6187715717" lat="59.43115" lon="10.4240167" version="1" timestamp="2019-01-06T12:15:09Z" changeset="66068268" uid="3497659" user="NKA">
		<tag k="name" v="Kotterød" />
		<tag k="place" v="farm" />
		<tag k="ssr:stedsnr" v="427939" />
		<tag k="ssr:type" v="gard" />
	</node>
	<node id="6187715718" lat="59.4378361" lon="10.3709222" version="1" timestamp="2019-01-06T12:15:09Z" changeset="66068268" uid="3497659" user="NKA">
		<tag k="name" v="Rønningen" />
		<tag k="place" v="farm" />
		<tag k="ssr:stedsnr" v="331101" />
		<tag k="ssr:type" v="bruk" />
	</node>
	<node id="6187715719" lat="59.4130556" lon="10.4224056" version="1" timestamp="2019-01-06T12:15:09Z" changeset="66068268" uid="3497659" user="NKA">
		<tag k="name" v="Eikenes" />
		<tag k="place" v="farm" />
		<tag k="ssr:stedsnr" v="427971" />
		<tag k="ssr:type" v="gard" />
	</node>
	<node id="6187715720" lat="59.4190611" lon="10.3533028" version="1" timestamp="2019-01-06T12:15:09Z" changeset="66068268" uid="3497659" user="NKA">
		<tag k="alt_name" v="Vold" />
		<tag k="name" v="Voll" />
		<tag k="place" v="farm" />
		<tag k="ssr:stedsnr" v="427979" />
		<tag k="ssr:type" v="gard" />
	</node>
	<node id="6187715721" lat="59.4467583" lon="10.4406472" version="1" timestamp="2019-01-06T12:15:09Z" changeset="66068268" uid="3497659" user="NKA">
		<tag k="name" v="Vadfiskerstua" />
		<tag k="place" v="isolated_dwelling" />
		<tag k="ssr:stedsnr" v="450850" />
		<tag k="ssr:type" v="fritidsbolig" />
	</node>
	<node id="6187715722" lat="59.3922271" lon="10.4762687" version="2" timestamp="2021-01-16T14:12:01Z" changeset="97606022" uid="7223593" user="hros">
		<tag k="amenity" v="school" />
		<tag k="name" v="RS Sjøredningsskolen" />
		<tag k="old_name" v="Borre havarivernskole" />
		<tag k="ssr:stedsnr" v="451241" />
		<tag k="ssr:type" v="skole" />
		<tag k="wikidata" v="Q19388647" />
	</node>
	<node id="6187715723" lat="59.4017972" lon="10.3538917" version="1" timestamp="2019-01-06T12:15:09Z" changeset="66068268" uid="3497659" user="NKA">
		<tag k="alt_name" v="Kjettetorp" />
		<tag k="name" v="Kjettorp" />
		<tag k="place" v="farm" />
		<tag k="ssr:stedsnr" v="366525" />
		<tag k="ssr:type" v="gard" />
	</node>
	<node id="6187715724" lat="59.3943556" lon="10.3967555" version="1" timestamp="2019-01-06T12:15:09Z" changeset="66068268" uid="3497659" user="NKA">
		<tag k="name" v="Snapsrød" />
		<tag k="place" v="farm" />
		<tag k="ssr:stedsnr" v="366535" />
		<tag k="ssr:type" v="gard" />
	</node>
	<node id="6187715725" lat="59.364125" lon="10.4271833" version="1" timestamp="2019-01-06T12:15:10Z" changeset="66068268" uid="3497659" user="NKA">
		<tag k="name" v="Adal østre" />
		<tag k="place" v="farm" />
		<tag k="ssr:stedsnr" v="366577" />
		<tag k="ssr:type" v="gard" />
	</node>
	<node id="6187715726" lat="59.353575" lon="10.4474472" version="1" timestamp="2019-01-06T12:15:10Z" changeset="66068268" uid="3497659" user="NKA">
		<tag k="name" v="Snekkestad" />
		<tag k="place" v="farm" />
		<tag k="ssr:stedsnr" v="366583" />
		<tag k="ssr:type" v="bruk" />
	</node>
	<node id="6187715727" lat="59.3564389" lon="10.406775" version="1" timestamp="2019-01-06T12:15:10Z" changeset="66068268" uid="3497659" user="NKA">
		<tag k="alt_name" v="Sti, østre;Sti øvre" />
		<tag k="name" v="Østre Sti" />
		<tag k="place" v="farm" />
		<tag k="ssr:stedsnr" v="366584" />
		<tag k="ssr:type" v="bruk" />
	</node>
	<node id="6187715728" lat="59.43295" lon="10.4282639" version="1" timestamp="2019-01-06T12:15:10Z" changeset="66068268" uid="3497659" user="NKA">
		<tag k="name" v="Øvremølla" />
		<tag k="place" v="locality" />
		<tag k="ssr:stedsnr" v="366932" />
		<tag k="ssr:type" v="fabrikk" />
	</node>
	<node id="6187715729" lat="59.4314444" lon="10.4488167" version="1" timestamp="2019-01-06T12:15:10Z" changeset="66068268" uid="3497659" user="NKA">
		<tag k="name" v="Nordli" />
		<tag k="place" v="neighbourhood" />
		<tag k="ssr:stedsnr" v="480679" />
		<tag k="ssr:type" v="boligfelt" />
	</node>
	<node id="6187715730" lat="59.4297083" lon="10.3366583" version="1" timestamp="2019-01-06T12:15:10Z" changeset="66068268" uid="3497659" user="NKA">
		<tag k="alt_name" v="Bruserød" />
		<tag k="name" v="Bruserud" />
		<tag k="place" v="farm" />
		<tag k="ssr:stedsnr" v="487176" />
		<tag k="ssr:type" v="gard" />
	</node>
	<node id="6187715731" lat="59.4043556" lon="10.4073139" version="1" timestamp="2019-01-06T12:15:10Z" changeset="66068268" uid="3497659" user="NKA">
		<tag k="alt_name" v="Nordre Rygland" />
		<tag k="name" v="Ryggland" />
		<tag k="place" v="farm" />
		<tag k="ssr:stedsnr" v="487548" />
		<tag k="ssr:type" v="gard" />
	</node>
	<node id="6187715732" lat="59.3593889" lon="10.4647389" version="1" timestamp="2019-01-06T12:15:10Z" changeset="66068268" uid="3497659" user="NKA">
		<tag k="name" v="Rosenville" />
		<tag k="place" v="farm" />
		<tag k="ssr:stedsnr" v="487609" />
		<tag k="ssr:type" v="bruk" />
	</node>
	<node id="6187715733" lat="59.3662203" lon="10.4013113" version="1" timestamp="2019-01-06T12:15:10Z" changeset="66068268" uid="3497659" user="NKA">
		<tag k="name" v="Solheim" />
		<tag k="place" v="farm" />
		<tag k="ssr:stedsnr" v="487611" />
		<tag k="ssr:type" v="bruk" />
	</node>
	<node id="6190817137" lat="59.3986332" lon="10.3750475" version="1" timestamp="2019-01-07T20:37:33Z" changeset="66108879" uid="3497659" user="NKA">
		<tag k="name" v="Brekke øvre" />
		<tag k="place" v="farm" />
		<tag k="ssr:stedsnr" v="209784" />
		<tag k="ssr:type" v="bruk" />
	</node>
	<node id="6187712534" lat="59.3848131" lon="10.4049405" version="1" timestamp="2019-01-06T12:14:57Z" changeset="66068268" uid="3497659" user="NKA" />
	<node id="6187712535" lat="59.3847748" lon="10.4052705" version="1" timestamp="2019-01-06T12:14:57Z" changeset="66068268" uid="3497659" user="NKA" />
	<node id="6187712536" lat="59.3847735" lon="10.4059786" version="1" timestamp="2019-01-06T12:14:57Z" changeset="66068268" uid="3497659" user="NKA" />
	<node id="6187712537" lat="59.3850357" lon="10.4059732" version="1" timestamp="2019-01-06T12:14:57Z" changeset="66068268" uid="3497659" user="NKA" />
	<node id="6187712538" lat="59.385119" lon="10.4058498" version="1" timestamp="2019-01-06T12:14:57Z" changeset="66068268" uid="3497659" user="NKA" />
	<node id="6187712539" lat="59.3852174" lon="10.4053563" version="1" timestamp="2019-01-06T12:14:57Z" changeset="66068268" uid="3497659" user="NKA" />
	<node id="6187712540" lat="59.3849005" lon="10.4046831" version="1" timestamp="2019-01-06T12:14:57Z" changeset="66068268" uid="3497659" user="NKA" />
	<way id="660910163" version="1" timestamp="2019-01-06T12:15:10Z" changeset="66068268" uid="3497659" user="NKA">
		<tag k="leisure" v="park" />
		<tag k="name" v="Reirparken" />
		<tag k="ssr:stedsnr" v="274827" />
		<tag k="ssr:type" v="park" />
		<nd ref="6187712540" />
		<nd ref="6187712539" />
		<nd ref="6187712538" />
		<nd ref="6187712537" />
		<nd ref="6187712536" />
		<nd ref="6187712535" />
		<nd ref="6187712534" />
		<nd ref="6187712540" />
	</way>
</osm>
