<?xml version="1.0" encoding="UTF-8"?>
<osm generator="osmapis" version="0.6">
	<node id="-7892" lat="62.9661012271" lon="7.43040170799">
		<tag k="name" v="Kongshaug" />
		<tag k="ssr:date" v="2020-09-08" />
		<tag k="ssr:gruppe" v="navigasjon" />
		<tag k="ssr:hovedgruppe" v="infrastruktur" />
		<tag k="ssr:stedsnr" v="72944" />
		<tag k="ssr:type" v="fyrlykt" />
	</node>
	<node id="-7923" lat="63.0165888917" lon="7.43234166626">
		<tag k="name" v="Roaldsøya" />
		<tag k="ssr:date" v="2019-05-31" />
		<tag k="ssr:gruppe" v="veg" />
		<tag k="ssr:hovedgruppe" v="infrastruktur" />
		<tag k="ssr:stedsnr" v="100440" />
		<tag k="ssr:type" v="adressenavn" />
	</node>
	<node id="-7922" lat="63.008875004" lon="7.3065361172">
		<tag k="name" v="Atlanterhavsvegen" />
		<tag k="ssr:date" v="2019-12-27" />
		<tag k="ssr:gruppe" v="veg" />
		<tag k="ssr:hovedgruppe" v="infrastruktur" />
		<tag k="ssr:stedsnr" v="88662" />
		<tag k="ssr:type" v="vegstrekning" />
	</node>
	<node id="-8175" lat="63.0424416696" lon="7.38193054561">
		<tag k="name" v="Hattan" />
		<tag k="ssr:date" v="2016-05-10" />
		<tag k="ssr:gruppe" v="navigasjon" />
		<tag k="ssr:hovedgruppe" v="infrastruktur" />
		<tag k="ssr:stedsnr" v="537689" />
		<tag k="ssr:type" v="lanterne" />
	</node>
	<node id="-8426" lat="63.0491600543" lon="7.39055039825">
		<tag k="name" v="Litlsandøya" />
		<tag k="ssr:date" v="2017-12-07" />
		<tag k="ssr:gruppe" v="navigasjon" />
		<tag k="ssr:hovedgruppe" v="infrastruktur" />
		<tag k="ssr:stedsnr" v="958406" />
		<tag k="ssr:type" v="fyrlykt" />
	</node>
	<node id="-7783" lat="63.0920078998" lon="7.59176491117">
		<tag k="name" v="Galten" />
		<tag k="ssr:date" v="2020-09-08" />
		<tag k="ssr:gruppe" v="navigasjon" />
		<tag k="ssr:hovedgruppe" v="infrastruktur" />
		<tag k="ssr:stedsnr" v="922719" />
		<tag k="ssr:type" v="fyrlykt" />
	</node>
	<node id="-7524" lat="63.0420583364" lon="7.60866943986">
		<tag k="name" v="Litlholmen" />
		<tag k="ssr:date" v="2019-05-31" />
		<tag k="ssr:gruppe" v="veg" />
		<tag k="ssr:hovedgruppe" v="infrastruktur" />
		<tag k="ssr:stedsnr" v="300409" />
		<tag k="ssr:type" v="adressenavn" />
	</node>
	<node id="-8035" lat="63.0914778937" lon="7.54911862217">
		<tag k="name" v="Raudholmen" />
		<tag k="ssr:date" v="2020-09-08" />
		<tag k="ssr:gruppe" v="navigasjon" />
		<tag k="ssr:hovedgruppe" v="infrastruktur" />
		<tag k="ssr:stedsnr" v="330366" />
		<tag k="ssr:type" v="fyrlykt" />
	</node>
	<node id="-8122" lat="63.0562583311" lon="7.32336945375">
		<tag k="alt_name" v="Myrgrunnene" />
		<tag k="name" v="Myrgrunnan" />
		<tag k="ssr:date" v="2019-12-27" />
		<tag k="ssr:gruppe" v="navigasjon" />
		<tag k="ssr:hovedgruppe" v="infrastruktur" />
		<tag k="ssr:stedsnr" v="414652" />
		<tag k="ssr:type" v="lysbøye" />
	</node>
	<node id="-8276" lat="63.0287305549" lon="7.67901665725">
		<tag k="name" v="Leitnes" />
		<tag k="ssr:date" v="2016-05-10" />
		<tag k="ssr:gruppe" v="navigasjon" />
		<tag k="ssr:hovedgruppe" v="infrastruktur" />
		<tag k="ssr:stedsnr" v="633376" />
		<tag k="ssr:type" v="fyrlykt" />
	</node>
	<node id="-7636" lat="62.981407621" lon="7.34934728209">
		<tag k="name" v="Tevikholmen" />
		<tag k="ssr:date" v="2020-09-08" />
		<tag k="ssr:gruppe" v="navigasjon" />
		<tag k="ssr:hovedgruppe" v="infrastruktur" />
		<tag k="ssr:stedsnr" v="680944" />
		<tag k="ssr:type" v="fyrlykt" />
	</node>
	<node id="-7626" lat="63.0692634738" lon="7.67827249275">
		<tag k="name" v="Raudsandneset" />
		<tag k="ssr:date" v="2020-09-08" />
		<tag k="ssr:gruppe" v="navigasjon" />
		<tag k="ssr:hovedgruppe" v="infrastruktur" />
		<tag k="ssr:stedsnr" v="680589" />
		<tag k="ssr:type" v="fyrlykt" />
	</node>
	<node id="-7750" lat="63.0287222249" lon="7.67891666829">
		<tag k="name" v="Leitnes" />
		<tag k="ssr:date" v="2016-05-11" />
		<tag k="ssr:gruppe" v="navigasjon" />
		<tag k="ssr:hovedgruppe" v="infrastruktur" />
		<tag k="ssr:stedsnr" v="899440" />
		<tag k="ssr:type" v="fyrlykt" />
	</node>
	<node id="-8131" lat="63.0514585869" lon="7.40191393538">
		<tag k="name" v="Gullhatten" />
		<tag k="ssr:date" v="2020-09-10" />
		<tag k="ssr:gruppe" v="navigasjon" />
		<tag k="ssr:hovedgruppe" v="infrastruktur" />
		<tag k="ssr:stedsnr" v="437557" />
		<tag k="ssr:type" v="fyrlykt" />
	</node>
	<node id="-7613" lat="63.0654156127" lon="7.5208233761">
		<tag k="name" v="Forøyskjæret" />
		<tag k="ssr:date" v="2020-09-08" />
		<tag k="ssr:gruppe" v="navigasjon" />
		<tag k="ssr:hovedgruppe" v="infrastruktur" />
		<tag k="ssr:stedsnr" v="679477" />
		<tag k="ssr:type" v="fyrlykt" />
	</node>
	<node id="-7610" lat="63.0437027751" lon="7.6051888831">
		<tag k="name" v="Storvassholmen" />
		<tag k="ssr:date" v="2019-05-31" />
		<tag k="ssr:gruppe" v="veg" />
		<tag k="ssr:hovedgruppe" v="infrastruktur" />
		<tag k="ssr:stedsnr" v="664368" />
		<tag k="ssr:type" v="adressenavn" />
	</node>
	<node id="-7582" lat="63.1124689732" lon="7.59456440049">
		<tag k="name" v="Sveggesundet" />
		<tag k="ssr:date" v="2020-09-08" />
		<tag k="ssr:gruppe" v="navigasjon" />
		<tag k="ssr:hovedgruppe" v="infrastruktur" />
		<tag k="ssr:stedsnr" v="497688" />
		<tag k="ssr:type" v="fyrlykt" />
	</node>
	<node id="-8113" lat="63.069058334" lon="7.49155277705">
		<tag k="name" v="Legrimen" />
		<tag k="ssr:date" v="2016-05-10" />
		<tag k="ssr:gruppe" v="navigasjon" />
		<tag k="ssr:hovedgruppe" v="infrastruktur" />
		<tag k="ssr:stedsnr" v="412051" />
		<tag k="ssr:type" v="fyrlykt" />
	</node>
	<node id="-7837" lat="62.9715360022" lon="7.43142502227">
		<tag k="name" v="Nasvikhøgda" />
		<tag k="ssr:date" v="2019-05-31" />
		<tag k="ssr:gruppe" v="veg" />
		<tag k="ssr:hovedgruppe" v="infrastruktur" />
		<tag k="ssr:stedsnr" v="973526" />
		<tag k="ssr:type" v="adressenavn" />
	</node>
	<node id="-8306" lat="63.066030559" lon="7.54205833565">
		<tag k="name" v="Forøya" />
		<tag k="ssr:date" v="2019-05-31" />
		<tag k="ssr:gruppe" v="veg" />
		<tag k="ssr:hovedgruppe" v="infrastruktur" />
		<tag k="ssr:stedsnr" v="768082" />
		<tag k="ssr:type" v="adressenavn" />
	</node>
	<node id="-7721" lat="63.0843466864" lon="7.49229001396">
		<tag k="name" v="Hestskjæret" />
		<tag k="ssr:date" v="2019-05-31" />
		<tag k="ssr:gruppe" v="veg" />
		<tag k="ssr:hovedgruppe" v="infrastruktur" />
		<tag k="ssr:stedsnr" v="890089" />
		<tag k="ssr:type" v="adressenavn" />
	</node>
	<node id="-7720" lat="63.0534333319" lon="7.63265000106">
		<tag k="alt_name" v="Averøy" />
		<tag k="name" v="Averøy kommune" />
		<tag k="ssr:date" v="2016-05-11" />
		<tag k="ssr:gruppe" v="administrativeIndelinger" />
		<tag k="ssr:hovedgruppe" v="offentligAdministrasjon" />
		<tag k="ssr:stedsnr" v="694254" />
		<tag k="ssr:type" v="kommune" />
	</node>
	<node id="-7846" lat="63.0673194475" lon="7.4768972268">
		<tag k="name" v="Langbakken" />
		<tag k="ssr:date" v="2016-05-10" />
		<tag k="ssr:gruppe" v="navigasjon" />
		<tag k="ssr:hovedgruppe" v="infrastruktur" />
		<tag k="ssr:stedsnr" v="12510" />
		<tag k="ssr:type" v="fyrlykt" />
	</node>
	<node id="-8099" lat="62.9860846661" lon="7.68986035547">
		<tag k="name" v="Strandanes" />
		<tag k="ssr:date" v="2020-09-08" />
		<tag k="ssr:gruppe" v="navigasjon" />
		<tag k="ssr:hovedgruppe" v="infrastruktur" />
		<tag k="ssr:stedsnr" v="376949" />
		<tag k="ssr:type" v="fyrlykt" />
	</node>
	<node id="-8352" lat="63.0845391701" lon="7.49254811061">
		<tag k="name" v="Hestskjæret fyr" />
		<tag k="ssr:date" v="2019-02-12" />
		<tag k="ssr:gruppe" v="navigasjon" />
		<tag k="ssr:hovedgruppe" v="infrastruktur" />
		<tag k="ssr:stedsnr" v="801723" />
		<tag k="ssr:type" v="fyrstasjon" />
	</node>
	<node id="-7838" lat="63.0951228019" lon="7.67127902302">
		<tag k="name" v="Hogsnesveien" />
		<tag k="ssr:date" v="2019-05-31" />
		<tag k="ssr:gruppe" v="veg" />
		<tag k="ssr:hovedgruppe" v="infrastruktur" />
		<tag k="ssr:stedsnr" v="973527" />
		<tag k="ssr:type" v="adressenavn" />
	</node>
	<node id="-8093" lat="63.1144083343" lon="7.66315277293">
		<tag k="name" v="Stavneset" />
		<tag k="ssr:date" v="2016-05-10" />
		<tag k="ssr:gruppe" v="navigasjon" />
		<tag k="ssr:hovedgruppe" v="infrastruktur" />
		<tag k="ssr:stedsnr" v="376723" />
		<tag k="ssr:type" v="fyrlykt" />
	</node>
	<node id="-7836" lat="63.0553370121" lon="7.43252744262">
		<tag k="name" v="Sørhasløyveien" />
		<tag k="ssr:date" v="2019-05-31" />
		<tag k="ssr:gruppe" v="veg" />
		<tag k="ssr:hovedgruppe" v="infrastruktur" />
		<tag k="ssr:stedsnr" v="973524" />
		<tag k="ssr:type" v="adressenavn" />
	</node>
	<node id="-8465" lat="63.0535860975" lon="7.44145003821">
		<tag k="name" v="Hasløyskjæret" />
		<tag k="ssr:date" v="2020-08-17" />
		<tag k="ssr:gruppe" v="navigasjon" />
		<tag k="ssr:hovedgruppe" v="infrastruktur" />
		<tag k="ssr:stedsnr" v="1077917" />
		<tag k="ssr:type" v="fyrlykt" />
	</node>
	<node id="-7436" lat="63.081141668" lon="7.54840833354">
		<tag k="name" v="Orøy" />
		<tag k="ssr:date" v="2016-05-10" />
		<tag k="ssr:gruppe" v="navigasjon" />
		<tag k="ssr:hovedgruppe" v="infrastruktur" />
		<tag k="ssr:stedsnr" v="292238" />
		<tag k="ssr:type" v="lanterne" />
	</node>
</osm>
