<?xml version="1.0" encoding="UTF-8"?>
<osm generator="osmapis" version="0.6">
	<node id="-36064" lat="60.0497916643" lon="10.860369443">
		<tag k="name" v="Svartkruttveien" />
		<tag k="ssr:date" v="2019-05-30" />
		<tag k="ssr:gruppe" v="veg" />
		<tag k="ssr:hovedgruppe" v="infrastruktur" />
		<tag k="ssr:stedsnr" v="222230" />
		<tag k="ssr:type" v="adressenavn" />
	</node>
	<node id="-36439" lat="60.5908609473" lon="9.63819281559">
		<tag k="fixme" v="multiple name tags, choose one and add the other to alt_name" />
		<tag k="name" v="Austlandet;Østlandet" />
		<tag k="ssr:date" v="2018-01-09" />
		<tag k="ssr:gruppe" v="administrativeIndelinger" />
		<tag k="ssr:hovedgruppe" v="offentligAdministrasjon" />
		<tag k="ssr:stedsnr" v="974775" />
		<tag k="ssr:type" v="annenAdministrativInndeling" />
	</node>
	<node id="-35957" lat="60.0427805517" lon="10.8816749969">
		<tag k="name" v="Nittedal kommune" />
		<tag k="ssr:date" v="2016-05-10" />
		<tag k="ssr:gruppe" v="administrativeIndelinger" />
		<tag k="ssr:hovedgruppe" v="offentligAdministrasjon" />
		<tag k="ssr:stedsnr" v="85838" />
		<tag k="ssr:type" v="kommune" />
	</node>
	<node id="-35879" lat="60.0510867663" lon="10.8618809521">
		<tag k="name" v="Sagerudsvingen" />
		<tag k="ssr:date" v="2019-05-30" />
		<tag k="ssr:gruppe" v="veg" />
		<tag k="ssr:hovedgruppe" v="infrastruktur" />
		<tag k="ssr:stedsnr" v="993108" />
		<tag k="ssr:type" v="adressenavn" />
	</node>
	<node id="-35878" lat="60.0056111033" lon="10.9290920502">
		<tag k="name" v="Listubben" />
		<tag k="ssr:date" v="2019-05-30" />
		<tag k="ssr:gruppe" v="veg" />
		<tag k="ssr:hovedgruppe" v="infrastruktur" />
		<tag k="ssr:stedsnr" v="992351" />
		<tag k="ssr:type" v="adressenavn" />
	</node>
	<node id="-35877" lat="60.0474826292" lon="10.8604657523">
		<tag k="name" v="Kruttørkeveien" />
		<tag k="ssr:date" v="2019-05-30" />
		<tag k="ssr:gruppe" v="veg" />
		<tag k="ssr:hovedgruppe" v="infrastruktur" />
		<tag k="ssr:stedsnr" v="991969" />
		<tag k="ssr:type" v="adressenavn" />
	</node>
	<node id="-35876" lat="60.0463300532" lon="10.8584398621">
		<tag k="name" v="Kanonsletta" />
		<tag k="ssr:date" v="2019-05-30" />
		<tag k="ssr:gruppe" v="veg" />
		<tag k="ssr:hovedgruppe" v="infrastruktur" />
		<tag k="ssr:stedsnr" v="991914" />
		<tag k="ssr:type" v="adressenavn" />
	</node>
</osm>
