<?xml version="1.0" encoding="UTF-8"?>
<osm generator="osmapis" version="0.6">
	<node id="-338430" lat="58.0568920951" lon="6.84030357346">
		<tag k="name" v="Søndre Katland" />
		<tag k="ssr:date" v="2018-04-04" />
		<tag k="ssr:gruppe" v="navigasjon" />
		<tag k="ssr:hovedgruppe" v="infrastruktur" />
		<tag k="ssr:stedsnr" v="243355" />
		<tag k="ssr:type" v="fyrstasjon" />
	</node>
	<node id="-338419" lat="58.177888891" lon="6.62363055496">
		<tag k="name" v="Varneset" />
		<tag k="ssr:date" v="2016-05-10" />
		<tag k="ssr:gruppe" v="navigasjon" />
		<tag k="ssr:hovedgruppe" v="infrastruktur" />
		<tag k="ssr:stedsnr" v="243189" />
		<tag k="ssr:type" v="fyrlykt" />
	</node>
	<node id="-338413" lat="58.0595833364" lon="6.67021944617">
		<tag k="alt_name" v="Listerrauna" />
		<tag k="name" v="Rauna lykt" />
		<tag k="old_name" v="Listerauna" />
		<tag k="ssr:date" v="2016-05-10" />
		<tag k="ssr:gruppe" v="navigasjon" />
		<tag k="ssr:hovedgruppe" v="infrastruktur" />
		<tag k="ssr:stedsnr" v="242344" />
		<tag k="ssr:type" v="fyrlykt" />
	</node>
	<node id="-338156" lat="58.0669777777" lon="6.82404721683">
		<tag k="name" v="Eigvåg" />
		<tag k="ssr:date" v="2016-05-10" />
		<tag k="ssr:gruppe" v="navigasjon" />
		<tag k="ssr:hovedgruppe" v="infrastruktur" />
		<tag k="ssr:stedsnr" v="121374" />
		<tag k="ssr:type" v="fyrlykt" />
	</node>
	<node id="-338154" lat="58.0602916675" lon="6.87298610367">
		<tag k="name" v="Bremerodden" />
		<tag k="ssr:date" v="2016-05-10" />
		<tag k="ssr:gruppe" v="navigasjon" />
		<tag k="ssr:hovedgruppe" v="infrastruktur" />
		<tag k="ssr:stedsnr" v="121355" />
		<tag k="ssr:type" v="fyrlykt" />
	</node>
	<node id="-337852" lat="58.0928437289" lon="6.80462266203">
		<tag k="name" v="Trappegaten" />
		<tag k="ssr:date" v="2019-05-30" />
		<tag k="ssr:gruppe" v="veg" />
		<tag k="ssr:hovedgruppe" v="infrastruktur" />
		<tag k="ssr:stedsnr" v="1008902" />
		<tag k="ssr:type" v="adressenavn" />
	</node>
	<node id="-338275" lat="58.0821194448" lon="6.83416667181">
		<tag k="name" v="Nordre Håøyflua" />
		<tag k="ssr:date" v="2016-05-10" />
		<tag k="ssr:gruppe" v="navigasjon" />
		<tag k="ssr:hovedgruppe" v="infrastruktur" />
		<tag k="ssr:stedsnr" v="179185" />
		<tag k="ssr:type" v="fyrlykt" />
	</node>
	<node id="-338958" lat="58.1092916693" lon="6.56691943973">
		<tag k="alt_name" v="Lista" />
		<tag k="name" v="Lista fyr" />
		<tag k="ssr:date" v="2016-05-10" />
		<tag k="ssr:gruppe" v="navigasjon" />
		<tag k="ssr:hovedgruppe" v="infrastruktur" />
		<tag k="ssr:stedsnr" v="606118" />
		<tag k="ssr:type" v="fyrstasjon" />
	</node>
	<node id="-339538" lat="58.0513749973" lon="6.92263610755">
		<tag k="name" v="Terøy" />
		<tag k="ssr:date" v="2016-05-11" />
		<tag k="ssr:gruppe" v="navigasjon" />
		<tag k="ssr:hovedgruppe" v="infrastruktur" />
		<tag k="ssr:stedsnr" v="850422" />
		<tag k="ssr:type" v="fyrlykt" />
	</node>
	<node id="-339085" lat="58.0939722185" lon="6.81174722006">
		<tag k="name" v="Farøy" />
		<tag k="ssr:date" v="2016-05-10" />
		<tag k="ssr:gruppe" v="navigasjon" />
		<tag k="ssr:hovedgruppe" v="infrastruktur" />
		<tag k="ssr:stedsnr" v="645340" />
		<tag k="ssr:type" v="lanterne" />
	</node>
	<node id="-337739" lat="58.0943694419" lon="6.58405554936">
		<tag k="name" v="Brekneholmen" />
		<tag k="ssr:date" v="2016-05-10" />
		<tag k="ssr:gruppe" v="navigasjon" />
		<tag k="ssr:hovedgruppe" v="infrastruktur" />
		<tag k="ssr:stedsnr" v="388399" />
		<tag k="ssr:type" v="fyrlykt" />
	</node>
	<node id="-338249" lat="58.0423499985" lon="6.8234944488">
		<tag k="name" v="Færøyflua" />
		<tag k="ssr:date" v="2016-05-10" />
		<tag k="ssr:gruppe" v="navigasjon" />
		<tag k="ssr:hovedgruppe" v="infrastruktur" />
		<tag k="ssr:stedsnr" v="160044" />
		<tag k="ssr:type" v="fyrlykt" />
	</node>
	<node id="-339265" lat="58.0753777747" lon="6.85682499895">
		<tag k="name" v="Langøy" />
		<tag k="ssr:date" v="2016-05-11" />
		<tag k="ssr:gruppe" v="navigasjon" />
		<tag k="ssr:hovedgruppe" v="infrastruktur" />
		<tag k="ssr:stedsnr" v="728327" />
		<tag k="ssr:type" v="fyrlykt" />
	</node>
	<node id="-339261" lat="58.0585333317" lon="6.81833888671">
		<tag k="name" v="Sandøya" />
		<tag k="ssr:date" v="2016-05-11" />
		<tag k="ssr:gruppe" v="navigasjon" />
		<tag k="ssr:hovedgruppe" v="infrastruktur" />
		<tag k="ssr:stedsnr" v="728306" />
		<tag k="ssr:type" v="fyrlykt" />
	</node>
	<node id="-339516" lat="58.0698611148" lon="6.8325361108">
		<tag k="name" v="Skotteflua" />
		<tag k="ssr:date" v="2016-05-11" />
		<tag k="ssr:gruppe" v="navigasjon" />
		<tag k="ssr:hovedgruppe" v="infrastruktur" />
		<tag k="ssr:stedsnr" v="847248" />
		<tag k="ssr:type" v="fyrlykt" />
	</node>
	<node id="-337851" lat="58.100456114" lon="6.7598434684">
		<tag k="name" v="Øyvollveien" />
		<tag k="ssr:date" v="2019-05-30" />
		<tag k="ssr:gruppe" v="veg" />
		<tag k="ssr:hovedgruppe" v="infrastruktur" />
		<tag k="ssr:stedsnr" v="1009109" />
		<tag k="ssr:type" v="adressenavn" />
	</node>
	<node id="-338986" lat="58.0409861134" lon="6.93361666356">
		<tag k="name" v="Ullerøysund" />
		<tag k="ssr:date" v="2016-05-10" />
		<tag k="ssr:gruppe" v="navigasjon" />
		<tag k="ssr:hovedgruppe" v="infrastruktur" />
		<tag k="ssr:stedsnr" v="606381" />
		<tag k="ssr:type" v="fyrlykt" />
	</node>
	<node id="-338979" lat="58.0807416635" lon="6.8392888897">
		<tag k="name" v="Store Håøy" />
		<tag k="ssr:date" v="2016-05-10" />
		<tag k="ssr:gruppe" v="navigasjon" />
		<tag k="ssr:hovedgruppe" v="infrastruktur" />
		<tag k="ssr:stedsnr" v="606301" />
		<tag k="ssr:type" v="fyrlykt" />
	</node>
	<node id="-339359" lat="58.0953750033" lon="6.80404167186">
		<tag k="loc_name" v="Farsund" />
		<tag k="name" v="Farsund kommune" />
		<tag k="ssr:date" v="2017-03-30" />
		<tag k="ssr:gruppe" v="administrativeIndelinger" />
		<tag k="ssr:hovedgruppe" v="offentligAdministrasjon" />
		<tag k="ssr:stedsnr" v="752528" />
		<tag k="ssr:type" v="kommune" />
	</node>
	<node id="-339863" lat="58.0625177631" lon="6.8159950039">
		<tag k="name" v="Sandøy" />
		<tag k="ssr:date" v="2019-05-30" />
		<tag k="ssr:gruppe" v="veg" />
		<tag k="ssr:hovedgruppe" v="infrastruktur" />
		<tag k="ssr:stedsnr" v="978434" />
		<tag k="ssr:type" v="adressenavn" />
	</node>
	<node id="-339862" lat="58.0755705262" lon="6.83904186746">
		<tag k="name" v="Urøy" />
		<tag k="ssr:date" v="2019-05-30" />
		<tag k="ssr:gruppe" v="veg" />
		<tag k="ssr:hovedgruppe" v="infrastruktur" />
		<tag k="ssr:stedsnr" v="978435" />
		<tag k="ssr:type" v="adressenavn" />
	</node>
	<node id="-339861" lat="58.066671394" lon="6.87994847123">
		<tag k="name" v="Langøy" />
		<tag k="ssr:date" v="2019-05-30" />
		<tag k="ssr:gruppe" v="veg" />
		<tag k="ssr:hovedgruppe" v="infrastruktur" />
		<tag k="ssr:stedsnr" v="978433" />
		<tag k="ssr:type" v="adressenavn" />
	</node>
	<node id="-339860" lat="58.0530691542" lon="6.87567009742">
		<tag k="name" v="Lindholmen" />
		<tag k="ssr:date" v="2019-05-30" />
		<tag k="ssr:gruppe" v="veg" />
		<tag k="ssr:hovedgruppe" v="infrastruktur" />
		<tag k="ssr:stedsnr" v="978432" />
		<tag k="ssr:type" v="adressenavn" />
	</node>
	<node id="-339859" lat="58.0526430618" lon="6.92281005764">
		<tag k="name" v="Terøy" />
		<tag k="ssr:date" v="2019-05-30" />
		<tag k="ssr:gruppe" v="veg" />
		<tag k="ssr:hovedgruppe" v="infrastruktur" />
		<tag k="ssr:stedsnr" v="978431" />
		<tag k="ssr:type" v="adressenavn" />
	</node>
	<node id="-339858" lat="58.0605801016" lon="6.91478884648">
		<tag k="name" v="Skarvøy" />
		<tag k="ssr:date" v="2019-05-30" />
		<tag k="ssr:gruppe" v="veg" />
		<tag k="ssr:hovedgruppe" v="infrastruktur" />
		<tag k="ssr:stedsnr" v="978430" />
		<tag k="ssr:type" v="adressenavn" />
	</node>
	<node id="-339857" lat="58.0455262995" lon="6.91780094917">
		<tag k="name" v="Ullerøy" />
		<tag k="ssr:date" v="2019-05-30" />
		<tag k="ssr:gruppe" v="veg" />
		<tag k="ssr:hovedgruppe" v="infrastruktur" />
		<tag k="ssr:stedsnr" v="978309" />
		<tag k="ssr:type" v="adressenavn" />
	</node>
	<node id="-339856" lat="58.0810741789" lon="6.91975020264">
		<tag k="name" v="Indre Bugdøy" />
		<tag k="ssr:date" v="2019-05-30" />
		<tag k="ssr:gruppe" v="veg" />
		<tag k="ssr:hovedgruppe" v="infrastruktur" />
		<tag k="ssr:stedsnr" v="978308" />
		<tag k="ssr:type" v="adressenavn" />
	</node>
	<node id="-339855" lat="58.0778222426" lon="6.83619214666">
		<tag k="name" v="Skotteholmen" />
		<tag k="ssr:date" v="2019-05-30" />
		<tag k="ssr:gruppe" v="veg" />
		<tag k="ssr:hovedgruppe" v="infrastruktur" />
		<tag k="ssr:stedsnr" v="978276" />
		<tag k="ssr:type" v="adressenavn" />
	</node>
	<node id="-339854" lat="58.0729362342" lon="6.81576556847">
		<tag k="name" v="Svenholmen" />
		<tag k="ssr:date" v="2019-05-30" />
		<tag k="ssr:gruppe" v="veg" />
		<tag k="ssr:hovedgruppe" v="infrastruktur" />
		<tag k="ssr:stedsnr" v="978275" />
		<tag k="ssr:type" v="adressenavn" />
	</node>
	<node id="-339853" lat="58.0956354974" lon="6.8076072317">
		<tag k="name" v="Tjuvholmen" />
		<tag k="ssr:date" v="2019-05-30" />
		<tag k="ssr:gruppe" v="veg" />
		<tag k="ssr:hovedgruppe" v="infrastruktur" />
		<tag k="ssr:stedsnr" v="978274" />
		<tag k="ssr:type" v="adressenavn" />
	</node>
	<node id="-338956" lat="58.1168055519" lon="6.5774750012">
		<tag k="name" v="Lista" />
		<tag k="ssr:date" v="2016-05-10" />
		<tag k="ssr:gruppe" v="terrengområder" />
		<tag k="ssr:hovedgruppe" v="terreng" />
		<tag k="ssr:stedsnr" v="606103" />
		<tag k="ssr:type" v="landskapsområde" />
	</node>
	<node id="-338820" lat="58.202305557" lon="6.70002500222">
		<tag k="alt_name" v="Skarvhelleren;Skarvehellaren" />
		<tag k="name" v="Skarvehelleren" />
		<tag k="ssr:date" v="2016-05-10" />
		<tag k="ssr:gruppe" v="navigasjon" />
		<tag k="ssr:hovedgruppe" v="infrastruktur" />
		<tag k="ssr:stedsnr" v="546181" />
		<tag k="ssr:type" v="fyrlykt" />
	</node>
</osm>
