<?xml version="1.0" encoding="UTF-8"?>
<osm generator="osmapis" version="0.6">
	<node changeset="57982147" id="3691872304" lat="58.9434218" lon="8.2020178" timestamp="2018-04-10T18:40:10Z" uid="3497659" user="NKA" version="3">
		<tag k="name" v="Smedland" />
		<tag k="place" v="hamlet" />
		<tag k="ssr:stedsnr" v="365967" />
		<tag k="ssr:type" v="bruk" />
	</node>
	<node changeset="57982147" id="3951893297" lat="58.7124457" lon="8.3434502" timestamp="2018-04-10T18:40:14Z" uid="3497659" user="NKA" version="5">
		<tag k="name" v="Dølemo" />
		<tag k="place" v="village" />
		<tag k="ssr:stedsnr" v="752161" />
		<tag k="ssr:type" v="bygdelagBygd" />
	</node>
	<node changeset="56035354" id="3327844525" lat="58.7674047" lon="8.4877492" timestamp="2018-02-03T17:49:53Z" uid="2114448" user="FredrikLindseth_import" version="3" />
	<node changeset="56035354" id="3691905232" lat="58.8718668" lon="8.3039899" timestamp="2018-02-03T17:49:54Z" uid="2114448" user="FredrikLindseth_import" version="2" />
	<node changeset="56035354" id="3691905233" lat="58.8718703" lon="8.3038163" timestamp="2018-02-03T17:49:54Z" uid="2114448" user="FredrikLindseth_import" version="2" />
	<node changeset="56035354" id="3691905234" lat="58.8719362" lon="8.3038221" timestamp="2018-02-03T17:49:54Z" uid="2114448" user="FredrikLindseth_import" version="2" />
	<node changeset="56035354" id="3691905235" lat="58.871937" lon="8.3037772" timestamp="2018-02-03T17:49:54Z" uid="2114448" user="FredrikLindseth_import" version="2" />
	<node changeset="56035354" id="3691905236" lat="58.8718913" lon="8.303772" timestamp="2018-02-03T17:49:54Z" uid="2114448" user="FredrikLindseth_import" version="2" />
	<node changeset="56035354" id="3691905237" lat="58.8718904" lon="8.3038179" timestamp="2018-02-03T17:49:54Z" uid="2114448" user="FredrikLindseth_import" version="2" />
	<node changeset="56035354" id="3691905239" lat="58.8719416" lon="8.3039957" timestamp="2018-02-03T17:49:54Z" uid="2114448" user="FredrikLindseth_import" version="2" />
	<node changeset="56035354" id="3691905241" lat="58.8719396" lon="8.3040906" timestamp="2018-02-03T17:49:54Z" uid="2114448" user="FredrikLindseth_import" version="2" />
	<node changeset="56035354" id="3691905242" lat="58.8719285" lon="8.3041573" timestamp="2018-02-03T17:49:54Z" uid="2114448" user="FredrikLindseth_import" version="2" />
	<node changeset="56035354" id="3691905243" lat="58.8719306" lon="8.3040899" timestamp="2018-02-03T17:49:54Z" uid="2114448" user="FredrikLindseth_import" version="2" />
	<node changeset="56035354" id="3691905244" lat="58.8718781" lon="8.3039908" timestamp="2018-02-03T17:49:54Z" uid="2114448" user="FredrikLindseth_import" version="2" />
	<node changeset="56035354" id="3691905245" lat="58.8718844" lon="8.3040861" timestamp="2018-02-03T17:49:54Z" uid="2114448" user="FredrikLindseth_import" version="2" />
	<node changeset="56035354" id="3691905247" lat="58.8718761" lon="8.3040857" timestamp="2018-02-03T17:49:54Z" uid="2114448" user="FredrikLindseth_import" version="2" />
	<node changeset="56035354" id="3691905248" lat="58.8718825" lon="8.3041521" timestamp="2018-02-03T17:49:54Z" uid="2114448" user="FredrikLindseth_import" version="2" />
	<node changeset="56035354" id="3691905252" lat="58.8719543" lon="8.3038236" timestamp="2018-02-03T17:49:54Z" uid="2114448" user="FredrikLindseth_import" version="3" />
	<node changeset="56035354" id="3691905256" lat="58.8719506" lon="8.3039964" timestamp="2018-02-03T17:49:54Z" uid="2114448" user="FredrikLindseth_import" version="2" />
	<node changeset="57982147" id="3327846669" lat="58.6577859" lon="8.6326899" timestamp="2018-04-10T18:40:10Z" uid="3497659" user="NKA" version="5">
		<tag k="name" v="Nelaug" />
		<tag k="place" v="village" />
		<tag k="ssr:stedsnr" v="243942" />
		<tag k="ssr:type" v="tettbebyggelse" />
	</node>
	<node changeset="57982147" id="4475752789" lat="58.8582639" lon="8.337728" timestamp="2018-04-10T18:50:38Z" uid="3497659" user="NKA" version="2">
		<tag k="name" v="Austjordet" />
		<tag k="place" v="farm" />
		<tag k="ssr:stedsnr" v="304107" />
		<tag k="ssr:type" v="bruk" />
	</node>
	<node changeset="57982147" id="4475752790" lat="58.763519" lon="8.3759252" timestamp="2018-04-10T18:50:38Z" uid="3497659" user="NKA" version="2">
		<tag k="building" v="cabin" />
		<tag k="name" v="Badstoga" />
		<tag k="place" v="isolated_dwelling" />
		<tag k="ssr:stedsnr" v="1227" />
		<tag k="ssr:type" v="fritidsbolig" />
	</node>
	<node changeset="57982147" id="4475752791" lat="58.9296312" lon="8.0369145" timestamp="2018-04-10T18:50:38Z" uid="3497659" user="NKA" version="2">
		<tag k="building" v="cabin" />
		<tag k="name" v="Badstoga" />
		<tag k="place" v="isolated_dwelling" />
		<tag k="ssr:stedsnr" v="425673" />
		<tag k="ssr:type" v="fritidsbolig" />
	</node>
	<node changeset="57982147" id="4475752792" lat="58.7646983" lon="8.5346368" timestamp="2018-04-10T18:50:38Z" uid="3497659" user="NKA" version="2">
		<tag k="name" v="Bakkane" />
		<tag k="place" v="farm" />
		<tag k="ssr:stedsnr" v="182504" />
		<tag k="ssr:type" v="bruk" />
	</node>
	<node changeset="57982147" id="4475752793" lat="58.8636318" lon="8.3280696" timestamp="2018-04-10T18:50:39Z" uid="3497659" user="NKA" version="2">
		<tag k="name" v="Bakkane" />
		<tag k="place" v="farm" />
		<tag k="ssr:stedsnr" v="304099" />
		<tag k="ssr:type" v="bruk" />
	</node>
	<node changeset="57982147" id="4475752794" lat="58.872374" lon="8.3073102" timestamp="2018-04-10T18:50:39Z" uid="3497659" user="NKA" version="2">
		<tag k="name" v="Bakkane" />
		<tag k="place" v="farm" />
		<tag k="ssr:stedsnr" v="607003" />
		<tag k="ssr:type" v="bruk" />
	</node>
	<node changeset="57982147" id="4475752795" lat="58.7387326" lon="8.4562494" timestamp="2018-04-10T18:50:39Z" uid="3497659" user="NKA" version="2">
		<tag k="name" v="Bakken" />
		<tag k="place" v="farm" />
		<tag k="ssr:stedsnr" v="486407" />
		<tag k="ssr:type" v="eneboligMindreBoligbygg" />
	</node>
	<node changeset="57982147" id="4475752796" lat="58.8744302" lon="8.0480421" timestamp="2018-04-10T18:50:39Z" uid="3497659" user="NKA" version="2">
		<tag k="name" v="Bakken" />
		<tag k="place" v="farm" />
		<tag k="ssr:stedsnr" v="668759" />
		<tag k="ssr:type" v="bruk" />
	</node>
	<node changeset="57982147" id="4475752797" lat="58.8691317" lon="8.1929316" timestamp="2018-04-10T18:50:39Z" uid="3497659" user="NKA" version="2">
		<tag k="building" v="cabin" />
		<tag k="name" v="Barlindhaugen" />
		<tag k="place" v="isolated_dwelling" />
		<tag k="ssr:stedsnr" v="597261" />
		<tag k="ssr:type" v="fritidsbolig" />
	</node>
	<node changeset="57982147" id="4475752798" lat="58.8542734" lon="8.3399043" timestamp="2018-04-10T18:50:39Z" uid="3497659" user="NKA" version="2">
		<tag k="name" v="Bekkemellom" />
		<tag k="place" v="farm" />
		<tag k="ssr:stedsnr" v="415730" />
		<tag k="ssr:type" v="bruk" />
	</node>
	<node changeset="57982147" id="4475752799" lat="58.7951697" lon="8.2317878" timestamp="2018-04-10T18:50:39Z" uid="3497659" user="NKA" version="2">
		<tag k="name" v="Berdalen" />
		<tag k="place" v="farm" />
		<tag k="ssr:stedsnr" v="425156" />
		<tag k="ssr:type" v="bruk" />
	</node>
	<node changeset="57982147" id="4475752800" lat="58.6894564" lon="8.6929003" timestamp="2018-04-10T18:50:39Z" uid="3497659" user="NKA" version="2">
		<tag k="name" v="Berget" />
		<tag k="place" v="farm" />
		<tag k="ssr:stedsnr" v="638610" />
		<tag k="ssr:type" v="eneboligMindreBoligbygg" />
	</node>
	<node changeset="57982147" id="4475752801" lat="58.7626934" lon="8.5363768" timestamp="2018-04-10T18:50:39Z" uid="3497659" user="NKA" version="2">
		<tag k="name" v="Bergland" />
		<tag k="place" v="farm" />
		<tag k="ssr:stedsnr" v="881221" />
		<tag k="ssr:type" v="bruk" />
	</node>
	<node changeset="57982147" id="4475752802" lat="58.8646673" lon="8.6260773" timestamp="2018-04-10T18:50:39Z" uid="3497659" user="NKA" version="2">
		<tag k="name" v="Berli" />
		<tag k="place" v="farm" />
		<tag k="ssr:stedsnr" v="426704" />
		<tag k="ssr:type" v="eneboligMindreBoligbygg" />
	</node>
	<node changeset="57982147" id="4475752803" lat="58.8688017" lon="8.6291013" timestamp="2018-04-10T18:50:40Z" uid="3497659" user="NKA" version="2">
		<tag k="building" v="cabin" />
		<tag k="name" v="Berli" />
		<tag k="place" v="isolated_dwelling" />
		<tag k="ssr:stedsnr" v="456186" />
		<tag k="ssr:type" v="fritidsbolig" />
	</node>
	<node changeset="57982147" id="4475752804" lat="58.8718979" lon="8.6277299" timestamp="2018-04-10T18:50:40Z" uid="3497659" user="NKA" version="2">
		<tag k="name" v="Berli" />
		<tag k="place" v="farm" />
		<tag k="ssr:stedsnr" v="304734" />
		<tag k="ssr:type" v="eneboligMindreBoligbygg" />
	</node>
	<node changeset="57982147" id="4475752805" lat="58.651068" lon="8.4305145" timestamp="2018-04-10T18:50:40Z" uid="3497659" user="NKA" version="2">
		<tag k="name" v="Berås" />
		<tag k="place" v="farm" />
		<tag k="ssr:stedsnr" v="365268" />
		<tag k="ssr:type" v="bruk" />
	</node>
	<node changeset="57982147" id="4475752806" lat="58.8723883" lon="8.6543468" timestamp="2018-04-10T18:50:40Z" uid="3497659" user="NKA" version="2">
		<tag k="building" v="cabin" />
		<tag k="name" v="Birtestoga" />
		<tag k="place" v="isolated_dwelling" />
		<tag k="ssr:stedsnr" v="274148" />
		<tag k="ssr:type" v="fritidsbolig" />
	</node>
	<node changeset="57982147" id="4475752807" lat="58.8684495" lon="8.1965079" timestamp="2018-04-10T18:50:40Z" uid="3497659" user="NKA" version="2">
		<tag k="alt_name" v="Bjørbu" />
		<tag k="building" v="cabin" />
		<tag k="name" v="Bjorbu" />
		<tag k="place" v="isolated_dwelling" />
		<tag k="ssr:stedsnr" v="1027" />
		<tag k="ssr:type" v="fritidsbolig" />
	</node>
	<node changeset="57982147" id="4475752808" lat="58.905094" lon="8.5587835" timestamp="2018-04-10T18:50:40Z" uid="3497659" user="NKA" version="2">
		<tag k="name" v="Bjorevja" />
		<tag k="place" v="farm" />
		<tag k="ssr:stedsnr" v="183419" />
		<tag k="ssr:type" v="bruk" />
	</node>
	<node changeset="57982147" id="4475752809" lat="58.7277203" lon="8.3014527" timestamp="2018-04-10T18:50:40Z" uid="3497659" user="NKA" version="2">
		<tag k="name" v="Bjortjønnvollen" />
		<tag k="place" v="farm" />
		<tag k="ssr:stedsnr" v="719592" />
		<tag k="ssr:type" v="bruk" />
	</node>
	<node changeset="57982147" id="4475752810" lat="58.682383" lon="8.3720947" timestamp="2018-04-10T18:50:40Z" uid="3497659" user="NKA" version="2">
		<tag k="name" v="Bjorå" />
		<tag k="place" v="farm" />
		<tag k="ssr:stedsnr" v="850292" />
		<tag k="ssr:type" v="eneboligMindreBoligbygg" />
	</node>
	<node changeset="57982147" id="4475752811" lat="58.8497114" lon="8.2945137" timestamp="2018-04-10T18:50:41Z" uid="3497659" user="NKA" version="2">
		<tag k="building" v="cabin" />
		<tag k="name" v="Bjønnåshytta" />
		<tag k="place" v="isolated_dwelling" />
		<tag k="ssr:stedsnr" v="172719" />
		<tag k="ssr:type" v="fritidsbolig" />
	</node>
	<node changeset="57982147" id="4475752812" lat="58.8192156" lon="8.5412383" timestamp="2018-04-10T18:50:41Z" uid="3497659" user="NKA" version="2">
		<tag k="name" v="Bjørnbakken" />
		<tag k="place" v="farm" />
		<tag k="ssr:stedsnr" v="607677" />
		<tag k="ssr:type" v="bruk" />
	</node>
	<node changeset="57982147" id="4475752813" lat="58.886619" lon="8.591974" timestamp="2018-04-10T18:50:41Z" uid="3497659" user="NKA" version="2">
		<tag k="name" v="Bjørnestad" />
		<tag k="place" v="farm" />
		<tag k="ssr:stedsnr" v="335019" />
		<tag k="ssr:type" v="eneboligMindreBoligbygg" />
	</node>
	<node changeset="57982147" id="4475752814" lat="58.7101722" lon="8.6273162" timestamp="2018-04-10T18:50:41Z" uid="3497659" user="NKA" version="2">
		<tag k="name" v="Bomvollen" />
		<tag k="place" v="farm" />
		<tag k="ssr:stedsnr" v="699521" />
		<tag k="ssr:type" v="eneboligMindreBoligbygg" />
	</node>
	<node changeset="57982147" id="4475752815" lat="58.8995075" lon="8.2897407" timestamp="2018-04-10T18:50:41Z" uid="3497659" user="NKA" version="2">
		<tag k="building" v="cabin" />
		<tag k="name" v="Breidablikk" />
		<tag k="place" v="isolated_dwelling" />
		<tag k="ssr:stedsnr" v="643644" />
		<tag k="ssr:type" v="fritidsbolig" />
	</node>
	<node changeset="57982147" id="4475752816" lat="58.8932386" lon="8.5654086" timestamp="2018-04-10T18:50:41Z" uid="3497659" user="NKA" version="2">
		<tag k="name" v="Breiung" />
		<tag k="place" v="farm" />
		<tag k="ssr:stedsnr" v="790474" />
		<tag k="ssr:type" v="bruk" />
	</node>
	<node changeset="57982147" id="4475752817" lat="58.7626811" lon="8.427766" timestamp="2018-04-10T18:50:41Z" uid="3497659" user="NKA" version="2">
		<tag k="building" v="cabin" />
		<tag k="name" v="Breivik" />
		<tag k="place" v="isolated_dwelling" />
		<tag k="ssr:stedsnr" v="294858" />
		<tag k="ssr:type" v="gammelBosettingsplass" />
	</node>
	<node changeset="57982147" id="4475752818" lat="58.7573002" lon="8.4521562" timestamp="2018-04-10T18:50:41Z" uid="3497659" user="NKA" version="2">
		<tag k="name" v="Brekka" />
		<tag k="place" v="farm" />
		<tag k="ssr:stedsnr" v="577228" />
		<tag k="ssr:type" v="bruk" />
	</node>
	<node changeset="57982147" id="4475752819" lat="58.8292322" lon="8.3939286" timestamp="2018-04-10T18:50:42Z" uid="3497659" user="NKA" version="2">
		<tag k="name" v="Bruheim" />
		<tag k="place" v="farm" />
		<tag k="ssr:stedsnr" v="780458" />
		<tag k="ssr:type" v="eneboligMindreBoligbygg" />
	</node>
	<node changeset="57982147" id="4475752820" lat="58.7939121" lon="8.2273833" timestamp="2018-04-10T18:50:42Z" uid="3497659" user="NKA" version="2">
		<tag k="name" v="Brustad" />
		<tag k="place" v="farm" />
		<tag k="ssr:stedsnr" v="668152" />
		<tag k="ssr:type" v="bruk" />
	</node>
	<node changeset="57982147" id="4475752821" lat="58.6872649" lon="8.6449588" timestamp="2018-04-10T18:50:42Z" uid="3497659" user="NKA" version="2">
		<tag k="name" v="Bruvoll" />
		<tag k="place" v="farm" />
		<tag k="ssr:stedsnr" v="942190" />
		<tag k="ssr:type" v="eneboligMindreBoligbygg" />
	</node>
	<node changeset="57982147" id="4475752822" lat="58.8892163" lon="8.3186272" timestamp="2018-04-10T18:50:42Z" uid="3497659" user="NKA" version="2">
		<tag k="building" v="cabin" />
		<tag k="name" v="Buheim" />
		<tag k="place" v="isolated_dwelling" />
		<tag k="ssr:stedsnr" v="911072" />
		<tag k="ssr:type" v="fritidsbolig" />
	</node>
	<node changeset="57982147" id="4475752823" lat="58.7957636" lon="8.2250294" timestamp="2018-04-10T18:50:42Z" uid="3497659" user="NKA" version="2">
		<tag k="name" v="Bujord" />
		<tag k="place" v="farm" />
		<tag k="ssr:stedsnr" v="243143" />
		<tag k="ssr:type" v="bruk" />
	</node>
	<node changeset="57982147" id="4475752824" lat="58.780744" lon="8.562873" timestamp="2018-04-10T18:50:42Z" uid="3497659" user="NKA" version="2">
		<tag k="historic" v="yes" />
		<tag k="name" v="Bustø" />
		<tag k="place" v="locality" />
		<tag k="ssr:stedsnr" v="638436" />
		<tag k="ssr:type" v="stø" />
	</node>
	<node changeset="57982147" id="4475752825" lat="58.7661613" lon="8.5382449" timestamp="2018-04-10T18:50:42Z" uid="3497659" user="NKA" version="2">
		<tag k="name" v="Buvollen" />
		<tag k="place" v="farm" />
		<tag k="ssr:stedsnr" v="182500" />
		<tag k="ssr:type" v="bruk" />
	</node>
	<node changeset="57982147" id="4475752826" lat="58.8016408" lon="8.1841795" timestamp="2018-04-10T18:50:43Z" uid="3497659" user="NKA" version="2">
		<tag k="name" v="Bygland" />
		<tag k="place" v="farm" />
		<tag k="ssr:stedsnr" v="607125" />
		<tag k="ssr:type" v="bruk" />
	</node>
	<node changeset="57982147" id="4475752827" lat="58.8170261" lon="8.5362948" timestamp="2018-04-10T18:50:43Z" uid="3497659" user="NKA" version="2">
		<tag k="name" v="Bytingsbekk" />
		<tag k="place" v="farm" />
		<tag k="ssr:stedsnr" v="122648" />
		<tag k="ssr:type" v="bruk" />
	</node>
	<node changeset="57982147" id="4475752828" lat="58.7131728" lon="8.301769" timestamp="2018-04-10T18:50:43Z" uid="3497659" user="NKA" version="2">
		<tag k="alt_name" v="Baas" />
		<tag k="name" v="Bås" />
		<tag k="place" v="farm" />
		<tag k="ssr:stedsnr" v="426465" />
		<tag k="ssr:type" v="bruk" />
	</node>
	<node changeset="57982147" id="4475752829" lat="58.7466943" lon="8.4448895" timestamp="2018-04-10T18:50:43Z" uid="3497659" user="NKA" version="2">
		<tag k="name" v="Båsland" />
		<tag k="place" v="farm" />
		<tag k="ssr:stedsnr" v="274619" />
		<tag k="ssr:type" v="bruk" />
	</node>
	<node changeset="57982147" id="4475752830" lat="58.709675" lon="8.3129392" timestamp="2018-04-10T18:50:43Z" uid="3497659" user="NKA" version="2">
		<tag k="fixme" v="check position" />
		<tag k="historic" v="ruins" />
		<tag k="name" v="Båsplassen" />
		<tag k="place" v="locality" />
		<tag k="ssr:stedsnr" v="415620" />
		<tag k="ssr:type" v="gammelBosettingsplass" />
	</node>
	<node changeset="57982147" id="4475752831" lat="58.7691345" lon="8.4937114" timestamp="2018-04-10T18:50:43Z" uid="3497659" user="NKA" version="2">
		<tag k="name" v="Børtinghus" />
		<tag k="place" v="farm" />
		<tag k="ssr:stedsnr" v="456231" />
		<tag k="ssr:type" v="bruk" />
	</node>
	<node changeset="57982147" id="4475752832" lat="58.759844" lon="8.6347946" timestamp="2018-04-10T18:50:43Z" uid="3497659" user="NKA" version="2">
		<tag k="building" v="cabin" />
		<tag k="name" v="Dalane" />
		<tag k="place" v="isolated_dwelling" />
		<tag k="ssr:stedsnr" v="486555" />
		<tag k="ssr:type" v="eneboligMindreBoligbygg" />
	</node>
	<node changeset="57982147" id="4475752833" lat="58.763413" lon="8.6346094" timestamp="2018-04-10T18:50:44Z" uid="3497659" user="NKA" version="2">
		<tag k="fixme" v="check position" />
		<tag k="historic" v="ruins" />
		<tag k="name" v="Dalansplassen" />
		<tag k="place" v="locality" />
		<tag k="ssr:stedsnr" v="699165" />
		<tag k="ssr:type" v="gammelBosettingsplass" />
	</node>
	<node changeset="57982147" id="4475752834" lat="58.8716229" lon="8.0521842" timestamp="2018-04-10T18:50:44Z" uid="3497659" user="NKA" version="2">
		<tag k="name" v="Dale" />
		<tag k="place" v="hamlet" />
		<tag k="ssr:stedsnr" v="790762" />
		<tag k="ssr:type" v="bruk" />
	</node>
	<node changeset="58497758" id="4475752835" lat="58.8950487" lon="8.1794975" timestamp="2018-04-28T08:07:05Z" uid="3497659" user="NKA" version="3">
		<tag k="building" v="cabin" />
		<tag k="historic" v="shieling" />
		<tag k="name" v="Dalen" />
		<tag k="place" v="isolated_dwelling" />
		<tag k="ssr:stedsnr" v="911043" />
		<tag k="ssr:type" v="fritidsbolig" />
	</node>
	<node changeset="57982147" id="4475752836" lat="58.85034" lon="8.5817185" timestamp="2018-04-10T18:50:44Z" uid="3497659" user="NKA" version="2">
		<tag k="fixme" v="check position" />
		<tag k="historic" v="ruins" />
		<tag k="name" v="Den gamle plassen" />
		<tag k="place" v="locality" />
		<tag k="ssr:stedsnr" v="31048" />
		<tag k="ssr:type" v="gammelBosettingsplass" />
	</node>
	<node changeset="57982147" id="4475752837" lat="58.6845442" lon="8.4048893" timestamp="2018-04-10T18:50:44Z" uid="3497659" user="NKA" version="2">
		<tag k="name" v="Der heime" />
		<tag k="place" v="farm" />
		<tag k="ssr:stedsnr" v="335237" />
		<tag k="ssr:type" v="bruk" />
	</node>
	<node changeset="57982147" id="4475752838" lat="58.8691168" lon="8.3367726" timestamp="2018-04-10T18:50:44Z" uid="3497659" user="NKA" version="2">
		<tag k="name" v="Der oppe" />
		<tag k="place" v="farm" />
		<tag k="ssr:stedsnr" v="718403" />
		<tag k="ssr:type" v="bruk" />
	</node>
	<node changeset="57982147" id="4475752839" lat="58.8055296" lon="8.3958655" timestamp="2018-04-10T18:50:44Z" uid="3497659" user="NKA" version="2">
		<tag k="name" v="Der ute" />
		<tag k="place" v="farm" />
		<tag k="ssr:stedsnr" v="98393" />
		<tag k="ssr:type" v="bruk" />
	</node>
	<node changeset="57982147" id="4475752840" lat="58.7864178" lon="8.6038184" timestamp="2018-04-10T18:50:44Z" uid="3497659" user="NKA" version="2">
		<tag k="building" v="cabin" />
		<tag k="name" v="Dobbestøyl" />
		<tag k="place" v="isolated_dwelling" />
		<tag k="ssr:stedsnr" v="911623" />
		<tag k="ssr:type" v="fritidsbolig" />
	</node>
	<node changeset="57982147" id="4475752841" lat="58.7211972" lon="8.1660627" timestamp="2018-04-10T18:50:44Z" uid="3497659" user="NKA" version="2">
		<tag k="building" v="cabin" />
		<tag k="name" v="Domtveit" />
		<tag k="place" v="isolated_dwelling" />
		<tag k="ssr:stedsnr" v="122474" />
		<tag k="ssr:type" v="fritidsbolig" />
	</node>
	<node changeset="57982147" id="4475752842" lat="58.7703485" lon="8.5330153" timestamp="2018-04-10T18:50:45Z" uid="3497659" user="NKA" version="2">
		<tag k="name" v="Dukane" />
		<tag k="place" v="farm" />
		<tag k="ssr:stedsnr" v="425494" />
		<tag k="ssr:type" v="bruk" />
	</node>
	<node changeset="57982147" id="4475752843" lat="58.6387193" lon="8.7485531" timestamp="2018-04-10T18:50:45Z" uid="3497659" user="NKA" version="2">
		<tag k="building" v="cabin" />
		<tag k="name" v="Eikeland" />
		<tag k="place" v="isolated_dwelling" />
		<tag k="ssr:stedsnr" v="911786" />
		<tag k="ssr:type" v="fritidsbolig" />
	</node>
	<node changeset="57982147" id="4475752844" lat="58.9196533" lon="8.5403313" timestamp="2018-04-10T18:50:45Z" uid="3497659" user="NKA" version="2">
		<tag k="name" v="Ekra" />
		<tag k="place" v="farm" />
		<tag k="ssr:stedsnr" v="304382" />
		<tag k="ssr:type" v="eneboligMindreBoligbygg" />
	</node>
	<node changeset="57982147" id="4475752845" lat="58.7019624" lon="8.601278" timestamp="2018-04-10T18:50:45Z" uid="3497659" user="NKA" version="2">
		<tag k="name" v="Elvestad" />
		<tag k="place" v="farm" />
		<tag k="ssr:stedsnr" v="426094" />
		<tag k="ssr:type" v="bruk" />
	</node>
	<node changeset="57982147" id="4475752846" lat="58.7558311" lon="8.4519074" timestamp="2018-04-10T18:50:45Z" uid="3497659" user="NKA" version="2">
		<tag k="name" v="Engenes" />
		<tag k="place" v="farm" />
		<tag k="ssr:stedsnr" v="244296" />
		<tag k="ssr:type" v="bruk" />
	</node>
	<node changeset="57982147" id="4475752847" lat="58.7590271" lon="8.4709429" timestamp="2018-04-10T18:50:45Z" uid="3497659" user="NKA" version="2">
		<tag k="name" v="Engenes" />
		<tag k="place" v="hamlet" />
		<tag k="ssr:stedsnr" v="304559" />
		<tag k="ssr:type" v="bruk" />
	</node>
	<node changeset="57982147" id="4475752848" lat="58.7578495" lon="8.4749802" timestamp="2018-04-10T18:50:45Z" uid="3497659" user="NKA" version="2">
		<tag k="name" v="Engenesstoa" />
		<tag k="place" v="locality" />
		<tag k="ssr:stedsnr" v="395236" />
		<tag k="ssr:type" v="industriområde" />
	</node>
	<node changeset="57982147" id="4475752849" lat="58.7840576" lon="8.5110017" timestamp="2018-04-10T18:50:45Z" uid="3497659" user="NKA" version="2">
		<tag k="name" v="Epletveit" />
		<tag k="place" v="farm" />
		<tag k="ssr:stedsnr" v="62616" />
		<tag k="ssr:type" v="bruk" />
	</node>
	<node changeset="57982147" id="4475752850" lat="58.7217255" lon="8.3599024" timestamp="2018-04-10T18:50:45Z" uid="3497659" user="NKA" version="2">
		<tag k="name" v="Eppeland" />
		<tag k="place" v="hamlet" />
		<tag k="ssr:stedsnr" v="426455" />
		<tag k="ssr:type" v="gard" />
	</node>
	<node changeset="57982147" id="4475752851" lat="58.7656223" lon="8.5539254" timestamp="2018-04-10T18:50:46Z" uid="3497659" user="NKA" version="2">
		<tag k="name" v="Espeland" />
		<tag k="place" v="farm" />
		<tag k="ssr:stedsnr" v="243516" />
		<tag k="ssr:type" v="bruk" />
	</node>
	<node changeset="57982147" id="4475752852" lat="58.9059376" lon="8.3018372" timestamp="2018-04-10T18:50:46Z" uid="3497659" user="NKA" version="2">
		<tag k="building" v="cabin" />
		<tag k="name" v="Fagerheim" />
		<tag k="place" v="isolated_dwelling" />
		<tag k="ssr:stedsnr" v="546047" />
		<tag k="ssr:type" v="fritidsbolig" />
	</node>
	<node changeset="57982147" id="4475752853" lat="58.695096" lon="8.5039695" timestamp="2018-04-10T18:50:46Z" uid="3497659" user="NKA" version="2">
		<tag k="fixme" v="check position" />
		<tag k="historic" v="ruins" />
		<tag k="name" v="Fermland" />
		<tag k="place" v="locality" />
		<tag k="ssr:stedsnr" v="214410" />
		<tag k="ssr:type" v="gammelBosettingsplass" />
	</node>
	<node changeset="57982147" id="4475752854" lat="58.8729456" lon="8.3007843" timestamp="2018-04-10T18:50:46Z" uid="3497659" user="NKA" version="2">
		<tag k="name" v="Fiane" />
		<tag k="place" v="farm" />
		<tag k="ssr:stedsnr" v="112113" />
		<tag k="ssr:type" v="bruk" />
	</node>
	<node changeset="57982147" id="4475752855" lat="58.8899186" lon="8.2562929" timestamp="2018-04-10T18:50:46Z" uid="3497659" user="NKA" version="2">
		<tag k="building" v="cabin" />
		<tag k="name" v="Finnhola" />
		<tag k="place" v="isolated_dwelling" />
		<tag k="ssr:stedsnr" v="719682" />
		<tag k="ssr:type" v="fritidsbolig" />
	</node>
	<node changeset="57982147" id="4475752856" lat="58.8301346" lon="8.5898027" timestamp="2018-04-10T18:50:46Z" uid="3497659" user="NKA" version="2">
		<tag k="name" v="Fiskvatn" />
		<tag k="place" v="hamlet" />
		<tag k="ssr:stedsnr" v="486650" />
		<tag k="ssr:type" v="gard" />
	</node>
	<node changeset="57982147" id="4475752857" lat="58.6970538" lon="8.6171631" timestamp="2018-04-10T18:50:46Z" uid="3497659" user="NKA" version="2">
		<tag k="building" v="cabin" />
		<tag k="name" v="Fiskådalen" />
		<tag k="place" v="isolated_dwelling" />
		<tag k="ssr:stedsnr" v="486905" />
		<tag k="ssr:type" v="fritidsbolig" />
	</node>
	<node changeset="57982147" id="4475752858" lat="58.8454063" lon="8.2673993" timestamp="2018-04-10T18:50:46Z" uid="3497659" user="NKA" version="2">
		<tag k="building" v="cabin" />
		<tag k="name" v="Fjellro" />
		<tag k="place" v="isolated_dwelling" />
		<tag k="ssr:stedsnr" v="416324" />
		<tag k="ssr:type" v="fritidsbolig" />
	</node>
	<node changeset="57982147" id="4475752859" lat="58.8896528" lon="8.2536295" timestamp="2018-04-10T18:50:47Z" uid="3497659" user="NKA" version="2">
		<tag k="name" v="Fjellsenden" />
		<tag k="place" v="farm" />
		<tag k="ssr:stedsnr" v="486027" />
		<tag k="ssr:type" v="bruk" />
	</node>
	<node changeset="57982147" id="4475752860" lat="58.7039195" lon="8.572205" timestamp="2018-04-10T18:50:47Z" uid="3497659" user="NKA" version="2">
		<tag k="building" v="cabin" />
		<tag k="name" v="Fjellsol" />
		<tag k="place" v="isolated_dwelling" />
		<tag k="ssr:stedsnr" v="821567" />
		<tag k="ssr:type" v="fritidsbolig" />
	</node>
	<node changeset="57982147" id="4475752861" lat="58.8587068" lon="8.3256975" timestamp="2018-04-10T18:50:47Z" uid="3497659" user="NKA" version="2">
		<tag k="name" v="Fjellstad" />
		<tag k="place" v="farm" />
		<tag k="ssr:stedsnr" v="51715" />
		<tag k="ssr:type" v="bruk" />
	</node>
	<node changeset="57982147" id="4475752862" lat="58.8719188" lon="8.6081049" timestamp="2018-04-10T18:50:47Z" uid="3497659" user="NKA" version="2">
		<tag k="name" v="Fjellstad" />
		<tag k="place" v="farm" />
		<tag k="ssr:stedsnr" v="122715" />
		<tag k="ssr:type" v="bruk" />
	</node>
	<node changeset="57982147" id="4475752863" lat="58.8697711" lon="8.2139548" timestamp="2018-04-10T18:50:47Z" uid="3497659" user="NKA" version="2">
		<tag k="building" v="cabin" />
		<tag k="name" v="Fjellstoga" />
		<tag k="place" v="isolated_dwelling" />
		<tag k="ssr:stedsnr" v="962221" />
		<tag k="ssr:type" v="fritidsbolig" />
	</node>
	<node changeset="57982147" id="4475752864" lat="58.8539206" lon="8.2397633" timestamp="2018-04-10T18:50:47Z" uid="3497659" user="NKA" version="2">
		<tag k="fixme" v="check position" />
		<tag k="historic" v="ruins" />
		<tag k="name" v="Fjellstøyl" />
		<tag k="place" v="locality" />
		<tag k="ssr:stedsnr" v="234352" />
		<tag k="ssr:type" v="gammelBosettingsplass" />
	</node>
	<node changeset="57982147" id="4475752865" lat="58.6886524" lon="8.5114829" timestamp="2018-04-10T18:50:47Z" uid="3497659" user="NKA" version="2">
		<tag k="name" v="Fjellstøyllia" />
		<tag k="place" v="farm" />
		<tag k="ssr:stedsnr" v="122862" />
		<tag k="ssr:type" v="bruk" />
	</node>
	<node changeset="57982147" id="4475752866" lat="58.7017315" lon="8.5877664" timestamp="2018-04-10T18:50:47Z" uid="3497659" user="NKA" version="2">
		<tag k="name" v="Fjellvik" />
		<tag k="place" v="farm" />
		<tag k="ssr:stedsnr" v="243084" />
		<tag k="ssr:type" v="bruk" />
	</node>
	<node changeset="57982147" id="4475752868" lat="58.6432846" lon="8.6790897" timestamp="2018-04-10T18:50:48Z" uid="3497659" user="NKA" version="2">
		<tag k="historic" v="ruins" />
		<tag k="name" v="Flaten" />
		<tag k="place" v="farm" />
		<tag k="ssr:stedsnr" v="486984" />
		<tag k="ssr:type" v="bruk" />
	</node>
	<node changeset="57982147" id="4475752869" lat="58.8093882" lon="8.3979791" timestamp="2018-04-10T18:50:48Z" uid="3497659" user="NKA" version="2">
		<tag k="alt_name" v="Flata" />
		<tag k="name" v="Flaten" />
		<tag k="place" v="farm" />
		<tag k="ssr:stedsnr" v="365134" />
		<tag k="ssr:type" v="bruk" />
	</node>
	<node changeset="57982147" id="4475752870" lat="58.7162871" lon="8.4523953" timestamp="2018-04-10T18:50:48Z" uid="3497659" user="NKA" version="2">
		<tag k="name" v="Flåstøyl" />
		<tag k="place" v="farm" />
		<tag k="ssr:stedsnr" v="183427" />
		<tag k="ssr:type" v="eneboligMindreBoligbygg" />
	</node>
	<node changeset="57982147" id="4475752871" lat="58.7084271" lon="8.6198031" timestamp="2018-04-10T18:50:48Z" uid="3497659" user="NKA" version="2">
		<tag k="name" v="Follestad" />
		<tag k="place" v="farm" />
		<tag k="ssr:stedsnr" v="699514" />
		<tag k="ssr:type" v="eneboligMindreBoligbygg" />
	</node>
	<node changeset="57982147" id="4475752872" lat="58.8401703" lon="8.3496261" timestamp="2018-04-10T18:50:48Z" uid="3497659" user="NKA" version="2">
		<tag k="name" v="Fossli" />
		<tag k="place" v="farm" />
		<tag k="ssr:stedsnr" v="38776" />
		<tag k="ssr:type" v="eneboligMindreBoligbygg" />
	</node>
	<node changeset="57982147" id="4475752873" lat="58.7047822" lon="8.5673105" timestamp="2018-04-10T18:50:48Z" uid="3497659" user="NKA" version="2">
		<tag k="name" v="Fossnes" />
		<tag k="place" v="farm" />
		<tag k="ssr:stedsnr" v="486072" />
		<tag k="ssr:type" v="bruk" />
	</node>
	<node changeset="57982147" id="4475752874" lat="58.7074325" lon="8.5667046" timestamp="2018-04-10T18:50:48Z" uid="3497659" user="NKA" version="2">
		<tag k="name" v="Fossund" />
		<tag k="place" v="farm" />
		<tag k="ssr:stedsnr" v="942560" />
		<tag k="ssr:type" v="eneboligMindreBoligbygg" />
	</node>
	<node changeset="57982147" id="4475752875" lat="58.708853" lon="8.566464" timestamp="2018-04-10T18:50:48Z" uid="3497659" user="NKA" version="2">
		<tag k="name" v="Fredheim" />
		<tag k="place" v="farm" />
		<tag k="ssr:stedsnr" v="456570" />
		<tag k="ssr:type" v="eneboligMindreBoligbygg" />
	</node>
	<node changeset="57982147" id="4475752876" lat="58.6577783" lon="8.6869314" timestamp="2018-04-10T18:50:49Z" uid="3497659" user="NKA" version="2">
		<tag k="name" v="Fredlund" />
		<tag k="place" v="farm" />
		<tag k="ssr:stedsnr" v="850936" />
		<tag k="ssr:type" v="eneboligMindreBoligbygg" />
	</node>
	<node changeset="57982147" id="4475752877" lat="58.7141698" lon="8.3512278" timestamp="2018-04-10T18:50:49Z" uid="3497659" user="NKA" version="2">
		<tag k="name" v="Frivoll" />
		<tag k="place" v="farm" />
		<tag k="ssr:stedsnr" v="153499" />
		<tag k="ssr:type" v="bruk" />
	</node>
	<node changeset="57982147" id="4475752878" lat="58.656829" lon="8.7284066" timestamp="2018-04-10T18:50:49Z" uid="3497659" user="NKA" version="2">
		<tag k="name" v="Furland" />
		<tag k="place" v="farm" />
		<tag k="ssr:stedsnr" v="122946" />
		<tag k="ssr:type" v="bruk" />
	</node>
	<node changeset="57982147" id="4475752879" lat="58.8883363" lon="8.2711538" timestamp="2018-04-10T18:50:49Z" uid="3497659" user="NKA" version="2">
		<tag k="name" v="Furulund" />
		<tag k="place" v="farm" />
		<tag k="ssr:stedsnr" v="850024" />
		<tag k="ssr:type" v="bruk" />
	</node>
	<node changeset="57982147" id="4475752880" lat="58.7308274" lon="8.5338857" timestamp="2018-04-10T18:50:49Z" uid="3497659" user="NKA" version="2">
		<tag k="fixme" v="check position" />
		<tag k="historic" v="ruins" />
		<tag k="name" v="Gamle Harnes" />
		<tag k="place" v="locality" />
		<tag k="ssr:stedsnr" v="517665" />
		<tag k="ssr:type" v="gammelBosettingsplass" />
	</node>
	<node changeset="57982147" id="4475752881" lat="58.7958373" lon="8.5146195" timestamp="2018-04-10T18:50:49Z" uid="3497659" user="NKA" version="2">
		<tag k="name" v="Gamle Mobru" />
		<tag k="place" v="locality" />
		<tag k="ssr:stedsnr" v="881137" />
		<tag k="ssr:type" v="bruk" />
	</node>
	<node changeset="57982147" id="4475752882" lat="58.6651991" lon="8.7292149" timestamp="2018-04-10T18:50:49Z" uid="3497659" user="NKA" version="2">
		<tag k="fixme" v="check position" />
		<tag k="historic" v="ruins" />
		<tag k="name" v="Gamle Sandland" />
		<tag k="place" v="locality" />
		<tag k="ssr:stedsnr" v="44938" />
		<tag k="ssr:type" v="gammelBosettingsplass" />
	</node>
	<node changeset="57982147" id="4475752883" lat="58.9675965" lon="8.1443132" timestamp="2018-04-10T18:50:50Z" uid="3497659" user="NKA" version="2">
		<tag k="fixme" v="check position" />
		<tag k="historic" v="ruins" />
		<tag k="name" v="Gamle Sundstøyl" />
		<tag k="place" v="locality" />
		<tag k="ssr:stedsnr" v="233986" />
		<tag k="ssr:type" v="gammelBosettingsplass" />
	</node>
	<node changeset="57982147" id="4475752884" lat="58.7078646" lon="8.5667025" timestamp="2018-04-10T18:50:50Z" uid="3497659" user="NKA" version="2">
		<tag k="name" v="Gangdalen" />
		<tag k="place" v="farm" />
		<tag k="ssr:stedsnr" v="789079" />
		<tag k="ssr:type" v="bruk" />
	</node>
	<node changeset="57982147" id="4475752885" lat="58.810235" lon="8.4750174" timestamp="2018-04-10T18:50:50Z" uid="3497659" user="NKA" version="2">
		<tag k="name" v="Gangsei" />
		<tag k="place" v="farm" />
		<tag k="ssr:stedsnr" v="243667" />
		<tag k="ssr:type" v="bruk" />
	</node>
	<node changeset="57982147" id="4475752886" lat="58.7424099" lon="8.4598824" timestamp="2018-04-10T18:50:50Z" uid="3497659" user="NKA" version="2">
		<tag k="name" v="Gjermundnes" />
		<tag k="place" v="farm" />
		<tag k="ssr:stedsnr" v="668418" />
		<tag k="ssr:type" v="bruk" />
	</node>
	<node changeset="57982147" id="4475752887" lat="58.7131371" lon="8.6402536" timestamp="2018-04-10T18:50:50Z" uid="3497659" user="NKA" version="2">
		<tag k="name" v="Gjerustad" />
		<tag k="place" v="farm" />
		<tag k="ssr:stedsnr" v="607071" />
		<tag k="ssr:type" v="bruk" />
	</node>
	<node changeset="58497758" id="4475752888" lat="58.9597453" lon="8.1775918" timestamp="2018-04-28T08:07:05Z" uid="3497659" user="NKA" version="3">
		<tag k="historic" v="shieling" />
		<tag k="name" v="Gjevdeli" />
		<tag k="place" v="farm" />
		<tag k="ssr:stedsnr" v="668918" />
		<tag k="ssr:type" v="bruk" />
	</node>
	<node changeset="57982147" id="257882657" lat="58.7662999" lon="8.4858257" timestamp="2018-04-10T18:39:58Z" uid="3497659" user="NKA" version="9">
		<tag k="name" v="Åmli" />
		<tag k="place" v="village" />
		<tag k="ssr:stedsnr" v="304506" />
		<tag k="ssr:type" v="tettsted" />
	</node>
	<node changeset="56035354" id="4485470829" lat="58.767379" lon="8.4876742" timestamp="2018-02-03T17:50:06Z" uid="2114448" user="FredrikLindseth_import" version="2" />
	<node changeset="56035354" id="4485470830" lat="58.7673932" lon="8.487791" timestamp="2018-02-03T17:50:06Z" uid="2114448" user="FredrikLindseth_import" version="2" />
	<node changeset="56035354" id="4485470832" lat="58.7674034" lon="8.4875843" timestamp="2018-02-03T17:50:06Z" uid="2114448" user="FredrikLindseth_import" version="2" />
	<node changeset="56035354" id="4485470833" lat="58.7673955" lon="8.4877153" timestamp="2018-02-03T17:50:06Z" uid="2114448" user="FredrikLindseth_import" version="2" />
	<node changeset="56035354" id="4485470835" lat="58.7674397" lon="8.487621" timestamp="2018-02-03T17:50:06Z" uid="2114448" user="FredrikLindseth_import" version="2" />
	<node changeset="56035354" id="4485470836" lat="58.7674591" lon="8.4875501" timestamp="2018-02-03T17:50:06Z" uid="2114448" user="FredrikLindseth_import" version="2" />
	<node changeset="56035354" id="4485470842" lat="58.7675435" lon="8.4879428" timestamp="2018-02-03T17:50:06Z" uid="2114448" user="FredrikLindseth_import" version="2" />
	<node changeset="56035354" id="4485470844" lat="58.7675831" lon="8.4879178" timestamp="2018-02-03T17:50:06Z" uid="2114448" user="FredrikLindseth_import" version="2" />
	<node changeset="56035354" id="4485470845" lat="58.7675922" lon="8.487927" timestamp="2018-02-03T17:50:06Z" uid="2114448" user="FredrikLindseth_import" version="2" />
	<node changeset="56035354" id="4485470846" lat="58.7676205" lon="8.4877807" timestamp="2018-02-03T17:50:06Z" uid="2114448" user="FredrikLindseth_import" version="2" />
	<node changeset="56035354" id="4485470847" lat="58.7676108" lon="8.4877033" timestamp="2018-02-03T17:50:06Z" uid="2114448" user="FredrikLindseth_import" version="2" />
	<node changeset="56035354" id="4485470848" lat="58.7676206" lon="8.4879052" timestamp="2018-02-03T17:50:06Z" uid="2114448" user="FredrikLindseth_import" version="2" />
	<node changeset="58497758" id="4475753089" lat="58.9639575" lon="8.1709815" timestamp="2018-04-28T08:07:05Z" uid="3497659" user="NKA" version="3">
		<tag k="building" v="cabin" />
		<tag k="historic" v="shieling" />
		<tag k="name" v="Gjevdestøyl" />
		<tag k="place" v="isolated_dwelling" />
		<tag k="ssr:stedsnr" v="364907" />
		<tag k="ssr:type" v="fritidsbolig" />
	</node>
	<node changeset="56035354" id="4485470850" lat="58.767637" lon="8.4878494" timestamp="2018-02-03T17:50:06Z" uid="2114448" user="FredrikLindseth_import" version="2" />
	<node changeset="57982147" id="4475753091" lat="58.7936352" lon="8.4870607" timestamp="2018-04-10T18:50:51Z" uid="3497659" user="NKA" version="2">
		<tag k="name" v="Gjøvland" />
		<tag k="place" v="farm" />
		<tag k="ssr:stedsnr" v="304587" />
		<tag k="ssr:type" v="bruk" />
	</node>
	<node changeset="57982147" id="4475753092" lat="58.771844" lon="8.4915427" timestamp="2018-04-10T18:50:51Z" uid="3497659" user="NKA" version="2">
		<tag k="name" v="Granhei" />
		<tag k="place" v="farm" />
		<tag k="ssr:stedsnr" v="881205" />
		<tag k="ssr:type" v="bruk" />
	</node>
	<node changeset="57982147" id="4475753093" lat="58.775381" lon="8.54352" timestamp="2018-04-10T18:50:51Z" uid="3497659" user="NKA" version="2">
		<tag k="alt_name" v="Plassen" />
		<tag k="name" v="Granli" />
		<tag k="place" v="farm" />
		<tag k="ssr:stedsnr" v="304613" />
		<tag k="ssr:type" v="eneboligMindreBoligbygg" />
	</node>
	<node changeset="57982147" id="4475753094" lat="58.7969614" lon="8.0267531" timestamp="2018-04-10T18:50:51Z" uid="3497659" user="NKA" version="2">
		<tag k="building" v="cabin" />
		<tag k="name" v="Granli" />
		<tag k="place" v="isolated_dwelling" />
		<tag k="ssr:stedsnr" v="851796" />
		<tag k="ssr:type" v="fritidsbolig" />
	</node>
	<node changeset="57982147" id="4475753095" lat="58.796054" lon="8.4934128" timestamp="2018-04-10T18:50:51Z" uid="3497659" user="NKA" version="2">
		<tag k="name" v="Grasnes" />
		<tag k="place" v="farm" />
		<tag k="ssr:stedsnr" v="294104" />
		<tag k="ssr:type" v="bruk" />
	</node>
	<node changeset="57982147" id="4475753096" lat="58.6930524" lon="8.7224222" timestamp="2018-04-10T18:50:51Z" uid="3497659" user="NKA" version="2">
		<tag k="alt_name" v="Grusåsen" />
		<tag k="name" v="Grasåsen" />
		<tag k="place" v="farm" />
		<tag k="ssr:stedsnr" v="790935" />
		<tag k="ssr:type" v="bruk" />
	</node>
	<node changeset="57982147" id="4475753097" lat="58.68219" lon="8.7056577" timestamp="2018-04-10T18:50:51Z" uid="3497659" user="NKA" version="2">
		<tag k="name" v="Grimeland" />
		<tag k="place" v="farm" />
		<tag k="ssr:stedsnr" v="364924" />
		<tag k="ssr:type" v="bruk" />
	</node>
	<node changeset="57982147" id="4475753098" lat="58.6861882" lon="8.7036752" timestamp="2018-04-10T18:50:51Z" uid="3497659" user="NKA" version="2">
		<tag k="name" v="Grimelandshovet" />
		<tag k="place" v="farm" />
		<tag k="ssr:stedsnr" v="365940" />
		<tag k="ssr:type" v="bruk" />
	</node>
	<node changeset="57982147" id="4475753099" lat="58.6758717" lon="8.687364" timestamp="2018-04-10T18:50:51Z" uid="3497659" user="NKA" version="2">
		<tag k="fixme" v="check position" />
		<tag k="historic" v="ruins" />
		<tag k="name" v="Gryting" />
		<tag k="place" v="locality" />
		<tag k="ssr:stedsnr" v="760506" />
		<tag k="ssr:type" v="gammelBosettingsplass" />
	</node>
	<node changeset="57982147" id="4475753100" lat="58.7802835" lon="8.2601808" timestamp="2018-04-10T18:50:52Z" uid="3497659" user="NKA" version="2">
		<tag k="name" v="Gunleifjell" />
		<tag k="place" v="farm" />
		<tag k="ssr:stedsnr" v="243234" />
		<tag k="ssr:type" v="bruk" />
	</node>
	<node changeset="57982147" id="4475753101" lat="58.7494122" lon="8.4624501" timestamp="2018-04-10T18:50:52Z" uid="3497659" user="NKA" version="2">
		<tag k="building" v="cabin" />
		<tag k="name" v="Hagebua" />
		<tag k="place" v="isolated_dwelling" />
		<tag k="ssr:stedsnr" v="456649" />
		<tag k="ssr:type" v="fritidsbolig" />
	</node>
	<node changeset="57982147" id="4475753102" lat="58.8686841" lon="8.3253152" timestamp="2018-04-10T18:50:52Z" uid="3497659" user="NKA" version="2">
		<tag k="name" v="Hagen" />
		<tag k="place" v="farm" />
		<tag k="ssr:stedsnr" v="486012" />
		<tag k="ssr:type" v="bruk" />
	</node>
	<node changeset="57982147" id="4475753103" lat="58.8851795" lon="8.5976166" timestamp="2018-04-10T18:50:52Z" uid="3497659" user="NKA" version="2">
		<tag k="name" v="Hagen" />
		<tag k="place" v="farm" />
		<tag k="ssr:stedsnr" v="459" />
		<tag k="ssr:type" v="eneboligMindreBoligbygg" />
	</node>
	<node changeset="57982147" id="4475753104" lat="58.8852818" lon="8.093288" timestamp="2018-04-10T18:50:52Z" uid="3497659" user="NKA" version="2">
		<tag k="building" v="cabin" />
		<tag k="name" v="Hagestøyl" />
		<tag k="place" v="isolated_dwelling" />
		<tag k="ssr:stedsnr" v="122714" />
		<tag k="ssr:type" v="fritidsbolig" />
	</node>
	<node changeset="57982147" id="4475753105" lat="58.7323013" lon="8.533819" timestamp="2018-04-10T18:50:52Z" uid="3497659" user="NKA" version="2">
		<tag k="fixme" v="check position" />
		<tag k="historic" v="ruins" />
		<tag k="name" v="Harnes" />
		<tag k="place" v="locality" />
		<tag k="ssr:stedsnr" v="821671" />
		<tag k="ssr:type" v="gammelBosettingsplass" />
	</node>
	<node changeset="57982147" id="4475753106" lat="58.8495359" lon="8.3467623" timestamp="2018-04-10T18:50:52Z" uid="3497659" user="NKA" version="2">
		<tag k="name" v="Harstveit" />
		<tag k="place" v="hamlet" />
		<tag k="ssr:stedsnr" v="364074" />
		<tag k="ssr:type" v="bruk" />
	</node>
	<node changeset="57982147" id="4475753107" lat="58.856918" lon="8.3352803" timestamp="2018-04-10T18:50:52Z" uid="3497659" user="NKA" version="2">
		<tag k="name" v="Harstveit" />
		<tag k="place" v="farm" />
		<tag k="ssr:stedsnr" v="546128" />
		<tag k="ssr:type" v="bruk" />
	</node>
	<node changeset="57982147" id="4475753108" lat="58.767162" lon="8.5313394" timestamp="2018-04-10T18:50:53Z" uid="3497659" user="NKA" version="2">
		<tag k="name" v="Haugane" />
		<tag k="place" v="farm" />
		<tag k="ssr:stedsnr" v="638729" />
		<tag k="ssr:type" v="bruk" />
	</node>
	<node changeset="57982147" id="4475753109" lat="58.8330849" lon="8.3945384" timestamp="2018-04-10T18:50:53Z" uid="3497659" user="NKA" version="2">
		<tag k="name" v="Haugane" />
		<tag k="place" v="farm" />
		<tag k="ssr:stedsnr" v="962486" />
		<tag k="ssr:type" v="bruk" />
	</node>
	<node changeset="57982147" id="4475753110" lat="58.8625535" lon="8.446491" timestamp="2018-04-10T18:50:53Z" uid="3497659" user="NKA" version="2">
		<tag k="alt_name" v="Haugedalen" />
		<tag k="building" v="cabin" />
		<tag k="name" v="Haugedal" />
		<tag k="place" v="isolated_dwelling" />
		<tag k="ssr:stedsnr" v="850112" />
		<tag k="ssr:type" v="fritidsbolig" />
	</node>
	<node changeset="57982147" id="4475753111" lat="58.6848159" lon="8.4012391" timestamp="2018-04-10T18:50:53Z" uid="3497659" user="NKA" version="2">
		<tag k="name" v="Haugen" />
		<tag k="place" v="farm" />
		<tag k="ssr:stedsnr" v="335303" />
		<tag k="ssr:type" v="bruk" />
	</node>
	<node changeset="57982147" id="4475753112" lat="58.7090291" lon="8.5887753" timestamp="2018-04-10T18:50:53Z" uid="3497659" user="NKA" version="2">
		<tag k="name" v="Haugen" />
		<tag k="place" v="farm" />
		<tag k="ssr:stedsnr" v="517573" />
		<tag k="ssr:type" v="bruk" />
	</node>
	<node changeset="57982147" id="4475753113" lat="58.8305855" lon="8.1019031" timestamp="2018-04-10T18:50:53Z" uid="3497659" user="NKA" version="2">
		<tag k="name" v="Haugen" />
		<tag k="place" v="farm" />
		<tag k="ssr:stedsnr" v="474908" />
		<tag k="ssr:type" v="bruk" />
	</node>
	<node changeset="57982147" id="4475753114" lat="58.907061" lon="8.5549542" timestamp="2018-04-10T18:50:53Z" uid="3497659" user="NKA" version="2">
		<tag k="name" v="Haugen" />
		<tag k="place" v="farm" />
		<tag k="ssr:stedsnr" v="335002" />
		<tag k="ssr:type" v="eneboligMindreBoligbygg" />
	</node>
	<node changeset="58497758" id="4475753115" lat="58.8132318" lon="8.4145124" timestamp="2018-04-28T08:07:06Z" uid="3497659" user="NKA" version="3">
		<tag k="building" v="cabin" />
		<tag k="historic" v="shieling" />
		<tag k="name" v="Haugestøylen" />
		<tag k="place" v="isolated_dwelling" />
		<tag k="ssr:stedsnr" v="99423" />
		<tag k="ssr:type" v="fritidsbolig" />
	</node>
	<node changeset="57982147" id="4475753116" lat="58.8742415" lon="8.2994415" timestamp="2018-04-10T18:50:53Z" uid="3497659" user="NKA" version="2">
		<tag k="name" v="Haugå" />
		<tag k="place" v="farm" />
		<tag k="ssr:stedsnr" v="658094" />
		<tag k="ssr:type" v="bruk" />
	</node>
	<node changeset="57982147" id="4475753117" lat="58.7425656" lon="8.4455775" timestamp="2018-04-10T18:50:54Z" uid="3497659" user="NKA" version="2">
		<tag k="name" v="Havstad" />
		<tag k="place" v="farm" />
		<tag k="ssr:stedsnr" v="31657" />
		<tag k="ssr:type" v="bruk" />
	</node>
	<node changeset="57982147" id="4475753118" lat="58.8023673" lon="8.5303329" timestamp="2018-04-10T18:50:54Z" uid="3497659" user="NKA" version="2">
		<tag k="historic" v="yes" />
		<tag k="name" v="Hefte" />
		<tag k="place" v="locality" />
		<tag k="ssr:stedsnr" v="942454" />
		<tag k="ssr:type" v="stø" />
	</node>
	<node changeset="57982147" id="4475753119" lat="58.6926472" lon="8.3951663" timestamp="2018-04-10T18:50:54Z" uid="3497659" user="NKA" version="2">
		<tag k="historic" v="yes" />
		<tag k="name" v="Heftet" />
		<tag k="place" v="locality" />
		<tag k="ssr:stedsnr" v="31317" />
		<tag k="ssr:type" v="stø" />
	</node>
	<node changeset="57982147" id="4475753120" lat="58.7233886" lon="8.3859462" timestamp="2018-04-10T18:50:54Z" uid="3497659" user="NKA" version="2">
		<tag k="name" v="Heggevollen" />
		<tag k="place" v="farm" />
		<tag k="ssr:stedsnr" v="638290" />
		<tag k="ssr:type" v="eneboligMindreBoligbygg" />
	</node>
	<node changeset="57982147" id="4475753121" lat="58.7248694" lon="8.3412619" timestamp="2018-04-10T18:50:54Z" uid="3497659" user="NKA" version="2">
		<tag k="name" v="Heggland" />
		<tag k="place" v="farm" />
		<tag k="ssr:stedsnr" v="32466" />
		<tag k="ssr:type" v="bruk" />
	</node>
	<node changeset="57982147" id="4475753122" lat="58.8382168" lon="8.5813731" timestamp="2018-04-10T18:50:54Z" uid="3497659" user="NKA" version="2">
		<tag k="name" v="Heimtun" />
		<tag k="place" v="farm" />
		<tag k="ssr:stedsnr" v="729654" />
		<tag k="ssr:type" v="eneboligMindreBoligbygg" />
	</node>
	<node changeset="57982147" id="4475753123" lat="58.8875402" lon="8.2713814" timestamp="2018-04-10T18:50:54Z" uid="3497659" user="NKA" version="2">
		<tag k="name" v="Heimtun" />
		<tag k="place" v="farm" />
		<tag k="ssr:stedsnr" v="780661" />
		<tag k="ssr:type" v="eneboligMindreBoligbygg" />
	</node>
	<node changeset="57982147" id="4475753124" lat="58.7431918" lon="8.4577247" timestamp="2018-04-10T18:50:54Z" uid="3497659" user="NKA" version="2">
		<tag k="name" v="Helset" />
		<tag k="place" v="farm" />
		<tag k="ssr:stedsnr" v="760656" />
		<tag k="ssr:type" v="bruk" />
	</node>
	<node changeset="57982147" id="4475753125" lat="58.7349472" lon="8.4647288" timestamp="2018-04-10T18:50:54Z" uid="3497659" user="NKA" version="2">
		<tag k="building" v="cabin" />
		<tag k="name" v="Henkane" />
		<tag k="place" v="isolated_dwelling" />
		<tag k="ssr:stedsnr" v="335685" />
		<tag k="ssr:type" v="gammelBosettingsplass" />
	</node>
	<node changeset="57982147" id="4475753126" lat="58.7727611" lon="8.0970939" timestamp="2018-04-10T18:50:55Z" uid="3497659" user="NKA" version="2">
		<tag k="name" v="Hestkleiv" />
		<tag k="place" v="farm" />
		<tag k="ssr:stedsnr" v="182234" />
		<tag k="ssr:type" v="bruk" />
	</node>
	<node changeset="58497758" id="4475753127" lat="58.9043209" lon="8.04389" timestamp="2018-04-28T08:07:06Z" uid="3497659" user="NKA" version="3">
		<tag k="historic" v="shieling" />
		<tag k="name" v="Heststoglia" />
		<tag k="place" v="locality" />
		<tag k="ssr:stedsnr" v="452365" />
		<tag k="ssr:type" v="seterStøl" />
	</node>
	<node changeset="57982147" id="4475753128" lat="58.6741475" lon="8.7136592" timestamp="2018-04-10T18:50:55Z" uid="3497659" user="NKA" version="2">
		<tag k="name" v="Hestås" />
		<tag k="place" v="farm" />
		<tag k="ssr:stedsnr" v="517507" />
		<tag k="ssr:type" v="bruk" />
	</node>
	<node changeset="57982147" id="4475753129" lat="58.8178033" lon="8.1937575" timestamp="2018-04-10T18:50:55Z" uid="3497659" user="NKA" version="2">
		<tag k="name" v="Hillestadheia" />
		<tag k="place" v="neighbourhood" />
		<tag k="ssr:stedsnr" v="224839" />
		<tag k="ssr:type" v="hyttefelt" />
	</node>
	<node changeset="57982147" id="4475753130" lat="58.7702396" lon="8.2492835" timestamp="2018-04-10T18:50:55Z" uid="3497659" user="NKA" version="2">
		<tag k="name" v="Holte" />
		<tag k="place" v="farm" />
		<tag k="ssr:stedsnr" v="415420" />
		<tag k="ssr:type" v="bruk" />
	</node>
	<node changeset="57982147" id="4475753131" lat="58.8336397" lon="8.3971107" timestamp="2018-04-10T18:50:55Z" uid="3497659" user="NKA" version="2">
		<tag k="name" v="Homdrom" />
		<tag k="place" v="hamlet" />
		<tag k="ssr:stedsnr" v="122148" />
		<tag k="ssr:type" v="bygdelagBygd" />
	</node>
	<node changeset="57982147" id="4475753132" lat="58.8651923" lon="8.3214407" timestamp="2018-04-10T18:50:55Z" uid="3497659" user="NKA" version="2">
		<tag k="name" v="Hommen" />
		<tag k="place" v="farm" />
		<tag k="ssr:stedsnr" v="779111" />
		<tag k="ssr:type" v="bruk" />
	</node>
	<node changeset="57982147" id="4475753133" lat="58.6869942" lon="8.6517692" timestamp="2018-04-10T18:50:55Z" uid="3497659" user="NKA" version="2">
		<tag k="name" v="Hovde" />
		<tag k="place" v="farm" />
		<tag k="ssr:stedsnr" v="62885" />
		<tag k="ssr:type" v="bruk" />
	</node>
	<node changeset="57982147" id="4475753134" lat="58.6405009" lon="8.7150026" timestamp="2018-04-10T18:50:55Z" uid="3497659" user="NKA" version="2">
		<tag k="name" v="Hovet" />
		<tag k="place" v="farm" />
		<tag k="ssr:stedsnr" v="183974" />
		<tag k="ssr:type" v="bruk" />
	</node>
	<node changeset="57982147" id="4475753135" lat="58.8066815" lon="8.3914649" timestamp="2018-04-10T18:50:56Z" uid="3497659" user="NKA" version="2">
		<tag k="name" v="Hunemo" />
		<tag k="place" v="farm" />
		<tag k="ssr:stedsnr" v="607138" />
		<tag k="ssr:type" v="bruk" />
	</node>
	<node changeset="57982147" id="4475753136" lat="58.669311" lon="8.6376618" timestamp="2018-04-10T18:50:56Z" uid="3497659" user="NKA" version="2">
		<tag k="name" v="Hushovd" />
		<tag k="place" v="farm" />
		<tag k="ssr:stedsnr" v="789959" />
		<tag k="ssr:type" v="bruk" />
	</node>
	<node changeset="57982147" id="4475753137" lat="58.7104814" lon="8.6046359" timestamp="2018-04-10T18:50:56Z" uid="3497659" user="NKA" version="2">
		<tag k="name" v="Hytta" />
		<tag k="place" v="farm" />
		<tag k="ssr:stedsnr" v="153584" />
		<tag k="ssr:type" v="eneboligMindreBoligbygg" />
	</node>
	<node changeset="58497758" id="4475753138" lat="58.8786954" lon="8.209706" timestamp="2018-04-28T08:07:06Z" uid="3497659" user="NKA" version="3">
		<tag k="alt_name" v="Hågestøyl" />
		<tag k="building" v="cabin" />
		<tag k="historic" v="shieling" />
		<tag k="name" v="Hågstøyl" />
		<tag k="place" v="isolated_dwelling" />
		<tag k="ssr:stedsnr" v="426050" />
		<tag k="ssr:type" v="fritidsbolig" />
	</node>
	<node changeset="57982147" id="4475753139" lat="58.7547123" lon="8.302943" timestamp="2018-04-10T18:50:56Z" uid="3497659" user="NKA" version="2">
		<tag k="name" v="Håkedal" />
		<tag k="place" v="farm" />
		<tag k="ssr:stedsnr" v="486334" />
		<tag k="ssr:type" v="bruk" />
	</node>
	<node changeset="58497758" id="4475753140" lat="58.690777" lon="8.4389378" timestamp="2018-04-28T08:07:06Z" uid="3497659" user="NKA" version="3">
		<tag k="historic" v="shieling" />
		<tag k="name" v="Håstøyl" />
		<tag k="place" v="locality" />
		<tag k="ssr:stedsnr" v="335420" />
		<tag k="ssr:type" v="seterStøl" />
	</node>
	<node changeset="57982147" id="4475753141" lat="58.7554405" lon="8.0760899" timestamp="2018-04-10T18:50:57Z" uid="3497659" user="NKA" version="2">
		<tag k="name" v="Høgeli" />
		<tag k="place" v="farm" />
		<tag k="ssr:stedsnr" v="243855" />
		<tag k="ssr:type" v="bruk" />
	</node>
	<node changeset="57982147" id="4475753142" lat="58.769133" lon="8.4975886" timestamp="2018-04-10T18:50:57Z" uid="3497659" user="NKA" version="2">
		<tag k="name" v="Høgevoll" />
		<tag k="place" v="farm" />
		<tag k="ssr:stedsnr" v="182505" />
		<tag k="ssr:type" v="bruk" />
	</node>
	<node changeset="57982147" id="4475753143" lat="58.77466" lon="8.4337612" timestamp="2018-04-10T18:50:57Z" uid="3497659" user="NKA" version="2">
		<tag k="fixme" v="check position" />
		<tag k="historic" v="ruins" />
		<tag k="name" v="Høydalsbua" />
		<tag k="place" v="locality" />
		<tag k="ssr:stedsnr" v="415888" />
		<tag k="ssr:type" v="gammelBosettingsplass" />
	</node>
	<node changeset="57982147" id="4475753144" lat="58.6290611" lon="8.7225949" timestamp="2018-04-10T18:50:57Z" uid="3497659" user="NKA" version="2">
		<tag k="name" v="Imeland" />
		<tag k="place" v="farm" />
		<tag k="ssr:stedsnr" v="851767" />
		<tag k="ssr:type" v="bruk" />
	</node>
	<node changeset="57982147" id="4475753145" lat="58.6799102" lon="8.4002672" timestamp="2018-04-10T18:50:57Z" uid="3497659" user="NKA" version="2">
		<tag k="fixme" v="check position" />
		<tag k="historic" v="ruins" />
		<tag k="name" v="Ingersplass" />
		<tag k="place" v="locality" />
		<tag k="ssr:stedsnr" v="457229" />
		<tag k="ssr:type" v="gammelBosettingsplass" />
	</node>
	<node changeset="57982147" id="4475753146" lat="58.7970944" lon="8.2228902" timestamp="2018-04-10T18:50:57Z" uid="3497659" user="NKA" version="2">
		<tag k="name" v="Innistog" />
		<tag k="place" v="locality" />
		<tag k="ssr:stedsnr" v="476891" />
		<tag k="ssr:type" v="bruk" />
	</node>
	<node changeset="57982147" id="4475753147" lat="58.6985695" lon="8.3486217" timestamp="2018-04-10T18:50:57Z" uid="3497659" user="NKA" version="2">
		<tag k="name" v="Innjorda" />
		<tag k="place" v="farm" />
		<tag k="ssr:stedsnr" v="1444" />
		<tag k="ssr:type" v="bruk" />
	</node>
	<node changeset="57982147" id="4475753148" lat="58.8979029" lon="8.2577805" timestamp="2018-04-10T18:50:57Z" uid="3497659" user="NKA" version="2">
		<tag k="name" v="Jørundland" />
		<tag k="place" v="hamlet" />
		<tag k="ssr:stedsnr" v="364042" />
		<tag k="ssr:type" v="bruk" />
	</node>
	<node changeset="57982147" id="4475753149" lat="58.7694474" lon="8.3683944" timestamp="2018-04-10T18:50:58Z" uid="3497659" user="NKA" version="2">
		<tag k="building" v="cabin" />
		<tag k="name" v="Kallingsheim" />
		<tag k="place" v="isolated_dwelling" />
		<tag k="ssr:stedsnr" v="462146" />
		<tag k="ssr:type" v="gammelBosettingsplass" />
	</node>
	<node changeset="57982147" id="4475753150" lat="58.6917429" lon="8.621127" timestamp="2018-04-10T18:50:58Z" uid="3497659" user="NKA" version="2">
		<tag k="fixme" v="check position" />
		<tag k="historic" v="ruins" />
		<tag k="name" v="Karisbakke" />
		<tag k="place" v="locality" />
		<tag k="ssr:stedsnr" v="881526" />
		<tag k="ssr:type" v="gammelBosettingsplass" />
	</node>
	<node changeset="57982147" id="4475753151" lat="58.7961124" lon="8.2289828" timestamp="2018-04-10T18:50:58Z" uid="3497659" user="NKA" version="2">
		<tag k="name" v="Kasin" />
		<tag k="place" v="farm" />
		<tag k="ssr:stedsnr" v="668151" />
		<tag k="ssr:type" v="bruk" />
	</node>
	<node changeset="57982147" id="4475753152" lat="58.8453565" lon="8.6588735" timestamp="2018-04-10T18:50:58Z" uid="3497659" user="NKA" version="2">
		<tag k="alt_name" v="Katterås" />
		<tag k="name" v="Katerås" />
		<tag k="place" v="farm" />
		<tag k="ssr:stedsnr" v="243732" />
		<tag k="ssr:type" v="bruk" />
	</node>
	<node changeset="57982147" id="4475753153" lat="58.7302423" lon="8.5392214" timestamp="2018-04-10T18:50:58Z" uid="3497659" user="NKA" version="2">
		<tag k="name" v="Kaunberget" />
		<tag k="place" v="farm" />
		<tag k="ssr:stedsnr" v="183095" />
		<tag k="ssr:type" v="bruk" />
	</node>
	<node changeset="57982147" id="4475753154" lat="58.6854359" lon="8.6763404" timestamp="2018-04-10T18:50:58Z" uid="3497659" user="NKA" version="2">
		<tag k="name" v="Kil" />
		<tag k="place" v="farm" />
		<tag k="ssr:stedsnr" v="790900" />
		<tag k="ssr:type" v="bruk" />
	</node>
	<node changeset="57982147" id="4475753155" lat="58.624155" lon="8.6999427" timestamp="2018-04-10T18:50:59Z" uid="3497659" user="NKA" version="2">
		<tag k="name" v="Kiland" />
		<tag k="place" v="farm" />
		<tag k="ssr:stedsnr" v="364774" />
		<tag k="ssr:type" v="bruk" />
	</node>
	<node changeset="57982147" id="4475753156" lat="58.7040693" lon="8.3250117" timestamp="2018-04-10T18:50:59Z" uid="3497659" user="NKA" version="2">
		<tag k="fixme" v="check position" />
		<tag k="historic" v="ruins" />
		<tag k="name" v="Kjorrmoplassen" />
		<tag k="place" v="locality" />
		<tag k="ssr:stedsnr" v="961714" />
		<tag k="ssr:type" v="gammelBosettingsplass" />
	</node>
	<node changeset="57982147" id="4475753157" lat="58.7128129" lon="8.4238322" timestamp="2018-04-10T18:50:59Z" uid="3497659" user="NKA" version="2">
		<tag k="historic" v="yes" />
		<tag k="name" v="Klaffmyrheftet" />
		<tag k="place" v="locality" />
		<tag k="ssr:stedsnr" v="32288" />
		<tag k="ssr:type" v="stø" />
	</node>
	<node changeset="57982147" id="4475753158" lat="58.6780684" lon="8.7127218" timestamp="2018-04-10T18:50:59Z" uid="3497659" user="NKA" version="2">
		<tag k="name" v="Kleiva" />
		<tag k="place" v="farm" />
		<tag k="ssr:stedsnr" v="182903" />
		<tag k="ssr:type" v="eneboligMindreBoligbygg" />
	</node>
	<node changeset="57982147" id="4475753159" lat="58.7161758" lon="8.4016012" timestamp="2018-04-10T18:50:59Z" uid="3497659" user="NKA" version="2">
		<tag k="name" v="Kleiva" />
		<tag k="place" v="farm" />
		<tag k="ssr:stedsnr" v="1492" />
		<tag k="ssr:type" v="gammelBosettingsplass" />
	</node>
	<node changeset="57982147" id="4475753160" lat="58.7224419" lon="8.3817632" timestamp="2018-04-10T18:50:59Z" uid="3497659" user="NKA" version="2">
		<tag k="name" v="Kleiva" />
		<tag k="place" v="farm" />
		<tag k="ssr:stedsnr" v="851450" />
		<tag k="ssr:type" v="eneboligMindreBoligbygg" />
	</node>
	<node changeset="57982147" id="4475753161" lat="58.6896595" lon="8.6438355" timestamp="2018-04-10T18:50:59Z" uid="3497659" user="NKA" version="2">
		<tag k="name" v="Kleivane" />
		<tag k="place" v="farm" />
		<tag k="ssr:stedsnr" v="1881" />
		<tag k="ssr:type" v="bruk" />
	</node>
	<node changeset="57982147" id="4475753162" lat="58.8289537" lon="8.5991857" timestamp="2018-04-10T18:50:59Z" uid="3497659" user="NKA" version="2">
		<tag k="fixme" v="check position" />
		<tag k="historic" v="ruins" />
		<tag k="name" v="Kleivane" />
		<tag k="place" v="locality" />
		<tag k="ssr:stedsnr" v="213492" />
		<tag k="ssr:type" v="gammelBosettingsplass" />
	</node>
	<node changeset="57982147" id="4475753163" lat="58.8665048" lon="8.3262997" timestamp="2018-04-10T18:51:00Z" uid="3497659" user="NKA" version="2">
		<tag k="name" v="Kleivane" />
		<tag k="place" v="farm" />
		<tag k="ssr:stedsnr" v="486084" />
		<tag k="ssr:type" v="bruk" />
	</node>
	<node changeset="57982147" id="4475753164" lat="58.7344722" lon="8.525546" timestamp="2018-04-10T18:51:00Z" uid="3497659" user="NKA" version="2">
		<tag k="name" v="Kløvfjell" />
		<tag k="place" v="farm" />
		<tag k="ssr:stedsnr" v="426109" />
		<tag k="ssr:type" v="bruk" />
	</node>
	<node changeset="57982147" id="4475753165" lat="58.7132999" lon="8.3590825" timestamp="2018-04-10T18:51:00Z" uid="3497659" user="NKA" version="2">
		<tag k="name" v="Kolstad" />
		<tag k="place" v="farm" />
		<tag k="ssr:stedsnr" v="882436" />
		<tag k="ssr:type" v="bruk" />
	</node>
	<node changeset="57982147" id="4475753166" lat="58.7212096" lon="8.5474064" timestamp="2018-04-10T18:51:00Z" uid="3497659" user="NKA" version="2">
		<tag k="name" v="Kongsgård" />
		<tag k="place" v="farm" />
		<tag k="ssr:stedsnr" v="789114" />
		<tag k="ssr:type" v="eneboligMindreBoligbygg" />
	</node>
	<node changeset="57982147" id="4475753167" lat="58.7367643" lon="8.4612561" timestamp="2018-04-10T18:51:00Z" uid="3497659" user="NKA" version="2">
		<tag k="name" v="Kringlebakk" />
		<tag k="place" v="farm" />
		<tag k="ssr:stedsnr" v="153687" />
		<tag k="ssr:type" v="bruk" />
	</node>
	<node changeset="57982147" id="4475753168" lat="58.927179" lon="8.0686037" timestamp="2018-04-10T18:51:00Z" uid="3497659" user="NKA" version="2">
		<tag k="building" v="cabin" />
		<tag k="name" v="Krokvasshytta" />
		<tag k="place" v="isolated_dwelling" />
		<tag k="ssr:stedsnr" v="355895" />
		<tag k="ssr:type" v="fritidsbolig" />
	</node>
	<node changeset="57982147" id="4475753169" lat="58.7717138" lon="8.2501831" timestamp="2018-04-10T18:51:00Z" uid="3497659" user="NKA" version="2">
		<tag k="alt_name" v="Kruna" />
		<tag k="name" v="Krona" />
		<tag k="place" v="farm" />
		<tag k="ssr:stedsnr" v="364265" />
		<tag k="ssr:type" v="bruk" />
	</node>
	<node changeset="57982147" id="4475753170" lat="58.8221074" lon="8.5459715" timestamp="2018-04-10T18:51:00Z" uid="3497659" user="NKA" version="2">
		<tag k="name" v="Krossbekk" />
		<tag k="place" v="farm" />
		<tag k="ssr:stedsnr" v="122663" />
		<tag k="ssr:type" v="bruk" />
	</node>
	<node changeset="57982147" id="4475753171" lat="58.8540509" lon="8.4527437" timestamp="2018-04-10T18:51:00Z" uid="3497659" user="NKA" version="2">
		<tag k="building" v="cabin" />
		<tag k="name" v="Krossen" />
		<tag k="place" v="isolated_dwelling" />
		<tag k="ssr:stedsnr" v="61110" />
		<tag k="ssr:type" v="fritidsbolig" />
	</node>
	<node changeset="57982147" id="4475753172" lat="58.8711675" lon="8.3677647" timestamp="2018-04-10T18:51:01Z" uid="3497659" user="NKA" version="2">
		<tag k="building" v="cabin" />
		<tag k="name" v="Krossvasshytta" />
		<tag k="place" v="isolated_dwelling" />
		<tag k="ssr:stedsnr" v="705473" />
		<tag k="ssr:type" v="fritidsbolig" />
	</node>
	<node changeset="57982147" id="4475753173" lat="58.8748566" lon="8.3016467" timestamp="2018-04-10T18:51:01Z" uid="3497659" user="NKA" version="2">
		<tag k="name" v="Kvernhusbakken" />
		<tag k="place" v="farm" />
		<tag k="ssr:stedsnr" v="365003" />
		<tag k="ssr:type" v="bruk" />
	</node>
	<node changeset="57982147" id="4475753174" lat="58.8332112" lon="8.4023765" timestamp="2018-04-10T18:51:01Z" uid="3497659" user="NKA" version="2">
		<tag k="name" v="Kvienga" />
		<tag k="place" v="farm" />
		<tag k="ssr:stedsnr" v="658557" />
		<tag k="ssr:type" v="bruk" />
	</node>
	<node changeset="57982147" id="4475753175" lat="58.8401664" lon="8.3049083" timestamp="2018-04-10T18:51:01Z" uid="3497659" user="NKA" version="2">
		<tag k="alt_name" v="Tjørnestveit" />
		<tag k="building" v="cabin" />
		<tag k="name" v="Kynnestveit" />
		<tag k="place" v="isolated_dwelling" />
		<tag k="ssr:stedsnr" v="547082" />
		<tag k="ssr:type" v="fritidsbolig" />
	</node>
	<node changeset="57982147" id="4475753176" lat="58.8540071" lon="8.3419574" timestamp="2018-04-10T18:51:01Z" uid="3497659" user="NKA" version="2">
		<tag k="name" v="Landbø" />
		<tag k="place" v="farm" />
		<tag k="ssr:stedsnr" v="172733" />
		<tag k="ssr:type" v="bruk" />
	</node>
	<node changeset="57982147" id="4475753177" lat="58.854388" lon="8.3378118" timestamp="2018-04-10T18:51:01Z" uid="3497659" user="NKA" version="2">
		<tag k="name" v="Landbø" />
		<tag k="place" v="farm" />
		<tag k="ssr:stedsnr" v="182108" />
		<tag k="ssr:type" v="bruk" />
	</node>
	<node changeset="57982147" id="4475753178" lat="58.8535685" lon="8.2978604" timestamp="2018-04-10T18:51:01Z" uid="3497659" user="NKA" version="2">
		<tag k="name" v="Landsverk" />
		<tag k="place" v="farm" />
		<tag k="ssr:stedsnr" v="546102" />
		<tag k="ssr:type" v="bruk" />
	</node>
	<node changeset="57982147" id="4475753179" lat="58.7001968" lon="8.3764852" timestamp="2018-04-10T18:51:02Z" uid="3497659" user="NKA" version="2">
		<tag k="name" v="Landsås" />
		<tag k="place" v="farm" />
		<tag k="ssr:stedsnr" v="668465" />
		<tag k="ssr:type" v="bruk" />
	</node>
	<node changeset="57982147" id="4475753180" lat="58.8740435" lon="8.3051496" timestamp="2018-04-10T18:51:02Z" uid="3497659" user="NKA" version="2">
		<tag k="name" v="Langvoll" />
		<tag k="place" v="farm" />
		<tag k="ssr:stedsnr" v="1006" />
		<tag k="ssr:type" v="bruk" />
	</node>
	<node changeset="57982147" id="4475753181" lat="58.8823244" lon="8.2549496" timestamp="2018-04-10T18:51:02Z" uid="3497659" user="NKA" version="2">
		<tag k="name" v="Lauvfok" />
		<tag k="place" v="farm" />
		<tag k="ssr:stedsnr" v="294003" />
		<tag k="ssr:type" v="bruk" />
	</node>
	<node changeset="57982147" id="4475753182" lat="58.8555077" lon="8.4172287" timestamp="2018-04-10T18:51:02Z" uid="3497659" user="NKA" version="2">
		<tag k="name" v="Lauvhommen" />
		<tag k="place" v="locality" />
		<tag k="ssr:stedsnr" v="850128" />
		<tag k="ssr:type" v="fritidsbolig" />
	</node>
	<node changeset="57982147" id="4475753183" lat="58.8660873" lon="8.5815911" timestamp="2018-04-10T18:51:02Z" uid="3497659" user="NKA" version="2">
		<tag k="name" v="Lia" />
		<tag k="place" v="farm" />
		<tag k="ssr:stedsnr" v="304711" />
		<tag k="ssr:type" v="bruk" />
	</node>
	<node changeset="57982147" id="4475753184" lat="58.7534759" lon="8.5370203" timestamp="2018-04-10T18:51:02Z" uid="3497659" user="NKA" version="2">
		<tag k="name" v="Liane" />
		<tag k="place" v="farm" />
		<tag k="ssr:stedsnr" v="304533" />
		<tag k="ssr:type" v="bruk" />
	</node>
	<node changeset="57982147" id="4475753185" lat="58.7839146" lon="8.2360285" timestamp="2018-04-10T18:51:02Z" uid="3497659" user="NKA" version="2">
		<tag k="name" v="Liane" />
		<tag k="place" v="farm" />
		<tag k="ssr:stedsnr" v="61227" />
		<tag k="ssr:type" v="bruk" />
	</node>
	<node changeset="57982147" id="4475753186" lat="58.8670798" lon="8.5871872" timestamp="2018-04-10T18:51:02Z" uid="3497659" user="NKA" version="2">
		<tag k="building" v="cabin" />
		<tag k="name" v="Librakka" />
		<tag k="place" v="isolated_dwelling" />
		<tag k="ssr:stedsnr" v="456169" />
		<tag k="ssr:type" v="fritidsbolig" />
	</node>
	<node changeset="57982147" id="4475753187" lat="58.7075537" lon="8.6081932" timestamp="2018-04-10T18:51:02Z" uid="3497659" user="NKA" version="2">
		<tag k="name" v="Lien" />
		<tag k="place" v="farm" />
		<tag k="ssr:stedsnr" v="396512" />
		<tag k="ssr:type" v="eneboligMindreBoligbygg" />
	</node>
	<node changeset="57982147" id="4475753188" lat="58.7152412" lon="8.3026357" timestamp="2018-04-10T18:51:03Z" uid="3497659" user="NKA" version="2">
		<tag k="name" v="Lille Baas" />
		<tag k="place" v="farm" />
		<tag k="ssr:stedsnr" v="658620" />
		<tag k="ssr:type" v="eneboligMindreBoligbygg" />
	</node>
	<node changeset="57982147" id="4475753189" lat="58.7016984" lon="8.3561514" timestamp="2018-04-10T18:51:03Z" uid="3497659" user="NKA" version="2">
		<tag k="alt_name" v="Hommedal lille" />
		<tag k="name" v="Lille Homedal" />
		<tag k="place" v="farm" />
		<tag k="ssr:stedsnr" v="668469" />
		<tag k="ssr:type" v="bruk" />
	</node>
	<node changeset="57982147" id="4475753190" lat="58.7756025" lon="8.4969121" timestamp="2018-04-10T18:51:03Z" uid="3497659" user="NKA" version="2">
		<tag k="name" v="Lillemo" />
		<tag k="place" v="hamlet" />
		<tag k="ssr:stedsnr" v="637138" />
		<tag k="ssr:type" v="grend" />
	</node>
	<node changeset="57982147" id="4475753191" lat="58.8573969" lon="8.2934272" timestamp="2018-04-10T18:51:03Z" uid="3497659" user="NKA" version="2">
		<tag k="fixme" v="check position" />
		<tag k="historic" v="ruins" />
		<tag k="name" v="Lindestøyl" />
		<tag k="place" v="locality" />
		<tag k="ssr:stedsnr" v="415721" />
		<tag k="ssr:type" v="gammelBosettingsplass" />
	</node>
	<node changeset="57982147" id="4475753192" lat="58.8025227" lon="8.1825676" timestamp="2018-04-10T18:51:03Z" uid="3497659" user="NKA" version="2">
		<tag k="alt_name" v="Lindås" />
		<tag k="name" v="Lindsås" />
		<tag k="place" v="farm" />
		<tag k="ssr:stedsnr" v="850133" />
		<tag k="ssr:type" v="bruk" />
	</node>
	<node changeset="57982147" id="4475753193" lat="58.8769518" lon="8.2188427" timestamp="2018-04-10T18:51:03Z" uid="3497659" user="NKA" version="2">
		<tag k="building" v="cabin" />
		<tag k="name" v="Lisletjønnhytta" />
		<tag k="place" v="isolated_dwelling" />
		<tag k="ssr:stedsnr" v="597009" />
		<tag k="ssr:type" v="fritidsbolig" />
	</node>
	<node changeset="57982147" id="4475753194" lat="58.8269906" lon="8.2417106" timestamp="2018-04-10T18:51:03Z" uid="3497659" user="NKA" version="2">
		<tag k="building" v="cabin" />
		<tag k="name" v="Listøyl" />
		<tag k="place" v="isolated_dwelling" />
		<tag k="ssr:stedsnr" v="607078" />
		<tag k="ssr:type" v="fritidsbolig" />
	</node>
	<node changeset="58497758" id="4475753195" lat="58.8648095" lon="8.2012579" timestamp="2018-04-28T08:07:06Z" uid="3497659" user="NKA" version="3">
		<tag k="building" v="cabin" />
		<tag k="historic" v="shieling" />
		<tag k="name" v="Listøyl" />
		<tag k="place" v="isolated_dwelling" />
		<tag k="ssr:stedsnr" v="183010" />
		<tag k="ssr:type" v="fritidsbolig" />
	</node>
	<node changeset="58497758" id="4475753196" lat="58.9081488" lon="8.2825015" timestamp="2018-04-28T08:07:06Z" uid="3497659" user="NKA" version="3">
		<tag k="building" v="cabin" />
		<tag k="historic" v="shieling" />
		<tag k="name" v="Listøyl" />
		<tag k="place" v="isolated_dwelling" />
		<tag k="ssr:stedsnr" v="425983" />
		<tag k="ssr:type" v="fritidsbolig" />
	</node>
	<node changeset="57982147" id="4475753197" lat="58.7958688" lon="8.226512" timestamp="2018-04-10T18:51:04Z" uid="3497659" user="NKA" version="2">
		<tag k="name" v="Livoll" />
		<tag k="place" v="farm" />
		<tag k="ssr:stedsnr" v="961917" />
		<tag k="ssr:type" v="bruk" />
	</node>
	<node changeset="57982147" id="4475753198" lat="58.8061339" lon="8.331445" timestamp="2018-04-10T18:51:04Z" uid="3497659" user="NKA" version="2">
		<tag k="alt_name" v="Ljosdalen" />
		<tag k="building" v="cabin" />
		<tag k="name" v="Ljosdalane" />
		<tag k="place" v="isolated_dwelling" />
		<tag k="ssr:stedsnr" v="850138" />
		<tag k="ssr:type" v="fritidsbolig" />
	</node>
	<node changeset="57982147" id="4475753199" lat="58.7477676" lon="8.448669" timestamp="2018-04-10T18:51:04Z" uid="3497659" user="NKA" version="2">
		<tag k="name" v="Ljosland" />
		<tag k="place" v="farm" />
		<tag k="ssr:stedsnr" v="911396" />
		<tag k="ssr:type" v="eneboligMindreBoligbygg" />
	</node>
	<node changeset="57982147" id="4475753200" lat="58.7777762" lon="8.5728602" timestamp="2018-04-10T18:51:04Z" uid="3497659" user="NKA" version="2">
		<tag k="historic" v="yes" />
		<tag k="name" v="Ljosvassheftet" />
		<tag k="place" v="locality" />
		<tag k="ssr:stedsnr" v="213524" />
		<tag k="ssr:type" v="stø" />
	</node>
	<node changeset="57982147" id="4475753201" lat="58.8109532" lon="8.2483721" timestamp="2018-04-10T18:51:04Z" uid="3497659" user="NKA" version="2">
		<tag k="building" v="cabin" />
		<tag k="name" v="Lokkeli" />
		<tag k="place" v="isolated_dwelling" />
		<tag k="ssr:stedsnr" v="244194" />
		<tag k="ssr:type" v="fritidsbolig" />
	</node>
	<node changeset="57982147" id="4475753202" lat="58.9054729" lon="8.5578409" timestamp="2018-04-10T18:51:05Z" uid="3497659" user="NKA" version="2">
		<tag k="name" v="Lund" />
		<tag k="place" v="farm" />
		<tag k="ssr:stedsnr" v="942036" />
		<tag k="ssr:type" v="eneboligMindreBoligbygg" />
	</node>
	<node changeset="57982147" id="4475753203" lat="58.6882427" lon="8.6989047" timestamp="2018-04-10T18:51:05Z" uid="3497659" user="NKA" version="2">
		<tag k="name" v="Lunde" />
		<tag k="place" v="farm" />
		<tag k="ssr:stedsnr" v="214640" />
		<tag k="ssr:type" v="eneboligMindreBoligbygg" />
	</node>
	<node changeset="57982147" id="4475753204" lat="58.7455477" lon="8.4578176" timestamp="2018-04-10T18:51:05Z" uid="3497659" user="NKA" version="2">
		<tag k="name" v="Lunden" />
		<tag k="place" v="farm" />
		<tag k="ssr:stedsnr" v="638636" />
		<tag k="ssr:type" v="bruk" />
	</node>
	<node changeset="57982147" id="4475753205" lat="58.7863203" lon="8.2356978" timestamp="2018-04-10T18:51:05Z" uid="3497659" user="NKA" version="2">
		<tag k="name" v="Lunden" />
		<tag k="place" v="farm" />
		<tag k="ssr:stedsnr" v="243218" />
		<tag k="ssr:type" v="bruk" />
	</node>
	<node changeset="57982147" id="4475753206" lat="58.6842018" lon="8.4101446" timestamp="2018-04-10T18:51:05Z" uid="3497659" user="NKA" version="2">
		<tag k="name" v="Lunderød" />
		<tag k="place" v="farm" />
		<tag k="ssr:stedsnr" v="638222" />
		<tag k="ssr:type" v="eneboligMindreBoligbygg" />
	</node>
	<node changeset="57982147" id="4475753207" lat="58.6858562" lon="8.4039952" timestamp="2018-04-10T18:51:05Z" uid="3497659" user="NKA" version="2">
		<tag k="name" v="Lundevoll" />
		<tag k="place" v="farm" />
		<tag k="ssr:stedsnr" v="32274" />
		<tag k="ssr:type" v="bruk" />
	</node>
	<node changeset="57982147" id="4475753208" lat="58.7702641" lon="8.4949769" timestamp="2018-04-10T18:51:05Z" uid="3497659" user="NKA" version="2">
		<tag k="name" v="Lundevoll" />
		<tag k="place" v="farm" />
		<tag k="ssr:stedsnr" v="577230" />
		<tag k="ssr:type" v="bruk" />
	</node>
	<node changeset="57982147" id="4475753209" lat="58.8388758" lon="8.3570306" timestamp="2018-04-10T18:51:05Z" uid="3497659" user="NKA" version="2">
		<tag k="name" v="Lundvoll" />
		<tag k="place" v="farm" />
		<tag k="ssr:stedsnr" v="463749" />
		<tag k="ssr:type" v="bruk" />
	</node>
	<node changeset="57982147" id="4475753210" lat="58.8859155" lon="8.5751535" timestamp="2018-04-10T18:51:05Z" uid="3497659" user="NKA" version="2">
		<tag k="name" v="Lyngmo" />
		<tag k="place" v="farm" />
		<tag k="ssr:stedsnr" v="31022" />
		<tag k="ssr:type" v="eneboligMindreBoligbygg" />
	</node>
	<node changeset="58497758" id="4475753211" lat="58.8127121" lon="8.4135979" timestamp="2018-04-28T08:07:06Z" uid="3497659" user="NKA" version="3">
		<tag k="historic" v="shieling" />
		<tag k="name" v="Midtstøyl" />
		<tag k="place" v="farm" />
		<tag k="ssr:stedsnr" v="38430" />
		<tag k="ssr:type" v="eneboligMindreBoligbygg" />
	</node>
	<node changeset="57982147" id="4475753212" lat="58.8440507" lon="8.0914864" timestamp="2018-04-10T18:51:06Z" uid="3497659" user="NKA" version="2">
		<tag k="name" v="Mjåland" />
		<tag k="place" v="farm" />
		<tag k="ssr:stedsnr" v="61767" />
		<tag k="ssr:type" v="bruk" />
	</node>
	<node changeset="57982147" id="4475753213" lat="58.8826787" lon="8.2370153" timestamp="2018-04-10T18:51:06Z" uid="3497659" user="NKA" version="2">
		<tag k="name" v="Mjåland" />
		<tag k="place" v="farm" />
		<tag k="ssr:stedsnr" v="426048" />
		<tag k="ssr:type" v="bruk" />
	</node>
	<node changeset="57982147" id="4475753214" lat="58.7740522" lon="8.4185427" timestamp="2018-04-10T18:51:06Z" uid="3497659" user="NKA" version="2">
		<tag k="building" v="cabin" />
		<tag k="name" v="Mjåvasstoga" />
		<tag k="place" v="isolated_dwelling" />
		<tag k="ssr:stedsnr" v="961854" />
		<tag k="ssr:type" v="fritidsbolig" />
	</node>
	<node changeset="57982147" id="4475753215" lat="58.7768906" lon="8.4138655" timestamp="2018-04-10T18:51:06Z" uid="3497659" user="NKA" version="2">
		<tag k="building" v="cabin" />
		<tag k="name" v="Mjåvasstøyl" />
		<tag k="place" v="isolated_dwelling" />
		<tag k="ssr:stedsnr" v="204" />
		<tag k="ssr:type" v="fritidsbolig" />
	</node>
	<node changeset="57982147" id="4475753216" lat="58.8601947" lon="8.3231465" timestamp="2018-04-10T18:51:06Z" uid="3497659" user="NKA" version="2">
		<tag k="name" v="Mo" />
		<tag k="place" v="farm" />
		<tag k="ssr:stedsnr" v="354696" />
		<tag k="ssr:type" v="bruk" />
	</node>
	<node changeset="57982147" id="4475753217" lat="58.8032439" lon="8.4424855" timestamp="2018-04-10T18:51:06Z" uid="3497659" user="NKA" version="2">
		<tag k="alt_name" v="Moghus" />
		<tag k="historic" v="ruins" />
		<tag k="name" v="Mogghus" />
		<tag k="place" v="locality" />
		<tag k="ssr:stedsnr" v="850152" />
		<tag k="ssr:type" v="fritidsbolig" />
	</node>
	<node changeset="57982147" id="4475753218" lat="58.6794656" lon="8.3731587" timestamp="2018-04-10T18:51:06Z" uid="3497659" user="NKA" version="2">
		<tag k="alt_name" v="Moen" />
		<tag k="name" v="Monen" />
		<tag k="place" v="farm" />
		<tag k="ssr:stedsnr" v="935197" />
		<tag k="ssr:type" v="bruk" />
	</node>
	<node changeset="57982147" id="4475753219" lat="58.889281" lon="8.5862801" timestamp="2018-04-10T18:51:06Z" uid="3497659" user="NKA" version="2">
		<tag k="alt_name" v="Moen" />
		<tag k="name" v="Monen" />
		<tag k="place" v="farm" />
		<tag k="ssr:stedsnr" v="486476" />
		<tag k="ssr:type" v="eneboligMindreBoligbygg" />
	</node>
	<node changeset="57982147" id="4475753220" lat="58.8894716" lon="8.2645778" timestamp="2018-04-10T18:51:07Z" uid="3497659" user="NKA" version="2">
		<tag k="alt_name" v="Mo" />
		<tag k="name" v="Monland" />
		<tag k="place" v="farm" />
		<tag k="ssr:stedsnr" v="365038" />
		<tag k="ssr:type" v="bruk" />
	</node>
	<node changeset="57982147" id="4475753221" lat="58.6933886" lon="8.7127469" timestamp="2018-04-10T18:51:07Z" uid="3497659" user="NKA" version="2">
		<tag k="name" v="Mosberg" />
		<tag k="place" v="farm" />
		<tag k="ssr:stedsnr" v="607890" />
		<tag k="ssr:type" v="bruk" />
	</node>
	<node changeset="57982147" id="4475753222" lat="58.670957" lon="8.5586119" timestamp="2018-04-10T18:51:07Z" uid="3497659" user="NKA" version="2">
		<tag k="building" v="cabin" />
		<tag k="name" v="Mosberglia" />
		<tag k="place" v="isolated_dwelling" />
		<tag k="ssr:stedsnr" v="607906" />
		<tag k="ssr:type" v="fritidsbolig" />
	</node>
	<node changeset="57982147" id="4475753223" lat="58.8615523" lon="8.3261129" timestamp="2018-04-10T18:51:07Z" uid="3497659" user="NKA" version="2">
		<tag k="name" v="Mosdøl" />
		<tag k="place" v="farm" />
		<tag k="ssr:stedsnr" v="961696" />
		<tag k="ssr:type" v="bruk" />
	</node>
	<node changeset="57982147" id="4475753224" lat="58.6740827" lon="8.5746581" timestamp="2018-04-10T18:51:07Z" uid="3497659" user="NKA" version="2">
		<tag k="building" v="cabin" />
		<tag k="name" v="Mosli" />
		<tag k="place" v="isolated_dwelling" />
		<tag k="ssr:stedsnr" v="517671" />
		<tag k="ssr:type" v="fritidsbolig" />
	</node>
	<node changeset="57982147" id="4475753225" lat="58.8845725" lon="8.3980085" timestamp="2018-04-10T18:51:07Z" uid="3497659" user="NKA" version="2">
		<tag k="building" v="cabin" />
		<tag k="name" v="Mostakk" />
		<tag k="place" v="isolated_dwelling" />
		<tag k="ssr:stedsnr" v="911022" />
		<tag k="ssr:type" v="fritidsbolig" />
	</node>
	<node changeset="57982147" id="4475753226" lat="58.8603782" lon="8.3241673" timestamp="2018-04-10T18:51:07Z" uid="3497659" user="NKA" version="2">
		<tag k="name" v="Mosvald" />
		<tag k="place" v="hamlet" />
		<tag k="ssr:stedsnr" v="632358" />
		<tag k="ssr:type" v="grend" />
	</node>
	<node changeset="57982147" id="4475753227" lat="58.8261087" lon="8.5974022" timestamp="2018-04-10T18:51:08Z" uid="3497659" user="NKA" version="2">
		<tag k="fixme" v="check position" />
		<tag k="historic" v="ruins" />
		<tag k="name" v="Mylbakk" />
		<tag k="place" v="locality" />
		<tag k="ssr:stedsnr" v="395470" />
		<tag k="ssr:type" v="gammelBosettingsplass" />
	</node>
	<node changeset="57982147" id="4475753228" lat="58.6886566" lon="8.6907652" timestamp="2018-04-10T18:51:08Z" uid="3497659" user="NKA" version="2">
		<tag k="name" v="Myrane" />
		<tag k="place" v="farm" />
		<tag k="ssr:stedsnr" v="577622" />
		<tag k="ssr:type" v="eneboligMindreBoligbygg" />
	</node>
	<node changeset="57982147" id="4475753229" lat="58.8995375" lon="8.5656527" timestamp="2018-04-10T18:51:08Z" uid="3497659" user="NKA" version="2">
		<tag k="name" v="Myrane" />
		<tag k="place" v="farm" />
		<tag k="ssr:stedsnr" v="183418" />
		<tag k="ssr:type" v="eneboligMindreBoligbygg" />
	</node>
	<node changeset="57982147" id="4475753230" lat="58.6538382" lon="8.3975498" timestamp="2018-04-10T18:51:08Z" uid="3497659" user="NKA" version="2">
		<tag k="name" v="Myre" />
		<tag k="place" v="farm" />
		<tag k="ssr:stedsnr" v="122278" />
		<tag k="ssr:type" v="eneboligMindreBoligbygg" />
	</node>
	<node changeset="57982147" id="4475753231" lat="58.6701714" lon="8.7086002" timestamp="2018-04-10T18:51:08Z" uid="3497659" user="NKA" version="2">
		<tag k="name" v="Myrli" />
		<tag k="place" v="farm" />
		<tag k="ssr:stedsnr" v="243964" />
		<tag k="ssr:type" v="bruk" />
	</node>
	<node changeset="57982147" id="4475753232" lat="58.6880217" lon="8.6385155" timestamp="2018-04-10T18:51:08Z" uid="3497659" user="NKA" version="2">
		<tag k="name" v="Myrvang" />
		<tag k="place" v="farm" />
		<tag k="ssr:stedsnr" v="1882" />
		<tag k="ssr:type" v="bruk" />
	</node>
	<node changeset="57982147" id="4475753233" lat="58.7889807" lon="8.2348602" timestamp="2018-04-10T18:51:08Z" uid="3497659" user="NKA" version="2">
		<tag k="name" v="Myrvang" />
		<tag k="place" v="farm" />
		<tag k="ssr:stedsnr" v="607244" />
		<tag k="ssr:type" v="bruk" />
	</node>
	<node changeset="58497758" id="4475753234" lat="58.7921003" lon="8.1426739" timestamp="2018-04-28T08:07:06Z" uid="3497659" user="NKA" version="3">
		<tag k="historic" v="shieling" />
		<tag k="name" v="Mågestøyl" />
		<tag k="place" v="locality" />
		<tag k="ssr:stedsnr" v="546148" />
		<tag k="ssr:type" v="seterStøl" />
	</node>
	<node changeset="57982147" id="4475753235" lat="58.7242605" lon="8.5508862" timestamp="2018-04-10T18:51:09Z" uid="3497659" user="NKA" version="2">
		<tag k="name" v="Måmoen" />
		<tag k="place" v="farm" />
		<tag k="ssr:stedsnr" v="61109" />
		<tag k="ssr:type" v="bruk" />
	</node>
	<node changeset="58497758" id="4475753236" lat="58.8997147" lon="8.3228724" timestamp="2018-04-28T08:07:07Z" uid="3497659" user="NKA" version="3">
		<tag k="building" v="cabin" />
		<tag k="historic" v="shieling" />
		<tag k="name" v="Måvasstøyl" />
		<tag k="place" v="isolated_dwelling" />
		<tag k="ssr:stedsnr" v="243028" />
		<tag k="ssr:type" v="fritidsbolig" />
	</node>
	<node changeset="57982147" id="4475753237" lat="58.762286" lon="8.5308343" timestamp="2018-04-10T18:51:09Z" uid="3497659" user="NKA" version="2">
		<tag k="name" v="Mørland" />
		<tag k="place" v="farm" />
		<tag k="ssr:stedsnr" v="577245" />
		<tag k="ssr:type" v="bruk" />
	</node>
	<node changeset="57982147" id="4475753238" lat="58.7605726" lon="8.3848026" timestamp="2018-04-10T18:51:09Z" uid="3497659" user="NKA" version="2">
		<tag k="building" v="cabin" />
		<tag k="name" v="Napen" />
		<tag k="place" v="isolated_dwelling" />
		<tag k="ssr:stedsnr" v="911313" />
		<tag k="ssr:type" v="fritidsbolig" />
	</node>
	<node changeset="57982147" id="4475753239" lat="58.877707" lon="8.3319521" timestamp="2018-04-10T18:51:09Z" uid="3497659" user="NKA" version="2">
		<tag k="building" v="cabin" />
		<tag k="name" v="Napestua" />
		<tag k="place" v="isolated_dwelling" />
		<tag k="ssr:stedsnr" v="354141" />
		<tag k="ssr:type" v="fritidsbolig" />
	</node>
	<node changeset="57982147" id="4475753240" lat="58.8535195" lon="8.1684489" timestamp="2018-04-10T18:51:09Z" uid="3497659" user="NKA" version="2">
		<tag k="building" v="cabin" />
		<tag k="name" v="Nasestøyl" />
		<tag k="place" v="isolated_dwelling" />
		<tag k="ssr:stedsnr" v="668086" />
		<tag k="ssr:type" v="fritidsbolig" />
	</node>
	<node changeset="57982147" id="4475753241" lat="58.8755197" lon="8.2229423" timestamp="2018-04-10T18:51:10Z" uid="3497659" user="NKA" version="2">
		<tag k="building" v="cabin" />
		<tag k="name" v="Nattebu" />
		<tag k="place" v="isolated_dwelling" />
		<tag k="ssr:stedsnr" v="416032" />
		<tag k="ssr:type" v="fritidsbolig" />
	</node>
	<node changeset="57982147" id="4475753242" lat="58.7500682" lon="8.3234855" timestamp="2018-04-10T18:51:10Z" uid="3497659" user="NKA" version="2">
		<tag k="building" v="cabin" />
		<tag k="name" v="Nauthom" />
		<tag k="place" v="isolated_dwelling" />
		<tag k="ssr:stedsnr" v="486312" />
		<tag k="ssr:type" v="fritidsbolig" />
	</node>
	<node changeset="57982147" id="4475753243" lat="58.8241296" lon="8.6442102" timestamp="2018-04-10T18:51:10Z" uid="3497659" user="NKA" version="2">
		<tag k="alt_name" v="Haukedalen" />
		<tag k="building" v="cabin" />
		<tag k="name" v="Nedre Haukedalen" />
		<tag k="place" v="isolated_dwelling" />
		<tag k="ssr:stedsnr" v="183669" />
		<tag k="ssr:type" v="fritidsbolig" />
	</node>
	<node changeset="58497758" id="4475753244" lat="58.8533062" lon="8.5319549" timestamp="2018-04-28T08:07:07Z" uid="3497659" user="NKA" version="3">
		<tag k="historic" v="shieling" />
		<tag k="name" v="Nedre Helleren" />
		<tag k="place" v="locality" />
		<tag k="ssr:stedsnr" v="577049" />
		<tag k="ssr:type" v="seterStøl" />
	</node>
	<node changeset="57982147" id="4475753245" lat="58.8330201" lon="8.1045672" timestamp="2018-04-10T18:51:10Z" uid="3497659" user="NKA" version="2">
		<tag k="alt_name" v="Moen nedre;Moen" />
		<tag k="name" v="Nedre Moen" />
		<tag k="place" v="farm" />
		<tag k="ssr:stedsnr" v="183063" />
		<tag k="ssr:type" v="bruk" />
	</node>
	<node changeset="57982147" id="4475753246" lat="58.7528167" lon="8.1254209" timestamp="2018-04-10T18:51:10Z" uid="3497659" user="NKA" version="2">
		<tag k="alt_name" v="Skjeggedal" />
		<tag k="name" v="Nedre Skjeggedal" />
		<tag k="place" v="hamlet" />
		<tag k="ssr:stedsnr" v="607227" />
		<tag k="ssr:type" v="bruk" />
	</node>
	<node changeset="57982147" id="4475753247" lat="58.8820852" lon="8.2843916" timestamp="2018-04-10T18:51:11Z" uid="3497659" user="NKA" version="2">
		<tag k="alt_name" v="Årli nedre;Årli" />
		<tag k="name" v="Nedre Årli" />
		<tag k="place" v="farm" />
		<tag k="ssr:stedsnr" v="668047" />
		<tag k="ssr:type" v="bruk" />
	</node>
	<node changeset="57982147" id="4475753248" lat="58.8392652" lon="8.3599566" timestamp="2018-04-10T18:51:11Z" uid="3497659" user="NKA" version="2">
		<tag k="name" v="Negard" />
		<tag k="place" v="farm" />
		<tag k="ssr:stedsnr" v="426092" />
		<tag k="ssr:type" v="bruk" />
	</node>
	<node changeset="57982147" id="4475753249" lat="58.8421235" lon="8.1001148" timestamp="2018-04-10T18:51:11Z" uid="3497659" user="NKA" version="2">
		<tag k="name" v="Negard" />
		<tag k="place" v="farm" />
		<tag k="ssr:stedsnr" v="425099" />
		<tag k="ssr:type" v="bruk" />
	</node>
	<node changeset="57982147" id="4475753250" lat="58.7691324" lon="8.4910045" timestamp="2018-04-10T18:51:11Z" uid="3497659" user="NKA" version="2">
		<tag k="name" v="Nergarden" />
		<tag k="place" v="farm" />
		<tag k="ssr:stedsnr" v="638193" />
		<tag k="ssr:type" v="bruk" />
	</node>
	<node changeset="57982147" id="4475753251" lat="58.8431114" lon="8.5685689" timestamp="2018-04-10T18:51:11Z" uid="3497659" user="NKA" version="2">
		<tag k="name" v="Neset" />
		<tag k="place" v="farm" />
		<tag k="ssr:stedsnr" v="426647" />
		<tag k="ssr:type" v="bruk" />
	</node>
	<node changeset="57982147" id="4475753252" lat="58.8026183" lon="8.2403064" timestamp="2018-04-10T18:51:11Z" uid="3497659" user="NKA" version="2">
		<tag k="alt_name" v="Næverborg" />
		<tag k="building" v="cabin" />
		<tag k="name" v="Nevreborg" />
		<tag k="place" v="isolated_dwelling" />
		<tag k="ssr:stedsnr" v="668136" />
		<tag k="ssr:type" v="fritidsbolig" />
	</node>
	<node changeset="57982147" id="4475753253" lat="58.7149929" lon="8.4613756" timestamp="2018-04-10T18:51:11Z" uid="3497659" user="NKA" version="2">
		<tag k="name" v="Nordli" />
		<tag k="place" v="farm" />
		<tag k="ssr:stedsnr" v="547517" />
		<tag k="ssr:type" v="eneboligMindreBoligbygg" />
	</node>
	<node changeset="57982147" id="4475753254" lat="58.8452611" lon="8.5692974" timestamp="2018-04-10T18:51:11Z" uid="3497659" user="NKA" version="2">
		<tag k="historic" v="ruins" />
		<tag k="name" v="Nordli" />
		<tag k="place" v="locality" />
		<tag k="ssr:stedsnr" v="517056" />
		<tag k="ssr:type" v="fritidsbolig" />
	</node>
	<node changeset="57982147" id="4475753255" lat="58.8446932" lon="8.0996861" timestamp="2018-04-10T18:51:11Z" uid="3497659" user="NKA" version="2">
		<tag k="name" v="Nordstog" />
		<tag k="place" v="farm" />
		<tag k="ssr:stedsnr" v="115" />
		<tag k="ssr:type" v="bruk" />
	</node>
	<node changeset="58497758" id="4475753256" lat="58.8661587" lon="8.1825615" timestamp="2018-04-28T08:07:07Z" uid="3497659" user="NKA" version="3">
		<tag k="building" v="cabin" />
		<tag k="historic" v="shieling" />
		<tag k="name" v="Nosstøyl" />
		<tag k="place" v="isolated_dwelling" />
		<tag k="ssr:stedsnr" v="851025" />
		<tag k="ssr:type" v="fritidsbolig" />
	</node>
	<node changeset="57982147" id="4475753257" lat="58.7663382" lon="8.2585425" timestamp="2018-04-10T18:51:12Z" uid="3497659" user="NKA" version="2">
		<tag k="alt_name" v="Nygard" />
		<tag k="name" v="Nygård" />
		<tag k="place" v="farm" />
		<tag k="ssr:stedsnr" v="426204" />
		<tag k="ssr:type" v="bruk" />
	</node>
	<node changeset="57982147" id="4475753258" lat="58.65888" lon="8.6731934" timestamp="2018-04-10T18:51:12Z" uid="3497659" user="NKA" version="2">
		<tag k="alt_name" v="Nygardsholta" />
		<tag k="name" v="Nygårdsholta" />
		<tag k="place" v="farm" />
		<tag k="ssr:stedsnr" v="304933" />
		<tag k="ssr:type" v="bruk" />
	</node>
	<node changeset="57982147" id="4475753259" lat="58.6924229" lon="8.7058855" timestamp="2018-04-10T18:51:12Z" uid="3497659" user="NKA" version="2">
		<tag k="name" v="Nylund" />
		<tag k="place" v="farm" />
		<tag k="ssr:stedsnr" v="62898" />
		<tag k="ssr:type" v="bruk" />
	</node>
	<node changeset="58497758" id="4475753260" lat="58.7428607" lon="8.2160129" timestamp="2018-04-28T08:07:07Z" uid="3497659" user="NKA" version="3">
		<tag k="historic" v="shieling" />
		<tag k="name" v="Nystøyl" />
		<tag k="place" v="locality" />
		<tag k="ssr:stedsnr" v="385" />
		<tag k="ssr:type" v="seterStøl" />
	</node>
	<node changeset="58497758" id="4475753261" lat="58.8433732" lon="8.547248" timestamp="2018-04-28T08:07:07Z" uid="3497659" user="NKA" version="3">
		<tag k="historic" v="shieling" />
		<tag k="name" v="Nystøyl" />
		<tag k="place" v="locality" />
		<tag k="ssr:stedsnr" v="759439" />
		<tag k="ssr:type" v="seterStøl" />
	</node>
	<node changeset="57982147" id="4475753262" lat="58.6963828" lon="8.5849605" timestamp="2018-04-10T18:51:12Z" uid="3497659" user="NKA" version="2">
		<tag k="name" v="Odden" />
		<tag k="place" v="farm" />
		<tag k="ssr:stedsnr" v="547907" />
		<tag k="ssr:type" v="bruk" />
	</node>
	<node changeset="57982147" id="4475753263" lat="58.8387188" lon="8.3591604" timestamp="2018-04-10T18:51:12Z" uid="3497659" user="NKA" version="2">
		<tag k="name" v="Oland" />
		<tag k="place" v="hamlet" />
		<tag k="ssr:stedsnr" v="426090" />
		<tag k="ssr:type" v="bruk" />
	</node>
	<node changeset="57982147" id="4475753264" lat="58.8126226" lon="8.5210189" timestamp="2018-04-10T18:51:13Z" uid="3497659" user="NKA" version="2">
		<tag k="name" v="Olstad" />
		<tag k="place" v="farm" />
		<tag k="ssr:stedsnr" v="729682" />
		<tag k="ssr:type" v="bruk" />
	</node>
	<node changeset="57982147" id="4475753265" lat="58.8366174" lon="8.3956602" timestamp="2018-04-10T18:51:13Z" uid="3497659" user="NKA" version="2">
		<tag k="building" v="cabin" />
		<tag k="name" v="Opp-på Øygardane" />
		<tag k="place" v="isolated_dwelling" />
		<tag k="ssr:stedsnr" v="766549" />
		<tag k="ssr:type" v="fritidsbolig" />
	</node>
	<node changeset="57982147" id="4475753266" lat="58.8333895" lon="8.3989573" timestamp="2018-04-10T18:51:13Z" uid="3497659" user="NKA" version="2">
		<tag k="name" v="Oppigard" />
		<tag k="place" v="farm" />
		<tag k="ssr:stedsnr" v="99576" />
		<tag k="ssr:type" v="bruk" />
	</node>
	<node changeset="57982147" id="4475753267" lat="58.8466677" lon="8.0977599" timestamp="2018-04-10T18:51:13Z" uid="3497659" user="NKA" version="2">
		<tag k="name" v="Oppigard" />
		<tag k="place" v="farm" />
		<tag k="ssr:stedsnr" v="911111" />
		<tag k="ssr:type" v="bruk" />
	</node>
	<node changeset="57982147" id="4475753268" lat="58.881342" lon="8.235939" timestamp="2018-04-10T18:51:13Z" uid="3497659" user="NKA" version="2">
		<tag k="name" v="Oppigard" />
		<tag k="place" v="farm" />
		<tag k="ssr:stedsnr" v="851054" />
		<tag k="ssr:type" v="bruk" />
	</node>
	<node changeset="57982147" id="4475753269" lat="58.7973927" lon="8.2203073" timestamp="2018-04-10T18:51:13Z" uid="3497659" user="NKA" version="2">
		<tag k="name" v="Oppistog" />
		<tag k="place" v="farm" />
		<tag k="ssr:stedsnr" v="911133" />
		<tag k="ssr:type" v="bruk" />
	</node>
	<node changeset="57982147" id="4475753270" lat="58.6657792" lon="8.4099684" timestamp="2018-04-10T18:51:13Z" uid="3497659" user="NKA" version="2">
		<tag k="fixme" v="check position" />
		<tag k="historic" v="ruins" />
		<tag k="name" v="Oppsal" />
		<tag k="place" v="locality" />
		<tag k="ssr:stedsnr" v="881315" />
		<tag k="ssr:type" v="gammelBosettingsplass" />
	</node>
	<node changeset="57982147" id="4475753271" lat="58.6755477" lon="8.4180976" timestamp="2018-04-10T18:51:13Z" uid="3497659" user="NKA" version="2">
		<tag k="fixme" v="check position" />
		<tag k="historic" v="ruins" />
		<tag k="name" v="Oppstad" />
		<tag k="place" v="locality" />
		<tag k="ssr:stedsnr" v="335249" />
		<tag k="ssr:type" v="gammelBosettingsplass" />
	</node>
	<node changeset="57982147" id="4475753272" lat="58.8485836" lon="8.2410692" timestamp="2018-04-10T18:51:14Z" uid="3497659" user="NKA" version="2">
		<tag k="building" v="cabin" />
		<tag k="name" v="Osli" />
		<tag k="place" v="isolated_dwelling" />
		<tag k="ssr:stedsnr" v="911117" />
		<tag k="ssr:type" v="fritidsbolig" />
	</node>
	<node changeset="57982147" id="4475753273" lat="58.6446167" lon="8.7142446" timestamp="2018-04-10T18:51:14Z" uid="3497659" user="NKA" version="2">
		<tag k="fixme" v="check position" />
		<tag k="historic" v="ruins" />
		<tag k="name" v="Ospelundsplass" />
		<tag k="place" v="locality" />
		<tag k="ssr:stedsnr" v="821609" />
		<tag k="ssr:type" v="gammelBosettingsplass" />
	</node>
	<node changeset="57982147" id="4475753274" lat="58.7364156" lon="8.5310946" timestamp="2018-04-10T18:51:14Z" uid="3497659" user="NKA" version="2">
		<tag k="fixme" v="check position" />
		<tag k="historic" v="ruins" />
		<tag k="name" v="Plassen" />
		<tag k="place" v="locality" />
		<tag k="ssr:stedsnr" v="274727" />
		<tag k="ssr:type" v="gammelBosettingsplass" />
	</node>
	<node changeset="57982147" id="4475753275" lat="58.7794204" lon="8.4121969" timestamp="2018-04-10T18:51:14Z" uid="3497659" user="NKA" version="2">
		<tag k="fixme" v="check position" />
		<tag k="historic" v="ruins" />
		<tag k="name" v="Plassen" />
		<tag k="place" v="locality" />
		<tag k="ssr:stedsnr" v="719097" />
		<tag k="ssr:type" v="gammelBosettingsplass" />
	</node>
	<node changeset="57982147" id="4475753276" lat="58.8091124" lon="8.1743424" timestamp="2018-04-10T18:51:14Z" uid="3497659" user="NKA" version="2">
		<tag k="building" v="cabin" />
		<tag k="name" v="Plassen" />
		<tag k="place" v="isolated_dwelling" />
		<tag k="ssr:stedsnr" v="244183" />
		<tag k="ssr:type" v="fritidsbolig" />
	</node>
	<node changeset="57982147" id="4475753277" lat="58.8471637" lon="8.1000099" timestamp="2018-04-10T18:51:14Z" uid="3497659" user="NKA" version="2">
		<tag k="building" v="cabin" />
		<tag k="name" v="Plassen" />
		<tag k="place" v="isolated_dwelling" />
		<tag k="ssr:stedsnr" v="353110" />
		<tag k="ssr:type" v="fritidsbolig" />
	</node>
	<node changeset="57982147" id="4475753278" lat="58.863603" lon="8.5776537" timestamp="2018-04-10T18:51:14Z" uid="3497659" user="NKA" version="2">
		<tag k="name" v="Plassen" />
		<tag k="place" v="locality" />
		<tag k="ssr:stedsnr" v="31152" />
		<tag k="ssr:type" v="gammelBosettingsplass" />
	</node>
	<node changeset="57982147" id="4475753279" lat="58.6904263" lon="8.7019145" timestamp="2018-04-10T18:51:15Z" uid="3497659" user="NKA" version="2">
		<tag k="name" v="Porsli" />
		<tag k="place" v="farm" />
		<tag k="ssr:stedsnr" v="335558" />
		<tag k="ssr:type" v="bruk" />
	</node>
	<node changeset="57982147" id="4475753280" lat="58.7671912" lon="8.4946408" timestamp="2018-04-10T18:51:15Z" uid="3497659" user="NKA" version="2">
		<tag k="name" v="Prestegarden" />
		<tag k="place" v="farm" />
		<tag k="ssr:stedsnr" v="274708" />
		<tag k="ssr:type" v="bruk" />
	</node>
	<node changeset="57982147" id="4475753281" lat="58.6872419" lon="8.3679377" timestamp="2018-04-10T18:51:15Z" uid="3497659" user="NKA" version="2">
		<tag k="fixme" v="check position" />
		<tag k="historic" v="ruins" />
		<tag k="name" v="Presteholet" />
		<tag k="place" v="locality" />
		<tag k="ssr:stedsnr" v="638258" />
		<tag k="ssr:type" v="gammelBosettingsplass" />
	</node>
	<node changeset="58497758" id="4475753282" lat="58.9243439" lon="8.2584904" timestamp="2018-04-28T08:07:07Z" uid="3497659" user="NKA" version="3">
		<tag k="historic" v="shieling" />
		<tag k="name" v="Ramsestøyl" />
		<tag k="place" v="locality" />
		<tag k="ssr:stedsnr" v="719280" />
		<tag k="ssr:type" v="seterStøl" />
	</node>
	<node changeset="57982147" id="4475753283" lat="58.8497127" lon="8.5774503" timestamp="2018-04-10T18:51:15Z" uid="3497659" user="NKA" version="2">
		<tag k="building" v="cabin" />
		<tag k="name" v="Raudåna" />
		<tag k="place" v="isolated_dwelling" />
		<tag k="ssr:stedsnr" v="449171" />
		<tag k="ssr:type" v="fritidsbolig" />
	</node>
	<node changeset="57982147" id="4475753284" lat="58.7416868" lon="8.5239682" timestamp="2018-04-10T18:51:15Z" uid="3497659" user="NKA" version="2">
		<tag k="building" v="cabin" />
		<tag k="name" v="Reklia" />
		<tag k="place" v="isolated_dwelling" />
		<tag k="ssr:stedsnr" v="244024" />
		<tag k="ssr:type" v="fritidsbolig" />
	</node>
	<node changeset="57982147" id="4475753285" lat="58.7647457" lon="8.4880732" timestamp="2018-04-10T18:51:15Z" uid="3497659" user="NKA" version="2">
		<tag k="alt_name" v="Risland" />
		<tag k="name" v="Riisland" />
		<tag k="place" v="farm" />
		<tag k="ssr:stedsnr" v="668526" />
		<tag k="ssr:type" v="bruk" />
	</node>
	<node changeset="57982147" id="4475753286" lat="58.9457268" lon="8.2003818" timestamp="2018-04-10T18:51:16Z" uid="3497659" user="NKA" version="2">
		<tag k="name" v="Rindebakk" />
		<tag k="place" v="farm" />
		<tag k="ssr:stedsnr" v="486961" />
		<tag k="ssr:type" v="bruk" />
	</node>
	<node changeset="57982147" id="4475753287" lat="58.7703746" lon="8.6296894" timestamp="2018-04-10T18:51:16Z" uid="3497659" user="NKA" version="2">
		<tag k="fixme" v="check position" />
		<tag k="historic" v="ruins" />
		<tag k="name" v="Risdalen" />
		<tag k="place" v="locality" />
		<tag k="ssr:stedsnr" v="759016" />
		<tag k="ssr:type" v="gammelBosettingsplass" />
	</node>
	<node changeset="57982147" id="4475753288" lat="58.7117586" lon="8.3681188" timestamp="2018-04-10T18:51:16Z" uid="3497659" user="NKA" version="2">
		<tag k="name" v="Rostveit" />
		<tag k="place" v="farm" />
		<tag k="ssr:stedsnr" v="183435" />
		<tag k="ssr:type" v="bruk" />
	</node>
	<node changeset="57982147" id="4475753289" lat="58.715129" lon="8.3665886" timestamp="2018-04-10T18:51:16Z" uid="3497659" user="NKA" version="2">
		<tag k="name" v="Rostveitplassen" />
		<tag k="place" v="farm" />
		<tag k="ssr:stedsnr" v="911484" />
		<tag k="ssr:type" v="bruk" />
	</node>
	<node changeset="57982147" id="4475753290" lat="58.6401651" lon="8.7105098" timestamp="2018-04-10T18:51:16Z" uid="3497659" user="NKA" version="2">
		<tag k="name" v="Rundehaug" />
		<tag k="place" v="farm" />
		<tag k="ssr:stedsnr" v="760619" />
		<tag k="ssr:type" v="bruk" />
	</node>
	<node changeset="57982147" id="4475753291" lat="58.8620388" lon="8.3247103" timestamp="2018-04-10T18:51:16Z" uid="3497659" user="NKA" version="2">
		<tag k="name" v="Rydland" />
		<tag k="place" v="farm" />
		<tag k="ssr:stedsnr" v="901684" />
		<tag k="ssr:type" v="bruk" />
	</node>
	<node changeset="57982147" id="4475753292" lat="58.9069451" lon="8.3987249" timestamp="2018-04-10T18:51:16Z" uid="3497659" user="NKA" version="2">
		<tag k="building" v="cabin" />
		<tag k="name" v="Røykstoga" />
		<tag k="place" v="isolated_dwelling" />
		<tag k="ssr:stedsnr" v="426985" />
		<tag k="ssr:type" v="fritidsbolig" />
	</node>
	<node changeset="57982147" id="4475753293" lat="58.8909165" lon="8.5584171" timestamp="2018-04-10T18:51:16Z" uid="3497659" user="NKA" version="2">
		<tag k="building" v="cabin" />
		<tag k="name" v="Sagmo" />
		<tag k="place" v="isolated_dwelling" />
		<tag k="ssr:stedsnr" v="517025" />
		<tag k="ssr:type" v="fritidsbolig" />
	</node>
	<node changeset="57982147" id="4475753294" lat="58.7146012" lon="8.3525998" timestamp="2018-04-10T18:51:17Z" uid="3497659" user="NKA" version="2">
		<tag k="name" v="Sandhaug" />
		<tag k="place" v="farm" />
		<tag k="ssr:stedsnr" v="93429" />
		<tag k="ssr:type" v="bruk" />
	</node>
	<node changeset="57982147" id="4475753295" lat="58.6665359" lon="8.7345122" timestamp="2018-04-10T18:51:17Z" uid="3497659" user="NKA" version="2">
		<tag k="name" v="Sandland" />
		<tag k="place" v="farm" />
		<tag k="ssr:stedsnr" v="954945" />
		<tag k="ssr:type" v="bruk" />
	</node>
	<node changeset="57982147" id="4475753296" lat="58.8020368" lon="8.419401" timestamp="2018-04-10T18:51:17Z" uid="3497659" user="NKA" version="2">
		<tag k="name" v="Sandnes" />
		<tag k="place" v="farm" />
		<tag k="ssr:stedsnr" v="182134" />
		<tag k="ssr:type" v="bruk" />
	</node>
	<node changeset="58497758" id="4475753297" lat="58.9049898" lon="8.1966576" timestamp="2018-04-28T08:07:07Z" uid="3497659" user="NKA" version="3">
		<tag k="building" v="cabin" />
		<tag k="historic" v="shieling" />
		<tag k="name" v="Sandvasstøyl" />
		<tag k="place" v="isolated_dwelling" />
		<tag k="ssr:stedsnr" v="729972" />
		<tag k="ssr:type" v="fritidsbolig" />
	</node>
	<node changeset="57982147" id="4475753298" lat="58.8450452" lon="8.5733384" timestamp="2018-04-10T18:51:17Z" uid="3497659" user="NKA" version="2">
		<tag k="name" v="Sandå" />
		<tag k="place" v="farm" />
		<tag k="ssr:stedsnr" v="874186" />
		<tag k="ssr:type" v="eneboligMindreBoligbygg" />
	</node>
	<node changeset="57982147" id="4475753299" lat="58.723387" lon="8.3319853" timestamp="2018-04-10T18:51:17Z" uid="3497659" user="NKA" version="2">
		<tag k="name" v="Selberg" />
		<tag k="place" v="farm" />
		<tag k="ssr:stedsnr" v="547511" />
		<tag k="ssr:type" v="eneboligMindreBoligbygg" />
	</node>
	<node changeset="57982147" id="4475753300" lat="58.8093203" lon="8.5359141" timestamp="2018-04-10T18:51:17Z" uid="3497659" user="NKA" version="2">
		<tag k="name" v="Seljås" />
		<tag k="place" v="farm" />
		<tag k="ssr:stedsnr" v="183655" />
		<tag k="ssr:type" v="bruk" />
	</node>
	<node changeset="57982147" id="4475753301" lat="58.8599503" lon="8.3258868" timestamp="2018-04-10T18:51:18Z" uid="3497659" user="NKA" version="2">
		<tag k="name" v="Selås" />
		<tag k="place" v="farm" />
		<tag k="ssr:stedsnr" v="597684" />
		<tag k="ssr:type" v="bruk" />
	</node>
	<node changeset="57982147" id="4475753303" lat="58.8399116" lon="8.3634479" timestamp="2018-04-10T18:51:18Z" uid="3497659" user="NKA" version="2">
		<tag k="name" v="Sesjord" />
		<tag k="place" v="farm" />
		<tag k="ssr:stedsnr" v="911091" />
		<tag k="ssr:type" v="bruk" />
	</node>
	<node changeset="57982147" id="4475753304" lat="58.6342331" lon="8.747037" timestamp="2018-04-10T18:51:18Z" uid="3497659" user="NKA" version="2">
		<tag k="name" v="Setane" />
		<tag k="place" v="farm" />
		<tag k="ssr:stedsnr" v="122775" />
		<tag k="ssr:type" v="bruk" />
	</node>
	<node changeset="57982147" id="4475753305" lat="58.7086095" lon="8.6020507" timestamp="2018-04-10T18:51:18Z" uid="3497659" user="NKA" version="2">
		<tag k="name" v="Simonstad" />
		<tag k="place" v="hamlet" />
		<tag k="ssr:stedsnr" v="243081" />
		<tag k="ssr:type" v="bruk" />
	</node>
	<node changeset="57982147" id="4475753306" lat="58.7721098" lon="8.5391754" timestamp="2018-04-10T18:51:18Z" uid="3497659" user="NKA" version="2">
		<tag k="name" v="Skaare" />
		<tag k="place" v="farm" />
		<tag k="ssr:stedsnr" v="395248" />
		<tag k="ssr:type" v="bruk" />
	</node>
	<node changeset="57982147" id="4475753307" lat="58.7192162" lon="8.3531411" timestamp="2018-04-10T18:51:18Z" uid="3497659" user="NKA" version="2">
		<tag k="name" v="Skardmyr" />
		<tag k="place" v="farm" />
		<tag k="ssr:stedsnr" v="243468" />
		<tag k="ssr:type" v="bruk" />
	</node>
	<node changeset="57982147" id="4475753308" lat="58.7196757" lon="8.3439555" timestamp="2018-04-10T18:51:18Z" uid="3497659" user="NKA" version="2">
		<tag k="name" v="Skarli" />
		<tag k="place" v="locality" />
		<tag k="ssr:stedsnr" v="457473" />
		<tag k="ssr:type" v="bruk" />
	</node>
	<node changeset="57982147" id="4475753309" lat="58.6659954" lon="8.3821719" timestamp="2018-04-10T18:51:18Z" uid="3497659" user="NKA" version="2">
		<tag k="alt_name" v="Skeidmo" />
		<tag k="name" v="Skeimo" />
		<tag k="place" v="farm" />
		<tag k="ssr:stedsnr" v="850271" />
		<tag k="ssr:type" v="eneboligMindreBoligbygg" />
	</node>
	<node changeset="57982147" id="4475753310" lat="58.8119491" lon="8.1372271" timestamp="2018-04-10T18:51:18Z" uid="3497659" user="NKA" version="2">
		<tag k="fixme" v="check position" />
		<tag k="historic" v="ruins" />
		<tag k="name" v="Skivestøyl" />
		<tag k="place" v="locality" />
		<tag k="ssr:stedsnr" v="51757" />
		<tag k="ssr:type" v="gammelBosettingsplass" />
	</node>
	<node changeset="57982147" id="4475753311" lat="58.8819707" lon="8.5814544" timestamp="2018-04-10T18:51:18Z" uid="3497659" user="NKA" version="2">
		<tag k="name" v="Skogbu" />
		<tag k="place" v="farm" />
		<tag k="ssr:stedsnr" v="517139" />
		<tag k="ssr:type" v="eneboligMindreBoligbygg" />
	</node>
	<node changeset="57982147" id="4475753312" lat="58.7097097" lon="8.6033569" timestamp="2018-04-10T18:51:19Z" uid="3497659" user="NKA" version="2">
		<tag k="name" v="Skogen" />
		<tag k="place" v="farm" />
		<tag k="ssr:stedsnr" v="456569" />
		<tag k="ssr:type" v="eneboligMindreBoligbygg" />
	</node>
	<node changeset="57982147" id="4475753313" lat="58.6514257" lon="8.6886889" timestamp="2018-04-10T18:51:19Z" uid="3497659" user="NKA" version="2">
		<tag k="name" v="Skogly" />
		<tag k="place" v="farm" />
		<tag k="ssr:stedsnr" v="821514" />
		<tag k="ssr:type" v="eneboligMindreBoligbygg" />
	</node>
	<node changeset="57982147" id="4475753314" lat="58.7110879" lon="8.6314352" timestamp="2018-04-10T18:51:19Z" uid="3497659" user="NKA" version="2">
		<tag k="name" v="Skotet" />
		<tag k="place" v="farm" />
		<tag k="ssr:stedsnr" v="911080" />
		<tag k="ssr:type" v="eneboligMindreBoligbygg" />
	</node>
	<node changeset="57982147" id="4475753315" lat="58.6652448" lon="8.3860939" timestamp="2018-04-10T18:51:20Z" uid="3497659" user="NKA" version="2">
		<tag k="name" v="Skrede" />
		<tag k="place" v="farm" />
		<tag k="ssr:stedsnr" v="274302" />
		<tag k="ssr:type" v="bruk" />
	</node>
	<node changeset="57982147" id="4475753316" lat="58.8403047" lon="8.173554" timestamp="2018-04-10T18:51:20Z" uid="3497659" user="NKA" version="2">
		<tag k="building" v="cabin" />
		<tag k="name" v="Skrivarstoga" />
		<tag k="place" v="isolated_dwelling" />
		<tag k="ssr:stedsnr" v="364060" />
		<tag k="ssr:type" v="fritidsbolig" />
	</node>
	<node changeset="57982147" id="4475753317" lat="58.7127863" lon="8.1591621" timestamp="2018-04-10T18:51:20Z" uid="3497659" user="NKA" version="2">
		<tag k="building" v="cabin" />
		<tag k="name" v="Sletneshytta" />
		<tag k="place" v="isolated_dwelling" />
		<tag k="ssr:stedsnr" v="354545" />
		<tag k="ssr:type" v="fritidsbolig" />
	</node>
	<node changeset="57982147" id="4475753318" lat="58.9042555" lon="8.5597865" timestamp="2018-04-10T18:51:20Z" uid="3497659" user="NKA" version="2">
		<tag k="name" v="Slettheim" />
		<tag k="place" v="farm" />
		<tag k="ssr:stedsnr" v="942038" />
		<tag k="ssr:type" v="eneboligMindreBoligbygg" />
	</node>
	<node changeset="57982147" id="4475753319" lat="58.8350881" lon="8.3661744" timestamp="2018-04-10T18:51:21Z" uid="3497659" user="NKA" version="2">
		<tag k="alt_name" v="Slettene" />
		<tag k="fixme" v="check position" />
		<tag k="historic" v="ruins" />
		<tag k="name" v="Slettine" />
		<tag k="place" v="locality" />
		<tag k="ssr:stedsnr" v="789083" />
		<tag k="ssr:type" v="fritidsbolig" />
	</node>
	<node changeset="57982147" id="4475753320" lat="58.6304089" lon="8.6912165" timestamp="2018-04-10T18:51:21Z" uid="3497659" user="NKA" version="2">
		<tag k="name" v="Slevesund" />
		<tag k="place" v="farm" />
		<tag k="ssr:stedsnr" v="62777" />
		<tag k="ssr:type" v="eneboligMindreBoligbygg" />
	</node>
	<node changeset="57982147" id="4475753321" lat="58.8861804" lon="8.5746865" timestamp="2018-04-10T18:51:21Z" uid="3497659" user="NKA" version="2">
		<tag k="name" v="Solbakken" />
		<tag k="place" v="farm" />
		<tag k="ssr:stedsnr" v="517030" />
		<tag k="ssr:type" v="eneboligMindreBoligbygg" />
	</node>
	<node changeset="57982147" id="4475753322" lat="58.655406" lon="8.4639083" timestamp="2018-04-10T18:51:21Z" uid="3497659" user="NKA" version="2">
		<tag k="name" v="Solberg" />
		<tag k="place" v="farm" />
		<tag k="ssr:stedsnr" v="426279" />
		<tag k="ssr:type" v="bruk" />
	</node>
	<node changeset="57982147" id="4475753323" lat="58.7388323" lon="8.0541168" timestamp="2018-04-10T18:51:21Z" uid="3497659" user="NKA" version="2">
		<tag k="building" v="cabin" />
		<tag k="name" v="Solbu" />
		<tag k="place" v="isolated_dwelling" />
		<tag k="ssr:stedsnr" v="365932" />
		<tag k="ssr:type" v="fritidsbolig" />
	</node>
	<node changeset="57982147" id="4475753324" lat="58.8845424" lon="8.5936371" timestamp="2018-04-10T18:51:21Z" uid="3497659" user="NKA" version="2">
		<tag k="name" v="Solmo" />
		<tag k="place" v="farm" />
		<tag k="ssr:stedsnr" v="213026" />
		<tag k="ssr:type" v="eneboligMindreBoligbygg" />
	</node>
	<node changeset="57982147" id="4475753325" lat="58.8953532" lon="8.2582945" timestamp="2018-04-10T18:51:21Z" uid="3497659" user="NKA" version="2">
		<tag k="building" v="cabin" />
		<tag k="name" v="Solstoga" />
		<tag k="place" v="isolated_dwelling" />
		<tag k="ssr:stedsnr" v="416657" />
		<tag k="ssr:type" v="fritidsbolig" />
	</node>
	<node changeset="57982147" id="4475753326" lat="58.6905708" lon="8.6916771" timestamp="2018-04-10T18:51:22Z" uid="3497659" user="NKA" version="2">
		<tag k="name" v="Solvang" />
		<tag k="place" v="farm" />
		<tag k="ssr:stedsnr" v="244889" />
		<tag k="ssr:type" v="bruk" />
	</node>
	<node changeset="57982147" id="4475753327" lat="58.7083886" lon="8.5667476" timestamp="2018-04-10T18:51:22Z" uid="3497659" user="NKA" version="2">
		<tag k="name" v="Solvang" />
		<tag k="place" v="farm" />
		<tag k="ssr:stedsnr" v="92586" />
		<tag k="ssr:type" v="eneboligMindreBoligbygg" />
	</node>
	<node changeset="57982147" id="4475753328" lat="58.759176" lon="8.5379261" timestamp="2018-04-10T18:51:22Z" uid="3497659" user="NKA" version="2">
		<tag k="name" v="Solvang" />
		<tag k="place" v="farm" />
		<tag k="ssr:stedsnr" v="544" />
		<tag k="ssr:type" v="bruk" />
	</node>
	<node changeset="57982147" id="4475753329" lat="58.8094232" lon="8.4027391" timestamp="2018-04-10T18:51:22Z" uid="3497659" user="NKA" version="2">
		<tag k="name" v="Solvang" />
		<tag k="place" v="farm" />
		<tag k="ssr:stedsnr" v="668125" />
		<tag k="ssr:type" v="bruk" />
	</node>
	<node changeset="57982147" id="4475753330" lat="58.6684376" lon="8.4098107" timestamp="2018-04-10T18:51:22Z" uid="3497659" user="NKA" version="2">
		<tag k="historic" v="yes" />
		<tag k="name" v="Sorpedalshefte" />
		<tag k="place" v="locality" />
		<tag k="ssr:stedsnr" v="92335" />
		<tag k="ssr:type" v="stø" />
	</node>
	<node changeset="57982147" id="4475753331" lat="58.6328911" lon="8.4093151" timestamp="2018-04-10T18:51:22Z" uid="3497659" user="NKA" version="2">
		<tag k="alt_name" v="Sparåtveit" />
		<tag k="fixme" v="check position" />
		<tag k="historic" v="ruins" />
		<tag k="name" v="Sparhaugtveit" />
		<tag k="place" v="locality" />
		<tag k="ssr:stedsnr" v="244368" />
		<tag k="ssr:type" v="gammelBosettingsplass" />
	</node>
	<node changeset="57982147" id="4475753332" lat="58.7395283" lon="8.4422696" timestamp="2018-04-10T18:51:22Z" uid="3497659" user="NKA" version="2">
		<tag k="name" v="Stangemyr" />
		<tag k="place" v="farm" />
		<tag k="ssr:stedsnr" v="395" />
		<tag k="ssr:type" v="eneboligMindreBoligbygg" />
	</node>
	<node changeset="57982147" id="4475753333" lat="58.6952887" lon="8.6869268" timestamp="2018-04-10T18:51:23Z" uid="3497659" user="NKA" version="2">
		<tag k="name" v="Stanglia" />
		<tag k="place" v="farm" />
		<tag k="ssr:stedsnr" v="729897" />
		<tag k="ssr:type" v="bruk" />
	</node>
	<node changeset="57982147" id="4475753334" lat="58.8838142" lon="8.2531921" timestamp="2018-04-10T18:51:23Z" uid="3497659" user="NKA" version="2">
		<tag k="name" v="Stedjan" />
		<tag k="place" v="farm" />
		<tag k="ssr:stedsnr" v="183045" />
		<tag k="ssr:type" v="bruk" />
	</node>
	<node changeset="57982147" id="4475753335" lat="58.8959323" lon="8.1641454" timestamp="2018-04-10T18:51:23Z" uid="3497659" user="NKA" version="2">
		<tag k="fixme" v="check position" />
		<tag k="historic" v="ruins" />
		<tag k="name" v="Steinbua" />
		<tag k="place" v="locality" />
		<tag k="ssr:stedsnr" v="658323" />
		<tag k="ssr:type" v="gammelBosettingsplass" />
	</node>
	<node changeset="57982147" id="4475753336" lat="58.6375068" lon="8.7437512" timestamp="2018-04-10T18:51:23Z" uid="3497659" user="NKA" version="2">
		<tag k="building" v="cabin" />
		<tag k="name" v="Steinsbu" />
		<tag k="place" v="isolated_dwelling" />
		<tag k="ssr:stedsnr" v="347821" />
		<tag k="ssr:type" v="fritidsbolig" />
	</node>
	<node changeset="57982147" id="4475753337" lat="58.7431306" lon="8.6095456" timestamp="2018-04-10T18:51:23Z" uid="3497659" user="NKA" version="2">
		<tag k="building" v="cabin" />
		<tag k="name" v="Steinsbu" />
		<tag k="place" v="isolated_dwelling" />
		<tag k="ssr:stedsnr" v="759117" />
		<tag k="ssr:type" v="fritidsbolig" />
	</node>
	<node changeset="57982147" id="4475753338" lat="58.7034405" lon="8.6018906" timestamp="2018-04-10T18:51:23Z" uid="3497659" user="NKA" version="2">
		<tag k="name" v="Steinsland" />
		<tag k="place" v="farm" />
		<tag k="ssr:stedsnr" v="942578" />
		<tag k="ssr:type" v="bruk" />
	</node>
	<node changeset="57982147" id="4475753339" lat="58.9457358" lon="8.2262013" timestamp="2018-04-10T18:51:24Z" uid="3497659" user="NKA" version="2">
		<tag k="building" v="cabin" />
		<tag k="name" v="Stemtjønnhytta" />
		<tag k="place" v="isolated_dwelling" />
		<tag k="ssr:stedsnr" v="287453" />
		<tag k="ssr:type" v="fritidsbolig" />
	</node>
	<node changeset="57982147" id="4475753340" lat="58.8095359" lon="8.5215121" timestamp="2018-04-10T18:51:24Z" uid="3497659" user="NKA" version="2">
		<tag k="alt_name" v="Ståa" />
		<tag k="name" v="Stoa" />
		<tag k="place" v="farm" />
		<tag k="ssr:stedsnr" v="1666" />
		<tag k="ssr:type" v="eneboligMindreBoligbygg" />
	</node>
	<node changeset="57982147" id="4475753341" lat="58.9425902" lon="8.1187937" timestamp="2018-04-10T18:51:24Z" uid="3497659" user="NKA" version="2">
		<tag k="building" v="cabin" />
		<tag k="name" v="Storbekkli" />
		<tag k="place" v="isolated_dwelling" />
		<tag k="ssr:stedsnr" v="1911" />
		<tag k="ssr:type" v="fritidsbolig" />
	</node>
	<node changeset="57982147" id="4475753342" lat="58.6963112" lon="8.3625987" timestamp="2018-04-10T18:51:24Z" uid="3497659" user="NKA" version="2">
		<tag k="alt_name" v="Hommedal store" />
		<tag k="name" v="Store Homedal" />
		<tag k="place" v="farm" />
		<tag k="ssr:stedsnr" v="62449" />
		<tag k="ssr:type" v="bruk" />
	</node>
	<node changeset="57982147" id="4475753343" lat="58.7908484" lon="8.2311878" timestamp="2018-04-10T18:51:24Z" uid="3497659" user="NKA" version="2">
		<tag k="name" v="Storemyr" />
		<tag k="place" v="farm" />
		<tag k="ssr:stedsnr" v="789158" />
		<tag k="ssr:type" v="bruk" />
	</node>
	<node changeset="57982147" id="4475753344" lat="58.8712209" lon="8.2127687" timestamp="2018-04-10T18:51:24Z" uid="3497659" user="NKA" version="2">
		<tag k="building" v="cabin" />
		<tag k="name" v="Storetjønnhytta" />
		<tag k="place" v="isolated_dwelling" />
		<tag k="ssr:stedsnr" v="537220" />
		<tag k="ssr:type" v="fritidsbolig" />
	</node>
	<node changeset="58497758" id="4475753345" lat="58.8958152" lon="8.0055203" timestamp="2018-04-28T08:07:07Z" uid="3497659" user="NKA" version="3">
		<tag k="historic" v="shieling" />
		<tag k="name" v="Stuvestøyl" />
		<tag k="place" v="locality" />
		<tag k="ssr:stedsnr" v="183699" />
		<tag k="ssr:type" v="seterStøl" />
	</node>
	<node changeset="57982147" id="4475753346" lat="58.731647" lon="8.3470393" timestamp="2018-04-10T18:51:25Z" uid="3497659" user="NKA" version="2">
		<tag k="alt_name" v="Sløylen" />
		<tag k="name" v="Støylen" />
		<tag k="place" v="farm" />
		<tag k="ssr:stedsnr" v="1495" />
		<tag k="ssr:type" v="eneboligMindreBoligbygg" />
	</node>
	<node changeset="58497758" id="4475753347" lat="58.8148749" lon="8.4138854" timestamp="2018-04-28T08:07:08Z" uid="3497659" user="NKA" version="3">
		<tag k="historic" v="shieling" />
		<tag k="name" v="Støylen" />
		<tag k="place" v="farm" />
		<tag k="ssr:stedsnr" v="304114" />
		<tag k="ssr:type" v="bruk" />
	</node>
	<node changeset="57982147" id="4475753348" lat="58.7874584" lon="8.0986482" timestamp="2018-04-10T18:51:25Z" uid="3497659" user="NKA" version="2">
		<tag k="building" v="cabin" />
		<tag k="name" v="Støylsdalen" />
		<tag k="place" v="isolated_dwelling" />
		<tag k="ssr:stedsnr" v="425135" />
		<tag k="ssr:type" v="fritidsbolig" />
	</node>
	<node changeset="57982147" id="4475753349" lat="58.8490856" lon="8.267248" timestamp="2018-04-10T18:51:25Z" uid="3497659" user="NKA" version="2">
		<tag k="building" v="cabin" />
		<tag k="name" v="Suggebu" />
		<tag k="place" v="isolated_dwelling" />
		<tag k="ssr:stedsnr" v="901357" />
		<tag k="ssr:type" v="fritidsbolig" />
	</node>
	<node changeset="57982147" id="4475753350" lat="58.747057" lon="8.455446" timestamp="2018-04-10T18:51:25Z" uid="3497659" user="NKA" version="2">
		<tag k="name" v="Sundet" />
		<tag k="place" v="farm" />
		<tag k="ssr:stedsnr" v="92660" />
		<tag k="ssr:type" v="bruk" />
	</node>
	<node changeset="57982147" id="4475753351" lat="58.8598135" lon="8.5746377" timestamp="2018-04-10T18:51:25Z" uid="3497659" user="NKA" version="2">
		<tag k="fixme" v="check position" />
		<tag k="historic" v="ruins" />
		<tag k="name" v="Sundsli" />
		<tag k="place" v="locality" />
		<tag k="ssr:stedsnr" v="942043" />
		<tag k="ssr:type" v="gammelBosettingsplass" />
	</node>
	<node changeset="58497758" id="4475753352" lat="58.9670636" lon="8.1421542" timestamp="2018-04-28T08:07:08Z" uid="3497659" user="NKA" version="3">
		<tag k="building" v="cabin" />
		<tag k="historic" v="shieling" />
		<tag k="name" v="Sundstøyl" />
		<tag k="place" v="isolated_dwelling" />
		<tag k="ssr:stedsnr" v="729878" />
		<tag k="ssr:type" v="fritidsbolig" />
	</node>
	<node changeset="57982147" id="4475753353" lat="58.7111491" lon="8.5628939" timestamp="2018-04-10T18:51:26Z" uid="3497659" user="NKA" version="2">
		<tag k="name" v="Supland" />
		<tag k="place" v="farm" />
		<tag k="ssr:stedsnr" v="760571" />
		<tag k="ssr:type" v="eneboligMindreBoligbygg" />
	</node>
	<node changeset="57982147" id="4475753354" lat="58.8313627" lon="8.5584917" timestamp="2018-04-10T18:51:26Z" uid="3497659" user="NKA" version="2">
		<tag k="fixme" v="check position" />
		<tag k="historic" v="ruins" />
		<tag k="name" v="Surtemyr" />
		<tag k="place" v="locality" />
		<tag k="ssr:stedsnr" v="92435" />
		<tag k="ssr:type" v="gammelBosettingsplass" />
	</node>
	<node changeset="57982147" id="4475753355" lat="58.6820574" lon="8.5406209" timestamp="2018-04-10T18:51:26Z" uid="3497659" user="NKA" version="2">
		<tag k="fixme" v="check position" />
		<tag k="historic" v="ruins" />
		<tag k="name" v="Svalehommen" />
		<tag k="place" v="locality" />
		<tag k="ssr:stedsnr" v="942418" />
		<tag k="ssr:type" v="gammelBosettingsplass" />
	</node>
	<node changeset="57982147" id="4475753356" lat="58.8583468" lon="8.4690121" timestamp="2018-04-10T18:51:26Z" uid="3497659" user="NKA" version="2">
		<tag k="building" v="cabin" />
		<tag k="name" v="Svanlihytta" />
		<tag k="place" v="isolated_dwelling" />
		<tag k="ssr:stedsnr" v="901661" />
		<tag k="ssr:type" v="fritidsbolig" />
	</node>
	<node changeset="57982147" id="4475753357" lat="58.7663076" lon="8.5451509" timestamp="2018-04-10T18:51:26Z" uid="3497659" user="NKA" version="2">
		<tag k="name" v="Svinåsen" />
		<tag k="place" v="farm" />
		<tag k="ssr:stedsnr" v="274219" />
		<tag k="ssr:type" v="bruk" />
	</node>
	<node changeset="57982147" id="4475753358" lat="58.9521614" lon="8.1577171" timestamp="2018-04-10T18:51:26Z" uid="3497659" user="NKA" version="2">
		<tag k="name" v="Såheim" />
		<tag k="place" v="farm" />
		<tag k="ssr:stedsnr" v="183934" />
		<tag k="ssr:type" v="eneboligMindreBoligbygg" />
	</node>
	<node changeset="57982147" id="4475753359" lat="58.7652815" lon="8.2570926" timestamp="2018-04-10T18:51:26Z" uid="3497659" user="NKA" version="2">
		<tag k="alt_name" v="Sessvoll" />
		<tag k="name" v="Sæsvoll" />
		<tag k="place" v="farm" />
		<tag k="ssr:stedsnr" v="122204" />
		<tag k="ssr:type" v="bruk" />
	</node>
	<node changeset="57982147" id="4475753360" lat="58.7102553" lon="8.5674223" timestamp="2018-04-10T18:51:27Z" uid="3497659" user="NKA" version="2">
		<tag k="name" v="Sæter" />
		<tag k="place" v="farm" />
		<tag k="ssr:stedsnr" v="456563" />
		<tag k="ssr:type" v="eneboligMindreBoligbygg" />
	</node>
	<node changeset="57982147" id="4475753361" lat="58.6899207" lon="8.672493" timestamp="2018-04-10T18:51:27Z" uid="3497659" user="NKA" version="2">
		<tag k="name" v="Sørdal" />
		<tag k="place" v="farm" />
		<tag k="ssr:stedsnr" v="426897" />
		<tag k="ssr:type" v="bruk" />
	</node>
	<node changeset="57982147" id="4475753362" lat="58.7610934" lon="8.5336024" timestamp="2018-04-10T18:51:27Z" uid="3497659" user="NKA" version="2">
		<tag k="name" v="Sørgard" />
		<tag k="place" v="farm" />
		<tag k="ssr:stedsnr" v="274213" />
		<tag k="ssr:type" v="bruk" />
	</node>
	<node changeset="57982147" id="4475753363" lat="58.8704517" lon="8.3052321" timestamp="2018-04-10T18:51:27Z" uid="3497659" user="NKA" version="2">
		<tag k="name" v="Sørgard" />
		<tag k="place" v="farm" />
		<tag k="ssr:stedsnr" v="476100" />
		<tag k="ssr:type" v="bruk" />
	</node>
	<node changeset="57982147" id="4475753364" lat="58.8089149" lon="8.4135479" timestamp="2018-04-10T18:51:27Z" uid="3497659" user="NKA" version="2">
		<tag k="name" v="Tiljone" />
		<tag k="place" v="farm" />
		<tag k="ssr:stedsnr" v="705487" />
		<tag k="ssr:type" v="bruk" />
	</node>
	<node changeset="57982147" id="4475753365" lat="58.7495794" lon="8.1837397" timestamp="2018-04-10T18:51:27Z" uid="3497659" user="NKA" version="2">
		<tag k="alt_name" v="Tjerandslia" />
		<tag k="building" v="cabin" />
		<tag k="name" v="Tjerandli" />
		<tag k="place" v="isolated_dwelling" />
		<tag k="ssr:stedsnr" v="486320" />
		<tag k="ssr:type" v="fritidsbolig" />
	</node>
	<node changeset="57982147" id="4475753366" lat="58.739181" lon="8.449636" timestamp="2018-04-10T18:51:27Z" uid="3497659" user="NKA" version="2">
		<tag k="name" v="Tjørnbrekk" />
		<tag k="place" v="farm" />
		<tag k="ssr:stedsnr" v="456663" />
		<tag k="ssr:type" v="bruk" />
	</node>
	<node changeset="57982147" id="4475753367" lat="58.8406193" lon="8.2464148" timestamp="2018-04-10T18:51:27Z" uid="3497659" user="NKA" version="2">
		<tag k="building" v="cabin" />
		<tag k="name" v="Tjørnestøyl" />
		<tag k="place" v="isolated_dwelling" />
		<tag k="ssr:stedsnr" v="911078" />
		<tag k="ssr:type" v="fritidsbolig" />
	</node>
	<node changeset="57982147" id="4475753368" lat="58.9646377" lon="8.1453539" timestamp="2018-04-10T18:51:28Z" uid="3497659" user="NKA" version="2">
		<tag k="building" v="cabin" />
		<tag k="name" v="Torbjørnsbu" />
		<tag k="place" v="isolated_dwelling" />
		<tag k="ssr:stedsnr" v="962986" />
		<tag k="ssr:type" v="fritidsbolig" />
	</node>
	<node changeset="58497758" id="4475753369" lat="58.8671608" lon="8.110264" timestamp="2018-04-28T08:07:08Z" uid="3497659" user="NKA" version="3">
		<tag k="building" v="cabin" />
		<tag k="historic" v="shieling" />
		<tag k="name" v="Toskestøyl" />
		<tag k="place" v="locality" />
		<tag k="ssr:stedsnr" v="244032" />
		<tag k="ssr:type" v="fritidsbolig" />
	</node>
	<node changeset="56035354" id="4475753370" lat="58.8071658" lon="8.1748697" timestamp="2018-02-03T17:50:05Z" uid="2114448" user="FredrikLindseth_import" version="3" />
	<node changeset="57982147" id="4475753371" lat="58.9021569" lon="8.1819446" timestamp="2018-04-10T18:51:28Z" uid="3497659" user="NKA" version="2">
		<tag k="historic" v="ruins" />
		<tag k="name" v="Trongedalsbua" />
		<tag k="place" v="locality" />
		<tag k="ssr:stedsnr" v="522300" />
		<tag k="ssr:type" v="gammelBosettingsplass" />
	</node>
	<node changeset="57982147" id="4475753372" lat="58.9111748" lon="8.1406013" timestamp="2018-04-10T18:51:28Z" uid="3497659" user="NKA" version="2">
		<tag k="historic" v="ruins" />
		<tag k="name" v="Trongedalshytta" />
		<tag k="place" v="locality" />
		<tag k="ssr:stedsnr" v="227324" />
		<tag k="ssr:type" v="fritidsbolig" />
	</node>
	<node changeset="57982147" id="4475753373" lat="58.76541" lon="8.5287948" timestamp="2018-04-10T18:51:28Z" uid="3497659" user="NKA" version="2">
		<tag k="name" v="Tveit" />
		<tag k="place" v="hamlet" />
		<tag k="ssr:stedsnr" v="607501" />
		<tag k="ssr:type" v="grend" />
	</node>
	<node changeset="57982147" id="4475753374" lat="58.7860531" lon="8.2019795" timestamp="2018-04-10T18:51:28Z" uid="3497659" user="NKA" version="2">
		<tag k="name" v="Tveit" />
		<tag k="place" v="farm" />
		<tag k="ssr:stedsnr" v="122231" />
		<tag k="ssr:type" v="bruk" />
	</node>
	<node changeset="57982147" id="4475753375" lat="58.7989202" lon="7.9997481" timestamp="2018-04-10T18:51:28Z" uid="3497659" user="NKA" version="2">
		<tag k="building" v="cabin" />
		<tag k="name" v="Tveitli" />
		<tag k="place" v="isolated_dwelling" />
		<tag k="ssr:stedsnr" v="183806" />
		<tag k="ssr:type" v="fritidsbolig" />
	</node>
	<node changeset="57982147" id="4475753376" lat="58.7320393" lon="8.4332901" timestamp="2018-04-10T18:51:28Z" uid="3497659" user="NKA" version="2">
		<tag k="name" v="Tverrstøyl" />
		<tag k="place" v="farm" />
		<tag k="ssr:stedsnr" v="486505" />
		<tag k="ssr:type" v="bruk" />
	</node>
	<node changeset="57982147" id="4475753377" lat="58.7216641" lon="8.4025152" timestamp="2018-04-10T18:51:29Z" uid="3497659" user="NKA" version="2">
		<tag k="name" v="Tviland" />
		<tag k="place" v="farm" />
		<tag k="ssr:stedsnr" v="243471" />
		<tag k="ssr:type" v="bruk" />
	</node>
	<node changeset="57982147" id="4475753378" lat="58.7554321" lon="8.5107672" timestamp="2018-04-10T18:51:29Z" uid="3497659" user="NKA" version="2">
		<tag k="name" v="Valle" />
		<tag k="place" v="farm" />
		<tag k="ssr:stedsnr" v="486556" />
		<tag k="ssr:type" v="bruk" />
	</node>
	<node changeset="57982147" id="4475753379" lat="58.8541006" lon="8.3359784" timestamp="2018-04-10T18:51:29Z" uid="3497659" user="NKA" version="2">
		<tag k="name" v="Valle" />
		<tag k="place" v="farm" />
		<tag k="ssr:stedsnr" v="789116" />
		<tag k="ssr:type" v="bruk" />
	</node>
	<node changeset="57982147" id="4475753380" lat="58.7466646" lon="8.5118206" timestamp="2018-04-10T18:51:29Z" uid="3497659" user="NKA" version="2">
		<tag k="name" v="Vallekilen" />
		<tag k="place" v="farm" />
		<tag k="ssr:stedsnr" v="122017" />
		<tag k="ssr:type" v="eneboligMindreBoligbygg" />
	</node>
	<node changeset="57982147" id="4475753381" lat="58.834078" lon="8.5847419" timestamp="2018-04-10T18:51:29Z" uid="3497659" user="NKA" version="2">
		<tag k="name" v="Vang" />
		<tag k="place" v="farm" />
		<tag k="ssr:stedsnr" v="122628" />
		<tag k="ssr:type" v="eneboligMindreBoligbygg" />
	</node>
	<node changeset="57982147" id="4475753382" lat="58.9405765" lon="8.2009516" timestamp="2018-04-10T18:51:29Z" uid="3497659" user="NKA" version="2">
		<tag k="name" v="Vang" />
		<tag k="place" v="farm" />
		<tag k="ssr:stedsnr" v="183940" />
		<tag k="ssr:type" v="bruk" />
	</node>
	<node changeset="57982147" id="4475753383" lat="58.6787128" lon="8.7253132" timestamp="2018-04-10T18:51:29Z" uid="3497659" user="NKA" version="2">
		<tag k="name" v="Vassenden" />
		<tag k="place" v="farm" />
		<tag k="ssr:stedsnr" v="425908" />
		<tag k="ssr:type" v="bruk" />
	</node>
	<node changeset="57982147" id="4475753384" lat="58.6997028" lon="8.6203583" timestamp="2018-04-10T18:51:29Z" uid="3497659" user="NKA" version="2">
		<tag k="historic" v="yes" />
		<tag k="name" v="Vedstø" />
		<tag k="place" v="locality" />
		<tag k="ssr:stedsnr" v="92550" />
		<tag k="ssr:type" v="stø" />
	</node>
	<node changeset="57982147" id="4475753385" lat="58.683752" lon="8.4045993" timestamp="2018-04-10T18:51:30Z" uid="3497659" user="NKA" version="2">
		<tag k="name" v="Vehus" />
		<tag k="place" v="hamlet" />
		<tag k="ssr:stedsnr" v="911319" />
		<tag k="ssr:type" v="bruk" />
	</node>
	<node changeset="57982147" id="4475753386" lat="58.7024011" lon="8.4126543" timestamp="2018-04-10T18:51:30Z" uid="3497659" user="NKA" version="2">
		<tag k="name" v="Vehusheia" />
		<tag k="place" v="farm" />
		<tag k="ssr:stedsnr" v="729453" />
		<tag k="ssr:type" v="bruk" />
	</node>
	<node changeset="57982147" id="4475753387" lat="58.692286" lon="8.6208197" timestamp="2018-04-10T18:51:30Z" uid="3497659" user="NKA" version="2">
		<tag k="fixme" v="check position" />
		<tag k="historic" v="ruins" />
		<tag k="name" v="Venli" />
		<tag k="place" v="locality" />
		<tag k="ssr:stedsnr" v="638513" />
		<tag k="ssr:type" v="gammelBosettingsplass" />
	</node>
	<node changeset="57982147" id="4475753388" lat="58.7058331" lon="8.1555993" timestamp="2018-04-10T18:51:30Z" uid="3497659" user="NKA" version="2">
		<tag k="building" v="cabin" />
		<tag k="name" v="Verfjellhytta" />
		<tag k="place" v="isolated_dwelling" />
		<tag k="ssr:stedsnr" v="233787" />
		<tag k="ssr:type" v="fritidsbolig" />
	</node>
	<node changeset="57982147" id="4475753389" lat="58.6818445" lon="8.4010594" timestamp="2018-04-10T18:51:30Z" uid="3497659" user="NKA" version="2">
		<tag k="name" v="Vestigard" />
		<tag k="place" v="farm" />
		<tag k="ssr:stedsnr" v="457233" />
		<tag k="ssr:type" v="bruk" />
	</node>
	<node changeset="57982147" id="4475753390" lat="58.6975772" lon="8.3726807" timestamp="2018-04-10T18:51:30Z" uid="3497659" user="NKA" version="2">
		<tag k="name" v="Vestigard" />
		<tag k="place" v="locality" />
		<tag k="ssr:stedsnr" v="639444" />
		<tag k="ssr:type" v="bruk" />
	</node>
	<node changeset="57982147" id="4475753391" lat="58.7661045" lon="8.5299912" timestamp="2018-04-10T18:51:30Z" uid="3497659" user="NKA" version="2">
		<tag k="alt_name" v="Vestre Haugane;Haugane vestre" />
		<tag k="name" v="Vestigard" />
		<tag k="place" v="farm" />
		<tag k="ssr:stedsnr" v="364521" />
		<tag k="ssr:type" v="bruk" />
	</node>
	<node changeset="57982147" id="4475753392" lat="58.7587126" lon="8.4106257" timestamp="2018-04-10T18:51:31Z" uid="3497659" user="NKA" version="2">
		<tag k="name" v="Vestre Fiskvatn" />
		<tag k="place" v="farm" />
		<tag k="ssr:stedsnr" v="426299" />
		<tag k="ssr:type" v="bruk" />
	</node>
	<node changeset="57982147" id="4475753393" lat="58.6502145" lon="8.7223044" timestamp="2018-04-10T18:51:31Z" uid="3497659" user="NKA" version="2">
		<tag k="building" v="cabin" />
		<tag k="name" v="Vestre Furland" />
		<tag k="place" v="isolated_dwelling" />
		<tag k="ssr:stedsnr" v="529977" />
		<tag k="ssr:type" v="gammelBosettingsplass" />
	</node>
	<node changeset="57982147" id="4475753394" lat="58.6774236" lon="8.546713" timestamp="2018-04-10T18:51:31Z" uid="3497659" user="NKA" version="2">
		<tag k="alt_name" v="Mosberg" />
		<tag k="building" v="cabin" />
		<tag k="name" v="Vestre Mosberg" />
		<tag k="place" v="isolated_dwelling" />
		<tag k="ssr:stedsnr" v="122917" />
		<tag k="ssr:type" v="fritidsbolig" />
	</node>
	<node changeset="57982147" id="4475753395" lat="58.6578013" lon="8.6673705" timestamp="2018-04-10T18:51:31Z" uid="3497659" user="NKA" version="2">
		<tag k="alt_name" v="Vimme vestre" />
		<tag k="name" v="Vestre Vimme" />
		<tag k="place" v="farm" />
		<tag k="ssr:stedsnr" v="729940" />
		<tag k="ssr:type" v="bruk" />
	</node>
	<node changeset="57982147" id="4475753396" lat="58.7942759" lon="8.2218156" timestamp="2018-04-10T18:51:31Z" uid="3497659" user="NKA" version="2">
		<tag k="name" v="Vettevoll" />
		<tag k="place" v="farm" />
		<tag k="ssr:stedsnr" v="51903" />
		<tag k="ssr:type" v="bruk" />
	</node>
	<node changeset="58497758" id="4475753397" lat="58.9239948" lon="7.9892504" timestamp="2018-04-28T08:07:08Z" uid="3497659" user="NKA" version="3">
		<tag k="historic" v="shieling" />
		<tag k="name" v="Videstøyl" />
		<tag k="place" v="locality" />
		<tag k="ssr:stedsnr" v="729694" />
		<tag k="ssr:type" v="seterStøl" />
	</node>
	<node changeset="57982147" id="4475753398" lat="58.6996153" lon="8.5997797" timestamp="2018-04-10T18:51:31Z" uid="3497659" user="NKA" version="2">
		<tag k="name" v="Vik" />
		<tag k="place" v="farm" />
		<tag k="ssr:stedsnr" v="607883" />
		<tag k="ssr:type" v="bruk" />
	</node>
	<node changeset="57982147" id="4475753399" lat="58.8180622" lon="8.4124448" timestamp="2018-04-10T18:51:31Z" uid="3497659" user="NKA" version="2">
		<tag k="building" v="cabin" />
		<tag k="name" v="Vika" />
		<tag k="place" v="isolated_dwelling" />
		<tag k="ssr:stedsnr" v="607171" />
		<tag k="ssr:type" v="fritidsbolig" />
	</node>
	<node changeset="57982147" id="4475753400" lat="58.7724034" lon="8.3777159" timestamp="2018-04-10T18:51:32Z" uid="3497659" user="NKA" version="2">
		<tag k="building" v="cabin" />
		<tag k="name" v="Vikstøyl" />
		<tag k="place" v="isolated_dwelling" />
		<tag k="ssr:stedsnr" v="61187" />
		<tag k="ssr:type" v="fritidsbolig" />
	</node>
	<node changeset="58497758" id="4475753401" lat="58.868165" lon="8.4256502" timestamp="2018-04-28T08:07:08Z" uid="3497659" user="NKA" version="3">
		<tag k="building" v="cabin" />
		<tag k="historic" v="shieling" />
		<tag k="name" v="Vikstøyl" />
		<tag k="place" v="isolated_dwelling" />
		<tag k="ssr:stedsnr" v="122105" />
		<tag k="ssr:type" v="fritidsbolig" />
	</node>
	<node changeset="57982147" id="4475753402" lat="58.692053" lon="8.7256482" timestamp="2018-04-10T18:51:32Z" uid="3497659" user="NKA" version="2">
		<tag k="name" v="Vindholmen" />
		<tag k="place" v="farm" />
		<tag k="ssr:stedsnr" v="396246" />
		<tag k="ssr:type" v="bruk" />
	</node>
	<node changeset="57982147" id="4475753403" lat="58.7107607" lon="8.5893383" timestamp="2018-04-10T18:51:32Z" uid="3497659" user="NKA" version="2">
		<tag k="name" v="Vollane" />
		<tag k="place" v="farm" />
		<tag k="ssr:stedsnr" v="92584" />
		<tag k="ssr:type" v="bruk" />
	</node>
	<node changeset="57982147" id="4475753404" lat="58.8702167" lon="8.3077181" timestamp="2018-04-10T18:51:32Z" uid="3497659" user="NKA" version="2">
		<tag k="name" v="Vollen" />
		<tag k="place" v="farm" />
		<tag k="ssr:stedsnr" v="790029" />
		<tag k="ssr:type" v="bruk" />
	</node>
	<node changeset="57982147" id="4475753405" lat="58.8278404" lon="8.1018054" timestamp="2018-04-10T18:51:32Z" uid="3497659" user="NKA" version="2">
		<tag k="name" v="Vrålstad" />
		<tag k="place" v="farm" />
		<tag k="ssr:stedsnr" v="729094" />
		<tag k="ssr:type" v="bruk" />
	</node>
	<node changeset="57982147" id="4475753406" lat="58.7278645" lon="8.2069198" timestamp="2018-04-10T18:51:33Z" uid="3497659" user="NKA" version="2">
		<tag k="building" v="cabin" />
		<tag k="name" v="Vågsdalen" />
		<tag k="place" v="isolated_dwelling" />
		<tag k="ssr:stedsnr" v="1503" />
		<tag k="ssr:type" v="fritidsbolig" />
	</node>
	<node changeset="57982147" id="4475753407" lat="58.7622947" lon="8.5222285" timestamp="2018-04-10T18:51:33Z" uid="3497659" user="NKA" version="2">
		<tag k="name" v="Våje" />
		<tag k="place" v="farm" />
		<tag k="ssr:stedsnr" v="850551" />
		<tag k="ssr:type" v="bruk" />
	</node>
	<node changeset="57982147" id="4475753408" lat="58.768546" lon="8.255254" timestamp="2018-04-10T18:51:33Z" uid="3497659" user="NKA" version="2">
		<tag k="alt_name" v="Ramse ytre;Ramse ytr" />
		<tag k="name" v="Ytre Ramse" />
		<tag k="place" v="farm" />
		<tag k="ssr:stedsnr" v="547227" />
		<tag k="ssr:type" v="bruk" />
	</node>
	<node changeset="57982147" id="4475753409" lat="58.8681925" lon="8.3330949" timestamp="2018-04-10T18:51:33Z" uid="3497659" user="NKA" version="2">
		<tag k="name" v="Åmland" />
		<tag k="place" v="farm" />
		<tag k="ssr:stedsnr" v="547114" />
		<tag k="ssr:type" v="bruk" />
	</node>
	<node changeset="58497758" id="4475753411" lat="58.9042762" lon="8.0124593" timestamp="2018-04-28T08:07:08Z" uid="3497659" user="NKA" version="3">
		<tag k="historic" v="shieling" />
		<tag k="name" v="Ånebjør" />
		<tag k="place" v="locality" />
		<tag k="ssr:stedsnr" v="911701" />
		<tag k="ssr:type" v="seterStøl" />
	</node>
	<node changeset="57982147" id="4475753412" lat="58.7572222" lon="8.4818901" timestamp="2018-04-10T18:51:33Z" uid="3497659" user="NKA" version="2">
		<tag k="name" v="Århuskleiva" />
		<tag k="place" v="neighbourhood" />
		<tag k="ssr:stedsnr" v="695434" />
		<tag k="ssr:type" v="boligfelt" />
	</node>
	<node changeset="57982147" id="4475753413" lat="58.6895841" lon="8.7171947" timestamp="2018-04-10T18:51:33Z" uid="3497659" user="NKA" version="2">
		<tag k="name" v="Åsen" />
		<tag k="place" v="farm" />
		<tag k="ssr:stedsnr" v="304921" />
		<tag k="ssr:type" v="bruk" />
	</node>
	<node changeset="57982147" id="4475753414" lat="58.8871626" lon="8.2733678" timestamp="2018-04-10T18:51:34Z" uid="3497659" user="NKA" version="2">
		<tag k="name" v="Åsen" />
		<tag k="place" v="farm" />
		<tag k="ssr:stedsnr" v="729052" />
		<tag k="ssr:type" v="bruk" />
	</node>
	<node changeset="57982147" id="4475753415" lat="58.6921767" lon="8.3163585" timestamp="2018-04-10T18:51:34Z" uid="3497659" user="NKA" version="2">
		<tag k="fixme" v="check position" />
		<tag k="historic" v="ruins" />
		<tag k="name" v="Åslaugsbu" />
		<tag k="place" v="locality" />
		<tag k="ssr:stedsnr" v="415731" />
		<tag k="ssr:type" v="gammelBosettingsplass" />
	</node>
	<node changeset="57982147" id="4475753416" lat="58.8692173" lon="8.3071334" timestamp="2018-04-10T18:51:34Z" uid="3497659" user="NKA" version="2">
		<tag k="alt_name" v="Ekra" />
		<tag k="name" v="Ækra" />
		<tag k="place" v="farm" />
		<tag k="ssr:stedsnr" v="607017" />
		<tag k="ssr:type" v="bruk" />
	</node>
	<node changeset="57982147" id="4475753417" lat="58.6632521" lon="8.6961471" timestamp="2018-04-10T18:51:34Z" uid="3497659" user="NKA" version="2">
		<tag k="alt_name" v="Vimme østre;Vimme" />
		<tag k="name" v="Østre Vimme" />
		<tag k="place" v="farm" />
		<tag k="ssr:stedsnr" v="426953" />
		<tag k="ssr:type" v="bruk" />
	</node>
	<node changeset="57982147" id="4475753418" lat="58.8203014" lon="8.6365852" timestamp="2018-04-10T18:51:34Z" uid="3497659" user="NKA" version="2">
		<tag k="alt_name" v="Haukedalen" />
		<tag k="building" v="cabin" />
		<tag k="name" v="Øvre Haukedalen" />
		<tag k="place" v="isolated_dwelling" />
		<tag k="ssr:stedsnr" v="61672" />
		<tag k="ssr:type" v="fritidsbolig" />
	</node>
	<node changeset="58497758" id="4475753419" lat="58.9410015" lon="8.1065616" timestamp="2018-04-28T08:07:08Z" uid="3497659" user="NKA" version="3">
		<tag k="alt_name" v="Hegestøyl" />
		<tag k="historic" v="shieling" />
		<tag k="name" v="Øvre Hegestøyl" />
		<tag k="place" v="farm" />
		<tag k="ssr:stedsnr" v="122934" />
		<tag k="ssr:type" v="bruk" />
	</node>
	<node changeset="57982147" id="4475753420" lat="58.8587465" lon="8.5120336" timestamp="2018-04-10T18:51:34Z" uid="3497659" user="NKA" version="2">
		<tag k="alt_name" v="Helleren" />
		<tag k="building" v="cabin" />
		<tag k="name" v="Øvre Helleren" />
		<tag k="place" v="isolated_dwelling" />
		<tag k="ssr:stedsnr" v="243753" />
		<tag k="ssr:type" v="fritidsbolig" />
	</node>
	<node changeset="57982147" id="4475753421" lat="58.8296895" lon="8.5545415" timestamp="2018-04-10T18:51:34Z" uid="3497659" user="NKA" version="2">
		<tag k="name" v="Øvre Krossbekk" />
		<tag k="place" v="farm" />
		<tag k="ssr:stedsnr" v="92437" />
		<tag k="ssr:type" v="eneboligMindreBoligbygg" />
	</node>
	<node changeset="57982147" id="4475753422" lat="58.8352271" lon="8.1037024" timestamp="2018-04-10T18:51:35Z" uid="3497659" user="NKA" version="2">
		<tag k="alt_name" v="Moen øvre" />
		<tag k="name" v="Øvre Moen" />
		<tag k="place" v="farm" />
		<tag k="ssr:stedsnr" v="717929" />
		<tag k="ssr:type" v="bruk" />
	</node>
	<node changeset="57982147" id="4475753423" lat="58.7945984" lon="8.2250242" timestamp="2018-04-10T18:51:35Z" uid="3497659" user="NKA" version="2">
		<tag k="alt_name" v="Ramse øvre" />
		<tag k="name" v="Øvre Ramse" />
		<tag k="place" v="hamlet" />
		<tag k="ssr:stedsnr" v="182138" />
		<tag k="ssr:type" v="grend" />
	</node>
	<node changeset="57982147" id="4475753424" lat="58.7920996" lon="8.0267829" timestamp="2018-04-10T18:51:35Z" uid="3497659" user="NKA" version="2">
		<tag k="alt_name" v="Skjeggedal øvre" />
		<tag k="building" v="cabin" />
		<tag k="name" v="Øvre Skjeggedal" />
		<tag k="place" v="isolated_dwelling" />
		<tag k="ssr:stedsnr" v="547810" />
		<tag k="ssr:type" v="fritidsbolig" />
	</node>
	<node changeset="57982147" id="4475753425" lat="58.8840522" lon="8.284883" timestamp="2018-04-10T18:51:35Z" uid="3497659" user="NKA" version="2">
		<tag k="alt_name" v="Årli øvre" />
		<tag k="name" v="Øvre Årli" />
		<tag k="place" v="farm" />
		<tag k="ssr:stedsnr" v="304053" />
		<tag k="ssr:type" v="bruk" />
	</node>
	<node changeset="57982147" id="4475753426" lat="58.7368646" lon="8.5292784" timestamp="2018-04-10T18:51:35Z" uid="3497659" user="NKA" version="2">
		<tag k="fixme" v="check position" />
		<tag k="historic" v="ruins" />
		<tag k="name" v="Øvreplass" />
		<tag k="place" v="locality" />
		<tag k="ssr:stedsnr" v="699579" />
		<tag k="ssr:type" v="gammelBosettingsplass" />
	</node>
	<node changeset="57982147" id="4475753427" lat="58.7255245" lon="8.2619276" timestamp="2018-04-10T18:51:35Z" uid="3497659" user="NKA" version="2">
		<tag k="building" v="cabin" />
		<tag k="name" v="Øy" />
		<tag k="place" v="isolated_dwelling" />
		<tag k="ssr:stedsnr" v="122478" />
		<tag k="ssr:type" v="fritidsbolig" />
	</node>
	<node changeset="57982147" id="4475753428" lat="58.8881296" lon="8.5959452" timestamp="2018-04-10T18:51:35Z" uid="3497659" user="NKA" version="2">
		<tag k="name" v="Øy" />
		<tag k="place" v="hamlet" />
		<tag k="ssr:stedsnr" v="365478" />
		<tag k="ssr:type" v="bruk" />
	</node>
	<node changeset="57982147" id="4475753429" lat="58.6900771" lon="8.6363967" timestamp="2018-04-10T18:51:35Z" uid="3497659" user="NKA" version="2">
		<tag k="fixme" v="check position" />
		<tag k="historic" v="ruins" />
		<tag k="name" v="Øygarden" />
		<tag k="place" v="locality" />
		<tag k="ssr:stedsnr" v="31217" />
		<tag k="ssr:type" v="gammelBosettingsplass" />
	</node>
	<node changeset="57982147" id="4475753430" lat="58.7177262" lon="8.61869" timestamp="2018-04-10T18:51:35Z" uid="3497659" user="NKA" version="2">
		<tag k="building" v="cabin" />
		<tag k="name" v="Øygarden" />
		<tag k="place" v="isolated_dwelling" />
		<tag k="ssr:stedsnr" v="850066" />
		<tag k="ssr:type" v="fritidsbolig" />
	</node>
	<node changeset="57982147" id="4475753431" lat="58.8308626" lon="8.4050879" timestamp="2018-04-10T18:51:36Z" uid="3497659" user="NKA" version="2">
		<tag k="alt_name" v="Øygaarden;Ut-på Øygarden" />
		<tag k="name" v="Øygarden" />
		<tag k="place" v="farm" />
		<tag k="ssr:stedsnr" v="244168" />
		<tag k="ssr:type" v="bruk" />
	</node>
	<node changeset="57982147" id="4475753432" lat="58.6942536" lon="8.5885121" timestamp="2018-04-10T18:51:36Z" uid="3497659" user="NKA" version="2">
		<tag k="name" v="Øyna" />
		<tag k="place" v="farm" />
		<tag k="ssr:stedsnr" v="942582" />
		<tag k="ssr:type" v="bruk" />
	</node>
	<node changeset="57982147" id="4475753433" lat="58.8062025" lon="8.1690727" timestamp="2018-04-10T18:51:36Z" uid="3497659" user="NKA" version="2">
		<tag k="building" v="cabin" />
		<tag k="name" v="Øyna" />
		<tag k="place" v="isolated_dwelling" />
		<tag k="ssr:stedsnr" v="607126" />
		<tag k="ssr:type" v="fritidsbolig" />
	</node>
	<node changeset="57982147" id="4475753434" lat="58.6703617" lon="8.6166976" timestamp="2018-04-10T18:51:36Z" uid="3497659" user="NKA" version="2">
		<tag k="name" v="Øynes" />
		<tag k="place" v="farm" />
		<tag k="ssr:stedsnr" v="729956" />
		<tag k="ssr:type" v="bruk" />
	</node>
	<node changeset="57982147" id="1427928200" lat="58.7358659" lon="8.4969103" timestamp="2018-04-10T18:40:03Z" uid="3497659" user="NKA" version="3">
		<tag k="name" v="Sigridnes" />
		<tag k="place" v="hamlet" />
		<tag k="ssr:stedsnr" v="1120" />
		<tag k="ssr:type" v="bruk" />
	</node>
	<node changeset="56035354" id="5383646449" lat="58.7674007" lon="8.4876963" timestamp="2018-02-03T17:48:48Z" uid="2114448" user="FredrikLindseth_import" version="1" />
	<node changeset="56035354" id="5383646450" lat="58.7673984" lon="8.4877422" timestamp="2018-02-03T17:48:48Z" uid="2114448" user="FredrikLindseth_import" version="1" />
	<node changeset="56035354" id="5383646451" lat="58.7675458" lon="8.487937" timestamp="2018-02-03T17:48:49Z" uid="2114448" user="FredrikLindseth_import" version="1" />
	<node changeset="56035354" id="5383646452" lat="58.767571" lon="8.4879624" timestamp="2018-02-03T17:48:49Z" uid="2114448" user="FredrikLindseth_import" version="1" />
	<node changeset="56035354" id="5383646453" lat="58.7676327" lon="8.4877356" timestamp="2018-02-03T17:48:49Z" uid="2114448" user="FredrikLindseth_import" version="1" />
	<node changeset="56035354" id="5383646454" lat="58.7676094" lon="8.4877121" timestamp="2018-02-03T17:48:49Z" uid="2114448" user="FredrikLindseth_import" version="1" />
	<node changeset="56035354" id="5383646495" lat="58.8071534" lon="8.174811" timestamp="2018-02-03T17:48:49Z" uid="2114448" user="FredrikLindseth_import" version="1" />
	<node changeset="57982147" id="3783835077" lat="58.8077719" lon="8.1757922" timestamp="2018-04-10T18:40:11Z" uid="3497659" user="NKA" version="3">
		<tag k="name" v="Hillestad" />
		<tag k="place" v="hamlet" />
		<tag k="ssr:stedsnr" v="668179" />
		<tag k="ssr:type" v="bruk" />
	</node>
	<node changeset="57982147" id="4475751982" lat="58.8831402" lon="8.5817826" timestamp="2018-04-10T18:50:37Z" uid="3497659" user="NKA" version="2">
		<tag k="name" v="Alfheim" />
		<tag k="place" v="farm" />
		<tag k="ssr:stedsnr" v="517126" />
		<tag k="ssr:type" v="eneboligMindreBoligbygg" />
	</node>
	<node changeset="57982147" id="4475751983" lat="58.8726182" lon="8.3026226" timestamp="2018-04-10T18:50:37Z" uid="3497659" user="NKA" version="2">
		<tag k="name" v="Askland" />
		<tag k="place" v="hamlet" />
		<tag k="ssr:stedsnr" v="547039" />
		<tag k="ssr:type" v="bygdelagBygd" />
	</node>
	<node changeset="57982147" id="4475751984" lat="58.6741983" lon="8.3737066" timestamp="2018-04-10T18:50:37Z" uid="3497659" user="NKA" version="2">
		<tag k="name" v="Austadplassen" />
		<tag k="place" v="farm" />
		<tag k="ssr:stedsnr" v="425304" />
		<tag k="ssr:type" v="eneboligMindreBoligbygg" />
	</node>
	<node changeset="57982147" id="4475751985" lat="58.6849506" lon="8.4070095" timestamp="2018-04-10T18:50:37Z" uid="3497659" user="NKA" version="2">
		<tag k="name" v="Austigard" />
		<tag k="place" v="farm" />
		<tag k="ssr:stedsnr" v="760253" />
		<tag k="ssr:type" v="bruk" />
	</node>
	<node changeset="57982147" id="4475751986" lat="58.7107277" lon="8.5928939" timestamp="2018-04-10T18:50:37Z" uid="3497659" user="NKA" version="2">
		<tag k="name" v="Austigard" />
		<tag k="place" v="farm" />
		<tag k="ssr:stedsnr" v="456561" />
		<tag k="ssr:type" v="bruk" />
	</node>
	<node changeset="57982147" id="4475751987" lat="58.7669993" lon="8.5334331" timestamp="2018-04-10T18:50:38Z" uid="3497659" user="NKA" version="2">
		<tag k="alt_name" v="Austre Haugane;Haugane austre" />
		<tag k="name" v="Austigard" />
		<tag k="place" v="farm" />
		<tag k="ssr:stedsnr" v="607506" />
		<tag k="ssr:type" v="bruk" />
	</node>
	<node changeset="57982147" id="4475751988" lat="58.8841013" lon="8.2413322" timestamp="2018-04-10T18:50:38Z" uid="3497659" user="NKA" version="2">
		<tag k="name" v="Austigard" />
		<tag k="place" v="farm" />
		<tag k="ssr:stedsnr" v="365052" />
		<tag k="ssr:type" v="bruk" />
	</node>
	<node changeset="56035354" id="4485470849" lat="58.76763" lon="8.4877902" timestamp="2018-02-03T17:50:06Z" uid="2114448" user="FredrikLindseth_import" version="2" />
	<node changeset="56035354" id="4485470852" lat="58.80707" lon="8.175073" timestamp="2018-02-03T17:50:06Z" uid="2114448" user="FredrikLindseth_import" version="2" />
	<node changeset="56035354" id="4485470853" lat="58.807071" lon="8.1750272" timestamp="2018-02-03T17:50:06Z" uid="2114448" user="FredrikLindseth_import" version="2" />
	<node changeset="56035354" id="4485470854" lat="58.807079" lon="8.1750341" timestamp="2018-02-03T17:50:06Z" uid="2114448" user="FredrikLindseth_import" version="2" />
	<node changeset="56035354" id="4485470855" lat="58.8070796" lon="8.1749374" timestamp="2018-02-03T17:50:06Z" uid="2114448" user="FredrikLindseth_import" version="2" />
	<node changeset="56035354" id="4485470856" lat="58.8070897" lon="8.174946" timestamp="2018-02-03T17:50:07Z" uid="2114448" user="FredrikLindseth_import" version="2" />
	<node changeset="56035354" id="4485470857" lat="58.807107" lon="8.1748193" timestamp="2018-02-03T17:50:07Z" uid="2114448" user="FredrikLindseth_import" version="2" />
	<node changeset="56035354" id="4485470858" lat="58.807108" lon="8.1751056" timestamp="2018-02-03T17:50:07Z" uid="2114448" user="FredrikLindseth_import" version="2" />
	<node changeset="56035354" id="4485470859" lat="58.807117" lon="8.1750665" timestamp="2018-02-03T17:50:07Z" uid="2114448" user="FredrikLindseth_import" version="2" />
	<node changeset="56035354" id="4485470860" lat="58.8071222" lon="8.1748323" timestamp="2018-02-03T17:50:07Z" uid="2114448" user="FredrikLindseth_import" version="2" />
	<node changeset="56035354" id="4485470861" lat="58.8071244" lon="8.175073" timestamp="2018-02-03T17:50:07Z" uid="2114448" user="FredrikLindseth_import" version="2" />
	<node changeset="56035354" id="4485470862" lat="58.8071315" lon="8.1747922" timestamp="2018-02-03T17:50:07Z" uid="2114448" user="FredrikLindseth_import" version="2" />
	<node changeset="56035354" id="4485470863" lat="58.8071432" lon="8.1749921" timestamp="2018-02-03T17:50:07Z" uid="2114448" user="FredrikLindseth_import" version="2" />
	<node changeset="56035354" id="4485470864" lat="58.8071532" lon="8.1750007" timestamp="2018-02-03T17:50:07Z" uid="2114448" user="FredrikLindseth_import" version="2" />
	<node changeset="56035354" id="4485470866" lat="58.8071751" lon="8.1748296" timestamp="2018-02-03T17:50:07Z" uid="2114448" user="FredrikLindseth_import" version="2" />
	<node changeset="56035354" id="4485470867" lat="58.8071804" lon="8.1748823" timestamp="2018-02-03T17:50:07Z" uid="2114448" user="FredrikLindseth_import" version="2" />
	<node changeset="57982147" id="3783767983" lat="58.8456083" lon="8.0989812" timestamp="2018-04-10T18:40:11Z" uid="3497659" user="NKA" version="3">
		<tag k="name" v="Austenå" />
		<tag k="place" v="hamlet" />
		<tag k="ssr:stedsnr" v="789107" />
		<tag k="ssr:type" v="bruk" />
	</node>
	<way changeset="57983805" id="365152160" timestamp="2018-04-10T19:47:54Z" uid="3497659" user="NKA" version="5">
		<tag k="amenity" v="place_of_worship" />
		<tag k="architect" v="Gjermund Gunnarson" />
		<tag k="building" v="church" />
		<tag k="capacity" v="200" />
		<tag k="deanery" v="Aust-Nedenes" />
		<tag k="denomination" v="lutheran" />
		<tag k="diocese" v="Agder og Telemark" />
		<tag k="image" v="https://www.kirkebyggdatabasen.no/KBDBweb/getPublicImage.aspx?vedleggId=7115DA9B-80E4-4D46-927D-A491ABE8A9E2" />
		<tag k="name" v="Gjøvdal kyrkje" />
		<tag k="operator" v="Åmli kirkelige fellesråd" />
		<tag k="parish" v="Gjøvdal" />
		<tag k="religion" v="christian" />
		<tag k="ssr:stedsnr" v="547005" />
		<tag k="ssr:type" v="kirke" />
		<tag k="start_date" v="1803" />
		<tag k="wikidata" v="Q15624482" />
		<nd ref="3691905235" />
		<nd ref="3691905234" />
		<nd ref="3691905252" />
		<nd ref="3691905256" />
		<nd ref="3691905239" />
		<nd ref="3691905241" />
		<nd ref="3691905243" />
		<nd ref="3691905242" />
		<nd ref="3691905248" />
		<nd ref="3691905245" />
		<nd ref="3691905247" />
		<nd ref="3691905244" />
		<nd ref="3691905232" />
		<nd ref="3691905233" />
		<nd ref="3691905237" />
		<nd ref="3691905236" />
		<nd ref="3691905235" />
	</way>
	<way changeset="57983805" id="451727016" timestamp="2018-04-10T19:48:02Z" uid="3497659" user="NKA" version="4">
		<tag k="amenity" v="place_of_worship" />
		<tag k="building" v="church" />
		<tag k="capacity" v="105" />
		<tag k="deanery" v="Aust-Nedenes" />
		<tag k="denomination" v="lutheran" />
		<tag k="diocese" v="Agder og Telemark" />
		<tag k="image" v="https://www.kirkebyggdatabasen.no/KBDBweb/getPublicImage.aspx?vedleggId=73AEE2FD-0D0E-495F-8AC5-5AB4982B1498" />
		<tag k="name" v="Tovdal kyrkje" />
		<tag k="note" v="Soknekirke" />
		<tag k="operator" v="Åmli kirkelige fellesråd" />
		<tag k="parish" v="Åmli" />
		<tag k="religion" v="christian" />
		<tag k="ssr:stedsnr" v="789130" />
		<tag k="ssr:type" v="kirke" />
		<tag k="start_date" v="1820" />
		<tag k="wikidata" v="Q12007228" />
		<nd ref="4485470860" />
		<nd ref="4485470862" />
		<nd ref="5383646495" />
		<nd ref="4485470866" />
		<nd ref="4475753370" />
		<nd ref="4485470867" />
		<nd ref="4485470864" />
		<nd ref="4485470863" />
		<nd ref="4485470861" />
		<nd ref="4485470859" />
		<nd ref="4485470858" />
		<nd ref="4485470852" />
		<nd ref="4485470854" />
		<nd ref="4485470853" />
		<nd ref="4485470856" />
		<nd ref="4485470855" />
		<nd ref="4485470857" />
		<nd ref="4485470860" />
	</way>
	<way changeset="57983805" id="451727013" timestamp="2018-04-10T19:48:01Z" uid="3497659" user="NKA" version="4">
		<tag k="amenity" v="place_of_worship" />
		<tag k="architect" v="Ludvig Karlsen" />
		<tag k="building" v="church" />
		<tag k="capacity" v="450" />
		<tag k="deanery" v="Aust-Nedenes" />
		<tag k="denomination" v="lutheran" />
		<tag k="diocese" v="Agder og Telemark" />
		<tag k="image" v="https://www.kirkebyggdatabasen.no/KBDBweb/getPublicImage.aspx?vedleggId=990F221E-19EB-4FAD-A682-7D83753123DD" />
		<tag k="name" v="Åmli kirke" />
		<tag k="note" v="Soknekirke" />
		<tag k="operator" v="Åmli kirkelige fellesråd" />
		<tag k="parish" v="Åmli" />
		<tag k="religion" v="christian" />
		<tag k="ssr:stedsnr" v="153221" />
		<tag k="ssr:type" v="kirke" />
		<tag k="start_date" v="1909" />
		<tag k="toilets" v="yes" />
		<tag k="wikidata" v="Q12011517" />
		<nd ref="4485470835" />
		<nd ref="4485470836" />
		<nd ref="4485470847" />
		<nd ref="5383646454" />
		<nd ref="5383646453" />
		<nd ref="4485470846" />
		<nd ref="4485470849" />
		<nd ref="4485470850" />
		<nd ref="4485470848" />
		<nd ref="4485470845" />
		<nd ref="4485470844" />
		<nd ref="5383646452" />
		<nd ref="5383646451" />
		<nd ref="4485470842" />
		<nd ref="4485470830" />
		<nd ref="3327844525" />
		<nd ref="5383646450" />
		<nd ref="4485470833" />
		<nd ref="5383646449" />
		<nd ref="4485470829" />
		<nd ref="4485470832" />
		<nd ref="4485470835" />
	</way>
</osm>
