<?xml version="1.0" encoding="UTF-8"?>
<osm version="0.6" generator="osmapis">
	<node lat="61.55652500132419" lon="9.939499999419581" id="-44434">
		<tag k="name" v="Sør-Fron kommune" />
		<tag k="ssr:date" v="2019-12-27" />
		<tag k="ssr:gruppe" v="administrativeIndelinger" />
		<tag k="ssr:hovedgruppe" v="offentligAdministrasjon" />
		<tag k="ssr:stedsnr" v="390956" />
		<tag k="ssr:type" v="kommune" />
	</node>
	<node lat="61.49229485095676" lon="9.774806775822656" id="-44984">
		<tag k="name" v="Blåbærfjellet" />
		<tag k="ssr:date" v="2019-12-27" />
		<tag k="ssr:gruppe" v="veg" />
		<tag k="ssr:hovedgruppe" v="infrastruktur" />
		<tag k="ssr:stedsnr" v="989181" />
		<tag k="ssr:type" v="adressenavn" />
	</node>
	<node lat="61.54858177701119" lon="9.949362405818684" id="-44985">
		<tag k="name" v="Hyttebyvegen" />
		<tag k="ssr:date" v="2019-12-27" />
		<tag k="ssr:gruppe" v="veg" />
		<tag k="ssr:hovedgruppe" v="infrastruktur" />
		<tag k="ssr:stedsnr" v="1012736" />
		<tag k="ssr:type" v="adressenavn" />
	</node>
	<node lat="61.5531381784679" lon="9.932910847278828" id="-44986">
		<tag k="name" v="Flatmosvingen" />
		<tag k="ssr:date" v="2019-12-27" />
		<tag k="ssr:gruppe" v="veg" />
		<tag k="ssr:hovedgruppe" v="infrastruktur" />
		<tag k="ssr:stedsnr" v="1012757" />
		<tag k="ssr:type" v="adressenavn" />
	</node>
	<node lat="61.5567896831132" lon="9.942059068245959" id="-45049">
		<tag k="name" v="Lykkjesvingen" />
		<tag k="ssr:date" v="2019-12-27" />
		<tag k="ssr:gruppe" v="veg" />
		<tag k="ssr:hovedgruppe" v="infrastruktur" />
		<tag k="ssr:stedsnr" v="1012487" />
		<tag k="ssr:type" v="adressenavn" />
	</node>
	<node lat="61.55357600398327" lon="9.932999601473698" id="-45077">
		<tag k="name" v="Flatmovegen" />
		<tag k="ssr:date" v="2019-12-27" />
		<tag k="ssr:gruppe" v="veg" />
		<tag k="ssr:hovedgruppe" v="infrastruktur" />
		<tag k="ssr:stedsnr" v="1012529" />
		<tag k="ssr:type" v="adressenavn" />
	</node>
	<node lat="61.55526024389367" lon="9.940766120488524" id="-45121">
		<tag k="name" v="Meierivegen" />
		<tag k="ssr:date" v="2019-12-27" />
		<tag k="ssr:gruppe" v="veg" />
		<tag k="ssr:hovedgruppe" v="infrastruktur" />
		<tag k="ssr:stedsnr" v="1012597" />
		<tag k="ssr:type" v="adressenavn" />
	</node>
	<node lat="61.555767544502075" lon="9.941555757172262" id="-45146">
		<tag k="name" v="Lykkjevegen" />
		<tag k="ssr:date" v="2019-12-27" />
		<tag k="ssr:gruppe" v="veg" />
		<tag k="ssr:hovedgruppe" v="infrastruktur" />
		<tag k="ssr:stedsnr" v="1012714" />
		<tag k="ssr:type" v="adressenavn" />
	</node>
	<node lat="61.554019400275465" lon="9.941120587127815" id="-45157">
		<tag k="name" v="Kasjettvegen" />
		<tag k="ssr:date" v="2019-12-27" />
		<tag k="ssr:gruppe" v="veg" />
		<tag k="ssr:hovedgruppe" v="infrastruktur" />
		<tag k="ssr:stedsnr" v="1012729" />
		<tag k="ssr:type" v="adressenavn" />
	</node>
	<node lat="61.551128709881965" lon="9.94073346493588" id="-45159">
		<tag k="name" v="Fiolvegen" />
		<tag k="ssr:date" v="2019-12-27" />
		<tag k="ssr:gruppe" v="veg" />
		<tag k="ssr:hovedgruppe" v="infrastruktur" />
		<tag k="ssr:stedsnr" v="1013598" />
		<tag k="ssr:type" v="adressenavn" />
	</node>
	<node lat="61.55161293886955" lon="9.94154373010466" id="-45160">
		<tag k="name" v="Einkåvåvegen" />
		<tag k="ssr:date" v="2019-12-27" />
		<tag k="ssr:gruppe" v="veg" />
		<tag k="ssr:hovedgruppe" v="infrastruktur" />
		<tag k="ssr:stedsnr" v="1013610" />
		<tag k="ssr:type" v="adressenavn" />
	</node>
	<node lat="61.55440147658982" lon="9.939887517336489" id="-45161">
		<tag k="name" v="Furustubben" />
		<tag k="ssr:date" v="2019-12-27" />
		<tag k="ssr:gruppe" v="veg" />
		<tag k="ssr:hovedgruppe" v="infrastruktur" />
		<tag k="ssr:stedsnr" v="1013616" />
		<tag k="ssr:type" v="adressenavn" />
	</node>
	<node lat="61.55090097790092" lon="9.939564965849286" id="-45164">
		<tag k="name" v="Røsslyngvegen" />
		<tag k="ssr:date" v="2019-12-27" />
		<tag k="ssr:gruppe" v="veg" />
		<tag k="ssr:hovedgruppe" v="infrastruktur" />
		<tag k="ssr:stedsnr" v="1013650" />
		<tag k="ssr:type" v="adressenavn" />
	</node>
	<node lat="61.54609599894869" lon="10.048407083021674" id="-45166">
		<tag k="name" v="Rudivollvegen" />
		<tag k="ssr:date" v="2019-12-27" />
		<tag k="ssr:gruppe" v="veg" />
		<tag k="ssr:hovedgruppe" v="infrastruktur" />
		<tag k="ssr:stedsnr" v="1073367" />
		<tag k="ssr:type" v="adressenavn" />
	</node>
</osm>
