<?xml version="1.0" encoding="UTF-8"?>
<osm generator="osmapis" version="0.6">
	<node id="-92159" lat="61.6702777762" lon="11.7836944525">
		<tag k="name" v="Nymoen" />
		<tag k="place" v="farm" />
		<tag k="ssr:stedsnr" v="131355" />
	</node>
	<node id="-92158" lat="61.6615611146" lon="11.8096722196">
		<tag k="name" v="Husflobrenna" />
		<tag k="place" v="farm" />
		<tag k="ssr:stedsnr" v="131348" />
	</node>
	<node id="-92145" lat="61.6399138856" lon="12.0293194347">
		<tag k="name" v="Nordgård" />
		<tag k="place" v="farm" />
		<tag k="ssr:stedsnr" v="119241" />
	</node>
	<node id="-92141" lat="61.739799999" lon="11.8202861088">
		<tag k="historic" v="shieling" />
		<tag k="name" v="Øvre Vollen" />
		<tag k="place" v="locality" />
		<tag k="ssr:stedsnr" v="117994" />
	</node>
	<node id="-92136" lat="61.8881361078" lon="11.9779055495">
		<tag k="historic" v="shieling" />
		<tag k="name" v="Åkertrøa" />
		<tag k="place" v="locality" />
		<tag k="ssr:stedsnr" v="117151" />
	</node>
	<node id="-92128" lat="61.6766888903" lon="12.006738883">
		<tag k="name" v="Oppgård" />
		<tag k="place" v="farm" />
		<tag k="ssr:stedsnr" v="116678" />
	</node>
	<node id="-92126" lat="61.6771138861" lon="12.004455558">
		<tag k="name" v="Gjermunds" />
		<tag k="place" v="farm" />
		<tag k="ssr:stedsnr" v="116671" />
	</node>
	<node id="-92125" lat="61.9737111148" lon="11.9472861113">
		<tag k="name" v="Østheim" />
		<tag k="old_name" v="Kjellmyra" />
		<tag k="place" v="farm" />
		<tag k="ssr:stedsnr" v="116615" />
	</node>
	<node id="-92124" lat="61.977030559" lon="11.9428527803">
		<tag k="alt_name" v="Langmyra" />
		<tag k="name" v="Nordstad" />
		<tag k="place" v="farm" />
		<tag k="ssr:stedsnr" v="116614" />
	</node>
	<node id="-92122" lat="62.0906388892" lon="11.6552972178">
		<tag k="alt_name" v="Søndre Joten" />
		<tag k="name" v="Søndre Gjota" />
		<tag k="place" v="farm" />
		<tag k="ssr:stedsnr" v="116496" />
	</node>
	<node id="-92111" lat="62.0615138877" lon="11.681083331">
		<tag k="name" v="Anestad" />
		<tag k="place" v="farm" />
		<tag k="ssr:stedsnr" v="116014" />
	</node>
	<node id="-92103" lat="61.6107972207" lon="12.0444944349">
		<tag k="name" v="Bakken" />
		<tag k="place" v="isolated_dwelling" />
		<tag k="ssr:stedsnr" v="114645" />
	</node>
	<node id="-92097" lat="61.7618249982" lon="11.9577000061">
		<tag k="name" v="Nordre Neset" />
		<tag k="place" v="farm" />
		<tag k="ssr:stedsnr" v="101032" />
	</node>
	<node id="-92095" lat="61.8925722191" lon="12.027327769">
		<tag k="name" v="Flaten" />
		<tag k="place" v="farm" />
		<tag k="ssr:stedsnr" v="100022" />
	</node>
	<node id="-92094" lat="61.9038305514" lon="12.0039083336">
		<tag k="building" v="industrial" />
		<tag k="name" v="Drevsjø trelast" />
		<tag k="ssr:stedsnr" v="100004" />
	</node>
	<node id="-92090" lat="61.8347333365" lon="11.764280554">
		<tag k="name" v="Furulund" />
		<tag k="place" v="farm" />
		<tag k="ssr:stedsnr" v="72957" />
	</node>
	<node id="-92088" lat="61.8212138919" lon="11.8004638798">
		<tag k="historic" v="shieling" />
		<tag k="name" v="Sundsætra" />
		<tag k="place" v="locality" />
		<tag k="ssr:stedsnr" v="72940" />
	</node>
	<node id="-92077" lat="61.7924638879" lon="11.9259750031">
		<tag k="name" v="Hovde" />
		<tag k="place" v="farm" />
		<tag k="ssr:stedsnr" v="72741" />
	</node>
	<node id="-92074" lat="61.7709805567" lon="11.9425944467">
		<tag k="name" v="Nordgård" />
		<tag k="place" v="farm" />
		<tag k="ssr:stedsnr" v="72730" />
	</node>
	<node id="-92066" lat="62.3118305599" lon="11.915055556">
		<tag k="name" v="Femundshytta" />
		<tag k="place" v="farm" />
		<tag k="ssr:stedsnr" v="72546" />
	</node>
	<node id="-92063" lat="62.1679583344" lon="11.9435500079">
		<tag k="alt_name" v="Søndre Elgåen" />
		<tag k="name" v="Elgåa" />
		<tag k="place" v="farm" />
		<tag k="ssr:stedsnr" v="72331" />
	</node>
	<node id="-92051" lat="61.8448527787" lon="11.9463111074">
		<tag k="name" v="Strandvoll" />
		<tag k="place" v="farm" />
		<tag k="ssr:stedsnr" v="71843" />
	</node>
	<node id="-92050" lat="61.8431055549" lon="12.0024277687">
		<tag k="alt_name" v="Nybo" />
		<tag k="name" v="Nybø" />
		<tag k="place" v="farm" />
		<tag k="ssr:stedsnr" v="71839" />
	</node>
	<node id="-92046" lat="61.716652778" lon="11.9689861049">
		<tag k="name" v="Vangen" />
		<tag k="place" v="farm" />
		<tag k="ssr:stedsnr" v="71758" />
	</node>
	<node id="-92045" lat="61.7367527775" lon="11.9722111104">
		<tag k="alt_name" v="Søndre Svingen" />
		<tag k="name" v="Svingen" />
		<tag k="place" v="farm" />
		<tag k="ssr:stedsnr" v="71729" />
	</node>
	<node id="-92041" lat="61.7001082002" lon="11.7275012755">
		<tag k="name" v="Snerta" />
		<tag k="place" v="hamlet" />
		<tag k="ssr:stedsnr" v="71392" />
	</node>
	<node id="-92040" lat="61.6980305561" lon="11.7509194388">
		<tag k="historic" v="shieling" />
		<tag k="name" v="Tollevssætra" />
		<tag k="place" v="locality" />
		<tag k="ssr:stedsnr" v="71391" />
	</node>
	<node id="-92039" lat="61.6903333305" lon="11.7609916715">
		<tag k="historic" v="shieling" />
		<tag k="name" v="Olasætra" />
		<tag k="place" v="locality" />
		<tag k="ssr:stedsnr" v="71387" />
	</node>
	<node id="-91651" lat="61.6781499978" lon="12.0051805608">
		<tag k="fixme" v="consider place=hamlet" />
		<tag k="name" v="Heggeriset" />
		<tag k="place" v="village" />
		<tag k="ssr:stedsnr" v="313728" />
	</node>
	<node id="-92031" lat="61.6661194453" lon="11.7728000092">
		<tag k="name" v="Vestsætra" />
		<tag k="place" v="locality" />
		<tag k="ssr:stedsnr" v="71408" />
	</node>
	<node id="-92030" lat="61.6528833328" lon="11.8297555582">
		<tag k="alt_name" v="Husfloen, s" />
		<tag k="name" v="Søndre Husfloen" />
		<tag k="place" v="farm" />
		<tag k="ssr:stedsnr" v="71403" />
	</node>
	<node id="-92027" lat="61.6595888879" lon="12.0454777836">
		<tag k="historic" v="shieling" />
		<tag k="name" v="Svartåssætra" />
		<tag k="place" v="locality" />
		<tag k="ssr:stedsnr" v="70641" />
	</node>
	<node id="-92026" lat="61.6491027807" lon="12.0265361029">
		<tag k="name" v="Hyllvang" />
		<tag k="place" v="farm" />
		<tag k="ssr:stedsnr" v="70619" />
	</node>
	<node id="-92025" lat="61.6119638855" lon="12.0035888799">
		<tag k="historic" v="shieling" />
		<tag k="name" v="Tverrfjellsætra" />
		<tag k="place" v="locality" />
		<tag k="ssr:stedsnr" v="70668" />
	</node>
	<node id="-92004" lat="61.6788749989" lon="12.0053250092">
		<tag k="name" v="Tores" />
		<tag k="place" v="farm" />
		<tag k="ssr:stedsnr" v="56693" />
	</node>
	<node id="-91995" lat="61.8126888872" lon="11.9181972269">
		<tag k="historic" v="shieling" />
		<tag k="name" v="Solheimssætra" />
		<tag k="place" v="locality" />
		<tag k="ssr:stedsnr" v="56291" />
	</node>
	<node id="-91983" lat="61.6488888932" lon="11.7633027762">
		<tag k="historic" v="shieling" />
		<tag k="name" v="Hagentømringa" />
		<tag k="place" v="locality" />
		<tag k="ssr:stedsnr" v="55135" />
	</node>
	<node id="-91974" lat="61.8297416676" lon="11.7289722281">
		<tag k="name" v="Ulvåberget" />
		<tag k="place" v="neighbourhood" />
		<tag k="ssr:stedsnr" v="43925" />
	</node>
	<node id="-91969" lat="61.759336112" lon="11.9585805604">
		<tag k="name" v="Engerdal prestegård" />
		<tag k="place" v="farm" />
		<tag k="ssr:stedsnr" v="37045" />
	</node>
	<node id="-91968" lat="61.8334444472" lon="11.774122228">
		<tag k="name" v="Haugerud" />
		<tag k="place" v="farm" />
		<tag k="ssr:stedsnr" v="26550" />
	</node>
	<node id="-91964" lat="61.890358337" lon="11.7584138984">
		<tag k="alt_name" v="Øvre Galten" />
		<tag k="name" v="Galten" />
		<tag k="place" v="farm" />
		<tag k="ssr:stedsnr" v="11986" />
	</node>
	<node id="-91957" lat="61.8965500023" lon="12.0270305634">
		<tag k="name" v="Brenna" />
		<tag k="place" v="farm" />
		<tag k="ssr:stedsnr" v="11860" />
	</node>
	<node id="-91952" lat="61.850550003" lon="12.0165805543">
		<tag k="name" v="Åsheim" />
		<tag k="place" v="farm" />
		<tag k="ssr:stedsnr" v="11828" />
	</node>
	<node id="-91947" lat="61.8020750033" lon="11.9864000009">
		<tag k="alt_name" v="Hovdsætra" />
		<tag k="historic" v="shieling" />
		<tag k="name" v="Hovden" />
		<tag k="place" v="locality" />
		<tag k="ssr:stedsnr" v="11800" />
	</node>
	<node id="-91944" lat="61.8112777776" lon="11.9169611103">
		<tag k="fixme" v="consider place=hamlet" />
		<tag k="name" v="Engerdalssætra" />
		<tag k="place" v="village" />
		<tag k="ssr:stedsnr" v="11782" />
	</node>
	<node id="-91942" lat="61.813422224" lon="11.9192361079">
		<tag k="name" v="Gammeljordet" />
		<tag k="place" v="farm" />
		<tag k="ssr:stedsnr" v="11780" />
	</node>
	<node id="-91940" lat="61.7689472187" lon="11.9443722241">
		<tag k="name" v="Nygård" />
		<tag k="place" v="farm" />
		<tag k="ssr:stedsnr" v="11759" />
	</node>
	<node id="-91925" lat="61.8723250037" lon="12.1602555554">
		<tag k="alt_name" v="Vestre Lillebo" />
		<tag k="name" v="Veslbu" />
		<tag k="place" v="locality" />
		<tag k="ssr:stedsnr" v="11110" />
	</node>
	<node id="-91922" lat="61.8026722213" lon="11.7037722142">
		<tag k="name" v="Bjørli" />
		<tag k="place" v="farm" />
		<tag k="ssr:stedsnr" v="10948" />
	</node>
	<node id="-91921" lat="61.8035277735" lon="11.7103166752">
		<tag k="name" v="Myrvang" />
		<tag k="place" v="farm" />
		<tag k="ssr:stedsnr" v="10947" />
	</node>
	<node id="-91915" lat="61.8845749983" lon="12.0509499967">
		<tag k="name" v="Tomter" />
		<tag k="place" v="farm" />
		<tag k="ssr:stedsnr" v="10865" />
	</node>
	<node id="-91914" lat="61.765511107" lon="11.9558555521">
		<tag k="name" v="Solheim" />
		<tag k="place" v="farm" />
		<tag k="ssr:stedsnr" v="10772" />
	</node>
	<node id="-91900" lat="61.6723916633" lon="11.8085388811">
		<tag k="alt_name" v="Gamlesætrene" />
		<tag k="historic" v="shieling" />
		<tag k="name" v="Gamlesætra" />
		<tag k="place" v="locality" />
		<tag k="ssr:stedsnr" v="10359" />
	</node>
	<node id="-91889" lat="61.9031541459" lon="12.002369373">
		<tag k="name" v="Drevsjømoen" />
		<tag k="place" v="quarter" />
		<tag k="ssr:stedsnr" v="983523" />
	</node>
	<node id="-91888" lat="61.6662642751" lon="12.0630019505">
		<tag k="name" v="Hyllsjøen" />
		<tag k="place" v="neighbourhood" />
		<tag k="ssr:stedsnr" v="983519" />
	</node>
	<node id="-91886" lat="61.6080896744" lon="12.0395196616">
		<tag k="fixme" v="consider place=hamlet" />
		<tag k="name" v="Røteigen" />
		<tag k="place" v="farm" />
		<tag k="ssr:stedsnr" v="982432" />
	</node>
	<node id="-93819" lat="61.872852778" lon="12.1805361172">
		<tag k="name" v="Grensen" />
		<tag k="place" v="farm" />
		<tag k="ssr:stedsnr" v="966593" />
	</node>
	<node id="-91870" lat="61.8870777757" lon="12.0348916592">
		<tag k="name" v="Østmo" />
		<tag k="place" v="farm" />
		<tag k="ssr:stedsnr" v="889020" />
	</node>
	<node id="-91869" lat="61.8976027811" lon="12.009733327">
		<tag k="name" v="Nordre Drevsjømoen" />
		<tag k="place" v="farm" />
		<tag k="ssr:stedsnr" v="889007" />
	</node>
	<node id="-91864" lat="62.1425111155" lon="11.6129000026">
		<tag k="historic" v="shieling" />
		<tag k="name" v="Langoddvollen" />
		<tag k="place" v="locality" />
		<tag k="ssr:stedsnr" v="478881" />
	</node>
	<node id="-91863" lat="61.6105055594" lon="12.0449388945">
		<tag k="name" v="Rødalen" />
		<tag k="place" v="farm" />
		<tag k="ssr:stedsnr" v="478641" />
	</node>
	<node id="-91862" lat="61.6117861099" lon="12.0468694515">
		<tag k="name" v="Høgtun" />
		<tag k="place" v="farm" />
		<tag k="ssr:stedsnr" v="478639" />
	</node>
	<node id="-91860" lat="61.8441861079" lon="11.8501583399">
		<tag k="name" v="Søndre Gløtvola" />
		<tag k="place" v="farm" />
		<tag k="ssr:stedsnr" v="407683" />
	</node>
	<node id="-91857" lat="61.8899916632" lon="11.7565722126">
		<tag k="name" v="Vestre nedre Galten" />
		<tag k="place" v="farm" />
		<tag k="ssr:stedsnr" v="405107" />
	</node>
	<node id="-91854" lat="61.8881749997" lon="12.0413972199">
		<tag k="name" v="Solum" />
		<tag k="place" v="farm" />
		<tag k="ssr:stedsnr" v="404021" />
	</node>
	<node id="-91851" lat="62.1030388852" lon="11.662816675">
		<tag k="name" v="Sømådalen Camping" />
		<tag k="ssr:stedsnr" v="389146" />
		<tag k="tourism" v="camp_site" />
	</node>
	<node id="-91844" lat="61.8460027812" lon="11.8390916593">
		<tag k="name" v="Alstad" />
		<tag k="place" v="farm" />
		<tag k="ssr:stedsnr" v="375945" />
	</node>
	<node id="-91843" lat="61.8157333339" lon="11.7981750025">
		<tag k="name" v="Gammelvollen" />
		<tag k="place" v="isolated_dwelling" />
		<tag k="ssr:stedsnr" v="375937" />
	</node>
	<node id="-91841" lat="61.971411115" lon="11.9445277716">
		<tag k="fixme" v="consider place=hamlet" />
		<tag k="name" v="Sorken" />
		<tag k="place" v="village" />
		<tag k="ssr:stedsnr" v="375885" />
	</node>
	<node id="-91839" lat="61.9316166636" lon="11.8781666615">
		<tag k="name" v="Rystallbakken" />
		<tag k="place" v="farm" />
		<tag k="ssr:stedsnr" v="375874" />
	</node>
	<node id="-91838" lat="61.932011107" lon="11.8657944436">
		<tag k="name" v="Gløtli" />
		<tag k="place" v="farm" />
		<tag k="ssr:stedsnr" v="375872" />
	</node>
	<node id="-91834" lat="61.8143944461" lon="11.9149027802">
		<tag k="name" v="Pers" />
		<tag k="place" v="farm" />
		<tag k="ssr:stedsnr" v="375789" />
	</node>
	<node id="-91829" lat="61.7720361141" lon="11.9427500053">
		<tag k="name" v="Haugen" />
		<tag k="place" v="farm" />
		<tag k="ssr:stedsnr" v="375725" />
	</node>
	<node id="-91827" lat="62.1684305563" lon="12.2389611126">
		<tag k="name" v="Sylen" />
		<tag k="old_name" v="Sylset" />
		<tag k="place" v="farm" />
		<tag k="ssr:stedsnr" v="375702" />
	</node>
	<node id="-91825" lat="62.2573111126" lon="12.2632250019">
		<tag k="name" v="Larsholm" />
		<tag k="place" v="locality" />
		<tag k="ssr:stedsnr" v="375656" />
	</node>
	<node id="-91810" lat="61.9675750018" lon="11.7701138804">
		<tag k="name" v="Svalbua" />
		<tag k="place" v="isolated_dwelling" />
		<tag k="ssr:stedsnr" v="375079" />
	</node>
	<node id="-91803" lat="61.8502222263" lon="12.0032000097">
		<tag k="alt_name" v="Skau" />
		<tag k="name" v="Skog" />
		<tag k="place" v="farm" />
		<tag k="ssr:stedsnr" v="374842" />
	</node>
	<node id="-91802" lat="61.8440611109" lon="11.8444055534">
		<tag k="name" v="Gløtvola" />
		<tag k="old_name" v="Gløtvorda" />
		<tag k="place" v="hamlet" />
		<tag k="ssr:stedsnr" v="374835" />
	</node>
	<node id="-91801" lat="61.7228638845" lon="11.9730500007">
		<tag k="name" v="Brustad" />
		<tag k="place" v="farm" />
		<tag k="ssr:stedsnr" v="374750" />
	</node>
	<node id="-93843" lat="62.3582011271" lon="11.9821719735">
		<tag k="name" v="Røosbua" />
		<tag k="place" v="locality" />
		<tag k="ssr:stedsnr" v="975974" />
	</node>
	<node id="-91790" lat="62.0692000042" lon="12.1069944515">
		<tag k="historic" v="shieling" />
		<tag k="name" v="Yttervollen" />
		<tag k="place" v="locality" />
		<tag k="ssr:stedsnr" v="374319" />
	</node>
	<node id="-91789" lat="62.0759083337" lon="12.1715083314">
		<tag k="fixme" v="consider tourism=alpine_hut or tourism=chalet" />
		<tag k="name" v="Valdalen gård" />
		<tag k="ssr:stedsnr" v="374308" />
		<tag k="tourism" v="wilderness_hut" />
	</node>
	<node id="-93829" lat="62.1710888858" lon="11.9414972273">
		<tag k="name" v="Nordre Båstø" />
		<tag k="place" v="farm" />
		<tag k="ssr:stedsnr" v="966911" />
	</node>
	<node id="-93827" lat="61.8022944403" lon="11.7009861178">
		<tag k="name" v="Solstad" />
		<tag k="place" v="farm" />
		<tag k="ssr:stedsnr" v="966860" />
	</node>
	<node id="-91772" lat="61.6756529006" lon="11.9985217515">
		<tag k="name" v="Nordre Kveen" />
		<tag k="place" v="farm" />
		<tag k="ssr:stedsnr" v="177710" />
	</node>
	<node id="-91771" lat="61.6762722194" lon="12.0031638817">
		<tag k="name" v="Vestgård" />
		<tag k="place" v="farm" />
		<tag k="ssr:stedsnr" v="177703" />
	</node>
	<node id="-93817" lat="61.969930558" lon="11.9616416622">
		<tag k="name" v="Femund canoe camp" />
		<tag k="ssr:stedsnr" v="966578" />
		<tag k="tourism" v="camp_site" />
	</node>
	<node id="-93816" lat="61.7961916707" lon="11.9171805578">
		<tag k="name" v="Nordøya" />
		<tag k="place" v="farm" />
		<tag k="ssr:stedsnr" v="966492" />
	</node>
	<node id="-93812" lat="61.6686166692" lon="11.7844194368">
		<tag k="name" v="Søndre Nymoen" />
		<tag k="place" v="farm" />
		<tag k="ssr:stedsnr" v="966232" />
	</node>
	<node id="-91762" lat="61.8109166667" lon="11.711397223">
		<tag k="name" v="Haugen" />
		<tag k="place" v="farm" />
		<tag k="ssr:stedsnr" v="361404" />
	</node>
	<node id="-93807" lat="62.0652499996" lon="11.6839972201">
		<tag k="name" v="Gammelsæterkroken" />
		<tag k="place" v="isolated_dwelling" />
		<tag k="ssr:stedsnr" v="966023" />
	</node>
	<node id="-91756" lat="61.7310277817" lon="11.6709944519">
		<tag k="name" v="Bjørnerbua" />
		<tag k="place" v="locality" />
		<tag k="ssr:stedsnr" v="359932" />
	</node>
	<node id="-93793" lat="61.6167111115" lon="12.0352416637">
		<tag k="name" v="Åsly" />
		<tag k="place" v="farm" />
		<tag k="ssr:stedsnr" v="965203" />
	</node>
	<node id="-93791" lat="61.6993083289" lon="11.7535111177">
		<tag k="name" v="Nordre Høyberget" />
		<tag k="place" v="farm" />
		<tag k="ssr:stedsnr" v="965177" />
	</node>
	<node id="-93786" lat="61.6979666709" lon="11.7289333393">
		<tag k="name" v="Bjørklund" />
		<tag k="place" v="farm" />
		<tag k="ssr:stedsnr" v="965140" />
	</node>
	<node id="-93785" lat="61.8380861087" lon="12.0184138841">
		<tag k="name" v="Solli" />
		<tag k="place" v="farm" />
		<tag k="ssr:stedsnr" v="965024" />
	</node>
	<node id="-91736" lat="61.9124777796" lon="11.9379027724">
		<tag k="name" v="Femund villmarksgrend" />
		<tag k="place" v="neighbourhood" />
		<tag k="ssr:stedsnr" v="359256" />
	</node>
	<node id="-93782" lat="62.1756305542" lon="11.8563722126">
		<tag k="name" v="Søndre Nessbua" />
		<tag k="place" v="isolated_dwelling" />
		<tag k="ssr:stedsnr" v="964235" />
	</node>
	<node id="-93775" lat="61.8365166692" lon="11.7323666739">
		<tag k="name" v="Ulvågrenda" />
		<tag k="place" v="hamlet" />
		<tag k="ssr:stedsnr" v="953899" />
	</node>
	<node id="-93774" lat="61.9201805533" lon="11.9381666751">
		<tag k="name" v="Femundtunet" />
		<tag k="old_name" v="Femund hotell;Femund park" />
		<tag k="ssr:stedsnr" v="952846" />
		<tag k="tourism" v="hotel" />
	</node>
	<node id="-91723" lat="61.6341916697" lon="12.0365027861">
		<tag k="name" v="Gammelvollen" />
		<tag k="place" v="farm" />
		<tag k="ssr:stedsnr" v="358180" />
	</node>
	<node id="-93769" lat="61.8874138867" lon="11.7574444514">
		<tag k="name" v="Sørum" />
		<tag k="place" v="farm" />
		<tag k="ssr:stedsnr" v="951127" />
	</node>
	<node id="-91719" lat="61.8350527821" lon="11.7310583367">
		<tag k="fixme" v="consider tourism=alpine_hut or tourism=chalet" />
		<tag k="name" v="Sølenstua Camp &amp; Hytter" />
		<tag k="ssr:stedsnr" v="346106" />
		<tag k="tourism" v="wilderness_hut" />
	</node>
	<node id="-93765" lat="61.8934138859" lon="12.0246305461">
		<tag k="name" v="Brennafeltet" />
		<tag k="place" v="quarter" />
		<tag k="ssr:stedsnr" v="950027" />
	</node>
	<node id="-93764" lat="61.894844448" lon="12.0183361131">
		<tag k="name" v="Moum" />
		<tag k="place" v="farm" />
		<tag k="ssr:stedsnr" v="950008" />
	</node>
	<node id="-93762" lat="62.0945888904" lon="11.7243472283">
		<tag k="name" v="Vikhusan" />
		<tag k="place" v="isolated_dwelling" />
		<tag k="ssr:stedsnr" v="931438" />
	</node>
	<node id="-91711" lat="61.8965166691" lon="12.0101222248">
		<tag k="alt_name" v="Drevsjømoen mellom" />
		<tag k="name" v="Midtre Drevsjømoen" />
		<tag k="place" v="farm" />
		<tag k="ssr:stedsnr" v="342002" />
	</node>
	<node id="-91710" lat="61.7545333371" lon="11.9649805523">
		<tag k="name" v="Nordi" />
		<tag k="place" v="farm" />
		<tag k="ssr:stedsnr" v="341042" />
	</node>
	<node id="-91709" lat="61.8386972241" lon="11.7648111153">
		<tag k="name" v="Sætervang" />
		<tag k="place" v="farm" />
		<tag k="ssr:stedsnr" v="329549" />
	</node>
	<node id="-91704" lat="61.7246999974" lon="12.0285194402">
		<tag k="name" v="Buarengløa" />
		<tag k="place" v="locality" />
		<tag k="ssr:stedsnr" v="323284" />
	</node>
	<node id="-93750" lat="61.8855888921" lon="12.0283694493">
		<tag k="alt_name" v="Nordum" />
		<tag k="name" v="Norum" />
		<tag k="place" v="farm" />
		<tag k="ssr:stedsnr" v="921849" />
	</node>
	<node id="-91699" lat="61.8442805553" lon="11.7575138966">
		<tag k="name" v="Haugland" />
		<tag k="place" v="isolated_dwelling" />
		<tag k="ssr:stedsnr" v="314949" />
	</node>
	<node id="-93746" lat="61.843602778" lon="12.0229638848">
		<tag k="name" v="Røstvang" />
		<tag k="place" v="farm" />
		<tag k="ssr:stedsnr" v="921829" />
	</node>
	<node id="-91697" lat="61.8159916627" lon="11.8369999902">
		<tag k="name" v="Toresbua" />
		<tag k="place" v="isolated_dwelling" />
		<tag k="ssr:stedsnr" v="314934" />
	</node>
	<node id="-93744" lat="61.8540166652" lon="12.0262166688">
		<tag k="name" v="Løkkås" />
		<tag k="place" v="farm" />
		<tag k="ssr:stedsnr" v="921825" />
	</node>
	<node id="-93743" lat="61.8484166644" lon="12.0126444506">
		<tag k="name" v="Furumo" />
		<tag k="place" v="farm" />
		<tag k="ssr:stedsnr" v="921824" />
	</node>
	<node id="-93742" lat="61.8277305528" lon="11.9002305616">
		<tag k="alt_name" v="Lillevoll" />
		<tag k="name" v="Litlevoll" />
		<tag k="place" v="farm" />
		<tag k="ssr:stedsnr" v="921808" />
	</node>
	<node id="-93741" lat="61.8352750013" lon="11.9479555482">
		<tag k="name" v="Skogstad" />
		<tag k="place" v="farm" />
		<tag k="ssr:stedsnr" v="921805" />
	</node>
	<node id="-93740" lat="61.8023444486" lon="11.9176527849">
		<tag k="name" v="Storøya" />
		<tag k="place" v="farm" />
		<tag k="ssr:stedsnr" v="921800" />
	</node>
	<node id="-93739" lat="61.8170044907" lon="12.0782919772">
		<tag k="historic" v="shieling" />
		<tag k="name" v="Styggedalsætra" />
		<tag k="place" v="locality" />
		<tag k="ssr:stedsnr" v="921795" />
	</node>
	<node id="-93737" lat="61.7607333329" lon="11.9595111156">
		<tag k="alt_name" v="Søndre Neset" />
		<tag k="name" v="Neset" />
		<tag k="place" v="farm" />
		<tag k="ssr:stedsnr" v="921776" />
	</node>
	<node id="-91687" lat="61.8709888932" lon="12.0227027768">
		<tag k="name" v="Åsvang" />
		<tag k="place" v="farm" />
		<tag k="ssr:stedsnr" v="314825" />
	</node>
	<node id="-91684" lat="61.8398833316" lon="11.8565222199">
		<tag k="name" v="Kojan" />
		<tag k="place" v="isolated_dwelling" />
		<tag k="ssr:stedsnr" v="314802" />
	</node>
	<node id="-93731" lat="61.7561361098" lon="11.9656833406">
		<tag k="alt_name" v="Sveen" />
		<tag k="name" v="Svea" />
		<tag k="place" v="farm" />
		<tag k="ssr:stedsnr" v="921735" />
	</node>
	<node id="-91682" lat="61.7750722228" lon="11.9467000022">
		<tag k="name" v="Hovdneset" />
		<tag k="place" v="isolated_dwelling" />
		<tag k="ssr:stedsnr" v="314756" />
	</node>
	<node id="-93728" lat="62.0260500039" lon="11.6318250036">
		<tag k="historic" v="shieling" />
		<tag k="name" v="Kvolvsætra" />
		<tag k="place" v="locality" />
		<tag k="ssr:stedsnr" v="921462" />
	</node>
	<node id="-91679" lat="62.0165499972" lon="11.7387333294">
		<tag k="name" v="Elvålsvollen" />
		<tag k="place" v="neighbourhood" />
		<tag k="ssr:stedsnr" v="314743" />
	</node>
	<node id="-91675" lat="61.7682472196" lon="12.1096611124">
		<tag k="historic" v="shieling" />
		<tag k="name" v="Luvhøsætra" />
		<tag k="place" v="locality" />
		<tag k="ssr:stedsnr" v="314727" />
	</node>
	<node id="-91672" lat="62.03645" lon="11.7161305651">
		<tag k="name" v="Åsli" />
		<tag k="place" v="farm" />
		<tag k="ssr:stedsnr" v="314466" />
	</node>
	<node id="-93703" lat="61.6531250031" lon="12.1651916666">
		<tag k="alt_name" v="Lillerøåsen" />
		<tag k="historic" v="shieling" />
		<tag k="name" v="Litlrøåsen" />
		<tag k="place" v="locality" />
		<tag k="ssr:stedsnr" v="920684" />
	</node>
	<node id="-93701" lat="61.6316694461" lon="12.0634416646">
		<tag k="alt_name" v="Gammelsætra" />
		<tag k="historic" v="shieling" />
		<tag k="name" v="Åsgamlesætra" />
		<tag k="place" v="locality" />
		<tag k="ssr:stedsnr" v="920673" />
	</node>
	<node id="-93699" lat="61.675688885" lon="11.9965388877">
		<tag k="name" v="Mo" />
		<tag k="place" v="farm" />
		<tag k="ssr:stedsnr" v="920653" />
	</node>
	<node id="-91650" lat="61.7411111155" lon="11.9745999926">
		<tag k="name" v="Midttun" />
		<tag k="place" v="farm" />
		<tag k="ssr:stedsnr" v="313699" />
	</node>
	<node id="-91649" lat="61.7438527762" lon="11.9715499953">
		<tag k="name" v="Nymoen" />
		<tag k="place" v="farm" />
		<tag k="ssr:stedsnr" v="313695" />
	</node>
	<node id="-93695" lat="61.6413388862" lon="11.7637777848">
		<tag k="alt_name" v="Skjerbekkdalssætra, syndre;Søndre Skjærbekkdalssætra" />
		<tag k="historic" v="shieling" />
		<tag k="name" v="Syndre Skjerbekkdalssætra" />
		<tag k="place" v="locality" />
		<tag k="ssr:stedsnr" v="920309" />
	</node>
	<node id="-91646" lat="61.6222027806" lon="12.0335138913">
		<tag k="name" v="Nylund" />
		<tag k="place" v="farm" />
		<tag k="ssr:stedsnr" v="313679" />
	</node>
	<node id="-93692" lat="61.6991611085" lon="11.7532861051">
		<tag k="name" v="Nordberget" />
		<tag k="place" v="farm" />
		<tag k="ssr:stedsnr" v="920267" />
	</node>
	<node id="-91640" lat="61.6564611124" lon="11.8195972283">
		<tag k="alt_name" v="Husfloen, nordre" />
		<tag k="name" v="Nordre Husfloen" />
		<tag k="place" v="farm" />
		<tag k="ssr:stedsnr" v="313365" />
	</node>
	<node id="-91639" lat="61.6921361074" lon="11.7595944488">
		<tag k="alt_name" v="Søndre Høyberget" />
		<tag k="name" v="Høyberget" />
		<tag k="place" v="farm" />
		<tag k="ssr:stedsnr" v="313355" />
	</node>
	<node id="-91638" lat="61.6745111078" lon="11.7746666662">
		<tag k="name" v="Edvang" />
		<tag k="place" v="farm" />
		<tag k="ssr:stedsnr" v="313342" />
	</node>
	<node id="-91635" lat="61.7478666647" lon="11.762075009">
		<tag k="name" v="Granli" />
		<tag k="place" v="farm" />
		<tag k="ssr:stedsnr" v="313251" />
	</node>
	<node id="-91634" lat="61.7467666702" lon="11.7528833289">
		<tag k="name" v="Fosshaug" />
		<tag k="place" v="farm" />
		<tag k="ssr:stedsnr" v="313249" />
	</node>
	<node id="-93681" lat="61.8782888925" lon="11.8538999921">
		<tag k="historic" v="shieling" />
		<tag k="name" v="Femundsætra" />
		<tag k="place" v="locality" />
		<tag k="ssr:stedsnr" v="921864" />
	</node>
	<node id="-93680" lat="61.9232833334" lon="11.9113250012">
		<tag k="name" v="Myrvoll" />
		<tag k="place" v="isolated_dwelling" />
		<tag k="ssr:stedsnr" v="921865" />
	</node>
	<node id="-93678" lat="62.0537555562" lon="11.6925916709">
		<tag k="alt_name" v="Nordre Sømåen" />
		<tag k="name" v="Nordre Sømåa" />
		<tag k="place" v="farm" />
		<tag k="ssr:stedsnr" v="908977" />
	</node>
	<node id="-91624" lat="61.8133249957" lon="11.7084222134">
		<tag k="name" v="Strand" />
		<tag k="place" v="isolated_dwelling" />
		<tag k="ssr:stedsnr" v="300383" />
	</node>
	<node id="-93671" lat="61.6370638873" lon="12.0301194536">
		<tag k="name" v="Fredheim" />
		<tag k="place" v="farm" />
		<tag k="ssr:stedsnr" v="908264" />
	</node>
	<node id="-91621" lat="61.7382472258" lon="11.9719944396">
		<tag k="name" v="Nordre Svingen" />
		<tag k="place" v="farm" />
		<tag k="ssr:stedsnr" v="299704" />
	</node>
	<node id="-93668" lat="61.8770083325" lon="12.023886113">
		<tag k="name" v="Hogstadfeltet" />
		<tag k="place" v="quarter" />
		<tag k="ssr:stedsnr" v="908029" />
	</node>
	<node id="-93665" lat="61.7331222226" lon="11.6821277752">
		<tag k="name" v="Stenbekkoia" />
		<tag k="place" v="isolated_dwelling" />
		<tag k="ssr:stedsnr" v="906942" />
	</node>
	<node id="-93661" lat="61.8784249989" lon="12.1398722193">
		<tag k="name" v="Rud" />
		<tag k="place" v="farm" />
		<tag k="ssr:stedsnr" v="906620" />
	</node>
	<node id="-91612" lat="61.8462111127" lon="12.0177694401">
		<tag k="name" v="Bakken" />
		<tag k="place" v="farm" />
		<tag k="ssr:stedsnr" v="298871" />
	</node>
	<node id="-91603" lat="61.9722861135" lon="11.9388666603">
		<tag k="name" v="Vestre Sorken" />
		<tag k="place" v="farm" />
		<tag k="ssr:stedsnr" v="298585" />
	</node>
	<node id="-91600" lat="61.9317777753" lon="11.8631805643">
		<tag k="name" v="Fosseng" />
		<tag k="place" v="farm" />
		<tag k="ssr:stedsnr" v="298506" />
	</node>
	<node id="-91599" lat="62.0885305526" lon="11.6514333302">
		<tag k="name" v="Eggen" />
		<tag k="place" v="farm" />
		<tag k="ssr:stedsnr" v="298476" />
	</node>
	<node id="-93646" lat="61.8767670657" lon="12.1503272468">
		<tag k="fixme" v="multiple name tags, choose one and add the other to alt_name" />
		<tag k="name" v="Myrnes;Tjernli" />
		<tag k="place" v="farm" />
		<tag k="ssr:stedsnr" v="905605" />
	</node>
	<node id="-93641" lat="62.1639777793" lon="11.9464722237">
		<tag k="name" v="Fredheim" />
		<tag k="place" v="farm" />
		<tag k="ssr:stedsnr" v="905448" />
	</node>
	<node id="-93636" lat="61.8122361155" lon="11.9170916642">
		<tag k="historic" v="shieling" />
		<tag k="name" v="Semingssætra" />
		<tag k="place" v="locality" />
		<tag k="ssr:stedsnr" v="905277" />
	</node>
	<node id="-93631" lat="61.6335388885" lon="12.0335111106">
		<tag k="name" v="Solberg" />
		<tag k="place" v="farm" />
		<tag k="ssr:stedsnr" v="905184" />
	</node>
	<node id="-91582" lat="61.8448138846" lon="11.8484861145">
		<tag k="name" v="Nordre Gløtvola" />
		<tag k="place" v="farm" />
		<tag k="ssr:stedsnr" v="286662" />
	</node>
	<node id="-91578" lat="61.8872222188" lon="12.0413999952">
		<tag k="name" v="Fredheim" />
		<tag k="place" v="farm" />
		<tag k="ssr:stedsnr" v="283016" />
	</node>
	<node id="-93620" lat="62.1249999995" lon="11.7106055472">
		<tag k="alt_name" v="Buviken" />
		<tag k="name" v="Søndre Buvika" />
		<tag k="place" v="farm" />
		<tag k="ssr:stedsnr" v="902259" />
	</node>
	<node id="-93619" lat="62.1286638901" lon="11.7092444467">
		<tag k="alt_name" v="Buviken" />
		<tag k="name" v="Nordre Buvika" />
		<tag k="place" v="farm" />
		<tag k="ssr:stedsnr" v="902257" />
	</node>
	<node id="-93618" lat="61.8369416622" lon="11.7321138929">
		<tag k="fixme" v="consider tourism=alpine_hut or tourism=chalet" />
		<tag k="name" v="Sølenstua Motell &amp; Caravan" />
		<tag k="ssr:stedsnr" v="879626" />
		<tag k="tourism" v="wilderness_hut" />
	</node>
	<node id="-93615" lat="61.8329333314" lon="11.9507722229">
		<tag k="name" v="Risbakken" />
		<tag k="place" v="hamlet" />
		<tag k="ssr:stedsnr" v="873183" />
	</node>
	<node id="-93610" lat="62.137811114" lon="11.610227781">
		<tag k="name" v="Gloføklia" />
		<tag k="place" v="neighbourhood" />
		<tag k="ssr:stedsnr" v="870376" />
	</node>
	<node id="-93606" lat="61.8342499977" lon="11.7759833292">
		<tag k="name" v="Volleng" />
		<tag k="place" v="farm" />
		<tag k="ssr:stedsnr" v="861960" />
	</node>
	<node id="-93601" lat="61.9279083328" lon="12.1171361035">
		<tag k="historic" v="shieling" />
		<tag k="name" v="Brennoddsætra" />
		<tag k="place" v="locality" />
		<tag k="ssr:stedsnr" v="861868" />
	</node>
	<node id="-93599" lat="61.8117833453" lon="11.9222305533">
		<tag k="alt_name" v="Brennjota" />
		<tag k="name" v="Sæter" />
		<tag k="place" v="farm" />
		<tag k="ssr:stedsnr" v="861785" />
	</node>
	<node id="-93598" lat="61.8093305562" lon="11.9165305538">
		<tag k="name" v="Vang" />
		<tag k="place" v="farm" />
		<tag k="ssr:stedsnr" v="861783" />
	</node>
	<node id="-91717" lat="61.8346027795" lon="11.727541668">
		<tag k="fixme" v="consider tourism=alpine_hut or tourism=chalet" />
		<tag k="name" v="Femundsundet turisthytte" />
		<tag k="ssr:stedsnr" v="344046" />
		<tag k="tourism" v="wilderness_hut" />
	</node>
	<node id="-93576" lat="61.7533083347" lon="11.7099361033">
		<tag k="name" v="Enkerudkoia" />
		<tag k="place" v="isolated_dwelling" />
		<tag k="ssr:stedsnr" v="860930" />
	</node>
	<node id="-93571" lat="61.8796555566" lon="12.0263916709">
		<tag k="name" v="Hodalsplass" />
		<tag k="place" v="farm" />
		<tag k="ssr:stedsnr" v="860878" />
	</node>
	<node id="-93570" lat="61.8825777753" lon="12.0397194411">
		<tag k="name" v="Svenshaugen" />
		<tag k="place" v="farm" />
		<tag k="ssr:stedsnr" v="860861" />
	</node>
	<node id="-93568" lat="61.7234666643" lon="12.0457444459">
		<tag k="historic" v="shieling" />
		<tag k="name" v="Blakkstøtlandet" />
		<tag k="place" v="locality" />
		<tag k="ssr:stedsnr" v="860775" />
	</node>
	<node id="-93561" lat="61.6702944447" lon="12.0012583247">
		<tag k="alt_name" v="Øvre Kolbu" />
		<tag k="name" v="Kolbu" />
		<tag k="place" v="farm" />
		<tag k="ssr:stedsnr" v="860696" />
	</node>
	<node id="-93554" lat="62.222513886" lon="12.0138305555">
		<tag k="fixme" v="consider tourism=alpine_hut or tourism=chalet" />
		<tag k="name" v="Svukuriset" />
		<tag k="ssr:stedsnr" v="860379" />
		<tag k="tourism" v="wilderness_hut" />
	</node>
	<node id="-93553" lat="62.0430305545" lon="12.0688638932">
		<tag k="name" v="Småsjøvollen" />
		<tag k="place" v="farm" />
		<tag k="ssr:stedsnr" v="860357" />
	</node>
	<node id="-93551" lat="62.0687055567" lon="12.2087916712">
		<tag k="name" v="Kjerran" />
		<tag k="place" v="farm" />
		<tag k="ssr:stedsnr" v="860337" />
	</node>
	<node id="-93547" lat="62.1020888928" lon="12.0260611124">
		<tag k="historic" v="shieling" />
		<tag k="name" v="Djupsjøvollen" />
		<tag k="place" v="locality" />
		<tag k="ssr:stedsnr" v="860302" />
	</node>
	<node id="-93543" lat="61.7456111154" lon="11.7500333274">
		<tag k="name" v="Granberget" />
		<tag k="place" v="hamlet" />
		<tag k="ssr:stedsnr" v="859251" />
	</node>
	<node id="-93518" lat="62.0150722259" lon="12.1740999926">
		<tag k="historic" v="shieling" />
		<tag k="name" v="Oppåvollen" />
		<tag k="place" v="locality" />
		<tag k="ssr:stedsnr" v="845771" />
	</node>
	<node id="-93515" lat="61.9714694445" lon="11.9408888944">
		<tag k="name" v="Søndre Sorken" />
		<tag k="place" v="farm" />
		<tag k="ssr:stedsnr" v="845651" />
	</node>
	<node id="-93510" lat="62.0890111081" lon="11.6554222304">
		<tag k="name" v="Solstad" />
		<tag k="place" v="isolated_dwelling" />
		<tag k="ssr:stedsnr" v="845531" />
	</node>
	<node id="-93506" lat="61.8207361075" lon="11.9300750089">
		<tag k="name" v="Hovdbekkdalen hyttefelt" />
		<tag k="place" v="neighbourhood" />
		<tag k="ssr:stedsnr" v="845294" />
	</node>
	<node id="-93501" lat="61.7461222205" lon="11.751386109">
		<tag k="name" v="Vemund" />
		<tag k="place" v="farm" />
		<tag k="ssr:stedsnr" v="845191" />
	</node>
	<node id="-93496" lat="62.0922666675" lon="11.6523527746">
		<tag k="name" v="Berg" />
		<tag k="place" v="farm" />
		<tag k="ssr:stedsnr" v="845086" />
	</node>
	<node id="-93495" lat="62.0519333311" lon="11.6971749947">
		<tag k="alt_name" v="Søndre Sømåen" />
		<tag k="name" v="Søndre Sømåa" />
		<tag k="place" v="farm" />
		<tag k="ssr:stedsnr" v="845018" />
	</node>
	<node id="-93485" lat="62.1766555578" lon="11.8558333329">
		<tag k="name" v="Pålsbu" />
		<tag k="place" v="isolated_dwelling" />
		<tag k="ssr:stedsnr" v="843200" />
	</node>
	<node id="-93479" lat="61.7907083294" lon="11.9584083329">
		<tag k="name" v="Engerdal Østfjell" />
		<tag k="place" v="neighbourhood" />
		<tag k="ssr:stedsnr" v="828522" />
	</node>
	<node id="-93476" lat="61.8981194426" lon="12.0062027756">
		<tag k="name" v="Drevsjø camping" />
		<tag k="ssr:stedsnr" v="828005" />
		<tag k="tourism" v="camp_site" />
	</node>
	<node id="-93475" lat="62.166958331" lon="11.942688884">
		<tag k="fixme" v="consider place=hamlet" />
		<tag k="loc_name:sma" v="Svahke" />
		<tag k="name" v="Elgå" />
		<tag k="name:no" v="Elgå" />
		<tag k="place" v="village" />
		<tag k="ssr:stedsnr" v="814189" />
	</node>
	<node id="-93471" lat="61.7487027792" lon="11.7585250028">
		<tag k="historic" v="shieling" />
		<tag k="name" v="Bergesætra" />
		<tag k="place" v="locality" />
		<tag k="ssr:stedsnr" v="809324" />
	</node>
	<node id="-93467" lat="61.8179722267" lon="11.7075222165">
		<tag k="name" v="Myrstad" />
		<tag k="place" v="farm" />
		<tag k="ssr:stedsnr" v="800954" />
	</node>
	<node id="-93458" lat="61.8982055579" lon="12.023616667">
		<tag k="name" v="Solbakken" />
		<tag k="place" v="farm" />
		<tag k="ssr:stedsnr" v="800828" />
	</node>
	<node id="-93455" lat="61.839508331" lon="11.9507972204">
		<tag k="name" v="Kjølvang" />
		<tag k="place" v="farm" />
		<tag k="ssr:stedsnr" v="800799" />
	</node>
	<node id="-93454" lat="61.8368611105" lon="11.8632861096">
		<tag k="name" v="Kjølland" />
		<tag k="place" v="isolated_dwelling" />
		<tag k="ssr:stedsnr" v="800776" />
	</node>
	<node id="-93450" lat="62.127275003" lon="11.7026083366">
		<tag k="name" v="Buvika" />
		<tag k="place" v="hamlet" />
		<tag k="ssr:stedsnr" v="800381" />
	</node>
	<node id="-93447" lat="62.0428222244" lon="12.06363611">
		<tag k="name" v="Myran" />
		<tag k="place" v="farm" />
		<tag k="ssr:stedsnr" v="800298" />
	</node>
	<node id="-93445" lat="61.9306694462" lon="11.7692916723">
		<tag k="historic" v="shieling" />
		<tag k="name" v="Sømåsætra" />
		<tag k="place" v="locality" />
		<tag k="ssr:stedsnr" v="800102" />
	</node>
	<node id="-93444" lat="61.9209277792" lon="11.7633166681">
		<tag k="fixme" v="multiple name tags, choose one and add the other to alt_name" />
		<tag k="name" v="Galtsætra;Isterheim" />
		<tag k="place" v="farm" />
		<tag k="ssr:stedsnr" v="800095" />
	</node>
	<node id="-93443" lat="61.7980277766" lon="11.6864277753">
		<tag k="name" v="Øverli" />
		<tag k="place" v="farm" />
		<tag k="ssr:stedsnr" v="799950" />
	</node>
	<node id="-93440" lat="61.8924083294" lon="12.0291194499">
		<tag k="name" v="Myre" />
		<tag k="place" v="farm" />
		<tag k="ssr:stedsnr" v="799873" />
	</node>
	<node id="-93439" lat="61.8747694453" lon="12.1726472231">
		<tag k="name" v="Strømmen" />
		<tag k="place" v="farm" />
		<tag k="ssr:stedsnr" v="799870" />
	</node>
	<node id="-93433" lat="61.7505388851" lon="11.9668888932">
		<tag k="name" v="Granrud" />
		<tag k="place" v="farm" />
		<tag k="ssr:stedsnr" v="799757" />
	</node>
	<node id="-93432" lat="61.6848027757" lon="11.9969138944">
		<tag k="name" v="Nordstrand" />
		<tag k="place" v="farm" />
		<tag k="ssr:stedsnr" v="799753" />
	</node>
	<node id="-93429" lat="61.616875001" lon="12.0358166644">
		<tag k="name" v="Strandsjø" />
		<tag k="place" v="farm" />
		<tag k="ssr:stedsnr" v="799704" />
	</node>
	<node id="-93423" lat="61.6547833344" lon="11.8268694488">
		<tag k="alt_name" v="Husfloen, midtre;Husfloen" />
		<tag k="name" v="Midtre Husfloen" />
		<tag k="place" v="farm" />
		<tag k="ssr:stedsnr" v="799375" />
	</node>
	<node id="-93422" lat="61.6442638875" lon="11.7627583366">
		<tag k="alt_name" v="Skjerbekkdalssætra, nedre;Skjerbekkdalssætra" />
		<tag k="historic" v="shieling" />
		<tag k="name" v="Nedre Skjerbekkdalssætra" />
		<tag k="place" v="locality" />
		<tag k="ssr:stedsnr" v="799371" />
	</node>
	<node id="-93420" lat="61.6765527788" lon="11.7733916672">
		<tag k="name" v="Kjellstad" />
		<tag k="place" v="farm" />
		<tag k="ssr:stedsnr" v="799357" />
	</node>
	<node id="-93418" lat="61.7320055533" lon="11.8080722231">
		<tag k="historic" v="shieling" />
		<tag k="name" v="Ytrevollen" />
		<tag k="place" v="locality" />
		<tag k="ssr:stedsnr" v="799298" />
	</node>
	<node id="-93416" lat="62.1098499955" lon="11.9027083387">
		<tag k="historic" v="shieling" />
		<tag k="name" v="Hansbekkvollen" />
		<tag k="place" v="locality" />
		<tag k="ssr:stedsnr" v="799267" />
	</node>
	<node id="-93403" lat="61.6393611069" lon="12.029494445">
		<tag k="name" v="Nes" />
		<tag k="place" v="farm" />
		<tag k="ssr:stedsnr" v="787265" />
	</node>
	<node id="-93397" lat="61.8268027743" lon="11.7195194383">
		<tag k="name" v="Tune" />
		<tag k="place" v="isolated_dwelling" />
		<tag k="ssr:stedsnr" v="786391" />
	</node>
	<node id="-93396" lat="61.8522944457" lon="11.9174194367">
		<tag k="alt_name" v="Vordslåttan" />
		<tag k="name" v="Volslåttan" />
		<tag k="place" v="locality" />
		<tag k="ssr:stedsnr" v="785653" />
	</node>
	<node id="-93394" lat="62.1389583333" lon="11.8937527851">
		<tag k="name" v="Brenthaugkoia" />
		<tag k="place" v="isolated_dwelling" />
		<tag k="ssr:stedsnr" v="784929" />
	</node>
	<node id="-93381" lat="61.67652222" lon="12.0048333324">
		<tag k="name" v="Jons" />
		<tag k="place" v="farm" />
		<tag k="ssr:stedsnr" v="784694" />
	</node>
	<node id="-93380" lat="61.9274472196" lon="11.9516555572">
		<tag k="name" v="Brattmælen" />
		<tag k="place" v="farm" />
		<tag k="ssr:stedsnr" v="784645" />
	</node>
	<node id="-93376" lat="61.923923074" lon="11.9171945751">
		<tag k="alt_name" v="Femundsenden mellom" />
		<tag k="name" v="Midtre Femundsenden" />
		<tag k="place" v="farm" />
		<tag k="ssr:stedsnr" v="784578" />
	</node>
	<node id="-93727" lat="62.0838138925" lon="11.6831666577">
		<tag k="name" v="Haugen" />
		<tag k="place" v="farm" />
		<tag k="ssr:stedsnr" v="921448" />
	</node>
	<node id="-93364" lat="61.6173583329" lon="12.035191671">
		<tag k="name" v="Vårtun" />
		<tag k="place" v="farm" />
		<tag k="ssr:stedsnr" v="783178" />
	</node>
	<node id="-93355" lat="61.893649998" lon="12.0212638827">
		<tag k="name" v="Skauset" />
		<tag k="place" v="farm" />
		<tag k="ssr:stedsnr" v="768029" />
	</node>
	<node id="-93354" lat="61.8938277753" lon="12.033525">
		<tag k="name" v="Haugan" />
		<tag k="place" v="farm" />
		<tag k="ssr:stedsnr" v="768028" />
	</node>
	<node id="-93352" lat="61.845225003" lon="12.0160444381">
		<tag k="alt_name" v="Kvisla" />
		<tag k="name" v="Vestre Kvilten" />
		<tag k="place" v="farm" />
		<tag k="ssr:stedsnr" v="754241" />
	</node>
	<node id="-93351" lat="61.8755249977" lon="12.1580166624">
		<tag k="name" v="Aspnes" />
		<tag k="old_name" v="Nordre Lillebo" />
		<tag k="place" v="farm" />
		<tag k="ssr:stedsnr" v="754239" />
	</node>
	<node id="-93345" lat="61.8349305524" lon="11.7468166639">
		<tag k="name" v="Strand" />
		<tag k="place" v="farm" />
		<tag k="ssr:stedsnr" v="739946" />
	</node>
	<node id="-93341" lat="61.8527749987" lon="12.0243444422">
		<tag k="name" v="Rya" />
		<tag k="place" v="farm" />
		<tag k="ssr:stedsnr" v="739821" />
	</node>
	<node id="-93339" lat="61.8315333377" lon="11.9461166673">
		<tag k="name" v="Sørhagen" />
		<tag k="place" v="farm" />
		<tag k="ssr:stedsnr" v="739810" />
	</node>
	<node id="-93338" lat="61.8462361075" lon="12.1180972218">
		<tag k="alt_name" v="Bjønnåssætra" />
		<tag k="historic" v="shieling" />
		<tag k="name" v="Bjørnåssætra" />
		<tag k="place" v="locality" />
		<tag k="ssr:stedsnr" v="739805" />
	</node>
	<node id="-93337" lat="61.7993" lon="11.9226777713">
		<tag k="name" v="Solli" />
		<tag k="place" v="farm" />
		<tag k="ssr:stedsnr" v="739800" />
	</node>
	<node id="-93317" lat="62.0423555583" lon="12.0650999908">
		<tag k="name" v="Granum" />
		<tag k="place" v="farm" />
		<tag k="ssr:stedsnr" v="739284" />
	</node>
	<node id="-93315" lat="62.0672694446" lon="12.1149722233">
		<tag k="name" v="Åsen" />
		<tag k="place" v="farm" />
		<tag k="ssr:stedsnr" v="739275" />
	</node>
	<node id="-93311" lat="62.1289166662" lon="11.99542778">
		<tag k="name" v="Dalset" />
		<tag k="place" v="farm" />
		<tag k="ssr:stedsnr" v="739251" />
	</node>
	<node id="-93305" lat="61.8765472211" lon="12.0246749993">
		<tag k="name" v="Hogstad" />
		<tag k="ssr:stedsnr" v="738878" />
		<tag k="tourism" v="camp_site" />
	</node>
	<node id="-93304" lat="61.8750111151" lon="12.1622055539">
		<tag k="fixme" v="consider place=hamlet" />
		<tag k="name" v="Lillebo" />
		<tag k="old_name" v="Veslbu;Litlbu" />
		<tag k="place" v="village" />
		<tag k="ssr:stedsnr" v="738868" />
	</node>
	<node id="-93303" lat="61.8746138907" lon="12.1602805642">
		<tag k="alt_name" v="Birkelund" />
		<tag k="name" v="Bjørkelund" />
		<tag k="place" v="farm" />
		<tag k="ssr:stedsnr" v="738866" />
	</node>
	<node id="-93301" lat="61.7659999983" lon="11.9477472191">
		<tag k="name" v="Brenna" />
		<tag k="place" v="farm" />
		<tag k="ssr:stedsnr" v="738773" />
	</node>
	<node id="-93295" lat="61.7464499964" lon="12.1399805619">
		<tag k="historic" v="shieling" />
		<tag k="name" v="Nysætra" />
		<tag k="place" v="locality" />
		<tag k="ssr:stedsnr" v="738700" />
	</node>
	<node id="-93294" lat="61.7394000036" lon="11.9747583373">
		<tag k="name" v="Østvang" />
		<tag k="place" v="farm" />
		<tag k="ssr:stedsnr" v="738701" />
	</node>
	<node id="-93287" lat="61.6829972194" lon="11.7709249956">
		<tag k="alt_name" v="Sørlie" />
		<tag k="name" v="Sørli" />
		<tag k="place" v="farm" />
		<tag k="ssr:stedsnr" v="738356" />
	</node>
	<node id="-93285" lat="62.0835305591" lon="11.8823027693">
		<tag k="name" v="Storbekken" />
		<tag k="place" v="farm" />
		<tag k="ssr:stedsnr" v="738291" />
	</node>
	<node id="-93279" lat="61.7459138882" lon="11.7506666649">
		<tag k="name" v="Veund" />
		<tag k="place" v="farm" />
		<tag k="ssr:stedsnr" v="738260" />
	</node>
	<node id="-93278" lat="62.0507388846" lon="11.694755562">
		<tag k="name" v="Rønningen" />
		<tag k="place" v="farm" />
		<tag k="ssr:stedsnr" v="738416" />
	</node>
	<node id="-93276" lat="61.6384472208" lon="12.0289138815">
		<tag k="name" v="Hyller" />
		<tag k="place" v="farm" />
		<tag k="ssr:stedsnr" v="726281" />
	</node>
	<node id="-93273" lat="61.8821055549" lon="12.0334666588">
		<tag k="name" v="Skrivergardsjordet" />
		<tag k="place" v="quarter" />
		<tag k="ssr:stedsnr" v="726016" />
	</node>
	<node id="-93259" lat="61.6771416645" lon="12.0052722212">
		<tag k="name" v="Lillestu" />
		<tag k="place" v="farm" />
		<tag k="ssr:stedsnr" v="723664" />
	</node>
	<node id="-93257" lat="61.9234844435" lon="11.9148500401">
		<tag k="name" v="Vestre Femundsenden" />
		<tag k="place" v="farm" />
		<tag k="ssr:stedsnr" v="723548" />
	</node>
	<node id="-93233" lat="61.6113638892" lon="12.0467722154">
		<tag k="name" v="Rødalen" />
		<tag k="place" v="farm" />
		<tag k="ssr:stedsnr" v="721608" />
	</node>
	<node id="-93221" lat="61.7577750034" lon="11.9596611074">
		<tag k="building" v="commercial" />
		<tag k="name" v="Enger" />
		<tag k="ssr:stedsnr" v="705048" />
	</node>
	<node id="-93216" lat="61.7448444437" lon="11.7515166728">
		<tag k="name" v="Granbergsætra" />
		<tag k="place" v="farm" />
		<tag k="ssr:stedsnr" v="688324" />
	</node>
	<node id="-93214" lat="62.2591694436" lon="12.18638055">
		<tag k="historic" v="shieling" />
		<tag k="name" v="Grøtådalsætra" />
		<tag k="place" v="locality" />
		<tag k="ssr:stedsnr" v="679640" />
	</node>
	<node id="-91653" lat="61.704405555" lon="11.9807138882">
		<tag k="name" v="Blakkneset" />
		<tag k="place" v="farm" />
		<tag k="ssr:stedsnr" v="313744" />
	</node>
	<node id="-93208" lat="61.8843499962" lon="11.7814111111">
		<tag k="name" v="Åsen" />
		<tag k="place" v="farm" />
		<tag k="ssr:stedsnr" v="678959" />
	</node>
	<node id="-93207" lat="61.8433722237" lon="11.840330563">
		<tag k="name" v="Trøan" />
		<tag k="place" v="farm" />
		<tag k="ssr:stedsnr" v="678946" />
	</node>
	<node id="-93201" lat="61.9651777784" lon="11.8965999978">
		<tag k="historic" v="shieling" />
		<tag k="name" v="Furuoddsætra" />
		<tag k="place" v="locality" />
		<tag k="ssr:stedsnr" v="678881" />
	</node>
	<node id="-93194" lat="61.8833555553" lon="12.0252555647">
		<tag k="alt_name" v="Vestre Bakken" />
		<tag k="name" v="Bakken" />
		<tag k="place" v="farm" />
		<tag k="ssr:stedsnr" v="678828" />
	</node>
	<node id="-93191" lat="61.8834833332" lon="12.1527250031">
		<tag k="name" v="Vangen" />
		<tag k="place" v="farm" />
		<tag k="ssr:stedsnr" v="678817" />
	</node>
	<node id="-93189" lat="61.8431944463" lon="11.9852333327">
		<tag k="name" v="Hovdeng" />
		<tag k="place" v="farm" />
		<tag k="ssr:stedsnr" v="678807" />
	</node>
	<node id="-93185" lat="61.8000111117" lon="12.0290083309">
		<tag k="alt_name" v="Hovderoa;Hovdrosætra" />
		<tag k="historic" v="shieling" />
		<tag k="name" v="Hovdroa" />
		<tag k="place" v="locality" />
		<tag k="ssr:stedsnr" v="678757" />
	</node>
	<node id="-93181" lat="61.7590388893" lon="11.9593666711">
		<tag k="name" v="Engerdal" />
		<tag k="place" v="village" />
		<tag k="ssr:stedsnr" v="678718" />
	</node>
	<node id="-91689" lat="61.8803194435" lon="12.0581472234">
		<tag k="alt_name" v="Søndre Brennodden" />
		<tag k="name" v="Brennodden" />
		<tag k="place" v="farm" />
		<tag k="ssr:stedsnr" v="314832" />
	</node>
	<node id="-93176" lat="62.2319805595" lon="11.8741277697">
		<tag k="name" v="Jonasvollen" />
		<tag k="place" v="farm" />
		<tag k="ssr:stedsnr" v="678341" />
	</node>
	<node id="-93175" lat="62.0532750025" lon="11.9912666732">
		<tag k="name" v="Kjølvollen" />
		<tag k="place" v="locality" />
		<tag k="ssr:stedsnr" v="678328" />
	</node>
	<node id="-93165" lat="61.8488555561" lon="12.022972222">
		<tag k="alt_name" v="Søndre Ryen" />
		<tag k="name" v="Rya" />
		<tag k="place" v="farm" />
		<tag k="ssr:stedsnr" v="678134" />
	</node>
	<node id="-93159" lat="61.7194833291" lon="11.9618749945">
		<tag k="name" v="Messelt" />
		<tag k="place" v="farm" />
		<tag k="ssr:stedsnr" v="677745" />
	</node>
	<node id="-93152" lat="61.7328666705" lon="11.9740888816">
		<tag k="name" v="Langfloen" />
		<tag k="place" v="farm" />
		<tag k="ssr:stedsnr" v="677680" />
	</node>
	<node id="-93150" lat="61.606494446" lon="12.0400861075">
		<tag k="alt_name" v="Tunnvik" />
		<tag k="name" v="Tunvik" />
		<tag k="place" v="farm" />
		<tag k="ssr:stedsnr" v="677661" />
	</node>
	<node id="-93148" lat="62.1033416677" lon="11.6027944356">
		<tag k="historic" v="shieling" />
		<tag k="name" v="Rosætra" />
		<tag k="place" v="locality" />
		<tag k="ssr:stedsnr" v="678427" />
	</node>
	<node id="-93145" lat="62.1418916679" lon="11.8150638903">
		<tag k="name" v="Sjøli" />
		<tag k="place" v="farm" />
		<tag k="ssr:stedsnr" v="678400" />
	</node>
	<node id="-93141" lat="62.1686500045" lon="12.1914249996">
		<tag k="name" v="Øyan" />
		<tag k="place" v="isolated_dwelling" />
		<tag k="ssr:stedsnr" v="678373" />
	</node>
	<node id="-93137" lat="61.6955888932" lon="11.7365166628">
		<tag k="name" v="Snertmoen" />
		<tag k="place" v="farm" />
		<tag k="ssr:stedsnr" v="677327" />
	</node>
	<node id="-93131" lat="61.6474361082" lon="12.0280499952">
		<tag k="name" v="Skogheim" />
		<tag k="place" v="farm" />
		<tag k="ssr:stedsnr" v="677631" />
	</node>
	<node id="-93130" lat="61.6414222245" lon="12.0173361025">
		<tag k="alt_name" v="Ånes" />
		<tag k="name" v="Åneset" />
		<tag k="place" v="farm" />
		<tag k="ssr:stedsnr" v="677630" />
	</node>
	<node id="-93114" lat="62.1660305514" lon="11.9424083267">
		<tag k="amenity" v="school" />
		<tag k="name" v="Elgå" />
		<tag k="ssr:stedsnr" v="662910" />
	</node>
	<node id="-93102" lat="61.6755444448" lon="12.0060055553">
		<tag k="name" v="Dersyd" />
		<tag k="place" v="farm" />
		<tag k="ssr:stedsnr" v="662696" />
	</node>
	<node id="-93100" lat="61.6779222209" lon="12.0045333277">
		<tag k="name" v="Bekk" />
		<tag k="place" v="farm" />
		<tag k="ssr:stedsnr" v="662691" />
	</node>
	<node id="-93098" lat="61.8770416635" lon="12.1437833336">
		<tag k="name" v="Solheim" />
		<tag k="place" v="farm" />
		<tag k="ssr:stedsnr" v="662615" />
	</node>
	<node id="-93088" lat="61.8115638845" lon="11.9144833293">
		<tag k="historic" v="shieling" />
		<tag k="name" v="Nystedsætra" />
		<tag k="place" v="locality" />
		<tag k="ssr:stedsnr" v="662272" />
	</node>
	<node id="-93087" lat="61.8147888847" lon="11.9186999983">
		<tag k="historic" v="shieling" />
		<tag k="name" v="Søgårdsætra" />
		<tag k="place" v="locality" />
		<tag k="ssr:stedsnr" v="662269" />
	</node>
	<node id="-93083" lat="61.6335388885" lon="12.0335111106">
		<tag k="name" v="Eggen" />
		<tag k="place" v="farm" />
		<tag k="ssr:stedsnr" v="662177" />
	</node>
	<node id="-93072" lat="62.0852249991" lon="12.0680861115">
		<tag k="historic" v="shieling" />
		<tag k="name" v="Jørnvollen" />
		<tag k="place" v="locality" />
		<tag k="ssr:stedsnr" v="662111" />
	</node>
	<node id="-93065" lat="61.6700999981" lon="12.0042055634">
		<tag k="fixme" v="multiple name tags, choose one and add the other to alt_name" />
		<tag k="name" v="Nedre Kolbu;Vestad" />
		<tag k="place" v="farm" />
		<tag k="ssr:stedsnr" v="661640" />
	</node>
	<node id="-93063" lat="61.8963944415" lon="12.0381194375">
		<tag k="name" v="Moafeltet" />
		<tag k="place" v="quarter" />
		<tag k="ssr:stedsnr" v="646009" />
	</node>
	<node id="-93062" lat="61.6683416637" lon="11.7843194469">
		<tag k="name" v="Nymoen" />
		<tag k="place" v="hamlet" />
		<tag k="ssr:stedsnr" v="637143" />
	</node>
	<node id="-93060" lat="61.8121972268" lon="12.0447749981">
		<tag k="name" v="Bjøråskroken" />
		<tag k="place" v="locality" />
		<tag k="ssr:stedsnr" v="631146" />
	</node>
	<node id="-93058" lat="61.838602778" lon="11.8654500071">
		<tag k="name" v="Volbrenna" />
		<tag k="old_name" v="Vordbrenna" />
		<tag k="place" v="neighbourhood" />
		<tag k="ssr:stedsnr" v="630170" />
	</node>
	<node id="-93046" lat="61.8382138905" lon="11.7645222201">
		<tag k="historic" v="shieling" />
		<tag k="name" v="Galtsætra" />
		<tag k="place" v="locality" />
		<tag k="ssr:stedsnr" v="617959" />
	</node>
	<node id="-93045" lat="61.8302944411" lon="11.7206972199">
		<tag k="alt_name" v="Fjellheimen" />
		<tag k="amenity" v="school" />
		<tag k="name" v="Fjellheimen Leirskole" />
		<tag k="ssr:stedsnr" v="617951" />
	</node>
	<node id="-93044" lat="61.8030250005" lon="11.697077772">
		<tag k="name" v="Lyngås" />
		<tag k="place" v="farm" />
		<tag k="ssr:stedsnr" v="617939" />
	</node>
	<node id="-93036" lat="61.8763888915" lon="12.1375083375">
		<tag k="name" v="Nyhus" />
		<tag k="place" v="farm" />
		<tag k="ssr:stedsnr" v="617849" />
	</node>
	<node id="-93034" lat="61.8707916709" lon="12.0189138956">
		<tag k="name" v="Vesterheim" />
		<tag k="place" v="farm" />
		<tag k="ssr:stedsnr" v="617840" />
	</node>
	<node id="-93033" lat="61.8427166671" lon="11.8429305572">
		<tag k="name" v="Rydland" />
		<tag k="place" v="farm" />
		<tag k="ssr:stedsnr" v="617836" />
	</node>
	<node id="-93020" lat="61.7551166629" lon="11.9636888801">
		<tag k="name" v="Nesheim" />
		<tag k="place" v="farm" />
		<tag k="ssr:stedsnr" v="617744" />
	</node>
	<node id="-91620" lat="61.694419442" lon="11.9837972136">
		<tag k="name" v="Nordeng" />
		<tag k="place" v="farm" />
		<tag k="ssr:stedsnr" v="299681" />
	</node>
	<node id="-93014" lat="62.1478499983" lon="11.6753944531">
		<tag k="historic" v="shieling" />
		<tag k="name" v="Tjukkrøstvollen" />
		<tag k="place" v="locality" />
		<tag k="ssr:stedsnr" v="617418" />
	</node>
	<node id="-93013" lat="62.1596333325" lon="11.6758583258">
		<tag k="historic" v="shieling" />
		<tag k="name" v="Litlåvollen" />
		<tag k="place" v="locality" />
		<tag k="ssr:stedsnr" v="617411" />
	</node>
	<node id="-93002" lat="62.0831500039" lon="12.1226749999">
		<tag k="name" v="Gutu" />
		<tag k="place" v="isolated_dwelling" />
		<tag k="ssr:stedsnr" v="617304" />
	</node>
	<node id="-92988" lat="61.6211916688" lon="12.0337555496">
		<tag k="name" v="Sørås" />
		<tag k="place" v="farm" />
		<tag k="ssr:stedsnr" v="616669" />
	</node>
	<node id="-92987" lat="61.6321777787" lon="12.0304888887">
		<tag k="name" v="Nybø" />
		<tag k="place" v="farm" />
		<tag k="ssr:stedsnr" v="616667" />
	</node>
	<node id="-92973" lat="61.8135527817" lon="11.7138722203">
		<tag k="name" v="Femundsundet" />
		<tag k="place" v="farm" />
		<tag k="ssr:stedsnr" v="603356" />
	</node>
	<node id="-92969" lat="61.7418638866" lon="11.9713583365">
		<tag k="name" v="Omang" />
		<tag k="place" v="farm" />
		<tag k="ssr:stedsnr" v="602699" />
	</node>
	<node id="-92964" lat="61.7457611123" lon="11.7537222249">
		<tag k="name" v="Skarpsno" />
		<tag k="place" v="farm" />
		<tag k="ssr:stedsnr" v="602177" />
	</node>
	<node id="-92961" lat="62.1465361096" lon="11.8965111204">
		<tag k="name" v="Tjønnoddkoia" />
		<tag k="place" v="isolated_dwelling" />
		<tag k="ssr:stedsnr" v="601904" />
	</node>
	<node id="-92958" lat="61.8055000007" lon="11.7088222203">
		<tag k="name" v="Flathagen" />
		<tag k="place" v="farm" />
		<tag k="ssr:stedsnr" v="601823" />
	</node>
	<node id="-92947" lat="61.6748472196" lon="11.998922221">
		<tag k="name" v="Søndre Kveen" />
		<tag k="place" v="farm" />
		<tag k="ssr:stedsnr" v="601669" />
	</node>
	<node id="-92946" lat="61.6988194431" lon="11.9827083337">
		<tag k="historic" v="shieling" />
		<tag k="name" v="Gammelsætra" />
		<tag k="place" v="locality" />
		<tag k="ssr:stedsnr" v="601658" />
	</node>
	<node id="-92909" lat="61.7482833361" lon="11.974383328">
		<tag k="name" v="Gammeljordet" />
		<tag k="place" v="farm" />
		<tag k="ssr:stedsnr" v="585731" />
	</node>
	<node id="-92906" lat="61.8828916694" lon="12.027950007">
		<tag k="amenity" v="nursing_home" />
		<tag k="name" v="Engerdal helsesenter" />
		<tag k="ssr:stedsnr" v="585033" />
	</node>
	<node id="-92905" lat="61.750422219" lon="11.9673888935">
		<tag k="name" v="Foss" />
		<tag k="place" v="farm" />
		<tag k="ssr:stedsnr" v="583048" />
	</node>
	<node id="-92904" lat="61.8468083342" lon="12.0154722173">
		<tag k="alt_name" v="Kvisla" />
		<tag k="fixme" v="consider place=hamlet" />
		<tag k="name" v="Kvilten" />
		<tag k="place" v="village" />
		<tag k="ssr:stedsnr" v="570133" />
	</node>
	<node id="-92897" lat="61.8314416699" lon="11.7223972303">
		<tag k="name" v="Ulvåa" />
		<tag k="place" v="isolated_dwelling" />
		<tag k="ssr:stedsnr" v="557945" />
	</node>
	<node id="-92890" lat="61.7820694468" lon="11.927283333">
		<tag k="name" v="Eng" />
		<tag k="place" v="farm" />
		<tag k="ssr:stedsnr" v="557754" />
	</node>
	<node id="-92889" lat="61.7873000012" lon="11.9246499996">
		<tag k="name" v="Sørøya" />
		<tag k="place" v="farm" />
		<tag k="ssr:stedsnr" v="557751" />
	</node>
	<node id="-92888" lat="61.7701833339" lon="11.9430833416">
		<tag k="name" v="Søgård" />
		<tag k="place" v="farm" />
		<tag k="ssr:stedsnr" v="557728" />
	</node>
	<node id="-92884" lat="62.2770361101" lon="11.9495027853">
		<tag k="name" v="Sanden" />
		<tag k="place" v="locality" />
		<tag k="ssr:stedsnr" v="557616" />
	</node>
	<node id="-92869" lat="61.9688249971" lon="12.0852805635">
		<tag k="historic" v="shieling" />
		<tag k="name" v="Gunnarsjøsætra" />
		<tag k="place" v="locality" />
		<tag k="ssr:stedsnr" v="556888" />
	</node>
	<node id="-92864" lat="61.8827055539" lon="11.9400527827">
		<tag k="name" v="Sørjota" />
		<tag k="place" v="farm" />
		<tag k="ssr:stedsnr" v="556859" />
	</node>
	<node id="-92863" lat="61.8734750042" lon="12.1769861026">
		<tag k="name" v="Heimstad" />
		<tag k="place" v="farm" />
		<tag k="ssr:stedsnr" v="556851" />
	</node>
	<node id="-92860" lat="61.8411694467" lon="11.948975004">
		<tag k="name" v="Nordli" />
		<tag k="place" v="farm" />
		<tag k="ssr:stedsnr" v="556836" />
	</node>
	<node id="-92859" lat="61.8407249967" lon="12.0171499904">
		<tag k="name" v="Sørli" />
		<tag k="place" v="farm" />
		<tag k="ssr:stedsnr" v="556830" />
	</node>
	<node id="-92858" lat="61.8415388848" lon="12.0148166662">
		<tag k="name" v="Røsten" />
		<tag k="place" v="farm" />
		<tag k="ssr:stedsnr" v="556831" />
	</node>
	<node id="-92854" lat="61.81016667" lon="11.9147500084">
		<tag k="name" v="Vestad" />
		<tag k="place" v="farm" />
		<tag k="ssr:stedsnr" v="556799" />
	</node>
	<node id="-92845" lat="61.7565194436" lon="11.9645444402">
		<tag k="name" v="Nysted" />
		<tag k="place" v="farm" />
		<tag k="ssr:stedsnr" v="556740" />
	</node>
	<node id="-92843" lat="61.751433331" lon="12.137866667">
		<tag k="historic" v="shieling" />
		<tag k="name" v="Nysætra" />
		<tag k="place" v="locality" />
		<tag k="ssr:stedsnr" v="556736" />
	</node>
	<node id="-92842" lat="61.6801805563" lon="12.0406999991">
		<tag k="historic" v="shieling" />
		<tag k="name" v="Lisætra" />
		<tag k="place" v="locality" />
		<tag k="ssr:stedsnr" v="556731" />
	</node>
	<node id="-92826" lat="61.9347861107" lon="11.8292611147">
		<tag k="name" v="Gløtberget" />
		<tag k="place" v="farm" />
		<tag k="ssr:stedsnr" v="556142" />
	</node>
	<node id="-92821" lat="61.9959305526" lon="11.7290305544">
		<tag k="alt_name" v="Haugsetvollen" />
		<tag k="name" v="Hogsetvollen" />
		<tag k="place" v="farm" />
		<tag k="ssr:stedsnr" v="556095" />
	</node>
	<node id="-92811" lat="61.6405972229" lon="12.0288777787">
		<tag k="name" v="Langtallneset" />
		<tag k="place" v="farm" />
		<tag k="ssr:stedsnr" v="544255" />
	</node>
	<node id="-92808" lat="61.8803805554" lon="12.0610083408">
		<tag k="name" v="Østre Brennodden" />
		<tag k="place" v="farm" />
		<tag k="ssr:stedsnr" v="544021" />
	</node>
	<node id="-92807" lat="61.8842138919" lon="12.0336194532">
		<tag k="name" v="Nygård" />
		<tag k="place" v="farm" />
		<tag k="ssr:stedsnr" v="544018" />
	</node>
	<node id="-92802" lat="61.7402638931" lon="11.812619449">
		<tag k="name" v="Veundåsætrene" />
		<tag k="place" v="hamlet" />
		<tag k="ssr:stedsnr" v="541999" />
	</node>
	<node id="-92787" lat="61.6749249999" lon="12.0080805514">
		<tag k="name" v="Hagen" />
		<tag k="place" v="farm" />
		<tag k="ssr:stedsnr" v="541690" />
	</node>
	<node id="-92786" lat="61.6768694446" lon="12.0029194387">
		<tag k="name" v="Vestues" />
		<tag k="place" v="farm" />
		<tag k="ssr:stedsnr" v="541689" />
	</node>
	<node id="-92769" lat="61.636030557" lon="12.0338500083">
		<tag k="name" v="Mesters" />
		<tag k="place" v="farm" />
		<tag k="ssr:stedsnr" v="541182" />
	</node>
	<node id="-92760" lat="61.8849944445" lon="11.7683416703">
		<tag k="name" v="Enget" />
		<tag k="place" v="farm" />
		<tag k="ssr:stedsnr" v="526115" />
	</node>
	<node id="-92756" lat="61.8859833293" lon="12.0328805597">
		<tag k="name" v="Skogly" />
		<tag k="place" v="farm" />
		<tag k="ssr:stedsnr" v="525025" />
	</node>
	<node id="-92755" lat="61.7559555543" lon="11.9611555554">
		<tag k="name" v="Frydenlund" />
		<tag k="place" v="farm" />
		<tag k="ssr:stedsnr" v="523058" />
	</node>
	<node id="-92754" lat="61.8454527782" lon="12.0178055493">
		<tag k="name" v="Østre Kvilten" />
		<tag k="place" v="farm" />
		<tag k="ssr:stedsnr" v="511205" />
	</node>
	<node id="-92738" lat="61.8464611073" lon="11.8220999952">
		<tag k="name" v="Bekkevoll" />
		<tag k="place" v="farm" />
		<tag k="ssr:stedsnr" v="496960" />
	</node>
	<node id="-92732" lat="61.924315717" lon="11.9160940687">
		<tag k="fixme" v="consider place=hamlet" />
		<tag k="name" v="Femundsenden" />
		<tag k="place" v="farm" />
		<tag k="ssr:stedsnr" v="496853" />
	</node>
	<node id="-92728" lat="61.8836777795" lon="12.0602138842">
		<tag k="name" v="Nordset" />
		<tag k="place" v="farm" />
		<tag k="ssr:stedsnr" v="496828" />
	</node>
	<node id="-92727" lat="61.8211083312" lon="11.9168694502">
		<tag k="name" v="Vangli" />
		<tag k="place" v="farm" />
		<tag k="ssr:stedsnr" v="496812" />
	</node>
	<node id="-92726" lat="61.7950222222" lon="11.9184111068">
		<tag k="name" v="Midtøya" />
		<tag k="place" v="farm" />
		<tag k="ssr:stedsnr" v="496801" />
	</node>
	<node id="-92724" lat="61.7897000038" lon="11.9222555522">
		<tag k="name" v="Graneng" />
		<tag k="place" v="farm" />
		<tag k="ssr:stedsnr" v="496782" />
	</node>
	<node id="-92722" lat="61.7579583349" lon="11.9587305615">
		<tag k="name" v="Slettmoen" />
		<tag k="place" v="farm" />
		<tag k="ssr:stedsnr" v="496766" />
	</node>
	<node id="-92720" lat="61.7736027812" lon="12.1277305609">
		<tag k="historic" v="shieling" />
		<tag k="name" v="Lortsætra" />
		<tag k="place" v="locality" />
		<tag k="ssr:stedsnr" v="496760" />
	</node>
	<node id="-92717" lat="62.0136999964" lon="12.1774472224">
		<tag k="fixme" v="multiple name tags, choose one and add the other to alt_name" />
		<tag k="historic" v="shieling" />
		<tag k="name" v="Gutulivollen;Lillebovollen" />
		<tag k="place" v="locality" />
		<tag k="ssr:stedsnr" v="496740" />
	</node>
	<node id="-92716" lat="62.0476861125" lon="12.2199083296">
		<tag k="historic" v="shieling" />
		<tag k="name" v="Gammaldalen" />
		<tag k="place" v="locality" />
		<tag k="ssr:stedsnr" v="496731" />
	</node>
	<node id="-92713" lat="62.1635166696" lon="12.2462166704">
		<tag k="name" v="Ryvang" />
		<tag k="place" v="farm" />
		<tag k="ssr:stedsnr" v="496725" />
	</node>
	<node id="-92708" lat="62.1446555546" lon="11.6170333362">
		<tag k="name" v="Johnsgård" />
		<tag k="place" v="farm" />
		<tag k="ssr:stedsnr" v="496426" />
	</node>
	<node id="-92707" lat="62.1601666673" lon="11.9465249917">
		<tag k="name" v="Furulund" />
		<tag k="place" v="farm" />
		<tag k="ssr:stedsnr" v="496408" />
	</node>
	<node id="-92702" lat="62.1659305529" lon="11.9479500037">
		<tag k="name" v="Røsten" />
		<tag k="place" v="farm" />
		<tag k="ssr:stedsnr" v="496374" />
	</node>
	<node id="-92691" lat="62.0819222258" lon="12.0170333263">
		<tag k="historic" v="shieling" />
		<tag k="name" v="Buvollen" />
		<tag k="place" v="locality" />
		<tag k="ssr:stedsnr" v="496292" />
	</node>
	<node id="-92689" lat="62.0854527733" lon="12.0700083356">
		<tag k="historic" v="shieling" />
		<tag k="name" v="Jensvollen" />
		<tag k="place" v="locality" />
		<tag k="ssr:stedsnr" v="496283" />
	</node>
	<node id="-92679" lat="61.6255194467" lon="12.0318194523">
		<tag k="name" v="Rud" />
		<tag k="place" v="farm" />
		<tag k="ssr:stedsnr" v="495683" />
	</node>
	<node id="-92678" lat="61.6083528392" lon="12.0396442351">
		<tag k="name" v="Røa" />
		<tag k="place" v="hamlet" />
		<tag k="ssr:stedsnr" v="495662" />
	</node>
	<node id="-92676" lat="61.667255553" lon="12.0063333255">
		<tag k="alt_name" v="Sand" />
		<tag k="name" v="Sanden" />
		<tag k="place" v="farm" />
		<tag k="ssr:stedsnr" v="495648" />
	</node>
	<node id="-92671" lat="62.0759083337" lon="12.1715083314">
		<tag k="name" v="Valdalen" />
		<tag k="place" v="farm" />
		<tag k="ssr:stedsnr" v="485913" />
	</node>
	<node id="-92657" lat="62.1671249978" lon="11.9441666626">
		<tag k="name" v="Trøa" />
		<tag k="place" v="farm" />
		<tag k="ssr:stedsnr" v="480910" />
	</node>
	<node id="-92648" lat="62.0140722221" lon="12.1722361017">
		<tag k="historic" v="shieling" />
		<tag k="name" v="Nedpåvollen" />
		<tag k="place" v="locality" />
		<tag k="ssr:stedsnr" v="480747" />
	</node>
	<node id="-92647" lat="61.6821583374" lon="12.0042666593">
		<tag k="name" v="Berg" />
		<tag k="place" v="farm" />
		<tag k="ssr:stedsnr" v="480738" />
	</node>
	<node id="-92642" lat="61.9726861074" lon="11.9471138945">
		<tag k="name" v="Sorkmo" />
		<tag k="place" v="farm" />
		<tag k="ssr:stedsnr" v="480614" />
	</node>
	<node id="-92641" lat="62.0877416685" lon="11.6555027862">
		<tag k="name" v="Ryen" />
		<tag k="place" v="farm" />
		<tag k="ssr:stedsnr" v="480493" />
	</node>
	<node id="-92623" lat="61.7687750021" lon="11.9652694441">
		<tag k="name" v="Solheim hyttegrend" />
		<tag k="place" v="neighbourhood" />
		<tag k="ssr:stedsnr" v="464559" />
	</node>
	<node id="-92617" lat="61.7275750016" lon="12.0378333298">
		<tag k="name" v="Gjotengløa" />
		<tag k="place" v="locality" />
		<tag k="ssr:stedsnr" v="445294" />
	</node>
	<node id="-92613" lat="61.6329388883" lon="12.035113883">
		<tag k="name" v="Søberg" />
		<tag k="place" v="farm" />
		<tag k="ssr:stedsnr" v="480152" />
	</node>
	<node id="-92610" lat="61.6989361114" lon="11.7262750032">
		<tag k="name" v="Søndre Snerten" />
		<tag k="place" v="farm" />
		<tag k="ssr:stedsnr" v="480118" />
	</node>
	<node id="-92604" lat="61.9661055526" lon="11.9750833399">
		<tag k="name" v="Elvheim" />
		<tag k="place" v="farm" />
		<tag k="ssr:stedsnr" v="436886" />
	</node>
	<node id="-92602" lat="61.955880552" lon="12.1182166721">
		<tag k="historic" v="shieling" />
		<tag k="name" v="Jyltingsætra" />
		<tag k="place" v="locality" />
		<tag k="ssr:stedsnr" v="436880" />
	</node>
	<node id="-92598" lat="61.90435556" lon="12.0676722154">
		<tag k="alt_name" v="Bergvollen" />
		<tag k="historic" v="shieling" />
		<tag k="loc_name" v="Bergsvollen" />
		<tag k="name" v="Bergevollen" />
		<tag k="place" v="locality" />
		<tag k="ssr:stedsnr" v="436857" />
	</node>
	<node id="-92591" lat="62.0032138891" lon="11.983677783">
		<tag k="historic" v="shieling" />
		<tag k="name" v="Tolgevollen" />
		<tag k="place" v="locality" />
		<tag k="ssr:stedsnr" v="436740" />
	</node>
	<node id="-92584" lat="62.2973583355" lon="11.962275004">
		<tag k="fixme" v="consider tourism=alpine_hut or tourism=chalet" />
		<tag k="name" v="Haugen gård" />
		<tag k="old_name" v="Haugen" />
		<tag k="ssr:stedsnr" v="436564" />
		<tag k="tourism" v="wilderness_hut" />
	</node>
	<node id="-92580" lat="62.1469749996" lon="11.5709888958">
		<tag k="historic" v="shieling" />
		<tag k="name" v="Gjotsætra" />
		<tag k="place" v="locality" />
		<tag k="ssr:stedsnr" v="436368" />
	</node>
	<node id="-92579" lat="62.150463892" lon="11.7856222297">
		<tag k="name" v="Solli" />
		<tag k="place" v="farm" />
		<tag k="ssr:stedsnr" v="436353" />
	</node>
	<node id="-92569" lat="61.8869666633" lon="12.0468361094">
		<tag k="alt_name" v="Småbekkan" />
		<tag k="name" v="Småbekken" />
		<tag k="place" v="farm" />
		<tag k="ssr:stedsnr" v="435879" />
	</node>
	<node id="-92568" lat="61.8863861099" lon="12.0373749969">
		<tag k="name" v="Skogstad" />
		<tag k="place" v="farm" />
		<tag k="ssr:stedsnr" v="435878" />
	</node>
	<node id="-92567" lat="61.876430557" lon="12.1374777772">
		<tag k="name" v="Haug" />
		<tag k="place" v="farm" />
		<tag k="ssr:stedsnr" v="435857" />
	</node>
	<node id="-92564" lat="61.7641166642" lon="11.9488777762">
		<tag k="alt_name" v="Lie" />
		<tag k="name" v="Li" />
		<tag k="place" v="farm" />
		<tag k="ssr:stedsnr" v="435784" />
	</node>
	<node id="-92561" lat="61.7465250001" lon="11.970575006">
		<tag k="name" v="Rønningen" />
		<tag k="place" v="farm" />
		<tag k="ssr:stedsnr" v="435714" />
	</node>
	<node id="-92551" lat="62.0634000022" lon="12.1091777716">
		<tag k="alt_name" v="Elgådalen, s" />
		<tag k="name" v="Søndre Elgådalen" />
		<tag k="place" v="farm" />
		<tag k="ssr:stedsnr" v="435317" />
	</node>
	<node id="-92550" lat="61.741125" lon="11.8192083267">
		<tag k="name" v="Øveråsen" />
		<tag k="place" v="hamlet" />
		<tag k="ssr:stedsnr" v="435307" />
	</node>
	<node id="-92548" lat="62.0837694429" lon="12.080663894">
		<tag k="name" v="Movollen" />
		<tag k="place" v="farm" />
		<tag k="ssr:stedsnr" v="435296" />
	</node>
	<node id="-92544" lat="61.6570277819" lon="12.0259888819">
		<tag k="name" v="Åsheim" />
		<tag k="place" v="farm" />
		<tag k="ssr:stedsnr" v="434626" />
	</node>
	<node id="-92539" lat="61.8141249977" lon="11.7181972162">
		<tag k="name" v="Oppstu" />
		<tag k="place" v="farm" />
		<tag k="ssr:stedsnr" v="422351" />
	</node>
	<node id="-92510" lat="61.6801249995" lon="12.0053166632">
		<tag k="name" v="Høye" />
		<tag k="place" v="farm" />
		<tag k="ssr:stedsnr" v="420692" />
	</node>
	<node id="-92507" lat="61.9714916665" lon="11.9432583318">
		<tag k="alt_name" v="Sorken mellom" />
		<tag k="name" v="Midtre Sorken" />
		<tag k="place" v="farm" />
		<tag k="ssr:stedsnr" v="420644" />
	</node>
	<node id="-92491" lat="61.6992194428" lon="11.7282500054">
		<tag k="name" v="Østre Snerten" />
		<tag k="place" v="farm" />
		<tag k="ssr:stedsnr" v="420139" />
	</node>
	<node id="-92490" lat="61.7001472181" lon="11.726816657">
		<tag k="name" v="Nordre Snerten" />
		<tag k="place" v="farm" />
		<tag k="ssr:stedsnr" v="420138" />
	</node>
	<node id="-92488" lat="61.6341916697" lon="12.0365027861">
		<tag k="name" v="Bakken" />
		<tag k="place" v="farm" />
		<tag k="ssr:stedsnr" v="419183" />
	</node>
	<node id="-92486" lat="62.1802027757" lon="11.8544499947">
		<tag k="name" v="Smedbua" />
		<tag k="place" v="isolated_dwelling" />
		<tag k="ssr:stedsnr" v="418200" />
	</node>
	<node id="-92484" lat="62.0915305544" lon="11.6551444359">
		<tag k="alt_name" v="Nordre Joten" />
		<tag k="name" v="Nordre Gjota" />
		<tag k="place" v="farm" />
		<tag k="ssr:stedsnr" v="480069" />
	</node>
	<node id="-92483" lat="62.1027833289" lon="11.6673416708">
		<tag k="name" v="Brustad" />
		<tag k="place" v="farm" />
		<tag k="ssr:stedsnr" v="480046" />
	</node>
	<node id="-92479" lat="61.6940194418" lon="11.9873916609">
		<tag k="alt_name" v="Olderskogen Camping" />
		<tag k="name" v="Olderskogen" />
		<tag k="ssr:stedsnr" v="266668" />
		<tag k="tourism" v="camp_site" />
	</node>
	<node id="-92478" lat="62.3160583296" lon="12.1033500013">
		<tag k="name" v="Roastbuan" />
		<tag k="place" v="isolated_dwelling" />
		<tag k="ssr:stedsnr" v="263859" />
	</node>
	<node id="-92465" lat="62.2687333352" lon="11.9709499921">
		<tag k="historic" v="shieling" />
		<tag k="name" v="Kuvolsætra" />
		<tag k="place" v="locality" />
		<tag k="ssr:stedsnr" v="254631" />
	</node>
	<node id="-92462" lat="62.1305499999" lon="11.6386277773">
		<tag k="name" v="Langsjøen" />
		<tag k="place" v="farm" />
		<tag k="ssr:stedsnr" v="254360" />
	</node>
	<node id="-92459" lat="61.9023333343" lon="11.7799583307">
		<tag k="name" v="Håbu" />
		<tag k="place" v="isolated_dwelling" />
		<tag k="ssr:stedsnr" v="253992" />
	</node>
	<node id="-92455" lat="61.8559777822" lon="12.02059445">
		<tag k="name" v="Liheim" />
		<tag k="place" v="farm" />
		<tag k="ssr:stedsnr" v="253853" />
	</node>
	<node id="-92454" lat="61.878100004" lon="12.1361611138">
		<tag k="name" v="Nordli" />
		<tag k="place" v="farm" />
		<tag k="ssr:stedsnr" v="253849" />
	</node>
	<node id="-92453" lat="61.8415500043" lon="11.9980361073">
		<tag k="name" v="Borg" />
		<tag k="place" v="farm" />
		<tag k="ssr:stedsnr" v="253837" />
	</node>
	<node id="-92449" lat="61.8333972226" lon="11.8824472178">
		<tag k="alt_name" v="Nordre Vollen" />
		<tag k="historic" v="shieling" />
		<tag k="name" v="Nordrevollen" />
		<tag k="place" v="locality" />
		<tag k="ssr:stedsnr" v="253821" />
	</node>
	<node id="-92448" lat="61.8361666681" lon="11.9524527736">
		<tag k="alt_name" v="Østgård" />
		<tag k="name" v="Nygård" />
		<tag k="place" v="farm" />
		<tag k="ssr:stedsnr" v="253820" />
	</node>
	<node id="-92442" lat="61.7526638863" lon="11.9384166599">
		<tag k="name" v="Bergesætra" />
		<tag k="place" v="hamlet" />
		<tag k="ssr:stedsnr" v="253744" />
	</node>
	<node id="-92439" lat="61.6769388861" lon="11.9989361033">
		<tag k="name" v="Fonnås" />
		<tag k="place" v="farm" />
		<tag k="ssr:stedsnr" v="253732" />
	</node>
	<node id="-92435" lat="62.0426277752" lon="11.7129750077">
		<tag k="name" v="Hovden" />
		<tag k="place" v="farm" />
		<tag k="ssr:stedsnr" v="253473" />
	</node>
	<node id="-92434" lat="62.0525055597" lon="11.6885749942">
		<tag k="name" v="Vesterheim" />
		<tag k="place" v="farm" />
		<tag k="ssr:stedsnr" v="253471" />
	</node>
	<node id="-92433" lat="62.0528038361" lon="11.6948081622">
		<tag k="name" v="Sømå" />
		<tag k="old_name" v="Sømåa" />
		<tag k="place" v="locality" />
		<tag k="ssr:stedsnr" v="253470" />
	</node>
	<node id="-92432" lat="61.6654777802" lon="11.7925277688">
		<tag k="alt_name" v="Rusta" />
		<tag k="name" v="Røsta" />
		<tag k="old_name" v="Røstad" />
		<tag k="place" v="isolated_dwelling" />
		<tag k="ssr:stedsnr" v="253427" />
	</node>
	<node id="-92430" lat="61.6960083325" lon="11.7545611061">
		<tag k="name" v="Ås" />
		<tag k="place" v="farm" />
		<tag k="ssr:stedsnr" v="253412" />
	</node>
	<node id="-92429" lat="62.1634138901" lon="11.9510472298">
		<tag k="name" v="Egga" />
		<tag k="place" v="farm" />
		<tag k="ssr:stedsnr" v="253409" />
	</node>
	<node id="-92421" lat="62.0874361099" lon="12.0623499996">
		<tag k="name" v="Elgådalen" />
		<tag k="place" v="farm" />
		<tag k="ssr:stedsnr" v="253303" />
	</node>
	<node id="-92415" lat="61.6641277807" lon="11.9784916731">
		<tag k="historic" v="shieling" />
		<tag k="name" v="Gnollsætra" />
		<tag k="place" v="locality" />
		<tag k="ssr:stedsnr" v="252594" />
	</node>
	<node id="-92413" lat="61.727661112" lon="11.7528444474">
		<tag k="name" v="Snertøya" />
		<tag k="place" v="isolated_dwelling" />
		<tag k="ssr:stedsnr" v="252250" />
	</node>
	<node id="-92412" lat="61.7482416656" lon="11.7492805503">
		<tag k="alt_name" v="Åsgård" />
		<tag k="name" v="Åsgard" />
		<tag k="place" v="farm" />
		<tag k="ssr:stedsnr" v="252233" />
	</node>
	<node id="-92407" lat="61.6380638874" lon="12.0324444381">
		<tag k="name" v="Lund" />
		<tag k="place" v="farm" />
		<tag k="ssr:stedsnr" v="241243" />
	</node>
	<node id="-92390" lat="61.9242392798" lon="11.918889272">
		<tag k="name" v="Østre Femundsenden" />
		<tag k="place" v="farm" />
		<tag k="ssr:stedsnr" v="238587" />
	</node>
	<node id="-92377" lat="61.9720666655" lon="11.9428166727">
		<tag k="name" v="Nordre Sorken" />
		<tag k="place" v="farm" />
		<tag k="ssr:stedsnr" v="237606" />
	</node>
	<node id="-92369" lat="61.8172638929" lon="11.9168472135">
		<tag k="building" v="industrial" />
		<tag k="name" v="Risbakken sag" />
		<tag k="ssr:stedsnr" v="237281" />
	</node>
	<node id="-92366" lat="61.6990305587" lon="11.7463555622">
		<tag k="historic" v="shieling" />
		<tag k="name" v="Nordgardsætra" />
		<tag k="place" v="locality" />
		<tag k="ssr:stedsnr" v="237176" />
	</node>
	<node id="-92360" lat="61.6467749999" lon="11.7620750088">
		<tag k="historic" v="shieling" />
		<tag k="name" v="Nymosætra" />
		<tag k="place" v="locality" />
		<tag k="ssr:stedsnr" v="237133" />
	</node>
	<node id="-92354" lat="61.8904388903" lon="11.7593916589">
		<tag k="name" v="Galten Gård og Pensjonat" />
		<tag k="ssr:stedsnr" v="232808" />
		<tag k="tourism" v="guest_house" />
	</node>
	<node id="-92344" lat="61.9223129151" lon="11.9184734118">
		<tag k="name" v="Femundsenden" />
		<tag k="place" v="hamlet" />
		<tag k="ssr:stedsnr" v="213247" />
	</node>
	<node id="-92343" lat="61.8725583352" lon="12.1622000039">
		<tag k="name" v="Søndre Lillebo" />
		<tag k="place" v="farm" />
		<tag k="ssr:stedsnr" v="208203" />
	</node>
	<node id="-92342" lat="61.8901194446" lon="12.0290055569">
		<tag k="fixme" v="consider place=hamlet" />
		<tag k="name" v="Drevsjø" />
		<tag k="place" v="village" />
		<tag k="ssr:stedsnr" v="207526" />
	</node>
	<node id="-92331" lat="61.8367888924" lon="11.7400999977">
		<tag k="name" v="Fredheim" />
		<tag k="place" v="farm" />
		<tag k="ssr:stedsnr" v="193955" />
	</node>
	<node id="-92323" lat="61.8996277784" lon="12.0083499983">
		<tag k="name" v="Nordby" />
		<tag k="place" v="farm" />
		<tag k="ssr:stedsnr" v="193854" />
	</node>
	<node id="-92321" lat="61.8475916628" lon="12.0232111139">
		<tag k="name" v="Østby" />
		<tag k="place" v="farm" />
		<tag k="ssr:stedsnr" v="193827" />
	</node>
	<node id="-92320" lat="61.8473472203" lon="12.0050999941">
		<tag k="fixme" v="multiple name tags, choose one and add the other to alt_name" />
		<tag k="name" v="Bjørklund;Skogly" />
		<tag k="place" v="farm" />
		<tag k="ssr:stedsnr" v="193821" />
	</node>
	<node id="-92317" lat="61.8330722257" lon="11.9481444494">
		<tag k="name" v="Risbakken" />
		<tag k="place" v="farm" />
		<tag k="ssr:stedsnr" v="193801" />
	</node>
	<node id="-92311" lat="61.7736249976" lon="11.9390916728">
		<tag k="name" v="Graner" />
		<tag k="place" v="farm" />
		<tag k="ssr:stedsnr" v="193724" />
	</node>
	<node id="-92308" lat="62.0770361106" lon="11.6778555638">
		<tag k="name" v="Kroken" />
		<tag k="place" v="farm" />
		<tag k="ssr:stedsnr" v="193436" />
	</node>
	<node id="-92307" lat="62.0911919263" lon="11.6551398751">
		<tag k="name" v="Gjota" />
		<tag k="place" v="locality" />
		<tag k="ssr:stedsnr" v="193432" />
	</node>
	<node id="-92305" lat="62.1589027811" lon="11.9459972197">
		<tag k="name" v="Moen" />
		<tag k="place" v="farm" />
		<tag k="ssr:stedsnr" v="193397" />
	</node>
	<node id="-92298" lat="62.0420194485" lon="11.7954722211">
		<tag k="historic" v="shieling" />
		<tag k="name" v="Risbekksætra" />
		<tag k="place" v="locality" />
		<tag k="ssr:stedsnr" v="193309" />
	</node>
	<node id="-92289" lat="61.7260500041" lon="11.9714638855">
		<tag k="name" v="Myre" />
		<tag k="place" v="farm" />
		<tag k="ssr:stedsnr" v="192770" />
	</node>
	<node id="-92286" lat="61.7482833361" lon="11.974383328">
		<tag k="name" v="Solvang" />
		<tag k="place" v="farm" />
		<tag k="ssr:stedsnr" v="192729" />
	</node>
	<node id="-92285" lat="61.6343138913" lon="12.0289999972">
		<tag k="fixme" v="consider place=hamlet" />
		<tag k="name" v="Hylleråsen" />
		<tag k="place" v="village" />
		<tag k="ssr:stedsnr" v="192721" />
	</node>
	<node id="-92277" lat="62.0845666659" lon="12.0759138802">
		<tag k="alt_name" v="Røstvollen" />
		<tag k="name" v="Rostvollen" />
		<tag k="place" v="farm" />
		<tag k="ssr:stedsnr" v="192284" />
	</node>
	<node id="-92276" lat="61.7485388908" lon="11.7586749919">
		<tag k="historic" v="shieling" />
		<tag k="name" v="Bergesæter" />
		<tag k="place" v="locality" />
		<tag k="ssr:stedsnr" v="192278" />
	</node>
	<node id="-92259" lat="61.6995638904" lon="11.9819305647">
		<tag k="name" v="Åbo" />
		<tag k="place" v="farm" />
		<tag k="ssr:stedsnr" v="177701" />
	</node>
	<node id="-92258" lat="61.7002583338" lon="11.9855361185">
		<tag k="name" v="Sætre" />
		<tag k="place" v="farm" />
		<tag k="ssr:stedsnr" v="177700" />
	</node>
	<node id="-92251" lat="61.8142472213" lon="11.9206055646">
		<tag k="name" v="Nesheim" />
		<tag k="place" v="farm" />
		<tag k="ssr:stedsnr" v="177282" />
	</node>
	<node id="-92250" lat="61.8149388855" lon="11.9155611182">
		<tag k="historic" v="shieling" />
		<tag k="name" v="Sletmosætra" />
		<tag k="place" v="locality" />
		<tag k="ssr:stedsnr" v="177281" />
	</node>
	<node id="-92249" lat="61.8191972205" lon="11.9214750011">
		<tag k="amenity" v="school" />
		<tag k="name" v="Engerdal barne- og ungdomsskole" />
		<tag k="ssr:stedsnr" v="177278" />
	</node>
	<node id="-92247" lat="61.6327472203" lon="12.0368499954">
		<tag k="name" v="Haugen" />
		<tag k="place" v="farm" />
		<tag k="ssr:stedsnr" v="177183" />
	</node>
	<node id="-92246" lat="61.6362444481" lon="12.0298666656">
		<tag k="name" v="Rønning" />
		<tag k="place" v="farm" />
		<tag k="ssr:stedsnr" v="177178" />
	</node>
	<node id="-92221" lat="61.837800003" lon="11.779002776">
		<tag k="name" v="Solhaug" />
		<tag k="place" v="isolated_dwelling" />
		<tag k="ssr:stedsnr" v="132956" />
	</node>
	<node id="-92218" lat="61.7631555553" lon="11.6548749971">
		<tag k="name" v="Elvsætra" />
		<tag k="place" v="farm" />
		<tag k="ssr:stedsnr" v="132925" />
	</node>
	<node id="-92211" lat="61.9754749975" lon="11.9449722204">
		<tag k="name" v="Haug" />
		<tag k="place" v="isolated_dwelling" />
		<tag k="ssr:stedsnr" v="132892" />
	</node>
	<node id="-92206" lat="61.8952472236" lon="12.0135000025">
		<tag k="name" v="Drevsjømoen" />
		<tag k="place" v="farm" />
		<tag k="ssr:stedsnr" v="132859" />
	</node>
	<node id="-92193" lat="61.8198250029" lon="11.9223500074">
		<tag k="name" v="Melum" />
		<tag k="place" v="farm" />
		<tag k="ssr:stedsnr" v="132770" />
	</node>
	<node id="-92190" lat="62.007777776" lon="12.0656000059">
		<tag k="historic" v="shieling" />
		<tag k="loc_name" v="Bekkedalssætra" />
		<tag k="name" v="Bekkdalssætra" />
		<tag k="place" v="locality" />
		<tag k="ssr:stedsnr" v="132737" />
	</node>
	<node id="-92189" lat="61.7522750001" lon="11.96728334">
		<tag k="name" v="Semings" />
		<tag k="old_name" v="Slettmoen" />
		<tag k="place" v="farm" />
		<tag k="ssr:stedsnr" v="132721" />
	</node>
	<node id="-92184" lat="62.0710694461" lon="11.6784611195">
		<tag k="name" v="Moen" />
		<tag k="place" v="farm" />
		<tag k="ssr:stedsnr" v="132393" />
	</node>
	<node id="-92183" lat="62.1352230599" lon="12.004957366">
		<tag k="historic" v="shieling" />
		<tag k="name" v="Hammarvollen" />
		<tag k="place" v="locality" />
		<tag k="ssr:stedsnr" v="132338" />
	</node>
	<node id="-92182" lat="62.1697749997" lon="11.9416777698">
		<tag k="alt_name" v="Søndre Båstø" />
		<tag k="name" v="Båtstøa" />
		<tag k="place" v="farm" />
		<tag k="ssr:stedsnr" v="132329" />
	</node>
	<node id="-92178" lat="62.0506861093" lon="11.9221527809">
		<tag k="historic" v="shieling" />
		<tag k="loc_name" v="Grånesvollen" />
		<tag k="name" v="Gråsnesvollen" />
		<tag k="place" v="locality" />
		<tag k="ssr:stedsnr" v="132281" />
	</node>
	<node id="-92175" lat="61.8148027811" lon="11.7076500095">
		<tag k="name" v="Femundsundet" />
		<tag k="place" v="hamlet" />
		<tag k="ssr:stedsnr" v="131956" />
	</node>
	<node id="-92169" lat="61.6274999978" lon="12.0996250021">
		<tag k="historic" v="shieling" />
		<tag k="name" v="Røsætra" />
		<tag k="place" v="locality" />
		<tag k="ssr:stedsnr" v="131687" />
	</node>
</osm>
