<?xml version="1.0" encoding="UTF-8"?>
<osm generator="osmapis" version="0.6">
	<node id="-93055" lat="61.8365277795" lon="11.7323500094">
		<tag k="junction" v="yes" />
		<tag k="name" v="Sølenstua" />
		<tag k="place" v="locality" />
		<tag k="ssr:stedsnr" v="626300" />
	</node>
	<node id="-92926" lat="61.6871833302" lon="11.7120583389">
		<tag k="fixme" v="consider highway=path" />
		<tag k="highway" v="track" />
		<tag k="name" v="Måsåvegen" />
		<tag k="ssr:stedsnr" v="601135" />
	</node>
	<node id="-91583" lat="61.8129361105" lon="11.915100009">
		<tag k="bridge" v="yes" />
		<tag k="layer" v="1" />
		<tag k="name" v="Hovdbekk" />
		<tag k="ssr:stedsnr" v="289263" />
	</node>
	<node id="-92150" lat="61.8219666636" lon="11.7243916651">
		<tag k="highway" v="path" />
		<tag k="name" v="Sætervegen" />
		<tag k="ssr:stedsnr" v="119378" />
	</node>
	<node id="-92658" lat="61.7343166659" lon="11.826583326">
		<tag k="highway" v="path" />
		<tag k="name" v="Turvflåvegen" />
		<tag k="ssr:stedsnr" v="480991" />
	</node>
	<node id="-92785" lat="61.9174083378" lon="11.9282777713">
		<tag k="highway" v="path" />
		<tag k="name" v="Kvennhusbakken" />
		<tag k="ssr:stedsnr" v="541576" />
	</node>
	<node id="-92143" lat="61.8806222248" lon="11.7402249944">
		<tag k="fixme" v="verify maritime location" />
		<tag k="mooring" v="yes" />
		<tag k="name" v="Felhansbåtstøa" />
		<tag k="place" v="locality" />
		<tag k="ssr:stedsnr" v="118362" />
	</node>
	<node id="-92781" lat="61.8069666637" lon="11.9131361171">
		<tag k="alt_name" v="Storbekkvaet" />
		<tag k="ford" v="yes" />
		<tag k="name" v="Storbekkvadet" />
		<tag k="place" v="locality" />
		<tag k="ssr:stedsnr" v="541486" />
	</node>
	<node id="-93521" lat="61.7444583339" lon="11.764877774">
		<tag k="highway" v="path" />
		<tag k="name" v="Venundåsvegen" />
		<tag k="ssr:stedsnr" v="845811" />
	</node>
	<node id="-92388" lat="62.0853138933" lon="11.6482222162">
		<tag k="highway" v="path" />
		<tag k="name" v="Rendalsvegen" />
		<tag k="ssr:stedsnr" v="238511" />
	</node>
	<node id="-93536" lat="61.8201861139" lon="11.7048833247">
		<tag k="name" v="Myrstadvelta" />
		<tag k="place" v="locality" />
		<tag k="ssr:stedsnr" v="847407" />
	</node>
	<node id="-93776" lat="61.8044166672" lon="11.705463894">
		<tag k="bridge" v="yes" />
		<tag k="layer" v="1" />
		<tag k="name" v="Bjørbekken" />
		<tag k="ssr:stedsnr" v="956294" />
	</node>
	<node id="-93528" lat="61.7619055599" lon="11.6447694492">
		<tag k="name" v="Kubbvelta" />
		<tag k="place" v="locality" />
		<tag k="ssr:stedsnr" v="845950" />
	</node>
	<node id="-92374" lat="61.838444445" lon="11.8157777743">
		<tag k="fixme" v="consider highway=path" />
		<tag k="highway" v="track" />
		<tag k="name" v="Eggvegen" />
		<tag k="ssr:stedsnr" v="237387" />
	</node>
	<node id="-92629" lat="61.9256972229" lon="11.9020722142">
		<tag k="bridge" v="yes" />
		<tag k="layer" v="1" />
		<tag k="name" v="Bjerta bru" />
		<tag k="ssr:stedsnr" v="471265" />
	</node>
	<node id="-93778" lat="62.1307166664" lon="11.7057083405">
		<tag k="bridge" v="yes" />
		<tag k="layer" v="1" />
		<tag k="name" v="Søndre Lilleåen" />
		<tag k="ssr:stedsnr" v="957271" />
	</node>
	<node id="-93777" lat="62.0063388874" lon="11.7109277825">
		<tag k="bridge" v="yes" />
		<tag k="layer" v="1" />
		<tag k="name" v="Ormutta" />
		<tag k="ssr:stedsnr" v="957263" />
	</node>
	<node id="-92112" lat="62.102586111" lon="11.6378833265">
		<tag k="fixme" v="consider highway=path" />
		<tag k="highway" v="track" />
		<tag k="name" v="Rovegen" />
		<tag k="ssr:stedsnr" v="116066" />
	</node>
	<node id="-91597" lat="61.7614638931" lon="11.84433611">
		<tag k="highway" v="path" />
		<tag k="name" v="Kringsillen" />
		<tag k="ssr:stedsnr" v="298338" />
	</node>
	<node id="-93642" lat="61.8437555594" lon="11.8617694481">
		<tag k="highway" v="path" />
		<tag k="name" v="Kviltvegen" />
		<tag k="ssr:stedsnr" v="905510" />
	</node>
	<node id="-91720" lat="61.6773444487" lon="12.0056194528">
		<tag k="bridge" v="yes" />
		<tag k="layer" v="1" />
		<tag k="name" v="Hundsbekk bru" />
		<tag k="ssr:stedsnr" v="349327" />
	</node>
	<node id="-92741" lat="61.9073555577" lon="11.7852416722">
		<tag k="junction" v="yes" />
		<tag k="name" v="Isterfossen" />
		<tag k="place" v="locality" />
		<tag k="ssr:stedsnr" v="496992" />
	</node>
	<node id="-92351" lat="61.7049833371" lon="11.9804750089">
		<tag k="bridge" v="yes" />
		<tag k="layer" v="1" />
		<tag k="name" v="Blakå bru" />
		<tag k="ssr:stedsnr" v="228271" />
	</node>
	<node id="-92106" lat="62.1458750044" lon="11.584750002">
		<tag k="fixme" v="consider highway=path" />
		<tag k="highway" v="track" />
		<tag k="name" v="Jotsætervegen" />
		<tag k="ssr:stedsnr" v="115869" />
	</node>
	<node id="-93493" lat="61.9562166639" lon="12.1462083255">
		<tag k="fixme" v="consider highway=path" />
		<tag k="highway" v="track" />
		<tag k="name" v="Dynamittvegen" />
		<tag k="ssr:stedsnr" v="844545" />
	</node>
	<node id="-93229" lat="61.6807194482" lon="12.0663194443">
		<tag k="fixme" v="verify maritime location" />
		<tag k="mooring" v="yes" />
		<tag k="name" v="Trysilstøa" />
		<tag k="place" v="locality" />
		<tag k="ssr:stedsnr" v="709242" />
	</node>
	<node id="-93091" lat="61.7552111114" lon="11.9001638808">
		<tag k="highway" v="path" />
		<tag k="name" v="Svingvegen" />
		<tag k="ssr:stedsnr" v="662345" />
	</node>
	<node id="-92101" lat="61.8445027784" lon="11.8422305605">
		<tag k="bridge" v="yes" />
		<tag k="layer" v="1" />
		<tag k="name" v="Gløtvola bru" />
		<tag k="ssr:stedsnr" v="107259" />
	</node>
	<node id="-92304" lat="62.1531999964" lon="12.1597833395">
		<tag k="alt_name" v="Linnes veg" />
		<tag k="highway" v="path" />
		<tag k="name" v="Linnes veg 1734" />
		<tag k="ssr:stedsnr" v="193389" />
	</node>
	<node id="-92120" lat="61.8510833292" lon="11.8506638827">
		<tag k="highway" v="path" />
		<tag k="name" v="Femundsætervegen" />
		<tag k="ssr:stedsnr" v="116477" />
	</node>
	<node id="-93833" lat="61.811483334" lon="11.7074499931">
		<tag k="fixme" v="verify maritime location" />
		<tag k="mooring" v="yes" />
		<tag k="name" v="Haugbåtstøa" />
		<tag k="place" v="locality" />
		<tag k="ssr:stedsnr" v="968386" />
	</node>
</osm>
