<?xml version="1.0" encoding="UTF-8"?>
<osm generator="osmapis" version="0.6">
	<node id="-92159" lat="62.2554361115" lon="12.2196805491">
		<tag k="name" v="Rundhåen" />
		<tag k="natural" v="water" />
		<tag k="ssr:stedsnr" v="72655" />
	</node>
	<node id="-92158" lat="62.2698777791" lon="12.2402194532">
		<tag k="name" v="Langtjønna" />
		<tag k="natural" v="water" />
		<tag k="ssr:stedsnr" v="72651" />
	</node>
	<node id="-92157" lat="62.2566333338" lon="11.9008916735">
		<tag k="name" v="Munkfoten" />
		<tag k="natural" v="cape" />
		<tag k="ssr:stedsnr" v="72646" />
	</node>
	<node id="-92155" lat="62.3065861102" lon="11.8549083284">
		<tag k="name" v="Smålokan" />
		<tag k="natural" v="water" />
		<tag k="ssr:stedsnr" v="72568" />
	</node>
	<node id="-92154" lat="62.2986499976" lon="12.2046388837">
		<tag k="name" v="Midtrøsttjønnan" />
		<tag k="natural" v="water" />
		<tag k="ssr:stedsnr" v="72558" />
	</node>
	<node id="-92153" lat="62.318688893" lon="12.112383336">
		<tag k="name" v="Øvre Roasten" />
		<tag k="natural" v="water" />
		<tag k="ssr:stedsnr" v="72547" />
		<tag k="water" v="lake" />
	</node>
	<node id="-92150" lat="62.1690749968" lon="12.1765333308">
		<tag k="name" v="Varga" />
		<tag k="ssr:stedsnr" v="72330" />
		<tag k="waterway" v="stream" />
	</node>
	<node id="-92148" lat="62.1291777785" lon="12.0159472282">
		<tag k="name" v="Stenbekken" />
		<tag k="ssr:stedsnr" v="72252" />
		<tag k="waterway" v="stream" />
	</node>
	<node id="-92145" lat="61.7810861073" lon="11.7296999935">
		<tag k="name" v="Volltjønna" />
		<tag k="natural" v="water" />
		<tag k="ssr:stedsnr" v="71953" />
	</node>
	<node id="-92144" lat="61.9970833351" lon="11.9242722231">
		<tag k="alt_name" v="Gjermundstjønna" />
		<tag k="name" v="Gjermundtjønna" />
		<tag k="natural" v="water" />
		<tag k="ssr:stedsnr" v="71940" />
	</node>
	<node id="-92141" lat="61.9799499954" lon="11.8660750069">
		<tag k="name" v="Harrbekken" />
		<tag k="ssr:stedsnr" v="71916" />
		<tag k="waterway" v="stream" />
	</node>
	<node id="-92140" lat="61.9821777799" lon="11.9706000005">
		<tag k="name" v="Stenbekktjønnan" />
		<tag k="natural" v="water" />
		<tag k="ssr:stedsnr" v="71914" />
	</node>
	<node id="-92135" lat="61.6829499981" lon="11.7175472202">
		<tag k="name" v="Holbekken" />
		<tag k="ssr:stedsnr" v="71813" />
		<tag k="waterway" v="stream" />
	</node>
	<node id="-92133" lat="61.7241305552" lon="11.9808777757">
		<tag k="name" v="Tuvbekken" />
		<tag k="ssr:stedsnr" v="71764" />
		<tag k="waterway" v="stream" />
	</node>
	<node id="-92130" lat="62.0069249996" lon="11.6469500054">
		<tag k="name" v="Todalertjønna" />
		<tag k="natural" v="water" />
		<tag k="ssr:stedsnr" v="71459" />
	</node>
	<node id="-92128" lat="62.1774916641" lon="11.9404027768">
		<tag k="name" v="Sagodden" />
		<tag k="natural" v="cape" />
		<tag k="ssr:stedsnr" v="71393" />
	</node>
	<node id="-92123" lat="62.0463944399" lon="11.771686115">
		<tag k="name" v="Trolltjønnholmen" />
		<tag k="place" v="islet" />
		<tag k="ssr:stedsnr" v="71341" />
	</node>
	<node id="-92120" lat="62.0860277752" lon="11.9254583393">
		<tag k="name" v="Storbekken" />
		<tag k="ssr:stedsnr" v="71300" />
		<tag k="waterway" v="stream" />
	</node>
	<node id="-92119" lat="62.0948638881" lon="12.1128333265">
		<tag k="name" v="Gutua" />
		<tag k="ssr:stedsnr" v="71298" />
		<tag k="waterway" v="stream" />
	</node>
	<node id="-92114" lat="62.1110166691" lon="11.9134027687">
		<tag k="name" v="Hansbekken" />
		<tag k="ssr:stedsnr" v="71270" />
		<tag k="waterway" v="stream" />
	</node>
	<node id="-91811" lat="62.1607194432" lon="11.7312694446">
		<tag k="alt_name" v="Tyldalsvika" />
		<tag k="name" v="Tylldalsvika" />
		<tag k="natural" v="bay" />
		<tag k="ssr:stedsnr" v="358906" />
	</node>
	<node id="-92109" lat="61.9976444463" lon="11.9148722266">
		<tag k="name" v="Gjermundskjæret" />
		<tag k="place" v="islet" />
		<tag k="ssr:stedsnr" v="66272" />
	</node>
	<node id="-91810" lat="62.0248194476" lon="11.7388833355">
		<tag k="name" v="Storkroken" />
		<tag k="place" v="locality" />
		<tag k="ssr:stedsnr" v="358362" />
	</node>
	<node id="-92106" lat="61.6360638861" lon="12.0995833288">
		<tag k="name" v="Bjørkrusttjønna" />
		<tag k="natural" v="water" />
		<tag k="ssr:stedsnr" v="59202" />
	</node>
	<node id="-92103" lat="61.8864861134" lon="12.0075166698">
		<tag k="name" v="Blokkodden" />
		<tag k="natural" v="cape" />
		<tag k="ssr:stedsnr" v="59025" />
	</node>
	<node id="-92102" lat="61.7215611078" lon="11.68507777">
		<tag k="name" v="Sæterbuvika" />
		<tag k="natural" v="bay" />
		<tag k="ssr:stedsnr" v="58921" />
	</node>
	<node id="-92099" lat="61.6525194469" lon="12.1536027848">
		<tag k="name" v="Søndre Hemtjønna" />
		<tag k="natural" v="water" />
		<tag k="ssr:stedsnr" v="56993" />
	</node>
	<node id="-92096" lat="61.7983666706" lon="11.7194111143">
		<tag k="name" v="Litltjønna" />
		<tag k="natural" v="water" />
		<tag k="ssr:stedsnr" v="56849" />
	</node>
	<node id="-92094" lat="61.6791277762" lon="11.7456638803">
		<tag k="name" v="Rankvika" />
		<tag k="natural" v="bay" />
		<tag k="ssr:stedsnr" v="56818" />
	</node>
	<node id="-92092" lat="62.0806333364" lon="12.1984416634">
		<tag k="name" v="Hitre Stormyrbekken" />
		<tag k="ssr:stedsnr" v="56739" />
		<tag k="waterway" v="stream" />
	</node>
	<node id="-92089" lat="61.8007861087" lon="11.9237500078">
		<tag k="name" v="Nordre Sollitjønna" />
		<tag k="natural" v="water" />
		<tag k="ssr:stedsnr" v="56490" />
	</node>
	<node id="-92088" lat="62.1578722183" lon="11.9606277745">
		<tag k="name" v="Dalsmyrbekken" />
		<tag k="ssr:stedsnr" v="56450" />
		<tag k="waterway" v="stream" />
	</node>
	<node id="-92087" lat="61.885594448" lon="12.1781666745">
		<tag k="name" v="Gørsildtjønna" />
		<tag k="natural" v="water" />
		<tag k="ssr:stedsnr" v="56615" />
	</node>
	<node id="-92086" lat="61.8760916624" lon="12.1287083372">
		<tag k="name" v="Froskvika" />
		<tag k="natural" v="bay" />
		<tag k="ssr:stedsnr" v="56612" />
	</node>
	<node id="-92085" lat="61.7773305595" lon="12.1321305485">
		<tag k="name" v="Nordre tjønna" />
		<tag k="natural" v="water" />
		<tag k="ssr:stedsnr" v="56605" />
	</node>
	<node id="-92084" lat="61.8725777763" lon="12.1675111069">
		<tag k="name" v="Strømmen" />
		<tag k="ssr:stedsnr" v="56603" />
		<tag k="waterway" v="river" />
	</node>
	<node id="-92082" lat="61.9880249958" lon="11.9711527722">
		<tag k="name" v="Martakoietjønna" />
		<tag k="natural" v="water" />
		<tag k="ssr:stedsnr" v="56141" />
	</node>
	<node id="-92080" lat="61.8627444458" lon="11.9901416578">
		<tag k="name" v="Bjørbekktjønna" />
		<tag k="natural" v="water" />
		<tag k="ssr:stedsnr" v="56105" />
	</node>
	<node id="-92079" lat="61.6982944489" lon="12.1758583316">
		<tag k="name" v="Litlsjøen" />
		<tag k="natural" v="water" />
		<tag k="ssr:stedsnr" v="55881" />
	</node>
	<node id="-92077" lat="62.0643305582" lon="12.0680472286">
		<tag k="name" v="Brenthaugloken" />
		<tag k="natural" v="water" />
		<tag k="ssr:stedsnr" v="55839" />
	</node>
	<node id="-92075" lat="62.0074861101" lon="11.7854055534">
		<tag k="name" v="Bakpåholmen" />
		<tag k="place" v="islet" />
		<tag k="ssr:stedsnr" v="55373" />
	</node>
	<node id="-92071" lat="62.0819722247" lon="12.019227779">
		<tag k="name" v="Buloken" />
		<tag k="natural" v="water" />
		<tag k="ssr:stedsnr" v="55235" />
	</node>
	<node id="-92068" lat="61.8015666657" lon="12.1073194536">
		<tag k="name" v="Litlsvarttjønna" />
		<tag k="natural" v="water" />
		<tag k="ssr:stedsnr" v="55053" />
	</node>
	<node id="-92065" lat="61.6317194417" lon="12.1336388856">
		<tag k="name" v="Karitjønnan" />
		<tag k="natural" v="water" />
		<tag k="ssr:stedsnr" v="53567" />
	</node>
	<node id="-92059" lat="61.6392666636" lon="12.0179638894">
		<tag k="name" v="Furuneset" />
		<tag k="natural" v="cape" />
		<tag k="ssr:stedsnr" v="42263" />
	</node>
	<node id="-92053" lat="62.1528027735" lon="11.9609611149">
		<tag k="name" v="Lokbekken" />
		<tag k="ssr:stedsnr" v="21464" />
		<tag k="waterway" v="stream" />
	</node>
	<node id="-92052" lat="62.0068833291" lon="11.7504805533">
		<tag k="name" v="Stongholmsundet" />
		<tag k="natural" v="strait" />
		<tag k="ssr:stedsnr" v="20748" />
	</node>
	<node id="-92049" lat="61.8178277794" lon="11.8215722137">
		<tag k="name" v="Ulvåa" />
		<tag k="ssr:stedsnr" v="11955" />
		<tag k="waterway" v="stream" />
	</node>
	<node id="-92048" lat="61.9899527791" lon="11.9896388802">
		<tag k="alt_name" v="Tolgebekken" />
		<tag k="name" v="Tolgesbekken" />
		<tag k="ssr:stedsnr" v="11922" />
		<tag k="waterway" v="stream" />
	</node>
	<node id="-92045" lat="61.9326499992" lon="11.9886083415">
		<tag k="name" v="Skarptrolltjønna" />
		<tag k="natural" v="water" />
		<tag k="ssr:stedsnr" v="11879" />
	</node>
	<node id="-92042" lat="61.8576111129" lon="11.95276389">
		<tag k="name" v="Lauvåstjønna" />
		<tag k="natural" v="water" />
		<tag k="ssr:stedsnr" v="11854" />
	</node>
	<node id="-92039" lat="61.848108335" lon="11.9878555527">
		<tag k="alt_name" v="Hovdbekken, østre;Øvre Hovdbekken" />
		<tag k="name" v="Østre Hovdbekken" />
		<tag k="ssr:stedsnr" v="11831" />
		<tag k="waterway" v="stream" />
	</node>
	<node id="-92037" lat="61.8265055553" lon="12.1497583387">
		<tag k="alt_name" v="Tollåa, nordre" />
		<tag k="name" v="Nordre Tollåa" />
		<tag k="ssr:stedsnr" v="11825" />
		<tag k="waterway" v="stream" />
	</node>
	<node id="-92036" lat="61.8308194409" lon="12.1211499985">
		<tag k="name" v="Stortjønna" />
		<tag k="natural" v="water" />
		<tag k="ssr:stedsnr" v="11822" />
	</node>
	<node id="-92029" lat="61.8147722198" lon="11.9401388974">
		<tag k="alt_name" v="Løvbekken" />
		<tag k="name" v="Lauvbekken" />
		<tag k="ssr:stedsnr" v="11781" />
		<tag k="waterway" v="stream" />
	</node>
	<node id="-92025" lat="62.0301999992" lon="11.7774777865">
		<tag k="name" v="Tjuvholmen" />
		<tag k="place" v="islet" />
		<tag k="ssr:stedsnr" v="11739" />
	</node>
	<node id="-92022" lat="62.1976222246" lon="11.9436305604">
		<tag k="name" v="Langodden" />
		<tag k="natural" v="cape" />
		<tag k="ssr:stedsnr" v="11678" />
	</node>
	<node id="-92021" lat="62.3193916636" lon="11.9670138882">
		<tag k="name" v="Storvikneset" />
		<tag k="natural" v="cape" />
		<tag k="ssr:stedsnr" v="11568" />
	</node>
	<node id="-92016" lat="62.0525138892" lon="11.7907083383">
		<tag k="name" v="Bjørnfjordvika" />
		<tag k="natural" v="bay" />
		<tag k="ssr:stedsnr" v="11294" />
	</node>
	<node id="-92015" lat="62.0319249989" lon="11.818658334">
		<tag k="name" v="Risbekken" />
		<tag k="ssr:stedsnr" v="11290" />
		<tag k="waterway" v="stream" />
	</node>
	<node id="-92013" lat="62.0626722243" lon="11.7823222137">
		<tag k="name" v="Kultjønnbekken" />
		<tag k="ssr:stedsnr" v="11275" />
		<tag k="waterway" v="stream" />
	</node>
	<node id="-92012" lat="62.1290305586" lon="12.1166750041">
		<tag k="alt_name" v="Grøvelsjøen, l" />
		<tag k="name" v="Litle Grøvelsjøen" />
		<tag k="natural" v="water" />
		<tag k="ssr:stedsnr" v="11256" />
	</node>
	<node id="-92010" lat="61.9398750031" lon="11.7792916625">
		<tag k="name" v="Brentholmene" />
		<tag k="place" v="islet" />
		<tag k="ssr:stedsnr" v="11092" />
	</node>
	<node id="-92009" lat="61.991236108" lon="11.7905638929">
		<tag k="name" v="Langvika" />
		<tag k="natural" v="bay" />
		<tag k="ssr:stedsnr" v="11062" />
	</node>
	<node id="-92005" lat="61.7799527807" lon="11.7762027751">
		<tag k="name" v="Flåtjønnan" />
		<tag k="natural" v="water" />
		<tag k="ssr:stedsnr" v="10936" />
	</node>
	<node id="-92004" lat="61.7859500035" lon="11.7144611099">
		<tag k="name" v="Bjørbekktjønna" />
		<tag k="natural" v="water" />
		<tag k="ssr:stedsnr" v="10933" />
	</node>
	<node id="-91998" lat="61.7387333334" lon="11.9457277708">
		<tag k="name" v="Messelta" />
		<tag k="ssr:stedsnr" v="10753" />
		<tag k="waterway" v="stream" />
	</node>
	<node id="-91996" lat="61.7101666627" lon="11.8887944499">
		<tag k="alt_name" v="Bjønnskårbekken" />
		<tag k="name" v="Bjørnskorbekken" />
		<tag k="ssr:stedsnr" v="10745" />
		<tag k="waterway" v="stream" />
	</node>
	<node id="-91995" lat="61.7623583373" lon="12.11299166">
		<tag k="alt_name" v="Fuglebekken, s" />
		<tag k="name" v="Søndre Fuglebekken" />
		<tag k="ssr:stedsnr" v="10737" />
		<tag k="waterway" v="stream" />
	</node>
	<node id="-91994" lat="61.6875444405" lon="12.0603749971">
		<tag k="name" v="Lebladtjønna" />
		<tag k="natural" v="water" />
		<tag k="ssr:stedsnr" v="10733" />
	</node>
	<node id="-91993" lat="61.6784083324" lon="12.0168277788">
		<tag k="name" v="Hundsbekken" />
		<tag k="ssr:stedsnr" v="10729" />
		<tag k="waterway" v="stream" />
	</node>
	<node id="-91992" lat="61.6215388848" lon="12.0851749909">
		<tag k="alt_name" v="Litlbekken" />
		<tag k="name" v="Veslebekken" />
		<tag k="ssr:stedsnr" v="10682" />
		<tag k="waterway" v="stream" />
	</node>
	<node id="-91990" lat="61.6561472236" lon="12.186322215">
		<tag k="name" v="Sliflobekken" />
		<tag k="ssr:stedsnr" v="10658" />
		<tag k="waterway" v="stream" />
	</node>
	<node id="-91987" lat="62.2451138917" lon="12.1605222236">
		<tag k="name" v="Vonbekken" />
		<tag k="ssr:stedsnr" v="10426" />
		<tag k="waterway" v="stream" />
	</node>
	<node id="-91984" lat="61.6862166681" lon="11.7873277741">
		<tag k="name" v="Sætertjønna" />
		<tag k="natural" v="water" />
		<tag k="ssr:stedsnr" v="10329" />
	</node>
	<node id="-91982" lat="61.6319277794" lon="11.7436666714">
		<tag k="name" v="Gråhøgdtjønnan" />
		<tag k="natural" v="water" />
		<tag k="ssr:stedsnr" v="10300" />
	</node>
	<node id="-91981" lat="61.7290500039" lon="11.7933972163">
		<tag k="name" v="Gamlevassbekken" />
		<tag k="ssr:stedsnr" v="10268" />
		<tag k="waterway" v="stream" />
	</node>
	<node id="-91979" lat="62.3127999993" lon="12.1505805639">
		<tag k="name" v="Storbuddhåen" />
		<tag k="place" v="locality" />
		<tag k="ssr:stedsnr" v="254540" />
	</node>
	<node id="-91978" lat="62.318127781" lon="12.1781166708">
		<tag k="name" v="Kløtthåen" />
		<tag k="natural" v="water" />
		<tag k="ssr:stedsnr" v="557539" />
	</node>
	<node id="-91977" lat="62.3278916651" lon="12.1918777814">
		<tag k="name" v="Storrundhåen" />
		<tag k="natural" v="water" />
		<tag k="ssr:stedsnr" v="618564" />
		<tag k="water" v="lake" />
	</node>
	<node id="-91973" lat="62.3281777737" lon="12.2275861089">
		<tag k="name" v="Rogshåen" />
		<tag k="natural" v="water" />
		<tag k="ssr:stedsnr" v="740665" />
		<tag k="water" v="lake" />
	</node>
	<node id="-91971" lat="61.9754477895" lon="11.9975059869">
		<tag k="name" v="Sorksjøan" />
		<tag k="natural" v="water" />
		<tag k="ssr:stedsnr" v="982131" />
		<tag k="water" v="lake" />
	</node>
	<node id="-91970" lat="61.9663203876" lon="12.0995171403">
		<tag k="name" v="Gunnarsjøan" />
		<tag k="natural" v="water" />
		<tag k="ssr:stedsnr" v="982128" />
		<tag k="water" v="lake" />
	</node>
	<node id="-91787" lat="62.0907666671" lon="11.9600277693">
		<tag k="name" v="Midttjønna" />
		<tag k="natural" v="water" />
		<tag k="ssr:stedsnr" v="324412" />
		<tag k="water" v="lake" />
	</node>
	<node id="-93890" lat="62.0433638881" lon="12.0785222175">
		<tag k="name" v="Småsjøelva" />
		<tag k="ssr:stedsnr" v="965839" />
		<tag k="waterway" v="river" />
	</node>
	<node id="-91961" lat="61.6429083328" lon="11.8394194381">
		<tag k="name" v="Stillkåsa" />
		<tag k="natural" v="water" />
		<tag k="ssr:stedsnr" v="899127" />
		<tag k="water" v="lake" />
	</node>
	<node id="-91785" lat="62.2612666664" lon="12.1557166634">
		<tag k="name" v="Finnvolltjønnan" />
		<tag k="natural" v="water" />
		<tag k="ssr:stedsnr" v="315667" />
	</node>
	<node id="-91956" lat="62.0458750014" lon="11.7033916762">
		<tag k="name" v="Nøstenfossen" />
		<tag k="natural" v="waterfall" />
		<tag k="ssr:stedsnr" v="890091" />
	</node>
	<node id="-91952" lat="62.1743888906" lon="11.8564972207">
		<tag k="name" v="Stenodden" />
		<tag k="natural" v="cape" />
		<tag k="ssr:stedsnr" v="479217" />
	</node>
	<node id="-91950" lat="62.1909055588" lon="11.872291674">
		<tag k="name" v="Stalloddvika" />
		<tag k="natural" v="bay" />
		<tag k="ssr:stedsnr" v="479170" />
	</node>
	<node id="-91949" lat="62.1453194417" lon="11.6322749959">
		<tag k="name" v="Nordre Langvika" />
		<tag k="natural" v="bay" />
		<tag k="ssr:stedsnr" v="478883" />
	</node>
	<node id="-91945" lat="61.6351416632" lon="11.8373361054">
		<tag k="name" v="Andvikbekken" />
		<tag k="ssr:stedsnr" v="477241" />
		<tag k="waterway" v="stream" />
	</node>
	<node id="-91942" lat="61.6653638855" lon="12.0414722226">
		<tag k="name" v="Litl-Hyllsjøbekken" />
		<tag k="ssr:stedsnr" v="406233" />
		<tag k="waterway" v="stream" />
	</node>
	<node id="-91934" lat="61.9306055549" lon="11.9505111179">
		<tag k="name" v="Dalsvika" />
		<tag k="natural" v="bay" />
		<tag k="ssr:stedsnr" v="387180" />
	</node>
	<node id="-91933" lat="62.0262777744" lon="11.9186083303">
		<tag k="name" v="Tomasodden" />
		<tag k="natural" v="cape" />
		<tag k="ssr:stedsnr" v="385406" />
	</node>
	<node id="-91932" lat="62.3456444469" lon="11.9288138968">
		<tag k="name" v="Nordre Halvbuholet" />
		<tag k="natural" v="bay" />
		<tag k="ssr:stedsnr" v="384838" />
	</node>
	<node id="-91931" lat="62.3563750024" lon="11.9278888949">
		<tag k="name" v="Halvmilvaodden" />
		<tag k="natural" v="cape" />
		<tag k="ssr:stedsnr" v="384837" />
	</node>
	<node id="-91930" lat="62.1327666638" lon="11.5923527748">
		<tag k="name" v="Tylldalslokan" />
		<tag k="natural" v="water" />
		<tag k="ssr:stedsnr" v="384371" />
	</node>
	<node id="-91926" lat="61.9692777762" lon="11.8847888894">
		<tag k="name" v="Furuoddtjønnan" />
		<tag k="natural" v="water" />
		<tag k="ssr:stedsnr" v="375897" />
	</node>
	<node id="-91924" lat="61.9646777767" lon="12.124119445">
		<tag k="name" v="Skarpabbortjønna" />
		<tag k="natural" v="water" />
		<tag k="ssr:stedsnr" v="375877" />
	</node>
	<node id="-91921" lat="61.9460555598" lon="11.9114499912">
		<tag k="name" v="Gløtodden" />
		<tag k="natural" v="cape" />
		<tag k="ssr:stedsnr" v="375867" />
	</node>
	<node id="-91920" lat="61.9063194481" lon="11.8965500003">
		<tag k="name" v="Tengstadtjønna" />
		<tag k="natural" v="water" />
		<tag k="ssr:stedsnr" v="375859" />
	</node>
	<node id="-91919" lat="61.9173277785" lon="11.9431027716">
		<tag k="name" v="Fabbrotjønna" />
		<tag k="natural" v="water" />
		<tag k="ssr:stedsnr" v="375846" />
	</node>
	<node id="-91914" lat="61.7933666653" lon="12.1539944495">
		<tag k="name" v="Storsømmeltjønna" />
		<tag k="natural" v="water" />
		<tag k="ssr:stedsnr" v="375754" />
	</node>
	<node id="-91910" lat="62.1205750021" lon="12.2454888929">
		<tag k="name" v="Digerbekken" />
		<tag k="ssr:stedsnr" v="375701" />
		<tag k="waterway" v="stream" />
	</node>
	<node id="-91906" lat="62.2734055536" lon="12.1604027684">
		<tag k="name" v="Stortjønna" />
		<tag k="natural" v="water" />
		<tag k="ssr:stedsnr" v="375631" />
	</node>
	<node id="-91904" lat="62.2895166694" lon="11.9457055613">
		<tag k="name" v="Kuneset" />
		<tag k="natural" v="cape" />
		<tag k="ssr:stedsnr" v="375543" />
	</node>
	<node id="-91903" lat="62.3138333364" lon="12.0702000075">
		<tag k="name" v="Skogtjønna" />
		<tag k="natural" v="water" />
		<tag k="ssr:stedsnr" v="375524" />
	</node>
	<node id="-91901" lat="62.1573111145" lon="11.9002805603">
		<tag k="name" v="Elvodden" />
		<tag k="natural" v="cape" />
		<tag k="ssr:stedsnr" v="375336" />
	</node>
	<node id="-91900" lat="62.1639666686" lon="11.9633388914">
		<tag k="name" v="Røstbekken" />
		<tag k="ssr:stedsnr" v="375312" />
		<tag k="waterway" v="stream" />
	</node>
	<node id="-91899" lat="62.163852782" lon="11.8730555524">
		<tag k="name" v="Storholmen" />
		<tag k="place" v="islet" />
		<tag k="ssr:stedsnr" v="375308" />
	</node>
	<node id="-91898" lat="62.1946472226" lon="12.1204111093">
		<tag k="name" v="Klettloken" />
		<tag k="natural" v="water" />
		<tag k="ssr:stedsnr" v="375298" />
	</node>
	<node id="-91895" lat="61.9766694447" lon="11.7979555576">
		<tag k="name" v="Nysandvika" />
		<tag k="natural" v="bay" />
		<tag k="ssr:stedsnr" v="375086" />
	</node>
	<node id="-91893" lat="62.005022775" lon="11.9494410003">
		<tag k="name" v="Rørsjøen" />
		<tag k="natural" v="water" />
		<tag k="ssr:stedsnr" v="374924" />
		<tag k="water" v="lake" />
	</node>
	<node id="-91892" lat="61.9834250003" lon="11.8915833272">
		<tag k="name" v="Veslbuvika" />
		<tag k="natural" v="bay" />
		<tag k="ssr:stedsnr" v="374908" />
	</node>
	<node id="-91891" lat="61.8794527818" lon="11.9550944396">
		<tag k="name" v="Søra" />
		<tag k="ssr:stedsnr" v="374875" />
		<tag k="waterway" v="stream" />
	</node>
	<node id="-91890" lat="61.8754999961" lon="11.9711222306">
		<tag k="name" v="Harrtjønna" />
		<tag k="natural" v="water" />
		<tag k="ssr:stedsnr" v="374872" />
	</node>
	<node id="-91888" lat="61.8480861068" lon="11.9398305513">
		<tag k="alt_name" v="Hovdbekken, nordre" />
		<tag k="name" v="Nordre Hovdbekken" />
		<tag k="ssr:stedsnr" v="374847" />
		<tag k="waterway" v="stream" />
	</node>
	<node id="-91884" lat="61.7076194427" lon="11.96382222">
		<tag k="name" v="Grasbekken" />
		<tag k="ssr:stedsnr" v="374740" />
		<tag k="waterway" v="stream" />
	</node>
	<node id="-91883" lat="61.7021972243" lon="12.0537583348">
		<tag k="name" v="Nystorbekken" />
		<tag k="ssr:stedsnr" v="374737" />
		<tag k="waterway" v="stream" />
	</node>
	<node id="-91882" lat="61.6971805522" lon="11.9400416679">
		<tag k="alt_name" v="Grønnhulubekken" />
		<tag k="name" v="Grønholbekken" />
		<tag k="ssr:stedsnr" v="374733" />
		<tag k="waterway" v="stream" />
	</node>
	<node id="-91879" lat="62.013800004" lon="11.687908338">
		<tag k="name" v="Holmtjønnbekken" />
		<tag k="ssr:stedsnr" v="374436" />
		<tag k="waterway" v="stream" />
	</node>
	<node id="-93926" lat="61.6294472181" lon="12.1088694493">
		<tag k="name" v="Svarttjønna" />
		<tag k="natural" v="water" />
		<tag k="ssr:stedsnr" v="969218" />
	</node>
	<node id="-93924" lat="61.8687222221" lon="12.0313249917">
		<tag k="name" v="Rørtjønna" />
		<tag k="natural" v="water" />
		<tag k="ssr:stedsnr" v="969048" />
	</node>
	<node id="-91875" lat="62.071811112" lon="11.8192138819">
		<tag k="name" v="Jonasodden" />
		<tag k="natural" v="cape" />
		<tag k="ssr:stedsnr" v="374321" />
	</node>
	<node id="-93922" lat="61.8224444411" lon="11.7093583402">
		<tag k="name" v="Viksæterfossen" />
		<tag k="natural" v="waterfall" />
		<tag k="ssr:stedsnr" v="968400" />
	</node>
	<node id="-93921" lat="61.8524555585" lon="11.7337833415">
		<tag k="name" v="Hølfossholmen" />
		<tag k="place" v="islet" />
		<tag k="ssr:stedsnr" v="968395" />
	</node>
	<node id="-93920" lat="61.8349861084" lon="11.7183250072">
		<tag k="name" v="Killingholmen" />
		<tag k="place" v="islet" />
		<tag k="ssr:stedsnr" v="968391" />
	</node>
	<node id="-91871" lat="62.064726422" lon="12.1271249951">
		<tag k="fixme" v="multiple name tags, choose one and add the other to alt_name" />
		<tag k="name" v="Bjørnholbekken;Brunnhølbekken" />
		<tag k="ssr:stedsnr" v="374303" />
		<tag k="waterway" v="stream" />
	</node>
	<node id="-91870" lat="62.0592522634" lon="11.8867465525">
		<tag k="alt_name" v="Gråsneset, store" />
		<tag k="name" v="Store Gråsneset" />
		<tag k="natural" v="cape" />
		<tag k="ssr:stedsnr" v="374301" />
	</node>
	<node id="-91868" lat="62.104052779" lon="12.2070055465">
		<tag k="alt_name" v="Olåa, l" />
		<tag k="name" v="Litle Olåa" />
		<tag k="ssr:stedsnr" v="374295" />
		<tag k="waterway" v="stream" />
	</node>
	<node id="-91867" lat="61.7157083316" lon="11.8021999948">
		<tag k="name" v="Storbekken" />
		<tag k="ssr:stedsnr" v="374289" />
		<tag k="waterway" v="stream" />
	</node>
	<node id="-93914" lat="61.9796416698" lon="11.9356055495">
		<tag k="name" v="Båtvika" />
		<tag k="natural" v="bay" />
		<tag k="ssr:stedsnr" v="966872" />
	</node>
	<node id="-91865" lat="62.1136805579" lon="12.1993916577">
		<tag k="alt_name" v="Olåa, store" />
		<tag k="name" v="Store Olåa" />
		<tag k="ssr:stedsnr" v="374274" />
		<tag k="waterway" v="stream" />
	</node>
	<node id="-93911" lat="61.7027583327" lon="11.7216000008">
		<tag k="name" v="Snertfloen" />
		<tag k="natural" v="water" />
		<tag k="ssr:stedsnr" v="966788" />
		<tag k="water" v="lake" />
	</node>
	<node id="-91862" lat="61.6548138913" lon="12.1522111185">
		<tag k="name" v="Karttjønna" />
		<tag k="natural" v="water" />
		<tag k="ssr:stedsnr" v="373656" />
	</node>
	<node id="-91860" lat="61.6530805556" lon="11.8582611152">
		<tag k="name" v="Mælbekken" />
		<tag k="ssr:stedsnr" v="373647" />
		<tag k="waterway" v="stream" />
	</node>
	<node id="-93907" lat="61.7623194459" lon="12.1375611026">
		<tag k="name" v="Henåa" />
		<tag k="ssr:stedsnr" v="966625" />
		<tag k="waterway" v="stream" />
	</node>
	<node id="-93906" lat="61.8696305558" lon="12.1714111106">
		<tag k="name" v="Koievika" />
		<tag k="natural" v="bay" />
		<tag k="ssr:stedsnr" v="966595" />
	</node>
	<node id="-91857" lat="61.6755666707" lon="12.0037388882">
		<tag k="name" v="Tuvodden" />
		<tag k="natural" v="cape" />
		<tag k="ssr:stedsnr" v="177712" />
	</node>
	<node id="-93901" lat="61.7956888906" lon="11.9268527731">
		<tag k="name" v="Søndre Sollitjønna" />
		<tag k="natural" v="water" />
		<tag k="ssr:stedsnr" v="966493" />
	</node>
	<node id="-93900" lat="61.9748305581" lon="12.1134750094">
		<tag k="name" v="Norderelva" />
		<tag k="ssr:stedsnr" v="966462" />
		<tag k="waterway" v="river" />
	</node>
	<node id="-91851" lat="61.6321527741" lon="12.1008916625">
		<tag k="name" v="Tuvbekken" />
		<tag k="ssr:stedsnr" v="362214" />
		<tag k="waterway" v="stream" />
	</node>
	<node id="-91850" lat="61.6347555598" lon="12.0823444425">
		<tag k="name" v="Langstranda" />
		<tag k="natural" v="beach" />
		<tag k="ssr:stedsnr" v="362213" />
	</node>
	<node id="-93897" lat="61.7468166695" lon="11.7352083405">
		<tag k="name" v="Granbergstjønna" />
		<tag k="natural" v="water" />
		<tag k="ssr:stedsnr" v="966194" />
	</node>
	<node id="-91847" lat="61.8737694467" lon="11.7262555464">
		<tag k="name" v="Nedre Fallet" />
		<tag k="ssr:stedsnr" v="361422" />
		<tag k="waterway" v="rapids" />
	</node>
	<node id="-91844" lat="61.983236111" lon="12.1000472252">
		<tag k="name" v="Langvika" />
		<tag k="natural" v="bay" />
		<tag k="ssr:stedsnr" v="360081" />
	</node>
	<node id="-91842" lat="61.7534111142" lon="11.6642638919">
		<tag k="name" v="Gofartømmerfloen" />
		<tag k="natural" v="water" />
		<tag k="ssr:stedsnr" v="359943" />
		<tag k="water" v="lake" />
	</node>
	<node id="-93889" lat="61.959019443" lon="12.1268611193">
		<tag k="name" v="Stentjønna" />
		<tag k="natural" v="water" />
		<tag k="ssr:stedsnr" v="965551" />
	</node>
	<node id="-91839" lat="61.6600083363" lon="12.1557472262">
		<tag k="name" v="Torvsætertjønna" />
		<tag k="natural" v="water" />
		<tag k="ssr:stedsnr" v="359891" />
	</node>
	<node id="-93885" lat="61.8856888873" lon="11.8374000012">
		<tag k="name" v="Galtåstjønna" />
		<tag k="natural" v="water" />
		<tag k="ssr:stedsnr" v="965449" />
	</node>
	<node id="-93884" lat="61.9092111141" lon="11.9188055536">
		<tag k="name" v="Hølbekkrøsta" />
		<tag k="natural" v="water" />
		<tag k="ssr:stedsnr" v="965439" />
	</node>
	<node id="-93883" lat="61.8994055562" lon="11.9316583381">
		<tag k="name" v="Stenloken" />
		<tag k="natural" v="water" />
		<tag k="ssr:stedsnr" v="965438" />
	</node>
	<node id="-93882" lat="62.0054888876" lon="11.7307444416">
		<tag k="name" v="Ormutuoset" />
		<tag k="natural" v="bay" />
		<tag k="ssr:stedsnr" v="965392" />
	</node>
	<node id="-93880" lat="61.6507666652" lon="12.0252444466">
		<tag k="name" v="Kvennvika" />
		<tag k="natural" v="bay" />
		<tag k="ssr:stedsnr" v="965225" />
	</node>
	<node id="-91764" lat="61.7823527775" lon="12.14778056">
		<tag k="name" v="Fetabbortjønna" />
		<tag k="natural" v="water" />
		<tag k="ssr:stedsnr" v="314748" />
	</node>
	<node id="-93875" lat="61.6918833336" lon="11.72858333">
		<tag k="name" v="Granholmen" />
		<tag k="place" v="islet" />
		<tag k="ssr:stedsnr" v="965161" />
	</node>
	<node id="-91826" lat="61.7933666653" lon="12.1539944495">
		<tag k="name" v="Djuptjønna" />
		<tag k="natural" v="water" />
		<tag k="ssr:stedsnr" v="359592" />
	</node>
	<node id="-91823" lat="61.808358329" lon="11.8433972182">
		<tag k="name" v="Østerbekken" />
		<tag k="ssr:stedsnr" v="359286" />
		<tag k="waterway" v="stream" />
	</node>
	<node id="-91821" lat="62.0610805512" lon="11.9592222293">
		<tag k="name" v="Skogtjønnbekken" />
		<tag k="ssr:stedsnr" v="359267" />
		<tag k="waterway" v="stream" />
	</node>
	<node id="-93867" lat="62.2024583311" lon="11.8719222295">
		<tag k="name" v="Litjbergevika" />
		<tag k="natural" v="bay" />
		<tag k="ssr:stedsnr" v="964184" />
	</node>
	<node id="-93866" lat="61.6452222212" lon="11.8374416648">
		<tag k="name" v="Rødodden" />
		<tag k="natural" v="cape" />
		<tag k="ssr:stedsnr" v="959113" />
	</node>
	<node id="-91816" lat="61.9670000001" lon="11.9825222237">
		<tag k="name" v="Loken" />
		<tag k="natural" v="water" />
		<tag k="ssr:stedsnr" v="359128" />
	</node>
	<node id="-91815" lat="61.8634194454" lon="11.9924527834">
		<tag k="name" v="Bjørbekken" />
		<tag k="ssr:stedsnr" v="359112" />
		<tag k="waterway" v="stream" />
	</node>
	<node id="-91761" lat="62.0317361073" lon="12.0571472285">
		<tag k="name" v="Angelbekken" />
		<tag k="ssr:stedsnr" v="314734" />
		<tag k="waterway" v="stream" />
	</node>
	<node id="-93859" lat="61.6447749989" lon="12.0559166592">
		<tag k="name" v="Tjønnbekken" />
		<tag k="ssr:stedsnr" v="952294" />
		<tag k="waterway" v="stream" />
	</node>
	<node id="-93858" lat="61.6935361152" lon="12.0094194364">
		<tag k="name" v="Vetbekken" />
		<tag k="ssr:stedsnr" v="952249" />
		<tag k="waterway" v="stream" />
	</node>
	<node id="-91809" lat="61.6531416694" lon="12.0245888971">
		<tag k="name" v="Hyllneset" />
		<tag k="natural" v="cape" />
		<tag k="ssr:stedsnr" v="358206" />
	</node>
	<node id="-91806" lat="61.628513887" lon="12.0296388966">
		<tag k="name" v="Nansenvika" />
		<tag k="natural" v="bay" />
		<tag k="ssr:stedsnr" v="358178" />
	</node>
	<node id="-91802" lat="61.6667638913" lon="12.1066694448">
		<tag k="name" v="Tranloken" />
		<tag k="natural" v="water" />
		<tag k="ssr:stedsnr" v="345239" />
		<tag k="water" v="pond" />
	</node>
	<node id="-93849" lat="62.1015138873" lon="11.8789305467">
		<tag k="name" v="Grannålodden" />
		<tag k="natural" v="cape" />
		<tag k="ssr:stedsnr" v="931458" />
	</node>
	<node id="-93847" lat="62.0839938815" lon="11.7551057083">
		<tag k="name" v="Slaggtjønna" />
		<tag k="natural" v="water" />
		<tag k="ssr:stedsnr" v="931434" />
		<tag k="water" v="lake" />
	</node>
	<node id="-93845" lat="62.2752999967" lon="12.2157305574">
		<tag k="name" v="Kratltjønnan" />
		<tag k="natural" v="water" />
		<tag k="ssr:stedsnr" v="922641" />
	</node>
	<node id="-93844" lat="62.2781000028" lon="11.837458334">
		<tag k="name" v="Rundtjønna" />
		<tag k="natural" v="water" />
		<tag k="ssr:stedsnr" v="922633" />
	</node>
	<node id="-91758" lat="62.142686109" lon="12.2421888856">
		<tag k="name" v="Danskebekken" />
		<tag k="ssr:stedsnr" v="314722" />
		<tag k="waterway" v="stream" />
	</node>
	<node id="-93842" lat="62.3162583306" lon="11.9727111062">
		<tag k="name" v="Storvika" />
		<tag k="natural" v="bay" />
		<tag k="ssr:stedsnr" v="922537" />
	</node>
	<node id="-93841" lat="62.3099277823" lon="12.1293749966">
		<tag k="name" v="Grislehåen" />
		<tag k="place" v="locality" />
		<tag k="ssr:stedsnr" v="922531" />
	</node>
	<node id="-93840" lat="62.3108916676" lon="11.8200138907">
		<tag k="name" v="Butjønn" />
		<tag k="natural" v="water" />
		<tag k="ssr:stedsnr" v="922529" />
	</node>
	<node id="-93838" lat="61.8617611071" lon="11.7672305614">
		<tag k="name" v="Nordre Holtjønna" />
		<tag k="natural" v="water" />
		<tag k="ssr:stedsnr" v="921963" />
	</node>
	<node id="-93837" lat="61.8648944465" lon="11.7965388931">
		<tag k="name" v="Kvølvtjønna" />
		<tag k="natural" v="water" />
		<tag k="ssr:stedsnr" v="921962" />
	</node>
	<node id="-93835" lat="61.8736416654" lon="12.1020416637">
		<tag k="name" v="Vurrusjøen" />
		<tag k="natural" v="water" />
		<tag k="ssr:stedsnr" v="921847" />
		<tag k="water" v="lake" />
	</node>
	<node id="-93834" lat="61.8663777758" lon="12.1083055467">
		<tag k="alt_name" v="Gjeddvikbekken" />
		<tag k="name" v="Gjeddevikbekken" />
		<tag k="ssr:stedsnr" v="921841" />
		<tag k="waterway" v="stream" />
	</node>
	<node id="-93833" lat="61.8741416672" lon="12.0887166685">
		<tag k="name" v="Storsundodden" />
		<tag k="natural" v="cape" />
		<tag k="ssr:stedsnr" v="921834" />
	</node>
	<node id="-91784" lat="61.8454183824" lon="11.7838714434">
		<tag k="fixme" v="multiple name tags, choose one and add the other to alt_name" />
		<tag k="name" v="Solhaugbekken;Stormyrbekken" />
		<tag k="ssr:stedsnr" v="314950" />
		<tag k="waterway" v="stream" />
	</node>
	<node id="-91782" lat="61.8260194482" lon="11.820599994">
		<tag k="name" v="Fisktjønna" />
		<tag k="natural" v="water" />
		<tag k="ssr:stedsnr" v="314937" />
	</node>
	<node id="-91780" lat="61.7982583302" lon="11.7082194534">
		<tag k="name" v="Bjørbekken" />
		<tag k="ssr:stedsnr" v="314914" />
		<tag k="waterway" v="stream" />
	</node>
	<node id="-91778" lat="61.7807416629" lon="11.6384555536">
		<tag k="name" v="Fløta" />
		<tag k="place" v="locality" />
		<tag k="ssr:stedsnr" v="314911" />
	</node>
	<node id="-91777" lat="61.9923749969" lon="12.209844452">
		<tag k="alt_name" v="Sellre" />
		<tag k="name" v="Sellere" />
		<tag k="natural" v="water" />
		<tag k="ssr:stedsnr" v="314887" />
	</node>
	<node id="-91776" lat="61.9582388913" lon="11.9780416642">
		<tag k="name" v="Kvemsjøen" />
		<tag k="natural" v="water" />
		<tag k="ssr:stedsnr" v="314867" />
	</node>
	<node id="-91775" lat="61.923291667" lon="12.1346416707">
		<tag k="name" v="Svarttjønna" />
		<tag k="natural" v="water" />
		<tag k="ssr:stedsnr" v="314848" />
	</node>
	<node id="-93821" lat="61.7723027796" lon="11.9992555563">
		<tag k="name" v="Sagbekkbørte" />
		<tag k="natural" v="spring" />
		<tag k="ssr:stedsnr" v="921769" />
	</node>
	<node id="-91772" lat="61.8802916681" lon="12.1653972181">
		<tag k="alt_name" v="Vordsjøen" />
		<tag k="name" v="Vålsjøen" />
		<tag k="natural" v="water" />
		<tag k="ssr:stedsnr" v="314829" />
	</node>
	<node id="-93819" lat="62.0170027792" lon="11.9329138883">
		<tag k="name" v="Stenvika" />
		<tag k="natural" v="bay" />
		<tag k="ssr:stedsnr" v="921753" />
	</node>
	<node id="-93818" lat="62.0280499975" lon="11.7465166708">
		<tag k="name" v="Svinsjøen" />
		<tag k="natural" v="water" />
		<tag k="ssr:stedsnr" v="921749" />
	</node>
	<node id="-93815" lat="62.3483027754" lon="12.0396250041">
		<tag k="name" v="Vollhåen" />
		<tag k="place" v="locality" />
		<tag k="ssr:stedsnr" v="921634" />
	</node>
	<node id="-93812" lat="62.0992861152" lon="11.6260749969">
		<tag k="name" v="Gjotbekken" />
		<tag k="ssr:stedsnr" v="921437" />
		<tag k="waterway" v="stream" />
	</node>
	<node id="-93811" lat="62.1129138868" lon="11.6249527808">
		<tag k="alt_name" v="Hølbekken" />
		<tag k="name" v="Holbekken" />
		<tag k="ssr:stedsnr" v="921432" />
		<tag k="waterway" v="stream" />
	</node>
	<node id="-91762" lat="62.0133694483" lon="11.7478111088">
		<tag k="alt_name" v="Stångholmen" />
		<tag k="name" v="Stangholmen" />
		<tag k="place" v="islet" />
		<tag k="ssr:stedsnr" v="314738" />
	</node>
	<node id="-93809" lat="62.1424305525" lon="11.8770166755">
		<tag k="name" v="Tjønnoddskjæret" />
		<tag k="place" v="islet" />
		<tag k="ssr:stedsnr" v="921394" />
	</node>
	<node id="-93808" lat="62.1835972204" lon="11.857325007">
		<tag k="name" v="Rotvika" />
		<tag k="natural" v="bay" />
		<tag k="ssr:stedsnr" v="921385" />
	</node>
	<node id="-93807" lat="62.1811749962" lon="12.1134472219">
		<tag k="name" v="Storsteintjønnan" />
		<tag k="natural" v="water" />
		<tag k="ssr:stedsnr" v="921383" />
	</node>
	<node id="-93806" lat="62.165958331" lon="11.8761027722">
		<tag k="name" v="Tallholmen" />
		<tag k="place" v="islet" />
		<tag k="ssr:stedsnr" v="921377" />
	</node>
	<node id="-93805" lat="62.170658329" lon="11.9805166664">
		<tag k="alt_name" v="Lillebekken" />
		<tag k="name" v="Litlebekken" />
		<tag k="ssr:stedsnr" v="921371" />
		<tag k="waterway" v="stream" />
	</node>
	<node id="-93804" lat="62.2016013176" lon="12.0638357322">
		<tag k="alt_name" v="Revlingsjøane" />
		<tag k="name" v="Revlingsjøan" />
		<tag k="natural" v="water" />
		<tag k="ssr:stedsnr" v="921354" />
		<tag k="water" v="lake" />
	</node>
	<node id="-93803" lat="62.0492953574" lon="11.9057906397">
		<tag k="loc_name" v="Gråsnesvika;Grånesbukta" />
		<tag k="name" v="Gråsnesbukta" />
		<tag k="natural" v="bay" />
		<tag k="ssr:stedsnr" v="921317" />
	</node>
	<node id="-93802" lat="62.0452666706" lon="12.153113891">
		<tag k="name" v="Stormikkeltjønna" />
		<tag k="natural" v="water" />
		<tag k="ssr:stedsnr" v="921314" />
	</node>
	<node id="-93801" lat="62.0360305147" lon="11.9077660958">
		<tag k="alt_name" v="Gråsneset, l" />
		<tag k="name" v="Litle Gråsneset" />
		<tag k="natural" v="cape" />
		<tag k="ssr:stedsnr" v="921309" />
	</node>
	<node id="-93800" lat="62.0781388883" lon="12.0325638938">
		<tag k="name" v="Litlsjøen" />
		<tag k="natural" v="water" />
		<tag k="ssr:stedsnr" v="921278" />
	</node>
	<node id="-93798" lat="61.9540111153" lon="11.7910111051">
		<tag k="name" v="Isteren" />
		<tag k="natural" v="water" />
		<tag k="ssr:stedsnr" v="921089" />
		<tag k="water" v="lake" />
	</node>
	<node id="-93797" lat="61.702583334" lon="12.0119111032">
		<tag k="name" v="Granbekken" />
		<tag k="ssr:stedsnr" v="920732" />
		<tag k="waterway" v="stream" />
	</node>
	<node id="-93796" lat="61.7002743483" lon="12.0416113717">
		<tag k="name" v="Hundsjøen" />
		<tag k="natural" v="water" />
		<tag k="ssr:stedsnr" v="920729" />
		<tag k="water" v="lake" />
	</node>
	<node id="-91747" lat="62.0299833323" lon="11.9665027799">
		<tag k="name" v="Krokåttjønna" />
		<tag k="natural" v="water" />
		<tag k="ssr:stedsnr" v="314328" />
	</node>
	<node id="-93794" lat="61.6992277765" lon="12.1774416606">
		<tag k="name" v="Busjøen" />
		<tag k="natural" v="water" />
		<tag k="ssr:stedsnr" v="920726" />
	</node>
	<node id="-93793" lat="61.6929388878" lon="12.1762527777">
		<tag k="name" v="Langsjøen" />
		<tag k="natural" v="water" />
		<tag k="ssr:stedsnr" v="920722" />
	</node>
	<node id="-93792" lat="61.6367055586" lon="12.1067250028">
		<tag k="name" v="Slåttbekken" />
		<tag k="ssr:stedsnr" v="920693" />
		<tag k="waterway" v="stream" />
	</node>
	<node id="-91743" lat="62.0902749979" lon="12.0603138958">
		<tag k="name" v="Blankåsbekken" />
		<tag k="ssr:stedsnr" v="314299" />
		<tag k="waterway" v="stream" />
	</node>
	<node id="-93790" lat="61.6443666652" lon="12.1533388968">
		<tag k="name" v="Sandviktjønna" />
		<tag k="natural" v="water" />
		<tag k="ssr:stedsnr" v="920686" />
	</node>
	<node id="-91749" lat="62.2122749998" lon="12.0091277833">
		<tag k="name" v="Ristjønnan" />
		<tag k="natural" v="water" />
		<tag k="ssr:stedsnr" v="314376" />
	</node>
	<node id="-91740" lat="61.768616665" lon="11.6696249922">
		<tag k="alt_name" v="Krokmyrbekken" />
		<tag k="name" v="Krokbekken" />
		<tag k="ssr:stedsnr" v="314142" />
		<tag k="waterway" v="stream" />
	</node>
	<node id="-91739" lat="61.9370888918" lon="11.8001833255">
		<tag k="name" v="Barnholmen" />
		<tag k="place" v="islet" />
		<tag k="ssr:stedsnr" v="314122" />
	</node>
	<node id="-91738" lat="61.9815777782" lon="11.7826750085">
		<tag k="name" v="Storholmen" />
		<tag k="place" v="islet" />
		<tag k="ssr:stedsnr" v="314077" />
	</node>
	<node id="-91748" lat="62.2006577737" lon="12.1681759412">
		<tag k="name" v="Rønsjøen" />
		<tag k="natural" v="water" />
		<tag k="ssr:stedsnr" v="314366" />
		<tag k="water" v="lake" />
	</node>
	<node id="-93780" lat="61.6435666676" lon="11.8255055564">
		<tag k="name" v="Stakkmyrbekken" />
		<tag k="ssr:stedsnr" v="920310" />
		<tag k="waterway" v="stream" />
	</node>
	<node id="-93779" lat="61.7409972219" lon="11.7606638875">
		<tag k="name" v="Veundåa" />
		<tag k="ssr:stedsnr" v="920270" />
		<tag k="waterway" v="stream" />
	</node>
	<node id="-91729" lat="61.6210999996" lon="12.0203750016">
		<tag k="name" v="Engeren" />
		<tag k="natural" v="water" />
		<tag k="ssr:stedsnr" v="313672" />
		<tag k="water" v="lake" />
	</node>
	<node id="-93776" lat="61.7103055552" lon="11.68060555">
		<tag k="name" v="Kastflobekken" />
		<tag k="ssr:stedsnr" v="920261" />
		<tag k="waterway" v="stream" />
	</node>
	<node id="-93775" lat="61.809158329" lon="11.7745666624">
		<tag k="name" v="Grasbekken" />
		<tag k="ssr:stedsnr" v="921939" />
		<tag k="waterway" v="stream" />
	</node>
	<node id="-91746" lat="62.0390111086" lon="12.1084999908">
		<tag k="name" v="Småsjøelva" />
		<tag k="ssr:stedsnr" v="314325" />
		<tag k="waterway" v="stream" />
	</node>
	<node id="-91721" lat="61.7310555518" lon="11.7542083354">
		<tag k="name" v="Dammen" />
		<tag k="ssr:stedsnr" v="313276" />
		<tag k="waterway" v="dam" />
	</node>
	<node id="-91720" lat="61.7133166624" lon="11.6973194383">
		<tag k="name" v="Kastfloen" />
		<tag k="natural" v="water" />
		<tag k="ssr:stedsnr" v="313273" />
		<tag k="water" v="lake" />
	</node>
	<node id="-93765" lat="61.8924805529" lon="12.085499991">
		<tag k="name" v="Nybubekken" />
		<tag k="ssr:stedsnr" v="921862" />
		<tag k="waterway" v="stream" />
	</node>
	<node id="-91716" lat="61.9194361092" lon="11.8109555546">
		<tag k="name" v="Skardbekken" />
		<tag k="ssr:stedsnr" v="71120" />
		<tag k="waterway" v="stream" />
	</node>
	<node id="-93763" lat="61.8400666683" lon="11.736905559">
		<tag k="name" v="Nessloken" />
		<tag k="natural" v="water" />
		<tag k="ssr:stedsnr" v="908411" />
	</node>
	<node id="-93761" lat="61.861638885" lon="11.7296000058">
		<tag k="name" v="Hølen" />
		<tag k="place" v="locality" />
		<tag k="ssr:stedsnr" v="908410" />
	</node>
	<node id="-91712" lat="61.6451055559" lon="12.114144443">
		<tag k="name" v="Marikroken" />
		<tag k="natural" v="bay" />
		<tag k="ssr:stedsnr" v="301239" />
	</node>
	<node id="-93759" lat="61.6448833343" lon="12.0957833385">
		<tag k="name" v="Tvillingtjønna" />
		<tag k="natural" v="water" />
		<tag k="ssr:stedsnr" v="908288" />
	</node>
	<node id="-91710" lat="61.8218500013" lon="12.0534055492">
		<tag k="name" v="Kløftmyrtjønna" />
		<tag k="natural" v="water" />
		<tag k="ssr:stedsnr" v="301045" />
	</node>
	<node id="-91709" lat="61.8295250037" lon="11.7205944498">
		<tag k="name" v="Ulvåoset" />
		<tag k="natural" v="bay" />
		<tag k="ssr:stedsnr" v="300386" />
	</node>
	<node id="-93753" lat="61.9957277772" lon="11.7779111104">
		<tag k="name" v="Digernestjønnet" />
		<tag k="natural" v="water" />
		<tag k="ssr:stedsnr" v="907077" />
	</node>
	<node id="-91702" lat="61.8693333372" lon="12.1633722188">
		<tag k="name" v="Langsand" />
		<tag k="natural" v="beach" />
		<tag k="ssr:stedsnr" v="299591" />
	</node>
	<node id="-93749" lat="61.737941663" lon="11.9902277685">
		<tag k="name" v="Østvangbekken" />
		<tag k="ssr:stedsnr" v="906711" />
		<tag k="waterway" v="stream" />
	</node>
	<node id="-91699" lat="61.7657916704" lon="11.7181833248">
		<tag k="name" v="Skjærbuloka" />
		<tag k="natural" v="water" />
		<tag k="ssr:stedsnr" v="299205" />
	</node>
	<node id="-91697" lat="62.1485944476" lon="11.8903722308">
		<tag k="name" v="Tjønnoddtjønna" />
		<tag k="natural" v="water" />
		<tag k="ssr:stedsnr" v="298895" />
	</node>
	<node id="-91695" lat="61.6733944415" lon="12.1737138798">
		<tag k="name" v="Buflobekken" />
		<tag k="ssr:stedsnr" v="298866" />
		<tag k="waterway" v="stream" />
	</node>
	<node id="-93742" lat="61.6829083335" lon="12.1674472236">
		<tag k="name" v="Dyrestjønna" />
		<tag k="natural" v="water" />
		<tag k="ssr:stedsnr" v="905922" />
	</node>
	<node id="-91741" lat="62.1161277745" lon="11.8247138957">
		<tag k="alt_name" v="Sollerøya, store" />
		<tag k="name" v="Store Sollerøya" />
		<tag k="place" v="island" />
		<tag k="ssr:stedsnr" v="314283" />
	</node>
	<node id="-91692" lat="61.8051888896" lon="11.7050555606">
		<tag k="name" v="Bjørbekkoset" />
		<tag k="natural" v="bay" />
		<tag k="ssr:stedsnr" v="298791" />
	</node>
	<node id="-91691" lat="61.6682388876" lon="11.7676222234">
		<tag k="name" v="Vestsætertjønna" />
		<tag k="natural" v="water" />
		<tag k="ssr:stedsnr" v="298763" />
	</node>
	<node id="-93738" lat="61.7356472253" lon="11.7506777798">
		<tag k="name" v="Hølbekkfallet" />
		<tag k="ssr:stedsnr" v="905769" />
		<tag k="waterway" v="rapids" />
	</node>
	<node id="-93820" lat="62.0201500036" lon="11.7563749991">
		<tag k="name" v="Bjørnfjordneset" />
		<tag k="natural" v="cape" />
		<tag k="ssr:stedsnr" v="921755" />
	</node>
	<node id="-93736" lat="61.6609083291" lon="12.0102305473">
		<tag k="name" v="Sprengen" />
		<tag k="natural" v="cape" />
		<tag k="ssr:stedsnr" v="905701" />
	</node>
	<node id="-93735" lat="61.6684194481" lon="12.0068416651">
		<tag k="name" v="Gjeldsneset" />
		<tag k="natural" v="cape" />
		<tag k="ssr:stedsnr" v="905699" />
	</node>
	<node id="-93734" lat="61.6722305597" lon="11.9985749962">
		<tag k="name" v="Gjeddvika" />
		<tag k="natural" v="bay" />
		<tag k="ssr:stedsnr" v="905698" />
	</node>
	<node id="-93733" lat="61.9766861089" lon="11.9401694371">
		<tag k="name" v="Langmyrvika" />
		<tag k="natural" v="bay" />
		<tag k="ssr:stedsnr" v="905620" />
	</node>
	<node id="-93730" lat="61.9261222222" lon="11.8784500056">
		<tag k="name" v="Gløtbekken" />
		<tag k="ssr:stedsnr" v="905543" />
		<tag k="waterway" v="stream" />
	</node>
	<node id="-93729" lat="62.0815027794" lon="11.6638083424">
		<tag k="name" v="Elvkroken" />
		<tag k="ssr:stedsnr" v="905519" />
		<tag k="waterway" v="rapids" />
	</node>
	<node id="-91679" lat="61.6479444448" lon="12.0257249907">
		<tag k="name" v="Bærtangen" />
		<tag k="natural" v="cape" />
		<tag k="ssr:stedsnr" v="298204" />
	</node>
	<node id="-93726" lat="62.0853027785" lon="11.7066694491">
		<tag k="name" v="Fantora" />
		<tag k="place" v="islet" />
		<tag k="ssr:stedsnr" v="905390" />
	</node>
	<node id="-93725" lat="62.0242666685" lon="11.7386611067">
		<tag k="name" v="Rørtjønna" />
		<tag k="natural" v="water" />
		<tag k="ssr:stedsnr" v="905369" />
	</node>
	<node id="-93723" lat="62.09198333" lon="11.9483749939">
		<tag k="name" v="Gørrmyrtjønna" />
		<tag k="natural" v="water" />
		<tag k="ssr:stedsnr" v="905296" />
	</node>
	<node id="-91674" lat="62.0755527768" lon="12.0889472295">
		<tag k="name" v="Storholmen" />
		<tag k="place" v="islet" />
		<tag k="ssr:stedsnr" v="298162" />
	</node>
	<node id="-91673" lat="61.6928222212" lon="11.7275138889">
		<tag k="name" v="Skjeftholmen" />
		<tag k="place" v="islet" />
		<tag k="ssr:stedsnr" v="298160" />
	</node>
	<node id="-91672" lat="62.0782861102" lon="12.0824249908">
		<tag k="name" v="Måsåodden" />
		<tag k="natural" v="cape" />
		<tag k="ssr:stedsnr" v="298157" />
	</node>
	<node id="-91671" lat="62.0928416635" lon="11.6406388847">
		<tag k="name" v="Vangstjønna" />
		<tag k="natural" v="water" />
		<tag k="ssr:stedsnr" v="298082" />
	</node>
	<node id="-93718" lat="61.6158527777" lon="12.0184194518">
		<tag k="name" v="Bjønneset" />
		<tag k="natural" v="cape" />
		<tag k="ssr:stedsnr" v="905189" />
	</node>
	<node id="-93715" lat="61.6989238082" lon="11.7174257695">
		<tag k="name" v="Dammen" />
		<tag k="natural" v="water" />
		<tag k="ssr:stedsnr" v="905164" />
		<tag k="water" v="pond" />
	</node>
	<node id="-93714" lat="61.6964472203" lon="11.7213444424">
		<tag k="name" v="Bjørholmen" />
		<tag k="place" v="islet" />
		<tag k="ssr:stedsnr" v="905163" />
	</node>
	<node id="-93713" lat="61.6980902163" lon="11.7221508964">
		<tag k="name" v="Skinnarøya" />
		<tag k="place" v="islet" />
		<tag k="ssr:stedsnr" v="905158" />
	</node>
	<node id="-93711" lat="62.0271444408" lon="11.9783722165">
		<tag k="name" v="Atjønna" />
		<tag k="natural" v="water" />
		<tag k="ssr:stedsnr" v="905149" />
	</node>
	<node id="-93710" lat="61.8779944419" lon="11.9736666683">
		<tag k="name" v="Harrtjønnbekken" />
		<tag k="ssr:stedsnr" v="905139" />
		<tag k="waterway" v="stream" />
	</node>
	<node id="-93709" lat="61.6543083361" lon="11.8207444394">
		<tag k="name" v="Nedre Embretsholmen" />
		<tag k="place" v="islet" />
		<tag k="ssr:stedsnr" v="905122" />
	</node>
	<node id="-93707" lat="62.1837944468" lon="11.8696583275">
		<tag k="name" v="Nordskjeret" />
		<tag k="place" v="islet" />
		<tag k="ssr:stedsnr" v="904169" />
	</node>
	<node id="-93703" lat="61.783791996" lon="11.6676550416">
		<tag k="loc_name" v="Nedre Vikbutjønna" />
		<tag k="name" v="Nordre Vikbutjønna" />
		<tag k="natural" v="water" />
		<tag k="ssr:stedsnr" v="876322" />
	</node>
	<node id="-93700" lat="62.3335500034" lon="11.92769444">
		<tag k="name" v="Fjerdingsvalen" />
		<tag k="natural" v="bay" />
		<tag k="ssr:stedsnr" v="870853" />
	</node>
	<node id="-93698" lat="62.1413499968" lon="11.8949166626">
		<tag k="name" v="Brenthaugtjønna" />
		<tag k="natural" v="water" />
		<tag k="ssr:stedsnr" v="870447" />
		<tag k="water" v="lake" />
	</node>
	<node id="-93695" lat="61.6635249982" lon="11.7999805592">
		<tag k="name" v="Femundselva" />
		<tag k="old_name" v="FæmundsElv" />
		<tag k="ssr:stedsnr" v="870329" />
		<tag k="waterway" v="river" />
	</node>
	<node id="-93694" lat="62.1143500002" lon="11.9263083344">
		<tag k="name" v="Hanstjønna" />
		<tag k="natural" v="water" />
		<tag k="ssr:stedsnr" v="870280" />
	</node>
	<node id="-93691" lat="61.9448111071" lon="11.9850111148">
		<tag k="name" v="Kvemsbekken" />
		<tag k="ssr:stedsnr" v="861896" />
		<tag k="waterway" v="stream" />
	</node>
	<node id="-93690" lat="61.9642027816" lon="12.1026555583">
		<tag k="alt_name" v="Gunnarsjøen, l" />
		<tag k="name" v="Litle Gunnarsjøen" />
		<tag k="natural" v="water" />
		<tag k="ssr:stedsnr" v="861890" />
	</node>
	<node id="-93689" lat="61.9655610576" lon="12.1706612142">
		<tag k="name" v="Staupåa" />
		<tag k="old_name" v="Straupåa" />
		<tag k="ssr:stedsnr" v="861886" />
		<tag k="waterway" v="river" />
	</node>
	<node id="-93686" lat="61.9248305547" lon="12.1802361056">
		<tag k="alt_name" v="Skjervagen, l;Skjervagen;Litlskjervagen" />
		<tag k="name" v="Litle Skjervagen" />
		<tag k="natural" v="water" />
		<tag k="ssr:stedsnr" v="861866" />
		<tag k="water" v="lake" />
	</node>
	<node id="-93682" lat="61.821577781" lon="12.1410861143">
		<tag k="name" v="Gurentjønna" />
		<tag k="natural" v="water" />
		<tag k="ssr:stedsnr" v="861777" />
	</node>
	<node id="-93676" lat="61.7722027799" lon="11.9479611083">
		<tag k="alt_name" v="Engeren, l;Lille Engeren" />
		<tag k="loc_name" v="Vesl-Engeren" />
		<tag k="name" v="Litle Engeren" />
		<tag k="natural" v="water" />
		<tag k="ssr:stedsnr" v="861739" />
		<tag k="water" v="lake" />
	</node>
	<node id="-93675" lat="62.2850666659" lon="11.9105555568">
		<tag k="name" v="Langodden" />
		<tag k="natural" v="cape" />
		<tag k="ssr:stedsnr" v="861721" />
	</node>
	<node id="-93674" lat="62.1870499983" lon="12.2601249947">
		<tag k="name" v="Brunsdalsbekken" />
		<tag k="ssr:stedsnr" v="861704" />
		<tag k="waterway" v="stream" />
	</node>
	<node id="-93673" lat="62.2821527778" lon="12.1306500076">
		<tag k="name" v="Grøtåa" />
		<tag k="ssr:stedsnr" v="861703" />
		<tag k="waterway" v="river" />
	</node>
	<node id="-93671" lat="62.300313888" lon="12.1113916613">
		<tag k="name" v="Korstjønna" />
		<tag k="natural" v="water" />
		<tag k="ssr:stedsnr" v="861566" />
	</node>
	<node id="-93670" lat="62.3040999989" lon="12.1709027856">
		<tag k="name" v="Kløfthåtjønnan" />
		<tag k="natural" v="water" />
		<tag k="ssr:stedsnr" v="861559" />
	</node>
	<node id="-93669" lat="62.3300166683" lon="12.2156749993">
		<tag k="name" v="Litlbuddhåen" />
		<tag k="natural" v="water" />
		<tag k="ssr:stedsnr" v="861540" />
	</node>
	<node id="-93668" lat="62.3102388852" lon="12.156877779">
		<tag k="name" v="Frysihjeltjønna" />
		<tag k="natural" v="water" />
		<tag k="ssr:stedsnr" v="861538" />
	</node>
	<node id="-93664" lat="62.1393666697" lon="12.0145000072">
		<tag k="name" v="Bjørbekken" />
		<tag k="ssr:stedsnr" v="861324" />
		<tag k="waterway" v="stream" />
	</node>
	<node id="-93663" lat="61.9129083313" lon="11.7631305621">
		<tag k="name" v="Sætertjønna" />
		<tag k="natural" v="water" />
		<tag k="ssr:stedsnr" v="860999" />
	</node>
	<node id="-93661" lat="61.7519638927" lon="11.7539333373">
		<tag k="name" v="Molttjønna" />
		<tag k="natural" v="water" />
		<tag k="ssr:stedsnr" v="860928" />
	</node>
	<node id="-93660" lat="61.985933335" lon="11.9140916726">
		<tag k="name" v="Svartodden" />
		<tag k="natural" v="cape" />
		<tag k="ssr:stedsnr" v="860917" />
	</node>
	<node id="-93659" lat="61.9919555589" lon="11.8837277728">
		<tag k="name" v="Storbuvika" />
		<tag k="natural" v="bay" />
		<tag k="ssr:stedsnr" v="860915" />
	</node>
	<node id="-93658" lat="61.979508337" lon="12.0257861137">
		<tag k="name" v="Stormyrbekken" />
		<tag k="ssr:stedsnr" v="860911" />
		<tag k="waterway" v="stream" />
	</node>
	<node id="-91727" lat="61.6752555585" lon="12.0904611111">
		<tag k="name" v="Storsteinbekken" />
		<tag k="ssr:stedsnr" v="313653" />
		<tag k="waterway" v="stream" />
	</node>
	<node id="-91841" lat="61.7424027801" lon="11.6622805577">
		<tag k="name" v="Styggdalstjønna" />
		<tag k="natural" v="water" />
		<tag k="ssr:stedsnr" v="359933" />
	</node>
	<node id="-93644" lat="62.1782972236" lon="12.1355611068">
		<tag k="name" v="Stortjønn" />
		<tag k="natural" v="water" />
		<tag k="ssr:stedsnr" v="860424" />
	</node>
	<node id="-93638" lat="62.0763666646" lon="12.0864333325">
		<tag k="name" v="Fjellgutusjøen" />
		<tag k="natural" v="water" />
		<tag k="ssr:stedsnr" v="860348" />
		<tag k="water" v="lake" />
	</node>
	<node id="-93636" lat="61.7120638889" lon="11.6998916669">
		<tag k="name" v="Sæterbuvika" />
		<tag k="place" v="locality" />
		<tag k="ssr:stedsnr" v="860313" />
	</node>
	<node id="-93635" lat="62.0810944458" lon="12.1722777794">
		<tag k="name" v="Vassbekken" />
		<tag k="ssr:stedsnr" v="860314" />
		<tag k="waterway" v="stream" />
	</node>
	<node id="-93634" lat="61.7106058745" lon="11.753954359">
		<tag k="alt_name" v="Tryslingbubekken" />
		<tag k="name" v="Slåttbekken" />
		<tag k="ssr:stedsnr" v="860312" />
		<tag k="waterway" v="stream" />
	</node>
	<node id="-93632" lat="62.1094499964" lon="12.0487888907">
		<tag k="name" v="Litl-Elgsjøtjønna" />
		<tag k="natural" v="water" />
		<tag k="ssr:stedsnr" v="860298" />
	</node>
	<node id="-93631" lat="61.9147777764" lon="11.7872805623">
		<tag k="name" v="Isterendholmen" />
		<tag k="place" v="islet" />
		<tag k="ssr:stedsnr" v="860132" />
	</node>
	<node id="-93630" lat="61.6225472209" lon="12.1030055468">
		<tag k="name" v="Storbekken" />
		<tag k="ssr:stedsnr" v="859634" />
		<tag k="waterway" v="stream" />
	</node>
	<node id="-93628" lat="61.7446888894" lon="11.6882999961">
		<tag k="alt_name" v="Stenbekken" />
		<tag k="name" v="Steinbekken" />
		<tag k="ssr:stedsnr" v="859231" />
		<tag k="waterway" v="stream" />
	</node>
	<node id="-93627" lat="61.8547805574" lon="12.0301000072">
		<tag k="name" v="Stortjønna" />
		<tag k="natural" v="water" />
		<tag k="ssr:stedsnr" v="848056" />
	</node>
	<node id="-93621" lat="61.8258638874" lon="11.7179138966">
		<tag k="name" v="Fanigodden" />
		<tag k="natural" v="cape" />
		<tag k="ssr:stedsnr" v="847408" />
	</node>
	<node id="-93617" lat="61.6564944457" lon="12.1476027796">
		<tag k="name" v="Benvegfloen" />
		<tag k="natural" v="water" />
		<tag k="ssr:stedsnr" v="845997" />
	</node>
	<node id="-93613" lat="62.1384722215" lon="11.8925527849">
		<tag k="name" v="Brenthaugvika" />
		<tag k="natural" v="bay" />
		<tag k="ssr:stedsnr" v="845928" />
	</node>
	<node id="-93611" lat="61.6745111146" lon="12.1708222188">
		<tag k="name" v="Bufloen" />
		<tag k="natural" v="water" />
		<tag k="ssr:stedsnr" v="845914" />
		<tag k="water" v="lake" />
	</node>
	<node id="-93609" lat="61.7839611134" lon="11.6424166671">
		<tag k="name" v="Fløtfossen" />
		<tag k="natural" v="waterfall" />
		<tag k="ssr:stedsnr" v="845830" />
	</node>
	<node id="-93608" lat="61.7712027791" lon="11.6800583286">
		<tag k="name" v="Stormyrbekken" />
		<tag k="ssr:stedsnr" v="845826" />
		<tag k="waterway" v="stream" />
	</node>
	<node id="-93600" lat="61.8748305545" lon="12.1323111152">
		<tag k="name" v="Froskvikneset" />
		<tag k="natural" v="cape" />
		<tag k="ssr:stedsnr" v="845638" />
	</node>
	<node id="-93599" lat="61.9685277776" lon="11.9436777841">
		<tag k="name" v="Lomtjønna" />
		<tag k="natural" v="water" />
		<tag k="ssr:stedsnr" v="845588" />
	</node>
	<node id="-93598" lat="61.9296444461" lon="11.8994277822">
		<tag k="name" v="Bjertodden" />
		<tag k="natural" v="cape" />
		<tag k="ssr:stedsnr" v="845568" />
	</node>
	<node id="-93597" lat="62.0816722259" lon="11.6717722311">
		<tag k="name" v="Holmen" />
		<tag k="place" v="islet" />
		<tag k="ssr:stedsnr" v="845540" />
	</node>
	<node id="-93594" lat="62.0740277774" lon="11.6597055557">
		<tag k="name" v="Litlbubekken" />
		<tag k="ssr:stedsnr" v="845516" />
		<tag k="waterway" v="stream" />
	</node>
	<node id="-93591" lat="61.8460527783" lon="11.9473000035">
		<tag k="name" v="Djupdalsbekken" />
		<tag k="ssr:stedsnr" v="845279" />
		<tag k="waterway" v="stream" />
	</node>
	<node id="-93588" lat="61.7660805593" lon="11.7398777767">
		<tag k="name" v="Stenbekktjønna" />
		<tag k="natural" v="water" />
		<tag k="ssr:stedsnr" v="845205" />
	</node>
	<node id="-93584" lat="61.7703472178" lon="11.9723638945">
		<tag k="name" v="Orreggbekken" />
		<tag k="ssr:stedsnr" v="845165" />
		<tag k="waterway" v="stream" />
	</node>
	<node id="-93583" lat="62.1453833294" lon="11.9506333269">
		<tag k="name" v="Treelvhølen" />
		<tag k="place" v="locality" />
		<tag k="ssr:stedsnr" v="845115" />
	</node>
	<node id="-93580" lat="61.686122218" lon="12.1684027763">
		<tag k="name" v="Røgullaugtjønna" />
		<tag k="natural" v="water" />
		<tag k="ssr:stedsnr" v="844921" />
	</node>
	<node id="-93578" lat="62.0465472195" lon="11.7820333426">
		<tag k="name" v="Bjøntholmen" />
		<tag k="place" v="islet" />
		<tag k="ssr:stedsnr" v="844374" />
	</node>
	<node id="-93577" lat="61.8438250007" lon="11.9203611053">
		<tag k="name" v="Skaftbekken" />
		<tag k="ssr:stedsnr" v="844363" />
		<tag k="waterway" v="stream" />
	</node>
	<node id="-93576" lat="62.0127416701" lon="11.6953888847">
		<tag k="name" v="Slaggtjønna" />
		<tag k="natural" v="water" />
		<tag k="ssr:stedsnr" v="844358" />
	</node>
	<node id="-93575" lat="62.0097944447" lon="11.6779083374">
		<tag k="name" v="Pulltjønna" />
		<tag k="natural" v="water" />
		<tag k="ssr:stedsnr" v="844336" />
	</node>
	<node id="-93573" lat="61.699075004" lon="11.7074833299">
		<tag k="name" v="Fisktjønnan" />
		<tag k="natural" v="water" />
		<tag k="ssr:stedsnr" v="844174" />
	</node>
	<node id="-91770" lat="61.8240444453" lon="12.0989138953">
		<tag k="name" v="Stubbanetjønna" />
		<tag k="natural" v="water" />
		<tag k="ssr:stedsnr" v="314813" />
	</node>
	<node id="-91711" lat="61.6372083351" lon="12.0803416729">
		<tag k="name" v="Kjellmyrtjønna" />
		<tag k="natural" v="water" />
		<tag k="ssr:stedsnr" v="301236" />
	</node>
	<node id="-93559" lat="62.2664194476" lon="11.9081416578">
		<tag k="name" v="Munkfotskjæra" />
		<tag k="place" v="islet" />
		<tag k="ssr:stedsnr" v="809869" />
	</node>
	<node id="-93558" lat="62.243825003" lon="11.8914222174">
		<tag k="name" v="Anstubbodden" />
		<tag k="natural" v="cape" />
		<tag k="ssr:stedsnr" v="809479" />
	</node>
	<node id="-93556" lat="61.7260000038" lon="12.0177138838">
		<tag k="name" v="Hestbekken" />
		<tag k="ssr:stedsnr" v="809298" />
		<tag k="waterway" v="stream" />
	</node>
	<node id="-93551" lat="61.9874611101" lon="12.0629444502">
		<tag k="name" v="Storflotjønna" />
		<tag k="natural" v="water" />
		<tag k="ssr:stedsnr" v="800908" />
	</node>
	<node id="-93550" lat="61.9766666703" lon="11.8856388948">
		<tag k="name" v="Harrbekkvika" />
		<tag k="natural" v="bay" />
		<tag k="ssr:stedsnr" v="800893" />
	</node>
	<node id="-93549" lat="61.9691347947" lon="12.0943170507">
		<tag k="alt_name" v="Gunnarsjøen, store" />
		<tag k="name" v="Store Gunnarsjøen" />
		<tag k="natural" v="water" />
		<tag k="ssr:stedsnr" v="800890" />
		<tag k="water" v="lake" />
	</node>
	<node id="-93546" lat="61.9428694413" lon="11.9105555626">
		<tag k="name" v="Smalodden" />
		<tag k="natural" v="cape" />
		<tag k="ssr:stedsnr" v="800867" />
	</node>
	<node id="-93545" lat="61.8907583303" lon="11.9316833259">
		<tag k="name" v="Lomtjønna" />
		<tag k="natural" v="water" />
		<tag k="ssr:stedsnr" v="800831" />
	</node>
	<node id="-93538" lat="61.7953777797" lon="12.1079833252">
		<tag k="alt_name" v="Storsvarttjønna" />
		<tag k="name" v="Svarttjønna" />
		<tag k="natural" v="water" />
		<tag k="ssr:stedsnr" v="800738" />
	</node>
	<node id="-93537" lat="62.3201861113" lon="12.0896166579">
		<tag k="name" v="Vassviktjønna" />
		<tag k="natural" v="water" />
		<tag k="ssr:stedsnr" v="800564" />
	</node>
	<node id="-93535" lat="62.1412027785" lon="11.9608805633">
		<tag k="name" v="Elgåa" />
		<tag k="ssr:stedsnr" v="800348" />
		<tag k="waterway" v="river" />
	</node>
	<node id="-93534" lat="62.0331361119" lon="11.7647166688">
		<tag k="name" v="Vikøyane" />
		<tag k="place" v="islet" />
		<tag k="ssr:stedsnr" v="800301" />
	</node>
	<node id="-93532" lat="62.0428250008" lon="12.1365194506">
		<tag k="name" v="Stormikkelbekken" />
		<tag k="ssr:stedsnr" v="800297" />
		<tag k="waterway" v="stream" />
	</node>
	<node id="-93528" lat="61.7702365448" lon="11.7253049792">
		<tag k="fixme" v="multiple name tags, choose one and add the other to alt_name" />
		<tag k="name" v="Ingartjønna;Steinbekktjønna" />
		<tag k="natural" v="water" />
		<tag k="ssr:stedsnr" v="799937" />
	</node>
	<node id="-93523" lat="61.7762249965" lon="12.1352583372">
		<tag k="name" v="Starrtjønnan" />
		<tag k="natural" v="water" />
		<tag k="ssr:stedsnr" v="799780" />
	</node>
	<node id="-93522" lat="61.7391999981" lon="12.0993361116">
		<tag k="name" v="Hognsjøen" />
		<tag k="natural" v="water" />
		<tag k="ssr:stedsnr" v="799772" />
		<tag k="water" v="lake" />
	</node>
	<node id="-93521" lat="61.7130250017" lon="11.9618805646">
		<tag k="alt_name" v="Leråa" />
		<tag k="name" v="Lera" />
		<tag k="ssr:stedsnr" v="799765" />
		<tag k="waterway" v="river" />
	</node>
	<node id="-93517" lat="61.6759000028" lon="11.9500750075">
		<tag k="name" v="Litlåsbekken" />
		<tag k="ssr:stedsnr" v="799748" />
		<tag k="waterway" v="stream" />
	</node>
	<node id="-93512" lat="62.2497194438" lon="11.9425444369">
		<tag k="name" v="Langneset" />
		<tag k="natural" v="cape" />
		<tag k="ssr:stedsnr" v="799445" />
	</node>
	<node id="-93511" lat="61.6710500005" lon="11.8356722174">
		<tag k="name" v="Kvernbekken" />
		<tag k="ssr:stedsnr" v="799377" />
		<tag k="waterway" v="stream" />
	</node>
	<node id="-93507" lat="61.6926194432" lon="11.6926138944">
		<tag k="name" v="Kvernbekken" />
		<tag k="ssr:stedsnr" v="799365" />
		<tag k="waterway" v="stream" />
	</node>
	<node id="-93505" lat="62.2360416635" lon="11.9430638822">
		<tag k="name" v="Revlingsholman" />
		<tag k="place" v="islet" />
		<tag k="ssr:stedsnr" v="799347" />
	</node>
	<node id="-93500" lat="61.8314638877" lon="11.770005556">
		<tag k="name" v="Ulvåa" />
		<tag k="ssr:stedsnr" v="799143" />
		<tag k="waterway" v="river" />
	</node>
	<node id="-93499" lat="61.7991750012" lon="11.8888722207">
		<tag k="name" v="Storbekken" />
		<tag k="ssr:stedsnr" v="799141" />
		<tag k="waterway" v="stream" />
	</node>
	<node id="-93498" lat="61.6667138857" lon="12.1676138825">
		<tag k="name" v="Flyet" />
		<tag k="place" v="locality" />
		<tag k="ssr:stedsnr" v="798614" />
	</node>
	<node id="-93497" lat="62.1600694469" lon="12.2480361019">
		<tag k="name" v="Gammelbuvika" />
		<tag k="natural" v="bay" />
		<tag k="ssr:stedsnr" v="796720" />
	</node>
	<node id="-93495" lat="61.6530055574" lon="12.0922611164">
		<tag k="alt_name" v="Stor-Olabekken" />
		<tag k="name" v="Storolabekken" />
		<tag k="ssr:stedsnr" v="798602" />
		<tag k="waterway" v="stream" />
	</node>
	<node id="-93494" lat="61.6572583324" lon="12.0520805499">
		<tag k="name" v="Hylla" />
		<tag k="ssr:stedsnr" v="798600" />
		<tag k="waterway" v="stream" />
	</node>
	<node id="-93492" lat="61.6696972251" lon="12.1869555579">
		<tag k="name" v="Damkjølen" />
		<tag k="place" v="locality" />
		<tag k="ssr:stedsnr" v="798597" />
	</node>
	<node id="-93488" lat="61.6394638873" lon="12.0280499944">
		<tag k="name" v="Tømmervika" />
		<tag k="natural" v="bay" />
		<tag k="ssr:stedsnr" v="787263" />
	</node>
	<node id="-93486" lat="61.8825638876" lon="12.0162888874">
		<tag k="name" v="Hyttelva" />
		<tag k="ssr:stedsnr" v="787027" />
		<tag k="waterway" v="river" />
	</node>
	<node id="-93477" lat="61.9677694433" lon="11.8950305648">
		<tag k="name" v="Furuodden" />
		<tag k="natural" v="cape" />
		<tag k="ssr:stedsnr" v="784874" />
	</node>
	<node id="-93475" lat="62.1118999959" lon="12.0366666627">
		<tag k="name" v="Litle Elgsjøbekken" />
		<tag k="ssr:stedsnr" v="784804" />
		<tag k="waterway" v="stream" />
	</node>
	<node id="-93473" lat="61.7110499977" lon="11.7055805473">
		<tag k="name" v="Froskloken" />
		<tag k="natural" v="water" />
		<tag k="ssr:stedsnr" v="784782" />
		<tag k="water" v="pond" />
	</node>
	<node id="-91767" lat="61.8459083309" lon="12.0358055582">
		<tag k="name" v="Sandtjønna" />
		<tag k="natural" v="water" />
		<tag k="ssr:stedsnr" v="314800" />
	</node>
	<node id="-93470" lat="62.1588222265" lon="12.2623666627">
		<tag k="name" v="Fiskodden" />
		<tag k="natural" v="cape" />
		<tag k="ssr:stedsnr" v="784739" />
	</node>
	<node id="-93465" lat="61.7696888906" lon="12.1457277711">
		<tag k="name" v="Per Halvorsabekken" />
		<tag k="ssr:stedsnr" v="784614" />
		<tag k="waterway" v="stream" />
	</node>
	<node id="-93464" lat="61.8647527771" lon="12.1644583379">
		<tag k="name" v="Sjøendtjønna" />
		<tag k="natural" v="water" />
		<tag k="ssr:stedsnr" v="784599" />
	</node>
	<node id="-93460" lat="62.1714833345" lon="11.954619443">
		<tag k="name" v="Smårøstbekken" />
		<tag k="ssr:stedsnr" v="784466" />
		<tag k="waterway" v="stream" />
	</node>
	<node id="-91694" lat="62.063355555" lon="12.0952333275">
		<tag k="name" v="Sundet" />
		<tag k="natural" v="strait" />
		<tag k="ssr:stedsnr" v="298817" />
	</node>
	<node id="-93458" lat="61.7809722236" lon="11.9176555468">
		<tag k="name" v="Kvannbekken" />
		<tag k="ssr:stedsnr" v="784347" />
		<tag k="waterway" v="stream" />
	</node>
	<node id="-93456" lat="61.9918055572" lon="11.986591667">
		<tag k="name" v="Mortloken" />
		<tag k="natural" v="water" />
		<tag k="ssr:stedsnr" v="784144" />
	</node>
	<node id="-93455" lat="61.9770555556" lon="11.9923083244">
		<tag k="name" v="Åborhølet" />
		<tag k="natural" v="water" />
		<tag k="ssr:stedsnr" v="784141" />
		<tag k="water" v="pond" />
	</node>
	<node id="-93452" lat="62.1148027762" lon="11.6584861115">
		<tag k="name" v="Brubakkhåen" />
		<tag k="natural" v="water" />
		<tag k="ssr:stedsnr" v="784030" />
		<tag k="water" v="lake" />
	</node>
	<node id="-93448" lat="61.6860333351" lon="11.7725638961">
		<tag k="name" v="Kvaneshallbekken" />
		<tag k="ssr:stedsnr" v="783146" />
		<tag k="waterway" v="stream" />
	</node>
	<node id="-93446" lat="62.1714444486" lon="11.8500722209">
		<tag k="name" v="Nessodden" />
		<tag k="natural" v="cape" />
		<tag k="ssr:stedsnr" v="782194" />
	</node>
	<node id="-93445" lat="61.6430638928" lon="11.8289333332">
		<tag k="name" v="Småbekka" />
		<tag k="ssr:stedsnr" v="777116" />
		<tag k="waterway" v="stream" />
	</node>
	<node id="-93435" lat="62.2721499971" lon="12.1744805611">
		<tag k="name" v="Halvkoitjønna" />
		<tag k="natural" v="water" />
		<tag k="ssr:stedsnr" v="740656" />
	</node>
	<node id="-93434" lat="62.2568277758" lon="12.2151861056">
		<tag k="name" v="Rundhåtjønna" />
		<tag k="natural" v="water" />
		<tag k="ssr:stedsnr" v="740654" />
	</node>
	<node id="-93432" lat="61.8968083313" lon="11.7513333344">
		<tag k="name" v="Holmen" />
		<tag k="place" v="islet" />
		<tag k="ssr:stedsnr" v="739979" />
	</node>
	<node id="-93737" lat="62.0743194472" lon="12.2185222215">
		<tag k="name" v="Granmyrbekken" />
		<tag k="ssr:stedsnr" v="905719" />
		<tag k="waterway" v="stream" />
	</node>
	<node id="-93426" lat="61.8289833363" lon="11.9888083415">
		<tag k="name" v="Hovdtjønna" />
		<tag k="natural" v="water" />
		<tag k="ssr:stedsnr" v="739812" />
	</node>
	<node id="-93422" lat="61.7791083336" lon="12.1083694431">
		<tag k="alt_name" v="Sømmeltjønna" />
		<tag k="name" v="Litle Sømmeltjønna" />
		<tag k="natural" v="water" />
		<tag k="ssr:stedsnr" v="739781" />
	</node>
	<node id="-93421" lat="62.0057472184" lon="11.9254611176">
		<tag k="name" v="Froskvika" />
		<tag k="natural" v="bay" />
		<tag k="ssr:stedsnr" v="739748" />
	</node>
	<node id="-93419" lat="62.0112861112" lon="12.0193305578">
		<tag k="name" v="Åstjønna" />
		<tag k="natural" v="water" />
		<tag k="ssr:stedsnr" v="739743" />
	</node>
	<node id="-93417" lat="62.0340694436" lon="12.1316972271">
		<tag k="name" v="Gutulitjønna" />
		<tag k="natural" v="water" />
		<tag k="ssr:stedsnr" v="739735" />
	</node>
	<node id="-93416" lat="62.3011305595" lon="11.9112777733">
		<tag k="name" v="Leirvika" />
		<tag k="natural" v="bay" />
		<tag k="ssr:stedsnr" v="739593" />
	</node>
	<node id="-93413" lat="62.1473194488" lon="11.8813805494">
		<tag k="name" v="Tjønnodden" />
		<tag k="natural" v="cape" />
		<tag k="ssr:stedsnr" v="739358" />
	</node>
	<node id="-93412" lat="62.1741111133" lon="11.9706305647">
		<tag k="name" v="Sagbekken" />
		<tag k="ssr:stedsnr" v="739342" />
		<tag k="waterway" v="stream" />
	</node>
	<node id="-91686" lat="61.9202361126" lon="11.9156861129">
		<tag k="name" v="Enbekken" />
		<tag k="ssr:stedsnr" v="298529" />
		<tag k="waterway" v="stream" />
	</node>
	<node id="-93409" lat="62.162883335" lon="11.7792083306">
		<tag k="alt_name" v="Litjdalsbekken" />
		<tag k="name" v="Litledalsbekken" />
		<tag k="ssr:stedsnr" v="739319" />
		<tag k="waterway" v="stream" />
	</node>
	<node id="-93408" lat="62.1547861111" lon="11.8635416741">
		<tag k="name" v="Vestholman" />
		<tag k="place" v="islet" />
		<tag k="ssr:stedsnr" v="739317" />
	</node>
	<node id="-93405" lat="62.2274972204" lon="11.8791083282">
		<tag k="name" v="Langodden" />
		<tag k="natural" v="cape" />
		<tag k="ssr:stedsnr" v="739296" />
	</node>
	<node id="-93402" lat="62.039869447" lon="12.0883055614">
		<tag k="name" v="Yttersjøen" />
		<tag k="natural" v="water" />
		<tag k="ssr:stedsnr" v="739283" />
	</node>
	<node id="-93399" lat="62.1203777735" lon="11.9579833423">
		<tag k="name" v="Volsjøen" />
		<tag k="natural" v="water" />
		<tag k="ssr:stedsnr" v="739255" />
		<tag k="water" v="lake" />
	</node>
	<node id="-93398" lat="62.1402749976" lon="11.7777749907">
		<tag k="name" v="Skåvårodden" />
		<tag k="natural" v="cape" />
		<tag k="ssr:stedsnr" v="739250" />
	</node>
	<node id="-93396" lat="61.9412472216" lon="11.7949750063">
		<tag k="name" v="Sundholmen" />
		<tag k="place" v="islet" />
		<tag k="ssr:stedsnr" v="739104" />
	</node>
	<node id="-93395" lat="61.9443361103" lon="11.7599055605">
		<tag k="name" v="Hjellkåsbekken" />
		<tag k="ssr:stedsnr" v="739101" />
		<tag k="waterway" v="stream" />
	</node>
	<node id="-93394" lat="61.9666111147" lon="11.7769583274">
		<tag k="name" v="Svalholmen" />
		<tag k="place" v="islet" />
		<tag k="ssr:stedsnr" v="739089" />
	</node>
	<node id="-93393" lat="61.9982416691" lon="11.7138194361">
		<tag k="name" v="Ormutusjøen" />
		<tag k="natural" v="water" />
		<tag k="ssr:stedsnr" v="739078" />
	</node>
	<node id="-93388" lat="61.872072221" lon="12.0399111054">
		<tag k="name" v="Rotbotntjønna" />
		<tag k="natural" v="water" />
		<tag k="ssr:stedsnr" v="738849" />
	</node>
	<node id="-91682" lat="61.9077305596" lon="11.8781694449">
		<tag k="name" v="Kløftebekken" />
		<tag k="ssr:stedsnr" v="298392" />
		<tag k="waterway" v="stream" />
	</node>
	<node id="-93810" lat="62.1466493892" lon="11.9224118198">
		<tag k="alt_name" v="Smålokan" />
		<tag k="name" v="Hanstjønnan" />
		<tag k="natural" v="water" />
		<tag k="ssr:stedsnr" v="921401" />
	</node>
	<node id="-93385" lat="61.7009055589" lon="12.0617138897">
		<tag k="name" v="Storbekken" />
		<tag k="ssr:stedsnr" v="738740" />
		<tag k="waterway" v="stream" />
	</node>
	<node id="-93382" lat="61.7302861135" lon="11.9903499973">
		<tag k="name" v="Langgolvbekken" />
		<tag k="ssr:stedsnr" v="738702" />
		<tag k="waterway" v="stream" />
	</node>
	<node id="-91858" lat="61.6749083371" lon="12.0059249975">
		<tag k="name" v="Nothangvarpet" />
		<tag k="natural" v="bay" />
		<tag k="ssr:stedsnr" v="177711" />
	</node>
	<node id="-93378" lat="61.6740999958" lon="12.0506583362">
		<tag k="alt_name" v="Litl-Hyllsjøen" />
		<tag k="name" v="Litlhyllsjøen" />
		<tag k="natural" v="water" />
		<tag k="ssr:stedsnr" v="738655" />
	</node>
	<node id="-93376" lat="61.6560444477" lon="11.9493166732">
		<tag k="alt_name" v="Vesterbekken" />
		<tag k="name" v="Vestrebekken" />
		<tag k="ssr:stedsnr" v="738635" />
		<tag k="waterway" v="stream" />
	</node>
	<node id="-93369" lat="62.07239444" lon="11.9681916707">
		<tag k="name" v="Rundtjønna" />
		<tag k="natural" v="water" />
		<tag k="ssr:stedsnr" v="738282" />
	</node>
	<node id="-93368" lat="62.1226055569" lon="12.0108999974">
		<tag k="name" v="Litl-Elgåsjøen" />
		<tag k="natural" v="water" />
		<tag k="ssr:stedsnr" v="738269" />
	</node>
	<node id="-93367" lat="61.7283555576" lon="11.6847555602">
		<tag k="name" v="Bjørkøyfloen" />
		<tag k="natural" v="water" />
		<tag k="ssr:stedsnr" v="738264" />
		<tag k="water" v="lake" />
	</node>
	<node id="-93360" lat="61.7870972193" lon="12.0984361095">
		<tag k="name" v="Vattentjønna" />
		<tag k="natural" v="water" />
		<tag k="ssr:stedsnr" v="726045" />
	</node>
	<node id="-93358" lat="61.719886115" lon="11.6832305483">
		<tag k="name" v="Gørsildtjønna" />
		<tag k="natural" v="water" />
		<tag k="ssr:stedsnr" v="725911" />
	</node>
	<node id="-93357" lat="61.8799944462" lon="11.7460222266">
		<tag k="name" v="Kvernhusvika" />
		<tag k="natural" v="bay" />
		<tag k="ssr:stedsnr" v="725348" />
	</node>
	<node id="-93356" lat="61.9960555527" lon="12.0627388826">
		<tag k="name" v="Trifjerdingsloken" />
		<tag k="natural" v="water" />
		<tag k="ssr:stedsnr" v="725092" />
		<tag k="water" v="pond" />
	</node>
	<node id="-93354" lat="62.1358111102" lon="11.90928612">
		<tag k="name" v="Slått-tjønna" />
		<tag k="natural" v="water" />
		<tag k="ssr:stedsnr" v="723893" />
	</node>
	<node id="-93352" lat="61.6638583311" lon="11.792211113">
		<tag k="name" v="Nybuholmen" />
		<tag k="place" v="islet" />
		<tag k="ssr:stedsnr" v="723768" />
	</node>
	<node id="-93350" lat="61.7319777798" lon="11.7802166726">
		<tag k="name" v="Ivarbekken" />
		<tag k="ssr:stedsnr" v="723748" />
		<tag k="waterway" v="stream" />
	</node>
	<node id="-93349" lat="61.6498111074" lon="11.9832527723">
		<tag k="name" v="Østre Lekjenna" />
		<tag k="ssr:stedsnr" v="723714" />
		<tag k="waterway" v="stream" />
	</node>
	<node id="-93346" lat="62.062236115" lon="12.1538444387">
		<tag k="name" v="Brennmyra" />
		<tag k="ssr:stedsnr" v="723698" />
		<tag k="waterway" v="stream" />
	</node>
	<node id="-93344" lat="61.8698500006" lon="12.1763055619">
		<tag k="name" v="Fløtningsjøen" />
		<tag k="natural" v="water" />
		<tag k="ssr:stedsnr" v="723568" />
		<tag k="water" v="lake" />
	</node>
	<node id="-93342" lat="61.6556861081" lon="12.1437222306">
		<tag k="name" v="Røløfloen" />
		<tag k="natural" v="water" />
		<tag k="ssr:stedsnr" v="723974" />
	</node>
	<node id="-93340" lat="62.0142694436" lon="11.7839999976">
		<tag k="name" v="Måsåbekken" />
		<tag k="ssr:stedsnr" v="723395" />
		<tag k="waterway" v="stream" />
	</node>
	<node id="-93339" lat="62.0239555552" lon="11.7363000008">
		<tag k="name" v="Rørtjønnodden" />
		<tag k="natural" v="cape" />
		<tag k="ssr:stedsnr" v="723376" />
	</node>
	<node id="-93335" lat="62.0102416666" lon="11.6711055539">
		<tag k="name" v="Nestjønna" />
		<tag k="natural" v="water" />
		<tag k="ssr:stedsnr" v="723354" />
	</node>
	<node id="-93330" lat="61.6974474347" lon="11.7183618915">
		<tag k="name" v="Markholmen" />
		<tag k="place" v="islet" />
		<tag k="ssr:stedsnr" v="723166" />
	</node>
	<node id="-93328" lat="61.6560638927" lon="12.03218889">
		<tag k="name" v="Svartåsbekken" />
		<tag k="ssr:stedsnr" v="723215" />
		<tag k="waterway" v="stream" />
	</node>
	<node id="-93326" lat="62.0974722259" lon="11.6680055559">
		<tag k="name" v="Litlholmen" />
		<tag k="place" v="islet" />
		<tag k="ssr:stedsnr" v="723040" />
	</node>
	<node id="-93322" lat="61.8830027818" lon="11.9846388947">
		<tag k="name" v="Sørsjøsundet" />
		<tag k="natural" v="strait" />
		<tag k="ssr:stedsnr" v="723136" />
	</node>
	<node id="-93320" lat="62.1498472237" lon="11.6248916679">
		<tag k="name" v="Langvika" />
		<tag k="natural" v="bay" />
		<tag k="ssr:stedsnr" v="721876" />
	</node>
	<node id="-93316" lat="61.6832361145" lon="12.0578305634">
		<tag k="name" v="Langegga" />
		<tag k="natural" v="cape" />
		<tag k="ssr:stedsnr" v="709248" />
	</node>
	<node id="-93308" lat="62.0320333358" lon="11.7284027858">
		<tag k="name" v="Nordre Tjønsodden" />
		<tag k="natural" v="cape" />
		<tag k="ssr:stedsnr" v="707102" />
	</node>
	<node id="-93306" lat="62.1253111116" lon="11.5747750012">
		<tag k="name" v="Sæterbekken" />
		<tag k="ssr:stedsnr" v="695840" />
		<tag k="waterway" v="stream" />
	</node>
	<node id="-93305" lat="61.8241944441" lon="11.9872611057">
		<tag k="name" v="Kuhølbekken" />
		<tag k="ssr:stedsnr" v="693207" />
		<tag k="waterway" v="stream" />
	</node>
	<node id="-93301" lat="62.2697638863" lon="12.2211777785">
		<tag k="name" v="Stortjønna" />
		<tag k="natural" v="water" />
		<tag k="ssr:stedsnr" v="679659" />
	</node>
	<node id="-93299" lat="62.2959250033" lon="11.9089805591">
		<tag k="name" v="Tolgebotnet" />
		<tag k="natural" v="bay" />
		<tag k="ssr:stedsnr" v="679546" />
	</node>
	<node id="-93298" lat="62.3326750018" lon="12.0721416641">
		<tag k="name" v="Nedre Roasten" />
		<tag k="natural" v="water" />
		<tag k="ssr:stedsnr" v="679533" />
		<tag k="water" v="lake" />
	</node>
	<node id="-93297" lat="62.3229666686" lon="11.8445500073">
		<tag k="name" v="Tvillingtjønnan" />
		<tag k="natural" v="water" />
		<tag k="ssr:stedsnr" v="679531" />
	</node>
	<node id="-93296" lat="62.3192027743" lon="12.05282778">
		<tag k="name" v="Abbortjønna" />
		<tag k="natural" v="water" />
		<tag k="ssr:stedsnr" v="679526" />
	</node>
	<node id="-93290" lat="61.9918027803" lon="11.9831611087">
		<tag k="name" v="Langtjønna" />
		<tag k="natural" v="water" />
		<tag k="ssr:stedsnr" v="678907" />
	</node>
	<node id="-93288" lat="61.9978416663" lon="12.0731777807">
		<tag k="name" v="Jakobstjønna" />
		<tag k="natural" v="water" />
		<tag k="ssr:stedsnr" v="678897" />
	</node>
	<node id="-91665" lat="61.6451500006" lon="12.0147416722">
		<tag k="name" v="Lekjennvika" />
		<tag k="natural" v="bay" />
		<tag k="ssr:stedsnr" v="284281" />
	</node>
	<node id="-93284" lat="61.9354166695" lon="11.9089166683">
		<tag k="alt_name" v="Gløtsund, s" />
		<tag k="name" v="Søndre Gløtsund" />
		<tag k="natural" v="strait" />
		<tag k="ssr:stedsnr" v="678863" />
	</node>
	<node id="-93283" lat="61.9388658598" lon="11.8967244399">
		<tag k="alt_name" v="Gløtsund, nordre;Nordre Gløtsundet" />
		<tag k="name" v="Nordre Gløtsund" />
		<tag k="natural" v="strait" />
		<tag k="ssr:stedsnr" v="678859" />
	</node>
	<node id="-93279" lat="61.8861487028" lon="11.9704376345">
		<tag k="name" v="Sørsjøen" />
		<tag k="natural" v="water" />
		<tag k="ssr:stedsnr" v="678825" />
		<tag k="water" v="lake" />
	</node>
	<node id="-93276" lat="61.8731222265" lon="11.8536972247">
		<tag k="name" v="Simonsbekken" />
		<tag k="ssr:stedsnr" v="678816" />
		<tag k="waterway" v="stream" />
	</node>
	<node id="-91663" lat="61.7659972178" lon="11.9507638893">
		<tag k="name" v="Hestodden" />
		<tag k="natural" v="cape" />
		<tag k="ssr:stedsnr" v="283988" />
	</node>
	<node id="-93269" lat="62.0359166703" lon="12.0911750075">
		<tag k="name" v="Skjefthåen" />
		<tag k="natural" v="water" />
		<tag k="ssr:stedsnr" v="678728" />
	</node>
	<node id="-93268" lat="62.0373638894" lon="12.2130194473">
		<tag k="name" v="Valsjøen" />
		<tag k="natural" v="water" />
		<tag k="ssr:stedsnr" v="678724" />
	</node>
	<node id="-93266" lat="62.0439111122" lon="12.2056027813">
		<tag k="name" v="Vala" />
		<tag k="ssr:stedsnr" v="678717" />
		<tag k="waterway" v="river" />
	</node>
	<node id="-93264" lat="62.0057972181" lon="11.7160583326">
		<tag k="name" v="Ormutua" />
		<tag k="natural" v="bay" />
		<tag k="ssr:stedsnr" v="678465" />
	</node>
	<node id="-93263" lat="62.0183555569" lon="11.6448083377">
		<tag k="name" v="Bjørbekken" />
		<tag k="ssr:stedsnr" v="678457" />
		<tag k="waterway" v="stream" />
	</node>
	<node id="-93260" lat="62.0429029409" lon="12.2090124375">
		<tag k="name" v="Valhåen" />
		<tag k="natural" v="water" />
		<tag k="ssr:stedsnr" v="678327" />
	</node>
	<node id="-93259" lat="62.0371592468" lon="11.7700655285">
		<tag k="name" v="Bjørnfjorden" />
		<tag k="natural" v="water" />
		<tag k="ssr:stedsnr" v="678324" />
		<tag k="water" v="lake" />
	</node>
	<node id="-93258" lat="62.0332083297" lon="11.9804194431">
		<tag k="name" v="Krokåtsjøen" />
		<tag k="natural" v="water" />
		<tag k="ssr:stedsnr" v="678323" />
		<tag k="water" v="lake" />
	</node>
	<node id="-93256" lat="62.0693444476" lon="11.7690305602">
		<tag k="name" v="Kultjønna" />
		<tag k="natural" v="water" />
		<tag k="ssr:stedsnr" v="678305" />
	</node>
	<node id="-93254" lat="62.0919361099" lon="11.73358334">
		<tag k="name" v="Vikhusøya" />
		<tag k="place" v="islet" />
		<tag k="ssr:stedsnr" v="678295" />
	</node>
	<node id="-93252" lat="62.1334555548" lon="11.7503222255">
		<tag k="name" v="Langholmen" />
		<tag k="place" v="islet" />
		<tag k="ssr:stedsnr" v="678275" />
	</node>
	<node id="-93248" lat="61.9656749959" lon="11.7932055574">
		<tag k="alt_name" v="Stensundholmene" />
		<tag k="name" v="Steinsundholmene" />
		<tag k="place" v="islet" />
		<tag k="ssr:stedsnr" v="678110" />
	</node>
	<node id="-93246" lat="61.7415333342" lon="11.8936472307">
		<tag k="name" v="Storbekken" />
		<tag k="ssr:stedsnr" v="677793" />
		<tag k="waterway" v="stream" />
	</node>
	<node id="-93241" lat="61.6906027789" lon="12.0558555546">
		<tag k="name" v="Fisktjønna" />
		<tag k="natural" v="water" />
		<tag k="ssr:stedsnr" v="677715" />
	</node>
	<node id="-93235" lat="61.6657277773" lon="11.9367555606">
		<tag k="name" v="Storsjøen" />
		<tag k="natural" v="water" />
		<tag k="ssr:stedsnr" v="677642" />
	</node>
	<node id="-93232" lat="62.1411944447" lon="11.7490638822">
		<tag k="name" v="Bjørkodden" />
		<tag k="natural" v="cape" />
		<tag k="ssr:stedsnr" v="678401" />
	</node>
	<node id="-93229" lat="62.1690305526" lon="11.8764916669">
		<tag k="name" v="Nordre Litlholmen" />
		<tag k="place" v="islet" />
		<tag k="ssr:stedsnr" v="678380" />
	</node>
	<node id="-93225" lat="62.1853611097" lon="12.1881277787">
		<tag k="name" v="Lomtjønn" />
		<tag k="natural" v="water" />
		<tag k="ssr:stedsnr" v="678353" />
	</node>
	<node id="-93221" lat="61.6755416698" lon="11.7493138838">
		<tag k="fixme" v="multiple name tags, choose one and add the other to alt_name" />
		<tag k="name" v="Kroktjønna;Rankviktjønna" />
		<tag k="natural" v="water" />
		<tag k="ssr:stedsnr" v="677321" />
	</node>
	<node id="-93213" lat="61.8691444464" lon="12.0915083377">
		<tag k="name" v="Storsundvika" />
		<tag k="natural" v="bay" />
		<tag k="ssr:stedsnr" v="665060" />
	</node>
	<node id="-93212" lat="61.8735083366" lon="12.0651166728">
		<tag k="name" v="Fjerdingsodden" />
		<tag k="natural" v="cape" />
		<tag k="ssr:stedsnr" v="665059" />
	</node>
	<node id="-93211" lat="61.8774833341" lon="11.7506527747">
		<tag k="name" v="Kvernhusbekken" />
		<tag k="ssr:stedsnr" v="664351" />
		<tag k="waterway" v="stream" />
	</node>
	<node id="-93209" lat="61.8263500042" lon="11.7176638836">
		<tag k="name" v="Langøa" />
		<tag k="natural" v="water" />
		<tag k="ssr:stedsnr" v="664345" />
		<tag k="water" v="lake" />
	</node>
	<node id="-93206" lat="61.9315194403" lon="12.0385805576">
		<tag k="name" v="Bæresbekken" />
		<tag k="ssr:stedsnr" v="664095" />
		<tag k="waterway" v="stream" />
	</node>
	<node id="-93203" lat="61.7577138844" lon="11.6594888946">
		<tag k="name" v="Krokbekkvika" />
		<tag k="natural" v="bay" />
		<tag k="ssr:stedsnr" v="663943" />
	</node>
	<node id="-93201" lat="61.8537833359" lon="11.7641750077">
		<tag k="name" v="Gørsildloken" />
		<tag k="natural" v="water" />
		<tag k="ssr:stedsnr" v="662916" />
		<tag k="water" v="pond" />
	</node>
	<node id="-93199" lat="62.1728583319" lon="11.9407277832">
		<tag k="name" v="Sandvika" />
		<tag k="natural" v="bay" />
		<tag k="ssr:stedsnr" v="662897" />
	</node>
	<node id="-93198" lat="61.6866416631" lon="12.190111118">
		<tag k="name" v="Storstabbstøloken" />
		<tag k="natural" v="water" />
		<tag k="ssr:stedsnr" v="662878" />
		<tag k="water" v="pond" />
	</node>
	<node id="-93192" lat="62.0191333335" lon="12.2182527701">
		<tag k="name" v="Linnbekken" />
		<tag k="ssr:stedsnr" v="662745" />
		<tag k="waterway" v="stream" />
	</node>
	<node id="-93185" lat="61.9224944466" lon="11.9361972265">
		<tag k="name" v="Kølbruodden" />
		<tag k="natural" v="cape" />
		<tag k="ssr:stedsnr" v="662643" />
	</node>
	<node id="-93183" lat="61.928650001" lon="11.8175611142">
		<tag k="name" v="Galenivartjønna" />
		<tag k="natural" v="water" />
		<tag k="ssr:stedsnr" v="662527" />
	</node>
	<node id="-93182" lat="62.0803499963" lon="11.6907527847">
		<tag k="name" v="Synnmyrtjønna" />
		<tag k="natural" v="water" />
		<tag k="ssr:stedsnr" v="662510" />
	</node>
	<node id="-93179" lat="62.0062583338" lon="11.7053999998">
		<tag k="name" v="Ormutua" />
		<tag k="ssr:stedsnr" v="662363" />
		<tag k="waterway" v="stream" />
	</node>
	<node id="-93178" lat="62.0120138888" lon="11.7397388928">
		<tag k="name" v="Gammelvika" />
		<tag k="natural" v="bay" />
		<tag k="ssr:stedsnr" v="662362" />
	</node>
	<node id="-93175" lat="61.781180555" lon="11.8392722236">
		<tag k="name" v="Sauloken" />
		<tag k="natural" v="water" />
		<tag k="ssr:stedsnr" v="662305" />
	</node>
	<node id="-91757" lat="62.0229722207" lon="11.6396277771">
		<tag k="name" v="Hopparbekken" />
		<tag k="ssr:stedsnr" v="314472" />
		<tag k="waterway" v="stream" />
	</node>
	<node id="-93168" lat="61.6238583307" lon="12.0305444437">
		<tag k="name" v="Struphansneset" />
		<tag k="natural" v="cape" />
		<tag k="ssr:stedsnr" v="662174" />
	</node>
	<node id="-93166" lat="61.6914527772" lon="11.766163889">
		<tag k="name" v="Høybergsbekken" />
		<tag k="ssr:stedsnr" v="662171" />
		<tag k="waterway" v="stream" />
	</node>
	<node id="-93165" lat="62.0704499961" lon="12.0744472262">
		<tag k="name" v="Hammarsjøbekken" />
		<tag k="ssr:stedsnr" v="662160" />
		<tag k="waterway" v="stream" />
	</node>
	<node id="-93164" lat="61.6934777785" lon="11.7288750092">
		<tag k="name" v="Stubbholmen" />
		<tag k="place" v="islet" />
		<tag k="ssr:stedsnr" v="662158" />
	</node>
	<node id="-93163" lat="61.6850250004" lon="11.7293027799">
		<tag k="name" v="Hølholmen" />
		<tag k="place" v="islet" />
		<tag k="ssr:stedsnr" v="662159" />
	</node>
	<node id="-93161" lat="61.971580552" lon="11.9851277858">
		<tag k="name" v="Kjørvegrøsttjønnan" />
		<tag k="natural" v="water" />
		<tag k="ssr:stedsnr" v="662136" />
	</node>
	<node id="-93156" lat="62.0946138895" lon="11.6461972247">
		<tag k="name" v="Vangsbekken" />
		<tag k="ssr:stedsnr" v="662066" />
		<tag k="waterway" v="stream" />
	</node>
	<node id="-93154" lat="62.1202777771" lon="11.6525388876">
		<tag k="name" v="Brubakkfossen" />
		<tag k="ssr:stedsnr" v="662033" />
		<tag k="waterway" v="rapids" />
	</node>
	<node id="-93152" lat="61.8470416686" lon="12.0106833382">
		<tag k="name" v="Høltjønna" />
		<tag k="natural" v="water" />
		<tag k="ssr:stedsnr" v="662002" />
	</node>
	<node id="-93147" lat="61.7819353094" lon="11.6709223359">
		<tag k="loc_name" v="Øvre Vikbutjønna" />
		<tag k="name" v="Østre Vikbutjønna" />
		<tag k="natural" v="water" />
		<tag k="ssr:stedsnr" v="632364" />
	</node>
	<node id="-93142" lat="62.0404277815" lon="11.7614305568">
		<tag k="name" v="Storkåsholmen" />
		<tag k="place" v="islet" />
		<tag k="ssr:stedsnr" v="627434" />
	</node>
	<node id="-93140" lat="62.3724916686" lon="11.925058326">
		<tag k="alt_name" v="Prestodden" />
		<tag k="name" v="Susodden" />
		<tag k="natural" v="cape" />
		<tag k="ssr:stedsnr" v="618605" />
	</node>
	<node id="-93139" lat="62.3556916661" lon="11.9026499927">
		<tag k="name" v="Storlauvrøsttjønnan" />
		<tag k="natural" v="water" />
		<tag k="ssr:stedsnr" v="618602" />
	</node>
	<node id="-93137" lat="62.2838777807" lon="12.1573333381">
		<tag k="name" v="Djupholet" />
		<tag k="place" v="locality" />
		<tag k="ssr:stedsnr" v="618566" />
	</node>
	<node id="-93136" lat="61.9091666675" lon="11.7387722276">
		<tag k="name" v="Kåsbekken" />
		<tag k="ssr:stedsnr" v="617998" />
		<tag k="waterway" v="stream" />
	</node>
	<node id="-93135" lat="61.9001083303" lon="11.8276333318">
		<tag k="name" v="Femundtjønna" />
		<tag k="natural" v="water" />
		<tag k="ssr:stedsnr" v="617991" />
	</node>
	<node id="-93134" lat="61.8876361154" lon="11.7396805552">
		<tag k="name" v="Galtsjøen" />
		<tag k="natural" v="water" />
		<tag k="ssr:stedsnr" v="617981" />
		<tag k="water" v="lake" />
	</node>
	<node id="-93129" lat="61.9903090518" lon="12.1035909407">
		<tag k="name" v="Storjyltingen" />
		<tag k="natural" v="water" />
		<tag k="ssr:stedsnr" v="617912" />
		<tag k="water" v="lake" />
	</node>
	<node id="-93128" lat="61.9768083292" lon="12.1391861148">
		<tag k="name" v="Ånestjønnan" />
		<tag k="natural" v="water" />
		<tag k="ssr:stedsnr" v="617906" />
	</node>
	<node id="-93127" lat="61.9615750042" lon="12.1077888942">
		<tag k="name" v="Målertjønna" />
		<tag k="natural" v="water" />
		<tag k="ssr:stedsnr" v="617885" />
	</node>
	<node id="-93126" lat="61.956800001" lon="12.1117833368">
		<tag k="name" v="Glen" />
		<tag k="natural" v="water" />
		<tag k="ssr:stedsnr" v="617884" />
	</node>
	<node id="-93123" lat="61.901916668" lon="12.1351972139">
		<tag k="name" v="Vålåtjønna" />
		<tag k="natural" v="water" />
		<tag k="ssr:stedsnr" v="617856" />
	</node>
	<node id="-93121" lat="61.8692027752" lon="11.9847222133">
		<tag k="name" v="Abbortjønnan" />
		<tag k="natural" v="water" />
		<tag k="ssr:stedsnr" v="617839" />
	</node>
	<node id="-93118" lat="61.8682388848" lon="12.0530000089">
		<tag k="name" v="Glen" />
		<tag k="natural" v="water" />
		<tag k="ssr:stedsnr" v="617837" />
	</node>
	<node id="-93117" lat="61.8262361153" lon="12.1211694444">
		<tag k="name" v="Revmyrtjønna" />
		<tag k="natural" v="water" />
		<tag k="ssr:stedsnr" v="617828" />
	</node>
	<node id="-93115" lat="61.7937583311" lon="12.1204222295">
		<tag k="name" v="Holmtjønna" />
		<tag k="natural" v="water" />
		<tag k="ssr:stedsnr" v="617787" />
	</node>
	<node id="-93114" lat="61.7918694468" lon="12.1264166738">
		<tag k="name" v="Storfetabbortjønna" />
		<tag k="natural" v="water" />
		<tag k="ssr:stedsnr" v="617783" />
	</node>
	<node id="-93112" lat="61.7651611073" lon="11.9055138827">
		<tag k="name" v="Sagbekken" />
		<tag k="ssr:stedsnr" v="617775" />
		<tag k="waterway" v="stream" />
	</node>
	<node id="-93111" lat="62.0070249963" lon="11.9598166701">
		<tag k="name" v="Rørsjøtjønna" />
		<tag k="natural" v="water" />
		<tag k="ssr:stedsnr" v="617773" />
	</node>
	<node id="-93107" lat="62.0260583373" lon="11.7276166665">
		<tag k="name" v="Tjønnan" />
		<tag k="natural" v="water" />
		<tag k="ssr:stedsnr" v="617750" />
	</node>
	<node id="-93105" lat="62.1569527753" lon="12.2582805488">
		<tag k="name" v="Grøvelsjøen" />
		<tag k="natural" v="water" />
		<tag k="ssr:stedsnr" v="617742" />
		<tag k="water" v="lake" />
	</node>
	<node id="-93103" lat="62.1918638895" lon="12.2156444487">
		<tag k="name" v="Røa" />
		<tag k="ssr:stedsnr" v="617682" />
		<tag k="waterway" v="river" />
	</node>
	<node id="-93101" lat="62.1464861145" lon="11.6472277734">
		<tag k="name" v="Rompa" />
		<tag k="natural" v="water" />
		<tag k="ssr:stedsnr" v="617417" />
	</node>
	<node id="-93097" lat="62.1728305572" lon="11.8504527796">
		<tag k="name" v="Korneset" />
		<tag k="natural" v="cape" />
		<tag k="ssr:stedsnr" v="617378" />
	</node>
	<node id="-93096" lat="62.1626111091" lon="11.7389666617">
		<tag k="alt_name" v="Kvernvika" />
		<tag k="name" v="Kvennvika" />
		<tag k="natural" v="bay" />
		<tag k="ssr:stedsnr" v="617369" />
	</node>
	<node id="-93095" lat="62.0379222238" lon="11.9263583303">
		<tag k="name" v="Krokåtsjøbekken" />
		<tag k="ssr:stedsnr" v="617337" />
		<tag k="waterway" v="stream" />
	</node>
	<node id="-93094" lat="62.0521444482" lon="12.0554444479">
		<tag k="name" v="Nordersjøen" />
		<tag k="natural" v="water" />
		<tag k="ssr:stedsnr" v="617329" />
	</node>
	<node id="-93092" lat="62.0669250011" lon="12.192550004">
		<tag k="name" v="Stormyrbekken" />
		<tag k="ssr:stedsnr" v="617315" />
		<tag k="waterway" v="stream" />
	</node>
	<node id="-93091" lat="62.0892194417" lon="11.9383111037">
		<tag k="name" v="Storbekktjønna" />
		<tag k="natural" v="water" />
		<tag k="ssr:stedsnr" v="617312" />
	</node>
	<node id="-93090" lat="62.0537750012" lon="11.9352694412">
		<tag k="name" v="Flåtesjøbekken" />
		<tag k="ssr:stedsnr" v="617313" />
		<tag k="waterway" v="stream" />
	</node>
	<node id="-93089" lat="62.0888944462" lon="12.0206083272">
		<tag k="name" v="Båthussjøen" />
		<tag k="natural" v="water" />
		<tag k="old_name" v="Bathussjøen" />
		<tag k="ssr:stedsnr" v="617311" />
	</node>
	<node id="-93087" lat="62.1339999977" lon="11.7762000023">
		<tag k="name" v="Lauvholmen" />
		<tag k="place" v="islet" />
		<tag k="ssr:stedsnr" v="617297" />
	</node>
	<node id="-93086" lat="61.9353027772" lon="11.8377333315">
		<tag k="name" v="Gløta" />
		<tag k="ssr:stedsnr" v="617149" />
		<tag k="waterway" v="river" />
	</node>
	<node id="-93082" lat="61.9574222255" lon="11.8400722178">
		<tag k="name" v="Bottøltjønnan" />
		<tag k="natural" v="water" />
		<tag k="ssr:stedsnr" v="617124" />
	</node>
	<node id="-93081" lat="61.9940805521" lon="11.802897227">
		<tag k="name" v="Balvika" />
		<tag k="natural" v="bay" />
		<tag k="ssr:stedsnr" v="617114" />
	</node>
	<node id="-93080" lat="61.6510416634" lon="11.7643638887">
		<tag k="alt_name" v="Skjærbekken" />
		<tag k="name" v="Skjerbekken" />
		<tag k="ssr:stedsnr" v="616801" />
		<tag k="waterway" v="stream" />
	</node>
	<node id="-93079" lat="61.7336805517" lon="12.0851472235">
		<tag k="name" v="Hognsjøtjønnan" />
		<tag k="natural" v="water" />
		<tag k="ssr:stedsnr" v="616752" />
	</node>
	<node id="-93078" lat="61.7441972217" lon="12.1019833314">
		<tag k="name" v="Hognsjøbekken" />
		<tag k="ssr:stedsnr" v="616694" />
		<tag k="waterway" v="stream" />
	</node>
	<node id="-93075" lat="61.6337777814" lon="11.8434694416">
		<tag k="name" v="Andviktjønna" />
		<tag k="natural" v="water" />
		<tag k="ssr:stedsnr" v="616679" />
	</node>
	<node id="-93070" lat="61.6386999989" lon="11.983199994">
		<tag k="name" v="Fonnflåbekken" />
		<tag k="ssr:stedsnr" v="616634" />
		<tag k="waterway" v="stream" />
	</node>
	<node id="-93069" lat="61.6260249957" lon="11.7628249988">
		<tag k="name" v="Heggebekken" />
		<tag k="ssr:stedsnr" v="616308" />
		<tag k="waterway" v="stream" />
	</node>
	<node id="-91685" lat="61.9332250015" lon="11.8187250069">
		<tag k="name" v="Tjønnholmen" />
		<tag k="place" v="islet" />
		<tag k="ssr:stedsnr" v="298505" />
	</node>
	<node id="-93056" lat="61.7853916702" lon="11.64591111">
		<tag k="name" v="Skjærfloen" />
		<tag k="natural" v="water" />
		<tag k="ssr:stedsnr" v="602802" />
		<tag k="water" v="lake" />
	</node>
	<node id="-93053" lat="61.7748749978" lon="12.1385555525">
		<tag k="name" v="Søndre tjønna" />
		<tag k="natural" v="water" />
		<tag k="ssr:stedsnr" v="602600" />
	</node>
	<node id="-93051" lat="61.7102944436" lon="12.0154277796">
		<tag k="name" v="Gammeltjønna" />
		<tag k="natural" v="water" />
		<tag k="ssr:stedsnr" v="602205" />
	</node>
	<node id="-93043" lat="62.1180833357" lon="12.0176833342">
		<tag k="name" v="Mortloken" />
		<tag k="natural" v="water" />
		<tag k="ssr:stedsnr" v="601789" />
	</node>
	<node id="-93042" lat="62.0966583357" lon="12.0263055645">
		<tag k="name" v="Åborhullet" />
		<tag k="natural" v="water" />
		<tag k="ssr:stedsnr" v="601771" />
		<tag k="water" v="lake" />
	</node>
	<node id="-93040" lat="62.0973444412" lon="12.0191083423">
		<tag k="name" v="Båthussjøelva" />
		<tag k="ssr:stedsnr" v="601762" />
		<tag k="waterway" v="river" />
	</node>
	<node id="-93035" lat="61.9905666687" lon="11.9126472214">
		<tag k="name" v="Litlskjæret" />
		<tag k="place" v="islet" />
		<tag k="ssr:stedsnr" v="601706" />
	</node>
	<node id="-93034" lat="61.7182999955" lon="11.9722111167">
		<tag k="name" v="Gammelkvernhusfossen" />
		<tag k="natural" v="waterfall" />
		<tag k="ssr:stedsnr" v="601681" />
	</node>
	<node id="-92315" lat="62.3537305569" lon="11.9266444473">
		<tag k="name" v="Storlauvrøstvika" />
		<tag k="natural" v="bay" />
		<tag k="ssr:stedsnr" v="141847" />
	</node>
	<node id="-93029" lat="61.7980833295" lon="11.9236055605">
		<tag k="name" v="Midtre Sollitjønna" />
		<tag k="natural" v="water" />
		<tag k="ssr:stedsnr" v="601449" />
	</node>
	<node id="-93027" lat="61.7642500007" lon="11.9342888894">
		<tag k="name" v="Sagbekken" />
		<tag k="ssr:stedsnr" v="601335" />
		<tag k="waterway" v="stream" />
	</node>
	<node id="-93026" lat="62.0047749965" lon="11.6682194383">
		<tag k="name" v="Rundtjønna" />
		<tag k="natural" v="water" />
		<tag k="ssr:stedsnr" v="601327" />
	</node>
	<node id="-93025" lat="62.0165861106" lon="11.676077769">
		<tag k="name" v="Bjørbekkloken" />
		<tag k="natural" v="water" />
		<tag k="ssr:stedsnr" v="601324" />
	</node>
	<node id="-91752" lat="62.137355553" lon="11.7233666718">
		<tag k="name" v="Sandodden" />
		<tag k="natural" v="cape" />
		<tag k="ssr:stedsnr" v="314392" />
	</node>
	<node id="-93019" lat="62.0144888911" lon="12.0647833322">
		<tag k="name" v="Bekkedalsbekken" />
		<tag k="ssr:stedsnr" v="601171" />
		<tag k="waterway" v="stream" />
	</node>
	<node id="-93014" lat="62.0764999966" lon="12.1095222299">
		<tag k="name" v="Hølet" />
		<tag k="place" v="locality" />
		<tag k="ssr:stedsnr" v="601154" />
	</node>
	<node id="-93013" lat="61.695750002" lon="11.7230416714">
		<tag k="name" v="Vesterøya" />
		<tag k="place" v="islet" />
		<tag k="ssr:stedsnr" v="601143" />
	</node>
	<node id="-93011" lat="61.6489055567" lon="11.8400833303">
		<tag k="name" v="Gofaholmen" />
		<tag k="place" v="island" />
		<tag k="ssr:stedsnr" v="601110" />
	</node>
	<node id="-93009" lat="61.8441555567" lon="12.0360833354">
		<tag k="name" v="Kverntjønna" />
		<tag k="natural" v="water" />
		<tag k="ssr:stedsnr" v="601013" />
	</node>
	<node id="-93004" lat="61.6424638863" lon="12.0146694474">
		<tag k="name" v="Lekjenna" />
		<tag k="ssr:stedsnr" v="587292" />
		<tag k="waterway" v="river" />
	</node>
	<node id="-93003" lat="61.6634333352" lon="12.0194722252">
		<tag k="name" v="Litl-Hyllsjøneset" />
		<tag k="natural" v="cape" />
		<tag k="ssr:stedsnr" v="587229" />
	</node>
	<node id="-93000" lat="61.6472111099" lon="11.9498333382">
		<tag k="name" v="Skjærbekken" />
		<tag k="ssr:stedsnr" v="586999" />
		<tag k="waterway" v="stream" />
	</node>
	<node id="-92996" lat="62.0287388893" lon="11.727916671">
		<tag k="name" v="Søndre Tjønsodden" />
		<tag k="natural" v="cape" />
		<tag k="ssr:stedsnr" v="586072" />
	</node>
	<node id="-92989" lat="62.2768000022" lon="11.9071583392">
		<tag k="name" v="Roligholet" />
		<tag k="natural" v="bay" />
		<tag k="ssr:stedsnr" v="566874" />
	</node>
	<node id="-92988" lat="62.3434444483" lon="11.928311103">
		<tag k="name" v="Søndre Halvbuholet" />
		<tag k="natural" v="bay" />
		<tag k="ssr:stedsnr" v="566870" />
	</node>
	<node id="-92987" lat="62.0877194456" lon="11.9703805528">
		<tag k="name" v="Båthustjønna" />
		<tag k="natural" v="water" />
		<tag k="ssr:stedsnr" v="566423" />
		<tag k="water" v="lake" />
	</node>
	<node id="-92986" lat="62.0878055534" lon="11.7541027705">
		<tag k="name" v="Slaggtjønnholmen" />
		<tag k="place" v="islet" />
		<tag k="ssr:stedsnr" v="566424" />
	</node>
	<node id="-92985" lat="61.6243194472" lon="12.0074361066">
		<tag k="name" v="Storbekken" />
		<tag k="ssr:stedsnr" v="566274" />
		<tag k="waterway" v="stream" />
	</node>
	<node id="-92984" lat="61.6543361151" lon="12.0120666707">
		<tag k="name" v="Smalneset" />
		<tag k="natural" v="cape" />
		<tag k="ssr:stedsnr" v="566272" />
	</node>
	<node id="-92981" lat="61.9044459893" lon="11.9445010426">
		<tag k="name" v="Småtjønnan" />
		<tag k="natural" v="water" />
		<tag k="ssr:stedsnr" v="557857" />
		<tag k="water" v="lake" />
	</node>
	<node id="-92979" lat="61.8890638928" lon="11.9401305561">
		<tag k="name" v="Åbbortjønn" />
		<tag k="natural" v="water" />
		<tag k="ssr:stedsnr" v="557830" />
	</node>
	<node id="-92978" lat="61.7864944414" lon="12.1134805501">
		<tag k="name" v="Blanktjønna" />
		<tag k="natural" v="water" />
		<tag k="ssr:stedsnr" v="557760" />
	</node>
	<node id="-92977" lat="61.7860666649" lon="12.1236444406">
		<tag k="name" v="Bleketjønna" />
		<tag k="natural" v="water" />
		<tag k="ssr:stedsnr" v="557758" />
	</node>
	<node id="-92972" lat="62.2620249968" lon="12.229794453">
		<tag k="name" v="Bratteggtjønna" />
		<tag k="natural" v="water" />
		<tag k="ssr:stedsnr" v="557639" />
	</node>
	<node id="-92968" lat="62.1411916646" lon="12.1634416704">
		<tag k="name" v="Grøvelåa" />
		<tag k="ssr:stedsnr" v="557341" />
		<tag k="waterway" v="river" />
	</node>
	<node id="-92967" lat="62.1632138846" lon="11.8685999914">
		<tag k="name" v="Søndre Litlholmen" />
		<tag k="place" v="islet" />
		<tag k="ssr:stedsnr" v="557323" />
	</node>
	<node id="-92966" lat="62.1226333369" lon="11.9887027709">
		<tag k="name" v="Volsjøbekken" />
		<tag k="ssr:stedsnr" v="557251" />
		<tag k="waterway" v="stream" />
	</node>
	<node id="-92964" lat="61.9098027803" lon="11.7773722247">
		<tag k="name" v="Isterfossen" />
		<tag k="natural" v="waterfall" />
		<tag k="ssr:stedsnr" v="557000" />
	</node>
	<node id="-92963" lat="61.9040861099" lon="11.7702555479">
		<tag k="name" v="Galthåen" />
		<tag k="natural" v="water" />
		<tag k="ssr:stedsnr" v="556991" />
		<tag k="water" v="lake" />
	</node>
	<node id="-92960" lat="61.7904805531" lon="11.7378027766">
		<tag k="name" v="Øybekken" />
		<tag k="ssr:stedsnr" v="556938" />
		<tag k="waterway" v="stream" />
	</node>
	<node id="-92958" lat="61.7604277807" lon="11.6758750068">
		<tag k="name" v="Rødbekken" />
		<tag k="ssr:stedsnr" v="556926" />
		<tag k="waterway" v="stream" />
	</node>
	<node id="-92957" lat="61.9853722265" lon="12.0853277698">
		<tag k="name" v="Skrabbtjønna" />
		<tag k="natural" v="water" />
		<tag k="ssr:stedsnr" v="556908" />
	</node>
	<node id="-91818" lat="62.1628722241" lon="11.9858222195">
		<tag k="name" v="Rundmyrloken" />
		<tag k="natural" v="water" />
		<tag k="ssr:stedsnr" v="359210" />
	</node>
	<node id="-92954" lat="61.9528861086" lon="11.9317500074">
		<tag k="name" v="Skinnarodden" />
		<tag k="natural" v="cape" />
		<tag k="ssr:stedsnr" v="556887" />
	</node>
	<node id="-92953" lat="61.9448611096" lon="11.965580558">
		<tag k="name" v="Lenketjønna" />
		<tag k="natural" v="water" />
		<tag k="ssr:stedsnr" v="556879" />
	</node>
	<node id="-92952" lat="61.9443555583" lon="12.0990555549">
		<tag k="name" v="Kornandertjønna" />
		<tag k="natural" v="water" />
		<tag k="ssr:stedsnr" v="556878" />
	</node>
	<node id="-92951" lat="61.8206805555" lon="12.0566916672">
		<tag k="name" v="Kvisla" />
		<tag k="ssr:stedsnr" v="556862" />
		<tag k="waterway" v="river" />
	</node>
	<node id="-92943" lat="61.849072219" lon="11.9534638883">
		<tag k="name" v="Djupdalstjønna" />
		<tag k="natural" v="water" />
		<tag k="ssr:stedsnr" v="556825" />
	</node>
	<node id="-92942" lat="61.8058583332" lon="12.0638916654">
		<tag k="name" v="Storkjøltjønna" />
		<tag k="natural" v="water" />
		<tag k="ssr:stedsnr" v="556802" />
	</node>
	<node id="-92939" lat="61.8230666667" lon="12.1603694459">
		<tag k="name" v="Tollåtjønnan" />
		<tag k="natural" v="water" />
		<tag k="ssr:stedsnr" v="556796" />
	</node>
	<node id="-92938" lat="61.8189166661" lon="11.9843888808">
		<tag k="name" v="Lortbekken" />
		<tag k="ssr:stedsnr" v="556790" />
		<tag k="waterway" v="stream" />
	</node>
	<node id="-92937" lat="61.7731861071" lon="12.0521222198">
		<tag k="alt_name" v="Svarthamartjønnan" />
		<tag k="name" v="Svarthammartjønnan" />
		<tag k="natural" v="water" />
		<tag k="ssr:stedsnr" v="556765" />
		<tag k="water" v="lake" />
	</node>
	<node id="-92935" lat="61.8324277775" lon="11.8746416729">
		<tag k="alt_name" v="Nordre Engeråa" />
		<tag k="name" v="Engeråa" />
		<tag k="ssr:stedsnr" v="556759" />
		<tag k="waterway" v="river" />
	</node>
	<node id="-92932" lat="61.6995027813" lon="12.127986114">
		<tag k="name" v="Tangbekken" />
		<tag k="ssr:stedsnr" v="556743" />
		<tag k="waterway" v="stream" />
	</node>
	<node id="-92925" lat="61.748447224" lon="12.0821166576">
		<tag k="name" v="Koiebekken" />
		<tag k="old_name" v="Køiebekken" />
		<tag k="ssr:stedsnr" v="556715" />
		<tag k="waterway" v="stream" />
	</node>
	<node id="-92924" lat="61.6768418732" lon="12.0602446022">
		<tag k="name" v="Hyllsjøen" />
		<tag k="natural" v="water" />
		<tag k="ssr:stedsnr" v="556675" />
		<tag k="water" v="lake" />
	</node>
	<node id="-92922" lat="61.6950805573" lon="11.8190555607">
		<tag k="name" v="Nybubekktjønna" />
		<tag k="natural" v="water" />
		<tag k="ssr:stedsnr" v="556415" />
	</node>
	<node id="-92920" lat="62.2215055582" lon="11.8812416663">
		<tag k="name" v="Bergvikodden" />
		<tag k="natural" v="cape" />
		<tag k="ssr:stedsnr" v="556373" />
	</node>
	<node id="-92919" lat="62.04103611" lon="11.8249916669">
		<tag k="name" v="Bergatjønna" />
		<tag k="natural" v="water" />
		<tag k="ssr:stedsnr" v="556366" />
	</node>
	<node id="-92918" lat="62.0652138868" lon="12.1865527707">
		<tag k="name" v="Vala" />
		<tag k="ssr:stedsnr" v="556351" />
		<tag k="waterway" v="stream" />
	</node>
	<node id="-92916" lat="62.0789527796" lon="11.7788499971">
		<tag k="name" v="Stallvika" />
		<tag k="natural" v="bay" />
		<tag k="ssr:stedsnr" v="556332" />
	</node>
	<node id="-92915" lat="62.1036250009" lon="12.0207055615">
		<tag k="name" v="Djupsjøen" />
		<tag k="natural" v="water" />
		<tag k="ssr:stedsnr" v="556309" />
		<tag k="water" v="lake" />
	</node>
	<node id="-92913" lat="62.1167472179" lon="11.7863611178">
		<tag k="name" v="Sollerøyhåmmåren" />
		<tag k="place" v="islet" />
		<tag k="ssr:stedsnr" v="556302" />
	</node>
	<node id="-92911" lat="61.9767666657" lon="11.7660083369">
		<tag k="name" v="Svalodden" />
		<tag k="natural" v="cape" />
		<tag k="ssr:stedsnr" v="556125" />
	</node>
	<node id="-92910" lat="61.9649231878" lon="11.7471586774">
		<tag k="name" v="Svalsjøen" />
		<tag k="natural" v="water" />
		<tag k="ssr:stedsnr" v="556115" />
		<tag k="water" v="lake" />
	</node>
	<node id="-92909" lat="61.9654166653" lon="11.7629750041">
		<tag k="name" v="Svalåa" />
		<tag k="ssr:stedsnr" v="556112" />
		<tag k="waterway" v="stream" />
	</node>
	<node id="-92908" lat="61.9962416691" lon="11.7679111152">
		<tag k="name" v="Digerneset" />
		<tag k="natural" v="cape" />
		<tag k="ssr:stedsnr" v="556098" />
	</node>
	<node id="-92905" lat="61.6672277752" lon="12.1812027777">
		<tag k="name" v="Sølvbekken" />
		<tag k="ssr:stedsnr" v="555613" />
		<tag k="waterway" v="stream" />
	</node>
	<node id="-92903" lat="61.6587154595" lon="11.960938763">
		<tag k="alt_name" v="Hitterbekken" />
		<tag k="name" v="Hitvebekken" />
		<tag k="ssr:stedsnr" v="555606" />
		<tag k="waterway" v="stream" />
	</node>
	<node id="-92902" lat="61.6614250019" lon="12.1891722305">
		<tag k="name" v="Krokbekken" />
		<tag k="ssr:stedsnr" v="555604" />
		<tag k="waterway" v="stream" />
	</node>
	<node id="-92900" lat="61.6448073981" lon="12.0646164516">
		<tag k="name" v="Søndre Røåstjønna" />
		<tag k="natural" v="water" />
		<tag k="ssr:stedsnr" v="555594" />
	</node>
	<node id="-92899" lat="61.6178277788" lon="11.8159666601">
		<tag k="alt_name" v="Skjærbekktjønna" />
		<tag k="name" v="Skjerbekktjønna" />
		<tag k="natural" v="water" />
		<tag k="ssr:stedsnr" v="555258" />
	</node>
	<node id="-92892" lat="61.8686583336" lon="12.1046805634">
		<tag k="name" v="Gjeddvika" />
		<tag k="natural" v="bay" />
		<tag k="ssr:stedsnr" v="544006" />
	</node>
	<node id="-92891" lat="61.7750999967" lon="11.6522333396">
		<tag k="name" v="Slettenstjønna" />
		<tag k="natural" v="water" />
		<tag k="ssr:stedsnr" v="543846" />
		<tag k="water" v="pond" />
	</node>
	<node id="-92885" lat="61.6786777747" lon="12.1459666741">
		<tag k="name" v="Vestre Tangbekken" />
		<tag k="ssr:stedsnr" v="541909" />
		<tag k="waterway" v="stream" />
	</node>
	<node id="-92884" lat="61.6891055577" lon="12.1823277771">
		<tag k="name" v="Gjeddviktjønna" />
		<tag k="natural" v="water" />
		<tag k="ssr:stedsnr" v="541908" />
	</node>
	<node id="-92883" lat="61.6618416691" lon="12.1506222296">
		<tag k="name" v="Brefloen" />
		<tag k="natural" v="water" />
		<tag k="ssr:stedsnr" v="541905" />
		<tag k="water" v="lake" />
	</node>
	<node id="-92882" lat="61.9764027738" lon="11.9354277733">
		<tag k="name" v="Langmyrvika" />
		<tag k="natural" v="bay" />
		<tag k="ssr:stedsnr" v="541878" />
	</node>
	<node id="-92881" lat="62.057255552" lon="12.0755638802">
		<tag k="name" v="Sundloken" />
		<tag k="natural" v="water" />
		<tag k="ssr:stedsnr" v="541872" />
	</node>
	<node id="-92880" lat="61.6807499993" lon="11.7561694403">
		<tag k="name" v="Fiskvikkroken" />
		<tag k="natural" v="bay" />
		<tag k="ssr:stedsnr" v="541821" />
	</node>
	<node id="-92878" lat="62.0790777767" lon="12.1993305639">
		<tag k="name" v="Bortre Stormyrbekken" />
		<tag k="ssr:stedsnr" v="541726" />
		<tag k="waterway" v="stream" />
	</node>
	<node id="-92876" lat="62.0537805565" lon="12.1357194469">
		<tag k="name" v="Kjeldmyrbekken" />
		<tag k="ssr:stedsnr" v="541715" />
		<tag k="waterway" v="stream" />
	</node>
	<node id="-92875" lat="61.7359416669" lon="11.9929305594">
		<tag k="name" v="Langflobekken" />
		<tag k="ssr:stedsnr" v="541709" />
		<tag k="waterway" v="stream" />
	</node>
	<node id="-92874" lat="61.6730333301" lon="12.001280557">
		<tag k="name" v="Pitten" />
		<tag k="natural" v="cape" />
		<tag k="ssr:stedsnr" v="541696" />
	</node>
	<node id="-92870" lat="61.9304055591" lon="11.8862888951">
		<tag k="name" v="Fjordongsodden" />
		<tag k="natural" v="cape" />
		<tag k="ssr:stedsnr" v="541549" />
	</node>
	<node id="-92869" lat="61.9363305549" lon="11.8293472128">
		<tag k="name" v="Gløtfossen" />
		<tag k="natural" v="waterfall" />
		<tag k="ssr:stedsnr" v="541545" />
	</node>
	<node id="-92868" lat="61.9094222191" lon="11.8981583258">
		<tag k="name" v="Åbortjønna" />
		<tag k="natural" v="water" />
		<tag k="ssr:stedsnr" v="541498" />
	</node>
	<node id="-92863" lat="62.0084027822" lon="11.6640861141">
		<tag k="name" v="Pullbekken" />
		<tag k="ssr:stedsnr" v="541375" />
		<tag k="waterway" v="stream" />
	</node>
	<node id="-92862" lat="62.0117111156" lon="11.6749805581">
		<tag k="name" v="Østertjønna" />
		<tag k="natural" v="water" />
		<tag k="ssr:stedsnr" v="541373" />
	</node>
	<node id="-92849" lat="62.149808335" lon="11.661411118">
		<tag k="name" v="Rybekken" />
		<tag k="ssr:stedsnr" v="539877" />
		<tag k="waterway" v="stream" />
	</node>
	<node id="-92839" lat="61.8148833321" lon="11.9824444448">
		<tag k="name" v="Kuhølet" />
		<tag k="natural" v="water" />
		<tag k="ssr:stedsnr" v="511184" />
		<tag k="water" v="pond" />
	</node>
	<node id="-92838" lat="62.2092666637" lon="11.868880555">
		<tag k="name" v="Tømmervika" />
		<tag k="natural" v="bay" />
		<tag k="ssr:stedsnr" v="506452" />
	</node>
	<node id="-92837" lat="62.0021305573" lon="11.7515944365">
		<tag k="name" v="Søndre Digerneset" />
		<tag k="natural" v="cape" />
		<tag k="ssr:stedsnr" v="506421" />
	</node>
	<node id="-92836" lat="61.6444750037" lon="12.124552783">
		<tag k="name" v="Røa" />
		<tag k="old_name" v="Rømoåa" />
		<tag k="ssr:stedsnr" v="505258" />
		<tag k="waterway" v="river" />
	</node>
	<node id="-92835" lat="62.3533439151" lon="12.0165963047">
		<tag k="name" v="Røa" />
		<tag k="ssr:stedsnr" v="497737" />
		<tag k="waterway" v="river" />
	</node>
	<node id="-92834" lat="62.270063888" lon="12.2300749913">
		<tag k="name" v="Grunnkratslane" />
		<tag k="natural" v="water" />
		<tag k="ssr:stedsnr" v="497654" />
	</node>
	<node id="-92833" lat="62.2705388887" lon="12.2353361125">
		<tag k="name" v="Djuptjønna" />
		<tag k="natural" v="water" />
		<tag k="ssr:stedsnr" v="497653" />
	</node>
	<node id="-92832" lat="62.2669555595" lon="12.2530138951">
		<tag k="name" v="Vonsjøtjønna" />
		<tag k="natural" v="water" />
		<tag k="ssr:stedsnr" v="497651" />
	</node>
	<node id="-92831" lat="62.2577611078" lon="11.9424499973">
		<tag k="name" v="Grålodden" />
		<tag k="natural" v="cape" />
		<tag k="ssr:stedsnr" v="497642" />
	</node>
	<node id="-92830" lat="62.2649611088" lon="12.1469888827">
		<tag k="name" v="Heimveitjønna" />
		<tag k="natural" v="water" />
		<tag k="ssr:stedsnr" v="497640" />
	</node>
	<node id="-92829" lat="62.2781500025" lon="11.8490527732">
		<tag k="name" v="Langtjønna" />
		<tag k="natural" v="water" />
		<tag k="ssr:stedsnr" v="497635" />
	</node>
	<node id="-92828" lat="61.909816668" lon="11.8047361086">
		<tag k="alt_name" v="Kvernhusbekken, nordre" />
		<tag k="name" v="Nordre Kvernhusbekken" />
		<tag k="ssr:stedsnr" v="496996" />
		<tag k="waterway" v="stream" />
	</node>
	<node id="-92823" lat="61.7609777789" lon="11.8088944361">
		<tag k="name" v="Veundåa" />
		<tag k="ssr:stedsnr" v="496921" />
		<tag k="waterway" v="river" />
	</node>
	<node id="-92821" lat="61.9959083351" lon="11.899955563">
		<tag k="name" v="Femunden" />
		<tag k="natural" v="water" />
		<tag k="ssr:stedsnr" v="496891" />
		<tag k="water" v="lake" />
	</node>
	<node id="-92820" lat="61.9691361074" lon="12.1587638937">
		<tag k="name" v="Skjeftsjøen" />
		<tag k="natural" v="water" />
		<tag k="ssr:stedsnr" v="496888" />
	</node>
	<node id="-92815" lat="61.8899950557" lon="12.0136079884">
		<tag k="name" v="Drevsjøen" />
		<tag k="natural" v="water" />
		<tag k="ssr:stedsnr" v="496835" />
		<tag k="water" v="lake" />
	</node>
	<node id="-91745" lat="62.0660805556" lon="12.1635277852">
		<tag k="name" v="Abbortjønna" />
		<tag k="natural" v="water" />
		<tag k="ssr:stedsnr" v="314323" />
	</node>
	<node id="-92811" lat="61.7765500022" lon="11.9560055464">
		<tag k="alt_name" v="Ørnholbekken, s;Søndre Ørnhølbekken;Søre Ørnholbekken" />
		<tag k="name" v="Syndre Ørnholbekken" />
		<tag k="ssr:stedsnr" v="496783" />
		<tag k="waterway" v="stream" />
	</node>
	<node id="-92807" lat="61.7696083295" lon="12.0973361062">
		<tag k="alt_name" v="Fuglebekken, nordre" />
		<tag k="name" v="Nordre Fuglebekken" />
		<tag k="ssr:stedsnr" v="496764" />
		<tag k="waterway" v="stream" />
	</node>
	<node id="-92805" lat="62.0138499977" lon="11.7767500088">
		<tag k="name" v="Fjerdingsholmen" />
		<tag k="place" v="islet" />
		<tag k="ssr:stedsnr" v="496748" />
	</node>
	<node id="-92804" lat="62.0014583376" lon="11.7390749982">
		<tag k="name" v="Vedholmen" />
		<tag k="place" v="islet" />
		<tag k="ssr:stedsnr" v="496742" />
	</node>
	<node id="-92797" lat="62.3613555528" lon="11.8878027706">
		<tag k="name" v="Kamptjønna" />
		<tag k="natural" v="water" />
		<tag k="ssr:stedsnr" v="496630" />
	</node>
	<node id="-92796" lat="62.014480554" lon="11.6622833309">
		<tag k="name" v="Langtjønna" />
		<tag k="natural" v="water" />
		<tag k="ssr:stedsnr" v="496465" />
	</node>
	<node id="-92792" lat="62.1519694435" lon="11.7419583385">
		<tag k="name" v="Settungen" />
		<tag k="natural" v="bay" />
		<tag k="ssr:stedsnr" v="496406" />
	</node>
	<node id="-92791" lat="62.1527861149" lon="11.909683326">
		<tag k="name" v="Hølbekken" />
		<tag k="ssr:stedsnr" v="496401" />
		<tag k="waterway" v="stream" />
	</node>
	<node id="-92790" lat="62.1437944466" lon="11.7307777708">
		<tag k="name" v="Nøstvika" />
		<tag k="natural" v="bay" />
		<tag k="ssr:stedsnr" v="496398" />
	</node>
	<node id="-92789" lat="62.139886114" lon="11.8210916627">
		<tag k="name" v="Nålodden" />
		<tag k="natural" v="cape" />
		<tag k="ssr:stedsnr" v="496394" />
	</node>
	<node id="-92786" lat="62.1984972211" lon="12.193474995">
		<tag k="name" v="Rønsjøhåen" />
		<tag k="natural" v="water" />
		<tag k="ssr:stedsnr" v="496356" />
	</node>
	<node id="-92782" lat="62.0516277803" lon="12.1902749926">
		<tag k="name" v="Baklitjønna" />
		<tag k="natural" v="water" />
		<tag k="ssr:stedsnr" v="496321" />
	</node>
	<node id="-92781" lat="62.055808333" lon="12.21085555">
		<tag k="name" v="Storkåsloken" />
		<tag k="natural" v="water" />
		<tag k="ssr:stedsnr" v="496318" />
	</node>
	<node id="-92779" lat="62.0675055551" lon="11.897130558">
		<tag k="name" v="Litleåsbekken" />
		<tag k="ssr:stedsnr" v="496308" />
		<tag k="waterway" v="stream" />
	</node>
	<node id="-92774" lat="62.1177916622" lon="12.0119944522">
		<tag k="name" v="Stenelva" />
		<tag k="ssr:stedsnr" v="496279" />
		<tag k="waterway" v="stream" />
	</node>
	<node id="-92773" lat="62.1323500042" lon="11.9922861196">
		<tag k="name" v="Kanelabekken" />
		<tag k="ssr:stedsnr" v="496274" />
		<tag k="waterway" v="stream" />
	</node>
	<node id="-92772" lat="62.1348750028" lon="11.7470527791">
		<tag k="name" v="Måseholmen" />
		<tag k="place" v="islet" />
		<tag k="ssr:stedsnr" v="496270" />
	</node>
	<node id="-92771" lat="61.9261944474" lon="11.7682361116">
		<tag k="name" v="Sveinsodden" />
		<tag k="natural" v="cape" />
		<tag k="ssr:stedsnr" v="496112" />
	</node>
	<node id="-92770" lat="61.9635583363" lon="11.7229250065">
		<tag k="name" v="Svalbekken" />
		<tag k="ssr:stedsnr" v="496096" />
		<tag k="waterway" v="stream" />
	</node>
	<node id="-92769" lat="61.6643611118" lon="12.1607250059">
		<tag k="name" v="Storbekken" />
		<tag k="ssr:stedsnr" v="495792" />
		<tag k="waterway" v="stream" />
	</node>
	<node id="-93285" lat="61.9706305569" lon="12.038786108">
		<tag k="name" v="Atjønna" />
		<tag k="natural" v="water" />
		<tag k="ssr:stedsnr" v="678873" />
	</node>
	<node id="-91754" lat="62.1459777795" lon="11.7819777851">
		<tag k="name" v="Halsteinsvika" />
		<tag k="natural" v="bay" />
		<tag k="ssr:stedsnr" v="314398" />
	</node>
	<node id="-92760" lat="61.6529638876" lon="11.8251194524">
		<tag k="name" v="Husfloen" />
		<tag k="natural" v="water" />
		<tag k="ssr:stedsnr" v="495361" />
		<tag k="water" v="lake" />
	</node>
	<node id="-92759" lat="61.6843916703" lon="11.7070999963">
		<tag k="name" v="Kaldmyrbekken" />
		<tag k="ssr:stedsnr" v="495347" />
		<tag k="waterway" v="stream" />
	</node>
	<node id="-92753" lat="61.7830277743" lon="12.1218583375">
		<tag k="name" v="Storhestskotjønna" />
		<tag k="natural" v="water" />
		<tag k="ssr:stedsnr" v="483057" />
	</node>
	<node id="-92752" lat="61.7026722194" lon="11.6667972175">
		<tag k="name" v="Kastflotjønna" />
		<tag k="natural" v="water" />
		<tag k="ssr:stedsnr" v="482908" />
	</node>
	<node id="-92751" lat="61.9011111109" lon="11.7435694522">
		<tag k="name" v="Kåsbekkvika" />
		<tag k="natural" v="bay" />
		<tag k="ssr:stedsnr" v="482374" />
	</node>
	<node id="-92750" lat="61.8274166689" lon="11.7192916619">
		<tag k="name" v="Rundhølet" />
		<tag k="natural" v="bay" />
		<tag k="ssr:stedsnr" v="482372" />
	</node>
	<node id="-92748" lat="61.7610333312" lon="11.6464111062">
		<tag k="name" v="Elvsæterfossen" />
		<tag k="natural" v="waterfall" />
		<tag k="ssr:stedsnr" v="481942" />
	</node>
	<node id="-92747" lat="61.741488889" lon="11.6740416743">
		<tag k="name" v="Kåsholmen" />
		<tag k="place" v="islet" />
		<tag k="ssr:stedsnr" v="481935" />
	</node>
	<node id="-92746" lat="61.6719555542" lon="11.781091667">
		<tag k="name" v="Moholmen" />
		<tag k="place" v="islet" />
		<tag k="ssr:stedsnr" v="481819" />
	</node>
	<node id="-92745" lat="61.7761166685" lon="11.6400222134">
		<tag k="name" v="Elvsætertjønna" />
		<tag k="ssr:stedsnr" v="481792" />
		<tag k="waterway" v="stream" />
	</node>
	<node id="-92739" lat="61.8511749984" lon="12.1633805629">
		<tag k="name" v="Rønningsbekken" />
		<tag k="ssr:stedsnr" v="480873" />
		<tag k="waterway" v="stream" />
	</node>
	<node id="-92736" lat="61.6531416645" lon="12.1535722171">
		<tag k="name" v="Nordre Hemtjønna" />
		<tag k="natural" v="water" />
		<tag k="ssr:stedsnr" v="480767" />
	</node>
	<node id="-92731" lat="62.0831861119" lon="12.1793750093">
		<tag k="name" v="Gammelbubekken" />
		<tag k="ssr:stedsnr" v="480718" />
		<tag k="waterway" v="stream" />
	</node>
	<node id="-92730" lat="61.6635583361" lon="12.0065388837">
		<tag k="name" v="Storvika" />
		<tag k="natural" v="bay" />
		<tag k="ssr:stedsnr" v="480690" />
	</node>
	<node id="-92725" lat="62.0805777798" lon="11.6581527737">
		<tag k="name" v="Brenntangbekken" />
		<tag k="ssr:stedsnr" v="480488" />
		<tag k="waterway" v="stream" />
	</node>
	<node id="-92720" lat="62.0239333372" lon="11.7456111068">
		<tag k="name" v="Svinsjøsundet" />
		<tag k="natural" v="strait" />
		<tag k="ssr:stedsnr" v="480358" />
	</node>
	<node id="-92717" lat="62.1159805543" lon="11.9654388924">
		<tag k="name" v="Volsjøtjønna" />
		<tag k="natural" v="water" />
		<tag k="ssr:stedsnr" v="480263" />
	</node>
	<node id="-92716" lat="61.6473472236" lon="11.8324416704">
		<tag k="name" v="Strikåsa" />
		<tag k="ssr:stedsnr" v="473142" />
		<tag k="waterway" v="rapids" />
	</node>
	<node id="-92712" lat="61.9485472218" lon="12.1124749975">
		<tag k="name" v="Komanderbekken" />
		<tag k="ssr:stedsnr" v="466115" />
		<tag k="waterway" v="stream" />
	</node>
	<node id="-92707" lat="62.0208222234" lon="11.8467888879">
		<tag k="alt_name" v="Risbekktjønna" />
		<tag k="name" v="Finnrotjønna" />
		<tag k="natural" v="water" />
		<tag k="ssr:stedsnr" v="446421" />
	</node>
	<node id="-92706" lat="62.3298861147" lon="11.9670694385">
		<tag k="name" v="Røvolbekkodden" />
		<tag k="natural" v="cape" />
		<tag k="ssr:stedsnr" v="445873" />
	</node>
	<node id="-92704" lat="62.1859166679" lon="11.8685861153">
		<tag k="name" v="Stalloddholman" />
		<tag k="place" v="islet" />
		<tag k="ssr:stedsnr" v="445455" />
	</node>
	<node id="-92702" lat="61.8398250035" lon="11.722622217">
		<tag k="name" v="Røskgjotvelta" />
		<tag k="place" v="locality" />
		<tag k="ssr:stedsnr" v="444250" />
	</node>
	<node id="-92697" lat="61.9776861095" lon="11.9736027729">
		<tag k="name" v="Stenbekken" />
		<tag k="ssr:stedsnr" v="480120" />
		<tag k="waterway" v="stream" />
	</node>
	<node id="-92695" lat="61.9678666671" lon="11.987341669">
		<tag k="name" v="Storbekken" />
		<tag k="ssr:stedsnr" v="480114" />
		<tag k="waterway" v="stream" />
	</node>
	<node id="-92694" lat="61.901080556" lon="11.7578750053">
		<tag k="name" v="Fiskejoneset" />
		<tag k="natural" v="cape" />
		<tag k="ssr:stedsnr" v="436992" />
	</node>
	<node id="-92691" lat="61.9673527817" lon="12.1391833268">
		<tag k="name" v="Håan" />
		<tag k="natural" v="water" />
		<tag k="ssr:stedsnr" v="436889" />
	</node>
	<node id="-92689" lat="61.9510944471" lon="12.1192000098">
		<tag k="name" v="Halvorsjøen" />
		<tag k="natural" v="water" />
		<tag k="ssr:stedsnr" v="436881" />
		<tag k="water" v="lake" />
	</node>
	<node id="-92687" lat="61.9106388893" lon="11.8828000002">
		<tag k="name" v="Bjerta" />
		<tag k="ssr:stedsnr" v="436868" />
		<tag k="waterway" v="river" />
	</node>
	<node id="-92686" lat="61.8988055512" lon="11.9215138879">
		<tag k="name" v="Krokettjønna" />
		<tag k="natural" v="water" />
		<tag k="ssr:stedsnr" v="436862" />
	</node>
	<node id="-92685" lat="61.909705554" lon="11.9232500002">
		<tag k="name" v="Hølbekken" />
		<tag k="ssr:stedsnr" v="436860" />
		<tag k="waterway" v="stream" />
	</node>
	<node id="-92683" lat="61.9256388868" lon="12.0147583242">
		<tag k="name" v="Aurtjønna" />
		<tag k="natural" v="water" />
		<tag k="ssr:stedsnr" v="436853" />
	</node>
	<node id="-92681" lat="61.8918583345" lon="11.9446638903">
		<tag k="name" v="Stortjønn" />
		<tag k="natural" v="water" />
		<tag k="ssr:stedsnr" v="436834" />
	</node>
	<node id="-92676" lat="62.0180416667" lon="11.7471805531">
		<tag k="name" v="Kråkholmen" />
		<tag k="place" v="islet" />
		<tag k="ssr:stedsnr" v="436738" />
	</node>
	<node id="-92675" lat="62.0237972999" lon="12.1355864452">
		<tag k="name" v="Gutulisjøen" />
		<tag k="natural" v="water" />
		<tag k="ssr:stedsnr" v="436732" />
		<tag k="water" v="lake" />
	</node>
	<node id="-92674" lat="62.2623169638" lon="12.2730931565">
		<tag k="name" v="Vonsjøen" />
		<tag k="natural" v="water" />
		<tag k="ssr:stedsnr" v="436662" />
		<tag k="water" v="lake" />
	</node>
	<node id="-92673" lat="62.3344999976" lon="12.2500833408">
		<tag k="name" v="Rogen" />
		<tag k="natural" v="water" />
		<tag k="ssr:stedsnr" v="436650" />
		<tag k="water" v="lake" />
	</node>
	<node id="-92672" lat="62.268666669" lon="12.2385861085">
		<tag k="name" v="Kratstjønnan" />
		<tag k="natural" v="water" />
		<tag k="ssr:stedsnr" v="436645" />
	</node>
	<node id="-92671" lat="62.3059833355" lon="12.1447916737">
		<tag k="name" v="Abbortjønna" />
		<tag k="natural" v="water" />
		<tag k="ssr:stedsnr" v="436568" />
	</node>
	<node id="-92669" lat="62.3276249971" lon="12.0186444494">
		<tag k="name" v="Røvoltjønnan" />
		<tag k="natural" v="water" />
		<tag k="ssr:stedsnr" v="436556" />
	</node>
	<node id="-92668" lat="62.3416194427" lon="12.0567277848">
		<tag k="name" v="Svarttjønna" />
		<tag k="natural" v="water" />
		<tag k="ssr:stedsnr" v="436555" />
	</node>
	<node id="-92667" lat="62.0928194443" lon="11.6693583243">
		<tag k="name" v="Sømåa" />
		<tag k="ssr:stedsnr" v="436384" />
		<tag k="waterway" v="river" />
	</node>
	<node id="-92664" lat="62.1470861157" lon="11.7563749976">
		<tag k="name" v="Storholmen" />
		<tag k="place" v="islet" />
		<tag k="ssr:stedsnr" v="436348" />
	</node>
	<node id="-92661" lat="62.1260305546" lon="11.7195055489">
		<tag k="name" v="Buvika" />
		<tag k="natural" v="bay" />
		<tag k="ssr:stedsnr" v="436237" />
	</node>
	<node id="-92658" lat="61.9977083367" lon="11.9757444455">
		<tag k="name" v="Rørtjønna" />
		<tag k="natural" v="water" />
		<tag k="ssr:stedsnr" v="435931" />
	</node>
	<node id="-92656" lat="61.9805416653" lon="11.9949000047">
		<tag k="alt_name" v="Sorksjøen" />
		<tag k="name" v="Store Sorksjøen" />
		<tag k="natural" v="water" />
		<tag k="ssr:stedsnr" v="435916" />
		<tag k="water" v="lake" />
	</node>
	<node id="-92648" lat="61.7017333293" lon="12.1774027718">
		<tag k="name" v="Nørdresjøen" />
		<tag k="natural" v="water" />
		<tag k="ssr:stedsnr" v="435744" />
	</node>
	<node id="-92646" lat="61.6336416675" lon="12.0126777698">
		<tag k="name" v="Borkbuvika" />
		<tag k="natural" v="bay" />
		<tag k="ssr:stedsnr" v="435704" />
	</node>
	<node id="-92643" lat="62.0241833356" lon="11.6575305558">
		<tag k="name" v="Holmtjønna" />
		<tag k="natural" v="water" />
		<tag k="ssr:stedsnr" v="435468" />
	</node>
	<node id="-92642" lat="61.6535055582" lon="11.7845888943">
		<tag k="alt_name" v="Tangjobekken" />
		<tag k="name" v="Tangbekken" />
		<tag k="ssr:stedsnr" v="435410" />
		<tag k="waterway" v="stream" />
	</node>
	<node id="-92640" lat="62.2069666627" lon="11.9432888981">
		<tag k="name" v="Litleholmen" />
		<tag k="place" v="islet" />
		<tag k="ssr:stedsnr" v="435384" />
	</node>
	<node id="-92639" lat="62.0769233568" lon="12.0582391127">
		<tag k="name" v="Hammarsjøen" />
		<tag k="natural" v="water" />
		<tag k="ssr:stedsnr" v="435323" />
		<tag k="water" v="lake" />
	</node>
	<node id="-92638" lat="62.0747361144" lon="12.2007666594">
		<tag k="name" v="Teltbekken" />
		<tag k="ssr:stedsnr" v="435319" />
		<tag k="waterway" v="stream" />
	</node>
	<node id="-92635" lat="61.7364944467" lon="11.751794452">
		<tag k="alt_name" v="Hølbekken" />
		<tag k="name" v="Holbekken" />
		<tag k="ssr:stedsnr" v="435302" />
		<tag k="waterway" v="stream" />
	</node>
	<node id="-92633" lat="61.7337722202" lon="11.6699000062">
		<tag k="name" v="Svartbotnen" />
		<tag k="natural" v="water" />
		<tag k="ssr:stedsnr" v="435278" />
	</node>
	<node id="-92627" lat="61.8726472189" lon="12.1074249983">
		<tag k="name" v="Gjeddvikholman" />
		<tag k="place" v="islet" />
		<tag k="ssr:stedsnr" v="423014" />
	</node>
	<node id="-92626" lat="61.819274041" lon="12.0597636886">
		<tag k="alt_name" v="Kvisla, østre" />
		<tag k="name" v="Østre Kvisla" />
		<tag k="ssr:stedsnr" v="422799" />
		<tag k="waterway" v="stream" />
	</node>
	<node id="-92624" lat="61.757938888" lon="11.6527361094">
		<tag k="name" v="Elvsæterfloen" />
		<tag k="natural" v="water" />
		<tag k="ssr:stedsnr" v="421949" />
		<tag k="water" v="lake" />
	</node>
	<node id="-92623" lat="61.769691669" lon="11.6831555567">
		<tag k="name" v="Stormyrtjønna" />
		<tag k="natural" v="water" />
		<tag k="ssr:stedsnr" v="421817" />
	</node>
	<node id="-92622" lat="61.7679527768" lon="11.6777777693">
		<tag k="name" v="Stortingsmannsvika" />
		<tag k="natural" v="bay" />
		<tag k="ssr:stedsnr" v="421815" />
	</node>
	<node id="-92621" lat="62.0632749985" lon="11.7379444443">
		<tag k="name" v="Bekkjølbekken" />
		<tag k="ssr:stedsnr" v="421398" />
		<tag k="waterway" v="stream" />
	</node>
	<node id="-92620" lat="61.7290111155" lon="12.0926555593">
		<tag k="name" v="Storbekken" />
		<tag k="ssr:stedsnr" v="421190" />
		<tag k="waterway" v="stream" />
	</node>
	<node id="-92619" lat="61.7142055543" lon="12.044033328">
		<tag k="name" v="Nytjønna" />
		<tag k="natural" v="water" />
		<tag k="ssr:stedsnr" v="421033" />
	</node>
	<node id="-92617" lat="62.1640999982" lon="11.9317888896">
		<tag k="name" v="Mælen" />
		<tag k="natural" v="beach" />
		<tag k="ssr:stedsnr" v="420928" />
	</node>
	<node id="-92616" lat="62.1681388922" lon="11.9396527689">
		<tag k="name" v="Elgåvika" />
		<tag k="natural" v="bay" />
		<tag k="ssr:stedsnr" v="420918" />
	</node>
	<node id="-92614" lat="61.7606055548" lon="12.1406083416">
		<tag k="name" v="Brenntjønna" />
		<tag k="natural" v="water" />
		<tag k="ssr:stedsnr" v="420884" />
	</node>
	<node id="-92612" lat="61.8006666698" lon="11.6988111026">
		<tag k="loc_name" v="Slaggbekken" />
		<tag k="name" v="Sladdbekken" />
		<tag k="ssr:stedsnr" v="420857" />
		<tag k="waterway" v="stream" />
	</node>
	<node id="-92610" lat="61.6611805573" lon="11.7813499923">
		<tag k="name" v="Kanalen" />
		<tag k="ssr:stedsnr" v="420818" />
		<tag k="waterway" v="stream" />
	</node>
	<node id="-92609" lat="61.6744249977" lon="11.7709555647">
		<tag k="name" v="Mælerfloen" />
		<tag k="natural" v="water" />
		<tag k="ssr:stedsnr" v="420813" />
		<tag k="water" v="lake" />
	</node>
	<node id="-92607" lat="61.6497000004" lon="12.1776111107">
		<tag k="name" v="Lillerøbekken" />
		<tag k="ssr:stedsnr" v="420778" />
		<tag k="waterway" v="stream" />
	</node>
	<node id="-92604" lat="61.653769443" lon="12.159758342">
		<tag k="name" v="Jontjønna" />
		<tag k="natural" v="water" />
		<tag k="ssr:stedsnr" v="420766" />
	</node>
	<node id="-92603" lat="62.0201972179" lon="12.1516111109">
		<tag k="name" v="Langodden" />
		<tag k="natural" v="cape" />
		<tag k="ssr:stedsnr" v="420753" />
	</node>
	<node id="-92600" lat="62.0017805549" lon="11.890675007">
		<tag k="name" v="Rødsandodden" />
		<tag k="natural" v="cape" />
		<tag k="ssr:stedsnr" v="420732" />
	</node>
	<node id="-92595" lat="61.706550001" lon="11.9775888973">
		<tag k="name" v="Brukskjæret" />
		<tag k="place" v="islet" />
		<tag k="ssr:stedsnr" v="420664" />
	</node>
	<node id="-92594" lat="61.7136777757" lon="11.971594447">
		<tag k="name" v="Lerfallet" />
		<tag k="ssr:stedsnr" v="420663" />
		<tag k="waterway" v="rapids" />
	</node>
	<node id="-92591" lat="61.7764444439" lon="12.1347333424">
		<tag k="name" v="Midtre tjønna" />
		<tag k="natural" v="water" />
		<tag k="ssr:stedsnr" v="420619" />
	</node>
	<node id="-92589" lat="61.8709388844" lon="12.1477638912">
		<tag k="name" v="Lilleboodden" />
		<tag k="natural" v="cape" />
		<tag k="ssr:stedsnr" v="420609" />
	</node>
	<node id="-92588" lat="61.9273111109" lon="11.90488612">
		<tag k="name" v="Bjertoset" />
		<tag k="natural" v="bay" />
		<tag k="ssr:stedsnr" v="420576" />
	</node>
	<node id="-92587" lat="61.9061888885" lon="11.8831861049">
		<tag k="name" v="Kløfte" />
		<tag k="place" v="locality" />
		<tag k="ssr:stedsnr" v="420482" />
	</node>
	<node id="-92586" lat="62.0104416681" lon="11.7356805506">
		<tag k="name" v="Massingvika" />
		<tag k="natural" v="bay" />
		<tag k="ssr:stedsnr" v="420379" />
	</node>
	<node id="-92585" lat="62.0150499996" lon="11.670955555">
		<tag k="name" v="Doloken" />
		<tag k="natural" v="water" />
		<tag k="ssr:stedsnr" v="420365" />
	</node>
	<node id="-92584" lat="62.0119555574" lon="11.6679694385">
		<tag k="name" v="Abbortjønna" />
		<tag k="natural" v="water" />
		<tag k="ssr:stedsnr" v="420364" />
	</node>
	<node id="-92581" lat="61.7512777753" lon="11.7344694361">
		<tag k="name" v="Ragnvaldstjønna" />
		<tag k="natural" v="water" />
		<tag k="ssr:stedsnr" v="420188" />
	</node>
	<node id="-92579" lat="61.6810250028" lon="11.7594444518">
		<tag k="name" v="Fiskvikkrokbekken" />
		<tag k="ssr:stedsnr" v="420165" />
		<tag k="waterway" v="stream" />
	</node>
	<node id="-92575" lat="62.0995361123" lon="11.6690305573">
		<tag k="name" v="Storholmen" />
		<tag k="place" v="islet" />
		<tag k="ssr:stedsnr" v="420036" />
	</node>
	<node id="-92573" lat="62.1399305523" lon="11.6356805587">
		<tag k="name" v="Søndre Langvika" />
		<tag k="natural" v="bay" />
		<tag k="ssr:stedsnr" v="418872" />
	</node>
	<node id="-92568" lat="62.1279388888" lon="11.6484138897">
		<tag k="name" v="Håen" />
		<tag k="natural" v="water" />
		<tag k="ssr:stedsnr" v="480039" />
		<tag k="water" v="lake" />
	</node>
	<node id="-92567" lat="61.8685111154" lon="12.1167666667">
		<tag k="name" v="Storvika" />
		<tag k="natural" v="bay" />
		<tag k="ssr:stedsnr" v="480018" />
	</node>
	<node id="-92566" lat="62.058200004" lon="11.6870694511">
		<tag k="name" v="Pannhølet" />
		<tag k="place" v="locality" />
		<tag k="ssr:stedsnr" v="480013" />
	</node>
	<node id="-92563" lat="62.3296250036" lon="11.9807000038">
		<tag k="name" v="Røvolbekken" />
		<tag k="ssr:stedsnr" v="263857" />
		<tag k="waterway" v="stream" />
	</node>
	<node id="-92561" lat="61.8570388891" lon="11.8156749928">
		<tag k="name" v="Galtåsbekken" />
		<tag k="ssr:stedsnr" v="254956" />
		<tag k="waterway" v="stream" />
	</node>
	<node id="-92553" lat="62.2490249975" lon="12.2375749947">
		<tag k="name" v="Stormyrtjønnan" />
		<tag k="natural" v="water" />
		<tag k="ssr:stedsnr" v="254700" />
	</node>
	<node id="-92552" lat="62.2738694431" lon="12.2255111015">
		<tag k="name" v="Rundtjønna" />
		<tag k="natural" v="water" />
		<tag k="ssr:stedsnr" v="254642" />
	</node>
	<node id="-92550" lat="62.2854083371" lon="11.9477583326">
		<tag k="alt_name" v="Kuneset, l" />
		<tag k="name" v="Litle Kuneset" />
		<tag k="natural" v="cape" />
		<tag k="ssr:stedsnr" v="254553" />
	</node>
	<node id="-92549" lat="62.110511107" lon="11.6600416663">
		<tag k="name" v="Langhåen" />
		<tag k="natural" v="water" />
		<tag k="ssr:stedsnr" v="254368" />
		<tag k="water" v="lake" />
	</node>
	<node id="-92547" lat="62.1484750008" lon="11.7105416596">
		<tag k="name" v="Tangbekken" />
		<tag k="ssr:stedsnr" v="254359" />
		<tag k="waterway" v="stream" />
	</node>
	<node id="-92546" lat="61.9059416697" lon="11.8002916749">
		<tag k="alt_name" v="Kvernhusbekken, s" />
		<tag k="name" v="Søndre Kvernhusbekken" />
		<tag k="ssr:stedsnr" v="253997" />
		<tag k="waterway" v="stream" />
	</node>
	<node id="-92542" lat="61.8900194458" lon="12.1510388824">
		<tag k="alt_name" v="Vordåa" />
		<tag k="name" v="Vålåa" />
		<tag k="ssr:stedsnr" v="253878" />
		<tag k="waterway" v="river" />
	</node>
	<node id="-92536" lat="61.8333722226" lon="12.1171500014">
		<tag k="name" v="Røkketjønnan" />
		<tag k="natural" v="water" />
		<tag k="ssr:stedsnr" v="253823" />
	</node>
	<node id="-92533" lat="62.005416671" lon="11.8385611047">
		<tag k="name" v="Gullsmedtjønna" />
		<tag k="natural" v="water" />
		<tag k="ssr:stedsnr" v="253771" />
	</node>
	<node id="-92532" lat="62.0123444465" lon="11.7402277851">
		<tag k="name" v="Drukningsodden" />
		<tag k="natural" v="cape" />
		<tag k="ssr:stedsnr" v="253766" />
	</node>
	<node id="-92527" lat="61.6914249975" lon="11.9384805502">
		<tag k="name" v="Kansbekken" />
		<tag k="ssr:stedsnr" v="253740" />
		<tag k="waterway" v="stream" />
	</node>
	<node id="-92526" lat="61.7549806723" lon="12.0485105826">
		<tag k="name" v="Blakksjøen" />
		<tag k="natural" v="water" />
		<tag k="ssr:stedsnr" v="253736" />
		<tag k="water" v="lake" />
	</node>
	<node id="-92522" lat="61.6338138932" lon="12.2449000033">
		<tag k="name" v="Skagatjønna" />
		<tag k="natural" v="water" />
		<tag k="ssr:stedsnr" v="253533" />
	</node>
	<node id="-92517" lat="62.1720888904" lon="11.9384611105">
		<tag k="name" v="Hansodden" />
		<tag k="natural" v="cape" />
		<tag k="ssr:stedsnr" v="253416" />
	</node>
	<node id="-91878" lat="61.6486499965" lon="11.8345611136">
		<tag k="name" v="Kviløya" />
		<tag k="place" v="island" />
		<tag k="ssr:stedsnr" v="374350" />
	</node>
	<node id="-92514" lat="62.1843527765" lon="12.0546777764">
		<tag k="name" v="Sandtjønna" />
		<tag k="natural" v="water" />
		<tag k="ssr:stedsnr" v="253392" />
	</node>
	<node id="-92513" lat="62.2207055515" lon="11.8680166689">
		<tag k="name" v="Bergvika" />
		<tag k="natural" v="bay" />
		<tag k="ssr:stedsnr" v="253367" />
	</node>
	<node id="-92511" lat="62.0734111105" lon="12.0442305483">
		<tag k="name" v="Storsjøen" />
		<tag k="natural" v="water" />
		<tag k="ssr:stedsnr" v="253336" />
		<tag k="water" v="lake" />
	</node>
	<node id="-92510" lat="62.0575444424" lon="12.0918055633">
		<tag k="name" v="Yttersjøen" />
		<tag k="natural" v="water" />
		<tag k="ssr:stedsnr" v="253332" />
		<tag k="water" v="lake" />
	</node>
	<node id="-92509" lat="62.0643111135" lon="11.75658611">
		<tag k="name" v="Smårøsttjønnan" />
		<tag k="natural" v="water" />
		<tag k="ssr:stedsnr" v="253327" />
	</node>
	<node id="-92506" lat="61.9316277806" lon="11.7313638886">
		<tag k="name" v="Sæterbekken" />
		<tag k="ssr:stedsnr" v="253131" />
		<tag k="waterway" v="stream" />
	</node>
	<node id="-92504" lat="61.6456027821" lon="12.1656083338">
		<tag k="name" v="Hoptjønna" />
		<tag k="natural" v="water" />
		<tag k="ssr:stedsnr" v="252647" />
	</node>
	<node id="-92503" lat="61.6713972221" lon="12.13938333">
		<tag k="name" v="Grøttjønna" />
		<tag k="natural" v="water" />
		<tag k="ssr:stedsnr" v="252604" />
	</node>
	<node id="-92494" lat="61.6417888886" lon="12.0273694533">
		<tag k="name" v="Tytlingneset" />
		<tag k="natural" v="cape" />
		<tag k="ssr:stedsnr" v="241249" />
	</node>
	<node id="-92492" lat="61.8850944472" lon="12.0073805556">
		<tag k="name" v="Blokka" />
		<tag k="natural" v="bay" />
		<tag k="ssr:stedsnr" v="241022" />
	</node>
	<node id="-92491" lat="61.8684333325" lon="11.7292361108">
		<tag k="name" v="Stengarden" />
		<tag k="natural" v="beach" />
		<tag k="ssr:stedsnr" v="240416" />
	</node>
	<node id="-92490" lat="61.8763888857" lon="11.7276333398">
		<tag k="name" v="Øvre Fallet" />
		<tag k="ssr:stedsnr" v="240414" />
		<tag k="waterway" v="rapids" />
	</node>
	<node id="-92489" lat="61.8121333363" lon="11.7118527829">
		<tag k="name" v="Brattbekken" />
		<tag k="ssr:stedsnr" v="240386" />
		<tag k="waterway" v="stream" />
	</node>
	<node id="-92486" lat="61.9264277762" lon="12.1164944423">
		<tag k="name" v="Svarttjønnbekken" />
		<tag k="ssr:stedsnr" v="239106" />
		<tag k="waterway" v="stream" />
	</node>
	<node id="-92484" lat="61.7746083297" lon="11.6293111094">
		<tag k="name" v="Elvbrufossen" />
		<tag k="natural" v="waterfall" />
		<tag k="ssr:stedsnr" v="238795" />
	</node>
	<node id="-92483" lat="61.7326194448" lon="11.762205551">
		<tag k="name" v="Sagbekkdalsbekken" />
		<tag k="ssr:stedsnr" v="238788" />
		<tag k="waterway" v="stream" />
	</node>
	<node id="-91872" lat="62.0580444483" lon="11.9734333379">
		<tag k="name" v="Skogtjønna" />
		<tag k="natural" v="water" />
		<tag k="ssr:stedsnr" v="374302" />
	</node>
	<node id="-92477" lat="61.9828888877" lon="11.8911194445">
		<tag k="name" v="Litlbuvika" />
		<tag k="natural" v="bay" />
		<tag k="ssr:stedsnr" v="238727" />
	</node>
	<node id="-92473" lat="61.8687194448" lon="12.1384222165">
		<tag k="name" v="Kviltsand" />
		<tag k="natural" v="beach" />
		<tag k="ssr:stedsnr" v="238606" />
	</node>
	<node id="-92471" lat="61.8717694485" lon="11.9877305593">
		<tag k="name" v="Hansbakktjønna" />
		<tag k="natural" v="water" />
		<tag k="ssr:stedsnr" v="238124" />
	</node>
	<node id="-92470" lat="62.1525999972" lon="11.9568111112">
		<tag k="name" v="Jensloken" />
		<tag k="natural" v="water" />
		<tag k="ssr:stedsnr" v="238100" />
		<tag k="water" v="pond" />
	</node>
	<node id="-92468" lat="62.1159805543" lon="11.655961104">
		<tag k="name" v="Storholmen" />
		<tag k="place" v="islet" />
		<tag k="ssr:stedsnr" v="238026" />
	</node>
	<node id="-92465" lat="61.6480527799" lon="12.1536388821">
		<tag k="name" v="Vidammen" />
		<tag k="natural" v="water" />
		<tag k="ssr:stedsnr" v="237757" />
		<tag k="water" v="pond" />
	</node>
	<node id="-92462" lat="61.7759972203" lon="12.1448555537">
		<tag k="name" v="Midtjønnbekken" />
		<tag k="ssr:stedsnr" v="237602" />
		<tag k="waterway" v="stream" />
	</node>
	<node id="-92461" lat="62.0142777769" lon="11.776888884">
		<tag k="name" v="Måsåbekkholmen" />
		<tag k="place" v="islet" />
		<tag k="ssr:stedsnr" v="237395" />
	</node>
	<node id="-92459" lat="62.0129361118" lon="11.7510611085">
		<tag k="name" v="Gottodden" />
		<tag k="natural" v="cape" />
		<tag k="ssr:stedsnr" v="237380" />
	</node>
	<node id="-92458" lat="61.8408861144" lon="11.8880722146">
		<tag k="name" v="Jakobsbekken" />
		<tag k="ssr:stedsnr" v="237372" />
		<tag k="waterway" v="stream" />
	</node>
	<node id="-92457" lat="62.0381333353" lon="11.6681777803">
		<tag k="name" v="Granhullet" />
		<tag k="natural" v="water" />
		<tag k="ssr:stedsnr" v="237355" />
	</node>
	<node id="-92456" lat="62.0462305584" lon="11.6604888854">
		<tag k="name" v="Skåran" />
		<tag k="natural" v="water" />
		<tag k="ssr:stedsnr" v="237354" />
	</node>
	<node id="-92454" lat="61.6218666667" lon="12.0315944372">
		<tag k="name" v="Storrotneset" />
		<tag k="natural" v="cape" />
		<tag k="ssr:stedsnr" v="237196" />
	</node>
	<node id="-92451" lat="62.0594138863" lon="12.0027638899">
		<tag k="name" v="Kjøråa" />
		<tag k="ssr:stedsnr" v="237174" />
		<tag k="waterway" v="stream" />
	</node>
	<node id="-92450" lat="61.8487166685" lon="11.8451972249">
		<tag k="name" v="Tøsbekken" />
		<tag k="ssr:stedsnr" v="237491" />
		<tag k="waterway" v="stream" />
	</node>
	<node id="-92449" lat="61.6552555568" lon="11.7952500013">
		<tag k="name" v="Kanalen" />
		<tag k="natural" v="shoal" />
		<tag k="place" v="locality" />
		<tag k="ssr:stedsnr" v="237097" />
	</node>
	<node id="-92448" lat="61.8351416668" lon="12.038269449">
		<tag k="name" v="Storbekken" />
		<tag k="ssr:stedsnr" v="237017" />
		<tag k="waterway" v="stream" />
	</node>
	<node id="-92447" lat="61.6971305587" lon="11.720441661">
		<tag k="name" v="Hundsholmen" />
		<tag k="place" v="islet" />
		<tag k="ssr:stedsnr" v="237160" />
	</node>
	<node id="-92445" lat="61.6092472217" lon="12.0354305536">
		<tag k="name" v="Røneset" />
		<tag k="natural" v="cape" />
		<tag k="ssr:stedsnr" v="236581" />
	</node>
	<node id="-92444" lat="62.1717277737" lon="11.8648833358">
		<tag k="name" v="Svartskvampen" />
		<tag k="natural" v="shoal" />
		<tag k="place" v="locality" />
		<tag k="ssr:stedsnr" v="236223" />
	</node>
	<node id="-91866" lat="61.7183722208" lon="11.7452166603">
		<tag k="alt_name" v="Snertåa" />
		<tag k="name" v="Snerta" />
		<tag k="ssr:stedsnr" v="374286" />
		<tag k="waterway" v="river" />
	</node>
	<node id="-92442" lat="62.183116666" lon="11.8592833403">
		<tag k="name" v="Rotvikholmen" />
		<tag k="place" v="islet" />
		<tag k="ssr:stedsnr" v="236167" />
	</node>
	<node id="-92441" lat="61.6356305515" lon="11.8509527811">
		<tag k="name" v="Vikholmen" />
		<tag k="natural" v="cape" />
		<tag k="ssr:stedsnr" v="235045" />
	</node>
	<node id="-92434" lat="62.0498444453" lon="11.7775722271">
		<tag k="name" v="Trolltjønnsundet" />
		<tag k="natural" v="strait" />
		<tag k="ssr:stedsnr" v="224102" />
	</node>
	<node id="-92433" lat="61.7478833365" lon="11.9718249981">
		<tag k="name" v="Søndre Engeråa" />
		<tag k="ssr:stedsnr" v="223045" />
		<tag k="waterway" v="river" />
	</node>
	<node id="-92431" lat="61.9103583348" lon="12.048536105">
		<tag k="name" v="Kjølan" />
		<tag k="natural" v="water" />
		<tag k="ssr:stedsnr" v="221019" />
		<tag k="water" v="pond" />
	</node>
	<node id="-92424" lat="62.097201758" lon="11.9376430401">
		<tag k="name" v="Kjerrtjønna" />
		<tag k="natural" v="water" />
		<tag k="ssr:stedsnr" v="203434" />
		<tag k="water" v="lake" />
	</node>
	<node id="-92421" lat="61.8797499974" lon="11.7282194357">
		<tag k="alt_name" v="Galthovudet" />
		<tag k="name" v="Galthodet" />
		<tag k="place" v="locality" />
		<tag k="ssr:stedsnr" v="202285" />
	</node>
	<node id="-92419" lat="62.2953083327" lon="12.2599527856">
		<tag k="alt_name" v="Vonsjøen, l" />
		<tag k="name" v="Litle Vonsjøen" />
		<tag k="natural" v="water" />
		<tag k="ssr:stedsnr" v="194638" />
		<tag k="water" v="lake" />
	</node>
	<node id="-92415" lat="61.9997942432" lon="11.987906657">
		<tag k="name" v="Tolgesjøen" />
		<tag k="natural" v="water" />
		<tag k="ssr:stedsnr" v="193911" />
		<tag k="water" v="lake" />
	</node>
	<node id="-92413" lat="61.9738500015" lon="12.0870833306">
		<tag k="name" v="Ametartjønna" />
		<tag k="natural" v="water" />
		<tag k="ssr:stedsnr" v="193887" />
	</node>
	<node id="-92412" lat="61.9694601637" lon="11.9955449832">
		<tag k="alt_name" v="Sorksjøen, l;Lille Sorksjøen" />
		<tag k="name" v="Litle Sorksjøen" />
		<tag k="natural" v="water" />
		<tag k="ssr:stedsnr" v="193884" />
		<tag k="water" v="lake" />
	</node>
	<node id="-92410" lat="61.8998388858" lon="11.991708328">
		<tag k="name" v="Skitjønna" />
		<tag k="natural" v="water" />
		<tag k="ssr:stedsnr" v="193864" />
	</node>
	<node id="-92404" lat="61.8239972201" lon="12.0493833313">
		<tag k="name" v="Kløftet" />
		<tag k="place" v="locality" />
		<tag k="ssr:stedsnr" v="193808" />
	</node>
	<node id="-91859" lat="61.1588500022" lon="12.446380548">
		<tag k="fixme" v="multiple name tags, choose one and add the other to alt_name" />
		<tag k="name" v="Klara;Trysilelva" />
		<tag k="old_name" v="TrysildElv;Trysilelven" />
		<tag k="ssr:stedsnr" v="372795" />
		<tag k="waterway" v="river" />
	</node>
	<node id="-92400" lat="61.7810004171" lon="11.9553751925">
		<tag k="fixme" v="multiple name tags, choose one and add the other to alt_name" />
		<tag k="name" v="Ørnholbekken, nordre;Nordre Ørnhølbekken" />
		<tag k="ssr:stedsnr" v="193760" />
		<tag k="waterway" v="stream" />
	</node>
	<node id="-92398" lat="61.7823555564" lon="12.1307833417">
		<tag k="fixme" v="multiple name tags, choose one and add the other to alt_name" />
		<tag k="name" v="Hesteskovatna;Litlhestskotjønna" />
		<tag k="natural" v="water" />
		<tag k="ssr:stedsnr" v="193726" />
	</node>
	<node id="-92395" lat="62.3181166694" lon="12.1895499994">
		<tag k="name" v="Storfisktjønnan" />
		<tag k="natural" v="water" />
		<tag k="ssr:stedsnr" v="193575" />
	</node>
	<node id="-92392" lat="62.1379250013" lon="11.68891112">
		<tag k="name" v="Litlåa" />
		<tag k="ssr:stedsnr" v="193419" />
		<tag k="waterway" v="stream" />
	</node>
	<node id="-92389" lat="62.1389388929" lon="11.7447777723">
		<tag k="name" v="Roningsholmen" />
		<tag k="place" v="islet" />
		<tag k="ssr:stedsnr" v="193374" />
	</node>
	<node id="-92388" lat="62.1669249989" lon="11.8772861134">
		<tag k="name" v="Digerholmen" />
		<tag k="place" v="islet" />
		<tag k="ssr:stedsnr" v="193367" />
	</node>
	<node id="-92387" lat="62.2069222177" lon="12.1951750084">
		<tag k="name" v="Rønsjøbekken" />
		<tag k="ssr:stedsnr" v="193345" />
		<tag k="waterway" v="stream" />
	</node>
	<node id="-92386" lat="62.2049000012" lon="11.8739">
		<tag k="alt_name" v="Bergvikodden, l" />
		<tag k="name" v="Litjbergevikodden" />
		<tag k="natural" v="cape" />
		<tag k="ssr:stedsnr" v="193344" />
	</node>
	<node id="-92385" lat="62.1952999997" lon="12.1409249916">
		<tag k="name" v="Revlinglokane" />
		<tag k="natural" v="water" />
		<tag k="ssr:stedsnr" v="193340" />
	</node>
	<node id="-92383" lat="62.0559805529" lon="11.7667805539">
		<tag k="name" v="Trolltjønna" />
		<tag k="natural" v="water" />
		<tag k="ssr:stedsnr" v="193305" />
	</node>
	<node id="-92382" lat="62.0486722198" lon="11.7426166628">
		<tag k="name" v="Århovdtjønna" />
		<tag k="natural" v="water" />
		<tag k="ssr:stedsnr" v="193274" />
	</node>
	<node id="-92381" lat="62.0658861125" lon="11.8095361056">
		<tag k="name" v="Jonastjønna" />
		<tag k="natural" v="water" />
		<tag k="ssr:stedsnr" v="193266" />
	</node>
	<node id="-92379" lat="61.9910888914" lon="11.823136109">
		<tag k="name" v="Balvikbekken" />
		<tag k="ssr:stedsnr" v="193082" />
		<tag k="waterway" v="stream" />
	</node>
	<node id="-92378" lat="61.9838611149" lon="11.8003916642">
		<tag k="name" v="Lortholvika" />
		<tag k="natural" v="bay" />
		<tag k="ssr:stedsnr" v="193074" />
	</node>
	<node id="-92376" lat="61.7827482068" lon="11.6697535385">
		<tag k="loc_name" v="Vikbutjønnan" />
		<tag k="name" v="Vikbutjønna" />
		<tag k="natural" v="water" />
		<tag k="ssr:stedsnr" v="192935" />
		<tag k="water" v="lake" />
	</node>
	<node id="-92373" lat="61.7448833355" lon="12.0509861169">
		<tag k="name" v="Blakka" />
		<tag k="ssr:stedsnr" v="192730" />
		<tag k="waterway" v="stream" />
	</node>
	<node id="-92370" lat="61.6703499956" lon="12.1684833389">
		<tag k="name" v="Stortjønna" />
		<tag k="natural" v="water" />
		<tag k="ssr:stedsnr" v="192685" />
	</node>
	<node id="-92369" lat="61.6463388916" lon="12.111247219">
		<tag k="name" v="Tuvslåttbekken" />
		<tag k="ssr:stedsnr" v="192672" />
		<tag k="waterway" v="stream" />
	</node>
	<node id="-92368" lat="61.6708333332" lon="11.7986250019">
		<tag k="name" v="Nybubekken" />
		<tag k="ssr:stedsnr" v="192373" />
		<tag k="waterway" v="stream" />
	</node>
	<node id="-92367" lat="61.7271305539" lon="11.6843055548">
		<tag k="name" v="Bjørkøya" />
		<tag k="place" v="islet" />
		<tag k="ssr:stedsnr" v="192305" />
	</node>
	<node id="-92366" lat="62.0957583359" lon="12.0969583299">
		<tag k="name" v="Lifjelltjønna" />
		<tag k="natural" v="water" />
		<tag k="ssr:stedsnr" v="192298" />
	</node>
	<node id="-92365" lat="62.0747805519" lon="11.9590388885">
		<tag k="name" v="Flåtesjøen" />
		<tag k="natural" v="water" />
		<tag k="ssr:stedsnr" v="192294" />
	</node>
	<node id="-91852" lat="62.149508333" lon="11.7548333335">
		<tag k="name" v="Orrholmen" />
		<tag k="place" v="islet" />
		<tag k="ssr:stedsnr" v="362491" />
	</node>
	<node id="-92357" lat="61.8851249962" lon="11.7489694527">
		<tag k="name" v="Granodden" />
		<tag k="natural" v="cape" />
		<tag k="ssr:stedsnr" v="179379" />
	</node>
	<node id="-92353" lat="61.9976833349" lon="12.0691111051">
		<tag k="name" v="Vatningsloken" />
		<tag k="natural" v="water" />
		<tag k="ssr:stedsnr" v="178109" />
		<tag k="water" v="pond" />
	</node>
	<node id="-92352" lat="61.6533722182" lon="12.1454722231">
		<tag k="name" v="Gammelbrufloen" />
		<tag k="ssr:stedsnr" v="177991" />
		<tag k="waterway" v="river" />
	</node>
	<node id="-92351" lat="61.6849111146" lon="12.1574027814">
		<tag k="name" v="Lågtjønna" />
		<tag k="natural" v="water" />
		<tag k="ssr:stedsnr" v="177921" />
	</node>
	<node id="-92349" lat="61.6797666682" lon="12.1478555489">
		<tag k="name" v="Østre Tangbekken" />
		<tag k="ssr:stedsnr" v="177904" />
		<tag k="waterway" v="stream" />
	</node>
	<node id="-92346" lat="61.7050861071" lon="11.7178861138">
		<tag k="name" v="Harrfloen" />
		<tag k="natural" v="water" />
		<tag k="ssr:stedsnr" v="177789" />
		<tag k="water" v="lake" />
	</node>
	<node id="-92343" lat="61.8290083334" lon="12.1458555629">
		<tag k="name" v="Kvistflået" />
		<tag k="natural" v="water" />
		<tag k="ssr:stedsnr" v="177601" />
		<tag k="water" v="lake" />
	</node>
	<node id="-92341" lat="62.1718749976" lon="11.9644583323">
		<tag k="name" v="Olliverloken" />
		<tag k="natural" v="water" />
		<tag k="ssr:stedsnr" v="177436" />
		<tag k="water" v="pond" />
	</node>
	<node id="-92330" lat="61.9741416697" lon="11.9684444385">
		<tag k="name" v="Stendalstjønna" />
		<tag k="natural" v="water" />
		<tag k="ssr:stedsnr" v="177137" />
	</node>
	<node id="-92329" lat="61.6566250005" lon="11.8156638879">
		<tag k="name" v="Øvre Embretsholmen" />
		<tag k="place" v="islet" />
		<tag k="ssr:stedsnr" v="177117" />
	</node>
	<node id="-92328" lat="61.6508388889" lon="11.8308916624">
		<tag k="name" v="Øybrøstet" />
		<tag k="natural" v="water" />
		<tag k="ssr:stedsnr" v="177114" />
		<tag k="water" v="lake" />
	</node>
	<node id="-92322" lat="61.7566388899" lon="11.9322944409">
		<tag k="name" v="Dølvetra" />
		<tag k="ssr:stedsnr" v="162988" />
		<tag k="waterway" v="stream" />
	</node>
	<node id="-92317" lat="61.5783055559" lon="11.8503916719">
		<tag k="name" v="Veslelttjønna" />
		<tag k="natural" v="water" />
		<tag k="ssr:stedsnr" v="146195" />
	</node>
	<node id="-92316" lat="61.72077222" lon="11.9803833415">
		<tag k="name" v="Halvmilbekken" />
		<tag k="ssr:stedsnr" v="145668" />
		<tag k="waterway" v="stream" />
	</node>
	<node id="-92956" lat="61.9774222218" lon="12.0860722145">
		<tag k="name" v="Stentjønna" />
		<tag k="natural" v="water" />
		<tag k="ssr:stedsnr" v="556899" />
	</node>
	<node id="-92314" lat="62.3172750039" lon="11.9229250058">
		<tag k="name" v="Tømmerodden" />
		<tag k="natural" v="cape" />
		<tag k="ssr:stedsnr" v="141852" />
	</node>
	<node id="-92313" lat="62.2674694412" lon="12.2436611177">
		<tag k="name" v="Titjønna" />
		<tag k="natural" v="water" />
		<tag k="ssr:stedsnr" v="133649" />
	</node>
	<node id="-92312" lat="62.2543166649" lon="12.2044944446">
		<tag k="name" v="Litlebekken" />
		<tag k="ssr:stedsnr" v="133638" />
		<tag k="waterway" v="stream" />
	</node>
	<node id="-92311" lat="62.26651389" lon="12.1737527866">
		<tag k="name" v="Sætertjønna" />
		<tag k="natural" v="water" />
		<tag k="ssr:stedsnr" v="133635" />
	</node>
	<node id="-92310" lat="62.2910027793" lon="12.2125500033">
		<tag k="name" v="Voltjønnan" />
		<tag k="natural" v="water" />
		<tag k="ssr:stedsnr" v="133546" />
	</node>
	<node id="-92309" lat="62.2812250019" lon="12.149325005">
		<tag k="name" v="Grantjønnan" />
		<tag k="natural" v="water" />
		<tag k="ssr:stedsnr" v="133545" />
	</node>
	<node id="-92308" lat="61.8502999983" lon="11.7581749966">
		<tag k="name" v="Søndre Holtjønna" />
		<tag k="natural" v="water" />
		<tag k="ssr:stedsnr" v="132965" />
	</node>
	<node id="-92305" lat="61.8034250005" lon="11.832363896">
		<tag k="name" v="Vesterbekken" />
		<tag k="ssr:stedsnr" v="132938" />
		<tag k="waterway" v="stream" />
	</node>
	<node id="-92300" lat="61.9978361134" lon="12.1975249951">
		<tag k="name" v="Gutua" />
		<tag k="ssr:stedsnr" v="132900" />
		<tag k="waterway" v="river" />
	</node>
	<node id="-92299" lat="61.9724083369" lon="11.9289138892">
		<tag k="name" v="Sorkodden" />
		<tag k="natural" v="cape" />
		<tag k="ssr:stedsnr" v="132898" />
	</node>
	<node id="-92298" lat="61.9705166699" lon="11.9402555468">
		<tag k="name" v="Sorkvika" />
		<tag k="natural" v="bay" />
		<tag k="ssr:stedsnr" v="132897" />
	</node>
	<node id="-92296" lat="61.967911114" lon="11.9661972161">
		<tag k="name" v="Sorka" />
		<tag k="ssr:stedsnr" v="132889" />
		<tag k="waterway" v="stream" />
	</node>
	<node id="-92293" lat="61.9222527763" lon="12.1733416654">
		<tag k="name" v="Skjervagtjønna" />
		<tag k="natural" v="water" />
		<tag k="ssr:stedsnr" v="132862" />
	</node>
	<node id="-92288" lat="61.8810472201" lon="11.9919277772">
		<tag k="name" v="Sørsjøtjønn" />
		<tag k="natural" v="water" />
		<tag k="ssr:stedsnr" v="132845" />
	</node>
	<node id="-92284" lat="61.8449027822" lon="12.1567250037">
		<tag k="alt_name" v="Kulkjølbekken" />
		<tag k="name" v="Kullkjølbekken" />
		<tag k="ssr:stedsnr" v="132797" />
		<tag k="waterway" v="stream" />
	</node>
	<node id="-92281" lat="61.81605" lon="12.1419805495">
		<tag k="alt_name" v="Tollåa, s" />
		<tag k="name" v="Søndre Tollåa" />
		<tag k="ssr:stedsnr" v="132782" />
		<tag k="waterway" v="stream" />
	</node>
	<node id="-92280" lat="61.8175744592" lon="12.0527139995">
		<tag k="alt_name" v="Kvisla, vestre;Litlkvisla" />
		<tag k="name" v="Vestre Kvisla" />
		<tag k="ssr:stedsnr" v="132771" />
		<tag k="waterway" v="stream" />
	</node>
	<node id="-92277" lat="61.7711194409" lon="12.1246888804">
		<tag k="name" v="Bjørntjønna" />
		<tag k="natural" v="water" />
		<tag k="ssr:stedsnr" v="132749" />
	</node>
	<node id="-92274" lat="62.2928583338" lon="12.1232777766">
		<tag k="name" v="Krokåthåen" />
		<tag k="place" v="locality" />
		<tag k="ssr:stedsnr" v="132591" />
	</node>
	<node id="-92273" lat="62.3268111084" lon="11.8136833255">
		<tag k="name" v="Stortjønn" />
		<tag k="natural" v="water" />
		<tag k="ssr:stedsnr" v="132581" />
	</node>
	<node id="-92272" lat="62.323452779" lon="11.8317916683">
		<tag k="name" v="Korstjønna" />
		<tag k="natural" v="water" />
		<tag k="ssr:stedsnr" v="132579" />
	</node>
	<node id="-92271" lat="62.3147805542" lon="11.8769416611">
		<tag k="name" v="Hyttbekken" />
		<tag k="ssr:stedsnr" v="132561" />
		<tag k="waterway" v="stream" />
	</node>
	<node id="-93769" lat="61.9343154546" lon="11.8905247915">
		<tag k="name" v="Gløten" />
		<tag k="natural" v="bay" />
		<tag k="ssr:stedsnr" v="921873" />
	</node>
	<node id="-92267" lat="62.1921138847" lon="11.8736305585">
		<tag k="name" v="Stalloddan" />
		<tag k="natural" v="cape" />
		<tag k="ssr:stedsnr" v="132309" />
	</node>
	<node id="-92266" lat="62.2433333343" lon="12.1915805536">
		<tag k="name" v="Sylfjellbekken" />
		<tag k="ssr:stedsnr" v="132294" />
		<tag k="waterway" v="stream" />
	</node>
	<node id="-92265" lat="62.2284333327" lon="11.9484805524">
		<tag k="name" v="Revlingodden" />
		<tag k="natural" v="cape" />
		<tag k="ssr:stedsnr" v="132291" />
	</node>
	<node id="-92263" lat="62.0372083309" lon="12.0411083277">
		<tag k="name" v="Stortjønna" />
		<tag k="natural" v="water" />
		<tag k="ssr:stedsnr" v="132276" />
	</node>
	<node id="-92262" lat="61.7558611148" lon="11.9812944503">
		<tag k="name" v="Sagbekken" />
		<tag k="ssr:stedsnr" v="132102" />
		<tag k="waterway" v="stream" />
	</node>
	<node id="-91835" lat="61.6766333336" lon="11.7638916574">
		<tag k="name" v="Ottholmen" />
		<tag k="place" v="islet" />
		<tag k="ssr:stedsnr" v="359796" />
	</node>
	<node id="-92256" lat="61.6402499976" lon="12.1960555521">
		<tag k="alt_name" v="Litlerøa;Lillerøa" />
		<tag k="name" v="Litlrøa" />
		<tag k="ssr:stedsnr" v="131698" />
		<tag k="waterway" v="stream" />
	</node>
	<node id="-92254" lat="61.639844442" lon="12.0496833245">
		<tag k="name" v="Basdalsbekken" />
		<tag k="ssr:stedsnr" v="131685" />
		<tag k="waterway" v="stream" />
	</node>
	<node id="-91834" lat="61.786741671" lon="11.6521472312">
		<tag k="name" v="Kvannhullfossen" />
		<tag k="natural" v="waterfall" />
		<tag k="ssr:stedsnr" v="359786" />
	</node>
	<node id="-92250" lat="61.6486749964" lon="12.0942277756">
		<tag k="name" v="Rustbekken" />
		<tag k="ssr:stedsnr" v="131637" />
		<tag k="waterway" v="stream" />
	</node>
	<node id="-92249" lat="61.6506344537" lon="12.0651575282">
		<tag k="name" v="Nordre Røåstjønna" />
		<tag k="natural" v="water" />
		<tag k="ssr:stedsnr" v="131635" />
	</node>
	<node id="-92248" lat="62.0404305525" lon="11.6575888819">
		<tag k="name" v="Graneggtjønna" />
		<tag k="natural" v="water" />
		<tag k="ssr:stedsnr" v="131391" />
	</node>
	<node id="-92246" lat="62.0590194458" lon="11.6050277796">
		<tag k="name" v="Litlebuvatnet" />
		<tag k="natural" v="water" />
		<tag k="ssr:stedsnr" v="131381" />
	</node>
	<node id="-92243" lat="61.6420166699" lon="11.7848944373">
		<tag k="name" v="Svarttjønna" />
		<tag k="natural" v="water" />
		<tag k="ssr:stedsnr" v="131308" />
	</node>
	<node id="-92242" lat="62.0960277739" lon="11.8131083253">
		<tag k="alt_name" v="Sollerøya, l;Lille Sollerøya" />
		<tag k="name" v="Litle Sollerøya" />
		<tag k="place" v="islet" />
		<tag k="ssr:stedsnr" v="131269" />
	</node>
	<node id="-92237" lat="62.1190416633" lon="12.0926666727">
		<tag k="name" v="Slågtjønna" />
		<tag k="natural" v="water" />
		<tag k="ssr:stedsnr" v="131234" />
	</node>
	<node id="-92235" lat="61.6439916642" lon="12.0899888817">
		<tag k="name" v="Røbekken" />
		<tag k="ssr:stedsnr" v="119261" />
		<tag k="waterway" v="stream" />
	</node>
	<node id="-92234" lat="61.6520555578" lon="12.0980694446">
		<tag k="name" v="Eggultjønna" />
		<tag k="natural" v="water" />
		<tag k="ssr:stedsnr" v="119255" />
	</node>
	<node id="-92232" lat="61.6393722222" lon="12.0978944412">
		<tag k="name" v="Bjørkrustfloen" />
		<tag k="natural" v="water" />
		<tag k="ssr:stedsnr" v="119249" />
		<tag k="water" v="lake" />
	</node>
	<node id="-92226" lat="61.8139561641" lon="12.1382023625">
		<tag k="name" v="Tollåssjøen" />
		<tag k="natural" v="water" />
		<tag k="ssr:stedsnr" v="117588" />
	</node>
	<node id="-92225" lat="61.6828416672" lon="11.7161944436">
		<tag k="name" v="Hølbekken" />
		<tag k="ssr:stedsnr" v="117238" />
		<tag k="waterway" v="stream" />
	</node>
	<node id="-92223" lat="61.7832416645" lon="11.7238583264">
		<tag k="name" v="Volltjønnbekken" />
		<tag k="ssr:stedsnr" v="117230" />
		<tag k="waterway" v="stream" />
	</node>
	<node id="-92216" lat="61.6489888846" lon="12.1625388902">
		<tag k="name" v="Tuvdantjønna" />
		<tag k="natural" v="water" />
		<tag k="ssr:stedsnr" v="116749" />
	</node>
	<node id="-92209" lat="61.9356250017" lon="11.86903056">
		<tag k="name" v="Gløtfossdammen" />
		<tag k="ssr:stedsnr" v="116522" />
		<tag k="waterway" v="dam" />
	</node>
	<node id="-92207" lat="62.0905666636" lon="11.6487194534">
		<tag k="name" v="Rybekken" />
		<tag k="ssr:stedsnr" v="116482" />
		<tag k="waterway" v="stream" />
	</node>
	<node id="-92204" lat="62.0717916677" lon="11.8160583317">
		<tag k="name" v="Joneset" />
		<tag k="natural" v="cape" />
		<tag k="ssr:stedsnr" v="116380" />
	</node>
	<node id="-92203" lat="61.8401388868" lon="11.8168055459">
		<tag k="name" v="Eggen" />
		<tag k="natural" v="water" />
		<tag k="ssr:stedsnr" v="116372" />
		<tag k="water" v="pond" />
	</node>
	<node id="-92200" lat="61.6158527777" lon="12.0184194518">
		<tag k="name" v="Flåteneset" />
		<tag k="natural" v="cape" />
		<tag k="ssr:stedsnr" v="116188" />
	</node>
	<node id="-92195" lat="61.654469442" lon="12.1446750018">
		<tag k="name" v="Laugarfloen" />
		<tag k="natural" v="water" />
		<tag k="ssr:stedsnr" v="116989" />
	</node>
	<node id="-92193" lat="62.144047222" lon="11.6058111155">
		<tag k="name" v="Langoddbekken" />
		<tag k="ssr:stedsnr" v="115870" />
		<tag k="waterway" v="stream" />
	</node>
	<node id="-92191" lat="62.2069388873" lon="11.8737638833">
		<tag k="name" v="Bergevikodden" />
		<tag k="natural" v="cape" />
		<tag k="ssr:stedsnr" v="115195" />
	</node>
	<node id="-92186" lat="61.6658222188" lon="12.017155555">
		<tag k="name" v="Hammarneset" />
		<tag k="natural" v="cape" />
		<tag k="ssr:stedsnr" v="102256" />
	</node>
	<node id="-92185" lat="61.7655277807" lon="11.9513444449">
		<tag k="name" v="Brenneset" />
		<tag k="natural" v="cape" />
		<tag k="ssr:stedsnr" v="101984" />
	</node>
	<node id="-92182" lat="61.7474333305" lon="12.0792111061">
		<tag k="name" v="Gjermundloka" />
		<tag k="natural" v="water" />
		<tag k="ssr:stedsnr" v="100029" />
		<tag k="water" v="pond" />
	</node>
	<node id="-92179" lat="61.8225361151" lon="11.9850111064">
		<tag k="name" v="Kuhøldammen" />
		<tag k="natural" v="water" />
		<tag k="ssr:stedsnr" v="86172" />
		<tag k="water" v="pond" />
	</node>
	<node id="-92175" lat="61.8263416692" lon="11.7661833379">
		<tag k="name" v="Varmsbekken" />
		<tag k="ssr:stedsnr" v="72950" />
		<tag k="waterway" v="stream" />
	</node>
	<node id="-92173" lat="61.9783777747" lon="12.0320749959">
		<tag k="name" v="Stormyrtjønnan" />
		<tag k="natural" v="water" />
		<tag k="ssr:stedsnr" v="72898" />
	</node>
	<node id="-92172" lat="61.9709972219" lon="12.1208727226">
		<tag k="alt_name" v="Busjøen" />
		<tag k="name" v="Bursjøen" />
		<tag k="natural" v="water" />
		<tag k="ssr:stedsnr" v="72889" />
		<tag k="water" v="lake" />
	</node>
	<node id="-92171" lat="61.9510111105" lon="11.8839777711">
		<tag k="name" v="Gløtbekken" />
		<tag k="ssr:stedsnr" v="72867" />
		<tag k="waterway" v="stream" />
	</node>
	<node id="-92170" lat="61.9373999984" lon="11.9945055512">
		<tag k="name" v="Litlesætertjønna" />
		<tag k="natural" v="water" />
		<tag k="ssr:stedsnr" v="72860" />
	</node>
	<node id="-92168" lat="61.9156472188" lon="11.9655666734">
		<tag k="name" v="Åstjønna" />
		<tag k="natural" v="water" />
		<tag k="ssr:stedsnr" v="72855" />
	</node>
	<node id="-92164" lat="61.7863027795" lon="11.8945388963">
		<tag k="name" v="Hylltjønnbekken" />
		<tag k="ssr:stedsnr" v="72743" />
		<tag k="waterway" v="stream" />
	</node>
	<node id="-92161" lat="61.7804722224" lon="12.1341944458">
		<tag k="name" v="Langtjønna" />
		<tag k="natural" v="water" />
		<tag k="ssr:stedsnr" v="72731" />
	</node>
</osm>
