<?xml version="1.0" encoding="UTF-8"?>
<osm generator="osmapis" version="0.6">
	<node id="-107648" lat="78.4103472227" lon="11.7282722172">
		<tag k="name" v="Prins Karls Forland" />
		<tag k="place" v="island" />
		<tag k="ssr:stedsnr" v="40978" />
	</node>
	<node id="-107647" lat="77.8102583294" lon="25.0798055952">
		<tag k="name" v="Ryke Yseøyane" />
		<tag k="place" v="island" />
		<tag k="ssr:stedsnr" v="891000" />
	</node>
	<node id="-107646" lat="78.4495333338" lon="21.3789083222">
		<tag k="name" v="Barentsøya" />
		<tag k="place" v="island" />
		<tag k="ssr:stedsnr" v="406000" />
	</node>
	<node id="-107645" lat="80.1266027733" lon="27.9256390608">
		<tag k="name" v="Krungletjørnene" />
		<tag k="natural" v="ridge" />
		<tag k="place" v="locality" />
		<tag k="ssr:stedsnr" v="362360" />
	</node>
	<node id="-107644" lat="79.7021916665" lon="26.6624389696">
		<tag k="name" v="Isispollen" />
		<tag k="natural" v="bay" />
		<tag k="ssr:stedsnr" v="358317" />
	</node>
	<node id="-107643" lat="77.2852916688" lon="23.1384694339">
		<tag k="name" v="Halvmåneøya" />
		<tag k="place" v="island" />
		<tag k="ssr:stedsnr" v="344999" />
	</node>
	<node id="-107642" lat="78.2301888902" lon="21.5295360957">
		<tag k="name" v="Freemansundet" />
		<tag k="natural" v="strait" />
		<tag k="place" v="locality" />
		<tag k="ssr:stedsnr" v="344980" />
	</node>
	<node id="-107641" lat="80.1028360621" lon="31.47207859">
		<tag k="name" v="Satellitthøgda" />
		<tag k="natural" v="glacier" />
		<tag k="ssr:stedsnr" v="301374" />
	</node>
	<node id="-107640" lat="80.1410554443" lon="33.3810322542">
		<tag k="name" v="Hornodden" />
		<tag k="natural" v="cape" />
		<tag k="place" v="locality" />
		<tag k="ssr:stedsnr" v="285902" />
	</node>
	<node id="-107708" lat="80.0930249478" lon="31.4542285912">
		<tag k="name" v="Brattvaagbukta" />
		<tag k="natural" v="glacier" />
		<tag k="ssr:stedsnr" v="968397" />
	</node>
	<node id="-107707" lat="78.2231416632" lon="15.6468555386">
		<tag k="name" v="Longyearbyen" />
		<tag k="place" v="town" />
		<tag k="ssr:stedsnr" v="966478" />
	</node>
	<node id="-107706" lat="77.7741444433" lon="22.6972555712">
		<tag k="name" v="Edgeøya" />
		<tag k="place" v="island" />
		<tag k="ssr:stedsnr" v="951999" />
	</node>
	<node id="-107705" lat="77.7568500038" lon="13.8879861225">
		<tag k="name" v="Kapp Martin" />
		<tag k="natural" v="cape" />
		<tag k="place" v="locality" />
		<tag k="ssr:stedsnr" v="951997" />
	</node>
	<node id="-107704" lat="80.0614693975" lon="31.3340202074">
		<tag k="name" v="Lancestabben" />
		<tag k="natural" v="shoal" />
		<tag k="place" v="locality" />
		<tag k="ssr:stedsnr" v="908417" />
	</node>
	<node id="-107703" lat="79.9240638766" lon="27.5514112555">
		<tag k="name" v="Kaldøyane" />
		<tag k="place" v="islet" />
		<tag k="ssr:stedsnr" v="847372" />
	</node>
	<node id="-107702" lat="79.9578972212" lon="27.3018667716">
		<tag k="name" v="Snøholmen" />
		<tag k="place" v="islet" />
		<tag k="ssr:stedsnr" v="847373" />
	</node>
	<node id="-107701" lat="80.0843444376" lon="28.262583507">
		<tag k="name" v="Diorittodden" />
		<tag k="natural" v="cape" />
		<tag k="place" v="locality" />
		<tag k="ssr:stedsnr" v="847367" />
	</node>
	<node id="-107700" lat="78.0639666713" lon="13.6068138786">
		<tag k="name" v="Kapp Linne" />
		<tag k="natural" v="cape" />
		<tag k="place" v="locality" />
		<tag k="ssr:stedsnr" v="830999" />
	</node>
	<node id="-107699" lat="78.0651027745" lon="14.2097277829">
		<tag k="name" v="Barentsburg" />
		<tag k="place" v="town" />
		<tag k="ssr:stedsnr" v="830997" />
	</node>
	<node id="-107698" lat="79.9514777742" lon="27.3144028879">
		<tag k="name" v="Rimsteinane" />
		<tag k="place" v="islet" />
		<tag k="ssr:stedsnr" v="786361" />
	</node>
	<node id="-107697" lat="80.1371638795" lon="28.0375474096">
		<tag k="name" v="Polarstarodden" />
		<tag k="natural" v="cape" />
		<tag k="place" v="locality" />
		<tag k="ssr:stedsnr" v="786348" />
	</node>
	<node id="-107696" lat="79.7756861081" lon="26.9813806337">
		<tag k="name" v="Hvalrosskjera" />
		<tag k="place" v="island" />
		<tag k="ssr:stedsnr" v="783308" />
	</node>
	<node id="-107695" lat="79.0103222244" lon="17.4907499844">
		<tag k="fixme" v="consider natural=peak for the most distinct mountains in the district" />
		<tag k="name" v="Newtontoppen" />
		<tag k="natural" v="hill" />
		<tag k="place" v="locality" />
		<tag k="ssr:stedsnr" v="781493" />
	</node>
	<node id="-107694" lat="77.7946861073" lon="15.6197777665">
		<tag k="bay" v="fjord" />
		<tag k="name" v="Van Mijenfjorden" />
		<tag k="natural" v="bay" />
		<tag k="ssr:stedsnr" v="769993" />
	</node>
	<node id="-107693" lat="80.0970305479" lon="28.0757446393">
		<tag k="name" v="Storøya" />
		<tag k="natural" v="beach" />
		<tag k="place" v="locality" />
		<tag k="ssr:stedsnr" v="726404" />
	</node>
	<node id="-107692" lat="80.0635721728" lon="31.5488758441">
		<tag k="name" v="Vindrabbane" />
		<tag k="place" v="locality" />
		<tag k="ssr:stedsnr" v="726402" />
	</node>
	<node id="-107691" lat="80.1731027128" lon="32.2836205387">
		<tag k="name" v="Kvitøya" />
		<tag k="place" v="island" />
		<tag k="ssr:stedsnr" v="726399" />
	</node>
	<node id="-107690" lat="80.0915638804" lon="27.5299362668">
		<tag k="name" v="Storøysundet" />
		<tag k="natural" v="strait" />
		<tag k="place" v="locality" />
		<tag k="ssr:stedsnr" v="726380" />
	</node>
	<node id="-107689" lat="79.9991083292" lon="27.1321390025">
		<tag k="name" v="Worsleybreen" />
		<tag k="natural" v="glacier" />
		<tag k="ssr:stedsnr" v="726379" />
	</node>
	<node id="-107688" lat="78.2548666685" lon="14.6733388958">
		<tag k="bay" v="fjord" />
		<tag k="name" v="Isfjorden" />
		<tag k="natural" v="bay" />
		<tag k="ssr:stedsnr" v="708998" />
	</node>
	<node id="-107686" lat="80.0487305483" lon="27.1463140072">
		<tag k="name" v="Nordmarka" />
		<tag k="natural" v="ridge" />
		<tag k="place" v="locality" />
		<tag k="ssr:stedsnr" v="665403" />
	</node>
	<node id="-107685" lat="80.2292443297" lon="33.516318459">
		<tag k="alt_name" v="Kræmerodden" />
		<tag k="name" v="Kræmerpynten" />
		<tag k="natural" v="cape" />
		<tag k="place" v="locality" />
		<tag k="ssr:stedsnr" v="663424" />
	</node>
	<node id="-107684" lat="76.5943388931" lon="16.3129416705">
		<tag k="name" v="Sørkapp" />
		<tag k="natural" v="cape" />
		<tag k="place" v="locality" />
		<tag k="ssr:stedsnr" v="647998" />
	</node>
	<node id="-107683" lat="77.4682750019" lon="20.8848333359">
		<tag k="name" v="Kvalpynten" />
		<tag k="natural" v="cape" />
		<tag k="place" v="locality" />
		<tag k="ssr:stedsnr" v="647975" />
	</node>
	<node id="-107682" lat="77.9002944417" lon="16.7200638866">
		<tag k="fixme" v="consider place=suburb, village or hamlet" />
		<tag k="name" v="Sveagruva" />
		<tag k="place" v="neighbourhood" />
		<tag k="ssr:stedsnr" v="647943" />
	</node>
	<node id="-107681" lat="80.0808388439" lon="31.4881285769">
		<tag k="name" v="Bekkeflya" />
		<tag k="place" v="locality" />
		<tag k="ssr:stedsnr" v="604393" />
	</node>
	<node id="-107680" lat="79.5579083311" lon="25.7288139389">
		<tag k="name" v="Hartogbukta" />
		<tag k="natural" v="bay" />
		<tag k="ssr:stedsnr" v="601295" />
	</node>
	<node id="-107679" lat="79.8684777751" lon="27.2215889874">
		<tag k="name" v="Italiaodden" />
		<tag k="natural" v="cape" />
		<tag k="place" v="locality" />
		<tag k="ssr:stedsnr" v="601289" />
	</node>
	<node id="-107678" lat="78.9258861137" lon="11.9314027662">
		<tag k="fixme" v="consider place=suburb, village or hamlet" />
		<tag k="name" v="Ny-Ålesund" />
		<tag k="place" v="neighbourhood" />
		<tag k="ssr:stedsnr" v="587933" />
	</node>
	<node id="-107677" lat="77.6076444417" lon="16.8526694364">
		<tag k="name" v="Svalbard" />
		<tag k="place" v="island" />
		<tag k="ssr:stedsnr" v="586988" />
	</node>
	<node id="-107676" lat="80.0239249432" lon="31.6282258662">
		<tag k="name" v="Lundquistskjera" />
		<tag k="place" v="islet" />
		<tag k="ssr:stedsnr" v="544375" />
	</node>
	<node id="-107675" lat="80.0706055087" lon="31.495286917">
		<tag k="name" v="Kvalrosstranda" />
		<tag k="natural" v="beach" />
		<tag k="place" v="locality" />
		<tag k="ssr:stedsnr" v="544337" />
	</node>
	<node id="-107674" lat="79.7075805522" lon="26.6246028448">
		<tag k="name" v="Binnevågen" />
		<tag k="natural" v="bay" />
		<tag k="ssr:stedsnr" v="540329" />
	</node>
	<node id="-107673" lat="79.6913249905" lon="26.6393695391">
		<tag k="fixme" v="consider seamark:type=rock or natural=shoal" />
		<tag k="name" v="Isflua" />
		<tag k="place" v="islet" />
		<tag k="ssr:stedsnr" v="540327" />
	</node>
	<node id="-107672" lat="80.1543333279" lon="26.793675091">
		<tag k="name" v="Kapp Leigh Smith" />
		<tag k="natural" v="cape" />
		<tag k="place" v="locality" />
		<tag k="ssr:stedsnr" v="483373" />
	</node>
	<node id="-107671" lat="80.0780277664" lon="28.0417001659">
		<tag k="name" v="Storøyjøkulen" />
		<tag k="natural" v="glacier" />
		<tag k="ssr:stedsnr" v="483368" />
	</node>
	<node id="-107670" lat="80.1114638777" lon="27.986744611">
		<tag k="name" v="Jøkulrabbane" />
		<tag k="natural" v="ridge" />
		<tag k="place" v="locality" />
		<tag k="ssr:stedsnr" v="483365" />
	</node>
	<node id="-107669" lat="78.6534888906" lon="16.3369361011">
		<tag k="fixme" v="consider place=suburb, village or hamlet" />
		<tag k="name" v="Pyramiden" />
		<tag k="place" v="neighbourhood" />
		<tag k="ssr:stedsnr" v="466943" />
	</node>
	<node id="-107668" lat="77.6375166625" lon="14.4258055508">
		<tag k="name" v="Bellsund" />
		<tag k="natural" v="strait" />
		<tag k="place" v="locality" />
		<tag k="ssr:stedsnr" v="465995" />
	</node>
	<node id="-107667" lat="76.968044446" lon="15.598969426">
		<tag k="name" v="Hornsund" />
		<tag k="natural" v="strait" />
		<tag k="place" v="locality" />
		<tag k="ssr:stedsnr" v="465996" />
	</node>
	<node id="-107666" lat="78.4249694438" lon="13.5186916817">
		<tag k="name" v="Oscar II Land" />
		<tag k="place" v="island" />
		<tag k="ssr:stedsnr" v="465978" />
	</node>
	<node id="-107665" lat="80.082672175" lon="31.4122868855">
		<tag k="name" v="Andréeneset" />
		<tag k="natural" v="cape" />
		<tag k="place" v="locality" />
		<tag k="ssr:stedsnr" v="423416" />
	</node>
	<node id="-107664" lat="80.0805722176" lon="26.9751973086">
		<tag k="name" v="Van Dongenbukta" />
		<tag k="natural" v="bay" />
		<tag k="ssr:stedsnr" v="423385" />
	</node>
	<node id="-107663" lat="80.1239083206" lon="28.0717751573">
		<tag k="name" v="Breivika" />
		<tag k="natural" v="bay" />
		<tag k="ssr:stedsnr" v="423382" />
	</node>
	<node id="-107662" lat="80.0475833256" lon="28.0496751667">
		<tag k="name" v="Sørodden" />
		<tag k="natural" v="cape" />
		<tag k="place" v="locality" />
		<tag k="ssr:stedsnr" v="423378" />
	</node>
	<node id="-107661" lat="79.7008611076" lon="26.6537778827">
		<tag k="name" v="Isisøyane" />
		<tag k="natural" v="cape" />
		<tag k="place" v="locality" />
		<tag k="ssr:stedsnr" v="419331" />
	</node>
	<node id="-107660" lat="78.926980554" lon="11.9235889032">
		<tag k="building" v="yes" />
		<tag k="name" v="Ny-Ålesund" />
		<tag k="ssr:stedsnr" v="241712" />
	</node>
	<node id="-107659" lat="80.1921943677" lon="32.6386901576">
		<tag k="name" v="Kvitøy-jøkulen" />
		<tag k="natural" v="glacier" />
		<tag k="ssr:stedsnr" v="240396" />
	</node>
	<node id="-107658" lat="79.9226166632" lon="27.583341817">
		<tag k="name" v="Håkjerringa" />
		<tag k="place" v="island" />
		<tag k="ssr:stedsnr" v="240377" />
	</node>
	<node id="-107657" lat="79.7007055535" lon="26.678466749">
		<tag k="name" v="Isispynten" />
		<tag k="natural" v="cape" />
		<tag k="place" v="locality" />
		<tag k="ssr:stedsnr" v="237333" />
	</node>
	<node id="-107656" lat="77.8857305571" lon="19.8843666786">
		<tag k="name" v="Storfjorden" />
		<tag k="place" v="locality" />
		<tag k="ssr:stedsnr" v="223984" />
	</node>
	<node id="-107655" lat="79.929447214" lon="27.243219536">
		<tag k="name" v="Frostøyane" />
		<tag k="place" v="islet" />
		<tag k="ssr:stedsnr" v="180356" />
	</node>
	<node id="-107654" lat="79.7940749985" lon="27.1506834313">
		<tag k="name" v="Einstøingen" />
		<tag k="place" v="island" />
		<tag k="ssr:stedsnr" v="176304" />
	</node>
	<node id="-107653" lat="76.9961777784" lon="21.9935833418">
		<tag k="name" v="Tusenøyane" />
		<tag k="place" v="island" />
		<tag k="ssr:stedsnr" v="162998" />
	</node>
	<node id="-107652" lat="77.306269445" lon="15.7981138784">
		<tag k="name" v="Spitsbergen" />
		<tag k="place" v="island" />
		<tag k="ssr:stedsnr" v="162993" />
	</node>
	<node id="-107651" lat="80.1429277677" lon="27.9815751668">
		<tag k="name" v="Norvargodden" />
		<tag k="natural" v="cape" />
		<tag k="place" v="locality" />
		<tag k="ssr:stedsnr" v="119368" />
	</node>
	<node id="-107650" lat="80.0634416606" lon="27.2195501064">
		<tag k="name" v="Kapp Laura" />
		<tag k="natural" v="cape" />
		<tag k="place" v="locality" />
		<tag k="ssr:stedsnr" v="58376" />
	</node>
	<node id="-107649" lat="79.9616527724" lon="27.0656695282">
		<tag k="name" v="Sørmarka" />
		<tag k="natural" v="slope" />
		<tag k="place" v="locality" />
		<tag k="ssr:stedsnr" v="58371" />
	</node>
</osm>
