<?xml version="1.0" encoding="UTF-8"?>
<osm generator="osmapis" version="0.6">
	<node id="-54010" lat="61.1014527735" lon="10.7154833397">
		<tag k="amenity" v="nursing_home" />
		<tag k="old_name" v="Mesnalien Kursted" />
		<tag k="ssr:date" v="2016-05-10" />
		<tag k="ssr:gruppe" v="institusjoner" />
		<tag k="ssr:hovedgruppe" v="bebyggelse" />
		<tag k="ssr:stedsnr" v="188781" />
		<tag k="ssr:type" v="helseinstitusjon" />
	</node>
	<node id="-53011" lat="61.1103999998" lon="10.6238999909">
		<tag k="old_name" v="Rudshytta" />
		<tag k="place" v="isolated_dwelling" />
		<tag k="ssr:date" v="2016-05-10" />
		<tag k="ssr:gruppe" v="bolighus" />
		<tag k="ssr:hovedgruppe" v="bebyggelse" />
		<tag k="ssr:stedsnr" v="311827" />
		<tag k="ssr:type" v="fritidsbolig" />
	</node>
	<node id="-55151" lat="60.8179083331" lon="10.74982777">
		<tag k="old_name" v="Nedre Hobrenna" />
		<tag k="place" v="farm" />
		<tag k="ssr:date" v="2016-05-11" />
		<tag k="ssr:gruppe" v="gardsbebyggelse" />
		<tag k="ssr:hovedgruppe" v="bebyggelse" />
		<tag k="ssr:stedsnr" v="707220" />
		<tag k="ssr:type" v="bruk" />
	</node>
	<node id="-55660" lat="60.7421972188" lon="10.9804666589">
		<tag k="amenity" v="school" />
		<tag k="old_name" v="Helgøya skole" />
		<tag k="ssr:date" v="2016-05-11" />
		<tag k="ssr:gruppe" v="institusjoner" />
		<tag k="ssr:hovedgruppe" v="bebyggelse" />
		<tag k="ssr:stedsnr" v="904500" />
		<tag k="ssr:type" v="skole" />
	</node>
	<node id="-54378" lat="61.2347777757" lon="10.9070305535">
		<tag k="loc_name" v="Tjuven;Tua (Kjellerdalstua)" />
		<tag k="natural" v="hill" />
		<tag k="old_name" v="Tatromskampen" />
		<tag k="place" v="locality" />
		<tag k="ssr:date" v="2016-05-10" />
		<tag k="ssr:gruppe" v="høyder" />
		<tag k="ssr:hovedgruppe" v="terreng" />
		<tag k="ssr:stedsnr" v="433693" />
		<tag k="ssr:type" v="haug" />
	</node>
	<node id="-54497" lat="61.1552944439" lon="10.9164305564">
		<tag k="historic" v="shieling" />
		<tag k="old_name" v="Åkersæter" />
		<tag k="place" v="locality" />
		<tag k="ssr:date" v="2016-05-10" />
		<tag k="ssr:gruppe" v="gardsbebyggelse" />
		<tag k="ssr:hovedgruppe" v="bebyggelse" />
		<tag k="ssr:stedsnr" v="484107" />
		<tag k="ssr:type" v="seterStøl" />
	</node>
	<node id="-55389" lat="61.2307055577" lon="10.9226194508">
		<tag k="loc_name" v="Kjellerdalen" />
		<tag k="natural" v="valley" />
		<tag k="place" v="locality" />
		<tag k="ssr:date" v="2016-05-11" />
		<tag k="ssr:gruppe" v="senkninger" />
		<tag k="ssr:hovedgruppe" v="terreng" />
		<tag k="ssr:stedsnr" v="787414" />
		<tag k="ssr:type" v="dal" />
	</node>
	<node id="-54490" lat="60.8190305544" lon="10.903616671">
		<tag k="amenity" v="school" />
		<tag k="old_name" v="Hagelund skole" />
		<tag k="ssr:date" v="2016-05-10" />
		<tag k="ssr:gruppe" v="institusjoner" />
		<tag k="ssr:hovedgruppe" v="bebyggelse" />
		<tag k="ssr:stedsnr" v="482900" />
		<tag k="ssr:type" v="skole" />
	</node>
	<node id="-55759" lat="60.8835805551" lon="10.9474249965">
		<tag k="old_name" v="Buttekvern" />
		<tag k="place" v="farm" />
		<tag k="ssr:date" v="2016-05-11" />
		<tag k="ssr:gruppe" v="gardsbebyggelse" />
		<tag k="ssr:hovedgruppe" v="bebyggelse" />
		<tag k="ssr:stedsnr" v="919298" />
		<tag k="ssr:type" v="bruk" />
	</node>
	<node id="-54989" lat="60.9331722192" lon="10.6929083321">
		<tag k="building" v="industrial" />
		<tag k="industrial" v="factory" />
		<tag k="old_name" v="Moelven brug" />
		<tag k="ssr:date" v="2016-05-10" />
		<tag k="ssr:gruppe" v="næring" />
		<tag k="ssr:hovedgruppe" v="bebyggelse" />
		<tag k="ssr:stedsnr" v="646632" />
		<tag k="ssr:type" v="fabrikk" />
	</node>
	<node id="-53707" lat="60.8323277763" lon="10.7414111084">
		<tag k="loc_name" v="Krogsrud midtre" />
		<tag k="old_name" v="Kroksrud nordre;Krogsrud nordre" />
		<tag k="place" v="isolated_dwelling" />
		<tag k="ssr:date" v="2016-05-10" />
		<tag k="ssr:gruppe" v="bolighus" />
		<tag k="ssr:hovedgruppe" v="bebyggelse" />
		<tag k="ssr:stedsnr" v="70393" />
		<tag k="ssr:type" v="eneboligMindreBoligbygg" />
	</node>
	<node id="-54084" lat="60.8687833334" lon="10.9600555512">
		<tag k="old_name" v="Nyhus" />
		<tag k="place" v="farm" />
		<tag k="ssr:date" v="2016-05-10" />
		<tag k="ssr:gruppe" v="gardsbebyggelse" />
		<tag k="ssr:hovedgruppe" v="bebyggelse" />
		<tag k="ssr:stedsnr" v="191323" />
		<tag k="ssr:type" v="bruk" />
	</node>
	<node id="-53057" lat="60.7534250036" lon="10.9490111068">
		<tag k="amenity" v="nursing_home" />
		<tag k="old_name" v="Toftes Gave" />
		<tag k="ssr:date" v="2016-05-10" />
		<tag k="ssr:gruppe" v="institusjoner" />
		<tag k="ssr:hovedgruppe" v="bebyggelse" />
		<tag k="ssr:stedsnr" v="312509" />
		<tag k="ssr:type" v="helseinstitusjon" />
	</node>
	<node id="-54461" lat="61.0460222189" lon="10.8019111166">
		<tag k="building" v="industrial" />
		<tag k="old_name" v="Bøvra sag" />
		<tag k="ssr:date" v="2016-05-10" />
		<tag k="ssr:gruppe" v="næring" />
		<tag k="ssr:hovedgruppe" v="bebyggelse" />
		<tag k="ssr:stedsnr" v="465664" />
		<tag k="ssr:type" v="annenIndustri-OgLagerbygning" />
	</node>
	<node id="-53051" lat="60.8408805535" lon="11.0556416682">
		<tag k="old_name" v="Halsetbakken" />
		<tag k="place" v="locality" />
		<tag k="ssr:date" v="2016-05-10" />
		<tag k="ssr:gruppe" v="bolighus" />
		<tag k="ssr:hovedgruppe" v="bebyggelse" />
		<tag k="ssr:stedsnr" v="312391" />
		<tag k="ssr:type" v="gammelBosettingsplass" />
	</node>
	<node id="-54451" lat="60.8724944461" lon="10.7797583389">
		<tag k="amenity" v="nursing_home" />
		<tag k="old_name" v="Ringsaker Ungdomshjem" />
		<tag k="ssr:date" v="2016-05-10" />
		<tag k="ssr:gruppe" v="institusjoner" />
		<tag k="ssr:hovedgruppe" v="bebyggelse" />
		<tag k="ssr:stedsnr" v="465137" />
		<tag k="ssr:type" v="helseinstitusjon" />
	</node>
	<node id="-55854" lat="60.781780559" lon="10.9388694455">
		<tag k="amenity" v="school" />
		<tag k="old_name" v="Årengen skole" />
		<tag k="ssr:date" v="2016-05-11" />
		<tag k="ssr:gruppe" v="institusjoner" />
		<tag k="ssr:hovedgruppe" v="bebyggelse" />
		<tag k="ssr:stedsnr" v="967808" />
		<tag k="ssr:type" v="skole" />
	</node>
	<node id="-53801" lat="61.22260278" lon="10.8939444414">
		<tag k="loc_name" v="Skvalderhalla" />
		<tag k="natural" v="slope" />
		<tag k="place" v="locality" />
		<tag k="ssr:date" v="2016-05-10" />
		<tag k="ssr:gruppe" v="skråninger" />
		<tag k="ssr:hovedgruppe" v="terreng" />
		<tag k="ssr:stedsnr" v="120383" />
		<tag k="ssr:type" v="li" />
	</node>
	<node id="-54171" lat="60.8940249993" lon="10.8263444445">
		<tag k="amenity" v="school" />
		<tag k="old_name" v="Solheim Skole" />
		<tag k="ssr:date" v="2016-05-10" />
		<tag k="ssr:gruppe" v="institusjoner" />
		<tag k="ssr:hovedgruppe" v="bebyggelse" />
		<tag k="ssr:stedsnr" v="237756" />
		<tag k="ssr:type" v="skole" />
	</node>
	<node id="-55448" lat="60.9041777786" lon="10.9522833407">
		<tag k="old_name" v="Minka" />
		<tag k="place" v="locality" />
		<tag k="ssr:date" v="2016-05-11" />
		<tag k="ssr:gruppe" v="bolighus" />
		<tag k="ssr:hovedgruppe" v="bebyggelse" />
		<tag k="ssr:stedsnr" v="798246" />
		<tag k="ssr:type" v="gammelBosettingsplass" />
	</node>
	<node id="-54165" lat="60.9684472213" lon="10.6774027798">
		<tag k="fixme" v="consider place=hamlet" />
		<tag k="loc_name" v="Ring" />
		<tag k="place" v="village" />
		<tag k="ssr:date" v="2016-05-10" />
		<tag k="ssr:gruppe" v="bebyggelsesområder" />
		<tag k="ssr:hovedgruppe" v="bebyggelse" />
		<tag k="ssr:stedsnr" v="229661" />
		<tag k="ssr:type" v="bygdelagBygd" />
	</node>
	<node id="-52883" lat="60.9269666703" lon="10.8084777688">
		<tag k="loc_name" v="Snekkerstua" />
		<tag k="place" v="farm" />
		<tag k="ssr:date" v="2016-05-10" />
		<tag k="ssr:gruppe" v="gardsbebyggelse" />
		<tag k="ssr:hovedgruppe" v="bebyggelse" />
		<tag k="ssr:stedsnr" v="282164" />
		<tag k="ssr:type" v="bruk" />
	</node>
	<node id="-55440" lat="60.9279888879" lon="10.8245527867">
		<tag k="old_name" v="Rønningen" />
		<tag k="place" v="isolated_dwelling" />
		<tag k="ssr:date" v="2016-05-11" />
		<tag k="ssr:gruppe" v="bolighus" />
		<tag k="ssr:hovedgruppe" v="bebyggelse" />
		<tag k="ssr:stedsnr" v="798189" />
		<tag k="ssr:type" v="eneboligMindreBoligbygg" />
	</node>
	<node id="-53774" lat="60.7942444407" lon="10.7579861097">
		<tag k="amenity" v="school" />
		<tag k="old_name" v="Dæli skole" />
		<tag k="ssr:date" v="2016-05-10" />
		<tag k="ssr:gruppe" v="institusjoner" />
		<tag k="ssr:hovedgruppe" v="bebyggelse" />
		<tag k="ssr:stedsnr" v="116047" />
		<tag k="ssr:type" v="skole" />
	</node>
	<node id="-55048" lat="60.869858336" lon="10.8710666745">
		<tag k="amenity" v="school" />
		<tag k="old_name" v="Fredheim skole" />
		<tag k="ssr:date" v="2016-05-10" />
		<tag k="ssr:gruppe" v="institusjoner" />
		<tag k="ssr:hovedgruppe" v="bebyggelse" />
		<tag k="ssr:stedsnr" v="665996" />
		<tag k="ssr:type" v="skole" />
	</node>
	<node id="-54660" lat="61.2411388899" lon="10.9259194475">
		<tag k="loc_name" v="Kvanndalen" />
		<tag k="natural" v="valley" />
		<tag k="place" v="locality" />
		<tag k="ssr:date" v="2016-05-10" />
		<tag k="ssr:gruppe" v="senkninger" />
		<tag k="ssr:hovedgruppe" v="terreng" />
		<tag k="ssr:stedsnr" v="544405" />
		<tag k="ssr:type" v="dal" />
	</node>
	<node id="-54659" lat="61.2427305594" lon="10.9718472212">
		<tag k="loc_name" v="Skjenahauga" />
		<tag k="natural" v="hill" />
		<tag k="place" v="locality" />
		<tag k="ssr:date" v="2016-05-10" />
		<tag k="ssr:gruppe" v="høyder" />
		<tag k="ssr:hovedgruppe" v="terreng" />
		<tag k="ssr:stedsnr" v="544399" />
		<tag k="ssr:type" v="haug" />
	</node>
</osm>
