<?xml version="1.0" encoding="UTF-8"?>
<osm generator="osmapis" version="0.6">
	<node id="-54264" lat="60.9439277798" lon="10.7188138883">
		<tag k="name" v="Øvre Fjølstadvegen" />
		<tag k="ssr:date" v="2019-05-30" />
		<tag k="ssr:gruppe" v="veg" />
		<tag k="ssr:hovedgruppe" v="infrastruktur" />
		<tag k="ssr:stedsnr" v="242254" />
		<tag k="ssr:type" v="adressenavn" />
	</node>
	<node id="-54263" lat="60.9452472225" lon="10.716116667">
		<tag k="name" v="Nedre Fjølstadvegen" />
		<tag k="ssr:date" v="2019-05-30" />
		<tag k="ssr:gruppe" v="veg" />
		<tag k="ssr:hovedgruppe" v="infrastruktur" />
		<tag k="ssr:stedsnr" v="242253" />
		<tag k="ssr:type" v="adressenavn" />
	</node>
	<node id="-53499" lat="61.1219311858" lon="10.9751747232">
		<tag k="name" v="Bjønnåsbrua-Pihl" />
		<tag k="ssr:date" v="2019-05-30" />
		<tag k="ssr:gruppe" v="veg" />
		<tag k="ssr:hovedgruppe" v="infrastruktur" />
		<tag k="ssr:stedsnr" v="1007867" />
		<tag k="ssr:type" v="adressenavn" />
	</node>
	<node id="-53498" lat="61.1536036432" lon="10.8704049469">
		<tag k="name" v="Grunnåsen" />
		<tag k="ssr:date" v="2019-05-30" />
		<tag k="ssr:gruppe" v="veg" />
		<tag k="ssr:hovedgruppe" v="infrastruktur" />
		<tag k="ssr:stedsnr" v="1007863" />
		<tag k="ssr:type" v="adressenavn" />
	</node>
	<node id="-55767" lat="61.1185638871" lon="10.8548694506">
		<tag k="name" v="Skogvegen" />
		<tag k="ssr:date" v="2018-12-20" />
		<tag k="ssr:gruppe" v="veg" />
		<tag k="ssr:hovedgruppe" v="infrastruktur" />
		<tag k="ssr:stedsnr" v="909432" />
		<tag k="ssr:type" v="vegstrekning" />
	</node>
	<node id="-53240" lat="61.0320861121" lon="10.4964833337">
		<tag k="name" v="Kvitsandtunet" />
		<tag k="ssr:date" v="2019-05-30" />
		<tag k="ssr:gruppe" v="veg" />
		<tag k="ssr:hovedgruppe" v="infrastruktur" />
		<tag k="ssr:stedsnr" v="363246" />
		<tag k="ssr:type" v="adressenavn" />
	</node>
	<node id="-54728" lat="61.1203694417" lon="10.8627249994">
		<tag k="name" v="Lyngvegen" />
		<tag k="old_name" v="Lygnvegen" />
		<tag k="ssr:date" v="2018-04-20" />
		<tag k="ssr:gruppe" v="veg" />
		<tag k="ssr:hovedgruppe" v="infrastruktur" />
		<tag k="ssr:stedsnr" v="544436" />
		<tag k="ssr:type" v="vegstrekning" />
	</node>
	<node id="-53695" lat="60.9556944439" lon="10.986061119">
		<tag k="name" v="Falkendal" />
		<tag k="ssr:date" v="2016-05-10" />
		<tag k="ssr:gruppe" v="veg" />
		<tag k="ssr:hovedgruppe" v="infrastruktur" />
		<tag k="ssr:stedsnr" v="60181" />
		<tag k="ssr:type" v="adressetilleggsnavn" />
	</node>
	<node id="-53616" lat="61.0268194465" lon="10.7443916616">
		<tag k="name" v="Hellerudvegen" />
		<tag k="ssr:date" v="2019-05-30" />
		<tag k="ssr:gruppe" v="veg" />
		<tag k="ssr:hovedgruppe" v="infrastruktur" />
		<tag k="ssr:stedsnr" v="38043" />
		<tag k="ssr:type" v="adressenavn" />
	</node>
	<node id="-53612" lat="60.9425611124" lon="11.0007666668">
		<tag k="name" v="Mælumsgutua" />
		<tag k="ssr:date" v="2019-05-30" />
		<tag k="ssr:gruppe" v="veg" />
		<tag k="ssr:hovedgruppe" v="infrastruktur" />
		<tag k="ssr:stedsnr" v="32324" />
		<tag k="ssr:type" v="adressenavn" />
	</node>
	<node id="-53031" lat="60.864747223" lon="11.0509194439">
		<tag k="name" v="Søndre Røset" />
		<tag k="ssr:date" v="2016-05-10" />
		<tag k="ssr:gruppe" v="veg" />
		<tag k="ssr:hovedgruppe" v="infrastruktur" />
		<tag k="ssr:stedsnr" v="303938" />
		<tag k="ssr:type" v="adressetilleggsnavn" />
	</node>
	<node id="-55116" lat="61.0307388877" lon="10.5045083411">
		<tag k="name" v="Moentunet" />
		<tag k="ssr:date" v="2019-05-30" />
		<tag k="ssr:gruppe" v="veg" />
		<tag k="ssr:hovedgruppe" v="infrastruktur" />
		<tag k="ssr:stedsnr" v="666283" />
		<tag k="ssr:type" v="adressenavn" />
	</node>
	<node id="-55625" lat="60.8997333354" lon="10.9467027773">
		<tag k="name" v="Dalbylia" />
		<tag k="ssr:date" v="2019-05-30" />
		<tag k="ssr:gruppe" v="veg" />
		<tag k="ssr:hovedgruppe" v="infrastruktur" />
		<tag k="ssr:stedsnr" v="849284" />
		<tag k="ssr:type" v="adressenavn" />
	</node>
	<node id="-53459" lat="60.9020213148" lon="10.8791560978">
		<tag k="name" v="Kildevegen" />
		<tag k="ssr:date" v="2019-05-30" />
		<tag k="ssr:gruppe" v="veg" />
		<tag k="ssr:hovedgruppe" v="infrastruktur" />
		<tag k="ssr:stedsnr" v="1007461" />
		<tag k="ssr:type" v="adressenavn" />
	</node>
	<node id="-54567" lat="60.9456916624" lon="10.7122277822">
		<tag k="name" v="Kroksgardlia" />
		<tag k="ssr:date" v="2019-05-30" />
		<tag k="ssr:gruppe" v="veg" />
		<tag k="ssr:hovedgruppe" v="infrastruktur" />
		<tag k="ssr:stedsnr" v="484262" />
		<tag k="ssr:type" v="adressenavn" />
	</node>
	<node id="-54566" lat="60.9450361116" lon="10.7151638869">
		<tag k="name" v="Kroksgardvegen" />
		<tag k="ssr:date" v="2019-05-30" />
		<tag k="ssr:gruppe" v="veg" />
		<tag k="ssr:hovedgruppe" v="infrastruktur" />
		<tag k="ssr:stedsnr" v="484260" />
		<tag k="ssr:type" v="adressenavn" />
	</node>
	<node id="-55572" lat="61.0157916672" lon="10.920472227">
		<tag k="name" v="Aursmobergsvegen" />
		<tag k="ssr:date" v="2018-04-20" />
		<tag k="ssr:gruppe" v="veg" />
		<tag k="ssr:hovedgruppe" v="infrastruktur" />
		<tag k="ssr:stedsnr" v="831326" />
		<tag k="ssr:type" v="vegstrekning" />
	</node>
	<node id="-53511" lat="61.0915821248" lon="10.846506317">
		<tag k="name" v="Blæka" />
		<tag k="ssr:date" v="2019-05-30" />
		<tag k="ssr:gruppe" v="veg" />
		<tag k="ssr:hovedgruppe" v="infrastruktur" />
		<tag k="ssr:stedsnr" v="1007803" />
		<tag k="ssr:type" v="adressenavn" />
	</node>
	<node id="-53510" lat="61.1258217598" lon="10.6943771398">
		<tag k="name" v="Gundhildsætra" />
		<tag k="ssr:date" v="2019-05-30" />
		<tag k="ssr:gruppe" v="veg" />
		<tag k="ssr:hovedgruppe" v="infrastruktur" />
		<tag k="ssr:stedsnr" v="1007905" />
		<tag k="ssr:type" v="adressenavn" />
	</node>
	<node id="-53509" lat="61.0985960982" lon="10.6573398463">
		<tag k="name" v="Nord-Mesna" />
		<tag k="ssr:date" v="2019-05-30" />
		<tag k="ssr:gruppe" v="veg" />
		<tag k="ssr:hovedgruppe" v="infrastruktur" />
		<tag k="ssr:stedsnr" v="1007904" />
		<tag k="ssr:type" v="adressenavn" />
	</node>
	<node id="-53508" lat="61.1431282219" lon="10.7120240696">
		<tag k="name" v="Sjusjøen-Brøttum" />
		<tag k="ssr:date" v="2019-05-30" />
		<tag k="ssr:gruppe" v="veg" />
		<tag k="ssr:hovedgruppe" v="infrastruktur" />
		<tag k="ssr:stedsnr" v="1007903" />
		<tag k="ssr:type" v="adressenavn" />
	</node>
	<node id="-53507" lat="61.1420900573" lon="10.6642449454">
		<tag k="name" v="Småsætra" />
		<tag k="ssr:date" v="2019-05-30" />
		<tag k="ssr:gruppe" v="veg" />
		<tag k="ssr:hovedgruppe" v="infrastruktur" />
		<tag k="ssr:stedsnr" v="1007901" />
		<tag k="ssr:type" v="adressenavn" />
	</node>
	<node id="-53506" lat="61.1438882405" lon="10.6596766892">
		<tag k="name" v="Nybu" />
		<tag k="ssr:date" v="2019-05-30" />
		<tag k="ssr:gruppe" v="veg" />
		<tag k="ssr:hovedgruppe" v="infrastruktur" />
		<tag k="ssr:stedsnr" v="1007899" />
		<tag k="ssr:type" v="adressenavn" />
	</node>
	<node id="-53505" lat="61.1368954888" lon="10.7156241954">
		<tag k="name" v="Rømåsen" />
		<tag k="ssr:date" v="2019-05-30" />
		<tag k="ssr:gruppe" v="veg" />
		<tag k="ssr:hovedgruppe" v="infrastruktur" />
		<tag k="ssr:stedsnr" v="1007896" />
		<tag k="ssr:type" v="adressenavn" />
	</node>
	<node id="-53504" lat="61.0278823697" lon="11.0191000993">
		<tag k="name" v="Gautsetra" />
		<tag k="ssr:date" v="2019-05-30" />
		<tag k="ssr:gruppe" v="veg" />
		<tag k="ssr:hovedgruppe" v="infrastruktur" />
		<tag k="ssr:stedsnr" v="1007876" />
		<tag k="ssr:type" v="adressenavn" />
	</node>
	<node id="-53503" lat="60.9820584565" lon="11.0644004153">
		<tag k="name" v="Skreppåsen" />
		<tag k="ssr:date" v="2019-05-30" />
		<tag k="ssr:gruppe" v="veg" />
		<tag k="ssr:hovedgruppe" v="infrastruktur" />
		<tag k="ssr:stedsnr" v="1007875" />
		<tag k="ssr:type" v="adressenavn" />
	</node>
	<node id="-53502" lat="61.0138850749" lon="11.0785690291">
		<tag k="name" v="Ruskåsen" />
		<tag k="ssr:date" v="2019-05-30" />
		<tag k="ssr:gruppe" v="veg" />
		<tag k="ssr:hovedgruppe" v="infrastruktur" />
		<tag k="ssr:stedsnr" v="1007874" />
		<tag k="ssr:type" v="adressenavn" />
	</node>
	<node id="-53501" lat="60.9690164934" lon="11.0785214726">
		<tag k="name" v="Bokåsen" />
		<tag k="ssr:date" v="2019-05-30" />
		<tag k="ssr:gruppe" v="veg" />
		<tag k="ssr:hovedgruppe" v="infrastruktur" />
		<tag k="ssr:stedsnr" v="1007873" />
		<tag k="ssr:type" v="adressenavn" />
	</node>
	<node id="-53500" lat="60.9598944299" lon="11.0401505528">
		<tag k="name" v="Lersetra" />
		<tag k="ssr:date" v="2019-05-30" />
		<tag k="ssr:gruppe" v="veg" />
		<tag k="ssr:hovedgruppe" v="infrastruktur" />
		<tag k="ssr:stedsnr" v="1007869" />
		<tag k="ssr:type" v="adressenavn" />
	</node>
	<node id="-55035" lat="61.0250888893" lon="10.5995638869">
		<tag k="name" v="Svartputtvegen" />
		<tag k="ssr:date" v="2019-05-30" />
		<tag k="ssr:gruppe" v="veg" />
		<tag k="ssr:hovedgruppe" v="infrastruktur" />
		<tag k="ssr:stedsnr" v="644041" />
		<tag k="ssr:type" v="adressenavn" />
	</node>
	<node id="-55034" lat="60.9514972215" lon="10.6937222147">
		<tag k="name" v="Åstadgutua" />
		<tag k="ssr:date" v="2019-05-30" />
		<tag k="ssr:gruppe" v="veg" />
		<tag k="ssr:hovedgruppe" v="infrastruktur" />
		<tag k="ssr:stedsnr" v="644042" />
		<tag k="ssr:type" v="adressenavn" />
	</node>
	<node id="-53497" lat="61.2106881019" lon="10.7537824885">
		<tag k="name" v="Aksjøen" />
		<tag k="ssr:date" v="2019-05-30" />
		<tag k="ssr:gruppe" v="veg" />
		<tag k="ssr:hovedgruppe" v="infrastruktur" />
		<tag k="ssr:stedsnr" v="1007862" />
		<tag k="ssr:type" v="adressenavn" />
	</node>
	<node id="-53496" lat="61.1912621973" lon="10.7309338873">
		<tag k="name" v="Elgåsen" />
		<tag k="ssr:date" v="2019-05-30" />
		<tag k="ssr:gruppe" v="veg" />
		<tag k="ssr:hovedgruppe" v="infrastruktur" />
		<tag k="ssr:stedsnr" v="1007861" />
		<tag k="ssr:type" v="adressenavn" />
	</node>
	<node id="-53495" lat="61.0225147273" lon="10.9653813908">
		<tag k="name" v="Bergsbu" />
		<tag k="ssr:date" v="2019-05-30" />
		<tag k="ssr:gruppe" v="veg" />
		<tag k="ssr:hovedgruppe" v="infrastruktur" />
		<tag k="ssr:stedsnr" v="1007860" />
		<tag k="ssr:type" v="adressenavn" />
	</node>
	<node id="-53494" lat="61.13284778" lon="10.8757702988">
		<tag k="name" v="Ljøsheim" />
		<tag k="ssr:date" v="2019-05-30" />
		<tag k="ssr:gruppe" v="veg" />
		<tag k="ssr:hovedgruppe" v="infrastruktur" />
		<tag k="ssr:stedsnr" v="1007859" />
		<tag k="ssr:type" v="adressenavn" />
	</node>
	<node id="-53493" lat="61.1792334937" lon="10.7200264645">
		<tag k="name" v="Kuåsen" />
		<tag k="ssr:date" v="2019-05-30" />
		<tag k="ssr:gruppe" v="veg" />
		<tag k="ssr:hovedgruppe" v="infrastruktur" />
		<tag k="ssr:stedsnr" v="1007857" />
		<tag k="ssr:type" v="adressenavn" />
	</node>
	<node id="-53492" lat="61.2575999906" lon="10.825831434">
		<tag k="name" v="Gammelskolla" />
		<tag k="ssr:date" v="2019-05-30" />
		<tag k="ssr:gruppe" v="veg" />
		<tag k="ssr:hovedgruppe" v="infrastruktur" />
		<tag k="ssr:stedsnr" v="1007856" />
		<tag k="ssr:type" v="adressenavn" />
	</node>
	<node id="-53491" lat="61.1124336857" lon="10.9594736741">
		<tag k="name" v="Hammarseterhøgda" />
		<tag k="ssr:date" v="2019-05-30" />
		<tag k="ssr:gruppe" v="veg" />
		<tag k="ssr:hovedgruppe" v="infrastruktur" />
		<tag k="ssr:stedsnr" v="1007855" />
		<tag k="ssr:type" v="adressenavn" />
	</node>
	<node id="-53490" lat="61.1782522984" lon="10.8878974777">
		<tag k="name" v="Kvarstadsætra" />
		<tag k="ssr:date" v="2019-05-30" />
		<tag k="ssr:gruppe" v="veg" />
		<tag k="ssr:hovedgruppe" v="infrastruktur" />
		<tag k="ssr:stedsnr" v="1007854" />
		<tag k="ssr:type" v="adressenavn" />
	</node>
	<node id="-53489" lat="61.1438464319" lon="10.9281161599">
		<tag k="name" v="Olshølen" />
		<tag k="ssr:date" v="2019-05-30" />
		<tag k="ssr:gruppe" v="veg" />
		<tag k="ssr:hovedgruppe" v="infrastruktur" />
		<tag k="ssr:stedsnr" v="1007853" />
		<tag k="ssr:type" v="adressenavn" />
	</node>
	<node id="-53488" lat="61.1736016925" lon="10.9599775043">
		<tag k="name" v="Nysætra" />
		<tag k="ssr:date" v="2019-05-30" />
		<tag k="ssr:gruppe" v="veg" />
		<tag k="ssr:hovedgruppe" v="infrastruktur" />
		<tag k="ssr:stedsnr" v="1007851" />
		<tag k="ssr:type" v="adressenavn" />
	</node>
	<node id="-53487" lat="61.1226726985" lon="10.9562905337">
		<tag k="name" v="Hammarsætra" />
		<tag k="ssr:date" v="2019-05-30" />
		<tag k="ssr:gruppe" v="veg" />
		<tag k="ssr:hovedgruppe" v="infrastruktur" />
		<tag k="ssr:stedsnr" v="1007849" />
		<tag k="ssr:type" v="adressenavn" />
	</node>
	<node id="-53486" lat="61.2224750287" lon="10.8493113859">
		<tag k="name" v="Skvaldra" />
		<tag k="ssr:date" v="2019-05-30" />
		<tag k="ssr:gruppe" v="veg" />
		<tag k="ssr:hovedgruppe" v="infrastruktur" />
		<tag k="ssr:stedsnr" v="1007848" />
		<tag k="ssr:type" v="adressenavn" />
	</node>
	<node id="-53485" lat="61.1933037654" lon="10.8230950933">
		<tag k="name" v="Nøkkelåsen" />
		<tag k="ssr:date" v="2019-05-30" />
		<tag k="ssr:gruppe" v="veg" />
		<tag k="ssr:hovedgruppe" v="infrastruktur" />
		<tag k="ssr:stedsnr" v="1007847" />
		<tag k="ssr:type" v="adressenavn" />
	</node>
	<node id="-53484" lat="61.1493541316" lon="10.6910863107">
		<tag k="name" v="Sjusjøen-Pihl" />
		<tag k="ssr:date" v="2019-05-30" />
		<tag k="ssr:gruppe" v="veg" />
		<tag k="ssr:hovedgruppe" v="infrastruktur" />
		<tag k="ssr:stedsnr" v="1007846" />
		<tag k="ssr:type" v="adressenavn" />
	</node>
	<node id="-53483" lat="61.0678920613" lon="10.9180394234">
		<tag k="name" v="Ljøsåkanalen" />
		<tag k="ssr:date" v="2019-05-30" />
		<tag k="ssr:gruppe" v="veg" />
		<tag k="ssr:hovedgruppe" v="infrastruktur" />
		<tag k="ssr:stedsnr" v="1007845" />
		<tag k="ssr:type" v="adressenavn" />
	</node>
	<node id="-53482" lat="61.2048984685" lon="10.9249145456">
		<tag k="name" v="Øyungen" />
		<tag k="ssr:date" v="2019-05-30" />
		<tag k="ssr:gruppe" v="veg" />
		<tag k="ssr:hovedgruppe" v="infrastruktur" />
		<tag k="ssr:stedsnr" v="1007844" />
		<tag k="ssr:type" v="adressenavn" />
	</node>
	<node id="-53481" lat="61.2228261926" lon="10.7781111177">
		<tag k="name" v="Storstilhøgda" />
		<tag k="ssr:date" v="2019-05-30" />
		<tag k="ssr:gruppe" v="veg" />
		<tag k="ssr:hovedgruppe" v="infrastruktur" />
		<tag k="ssr:stedsnr" v="1007843" />
		<tag k="ssr:type" v="adressenavn" />
	</node>
	<node id="-53480" lat="61.2233265307" lon="10.8148862972">
		<tag k="name" v="Storstilen" />
		<tag k="ssr:date" v="2019-05-30" />
		<tag k="ssr:gruppe" v="veg" />
		<tag k="ssr:hovedgruppe" v="infrastruktur" />
		<tag k="ssr:stedsnr" v="1007842" />
		<tag k="ssr:type" v="adressenavn" />
	</node>
	<node id="-53479" lat="61.2069233305" lon="10.8306585833">
		<tag k="name" v="Stenstilen" />
		<tag k="ssr:date" v="2019-05-30" />
		<tag k="ssr:gruppe" v="veg" />
		<tag k="ssr:hovedgruppe" v="infrastruktur" />
		<tag k="ssr:stedsnr" v="1007840" />
		<tag k="ssr:type" v="adressenavn" />
	</node>
	<node id="-53478" lat="61.1541269222" lon="10.9202427901">
		<tag k="name" v="Åkersætra" />
		<tag k="ssr:date" v="2019-05-30" />
		<tag k="ssr:gruppe" v="veg" />
		<tag k="ssr:hovedgruppe" v="infrastruktur" />
		<tag k="ssr:stedsnr" v="1007838" />
		<tag k="ssr:type" v="adressenavn" />
	</node>
	<node id="-53477" lat="61.0263500651" lon="11.0104508253">
		<tag k="name" v="Gautsetra-Pihl" />
		<tag k="ssr:date" v="2019-05-30" />
		<tag k="ssr:gruppe" v="veg" />
		<tag k="ssr:hovedgruppe" v="infrastruktur" />
		<tag k="ssr:stedsnr" v="1007835" />
		<tag k="ssr:type" v="adressenavn" />
	</node>
	<node id="-53476" lat="61.2410090112" lon="10.8598855309">
		<tag k="name" v="Bonkerud" />
		<tag k="ssr:date" v="2019-05-30" />
		<tag k="ssr:gruppe" v="veg" />
		<tag k="ssr:hovedgruppe" v="infrastruktur" />
		<tag k="ssr:stedsnr" v="1007834" />
		<tag k="ssr:type" v="adressenavn" />
	</node>
	<node id="-53475" lat="61.0499889225" lon="10.9961934981">
		<tag k="name" v="Døråsen" />
		<tag k="ssr:date" v="2019-05-30" />
		<tag k="ssr:gruppe" v="veg" />
		<tag k="ssr:hovedgruppe" v="infrastruktur" />
		<tag k="ssr:stedsnr" v="1007833" />
		<tag k="ssr:type" v="adressenavn" />
	</node>
	<node id="-53474" lat="61.0653195423" lon="10.9447007676">
		<tag k="name" v="Tomsetra" />
		<tag k="ssr:date" v="2019-05-30" />
		<tag k="ssr:gruppe" v="veg" />
		<tag k="ssr:hovedgruppe" v="infrastruktur" />
		<tag k="ssr:stedsnr" v="1007831" />
		<tag k="ssr:type" v="adressenavn" />
	</node>
	<node id="-53473" lat="61.0871894895" lon="10.9041856988">
		<tag k="name" v="Grimstilen" />
		<tag k="ssr:date" v="2019-05-30" />
		<tag k="ssr:gruppe" v="veg" />
		<tag k="ssr:hovedgruppe" v="infrastruktur" />
		<tag k="ssr:stedsnr" v="1007830" />
		<tag k="ssr:type" v="adressenavn" />
	</node>
	<node id="-53472" lat="61.1803280075" lon="10.772331419">
		<tag k="name" v="Gjestbudsåsen" />
		<tag k="ssr:date" v="2019-05-30" />
		<tag k="ssr:gruppe" v="veg" />
		<tag k="ssr:hovedgruppe" v="infrastruktur" />
		<tag k="ssr:stedsnr" v="1007828" />
		<tag k="ssr:type" v="adressenavn" />
	</node>
	<node id="-53471" lat="61.2484002791" lon="10.8334620152">
		<tag k="name" v="Geitbu" />
		<tag k="ssr:date" v="2019-05-30" />
		<tag k="ssr:gruppe" v="veg" />
		<tag k="ssr:hovedgruppe" v="infrastruktur" />
		<tag k="ssr:stedsnr" v="1007826" />
		<tag k="ssr:type" v="adressenavn" />
	</node>
	<node id="-53470" lat="61.2176059831" lon="10.8671261083">
		<tag k="name" v="Skvaldra Seter" />
		<tag k="ssr:date" v="2019-05-30" />
		<tag k="ssr:gruppe" v="veg" />
		<tag k="ssr:hovedgruppe" v="infrastruktur" />
		<tag k="ssr:stedsnr" v="1007824" />
		<tag k="ssr:type" v="adressenavn" />
	</node>
	<node id="-53469" lat="61.1333452642" lon="10.8008427525">
		<tag k="name" v="Moste" />
		<tag k="ssr:date" v="2019-05-30" />
		<tag k="ssr:gruppe" v="veg" />
		<tag k="ssr:hovedgruppe" v="infrastruktur" />
		<tag k="ssr:stedsnr" v="1007821" />
		<tag k="ssr:type" v="adressenavn" />
	</node>
	<node id="-53468" lat="61.1332988086" lon="10.7131633666">
		<tag k="name" v="Fløyta" />
		<tag k="ssr:date" v="2019-05-30" />
		<tag k="ssr:gruppe" v="veg" />
		<tag k="ssr:hovedgruppe" v="infrastruktur" />
		<tag k="ssr:stedsnr" v="1007819" />
		<tag k="ssr:type" v="adressenavn" />
	</node>
	<node id="-53467" lat="61.1162420486" lon="10.7603143265">
		<tag k="name" v="Natrudstilen" />
		<tag k="ssr:date" v="2019-05-30" />
		<tag k="ssr:gruppe" v="veg" />
		<tag k="ssr:hovedgruppe" v="infrastruktur" />
		<tag k="ssr:stedsnr" v="1007818" />
		<tag k="ssr:type" v="adressenavn" />
	</node>
	<node id="-53466" lat="61.103601324" lon="10.7949018776">
		<tag k="name" v="Engevangen" />
		<tag k="ssr:date" v="2019-05-30" />
		<tag k="ssr:gruppe" v="veg" />
		<tag k="ssr:hovedgruppe" v="infrastruktur" />
		<tag k="ssr:stedsnr" v="1007817" />
		<tag k="ssr:type" v="adressenavn" />
	</node>
	<node id="-53465" lat="61.1310273434" lon="10.7894198981">
		<tag k="name" v="Leinvangen" />
		<tag k="ssr:date" v="2019-05-30" />
		<tag k="ssr:gruppe" v="veg" />
		<tag k="ssr:hovedgruppe" v="infrastruktur" />
		<tag k="ssr:stedsnr" v="1007816" />
		<tag k="ssr:type" v="adressenavn" />
	</node>
	<node id="-53464" lat="61.0944149979" lon="10.7586745937">
		<tag k="name" v="Gundersetra" />
		<tag k="ssr:date" v="2019-05-30" />
		<tag k="ssr:gruppe" v="veg" />
		<tag k="ssr:hovedgruppe" v="infrastruktur" />
		<tag k="ssr:stedsnr" v="1007814" />
		<tag k="ssr:type" v="adressenavn" />
	</node>
	<node id="-53463" lat="61.0804773306" lon="10.7168337779">
		<tag k="name" v="Lorta" />
		<tag k="ssr:date" v="2019-05-30" />
		<tag k="ssr:gruppe" v="veg" />
		<tag k="ssr:hovedgruppe" v="infrastruktur" />
		<tag k="ssr:stedsnr" v="1007813" />
		<tag k="ssr:type" v="adressenavn" />
	</node>
	<node id="-53462" lat="61.0746958989" lon="10.8309149135">
		<tag k="name" v="Sør-Mesna" />
		<tag k="ssr:date" v="2019-05-30" />
		<tag k="ssr:gruppe" v="veg" />
		<tag k="ssr:hovedgruppe" v="infrastruktur" />
		<tag k="ssr:stedsnr" v="1007812" />
		<tag k="ssr:type" v="adressenavn" />
	</node>
	<node id="-53461" lat="61.1108681595" lon="10.8533288701">
		<tag k="name" v="Lauvlia" />
		<tag k="ssr:date" v="2019-05-30" />
		<tag k="ssr:gruppe" v="veg" />
		<tag k="ssr:hovedgruppe" v="infrastruktur" />
		<tag k="ssr:stedsnr" v="1007806" />
		<tag k="ssr:type" v="adressenavn" />
	</node>
	<node id="-53460" lat="60.9034979539" lon="10.953311148">
		<tag k="name" v="Minkstuevegen" />
		<tag k="ssr:date" v="2019-05-30" />
		<tag k="ssr:gruppe" v="veg" />
		<tag k="ssr:hovedgruppe" v="infrastruktur" />
		<tag k="ssr:stedsnr" v="1007596" />
		<tag k="ssr:type" v="adressenavn" />
	</node>
	<node id="-53971" lat="60.8821555531" lon="10.9503000082">
		<tag k="name" v="Ringsaker kommune" />
		<tag k="ssr:date" v="2016-05-10" />
		<tag k="ssr:gruppe" v="administrativeIndelinger" />
		<tag k="ssr:hovedgruppe" v="offentligAdministrasjon" />
		<tag k="ssr:stedsnr" v="146295" />
		<tag k="ssr:type" v="kommune" />
	</node>
	<node id="-53458" lat="60.8927726451" lon="10.9304438602">
		<tag k="name" v="Fagerlunden" />
		<tag k="ssr:date" v="2019-05-30" />
		<tag k="ssr:gruppe" v="veg" />
		<tag k="ssr:hovedgruppe" v="infrastruktur" />
		<tag k="ssr:stedsnr" v="1007456" />
		<tag k="ssr:type" v="adressenavn" />
	</node>
	<node id="-53457" lat="60.9061388872" lon="10.9660380695">
		<tag k="name" v="Slåttsvelia" />
		<tag k="ssr:date" v="2019-05-30" />
		<tag k="ssr:gruppe" v="veg" />
		<tag k="ssr:hovedgruppe" v="infrastruktur" />
		<tag k="ssr:stedsnr" v="1007446" />
		<tag k="ssr:type" v="adressenavn" />
	</node>
	<node id="-53456" lat="60.8783668346" lon="10.9220896776">
		<tag k="name" v="Tårnvegen" />
		<tag k="ssr:date" v="2019-05-30" />
		<tag k="ssr:gruppe" v="veg" />
		<tag k="ssr:hovedgruppe" v="infrastruktur" />
		<tag k="ssr:stedsnr" v="1007445" />
		<tag k="ssr:type" v="adressenavn" />
	</node>
	<node id="-53455" lat="60.8672361189" lon="10.9476788258">
		<tag k="name" v="Pardisvegen" />
		<tag k="ssr:date" v="2019-05-30" />
		<tag k="ssr:gruppe" v="veg" />
		<tag k="ssr:hovedgruppe" v="infrastruktur" />
		<tag k="ssr:stedsnr" v="1007444" />
		<tag k="ssr:type" v="adressenavn" />
	</node>
	<node id="-53454" lat="60.9763738289" lon="10.7702982172">
		<tag k="name" v="Sagmovegen" />
		<tag k="ssr:date" v="2019-05-30" />
		<tag k="ssr:gruppe" v="veg" />
		<tag k="ssr:hovedgruppe" v="infrastruktur" />
		<tag k="ssr:stedsnr" v="1007442" />
		<tag k="ssr:type" v="adressenavn" />
	</node>
	<node id="-53453" lat="60.8661804633" lon="10.9438592304">
		<tag k="name" v="Marielundvegen" />
		<tag k="ssr:date" v="2019-05-30" />
		<tag k="ssr:gruppe" v="veg" />
		<tag k="ssr:hovedgruppe" v="infrastruktur" />
		<tag k="ssr:stedsnr" v="1007441" />
		<tag k="ssr:type" v="adressenavn" />
	</node>
	<node id="-53452" lat="60.843204985" lon="11.056747524">
		<tag k="name" v="Nydalstråkket" />
		<tag k="ssr:date" v="2019-05-30" />
		<tag k="ssr:gruppe" v="veg" />
		<tag k="ssr:hovedgruppe" v="infrastruktur" />
		<tag k="ssr:stedsnr" v="1007439" />
		<tag k="ssr:type" v="adressenavn" />
	</node>
	<node id="-53451" lat="60.8427476147" lon="11.0562929865">
		<tag k="name" v="Holabekkvegen" />
		<tag k="ssr:date" v="2019-05-30" />
		<tag k="ssr:gruppe" v="veg" />
		<tag k="ssr:hovedgruppe" v="infrastruktur" />
		<tag k="ssr:stedsnr" v="1007437" />
		<tag k="ssr:type" v="adressenavn" />
	</node>
	<node id="-53450" lat="61.0113405788" lon="10.9519243588">
		<tag k="name" v="Fløyten" />
		<tag k="ssr:date" v="2019-05-30" />
		<tag k="ssr:gruppe" v="veg" />
		<tag k="ssr:hovedgruppe" v="infrastruktur" />
		<tag k="ssr:stedsnr" v="1007800" />
		<tag k="ssr:type" v="adressenavn" />
	</node>
	<node id="-53449" lat="61.0210390627" lon="10.8978322829">
		<tag k="name" v="Aursmoen" />
		<tag k="ssr:date" v="2019-05-30" />
		<tag k="ssr:gruppe" v="veg" />
		<tag k="ssr:hovedgruppe" v="infrastruktur" />
		<tag k="ssr:stedsnr" v="1007798" />
		<tag k="ssr:type" v="adressenavn" />
	</node>
	<node id="-53448" lat="61.0397723666" lon="11.0619118693">
		<tag k="name" v="Brumunddalen" />
		<tag k="ssr:date" v="2019-05-30" />
		<tag k="ssr:gruppe" v="veg" />
		<tag k="ssr:hovedgruppe" v="infrastruktur" />
		<tag k="ssr:stedsnr" v="1007795" />
		<tag k="ssr:type" v="adressenavn" />
	</node>
	<node id="-53447" lat="61.0190075526" lon="11.1115519053">
		<tag k="name" v="Brumundsjøen" />
		<tag k="ssr:date" v="2019-05-30" />
		<tag k="ssr:gruppe" v="veg" />
		<tag k="ssr:hovedgruppe" v="infrastruktur" />
		<tag k="ssr:stedsnr" v="1007794" />
		<tag k="ssr:type" v="adressenavn" />
	</node>
	<node id="-53446" lat="61.1238559172" lon="10.9755919728">
		<tag k="name" v="Bjønnåsen" />
		<tag k="ssr:date" v="2019-05-30" />
		<tag k="ssr:gruppe" v="veg" />
		<tag k="ssr:hovedgruppe" v="infrastruktur" />
		<tag k="ssr:stedsnr" v="1007793" />
		<tag k="ssr:type" v="adressenavn" />
	</node>
	<node id="-53445" lat="60.8316205753" lon="11.0849252273">
		<tag k="name" v="Narmovegen" />
		<tag k="ssr:date" v="2019-05-30" />
		<tag k="ssr:gruppe" v="veg" />
		<tag k="ssr:hovedgruppe" v="infrastruktur" />
		<tag k="ssr:stedsnr" v="1005012" />
		<tag k="ssr:type" v="adressenavn" />
	</node>
	<node id="-53444" lat="60.9263291959" lon="10.6988808799">
		<tag k="name" v="Farverivegen" />
		<tag k="ssr:date" v="2019-05-30" />
		<tag k="ssr:gruppe" v="veg" />
		<tag k="ssr:hovedgruppe" v="infrastruktur" />
		<tag k="ssr:stedsnr" v="1004372" />
		<tag k="ssr:type" v="adressenavn" />
	</node>
	<node id="-53438" lat="60.9694248543" lon="10.9240221239">
		<tag k="name" v="Veg8443" />
		<tag k="ssr:date" v="2019-12-10" />
		<tag k="ssr:gruppe" v="veg" />
		<tag k="ssr:hovedgruppe" v="infrastruktur" />
		<tag k="ssr:stedsnr" v="1073965" />
		<tag k="ssr:type" v="adressenavn" />
	</node>
	<node id="-53431" lat="61.1144378257" lon="10.8046900266">
		<tag k="name" v="Tjuvolavegen" />
		<tag k="ssr:date" v="2019-11-26" />
		<tag k="ssr:gruppe" v="veg" />
		<tag k="ssr:hovedgruppe" v="infrastruktur" />
		<tag k="ssr:stedsnr" v="1073530" />
		<tag k="ssr:type" v="vegstrekning" />
	</node>
	<node id="-53385" lat="61.051519444" lon="10.8862833366">
		<tag k="name" v="Blekavegen" />
		<tag k="ssr:date" v="2018-04-20" />
		<tag k="ssr:gruppe" v="veg" />
		<tag k="ssr:hovedgruppe" v="infrastruktur" />
		<tag k="ssr:stedsnr" v="889377" />
		<tag k="ssr:type" v="vegstrekning" />
	</node>
	<node id="-55938" lat="60.5908609473" lon="9.63819281559">
		<tag k="fixme" v="multiple name tags, choose one and add the other to alt_name" />
		<tag k="name" v="Austlandet;Østlandet" />
		<tag k="ssr:date" v="2018-01-09" />
		<tag k="ssr:gruppe" v="administrativeIndelinger" />
		<tag k="ssr:hovedgruppe" v="offentligAdministrasjon" />
		<tag k="ssr:stedsnr" v="974775" />
		<tag k="ssr:type" v="annenAdministrativInndeling" />
	</node>
	<node id="-53376" lat="60.9836222198" lon="10.6810027694">
		<tag k="name" v="Syljuåsvegen" />
		<tag k="ssr:date" v="2019-05-30" />
		<tag k="ssr:gruppe" v="veg" />
		<tag k="ssr:hovedgruppe" v="infrastruktur" />
		<tag k="ssr:stedsnr" v="888034" />
		<tag k="ssr:type" v="adressenavn" />
	</node>
	<node id="-53364" lat="61.0085916664" lon="10.9217222263">
		<tag k="name" v="Leikholsvegen" />
		<tag k="ssr:date" v="2018-04-20" />
		<tag k="ssr:gruppe" v="veg" />
		<tag k="ssr:hovedgruppe" v="infrastruktur" />
		<tag k="ssr:stedsnr" v="406355" />
		<tag k="ssr:type" v="vegstrekning" />
	</node>
	<node id="-54849" lat="61.0273444423" lon="10.8683083396">
		<tag k="name" v="Fellesvegen" />
		<tag k="ssr:date" v="2018-04-20" />
		<tag k="ssr:gruppe" v="veg" />
		<tag k="ssr:hovedgruppe" v="infrastruktur" />
		<tag k="ssr:stedsnr" v="585351" />
		<tag k="ssr:type" v="vegstrekning" />
	</node>
	<node id="-55871" lat="61.0638611097" lon="10.8691972289">
		<tag k="name" v="Stormyrvegen" />
		<tag k="ssr:date" v="2018-04-20" />
		<tag k="ssr:gruppe" v="veg" />
		<tag k="ssr:hovedgruppe" v="infrastruktur" />
		<tag k="ssr:stedsnr" v="950388" />
		<tag k="ssr:type" v="vegstrekning" />
	</node>
	<node id="-55860" lat="60.990091663" lon="10.6390527822">
		<tag k="name" v="Tretsvevegen" />
		<tag k="ssr:date" v="2019-05-30" />
		<tag k="ssr:gruppe" v="veg" />
		<tag k="ssr:hovedgruppe" v="infrastruktur" />
		<tag k="ssr:stedsnr" v="948067" />
		<tag k="ssr:type" v="adressenavn" />
	</node>
	<node id="-53796" lat="61.0508277794" lon="10.736447226">
		<tag k="name" v="Onsumvegen" />
		<tag k="ssr:date" v="2019-05-30" />
		<tag k="ssr:gruppe" v="veg" />
		<tag k="ssr:hovedgruppe" v="infrastruktur" />
		<tag k="ssr:stedsnr" v="99043" />
		<tag k="ssr:type" v="adressenavn" />
	</node>
	<node id="-53795" lat="61.075599999" lon="10.5949222147">
		<tag k="name" v="Bekkedalsgutua" />
		<tag k="ssr:date" v="2019-05-30" />
		<tag k="ssr:gruppe" v="veg" />
		<tag k="ssr:hovedgruppe" v="infrastruktur" />
		<tag k="ssr:stedsnr" v="99034" />
		<tag k="ssr:type" v="adressenavn" />
	</node>
	<node id="-54020" lat="61.0268611133" lon="10.9344694484">
		<tag k="name" v="Lauvåsvegen" />
		<tag k="ssr:date" v="2018-04-20" />
		<tag k="ssr:gruppe" v="veg" />
		<tag k="ssr:hovedgruppe" v="infrastruktur" />
		<tag k="ssr:stedsnr" v="176814" />
		<tag k="ssr:type" v="vegstrekning" />
	</node>
	<node id="-54530" lat="61.0117388912" lon="10.92873056">
		<tag k="name" v="Bakåsvegen" />
		<tag k="ssr:date" v="2018-04-20" />
		<tag k="ssr:gruppe" v="veg" />
		<tag k="ssr:hovedgruppe" v="infrastruktur" />
		<tag k="ssr:stedsnr" v="466371" />
		<tag k="ssr:type" v="vegstrekning" />
	</node>
</osm>
