<?xml version="1.0" encoding="UTF-8"?>
<osm generator="osmapis" version="0.6">
	<node id="-506304" lat="61.2232333345" lon="5.04829722557">
		<tag k="highway" v="path" />
		<tag k="name" v="Kuvegen" />
		<tag k="ssr:stedsnr" v="528146" />
	</node>
	<node id="-506750" lat="61.2583166655" lon="5.10186389218">
		<tag k="bridge" v="yes" />
		<tag k="layer" v="1" />
		<tag k="name" v="Sellevoll" />
		<tag k="ssr:stedsnr" v="774445" />
	</node>
	<node id="-506749" lat="61.142624466" lon="5.35492700819">
		<tag k="bridge" v="yes" />
		<tag k="layer" v="1" />
		<tag k="name" v="Ås" />
		<tag k="ssr:stedsnr" v="774444" />
	</node>
	<node id="-506748" lat="61.1619000015" lon="5.32855276997">
		<tag k="bridge" v="yes" />
		<tag k="layer" v="1" />
		<tag k="name" v="Atterås" />
		<tag k="ssr:stedsnr" v="774438" />
	</node>
	<node id="-505711" lat="61.1969083372" lon="5.39295556297">
		<tag k="bridge" v="yes" />
		<tag k="layer" v="1" />
		<tag k="name" v="Haugsgjelet" />
		<tag k="ssr:stedsnr" v="410405" />
	</node>
	<node id="-505710" lat="61.1735888925" lon="5.39893610498">
		<tag k="bridge" v="yes" />
		<tag k="layer" v="1" />
		<tag k="name" v="Espeland" />
		<tag k="ssr:stedsnr" v="410403" />
	</node>
	<node id="-506343" lat="61.1140786911" lon="5.28305291851">
		<tag k="alt_name" v="Rysjedalsvika ferjekai;Rysjedalsvika" />
		<tag k="amenity" v="ferry_terminal" />
		<tag k="name" v="Rysjedalsvika" />
		<tag k="ssr:stedsnr" v="531416" />
	</node>
	<node id="-506342" lat="61.1299916694" lon="5.34902777041">
		<tag k="bridge" v="yes" />
		<tag k="layer" v="1" />
		<tag k="name" v="Heggebø" />
		<tag k="ssr:stedsnr" v="531395" />
	</node>
	<node id="-506721" lat="61.1309555598" lon="5.35772499857">
		<tag k="highway" v="path" />
		<tag k="name" v="Stien" />
		<tag k="ssr:stedsnr" v="771475" />
	</node>
	<node id="-506717" lat="61.1147888904" lon="5.34813889749">
		<tag k="highway" v="path" />
		<tag k="name" v="Maurestien" />
		<tag k="ssr:stedsnr" v="771250" />
	</node>
	<node id="-506586" lat="61.1753194476" lon="5.07675833937">
		<tag k="name" v="Hamna" />
		<tag k="place" v="locality" />
		<tag k="ssr:stedsnr" v="708039" />
	</node>
	<node id="-506837" lat="61.0801916639" lon="5.3899416691">
		<tag k="bridge" v="yes" />
		<tag k="layer" v="1" />
		<tag k="name" v="Brennsdal" />
		<tag k="ssr:stedsnr" v="835418" />
	</node>
	<node id="-506833" lat="61.2224777773" lon="5.25828055943">
		<tag k="highway" v="path" />
		<tag k="name" v="Stegane" />
		<tag k="ssr:stedsnr" v="832922" />
	</node>
	<node id="-505936" lat="61.148280555" lon="5.3459388958">
		<tag k="bridge" v="yes" />
		<tag k="layer" v="1" />
		<tag k="name" v="Foss" />
		<tag k="ssr:stedsnr" v="107390" />
	</node>
	<node id="-505526" lat="61.2356694486" lon="5.12015000335">
		<tag k="bridge" v="yes" />
		<tag k="layer" v="1" />
		<tag k="name" v="Osen" />
		<tag k="ssr:stedsnr" v="289396" />
	</node>
	<node id="-506432" lat="61.173616664" lon="5.39123055205">
		<tag k="bridge" v="yes" />
		<tag k="layer" v="1" />
		<tag k="name" v="Systad" />
		<tag k="ssr:stedsnr" v="592430" />
	</node>
	<node id="-506812" lat="61.2050388898" lon="5.39139443613">
		<tag k="highway" v="path" />
		<tag k="name" v="Sandvassveien" />
		<tag k="ssr:stedsnr" v="832388" />
	</node>
	<node id="-506552" lat="61.2099638915" lon="5.24471667199">
		<tag k="bridge" v="yes" />
		<tag k="layer" v="1" />
		<tag k="name" v="Hatlem Ytre" />
		<tag k="ssr:stedsnr" v="652355" />
	</node>
	<node id="-506551" lat="61.2695083305" lon="5.22321944472">
		<tag k="bridge" v="yes" />
		<tag k="layer" v="1" />
		<tag k="name" v="Horne" />
		<tag k="ssr:stedsnr" v="652349" />
	</node>
	<node id="-506550" lat="61.1865249999" lon="5.31407499765">
		<tag k="layer" v="-1" />
		<tag k="name" v="Hyllestad" />
		<tag k="ssr:stedsnr" v="651511" />
		<tag k="tunnel" v="yes" />
	</node>
	<node id="-505525" lat="61.1549194457" lon="5.3632861039">
		<tag k="bridge" v="yes" />
		<tag k="layer" v="1" />
		<tag k="name" v="Staurdal" />
		<tag k="ssr:stedsnr" v="289395" />
	</node>
	<node id="-505524" lat="61.0832888859" lon="5.38708889769">
		<tag k="layer" v="-1" />
		<tag k="name" v="Brennsdal" />
		<tag k="ssr:stedsnr" v="287134" />
		<tag k="tunnel" v="yes" />
	</node>
	<node id="-506545" lat="61.2772166705" lon="5.09641110656">
		<tag k="highway" v="path" />
		<tag k="name" v="Dyrestien" />
		<tag k="ssr:stedsnr" v="650641" />
	</node>
	<node id="-506027" lat="61.1943361157" lon="5.39483333775">
		<tag k="bridge" v="yes" />
		<tag k="layer" v="1" />
		<tag k="name" v="Dale" />
		<tag k="ssr:stedsnr" v="167405" />
	</node>
	<node id="-505506" lat="61.199386111" lon="5.38091111465">
		<tag k="highway" v="path" />
		<tag k="name" v="Kvernhusveien" />
		<tag k="ssr:stedsnr" v="286193" />
	</node>
	<node id="-505760" lat="61.1412472213" lon="5.34801111645">
		<tag k="bridge" v="yes" />
		<tag k="layer" v="1" />
		<tag k="name" v="Bø" />
		<tag k="ssr:stedsnr" v="896424" />
	</node>
	<node id="-505759" lat="61.238711107" lon="5.22613332603">
		<tag k="bridge" v="yes" />
		<tag k="layer" v="1" />
		<tag k="name" v="Løken" />
		<tag k="ssr:stedsnr" v="896418" />
	</node>
	<node id="-506135" lat="61.1114055558" lon="5.34870832601">
		<tag k="bridge" v="yes" />
		<tag k="layer" v="1" />
		<tag k="name" v="Tveit" />
		<tag k="ssr:stedsnr" v="228438" />
	</node>
	<node id="-506134" lat="61.1702694411" lon="5.29186944267">
		<tag k="bridge" v="yes" />
		<tag k="layer" v="1" />
		<tag k="name" v="Hyllestad" />
		<tag k="ssr:stedsnr" v="228425" />
	</node>
	<node id="-505617" lat="61.2253916658" lon="5.19276666435">
		<tag k="bridge" v="yes" />
		<tag k="layer" v="1" />
		<tag k="name" v="Salbu" />
		<tag k="ssr:stedsnr" v="349460" />
	</node>
	<node id="-505857" lat="61.2199416662" lon="5.35699721364">
		<tag k="bridge" v="yes" />
		<tag k="layer" v="1" />
		<tag k="name" v="Skor" />
		<tag k="ssr:stedsnr" v="46428" />
	</node>
</osm>
