<?xml version="1.0" encoding="UTF-8"?>
<osm generator="osmapis" version="0.6">
	<node changeset="66704001" id="5389517654" lat="59.3813083" lon="10.6816889" timestamp="2019-01-28T12:22:25Z" uid="633013" user="Honning" version="2">
		<tag k="name" v="Haug" />
		<tag k="place" v="farm" />
		<tag k="ssr:stedsnr" v="149984" />
	</node>
	<node changeset="66704001" id="5389806086" lat="59.3721167" lon="10.7055917" timestamp="2019-01-28T12:22:25Z" uid="633013" user="Honning" version="2">
		<tag k="alt_name" v="Urstadmyra" />
		<tag k="name" v="Urstadmyr" />
		<tag k="place" v="farm" />
		<tag k="ssr:stedsnr" v="427577" />
	</node>
	<node changeset="66704001" id="1836665867" lat="59.4034806" lon="10.6913806" timestamp="2019-01-28T12:22:22Z" uid="633013" user="Honning" version="2">
		<tag k="name" v="Krokstad" />
		<tag k="place" v="farm" />
		<tag k="ssr:stedsnr" v="306480" />
	</node>
	<node changeset="66704001" id="6241620680" lat="59.3956389" lon="10.7241917" timestamp="2019-01-28T12:22:12Z" uid="633013" user="Honning" version="1">
		<tag k="name" v="Såstad" />
		<tag k="place" v="farm" />
		<tag k="ssr:stedsnr" v="843825" />
	</node>
	<node changeset="66704001" id="6241620663" lat="59.4140944" lon="10.7652028" timestamp="2019-01-28T12:22:11Z" uid="633013" user="Honning" version="1">
		<tag k="name" v="Engene" />
		<tag k="place" v="farm" />
		<tag k="ssr:stedsnr" v="791308" />
	</node>
	<node changeset="66704001" id="5389806105" lat="59.3656056" lon="10.6957278" timestamp="2019-01-28T12:22:25Z" uid="633013" user="Honning" version="2">
		<tag k="alt_name" v="Pålsrød østre" />
		<tag k="name" v="Østre Pålsrød" />
		<tag k="place" v="farm" />
		<tag k="ssr:stedsnr" v="235104" />
	</node>
	<node changeset="66704001" id="5389806116" lat="59.3659139" lon="10.68925" timestamp="2019-01-28T12:22:25Z" uid="633013" user="Honning" version="2">
		<tag k="alt_name" v="Pålsrød vestre" />
		<tag k="name" v="Vestre Pålsrød" />
		<tag k="place" v="farm" />
		<tag k="ssr:stedsnr" v="478029" />
	</node>
	<node changeset="66704001" id="5389806117" lat="59.3648417" lon="10.6938083" timestamp="2019-01-28T12:22:26Z" uid="633013" user="Honning" version="2">
		<tag k="alt_name" v="Pålsrød mellem" />
		<tag k="name" v="Mellom-Pålsrød" />
		<tag k="place" v="farm" />
		<tag k="ssr:stedsnr" v="235103" />
	</node>
	<node changeset="66704001" id="6241620661" lat="59.3940111" lon="10.7604778" timestamp="2019-01-28T12:22:11Z" uid="633013" user="Honning" version="1">
		<tag k="fixme" v="consider place=farm" />
		<tag k="name" v="Nordli" />
		<tag k="place" v="isolated_dwelling" />
		<tag k="ssr:stedsnr" v="782744" />
	</node>
	<node changeset="66704001" id="6241620662" lat="59.3930528" lon="10.7597417" timestamp="2019-01-28T12:22:11Z" uid="633013" user="Honning" version="1">
		<tag k="name" v="Jonsrud" />
		<tag k="place" v="farm" />
		<tag k="ssr:stedsnr" v="782760" />
	</node>
	<node changeset="66704467" id="6241620665" lat="59.4008778" lon="10.6993861" timestamp="2019-01-28T12:36:56Z" uid="633013" user="Honning" version="2">
		<tag k="name" v="Dilling" />
		<tag k="place" v="hamlet" />
		<tag k="ssr:stedsnr" v="791495" />
	</node>
	<node changeset="66704001" id="5392413771" lat="59.3476417" lon="10.6728667" timestamp="2019-01-28T12:22:26Z" uid="633013" user="Honning" version="2">
		<tag k="name" v="Botner" />
		<tag k="place" v="farm" />
		<tag k="ssr:stedsnr" v="852568" />
	</node>
	<node changeset="66704001" id="4331246349" lat="59.4035917" lon="10.6585556" timestamp="2019-01-28T12:22:22Z" uid="633013" user="Honning" version="2">
		<tag k="alt_name" v="Dyre søndre" />
		<tag k="name" v="Søndre Dyre" />
		<tag k="place" v="farm" />
		<tag k="ssr:stedsnr" v="296764" />
	</node>
	<node changeset="66704001" id="6241620664" lat="59.4008556" lon="10.6520611" timestamp="2019-01-28T12:22:11Z" uid="633013" user="Honning" version="1">
		<tag k="alt_name" v="Feste søndre" />
		<tag k="name" v="Søndre Feste" />
		<tag k="place" v="farm" />
		<tag k="ssr:stedsnr" v="791492" />
	</node>
	<node changeset="66704001" id="1708240978" lat="59.4031611" lon="10.6727556" timestamp="2019-01-28T12:22:22Z" uid="633013" user="Honning" version="3">
		<tag k="name" v="Carlberg" />
		<tag k="place" v="farm" />
		<tag k="ssr:stedsnr" v="488481" />
	</node>
	<node changeset="66704001" id="4331247189" lat="59.3553741" lon="10.7540097" timestamp="2019-01-28T12:22:23Z" uid="633013" user="Honning" version="2">
		<tag k="alt_name" v="Rosnes nordre" />
		<tag k="name" v="Nordre Rosnes" />
		<tag k="place" v="farm" />
		<tag k="ssr:stedsnr" v="964242" />
	</node>
	<node changeset="66704001" id="4331247190" lat="59.3537056" lon="10.7481167" timestamp="2019-01-28T12:22:23Z" uid="633013" user="Honning" version="2">
		<tag k="alt_name" v="Rosnes vestre" />
		<tag k="name" v="Vestre Rosnes" />
		<tag k="place" v="farm" />
		<tag k="ssr:stedsnr" v="600217" />
	</node>
	<node changeset="66704001" id="4331247191" lat="59.3527111" lon="10.7485417" timestamp="2019-01-28T12:22:23Z" uid="633013" user="Honning" version="2">
		<tag k="alt_name" v="Rosnes østre" />
		<tag k="name" v="Østre Rosnes" />
		<tag k="place" v="farm" />
		<tag k="ssr:stedsnr" v="904222" />
	</node>
	<node changeset="66704001" id="4331247192" lat="59.3501333" lon="10.7511528" timestamp="2019-01-28T12:22:23Z" uid="633013" user="Honning" version="2">
		<tag k="alt_name" v="Rosnes søndre" />
		<tag k="name" v="Søndre Rosnes" />
		<tag k="place" v="farm" />
		<tag k="ssr:stedsnr" v="357213" />
	</node>
	<node changeset="66704001" id="4331247193" lat="59.3489611" lon="10.7354028" timestamp="2019-01-28T12:22:23Z" uid="633013" user="Honning" version="2">
		<tag k="alt_name" v="Kure vestre" />
		<tag k="name" v="Vestre Kure" />
		<tag k="place" v="farm" />
		<tag k="ssr:stedsnr" v="236060" />
	</node>
	<node changeset="66704001" id="4331247194" lat="59.3508833" lon="10.7367139" timestamp="2019-01-28T12:22:23Z" uid="633013" user="Honning" version="2">
		<tag k="alt_name" v="Kure søndre" />
		<tag k="name" v="Søndre Kure" />
		<tag k="place" v="farm" />
		<tag k="ssr:stedsnr" v="366502" />
	</node>
	<node changeset="66704001" id="4331247195" lat="59.353625" lon="10.7325417" timestamp="2019-01-28T12:22:23Z" uid="633013" user="Honning" version="2">
		<tag k="alt_name" v="Melleby" />
		<tag k="name" v="Mellemby" />
		<tag k="place" v="farm" />
		<tag k="ssr:stedsnr" v="427500" />
	</node>
	<node changeset="66704001" id="4331247196" lat="59.362325" lon="10.7334639" timestamp="2019-01-28T12:22:23Z" uid="633013" user="Honning" version="2">
		<tag k="alt_name" v="Kure nordre" />
		<tag k="name" v="Nedre Kure" />
		<tag k="place" v="farm" />
		<tag k="ssr:stedsnr" v="236314" />
	</node>
	<node changeset="66704001" id="4331247197" lat="59.3625444" lon="10.7312417" timestamp="2019-01-28T12:22:23Z" uid="633013" user="Honning" version="2">
		<tag k="name" v="Furuset" />
		<tag k="place" v="farm" />
		<tag k="ssr:stedsnr" v="236321" />
	</node>
	<node changeset="66704001" id="4331247199" lat="59.3674167" lon="10.7260861" timestamp="2019-01-28T12:22:23Z" uid="633013" user="Honning" version="2">
		<tag k="alt_name" v="Otterstad vestre" />
		<tag k="name" v="Vestre Otterstad" />
		<tag k="place" v="farm" />
		<tag k="ssr:stedsnr" v="297336" />
	</node>
	<node changeset="66704001" id="4331247200" lat="59.3686278" lon="10.7269917" timestamp="2019-01-28T12:22:23Z" uid="633013" user="Honning" version="2">
		<tag k="alt_name" v="Otterstad østre" />
		<tag k="name" v="Østre Otterstad" />
		<tag k="place" v="farm" />
		<tag k="ssr:stedsnr" v="236324" />
	</node>
	<node changeset="66704001" id="4331247201" lat="59.3728556" lon="10.7257639" timestamp="2019-01-28T12:22:23Z" uid="633013" user="Honning" version="2">
		<tag k="alt_name" v="Brua" />
		<tag k="name" v="Broen" />
		<tag k="place" v="farm" />
		<tag k="ssr:stedsnr" v="245269" />
	</node>
	<node changeset="66704001" id="4331247202" lat="59.3741056" lon="10.7256" timestamp="2019-01-28T12:22:23Z" uid="633013" user="Honning" version="2">
		<tag k="name" v="Knapstad" />
		<tag k="place" v="farm" />
		<tag k="ssr:stedsnr" v="115350" />
	</node>
	<node changeset="66704001" id="4331247203" lat="59.3722194" lon="10.7181639" timestamp="2019-01-28T12:22:23Z" uid="633013" user="Honning" version="2">
		<tag k="alt_name" v="Fløgstad søndre" />
		<tag k="name" v="Søndre Fløgstad" />
		<tag k="place" v="farm" />
		<tag k="ssr:stedsnr" v="53082" />
	</node>
	<node changeset="66704001" id="4331247204" lat="59.3758639" lon="10.723875" timestamp="2019-01-28T12:22:23Z" uid="633013" user="Honning" version="2">
		<tag k="name" v="Dyrhaug" />
		<tag k="place" v="farm" />
		<tag k="ssr:stedsnr" v="843327" />
	</node>
	<node changeset="66704001" id="4331247205" lat="59.375975" lon="10.7173694" timestamp="2019-01-28T12:22:23Z" uid="633013" user="Honning" version="2">
		<tag k="alt_name" v="Fløgstad nordre" />
		<tag k="name" v="Nordre Fløgstad" />
		<tag k="place" v="farm" />
		<tag k="ssr:stedsnr" v="478069" />
	</node>
	<node changeset="66704001" id="4331247206" lat="59.3795639" lon="10.720525" timestamp="2019-01-28T12:22:24Z" uid="633013" user="Honning" version="2">
		<tag k="name" v="Prestegården" />
		<tag k="place" v="farm" />
		<tag k="ssr:stedsnr" v="306278" />
	</node>
	<node changeset="66704001" id="6241620666" lat="59.3263" lon="10.6861417" timestamp="2019-01-28T12:22:11Z" uid="633013" user="Honning" version="1">
		<tag k="name" v="Nasle" />
		<tag k="place" v="farm" />
		<tag k="ssr:stedsnr" v="817894" />
	</node>
	<node changeset="66704001" id="2696240744" lat="59.4382833" lon="10.7411389" timestamp="2019-01-28T12:22:22Z" uid="633013" user="Honning" version="2">
		<tag k="name" v="Elverhøy" />
		<tag k="place" v="isolated_dwelling" />
		<tag k="ssr:stedsnr" v="660083" />
	</node>
	<node changeset="66704001" id="6241620668" lat="59.379825" lon="10.6776194" timestamp="2019-01-28T12:22:11Z" uid="633013" user="Honning" version="1">
		<tag k="alt_name" v="Hasle vestre" />
		<tag k="name" v="Vestre Hasle" />
		<tag k="place" v="farm" />
		<tag k="ssr:stedsnr" v="842066" />
	</node>
	<node changeset="66704001" id="4331247210" lat="59.3796222" lon="10.7056694" timestamp="2019-01-28T12:22:24Z" uid="633013" user="Honning" version="2">
		<tag k="name" v="Urstad" />
		<tag k="place" v="farm" />
		<tag k="ssr:stedsnr" v="599064" />
	</node>
	<node changeset="66704001" id="4331247211" lat="59.3730167" lon="10.6921917" timestamp="2019-01-28T12:22:24Z" uid="633013" user="Honning" version="2">
		<tag k="name" v="Balke" />
		<tag k="place" v="farm" />
		<tag k="ssr:stedsnr" v="245549" />
	</node>
	<node changeset="66704001" id="4331247212" lat="59.3702056" lon="10.6886889" timestamp="2019-01-28T12:22:24Z" uid="633013" user="Honning" version="2">
		<tag k="name" v="Sørliåsen" />
		<tag k="place" v="farm" />
		<tag k="ssr:stedsnr" v="114067" />
	</node>
	<node changeset="66704001" id="4331247213" lat="59.3827972" lon="10.7026972" timestamp="2019-01-28T12:22:24Z" uid="633013" user="Honning" version="2">
		<tag k="alt_name" v="Tøstad øvre" />
		<tag k="name" v="Øvre Tøstad" />
		<tag k="place" v="farm" />
		<tag k="ssr:stedsnr" v="478910" />
	</node>
	<node changeset="66704001" id="4331247214" lat="59.3841722" lon="10.7061111" timestamp="2019-01-28T12:22:24Z" uid="633013" user="Honning" version="2">
		<tag k="alt_name" v="Tøstad nedre" />
		<tag k="name" v="Nedre Tøstad" />
		<tag k="place" v="farm" />
		<tag k="ssr:stedsnr" v="235920" />
	</node>
	<node changeset="66704001" id="4331247215" lat="59.3860861" lon="10.6998861" timestamp="2019-01-28T12:22:24Z" uid="633013" user="Honning" version="2">
		<tag k="alt_name" v="Lyby søndre" />
		<tag k="name" v="Søndre Lyby" />
		<tag k="place" v="farm" />
		<tag k="ssr:stedsnr" v="852533" />
	</node>
	<node changeset="66704001" id="4331247216" lat="59.3874583" lon="10.7089333" timestamp="2019-01-28T12:22:24Z" uid="633013" user="Honning" version="2">
		<tag k="name" v="Solberg" />
		<tag k="place" v="farm" />
		<tag k="ssr:stedsnr" v="296913" />
	</node>
	<node changeset="66704001" id="4331247217" lat="59.3880972" lon="10.7129278" timestamp="2019-01-28T12:22:24Z" uid="633013" user="Honning" version="2">
		<tag k="name" v="Ringnes" />
		<tag k="place" v="farm" />
		<tag k="ssr:stedsnr" v="730584" />
	</node>
	<node changeset="66704001" id="4331247218" lat="59.3897083" lon="10.7174472" timestamp="2019-01-28T12:22:24Z" uid="633013" user="Honning" version="2">
		<tag k="name" v="Østereng" />
		<tag k="place" v="farm" />
		<tag k="ssr:stedsnr" v="427534" />
	</node>
	<node changeset="66704001" id="4331247219" lat="59.3863361" lon="10.7238445" timestamp="2019-01-28T12:22:24Z" uid="633013" user="Honning" version="2">
		<tag k="alt_name" v="Bjølsen søndre" />
		<tag k="name" v="Søndre Bjølsen" />
		<tag k="place" v="farm" />
		<tag k="ssr:stedsnr" v="730287;782653" />
	</node>
	<node changeset="66704001" id="4331247220" lat="59.3871333" lon="10.6994639" timestamp="2019-01-28T12:22:24Z" uid="633013" user="Honning" version="2">
		<tag k="alt_name" v="Lyby mellem" />
		<tag k="name" v="Mellom-Lyby" />
		<tag k="place" v="farm" />
		<tag k="ssr:stedsnr" v="356932" />
	</node>
	<node changeset="66704001" id="4331247221" lat="59.38805" lon="10.698975" timestamp="2019-01-28T12:22:24Z" uid="633013" user="Honning" version="2">
		<tag k="alt_name" v="Lyby nordre" />
		<tag k="name" v="Nordre Lyby" />
		<tag k="place" v="farm" />
		<tag k="ssr:stedsnr" v="184543" />
	</node>
	<node changeset="66704001" id="4331247222" lat="59.3896889" lon="10.7004195" timestamp="2019-01-28T12:22:24Z" uid="633013" user="Honning" version="2">
		<tag k="alt_name" v="Løken vestre" />
		<tag k="name" v="Vestre Løken" />
		<tag k="place" v="farm" />
		<tag k="ssr:stedsnr" v="913492" />
	</node>
	<node changeset="66704001" id="4331247223" lat="59.3907278" lon="10.7007" timestamp="2019-01-28T12:22:24Z" uid="633013" user="Honning" version="2">
		<tag k="alt_name" v="Løken østre" />
		<tag k="name" v="Østre Løken" />
		<tag k="place" v="farm" />
		<tag k="ssr:stedsnr" v="548535" />
	</node>
	<node changeset="66704001" id="4331247224" lat="59.3968056" lon="10.69195" timestamp="2019-01-28T12:22:25Z" uid="633013" user="Honning" version="2">
		<tag k="name" v="Fredheim" />
		<tag k="place" v="farm" />
		<tag k="ssr:stedsnr" v="488492" />
	</node>
	<node changeset="66704001" id="4331247225" lat="59.395" lon="10.6868389" timestamp="2019-01-28T12:22:25Z" uid="633013" user="Honning" version="2">
		<tag k="name" v="Grystad" />
		<tag k="place" v="farm" />
		<tag k="ssr:stedsnr" v="306491" />
	</node>
	<node changeset="66704001" id="4331247226" lat="59.3834833" lon="10.6718167" timestamp="2019-01-28T12:22:25Z" uid="633013" user="Honning" version="2">
		<tag k="alt_name" v="Bakke nordre" />
		<tag k="name" v="Nordre Bakke" />
		<tag k="place" v="farm" />
		<tag k="ssr:stedsnr" v="2556" />
	</node>
	<node changeset="66704001" id="4331247227" lat="59.3821222" lon="10.6715028" timestamp="2019-01-28T12:22:25Z" uid="633013" user="Honning" version="2">
		<tag k="alt_name" v="Bakke søndre" />
		<tag k="name" v="Søndre Bakke" />
		<tag k="place" v="farm" />
		<tag k="ssr:stedsnr" v="912571" />
	</node>
	<node changeset="66704001" id="4331247228" lat="59.39615" lon="10.6666806" timestamp="2019-01-28T12:22:25Z" uid="633013" user="Honning" version="2">
		<tag k="name" v="Oakhill" />
		<tag k="place" v="farm" />
		<tag k="ssr:stedsnr" v="599878" />
	</node>
	<node changeset="66704001" id="6235716714" lat="59.4112194" lon="10.7634139" timestamp="2019-01-28T12:22:26Z" uid="633013" user="Honning" version="2">
		<tag k="name" v="Nygård" />
		<tag k="place" v="farm" />
		<tag k="ssr:stedsnr" v="184319;852284" />
	</node>
	<node changeset="66704001" id="6241620672" lat="59.3398472" lon="10.6830694" timestamp="2019-01-28T12:22:11Z" uid="633013" user="Honning" version="1">
		<tag k="alt_name" v="Støtvik store" />
		<tag k="name" v="Store Støtvik" />
		<tag k="place" v="farm" />
		<tag k="ssr:stedsnr" v="842196" />
	</node>
	<node changeset="66704001" id="6241621697" lat="59.3349309" lon="10.6641423" timestamp="2019-01-28T12:22:13Z" uid="633013" user="Honning" version="1">
		<tag k="name" v="Drolshamar" />
		<tag k="place" v="isolated_dwelling" />
		<tag k="ssr:stedsnr" v="976110" />
	</node>
	<node changeset="66704001" id="6241620620" lat="59.3781139" lon="10.7645306" timestamp="2019-01-28T12:22:08Z" uid="633013" user="Honning" version="1">
		<tag k="name" v="Rygge hageby" />
		<tag k="place" v="neighbourhood" />
		<tag k="ssr:stedsnr" v="600282" />
	</node>
	<node changeset="66704001" id="6241620621" lat="59.3942944" lon="10.7319805" timestamp="2019-01-28T12:22:08Z" uid="633013" user="Honning" version="1">
		<tag k="building" v="civic" />
		<tag k="name" v="Rygge brannstasjon" />
		<tag k="ssr:stedsnr" v="600679" />
	</node>
	<node changeset="66704001" id="6241620622" lat="59.3937278" lon="10.7206083" timestamp="2019-01-28T12:22:09Z" uid="633013" user="Honning" version="1">
		<tag k="alt_name" v="Såstad østre" />
		<tag k="name" v="Østre Såstad" />
		<tag k="place" v="farm" />
		<tag k="ssr:stedsnr" v="600793" />
	</node>
	<node changeset="66704001" id="6241620623" lat="59.4056389" lon="10.7183583" timestamp="2019-01-28T12:22:09Z" uid="633013" user="Honning" version="1">
		<tag k="name" v="Vesleng" />
		<tag k="place" v="farm" />
		<tag k="ssr:stedsnr" v="600869" />
	</node>
	<node changeset="66706181" id="6241620625" lat="59.371075" lon="10.727375" timestamp="2019-01-28T13:30:31Z" uid="633013" user="Honning" version="2">
		<tag k="name" v="Otterstad" />
		<tag k="place" v="farm" />
		<tag k="ssr:stedsnr" v="609263" />
	</node>
	<node changeset="66704001" id="6241620626" lat="59.4030861" lon="10.707625" timestamp="2019-01-28T12:22:09Z" uid="633013" user="Honning" version="1">
		<tag k="name" v="Marienlund" />
		<tag k="place" v="farm" />
		<tag k="ssr:stedsnr" v="609475" />
	</node>
	<node changeset="66704001" id="6241620627" lat="59.4057889" lon="10.6675167" timestamp="2019-01-28T12:22:09Z" uid="633013" user="Honning" version="1">
		<tag k="fixme" v="consider place=hamlet" />
		<tag k="name" v="Dyre" />
		<tag k="place" v="farm" />
		<tag k="ssr:stedsnr" v="609477" />
	</node>
	<node changeset="66704001" id="6241620629" lat="59.4021222" lon="10.6597167" timestamp="2019-01-28T12:22:09Z" uid="633013" user="Honning" version="1">
		<tag k="name" v="Lille Baug" />
		<tag k="place" v="farm" />
		<tag k="ssr:stedsnr" v="659790" />
	</node>
	<node changeset="66704001" id="6241620630" lat="59.3952333" lon="10.7356556" timestamp="2019-01-28T12:22:09Z" uid="633013" user="Honning" version="1">
		<tag k="name" v="Pålebingen" />
		<tag k="place" v="neighbourhood" />
		<tag k="ssr:stedsnr" v="297792" />
	</node>
	<node changeset="66704001" id="6241620631" lat="59.3478731" lon="10.7094491" timestamp="2019-01-28T12:22:09Z" uid="633013" user="Honning" version="1">
		<tag k="name" v="Østli" />
		<tag k="place" v="farm" />
		<tag k="ssr:stedsnr" v="660183" />
	</node>
	<node changeset="66704001" id="6241620632" lat="59.3991194" lon="10.75685" timestamp="2019-01-28T12:22:09Z" uid="633013" user="Honning" version="1">
		<tag k="alt_name" v="Huggenes østre" />
		<tag k="name" v="Østre Huggenes" />
		<tag k="place" v="farm" />
		<tag k="ssr:stedsnr" v="660768" />
	</node>
	<node changeset="66704001" id="6241620633" lat="59.3987139" lon="10.7680667" timestamp="2019-01-28T12:22:09Z" uid="633013" user="Honning" version="1">
		<tag k="leisure" v="pitch" />
		<tag k="name" v="Tangenbakken" />
		<tag k="ssr:stedsnr" v="660770" />
	</node>
	<node changeset="66704001" id="6241620634" lat="59.3930556" lon="10.6726556" timestamp="2019-01-28T12:22:09Z" uid="633013" user="Honning" version="1">
		<tag k="alt_name" v="Værne kloster" />
		<tag k="name" v="Verne kloster" />
		<tag k="old_name" v="Værnekloster" />
		<tag k="place" v="farm" />
		<tag k="ssr:stedsnr" v="366540" />
	</node>
	<node changeset="66704001" id="6241620635" lat="59.4038528" lon="10.7213306" timestamp="2019-01-28T12:22:09Z" uid="633013" user="Honning" version="1">
		<tag k="name" v="Fiulstad" />
		<tag k="place" v="farm" />
		<tag k="ssr:stedsnr" v="669289" />
	</node>
	<node changeset="66704001" id="6241620637" lat="59.3690861" lon="10.6752611" timestamp="2019-01-28T12:22:09Z" uid="633013" user="Honning" version="1">
		<tag k="name" v="Evje" />
		<tag k="place" v="farm" />
		<tag k="ssr:stedsnr" v="669581" />
	</node>
	<node changeset="66704001" id="6241620638" lat="59.3894806" lon="10.7661056" timestamp="2019-01-28T12:22:09Z" uid="633013" user="Honning" version="1">
		<tag k="name" v="Sørli" />
		<tag k="place" v="farm" />
		<tag k="ssr:stedsnr" v="670285" />
	</node>
	<node changeset="66704001" id="6241620639" lat="59.3951472" lon="10.7628083" timestamp="2019-01-28T12:22:09Z" uid="633013" user="Honning" version="1">
		<tag k="name" v="Huseby" />
		<tag k="place" v="farm" />
		<tag k="ssr:stedsnr" v="670298" />
	</node>
	<node changeset="66704001" id="6241620641" lat="59.4111639" lon="10.6962972" timestamp="2019-01-28T12:22:10Z" uid="633013" user="Honning" version="1">
		<tag k="name" v="Heimdal" />
		<tag k="place" v="locality" />
		<tag k="ssr:stedsnr" v="720137" />
	</node>
	<node changeset="66704001" id="6241620642" lat="59.4077722" lon="10.6870722" timestamp="2019-01-28T12:22:10Z" uid="633013" user="Honning" version="1">
		<tag k="name" v="Bjerke" />
		<tag k="place" v="farm" />
		<tag k="ssr:stedsnr" v="720138" />
	</node>
	<node changeset="66704001" id="6241620643" lat="59.3626389" lon="10.7288889" timestamp="2019-01-28T12:22:10Z" uid="633013" user="Honning" version="1">
		<tag k="name" v="Kirkerød" />
		<tag k="place" v="farm" />
		<tag k="ssr:stedsnr" v="721322" />
	</node>
	<node changeset="66704001" id="6241620644" lat="59.3436278" lon="10.7211167" timestamp="2019-01-28T12:22:10Z" uid="633013" user="Honning" version="1">
		<tag k="name" v="Bjørndalen" />
		<tag k="place" v="locality" />
		<tag k="ssr:stedsnr" v="721036" />
	</node>
	<node changeset="66704001" id="6241620645" lat="59.3433111" lon="10.6777722" timestamp="2019-01-28T12:22:10Z" uid="633013" user="Honning" version="1">
		<tag k="name" v="Støtvikbråten" />
		<tag k="place" v="farm" />
		<tag k="ssr:stedsnr" v="721205" />
	</node>
	<node changeset="66704001" id="6241620646" lat="59.398725" lon="10.6669083" timestamp="2019-01-28T12:22:10Z" uid="633013" user="Honning" version="1">
		<tag k="alt_name" v="Baug" />
		<tag k="name" v="Bog" />
		<tag k="place" v="farm" />
		<tag k="ssr:stedsnr" v="366541" />
	</node>
	<node changeset="66704001" id="6241620647" lat="59.3916806" lon="10.7286944" timestamp="2019-01-28T12:22:10Z" uid="633013" user="Honning" version="1">
		<tag k="alt_name" v="Bjølsen nordre" />
		<tag k="name" v="Nordre Bjølsen" />
		<tag k="place" v="farm" />
		<tag k="ssr:stedsnr" v="721667" />
	</node>
	<node changeset="66704001" id="6241620648" lat="59.381875" lon="10.7526306" timestamp="2019-01-28T12:22:10Z" uid="633013" user="Honning" version="1">
		<tag k="name" v="Sandbekk" />
		<tag k="place" v="farm" />
		<tag k="ssr:stedsnr" v="721684" />
	</node>
	<node changeset="66704001" id="6241620650" lat="59.4029111" lon="10.7276278" timestamp="2019-01-28T12:22:10Z" uid="633013" user="Honning" version="1">
		<tag k="fixme" v="consider place=farm" />
		<tag k="name" v="Sivik" />
		<tag k="place" v="isolated_dwelling" />
		<tag k="ssr:stedsnr" v="721823" />
	</node>
	<node changeset="66704001" id="6241620679" lat="59.391625" lon="10.6619778" timestamp="2019-01-28T12:22:12Z" uid="633013" user="Honning" version="1">
		<tag k="name" v="Kollen" />
		<tag k="place" v="farm" />
		<tag k="ssr:stedsnr" v="271864" />
	</node>
	<node changeset="66704001" id="6241620652" lat="59.3421806" lon="10.6634674" timestamp="2019-01-28T12:22:10Z" uid="633013" user="Honning" version="1">
		<tag k="name" v="Sjøholt" />
		<tag k="place" v="farm" />
		<tag k="ssr:stedsnr" v="971508" />
	</node>
	<node changeset="66704001" id="6241620653" lat="59.3369083" lon="10.7090417" timestamp="2019-01-28T12:22:10Z" uid="633013" user="Honning" version="1">
		<tag k="name" v="Orefellen" />
		<tag k="place" v="farm" />
		<tag k="ssr:stedsnr" v="730646" />
	</node>
	<node changeset="66704001" id="6241620654" lat="59.4048861" lon="10.6890917" timestamp="2019-01-28T12:22:10Z" uid="633013" user="Honning" version="1">
		<tag k="name" v="Ekholdt" />
		<tag k="place" v="farm" />
		<tag k="ssr:stedsnr" v="731473" />
	</node>
	<node changeset="66704001" id="6241620655" lat="59.3900528" lon="10.6656194" timestamp="2019-01-28T12:22:10Z" uid="633013" user="Honning" version="1">
		<tag k="alt_name" v="Huseby østre" />
		<tag k="name" v="Østre Huseby" />
		<tag k="place" v="farm" />
		<tag k="ssr:stedsnr" v="731485" />
	</node>
	<node changeset="66704001" id="6241620656" lat="59.3769694" lon="10.7100972" timestamp="2019-01-28T12:22:10Z" uid="633013" user="Honning" version="1">
		<tag k="alt_name" v="Urstad søndre" />
		<tag k="name" v="Søndre Urstad" />
		<tag k="place" v="farm" />
		<tag k="ssr:stedsnr" v="781084" />
	</node>
	<node changeset="66704001" id="6241620657" lat="59.32355" lon="10.7027889" timestamp="2019-01-28T12:22:10Z" uid="633013" user="Honning" version="1">
		<tag k="name" v="Sarpemyr" />
		<tag k="place" v="farm" />
		<tag k="ssr:stedsnr" v="781407" />
	</node>
	<node changeset="66704001" id="6241620659" lat="59.3627722" lon="10.7477917" timestamp="2019-01-28T12:22:11Z" uid="633013" user="Honning" version="1">
		<tag k="alt_name" v="Søndre Roer;Ror søndre;Rør søndre" />
		<tag k="name" v="Søndre Ror" />
		<tag k="old_name" v="Roer, s" />
		<tag k="place" v="farm" />
		<tag k="ssr:stedsnr" v="782007" />
	</node>
	<node changeset="66704001" id="6241620660" lat="59.3892694" lon="10.7008361" timestamp="2019-01-28T12:22:11Z" uid="633013" user="Honning" version="1">
		<tag k="alt_name" v="Løken søndre" />
		<tag k="name" v="Søndre Løken" />
		<tag k="place" v="farm" />
		<tag k="ssr:stedsnr" v="330244" />
	</node>
	<node changeset="66704001" id="6241621685" lat="59.3916139" lon="10.6618444" timestamp="2019-01-28T12:22:12Z" uid="633013" user="Honning" version="1">
		<tag k="alt_name" v="Huseby vestre" />
		<tag k="name" v="Vestre Huseby" />
		<tag k="place" v="farm" />
		<tag k="ssr:stedsnr" v="852518" />
	</node>
	<node changeset="66704001" id="6241621686" lat="59.3949333" lon="10.664625" timestamp="2019-01-28T12:22:12Z" uid="633013" user="Honning" version="1">
		<tag k="alt_name" v="Huseby nordre" />
		<tag k="name" v="Nordre Huseby" />
		<tag k="place" v="farm" />
		<tag k="ssr:stedsnr" v="852517" />
	</node>
	<node changeset="66704001" id="6241621687" lat="59.3841056" lon="10.6597167" timestamp="2019-01-28T12:22:12Z" uid="633013" user="Honning" version="1">
		<tag k="building" v="industrial" />
		<tag k="industrial" v="factory" />
		<tag k="name" v="Fuglevik renseanlegg" />
		<tag k="ssr:stedsnr" v="296097" />
	</node>
	<node changeset="66704001" id="6241621688" lat="59.3767972" lon="10.7041028" timestamp="2019-01-28T12:22:12Z" uid="633013" user="Honning" version="1">
		<tag k="name" v="Navestad" />
		<tag k="place" v="farm" />
		<tag k="ssr:stedsnr" v="852544" />
	</node>
	<node changeset="66704001" id="6241621689" lat="59.3922583" lon="10.6871806" timestamp="2019-01-28T12:22:12Z" uid="633013" user="Honning" version="1">
		<tag k="name" v="Ek" />
		<tag k="place" v="farm" />
		<tag k="ssr:stedsnr" v="296886" />
	</node>
	<node changeset="66704001" id="6241621690" lat="59.3868222" lon="10.6900805" timestamp="2019-01-28T12:22:12Z" uid="633013" user="Honning" version="1">
		<tag k="name" v="Vesterås" />
		<tag k="place" v="farm" />
		<tag k="ssr:stedsnr" v="296930" />
	</node>
	<node changeset="66704001" id="6241620667" lat="59.3746361" lon="10.6563667" timestamp="2019-01-28T12:22:11Z" uid="633013" user="Honning" version="1">
		<tag k="name" v="Årefjord" />
		<tag k="place" v="farm" />
		<tag k="ssr:stedsnr" v="842009" />
	</node>
	<node changeset="66704001" id="6241621692" lat="59.3299694" lon="10.6822639" timestamp="2019-01-28T12:22:12Z" uid="633013" user="Honning" version="1">
		<tag k="name" v="Løvmo" />
		<tag k="place" v="farm" />
		<tag k="ssr:stedsnr" v="902440" />
	</node>
	<node changeset="66704001" id="6241620669" lat="59.3818194" lon="10.6611833" timestamp="2019-01-28T12:22:11Z" uid="633013" user="Honning" version="1">
		<tag k="name" v="Gunnarsby" />
		<tag k="place" v="farm" />
		<tag k="ssr:stedsnr" v="730599" />
	</node>
	<node changeset="66704001" id="6241620670" lat="59.3880806" lon="10.6594" timestamp="2019-01-28T12:22:11Z" uid="633013" user="Honning" version="1">
		<tag k="name" v="Storeng" />
		<tag k="place" v="farm" />
		<tag k="ssr:stedsnr" v="842114" />
	</node>
	<node changeset="66704001" id="6241620671" lat="59.3910444" lon="10.6557222" timestamp="2019-01-28T12:22:11Z" uid="633013" user="Honning" version="1">
		<tag k="name" v="Kollen" />
		<tag k="place" v="farm" />
		<tag k="ssr:stedsnr" v="842116" />
	</node>
	<node changeset="66706181" id="6241621696" lat="59.3580611" lon="10.6628778" timestamp="2019-01-28T13:30:32Z" uid="633013" user="Honning" version="2">
		<tag k="alt_name" v="Tangen øvre" />
		<tag k="name" v="Øvre Tangen" />
		<tag k="place" v="farm" />
		<tag k="ssr:stedsnr" v="903020" />
	</node>
	<node changeset="66704001" id="6241620673" lat="59.3762444" lon="10.7465306" timestamp="2019-01-28T12:22:11Z" uid="633013" user="Honning" version="1">
		<tag k="alt_name" v="Rør søndre" />
		<tag k="name" v="Søndre Rør" />
		<tag k="place" v="farm" />
		<tag k="ssr:stedsnr" v="842273" />
	</node>
	<node changeset="66704001" id="6241620674" lat="59.3347222" lon="10.7124194" timestamp="2019-01-28T12:22:11Z" uid="633013" user="Honning" version="1">
		<tag k="name" v="Orefellen" />
		<tag k="place" v="farm" />
		<tag k="ssr:stedsnr" v="842388" />
	</node>
	<node changeset="66704001" id="6241620675" lat="59.4048056" lon="10.6535417" timestamp="2019-01-28T12:22:12Z" uid="633013" user="Honning" version="1">
		<tag k="name" v="Festelandet" />
		<tag k="place" v="locality" />
		<tag k="ssr:stedsnr" v="842772" />
	</node>
	<node changeset="66704001" id="6241620676" lat="59.4133889" lon="10.6868583" timestamp="2019-01-28T12:22:12Z" uid="633013" user="Honning" version="1">
		<tag k="name" v="Bråten" />
		<tag k="place" v="farm" />
		<tag k="ssr:stedsnr" v="843096" />
	</node>
	<node changeset="66704001" id="6241620677" lat="59.3781278" lon="10.7541083" timestamp="2019-01-28T12:22:12Z" uid="633013" user="Honning" version="1">
		<tag k="name" v="Vårli" />
		<tag k="place" v="farm" />
		<tag k="ssr:stedsnr" v="843272" />
	</node>
	<node changeset="66704001" id="6241620678" lat="59.3625694" lon="10.7582861" timestamp="2019-01-28T12:22:12Z" uid="633013" user="Honning" version="1">
		<tag k="alt_name" v="Ror østre;Østre Roer" />
		<tag k="name" v="Østre Ror" />
		<tag k="place" v="farm" />
		<tag k="ssr:stedsnr" v="843333" />
	</node>
	<node changeset="66704467" id="6241621703" lat="59.3864472" lon="10.7242722" timestamp="2019-01-28T12:36:56Z" uid="633013" user="Honning" version="2">
		<tag k="alt_name" v="Bjølsund" />
		<tag k="name" v="Bjølsen" />
		<tag k="place" v="farm" />
		<tag k="ssr:stedsnr" v="306286" />
	</node>
	<node changeset="66704001" id="6241621704" lat="59.4018389" lon="10.7012195" timestamp="2019-01-28T12:22:13Z" uid="633013" user="Honning" version="1">
		<tag k="alt_name" v="Dilling nordre" />
		<tag k="name" v="Nordre Dilling" />
		<tag k="place" v="farm" />
		<tag k="ssr:stedsnr" v="356882" />
	</node>
	<node changeset="66704001" id="6241621705" lat="59.3704139" lon="10.7680361" timestamp="2019-01-28T12:22:13Z" uid="633013" user="Honning" version="1">
		<tag k="name" v="Eskelund" />
		<tag k="place" v="farm" />
		<tag k="ssr:stedsnr" v="904281" />
	</node>
	<node changeset="66704001" id="6241620682" lat="59.3660861" lon="10.749525" timestamp="2019-01-28T12:22:12Z" uid="633013" user="Honning" version="1">
		<tag k="alt_name" v="Ror nordre" />
		<tag k="name" v="Nordre Ror" />
		<tag k="place" v="farm" />
		<tag k="ssr:stedsnr" v="852286" />
	</node>
	<node changeset="66704001" id="6241621707" lat="59.3913194" lon="10.7616222" timestamp="2019-01-28T12:22:13Z" uid="633013" user="Honning" version="1">
		<tag k="name" v="Solheim" />
		<tag k="place" v="farm" />
		<tag k="ssr:stedsnr" v="904787" />
	</node>
	<node changeset="66704001" id="6241620684" lat="59.33705" lon="10.7270694" timestamp="2019-01-28T12:22:12Z" uid="633013" user="Honning" version="1">
		<tag k="name" v="Holm" />
		<tag k="place" v="farm" />
		<tag k="ssr:stedsnr" v="852462" />
	</node>
	<node changeset="66704001" id="6241621709" lat="59.3985889" lon="10.7553778" timestamp="2019-01-28T12:22:13Z" uid="633013" user="Honning" version="1">
		<tag k="alt_name" v="Huggenes mellem" />
		<tag k="name" v="Mellom-Huggenes" />
		<tag k="place" v="farm" />
		<tag k="ssr:stedsnr" v="904806" />
	</node>
	<node changeset="66706181" id="6241621710" lat="59.32995" lon="10.6543139" timestamp="2019-01-28T13:30:32Z" uid="633013" user="Honning" version="2">
		<tag k="name" v="Kollen" />
		<tag k="place" v="farm" />
		<tag k="ssr:stedsnr" v="356102" />
	</node>
	<node changeset="66704001" id="6241621712" lat="59.3387" lon="10.6849445" timestamp="2019-01-28T12:22:14Z" uid="633013" user="Honning" version="1">
		<tag k="alt_name" v="Støtvik mellem" />
		<tag k="name" v="Mellom-Støtvik" />
		<tag k="place" v="farm" />
		<tag k="ssr:stedsnr" v="356212" />
	</node>
	<node changeset="66704001" id="6241621713" lat="59.4149528" lon="10.6672" timestamp="2019-01-28T12:22:14Z" uid="633013" user="Honning" version="1">
		<tag k="name" v="Kallum" />
		<tag k="place" v="farm" />
		<tag k="ssr:stedsnr" v="913976" />
	</node>
	<node changeset="66704001" id="6241621714" lat="59.3710639" lon="10.7629833" timestamp="2019-01-28T12:22:14Z" uid="633013" user="Honning" version="1">
		<tag k="name" v="Gon" />
		<tag k="place" v="farm" />
		<tag k="ssr:stedsnr" v="913273" />
	</node>
	<node changeset="66706181" id="6241621715" lat="59.3293167" lon="10.7132306" timestamp="2019-01-28T13:30:32Z" uid="633013" user="Honning" version="2">
		<tag k="name" v="Sildebogen" />
		<tag k="place" v="hamlet" />
		<tag k="ssr:stedsnr" v="913578" />
	</node>
	<node changeset="66704001" id="6241621716" lat="59.4006306" lon="10.6913833" timestamp="2019-01-28T12:22:14Z" uid="633013" user="Honning" version="1">
		<tag k="name" v="Nymark" />
		<tag k="place" v="farm" />
		<tag k="ssr:stedsnr" v="356885" />
	</node>
	<node changeset="66704001" id="6241621717" lat="59.4060278" lon="10.6670417" timestamp="2019-01-28T12:22:14Z" uid="633013" user="Honning" version="1">
		<tag k="alt_name" v="Dyre søndre" />
		<tag k="name" v="Søndre Dyre" />
		<tag k="place" v="farm" />
		<tag k="ssr:stedsnr" v="356899" />
	</node>
	<node changeset="66704001" id="6241621718" lat="59.3744083" lon="10.6693972" timestamp="2019-01-28T12:22:14Z" uid="633013" user="Honning" version="1">
		<tag k="name" v="Villskog" />
		<tag k="place" v="farm" />
		<tag k="ssr:stedsnr" v="935851" />
	</node>
	<node changeset="66704001" id="6241621719" lat="59.3923889" lon="10.799875" timestamp="2019-01-28T12:22:14Z" uid="633013" user="Honning" version="1">
		<tag k="name" v="Bjerkebakke" />
		<tag k="place" v="locality" />
		<tag k="ssr:stedsnr" v="357708" />
	</node>
	<node changeset="66704001" id="6241621720" lat="59.3766111" lon="10.6636083" timestamp="2019-01-28T12:22:14Z" uid="633013" user="Honning" version="1">
		<tag k="name" v="Villskog" />
		<tag k="place" v="farm" />
		<tag k="ssr:stedsnr" v="963070" />
	</node>
	<node changeset="66704001" id="6241621721" lat="59.4071389" lon="10.7224528" timestamp="2019-01-28T12:22:14Z" uid="633013" user="Honning" version="1">
		<tag k="fixme" v="consider place=farm" />
		<tag k="name" v="Enerli" />
		<tag k="place" v="isolated_dwelling" />
		<tag k="ssr:stedsnr" v="357867" />
	</node>
	<node changeset="66704001" id="6241621722" lat="59.4101944" lon="10.689975" timestamp="2019-01-28T12:22:14Z" uid="633013" user="Honning" version="1">
		<tag k="alt_name" v="Breidsand" />
		<tag k="name" v="Bredsand" />
		<tag k="place" v="neighbourhood" />
		<tag k="ssr:stedsnr" v="963117" />
	</node>
	<node changeset="66704001" id="6241621723" lat="59.4008361" lon="10.7890694" timestamp="2019-01-28T12:22:14Z" uid="633013" user="Honning" version="1">
		<tag k="name" v="Fjell" />
		<tag k="place" v="farm" />
		<tag k="ssr:stedsnr" v="366308" />
	</node>
	<node changeset="66704001" id="6241621724" lat="59.4075861" lon="10.7136833" timestamp="2019-01-28T12:22:14Z" uid="633013" user="Honning" version="1">
		<tag k="name" v="Dramstad" />
		<tag k="place" v="farm" />
		<tag k="ssr:stedsnr" v="366522" />
	</node>
	<node changeset="66704001" id="6241621725" lat="59.3279056" lon="10.682125" timestamp="2019-01-28T12:22:14Z" uid="633013" user="Honning" version="1">
		<tag k="name" v="Roth" />
		<tag k="place" v="farm" />
		<tag k="ssr:stedsnr" v="963448" />
	</node>
	<node changeset="66704001" id="6241621726" lat="59.3356444" lon="10.6887139" timestamp="2019-01-28T12:22:14Z" uid="633013" user="Honning" version="1">
		<tag k="alt_name" v="Støtvik søndre" />
		<tag k="name" v="Søndre Støtvik" />
		<tag k="place" v="farm" />
		<tag k="ssr:stedsnr" v="963472" />
	</node>
	<node changeset="66704001" id="6241621727" lat="59.3319556" lon="10.666875" timestamp="2019-01-28T12:22:14Z" uid="633013" user="Honning" version="1">
		<tag k="name" v="Larkollen" />
		<tag k="place" v="village" />
		<tag k="ssr:stedsnr" v="366612" />
	</node>
	<node changeset="66704001" id="6241621728" lat="59.3797639" lon="10.6782861" timestamp="2019-01-28T12:22:15Z" uid="633013" user="Honning" version="1">
		<tag k="alt_name" v="Hasle østre" />
		<tag k="name" v="Østre Hasle" />
		<tag k="place" v="farm" />
		<tag k="ssr:stedsnr" v="963942" />
	</node>
	<node changeset="66704001" id="6241621693" lat="59.3592417" lon="10.7221695" timestamp="2019-01-28T12:22:12Z" uid="633013" user="Honning" version="1">
		<tag k="name" v="Skogen" />
		<tag k="place" v="farm" />
		<tag k="ssr:stedsnr" v="297314" />
	</node>
	<node changeset="66704001" id="6241621730" lat="59.3890694" lon="10.7567167" timestamp="2019-01-28T12:22:15Z" uid="633013" user="Honning" version="1">
		<tag k="name" v="Sande" />
		<tag k="place" v="farm" />
		<tag k="ssr:stedsnr" v="964678" />
	</node>
	<node changeset="66704001" id="6241621731" lat="59.393675" lon="10.8062306" timestamp="2019-01-28T12:22:15Z" uid="633013" user="Honning" version="1">
		<tag k="alt_name" v="Køia" />
		<tag k="name" v="Nordli" />
		<tag k="place" v="locality" />
		<tag k="ssr:stedsnr" v="964701" />
	</node>
	<node changeset="66704001" id="6241621732" lat="59.3916944" lon="10.7671722" timestamp="2019-01-28T12:22:15Z" uid="633013" user="Honning" version="1">
		<tag k="name" v="Sandbekk" />
		<tag k="place" v="farm" />
		<tag k="ssr:stedsnr" v="964762" />
	</node>
	<node changeset="66770418" id="5421251301" lat="59.3765972" lon="10.7271167" timestamp="2019-01-30T13:24:41Z" uid="633013" user="Honning" version="2">
		<tag k="name" v="Kirkegrenda" />
		<tag k="place" v="hamlet" />
		<tag k="population" v="349" />
		<tag k="population:date" v="2017-01-01" />
		<tag k="ssr:stedsnr" v="570101" />
	</node>
	<node changeset="66704001" id="6241621734" lat="59.3429767" lon="10.6615113" timestamp="2019-01-28T12:22:15Z" uid="633013" user="Honning" version="1">
		<tag k="name" v="Finnland" />
		<tag k="place" v="farm" />
		<tag k="ssr:stedsnr" v="971510" />
	</node>
	<node changeset="66704001" id="6241621735" lat="59.349731" lon="10.6948727" timestamp="2019-01-28T12:22:15Z" uid="633013" user="Honning" version="1">
		<tag k="name" v="Sundby" />
		<tag k="place" v="farm" />
		<tag k="ssr:stedsnr" v="978125" />
	</node>
	<node changeset="66704001" id="6241621736" lat="59.366575" lon="10.76555" timestamp="2019-01-28T12:22:15Z" uid="633013" user="Honning" version="1">
		<tag k="alt_name" v="Eskelund nedre" />
		<tag k="name" v="Nedre Eskelund" />
		<tag k="place" v="farm" />
		<tag k="ssr:stedsnr" v="478274" />
	</node>
	<node changeset="66704001" id="4331247208" lat="59.3819778" lon="10.7070556" timestamp="2019-01-28T12:22:24Z" uid="633013" user="Honning" version="2">
		<tag k="alt_name" v="Urstad nordre" />
		<tag k="name" v="Nordre Urstad" />
		<tag k="place" v="farm" />
		<tag k="ssr:stedsnr" v="114926" />
	</node>
	<node changeset="66704001" id="6241621738" lat="59.3806111" lon="10.7451722" timestamp="2019-01-28T12:22:15Z" uid="633013" user="Honning" version="1">
		<tag k="amenity" v="sports_centre" />
		<tag k="name" v="Ryggehallen" />
		<tag k="ssr:stedsnr" v="478719" />
	</node>
	<node changeset="66704001" id="6241621739" lat="59.391425" lon="10.7883083" timestamp="2019-01-28T12:22:15Z" uid="633013" user="Honning" version="1">
		<tag k="name" v="Sandli" />
		<tag k="place" v="farm" />
		<tag k="ssr:stedsnr" v="478728" />
	</node>
	<node changeset="66704001" id="6241621740" lat="59.382125" lon="10.7931361" timestamp="2019-01-28T12:22:15Z" uid="633013" user="Honning" version="1">
		<tag k="alt_name" v="Søgård østre" />
		<tag k="name" v="Østre Søgård" />
		<tag k="place" v="farm" />
		<tag k="ssr:stedsnr" v="478739" />
	</node>
	<node changeset="66704001" id="6241621741" lat="59.3677861" lon="10.7568083" timestamp="2019-01-28T12:22:15Z" uid="633013" user="Honning" version="1">
		<tag k="name" v="Kroken" />
		<tag k="place" v="farm" />
		<tag k="ssr:stedsnr" v="2297" />
	</node>
	<node changeset="66704001" id="6241621742" lat="59.3652667" lon="10.7496583" timestamp="2019-01-28T12:22:15Z" uid="633013" user="Honning" version="1">
		<tag k="alt_name" v="Ror midtre" />
		<tag k="name" v="Midtre Ror" />
		<tag k="place" v="farm" />
		<tag k="ssr:stedsnr" v="2299" />
	</node>
	<node changeset="66704001" id="6241621743" lat="59.3413917" lon="10.7250833" timestamp="2019-01-28T12:22:15Z" uid="633013" user="Honning" version="1">
		<tag k="name" v="Mellegård" />
		<tag k="place" v="farm" />
		<tag k="ssr:stedsnr" v="2503" />
	</node>
	<node changeset="66704001" id="6241621744" lat="59.4140778" lon="10.6981861" timestamp="2019-01-28T12:22:15Z" uid="633013" user="Honning" version="1">
		<tag k="name" v="Årvoll" />
		<tag k="place" v="farm" />
		<tag k="ssr:stedsnr" v="2968" />
	</node>
	<node changeset="66704001" id="6241621745" lat="59.4097111" lon="10.654925" timestamp="2019-01-28T12:22:15Z" uid="633013" user="Honning" version="1">
		<tag k="alt_name" v="Feste nordre" />
		<tag k="name" v="Nordre Feste" />
		<tag k="place" v="farm" />
		<tag k="ssr:stedsnr" v="2972" />
	</node>
	<node changeset="66704001" id="6241621746" lat="59.3510222" lon="10.6614417" timestamp="2019-01-28T12:22:16Z" uid="633013" user="Honning" version="1">
		<tag k="alt_name" v="Botnermyra" />
		<tag k="name" v="Botnemyr" />
		<tag k="place" v="farm" />
		<tag k="ssr:stedsnr" v="477442" />
	</node>
	<node changeset="66706181" id="6241621747" lat="59.3578" lon="10.6631278" timestamp="2019-01-28T13:30:32Z" uid="633013" user="Honning" version="2">
		<tag k="alt_name" v="Tangen nedre" />
		<tag k="name" v="Nedre Tangen" />
		<tag k="place" v="farm" />
		<tag k="ssr:stedsnr" v="53020" />
	</node>
	<node changeset="66704001" id="6241621748" lat="59.3443417" lon="10.7153139" timestamp="2019-01-28T12:22:16Z" uid="633013" user="Honning" version="1">
		<tag k="alt_name" v="Kubberød østre" />
		<tag k="name" v="Østre Kubberød" />
		<tag k="place" v="farm" />
		<tag k="ssr:stedsnr" v="53204" />
	</node>
	<node changeset="66704001" id="6241621749" lat="59.3317028" lon="10.6690583" timestamp="2019-01-28T12:22:16Z" uid="633013" user="Honning" version="1">
		<tag k="name" v="Solheim" />
		<tag k="place" v="farm" />
		<tag k="ssr:stedsnr" v="53420" />
	</node>
	<node changeset="66704001" id="6241621750" lat="59.4082083" lon="10.6984389" timestamp="2019-01-28T12:22:16Z" uid="633013" user="Honning" version="1">
		<tag k="alt_name" v="Dilling søndre" />
		<tag k="name" v="Søndre Dilling" />
		<tag k="place" v="farm" />
		<tag k="ssr:stedsnr" v="53934" />
	</node>
	<node changeset="66704001" id="6241621751" lat="59.3387056" lon="10.7189861" timestamp="2019-01-28T12:22:16Z" uid="633013" user="Honning" version="1">
		<tag k="name" v="Skogli" />
		<tag k="place" v="farm" />
		<tag k="ssr:stedsnr" v="54017" />
	</node>
	<node changeset="66704001" id="5392168184" lat="59.3501528" lon="10.712475" timestamp="2019-01-28T12:22:26Z" uid="633013" user="Honning" version="2">
		<tag k="alt_name" v="Nærum søndre" />
		<tag k="name" v="Søndre Nærum" />
		<tag k="place" v="farm" />
		<tag k="ssr:stedsnr" v="963252" />
	</node>
	<node changeset="66704001" id="6241621753" lat="59.3874694" lon="10.7845417" timestamp="2019-01-28T12:22:16Z" uid="633013" user="Honning" version="1">
		<tag k="alt_name" v="Fredskjær vestre" />
		<tag k="name" v="Vestre Fredskjær" />
		<tag k="place" v="farm" />
		<tag k="ssr:stedsnr" v="54730" />
	</node>
	<node changeset="66704001" id="6241621754" lat="59.3758639" lon="10.750575" timestamp="2019-01-28T12:22:16Z" uid="633013" user="Honning" version="1">
		<tag k="name" v="Gate" />
		<tag k="place" v="farm" />
		<tag k="ssr:stedsnr" v="63306" />
	</node>
	<node changeset="66704001" id="6241621755" lat="59.3981306" lon="10.6522806" timestamp="2019-01-28T12:22:16Z" uid="633013" user="Honning" version="1">
		<tag k="name" v="Strandbakken" />
		<tag k="place" v="farm" />
		<tag k="ssr:stedsnr" v="63539" />
	</node>
	<node changeset="66704001" id="6241621756" lat="59.3350583" lon="10.7157417" timestamp="2019-01-28T12:22:16Z" uid="633013" user="Honning" version="1">
		<tag k="name" v="Hallingsås" />
		<tag k="place" v="farm" />
		<tag k="ssr:stedsnr" v="63615" />
	</node>
	<node changeset="66704001" id="6241621757" lat="59.3263333" lon="10.6953528" timestamp="2019-01-28T12:22:16Z" uid="633013" user="Honning" version="1">
		<tag k="name" v="Tollefsrød" />
		<tag k="place" v="farm" />
		<tag k="ssr:stedsnr" v="63618" />
	</node>
	<node changeset="66704001" id="6241621758" lat="59.4161167" lon="10.68775" timestamp="2019-01-28T12:22:16Z" uid="633013" user="Honning" version="1">
		<tag k="name" v="Kvaen" />
		<tag k="place" v="farm" />
		<tag k="ssr:stedsnr" v="63974" />
	</node>
	<node changeset="66704001" id="6241621694" lat="59.3545333" lon="10.6599944" timestamp="2019-01-28T12:22:13Z" uid="633013" user="Honning" version="1">
		<tag k="name" v="Holmen" />
		<tag k="place" v="farm" />
		<tag k="ssr:stedsnr" v="902474" />
	</node>
	<node changeset="66704467" id="6241621760" lat="59.3781083" lon="10.6658111" timestamp="2019-01-28T12:36:56Z" uid="633013" user="Honning" version="2">
		<tag k="name" v="Årefjorden" />
		<tag k="place" v="isolated_dwelling" />
		<tag k="ssr:stedsnr" v="114055" />
	</node>
	<node changeset="66704001" id="6241621761" lat="59.3931167" lon="10.6511389" timestamp="2019-01-28T12:22:16Z" uid="633013" user="Honning" version="1">
		<tag k="alt_name" v="Fuglevik nordre" />
		<tag k="name" v="Nordre Fuglevik" />
		<tag k="place" v="hamlet" />
		<tag k="ssr:stedsnr" v="114102" />
	</node>
	<node changeset="66704001" id="6241621763" lat="59.3371028" lon="10.7267639" timestamp="2019-01-28T12:22:17Z" uid="633013" user="Honning" version="1">
		<tag k="name" v="Holm" />
		<tag k="place" v="farm" />
		<tag k="ssr:stedsnr" v="115011" />
	</node>
	<node changeset="66704001" id="6241621764" lat="59.3216639" lon="10.7000778" timestamp="2019-01-28T12:22:17Z" uid="633013" user="Honning" version="1">
		<tag k="alt_name" v="Salbohuset" />
		<tag k="name" v="Salbuhuset" />
		<tag k="place" v="farm" />
		<tag k="ssr:stedsnr" v="366619" />
	</node>
	<node changeset="66704001" id="6241621765" lat="59.3899583" lon="10.7746722" timestamp="2019-01-28T12:22:17Z" uid="633013" user="Honning" version="1">
		<tag k="alt_name" v="Utne nordre" />
		<tag k="name" v="Nordre Utne" />
		<tag k="place" v="farm" />
		<tag k="ssr:stedsnr" v="115687" />
	</node>
	<node changeset="66704001" id="6241621766" lat="59.3847417" lon="10.7948917" timestamp="2019-01-28T12:22:17Z" uid="633013" user="Honning" version="1">
		<tag k="name" v="Brekka" />
		<tag k="place" v="farm" />
		<tag k="ssr:stedsnr" v="115700" />
	</node>
	<node changeset="66704001" id="6241621767" lat="59.3937944" lon="10.7625805" timestamp="2019-01-28T12:22:17Z" uid="633013" user="Honning" version="1">
		<tag k="name" v="Sørby" />
		<tag k="place" v="farm" />
		<tag k="ssr:stedsnr" v="115783" />
	</node>
	<node changeset="66704001" id="6241621768" lat="59.3721389" lon="10.7793833" timestamp="2019-01-28T12:22:17Z" uid="633013" user="Honning" version="1">
		<tag k="building" v="industrial" />
		<tag k="industrial" v="factory" />
		<tag k="name" v="Utne sag" />
		<tag k="ssr:stedsnr" v="123313" />
	</node>
	<node changeset="66704001" id="6241621769" lat="59.3871944" lon="10.7326694" timestamp="2019-01-28T12:22:17Z" uid="633013" user="Honning" version="1">
		<tag k="alt_name" v="Gipsen" />
		<tag k="name" v="Gipsund" />
		<tag k="place" v="farm" />
		<tag k="ssr:stedsnr" v="123318" />
	</node>
	<node changeset="66704001" id="6241621771" lat="59.3901861" lon="10.7561556" timestamp="2019-01-28T12:22:17Z" uid="633013" user="Honning" version="1">
		<tag k="name" v="Nore" />
		<tag k="place" v="farm" />
		<tag k="ssr:stedsnr" v="123328" />
	</node>
	<node changeset="66704001" id="6241621772" lat="59.3429444" lon="10.7231028" timestamp="2019-01-28T12:22:17Z" uid="633013" user="Honning" version="1">
		<tag k="name" v="Kuremyra" />
		<tag k="place" v="farm" />
		<tag k="ssr:stedsnr" v="123526" />
	</node>
	<node changeset="66704001" id="6241621773" lat="59.3451917" lon="10.7141083" timestamp="2019-01-28T12:22:17Z" uid="633013" user="Honning" version="1">
		<tag k="alt_name" v="Kubberød vestre" />
		<tag k="name" v="Vestre Kubberød" />
		<tag k="place" v="farm" />
		<tag k="ssr:stedsnr" v="174230" />
	</node>
	<node changeset="66704001" id="4331246350" lat="59.4071833" lon="10.6615833" timestamp="2019-01-28T12:22:22Z" uid="633013" user="Honning" version="2">
		<tag k="alt_name" v="Dyre nordre" />
		<tag k="name" v="Nordre Dyre" />
		<tag k="place" v="farm" />
		<tag k="ssr:stedsnr" v="53804" />
	</node>
	<node changeset="74587755" id="6241621775" lat="59.3288584" lon="10.6682256" timestamp="2019-09-17T15:18:45Z" uid="3497659" user="NKA" version="2">
		<tag k="building" v="hotel" />
		<tag k="name" v="Støtvig Hotel" />
		<tag k="ssr:stedsnr" v="174472" />
		<tag k="tourism" v="hotel" />
	</node>
	<node changeset="66704001" id="6241621776" lat="59.3991694" lon="10.6925083" timestamp="2019-01-28T12:22:17Z" uid="633013" user="Honning" version="1">
		<tag k="loc_name" v="Nøysom" />
		<tag k="name" v="Nøisom" />
		<tag k="place" v="farm" />
		<tag k="ssr:stedsnr" v="174907" />
	</node>
	<node changeset="66704001" id="6241621777" lat="59.4139611" lon="10.6680833" timestamp="2019-01-28T12:22:18Z" uid="633013" user="Honning" version="1">
		<tag k="name" v="Dyre" />
		<tag k="place" v="neighbourhood" />
		<tag k="ssr:stedsnr" v="175005" />
	</node>
	<node changeset="66704001" id="6241621778" lat="59.415175" lon="10.6827528" timestamp="2019-01-28T12:22:18Z" uid="633013" user="Honning" version="1">
		<tag k="landuse" v="industrial" />
		<tag k="name" v="Fredensborg" />
		<tag k="ssr:stedsnr" v="175017" />
	</node>
	<node changeset="66704001" id="6241621779" lat="59.4229194" lon="10.7048528" timestamp="2019-01-28T12:22:18Z" uid="633013" user="Honning" version="1">
		<tag k="alt_name" v="Lillebog" />
		<tag k="name" v="Lillebaug" />
		<tag k="place" v="farm" />
		<tag k="ssr:stedsnr" v="175046" />
	</node>
	<node changeset="66704001" id="6241621780" lat="59.3756306" lon="10.7647" timestamp="2019-01-28T12:22:18Z" uid="633013" user="Honning" version="1">
		<tag k="name" v="Blomsholm" />
		<tag k="place" v="farm" />
		<tag k="ssr:stedsnr" v="175279" />
	</node>
	<node changeset="66704001" id="6241621781" lat="59.3778167" lon="10.7444472" timestamp="2019-01-28T12:22:18Z" uid="633013" user="Honning" version="1">
		<tag k="alt_name" v="Rør nordre" />
		<tag k="name" v="Nordre Rør" />
		<tag k="place" v="farm" />
		<tag k="ssr:stedsnr" v="175290" />
	</node>
	<node changeset="66704001" id="6241621782" lat="59.3655306" lon="10.7491639" timestamp="2019-01-28T12:22:18Z" uid="633013" user="Honning" version="1">
		<tag k="alt_name" v="Ror nordre;Nordre Roer" />
		<tag k="name" v="Nordre Ror" />
		<tag k="old_name" v="Roer, n" />
		<tag k="place" v="farm" />
		<tag k="ssr:stedsnr" v="175345" />
	</node>
	<node changeset="66704001" id="6241621783" lat="59.3918917" lon="10.7704417" timestamp="2019-01-28T12:22:18Z" uid="633013" user="Honning" version="1">
		<tag k="name" v="Skauge" />
		<tag k="place" v="farm" />
		<tag k="ssr:stedsnr" v="175787" />
	</node>
	<node changeset="66704001" id="6241621784" lat="59.3950944" lon="10.7509" timestamp="2019-01-28T12:22:18Z" uid="633013" user="Honning" version="1">
		<tag k="fixme" v="consider place=farm" />
		<tag k="name" v="Solstad" />
		<tag k="place" v="isolated_dwelling" />
		<tag k="ssr:stedsnr" v="175797" />
	</node>
	<node changeset="66704001" id="6241621785" lat="59.3893417" lon="10.7288917" timestamp="2019-01-28T12:22:18Z" uid="633013" user="Honning" version="1">
		<tag k="name" v="Jare" />
		<tag k="place" v="farm" />
		<tag k="ssr:stedsnr" v="175805" />
	</node>
	<node changeset="66704001" id="6241621708" lat="59.400625" lon="10.746325" timestamp="2019-01-28T12:22:13Z" uid="633013" user="Honning" version="1">
		<tag k="alt_name" v="Huggenes vestre" />
		<tag k="name" v="Vestre Huggenes" />
		<tag k="place" v="farm" />
		<tag k="ssr:stedsnr" v="904799" />
	</node>
	<node changeset="66704001" id="6241621787" lat="59.3627556" lon="10.6631417" timestamp="2019-01-28T12:22:18Z" uid="633013" user="Honning" version="1">
		<tag k="name" v="Oppset" />
		<tag k="place" v="farm" />
		<tag k="ssr:stedsnr" v="179255" />
	</node>
	<node changeset="66704001" id="6241621788" lat="59.398675" lon="10.7367778" timestamp="2019-01-28T12:22:18Z" uid="633013" user="Honning" version="1">
		<tag k="name" v="Gjønes" />
		<tag k="place" v="farm" />
		<tag k="ssr:stedsnr" v="184293" />
	</node>
	<node changeset="66704001" id="6241621695" lat="59.3714382" lon="10.7257505" timestamp="2019-01-28T12:22:13Z" uid="633013" user="Honning" version="1">
		<tag k="alt_name" v="Otterstad mellem" />
		<tag k="name" v="Mellom-Otterstad" />
		<tag k="place" v="farm" />
		<tag k="ssr:stedsnr" v="297339" />
	</node>
	<node changeset="66704001" id="6241621691" lat="59.3554278" lon="10.6955167" timestamp="2019-01-28T12:22:12Z" uid="633013" user="Honning" version="1">
		<tag k="name" v="Li" />
		<tag k="place" v="farm" />
		<tag k="ssr:stedsnr" v="912602" />
	</node>
	<node changeset="66704001" id="6241621792" lat="59.4266" lon="10.7079778" timestamp="2019-01-28T12:22:18Z" uid="633013" user="Honning" version="1">
		<tag k="alt_name" v="Storebaug" />
		<tag k="name" v="Storebog" />
		<tag k="place" v="farm" />
		<tag k="ssr:stedsnr" v="184997" />
	</node>
	<node changeset="66704001" id="6241621793" lat="59.3614667" lon="10.7108306" timestamp="2019-01-28T12:22:19Z" uid="633013" user="Honning" version="1">
		<tag k="alt_name" v="Opstad nedre" />
		<tag k="name" v="Nedre Opstad" />
		<tag k="place" v="farm" />
		<tag k="ssr:stedsnr" v="235049" />
	</node>
	<node changeset="66706181" id="6241621794" lat="59.3676722" lon="10.7766056" timestamp="2019-01-28T13:30:32Z" uid="633013" user="Honning" version="2">
		<tag k="name" v="Bitten" />
		<tag k="place" v="isolated_dwelling" />
		<tag k="ssr:stedsnr" v="235342" />
	</node>
	<node changeset="66704001" id="6241621795" lat="59.328725" lon="10.7137167" timestamp="2019-01-28T12:22:19Z" uid="633013" user="Honning" version="1">
		<tag k="alt_name" v="Sildebaugen søndre" />
		<tag k="name" v="Søndre Sildebaugen" />
		<tag k="place" v="farm" />
		<tag k="ssr:stedsnr" v="295418" />
	</node>
	<node changeset="66704001" id="6241621796" lat="59.3578306" lon="10.7418389" timestamp="2019-01-28T12:22:19Z" uid="633013" user="Honning" version="1">
		<tag k="name" v="Søndre Gulland" />
		<tag k="place" v="farm" />
		<tag k="ssr:stedsnr" v="236226" />
	</node>
	<node changeset="66704001" id="6241621797" lat="59.3594083" lon="10.7669" timestamp="2019-01-28T12:22:19Z" uid="633013" user="Honning" version="1">
		<tag k="alt_name" v="Molvik nordre" />
		<tag k="name" v="Nordre Molvik" />
		<tag k="place" v="farm" />
		<tag k="ssr:stedsnr" v="236308" />
	</node>
	<node changeset="66704001" id="6241621798" lat="59.3651194" lon="10.7489167" timestamp="2019-01-28T12:22:19Z" uid="633013" user="Honning" version="1">
		<tag k="alt_name" v="Roer mellem;Mellem Roer" />
		<tag k="loc_name" v="Mellom-Ror" />
		<tag k="name" v="Mellom-Roer" />
		<tag k="old_name" v="Ror mellem;Roer, m;Ror midtre" />
		<tag k="place" v="farm" />
		<tag k="ssr:stedsnr" v="236333" />
	</node>
	<node changeset="66704001" id="6241621799" lat="59.3803472" lon="10.7360028" timestamp="2019-01-28T12:22:19Z" uid="633013" user="Honning" version="1">
		<tag k="name" v="Voll" />
		<tag k="place" v="farm" />
		<tag k="ssr:stedsnr" v="236681" />
	</node>
	<node changeset="66704001" id="6241621800" lat="59.3882306" lon="10.7729444" timestamp="2019-01-28T12:22:19Z" uid="633013" user="Honning" version="1">
		<tag k="alt_name" v="Utne søndre" />
		<tag k="name" v="Søndre Utne" />
		<tag k="place" v="farm" />
		<tag k="ssr:stedsnr" v="236688" />
	</node>
	<node changeset="66704001" id="6241621801" lat="59.3907583" lon="10.7942778" timestamp="2019-01-28T12:22:19Z" uid="633013" user="Honning" version="1">
		<tag k="fixme" v="consider place=farm" />
		<tag k="name" v="Fredskjærhagen" />
		<tag k="place" v="isolated_dwelling" />
		<tag k="ssr:stedsnr" v="236701" />
	</node>
	<node changeset="66704001" id="6241621802" lat="59.394475" lon="10.7554472" timestamp="2019-01-28T12:22:19Z" uid="633013" user="Honning" version="1">
		<tag k="name" v="Vestheim" />
		<tag k="place" v="farm" />
		<tag k="ssr:stedsnr" v="236769" />
	</node>
	<node changeset="66704001" id="6241621803" lat="59.3664556" lon="10.7631667" timestamp="2019-01-28T12:22:19Z" uid="633013" user="Honning" version="1">
		<tag k="name" v="Pollen" />
		<tag k="place" v="farm" />
		<tag k="ssr:stedsnr" v="245261" />
	</node>
	<node changeset="68409213" id="6241621804" lat="59.4022267" lon="10.6526532" timestamp="2019-03-22T12:20:40Z" uid="4198735" user="michalzz" version="2">
		<tag k="alt_name" v="Feste mellem;Mellem Feste" />
		<tag k="name" v="Mellom-Feste" />
		<tag k="place" v="farm" />
		<tag k="ssr:stedsnr" v="245490" />
	</node>
	<node changeset="66706181" id="6241621806" lat="59.3268833" lon="10.6782389" timestamp="2019-01-28T13:30:32Z" uid="633013" user="Honning" version="2">
		<tag k="name" v="Rørvik" />
		<tag k="place" v="hamlet" />
		<tag k="ssr:stedsnr" v="245589" />
	</node>
	<node changeset="66704001" id="6241621807" lat="59.3195361" lon="10.6847361" timestamp="2019-01-28T12:22:19Z" uid="633013" user="Honning" version="1">
		<tag k="alt_name" v="Ammundrød" />
		<tag k="name" v="Amundrød" />
		<tag k="place" v="farm" />
		<tag k="ssr:stedsnr" v="245591" />
	</node>
	<node changeset="66704001" id="6241621808" lat="59.3221833" lon="10.6870278" timestamp="2019-01-28T12:22:19Z" uid="633013" user="Honning" version="1">
		<tag k="name" v="Solstad" />
		<tag k="place" v="farm" />
		<tag k="ssr:stedsnr" v="245592" />
	</node>
	<node changeset="66704001" id="6241621809" lat="59.3769056" lon="10.6670722" timestamp="2019-01-28T12:22:20Z" uid="633013" user="Honning" version="1">
		<tag k="name" v="Klosterbakke" />
		<tag k="place" v="farm" />
		<tag k="ssr:stedsnr" v="417066" />
	</node>
	<node changeset="66704001" id="6241621810" lat="59.4088389" lon="10.6838111" timestamp="2019-01-28T12:22:20Z" uid="633013" user="Honning" version="1">
		<tag k="alt_name" v="Ekholt østre" />
		<tag k="name" v="Østre Ekholt" />
		<tag k="place" v="farm" />
		<tag k="ssr:stedsnr" v="417096" />
	</node>
	<node changeset="66704001" id="6241621811" lat="59.3529667" lon="10.7131444" timestamp="2019-01-28T12:22:20Z" uid="633013" user="Honning" version="1">
		<tag k="alt_name" v="Nærum nordre" />
		<tag k="name" v="Nordre Nærum" />
		<tag k="place" v="farm" />
		<tag k="ssr:stedsnr" v="417233" />
	</node>
	<node changeset="66704001" id="6241621812" lat="59.3256722" lon="10.6894861" timestamp="2019-01-28T12:22:20Z" uid="633013" user="Honning" version="1">
		<tag k="name" v="Garnbakken" />
		<tag k="place" v="hamlet" />
		<tag k="ssr:stedsnr" v="417444" />
	</node>
	<node changeset="66704001" id="6241621813" lat="59.4025167" lon="10.7147667" timestamp="2019-01-28T12:22:20Z" uid="633013" user="Honning" version="1">
		<tag k="name" v="Soleng" />
		<tag k="place" v="farm" />
		<tag k="ssr:stedsnr" v="417917" />
	</node>
	<node changeset="66706181" id="6241621814" lat="59.3564" lon="10.7620833" timestamp="2019-01-28T13:30:32Z" uid="633013" user="Honning" version="2">
		<tag k="alt_name" v="Mølvik" />
		<tag k="name" v="Molvik" />
		<tag k="place" v="hamlet" />
		<tag k="ssr:stedsnr" v="418032" />
	</node>
	<node changeset="66704001" id="6241621815" lat="59.368425" lon="10.7728778" timestamp="2019-01-28T12:22:20Z" uid="633013" user="Honning" version="1">
		<tag k="alt_name" v="Eskelund øvre" />
		<tag k="name" v="Øvre Eskelund" />
		<tag k="place" v="farm" />
		<tag k="ssr:stedsnr" v="418252" />
	</node>
	<node changeset="66704001" id="6241621816" lat="59.3881079" lon="10.7852114" timestamp="2019-01-28T12:22:20Z" uid="633013" user="Honning" version="1">
		<tag k="alt_name" v="Fredskjær østre" />
		<tag k="name" v="Østre Fredskjær" />
		<tag k="place" v="farm" />
		<tag k="ssr:stedsnr" v="418701" />
	</node>
	<node changeset="66704001" id="6241621817" lat="59.3938611" lon="10.7671083" timestamp="2019-01-28T12:22:20Z" uid="633013" user="Honning" version="1">
		<tag k="name" v="Berg" />
		<tag k="place" v="farm" />
		<tag k="ssr:stedsnr" v="418756" />
	</node>
	<node changeset="66704001" id="6241621818" lat="59.391125" lon="10.7680222" timestamp="2019-01-28T12:22:20Z" uid="633013" user="Honning" version="1">
		<tag k="name" v="Østli" />
		<tag k="place" v="farm" />
		<tag k="ssr:stedsnr" v="418761" />
	</node>
	<node changeset="66704001" id="6241621819" lat="59.3922583" lon="10.766725" timestamp="2019-01-28T12:22:20Z" uid="633013" user="Honning" version="1">
		<tag k="name" v="Rådeskogen" />
		<tag k="place" v="hamlet" />
		<tag k="ssr:stedsnr" v="418764" />
	</node>
	<node changeset="66704001" id="6241621820" lat="59.3670444" lon="10.6629639" timestamp="2019-01-28T12:22:20Z" uid="633013" user="Honning" version="1">
		<tag k="name" v="Fillekken" />
		<tag k="place" v="farm" />
		<tag k="ssr:stedsnr" v="422230" />
	</node>
	<node changeset="66704001" id="6241621821" lat="59.4097083" lon="10.7707195" timestamp="2019-01-28T12:22:20Z" uid="633013" user="Honning" version="1">
		<tag k="alt_name" v="Gamleng" />
		<tag k="name" v="Gammeleng" />
		<tag k="place" v="farm" />
		<tag k="ssr:stedsnr" v="427347" />
	</node>
	<node changeset="66704001" id="6241621823" lat="59.425425" lon="10.7038278" timestamp="2019-01-28T12:22:20Z" uid="633013" user="Honning" version="1">
		<tag k="fixme" v="consider place=farm" />
		<tag k="name" v="Hanan" />
		<tag k="place" v="isolated_dwelling" />
		<tag k="ssr:stedsnr" v="427986" />
	</node>
	<node changeset="66704001" id="6241621824" lat="59.3962028" lon="10.7441556" timestamp="2019-01-28T12:22:20Z" uid="633013" user="Honning" version="1">
		<tag k="name" v="Støa" />
		<tag k="place" v="farm" />
		<tag k="ssr:stedsnr" v="487313" />
	</node>
	<node changeset="66704001" id="6241621825" lat="59.4049806" lon="10.7746778" timestamp="2019-01-28T12:22:20Z" uid="633013" user="Honning" version="1">
		<tag k="name" v="Kilen" />
		<tag k="place" v="farm" />
		<tag k="ssr:stedsnr" v="487323" />
	</node>
	<node changeset="66704001" id="6241621826" lat="59.4099306" lon="10.6667056" timestamp="2019-01-28T12:22:21Z" uid="633013" user="Honning" version="1">
		<tag k="amenity" v="nursing_home" />
		<tag k="name" v="Ryggeheimen" />
		<tag k="ssr:stedsnr" v="538136" />
	</node>
	<node changeset="66704001" id="6241621827" lat="59.32985" lon="10.6810611" timestamp="2019-01-28T12:22:21Z" uid="633013" user="Honning" version="1">
		<tag k="name" v="Skogli" />
		<tag k="place" v="farm" />
		<tag k="ssr:stedsnr" v="538439" />
	</node>
	<node changeset="66704001" id="6241621828" lat="59.4133361" lon="10.6630139" timestamp="2019-01-28T12:22:21Z" uid="633013" user="Honning" version="1">
		<tag k="name" v="Bjerke" />
		<tag k="place" v="neighbourhood" />
		<tag k="ssr:stedsnr" v="539003" />
	</node>
	<node changeset="66704001" id="6241621829" lat="59.3564417" lon="10.759675" timestamp="2019-01-28T12:22:21Z" uid="633013" user="Honning" version="1">
		<tag k="name" v="Holkemyr" />
		<tag k="place" v="farm" />
		<tag k="ssr:stedsnr" v="539037" />
	</node>
	<node changeset="66704001" id="6241621830" lat="59.3928278" lon="10.7677944" timestamp="2019-01-28T12:22:21Z" uid="633013" user="Honning" version="1">
		<tag k="name" v="Grønli" />
		<tag k="place" v="farm" />
		<tag k="ssr:stedsnr" v="539763" />
	</node>
	<node changeset="71811145" id="6241621729" lat="59.4092545" lon="10.6829387" timestamp="2019-07-02T08:03:39Z" uid="4198735" user="michalzz" version="2">
		<tag k="alt_name" v="Ekholt vestre" />
		<tag k="name" v="Vestre Ekholt" />
		<tag k="place" v="farm" />
		<tag k="ssr:stedsnr" v="477105" />
	</node>
	<node changeset="66770418" id="6241621832" lat="59.3934806" lon="10.7331889" timestamp="2019-01-30T13:24:42Z" uid="633013" user="Honning" version="2">
		<tag k="name" v="Rekkestad" />
		<tag k="place" v="farm" />
		<tag k="ssr:stedsnr" v="548323" />
	</node>
	<node changeset="66704001" id="6241621833" lat="59.3992306" lon="10.7287056" timestamp="2019-01-28T12:22:21Z" uid="633013" user="Honning" version="1">
		<tag k="name" v="Moserød" />
		<tag k="place" v="farm" />
		<tag k="ssr:stedsnr" v="548332" />
	</node>
	<node changeset="66704001" id="6241621834" lat="59.3998333" lon="10.7097861" timestamp="2019-01-28T12:22:21Z" uid="633013" user="Honning" version="1">
		<tag k="name" v="Holter" />
		<tag k="place" v="farm" />
		<tag k="ssr:stedsnr" v="548531" />
	</node>
	<node changeset="66704001" id="6241621835" lat="59.3875917" lon="10.6656389" timestamp="2019-01-28T12:22:21Z" uid="633013" user="Honning" version="1">
		<tag k="name" v="Ekeby" />
		<tag k="place" v="farm" />
		<tag k="ssr:stedsnr" v="548546" />
	</node>
	<node changeset="66704001" id="6241621837" lat="59.3215056" lon="10.6565583" timestamp="2019-01-28T12:22:21Z" uid="633013" user="Honning" version="1">
		<tag k="name" v="Ulke" />
		<tag k="place" v="farm" />
		<tag k="ssr:stedsnr" v="548608" />
	</node>
	<node changeset="66704001" id="6241621838" lat="59.306825" lon="10.682975" timestamp="2019-01-28T12:22:21Z" uid="633013" user="Honning" version="1">
		<tag k="name" v="Signes" />
		<tag k="place" v="isolated_dwelling" />
		<tag k="ssr:stedsnr" v="548642" />
	</node>
	<node changeset="66704001" id="6241621840" lat="59.4099528" lon="10.6641861" timestamp="2019-01-28T12:22:21Z" uid="633013" user="Honning" version="1">
		<tag k="name" v="Kvile" />
		<tag k="place" v="farm" />
		<tag k="ssr:stedsnr" v="598123" />
	</node>
	<node changeset="66704001" id="6241621841" lat="59.3292361" lon="10.712425" timestamp="2019-01-28T12:22:21Z" uid="633013" user="Honning" version="1">
		<tag k="alt_name" v="Sildebaugen nordre" />
		<tag k="name" v="Nordre Sildebaugen" />
		<tag k="place" v="farm" />
		<tag k="ssr:stedsnr" v="598397" />
	</node>
	<node changeset="66704001" id="6241621842" lat="59.3593333" lon="10.7124639" timestamp="2019-01-28T12:22:21Z" uid="633013" user="Honning" version="1">
		<tag k="alt_name" v="Opstad øvre" />
		<tag k="name" v="Øvre Opstad" />
		<tag k="place" v="farm" />
		<tag k="ssr:stedsnr" v="599024" />
	</node>
	<node changeset="66704001" id="6241621843" lat="59.3608611" lon="10.7104111" timestamp="2019-01-28T12:22:21Z" uid="633013" user="Honning" version="1">
		<tag k="alt_name" v="Opstad mellem" />
		<tag k="name" v="Mellom-Opstad" />
		<tag k="place" v="farm" />
		<tag k="ssr:stedsnr" v="599025" />
	</node>
	<node changeset="66704001" id="6241621844" lat="59.3792778" lon="10.6853389" timestamp="2019-01-28T12:22:22Z" uid="633013" user="Honning" version="1">
		<tag k="name" v="Vang" />
		<tag k="place" v="farm" />
		<tag k="ssr:stedsnr" v="599061" />
	</node>
	<node changeset="66704001" id="6241621845" lat="59.3830472" lon="10.7900333" timestamp="2019-01-28T12:22:22Z" uid="633013" user="Honning" version="1">
		<tag k="alt_name" v="Søgård vestre" />
		<tag k="name" v="Vestre Søgård" />
		<tag k="place" v="farm" />
		<tag k="ssr:stedsnr" v="599734" />
	</node>
	<node changeset="66704001" id="6241621846" lat="59.3868361" lon="10.7777472" timestamp="2019-01-28T12:22:22Z" uid="633013" user="Honning" version="1">
		<tag k="alt_name" v="Utne østre" />
		<tag k="name" v="Østre Utne" />
		<tag k="place" v="farm" />
		<tag k="ssr:stedsnr" v="599737" />
	</node>
	<node changeset="66704001" id="6241621847" lat="59.3392889" lon="10.6635778" timestamp="2019-01-28T12:22:22Z" uid="633013" user="Honning" version="1">
		<tag k="name" v="Pusterom" />
		<tag k="old_name" v="Pusterum" />
		<tag k="place" v="isolated_dwelling" />
		<tag k="ssr:stedsnr" v="599871" />
	</node>
	<node changeset="66704001" id="6241621733" lat="59.3408605" lon="10.6642716" timestamp="2019-01-28T12:22:15Z" uid="633013" user="Honning" version="1">
		<tag k="name" v="Tarvelig" />
		<tag k="place" v="farm" />
		<tag k="ssr:stedsnr" v="971507" />
	</node>
	<node changeset="66770418" id="6234312552" lat="59.3777571" lon="10.7515572" timestamp="2019-01-30T13:24:41Z" uid="633013" user="Honning" version="2">
		<tag k="name" v="Rygge" />
		<tag k="place" v="village" />
		<tag k="ssr:stedsnr" v="270339" />
	</node>
	<node changeset="66706181" id="5392168207" lat="59.3504778" lon="10.7007889" timestamp="2019-01-28T13:30:31Z" uid="633013" user="Honning" version="3">
		<tag k="name" v="Bråtu" />
		<tag k="place" v="farm" />
		<tag k="ssr:stedsnr" v="487627" />
	</node>
	<node changeset="66704001" id="6241621737" lat="59.3764861" lon="10.73915" timestamp="2019-01-28T12:22:15Z" uid="633013" user="Honning" version="1">
		<tag k="alt_name" v="Rør vestre" />
		<tag k="name" v="Vestre Rør" />
		<tag k="place" v="farm" />
		<tag k="ssr:stedsnr" v="478291" />
	</node>
	<node changeset="66704001" id="6241621698" lat="59.3834194" lon="10.6522694" timestamp="2019-01-28T12:22:13Z" uid="633013" user="Honning" version="1">
		<tag k="alt_name" v="Fuglevik søndre" />
		<tag k="name" v="Søndre Fuglevik" />
		<tag k="place" v="hamlet" />
		<tag k="ssr:stedsnr" v="903114" />
	</node>
	<node changeset="66704001" id="5389517691" lat="59.3835417" lon="10.6792639" timestamp="2019-01-28T12:22:25Z" uid="633013" user="Honning" version="2">
		<tag k="alt_name" v="Hasle vestre" />
		<tag k="name" v="Vestre Hasle" />
		<tag k="place" v="farm" />
		<tag k="ssr:stedsnr" v="114930" />
	</node>
	<node changeset="66704001" id="5389517692" lat="59.3847333" lon="10.6815945" timestamp="2019-01-28T12:22:25Z" uid="633013" user="Honning" version="2">
		<tag k="name" v="Rød" />
		<tag k="place" v="farm" />
		<tag k="ssr:stedsnr" v="791521" />
	</node>
	<node changeset="66704001" id="6241621701" lat="59.3591278" lon="10.732175" timestamp="2019-01-28T12:22:13Z" uid="633013" user="Honning" version="1">
		<tag k="alt_name" v="Mellem Kure;Kure midtre;Kure mellem" />
		<tag k="name" v="Mellom-Kure" />
		<tag k="place" v="farm" />
		<tag k="ssr:stedsnr" v="306235" />
	</node>
	<node changeset="66704001" id="5389796768" lat="59.3470389" lon="10.68655" timestamp="2019-01-28T12:22:25Z" uid="633013" user="Honning" version="2">
		<tag k="name" v="Buberg" />
		<tag k="place" v="farm" />
		<tag k="source" v="Kartverket N50" />
		<tag k="ssr:stedsnr" v="791569" />
	</node>
	<node changeset="66704001" id="4331245985" lat="59.3548861" lon="10.7723667" timestamp="2019-01-28T12:22:22Z" uid="633013" user="Honning" version="2">
		<tag k="name" v="Sarpeløkka" />
		<tag k="place" v="farm" />
		<tag k="ssr:stedsnr" v="115059" />
	</node>
	<node changeset="66704001" id="4331245986" lat="59.3552611" lon="10.7652083" timestamp="2019-01-28T12:22:22Z" uid="633013" user="Honning" version="2">
		<tag k="alt_name" v="Molvik østre" />
		<tag k="name" v="Østre Molvik" />
		<tag k="place" v="farm" />
		<tag k="ssr:stedsnr" v="297063" />
	</node>
	<node changeset="66704001" id="4331245987" lat="59.3562139" lon="10.7612472" timestamp="2019-01-28T12:22:22Z" uid="633013" user="Honning" version="2">
		<tag k="alt_name" v="Molvik vestre" />
		<tag k="name" v="Vestre Molvik" />
		<tag k="place" v="farm" />
		<tag k="ssr:stedsnr" v="843044" />
	</node>
	<node changeset="66704001" id="4331245988" lat="59.3579556" lon="10.7627444" timestamp="2019-01-28T12:22:22Z" uid="633013" user="Honning" version="2">
		<tag k="alt_name" v="Molvik nordre" />
		<tag k="name" v="Nordre Molvik" />
		<tag k="place" v="farm" />
		<tag k="ssr:stedsnr" v="306236" />
	</node>
	<node changeset="66704001" id="6241621831" lat="59.4040694" lon="10.7579333" timestamp="2019-01-28T12:22:21Z" uid="633013" user="Honning" version="1">
		<tag k="alt_name" v="Kjellerød østre" />
		<tag k="name" v="Østre Kjellerød" />
		<tag k="place" v="farm" />
		<tag k="ssr:stedsnr" v="539835" />
	</node>
	<node changeset="66704001" id="6241621700" lat="59.3787917" lon="10.7273333" timestamp="2019-01-28T12:22:13Z" uid="633013" user="Honning" version="1">
		<tag k="name" v="Ramstad" />
		<tag k="place" v="farm" />
		<tag k="ssr:stedsnr" v="903292" />
	</node>
	<node changeset="66704001" id="5389796789" lat="59.350753" lon="10.6860519" timestamp="2019-01-28T12:22:25Z" uid="633013" user="Honning" version="3">
		<tag k="name" v="Sande" />
		<tag k="place" v="farm" />
		<tag k="ssr:stedsnr" v="296172" />
	</node>
	<node changeset="66704001" id="5389796794" lat="59.3525639" lon="10.6916306" timestamp="2019-01-28T12:22:25Z" uid="633013" user="Honning" version="2">
		<tag k="name" v="Dalen" />
		<tag k="place" v="farm" />
		<tag k="ssr:stedsnr" v="539021" />
	</node>
	<node changeset="66704001" id="6241621789" lat="59.3967111" lon="10.7963528" timestamp="2019-01-28T12:22:18Z" uid="633013" user="Honning" version="1">
		<tag k="alt_name" v="Fresjerbråten" />
		<tag k="name" v="Fredskjærbråten" />
		<tag k="place" v="farm" />
		<tag k="ssr:stedsnr" v="184302" />
	</node>
	<node changeset="66704001" id="6241621791" lat="59.3296417" lon="10.6888556" timestamp="2019-01-28T12:22:18Z" uid="633013" user="Honning" version="1">
		<tag k="name" v="Grefsrød" />
		<tag k="place" v="farm" />
		<tag k="ssr:stedsnr" v="184612" />
	</node>
	<node changeset="66704001" id="5389796807" lat="59.3608361" lon="10.6943833" timestamp="2019-01-28T12:22:25Z" uid="633013" user="Honning" version="2">
		<tag k="name" v="Dalen" />
		<tag k="place" v="farm" />
		<tag k="ssr:stedsnr" v="235061" />
	</node>
	<node changeset="66704001" id="6241621786" lat="59.4035778" lon="10.7531333" timestamp="2019-01-28T12:22:18Z" uid="633013" user="Honning" version="1">
		<tag k="alt_name" v="Kjellerød vestre" />
		<tag k="name" v="Vestre Kjellerød" />
		<tag k="place" v="farm" />
		<tag k="ssr:stedsnr" v="175854" />
	</node>
	<node changeset="66704001" id="5389806032" lat="59.3609472" lon="10.6886" timestamp="2019-01-28T12:22:25Z" uid="633013" user="Honning" version="2">
		<tag k="name" v="Børsebakke" />
		<tag k="place" v="farm" />
		<tag k="ssr:stedsnr" v="63587" />
	</node>
	<node changeset="66704001" id="6241621752" lat="59.3906611" lon="10.7644583" timestamp="2019-01-28T12:22:16Z" uid="633013" user="Honning" version="1">
		<tag k="name" v="Solbakken" />
		<tag k="place" v="farm" />
		<tag k="ssr:stedsnr" v="54791" />
	</node>
	<node changeset="66704001" id="5389806033" lat="59.3630139" lon="10.6851139" timestamp="2019-01-28T12:22:25Z" uid="633013" user="Honning" version="2">
		<tag k="name" v="Nyjordet" />
		<tag k="place" v="farm" />
		<tag k="ssr:stedsnr" v="963036" />
	</node>
	<node changeset="66704001" id="6241620683" lat="59.3964056" lon="10.7668361" timestamp="2019-01-28T12:22:12Z" uid="633013" user="Honning" version="1">
		<tag k="name" v="Tangen" />
		<tag k="place" v="farm" />
		<tag k="ssr:stedsnr" v="852305" />
	</node>
	<node changeset="66704001" id="31775205" lat="59.3811022" lon="10.7517622" timestamp="2019-01-28T12:22:22Z" uid="633013" user="Honning" version="4">
		<tag k="alt_name" v="Ryggebyen" />
		<tag k="name" v="Halmstad" />
		<tag k="place" v="village" />
		<tag k="population" v="2515" />
		<tag k="population:date" v="2017-01-01" />
		<tag k="ssr:stedsnr" v="877351" />
	</node>
	<node changeset="66704001" id="6241621706" lat="59.3628583" lon="10.7707583" timestamp="2019-01-28T12:22:13Z" uid="633013" user="Honning" version="1">
		<tag k="name" v="Asgården" />
		<tag k="place" v="farm" />
		<tag k="ssr:stedsnr" v="904314" />
	</node>
	<node changeset="66704001" id="6241621702" lat="59.4017583" lon="10.69655" timestamp="2019-01-28T12:22:13Z" uid="633013" user="Honning" version="1">
		<tag k="alt_name" v="Dilling vestre" />
		<tag k="name" v="Vestre Dilling" />
		<tag k="place" v="farm" />
		<tag k="ssr:stedsnr" v="903883" />
	</node>
	<node changeset="66706181" id="6241621759" lat="59.3625222" lon="10.7007306" timestamp="2019-01-28T13:30:32Z" uid="633013" user="Honning" version="2">
		<tag k="name" v="Grønli" />
		<tag k="place" v="isolated_dwelling" />
		<tag k="ssr:stedsnr" v="114034" />
	</node>
</osm>
