<?xml version="1.0" encoding="UTF-8"?>
<osm generator="osmapis" version="0.6">
	<node id="-808320" lat="70.1440028071" lon="28.8392711949">
		<tag k="name" v="Nesseby" />
		<tag k="name:no" v="Nesseby" />
		<tag k="ssr:date" v="2016-05-10" />
		<tag k="ssr:gruppe" v="navigasjon" />
		<tag k="ssr:hovedgruppe" v="infrastruktur" />
		<tag k="ssr:stedsnr" v="573113" />
		<tag k="ssr:type" v="fyrlykt" />
	</node>
	<node id="-807963" lat="70.1638222522" lon="28.5711324301">
		<tag k="fixme" v="multiple name tags, choose one and add the other to alt_name" />
		<tag k="name" v="Unjárga;Unjárgga gielda - Nesseby kommune" />
		<tag k="name:no" v="Nesseby kommune" />
		<tag k="name:se" v="Unjárga;Unjárgga gielda" />
		<tag k="ssr:date" v="2016-05-10" />
		<tag k="ssr:gruppe" v="administrativeIndelinger" />
		<tag k="ssr:hovedgruppe" v="offentligAdministrasjon" />
		<tag k="ssr:stedsnr" v="146828" />
		<tag k="ssr:type" v="kommune" />
	</node>
	<node id="-807930" lat="70.1734750325" lon="28.7420906956">
		<tag k="name" v="Mæskfjord, Nedre" />
		<tag k="name:no" v="Mæskfjord, Nedre" />
		<tag k="ssr:date" v="2016-05-10" />
		<tag k="ssr:gruppe" v="navigasjon" />
		<tag k="ssr:hovedgruppe" v="infrastruktur" />
		<tag k="ssr:stedsnr" v="108175" />
		<tag k="ssr:type" v="fyrlykt" />
	</node>
	<node id="-808760" lat="70.0874778143" lon="28.8263267642">
		<tag k="name" v="Veidneset" />
		<tag k="name:no" v="Veidneset" />
		<tag k="ssr:date" v="2016-05-11" />
		<tag k="ssr:gruppe" v="navigasjon" />
		<tag k="ssr:hovedgruppe" v="infrastruktur" />
		<tag k="ssr:stedsnr" v="938126" />
		<tag k="ssr:type" v="fyrlykt" />
	</node>
	<node id="-808690" lat="70.1226555922" lon="29.0197350192">
		<tag k="name" v="Mortensnes" />
		<tag k="name:no" v="Mortensnes" />
		<tag k="ssr:date" v="2016-05-11" />
		<tag k="ssr:gruppe" v="navigasjon" />
		<tag k="ssr:hovedgruppe" v="infrastruktur" />
		<tag k="ssr:stedsnr" v="877140" />
		<tag k="ssr:type" v="fyrlykt" />
	</node>
	<node id="-807858" lat="70.1750972533" lon="28.7377351441">
		<tag k="name" v="Mæskfjord, Øvre" />
		<tag k="name:no" v="Mæskfjord, Øvre" />
		<tag k="ssr:date" v="2016-05-10" />
		<tag k="ssr:gruppe" v="navigasjon" />
		<tag k="ssr:hovedgruppe" v="infrastruktur" />
		<tag k="ssr:stedsnr" v="47186" />
		<tag k="ssr:type" v="fyrlykt" />
	</node>
	<node id="-807690" lat="70.0670611462" lon="29.0871182962">
		<tag k="name" v="Storskjær" />
		<tag k="name:no" v="Storskjær" />
		<tag k="ssr:date" v="2016-05-10" />
		<tag k="ssr:gruppe" v="navigasjon" />
		<tag k="ssr:hovedgruppe" v="infrastruktur" />
		<tag k="ssr:stedsnr" v="331142" />
		<tag k="ssr:type" v="fyrlykt" />
	</node>
	<node id="-808775" lat="68.4849327361" lon="16.2297866207">
		<tag k="fixme" v="multiple name tags, choose one and add the other to alt_name" />
		<tag k="name" v="Nord-Noreg;Nord-Norge" />
		<tag k="ssr:date" v="2017-05-18" />
		<tag k="ssr:gruppe" v="administrativeIndelinger" />
		<tag k="ssr:hovedgruppe" v="offentligAdministrasjon" />
		<tag k="ssr:stedsnr" v="976106" />
		<tag k="ssr:type" v="annenAdministrativInndeling" />
	</node>
	<node id="-807931" lat="70.1311889228" lon="28.6659323806">
		<tag k="name" v="Rabbenes" />
		<tag k="name:no" v="Rabbenes" />
		<tag k="ssr:date" v="2016-05-10" />
		<tag k="ssr:gruppe" v="navigasjon" />
		<tag k="ssr:hovedgruppe" v="infrastruktur" />
		<tag k="ssr:stedsnr" v="108179" />
		<tag k="ssr:type" v="fyrlykt" />
	</node>
</osm>
