<?xml version="1.0" encoding="UTF-8"?>
<osm generator="osmapis" version="0.6">
	<node id="-804864" lat="70.6147250249" lon="29.1527545561">
		<tag k="name" v="Ørretvasshøgda" />
		<tag k="natural" v="hill" />
		<tag k="place" v="locality" />
		<tag k="ssr:stedsnr" v="20384" />
	</node>
	<node id="-804863" lat="70.6497250252" lon="29.3194350518">
		<tag k="fixme" v="consider natural=peak for the most distinct mountains in the district" />
		<tag k="name" v="Sæterdalsfjella" />
		<tag k="natural" v="hill" />
		<tag k="place" v="locality" />
		<tag k="ssr:stedsnr" v="20382" />
	</node>
	<node id="-804860" lat="70.6749361305" lon="28.5549075531">
		<tag k="name" v="Kråkeberget" />
		<tag k="natural" v="hill" />
		<tag k="place" v="locality" />
		<tag k="ssr:stedsnr" v="20335" />
	</node>
	<node id="-804850" lat="70.8468555772" lon="29.0593768903">
		<tag k="name" v="Petterstakken" />
		<tag k="natural" v="slope" />
		<tag k="place" v="locality" />
		<tag k="ssr:stedsnr" v="882243" />
	</node>
	<node id="-804847" lat="70.7082972491" lon="29.2896656433">
		<tag k="fixme" v="consider natural=peak for the most distinct mountains in the district" />
		<tag k="name" v="Båsan" />
		<tag k="natural" v="hill" />
		<tag k="place" v="locality" />
		<tag k="ssr:stedsnr" v="410941" />
	</node>
	<node id="-804846" lat="70.6560361393" lon="29.1412712446">
		<tag k="name" v="Botnelvdalen" />
		<tag k="natural" v="valley" />
		<tag k="place" v="locality" />
		<tag k="ssr:stedsnr" v="410904" />
	</node>
	<node id="-804845" lat="70.8668250156" lon="28.9058630514">
		<tag k="fixme" v="consider natural=peak for the most distinct mountains in the district" />
		<tag k="name" v="Bukkedalsfjellet" />
		<tag k="natural" v="hill" />
		<tag k="place" v="locality" />
		<tag k="ssr:stedsnr" v="410559" />
	</node>
	<node id="-804844" lat="70.8483916858" lon="29.1411851948">
		<tag k="name" v="Strupen" />
		<tag k="natural" v="valley" />
		<tag k="place" v="locality" />
		<tag k="ssr:stedsnr" v="396214" />
	</node>
	<node id="-804842" lat="70.8343611359" lon="29.2179656981">
		<tag k="name" v="Vester-Styrelvdalen" />
		<tag k="natural" v="valley" />
		<tag k="place" v="locality" />
		<tag k="ssr:stedsnr" v="390211" />
	</node>
	<node id="-804841" lat="70.7775389083" lon="29.3037323272">
		<tag k="fixme" v="consider natural=peak for the most distinct mountains in the district" />
		<tag k="name" v="Middagsfjellet" />
		<tag k="natural" v="hill" />
		<tag k="place" v="locality" />
		<tag k="ssr:stedsnr" v="384996" />
	</node>
	<node id="-804839" lat="70.8053000252" lon="29.1640546143">
		<tag k="fixme" v="consider natural=peak for the most distinct mountains in the district" />
		<tag k="name" v="Løkvikdalsfjellet" />
		<tag k="natural" v="hill" />
		<tag k="place" v="locality" />
		<tag k="ssr:stedsnr" v="384989" />
	</node>
	<node id="-804838" lat="70.8159139142" lon="29.0400074323">
		<tag k="name" v="Veddalen" />
		<tag k="natural" v="valley" />
		<tag k="place" v="locality" />
		<tag k="ssr:stedsnr" v="384988" />
	</node>
	<node id="-804837" lat="70.8218250231" lon="28.9615574525">
		<tag k="name" v="Storelvdalen" />
		<tag k="natural" v="valley" />
		<tag k="place" v="locality" />
		<tag k="ssr:stedsnr" v="384981" />
	</node>
	<node id="-804832" lat="70.7824916845" lon="28.7095158547">
		<tag k="name" v="Uhcavággi" />
		<tag k="name:se" v="Uhcavággi" />
		<tag k="natural" v="valley" />
		<tag k="old_name:se" v="Uccavaggi" />
		<tag k="place" v="locality" />
		<tag k="ssr:stedsnr" v="384935" />
	</node>
	<node id="-804821" lat="70.8782750157" lon="28.964365806">
		<tag k="name" v="Ramberget" />
		<tag k="natural" v="hill" />
		<tag k="place" v="locality" />
		<tag k="ssr:stedsnr" v="349982" />
	</node>
	<node id="-804818" lat="70.6506472485" lon="29.3066183826">
		<tag k="fixme" v="consider natural=peak for the most distinct mountains in the district" />
		<tag k="name" v="Hundelvfjellet" />
		<tag k="natural" v="hill" />
		<tag k="place" v="locality" />
		<tag k="ssr:stedsnr" v="349950" />
	</node>
	<node id="-804817" lat="70.5995944735" lon="29.0856490196">
		<tag k="name" v="Kongsfjorddalen - Getnjeleahki" />
		<tag k="name:no" v="Kongsfjorddalen" />
		<tag k="name:se" v="Getnjeleahki" />
		<tag k="natural" v="valley" />
		<tag k="place" v="locality" />
		<tag k="ssr:stedsnr" v="349921" />
	</node>
	<node id="-804812" lat="70.70530835" lon="28.5445464608">
		<tag k="name" v="Svartnakken" />
		<tag k="natural" v="ridge" />
		<tag k="place" v="locality" />
		<tag k="ssr:stedsnr" v="330296" />
	</node>
	<node id="-804811" lat="70.8529333503" lon="29.1161713092">
		<tag k="name" v="Storelvberget" />
		<tag k="natural" v="hill" />
		<tag k="place" v="locality" />
		<tag k="ssr:stedsnr" v="329955" />
	</node>
	<node id="-804810" lat="70.7271389169" lon="29.2572128735">
		<tag k="name" v="Østre Risfjordbotn" />
		<tag k="place" v="locality" />
		<tag k="ssr:stedsnr" v="329946" />
	</node>
	<node id="-804807" lat="70.8415250261" lon="29.2009796075">
		<tag k="name" v="Styrdalen" />
		<tag k="natural" v="valley" />
		<tag k="place" v="locality" />
		<tag k="ssr:stedsnr" v="329189" />
	</node>
	<node id="-804805" lat="70.7832444643" lon="28.828618598">
		<tag k="fixme" v="consider natural=peak for the most distinct mountains in the district" />
		<tag k="name" v="Sløketoppen" />
		<tag k="natural" v="hill" />
		<tag k="place" v="locality" />
		<tag k="ssr:stedsnr" v="323997" />
	</node>
	<node id="-804804" lat="70.7927833617" lon="29.2676378937">
		<tag k="name" v="Heimberget" />
		<tag k="natural" v="hill" />
		<tag k="place" v="locality" />
		<tag k="ssr:stedsnr" v="323996" />
	</node>
	<node id="-804798" lat="70.7618027974" lon="28.6000825739">
		<tag k="fixme" v="consider natural=peak for the most distinct mountains in the district" />
		<tag k="name" v="Gaksevikfjellet - Gákšovárri" />
		<tag k="name:no" v="Gaksevikfjellet" />
		<tag k="name:se" v="Gákšovárri" />
		<tag k="natural" v="hill" />
		<tag k="old_name:se" v="Gakšuvarri" />
		<tag k="place" v="locality" />
		<tag k="ssr:stedsnr" v="323960" />
	</node>
	<node id="-804797" lat="70.7836944644" lon="28.7146047644">
		<tag k="fixme" v="consider natural=peak for the most distinct mountains in the district" />
		<tag k="name" v="Stuorračohkka" />
		<tag k="name:se" v="Stuorračohkka" />
		<tag k="natural" v="hill" />
		<tag k="old_name:se" v="Stuorračåkka" />
		<tag k="place" v="locality" />
		<tag k="ssr:stedsnr" v="323958" />
	</node>
	<node id="-804796" lat="70.7837722415" lon="28.7841602875">
		<tag k="name" v="Rássegorsa" />
		<tag k="name:se" v="Rássegorsa" />
		<tag k="natural" v="valley" />
		<tag k="old_name:se" v="Rassegårsa" />
		<tag k="place" v="locality" />
		<tag k="ssr:stedsnr" v="323957" />
	</node>
	<node id="-804795" lat="70.8026333498" lon="28.7931325045">
		<tag k="name" v="Sørdalen" />
		<tag k="natural" v="valley" />
		<tag k="place" v="locality" />
		<tag k="ssr:stedsnr" v="323950" />
	</node>
	<node id="-805306" lat="70.868052799" lon="28.9500658255">
		<tag k="name" v="Dalbakken" />
		<tag k="natural" v="slope" />
		<tag k="place" v="locality" />
		<tag k="ssr:stedsnr" v="956600" />
	</node>
	<node id="-804793" lat="70.808513908" lon="28.70410475">
		<tag k="fixme" v="consider natural=peak for the most distinct mountains in the district" />
		<tag k="name" v="Muorjegárčohkka" />
		<tag k="name:se" v="Muorjegárčohkka" />
		<tag k="natural" v="hill" />
		<tag k="old_name:se" v="Muorjegarčåkka" />
		<tag k="place" v="locality" />
		<tag k="ssr:stedsnr" v="323939" />
	</node>
	<node id="-804790" lat="70.7434250249" lon="29.226185123">
		<tag k="fixme" v="consider natural=peak for the most distinct mountains in the district" />
		<tag k="name" v="Risfjordfjellet" />
		<tag k="natural" v="hill" />
		<tag k="place" v="locality" />
		<tag k="ssr:stedsnr" v="323440" />
	</node>
	<node id="-804789" lat="70.7192000232" lon="29.2472434292">
		<tag k="fixme" v="consider natural=peak for the most distinct mountains in the district" />
		<tag k="name" v="Hergevasstoppen - Heargevárri" />
		<tag k="name:no" v="Hergevasstoppen" />
		<tag k="name:se" v="Heargevárri" />
		<tag k="natural" v="hill" />
		<tag k="old_name:se" v="Hærgevarri" />
		<tag k="place" v="locality" />
		<tag k="ssr:stedsnr" v="323421" />
	</node>
	<node id="-805300" lat="70.5054555788" lon="28.7945296424">
		<tag k="fixme" v="consider natural=peak for the most distinct mountains in the district" />
		<tag k="name" v="Hanglefjellet - Hakŋalančearru" />
		<tag k="name:no" v="Hanglefjellet" />
		<tag k="name:se" v="Hakŋalančearru" />
		<tag k="natural" v="hill" />
		<tag k="old_name:se" v="Hagŋalančærro" />
		<tag k="place" v="locality" />
		<tag k="ssr:stedsnr" v="936421" />
	</node>
	<node id="-805299" lat="70.7677000268" lon="29.0805324078">
		<tag k="fixme" v="consider natural=peak for the most distinct mountains in the district" />
		<tag k="name" v="Storvarden" />
		<tag k="natural" v="hill" />
		<tag k="ssr:stedsnr" v="936162" />
	</node>
	<node id="-804786" lat="70.7249722485" lon="29.1587240442">
		<tag k="fixme" v="consider natural=peak for the most distinct mountains in the district" />
		<tag k="name" v="Vester-Risfjordfjellet" />
		<tag k="natural" v="hill" />
		<tag k="place" v="locality" />
		<tag k="ssr:stedsnr" v="323413" />
	</node>
	<node id="-805296" lat="70.7991861378" lon="29.2289962443">
		<tag k="name" v="Sandfjordskardet" />
		<tag k="natural" v="valley" />
		<tag k="place" v="locality" />
		<tag k="ssr:stedsnr" v="931992" />
	</node>
	<node id="-805295" lat="70.8020972482" lon="29.2222323701">
		<tag k="fixme" v="consider natural=peak for the most distinct mountains in the district" />
		<tag k="name" v="Sandfjordfjellet" />
		<tag k="natural" v="hill" />
		<tag k="place" v="locality" />
		<tag k="ssr:stedsnr" v="931990" />
	</node>
	<node id="-804781" lat="70.7259055752" lon="28.5677381069">
		<tag k="fixme" v="consider natural=peak for the most distinct mountains in the district" />
		<tag k="name" v="Guođggotvárri" />
		<tag k="name:se" v="Guođggotvárri" />
		<tag k="natural" v="hill" />
		<tag k="old_name:se" v="Guođgutvarri;Gouđggotvárri" />
		<tag k="place" v="locality" />
		<tag k="ssr:stedsnr" v="323353" />
	</node>
	<node id="-805292" lat="70.8492611324" lon="29.2123490571">
		<tag k="fixme" v="consider natural=peak for the most distinct mountains in the district" />
		<tag k="name" v="Kjølnesaksla" />
		<tag k="natural" v="hill" />
		<tag k="place" v="locality" />
		<tag k="ssr:stedsnr" v="930974" />
	</node>
	<node id="-804778" lat="70.8636361336" lon="29.0248269097">
		<tag k="name" v="Breidalen" />
		<tag k="natural" v="valley" />
		<tag k="place" v="locality" />
		<tag k="ssr:stedsnr" v="319708" />
	</node>
	<node id="-805289" lat="70.755213908" lon="28.7308241742">
		<tag k="fixme" v="consider natural=peak for the most distinct mountains in the district" />
		<tag k="name" v="Stivlečohkka" />
		<tag k="name:se" v="Stivlečohkka" />
		<tag k="natural" v="hill" />
		<tag k="old_name:se" v="Stivlečåkka" />
		<tag k="place" v="locality" />
		<tag k="ssr:stedsnr" v="930962" />
	</node>
	<node id="-805288" lat="70.8374083559" lon="28.811182526">
		<tag k="name" v="Svandalen" />
		<tag k="natural" v="valley" />
		<tag k="place" v="locality" />
		<tag k="ssr:stedsnr" v="930934" />
	</node>
	<node id="-805287" lat="70.7082305765" lon="28.9309796728">
		<tag k="name" v="Rákkočearru" />
		<tag k="name:se" v="Rákkočearru" />
		<tag k="natural" v="plateau" />
		<tag k="old_name:se" v="Raggučærro" />
		<tag k="ssr:stedsnr" v="930437" />
	</node>
	<node id="-805284" lat="70.6796361392" lon="29.3621544912">
		<tag k="name" v="Storneshaugen" />
		<tag k="natural" v="hill" />
		<tag k="place" v="locality" />
		<tag k="ssr:stedsnr" v="930409" />
	</node>
	<node id="-805281" lat="70.6513694643" lon="28.9146435482">
		<tag k="fixme" v="consider natural=peak for the most distinct mountains in the district" />
		<tag k="name" v="Divgačearru" />
		<tag k="name:se" v="Divgačearru" />
		<tag k="natural" v="hill" />
		<tag k="old_name:se" v="Divgačærro" />
		<tag k="place" v="locality" />
		<tag k="ssr:stedsnr" v="930398" />
	</node>
	<node id="-804767" lat="70.8408805759" lon="29.1476685202">
		<tag k="fixme" v="consider natural=peak for the most distinct mountains in the district" />
		<tag k="name" v="Vargvikfjellet" />
		<tag k="natural" v="hill" />
		<tag k="place" v="locality" />
		<tag k="ssr:stedsnr" v="274237" />
	</node>
	<node id="-804765" lat="70.6786472457" lon="29.2471489839">
		<tag k="name" v="Nikko-Per-haugen" />
		<tag k="natural" v="hill" />
		<tag k="place" v="locality" />
		<tag k="ssr:stedsnr" v="269208" />
	</node>
	<node id="-805274" lat="70.6193611369" lon="28.7666519116">
		<tag k="name" v="Báktegorsa" />
		<tag k="name:se" v="Báktegorsa" />
		<tag k="natural" v="valley" />
		<tag k="old_name:se" v="Baktegårsa" />
		<tag k="place" v="locality" />
		<tag k="ssr:stedsnr" v="930353" />
	</node>
	<node id="-805271" lat="70.7281222431" lon="29.3328378589">
		<tag k="fixme" v="consider natural=peak for the most distinct mountains in the district" />
		<tag k="name" v="Nålnesaksla" />
		<tag k="natural" v="hill" />
		<tag k="place" v="locality" />
		<tag k="ssr:stedsnr" v="875945" />
	</node>
	<node id="-805268" lat="70.783355579" lon="29.2670795772">
		<tag k="name" v="Vesterdalen" />
		<tag k="natural" v="valley" />
		<tag k="place" v="locality" />
		<tag k="ssr:stedsnr" v="870996" />
	</node>
	<node id="-805266" lat="70.8332722468" lon="29.2583240189">
		<tag k="name" v="Styrsletta" />
		<tag k="place" v="locality" />
		<tag k="ssr:stedsnr" v="870981" />
	</node>
	<node id="-805265" lat="70.8639611279" lon="28.8464797179">
		<tag k="name" v="Bukkedalen" />
		<tag k="natural" v="valley" />
		<tag k="place" v="locality" />
		<tag k="ssr:stedsnr" v="870968" />
	</node>
	<node id="-805262" lat="70.8464139053" lon="28.7663130926">
		<tag k="name" v="Kvitnesdalen" />
		<tag k="natural" v="valley" />
		<tag k="place" v="locality" />
		<tag k="ssr:stedsnr" v="870935" />
	</node>
	<node id="-805259" lat="70.5103361402" lon="29.011615682">
		<tag k="fixme" v="consider natural=peak for the most distinct mountains in the district" />
		<tag k="name" v="Skužučohkka" />
		<tag k="name:se" v="Skužučohkka" />
		<tag k="natural" v="hill" />
		<tag k="old_name:se" v="Skužočåkka" />
		<tag k="place" v="locality" />
		<tag k="ssr:stedsnr" v="870508" />
	</node>
	<node id="-805257" lat="70.5763833581" lon="28.9189851878">
		<tag k="name" v="Buevasshøgda" />
		<tag k="natural" v="hill" />
		<tag k="place" v="locality" />
		<tag k="ssr:stedsnr" v="870492" />
	</node>
	<node id="-805249" lat="70.6767278063" lon="29.1731267806">
		<tag k="name" v="Nikko-Per-dalen - Nihkopierleahki" />
		<tag k="name:no" v="Nikko-Per-dalen" />
		<tag k="name:se" v="Nihkopierleahki" />
		<tag k="natural" v="valley" />
		<tag k="old_name:se" v="Nikkupierlækki" />
		<tag k="place" v="locality" />
		<tag k="ssr:stedsnr" v="869444" />
	</node>
	<node id="-805248" lat="70.694458361" lon="29.24689343">
		<tag k="alt_name" v="Falkedalen" />
		<tag k="name" v="Falkdalen" />
		<tag k="natural" v="valley" />
		<tag k="place" v="locality" />
		<tag k="ssr:stedsnr" v="869434" />
	</node>
	<node id="-805247" lat="70.7342055716" lon="28.6059547781">
		<tag k="name" v="Nihkolaigorsa" />
		<tag k="name:se" v="Nihkolaigorsa" />
		<tag k="natural" v="valley" />
		<tag k="old_name:se" v="Nikkulaigårsa" />
		<tag k="place" v="locality" />
		<tag k="ssr:stedsnr" v="869391" />
	</node>
	<node id="-805244" lat="70.6412500203" lon="28.7765435927">
		<tag k="fixme" v="consider natural=peak for the most distinct mountains in the district" />
		<tag k="name" v="Mánjunnás" />
		<tag k="name:se" v="Mánjunnás" />
		<tag k="natural" v="hill" />
		<tag k="old_name:se" v="Manjunnas" />
		<tag k="place" v="locality" />
		<tag k="ssr:stedsnr" v="869366" />
	</node>
	<node id="-805242" lat="70.7194889163" lon="29.3365045298">
		<tag k="name" v="Skansen" />
		<tag k="place" v="locality" />
		<tag k="ssr:stedsnr" v="836926" />
	</node>
	<node id="-805237" lat="70.6280889102" lon="29.1490017856">
		<tag k="name" v="Skånlandbakken" />
		<tag k="natural" v="slope" />
		<tag k="place" v="locality" />
		<tag k="ssr:stedsnr" v="834879" />
	</node>
	<node id="-805223" lat="70.7698389108" lon="28.6679658639">
		<tag k="fixme" v="consider natural=peak for the most distinct mountains in the district" />
		<tag k="name" v="Gussajorranvárri" />
		<tag k="name:se" v="Gussajorranvárri" />
		<tag k="natural" v="hill" />
		<tag k="old_name:se" v="Gussajårranvarri" />
		<tag k="place" v="locality" />
		<tag k="ssr:stedsnr" v="809950" />
	</node>
	<node id="-805221" lat="70.858341687" lon="28.8015408691">
		<tag k="fixme" v="consider natural=peak for the most distinct mountains in the district" />
		<tag k="name" v="Bukkekeilfjellet" />
		<tag k="natural" v="hill" />
		<tag k="place" v="locality" />
		<tag k="ssr:stedsnr" v="809931" />
	</node>
	<node id="-805218" lat="70.5865222524" lon="29.1492545451">
		<tag k="fixme" v="consider natural=peak for the most distinct mountains in the district" />
		<tag k="name" v="Magertoppen - Silesčohkka" />
		<tag k="name:no" v="Magertoppen" />
		<tag k="name:se" v="Silesčohkka" />
		<tag k="natural" v="hill" />
		<tag k="old_name:se" v="Silesčåkka" />
		<tag k="place" v="locality" />
		<tag k="ssr:stedsnr" v="809515" />
	</node>
	<node id="-805215" lat="70.7207278077" lon="29.2749017586">
		<tag k="name" v="Hergedalen" />
		<tag k="natural" v="valley" />
		<tag k="place" v="locality" />
		<tag k="ssr:stedsnr" v="809440" />
	</node>
	<node id="-805214" lat="70.6693139132" lon="29.1112684622">
		<tag k="name" v="Vesterdalen" />
		<tag k="natural" v="valley" />
		<tag k="place" v="locality" />
		<tag k="ssr:stedsnr" v="809431" />
	</node>
	<node id="-805211" lat="70.6814000183" lon="28.5268159093">
		<tag k="name" v="Kuberget" />
		<tag k="natural" v="hill" />
		<tag k="place" v="locality" />
		<tag k="ssr:stedsnr" v="809369" />
	</node>
	<node id="-805210" lat="70.6580833552" lon="28.6990880493">
		<tag k="fixme" v="consider natural=peak for the most distinct mountains in the district" />
		<tag k="name" v="Biegganjunnásčohkka" />
		<tag k="name:se" v="Biegganjunnásčohkka" />
		<tag k="natural" v="hill" />
		<tag k="old_name:se" v="Biegganjunnasčåkka" />
		<tag k="place" v="locality" />
		<tag k="ssr:stedsnr" v="809355" />
	</node>
	<node id="-805209" lat="70.8724027969" lon="29.0214241103">
		<tag k="name" v="Prærien" />
		<tag k="place" v="locality" />
		<tag k="ssr:stedsnr" v="805707" />
	</node>
	<node id="-805208" lat="70.7157805774" lon="29.2954600885">
		<tag k="name" v="Trollberget" />
		<tag k="natural" v="hill" />
		<tag k="place" v="locality" />
		<tag k="ssr:stedsnr" v="774945" />
	</node>
	<node id="-805206" lat="70.7273583563" lon="29.3701017381">
		<tag k="name" v="Vesterhaugen" />
		<tag k="natural" v="hill" />
		<tag k="place" v="locality" />
		<tag k="ssr:stedsnr" v="774940" />
	</node>
	<node id="-805204" lat="70.650955581" lon="29.2499378611">
		<tag k="fixme" v="consider natural=peak for the most distinct mountains in the district" />
		<tag k="name" v="Seterdalsfjellet" />
		<tag k="natural" v="hill" />
		<tag k="place" v="locality" />
		<tag k="ssr:stedsnr" v="774928" />
	</node>
	<node id="-805202" lat="70.8419194639" lon="28.846485286">
		<tag k="fixme" v="consider natural=peak for the most distinct mountains in the district" />
		<tag k="name" v="Svanefjellet" />
		<tag k="natural" v="hill" />
		<tag k="place" v="locality" />
		<tag k="ssr:stedsnr" v="774603" />
	</node>
	<node id="-805200" lat="70.8550639101" lon="29.092862973">
		<tag k="name" v="Iversenhaugen" />
		<tag k="natural" v="hill" />
		<tag k="place" v="locality" />
		<tag k="ssr:stedsnr" v="759275" />
	</node>
	<node id="-805197" lat="70.8321305801" lon="29.1478462919">
		<tag k="fixme" v="consider natural=peak for the most distinct mountains in the district" />
		<tag k="name" v="Revenesfjellet" />
		<tag k="natural" v="hill" />
		<tag k="place" v="locality" />
		<tag k="ssr:stedsnr" v="754944" />
	</node>
	<node id="-804919" lat="70.6052416905" lon="28.9406101965">
		<tag k="fixme" v="consider natural=peak for the most distinct mountains in the district" />
		<tag k="name" v="Buefjell - Dávgečearru" />
		<tag k="name:no" v="Buefjell" />
		<tag k="name:se" v="Dávgečearru" />
		<tag k="natural" v="hill" />
		<tag k="old_name:se" v="Davgečearru;Davgečærro" />
		<tag k="place" v="locality" />
		<tag k="ssr:stedsnr" v="86484" />
	</node>
	<node id="-805188" lat="70.7859000168" lon="28.7330103026">
		<tag k="name" v="Ruovdegurra" />
		<tag k="name:se" v="Ruovdegurra" />
		<tag k="natural" v="valley" />
		<tag k="place" v="locality" />
		<tag k="ssr:stedsnr" v="748956" />
	</node>
	<node id="-805186" lat="70.5987583614" lon="29.1536267829">
		<tag k="name" v="Magerdalen" />
		<tag k="natural" v="valley" />
		<tag k="place" v="locality" />
		<tag k="ssr:stedsnr" v="748493" />
	</node>
	<node id="-805181" lat="70.6794916854" lon="28.7443186013">
		<tag k="name" v="Luostelanleahki" />
		<tag k="name:se" v="Luostelanleahki" />
		<tag k="natural" v="valley" />
		<tag k="old_name:se" v="Luostelanlækki" />
		<tag k="place" v="locality" />
		<tag k="ssr:stedsnr" v="748342" />
	</node>
	<node id="-805180" lat="70.6699194669" lon="28.6687130681">
		<tag k="fixme" v="consider natural=peak for the most distinct mountains in the district" />
		<tag k="name" v="Skálnjuovčča" />
		<tag k="name:se" v="Skálnjuovčča" />
		<tag k="natural" v="hill" />
		<tag k="old_name:se" v="Skalnjuovča" />
		<tag k="place" v="locality" />
		<tag k="ssr:stedsnr" v="748338" />
	</node>
	<node id="-805179" lat="70.8596361321" lon="28.9724491337">
		<tag k="fixme" v="consider natural=peak for the most distinct mountains in the district" />
		<tag k="name" v="Blomsterfjellet" />
		<tag k="natural" v="hill" />
		<tag k="place" v="locality" />
		<tag k="ssr:stedsnr" v="744690" />
	</node>
	<node id="-805178" lat="70.6849000248" lon="29.1549712524">
		<tag k="fixme" v="consider natural=peak for the most distinct mountains in the district" />
		<tag k="name" v="Nikko-Per-top" />
		<tag k="natural" v="hill" />
		<tag k="place" v="locality" />
		<tag k="ssr:stedsnr" v="744076" />
	</node>
	<node id="-805177" lat="70.7124028014" lon="29.2921156309">
		<tag k="name" v="Makkstykket" />
		<tag k="place" v="locality" />
		<tag k="ssr:stedsnr" v="714940" />
	</node>
	<node id="-805176" lat="70.7250028013" lon="29.3724017163">
		<tag k="name" v="Storhaugen" />
		<tag k="natural" v="hill" />
		<tag k="place" v="locality" />
		<tag k="ssr:stedsnr" v="714920" />
	</node>
	<node id="-805175" lat="70.7257472483" lon="29.367682286">
		<tag k="name" v="Midterhaugen" />
		<tag k="natural" v="hill" />
		<tag k="place" v="locality" />
		<tag k="ssr:stedsnr" v="714917" />
	</node>
	<node id="-805170" lat="70.8747805747" lon="28.9522241571">
		<tag k="name" v="Vannlia" />
		<tag k="natural" v="slope" />
		<tag k="place" v="locality" />
		<tag k="ssr:stedsnr" v="713569" />
	</node>
	<node id="-805168" lat="70.6515639173" lon="29.2876600646">
		<tag k="name" v="Hundelvdalen" />
		<tag k="natural" v="valley" />
		<tag k="place" v="locality" />
		<tag k="ssr:stedsnr" v="709991" />
	</node>
	<node id="-805162" lat="70.738163911" lon="29.246985113">
		<tag k="name" v="Vestre Risfjordbotn" />
		<tag k="place" v="locality" />
		<tag k="ssr:stedsnr" v="693949" />
	</node>
	<node id="-805156" lat="70.7820778002" lon="28.6879853064">
		<tag k="name" v="Bárši" />
		<tag k="name:se" v="Bárši" />
		<tag k="natural" v="hill" />
		<tag k="old_name:se" v="Barši" />
		<tag k="place" v="locality" />
		<tag k="ssr:stedsnr" v="688956" />
	</node>
	<node id="-805155" lat="70.7080278091" lon="29.6306599505">
		<tag k="name" v="Vestre Rubbedalen" />
		<tag k="natural" v="valley" />
		<tag k="old_name" v="Rubbedalen, vestre" />
		<tag k="place" v="locality" />
		<tag k="ssr:stedsnr" v="688484" />
	</node>
	<node id="-805149" lat="70.6676278011" lon="28.9869101761">
		<tag k="name" v="Kjerkehaugen" />
		<tag k="natural" v="hill" />
		<tag k="place" v="locality" />
		<tag k="ssr:stedsnr" v="687403" />
	</node>
	<node id="-805145" lat="70.7054000198" lon="28.5557742178">
		<tag k="name" v="Vitnjalasvággi" />
		<tag k="name:se" v="Vitnjalasvággi" />
		<tag k="natural" v="valley" />
		<tag k="old_name:se" v="Vidnjalasvaggi" />
		<tag k="place" v="locality" />
		<tag k="ssr:stedsnr" v="687362" />
	</node>
	<node id="-805144" lat="70.7171861285" lon="28.5464881081">
		<tag k="name" v="Vákkáš" />
		<tag k="name:se" v="Vákkáš" />
		<tag k="natural" v="valley" />
		<tag k="old_name:se" v="Vaggaš" />
		<tag k="place" v="locality" />
		<tag k="ssr:stedsnr" v="687360" />
	</node>
	<node id="-804769" lat="70.6246944701" lon="29.1069184576">
		<tag k="name" v="Gednjehaugen" />
		<tag k="natural" v="hill" />
		<tag k="place" v="locality" />
		<tag k="ssr:stedsnr" v="287885" />
	</node>
	<node id="-805140" lat="70.862177796" lon="28.9028186023">
		<tag k="name" v="Bukkedalen" />
		<tag k="natural" v="valley" />
		<tag k="place" v="locality" />
		<tag k="ssr:stedsnr" v="652705" />
	</node>
	<node id="-805139" lat="70.8330472403" lon="28.9617324513">
		<tag k="name" v="Langlihøgda" />
		<tag k="natural" v="hill" />
		<tag k="place" v="locality" />
		<tag k="ssr:stedsnr" v="652698" />
	</node>
	<node id="-805135" lat="70.8497916891" lon="29.0848768836">
		<tag k="name" v="Iversenraet" />
		<tag k="natural" v="hill" />
		<tag k="place" v="locality" />
		<tag k="ssr:stedsnr" v="638260" />
	</node>
	<node id="-805134" lat="70.8567527981" lon="29.0641185385">
		<tag k="name" v="Grønnlia" />
		<tag k="natural" v="slope" />
		<tag k="place" v="locality" />
		<tag k="ssr:stedsnr" v="637325" />
	</node>
	<node id="-805129" lat="70.759208359" lon="29.2926462237">
		<tag k="name" v="Nordmannsetdalen" />
		<tag k="natural" v="valley" />
		<tag k="place" v="locality" />
		<tag k="ssr:stedsnr" v="627999" />
	</node>
	<node id="-805126" lat="70.8361028015" lon="29.1210046462">
		<tag k="name" v="Revnestoppen" />
		<tag k="natural" v="hill" />
		<tag k="place" v="locality" />
		<tag k="ssr:stedsnr" v="627986" />
	</node>
	<node id="-805122" lat="70.7710250165" lon="28.7052825323">
		<tag k="fixme" v="consider natural=peak for the most distinct mountains in the district" />
		<tag k="name" v="Urravárri" />
		<tag k="name:se" v="Urravárri" />
		<tag k="natural" v="hill" />
		<tag k="old_name:se" v="Urravarri" />
		<tag k="place" v="locality" />
		<tag k="ssr:stedsnr" v="627967" />
	</node>
	<node id="-805120" lat="70.5524305803" lon="29.2950628181">
		<tag k="fixme" v="consider natural=peak for the most distinct mountains in the district" />
		<tag k="name" v="Storkløftfjellet" />
		<tag k="natural" v="hill" />
		<tag k="place" v="locality" />
		<tag k="ssr:stedsnr" v="626520" />
	</node>
	<node id="-805118" lat="70.5724222455" lon="29.2293017385">
		<tag k="fixme" v="consider natural=peak for the most distinct mountains in the district" />
		<tag k="name" v="Magerfjellet - Silesvárri" />
		<tag k="name:no" v="Magerfjellet" />
		<tag k="name:se" v="Silesvárri" />
		<tag k="natural" v="hill" />
		<tag k="old_name:se" v="Silesvarri" />
		<tag k="place" v="locality" />
		<tag k="ssr:stedsnr" v="626518" />
	</node>
	<node id="-805115" lat="70.6935361364" lon="28.8600380065">
		<tag k="fixme" v="consider natural=peak for the most distinct mountains in the district" />
		<tag k="name" v="Rákkočohkka" />
		<tag k="name:se" v="Rákkočohkka" />
		<tag k="natural" v="hill" />
		<tag k="old_name:se" v="Raggučåkka" />
		<tag k="place" v="locality" />
		<tag k="ssr:stedsnr" v="626437" />
	</node>
	<node id="-805113" lat="70.6771250215" lon="28.5314936823">
		<tag k="fixme" v="consider natural=peak for the most distinct mountains in the district" />
		<tag k="name" v="Njárgačohkka" />
		<tag k="name:se" v="Njárgačohkka" />
		<tag k="natural" v="hill" />
		<tag k="old_name:se" v="Njargačåkka" />
		<tag k="place" v="locality" />
		<tag k="ssr:stedsnr" v="626379" />
	</node>
	<node id="-805109" lat="70.8334000189" lon="29.0188046569">
		<tag k="fixme" v="consider natural=peak for the most distinct mountains in the district" />
		<tag k="name" v="Stortufjellet" />
		<tag k="natural" v="hill" />
		<tag k="place" v="locality" />
		<tag k="ssr:stedsnr" v="592746" />
	</node>
	<node id="-805108" lat="70.8529722403" lon="29.0563213106">
		<tag k="name" v="Breidalen" />
		<tag k="natural" v="valley" />
		<tag k="place" v="locality" />
		<tag k="ssr:stedsnr" v="578255" />
	</node>
	<node id="-805106" lat="70.8589000238" lon="29.0812657769">
		<tag k="name" v="Sankthanshaugen" />
		<tag k="natural" v="hill" />
		<tag k="place" v="locality" />
		<tag k="ssr:stedsnr" v="577297" />
	</node>
	<node id="-805104" lat="70.6856028005" lon="29.2524073111">
		<tag k="name" v="Nikko-Per-høgda" />
		<tag k="natural" v="hill" />
		<tag k="place" v="locality" />
		<tag k="ssr:stedsnr" v="572223" />
	</node>
	<node id="-805095" lat="70.8376555762" lon="29.1680796153">
		<tag k="name" v="Vargvikdalen" />
		<tag k="natural" v="valley" />
		<tag k="place" v="locality" />
		<tag k="ssr:stedsnr" v="566973" />
	</node>
	<node id="-805092" lat="70.7288916979" lon="29.6802488164">
		<tag k="fixme" v="consider natural=peak for the most distinct mountains in the district" />
		<tag k="name" v="Tindan" />
		<tag k="natural" v="hill" />
		<tag k="place" v="locality" />
		<tag k="ssr:stedsnr" v="566500" />
	</node>
	<node id="-805087" lat="70.6639889172" lon="29.0320990607">
		<tag k="name" v="Sauedalen" />
		<tag k="natural" v="valley" />
		<tag k="place" v="locality" />
		<tag k="ssr:stedsnr" v="566415" />
	</node>
	<node id="-805084" lat="70.6849000248" lon="29.1549712524">
		<tag k="fixme" v="consider natural=peak for the most distinct mountains in the district" />
		<tag k="name" v="Nikko-Per-fjellet" />
		<tag k="natural" v="hill" />
		<tag k="place" v="locality" />
		<tag k="ssr:stedsnr" v="566404" />
	</node>
	<node id="-805082" lat="70.6066778015" lon="29.1082684497">
		<tag k="name" v="Tranga" />
		<tag k="natural" v="gorge" />
		<tag k="ssr:stedsnr" v="566394" />
	</node>
	<node id="-805077" lat="70.7248611363" lon="28.7711963809">
		<tag k="name" v="Rákkojalggáš" />
		<tag k="name:se" v="Rákkojalggáš" />
		<tag k="old_name:se" v="Raggujalgaš" />
		<tag k="place" v="locality" />
		<tag k="ssr:stedsnr" v="565349" />
	</node>
	<node id="-805076" lat="70.6849166876" lon="28.6898241909">
		<tag k="fixme" v="consider natural=peak for the most distinct mountains in the district" />
		<tag k="name" v="Gåsfjellet" />
		<tag k="natural" v="hill" />
		<tag k="place" v="locality" />
		<tag k="ssr:stedsnr" v="565334" />
	</node>
	<node id="-805075" lat="70.6819444641" lon="28.6387852956">
		<tag k="name" v="Klippen - Bákti" />
		<tag k="name:no" v="Klippen" />
		<tag k="name:se" v="Bákti" />
		<tag k="natural" v="hill" />
		<tag k="old_name:se" v="Bakti" />
		<tag k="place" v="locality" />
		<tag k="ssr:stedsnr" v="565332" />
	</node>
	<node id="-805071" lat="70.6507166891" lon="29.136618471">
		<tag k="name" v="Hanshaugen" />
		<tag k="natural" v="hill" />
		<tag k="place" v="locality" />
		<tag k="ssr:stedsnr" v="531914" />
	</node>
	<node id="-805070" lat="70.6121166881" lon="29.1038767995">
		<tag k="fixme" v="consider natural=peak for the most distinct mountains in the district" />
		<tag k="name" v="Sukkertoppen" />
		<tag k="natural" v="hill" />
		<tag k="place" v="locality" />
		<tag k="ssr:stedsnr" v="531910" />
	</node>
	<node id="-805068" lat="70.6466972513" lon="29.1973295459">
		<tag k="name" v="Østerhaugen" />
		<tag k="natural" v="hill" />
		<tag k="place" v="locality" />
		<tag k="ssr:stedsnr" v="530881" />
	</node>
	<node id="-805065" lat="70.7288194761" lon="29.6727960529">
		<tag k="name" v="Staurene" />
		<tag k="natural" v="hill" />
		<tag k="place" v="locality" />
		<tag k="ssr:stedsnr" v="511530" />
	</node>
	<node id="-805060" lat="70.80732502" lon="28.9662741076">
		<tag k="fixme" v="consider natural=peak for the most distinct mountains in the district" />
		<tag k="name" v="Mordartoppen" />
		<tag k="natural" v="hill" />
		<tag k="place" v="locality" />
		<tag k="ssr:stedsnr" v="506983" />
	</node>
	<node id="-805057" lat="70.8200305799" lon="29.1175351887">
		<tag k="name" v="Løkvikdalen" />
		<tag k="natural" v="valley" />
		<tag k="place" v="locality" />
		<tag k="ssr:stedsnr" v="505978" />
	</node>
	<node id="-805055" lat="70.8621778009" lon="29.0020546807">
		<tag k="name" v="Svartneshaugen" />
		<tag k="natural" v="hill" />
		<tag k="place" v="locality" />
		<tag k="ssr:stedsnr" v="505959" />
	</node>
	<node id="-805046" lat="70.6309611421" lon="29.3709600313">
		<tag k="fixme" v="consider natural=peak for the most distinct mountains in the district" />
		<tag k="name" v="Hundtoppen - Beatnatčohkat" />
		<tag k="name:no" v="Hundtoppen" />
		<tag k="name:se" v="Beatnatčohkat" />
		<tag k="natural" v="hill" />
		<tag k="old_name:se" v="Bædnatčåkkat" />
		<tag k="place" v="locality" />
		<tag k="ssr:stedsnr" v="505394" />
	</node>
	<node id="-805043" lat="70.862461134" lon="28.9834463527">
		<tag k="name" v="Kuelvdalen" />
		<tag k="natural" v="valley" />
		<tag k="place" v="locality" />
		<tag k="ssr:stedsnr" v="501687" />
	</node>
	<node id="-805040" lat="70.8467389074" lon="29.0211963444">
		<tag k="name" v="Grønnlihøgda" />
		<tag k="natural" v="hill" />
		<tag k="place" v="locality" />
		<tag k="ssr:stedsnr" v="471703" />
	</node>
	<node id="-805039" lat="70.8579166873" lon="28.9143019411">
		<tag k="name" v="Skonsvikdalen" />
		<tag k="natural" v="valley" />
		<tag k="place" v="locality" />
		<tag k="ssr:stedsnr" v="470557" />
	</node>
	<node id="-805038" lat="70.655713918" lon="29.2107101062">
		<tag k="name" v="Svarthaugen" />
		<tag k="natural" v="hill" />
		<tag k="place" v="locality" />
		<tag k="ssr:stedsnr" v="469898" />
	</node>
	<node id="-805037" lat="70.8684027964" lon="29.0497657866">
		<tag k="name" v="Torvbergan" />
		<tag k="natural" v="hill" />
		<tag k="place" v="locality" />
		<tag k="ssr:stedsnr" v="457285" />
	</node>
	<node id="-805035" lat="70.8530611303" lon="28.7660380758">
		<tag k="fixme" v="consider natural=peak for the most distinct mountains in the district" />
		<tag k="name" v="Kvitnesaksla" />
		<tag k="natural" v="hill" />
		<tag k="place" v="locality" />
		<tag k="ssr:stedsnr" v="451511" />
	</node>
	<node id="-805028" lat="70.7972083503" lon="28.6753742114">
		<tag k="fixme" v="consider natural=peak for the most distinct mountains in the district" />
		<tag k="name" v="Stigen - Stiiga" />
		<tag k="name:no" v="Stigen" />
		<tag k="name:se" v="Stiiga" />
		<tag k="natural" v="hill" />
		<tag k="place" v="locality" />
		<tag k="ssr:stedsnr" v="445953" />
	</node>
	<node id="-805023" lat="70.6640389144" lon="29.3596517058">
		<tag k="fixme" v="consider natural=peak for the most distinct mountains in the district" />
		<tag k="name" v="Strømstinden" />
		<tag k="natural" v="hill" />
		<tag k="place" v="locality" />
		<tag k="ssr:stedsnr" v="445397" />
	</node>
	<node id="-805020" lat="70.6392833586" lon="28.7582269165">
		<tag k="name" v="Stuorrajokgorsa" />
		<tag k="name:se" v="Stuorrajokgorsa" />
		<tag k="natural" v="valley" />
		<tag k="old_name:se" v="Stuorrajåkgårsa" />
		<tag k="place" v="locality" />
		<tag k="ssr:stedsnr" v="445343" />
	</node>
	<node id="-805017" lat="70.8441944646" lon="28.9670380141">
		<tag k="fixme" v="consider natural=peak for the most distinct mountains in the district" />
		<tag k="name" v="Lillevarden" />
		<tag k="natural" v="hill" />
		<tag k="ssr:stedsnr" v="263981" />
	</node>
	<node id="-805011" lat="70.7713750158" lon="28.6453131025">
		<tag k="name" v="Beantabákti" />
		<tag k="name:se" v="Beantabákti" />
		<tag k="natural" v="hill" />
		<tag k="old_name:se" v="Bæntabakti" />
		<tag k="place" v="locality" />
		<tag k="ssr:stedsnr" v="263954" />
	</node>
	<node id="-805010" lat="70.7818889092" lon="28.7662491887">
		<tag k="name" v="Stuorrajokgorsa" />
		<tag k="name:se" v="Stuorrajokgorsa" />
		<tag k="natural" v="valley" />
		<tag k="old_name:se" v="Stuorrajåkgårsa" />
		<tag k="place" v="locality" />
		<tag k="ssr:stedsnr" v="263955" />
	</node>
	<node id="-805005" lat="70.6933694713" lon="29.4934655465">
		<tag k="fixme" v="consider natural=peak for the most distinct mountains in the district" />
		<tag k="name" v="Bjørnviktoppen" />
		<tag k="natural" v="hill" />
		<tag k="ssr:stedsnr" v="263499" />
	</node>
	<node id="-805142" lat="70.6546639155" lon="28.6957741666">
		<tag k="name" v="Sørdalen" />
		<tag k="natural" v="valley" />
		<tag k="place" v="locality" />
		<tag k="ssr:stedsnr" v="687345" />
	</node>
	<node id="-804994" lat="70.7222194643" lon="28.6485936347">
		<tag k="name" v="Baikačearru" />
		<tag k="name:se" v="Baikačearru" />
		<tag k="natural" v="plateau" />
		<tag k="old_name:se" v="Baikačærro" />
		<tag k="ssr:stedsnr" v="262357" />
	</node>
	<node id="-804993" lat="70.8361944604" lon="28.98192413">
		<tag k="name" v="Langlia" />
		<tag k="natural" v="slope" />
		<tag k="place" v="locality" />
		<tag k="ssr:stedsnr" v="259677" />
	</node>
	<node id="-804992" lat="70.7027527999" lon="29.2454350905">
		<tag k="name" v="Holmhaugen" />
		<tag k="natural" v="hill" />
		<tag k="place" v="locality" />
		<tag k="ssr:stedsnr" v="228943" />
	</node>
	<node id="-804975" lat="70.7254861317" lon="29.1385129247">
		<tag k="name" v="Vester-Risfjorddalen" />
		<tag k="natural" v="valley" />
		<tag k="place" v="locality" />
		<tag k="ssr:stedsnr" v="202417" />
	</node>
	<node id="-804970" lat="70.7083389106" lon="28.5478686799">
		<tag k="name" v="Lássávággi" />
		<tag k="name:se" v="Lássávággi" />
		<tag k="natural" v="valley" />
		<tag k="old_name:se" v="Lassavaggi" />
		<tag k="place" v="locality" />
		<tag k="ssr:stedsnr" v="202357" />
	</node>
	<node id="-804957" lat="70.8289722411" lon="29.0270824309">
		<tag k="fixme" v="consider natural=peak for the most distinct mountains in the district" />
		<tag k="name" v="Stortuva" />
		<tag k="natural" v="hill" />
		<tag k="place" v="locality" />
		<tag k="ssr:stedsnr" v="148980" />
	</node>
	<node id="-804953" lat="70.7709805749" lon="28.846307472">
		<tag k="fixme" v="consider natural=peak for the most distinct mountains in the district" />
		<tag k="name" v="Njálačohkat" />
		<tag k="name:se" v="Njálačohkat" />
		<tag k="natural" v="hill" />
		<tag k="old_name:se" v="Njalačåkkat" />
		<tag k="place" v="locality" />
		<tag k="ssr:stedsnr" v="141992" />
	</node>
	<node id="-804952" lat="70.7848805789" lon="29.3483684321">
		<tag k="fixme" v="consider natural=peak for the most distinct mountains in the district" />
		<tag k="name" v="Nålnesaksla" />
		<tag k="natural" v="hill" />
		<tag k="ssr:stedsnr" v="141987" />
	</node>
	<node id="-804950" lat="70.7523083522" lon="28.6490908653">
		<tag k="name" v="Sletta" />
		<tag k="natural" v="plateau" />
		<tag k="ssr:stedsnr" v="141948" />
	</node>
	<node id="-804949" lat="70.4918055867" lon="29.1691239594">
		<tag k="fixme" v="consider natural=peak for the most distinct mountains in the district" />
		<tag k="name" v="Davit Njoaskoaivi" />
		<tag k="name:se" v="Davit Njoaskoaivi" />
		<tag k="natural" v="hill" />
		<tag k="old_name:se" v="Njoaskoaivi, davit" />
		<tag k="place" v="locality" />
		<tag k="ssr:stedsnr" v="141945" />
	</node>
	<node id="-804944" lat="70.8757389044" lon="28.8994269395">
		<tag k="alt_name" v="Dikkevikfjellet" />
		<tag k="fixme" v="consider natural=peak for the most distinct mountains in the district" />
		<tag k="name" v="Dikkavikfjellet" />
		<tag k="natural" v="hill" />
		<tag k="place" v="locality" />
		<tag k="ssr:stedsnr" v="141960" />
	</node>
	<node id="-804942" lat="70.8752389106" lon="28.8402630641">
		<tag k="fixme" v="consider natural=peak for the most distinct mountains in the district" />
		<tag k="name" v="Tanahorn - Hoartnavárri" />
		<tag k="name:no" v="Tanahorn" />
		<tag k="name:se" v="Hoartnavárri" />
		<tag k="natural" v="hill" />
		<tag k="old_name:se" v="Hoardnavarri" />
		<tag k="place" v="locality" />
		<tag k="ssr:stedsnr" v="141956" />
	</node>
	<node id="-804939" lat="70.6999416898" lon="29.1526518085">
		<tag k="name" v="Øster-Risfjorddalen" />
		<tag k="natural" v="valley" />
		<tag k="place" v="locality" />
		<tag k="ssr:stedsnr" v="141437" />
	</node>
	<node id="-804935" lat="70.6152639133" lon="29.3220267151">
		<tag k="fixme" v="consider natural=peak for the most distinct mountains in the district" />
		<tag k="name" v="Sæterdalstoppen" />
		<tag k="natural" v="hill" />
		<tag k="place" v="locality" />
		<tag k="ssr:stedsnr" v="141409" />
	</node>
	<node id="-804933" lat="70.7485777974" lon="28.5550158949">
		<tag k="name" v="Fugleberget - Loddebákti" />
		<tag k="name:no" v="Fugleberget" />
		<tag k="name:se" v="Loddebákti" />
		<tag k="natural" v="hill" />
		<tag k="old_name:se" v="Låddebakti" />
		<tag k="place" v="locality" />
		<tag k="ssr:stedsnr" v="140376" />
	</node>
	<node id="-804928" lat="70.6637500253" lon="29.1886323441">
		<tag k="name" v="Vesterdalshaugen" />
		<tag k="natural" v="hill" />
		<tag k="place" v="locality" />
		<tag k="ssr:stedsnr" v="105906" />
	</node>
	<node id="-804927" lat="70.8538889127" lon="29.0627296628">
		<tag k="name" v="Ryplia" />
		<tag k="natural" v="slope" />
		<tag k="place" v="locality" />
		<tag k="ssr:stedsnr" v="93238" />
	</node>
	<node id="-804788" lat="70.7259083611" lon="29.0741268316">
		<tag k="fixme" v="consider natural=peak for the most distinct mountains in the district" />
		<tag k="name" v="Goalsečohkka" />
		<tag k="name:se" v="Goalsečohkka" />
		<tag k="natural" v="hill" />
		<tag k="old_name:se" v="Goalsečåkka" />
		<tag k="place" v="locality" />
		<tag k="ssr:stedsnr" v="323416" />
	</node>
	<node id="-804918" lat="70.6344555819" lon="29.5259266365">
		<tag k="fixme" v="consider natural=peak for the most distinct mountains in the district" />
		<tag k="name" v="Midtfjellet - Guovdoaivi" />
		<tag k="name:no" v="Midtfjellet" />
		<tag k="name:se" v="Guovdoaivi" />
		<tag k="natural" v="hill" />
		<tag k="old_name:se" v="Guovdaoaivi" />
		<tag k="place" v="locality" />
		<tag k="ssr:stedsnr" v="86444" />
	</node>
	<node id="-804916" lat="70.8245555762" lon="28.9247574844">
		<tag k="fixme" v="consider natural=peak for the most distinct mountains in the district" />
		<tag k="name" v="Midtfjellet - Ilis" />
		<tag k="name:no" v="Midtfjellet" />
		<tag k="name:se" v="Ilis" />
		<tag k="natural" v="hill" />
		<tag k="place" v="locality" />
		<tag k="ssr:stedsnr" v="81981" />
	</node>
	<node id="-804912" lat="70.7988527949" lon="28.6875742017">
		<tag k="name" v="Oamegurra" />
		<tag k="name:se" v="Oamegurra" />
		<tag k="natural" v="valley" />
		<tag k="place" v="locality" />
		<tag k="ssr:stedsnr" v="81949" />
	</node>
	<node id="-804911" lat="70.7958166821" lon="28.754790862">
		<tag k="fixme" v="consider natural=peak for the most distinct mountains in the district" />
		<tag k="name" v="Vihttalohvárri" />
		<tag k="name:se" v="Vihttalohvárri" />
		<tag k="natural" v="hill" />
		<tag k="old_name:se" v="Vittalåkvarri" />
		<tag k="place" v="locality" />
		<tag k="ssr:stedsnr" v="81947" />
	</node>
	<node id="-804909" lat="70.5337083568" lon="29.1549962048">
		<tag k="fixme" v="consider natural=peak for the most distinct mountains in the district" />
		<tag k="name" v="Magistertoppen - Mágisttarčohkka" />
		<tag k="name:no" v="Magistertoppen" />
		<tag k="name:se" v="Mágisttarčohkka" />
		<tag k="natural" v="hill" />
		<tag k="old_name:se" v="Magistarčåkka" />
		<tag k="place" v="locality" />
		<tag k="ssr:stedsnr" v="81522" />
	</node>
	<node id="-805298" lat="70.7659055787" lon="29.2808462108">
		<tag k="name" v="Kvalvikhøgda" />
		<tag k="natural" v="hill" />
		<tag k="place" v="locality" />
		<tag k="ssr:stedsnr" v="931999" />
	</node>
	<node id="-804905" lat="70.6681527984" lon="28.9307713131">
		<tag k="name" v="Langdalen" />
		<tag k="natural" v="valley" />
		<tag k="place" v="locality" />
		<tag k="ssr:stedsnr" v="81429" />
	</node>
	<node id="-804904" lat="70.6819750282" lon="29.3967294766">
		<tag k="name" v="Sandbuktdalen" />
		<tag k="natural" v="valley" />
		<tag k="place" v="locality" />
		<tag k="ssr:stedsnr" v="81423" />
	</node>
	<node id="-804900" lat="70.7405166879" lon="29.0898240489">
		<tag k="fixme" v="consider natural=peak for the most distinct mountains in the district" />
		<tag k="name" v="Meresvárri" />
		<tag k="name:se" v="Meresvárri" />
		<tag k="natural" v="hill" />
		<tag k="old_name:se" v="Meresvarri" />
		<tag k="place" v="locality" />
		<tag k="ssr:stedsnr" v="80430" />
	</node>
	<node id="-804899" lat="70.7074555851" lon="29.2691962">
		<tag k="fixme" v="multiple name tags, choose one and add the other to alt_name" />
		<tag k="name" v="Kobbkrokhøgda;Kongsfjordfjell - Goađáščohkka" />
		<tag k="name:no" v="Kobbkrokhøgda;Kongsfjordfjell" />
		<tag k="name:se" v="Goađáščohkka" />
		<tag k="natural" v="hill" />
		<tag k="old_name:se" v="Goađaščåkka" />
		<tag k="place" v="locality" />
		<tag k="ssr:stedsnr" v="80422" />
	</node>
	<node id="-804894" lat="70.7233111345" lon="29.3130517493">
		<tag k="name" v="Plogvikhøgda" />
		<tag k="natural" v="hill" />
		<tag k="place" v="locality" />
		<tag k="ssr:stedsnr" v="47920" />
	</node>
	<node id="-804889" lat="70.5981277994" lon="29.1327767824">
		<tag k="name" v="Magerdalshøgda" />
		<tag k="natural" v="hill" />
		<tag k="place" v="locality" />
		<tag k="ssr:stedsnr" v="46909" />
	</node>
	<node id="-804880" lat="70.8309305782" lon="28.746338096">
		<tag k="fixme" v="multiple name tags, choose one and add the other to alt_name; consider natural=peak for the most distinct mountains in the district" />
		<tag k="name" v="Kvitnesfjellet;Molvikfjellet - Goahtu" />
		<tag k="name:no" v="Kvitnesfjellet;Molvikfjellet" />
		<tag k="name:se" v="Goahtu" />
		<tag k="natural" v="hill" />
		<tag k="old_name:se" v="Goatto" />
		<tag k="place" v="locality" />
		<tag k="ssr:stedsnr" v="25919" />
	</node>
	<node id="-804878" lat="70.8776805756" lon="28.9034658249">
		<tag k="name" v="Stuorrabákti" />
		<tag k="name:se" v="Stuorrabákti" />
		<tag k="natural" v="hill" />
		<tag k="old_name:se" v="Stuorrabakti" />
		<tag k="place" v="locality" />
		<tag k="ssr:stedsnr" v="20972" />
	</node>
	<node id="-804877" lat="70.7529472457" lon="28.68292976">
		<tag k="name" v="Suorgeleahki" />
		<tag k="name:se" v="Suorgeleahki" />
		<tag k="natural" v="valley" />
		<tag k="old_name:se" v="Suorgelækki" />
		<tag k="place" v="locality" />
		<tag k="ssr:stedsnr" v="20969" />
	</node>
	<node id="-804876" lat="70.7695222421" lon="28.7747825153">
		<tag k="name" v="Guhkesgorsa" />
		<tag k="name:se" v="Guhkesgorsa" />
		<tag k="natural" v="valley" />
		<tag k="old_name:se" v="Gukkesgårsa" />
		<tag k="place" v="locality" />
		<tag k="ssr:stedsnr" v="20968" />
	</node>
	<node id="-804874" lat="70.5871944739" lon="29.404854445">
		<tag k="fixme" v="consider natural=peak for the most distinct mountains in the district" />
		<tag k="name" v="Álosoaivi" />
		<tag k="name:se" v="Álosoaivi" />
		<tag k="natural" v="hill" />
		<tag k="old_name:se" v="Alusoaivi" />
		<tag k="place" v="locality" />
		<tag k="ssr:stedsnr" v="20486" />
	</node>
	<node id="-804873" lat="70.6765750327" lon="29.6249654984">
		<tag k="fixme" v="consider natural=peak for the most distinct mountains in the district" />
		<tag k="name" v="Rubbedalshøgda" />
		<tag k="natural" v="hill" />
		<tag k="place" v="locality" />
		<tag k="ssr:stedsnr" v="20479" />
	</node>
	<node id="-804869" lat="70.6741416907" lon="29.089190716">
		<tag k="fixme" v="consider natural=peak for the most distinct mountains in the district" />
		<tag k="name" v="Lomtoppen" />
		<tag k="natural" v="hill" />
		<tag k="place" v="locality" />
		<tag k="ssr:stedsnr" v="20404" />
	</node>
	<node id="-804866" lat="70.6216778074" lon="29.2228461912">
		<tag k="name" v="Bryggaridalen" />
		<tag k="natural" v="valley" />
		<tag k="place" v="locality" />
		<tag k="ssr:stedsnr" v="20392" />
	</node>
</osm>
