<?xml version="1.0" encoding="UTF-8"?>
<osm generator="osmapis" version="0.6">
	<node id="-803821" lat="70.6585722496" lon="29.256662877">
		<tag k="name" v="Lasteplassneset" />
		<tag k="natural" v="cape" />
		<tag k="ssr:stedsnr" v="956932" />
	</node>
	<node id="-803820" lat="70.868052799" lon="28.9500658255">
		<tag k="name" v="Dalbakken" />
		<tag k="natural" v="slope" />
		<tag k="place" v="locality" />
		<tag k="ssr:stedsnr" v="956600" />
	</node>
	<node id="-803819" lat="70.6468166945" lon="29.1676656625">
		<tag k="name" v="Lensmannsholla" />
		<tag k="place" v="locality" />
		<tag k="ssr:stedsnr" v="955882" />
	</node>
	<node id="-803818" lat="70.651594475" lon="29.2690545254">
		<tag k="name" v="Seterdalselva" />
		<tag k="ssr:stedsnr" v="952993" />
		<tag k="waterway" v="stream" />
	</node>
	<node id="-803817" lat="70.8710916906" lon="29.0909935489">
		<tag k="name" v="Tollesnesbukta" />
		<tag k="natural" v="bay" />
		<tag k="ssr:stedsnr" v="941291" />
	</node>
	<node id="-803816" lat="70.8346611315" lon="29.0382657772">
		<tag k="name" v="Ruotkoskáidi" />
		<tag k="name:se" v="Ruotkoskáidi" />
		<tag k="natural" v="cape" />
		<tag k="old_name:se" v="Ruotkuskaidi" />
		<tag k="ssr:stedsnr" v="939821" />
	</node>
	<node id="-803815" lat="70.7353666881" lon="28.528202009">
		<tag k="name" v="Fossvika" />
		<tag k="natural" v="bay" />
		<tag k="ssr:stedsnr" v="937313" />
	</node>
	<node id="-803814" lat="70.5054555788" lon="28.7945296424">
		<tag k="fixme" v="consider natural=peak for the most distinct mountains in the district" />
		<tag k="name" v="Hanglefjellet - Hakŋalančearru" />
		<tag k="name:no" v="Hanglefjellet" />
		<tag k="name:se" v="Hakŋalančearru" />
		<tag k="natural" v="hill" />
		<tag k="old_name:se" v="Hagŋalančærro" />
		<tag k="place" v="locality" />
		<tag k="ssr:stedsnr" v="936421" />
	</node>
	<node id="-803813" lat="70.7677000268" lon="29.0805324078">
		<tag k="fixme" v="consider natural=peak for the most distinct mountains in the district" />
		<tag k="name" v="Storvarden" />
		<tag k="natural" v="hill" />
		<tag k="ssr:stedsnr" v="936162" />
	</node>
	<node id="-803812" lat="70.7659055787" lon="29.2808462108">
		<tag k="name" v="Kvalvikhøgda" />
		<tag k="natural" v="hill" />
		<tag k="place" v="locality" />
		<tag k="ssr:stedsnr" v="931999" />
	</node>
	<node id="-803811" lat="70.7685555802" lon="29.2613295748">
		<tag k="name" v="Hamnelvvannet" />
		<tag k="natural" v="water" />
		<tag k="ssr:stedsnr" v="932000" />
	</node>
	<node id="-803810" lat="70.7991861378" lon="29.2289962443">
		<tag k="name" v="Sandfjordskardet" />
		<tag k="natural" v="valley" />
		<tag k="place" v="locality" />
		<tag k="ssr:stedsnr" v="931992" />
	</node>
	<node id="-803809" lat="70.8020972482" lon="29.2222323701">
		<tag k="fixme" v="consider natural=peak for the most distinct mountains in the district" />
		<tag k="name" v="Sandfjordfjellet" />
		<tag k="natural" v="hill" />
		<tag k="place" v="locality" />
		<tag k="ssr:stedsnr" v="931990" />
	</node>
	<node id="-803808" lat="70.7630500251" lon="29.3580989692">
		<tag k="name" v="Nordmannsetneset" />
		<tag k="natural" v="cape" />
		<tag k="ssr:stedsnr" v="931546" />
	</node>
	<node id="-803807" lat="70.6748528004" lon="28.6561741822">
		<tag k="name" v="Trollfjordelva - Stuorrajohka" />
		<tag k="name:no" v="Trollfjordelva" />
		<tag k="name:se" v="Stuorrajohka" />
		<tag k="old_name:se" v="Stuorrajåkka" />
		<tag k="ssr:stedsnr" v="931108" />
		<tag k="waterway" v="river" />
	</node>
	<node id="-803806" lat="70.8492611324" lon="29.2123490571">
		<tag k="fixme" v="consider natural=peak for the most distinct mountains in the district" />
		<tag k="name" v="Kjølnesaksla" />
		<tag k="natural" v="hill" />
		<tag k="place" v="locality" />
		<tag k="ssr:stedsnr" v="930974" />
	</node>
	<node id="-803805" lat="70.8593694679" lon="28.9458880361">
		<tag k="name" v="Rundvannet" />
		<tag k="natural" v="water" />
		<tag k="ssr:stedsnr" v="930972" />
	</node>
	<node id="-803804" lat="70.8818000219" lon="28.9773908104">
		<tag k="alt_name" v="Fugleneset" />
		<tag k="name" v="Fuglenes" />
		<tag k="natural" v="cape" />
		<tag k="ssr:stedsnr" v="930965" />
	</node>
	<node id="-803803" lat="70.755213908" lon="28.7308241742">
		<tag k="fixme" v="consider natural=peak for the most distinct mountains in the district" />
		<tag k="name" v="Stivlečohkka" />
		<tag k="name:se" v="Stivlečohkka" />
		<tag k="natural" v="hill" />
		<tag k="old_name:se" v="Stivlečåkka" />
		<tag k="place" v="locality" />
		<tag k="ssr:stedsnr" v="930962" />
	</node>
	<node id="-803802" lat="70.8374083559" lon="28.811182526">
		<tag k="name" v="Svandalen" />
		<tag k="natural" v="valley" />
		<tag k="place" v="locality" />
		<tag k="ssr:stedsnr" v="930934" />
	</node>
	<node id="-803801" lat="70.7082305765" lon="28.9309796728">
		<tag k="name" v="Rákkočearru" />
		<tag k="name:se" v="Rákkočearru" />
		<tag k="natural" v="plateau" />
		<tag k="old_name:se" v="Raggučærro" />
		<tag k="ssr:stedsnr" v="930437" />
	</node>
	<node id="-803799" lat="70.7314361323" lon="29.0586740529">
		<tag k="name" v="Áldojohka" />
		<tag k="name:se" v="Áldojohka" />
		<tag k="old_name:se" v="Aldujåkka" />
		<tag k="ssr:stedsnr" v="930425" />
		<tag k="waterway" v="stream" />
	</node>
	<node id="-803798" lat="70.6796361392" lon="29.3621544912">
		<tag k="name" v="Storneshaugen" />
		<tag k="natural" v="hill" />
		<tag k="place" v="locality" />
		<tag k="ssr:stedsnr" v="930409" />
	</node>
	<node id="-803797" lat="70.615800029" lon="29.2848739483">
		<tag k="name" v="Sæterdalsvatna" />
		<tag k="natural" v="water" />
		<tag k="ssr:stedsnr" v="930405" />
		<tag k="water" v="lake" />
	</node>
	<node id="-803796" lat="70.638494469" lon="29.0680490364">
		<tag k="alt_name:no" v="Kløftvatnet, l" />
		<tag k="name" v="Lille Kløftvatnet - Uhca Loapmejávri" />
		<tag k="name:no" v="Lille Kløftvatnet" />
		<tag k="name:se" v="Uhca Loapmejávri" />
		<tag k="natural" v="water" />
		<tag k="old_name:se" v="Loabmejavri ucca" />
		<tag k="ssr:stedsnr" v="930402" />
	</node>
	<node id="-803795" lat="70.6513694643" lon="28.9146435482">
		<tag k="fixme" v="consider natural=peak for the most distinct mountains in the district" />
		<tag k="name" v="Divgačearru" />
		<tag k="name:se" v="Divgačearru" />
		<tag k="natural" v="hill" />
		<tag k="old_name:se" v="Divgačærro" />
		<tag k="place" v="locality" />
		<tag k="ssr:stedsnr" v="930398" />
	</node>
	<node id="-803794" lat="70.6603083582" lon="29.2315461921">
		<tag k="name" v="Stormyra" />
		<tag k="natural" v="wetland" />
		<tag k="ssr:stedsnr" v="930396" />
	</node>
	<node id="-803793" lat="70.6469916948" lon="29.2590739777">
		<tag k="name" v="Guohcagopjohka" />
		<tag k="name:se" v="Guohcagopjohka" />
		<tag k="old_name:se" v="Guoccagåpjåkka" />
		<tag k="ssr:stedsnr" v="930394" />
		<tag k="waterway" v="stream" />
	</node>
	<node id="-803792" lat="70.6531305833" lon="29.2725795166">
		<tag k="name" v="Sæterbukta" />
		<tag k="natural" v="bay" />
		<tag k="ssr:stedsnr" v="930393" />
	</node>
	<node id="-803791" lat="70.6834722397" lon="28.5090686687">
		<tag k="name" v="Gulgoneset - Vuođavuonnjárga" />
		<tag k="name:no" v="Gulgoneset" />
		<tag k="name:se" v="Vuođavuonnjárga" />
		<tag k="natural" v="cape" />
		<tag k="old_name:se" v="Vuođavuonnjarga" />
		<tag k="ssr:stedsnr" v="930371" />
	</node>
	<node id="-803790" lat="70.6883666837" lon="28.7129547322">
		<tag k="name" v="Čuonjejávri" />
		<tag k="name:se" v="Čuonjejávri" />
		<tag k="natural" v="water" />
		<tag k="old_name:se" v="Čuonjejavri" />
		<tag k="ssr:stedsnr" v="930367" />
	</node>
	<node id="-803789" lat="70.6769833554" lon="28.5811630914">
		<tag k="name" v="Liboklubben - Liibu" />
		<tag k="name:no" v="Liboklubben" />
		<tag k="name:se" v="Liibu" />
		<tag k="natural" v="cape" />
		<tag k="old_name:se" v="Liibo" />
		<tag k="ssr:stedsnr" v="930364" />
	</node>
	<node id="-803788" lat="70.6193611369" lon="28.7666519116">
		<tag k="name" v="Báktegorsa" />
		<tag k="name:se" v="Báktegorsa" />
		<tag k="natural" v="valley" />
		<tag k="old_name:se" v="Baktegårsa" />
		<tag k="place" v="locality" />
		<tag k="ssr:stedsnr" v="930353" />
	</node>
	<node id="-803787" lat="70.8717472402" lon="29.0693407677">
		<tag k="name" v="Kål-vannet" />
		<tag k="natural" v="water" />
		<tag k="ssr:stedsnr" v="881284" />
	</node>
	<node id="-803786" lat="70.8608861356" lon="29.0891102158">
		<tag k="amenity" v="place_of_worship" />
		<tag k="denomination" v="lutheran" />
		<tag k="name" v="Berlevåg kirke" />
		<tag k="religion" v="christian" />
		<tag k="ssr:stedsnr" v="879924" />
	</node>
	<node id="-803785" lat="70.7281222431" lon="29.3328378589">
		<tag k="fixme" v="consider natural=peak for the most distinct mountains in the district" />
		<tag k="name" v="Nålnesaksla" />
		<tag k="natural" v="hill" />
		<tag k="place" v="locality" />
		<tag k="ssr:stedsnr" v="875945" />
	</node>
	<node id="-803784" lat="70.6709916934" lon="29.290426739">
		<tag k="alt_name" v="Golbholmen" />
		<tag k="name" v="Østerøya" />
		<tag k="place" v="islet" />
		<tag k="ssr:stedsnr" v="875538" />
	</node>
	<node id="-803783" lat="70.7708250229" lon="29.3494406359">
		<tag k="name" v="Daudmannselva - Njoammeljohka" />
		<tag k="name:no" v="Daudmannselva" />
		<tag k="name:se" v="Njoammeljohka" />
		<tag k="old_name:se" v="Njoammeljåkka" />
		<tag k="ssr:stedsnr" v="870998" />
		<tag k="waterway" v="stream" />
	</node>
	<node id="-803782" lat="70.783355579" lon="29.2670795772">
		<tag k="name" v="Vesterdalen" />
		<tag k="natural" v="valley" />
		<tag k="place" v="locality" />
		<tag k="ssr:stedsnr" v="870996" />
	</node>
	<node id="-803781" lat="70.8224972387" lon="29.0747990961">
		<tag k="name" v="Ruovdaskáidi" />
		<tag k="name:se" v="Ruovdaskáidi" />
		<tag k="natural" v="cape" />
		<tag k="old_name:se" v="Ruovdaskaidi" />
		<tag k="ssr:stedsnr" v="870982" />
	</node>
	<node id="-803780" lat="70.8332722468" lon="29.2583240189">
		<tag k="name" v="Styrsletta" />
		<tag k="place" v="locality" />
		<tag k="ssr:stedsnr" v="870981" />
	</node>
	<node id="-803779" lat="70.8639611279" lon="28.8464797179">
		<tag k="name" v="Bukkedalen" />
		<tag k="natural" v="valley" />
		<tag k="place" v="locality" />
		<tag k="ssr:stedsnr" v="870968" />
	</node>
	<node id="-803778" lat="70.7689750175" lon="28.754924183">
		<tag k="name" v="Stivlejeaggi" />
		<tag k="name:se" v="Stivlejeaggi" />
		<tag k="natural" v="wetland" />
		<tag k="old_name:se" v="Stivlejæggi" />
		<tag k="ssr:stedsnr" v="870953" />
	</node>
	<node id="-803777" lat="70.7666833575" lon="28.7342714114">
		<tag k="name" v="Stivlejávri" />
		<tag k="name:se" v="Stivlejávri" />
		<tag k="natural" v="water" />
		<tag k="old_name:se" v="Stivlejavri" />
		<tag k="ssr:stedsnr" v="870951" />
	</node>
	<node id="-803776" lat="70.8464139053" lon="28.7663130926">
		<tag k="name" v="Kvitnesdalen" />
		<tag k="natural" v="valley" />
		<tag k="place" v="locality" />
		<tag k="ssr:stedsnr" v="870935" />
	</node>
	<node id="-803775" lat="70.8714833514" lon="28.8146297465">
		<tag k="name" v="Tarevika - Stárraluokta" />
		<tag k="name:no" v="Tarevika" />
		<tag k="name:se" v="Stárraluokta" />
		<tag k="natural" v="bay" />
		<tag k="old_name:se" v="Starraluokta" />
		<tag k="ssr:stedsnr" v="870920" />
	</node>
	<node id="-803774" lat="70.7503361339" lon="29.2255573597">
		<tag k="name" v="Økseelva - Meresjohka" />
		<tag k="name:no" v="Økseelva" />
		<tag k="name:se" v="Meresjohka" />
		<tag k="old_name:se" v="Meresjåkka" />
		<tag k="ssr:stedsnr" v="870529" />
		<tag k="waterway" v="river" />
	</node>
	<node id="-803773" lat="70.5103361402" lon="29.011615682">
		<tag k="fixme" v="consider natural=peak for the most distinct mountains in the district" />
		<tag k="name" v="Skužučohkka" />
		<tag k="name:se" v="Skužučohkka" />
		<tag k="natural" v="hill" />
		<tag k="old_name:se" v="Skužočåkka" />
		<tag k="place" v="locality" />
		<tag k="ssr:stedsnr" v="870508" />
	</node>
	<node id="-803772" lat="70.5279500273" lon="29.1841739702">
		<tag k="name" v="Magistervannet - Mágisttarjávri" />
		<tag k="name:no" v="Magistervannet" />
		<tag k="name:se" v="Mágisttarjávri" />
		<tag k="natural" v="water" />
		<tag k="old_name:se" v="Magistarjavri" />
		<tag k="ssr:stedsnr" v="870507" />
		<tag k="water" v="lake" />
	</node>
	<node id="-803771" lat="70.5763833581" lon="28.9189851878">
		<tag k="name" v="Buevasshøgda" />
		<tag k="natural" v="hill" />
		<tag k="place" v="locality" />
		<tag k="ssr:stedsnr" v="870492" />
	</node>
	<node id="-803770" lat="70.5791111383" lon="29.1534989903">
		<tag k="name" v="Toppvannet" />
		<tag k="natural" v="water" />
		<tag k="ssr:stedsnr" v="870490" />
		<tag k="water" v="lake" />
	</node>
	<node id="-803769" lat="70.6837278036" lon="29.4432488948">
		<tag k="name" v="Bjørnvikvannet" />
		<tag k="natural" v="water" />
		<tag k="ssr:stedsnr" v="870486" />
	</node>
	<node id="-803768" lat="70.631436139" lon="29.0937990236">
		<tag k="name" v="Firkantvannet" />
		<tag k="natural" v="water" />
		<tag k="ssr:stedsnr" v="870403" />
		<tag k="water" v="lake" />
	</node>
	<node id="-803767" lat="70.4946194754" lon="29.1160767481">
		<tag k="name" v="Geatnjajávri" />
		<tag k="name:se" v="Geatnjajávri" />
		<tag k="natural" v="water" />
		<tag k="old_name:se" v="Gædnjajavri" />
		<tag k="ssr:stedsnr" v="869955" />
		<tag k="water" v="lake" />
	</node>
	<node id="-803766" lat="70.7142722456" lon="29.2973323027">
		<tag k="name" v="Kobbkroken" />
		<tag k="natural" v="bay" />
		<tag k="ssr:stedsnr" v="869463" />
	</node>
	<node id="-803765" lat="70.72703336" lon="29.0504268526">
		<tag k="name" v="Andsjøen - Goalsejávri" />
		<tag k="name:no" v="Andsjøen" />
		<tag k="name:se" v="Goalsejávri" />
		<tag k="natural" v="water" />
		<tag k="old_name:se" v="Goalsejavri" />
		<tag k="ssr:stedsnr" v="869458" />
	</node>
	<node id="-803764" lat="70.6682972463" lon="29.1774517922">
		<tag k="name" v="Vesterdalselva" />
		<tag k="ssr:stedsnr" v="869450" />
		<tag k="waterway" v="river" />
	</node>
	<node id="-803763" lat="70.6767278063" lon="29.1731267806">
		<tag k="name" v="Nikko-Per-dalen - Nihkopierleahki" />
		<tag k="name:no" v="Nikko-Per-dalen" />
		<tag k="name:se" v="Nihkopierleahki" />
		<tag k="natural" v="valley" />
		<tag k="old_name:se" v="Nikkupierlækki" />
		<tag k="place" v="locality" />
		<tag k="ssr:stedsnr" v="869444" />
	</node>
	<node id="-803762" lat="70.694458361" lon="29.24689343">
		<tag k="alt_name" v="Falkedalen" />
		<tag k="name" v="Falkdalen" />
		<tag k="natural" v="valley" />
		<tag k="place" v="locality" />
		<tag k="ssr:stedsnr" v="869434" />
	</node>
	<node id="-803761" lat="70.7342055716" lon="28.6059547781">
		<tag k="name" v="Nihkolaigorsa" />
		<tag k="name:se" v="Nihkolaigorsa" />
		<tag k="natural" v="valley" />
		<tag k="old_name:se" v="Nikkulaigårsa" />
		<tag k="place" v="locality" />
		<tag k="ssr:stedsnr" v="869391" />
	</node>
	<node id="-803760" lat="70.6884194638" lon="28.6619130882">
		<tag k="name" v="Čuonjejohka" />
		<tag k="name:se" v="Čuonjejohka" />
		<tag k="old_name:se" v="Čuonjejåkka" />
		<tag k="ssr:stedsnr" v="869383" />
		<tag k="waterway" v="river" />
	</node>
	<node id="-803759" lat="70.6804250248" lon="28.7288769387">
		<tag k="name" v="Roapmejohka" />
		<tag k="name:se" v="Roapmejohka" />
		<tag k="old_name:se" v="Roabmejåkka" />
		<tag k="ssr:stedsnr" v="869377" />
		<tag k="waterway" v="river" />
	</node>
	<node id="-803758" lat="70.6412500203" lon="28.7765435927">
		<tag k="fixme" v="consider natural=peak for the most distinct mountains in the district" />
		<tag k="name" v="Mánjunnás" />
		<tag k="name:se" v="Mánjunnás" />
		<tag k="natural" v="hill" />
		<tag k="old_name:se" v="Manjunnas" />
		<tag k="place" v="locality" />
		<tag k="ssr:stedsnr" v="869366" />
	</node>
	<node id="-803757" lat="70.7208028023" lon="29.3361156302">
		<tag k="name" v="Kobbkroken" />
		<tag k="natural" v="cape" />
		<tag k="ssr:stedsnr" v="836925" />
	</node>
	<node id="-803756" lat="70.7194889163" lon="29.3365045298">
		<tag k="name" v="Skansen" />
		<tag k="place" v="locality" />
		<tag k="ssr:stedsnr" v="836926" />
	</node>
	<node id="-803755" lat="70.7227139157" lon="29.3481517457">
		<tag k="name" v="Frantzenneset" />
		<tag k="natural" v="cape" />
		<tag k="ssr:stedsnr" v="836923" />
	</node>
	<node id="-803754" lat="70.6851111366" lon="29.3579322834">
		<tag k="name" v="Varneset" />
		<tag k="natural" v="cape" />
		<tag k="ssr:stedsnr" v="836909" />
	</node>
	<node id="-803753" lat="70.863894466" lon="28.934213026">
		<tag k="name" v="Skonsvikraan" />
		<tag k="place" v="locality" />
		<tag k="ssr:stedsnr" v="835580" />
	</node>
	<node id="-803752" lat="70.6196833571" lon="29.1374629006">
		<tag k="name" v="Kongsfjordfossen" />
		<tag k="natural" v="waterfall" />
		<tag k="ssr:stedsnr" v="834881" />
	</node>
	<node id="-803751" lat="70.6280889102" lon="29.1490017856">
		<tag k="name" v="Skånlandbakken" />
		<tag k="natural" v="slope" />
		<tag k="place" v="locality" />
		<tag k="ssr:stedsnr" v="834879" />
	</node>
	<node id="-803750" lat="70.8450194637" lon="29.1068352019">
		<tag k="landuse" v="quarry" />
		<tag k="name" v="Fangenbruddet" />
		<tag k="ssr:stedsnr" v="821280" />
	</node>
	<node id="-803749" lat="70.853202802" lon="29.0710213242">
		<tag k="name" v="Svartvassmyra" />
		<tag k="natural" v="wetland" />
		<tag k="ssr:stedsnr" v="821263" />
	</node>
	<node id="-803748" lat="70.8669055749" lon="29.1000991036">
		<tag k="name" v="Sandkeila" />
		<tag k="natural" v="bay" />
		<tag k="ssr:stedsnr" v="820295" />
	</node>
	<node id="-803747" lat="70.8640389066" lon="29.1108185221">
		<tag k="man_made" v="breakwater" />
		<tag k="name" v="Vestermoloen" />
		<tag k="place" v="locality" />
		<tag k="ssr:stedsnr" v="820288" />
	</node>
	<node id="-803746" lat="70.7419083558" lon="29.3374350888">
		<tag k="alt_name" v="Grønnøya" />
		<tag k="name" v="Grønøya" />
		<tag k="place" v="island" />
		<tag k="ssr:stedsnr" v="815422" />
	</node>
	<node id="-803745" lat="70.9500000175" lon="29.2499990629">
		<tag k="name" v="Langfjordbakken" />
		<tag k="place" v="locality" />
		<tag k="ssr:stedsnr" v="815212" />
	</node>
	<node id="-803744" lat="70.8642833504" lon="29.1026657541">
		<tag k="name" v="Lagmannsneset" />
		<tag k="natural" v="cape" />
		<tag k="ssr:stedsnr" v="815175" />
	</node>
	<node id="-803743" lat="70.8718861287" lon="29.0905574405">
		<tag k="alt_name" v="Tollesneset" />
		<tag k="name" v="Tollefsneset" />
		<tag k="natural" v="cape" />
		<tag k="ssr:stedsnr" v="814948" />
	</node>
	<node id="-803742" lat="70.6694083645" lon="29.3249683951">
		<tag k="name" v="Bergbekkneset" />
		<tag k="natural" v="cape" />
		<tag k="ssr:stedsnr" v="814568" />
	</node>
	<node id="-803741" lat="70.7807055806" lon="29.3750489756">
		<tag k="name" v="Kvalvika" />
		<tag k="natural" v="bay" />
		<tag k="ssr:stedsnr" v="809999" />
	</node>
	<node id="-803740" lat="70.8463111316" lon="29.1800129549">
		<tag k="name" v="Vargvikelva" />
		<tag k="ssr:stedsnr" v="809987" />
		<tag k="waterway" v="river" />
	</node>
	<node id="-803739" lat="70.8392583549" lon="29.2510073688">
		<tag k="alt_name" v="Skjergardnes;Skjærgårdsnes" />
		<tag k="name" v="Skjærgardsneset" />
		<tag k="natural" v="cape" />
		<tag k="ssr:stedsnr" v="809986" />
	</node>
	<node id="-803738" lat="70.8578416916" lon="29.1012490936">
		<tag k="name" v="Vardneset" />
		<tag k="natural" v="cape" />
		<tag k="ssr:stedsnr" v="809974" />
	</node>
	<node id="-803737" lat="70.7698389108" lon="28.6679658639">
		<tag k="fixme" v="consider natural=peak for the most distinct mountains in the district" />
		<tag k="name" v="Gussajorranvárri" />
		<tag k="name:se" v="Gussajorranvárri" />
		<tag k="natural" v="hill" />
		<tag k="old_name:se" v="Gussajårranvarri" />
		<tag k="place" v="locality" />
		<tag k="ssr:stedsnr" v="809950" />
	</node>
	<node id="-803736" lat="70.8449861325" lon="28.7418825428">
		<tag k="name" v="Kvitnesbukta" />
		<tag k="natural" v="bay" />
		<tag k="ssr:stedsnr" v="809942" />
	</node>
	<node id="-803735" lat="70.858341687" lon="28.8015408691">
		<tag k="fixme" v="consider natural=peak for the most distinct mountains in the district" />
		<tag k="name" v="Bukkekeilfjellet" />
		<tag k="natural" v="hill" />
		<tag k="place" v="locality" />
		<tag k="ssr:stedsnr" v="809931" />
	</node>
	<node id="-803734" lat="70.5304583553" lon="28.8394018726">
		<tag k="name" v="Hanglevatna - Hakŋalanjávrrit" />
		<tag k="name:no" v="Hanglevatna" />
		<tag k="name:se" v="Hakŋalanjávrrit" />
		<tag k="natural" v="water" />
		<tag k="old_name:se" v="Hagŋalanjavrit" />
		<tag k="ssr:stedsnr" v="809528" />
		<tag k="water" v="lake" />
	</node>
	<node id="-803733" lat="70.735391692" lon="29.7254321481">
		<tag k="name" v="Vesterneset" />
		<tag k="natural" v="cape" />
		<tag k="ssr:stedsnr" v="809518" />
	</node>
	<node id="-803732" lat="70.5865222524" lon="29.1492545451">
		<tag k="fixme" v="consider natural=peak for the most distinct mountains in the district" />
		<tag k="name" v="Magertoppen - Silesčohkka" />
		<tag k="name:no" v="Magertoppen" />
		<tag k="name:se" v="Silesčohkka" />
		<tag k="natural" v="hill" />
		<tag k="old_name:se" v="Silesčåkka" />
		<tag k="place" v="locality" />
		<tag k="ssr:stedsnr" v="809515" />
	</node>
	<node id="-803731" lat="70.6062333542" lon="29.0403879354">
		<tag k="name" v="Buevasselva" />
		<tag k="ssr:stedsnr" v="809510" />
		<tag k="waterway" v="river" />
	</node>
	<node id="-803730" lat="70.7117639177" lon="29.3631545175">
		<tag k="alt_name:no" v="Kongsfjord" />
		<tag k="bay" v="fjord" />
		<tag k="name" v="Kongsfjorden - Strommavuotna" />
		<tag k="name:no" v="Kongsfjorden" />
		<tag k="name:se" v="Strommavuotna" />
		<tag k="natural" v="bay" />
		<tag k="old_name:se" v="Stråmmavuodna" />
		<tag k="ssr:stedsnr" v="809445" />
	</node>
	<node id="-803729" lat="70.7207278077" lon="29.2749017586">
		<tag k="name" v="Hergedalen" />
		<tag k="natural" v="valley" />
		<tag k="place" v="locality" />
		<tag k="ssr:stedsnr" v="809440" />
	</node>
	<node id="-803728" lat="70.6693139132" lon="29.1112684622">
		<tag k="name" v="Vesterdalen" />
		<tag k="natural" v="valley" />
		<tag k="place" v="locality" />
		<tag k="ssr:stedsnr" v="809431" />
	</node>
	<node id="-803727" lat="70.6460305845" lon="29.3033156188">
		<tag k="name" v="Sæterdalselva" />
		<tag k="ssr:stedsnr" v="809409" />
		<tag k="waterway" v="river" />
	</node>
	<node id="-803726" lat="70.6390444746" lon="29.3324794907">
		<tag k="name" v="Hundelva - Beatnatjohka" />
		<tag k="name:no" v="Hundelva" />
		<tag k="name:se" v="Beatnatjohka" />
		<tag k="old_name:se" v="Bædnatjåkka" />
		<tag k="ssr:stedsnr" v="809408" />
		<tag k="waterway" v="stream" />
	</node>
	<node id="-803725" lat="70.6814000183" lon="28.5268159093">
		<tag k="name" v="Kuberget" />
		<tag k="natural" v="hill" />
		<tag k="place" v="locality" />
		<tag k="ssr:stedsnr" v="809369" />
	</node>
	<node id="-803724" lat="70.6580833552" lon="28.6990880493">
		<tag k="fixme" v="consider natural=peak for the most distinct mountains in the district" />
		<tag k="name" v="Biegganjunnásčohkka" />
		<tag k="name:se" v="Biegganjunnásčohkka" />
		<tag k="natural" v="hill" />
		<tag k="old_name:se" v="Biegganjunnasčåkka" />
		<tag k="place" v="locality" />
		<tag k="ssr:stedsnr" v="809355" />
	</node>
	<node id="-803723" lat="70.8724027969" lon="29.0214241103">
		<tag k="name" v="Prærien" />
		<tag k="place" v="locality" />
		<tag k="ssr:stedsnr" v="805707" />
	</node>
	<node id="-803722" lat="70.7157805774" lon="29.2954600885">
		<tag k="name" v="Trollberget" />
		<tag k="natural" v="hill" />
		<tag k="place" v="locality" />
		<tag k="ssr:stedsnr" v="774945" />
	</node>
	<node id="-803721" lat="70.7278722495" lon="29.3912406119">
		<tag k="name" v="Oterstokken" />
		<tag k="natural" v="bay" />
		<tag k="ssr:stedsnr" v="774946" />
	</node>
	<node id="-803720" lat="70.7273583563" lon="29.3701017381">
		<tag k="name" v="Vesterhaugen" />
		<tag k="natural" v="hill" />
		<tag k="place" v="locality" />
		<tag k="ssr:stedsnr" v="774940" />
	</node>
	<node id="-803719" lat="70.7266361353" lon="29.3360350606">
		<tag k="name" v="Plogvika" />
		<tag k="natural" v="bay" />
		<tag k="ssr:stedsnr" v="774941" />
	</node>
	<node id="-803718" lat="70.650955581" lon="29.2499378611">
		<tag k="fixme" v="consider natural=peak for the most distinct mountains in the district" />
		<tag k="name" v="Seterdalsfjellet" />
		<tag k="natural" v="hill" />
		<tag k="place" v="locality" />
		<tag k="ssr:stedsnr" v="774928" />
	</node>
	<node id="-803717" lat="70.6522778041" lon="29.2129295406">
		<tag k="name" v="Grønnbakken" />
		<tag k="place" v="locality" />
		<tag k="ssr:stedsnr" v="774917" />
	</node>
	<node id="-803716" lat="70.8419194639" lon="28.846485286">
		<tag k="fixme" v="consider natural=peak for the most distinct mountains in the district" />
		<tag k="name" v="Svanefjellet" />
		<tag k="natural" v="hill" />
		<tag k="place" v="locality" />
		<tag k="ssr:stedsnr" v="774603" />
	</node>
	<node id="-803715" lat="70.8396416905" lon="29.0651851987">
		<tag k="name" v="Veddalsneset" />
		<tag k="natural" v="cape" />
		<tag k="ssr:stedsnr" v="760296" />
	</node>
	<node id="-803714" lat="70.8550639101" lon="29.092862973">
		<tag k="name" v="Iversenhaugen" />
		<tag k="natural" v="hill" />
		<tag k="place" v="locality" />
		<tag k="ssr:stedsnr" v="759275" />
	</node>
	<node id="-803713" lat="70.8715972388" lon="29.0349907782">
		<tag k="aeroway" v="aerodrome" />
		<tag k="alt_name" v="Berlevåg" />
		<tag k="name" v="Berlevåg lufthavn" />
		<tag k="ssr:stedsnr" v="755317" />
	</node>
	<node id="-803712" lat="70.8472472372" lon="28.76440197">
		<tag k="name" v="Kvitneselva" />
		<tag k="ssr:stedsnr" v="755190" />
		<tag k="waterway" v="river" />
	</node>
	<node id="-803711" lat="70.8321305801" lon="29.1478462919">
		<tag k="fixme" v="consider natural=peak for the most distinct mountains in the district" />
		<tag k="name" v="Revenesfjellet" />
		<tag k="natural" v="hill" />
		<tag k="place" v="locality" />
		<tag k="ssr:stedsnr" v="754944" />
	</node>
	<node id="-803710" lat="70.7540555734" lon="28.8452324776">
		<tag k="name" v="Øver-Raggobekken" />
		<tag k="ssr:stedsnr" v="754226" />
		<tag k="waterway" v="stream" />
	</node>
	<node id="-803709" lat="70.7234222492" lon="29.3502156126">
		<tag k="name" v="Ytre Havn" />
		<tag k="natural" v="bay" />
		<tag k="ssr:stedsnr" v="753925" />
	</node>
	<node id="-803708" lat="70.785344474" lon="29.3959211792">
		<tag k="name" v="Nålneset - Nuovlu" />
		<tag k="name:no" v="Nålneset" />
		<tag k="name:se" v="Nuovlu" />
		<tag k="natural" v="cape" />
		<tag k="old_name:se" v="Nuovlo;Nuoviu" />
		<tag k="ssr:stedsnr" v="748991" />
	</node>
	<node id="-803707" lat="70.8519722448" lon="28.8271241822">
		<tag k="name" v="Svanelva" />
		<tag k="ssr:stedsnr" v="748971" />
		<tag k="waterway" v="river" />
	</node>
	<node id="-803706" lat="70.858155575" lon="29.0519102079">
		<tag k="alt_name" v="Grønnlivatnet" />
		<tag k="name" v="Grønlivatnet" />
		<tag k="natural" v="water" />
		<tag k="ssr:stedsnr" v="748970" />
	</node>
	<node id="-803705" lat="70.8800500215" lon="28.8771047377">
		<tag k="alt_name:no" v="Dikkeviken" />
		<tag k="name" v="Dikkevika - Dihkkaviika" />
		<tag k="name:no" v="Dikkevika" />
		<tag k="name:se" v="Dihkkaviika" />
		<tag k="natural" v="bay" />
		<tag k="old_name:se" v="Dikkaviika" />
		<tag k="ssr:stedsnr" v="748964" />
	</node>
	<node id="-803704" lat="70.9207639055" lon="29.1031768863">
		<tag k="alt_name" v="Skallen, yt" />
		<tag k="name" v="Ytre Skallen" />
		<tag k="natural" v="shoal" />
		<tag k="place" v="locality" />
		<tag k="ssr:stedsnr" v="748960" />
	</node>
	<node id="-803703" lat="70.776466684" lon="28.6744964283">
		<tag k="name" v="Haleelva - Seaibejohka" />
		<tag k="name:no" v="Haleelva" />
		<tag k="name:se" v="Seaibejohka" />
		<tag k="old_name:se" v="Sæibejåkka" />
		<tag k="ssr:stedsnr" v="748958" />
		<tag k="waterway" v="stream" />
	</node>
	<node id="-803702" lat="70.7859000168" lon="28.7330103026">
		<tag k="name" v="Ruovdegurra" />
		<tag k="name:se" v="Ruovdegurra" />
		<tag k="natural" v="valley" />
		<tag k="place" v="locality" />
		<tag k="ssr:stedsnr" v="748956" />
	</node>
	<node id="-803701" lat="70.8635194642" lon="28.7937742058">
		<tag k="name" v="Bukkekeila" />
		<tag k="natural" v="bay" />
		<tag k="ssr:stedsnr" v="748937" />
	</node>
	<node id="-803700" lat="70.5987583614" lon="29.1536267829">
		<tag k="name" v="Magerdalen" />
		<tag k="natural" v="valley" />
		<tag k="place" v="locality" />
		<tag k="ssr:stedsnr" v="748493" />
	</node>
	<node id="-803699" lat="70.7139972425" lon="29.2054990155">
		<tag k="name" v="Langvannet - Guhkesjávri" />
		<tag k="name:no" v="Langvannet" />
		<tag k="name:se" v="Guhkesjávri" />
		<tag k="natural" v="water" />
		<tag k="old_name:se" v="Gukkesjavri" />
		<tag k="ssr:stedsnr" v="748417" />
	</node>
	<node id="-803698" lat="70.6789028054" lon="29.1046601568">
		<tag k="name" v="Lomtoppvatna" />
		<tag k="natural" v="water" />
		<tag k="ssr:stedsnr" v="748391" />
		<tag k="water" v="lake" />
	</node>
	<node id="-803697" lat="70.699636139" lon="29.2774656377">
		<tag k="name" v="Kobbkrokvannet - Goađášjávri" />
		<tag k="name:no" v="Kobbkrokvannet" />
		<tag k="name:se" v="Goađášjávri" />
		<tag k="natural" v="water" />
		<tag k="old_name:se" v="Goađašjavri" />
		<tag k="ssr:stedsnr" v="748384" />
		<tag k="water" v="lake" />
	</node>
	<node id="-803696" lat="70.6106694744" lon="29.2277906266">
		<tag k="name" v="Røyevannet" />
		<tag k="natural" v="water" />
		<tag k="ssr:stedsnr" v="748375" />
	</node>
	<node id="-803695" lat="70.6794916854" lon="28.7443186013">
		<tag k="name" v="Luostelanleahki" />
		<tag k="name:se" v="Luostelanleahki" />
		<tag k="natural" v="valley" />
		<tag k="old_name:se" v="Luostelanlækki" />
		<tag k="place" v="locality" />
		<tag k="ssr:stedsnr" v="748342" />
	</node>
	<node id="-803694" lat="70.6699194669" lon="28.6687130681">
		<tag k="fixme" v="consider natural=peak for the most distinct mountains in the district" />
		<tag k="name" v="Skálnjuovčča" />
		<tag k="name:se" v="Skálnjuovčča" />
		<tag k="natural" v="hill" />
		<tag k="old_name:se" v="Skalnjuovča" />
		<tag k="place" v="locality" />
		<tag k="ssr:stedsnr" v="748338" />
	</node>
	<node id="-803693" lat="70.8596361321" lon="28.9724491337">
		<tag k="fixme" v="consider natural=peak for the most distinct mountains in the district" />
		<tag k="name" v="Blomsterfjellet" />
		<tag k="natural" v="hill" />
		<tag k="place" v="locality" />
		<tag k="ssr:stedsnr" v="744690" />
	</node>
	<node id="-803692" lat="70.6849000248" lon="29.1549712524">
		<tag k="fixme" v="consider natural=peak for the most distinct mountains in the district" />
		<tag k="name" v="Nikko-Per-top" />
		<tag k="natural" v="hill" />
		<tag k="place" v="locality" />
		<tag k="ssr:stedsnr" v="744076" />
	</node>
	<node id="-803691" lat="70.7124028014" lon="29.2921156309">
		<tag k="name" v="Makkstykket" />
		<tag k="place" v="locality" />
		<tag k="ssr:stedsnr" v="714940" />
	</node>
	<node id="-803690" lat="70.7250028013" lon="29.3724017163">
		<tag k="name" v="Storhaugen" />
		<tag k="natural" v="hill" />
		<tag k="place" v="locality" />
		<tag k="ssr:stedsnr" v="714920" />
	</node>
	<node id="-803689" lat="70.7257472483" lon="29.367682286">
		<tag k="name" v="Midterhaugen" />
		<tag k="natural" v="hill" />
		<tag k="place" v="locality" />
		<tag k="ssr:stedsnr" v="714917" />
	</node>
	<node id="-803688" lat="70.8835666909" lon="28.9720852422">
		<tag k="name" v="Fuglenesbukta" />
		<tag k="natural" v="bay" />
		<tag k="ssr:stedsnr" v="713980" />
	</node>
	<node id="-803687" lat="70.8684111319" lon="28.9246491437">
		<tag k="name" v="Jørnslåttelva" />
		<tag k="ssr:stedsnr" v="713576" />
		<tag k="waterway" v="stream" />
	</node>
	<node id="-803686" lat="70.87488335" lon="28.9489852464">
		<tag k="name" v="Hanelva" />
		<tag k="ssr:stedsnr" v="713575" />
		<tag k="waterway" v="stream" />
	</node>
	<node id="-803685" lat="70.8653611302" lon="28.9327074831">
		<tag k="name" v="Jørnslåtta" />
		<tag k="place" v="locality" />
		<tag k="ssr:stedsnr" v="713574" />
	</node>
	<node id="-803684" lat="70.8747805747" lon="28.9522241571">
		<tag k="name" v="Vannlia" />
		<tag k="natural" v="slope" />
		<tag k="place" v="locality" />
		<tag k="ssr:stedsnr" v="713569" />
	</node>
	<node id="-803683" lat="70.6240722522" lon="29.1618406702">
		<tag k="name" v="Ørretvasselva" />
		<tag k="ssr:stedsnr" v="712894" />
		<tag k="waterway" v="stream" />
	</node>
	<node id="-803682" lat="70.6515639173" lon="29.2876600646">
		<tag k="name" v="Hundelvdalen" />
		<tag k="natural" v="valley" />
		<tag k="place" v="locality" />
		<tag k="ssr:stedsnr" v="709991" />
	</node>
	<node id="-803681" lat="70.9188444668" lon="29.5585100641">
		<tag k="name" v="Kjølnesbakken" />
		<tag k="place" v="locality" />
		<tag k="ssr:stedsnr" v="694203" />
	</node>
	<node id="-803680" lat="70.8694444663" lon="29.1055546385">
		<tag k="loc_name" v="Lagmannsvika" />
		<tag k="name" v="Lagmannsbukta" />
		<tag k="natural" v="bay" />
		<tag k="ssr:stedsnr" v="694151" />
	</node>
	<node id="-803678" lat="70.8583916866" lon="29.2279462607">
		<tag k="name" v="Rødsetgrunnan" />
		<tag k="natural" v="shoal" />
		<tag k="place" v="locality" />
		<tag k="ssr:stedsnr" v="693957" />
	</node>
	<node id="-803677" lat="70.8756027991" lon="28.9828157968">
		<tag k="alt_name" v="Bangneset" />
		<tag k="name" v="Bangeneset" />
		<tag k="natural" v="cape" />
		<tag k="ssr:stedsnr" v="693952" />
	</node>
	<node id="-803676" lat="70.738163911" lon="29.246985113">
		<tag k="name" v="Vestre Risfjordbotn" />
		<tag k="place" v="locality" />
		<tag k="ssr:stedsnr" v="693949" />
	</node>
	<node id="-803675" lat="70.881700022" lon="28.8975408301">
		<tag k="name" v="Mortensneset" />
		<tag k="natural" v="cape" />
		<tag k="ssr:stedsnr" v="693498" />
	</node>
	<node id="-803674" lat="70.7800750249" lon="29.3454017593">
		<tag k="name" v="Kvalvikeidet" />
		<tag k="natural" v="strait" />
		<tag k="ssr:stedsnr" v="688994" />
	</node>
	<node id="-803673" lat="70.8523527978" lon="29.1553768354">
		<tag k="name" v="Vargvikholmen" />
		<tag k="place" v="islet" />
		<tag k="ssr:stedsnr" v="688983" />
	</node>
	<node id="-803672" lat="70.751866683" lon="28.5659936686">
		<tag k="name" v="Fuglevika - Sieiddeluokta" />
		<tag k="name:no" v="Fuglevika" />
		<tag k="name:se" v="Sieiddeluokta" />
		<tag k="natural" v="bay" />
		<tag k="old_name:se" v="Sieideluokta" />
		<tag k="ssr:stedsnr" v="688968" />
	</node>
	<node id="-803671" lat="70.7926472395" lon="28.7824825013">
		<tag k="name" v="Johkamohkki" />
		<tag k="name:se" v="Johkamohkki" />
		<tag k="old_name:se" v="Jåkkamåkki" />
		<tag k="place" v="locality" />
		<tag k="ssr:stedsnr" v="688961" />
	</node>
	<node id="-803670" lat="70.7820778002" lon="28.6879853064">
		<tag k="name" v="Bárši" />
		<tag k="name:se" v="Bárši" />
		<tag k="natural" v="hill" />
		<tag k="old_name:se" v="Barši" />
		<tag k="place" v="locality" />
		<tag k="ssr:stedsnr" v="688956" />
	</node>
	<node id="-803669" lat="70.7080278091" lon="29.6306599505">
		<tag k="name" v="Vestre Rubbedalen" />
		<tag k="natural" v="valley" />
		<tag k="old_name" v="Rubbedalen, vestre" />
		<tag k="place" v="locality" />
		<tag k="ssr:stedsnr" v="688484" />
	</node>
	<node id="-803668" lat="70.7154666955" lon="29.5158461177">
		<tag k="name" v="Skarholmen" />
		<tag k="place" v="islet" />
		<tag k="ssr:stedsnr" v="688481" />
	</node>
	<node id="-803667" lat="70.474894473" lon="29.2241294905">
		<tag k="name" v="Oarddojávri" />
		<tag k="name:se" v="Oarddojávri" />
		<tag k="natural" v="water" />
		<tag k="old_name:se" v="Oardujavri" />
		<tag k="ssr:stedsnr" v="687952" />
		<tag k="water" v="lake" />
	</node>
	<node id="-803666" lat="70.59317781" lon="29.3954711191">
		<tag k="name" v="Álosjohka" />
		<tag k="name:se" v="Álosjohka" />
		<tag k="old_name:se" v="Alusjåkka" />
		<tag k="ssr:stedsnr" v="687486" />
		<tag k="waterway" v="river" />
	</node>
	<node id="-803665" lat="70.7041889129" lon="29.1654267928">
		<tag k="name" v="Øster-Risfjordelva - Loamejohka" />
		<tag k="name:no" v="Øster-Risfjordelva" />
		<tag k="name:se" v="Loamejohka" />
		<tag k="old_name:se" v="Loamejåkka" />
		<tag k="ssr:stedsnr" v="687416" />
		<tag k="waterway" v="river" />
	</node>
	<node id="-803664" lat="70.7305639105" lon="29.3023878638">
		<tag k="alt_name:no" v="Hergeneset" />
		<tag k="name" v="Hergenæringen - Heargevárnjárga" />
		<tag k="name:no" v="Hergenæringen" />
		<tag k="name:se" v="Heargevárnjárga" />
		<tag k="natural" v="cape" />
		<tag k="old_name:se" v="Hærgevarnjarga" />
		<tag k="ssr:stedsnr" v="687405" />
	</node>
	<node id="-803663" lat="70.6676278011" lon="28.9869101761">
		<tag k="name" v="Kjerkehaugen" />
		<tag k="natural" v="hill" />
		<tag k="place" v="locality" />
		<tag k="ssr:stedsnr" v="687403" />
	</node>
	<node id="-803662" lat="70.7039722439" lon="29.2135545642">
		<tag k="alt_name" v="Holmvatnan" />
		<tag k="name" v="Holmvatna" />
		<tag k="natural" v="water" />
		<tag k="ssr:stedsnr" v="687396" />
		<tag k="water" v="lake" />
	</node>
	<node id="-803661" lat="70.6590416899" lon="29.0058990731">
		<tag k="name" v="Kjerkehaugvatna" />
		<tag k="natural" v="water" />
		<tag k="ssr:stedsnr" v="687387" />
		<tag k="water" v="lake" />
	</node>
	<node id="-803660" lat="70.7418277954" lon="28.5864881182">
		<tag k="name" v="Fuglevikelva - Sieiddeluovttjohka" />
		<tag k="name:no" v="Fuglevikelva" />
		<tag k="name:se" v="Sieiddeluovttjohka" />
		<tag k="old_name:se" v="Sieideluovtjåkka" />
		<tag k="ssr:stedsnr" v="687363" />
		<tag k="waterway" v="river" />
	</node>
	<node id="-803659" lat="70.7054000198" lon="28.5557742178">
		<tag k="name" v="Vitnjalasvággi" />
		<tag k="name:se" v="Vitnjalasvággi" />
		<tag k="natural" v="valley" />
		<tag k="old_name:se" v="Vidnjalasvaggi" />
		<tag k="place" v="locality" />
		<tag k="ssr:stedsnr" v="687362" />
	</node>
	<node id="-803658" lat="70.7171861285" lon="28.5464881081">
		<tag k="name" v="Vákkáš" />
		<tag k="name:se" v="Vákkáš" />
		<tag k="natural" v="valley" />
		<tag k="old_name:se" v="Vaggaš" />
		<tag k="place" v="locality" />
		<tag k="ssr:stedsnr" v="687360" />
	</node>
	<node id="-803657" lat="70.6932500149" lon="28.5547992308">
		<tag k="fixme" v="consider seamark:type=rock or natural=shoal" />
		<tag k="name" v="Litleskjeret - Uhcalásis" />
		<tag k="name:no" v="Litleskjeret" />
		<tag k="name:se" v="Uhcalásis" />
		<tag k="old_name:se" v="Uccalasis" />
		<tag k="place" v="islet" />
		<tag k="ssr:stedsnr" v="687355" />
	</node>
	<node id="-803656" lat="70.6546639155" lon="28.6957741666">
		<tag k="name" v="Sørdalen" />
		<tag k="natural" v="valley" />
		<tag k="place" v="locality" />
		<tag k="ssr:stedsnr" v="687345" />
	</node>
	<node id="-803655" lat="70.6669889203" lon="29.2947628475">
		<tag k="name" v="Vestre Grønneset" />
		<tag k="natural" v="cape" />
		<tag k="ssr:stedsnr" v="654935" />
	</node>
	<node id="-803654" lat="70.862177796" lon="28.9028186023">
		<tag k="name" v="Bukkedalen" />
		<tag k="natural" v="valley" />
		<tag k="place" v="locality" />
		<tag k="ssr:stedsnr" v="652705" />
	</node>
	<node id="-803653" lat="70.8330472403" lon="28.9617324513">
		<tag k="name" v="Langlihøgda" />
		<tag k="natural" v="hill" />
		<tag k="place" v="locality" />
		<tag k="ssr:stedsnr" v="652698" />
	</node>
	<node id="-803652" lat="70.6677194669" lon="29.1911240052">
		<tag k="name" v="Vesterdalsvannet" />
		<tag k="natural" v="water" />
		<tag k="ssr:stedsnr" v="651899" />
	</node>
	<node id="-803651" lat="70.6546222451" lon="29.1903184307">
		<tag k="name" v="Svabergmyra" />
		<tag k="natural" v="wetland" />
		<tag k="ssr:stedsnr" v="651898" />
	</node>
	<node id="-803650" lat="70.7628000288" lon="29.3558545197">
		<tag k="layer" v="-1" />
		<tag k="name" v="Normanset" />
		<tag k="ssr:stedsnr" v="651355" />
		<tag k="tunnel" v="yes" />
	</node>
	<node id="-803649" lat="70.8497916891" lon="29.0848768836">
		<tag k="name" v="Iversenraet" />
		<tag k="natural" v="hill" />
		<tag k="place" v="locality" />
		<tag k="ssr:stedsnr" v="638260" />
	</node>
	<node id="-803648" lat="70.8567527981" lon="29.0641185385">
		<tag k="name" v="Grønnlia" />
		<tag k="natural" v="slope" />
		<tag k="place" v="locality" />
		<tag k="ssr:stedsnr" v="637325" />
	</node>
	<node id="-803647" lat="70.6982611394" lon="29.3858683804">
		<tag k="alt_name" v="Østre Straumsnes" />
		<tag k="name" v="Østre Strømsneset" />
		<tag k="natural" v="cape" />
		<tag k="ssr:stedsnr" v="635193" />
	</node>
	<node id="-803646" lat="70.8550944616" lon="29.1186713051">
		<tag k="name" v="Revenes" />
		<tag k="place" v="farm" />
		<tag k="ssr:stedsnr" v="632941" />
	</node>
	<node id="-803645" lat="70.7444444692" lon="29.4499989241">
		<tag k="name" v="Veidnesgrunnen" />
		<tag k="natural" v="shoal" />
		<tag k="place" v="locality" />
		<tag k="ssr:stedsnr" v="632186" />
	</node>
	<node id="-803644" lat="70.8694444663" lon="29.1055546385">
		<tag k="name" v="Astrupbukta" />
		<tag k="natural" v="bay" />
		<tag k="ssr:stedsnr" v="632184" />
	</node>
	<node id="-803643" lat="70.759208359" lon="29.2926462237">
		<tag k="name" v="Nordmannsetdalen" />
		<tag k="natural" v="valley" />
		<tag k="place" v="locality" />
		<tag k="ssr:stedsnr" v="627999" />
	</node>
	<node id="-803642" lat="70.7998639113" lon="28.916160254">
		<tag k="name" v="Bastholmslåtta" />
		<tag k="place" v="locality" />
		<tag k="ssr:stedsnr" v="627995" />
	</node>
	<node id="-803641" lat="70.8321278018" lon="28.8975463738">
		<tag k="name" v="Rikardslåtta" />
		<tag k="place" v="locality" />
		<tag k="ssr:stedsnr" v="627989" />
	</node>
	<node id="-803640" lat="70.8361028015" lon="29.1210046462">
		<tag k="name" v="Revnestoppen" />
		<tag k="natural" v="hill" />
		<tag k="place" v="locality" />
		<tag k="ssr:stedsnr" v="627986" />
	</node>
	<node id="-803639" lat="70.8555222465" lon="29.1270046283">
		<tag k="name" v="Vringstadnes" />
		<tag k="natural" v="cape" />
		<tag k="ssr:stedsnr" v="627979" />
	</node>
	<node id="-803638" lat="70.8612000225" lon="29.1001268735">
		<tag k="name" v="Trønderneset" />
		<tag k="natural" v="cape" />
		<tag k="ssr:stedsnr" v="627978" />
	</node>
	<node id="-803637" lat="70.8577916914" lon="29.085932423">
		<tag k="loc_name:se" v="Bearalváhki" />
		<tag k="name" v="Berlevåg" />
		<tag k="name:no" v="Berlevåg" />
		<tag k="place" v="village" />
		<tag k="ssr:stedsnr" v="627977" />
	</node>
	<node id="-803636" lat="70.7710250165" lon="28.7052825323">
		<tag k="fixme" v="consider natural=peak for the most distinct mountains in the district" />
		<tag k="name" v="Urravárri" />
		<tag k="name:se" v="Urravárri" />
		<tag k="natural" v="hill" />
		<tag k="old_name:se" v="Urravarri" />
		<tag k="place" v="locality" />
		<tag k="ssr:stedsnr" v="627967" />
	</node>
	<node id="-803635" lat="70.5854083642" lon="29.1226212169">
		<tag k="name" v="Emissærvannet" />
		<tag k="natural" v="water" />
		<tag k="ssr:stedsnr" v="626528" />
		<tag k="water" v="lake" />
	</node>
	<node id="-803634" lat="70.5524305803" lon="29.2950628181">
		<tag k="fixme" v="consider natural=peak for the most distinct mountains in the district" />
		<tag k="name" v="Storkløftfjellet" />
		<tag k="natural" v="hill" />
		<tag k="place" v="locality" />
		<tag k="ssr:stedsnr" v="626520" />
	</node>
	<node id="-803633" lat="70.5681750291" lon="28.9987101634">
		<tag k="name" v="Store Buevannet - Stuorra Dávgejávri" />
		<tag k="name:no" v="Store Buevannet" />
		<tag k="name:se" v="Stuorra Dávgejávri" />
		<tag k="natural" v="water" />
		<tag k="old_name:se" v="Davgejavri stuorra" />
		<tag k="ssr:stedsnr" v="626519" />
		<tag k="water" v="lake" />
	</node>
	<node id="-803632" lat="70.5724222455" lon="29.2293017385">
		<tag k="fixme" v="consider natural=peak for the most distinct mountains in the district" />
		<tag k="name" v="Magerfjellet - Silesvárri" />
		<tag k="name:no" v="Magerfjellet" />
		<tag k="name:se" v="Silesvárri" />
		<tag k="natural" v="hill" />
		<tag k="old_name:se" v="Silesvarri" />
		<tag k="place" v="locality" />
		<tag k="ssr:stedsnr" v="626518" />
	</node>
	<node id="-803631" lat="70.7224722475" lon="29.2773573293">
		<tag k="name" v="Hergeelva - Heargejohka" />
		<tag k="name:no" v="Hergeelva" />
		<tag k="name:se" v="Heargejohka" />
		<tag k="old_name:se" v="Hærgejåkka" />
		<tag k="ssr:stedsnr" v="626449" />
		<tag k="waterway" v="stream" />
	</node>
	<node id="-803630" lat="70.7359972483" lon="29.3586100808">
		<tag k="name" v="Rundholmen - Jorbalásis" />
		<tag k="name:no" v="Rundholmen" />
		<tag k="name:se" v="Jorbalásis" />
		<tag k="old_name:se" v="Jårbalasis" />
		<tag k="place" v="islet" />
		<tag k="ssr:stedsnr" v="626445" />
	</node>
	<node id="-803629" lat="70.6935361364" lon="28.8600380065">
		<tag k="fixme" v="consider natural=peak for the most distinct mountains in the district" />
		<tag k="name" v="Rákkočohkka" />
		<tag k="name:se" v="Rákkočohkka" />
		<tag k="natural" v="hill" />
		<tag k="old_name:se" v="Raggučåkka" />
		<tag k="place" v="locality" />
		<tag k="ssr:stedsnr" v="626437" />
	</node>
	<node id="-803628" lat="70.6935472463" lon="28.7151575078">
		<tag k="name" v="Gåsvatnan" />
		<tag k="natural" v="water" />
		<tag k="ssr:stedsnr" v="626387" />
		<tag k="water" v="lake" />
	</node>
	<node id="-803627" lat="70.6771250215" lon="28.5314936823">
		<tag k="fixme" v="consider natural=peak for the most distinct mountains in the district" />
		<tag k="name" v="Njárgačohkka" />
		<tag k="name:se" v="Njárgačohkka" />
		<tag k="natural" v="hill" />
		<tag k="old_name:se" v="Njargačåkka" />
		<tag k="place" v="locality" />
		<tag k="ssr:stedsnr" v="626379" />
	</node>
	<node id="-803626" lat="70.6705194744" lon="29.2822184153">
		<tag k="fixme" v="consider seamark:type=rock or natural=shoal" />
		<tag k="name" v="Skarvholmen" />
		<tag k="place" v="islet" />
		<tag k="ssr:stedsnr" v="593881" />
	</node>
	<node id="-803625" lat="70.716855578" lon="29.3121156338">
		<tag k="name" v="Kobbkroken" />
		<tag k="natural" v="bay" />
		<tag k="ssr:stedsnr" v="592953" />
	</node>
	<node id="-803624" lat="70.7321889149" lon="29.3668961802">
		<tag k="name" v="Storvikodden" />
		<tag k="natural" v="cape" />
		<tag k="ssr:stedsnr" v="592947" />
	</node>
	<node id="-803623" lat="70.8334000189" lon="29.0188046569">
		<tag k="fixme" v="consider natural=peak for the most distinct mountains in the district" />
		<tag k="name" v="Stortufjellet" />
		<tag k="natural" v="hill" />
		<tag k="place" v="locality" />
		<tag k="ssr:stedsnr" v="592746" />
	</node>
	<node id="-803622" lat="70.8529722403" lon="29.0563213106">
		<tag k="name" v="Breidalen" />
		<tag k="natural" v="valley" />
		<tag k="place" v="locality" />
		<tag k="ssr:stedsnr" v="578255" />
	</node>
	<node id="-803621" lat="70.8505472407" lon="29.1434935252">
		<tag k="name" v="Lille Vargvika" />
		<tag k="natural" v="bay" />
		<tag k="ssr:stedsnr" v="578231" />
	</node>
	<node id="-803620" lat="70.8589000238" lon="29.0812657769">
		<tag k="name" v="Sankthanshaugen" />
		<tag k="natural" v="hill" />
		<tag k="place" v="locality" />
		<tag k="ssr:stedsnr" v="577297" />
	</node>
	<node id="-803619" lat="70.7416666913" lon="29.4499989266">
		<tag k="name" v="Helløysteinen" />
		<tag k="natural" v="shoal" />
		<tag k="place" v="locality" />
		<tag k="ssr:stedsnr" v="573173" />
	</node>
	<node id="-803618" lat="70.6856028005" lon="29.2524073111">
		<tag k="name" v="Nikko-Per-høgda" />
		<tag k="natural" v="hill" />
		<tag k="place" v="locality" />
		<tag k="ssr:stedsnr" v="572223" />
	</node>
	<node id="-803617" lat="70.8544166861" lon="29.1647101752">
		<tag k="name" v="Vargvikgrunnen" />
		<tag k="natural" v="shoal" />
		<tag k="place" v="locality" />
		<tag k="ssr:stedsnr" v="571948" />
	</node>
	<node id="-803616" lat="70.8611083504" lon="29.1207879805">
		<tag k="name" v="Storelvfallet" />
		<tag k="natural" v="shoal" />
		<tag k="place" v="locality" />
		<tag k="ssr:stedsnr" v="571945" />
	</node>
	<node id="-803615" lat="70.7191778065" lon="29.6314516316">
		<tag k="name" v="Tømmervika" />
		<tag k="natural" v="bay" />
		<tag k="ssr:stedsnr" v="571554" />
	</node>
	<node id="-803614" lat="70.669886137" lon="29.3780044915">
		<tag k="name" v="Øyeelva" />
		<tag k="ssr:stedsnr" v="571537" />
		<tag k="waterway" v="stream" />
	</node>
	<node id="-803613" lat="70.7627305757" lon="29.2049684698">
		<tag k="name" v="Meresjávri" />
		<tag k="name:se" v="Meresjávri" />
		<tag k="natural" v="water" />
		<tag k="old_name:se" v="Meresjavri" />
		<tag k="ssr:stedsnr" v="566999" />
	</node>
	<node id="-803612" lat="70.7893055817" lon="29.3028073272">
		<tag k="name" v="Løkvika" />
		<tag k="natural" v="bay" />
		<tag k="ssr:stedsnr" v="566990" />
	</node>
	<node id="-803611" lat="70.8247555741" lon="29.2304629194">
		<tag k="name" v="Øster-Styrelva" />
		<tag k="ssr:stedsnr" v="566978" />
		<tag k="waterway" v="river" />
	</node>
	<node id="-803610" lat="70.835069462" lon="29.0686463174">
		<tag k="name" v="Veddalselva - Ákkeljohka" />
		<tag k="name:no" v="Veddalselva" />
		<tag k="name:se" v="Ákkeljohka" />
		<tag k="old_name:se" v="Aggeljåkka" />
		<tag k="ssr:stedsnr" v="566975" />
		<tag k="waterway" v="river" />
	</node>
	<node id="-803609" lat="70.8376555762" lon="29.1680796153">
		<tag k="name" v="Vargvikdalen" />
		<tag k="natural" v="valley" />
		<tag k="place" v="locality" />
		<tag k="ssr:stedsnr" v="566973" />
	</node>
	<node id="-803608" lat="70.8791750195" lon="29.0656491096">
		<tag k="fixme" v="consider seamark:type=rock or natural=shoal" />
		<tag k="name" v="Rundskjeret" />
		<tag k="place" v="islet" />
		<tag k="ssr:stedsnr" v="566952" />
	</node>
	<node id="-803607" lat="70.9128722466" lon="29.1018296615">
		<tag k="name" v="Skallen" />
		<tag k="natural" v="shoal" />
		<tag k="place" v="locality" />
		<tag k="ssr:stedsnr" v="566949" />
	</node>
	<node id="-803606" lat="70.7288916979" lon="29.6802488164">
		<tag k="fixme" v="consider natural=peak for the most distinct mountains in the district" />
		<tag k="name" v="Tindan" />
		<tag k="natural" v="hill" />
		<tag k="place" v="locality" />
		<tag k="ssr:stedsnr" v="566500" />
	</node>
	<node id="-803605" lat="70.5460555825" lon="29.1508795219">
		<tag k="alt_name" v="Magistervatnet, l" />
		<tag k="name" v="Lille Magistervatnet" />
		<tag k="natural" v="water" />
		<tag k="ssr:stedsnr" v="566495" />
	</node>
	<node id="-803604" lat="70.6893278068" lon="29.4562239012">
		<tag k="name" v="Bjørnvikelva" />
		<tag k="ssr:stedsnr" v="566489" />
		<tag k="waterway" v="stream" />
	</node>
	<node id="-803603" lat="70.702077805" lon="29.5125127749">
		<tag k="alt_name" v="Bjørnvika, store" />
		<tag k="name" v="Store Bjørnvika" />
		<tag k="natural" v="bay" />
		<tag k="ssr:stedsnr" v="566476" />
	</node>
	<node id="-803602" lat="70.6725000244" lon="29.2713934221">
		<tag k="name" v="Vesterbotn - Sarvvesvuotna" />
		<tag k="name:no" v="Vesterbotn" />
		<tag k="name:se" v="Sarvvesvuotna" />
		<tag k="natural" v="bay" />
		<tag k="old_name:se" v="Sarvesvuodna" />
		<tag k="ssr:stedsnr" v="566416" />
	</node>
	<node id="-803601" lat="70.6639889172" lon="29.0320990607">
		<tag k="name" v="Sauedalen" />
		<tag k="natural" v="valley" />
		<tag k="place" v="locality" />
		<tag k="ssr:stedsnr" v="566415" />
	</node>
	<node id="-803600" lat="70.6661972513" lon="29.3921572661">
		<tag k="name" v="Straumsvatna" />
		<tag k="natural" v="water" />
		<tag k="ssr:stedsnr" v="566411" />
		<tag k="water" v="lake" />
	</node>
	<node id="-803599" lat="70.6820500294" lon="29.3471489513">
		<tag k="name" v="Storneset" />
		<tag k="natural" v="cape" />
		<tag k="ssr:stedsnr" v="566409" />
	</node>
	<node id="-803598" lat="70.6849000248" lon="29.1549712524">
		<tag k="fixme" v="consider natural=peak for the most distinct mountains in the district" />
		<tag k="name" v="Nikko-Per-fjellet" />
		<tag k="natural" v="hill" />
		<tag k="place" v="locality" />
		<tag k="ssr:stedsnr" v="566404" />
	</node>
	<node id="-803597" lat="70.6986333602" lon="29.3020961967">
		<tag k="alt_name" v="Småvatnan" />
		<tag k="name" v="Småtjerna" />
		<tag k="natural" v="water" />
		<tag k="ssr:stedsnr" v="566397" />
		<tag k="water" v="lake" />
	</node>
	<node id="-803596" lat="70.6066778015" lon="29.1082684497">
		<tag k="name" v="Tranga" />
		<tag k="natural" v="gorge" />
		<tag k="ssr:stedsnr" v="566394" />
	</node>
	<node id="-803595" lat="70.6499278056" lon="29.0864712546">
		<tag k="alt_name:no" v="Kløftvatnet, store" />
		<tag k="name" v="Store Kløftvatnet - Stuorra Loapmejávri" />
		<tag k="name:no" v="Store Kløftvatnet" />
		<tag k="name:se" v="Stuorra Loapmejávri" />
		<tag k="natural" v="water" />
		<tag k="old_name:se" v="Loabmejavri stuorra" />
		<tag k="ssr:stedsnr" v="566385" />
		<tag k="water" v="lake" />
	</node>
	<node id="-803594" lat="70.5984778045" lon="29.1520878779">
		<tag k="name" v="Magerdalselva - Silesjohka" />
		<tag k="name:no" v="Magerdalselva" />
		<tag k="name:se" v="Silesjohka" />
		<tag k="old_name:se" v="Silesjåkka" />
		<tag k="ssr:stedsnr" v="566103" />
		<tag k="waterway" v="river" />
	</node>
	<node id="-803593" lat="70.4791250309" lon="29.1787656195">
		<tag k="name" v="Njoaskejávri" />
		<tag k="name:se" v="Njoaskejávri" />
		<tag k="natural" v="water" />
		<tag k="old_name:se" v="Njoaskejavri" />
		<tag k="ssr:stedsnr" v="565950" />
	</node>
	<node id="-803592" lat="70.7308333582" lon="29.3684795127">
		<tag k="name" v="Storvika" />
		<tag k="natural" v="bay" />
		<tag k="ssr:stedsnr" v="565390" />
	</node>
	<node id="-803591" lat="70.7248611363" lon="28.7711963809">
		<tag k="name" v="Rákkojalggáš" />
		<tag k="name:se" v="Rákkojalggáš" />
		<tag k="old_name:se" v="Raggujalgaš" />
		<tag k="place" v="locality" />
		<tag k="ssr:stedsnr" v="565349" />
	</node>
	<node id="-803590" lat="70.6849166876" lon="28.6898241909">
		<tag k="fixme" v="consider natural=peak for the most distinct mountains in the district" />
		<tag k="name" v="Gåsfjellet" />
		<tag k="natural" v="hill" />
		<tag k="place" v="locality" />
		<tag k="ssr:stedsnr" v="565334" />
	</node>
	<node id="-803589" lat="70.6819444641" lon="28.6387852956">
		<tag k="name" v="Klippen - Bákti" />
		<tag k="name:no" v="Klippen" />
		<tag k="name:se" v="Bákti" />
		<tag k="natural" v="hill" />
		<tag k="old_name:se" v="Bakti" />
		<tag k="place" v="locality" />
		<tag k="ssr:stedsnr" v="565332" />
	</node>
	<node id="-803588" lat="70.690372247" lon="29.3818405967">
		<tag k="name" v="Frantzenbukta" />
		<tag k="natural" v="bay" />
		<tag k="ssr:stedsnr" v="533927" />
	</node>
	<node id="-803587" lat="70.6867500218" lon="29.3665017246">
		<tag k="name" v="Gamneset" />
		<tag k="natural" v="cape" />
		<tag k="ssr:stedsnr" v="533926" />
	</node>
	<node id="-803586" lat="70.8538027995" lon="29.2409629415">
		<tag k="name" v="Kjølneset" />
		<tag k="natural" v="cape" />
		<tag k="ssr:stedsnr" v="531984" />
	</node>
	<node id="-803585" lat="70.6507166891" lon="29.136618471">
		<tag k="name" v="Hanshaugen" />
		<tag k="natural" v="hill" />
		<tag k="place" v="locality" />
		<tag k="ssr:stedsnr" v="531914" />
	</node>
	<node id="-803584" lat="70.6121166881" lon="29.1038767995">
		<tag k="fixme" v="consider natural=peak for the most distinct mountains in the district" />
		<tag k="name" v="Sukkertoppen" />
		<tag k="natural" v="hill" />
		<tag k="place" v="locality" />
		<tag k="ssr:stedsnr" v="531910" />
	</node>
	<node id="-803583" lat="70.8843694636" lon="28.9555769144">
		<tag k="name" v="Vestre Skarvneset" />
		<tag k="natural" v="cape" />
		<tag k="ssr:stedsnr" v="531754" />
	</node>
	<node id="-803582" lat="70.6466972513" lon="29.1973295459">
		<tag k="name" v="Østerhaugen" />
		<tag k="natural" v="hill" />
		<tag k="place" v="locality" />
		<tag k="ssr:stedsnr" v="530881" />
	</node>
	<node id="-803581" lat="70.6268833585" lon="29.1553878895">
		<tag k="name" v="Olavholla" />
		<tag k="place" v="locality" />
		<tag k="ssr:stedsnr" v="530879" />
	</node>
	<node id="-803580" lat="70.8745889109" lon="29.0871768679">
		<tag k="fixme" v="consider seamark:type=rock or natural=shoal" />
		<tag k="name" v="Tollefsnesskjæret" />
		<tag k="place" v="islet" />
		<tag k="ssr:stedsnr" v="511939" />
	</node>
	<node id="-803579" lat="70.7288194761" lon="29.6727960529">
		<tag k="name" v="Staurene" />
		<tag k="natural" v="hill" />
		<tag k="place" v="locality" />
		<tag k="ssr:stedsnr" v="511530" />
	</node>
	<node id="-803578" lat="70.6198444725" lon="29.6899571029">
		<tag k="name" v="Maritbukta" />
		<tag k="natural" v="bay" />
		<tag k="ssr:stedsnr" v="511501" />
	</node>
	<node id="-803577" lat="70.8333333578" lon="29.6666655194">
		<tag k="name" v="Vesterbakken" />
		<tag k="place" v="locality" />
		<tag k="ssr:stedsnr" v="511220" />
	</node>
	<node id="-803576" lat="70.6955778046" lon="29.3513628428">
		<tag k="name" v="Kjosen" />
		<tag k="natural" v="bay" />
		<tag k="ssr:stedsnr" v="510719" />
	</node>
	<node id="-803575" lat="70.7916750278" lon="29.2998462209">
		<tag k="name" v="Sandstøberget" />
		<tag k="natural" v="cape" />
		<tag k="ssr:stedsnr" v="506989" />
	</node>
	<node id="-803574" lat="70.80732502" lon="28.9662741076">
		<tag k="fixme" v="consider natural=peak for the most distinct mountains in the district" />
		<tag k="name" v="Mordartoppen" />
		<tag k="natural" v="hill" />
		<tag k="place" v="locality" />
		<tag k="ssr:stedsnr" v="506983" />
	</node>
	<node id="-803573" lat="70.6145722506" lon="29.2389156216">
		<tag k="alt_name:se" v="Stuorgorsa" />
		<tag k="name" v="Bryggarielva - Doaresjohka" />
		<tag k="name:no" v="Bryggarielva" />
		<tag k="name:se" v="Doaresjohka" />
		<tag k="old_name:se" v="Doaresjåkka" />
		<tag k="ssr:stedsnr" v="506106" />
		<tag k="waterway" v="river" />
	</node>
	<node id="-803572" lat="70.8264583532" lon="29.2713073392">
		<tag k="name" v="Styret" />
		<tag k="natural" v="cape" />
		<tag k="ssr:stedsnr" v="505979" />
	</node>
	<node id="-803571" lat="70.8200305799" lon="29.1175351887">
		<tag k="name" v="Løkvikdalen" />
		<tag k="natural" v="valley" />
		<tag k="place" v="locality" />
		<tag k="ssr:stedsnr" v="505978" />
	</node>
	<node id="-803570" lat="70.8446861303" lon="29.1367990569">
		<tag k="name" v="Vargvikbekken" />
		<tag k="ssr:stedsnr" v="505970" />
		<tag k="waterway" v="stream" />
	</node>
	<node id="-803569" lat="70.8621778009" lon="29.0020546807">
		<tag k="name" v="Svartneshaugen" />
		<tag k="natural" v="hill" />
		<tag k="place" v="locality" />
		<tag k="ssr:stedsnr" v="505959" />
	</node>
	<node id="-803568" lat="70.8116361303" lon="28.6755714433">
		<tag k="name" v="Krøkebærneset - Muorjegárnjárga" />
		<tag k="name:no" v="Krøkebærneset" />
		<tag k="name:se" v="Muorjegárnjárga" />
		<tag k="natural" v="cape" />
		<tag k="old_name:se" v="Muorjegarnjarga" />
		<tag k="ssr:stedsnr" v="505929" />
	</node>
	<node id="-803567" lat="70.8440111324" lon="28.7355436611">
		<tag k="name" v="Kvitnes - Guittanas" />
		<tag k="name:no" v="Kvitnes" />
		<tag k="name:se" v="Guittanas" />
		<tag k="natural" v="cape" />
		<tag k="old_name:se" v="Guitanas" />
		<tag k="ssr:stedsnr" v="505920" />
	</node>
	<node id="-803566" lat="70.8221194617" lon="28.7660714102">
		<tag k="name" v="Muorjegárjeaggi" />
		<tag k="name:se" v="Muorjegárjeaggi" />
		<tag k="natural" v="wetland" />
		<tag k="old_name:se" v="Muorjegarjæggi" />
		<tag k="ssr:stedsnr" v="505917" />
	</node>
	<node id="-803565" lat="70.6180583637" lon="29.4474850064">
		<tag k="name" v="Stuorraleakši" />
		<tag k="name:se" v="Stuorraleakši" />
		<tag k="old_name:se" v="Stuorralæksi;Stuoraleaksi" />
		<tag k="ssr:stedsnr" v="505490" />
		<tag k="waterway" v="river" />
	</node>
	<node id="-803564" lat="70.7458333563" lon="29.3065712078">
		<tag k="bay" v="fjord" />
		<tag k="name" v="Risfjorden - Miennavuotna" />
		<tag k="name:no" v="Risfjorden" />
		<tag k="name:se" v="Miennavuotna" />
		<tag k="natural" v="bay" />
		<tag k="old_name:se" v="Miennavuodna" />
		<tag k="ssr:stedsnr" v="505443" />
	</node>
	<node id="-803563" lat="70.7321111408" lon="29.4191628304">
		<tag k="name" v="Veidnesodden - Riššačilanjárga" />
		<tag k="name:no" v="Veidnesodden" />
		<tag k="name:se" v="Riššačilanjárga" />
		<tag k="natural" v="cape" />
		<tag k="old_name:se" v="Riššačilanjarga" />
		<tag k="ssr:stedsnr" v="505423" />
	</node>
	<node id="-803562" lat="70.7103472503" lon="29.2859739736">
		<tag k="name" v="Djupbukta - Goađášgohppi" />
		<tag k="name:no" v="Djupbukta" />
		<tag k="name:se" v="Goađášgohppi" />
		<tag k="natural" v="bay" />
		<tag k="old_name:se" v="Goađašgåppi" />
		<tag k="ssr:stedsnr" v="505401" />
	</node>
	<node id="-803561" lat="70.6921639184" lon="29.4071378057">
		<tag k="name" v="Sandbukta - Sáttogohppi" />
		<tag k="name:no" v="Sandbukta" />
		<tag k="name:se" v="Sáttogohppi" />
		<tag k="natural" v="bay" />
		<tag k="old_name:se" v="Saddugåppi" />
		<tag k="ssr:stedsnr" v="505400" />
	</node>
	<node id="-803560" lat="70.6309611421" lon="29.3709600313">
		<tag k="fixme" v="consider natural=peak for the most distinct mountains in the district" />
		<tag k="name" v="Hundtoppen - Beatnatčohkat" />
		<tag k="name:no" v="Hundtoppen" />
		<tag k="name:se" v="Beatnatčohkat" />
		<tag k="natural" v="hill" />
		<tag k="old_name:se" v="Bædnatčåkkat" />
		<tag k="place" v="locality" />
		<tag k="ssr:stedsnr" v="505394" />
	</node>
	<node id="-803559" lat="70.6160111337" lon="29.1242490068">
		<tag k="alt_name" v="Fossvatnet" />
		<tag k="name" v="Fossvatna" />
		<tag k="natural" v="water" />
		<tag k="ssr:stedsnr" v="505390" />
	</node>
	<node id="-803558" lat="70.6992639075" lon="28.5418547953">
		<tag k="fixme" v="consider seamark:type=rock or natural=shoal" />
		<tag k="name" v="Storskjeret - Stuorralásis" />
		<tag k="name:no" v="Storskjeret" />
		<tag k="name:se" v="Stuorralásis" />
		<tag k="old_name:se" v="Stuorralasis" />
		<tag k="place" v="islet" />
		<tag k="ssr:stedsnr" v="505362" />
	</node>
	<node id="-803557" lat="70.862461134" lon="28.9834463527">
		<tag k="name" v="Kuelvdalen" />
		<tag k="natural" v="valley" />
		<tag k="place" v="locality" />
		<tag k="ssr:stedsnr" v="501687" />
	</node>
	<node id="-803556" lat="70.668555584" lon="29.2813462001">
		<tag k="name" v="Govika" />
		<tag k="natural" v="bay" />
		<tag k="ssr:stedsnr" v="472899" />
	</node>
	<node id="-803555" lat="70.6551805804" lon="29.2021267736">
		<tag k="name" v="Nedre Svaberget" />
		<tag k="place" v="locality" />
		<tag k="ssr:stedsnr" v="471894" />
	</node>
	<node id="-803554" lat="70.8467389074" lon="29.0211963444">
		<tag k="name" v="Grønnlihøgda" />
		<tag k="natural" v="hill" />
		<tag k="place" v="locality" />
		<tag k="ssr:stedsnr" v="471703" />
	</node>
	<node id="-803553" lat="70.8579166873" lon="28.9143019411">
		<tag k="name" v="Skonsvikdalen" />
		<tag k="natural" v="valley" />
		<tag k="place" v="locality" />
		<tag k="ssr:stedsnr" v="470557" />
	</node>
	<node id="-803552" lat="70.655713918" lon="29.2107101062">
		<tag k="name" v="Svarthaugen" />
		<tag k="natural" v="hill" />
		<tag k="place" v="locality" />
		<tag k="ssr:stedsnr" v="469898" />
	</node>
	<node id="-803551" lat="70.8684027964" lon="29.0497657866">
		<tag k="name" v="Torvbergan" />
		<tag k="natural" v="hill" />
		<tag k="place" v="locality" />
		<tag k="ssr:stedsnr" v="457285" />
	</node>
	<node id="-803550" lat="70.8527944676" lon="29.0842074362">
		<tag k="leisure" v="pitch" />
		<tag k="name" v="Berlevåg Stadion" />
		<tag k="ssr:stedsnr" v="457256" />
	</node>
	<node id="-803549" lat="70.8530611303" lon="28.7660380758">
		<tag k="fixme" v="consider natural=peak for the most distinct mountains in the district" />
		<tag k="name" v="Kvitnesaksla" />
		<tag k="natural" v="hill" />
		<tag k="place" v="locality" />
		<tag k="ssr:stedsnr" v="451511" />
	</node>
	<node id="-803548" lat="70.6762944687" lon="28.5729769861">
		<tag k="name" v="Libobukta" />
		<tag k="natural" v="bay" />
		<tag k="ssr:stedsnr" v="451333" />
	</node>
	<node id="-803547" lat="70.717794468" lon="29.3130656412">
		<tag k="name" v="Indre Havn" />
		<tag k="natural" v="bay" />
		<tag k="ssr:stedsnr" v="450978" />
	</node>
	<node id="-803546" lat="70.6851555856" lon="29.3163267267">
		<tag k="alt_name" v="Tørrfallneset" />
		<tag k="name" v="Storkjosneset" />
		<tag k="natural" v="cape" />
		<tag k="ssr:stedsnr" v="450560" />
	</node>
	<node id="-803545" lat="70.7356416962" lon="29.416137828">
		<tag k="name" v="Gullhatten" />
		<tag k="place" v="islet" />
		<tag k="ssr:stedsnr" v="450557" />
	</node>
	<node id="-803544" lat="70.7634750162" lon="28.615046448">
		<tag k="name" v="Muohtagahččanjohka" />
		<tag k="name:se" v="Muohtagahččanjohka" />
		<tag k="old_name:se" v="Muottagaččanjåkka" />
		<tag k="ssr:stedsnr" v="445966" />
		<tag k="waterway" v="stream" />
	</node>
	<node id="-803543" lat="70.9060333502" lon="29.0819102105">
		<tag k="alt_name" v="Mellomgrunnen" />
		<tag k="name" v="Mellagrunnen" />
		<tag k="natural" v="shoal" />
		<tag k="place" v="locality" />
		<tag k="ssr:stedsnr" v="445964" />
	</node>
	<node id="-803542" lat="70.7972083503" lon="28.6753742114">
		<tag k="fixme" v="consider natural=peak for the most distinct mountains in the district" />
		<tag k="name" v="Stigen - Stiiga" />
		<tag k="name:no" v="Stigen" />
		<tag k="name:se" v="Stiiga" />
		<tag k="natural" v="hill" />
		<tag k="place" v="locality" />
		<tag k="ssr:stedsnr" v="445953" />
	</node>
	<node id="-803541" lat="70.7168416947" lon="29.4603600129">
		<tag k="name" v="Kongsøya" />
		<tag k="place" v="island" />
		<tag k="ssr:stedsnr" v="445496" />
	</node>
	<node id="-803540" lat="70.6724722483" lon="29.0556407195">
		<tag k="name" v="Risfjordkrysset" />
		<tag k="natural" v="bay" />
		<tag k="ssr:stedsnr" v="445418" />
	</node>
	<node id="-803539" lat="70.6117139164" lon="29.1695740072">
		<tag k="name" v="Ørretvannet" />
		<tag k="natural" v="water" />
		<tag k="ssr:stedsnr" v="445404" />
		<tag k="water" v="lake" />
	</node>
	<node id="-803538" lat="70.6586361397" lon="29.2772989685">
		<tag k="alt_name:no" v="Østerbotn" />
		<tag k="name" v="Austerbotn - Guohcagohppi" />
		<tag k="name:no" v="Austerbotn" />
		<tag k="name:se" v="Guohcagohppi" />
		<tag k="natural" v="bay" />
		<tag k="old_name:se" v="Guoccagåppi" />
		<tag k="ssr:stedsnr" v="445398" />
	</node>
	<node id="-803537" lat="70.6640389144" lon="29.3596517058">
		<tag k="fixme" v="consider natural=peak for the most distinct mountains in the district" />
		<tag k="name" v="Strømstinden" />
		<tag k="natural" v="hill" />
		<tag k="place" v="locality" />
		<tag k="ssr:stedsnr" v="445397" />
	</node>
	<node id="-803536" lat="70.6969027988" lon="28.7285047146">
		<tag k="name" v="Jorbajávri" />
		<tag k="name:se" v="Jorbajávri" />
		<tag k="natural" v="water" />
		<tag k="old_name:se" v="Jårbajavri" />
		<tag k="ssr:stedsnr" v="445367" />
		<tag k="water" v="lake" />
	</node>
	<node id="-803535" lat="70.6482694628" lon="28.6619241883">
		<tag k="name" v="Goikejohka" />
		<tag k="name:se" v="Goikejohka" />
		<tag k="old_name:se" v="Gåikejåkka" />
		<tag k="ssr:stedsnr" v="445345" />
		<tag k="waterway" v="stream" />
	</node>
	<node id="-803534" lat="70.6392833586" lon="28.7582269165">
		<tag k="name" v="Stuorrajokgorsa" />
		<tag k="name:se" v="Stuorrajokgorsa" />
		<tag k="natural" v="valley" />
		<tag k="old_name:se" v="Stuorrajåkgårsa" />
		<tag k="place" v="locality" />
		<tag k="ssr:stedsnr" v="445343" />
	</node>
	<node id="-803533" lat="70.7041361279" lon="28.539999229">
		<tag k="name" v="Skjerberget" />
		<tag k="natural" v="cape" />
		<tag k="ssr:stedsnr" v="444326" />
	</node>
	<node id="-803532" lat="70.8177000228" lon="28.865646392">
		<tag k="name" v="Eidelva - Suohpášjohka" />
		<tag k="name:no" v="Eidelva" />
		<tag k="name:se" v="Suohpášjohka" />
		<tag k="old_name:se" v="Suoppašjåkka" />
		<tag k="ssr:stedsnr" v="263990" />
		<tag k="waterway" v="stream" />
	</node>
	<node id="-803531" lat="70.8441944646" lon="28.9670380141">
		<tag k="fixme" v="consider natural=peak for the most distinct mountains in the district" />
		<tag k="name" v="Lillevarden" />
		<tag k="natural" v="hill" />
		<tag k="ssr:stedsnr" v="263981" />
	</node>
	<node id="-803530" lat="70.8722389049" lon="29.0849491022">
		<tag k="name" v="Valen" />
		<tag k="natural" v="cape" />
		<tag k="ssr:stedsnr" v="263969" />
	</node>
	<node id="-803529" lat="70.8684639055" lon="29.0197935747">
		<tag k="name" v="Storsletta" />
		<tag k="place" v="farm" />
		<tag k="ssr:stedsnr" v="263966" />
	</node>
	<node id="-803528" lat="70.8673528006" lon="29.1136546394">
		<tag k="fixme" v="consider seamark:type=rock or natural=shoal" />
		<tag k="name" v="Svartoksen" />
		<tag k="place" v="islet" />
		<tag k="ssr:stedsnr" v="263967" />
	</node>
	<node id="-803527" lat="70.8828305758" lon="28.9302741466">
		<tag k="name" v="Ordinneset - Oardanjárga" />
		<tag k="name:no" v="Ordinneset" />
		<tag k="name:se" v="Oardanjárga" />
		<tag k="natural" v="cape" />
		<tag k="old_name:se" v="Oardanjarga" />
		<tag k="ssr:stedsnr" v="263965" />
	</node>
	<node id="-803526" lat="70.8838666875" lon="28.9555019169">
		<tag k="name" v="Russehamna" />
		<tag k="place" v="isolated_dwelling" />
		<tag k="ssr:stedsnr" v="263962" />
	</node>
	<node id="-803525" lat="70.7713750158" lon="28.6453131025">
		<tag k="name" v="Beantabákti" />
		<tag k="name:se" v="Beantabákti" />
		<tag k="natural" v="hill" />
		<tag k="old_name:se" v="Bæntabakti" />
		<tag k="place" v="locality" />
		<tag k="ssr:stedsnr" v="263954" />
	</node>
	<node id="-803524" lat="70.7818889092" lon="28.7662491887">
		<tag k="name" v="Stuorrajokgorsa" />
		<tag k="name:se" v="Stuorrajokgorsa" />
		<tag k="natural" v="valley" />
		<tag k="old_name:se" v="Stuorrajåkgårsa" />
		<tag k="place" v="locality" />
		<tag k="ssr:stedsnr" v="263955" />
	</node>
	<node id="-803523" lat="70.78336391" lon="28.6468158997">
		<tag k="name" v="Molvikbukta - Guolleveaigohppi" />
		<tag k="name:no" v="Molvikbukta" />
		<tag k="name:se" v="Guolleveaigohppi" />
		<tag k="natural" v="bay" />
		<tag k="old_name:se" v="Guollevæjgåppi" />
		<tag k="ssr:stedsnr" v="263952" />
	</node>
	<node id="-803522" lat="70.8143389099" lon="28.6862131134">
		<tag k="name" v="Muorjegárggu" />
		<tag k="name:se" v="Muorjegárggu" />
		<tag k="old_name:se" v="Muorjegargo" />
		<tag k="place" v="locality" />
		<tag k="ssr:stedsnr" v="263948" />
	</node>
	<node id="-803521" lat="70.822558352" lon="28.7018992213">
		<tag k="name" v="Gjerdeneset - Várregoađenjárga" />
		<tag k="name:no" v="Gjerdeneset" />
		<tag k="name:se" v="Várregoađenjárga" />
		<tag k="natural" v="cape" />
		<tag k="old_name:se" v="Varregoađenjarga" />
		<tag k="ssr:stedsnr" v="263941" />
	</node>
	<node id="-803520" lat="70.7254861382" lon="29.455710029">
		<tag k="name" v="Helløya" />
		<tag k="place" v="island" />
		<tag k="ssr:stedsnr" v="263504" />
	</node>
	<node id="-803519" lat="70.6933694713" lon="29.4934655465">
		<tag k="fixme" v="consider natural=peak for the most distinct mountains in the district" />
		<tag k="name" v="Bjørnviktoppen" />
		<tag k="natural" v="hill" />
		<tag k="ssr:stedsnr" v="263499" />
	</node>
	<node id="-803518" lat="70.7013916922" lon="29.4769155754">
		<tag k="name" v="Bjørnvika" />
		<tag k="natural" v="bay" />
		<tag k="ssr:stedsnr" v="263496" />
	</node>
	<node id="-803517" lat="70.6085666936" lon="29.0796601342">
		<tag k="alt_name:no" v="Buetjern" />
		<tag k="name" v="Buetjernet - Dávgeluoppal" />
		<tag k="name:no" v="Buetjernet" />
		<tag k="name:se" v="Dávgeluoppal" />
		<tag k="natural" v="water" />
		<tag k="old_name:se" v="Davgeluobbal" />
		<tag k="ssr:stedsnr" v="263409" />
		<tag k="water" v="lake" />
	</node>
	<node id="-803516" lat="70.8381028012" lon="29.0085463406">
		<tag k="name" v="Storelva - Rákkojohka" />
		<tag k="name:no" v="Storelva" />
		<tag k="name:se" v="Rákkojohka" />
		<tag k="old_name:se" v="Raggujåkka" />
		<tag k="ssr:stedsnr" v="263113" />
		<tag k="waterway" v="river" />
	</node>
	<node id="-803515" lat="70.8005750223" lon="29.2819073301">
		<tag k="alt_name" v="Sandfjordbukta" />
		<tag k="name" v="Sandfjorden" />
		<tag k="natural" v="bay" />
		<tag k="ssr:stedsnr" v="262525" />
	</node>
	<node id="-803514" lat="70.7906722404" lon="28.7540936188">
		<tag k="name" v="Stuorrajohka" />
		<tag k="name:se" v="Stuorrajohka" />
		<tag k="old_name:se" v="Stuorrajåkka" />
		<tag k="ssr:stedsnr" v="262523" />
		<tag k="waterway" v="river" />
	</node>
	<node id="-803513" lat="70.711275028" lon="29.2441462146">
		<tag k="name" v="Hergevannet - Heargejávri" />
		<tag k="name:no" v="Hergevannet" />
		<tag k="name:se" v="Heargejávri" />
		<tag k="natural" v="water" />
		<tag k="old_name:se" v="Hærgejavri" />
		<tag k="ssr:stedsnr" v="262434" />
		<tag k="water" v="lake" />
	</node>
	<node id="-803512" lat="70.7224083592" lon="29.3915405929">
		<tag k="name" v="Kua" />
		<tag k="natural" v="shoal" />
		<tag k="place" v="locality" />
		<tag k="ssr:stedsnr" v="262428" />
	</node>
	<node id="-803511" lat="70.7353139151" lon="29.4017683819">
		<tag k="name" v="Hattholmen - Háhttasuolu" />
		<tag k="name:no" v="Hattholmen" />
		<tag k="name:se" v="Háhttasuolu" />
		<tag k="old_name:se" v="Hattasuolo" />
		<tag k="place" v="islet" />
		<tag k="ssr:stedsnr" v="262422" />
	</node>
	<node id="-803510" lat="70.729613911" lon="29.3221239703">
		<tag k="name" v="Hergevika" />
		<tag k="natural" v="bay" />
		<tag k="ssr:stedsnr" v="262418" />
	</node>
	<node id="-803509" lat="70.7013639177" lon="29.3209378464">
		<tag k="alt_name:no" v="Storsteinbukt" />
		<tag k="name" v="Storsteinbukta - Moššoluokta" />
		<tag k="name:no" v="Storsteinbukta" />
		<tag k="name:se" v="Moššoluokta" />
		<tag k="natural" v="bay" />
		<tag k="old_name:se" v="Måššuluokta" />
		<tag k="ssr:stedsnr" v="262403" />
	</node>
	<node id="-803508" lat="70.7222194643" lon="28.6485936347">
		<tag k="name" v="Baikačearru" />
		<tag k="name:se" v="Baikačearru" />
		<tag k="natural" v="plateau" />
		<tag k="old_name:se" v="Baikačærro" />
		<tag k="ssr:stedsnr" v="262357" />
	</node>
	<node id="-803507" lat="70.8361944604" lon="28.98192413">
		<tag k="name" v="Langlia" />
		<tag k="natural" v="slope" />
		<tag k="place" v="locality" />
		<tag k="ssr:stedsnr" v="259677" />
	</node>
	<node id="-803506" lat="70.7027527999" lon="29.2454350905">
		<tag k="name" v="Holmhaugen" />
		<tag k="natural" v="hill" />
		<tag k="place" v="locality" />
		<tag k="ssr:stedsnr" v="228943" />
	</node>
	<node id="-803505" lat="70.5982250288" lon="29.0932267946">
		<tag k="name" v="Sandmomyra" />
		<tag k="natural" v="wetland" />
		<tag k="ssr:stedsnr" v="228907" />
	</node>
	<node id="-803504" lat="70.60394725" lon="29.0995406974">
		<tag k="name" v="Kokfiskholla" />
		<tag k="natural" v="water" />
		<tag k="ssr:stedsnr" v="228905" />
		<tag k="water" v="lake" />
	</node>
	<node id="-803503" lat="70.8338722371" lon="28.8631186116">
		<tag k="name" v="Milstein" />
		<tag k="natural" v="stone" />
		<tag k="ssr:stedsnr" v="228607" />
	</node>
	<node id="-803501" lat="70.7358555787" lon="29.3002323">
		<tag k="alt_name" v="Østre Risfjordholmen" />
		<tag k="fixme" v="consider seamark:type=rock or natural=shoal" />
		<tag k="name" v="Østre Risfjordskjeret" />
		<tag k="place" v="islet" />
		<tag k="ssr:stedsnr" v="211257" />
	</node>
	<node id="-803500" lat="70.8720555747" lon="29.1288601893">
		<tag k="name" v="Kirkegrunnen" />
		<tag k="natural" v="shoal" />
		<tag k="place" v="locality" />
		<tag k="ssr:stedsnr" v="208946" />
	</node>
	<node id="-803499" lat="70.8642027941" lon="28.7994297456">
		<tag k="name" v="Bukkekeila" />
		<tag k="place" v="locality" />
		<tag k="ssr:stedsnr" v="208506" />
	</node>
	<node id="-803498" lat="70.6769055801" lon="29.2106573284">
		<tag k="name" v="Nikko-Per-elva" />
		<tag k="ssr:stedsnr" v="208179" />
		<tag k="waterway" v="river" />
	</node>
	<node id="-803497" lat="70.8846055753" lon="28.9667491499">
		<tag k="name" v="Skarveneset" />
		<tag k="natural" v="cape" />
		<tag k="ssr:stedsnr" v="208158" />
	</node>
	<node id="-803496" lat="70.7102833605" lon="29.3159739708">
		<tag k="name" v="Haraldbåen" />
		<tag k="natural" v="shoal" />
		<tag k="place" v="locality" />
		<tag k="ssr:stedsnr" v="207501" />
	</node>
	<node id="-803495" lat="70.7333861352" lon="29.3330711999">
		<tag k="name" v="Hergevikgrunnen" />
		<tag k="natural" v="shoal" />
		<tag k="place" v="locality" />
		<tag k="ssr:stedsnr" v="207499" />
	</node>
	<node id="-803494" lat="70.7838389141" lon="29.3858322904">
		<tag k="name" v="Nålnesvika" />
		<tag k="natural" v="bay" />
		<tag k="ssr:stedsnr" v="202995" />
	</node>
	<node id="-803493" lat="70.7776277965" lon="28.6970991865">
		<tag k="name" v="Jeretjohka" />
		<tag k="name:se" v="Jeretjohka" />
		<tag k="old_name:se" v="Jeretjåkka" />
		<tag k="ssr:stedsnr" v="202963" />
		<tag k="waterway" v="stream" />
	</node>
	<node id="-803492" lat="70.8043194668" lon="28.7968491748">
		<tag k="name" v="Sullojohka" />
		<tag k="name:se" v="Sullojohka" />
		<tag k="old_name:se" v="Sullujåkka" />
		<tag k="ssr:stedsnr" v="202952" />
		<tag k="waterway" v="stream" />
	</node>
	<node id="-803491" lat="70.540658364" lon="29.212998956">
		<tag k="name" v="O-vannet" />
		<tag k="natural" v="water" />
		<tag k="ssr:stedsnr" v="202507" />
		<tag k="water" v="lake" />
	</node>
	<node id="-803490" lat="70.702025027" lon="29.4531766797">
		<tag k="fixme" v="multiple name tags, choose one and add the other to alt_name" />
		<tag k="name" v="Bjørnvikklubben;Klubbeneset" />
		<tag k="natural" v="cape" />
		<tag k="ssr:stedsnr" v="202474" />
	</node>
	<node id="-803489" lat="70.7254861317" lon="29.1385129247">
		<tag k="name" v="Vester-Risfjorddalen" />
		<tag k="natural" v="valley" />
		<tag k="place" v="locality" />
		<tag k="ssr:stedsnr" v="202417" />
	</node>
	<node id="-803488" lat="70.6894111371" lon="29.2837128523">
		<tag k="name" v="Rundvannet" />
		<tag k="natural" v="water" />
		<tag k="ssr:stedsnr" v="202400" />
	</node>
	<node id="-803487" lat="70.6163416917" lon="28.9904990626">
		<tag k="name" v="Seltersvannet" />
		<tag k="natural" v="water" />
		<tag k="ssr:stedsnr" v="202392" />
	</node>
	<node id="-803486" lat="70.6186611345" lon="29.0306184884">
		<tag k="name" v="Dagenvannet - Goikemuorjávri" />
		<tag k="name:no" v="Dagenvannet" />
		<tag k="name:se" v="Goikemuorjávri" />
		<tag k="natural" v="water" />
		<tag k="old_name:se" v="Gåikemuorjavri" />
		<tag k="ssr:stedsnr" v="202391" />
		<tag k="water" v="lake" />
	</node>
	<node id="-803485" lat="70.6258000263" lon="29.1492267781">
		<tag k="alt_name:se" v="Getnjejohka" />
		<tag k="name" v="Kongsfjordelva - Geatnja" />
		<tag k="name:no" v="Kongsfjordelva" />
		<tag k="name:se" v="Geatnja" />
		<tag k="old_name:se" v="Gædnja;Gednjejåkka" />
		<tag k="ssr:stedsnr" v="202389" />
		<tag k="waterway" v="river" />
	</node>
	<node id="-803484" lat="70.7083389106" lon="28.5478686799">
		<tag k="name" v="Lássávággi" />
		<tag k="name:se" v="Lássávággi" />
		<tag k="natural" v="valley" />
		<tag k="old_name:se" v="Lassavaggi" />
		<tag k="place" v="locality" />
		<tag k="ssr:stedsnr" v="202357" />
	</node>
	<node id="-803483" lat="70.6962555737" lon="28.6132797494">
		<tag k="name" v="Baikajoksuorgi" />
		<tag k="name:se" v="Baikajoksuorgi" />
		<tag k="old_name:se" v="Baikajåksuorgi" />
		<tag k="ssr:stedsnr" v="202352" />
		<tag k="waterway" v="stream" />
	</node>
	<node id="-803482" lat="70.6893166916" lon="28.5106853433">
		<tag k="fixme" v="consider seamark:type=rock or natural=shoal" />
		<tag k="name" v="Cohkolatlásis" />
		<tag k="name:se" v="Cohkolatlásis" />
		<tag k="old_name:se" v="Cåkkulatlasis" />
		<tag k="place" v="islet" />
		<tag k="ssr:stedsnr" v="202347" />
	</node>
	<node id="-803481" lat="70.6805916876" lon="28.6312186426">
		<tag k="fixme" v="multiple name tags, choose one and add the other to alt_name; consider place=hamlet" />
		<tag k="name" v="Gulgofjorden;Trollfjorden" />
		<tag k="place" v="village" />
		<tag k="ssr:stedsnr" v="202343" />
	</node>
	<node id="-803480" lat="70.7200250301" lon="29.7014127051">
		<tag k="name" v="Vesterelva" />
		<tag k="ssr:stedsnr" v="202103" />
		<tag k="waterway" v="river" />
	</node>
	<node id="-803479" lat="70.8705833558" lon="28.9681713524">
		<tag k="name" v="Skonsvikvatnan" />
		<tag k="natural" v="water" />
		<tag k="ssr:stedsnr" v="198697" />
		<tag k="water" v="lake" />
	</node>
	<node id="-803478" lat="70.7278611335" lon="29.3349545144">
		<tag k="name" v="Østre Plogvikneset" />
		<tag k="natural" v="cape" />
		<tag k="ssr:stedsnr" v="167949" />
	</node>
	<node id="-803477" lat="70.6575361388" lon="29.2055517737">
		<tag k="name" v="Svartvannet" />
		<tag k="natural" v="water" />
		<tag k="ssr:stedsnr" v="166882" />
	</node>
	<node id="-803476" lat="70.6416389177" lon="29.1920434285">
		<tag k="name" v="Bryggarimyra" />
		<tag k="natural" v="wetland" />
		<tag k="ssr:stedsnr" v="166881" />
	</node>
	<node id="-803475" lat="70.8583389105" lon="29.0928518812">
		<tag k="landuse" v="harbour" />
		<tag k="name" v="Indre havn" />
		<tag k="seamark:type" v="harbour" />
		<tag k="ssr:stedsnr" v="152313" />
	</node>
	<node id="-803474" lat="70.8607060164" lon="29.0927604386">
		<tag k="leisure" v="park" />
		<tag k="name" v="Parken" />
		<tag k="ssr:stedsnr" v="152311" />
	</node>
	<node id="-803473" lat="70.859008351" lon="29.10107131">
		<tag k="man_made" v="breakwater" />
		<tag k="name" v="Vardnesmoloen" />
		<tag k="place" v="locality" />
		<tag k="ssr:stedsnr" v="152309" />
	</node>
	<node id="-803472" lat="70.7415000207" lon="29.2726934434">
		<tag k="fixme" v="consider seamark:type=rock or natural=shoal" />
		<tag k="name" v="Vestre Risfjordskjeret" />
		<tag k="place" v="islet" />
		<tag k="ssr:stedsnr" v="149224" />
	</node>
	<node id="-803471" lat="70.8289722411" lon="29.0270824309">
		<tag k="fixme" v="consider natural=peak for the most distinct mountains in the district" />
		<tag k="name" v="Stortuva" />
		<tag k="natural" v="hill" />
		<tag k="place" v="locality" />
		<tag k="ssr:stedsnr" v="148980" />
	</node>
	<node id="-803470" lat="70.8725305745" lon="28.817224197">
		<tag k="name" v="Kråkeneset" />
		<tag k="natural" v="cape" />
		<tag k="ssr:stedsnr" v="147467" />
	</node>
	<node id="-803469" lat="70.7606444657" lon="28.9036518949">
		<tag k="name" v="Ner-Raggobekken" />
		<tag k="ssr:stedsnr" v="147190" />
		<tag k="waterway" v="stream" />
	</node>
	<node id="-803468" lat="70.7666083594" lon="29.3490267631">
		<tag k="name" v="Nordmannset - Struhppu" />
		<tag k="name:no" v="Nordmannset" />
		<tag k="name:se" v="Struhppu" />
		<tag k="old_name:se" v="Struppo" />
		<tag k="place" v="hamlet" />
		<tag k="ssr:stedsnr" v="141998" />
	</node>
	<node id="-803467" lat="70.7709805749" lon="28.846307472">
		<tag k="fixme" v="consider natural=peak for the most distinct mountains in the district" />
		<tag k="name" v="Njálačohkat" />
		<tag k="name:se" v="Njálačohkat" />
		<tag k="natural" v="hill" />
		<tag k="old_name:se" v="Njalačåkkat" />
		<tag k="place" v="locality" />
		<tag k="ssr:stedsnr" v="141992" />
	</node>
	<node id="-803466" lat="70.7848805789" lon="29.3483684321">
		<tag k="fixme" v="consider natural=peak for the most distinct mountains in the district" />
		<tag k="name" v="Nålnesaksla" />
		<tag k="natural" v="hill" />
		<tag k="ssr:stedsnr" v="141987" />
	</node>
	<node id="-803465" lat="70.791811131" lon="29.3154101048">
		<tag k="name" v="Tarevika" />
		<tag k="natural" v="bay" />
		<tag k="ssr:stedsnr" v="141986" />
	</node>
	<node id="-803464" lat="70.7523083522" lon="28.6490908653">
		<tag k="name" v="Sletta" />
		<tag k="natural" v="plateau" />
		<tag k="ssr:stedsnr" v="141948" />
	</node>
	<node id="-803463" lat="70.4918055867" lon="29.1691239594">
		<tag k="fixme" v="consider natural=peak for the most distinct mountains in the district" />
		<tag k="name" v="Davit Njoaskoaivi" />
		<tag k="name:se" v="Davit Njoaskoaivi" />
		<tag k="natural" v="hill" />
		<tag k="old_name:se" v="Njoaskoaivi, davit" />
		<tag k="place" v="locality" />
		<tag k="ssr:stedsnr" v="141945" />
	</node>
	<node id="-803462" lat="70.7748750228" lon="28.801346382">
		<tag k="name" v="Moalkejávri" />
		<tag k="name:se" v="Moalkejávri" />
		<tag k="natural" v="water" />
		<tag k="old_name:se" v="Moalkejavri" />
		<tag k="ssr:stedsnr" v="141946" />
	</node>
	<node id="-803461" lat="70.7946611336" lon="28.6615019869">
		<tag k="name" v="Stigeneset - Gálbbenjunni" />
		<tag k="name:no" v="Stigeneset" />
		<tag k="name:se" v="Gálbbenjunni" />
		<tag k="natural" v="cape" />
		<tag k="old_name:se" v="Galbenjunni" />
		<tag k="ssr:stedsnr" v="141935" />
	</node>
	<node id="-803460" lat="70.8303694623" lon="28.715065863">
		<tag k="name" v="Ruohtasnjárga" />
		<tag k="name:se" v="Ruohtasnjárga" />
		<tag k="natural" v="cape" />
		<tag k="old_name:se" v="Ruottasnjarga" />
		<tag k="ssr:stedsnr" v="141927" />
	</node>
	<node id="-803459" lat="70.8549777923" lon="28.7572214222">
		<tag k="name" v="Njuorenjárga" />
		<tag k="name:se" v="Njuorenjárga" />
		<tag k="natural" v="cape" />
		<tag k="old_name:se" v="Njuorenjarga" />
		<tag k="ssr:stedsnr" v="141917" />
	</node>
	<node id="-803458" lat="70.8757389044" lon="28.8994269395">
		<tag k="alt_name" v="Dikkevikfjellet" />
		<tag k="fixme" v="consider natural=peak for the most distinct mountains in the district" />
		<tag k="name" v="Dikkavikfjellet" />
		<tag k="natural" v="hill" />
		<tag k="place" v="locality" />
		<tag k="ssr:stedsnr" v="141960" />
	</node>
	<node id="-803457" lat="70.8760000187" lon="28.8304547469">
		<tag k="name" v="Bergvika - Stábbeluokta" />
		<tag k="name:no" v="Bergvika" />
		<tag k="name:se" v="Stábbeluokta" />
		<tag k="natural" v="bay" />
		<tag k="old_name:se" v="Stabbeluokta" />
		<tag k="ssr:stedsnr" v="141959" />
	</node>
	<node id="-803456" lat="70.8752389106" lon="28.8402630641">
		<tag k="fixme" v="consider natural=peak for the most distinct mountains in the district" />
		<tag k="name" v="Tanahorn - Hoartnavárri" />
		<tag k="name:no" v="Tanahorn" />
		<tag k="name:se" v="Hoartnavárri" />
		<tag k="natural" v="hill" />
		<tag k="old_name:se" v="Hoardnavarri" />
		<tag k="place" v="locality" />
		<tag k="ssr:stedsnr" v="141956" />
	</node>
	<node id="-803455" lat="70.87714724" lon="28.8498269638">
		<tag k="name" v="Hornvika - Hoartnasieiddeluokta" />
		<tag k="name:no" v="Hornvika" />
		<tag k="name:se" v="Hoartnasieiddeluokta" />
		<tag k="natural" v="bay" />
		<tag k="old_name:se" v="Hoardnasieideluokta" />
		<tag k="ssr:stedsnr" v="141953" />
	</node>
	<node id="-803454" lat="70.648441691" lon="29.1191712516">
		<tag k="name" v="Botnvannet" />
		<tag k="natural" v="water" />
		<tag k="ssr:stedsnr" v="141398" />
		<tag k="water" v="lake" />
	</node>
	<node id="-803453" lat="70.6999416898" lon="29.1526518085">
		<tag k="name" v="Øster-Risfjorddalen" />
		<tag k="natural" v="valley" />
		<tag k="place" v="locality" />
		<tag k="ssr:stedsnr" v="141437" />
	</node>
	<node id="-803452" lat="70.7304000213" lon="29.2782739837">
		<tag k="bay" v="fjord" />
		<tag k="name" v="Øster-Risfjorden" />
		<tag k="natural" v="bay" />
		<tag k="ssr:stedsnr" v="141426" />
	</node>
	<node id="-803451" lat="70.6749250227" lon="29.2399461954">
		<tag k="name" v="Myrvoll" />
		<tag k="place" v="isolated_dwelling" />
		<tag k="ssr:stedsnr" v="141424" />
	</node>
	<node id="-803450" lat="70.6852250261" lon="29.3371267316">
		<tag k="bay" v="fjord" />
		<tag k="name" v="Strømmen - Rivdnji" />
		<tag k="name:no" v="Strømmen" />
		<tag k="name:se" v="Rivdnji" />
		<tag k="natural" v="bay" />
		<tag k="ssr:stedsnr" v="141412" />
	</node>
	<node id="-803449" lat="70.6152639133" lon="29.3220267151">
		<tag k="fixme" v="consider natural=peak for the most distinct mountains in the district" />
		<tag k="name" v="Sæterdalstoppen" />
		<tag k="natural" v="hill" />
		<tag k="place" v="locality" />
		<tag k="ssr:stedsnr" v="141409" />
	</node>
	<node id="-803448" lat="70.6416833599" lon="28.7037658247">
		<tag k="name" v="Ávgajohka" />
		<tag k="name:se" v="Ávgajohka" />
		<tag k="old_name:se" v="Avgajåkka" />
		<tag k="ssr:stedsnr" v="141343" />
		<tag k="waterway" v="river" />
	</node>
	<node id="-803447" lat="70.7485777974" lon="28.5550158949">
		<tag k="name" v="Fugleberget - Loddebákti" />
		<tag k="name:no" v="Fugleberget" />
		<tag k="name:se" v="Loddebákti" />
		<tag k="natural" v="hill" />
		<tag k="old_name:se" v="Låddebakti" />
		<tag k="place" v="locality" />
		<tag k="ssr:stedsnr" v="140376" />
	</node>
	<node id="-803446" lat="70.7273833564" lon="28.5183353586">
		<tag k="name" v="Gulgoodden - Guođggotgeahči" />
		<tag k="name:no" v="Gulgoodden" />
		<tag k="name:se" v="Guođggotgeahči" />
		<tag k="natural" v="cape" />
		<tag k="old_name:se" v="Guođgutgæčči" />
		<tag k="ssr:stedsnr" v="140373" />
	</node>
	<node id="-803445" lat="70.7397222433" lon="29.3100545397">
		<tag k="name" v="Grønøygrunnen" />
		<tag k="natural" v="shoal" />
		<tag k="place" v="locality" />
		<tag k="ssr:stedsnr" v="268539" />
	</node>
	<node id="-803444" lat="70.7217889165" lon="29.3363378583">
		<tag k="name" v="Veinesvannet" />
		<tag k="natural" v="water" />
		<tag k="ssr:stedsnr" v="108923" />
	</node>
	<node id="-803443" lat="70.6757500291" lon="29.2924322993">
		<tag k="name" v="Humpen" />
		<tag k="place" v="islet" />
		<tag k="ssr:stedsnr" v="108898" />
	</node>
	<node id="-803442" lat="70.6637500253" lon="29.1886323441">
		<tag k="name" v="Vesterdalshaugen" />
		<tag k="natural" v="hill" />
		<tag k="place" v="locality" />
		<tag k="ssr:stedsnr" v="105906" />
	</node>
	<node id="-803441" lat="70.8538889127" lon="29.0627296628">
		<tag k="name" v="Ryplia" />
		<tag k="natural" v="slope" />
		<tag k="place" v="locality" />
		<tag k="ssr:stedsnr" v="93238" />
	</node>
	<node id="-803440" lat="70.8601916884" lon="29.0686324338">
		<tag k="name" v="Karivatna" />
		<tag k="natural" v="water" />
		<tag k="ssr:stedsnr" v="92291" />
	</node>
	<node id="-803439" lat="70.6893111287" lon="28.5106853443">
		<tag k="fixme" v="consider seamark:type=rock or natural=shoal" />
		<tag k="name" v="Trollfjordskjeret" />
		<tag k="place" v="islet" />
		<tag k="ssr:stedsnr" v="87352" />
	</node>
	<node id="-803438" lat="70.8358000204" lon="28.7237158656">
		<tag k="name" v="Storvika" />
		<tag k="natural" v="bay" />
		<tag k="ssr:stedsnr" v="87238" />
	</node>
	<node id="-803437" lat="70.9999972433" lon="29.0666769142">
		<tag k="name" v="Tanasnaget" />
		<tag k="place" v="locality" />
		<tag k="ssr:stedsnr" v="87214" />
	</node>
	<node id="-803436" lat="70.7599861315" lon="28.8804685908">
		<tag k="name" v="Midt-Raggobekken" />
		<tag k="ssr:stedsnr" v="87183" />
		<tag k="waterway" v="stream" />
	</node>
	<node id="-803435" lat="70.7182833603" lon="29.79916821">
		<tag k="name" v="Fuglekeila" />
		<tag k="natural" v="bay" />
		<tag k="ssr:stedsnr" v="86553" />
	</node>
	<node id="-803434" lat="70.7172750251" lon="29.3227795311">
		<tag k="name" v="Framnes" />
		<tag k="natural" v="cape" />
		<tag k="ssr:stedsnr" v="86547" />
	</node>
	<node id="-803433" lat="70.6052416905" lon="28.9406101965">
		<tag k="fixme" v="consider natural=peak for the most distinct mountains in the district" />
		<tag k="name" v="Buefjell - Dávgečearru" />
		<tag k="name:no" v="Buefjell" />
		<tag k="name:se" v="Dávgečearru" />
		<tag k="natural" v="hill" />
		<tag k="old_name:se" v="Davgečearru;Davgečærro" />
		<tag k="place" v="locality" />
		<tag k="ssr:stedsnr" v="86484" />
	</node>
	<node id="-803432" lat="70.6344555819" lon="29.5259266365">
		<tag k="fixme" v="consider natural=peak for the most distinct mountains in the district" />
		<tag k="name" v="Midtfjellet - Guovdoaivi" />
		<tag k="name:no" v="Midtfjellet" />
		<tag k="name:se" v="Guovdoaivi" />
		<tag k="natural" v="hill" />
		<tag k="old_name:se" v="Guovdaoaivi" />
		<tag k="place" v="locality" />
		<tag k="ssr:stedsnr" v="86444" />
	</node>
	<node id="-803431" lat="70.804397243" lon="29.2696212227">
		<tag k="name" v="Sandfjordklubben" />
		<tag k="natural" v="cape" />
		<tag k="ssr:stedsnr" v="81988" />
	</node>
	<node id="-803430" lat="70.8245555762" lon="28.9247574844">
		<tag k="fixme" v="consider natural=peak for the most distinct mountains in the district" />
		<tag k="name" v="Midtfjellet - Ilis" />
		<tag k="name:no" v="Midtfjellet" />
		<tag k="name:se" v="Ilis" />
		<tag k="natural" v="hill" />
		<tag k="place" v="locality" />
		<tag k="ssr:stedsnr" v="81981" />
	</node>
	<node id="-803429" lat="70.8554389089" lon="29.1075296339">
		<tag k="name" v="Revnesbukta" />
		<tag k="natural" v="bay" />
		<tag k="ssr:stedsnr" v="81972" />
	</node>
	<node id="-803428" lat="70.8628333568" lon="28.9855407981">
		<tag k="name" v="Kuelva" />
		<tag k="ssr:stedsnr" v="81968" />
		<tag k="waterway" v="stream" />
	</node>
	<node id="-803427" lat="70.7689250149" lon="28.6070075698">
		<tag k="name" v="Gaksevikneset - Gákšonjárga" />
		<tag k="name:no" v="Gaksevikneset" />
		<tag k="name:se" v="Gákšonjárga" />
		<tag k="natural" v="cape" />
		<tag k="old_name:se" v="Gakšunjarga" />
		<tag k="ssr:stedsnr" v="81950" />
	</node>
	<node id="-803426" lat="70.7988527949" lon="28.6875742017">
		<tag k="name" v="Oamegurra" />
		<tag k="name:se" v="Oamegurra" />
		<tag k="natural" v="valley" />
		<tag k="place" v="locality" />
		<tag k="ssr:stedsnr" v="81949" />
	</node>
	<node id="-803425" lat="70.7958166821" lon="28.754790862">
		<tag k="fixme" v="consider natural=peak for the most distinct mountains in the district" />
		<tag k="name" v="Vihttalohvárri" />
		<tag k="name:se" v="Vihttalohvárri" />
		<tag k="natural" v="hill" />
		<tag k="old_name:se" v="Vittalåkvarri" />
		<tag k="place" v="locality" />
		<tag k="ssr:stedsnr" v="81947" />
	</node>
	<node id="-803424" lat="70.7873305743" lon="28.670699219">
		<tag k="fixme" v="consider place=hamlet" />
		<tag k="name" v="Store Molvik" />
		<tag k="old_name" v="Molvik, store" />
		<tag k="place" v="village" />
		<tag k="ssr:stedsnr" v="81946" />
	</node>
	<node id="-803423" lat="70.5337083568" lon="29.1549962048">
		<tag k="fixme" v="consider natural=peak for the most distinct mountains in the district" />
		<tag k="name" v="Magistertoppen - Mágisttarčohkka" />
		<tag k="name:no" v="Magistertoppen" />
		<tag k="name:se" v="Mágisttarčohkka" />
		<tag k="natural" v="hill" />
		<tag k="old_name:se" v="Magistarčåkka" />
		<tag k="place" v="locality" />
		<tag k="ssr:stedsnr" v="81522" />
	</node>
	<node id="-803421" lat="70.5453972477" lon="29.0228712568">
		<tag k="name" v="Lille Buevannet - Uhca Dávgejávri" />
		<tag k="name:no" v="Lille Buevannet" />
		<tag k="name:se" v="Uhca Dávgejávri" />
		<tag k="natural" v="water" />
		<tag k="old_name:se" v="Davgejavri ucca" />
		<tag k="ssr:stedsnr" v="81508" />
		<tag k="water" v="lake" />
	</node>
	<node id="-803420" lat="70.6826166969" lon="29.5646571992">
		<tag k="name" v="Rubbedalsvatna" />
		<tag k="natural" v="water" />
		<tag k="ssr:stedsnr" v="81506" />
		<tag k="water" v="lake" />
	</node>
	<node id="-803419" lat="70.6681527984" lon="28.9307713131">
		<tag k="name" v="Langdalen" />
		<tag k="natural" v="valley" />
		<tag k="place" v="locality" />
		<tag k="ssr:stedsnr" v="81429" />
	</node>
	<node id="-803418" lat="70.6819750282" lon="29.3967294766">
		<tag k="name" v="Sandbuktdalen" />
		<tag k="natural" v="valley" />
		<tag k="place" v="locality" />
		<tag k="ssr:stedsnr" v="81423" />
	</node>
	<node id="-803417" lat="70.6857139118" lon="29.059774056">
		<tag k="name" v="Vidjebekken - Sieđgajohka" />
		<tag k="name:no" v="Vidjebekken" />
		<tag k="name:se" v="Sieđgajohka" />
		<tag k="old_name:se" v="Sieđgajåkka" />
		<tag k="ssr:stedsnr" v="81416" />
		<tag k="waterway" v="stream" />
	</node>
	<node id="-803416" lat="70.6971250266" lon="29.3869267143">
		<tag k="name" v="Straumsnesa" />
		<tag k="natural" v="cape" />
		<tag k="ssr:stedsnr" v="81415" />
	</node>
	<node id="-803415" lat="70.6660639174" lon="29.2844739608">
		<tag k="name" v="Grønneset - Sarvvesnjárga" />
		<tag k="name:no" v="Grønneset" />
		<tag k="name:se" v="Sarvvesnjárga" />
		<tag k="natural" v="cape" />
		<tag k="old_name:se" v="Sarvesnjarga" />
		<tag k="ssr:stedsnr" v="81403" />
	</node>
	<node id="-803414" lat="70.7405166879" lon="29.0898240489">
		<tag k="fixme" v="consider natural=peak for the most distinct mountains in the district" />
		<tag k="name" v="Meresvárri" />
		<tag k="name:se" v="Meresvárri" />
		<tag k="natural" v="hill" />
		<tag k="old_name:se" v="Meresvarri" />
		<tag k="place" v="locality" />
		<tag k="ssr:stedsnr" v="80430" />
	</node>
	<node id="-803413" lat="70.7074555851" lon="29.2691962">
		<tag k="fixme" v="multiple name tags, choose one and add the other to alt_name" />
		<tag k="name" v="Kobbkrokhøgda;Kongsfjordfjell - Goađáščohkka" />
		<tag k="name:no" v="Kobbkrokhøgda;Kongsfjordfjell" />
		<tag k="name:se" v="Goađáščohkka" />
		<tag k="natural" v="hill" />
		<tag k="old_name:se" v="Goađaščåkka" />
		<tag k="place" v="locality" />
		<tag k="ssr:stedsnr" v="80422" />
	</node>
	<node id="-803412" lat="70.7205333596" lon="29.3190850719">
		<tag k="name" v="Kongsfjord" />
		<tag k="place" v="village" />
		<tag k="ssr:stedsnr" v="80420" />
	</node>
	<node id="-803411" lat="70.7242666901" lon="29.3528295192">
		<tag k="name" v="Veidnes" />
		<tag k="old_name" v="Veines" />
		<tag k="place" v="hamlet" />
		<tag k="ssr:stedsnr" v="80415" />
	</node>
	<node id="-803410" lat="70.6822833576" lon="28.5516408807">
		<tag k="bay" v="fjord" />
		<tag k="name" v="Gulgofjorden - Vuođavuotna" />
		<tag k="name:no" v="Gulgofjorden" />
		<tag k="name:se" v="Vuođavuotna" />
		<tag k="natural" v="bay" />
		<tag k="old_name:se" v="Vuođavuodna" />
		<tag k="ssr:stedsnr" v="80346" />
	</node>
	<node id="-803409" lat="70.6971444649" lon="28.699010304">
		<tag k="name" v="Guhkesjávri" />
		<tag k="name:se" v="Guhkesjávri" />
		<tag k="natural" v="water" />
		<tag k="old_name:se" v="Gukkesjavri" />
		<tag k="ssr:stedsnr" v="59788" />
		<tag k="water" v="lake" />
	</node>
	<node id="-803408" lat="70.7233111345" lon="29.3130517493">
		<tag k="name" v="Plogvikhøgda" />
		<tag k="natural" v="hill" />
		<tag k="place" v="locality" />
		<tag k="ssr:stedsnr" v="47920" />
	</node>
	<node id="-803407" lat="70.7026028041" lon="29.3666600648">
		<tag k="fixme" v="verify maritime location" />
		<tag k="mooring" v="yes" />
		<tag k="name" v="Kristofferstøa" />
		<tag k="place" v="locality" />
		<tag k="ssr:stedsnr" v="47901" />
	</node>
	<node id="-803406" lat="70.6732861377" lon="29.2309017813">
		<tag k="name" v="Myrvold" />
		<tag k="natural" v="wetland" />
		<tag k="ssr:stedsnr" v="47893" />
	</node>
	<node id="-803405" lat="70.7284916911" lon="29.3339961744">
		<tag k="name" v="Vestre Plogvikneset" />
		<tag k="natural" v="cape" />
		<tag k="ssr:stedsnr" v="46936" />
	</node>
	<node id="-803404" lat="70.6524889192" lon="29.174337891">
		<tag k="name" v="Øvre Svaberget" />
		<tag k="place" v="locality" />
		<tag k="ssr:stedsnr" v="46915" />
	</node>
	<node id="-803403" lat="70.5981277994" lon="29.1327767824">
		<tag k="name" v="Magerdalshøgda" />
		<tag k="natural" v="hill" />
		<tag k="place" v="locality" />
		<tag k="ssr:stedsnr" v="46909" />
	</node>
	<node id="-803402" lat="70.8383194665" lon="29.0735963299">
		<tag k="name" v="Veddalsholmen" />
		<tag k="place" v="islet" />
		<tag k="ssr:stedsnr" v="32251" />
	</node>
	<node id="-803401" lat="70.8392583532" lon="29.2239740408">
		<tag k="name" v="Styrvannet" />
		<tag k="natural" v="water" />
		<tag k="ssr:stedsnr" v="32219" />
		<tag k="water" v="lake" />
	</node>
	<node id="-803400" lat="70.8728416877" lon="29.0797157753">
		<tag k="man_made" v="tower" />
		<tag k="name" v="Berlevåg Radio" />
		<tag k="ssr:stedsnr" v="31296" />
		<tag k="tower:type" v="communications" />
	</node>
	<node id="-803399" lat="70.8595361358" lon="29.1170101942">
		<tag k="man_made" v="breakwater" />
		<tag k="name" v="Østermoloen" />
		<tag k="place" v="locality" />
		<tag k="ssr:stedsnr" v="31292" />
	</node>
	<node id="-803398" lat="70.7066750257" lon="29.2974295255">
		<tag k="name" v="Hans Jensen bukta" />
		<tag k="natural" v="bay" />
		<tag k="ssr:stedsnr" v="28239" />
	</node>
	<node id="-803397" lat="70.8673500198" lon="29.1240518709">
		<tag k="name" v="Svartoksfallet" />
		<tag k="natural" v="shoal" />
		<tag k="place" v="locality" />
		<tag k="ssr:stedsnr" v="25949" />
	</node>
	<node id="-803396" lat="70.7281222431" lon="29.3328378589">
		<tag k="name" v="Plogneset" />
		<tag k="natural" v="cape" />
		<tag k="ssr:stedsnr" v="25935" />
	</node>
	<node id="-803395" lat="70.7535305821" lon="29.3251406431">
		<tag k="name" v="Storkeila" />
		<tag k="natural" v="bay" />
		<tag k="ssr:stedsnr" v="25928" />
	</node>
	<node id="-803394" lat="70.8309305782" lon="28.746338096">
		<tag k="fixme" v="multiple name tags, choose one and add the other to alt_name; consider natural=peak for the most distinct mountains in the district" />
		<tag k="name" v="Kvitnesfjellet;Molvikfjellet - Goahtu" />
		<tag k="name:no" v="Kvitnesfjellet;Molvikfjellet" />
		<tag k="name:se" v="Goahtu" />
		<tag k="natural" v="hill" />
		<tag k="old_name:se" v="Goatto" />
		<tag k="place" v="locality" />
		<tag k="ssr:stedsnr" v="25919" />
	</node>
	<node id="-803393" lat="70.8706083513" lon="28.9807296955">
		<tag k="alt_name" v="Skonsvika" />
		<tag k="fixme" v="multiple name tags, choose one and add the other to alt_name" />
		<tag k="name" v="Spoadnavika;Skånsvika" />
		<tag k="natural" v="bay" />
		<tag k="ssr:stedsnr" v="20975" />
	</node>
	<node id="-803392" lat="70.8776805756" lon="28.9034658249">
		<tag k="name" v="Stuorrabákti" />
		<tag k="name:se" v="Stuorrabákti" />
		<tag k="natural" v="hill" />
		<tag k="old_name:se" v="Stuorrabakti" />
		<tag k="place" v="locality" />
		<tag k="ssr:stedsnr" v="20972" />
	</node>
	<node id="-803391" lat="70.7529472457" lon="28.68292976">
		<tag k="name" v="Suorgeleahki" />
		<tag k="name:se" v="Suorgeleahki" />
		<tag k="natural" v="valley" />
		<tag k="old_name:se" v="Suorgelækki" />
		<tag k="place" v="locality" />
		<tag k="ssr:stedsnr" v="20969" />
	</node>
	<node id="-803390" lat="70.7695222421" lon="28.7747825153">
		<tag k="name" v="Guhkesgorsa" />
		<tag k="name:se" v="Guhkesgorsa" />
		<tag k="natural" v="valley" />
		<tag k="old_name:se" v="Gukkesgårsa" />
		<tag k="place" v="locality" />
		<tag k="ssr:stedsnr" v="20968" />
	</node>
	<node id="-803389" lat="70.7998805774" lon="28.7354797507">
		<tag k="name" v="Áljasfasjohka" />
		<tag k="name:se" v="Áljasfasjohka" />
		<tag k="old_name:se" v="Alljasfasjåkka" />
		<tag k="ssr:stedsnr" v="20955" />
		<tag k="waterway" v="river" />
	</node>
	<node id="-803388" lat="70.5871944739" lon="29.404854445">
		<tag k="fixme" v="consider natural=peak for the most distinct mountains in the district" />
		<tag k="name" v="Álosoaivi" />
		<tag k="name:se" v="Álosoaivi" />
		<tag k="natural" v="hill" />
		<tag k="old_name:se" v="Alusoaivi" />
		<tag k="place" v="locality" />
		<tag k="ssr:stedsnr" v="20486" />
	</node>
	<node id="-803387" lat="70.6765750327" lon="29.6249654984">
		<tag k="fixme" v="consider natural=peak for the most distinct mountains in the district" />
		<tag k="name" v="Rubbedalshøgda" />
		<tag k="natural" v="hill" />
		<tag k="place" v="locality" />
		<tag k="ssr:stedsnr" v="20479" />
	</node>
	<node id="-803386" lat="70.7129139109" lon="28.997007414">
		<tag k="name" v="Rundtjernet - Jorbaláttu" />
		<tag k="name:no" v="Rundtjernet" />
		<tag k="name:se" v="Jorbaláttu" />
		<tag k="natural" v="water" />
		<tag k="old_name:se" v="Jårbaladdo" />
		<tag k="ssr:stedsnr" v="20419" />
	</node>
	<node id="-803385" lat="70.7281000229" lon="29.3470906338">
		<tag k="name" v="Riššačilagohppi" />
		<tag k="name:se" v="Riššačilagohppi" />
		<tag k="natural" v="bay" />
		<tag k="old_name:se" v="Riššačilagåppi" />
		<tag k="ssr:stedsnr" v="20412" />
	</node>
	<node id="-803384" lat="70.6763361339" lon="29.2871073007">
		<tag k="alt_name" v="Laukholmen;Vesterøya" />
		<tag k="name" v="Løkholmen" />
		<tag k="place" v="islet" />
		<tag k="ssr:stedsnr" v="20407" />
	</node>
	<node id="-803383" lat="70.6741416907" lon="29.089190716">
		<tag k="fixme" v="consider natural=peak for the most distinct mountains in the district" />
		<tag k="name" v="Lomtoppen" />
		<tag k="natural" v="hill" />
		<tag k="place" v="locality" />
		<tag k="ssr:stedsnr" v="20404" />
	</node>
	<node id="-803382" lat="70.6893555782" lon="29.2410128741">
		<tag k="alt_name" v="Kløftvatnet, nordre" />
		<tag k="fixme" v="multiple name tags, choose one and add the other to alt_name" />
		<tag k="name" v="Nedre Kløft-vatnet;Nordre Kløftvatnet" />
		<tag k="natural" v="water" />
		<tag k="ssr:stedsnr" v="20402" />
	</node>
	<node id="-803381" lat="70.6839722449" lon="29.1944462223">
		<tag k="name" v="Davidsenvannet" />
		<tag k="natural" v="water" />
		<tag k="ssr:stedsnr" v="20399" />
	</node>
	<node id="-803380" lat="70.6216778074" lon="29.2228461912">
		<tag k="name" v="Bryggaridalen" />
		<tag k="natural" v="valley" />
		<tag k="place" v="locality" />
		<tag k="ssr:stedsnr" v="20392" />
	</node>
	<node id="-803379" lat="70.6239805783" lon="29.0609629104">
		<tag k="alt_name" v="Dagenvasselva" />
		<tag k="name" v="Dagenelva" />
		<tag k="ssr:stedsnr" v="20385" />
		<tag k="waterway" v="river" />
	</node>
	<node id="-803378" lat="70.6147250249" lon="29.1527545561">
		<tag k="name" v="Ørretvasshøgda" />
		<tag k="natural" v="hill" />
		<tag k="place" v="locality" />
		<tag k="ssr:stedsnr" v="20384" />
	</node>
	<node id="-803377" lat="70.6497250252" lon="29.3194350518">
		<tag k="fixme" v="consider natural=peak for the most distinct mountains in the district" />
		<tag k="name" v="Sæterdalsfjella" />
		<tag k="natural" v="hill" />
		<tag k="place" v="locality" />
		<tag k="ssr:stedsnr" v="20382" />
	</node>
	<node id="-803376" lat="70.6434083619" lon="29.2333600883">
		<tag k="name" v="Huldabekken" />
		<tag k="ssr:stedsnr" v="20376" />
		<tag k="waterway" v="stream" />
	</node>
	<node id="-803375" lat="70.7385611363" lon="28.7324352872">
		<tag k="name" v="Skierrevárjohka" />
		<tag k="name:se" v="Skierrevárjohka" />
		<tag k="old_name:se" v="Skierrevarjåkka;Skierrevarjohka" />
		<tag k="ssr:stedsnr" v="20353" />
		<tag k="waterway" v="river" />
	</node>
	<node id="-803374" lat="70.6749361305" lon="28.5549075531">
		<tag k="name" v="Kråkeberget" />
		<tag k="natural" v="hill" />
		<tag k="place" v="locality" />
		<tag k="ssr:stedsnr" v="20335" />
	</node>
	<node id="-803373" lat="70.4837500331" lon="29.5401571348">
		<tag k="loc_name:fkv" v="Varenkinniemi;Varinkinniemi" />
		<tag k="name" v="Varangerhalvøya - Várnjárga" />
		<tag k="name:no" v="Varangerhalvøya" />
		<tag k="name:se" v="Várnjárga" />
		<tag k="natural" v="cape" />
		<tag k="ssr:stedsnr" v="506029" />
	</node>
	<node id="-803372" lat="70.6940166907" lon="29.3845767199">
		<tag k="name" v="Strømsbukta" />
		<tag k="natural" v="bay" />
		<tag k="ssr:stedsnr" v="897875" />
	</node>
	<node id="-803371" lat="70.6777944756" lon="29.2975156229">
		<tag k="name" v="Gressholmen" />
		<tag k="place" v="islet" />
		<tag k="ssr:stedsnr" v="897873" />
	</node>
	<node id="-803370" lat="70.7152361339" lon="29.2707767667">
		<tag k="name" v="Lomvannet" />
		<tag k="natural" v="water" />
		<tag k="ssr:stedsnr" v="896957" />
	</node>
	<node id="-803369" lat="70.7161944681" lon="29.2794906387">
		<tag k="name" v="Skarvannet" />
		<tag k="natural" v="water" />
		<tag k="ssr:stedsnr" v="896955" />
	</node>
	<node id="-803368" lat="70.7311750271" lon="29.3684322784">
		<tag k="fixme" v="consider seamark:type=rock or natural=shoal" />
		<tag k="name" v="Storvikskjæret" />
		<tag k="place" v="islet" />
		<tag k="ssr:stedsnr" v="896943" />
	</node>
	<node id="-803367" lat="70.7308111413" lon="29.3797739484">
		<tag k="name" v="Fastlandsholmen" />
		<tag k="natural" v="cape" />
		<tag k="ssr:stedsnr" v="896941" />
	</node>
	<node id="-803366" lat="70.8620889086" lon="28.9099158111">
		<tag k="name" v="Bukkedalselva" />
		<tag k="ssr:stedsnr" v="896755" />
		<tag k="waterway" v="river" />
	</node>
	<node id="-803365" lat="70.8686583529" lon="29.0624296603">
		<tag k="name" v="Nikolaivannet" />
		<tag k="natural" v="water" />
		<tag k="ssr:stedsnr" v="882272" />
	</node>
	<node id="-803364" lat="70.8468555772" lon="29.0593768903">
		<tag k="name" v="Petterstakken" />
		<tag k="natural" v="slope" />
		<tag k="place" v="locality" />
		<tag k="ssr:stedsnr" v="882243" />
	</node>
	<node id="-803363" lat="70.7176944701" lon="29.328801728">
		<tag k="name" v="Storvika" />
		<tag k="natural" v="bay" />
		<tag k="ssr:stedsnr" v="411924" />
	</node>
	<node id="-803362" lat="70.6999583561" lon="29.3745183947">
		<tag k="alt_name" v="Vestre Straumsnes" />
		<tag k="name" v="Vestre Strømsneset" />
		<tag k="natural" v="cape" />
		<tag k="ssr:stedsnr" v="411197" />
	</node>
	<node id="-803361" lat="70.7082972491" lon="29.2896656433">
		<tag k="fixme" v="consider natural=peak for the most distinct mountains in the district" />
		<tag k="name" v="Båsan" />
		<tag k="natural" v="hill" />
		<tag k="place" v="locality" />
		<tag k="ssr:stedsnr" v="410941" />
	</node>
	<node id="-803360" lat="70.6560361393" lon="29.1412712446">
		<tag k="name" v="Botnelvdalen" />
		<tag k="natural" v="valley" />
		<tag k="place" v="locality" />
		<tag k="ssr:stedsnr" v="410904" />
	</node>
	<node id="-803359" lat="70.8668250156" lon="28.9058630514">
		<tag k="fixme" v="consider natural=peak for the most distinct mountains in the district" />
		<tag k="name" v="Bukkedalsfjellet" />
		<tag k="natural" v="hill" />
		<tag k="place" v="locality" />
		<tag k="ssr:stedsnr" v="410559" />
	</node>
	<node id="-803358" lat="70.8483916858" lon="29.1411851948">
		<tag k="name" v="Strupen" />
		<tag k="natural" v="valley" />
		<tag k="place" v="locality" />
		<tag k="ssr:stedsnr" v="396214" />
	</node>
	<node id="-803357" lat="70.8560194638" lon="29.1278712938">
		<tag k="name" v="Revneset" />
		<tag k="natural" v="cape" />
		<tag k="ssr:stedsnr" v="395302" />
	</node>
	<node id="-803356" lat="70.8343611359" lon="29.2179656981">
		<tag k="name" v="Vester-Styrelvdalen" />
		<tag k="natural" v="valley" />
		<tag k="place" v="locality" />
		<tag k="ssr:stedsnr" v="390211" />
	</node>
	<node id="-803355" lat="70.7775389083" lon="29.3037323272">
		<tag k="fixme" v="consider natural=peak for the most distinct mountains in the district" />
		<tag k="name" v="Middagsfjellet" />
		<tag k="natural" v="hill" />
		<tag k="place" v="locality" />
		<tag k="ssr:stedsnr" v="384996" />
	</node>
	<node id="-803354" lat="70.7948111354" lon="29.1075879519">
		<tag k="name" v="Løkvikdalselva - Ruovdajohka" />
		<tag k="name:no" v="Løkvikdalselva" />
		<tag k="name:se" v="Ruovdajohka" />
		<tag k="old_name:se" v="Ruovdajåkka" />
		<tag k="ssr:stedsnr" v="384993" />
		<tag k="waterway" v="river" />
	</node>
	<node id="-803353" lat="70.8053000252" lon="29.1640546143">
		<tag k="fixme" v="consider natural=peak for the most distinct mountains in the district" />
		<tag k="name" v="Løkvikdalsfjellet" />
		<tag k="natural" v="hill" />
		<tag k="place" v="locality" />
		<tag k="ssr:stedsnr" v="384989" />
	</node>
	<node id="-803352" lat="70.8159139142" lon="29.0400074323">
		<tag k="name" v="Veddalen" />
		<tag k="natural" v="valley" />
		<tag k="place" v="locality" />
		<tag k="ssr:stedsnr" v="384988" />
	</node>
	<node id="-803351" lat="70.8218250231" lon="28.9615574525">
		<tag k="name" v="Storelvdalen" />
		<tag k="natural" v="valley" />
		<tag k="place" v="locality" />
		<tag k="ssr:stedsnr" v="384981" />
	</node>
	<node id="-803350" lat="70.837322238" lon="28.8778352751">
		<tag k="alt_name:no" v="Skonsvikelva" />
		<tag k="name" v="Skånsvikelva - Spoatnajohka" />
		<tag k="name:no" v="Skånsvikelva" />
		<tag k="name:se" v="Spoatnajohka" />
		<tag k="old_name:se" v="Spoadnajåkka" />
		<tag k="ssr:stedsnr" v="384972" />
		<tag k="waterway" v="river" />
	</node>
	<node id="-803349" lat="70.8498166919" lon="29.1720268325">
		<tag k="alt_name" v="Store Vargvika" />
		<tag k="name" v="Vargvika" />
		<tag k="natural" v="bay" />
		<tag k="ssr:stedsnr" v="384962" />
	</node>
	<node id="-803348" lat="70.8503472471" lon="29.1327046274">
		<tag k="alt_name" v="Storsanden" />
		<tag k="name" v="Storsand" />
		<tag k="natural" v="beach" />
		<tag k="place" v="locality" />
		<tag k="ssr:stedsnr" v="384957" />
	</node>
	<node id="-803347" lat="70.8730666868" lon="28.9999991189">
		<tag k="alt_name" v="Svartnes" />
		<tag k="name" v="Svartneset" />
		<tag k="natural" v="cape" />
		<tag k="ssr:stedsnr" v="384950" />
	</node>
	<node id="-803346" lat="70.7824916845" lon="28.7095158547">
		<tag k="name" v="Uhcavággi" />
		<tag k="name:se" v="Uhcavággi" />
		<tag k="natural" v="valley" />
		<tag k="old_name:se" v="Uccavaggi" />
		<tag k="place" v="locality" />
		<tag k="ssr:stedsnr" v="384935" />
	</node>
	<node id="-803345" lat="70.6620805771" lon="28.6687130691">
		<tag k="name" v="Sørelva - Mádjejohka" />
		<tag k="name:no" v="Sørelva" />
		<tag k="name:se" v="Mádjejohka" />
		<tag k="old_name:se" v="Maddjejåkka" />
		<tag k="ssr:stedsnr" v="384360" />
		<tag k="waterway" v="river" />
	</node>
	<node id="-803344" lat="70.5846444704" lon="28.8083435567">
		<tag k="name" v="Vuođavuonjohka" />
		<tag k="name:se" v="Vuođavuonjohka" />
		<tag k="old_name:se" v="Vuođavuonjåkka" />
		<tag k="ssr:stedsnr" v="384344" />
		<tag k="waterway" v="river" />
	</node>
	<node id="-803343" lat="70.6465083611" lon="29.3766294651">
		<tag k="name" v="Straumsvatna" />
		<tag k="natural" v="water" />
		<tag k="ssr:stedsnr" v="384129" />
		<tag k="water" v="lake" />
	</node>
	<node id="-803342" lat="70.7870361372" lon="29.2302490289">
		<tag k="name" v="Sandfjordelva" />
		<tag k="ssr:stedsnr" v="383528" />
		<tag k="waterway" v="river" />
	</node>
	<node id="-803341" lat="70.7408305812" lon="29.2642740081">
		<tag k="bay" v="fjord" />
		<tag k="name" v="Vester-Risfjorden" />
		<tag k="natural" v="bay" />
		<tag k="ssr:stedsnr" v="383453" />
	</node>
	<node id="-803340" lat="70.7362194697" lon="29.1980045825">
		<tag k="name" v="Vester-Risfjordelva" />
		<tag k="ssr:stedsnr" v="383429" />
		<tag k="waterway" v="river" />
	</node>
	<node id="-803339" lat="70.735266697" lon="29.3897600524">
		<tag k="alt_name" v="Langskjera" />
		<tag k="fixme" v="consider seamark:type=rock or natural=shoal" />
		<tag k="name" v="Langskjæran" />
		<tag k="place" v="islet" />
		<tag k="ssr:stedsnr" v="383430" />
	</node>
	<node id="-803338" lat="70.7045139136" lon="28.6069242069">
		<tag k="name" v="Baikajohka" />
		<tag k="name:se" v="Baikajohka" />
		<tag k="old_name:se" v="Baikajåkka" />
		<tag k="ssr:stedsnr" v="383371" />
		<tag k="waterway" v="stream" />
	</node>
	<node id="-803337" lat="70.6659916947" lon="29.2970322884">
		<tag k="name" v="Grønnesbukta" />
		<tag k="natural" v="bay" />
		<tag k="ssr:stedsnr" v="350906" />
	</node>
	<node id="-803336" lat="70.6984166913" lon="29.3635350558">
		<tag k="name" v="Bryggerikjosen" />
		<tag k="natural" v="bay" />
		<tag k="ssr:stedsnr" v="350887" />
	</node>
	<node id="-803335" lat="70.8782750157" lon="28.964365806">
		<tag k="name" v="Ramberget" />
		<tag k="natural" v="hill" />
		<tag k="place" v="locality" />
		<tag k="ssr:stedsnr" v="349982" />
	</node>
	<node id="-803334" lat="70.7326472476" lon="29.316301756">
		<tag k="name" v="Hergeodden" />
		<tag k="natural" v="cape" />
		<tag k="ssr:stedsnr" v="349962" />
	</node>
	<node id="-803333" lat="70.7330944728" lon="29.3634711761">
		<tag k="fixme" v="consider seamark:type=rock or natural=shoal" />
		<tag k="name" v="Storvikskjæran" />
		<tag k="place" v="islet" />
		<tag k="ssr:stedsnr" v="349960" />
	</node>
	<node id="-803332" lat="70.6506472485" lon="29.3066183826">
		<tag k="fixme" v="consider natural=peak for the most distinct mountains in the district" />
		<tag k="name" v="Hundelvfjellet" />
		<tag k="natural" v="hill" />
		<tag k="place" v="locality" />
		<tag k="ssr:stedsnr" v="349950" />
	</node>
	<node id="-803331" lat="70.5995944735" lon="29.0856490196">
		<tag k="name" v="Kongsfjorddalen - Getnjeleahki" />
		<tag k="name:no" v="Kongsfjorddalen" />
		<tag k="name:se" v="Getnjeleahki" />
		<tag k="natural" v="valley" />
		<tag k="place" v="locality" />
		<tag k="ssr:stedsnr" v="349921" />
	</node>
	<node id="-803330" lat="70.8697472425" lon="29.0924129722">
		<tag k="name" v="Kilbotnstøa" />
		<tag k="natural" v="bay" />
		<tag k="ssr:stedsnr" v="334283" />
	</node>
	<node id="-803329" lat="70.8628777949" lon="29.0763491069">
		<tag k="man_made" v="tower" />
		<tag k="name" v="Radiolinken" />
		<tag k="ssr:stedsnr" v="334280" />
		<tag k="tower:type" v="communications" />
	</node>
	<node id="-803327" lat="70.7582444731" lon="29.5241905662">
		<tag k="name" v="Makkaurgrunnen" />
		<tag k="natural" v="shoal" />
		<tag k="place" v="locality" />
		<tag k="ssr:stedsnr" v="332209" />
	</node>
	<node id="-803326" lat="70.70530835" lon="28.5445464608">
		<tag k="name" v="Svartnakken" />
		<tag k="natural" v="ridge" />
		<tag k="place" v="locality" />
		<tag k="ssr:stedsnr" v="330296" />
	</node>
	<node id="-803325" lat="70.8529333503" lon="29.1161713092">
		<tag k="name" v="Storelvberget" />
		<tag k="natural" v="hill" />
		<tag k="place" v="locality" />
		<tag k="ssr:stedsnr" v="329955" />
	</node>
	<node id="-803324" lat="70.7271389169" lon="29.2572128735">
		<tag k="name" v="Østre Risfjordbotn" />
		<tag k="place" v="locality" />
		<tag k="ssr:stedsnr" v="329946" />
	</node>
	<node id="-803322" lat="70.6528250292" lon="29.2679267523">
		<tag k="name" v="Sætran" />
		<tag k="place" v="locality" />
		<tag k="ssr:stedsnr" v="329542" />
	</node>
	<node id="-803321" lat="70.8415250261" lon="29.2009796075">
		<tag k="name" v="Styrdalen" />
		<tag k="natural" v="valley" />
		<tag k="place" v="locality" />
		<tag k="ssr:stedsnr" v="329189" />
	</node>
	<node id="-803320" lat="70.7261972499" lon="29.3513850654">
		<tag k="name" v="Sebulonbukta" />
		<tag k="natural" v="bay" />
		<tag k="ssr:stedsnr" v="329163" />
	</node>
	<node id="-803319" lat="70.7832444643" lon="28.828618598">
		<tag k="fixme" v="consider natural=peak for the most distinct mountains in the district" />
		<tag k="name" v="Sløketoppen" />
		<tag k="natural" v="hill" />
		<tag k="place" v="locality" />
		<tag k="ssr:stedsnr" v="323997" />
	</node>
	<node id="-803318" lat="70.7927833617" lon="29.2676378937">
		<tag k="name" v="Heimberget" />
		<tag k="natural" v="hill" />
		<tag k="place" v="locality" />
		<tag k="ssr:stedsnr" v="323996" />
	</node>
	<node id="-803317" lat="70.8202861345" lon="29.2621212302">
		<tag k="name" v="Storsteinbukta" />
		<tag k="natural" v="bay" />
		<tag k="ssr:stedsnr" v="323988" />
	</node>
	<node id="-803315" lat="70.8464416852" lon="29.2425740293">
		<tag k="alt_name" v="Mellomneset;Mellanneset" />
		<tag k="name" v="Mellanes" />
		<tag k="natural" v="cape" />
		<tag k="ssr:stedsnr" v="323979" />
	</node>
	<node id="-803314" lat="70.854563914" lon="29.2060573931">
		<tag k="name" v="Kongshamn" />
		<tag k="natural" v="cape" />
		<tag k="ssr:stedsnr" v="323976" />
	</node>
	<node id="-803312" lat="70.7618027974" lon="28.6000825739">
		<tag k="fixme" v="consider natural=peak for the most distinct mountains in the district" />
		<tag k="name" v="Gaksevikfjellet - Gákšovárri" />
		<tag k="name:no" v="Gaksevikfjellet" />
		<tag k="name:se" v="Gákšovárri" />
		<tag k="natural" v="hill" />
		<tag k="old_name:se" v="Gakšuvarri" />
		<tag k="place" v="locality" />
		<tag k="ssr:stedsnr" v="323960" />
	</node>
	<node id="-803311" lat="70.7836944644" lon="28.7146047644">
		<tag k="fixme" v="consider natural=peak for the most distinct mountains in the district" />
		<tag k="name" v="Stuorračohkka" />
		<tag k="name:se" v="Stuorračohkka" />
		<tag k="natural" v="hill" />
		<tag k="old_name:se" v="Stuorračåkka" />
		<tag k="place" v="locality" />
		<tag k="ssr:stedsnr" v="323958" />
	</node>
	<node id="-803310" lat="70.7837722415" lon="28.7841602875">
		<tag k="name" v="Rássegorsa" />
		<tag k="name:se" v="Rássegorsa" />
		<tag k="natural" v="valley" />
		<tag k="old_name:se" v="Rassegårsa" />
		<tag k="place" v="locality" />
		<tag k="ssr:stedsnr" v="323957" />
	</node>
	<node id="-803309" lat="70.8026333498" lon="28.7931325045">
		<tag k="name" v="Sørdalen" />
		<tag k="natural" v="valley" />
		<tag k="place" v="locality" />
		<tag k="ssr:stedsnr" v="323950" />
	</node>
	<node id="-803308" lat="70.8077944643" lon="28.7725491773">
		<tag k="name" v="Stormyra" />
		<tag k="natural" v="wetland" />
		<tag k="ssr:stedsnr" v="323942" />
	</node>
	<node id="-803307" lat="70.808513908" lon="28.70410475">
		<tag k="fixme" v="consider natural=peak for the most distinct mountains in the district" />
		<tag k="name" v="Muorjegárčohkka" />
		<tag k="name:se" v="Muorjegárčohkka" />
		<tag k="natural" v="hill" />
		<tag k="old_name:se" v="Muorjegarčåkka" />
		<tag k="place" v="locality" />
		<tag k="ssr:stedsnr" v="323939" />
	</node>
	<node id="-803306" lat="70.5926750301" lon="29.0906073416">
		<tag k="name" v="Grasdamman" />
		<tag k="place" v="locality" />
		<tag k="ssr:stedsnr" v="323498" />
	</node>
	<node id="-803305" lat="70.5696028041" lon="29.1900795294">
		<tag k="name" v="Magerdalsvatna - Silesjávrrit" />
		<tag k="name:no" v="Magerdalsvatna" />
		<tag k="name:se" v="Silesjávrrit" />
		<tag k="natural" v="water" />
		<tag k="old_name:se" v="Silesjavrit" />
		<tag k="ssr:stedsnr" v="323495" />
		<tag k="water" v="lake" />
	</node>
	<node id="-803304" lat="70.7434250249" lon="29.226185123">
		<tag k="fixme" v="consider natural=peak for the most distinct mountains in the district" />
		<tag k="name" v="Risfjordfjellet" />
		<tag k="natural" v="hill" />
		<tag k="place" v="locality" />
		<tag k="ssr:stedsnr" v="323440" />
	</node>
	<node id="-803303" lat="70.7192000232" lon="29.2472434292">
		<tag k="fixme" v="consider natural=peak for the most distinct mountains in the district" />
		<tag k="name" v="Hergevasstoppen - Heargevárri" />
		<tag k="name:no" v="Hergevasstoppen" />
		<tag k="name:se" v="Heargevárri" />
		<tag k="natural" v="hill" />
		<tag k="old_name:se" v="Hærgevarri" />
		<tag k="place" v="locality" />
		<tag k="ssr:stedsnr" v="323421" />
	</node>
	<node id="-803302" lat="70.7259083611" lon="29.0741268316">
		<tag k="fixme" v="consider natural=peak for the most distinct mountains in the district" />
		<tag k="name" v="Goalsečohkka" />
		<tag k="name:se" v="Goalsečohkka" />
		<tag k="natural" v="hill" />
		<tag k="old_name:se" v="Goalsečåkka" />
		<tag k="place" v="locality" />
		<tag k="ssr:stedsnr" v="323416" />
	</node>
	<node id="-803301" lat="70.7221361301" lon="29.0869601695">
		<tag k="name" v="Goalsejohka" />
		<tag k="name:se" v="Goalsejohka" />
		<tag k="old_name:se" v="Goalsejåkka" />
		<tag k="ssr:stedsnr" v="323417" />
		<tag k="waterway" v="stream" />
	</node>
	<node id="-803300" lat="70.7249722485" lon="29.1587240442">
		<tag k="fixme" v="consider natural=peak for the most distinct mountains in the district" />
		<tag k="name" v="Vester-Risfjordfjellet" />
		<tag k="natural" v="hill" />
		<tag k="place" v="locality" />
		<tag k="ssr:stedsnr" v="323413" />
	</node>
	<node id="-803299" lat="70.681102804" lon="29.2604573044">
		<tag k="name" v="Nikko-Per-vannet - Nihkopierjávri" />
		<tag k="name:no" v="Nikko-Per-vannet" />
		<tag k="name:se" v="Nihkopierjávri" />
		<tag k="natural" v="water" />
		<tag k="old_name:se" v="Nikkupierjavri" />
		<tag k="ssr:stedsnr" v="323402" />
	</node>
	<node id="-803298" lat="70.6196528005" lon="29.0914851381">
		<tag k="name" v="Vidartjernet" />
		<tag k="natural" v="water" />
		<tag k="ssr:stedsnr" v="323388" />
	</node>
	<node id="-803297" lat="70.6564111409" lon="29.1499712325">
		<tag k="name" v="Botnelva" />
		<tag k="ssr:stedsnr" v="323379" />
		<tag k="waterway" v="stream" />
	</node>
	<node id="-803296" lat="70.7800166803" lon="28.4504909478">
		<tag k="bay" v="fjord" />
		<tag k="name" v="Tanafjorden - Deanuvuotna" />
		<tag k="name:no" v="Tanafjorden" />
		<tag k="name:se" v="Deanuvuotna" />
		<tag k="natural" v="bay" />
		<tag k="ssr:stedsnr" v="323368" />
	</node>
	<node id="-803295" lat="70.7259055752" lon="28.5677381069">
		<tag k="fixme" v="consider natural=peak for the most distinct mountains in the district" />
		<tag k="name" v="Guođggotvárri" />
		<tag k="name:se" v="Guođggotvárri" />
		<tag k="natural" v="hill" />
		<tag k="old_name:se" v="Guođgutvarri;Gouđggotvárri" />
		<tag k="place" v="locality" />
		<tag k="ssr:stedsnr" v="323353" />
	</node>
	<node id="-803294" lat="70.6710166875" lon="28.6270242072">
		<tag k="name" v="Gállojávri" />
		<tag k="name:se" v="Gállojávri" />
		<tag k="natural" v="water" />
		<tag k="old_name:se" v="Gallujavri" />
		<tag k="ssr:stedsnr" v="323332" />
	</node>
	<node id="-803293" lat="70.5629778035" lon="28.7532491192">
		<tag k="alt_name:no" v="Leirpollvatnet, l" />
		<tag k="name" v="Lille Leirpollvatnet - Reakčavuongeažejávri" />
		<tag k="name:no" v="Lille Leirpollvatnet" />
		<tag k="name:se" v="Reakčavuongeažejávri" />
		<tag k="natural" v="water" />
		<tag k="old_name:se" v="Rækčavuongæžejavri" />
		<tag k="ssr:stedsnr" v="323311" />
		<tag k="water" v="lake" />
	</node>
	<node id="-803292" lat="70.8636361336" lon="29.0248269097">
		<tag k="name" v="Breidalen" />
		<tag k="natural" v="valley" />
		<tag k="place" v="locality" />
		<tag k="ssr:stedsnr" v="319708" />
	</node>
	<node id="-803291" lat="70.855836132" lon="28.9048825033">
		<tag k="name" v="Marenmyra" />
		<tag k="natural" v="wetland" />
		<tag k="ssr:stedsnr" v="319703" />
	</node>
	<node id="-803290" lat="70.7657028006" lon="29.340362853">
		<tag k="name" v="Konjakkbakken" />
		<tag k="place" v="locality" />
		<tag k="ssr:stedsnr" v="299446" />
	</node>
	<node id="-803289" lat="70.7318944699" lon="29.4191906063">
		<tag k="name" v="Veineshestan" />
		<tag k="natural" v="cape" />
		<tag k="ssr:stedsnr" v="290911" />
	</node>
	<node id="-803288" lat="70.7243028017" lon="29.3494239583">
		<tag k="name" v="Veineshalsen" />
		<tag k="place" v="locality" />
		<tag k="ssr:stedsnr" v="290908" />
	</node>
	<node id="-803287" lat="70.6646305829" lon="29.2976878606">
		<tag k="name" v="Østre Grønneset" />
		<tag k="natural" v="cape" />
		<tag k="ssr:stedsnr" v="290905" />
	</node>
	<node id="-803286" lat="70.6869861411" lon="29.3192489636">
		<tag k="name" v="Storkjosen" />
		<tag k="natural" v="bay" />
		<tag k="ssr:stedsnr" v="290888" />
	</node>
	<node id="-803285" lat="70.7262055809" lon="29.3800683851">
		<tag k="name" v="Kuvika" />
		<tag k="natural" v="bay" />
		<tag k="ssr:stedsnr" v="289966" />
	</node>
	<node id="-803284" lat="70.7305250299" lon="29.3776739409">
		<tag k="name" v="Kvalvika" />
		<tag k="natural" v="bay" />
		<tag k="ssr:stedsnr" v="289958" />
	</node>
	<node id="-803283" lat="70.6246944701" lon="29.1069184576">
		<tag k="name" v="Gednjehaugen" />
		<tag k="natural" v="hill" />
		<tag k="place" v="locality" />
		<tag k="ssr:stedsnr" v="287885" />
	</node>
	<node id="-803282" lat="70.6412472494" lon="29.1894045655">
		<tag k="name" v="Bryggarivatnan" />
		<tag k="natural" v="water" />
		<tag k="ssr:stedsnr" v="287876" />
		<tag k="water" v="lake" />
	</node>
	<node id="-803281" lat="70.8408805759" lon="29.1476685202">
		<tag k="fixme" v="consider natural=peak for the most distinct mountains in the district" />
		<tag k="name" v="Vargvikfjellet" />
		<tag k="natural" v="hill" />
		<tag k="place" v="locality" />
		<tag k="ssr:stedsnr" v="274237" />
	</node>
	<node id="-803280" lat="70.8667111267" lon="28.8024186344">
		<tag k="name" v="Skipsnes" />
		<tag k="place" v="locality" />
		<tag k="ssr:stedsnr" v="269500" />
	</node>
	<node id="-803279" lat="70.6786472457" lon="29.2471489839">
		<tag k="name" v="Nikko-Per-haugen" />
		<tag k="natural" v="hill" />
		<tag k="place" v="locality" />
		<tag k="ssr:stedsnr" v="269208" />
	</node>
	<node id="-803278" lat="70.8328833507" lon="29.2057046044">
		<tag k="name" v="Vester-Styrelva" />
		<tag k="ssr:stedsnr" v="269207" />
		<tag k="waterway" v="river" />
	</node>
</osm>
