<?xml version="1.0" encoding="UTF-8"?>
<osm version="0.6" generator="osmapis">
	<node lat="62.59417423754851" lon="6.9373217846207025" id="-8746">
		<tag k="name" v="Gjerdevegen" />
		<tag k="ssr:date" v="2019-05-31" />
		<tag k="ssr:gruppe" v="veg" />
		<tag k="ssr:hovedgruppe" v="infrastruktur" />
		<tag k="ssr:stedsnr" v="241917" />
		<tag k="ssr:type" v="adressenavn" />
	</node>
	<node lat="62.61231155199669" lon="6.9373515350885615" id="-8852">
		<tag k="name" v="Nedre Vikvegen" />
		<tag k="ssr:date" v="2019-05-31" />
		<tag k="ssr:gruppe" v="veg" />
		<tag k="ssr:hovedgruppe" v="infrastruktur" />
		<tag k="ssr:stedsnr" v="464093" />
		<tag k="ssr:type" v="adressenavn" />
	</node>
	<node lat="62.60573672182067" lon="6.929675159164271" id="-8853">
		<tag k="name" v="Langmyrvegen" />
		<tag k="ssr:date" v="2019-05-31" />
		<tag k="ssr:gruppe" v="veg" />
		<tag k="ssr:hovedgruppe" v="infrastruktur" />
		<tag k="ssr:stedsnr" v="464094" />
		<tag k="ssr:type" v="adressenavn" />
	</node>
	<node lat="62.618438644220404" lon="6.996331083666382" id="-8856">
		<tag k="name" v="Jervellvegen" />
		<tag k="ssr:date" v="2019-05-31" />
		<tag k="ssr:gruppe" v="veg" />
		<tag k="ssr:hovedgruppe" v="infrastruktur" />
		<tag k="ssr:stedsnr" v="464952" />
		<tag k="ssr:type" v="adressenavn" />
	</node>
	<node lat="62.61594438762937" lon="6.954066922358739" id="-8857">
		<tag k="name" v="Furlandsvegen" />
		<tag k="ssr:date" v="2019-05-31" />
		<tag k="ssr:gruppe" v="veg" />
		<tag k="ssr:hovedgruppe" v="infrastruktur" />
		<tag k="ssr:stedsnr" v="464953" />
		<tag k="ssr:type" v="adressenavn" />
	</node>
	<node lat="62.62130000342464" lon="7.089666669633617" id="-8866">
		<tag k="name" v="Vestnes kommune" />
		<tag k="ssr:date" v="2016-05-10" />
		<tag k="ssr:gruppe" v="administrativeIndelinger" />
		<tag k="ssr:hovedgruppe" v="offentligAdministrasjon" />
		<tag k="ssr:stedsnr" v="328025" />
		<tag k="ssr:type" v="kommune" />
	</node>
	<node lat="62.581904725924964" lon="6.930146102733634" id="-8963">
		<tag k="name" v="Teigevegen" />
		<tag k="ssr:date" v="2019-05-31" />
		<tag k="ssr:gruppe" v="veg" />
		<tag k="ssr:hovedgruppe" v="infrastruktur" />
		<tag k="ssr:stedsnr" v="424897" />
		<tag k="ssr:type" v="adressenavn" />
	</node>
	<node lat="62.634075002925286" lon="7.108566674547342" id="-9092">
		<tag k="name" v="Tresfjorden" />
		<tag k="ssr:date" v="2016-05-10" />
		<tag k="ssr:gruppe" v="navigasjon" />
		<tag k="ssr:hovedgruppe" v="infrastruktur" />
		<tag k="ssr:stedsnr" v="536773" />
		<tag k="ssr:type" v="fyrlykt" />
	</node>
	<node lat="62.58760498614027" lon="6.932980962262561" id="-9094">
		<tag k="name" v="Krogsbakken" />
		<tag k="ssr:date" v="2019-05-31" />
		<tag k="ssr:gruppe" v="veg" />
		<tag k="ssr:hovedgruppe" v="infrastruktur" />
		<tag k="ssr:stedsnr" v="545902" />
		<tag k="ssr:type" v="adressenavn" />
	</node>
	<node lat="62.581170844260804" lon="6.93486168690333" id="-9149">
		<tag k="name" v="Tomrelia" />
		<tag k="ssr:date" v="2019-05-31" />
		<tag k="ssr:gruppe" v="veg" />
		<tag k="ssr:hovedgruppe" v="infrastruktur" />
		<tag k="ssr:stedsnr" v="605912" />
		<tag k="ssr:type" v="adressenavn" />
	</node>
	<node lat="62.60522933060822" lon="6.934266951842405" id="-9238">
		<tag k="name" v="Vikvegen" />
		<tag k="ssr:date" v="2019-05-31" />
		<tag k="ssr:gruppe" v="veg" />
		<tag k="ssr:hovedgruppe" v="infrastruktur" />
		<tag k="ssr:stedsnr" v="646075" />
		<tag k="ssr:type" v="adressenavn" />
	</node>
	<node lat="62.609879562544556" lon="6.940827421526098" id="-9239">
		<tag k="name" v="Johnvegen" />
		<tag k="ssr:date" v="2019-05-31" />
		<tag k="ssr:gruppe" v="veg" />
		<tag k="ssr:hovedgruppe" v="infrastruktur" />
		<tag k="ssr:stedsnr" v="707092" />
		<tag k="ssr:type" v="adressenavn" />
	</node>
	<node lat="62.6032649809601" lon="6.935247629426137" id="-9240">
		<tag k="name" v="Fonnavegen" />
		<tag k="ssr:date" v="2019-05-31" />
		<tag k="ssr:gruppe" v="veg" />
		<tag k="ssr:hovedgruppe" v="infrastruktur" />
		<tag k="ssr:stedsnr" v="707095" />
		<tag k="ssr:type" v="adressenavn" />
	</node>
	<node lat="62.610270942595974" lon="6.931504998291242" id="-9241">
		<tag k="name" v="Selnesvegen" />
		<tag k="ssr:date" v="2019-05-31" />
		<tag k="ssr:gruppe" v="veg" />
		<tag k="ssr:hovedgruppe" v="infrastruktur" />
		<tag k="ssr:stedsnr" v="707098" />
		<tag k="ssr:type" v="adressenavn" />
	</node>
	<node lat="62.61499748297905" lon="6.949162163938774" id="-9242">
		<tag k="name" v="Neråsvegen" />
		<tag k="ssr:date" v="2019-05-31" />
		<tag k="ssr:gruppe" v="veg" />
		<tag k="ssr:hovedgruppe" v="infrastruktur" />
		<tag k="ssr:stedsnr" v="707100" />
		<tag k="ssr:type" v="adressenavn" />
	</node>
	<node lat="62.59645972485886" lon="6.930575647699658" id="-9297">
		<tag k="name" v="Liaråket" />
		<tag k="ssr:date" v="2019-05-31" />
		<tag k="ssr:gruppe" v="veg" />
		<tag k="ssr:hovedgruppe" v="infrastruktur" />
		<tag k="ssr:stedsnr" v="727909" />
		<tag k="ssr:type" v="adressenavn" />
	</node>
	<node lat="62.57345702778758" lon="6.909030797309195" id="-9337">
		<tag k="name" v="Fjordvegen" />
		<tag k="ssr:date" v="2019-05-31" />
		<tag k="ssr:gruppe" v="veg" />
		<tag k="ssr:hovedgruppe" v="infrastruktur" />
		<tag k="ssr:stedsnr" v="787910" />
		<tag k="ssr:type" v="adressenavn" />
	</node>
	<node lat="62.630531045718946" lon="7.057549522539794" id="-9365">
		<tag k="name" v="Åsvegen" />
		<tag k="ssr:date" v="2019-05-31" />
		<tag k="ssr:gruppe" v="veg" />
		<tag k="ssr:hovedgruppe" v="infrastruktur" />
		<tag k="ssr:stedsnr" v="823608" />
		<tag k="ssr:type" v="adressenavn" />
	</node>
	<node lat="62.62239910230471" lon="6.994218376038827" id="-9402">
		<tag k="name" v="Øveråsvegen" />
		<tag k="ssr:date" v="2019-05-31" />
		<tag k="ssr:gruppe" v="veg" />
		<tag k="ssr:hovedgruppe" v="infrastruktur" />
		<tag k="ssr:stedsnr" v="828062" />
		<tag k="ssr:type" v="adressenavn" />
	</node>
	<node lat="62.612964275261376" lon="7.144915946033326" id="-9515">
		<tag k="name" v="Gjermundnesvegen" />
		<tag k="ssr:date" v="2019-05-31" />
		<tag k="ssr:gruppe" v="veg" />
		<tag k="ssr:hovedgruppe" v="infrastruktur" />
		<tag k="ssr:stedsnr" v="975863" />
		<tag k="ssr:type" v="adressenavn" />
	</node>
	<node lat="62.54195394270362" lon="7.149857820692204" id="-9516">
		<tag k="name" v="Daugstadvegen" />
		<tag k="ssr:date" v="2019-05-31" />
		<tag k="ssr:gruppe" v="veg" />
		<tag k="ssr:hovedgruppe" v="infrastruktur" />
		<tag k="ssr:stedsnr" v="975864" />
		<tag k="ssr:type" v="adressenavn" />
	</node>
	<node lat="62.620424482716416" lon="7.1568273325319804" id="-9517">
		<tag k="name" v="Febrandshaugen" />
		<tag k="ssr:date" v="2019-05-31" />
		<tag k="ssr:gruppe" v="veg" />
		<tag k="ssr:hovedgruppe" v="infrastruktur" />
		<tag k="ssr:stedsnr" v="975865" />
		<tag k="ssr:type" v="adressenavn" />
	</node>
	<node lat="62.619742114367014" lon="7.161262634213024" id="-9518">
		<tag k="name" v="Vestnesvegen" />
		<tag k="ssr:date" v="2019-05-31" />
		<tag k="ssr:gruppe" v="veg" />
		<tag k="ssr:hovedgruppe" v="infrastruktur" />
		<tag k="ssr:stedsnr" v="975866" />
		<tag k="ssr:type" v="adressenavn" />
	</node>
	<node lat="62.610296565084035" lon="7.142870376649354" id="-9519">
		<tag k="name" v="Vikesetervegen" />
		<tag k="ssr:date" v="2019-05-31" />
		<tag k="ssr:gruppe" v="veg" />
		<tag k="ssr:hovedgruppe" v="infrastruktur" />
		<tag k="ssr:stedsnr" v="975869" />
		<tag k="ssr:type" v="adressenavn" />
	</node>
	<node lat="62.6128583622079" lon="7.146394472418248" id="-9520">
		<tag k="name" v="Øvre Vikebuktveg" />
		<tag k="ssr:date" v="2019-05-31" />
		<tag k="ssr:gruppe" v="veg" />
		<tag k="ssr:hovedgruppe" v="infrastruktur" />
		<tag k="ssr:stedsnr" v="975872" />
		<tag k="ssr:type" v="adressenavn" />
	</node>
	<node lat="62.611750227657716" lon="7.142616360428074" id="-9521">
		<tag k="name" v="Sagvegen" />
		<tag k="ssr:date" v="2019-05-31" />
		<tag k="ssr:gruppe" v="veg" />
		<tag k="ssr:hovedgruppe" v="infrastruktur" />
		<tag k="ssr:stedsnr" v="975873" />
		<tag k="ssr:type" v="adressenavn" />
	</node>
	<node lat="62.60843046613426" lon="7.139165469988081" id="-9522">
		<tag k="name" v="Sjøvegen" />
		<tag k="ssr:date" v="2019-05-31" />
		<tag k="ssr:gruppe" v="veg" />
		<tag k="ssr:hovedgruppe" v="infrastruktur" />
		<tag k="ssr:stedsnr" v="975887" />
		<tag k="ssr:type" v="adressenavn" />
	</node>
	<node lat="62.73392710705581" lon="7.14918030614603" id="-9731">
		<tag k="alt_name" v="Møre og Romsdal" />
		<tag k="name" v="Møre og Romsdal fylke" />
		<tag k="ssr:date" v="2021-09-21" />
		<tag k="ssr:gruppe" v="administrativeIndelinger" />
		<tag k="ssr:hovedgruppe" v="offentligAdministrasjon" />
		<tag k="ssr:stedsnr" v="145583" />
		<tag k="ssr:type" v="fylke" />
	</node>
	<node lat="62.64165179259252" lon="6.925408093752135" id="-9926">
		<tag k="name" v="Røtbakken" />
		<tag k="ssr:date" v="2019-05-31" />
		<tag k="ssr:gruppe" v="veg" />
		<tag k="ssr:hovedgruppe" v="infrastruktur" />
		<tag k="ssr:stedsnr" v="282083" />
		<tag k="ssr:type" v="adressenavn" />
	</node>
	<node lat="62.55658055492297" lon="7.146755552653951" id="-10005">
		<tag k="name" v="Daugstad" />
		<tag k="ssr:date" v="2016-05-10" />
		<tag k="ssr:gruppe" v="navigasjon" />
		<tag k="ssr:hovedgruppe" v="infrastruktur" />
		<tag k="ssr:stedsnr" v="354163" />
		<tag k="ssr:type" v="fyrlykt" />
	</node>
	<node lat="62.601390111025886" lon="6.933352629662987" id="-10008">
		<tag k="name" v="Nybøvegen" />
		<tag k="ssr:date" v="2019-05-31" />
		<tag k="ssr:gruppe" v="veg" />
		<tag k="ssr:hovedgruppe" v="infrastruktur" />
		<tag k="ssr:stedsnr" v="363887" />
		<tag k="ssr:type" v="adressenavn" />
	</node>
	<node lat="62.60756666885003" lon="7.359524996813097" id="-10351">
		<tag k="name" v="Helgestønes" />
		<tag k="ssr:date" v="2021-01-01" />
		<tag k="ssr:gruppe" v="navigasjon" />
		<tag k="ssr:hovedgruppe" v="infrastruktur" />
		<tag k="ssr:stedsnr" v="657102" />
		<tag k="ssr:type" v="fyrlykt" />
	</node>
	<node lat="62.64815032868264" lon="6.937200058975879" id="-10436">
		<tag k="name" v="Leirvågvegen" />
		<tag k="ssr:date" v="2019-05-31" />
		<tag k="ssr:gruppe" v="veg" />
		<tag k="ssr:hovedgruppe" v="infrastruktur" />
		<tag k="ssr:stedsnr" v="767074" />
		<tag k="ssr:type" v="adressenavn" />
	</node>
	<node lat="62.59891638176728" lon="7.13354575669584" id="-10660">
		<tag k="name" v="Vikebuktvegen" />
		<tag k="ssr:date" v="2019-05-31" />
		<tag k="ssr:gruppe" v="veg" />
		<tag k="ssr:hovedgruppe" v="infrastruktur" />
		<tag k="ssr:stedsnr" v="975915" />
		<tag k="ssr:type" v="adressenavn" />
	</node>
	<node lat="62.55869870570503" lon="7.156766468444596" id="-10661">
		<tag k="name" v="Daugstadsetervegen" />
		<tag k="ssr:date" v="2019-05-31" />
		<tag k="ssr:gruppe" v="veg" />
		<tag k="ssr:hovedgruppe" v="infrastruktur" />
		<tag k="ssr:stedsnr" v="975917" />
		<tag k="ssr:type" v="adressenavn" />
	</node>
	<node lat="62.56295306493722" lon="7.15835198833809" id="-10662">
		<tag k="name" v="Daugstadvollen" />
		<tag k="ssr:date" v="2019-05-31" />
		<tag k="ssr:gruppe" v="veg" />
		<tag k="ssr:hovedgruppe" v="infrastruktur" />
		<tag k="ssr:stedsnr" v="975918" />
		<tag k="ssr:type" v="adressenavn" />
	</node>
	<node lat="62.61974487365175" lon="7.151573906027044" id="-10663">
		<tag k="name" v="Nesvegen" />
		<tag k="ssr:date" v="2019-05-31" />
		<tag k="ssr:gruppe" v="veg" />
		<tag k="ssr:hovedgruppe" v="infrastruktur" />
		<tag k="ssr:stedsnr" v="975861" />
		<tag k="ssr:type" v="adressenavn" />
	</node>
	<node lat="62.62285786440662" lon="7.155134438440792" id="-10664">
		<tag k="name" v="Bakneset" />
		<tag k="ssr:date" v="2019-05-31" />
		<tag k="ssr:gruppe" v="veg" />
		<tag k="ssr:hovedgruppe" v="infrastruktur" />
		<tag k="ssr:stedsnr" v="975862" />
		<tag k="ssr:type" v="adressenavn" />
	</node>
	<node lat="62.53285140197455" lon="6.94943784240455" id="-10665">
		<tag k="name" v="Skorgedalsvegen" />
		<tag k="ssr:date" v="2019-05-31" />
		<tag k="ssr:gruppe" v="veg" />
		<tag k="ssr:hovedgruppe" v="infrastruktur" />
		<tag k="ssr:stedsnr" v="976197" />
		<tag k="ssr:type" v="adressenavn" />
	</node>
	<node lat="62.57915971399292" lon="7.104815179514872" id="-10666">
		<tag k="name" v="Øvre Skorgevik" />
		<tag k="ssr:date" v="2019-05-31" />
		<tag k="ssr:gruppe" v="veg" />
		<tag k="ssr:hovedgruppe" v="infrastruktur" />
		<tag k="ssr:stedsnr" v="976199" />
		<tag k="ssr:type" v="adressenavn" />
	</node>
	<node lat="62.573726290192106" lon="7.109613771305691" id="-10667">
		<tag k="name" v="Skorgeneskleiva" />
		<tag k="ssr:date" v="2019-05-31" />
		<tag k="ssr:gruppe" v="veg" />
		<tag k="ssr:hovedgruppe" v="infrastruktur" />
		<tag k="ssr:stedsnr" v="976200" />
		<tag k="ssr:type" v="adressenavn" />
	</node>
	<node lat="62.572930559948006" lon="7.110416074580094" id="-10668">
		<tag k="name" v="Skorgevikvegen" />
		<tag k="ssr:date" v="2019-05-31" />
		<tag k="ssr:gruppe" v="veg" />
		<tag k="ssr:hovedgruppe" v="infrastruktur" />
		<tag k="ssr:stedsnr" v="976201" />
		<tag k="ssr:type" v="adressenavn" />
	</node>
	<node lat="62.573726290192106" lon="7.109613771305691" id="-10669">
		<tag k="name" v="Skorgeneset" />
		<tag k="ssr:date" v="2019-05-31" />
		<tag k="ssr:gruppe" v="veg" />
		<tag k="ssr:hovedgruppe" v="infrastruktur" />
		<tag k="ssr:stedsnr" v="976202" />
		<tag k="ssr:type" v="adressenavn" />
	</node>
	<node lat="62.60549335741921" lon="7.317361524826394" id="-10757">
		<tag k="name" v="Hagevegen" />
		<tag k="ssr:date" v="2021-01-01" />
		<tag k="ssr:gruppe" v="veg" />
		<tag k="ssr:hovedgruppe" v="infrastruktur" />
		<tag k="ssr:stedsnr" v="1058725" />
		<tag k="ssr:type" v="adressenavn" />
	</node>
	<node lat="62.604639138785494" lon="7.317519533180069" id="-10758">
		<tag k="name" v="Øvre veg" />
		<tag k="ssr:date" v="2021-01-01" />
		<tag k="ssr:gruppe" v="veg" />
		<tag k="ssr:hovedgruppe" v="infrastruktur" />
		<tag k="ssr:stedsnr" v="1059130" />
		<tag k="ssr:type" v="adressenavn" />
	</node>
	<node lat="62.626292237180024" lon="7.152726650707216" id="-10768">
		<tag k="name" v="Bergelehaugen" />
		<tag k="ssr:date" v="2020-05-15" />
		<tag k="ssr:gruppe" v="veg" />
		<tag k="ssr:hovedgruppe" v="infrastruktur" />
		<tag k="ssr:stedsnr" v="1076954" />
		<tag k="ssr:type" v="adressenavn" />
	</node>
</osm>
