<?xml version="1.0" encoding="UTF-8"?>
<osm generator="osmapis" version="0.6">
	<node id="-17224" lat="66.3406138844" lon="13.4415111155">
		<tag k="name" v="Nordfjordholmen" />
		<tag k="ssr:date" v="2016-05-10" />
		<tag k="ssr:gruppe" v="navigasjon" />
		<tag k="ssr:hovedgruppe" v="infrastruktur" />
		<tag k="ssr:stedsnr" v="16860" />
		<tag k="ssr:type" v="fyrlykt" />
	</node>
	<node id="-17061" lat="66.3112138844" lon="14.1399583393">
		<tag k="name" v="Rana kommune" />
		<tag k="ssr:date" v="2016-05-11" />
		<tag k="ssr:gruppe" v="administrativeIndelinger" />
		<tag k="ssr:hovedgruppe" v="offentligAdministrasjon" />
		<tag k="ssr:stedsnr" v="875106" />
		<tag k="ssr:type" v="kommune" />
	</node>
	<node id="-18139" lat="66.2892444475" lon="14.0445388905">
		<tag k="name" v="Haukneset" />
		<tag k="ssr:date" v="2016-05-10" />
		<tag k="ssr:gruppe" v="navigasjon" />
		<tag k="ssr:hovedgruppe" v="infrastruktur" />
		<tag k="ssr:stedsnr" v="206468" />
		<tag k="ssr:type" v="fyrlykt" />
	</node>
	<node id="-15562" lat="67.2804027759" lon="14.3763888983">
		<tag k="alt_name:no" v="Nordland" />
		<tag k="loc_name:se" v="Nordlánda fylka" />
		<tag k="loc_name:sma" v="Nordlaanten fylhke" />
		<tag k="loc_name:smj" v="Nordlánda fylkka" />
		<tag k="name" v="Nordland fylke" />
		<tag k="name:no" v="Nordland fylke" />
		<tag k="ssr:date" v="2020-04-15" />
		<tag k="ssr:gruppe" v="administrativeIndelinger" />
		<tag k="ssr:hovedgruppe" v="offentligAdministrasjon" />
		<tag k="ssr:stedsnr" v="511766" />
		<tag k="ssr:type" v="fylke" />
	</node>
	<node id="-14513" lat="66.2573593539" lon="13.752866328">
		<tag k="name" v="Straumholmen" />
		<tag k="ssr:date" v="2020-09-15" />
		<tag k="ssr:gruppe" v="navigasjon" />
		<tag k="ssr:hovedgruppe" v="infrastruktur" />
		<tag k="ssr:stedsnr" v="267446" />
		<tag k="ssr:type" v="fyrlykt" />
	</node>
</osm>
