<?xml version="1.0" encoding="UTF-8"?>
<osm version="0.6" generator="osmapis">
	<node lat="69.08953037081923" lon="17.59343981421577" id="-100303">
		<tag k="name" v="Dyrøy bro, østre" />
		<tag k="ssr:date" v="2020-11-10" />
		<tag k="ssr:gruppe" v="navigasjon" />
		<tag k="ssr:hovedgruppe" v="infrastruktur" />
		<tag k="ssr:stedsnr" v="635511" />
		<tag k="ssr:type" v="fyrlykt" />
	</node>
	<node lat="69.09153888967855" lon="17.690947228819166" id="-100445">
		<tag k="alt_name" v="Dyrøy" />
		<tag k="name" v="Dyrøy kommune" />
		<tag k="ssr:date" v="2019-12-27" />
		<tag k="ssr:gruppe" v="administrativeIndelinger" />
		<tag k="ssr:hovedgruppe" v="offentligAdministrasjon" />
		<tag k="ssr:stedsnr" v="814935" />
		<tag k="ssr:type" v="kommune" />
	</node>
	<node lat="68.99685664729664" lon="17.47460354713355" id="-100500">
		<tag k="name" v="Kastnesskjæret" />
		<tag k="old_name" v="Kastnesskjær" />
		<tag k="ssr:date" v="2020-11-26" />
		<tag k="ssr:gruppe" v="navigasjon" />
		<tag k="ssr:hovedgruppe" v="infrastruktur" />
		<tag k="ssr:stedsnr" v="876817" />
		<tag k="ssr:type" v="fyrlykt" />
	</node>
	<node lat="69.08968333678784" lon="17.591036099116845" id="-100578">
		<tag k="name" v="Dyrøy bro" />
		<tag k="ssr:date" v="2019-12-27" />
		<tag k="ssr:gruppe" v="navigasjon" />
		<tag k="ssr:hovedgruppe" v="infrastruktur" />
		<tag k="ssr:stedsnr" v="29518" />
		<tag k="ssr:type" v="fyrlykt" />
	</node>
	<node lat="69.081865042164" lon="17.695621892991355" id="-101419">
		<tag k="name" v="Stormyrveien" />
		<tag k="ssr:date" v="2019-12-27" />
		<tag k="ssr:gruppe" v="veg" />
		<tag k="ssr:hovedgruppe" v="infrastruktur" />
		<tag k="ssr:stedsnr" v="1010104" />
		<tag k="ssr:type" v="adressenavn" />
	</node>
	<node lat="69.08949821530717" lon="17.701197781749872" id="-101420">
		<tag k="name" v="Elveveien" />
		<tag k="ssr:date" v="2019-12-27" />
		<tag k="ssr:gruppe" v="veg" />
		<tag k="ssr:hovedgruppe" v="infrastruktur" />
		<tag k="ssr:stedsnr" v="1010107" />
		<tag k="ssr:type" v="adressenavn" />
	</node>
	<node lat="69.1140186464001" lon="17.745834447274593" id="-101426">
		<tag k="name" v="Skogstadveien" />
		<tag k="ssr:date" v="2019-12-27" />
		<tag k="ssr:gruppe" v="veg" />
		<tag k="ssr:hovedgruppe" v="infrastruktur" />
		<tag k="ssr:stedsnr" v="1010113" />
		<tag k="ssr:type" v="adressenavn" />
	</node>
	<node lat="69.0885166276313" lon="17.69281119396889" id="-101429">
		<tag k="name" v="Fossmoveien" />
		<tag k="ssr:date" v="2019-12-27" />
		<tag k="ssr:gruppe" v="veg" />
		<tag k="ssr:hovedgruppe" v="infrastruktur" />
		<tag k="ssr:stedsnr" v="1010288" />
		<tag k="ssr:type" v="adressenavn" />
	</node>
	<node lat="69.08914829507849" lon="17.702027759319815" id="-101430">
		<tag k="name" v="Ringveien" />
		<tag k="ssr:date" v="2019-12-27" />
		<tag k="ssr:gruppe" v="veg" />
		<tag k="ssr:hovedgruppe" v="infrastruktur" />
		<tag k="ssr:stedsnr" v="1010293" />
		<tag k="ssr:type" v="adressenavn" />
	</node>
	<node lat="69.0905615810001" lon="17.69871468773748" id="-101431">
		<tag k="name" v="Tverrveien" />
		<tag k="ssr:date" v="2019-12-27" />
		<tag k="ssr:gruppe" v="veg" />
		<tag k="ssr:hovedgruppe" v="infrastruktur" />
		<tag k="ssr:stedsnr" v="1010296" />
		<tag k="ssr:type" v="adressenavn" />
	</node>
</osm>
