<?xml version="1.0" encoding="UTF-8"?>
<osm version="0.6" generator="osmapis">
	<node id="8332066378" lat="62.5869707" lon="9.5253831" version="2" timestamp="2022-01-26T07:15:22Z" changeset="116611310" uid="3497659" user="NKA">
		<tag k="junction" v="yes" />
		<tag k="name" v="Nyseterkrysset" />
		<tag k="ssr:stedsnr" v="711308" />
	</node>
	<node id="9427514694" lat="62.6116335" lon="9.6492862" version="1" timestamp="2022-01-18T07:49:55Z" changeset="116285062" uid="3497659" user="NKA">
		<tag k="amenity" v="bar" />
		<tag k="name" v="Loftet afterski" />
		<tag k="ssr:stedsnr" v="1076595" />
	</node>
	<node id="9427514695" lat="62.6166136" lon="9.4780505" version="1" timestamp="2022-01-18T07:49:55Z" changeset="116285062" uid="3497659" user="NKA">
		<tag k="amenity" v="cafe" />
		<tag k="name" v="Trollheimsporten" />
		<tag k="ssr:stedsnr" v="103168" />
	</node>
	<node id="9427514696" lat="62.6102263" lon="9.6513641" version="1" timestamp="2022-01-18T07:49:55Z" changeset="116285062" uid="3497659" user="NKA">
		<tag k="amenity" v="cafe" />
		<tag k="name" v="Onkel Pudder" />
		<tag k="ssr:stedsnr" v="1076596" />
	</node>
	<node id="8332064919" lat="62.4861493" lon="9.5812803" version="1" timestamp="2021-01-17T21:27:31Z" changeset="97653451" uid="3497659" user="NKA" />
	<node id="8332064918" lat="62.4860052" lon="9.5821493" version="1" timestamp="2021-01-17T21:27:31Z" changeset="97653451" uid="3497659" user="NKA" />
	<node id="8332065843" lat="62.498354" lon="9.586963" version="1" timestamp="2021-01-17T21:27:31Z" changeset="97653451" uid="3497659" user="NKA" />
	<node id="8332065754" lat="62.498444" lon="9.587716" version="1" timestamp="2021-01-17T21:27:31Z" changeset="97653451" uid="3497659" user="NKA" />
	<node id="8332066779" lat="62.5027908" lon="9.6443769" version="1" timestamp="2021-01-17T21:27:31Z" changeset="97653451" uid="3497659" user="NKA" />
	<node id="8332066780" lat="62.502857" lon="9.644012" version="1" timestamp="2021-01-17T21:27:31Z" changeset="97653451" uid="3497659" user="NKA" />
	<node id="511984064" lat="62.5811614" lon="9.3156984" version="3" timestamp="2022-01-24T21:00:15Z" changeset="116559033" uid="3497659" user="NKA" />
	<node id="511984065" lat="62.5810394" lon="9.3156876" version="3" timestamp="2022-01-24T21:00:15Z" changeset="116559033" uid="3497659" user="NKA" />
	<node id="8332065234" lat="62.575128" lon="9.387553" version="1" timestamp="2021-01-17T21:27:31Z" changeset="97653451" uid="3497659" user="NKA" />
	<node id="8332065235" lat="62.574879" lon="9.387406" version="1" timestamp="2021-01-17T21:27:31Z" changeset="97653451" uid="3497659" user="NKA" />
	<node id="8332065521" lat="62.591885" lon="9.433568" version="1" timestamp="2021-01-17T21:27:31Z" changeset="97653451" uid="3497659" user="NKA" />
	<node id="8332065522" lat="62.591861" lon="9.432928" version="1" timestamp="2021-01-17T21:27:31Z" changeset="97653451" uid="3497659" user="NKA" />
	<node id="8332066617" lat="62.513303" lon="9.594573" version="1" timestamp="2021-01-17T21:27:31Z" changeset="97653451" uid="3497659" user="NKA" />
	<node id="8332067404" lat="62.513126" lon="9.595029" version="1" timestamp="2021-01-17T21:27:31Z" changeset="97653451" uid="3497659" user="NKA" />
	<node id="8332065193" lat="62.529494" lon="9.599301" version="1" timestamp="2021-01-17T21:27:31Z" changeset="97653451" uid="3497659" user="NKA" />
	<node id="8332065194" lat="62.529587" lon="9.598593" version="1" timestamp="2021-01-17T21:27:31Z" changeset="97653451" uid="3497659" user="NKA" />
	<node id="8332045314" lat="62.6309855" lon="9.4887631" version="2" timestamp="2021-01-17T21:43:49Z" changeset="97653888" uid="3497659" user="NKA" />
	<node id="8332127483" lat="62.6309676" lon="9.4889393" version="1" timestamp="2021-01-17T21:43:49Z" changeset="97653888" uid="3497659" user="NKA" />
	<node id="8332065122" lat="62.746585" lon="9.555948" version="1" timestamp="2021-01-17T21:27:31Z" changeset="97653451" uid="3497659" user="NKA" />
	<node id="8332065126" lat="62.746751" lon="9.556009" version="1" timestamp="2021-01-17T21:27:31Z" changeset="97653451" uid="3497659" user="NKA" />
	<node id="2128265307" lat="62.7047014" lon="9.9149202" version="2" timestamp="2019-10-28T19:18:29Z" changeset="76312481" uid="3497659" user="NKA" />
	<node id="8332068068" lat="62.7046458" lon="9.9147703" version="1" timestamp="2021-01-17T21:27:31Z" changeset="97653451" uid="3497659" user="NKA" />
	<node id="6925376249" lat="62.695842" lon="9.9401554" version="2" timestamp="2021-01-17T21:27:34Z" changeset="97653453" uid="3497659" user="NKA" />
	<node id="8332065361" lat="62.6957204" lon="9.93995" version="1" timestamp="2021-01-17T21:27:31Z" changeset="97653451" uid="3497659" user="NKA" />
	<way id="27803477" version="5" timestamp="2022-01-24T21:00:15Z" changeset="116559033" uid="3497659" user="NKA">
		<tag k="bridge" v="yes" />
		<tag k="highway" v="secondary" />
		<tag k="layer" v="1" />
		<tag k="maxspeed" v="80" />
		<tag k="name" v="Isholbrua" />
		<tag k="ref" v="6518" />
		<tag k="ssr:stedsnr" v="165346" />
		<tag k="surface" v="gravel" />
		<nd ref="8332065235" />
		<nd ref="8332065234" />
	</way>
	<way id="202589723" version="7" timestamp="2022-01-24T21:00:15Z" changeset="116559033" uid="3497659" user="NKA">
		<tag k="bridge" v="yes" />
		<tag k="bridge:description" v="Skorem Flomløp" />
		<tag k="highway" v="secondary" />
		<tag k="layer" v="1" />
		<tag k="maxspeed" v="60" />
		<tag k="name" v="Skoremsbrua" />
		<tag k="ref" v="6522" />
		<tag k="ssr:stedsnr" v="392721" />
		<tag k="surface" v="asphalt" />
		<nd ref="8332065194" />
		<nd ref="8332065193" />
	</way>
	<way id="202589738" version="6" timestamp="2022-01-24T21:00:15Z" changeset="116559033" uid="3497659" user="NKA">
		<tag k="bridge" v="yes" />
		<tag k="highway" v="unclassified" />
		<tag k="layer" v="1" />
		<tag k="name" v="Moabrua" />
		<tag k="piste:type" v="nordic" />
		<tag k="ssr:stedsnr" v="695869" />
		<nd ref="8332066780" />
		<nd ref="8332066779" />
	</way>
	<way id="202596266" version="6" timestamp="2022-01-24T21:00:15Z" changeset="116559033" uid="3497659" user="NKA">
		<tag k="alt_name" v="Skreabrua" />
		<tag k="bridge" v="yes" />
		<tag k="highway" v="unclassified" />
		<tag k="layer" v="1" />
		<tag k="name" v="Skredabrua" />
		<tag k="ssr:stedsnr" v="878708" />
		<nd ref="8332065843" />
		<nd ref="8332065754" />
	</way>
	<way id="202890239" version="8" timestamp="2022-01-24T21:00:15Z" changeset="116559033" uid="3497659" user="NKA">
		<tag k="bridge" v="yes" />
		<tag k="highway" v="trunk" />
		<tag k="lanes" v="2" />
		<tag k="layer" v="1" />
		<tag k="maxspeed" v="70" />
		<tag k="maxweight:signed" v="no" />
		<tag k="name" v="Nedre Gisnabrua" />
		<tag k="old_name" v="Gisnabrua" />
		<tag k="ref" v="E 6" />
		<tag k="ssr:stedsnr" v="465698" />
		<tag k="surface" v="asphalt" />
		<nd ref="8332065361" />
		<nd ref="6925376249" />
	</way>
	<way id="302368510" version="4" timestamp="2022-01-24T21:00:15Z" changeset="116559033" uid="3497659" user="NKA">
		<tag k="bridge" v="yes" />
		<tag k="class:bicycle:mtb" v="2" />
		<tag k="highway" v="path" />
		<tag k="layer" v="1" />
		<tag k="mtb:name" v="Nybrustien" />
		<tag k="mtb:scale" v="1" />
		<tag k="name" v="Nybrua" />
		<tag k="ssr:stedsnr" v="225366" />
		<nd ref="511984064" />
		<nd ref="511984065" />
	</way>
	<way id="316601384" version="3" timestamp="2022-01-24T21:00:15Z" changeset="116559033" uid="3497659" user="NKA">
		<tag k="bridge" v="yes" />
		<tag k="highway" v="service" />
		<tag k="layer" v="1" />
		<tag k="name" v="Svartøybrua" />
		<tag k="ssr:stedsnr" v="286440" />
		<nd ref="8332065522" />
		<nd ref="8332065521" />
	</way>
	<way id="344686857" version="5" timestamp="2022-01-24T21:00:15Z" changeset="116559033" uid="3497659" user="NKA">
		<tag k="bridge" v="yes" />
		<tag k="highway" v="unclassified" />
		<tag k="layer" v="1" />
		<tag k="name" v="Gottemsbrua" />
		<tag k="ssr:stedsnr" v="453708" />
		<nd ref="8332067404" />
		<nd ref="8332066617" />
	</way>
	<way id="465407112" version="4" timestamp="2022-01-24T21:00:15Z" changeset="116559033" uid="3497659" user="NKA">
		<tag k="bridge" v="yes" />
		<tag k="highway" v="unclassified" />
		<tag k="layer" v="1" />
		<tag k="name" v="Engbrua" />
		<tag k="ssr:stedsnr" v="574730" />
		<nd ref="8332064919" />
		<nd ref="8332064918" />
	</way>
	<way id="739633037" version="4" timestamp="2022-01-24T21:00:15Z" changeset="116559033" uid="3497659" user="NKA">
		<tag k="bridge" v="yes" />
		<tag k="highway" v="tertiary" />
		<tag k="layer" v="1" />
		<tag k="maxspeed" v="80" />
		<tag k="name" v="Øvre Gisnabrua" />
		<tag k="old_name" v="Gisnabrua" />
		<tag k="ssr:stedsnr" v="768706" />
		<nd ref="8332068068" />
		<nd ref="2128265307" />
	</way>
	<way id="896319508" version="2" timestamp="2022-01-24T21:00:15Z" changeset="116559033" uid="3497659" user="NKA">
		<tag k="alt_name" v="Grøna bru" />
		<tag k="bridge" v="yes" />
		<tag k="bridge:description" v="Grøna" />
		<tag k="highway" v="secondary" />
		<tag k="layer" v="1" />
		<tag k="maxspeed" v="80" />
		<tag k="name" v="Grønbrua" />
		<tag k="ref" v="6516" />
		<tag k="ssr:stedsnr" v="101712" />
		<tag k="surface" v="asphalt" />
		<nd ref="8332065126" />
		<nd ref="8332065122" />
	</way>
	<way id="896331810" version="2" timestamp="2022-01-24T21:00:15Z" changeset="116559033" uid="3497659" user="NKA">
		<tag k="bridge" v="yes" />
		<tag k="highway" v="unclassified" />
		<tag k="layer" v="1" />
		<tag k="name" v="Hornbrua" />
		<tag k="ssr:stedsnr" v="104427" />
		<nd ref="8332127483" />
		<nd ref="8332045314" />
	</way>
</osm>
