<?xml version="1.0" encoding="UTF-8"?>
<osm generator="osmapis" version="0.6">
	<node id="-364472" lat="61.8744098759" lon="8.28275949931">
		<tag k="name" v="Nordi Lund" />
		<tag k="place" v="farm" />
		<tag k="ssr:stedsnr" v="1072123" />
	</node>
	<node id="-364465" lat="61.892430336" lon="8.25602684614">
		<tag k="fixme" v="consider place=hamlet" />
		<tag k="name" v="Skamsar" />
		<tag k="place" v="farm" />
		<tag k="ssr:stedsnr" v="984282" />
	</node>
	<node id="-364464" lat="61.8990526244" lon="8.23858089079">
		<tag k="alt_name" v="Jemnem" />
		<tag k="fixme" v="consider place=hamlet" />
		<tag k="name" v="Jevnheim" />
		<tag k="place" v="farm" />
		<tag k="ssr:stedsnr" v="984281" />
	</node>
	<node id="-364463" lat="61.8994031025" lon="8.23195284895">
		<tag k="fixme" v="consider place=hamlet" />
		<tag k="name" v="Kittilstad" />
		<tag k="place" v="farm" />
		<tag k="ssr:stedsnr" v="984280" />
	</node>
	<node id="-364462" lat="61.9004786114" lon="8.21975617926">
		<tag k="fixme" v="consider place=hamlet" />
		<tag k="name" v="Hyrve" />
		<tag k="place" v="farm" />
		<tag k="ssr:stedsnr" v="984279" />
	</node>
	<node id="-364461" lat="61.9041395895" lon="8.20312839582">
		<tag k="fixme" v="consider place=hamlet" />
		<tag k="name" v="Lykre" />
		<tag k="place" v="farm" />
		<tag k="ssr:stedsnr" v="984278" />
	</node>
	<node id="-364460" lat="61.9099283599" lon="7.88903631033">
		<tag k="name" v="Storbråtå" />
		<tag k="place" v="hamlet" />
		<tag k="ssr:stedsnr" v="984259" />
	</node>
	<node id="-364459" lat="61.9061524379" lon="7.86821367998">
		<tag k="fixme" v="consider place=hamlet" />
		<tag k="name" v="Mork" />
		<tag k="place" v="farm" />
		<tag k="ssr:stedsnr" v="984258" />
	</node>
	<node id="-364458" lat="61.8845797843" lon="8.29472275042">
		<tag k="name" v="Forberget" />
		<tag k="place" v="hamlet" />
		<tag k="ssr:stedsnr" v="984173" />
	</node>
	<node id="-364457" lat="61.873332732" lon="8.41770158092">
		<tag k="fixme" v="consider place=hamlet" />
		<tag k="name" v="Brekk" />
		<tag k="place" v="farm" />
		<tag k="ssr:stedsnr" v="984168" />
	</node>
	<node id="-364456" lat="61.9032075861" lon="7.61266990169">
		<tag k="fixme" v="consider tourism=alpine_hut or tourism=chalet" />
		<tag k="name" v="Rauddalsbu" />
		<tag k="ssr:stedsnr" v="984209" />
		<tag k="tourism" v="wilderness_hut" />
	</node>
	<node id="-364455" lat="61.8832287358" lon="8.37223504263">
		<tag k="name" v="Krokstad" />
		<tag k="place" v="hamlet" />
		<tag k="ssr:stedsnr" v="984208" />
	</node>
	<node id="-364454" lat="61.8919465945" lon="8.36143744832">
		<tag k="fixme" v="consider place=hamlet" />
		<tag k="name" v="Bakke" />
		<tag k="place" v="farm" />
		<tag k="ssr:stedsnr" v="984207" />
	</node>
	<node id="-364453" lat="61.8815197972" lon="8.36822933532">
		<tag k="fixme" v="consider place=hamlet" />
		<tag k="name" v="Tråstad" />
		<tag k="place" v="farm" />
		<tag k="ssr:stedsnr" v="984206" />
	</node>
	<node id="-364452" lat="61.903143874" lon="8.1889384751">
		<tag k="name" v="Lykregrende" />
		<tag k="place" v="quarter" />
		<tag k="ssr:stedsnr" v="981803" />
	</node>
	<node id="-364451" lat="61.8760499961" lon="8.38545833894">
		<tag k="name" v="Sygard Ånstad" />
		<tag k="place" v="farm" />
		<tag k="ssr:stedsnr" v="961951" />
	</node>
	<node id="-364448" lat="61.882886114" lon="8.44026667517">
		<tag k="name" v="Instun Rudsar" />
		<tag k="old_name" v="Instun Ramstad" />
		<tag k="place" v="farm" />
		<tag k="ssr:stedsnr" v="961649" />
	</node>
	<node id="-364447" lat="61.8858705378" lon="8.35903598279">
		<tag k="name" v="Nørdre Grimstad" />
		<tag k="place" v="farm" />
		<tag k="ssr:stedsnr" v="961731" />
	</node>
	<node id="-364445" lat="61.8763138872" lon="8.32672222933">
		<tag k="name" v="Søre Dalen" />
		<tag k="place" v="farm" />
		<tag k="ssr:stedsnr" v="961133" />
	</node>
	<node id="-364444" lat="61.8757944454" lon="8.27238332713">
		<tag k="name" v="Larskvee" />
		<tag k="place" v="farm" />
		<tag k="ssr:stedsnr" v="961128" />
	</node>
	<node id="-364443" lat="61.9089805589" lon="8.14495833439">
		<tag k="name" v="Moheim" />
		<tag k="place" v="farm" />
		<tag k="ssr:stedsnr" v="961079" />
	</node>
	<node id="-364441" lat="61.9054861107" lon="8.0398500037">
		<tag k="name" v="Nedre Brumillom" />
		<tag k="place" v="farm" />
		<tag k="ssr:stedsnr" v="960417" />
	</node>
	<node id="-364434" lat="61.8917214835" lon="8.25531803458">
		<tag k="alt_name" v="Skamsar, oppistugu" />
		<tag k="name" v="Uppistun Skamsar" />
		<tag k="place" v="farm" />
		<tag k="ssr:stedsnr" v="860894" />
	</node>
	<node id="-364433" lat="61.8943138926" lon="8.36180555431">
		<tag k="alt_name" v="Bliken" />
		<tag k="name" v="Søre Blikka" />
		<tag k="place" v="farm" />
		<tag k="ssr:stedsnr" v="860883" />
	</node>
	<node id="-364431" lat="61.8835277797" lon="8.24558611488">
		<tag k="alt_name" v="Teigom, nordre" />
		<tag k="name" v="Nørdre Teigom" />
		<tag k="place" v="farm" />
		<tag k="ssr:stedsnr" v="860880" />
	</node>
	<node id="-364430" lat="61.8799055591" lon="8.29111389121">
		<tag k="name" v="Lundamoen" />
		<tag k="place" v="farm" />
		<tag k="ssr:stedsnr" v="860876" />
	</node>
	<node id="-364429" lat="61.8826583342" lon="8.28437222455">
		<tag k="alt_name" v="Forberget" />
		<tag k="name" v="Nurdgard Forberg" />
		<tag k="place" v="farm" />
		<tag k="ssr:stedsnr" v="860874" />
	</node>
	<node id="-364424" lat="61.9032362515" lon="8.1382074754">
		<tag k="fixme" v="multiple name tags, choose one and add the other to alt_name" />
		<tag k="name" v="Nyhus;Plassen" />
		<tag k="place" v="farm" />
		<tag k="ssr:stedsnr" v="860850" />
	</node>
	<node id="-364423" lat="61.8985055591" lon="8.20130833469">
		<tag k="loc_name" v="Eiesar" />
		<tag k="name" v="Eisar" />
		<tag k="place" v="farm" />
		<tag k="ssr:stedsnr" v="860847" />
	</node>
	<node id="-364421" lat="61.8955720228" lon="8.21107435921">
		<tag k="fixme" v="consider place=hamlet" />
		<tag k="name" v="Flekkøy" />
		<tag k="place" v="farm" />
		<tag k="ssr:stedsnr" v="860838" />
	</node>
	<node id="-364417" lat="62.1240416633" lon="7.84887777267">
		<tag k="fixme" v="consider tourism=alpine_hut or tourism=chalet" />
		<tag k="name" v="Torsbu" />
		<tag k="old_name" v="Torsbui;Torbue" />
		<tag k="ssr:stedsnr" v="860234" />
		<tag k="tourism" v="wilderness_hut" />
	</node>
	<node id="-364416" lat="61.8834055588" lon="8.36847777776">
		<tag k="alt_name" v="Tråstad, øvre" />
		<tag k="name" v="Øvre Tråstad" />
		<tag k="place" v="farm" />
		<tag k="ssr:stedsnr" v="859827" />
	</node>
	<node id="-364404" lat="61.8864222219" lon="8.36041388138">
		<tag k="name" v="Nurdgard Grimstad" />
		<tag k="place" v="farm" />
		<tag k="ssr:stedsnr" v="840707" />
	</node>
	<node id="-364398" lat="61.8766138932" lon="8.3704222219">
		<tag k="name" v="Nigard Skjåk" />
		<tag k="place" v="farm" />
		<tag k="ssr:stedsnr" v="840144" />
	</node>
	<node id="-364397" lat="61.8988194436" lon="8.23744722015">
		<tag k="name" v="Nedre Jevnheim" />
		<tag k="place" v="farm" />
		<tag k="ssr:stedsnr" v="840029" />
	</node>
	<node id="-364396" lat="61.9860083363" lon="7.88460554971">
		<tag k="name" v="Grotlikvee" />
		<tag k="place" v="locality" />
		<tag k="ssr:stedsnr" v="839846" />
	</node>
	<node id="-364395" lat="61.8712872677" lon="8.50204570301">
		<tag k="fixme" v="consider place=hamlet" />
		<tag k="name" v="Nørdre Bakken" />
		<tag k="old_name" v="Nedre Bakken" />
		<tag k="place" v="farm" />
		<tag k="ssr:stedsnr" v="839781" />
	</node>
	<node id="-364394" lat="61.8838027777" lon="8.4333861201">
		<tag k="name" v="Nedre Hove" />
		<tag k="place" v="farm" />
		<tag k="ssr:stedsnr" v="839637" />
	</node>
	<node id="-364393" lat="61.8824388906" lon="8.39036110535">
		<tag k="amenity" v="school" />
		<tag k="name" v="Marlo skule" />
		<tag k="ssr:stedsnr" v="839528" />
	</node>
	<node id="-364390" lat="61.9142000024" lon="8.06907778225">
		<tag k="name" v="Øvreøvre Åmot" />
		<tag k="place" v="farm" />
		<tag k="ssr:stedsnr" v="839417" />
	</node>
	<node id="-364388" lat="61.9158527774" lon="8.07056388149">
		<tag k="name" v="Nedre Åmot" />
		<tag k="place" v="farm" />
		<tag k="ssr:stedsnr" v="839473" />
	</node>
	<node id="-364381" lat="62.0024277755" lon="7.63780833167">
		<tag k="name" v="Morådalslægret" />
		<tag k="place" v="locality" />
		<tag k="ssr:stedsnr" v="800128" />
	</node>
	<node id="-364376" lat="61.901755558" lon="8.07718055002">
		<tag k="alt_name" v="Heggjeruste" />
		<tag k="name" v="Heggerusti" />
		<tag k="place" v="farm" />
		<tag k="ssr:stedsnr" v="799737" />
	</node>
	<node id="-364373" lat="61.8875167439" lon="8.34181779969">
		<tag k="fixme" v="consider place=hamlet" />
		<tag k="name" v="Lykkja" />
		<tag k="place" v="farm" />
		<tag k="ssr:stedsnr" v="799900" />
	</node>
	<node id="-364372" lat="61.8855328272" lon="8.31153440417">
		<tag k="fixme" v="consider place=hamlet" />
		<tag k="name" v="Hole" />
		<tag k="place" v="farm" />
		<tag k="ssr:stedsnr" v="799877" />
	</node>
	<node id="-364370" lat="61.9015361099" lon="8.13697221909">
		<tag k="alt_name" v="Plasskvee" />
		<tag k="name" v="Plasskvei" />
		<tag k="place" v="farm" />
		<tag k="ssr:stedsnr" v="799851" />
	</node>
	<node id="-364369" lat="61.9029888861" lon="8.16816110834">
		<tag k="alt_name" v="Åbue" />
		<tag k="name" v="Åbui" />
		<tag k="place" v="farm" />
		<tag k="ssr:stedsnr" v="799845" />
	</node>
	<node id="-364368" lat="61.9012333331" lon="8.19681111199">
		<tag k="name" v="Furulund" />
		<tag k="place" v="farm" />
		<tag k="ssr:stedsnr" v="799843" />
	</node>
	<node id="-364365" lat="61.8747347149" lon="8.40881478037">
		<tag k="alt_name" v="Skriu" />
		<tag k="fixme" v="consider place=hamlet" />
		<tag k="name" v="Skridu" />
		<tag k="place" v="farm" />
		<tag k="ssr:stedsnr" v="799832" />
	</node>
	<node id="-364359" lat="61.9156194468" lon="8.35083333321">
		<tag k="name" v="Bakkeåsen" />
		<tag k="place" v="locality" />
		<tag k="ssr:stedsnr" v="799716" />
	</node>
	<node id="-364356" lat="62.012569442" lon="7.75990833369">
		<tag k="historic" v="shieling" />
		<tag k="name" v="Stuttgongen" />
		<tag k="place" v="locality" />
		<tag k="ssr:stedsnr" v="799244" />
	</node>
	<node id="-364354" lat="61.8860292713" lon="8.33438225745">
		<tag k="alt_name" v="Auale" />
		<tag k="fixme" v="consider place=hamlet" />
		<tag k="name" v="Aualed" />
		<tag k="place" v="farm" />
		<tag k="ssr:stedsnr" v="798813" />
	</node>
	<node id="-364351" lat="61.8730138877" lon="8.44680833165">
		<tag k="name" v="Sygard Gjeilo" />
		<tag k="place" v="farm" />
		<tag k="ssr:stedsnr" v="779943" />
	</node>
	<node id="-364349" lat="61.889837721" lon="8.36367699145">
		<tag k="alt_name" v="Guldbakke" />
		<tag k="fixme" v="consider place=hamlet" />
		<tag k="name" v="Gullbakke" />
		<tag k="place" v="farm" />
		<tag k="ssr:stedsnr" v="779720" />
	</node>
	<node id="-364348" lat="61.8807722242" lon="8.29283888424">
		<tag k="building" v="industrial" />
		<tag k="industrial" v="factory" />
		<tag k="name" v="Skjåk sementstøperi" />
		<tag k="ssr:stedsnr" v="779716" />
	</node>
	<node id="-364347" lat="61.8843136673" lon="8.45182023711">
		<tag k="fixme" v="consider place=hamlet" />
		<tag k="name" v="Kolstad" />
		<tag k="place" v="farm" />
		<tag k="ssr:stedsnr" v="779611" />
	</node>
	<node id="-364344" lat="61.8849305533" lon="8.37788889603">
		<tag k="name" v="Nørdre Brandsar" />
		<tag k="place" v="farm" />
		<tag k="ssr:stedsnr" v="779559" />
	</node>
	<node id="-364340" lat="61.8939888871" lon="8.24954722368">
		<tag k="name" v="Nedre Bruheim" />
		<tag k="place" v="farm" />
		<tag k="ssr:stedsnr" v="779030" />
	</node>
	<node id="-364336" lat="62.0135111117" lon="7.63036944463">
		<tag k="name" v="Grotli" />
		<tag k="place" v="hamlet" />
		<tag k="ssr:stedsnr" v="758201" />
	</node>
	<node id="-364326" lat="61.8926873174" lon="8.25401333775">
		<tag k="alt_name" v="Skamsar" />
		<tag k="name" v="Nistun Skamsar" />
		<tag k="place" v="farm" />
		<tag k="ssr:stedsnr" v="738898" />
	</node>
	<node id="-364324" lat="61.8912972204" lon="8.36257778076">
		<tag k="alt_name" v="Bakke, s;Bakke, søre;Bakke" />
		<tag k="name" v="Søre Bakke" />
		<tag k="place" v="farm" />
		<tag k="ssr:stedsnr" v="738888" />
	</node>
	<node id="-364320" lat="61.9042777813" lon="8.1768083312">
		<tag k="name" v="Barlund" />
		<tag k="place" v="farm" />
		<tag k="ssr:stedsnr" v="738846" />
	</node>
	<node id="-364319" lat="61.9001282662" lon="8.18221347257">
		<tag k="fixme" v="consider place=hamlet" />
		<tag k="name" v="Lindsheim" />
		<tag k="old_name" v="Linshein" />
		<tag k="place" v="farm" />
		<tag k="ssr:stedsnr" v="738844" />
	</node>
	<node id="-364318" lat="61.8959986031" lon="8.24944059616">
		<tag k="alt_name" v="Hågåyn" />
		<tag k="fixme" v="consider place=hamlet" />
		<tag k="name" v="Hågå" />
		<tag k="place" v="farm" />
		<tag k="ssr:stedsnr" v="738839" />
	</node>
	<node id="-364316" lat="61.8840388869" lon="8.42346110953">
		<tag k="alt_name" v="Vangsbakkjen" />
		<tag k="name" v="Vangsbakken" />
		<tag k="place" v="farm" />
		<tag k="ssr:stedsnr" v="738795" />
	</node>
	<node id="-364315" lat="61.8828944449" lon="8.40216665856">
		<tag k="alt_name" v="Hjeltar, nedre" />
		<tag k="name" v="Nedre Hjeltar" />
		<tag k="place" v="farm" />
		<tag k="ssr:stedsnr" v="738790" />
	</node>
	<node id="-364313" lat="61.8738333364" lon="8.26404166909">
		<tag k="name" v="Strikvilte" />
		<tag k="place" v="farm" />
		<tag k="ssr:stedsnr" v="738766" />
	</node>
	<node id="-364307" lat="61.8875694465" lon="7.80073055338">
		<tag k="alt_name" v="Dyringje" />
		<tag k="name" v="Dyringen" />
		<tag k="place" v="farm" />
		<tag k="ssr:stedsnr" v="738718" />
	</node>
	<node id="-364306" lat="61.9190888917" lon="8.12356111444">
		<tag k="name" v="Myrom" />
		<tag k="place" v="farm" />
		<tag k="ssr:stedsnr" v="738690" />
	</node>
	<node id="-364292" lat="61.9057888896" lon="7.85892777615">
		<tag k="name" v="Åsheim" />
		<tag k="place" v="farm" />
		<tag k="ssr:stedsnr" v="738540" />
	</node>
	<node id="-364268" lat="61.8909627385" lon="8.25825833828">
		<tag k="fixme" v="consider place=hamlet" />
		<tag k="name" v="Skei" />
		<tag k="place" v="farm" />
		<tag k="ssr:stedsnr" v="617872" />
	</node>
	<node id="-364267" lat="61.8883500039" lon="8.36923610805">
		<tag k="name" v="Søre Hosar" />
		<tag k="place" v="farm" />
		<tag k="ssr:stedsnr" v="617866" />
	</node>
	<node id="-364261" lat="62.0145666669" lon="7.77533889432">
		<tag k="alt_name" v="Nysætri" />
		<tag k="name" v="Nysætre" />
		<tag k="place" v="hamlet" />
		<tag k="ssr:stedsnr" v="617271" />
	</node>
	<node id="-364257" lat="61.884414616" lon="8.34067797842">
		<tag k="name" v="Nedre Sperstadøygarden" />
		<tag k="place" v="farm" />
		<tag k="ssr:stedsnr" v="616864" />
	</node>
	<node id="-364256" lat="61.9100138898" lon="8.16200834092">
		<tag k="name" v="Rusti" />
		<tag k="place" v="farm" />
		<tag k="ssr:stedsnr" v="616856" />
	</node>
	<node id="-364255" lat="61.9078873776" lon="8.16710853462">
		<tag k="fixme" v="consider place=hamlet" />
		<tag k="name" v="Langleitshaugen" />
		<tag k="place" v="farm" />
		<tag k="ssr:stedsnr" v="616855" />
	</node>
	<node id="-364254" lat="61.9023833309" lon="8.20943610203">
		<tag k="alt_name" v="Lykre, s;Lykre, søre" />
		<tag k="name" v="Søre Lykre" />
		<tag k="place" v="farm" />
		<tag k="ssr:stedsnr" v="616854" />
	</node>
	<node id="-364249" lat="61.8536416673" lon="7.99530834248">
		<tag k="alt_name" v="Tundradalssætri" />
		<tag k="historic" v="shieling" />
		<tag k="name" v="Tundradalsætre" />
		<tag k="old_name" v="Tundradalssætre" />
		<tag k="place" v="locality" />
		<tag k="ssr:stedsnr" v="616731" />
	</node>
	<node id="-364247" lat="61.8886999968" lon="8.01939444002">
		<tag k="alt_name" v="Brumillomsætre" />
		<tag k="historic" v="shieling" />
		<tag k="name" v="Brumillomsætrin" />
		<tag k="place" v="locality" />
		<tag k="ssr:stedsnr" v="616715" />
	</node>
	<node id="-364245" lat="61.9084500017" lon="8.06600000442">
		<tag k="alt_name" v="Tundrali" />
		<tag k="name" v="Tundralii" />
		<tag k="place" v="farm" />
		<tag k="ssr:stedsnr" v="616695" />
	</node>
	<node id="-364244" lat="61.9111138924" lon="7.90088889753">
		<tag k="alt_name" v="Lillerust" />
		<tag k="name" v="Veslrusti" />
		<tag k="place" v="farm" />
		<tag k="ssr:stedsnr" v="616692" />
	</node>
	<node id="-364243" lat="61.9055555593" lon="7.93782222529">
		<tag k="name" v="Sygardssætri" />
		<tag k="place" v="farm" />
		<tag k="ssr:stedsnr" v="616686" />
	</node>
	<node id="-364242" lat="61.9190444487" lon="8.10564722319">
		<tag k="alt_name" v="Faillingje;Follingen" />
		<tag k="name" v="Fallingen" />
		<tag k="place" v="farm" />
		<tag k="ssr:stedsnr" v="616665" />
	</node>
	<node id="-364240" lat="61.9009388866" lon="8.23450277386">
		<tag k="name" v="Nordstugu Kittilstad" />
		<tag k="place" v="farm" />
		<tag k="ssr:stedsnr" v="616839" />
	</node>
	<node id="-364239" lat="61.8842557989" lon="8.42102343126">
		<tag k="alt_name" v="Vange, søre" />
		<tag k="name" v="Systun Vange" />
		<tag k="place" v="farm" />
		<tag k="ssr:stedsnr" v="616791" />
	</node>
	<node id="-364238" lat="61.8839043939" lon="8.43023443975">
		<tag k="name" v="Hove" />
		<tag k="place" v="hamlet" />
		<tag k="ssr:stedsnr" v="616789" />
	</node>
	<node id="-364237" lat="61.8846819049" lon="8.40508878301">
		<tag k="alt_name" v="Hjeltar, øvre" />
		<tag k="name" v="Øvre Hjeltar" />
		<tag k="place" v="farm" />
		<tag k="ssr:stedsnr" v="616780" />
	</node>
	<node id="-364236" lat="61.9124757116" lon="7.94733728817">
		<tag k="name" v="Frilund" />
		<tag k="place" v="farm" />
		<tag k="ssr:stedsnr" v="616533" />
	</node>
	<node id="-364229" lat="61.7474249983" lon="7.97035278275">
		<tag k="name" v="Grisbui" />
		<tag k="place" v="locality" />
		<tag k="ssr:stedsnr" v="616384" />
	</node>
	<node id="-364225" lat="61.883058329" lon="8.32286944422">
		<tag k="name" v="Skjoret" />
		<tag k="place" v="isolated_dwelling" />
		<tag k="ssr:stedsnr" v="597751" />
	</node>
	<node id="-364223" lat="61.8799916668" lon="8.32493056044">
		<tag k="name" v="Smedsmoen" />
		<tag k="place" v="isolated_dwelling" />
		<tag k="ssr:stedsnr" v="597725" />
	</node>
	<node id="-364215" lat="61.8655416631" lon="8.3016833311">
		<tag k="name" v="Nørdre Ytre" />
		<tag k="place" v="farm" />
		<tag k="ssr:stedsnr" v="597139" />
	</node>
	<node id="-364212" lat="61.867036111" lon="8.46737500125">
		<tag k="name" v="Ner-Hole" />
		<tag k="place" v="isolated_dwelling" />
		<tag k="ssr:stedsnr" v="596952" />
	</node>
	<node id="-364211" lat="61.864688352" lon="8.47624540744">
		<tag k="name" v="Nørdre Risheim" />
		<tag k="place" v="farm" />
		<tag k="ssr:stedsnr" v="596949" />
	</node>
	<node id="-364209" lat="61.9089777773" lon="7.8741333279">
		<tag k="name" v="Søre Mork" />
		<tag k="place" v="farm" />
		<tag k="ssr:stedsnr" v="596339" />
	</node>
	<node id="-364199" lat="61.8456106796" lon="7.75677124858">
		<tag k="fixme" v="multiple name tags, choose one and add the other to alt_name" />
		<tag k="historic" v="shieling" />
		<tag k="name" v="Baksidebrennsætri;Brennsætre" />
		<tag k="place" v="locality" />
		<tag k="ssr:stedsnr" v="556745" />
	</node>
	<node id="-364188" lat="61.8838944436" lon="8.45458610731">
		<tag k="alt_name" v="Velt-Kolstad" />
		<tag k="name" v="Kolstad" />
		<tag k="place" v="farm" />
		<tag k="ssr:stedsnr" v="555741" />
	</node>
	<node id="-364187" lat="61.8844777771" lon="8.37103055111">
		<tag k="fixme" v="consider place=hamlet" />
		<tag k="name" v="Reppen" />
		<tag k="place" v="village" />
		<tag k="ssr:stedsnr" v="555830" />
	</node>
	<node id="-364186" lat="61.9049527807" lon="8.19753889769">
		<tag k="name" v="Skogset" />
		<tag k="place" v="farm" />
		<tag k="ssr:stedsnr" v="555816" />
	</node>
	<node id="-364184" lat="61.9498444445" lon="8.1302083349">
		<tag k="name" v="Mehankbui" />
		<tag k="place" v="locality" />
		<tag k="ssr:stedsnr" v="555631" />
	</node>
	<node id="-364178" lat="61.912830556" lon="7.98000832776">
		<tag k="name" v="Brennskogen" />
		<tag k="place" v="farm" />
		<tag k="ssr:stedsnr" v="555491" />
	</node>
	<node id="-364163" lat="61.8858910126" lon="8.26852456712">
		<tag k="fixme" v="consider place=hamlet" />
		<tag k="name" v="Berger" />
		<tag k="place" v="farm" />
		<tag k="ssr:stedsnr" v="536740" />
	</node>
	<node id="-364162" lat="61.8864305578" lon="8.31654999898">
		<tag k="name" v="Nurdstun Holemork" />
		<tag k="place" v="farm" />
		<tag k="ssr:stedsnr" v="536732" />
	</node>
	<node id="-364161" lat="61.8793972236" lon="8.34124166216">
		<tag k="name" v="Flaten" />
		<tag k="place" v="isolated_dwelling" />
		<tag k="ssr:stedsnr" v="536727" />
	</node>
	<node id="-364159" lat="61.8774548062" lon="8.46616447414">
		<tag k="fixme" v="consider place=hamlet" />
		<tag k="name" v="Øygarden" />
		<tag k="place" v="farm" />
		<tag k="ssr:stedsnr" v="536795" />
	</node>
	<node id="-364155" lat="61.8756000037" lon="8.37948888409">
		<tag k="name" v="Uppigard Dagsgard" />
		<tag k="place" v="farm" />
		<tag k="ssr:stedsnr" v="536144" />
	</node>
	<node id="-364154" lat="61.8781861115" lon="8.32421110754">
		<tag k="name" v="Brennhaugen" />
		<tag k="place" v="farm" />
		<tag k="ssr:stedsnr" v="536142" />
	</node>
	<node id="-364153" lat="61.8730055589" lon="8.2761361117">
		<tag k="name" v="Randen" />
		<tag k="place" v="farm" />
		<tag k="ssr:stedsnr" v="536136" />
	</node>
	<node id="-364152" lat="61.9015583322" lon="8.20829167042">
		<tag k="building" v="industrial" />
		<tag k="name" v="Lykre sag" />
		<tag k="ssr:stedsnr" v="536095" />
	</node>
	<node id="-364151" lat="61.8840777752" lon="8.44656111925">
		<tag k="name" v="Øvre Bøje" />
		<tag k="place" v="farm" />
		<tag k="ssr:stedsnr" v="536595" />
	</node>
	<node id="-364150" lat="61.915886114" lon="8.02600833613">
		<tag k="name" v="Uppnose" />
		<tag k="place" v="locality" />
		<tag k="ssr:stedsnr" v="535470" />
	</node>
	<node id="-364145" lat="61.8704305598" lon="8.45098055103">
		<tag k="name" v="Geilostrondi" />
		<tag k="place" v="hamlet" />
		<tag k="ssr:stedsnr" v="436797" />
	</node>
	<node id="-364144" lat="61.8662055545" lon="8.3039555461">
		<tag k="name" v="Ytre" />
		<tag k="place" v="farm" />
		<tag k="ssr:stedsnr" v="436782" />
	</node>
	<node id="-364141" lat="61.7825000026" lon="8.1143888972">
		<tag k="name" v="Sauhytta" />
		<tag k="place" v="isolated_dwelling" />
		<tag k="ssr:stedsnr" v="435968" />
	</node>
	<node id="-364140" lat="61.885864312" lon="8.32959777438">
		<tag k="alt_name" v="Skjelkvåle" />
		<tag k="fixme" v="consider place=hamlet" />
		<tag k="name" v="Skjellkvåle" />
		<tag k="place" v="farm" />
		<tag k="ssr:stedsnr" v="435891" />
	</node>
	<node id="-364139" lat="61.8788388886" lon="8.3030138968">
		<tag k="name" v="Nordbu" />
		<tag k="place" v="farm" />
		<tag k="ssr:stedsnr" v="435877" />
	</node>
	<node id="-364138" lat="61.8698444416" lon="8.311002772">
		<tag k="alt_name" v="Godtland" />
		<tag k="name" v="Gotland" />
		<tag k="place" v="farm" />
		<tag k="ssr:stedsnr" v="435781" />
	</node>
	<node id="-364137" lat="61.8753666638" lon="8.28939444669">
		<tag k="alt_name" v="Lund" />
		<tag k="name" v="Nigard-Lund" />
		<tag k="place" v="farm" />
		<tag k="ssr:stedsnr" v="435775" />
	</node>
	<node id="-364136" lat="61.8771249979" lon="8.33900000325">
		<tag k="alt_name" v="Vigstadmoen" />
		<tag k="name" v="Moen" />
		<tag k="place" v="farm" />
		<tag k="ssr:stedsnr" v="435770" />
	</node>
	<node id="-364135" lat="61.8741249981" lon="8.31685833724">
		<tag k="name" v="Myri" />
		<tag k="place" v="farm" />
		<tag k="ssr:stedsnr" v="435765" />
	</node>
	<node id="-364131" lat="61.9993944416" lon="8.13809444647">
		<tag k="name" v="Sveinbui" />
		<tag k="place" v="isolated_dwelling" />
		<tag k="ssr:stedsnr" v="435671" />
	</node>
	<node id="-364126" lat="61.9075944426" lon="8.17302222233">
		<tag k="alt_name" v="Langleite" />
		<tag k="name" v="Megarden Langleitet" />
		<tag k="place" v="farm" />
		<tag k="ssr:stedsnr" v="435863" />
	</node>
	<node id="-364121" lat="61.944869096" lon="8.00008442119">
		<tag k="alt_name" v="Heggebotn" />
		<tag k="fixme" v="consider place=hamlet" />
		<tag k="name" v="Heggjebotn" />
		<tag k="place" v="farm" />
		<tag k="ssr:stedsnr" v="435565" />
	</node>
	<node id="-364117" lat="61.9569749958" lon="7.90313056516">
		<tag k="alt_name" v="Poyllmoen" />
		<tag k="name" v="Pollmoen" />
		<tag k="place" v="farm" />
		<tag k="ssr:stedsnr" v="435542" />
	</node>
	<node id="-364114" lat="61.803294447" lon="7.61628332876">
		<tag k="historic" v="shieling" />
		<tag k="name" v="Mysubytta" />
		<tag k="place" v="locality" />
		<tag k="ssr:stedsnr" v="435649" />
	</node>
	<node id="-364108" lat="62.0139111123" lon="7.63231389478">
		<tag k="name" v="Grotli hotell" />
		<tag k="ssr:stedsnr" v="435173" />
		<tag k="tourism" v="hotel" />
	</node>
	<node id="-364097" lat="61.8674611117" lon="8.45986943804">
		<tag k="name" v="Øver-Hole" />
		<tag k="place" v="isolated_dwelling" />
		<tag k="ssr:stedsnr" v="415955" />
	</node>
	<node id="-364096" lat="61.8690370019" lon="8.41147777524">
		<tag k="alt_name" v="Krokatrædet" />
		<tag k="historic" v="shieling" />
		<tag k="name" v="Krokatræede" />
		<tag k="place" v="locality" />
		<tag k="ssr:stedsnr" v="415953" />
	</node>
	<node id="-364095" lat="62.0140027763" lon="7.80843056118">
		<tag k="name" v="Eldhusgrende" />
		<tag k="place" v="hamlet" />
		<tag k="ssr:stedsnr" v="415889" />
	</node>
	<node id="-364094" lat="61.8858527802" lon="8.31040833242">
		<tag k="name" v="Nurdstun Hole" />
		<tag k="place" v="farm" />
		<tag k="ssr:stedsnr" v="415771" />
	</node>
	<node id="-364093" lat="61.8854138848" lon="8.31326389501">
		<tag k="name" v="Systun Hole" />
		<tag k="place" v="farm" />
		<tag k="ssr:stedsnr" v="415770" />
	</node>
	<node id="-364092" lat="61.8917416703" lon="8.36533610874">
		<tag k="name" v="Ramen" />
		<tag k="place" v="locality" />
		<tag k="ssr:stedsnr" v="415762" />
	</node>
	<node id="-364091" lat="61.8822083377" lon="8.32558888446">
		<tag k="name" v="Huse" />
		<tag k="place" v="isolated_dwelling" />
		<tag k="ssr:stedsnr" v="415760" />
	</node>
	<node id="-364090" lat="61.8829916703" lon="8.44566666917">
		<tag k="name" v="Nurdstun Bøje" />
		<tag k="place" v="farm" />
		<tag k="ssr:stedsnr" v="415675" />
	</node>
	<node id="-364088" lat="61.9120555551" lon="7.93484444258">
		<tag k="name" v="Nørdre Gjerdede" />
		<tag k="place" v="locality" />
		<tag k="ssr:stedsnr" v="415304" />
	</node>
	<node id="-364087" lat="61.8664472218" lon="8.30348610863">
		<tag k="name" v="Søre Ytre" />
		<tag k="place" v="farm" />
		<tag k="ssr:stedsnr" v="415137" />
	</node>
	<node id="-364086" lat="61.8756222206" lon="8.32474723176">
		<tag k="name" v="Systun Dalen" />
		<tag k="place" v="farm" />
		<tag k="ssr:stedsnr" v="415130" />
	</node>
	<node id="-364084" lat="61.9027972209" lon="8.16637222817">
		<tag k="name" v="Slette" />
		<tag k="place" v="farm" />
		<tag k="ssr:stedsnr" v="415066" />
	</node>
	<node id="-364083" lat="61.8964555538" lon="8.21008889177">
		<tag k="name" v="Nigard Flækøy" />
		<tag k="place" v="farm" />
		<tag k="ssr:stedsnr" v="415042" />
	</node>
	<node id="-364081" lat="62.0016472242" lon="7.87701665884">
		<tag k="name" v="Einstulen" />
		<tag k="place" v="locality" />
		<tag k="ssr:stedsnr" v="414856" />
	</node>
	<node id="-364077" lat="61.9116722213" lon="8.11241666517">
		<tag k="name" v="Furuly" />
		<tag k="place" v="farm" />
		<tag k="ssr:stedsnr" v="414422" />
	</node>
	<node id="-364075" lat="61.8093194417" lon="7.71465832996">
		<tag k="historic" v="shieling" />
		<tag k="name" v="Sota" />
		<tag k="place" v="locality" />
		<tag k="ssr:stedsnr" v="414333" />
	</node>
	<node id="-364061" lat="61.8251611108" lon="7.71998610896">
		<tag k="historic" v="shieling" />
		<tag k="name" v="Langsæterstulen" />
		<tag k="place" v="locality" />
		<tag k="ssr:stedsnr" v="374741" />
	</node>
	<node id="-364059" lat="61.9102761812" lon="7.9343577724">
		<tag k="name" v="Sygard" />
		<tag k="old_name" v="Syvgard" />
		<tag k="place" v="farm" />
		<tag k="ssr:stedsnr" v="374685" />
	</node>
	<node id="-364058" lat="61.8863279934" lon="8.35895576996">
		<tag k="fixme" v="consider place=hamlet" />
		<tag k="name" v="Grimstad" />
		<tag k="place" v="farm" />
		<tag k="ssr:stedsnr" v="374884" />
	</node>
	<node id="-364057" lat="61.8552361073" lon="8.4443499908">
		<tag k="name" v="Sandåhytta" />
		<tag k="place" v="isolated_dwelling" />
		<tag k="ssr:stedsnr" v="374800" />
	</node>
	<node id="-364050" lat="62.0209758955" lon="7.44520155916">
		<tag k="fixme" v="consider tourism=alpine_hut or tourism=chalet" />
		<tag k="name" v="Lægerhytta" />
		<tag k="ssr:stedsnr" v="374168" />
		<tag k="tourism" v="wilderness_hut" />
	</node>
	<node id="-364049" lat="61.9030805575" lon="8.14236110825">
		<tag k="alt_name" v="Åbui, øvre" />
		<tag k="name" v="Øvre Åbue" />
		<tag k="place" v="farm" />
		<tag k="ssr:stedsnr" v="373841" />
	</node>
	<node id="-364047" lat="61.9086888903" lon="8.11463056136">
		<tag k="name" v="Lier" />
		<tag k="place" v="farm" />
		<tag k="ssr:stedsnr" v="373701" />
	</node>
	<node id="-364046" lat="61.920750001" lon="8.11559444569">
		<tag k="loc_name" v="Gjøingslie" />
		<tag k="name" v="Gjøingslii" />
		<tag k="place" v="hamlet" />
		<tag k="ssr:stedsnr" v="373689" />
	</node>
	<node id="-364043" lat="61.9173277785" lon="8.10901667298">
		<tag k="name" v="Olstad" />
		<tag k="place" v="farm" />
		<tag k="ssr:stedsnr" v="373679" />
	</node>
	<node id="-364032" lat="61.8884388847" lon="8.36647777403">
		<tag k="name" v="Nørdre Hosar" />
		<tag k="place" v="farm" />
		<tag k="ssr:stedsnr" v="354716" />
	</node>
	<node id="-364031" lat="61.8858944421" lon="8.45188888576">
		<tag k="name" v="Steinstugu" />
		<tag k="place" v="farm" />
		<tag k="ssr:stedsnr" v="354628" />
	</node>
	<node id="-364028" lat="61.9130750026" lon="7.95374444639">
		<tag k="name" v="Stulen" />
		<tag k="place" v="farm" />
		<tag k="ssr:stedsnr" v="354305" />
	</node>
	<node id="-364026" lat="61.8762472205" lon="8.38247221933">
		<tag k="name" v="Nurdstun Ånstad" />
		<tag k="place" v="farm" />
		<tag k="ssr:stedsnr" v="354157" />
	</node>
	<node id="-364024" lat="61.9054222199" lon="8.19196389629">
		<tag k="name" v="Hull" />
		<tag k="place" v="locality" />
		<tag k="ssr:stedsnr" v="354092" />
	</node>
	<node id="-364023" lat="61.9058000006" lon="8.14799167498">
		<tag k="name" v="Teigen" />
		<tag k="place" v="farm" />
		<tag k="ssr:stedsnr" v="354088" />
	</node>
	<node id="-364022" lat="61.9104388871" lon="8.16367222213">
		<tag k="name" v="Ruste" />
		<tag k="place" v="isolated_dwelling" />
		<tag k="ssr:stedsnr" v="354083" />
	</node>
	<node id="-364020" lat="61.8837000026" lon="8.26275277643">
		<tag k="amenity" v="school" />
		<tag k="name" v="Skjåk ungdomsskole" />
		<tag k="ssr:stedsnr" v="354016" />
	</node>
	<node id="-364016" lat="62.1013916689" lon="7.98418610665">
		<tag k="name" v="Dørkamphytta" />
		<tag k="place" v="isolated_dwelling" />
		<tag k="ssr:stedsnr" v="330566" />
	</node>
	<node id="-364009" lat="61.8855112089" lon="8.374731807">
		<tag k="alt_name" v="Kummen" />
		<tag k="fixme" v="consider place=hamlet" />
		<tag k="name" v="Kumma" />
		<tag k="place" v="farm" />
		<tag k="ssr:stedsnr" v="313886" />
	</node>
	<node id="-364006" lat="61.9026027756" lon="8.23288332814">
		<tag k="name" v="Husom" />
		<tag k="place" v="farm" />
		<tag k="ssr:stedsnr" v="313846" />
	</node>
	<node id="-364005" lat="61.8863166683" lon="8.3950722271">
		<tag k="name" v="Marlostrædet" />
		<tag k="place" v="farm" />
		<tag k="ssr:stedsnr" v="313883" />
	</node>
	<node id="-364004" lat="61.8816361074" lon="8.46325554979">
		<tag k="alt_name" v="Kjekahågåyn" />
		<tag k="name" v="Hågå" />
		<tag k="place" v="farm" />
		<tag k="ssr:stedsnr" v="313782" />
	</node>
	<node id="-364003" lat="61.9082166702" lon="8.09022223071">
		<tag k="name" v="Nyland" />
		<tag k="place" v="farm" />
		<tag k="ssr:stedsnr" v="313701" />
	</node>
	<node id="-364002" lat="61.903175003" lon="7.86858333776">
		<tag k="name" v="Haugen" />
		<tag k="place" v="farm" />
		<tag k="ssr:stedsnr" v="313694" />
	</node>
	<node id="-364001" lat="61.9111478828" lon="8.00036184732">
		<tag k="alt_name" v="Søre Brenna" />
		<tag k="fixme" v="consider place=hamlet" />
		<tag k="name" v="Brenna" />
		<tag k="place" v="farm" />
		<tag k="ssr:stedsnr" v="313693" />
	</node>
	<node id="-364000" lat="61.9061138869" lon="7.94043056281">
		<tag k="name" v="Marlosøygarden" />
		<tag k="place" v="farm" />
		<tag k="ssr:stedsnr" v="313691" />
	</node>
	<node id="-363999" lat="61.9176666624" lon="8.13051945025">
		<tag k="alt_name" v="Skriu" />
		<tag k="name" v="Skridu" />
		<tag k="place" v="farm" />
		<tag k="ssr:stedsnr" v="313680" />
	</node>
	<node id="-363995" lat="61.9109611129" lon="7.89836111551">
		<tag k="alt_name" v="Nerjordete" />
		<tag k="name" v="Nerjordet" />
		<tag k="place" v="farm" />
		<tag k="ssr:stedsnr" v="313555" />
	</node>
	<node id="-363983" lat="61.8681027792" lon="8.45253611738">
		<tag k="name" v="Prestjordshaugen" />
		<tag k="place" v="farm" />
		<tag k="ssr:stedsnr" v="193787" />
	</node>
	<node id="-363978" lat="61.8843555583" lon="8.24065833585">
		<tag k="name" v="Roi" />
		<tag k="place" v="farm" />
		<tag k="ssr:stedsnr" v="192886" />
	</node>
	<node id="-363977" lat="61.8851304528" lon="8.36393573394">
		<tag k="name" v="Sperstad" />
		<tag k="place" v="hamlet" />
		<tag k="ssr:stedsnr" v="192880" />
	</node>
	<node id="-363975" lat="61.8754638883" lon="8.40068332528">
		<tag k="alt_name" v="Odden, nordre" />
		<tag k="name" v="Nørdre Odden" />
		<tag k="place" v="farm" />
		<tag k="ssr:stedsnr" v="192841" />
	</node>
	<node id="-363972" lat="61.8812972193" lon="8.47322778197">
		<tag k="alt_name" v="Skrinde, nordre;Nordre Skrinde" />
		<tag k="name" v="Nurdgard Skrinde" />
		<tag k="place" v="farm" />
		<tag k="ssr:stedsnr" v="192923" />
	</node>
	<node id="-363971" lat="61.8859249985" lon="8.44474167553">
		<tag k="name" v="Bøle" />
		<tag k="place" v="farm" />
		<tag k="ssr:stedsnr" v="192790" />
	</node>
	<node id="-363970" lat="61.8816186794" lon="8.44796722748">
		<tag k="alt_name" v="Bøye" />
		<tag k="name" v="Uppigard Bøje" />
		<tag k="place" v="farm" />
		<tag k="ssr:stedsnr" v="192789" />
	</node>
	<node id="-363969" lat="61.8741249985" lon="8.31178889205">
		<tag k="name" v="Øyom" />
		<tag k="place" v="farm" />
		<tag k="ssr:stedsnr" v="192776" />
	</node>
	<node id="-363968" lat="61.8767666639" lon="8.3358833286">
		<tag k="alt_name" v="Kjørre" />
		<tag k="name" v="Kjørri" />
		<tag k="place" v="farm" />
		<tag k="ssr:stedsnr" v="192775" />
	</node>
	<node id="-363966" lat="61.8842039511" lon="8.41340243908">
		<tag k="alt_name" v="Ramstad, s;Ramstad, søre;Søre Ramstad" />
		<tag k="name" v="Sygard Ramstad" />
		<tag k="place" v="farm" />
		<tag k="ssr:stedsnr" v="192810" />
	</node>
	<node id="-363965" lat="61.8847603837" lon="8.41639752774">
		<tag k="fixme" v="consider place=hamlet" />
		<tag k="name" v="Bustad" />
		<tag k="place" v="farm" />
		<tag k="ssr:stedsnr" v="192808" />
	</node>
	<node id="-363958" lat="61.9205212647" lon="8.06104618364">
		<tag k="fixme" v="consider place=hamlet" />
		<tag k="name" v="Øyberget" />
		<tag k="place" v="farm" />
		<tag k="ssr:stedsnr" v="192583" />
	</node>
	<node id="-363957" lat="61.9024166662" lon="7.84802777359">
		<tag k="name" v="Nordråk" />
		<tag k="place" v="farm" />
		<tag k="ssr:stedsnr" v="192573" />
	</node>
	<node id="-363955" lat="61.9671888875" lon="7.8298083417">
		<tag k="alt_name" v="Botn" />
		<tag k="name" v="Bottsætri" />
		<tag k="place" v="hamlet" />
		<tag k="ssr:stedsnr" v="192557" />
	</node>
	<node id="-363948" lat="62.0277614457" lon="7.51450471833">
		<tag k="name" v="Breidablikk" />
		<tag k="place" v="isolated_dwelling" />
		<tag k="ssr:stedsnr" v="192164" />
	</node>
	<node id="-363944" lat="61.8729740665" lon="8.4001186496">
		<tag k="alt_name" v="Bersrud;Bersu" />
		<tag k="fixme" v="consider place=hamlet" />
		<tag k="name" v="Bergsrud" />
		<tag k="old_name" v="Bersø;Berud" />
		<tag k="place" v="farm" />
		<tag k="ssr:stedsnr" v="176795" />
	</node>
	<node id="-363940" lat="61.8879694457" lon="8.35406111678">
		<tag k="name" v="Luskvee" />
		<tag k="place" v="locality" />
		<tag k="ssr:stedsnr" v="172763" />
	</node>
	<node id="-363939" lat="61.8833083356" lon="8.30412221308">
		<tag k="name" v="Sygard Forberg" />
		<tag k="place" v="farm" />
		<tag k="ssr:stedsnr" v="172762" />
	</node>
	<node id="-363938" lat="61.8786888847" lon="8.32523611503">
		<tag k="name" v="Smedsmoen" />
		<tag k="place" v="isolated_dwelling" />
		<tag k="ssr:stedsnr" v="172757" />
	</node>
	<node id="-363937" lat="61.8857222205" lon="8.33799721679">
		<tag k="name" v="Øvre Øygarden" />
		<tag k="place" v="farm" />
		<tag k="ssr:stedsnr" v="172755" />
	</node>
	<node id="-363933" lat="61.8757166641" lon="8.37532499105">
		<tag k="name" v="Søre Prestgard" />
		<tag k="place" v="farm" />
		<tag k="ssr:stedsnr" v="172130" />
	</node>
	<node id="-363932" lat="61.8755444427" lon="8.26510277092">
		<tag k="name" v="Skogli" />
		<tag k="place" v="farm" />
		<tag k="ssr:stedsnr" v="172126" />
	</node>
	<node id="-363931" lat="61.9035977702" lon="8.15100288191">
		<tag k="name" v="Dagsgardsøygarden" />
		<tag k="place" v="farm" />
		<tag k="ssr:stedsnr" v="172082" />
	</node>
	<node id="-363930" lat="61.9108833372" lon="8.16140555192">
		<tag k="name" v="Medgarden" />
		<tag k="place" v="isolated_dwelling" />
		<tag k="ssr:stedsnr" v="172076" />
	</node>
	<node id="-363929" lat="61.8954611144" lon="8.25231945233">
		<tag k="name" v="Øvre Bruheim" />
		<tag k="place" v="farm" />
		<tag k="ssr:stedsnr" v="172022" />
	</node>
	<node id="-363927" lat="61.8905749956" lon="8.24594999846">
		<tag k="name" v="Moastugu" />
		<tag k="place" v="farm" />
		<tag k="ssr:stedsnr" v="172013" />
	</node>
	<node id="-363926" lat="61.8837416671" lon="8.42819722868">
		<tag k="name" v="Øvre Hove" />
		<tag k="place" v="farm" />
		<tag k="ssr:stedsnr" v="171656" />
	</node>
	<node id="-363924" lat="61.8841861133" lon="8.41580000838">
		<tag k="name" v="Nørdre Bustad" />
		<tag k="place" v="farm" />
		<tag k="ssr:stedsnr" v="171532" />
	</node>
	<node id="-363922" lat="61.9186625179" lon="8.11496472108">
		<tag k="fixme" v="consider place=hamlet" />
		<tag k="name" v="Kveom" />
		<tag k="place" v="farm" />
		<tag k="ssr:stedsnr" v="171423" />
	</node>
	<node id="-363915" lat="61.8700472232" lon="8.45326388476">
		<tag k="alt_name" v="Kåjede" />
		<tag k="name" v="Kåjet" />
		<tag k="place" v="farm" />
		<tag k="ssr:stedsnr" v="132795" />
	</node>
	<node id="-363913" lat="61.8754928944" lon="8.28457692731">
		<tag k="fixme" v="consider place=hamlet" />
		<tag k="name" v="Lund" />
		<tag k="place" v="farm" />
		<tag k="ssr:stedsnr" v="132754" />
	</node>
	<node id="-363912" lat="61.8727888848" lon="8.31354167157">
		<tag k="alt_name" v="Breiskriu" />
		<tag k="name" v="Breidskridu" />
		<tag k="place" v="farm" />
		<tag k="ssr:stedsnr" v="132745" />
	</node>
	<node id="-363911" lat="61.8729249984" lon="8.31557500951">
		<tag k="alt_name" v="Nørdre Haugen" />
		<tag k="name" v="Haugen" />
		<tag k="place" v="farm" />
		<tag k="ssr:stedsnr" v="132742" />
	</node>
	<node id="-363908" lat="61.8840769494" lon="8.3399393427">
		<tag k="alt_name" v="Sperstadøygard" />
		<tag k="fixme" v="consider place=hamlet" />
		<tag k="name" v="Sperstadøygarden" />
		<tag k="place" v="farm" />
		<tag k="ssr:stedsnr" v="131895" />
	</node>
	<node id="-363904" lat="61.9013777788" lon="8.17094165742">
		<tag k="name" v="Austin" />
		<tag k="place" v="farm" />
		<tag k="ssr:stedsnr" v="131870" />
	</node>
	<node id="-363903" lat="61.8974060308" lon="8.19737033341">
		<tag k="alt_name" v="Prestøygarden" />
		<tag k="fixme" v="consider place=hamlet" />
		<tag k="name" v="Prestgardsøygarden" />
		<tag k="place" v="farm" />
		<tag k="ssr:stedsnr" v="131865" />
	</node>
	<node id="-363901" lat="61.9089444489" lon="8.13091666618">
		<tag k="name" v="Myrvang" />
		<tag k="place" v="farm" />
		<tag k="ssr:stedsnr" v="131697" />
	</node>
	<node id="-363897" lat="61.882627777" lon="8.39092499303">
		<tag k="name" v="Ramstadstrondi" />
		<tag k="place" v="hamlet" />
		<tag k="ssr:stedsnr" v="131795" />
	</node>
	<node id="-363888" lat="61.9101472261" lon="7.91481667033">
		<tag k="alt_name" v="Nedre Brekk" />
		<tag k="name" v="Brekk" />
		<tag k="place" v="farm" />
		<tag k="ssr:stedsnr" v="131537" />
	</node>
	<node id="-363887" lat="61.9530138856" lon="7.89214167121">
		<tag k="name" v="Glitne" />
		<tag k="place" v="farm" />
		<tag k="ssr:stedsnr" v="131500" />
	</node>
	<node id="-363880" lat="61.8827250023" lon="8.38458333056">
		<tag k="name" v="Sygard Kvåle" />
		<tag k="place" v="farm" />
		<tag k="ssr:stedsnr" v="112568" />
	</node>
	<node id="-363878" lat="61.8838361088" lon="8.37920278571">
		<tag k="name" v="Søre Brandsar" />
		<tag k="place" v="farm" />
		<tag k="ssr:stedsnr" v="112556" />
	</node>
	<node id="-363877" lat="61.8831888889" lon="8.27277221438">
		<tag k="name" v="Mogard Gjestgiveri &amp; Hytter" />
		<tag k="ssr:stedsnr" v="112745" />
		<tag k="tourism" v="hotel" />
	</node>
	<node id="-363876" lat="61.8828055557" lon="8.26794444193">
		<tag k="building" v="commercial" />
		<tag k="name" v="Skeimo" />
		<tag k="ssr:stedsnr" v="112743" />
	</node>
	<node id="-363874" lat="61.8760305529" lon="8.38344166383">
		<tag k="name" v="Nurdgard Ånstad" />
		<tag k="place" v="farm" />
		<tag k="ssr:stedsnr" v="112171" />
	</node>
	<node id="-363871" lat="61.8716472242" lon="8.44954167521">
		<tag k="name" v="Søre Gjeilo" />
		<tag k="place" v="farm" />
		<tag k="ssr:stedsnr" v="111955" />
	</node>
	<node id="-363866" lat="61.9114216586" lon="7.91411740447">
		<tag k="fixme" v="consider place=hamlet" />
		<tag k="name" v="Brekk" />
		<tag k="place" v="farm" />
		<tag k="ssr:stedsnr" v="111293" />
	</node>
	<node id="-363862" lat="61.9440750039" lon="8.00672221615">
		<tag k="alt_name" v="Søre Heiggjebotn" />
		<tag k="name" v="Søre Heggjebotn" />
		<tag k="place" v="farm" />
		<tag k="ssr:stedsnr" v="111259" />
	</node>
	<node id="-363857" lat="62.0830114276" lon="7.80682768042">
		<tag k="alt_name" v="Tverrådalshytta" />
		<tag k="fixme" v="consider tourism=alpine_hut or tourism=chalet" />
		<tag k="name" v="Tverråhytta" />
		<tag k="ssr:stedsnr" v="87509" />
		<tag k="tourism" v="wilderness_hut" />
	</node>
	<node id="-363850" lat="61.8786305545" lon="8.29511388494">
		<tag k="name" v="Solhaug" />
		<tag k="place" v="farm" />
		<tag k="ssr:stedsnr" v="71874" />
	</node>
	<node id="-363847" lat="61.8702722186" lon="8.29205278722">
		<tag k="alt_name" v="Rakstad" />
		<tag k="name" v="Rakkstad" />
		<tag k="place" v="farm" />
		<tag k="ssr:stedsnr" v="71790" />
	</node>
	<node id="-363846" lat="61.8688805588" lon="8.28899444694">
		<tag k="alt_name" v="Kolovangen" />
		<tag k="name" v="Kolvangen" />
		<tag k="place" v="farm" />
		<tag k="ssr:stedsnr" v="71787" />
	</node>
	<node id="-363843" lat="61.9044276035" lon="7.91345692438">
		<tag k="alt_name" v="Heggebakken;Heggjebakkjen" />
		<tag k="name" v="Heggjebakken" />
		<tag k="place" v="farm" />
		<tag k="ssr:stedsnr" v="71733" />
	</node>
	<node id="-363842" lat="61.9081972257" lon="7.88600000335">
		<tag k="name" v="Horten" />
		<tag k="place" v="farm" />
		<tag k="ssr:stedsnr" v="71731" />
	</node>
	<node id="-363839" lat="62.0047666694" lon="7.84333054928">
		<tag k="historic" v="shieling" />
		<tag k="name" v="Åsen" />
		<tag k="place" v="locality" />
		<tag k="ssr:stedsnr" v="71249" />
	</node>
	<node id="-363837" lat="61.8850750013" lon="8.38945000906">
		<tag k="alt_name" v="Urde" />
		<tag k="name" v="Urdi" />
		<tag k="place" v="farm" />
		<tag k="ssr:stedsnr" v="70769" />
	</node>
	<node id="-363836" lat="61.8841027791" lon="8.39752473905">
		<tag k="alt_name" v="Håndsnar" />
		<tag k="fixme" v="consider place=hamlet" />
		<tag k="name" v="Hånsnar" />
		<tag k="place" v="farm" />
		<tag k="ssr:stedsnr" v="70768" />
	</node>
	<node id="-363835" lat="61.9049305554" lon="8.20159166588">
		<tag k="alt_name" v="Lykre, nordre" />
		<tag k="name" v="Nørdre Lykre" />
		<tag k="place" v="farm" />
		<tag k="ssr:stedsnr" v="70824" />
	</node>
	<node id="-363831" lat="61.955038889" lon="7.96374443552">
		<tag k="alt_name" v="Stamsætre" />
		<tag k="historic" v="shieling" />
		<tag k="name" v="Stamsætri" />
		<tag k="place" v="locality" />
		<tag k="ssr:stedsnr" v="70497" />
	</node>
	<node id="-363826" lat="61.8869371159" lon="8.37722391601">
		<tag k="fixme" v="consider place=hamlet" />
		<tag k="name" v="Teigen" />
		<tag k="place" v="farm" />
		<tag k="ssr:stedsnr" v="51731" />
	</node>
	<node id="-363825" lat="62.0113777782" lon="7.85890833467">
		<tag k="historic" v="shieling" />
		<tag k="name" v="Nerstulen" />
		<tag k="place" v="locality" />
		<tag k="ssr:stedsnr" v="51879" />
	</node>
	<node id="-363823" lat="61.8841972236" lon="8.3816527781">
		<tag k="name" v="Nørdre Kvåle" />
		<tag k="place" v="farm" />
		<tag k="ssr:stedsnr" v="51589" />
	</node>
	<node id="-363822" lat="61.9113138864" lon="7.90457777365">
		<tag k="name" v="Teigen" />
		<tag k="place" v="isolated_dwelling" />
		<tag k="ssr:stedsnr" v="51349" />
	</node>
	<node id="-363821" lat="61.9522861088" lon="7.90166389759">
		<tag k="name" v="Guldbakkvee" />
		<tag k="place" v="isolated_dwelling" />
		<tag k="ssr:stedsnr" v="51293" />
	</node>
	<node id="-363818" lat="61.9006388873" lon="8.17395833781">
		<tag k="name" v="Nørdre Skjåkøygard" />
		<tag k="place" v="farm" />
		<tag k="ssr:stedsnr" v="51082" />
	</node>
	<node id="-363816" lat="61.9039722224" lon="8.14958333672">
		<tag k="name" v="Bøland" />
		<tag k="place" v="farm" />
		<tag k="ssr:stedsnr" v="51072" />
	</node>
	<node id="-363814" lat="61.8757527778" lon="8.37661943798">
		<tag k="name" v="Nigard Dagsgard" />
		<tag k="place" v="farm" />
		<tag k="ssr:stedsnr" v="51148" />
	</node>
	<node id="-363813" lat="61.9107938728" lon="8.15591311682">
		<tag k="fixme" v="consider place=hamlet" />
		<tag k="name" v="Rudi" />
		<tag k="place" v="farm" />
		<tag k="ssr:stedsnr" v="51068" />
	</node>
	<node id="-363810" lat="62.0135249995" lon="8.16967499165">
		<tag k="name" v="Engelskmannsbue" />
		<tag k="place" v="isolated_dwelling" />
		<tag k="ssr:stedsnr" v="27583" />
	</node>
	<node id="-363808" lat="61.8674361117" lon="8.30532499294">
		<tag k="name" v="Andersbakken" />
		<tag k="place" v="farm" />
		<tag k="ssr:stedsnr" v="11791" />
	</node>
	<node id="-363801" lat="61.8934352104" lon="8.25661181989">
		<tag k="alt_name" v="Skamsar, neristugu" />
		<tag k="name" v="Nurdgard Skamsar" />
		<tag k="place" v="farm" />
		<tag k="ssr:stedsnr" v="10885" />
	</node>
	<node id="-363800" lat="61.8923500036" lon="8.35496943619">
		<tag k="name" v="Flathaugen" />
		<tag k="place" v="farm" />
		<tag k="ssr:stedsnr" v="10882" />
	</node>
	<node id="-363799" lat="61.8869367715" lon="8.31721661914">
		<tag k="fixme" v="consider place=hamlet" />
		<tag k="name" v="Holmork" />
		<tag k="place" v="farm" />
		<tag k="ssr:stedsnr" v="10878" />
	</node>
	<node id="-363798" lat="61.8893122852" lon="8.36660613013">
		<tag k="fixme" v="consider place=hamlet" />
		<tag k="name" v="Hosar" />
		<tag k="place" v="farm" />
		<tag k="ssr:stedsnr" v="10874" />
	</node>
	<node id="-363797" lat="61.8781277823" lon="8.29913889155">
		<tag k="name" v="Barlii" />
		<tag k="place" v="farm" />
		<tag k="ssr:stedsnr" v="10861" />
	</node>
	<node id="-363795" lat="61.8839333328" lon="8.43500278454">
		<tag k="name" v="Ramen" />
		<tag k="place" v="farm" />
		<tag k="ssr:stedsnr" v="10782" />
	</node>
	<node id="-363794" lat="61.8838354122" lon="8.46082689466">
		<tag k="alt_name" v="Brujordede" />
		<tag k="fixme" v="consider place=hamlet" />
		<tag k="name" v="Brujordet" />
		<tag k="place" v="farm" />
		<tag k="ssr:stedsnr" v="10776" />
	</node>
	<node id="-363793" lat="61.8778749959" lon="8.37032777594">
		<tag k="name" v="Nigard Skjåk" />
		<tag k="place" v="farm" />
		<tag k="ssr:stedsnr" v="10761" />
	</node>
	<node id="-363789" lat="61.855200002" lon="7.74985556352">
		<tag k="alt_name" v="Brennsætre" />
		<tag k="historic" v="shieling" />
		<tag k="name" v="Brennsætri" />
		<tag k="place" v="locality" />
		<tag k="ssr:stedsnr" v="10738" />
	</node>
	<node id="-363780" lat="61.9139111081" lon="8.14210278488">
		<tag k="alt_name" v="Slette" />
		<tag k="name" v="Sletti" />
		<tag k="place" v="farm" />
		<tag k="ssr:stedsnr" v="10696" />
	</node>
	<node id="-363769" lat="61.8999475201" lon="7.84509868179">
		<tag k="fixme" v="multiple name tags, choose one and add the other to alt_name" />
		<tag k="name" v="Nørdre Tuva;Rusti" />
		<tag k="place" v="farm" />
		<tag k="ssr:stedsnr" v="10711" />
	</node>
	<node id="-363760" lat="61.9046464221" lon="8.03830689204">
		<tag k="fixme" v="consider place=hamlet" />
		<tag k="name" v="Brumillom" />
		<tag k="place" v="farm" />
		<tag k="ssr:stedsnr" v="984256" />
	</node>
	<node id="-363759" lat="61.8813373631" lon="8.24557195956">
		<tag k="fixme" v="consider place=hamlet" />
		<tag k="name" v="Teigom" />
		<tag k="place" v="farm" />
		<tag k="ssr:stedsnr" v="984253" />
	</node>
	<node id="-363758" lat="61.8723633105" lon="8.49851711321">
		<tag k="alt_name" v="Bakkjen" />
		<tag k="fixme" v="consider place=hamlet" />
		<tag k="name" v="Bakken" />
		<tag k="place" v="farm" />
		<tag k="ssr:stedsnr" v="984252" />
	</node>
	<node id="-363757" lat="61.8799364218" lon="8.47402817332">
		<tag k="name" v="Skrinde" />
		<tag k="place" v="hamlet" />
		<tag k="ssr:stedsnr" v="984250" />
	</node>
	<node id="-363756" lat="61.8823218517" lon="8.44852193551">
		<tag k="name" v="Bøje" />
		<tag k="place" v="hamlet" />
		<tag k="ssr:stedsnr" v="984246" />
	</node>
	<node id="-363755" lat="61.8844246148" lon="8.41048824528">
		<tag k="name" v="Ramstad" />
		<tag k="place" v="hamlet" />
		<tag k="ssr:stedsnr" v="984244" />
	</node>
	<node id="-363754" lat="61.8835464995" lon="8.40395721693">
		<tag k="name" v="Hjeltar" />
		<tag k="place" v="hamlet" />
		<tag k="ssr:stedsnr" v="984243" />
	</node>
	<node id="-363749" lat="61.8637250007" lon="8.48190276892">
		<tag k="name" v="Risheimskriu" />
		<tag k="place" v="isolated_dwelling" />
		<tag k="ssr:stedsnr" v="961957" />
	</node>
	<node id="-363748" lat="61.883677777" lon="8.32328610197">
		<tag k="amenity" v="school" />
		<tag k="name" v="Holemork skole" />
		<tag k="ssr:stedsnr" v="961763" />
	</node>
	<node id="-363747" lat="61.8808416644" lon="8.45644166969">
		<tag k="name" v="Brudal" />
		<tag k="place" v="farm" />
		<tag k="ssr:stedsnr" v="961619" />
	</node>
	<node id="-363746" lat="61.8814194474" lon="8.45054999977">
		<tag k="name" v="Nigard Bøje" />
		<tag k="place" v="farm" />
		<tag k="ssr:stedsnr" v="961616" />
	</node>
	<node id="-363743" lat="61.9416749958" lon="7.87085834119">
		<tag k="name" v="Rustahytta" />
		<tag k="place" v="isolated_dwelling" />
		<tag k="ssr:stedsnr" v="961372" />
	</node>
	<node id="-363741" lat="61.8858055549" lon="8.25184722845">
		<tag k="building" v="industrial" />
		<tag k="industrial" v="factory" />
		<tag k="name" v="Bismo vassverk" />
		<tag k="ssr:stedsnr" v="961017" />
	</node>
	<node id="-363740" lat="61.8831027751" lon="8.43627500297">
		<tag k="name" v="Nistun Russar" />
		<tag k="place" v="farm" />
		<tag k="ssr:stedsnr" v="960622" />
	</node>
	<node id="-363739" lat="61.8829777798" lon="8.43026666621">
		<tag k="name" v="Ny-Hove" />
		<tag k="place" v="farm" />
		<tag k="ssr:stedsnr" v="960620" />
	</node>
	<node id="-363738" lat="61.913950003" lon="8.06556110302">
		<tag k="name" v="Øvre Åmot" />
		<tag k="place" v="farm" />
		<tag k="ssr:stedsnr" v="960472" />
	</node>
	<node id="-363737" lat="61.8865111067" lon="8.40403333884">
		<tag k="name" v="Hjeltartræedet" />
		<tag k="place" v="farm" />
		<tag k="ssr:stedsnr" v="960516" />
	</node>
	<node id="-363733" lat="61.922866664" lon="8.11444722114">
		<tag k="name" v="Arnegarden" />
		<tag k="place" v="farm" />
		<tag k="ssr:stedsnr" v="960505" />
	</node>
	<node id="-363731" lat="62.0638361094" lon="7.9961027767">
		<tag k="name" v="Skarvedalshytta" />
		<tag k="place" v="isolated_dwelling" />
		<tag k="ssr:stedsnr" v="938572" />
	</node>
	<node id="-363727" lat="61.903338888" lon="8.03449166604">
		<tag k="alt_name" v="Brumellom" />
		<tag k="name" v="Øvre Brumillom" />
		<tag k="place" v="farm" />
		<tag k="ssr:stedsnr" v="920701" />
	</node>
	<node id="-363726" lat="61.9074805551" lon="8.12942776888">
		<tag k="name" v="Svestad" />
		<tag k="place" v="farm" />
		<tag k="ssr:stedsnr" v="920689" />
	</node>
	<node id="-363725" lat="61.9129002923" lon="8.15300623436">
		<tag k="alt_name" v="Langleitet, nordre" />
		<tag k="fixme" v="consider place=hamlet" />
		<tag k="name" v="Nørdre Langleite" />
		<tag k="place" v="farm" />
		<tag k="ssr:stedsnr" v="920675" />
	</node>
	<node id="-363721" lat="61.8995666685" lon="8.23790000941">
		<tag k="name" v="Øvre Jevnheim" />
		<tag k="place" v="farm" />
		<tag k="ssr:stedsnr" v="901025" />
	</node>
	<node id="-363718" lat="61.876352776" lon="8.36808332517">
		<tag k="name" v="Uppigard Skjåk" />
		<tag k="place" v="farm" />
		<tag k="ssr:stedsnr" v="900156" />
	</node>
	<node id="-363717" lat="61.8758416655" lon="8.37426111165">
		<tag k="name" v="Nørdre Prestgard" />
		<tag k="place" v="farm" />
		<tag k="ssr:stedsnr" v="900154" />
	</node>
	<node id="-363710" lat="61.8645111134" lon="8.29903332932">
		<tag k="name" v="Krokstadteigen" />
		<tag k="place" v="farm" />
		<tag k="ssr:stedsnr" v="860812" />
	</node>
	<node id="-363709" lat="61.8566249998" lon="8.36515555476">
		<tag k="name" v="Åndhytta" />
		<tag k="place" v="isolated_dwelling" />
		<tag k="ssr:stedsnr" v="860806" />
	</node>
	<node id="-363705" lat="61.8838722217" lon="8.40898889027">
		<tag k="alt_name" v="Ramstad, nordre;Ramstad;Nordre Ramstad" />
		<tag k="name" v="Nurdgard Ramstad" />
		<tag k="place" v="farm" />
		<tag k="ssr:stedsnr" v="859762" />
	</node>
	<node id="-363703" lat="61.9063916156" lon="8.13818122398">
		<tag k="name" v="Nyhus" />
		<tag k="place" v="hamlet" />
		<tag k="ssr:stedsnr" v="859655" />
	</node>
	<node id="-363701" lat="61.9584527759" lon="7.89704999416">
		<tag k="building" v="industrial" />
		<tag k="industrial" v="factory" />
		<tag k="name" v="Pollfossagi" />
		<tag k="ssr:stedsnr" v="859478" />
	</node>
	<node id="-363697" lat="61.9123754114" lon="7.90631209121">
		<tag k="alt_name" v="Rusti" />
		<tag k="fixme" v="consider place=hamlet" />
		<tag k="name" v="Ruste" />
		<tag k="place" v="farm" />
		<tag k="ssr:stedsnr" v="859526" />
	</node>
	<node id="-363696" lat="61.9023083313" lon="7.80681388968">
		<tag k="name" v="Dyringshytta" />
		<tag k="place" v="isolated_dwelling" />
		<tag k="ssr:stedsnr" v="859520" />
	</node>
	<node id="-363694" lat="61.90492778" lon="7.85858056453">
		<tag k="name" v="Høg-Bråta" />
		<tag k="place" v="isolated_dwelling" />
		<tag k="ssr:stedsnr" v="840353" />
	</node>
	<node id="-363693" lat="61.8884694412" lon="8.25811110698">
		<tag k="amenity" v="nursing_home" />
		<tag k="name" v="Skjåkheimen" />
		<tag k="ssr:stedsnr" v="840014" />
	</node>
	<node id="-363686" lat="61.8685583305" lon="8.30830555136">
		<tag k="name" v="Amundstad" />
		<tag k="place" v="farm" />
		<tag k="ssr:stedsnr" v="800768" />
	</node>
	<node id="-363685" lat="61.8539027777" lon="8.36274167357">
		<tag k="historic" v="shieling" />
		<tag k="name" v="Gamalsæterstulen" />
		<tag k="place" v="locality" />
		<tag k="ssr:stedsnr" v="800762" />
	</node>
	<node id="-363683" lat="61.8795055556" lon="8.25139999288">
		<tag k="name" v="Bjørkheim" />
		<tag k="place" v="farm" />
		<tag k="ssr:stedsnr" v="799791" />
	</node>
	<node id="-363682" lat="61.8765166656" lon="8.35816666971">
		<tag k="alt_name" v="Vigstad, søre" />
		<tag k="name" v="Systun Vigstad" />
		<tag k="place" v="farm" />
		<tag k="ssr:stedsnr" v="799778" />
	</node>
	<node id="-363681" lat="61.8762448374" lon="8.35360722878">
		<tag k="fixme" v="consider place=hamlet" />
		<tag k="name" v="Vigstad" />
		<tag k="place" v="farm" />
		<tag k="ssr:stedsnr" v="799777" />
	</node>
	<node id="-363680" lat="61.8751588111" lon="8.3730309415">
		<tag k="fixme" v="consider place=hamlet" />
		<tag k="name" v="Prestgarden" />
		<tag k="place" v="farm" />
		<tag k="ssr:stedsnr" v="799776" />
	</node>
	<node id="-363673" lat="61.9114694478" lon="7.9234333357">
		<tag k="alt_name" v="Øvre Svartholet" />
		<tag k="name" v="Svartholet" />
		<tag k="place" v="farm" />
		<tag k="ssr:stedsnr" v="799568" />
	</node>
	<node id="-363672" lat="61.9391277791" lon="7.99657222021">
		<tag k="alt_name" v="Slirstronde" />
		<tag k="historic" v="shieling" />
		<tag k="name" v="Slirstrondi" />
		<tag k="place" v="locality" />
		<tag k="ssr:stedsnr" v="799558" />
	</node>
	<node id="-363669" lat="61.8098111067" lon="7.71060833679">
		<tag k="fixme" v="consider tourism=alpine_hut or tourism=chalet" />
		<tag k="name" v="Sota sæter" />
		<tag k="ssr:stedsnr" v="799639" />
		<tag k="tourism" v="wilderness_hut" />
	</node>
	<node id="-363667" lat="61.8237555582" lon="7.4826611077">
		<tag k="fixme" v="consider tourism=alpine_hut or tourism=chalet" />
		<tag k="name" v="Slæom" />
		<tag k="ssr:stedsnr" v="799609" />
		<tag k="tourism" v="wilderness_hut" />
	</node>
	<node id="-363654" lat="61.7981361127" lon="8.16779167576">
		<tag k="alt_name" v="Lundadalssætri, ytste" />
		<tag k="historic" v="shieling" />
		<tag k="loc_name" v="Ytste Lundadalssætre" />
		<tag k="name" v="Yste Sætre" />
		<tag k="place" v="locality" />
		<tag k="ssr:stedsnr" v="921937" />
	</node>
	<node id="-363652" lat="61.8720518178" lon="8.4118227063">
		<tag k="fixme" v="consider place=hamlet" />
		<tag k="name" v="Kroken" />
		<tag k="place" v="farm" />
		<tag k="ssr:stedsnr" v="921817" />
	</node>
	<node id="-363651" lat="61.8737583312" lon="8.4046527799">
		<tag k="name" v="Nyhus" />
		<tag k="place" v="farm" />
		<tag k="ssr:stedsnr" v="921815" />
	</node>
	<node id="-363648" lat="61.874853097" lon="8.32418354148">
		<tag k="fixme" v="consider place=hamlet" />
		<tag k="name" v="Dalen" />
		<tag k="place" v="farm" />
		<tag k="ssr:stedsnr" v="921763" />
	</node>
	<node id="-363645" lat="62.124377776" lon="7.84815555917">
		<tag k="fixme" v="consider tourism=alpine_hut or tourism=chalet" />
		<tag k="name" v="Friisbu" />
		<tag k="old_name" v="Friisbui" />
		<tag k="ssr:stedsnr" v="921214" />
		<tag k="tourism" v="wilderness_hut" />
	</node>
	<node id="-363641" lat="61.883266668" lon="8.47055277522">
		<tag k="name" v="Randen" />
		<tag k="place" v="farm" />
		<tag k="ssr:stedsnr" v="920923" />
	</node>
	<node id="-363638" lat="61.8867585617" lon="8.36675436945">
		<tag k="fixme" v="consider place=hamlet" />
		<tag k="name" v="Steinbakke" />
		<tag k="place" v="farm" />
		<tag k="ssr:stedsnr" v="920879" />
	</node>
	<node id="-363637" lat="61.8815861097" lon="8.2485777869">
		<tag k="alt_name" v="Teigom, s;Teigom, søre" />
		<tag k="name" v="Søre Teigom" />
		<tag k="place" v="farm" />
		<tag k="ssr:stedsnr" v="920876" />
	</node>
	<node id="-363636" lat="61.8853146027" lon="8.36573600122">
		<tag k="name" v="Sygard Sperstad" />
		<tag k="place" v="farm" />
		<tag k="ssr:stedsnr" v="920860" />
	</node>
	<node id="-363635" lat="61.9073999963" lon="8.17744999378">
		<tag k="alt_name" v="Bakve" />
		<tag k="name" v="Bakved" />
		<tag k="place" v="farm" />
		<tag k="ssr:stedsnr" v="920858" />
	</node>
	<node id="-363633" lat="61.9041222223" lon="8.16434721604">
		<tag k="alt_name" v="Hovkvee" />
		<tag k="name" v="Hovkvei" />
		<tag k="place" v="farm" />
		<tag k="ssr:stedsnr" v="920843" />
	</node>
	<node id="-363632" lat="61.8996441202" lon="8.1752071633">
		<tag k="fixme" v="consider place=hamlet" />
		<tag k="name" v="Skjåkøygarden" />
		<tag k="place" v="farm" />
		<tag k="ssr:stedsnr" v="920838" />
	</node>
	<node id="-363630" lat="61.8911750032" lon="8.23141944138">
		<tag k="alt_name" v="Morkje" />
		<tag k="name" v="Morki" />
		<tag k="place" v="farm" />
		<tag k="ssr:stedsnr" v="920824" />
	</node>
	<node id="-363629" lat="61.8839083378" lon="8.38292776835">
		<tag k="name" v="Søre Kvåle" />
		<tag k="place" v="farm" />
		<tag k="ssr:stedsnr" v="920776" />
	</node>
	<node id="-363626" lat="61.8831453211" lon="8.43826524806">
		<tag k="alt_name" v="Rudsar" />
		<tag k="name" v="Russar" />
		<tag k="place" v="hamlet" />
		<tag k="ssr:stedsnr" v="920767" />
	</node>
	<node id="-363625" lat="61.8817104637" lon="8.46567567264">
		<tag k="fixme" v="consider place=hamlet" />
		<tag k="name" v="Kjeka" />
		<tag k="place" v="farm" />
		<tag k="ssr:stedsnr" v="920763" />
	</node>
	<node id="-363616" lat="61.9114745332" lon="7.90393707699">
		<tag k="alt_name" v="Bråtå" />
		<tag k="fixme" v="consider place=hamlet" />
		<tag k="name" v="Bråtågrendi" />
		<tag k="place" v="village" />
		<tag k="ssr:stedsnr" v="920547" />
	</node>
	<node id="-363615" lat="61.9246805544" lon="7.83254165865">
		<tag k="alt_name" v="Framruste;Framrustsætre" />
		<tag k="historic" v="shieling" />
		<tag k="name" v="Framrusti" />
		<tag k="place" v="locality" />
		<tag k="ssr:stedsnr" v="920540" />
	</node>
	<node id="-363613" lat="61.9020499974" lon="7.85330278708">
		<tag k="name" v="Solås" />
		<tag k="place" v="farm" />
		<tag k="ssr:stedsnr" v="920532" />
	</node>
	<node id="-363604" lat="61.8757944454" lon="8.26217499062">
		<tag k="name" v="Marsteinstad" />
		<tag k="place" v="farm" />
		<tag k="ssr:stedsnr" v="779008" />
	</node>
	<node id="-363602" lat="61.8825611126" lon="8.44174999235">
		<tag k="name" v="Uppistun Russar" />
		<tag k="place" v="farm" />
		<tag k="ssr:stedsnr" v="778622" />
	</node>
	<node id="-363600" lat="61.8648361068" lon="8.28723888911">
		<tag k="alt_name" v="Hailvorsgjerdede" />
		<tag k="name" v="Halvorgjerdet" />
		<tag k="place" v="farm" />
		<tag k="ssr:stedsnr" v="739809" />
	</node>
	<node id="-363599" lat="61.8722135423" lon="8.41806027376">
		<tag k="alt_name" v="Brekk, øvre" />
		<tag k="name" v="Øvre Brekk" />
		<tag k="place" v="farm" />
		<tag k="ssr:stedsnr" v="739807" />
	</node>
	<node id="-363598" lat="61.8723685826" lon="8.42399739047">
		<tag k="fixme" v="consider place=hamlet" />
		<tag k="name" v="Soglo" />
		<tag k="place" v="farm" />
		<tag k="ssr:stedsnr" v="739804" />
	</node>
	<node id="-363590" lat="61.8984243537" lon="8.20405561669">
		<tag k="fixme" v="consider place=hamlet" />
		<tag k="name" v="Forbergsøygarden" />
		<tag k="place" v="farm" />
		<tag k="ssr:stedsnr" v="901045" />
	</node>
	<node id="-363588" lat="61.9124916705" lon="8.06032222458">
		<tag k="name" v="Nørdre Åmot" />
		<tag k="old_name" v="Nødre Åmot" />
		<tag k="place" v="farm" />
		<tag k="ssr:stedsnr" v="900416" />
	</node>
	<node id="-363586" lat="61.9110249957" lon="7.88852222987">
		<tag k="name" v="Systun Storbråtå" />
		<tag k="place" v="farm" />
		<tag k="ssr:stedsnr" v="900338" />
	</node>
	<node id="-363582" lat="61.8843194487" lon="8.41981110459">
		<tag k="alt_name" v="Uppistun Vangje" />
		<tag k="name" v="Uppistun Vange" />
		<tag k="place" v="farm" />
		<tag k="ssr:stedsnr" v="718630" />
	</node>
	<node id="-363579" lat="61.8842583309" lon="8.37686388948">
		<tag k="name" v="Brandsar" />
		<tag k="place" v="farm" />
		<tag k="ssr:stedsnr" v="718567" />
	</node>
	<node id="-363573" lat="61.8719249994" lon="8.2957722176">
		<tag k="name" v="Permoen" />
		<tag k="place" v="farm" />
		<tag k="ssr:stedsnr" v="678755" />
	</node>
	<node id="-363569" lat="61.8856944465" lon="8.39657777765">
		<tag k="alt_name" v="Hånsnartræede" />
		<tag k="name" v="Handsnartrædet" />
		<tag k="place" v="farm" />
		<tag k="ssr:stedsnr" v="677868" />
	</node>
	<node id="-363568" lat="61.8786555564" lon="8.47741943997">
		<tag k="alt_name" v="Skrinde, s;Skrinde;Søre Skrinde" />
		<tag k="name" v="Sygard Skrinde" />
		<tag k="place" v="farm" />
		<tag k="ssr:stedsnr" v="677926" />
	</node>
	<node id="-363561" lat="61.9052694419" lon="8.10711111319">
		<tag k="alt_name" v="Sotil" />
		<tag k="name" v="Nordli" />
		<tag k="place" v="farm" />
		<tag k="ssr:stedsnr" v="677678" />
	</node>
	<node id="-363559" lat="61.9146305597" lon="8.14313333948">
		<tag k="name" v="Langleitsgrendi" />
		<tag k="place" v="hamlet" />
		<tag k="ssr:stedsnr" v="677666" />
	</node>
	<node id="-363552" lat="61.8995027744" lon="8.17720277729">
		<tag k="name" v="Søre Skjåkøygard" />
		<tag k="place" v="farm" />
		<tag k="ssr:stedsnr" v="657061" />
	</node>
	<node id="-363546" lat="61.8085257497" lon="8.20655698745">
		<tag k="fixme" v="multiple name tags, choose one and add the other to alt_name" />
		<tag k="name" v="Isakbu;Ruphytta" />
		<tag k="place" v="isolated_dwelling" />
		<tag k="ssr:stedsnr" v="617958" />
	</node>
	<node id="-363545" lat="61.8694361095" lon="8.30478889697">
		<tag k="alt_name" v="Sætre" />
		<tag k="name" v="Sæter" />
		<tag k="place" v="farm" />
		<tag k="ssr:stedsnr" v="617778" />
	</node>
	<node id="-363535" lat="61.9788722266" lon="7.89109166224">
		<tag k="name" v="Moserygg" />
		<tag k="place" v="isolated_dwelling" />
		<tag k="ssr:stedsnr" v="718854" />
	</node>
	<node id="-363534" lat="61.882594447" lon="8.27072223099">
		<tag k="name" v="Skjåk turistheim" />
		<tag k="ssr:stedsnr" v="718719" />
		<tag k="tourism" v="hotel" />
	</node>
	<node id="-363533" lat="61.8791027787" lon="8.27187500535">
		<tag k="building" v="industrial" />
		<tag k="industrial" v="factory" />
		<tag k="name" v="Bismo renseanlegg" />
		<tag k="ssr:stedsnr" v="718713" />
	</node>
	<node id="-363529" lat="61.8832361115" lon="8.38811944542">
		<tag k="name" v="Øvre Marlo" />
		<tag k="place" v="isolated_dwelling" />
		<tag k="ssr:stedsnr" v="718538" />
	</node>
	<node id="-363528" lat="61.8837222263" lon="8.41171110326">
		<tag k="alt_name" v="Ramstad nordistuen" />
		<tag k="name" v="Med-Ramstad" />
		<tag k="place" v="farm" />
		<tag k="ssr:stedsnr" v="718535" />
	</node>
	<node id="-363527" lat="61.9221694419" lon="8.12102222371">
		<tag k="name" v="Nygjerde" />
		<tag k="place" v="farm" />
		<tag k="ssr:stedsnr" v="718523" />
	</node>
	<node id="-363526" lat="61.8733472225" lon="8.3164083315">
		<tag k="name" v="Søre Haugen" />
		<tag k="place" v="farm" />
		<tag k="ssr:stedsnr" v="718141" />
	</node>
	<node id="-363525" lat="61.8977861155" lon="8.22815277591">
		<tag k="name" v="Bøye" />
		<tag k="place" v="isolated_dwelling" />
		<tag k="ssr:stedsnr" v="718047" />
	</node>
	<node id="-363524" lat="61.8975083375" lon="8.24428333279">
		<tag k="name" v="Velt-Harsheim" />
		<tag k="place" v="farm" />
		<tag k="ssr:stedsnr" v="718039" />
	</node>
	<node id="-363523" lat="62.1599981081" lon="7.70066696858">
		<tag k="fixme" v="consider tourism=alpine_hut or tourism=chalet" />
		<tag k="name" v="Fieldfarehytta" />
		<tag k="ssr:stedsnr" v="718014" />
		<tag k="tourism" v="wilderness_hut" />
	</node>
	<node id="-363519" lat="61.9099888893" lon="8.12316388223">
		<tag k="name" v="Lomstad" />
		<tag k="place" v="farm" />
		<tag k="ssr:stedsnr" v="717442" />
	</node>
	<node id="-363518" lat="61.9088027755" lon="8.13630278523">
		<tag k="name" v="Skoglund" />
		<tag k="place" v="farm" />
		<tag k="ssr:stedsnr" v="717441" />
	</node>
	<node id="-363516" lat="61.8768972227" lon="8.35316110593">
		<tag k="name" v="Nurdstun Vigstad" />
		<tag k="place" v="farm" />
		<tag k="ssr:stedsnr" v="597134" />
	</node>
	<node id="-363514" lat="61.9033027762" lon="8.15231111474">
		<tag k="name" v="Medøygarden" />
		<tag k="place" v="farm" />
		<tag k="ssr:stedsnr" v="597087" />
	</node>
	<node id="-363512" lat="61.8951055551" lon="8.36137500923">
		<tag k="name" v="Nørdre Blikka" />
		<tag k="place" v="farm" />
		<tag k="ssr:stedsnr" v="589151" />
	</node>
	<node id="-363507" lat="61.8722805102" lon="8.39140380136">
		<tag k="alt_name" v="Grøvelstad" />
		<tag k="fixme" v="consider place=hamlet" />
		<tag k="name" v="Gløverstad" />
		<tag k="place" v="farm" />
		<tag k="ssr:stedsnr" v="556820" />
	</node>
	<node id="-363506" lat="61.8746677829" lon="8.41772278235">
		<tag k="alt_name" v="Brekk, nedre" />
		<tag k="name" v="Nedre Brekk" />
		<tag k="place" v="farm" />
		<tag k="ssr:stedsnr" v="556807" />
	</node>
	<node id="-363505" lat="61.866382212" lon="8.46491618164">
		<tag k="fixme" v="consider place=hamlet" />
		<tag k="name" v="Hole" />
		<tag k="place" v="farm" />
		<tag k="ssr:stedsnr" v="556806" />
	</node>
	<node id="-363497" lat="61.863052776" lon="8.47992499244">
		<tag k="building" v="industrial" />
		<tag k="industrial" v="factory" />
		<tag k="name" v="Lom og Skjåk ysteri" />
		<tag k="ssr:stedsnr" v="536956" />
	</node>
	<node id="-363494" lat="61.8991416698" lon="8.23483887978">
		<tag k="name" v="Systun Kitilstad" />
		<tag k="place" v="farm" />
		<tag k="ssr:stedsnr" v="536041" />
	</node>
	<node id="-363489" lat="61.8880431438" lon="8.33819753318">
		<tag k="fixme" v="consider place=hamlet" />
		<tag k="name" v="Tofte" />
		<tag k="place" v="farm" />
		<tag k="ssr:stedsnr" v="495890" />
	</node>
	<node id="-363488" lat="61.8915687016" lon="8.35977815152">
		<tag k="alt_name" v="Bakke, nordre;Bakke" />
		<tag k="name" v="Nørdre Bakke" />
		<tag k="place" v="farm" />
		<tag k="ssr:stedsnr" v="495886" />
	</node>
	<node id="-363486" lat="61.885024172" lon="8.37916071471">
		<tag k="fixme" v="consider place=hamlet" />
		<tag k="name" v="Brandsar" />
		<tag k="place" v="farm" />
		<tag k="ssr:stedsnr" v="495860" />
	</node>
	<node id="-363485" lat="61.8840249984" lon="8.37444721285">
		<tag k="alt_name" v="Krokstad, s;Krokstad, søre" />
		<tag k="name" v="Systun Krokstad" />
		<tag k="place" v="farm" />
		<tag k="ssr:stedsnr" v="495859" />
	</node>
	<node id="-363477" lat="61.9111999956" lon="8.07622777837">
		<tag k="name" v="Nordheim" />
		<tag k="place" v="farm" />
		<tag k="ssr:stedsnr" v="495710" />
	</node>
	<node id="-363476" lat="61.9084999974" lon="7.89783056226">
		<tag k="alt_name" v="Kveum" />
		<tag k="name" v="Kveom" />
		<tag k="place" v="farm" />
		<tag k="ssr:stedsnr" v="495702" />
	</node>
	<node id="-363475" lat="61.943158331" lon="7.9983805488">
		<tag k="name" v="Fosstugu" />
		<tag k="place" v="isolated_dwelling" />
		<tag k="ssr:stedsnr" v="495513" />
	</node>
	<node id="-363473" lat="61.9601138906" lon="7.86592221454">
		<tag k="name" v="Åhytta" />
		<tag k="place" v="locality" />
		<tag k="ssr:stedsnr" v="495503" />
	</node>
	<node id="-363464" lat="62.1608055548" lon="7.71853610559">
		<tag k="fixme" v="consider tourism=alpine_hut or tourism=chalet" />
		<tag k="name" v="Veltdalshytta" />
		<tag k="ssr:stedsnr" v="678235" />
		<tag k="tourism" v="wilderness_hut" />
	</node>
	<node id="-363459" lat="62.0165388905" lon="7.66568055618">
		<tag k="name" v="Grotli" />
		<tag k="place" v="farm" />
		<tag k="ssr:stedsnr" v="678142" />
	</node>
	<node id="-363455" lat="61.8922222218" lon="8.35255555151">
		<tag k="name" v="Haugom" />
		<tag k="place" v="farm" />
		<tag k="ssr:stedsnr" v="677883" />
	</node>
	<node id="-363453" lat="61.9045694478" lon="8.14200833005">
		<tag k="alt_name" v="Åbui, nedre" />
		<tag k="name" v="Nedre Åbue" />
		<tag k="place" v="farm" />
		<tag k="ssr:stedsnr" v="677846" />
	</node>
	<node id="-363452" lat="61.9063972213" lon="8.18268888669">
		<tag k="name" v="Bøyeige" />
		<tag k="place" v="locality" />
		<tag k="ssr:stedsnr" v="677843" />
	</node>
	<node id="-363450" lat="61.9020972223" lon="8.20107221935">
		<tag k="name" v="Furumo" />
		<tag k="place" v="farm" />
		<tag k="ssr:stedsnr" v="677834" />
	</node>
	<node id="-363444" lat="61.8252611079" lon="7.93913611402">
		<tag k="historic" v="shieling" />
		<tag k="name" v="Gammelstulen" />
		<tag k="place" v="locality" />
		<tag k="ssr:stedsnr" v="677737" />
	</node>
	<node id="-363443" lat="61.8998083339" lon="7.84826389496">
		<tag k="alt_name" v="Søre Tuva" />
		<tag k="name" v="Tuva" />
		<tag k="place" v="farm" />
		<tag k="ssr:stedsnr" v="677700" />
	</node>
	<node id="-363442" lat="61.9093111074" lon="8.07129721555">
		<tag k="name" v="Myrvoll" />
		<tag k="place" v="farm" />
		<tag k="ssr:stedsnr" v="677697" />
	</node>
	<node id="-363441" lat="61.904986113" lon="8.08978056252">
		<tag k="alt_name" v="Kvitingje" />
		<tag k="name" v="Kvitingen" />
		<tag k="place" v="farm" />
		<tag k="ssr:stedsnr" v="677690" />
	</node>
	<node id="-363440" lat="61.9105249958" lon="7.8873305621">
		<tag k="alt_name" v="Storbråta" />
		<tag k="name" v="Nurdstun Storbråtå" />
		<tag k="place" v="farm" />
		<tag k="ssr:stedsnr" v="677687" />
	</node>
	<node id="-363439" lat="61.9088193814" lon="7.88091074044">
		<tag k="fixme" v="consider place=hamlet" />
		<tag k="name" v="Slette" />
		<tag k="place" v="farm" />
		<tag k="ssr:stedsnr" v="677686" />
	</node>
	<node id="-363438" lat="61.9082388917" lon="7.9799777848">
		<tag k="name" v="Brandsarøygarden" />
		<tag k="place" v="farm" />
		<tag k="ssr:stedsnr" v="677684" />
	</node>
	<node id="-363436" lat="61.9138070815" lon="8.01068536291">
		<tag k="alt_name" v="Våttanese" />
		<tag k="fixme" v="consider place=hamlet" />
		<tag k="name" v="Våtaneset" />
		<tag k="place" v="farm" />
		<tag k="ssr:stedsnr" v="677532" />
	</node>
	<node id="-363435" lat="61.912748589" lon="7.94914003967">
		<tag k="alt_name" v="Våtmyre" />
		<tag k="name" v="Våtmyr" />
		<tag k="place" v="farm" />
		<tag k="ssr:stedsnr" v="677531" />
	</node>
	<node id="-363427" lat="61.8719777779" lon="8.4977000046">
		<tag k="name" v="Nedre Bakken" />
		<tag k="place" v="farm" />
		<tag k="ssr:stedsnr" v="657758" />
	</node>
	<node id="-363426" lat="61.8877416679" lon="8.33888888893">
		<tag k="name" v="Søre Tofte" />
		<tag k="place" v="farm" />
		<tag k="ssr:stedsnr" v="657680" />
	</node>
	<node id="-363425" lat="61.883530552" lon="8.29771666845">
		<tag k="name" v="Nurdstun Forberg" />
		<tag k="place" v="farm" />
		<tag k="ssr:stedsnr" v="657672" />
	</node>
	<node id="-363424" lat="61.8739532055" lon="8.44403364163">
		<tag k="alt_name" v="Gjeilo" />
		<tag k="name" v="Geilo" />
		<tag k="place" v="hamlet" />
		<tag k="ssr:stedsnr" v="657940" />
	</node>
	<node id="-363423" lat="61.8752555524" lon="8.42309167619">
		<tag k="name" v="Nedre Soglo" />
		<tag k="place" v="farm" />
		<tag k="ssr:stedsnr" v="657938" />
	</node>
	<node id="-363417" lat="61.9115249992" lon="7.92929443803">
		<tag k="name" v="Lillereitan" />
		<tag k="place" v="isolated_dwelling" />
		<tag k="ssr:stedsnr" v="657296" />
	</node>
	<node id="-363416" lat="61.8885409806" lon="8.24461604311">
		<tag k="alt_name" v="Formo" />
		<tag k="name" v="Formoen" />
		<tag k="place" v="farm" />
		<tag k="ssr:stedsnr" v="657024" />
	</node>
	<node id="-363414" lat="61.8725388877" lon="8.06219445068">
		<tag k="barrier" v="fence" />
		<tag k="name" v="Reinsgarden" />
		<tag k="ssr:stedsnr" v="656444" />
	</node>
	<node id="-363413" lat="61.9054666664" lon="8.13263889566">
		<tag k="name" v="Nørdre Byskjede" />
		<tag k="old_name" v="Nørdre Bysjede" />
		<tag k="place" v="farm" />
		<tag k="ssr:stedsnr" v="656426" />
	</node>
	<node id="-363404" lat="61.8990361071" lon="7.84195832624">
		<tag k="name" v="Tunet" />
		<tag k="place" v="farm" />
		<tag k="ssr:stedsnr" v="435716" />
	</node>
	<node id="-363403" lat="61.9177527796" lon="8.18335276848">
		<tag k="alt_name" v="Veltsætre" />
		<tag k="historic" v="shieling" />
		<tag k="name" v="Veslesætri" />
		<tag k="place" v="locality" />
		<tag k="ssr:stedsnr" v="435708" />
	</node>
	<node id="-363402" lat="61.908605183" lon="8.17216227955">
		<tag k="alt_name" v="Langleitet, s;Langleitet, søre" />
		<tag k="fixme" v="consider place=hamlet" />
		<tag k="name" v="Søre Langleite" />
		<tag k="place" v="farm" />
		<tag k="ssr:stedsnr" v="435702" />
	</node>
	<node id="-363401" lat="61.8959921717" lon="8.24464047773">
		<tag k="fixme" v="consider place=hamlet" />
		<tag k="name" v="Harsheim" />
		<tag k="place" v="farm" />
		<tag k="ssr:stedsnr" v="435842" />
	</node>
	<node id="-363400" lat="61.8745193163" lon="8.40343274509">
		<tag k="alt_name" v="Svei" />
		<tag k="fixme" v="consider place=hamlet" />
		<tag k="name" v="Svee" />
		<tag k="place" v="farm" />
		<tag k="ssr:stedsnr" v="435835" />
	</node>
	<node id="-363398" lat="61.8765569722" lon="8.48344252996">
		<tag k="alt_name" v="Svei" />
		<tag k="fixme" v="consider place=hamlet" />
		<tag k="name" v="Svee" />
		<tag k="place" v="farm" />
		<tag k="ssr:stedsnr" v="435121" />
	</node>
	<node id="-363396" lat="61.8831804333" lon="8.38350008731">
		<tag k="name" v="Kvåle" />
		<tag k="place" v="hamlet" />
		<tag k="ssr:stedsnr" v="434808" />
	</node>
	<node id="-363395" lat="61.886769446" lon="8.37188054814">
		<tag k="alt_name" v="Krokstad, øvre" />
		<tag k="name" v="Uppstun Krokstad" />
		<tag k="place" v="farm" />
		<tag k="ssr:stedsnr" v="434807" />
	</node>
	<node id="-363393" lat="61.8842111131" lon="8.41766389796">
		<tag k="alt_name" v="Bustad, søre" />
		<tag k="name" v="Søre Bustad" />
		<tag k="place" v="farm" />
		<tag k="ssr:stedsnr" v="434738" />
	</node>
	<node id="-363392" lat="61.8814877281" lon="8.39066864974">
		<tag k="alt_name" v="Søre Marlo" />
		<tag k="fixme" v="consider place=hamlet" />
		<tag k="name" v="Marlo" />
		<tag k="place" v="farm" />
		<tag k="ssr:stedsnr" v="434735" />
	</node>
	<node id="-363391" lat="61.8839750003" lon="8.3936916625">
		<tag k="alt_name" v="Kvee" />
		<tag k="name" v="Kvei" />
		<tag k="place" v="farm" />
		<tag k="ssr:stedsnr" v="434728" />
	</node>
	<node id="-363390" lat="61.8792317879" lon="8.46163674319">
		<tag k="alt_name" v="Gupphågåyn" />
		<tag k="fixme" v="consider place=hamlet" />
		<tag k="name" v="Guphågå" />
		<tag k="place" v="farm" />
		<tag k="ssr:stedsnr" v="434726" />
	</node>
	<node id="-363387" lat="61.8783908762" lon="8.28746525459">
		<tag k="fixme" v="consider place=hamlet" />
		<tag k="name" v="Eide" />
		<tag k="place" v="farm" />
		<tag k="ssr:stedsnr" v="374871" />
	</node>
	<node id="-363385" lat="61.8760805513" lon="8.29665278503">
		<tag k="name" v="Lunde" />
		<tag k="place" v="farm" />
		<tag k="ssr:stedsnr" v="374776" />
	</node>
	<node id="-363369" lat="61.8735799898" lon="8.39327623284">
		<tag k="fixme" v="consider place=hamlet" />
		<tag k="name" v="Marlosøygarden" />
		<tag k="place" v="farm" />
		<tag k="ssr:stedsnr" v="496810" />
	</node>
	<node id="-363368" lat="61.8772667784" lon="8.38470091146">
		<tag k="name" v="Ånstad" />
		<tag k="place" v="hamlet" />
		<tag k="ssr:stedsnr" v="496807" />
	</node>
	<node id="-363367" lat="61.8774138894" lon="8.3733444402">
		<tag k="name" v="Skjåkstrondi" />
		<tag k="place" v="hamlet" />
		<tag k="ssr:stedsnr" v="496806" />
	</node>
	<node id="-363364" lat="61.8690083341" lon="8.28105555431">
		<tag k="name" v="Åsli" />
		<tag k="place" v="farm" />
		<tag k="ssr:stedsnr" v="496772" />
	</node>
	<node id="-363363" lat="61.875319443" lon="8.30039999226">
		<tag k="name" v="Lundamoen" />
		<tag k="place" v="farm" />
		<tag k="ssr:stedsnr" v="496765" />
	</node>
	<node id="-363362" lat="61.8735555554" lon="8.2924972157">
		<tag k="loc_name" v="Lundagrende" />
		<tag k="name" v="Lundagrendi" />
		<tag k="place" v="hamlet" />
		<tag k="ssr:stedsnr" v="496762" />
	</node>
	<node id="-363361" lat="61.8749500022" lon="8.36097777802">
		<tag k="alt_name" v="Storkjørre" />
		<tag k="name" v="Storkjørri" />
		<tag k="place" v="farm" />
		<tag k="ssr:stedsnr" v="496758" />
	</node>
	<node id="-363359" lat="61.8308666711" lon="8.2211555504">
		<tag k="alt_name" v="Lundadalssætri, heimste" />
		<tag k="historic" v="shieling" />
		<tag k="loc_name" v="Heimste Lundadalssætre" />
		<tag k="name" v="Heimaste Lundadalsætre" />
		<tag k="place" v="locality" />
		<tag k="ssr:stedsnr" v="496954" />
	</node>
	<node id="-363356" lat="61.878349998" lon="8.32321388512">
		<tag k="name" v="Brustugu" />
		<tag k="place" v="farm" />
		<tag k="ssr:stedsnr" v="496749" />
	</node>
	<node id="-363354" lat="62.0115277796" lon="7.85645277079">
		<tag k="alt_name" v="Billingje" />
		<tag k="historic" v="shieling" />
		<tag k="name" v="Billingen" />
		<tag k="place" v="locality" />
		<tag k="ssr:stedsnr" v="496245" />
	</node>
	<node id="-363349" lat="61.8878111104" lon="8.23602777168">
		<tag k="name" v="Skjåkmorkje" />
		<tag k="place" v="farm" />
		<tag k="ssr:stedsnr" v="495836" />
	</node>
	<node id="-363340" lat="61.9072799666" lon="7.86704171977">
		<tag k="alt_name" v="Mork" />
		<tag k="name" v="Nørdre Mork" />
		<tag k="place" v="farm" />
		<tag k="ssr:stedsnr" v="495700" />
	</node>
	<node id="-363338" lat="61.9053250019" lon="7.93180555467">
		<tag k="alt_name" v="Skautli" />
		<tag k="name" v="Skautlii" />
		<tag k="place" v="farm" />
		<tag k="ssr:stedsnr" v="495696" />
	</node>
	<node id="-363337" lat="61.9086583294" lon="8.10749722896">
		<tag k="name" v="Grasmoen" />
		<tag k="place" v="farm" />
		<tag k="ssr:stedsnr" v="495695" />
	</node>
	<node id="-363336" lat="61.9118638917" lon="8.13623889148">
		<tag k="alt_name" v="Fel-øydden" />
		<tag k="name" v="Felodden" />
		<tag k="place" v="farm" />
		<tag k="ssr:stedsnr" v="495693" />
	</node>
	<node id="-363335" lat="61.9115916647" lon="7.9093138863">
		<tag k="name" v="Brekkom" />
		<tag k="place" v="farm" />
		<tag k="ssr:stedsnr" v="495550" />
	</node>
	<node id="-363334" lat="61.9513055553" lon="8.02976389583">
		<tag k="alt_name" v="Heggjebottsætre" />
		<tag k="historic" v="shieling" />
		<tag k="name" v="Heggebottsætri" />
		<tag k="place" v="locality" />
		<tag k="ssr:stedsnr" v="495532" />
	</node>
	<node id="-363329" lat="61.9471333372" lon="7.95835556407">
		<tag k="alt_name" v="Sagje" />
		<tag k="building" v="industrial" />
		<tag k="industrial" v="factory" />
		<tag k="name" v="Stamåsagi" />
		<tag k="ssr:stedsnr" v="495514" />
	</node>
	<node id="-363327" lat="61.8652193605" lon="8.47784739323">
		<tag k="fixme" v="consider place=hamlet" />
		<tag k="name" v="Risheim" />
		<tag k="place" v="farm" />
		<tag k="ssr:stedsnr" v="495136" />
	</node>
	<node id="-363325" lat="61.8985491864" lon="8.19935591507">
		<tag k="fixme" v="consider place=hamlet" />
		<tag k="loc_name" v="Eisar" />
		<tag k="name" v="Eiesar" />
		<tag k="place" v="farm" />
		<tag k="ssr:stedsnr" v="363300" />
	</node>
	<node id="-363322" lat="61.8642833341" lon="8.47833056192">
		<tag k="name" v="Søre Risheim" />
		<tag k="place" v="farm" />
		<tag k="ssr:stedsnr" v="475964" />
	</node>
	<node id="-363319" lat="61.8802722259" lon="8.33232223054">
		<tag k="name" v="Bruberg" />
		<tag k="place" v="isolated_dwelling" />
		<tag k="ssr:stedsnr" v="475697" />
	</node>
	<node id="-363315" lat="61.9050750013" lon="7.86926943628">
		<tag k="name" v="Ytre Mork" />
		<tag k="place" v="farm" />
		<tag k="ssr:stedsnr" v="475371" />
	</node>
	<node id="-363313" lat="61.9105666663" lon="7.89349722145">
		<tag k="amenity" v="school" />
		<tag k="name" v="Bjøkås skule" />
		<tag k="ssr:stedsnr" v="475345" />
	</node>
	<node id="-363311" lat="61.9093861127" lon="7.90775000558">
		<tag k="name" v="Hellflaten" />
		<tag k="place" v="isolated_dwelling" />
		<tag k="ssr:stedsnr" v="475310" />
	</node>
	<node id="-363310" lat="61.9109611152" lon="7.92439443596">
		<tag k="name" v="Nedre Svartholet" />
		<tag k="place" v="farm" />
		<tag k="ssr:stedsnr" v="475307" />
	</node>
	<node id="-363309" lat="61.911737775" lon="7.8999906453">
		<tag k="fixme" v="consider place=hamlet" />
		<tag k="name" v="Brimruste" />
		<tag k="place" v="farm" />
		<tag k="ssr:stedsnr" v="475303" />
	</node>
	<node id="-363307" lat="61.8741611105" lon="8.27423334207">
		<tag k="name" v="Skriu" />
		<tag k="place" v="isolated_dwelling" />
		<tag k="ssr:stedsnr" v="475124" />
	</node>
	<node id="-363306" lat="61.9053138927" lon="8.20543332554">
		<tag k="name" v="Søre Lykre" />
		<tag k="place" v="farm" />
		<tag k="ssr:stedsnr" v="475097" />
	</node>
	<node id="-363305" lat="61.8836000027" lon="8.23590554675">
		<tag k="name" v="Øvre Roe" />
		<tag k="place" v="farm" />
		<tag k="ssr:stedsnr" v="475024" />
	</node>
	<node id="-363302" lat="61.8749068353" lon="8.37766655822">
		<tag k="fixme" v="consider place=hamlet" />
		<tag k="name" v="Dagsgard" />
		<tag k="place" v="farm" />
		<tag k="ssr:stedsnr" v="314755" />
	</node>
	<node id="-363301" lat="61.8756861129" lon="8.42034165835">
		<tag k="name" v="Brekkatrædet" />
		<tag k="place" v="farm" />
		<tag k="ssr:stedsnr" v="314815" />
	</node>
	<node id="-363293" lat="61.8840583339" lon="8.2666527784">
		<tag k="name" v="Bismo" />
		<tag k="place" v="village" />
		<tag k="ssr:stedsnr" v="313878" />
	</node>
	<node id="-363292" lat="61.882149997" lon="8.36906944897">
		<tag k="alt_name" v="Tråstad, nedre" />
		<tag k="name" v="Nedre Tråstad" />
		<tag k="place" v="farm" />
		<tag k="ssr:stedsnr" v="313870" />
	</node>
	<node id="-363291" lat="61.8842944455" lon="8.37209165892">
		<tag k="alt_name" v="Krokstad, nordre" />
		<tag k="name" v="Nistun Krokstad" />
		<tag k="place" v="farm" />
		<tag k="ssr:stedsnr" v="313866" />
	</node>
	<node id="-363287" lat="61.9004971376" lon="7.85536625531">
		<tag k="fixme" v="consider place=hamlet" />
		<tag k="name" v="Brenna" />
		<tag k="place" v="farm" />
		<tag k="ssr:stedsnr" v="313713" />
	</node>
	<node id="-363285" lat="61.9111055524" lon="8.07910278366">
		<tag k="name" v="Sørheim" />
		<tag k="place" v="farm" />
		<tag k="ssr:stedsnr" v="313707" />
	</node>
	<node id="-363274" lat="61.8831249981" lon="8.26144166811">
		<tag k="amenity" v="sports_centre" />
		<tag k="name" v="Skjåkhallen" />
		<tag k="ssr:stedsnr" v="293024" />
	</node>
	<node id="-363270" lat="61.7366638892" lon="7.93721111692">
		<tag k="fixme" v="consider tourism=alpine_hut or tourism=chalet" />
		<tag k="name" v="Trulsbu" />
		<tag k="ssr:stedsnr" v="267403" />
		<tag k="tourism" v="wilderness_hut" />
	</node>
	<node id="-363260" lat="61.8875694452" lon="8.33759722057">
		<tag k="name" v="Nørdre Tofte" />
		<tag k="place" v="farm" />
		<tag k="ssr:stedsnr" v="294730" />
	</node>
	<node id="-363257" lat="61.8955898301" lon="8.2123154314">
		<tag k="name" v="Uppigard Flækøy" />
		<tag k="place" v="farm" />
		<tag k="ssr:stedsnr" v="294041" />
	</node>
	<node id="-363256" lat="61.8723416085" lon="8.40586640389">
		<tag k="fixme" v="consider place=hamlet" />
		<tag k="name" v="Bratteigen" />
		<tag k="place" v="farm" />
		<tag k="ssr:stedsnr" v="293955" />
	</node>
	<node id="-363255" lat="61.8698944457" lon="8.39070277709">
		<tag k="name" v="Øvre Grøvelstad" />
		<tag k="place" v="isolated_dwelling" />
		<tag k="ssr:stedsnr" v="293948" />
	</node>
	<node id="-363254" lat="61.8723972184" lon="8.50063055809">
		<tag k="name" v="Runningje" />
		<tag k="place" v="farm" />
		<tag k="ssr:stedsnr" v="293791" />
	</node>
	<node id="-363251" lat="61.8818555596" lon="8.43830833408">
		<tag k="name" v="Nurdgard Russar" />
		<tag k="place" v="farm" />
		<tag k="ssr:stedsnr" v="293637" />
	</node>
	<node id="-363249" lat="61.9147972254" lon="8.09320277501">
		<tag k="name" v="Bruvoll" />
		<tag k="place" v="hamlet" />
		<tag k="ssr:stedsnr" v="293456" />
	</node>
	<node id="-363244" lat="61.9258000027" lon="8.23423055866">
		<tag k="name" v="Samlarplassen" />
		<tag k="place" v="locality" />
		<tag k="ssr:stedsnr" v="293437" />
	</node>
	<node id="-363237" lat="61.8885777764" lon="7.84620000297">
		<tag k="name" v="Kollungen" />
		<tag k="place" v="farm" />
		<tag k="ssr:stedsnr" v="192743" />
	</node>
	<node id="-363236" lat="61.9006694446" lon="8.02609445218">
		<tag k="alt_name" v="Tundraskriu" />
		<tag k="name" v="Tundraskridu" />
		<tag k="place" v="farm" />
		<tag k="ssr:stedsnr" v="192739" />
	</node>
	<node id="-363235" lat="61.9069268011" lon="8.0865747887">
		<tag k="fixme" v="multiple name tags, choose one and add the other to alt_name" />
		<tag k="name" v="Huse;Nybu" />
		<tag k="place" v="farm" />
		<tag k="ssr:stedsnr" v="192733" />
	</node>
	<node id="-363233" lat="61.9216416706" lon="8.1244805476">
		<tag k="alt_name" v="Gjerdede" />
		<tag k="name" v="Gjerdet" />
		<tag k="place" v="farm" />
		<tag k="ssr:stedsnr" v="192709" />
	</node>
	<node id="-363229" lat="61.8824861138" lon="8.46899166888">
		<tag k="amenity" v="school" />
		<tag k="name" v="Øygardskulen" />
		<tag k="ssr:stedsnr" v="172629" />
	</node>
	<node id="-363226" lat="61.8752749999" lon="8.39681389837">
		<tag k="alt_name" v="Bersrudstrondi" />
		<tag k="name" v="Bergsrudstrondi" />
		<tag k="place" v="hamlet" />
		<tag k="ssr:stedsnr" v="132812" />
	</node>
	<node id="-363225" lat="61.875934457" lon="8.40800266133">
		<tag k="alt_name" v="Odden, s;Odden, søre" />
		<tag k="fixme" v="consider place=hamlet" />
		<tag k="name" v="Søre Odden" />
		<tag k="place" v="farm" />
		<tag k="ssr:stedsnr" v="132806" />
	</node>
	<node id="-363221" lat="61.8888739352" lon="8.34458241904">
		<tag k="fixme" v="consider place=hamlet" />
		<tag k="name" v="Kvålheim" />
		<tag k="place" v="farm" />
		<tag k="ssr:stedsnr" v="131912" />
	</node>
	<node id="-363220" lat="61.8869666634" lon="8.35891110315">
		<tag k="name" v="Sygard Grimstad" />
		<tag k="place" v="farm" />
		<tag k="ssr:stedsnr" v="131909" />
	</node>
	<node id="-363219" lat="61.8847015476" lon="8.42054047863">
		<tag k="fixme" v="consider place=hamlet" />
		<tag k="name" v="Vange" />
		<tag k="place" v="farm" />
		<tag k="ssr:stedsnr" v="131802" />
	</node>
	<node id="-363213" lat="61.9116055515" lon="7.92093889821">
		<tag k="name" v="Plassen" />
		<tag k="place" v="farm" />
		<tag k="ssr:stedsnr" v="131528" />
	</node>
	<node id="-363208" lat="61.8882083373" lon="8.37861111327">
		<tag k="name" v="Brandsarbakken" />
		<tag k="place" v="farm" />
		<tag k="ssr:stedsnr" v="112711" />
	</node>
	<node id="-363207" lat="61.9079638884" lon="8.14827778062">
		<tag k="name" v="Søre Åbusmoen" />
		<tag k="place" v="farm" />
		<tag k="ssr:stedsnr" v="112105" />
	</node>
	<node id="-363199" lat="61.9109083299" lon="8.4680722238">
		<tag k="name" v="Døktahytta" />
		<tag k="place" v="isolated_dwelling" />
		<tag k="ssr:stedsnr" v="253895" />
	</node>
	<node id="-363198" lat="61.8943911408" lon="8.25058811883">
		<tag k="fixme" v="consider place=hamlet" />
		<tag k="name" v="Bruheim" />
		<tag k="place" v="farm" />
		<tag k="ssr:stedsnr" v="253886" />
	</node>
	<node id="-363197" lat="61.8871027772" lon="8.38189999403">
		<tag k="alt_name" v="Geilbakkjen" />
		<tag k="name" v="Geilbakken" />
		<tag k="place" v="farm" />
		<tag k="ssr:stedsnr" v="253879" />
	</node>
	<node id="-363196" lat="61.9039687042" lon="8.15496265147">
		<tag k="fixme" v="consider place=hamlet" />
		<tag k="name" v="Dagsgardsøygarden" />
		<tag k="place" v="farm" />
		<tag k="ssr:stedsnr" v="253839" />
	</node>
	<node id="-363195" lat="61.9018305587" lon="8.21869443574">
		<tag k="alt_name" v="Hyrve, nordre" />
		<tag k="name" v="Nørdre Hyrve" />
		<tag k="place" v="farm" />
		<tag k="ssr:stedsnr" v="253836" />
	</node>
	<node id="-363194" lat="61.8685162644" lon="8.45653858292">
		<tag k="alt_name" v="Prestjordede" />
		<tag k="fixme" v="consider place=hamlet" />
		<tag k="name" v="Prestjordet" />
		<tag k="place" v="farm" />
		<tag k="ssr:stedsnr" v="253816" />
	</node>
	<node id="-363191" lat="61.8721777796" lon="8.27192221786">
		<tag k="alt_name" v="Kvee" />
		<tag k="name" v="Kvei" />
		<tag k="place" v="farm" />
		<tag k="ssr:stedsnr" v="253785" />
	</node>
	<node id="-363190" lat="61.876841666" lon="8.25718055964">
		<tag k="fixme" v="multiple name tags, choose one and add the other to alt_name" />
		<tag k="name" v="Bjørkli;Systun Kvee" />
		<tag k="place" v="farm" />
		<tag k="ssr:stedsnr" v="253784" />
	</node>
	<node id="-363189" lat="61.8738061606" lon="8.28755940734">
		<tag k="alt_name" v="Tøfte" />
		<tag k="name" v="Tofte" />
		<tag k="place" v="hamlet" />
		<tag k="ssr:stedsnr" v="253782" />
	</node>
	<node id="-363188" lat="61.8772555553" lon="8.28404723163">
		<tag k="alt_name" v="Lund, nedre" />
		<tag k="name" v="Nedre Lund" />
		<tag k="place" v="farm" />
		<tag k="ssr:stedsnr" v="253779" />
	</node>
	<node id="-363187" lat="61.8752725847" lon="8.37024294693">
		<tag k="fixme" v="consider place=hamlet" />
		<tag k="name" v="Skjåk" />
		<tag k="place" v="farm" />
		<tag k="ssr:stedsnr" v="253775" />
	</node>
	<node id="-363186" lat="61.8764888864" lon="8.32073610995">
		<tag k="name" v="Arnestugu" />
		<tag k="place" v="farm" />
		<tag k="ssr:stedsnr" v="253774" />
	</node>
	<node id="-363178" lat="61.8895694422" lon="8.08103055651">
		<tag k="alt_name" v="Skjellan" />
		<tag k="historic" v="shieling" />
		<tag k="name" v="Skjellom" />
		<tag k="place" v="locality" />
		<tag k="ssr:stedsnr" v="253723" />
	</node>
	<node id="-363176" lat="61.8956861086" lon="7.89518332786">
		<tag k="alt_name" v="Kvassteinslettom" />
		<tag k="name" v="Slettom" />
		<tag k="place" v="farm" />
		<tag k="ssr:stedsnr" v="253717" />
	</node>
	<node id="-363174" lat="61.9922611075" lon="8.43326667492">
		<tag k="name" v="Storhøhytta" />
		<tag k="place" v="isolated_dwelling" />
		<tag k="ssr:stedsnr" v="253668" />
	</node>
	<node id="-363164" lat="61.8745611134" lon="8.48954166897">
		<tag k="name" v="Bosma" />
		<tag k="place" v="farm" />
		<tag k="ssr:stedsnr" v="253094" />
	</node>
	<node id="-363163" lat="61.908555552" lon="8.00234999644">
		<tag k="alt_name" v="Bue" />
		<tag k="name" v="Bui" />
		<tag k="place" v="farm" />
		<tag k="ssr:stedsnr" v="252669" />
	</node>
	<node id="-363160" lat="61.9192194485" lon="8.11187222279">
		<tag k="alt_name" v="Nørdre Kveom" />
		<tag k="name" v="Kveom" />
		<tag k="place" v="farm" />
		<tag k="ssr:stedsnr" v="252632" />
	</node>
	<node id="-363159" lat="61.9234694401" lon="8.11109166775">
		<tag k="alt_name" v="Lesplassen" />
		<tag k="name" v="Lessplassen" />
		<tag k="place" v="farm" />
		<tag k="ssr:stedsnr" v="252628" />
	</node>
	<node id="-363153" lat="61.9033030771" lon="7.60575434115">
		<tag k="fixme" v="consider tourism=alpine_hut or tourism=chalet" />
		<tag k="name" v="Skridulaupbu" />
		<tag k="ssr:stedsnr" v="252532" />
		<tag k="tourism" v="wilderness_hut" />
	</node>
	<node id="-363146" lat="61.9471416658" lon="7.99077499606">
		<tag k="alt_name" v="Heggebotn;Nørdre Heiggjebotn" />
		<tag k="name" v="Nørdre Heggjebotn" />
		<tag k="place" v="farm" />
		<tag k="ssr:stedsnr" v="252478" />
	</node>
	<node id="-363142" lat="61.9598749967" lon="7.89732777548">
		<tag k="fixme" v="consider tourism=alpine_hut or tourism=chalet" />
		<tag k="name" v="Pollfoss gjestehus" />
		<tag k="old_name" v="Pollfoss Turistheim;Pollfoss" />
		<tag k="ssr:stedsnr" v="252466" />
		<tag k="tourism" v="wilderness_hut" />
	</node>
	<node id="-363141" lat="61.8922777776" lon="8.24177500278">
		<tag k="name" v="Nystugu" />
		<tag k="place" v="farm" />
		<tag k="ssr:stedsnr" v="71834" />
	</node>
	<node id="-363140" lat="61.8685388902" lon="8.27696944788">
		<tag k="name" v="Asplund" />
		<tag k="place" v="farm" />
		<tag k="ssr:stedsnr" v="71827" />
	</node>
	<node id="-363139" lat="61.871216671" lon="8.42808611442">
		<tag k="alt_name" v="Maurstadhagen" />
		<tag k="name" v="Maurstadhaugen" />
		<tag k="place" v="farm" />
		<tag k="ssr:stedsnr" v="71824" />
	</node>
	<node id="-363129" lat="61.8809749964" lon="8.27789444991">
		<tag k="name" v="Bispen Camping" />
		<tag k="ssr:stedsnr" v="51752" />
		<tag k="tourism" v="camp_site" />
	</node>
	<node id="-363127" lat="61.8996444425" lon="8.19278055294">
		<tag k="name" v="Veltøygarden" />
		<tag k="place" v="farm" />
		<tag k="ssr:stedsnr" v="51051" />
	</node>
	<node id="-363126" lat="61.8755722265" lon="8.2769444494">
		<tag k="name" v="Horten" />
		<tag k="place" v="farm" />
		<tag k="ssr:stedsnr" v="51153" />
	</node>
	<node id="-363117" lat="61.8867527756" lon="8.31892499367">
		<tag k="name" v="Systun Holemork" />
		<tag k="place" v="farm" />
		<tag k="ssr:stedsnr" v="233773" />
	</node>
	<node id="-363116" lat="61.8811166664" lon="8.28768611262">
		<tag k="name" v="Toftemoen" />
		<tag k="place" v="isolated_dwelling" />
		<tag k="ssr:stedsnr" v="233753" />
	</node>
	<node id="-363115" lat="61.8795999956" lon="8.33088054853">
		<tag k="name" v="Brustugu" />
		<tag k="place" v="isolated_dwelling" />
		<tag k="ssr:stedsnr" v="233750" />
	</node>
	<node id="-363114" lat="61.8857194431" lon="8.36351388127">
		<tag k="name" v="Nurdgard Sperstad" />
		<tag k="place" v="farm" />
		<tag k="ssr:stedsnr" v="233735" />
	</node>
	<node id="-363109" lat="61.8754055543" lon="8.32336110354">
		<tag k="name" v="Nørdre Dalen" />
		<tag k="place" v="farm" />
		<tag k="ssr:stedsnr" v="233147" />
	</node>
	<node id="-363108" lat="61.8998957389" lon="8.18683189634">
		<tag k="fixme" v="consider place=hamlet" />
		<tag k="name" v="Grimstadøygarden" />
		<tag k="place" v="farm" />
		<tag k="ssr:stedsnr" v="233089" />
	</node>
	<node id="-363107" lat="61.9038361127" lon="8.15892777533">
		<tag k="name" v="Søre Dagsgardsøygarden" />
		<tag k="place" v="farm" />
		<tag k="ssr:stedsnr" v="233085" />
	</node>
	<node id="-363105" lat="61.8992555521" lon="8.21813889237">
		<tag k="amenity" v="school" />
		<tag k="name" v="Nordberg skule" />
		<tag k="ssr:stedsnr" v="233044" />
	</node>
	<node id="-363104" lat="61.8861388897" lon="8.44759443692">
		<tag k="name" v="Bøjetræede" />
		<tag k="place" v="isolated_dwelling" />
		<tag k="ssr:stedsnr" v="232544" />
	</node>
	<node id="-363102" lat="61.9215166625" lon="8.11651667446">
		<tag k="name" v="Randen" />
		<tag k="place" v="farm" />
		<tag k="ssr:stedsnr" v="232455" />
	</node>
	<node id="-363101" lat="61.9156249988" lon="8.0459972249">
		<tag k="alt_name" v="Uppnose tomteområde" />
		<tag k="name" v="Uppnose" />
		<tag k="place" v="quarter" />
		<tag k="ssr:stedsnr" v="232425" />
	</node>
	<node id="-363100" lat="61.9121416623" lon="7.93714443771">
		<tag k="name" v="Søre Gjerdede" />
		<tag k="place" v="locality" />
		<tag k="ssr:stedsnr" v="232268" />
	</node>
	<node id="-363099" lat="61.8743750007" lon="8.42782222693">
		<tag k="name" v="Hosarøygarden" />
		<tag k="place" v="farm" />
		<tag k="ssr:stedsnr" v="11806" />
	</node>
	<node id="-363098" lat="61.8757407933" lon="8.4323364568">
		<tag k="fixme" v="consider place=hamlet" />
		<tag k="name" v="Maurstad" />
		<tag k="place" v="farm" />
		<tag k="ssr:stedsnr" v="11802" />
	</node>
	<node id="-363089" lat="61.9032805579" lon="8.116088888">
		<tag k="alt_name" v="Storlie" />
		<tag k="name" v="Storlii" />
		<tag k="place" v="farm" />
		<tag k="ssr:stedsnr" v="10840" />
	</node>
	<node id="-363088" lat="61.8998833317" lon="8.22200833482">
		<tag k="alt_name" v="Hyrve, s;Hyrve, søre;Hyrve" />
		<tag k="name" v="Søre Hyrve" />
		<tag k="place" v="farm" />
		<tag k="ssr:stedsnr" v="10836" />
	</node>
	<node id="-363087" lat="61.9000415535" lon="8.23069458373">
		<tag k="alt_name" v="Kittilstad" />
		<tag k="name" v="Nurdstun Kitilstad" />
		<tag k="place" v="farm" />
		<tag k="ssr:stedsnr" v="10832" />
	</node>
	<node id="-363086" lat="61.8976445897" lon="8.2418025966">
		<tag k="fixme" v="consider place=hamlet" />
		<tag k="name" v="Flåten" />
		<tag k="place" v="farm" />
		<tag k="ssr:stedsnr" v="10828" />
	</node>
	<node id="-363085" lat="61.8726027763" lon="8.39705000456">
		<tag k="alt_name" v="Steinsgård" />
		<tag k="name" v="Steinsgard" />
		<tag k="place" v="farm" />
		<tag k="ssr:stedsnr" v="10821" />
	</node>
	<node id="-363084" lat="61.8712916708" lon="8.38731943617">
		<tag k="name" v="Jonsgard" />
		<tag k="place" v="farm" />
		<tag k="ssr:stedsnr" v="10818" />
	</node>
	<node id="-363080" lat="61.9154646298" lon="8.06759488625">
		<tag k="name" v="Åmot" />
		<tag k="place" v="hamlet" />
		<tag k="ssr:stedsnr" v="10553" />
	</node>
	<node id="-363079" lat="61.903955557" lon="7.860727773">
		<tag k="alt_name" v="Kvee" />
		<tag k="name" v="Kvei" />
		<tag k="place" v="farm" />
		<tag k="ssr:stedsnr" v="10549" />
	</node>
	<node id="-363078" lat="61.9134500042" lon="7.96460555226">
		<tag k="alt_name" v="Bråtåsagje" />
		<tag k="building" v="industrial" />
		<tag k="industrial" v="factory" />
		<tag k="name" v="Bråtåsagi" />
		<tag k="ssr:stedsnr" v="10539" />
	</node>
	<node id="-363077" lat="61.9472111146" lon="7.9111361151">
		<tag k="alt_name" v="Poyllen" />
		<tag k="historic" v="shieling" />
		<tag k="name" v="Pollsætri" />
		<tag k="place" v="locality" />
		<tag k="ssr:stedsnr" v="10535" />
	</node>
	<node id="-363072" lat="61.8721588584" lon="8.50455798555">
		<tag k="alt_name" v="Bakken" />
		<tag k="fixme" v="consider place=hamlet" />
		<tag k="name" v="Øvre Bakken" />
		<tag k="place" v="farm" />
		<tag k="ssr:stedsnr" v="10104" />
	</node>
</osm>
