<?xml version="1.0" encoding="UTF-8"?>
<<<<<<< HEAD
<osm version="0.6" generator="osmapis">
	<node lat="61.7663138883493" lon="7.700322214364512" id="-17438">
		<tag k="name" v="Steindalen" />
		<tag k="natural" v="valley" />
		<tag k="place" v="locality" />
		<tag k="ssr:stedsnr" v="10241" />
	</node>
	<node lat="61.74221111056162" lon="8.127269446616335" id="-17440">
		<tag k="fixme" v="consider natural=peak for the most distinct mountains in the district" />
		<tag k="name" v="Heksete" />
		<tag k="natural" v="hill" />
		<tag k="place" v="locality" />
		<tag k="ssr:stedsnr" v="10189" />
	</node>
	<node lat="61.928533329149154" lon="7.573474993232556" id="-17441">
		<tag k="fixme" v="consider natural=peak for the most distinct mountains in the district" />
		<tag k="name" v="Sandåtinden" />
		<tag k="natural" v="hill" />
		<tag k="place" v="locality" />
		<tag k="ssr:stedsnr" v="10601" />
	</node>
	<node lat="61.96668333314337" lon="7.713033337823502" id="-17442">
		<tag k="fixme" v="consider natural=peak for the most distinct mountains in the district" />
		<tag k="name" v="Huguvarden" />
		<tag k="natural" v="hill" />
		<tag k="place" v="locality" />
		<tag k="ssr:stedsnr" v="10607" />
	</node>
	<node lat="61.97651666416859" lon="8.049161103500614" id="-17445">
		<tag k="name" v="Brennhaugen" />
		<tag k="natural" v="hill" />
		<tag k="place" v="locality" />
		<tag k="ssr:stedsnr" v="10508" />
	</node>
	<node lat="61.90542777366883" lon="7.984158340405637" id="-17449">
		<tag k="alt_name" v="Bualie" />
		<tag k="name" v="Bualii" />
		<tag k="natural" v="slope" />
		<tag k="place" v="locality" />
		<tag k="ssr:stedsnr" v="10715" />
	</node>
	<node lat="61.8670388934066" lon="7.804100002767286" id="-17451">
		<tag k="name" v="Stordalen" />
		<tag k="natural" v="valley" />
		<tag k="place" v="locality" />
		<tag k="ssr:stedsnr" v="10731" />
	</node>
	<node lat="61.91036944349691" lon="8.421988896232092" id="-17456">
		<tag k="fixme" v="consider natural=peak for the most distinct mountains in the district" />
		<tag k="name" v="Hoggeberget" />
		<tag k="natural" v="hill" />
		<tag k="place" v="locality" />
		<tag k="ssr:stedsnr" v="10842" />
	</node>
	<node lat="61.89059167069209" lon="8.30482777414305" id="-17460">
		<tag k="alt_name" v="Holshåmmårn" />
		<tag k="name" v="Holshammaren" />
		<tag k="natural" v="hill" />
		<tag k="place" v="locality" />
		<tag k="ssr:stedsnr" v="10888" />
	</node>
	<node lat="61.76256944770703" lon="8.14176945264664" id="-17463">
		<tag k="fixme" v="consider natural=peak for the most distinct mountains in the district" />
		<tag k="name" v="Storberka" />
		<tag k="natural" v="hill" />
		<tag k="place" v="locality" />
		<tag k="ssr:stedsnr" v="10993" />
	</node>
	<node lat="62.02899722362013" lon="8.07612221501888" id="-17465">
		<tag k="fixme" v="consider natural=peak for the most distinct mountains in the district" />
		<tag k="name" v="Lorhogget" />
		<tag k="natural" v="hill" />
		<tag k="place" v="locality" />
		<tag k="ssr:stedsnr" v="11232" />
	</node>
	<node lat="61.898100000445986" lon="7.843252774014855" id="-17469">
		<tag k="name" v="Næpholet" />
		<tag k="natural" v="valley" />
		<tag k="place" v="locality" />
		<tag k="ssr:stedsnr" v="232316" />
	</node>
	<node lat="61.89612778110344" lon="7.84574165715162" id="-17484">
		<tag k="name" v="Tuvgjele" />
		<tag k="natural" v="gorge" />
		<tag k="ssr:stedsnr" v="50314" />
	</node>
	<node lat="61.92778610895811" lon="8.12508611916293" id="-17485">
		<tag k="alt_name" v="Jøingslie" />
		<tag k="name" v="Gjøingslie" />
		<tag k="natural" v="slope" />
		<tag k="place" v="locality" />
		<tag k="ssr:stedsnr" v="50472" />
	</node>
	<node lat="61.935805553371125" lon="8.358236113209669" id="-17486">
		<tag k="name" v="Krossen" />
		<tag k="natural" v="valley" />
		<tag k="place" v="locality" />
		<tag k="ssr:stedsnr" v="50474" />
	</node>
	<node lat="61.855297218273996" lon="8.226416665810229" id="-17487">
		<tag k="name" v="Strikviltdalen" />
		<tag k="natural" v="valley" />
		<tag k="old_name" v="Stikviltdalen" />
		<tag k="place" v="locality" />
		<tag k="ssr:stedsnr" v="51015" />
	</node>
	<node lat="61.90002778055072" lon="8.21155277780888" id="-17490">
		<tag k="name" v="Hyrvehaugen" />
		<tag k="natural" v="hill" />
		<tag k="place" v="locality" />
		<tag k="ssr:stedsnr" v="51080" />
	</node>
	<node lat="61.81955555704415" lon="8.225105561755518" id="-17492">
		<tag k="name" v="Svartkampen" />
		<tag k="natural" v="hill" />
		<tag k="place" v="locality" />
		<tag k="ssr:stedsnr" v="51273" />
	</node>
	<node lat="61.955850003730234" lon="7.840030561747497" id="-17496">
		<tag k="name" v="Bottlie" />
		<tag k="natural" v="slope" />
		<tag k="place" v="locality" />
		<tag k="ssr:stedsnr" v="51773" />
	</node>
	<node lat="61.85879444014691" lon="8.45709722175956" id="-17497">
		<tag k="name" v="Holberget" />
		<tag k="natural" v="hill" />
		<tag k="place" v="locality" />
		<tag k="ssr:stedsnr" v="66944" />
	</node>
	<node lat="61.993947220660694" lon="7.85905277522959" id="-17498">
		<tag k="name" v="Åslii" />
		<tag k="natural" v="slope" />
		<tag k="place" v="locality" />
		<tag k="ssr:stedsnr" v="70477" />
	</node>
	<node lat="61.77023611521991" lon="7.518266671640995" id="-17499">
		<tag k="name" v="Kupa" />
		<tag k="natural" v="valley" />
		<tag k="place" v="locality" />
		<tag k="ssr:stedsnr" v="70488" />
	</node>
	<node lat="61.93463055208995" lon="8.214552784727626" id="-17512">
		<tag k="fixme" v="consider natural=peak for the most distinct mountains in the district" />
		<tag k="name" v="Lykrehøe" />
		<tag k="natural" v="hill" />
		<tag k="place" v="locality" />
		<tag k="ssr:stedsnr" v="111386" />
	</node>
	<node lat="61.96988611026012" lon="8.020241667673282" id="-17523">
		<tag k="fixme" v="consider natural=peak for the most distinct mountains in the district" />
		<tag k="name" v="Grønnhøi" />
		<tag k="natural" v="hill" />
		<tag k="place" v="locality" />
		<tag k="ssr:stedsnr" v="252474" />
	</node>
	<node lat="61.9587388862715" lon="7.78069723160909" id="-17524">
		<tag k="alt_name" v="Haraldvendsflye" />
		<tag k="name" v="Haraldvendflyi" />
		<tag k="place" v="locality" />
		<tag k="ssr:stedsnr" v="252477" />
	</node>
	<node lat="61.944886108836236" lon="8.088436102279257" id="-17529">
		<tag k="alt_name" v="Jøingsdalen" />
		<tag k="name" v="Gjøingsdalen" />
		<tag k="natural" v="valley" />
		<tag k="place" v="locality" />
		<tag k="ssr:stedsnr" v="252495" />
	</node>
	<node lat="61.91232500222097" lon="7.793133324431286" id="-17530">
		<tag k="alt_name" v="Rauberget" />
		<tag k="name" v="Raudberget" />
		<tag k="natural" v="hill" />
		<tag k="place" v="locality" />
		<tag k="ssr:stedsnr" v="252512" />
	</node>
	<node lat="61.93200555604787" lon="7.517924994586474" id="-17532">
		<tag k="name" v="Mårådalen" />
		<tag k="natural" v="valley" />
		<tag k="place" v="locality" />
		<tag k="ssr:stedsnr" v="252539" />
	</node>
	<node lat="61.847586108312356" lon="7.709669442821263" id="-17533">
		<tag k="name" v="Stutarberget" />
		<tag k="natural" v="hill" />
		<tag k="place" v="locality" />
		<tag k="ssr:stedsnr" v="252557" />
	</node>
	<node lat="61.88540000068623" lon="7.698911115659861" id="-17534">
		<tag k="fixme" v="consider natural=peak for the most distinct mountains in the district" />
		<tag k="loc_name" v="Dyringshøe" />
		<tag k="name" v="Dyringshøi" />
		<tag k="natural" v="hill" />
		<tag k="place" v="locality" />
		<tag k="ssr:stedsnr" v="252566" />
	</node>
	<node lat="61.93715833486953" lon="8.434975003070887" id="-17535">
		<tag k="fixme" v="consider natural=peak for the most distinct mountains in the district" />
		<tag k="name" v="Horrungen" />
		<tag k="natural" v="hill" />
		<tag k="place" v="locality" />
		<tag k="ssr:stedsnr" v="252627" />
	</node>
	<node lat="61.96205277903655" lon="8.139891663812138" id="-17539">
		<tag k="fixme" v="consider natural=peak for the most distinct mountains in the district" />
		<tag k="name" v="Slettflykampen" />
		<tag k="natural" v="hill" />
		<tag k="place" v="locality" />
		<tag k="ssr:stedsnr" v="252602" />
	</node>
	<node lat="61.9287500018086" lon="8.229480557545964" id="-17545">
		<tag k="name" v="Vikhøi" />
		<tag k="natural" v="hill" />
		<tag k="place" v="locality" />
		<tag k="ssr:stedsnr" v="252638" />
	</node>
	<node lat="61.919152777218315" lon="8.229683324040705" id="-17546">
		<tag k="fixme" v="consider natural=peak for the most distinct mountains in the district" />
		<tag k="name" v="Hyrvehammaren" />
		<tag k="natural" v="hill" />
		<tag k="place" v="locality" />
		<tag k="ssr:stedsnr" v="252646" />
	</node>
	<node lat="61.93665000151799" lon="7.9303222153328905" id="-17548">
		<tag k="alt_name" v="Poyllkyrkja" />
		<tag k="name" v="Pollkyrkja" />
		<tag k="natural" v="hill" />
		<tag k="place" v="locality" />
		<tag k="ssr:stedsnr" v="131515" />
	</node>
	<node lat="62.102355553926834" lon="7.825580563950795" id="-17563">
		<tag k="loc_name" v="Tordsflyin;Torflyin" />
		<tag k="name" v="Torsflyene" />
		<tag k="place" v="locality" />
		<tag k="ssr:stedsnr" v="132183" />
	</node>
	<node lat="62.00249166503246" lon="8.218786109094498" id="-17569">
		<tag k="fixme" v="consider natural=peak for the most distinct mountains in the district" />
		<tag k="name" v="Såvårhaugen" />
		<tag k="natural" v="hill" />
		<tag k="place" v="locality" />
		<tag k="ssr:stedsnr" v="132982" />
	</node>
	<node lat="62.01236111466759" lon="7.705394437930687" id="-17571">
		<tag k="alt_name" v="Mosabakkane;Måsåbakkain" />
		<tag k="fixme" v="consider natural=peak for the most distinct mountains in the district" />
		<tag k="name" v="Måsåbakkan" />
		<tag k="natural" v="hill" />
		<tag k="place" v="locality" />
		<tag k="ssr:stedsnr" v="253161" />
	</node>
	<node lat="62.08789444550706" lon="7.872441674451671" id="-17574">
		<tag k="name" v="Langvasslågån" />
		<tag k="natural" v="valley" />
		<tag k="old_name" v="Langedalen" />
		<tag k="place" v="locality" />
		<tag k="ssr:stedsnr" v="253285" />
	</node>
	<node lat="61.77207777788955" lon="7.80490556036015" id="-17577">
		<tag k="name" v="Tundradalsbotnen" />
		<tag k="natural" v="valley" />
		<tag k="place" v="locality" />
		<tag k="ssr:stedsnr" v="253654" />
	</node>
	<node lat="61.83488333716648" lon="7.789247217414574" id="-17581">
		<tag k="name" v="Raudhaugen" />
		<tag k="natural" v="hill" />
		<tag k="place" v="locality" />
		<tag k="ssr:stedsnr" v="253763" />
	</node>
	<node lat="61.85228333663152" lon="8.3335500043715" id="-17582">
		<tag k="alt_name" v="Skriuhaugain" />
		<tag k="fixme" v="consider natural=peak for the most distinct mountains in the district" />
		<tag k="name" v="Skriduhaugan" />
		<tag k="natural" v="hill" />
		<tag k="place" v="locality" />
		<tag k="ssr:stedsnr" v="253801" />
	</node>
	<node lat="61.80595555574297" lon="8.202638887912796" id="-17588">
		<tag k="alt_name" v="Gjørja" />
		<tag k="name" v="Gjørva" />
		<tag k="natural" v="gorge" />
		<tag k="ssr:stedsnr" v="253942" />
	</node>
	<node lat="61.80206666941525" lon="8.182594438720034" id="-17589">
		<tag k="alt_name" v="Prestain" />
		<tag k="name" v="Prestan" />
		<tag k="natural" v="ridge" />
		<tag k="place" v="locality" />
		<tag k="ssr:stedsnr" v="253944" />
	</node>
	<node lat="61.82484444602482" lon="8.319452778530708" id="-17590">
		<tag k="name" v="Lendholet" />
		<tag k="natural" v="valley" />
		<tag k="place" v="locality" />
		<tag k="ssr:stedsnr" v="253955" />
	</node>
	<node lat="61.80846389070493" lon="8.268494438579177" id="-17591">
		<tag k="alt_name" v="Moyldurhøe;Moldurdhø" />
		<tag k="fixme" v="consider natural=peak for the most distinct mountains in the district" />
		<tag k="loc_name" v="Moldulhøe" />
		<tag k="name" v="Moldulhøi" />
		<tag k="natural" v="hill" />
		<tag k="place" v="locality" />
		<tag k="ssr:stedsnr" v="253971" />
	</node>
	<node lat="62.149036108999866" lon="7.985738888618973" id="-17592">
		<tag k="fixme" v="consider natural=peak for the most distinct mountains in the district" />
		<tag k="loc_name" v="Sponghøe" />
		<tag k="name" v="Sponghøi" />
		<tag k="natural" v="hill" />
		<tag k="place" v="locality" />
		<tag k="ssr:stedsnr" v="254189" />
	</node>
	<node lat="61.85736944412027" lon="8.282597213992291" id="-17600">
		<tag k="name" v="Gjele" />
		<tag k="natural" v="gorge" />
		<tag k="ssr:stedsnr" v="172157" />
	</node>
	<node lat="61.908225002953586" lon="7.819650006582591" id="-17601">
		<tag k="fixme" v="consider natural=peak for the most distinct mountains in the district" />
		<tag k="name" v="Nordråkhøe" />
		<tag k="natural" v="hill" />
		<tag k="place" v="locality" />
		<tag k="ssr:stedsnr" v="172363" />
	</node>
	<node lat="62.03262499839528" lon="7.883369447436074" id="-17609">
		<tag k="name" v="Svartknubben" />
		<tag k="natural" v="hill" />
		<tag k="place" v="locality" />
		<tag k="ssr:stedsnr" v="270561" />
	</node>
	<node lat="62.040105559886044" lon="7.870777786471837" id="-17610">
		<tag k="name" v="Sørfjellet" />
		<tag k="natural" v="hill" />
		<tag k="place" v="locality" />
		<tag k="ssr:stedsnr" v="270563" />
	</node>
	<node lat="61.85944999846408" lon="8.431108335962145" id="-17616">
		<tag k="name" v="Åndhøe" />
		<tag k="natural" v="hill" />
		<tag k="place" v="locality" />
		<tag k="ssr:stedsnr" v="233957" />
	</node>
	<node lat="61.76113333186582" lon="7.856016667290682" id="-17617">
		<tag k="alt_name" v="Gjelhøi, yt" />
		<tag k="fixme" v="consider natural=peak for the most distinct mountains in the district" />
		<tag k="name" v="Ytre Gjelhøi" />
		<tag k="natural" v="hill" />
		<tag k="place" v="locality" />
		<tag k="ssr:stedsnr" v="253436" />
	</node>
	<node lat="61.89343888677217" lon="7.801563892534351" id="-17618">
		<tag k="alt_name" v="Dyringslie" />
		<tag k="name" v="Dyringslii" />
		<tag k="natural" v="slope" />
		<tag k="place" v="locality" />
		<tag k="ssr:stedsnr" v="253716" />
	</node>
	<node lat="61.87413333304321" lon="7.953247217621501" id="-17623">
		<tag k="alt_name" v="Skautflye" />
		<tag k="name" v="Skautflyi" />
		<tag k="place" v="locality" />
		<tag k="ssr:stedsnr" v="253733" />
	</node>
	<node lat="61.821991669811844" lon="7.897863888802164" id="-17624">
		<tag k="name" v="Reskulan" />
		<tag k="natural" v="hill" />
		<tag k="place" v="locality" />
		<tag k="ssr:stedsnr" v="253750" />
	</node>
	<node lat="61.851958334090845" lon="8.255938888458795" id="-17631">
		<tag k="name" v="Rustan" />
		<tag k="natural" v="slope" />
		<tag k="place" v="locality" />
		<tag k="ssr:stedsnr" v="253806" />
	</node>
	<node lat="61.854427781276726" lon="8.448330558675954" id="-17638">
		<tag k="name" v="Sandådalen" />
		<tag k="natural" v="valley" />
		<tag k="place" v="locality" />
		<tag k="ssr:stedsnr" v="270981" />
	</node>
	<node lat="61.74290000128902" lon="7.8433388957207235" id="-17643">
		<tag k="alt_name" v="Holåtinden, vestre" />
		<tag k="fixme" v="consider natural=peak for the most distinct mountains in the district" />
		<tag k="name" v="Vestre Holåtinden" />
		<tag k="natural" v="hill" />
		<tag k="place" v="locality" />
		<tag k="ssr:stedsnr" v="313384" />
	</node>
	<node lat="61.76870277748403" lon="7.685988883124134" id="-17644">
		<tag k="name" v="Tverrådalen" />
		<tag k="natural" v="valley" />
		<tag k="place" v="locality" />
		<tag k="ssr:stedsnr" v="313505" />
	</node>
	<node lat="61.960333332491075" lon="7.915780557636226" id="-17645">
		<tag k="name" v="Billingsdalen" />
		<tag k="natural" v="valley" />
		<tag k="place" v="locality" />
		<tag k="ssr:stedsnr" v="313516" />
	</node>
	<node lat="61.96669722122729" lon="8.052938881218962" id="-17646">
		<tag k="alt_name" v="Heggjebottflye;Heggebottflyi, nedre" />
		<tag k="name" v="Nedre Heggebottflyi" />
		<tag k="natural" v="slope" />
		<tag k="place" v="locality" />
		<tag k="ssr:stedsnr" v="313522" />
	</node>
	<node lat="62.086624995911606" lon="7.494819453597202" id="-17652">
=======
<osm generator="osmapis" version="0.6">
	<node id="-364478" lat="62.0079197587" lon="8.59135871221">
		<tag k="fixme" v="consider natural=peak for the most distinct mountains in the district" />
		<tag k="name" v="Skardtind" />
		<tag k="natural" v="hill" />
		<tag k="place" v="locality" />
		<tag k="ssr:stedsnr" v="921975" />
	</node>
	<node id="-364474" lat="61.7437879574" lon="7.88457561305">
		<tag k="fixme" v="consider natural=peak for the most distinct mountains in the district" />
		<tag k="name" v="Holåtindan" />
		<tag k="natural" v="hill" />
		<tag k="place" v="locality" />
		<tag k="ssr:stedsnr" v="1072162" />
	</node>
	<node id="-364450" lat="61.9907472217" lon="7.66167778086">
		<tag k="fixme" v="consider natural=peak for the most distinct mountains in the district" />
		<tag k="name" v="Grotlivasshøe" />
		<tag k="natural" v="hill" />
		<tag k="place" v="locality" />
		<tag k="ssr:stedsnr" v="961895" />
	</node>
	<node id="-364446" lat="61.8242472257" lon="8.21676944442">
		<tag k="name" v="Ersbakkan" />
		<tag k="natural" v="slope" />
		<tag k="place" v="locality" />
		<tag k="ssr:stedsnr" v="961247" />
	</node>
	<node id="-364440" lat="61.9306944447" lon="7.89105833236">
		<tag k="fixme" v="consider natural=peak for the most distinct mountains in the district" />
		<tag k="name" v="Bråtåhøe" />
		<tag k="natural" v="hill" />
		<tag k="place" v="locality" />
		<tag k="ssr:stedsnr" v="960391" />
	</node>
	<node id="-364437" lat="62.1640972217" lon="7.77453888697">
		<tag k="loc_name" v="Kariløyfte" />
		<tag k="name" v="Kariløyfti" />
		<tag k="natural" v="valley" />
		<tag k="place" v="locality" />
		<tag k="ssr:stedsnr" v="861200" />
	</node>
	<node id="-364435" lat="62.012236107" lon="8.46981666233">
		<tag k="fixme" v="consider natural=peak for the most distinct mountains in the district" />
		<tag k="name" v="Storhøi" />
		<tag k="natural" v="hill" />
		<tag k="place" v="locality" />
		<tag k="ssr:stedsnr" v="860986" />
	</node>
	<node id="-364432" lat="61.8899472214" lon="8.44994166022">
		<tag k="name" v="Bøyelii" />
		<tag k="natural" v="slope" />
		<tag k="place" v="locality" />
		<tag k="ssr:stedsnr" v="860882" />
	</node>
	<node id="-364428" lat="61.8634722245" lon="8.04878888313">
		<tag k="alt_name" v="Skjellflye" />
		<tag k="name" v="Skjellflyi" />
		<tag k="natural" v="slope" />
		<tag k="place" v="locality" />
		<tag k="ssr:stedsnr" v="860748" />
	</node>
	<node id="-364427" lat="61.859327776" lon="7.85712500673">
		<tag k="loc_name" v="Kollungsflye" />
		<tag k="name" v="Kollungsflyi" />
		<tag k="place" v="locality" />
		<tag k="ssr:stedsnr" v="860747" />
	</node>
	<node id="-364426" lat="61.894691664" lon="7.77061110744">
		<tag k="alt_name" v="Snullern" />
		<tag k="name" v="Smulteren" />
		<tag k="natural" v="hill" />
		<tag k="place" v="locality" />
		<tag k="ssr:stedsnr" v="860726" />
	</node>
	<node id="-364425" lat="61.7709138849" lon="7.72842499987">
		<tag k="fixme" v="consider natural=peak for the most distinct mountains in the district" />
		<tag k="name" v="Veslfjellhaugan" />
		<tag k="natural" v="hill" />
		<tag k="place" v="locality" />
		<tag k="ssr:stedsnr" v="860683" />
	</node>
	<node id="-364420" lat="61.7306166691" lon="7.94265556058">
		<tag k="fixme" v="consider natural=peak for the most distinct mountains in the district" />
		<tag k="name" v="Vesldalstinden" />
		<tag k="natural" v="hill" />
		<tag k="place" v="locality" />
		<tag k="ssr:stedsnr" v="860463" />
	</node>
	<node id="-364419" lat="62.0304555531" lon="8.08181111904">
		<tag k="alt_name" v="Svarthaugen, nordre" />
		<tag k="name" v="Nørdre Svarthaugen" />
		<tag k="natural" v="hill" />
		<tag k="place" v="locality" />
		<tag k="ssr:stedsnr" v="860284" />
	</node>
	<node id="-364415" lat="61.9343444438" lon="8.40848611767">
		<tag k="name" v="Snog gjel" />
		<tag k="natural" v="valley" />
		<tag k="place" v="locality" />
		<tag k="ssr:stedsnr" v="859638" />
	</node>
	<node id="-364414" lat="61.9248111119" lon="8.20061110848">
		<tag k="alt_name" v="Tainnsæterkampen" />
		<tag k="fixme" v="consider natural=peak for the most distinct mountains in the district" />
		<tag k="name" v="Tannsæterkampen" />
		<tag k="natural" v="hill" />
		<tag k="place" v="locality" />
		<tag k="ssr:stedsnr" v="859636" />
	</node>
	<node id="-364411" lat="61.8809944443" lon="7.44095555922">
		<tag k="fixme" v="consider natural=peak for the most distinct mountains in the district" />
		<tag k="loc_name" v="Leirvasshøe" />
		<tag k="name" v="Leirvasshøi" />
		<tag k="natural" v="hill" />
		<tag k="place" v="locality" />
		<tag k="ssr:stedsnr" v="859589" />
	</node>
	<node id="-364403" lat="61.9098555581" lon="7.79979167143">
		<tag k="name" v="Rauberget" />
		<tag k="natural" v="hill" />
		<tag k="place" v="locality" />
		<tag k="ssr:stedsnr" v="840350" />
	</node>
	<node id="-364401" lat="61.8623305562" lon="7.99489444759">
		<tag k="name" v="Styggelie" />
		<tag k="natural" v="slope" />
		<tag k="place" v="locality" />
		<tag k="ssr:stedsnr" v="840299" />
	</node>
	<node id="-364400" lat="61.8617111104" lon="8.27811665743">
		<tag k="name" v="Flatmobakken" />
		<tag k="natural" v="slope" />
		<tag k="place" v="locality" />
		<tag k="ssr:stedsnr" v="840167" />
	</node>
	<node id="-364399" lat="61.8556777789" lon="8.27449167262">
		<tag k="name" v="Ramstadbakkjen" />
		<tag k="natural" v="slope" />
		<tag k="place" v="locality" />
		<tag k="ssr:stedsnr" v="840164" />
	</node>
	<node id="-364387" lat="61.9253583292" lon="8.25079445256">
		<tag k="fixme" v="consider natural=peak for the most distinct mountains in the district" />
		<tag k="name" v="Hyrvehøe" />
		<tag k="natural" v="hill" />
		<tag k="place" v="locality" />
		<tag k="ssr:stedsnr" v="839408" />
	</node>
	<node id="-364386" lat="61.9965722189" lon="7.50543611299">
		<tag k="loc_name" v="Vassvendeggi" />
		<tag k="name" v="Vassvendeggje" />
		<tag k="natural" v="hill" />
		<tag k="place" v="locality" />
		<tag k="ssr:stedsnr" v="814457" />
	</node>
	<node id="-364385" lat="61.787438885" lon="8.1350861076">
		<tag k="name" v="Grasgangan" />
		<tag k="place" v="locality" />
		<tag k="ssr:stedsnr" v="800950" />
	</node>
	<node id="-364384" lat="61.8037070285" lon="8.1952895875">
		<tag k="alt_name" v="Reset, ytste" />
		<tag k="name" v="Yste Reset" />
		<tag k="natural" v="ridge" />
		<tag k="place" v="locality" />
		<tag k="ssr:stedsnr" v="800941" />
	</node>
	<node id="-364382" lat="62.0021333313" lon="7.40890832694">
		<tag k="fixme" v="consider natural=peak for the most distinct mountains in the district" />
		<tag k="name" v="Holene" />
		<tag k="natural" v="hill" />
		<tag k="place" v="locality" />
		<tag k="ssr:stedsnr" v="800129" />
	</node>
	<node id="-364379" lat="62.1485194431" lon="7.78940556024">
		<tag k="fixme" v="consider natural=peak for the most distinct mountains in the district" />
		<tag k="loc_name" v="Veltdalseggje" />
		<tag k="name" v="Veltdalseggi" />
		<tag k="natural" v="hill" />
		<tag k="place" v="locality" />
		<tag k="ssr:stedsnr" v="800220" />
	</node>
	<node id="-364378" lat="62.1116500013" lon="7.68764999963">
		<tag k="name" v="Styggedalen" />
		<tag k="natural" v="valley" />
		<tag k="place" v="locality" />
		<tag k="ssr:stedsnr" v="800100" />
	</node>
	<node id="-364377" lat="61.8715416711" lon="7.79745832858">
		<tag k="alt_name" v="Jakupholet" />
		<tag k="name" v="Jakobsholet" />
		<tag k="natural" v="valley" />
		<tag k="place" v="locality" />
		<tag k="ssr:stedsnr" v="799752" />
	</node>
	<node id="-364375" lat="61.8901166695" lon="8.06109444933">
		<tag k="alt_name" v="Kvitingslie" />
		<tag k="name" v="Kvitingslii" />
		<tag k="natural" v="slope" />
		<tag k="place" v="locality" />
		<tag k="ssr:stedsnr" v="799734" />
	</node>
	<node id="-364374" lat="62.0530305577" lon="8.12431944096">
		<tag k="name" v="Skarvedalen" />
		<tag k="natural" v="valley" />
		<tag k="place" v="locality" />
		<tag k="ssr:stedsnr" v="799725" />
	</node>
	<node id="-364371" lat="61.9239527766" lon="8.33827500515">
		<tag k="name" v="Aurdalen" />
		<tag k="natural" v="valley" />
		<tag k="place" v="locality" />
		<tag k="ssr:stedsnr" v="799862" />
	</node>
	<node id="-364364" lat="61.9712666675" lon="7.81192500849">
		<tag k="name" v="Botn" />
		<tag k="natural" v="valley" />
		<tag k="place" v="locality" />
		<tag k="ssr:stedsnr" v="799543" />
	</node>
	<node id="-364360" lat="61.9182027813" lon="8.285124994">
		<tag k="fixme" v="consider natural=peak for the most distinct mountains in the district" />
		<tag k="name" v="Einingskampen" />
		<tag k="natural" v="hill" />
		<tag k="place" v="locality" />
		<tag k="ssr:stedsnr" v="799718" />
	</node>
	<node id="-364355" lat="62.0387527776" lon="7.44692500824">
		<tag k="alt_name" v="Kupa, s" />
		<tag k="name" v="Søre Kupa" />
		<tag k="natural" v="valley" />
		<tag k="place" v="locality" />
		<tag k="ssr:stedsnr" v="799164" />
	</node>
	<node id="-364350" lat="61.8799166628" lon="8.3033916721">
		<tag k="name" v="Lundahaugan" />
		<tag k="natural" v="hill" />
		<tag k="place" v="locality" />
		<tag k="ssr:stedsnr" v="779732" />
	</node>
	<node id="-364346" lat="61.8920305585" lon="8.45867221696">
		<tag k="name" v="Slettbakkan" />
		<tag k="natural" v="slope" />
		<tag k="place" v="locality" />
		<tag k="ssr:stedsnr" v="779604" />
	</node>
	<node id="-364343" lat="61.9510249976" lon="8.01516945388">
		<tag k="name" v="Heggjebottberget" />
		<tag k="natural" v="hill" />
		<tag k="place" v="locality" />
		<tag k="ssr:stedsnr" v="779282" />
	</node>
	<node id="-364342" lat="61.7926277777" lon="8.15761389671">
		<tag k="name" v="Kvilingain" />
		<tag k="place" v="locality" />
		<tag k="ssr:stedsnr" v="779212" />
	</node>
	<node id="-364337" lat="61.8713722267" lon="8.04061944873">
		<tag k="name" v="Skjellhaugain" />
		<tag k="natural" v="hill" />
		<tag k="place" v="locality" />
		<tag k="ssr:stedsnr" v="778437" />
	</node>
	<node id="-364335" lat="62.0782777779" lon="8.00357777596">
		<tag k="name" v="Blåberg" />
		<tag k="natural" v="hill" />
		<tag k="place" v="locality" />
		<tag k="ssr:stedsnr" v="756603" />
	</node>
	<node id="-364332" lat="61.8689333349" lon="8.35731389405">
		<tag k="name" v="Baksida" />
		<tag k="natural" v="slope" />
		<tag k="place" v="locality" />
		<tag k="ssr:stedsnr" v="739795" />
	</node>
	<node id="-364331" lat="61.8434305511" lon="8.160899995">
		<tag k="fixme" v="consider natural=peak for the most distinct mountains in the district" />
		<tag k="name" v="Dalåhøi" />
		<tag k="natural" v="hill" />
		<tag k="place" v="locality" />
		<tag k="ssr:stedsnr" v="739789" />
	</node>
	<node id="-364330" lat="61.8111111136" lon="8.22670000623">
		<tag k="fixme" v="consider natural=peak for the most distinct mountains in the district" />
		<tag k="name" v="Høgberget" />
		<tag k="natural" v="hill" />
		<tag k="place" v="locality" />
		<tag k="ssr:stedsnr" v="739944" />
	</node>
	<node id="-364329" lat="61.7831611137" lon="8.13986943912">
		<tag k="name" v="Kvilingan" />
		<tag k="natural" v="slope" />
		<tag k="place" v="locality" />
		<tag k="ssr:stedsnr" v="739935" />
	</node>
	<node id="-364327" lat="61.7817277767" lon="8.15031666556">
		<tag k="name" v="Kvilingskulan" />
		<tag k="natural" v="slope" />
		<tag k="place" v="locality" />
		<tag k="ssr:stedsnr" v="738957" />
	</node>
	<node id="-364323" lat="61.8949027814" lon="8.42429999362">
		<tag k="fixme" v="consider natural=peak for the most distinct mountains in the district" />
		<tag k="name" v="Ramstadberget" />
		<tag k="natural" v="hill" />
		<tag k="place" v="locality" />
		<tag k="ssr:stedsnr" v="738886" />
	</node>
	<node id="-364312" lat="61.8176527783" lon="7.78079721602">
		<tag k="alt_name" v="Solflye" />
		<tag k="name" v="Sotflyi" />
		<tag k="place" v="locality" />
		<tag k="ssr:stedsnr" v="738744" />
	</node>
	<node id="-364311" lat="61.8678277818" lon="7.78146111056">
		<tag k="name" v="Kleivberget" />
		<tag k="natural" v="hill" />
		<tag k="place" v="locality" />
		<tag k="ssr:stedsnr" v="738735" />
	</node>
	<node id="-364305" lat="61.9293555567" lon="8.0932833363">
		<tag k="alt_name" v="Slettbakkan" />
		<tag k="name" v="Slettebakken" />
		<tag k="natural" v="slope" />
		<tag k="place" v="locality" />
		<tag k="ssr:stedsnr" v="738680" />
	</node>
	<node id="-364303" lat="61.9593555592" lon="8.25982777454">
		<tag k="fixme" v="multiple name tags, choose one and add the other to alt_name; consider natural=peak for the most distinct mountains in the district" />
		<tag k="name" v="Aursjohøi;Skriduhøi" />
		<tag k="natural" v="hill" />
		<tag k="place" v="locality" />
		<tag k="ssr:stedsnr" v="738659" />
	</node>
	<node id="-364298" lat="61.8754444471" lon="7.49665833267">
		<tag k="name" v="Tverrbotnen" />
		<tag k="natural" v="valley" />
		<tag k="place" v="locality" />
		<tag k="ssr:stedsnr" v="738604" />
	</node>
	<node id="-364296" lat="61.976211109" lon="7.6892805611">
		<tag k="name" v="Blankåhaugan" />
		<tag k="natural" v="hill" />
		<tag k="place" v="locality" />
		<tag k="ssr:stedsnr" v="738577" />
	</node>
	<node id="-364290" lat="61.9649416652" lon="7.752583324">
		<tag k="fixme" v="consider natural=peak for the most distinct mountains in the district" />
		<tag k="name" v="Botthovden" />
		<tag k="natural" v="hill" />
		<tag k="place" v="locality" />
		<tag k="ssr:stedsnr" v="738514" />
	</node>
	<node id="-364285" lat="61.7698749992" lon="7.64039443798">
>>>>>>> e1d4bc35ff8a6074a6f2e91616a996b547c36f15
		<tag k="fixme" v="consider natural=peak for the most distinct mountains in the district" />
		<tag k="loc_name" v="Røykjeskålhøe" />
		<tag k="name" v="Røykeskålhøi" />
		<tag k="natural" v="hill" />
		<tag k="place" v="locality" />
		<tag k="ssr:stedsnr" v="738499" />
	</node>
<<<<<<< HEAD
	<node lat="62.04094999928286" lon="7.498686102997415" id="-17655">
		<tag k="fixme" v="consider natural=peak for the most distinct mountains in the district" />
		<tag k="name" v="Viahøi" />
		<tag k="natural" v="hill" />
		<tag k="place" v="locality" />
		<tag k="ssr:stedsnr" v="314174" />
	</node>
	<node lat="61.799716665407246" lon="8.188611120365481" id="-17657">
		<tag k="name" v="Pallan" />
		<tag k="natural" v="slope" />
		<tag k="place" v="locality" />
		<tag k="ssr:stedsnr" v="314918" />
	</node>
	<node lat="62.03158333623944" lon="7.771130559945816" id="-17659">
		<tag k="name" v="Raudberget" />
		<tag k="natural" v="hill" />
		<tag k="place" v="locality" />
		<tag k="ssr:stedsnr" v="331721" />
	</node>
	<node lat="61.918350001237854" lon="8.031099995690917" id="-17660">
		<tag k="name" v="Måne" />
		<tag k="natural" v="ridge" />
		<tag k="place" v="locality" />
		<tag k="ssr:stedsnr" v="353475" />
	</node>
	<node lat="61.87038610773027" lon="8.318183333220281" id="-17667">
		<tag k="name" v="Skjeillan" />
		<tag k="natural" v="slope" />
		<tag k="place" v="locality" />
		<tag k="ssr:stedsnr" v="475130" />
	</node>
	<node lat="61.79584444735334" lon="7.5971055468505435" id="-17671">
		<tag k="name" v="Tverreggje" />
		<tag k="place" v="locality" />
		<tag k="ssr:stedsnr" v="475357" />
	</node>
	<node lat="62.00380000267122" lon="7.715805554431872" id="-17676">
		<tag k="name" v="Heimdalen" />
		<tag k="natural" v="valley" />
		<tag k="place" v="locality" />
		<tag k="ssr:stedsnr" v="475879" />
	</node>
	<node lat="61.989608329326124" lon="7.733663885741569" id="-17679">
		<tag k="fixme" v="consider natural=peak for the most distinct mountains in the district" />
		<tag k="name" v="Løyftin" />
		<tag k="natural" v="hill" />
		<tag k="place" v="locality" />
		<tag k="ssr:stedsnr" v="373512" />
	</node>
	<node lat="62.09439166585263" lon="7.830886114512854" id="-17683">
		<tag k="name" v="Tverrådalen" />
		<tag k="natural" v="valley" />
		<tag k="place" v="locality" />
		<tag k="ssr:stedsnr" v="374212" />
	</node>
	<node lat="62.025258331034536" lon="7.439255552189078" id="-17685">
		<tag k="name" v="Breiddalen" />
		<tag k="natural" v="valley" />
		<tag k="place" v="locality" />
		<tag k="ssr:stedsnr" v="374713" />
	</node>
	<node lat="61.82781111508499" lon="7.912772226427055" id="-17686">
		<tag k="name" v="Skåpet" />
		<tag k="natural" v="hill" />
		<tag k="place" v="locality" />
		<tag k="ssr:stedsnr" v="374738" />
	</node>
	<node lat="62.16373055337539" lon="7.730552782753781" id="-17694">
		<tag k="loc_name" v="Veltløyfte" />
		<tag k="name" v="Viltløyfti" />
		<tag k="natural" v="valley" />
		<tag k="place" v="locality" />
		<tag k="ssr:stedsnr" v="375134" />
	</node>
	<node lat="61.93105278037088" lon="8.0332944425279" id="-17696">
		<tag k="name" v="Kleivholet" />
		<tag k="natural" v="valley" />
		<tag k="place" v="locality" />
		<tag k="ssr:stedsnr" v="414491" />
	</node>
	<node lat="61.933125000688406" lon="7.3888138803526395" id="-17702">
		<tag k="fixme" v="consider natural=peak for the most distinct mountains in the district" />
		<tag k="name" v="Kvitlenova" />
		<tag k="natural" v="hill" />
		<tag k="place" v="locality" />
		<tag k="ssr:stedsnr" v="434572" />
	</node>
	<node lat="61.76035851600986" lon="7.515747540378657" id="-17712">
		<tag k="fixme" v="consider natural=peak for the most distinct mountains in the district" />
		<tag k="name" v="Sprongeggi" />
=======
	<node id="-364282" lat="61.9897916625" lon="7.85491389044">
		<tag k="fixme" v="consider natural=peak for the most distinct mountains in the district" />
		<tag k="name" v="Åsen" />
		<tag k="natural" v="hill" />
		<tag k="place" v="locality" />
		<tag k="ssr:stedsnr" v="738484" />
	</node>
	<node id="-364281" lat="62.1315694462" lon="7.95483056129">
		<tag k="alt_name" v="Bolla, søre" />
		<tag k="fixme" v="consider natural=peak for the most distinct mountains in the district" />
		<tag k="name" v="Søre Bolla" />
		<tag k="natural" v="hill" />
		<tag k="place" v="locality" />
		<tag k="ssr:stedsnr" v="738208" />
	</node>
	<node id="-364279" lat="62.114883335" lon="7.78542222343">
		<tag k="name" v="Kupen" />
		<tag k="natural" v="valley" />
		<tag k="place" v="locality" />
		<tag k="ssr:stedsnr" v="738199" />
	</node>
	<node id="-364277" lat="61.7421111136" lon="8.10899999879">
		<tag k="fixme" v="consider natural=peak for the most distinct mountains in the district" />
		<tag k="name" v="Hestbreapiggan" />
		<tag k="natural" v="hill" />
		<tag k="place" v="locality" />
		<tag k="ssr:stedsnr" v="738179" />
	</node>
	<node id="-364270" lat="61.8897166689" lon="8.50945556018">
		<tag k="name" v="Ljomarberget" />
		<tag k="natural" v="hill" />
		<tag k="place" v="locality" />
		<tag k="ssr:stedsnr" v="617928" />
	</node>
	<node id="-364266" lat="61.8793000005" lon="8.20122777583">
		<tag k="alt_name" v="Flækøyhøe" />
		<tag k="fixme" v="consider natural=peak for the most distinct mountains in the district" />
		<tag k="name" v="Flekkøyhøi" />
		<tag k="natural" v="hill" />
		<tag k="place" v="locality" />
		<tag k="ssr:stedsnr" v="617860" />
	</node>
	<node id="-364264" lat="61.8423250009" lon="8.1105916742">
		<tag k="alt_name" v="Tverrfjell" />
		<tag k="fixme" v="consider natural=peak for the most distinct mountains in the district" />
		<tag k="name" v="Tverrfjellet" />
>>>>>>> e1d4bc35ff8a6074a6f2e91616a996b547c36f15
		<tag k="natural" v="hill" />
		<tag k="old_name" v="Sprongdalseggi" />
		<tag k="place" v="locality" />
<<<<<<< HEAD
		<tag k="ssr:stedsnr" v="435627" />
	</node>
	<node lat="61.761861109080435" lon="8.026516674252198" id="-17715">
		<tag k="name" v="Lundadalen" />
		<tag k="natural" v="valley" />
		<tag k="place" v="locality" />
		<tag k="ssr:stedsnr" v="435665" />
	</node>
	<node lat="61.81565277571582" lon="7.738111104175799" id="-17725">
		<tag k="alt_name" v="Puttbergje" />
		<tag k="name" v="Puttberget" />
		<tag k="natural" v="hill" />
		<tag k="place" v="locality" />
		<tag k="ssr:stedsnr" v="435760" />
	</node>
	<node lat="62.170730551794534" lon="7.795699998569978" id="-17733">
		<tag k="fixme" v="consider natural=peak for the most distinct mountains in the district" />
		<tag k="name" v="Litlefjell" />
		<tag k="natural" v="hill" />
		<tag k="place" v="locality" />
		<tag k="ssr:stedsnr" v="436206" />
	</node>
	<node lat="62.08496944561647" lon="8.035897231556175" id="-17735">
		<tag k="fixme" v="consider natural=peak for the most distinct mountains in the district" />
		<tag k="name" v="Blåhøe" />
		<tag k="natural" v="hill" />
		<tag k="place" v="locality" />
		<tag k="ssr:stedsnr" v="453607" />
	</node>
	<node lat="61.98469721972219" lon="7.911922228666548" id="-17743">
		<tag k="fixme" v="consider natural=peak for the most distinct mountains in the district" />
		<tag k="name" v="Synstålkyrkja" />
		<tag k="natural" v="hill" />
		<tag k="place" v="locality" />
		<tag k="ssr:stedsnr" v="677497" />
	</node>
	<node lat="61.97020000017544" lon="8.333308333512964" id="-17750">
		<tag k="fixme" v="consider natural=peak for the most distinct mountains in the district" />
		<tag k="name" v="Jehanshøi" />
		<tag k="natural" v="hill" />
		<tag k="place" v="locality" />
		<tag k="ssr:stedsnr" v="677646" />
	</node>
	<node lat="61.92450832900699" lon="8.44793056281378" id="-17752">
		<tag k="fixme" v="consider natural=peak for the most distinct mountains in the district" />
		<tag k="name" v="Nerhorrungen" />
		<tag k="natural" v="hill" />
		<tag k="place" v="locality" />
		<tag k="ssr:stedsnr" v="677663" />
	</node>
	<node lat="61.918605558737745" lon="8.401838891693624" id="-17754">
		<tag k="alt_name" v="Døkti, nordre;Nordre Døkti" />
		<tag k="name" v="Nørdre Døkti" />
		<tag k="natural" v="valley" />
		<tag k="place" v="locality" />
		<tag k="ssr:stedsnr" v="677671" />
	</node>
	<node lat="61.8793861101358" lon="7.902516668559239" id="-17755">
		<tag k="alt_name" v="Styggehøe" />
		<tag k="fixme" v="consider natural=peak for the most distinct mountains in the district" />
		<tag k="name" v="Styggehøi" />
		<tag k="natural" v="hill" />
		<tag k="place" v="locality" />
		<tag k="ssr:stedsnr" v="677708" />
	</node>
	<node lat="61.8881444403984" lon="8.487147229042597" id="-17762">
		<tag k="name" v="Høyvelta" />
		<tag k="place" v="locality" />
		<tag k="ssr:stedsnr" v="677949" />
	</node>
	<node lat="61.87928611122846" lon="8.320625005399592" id="-17763">
		<tag k="name" v="Turrmoen" />
		<tag k="place" v="locality" />
		<tag k="ssr:stedsnr" v="677852" />
	</node>
	<node lat="62.06675000201532" lon="7.615413882054787" id="-17765">
		<tag k="fixme" v="consider natural=peak for the most distinct mountains in the district" />
		<tag k="loc_name" v="Krosshøe" />
		<tag k="name" v="Krosshø" />
		<tag k="natural" v="hill" />
		<tag k="place" v="locality" />
		<tag k="ssr:stedsnr" v="678119" />
	</node>
	<node lat="62.04166388748449" lon="7.398505557239211" id="-17767">
		<tag k="fixme" v="consider natural=peak for the most distinct mountains in the district" />
		<tag k="loc_name" v="Breiddalseggje" />
		<tag k="name" v="Breiddalseggi" />
		<tag k="natural" v="hill" />
		<tag k="place" v="locality" />
		<tag k="ssr:stedsnr" v="678154" />
	</node>
	<node lat="61.84578888856433" lon="8.364733333700896" id="-17771">
		<tag k="loc_name" v="Hestflatane" />
		<tag k="name" v="Hestflotin" />
		<tag k="place" v="locality" />
		<tag k="ssr:stedsnr" v="678940" />
	</node>
	<node lat="61.978724998864436" lon="8.510600006158791" id="-17773">
		<tag k="fixme" v="consider natural=peak for the most distinct mountains in the district" />
		<tag k="name" v="Leirhøi" />
		<tag k="natural" v="hill" />
		<tag k="place" v="locality" />
		<tag k="ssr:stedsnr" v="678964" />
	</node>
	<node lat="62.0615444442119" lon="7.426066663955398" id="-17774">
		<tag k="fixme" v="consider natural=peak for the most distinct mountains in the district" />
		<tag k="name" v="Vianovi" />
		<tag k="natural" v="hill" />
		<tag k="place" v="locality" />
		<tag k="ssr:stedsnr" v="495125" />
	</node>
	<node lat="61.96217222362946" lon="8.012174995561532" id="-17775">
		<tag k="name" v="Grønbakkan" />
		<tag k="natural" v="slope" />
		<tag k="place" v="locality" />
		<tag k="ssr:stedsnr" v="495506" />
	</node>
	<node lat="61.93875277454984" lon="7.739500008497545" id="-17781">
		<tag k="fixme" v="consider natural=peak for the most distinct mountains in the district" />
		<tag k="name" v="Raudbergsløyfti" />
		<tag k="natural" v="hill" />
		<tag k="place" v="locality" />
		<tag k="ssr:stedsnr" v="495528" />
	</node>
	<node lat="61.9084361110637" lon="8.27166111710655" id="-17789">
		<tag k="fixme" v="consider natural=peak for the most distinct mountains in the district" />
		<tag k="name" v="Harsheimshammaren" />
		<tag k="natural" v="hill" />
		<tag k="place" v="locality" />
		<tag k="ssr:stedsnr" v="495855" />
	</node>
	<node lat="62.102138888052075" lon="7.984583324390381" id="-17792">
		<tag k="fixme" v="consider natural=peak for the most distinct mountains in the district" />
		<tag k="name" v="Dørkampen" />
		<tag k="natural" v="hill" />
		<tag k="place" v="locality" />
		<tag k="ssr:stedsnr" v="496202" />
	</node>
	<node lat="62.026047226735194" lon="8.133388889400138" id="-17795">
		<tag k="alt_name" v="Svarthaugen, s" />
		<tag k="name" v="Søre Svarthaugen" />
		<tag k="natural" v="hill" />
		<tag k="place" v="locality" />
		<tag k="ssr:stedsnr" v="496247" />
	</node>
	<node lat="61.79354999854452" lon="8.154863886632151" id="-17804">
		<tag k="name" v="Røysflatan" />
		<tag k="place" v="locality" />
		<tag k="ssr:stedsnr" v="496950" />
	</node>
	<node lat="61.98579444856226" lon="7.820416674247915" id="-17810">
		<tag k="name" v="Honnsrøve" />
		<tag k="natural" v="slope" />
		<tag k="place" v="locality" />
		<tag k="ssr:stedsnr" v="536869" />
	</node>
	<node lat="61.93597777622072" lon="7.962277777262145" id="-17814">
		<tag k="alt_name" v="Slirstrondlie" />
		<tag k="name" v="Slirstrondlii" />
		<tag k="natural" v="slope" />
		<tag k="place" v="locality" />
		<tag k="ssr:stedsnr" v="555479" />
	</node>
	<node lat="61.93834166920197" lon="7.812747215510674" id="-17815">
		<tag k="fixme" v="consider natural=peak for the most distinct mountains in the district" />
		<tag k="name" v="Framrustehovden" />
		<tag k="natural" v="hill" />
		<tag k="place" v="locality" />
		<tag k="ssr:stedsnr" v="555486" />
	</node>
	<node lat="61.973669448922145" lon="8.420563879350729" id="-17816">
		<tag k="name" v="Storflået" />
		<tag k="place" v="locality" />
		<tag k="ssr:stedsnr" v="555619" />
	</node>
	<node lat="61.967613890664545" lon="8.152513882922785" id="-17817">
		<tag k="fixme" v="consider natural=peak for the most distinct mountains in the district" />
		<tag k="name" v="Mjølahaugan" />
		<tag k="natural" v="hill" />
		<tag k="place" v="locality" />
		<tag k="ssr:stedsnr" v="555625" />
	</node>
	<node lat="62.148533337808175" lon="8.003080549731903" id="-17820">
		<tag k="name" v="Svartkollen" />
		<tag k="natural" v="hill" />
		<tag k="place" v="locality" />
		<tag k="ssr:stedsnr" v="556237" />
	</node>
	<node lat="61.78066111374466" lon="8.077413883920178" id="-17821">
		<tag k="name" v="Salhus" />
		<tag k="natural" v="slope" />
		<tag k="place" v="locality" />
		<tag k="ssr:stedsnr" v="556655" />
	</node>
	<node lat="61.75261666539284" lon="8.05113054976413" id="-17822">
		<tag k="fixme" v="consider natural=peak for the most distinct mountains in the district" />
		<tag k="name" v="Låven" />
		<tag k="natural" v="hill" />
		<tag k="place" v="locality" />
		<tag k="ssr:stedsnr" v="556660" />
	</node>
	<node lat="61.977605551852335" lon="8.195111103824738" id="-17823">
		<tag k="name" v="Mann i båten" />
		<tag k="place" v="locality" />
		<tag k="ssr:stedsnr" v="556670" />
	</node>
	<node lat="61.8875291617506" lon="8.49386279138134" id="-17827">
		<tag k="name" v="Ørnsteinberget" />
		<tag k="natural" v="hill" />
		<tag k="place" v="locality" />
		<tag k="ssr:stedsnr" v="556916" />
	</node>
	<node lat="61.84364722619044" lon="8.216547221148252" id="-17832">
		<tag k="name" v="Svaådalen" />
		<tag k="natural" v="valley" />
		<tag k="place" v="locality" />
		<tag k="ssr:stedsnr" v="597003" />
	</node>
	<node lat="61.84572221847235" lon="8.260172219060538" id="-17835">
		<tag k="name" v="Lundaruste" />
		<tag k="natural" v="slope" />
		<tag k="place" v="locality" />
		<tag k="ssr:stedsnr" v="597001" />
	</node>
	<node lat="61.89178055938976" lon="8.292783331144605" id="-17838">
		<tag k="name" v="Skåre" />
		<tag k="natural" v="valley" />
		<tag k="place" v="locality" />
		<tag k="ssr:stedsnr" v="597754" />
	</node>
	<node lat="61.86035833208132" lon="7.668875008651355" id="-17841">
		<tag k="name" v="Søverbandet" />
		<tag k="natural" v="valley" />
		<tag k="place" v="locality" />
		<tag k="ssr:stedsnr" v="616603" />
	</node>
	<node lat="61.89988333213571" lon="7.795225002134631" id="-17846">
		<tag k="name" v="Rundhaugen" />
		<tag k="natural" v="hill" />
		<tag k="place" v="locality" />
		<tag k="ssr:stedsnr" v="616700" />
	</node>
	<node lat="61.8196083348435" lon="7.486080548113688" id="-17849">
		<tag k="name" v="Jordet" />
		<tag k="place" v="locality" />
		<tag k="ssr:stedsnr" v="616591" />
	</node>
	<node lat="61.90768333385967" lon="8.031750004993368" id="-17850">
		<tag k="name" v="Brumellomlii" />
		<tag k="natural" v="slope" />
		<tag k="place" v="locality" />
		<tag k="ssr:stedsnr" v="616703" />
	</node>
	<node lat="61.80496388463841" lon="7.766213882132514" id="-17851">
		<tag k="alt_name" v="Vardhøe" />
		<tag k="name" v="Vardhøi" />
		<tag k="natural" v="hill" />
		<tag k="place" v="locality" />
		<tag k="ssr:stedsnr" v="616747" />
	</node>
	<node lat="61.794305551411234" lon="7.872816676073095" id="-17852">
		<tag k="name" v="Gjelåflaten" />
		<tag k="natural" v="slope" />
		<tag k="place" v="locality" />
		<tag k="ssr:stedsnr" v="616749" />
	</node>
	<node lat="62.06993888485529" lon="7.8131111191826905" id="-17856">
		<tag k="name" v="Torddalen" />
		<tag k="natural" v="valley" />
		<tag k="place" v="locality" />
		<tag k="ssr:stedsnr" v="617088" />
	</node>
	<node lat="61.842325000923" lon="8.11059167419737" id="-17857">
		<tag k="alt_name" v="Tverrfjell" />
		<tag k="fixme" v="consider natural=peak for the most distinct mountains in the district" />
		<tag k="name" v="Tverrfjellet" />
		<tag k="natural" v="hill" />
		<tag k="place" v="locality" />
		<tag k="ssr:stedsnr" v="617793" />
	</node>
	<node lat="61.88971666885172" lon="8.509455560183351" id="-17859">
		<tag k="name" v="Ljomarberget" />
		<tag k="natural" v="hill" />
		<tag k="place" v="locality" />
		<tag k="ssr:stedsnr" v="617928" />
	</node>
	<node lat="61.94279722216478" lon="7.832849996588238" id="-17867">
		<tag k="alt_name" v="Nordmannskrokain" />
		<tag k="name" v="Nordmannskrokan" />
		<tag k="natural" v="slope" />
		<tag k="place" v="locality" />
		<tag k="ssr:stedsnr" v="677506" />
	</node>
	<node lat="61.908030555258044" lon="8.34455833883823" id="-17878">
		<tag k="alt_name" v="Kvålheimslie" />
		<tag k="name" v="Kvålheimslii" />
		<tag k="natural" v="slope" />
		<tag k="place" v="locality" />
		<tag k="ssr:stedsnr" v="677837" />
	</node>
	<node lat="61.902716665657685" lon="8.497941664631533" id="-17884">
		<tag k="fixme" v="consider natural=peak for the most distinct mountains in the district" />
		<tag k="name" v="Ruphovden" />
		<tag k="natural" v="hill" />
		<tag k="place" v="locality" />
		<tag k="ssr:stedsnr" v="677941" />
	</node>
	<node lat="62.12177221908246" lon="7.983236111981678" id="-17886">
		<tag k="name" v="Storbotn" />
		<tag k="natural" v="valley" />
		<tag k="place" v="locality" />
		<tag k="ssr:stedsnr" v="678212" />
	</node>
	<node lat="62.14161110912382" lon="7.944838885449936" id="-17887">
		<tag k="name" v="Kvitbotn" />
		<tag k="natural" v="valley" />
		<tag k="place" v="locality" />
		<tag k="ssr:stedsnr" v="678226" />
	</node>
	<node lat="62.09364166776299" lon="7.957436113218168" id="-17889">
		<tag k="name" v="Dør" />
		<tag k="natural" v="valley" />
		<tag k="place" v="locality" />
		<tag k="ssr:stedsnr" v="678197" />
	</node>
	<node lat="61.91579722151902" lon="8.36189166768741" id="-17900">
		<tag k="name" v="Spildermillom" />
		<tag k="natural" v="slope" />
		<tag k="place" v="locality" />
		<tag k="ssr:stedsnr" v="718573" />
	</node>
	<node lat="61.85875556002713" lon="8.264336116175999" id="-17902">
		<tag k="name" v="Nose" />
		<tag k="place" v="locality" />
		<tag k="ssr:stedsnr" v="900184" />
	</node>
	<node lat="61.79510277660739" lon="8.156969440977347" id="-17903">
		<tag k="name" v="Steinflaten" />
		<tag k="place" v="locality" />
		<tag k="ssr:stedsnr" v="900242" />
	</node>
	<node lat="61.876911109489086" lon="8.391291675908564" id="-17907">
		<tag k="name" v="Ånstadøye" />
		<tag k="place" v="locality" />
		<tag k="ssr:stedsnr" v="900935" />
	</node>
	<node lat="62.131569446221896" lon="7.9548305612924555" id="-17912">
		<tag k="alt_name" v="Bolla, søre" />
		<tag k="fixme" v="consider natural=peak for the most distinct mountains in the district" />
		<tag k="name" v="Søre Bolla" />
		<tag k="natural" v="hill" />
		<tag k="place" v="locality" />
		<tag k="ssr:stedsnr" v="738208" />
	</node>
	<node lat="61.74211111360808" lon="8.10899999879167" id="-17913">
		<tag k="fixme" v="consider natural=peak for the most distinct mountains in the district" />
		<tag k="name" v="Hestbreapiggan" />
		<tag k="natural" v="hill" />
		<tag k="place" v="locality" />
		<tag k="ssr:stedsnr" v="738179" />
	</node>
	<node lat="61.87544444711677" lon="7.496658332668945" id="-17914">
		<tag k="name" v="Tverrbotnen" />
		<tag k="natural" v="valley" />
		<tag k="place" v="locality" />
		<tag k="ssr:stedsnr" v="738604" />
	</node>
	<node lat="61.96494166524895" lon="7.7525833240019635" id="-17921">
		<tag k="fixme" v="consider natural=peak for the most distinct mountains in the district" />
		<tag k="name" v="Botthovden" />
		<tag k="natural" v="hill" />
		<tag k="place" v="locality" />
		<tag k="ssr:stedsnr" v="738514" />
	</node>
	<node lat="61.7817277766903" lon="8.150316665558744" id="-17931">
		<tag k="name" v="Kvilingskulan" />
		<tag k="natural" v="slope" />
		<tag k="place" v="locality" />
		<tag k="ssr:stedsnr" v="738957" />
	</node>
	<node lat="61.86893333487035" lon="8.357313894048406" id="-17933">
		<tag k="name" v="Baksida" />
		<tag k="natural" v="slope" />
		<tag k="place" v="locality" />
		<tag k="ssr:stedsnr" v="739795" />
	</node>
	<node lat="61.81111111360394" lon="8.226700006231379" id="-17935">
		<tag k="fixme" v="consider natural=peak for the most distinct mountains in the district" />
		<tag k="name" v="Høgberget" />
=======
		<tag k="ssr:stedsnr" v="617793" />
	</node>
	<node id="-364262" lat="61.7877722205" lon="7.7497583274">
		<tag k="alt_name" v="Sothogget, s" />
		<tag k="name" v="Søre Sothogget" />
		<tag k="natural" v="valley" />
		<tag k="place" v="locality" />
		<tag k="ssr:stedsnr" v="617637" />
	</node>
	<node id="-364260" lat="62.0993999967" lon="7.68758610521">
		<tag k="fixme" v="consider natural=peak for the most distinct mountains in the district" />
		<tag k="loc_name" v="Vulueggje" />
		<tag k="name" v="Vulueggi" />
		<tag k="natural" v="hill" />
		<tag k="place" v="locality" />
		<tag k="ssr:stedsnr" v="617146" />
	</node>
	<node id="-364258" lat="62.0699388849" lon="7.81311111918">
		<tag k="name" v="Torddalen" />
		<tag k="natural" v="valley" />
		<tag k="place" v="locality" />
		<tag k="ssr:stedsnr" v="617088" />
	</node>
	<node id="-364251" lat="61.7943055514" lon="7.87281667607">
		<tag k="name" v="Gjelåflaten" />
		<tag k="natural" v="slope" />
		<tag k="place" v="locality" />
		<tag k="ssr:stedsnr" v="616749" />
	</node>
	<node id="-364250" lat="61.8049638846" lon="7.76621388213">
		<tag k="alt_name" v="Vardhøe" />
		<tag k="name" v="Vardhøi" />
		<tag k="natural" v="hill" />
		<tag k="place" v="locality" />
		<tag k="ssr:stedsnr" v="616747" />
	</node>
	<node id="-364246" lat="61.8998833321" lon="7.79522500213">
		<tag k="name" v="Rundhaugen" />
		<tag k="natural" v="hill" />
		<tag k="place" v="locality" />
		<tag k="ssr:stedsnr" v="616700" />
	</node>
	<node id="-364241" lat="61.9399277796" lon="8.16378055113">
		<tag k="fixme" v="consider natural=peak for the most distinct mountains in the district" />
		<tag k="loc_name" v="Grøhøe" />
		<tag k="name" v="Grønhøi" />
		<tag k="natural" v="hill" />
		<tag k="place" v="locality" />
		<tag k="ssr:stedsnr" v="616659" />
	</node>
	<node id="-364234" lat="61.7752611077" lon="7.60618889045">
		<tag k="name" v="Sumarkvila" />
		<tag k="natural" v="slope" />
		<tag k="place" v="locality" />
		<tag k="ssr:stedsnr" v="616496" />
	</node>
	<node id="-364228" lat="61.9297638922" lon="8.16471110354">
		<tag k="fixme" v="consider natural=peak for the most distinct mountains in the district" />
		<tag k="loc_name" v="Stågåhøskallen" />
		<tag k="name" v="Stokkhøskallen" />
		<tag k="natural" v="hill" />
		<tag k="place" v="locality" />
		<tag k="ssr:stedsnr" v="600642" />
	</node>
	<node id="-364226" lat="61.8917805594" lon="8.29278333114">
		<tag k="name" v="Skåre" />
		<tag k="natural" v="valley" />
		<tag k="place" v="locality" />
		<tag k="ssr:stedsnr" v="597754" />
	</node>
	<node id="-364222" lat="61.8832694405" lon="8.33363056277">
		<tag k="name" v="Aualehaugen" />
		<tag k="natural" v="hill" />
		<tag k="place" v="locality" />
		<tag k="ssr:stedsnr" v="597720" />
	</node>
	<node id="-364221" lat="61.859372218" lon="8.32953055684">
		<tag k="name" v="Rondhaugen" />
		<tag k="natural" v="hill" />
		<tag k="place" v="locality" />
		<tag k="ssr:stedsnr" v="597694" />
	</node>
	<node id="-364220" lat="61.863783336" lon="8.37842778352">
		<tag k="name" v="Røtede" />
		<tag k="natural" v="slope" />
		<tag k="place" v="locality" />
		<tag k="ssr:stedsnr" v="597693" />
	</node>
	<node id="-364216" lat="61.8667861085" lon="8.26487222188">
		<tag k="name" v="Orhaugpiggen" />
		<tag k="natural" v="hill" />
		<tag k="place" v="locality" />
		<tag k="ssr:stedsnr" v="597141" />
	</node>
	<node id="-364214" lat="61.8436472262" lon="8.21654722115">
		<tag k="name" v="Svaådalen" />
		<tag k="natural" v="valley" />
		<tag k="place" v="locality" />
		<tag k="ssr:stedsnr" v="597003" />
	</node>
	<node id="-364213" lat="61.8457222185" lon="8.26017221906">
		<tag k="name" v="Lundaruste" />
		<tag k="natural" v="slope" />
		<tag k="place" v="locality" />
		<tag k="ssr:stedsnr" v="597001" />
	</node>
	<node id="-364210" lat="61.9269111146" lon="8.0564361193">
		<tag k="name" v="Bukkeholet" />
		<tag k="natural" v="valley" />
		<tag k="place" v="locality" />
		<tag k="ssr:stedsnr" v="596472" />
	</node>
	<node id="-364205" lat="61.9121416674" lon="8.32754999133">
		<tag k="alt_name" v="Kvålheimsnose" />
		<tag k="fixme" v="consider natural=peak for the most distinct mountains in the district" />
		<tag k="name" v="Kvålheimsnosi" />
		<tag k="natural" v="hill" />
		<tag k="place" v="locality" />
		<tag k="ssr:stedsnr" v="556844" />
	</node>
	<node id="-364204" lat="61.7930666639" lon="7.80780834119">
		<tag k="name" v="Herbergsbakkan" />
		<tag k="natural" v="slope" />
		<tag k="place" v="locality" />
		<tag k="ssr:stedsnr" v="556649" />
	</node>
	<node id="-364203" lat="61.7977333354" lon="7.8264638963">
		<tag k="name" v="Haukberget" />
		<tag k="natural" v="hill" />
		<tag k="place" v="locality" />
		<tag k="ssr:stedsnr" v="556648" />
	</node>
	<node id="-364201" lat="61.8219777738" lon="8.04428888831">
		<tag k="loc_name" v="Grotådalen" />
		<tag k="name" v="Grjotådalen" />
		<tag k="natural" v="valley" />
		<tag k="place" v="locality" />
		<tag k="ssr:stedsnr" v="556748" />
	</node>
	<node id="-364198" lat="61.855455556" lon="7.9800916642">
		<tag k="name" v="Tundradalen" />
		<tag k="natural" v="valley" />
		<tag k="place" v="locality" />
		<tag k="ssr:stedsnr" v="556730" />
	</node>
	<node id="-364197" lat="61.9776055519" lon="8.19511110382">
		<tag k="name" v="Mann i båten" />
		<tag k="place" v="locality" />
		<tag k="ssr:stedsnr" v="556670" />
	</node>
	<node id="-364196" lat="61.7526166654" lon="8.05113054976">
		<tag k="fixme" v="consider natural=peak for the most distinct mountains in the district" />
		<tag k="name" v="Låven" />
		<tag k="natural" v="hill" />
		<tag k="place" v="locality" />
		<tag k="ssr:stedsnr" v="556660" />
	</node>
	<node id="-364195" lat="61.7491472261" lon="8.0857861097">
		<tag k="fixme" v="consider natural=peak for the most distinct mountains in the district" />
		<tag k="name" v="Nørdre Hestbreapiggen" />
		<tag k="natural" v="hill" />
		<tag k="place" v="locality" />
		<tag k="ssr:stedsnr" v="556445" />
	</node>
	<node id="-364194" lat="61.7387500036" lon="7.94074999223">
		<tag k="name" v="Vesldalen" />
		<tag k="natural" v="valley" />
		<tag k="place" v="locality" />
		<tag k="ssr:stedsnr" v="556444" />
	</node>
	<node id="-364193" lat="62.1485333378" lon="8.00308054973">
		<tag k="name" v="Svartkollen" />
		<tag k="natural" v="hill" />
		<tag k="place" v="locality" />
		<tag k="ssr:stedsnr" v="556237" />
	</node>
	<node id="-364191" lat="62.0323500006" lon="7.78966666151">
		<tag k="alt_name" v="Vetlefjellet" />
		<tag k="fixme" v="consider natural=peak for the most distinct mountains in the district" />
		<tag k="name" v="Veslefjell" />
		<tag k="natural" v="hill" />
		<tag k="place" v="locality" />
		<tag k="ssr:stedsnr" v="556284" />
	</node>
	<node id="-364185" lat="61.9330083295" lon="8.1044749915">
		<tag k="name" v="Tobbelihammaren" />
		<tag k="place" v="locality" />
		<tag k="ssr:stedsnr" v="555632" />
	</node>
	<node id="-364180" lat="61.9113361085" lon="7.47671111838">
		<tag k="fixme" v="consider natural=peak for the most distinct mountains in the district" />
		<tag k="name" v="Mårådalsfjellet" />
		<tag k="natural" v="hill" />
		<tag k="place" v="locality" />
		<tag k="ssr:stedsnr" v="555538" />
	</node>
	<node id="-364177" lat="61.9383416692" lon="7.81274721551">
		<tag k="fixme" v="consider natural=peak for the most distinct mountains in the district" />
		<tag k="name" v="Framrustehovden" />
		<tag k="natural" v="hill" />
		<tag k="place" v="locality" />
		<tag k="ssr:stedsnr" v="555486" />
	</node>
	<node id="-364176" lat="61.9359777762" lon="7.96227777726">
		<tag k="alt_name" v="Slirstrondlie" />
		<tag k="name" v="Slirstrondlii" />
		<tag k="natural" v="slope" />
		<tag k="place" v="locality" />
		<tag k="ssr:stedsnr" v="555479" />
	</node>
	<node id="-364174" lat="61.762019444" lon="7.58101944351">
		<tag k="fixme" v="consider natural=peak for the most distinct mountains in the district" />
		<tag k="loc_name" v="Syrtbyttnose" />
		<tag k="name" v="Syrtbyttnosi" />
		<tag k="natural" v="hill" />
		<tag k="place" v="locality" />
		<tag k="ssr:stedsnr" v="555461" />
	</node>
	<node id="-364173" lat="61.9676138907" lon="8.15251388292">
		<tag k="fixme" v="consider natural=peak for the most distinct mountains in the district" />
		<tag k="name" v="Mjølahaugan" />
		<tag k="natural" v="hill" />
		<tag k="place" v="locality" />
		<tag k="ssr:stedsnr" v="555625" />
	</node>
	<node id="-364172" lat="61.9736694489" lon="8.42056387935">
		<tag k="name" v="Storflået" />
		<tag k="place" v="locality" />
		<tag k="ssr:stedsnr" v="555619" />
	</node>
	<node id="-364170" lat="61.8058166684" lon="7.66241110621">
		<tag k="alt_name" v="Nove" />
		<tag k="fixme" v="consider natural=peak for the most distinct mountains in the district" />
		<tag k="name" v="Novi" />
		<tag k="natural" v="hill" />
		<tag k="place" v="locality" />
		<tag k="ssr:stedsnr" v="555575" />
	</node>
	<node id="-364167" lat="61.735211109" lon="7.57240832905">
		<tag k="fixme" v="consider natural=peak for the most distinct mountains in the district" />
		<tag k="name" v="Rivenoskulen" />
		<tag k="natural" v="hill" />
		<tag k="place" v="locality" />
		<tag k="ssr:stedsnr" v="555559" />
	</node>
	<node id="-364165" lat="61.7428130623" lon="7.86900013361">
		<tag k="alt_name" v="Holåtindan, midtre" />
		<tag k="fixme" v="consider natural=peak for the most distinct mountains in the district" />
		<tag k="name" v="Midtre Holåtinden" />
		<tag k="natural" v="hill" />
		<tag k="ssr:stedsnr" v="555322" />
	</node>
	<node id="-364164" lat="61.9857944486" lon="7.82041667425">
		<tag k="name" v="Honnsrøve" />
		<tag k="natural" v="slope" />
		<tag k="place" v="locality" />
		<tag k="ssr:stedsnr" v="536869" />
	</node>
	<node id="-364158" lat="61.9081777749" lon="8.35999444064">
		<tag k="name" v="Brattbakkjen" />
		<tag k="natural" v="slope" />
		<tag k="place" v="locality" />
		<tag k="ssr:stedsnr" v="536545" />
	</node>
	<node id="-364157" lat="61.9011611126" lon="8.35237222626">
		<tag k="name" v="Bukkeholet" />
		<tag k="natural" v="gorge" />
		<tag k="ssr:stedsnr" v="536544" />
	</node>
	<node id="-364156" lat="61.957311111" lon="7.98879445306">
		<tag k="name" v="Fosstuguhøe" />
		<tag k="natural" v="hill" />
		<tag k="place" v="locality" />
		<tag k="ssr:stedsnr" v="536273" />
	</node>
	<node id="-364149" lat="61.8885805573" lon="8.08510833847">
		<tag k="name" v="Herahaugen" />
		<tag k="natural" v="hill" />
		<tag k="place" v="locality" />
		<tag k="ssr:stedsnr" v="535435" />
	</node>
	<node id="-364142" lat="61.8071861151" lon="8.20270278314">
		<tag k="alt_name" v="Reset, heimaste" />
		<tag k="name" v="Heimaste Reset" />
		<tag k="natural" v="ridge" />
		<tag k="place" v="locality" />
		<tag k="ssr:stedsnr" v="436960" />
	</node>
	<node id="-364134" lat="61.8156527757" lon="7.73811110418">
		<tag k="alt_name" v="Puttbergje" />
		<tag k="name" v="Puttberget" />
		<tag k="natural" v="hill" />
		<tag k="place" v="locality" />
		<tag k="ssr:stedsnr" v="435760" />
	</node>
	<node id="-364130" lat="61.7618611091" lon="8.02651667425">
		<tag k="name" v="Lundadalen" />
		<tag k="natural" v="valley" />
		<tag k="place" v="locality" />
		<tag k="ssr:stedsnr" v="435665" />
	</node>
	<node id="-364125" lat="61.9278638847" lon="7.94180000154">
		<tag k="alt_name" v="Uppnose" />
		<tag k="fixme" v="consider natural=peak for the most distinct mountains in the district" />
		<tag k="name" v="Uppnosi" />
		<tag k="natural" v="hill" />
		<tag k="place" v="locality" />
		<tag k="ssr:stedsnr" v="435583" />
	</node>
	<node id="-364119" lat="61.9624333315" lon="7.71967500421">
		<tag k="fixme" v="consider natural=peak for the most distinct mountains in the district" />
		<tag k="name" v="Glitterhøi" />
		<tag k="natural" v="hill" />
		<tag k="place" v="locality" />
		<tag k="ssr:stedsnr" v="435556" />
	</node>
	<node id="-364118" lat="61.9714777778" lon="7.93669999428">
		<tag k="name" v="Geitådalen" />
		<tag k="natural" v="valley" />
		<tag k="place" v="locality" />
		<tag k="ssr:stedsnr" v="435555" />
	</node>
	<node id="-364115" lat="61.9838916635" lon="7.89883610747">
		<tag k="alt_name" v="Langlie" />
		<tag k="loc_name" v="Langslie" />
		<tag k="name" v="Langslii" />
		<tag k="natural" v="slope" />
		<tag k="place" v="locality" />
		<tag k="ssr:stedsnr" v="435529" />
	</node>
	<node id="-364113" lat="61.7952916672" lon="7.48997499202">
		<tag k="fixme" v="consider natural=peak for the most distinct mountains in the district" />
		<tag k="loc_name" v="Tverreggje" />
		<tag k="name" v="Tverreggi" />
		<tag k="natural" v="hill" />
		<tag k="place" v="locality" />
		<tag k="ssr:stedsnr" v="435645" />
	</node>
	<node id="-364112" lat="61.784058331" lon="7.55558055291">
		<tag k="name" v="Bjørnaruste" />
		<tag k="natural" v="slope" />
		<tag k="place" v="locality" />
		<tag k="ssr:stedsnr" v="435637" />
	</node>
	<node id="-364111" lat="61.760358516" lon="7.51574754038">
		<tag k="fixme" v="consider natural=peak for the most distinct mountains in the district" />
		<tag k="name" v="Sprongeggi" />
>>>>>>> e1d4bc35ff8a6074a6f2e91616a996b547c36f15
		<tag k="natural" v="hill" />
		<tag k="old_name" v="Sprongdalseggi" />
		<tag k="place" v="locality" />
<<<<<<< HEAD
		<tag k="ssr:stedsnr" v="739944" />
	</node>
	<node lat="61.82179999743304" lon="8.255094453103096" id="-17936">
		<tag k="fixme" v="consider natural=peak for the most distinct mountains in the district" />
		<tag k="name" v="Knarten" />
		<tag k="natural" v="hill" />
		<tag k="place" v="locality" />
		<tag k="ssr:stedsnr" v="739953" />
	</node>
	<node lat="62.078277777877" lon="8.003577775961551" id="-17938">
		<tag k="name" v="Blåberg" />
		<tag k="natural" v="hill" />
		<tag k="place" v="locality" />
		<tag k="ssr:stedsnr" v="756603" />
	</node>
	<node lat="61.79262777774212" lon="8.157613896713059" id="-17942">
		<tag k="name" v="Kvilingain" />
		<tag k="place" v="locality" />
		<tag k="ssr:stedsnr" v="779212" />
	</node>
	<node lat="61.89203055851617" lon="8.458672216964404" id="-17943">
		<tag k="name" v="Slettbakkan" />
		<tag k="natural" v="slope" />
		<tag k="place" v="locality" />
		<tag k="ssr:stedsnr" v="779604" />
	</node>
	<node lat="61.944608328785584" lon="7.5564083240906985" id="-17948">
		<tag k="fixme" v="consider natural=peak for the most distinct mountains in the district" />
		<tag k="name" v="Mårådalsbenken" />
		<tag k="natural" v="hill" />
		<tag k="place" v="locality" />
		<tag k="ssr:stedsnr" v="798557" />
	</node>
	<node lat="61.74336062875132" lon="8.066978210462807" id="-17951">
		<tag k="name" v="Grautfatet" />
		<tag k="natural" v="valley" />
		<tag k="place" v="locality" />
		<tag k="ssr:stedsnr" v="799403" />
	</node>
	<node lat="61.971266667518286" lon="7.81192500848651" id="-17953">
		<tag k="name" v="Botn" />
		<tag k="natural" v="valley" />
		<tag k="place" v="locality" />
		<tag k="ssr:stedsnr" v="799543" />
	</node>
	<node lat="61.91820278133953" lon="8.28512499400192" id="-17956">
		<tag k="fixme" v="consider natural=peak for the most distinct mountains in the district" />
		<tag k="name" v="Einingskampen" />
		<tag k="natural" v="hill" />
		<tag k="place" v="locality" />
		<tag k="ssr:stedsnr" v="799718" />
	</node>
	<node lat="62.05303055773434" lon="8.124319440964888" id="-17958">
		<tag k="name" v="Skarvedalen" />
		<tag k="natural" v="valley" />
		<tag k="place" v="locality" />
		<tag k="ssr:stedsnr" v="799725" />
	</node>
	<node lat="61.89011666952352" lon="8.061094449332227" id="-17959">
		<tag k="alt_name" v="Kvitingslie" />
		<tag k="name" v="Kvitingslii" />
		<tag k="natural" v="slope" />
		<tag k="place" v="locality" />
		<tag k="ssr:stedsnr" v="799734" />
	</node>
	<node lat="61.87154167111658" lon="7.797458328583351" id="-17961">
		<tag k="alt_name" v="Jakupholet" />
		<tag k="name" v="Jakobsholet" />
		<tag k="natural" v="valley" />
		<tag k="place" v="locality" />
		<tag k="ssr:stedsnr" v="799752" />
	</node>
	<node lat="61.860027779298605" lon="8.130249999832884" id="-17972">
		<tag k="fixme" v="consider natural=peak for the most distinct mountains in the district" />
		<tag k="name" v="Gjuvkampen" />
		<tag k="natural" v="hill" />
		<tag k="place" v="locality" />
		<tag k="ssr:stedsnr" v="800778" />
	</node>
	<node lat="61.996572218854276" lon="7.5054361129896945" id="-17973">
		<tag k="loc_name" v="Vassvendeggi" />
		<tag k="name" v="Vassvendeggje" />
		<tag k="natural" v="hill" />
		<tag k="place" v="locality" />
		<tag k="ssr:stedsnr" v="814457" />
	</node>
	<node lat="62.026433333533944" lon="7.840136119436564" id="-17974">
		<tag k="name" v="Ljomaren" />
		<tag k="natural" v="ridge" />
		<tag k="place" v="locality" />
		<tag k="ssr:stedsnr" v="816603" />
	</node>
	<node lat="61.9032999998521" lon="8.248163889503775" id="-17976">
		<tag k="name" v="Harsheimlii" />
		<tag k="natural" v="slope" />
		<tag k="place" v="locality" />
		<tag k="ssr:stedsnr" v="920831" />
	</node>
	<node lat="61.947105556279894" lon="8.06972778675381" id="-17978">
		<tag k="alt_name" v="Heggebotthovden" />
		<tag k="fixme" v="consider natural=peak for the most distinct mountains in the district" />
		<tag k="name" v="Heggjebotthovden" />
		<tag k="natural" v="hill" />
		<tag k="place" v="locality" />
		<tag k="ssr:stedsnr" v="920529" />
	</node>
	<node lat="61.99461944508604" lon="8.321644439899664" id="-17982">
		<tag k="fixme" v="consider natural=peak for the most distinct mountains in the district" />
		<tag k="name" v="Steinkollen" />
		<tag k="natural" v="hill" />
		<tag k="place" v="locality" />
		<tag k="ssr:stedsnr" v="920647" />
	</node>
	<node lat="61.94662500338976" lon="8.3673277823963" id="-17983">
		<tag k="name" v="Sandranden" />
		<tag k="natural" v="ridge" />
		<tag k="place" v="locality" />
		<tag k="ssr:stedsnr" v="920659" />
	</node>
	<node lat="61.88800277851509" lon="8.05989999245633" id="-17986">
		<tag k="name" v="Brennranden" />
		<tag k="natural" v="slope" />
		<tag k="place" v="locality" />
		<tag k="ssr:stedsnr" v="920716" />
	</node>
	<node lat="61.87284166469254" lon="8.227255546891591" id="-17991">
		<tag k="name" v="Kvernberget" />
		<tag k="natural" v="slope" />
		<tag k="place" v="locality" />
		<tag k="ssr:stedsnr" v="920771" />
	</node>
	<node lat="61.794702773830736" lon="8.246211119224876" id="-18002">
		<tag k="name" v="Sandgrovskardet" />
		<tag k="natural" v="valley" />
		<tag k="place" v="locality" />
		<tag k="ssr:stedsnr" v="921946" />
	</node>
	<node lat="62.00070833410288" lon="8.390669435173848" id="-18005">
		<tag k="fixme" v="consider natural=peak for the most distinct mountains in the district" />
		<tag k="name" v="Fellinghøi" />
		<tag k="natural" v="hill" />
		<tag k="place" v="locality" />
		<tag k="ssr:stedsnr" v="921973" />
	</node>
	<node lat="61.92535832916729" lon="8.250794452555041" id="-18006">
		<tag k="fixme" v="consider natural=peak for the most distinct mountains in the district" />
		<tag k="name" v="Hyrvehøe" />
		<tag k="natural" v="hill" />
		<tag k="place" v="locality" />
		<tag k="ssr:stedsnr" v="839408" />
	</node>
	<node lat="61.9462777776731" lon="8.018024991501717" id="-18014">
		<tag k="alt_name" v="Heggjebottlie" />
		<tag k="name" v="Heggebottlii" />
		<tag k="natural" v="slope" />
		<tag k="place" v="locality" />
		<tag k="ssr:stedsnr" v="859508" />
	</node>
	<node lat="61.756050000665795" lon="7.600313892979057" id="-18016">
		<tag k="name" v="Sumarkvilholet" />
		<tag k="natural" v="valley" />
		<tag k="place" v="locality" />
		<tag k="ssr:stedsnr" v="859471" />
	</node>
	<node lat="61.96416111123451" lon="8.405430549224643" id="-18020">
		<tag k="name" v="Styggeværskvila" />
		<tag k="place" v="locality" />
		<tag k="ssr:stedsnr" v="859628" />
	</node>
	<node lat="61.730616669146094" lon="7.942655560583748" id="-18024">
		<tag k="fixme" v="consider natural=peak for the most distinct mountains in the district" />
		<tag k="name" v="Vesldalstinden" />
		<tag k="natural" v="hill" />
		<tag k="place" v="locality" />
		<tag k="ssr:stedsnr" v="860463" />
	</node>
	<node lat="61.79607778206431" lon="8.069838893645674" id="-18025">
		<tag k="fixme" v="consider natural=peak for the most distinct mountains in the district" />
		<tag k="name" v="Salhusfjellet" />
		<tag k="natural" v="hill" />
		<tag k="place" v="locality" />
		<tag k="ssr:stedsnr" v="860678" />
	</node>
	<node lat="61.85624166755435" lon="8.278049996290479" id="-18026">
		<tag k="name" v="Flatmoen" />
		<tag k="place" v="locality" />
		<tag k="ssr:stedsnr" v="860804" />
	</node>
	<node lat="61.907241664611476" lon="8.379352785712232" id="-18028">
		<tag k="alt_name" v="Bøverhaugain" />
		<tag k="name" v="Bøverhaugan" />
		<tag k="natural" v="hill" />
		<tag k="place" v="locality" />
		<tag k="ssr:stedsnr" v="860858" />
	</node>
	<node lat="61.905613889906604" lon="8.286308330952414" id="-18029">
		<tag k="fixme" v="consider natural=peak for the most distinct mountains in the district" />
		<tag k="name" v="Skamsarkampen" />
		<tag k="natural" v="hill" />
		<tag k="place" v="locality" />
		<tag k="ssr:stedsnr" v="860863" />
	</node>
	<node lat="61.81720277948275" lon="7.730986111494414" id="-18033">
		<tag k="name" v="Putten" />
		<tag k="natural" v="slope" />
		<tag k="place" v="locality" />
		<tag k="ssr:stedsnr" v="860764" />
	</node>
	<node lat="61.83617221842096" lon="8.072766663673915" id="-18034">
		<tag k="fixme" v="consider natural=peak for the most distinct mountains in the district" />
		<tag k="loc_name" v="Grothøe" />
		<tag k="name" v="Grjothøi" />
		<tag k="natural" v="hill" />
		<tag k="place" v="locality" />
		<tag k="ssr:stedsnr" v="860767" />
	</node>
	<node lat="61.91708611066084" lon="8.038688883756304" id="-18046">
=======
		<tag k="ssr:stedsnr" v="435627" />
	</node>
	<node id="-364107" lat="62.0974583357" lon="7.51389999645">
		<tag k="alt_name" v="Hellstugueggi" />
		<tag k="fixme" v="consider natural=peak for the most distinct mountains in the district" />
		<tag k="loc_name" v="Helleggje" />
		<tag k="name" v="Helleggi" />
		<tag k="natural" v="hill" />
		<tag k="place" v="locality" />
		<tag k="ssr:stedsnr" v="435157" />
	</node>
	<node id="-364106" lat="62.1327694468" lon="7.89413333322">
		<tag k="alt_name" v="Bolla, nordre" />
		<tag k="fixme" v="consider natural=peak for the most distinct mountains in the district" />
		<tag k="name" v="Nørdre Bolla" />
		<tag k="natural" v="hill" />
		<tag k="place" v="locality" />
		<tag k="ssr:stedsnr" v="435240" />
	</node>
	<node id="-364104" lat="62.1001583328" lon="7.81545277841">
		<tag k="fixme" v="consider natural=peak for the most distinct mountains in the district" />
		<tag k="loc_name" v="Brune" />
		<tag k="name" v="Bruni" />
		<tag k="natural" v="hill" />
		<tag k="place" v="locality" />
		<tag k="ssr:stedsnr" v="435229" />
	</node>
	<node id="-364100" lat="61.9331250007" lon="7.38881388035">
		<tag k="fixme" v="consider natural=peak for the most distinct mountains in the district" />
		<tag k="name" v="Kvitlenova" />
		<tag k="natural" v="hill" />
		<tag k="place" v="locality" />
		<tag k="ssr:stedsnr" v="434572" />
	</node>
	<node id="-364089" lat="61.8828805572" lon="8.35199722417">
		<tag k="name" v="Aurmoen" />
		<tag k="place" v="locality" />
		<tag k="ssr:stedsnr" v="415591" />
	</node>
	<node id="-364085" lat="61.9043972224" lon="8.17983055048">
		<tag k="name" v="Spelmainnshaugen" />
		<tag k="natural" v="hill" />
		<tag k="place" v="locality" />
		<tag k="ssr:stedsnr" v="415075" />
	</node>
	<node id="-364082" lat="61.9974027797" lon="7.7898972229">
		<tag k="name" v="Løyften" />
		<tag k="natural" v="hill" />
		<tag k="place" v="locality" />
		<tag k="ssr:stedsnr" v="414859" />
	</node>
	<node id="-364080" lat="61.9098583367" lon="8.30121388729">
		<tag k="name" v="Einingskampan" />
		<tag k="natural" v="hill" />
		<tag k="place" v="locality" />
		<tag k="ssr:stedsnr" v="414540" />
	</node>
	<node id="-364078" lat="61.9310527804" lon="8.03329444253">
		<tag k="name" v="Kleivholet" />
		<tag k="natural" v="valley" />
		<tag k="place" v="locality" />
		<tag k="ssr:stedsnr" v="414491" />
	</node>
	<node id="-364070" lat="61.8190250035" lon="8.36677222992">
		<tag k="fixme" v="consider natural=peak for the most distinct mountains in the district" />
		<tag k="name" v="Storivilen" />
		<tag k="natural" v="hill" />
		<tag k="place" v="locality" />
		<tag k="ssr:stedsnr" v="375950" />
	</node>
	<node id="-364069" lat="61.832413885" lon="8.37839722279">
		<tag k="fixme" v="consider natural=peak for the most distinct mountains in the district" />
		<tag k="name" v="Frelsareggi" />
		<tag k="natural" v="hill" />
		<tag k="place" v="locality" />
		<tag k="ssr:stedsnr" v="375938" />
	</node>
	<node id="-364068" lat="61.8247416667" lon="8.24659444286">
		<tag k="fixme" v="consider natural=peak for the most distinct mountains in the district" />
		<tag k="name" v="Svarthamran" />
		<tag k="natural" v="hill" />
		<tag k="place" v="locality" />
		<tag k="ssr:stedsnr" v="375956" />
	</node>
	<node id="-364067" lat="62.1637305534" lon="7.73055278275">
		<tag k="loc_name" v="Veltløyfte" />
		<tag k="name" v="Viltløyfti" />
		<tag k="natural" v="valley" />
		<tag k="place" v="locality" />
		<tag k="ssr:stedsnr" v="375134" />
	</node>
	<node id="-364060" lat="61.8278111151" lon="7.91277222643">
		<tag k="name" v="Skåpet" />
		<tag k="natural" v="hill" />
		<tag k="place" v="locality" />
		<tag k="ssr:stedsnr" v="374738" />
	</node>
	<node id="-364055" lat="61.9936361104" lon="8.37948611615">
		<tag k="fixme" v="consider natural=peak for the most distinct mountains in the district" />
		<tag k="loc_name" v="Fellingshøe" />
		<tag k="name" v="Fellingshøi" />
		<tag k="natural" v="hill" />
		<tag k="place" v="locality" />
		<tag k="ssr:stedsnr" v="374633" />
	</node>
	<node id="-364048" lat="61.8742777798" lon="8.16697778225">
		<tag k="alt_name" v="Halvarshøe" />
		<tag k="fixme" v="consider natural=peak for the most distinct mountains in the district" />
		<tag k="name" v="Halvorshøi" />
		<tag k="natural" v="hill" />
		<tag k="place" v="locality" />
		<tag k="ssr:stedsnr" v="373770" />
	</node>
	<node id="-364044" lat="61.9261166678" lon="8.35348611879">
		<tag k="fixme" v="consider natural=peak for the most distinct mountains in the district" />
		<tag k="name" v="Svarthovden" />
		<tag k="natural" v="hill" />
		<tag k="place" v="locality" />
		<tag k="ssr:stedsnr" v="373681" />
	</node>
	<node id="-364041" lat="61.9317194468" lon="8.16442777321">
		<tag k="alt_name" v="Stågåhø;Stokkhøi" />
		<tag k="fixme" v="consider natural=peak for the most distinct mountains in the district" />
		<tag k="name" v="Stågåhøe" />
		<tag k="natural" v="hill" />
		<tag k="place" v="locality" />
		<tag k="ssr:stedsnr" v="373674" />
	</node>
	<node id="-364039" lat="61.9063499956" lon="8.21936666137">
		<tag k="name" v="Hyrvebakken" />
		<tag k="natural" v="slope" />
		<tag k="place" v="locality" />
		<tag k="ssr:stedsnr" v="373833" />
	</node>
	<node id="-364038" lat="61.8150166623" lon="7.53294444666">
		<tag k="name" v="Mysubyttdalen" />
		<tag k="natural" v="valley" />
		<tag k="place" v="locality" />
		<tag k="ssr:stedsnr" v="373642" />
	</node>
	<node id="-364037" lat="61.7846666627" lon="7.64256666648">
		<tag k="alt_name" v="Røykjeskålslie" />
		<tag k="name" v="Røykeskålli" />
		<tag k="natural" v="slope" />
		<tag k="place" v="locality" />
		<tag k="ssr:stedsnr" v="373632" />
	</node>
	<node id="-364036" lat="61.7761888863" lon="7.51081388265">
		<tag k="fixme" v="consider natural=peak for the most distinct mountains in the district" />
		<tag k="name" v="Handspiknosi" />
		<tag k="natural" v="hill" />
		<tag k="place" v="locality" />
		<tag k="ssr:stedsnr" v="373629" />
	</node>
	<node id="-364030" lat="61.9109750013" lon="8.34754722522">
		<tag k="name" v="Torøholet" />
		<tag k="natural" v="valley" />
		<tag k="place" v="locality" />
		<tag k="ssr:stedsnr" v="354552" />
	</node>
	<node id="-364027" lat="61.8554305532" lon="8.27863333314">
		<tag k="name" v="Ørneberget" />
		<tag k="natural" v="hill" />
		<tag k="place" v="locality" />
		<tag k="ssr:stedsnr" v="354180" />
	</node>
	<node id="-364019" lat="61.9183500012" lon="8.03109999569">
		<tag k="name" v="Måne" />
		<tag k="natural" v="ridge" />
		<tag k="place" v="locality" />
		<tag k="ssr:stedsnr" v="353475" />
	</node>
	<node id="-364017" lat="62.0085083355" lon="7.89868333821">
>>>>>>> e1d4bc35ff8a6074a6f2e91616a996b547c36f15
		<tag k="fixme" v="consider natural=peak for the most distinct mountains in the district" />
		<tag k="name" v="Nørdre Einstulskampen" />
		<tag k="natural" v="hill" />
		<tag k="ssr:stedsnr" v="331550" />
	</node>
	<node id="-364014" lat="61.8432305532" lon="8.24367500261">
		<tag k="name" v="Skjøledalen" />
		<tag k="natural" v="valley" />
		<tag k="place" v="locality" />
		<tag k="ssr:stedsnr" v="314938" />
	</node>
<<<<<<< HEAD
	<node lat="61.95987222051707" lon="7.934450009306873" id="-18049">
=======
	<node id="-364011" lat="62.1399138857" lon="7.85771389343">
		<tag k="name" v="Hammaren" />
		<tag k="natural" v="hill" />
		<tag k="place" v="locality" />
		<tag k="ssr:stedsnr" v="314232" />
	</node>
	<node id="-364010" lat="62.1295861113" lon="7.74015278236">
>>>>>>> e1d4bc35ff8a6074a6f2e91616a996b547c36f15
		<tag k="fixme" v="consider natural=peak for the most distinct mountains in the district" />
		<tag k="name" v="Tordseggje" />
		<tag k="natural" v="hill" />
		<tag k="place" v="locality" />
		<tag k="ssr:stedsnr" v="314094" />
	</node>
<<<<<<< HEAD
	<node lat="61.84483611165127" lon="7.443174994649073" id="-18051">
		<tag k="name" v="Blankberget" />
		<tag k="natural" v="hill" />
		<tag k="place" v="locality" />
		<tag k="ssr:stedsnr" v="920603" />
	</node>
	<node lat="61.87450000242213" lon="7.5176055607217815" id="-18052">
		<tag k="name" v="Hamran" />
		<tag k="natural" v="slope" />
		<tag k="place" v="locality" />
		<tag k="ssr:stedsnr" v="920605" />
	</node>
	<node lat="61.75397222018677" lon="7.786358324030907" id="-18055">
		<tag k="name" v="Tundradalsbandet" />
		<tag k="natural" v="valley" />
		<tag k="place" v="locality" />
		<tag k="ssr:stedsnr" v="920637" />
	</node>
	<node lat="61.99146111331487" lon="8.169261103777274" id="-18057">
		<tag k="name" v="Bukampen" />
		<tag k="natural" v="hill" />
		<tag k="place" v="locality" />
		<tag k="ssr:stedsnr" v="920642" />
	</node>
	<node lat="61.91027777829653" lon="8.464961111422504" id="-18063">
		<tag k="alt_name" v="Døkti, søre;Døkti, s" />
		<tag k="name" v="Søre Døkti" />
		<tag k="natural" v="valley" />
		<tag k="place" v="locality" />
		<tag k="ssr:stedsnr" v="920847" />
	</node>
	<node lat="61.89287499793735" lon="8.2864916713583" id="-18064">
		<tag k="alt_name" v="Bispeberget" />
		<tag k="fixme" v="consider natural=peak for the most distinct mountains in the district" />
		<tag k="name" v="Bispberget" />
		<tag k="natural" v="hill" />
		<tag k="place" v="locality" />
		<tag k="ssr:stedsnr" v="920890" />
	</node>
	<node lat="62.05145555633191" lon="7.409983340768715" id="-18066">
		<tag k="name" v="Breiddalskupa" />
		<tag k="natural" v="valley" />
		<tag k="place" v="locality" />
		<tag k="ssr:stedsnr" v="921091" />
	</node>
	<node lat="62.16954444706363" lon="7.946783335978403" id="-18067">
		<tag k="alt_name" v="Glupen, søre" />
		<tag k="name" v="Søre Glupen" />
		<tag k="natural" v="valley" />
		<tag k="place" v="locality" />
		<tag k="ssr:stedsnr" v="921231" />
	</node>
	<node lat="62.09495833592177" lon="7.91489444850418" id="-18068">
		<tag k="fixme" v="consider natural=peak for the most distinct mountains in the district" />
		<tag k="name" v="Høggøymen" />
		<tag k="natural" v="hill" />
		<tag k="place" v="locality" />
		<tag k="ssr:stedsnr" v="921201" />
	</node>
	<node lat="62.080997226176486" lon="7.826749997371092" id="-18069">
		<tag k="fixme" v="consider natural=peak for the most distinct mountains in the district" />
		<tag k="name" v="Tordskyrkja" />
		<tag k="natural" v="hill" />
		<tag k="place" v="locality" />
		<tag k="ssr:stedsnr" v="921202" />
	</node>
	<node lat="62.00791975867683" lon="8.59135871221126" id="-18075">
		<tag k="fixme" v="consider natural=peak for the most distinct mountains in the district" />
		<tag k="name" v="Skardtind" />
		<tag k="natural" v="hill" />
		<tag k="place" v="locality" />
		<tag k="ssr:stedsnr" v="921975" />
	</node>
	<node lat="61.998063891288986" lon="8.506130547079575" id="-18076">
		<tag k="name" v="Storskardet" />
		<tag k="natural" v="valley" />
		<tag k="place" v="locality" />
		<tag k="ssr:stedsnr" v="921980" />
	</node>
	<node lat="61.941336107454106" lon="8.110758329433212" id="-18081">
		<tag k="fixme" v="consider natural=peak for the most distinct mountains in the district" />
		<tag k="name" v="Gjøingshøe" />
		<tag k="natural" v="hill" />
		<tag k="place" v="locality" />
		<tag k="ssr:stedsnr" v="960509" />
	</node>
	<node lat="61.72824722190349" lon="7.994352777880337" id="-18095">
		<tag k="fixme" v="consider natural=peak for the most distinct mountains in the district" />
		<tag k="name" v="Vestraste Hestbreapiggen" />
		<tag k="natural" v="hill" />
		<tag k="place" v="locality" />
		<tag k="ssr:stedsnr" v="10399" />
	</node>
	<node lat="61.92914363214242" lon="8.07334963869322" id="-18100">
		<tag k="alt_name" v="Øyberge" />
		<tag k="fixme" v="consider natural=peak for the most distinct mountains in the district" />
		<tag k="name" v="Øyberget" />
		<tag k="natural" v="hill" />
		<tag k="place" v="locality" />
		<tag k="ssr:stedsnr" v="10555" />
	</node>
	<node lat="61.771647219861094" lon="7.923036105021451" id="-18103">
		<tag k="fixme" v="consider natural=peak for the most distinct mountains in the district" />
		<tag k="loc_name" v="Gjelhøe" />
		<tag k="name" v="Gjelhøi" />
		<tag k="natural" v="hill" />
		<tag k="place" v="locality" />
		<tag k="ssr:stedsnr" v="10651" />
	</node>
	<node lat="61.931852779673335" lon="7.847861102465676" id="-18106">
		<tag k="name" v="Måfå" />
		<tag k="natural" v="slope" />
		<tag k="place" v="locality" />
		<tag k="ssr:stedsnr" v="10526" />
	</node>
	<node lat="61.85164444813717" lon="7.49189444161105" id="-18107">
		<tag k="name" v="Bandet" />
		<tag k="natural" v="ridge" />
		<tag k="place" v="locality" />
		<tag k="ssr:stedsnr" v="10619" />
	</node>
	<node lat="61.86301388934222" lon="7.6995166688152255" id="-18108">
		<tag k="name" v="Søverdalen" />
		<tag k="natural" v="valley" />
		<tag k="place" v="locality" />
		<tag k="ssr:stedsnr" v="10622" />
	</node>
	<node lat="61.921433337114316" lon="8.215438897208275" id="-18110">
		<tag k="name" v="Svarthammaren" />
		<tag k="natural" v="hill" />
		<tag k="place" v="locality" />
		<tag k="ssr:stedsnr" v="10693" />
	</node>
	<node lat="61.89849166965583" lon="8.05919721601803" id="-18112">
		<tag k="name" v="Krossen" />
		<tag k="natural" v="slope" />
		<tag k="place" v="locality" />
		<tag k="ssr:stedsnr" v="10723" />
	</node>
	<node lat="61.87413333421107" lon="7.823008341255188" id="-18113">
		<tag k="name" v="Kollungshaugan" />
		<tag k="natural" v="hill" />
		<tag k="place" v="locality" />
		<tag k="ssr:stedsnr" v="10725" />
	</node>
	<node lat="61.80074721927813" lon="8.036411107801776" id="-18119">
		<tag k="fixme" v="consider natural=peak for the most distinct mountains in the district" />
		<tag k="loc_name" v="Hestdalshøgde" />
		<tag k="name" v="Hestdalshøgdi" />
		<tag k="natural" v="hill" />
		<tag k="place" v="locality" />
		<tag k="ssr:stedsnr" v="10750" />
	</node>
	<node lat="61.88058889292792" lon="8.507641666311784" id="-18127">
		<tag k="name" v="Bosmeberget" />
		<tag k="natural" v="hill" />
		<tag k="place" v="locality" />
		<tag k="ssr:stedsnr" v="10919" />
	</node>
	<node lat="62.03230555840759" lon="7.680250004049772" id="-18128">
		<tag k="fixme" v="consider natural=peak for the most distinct mountains in the district" />
		<tag k="name" v="Rundhaugen" />
		<tag k="natural" v="hill" />
		<tag k="place" v="locality" />
		<tag k="ssr:stedsnr" v="11126" />
	</node>
	<node lat="62.1452444430346" lon="7.931436104815504" id="-18129">
		<tag k="fixme" v="consider natural=peak for the most distinct mountains in the district" />
		<tag k="name" v="Kyrkjehalsen" />
		<tag k="natural" v="hill" />
		<tag k="place" v="locality" />
		<tag k="ssr:stedsnr" v="11197" />
	</node>
	<node lat="62.16596944733334" lon="7.834383342656375" id="-18130">
		<tag k="loc_name" v="Benkin" />
		<tag k="name" v="Benkene" />
		<tag k="natural" v="slope" />
		<tag k="place" v="locality" />
		<tag k="ssr:stedsnr" v="11206" />
	</node>
	<node lat="62.170716669422866" lon="7.864272216152866" id="-18131">
		<tag k="fixme" v="consider natural=peak for the most distinct mountains in the district" />
		<tag k="name" v="Benkehøa" />
		<tag k="natural" v="hill" />
		<tag k="place" v="locality" />
		<tag k="ssr:stedsnr" v="11207" />
	</node>
	<node lat="62.04115000380873" lon="8.026400003428995" id="-18132">
		<tag k="fixme" v="consider natural=peak for the most distinct mountains in the district" />
		<tag k="name" v="Stamåhjulet" />
		<tag k="natural" v="hill" />
		<tag k="place" v="locality" />
		<tag k="ssr:stedsnr" v="11241" />
	</node>
	<node lat="61.833377774036876" lon="8.23282777852829" id="-18136">
		<tag k="fixme" v="multiple name tags, choose one and add the other to alt_name" />
		<tag k="name" v="Hestdalen;Lundadalen" />
		<tag k="natural" v="valley" />
		<tag k="place" v="locality" />
		<tag k="ssr:stedsnr" v="11962" />
	</node>
	<node lat="62.00139999968915" lon="7.805661106561399" id="-18137">
		<tag k="fixme" v="consider natural=peak for the most distinct mountains in the district" />
		<tag k="name" v="Åsen" />
		<tag k="natural" v="hill" />
		<tag k="place" v="locality" />
		<tag k="ssr:stedsnr" v="27739" />
	</node>
	<node lat="61.913969448859305" lon="7.484044446045107" id="-18155">
		<tag k="fixme" v="consider natural=peak for the most distinct mountains in the district" />
		<tag k="name" v="Høgkulen" />
		<tag k="natural" v="hill" />
		<tag k="place" v="locality" />
		<tag k="ssr:stedsnr" v="70564" />
	</node>
	<node lat="61.952036942748464" lon="8.190140218059524" id="-18158">
		<tag k="fixme" v="multiple name tags, choose one and add the other to alt_name; consider natural=peak for the most distinct mountains in the district" />
		<tag k="name" v="Vasstakhøi;Langfonnhøi" />
		<tag k="natural" v="hill" />
		<tag k="place" v="locality" />
		<tag k="ssr:stedsnr" v="70654" />
	</node>
	<node lat="61.91790000030596" lon="7.854555560270207" id="-18167">
		<tag k="fixme" v="consider natural=peak for the most distinct mountains in the district" />
		<tag k="name" v="Bråtååsen" />
		<tag k="natural" v="hill" />
		<tag k="place" v="locality" />
		<tag k="ssr:stedsnr" v="71602" />
	</node>
	<node lat="61.80892499661349" lon="7.9783138937398626" id="-18172">
		<tag k="loc_name" v="Steinflye" />
		<tag k="name" v="Steinflyi" />
		<tag k="place" v="locality" />
		<tag k="ssr:stedsnr" v="71766" />
	</node>
	<node lat="61.85776666553392" lon="8.286452786280265" id="-18175">
		<tag k="fixme" v="consider natural=peak for the most distinct mountains in the district" />
		<tag k="name" v="Geitryggen" />
		<tag k="natural" v="hill" />
		<tag k="place" v="locality" />
		<tag k="ssr:stedsnr" v="71807" />
	</node>
	<node lat="61.84523333480441" lon="8.345711103386462" id="-18180">
		<tag k="fixme" v="consider natural=peak for the most distinct mountains in the district" />
		<tag k="name" v="Åndfjellet" />
		<tag k="natural" v="hill" />
		<tag k="place" v="locality" />
		<tag k="ssr:stedsnr" v="72954" />
	</node>
	<node lat="61.90844167060524" lon="8.051688884572005" id="-18185">
		<tag k="name" v="Tundramoen" />
		<tag k="place" v="locality" />
		<tag k="ssr:stedsnr" v="111396" />
	</node>
	<node lat="61.90009999861232" lon="8.045769448036856" id="-18186">
		<tag k="name" v="Tundrahaugan" />
		<tag k="natural" v="hill" />
		<tag k="place" v="locality" />
		<tag k="ssr:stedsnr" v="111397" />
	</node>
	<node lat="61.94973610676468" lon="7.933313892462468" id="-18188">
		<tag k="name" v="Rondhaugen" />
		<tag k="natural" v="hill" />
		<tag k="place" v="locality" />
		<tag k="ssr:stedsnr" v="111263" />
	</node>
	<node lat="61.895677778943934" lon="8.351447215020082" id="-18199">
		<tag k="name" v="Ulvespranget" />
		<tag k="natural" v="gorge" />
		<tag k="ssr:stedsnr" v="112731" />
	</node>
	<node lat="62.068425079793016" lon="7.476431279550205" id="-18206">
		<tag k="alt_name" v="Breiddalen, nordre" />
		<tag k="fixme" v="multiple name tags, choose one and add the other to alt_name" />
		<tag k="name" v="Nordre Breiddalen;Hamsedalen" />
		<tag k="natural" v="valley" />
		<tag k="place" v="locality" />
		<tag k="ssr:stedsnr" v="131098" />
	</node>
	<node lat="61.95173055728749" lon="8.102325006992615" id="-18212">
		<tag k="name" v="Gjøingsbakkan" />
		<tag k="natural" v="slope" />
		<tag k="place" v="locality" />
		<tag k="ssr:stedsnr" v="131668" />
	</node>
	<node lat="61.88382778183348" lon="7.957786113975184" id="-18217">
		<tag k="alt_name" v="Gravåslågån" />
		<tag k="name" v="Gravåslagan" />
		<tag k="natural" v="hill" />
		<tag k="place" v="locality" />
		<tag k="ssr:stedsnr" v="131728" />
	</node>
	<node lat="61.806663892806846" lon="7.957347230984406" id="-18218">
		<tag k="name" v="Steinflyranden" />
		<tag k="natural" v="slope" />
		<tag k="place" v="locality" />
		<tag k="ssr:stedsnr" v="131751" />
	</node>
	<node lat="61.894980558436956" lon="8.47384722940253" id="-18220">
		<tag k="name" v="Bøjelii" />
		<tag k="natural" v="slope" />
		<tag k="place" v="locality" />
		<tag k="ssr:stedsnr" v="131948" />
	</node>
	<node lat="62.02937500321927" lon="7.35268333346976" id="-18223">
		<tag k="fixme" v="consider natural=peak for the most distinct mountains in the district" />
		<tag k="name" v="Stavbrekknovi" />
		<tag k="natural" v="hill" />
		<tag k="place" v="locality" />
		<tag k="ssr:stedsnr" v="132134" />
	</node>
	<node lat="62.02448888722983" lon="7.384938883474817" id="-18224">
		<tag k="alt_name" v="Nordre Kupa;Kupa, nordre" />
		<tag k="name" v="Nørdre Kupa" />
		<tag k="natural" v="valley" />
		<tag k="place" v="locality" />
		<tag k="ssr:stedsnr" v="132135" />
	</node>
	<node lat="62.02177222465188" lon="7.352947222804816" id="-18229">
		<tag k="name" v="Skredene" />
		<tag k="natural" v="slope" />
		<tag k="place" v="locality" />
		<tag k="ssr:stedsnr" v="141748" />
	</node>
	<node lat="61.8939222237191" lon="8.439847221916157" id="-18239">
		<tag k="name" v="Russarskåre" />
		<tag k="natural" v="hill" />
		<tag k="place" v="locality" />
		<tag k="ssr:stedsnr" v="172649" />
	</node>
	<node lat="61.98669444340595" lon="7.866622215487331" id="-18240">
		<tag k="name" v="Åslie" />
		<tag k="natural" v="slope" />
		<tag k="place" v="locality" />
		<tag k="ssr:stedsnr" v="172888" />
	</node>
	<node lat="61.74385000138785" lon="7.546486117468887" id="-18244">
		<tag k="name" v="Sprangdalen" />
		<tag k="natural" v="valley" />
		<tag k="place" v="locality" />
		<tag k="ssr:stedsnr" v="177951" />
	</node>
	<node lat="61.86258888695778" lon="8.391025007517209" id="-18245">
		<tag k="name" v="Svarthåmmåren" />
		<tag k="natural" v="hill" />
		<tag k="place" v="locality" />
		<tag k="ssr:stedsnr" v="187933" />
	</node>
	<node lat="61.85899166851525" lon="8.39997222312584" id="-18246">
		<tag k="name" v="Svartruste" />
		<tag k="natural" v="slope" />
		<tag k="place" v="locality" />
		<tag k="ssr:stedsnr" v="187935" />
	</node>
	<node lat="62.07161388883939" lon="7.433549998935522" id="-18249">
		<tag k="name" v="Kvitbergi" />
		<tag k="natural" v="hill" />
		<tag k="place" v="locality" />
		<tag k="ssr:stedsnr" v="192103" />
	</node>
	<node lat="62.07828611482782" lon="7.6778750067181525" id="-18250">
		<tag k="name" v="Vuludalen" />
		<tag k="natural" v="valley" />
		<tag k="place" v="locality" />
		<tag k="ssr:stedsnr" v="192109" />
	</node>
	<node lat="62.04830833773234" lon="8.081197226000917" id="-18251">
		<tag k="fixme" v="consider natural=peak for the most distinct mountains in the district" />
		<tag k="loc_name" v="Skarvedalseggje" />
		<tag k="name" v="Skarvedalseggen" />
		<tag k="natural" v="hill" />
		<tag k="place" v="locality" />
		<tag k="ssr:stedsnr" v="192257" />
	</node>
	<node lat="61.747363890652174" lon="7.901825005392697" id="-18254">
		<tag k="alt_name" v="Holåtindan, austre;Tussetinden" />
		<tag k="fixme" v="consider natural=peak for the most distinct mountains in the district" />
		<tag k="name" v="Austre Holåtinden" />
		<tag k="natural" v="hill" />
		<tag k="place" v="locality" />
		<tag k="ssr:stedsnr" v="192398" />
	</node>
	<node lat="61.73221944844872" lon="8.011277778910479" id="-18255">
		<tag k="fixme" v="consider natural=peak for the most distinct mountains in the district" />
		<tag k="name" v="Vestre Hestbreapiggen" />
		<tag k="natural" v="hill" />
		<tag k="place" v="locality" />
		<tag k="ssr:stedsnr" v="192432" />
	</node>
	<node lat="61.84738888865911" lon="7.675724997356261" id="-18262">
		<tag k="fixme" v="consider natural=peak for the most distinct mountains in the district" />
		<tag k="loc_name" v="Søverhøe" />
		<tag k="name" v="Søverhøi" />
		<tag k="natural" v="hill" />
		<tag k="place" v="locality" />
		<tag k="ssr:stedsnr" v="192628" />
	</node>
	<node lat="61.94760000328133" lon="8.13715278562233" id="-18267">
		<tag k="fixme" v="consider natural=peak for the most distinct mountains in the district" />
		<tag k="name" v="Kleberberget" />
		<tag k="natural" v="hill" />
		<tag k="place" v="locality" />
		<tag k="ssr:stedsnr" v="192697" />
	</node>
	<node lat="61.81067500398755" lon="7.787125001411277" id="-18275">
		<tag k="fixme" v="consider natural=peak for the most distinct mountains in the district" />
		<tag k="name" v="Sotskarvet" />
		<tag k="natural" v="hill" />
		<tag k="place" v="locality" />
		<tag k="ssr:stedsnr" v="192772" />
	</node>
	<node lat="61.78453333373187" lon="8.230513889982454" id="-18283">
		<tag k="fixme" v="consider natural=peak for the most distinct mountains in the district" />
		<tag k="loc_name" v="Sandgrovhøe" />
		<tag k="name" v="Sandgrovhøi" />
		<tag k="natural" v="hill" />
		<tag k="place" v="locality" />
		<tag k="ssr:stedsnr" v="192989" />
	</node>
	<node lat="61.891555552502" lon="8.38307777307811" id="-18286">
		<tag k="name" v="Solsida" />
		<tag k="natural" v="slope" />
		<tag k="place" v="locality" />
		<tag k="ssr:stedsnr" v="192891" />
	</node>
	<node lat="62.14096667011635" lon="7.655597230511501" id="-18290">
		<tag k="fixme" v="consider natural=peak for the most distinct mountains in the district" />
		<tag k="name" v="Tordsnose" />
		<tag k="natural" v="hill" />
		<tag k="place" v="locality" />
		<tag k="ssr:stedsnr" v="193068" />
	</node>
	<node lat="62.17026388527139" lon="7.896027772774411" id="-18291">
		<tag k="name" v="Nørdre Glupen" />
		<tag k="natural" v="valley" />
		<tag k="place" v="locality" />
		<tag k="ssr:stedsnr" v="193149" />
	</node>
	<node lat="61.90232499792597" lon="8.225730559778794" id="-18297">
		<tag k="name" v="Hyrvehåmmåren" />
		<tag k="natural" v="hill" />
		<tag k="place" v="locality" />
		<tag k="ssr:stedsnr" v="293114" />
	</node>
	<node lat="61.86844444492695" lon="7.771338894684646" id="-18298">
		<tag k="name" v="Kleive" />
		<tag k="natural" v="slope" />
		<tag k="place" v="locality" />
		<tag k="ssr:stedsnr" v="293378" />
	</node>
	<node lat="61.901713886285386" lon="8.044611108012482" id="-18303">
		<tag k="name" v="Olafposten" />
		<tag k="natural" v="hill" />
		<tag k="place" v="locality" />
		<tag k="ssr:stedsnr" v="293451" />
	</node>
	<node lat="62.006422218585044" lon="7.698358338068054" id="-18314">
		<tag k="name" v="Glåmbakkjen" />
		<tag k="natural" v="slope" />
		<tag k="place" v="locality" />
		<tag k="ssr:stedsnr" v="294870" />
	</node>
	<node lat="61.74288611313406" lon="7.68716666775866" id="-18320">
		<tag k="fixme" v="consider natural=peak for the most distinct mountains in the district" />
		<tag k="name" v="Tverrådalskyrkja" />
		<tag k="natural" v="hill" />
		<tag k="place" v="locality" />
		<tag k="ssr:stedsnr" v="313618" />
	</node>
	<node lat="61.782624996324" lon="7.59311389768328" id="-18321">
		<tag k="loc_name" v="Syrtbyttdalen" />
		<tag k="name" v="Surtbyttdalen" />
=======
	<node id="-364008" lat="62.0866249959" lon="7.4948194536">
		<tag k="fixme" v="consider natural=peak for the most distinct mountains in the district" />
		<tag k="name" v="Reindalsreset" />
		<tag k="natural" v="hill" />
		<tag k="place" v="locality" />
		<tag k="ssr:stedsnr" v="314131" />
	</node>
	<node id="-363996" lat="61.9784861154" lon="7.39897777136">
		<tag k="fixme" v="consider natural=peak for the most distinct mountains in the district" />
		<tag k="name" v="Langvasseggi" />
		<tag k="natural" v="hill" />
		<tag k="place" v="locality" />
		<tag k="ssr:stedsnr" v="313564" />
	</node>
	<node id="-363994" lat="61.8799861094" lon="8.05980276948">
		<tag k="name" v="Skjellhovden" />
		<tag k="natural" v="hill" />
		<tag k="place" v="locality" />
		<tag k="ssr:stedsnr" v="313732" />
	</node>
	<node id="-363993" lat="61.8562138922" lon="7.79305833509">
		<tag k="alt_name" v="Veltfjellkyrkja" />
		<tag k="name" v="Veslfjellkyrkja" />
		<tag k="natural" v="hill" />
		<tag k="place" v="locality" />
		<tag k="ssr:stedsnr" v="313729" />
	</node>
	<node id="-363991" lat="61.9895638885" lon="8.10668888754">
		<tag k="alt_name" v="Heggebottflyi, indre" />
		<tag k="name" v="Indre Heggebottflyi" />
		<tag k="natural" v="hill" />
		<tag k="place" v="locality" />
		<tag k="ssr:stedsnr" v="313647" />
	</node>
	<node id="-363988" lat="61.7429000013" lon="7.84333889572">
		<tag k="alt_name" v="Holåtinden, vestre" />
		<tag k="fixme" v="consider natural=peak for the most distinct mountains in the district" />
		<tag k="name" v="Vestre Holåtinden" />
		<tag k="natural" v="hill" />
		<tag k="ssr:stedsnr" v="313384" />
	</node>
	<node id="-363980" lat="62.1409666701" lon="7.65559723051">
		<tag k="fixme" v="consider natural=peak for the most distinct mountains in the district" />
		<tag k="name" v="Tordsnose" />
		<tag k="natural" v="hill" />
		<tag k="place" v="locality" />
		<tag k="ssr:stedsnr" v="193068" />
	</node>
	<node id="-363979" lat="61.8915555525" lon="8.38307777308">
		<tag k="name" v="Solsida" />
		<tag k="natural" v="slope" />
		<tag k="place" v="locality" />
		<tag k="ssr:stedsnr" v="192891" />
	</node>
	<node id="-363974" lat="61.7845333337" lon="8.23051388998">
		<tag k="fixme" v="consider natural=peak for the most distinct mountains in the district" />
		<tag k="loc_name" v="Sandgrovhøe" />
		<tag k="name" v="Sandgrovhøi" />
		<tag k="natural" v="hill" />
		<tag k="place" v="locality" />
		<tag k="ssr:stedsnr" v="192989" />
	</node>
	<node id="-363967" lat="61.810675004" lon="7.78712500141">
		<tag k="fixme" v="consider natural=peak for the most distinct mountains in the district" />
		<tag k="name" v="Sotskarvet" />
		<tag k="natural" v="hill" />
		<tag k="place" v="locality" />
		<tag k="ssr:stedsnr" v="192772" />
	</node>
	<node id="-363964" lat="61.9476000033" lon="8.13715278562">
		<tag k="fixme" v="consider natural=peak for the most distinct mountains in the district" />
		<tag k="name" v="Kleberberget" />
		<tag k="natural" v="hill" />
		<tag k="place" v="locality" />
		<tag k="ssr:stedsnr" v="192697" />
	</node>
	<node id="-363954" lat="61.7322194484" lon="8.01127777891">
		<tag k="fixme" v="consider natural=peak for the most distinct mountains in the district" />
		<tag k="name" v="Vestre Hestbreapiggen" />
		<tag k="natural" v="hill" />
		<tag k="place" v="locality" />
		<tag k="ssr:stedsnr" v="192432" />
	</node>
	<node id="-363951" lat="62.0483083377" lon="8.081197226">
		<tag k="fixme" v="consider natural=peak for the most distinct mountains in the district" />
		<tag k="loc_name" v="Skarvedalseggje" />
		<tag k="name" v="Skarvedalseggen" />
		<tag k="natural" v="hill" />
		<tag k="place" v="locality" />
		<tag k="ssr:stedsnr" v="192257" />
	</node>
	<node id="-363950" lat="61.7473638907" lon="7.90182500539">
		<tag k="alt_name" v="Holåtindan, austre;Tussetinden" />
		<tag k="fixme" v="consider natural=peak for the most distinct mountains in the district" />
		<tag k="name" v="Austre Holåtinden" />
		<tag k="natural" v="hill" />
		<tag k="ssr:stedsnr" v="192398" />
	</node>
	<node id="-363947" lat="61.8589916685" lon="8.39997222313">
		<tag k="name" v="Svartruste" />
		<tag k="natural" v="slope" />
		<tag k="place" v="locality" />
		<tag k="ssr:stedsnr" v="187935" />
	</node>
	<node id="-363946" lat="61.862588887" lon="8.39102500752">
		<tag k="name" v="Svarthåmmåren" />
		<tag k="natural" v="hill" />
		<tag k="place" v="locality" />
		<tag k="ssr:stedsnr" v="187933" />
	</node>
	<node id="-363945" lat="61.7438500014" lon="7.54648611747">
		<tag k="name" v="Sprangdalen" />
		<tag k="natural" v="valley" />
		<tag k="place" v="locality" />
		<tag k="ssr:stedsnr" v="177951" />
	</node>
	<node id="-363941" lat="61.9866944434" lon="7.86662221549">
		<tag k="name" v="Åslie" />
		<tag k="natural" v="slope" />
		<tag k="place" v="locality" />
		<tag k="ssr:stedsnr" v="172888" />
	</node>
	<node id="-363935" lat="61.908225003" lon="7.81965000658">
		<tag k="fixme" v="consider natural=peak for the most distinct mountains in the district" />
		<tag k="name" v="Nordråkhøe" />
		<tag k="natural" v="hill" />
		<tag k="place" v="locality" />
		<tag k="ssr:stedsnr" v="172363" />
	</node>
	<node id="-363934" lat="61.8573694441" lon="8.28259721399">
		<tag k="name" v="Gjele" />
		<tag k="natural" v="gorge" />
		<tag k="ssr:stedsnr" v="172157" />
	</node>
	<node id="-363919" lat="62.0217722247" lon="7.3529472228">
		<tag k="name" v="Skredene" />
		<tag k="natural" v="slope" />
		<tag k="place" v="locality" />
		<tag k="ssr:stedsnr" v="141748" />
	</node>
	<node id="-363918" lat="62.002491665" lon="8.21878610909">
		<tag k="fixme" v="consider natural=peak for the most distinct mountains in the district" />
		<tag k="name" v="Såvårhaugen" />
		<tag k="natural" v="hill" />
		<tag k="place" v="locality" />
		<tag k="ssr:stedsnr" v="132982" />
	</node>
	<node id="-363909" lat="62.1023555539" lon="7.82558056395">
		<tag k="loc_name" v="Tordsflyin;Torflyin" />
		<tag k="name" v="Torsflyene" />
		<tag k="place" v="locality" />
		<tag k="ssr:stedsnr" v="132183" />
	</node>
	<node id="-363898" lat="61.8949805584" lon="8.4738472294">
		<tag k="name" v="Bøjelii" />
		<tag k="natural" v="slope" />
		<tag k="place" v="locality" />
		<tag k="ssr:stedsnr" v="131948" />
	</node>
	<node id="-363896" lat="61.8066638928" lon="7.95734723098">
		<tag k="name" v="Steinflyranden" />
		<tag k="natural" v="slope" />
		<tag k="place" v="locality" />
		<tag k="ssr:stedsnr" v="131751" />
	</node>
	<node id="-363895" lat="61.8838277818" lon="7.95778611398">
		<tag k="alt_name" v="Gravåslågån" />
		<tag k="name" v="Gravåslagan" />
		<tag k="natural" v="hill" />
		<tag k="place" v="locality" />
		<tag k="ssr:stedsnr" v="131728" />
	</node>
	<node id="-363883" lat="62.0684250798" lon="7.47643127955">
		<tag k="alt_name" v="Breiddalen, nordre" />
		<tag k="fixme" v="multiple name tags, choose one and add the other to alt_name" />
		<tag k="name" v="Hamsedalen;Nordre Breiddalen" />
		<tag k="natural" v="valley" />
		<tag k="place" v="locality" />
		<tag k="ssr:stedsnr" v="131098" />
	</node>
	<node id="-363868" lat="61.9000999986" lon="8.04576944804">
		<tag k="name" v="Tundrahaugan" />
		<tag k="natural" v="hill" />
		<tag k="place" v="locality" />
		<tag k="ssr:stedsnr" v="111397" />
	</node>
	<node id="-363867" lat="61.9084416706" lon="8.05168888457">
		<tag k="name" v="Tundramoen" />
		<tag k="place" v="locality" />
		<tag k="ssr:stedsnr" v="111396" />
	</node>
	<node id="-363865" lat="61.9346305521" lon="8.21455278473">
		<tag k="fixme" v="consider natural=peak for the most distinct mountains in the district" />
		<tag k="name" v="Lykrehøe" />
		<tag k="natural" v="hill" />
		<tag k="place" v="locality" />
		<tag k="ssr:stedsnr" v="111386" />
	</node>
	<node id="-363863" lat="61.9497361068" lon="7.93331389246">
		<tag k="name" v="Rondhaugen" />
		<tag k="natural" v="hill" />
		<tag k="place" v="locality" />
		<tag k="ssr:stedsnr" v="111263" />
	</node>
	<node id="-363856" lat="61.8452333348" lon="8.34571110339">
		<tag k="fixme" v="consider natural=peak for the most distinct mountains in the district" />
		<tag k="name" v="Åndfjellet" />
		<tag k="natural" v="hill" />
		<tag k="place" v="locality" />
		<tag k="ssr:stedsnr" v="72954" />
	</node>
	<node id="-363845" lat="61.8089249966" lon="7.97831389374">
		<tag k="loc_name" v="Steinflye" />
		<tag k="name" v="Steinflyi" />
		<tag k="place" v="locality" />
		<tag k="ssr:stedsnr" v="71766" />
	</node>
	<node id="-363832" lat="61.9520369427" lon="8.19014021806">
		<tag k="fixme" v="multiple name tags, choose one and add the other to alt_name; consider natural=peak for the most distinct mountains in the district" />
		<tag k="name" v="Langfonnhøi;Vasstakhøi" />
		<tag k="natural" v="hill" />
		<tag k="place" v="locality" />
		<tag k="ssr:stedsnr" v="70654" />
	</node>
	<node id="-363830" lat="61.7702361152" lon="7.51826667164">
		<tag k="name" v="Kupa" />
		<tag k="natural" v="valley" />
		<tag k="place" v="locality" />
		<tag k="ssr:stedsnr" v="70488" />
	</node>
	<node id="-363829" lat="61.9939472207" lon="7.85905277523">
		<tag k="name" v="Åslii" />
		<tag k="natural" v="slope" />
		<tag k="place" v="locality" />
		<tag k="ssr:stedsnr" v="70477" />
	</node>
	<node id="-363828" lat="61.9139694489" lon="7.48404444605">
		<tag k="fixme" v="consider natural=peak for the most distinct mountains in the district" />
		<tag k="name" v="Høgkulen" />
		<tag k="natural" v="hill" />
		<tag k="place" v="locality" />
		<tag k="ssr:stedsnr" v="70564" />
	</node>
	<node id="-363827" lat="61.8587944401" lon="8.45709722176">
		<tag k="name" v="Holberget" />
		<tag k="natural" v="hill" />
		<tag k="place" v="locality" />
		<tag k="ssr:stedsnr" v="66944" />
	</node>
	<node id="-363819" lat="61.819555557" lon="8.22510556176">
		<tag k="name" v="Svartkampen" />
		<tag k="natural" v="hill" />
		<tag k="place" v="locality" />
		<tag k="ssr:stedsnr" v="51273" />
	</node>
	<node id="-363817" lat="61.9000277806" lon="8.21155277781">
		<tag k="name" v="Hyrvehaugen" />
		<tag k="natural" v="hill" />
		<tag k="place" v="locality" />
		<tag k="ssr:stedsnr" v="51080" />
	</node>
	<node id="-363812" lat="61.9358055534" lon="8.35823611321">
		<tag k="name" v="Krossen" />
		<tag k="natural" v="valley" />
		<tag k="place" v="locality" />
		<tag k="ssr:stedsnr" v="50474" />
	</node>
	<node id="-363811" lat="62.0013999997" lon="7.80566110656">
		<tag k="fixme" v="consider natural=peak for the most distinct mountains in the district" />
		<tag k="name" v="Åsen" />
		<tag k="natural" v="hill" />
		<tag k="place" v="locality" />
		<tag k="ssr:stedsnr" v="27739" />
	</node>
	<node id="-363807" lat="61.833377774" lon="8.23282777853">
		<tag k="fixme" v="multiple name tags, choose one and add the other to alt_name" />
		<tag k="name" v="Hestdalen;Lundadalen" />
		<tag k="natural" v="valley" />
		<tag k="place" v="locality" />
		<tag k="ssr:stedsnr" v="11962" />
	</node>
	<node id="-363805" lat="62.0411500038" lon="8.02640000343">
		<tag k="fixme" v="consider natural=peak for the most distinct mountains in the district" />
		<tag k="name" v="Stamåhjulet" />
		<tag k="natural" v="hill" />
		<tag k="place" v="locality" />
		<tag k="ssr:stedsnr" v="11241" />
	</node>
	<node id="-363804" lat="62.145244443" lon="7.93143610482">
		<tag k="fixme" v="consider natural=peak for the most distinct mountains in the district" />
		<tag k="name" v="Kyrkjehalsen" />
		<tag k="natural" v="hill" />
		<tag k="place" v="locality" />
		<tag k="ssr:stedsnr" v="11197" />
	</node>
	<node id="-363803" lat="62.0323055584" lon="7.68025000405">
		<tag k="fixme" v="consider natural=peak for the most distinct mountains in the district" />
		<tag k="name" v="Rundhaugen" />
		<tag k="natural" v="hill" />
		<tag k="place" v="locality" />
		<tag k="ssr:stedsnr" v="11126" />
	</node>
	<node id="-363802" lat="61.8905916707" lon="8.30482777414">
		<tag k="alt_name" v="Holshåmmårn" />
		<tag k="name" v="Holshammaren" />
		<tag k="natural" v="hill" />
		<tag k="place" v="locality" />
		<tag k="ssr:stedsnr" v="10888" />
	</node>
	<node id="-363790" lat="61.8007472193" lon="8.0364111078">
		<tag k="fixme" v="consider natural=peak for the most distinct mountains in the district" />
		<tag k="loc_name" v="Hestdalshøgde" />
		<tag k="name" v="Hestdalshøgdi" />
		<tag k="natural" v="hill" />
		<tag k="place" v="locality" />
		<tag k="ssr:stedsnr" v="10750" />
	</node>
	<node id="-363788" lat="61.8670388934" lon="7.80410000277">
		<tag k="name" v="Stordalen" />
		<tag k="natural" v="valley" />
		<tag k="place" v="locality" />
		<tag k="ssr:stedsnr" v="10731" />
	</node>
	<node id="-363785" lat="61.8741333342" lon="7.82300834126">
		<tag k="name" v="Kollungshaugan" />
		<tag k="natural" v="hill" />
		<tag k="place" v="locality" />
		<tag k="ssr:stedsnr" v="10725" />
	</node>
	<node id="-363784" lat="61.8984916697" lon="8.05919721602">
		<tag k="name" v="Krossen" />
		<tag k="natural" v="slope" />
		<tag k="place" v="locality" />
		<tag k="ssr:stedsnr" v="10723" />
	</node>
	<node id="-363783" lat="61.9054277737" lon="7.98415834041">
		<tag k="alt_name" v="Bualie" />
		<tag k="name" v="Bualii" />
		<tag k="natural" v="slope" />
		<tag k="place" v="locality" />
		<tag k="ssr:stedsnr" v="10715" />
	</node>
	<node id="-363782" lat="61.7625694477" lon="8.14176945265">
		<tag k="fixme" v="consider natural=peak for the most distinct mountains in the district" />
		<tag k="name" v="Storberka" />
		<tag k="natural" v="hill" />
		<tag k="place" v="locality" />
		<tag k="ssr:stedsnr" v="10993" />
	</node>
	<node id="-363779" lat="61.9214333371" lon="8.21543889721">
		<tag k="name" v="Svarthammaren" />
		<tag k="natural" v="hill" />
		<tag k="place" v="locality" />
		<tag k="ssr:stedsnr" v="10693" />
	</node>
	<node id="-363776" lat="61.7716472199" lon="7.92303610502">
		<tag k="fixme" v="consider natural=peak for the most distinct mountains in the district" />
		<tag k="loc_name" v="Gjelhøe" />
		<tag k="name" v="Gjelhøi" />
		<tag k="natural" v="hill" />
		<tag k="place" v="locality" />
		<tag k="ssr:stedsnr" v="10651" />
	</node>
	<node id="-363772" lat="61.8630138893" lon="7.69951666882">
		<tag k="name" v="Søverdalen" />
		<tag k="natural" v="valley" />
		<tag k="place" v="locality" />
		<tag k="ssr:stedsnr" v="10622" />
	</node>
	<node id="-363771" lat="61.8516444481" lon="7.49189444161">
		<tag k="name" v="Bandet" />
		<tag k="natural" v="ridge" />
		<tag k="place" v="locality" />
		<tag k="ssr:stedsnr" v="10619" />
	</node>
	<node id="-363768" lat="61.7282472219" lon="7.99435277788">
		<tag k="fixme" v="consider natural=peak for the most distinct mountains in the district" />
		<tag k="name" v="Vestraste Hestbreapiggen" />
		<tag k="natural" v="hill" />
		<tag k="place" v="locality" />
		<tag k="ssr:stedsnr" v="10399" />
	</node>
	<node id="-363766" lat="61.9291436321" lon="8.07334963869">
		<tag k="alt_name" v="Øyberge" />
		<tag k="fixme" v="consider natural=peak for the most distinct mountains in the district" />
		<tag k="name" v="Øyberget" />
		<tag k="natural" v="hill" />
		<tag k="place" v="locality" />
		<tag k="ssr:stedsnr" v="10555" />
	</node>
	<node id="-363764" lat="61.7663138883" lon="7.70032221436">
		<tag k="name" v="Steindalen" />
		<tag k="natural" v="valley" />
		<tag k="place" v="locality" />
		<tag k="ssr:stedsnr" v="10241" />
	</node>
	<node id="-363761" lat="61.7422111106" lon="8.12726944662">
		<tag k="fixme" v="consider natural=peak for the most distinct mountains in the district" />
		<tag k="name" v="Heksete" />
		<tag k="natural" v="hill" />
		<tag k="place" v="locality" />
		<tag k="ssr:stedsnr" v="10189" />
	</node>
	<node id="-363734" lat="61.9413361075" lon="8.11075832943">
		<tag k="fixme" v="consider natural=peak for the most distinct mountains in the district" />
		<tag k="name" v="Gjøingshøe" />
		<tag k="natural" v="hill" />
		<tag k="place" v="locality" />
		<tag k="ssr:stedsnr" v="960509" />
	</node>
	<node id="-363732" lat="61.8870250026" lon="7.8679222247">
		<tag k="name" v="Snogskriu" />
		<tag k="natural" v="slope" />
		<tag k="place" v="locality" />
		<tag k="ssr:stedsnr" v="960303" />
	</node>
	<node id="-363730" lat="62.0226722209" lon="7.94270277673">
		<tag k="name" v="Sauhaugen" />
		<tag k="natural" v="hill" />
		<tag k="place" v="locality" />
		<tag k="ssr:stedsnr" v="938559" />
	</node>
	<node id="-363729" lat="62.0514555563" lon="7.40998334077">
		<tag k="name" v="Breiddalskupa" />
		<tag k="natural" v="valley" />
		<tag k="place" v="locality" />
		<tag k="ssr:stedsnr" v="921091" />
	</node>
	<node id="-363723" lat="61.9466250034" lon="8.3673277824">
		<tag k="name" v="Sandranden" />
		<tag k="natural" v="ridge" />
		<tag k="place" v="locality" />
		<tag k="ssr:stedsnr" v="920659" />
	</node>
	<node id="-363716" lat="61.9056138899" lon="8.28630833095">
		<tag k="fixme" v="consider natural=peak for the most distinct mountains in the district" />
		<tag k="name" v="Skamsarkampen" />
		<tag k="natural" v="hill" />
		<tag k="place" v="locality" />
		<tag k="ssr:stedsnr" v="860863" />
	</node>
	<node id="-363715" lat="61.9072416646" lon="8.37935278571">
		<tag k="alt_name" v="Bøverhaugain" />
		<tag k="name" v="Bøverhaugan" />
		<tag k="natural" v="hill" />
		<tag k="place" v="locality" />
		<tag k="ssr:stedsnr" v="860858" />
	</node>
	<node id="-363713" lat="61.8361722184" lon="8.07276666367">
		<tag k="fixme" v="consider natural=peak for the most distinct mountains in the district" />
		<tag k="loc_name" v="Grothøe" />
		<tag k="name" v="Grjothøi" />
		<tag k="natural" v="hill" />
		<tag k="place" v="locality" />
		<tag k="ssr:stedsnr" v="860767" />
	</node>
	<node id="-363712" lat="61.8172027795" lon="7.73098611149">
		<tag k="name" v="Putten" />
		<tag k="natural" v="slope" />
		<tag k="place" v="locality" />
		<tag k="ssr:stedsnr" v="860764" />
	</node>
	<node id="-363708" lat="61.8562416676" lon="8.27804999629">
		<tag k="name" v="Flatmoen" />
		<tag k="place" v="locality" />
		<tag k="ssr:stedsnr" v="860804" />
	</node>
	<node id="-363707" lat="61.7960777821" lon="8.06983889365">
		<tag k="fixme" v="consider natural=peak for the most distinct mountains in the district" />
		<tag k="name" v="Salhusfjellet" />
		<tag k="natural" v="hill" />
		<tag k="place" v="locality" />
		<tag k="ssr:stedsnr" v="860678" />
	</node>
	<node id="-363704" lat="61.9456749957" lon="7.60397499269">
		<tag k="fixme" v="consider natural=peak for the most distinct mountains in the district" />
		<tag k="name" v="Skridulaupen" />
		<tag k="natural" v="hill" />
		<tag k="place" v="locality" />
		<tag k="ssr:stedsnr" v="859556" />
	</node>
	<node id="-363702" lat="61.9641611112" lon="8.40543054922">
		<tag k="name" v="Styggeværskvila" />
		<tag k="place" v="locality" />
		<tag k="ssr:stedsnr" v="859628" />
	</node>
	<node id="-363699" lat="61.7560500007" lon="7.60031389298">
		<tag k="name" v="Sumarkvilholet" />
>>>>>>> e1d4bc35ff8a6074a6f2e91616a996b547c36f15
		<tag k="natural" v="valley" />
		<tag k="place" v="locality" />
		<tag k="ssr:stedsnr" v="859471" />
	</node>
<<<<<<< HEAD
	<node lat="61.978486115413254" lon="7.3989777713571225" id="-18323">
		<tag k="fixme" v="consider natural=peak for the most distinct mountains in the district" />
		<tag k="name" v="Langvasseggi" />
		<tag k="natural" v="hill" />
		<tag k="place" v="locality" />
		<tag k="ssr:stedsnr" v="313564" />
	</node>
	<node lat="61.94686111103494" lon="7.473799998653521" id="-18327">
=======
	<node id="-363698" lat="61.749975001" lon="7.64898056405">
		<tag k="fixme" v="consider natural=peak for the most distinct mountains in the district" />
		<tag k="name" v="Kollen" />
		<tag k="natural" v="hill" />
		<tag k="place" v="locality" />
		<tag k="ssr:stedsnr" v="859456" />
	</node>
	<node id="-363695" lat="61.9462777777" lon="8.0180249915">
		<tag k="alt_name" v="Heggjebottlie" />
		<tag k="name" v="Heggebottlii" />
		<tag k="natural" v="slope" />
		<tag k="place" v="locality" />
		<tag k="ssr:stedsnr" v="859508" />
	</node>
	<node id="-363689" lat="62.0264333335" lon="7.84013611944">
		<tag k="name" v="Ljomaren" />
		<tag k="natural" v="ridge" />
		<tag k="place" v="locality" />
		<tag k="ssr:stedsnr" v="816603" />
	</node>
	<node id="-363688" lat="61.8600277793" lon="8.13024999983">
>>>>>>> e1d4bc35ff8a6074a6f2e91616a996b547c36f15
		<tag k="fixme" v="consider natural=peak for the most distinct mountains in the district" />
		<tag k="name" v="Gjuvkampen" />
		<tag k="natural" v="hill" />
		<tag k="place" v="locality" />
		<tag k="ssr:stedsnr" v="800778" />
	</node>
<<<<<<< HEAD
	<node lat="61.87692499729341" lon="7.781613881939705" id="-18330">
		<tag k="name" v="Dyringkleivi" />
		<tag k="natural" v="slope" />
		<tag k="place" v="locality" />
		<tag k="ssr:stedsnr" v="313715" />
	</node>
	<node lat="61.858255554589356" lon="7.964241661157708" id="-18332">
		<tag k="name" v="Råkåkampen" />
		<tag k="natural" v="hill" />
		<tag k="place" v="locality" />
		<tag k="ssr:stedsnr" v="313723" />
	</node>
	<node lat="61.856213892223444" lon="7.793058335086796" id="-18333">
		<tag k="alt_name" v="Veltfjellkyrkja" />
		<tag k="name" v="Veslfjellkyrkja" />
		<tag k="natural" v="hill" />
		<tag k="place" v="locality" />
		<tag k="ssr:stedsnr" v="313729" />
	</node>
	<node lat="61.87998610940557" lon="8.059802769478207" id="-18334">
		<tag k="name" v="Skjellhovden" />
		<tag k="natural" v="hill" />
		<tag k="place" v="locality" />
		<tag k="ssr:stedsnr" v="313732" />
	</node>
	<node lat="61.98956388852548" lon="8.10668888753639" id="-18339">
		<tag k="alt_name" v="Heggebottflyi, indre" />
		<tag k="name" v="Indre Heggebottflyi" />
		<tag k="natural" v="hill" />
		<tag k="place" v="locality" />
		<tag k="ssr:stedsnr" v="313647" />
	</node>
	<node lat="62.13991388571917" lon="7.857713893425811" id="-18349">
		<tag k="name" v="Hammaren" />
		<tag k="natural" v="hill" />
		<tag k="place" v="locality" />
		<tag k="ssr:stedsnr" v="314232" />
	</node>
	<node lat="62.1295861112823" lon="7.740152782364158" id="-18350">
		<tag k="fixme" v="consider natural=peak for the most distinct mountains in the district" />
		<tag k="name" v="Tordseggje" />
		<tag k="natural" v="hill" />
		<tag k="place" v="locality" />
		<tag k="ssr:stedsnr" v="314094" />
	</node>
	<node lat="61.84323055323303" lon="8.243675002608686" id="-18354">
		<tag k="name" v="Skjøledalen" />
		<tag k="natural" v="valley" />
		<tag k="place" v="locality" />
		<tag k="ssr:stedsnr" v="314938" />
	</node>
	<node lat="62.008508335540796" lon="7.898683338209913" id="-18357">
		<tag k="fixme" v="consider natural=peak for the most distinct mountains in the district" />
		<tag k="name" v="Nørdre Einstulskampen" />
		<tag k="natural" v="hill" />
		<tag k="place" v="locality" />
		<tag k="ssr:stedsnr" v="331550" />
	</node>
	<node lat="62.048472220668074" lon="7.996447220978895" id="-18358">
		<tag k="name" v="Stamåjuvet" />
		<tag k="natural" v="gorge" />
		<tag k="ssr:stedsnr" v="331727" />
	</node>
	<node lat="61.9109750012992" lon="8.347547225224982" id="-18360">
		<tag k="name" v="Torøholet" />
		<tag k="natural" v="valley" />
		<tag k="place" v="locality" />
		<tag k="ssr:stedsnr" v="354552" />
	</node>
	<node lat="61.85543055321393" lon="8.278633333143668" id="-18366">
		<tag k="name" v="Ørneberget" />
		<tag k="natural" v="hill" />
		<tag k="place" v="locality" />
		<tag k="ssr:stedsnr" v="354180" />
	</node>
	<node lat="61.77618888626749" lon="7.510813882650311" id="-18369">
		<tag k="fixme" v="consider natural=peak for the most distinct mountains in the district" />
		<tag k="name" v="Handspiknosi" />
		<tag k="natural" v="hill" />
		<tag k="place" v="locality" />
		<tag k="ssr:stedsnr" v="373629" />
	</node>
	<node lat="61.78466666267316" lon="7.642566666481558" id="-18370">
		<tag k="alt_name" v="Røykjeskålslie" />
		<tag k="name" v="Røykeskålli" />
		<tag k="natural" v="slope" />
		<tag k="place" v="locality" />
		<tag k="ssr:stedsnr" v="373632" />
	</node>
	<node lat="61.81501666233108" lon="7.532944446662649" id="-18371">
		<tag k="name" v="Mysubyttdalen" />
		<tag k="natural" v="valley" />
		<tag k="place" v="locality" />
		<tag k="ssr:stedsnr" v="373642" />
	</node>
	<node lat="61.74464722327006" lon="7.757422226902331" id="-18372">
		<tag k="fixme" v="consider natural=peak for the most distinct mountains in the district" />
		<tag k="name" v="Tundradalskyrkja" />
		<tag k="natural" v="hill" />
		<tag k="place" v="locality" />
		<tag k="ssr:stedsnr" v="373368" />
	</node>
	<node lat="61.874277779840604" lon="8.166977782254113" id="-18376">
		<tag k="alt_name" v="Halvarshøe" />
		<tag k="fixme" v="consider natural=peak for the most distinct mountains in the district" />
		<tag k="name" v="Halvorshøi" />
		<tag k="natural" v="hill" />
		<tag k="place" v="locality" />
		<tag k="ssr:stedsnr" v="373770" />
	</node>
	<node lat="61.90634999562041" lon="8.219366661374249" id="-18377">
		<tag k="name" v="Hyrvebakken" />
		<tag k="natural" v="slope" />
		<tag k="place" v="locality" />
		<tag k="ssr:stedsnr" v="373833" />
	</node>
	<node lat="61.931719446823834" lon="8.164427773211914" id="-18379">
		<tag k="alt_name" v="Stågåhø;Stokkhøi" />
		<tag k="fixme" v="consider natural=peak for the most distinct mountains in the district" />
		<tag k="name" v="Stågåhøe" />
		<tag k="natural" v="hill" />
		<tag k="place" v="locality" />
		<tag k="ssr:stedsnr" v="373674" />
	</node>
	<node lat="61.92611666779199" lon="8.353486118790938" id="-18382">
		<tag k="fixme" v="consider natural=peak for the most distinct mountains in the district" />
		<tag k="name" v="Svarthovden" />
		<tag k="natural" v="hill" />
		<tag k="place" v="locality" />
		<tag k="ssr:stedsnr" v="373681" />
	</node>
	<node lat="62.123886113870384" lon="7.940547224062653" id="-18386">
		<tag k="loc_name" v="Spongflye" />
		<tag k="name" v="Spongflyi" />
		<tag k="place" v="locality" />
		<tag k="ssr:stedsnr" v="374221" />
	</node>
	<node lat="61.82009722386717" lon="7.760061105092786" id="-18390">
		<tag k="alt_name" v="Rondhaugen" />
		<tag k="name" v="Rundhaugen" />
		<tag k="natural" v="hill" />
		<tag k="place" v="locality" />
		<tag k="ssr:stedsnr" v="374758" />
	</node>
	<node lat="61.83241388500054" lon="8.378397222790879" id="-18392">
		<tag k="fixme" v="consider natural=peak for the most distinct mountains in the district" />
		<tag k="name" v="Frelsareggi" />
		<tag k="natural" v="hill" />
		<tag k="place" v="locality" />
		<tag k="ssr:stedsnr" v="375938" />
	</node>
	<node lat="61.81902500347101" lon="8.36677222992331" id="-18393">
		<tag k="fixme" v="consider natural=peak for the most distinct mountains in the district" />
		<tag k="name" v="Storivilen" />
		<tag k="natural" v="hill" />
		<tag k="place" v="locality" />
		<tag k="ssr:stedsnr" v="375950" />
	</node>
	<node lat="61.82474166672221" lon="8.24659444285792" id="-18394">
		<tag k="fixme" v="consider natural=peak for the most distinct mountains in the district" />
		<tag k="name" v="Svarthamran" />
		<tag k="natural" v="hill" />
		<tag k="place" v="locality" />
		<tag k="ssr:stedsnr" v="375956" />
	</node>
	<node lat="62.0763833332926" lon="7.861288880756769" id="-18396">
		<tag k="fixme" v="consider natural=peak for the most distinct mountains in the district" />
		<tag k="name" v="Låggøymen" />
		<tag k="natural" v="hill" />
		<tag k="place" v="locality" />
		<tag k="ssr:stedsnr" v="374270" />
	</node>
	<node lat="61.99363611036764" lon="8.379486116151119" id="-18402">
		<tag k="fixme" v="consider natural=peak for the most distinct mountains in the district" />
		<tag k="loc_name" v="Fellingshøe" />
		<tag k="name" v="Fellingshøi" />
		<tag k="natural" v="hill" />
		<tag k="place" v="locality" />
		<tag k="ssr:stedsnr" v="374633" />
	</node>
	<node lat="61.88110555119323" lon="8.216661116751082" id="-18406">
		<tag k="name" v="Slåi" />
		<tag k="natural" v="slope" />
		<tag k="place" v="locality" />
		<tag k="ssr:stedsnr" v="374877" />
	</node>
	<node lat="61.90985833672268" lon="8.301213887288137" id="-18417">
		<tag k="name" v="Einingskampan" />
		<tag k="natural" v="hill" />
		<tag k="place" v="locality" />
		<tag k="ssr:stedsnr" v="414540" />
	</node>
	<node lat="61.9974027796957" lon="7.789897222904732" id="-18419">
		<tag k="name" v="Løyften" />
		<tag k="natural" v="hill" />
		<tag k="place" v="locality" />
		<tag k="ssr:stedsnr" v="414859" />
	</node>
	<node lat="61.904397222438824" lon="8.17983055048005" id="-18421">
		<tag k="name" v="Spelmainnshaugen" />
		<tag k="natural" v="hill" />
		<tag k="place" v="locality" />
		<tag k="ssr:stedsnr" v="415075" />
	</node>
	<node lat="61.88288055719541" lon="8.351997224167517" id="-18422">
		<tag k="name" v="Aurmoen" />
		<tag k="place" v="locality" />
		<tag k="ssr:stedsnr" v="415591" />
	</node>
	<node lat="62.097458335728646" lon="7.5138999964505055" id="-18433">
		<tag k="alt_name" v="Hellstugueggi" />
		<tag k="fixme" v="consider natural=peak for the most distinct mountains in the district" />
		<tag k="loc_name" v="Helleggje" />
		<tag k="name" v="Helleggi" />
		<tag k="natural" v="hill" />
		<tag k="place" v="locality" />
		<tag k="ssr:stedsnr" v="435157" />
	</node>
	<node lat="62.100158332822666" lon="7.815452778414787" id="-18434">
		<tag k="fixme" v="consider natural=peak for the most distinct mountains in the district" />
		<tag k="loc_name" v="Brune" />
		<tag k="name" v="Bruni" />
		<tag k="natural" v="hill" />
		<tag k="place" v="locality" />
		<tag k="ssr:stedsnr" v="435229" />
	</node>
	<node lat="62.13276944678578" lon="7.894133333221879" id="-18436">
		<tag k="alt_name" v="Bolla, nordre" />
		<tag k="fixme" v="consider natural=peak for the most distinct mountains in the district" />
		<tag k="name" v="Nørdre Bolla" />
		<tag k="natural" v="hill" />
		<tag k="place" v="locality" />
		<tag k="ssr:stedsnr" v="435240" />
	</node>
	<node lat="61.98389166349041" lon="7.898836107472317" id="-18443">
		<tag k="alt_name" v="Langlie" />
		<tag k="loc_name" v="Langslie" />
		<tag k="name" v="Langslii" />
		<tag k="natural" v="slope" />
		<tag k="place" v="locality" />
		<tag k="ssr:stedsnr" v="435529" />
	</node>
	<node lat="61.971477777794355" lon="7.936699994283418" id="-18446">
		<tag k="name" v="Geitådalen" />
		<tag k="natural" v="valley" />
		<tag k="place" v="locality" />
		<tag k="ssr:stedsnr" v="435555" />
	</node>
	<node lat="61.962433331456445" lon="7.719675004211172" id="-18447">
		<tag k="fixme" v="consider natural=peak for the most distinct mountains in the district" />
		<tag k="name" v="Glitterhøi" />
		<tag k="natural" v="hill" />
		<tag k="place" v="locality" />
		<tag k="ssr:stedsnr" v="435556" />
	</node>
	<node lat="61.92786388467018" lon="7.941800001539075" id="-18448">
		<tag k="alt_name" v="Uppnose" />
		<tag k="fixme" v="consider natural=peak for the most distinct mountains in the district" />
		<tag k="name" v="Uppnosi" />
		<tag k="natural" v="hill" />
		<tag k="place" v="locality" />
		<tag k="ssr:stedsnr" v="435583" />
	</node>
	<node lat="61.784058331021534" lon="7.555580552910853" id="-18453">
		<tag k="name" v="Bjørnaruste" />
		<tag k="natural" v="slope" />
		<tag k="place" v="locality" />
		<tag k="ssr:stedsnr" v="435637" />
	</node>
	<node lat="61.79529166723483" lon="7.489974992017116" id="-18454">
		<tag k="fixme" v="consider natural=peak for the most distinct mountains in the district" />
		<tag k="loc_name" v="Tverreggje" />
		<tag k="name" v="Tverreggi" />
		<tag k="natural" v="hill" />
		<tag k="place" v="locality" />
		<tag k="ssr:stedsnr" v="435645" />
	</node>
	<node lat="61.882558330546836" lon="7.974966663462257" id="-18458">
		<tag k="alt_name" v="Buanose" />
		<tag k="name" v="Buanosi" />
		<tag k="natural" v="hill" />
		<tag k="place" v="locality" />
		<tag k="ssr:stedsnr" v="435729" />
	</node>
	<node lat="62.17281389260591" lon="7.921072213633791" id="-18462">
		<tag k="fixme" v="consider natural=peak for the most distinct mountains in the district" />
		<tag k="name" v="Trollkyrkja" />
		<tag k="natural" v="hill" />
		<tag k="place" v="locality" />
		<tag k="ssr:stedsnr" v="436140" />
	</node>
	<node lat="62.184397220036935" lon="7.734527776635252" id="-18463">
		<tag k="fixme" v="consider natural=peak for the most distinct mountains in the district" />
		<tag k="name" v="Karitinden" />
		<tag k="natural" v="hill" />
		<tag k="place" v="locality" />
		<tag k="ssr:stedsnr" v="436152" />
	</node>
	<node lat="62.09831110709676" lon="7.648591670646254" id="-18464">
		<tag k="fixme" v="consider natural=peak for the most distinct mountains in the district" />
		<tag k="name" v="Vulustrupen" />
		<tag k="natural" v="hill" />
		<tag k="place" v="locality" />
		<tag k="ssr:stedsnr" v="436103" />
	</node>
	<node lat="61.80718611505521" lon="8.20270278314435" id="-18468">
		<tag k="alt_name" v="Reset, heimaste" />
		<tag k="name" v="Heimaste Reset" />
		<tag k="natural" v="ridge" />
		<tag k="place" v="locality" />
		<tag k="ssr:stedsnr" v="436960" />
	</node>
	<node lat="61.88391388976518" lon="7.606044436923939" id="-18471">
		<tag k="fixme" v="consider natural=peak for the most distinct mountains in the district" />
		<tag k="loc_name" v="Vakkerfjell" />
		<tag k="name" v="Vakkerfjellet" />
		<tag k="natural" v="hill" />
		<tag k="place" v="locality" />
		<tag k="ssr:stedsnr" v="495614" />
	</node>
	<node lat="61.82903055922644" lon="7.654811112380355" id="-18472">
		<tag k="fixme" v="consider natural=peak for the most distinct mountains in the district" />
		<tag k="name" v="Sekken" />
		<tag k="natural" v="hill" />
		<tag k="place" v="locality" />
		<tag k="ssr:stedsnr" v="495627" />
	</node>
	<node lat="61.798677773352516" lon="7.780349996853808" id="-18473">
		<tag k="alt_name" v="Sothogget, nordre;Nordre Sothogget" />
		<tag k="name" v="Nørdre Sothogget" />
		<tag k="natural" v="valley" />
		<tag k="place" v="locality" />
		<tag k="ssr:stedsnr" v="495628" />
	</node>
	<node lat="61.97386111194752" lon="8.285099998823076" id="-18474">
		<tag k="fixme" v="consider natural=peak for the most distinct mountains in the district" />
		<tag k="name" v="Aukarshøi" />
		<tag k="natural" v="hill" />
		<tag k="place" v="locality" />
		<tag k="ssr:stedsnr" v="495649" />
	</node>
	<node lat="61.836211107148145" lon="7.7113472191076005" id="-18478">
		<tag k="name" v="Svaet" />
		<tag k="natural" v="slope" />
		<tag k="place" v="locality" />
		<tag k="ssr:stedsnr" v="495599" />
	</node>
	<node lat="61.84577499772762" lon="8.029255559603643" id="-18485">
		<tag k="name" v="Rundhaugen" />
		<tag k="natural" v="hill" />
		<tag k="place" v="locality" />
		<tag k="ssr:stedsnr" v="495724" />
	</node>
	<node lat="61.829736111604745" lon="7.754508342304512" id="-18486">
		<tag k="name" v="Randsverk" />
		<tag k="place" v="locality" />
		<tag k="ssr:stedsnr" v="495726" />
	</node>
	<node lat="61.84658055599099" lon="7.910225005914456" id="-18488">
		<tag k="name" v="Høgkulen" />
		<tag k="natural" v="hill" />
		<tag k="place" v="locality" />
		<tag k="ssr:stedsnr" v="495729" />
	</node>
	<node lat="61.884966664332694" lon="8.150233338765037" id="-18491">
		<tag k="alt_name" v="Dugurdhøe" />
		<tag k="fixme" v="consider natural=peak for the most distinct mountains in the district" />
		<tag k="name" v="Dugurdshaugen" />
		<tag k="natural" v="hill" />
		<tag k="place" v="locality" />
		<tag k="ssr:stedsnr" v="495874" />
	</node>
	<node lat="61.88858055727722" lon="8.085108338468565" id="-18506">
		<tag k="name" v="Herahaugen" />
		<tag k="natural" v="hill" />
		<tag k="place" v="locality" />
		<tag k="ssr:stedsnr" v="535435" />
	</node>
	<node lat="61.957311110962074" lon="7.988794453058235" id="-18509">
		<tag k="name" v="Fosstuguhøe" />
		<tag k="natural" v="hill" />
		<tag k="place" v="locality" />
		<tag k="ssr:stedsnr" v="536273" />
	</node>
	<node lat="61.90116111263979" lon="8.352372226263888" id="-18514">
		<tag k="name" v="Bukkeholet" />
		<tag k="natural" v="gorge" />
		<tag k="ssr:stedsnr" v="536544" />
	</node>
	<node lat="61.90817777488917" lon="8.35999444064162" id="-18515">
		<tag k="name" v="Brattbakkjen" />
		<tag k="natural" v="slope" />
		<tag k="place" v="locality" />
		<tag k="ssr:stedsnr" v="536545" />
	</node>
	<node lat="61.742813062324906" lon="7.8690001336112045" id="-18526">
		<tag k="alt_name" v="Holåtindan, midtre" />
		<tag k="fixme" v="consider natural=peak for the most distinct mountains in the district" />
		<tag k="name" v="Midtre Holåtinden" />
		<tag k="natural" v="hill" />
		<tag k="place" v="locality" />
		<tag k="ssr:stedsnr" v="555322" />
	</node>
	<node lat="61.76201944401847" lon="7.58101944350786" id="-18529">
		<tag k="fixme" v="consider natural=peak for the most distinct mountains in the district" />
		<tag k="loc_name" v="Syrtbyttnose" />
		<tag k="name" v="Syrtbyttnosi" />
		<tag k="natural" v="hill" />
		<tag k="place" v="locality" />
		<tag k="ssr:stedsnr" v="555461" />
	</node>
	<node lat="61.911336108468106" lon="7.4767111183800825" id="-18530">
		<tag k="fixme" v="consider natural=peak for the most distinct mountains in the district" />
		<tag k="name" v="Mårådalsfjellet" />
		<tag k="natural" v="hill" />
		<tag k="place" v="locality" />
		<tag k="ssr:stedsnr" v="555538" />
	</node>
	<node lat="61.735211108979684" lon="7.5724083290469295" id="-18532">
		<tag k="fixme" v="consider natural=peak for the most distinct mountains in the district" />
		<tag k="name" v="Rivenoskulen" />
		<tag k="natural" v="hill" />
		<tag k="place" v="locality" />
		<tag k="ssr:stedsnr" v="555559" />
	</node>
	<node lat="61.93300832951249" lon="8.104474991498332" id="-18536">
		<tag k="name" v="Tobbelihammaren" />
		<tag k="place" v="locality" />
		<tag k="ssr:stedsnr" v="555632" />
	</node>
	<node lat="61.80581666837913" lon="7.662411106213329" id="-18538">
		<tag k="alt_name" v="Nove" />
		<tag k="fixme" v="consider natural=peak for the most distinct mountains in the district" />
		<tag k="name" v="Novi" />
		<tag k="natural" v="hill" />
		<tag k="place" v="locality" />
		<tag k="ssr:stedsnr" v="555575" />
	</node>
	<node lat="61.738750003571425" lon="7.940749992226961" id="-18546">
		<tag k="name" v="Vesldalen" />
		<tag k="natural" v="valley" />
		<tag k="place" v="locality" />
		<tag k="ssr:stedsnr" v="556444" />
	</node>
	<node lat="61.750214179359524" lon="8.085857459540058" id="-18547">
		<tag k="fixme" v="consider natural=peak for the most distinct mountains in the district" />
		<tag k="name" v="Nørdre Hestbreapiggen" />
		<tag k="natural" v="hill" />
		<tag k="place" v="locality" />
		<tag k="ssr:stedsnr" v="556445" />
	</node>
	<node lat="62.032350000550146" lon="7.789666661513363" id="-18548">
		<tag k="alt_name" v="Vetlefjellet" />
		<tag k="fixme" v="consider natural=peak for the most distinct mountains in the district" />
		<tag k="name" v="Veslefjell" />
		<tag k="natural" v="hill" />
		<tag k="place" v="locality" />
		<tag k="ssr:stedsnr" v="556284" />
	</node>
	<node lat="61.797733335416375" lon="7.826463896303889" id="-18550">
		<tag k="name" v="Haukberget" />
		<tag k="natural" v="hill" />
		<tag k="place" v="locality" />
		<tag k="ssr:stedsnr" v="556648" />
	</node>
	<node lat="61.79306666391485" lon="7.807808341192932" id="-18551">
		<tag k="name" v="Herbergsbakkan" />
		<tag k="natural" v="slope" />
		<tag k="place" v="locality" />
		<tag k="ssr:stedsnr" v="556649" />
	</node>
	<node lat="61.855455555965285" lon="7.980091664195212" id="-18552">
		<tag k="name" v="Tundradalen" />
		<tag k="natural" v="valley" />
		<tag k="place" v="locality" />
		<tag k="ssr:stedsnr" v="556730" />
	</node>
	<node lat="61.82197777377617" lon="8.044288888310822" id="-18555">
		<tag k="loc_name" v="Grotådalen" />
		<tag k="name" v="Grjotådalen" />
		<tag k="natural" v="valley" />
		<tag k="place" v="locality" />
		<tag k="ssr:stedsnr" v="556748" />
	</node>
	<node lat="61.912141667418645" lon="8.327549991329327" id="-18558">
		<tag k="alt_name" v="Kvålheimsnose" />
		<tag k="fixme" v="consider natural=peak for the most distinct mountains in the district" />
		<tag k="name" v="Kvålheimsnosi" />
		<tag k="natural" v="hill" />
		<tag k="place" v="locality" />
		<tag k="ssr:stedsnr" v="556844" />
	</node>
	<node lat="61.92691111462857" lon="8.056436119299047" id="-18562">
		<tag k="name" v="Bukkeholet" />
		<tag k="natural" v="valley" />
		<tag k="place" v="locality" />
		<tag k="ssr:stedsnr" v="596472" />
	</node>
	<node lat="61.866786108484874" lon="8.264872221879276" id="-18567">
		<tag k="name" v="Orhaugpiggen" />
		<tag k="natural" v="hill" />
		<tag k="place" v="locality" />
		<tag k="ssr:stedsnr" v="597141" />
	</node>
	<node lat="61.888144448414785" lon="8.165605561382709" id="-18568">
		<tag k="fixme" v="consider natural=peak for the most distinct mountains in the district" />
		<tag k="name" v="Svarthåmmåren" />
		<tag k="natural" v="hill" />
		<tag k="place" v="locality" />
		<tag k="ssr:stedsnr" v="597060" />
	</node>
	<node lat="61.90155832974776" lon="8.25727500539624" id="-18570">
		<tag k="name" v="Øvre Lie" />
		<tag k="natural" v="slope" />
		<tag k="place" v="locality" />
		<tag k="ssr:stedsnr" v="597094" />
	</node>
	<node lat="61.8637833360398" lon="8.378427783519358" id="-18572">
		<tag k="name" v="Røtede" />
		<tag k="natural" v="slope" />
		<tag k="place" v="locality" />
		<tag k="ssr:stedsnr" v="597693" />
	</node>
	<node lat="61.859372218035524" lon="8.32953055684111" id="-18573">
		<tag k="name" v="Rondhaugen" />
		<tag k="natural" v="hill" />
		<tag k="place" v="locality" />
		<tag k="ssr:stedsnr" v="597694" />
	</node>
	<node lat="61.88326944052762" lon="8.333630562772173" id="-18574">
		<tag k="name" v="Aualehaugen" />
		<tag k="natural" v="hill" />
		<tag k="place" v="locality" />
		<tag k="ssr:stedsnr" v="597720" />
	</node>
	<node lat="61.92976389218189" lon="8.164711103538322" id="-18578">
		<tag k="fixme" v="consider natural=peak for the most distinct mountains in the district" />
		<tag k="loc_name" v="Stågåhøskallen" />
		<tag k="name" v="Stokkhøskallen" />
		<tag k="natural" v="hill" />
		<tag k="place" v="locality" />
		<tag k="ssr:stedsnr" v="600642" />
	</node>
	<node lat="61.775261107711586" lon="7.606188890449906" id="-18584">
		<tag k="name" v="Sumarkvila" />
		<tag k="natural" v="slope" />
		<tag k="place" v="locality" />
		<tag k="ssr:stedsnr" v="616496" />
	</node>
	<node lat="61.9399277796037" lon="8.163780551133195" id="-18586">
		<tag k="fixme" v="consider natural=peak for the most distinct mountains in the district" />
		<tag k="loc_name" v="Grøhøe" />
		<tag k="name" v="Grønhøi" />
		<tag k="natural" v="hill" />
		<tag k="place" v="locality" />
		<tag k="ssr:stedsnr" v="616659" />
	</node>
	<node lat="62.09939999671047" lon="7.687586105213307" id="-18598">
		<tag k="fixme" v="consider natural=peak for the most distinct mountains in the district" />
		<tag k="loc_name" v="Vulueggje" />
		<tag k="name" v="Vulueggi" />
		<tag k="natural" v="hill" />
		<tag k="place" v="locality" />
		<tag k="ssr:stedsnr" v="617146" />
	</node>
	<node lat="61.7877722205409" lon="7.749758327399735" id="-18600">
		<tag k="alt_name" v="Sothogget, s" />
		<tag k="name" v="Søre Sothogget" />
		<tag k="natural" v="valley" />
		<tag k="place" v="locality" />
		<tag k="ssr:stedsnr" v="617637" />
	</node>
	<node lat="61.87930000046966" lon="8.201227775825528" id="-18605">
		<tag k="alt_name" v="Flækøyhøe" />
		<tag k="fixme" v="consider natural=peak for the most distinct mountains in the district" />
		<tag k="name" v="Flekkøyhøi" />
		<tag k="natural" v="hill" />
		<tag k="place" v="locality" />
		<tag k="ssr:stedsnr" v="617860" />
	</node>
	<node lat="61.80540000242744" lon="8.162963896265206" id="-18609">
		<tag k="alt_name" v="Grotåkampen" />
		<tag k="fixme" v="consider natural=peak for the most distinct mountains in the district" />
		<tag k="name" v="Grjotåkampan" />
		<tag k="natural" v="hill" />
		<tag k="place" v="locality" />
		<tag k="ssr:stedsnr" v="617963" />
	</node>
	<node lat="61.88668888464554" lon="8.040405552133823" id="-18616">
		<tag k="name" v="Svarthåmmårn" />
		<tag k="natural" v="hill" />
		<tag k="place" v="locality" />
		<tag k="ssr:stedsnr" v="656445" />
	</node>
	<node lat="61.85028055752739" lon="8.270352784580517" id="-18619">
		<tag k="name" v="Tjuvsvingen" />
		<tag k="natural" v="slope" />
		<tag k="place" v="locality" />
		<tag k="ssr:stedsnr" v="657153" />
	</node>
	<node lat="61.85657778050005" lon="8.319811112890944" id="-18621">
		<tag k="name" v="Lendfjell" />
		<tag k="natural" v="hill" />
		<tag k="place" v="locality" />
		<tag k="ssr:stedsnr" v="657163" />
	</node>
	<node lat="61.84464166283885" lon="8.317558341933898" id="-18622">
		<tag k="name" v="Nørdre Langhaugen" />
		<tag k="natural" v="hill" />
		<tag k="place" v="locality" />
		<tag k="ssr:stedsnr" v="657177" />
	</node>
	<node lat="61.86003889182142" lon="8.360800008072658" id="-18623">
		<tag k="alt_name" v="Høglunden" />
		<tag k="name" v="Høglunnen" />
		<tag k="natural" v="hill" />
		<tag k="place" v="locality" />
		<tag k="ssr:stedsnr" v="657653" />
	</node>
	<node lat="61.89984167061742" lon="8.08094722294477" id="-18632">
		<tag k="name" v="Bjønnholet" />
		<tag k="natural" v="valley" />
		<tag k="place" v="locality" />
		<tag k="ssr:stedsnr" v="717436" />
	</node>
	<node lat="61.89214444439692" lon="8.081747218601318" id="-18635">
		<tag k="name" v="Skjellholet" />
		<tag k="natural" v="valley" />
		<tag k="place" v="locality" />
		<tag k="ssr:stedsnr" v="717445" />
	</node>
	<node lat="61.84042500186687" lon="8.189341665171257" id="-18647">
		<tag k="alt_name" v="Svodåfjellet" />
		<tag k="fixme" v="consider natural=peak for the most distinct mountains in the district" />
		<tag k="loc_name" v="Svaåfjellet" />
		<tag k="name" v="Svåfjellet" />
		<tag k="natural" v="hill" />
		<tag k="place" v="locality" />
		<tag k="ssr:stedsnr" v="722968" />
	</node>
	<node lat="61.97621110897047" lon="7.689280561099852" id="-18649">
		<tag k="name" v="Blankåhaugan" />
		<tag k="natural" v="hill" />
		<tag k="place" v="locality" />
		<tag k="ssr:stedsnr" v="738577" />
	</node>
	<node lat="62.11488333502561" lon="7.785422223431687" id="-18654">
		<tag k="name" v="Kupen" />
		<tag k="natural" v="valley" />
		<tag k="place" v="locality" />
		<tag k="ssr:stedsnr" v="738199" />
	</node>
	<node lat="61.98979166251942" lon="7.854913890435048" id="-18655">
		<tag k="fixme" v="consider natural=peak for the most distinct mountains in the district" />
		<tag k="name" v="Åsen" />
		<tag k="natural" v="hill" />
		<tag k="place" v="locality" />
		<tag k="ssr:stedsnr" v="738484" />
	</node>
	<node lat="61.76987499921689" lon="7.640394437983552" id="-18658">
		<tag k="fixme" v="consider natural=peak for the most distinct mountains in the district" />
		<tag k="loc_name" v="Røykjeskålhøe" />
		<tag k="name" v="Røykeskålhøi" />
		<tag k="natural" v="hill" />
		<tag k="place" v="locality" />
		<tag k="ssr:stedsnr" v="738499" />
	</node>
	<node lat="61.86782778183715" lon="7.781461110562744" id="-18661">
		<tag k="name" v="Kleivberget" />
		<tag k="natural" v="hill" />
		<tag k="place" v="locality" />
		<tag k="ssr:stedsnr" v="738735" />
	</node>
	<node lat="61.959355559232904" lon="8.25982777453872" id="-18663">
		<tag k="fixme" v="multiple name tags, choose one and add the other to alt_name; consider natural=peak for the most distinct mountains in the district" />
		<tag k="name" v="Skriduhøi;Aursjohøi" />
		<tag k="natural" v="hill" />
		<tag k="place" v="locality" />
		<tag k="ssr:stedsnr" v="738659" />
	</node>
	<node lat="61.92935555671766" lon="8.09328333630048" id="-18665">
		<tag k="alt_name" v="Slettbakkan" />
		<tag k="name" v="Slettebakken" />
		<tag k="natural" v="slope" />
		<tag k="place" v="locality" />
		<tag k="ssr:stedsnr" v="738680" />
	</node>
	<node lat="61.81765277832078" lon="7.780797216016182" id="-18668">
		<tag k="alt_name" v="Solflye" />
		<tag k="name" v="Sotflyi" />
		<tag k="place" v="locality" />
		<tag k="ssr:stedsnr" v="738744" />
	</node>
	<node lat="61.8949027814178" lon="8.424299993619941" id="-18676">
=======
	<node id="-363684" lat="62.1773805576" lon="7.98361667605">
		<tag k="fixme" v="consider natural=peak for the most distinct mountains in the district" />
		<tag k="name" v="Storhøa" />
		<tag k="natural" v="hill" />
		<tag k="place" v="locality" />
		<tag k="ssr:stedsnr" v="800156" />
	</node>
	<node id="-363676" lat="61.8438333372" lon="7.77793055956">
		<tag k="name" v="Brennsæterberget" />
		<tag k="natural" v="hill" />
		<tag k="place" v="locality" />
		<tag k="ssr:stedsnr" v="799762" />
	</node>
	<node id="-363664" lat="61.9446083288" lon="7.55640832409">
		<tag k="fixme" v="consider natural=peak for the most distinct mountains in the district" />
		<tag k="name" v="Mårådalsbenken" />
		<tag k="natural" v="hill" />
		<tag k="place" v="locality" />
		<tag k="ssr:stedsnr" v="798557" />
	</node>
	<node id="-363662" lat="61.9551666684" lon="8.15575833892">
		<tag k="name" v="Stordøkti" />
		<tag k="natural" v="valley" />
		<tag k="place" v="locality" />
		<tag k="ssr:stedsnr" v="798633" />
	</node>
	<node id="-363659" lat="61.9980638913" lon="8.50613054708">
		<tag k="name" v="Storskardet" />
		<tag k="natural" v="valley" />
		<tag k="place" v="locality" />
		<tag k="ssr:stedsnr" v="921980" />
	</node>
	<node id="-363658" lat="62.0007083341" lon="8.39066943517">
		<tag k="fixme" v="consider natural=peak for the most distinct mountains in the district" />
		<tag k="name" v="Fellinghøi" />
		<tag k="natural" v="hill" />
		<tag k="place" v="locality" />
		<tag k="ssr:stedsnr" v="921973" />
	</node>
	<node id="-363655" lat="61.7947027738" lon="8.24621111922">
		<tag k="name" v="Sandgrovskardet" />
		<tag k="natural" v="valley" />
		<tag k="place" v="locality" />
		<tag k="ssr:stedsnr" v="921946" />
	</node>
	<node id="-363647" lat="62.1695444471" lon="7.94678333598">
		<tag k="alt_name" v="Glupen, søre" />
		<tag k="name" v="Søre Glupen" />
		<tag k="natural" v="valley" />
		<tag k="place" v="locality" />
		<tag k="ssr:stedsnr" v="921231" />
	</node>
	<node id="-363643" lat="62.0809972262" lon="7.82674999737">
		<tag k="fixme" v="consider natural=peak for the most distinct mountains in the district" />
		<tag k="name" v="Tordskyrkja" />
		<tag k="natural" v="hill" />
		<tag k="place" v="locality" />
		<tag k="ssr:stedsnr" v="921202" />
	</node>
	<node id="-363642" lat="62.0949583359" lon="7.9148944485">
		<tag k="fixme" v="consider natural=peak for the most distinct mountains in the district" />
		<tag k="name" v="Høggøymen" />
		<tag k="natural" v="hill" />
		<tag k="place" v="locality" />
		<tag k="ssr:stedsnr" v="921201" />
	</node>
	<node id="-363639" lat="61.8928749979" lon="8.28649167136">
		<tag k="alt_name" v="Bispeberget" />
		<tag k="fixme" v="consider natural=peak for the most distinct mountains in the district" />
		<tag k="name" v="Bispberget" />
		<tag k="natural" v="hill" />
		<tag k="place" v="locality" />
		<tag k="ssr:stedsnr" v="920890" />
	</node>
	<node id="-363634" lat="61.9102777783" lon="8.46496111142">
		<tag k="alt_name" v="Døkti, søre;Døkti, s" />
		<tag k="name" v="Søre Døkti" />
		<tag k="natural" v="valley" />
		<tag k="place" v="locality" />
		<tag k="ssr:stedsnr" v="920847" />
	</node>
	<node id="-363631" lat="61.9032999999" lon="8.2481638895">
		<tag k="name" v="Harsheimlii" />
		<tag k="natural" v="slope" />
		<tag k="place" v="locality" />
		<tag k="ssr:stedsnr" v="920831" />
	</node>
	<node id="-363627" lat="61.8728416647" lon="8.22725554689">
		<tag k="name" v="Kvernberget" />
		<tag k="natural" v="slope" />
		<tag k="place" v="locality" />
		<tag k="ssr:stedsnr" v="920771" />
	</node>
	<node id="-363624" lat="61.9946194451" lon="8.3216444399">
		<tag k="fixme" v="consider natural=peak for the most distinct mountains in the district" />
		<tag k="name" v="Steinkollen" />
		<tag k="natural" v="hill" />
		<tag k="place" v="locality" />
		<tag k="ssr:stedsnr" v="920647" />
	</node>
	<node id="-363622" lat="61.9914611133" lon="8.16926110378">
		<tag k="name" v="Bukampen" />
		<tag k="natural" v="hill" />
		<tag k="place" v="locality" />
		<tag k="ssr:stedsnr" v="920642" />
	</node>
	<node id="-363620" lat="61.7539722202" lon="7.78635832403">
		<tag k="name" v="Tundradalsbandet" />
		<tag k="natural" v="valley" />
		<tag k="place" v="locality" />
		<tag k="ssr:stedsnr" v="920637" />
	</node>
	<node id="-363618" lat="61.8745000024" lon="7.51760556072">
		<tag k="name" v="Hamran" />
		<tag k="natural" v="slope" />
		<tag k="place" v="locality" />
		<tag k="ssr:stedsnr" v="920605" />
	</node>
	<node id="-363617" lat="61.8448361117" lon="7.44317499465">
		<tag k="name" v="Blankberget" />
		<tag k="natural" v="hill" />
		<tag k="place" v="locality" />
		<tag k="ssr:stedsnr" v="920603" />
	</node>
	<node id="-363614" lat="61.9170861107" lon="8.03868888376">
		<tag k="fixme" v="consider natural=peak for the most distinct mountains in the district" />
		<tag k="name" v="Uppnosi" />
		<tag k="natural" v="hill" />
		<tag k="place" v="locality" />
		<tag k="ssr:stedsnr" v="920536" />
	</node>
	<node id="-363612" lat="61.9471055563" lon="8.06972778675">
		<tag k="alt_name" v="Heggebotthovden" />
		<tag k="fixme" v="consider natural=peak for the most distinct mountains in the district" />
		<tag k="name" v="Heggjebotthovden" />
		<tag k="natural" v="hill" />
		<tag k="place" v="locality" />
		<tag k="ssr:stedsnr" v="920529" />
	</node>
	<node id="-363609" lat="61.9598722205" lon="7.93445000931">
		<tag k="fixme" v="consider natural=peak for the most distinct mountains in the district" />
		<tag k="name" v="Stamsæterhovden" />
		<tag k="natural" v="hill" />
		<tag k="place" v="locality" />
		<tag k="ssr:stedsnr" v="920499" />
	</node>
	<node id="-363608" lat="61.8880027785" lon="8.05989999246">
		<tag k="name" v="Brennranden" />
		<tag k="natural" v="slope" />
		<tag k="place" v="locality" />
		<tag k="ssr:stedsnr" v="920716" />
	</node>
	<node id="-363596" lat="61.8217999974" lon="8.2550944531">
		<tag k="fixme" v="consider natural=peak for the most distinct mountains in the district" />
		<tag k="name" v="Knarten" />
		<tag k="natural" v="hill" />
		<tag k="place" v="locality" />
		<tag k="ssr:stedsnr" v="739953" />
	</node>
	<node id="-363589" lat="61.8769111095" lon="8.39129167591">
		<tag k="name" v="Ånstadøye" />
		<tag k="place" v="locality" />
		<tag k="ssr:stedsnr" v="900935" />
	</node>
	<node id="-363585" lat="61.7951027766" lon="8.15696944098">
		<tag k="name" v="Steinflaten" />
		<tag k="place" v="locality" />
		<tag k="ssr:stedsnr" v="900242" />
	</node>
	<node id="-363584" lat="61.85875556" lon="8.26433611618">
		<tag k="name" v="Nose" />
		<tag k="place" v="locality" />
		<tag k="ssr:stedsnr" v="900184" />
	</node>
	<node id="-363583" lat="61.8404250019" lon="8.18934166517">
		<tag k="alt_name" v="Svodåfjellet" />
		<tag k="fixme" v="consider natural=peak for the most distinct mountains in the district" />
		<tag k="loc_name" v="Svaåfjellet" />
		<tag k="name" v="Svåfjellet" />
		<tag k="natural" v="hill" />
		<tag k="place" v="locality" />
		<tag k="ssr:stedsnr" v="722968" />
	</node>
	<node id="-363581" lat="61.9157972215" lon="8.36189166769">
		<tag k="name" v="Spildermillom" />
		<tag k="natural" v="slope" />
		<tag k="place" v="locality" />
		<tag k="ssr:stedsnr" v="718573" />
	</node>
	<node id="-363571" lat="62.0416638875" lon="7.39850555724">
		<tag k="fixme" v="consider natural=peak for the most distinct mountains in the district" />
		<tag k="loc_name" v="Breiddalseggje" />
		<tag k="name" v="Breiddalseggi" />
		<tag k="natural" v="hill" />
		<tag k="place" v="locality" />
		<tag k="ssr:stedsnr" v="678154" />
	</node>
	<node id="-363570" lat="62.066750002" lon="7.61541388205">
		<tag k="fixme" v="consider natural=peak for the most distinct mountains in the district" />
		<tag k="loc_name" v="Krosshøe" />
		<tag k="name" v="Krosshø" />
		<tag k="natural" v="hill" />
		<tag k="place" v="locality" />
		<tag k="ssr:stedsnr" v="678119" />
	</node>
	<node id="-363562" lat="61.8793861101" lon="7.90251666856">
		<tag k="alt_name" v="Styggehøe" />
		<tag k="fixme" v="consider natural=peak for the most distinct mountains in the district" />
		<tag k="name" v="Styggehøi" />
		<tag k="natural" v="hill" />
		<tag k="place" v="locality" />
		<tag k="ssr:stedsnr" v="677708" />
	</node>
	<node id="-363560" lat="61.9186055587" lon="8.40183889169">
		<tag k="alt_name" v="Døkti, nordre;Nordre Døkti" />
		<tag k="name" v="Nørdre Døkti" />
		<tag k="natural" v="valley" />
		<tag k="place" v="locality" />
		<tag k="ssr:stedsnr" v="677671" />
	</node>
	<node id="-363558" lat="61.924508329" lon="8.44793056281">
		<tag k="fixme" v="consider natural=peak for the most distinct mountains in the district" />
		<tag k="name" v="Nerhorrungen" />
		<tag k="natural" v="hill" />
		<tag k="place" v="locality" />
		<tag k="ssr:stedsnr" v="677663" />
	</node>
	<node id="-363556" lat="61.9427972222" lon="7.83284999659">
		<tag k="alt_name" v="Nordmannskrokain" />
		<tag k="name" v="Nordmannskrokan" />
		<tag k="natural" v="slope" />
		<tag k="place" v="locality" />
		<tag k="ssr:stedsnr" v="677506" />
	</node>
	<node id="-363555" lat="62.0017027812" lon="7.90141388411">
		<tag k="fixme" v="consider natural=peak for the most distinct mountains in the district" />
		<tag k="name" v="Søre Einstulskampen" />
		<tag k="natural" v="hill" />
		<tag k="ssr:stedsnr" v="877577" />
	</node>
	<node id="-363554" lat="61.8600388918" lon="8.36080000807">
		<tag k="name" v="Høglunnen" />
		<tag k="natural" v="hill" />
		<tag k="place" v="locality" />
		<tag k="ssr:stedsnr" v="657653" />
	</node>
	<node id="-363547" lat="61.8054000024" lon="8.16296389627">
		<tag k="alt_name" v="Grotåkampen" />
		<tag k="fixme" v="consider natural=peak for the most distinct mountains in the district" />
		<tag k="name" v="Grjotåkampan" />
		<tag k="natural" v="hill" />
		<tag k="place" v="locality" />
		<tag k="ssr:stedsnr" v="617963" />
	</node>
	<node id="-363541" lat="61.8603583321" lon="7.66887500865">
		<tag k="name" v="Søverbandet" />
		<tag k="natural" v="valley" />
		<tag k="place" v="locality" />
		<tag k="ssr:stedsnr" v="616603" />
	</node>
	<node id="-363540" lat="61.9076833339" lon="8.03175000499">
		<tag k="name" v="Brumellomlii" />
		<tag k="natural" v="slope" />
		<tag k="place" v="locality" />
		<tag k="ssr:stedsnr" v="616703" />
	</node>
	<node id="-363538" lat="61.8196083348" lon="7.48608054811">
		<tag k="name" v="Jordet" />
		<tag k="place" v="locality" />
		<tag k="ssr:stedsnr" v="616591" />
	</node>
	<node id="-363520" lat="61.8921444444" lon="8.0817472186">
		<tag k="name" v="Skjellholet" />
		<tag k="natural" v="valley" />
		<tag k="place" v="locality" />
		<tag k="ssr:stedsnr" v="717445" />
	</node>
	<node id="-363517" lat="61.8998416706" lon="8.08094722294">
		<tag k="name" v="Bjønnholet" />
		<tag k="natural" v="valley" />
		<tag k="place" v="locality" />
		<tag k="ssr:stedsnr" v="717436" />
	</node>
	<node id="-363515" lat="61.9015583297" lon="8.2572750054">
		<tag k="name" v="Øvre Lie" />
		<tag k="natural" v="slope" />
		<tag k="place" v="locality" />
		<tag k="ssr:stedsnr" v="597094" />
	</node>
	<node id="-363513" lat="61.8881444484" lon="8.16560556138">
		<tag k="fixme" v="consider natural=peak for the most distinct mountains in the district" />
		<tag k="name" v="Svarthåmmåren" />
		<tag k="natural" v="hill" />
		<tag k="place" v="locality" />
		<tag k="ssr:stedsnr" v="597060" />
	</node>
	<node id="-363509" lat="61.8875291618" lon="8.49386279138">
		<tag k="name" v="Ørnsteinberget" />
		<tag k="natural" v="hill" />
		<tag k="place" v="locality" />
		<tag k="ssr:stedsnr" v="556916" />
	</node>
	<node id="-363504" lat="61.7806611137" lon="8.07741388392">
		<tag k="name" v="Salhus" />
		<tag k="natural" v="slope" />
		<tag k="place" v="locality" />
		<tag k="ssr:stedsnr" v="556655" />
	</node>
	<node id="-363487" lat="61.8849666643" lon="8.15023333877">
		<tag k="alt_name" v="Dugurdhøe" />
		<tag k="fixme" v="consider natural=peak for the most distinct mountains in the district" />
		<tag k="name" v="Dugurdshaugen" />
		<tag k="natural" v="hill" />
		<tag k="place" v="locality" />
		<tag k="ssr:stedsnr" v="495874" />
	</node>
	<node id="-363484" lat="61.9084361111" lon="8.27166111711">
		<tag k="fixme" v="consider natural=peak for the most distinct mountains in the district" />
		<tag k="name" v="Harsheimshammaren" />
		<tag k="natural" v="hill" />
		<tag k="place" v="locality" />
		<tag k="ssr:stedsnr" v="495855" />
	</node>
	<node id="-363481" lat="61.846580556" lon="7.91022500591">
		<tag k="name" v="Høgkulen" />
		<tag k="natural" v="hill" />
		<tag k="place" v="locality" />
		<tag k="ssr:stedsnr" v="495729" />
	</node>
	<node id="-363479" lat="61.8297361116" lon="7.7545083423">
		<tag k="name" v="Randsverk" />
		<tag k="place" v="locality" />
		<tag k="ssr:stedsnr" v="495726" />
	</node>
	<node id="-363478" lat="61.8457749977" lon="8.0292555596">
		<tag k="name" v="Rundhaugen" />
		<tag k="natural" v="hill" />
		<tag k="place" v="locality" />
		<tag k="ssr:stedsnr" v="495724" />
	</node>
	<node id="-363474" lat="61.9621722236" lon="8.01217499556">
		<tag k="name" v="Grønbakkan" />
		<tag k="natural" v="slope" />
		<tag k="place" v="locality" />
		<tag k="ssr:stedsnr" v="495506" />
	</node>
	<node id="-363468" lat="61.8457888886" lon="8.3647333337">
		<tag k="loc_name" v="Hestflatane" />
		<tag k="name" v="Hestflotin" />
		<tag k="place" v="locality" />
		<tag k="ssr:stedsnr" v="678940" />
	</node>
	<node id="-363467" lat="61.9787249989" lon="8.51060000616">
		<tag k="fixme" v="consider natural=peak for the most distinct mountains in the district" />
		<tag k="name" v="Leirhøi" />
		<tag k="natural" v="hill" />
		<tag k="place" v="locality" />
		<tag k="ssr:stedsnr" v="678964" />
	</node>
	<node id="-363465" lat="61.8642777795" lon="8.32994444644">
		<tag k="name" v="Høglunden" />
		<tag k="natural" v="slope" />
		<tag k="place" v="locality" />
		<tag k="ssr:stedsnr" v="678783" />
	</node>
	<node id="-363462" lat="62.1416111091" lon="7.94483888545">
		<tag k="name" v="Kvitbotn" />
		<tag k="natural" v="valley" />
		<tag k="place" v="locality" />
		<tag k="ssr:stedsnr" v="678226" />
	</node>
	<node id="-363461" lat="62.1217722191" lon="7.98323611198">
		<tag k="name" v="Storbotn" />
		<tag k="natural" v="valley" />
		<tag k="place" v="locality" />
		<tag k="ssr:stedsnr" v="678212" />
	</node>
	<node id="-363460" lat="62.0936416678" lon="7.95743611322">
		<tag k="name" v="Dør" />
		<tag k="natural" v="valley" />
		<tag k="place" v="locality" />
		<tag k="ssr:stedsnr" v="678197" />
	</node>
	<node id="-363458" lat="61.8881444404" lon="8.48714722904">
		<tag k="name" v="Høyvelta" />
		<tag k="place" v="locality" />
		<tag k="ssr:stedsnr" v="677949" />
	</node>
	<node id="-363457" lat="61.9027166657" lon="8.49794166463">
		<tag k="fixme" v="consider natural=peak for the most distinct mountains in the district" />
		<tag k="name" v="Ruphovden" />
		<tag k="natural" v="hill" />
		<tag k="place" v="locality" />
		<tag k="ssr:stedsnr" v="677941" />
	</node>
	<node id="-363454" lat="61.8792861112" lon="8.3206250054">
		<tag k="name" v="Turrmoen" />
		<tag k="place" v="locality" />
		<tag k="ssr:stedsnr" v="677852" />
	</node>
	<node id="-363451" lat="61.9080305553" lon="8.34455833884">
		<tag k="alt_name" v="Kvålheimslie" />
		<tag k="name" v="Kvålheimslii" />
		<tag k="natural" v="slope" />
		<tag k="place" v="locality" />
		<tag k="ssr:stedsnr" v="677837" />
	</node>
	<node id="-363448" lat="61.9702000002" lon="8.33330833351">
		<tag k="fixme" v="consider natural=peak for the most distinct mountains in the district" />
		<tag k="name" v="Jehanshøi" />
		<tag k="natural" v="hill" />
		<tag k="place" v="locality" />
		<tag k="ssr:stedsnr" v="677646" />
	</node>
	<node id="-363434" lat="61.9846972197" lon="7.91192222867">
		<tag k="fixme" v="consider natural=peak for the most distinct mountains in the district" />
		<tag k="name" v="Synstålkyrkja" />
		<tag k="natural" v="hill" />
		<tag k="place" v="locality" />
		<tag k="ssr:stedsnr" v="677497" />
	</node>
	<node id="-363430" lat="62.0849694456" lon="8.03589723156">
		<tag k="fixme" v="consider natural=peak for the most distinct mountains in the district" />
		<tag k="name" v="Blåhøe" />
		<tag k="natural" v="hill" />
		<tag k="ssr:stedsnr" v="453607" />
	</node>
	<node id="-363422" lat="61.8446416628" lon="8.31755834193">
		<tag k="name" v="Nørdre Langhaugen" />
		<tag k="natural" v="hill" />
		<tag k="place" v="locality" />
		<tag k="ssr:stedsnr" v="657177" />
	</node>
	<node id="-363421" lat="61.8565777805" lon="8.31981111289">
		<tag k="name" v="Lendfjell" />
		<tag k="natural" v="hill" />
		<tag k="place" v="locality" />
		<tag k="ssr:stedsnr" v="657163" />
	</node>
	<node id="-363419" lat="61.8502805575" lon="8.27035278458">
		<tag k="name" v="Tjuvsvingen" />
		<tag k="natural" v="slope" />
		<tag k="place" v="locality" />
		<tag k="ssr:stedsnr" v="657153" />
	</node>
	<node id="-363415" lat="61.8866888846" lon="8.04040555213">
		<tag k="name" v="Svarthåmmårn" />
		<tag k="natural" v="hill" />
		<tag k="place" v="locality" />
		<tag k="ssr:stedsnr" v="656445" />
	</node>
	<node id="-363412" lat="62.1707305518" lon="7.79569999857">
		<tag k="fixme" v="consider natural=peak for the most distinct mountains in the district" />
		<tag k="name" v="Litlefjell" />
		<tag k="natural" v="hill" />
		<tag k="place" v="locality" />
		<tag k="ssr:stedsnr" v="436206" />
	</node>
	<node id="-363411" lat="62.18439722" lon="7.73452777664">
		<tag k="fixme" v="consider natural=peak for the most distinct mountains in the district" />
		<tag k="name" v="Karitinden" />
		<tag k="natural" v="hill" />
		<tag k="place" v="locality" />
		<tag k="ssr:stedsnr" v="436152" />
	</node>
	<node id="-363410" lat="62.1728138926" lon="7.92107221363">
		<tag k="fixme" v="consider natural=peak for the most distinct mountains in the district" />
		<tag k="name" v="Trollkyrkja" />
		<tag k="natural" v="hill" />
		<tag k="place" v="locality" />
		<tag k="ssr:stedsnr" v="436140" />
	</node>
	<node id="-363409" lat="62.0983111071" lon="7.64859167065">
		<tag k="fixme" v="consider natural=peak for the most distinct mountains in the district" />
		<tag k="name" v="Vulustrupen" />
		<tag k="natural" v="hill" />
		<tag k="place" v="locality" />
		<tag k="ssr:stedsnr" v="436103" />
	</node>
	<node id="-363407" lat="61.8825583305" lon="7.97496666346">
		<tag k="alt_name" v="Buanose" />
		<tag k="name" v="Buanosi" />
		<tag k="natural" v="hill" />
		<tag k="place" v="locality" />
		<tag k="ssr:stedsnr" v="435729" />
	</node>
	<node id="-363388" lat="61.8811055512" lon="8.21666111675">
		<tag k="name" v="Slåi" />
		<tag k="natural" v="slope" />
		<tag k="place" v="locality" />
		<tag k="ssr:stedsnr" v="374877" />
	</node>
	<node id="-363384" lat="61.8200972239" lon="7.76006110509">
		<tag k="alt_name" v="Rondhaugen" />
		<tag k="name" v="Rundhaugen" />
		<tag k="natural" v="hill" />
		<tag k="place" v="locality" />
		<tag k="ssr:stedsnr" v="374758" />
	</node>
	<node id="-363383" lat="62.025258331" lon="7.43925555219">
		<tag k="name" v="Breiddalen" />
		<tag k="natural" v="valley" />
		<tag k="place" v="locality" />
		<tag k="ssr:stedsnr" v="374713" />
	</node>
	<node id="-363378" lat="62.0763833333" lon="7.86128888076">
		<tag k="fixme" v="consider natural=peak for the most distinct mountains in the district" />
		<tag k="name" v="Låggøymen" />
		<tag k="natural" v="hill" />
		<tag k="place" v="locality" />
		<tag k="ssr:stedsnr" v="374270" />
	</node>
	<node id="-363376" lat="62.1238861139" lon="7.94054722406">
		<tag k="loc_name" v="Spongflye" />
		<tag k="name" v="Spongflyi" />
		<tag k="place" v="locality" />
		<tag k="ssr:stedsnr" v="374221" />
	</node>
	<node id="-363375" lat="62.0943916659" lon="7.83088611451">
		<tag k="name" v="Tverrådalen" />
		<tag k="natural" v="valley" />
		<tag k="place" v="locality" />
		<tag k="ssr:stedsnr" v="374212" />
	</node>
	<node id="-363371" lat="61.9896083293" lon="7.73366388574">
		<tag k="fixme" v="consider natural=peak for the most distinct mountains in the district" />
		<tag k="name" v="Løyftin" />
		<tag k="natural" v="hill" />
		<tag k="place" v="locality" />
		<tag k="ssr:stedsnr" v="373512" />
	</node>
	<node id="-363370" lat="61.7446472233" lon="7.7574222269">
		<tag k="fixme" v="consider natural=peak for the most distinct mountains in the district" />
		<tag k="name" v="Tundradalskyrkja" />
		<tag k="natural" v="hill" />
		<tag k="place" v="locality" />
		<tag k="ssr:stedsnr" v="373368" />
	</node>
	<node id="-363357" lat="61.7935499985" lon="8.15486388663">
		<tag k="name" v="Røysflatan" />
		<tag k="place" v="locality" />
		<tag k="ssr:stedsnr" v="496950" />
	</node>
	<node id="-363355" lat="62.0260472267" lon="8.1333888894">
		<tag k="alt_name" v="Svarthaugen, s" />
		<tag k="name" v="Søre Svarthaugen" />
		<tag k="natural" v="hill" />
		<tag k="place" v="locality" />
		<tag k="ssr:stedsnr" v="496247" />
	</node>
	<node id="-363352" lat="62.1021388881" lon="7.98458332439">
		<tag k="fixme" v="consider natural=peak for the most distinct mountains in the district" />
		<tag k="name" v="Dørkampen" />
		<tag k="natural" v="hill" />
		<tag k="place" v="locality" />
		<tag k="ssr:stedsnr" v="496202" />
	</node>
	<node id="-363348" lat="61.9738611119" lon="8.28509999882">
		<tag k="fixme" v="consider natural=peak for the most distinct mountains in the district" />
		<tag k="name" v="Aukarshøi" />
		<tag k="natural" v="hill" />
		<tag k="place" v="locality" />
		<tag k="ssr:stedsnr" v="495649" />
	</node>
	<node id="-363347" lat="61.7986777734" lon="7.78034999685">
		<tag k="alt_name" v="Sothogget, nordre;Nordre Sothogget" />
		<tag k="name" v="Nørdre Sothogget" />
		<tag k="natural" v="valley" />
		<tag k="place" v="locality" />
		<tag k="ssr:stedsnr" v="495628" />
	</node>
	<node id="-363346" lat="61.8290305592" lon="7.65481111238">
		<tag k="fixme" v="consider natural=peak for the most distinct mountains in the district" />
		<tag k="name" v="Sekken" />
		<tag k="natural" v="hill" />
		<tag k="place" v="locality" />
		<tag k="ssr:stedsnr" v="495627" />
	</node>
	<node id="-363345" lat="61.8839138898" lon="7.60604443692">
		<tag k="fixme" v="consider natural=peak for the most distinct mountains in the district" />
		<tag k="loc_name" v="Vakkerfjell" />
		<tag k="name" v="Vakkerfjellet" />
		<tag k="natural" v="hill" />
		<tag k="place" v="locality" />
		<tag k="ssr:stedsnr" v="495614" />
	</node>
	<node id="-363342" lat="61.8362111071" lon="7.71134721911">
		<tag k="name" v="Svaet" />
		<tag k="natural" v="slope" />
		<tag k="place" v="locality" />
		<tag k="ssr:stedsnr" v="495599" />
	</node>
	<node id="-363333" lat="61.9387527745" lon="7.7395000085">
		<tag k="fixme" v="consider natural=peak for the most distinct mountains in the district" />
		<tag k="name" v="Raudbergsløyfti" />
		<tag k="natural" v="hill" />
		<tag k="place" v="locality" />
		<tag k="ssr:stedsnr" v="495528" />
	</node>
	<node id="-363326" lat="62.0615444442" lon="7.42606666396">
		<tag k="fixme" v="consider natural=peak for the most distinct mountains in the district" />
		<tag k="name" v="Vianovi" />
		<tag k="natural" v="hill" />
		<tag k="place" v="locality" />
		<tag k="ssr:stedsnr" v="495125" />
	</node>
	<node id="-363324" lat="62.0484722207" lon="7.99644722098">
		<tag k="name" v="Stamåjuvet" />
		<tag k="natural" v="gorge" />
		<tag k="ssr:stedsnr" v="331727" />
	</node>
	<node id="-363323" lat="62.0315833362" lon="7.77113055995">
		<tag k="name" v="Raudberget" />
		<tag k="natural" v="hill" />
		<tag k="place" v="locality" />
		<tag k="ssr:stedsnr" v="331721" />
	</node>
	<node id="-363321" lat="62.0038000027" lon="7.71580555443">
		<tag k="name" v="Heimdalen" />
		<tag k="natural" v="valley" />
		<tag k="place" v="locality" />
		<tag k="ssr:stedsnr" v="475879" />
	</node>
	<node id="-363314" lat="61.7958444474" lon="7.59710554685">
		<tag k="name" v="Tverreggje" />
		<tag k="place" v="locality" />
		<tag k="ssr:stedsnr" v="475357" />
	</node>
	<node id="-363308" lat="61.8703861077" lon="8.31818333322">
		<tag k="name" v="Skjeillan" />
		<tag k="natural" v="slope" />
		<tag k="place" v="locality" />
		<tag k="ssr:stedsnr" v="475130" />
	</node>
	<node id="-363303" lat="61.7997166654" lon="8.18861112037">
		<tag k="name" v="Pallan" />
		<tag k="natural" v="slope" />
		<tag k="place" v="locality" />
		<tag k="ssr:stedsnr" v="314918" />
	</node>
	<node id="-363297" lat="62.0409499993" lon="7.498686103">
		<tag k="fixme" v="consider natural=peak for the most distinct mountains in the district" />
		<tag k="name" v="Viahøi" />
		<tag k="natural" v="hill" />
		<tag k="place" v="locality" />
		<tag k="ssr:stedsnr" v="314174" />
	</node>
	<node id="-363290" lat="61.8582555546" lon="7.96424166116">
		<tag k="name" v="Råkåkampen" />
		<tag k="natural" v="hill" />
		<tag k="place" v="locality" />
		<tag k="ssr:stedsnr" v="313723" />
	</node>
	<node id="-363288" lat="61.8769249973" lon="7.78161388194">
		<tag k="name" v="Dyringkleivi" />
		<tag k="natural" v="slope" />
		<tag k="place" v="locality" />
		<tag k="ssr:stedsnr" v="313715" />
	</node>
	<node id="-363283" lat="61.7826249963" lon="7.59311389768">
		<tag k="loc_name" v="Syrtbyttdalen" />
		<tag k="name" v="Surtbyttdalen" />
		<tag k="natural" v="valley" />
		<tag k="place" v="locality" />
		<tag k="ssr:stedsnr" v="313624" />
	</node>
	<node id="-363282" lat="61.7428861131" lon="7.68716666776">
		<tag k="fixme" v="consider natural=peak for the most distinct mountains in the district" />
		<tag k="name" v="Tverrådalskyrkja" />
		<tag k="natural" v="hill" />
		<tag k="place" v="locality" />
		<tag k="ssr:stedsnr" v="313618" />
	</node>
	<node id="-363281" lat="61.946861111" lon="7.47379999865">
		<tag k="fixme" v="consider natural=peak for the most distinct mountains in the district" />
		<tag k="loc_name" v="Raudeggje" />
		<tag k="name" v="Raudeggi" />
		<tag k="natural" v="hill" />
		<tag k="place" v="locality" />
		<tag k="ssr:stedsnr" v="313608" />
	</node>
	<node id="-363278" lat="61.9666972212" lon="8.05293888122">
		<tag k="alt_name" v="Heggjebottflye;Heggebottflyi, nedre" />
		<tag k="name" v="Nedre Heggebottflyi" />
		<tag k="natural" v="slope" />
		<tag k="place" v="locality" />
		<tag k="ssr:stedsnr" v="313522" />
	</node>
	<node id="-363277" lat="61.9603333325" lon="7.91578055764">
		<tag k="name" v="Billingsdalen" />
		<tag k="natural" v="valley" />
		<tag k="place" v="locality" />
		<tag k="ssr:stedsnr" v="313516" />
	</node>
	<node id="-363276" lat="61.7687027775" lon="7.68598888312">
		<tag k="name" v="Tverrådalen" />
		<tag k="natural" v="valley" />
		<tag k="place" v="locality" />
		<tag k="ssr:stedsnr" v="313505" />
	</node>
	<node id="-363275" lat="61.8684444449" lon="7.77133889468">
		<tag k="name" v="Kleive" />
		<tag k="natural" v="slope" />
		<tag k="place" v="locality" />
		<tag k="ssr:stedsnr" v="293378" />
	</node>
	<node id="-363272" lat="62.0401055599" lon="7.87077778647">
		<tag k="name" v="Sørfjellet" />
		<tag k="natural" v="hill" />
		<tag k="place" v="locality" />
		<tag k="ssr:stedsnr" v="270563" />
	</node>
	<node id="-363271" lat="62.0326249984" lon="7.88336944744">
		<tag k="name" v="Svartknubben" />
		<tag k="natural" v="hill" />
		<tag k="place" v="locality" />
		<tag k="ssr:stedsnr" v="270561" />
	</node>
	<node id="-363267" lat="61.962052779" lon="8.13989166381">
		<tag k="fixme" v="consider natural=peak for the most distinct mountains in the district" />
		<tag k="name" v="Slettflykampen" />
		<tag k="natural" v="hill" />
		<tag k="place" v="locality" />
		<tag k="ssr:stedsnr" v="252602" />
	</node>
	<node id="-363266" lat="61.9123250022" lon="7.79313332443">
		<tag k="alt_name" v="Rauberget" />
		<tag k="name" v="Raudberget" />
		<tag k="natural" v="hill" />
		<tag k="place" v="locality" />
		<tag k="ssr:stedsnr" v="252512" />
	</node>
	<node id="-363265" lat="61.8981000004" lon="7.84325277401">
		<tag k="name" v="Næpholet" />
		<tag k="natural" v="valley" />
		<tag k="place" v="locality" />
		<tag k="ssr:stedsnr" v="232316" />
	</node>
	<node id="-363263" lat="62.0064222186" lon="7.69835833807">
		<tag k="name" v="Glåmbakkjen" />
		<tag k="natural" v="slope" />
		<tag k="place" v="locality" />
		<tag k="ssr:stedsnr" v="294870" />
	</node>
	<node id="-363246" lat="61.9017138863" lon="8.04461110801">
		<tag k="name" v="Olafposten" />
		<tag k="natural" v="hill" />
		<tag k="place" v="locality" />
		<tag k="ssr:stedsnr" v="293451" />
	</node>
	<node id="-363243" lat="61.9023249979" lon="8.22573055978">
		<tag k="name" v="Hyrvehåmmåren" />
		<tag k="natural" v="hill" />
		<tag k="place" v="locality" />
		<tag k="ssr:stedsnr" v="293114" />
	</node>
	<node id="-363242" lat="62.1702638853" lon="7.89602777277">
		<tag k="name" v="Nørdre Glupen" />
		<tag k="natural" v="valley" />
		<tag k="place" v="locality" />
		<tag k="ssr:stedsnr" v="193149" />
	</node>
	<node id="-363240" lat="61.8473888887" lon="7.67572499736">
>>>>>>> e1d4bc35ff8a6074a6f2e91616a996b547c36f15
		<tag k="fixme" v="consider natural=peak for the most distinct mountains in the district" />
		<tag k="loc_name" v="Søverhøe" />
		<tag k="name" v="Søverhøi" />
		<tag k="natural" v="hill" />
		<tag k="place" v="locality" />
		<tag k="ssr:stedsnr" v="192628" />
	</node>
<<<<<<< HEAD
	<node lat="61.843430551079145" lon="8.16089999500046" id="-18679">
		<tag k="fixme" v="consider natural=peak for the most distinct mountains in the district" />
		<tag k="name" v="Dalåhøi" />
		<tag k="natural" v="hill" />
		<tag k="place" v="locality" />
		<tag k="ssr:stedsnr" v="739789" />
	</node>
	<node lat="61.78316111372318" lon="8.139869439118684" id="-18683">
		<tag k="name" v="Kvilingan" />
		<tag k="natural" v="slope" />
		<tag k="place" v="locality" />
		<tag k="ssr:stedsnr" v="739935" />
	</node>
	<node lat="61.87137222670804" lon="8.040619448727497" id="-18688">
		<tag k="name" v="Skjellhaugain" />
		<tag k="natural" v="hill" />
		<tag k="place" v="locality" />
		<tag k="ssr:stedsnr" v="778437" />
	</node>
	<node lat="61.951024997573654" lon="8.015169453882411" id="-18693">
		<tag k="name" v="Heggjebottberget" />
		<tag k="natural" v="hill" />
		<tag k="place" v="locality" />
		<tag k="ssr:stedsnr" v="779282" />
	</node>
	<node lat="61.87991666283998" lon="8.303391672102652" id="-18697">
		<tag k="name" v="Lundahaugan" />
		<tag k="natural" v="hill" />
		<tag k="place" v="locality" />
		<tag k="ssr:stedsnr" v="779732" />
	</node>
	<node lat="61.95516666841412" lon="8.155758338915767" id="-18705">
		<tag k="name" v="Stordøkti" />
		<tag k="natural" v="valley" />
		<tag k="place" v="locality" />
		<tag k="ssr:stedsnr" v="798633" />
	</node>
	<node lat="62.038752777644724" lon="7.446925008242417" id="-18707">
		<tag k="alt_name" v="Kupa, s" />
		<tag k="name" v="Søre Kupa" />
		<tag k="natural" v="valley" />
		<tag k="place" v="locality" />
		<tag k="ssr:stedsnr" v="799164" />
	</node>
	<node lat="61.843833337228766" lon="7.777930559560446" id="-18713">
		<tag k="name" v="Brennsæterberget" />
		<tag k="natural" v="hill" />
		<tag k="place" v="locality" />
		<tag k="ssr:stedsnr" v="799762" />
	</node>
	<node lat="61.92395277659804" lon="8.338275005151186" id="-18721">
		<tag k="name" v="Aurdalen" />
		<tag k="natural" v="valley" />
		<tag k="place" v="locality" />
		<tag k="ssr:stedsnr" v="799862" />
	</node>
	<node lat="62.11165000129633" lon="7.687649999626569" id="-18723">
		<tag k="name" v="Styggedalen" />
		<tag k="natural" v="valley" />
		<tag k="place" v="locality" />
		<tag k="ssr:stedsnr" v="800100" />
	</node>
	<node lat="62.002133331339024" lon="7.408908326940077" id="-18724">
		<tag k="fixme" v="consider natural=peak for the most distinct mountains in the district" />
		<tag k="name" v="Holene" />
		<tag k="natural" v="hill" />
		<tag k="place" v="locality" />
		<tag k="ssr:stedsnr" v="800129" />
	</node>
	<node lat="62.17738055761741" lon="7.9836166760473395" id="-18725">
		<tag k="fixme" v="consider natural=peak for the most distinct mountains in the district" />
		<tag k="name" v="Storhøa" />
		<tag k="natural" v="hill" />
		<tag k="place" v="locality" />
		<tag k="ssr:stedsnr" v="800156" />
	</node>
	<node lat="62.1485194430641" lon="7.789405560240366" id="-18726">
		<tag k="fixme" v="consider natural=peak for the most distinct mountains in the district" />
		<tag k="loc_name" v="Veltdalseggje" />
		<tag k="name" v="Veltdalseggi" />
		<tag k="natural" v="hill" />
		<tag k="place" v="locality" />
		<tag k="ssr:stedsnr" v="800220" />
	</node>
	<node lat="61.803707028462185" lon="8.195289587503233" id="-18731">
		<tag k="alt_name" v="Reset, ytste" />
		<tag k="name" v="Yste Reset" />
		<tag k="natural" v="ridge" />
		<tag k="place" v="locality" />
		<tag k="ssr:stedsnr" v="800941" />
	</node>
	<node lat="61.78743888503637" lon="8.135086107598086" id="-18732">
		<tag k="name" v="Grasgangan" />
		<tag k="place" v="locality" />
		<tag k="ssr:stedsnr" v="800950" />
	</node>
	<node lat="61.86233055615356" lon="7.994894447593835" id="-18741">
		<tag k="name" v="Styggelie" />
		<tag k="natural" v="slope" />
		<tag k="place" v="locality" />
		<tag k="ssr:stedsnr" v="840299" />
	</node>
	<node lat="61.855677778886836" lon="8.274491672618533" id="-18744">
		<tag k="name" v="Ramstadbakkjen" />
		<tag k="natural" v="slope" />
		<tag k="place" v="locality" />
		<tag k="ssr:stedsnr" v="840164" />
	</node>
	<node lat="61.8617111103617" lon="8.278116657434154" id="-18745">
		<tag k="name" v="Flatmobakken" />
		<tag k="natural" v="slope" />
		<tag k="place" v="locality" />
		<tag k="ssr:stedsnr" v="840167" />
	</node>
	<node lat="61.90985555809282" lon="7.79979167143422" id="-18746">
		<tag k="name" v="Rauberget" />
		<tag k="natural" v="hill" />
		<tag k="place" v="locality" />
		<tag k="ssr:stedsnr" v="840350" />
	</node>
	<node lat="61.7499750010454" lon="7.6489805640476405" id="-18749">
		<tag k="fixme" v="consider natural=peak for the most distinct mountains in the district" />
		<tag k="name" v="Kollen" />
		<tag k="natural" v="hill" />
		<tag k="place" v="locality" />
		<tag k="ssr:stedsnr" v="859456" />
	</node>
	<node lat="61.94567499565709" lon="7.603974992689272" id="-18752">
		<tag k="fixme" v="consider natural=peak for the most distinct mountains in the district" />
		<tag k="name" v="Skridulaupen" />
		<tag k="natural" v="hill" />
		<tag k="place" v="locality" />
		<tag k="ssr:stedsnr" v="859556" />
	</node>
	<node lat="61.88099444425767" lon="7.440955559216594" id="-18755">
		<tag k="fixme" v="consider natural=peak for the most distinct mountains in the district" />
		<tag k="loc_name" v="Leirvasshøe" />
		<tag k="name" v="Leirvasshøi" />
		<tag k="natural" v="hill" />
		<tag k="place" v="locality" />
		<tag k="ssr:stedsnr" v="859589" />
	</node>
	<node lat="61.92481111191992" lon="8.200611108483256" id="-18758">
		<tag k="alt_name" v="Tainnsæterkampen" />
		<tag k="fixme" v="consider natural=peak for the most distinct mountains in the district" />
		<tag k="name" v="Tannsæterkampen" />
		<tag k="natural" v="hill" />
		<tag k="place" v="locality" />
		<tag k="ssr:stedsnr" v="859636" />
	</node>
	<node lat="61.93434444381454" lon="8.40848611767017" id="-18759">
		<tag k="name" v="Snog gjel" />
		<tag k="natural" v="valley" />
		<tag k="place" v="locality" />
		<tag k="ssr:stedsnr" v="859638" />
	</node>
	<node lat="62.03045555311055" lon="8.081811119042346" id="-18762">
		<tag k="alt_name" v="Svarthaugen, nordre" />
		<tag k="name" v="Nørdre Svarthaugen" />
		<tag k="natural" v="hill" />
		<tag k="place" v="locality" />
		<tag k="ssr:stedsnr" v="860284" />
	</node>
	<node lat="61.77091388487686" lon="7.728424999869851" id="-18764">
		<tag k="fixme" v="consider natural=peak for the most distinct mountains in the district" />
		<tag k="name" v="Veslfjellhaugan" />
		<tag k="natural" v="hill" />
		<tag k="place" v="locality" />
		<tag k="ssr:stedsnr" v="860683" />
	</node>
	<node lat="61.89469166400733" lon="7.770611107442847" id="-18765">
		<tag k="alt_name" v="Snullern" />
		<tag k="name" v="Smulteren" />
		<tag k="natural" v="hill" />
		<tag k="place" v="locality" />
		<tag k="ssr:stedsnr" v="860726" />
	</node>
	<node lat="61.85932777602829" lon="7.857125006725893" id="-18766">
		<tag k="loc_name" v="Kollungsflye" />
		<tag k="name" v="Kollungsflyi" />
		<tag k="place" v="locality" />
		<tag k="ssr:stedsnr" v="860747" />
	</node>
	<node lat="61.86347222445642" lon="8.048788883133033" id="-18767">
		<tag k="alt_name" v="Skjellflye" />
		<tag k="name" v="Skjellflyi" />
		<tag k="natural" v="slope" />
		<tag k="place" v="locality" />
		<tag k="ssr:stedsnr" v="860748" />
	</node>
	<node lat="61.889947221416016" lon="8.44994166022379" id="-18774">
		<tag k="name" v="Bøyelii" />
		<tag k="natural" v="slope" />
		<tag k="place" v="locality" />
		<tag k="ssr:stedsnr" v="860882" />
	</node>
	<node lat="62.01223610695355" lon="8.469816662325877" id="-18777">
		<tag k="fixme" v="consider natural=peak for the most distinct mountains in the district" />
		<tag k="name" v="Storhøi" />
		<tag k="natural" v="hill" />
		<tag k="place" v="locality" />
		<tag k="ssr:stedsnr" v="860986" />
	</node>
	<node lat="62.164097221724134" lon="7.7745388869679015" id="-18779">
		<tag k="loc_name" v="Kariløyfte" />
		<tag k="name" v="Kariløyfti" />
		<tag k="natural" v="valley" />
		<tag k="place" v="locality" />
		<tag k="ssr:stedsnr" v="861200" />
	</node>
	<node lat="62.00170278118874" lon="7.901413884113761" id="-18781">
		<tag k="fixme" v="consider natural=peak for the most distinct mountains in the district" />
		<tag k="name" v="Søre Einstulskampen" />
		<tag k="natural" v="hill" />
		<tag k="place" v="locality" />
		<tag k="ssr:stedsnr" v="877577" />
	</node>
	<node lat="62.022672220919624" lon="7.94270277672982" id="-18782">
		<tag k="name" v="Sauhaugen" />
		<tag k="natural" v="hill" />
		<tag k="place" v="locality" />
		<tag k="ssr:stedsnr" v="938559" />
	</node>
	<node lat="61.88702500264105" lon="7.867922224703729" id="-18785">
		<tag k="name" v="Snogskriu" />
		<tag k="natural" v="slope" />
		<tag k="place" v="locality" />
		<tag k="ssr:stedsnr" v="960303" />
	</node>
	<node lat="61.93069444474411" lon="7.891058332361861" id="-18786">
		<tag k="fixme" v="consider natural=peak for the most distinct mountains in the district" />
		<tag k="name" v="Bråtåhøe" />
		<tag k="natural" v="hill" />
		<tag k="place" v="locality" />
		<tag k="ssr:stedsnr" v="960391" />
	</node>
	<node lat="61.99074722173065" lon="7.661677780863492" id="-18795">
		<tag k="fixme" v="consider natural=peak for the most distinct mountains in the district" />
		<tag k="name" v="Grotlivasshøe" />
		<tag k="natural" v="hill" />
		<tag k="place" v="locality" />
		<tag k="ssr:stedsnr" v="961895" />
	</node>
	<node lat="61.824247225666205" lon="8.216769444423212" id="-18800">
		<tag k="name" v="Ersbakkan" />
		<tag k="natural" v="slope" />
		<tag k="place" v="locality" />
		<tag k="ssr:stedsnr" v="961247" />
	</node>
	<node lat="61.74378795739659" lon="7.884575613048023" id="-18836">
		<tag k="fixme" v="consider natural=peak for the most distinct mountains in the district" />
		<tag k="name" v="Holåtindan" />
		<tag k="natural" v="hill" />
		<tag k="place" v="locality" />
		<tag k="ssr:stedsnr" v="1072162" />
=======
	<node id="-363232" lat="62.0782861148" lon="7.67787500672">
		<tag k="name" v="Vuludalen" />
		<tag k="natural" v="valley" />
		<tag k="place" v="locality" />
		<tag k="ssr:stedsnr" v="192109" />
	</node>
	<node id="-363231" lat="62.0716138888" lon="7.43354999894">
		<tag k="name" v="Kvitbergi" />
		<tag k="natural" v="hill" />
		<tag k="place" v="locality" />
		<tag k="ssr:stedsnr" v="192103" />
	</node>
	<node id="-363230" lat="61.8939222237" lon="8.43984722192">
		<tag k="name" v="Russarskåre" />
		<tag k="natural" v="hill" />
		<tag k="place" v="locality" />
		<tag k="ssr:stedsnr" v="172649" />
	</node>
	<node id="-363228" lat="61.8544277813" lon="8.44833055868">
		<tag k="name" v="Sandådalen" />
		<tag k="natural" v="valley" />
		<tag k="place" v="locality" />
		<tag k="ssr:stedsnr" v="270981" />
	</node>
	<node id="-363224" lat="62.0244888872" lon="7.38493888347">
		<tag k="alt_name" v="Kupa, nordre" />
		<tag k="name" v="Nordre Kupa" />
		<tag k="natural" v="valley" />
		<tag k="place" v="locality" />
		<tag k="ssr:stedsnr" v="132135" />
	</node>
	<node id="-363223" lat="62.0293750032" lon="7.35268333347">
		<tag k="fixme" v="consider natural=peak for the most distinct mountains in the district" />
		<tag k="name" v="Stavbrekknovi" />
		<tag k="natural" v="hill" />
		<tag k="place" v="locality" />
		<tag k="ssr:stedsnr" v="132134" />
	</node>
	<node id="-363218" lat="61.9517305573" lon="8.10232500699">
		<tag k="name" v="Gjøingsbakkan" />
		<tag k="natural" v="slope" />
		<tag k="place" v="locality" />
		<tag k="ssr:stedsnr" v="131668" />
	</node>
	<node id="-363212" lat="61.9366500015" lon="7.93032221533">
		<tag k="alt_name" v="Poyllkyrkja" />
		<tag k="name" v="Pollkyrkja" />
		<tag k="natural" v="hill" />
		<tag k="place" v="locality" />
		<tag k="ssr:stedsnr" v="131515" />
	</node>
	<node id="-363209" lat="61.8956777789" lon="8.35144721502">
		<tag k="name" v="Ulvespranget" />
		<tag k="natural" v="gorge" />
		<tag k="ssr:stedsnr" v="112731" />
	</node>
	<node id="-363205" lat="62.149036109" lon="7.98573888862">
		<tag k="fixme" v="consider natural=peak for the most distinct mountains in the district" />
		<tag k="loc_name" v="Sponghøe" />
		<tag k="name" v="Sponghøi" />
		<tag k="natural" v="hill" />
		<tag k="place" v="locality" />
		<tag k="ssr:stedsnr" v="254189" />
	</node>
	<node id="-363203" lat="61.8084638907" lon="8.26849443858">
		<tag k="alt_name" v="Moyldurhøe;Moldurdhø" />
		<tag k="fixme" v="consider natural=peak for the most distinct mountains in the district" />
		<tag k="loc_name" v="Moldulhøe" />
		<tag k="name" v="Moldulhøi" />
		<tag k="natural" v="hill" />
		<tag k="place" v="locality" />
		<tag k="ssr:stedsnr" v="253971" />
	</node>
	<node id="-363202" lat="61.824844446" lon="8.31945277853">
		<tag k="name" v="Lendholet" />
		<tag k="natural" v="valley" />
		<tag k="place" v="locality" />
		<tag k="ssr:stedsnr" v="253955" />
	</node>
	<node id="-363201" lat="61.8020666694" lon="8.18259443872">
		<tag k="alt_name" v="Prestain" />
		<tag k="name" v="Prestan" />
		<tag k="natural" v="ridge" />
		<tag k="place" v="locality" />
		<tag k="ssr:stedsnr" v="253944" />
	</node>
	<node id="-363200" lat="61.8059555557" lon="8.20263888791">
		<tag k="alt_name" v="Gjørja" />
		<tag k="name" v="Gjørva" />
		<tag k="natural" v="gorge" />
		<tag k="ssr:stedsnr" v="253942" />
	</node>
	<node id="-363193" lat="61.8519583341" lon="8.25593888846">
		<tag k="name" v="Rustan" />
		<tag k="natural" v="slope" />
		<tag k="place" v="locality" />
		<tag k="ssr:stedsnr" v="253806" />
	</node>
	<node id="-363192" lat="61.8522833366" lon="8.33355000437">
		<tag k="alt_name" v="Skriuhaugain" />
		<tag k="fixme" v="consider natural=peak for the most distinct mountains in the district" />
		<tag k="name" v="Skriduhaugan" />
		<tag k="natural" v="hill" />
		<tag k="place" v="locality" />
		<tag k="ssr:stedsnr" v="253801" />
	</node>
	<node id="-363183" lat="61.8348833372" lon="7.78924721741">
		<tag k="name" v="Raudhaugen" />
		<tag k="natural" v="hill" />
		<tag k="place" v="locality" />
		<tag k="ssr:stedsnr" v="253763" />
	</node>
	<node id="-363181" lat="61.8219916698" lon="7.8978638888">
		<tag k="name" v="Reskulan" />
		<tag k="natural" v="hill" />
		<tag k="place" v="locality" />
		<tag k="ssr:stedsnr" v="253750" />
	</node>
	<node id="-363180" lat="61.874133333" lon="7.95324721762">
		<tag k="alt_name" v="Skautflye" />
		<tag k="name" v="Skautflyi" />
		<tag k="place" v="locality" />
		<tag k="ssr:stedsnr" v="253733" />
	</node>
	<node id="-363175" lat="61.8934388868" lon="7.80156389253">
		<tag k="alt_name" v="Dyringslie" />
		<tag k="name" v="Dyringslii" />
		<tag k="natural" v="slope" />
		<tag k="place" v="locality" />
		<tag k="ssr:stedsnr" v="253716" />
	</node>
	<node id="-363172" lat="61.7720777779" lon="7.80490556036">
		<tag k="name" v="Tundradalsbotnen" />
		<tag k="natural" v="valley" />
		<tag k="place" v="locality" />
		<tag k="ssr:stedsnr" v="253654" />
	</node>
	<node id="-363170" lat="61.7611333319" lon="7.85601666729">
		<tag k="alt_name" v="Gjelhøi, yt" />
		<tag k="fixme" v="consider natural=peak for the most distinct mountains in the district" />
		<tag k="name" v="Ytre Gjelhøi" />
		<tag k="natural" v="hill" />
		<tag k="place" v="locality" />
		<tag k="ssr:stedsnr" v="253436" />
	</node>
	<node id="-363168" lat="62.0878944455" lon="7.87244167445">
		<tag k="name" v="Langvasslågån" />
		<tag k="natural" v="valley" />
		<tag k="old_name" v="Langedalen" />
		<tag k="place" v="locality" />
		<tag k="ssr:stedsnr" v="253285" />
	</node>
	<node id="-363165" lat="62.0123611147" lon="7.70539443793">
		<tag k="alt_name" v="Mosabakkane;Måsåbakkain" />
		<tag k="fixme" v="consider natural=peak for the most distinct mountains in the district" />
		<tag k="name" v="Måsåbakkan" />
		<tag k="natural" v="hill" />
		<tag k="place" v="locality" />
		<tag k="ssr:stedsnr" v="253161" />
	</node>
	<node id="-363162" lat="61.9191527772" lon="8.22968332404">
		<tag k="fixme" v="consider natural=peak for the most distinct mountains in the district" />
		<tag k="name" v="Hyrvehammaren" />
		<tag k="natural" v="hill" />
		<tag k="place" v="locality" />
		<tag k="ssr:stedsnr" v="252646" />
	</node>
	<node id="-363161" lat="61.9287500018" lon="8.22948055755">
		<tag k="name" v="Vikhøi" />
		<tag k="natural" v="hill" />
		<tag k="place" v="locality" />
		<tag k="ssr:stedsnr" v="252638" />
	</node>
	<node id="-363158" lat="61.9371583349" lon="8.43497500307">
		<tag k="fixme" v="consider natural=peak for the most distinct mountains in the district" />
		<tag k="name" v="Horrungen" />
		<tag k="natural" v="hill" />
		<tag k="place" v="locality" />
		<tag k="ssr:stedsnr" v="252627" />
	</node>
	<node id="-363157" lat="61.8854000007" lon="7.69891111566">
		<tag k="fixme" v="consider natural=peak for the most distinct mountains in the district" />
		<tag k="loc_name" v="Dyringshøe" />
		<tag k="name" v="Dyringshøi" />
		<tag k="natural" v="hill" />
		<tag k="place" v="locality" />
		<tag k="ssr:stedsnr" v="252566" />
	</node>
	<node id="-363156" lat="61.8475861083" lon="7.70966944282">
		<tag k="name" v="Stutarberget" />
		<tag k="natural" v="hill" />
		<tag k="place" v="locality" />
		<tag k="ssr:stedsnr" v="252557" />
	</node>
	<node id="-363155" lat="61.932005556" lon="7.51792499459">
		<tag k="name" v="Mårådalen" />
		<tag k="natural" v="valley" />
		<tag k="place" v="locality" />
		<tag k="ssr:stedsnr" v="252539" />
	</node>
	<node id="-363152" lat="61.9448861088" lon="8.08843610228">
		<tag k="alt_name" v="Jøingsdalen" />
		<tag k="name" v="Gjøingsdalen" />
		<tag k="natural" v="valley" />
		<tag k="place" v="locality" />
		<tag k="ssr:stedsnr" v="252495" />
	</node>
	<node id="-363145" lat="61.9587388863" lon="7.78069723161">
		<tag k="alt_name" v="Haraldvendsflye" />
		<tag k="name" v="Haraldvendflyi" />
		<tag k="place" v="locality" />
		<tag k="ssr:stedsnr" v="252477" />
	</node>
	<node id="-363144" lat="61.9698861103" lon="8.02024166767">
		<tag k="fixme" v="consider natural=peak for the most distinct mountains in the district" />
		<tag k="name" v="Grønnhøi" />
		<tag k="natural" v="hill" />
		<tag k="place" v="locality" />
		<tag k="ssr:stedsnr" v="252474" />
	</node>
	<node id="-363137" lat="61.8577666655" lon="8.28645278628">
		<tag k="fixme" v="consider natural=peak for the most distinct mountains in the district" />
		<tag k="name" v="Geitryggen" />
		<tag k="natural" v="hill" />
		<tag k="place" v="locality" />
		<tag k="ssr:stedsnr" v="71807" />
	</node>
	<node id="-363136" lat="61.9179000003" lon="7.85455556027">
		<tag k="fixme" v="consider natural=peak for the most distinct mountains in the district" />
		<tag k="name" v="Bråtååsen" />
		<tag k="natural" v="hill" />
		<tag k="place" v="locality" />
		<tag k="ssr:stedsnr" v="71602" />
	</node>
	<node id="-363130" lat="61.9558500037" lon="7.84003056175">
		<tag k="name" v="Bottlie" />
		<tag k="natural" v="slope" />
		<tag k="place" v="locality" />
		<tag k="ssr:stedsnr" v="51773" />
	</node>
	<node id="-363125" lat="61.8552972183" lon="8.22641666581">
		<tag k="name" v="Strikviltdalen" />
		<tag k="natural" v="valley" />
		<tag k="old_name" v="Stikviltdalen" />
		<tag k="place" v="locality" />
		<tag k="ssr:stedsnr" v="51015" />
	</node>
	<node id="-363123" lat="61.927786109" lon="8.12508611916">
		<tag k="alt_name" v="Jøingslie" />
		<tag k="name" v="Gjøingslie" />
		<tag k="natural" v="slope" />
		<tag k="place" v="locality" />
		<tag k="ssr:stedsnr" v="50472" />
	</node>
	<node id="-363122" lat="61.8961277811" lon="7.84574165715">
		<tag k="name" v="Tuvgjele" />
		<tag k="natural" v="gorge" />
		<tag k="ssr:stedsnr" v="50314" />
	</node>
	<node id="-363118" lat="61.8594499985" lon="8.43110833596">
		<tag k="name" v="Åndhøe" />
		<tag k="natural" v="hill" />
		<tag k="place" v="locality" />
		<tag k="ssr:stedsnr" v="233957" />
	</node>
	<node id="-363096" lat="62.0289972236" lon="8.07612221502">
		<tag k="fixme" v="consider natural=peak for the most distinct mountains in the district" />
		<tag k="name" v="Lorhogget" />
		<tag k="natural" v="hill" />
		<tag k="ssr:stedsnr" v="11232" />
	</node>
	<node id="-363094" lat="62.1707166694" lon="7.86427221615">
		<tag k="fixme" v="consider natural=peak for the most distinct mountains in the district" />
		<tag k="name" v="Benkehøa" />
		<tag k="natural" v="hill" />
		<tag k="place" v="locality" />
		<tag k="ssr:stedsnr" v="11207" />
	</node>
	<node id="-363093" lat="62.1659694473" lon="7.83438334266">
		<tag k="loc_name" v="Benkin" />
		<tag k="name" v="Benkene" />
		<tag k="natural" v="slope" />
		<tag k="place" v="locality" />
		<tag k="ssr:stedsnr" v="11206" />
	</node>
	<node id="-363092" lat="61.8805888929" lon="8.50764166631">
		<tag k="name" v="Bosmeberget" />
		<tag k="natural" v="hill" />
		<tag k="place" v="locality" />
		<tag k="ssr:stedsnr" v="10919" />
	</node>
	<node id="-363090" lat="61.9103694435" lon="8.42198889623">
		<tag k="fixme" v="consider natural=peak for the most distinct mountains in the district" />
		<tag k="name" v="Hoggeberget" />
		<tag k="natural" v="hill" />
		<tag k="place" v="locality" />
		<tag k="ssr:stedsnr" v="10842" />
	</node>
	<node id="-363083" lat="61.9666833331" lon="7.71303333782">
		<tag k="fixme" v="consider natural=peak for the most distinct mountains in the district" />
		<tag k="name" v="Huguvarden" />
		<tag k="natural" v="hill" />
		<tag k="place" v="locality" />
		<tag k="ssr:stedsnr" v="10607" />
	</node>
	<node id="-363082" lat="61.9285333291" lon="7.57347499323">
		<tag k="fixme" v="consider natural=peak for the most distinct mountains in the district" />
		<tag k="name" v="Sandåtinden" />
		<tag k="natural" v="hill" />
		<tag k="place" v="locality" />
		<tag k="ssr:stedsnr" v="10601" />
	</node>
	<node id="-363076" lat="61.9318527797" lon="7.84786110247">
		<tag k="name" v="Måfå" />
		<tag k="natural" v="slope" />
		<tag k="place" v="locality" />
		<tag k="ssr:stedsnr" v="10526" />
	</node>
	<node id="-363075" lat="61.9765166642" lon="8.0491611035">
		<tag k="name" v="Brennhaugen" />
		<tag k="natural" v="hill" />
		<tag k="place" v="locality" />
		<tag k="ssr:stedsnr" v="10508" />
>>>>>>> e1d4bc35ff8a6074a6f2e91616a996b547c36f15
	</node>
</osm>
