<?xml version="1.0" encoding="UTF-8"?>
<osm generator="osmapis" version="0.6">
	<node id="-348155" lat="61.9738527751" lon="7.82939166278">
		<tag k="name" v="Rognebekken" />
		<tag k="ssr:stedsnr" v="10507" />
		<tag k="waterway" v="stream" />
	</node>
	<node id="-348154" lat="62.0565000011" lon="7.49926110333">
		<tag k="name" v="Hamsetjønnin" />
		<tag k="natural" v="water" />
		<tag k="ssr:stedsnr" v="10111" />
	</node>
	<node id="-349556" lat="61.8803800933" lon="8.33715227643">
		<tag k="name" v="Storøye" />
		<tag k="natural" v="cape" />
		<tag k="ssr:stedsnr" v="1072546" />
	</node>
	<node id="-349520" lat="61.8382638904" lon="7.74162778158">
		<tag k="name" v="Langodden" />
		<tag k="natural" v="cape" />
		<tag k="ssr:stedsnr" v="960297" />
	</node>
	<node id="-349503" lat="61.8932750025" lon="8.26603054602">
		<tag k="name" v="Fjuken" />
		<tag k="ssr:stedsnr" v="860839" />
		<tag k="waterway" v="stream" />
	</node>
	<node id="-349499" lat="62.1306527671" lon="7.77006517031">
		<tag k="alt_name" v="Veltdalsvatnet, fremste" />
		<tag k="name" v="Fremste Veltdalsvatnet" />
		<tag k="natural" v="water" />
		<tag k="ssr:stedsnr" v="860238" />
		<tag k="water" v="lake" />
	</node>
	<node id="-349494" lat="61.7869333352" lon="7.52133056299">
		<tag k="name" v="Handspiknosgrovi" />
		<tag k="ssr:stedsnr" v="859595" />
		<tag k="waterway" v="stream" />
	</node>
	<node id="-349493" lat="61.7914027793" lon="7.69850277201">
		<tag k="alt_name" v="Tverråe" />
		<tag k="name" v="Tverråi" />
		<tag k="ssr:stedsnr" v="859591" />
		<tag k="waterway" v="stream" />
	</node>
	<node id="-349491" lat="61.880850002" lon="7.50576944163">
		<tag k="name" v="Tverrbyttna" />
		<tag k="ssr:stedsnr" v="859587" />
		<tag k="waterway" v="stream" />
	</node>
	<node id="-349490" lat="61.8471972262" lon="7.64883889434">
		<tag k="name" v="Søverbandtjønne" />
		<tag k="natural" v="water" />
		<tag k="ssr:stedsnr" v="859574" />
	</node>
	<node id="-349489" lat="61.9016611095" lon="7.64397500937">
		<tag k="alt_name" v="Raudalsvatnet" />
		<tag k="name" v="Rauddalsvatnet" />
		<tag k="natural" v="water" />
		<tag k="ssr:stedsnr" v="859547" />
		<tag k="water" v="lake" />
	</node>
	<node id="-349488" lat="61.9735361154" lon="7.97140000823">
		<tag k="alt_name" v="Stamåe" />
		<tag k="name" v="Stamåi" />
		<tag k="ssr:stedsnr" v="859486" />
		<tag k="waterway" v="river" />
	</node>
	<node id="-349473" lat="61.9337861089" lon="8.32649444145">
		<tag k="name" v="Aursjodammen" />
		<tag k="ssr:stedsnr" v="839522" />
		<tag k="waterway" v="dam" />
	</node>
	<node id="-349470" lat="61.9179472229" lon="8.06369166089">
		<tag k="name" v="Øybergsøyen" />
		<tag k="place" v="island" />
		<tag k="ssr:stedsnr" v="839475" />
	</node>
	<node id="-349464" lat="61.8414916686" lon="8.22213611974">
		<tag k="alt_name" v="Svodåi" />
		<tag k="name" v="Svaåe" />
		<tag k="ssr:stedsnr" v="800959" />
		<tag k="waterway" v="stream" />
	</node>
	<node id="-349461" lat="62.010338886" lon="8.1730083365">
		<tag k="name" v="Lortjønnbekken" />
		<tag k="ssr:stedsnr" v="800236" />
		<tag k="waterway" v="stream" />
	</node>
	<node id="-349448" lat="61.8904861122" lon="8.09393889173">
		<tag k="alt_name" v="Skjellveite" />
		<tag k="name" v="Skjellveiti" />
		<tag k="ssr:stedsnr" v="799837" />
		<tag k="waterway" v="stream" />
	</node>
	<node id="-349447" lat="61.8926027769" lon="8.24806943784">
		<tag k="name" v="Skamsarfossen" />
		<tag k="natural" v="waterfall" />
		<tag k="ssr:stedsnr" v="799835" />
	</node>
	<node id="-349444" lat="61.9911249956" lon="7.94811111896">
		<tag k="name" v="Kvannåtjønnin" />
		<tag k="natural" v="water" />
		<tag k="ssr:stedsnr" v="799515" />
		<tag k="water" v="lake" />
	</node>
	<node id="-349442" lat="61.922456045" lon="8.27108586905">
		<tag k="name" v="Flåtåtjønne" />
		<tag k="natural" v="water" />
		<tag k="ssr:stedsnr" v="799720" />
		<tag k="water" v="lake" />
	</node>
	<node id="-349439" lat="61.9131666673" lon="8.35795000692">
		<tag k="name" v="Spildra" />
		<tag k="ssr:stedsnr" v="799715" />
		<tag k="waterway" v="stream" />
	</node>
	<node id="-349438" lat="61.7812638934" lon="7.75945277865">
		<tag k="name" v="Sottjønnin" />
		<tag k="natural" v="water" />
		<tag k="ssr:stedsnr" v="799652" />
		<tag k="water" v="lake" />
	</node>
	<node id="-349434" lat="61.9152361104" lon="7.63552499648">
		<tag k="alt_name" v="Sandåi, vestre" />
		<tag k="name" v="Vestre Sandåi" />
		<tag k="ssr:stedsnr" v="798547" />
		<tag k="waterway" v="stream" />
	</node>
	<node id="-349433" lat="61.997494444" lon="7.70413888239">
		<tag k="name" v="Heimdalsvatnet" />
		<tag k="natural" v="water" />
		<tag k="ssr:stedsnr" v="798528" />
	</node>
	<node id="-349426" lat="61.9026166633" lon="8.37822500648">
		<tag k="name" v="Steinbakkgrove" />
		<tag k="ssr:stedsnr" v="779560" />
		<tag k="waterway" v="stream" />
	</node>
	<node id="-349422" lat="61.8700722267" lon="8.26660833984">
		<tag k="name" v="Stor-Strikvilte" />
		<tag k="ssr:stedsnr" v="779132" />
		<tag k="waterway" v="stream" />
	</node>
	<node id="-349420" lat="61.939397225" lon="8.08986111072">
		<tag k="name" v="Jøingstjønne" />
		<tag k="natural" v="water" />
		<tag k="ssr:stedsnr" v="778498" />
	</node>
	<node id="-349419" lat="61.8737472209" lon="8.0322472317">
		<tag k="name" v="Skjellhaugtjønne" />
		<tag k="natural" v="water" />
		<tag k="ssr:stedsnr" v="778441" />
	</node>
	<node id="-349409" lat="62.0411249958" lon="7.54428054721">
		<tag k="name" v="Hamsa" />
		<tag k="ssr:stedsnr" v="739146" />
		<tag k="waterway" v="river" />
	</node>
	<node id="-349406" lat="61.8899722241" lon="8.29319999112">
		<tag k="alt_name" v="Fjuken, s" />
		<tag k="name" v="Søre Fjuken" />
		<tag k="ssr:stedsnr" v="738894" />
		<tag k="waterway" v="stream" />
	</node>
	<node id="-349403" lat="61.9096999961" lon="8.1801027821">
		<tag k="name" v="Veslegrovi" />
		<tag k="ssr:stedsnr" v="738858" />
		<tag k="waterway" v="stream" />
	</node>
	<node id="-349402" lat="61.9067638889" lon="8.46393611508">
		<tag k="name" v="Døktavassvegen" />
		<tag k="ssr:stedsnr" v="738854" />
		<tag k="waterway" v="stream" />
	</node>
	<node id="-349398" lat="61.8983750036" lon="8.26105555848">
		<tag k="name" v="Skardgrovi" />
		<tag k="ssr:stedsnr" v="738836" />
		<tag k="waterway" v="stream" />
	</node>
	<node id="-349391" lat="61.8932545927" lon="8.07756294956">
		<tag k="alt_name" v="Kvitingi, nordre" />
		<tag k="name" v="Nørdre Kvitingje" />
		<tag k="ssr:stedsnr" v="738729" />
		<tag k="waterway" v="stream" />
	</node>
	<node id="-349390" lat="61.8779638931" lon="7.76552499059">
		<tag k="name" v="Svaåi" />
		<tag k="ssr:stedsnr" v="738725" />
		<tag k="waterway" v="stream" />
	</node>
	<node id="-349389" lat="61.898061113" lon="7.92790000006">
		<tag k="name" v="Skauta" />
		<tag k="ssr:stedsnr" v="738722" />
		<tag k="waterway" v="stream" />
	</node>
	<node id="-349385" lat="61.9444555589" lon="8.21494444555">
		<tag k="name" v="Aursjotjønne" />
		<tag k="natural" v="water" />
		<tag k="ssr:stedsnr" v="738672" />
		<tag k="water" v="lake" />
	</node>
	<node id="-349383" lat="61.9861027762" lon="8.1501694396">
		<tag k="name" v="Pålviki" />
		<tag k="natural" v="bay" />
		<tag k="ssr:stedsnr" v="738642" />
	</node>
	<node id="-349382" lat="61.7961333344" lon="7.82732500422">
		<tag k="name" v="Herbergsgrøvin" />
		<tag k="ssr:stedsnr" v="738631" />
		<tag k="waterway" v="stream" />
	</node>
	<node id="-349381" lat="61.8059694412" lon="7.71221110957">
		<tag k="name" v="Sota" />
		<tag k="ssr:stedsnr" v="738617" />
		<tag k="waterway" v="stream" />
	</node>
	<node id="-349380" lat="61.8929083353" lon="7.67398611357">
		<tag k="name" v="Holåi" />
		<tag k="ssr:stedsnr" v="738607" />
		<tag k="waterway" v="stream" />
	</node>
	<node id="-349376" lat="61.9154027812" lon="7.64138333297">
		<tag k="alt_name" v="Sandåi, austre" />
		<tag k="name" v="Austre Sandåi" />
		<tag k="ssr:stedsnr" v="738574" />
		<tag k="waterway" v="stream" />
	</node>
	<node id="-349375" lat="61.9917138867" lon="7.67427500931">
		<tag k="alt_name" v="Åfotgrove" />
		<tag k="name" v="Åfåtgrovi" />
		<tag k="ssr:stedsnr" v="738556" />
		<tag k="waterway" v="stream" />
	</node>
	<node id="-349372" lat="61.9511749999" lon="7.90178888174">
		<tag k="alt_name" v="Poyllodden" />
		<tag k="name" v="Pollodden" />
		<tag k="natural" v="cape" />
		<tag k="ssr:stedsnr" v="738530" />
	</node>
	<node id="-349370" lat="61.9664555582" lon="7.72849167549">
		<tag k="name" v="Blankåtjønnin" />
		<tag k="natural" v="water" />
		<tag k="ssr:stedsnr" v="738513" />
		<tag k="water" v="lake" />
	</node>
	<node id="-349369" lat="61.9530002825" lon="7.75455502846">
		<tag k="name" v="Glittervatnet" />
		<tag k="natural" v="water" />
		<tag k="ssr:stedsnr" v="738511" />
		<tag k="water" v="lake" />
	</node>
	<node id="-349368" lat="61.9612916659" lon="7.86067500108">
		<tag k="name" v="Langøyi" />
		<tag k="place" v="islet" />
		<tag k="ssr:stedsnr" v="738510" />
	</node>
	<node id="-349367" lat="61.9609611078" lon="7.81732221727">
		<tag k="alt_name" v="Kalvegrove" />
		<tag k="name" v="Kalvgrovi" />
		<tag k="ssr:stedsnr" v="738507" />
		<tag k="waterway" v="stream" />
	</node>
	<node id="-349365" lat="61.9938277783" lon="7.89622499275">
		<tag k="alt_name" v="Kveinnåe" />
		<tag k="name" v="Kvannåi" />
		<tag k="ssr:stedsnr" v="738489" />
		<tag k="waterway" v="stream" />
	</node>
	<node id="-349364" lat="61.9974749976" lon="7.83047777624">
		<tag k="name" v="Rognebekktjønnin" />
		<tag k="natural" v="water" />
		<tag k="ssr:stedsnr" v="738486" />
	</node>
	<node id="-349361" lat="62.1197472258" lon="7.8779888903">
		<tag k="name" v="Spongi" />
		<tag k="ssr:stedsnr" v="738207" />
		<tag k="waterway" v="river" />
	</node>
	<node id="-349357" lat="62.0836944488" lon="7.41756665718">
		<tag k="alt_name" v="Viavatnet, fremste" />
		<tag k="name" v="Fremste Viavatnet" />
		<tag k="natural" v="water" />
		<tag k="ssr:stedsnr" v="738135" />
		<tag k="water" v="lake" />
	</node>
	<node id="-349354" lat="62.059800004" lon="8.06021943539">
		<tag k="name" v="Skarvedalsvatnet" />
		<tag k="natural" v="water" />
		<tag k="ssr:stedsnr" v="634612" />
		<tag k="water" v="lake" />
	</node>
	<node id="-349352" lat="62.0812194486" lon="7.97921389573">
		<tag k="name" v="Blåbergtjønne" />
		<tag k="natural" v="water" />
		<tag k="ssr:stedsnr" v="630234" />
	</node>
	<node id="-349350" lat="61.9798000036" lon="8.18669166628">
		<tag k="name" v="Åflotjønne" />
		<tag k="natural" v="water" />
		<tag k="ssr:stedsnr" v="617659" />
	</node>
	<node id="-349346" lat="61.859850001" lon="8.45306388854">
		<tag k="name" v="Holgrovi" />
		<tag k="ssr:stedsnr" v="617795" />
		<tag k="waterway" v="stream" />
	</node>
	<node id="-349340" lat="62.1515566611" lon="7.72676186606">
		<tag k="alt_name" v="Veltdalsvatnet, heimste" />
		<tag k="name" v="Heimste Veltdalsvatnet" />
		<tag k="natural" v="water" />
		<tag k="ssr:stedsnr" v="617110" />
		<tag k="water" v="lake" />
	</node>
	<node id="-349334" lat="61.909277781" lon="8.29551389241">
		<tag k="name" v="Holstjønne" />
		<tag k="natural" v="water" />
		<tag k="ssr:stedsnr" v="616853" />
	</node>
	<node id="-349333" lat="61.8185111139" lon="7.94639166572">
		<tag k="alt_name" v="Gjelåi, heimste" />
		<tag k="name" v="Heimste Gjelåi" />
		<tag k="ssr:stedsnr" v="616750" />
		<tag k="waterway" v="stream" />
	</node>
	<node id="-349329" lat="61.8746527775" lon="7.92226111387">
		<tag k="name" v="Skauttjønnin" />
		<tag k="natural" v="water" />
		<tag k="ssr:stedsnr" v="616722" />
	</node>
	<node id="-349314" lat="61.7811361152" lon="7.60072777941">
		<tag k="name" v="Surtbyttjønnin" />
		<tag k="natural" v="water" />
		<tag k="ssr:stedsnr" v="616495" />
		<tag k="water" v="lake" />
	</node>
	<node id="-349313" lat="61.9864472237" lon="7.92439166911">
		<tag k="name" v="Kyrkjetjønnin" />
		<tag k="natural" v="water" />
		<tag k="ssr:stedsnr" v="616494" />
	</node>
	<node id="-349312" lat="61.9939416696" lon="8.03801666597">
		<tag k="name" v="Stamåtjønnin" />
		<tag k="natural" v="water" />
		<tag k="ssr:stedsnr" v="616490" />
		<tag k="water" v="lake" />
	</node>
	<node id="-349311" lat="61.9563861078" lon="8.11852776971">
		<tag k="name" v="Måfåtjønne" />
		<tag k="natural" v="water" />
		<tag k="ssr:stedsnr" v="616651" />
	</node>
	<node id="-349308" lat="62.0056444448" lon="7.69148334058">
		<tag k="name" v="Glåmbakktjønne" />
		<tag k="natural" v="water" />
		<tag k="ssr:stedsnr" v="597874" />
	</node>
	<node id="-349300" lat="61.8577277769" lon="8.34518611486">
		<tag k="name" v="Vigstadgrove" />
		<tag k="ssr:stedsnr" v="597691" />
		<tag k="waterway" v="stream" />
	</node>
	<node id="-349299" lat="61.8882500031" lon="8.50249445152">
		<tag k="name" v="Skrindvasstaket" />
		<tag k="ssr:stedsnr" v="597609" />
		<tag k="waterway" v="stream" />
	</node>
	<node id="-349283" lat="61.9724447217" lon="8.49411869474">
		<tag k="name" v="Leirungsvatnet" />
		<tag k="natural" v="water" />
		<tag k="ssr:stedsnr" v="556890" />
		<tag k="water" v="lake" />
	</node>
	<node id="-349281" lat="61.8270111113" lon="8.04843611618">
		<tag k="name" v="Grjotåtjønnin" />
		<tag k="natural" v="water" />
		<tag k="ssr:stedsnr" v="556746" />
	</node>
	<node id="-349273" lat="62.0317444446" lon="7.89283333135">
		<tag k="alt_name" v="Føysa, store;Storføysa" />
		<tag k="name" v="Store Føysa" />
		<tag k="ssr:stedsnr" v="556290" />
		<tag k="waterway" v="river" />
	</node>
	<node id="-349271" lat="62.0417138902" lon="7.55530555213">
		<tag k="name" v="Skomakarelva" />
		<tag k="ssr:stedsnr" v="556185" />
		<tag k="waterway" v="stream" />
	</node>
	<node id="-349270" lat="61.8678111148" lon="8.47961666341">
		<tag k="alt_name" v="Risheimøye" />
		<tag k="name" v="Risheimøyi" />
		<tag k="place" v="islet" />
		<tag k="ssr:stedsnr" v="556133" />
	</node>
	<node id="-349264" lat="61.9427638871" lon="8.16109166676">
		<tag k="fixme" v="multiple name tags, choose one and add the other to alt_name" />
		<tag k="name" v="Grønhøtjønne;Tjønngrovtjønne" />
		<tag k="natural" v="water" />
		<tag k="ssr:stedsnr" v="555630" />
	</node>
	<node id="-349263" lat="61.9606194405" lon="8.30249167043">
		<tag k="name" v="Jehansgrovi" />
		<tag k="ssr:stedsnr" v="555628" />
		<tag k="waterway" v="stream" />
	</node>
	<node id="-349262" lat="61.8997527774" lon="7.52009445092">
		<tag k="name" v="Leirvassgrovi" />
		<tag k="ssr:stedsnr" v="555541" />
		<tag k="waterway" v="stream" />
	</node>
	<node id="-349256" lat="61.9692222215" lon="7.90424999272">
		<tag k="name" v="Synstålskridu" />
		<tag k="ssr:stedsnr" v="555472" />
		<tag k="waterway" v="stream" />
	</node>
	<node id="-349252" lat="61.8161770618" lon="7.51172325595">
		<tag k="name" v="Mysubyttvatnet" />
		<tag k="natural" v="water" />
		<tag k="ssr:stedsnr" v="555584" />
		<tag k="water" v="lake" />
	</node>
	<node id="-349250" lat="61.7983500023" lon="7.69367500338">
		<tag k="name" v="Stilla" />
		<tag k="natural" v="water" />
		<tag k="ssr:stedsnr" v="555574" />
		<tag k="water" v="lake" />
	</node>
	<node id="-349249" lat="61.8628944416" lon="7.65690554971">
		<tag k="name" v="Indre Søvertjønnin" />
		<tag k="natural" v="water" />
		<tag k="ssr:stedsnr" v="555568" />
		<tag k="water" v="lake" />
	</node>
	<node id="-349241" lat="61.8940805532" lon="8.35053610369">
		<tag k="name" v="Svartholet" />
		<tag k="place" v="locality" />
		<tag k="ssr:stedsnr" v="536722" />
	</node>
	<node id="-349229" lat="61.9007499979" lon="8.12872223125">
		<tag k="name" v="Sveafilla" />
		<tag k="ssr:stedsnr" v="535428" />
		<tag k="waterway" v="stream" />
	</node>
	<node id="-349228" lat="61.9066555566" lon="8.07393334017">
		<tag k="name" v="Nørdre Kvitingje" />
		<tag k="ssr:stedsnr" v="535423" />
		<tag k="waterway" v="stream" />
	</node>
	<node id="-349224" lat="61.8587749964" lon="8.42090833629">
		<tag k="name" v="Brekkatjønne" />
		<tag k="natural" v="water" />
		<tag k="ssr:stedsnr" v="436777" />
	</node>
	<node id="-349214" lat="61.978886114" lon="8.14585000141">
		<tag k="name" v="Svarttjønne" />
		<tag k="natural" v="water" />
		<tag k="ssr:stedsnr" v="435676" />
	</node>
	<node id="-349213" lat="61.9979638924" lon="8.31555556013">
		<tag k="name" v="Fellingi" />
		<tag k="ssr:stedsnr" v="435672" />
		<tag k="waterway" v="stream" />
	</node>
	<node id="-349210" lat="61.7879777778" lon="7.93135833598">
		<tag k="name" v="Gjelåtjønnin" />
		<tag k="natural" v="water" />
		<tag k="ssr:stedsnr" v="435663" />
	</node>
	<node id="-349209" lat="61.7891472196" lon="7.85555834195">
		<tag k="alt_name" v="Gjelåi, yt" />
		<tag k="name" v="Ytre Gjelåi" />
		<tag k="ssr:stedsnr" v="435662" />
		<tag k="waterway" v="stream" />
	</node>
	<node id="-349208" lat="61.8187131062" lon="7.71805599227">
		<tag k="alt_name" v="Veltvatnet" />
		<tag k="name" v="Veslvatnet" />
		<tag k="natural" v="water" />
		<tag k="ssr:stedsnr" v="435656" />
		<tag k="water" v="lake" />
	</node>
	<node id="-349205" lat="61.9496805543" lon="8.04028054977">
		<tag k="alt_name" v="Heggjeåe" />
		<tag k="name" v="Heggeåi" />
		<tag k="ssr:stedsnr" v="435575" />
		<tag k="waterway" v="river" />
	</node>
	<node id="-349204" lat="61.9489055518" lon="7.92365832486">
		<tag k="alt_name" v="Poylløyen" />
		<tag k="name" v="Polløyi" />
		<tag k="place" v="islet" />
		<tag k="ssr:stedsnr" v="435569" />
	</node>
	<node id="-349203" lat="61.9538388875" lon="7.99488055681">
		<tag k="alt_name" v="Kalvegrove" />
		<tag k="name" v="Kalvegrovi" />
		<tag k="ssr:stedsnr" v="435567" />
		<tag k="waterway" v="stream" />
	</node>
	<node id="-349197" lat="61.7738388846" lon="7.52582500126">
		<tag k="name" v="Handspikgrovi" />
		<tag k="ssr:stedsnr" v="435531" />
		<tag k="waterway" v="stream" />
	</node>
	<node id="-349191" lat="62.0227499983" lon="7.47170000028">
		<tag k="alt_name" v="Søre Lagervatnet;Lagervatnet, s" />
		<tag k="name" v="Søre Lægervatnet" />
		<tag k="natural" v="water" />
		<tag k="ssr:stedsnr" v="435178" />
		<tag k="water" v="lake" />
	</node>
	<node id="-349190" lat="62.0282111156" lon="7.66496945315">
		<tag k="alt_name" v="Grotåi" />
		<tag k="name" v="Grotåe" />
		<tag k="ssr:stedsnr" v="435175" />
		<tag k="waterway" v="stream" />
	</node>
	<node id="-349186" lat="62.1245666657" lon="7.99953610516">
		<tag k="loc_name" v="Storbottelve" />
		<tag k="name" v="Storbottelvi" />
		<tag k="ssr:stedsnr" v="435233" />
		<tag k="waterway" v="stream" />
	</node>
	<node id="-349184" lat="61.8582872874" lon="7.68542650342">
		<tag k="name" v="Nedre Søvertjønne" />
		<tag k="natural" v="water" />
		<tag k="ssr:stedsnr" v="434596" />
		<tag k="water" v="lake" />
	</node>
	<node id="-349180" lat="61.897480023" lon="7.47585076148">
		<tag k="alt_name" v="Leirvatnet, ytste" />
		<tag k="name" v="Ytste Leirvatnet" />
		<tag k="natural" v="water" />
		<tag k="old_name" v="Yste Leirvatnet" />
		<tag k="ssr:stedsnr" v="434561" />
		<tag k="water" v="lake" />
	</node>
	<node id="-349179" lat="61.9376944444" lon="8.14389167364">
		<tag k="name" v="Myrkløktjønne" />
		<tag k="natural" v="water" />
		<tag k="ssr:stedsnr" v="434646" />
	</node>
	<node id="-349160" lat="61.9293083307" lon="8.308794453">
		<tag k="name" v="Nordviksgrove" />
		<tag k="ssr:stedsnr" v="414501" />
		<tag k="waterway" v="stream" />
	</node>
	<node id="-349155" lat="61.8355361072" lon="7.7302749994">
		<tag k="name" v="Iverodden" />
		<tag k="natural" v="cape" />
		<tag k="ssr:stedsnr" v="414315" />
	</node>
	<node id="-349147" lat="61.8978861146" lon="8.36175000917">
		<tag k="alt_name" v="Bøvre" />
		<tag k="name" v="Bøvri" />
		<tag k="ssr:stedsnr" v="374837" />
		<tag k="waterway" v="stream" />
	</node>
	<node id="-349145" lat="61.8631361107" lon="8.25441388512">
		<tag k="name" v="Strikvilte" />
		<tag k="ssr:stedsnr" v="374822" />
		<tag k="waterway" v="stream" />
	</node>
	<node id="-349144" lat="61.7959027796" lon="7.73645556193">
		<tag k="alt_name" v="Sotgrove" />
		<tag k="name" v="Sotgrovi" />
		<tag k="ssr:stedsnr" v="374747" />
		<tag k="waterway" v="stream" />
	</node>
	<node id="-349137" lat="62.0007722217" lon="8.16344166379">
		<tag k="name" v="Lortjønnin" />
		<tag k="natural" v="water" />
		<tag k="ssr:stedsnr" v="374638" />
		<tag k="water" v="lake" />
	</node>
	<node id="-349134" lat="61.7053169567" lon="7.92645580871">
		<tag k="loc_name" v="Breidalsvatnet" />
		<tag k="name" v="Breiddalsvatnet" />
		<tag k="natural" v="water" />
		<tag k="ssr:stedsnr" v="374401" />
		<tag k="water" v="lake" />
	</node>
	<node id="-349133" lat="62.0073944476" lon="7.74651944923">
		<tag k="name" v="Stuttgongen" />
		<tag k="ssr:stedsnr" v="374250" />
		<tag k="waterway" v="river" />
	</node>
	<node id="-349132" lat="62.1401694478" lon="7.94049444785">
		<tag k="name" v="Spongi" />
		<tag k="ssr:stedsnr" v="374230" />
		<tag k="waterway" v="stream" />
	</node>
	<node id="-349126" lat="61.9138555588" lon="8.10912778658">
		<tag k="name" v="Kvitingsøyi" />
		<tag k="old_name" v="Kvilingsøyi" />
		<tag k="place" v="island" />
		<tag k="ssr:stedsnr" v="373686" />
	</node>
	<node id="-349123" lat="61.9222499956" lon="8.13590554616">
		<tag k="alt_name" v="Myrkløgrove" />
		<tag k="name" v="Myrkløkgrovi" />
		<tag k="ssr:stedsnr" v="373676" />
		<tag k="waterway" v="stream" />
	</node>
	<node id="-349121" lat="61.9438527817" lon="8.18928055863">
		<tag k="name" v="Tjønngrove" />
		<tag k="ssr:stedsnr" v="373671" />
		<tag k="waterway" v="stream" />
	</node>
	<node id="-349116" lat="61.9653638911" lon="7.81706110535">
		<tag k="name" v="Glitra" />
		<tag k="ssr:stedsnr" v="373521" />
		<tag k="waterway" v="stream" />
	</node>
	<node id="-349115" lat="61.9104555588" lon="7.57473611531">
		<tag k="name" v="Viergrovi" />
		<tag k="ssr:stedsnr" v="373601" />
		<tag k="waterway" v="stream" />
	</node>
	<node id="-349114" lat="61.9155444424" lon="7.56269722043">
		<tag k="name" v="Viergrovtjønne" />
		<tag k="natural" v="water" />
		<tag k="ssr:stedsnr" v="373598" />
	</node>
	<node id="-349102" lat="61.8948972249" lon="8.24421944297">
		<tag k="name" v="Harsheimmjøse" />
		<tag k="place" v="locality" />
		<tag k="ssr:stedsnr" v="354032" />
	</node>
	<node id="-349094" lat="61.860850004" lon="8.39796667503">
		<tag k="alt_name" v="Steinsgårdsgrove" />
		<tag k="name" v="Steinsgardsgrovi" />
		<tag k="ssr:stedsnr" v="314789" />
		<tag k="waterway" v="stream" />
	</node>
	<node id="-349093" lat="61.8822361078" lon="8.30722499372">
		<tag k="name" v="Ofossen" />
		<tag k="natural" v="waterfall" />
		<tag k="ssr:stedsnr" v="314845" />
	</node>
	<node id="-349078" lat="61.928677782" lon="7.49860554956">
		<tag k="name" v="Mårådalstjønnin" />
		<tag k="natural" v="water" />
		<tag k="ssr:stedsnr" v="313595" />
		<tag k="water" v="lake" />
	</node>
	<node id="-349073" lat="61.9967527804" lon="8.17125554874">
		<tag k="name" v="Lortjønngrove" />
		<tag k="ssr:stedsnr" v="313648" />
		<tag k="waterway" v="stream" />
	</node>
	<node id="-349071" lat="61.8248583366" lon="7.51730277253">
		<tag k="name" v="Vasstverra" />
		<tag k="ssr:stedsnr" v="313634" />
		<tag k="waterway" v="stream" />
	</node>
	<node id="-349068" lat="62.0121388901" lon="7.87619999231">
		<tag k="name" v="Saugrøvin" />
		<tag k="ssr:stedsnr" v="210556" />
		<tag k="waterway" v="river" />
	</node>
	<node id="-349067" lat="62.1581083322" lon="7.99819999119">
		<tag k="name" v="Spongtjønne" />
		<tag k="natural" v="water" />
		<tag k="ssr:stedsnr" v="208579" />
		<tag k="water" v="lake" />
	</node>
	<node id="-349065" lat="62.1063611106" lon="7.94964722023">
		<tag k="name" v="Dørtjønnin" />
		<tag k="natural" v="water" />
		<tag k="ssr:stedsnr" v="208486" />
	</node>
	<node id="-349063" lat="61.8487083299" lon="8.31754167033">
		<tag k="name" v="Lenda" />
		<tag k="ssr:stedsnr" v="193774" />
		<tag k="waterway" v="stream" />
	</node>
	<node id="-349062" lat="61.8552138901" lon="8.45571944994">
		<tag k="alt_name" v="Sandåi" />
		<tag k="name" v="Sandåe" />
		<tag k="ssr:stedsnr" v="193773" />
		<tag k="waterway" v="stream" />
	</node>
	<node id="-349057" lat="61.9023250045" lon="8.30058889559">
		<tag k="name" v="Forbergtjønnin" />
		<tag k="natural" v="water" />
		<tag k="ssr:stedsnr" v="192847" />
		<tag k="water" v="lake" />
	</node>
	<node id="-349054" lat="61.892811114" lon="8.51726388476">
		<tag k="fixme" v="multiple name tags, choose one and add the other to alt_name" />
		<tag k="name" v="Nørdre Teppingstjønne;Nørdre Tjønnin" />
		<tag k="natural" v="water" />
		<tag k="ssr:stedsnr" v="192941" />
	</node>
	<node id="-349044" lat="61.9590138918" lon="8.2924611087">
		<tag k="name" v="Aukarsgrovi" />
		<tag k="ssr:stedsnr" v="192691" />
		<tag k="waterway" v="stream" />
	</node>
	<node id="-349043" lat="61.8212638917" lon="7.58747499077">
		<tag k="name" v="Storegrovi" />
		<tag k="ssr:stedsnr" v="192664" />
		<tag k="waterway" v="stream" />
	</node>
	<node id="-349042" lat="61.8142833348" lon="7.68677500091">
		<tag k="alt_name" v="Sekkegrovi, s" />
		<tag k="name" v="Søre Sekkegrove" />
		<tag k="ssr:stedsnr" v="192649" />
		<tag k="waterway" v="stream" />
	</node>
	<node id="-349041" lat="61.8548722189" lon="7.77447221401">
		<tag k="name" v="Kvilingsgrovi" />
		<tag k="ssr:stedsnr" v="192761" />
		<tag k="waterway" v="stream" />
	</node>
	<node id="-349037" lat="61.9285805513" lon="7.85579721312">
		<tag k="alt_name" v="Lomstilla" />
		<tag k="name" v="Langstilla" />
		<tag k="place" v="locality" />
		<tag k="ssr:stedsnr" v="192561" />
	</node>
	<node id="-349034" lat="62.0738305519" lon="7.93042499969">
		<tag k="name" v="Rognbergtjønne" />
		<tag k="natural" v="water" />
		<tag k="ssr:stedsnr" v="192272" />
	</node>
	<node id="-349033" lat="61.7846666663" lon="7.80254444971">
		<tag k="name" v="Herbergsgrøvin" />
		<tag k="ssr:stedsnr" v="192269" />
		<tag k="waterway" v="stream" />
	</node>
	<node id="-349030" lat="62.0156888927" lon="7.57814999923">
		<tag k="alt_name" v="Breidalsvatnet" />
		<tag k="name" v="Breiddalsvatnet" />
		<tag k="natural" v="water" />
		<tag k="ssr:stedsnr" v="192167" />
		<tag k="water" v="lake" />
	</node>
	<node id="-349024" lat="62.0202694409" lon="7.70472222393">
		<tag k="name" v="Måsågrovtjønnin" />
		<tag k="natural" v="water" />
		<tag k="ssr:stedsnr" v="172892" />
	</node>
	<node id="-349023" lat="62.0129611069" lon="7.62910834062">
		<tag k="name" v="Stalltjønne" />
		<tag k="natural" v="water" />
		<tag k="ssr:stedsnr" v="172890" />
	</node>
	<node id="-349006" lat="61.8872305591" lon="8.38855554988">
		<tag k="name" v="Skjerva" />
		<tag k="ssr:stedsnr" v="171535" />
		<tag k="waterway" v="stream" />
	</node>
	<node id="-348998" lat="61.8236888894" lon="8.22174999526">
		<tag k="name" v="Esjgrovi" />
		<tag k="ssr:stedsnr" v="132964" />
		<tag k="waterway" v="stream" />
	</node>
	<node id="-348997" lat="61.8617583319" lon="8.26062500083">
		<tag k="name" v="Nigardsgrovi" />
		<tag k="ssr:stedsnr" v="132800" />
		<tag k="waterway" v="stream" />
	</node>
	<node id="-348995" lat="61.8659999976" lon="8.41564167306">
		<tag k="alt_name" v="Brekkagrove" />
		<tag k="name" v="Brekkgrovi" />
		<tag k="ssr:stedsnr" v="132787" />
		<tag k="waterway" v="stream" />
	</node>
	<node id="-348991" lat="62.0286750027" lon="7.91146389412">
		<tag k="alt_name" v="Føysa, vesle;Veltføysa" />
		<tag k="name" v="Vesle Føysa" />
		<tag k="ssr:stedsnr" v="132227" />
		<tag k="waterway" v="stream" />
	</node>
	<node id="-348987" lat="61.9080388909" lon="8.31463610499">
		<tag k="name" v="Einingstjønne" />
		<tag k="natural" v="water" />
		<tag k="ssr:stedsnr" v="131879" />
	</node>
	<node id="-348986" lat="61.9024527768" lon="8.11450000058">
		<tag k="alt_name" v="Storligrovi, nordre" />
		<tag k="name" v="Nordre Storligrovi" />
		<tag k="ssr:stedsnr" v="131875" />
		<tag k="waterway" v="stream" />
	</node>
	<node id="-348981" lat="61.9346499967" lon="8.20965277529">
		<tag k="name" v="Lykretjønne" />
		<tag k="natural" v="water" />
		<tag k="ssr:stedsnr" v="131680" />
		<tag k="water" v="lake" />
	</node>
	<node id="-348980" lat="61.7867249961" lon="8.1563472165">
		<tag k="name" v="Kvilingsgrovi" />
		<tag k="ssr:stedsnr" v="131953" />
		<tag k="waterway" v="stream" />
	</node>
	<node id="-348975" lat="61.8805027764" lon="8.08160555191">
		<tag k="alt_name" v="Kvitingi, s" />
		<tag k="name" v="Søre Kvitingje" />
		<tag k="ssr:stedsnr" v="131722" />
		<tag k="waterway" v="stream" />
	</node>
	<node id="-348974" lat="61.8187666678" lon="7.47088055401">
		<tag k="name" v="Kupgrovi" />
		<tag k="ssr:stedsnr" v="131587" />
		<tag k="waterway" v="stream" />
	</node>
	<node id="-348972" lat="61.8910499985" lon="7.60305555393">
		<tag k="name" v="Skridugrovi" />
		<tag k="ssr:stedsnr" v="131567" />
		<tag k="waterway" v="stream" />
	</node>
	<node id="-348971" lat="61.9938916664" lon="7.62870833149">
		<tag k="alt_name" v="Måråa" />
		<tag k="loc_name" v="Måråe" />
		<tag k="name" v="Måråi" />
		<tag k="ssr:stedsnr" v="131545" />
		<tag k="waterway" v="river" />
	</node>
	<node id="-348970" lat="61.9831694455" lon="7.49256110322">
		<tag k="name" v="Vassvendtjønnin" />
		<tag k="natural" v="water" />
		<tag k="ssr:stedsnr" v="131544" />
		<tag k="water" v="lake" />
	</node>
	<node id="-348967" lat="61.7602305556" lon="7.71568055594">
		<tag k="name" v="Steindalstjønnin" />
		<tag k="natural" v="water" />
		<tag k="ssr:stedsnr" v="131489" />
	</node>
	<node id="-348966" lat="61.7765334005" lon="7.567558096">
		<tag k="name" v="Surtbyttvatnet" />
		<tag k="natural" v="water" />
		<tag k="ssr:stedsnr" v="131481" />
		<tag k="water" v="lake" />
	</node>
	<node id="-348965" lat="62.063334143" lon="7.7141421637">
		<tag k="name" v="Vuluvatnet" />
		<tag k="natural" v="water" />
		<tag k="ssr:stedsnr" v="131100" />
		<tag k="water" v="lake" />
	</node>
	<node id="-348963" lat="61.8571083315" lon="8.53186943873">
		<tag k="name" v="Skim" />
		<tag k="natural" v="water" />
		<tag k="ssr:stedsnr" v="131079" />
	</node>
	<node id="-348962" lat="62.1173416641" lon="7.9938111193">
		<tag k="name" v="Austre Dørtjønne" />
		<tag k="natural" v="water" />
		<tag k="ssr:stedsnr" v="131184" />
	</node>
	<node id="-348960" lat="61.9142583296" lon="8.34741111991">
		<tag k="name" v="Åsfossen" />
		<tag k="natural" v="waterfall" />
		<tag k="ssr:stedsnr" v="112562" />
	</node>
	<node id="-348956" lat="61.901697223" lon="8.35052778499">
		<tag k="name" v="Mevinna" />
		<tag k="place" v="locality" />
		<tag k="ssr:stedsnr" v="112547" />
	</node>
	<node id="-348953" lat="61.9843249985" lon="7.80708332685">
		<tag k="name" v="Rognebekktjønnin" />
		<tag k="natural" v="water" />
		<tag k="ssr:stedsnr" v="111843" />
	</node>
	<node id="-348951" lat="61.8784855849" lon="8.42737376569">
		<tag k="name" v="Torø-øye" />
		<tag k="place" v="islet" />
		<tag k="ssr:stedsnr" v="111485" />
	</node>
	<node id="-348950" lat="61.8793777789" lon="8.38675000694">
		<tag k="name" v="Klukkarøye" />
		<tag k="place" v="islet" />
		<tag k="ssr:stedsnr" v="111484" />
	</node>
	<node id="-348936" lat="61.8249750029" lon="8.2740055603">
		<tag k="alt_name" v="Moyldurde" />
		<tag k="loc_name" v="Moldurde" />
		<tag k="name" v="Moldule" />
		<tag k="ssr:stedsnr" v="72953" />
		<tag k="waterway" v="stream" />
	</node>
	<node id="-348935" lat="61.8242166704" lon="8.19506666014">
		<tag k="alt_name" v="Dalåe" />
		<tag k="name" v="Dalåi" />
		<tag k="ssr:stedsnr" v="72949" />
		<tag k="waterway" v="stream" />
	</node>
	<node id="-348933" lat="61.77613611" lon="8.10534166949">
		<tag k="alt_name" v="Breagrovi, synste" />
		<tag k="name" v="Synste Breagrovi" />
		<tag k="ssr:stedsnr" v="71990" />
		<tag k="waterway" v="stream" />
	</node>
	<node id="-348932" lat="61.8945611097" lon="8.45958055976">
		<tag k="alt_name" v="Brua" />
		<tag k="name" v="Brui" />
		<tag k="ssr:stedsnr" v="71878" />
		<tag k="waterway" v="stream" />
	</node>
	<node id="-348930" lat="61.7562761173" lon="7.81474726422">
		<tag k="name" v="Grøntjønne" />
		<tag k="natural" v="water" />
		<tag k="ssr:stedsnr" v="71689" />
		<tag k="water" v="lake" />
	</node>
	<node id="-348929" lat="61.7691027802" lon="8.02360000721">
		<tag k="name" v="Holåsanden" />
		<tag k="natural" v="beach" />
		<tag k="ssr:stedsnr" v="71682" />
	</node>
	<node id="-348925" lat="61.8825277822" lon="7.82957223091">
		<tag k="alt_name" v="Veltfjellgrove" />
		<tag k="name" v="Veslfjellgrovi" />
		<tag k="ssr:stedsnr" v="71736" />
		<tag k="waterway" v="stream" />
	</node>
	<node id="-348922" lat="62.0884611143" lon="7.82200000531">
		<tag k="loc_name" v="Tverråe" />
		<tag k="name" v="Tverråi" />
		<tag k="ssr:stedsnr" v="71728" />
		<tag k="waterway" v="river" />
	</node>
	<node id="-348921" lat="61.9166277807" lon="8.07154721735">
		<tag k="alt_name" v="Åmotsøye" />
		<tag k="name" v="Åmotsøyi" />
		<tag k="natural" v="cape" />
		<tag k="ssr:stedsnr" v="71596" />
	</node>
	<node id="-348919" lat="62.0114557128" lon="7.78475865028">
		<tag k="fixme" v="multiple name tags, choose one and add the other to alt_name" />
		<tag k="name" v="Nysætervatnet;Vuluvatnet" />
		<tag k="natural" v="water" />
		<tag k="ssr:stedsnr" v="71248" />
		<tag k="water" v="lake" />
	</node>
	<node id="-348915" lat="61.9138194457" lon="8.18012499125">
		<tag k="alt_name" v="Storgrove" />
		<tag k="name" v="Storgrovi" />
		<tag k="ssr:stedsnr" v="70688" />
		<tag k="waterway" v="river" />
	</node>
	<node id="-348905" lat="61.8790611124" lon="8.36403333349">
		<tag k="name" v="Ringøye" />
		<tag k="place" v="island" />
		<tag k="ssr:stedsnr" v="51592" />
	</node>
	<node id="-348901" lat="61.9110722237" lon="8.01091944099">
		<tag k="name" v="Våttaneshølen" />
		<tag k="place" v="locality" />
		<tag k="ssr:stedsnr" v="51292" />
	</node>
	<node id="-348890" lat="61.8591694416" lon="8.37873332896">
		<tag k="name" v="Ånda" />
		<tag k="ssr:stedsnr" v="11795" />
		<tag k="waterway" v="stream" />
	</node>
	<node id="-348887" lat="61.8080833296" lon="8.21525832404">
		<tag k="name" v="Sandgrovi" />
		<tag k="ssr:stedsnr" v="11945" />
		<tag k="waterway" v="stream" />
	</node>
	<node id="-348877" lat="61.8754361073" lon="8.2304972205">
		<tag k="alt_name" v="Gjuva, s;Gjuva, søre" />
		<tag k="name" v="Søre Juva" />
		<tag k="ssr:stedsnr" v="10788" />
		<tag k="waterway" v="stream" />
	</node>
	<node id="-348873" lat="61.8132333306" lon="7.87187500797">
		<tag k="name" v="Grønstorrgrovi" />
		<tag k="ssr:stedsnr" v="10754" />
		<tag k="waterway" v="stream" />
	</node>
	<node id="-348872" lat="61.8230888865" lon="7.85850833577">
		<tag k="name" v="Grønstorrgrovtjønne" />
		<tag k="natural" v="water" />
		<tag k="ssr:stedsnr" v="10752" />
	</node>
	<node id="-348868" lat="61.8649388848" lon="7.74085556163">
		<tag k="alt_name" v="Søvre" />
		<tag k="name" v="Søvra" />
		<tag k="ssr:stedsnr" v="10730" />
		<tag k="waterway" v="stream" />
	</node>
	<node id="-348867" lat="62.0108614906" lon="7.37667046392">
		<tag k="name" v="Langvatnet" />
		<tag k="natural" v="water" />
		<tag k="ssr:stedsnr" v="10726" />
		<tag k="water" v="lake" />
	</node>
	<node id="-348862" lat="61.9900694422" lon="8.50244166752">
		<tag k="name" v="Storgrovi" />
		<tag k="ssr:stedsnr" v="10981" />
		<tag k="waterway" v="stream" />
	</node>
	<node id="-348859" lat="61.9822694461" lon="8.43993888782">
		<tag k="name" v="Utletjønne" />
		<tag k="natural" v="water" />
		<tag k="ssr:stedsnr" v="10671" />
		<tag k="water" v="lake" />
	</node>
	<node id="-348858" lat="61.7553281372" lon="7.71729276063">
		<tag k="name" v="Styggvatnet" />
		<tag k="natural" v="water" />
		<tag k="ssr:stedsnr" v="10657" />
		<tag k="water" v="lake" />
	</node>
	<node id="-348856" lat="61.7836916665" lon="7.81691111895">
		<tag k="name" v="Tundradalstjønnin" />
		<tag k="natural" v="water" />
		<tag k="ssr:stedsnr" v="10646" />
		<tag k="water" v="lake" />
	</node>
	<node id="-348855" lat="61.8259361148" lon="7.55948054636">
		<tag k="name" v="Viergrovi" />
		<tag k="ssr:stedsnr" v="10640" />
		<tag k="waterway" v="stream" />
	</node>
	<node id="-348854" lat="61.8905111148" lon="7.5350194519">
		<tag k="name" v="Øyren" />
		<tag k="ssr:stedsnr" v="10626" />
		<tag k="waterway" v="river" />
	</node>
	<node id="-348851" lat="61.984157403" lon="7.59829267766">
		<tag k="name" v="Heillstuguvatnet" />
		<tag k="natural" v="water" />
		<tag k="ssr:stedsnr" v="10568" />
		<tag k="water" v="lake" />
	</node>
	<node id="-348848" lat="61.7231416639" lon="7.9601388849">
		<tag k="name" v="Rasmustjønne" />
		<tag k="natural" v="water" />
		<tag k="ssr:stedsnr" v="10381" />
	</node>
	<node id="-348846" lat="61.8283888867" lon="7.97292499853">
		<tag k="name" v="Tålormgrovi" />
		<tag k="ssr:stedsnr" v="10242" />
		<tag k="waterway" v="stream" />
	</node>
	<node id="-348844" lat="61.6615055552" lon="8.45963333757">
		<tag k="name" v="Glitra" />
		<tag k="ssr:stedsnr" v="10198" />
		<tag k="waterway" v="river" />
	</node>
	<node id="-348843" lat="62.1144472259" lon="7.91015277222">
		<tag k="name" v="Vestre Dørtjønne" />
		<tag k="natural" v="water" />
		<tag k="ssr:stedsnr" v="10195" />
	</node>
	<node id="-348826" lat="61.8997944479" lon="8.45444721548">
		<tag k="name" v="Brudembingje" />
		<tag k="ssr:stedsnr" v="961607" />
		<tag k="waterway" v="dam" />
	</node>
	<node id="-348825" lat="61.910861113" lon="8.35426388967">
		<tag k="name" v="Spilderhølen" />
		<tag k="place" v="locality" />
		<tag k="ssr:stedsnr" v="961561" />
	</node>
	<node id="-348823" lat="61.9105333312" lon="7.79667499785">
		<tag k="name" v="Raudalsdammen" />
		<tag k="ssr:stedsnr" v="961354" />
		<tag k="waterway" v="dam" />
	</node>
	<node id="-348817" lat="61.9325416698" lon="8.33216944575">
		<tag k="name" v="Øvre Svarthølen" />
		<tag k="place" v="locality" />
		<tag k="ssr:stedsnr" v="960515" />
	</node>
	<node id="-348816" lat="61.9357138906" lon="8.02752777081">
		<tag k="name" v="Landøytjønne" />
		<tag k="natural" v="water" />
		<tag k="ssr:stedsnr" v="960510" />
	</node>
	<node id="-348809" lat="62.115827779" lon="7.66807500536">
		<tag k="name" v="Styggedalsvatnet" />
		<tag k="natural" v="water" />
		<tag k="ssr:stedsnr" v="921068" />
		<tag k="water" v="lake" />
	</node>
	<node id="-348805" lat="61.93078611" lon="8.24127778696">
		<tag k="alt_name" v="Hyrveviki, s;Hyrveviki, søre" />
		<tag k="name" v="Søre Hyrvevikje" />
		<tag k="natural" v="bay" />
		<tag k="ssr:stedsnr" v="920667" />
	</node>
	<node id="-348803" lat="61.8781916699" lon="8.49725833972">
		<tag k="alt_name" v="Bosmegrove" />
		<tag k="name" v="Bosmegrovi" />
		<tag k="ssr:stedsnr" v="920107" />
		<tag k="waterway" v="stream" />
	</node>
	<node id="-348801" lat="61.9604138851" lon="7.89559167549">
		<tag k="alt_name" v="Poyllfossen" />
		<tag k="name" v="Pollfossen" />
		<tag k="natural" v="waterfall" />
		<tag k="ssr:stedsnr" v="900368" />
	</node>
	<node id="-348800" lat="61.9187027805" lon="8.31121944632">
		<tag k="name" v="Skaristjønne" />
		<tag k="natural" v="water" />
		<tag k="ssr:stedsnr" v="900164" />
	</node>
	<node id="-348795" lat="61.8293388851" lon="7.88409721582">
		<tag k="name" v="Storgrovtjønnin" />
		<tag k="natural" v="water" />
		<tag k="ssr:stedsnr" v="860768" />
		<tag k="water" v="lake" />
	</node>
	<node id="-348792" lat="61.8611694403" lon="8.44418611355">
		<tag k="name" v="Geilgrovi" />
		<tag k="ssr:stedsnr" v="860818" />
		<tag k="waterway" v="stream" />
	</node>
	<node id="-348787" lat="62.1088361139" lon="7.796450003">
		<tag k="name" v="Kupevatnet" />
		<tag k="natural" v="water" />
		<tag k="ssr:stedsnr" v="860226" />
	</node>
	<node id="-348781" lat="61.962813886" lon="7.89555277506">
		<tag k="name" v="Brimsvadet" />
		<tag k="place" v="islet" />
		<tag k="ssr:stedsnr" v="859476" />
	</node>
	<node id="-348760" lat="61.8369388904" lon="7.76844443967">
		<tag k="alt_name" v="Randsverkgrovi, s" />
		<tag k="name" v="Søre Randsverkgrove" />
		<tag k="ssr:stedsnr" v="799770" />
		<tag k="waterway" v="stream" />
	</node>
	<node id="-348759" lat="61.8326694466" lon="7.75203334163">
		<tag k="alt_name" v="Randsverkgrovi" />
		<tag k="name" v="Nørdre Randsverkgrove" />
		<tag k="ssr:stedsnr" v="799769" />
		<tag k="waterway" v="stream" />
	</node>
	<node id="-348758" lat="61.8471249959" lon="7.73075833394">
		<tag k="alt_name" v="Elgsenggrove" />
		<tag k="name" v="Elgsenggrovi" />
		<tag k="ssr:stedsnr" v="799764" />
		<tag k="waterway" v="stream" />
	</node>
	<node id="-348756" lat="61.8427416688" lon="7.74338055528">
		<tag k="name" v="Liavatnet" />
		<tag k="natural" v="water" />
		<tag k="ssr:stedsnr" v="799760" />
		<tag k="water" v="lake" />
	</node>
	<node id="-348755" lat="61.8370277742" lon="7.95430278202">
		<tag k="name" v="Tålormgrovi" />
		<tag k="ssr:stedsnr" v="799756" />
		<tag k="waterway" v="stream" />
	</node>
	<node id="-348751" lat="61.8109638924" lon="7.57688056193">
		<tag k="name" v="Mysubytta" />
		<tag k="ssr:stedsnr" v="799641" />
		<tag k="waterway" v="river" />
	</node>
	<node id="-348749" lat="61.7921361142" lon="7.65335277827">
		<tag k="alt_name" v="Røykjeskålsvatnet" />
		<tag k="name" v="Røykeskålvatnet" />
		<tag k="natural" v="water" />
		<tag k="ssr:stedsnr" v="799624" />
	</node>
	<node id="-348747" lat="61.7615367869" lon="8.00600142034">
		<tag k="name" v="Lundadalsvatnet" />
		<tag k="natural" v="water" />
		<tag k="ssr:stedsnr" v="799396" />
		<tag k="water" v="lake" />
	</node>
	<node id="-348744" lat="61.9321388882" lon="8.18241666684">
		<tag k="name" v="Veslsæterslågan" />
		<tag k="ssr:stedsnr" v="798641" />
		<tag k="waterway" v="stream" />
	</node>
	<node id="-348742" lat="61.973663885" lon="8.45282223048">
		<tag k="name" v="Filleutla" />
		<tag k="natural" v="water" />
		<tag k="ssr:stedsnr" v="798624" />
		<tag k="water" v="lake" />
	</node>
	<node id="-348741" lat="61.9671388862" lon="8.13215832856">
		<tag k="name" v="Kroketetjønne" />
		<tag k="natural" v="water" />
		<tag k="ssr:stedsnr" v="798621" />
		<tag k="water" v="lake" />
	</node>
	<node id="-348738" lat="61.84301389" lon="8.33584167455">
		<tag k="loc_name" v="Raudgrove" />
		<tag k="name" v="Kluftutegrovi" />
		<tag k="ssr:stedsnr" v="921953" />
		<tag k="waterway" v="stream" />
	</node>
	<node id="-348737" lat="61.8299888933" lon="8.22607499779">
		<tag k="alt_name" v="Dugurdsgrove" />
		<tag k="name" v="Dugurdsgrovi" />
		<tag k="ssr:stedsnr" v="921950" />
		<tag k="waterway" v="stream" />
	</node>
	<node id="-348734" lat="61.7984000043" lon="8.19357777152">
		<tag k="name" v="Pallgrovi" />
		<tag k="ssr:stedsnr" v="921930" />
		<tag k="waterway" v="stream" />
	</node>
	<node id="-348731" lat="61.8691499994" lon="8.1679916723">
		<tag k="name" v="Gjuvtjønne" />
		<tag k="natural" v="water" />
		<tag k="ssr:stedsnr" v="921804" />
	</node>
	<node id="-348730" lat="61.8659361112" lon="8.40283333695">
		<tag k="name" v="Bersrudsgrovi" />
		<tag k="ssr:stedsnr" v="921799" />
		<tag k="waterway" v="stream" />
	</node>
	<node id="-348727" lat="62.1346944464" lon="7.91751944419">
		<tag k="name" v="Bollvatnet" />
		<tag k="natural" v="water" />
		<tag k="ssr:stedsnr" v="921225" />
		<tag k="water" v="lake" />
	</node>
	<node id="-348725" lat="62.1200333332" lon="7.92289167553">
		<tag k="loc_name" v="Kvitbottelve" />
		<tag k="name" v="Kvitbottelvi" />
		<tag k="ssr:stedsnr" v="921210" />
		<tag k="waterway" v="stream" />
	</node>
	<node id="-348721" lat="61.8890277752" lon="8.25403332869">
		<tag k="name" v="Skeisøyi" />
		<tag k="place" v="islet" />
		<tag k="ssr:stedsnr" v="920891" />
	</node>
	<node id="-348709" lat="61.8778777781" lon="8.22697500482">
		<tag k="alt_name" v="Gjuva, nordre" />
		<tag k="name" v="Nørdre Juva" />
		<tag k="ssr:stedsnr" v="920774" />
		<tag k="waterway" v="stream" />
	</node>
	<node id="-348704" lat="61.9797916665" lon="8.15765278591">
		<tag k="name" v="Løtjønne" />
		<tag k="natural" v="water" />
		<tag k="ssr:stedsnr" v="920645" />
	</node>
	<node id="-348700" lat="61.7864999967" lon="8.08469166687">
		<tag k="name" v="Salhusgrøvin" />
		<tag k="ssr:stedsnr" v="920633" />
		<tag k="waterway" v="stream" />
	</node>
	<node id="-348692" lat="61.8650555512" lon="8.7326694392">
		<tag k="name" v="Otta" />
		<tag k="ssr:stedsnr" v="920504" />
		<tag k="waterway" v="river" />
	</node>
	<node id="-348691" lat="61.9595250041" lon="8.03140277381">
		<tag k="alt_name" v="Geitåe" />
		<tag k="name" v="Geitåi" />
		<tag k="ssr:stedsnr" v="920500" />
		<tag k="waterway" v="river" />
	</node>
	<node id="-348688" lat="61.8841222194" lon="7.84355555882">
		<tag k="alt_name" v="Kollungselve" />
		<tag k="name" v="Kollungselvi" />
		<tag k="ssr:stedsnr" v="920714" />
		<tag k="waterway" v="stream" />
	</node>
	<node id="-348687" lat="61.878505557" lon="8.01438056186">
		<tag k="alt_name" v="Tundre" />
		<tag k="name" v="Tundra" />
		<tag k="ssr:stedsnr" v="920713" />
		<tag k="waterway" v="river" />
	</node>
	<node id="-348686" lat="61.7604055599" lon="7.55019166884">
		<tag k="name" v="Sprangdøla" />
		<tag k="ssr:stedsnr" v="920493" />
		<tag k="waterway" v="stream" />
	</node>
	<node id="-348684" lat="61.9254222184" lon="8.28047499969">
		<tag k="alt_name" v="Flåtåtjøynngrove" />
		<tag k="name" v="Flåtåtjønngrovi" />
		<tag k="ssr:stedsnr" v="778510" />
		<tag k="waterway" v="stream" />
	</node>
	<node id="-348676" lat="61.7818416709" lon="8.09340555689">
		<tag k="name" v="Salhusgrovi" />
		<tag k="ssr:stedsnr" v="739927" />
		<tag k="waterway" v="stream" />
	</node>
	<node id="-348675" lat="62.0307055564" lon="7.8470138801">
		<tag k="name" v="Skitarn" />
		<tag k="natural" v="waterfall" />
		<tag k="ssr:stedsnr" v="901873" />
	</node>
	<node id="-348674" lat="61.9138361092" lon="8.34744999108">
		<tag k="name" v="Åshølen" />
		<tag k="place" v="locality" />
		<tag k="ssr:stedsnr" v="901561" />
	</node>
	<node id="-348661" lat="61.8796388902" lon="8.37733888396">
		<tag k="name" v="Dagsgardsøye" />
		<tag k="place" v="island" />
		<tag k="ssr:stedsnr" v="718570" />
	</node>
	<node id="-348653" lat="62.0072305549" lon="8.10678055734">
		<tag k="alt_name" v="Svarthaugåi, nordre" />
		<tag k="loc_name" v="Nørdre Svarthaugåe" />
		<tag k="name" v="Nordre Svarthaugåi" />
		<tag k="ssr:stedsnr" v="678256" />
		<tag k="waterway" v="stream" />
	</node>
	<node id="-348648" lat="61.8466500012" lon="7.88920556454">
		<tag k="name" v="Skauttjønnin" />
		<tag k="natural" v="water" />
		<tag k="ssr:stedsnr" v="677727" />
	</node>
	<node id="-348647" lat="61.8396111116" lon="8.00088333525">
		<tag k="alt_name" v="Grotåe" />
		<tag k="name" v="Grjotåi" />
		<tag k="ssr:stedsnr" v="677724" />
		<tag k="waterway" v="stream" />
	</node>
	<node id="-348646" lat="61.8465472241" lon="7.81392222786">
		<tag k="name" v="Kollungstjønnin" />
		<tag k="natural" v="water" />
		<tag k="ssr:stedsnr" v="677720" />
	</node>
	<node id="-348645" lat="61.8661583369" lon="7.77759166411">
		<tag k="name" v="Kleivtjønne" />
		<tag k="natural" v="water" />
		<tag k="ssr:stedsnr" v="677712" />
	</node>
	<node id="-348644" lat="61.8702500012" lon="7.98553889">
		<tag k="alt_name" v="Skotåe" />
		<tag k="name" v="Skotåi" />
		<tag k="ssr:stedsnr" v="677711" />
		<tag k="waterway" v="stream" />
	</node>
	<node id="-348631" lat="62.1025750041" lon="7.95000833524">
		<tag k="name" v="Dørtjønne" />
		<tag k="natural" v="water" />
		<tag k="ssr:stedsnr" v="634754" />
		<tag k="water" v="lake" />
	</node>
	<node id="-348630" lat="62.0315050549" lon="7.93436496935">
		<tag k="name" v="Føysvatnet" />
		<tag k="natural" v="water" />
		<tag k="ssr:stedsnr" v="634591" />
		<tag k="water" v="lake" />
	</node>
	<node id="-348625" lat="62.0312138872" lon="7.55503888322">
		<tag k="name" v="Hamseviki" />
		<tag k="natural" v="bay" />
		<tag k="ssr:stedsnr" v="617175" />
	</node>
	<node id="-348624" lat="61.8105138896" lon="7.68390000499">
		<tag k="alt_name" v="Sekkegrovi, nordre" />
		<tag k="name" v="Nørdre Sekkegrove" />
		<tag k="ssr:stedsnr" v="616623" />
		<tag k="waterway" v="stream" />
	</node>
	<node id="-348623" lat="61.8009999962" lon="7.61094166055">
		<tag k="name" v="Morkatjønne" />
		<tag k="natural" v="water" />
		<tag k="ssr:stedsnr" v="616616" />
	</node>
	<node id="-348618" lat="61.9726997522" lon="7.64237634062">
		<tag k="name" v="Åfåttjønnin" />
		<tag k="natural" v="water" />
		<tag k="ssr:stedsnr" v="616553" />
		<tag k="water" v="lake" />
	</node>
	<node id="-348617" lat="61.8775194445" lon="8.39699445206">
		<tag k="name" v="Stensgårdøye" />
		<tag k="place" v="island" />
		<tag k="ssr:stedsnr" v="718944" />
	</node>
	<node id="-348612" lat="61.866591666" lon="8.38201943933">
		<tag k="name" v="Skardgrove" />
		<tag k="ssr:stedsnr" v="718670" />
		<tag k="waterway" v="stream" />
	</node>
	<node id="-348611" lat="61.9569000027" lon="7.88232222863">
		<tag k="name" v="Fiskedammain" />
		<tag k="natural" v="water" />
		<tag k="ssr:stedsnr" v="718665" />
	</node>
	<node id="-348603" lat="61.8164194431" lon="8.20683610912">
		<tag k="name" v="Grotåe" />
		<tag k="ssr:stedsnr" v="718243" />
		<tag k="waterway" v="stream" />
	</node>
	<node id="-348602" lat="61.9187388846" lon="8.06141666335">
		<tag k="name" v="Øybergshølen" />
		<tag k="place" v="locality" />
		<tag k="ssr:stedsnr" v="717499" />
	</node>
	<node id="-348592" lat="62.1856638922" lon="7.80040833784">
		<tag k="name" v="Radiovatnet" />
		<tag k="natural" v="water" />
		<tag k="ssr:stedsnr" v="557161" />
	</node>
	<node id="-348591" lat="62.1504111125" lon="7.82364167182">
		<tag k="name" v="Tordsvatnet" />
		<tag k="natural" v="water" />
		<tag k="ssr:stedsnr" v="557207" />
		<tag k="water" v="lake" />
	</node>
	<node id="-348589" lat="61.8741277798" lon="8.11413887971">
		<tag k="alt_name" v="Linsheimslågå" />
		<tag k="name" v="Linsheimslågån" />
		<tag k="ssr:stedsnr" v="556864" />
		<tag k="waterway" v="stream" />
	</node>
	<node id="-348584" lat="62.0050933159" lon="7.66767011258">
		<tag k="name" v="Grotlivatnet" />
		<tag k="natural" v="water" />
		<tag k="ssr:stedsnr" v="556172" />
		<tag k="water" v="lake" />
	</node>
	<node id="-348583" lat="62.1129833348" lon="7.94361111423">
		<tag k="name" v="Dørvatnet" />
		<tag k="natural" v="water" />
		<tag k="old_name" v="Dørtjørni, midtre" />
		<tag k="ssr:stedsnr" v="556225" />
	</node>
	<node id="-348582" lat="61.8813111079" lon="8.03471389009">
		<tag k="alt_name" v="Illveiggrove" />
		<tag k="name" v="Illvegsgrøvin" />
		<tag k="ssr:stedsnr" v="555693" />
		<tag k="waterway" v="stream" />
	</node>
	<node id="-348577" lat="61.9119222265" lon="8.37186667139">
		<tag k="name" v="Veltspildra" />
		<tag k="ssr:stedsnr" v="536556" />
		<tag k="waterway" v="stream" />
	</node>
	<node id="-348576" lat="61.9063944432" lon="8.37458888631">
		<tag k="name" v="Bøvertjønne" />
		<tag k="natural" v="water" />
		<tag k="ssr:stedsnr" v="536555" />
	</node>
	<node id="-348573" lat="62.1390288514" lon="8.00549457025">
		<tag k="name" v="Storvatnet" />
		<tag k="natural" v="water" />
		<tag k="ssr:stedsnr" v="496717" />
		<tag k="water" v="lake" />
	</node>
	<node id="-348572" lat="62.0208166683" lon="7.75244444957">
		<tag k="name" v="Vulu" />
		<tag k="ssr:stedsnr" v="496693" />
		<tag k="waterway" v="river" />
	</node>
	<node id="-348571" lat="61.8691861109" lon="8.01617778636">
		<tag k="alt_name" v="Skotåe" />
		<tag k="name" v="Skotåi" />
		<tag k="ssr:stedsnr" v="496257" />
		<tag k="waterway" v="stream" />
	</node>
	<node id="-348563" lat="61.8328361091" lon="7.84768332753">
		<tag k="name" v="Storsteintjønne" />
		<tag k="natural" v="water" />
		<tag k="ssr:stedsnr" v="495744" />
		<tag k="water" v="lake" />
	</node>
	<node id="-348561" lat="61.8345722234" lon="7.75722221428">
		<tag k="name" v="Randsverktjønne" />
		<tag k="natural" v="water" />
		<tag k="ssr:stedsnr" v="495727" />
	</node>
	<node id="-348553" lat="61.9349499992" lon="8.28088056335">
		<tag k="alt_name" v="Hyrvetangjen" />
		<tag k="name" v="Hyrvetangen" />
		<tag k="natural" v="cape" />
		<tag k="ssr:stedsnr" v="495673" />
	</node>
	<node id="-348552" lat="61.9332055581" lon="8.23670555588">
		<tag k="alt_name" v="Hyrveviki, nordre" />
		<tag k="name" v="Nørdre Hyrvevikje" />
		<tag k="natural" v="bay" />
		<tag k="ssr:stedsnr" v="495671" />
	</node>
	<node id="-348551" lat="61.937402782" lon="8.2742499921">
		<tag k="name" v="Aursjoen" />
		<tag k="natural" v="water" />
		<tag k="ssr:stedsnr" v="495670" />
		<tag k="water" v="lake" />
	</node>
	<node id="-348550" lat="61.9660676431" lon="8.25942640681">
		<tag k="name" v="Aukarsvatnet" />
		<tag k="natural" v="water" />
		<tag k="ssr:stedsnr" v="495657" />
		<tag k="water" v="lake" />
	</node>
	<node id="-348547" lat="61.9839055531" lon="8.46868610314">
		<tag k="name" v="Tvillingtjønne" />
		<tag k="natural" v="water" />
		<tag k="ssr:stedsnr" v="678960" />
	</node>
	<node id="-348544" lat="62.1525283765" lon="7.96347854848">
		<tag k="name" v="Spongvatnet" />
		<tag k="natural" v="water" />
		<tag k="ssr:stedsnr" v="678232" />
		<tag k="water" v="lake" />
	</node>
	<node id="-348537" lat="61.8839888906" lon="8.48757776965">
		<tag k="name" v="Skridu" />
		<tag k="ssr:stedsnr" v="677930" />
		<tag k="waterway" v="stream" />
	</node>
	<node id="-348530" lat="61.9412583359" lon="8.33952500559">
		<tag k="alt_name" v="Velt-Utla" />
		<tag k="name" v="Vesle-Utla" />
		<tag k="ssr:stedsnr" v="677647" />
		<tag k="waterway" v="stream" />
	</node>
	<node id="-348528" lat="61.9856083303" lon="8.28791389558">
		<tag k="name" v="Meborotjønne" />
		<tag k="natural" v="water" />
		<tag k="ssr:stedsnr" v="677645" />
	</node>
	<node id="-348527" lat="61.9925249993" lon="8.1569861077">
		<tag k="name" v="Stortjønne" />
		<tag k="natural" v="water" />
		<tag k="ssr:stedsnr" v="677643" />
	</node>
	<node id="-348526" lat="61.8141333345" lon="7.93276389259">
		<tag k="alt_name" v="Gjelåi, midtre" />
		<tag k="name" v="Midtre Gjelåi" />
		<tag k="ssr:stedsnr" v="677749" />
		<tag k="waterway" v="stream" />
	</node>
	<node id="-348518" lat="61.9246999958" lon="8.01324444693">
		<tag k="alt_name" v="Bjønnaskriu" />
		<tag k="name" v="Bjørnaskridu" />
		<tag k="ssr:stedsnr" v="677541" />
		<tag k="waterway" v="stream" />
	</node>
	<node id="-348514" lat="61.9980722226" lon="7.7428249977">
		<tag k="name" v="Svarttjønne" />
		<tag k="natural" v="water" />
		<tag k="ssr:stedsnr" v="677490" />
	</node>
	<node id="-348513" lat="61.9004861109" lon="7.59956110733">
		<tag k="name" v="Kringlutvatnet" />
		<tag k="natural" v="water" />
		<tag k="ssr:stedsnr" v="677575" />
	</node>
	<node id="-348512" lat="61.9824416638" lon="7.69962499693">
		<tag k="alt_name" v="Blankåe" />
		<tag k="name" v="Blankåi" />
		<tag k="ssr:stedsnr" v="677556" />
		<tag k="waterway" v="stream" />
	</node>
	<node id="-348510" lat="62.0077638853" lon="7.62551666739">
		<tag k="name" v="Breidalsdammen" />
		<tag k="ssr:stedsnr" v="657844" />
		<tag k="waterway" v="dam" />
	</node>
	<node id="-348509" lat="62.0042666678" lon="7.63108334168">
		<tag k="name" v="Kjostjønne" />
		<tag k="natural" v="water" />
		<tag k="ssr:stedsnr" v="657840" />
	</node>
	<node id="-348501" lat="61.8641444411" lon="8.29357500664">
		<tag k="name" v="Vassteppa" />
		<tag k="place" v="locality" />
		<tag k="ssr:stedsnr" v="657160" />
	</node>
	<node id="-348499" lat="62.0305111098" lon="7.89253888888">
		<tag k="name" v="Føysa" />
		<tag k="ssr:stedsnr" v="657298" />
		<tag k="waterway" v="river" />
	</node>
	<node id="-348487" lat="61.8762388893" lon="7.79453332854">
		<tag k="alt_name" v="Jakupgrove" />
		<tag k="name" v="Jakobgrovi" />
		<tag k="ssr:stedsnr" v="435728" />
		<tag k="waterway" v="stream" />
	</node>
	<node id="-348486" lat="61.9034222262" lon="7.99890833698">
		<tag k="alt_name" v="Buaskriu" />
		<tag k="name" v="Buaskridu" />
		<tag k="ssr:stedsnr" v="435723" />
		<tag k="waterway" v="stream" />
	</node>
	<node id="-348480" lat="61.7371750011" lon="7.93560277624">
		<tag k="name" v="Hesttjønne" />
		<tag k="natural" v="water" />
		<tag k="ssr:stedsnr" v="435456" />
	</node>
	<node id="-348478" lat="61.8721083309" lon="8.48903055832">
		<tag k="name" v="Bosmeodden" />
		<tag k="natural" v="cape" />
		<tag k="ssr:stedsnr" v="435118" />
	</node>
	<node id="-348475" lat="61.9558638923" lon="8.19152499293">
		<tag k="name" v="Skridugrovi" />
		<tag k="ssr:stedsnr" v="434644" />
		<tag k="waterway" v="stream" />
	</node>
	<node id="-348470" lat="62.1420979223" lon="7.87684804413">
		<tag k="name" v="Flatvatnet" />
		<tag k="natural" v="water" />
		<tag k="ssr:stedsnr" v="512631" />
		<tag k="water" v="lake" />
	</node>
	<node id="-348467" lat="61.9008555595" lon="8.10645833864">
		<tag k="alt_name" v="Søtilgrove" />
		<tag k="name" v="Sotilgrovi" />
		<tag k="ssr:stedsnr" v="374852" />
		<tag k="waterway" v="stream" />
	</node>
	<node id="-348463" lat="61.7647999996" lon="7.74121667124">
		<tag k="name" v="Regnbogtjønne" />
		<tag k="natural" v="water" />
		<tag k="ssr:stedsnr" v="374625" />
	</node>
	<node id="-348462" lat="61.7754499998" lon="8.01343056158">
		<tag k="name" v="Holåi" />
		<tag k="ssr:stedsnr" v="374619" />
		<tag k="waterway" v="stream" />
	</node>
	<node id="-348461" lat="61.7889722186" lon="8.05748332566">
		<tag k="name" v="Salhustjønnin" />
		<tag k="natural" v="water" />
		<tag k="ssr:stedsnr" v="374613" />
	</node>
	<node id="-348455" lat="62.0525000016" lon="7.42316666183">
		<tag k="name" v="Kupavatnet" />
		<tag k="natural" v="water" />
		<tag k="ssr:stedsnr" v="374118" />
	</node>
	<node id="-348454" lat="61.9311166632" lon="8.10313610691">
		<tag k="alt_name" v="Jøingje" />
		<tag k="name" v="Gjøingi" />
		<tag k="ssr:stedsnr" v="373669" />
		<tag k="waterway" v="stream" />
	</node>
	<node id="-348453" lat="61.9706500007" lon="8.16918333216">
		<tag k="name" v="Mjølakolotjønnin" />
		<tag k="natural" v="water" />
		<tag k="ssr:stedsnr" v="373662" />
	</node>
	<node id="-348446" lat="61.860963889" lon="8.30958610354">
		<tag k="name" v="Vasskridu" />
		<tag k="ssr:stedsnr" v="496793" />
		<tag k="waterway" v="stream" />
	</node>
	<node id="-348441" lat="61.9812722206" lon="8.47113889835">
		<tag k="name" v="Enkelttjønne" />
		<tag k="natural" v="water" />
		<tag k="ssr:stedsnr" v="496974" />
	</node>
	<node id="-348434" lat="62.1699749978" lon="7.900494443">
		<tag k="name" v="Djupvatnet" />
		<tag k="natural" v="water" />
		<tag k="ssr:stedsnr" v="496235" />
	</node>
	<node id="-348432" lat="62.1215944469" lon="7.64519999115">
		<tag k="name" v="Simlevatnet" />
		<tag k="natural" v="water" />
		<tag k="ssr:stedsnr" v="496073" />
		<tag k="water" v="lake" />
	</node>
	<node id="-348425" lat="61.8430527738" lon="7.43363333772">
		<tag k="name" v="Blankbergtjønne" />
		<tag k="natural" v="water" />
		<tag k="ssr:stedsnr" v="495602" />
	</node>
	<node id="-348424" lat="61.8351916646" lon="7.50496945263">
		<tag k="name" v="Vasstverratjønnin" />
		<tag k="natural" v="water" />
		<tag k="ssr:stedsnr" v="495600" />
		<tag k="water" v="lake" />
	</node>
	<node id="-348422" lat="61.9657999975" lon="7.68964999505">
		<tag k="name" v="Huguvardtjønne" />
		<tag k="natural" v="water" />
		<tag k="ssr:stedsnr" v="495591" />
		<tag k="water" v="lake" />
	</node>
	<node id="-348420" lat="61.907983331" lon="7.93627499674">
		<tag k="name" v="Bråtåvatnet" />
		<tag k="natural" v="water" />
		<tag k="ssr:stedsnr" v="495698" />
		<tag k="water" v="lake" />
	</node>
	<node id="-348413" lat="61.9391920716" lon="8.01943262154">
		<tag k="alt_name" v="Heggebottvatnet" />
		<tag k="name" v="Heggjebottvatnet" />
		<tag k="natural" v="water" />
		<tag k="ssr:stedsnr" v="495522" />
	</node>
	<node id="-348412" lat="61.9261499987" lon="7.75527499323">
		<tag k="name" v="Rauddalsåi" />
		<tag k="ssr:stedsnr" v="495521" />
		<tag k="waterway" v="stream" />
	</node>
	<node id="-348399" lat="61.9050944416" lon="8.36751389701">
		<tag k="name" v="Svarttjønne" />
		<tag k="natural" v="water" />
		<tag k="ssr:stedsnr" v="475559" />
	</node>
	<node id="-348398" lat="61.9124027734" lon="8.34842222712">
		<tag k="name" v="Høgfossen" />
		<tag k="natural" v="waterfall" />
		<tag k="ssr:stedsnr" v="475555" />
	</node>
	<node id="-348397" lat="61.9326388859" lon="8.30979444731">
		<tag k="name" v="Nordvikstangjen" />
		<tag k="natural" v="cape" />
		<tag k="ssr:stedsnr" v="475519" />
	</node>
	<node id="-348393" lat="61.8648749987" lon="7.76573054735">
		<tag k="name" v="Liavassosen" />
		<tag k="natural" v="bay" />
		<tag k="ssr:stedsnr" v="475337" />
	</node>
	<node id="-348381" lat="61.7808000024" lon="8.06666110304">
		<tag k="name" v="Salhusgrøvin" />
		<tag k="ssr:stedsnr" v="314272" />
		<tag k="waterway" v="stream" />
	</node>
	<node id="-348379" lat="62.0151666658" lon="7.72946388053">
		<tag k="alt_name" v="Mosagrovi" />
		<tag k="name" v="Måsågrove" />
		<tag k="ssr:stedsnr" v="314267" />
		<tag k="waterway" v="river" />
	</node>
	<node id="-348377" lat="62.0376444416" lon="7.59503888553">
		<tag k="name" v="Kjerringtjønne" />
		<tag k="natural" v="water" />
		<tag k="ssr:stedsnr" v="314172" />
	</node>
	<node id="-348376" lat="62.0307583343" lon="7.45333056353">
		<tag k="name" v="Kupa" />
		<tag k="ssr:stedsnr" v="314157" />
		<tag k="waterway" v="stream" />
	</node>
	<node id="-348375" lat="62.0659694451" lon="7.45733055381">
		<tag k="name" v="Viatjønne" />
		<tag k="natural" v="water" />
		<tag k="ssr:stedsnr" v="314111" />
	</node>
	<node id="-348370" lat="61.87980833" lon="7.84983610581">
		<tag k="alt_name" v="Sandhauggrove" />
		<tag k="name" v="Sandhauggrovi" />
		<tag k="ssr:stedsnr" v="313718" />
		<tag k="waterway" v="stream" />
	</node>
	<node id="-348367" lat="61.8861305587" lon="7.73939722247">
		<tag k="name" v="Grjotåtjønnin" />
		<tag k="natural" v="water" />
		<tag k="ssr:stedsnr" v="313709" />
	</node>
	<node id="-348365" lat="61.7881361087" lon="7.61609167569">
		<tag k="alt_name" v="Syrtbytta" />
		<tag k="name" v="Surtbytta" />
		<tag k="ssr:stedsnr" v="313625" />
		<tag k="waterway" v="stream" />
	</node>
	<node id="-348361" lat="61.9631017104" lon="7.40715109917">
		<tag k="name" v="Langvatnet" />
		<tag k="natural" v="water" />
		<tag k="ssr:stedsnr" v="313603" />
		<tag k="water" v="lake" />
	</node>
	<node id="-348360" lat="61.9030083356" lon="7.88924165879">
		<tag k="alt_name" v="Åstre" />
		<tag k="name" v="Ostri" />
		<tag k="ssr:stedsnr" v="313526" />
		<tag k="waterway" v="river" />
	</node>
	<node id="-348349" lat="61.926524998" lon="8.11759445167">
		<tag k="alt_name" v="Veltjøingje" />
		<tag k="name" v="Veslegjøingi" />
		<tag k="ssr:stedsnr" v="252615" />
		<tag k="waterway" v="stream" />
	</node>
	<node id="-348339" lat="61.9178861116" lon="8.35802499731">
		<tag k="name" v="Spildra" />
		<tag k="ssr:stedsnr" v="294562" />
		<tag k="waterway" v="stream" />
	</node>
	<node id="-348333" lat="61.9012361152" lon="8.31839722587">
		<tag k="name" v="Einingje" />
		<tag k="ssr:stedsnr" v="293729" />
		<tag k="waterway" v="stream" />
	</node>
	<node id="-348329" lat="61.9157361087" lon="8.09365278195">
		<tag k="name" v="Dønnfossen" />
		<tag k="natural" v="waterfall" />
		<tag k="ssr:stedsnr" v="293455" />
	</node>
	<node id="-348326" lat="61.9233972268" lon="8.2554888938">
		<tag k="name" v="Kitilstadtjønne" />
		<tag k="natural" v="water" />
		<tag k="ssr:stedsnr" v="293440" />
	</node>
	<node id="-348322" lat="62.1113500018" lon="7.62256111105">
		<tag k="name" v="Grønvatnet" />
		<tag k="natural" v="water" />
		<tag k="ssr:stedsnr" v="193106" />
		<tag k="water" v="lake" />
	</node>
	<node id="-348320" lat="61.8316194472" lon="7.65024443781">
		<tag k="name" v="Sotgrovtjønnin" />
		<tag k="natural" v="water" />
		<tag k="ssr:stedsnr" v="192619" />
	</node>
	<node id="-348319" lat="61.9249333336" lon="7.69295832654">
		<tag k="alt_name" v="Rauddalsåi, nordre" />
		<tag k="name" v="Nørdre Rauddalsåi" />
		<tag k="ssr:stedsnr" v="192609" />
		<tag k="waterway" v="stream" />
	</node>
	<node id="-348315" lat="61.911047221" lon="8.12712500928">
		<tag k="name" v="Bångråttjønne" />
		<tag k="natural" v="water" />
		<tag k="ssr:stedsnr" v="192725" />
	</node>
	<node id="-348303" lat="62.0258361101" lon="7.58694166309">
		<tag k="name" v="Kjerringelvi" />
		<tag k="ssr:stedsnr" v="132133" />
		<tag k="waterway" v="stream" />
	</node>
	<node id="-348298" lat="61.8940749973" lon="7.87936666951">
		<tag k="name" v="Matholgrovi" />
		<tag k="ssr:stedsnr" v="131717" />
		<tag k="waterway" v="stream" />
	</node>
	<node id="-348297" lat="61.8815999981" lon="7.76727500576">
		<tag k="name" v="Grjotåi" />
		<tag k="ssr:stedsnr" v="131714" />
		<tag k="waterway" v="stream" />
	</node>
	<node id="-348296" lat="61.9064388854" lon="7.97272222208">
		<tag k="alt_name" v="Brandsargrove" />
		<tag k="name" v="Brandsargrovi" />
		<tag k="ssr:stedsnr" v="131702" />
		<tag k="waterway" v="stream" />
	</node>
	<node id="-348287" lat="61.9238638874" lon="8.26447221789">
		<tag k="name" v="Jemnheimstjønne" />
		<tag k="natural" v="water" />
		<tag k="ssr:stedsnr" v="111505" />
	</node>
	<node id="-348285" lat="61.822775001" lon="8.15781943568">
		<tag k="loc_name" v="Grotåe" />
		<tag k="name" v="Grjotåi" />
		<tag k="ssr:stedsnr" v="253979" />
		<tag k="waterway" v="river" />
	</node>
	<node id="-348266" lat="61.8219749973" lon="7.80774999349">
		<tag k="name" v="Kollungstjønnin" />
		<tag k="natural" v="water" />
		<tag k="ssr:stedsnr" v="253769" />
	</node>
	<node id="-348265" lat="61.7899638893" lon="7.72646944596">
		<tag k="alt_name" v="Veltsota" />
		<tag k="name" v="Veslsota" />
		<tag k="ssr:stedsnr" v="253765" />
		<tag k="waterway" v="stream" />
	</node>
	<node id="-348263" lat="61.8303388846" lon="7.9295416686">
		<tag k="name" v="Storgrovi" />
		<tag k="ssr:stedsnr" v="253759" />
		<tag k="waterway" v="stream" />
	</node>
	<node id="-348260" lat="61.8663805519" lon="7.84271666751">
		<tag k="name" v="Kollungstjønne" />
		<tag k="natural" v="water" />
		<tag k="ssr:stedsnr" v="253729" />
	</node>
	<node id="-348258" lat="61.8993000024" lon="7.98439999198">
		<tag k="alt_name" v="Gravåe" />
		<tag k="name" v="Gravåi" />
		<tag k="ssr:stedsnr" v="253720" />
		<tag k="waterway" v="stream" />
	</node>
	<node id="-348254" lat="61.7767361131" lon="8.08417222061">
		<tag k="alt_name" v="Skjøle" />
		<tag k="loc_name" v="Skjølie" />
		<tag k="name" v="Skjøli" />
		<tag k="ssr:stedsnr" v="253657" />
		<tag k="waterway" v="river" />
	</node>
	<node id="-348250" lat="62.0760333305" lon="7.88878889186">
		<tag k="name" v="Langvatnet" />
		<tag k="natural" v="water" />
		<tag k="ssr:stedsnr" v="253287" />
	</node>
	<node id="-348248" lat="62.05296389" lon="7.82498055511">
		<tag k="name" v="Torda" />
		<tag k="ssr:stedsnr" v="253284" />
		<tag k="waterway" v="river" />
	</node>
	<node id="-348247" lat="62.0164314116" lon="7.43428503493">
		<tag k="alt_name" v="Lægervatnet, nordre" />
		<tag k="name" v="Nørdre Lægervatnet" />
		<tag k="natural" v="water" />
		<tag k="ssr:stedsnr" v="253173" />
		<tag k="water" v="lake" />
	</node>
	<node id="-348235" lat="61.8948217141" lon="7.56736633597">
		<tag k="alt_name" v="Leirvatnet, nedre" />
		<tag k="name" v="Nedre Leirvatnet" />
		<tag k="natural" v="water" />
		<tag k="ssr:stedsnr" v="252535" />
		<tag k="water" v="lake" />
	</node>
	<node id="-348232" lat="61.9374305519" lon="7.87200278066">
		<tag k="alt_name" v="Framruste" />
		<tag k="name" v="Framrusti" />
		<tag k="ssr:stedsnr" v="252493" />
		<tag k="waterway" v="river" />
	</node>
	<node id="-348231" lat="61.9532674713" lon="7.91308059033">
		<tag k="alt_name" v="Poyllvatnet" />
		<tag k="name" v="Pollvatnet" />
		<tag k="natural" v="water" />
		<tag k="ssr:stedsnr" v="252491" />
		<tag k="water" v="lake" />
	</node>
	<node id="-348230" lat="61.9522611126" lon="7.91669999197">
		<tag k="name" v="Trondøri" />
		<tag k="place" v="islet" />
		<tag k="ssr:stedsnr" v="252487" />
	</node>
	<node id="-348229" lat="61.948258337" lon="8.00107222718">
		<tag k="alt_name" v="Stutargrove" />
		<tag k="name" v="Stutagrovi" />
		<tag k="ssr:stedsnr" v="252485" />
		<tag k="waterway" v="stream" />
	</node>
	<node id="-348224" lat="61.9756249985" lon="7.94074999986">
		<tag k="alt_name" v="Geitåe" />
		<tag k="name" v="Geitåi" />
		<tag k="ssr:stedsnr" v="252470" />
		<tag k="waterway" v="stream" />
	</node>
	<node id="-348219" lat="61.8529944471" lon="8.27793889558">
		<tag k="name" v="Kvanngrovi" />
		<tag k="ssr:stedsnr" v="71814" />
		<tag k="waterway" v="stream" />
	</node>
	<node id="-348216" lat="61.9497638878" lon="8.336611116">
		<tag k="name" v="Stor-Utla" />
		<tag k="ssr:stedsnr" v="70649" />
		<tag k="waterway" v="stream" />
	</node>
	<node id="-348215" lat="61.9771361134" lon="8.34630000882">
		<tag k="name" v="Jehanstjønne" />
		<tag k="natural" v="water" />
		<tag k="ssr:stedsnr" v="70645" />
	</node>
	<node id="-348214" lat="61.8001861109" lon="7.64856111105">
		<tag k="alt_name" v="Storgrove" />
		<tag k="name" v="Storgrovi" />
		<tag k="ssr:stedsnr" v="70609" />
		<tag k="waterway" v="stream" />
	</node>
	<node id="-348213" lat="61.973444443" lon="7.51984444647">
		<tag k="name" v="Vassvenda" />
		<tag k="ssr:stedsnr" v="70541" />
		<tag k="waterway" v="stream" />
	</node>
	<node id="-348212" lat="61.9556944456" lon="7.98170555811">
		<tag k="alt_name" v="Hovdegrove" />
		<tag k="name" v="Hovdegrovi" />
		<tag k="ssr:stedsnr" v="70517" />
		<tag k="waterway" v="stream" />
	</node>
	<node id="-348209" lat="61.9542305555" lon="7.89341945013">
		<tag k="name" v="Israeltjønne" />
		<tag k="natural" v="water" />
		<tag k="ssr:stedsnr" v="51405" />
	</node>
	<node id="-348194" lat="61.8611444443" lon="8.38422499289">
		<tag k="name" v="Åndfossen" />
		<tag k="natural" v="waterfall" />
		<tag k="ssr:stedsnr" v="233710" />
	</node>
	<node id="-348191" lat="61.8697777734" lon="8.26854722832">
		<tag k="name" v="Velt-Strikvilte" />
		<tag k="ssr:stedsnr" v="233159" />
		<tag k="waterway" v="stream" />
	</node>
	<node id="-348184" lat="61.8798861145" lon="8.41826667163">
		<tag k="name" v="Kringeløye" />
		<tag k="place" v="islet" />
		<tag k="ssr:stedsnr" v="232466" />
	</node>
	<node id="-348178" lat="62.0500083304" lon="8.3131694371">
		<tag k="name" v="Lora" />
		<tag k="ssr:stedsnr" v="11233" />
		<tag k="waterway" v="river" />
	</node>
	<node id="-348176" lat="62.0030500044" lon="8.00304721729">
		<tag k="name" v="Kvennåtjønnin" />
		<tag k="natural" v="water" />
		<tag k="ssr:stedsnr" v="11226" />
	</node>
	<node id="-348172" lat="61.9041916635" lon="8.35267500049">
		<tag k="name" v="Aura" />
		<tag k="ssr:stedsnr" v="10843" />
		<tag k="waterway" v="river" />
	</node>
	<node id="-348162" lat="61.921388893" lon="8.04013333532">
		<tag k="name" v="Høgfossen" />
		<tag k="natural" v="waterfall" />
		<tag k="ssr:stedsnr" v="10554" />
	</node>
</osm>
