<?xml version="1.0" encoding="UTF-8"?>
<<<<<<< HEAD
<osm version="0.6" generator="osmapis">
	<node lat="61.91383888728303" lon="8.35083610812924" id="-17478">
		<tag k="name" v="Åstreet" />
		<tag k="place" v="locality" />
		<tag k="ssr:stedsnr" v="233585" />
	</node>
	<node lat="61.941177775241044" lon="7.98201667025972" id="-17518">
		<tag k="name" v="Mariskridu" />
		<tag k="natural" v="scree" />
		<tag k="ssr:stedsnr" v="252480" />
	</node>
	<node lat="61.94003889221902" lon="7.989300000972349" id="-17547">
		<tag k="name" v="Sperstadskridu" />
		<tag k="natural" v="scree" />
		<tag k="ssr:stedsnr" v="131512" />
	</node>
	<node lat="61.9370694415236" lon="7.405913884323627" id="-17550">
		<tag k="name" v="Mårådalsbreen" />
		<tag k="natural" v="glacier" />
		<tag k="ssr:stedsnr" v="131576" />
	</node>
	<node lat="61.74490833483977" lon="7.979583340033628" id="-17576">
		<tag k="name" v="Isakssteinen" />
		<tag k="natural" v="stone" />
		<tag k="ssr:stedsnr" v="253452" />
	</node>
	<node lat="61.88875833132001" lon="8.483802773609149" id="-17614">
		<tag k="historic" v="shieling" />
		<tag k="name" v="Skrindstulen" />
		<tag k="place" v="locality" />
		<tag k="ssr:stedsnr" v="233635" />
	</node>
	<node lat="61.88524444170721" lon="8.509261111267925" id="-17650">
		<tag k="name" v="Bosmemyri" />
		<tag k="natural" v="wetland" />
		<tag k="ssr:stedsnr" v="313931" />
	</node>
	<node lat="61.74928889002721" lon="7.909730548503869" id="-17684">
		<tag k="name" v="Holåbreen" />
		<tag k="natural" v="glacier" />
		<tag k="ssr:stedsnr" v="374404" />
	</node>
	<node lat="61.834041670943705" lon="7.956874995483712" id="-17688">
		<tag k="name" v="Tålormskogen" />
		<tag k="place" v="locality" />
		<tag k="ssr:stedsnr" v="374743" />
	</node>
	<node lat="61.9222388933372" lon="8.199241665131556" id="-17695">
		<tag k="historic" v="shieling" />
		<tag k="name" v="Tainnsætre" />
		<tag k="place" v="locality" />
		<tag k="ssr:stedsnr" v="414398" />
	</node>
	<node lat="61.95520832966617" lon="7.4456166697816535" id="-17703">
		<tag k="name" v="Raudeggbreen" />
		<tag k="natural" v="glacier" />
		<tag k="ssr:stedsnr" v="434575" />
	</node>
	<node lat="61.74734722152199" lon="7.639119437639952" id="-17704">
		<tag k="name" v="Kollebreen" />
		<tag k="natural" v="glacier" />
		<tag k="ssr:stedsnr" v="434590" />
	</node>
	<node lat="61.94113611257729" lon="7.941961103867046" id="-17716">
		<tag k="name" v="Sjaurkvittskridu" />
		<tag k="natural" v="scree" />
		<tag k="ssr:stedsnr" v="435560" />
	</node>
	<node lat="61.86509166677179" lon="7.438550003315819" id="-17745">
		<tag k="name" v="Tverrbyttnbreen" />
		<tag k="natural" v="glacier" />
		<tag k="ssr:stedsnr" v="677611" />
	</node>
	<node lat="61.94260277808125" lon="7.970649999797589" id="-17778">
		<tag k="name" v="Nyskridu" />
		<tag k="natural" v="scree" />
		<tag k="ssr:stedsnr" v="495516" />
	</node>
	<node lat="61.91902777493198" lon="7.804583326236589" id="-17811">
		<tag k="alt_name" v="Sjømannssletti" />
		<tag k="name" v="Sjømainnssletta" />
		<tag k="natural" v="wetland" />
		<tag k="ssr:stedsnr" v="555502" />
	</node>
	<node lat="61.92350277573246" lon="8.10446666617762" id="-17866">
		<tag k="name" v="Fargarjordet" />
=======
<osm generator="osmapis" version="0.6">
	<node id="-363328" lat="61.9924750034" lon="7.87537500383">
		<tag k="alt_name" v="Storøyi" />
		<tag k="name" v="Storøye" />
		<tag k="place" v="locality" />
		<tag k="ssr:stedsnr" v="495490" />
	</node>
	<node id="-363902" lat="61.895194443" lon="8.27439722747">
		<tag k="alt_name" v="Skeidsholet" />
		<tag k="name" v="Skeisholet" />
>>>>>>> e1d4bc35ff8a6074a6f2e91616a996b547c36f15
		<tag k="place" v="locality" />
		<tag k="ssr:stedsnr" v="657513" />
	</node>
<<<<<<< HEAD
	<node lat="61.83776944791122" lon="8.24015834043277" id="-17893">
		<tag k="name" v="Elistein" />
		<tag k="natural" v="stone" />
		<tag k="ssr:stedsnr" v="718004" />
	</node>
	<node lat="61.83097777530237" lon="7.724641669847365" id="-17905">
		<tag k="name" v="Grøede" />
=======
	<node id="-364029" lat="61.9533444428" lon="7.89459444342">
		<tag k="name" v="Sæffeni" />
>>>>>>> e1d4bc35ff8a6074a6f2e91616a996b547c36f15
		<tag k="place" v="locality" />
		<tag k="ssr:stedsnr" v="900344" />
	</node>
<<<<<<< HEAD
	<node lat="61.89648610875564" lon="8.354641661731227" id="-17909">
		<tag k="name" v="Velthaugflaten" />
=======
	<node id="-363259" lat="61.9126027748" lon="8.36999999224">
		<tag k="historic" v="shieling" />
		<tag k="name" v="Øvre Spilderflaten" />
>>>>>>> e1d4bc35ff8a6074a6f2e91616a996b547c36f15
		<tag k="place" v="locality" />
		<tag k="ssr:stedsnr" v="901734" />
	</node>
<<<<<<< HEAD
	<node lat="61.924024998327575" lon="8.06892499411571" id="-17922">
		<tag k="name" v="Øybergsurdi" />
		<tag k="natural" v="scree" />
		<tag k="ssr:stedsnr" v="738549" />
	</node>
	<node lat="61.81877499739589" lon="8.313172219971515" id="-17937">
		<tag k="name" v="Lendbreen" />
		<tag k="natural" v="glacier" />
		<tag k="ssr:stedsnr" v="739956" />
	</node>
	<node lat="61.748488889365554" lon="7.662119442359253" id="-17952">
		<tag k="alt_name" v="Kollebreen, austre" />
		<tag k="name" v="Austre Kollebreen" />
		<tag k="natural" v="glacier" />
		<tag k="ssr:stedsnr" v="799509" />
	</node>
	<node lat="61.79437499705381" lon="7.992250005123354" id="-17964">
		<tag k="alt_name" v="Gjelåbreen, heimste" />
		<tag k="name" v="Heimste Gjelåbreen" />
		<tag k="natural" v="glacier" />
		<tag k="ssr:stedsnr" v="799647" />
	</node>
	<node lat="61.90227222050322" lon="8.355950007559745" id="-18042">
		<tag k="name" v="Olafurukroken" />
		<tag k="place" v="locality" />
		<tag k="ssr:stedsnr" v="901551" />
	</node>
	<node lat="61.74828055122025" lon="8.062555551453977" id="-18056">
=======
	<node id="-364278" lat="62.0941833327" lon="7.9470611108">
		<tag k="name" v="Dørbreen" />
		<tag k="natural" v="glacier" />
		<tag k="ssr:stedsnr" v="738192" />
	</node>
	<node id="-363124" lat="61.8860444477" lon="8.51178333584">
		<tag k="name" v="Bosmemyre" />
		<tag k="natural" v="wetland" />
		<tag k="ssr:stedsnr" v="50760" />
	</node>
	<node id="-363379" lat="61.74928889" lon="7.9097305485">
		<tag k="name" v="Holåbreen" />
		<tag k="natural" v="glacier" />
		<tag k="ssr:stedsnr" v="374404" />
	</node>
	<node id="-364402" lat="61.9061444415" lon="7.93542500561">
		<tag k="name" v="Personkvee" />
		<tag k="place" v="locality" />
		<tag k="ssr:stedsnr" v="840301" />
	</node>
	<node id="-364179" lat="61.9190277749" lon="7.80458332624">
		<tag k="alt_name" v="Sjømannssletti" />
		<tag k="name" v="Sjømainnssletta" />
		<tag k="natural" v="wetland" />
		<tag k="ssr:stedsnr" v="555502" />
	</node>
	<node id="-363261" lat="62.018736113" lon="7.86168332433">
		<tag k="historic" v="shieling" />
		<tag k="name" v="Øverstulen" />
		<tag k="place" v="locality" />
		<tag k="ssr:stedsnr" v="294860" />
	</node>
	<node id="-363500" lat="61.8842750045" lon="7.78354722506">
		<tag k="alt_name" v="Bruskriu" />
		<tag k="name" v="Bruskridu" />
		<tag k="natural" v="scree" />
		<tag k="ssr:stedsnr" v="555673" />
	</node>
	<node id="-364263" lat="61.7778111146" lon="7.91916388013">
		<tag k="alt_name" v="Gjelåbreen, midtre" />
		<tag k="name" v="Midtre Gjelåbreen" />
		<tag k="natural" v="glacier" />
		<tag k="ssr:stedsnr" v="617642" />
	</node>
	<node id="-363112" lat="61.8887583313" lon="8.48380277361">
		<tag k="historic" v="shieling" />
		<tag k="name" v="Skrindstulen" />
		<tag k="place" v="locality" />
		<tag k="ssr:stedsnr" v="233635" />
	</node>
	<node id="-364007" lat="61.8852444417" lon="8.50926111127">
		<tag k="name" v="Bosmemyri" />
		<tag k="natural" v="wetland" />
		<tag k="ssr:stedsnr" v="313931" />
	</node>
	<node id="-363366" lat="61.8550166655" lon="8.35899444437">
		<tag k="name" v="Åndmyri" />
		<tag k="natural" v="wetland" />
		<tag k="ssr:stedsnr" v="496794" />
	</node>
	<node id="-363621" lat="61.7482805512" lon="8.06255555145">
>>>>>>> e1d4bc35ff8a6074a6f2e91616a996b547c36f15
		<tag k="loc_name" v="Ytste breen" />
		<tag k="name" v="Ytstebreen" />
		<tag k="natural" v="glacier" />
		<tag k="ssr:stedsnr" v="920639" />
	</node>
<<<<<<< HEAD
	<node lat="61.886044447650946" lon="8.511783335838558" id="-18143">
		<tag k="name" v="Bosmemyre" />
=======
	<node id="-363597" lat="61.8187749974" lon="8.31317221997">
		<tag k="name" v="Lendbreen" />
		<tag k="natural" v="glacier" />
		<tag k="ssr:stedsnr" v="739956" />
	</node>
	<node id="-363873" lat="61.8731055544" lon="8.30192778224">
		<tag k="name" v="Joholet" />
		<tag k="place" v="locality" />
		<tag k="ssr:stedsnr" v="112164" />
	</node>
	<node id="-363111" lat="61.9138388873" lon="8.35083610813">
		<tag k="name" v="Åstreet" />
		<tag k="place" v="locality" />
		<tag k="ssr:stedsnr" v="233585" />
	</node>
	<node id="-363998" lat="61.9336749973" lon="7.58441944553">
		<tag k="name" v="Sandåbreen" />
		<tag k="natural" v="glacier" />
		<tag k="ssr:stedsnr" v="313600" />
	</node>
	<node id="-363665" lat="61.7400277779" lon="8.06545278713">
		<tag k="name" v="Grautfatet" />
		<tag k="natural" v="glacier" />
		<tag k="ssr:stedsnr" v="799403" />
	</node>
	<node id="-363483" lat="61.8072833356" lon="8.02982778483">
		<tag k="loc_name" v="Grotåbreen" />
		<tag k="name" v="Grjotåbreen" />
		<tag k="natural" v="glacier" />
		<tag k="ssr:stedsnr" v="495750" />
	</node>
	<node id="-363892" lat="61.9370694415" lon="7.40591388432">
		<tag k="name" v="Mårådalsbreen" />
		<tag k="natural" v="glacier" />
		<tag k="ssr:stedsnr" v="131576" />
	</node>
	<node id="-364120" lat="61.9411361126" lon="7.94196110387">
		<tag k="name" v="Sjaurkvittskridu" />
		<tag k="natural" v="scree" />
		<tag k="ssr:stedsnr" v="435560" />
	</node>
	<node id="-363350" lat="61.8985361111" lon="8.41083333247">
		<tag k="name" v="Kummemyrin" />
>>>>>>> e1d4bc35ff8a6074a6f2e91616a996b547c36f15
		<tag k="natural" v="wetland" />
		<tag k="ssr:stedsnr" v="50760" />
	</node>
<<<<<<< HEAD
	<node lat="61.797730558234484" lon="8.172497213581703" id="-18148">
		<tag k="historic" v="shieling" />
		<tag k="name" v="Veltvien" />
		<tag k="place" v="locality" />
		<tag k="ssr:stedsnr" v="51238" />
	</node>
	<node lat="61.95728888976545" lon="8.3371555493363" id="-18159">
		<tag k="name" v="Marlosteinen" />
		<tag k="natural" v="stone" />
		<tag k="ssr:stedsnr" v="70655" />
	</node>
	<node lat="61.835653614439316" lon="8.341360901103561" id="-18177">
=======
	<node id="-363833" lat="61.9572888898" lon="8.33715554934">
		<tag k="name" v="Marlosteinen" />
		<tag k="natural" v="stone" />
		<tag k="ssr:stedsnr" v="70655" />
	</node>
	<node id="-363171" lat="61.7449083348" lon="7.97958334003">
		<tag k="name" v="Isakssteinen" />
		<tag k="natural" v="stone" />
		<tag k="ssr:stedsnr" v="253452" />
	</node>
	<node id="-363214" lat="61.9237666703" lon="8.02486110388">
		<tag k="alt_name" v="Bjønnamyre" />
		<tag k="name" v="Bjørnamyran" />
		<tag k="natural" v="wetland" />
		<tag k="ssr:stedsnr" v="131531" />
	</node>
	<node id="-363853" lat="61.8356722216" lon="8.34134166336">
>>>>>>> e1d4bc35ff8a6074a6f2e91616a996b547c36f15
		<tag k="loc_name" v="Kluftutefonne" />
		<tag k="name" v="Kluftutefonni" />
		<tag k="natural" v="glacier" />
		<tag k="ssr:stedsnr" v="72945" />
	</node>
<<<<<<< HEAD
	<node lat="61.87310555436598" lon="8.301927782242895" id="-18192">
		<tag k="name" v="Joholet" />
		<tag k="place" v="locality" />
		<tag k="ssr:stedsnr" v="112164" />
	</node>
	<node lat="61.923766670320695" lon="8.024861103875889" id="-18202">
		<tag k="alt_name" v="Bjønnamyre" />
		<tag k="name" v="Bjørnamyran" />
		<tag k="natural" v="wetland" />
		<tag k="ssr:stedsnr" v="131531" />
	</node>
	<node lat="61.89519444298303" lon="8.274397227467729" id="-18219">
		<tag k="alt_name" v="Skeidsholet" />
		<tag k="name" v="Skeisholet" />
=======
	<node id="-363211" lat="61.9400388922" lon="7.98930000097">
		<tag k="name" v="Sperstadskridu" />
		<tag k="natural" v="scree" />
		<tag k="ssr:stedsnr" v="131512" />
	</node>
	<node id="-364362" lat="61.7484888894" lon="7.66211944236">
		<tag k="alt_name" v="Kollebreen, austre" />
		<tag k="name" v="Austre Kollebreen" />
		<tag k="natural" v="glacier" />
		<tag k="ssr:stedsnr" v="799509" />
	</node>
	<node id="-363592" lat="61.9022722205" lon="8.35595000756">
		<tag k="name" v="Olafurukroken" />
>>>>>>> e1d4bc35ff8a6074a6f2e91616a996b547c36f15
		<tag k="place" v="locality" />
		<tag k="ssr:stedsnr" v="131861" />
	</node>
<<<<<<< HEAD
	<node lat="61.795072223210795" lon="7.6321972263389695" id="-18230">
		<tag k="name" v="Tunga" />
=======
	<node id="-363591" lat="61.8964861088" lon="8.35464166173">
		<tag k="name" v="Velthaugflaten" />
>>>>>>> e1d4bc35ff8a6074a6f2e91616a996b547c36f15
		<tag k="place" v="locality" />
		<tag k="ssr:stedsnr" v="171319" />
	</node>
<<<<<<< HEAD
	<node lat="61.89030000116171" lon="8.122363893195075" id="-18232">
		<tag k="historic" v="shieling" />
		<tag k="name" v="Søtilsætre" />
		<tag k="place" v="locality" />
		<tag k="ssr:stedsnr" v="171433" />
	</node>
	<node lat="61.91154444341224" lon="8.36244722632107" id="-18237">
		<tag k="historic" v="shieling" />
		<tag k="name" v="Nedre Spilderflaten" />
		<tag k="place" v="locality" />
		<tag k="ssr:stedsnr" v="172582" />
	</node>
	<node lat="61.844936111193306" lon="8.088122220993199" id="-18273">
		<tag k="name" v="Kvitingsbreen" />
=======
	<node id="-364102" lat="61.7473472215" lon="7.63911943764">
		<tag k="name" v="Kollebreen" />
		<tag k="natural" v="glacier" />
		<tag k="ssr:stedsnr" v="434590" />
	</node>
	<node id="-364101" lat="61.9552083297" lon="7.44561666978">
		<tag k="name" v="Raudeggbreen" />
>>>>>>> e1d4bc35ff8a6074a6f2e91616a996b547c36f15
		<tag k="natural" v="glacier" />
		<tag k="ssr:stedsnr" v="192757" />
	</node>
<<<<<<< HEAD
	<node lat="61.89118610977162" lon="8.389830554931857" id="-18307">
		<tag k="name" v="Skjerveholet" />
		<tag k="place" v="locality" />
		<tag k="ssr:stedsnr" v="293535" />
	</node>
	<node lat="61.912602774750475" lon="8.369999992242676" id="-18310">
		<tag k="historic" v="shieling" />
		<tag k="name" v="Øvre Spilderflaten" />
=======
	<node id="-363587" lat="61.8309777753" lon="7.72464166985">
		<tag k="name" v="Grøede" />
		<tag k="place" v="locality" />
		<tag k="ssr:stedsnr" v="900344" />
	</node>
	<node id="-363330" lat="61.9426027781" lon="7.9706499998">
		<tag k="name" v="Nyskridu" />
		<tag k="natural" v="scree" />
		<tag k="ssr:stedsnr" v="495516" />
	</node>
	<node id="-364224" lat="61.8988722267" lon="8.35395555762">
		<tag k="name" v="Høghaugflaten" />
>>>>>>> e1d4bc35ff8a6074a6f2e91616a996b547c36f15
		<tag k="place" v="locality" />
		<tag k="ssr:stedsnr" v="294577" />
	</node>
<<<<<<< HEAD
	<node lat="62.01873611298281" lon="7.861683324334688" id="-18312">
		<tag k="historic" v="shieling" />
		<tag k="name" v="Øverstulen" />
		<tag k="place" v="locality" />
		<tag k="ssr:stedsnr" v="294860" />
	</node>
	<node lat="61.86424999760739" lon="7.552719444316047" id="-18318">
		<tag k="name" v="Sikilbreen" />
		<tag k="natural" v="glacier" />
		<tag k="ssr:stedsnr" v="314269" />
	</node>
	<node lat="61.93367499730577" lon="7.584419445525481" id="-18325">
		<tag k="name" v="Sandåbreen" />
		<tag k="natural" v="glacier" />
		<tag k="ssr:stedsnr" v="313600" />
	</node>
	<node lat="61.75553611181695" lon="8.100369440254045" id="-18355">
		<tag k="alt_name" v="Heimste Brean" />
		<tag k="name" v="Heimaste Hestbreen" />
		<tag k="natural" v="glacier" />
		<tag k="old_name" v="Heimstebreen" />
		<tag k="ssr:stedsnr" v="314963" />
	</node>
	<node lat="61.953344442812856" lon="7.894594443419818" id="-18367">
		<tag k="name" v="Sæffeni" />
=======
	<node id="-363578" lat="61.8377694479" lon="8.24015834043">
		<tag k="name" v="Elistein" />
		<tag k="natural" v="stone" />
		<tag k="ssr:stedsnr" v="718004" />
	</node>
	<node id="-364217" lat="61.8529472245" lon="8.28392222907">
		<tag k="name" v="Stoe" />
>>>>>>> e1d4bc35ff8a6074a6f2e91616a996b547c36f15
		<tag k="place" v="locality" />
		<tag k="ssr:stedsnr" v="354379" />
	</node>
<<<<<<< HEAD
	<node lat="61.87566666272688" lon="7.60712500134477" id="-18395">
		<tag k="loc_name" v="Hålåbreen" />
		<tag k="name" v="Holåbreen" />
		<tag k="natural" v="glacier" />
		<tag k="ssr:stedsnr" v="374267" />
	</node>
	<node lat="61.758136112049854" lon="7.873033335277576" id="-18401">
		<tag k="alt_name" v="Gjelåbreen, ytre;Gjelåbreen" />
		<tag k="name" v="Ytre Gjelåbreen" />
=======
	<node id="-363959" lat="61.8449361112" lon="8.08812222099">
		<tag k="name" v="Kvitingsbreen" />
>>>>>>> e1d4bc35ff8a6074a6f2e91616a996b547c36f15
		<tag k="natural" v="glacier" />
		<tag k="ssr:stedsnr" v="374630" />
	</node>
<<<<<<< HEAD
	<node lat="62.138925004169884" lon="7.668366660957955" id="-18459">
		<tag k="loc_name" v="Tordsbreen" />
		<tag k="name" v="Torsbreen" />
		<tag k="natural" v="glacier" />
		<tag k="ssr:stedsnr" v="435731" />
	</node>
	<node lat="61.99247500343177" lon="7.875375003830104" id="-18469">
		<tag k="alt_name" v="Storøyi" />
		<tag k="name" v="Storøye" />
		<tag k="place" v="locality" />
		<tag k="ssr:stedsnr" v="495490" />
	</node>
	<node lat="61.8072833356332" lon="8.029827784833724" id="-18490">
		<tag k="loc_name" v="Grotåbreen" />
		<tag k="name" v="Grjotåbreen" />
		<tag k="natural" v="glacier" />
		<tag k="ssr:stedsnr" v="495750" />
	</node>
	<node lat="61.89853611105818" lon="8.410833332469055" id="-18495">
		<tag k="name" v="Kummemyrin" />
		<tag k="natural" v="wetland" />
		<tag k="ssr:stedsnr" v="495838" />
	</node>
	<node lat="61.85501666551859" lon="8.358994444365171" id="-18501">
		<tag k="name" v="Åndmyri" />
		<tag k="natural" v="wetland" />
		<tag k="ssr:stedsnr" v="496794" />
	</node>
	<node lat="61.75278055244287" lon="7.631202770609554" id="-18528">
		<tag k="alt_name" v="Kollebreen, vestre" />
		<tag k="name" v="Vestre Kollebreen" />
		<tag k="natural" v="glacier" />
		<tag k="ssr:stedsnr" v="555450" />
	</node>
	<node lat="61.88427500445275" lon="7.7835472250573705" id="-18540">
		<tag k="alt_name" v="Bruskriu" />
		<tag k="name" v="Bruskridu" />
		<tag k="natural" v="scree" />
		<tag k="ssr:stedsnr" v="555673" />
	</node>
	<node lat="61.8529472245018" lon="8.283922229069338" id="-18564">
		<tag k="name" v="Stoe" />
		<tag k="place" v="locality" />
		<tag k="ssr:stedsnr" v="597171" />
	</node>
	<node lat="61.898872226726624" lon="8.353955557616171" id="-18576">
		<tag k="name" v="Høghaugflaten" />
		<tag k="place" v="locality" />
		<tag k="ssr:stedsnr" v="597728" />
	</node>
	<node lat="61.84941667060989" lon="7.5466916581043275" id="-18579">
		<tag k="name" v="Sekkebreen" />
=======
	<node id="-364076" lat="61.9222388933" lon="8.19924166513">
		<tag k="historic" v="shieling" />
		<tag k="name" v="Tainnsætre" />
		<tag k="place" v="locality" />
		<tag k="ssr:stedsnr" v="414398" />
	</node>
	<node id="-363250" lat="61.8911861098" lon="8.38983055493">
		<tag k="name" v="Skjerveholet" />
		<tag k="place" v="locality" />
		<tag k="ssr:stedsnr" v="293535" />
	</node>
	<node id="-363304" lat="61.7555361118" lon="8.10036944025">
		<tag k="alt_name" v="Heimste Brean" />
		<tag k="name" v="Heimaste Hestbreen" />
>>>>>>> e1d4bc35ff8a6074a6f2e91616a996b547c36f15
		<tag k="natural" v="glacier" />
		<tag k="ssr:stedsnr" v="616600" />
	</node>
<<<<<<< HEAD
	<node lat="61.7778111145948" lon="7.919163880125158" id="-18601">
		<tag k="alt_name" v="Gjelåbreen, midtre" />
		<tag k="name" v="Midtre Gjelåbreen" />
		<tag k="natural" v="glacier" />
		<tag k="ssr:stedsnr" v="617642" />
	</node>
	<node lat="61.84071388493344" lon="7.581811108618936" id="-18650">
		<tag k="name" v="Storegrovbreen" />
=======
	<node id="-363815" lat="61.7977305582" lon="8.17249721358">
		<tag k="historic" v="shieling" />
		<tag k="name" v="Veltvien" />
		<tag k="place" v="locality" />
		<tag k="ssr:stedsnr" v="51238" />
	</node>
	<node id="-363557" lat="61.8650916668" lon="7.43855000332">
		<tag k="name" v="Tverrbyttnbreen" />
>>>>>>> e1d4bc35ff8a6074a6f2e91616a996b547c36f15
		<tag k="natural" v="glacier" />
		<tag k="ssr:stedsnr" v="738593" />
	</node>
<<<<<<< HEAD
	<node lat="62.094183332672856" lon="7.947061110800059" id="-18653">
		<tag k="name" v="Dørbreen" />
		<tag k="natural" v="glacier" />
		<tag k="ssr:stedsnr" v="738192" />
	</node>
	<node lat="61.87006944452885" lon="8.23856110681298" id="-18670">
		<tag k="name" v="Markurdi" />
		<tag k="natural" v="scree" />
		<tag k="ssr:stedsnr" v="738784" />
	</node>
	<node lat="61.90614444148927" lon="7.935425005612706" id="-18742">
		<tag k="name" v="Personkvee" />
		<tag k="place" v="locality" />
		<tag k="ssr:stedsnr" v="840301" />
	</node>
	<node lat="61.76738333687433" lon="8.16962499481222" id="-18778">
		<tag k="name" v="Hestfonni" />
=======
	<node id="-363299" lat="61.8642499976" lon="7.55271944432">
		<tag k="name" v="Sikilbreen" />
>>>>>>> e1d4bc35ff8a6074a6f2e91616a996b547c36f15
		<tag k="natural" v="glacier" />
		<tag k="ssr:stedsnr" v="860994" />
	</node>
<<<<<<< HEAD
	<node lat="62.02635555493496" lon="7.859411113845867" id="-18794">
=======
	<node id="-364449" lat="62.0263555549" lon="7.85941111385">
>>>>>>> e1d4bc35ff8a6074a6f2e91616a996b547c36f15
		<tag k="name" v="Dagsgardsstalain" />
		<tag k="place" v="locality" />
		<tag k="ssr:stedsnr" v="961888" />
	</node>
<<<<<<< HEAD
	<node lat="61.98486388677561" lon="7.891127778901291" id="-18796">
		<tag k="name" v="Synstålain" />
=======
	<node id="-363936" lat="61.9115444434" lon="8.36244722632">
		<tag k="historic" v="shieling" />
		<tag k="name" v="Nedre Spilderflaten" />
>>>>>>> e1d4bc35ff8a6074a6f2e91616a996b547c36f15
		<tag k="place" v="locality" />
		<tag k="ssr:stedsnr" v="960847" />
	</node>
	<node id="-364062" lat="61.8340416709" lon="7.95687499548">
		<tag k="name" v="Tålormskogen" />
		<tag k="place" v="locality" />
		<tag k="ssr:stedsnr" v="374743" />
	</node>
	<node id="-364293" lat="61.9240249983" lon="8.06892499412">
		<tag k="name" v="Øybergsurdi" />
		<tag k="natural" v="scree" />
		<tag k="ssr:stedsnr" v="738549" />
	</node>
	<node id="-364314" lat="61.8700694445" lon="8.23856110681">
		<tag k="name" v="Markurdi" />
		<tag k="natural" v="scree" />
		<tag k="ssr:stedsnr" v="738784" />
	</node>
	<node id="-364442" lat="61.9848638868" lon="7.8911277789">
		<tag k="name" v="Synstålain" />
		<tag k="place" v="locality" />
		<tag k="ssr:stedsnr" v="960847" />
	</node>
	<node id="-363671" lat="61.7943749971" lon="7.99225000512">
		<tag k="alt_name" v="Gjelåbreen, heimste" />
		<tag k="name" v="Heimste Gjelåbreen" />
		<tag k="natural" v="glacier" />
		<tag k="ssr:stedsnr" v="799647" />
	</node>
	<node id="-364054" lat="61.758136112" lon="7.87303333528">
		<tag k="alt_name" v="Gjelåbreen, ytre;Gjelåbreen" />
		<tag k="name" v="Ytre Gjelåbreen" />
		<tag k="natural" v="glacier" />
		<tag k="ssr:stedsnr" v="374630" />
	</node>
	<node id="-364436" lat="61.7673833369" lon="8.16962499481">
		<tag k="name" v="Hestfonni" />
		<tag k="natural" v="glacier" />
		<tag k="ssr:stedsnr" v="860994" />
	</node>
	<node id="-363539" lat="61.8494166706" lon="7.5466916581">
		<tag k="name" v="Sekkebreen" />
		<tag k="natural" v="glacier" />
		<tag k="ssr:stedsnr" v="616600" />
	</node>
	<node id="-363921" lat="61.7950722232" lon="7.63219722634">
		<tag k="name" v="Tunga" />
		<tag k="place" v="locality" />
		<tag k="ssr:stedsnr" v="171319" />
	</node>
	<node id="-363408" lat="62.1389250042" lon="7.66836666096">
		<tag k="loc_name" v="Tordsbreen" />
		<tag k="name" v="Torsbreen" />
		<tag k="natural" v="glacier" />
		<tag k="ssr:stedsnr" v="435731" />
	</node>
	<node id="-363377" lat="61.8756666627" lon="7.60712500134">
		<tag k="loc_name" v="Hålåbreen" />
		<tag k="name" v="Holåbreen" />
		<tag k="natural" v="glacier" />
		<tag k="ssr:stedsnr" v="374267" />
	</node>
	<node id="-363147" lat="61.9411777752" lon="7.98201667026">
		<tag k="name" v="Mariskridu" />
		<tag k="natural" v="scree" />
		<tag k="ssr:stedsnr" v="252480" />
	</node>
	<node id="-364297" lat="61.8407138849" lon="7.58181110862">
		<tag k="name" v="Storegrovbreen" />
		<tag k="natural" v="glacier" />
		<tag k="ssr:stedsnr" v="738593" />
	</node>
	<node id="-363923" lat="61.8903000012" lon="8.1223638932">
		<tag k="historic" v="shieling" />
		<tag k="name" v="Søtilsætre" />
		<tag k="place" v="locality" />
		<tag k="ssr:stedsnr" v="171433" />
	</node>
	<node id="-364166" lat="61.7527805524" lon="7.63120277061">
		<tag k="alt_name" v="Kollebreen, vestre" />
		<tag k="name" v="Vestre Kollebreen" />
		<tag k="natural" v="glacier" />
		<tag k="ssr:stedsnr" v="555450" />
	</node>
	<node id="-363553" lat="61.9235027757" lon="8.10446666618">
		<tag k="name" v="Fargarjordet" />
		<tag k="place" v="locality" />
		<tag k="ssr:stedsnr" v="657513" />
	</node>
</osm>
