<?xml version="1.0" encoding="UTF-8"?>
<osm version="0.6" generator="osmapis">
	<node lat="61.913569440338286" lon="8.072794449749207" id="-19318">
		<tag k="bridge" v="yes" />
		<tag k="layer" v="1" />
		<tag k="name" v="Søre Åmodt" />
		<tag k="ssr:stedsnr" v="106491" />
	</node>
	<node lat="61.88759493796479" lon="8.492636896266395" id="-19323">
		<tag k="highway" v="path" />
		<tag k="name" v="Krossen" />
		<tag k="ssr:stedsnr" v="112605" />
	</node>
	<node lat="61.84328055686911" lon="8.438163888149878" id="-19612">
		<tag k="alt_name" v="Tristeinsvardan" />
		<tag k="man_made" v="cairn" />
		<tag k="name" v="Trivaglan" />
		<tag k="place" v="locality" />
		<tag k="ssr:stedsnr" v="496953" />
	</node>
	<node lat="61.85636944695522" lon="8.461155553065968" id="-19638">
		<tag k="highway" v="path" />
		<tag k="name" v="Ljosåbakkan" />
		<tag k="ssr:stedsnr" v="695979" />
	</node>
	<node lat="62.16786110743942" lon="7.779361111837081" id="-19667">
		<tag k="highway" v="path" />
		<tag k="name" v="Fredlauses veg" />
		<tag k="ssr:stedsnr" v="633627" />
	</node>
	<node lat="62.00865555718095" lon="7.6302888840282534" id="-19670">
		<tag k="bridge" v="yes" />
		<tag k="layer" v="1" />
		<tag k="name" v="Breidal" />
		<tag k="ssr:stedsnr" v="652487" />
	</node>
	<node lat="61.86276388989493" lon="8.481833330572618" id="-19698">
		<tag k="bridge" v="yes" />
		<tag k="layer" v="1" />
		<tag k="name" v="Sandå" />
		<tag k="ssr:stedsnr" v="895481" />
	</node>
	<node lat="61.87663889127431" lon="8.389494438016236" id="-19699">
		<tag k="bridge" v="yes" />
		<tag k="layer" v="1" />
		<tag k="name" v="Vetlebrua" />
		<tag k="ssr:stedsnr" v="895484" />
	</node>
	<node lat="61.925630559660924" lon="8.361655547852699" id="-19815">
		<tag k="highway" v="path" />
		<tag k="name" v="Martnasvegen" />
		<tag k="ssr:stedsnr" v="839515" />
	</node>
	<node lat="61.8879694425549" lon="8.349730563036733" id="-19843">
		<tag k="bridge" v="yes" />
		<tag k="layer" v="1" />
		<tag k="name" v="Aura" />
		<tag k="ssr:stedsnr" v="895473" />
	</node>
	<node lat="61.87541110863396" lon="8.38918611165238" id="-19945">
		<tag k="junction" v="yes" />
		<tag k="name" v="Ånstad" />
		<tag k="place" v="locality" />
		<tag k="ssr:stedsnr" v="40757" />
	</node>
	<node lat="61.88512500017389" lon="8.24552776888279" id="-19946">
		<tag k="bridge" v="yes" />
		<tag k="layer" v="1" />
		<tag k="name" v="Nørdre Juvå" />
		<tag k="ssr:stedsnr" v="46531" />
	</node>
	<node lat="61.91357222114283" lon="8.053580551801032" id="-19947">
		<tag k="bridge" v="yes" />
		<tag k="layer" v="1" />
		<tag k="name" v="Nørdre Åmodt" />
		<tag k="ssr:stedsnr" v="46540" />
	</node>
	<node lat="62.00958888483293" lon="7.7535055503126395" id="-19948">
		<tag k="bridge" v="yes" />
		<tag k="layer" v="1" />
		<tag k="name" v="Mosegroven" />
		<tag k="ssr:stedsnr" v="46546" />
	</node>
	<node lat="61.942877779875424" lon="7.997272222138201" id="-19990">
		<tag k="bridge" v="yes" />
		<tag k="layer" v="1" />
		<tag k="name" v="Stutagroven" />
		<tag k="ssr:stedsnr" v="106496" />
	</node>
	<node lat="61.81911944692195" lon="7.733149999852618" id="-19996">
		<tag k="highway" v="path" />
		<tag k="name" v="Illvegen" />
		<tag k="ssr:stedsnr" v="111339" />
	</node>
	<node lat="62.01294444315339" lon="7.767936119941908" id="-20103">
		<tag k="bridge" v="yes" />
		<tag k="layer" v="1" />
		<tag k="name" v="Vulu" />
		<tag k="ssr:stedsnr" v="228561" />
	</node>
	<node lat="61.91481110674216" lon="8.093222223057019" id="-20111">
		<tag k="junction" v="yes" />
		<tag k="name" v="Vegaskjelet" />
		<tag k="place" v="locality" />
		<tag k="ssr:stedsnr" v="293454" />
	</node>
	<node lat="61.91986389132107" lon="8.109336104431899" id="-20166">
		<tag k="bridge" v="yes" />
		<tag k="layer" v="1" />
		<tag k="name" v="Gjøingi" />
		<tag k="ssr:stedsnr" v="349555" />
	</node>
	<node lat="62.021005558767264" lon="7.591950001497715" id="-20217">
		<tag k="bridge" v="yes" />
		<tag k="layer" v="1" />
		<tag k="name" v="Kjerringelv" />
		<tag k="ssr:stedsnr" v="410509" />
	</node>
	<node lat="61.9476416691103" lon="7.954050003816586" id="-20218">
		<tag k="bridge" v="yes" />
		<tag k="layer" v="1" />
		<tag k="name" v="Stamå" />
		<tag k="ssr:stedsnr" v="410527" />
	</node>
	<node lat="62.00773888990933" lon="7.866966669333116" id="-20219">
		<tag k="bridge" v="yes" />
		<tag k="layer" v="1" />
		<tag k="name" v="Tora" />
		<tag k="ssr:stedsnr" v="410529" />
	</node>
	<node lat="61.9412555578554" lon="8.021469451956143" id="-20311">
		<tag k="bridge" v="yes" />
		<tag k="layer" v="1" />
		<tag k="name" v="Geitå" />
		<tag k="ssr:stedsnr" v="531542" />
	</node>
	<node lat="62.01466944101271" lon="7.66728610338064" id="-20367">
		<tag k="bridge" v="yes" />
		<tag k="layer" v="1" />
		<tag k="name" v="Grotå" />
		<tag k="ssr:stedsnr" v="591474" />
	</node>
	<node lat="61.87546944121068" lon="8.387094447805026" id="-20368">
		<tag k="bridge" v="yes" />
		<tag k="layer" v="1" />
		<tag k="name" v="Ånda" />
		<tag k="ssr:stedsnr" v="591483" />
	</node>
	<node lat="62.021955554109624" lon="7.459155559126541" id="-20420">
		<tag k="bridge" v="yes" />
		<tag k="layer" v="1" />
		<tag k="name" v="Søre Kupgrova" />
		<tag k="ssr:stedsnr" v="652482" />
	</node>
	<node lat="61.89311110814568" lon="8.350919441984741" id="-20449">
		<tag k="landuse" v="industrial" />
		<tag k="name" v="Aura kraftverk" />
		<tag k="power" v="plant" />
		<tag k="ssr:stedsnr" v="718699" />
	</node>
	<node lat="61.880136108469635" lon="8.248694453808193" id="-20494">
		<tag k="bridge" v="yes" />
		<tag k="layer" v="1" />
		<tag k="name" v="Søre Juvå" />
		<tag k="ssr:stedsnr" v="774543" />
	</node>
	<node lat="61.991297221660716" lon="7.883730547943158" id="-20541">
		<tag k="bridge" v="yes" />
		<tag k="layer" v="1" />
		<tag k="name" v="Kvernå" />
		<tag k="ssr:stedsnr" v="835529" />
	</node>
	<node lat="61.87470277965729" lon="8.308016667424985" id="-20591">
		<tag k="bridge" v="yes" />
		<tag k="layer" v="1" />
		<tag k="name" v="Skjøla" />
		<tag k="ssr:stedsnr" v="956560" />
	</node>
</osm>
