<?xml version="1.0" encoding="UTF-8"?>
<osm version="0.6" generator="osmapis">
	<node id="31264101" lat="63.1118483" lon="7.7323889" version="17" timestamp="2022-08-05T15:12:22Z" changeset="124528439" uid="3497659" user="NKA">
		<tag k="alt_name" v="Kristiansund N" />
		<tag k="name" v="Kristiansund" />
		<tag k="name:ru" v="Кристиансунн" />
		<tag k="place" v="town" />
		<tag k="population" v="18160" />
		<tag k="population:date" v="2021-01-01" />
		<tag k="ref:ssb_tettsted" v="6011" />
		<tag k="source:population" v="SSB - befolkning i tettstedet" />
		<tag k="ssr:stedsnr" v="923708" />
		<tag k="wikidata" v="Q3362082" />
		<tag k="wikipedia" v="en:Kristiansund (town)" />
	</node>
	<node id="256838313" lat="63.0371849" lon="7.7828616" version="7" timestamp="2022-08-05T15:12:22Z" changeset="124528439" uid="3497659" user="NKA">
		<tag k="name" v="Storbakken" />
		<tag k="old_name" v="Storbakken byggefelt" />
		<tag k="place" v="village" />
		<tag k="population" v="645" />
		<tag k="population:date" v="2021-01-01" />
		<tag k="ref:ssb_tettsted" v="6261" />
		<tag k="source:population" v="SSB - befolkning i tettstedet" />
		<tag k="ssr:stedsnr" v="484602" />
	</node>
	<node id="886058317" lat="63.0831944" lon="7.8852916" version="6" timestamp="2022-08-05T15:12:22Z" changeset="124528439" uid="3497659" user="NKA">
		<tag k="name" v="Ørnvik" />
		<tag k="place" v="quarter" />
		<tag k="population" v="719" />
		<tag k="population:date" v="2021-01-01" />
		<tag k="ref:ssb_tettsted" v="6264" />
		<tag k="source:population" v="SSB - befolkning i tettstedet" />
		<tag k="ssr:stedsnr" v="207873" />
	</node>
	<node id="4912689042" lat="63.0189246" lon="7.7614868" version="2" timestamp="2022-08-05T15:12:22Z" changeset="124528439" uid="3497659" user="NKA">
		<tag k="name" v="Kvitneset" />
		<tag k="place" v="hamlet" />
		<tag k="ssr:stedsnr" v="292367" />
	</node>
	<node id="4912689043" lat="63.0502286" lon="7.7102566" version="2" timestamp="2022-08-05T15:12:22Z" changeset="124528439" uid="3497659" user="NKA">
		<tag k="name" v="Kystvågen" />
		<tag k="place" v="hamlet" />
		<tag k="ssr:stedsnr" v="922550" />
	</node>
	<node id="5197967306" lat="63.1219922" lon="7.7889092" version="3" timestamp="2022-08-05T15:12:22Z" changeset="124528439" uid="3497659" user="NKA">
		<tag k="name" v="Dale" />
		<tag k="place" v="suburb" />
		<tag k="ssr:stedsnr" v="627596" />
	</node>
	<node id="6216710678" lat="63.024971" lon="7.8017412" version="2" timestamp="2022-08-05T15:12:22Z" changeset="124528439" uid="3497659" user="NKA">
		<tag k="name" v="Frei" />
		<tag k="place" v="hamlet" />
		<tag k="ssr:stedsnr" v="980568" />
	</node>
	<node id="6915415323" lat="63.1193492" lon="7.7101467" version="2" timestamp="2022-08-05T15:12:22Z" changeset="124528439" uid="3497659" user="NKA">
		<tag k="name" v="Myra" />
		<tag k="place" v="quarter" />
		<tag k="ssr:stedsnr" v="437698" />
	</node>
	<node id="6915415324" lat="63.1229052" lon="7.7128371" version="2" timestamp="2022-08-05T15:12:22Z" changeset="124528439" uid="3497659" user="NKA">
		<tag k="name" v="Brunsvika" />
		<tag k="place" v="quarter" />
		<tag k="ssr:stedsnr" v="862703" />
	</node>
	<node id="6916218378" lat="63.1249805" lon="7.7312152" version="3" timestamp="2022-08-05T15:12:22Z" changeset="124528439" uid="3497659" user="NKA">
		<tag k="name" v="Dalen" />
		<tag k="place" v="quarter" />
		<tag k="ssr:stedsnr" v="541926" />
	</node>
	<node id="6943441919" lat="63.1278736" lon="7.8117914" version="2" timestamp="2022-08-05T15:12:22Z" changeset="124528439" uid="3497659" user="NKA">
		<tag k="name" v="Sommerro" />
		<tag k="place" v="quarter" />
		<tag k="ssr:stedsnr" v="437289" />
	</node>
	<node id="6943441921" lat="63.1098919" lon="7.7536028" version="2" timestamp="2022-08-05T15:12:22Z" changeset="124528439" uid="3497659" user="NKA">
		<tag k="name" v="Nordlandet" />
		<tag k="place" v="suburb" />
		<tag k="ssr:stedsnr" v="286304" />
	</node>
	<node id="6943441923" lat="63.1165363" lon="7.7173471" version="3" timestamp="2022-08-05T15:12:22Z" changeset="124528439" uid="3497659" user="NKA">
		<tag k="name" v="Kirklandet" />
		<tag k="place" v="suburb" />
		<tag k="ssr:stedsnr" v="194668" />
	</node>
	<node id="6943441924" lat="63.1050864" lon="7.7328083" version="2" timestamp="2022-08-05T15:12:22Z" changeset="124528439" uid="3497659" user="NKA">
		<tag k="name" v="Innlandet" />
		<tag k="place" v="suburb" />
		<tag k="ssr:stedsnr" v="41496" />
	</node>
	<node id="7088448568" lat="63.1116316" lon="7.7748264" version="2" timestamp="2022-08-05T15:12:22Z" changeset="124528439" uid="3497659" user="NKA">
		<tag k="alt_name" v="Røsseren" />
		<tag k="name" v="Røssern" />
		<tag k="place" v="quarter" />
		<tag k="ssr:stedsnr" v="20248" />
	</node>
	<node id="7632371581" lat="63.0923055" lon="7.8937278" version="2" timestamp="2022-08-05T15:12:22Z" changeset="124528439" uid="3497659" user="NKA">
		<tag k="name" v="Gjengstø" />
		<tag k="place" v="farm" />
		<tag k="ssr:stedsnr" v="105382" />
	</node>
	<node id="7632371582" lat="63.07925" lon="7.717114" version="2" timestamp="2022-08-05T15:12:22Z" changeset="124528439" uid="3497659" user="NKA">
		<tag k="name" v="Valen" />
		<tag k="place" v="farm" />
		<tag k="ssr:stedsnr" v="618696" />
	</node>
	<node id="7632371583" lat="63.0760818" lon="7.7178726" version="2" timestamp="2022-08-05T15:12:22Z" changeset="124528439" uid="3497659" user="NKA">
		<tag k="name" v="Vadsteinsvika" />
		<tag k="place" v="hamlet" />
		<tag k="ssr:stedsnr" v="727614" />
	</node>
	<node id="9934003138" lat="63.1015084" lon="7.8374529" version="1" timestamp="2022-08-05T15:12:22Z" changeset="124528439" uid="3497659" user="NKA">
		<tag k="name" v="Bytsteinsura" />
		<tag k="place" v="neighbourhood" />
		<tag k="ssr:stedsnr" v="362609" />
	</node>
	<node id="9934003139" lat="63.0681304" lon="7.8826402" version="1" timestamp="2022-08-05T15:12:22Z" changeset="124528439" uid="3497659" user="NKA">
		<tag k="name" v="Kvalvåg" />
		<tag k="place" v="village" />
		<tag k="ssr:stedsnr" v="692864" />
	</node>
	<node id="9934003140" lat="63.0360549" lon="7.7011563" version="1" timestamp="2022-08-05T15:12:22Z" changeset="124528439" uid="3497659" user="NKA">
		<tag k="name" v="Sildvågnes" />
		<tag k="place" v="farm" />
		<tag k="ssr:stedsnr" v="1072061" />
	</node>
	<node id="9934003141" lat="63.1223139" lon="7.7588973" version="1" timestamp="2022-08-05T15:12:22Z" changeset="124528439" uid="3497659" user="NKA">
		<tag k="name" v="Bentneset" />
		<tag k="place" v="quarter" />
		<tag k="ssr:stedsnr" v="723843" />
	</node>
	<node id="9934003142" lat="63.0272611" lon="7.7957472" version="1" timestamp="2022-08-05T15:12:22Z" changeset="124528439" uid="3497659" user="NKA">
		<tag k="name" v="Ekservollen" />
		<tag k="place" v="farm" />
		<tag k="ssr:stedsnr" v="893078" />
	</node>
	<node id="9934003143" lat="63.0570472" lon="7.8718668" version="1" timestamp="2022-08-05T15:12:22Z" changeset="124528439" uid="3497659" user="NKA">
		<tag k="name" v="Lia" />
		<tag k="place" v="farm" />
		<tag k="ssr:stedsnr" v="740155" />
	</node>
	<node id="9934003144" lat="63.0956805" lon="7.8026111" version="1" timestamp="2022-08-05T15:12:22Z" changeset="124528439" uid="3497659" user="NKA">
		<tag k="name" v="Nygard" />
		<tag k="place" v="farm" />
		<tag k="ssr:stedsnr" v="286189" />
	</node>
	<node id="9934003145" lat="63.0465819" lon="7.8607796" version="1" timestamp="2022-08-05T15:12:22Z" changeset="124528439" uid="3497659" user="NKA">
		<tag k="alt_name" v="Vorsvik" />
		<tag k="name" v="Vorpvik" />
		<tag k="place" v="farm" />
		<tag k="ssr:stedsnr" v="710259" />
	</node>
	<node id="9934003146" lat="63.0350083" lon="7.7815306" version="1" timestamp="2022-08-05T15:12:22Z" changeset="124528439" uid="3497659" user="NKA">
		<tag k="name" v="Halslihaugen" />
		<tag k="place" v="neighbourhood" />
		<tag k="ssr:stedsnr" v="848626" />
	</node>
	<node id="9934003147" lat="63.030841" lon="7.7520308" version="1" timestamp="2022-08-05T15:12:22Z" changeset="124528439" uid="3497659" user="NKA">
		<tag k="name" v="Dalen og Ura" />
		<tag k="place" v="farm" />
		<tag k="ssr:stedsnr" v="862158" />
	</node>
	<node id="9934003148" lat="63.0310111" lon="7.7482361" version="1" timestamp="2022-08-05T15:12:22Z" changeset="124528439" uid="3497659" user="NKA">
		<tag k="name" v="Skogheim" />
		<tag k="place" v="farm" />
		<tag k="ssr:stedsnr" v="650857" />
	</node>
	<node id="9934003149" lat="63.1035084" lon="7.8431872" version="1" timestamp="2022-08-05T15:12:22Z" changeset="124528439" uid="3497659" user="NKA">
		<tag k="name" v="Vorpnesbukt" />
		<tag k="place" v="farm" />
		<tag k="ssr:stedsnr" v="226169" />
	</node>
	<node id="9934003150" lat="63.034608" lon="7.8243185" version="1" timestamp="2022-08-05T15:12:22Z" changeset="124528439" uid="3497659" user="NKA">
		<tag k="name" v="Myllåstranda" />
		<tag k="place" v="farm" />
		<tag k="ssr:stedsnr" v="589115" />
	</node>
	<node id="9934003151" lat="63.0502805" lon="7.7065568" version="1" timestamp="2022-08-05T15:12:22Z" changeset="124528439" uid="3497659" user="NKA">
		<tag k="name" v="Nyland" />
		<tag k="place" v="farm" />
		<tag k="ssr:stedsnr" v="838414" />
	</node>
	<node id="9934003152" lat="63.0965618" lon="7.8842568" version="1" timestamp="2022-08-05T15:12:22Z" changeset="124528439" uid="3497659" user="NKA">
		<tag k="name" v="Kvalvik" />
		<tag k="place" v="hamlet" />
		<tag k="ssr:stedsnr" v="194329" />
	</node>
	<node id="9934003153" lat="63.0960446" lon="7.816946" version="1" timestamp="2022-08-05T15:12:22Z" changeset="124528439" uid="3497659" user="NKA">
		<tag k="name" v="Rensvik" />
		<tag k="place" v="village" />
		<tag k="population" v="2452" />
		<tag k="population:date" v="2021-01-01" />
		<tag k="ref:ssb_tettsted" v="6266" />
		<tag k="source:population" v="SSB - befolkning i tettstedet" />
		<tag k="ssr:stedsnr" v="219855" />
		<tag k="wikidata" v="Q1797586" />
	</node>
	<node id="9934003154" lat="63.0879839" lon="7.7529506" version="1" timestamp="2022-08-05T15:12:22Z" changeset="124528439" uid="3497659" user="NKA">
		<tag k="name" v="Naustmyra" />
		<tag k="place" v="farm" />
		<tag k="ssr:stedsnr" v="480290" />
	</node>
	<node id="9934003155" lat="63.0341799" lon="7.8226017" version="1" timestamp="2022-08-05T15:12:22Z" changeset="124528439" uid="3497659" user="NKA">
		<tag k="name" v="Sørstranda" />
		<tag k="place" v="farm" />
		<tag k="ssr:stedsnr" v="833093" />
	</node>
	<node id="9934003156" lat="63.0369055" lon="7.7196306" version="1" timestamp="2022-08-05T15:12:22Z" changeset="124528439" uid="3497659" user="NKA">
		<tag k="name" v="Øver Rå" />
		<tag k="place" v="farm" />
		<tag k="ssr:stedsnr" v="832873" />
	</node>
	<node id="9934003157" lat="63.0636278" lon="7.8843168" version="1" timestamp="2022-08-05T15:12:22Z" changeset="124528439" uid="3497659" user="NKA">
		<tag k="name" v="Vikageilen" />
		<tag k="place" v="farm" />
		<tag k="ssr:stedsnr" v="437197" />
	</node>
	<node id="9934003158" lat="63.1235113" lon="7.7316609" version="1" timestamp="2022-08-05T15:12:22Z" changeset="124528439" uid="3497659" user="NKA">
		<tag k="name" v="Gomalandet" />
		<tag k="place" v="suburb" />
		<tag k="ssr:stedsnr" v="73278" />
	</node>
	<node id="9934003159" lat="63.0387568" lon="7.8341903" version="1" timestamp="2022-08-05T15:12:22Z" changeset="124528439" uid="3497659" user="NKA">
		<tag k="name" v="Or" />
		<tag k="place" v="hamlet" />
		<tag k="ssr:stedsnr" v="537204" />
	</node>
	<node id="9934003160" lat="63.035075" lon="7.7191389" version="1" timestamp="2022-08-05T15:12:22Z" changeset="124528439" uid="3497659" user="NKA">
		<tag k="alt_name" v="Rå" />
		<tag k="name" v="Ner Rå" />
		<tag k="place" v="farm" />
		<tag k="ssr:stedsnr" v="286895" />
	</node>
	<node id="9934003161" lat="63.0604915" lon="7.8798075" version="1" timestamp="2022-08-05T15:12:22Z" changeset="124528439" uid="3497659" user="NKA">
		<tag k="name" v="Vika" />
		<tag k="place" v="hamlet" />
		<tag k="ssr:stedsnr" v="315151" />
	</node>
	<node id="9934003162" lat="63.0338667" lon="7.8159834" version="1" timestamp="2022-08-05T15:12:22Z" changeset="124528439" uid="3497659" user="NKA">
		<tag k="name" v="Slettvoll" />
		<tag k="place" v="farm" />
		<tag k="ssr:stedsnr" v="164105" />
	</node>
	<node id="9934003163" lat="63.0297624" lon="7.815346" version="1" timestamp="2022-08-05T15:12:22Z" changeset="124528439" uid="3497659" user="NKA">
		<tag k="name" v="Veltan" />
		<tag k="place" v="farm" />
		<tag k="ssr:stedsnr" v="286112" />
	</node>
	<node id="9934003164" lat="63.0567528" lon="7.8685361" version="1" timestamp="2022-08-05T15:12:22Z" changeset="124528439" uid="3497659" user="NKA">
		<tag k="name" v="Dragset" />
		<tag k="place" v="farm" />
		<tag k="ssr:stedsnr" v="801157" />
	</node>
	<node id="9934003165" lat="63.1288278" lon="7.827789" version="1" timestamp="2022-08-05T15:12:22Z" changeset="124528439" uid="3497659" user="NKA">
		<tag k="name" v="Myran" />
		<tag k="place" v="locality" />
		<tag k="ssr:stedsnr" v="468726" />
	</node>
	<node id="9934003166" lat="63.1030916" lon="7.8478307" version="1" timestamp="2022-08-05T15:12:22Z" changeset="124528439" uid="3497659" user="NKA">
		<tag k="name" v="Jåvika" />
		<tag k="place" v="farm" />
		<tag k="ssr:stedsnr" v="679324" />
	</node>
	<node id="9934003167" lat="63.0885974" lon="7.8944796" version="1" timestamp="2022-08-05T15:12:22Z" changeset="124528439" uid="3497659" user="NKA">
		<tag k="name" v="Ånes" />
		<tag k="place" v="farm" />
		<tag k="ssr:stedsnr" v="688489" />
	</node>
	<node id="9934003168" lat="63.0604061" lon="7.7210299" version="1" timestamp="2022-08-05T15:12:22Z" changeset="124528439" uid="3497659" user="NKA">
		<tag k="name" v="Oldenborg" />
		<tag k="place" v="farm" />
		<tag k="ssr:stedsnr" v="231426" />
	</node>
	<node id="9934003169" lat="63.0976139" lon="7.8093972" version="1" timestamp="2022-08-05T15:12:22Z" changeset="124528439" uid="3497659" user="NKA">
		<tag k="name" v="Jørihaugen" />
		<tag k="place" v="quarter" />
		<tag k="ssr:stedsnr" v="302627" />
	</node>
	<node id="9934003170" lat="63.0894258" lon="7.8033106" version="1" timestamp="2022-08-05T15:12:22Z" changeset="124528439" uid="3497659" user="NKA">
		<tag k="name" v="Skjærahøgda" />
		<tag k="place" v="quarter" />
		<tag k="ssr:stedsnr" v="241615" />
	</node>
	<node id="9934003171" lat="63.0270472" lon="7.7879083" version="1" timestamp="2022-08-05T15:12:22Z" changeset="124528439" uid="3497659" user="NKA">
		<tag k="name" v="Stranda" />
		<tag k="place" v="farm" />
		<tag k="ssr:stedsnr" v="619270" />
	</node>
	<node id="9934003172" lat="63.0869141" lon="7.7587907" version="1" timestamp="2022-08-05T15:12:22Z" changeset="124528439" uid="3497659" user="NKA">
		<tag k="name" v="Ner Bolga" />
		<tag k="place" v="farm" />
		<tag k="ssr:stedsnr" v="164381" />
	</node>
	<node id="9934003173" lat="63.0872" lon="7.7699806" version="1" timestamp="2022-08-05T15:12:22Z" changeset="124528439" uid="3497659" user="NKA">
		<tag k="name" v="Hagen" />
		<tag k="place" v="farm" />
		<tag k="ssr:stedsnr" v="164377" />
	</node>
	<node id="9934003174" lat="63.0315837" lon="7.7730936" version="1" timestamp="2022-08-05T15:12:22Z" changeset="124528439" uid="3497659" user="NKA">
		<tag k="name" v="Øyan" />
		<tag k="place" v="farm" />
		<tag k="ssr:stedsnr" v="437254" />
	</node>
	<node id="9934003175" lat="63.0865555" lon="7.8761501" version="1" timestamp="2022-08-05T15:12:22Z" changeset="124528439" uid="3497659" user="NKA">
		<tag k="name" v="Solsletta Byggefelt" />
		<tag k="place" v="neighbourhood" />
		<tag k="ssr:stedsnr" v="104163" />
	</node>
	<node id="9934003176" lat="63.0987139" lon="7.8738194" version="1" timestamp="2022-08-05T15:12:22Z" changeset="124528439" uid="3497659" user="NKA">
		<tag k="name" v="Dalen" />
		<tag k="place" v="farm" />
		<tag k="ssr:stedsnr" v="133333" />
	</node>
	<node id="9934003177" lat="63.077423" lon="7.8784084" version="1" timestamp="2022-08-05T15:12:22Z" changeset="124528439" uid="3497659" user="NKA">
		<tag k="name" v="Bjerkelund" />
		<tag k="place" v="farm" />
		<tag k="ssr:stedsnr" v="105398" />
	</node>
	<node id="9934003178" lat="63.0317889" lon="7.8202472" version="1" timestamp="2022-08-05T15:12:22Z" changeset="124528439" uid="3497659" user="NKA">
		<tag k="name" v="Elva" />
		<tag k="place" v="farm" />
		<tag k="ssr:stedsnr" v="134286" />
	</node>
	<node id="9934003179" lat="63.06315" lon="7.8725639" version="1" timestamp="2022-08-05T15:12:22Z" changeset="124528439" uid="3497659" user="NKA">
		<tag k="name" v="Harpskaret" />
		<tag k="place" v="neighbourhood" />
		<tag k="ssr:stedsnr" v="58447" />
	</node>
	<node id="9934003180" lat="63.0474833" lon="7.8513139" version="1" timestamp="2022-08-05T15:12:22Z" changeset="124528439" uid="3497659" user="NKA">
		<tag k="alt_name" v="Myra" />
		<tag k="name" v="Myran" />
		<tag k="place" v="farm" />
		<tag k="ssr:stedsnr" v="133142" />
	</node>
	<node id="9934003181" lat="63.0221055" lon="7.7750918" version="1" timestamp="2022-08-05T15:12:22Z" changeset="124528439" uid="3497659" user="NKA">
		<tag k="name" v="Osen" />
		<tag k="place" v="farm" />
		<tag k="ssr:stedsnr" v="133201" />
	</node>
	<node id="9934003182" lat="63.069544" lon="7.8571725" version="1" timestamp="2022-08-05T15:12:22Z" changeset="124528439" uid="3497659" user="NKA">
		<tag k="name" v="Skogvoll" />
		<tag k="place" v="farm" />
		<tag k="ssr:stedsnr" v="73342" />
	</node>
	<node id="9934003183" lat="63.0368916" lon="7.8227085" version="1" timestamp="2022-08-05T15:12:22Z" changeset="124528439" uid="3497659" user="NKA">
		<tag k="name" v="Hjellen" />
		<tag k="place" v="farm" />
		<tag k="ssr:stedsnr" v="73133" />
	</node>
	<node id="9934003184" lat="63.0819642" lon="7.7794309" version="1" timestamp="2022-08-05T15:12:22Z" changeset="124528439" uid="3497659" user="NKA">
		<tag k="name" v="Bolgmyra" />
		<tag k="place" v="farm" />
		<tag k="ssr:stedsnr" v="650023" />
	</node>
	<node id="9934003185" lat="63.0693834" lon="7.7747305" version="1" timestamp="2022-08-05T15:12:22Z" changeset="124528439" uid="3497659" user="NKA">
		<tag k="historic" v="shieling" />
		<tag k="name" v="Stølen" />
		<tag k="place" v="isolated_dwelling" />
		<tag k="ssr:stedsnr" v="105019" />
	</node>
	<node id="9934003186" lat="63.0734528" lon="7.7947473" version="1" timestamp="2022-08-05T15:12:22Z" changeset="124528439" uid="3497659" user="NKA">
		<tag k="name" v="Sødalen beitefelt" />
		<tag k="place" v="locality" />
		<tag k="ssr:stedsnr" v="105017" />
	</node>
	<node id="9934003187" lat="63.0869167" lon="7.7587807" version="1" timestamp="2022-08-05T15:12:22Z" changeset="124528439" uid="3497659" user="NKA">
		<tag k="name" v="Nerbolga" />
		<tag k="place" v="farm" />
		<tag k="ssr:stedsnr" v="558389" />
	</node>
	<node id="9934003188" lat="63.0372027" lon="7.8245528" version="1" timestamp="2022-08-05T15:12:22Z" changeset="124528439" uid="3497659" user="NKA">
		<tag k="name" v="Bjerkeli" />
		<tag k="place" v="farm" />
		<tag k="ssr:stedsnr" v="954096" />
	</node>
	<node id="9934003189" lat="63.0757083" lon="7.8818139" version="1" timestamp="2022-08-05T15:12:22Z" changeset="124528439" uid="3497659" user="NKA">
		<tag k="name" v="Bogamyra" />
		<tag k="place" v="farm" />
		<tag k="ssr:stedsnr" v="73340" />
	</node>
	<node id="9934003190" lat="63.0532362" lon="7.70138" version="1" timestamp="2022-08-05T15:12:22Z" changeset="124528439" uid="3497659" user="NKA">
		<tag k="name" v="Blomneset" />
		<tag k="place" v="farm" />
		<tag k="ssr:stedsnr" v="771863" />
	</node>
	<node id="9934003191" lat="63.0293735" lon="7.7497131" version="1" timestamp="2022-08-05T15:12:22Z" changeset="124528439" uid="3497659" user="NKA">
		<tag k="name" v="Solhøi" />
		<tag k="place" v="farm" />
		<tag k="ssr:stedsnr" v="1076385" />
	</node>
	<node id="9934003192" lat="63.078375" lon="7.7121084" version="1" timestamp="2022-08-05T15:12:22Z" changeset="124528439" uid="3497659" user="NKA">
		<tag k="name" v="Lundenes" />
		<tag k="place" v="farm" />
		<tag k="ssr:stedsnr" v="832842" />
	</node>
	<node id="9934003193" lat="63.0333917" lon="7.820814" version="1" timestamp="2022-08-05T15:12:22Z" changeset="124528439" uid="3497659" user="NKA">
		<tag k="name" v="Elvakleiva" />
		<tag k="place" v="farm" />
		<tag k="ssr:stedsnr" v="893106" />
	</node>
	<node id="9934003194" lat="63.0308473" lon="7.7640639" version="1" timestamp="2022-08-05T15:12:22Z" changeset="124528439" uid="3497659" user="NKA">
		<tag k="name" v="Myra" />
		<tag k="place" v="farm" />
		<tag k="ssr:stedsnr" v="893090" />
	</node>
	<node id="9934003195" lat="63.0506333" lon="7.7262445" version="1" timestamp="2022-08-05T15:12:22Z" changeset="124528439" uid="3497659" user="NKA">
		<tag k="name" v="Kleivmyra" />
		<tag k="place" v="farm" />
		<tag k="ssr:stedsnr" v="194165" />
	</node>
	<node id="9934003196" lat="63.0243055" lon="7.8065" version="1" timestamp="2022-08-05T15:12:22Z" changeset="124528439" uid="3497659" user="NKA">
		<tag k="name" v="Nedre Frei" />
		<tag k="place" v="neighbourhood" />
		<tag k="ssr:stedsnr" v="711083" />
	</node>
	<node id="9934003197" lat="63.0559144" lon="7.727485" version="1" timestamp="2022-08-05T15:12:22Z" changeset="124528439" uid="3497659" user="NKA">
		<tag k="name" v="Yttervika" />
		<tag k="place" v="farm" />
		<tag k="ssr:stedsnr" v="862196" />
	</node>
	<node id="9934003198" lat="63.04066" lon="7.7225743" version="1" timestamp="2022-08-05T15:12:22Z" changeset="124528439" uid="3497659" user="NKA">
		<tag k="name" v="Brekka" />
		<tag k="place" v="farm" />
		<tag k="ssr:stedsnr" v="649859" />
	</node>
	<node id="9934003199" lat="63.0230416" lon="7.7640724" version="1" timestamp="2022-08-05T15:12:22Z" changeset="124528439" uid="3497659" user="NKA">
		<tag k="name" v="Ødegård" />
		<tag k="place" v="farm" />
		<tag k="ssr:stedsnr" v="408097" />
	</node>
	<node id="9934003200" lat="63.0704944" lon="7.8720389" version="1" timestamp="2022-08-05T15:12:22Z" changeset="124528439" uid="3497659" user="NKA">
		<tag k="name" v="Sørbø" />
		<tag k="place" v="farm" />
		<tag k="ssr:stedsnr" v="315308" />
	</node>
	<node id="9934003201" lat="63.0388862" lon="7.8318995" version="1" timestamp="2022-08-05T15:12:22Z" changeset="124528439" uid="3497659" user="NKA">
		<tag k="alt_name" v="Or, søre;Or" />
		<tag k="name" v="Søre Or" />
		<tag k="place" v="farm" />
		<tag k="ssr:stedsnr" v="862155" />
	</node>
	<node id="9934003202" lat="63.0385087" lon="7.7332455" version="1" timestamp="2022-08-05T15:12:22Z" changeset="124528439" uid="3497659" user="NKA">
		<tag k="alt_name" v="Enga" />
		<tag k="name" v="Engen" />
		<tag k="place" v="farm" />
		<tag k="ssr:stedsnr" v="832882" />
	</node>
	<node id="9934003203" lat="63.0891972" lon="7.7709222" version="1" timestamp="2022-08-05T15:12:22Z" changeset="124528439" uid="3497659" user="NKA">
		<tag k="name" v="Rognvika" />
		<tag k="place" v="farm" />
		<tag k="ssr:stedsnr" v="316361" />
	</node>
	<node id="9934003204" lat="63.0291527" lon="7.8174972" version="1" timestamp="2022-08-05T15:12:22Z" changeset="124528439" uid="3497659" user="NKA">
		<tag k="name" v="Myra" />
		<tag k="place" v="farm" />
		<tag k="ssr:stedsnr" v="710097" />
	</node>
	<node id="9934003205" lat="63.0492306" lon="7.7245861" version="1" timestamp="2022-08-05T15:12:22Z" changeset="124528439" uid="3497659" user="NKA">
		<tag k="name" v="Blomvika" />
		<tag k="place" v="farm" />
		<tag k="ssr:stedsnr" v="832851" />
	</node>
	<node id="9934003206" lat="63.0959778" lon="7.8071862" version="1" timestamp="2022-08-05T15:12:22Z" changeset="124528439" uid="3497659" user="NKA">
		<tag k="name" v="Nygårdsmyra" />
		<tag k="place" v="quarter" />
		<tag k="ssr:stedsnr" v="362625" />
	</node>
	<node id="9934003207" lat="63.0914527" lon="7.7885972" version="1" timestamp="2022-08-05T15:12:22Z" changeset="124528439" uid="3497659" user="NKA">
		<tag k="name" v="Bolgvåg" />
		<tag k="place" v="farm" />
		<tag k="ssr:stedsnr" v="286173" />
	</node>
	<node id="9934003208" lat="63.0207722" lon="7.7807972" version="1" timestamp="2022-08-05T15:12:22Z" changeset="124528439" uid="3497659" user="NKA">
		<tag k="name" v="Tangen" />
		<tag k="place" v="farm" />
		<tag k="ssr:stedsnr" v="618186" />
	</node>
	<node id="9934003209" lat="63.0528695" lon="7.727825" version="1" timestamp="2022-08-05T15:12:22Z" changeset="124528439" uid="3497659" user="NKA">
		<tag k="name" v="Saltkjelvik" />
		<tag k="place" v="farm" />
		<tag k="ssr:stedsnr" v="346857" />
	</node>
	<node id="9934003210" lat="63.0286361" lon="7.7507778" version="1" timestamp="2022-08-05T15:12:22Z" changeset="124528439" uid="3497659" user="NKA">
		<tag k="name" v="Fagernes" />
		<tag k="place" v="farm" />
		<tag k="ssr:stedsnr" v="650863" />
	</node>
	<node id="9934003211" lat="63.0810179" lon="7.7717533" version="1" timestamp="2022-08-05T15:12:22Z" changeset="124528439" uid="3497659" user="NKA">
		<tag k="name" v="Øverbolga" />
		<tag k="place" v="farm" />
		<tag k="ssr:stedsnr" v="194302" />
	</node>
	<node id="9934003212" lat="63.0828055" lon="7.7872918" version="1" timestamp="2022-08-05T15:12:22Z" changeset="124528439" uid="3497659" user="NKA">
		<tag k="name" v="Fjordgløtt" />
		<tag k="place" v="farm" />
		<tag k="ssr:stedsnr" v="287023" />
	</node>
	<node id="9934003213" lat="63.0823736" lon="7.7794135" version="1" timestamp="2022-08-05T15:12:22Z" changeset="124528439" uid="3497659" user="NKA">
		<tag k="name" v="Bolghaugen" />
		<tag k="place" v="farm" />
		<tag k="ssr:stedsnr" v="44023" />
	</node>
	<node id="9934003214" lat="63.0409139" lon="7.8377027" version="1" timestamp="2022-08-05T15:12:22Z" changeset="124528439" uid="3497659" user="NKA">
		<tag k="name" v="Orhamran" />
		<tag k="place" v="farm" />
		<tag k="ssr:stedsnr" v="407266" />
	</node>
	<node id="9934003215" lat="63.0331596" lon="7.778087" version="1" timestamp="2022-08-05T15:12:22Z" changeset="124528439" uid="3497659" user="NKA">
		<tag k="name" v="Kveldsro" />
		<tag k="place" v="farm" />
		<tag k="ssr:stedsnr" v="558151" />
	</node>
	<node id="9934003216" lat="63.0276853" lon="7.8180507" version="1" timestamp="2022-08-05T15:12:22Z" changeset="124528439" uid="3497659" user="NKA">
		<tag k="name" v="Solvik" />
		<tag k="place" v="farm" />
		<tag k="ssr:stedsnr" v="104111" />
	</node>
	<node id="9934017017" lat="63.0360389" lon="7.8300501" version="1" timestamp="2022-08-05T15:12:22Z" changeset="124528439" uid="3497659" user="NKA">
		<tag k="name" v="Solhaug" />
		<tag k="place" v="farm" />
		<tag k="ssr:stedsnr" v="104103" />
	</node>
	<node id="9934017018" lat="63.0704305" lon="7.8855917" version="1" timestamp="2022-08-05T15:12:22Z" changeset="124528439" uid="3497659" user="NKA">
		<tag k="name" v="Hamna" />
		<tag k="place" v="farm" />
		<tag k="ssr:stedsnr" v="347366" />
	</node>
	<node id="9934017019" lat="63.0352335" lon="7.8263171" version="1" timestamp="2022-08-05T15:12:22Z" changeset="124528439" uid="3497659" user="NKA">
		<tag k="name" v="Nørstranda" />
		<tag k="place" v="farm" />
		<tag k="ssr:stedsnr" v="347098" />
	</node>
	<node id="9934017020" lat="63.0209583" lon="7.7576584" version="1" timestamp="2022-08-05T15:12:22Z" changeset="124528439" uid="3497659" user="NKA">
		<tag k="name" v="Djupvik" />
		<tag k="place" v="farm" />
		<tag k="ssr:stedsnr" v="589094" />
	</node>
	<node id="9934017021" lat="63.0420592" lon="7.7058072" version="1" timestamp="2022-08-05T15:12:22Z" changeset="124528439" uid="3497659" user="NKA">
		<tag k="name" v="Trøa" />
		<tag k="place" v="farm" />
		<tag k="ssr:stedsnr" v="959346" />
	</node>
	<node id="9934017022" lat="63.0490226" lon="7.8591935" version="1" timestamp="2022-08-05T15:12:22Z" changeset="124528439" uid="3497659" user="NKA">
		<tag k="name" v="Bjerkestrand" />
		<tag k="place" v="hamlet" />
		<tag k="ssr:stedsnr" v="376136" />
	</node>
	<node id="9934017023" lat="63.1303078" lon="7.8481825" version="1" timestamp="2022-08-05T15:12:22Z" changeset="124528439" uid="3497659" user="NKA">
		<tag k="name" v="Nordre Kolvika" />
		<tag k="place" v="isolated_dwelling" />
		<tag k="ssr:stedsnr" v="905162" />
	</node>
	<node id="9934017024" lat="63.0448167" lon="7.7181361" version="1" timestamp="2022-08-05T15:12:22Z" changeset="124528439" uid="3497659" user="NKA">
		<tag k="name" v="Buvikhøgda" />
		<tag k="place" v="neighbourhood" />
		<tag k="ssr:stedsnr" v="969629" />
	</node>
	<node id="9934017025" lat="63.0818865" lon="7.8871426" version="1" timestamp="2022-08-05T15:12:22Z" changeset="124528439" uid="3497659" user="NKA">
		<tag k="name" v="Ørnvika" />
		<tag k="place" v="neighbourhood" />
		<tag k="ssr:stedsnr" v="967403" />
	</node>
	<node id="9934017026" lat="63.0800166" lon="7.7792361" version="1" timestamp="2022-08-05T15:12:22Z" changeset="124528439" uid="3497659" user="NKA">
		<tag k="name" v="Søberget" />
		<tag k="place" v="farm" />
		<tag k="ssr:stedsnr" v="772033" />
	</node>
	<node id="9934017027" lat="63.0677472" lon="7.8799029" version="1" timestamp="2022-08-05T15:12:22Z" changeset="124528439" uid="3497659" user="NKA">
		<tag k="name" v="Gjeilen" />
		<tag k="place" v="farm" />
		<tag k="ssr:stedsnr" v="347371" />
	</node>
	<node id="9934017028" lat="63.0863858" lon="7.8815768" version="1" timestamp="2022-08-05T15:12:22Z" changeset="124528439" uid="3497659" user="NKA">
		<tag k="name" v="Solsletta" />
		<tag k="place" v="village" />
		<tag k="ssr:stedsnr" v="688590" />
	</node>
	<node id="9934017029" lat="63.0893417" lon="7.8830555" version="1" timestamp="2022-08-05T15:12:22Z" changeset="124528439" uid="3497659" user="NKA">
		<tag k="name" v="Bjerkås" />
		<tag k="place" v="farm" />
		<tag k="ssr:stedsnr" v="862334" />
	</node>
	<node id="9934017030" lat="63.1282694" lon="7.7092973" version="1" timestamp="2022-08-05T15:12:22Z" changeset="124528439" uid="3497659" user="NKA">
		<tag k="name" v="Karihola" />
		<tag k="place" v="suburb" />
		<tag k="ssr:stedsnr" v="801697" />
	</node>
	<node id="9934017031" lat="63.0877042" lon="7.7686781" version="1" timestamp="2022-08-05T15:12:22Z" changeset="124528439" uid="3497659" user="NKA">
		<tag k="name" v="Huse" />
		<tag k="place" v="farm" />
		<tag k="ssr:stedsnr" v="680360" />
	</node>
	<node id="9934017032" lat="63.029831" lon="7.7573451" version="1" timestamp="2022-08-05T15:12:22Z" changeset="124528439" uid="3497659" user="NKA">
		<tag k="name" v="Vestre Flatset" />
		<tag k="place" v="farm" />
		<tag k="ssr:stedsnr" v="680257" />
	</node>
	<node id="9934017033" lat="63.0503916" lon="7.8532973" version="1" timestamp="2022-08-05T15:12:22Z" changeset="124528439" uid="3497659" user="NKA">
		<tag k="name" v="Trøa" />
		<tag k="place" v="farm" />
		<tag k="ssr:stedsnr" v="740143" />
	</node>
	<node id="9934017034" lat="63.0770992" lon="7.7228326" version="1" timestamp="2022-08-05T15:12:22Z" changeset="124528439" uid="3497659" user="NKA">
		<tag k="name" v="Øvre Vadsteinsvika" />
		<tag k="place" v="farm" />
		<tag k="ssr:stedsnr" v="679284" />
	</node>
	<node id="9934017035" lat="63.0293833" lon="7.741975" version="1" timestamp="2022-08-05T15:12:22Z" changeset="124528439" uid="3497659" user="NKA">
		<tag k="name" v="Storhaugen" />
		<tag k="place" v="farm" />
		<tag k="ssr:stedsnr" v="558242" />
	</node>
	<node id="9934017036" lat="63.1177333" lon="7.7521916" version="1" timestamp="2022-08-05T15:12:22Z" changeset="124528439" uid="3497659" user="NKA">
		<tag k="name" v="Storenga" />
		<tag k="place" v="locality" />
		<tag k="ssr:stedsnr" v="772548" />
	</node>
	<node id="9934017037" lat="63.0946626" lon="7.7677446" version="1" timestamp="2022-08-05T15:12:22Z" changeset="124528439" uid="3497659" user="NKA">
		<tag k="name" v="Fugløya" />
		<tag k="place" v="locality" />
		<tag k="ssr:stedsnr" v="980574" />
	</node>
	<node id="9934017038" lat="63.1062" lon="7.7848499" version="1" timestamp="2022-08-05T15:12:22Z" changeset="124528439" uid="3497659" user="NKA">
		<tag k="name" v="Breivika" />
		<tag k="place" v="locality" />
		<tag k="ssr:stedsnr" v="376354" />
	</node>
	<node id="9934017039" lat="63.0809703" lon="7.7108105" version="1" timestamp="2022-08-05T15:12:22Z" changeset="124528439" uid="3497659" user="NKA">
		<tag k="name" v="Valholmen" />
		<tag k="place" v="locality" />
		<tag k="ssr:stedsnr" v="980572" />
	</node>
	<node id="9934017040" lat="63.1249028" lon="7.7907137" version="1" timestamp="2022-08-05T15:12:22Z" changeset="124528439" uid="3497659" user="NKA">
		<tag k="name" v="Draga" />
		<tag k="place" v="farm" />
		<tag k="ssr:stedsnr" v="255283" />
	</node>
	<node id="9934017041" lat="63.08478" lon="7.7892453" version="1" timestamp="2022-08-05T15:12:22Z" changeset="124528439" uid="3497659" user="NKA">
		<tag k="name" v="Nergård" />
		<tag k="place" v="farm" />
		<tag k="ssr:stedsnr" v="299371" />
	</node>
	<node id="9934017042" lat="63.0302799" lon="7.7387366" version="1" timestamp="2022-08-05T15:12:22Z" changeset="124528439" uid="3497659" user="NKA">
		<tag k="name" v="Endreset" />
		<tag k="place" v="farm" />
		<tag k="ssr:stedsnr" v="771870" />
	</node>
	<node id="9934017043" lat="63.0812141" lon="7.7752062" version="1" timestamp="2022-08-05T15:12:22Z" changeset="124528439" uid="3497659" user="NKA">
		<tag k="name" v="Bolga" />
		<tag k="place" v="hamlet" />
		<tag k="ssr:stedsnr" v="657799" />
	</node>
	<node id="9934017044" lat="63.0677028" lon="7.716864" version="1" timestamp="2022-08-05T15:12:22Z" changeset="124528439" uid="3497659" user="NKA">
		<tag k="name" v="Bjørnvika" />
		<tag k="place" v="farm" />
		<tag k="ssr:stedsnr" v="922464" />
	</node>
	<node id="9934017045" lat="63.1269389" lon="7.7328223" version="1" timestamp="2022-08-05T15:12:22Z" changeset="124528439" uid="3497659" user="NKA">
		<tag k="name" v="Dalabugen" />
		<tag k="place" v="locality" />
		<tag k="ssr:stedsnr" v="468691" />
	</node>
	<node id="9934017046" lat="63.0786778" lon="7.7173834" version="1" timestamp="2022-08-05T15:12:22Z" changeset="124528439" uid="3497659" user="NKA">
		<tag k="name" v="Lundeval" />
		<tag k="place" v="farm" />
		<tag k="ssr:stedsnr" v="771856" />
	</node>
	<node id="9934017047" lat="63.10245" lon="7.8776778" version="1" timestamp="2022-08-05T15:12:22Z" changeset="124528439" uid="3497659" user="NKA">
		<tag k="name" v="Perkverna" />
		<tag k="place" v="farm" />
		<tag k="ssr:stedsnr" v="618341" />
	</node>
	<node id="9934017048" lat="63.115101" lon="7.8490492" version="1" timestamp="2022-08-05T15:12:22Z" changeset="124528439" uid="3497659" user="NKA">
		<tag k="name" v="Skaret" />
		<tag k="place" v="locality" />
		<tag k="ssr:stedsnr" v="134327" />
	</node>
	<node id="9934017049" lat="63.1077119" lon="7.8034191" version="1" timestamp="2022-08-05T15:12:22Z" changeset="124528439" uid="3497659" user="NKA">
		<tag k="name" v="Øygarden" />
		<tag k="place" v="farm" />
		<tag k="ssr:stedsnr" v="73348" />
	</node>
	<node id="9934017050" lat="63.0989802" lon="7.8537733" version="1" timestamp="2022-08-05T15:12:22Z" changeset="124528439" uid="3497659" user="NKA">
		<tag k="name" v="Sæterenga" />
		<tag k="place" v="neighbourhood" />
		<tag k="ssr:stedsnr" v="59600" />
	</node>
	<node id="9934017051" lat="63.1289123" lon="7.8384095" version="1" timestamp="2022-08-05T15:12:22Z" changeset="124528439" uid="3497659" user="NKA">
		<tag k="name" v="Kolvika" />
		<tag k="place" v="farm" />
		<tag k="ssr:stedsnr" v="12265" />
	</node>
	<node id="9934017052" lat="63.1291217" lon="7.8270695" version="1" timestamp="2022-08-05T15:12:22Z" changeset="124528439" uid="3497659" user="NKA">
		<tag k="name" v="Gløsvågmyran" />
		<tag k="place" v="locality" />
		<tag k="ssr:stedsnr" v="12266" />
	</node>
	<node id="9934017053" lat="63.1008087" lon="7.8726436" version="1" timestamp="2022-08-05T15:12:22Z" changeset="124528439" uid="3497659" user="NKA">
		<tag k="name" v="Nerdalen" />
		<tag k="place" v="farm" />
		<tag k="ssr:stedsnr" v="315332" />
	</node>
	<node id="9934017054" lat="63.0838965" lon="7.7712305" version="1" timestamp="2022-08-05T15:12:22Z" changeset="124528439" uid="3497659" user="NKA">
		<tag k="name" v="Lunden" />
		<tag k="place" v="farm" />
		<tag k="ssr:stedsnr" v="716546" />
	</node>
	<node id="9934017055" lat="63.1070666" lon="7.7947807" version="1" timestamp="2022-08-05T15:12:22Z" changeset="124528439" uid="3497659" user="NKA">
		<tag k="name" v="Orvikan" />
		<tag k="place" v="locality" />
		<tag k="ssr:stedsnr" v="255345" />
	</node>
	<node id="9934017056" lat="63.1264042" lon="7.8315571" version="1" timestamp="2022-08-05T15:12:22Z" changeset="124528439" uid="3497659" user="NKA">
		<tag k="name" v="Gløsvåg" />
		<tag k="place" v="hamlet" />
		<tag k="ssr:stedsnr" v="558278" />
	</node>
	<node id="9934017057" lat="63.0936876" lon="7.8420285" version="1" timestamp="2022-08-05T15:12:22Z" changeset="124528439" uid="3497659" user="NKA">
		<tag k="name" v="Frei Sentrum" />
		<tag k="place" v="neighbourhood" />
		<tag k="ssr:stedsnr" v="909604" />
	</node>
	<node id="9934017058" lat="63.0857194" lon="7.8741833" version="1" timestamp="2022-08-05T15:12:22Z" changeset="124528439" uid="3497659" user="NKA">
		<tag k="loc_name" v="Solsletta" />
		<tag k="name" v="Ånesmyra" />
		<tag k="place" v="neighbourhood" />
		<tag k="ssr:stedsnr" v="848616" />
	</node>
	<node id="9934017059" lat="63.0864472" lon="7.7958916" version="1" timestamp="2022-08-05T15:12:22Z" changeset="124528439" uid="3497659" user="NKA">
		<tag k="name" v="Skjæret" />
		<tag k="place" v="farm" />
		<tag k="ssr:stedsnr" v="680359" />
	</node>
	<node id="9934017060" lat="63.0530422" lon="7.7885763" version="1" timestamp="2022-08-05T15:12:22Z" changeset="124528439" uid="3497659" user="NKA">
		<tag k="name" v="Myrstad" />
		<tag k="place" v="farm" />
		<tag k="ssr:stedsnr" v="953257" />
	</node>
	<node id="9934017061" lat="63.0538333" lon="7.8581861" version="1" timestamp="2022-08-05T15:12:22Z" changeset="124528439" uid="3497659" user="NKA">
		<tag k="name" v="Solli" />
		<tag k="place" v="farm" />
		<tag k="ssr:stedsnr" v="740160" />
	</node>
	<node id="9934017062" lat="63.1053667" lon="7.7878972" version="1" timestamp="2022-08-05T15:12:22Z" changeset="124528439" uid="3497659" user="NKA">
		<tag k="name" v="Breivikfjøra" />
		<tag k="place" v="locality" />
		<tag k="ssr:stedsnr" v="708269" />
	</node>
	<node id="9934017063" lat="63.1023172" lon="7.8574194" version="1" timestamp="2022-08-05T15:12:22Z" changeset="124528439" uid="3497659" user="NKA">
		<tag k="name" v="Ulrikskvenna" />
		<tag k="place" v="farm" />
		<tag k="ssr:stedsnr" v="104143" />
	</node>
	<node id="9934017064" lat="63.0395972" lon="7.8371529" version="1" timestamp="2022-08-05T15:12:22Z" changeset="124528439" uid="3497659" user="NKA">
		<tag k="alt_name" v="Or, nordre;Or" />
		<tag k="name" v="Nordre Or" />
		<tag k="place" v="farm" />
		<tag k="ssr:stedsnr" v="680148" />
	</node>
	<node id="9934017065" lat="63.0274778" lon="7.8154611" version="1" timestamp="2022-08-05T15:12:22Z" changeset="124528439" uid="3497659" user="NKA">
		<tag k="name" v="Sjøvang" />
		<tag k="place" v="farm" />
		<tag k="ssr:stedsnr" v="680262" />
	</node>
	<node id="9934017066" lat="63.1027652" lon="7.8522461" version="1" timestamp="2022-08-05T15:12:22Z" changeset="124528439" uid="3497659" user="NKA">
		<tag k="name" v="Omsundet" />
		<tag k="place" v="neighbourhood" />
		<tag k="ssr:stedsnr" v="302620" />
	</node>
	<node id="9934017067" lat="63.109706" lon="7.8578062" version="1" timestamp="2022-08-05T15:12:22Z" changeset="124528439" uid="3497659" user="NKA">
		<tag k="name" v="Omsa" />
		<tag k="place" v="hamlet" />
		<tag k="ssr:stedsnr" v="73354" />
	</node>
	<node id="9934017068" lat="63.0458694" lon="7.8492612" version="1" timestamp="2022-08-05T15:12:22Z" changeset="124528439" uid="3497659" user="NKA">
		<tag k="name" v="Ora" />
		<tag k="place" v="farm" />
		<tag k="ssr:stedsnr" v="316160" />
	</node>
	<node id="9934017069" lat="63.122975" lon="7.8427278" version="1" timestamp="2022-08-05T15:12:22Z" changeset="124528439" uid="3497659" user="NKA">
		<tag k="historic" v="shieling" />
		<tag k="name" v="Råkstølen" />
		<tag k="place" v="isolated_dwelling" />
		<tag k="ssr:stedsnr" v="650480" />
	</node>
	<node id="9934017070" lat="63.0283588" lon="7.7656679" version="1" timestamp="2022-08-05T15:12:22Z" changeset="124528439" uid="3497659" user="NKA">
		<tag k="alt_name" v="Flatset" />
		<tag k="name" v="Ytre Flatset" />
		<tag k="place" v="farm" />
		<tag k="ssr:stedsnr" v="255245" />
	</node>
	<node id="9934017071" lat="63.1026073" lon="7.8345496" version="1" timestamp="2022-08-05T15:12:22Z" changeset="124528439" uid="3497659" user="NKA">
		<tag k="name" v="Sanden" />
		<tag k="place" v="farm" />
		<tag k="ssr:stedsnr" v="589181" />
	</node>
	<node id="9934017072" lat="63.0445142" lon="7.7228617" version="1" timestamp="2022-08-05T15:12:22Z" changeset="124528439" uid="3497659" user="NKA">
		<tag k="name" v="Møst" />
		<tag k="place" v="hamlet" />
		<tag k="ssr:stedsnr" v="437178" />
	</node>
	<node id="9934017073" lat="63.0238519" lon="7.754666" version="1" timestamp="2022-08-05T15:12:22Z" changeset="124528439" uid="3497659" user="NKA">
		<tag k="name" v="Eia" />
		<tag k="place" v="farm" />
		<tag k="ssr:stedsnr" v="352377" />
	</node>
	<node id="9934017074" lat="63.0798778" lon="7.884625" version="1" timestamp="2022-08-05T15:12:22Z" changeset="124528439" uid="3497659" user="NKA">
		<tag k="alt_name" v="Kleven" />
		<tag k="name" v="Kleiva" />
		<tag k="place" v="farm" />
		<tag k="ssr:stedsnr" v="255328" />
	</node>
	<node id="9934017075" lat="63.1010232" lon="7.8565625" version="1" timestamp="2022-08-05T15:12:22Z" changeset="124528439" uid="3497659" user="NKA">
		<tag k="name" v="Elverand" />
		<tag k="place" v="farm" />
		<tag k="ssr:stedsnr" v="497360" />
	</node>
	<node id="9934017076" lat="63.0932028" lon="7.8855" version="1" timestamp="2022-08-05T15:12:22Z" changeset="124528439" uid="3497659" user="NKA">
		<tag k="name" v="Øverenga" />
		<tag k="place" v="farm" />
		<tag k="ssr:stedsnr" v="437342" />
	</node>
	<node id="9934017077" lat="63.0420361" lon="7.7174835" version="1" timestamp="2022-08-05T15:12:22Z" changeset="124528439" uid="3497659" user="NKA">
		<tag k="name" v="Løken" />
		<tag k="place" v="farm" />
		<tag k="ssr:stedsnr" v="255583" />
	</node>
	<node id="9934017078" lat="63.0311833" lon="7.769175" version="1" timestamp="2022-08-05T15:12:22Z" changeset="124528439" uid="3497659" user="NKA">
		<tag k="name" v="Vollen" />
		<tag k="place" v="farm" />
		<tag k="ssr:stedsnr" v="134282" />
	</node>
	<node id="9934017079" lat="63.0339361" lon="7.7328389" version="1" timestamp="2022-08-05T15:12:22Z" changeset="124528439" uid="3497659" user="NKA">
		<tag k="name" v="Skoglund" />
		<tag k="place" v="farm" />
		<tag k="ssr:stedsnr" v="164885" />
	</node>
	<node id="9934017080" lat="63.0457779" lon="7.7187257" version="1" timestamp="2022-08-05T15:12:22Z" changeset="124528439" uid="3497659" user="NKA">
		<tag k="name" v="Litlevik" />
		<tag k="place" v="farm" />
		<tag k="ssr:stedsnr" v="231424" />
	</node>
	<node id="9934017081" lat="63.0997317" lon="7.8094114" version="1" timestamp="2022-08-05T15:12:22Z" changeset="124528439" uid="3497659" user="NKA">
		<tag k="alt_name" v="Nord-Valen" />
		<tag k="name" v="Nordvalen" />
		<tag k="place" v="farm" />
		<tag k="ssr:stedsnr" v="468174" />
	</node>
	<node id="9934017082" lat="63.1025023" lon="7.8430413" version="1" timestamp="2022-08-05T15:12:22Z" changeset="124528439" uid="3497659" user="NKA">
		<tag k="name" v="Omsund" />
		<tag k="place" v="farm" />
		<tag k="ssr:stedsnr" v="412501" />
	</node>
	<node id="9934017083" lat="63.0280994" lon="7.7642083" version="1" timestamp="2022-08-05T15:12:22Z" changeset="124528439" uid="3497659" user="NKA">
		<tag k="name" v="Flatset" />
		<tag k="place" v="hamlet" />
		<tag k="ssr:stedsnr" v="980566" />
	</node>
	<node id="9934017084" lat="63.1031073" lon="7.8640492" version="1" timestamp="2022-08-05T15:12:22Z" changeset="124528439" uid="3497659" user="NKA">
		<tag k="name" v="Storbukta" />
		<tag k="place" v="farm" />
		<tag k="ssr:stedsnr" v="558371" />
	</node>
	<node id="9934017085" lat="63.0885639" lon="7.810275" version="1" timestamp="2022-08-05T15:12:22Z" changeset="124528439" uid="3497659" user="NKA">
		<tag k="name" v="Skogvang" />
		<tag k="place" v="farm" />
		<tag k="ssr:stedsnr" v="953178" />
	</node>
	<node id="9934017086" lat="63.1027482" lon="7.8467644" version="1" timestamp="2022-08-05T15:12:22Z" changeset="124528439" uid="3497659" user="NKA">
		<tag k="name" v="Sæter" />
		<tag k="place" v="farm" />
		<tag k="ssr:stedsnr" v="408155" />
	</node>
	<node id="9934017087" lat="63.0777111" lon="7.7827916" version="1" timestamp="2022-08-05T15:12:22Z" changeset="124528439" uid="3497659" user="NKA">
		<tag k="name" v="Sødalen" />
		<tag k="place" v="neighbourhood" />
		<tag k="ssr:stedsnr" v="241614" />
	</node>
	<node id="9934017088" lat="63.0361071" lon="7.6998115" version="1" timestamp="2022-08-05T15:12:22Z" changeset="124528439" uid="3497659" user="NKA">
		<tag k="name" v="Sildvolnes" />
		<tag k="place" v="farm" />
		<tag k="ssr:stedsnr" v="133527" />
	</node>
	<node id="9934017089" lat="63.0345138" lon="7.8240111" version="1" timestamp="2022-08-05T15:12:22Z" changeset="124528439" uid="3497659" user="NKA">
		<tag k="name" v="Orstranda" />
		<tag k="place" v="farm" />
		<tag k="ssr:stedsnr" v="923156" />
	</node>
	<node id="9934017090" lat="63.02799" lon="7.7696289" version="1" timestamp="2022-08-05T15:12:22Z" changeset="124528439" uid="3497659" user="NKA">
		<tag k="name" v="Indre Flatset" />
		<tag k="place" v="farm" />
		<tag k="ssr:stedsnr" v="73239" />
	</node>
	<node id="9934017091" lat="63.1088" lon="7.7899862" version="1" timestamp="2022-08-05T15:12:22Z" changeset="124528439" uid="3497659" user="NKA">
		<tag k="alt_name" v="Romerike" />
		<tag k="name" v="Romarriket" />
		<tag k="place" v="locality" />
		<tag k="ssr:stedsnr" v="833568" />
	</node>
	<node id="9934017092" lat="63.0551722" lon="7.8619889" version="1" timestamp="2022-08-05T15:12:22Z" changeset="124528439" uid="3497659" user="NKA">
		<tag k="name" v="Rambjøra" />
		<tag k="place" v="farm" />
		<tag k="ssr:stedsnr" v="73164" />
	</node>
	<node id="9934017093" lat="63.0473944" lon="7.7245279" version="1" timestamp="2022-08-05T15:12:22Z" changeset="124528439" uid="3497659" user="NKA">
		<tag k="name" v="Dalset" />
		<tag k="place" v="farm" />
		<tag k="ssr:stedsnr" v="12158" />
	</node>
	<node id="9934017094" lat="63.1083268" lon="7.8193235" version="1" timestamp="2022-08-05T15:12:22Z" changeset="124528439" uid="3497659" user="NKA">
		<tag k="name" v="Byskogen" />
		<tag k="place" v="village" />
		<tag k="ssr:stedsnr" v="445605" />
	</node>
</osm>
