<?xml version="1.0" encoding="UTF-8"?>
<osm version="0.6" generator="osmapis">
	<node lat="59.934802775793756" lon="12.1654222292205" id="-36046">
		<tag k="bridge" v="yes" />
		<tag k="layer" v="1" />
		<tag k="name" v="Lerbekken bru" />
		<tag k="ssr:stedsnr" v="45616" />
	</node>
	<node lat="60.089700000102376" lon="12.119011116251738" id="-36115">
		<tag k="name" v="Eidsbrua" />
		<tag k="railway" v="station" />
		<tag k="ssr:stedsnr" v="66722" />
		<tag k="train" v="yes" />
	</node>
	<node lat="59.9832304488137" lon="12.120559885675771" id="-36139">
		<tag k="name" v="Skotterud stasjon" />
		<tag k="railway" v="station" />
		<tag k="ssr:stedsnr" v="248490" />
		<tag k="train" v="yes" />
	</node>
	<node lat="59.926902140728174" lon="11.853949696485582" id="-36157">
		<tag k="alt_name" v="Bolfoss bru" />
		<tag k="bridge" v="yes" />
		<tag k="layer" v="1" />
		<tag k="name" v="Bolfossbrua" />
		<tag k="ssr:stedsnr" v="106628" />
	</node>
	<node lat="59.93195000342048" lon="11.938494441663769" id="-36165">
		<tag k="name" v="Lunnbenka" />
		<tag k="place" v="locality" />
		<tag k="ssr:stedsnr" v="108014" />
	</node>
	<node lat="59.99308333288066" lon="11.929727772413528" id="-36173">
		<tag k="name" v="Malmersaga" />
		<tag k="place" v="locality" />
		<tag k="ssr:stedsnr" v="108314" />
	</node>
	<node lat="60.045672224507584" lon="12.131683325835342" id="-36312">
		<tag k="bridge" v="yes" />
		<tag k="layer" v="1" />
		<tag k="name" v="Jerntjernbråten" />
		<tag k="ssr:stedsnr" v="228710" />
	</node>
	<node lat="59.98099999701676" lon="12.114369440606517" id="-36313">
		<tag k="bridge" v="yes" />
		<tag k="layer" v="1" />
		<tag k="name" v="Tuhusmoen bru" />
		<tag k="ssr:stedsnr" v="228713" />
	</node>
	<node lat="59.984016666467475" lon="11.87256944878225" id="-36485">
		<tag k="name" v="Kalvmoen" />
		<tag k="place" v="locality" />
		<tag k="ssr:stedsnr" v="472290" />
	</node>
	<node lat="59.99062355811289" lon="11.939737434399447" id="-36488">
		<tag k="bridge" v="yes" />
		<tag k="layer" v="1" />
		<tag k="name" v="Fjellskogbrua" />
		<tag k="ssr:stedsnr" v="472294" />
	</node>
	<node lat="59.93937778120296" lon="12.074672216355399" id="-36516">
		<tag k="bridge" v="yes" />
		<tag k="layer" v="1" />
		<tag k="name" v="Ingelsrud bru" />
		<tag k="ssr:stedsnr" v="349704" />
	</node>
	<node lat="59.93637420865609" lon="12.199488630701332" id="-36517">
		<tag k="bridge" v="yes" />
		<tag k="layer" v="1" />
		<tag k="name" v="Vrangen bru" />
		<tag k="ssr:stedsnr" v="349708" />
	</node>
	<node lat="59.95053850948591" lon="12.199565929966749" id="-36803">
		<tag k="bridge" v="yes" />
		<tag k="layer" v="1" />
		<tag k="name" v="Magnor bru" />
		<tag k="ssr:stedsnr" v="531692" />
	</node>
	<node lat="59.940594442539755" lon="12.187491667579788" id="-36938">
		<tag k="bridge" v="yes" />
		<tag k="layer" v="1" />
		<tag k="name" v="Nordli bru" />
		<tag k="ssr:stedsnr" v="652648" />
	</node>
	<node lat="59.91802406700781" lon="11.872776310714189" id="-37076">
		<tag k="bridge" v="yes" />
		<tag k="layer" v="1" />
		<tag k="name" v="Buvik bru" />
		<tag k="ssr:stedsnr" v="713677" />
	</node>
	<node lat="59.893866670768226" lon="11.866172216337816" id="-37138">
		<tag k="name" v="Sootkanalen" />
		<tag k="ssr:stedsnr" v="752406" />
		<tag k="waterway" v="canal" />
	</node>
	<node lat="59.97981666791738" lon="11.876041668788192" id="-37168">
		<tag k="name" v="Støbrua" />
		<tag k="place" v="locality" />
		<tag k="ssr:stedsnr" v="776606" />
	</node>
	<node lat="59.94905437661737" lon="11.978257876315144" id="-37249">
		<tag k="bridge" v="yes" />
		<tag k="layer" v="1" />
		<tag k="name" v="Bjørklund bru" />
		<tag k="ssr:stedsnr" v="228701" />
	</node>
	<node lat="60.06104722372884" lon="12.201438897764964" id="-37276">
		<tag k="highway" v="path" />
		<tag k="name" v="Langfossætervegen" />
		<tag k="ssr:stedsnr" v="837189" />
	</node>
	<node lat="59.982755558957955" lon="12.127755553944649" id="-37339">
		<tag k="bridge" v="yes" />
		<tag k="layer" v="1" />
		<tag k="name" v="Oberst Krebs bru" />
		<tag k="ssr:stedsnr" v="895618" />
	</node>
	<node lat="60.051045001454206" lon="12.139913753513836" id="-37340">
		<tag k="bridge" v="yes" />
		<tag k="layer" v="1" />
		<tag k="name" v="Grasmo bru" />
		<tag k="ssr:stedsnr" v="895622" />
	</node>
	<node lat="59.93653611064785" lon="11.992322215881291" id="-37412">
		<tag k="bridge" v="yes" />
		<tag k="layer" v="1" />
		<tag k="name" v="Brustad" />
		<tag k="ssr:stedsnr" v="956689" />
	</node>
	<node lat="60.05918055439118" lon="12.12393333957091" id="-37413">
		<tag k="bridge" v="yes" />
		<tag k="layer" v="1" />
		<tag k="name" v="Brenna bru" />
		<tag k="ssr:stedsnr" v="956690" />
	</node>
	<node lat="60.075119441130276" lon="12.021244452409386" id="-37534">
		<tag k="junction" v="yes" />
		<tag k="name" v="Dal" />
		<tag k="place" v="locality" />
		<tag k="ssr:stedsnr" v="47099" />
	</node>
	<node lat="59.958772223456336" lon="11.949733331648781" id="-37598">
		<tag k="junction" v="yes" />
		<tag k="name" v="Kvist" />
		<tag k="place" v="locality" />
		<tag k="ssr:stedsnr" v="48769" />
	</node>
	<node lat="59.99008610983087" lon="12.294536107372577" id="-37607">
		<tag k="name" v="Tomta" />
		<tag k="place" v="locality" />
		<tag k="ssr:stedsnr" v="48837" />
	</node>
	<node lat="59.94541111142899" lon="12.167811103235056" id="-37666">
		<tag k="bridge" v="yes" />
		<tag k="layer" v="1" />
		<tag k="name" v="Murissa bru" />
		<tag k="ssr:stedsnr" v="106640" />
	</node>
	<node lat="60.0704416696339" lon="12.109702784994873" id="-37667">
		<tag k="bridge" v="yes" />
		<tag k="layer" v="1" />
		<tag k="name" v="Malmerbekken" />
		<tag k="ssr:stedsnr" v="106643" />
	</node>
	<node lat="59.97711666548654" lon="12.060622215630929" id="-37668">
		<tag k="bridge" v="yes" />
		<tag k="layer" v="1" />
		<tag k="name" v="Tollefsbøl" />
		<tag k="ssr:stedsnr" v="106663" />
	</node>
	<node lat="60.03427221877579" lon="12.267158340576064" id="-37684">
		<tag k="junction" v="yes" />
		<tag k="name" v="Firehundremeteren" />
		<tag k="place" v="locality" />
		<tag k="ssr:stedsnr" v="108164" />
	</node>
	<node lat="60.02412221908333" lon="12.29776111156262" id="-37713">
		<tag k="highway" v="path" />
		<tag k="name" v="Delevegen" />
		<tag k="ssr:stedsnr" v="108854" />
	</node>
	<node lat="59.91331064604523" lon="11.984125883019768" id="-37789">
		<tag k="bridge" v="yes" />
		<tag k="layer" v="1" />
		<tag k="loc_name" v="Almenninga bru" />
		<tag k="name" v="Almenningen bru" />
		<tag k="ssr:stedsnr" v="167686" />
	</node>
	<node lat="59.93450278234054" lon="11.902602774659693" id="-37790">
		<tag k="bridge" v="yes" />
		<tag k="layer" v="1" />
		<tag k="name" v="Ljønerbekken" />
		<tag k="ssr:stedsnr" v="167692" />
	</node>
	<node lat="59.95798055511282" lon="12.161594449120388" id="-37791">
		<tag k="bridge" v="yes" />
		<tag k="layer" v="1" />
		<tag k="name" v="Torpsæter bru" />
		<tag k="ssr:stedsnr" v="167700" />
	</node>
	<node lat="59.984174670185936" lon="12.101336339687567" id="-37792">
		<tag k="bridge" v="yes" />
		<tag k="layer" v="1" />
		<tag k="name" v="Repshus bru" />
		<tag k="ssr:stedsnr" v="167701" />
	</node>
	<node lat="60.037513890669295" lon="12.251472224395618" id="-37802">
		<tag k="highway" v="path" />
		<tag k="name" v="Kirkevegen" />
		<tag k="ssr:stedsnr" v="169093" />
	</node>
	<node lat="59.993017743839786" lon="12.057436434287144" id="-37924">
		<tag k="bridge" v="yes" />
		<tag k="layer" v="1" />
		<tag k="name" v="Nygård bru" />
		<tag k="ssr:stedsnr" v="288596" />
	</node>
	<node lat="59.98779542227212" lon="12.106532058618113" id="-38031">
		<tag k="bridge" v="yes" />
		<tag k="layer" v="1" />
		<tag k="name" v="Børja bru" />
		<tag k="ssr:stedsnr" v="349696" />
	</node>
	<node lat="60.04512777410752" lon="12.13158334037028" id="-38125">
		<tag k="name" v="Grasmo" />
		<tag k="railway" v="station" />
		<tag k="ssr:stedsnr" v="369628" />
		<tag k="train" v="yes" />
	</node>
	<node lat="59.9624500003238" lon="12.148850007456957" id="-38146">
		<tag k="bridge" v="yes" />
		<tag k="layer" v="1" />
		<tag k="name" v="Gaustad bru" />
		<tag k="ssr:stedsnr" v="410657" />
	</node>
	<node lat="60.12138800413707" lon="12.10871984487681" id="-38147">
		<tag k="bridge" v="yes" />
		<tag k="layer" v="1" />
		<tag k="name" v="Posteringen bru" />
		<tag k="ssr:stedsnr" v="410581" />
	</node>
	<node lat="60.01625555853336" lon="12.26224444811922" id="-38155">
		<tag k="highway" v="path" />
		<tag k="name" v="Høgdevegen" />
		<tag k="ssr:stedsnr" v="411089" />
	</node>
	<node lat="59.93666666418261" lon="12.198405561483803" id="-38260">
		<tag k="bridge" v="yes" />
		<tag k="layer" v="1" />
		<tag k="name" v="Kustås bru" />
		<tag k="ssr:stedsnr" v="531697" />
	</node>
	<node lat="59.97326049037895" lon="12.059656977712843" id="-38261">
		<tag k="bridge" v="yes" />
		<tag k="layer" v="1" />
		<tag k="name" v="Tollefsbøl bru" />
		<tag k="ssr:stedsnr" v="531703" />
	</node>
	<node lat="59.99751658342294" lon="12.31838740252591" id="-38489">
		<tag k="bridge" v="yes" />
		<tag k="layer" v="1" />
		<tag k="name" v="Finnsrud bru" />
		<tag k="ssr:stedsnr" v="652654" />
	</node>
	<node lat="59.99035555670077" lon="12.282511104968025" id="-38507">
		<tag k="bridge" v="yes" />
		<tag k="layer" v="1" />
		<tag k="name" v="Skybrua" />
		<tag k="ssr:stedsnr" v="654181" />
	</node>
	<node lat="60.04266388932464" lon="12.284416658361666" id="-38508">
		<tag k="highway" v="path" />
		<tag k="name" v="Kirkevegen" />
		<tag k="ssr:stedsnr" v="654248" />
	</node>
	<node lat="59.96675278095761" lon="12.258663883642212" id="-38555">
		<tag k="junction" v="yes" />
		<tag k="name" v="Korsvega" />
		<tag k="place" v="locality" />
		<tag k="ssr:stedsnr" v="661595" />
	</node>
	<node lat="60.018197517639194" lon="12.04996072832608" id="-38561">
		<tag k="bridge" v="yes" />
		<tag k="layer" v="1" />
		<tag k="name" v="Rinda" />
		<tag k="ssr:stedsnr" v="713697" />
	</node>
	<node lat="60.08165000192004" lon="12.086030551713936" id="-38588">
		<tag k="junction" v="yes" />
		<tag k="name" v="Piparhullet" />
		<tag k="place" v="locality" />
		<tag k="ssr:stedsnr" v="715149" />
	</node>
	<node lat="59.98483796412364" lon="12.066672966135881" id="-38682">
		<tag k="bridge" v="yes" />
		<tag k="layer" v="1" />
		<tag k="name" v="Børrud bru" />
		<tag k="ssr:stedsnr" v="774688" />
	</node>
	<node lat="60.03014814782407" lon="12.122605795042308" id="-38793">
		<tag k="bridge" v="yes" />
		<tag k="layer" v="1" />
		<tag k="name" v="Matrand bru" />
		<tag k="ssr:stedsnr" v="835693" />
	</node>
	<node lat="59.93836111470773" lon="12.191905562857368" id="-38794">
		<tag k="bridge" v="yes" />
		<tag k="layer" v="1" />
		<tag k="name" v="Leirbekken" />
		<tag k="ssr:stedsnr" v="835695" />
	</node>
	<node lat="59.98165008750115" lon="12.122287925634286" id="-38795">
		<tag k="bridge" v="yes" />
		<tag k="layer" v="1" />
		<tag k="name" v="Vrangselva bru" />
		<tag k="ssr:stedsnr" v="835701" />
	</node>
	<node lat="59.89362777871625" lon="12.12924166022388" id="-38827">
		<tag k="ford" v="yes" />
		<tag k="name" v="Steinvadet" />
		<tag k="place" v="locality" />
		<tag k="ssr:stedsnr" v="837065" />
	</node>
	<node lat="60.0159388884965" lon="12.286961116033254" id="-39003">
		<tag k="highway" v="path" />
		<tag k="name" v="Møllergata" />
		<tag k="ssr:stedsnr" v="958856" />
	</node>
</osm>
