<?xml version="1.0" encoding="UTF-8"?>
<osm version="0.6" generator="osmapis">
	<node lat="59.89818055822426" lon="11.925286118889117" id="-15613">
		<tag k="name" v="Merramyra" />
		<tag k="natural" v="wetland" />
		<tag k="ssr:stedsnr" v="230615" />
	</node>
	<node lat="59.89409166607546" lon="12.13555000149552" id="-15616">
		<tag k="name" v="Fløytmyra" />
		<tag k="natural" v="wetland" />
		<tag k="ssr:stedsnr" v="229907" />
	</node>
	<node lat="60.06154722179204" lon="12.214944450170332" id="-15627">
		<tag k="name" v="Høkkelhølmyra" />
		<tag k="natural" v="wetland" />
		<tag k="ssr:stedsnr" v="230198" />
	</node>
	<node lat="60.009825001612356" lon="11.837925005078928" id="-15630">
		<tag k="name" v="Skålvangen" />
		<tag k="place" v="locality" />
		<tag k="ssr:stedsnr" v="230248" />
	</node>
	<node lat="59.92562222322974" lon="11.931088887136651" id="-15631">
		<tag k="name" v="Merastmyra" />
		<tag k="natural" v="wetland" />
		<tag k="ssr:stedsnr" v="230268" />
	</node>
	<node lat="59.95261110861361" lon="11.830433341348005" id="-15642">
		<tag k="alt_name" v="Halvorsrudmyra" />
		<tag k="name" v="Halvorsmyra" />
		<tag k="natural" v="wetland" />
		<tag k="ssr:stedsnr" v="5116" />
	</node>
	<node lat="59.95577499679466" lon="12.08828611906444" id="-15668">
		<tag k="name" v="Stormyra" />
		<tag k="natural" v="wetland" />
		<tag k="ssr:stedsnr" v="230728" />
	</node>
	<node lat="59.947294446247916" lon="12.003602785986914" id="-15674">
		<tag k="name" v="Massmyra" />
		<tag k="natural" v="wetland" />
		<tag k="ssr:stedsnr" v="230771" />
	</node>
	<node lat="60.06449444859812" lon="11.830072223670783" id="-15676">
		<tag k="name" v="Stormyra" />
		<tag k="natural" v="wetland" />
		<tag k="ssr:stedsnr" v="230861" />
	</node>
	<node lat="59.98051389274099" lon="12.346361106243549" id="-15677">
		<tag k="name" v="Klemsrud" />
		<tag k="place" v="locality" />
		<tag k="ssr:stedsnr" v="230951" />
	</node>
	<node lat="59.918702777385455" lon="12.136922217299682" id="-15678">
		<tag k="name" v="Øvre Kumyra" />
		<tag k="natural" v="wetland" />
		<tag k="ssr:stedsnr" v="230967" />
	</node>
	<node lat="59.89491666354665" lon="12.169916668537681" id="-15685">
		<tag k="landuse" v="meadow" />
		<tag k="name" v="Enga" />
		<tag k="ssr:stedsnr" v="47082" />
	</node>
	<node lat="59.952677773933175" lon="11.91734443995466" id="-15697">
		<tag k="name" v="Tokornhullet" />
		<tag k="natural" v="wetland" />
		<tag k="ssr:stedsnr" v="47808" />
	</node>
	<node lat="60.061536108745884" lon="11.921191659167997" id="-15698">
		<tag k="name" v="Mosestakkmyra" />
		<tag k="natural" v="wetland" />
		<tag k="ssr:stedsnr" v="47817" />
	</node>
	<node lat="59.95917499765857" lon="11.887488885842654" id="-15699">
		<tag k="name" v="Merrabekkmyra" />
		<tag k="natural" v="wetland" />
		<tag k="ssr:stedsnr" v="47821" />
	</node>
	<node lat="60.036374996430865" lon="11.93898889014861" id="-15703">
		<tag k="name" v="Vintermyra" />
		<tag k="natural" v="wetland" />
		<tag k="ssr:stedsnr" v="48306" />
	</node>
	<node lat="59.898586112509" lon="11.82105832845066" id="-15711">
		<tag k="name" v="Linnemyra" />
		<tag k="natural" v="wetland" />
		<tag k="ssr:stedsnr" v="48728" />
	</node>
	<node lat="60.13947777816826" lon="12.139580547329711" id="-15715">
		<tag k="name" v="Oksaugmyra" />
		<tag k="natural" v="wetland" />
		<tag k="ssr:stedsnr" v="48912" />
	</node>
	<node lat="60.061747218231105" lon="11.939369438345727" id="-15717">
		<tag k="name" v="Jakobmyra" />
		<tag k="natural" v="wetland" />
		<tag k="ssr:stedsnr" v="48818" />
	</node>
	<node lat="59.954352780477414" lon="12.018355562720858" id="-15727">
		<tag k="name" v="Høgåsmyra" />
		<tag k="natural" v="wetland" />
		<tag k="ssr:stedsnr" v="66303" />
	</node>
	<node lat="59.97075555734685" lon="11.90456111846935" id="-15740">
		<tag k="name" v="Bjørnstadmyra" />
		<tag k="natural" v="wetland" />
		<tag k="ssr:stedsnr" v="66411" />
	</node>
	<node lat="60.04041388853919" lon="11.870680560245875" id="-15747">
		<tag k="alt_name" v="Storemyra" />
		<tag k="name" v="Stormyra" />
		<tag k="natural" v="wetland" />
		<tag k="ssr:stedsnr" v="66672" />
	</node>
	<node lat="60.092825000389354" lon="12.245499999876698" id="-15748">
		<tag k="name" v="Merrahola" />
		<tag k="place" v="locality" />
		<tag k="ssr:stedsnr" v="66885" />
	</node>
	<node lat="59.97958055351197" lon="12.28523610798181" id="-15751">
		<tag k="name" v="Leirbrumyra" />
		<tag k="natural" v="wetland" />
		<tag k="ssr:stedsnr" v="248184" />
	</node>
	<node lat="59.87592499715193" lon="11.863316672139046" id="-15754">
		<tag k="name" v="Stormyra" />
		<tag k="natural" v="wetland" />
		<tag k="ssr:stedsnr" v="248137" />
	</node>
	<node lat="59.99424722547285" lon="12.280086107732231" id="-15787">
		<tag k="name" v="Storlimyra" />
		<tag k="natural" v="wetland" />
		<tag k="ssr:stedsnr" v="108121" />
	</node>
	<node lat="60.017097221719816" lon="12.283163887195402" id="-15788">
		<tag k="name" v="Bølldalen" />
		<tag k="place" v="locality" />
		<tag k="ssr:stedsnr" v="108123" />
	</node>
	<node lat="60.049947224165315" lon="12.012911118842503" id="-15794">
		<tag k="name" v="Totjennsmyra" />
		<tag k="natural" v="wetland" />
		<tag k="ssr:stedsnr" v="108087" />
	</node>
	<node lat="60.044830559930325" lon="12.234647227993682" id="-15797">
		<tag k="name" v="Svarttjennmyra" />
		<tag k="natural" v="wetland" />
		<tag k="ssr:stedsnr" v="108178" />
	</node>
	<node lat="60.01521944140698" lon="11.88676943561649" id="-15798">
		<tag k="name" v="Stenmyra" />
		<tag k="natural" v="wetland" />
		<tag k="ssr:stedsnr" v="108306" />
	</node>
	<node lat="59.97998611053619" lon="11.916233333090217" id="-15799">
		<tag k="name" v="Småmyrdala" />
		<tag k="natural" v="wetland" />
		<tag k="ssr:stedsnr" v="108313" />
	</node>
	<node lat="59.912147225791905" lon="11.862675003851365" id="-15807">
		<tag k="name" v="Tolvmilskogen" />
		<tag k="natural" v="wetland" />
		<tag k="ssr:stedsnr" v="108277" />
	</node>
	<node lat="59.89720833264541" lon="11.903775001497973" id="-15808">
		<tag k="name" v="Østre Almenning" />
		<tag k="place" v="locality" />
		<tag k="ssr:stedsnr" v="108283" />
	</node>
	<node lat="59.969413892785326" lon="12.021861119500034" id="-15810">
		<tag k="name" v="Dulpa" />
		<tag k="natural" v="wetland" />
		<tag k="ssr:stedsnr" v="108420" />
	</node>
	<node lat="60.01748055192579" lon="11.991183327264801" id="-15813">
		<tag k="name" v="Brennemyra" />
		<tag k="natural" v="wetland" />
		<tag k="ssr:stedsnr" v="108704" />
	</node>
	<node lat="59.98960555745865" lon="11.859638883050042" id="-15814">
		<tag k="name" v="Haramyra" />
		<tag k="natural" v="wetland" />
		<tag k="ssr:stedsnr" v="108712" />
	</node>
	<node lat="60.0138499960581" lon="11.948905549673034" id="-15816">
		<tag k="name" v="Busjømyra" />
		<tag k="natural" v="wetland" />
		<tag k="ssr:stedsnr" v="108770" />
	</node>
	<node lat="59.88846666654381" lon="11.862808334226665" id="-15817">
		<tag k="name" v="Linnemyra" />
		<tag k="natural" v="wetland" />
		<tag k="ssr:stedsnr" v="108689" />
	</node>
	<node lat="59.888227777383214" lon="11.868552771717946" id="-15818">
		<tag k="name" v="Nyjordet" />
		<tag k="place" v="locality" />
		<tag k="ssr:stedsnr" v="108690" />
	</node>
	<node lat="59.940913892393745" lon="11.86416111716913" id="-15826">
		<tag k="name" v="Måsavika" />
		<tag k="natural" v="wetland" />
		<tag k="ssr:stedsnr" v="109627" />
	</node>
	<node lat="59.90042500047888" lon="12.158002780817757" id="-15849">
		<tag k="name" v="Leirsjøskogen" />
		<tag k="place" v="locality" />
		<tag k="ssr:stedsnr" v="127194" />
	</node>
	<node lat="60.130269444985494" lon="12.145269447171186" id="-15852">
		<tag k="name" v="Skaubymyra" />
		<tag k="natural" v="wetland" />
		<tag k="ssr:stedsnr" v="127598" />
	</node>
	<node lat="59.91168055131188" lon="11.912563896769935" id="-15853">
		<tag k="alt_name" v="Langerekka" />
		<tag k="name" v="Langerekke" />
		<tag k="natural" v="wetland" />
		<tag k="ssr:stedsnr" v="157649" />
	</node>
	<node lat="60.10178888619935" lon="12.081550005162564" id="-15857">
		<tag k="name" v="Nautmyra" />
		<tag k="natural" v="wetland" />
		<tag k="ssr:stedsnr" v="168519" />
	</node>
	<node lat="59.93787222329187" lon="11.930283334796062" id="-15858">
		<tag k="name" v="Åsmyra" />
		<tag k="natural" v="wetland" />
		<tag k="ssr:stedsnr" v="168822" />
	</node>
	<node lat="60.074450004255915" lon="12.145880549808355" id="-15863">
		<tag k="name" v="Øvre Kvernmyra" />
		<tag k="natural" v="wetland" />
		<tag k="ssr:stedsnr" v="169211" />
	</node>
	<node lat="59.949683337498875" lon="12.28163610574503" id="-15866">
		<tag k="name" v="Breitjennmyra" />
		<tag k="natural" v="wetland" />
		<tag k="ssr:stedsnr" v="169110" />
	</node>
	<node lat="59.96966666663492" lon="12.295949995033855" id="-15868">
		<tag k="name" v="Vestre Raspemyra" />
		<tag k="natural" v="wetland" />
		<tag k="ssr:stedsnr" v="169117" />
	</node>
	<node lat="60.027805553281" lon="12.219647213254424" id="-15870">
		<tag k="name" v="Kontrahullet" />
		<tag k="natural" v="wetland" />
		<tag k="ssr:stedsnr" v="169157" />
	</node>
	<node lat="60.035216662619405" lon="11.946772222936803" id="-15875">
		<tag k="name" v="Pisenga" />
		<tag k="natural" v="wetland" />
		<tag k="ssr:stedsnr" v="169322" />
	</node>
	<node lat="60.13326111122387" lon="12.150274994486399" id="-15878">
		<tag k="name" v="Vesle Grønkjølmyra" />
		<tag k="natural" v="wetland" />
		<tag k="ssr:stedsnr" v="169457" />
	</node>
	<node lat="59.85737499878955" lon="11.855036109747958" id="-15879">
		<tag k="name" v="Bukkeblekmyra" />
		<tag k="natural" v="wetland" />
		<tag k="ssr:stedsnr" v="169461" />
	</node>
	<node lat="59.86535000420252" lon="11.850627784728653" id="-15880">
		<tag k="name" v="Fånøttemyra" />
		<tag k="natural" v="wetland" />
		<tag k="ssr:stedsnr" v="169473" />
	</node>
	<node lat="59.86515555308153" lon="11.860494443709454" id="-15883">
		<tag k="name" v="Store Torkildsmyra" />
		<tag k="natural" v="wetland" />
		<tag k="ssr:stedsnr" v="169621" />
	</node>
	<node lat="59.91918333135164" lon="11.815322215453854" id="-15884">
		<tag k="name" v="Stormyra" />
		<tag k="natural" v="wetland" />
		<tag k="ssr:stedsnr" v="169509" />
	</node>
	<node lat="59.947275001297285" lon="11.821936103959002" id="-15896">
		<tag k="name" v="Stormyra" />
		<tag k="natural" v="wetland" />
		<tag k="ssr:stedsnr" v="187126" />
	</node>
	<node lat="59.88914999821217" lon="11.891666663879834" id="-15898">
		<tag k="alt_name" v="Svarvestolmyra" />
		<tag k="name" v="Svervestolmyra" />
		<tag k="natural" v="wetland" />
		<tag k="ssr:stedsnr" v="187130" />
	</node>
	<node lat="59.95940555118471" lon="12.119516666060646" id="-15910">
		<tag k="name" v="Gråmyra" />
		<tag k="natural" v="wetland" />
		<tag k="ssr:stedsnr" v="187283" />
	</node>
	<node lat="60.06644167001191" lon="12.198505562101415" id="-15918">
		<tag k="name" v="Røsslyngdulpa" />
		<tag k="natural" v="wetland" />
		<tag k="ssr:stedsnr" v="187686" />
	</node>
	<node lat="60.08842499553404" lon="12.260100007851932" id="-15919">
		<tag k="name" v="Smalmyra" />
		<tag k="natural" v="wetland" />
		<tag k="ssr:stedsnr" v="187873" />
	</node>
	<node lat="59.98492500274954" lon="12.186002774252742" id="-15929">
		<tag k="name" v="Vintermyra" />
		<tag k="natural" v="wetland" />
		<tag k="ssr:stedsnr" v="188525" />
	</node>
	<node lat="60.05013333747092" lon="11.890422221735525" id="-15940">
		<tag k="name" v="Hvitmosemyra" />
		<tag k="natural" v="wetland" />
		<tag k="ssr:stedsnr" v="229310" />
	</node>
	<node lat="60.02741666257881" lon="11.832813883372731" id="-15952">
		<tag k="name" v="Sivmyra" />
		<tag k="natural" v="wetland" />
		<tag k="ssr:stedsnr" v="229700" />
	</node>
	<node lat="59.99593889040341" lon="12.031319446580548" id="-15953">
		<tag k="name" v="Skogsmyra" />
		<tag k="natural" v="wetland" />
		<tag k="ssr:stedsnr" v="229992" />
	</node>
	<node lat="60.05358333059984" lon="11.932966673676695" id="-15971">
		<tag k="name" v="Fjellskogen" />
		<tag k="place" v="locality" />
		<tag k="ssr:stedsnr" v="230630" />
	</node>
	<node lat="59.972741662431446" lon="11.847761109128479" id="-15972">
		<tag k="name" v="Langhalsemyra" />
		<tag k="natural" v="wetland" />
		<tag k="ssr:stedsnr" v="230692" />
	</node>
	<node lat="60.014508337474226" lon="11.966016663963114" id="-15975">
		<tag k="name" v="Havmyra" />
		<tag k="natural" v="wetland" />
		<tag k="ssr:stedsnr" v="230732" />
	</node>
	<node lat="59.881372219215045" lon="11.855725001665062" id="-15977">
		<tag k="name" v="Merramyra" />
		<tag k="natural" v="wetland" />
		<tag k="ssr:stedsnr" v="230992" />
	</node>
	<node lat="59.908591665699944" lon="12.13491110592482" id="-15983">
		<tag k="name" v="Strutmyra" />
		<tag k="natural" v="wetland" />
		<tag k="ssr:stedsnr" v="248306" />
	</node>
	<node lat="59.96421388551584" lon="11.85296666849858" id="-15991">
		<tag k="name" v="Akrilmyrene" />
		<tag k="natural" v="wetland" />
		<tag k="ssr:stedsnr" v="248420" />
	</node>
	<node lat="60.06848055238867" lon="11.89077222517138" id="-15997">
		<tag k="name" v="Nygardsmyrene" />
		<tag k="natural" v="wetland" />
		<tag k="ssr:stedsnr" v="248718" />
	</node>
	<node lat="60.06507500395705" lon="11.908449999761043" id="-15998">
		<tag k="name" v="Tømmermyra" />
		<tag k="natural" v="wetland" />
		<tag k="ssr:stedsnr" v="248722" />
	</node>
	<node lat="60.01652500276855" lon="11.904583336355765" id="-16001">
		<tag k="name" v="Haredalsmyra" />
		<tag k="natural" v="wetland" />
		<tag k="ssr:stedsnr" v="248661" />
	</node>
	<node lat="60.12719721828023" lon="12.187822217758553" id="-16017">
		<tag k="name" v="Nordgardsvangen" />
		<tag k="place" v="locality" />
		<tag k="ssr:stedsnr" v="290202" />
	</node>
	<node lat="60.09856388991064" lon="12.237219436750184" id="-16022">
		<tag k="name" v="Langemyra" />
		<tag k="natural" v="wetland" />
		<tag k="ssr:stedsnr" v="290178" />
	</node>
	<node lat="60.04080277866392" lon="12.243516667524581" id="-16024">
		<tag k="name" v="Brurkleiva" />
		<tag k="place" v="locality" />
		<tag k="ssr:stedsnr" v="290182" />
	</node>
	<node lat="60.03559166577191" lon="11.997472221127207" id="-16026">
		<tag k="name" v="Sylta" />
		<tag k="natural" v="wetland" />
		<tag k="ssr:stedsnr" v="290330" />
	</node>
	<node lat="60.06606111507928" lon="12.030222229592201" id="-16027">
		<tag k="name" v="Merramyra" />
		<tag k="natural" v="wetland" />
		<tag k="ssr:stedsnr" v="290334" />
	</node>
	<node lat="59.99502777616184" lon="12.136519440198628" id="-16028">
		<tag k="name" v="Gubbemyra" />
		<tag k="natural" v="wetland" />
		<tag k="ssr:stedsnr" v="290384" />
	</node>
	<node lat="60.04537500212877" lon="12.157394437157285" id="-16030">
		<tag k="name" v="Rindermyra" />
		<tag k="natural" v="wetland" />
		<tag k="ssr:stedsnr" v="290389" />
	</node>
	<node lat="60.0043666622719" lon="12.156780554727044" id="-16031">
		<tag k="name" v="Dammyra" />
		<tag k="natural" v="wetland" />
		<tag k="ssr:stedsnr" v="290391" />
	</node>
	<node lat="59.96062500282764" lon="11.965519446483523" id="-16034">
		<tag k="name" v="Rike" />
		<tag k="place" v="locality" />
		<tag k="ssr:stedsnr" v="290732" />
	</node>
	<node lat="59.878952778637576" lon="11.889269441285801" id="-16037">
		<tag k="name" v="Rettigheta" />
		<tag k="place" v="locality" />
		<tag k="ssr:stedsnr" v="290485" />
	</node>
	<node lat="60.0539861127111" lon="11.928330558250165" id="-16039">
		<tag k="name" v="Kalvmyra" />
		<tag k="natural" v="wetland" />
		<tag k="ssr:stedsnr" v="290604" />
	</node>
	<node lat="59.90987222530162" lon="11.816694437441566" id="-16042">
		<tag k="name" v="Snurumyrhullet" />
		<tag k="natural" v="wetland" />
		<tag k="ssr:stedsnr" v="290689" />
	</node>
	<node lat="59.9592750008619" lon="12.024786116109304" id="-16045">
		<tag k="name" v="Merramyra" />
		<tag k="natural" v="wetland" />
		<tag k="ssr:stedsnr" v="290989" />
	</node>
	<node lat="60.01786111365306" lon="11.893588882662588" id="-16057">
		<tag k="name" v="Stokkmyra" />
		<tag k="natural" v="wetland" />
		<tag k="ssr:stedsnr" v="291843" />
	</node>
	<node lat="60.0961749990172" lon="12.256650007838216" id="-16066">
		<tag k="alt_name" v="Korsmyra" />
		<tag k="name" v="Langemyra" />
		<tag k="natural" v="wetland" />
		<tag k="ssr:stedsnr" v="308895" />
	</node>
	<node lat="59.98713888795658" lon="11.914688882522842" id="-16073">
		<tag k="name" v="Jerpsætermyra" />
		<tag k="natural" v="wetland" />
		<tag k="ssr:stedsnr" v="309519" />
	</node>
	<node lat="59.90011388846685" lon="12.173002783613857" id="-16079">
		<tag k="name" v="Morastsætermyra" />
		<tag k="natural" v="wetland" />
		<tag k="ssr:stedsnr" v="472088" />
	</node>
	<node lat="59.979505553581326" lon="12.270186103163851" id="-16082">
		<tag k="name" v="Opptjenndulpa" />
		<tag k="natural" v="wetland" />
		<tag k="ssr:stedsnr" v="472182" />
	</node>
	<node lat="59.957497219235876" lon="12.097300001753897" id="-16089">
		<tag k="name" v="Høgåsmyra" />
		<tag k="natural" v="wetland" />
		<tag k="ssr:stedsnr" v="472048" />
	</node>
	<node lat="59.99378888621796" lon="11.877002782596861" id="-16098">
		<tag k="name" v="Knallrisdølpa" />
		<tag k="natural" v="wetland" />
		<tag k="ssr:stedsnr" v="472292" />
	</node>
	<node lat="60.07735277523185" lon="11.952594442344745" id="-16106">
		<tag k="name" v="Bruråsholtet" />
		<tag k="place" v="locality" />
		<tag k="ssr:stedsnr" v="472434" />
	</node>
	<node lat="60.05811389175876" lon="11.926524991862994" id="-16111">
		<tag k="name" v="Hestmyra" />
		<tag k="natural" v="wetland" />
		<tag k="ssr:stedsnr" v="472645" />
	</node>
	<node lat="59.98449722360979" lon="12.239488880134207" id="-16120">
		<tag k="name" v="Klanderudmyra" />
		<tag k="natural" v="wetland" />
		<tag k="ssr:stedsnr" v="472788" />
	</node>
	<node lat="59.94181389173543" lon="12.219316673549082" id="-16129">
		<tag k="name" v="Olsemyra" />
		<tag k="natural" v="wetland" />
		<tag k="ssr:stedsnr" v="350916" />
	</node>
	<node lat="59.863961106686965" lon="11.843852784156859" id="-16132">
		<tag k="name" v="Nordre Sjelåsætermosen" />
		<tag k="natural" v="wetland" />
		<tag k="ssr:stedsnr" v="350939" />
	</node>
	<node lat="59.88758055581889" lon="11.848863896217464" id="-16133">
		<tag k="name" v="Mastemyra" />
		<tag k="natural" v="wetland" />
		<tag k="ssr:stedsnr" v="350974" />
	</node>
	<node lat="60.01069166737453" lon="11.922997216701836" id="-16134">
		<tag k="name" v="Villingmyra" />
		<tag k="natural" v="wetland" />
		<tag k="ssr:stedsnr" v="350813" />
	</node>
	<node lat="60.03893333522151" lon="11.91622500569375" id="-16136">
		<tag k="name" v="Gørrmyra" />
		<tag k="natural" v="wetland" />
		<tag k="ssr:stedsnr" v="350828" />
	</node>
	<node lat="60.02346111521563" lon="11.992222230633157" id="-16138">
		<tag k="name" v="Stubbskimyra" />
		<tag k="natural" v="wetland" />
		<tag k="ssr:stedsnr" v="351105" />
	</node>
	<node lat="60.054011114435404" lon="11.88225000087421" id="-16142">
		<tag k="name" v="Brennehesa" />
		<tag k="natural" v="wetland" />
		<tag k="ssr:stedsnr" v="351320" />
	</node>
	<node lat="59.95626944507424" lon="11.908311119833758" id="-16148">
		<tag k="name" v="Mortkjølmyra" />
		<tag k="natural" v="wetland" />
		<tag k="ssr:stedsnr" v="351620" />
	</node>
	<node lat="60.04155277741014" lon="11.902574998891978" id="-16150">
		<tag k="name" v="Eriksmyra" />
		<tag k="natural" v="wetland" />
		<tag k="ssr:stedsnr" v="351672" />
	</node>
	<node lat="60.02378610915136" lon="12.328780555837533" id="-16152">
		<tag k="name" v="Kaldkjellhullmyra" />
		<tag k="natural" v="wetland" />
		<tag k="ssr:stedsnr" v="351506" />
	</node>
	<node lat="60.01383888643102" lon="12.235130558549228" id="-16155">
		<tag k="name" v="Lamyrene" />
		<tag k="natural" v="wetland" />
		<tag k="ssr:stedsnr" v="351810" />
	</node>
	<node lat="60.060341668863124" lon="11.9793888811575" id="-16157">
		<tag k="name" v="Vintermyrholtet" />
		<tag k="place" v="locality" />
		<tag k="ssr:stedsnr" v="351911" />
	</node>
	<node lat="60.057686115028275" lon="11.97911110298634" id="-16158">
		<tag k="name" v="Vintermyra" />
		<tag k="natural" v="wetland" />
		<tag k="ssr:stedsnr" v="351914" />
	</node>
	<node lat="59.91500277344888" lon="11.921277780521635" id="-16176">
		<tag k="name" v="Stormyra" />
		<tag k="natural" v="wetland" />
		<tag k="ssr:stedsnr" v="369304" />
	</node>
	<node lat="59.94781111564598" lon="11.886449992779557" id="-16182">
		<tag k="name" v="Geitmyra" />
		<tag k="natural" v="wetland" />
		<tag k="ssr:stedsnr" v="369268" />
	</node>
	<node lat="60.05823611129423" lon="11.927911102709142" id="-16193">
		<tag k="name" v="Hestemyra" />
		<tag k="natural" v="wetland" />
		<tag k="ssr:stedsnr" v="369677" />
	</node>
	<node lat="60.086347224502795" lon="11.980413891583792" id="-16196">
		<tag k="name" v="Høgmyra" />
		<tag k="natural" v="wetland" />
		<tag k="ssr:stedsnr" v="411415" />
	</node>
	<node lat="59.90156388748228" lon="11.97201389428654" id="-16201">
		<tag k="name" v="Rudskogen" />
		<tag k="place" v="locality" />
		<tag k="ssr:stedsnr" v="412018" />
	</node>
	<node lat="60.08313888583208" lon="12.223683334805505" id="-16209">
		<tag k="name" v="Langemyra" />
		<tag k="natural" v="wetland" />
		<tag k="ssr:stedsnr" v="412145" />
	</node>
	<node lat="59.9179111120753" lon="12.039744436366913" id="-16212">
		<tag k="name" v="Sætermyra" />
		<tag k="natural" v="wetland" />
		<tag k="ssr:stedsnr" v="412300" />
	</node>
	<node lat="59.89314722321817" lon="11.898144449118844" id="-16215">
		<tag k="name" v="Langmyra" />
		<tag k="natural" v="wetland" />
		<tag k="ssr:stedsnr" v="412599" />
	</node>
	<node lat="59.904083330913686" lon="11.933594436736046" id="-16216">
		<tag k="name" v="Fuglemyra" />
		<tag k="natural" v="wetland" />
		<tag k="ssr:stedsnr" v="412600" />
	</node>
	<node lat="60.08529722663848" lon="12.02218611337819" id="-16217">
		<tag k="name" v="Øyetjennmyra" />
		<tag k="natural" v="wetland" />
		<tag k="ssr:stedsnr" v="412338" />
	</node>
	<node lat="59.96277222155714" lon="12.229263893467733" id="-16219">
		<tag k="name" v="Deldalsbekken" />
		<tag k="natural" v="wetland" />
		<tag k="ssr:stedsnr" v="412403" />
	</node>
	<node lat="60.004152781756574" lon="12.292977778912173" id="-16224">
		<tag k="name" v="Andersberget" />
		<tag k="place" v="locality" />
		<tag k="ssr:stedsnr" v="412818" />
	</node>
	<node lat="60.06194166246259" lon="11.860116664066851" id="-16227">
		<tag k="name" v="Dikemyra" />
		<tag k="natural" v="wetland" />
		<tag k="ssr:stedsnr" v="412847" />
	</node>
	<node lat="59.96914444022372" lon="12.02180556320838" id="-16239">
		<tag k="name" v="Dolpene" />
		<tag k="natural" v="wetland" />
		<tag k="ssr:stedsnr" v="490425" />
	</node>
	<node lat="60.07987777956969" lon="11.95515277278352" id="-16249">
		<tag k="alt_name" v="Bruråsmyra, nordre" />
		<tag k="name" v="Nordre Bruråsmyra" />
		<tag k="natural" v="wetland" />
		<tag k="ssr:stedsnr" v="490758" />
	</node>
	<node lat="59.96236666451403" lon="12.237863887044524" id="-16258">
		<tag k="name" v="Nevjenmyra" />
		<tag k="natural" v="wetland" />
		<tag k="ssr:stedsnr" v="430206" />
	</node>
	<node lat="59.959005551278054" lon="12.317338884906835" id="-16259">
		<tag k="name" v="Moltemyra" />
		<tag k="natural" v="wetland" />
		<tag k="ssr:stedsnr" v="430212" />
	</node>
	<node lat="60.07044999773483" lon="12.085024991062891" id="-16269">
		<tag k="name" v="Kloppmyra" />
		<tag k="natural" v="wetland" />
		<tag k="ssr:stedsnr" v="430703" />
	</node>
	<node lat="60.05523888788089" lon="11.911877772641772" id="-16270">
		<tag k="name" v="Blekktjennmyra" />
		<tag k="natural" v="wetland" />
		<tag k="ssr:stedsnr" v="430711" />
	</node>
	<node lat="60.100449997910324" lon="12.226524992401107" id="-16275">
		<tag k="name" v="Kafallmyra" />
		<tag k="natural" v="wetland" />
		<tag k="ssr:stedsnr" v="430916" />
	</node>
	<node lat="60.11076111122398" lon="12.269383330996758" id="-16276">
		<tag k="name" v="Slåttmyra" />
		<tag k="natural" v="wetland" />
		<tag k="ssr:stedsnr" v="430918" />
	</node>
	<node lat="59.89423333548183" lon="11.916097220794963" id="-16280">
		<tag k="name" v="Storemåsan" />
		<tag k="natural" v="wetland" />
		<tag k="ssr:stedsnr" v="431195" />
	</node>
	<node lat="59.904041669307745" lon="12.15768610312669" id="-16281">
		<tag k="name" v="Mastmyra" />
		<tag k="natural" v="wetland" />
		<tag k="ssr:stedsnr" v="431201" />
	</node>
	<node lat="59.85655555858085" lon="11.838325001008657" id="-16291">
		<tag k="alt_name" v="Grønmyra" />
		<tag k="loc_name" v="Grønnmyra" />
		<tag k="name" v="Grønemyr" />
		<tag k="natural" v="wetland" />
		<tag k="ssr:stedsnr" v="672137" />
	</node>
	<node lat="60.01212500192033" lon="11.898830547607016" id="-16300">
		<tag k="alt_name" v="Østre Fuglemyra" />
		<tag k="name" v="Fuglemyra" />
		<tag k="natural" v="wetland" />
		<tag k="ssr:stedsnr" v="672875" />
	</node>
	<node lat="59.99124315381506" lon="12.07213898703505" id="-16319">
		<tag k="fixme" v="multiple name tags, choose one and add the other to alt_name" />
		<tag k="name" v="Vintermyra;Bjørnstadmyra" />
		<tag k="natural" v="wetland" />
		<tag k="ssr:stedsnr" v="673386" />
	</node>
	<node lat="60.14280000450069" lon="12.148627774459944" id="-16328">
		<tag k="name" v="Hellerudmyra" />
		<tag k="natural" v="wetland" />
		<tag k="ssr:stedsnr" v="673596" />
	</node>
	<node lat="60.065763891007514" lon="11.951886108600068" id="-16329">
		<tag k="name" v="Søndre Nysætermyra" />
		<tag k="natural" v="wetland" />
		<tag k="ssr:stedsnr" v="461170" />
	</node>
	<node lat="59.94308888760845" lon="12.252355562209784" id="-16335">
		<tag k="name" v="Lindalsmyra" />
		<tag k="natural" v="wetland" />
		<tag k="ssr:stedsnr" v="472071" />
	</node>
	<node lat="59.952761109438754" lon="12.247955556256896" id="-16337">
		<tag k="name" v="Toppermyra" />
		<tag k="natural" v="wetland" />
		<tag k="ssr:stedsnr" v="472080" />
	</node>
	<node lat="60.047413890416045" lon="12.197963881203432" id="-16338">
		<tag k="name" v="Kvitmosemyra" />
		<tag k="natural" v="wetland" />
		<tag k="ssr:stedsnr" v="472203" />
	</node>
	<node lat="60.053200002861495" lon="12.076491666830004" id="-16347">
		<tag k="name" v="Fuglemyra" />
		<tag k="natural" v="wetland" />
		<tag k="ssr:stedsnr" v="472403" />
	</node>
	<node lat="60.0072694461061" lon="12.15075000892485" id="-16348">
		<tag k="loc_name" v="Tjennsmyra" />
		<tag k="name" v="Kjensmyra" />
		<tag k="natural" v="wetland" />
		<tag k="ssr:stedsnr" v="472405" />
	</node>
	<node lat="60.10609166536483" lon="12.167116662935806" id="-16352">
		<tag k="name" v="Vesle Fjellmyra" />
		<tag k="natural" v="wetland" />
		<tag k="ssr:stedsnr" v="472487" />
	</node>
	<node lat="60.00987777345508" lon="12.20620832872842" id="-16363">
		<tag k="name" v="Gunhildsmyra" />
		<tag k="natural" v="wetland" />
		<tag k="ssr:stedsnr" v="472881" />
	</node>
	<node lat="60.06558889284953" lon="11.981633324801063" id="-16364">
		<tag k="name" v="Grautdalen" />
		<tag k="natural" v="wetland" />
		<tag k="ssr:stedsnr" v="472919" />
	</node>
	<node lat="59.878688891406824" lon="11.839027778825514" id="-16365">
		<tag k="name" v="Vestre Leamyra" />
		<tag k="natural" v="wetland" />
		<tag k="ssr:stedsnr" v="472946" />
	</node>
	<node lat="59.99472500394253" lon="12.129444439723258" id="-16367">
		<tag k="name" v="Skotterudmyra" />
		<tag k="natural" v="wetland" />
		<tag k="ssr:stedsnr" v="472978" />
	</node>
	<node lat="60.124152777683896" lon="12.207330548202883" id="-16371">
		<tag k="name" v="Høgdemyra" />
		<tag k="natural" v="wetland" />
		<tag k="ssr:stedsnr" v="473506" />
	</node>
	<node lat="60.11173611509562" lon="12.248077784704599" id="-16385">
		<tag k="name" v="Mellommyra" />
		<tag k="natural" v="wetland" />
		<tag k="ssr:stedsnr" v="490919" />
	</node>
	<node lat="60.13685278033476" lon="12.176074999866154" id="-16405">
		<tag k="name" v="Gåsvikmyra" />
		<tag k="natural" v="wetland" />
		<tag k="ssr:stedsnr" v="532874" />
	</node>
	<node lat="59.983133332895" lon="12.017894442763838" id="-16407">
		<tag k="loc_name" v="Djupdalsmyra" />
		<tag k="name" v="Jupdalsmyra" />
		<tag k="natural" v="wetland" />
		<tag k="ssr:stedsnr" v="532969" />
	</node>
	<node lat="60.01140833493591" lon="11.961327777875866" id="-16411">
		<tag k="name" v="Gruvemyra" />
		<tag k="natural" v="wetland" />
		<tag k="ssr:stedsnr" v="533303" />
	</node>
	<node lat="59.989344443193566" lon="11.891577783841095" id="-16412">
		<tag k="name" v="Brendlimyra" />
		<tag k="natural" v="wetland" />
		<tag k="ssr:stedsnr" v="533311" />
	</node>
	<node lat="59.971269447068146" lon="11.891172224041375" id="-16421">
		<tag k="name" v="Støtjennmyra" />
		<tag k="natural" v="wetland" />
		<tag k="ssr:stedsnr" v="533284" />
	</node>
	<node lat="59.91398610852541" lon="11.82171111980995" id="-16422">
		<tag k="name" v="Løvhøgdmyra" />
		<tag k="natural" v="wetland" />
		<tag k="ssr:stedsnr" v="533470" />
	</node>
	<node lat="60.05281111130245" lon="12.12389999187491" id="-16424">
		<tag k="name" v="Skråmyra" />
		<tag k="natural" v="wetland" />
		<tag k="ssr:stedsnr" v="533514" />
	</node>
	<node lat="60.008158336301115" lon="12.28827499898328" id="-16430">
		<tag k="name" v="Margretemyra" />
		<tag k="natural" v="wetland" />
		<tag k="ssr:stedsnr" v="533870" />
	</node>
	<node lat="60.0289999974526" lon="11.989516658681453" id="-16432">
		<tag k="name" v="Øvre Stakmyra" />
		<tag k="natural" v="wetland" />
		<tag k="ssr:stedsnr" v="533928" />
	</node>
	<node lat="59.932119444528404" lon="11.890975003334889" id="-16443">
		<tag k="name" v="Villmyra" />
		<tag k="natural" v="wetland" />
		<tag k="ssr:stedsnr" v="551347" />
	</node>
	<node lat="59.944205558486175" lon="11.935630562812873" id="-16445">
		<tag k="name" v="Myrmyra" />
		<tag k="natural" v="wetland" />
		<tag k="ssr:stedsnr" v="551295" />
	</node>
	<node lat="60.0833472224114" lon="11.996652782277701" id="-16460">
		<tag k="name" v="Bruksmyra" />
		<tag k="natural" v="wetland" />
		<tag k="ssr:stedsnr" v="593106" />
	</node>
	<node lat="60.081652774954335" lon="11.993930549287617" id="-16461">
		<tag k="name" v="Blantjennsmyra" />
		<tag k="natural" v="wetland" />
		<tag k="ssr:stedsnr" v="593115" />
	</node>
	<node lat="59.96914166317197" lon="12.275175001902626" id="-16464">
		<tag k="name" v="Kampemyra" />
		<tag k="natural" v="wetland" />
		<tag k="ssr:stedsnr" v="593004" />
	</node>
	<node lat="60.09200277502957" lon="12.092469444575881" id="-16476">
		<tag k="name" v="Saumyrene" />
		<tag k="natural" v="wetland" />
		<tag k="ssr:stedsnr" v="593454" />
	</node>
	<node lat="60.06359721997204" lon="11.927336114304868" id="-16481">
		<tag k="name" v="Tjæregravmyra" />
		<tag k="natural" v="wetland" />
		<tag k="ssr:stedsnr" v="593793" />
	</node>
	<node lat="60.02584166772995" lon="12.154702784336052" id="-16485">
		<tag k="name" v="Fuglemyra" />
		<tag k="natural" v="wetland" />
		<tag k="ssr:stedsnr" v="593867" />
	</node>
	<node lat="59.93856111104723" lon="11.884652780650992" id="-16512">
		<tag k="name" v="Halsemyra" />
		<tag k="natural" v="wetland" />
		<tag k="ssr:stedsnr" v="612277" />
	</node>
	<node lat="60.04507499715518" lon="11.922755556520313" id="-16520">
		<tag k="name" v="Saumyra" />
		<tag k="natural" v="wetland" />
		<tag k="ssr:stedsnr" v="612666" />
	</node>
	<node lat="60.0098722242477" lon="12.2523166697229" id="-16532">
		<tag k="name" v="Kivbråtadalen" />
		<tag k="place" v="locality" />
		<tag k="ssr:stedsnr" v="654113" />
	</node>
	<node lat="59.944333334343085" lon="12.124633334718341" id="-16538">
		<tag k="name" v="Korsåsmyra" />
		<tag k="natural" v="wetland" />
		<tag k="ssr:stedsnr" v="654033" />
	</node>
	<node lat="59.9591388903058" lon="12.20803888978362" id="-16539">
		<tag k="name" v="Fjøsmyra" />
		<tag k="natural" v="wetland" />
		<tag k="ssr:stedsnr" v="654034" />
	</node>
	<node lat="59.895888888258675" lon="12.076824995617937" id="-16541">
		<tag k="name" v="Vintermyra" />
		<tag k="natural" v="wetland" />
		<tag k="ssr:stedsnr" v="654086" />
	</node>
	<node lat="59.9774250016514" lon="11.916411115303841" id="-16543">
		<tag k="name" v="Askeruddulpa" />
		<tag k="natural" v="wetland" />
		<tag k="ssr:stedsnr" v="654287" />
	</node>
	<node lat="60.07630555376937" lon="11.926055553254999" id="-16547">
		<tag k="name" v="Mastmyra" />
		<tag k="natural" v="wetland" />
		<tag k="ssr:stedsnr" v="654503" />
	</node>
	<node lat="60.04069444269822" lon="12.071686107472548" id="-16549">
		<tag k="name" v="Raumyrene" />
		<tag k="natural" v="wetland" />
		<tag k="ssr:stedsnr" v="654512" />
	</node>
	<node lat="60.10716944825892" lon="12.149041666438219" id="-16550">
		<tag k="name" v="Tekstebakkmyra" />
		<tag k="natural" v="wetland" />
		<tag k="ssr:stedsnr" v="654534" />
	</node>
	<node lat="60.094533332483685" lon="12.083411119368943" id="-16551">
		<tag k="name" v="Mellemtjennsmyra" />
		<tag k="natural" v="wetland" />
		<tag k="ssr:stedsnr" v="654538" />
	</node>
	<node lat="60.02334444077602" lon="11.924002770759577" id="-16555">
		<tag k="name" v="Stutaugmyra" />
		<tag k="natural" v="wetland" />
		<tag k="ssr:stedsnr" v="654642" />
	</node>
	<node lat="59.84604722314298" lon="11.838113886545958" id="-16557">
		<tag k="name" v="Håkonslund" />
		<tag k="place" v="locality" />
		<tag k="ssr:stedsnr" v="654693" />
	</node>
	<node lat="60.06083611305497" lon="11.950719441093126" id="-16559">
		<tag k="name" v="Hundemyrene" />
		<tag k="natural" v="wetland" />
		<tag k="ssr:stedsnr" v="654834" />
	</node>
	<node lat="59.95849166695902" lon="12.230394445759854" id="-16596">
		<tag k="name" v="Magnormyra" />
		<tag k="natural" v="wetland" />
		<tag k="ssr:stedsnr" v="688232" />
	</node>
	<node lat="59.99848333220178" lon="12.248888893716977" id="-16600">
		<tag k="name" v="Løvlimyra" />
		<tag k="natural" v="wetland" />
		<tag k="ssr:stedsnr" v="897036" />
	</node>
	<node lat="60.07783611412266" lon="12.23235833613485" id="-16601">
		<tag k="name" v="Dulpa" />
		<tag k="natural" v="wetland" />
		<tag k="ssr:stedsnr" v="897037" />
	</node>
	<node lat="60.06039722603114" lon="12.019302777076666" id="-16602">
		<tag k="name" v="Sagåsmyra" />
		<tag k="natural" v="wetland" />
		<tag k="ssr:stedsnr" v="897070" />
	</node>
	<node lat="60.01309166372429" lon="12.292816667725011" id="-16604">
		<tag k="name" v="Engermyra" />
		<tag k="natural" v="wetland" />
		<tag k="ssr:stedsnr" v="897129" />
	</node>
	<node lat="60.03064722076096" lon="12.260122225313339" id="-16606">
		<tag k="name" v="Gravliberget" />
		<tag k="place" v="locality" />
		<tag k="ssr:stedsnr" v="897072" />
	</node>
	<node lat="60.037816668802684" lon="11.975336114329906" id="-16607">
		<tag k="name" v="Bjørndalen" />
		<tag k="natural" v="wetland" />
		<tag k="ssr:stedsnr" v="897094" />
	</node>
	<node lat="60.053875000970564" lon="12.213719448170858" id="-16609">
		<tag k="name" v="Sætermyra" />
		<tag k="natural" v="wetland" />
		<tag k="ssr:stedsnr" v="897198" />
	</node>
	<node lat="60.05669444054856" lon="12.202686115745895" id="-16610">
		<tag k="name" v="Kavelbrumyra" />
		<tag k="natural" v="wetland" />
		<tag k="ssr:stedsnr" v="897199" />
	</node>
	<node lat="59.965519442861286" lon="11.886494436257218" id="-16611">
		<tag k="name" v="Snøplogmyra" />
		<tag k="natural" v="wetland" />
		<tag k="ssr:stedsnr" v="897285" />
	</node>
	<node lat="60.05351110843266" lon="12.013216671188998" id="-16618">
		<tag k="name" v="Løvskog" />
		<tag k="place" v="locality" />
		<tag k="ssr:stedsnr" v="897336" />
	</node>
	<node lat="60.07136944467584" lon="12.0001333359677" id="-16619">
		<tag k="name" v="Vinvølmyra" />
		<tag k="natural" v="wetland" />
		<tag k="ssr:stedsnr" v="897345" />
	</node>
	<node lat="60.01571666693003" lon="12.102402782882159" id="-16621">
		<tag k="name" v="Fuglemyra" />
		<tag k="natural" v="wetland" />
		<tag k="ssr:stedsnr" v="897401" />
	</node>
	<node lat="59.90648610692558" lon="11.815761113003" id="-16624">
		<tag k="name" v="Søndre Bolskog" />
		<tag k="place" v="locality" />
		<tag k="ssr:stedsnr" v="897447" />
	</node>
	<node lat="59.89473611292834" lon="11.836958324613809" id="-16625">
		<tag k="name" v="Krokstadmyra" />
		<tag k="natural" v="wetland" />
		<tag k="ssr:stedsnr" v="897449" />
	</node>
	<node lat="60.126641668071784" lon="12.124399991760678" id="-16627">
		<tag k="name" v="Delmyra" />
		<tag k="natural" v="wetland" />
		<tag k="ssr:stedsnr" v="897494" />
	</node>
	<node lat="59.92163889014142" lon="11.829758330175888" id="-16634">
		<tag k="name" v="Mauråsmyra" />
		<tag k="natural" v="wetland" />
		<tag k="ssr:stedsnr" v="897696" />
	</node>
	<node lat="60.01130555826413" lon="11.939400009041943" id="-16636">
		<tag k="name" v="Svarttjennmyra" />
		<tag k="natural" v="wetland" />
		<tag k="ssr:stedsnr" v="897758" />
	</node>
	<node lat="60.053480559268834" lon="12.185194452583234" id="-16649">
		<tag k="name" v="Høgåsmyra" />
		<tag k="natural" v="wetland" />
		<tag k="ssr:stedsnr" v="897886" />
	</node>
	<node lat="60.07088333416626" lon="11.870111110534097" id="-16659">
		<tag k="name" v="Grågåsmyra" />
		<tag k="natural" v="wetland" />
		<tag k="ssr:stedsnr" v="898608" />
	</node>
	<node lat="60.0233666671302" lon="12.0322777715728" id="-16675">
		<tag k="name" v="Merramyra" />
		<tag k="natural" v="wetland" />
		<tag k="ssr:stedsnr" v="715430" />
	</node>
	<node lat="60.02158055523024" lon="11.863536105829544" id="-16681">
		<tag k="name" v="Gråmyra" />
		<tag k="natural" v="wetland" />
		<tag k="ssr:stedsnr" v="715706" />
	</node>
	<node lat="59.940688889052254" lon="12.245436102863955" id="-16688">
		<tag k="name" v="Linåsmyra" />
		<tag k="natural" v="wetland" />
		<tag k="ssr:stedsnr" v="733057" />
	</node>
	<node lat="59.98422777727055" lon="12.315569447135509" id="-16696">
		<tag k="name" v="Stormyra" />
		<tag k="natural" v="wetland" />
		<tag k="ssr:stedsnr" v="733197" />
	</node>
	<node lat="60.01118333507557" lon="11.85654444198523" id="-16704">
		<tag k="name" v="Aurtjennsmyra" />
		<tag k="natural" v="wetland" />
		<tag k="ssr:stedsnr" v="733865" />
	</node>
	<node lat="60.12631388500164" lon="12.259694439353126" id="-16706">
		<tag k="name" v="Kjølamyra" />
		<tag k="natural" v="wetland" />
		<tag k="ssr:stedsnr" v="733935" />
	</node>
	<node lat="59.94515000176874" lon="11.877224994179725" id="-16711">
		<tag k="name" v="Korpemyra" />
		<tag k="natural" v="wetland" />
		<tag k="ssr:stedsnr" v="734303" />
	</node>
	<node lat="60.136027780943664" lon="12.15855832471463" id="-16715">
		<tag k="name" v="Grønkjølmyra" />
		<tag k="natural" v="wetland" />
		<tag k="ssr:stedsnr" v="734583" />
	</node>
	<node lat="60.02259444280827" lon="12.268758324603061" id="-16722">
		<tag k="name" v="Røsskjølmyra" />
		<tag k="natural" v="wetland" />
		<tag k="ssr:stedsnr" v="764005" />
	</node>
	<node lat="59.869138892089616" lon="11.842527780630913" id="-16725">
		<tag k="name" v="Østre Skjærtjennmyra" />
		<tag k="natural" v="wetland" />
		<tag k="ssr:stedsnr" v="775958" />
	</node>
	<node lat="60.041388884517126" lon="12.289922224091178" id="-16730">
		<tag k="name" v="Sandhulliene" />
		<tag k="place" v="locality" />
		<tag k="ssr:stedsnr" v="776169" />
	</node>
	<node lat="59.95706666521617" lon="12.075363895876707" id="-16733">
		<tag k="name" v="Langmyra" />
		<tag k="natural" v="wetland" />
		<tag k="ssr:stedsnr" v="776064" />
	</node>
	<node lat="59.99907500433305" lon="12.27944444219376" id="-16735">
		<tag k="name" v="Elgmyra" />
		<tag k="natural" v="wetland" />
		<tag k="ssr:stedsnr" v="776225" />
	</node>
	<node lat="60.02845555243041" lon="11.936333332487278" id="-16736">
		<tag k="name" v="Brennmyra" />
		<tag k="natural" v="wetland" />
		<tag k="ssr:stedsnr" v="776303" />
	</node>
	<node lat="59.888602777469096" lon="12.041236118165834" id="-16741">
		<tag k="name" v="Langmyra" />
		<tag k="natural" v="wetland" />
		<tag k="ssr:stedsnr" v="776519" />
	</node>
	<node lat="59.969375001421945" lon="11.860216669540776" id="-16743">
		<tag k="name" v="Gampemyra" />
		<tag k="natural" v="wetland" />
		<tag k="ssr:stedsnr" v="776455" />
	</node>
	<node lat="60.006991669004655" lon="11.937391661451995" id="-16750">
		<tag k="name" v="Ormehaugmyra" />
		<tag k="natural" v="wetland" />
		<tag k="ssr:stedsnr" v="776765" />
	</node>
	<node lat="60.07848889114508" lon="12.000050005995162" id="-16752">
		<tag k="name" v="Samuelsmyra" />
		<tag k="natural" v="wetland" />
		<tag k="ssr:stedsnr" v="776933" />
	</node>
	<node lat="59.95487777856197" lon="11.891866665721297" id="-16753">
		<tag k="name" v="Stubbhusmyra" />
		<tag k="natural" v="wetland" />
		<tag k="ssr:stedsnr" v="776656" />
	</node>
	<node lat="59.937233330123064" lon="11.920875004592208" id="-16756">
		<tag k="name" v="Orremyra" />
		<tag k="natural" v="wetland" />
		<tag k="ssr:stedsnr" v="794236" />
	</node>
	<node lat="60.06363888602608" lon="12.246397229628489" id="-16759">
		<tag k="name" v="Rundemyra" />
		<tag k="natural" v="wetland" />
		<tag k="ssr:stedsnr" v="794109" />
	</node>
	<node lat="59.8871500036993" lon="11.829077783206914" id="-16763">
		<tag k="name" v="Orremyra" />
		<tag k="natural" v="wetland" />
		<tag k="ssr:stedsnr" v="794171" />
	</node>
	<node lat="59.9506555573056" lon="11.930577780140364" id="-16769">
		<tag k="name" v="Kornmyra" />
		<tag k="natural" v="wetland" />
		<tag k="ssr:stedsnr" v="794267" />
	</node>
	<node lat="59.983263888673235" lon="12.018600006284819" id="-16771">
		<tag k="name" v="Djupdalsmyra" />
		<tag k="natural" v="wetland" />
		<tag k="ssr:stedsnr" v="794477" />
	</node>
	<node lat="60.11546944126208" lon="12.135836108665229" id="-16774">
		<tag k="name" v="Fetjarmyra" />
		<tag k="natural" v="wetland" />
		<tag k="ssr:stedsnr" v="794508" />
	</node>
	<node lat="59.962275001700384" lon="11.92094166495005" id="-16788">
		<tag k="name" v="Stormyra" />
		<tag k="natural" v="wetland" />
		<tag k="ssr:stedsnr" v="915419" />
	</node>
	<node lat="60.02333055700581" lon="11.975763882931506" id="-16791">
		<tag k="name" v="Havmyrene" />
		<tag k="natural" v="wetland" />
		<tag k="ssr:stedsnr" v="915634" />
	</node>
	<node lat="60.0217750043322" lon="12.142036114106208" id="-16804">
		<tag k="name" v="Lunderbymyra" />
		<tag k="natural" v="wetland" />
		<tag k="ssr:stedsnr" v="915865" />
	</node>
	<node lat="59.91460000382235" lon="12.200174993502854" id="-16812">
		<tag k="name" v="Lassemyra" />
		<tag k="natural" v="wetland" />
		<tag k="ssr:stedsnr" v="916164" />
	</node>
	<node lat="59.98433888918187" lon="11.903097225337266" id="-16820">
		<tag k="alt_name" v="Orremosen" />
		<tag k="loc_name" v="Orremåsan" />
		<tag k="name" v="Orremosan" />
		<tag k="natural" v="wetland" />
		<tag k="ssr:stedsnr" v="916507" />
	</node>
	<node lat="59.9138444476004" lon="11.858352786407382" id="-16832">
		<tag k="name" v="Nesmyra" />
		<tag k="natural" v="wetland" />
		<tag k="ssr:stedsnr" v="836682" />
	</node>
	<node lat="60.03141388614493" lon="11.832641673871029" id="-16833">
		<tag k="name" v="Raggetjennsmyra" />
		<tag k="natural" v="wetland" />
		<tag k="ssr:stedsnr" v="836686" />
	</node>
	<node lat="60.078788892331644" lon="11.977527779926836" id="-16844">
		<tag k="name" v="Brattfallmyra" />
		<tag k="natural" v="wetland" />
		<tag k="ssr:stedsnr" v="837084" />
	</node>
	<node lat="60.020075002604415" lon="12.265199993537287" id="-16848">
		<tag k="name" v="Ristjennhøgda" />
		<tag k="place" v="locality" />
		<tag k="ssr:stedsnr" v="837182" />
	</node>
	<node lat="60.01323333637427" lon="11.93070556043706" id="-16851">
		<tag k="name" v="Tjæregravmyra" />
		<tag k="natural" v="wetland" />
		<tag k="ssr:stedsnr" v="837304" />
	</node>
	<node lat="60.03795833730745" lon="11.911866665946706" id="-16853">
		<tag k="name" v="Skørvmyra" />
		<tag k="natural" v="wetland" />
		<tag k="ssr:stedsnr" v="837328" />
	</node>
	<node lat="59.91559722004731" lon="12.132336105062954" id="-16861">
		<tag k="name" v="Langgren" />
		<tag k="natural" v="wetland" />
		<tag k="ssr:stedsnr" v="837406" />
	</node>
	<node lat="60.00992221934616" lon="12.164402782590106" id="-16864">
		<tag k="name" v="Lørdagsbakkmyra" />
		<tag k="natural" v="wetland" />
		<tag k="ssr:stedsnr" v="837432" />
	</node>
	<node lat="60.0701833294985" lon="11.964808336251302" id="-16866">
		<tag k="name" v="Reisbråtamyra" />
		<tag k="natural" v="wetland" />
		<tag k="ssr:stedsnr" v="837485" />
	</node>
	<node lat="59.90139167097182" lon="11.820616671346354" id="-16867">
		<tag k="name" v="Mellemmyra" />
		<tag k="natural" v="wetland" />
		<tag k="ssr:stedsnr" v="837489" />
	</node>
	<node lat="59.93605000267647" lon="11.8395916694522" id="-16872">
		<tag k="name" v="Torkelsmyra" />
		<tag k="natural" v="wetland" />
		<tag k="ssr:stedsnr" v="837704" />
	</node>
	<node lat="60.11369444171504" lon="12.204333334033072" id="-16892">
		<tag k="name" v="Sætermyrene" />
		<tag k="natural" v="wetland" />
		<tag k="ssr:stedsnr" v="855510" />
	</node>
	<node lat="60.0636055529186" lon="11.85627777988664" id="-16898">
		<tag k="name" v="Høgmyra" />
		<tag k="natural" v="wetland" />
		<tag k="ssr:stedsnr" v="855620" />
	</node>
	<node lat="60.04467500291581" lon="12.017675003068556" id="-16903">
		<tag k="name" v="Fuglemyra" />
		<tag k="natural" v="wetland" />
		<tag k="ssr:stedsnr" v="855699" />
	</node>
	<node lat="60.024455559613955" lon="11.828561111833675" id="-16909">
		<tag k="name" v="Høgåsmyra" />
		<tag k="natural" v="wetland" />
		<tag k="ssr:stedsnr" v="893527" />
	</node>
	<node lat="60.034816667993496" lon="12.272002777562811" id="-16916">
		<tag k="name" v="Vesleenga" />
		<tag k="place" v="locality" />
		<tag k="ssr:stedsnr" v="897168" />
	</node>
	<node lat="60.089455554563614" lon="12.031463880069357" id="-16919">
		<tag k="name" v="Holmyra" />
		<tag k="natural" v="wetland" />
		<tag k="ssr:stedsnr" v="897424" />
	</node>
	<node lat="59.87818889231964" lon="11.863616670916688" id="-16924">
		<tag k="name" v="Vestre Almenning" />
		<tag k="place" v="locality" />
		<tag k="ssr:stedsnr" v="897522" />
	</node>
	<node lat="59.89331110750892" lon="11.85263055825573" id="-16927">
		<tag k="name" v="Kubeinsmyra" />
		<tag k="natural" v="wetland" />
		<tag k="ssr:stedsnr" v="897661" />
	</node>
	<node lat="60.03922777819077" lon="11.822372228555855" id="-16930">
		<tag k="name" v="De Røde Multer" />
		<tag k="natural" v="wetland" />
		<tag k="ssr:stedsnr" v="897674" />
	</node>
	<node lat="60.0078277821394" lon="11.860461108139727" id="-16936">
		<tag k="name" v="Inderåsmyra" />
		<tag k="natural" v="wetland" />
		<tag k="ssr:stedsnr" v="898465" />
	</node>
	<node lat="60.00508055205088" lon="12.155641671115387" id="-16956">
		<tag k="name" v="Veamyrene" />
		<tag k="natural" v="wetland" />
		<tag k="ssr:stedsnr" v="915844" />
	</node>
	<node lat="60.02288611178643" lon="12.204250004220462" id="-16957">
		<tag k="name" v="Kattlimyra" />
		<tag k="natural" v="wetland" />
		<tag k="ssr:stedsnr" v="915870" />
	</node>
	<node lat="60.0527611128925" lon="12.194455563228207" id="-16969">
		<tag k="name" v="Heimyra" />
		<tag k="natural" v="wetland" />
		<tag k="ssr:stedsnr" v="916720" />
	</node>
	<node lat="59.993361108152364" lon="11.921069436545858" id="-16976">
		<tag k="name" v="Kampetjennmyra" />
		<tag k="natural" v="wetland" />
		<tag k="ssr:stedsnr" v="957825" />
	</node>
	<node lat="59.95739166347142" lon="11.877922218830726" id="-16978">
		<tag k="name" v="Vesle Gravlimyra" />
		<tag k="natural" v="wetland" />
		<tag k="ssr:stedsnr" v="957842" />
	</node>
	<node lat="60.00964722439415" lon="12.019416664319737" id="-16980">
		<tag k="name" v="Raufjellmyra" />
		<tag k="natural" v="wetland" />
		<tag k="ssr:stedsnr" v="957944" />
	</node>
	<node lat="60.01844166704824" lon="12.101780564233103" id="-16998">
		<tag k="name" v="Rundhullet" />
		<tag k="natural" v="wetland" />
		<tag k="ssr:stedsnr" v="958507" />
	</node>
	<node lat="60.04086666473933" lon="12.01573888112839" id="-17000">
		<tag k="name" v="Nedre Tørkesmyra" />
		<tag k="natural" v="wetland" />
		<tag k="ssr:stedsnr" v="958515" />
	</node>
	<node lat="59.86773610882845" lon="11.84555000171656" id="-17010">
		<tag k="name" v="Mortensfloe" />
		<tag k="natural" v="wetland" />
		<tag k="ssr:stedsnr" v="958495" />
	</node>
	<node lat="60.0668277773333" lon="11.877277773819756" id="-17013">
		<tag k="name" v="Krokfurudøsset" />
		<tag k="natural" v="wetland" />
		<tag k="ssr:stedsnr" v="958618" />
	</node>
	<node lat="59.99248888650968" lon="12.184344440169038" id="-17019">
		<tag k="name" v="Døråsmyra" />
		<tag k="natural" v="wetland" />
		<tag k="ssr:stedsnr" v="958985" />
	</node>
	<node lat="59.94823055825972" lon="12.287588892430286" id="-17040">
		<tag k="name" v="Linnemyra" />
		<tag k="natural" v="wetland" />
		<tag k="ssr:stedsnr" v="5030" />
	</node>
	<node lat="59.97463888476878" lon="12.045549992959272" id="-17064">
		<tag k="name" v="Tobølmyra" />
		<tag k="natural" v="wetland" />
		<tag k="ssr:stedsnr" v="5441" />
	</node>
	<node lat="60.01203055454821" lon="12.088688893445589" id="-17070">
		<tag k="name" v="Rødbergsmyra" />
		<tag k="natural" v="wetland" />
		<tag k="ssr:stedsnr" v="5835" />
	</node>
	<node lat="59.941674996467775" lon="12.097399992642178" id="-17078">
		<tag k="name" v="Delmyra" />
		<tag k="natural" v="wetland" />
		<tag k="ssr:stedsnr" v="6399" />
	</node>
	<node lat="59.92145277748381" lon="11.951894446177608" id="-17085">
		<tag k="name" v="Langmyra" />
		<tag k="natural" v="wetland" />
		<tag k="ssr:stedsnr" v="47053" />
	</node>
	<node lat="60.010361115069415" lon="12.285038889907078" id="-17087">
		<tag k="name" v="Høgåsparken" />
		<tag k="place" v="locality" />
		<tag k="ssr:stedsnr" v="47130" />
	</node>
	<node lat="60.05610555343388" lon="12.199347226553781" id="-17092">
		<tag k="name" v="Svensteinmyra" />
		<tag k="natural" v="wetland" />
		<tag k="ssr:stedsnr" v="47191" />
	</node>
	<node lat="60.0545416646301" lon="12.167000002709242" id="-17100">
		<tag k="name" v="Skjørbergmyra" />
		<tag k="natural" v="wetland" />
		<tag k="ssr:stedsnr" v="47497" />
	</node>
	<node lat="60.06792777553957" lon="12.142141662666793" id="-17109">
		<tag k="name" v="Kvitmåsamyra" />
		<tag k="natural" v="wetland" />
		<tag k="ssr:stedsnr" v="47228" />
	</node>
	<node lat="60.023544443955664" lon="11.885591660220607" id="-17111">
		<tag k="name" v="Bertebrennmyra" />
		<tag k="natural" v="wetland" />
		<tag k="ssr:stedsnr" v="47327" />
	</node>
	<node lat="59.87474999792782" lon="11.835413881533116" id="-17120">
		<tag k="historic" v="shieling" />
		<tag k="name" v="Vestre Almenning" />
		<tag k="place" v="locality" />
		<tag k="ssr:stedsnr" v="47946" />
	</node>
	<node lat="60.042886110579154" lon="11.976938894291477" id="-17126">
		<tag k="name" v="Tverrmyra" />
		<tag k="natural" v="wetland" />
		<tag k="ssr:stedsnr" v="48064" />
	</node>
	<node lat="60.03524444238348" lon="12.255466665024253" id="-17134">
		<tag k="name" v="Løvåsberget" />
		<tag k="place" v="locality" />
		<tag k="ssr:stedsnr" v="48096" />
	</node>
	<node lat="60.05844999926185" lon="11.837913883405324" id="-17138">
		<tag k="name" v="Fjørhanamyra" />
		<tag k="natural" v="wetland" />
		<tag k="ssr:stedsnr" v="48226" />
	</node>
	<node lat="60.00610555246123" lon="12.263738892984687" id="-17139">
		<tag k="name" v="Kariheimet" />
		<tag k="place" v="locality" />
		<tag k="ssr:stedsnr" v="48163" />
	</node>
	<node lat="59.95435833196751" lon="11.880713879872127" id="-17141">
		<tag k="name" v="Nyfjellmyra" />
		<tag k="natural" v="wetland" />
		<tag k="ssr:stedsnr" v="48279" />
	</node>
	<node lat="59.983363892066556" lon="12.254544451278429" id="-17153">
		<tag k="name" v="Rogneråsmyra" />
		<tag k="natural" v="wetland" />
		<tag k="ssr:stedsnr" v="229122" />
	</node>
	<node lat="60.01938055508222" lon="11.99356945059253" id="-17154">
		<tag k="name" v="Brennemyrdalen" />
		<tag k="natural" v="wetland" />
		<tag k="ssr:stedsnr" v="48682" />
	</node>
	<node lat="60.03478610879452" lon="12.3132361041523" id="-17156">
		<tag k="name" v="Åstjennmyra" />
		<tag k="natural" v="wetland" />
		<tag k="ssr:stedsnr" v="48777" />
	</node>
	<node lat="59.89936944368197" lon="11.83588055632703" id="-17158">
		<tag k="name" v="Rundemyra" />
		<tag k="natural" v="wetland" />
		<tag k="ssr:stedsnr" v="48732" />
	</node>
	<node lat="59.95638610930835" lon="12.097180562829502" id="-17162">
		<tag k="name" v="Høgåsmyra" />
		<tag k="natural" v="wetland" />
		<tag k="ssr:stedsnr" v="48755" />
	</node>
	<node lat="60.01928333530509" lon="11.88719999935184" id="-17163">
		<tag k="name" v="Slåttemyra" />
		<tag k="natural" v="wetland" />
		<tag k="ssr:stedsnr" v="48819" />
	</node>
	<node lat="60.05361111234323" lon="12.250766668585523" id="-17170">
		<tag k="loc_name" v="Fjellsmyrdølpa" />
		<tag k="name" v="Fjelsmyrdølpa" />
		<tag k="natural" v="wetland" />
		<tag k="ssr:stedsnr" v="229178" />
	</node>
	<node lat="59.95733055142167" lon="12.266633329719683" id="-17171">
		<tag k="name" v="Fjørhanemyra" />
		<tag k="natural" v="wetland" />
		<tag k="ssr:stedsnr" v="229248" />
	</node>
	<node lat="59.860499998886716" lon="11.87500000275365" id="-17188">
		<tag k="name" v="Arnebråtemyra" />
		<tag k="natural" v="wetland" />
		<tag k="ssr:stedsnr" v="66129" />
	</node>
	<node lat="59.900550003336136" lon="11.908488887101276" id="-17189">
		<tag k="name" v="Bekketjennmåsaa" />
		<tag k="natural" v="wetland" />
		<tag k="ssr:stedsnr" v="66145" />
	</node>
	<node lat="60.01738055124935" lon="11.971474995001131" id="-17199">
		<tag k="alt_name" v="Blokktjennmyrene" />
		<tag k="name" v="Høghavmyra" />
		<tag k="natural" v="wetland" />
		<tag k="ssr:stedsnr" v="66635" />
	</node>
	<node lat="60.01141944500864" lon="12.1423277829435" id="-17205">
		<tag k="name" v="Grønmyra" />
		<tag k="natural" v="wetland" />
		<tag k="ssr:stedsnr" v="66839" />
	</node>
	<node lat="59.863780559249754" lon="11.860572214480623" id="-17207">
		<tag k="name" v="Langsmalemyra" />
		<tag k="natural" v="wetland" />
		<tag k="ssr:stedsnr" v="229263" />
	</node>
	<node lat="60.10796388650617" lon="12.25479444273457" id="-17211">
		<tag k="name" v="Gammelsætermyra" />
		<tag k="natural" v="wetland" />
		<tag k="ssr:stedsnr" v="229447" />
	</node>
	<node lat="59.91872357429952" lon="11.839415129148694" id="-17212">
		<tag k="name" v="Bukketjennmyra" />
		<tag k="natural" v="wetland" />
		<tag k="ssr:stedsnr" v="229450" />
	</node>
	<node lat="60.023150001582565" lon="12.32316665900922" id="-17216">
		<tag k="historic" v="shieling" />
		<tag k="name" v="Billingsøsætra" />
		<tag k="place" v="locality" />
		<tag k="ssr:stedsnr" v="97950" />
	</node>
	<node lat="60.07154166373065" lon="12.032763894983713" id="-17226">
		<tag k="name" v="Fjøsmyra" />
		<tag k="natural" v="wetland" />
		<tag k="ssr:stedsnr" v="108093" />
	</node>
	<node lat="60.071555554788894" lon="12.049394450385257" id="-17227">
		<tag k="name" v="Nordre Svarvemyra" />
		<tag k="natural" v="wetland" />
		<tag k="ssr:stedsnr" v="108231" />
	</node>
	<node lat="59.9017555541346" lon="12.122166659491748" id="-17231">
		<tag k="name" v="Hagmyra" />
		<tag k="natural" v="wetland" />
		<tag k="ssr:stedsnr" v="108065" />
	</node>
	<node lat="59.88799167077446" lon="12.04620555850944" id="-17233">
		<tag k="name" v="Gråmyra" />
		<tag k="natural" v="wetland" />
		<tag k="ssr:stedsnr" v="108152" />
	</node>
	<node lat="60.02790278116609" lon="12.29159166089835" id="-17235">
		<tag k="name" v="Delemyra" />
		<tag k="natural" v="wetland" />
		<tag k="ssr:stedsnr" v="108162" />
	</node>
	<node lat="60.003775003117525" lon="12.27515277937928" id="-17237">
		<tag k="name" v="Nesbråten" />
		<tag k="place" v="locality" />
		<tag k="ssr:stedsnr" v="108191" />
	</node>
	<node lat="60.04208055895971" lon="12.202508333837477" id="-17238">
		<tag k="name" v="Keisarmyra" />
		<tag k="natural" v="wetland" />
		<tag k="ssr:stedsnr" v="108198" />
	</node>
	<node lat="60.05300555749468" lon="12.274622226961293" id="-17240">
		<tag k="name" v="Steinurslimyra" />
		<tag k="natural" v="wetland" />
		<tag k="ssr:stedsnr" v="108246" />
	</node>
	<node lat="59.95377499808054" lon="12.266469439611358" id="-17241">
		<tag k="name" v="Meittjennmyra" />
		<tag k="natural" v="wetland" />
		<tag k="ssr:stedsnr" v="108247" />
	</node>
	<node lat="59.97245833582374" lon="12.254469436893489" id="-17243">
		<tag k="name" v="Måsamyra" />
		<tag k="natural" v="wetland" />
		<tag k="ssr:stedsnr" v="108252" />
	</node>
	<node lat="59.90709166412278" lon="12.003208330227345" id="-17246">
		<tag k="name" v="Lemmyra" />
		<tag k="natural" v="wetland" />
		<tag k="ssr:stedsnr" v="108338" />
	</node>
	<node lat="59.99653055371439" lon="11.991244453030887" id="-17248">
		<tag k="name" v="Knattmyra" />
		<tag k="natural" v="wetland" />
		<tag k="ssr:stedsnr" v="108343" />
	</node>
	<node lat="60.03289444769937" lon="11.990377777376535" id="-17250">
		<tag k="name" v="Høgåsmyra" />
		<tag k="natural" v="wetland" />
		<tag k="ssr:stedsnr" v="108351" />
	</node>
	<node lat="60.06614166571191" lon="12.05032222093336" id="-17252">
		<tag k="name" v="Søndre Svarvemyra" />
		<tag k="natural" v="wetland" />
		<tag k="ssr:stedsnr" v="108361" />
	</node>
	<node lat="60.1040194458977" lon="12.147055554666274" id="-17259">
		<tag k="name" v="Pramhusmyra" />
		<tag k="natural" v="wetland" />
		<tag k="ssr:stedsnr" v="108554" />
	</node>
	<node lat="60.126283335281975" lon="12.150291675242773" id="-17260">
		<tag k="name" v="Rundmyra" />
		<tag k="natural" v="wetland" />
		<tag k="ssr:stedsnr" v="108555" />
	</node>
	<node lat="59.87184444652892" lon="11.875791674590754" id="-17262">
		<tag k="name" v="Hyttemyra" />
		<tag k="natural" v="wetland" />
		<tag k="ssr:stedsnr" v="108564" />
	</node>
	<node lat="59.962422220014766" lon="11.895586114333092" id="-17264">
		<tag k="name" v="Syltemyra" />
		<tag k="natural" v="wetland" />
		<tag k="ssr:stedsnr" v="108850" />
	</node>
	<node lat="59.91106389276094" lon="11.862333335146978" id="-17267">
		<tag k="name" v="Engmyra" />
		<tag k="natural" v="wetland" />
		<tag k="ssr:stedsnr" v="108753" />
	</node>
	<node lat="59.859350004444245" lon="11.837202777931001" id="-17270">
		<tag k="name" v="Søndre Sjelåsætermosen" />
		<tag k="natural" v="wetland" />
		<tag k="ssr:stedsnr" v="108948" />
	</node>
	<node lat="59.850855553660246" lon="11.839719451833247" id="-17273">
		<tag k="name" v="Kutjennmosen" />
		<tag k="natural" v="wetland" />
		<tag k="ssr:stedsnr" v="108955" />
	</node>
	<node lat="60.02671944035471" lon="11.873344444349335" id="-17276">
		<tag k="name" v="Olafsmyra" />
		<tag k="natural" v="wetland" />
		<tag k="ssr:stedsnr" v="109618" />
	</node>
	<node lat="59.903797224130514" lon="11.820730551168193" id="-17277">
		<tag k="name" v="Langbrumyra" />
		<tag k="natural" v="wetland" />
		<tag k="ssr:stedsnr" v="109461" />
	</node>
	<node lat="59.92403888605767" lon="12.136622229535046" id="-17286">
		<tag k="name" v="Kirkebergmyra" />
		<tag k="natural" v="wetland" />
		<tag k="ssr:stedsnr" v="109963" />
	</node>
	<node lat="60.02761666900081" lon="12.228752785448979" id="-17304">
		<tag k="name" v="Sætermyra" />
		<tag k="natural" v="wetland" />
		<tag k="ssr:stedsnr" v="126039" />
	</node>
	<node lat="59.90976110751833" lon="11.850333328966604" id="-17306">
		<tag k="alt_name" v="Torkilsmyra" />
		<tag k="name" v="Torkildsmyra" />
		<tag k="natural" v="wetland" />
		<tag k="ssr:stedsnr" v="126316" />
	</node>
	<node lat="59.975811115302115" lon="11.848194445611774" id="-17320">
		<tag k="name" v="Saumyrene" />
		<tag k="natural" v="wetland" />
		<tag k="ssr:stedsnr" v="127524" />
	</node>
	<node lat="60.070769448274696" lon="11.953880563054769" id="-17329">
		<tag k="name" v="Nordre Nysætermyra" />
		<tag k="natural" v="wetland" />
		<tag k="ssr:stedsnr" v="157140" />
	</node>
	<node lat="60.011002780498195" lon="12.322322229416507" id="-17332">
		<tag k="name" v="Vintermyra" />
		<tag k="natural" v="wetland" />
		<tag k="ssr:stedsnr" v="229424" />
	</node>
	<node lat="59.99245832933012" lon="12.20434167258338" id="-17336">
		<tag k="name" v="Arnenga" />
		<tag k="natural" v="wetland" />
		<tag k="ssr:stedsnr" v="168879" />
	</node>
	<node lat="60.1362944475899" lon="12.16495000739593" id="-17337">
		<tag k="name" v="Sætermyra" />
		<tag k="natural" v="wetland" />
		<tag k="ssr:stedsnr" v="168882" />
	</node>
	<node lat="60.06483055217839" lon="12.17068610553611" id="-17339">
		<tag k="name" v="Lademyra" />
		<tag k="natural" v="wetland" />
		<tag k="ssr:stedsnr" v="168495" />
	</node>
	<node lat="60.067036109971966" lon="11.983088882512922" id="-17341">
		<tag k="name" v="Hestemyra" />
		<tag k="natural" v="wetland" />
		<tag k="ssr:stedsnr" v="168929" />
	</node>
	<node lat="59.98245555650554" lon="12.2666083407551" id="-17346">
		<tag k="name" v="Geithøla" />
		<tag k="natural" v="wetland" />
		<tag k="ssr:stedsnr" v="169181" />
	</node>
	<node lat="60.00301944437444" lon="12.280138881765318" id="-17347">
		<tag k="name" v="Eriksmyra" />
		<tag k="natural" v="wetland" />
		<tag k="ssr:stedsnr" v="169184" />
	</node>
	<node lat="60.07592222578737" lon="12.203780563843933" id="-17349">
		<tag k="name" v="Langmyra" />
		<tag k="natural" v="wetland" />
		<tag k="ssr:stedsnr" v="169193" />
	</node>
	<node lat="60.03311110866508" lon="12.202013883465339" id="-17350">
		<tag k="name" v="Myrkjølen" />
		<tag k="natural" v="wetland" />
		<tag k="ssr:stedsnr" v="169196" />
	</node>
	<node lat="60.045244446357444" lon="11.842402778224072" id="-17351">
		<tag k="name" v="Sleppemyra" />
		<tag k="natural" v="wetland" />
		<tag k="ssr:stedsnr" v="169235" />
	</node>
	<node lat="59.903358331154145" lon="12.12824444109609" id="-17359">
		<tag k="name" v="Lassefallmyra" />
		<tag k="natural" v="wetland" />
		<tag k="ssr:stedsnr" v="169139" />
	</node>
	<node lat="60.003527781879725" lon="11.943661112333979" id="-17369">
		<tag k="name" v="Vesleteigen" />
		<tag k="natural" v="wetland" />
		<tag k="ssr:stedsnr" v="169296" />
	</node>
	<node lat="60.01593333758907" lon="12.151202775298612" id="-17375">
		<tag k="name" v="Gørrmyra" />
		<tag k="natural" v="wetland" />
		<tag k="ssr:stedsnr" v="169427" />
	</node>
	<node lat="59.91703055965596" lon="12.20806666477868" id="-17376">
		<tag k="name" v="Fattiglemyra" />
		<tag k="natural" v="wetland" />
		<tag k="ssr:stedsnr" v="169439" />
	</node>
	<node lat="59.884288893325" lon="11.865219436662214" id="-17386">
		<tag k="name" v="Slåttemyrene" />
		<tag k="natural" v="wetland" />
		<tag k="ssr:stedsnr" v="169552" />
	</node>
	<node lat="59.897197220360255" lon="11.935224991582341" id="-17387">
		<tag k="name" v="Åsmyra" />
		<tag k="natural" v="wetland" />
		<tag k="ssr:stedsnr" v="169626" />
	</node>
	<node lat="60.0231611143973" lon="11.942758332545615" id="-17388">
		<tag k="name" v="Sløkerudmyra" />
		<tag k="natural" v="wetland" />
		<tag k="ssr:stedsnr" v="169645" />
	</node>
	<node lat="59.91806389095906" lon="12.143255555124293" id="-17393">
		<tag k="name" v="Nedre Kumyra" />
		<tag k="natural" v="wetland" />
		<tag k="ssr:stedsnr" v="169760" />
	</node>
	<node lat="59.987383330626244" lon="12.019105559733555" id="-17401">
		<tag k="name" v="Blautholta" />
		<tag k="natural" v="wetland" />
		<tag k="ssr:stedsnr" v="169997" />
	</node>
	<node lat="59.94446944108913" lon="12.031141674567806" id="-17422">
		<tag k="name" v="Krabbemyra" />
		<tag k="natural" v="wetland" />
		<tag k="ssr:stedsnr" v="187266" />
	</node>
	<node lat="60.058300001614285" lon="11.967800001665227" id="-17429">
		<tag k="name" v="Høgmyra" />
		<tag k="natural" v="wetland" />
		<tag k="ssr:stedsnr" v="187623" />
	</node>
	<node lat="60.07692499719489" lon="12.041375001281484" id="-17433">
		<tag k="alt_name" v="Nordre Grasmomyra;Søndre Grasmomyra" />
		<tag k="name" v="Grasmomyra" />
		<tag k="natural" v="wetland" />
		<tag k="ssr:stedsnr" v="187668" />
	</node>
	<node lat="59.971649996094264" lon="11.914174991829544" id="-17441">
		<tag k="name" v="Dolpa" />
		<tag k="natural" v="wetland" />
		<tag k="ssr:stedsnr" v="188530" />
	</node>
	<node lat="60.06656666930031" lon="11.999738897437501" id="-17452">
		<tag k="name" v="Grimstjennmyra" />
		<tag k="natural" v="wetland" />
		<tag k="ssr:stedsnr" v="279154" />
	</node>
	<node lat="59.91019444519528" lon="12.17195277156919" id="-17453">
		<tag k="name" v="Kvernmyra" />
		<tag k="natural" v="wetland" />
		<tag k="ssr:stedsnr" v="290087" />
	</node>
	<node lat="59.976700002422426" lon="12.210236107840426" id="-17456">
		<tag k="name" v="Lauvnesskogen" />
		<tag k="place" v="locality" />
		<tag k="ssr:stedsnr" v="290044" />
	</node>
	<node lat="60.018561113313105" lon="12.258358330074191" id="-17461">
		<tag k="name" v="Kjerstadrøysa" />
		<tag k="natural" v="stone" />
		<tag k="ssr:stedsnr" v="290147" />
	</node>
	<node lat="59.9736000033322" lon="12.285988895177717" id="-17462">
		<tag k="name" v="Stråtjenndulpa" />
		<tag k="natural" v="wetland" />
		<tag k="ssr:stedsnr" v="290156" />
	</node>
	<node lat="59.98231944648693" lon="11.989263892349582" id="-17484">
		<tag k="name" v="Spellutmyra" />
		<tag k="natural" v="wetland" />
		<tag k="ssr:stedsnr" v="290901" />
	</node>
	<node lat="59.98512778138816" lon="12.324830563143378" id="-17485">
		<tag k="name" v="Knottåsmyra" />
		<tag k="natural" v="wetland" />
		<tag k="ssr:stedsnr" v="290754" />
	</node>
	<node lat="60.08737499721834" lon="12.254772218360666" id="-17488">
		<tag k="name" v="Korsmyra" />
		<tag k="natural" v="wetland" />
		<tag k="ssr:stedsnr" v="290867" />
	</node>
	<node lat="60.04112221907284" lon="12.04358055555611" id="-17504">
		<tag k="name" v="Stablemyra" />
		<tag k="natural" v="wetland" />
		<tag k="ssr:stedsnr" v="291516" />
	</node>
	<node lat="60.06787222374734" lon="11.861355551601603" id="-17506">
		<tag k="name" v="Djupdalsmyra" />
		<tag k="natural" v="wetland" />
		<tag k="ssr:stedsnr" v="291611" />
	</node>
	<node lat="59.891927773693034" lon="11.919630560018147" id="-17508">
		<tag k="name" v="Størmyra" />
		<tag k="natural" v="wetland" />
		<tag k="ssr:stedsnr" v="291653" />
	</node>
	<node lat="60.02816666288644" lon="11.884552777567784" id="-17509">
		<tag k="name" v="Gaupholtmyra" />
		<tag k="natural" v="wetland" />
		<tag k="ssr:stedsnr" v="291668" />
	</node>
	<node lat="60.012086107763224" lon="11.886963894706104" id="-17511">
		<tag k="name" v="Vestre Fuglemyra" />
		<tag k="natural" v="wetland" />
		<tag k="ssr:stedsnr" v="291840" />
	</node>
	<node lat="60.10947500058343" lon="12.16366110735375" id="-17519">
		<tag k="name" v="Fjellsmyra" />
		<tag k="natural" v="wetland" />
		<tag k="ssr:stedsnr" v="309559" />
	</node>
	<node lat="60.0240249997272" lon="12.189399995602678" id="-17532">
		<tag k="alt_name" v="Fuglemyra" />
		<tag k="name" v="Vintermyra" />
		<tag k="natural" v="wetland" />
		<tag k="ssr:stedsnr" v="308865" />
	</node>
	<node lat="60.001683337454544" lon="12.335861116380245" id="-17534">
		<tag k="name" v="Dolpemyra" />
		<tag k="natural" v="wetland" />
		<tag k="ssr:stedsnr" v="309235" />
	</node>
	<node lat="59.91293888926471" lon="11.848130554813071" id="-17548">
		<tag k="name" v="Bolskogen" />
		<tag k="place" v="locality" />
		<tag k="ssr:stedsnr" v="309367" />
	</node>
	<node lat="60.05116389103438" lon="11.88652777997193" id="-17555">
		<tag k="name" v="Børlimyra" />
		<tag k="natural" v="wetland" />
		<tag k="ssr:stedsnr" v="309677" />
	</node>
	<node lat="60.061227778589746" lon="12.176575008438043" id="-17557">
		<tag k="name" v="Fuglemyra" />
		<tag k="natural" v="wetland" />
		<tag k="ssr:stedsnr" v="309679" />
	</node>
	<node lat="59.9679444484329" lon="11.854386105376594" id="-17566">
		<tag k="name" v="Tyrimyra" />
		<tag k="natural" v="wetland" />
		<tag k="ssr:stedsnr" v="350680" />
	</node>
	<node lat="60.03608333010181" lon="11.822661114927952" id="-17568">
		<tag k="name" v="Krakamyra" />
		<tag k="natural" v="wetland" />
		<tag k="ssr:stedsnr" v="350690" />
	</node>
	<node lat="60.06494721961852" lon="11.963066663711734" id="-17569">
		<tag k="name" v="Slåttedalsmyra" />
		<tag k="natural" v="wetland" />
		<tag k="ssr:stedsnr" v="350950" />
	</node>
	<node lat="60.04262222462899" lon="12.210891659901232" id="-17573">
		<tag k="name" v="Merramyra" />
		<tag k="natural" v="wetland" />
		<tag k="ssr:stedsnr" v="351190" />
	</node>
	<node lat="59.89135833794866" lon="12.070597215773208" id="-17585">
		<tag k="landuse" v="meadow" />
		<tag k="name" v="Possevangenga" />
		<tag k="ssr:stedsnr" v="351226" />
	</node>
	<node lat="59.91306944166635" lon="12.066713880302807" id="-17592">
		<tag k="name" v="Størhekken" />
		<tag k="natural" v="wetland" />
		<tag k="ssr:stedsnr" v="351334" />
	</node>
	<node lat="59.91929166554506" lon="11.86797778142384" id="-17610">
		<tag k="name" v="Buvikmyra" />
		<tag k="natural" v="wetland" />
		<tag k="ssr:stedsnr" v="351727" />
	</node>
	<node lat="60.020099996912144" lon="11.964900007416631" id="-17612">
		<tag k="name" v="Blokktjennsmyra" />
		<tag k="natural" v="wetland" />
		<tag k="ssr:stedsnr" v="351757" />
	</node>
	<node lat="59.951241662253246" lon="12.019966670648419" id="-17616">
		<tag k="name" v="Kattenghullet" />
		<tag k="natural" v="wetland" />
		<tag k="ssr:stedsnr" v="351996" />
	</node>
	<node lat="60.01437500282799" lon="12.173733340161473" id="-17620">
		<tag k="name" v="Langbrumyra" />
		<tag k="natural" v="wetland" />
		<tag k="ssr:stedsnr" v="369842" />
	</node>
	<node lat="59.90308747963098" lon="11.845965288097576" id="-17637">
		<tag k="alt_name" v="Bråtamyrene" />
		<tag k="loc_name" v="Bråtamyra" />
		<tag k="name" v="Bråtemyra" />
		<tag k="natural" v="wetland" />
		<tag k="ssr:stedsnr" v="369148" />
	</node>
	<node lat="59.98936666565977" lon="12.050611107912674" id="-17645">
		<tag k="fixme" v="multiple name tags, choose one and add the other to alt_name" />
		<tag k="name" v="Snesbølmyra;Torvstrømyra" />
		<tag k="natural" v="wetland" />
		<tag k="ssr:stedsnr" v="369348" />
	</node>
	<node lat="60.07732500425469" lon="11.96894167564814" id="-17654">
		<tag k="alt_name" v="Bruråsmyra, s" />
		<tag k="name" v="Søndre Bruråsmyra" />
		<tag k="natural" v="wetland" />
		<tag k="ssr:stedsnr" v="369722" />
	</node>
	<node lat="60.110391668080545" lon="12.235411108717251" id="-17660">
		<tag k="name" v="Geittjennmyrene" />
		<tag k="natural" v="wetland" />
		<tag k="ssr:stedsnr" v="369919" />
	</node>
	<node lat="59.898013890197696" lon="11.900402785718315" id="-17661">
		<tag k="name" v="Sandvikmåsan" />
		<tag k="natural" v="wetland" />
		<tag k="ssr:stedsnr" v="370209" />
	</node>
	<node lat="59.88499166989995" lon="11.88958888686214" id="-17666">
		<tag k="name" v="Kølamilmyra" />
		<tag k="natural" v="wetland" />
		<tag k="ssr:stedsnr" v="411256" />
	</node>
	<node lat="59.94777777319301" lon="12.249177785443004" id="-17672">
		<tag k="name" v="Veksåsmyra" />
		<tag k="natural" v="wetland" />
		<tag k="ssr:stedsnr" v="411085" />
	</node>
	<node lat="60.03076666859116" lon="12.001775002540592" id="-17683">
		<tag k="name" v="Himmelsmyrhalsen" />
		<tag k="natural" v="wetland" />
		<tag k="ssr:stedsnr" v="412331" />
	</node>
	<node lat="60.077122217910805" lon="12.004861118879035" id="-17685">
		<tag k="name" v="Smalmyra" />
		<tag k="natural" v="wetland" />
		<tag k="ssr:stedsnr" v="412333" />
	</node>
	<node lat="60.06539721793587" lon="11.979877772894941" id="-17686">
		<tag k="name" v="Størrdalen" />
		<tag k="natural" v="wetland" />
		<tag k="ssr:stedsnr" v="412335" />
	</node>
	<node lat="59.91379999653475" lon="12.182813884331232" id="-17692">
		<tag k="name" v="Gørrhullet" />
		<tag k="natural" v="wetland" />
		<tag k="ssr:stedsnr" v="412099" />
	</node>
	<node lat="60.075408335004006" lon="12.03549721892873" id="-17697">
		<tag k="name" v="Lømyra" />
		<tag k="natural" v="wetland" />
		<tag k="ssr:stedsnr" v="412080" />
	</node>
	<node lat="60.10643333157835" lon="12.18763055199586" id="-17699">
		<tag k="name" v="Kaggemyra" />
		<tag k="natural" v="wetland" />
		<tag k="ssr:stedsnr" v="412150" />
	</node>
	<node lat="60.037536111211345" lon="12.271980554297691" id="-17701">
		<tag k="name" v="Storenga" />
		<tag k="place" v="locality" />
		<tag k="ssr:stedsnr" v="412172" />
	</node>
	<node lat="60.06997777953076" lon="12.204827786050599" id="-17703">
		<tag k="name" v="Ilmyra" />
		<tag k="natural" v="wetland" />
		<tag k="ssr:stedsnr" v="412179" />
	</node>
	<node lat="59.910138885789415" lon="11.83604444767132" id="-17706">
		<tag k="name" v="Orremyra" />
		<tag k="natural" v="wetland" />
		<tag k="ssr:stedsnr" v="412575" />
	</node>
	<node lat="60.03274166524926" lon="12.156055560606884" id="-17716">
		<tag k="name" v="Øksemyra" />
		<tag k="natural" v="wetland" />
		<tag k="ssr:stedsnr" v="412460" />
	</node>
	<node lat="60.01007778101723" lon="11.960652786520576" id="-17722">
		<tag k="name" v="Borkemyra" />
		<tag k="natural" v="wetland" />
		<tag k="ssr:stedsnr" v="412723" />
	</node>
	<node lat="60.01897777710734" lon="11.950761111373817" id="-17724">
		<tag k="name" v="Vestfjellsæterteigen" />
		<tag k="place" v="locality" />
		<tag k="ssr:stedsnr" v="412729" />
	</node>
	<node lat="59.88697778116027" lon="11.825588895280417" id="-17726">
		<tag k="name" v="Kanalskogen" />
		<tag k="place" v="locality" />
		<tag k="ssr:stedsnr" v="412764" />
	</node>
	<node lat="60.02971111133367" lon="11.95483888229419" id="-17727">
		<tag k="name" v="Knattmyra" />
		<tag k="natural" v="wetland" />
		<tag k="ssr:stedsnr" v="412615" />
	</node>
	<node lat="60.07249999970327" lon="12.008677785736538" id="-17728">
		<tag k="name" v="Veslemyra" />
		<tag k="natural" v="wetland" />
		<tag k="ssr:stedsnr" v="412917" />
	</node>
	<node lat="59.95705555543999" lon="12.276941672050144" id="-17742">
		<tag k="name" v="Kroktjennmyra" />
		<tag k="natural" v="wetland" />
		<tag k="ssr:stedsnr" v="430040" />
	</node>
	<node lat="59.99683055841596" lon="11.865152778572265" id="-17756">
		<tag k="name" v="Sapperansmyra" />
		<tag k="natural" v="wetland" />
		<tag k="ssr:stedsnr" v="430386" />
	</node>
	<node lat="59.951097221574614" lon="11.845758333512276" id="-17771">
		<tag k="name" v="Lunnemyra" />
		<tag k="natural" v="wetland" />
		<tag k="ssr:stedsnr" v="532704" />
	</node>
	<node lat="59.938844444259594" lon="12.115074991578588" id="-17773">
		<tag k="name" v="Høymyra" />
		<tag k="natural" v="wetland" />
		<tag k="ssr:stedsnr" v="533035" />
	</node>
	<node lat="59.898713890412814" lon="12.158591661221358" id="-17775">
		<tag k="name" v="Åtjennbråten" />
		<tag k="place" v="locality" />
		<tag k="ssr:stedsnr" v="533065" />
	</node>
	<node lat="59.98454722015822" lon="11.84843055881034" id="-17783">
		<tag k="name" v="Marimyra" />
		<tag k="natural" v="wetland" />
		<tag k="ssr:stedsnr" v="533259" />
	</node>
	<node lat="59.96876666718745" lon="11.882900005775943" id="-17785">
		<tag k="name" v="Stormyra" />
		<tag k="natural" v="wetland" />
		<tag k="ssr:stedsnr" v="533297" />
	</node>
	<node lat="60.02292222675661" lon="12.005866662433174" id="-17788">
		<tag k="name" v="Skogsmyra" />
		<tag k="natural" v="wetland" />
		<tag k="ssr:stedsnr" v="533352" />
	</node>
	<node lat="59.921725002151014" lon="12.123169438892642" id="-17798">
		<tag k="name" v="Grua" />
		<tag k="place" v="locality" />
		<tag k="ssr:stedsnr" v="533391" />
	</node>
	<node lat="59.93841666595186" lon="12.024194441535213" id="-17799">
		<tag k="name" v="Okseaugmyra" />
		<tag k="natural" v="wetland" />
		<tag k="ssr:stedsnr" v="533416" />
	</node>
	<node lat="59.938347221548725" lon="12.102447220524857" id="-17800">
		<tag k="name" v="Bestemormyra" />
		<tag k="natural" v="wetland" />
		<tag k="ssr:stedsnr" v="533430" />
	</node>
	<node lat="59.981913884719745" lon="12.308213881028074" id="-17802">
		<tag k="name" v="Veslemyra" />
		<tag k="natural" v="wetland" />
		<tag k="ssr:stedsnr" v="533439" />
	</node>
	<node lat="60.016166664037314" lon="12.305283335519828" id="-17803">
		<tag k="name" v="Hundeholtmyra" />
		<tag k="natural" v="wetland" />
		<tag k="ssr:stedsnr" v="533442" />
	</node>
	<node lat="59.98774721887868" lon="12.311408339125855" id="-17809">
		<tag k="name" v="Haugedulpa" />
		<tag k="natural" v="wetland" />
		<tag k="ssr:stedsnr" v="533799" />
	</node>
	<node lat="59.9552000008106" lon="11.98573888734677" id="-17810">
		<tag k="name" v="Stormyra" />
		<tag k="natural" v="wetland" />
		<tag k="ssr:stedsnr" v="533815" />
	</node>
	<node lat="59.91196944637723" lon="11.827561111921806" id="-17812">
		<tag k="name" v="Kalvåsmyra" />
		<tag k="natural" v="wetland" />
		<tag k="ssr:stedsnr" v="533635" />
	</node>
	<node lat="59.894686111850625" lon="11.919586112234812" id="-17813">
		<tag k="name" v="Store Måsan" />
		<tag k="natural" v="wetland" />
		<tag k="ssr:stedsnr" v="533651" />
	</node>
	<node lat="60.055258331180774" lon="11.993494447121293" id="-17815">
		<tag k="name" v="Øvre Lealmyra" />
		<tag k="natural" v="wetland" />
		<tag k="ssr:stedsnr" v="533941" />
	</node>
	<node lat="60.03686388460619" lon="11.923758338139073" id="-17816">
		<tag k="name" v="Katthullet" />
		<tag k="natural" v="wetland" />
		<tag k="ssr:stedsnr" v="533849" />
	</node>
	<node lat="59.910061113810194" lon="11.952958335803682" id="-17832">
		<tag k="name" v="Stutaugmyra" />
		<tag k="natural" v="wetland" />
		<tag k="ssr:stedsnr" v="551321" />
	</node>
	<node lat="59.91789999829455" lon="11.94858888596289" id="-17835">
		<tag k="name" v="Rundmyra" />
		<tag k="natural" v="wetland" />
		<tag k="ssr:stedsnr" v="551330" />
	</node>
	<node lat="60.05025555164448" lon="11.998775002762704" id="-17854">
		<tag k="alt_name" v="Lealdmyra" />
		<tag k="name" v="Nedre Lealmyra" />
		<tag k="natural" v="wetland" />
		<tag k="ssr:stedsnr" v="551655" />
	</node>
	<node lat="60.038775003633425" lon="11.928905558538005" id="-17857">
		<tag k="name" v="Langhalsmyra" />
		<tag k="natural" v="wetland" />
		<tag k="ssr:stedsnr" v="551681" />
	</node>
	<node lat="60.00525278143249" lon="11.97138333776157" id="-17860">
		<tag k="name" v="Tørkåsmyra" />
		<tag k="natural" v="wetland" />
		<tag k="ssr:stedsnr" v="551866" />
	</node>
	<node lat="60.04523333236099" lon="11.935297230270052" id="-17867">
		<tag k="name" v="Skjølungsmyra" />
		<tag k="natural" v="wetland" />
		<tag k="ssr:stedsnr" v="593290" />
	</node>
	<node lat="60.005283329018184" lon="12.253386113128288" id="-17870">
		<tag k="name" v="Oksebakka" />
		<tag k="place" v="locality" />
		<tag k="ssr:stedsnr" v="593133" />
	</node>
	<node lat="59.972177775670424" lon="12.279347228297365" id="-17871">
		<tag k="name" v="Svartdulpa" />
		<tag k="natural" v="wetland" />
		<tag k="ssr:stedsnr" v="593144" />
	</node>
	<node lat="60.02993610868573" lon="11.895558339530496" id="-17876">
		<tag k="name" v="Øvre Hullmyra" />
		<tag k="natural" v="wetland" />
		<tag k="ssr:stedsnr" v="593292" />
	</node>
	<node lat="59.90987222552729" lon="12.019569453138912" id="-17878">
		<tag k="name" v="Sætermyra" />
		<tag k="natural" v="wetland" />
		<tag k="ssr:stedsnr" v="593299" />
	</node>
	<node lat="59.913166670422825" lon="12.096941668215663" id="-17879">
		<tag k="name" v="Tilbrumyra" />
		<tag k="natural" v="wetland" />
		<tag k="ssr:stedsnr" v="593327" />
	</node>
	<node lat="59.99063611537104" lon="12.198302780549424" id="-17880">
		<tag k="name" v="Geitmyra" />
		<tag k="natural" v="wetland" />
		<tag k="ssr:stedsnr" v="593403" />
	</node>
	<node lat="60.01986944764955" lon="12.227222230718983" id="-17881">
		<tag k="name" v="Persmyra" />
		<tag k="natural" v="wetland" />
		<tag k="ssr:stedsnr" v="593404" />
	</node>
	<node lat="60.08750278095429" lon="12.01938611111365" id="-17882">
		<tag k="name" v="Ottjennmyra" />
		<tag k="natural" v="wetland" />
		<tag k="ssr:stedsnr" v="593422" />
	</node>
	<node lat="59.92329722654629" lon="11.812827770349354" id="-17883">
		<tag k="name" v="Slengtjennmyra" />
		<tag k="natural" v="wetland" />
		<tag k="ssr:stedsnr" v="593427" />
	</node>
	<node lat="60.00348610944898" lon="12.27023055668755" id="-17887">
		<tag k="name" v="Heimdalen" />
		<tag k="place" v="locality" />
		<tag k="ssr:stedsnr" v="593224" />
	</node>
	<node lat="60.01449721900015" lon="12.175336113491346" id="-17890">
		<tag k="name" v="Kulpen" />
		<tag k="natural" v="wetland" />
		<tag k="ssr:stedsnr" v="593397" />
	</node>
	<node lat="60.02034166692977" lon="12.107047223333172" id="-17893">
		<tag k="name" v="Tjennsmyra" />
		<tag k="natural" v="wetland" />
		<tag k="ssr:stedsnr" v="593471" />
	</node>
	<node lat="59.98150833213793" lon="12.055800002385912" id="-17895">
		<tag k="name" v="Hagamyra" />
		<tag k="natural" v="wetland" />
		<tag k="ssr:stedsnr" v="593495" />
	</node>
	<node lat="60.03178610883504" lon="11.84166110942401" id="-17897">
		<tag k="name" v="Rudbergsmyra" />
		<tag k="natural" v="wetland" />
		<tag k="ssr:stedsnr" v="593647" />
	</node>
	<node lat="59.962947221860354" lon="12.239030555854674" id="-17899">
		<tag k="name" v="Nevjenmyra" />
		<tag k="natural" v="wetland" />
		<tag k="ssr:stedsnr" v="593749" />
	</node>
	<node lat="59.97216667055483" lon="11.879958333961941" id="-17903">
		<tag k="name" v="Tørrhalmyra" />
		<tag k="natural" v="wetland" />
		<tag k="ssr:stedsnr" v="593588" />
	</node>
	<node lat="60.01993611321674" lon="12.00231945145072" id="-17904">
		<tag k="name" v="Elgmyra" />
		<tag k="natural" v="wetland" />
		<tag k="ssr:stedsnr" v="593659" />
	</node>
	<node lat="60.02158889134331" lon="12.24059722577924" id="-17908">
		<tag k="name" v="Sveltaren" />
		<tag k="natural" v="wetland" />
		<tag k="ssr:stedsnr" v="593760" />
	</node>
	<node lat="60.058855555220674" lon="11.953141668918857" id="-17910">
		<tag k="name" v="Nordfjell" />
		<tag k="place" v="locality" />
		<tag k="ssr:stedsnr" v="594637" />
	</node>
	<node lat="59.94341388609434" lon="11.888188893154611" id="-17911">
		<tag k="name" v="Rundmyra" />
		<tag k="natural" v="wetland" />
		<tag k="ssr:stedsnr" v="594648" />
	</node>
	<node lat="60.04727222019641" lon="11.850997223041952" id="-17914">
		<tag k="name" v="Kvehaugmyra" />
		<tag k="natural" v="wetland" />
		<tag k="ssr:stedsnr" v="593836" />
	</node>
	<node lat="60.02477222272615" lon="12.329794449033255" id="-17920">
		<tag k="name" v="Karelskeneset" />
		<tag k="place" v="locality" />
		<tag k="ssr:stedsnr" v="593940" />
	</node>
	<node lat="60.071711110429774" lon="12.196602775925228" id="-17922">
		<tag k="name" v="Gusterudstormyra" />
		<tag k="natural" v="wetland" />
		<tag k="ssr:stedsnr" v="593895" />
	</node>
	<node lat="60.02849166958973" lon="11.996622227211224" id="-17923">
		<tag k="name" v="Nedre Stakmyra" />
		<tag k="natural" v="wetland" />
		<tag k="ssr:stedsnr" v="593900" />
	</node>
	<node lat="60.118536110815604" lon="12.222955558925289" id="-17930">
		<tag k="name" v="Hestemyra" />
		<tag k="natural" v="wetland" />
		<tag k="ssr:stedsnr" v="594478" />
	</node>
	<node lat="60.01435833737315" lon="11.883708332342126" id="-17933">
		<tag k="name" v="Delemyra" />
		<tag k="natural" v="wetland" />
		<tag k="ssr:stedsnr" v="594818" />
	</node>
	<node lat="60.12417221896054" lon="12.168630555810616" id="-17938">
		<tag k="name" v="Knartmyra" />
		<tag k="natural" v="wetland" />
		<tag k="ssr:stedsnr" v="611499" />
	</node>
	<node lat="59.92047499977954" lon="12.068450007318596" id="-17967">
		<tag k="alt_name" v="Orremyrene" />
		<tag k="name" v="Orremyra" />
		<tag k="natural" v="wetland" />
		<tag k="ssr:stedsnr" v="612355" />
	</node>
	<node lat="60.076102775857194" lon="11.934474997588232" id="-17975">
		<tag k="name" v="Hesteskomyra" />
		<tag k="natural" v="wetland" />
		<tag k="ssr:stedsnr" v="612701" />
	</node>
	<node lat="60.0078888927363" lon="11.9887055524426" id="-17978">
		<tag k="name" v="Hansåsmyra" />
		<tag k="natural" v="wetland" />
		<tag k="ssr:stedsnr" v="612854" />
	</node>
	<node lat="60.08915555180093" lon="12.270355554614628" id="-17980">
		<tag k="name" v="Brantmyra" />
		<tag k="natural" v="wetland" />
		<tag k="ssr:stedsnr" v="612886" />
	</node>
	<node lat="59.896877780767454" lon="12.179413886973652" id="-17993">
		<tag k="name" v="Grasmyra" />
		<tag k="natural" v="wetland" />
		<tag k="ssr:stedsnr" v="654073" />
	</node>
	<node lat="60.03830277362966" lon="11.965313891813878" id="-17994">
		<tag k="name" v="Nauttjennmyra" />
		<tag k="natural" v="wetland" />
		<tag k="ssr:stedsnr" v="654078" />
	</node>
	<node lat="60.043291666968685" lon="12.02890277854512" id="-17995">
		<tag k="name" v="Tjæregravmyra" />
		<tag k="natural" v="wetland" />
		<tag k="ssr:stedsnr" v="654081" />
	</node>
	<node lat="59.96906110867758" lon="12.262500001500017" id="-17998">
		<tag k="name" v="Grasmyra" />
		<tag k="natural" v="wetland" />
		<tag k="ssr:stedsnr" v="654120" />
	</node>
	<node lat="59.98432777906095" lon="12.276158328711693" id="-17999">
		<tag k="name" v="Forkerudsætermyra" />
		<tag k="natural" v="wetland" />
		<tag k="ssr:stedsnr" v="654191" />
	</node>
	<node lat="60.07515833010116" lon="12.139299998552625" id="-18001">
		<tag k="name" v="Grønnfloet" />
		<tag k="natural" v="wetland" />
		<tag k="ssr:stedsnr" v="654226" />
	</node>
	<node lat="60.024613891808606" lon="11.863730552695431" id="-18005">
		<tag k="name" v="Sivmyra" />
		<tag k="natural" v="wetland" />
		<tag k="ssr:stedsnr" v="654262" />
	</node>
	<node lat="60.083308337154044" lon="11.968302770980461" id="-18008">
		<tag k="name" v="Åbortjennsmyra" />
		<tag k="natural" v="wetland" />
		<tag k="ssr:stedsnr" v="654358" />
	</node>
	<node lat="60.06763055647539" lon="11.865688892492408" id="-18021">
		<tag k="name" v="Hundstadmyra" />
		<tag k="natural" v="wetland" />
		<tag k="ssr:stedsnr" v="654596" />
	</node>
	<node lat="59.92888333047514" lon="11.819772223198926" id="-18022">
		<tag k="name" v="Delemyra" />
		<tag k="natural" v="wetland" />
		<tag k="ssr:stedsnr" v="654600" />
	</node>
	<node lat="59.983594442567934" lon="11.91111389337179" id="-18026">
		<tag k="name" v="Grønnmyra" />
		<tag k="natural" v="wetland" />
		<tag k="ssr:stedsnr" v="654626" />
	</node>
	<node lat="60.031136112917714" lon="11.858913881088375" id="-18028">
		<tag k="name" v="Store Ershaugmyra" />
		<tag k="natural" v="wetland" />
		<tag k="ssr:stedsnr" v="654719" />
	</node>
	<node lat="59.92414166344073" lon="11.819258341272896" id="-18029">
		<tag k="name" v="Nordre Bolskog" />
		<tag k="place" v="locality" />
		<tag k="ssr:stedsnr" v="654468" />
	</node>
	<node lat="59.888152779999864" lon="12.060186107132433" id="-18033">
		<tag k="name" v="Tiurmyra" />
		<tag k="natural" v="wetland" />
		<tag k="ssr:stedsnr" v="654555" />
	</node>
	<node lat="59.95974999574857" lon="11.812594450207364" id="-18038">
		<tag k="name" v="Englimyra" />
		<tag k="natural" v="wetland" />
		<tag k="ssr:stedsnr" v="654760" />
	</node>
	<node lat="59.94886944163427" lon="11.95640000204034" id="-18039">
		<tag k="name" v="Harstadskogen" />
		<tag k="place" v="locality" />
		<tag k="ssr:stedsnr" v="654780" />
	</node>
	<node lat="59.96618055158763" lon="12.317405553021763" id="-18040">
		<tag k="name" v="Furumyra" />
		<tag k="natural" v="wetland" />
		<tag k="ssr:stedsnr" v="654857" />
	</node>
	<node lat="59.95704999875681" lon="11.895216672653111" id="-18041">
		<tag k="name" v="Dulpa" />
		<tag k="natural" v="wetland" />
		<tag k="ssr:stedsnr" v="654878" />
	</node>
	<node lat="59.9386638846946" lon="11.916358338265587" id="-18042">
		<tag k="name" v="Abbortjennmyra" />
		<tag k="natural" v="wetland" />
		<tag k="ssr:stedsnr" v="654827" />
	</node>
	<node lat="59.85281111161779" lon="11.854433333966908" id="-18044">
		<tag k="name" v="Lessemyra" />
		<tag k="natural" v="wetland" />
		<tag k="ssr:stedsnr" v="654996" />
	</node>
	<node lat="59.94327222180779" lon="11.975194439317837" id="-18045">
		<tag k="name" v="Fjørhanamyra" />
		<tag k="natural" v="wetland" />
		<tag k="ssr:stedsnr" v="654953" />
	</node>
	<node lat="59.93350555560863" lon="11.990727769767025" id="-18046">
		<tag k="name" v="Hagan" />
		<tag k="place" v="locality" />
		<tag k="ssr:stedsnr" v="654969" />
	</node>
	<node lat="59.99658889253489" lon="11.854575007621708" id="-18048">
		<tag k="name" v="Tømmermyra" />
		<tag k="natural" v="wetland" />
		<tag k="ssr:stedsnr" v="655261" />
	</node>
	<node lat="59.93312499654668" lon="11.87814999779002" id="-18054">
		<tag k="name" v="Vesle Kisvikmyra" />
		<tag k="natural" v="wetland" />
		<tag k="ssr:stedsnr" v="715300" />
	</node>
	<node lat="60.006438892718286" lon="11.917294452159677" id="-18058">
		<tag k="name" v="Kirkemyra" />
		<tag k="natural" v="wetland" />
		<tag k="ssr:stedsnr" v="715334" />
	</node>
	<node lat="59.907480559114155" lon="12.06246110306116" id="-18060">
		<tag k="name" v="Lindmyra" />
		<tag k="natural" v="wetland" />
		<tag k="ssr:stedsnr" v="715365" />
	</node>
	<node lat="59.971724998811666" lon="12.339530559049116" id="-18062">
		<tag k="name" v="Snipmyra" />
		<tag k="natural" v="wetland" />
		<tag k="ssr:stedsnr" v="715035" />
	</node>
	<node lat="60.00517500259909" lon="12.245966673985357" id="-18070">
		<tag k="name" v="Sjøberg" />
		<tag k="place" v="locality" />
		<tag k="ssr:stedsnr" v="715076" />
	</node>
	<node lat="59.88494999653145" lon="11.903286119197817" id="-18084">
		<tag k="name" v="Geitdalsmyra" />
		<tag k="natural" v="wetland" />
		<tag k="ssr:stedsnr" v="715549" />
	</node>
	<node lat="59.87338055195128" lon="11.871577772445576" id="-18085">
		<tag k="name" v="Veslemyra" />
		<tag k="natural" v="wetland" />
		<tag k="ssr:stedsnr" v="715550" />
	</node>
	<node lat="59.93573889182708" lon="12.248861113618725" id="-18090">
		<tag k="name" v="Kristiansenga" />
		<tag k="place" v="locality" />
		<tag k="ssr:stedsnr" v="715234" />
	</node>
	<node lat="59.96116944616588" lon="12.274883328178358" id="-18091">
		<tag k="name" v="Kroktjenndulpa" />
		<tag k="natural" v="wetland" />
		<tag k="ssr:stedsnr" v="715235" />
	</node>
	<node lat="60.07858888875665" lon="12.151636113099986" id="-18093">
		<tag k="name" v="Momyra" />
		<tag k="natural" v="wetland" />
		<tag k="ssr:stedsnr" v="715243" />
	</node>
	<node lat="60.053833329911654" lon="12.270022214504616" id="-18095">
		<tag k="name" v="Gravbråtamyra" />
		<tag k="natural" v="wetland" />
		<tag k="ssr:stedsnr" v="715254" />
	</node>
	<node lat="59.87851111439289" lon="11.847219448828977" id="-18117">
		<tag k="name" v="Østre Leamyra" />
		<tag k="natural" v="wetland" />
		<tag k="ssr:stedsnr" v="715984" />
	</node>
	<node lat="59.864025001471276" lon="11.855366663600131" id="-18119">
		<tag k="name" v="Tørmyra" />
		<tag k="natural" v="wetland" />
		<tag k="ssr:stedsnr" v="715996" />
	</node>
	<node lat="60.01291666259492" lon="11.965274994486135" id="-18120">
		<tag k="name" v="Havmyrhullet" />
		<tag k="natural" v="wetland" />
		<tag k="ssr:stedsnr" v="715766" />
	</node>
	<node lat="59.90223055358917" lon="11.965569437018761" id="-18121">
		<tag k="name" v="Stormyra" />
		<tag k="natural" v="wetland" />
		<tag k="ssr:stedsnr" v="715771" />
	</node>
	<node lat="60.055108332717126" lon="11.829955547438178" id="-18122">
		<tag k="name" v="Mattisbråtamyra" />
		<tag k="natural" v="wetland" />
		<tag k="ssr:stedsnr" v="715876" />
	</node>
	<node lat="60.04940833271632" lon="12.226174991000368" id="-18129">
		<tag k="name" v="Fjellmyra" />
		<tag k="natural" v="wetland" />
		<tag k="ssr:stedsnr" v="733134" />
	</node>
	<node lat="59.95590000416794" lon="12.182958338242226" id="-18154">
		<tag k="name" v="Gråmyra" />
		<tag k="natural" v="wetland" />
		<tag k="ssr:stedsnr" v="734330" />
	</node>
	<node lat="60.05162777728711" lon="12.201011107745241" id="-18166">
		<tag k="name" v="Slossmyra" />
		<tag k="natural" v="wetland" />
		<tag k="ssr:stedsnr" v="775187" />
	</node>
	<node lat="59.93133055321801" lon="11.830011108812467" id="-18170">
		<tag k="name" v="Øysjømyra" />
		<tag k="natural" v="wetland" />
		<tag k="ssr:stedsnr" v="775436" />
	</node>
	<node lat="59.93367222355457" lon="11.841947221627782" id="-18171">
		<tag k="name" v="Tørkelsmyra" />
		<tag k="natural" v="wetland" />
		<tag k="ssr:stedsnr" v="775438" />
	</node>
	<node lat="60.086377773498384" lon="12.024977785221541" id="-18173">
		<tag k="name" v="Buholtet" />
		<tag k="place" v="locality" />
		<tag k="ssr:stedsnr" v="775487" />
	</node>
	<node lat="60.02992222173544" lon="11.962972227957554" id="-18174">
		<tag k="name" v="Havmyrrompa" />
		<tag k="natural" v="wetland" />
		<tag k="ssr:stedsnr" v="776628" />
	</node>
	<node lat="60.05919722513359" lon="11.835622223908514" id="-18176">
		<tag k="name" v="Holtmyra" />
		<tag k="natural" v="wetland" />
		<tag k="ssr:stedsnr" v="775865" />
	</node>
	<node lat="60.08247499780727" lon="11.986677784959905" id="-18180">
		<tag k="name" v="Høgmyra" />
		<tag k="natural" v="wetland" />
		<tag k="ssr:stedsnr" v="776095" />
	</node>
	<node lat="60.01499722411496" lon="11.986561119740408" id="-18181">
		<tag k="name" v="Brattfallmyra" />
		<tag k="natural" v="wetland" />
		<tag k="ssr:stedsnr" v="776098" />
	</node>
	<node lat="60.009752773209364" lon="12.280325004323535" id="-18182">
		<tag k="name" v="Damtjennmyra" />
		<tag k="natural" v="wetland" />
		<tag k="ssr:stedsnr" v="776190" />
	</node>
	<node lat="59.994358334200484" lon="12.291747221510715" id="-18188">
		<tag k="name" v="Gjemseflata" />
		<tag k="place" v="locality" />
		<tag k="ssr:stedsnr" v="776128" />
	</node>
	<node lat="60.01327500042473" lon="12.269736114877842" id="-18189">
		<tag k="historic" v="shieling" />
		<tag k="name" v="Hellingssætra" />
		<tag k="place" v="locality" />
		<tag k="ssr:stedsnr" v="776129" />
	</node>
	<node lat="59.935936111778126" lon="11.87073611367783" id="-18196">
		<tag k="name" v="Kisvikmyra" />
		<tag k="natural" v="wetland" />
		<tag k="ssr:stedsnr" v="776271" />
	</node>
	<node lat="59.845719442088026" lon="11.844061119495207" id="-18200">
		<tag k="name" v="Borkerudmosene" />
		<tag k="natural" v="wetland" />
		<tag k="ssr:stedsnr" v="776299" />
	</node>
	<node lat="60.02656666802964" lon="12.005949995616579" id="-18204">
		<tag k="name" v="Himmelsmyra" />
		<tag k="natural" v="wetland" />
		<tag k="ssr:stedsnr" v="776335" />
	</node>
	<node lat="60.064933332492" lon="11.935627774758201" id="-18207">
		<tag k="name" v="Jakobsmyra" />
		<tag k="natural" v="wetland" />
		<tag k="ssr:stedsnr" v="776447" />
	</node>
	<node lat="59.92906944196387" lon="11.833066669592478" id="-18208">
		<tag k="name" v="Ilemyra" />
		<tag k="natural" v="wetland" />
		<tag k="ssr:stedsnr" v="776481" />
	</node>
	<node lat="60.05516666252916" lon="12.098124997693006" id="-18209">
		<tag k="name" v="Fugleleikmyra" />
		<tag k="natural" v="wetland" />
		<tag k="ssr:stedsnr" v="776484" />
	</node>
	<node lat="60.136219441041355" lon="12.184641666652" id="-18214">
		<tag k="name" v="Smalmyra" />
		<tag k="natural" v="wetland" />
		<tag k="ssr:stedsnr" v="776495" />
	</node>
	<node lat="60.06870833294242" lon="11.92910277342714" id="-18216">
		<tag k="name" v="Gammelsætermyra" />
		<tag k="natural" v="wetland" />
		<tag k="ssr:stedsnr" v="776576" />
	</node>
	<node lat="59.955088884453396" lon="11.839700003051595" id="-18219">
		<tag k="name" v="Slåttemyra" />
		<tag k="natural" v="wetland" />
		<tag k="ssr:stedsnr" v="776708" />
	</node>
	<node lat="60.02666110784006" lon="11.893413887856568" id="-18223">
		<tag k="name" v="Kisalimyra" />
		<tag k="natural" v="wetland" />
		<tag k="ssr:stedsnr" v="776662" />
	</node>
	<node lat="60.01200000289218" lon="12.154702777745214" id="-18225">
		<tag k="name" v="Grønnmyrene" />
		<tag k="natural" v="wetland" />
		<tag k="ssr:stedsnr" v="776900" />
	</node>
	<node lat="59.936302776189976" lon="12.132930550231313" id="-18233">
		<tag k="name" v="Deilmyra" />
		<tag k="natural" v="wetland" />
		<tag k="ssr:stedsnr" v="794324" />
	</node>
	<node lat="59.85489167063183" lon="11.843047228298646" id="-18239">
		<tag k="name" v="Steinsmosan" />
		<tag k="natural" v="wetland" />
		<tag k="ssr:stedsnr" v="794140" />
	</node>
	<node lat="59.910633947427456" lon="12.052239665698293" id="-18244">
		<tag k="name" v="Momyra" />
		<tag k="natural" v="wetland" />
		<tag k="ssr:stedsnr" v="794289" />
	</node>
	<node lat="59.93395277827699" lon="11.868038883378233" id="-18248">
		<tag k="name" v="Kisvikmyrene" />
		<tag k="natural" v="wetland" />
		<tag k="ssr:stedsnr" v="794339" />
	</node>
	<node lat="60.016761114572994" lon="11.933125001695744" id="-18253">
		<tag k="name" v="Mastmyra" />
		<tag k="natural" v="wetland" />
		<tag k="ssr:stedsnr" v="794662" />
	</node>
	<node lat="60.096808337538235" lon="12.164974992399179" id="-18260">
		<tag k="name" v="Stormyra" />
		<tag k="natural" v="wetland" />
		<tag k="ssr:stedsnr" v="794732" />
	</node>
	<node lat="60.01422500438031" lon="12.182949999095497" id="-18262">
		<tag k="name" v="Båsmyra" />
		<tag k="natural" v="wetland" />
		<tag k="ssr:stedsnr" v="794839" />
	</node>
	<node lat="59.931480558298475" lon="11.92550833344239" id="-18279">
		<tag k="name" v="Fjælabrumyra" />
		<tag k="natural" v="wetland" />
		<tag k="ssr:stedsnr" v="837282" />
	</node>
	<node lat="60.107102777054706" lon="12.246475006613345" id="-18282">
		<tag k="historic" v="shieling" />
		<tag k="name" v="Gammelsæter" />
		<tag k="place" v="locality" />
		<tag k="ssr:stedsnr" v="836418" />
	</node>
	<node lat="60.051194443080206" lon="12.17535555596676" id="-18284">
		<tag k="name" v="Klingemyra" />
		<tag k="natural" v="wetland" />
		<tag k="ssr:stedsnr" v="836497" />
	</node>
	<node lat="60.03069722097868" lon="11.917883338266021" id="-18286">
		<tag k="name" v="Stormyra" />
		<tag k="natural" v="wetland" />
		<tag k="ssr:stedsnr" v="836845" />
	</node>
	<node lat="59.96321389013917" lon="12.016374999009294" id="-18287">
		<tag k="name" v="Korpbergmyra" />
		<tag k="natural" v="wetland" />
		<tag k="ssr:stedsnr" v="836949" />
	</node>
	<node lat="59.86895555499545" lon="11.836508335645188" id="-18288">
		<tag k="name" v="Vestre Skjærtjennmyra" />
		<tag k="natural" v="wetland" />
		<tag k="ssr:stedsnr" v="836954" />
	</node>
	<node lat="60.054883331989565" lon="12.01121667067542" id="-18291">
		<tag k="name" v="Løvskogmyra" />
		<tag k="natural" v="wetland" />
		<tag k="ssr:stedsnr" v="837099" />
	</node>
	<node lat="60.07078055475723" lon="12.146052784211454" id="-18294">
		<tag k="name" v="Nedre Kvernmyra" />
		<tag k="natural" v="wetland" />
		<tag k="ssr:stedsnr" v="837122" />
	</node>
</osm>
