<?xml version="1.0" encoding="UTF-8"?>
<osm generator="osmapis" version="0.6">
	<node id="-38912" lat="59.9717750035" lon="12.1338055629">
		<tag k="alt_name" v="Refset" />
		<tag k="name" v="Refsette" />
		<tag k="place" v="farm" />
		<tag k="ssr:stedsnr" v="42686" />
	</node>
	<node id="-38910" lat="59.9659370817" lon="12.220862161">
		<tag k="fixme" v="consider place=hamlet" />
		<tag k="name" v="Nevjen" />
		<tag k="place" v="farm" />
		<tag k="ssr:stedsnr" v="23990" />
	</node>
	<node id="-38906" lat="59.9544749962" lon="12.1219277694">
		<tag k="alt_name" v="Korsåsen;Korsåsen nordre" />
		<tag k="name" v="Nordre Korsåsen" />
		<tag k="place" v="farm" />
		<tag k="ssr:stedsnr" v="6285" />
	</node>
	<node id="-38905" lat="59.947936107" lon="12.1583749946">
		<tag k="name" v="Hagerud" />
		<tag k="place" v="farm" />
		<tag k="ssr:stedsnr" v="6278" />
	</node>
	<node id="-38904" lat="59.9351305581" lon="11.9729222169">
		<tag k="name" v="Delbekk" />
		<tag k="place" v="farm" />
		<tag k="ssr:stedsnr" v="6269" />
	</node>
	<node id="-38903" lat="59.8909305543" lon="12.027905561">
		<tag k="alt_name" v="Larsbråten" />
		<tag k="name" v="Larsbråtan" />
		<tag k="place" v="isolated_dwelling" />
		<tag k="ssr:stedsnr" v="6206" />
	</node>
	<node id="-38901" lat="59.8990833339" lon="11.8631111141">
		<tag k="name" v="Monsrud" />
		<tag k="place" v="farm" />
		<tag k="ssr:stedsnr" v="6184" />
	</node>
	<node id="-38900" lat="59.9727833331" lon="11.8043000012">
		<tag k="name" v="Haveråa" />
		<tag k="place" v="farm" />
		<tag k="ssr:stedsnr" v="5980" />
	</node>
	<node id="-38898" lat="60.1109499959" lon="12.2210861056">
		<tag k="name" v="Slettmo" />
		<tag k="place" v="isolated_dwelling" />
		<tag k="ssr:stedsnr" v="5936" />
	</node>
	<node id="-38896" lat="60.0264750044" lon="12.1691833281">
		<tag k="name" v="Holtet" />
		<tag k="place" v="farm" />
		<tag k="ssr:stedsnr" v="5843" />
	</node>
	<node id="-38893" lat="60.0061694438" lon="12.2052583356">
		<tag k="name" v="Tukuenga" />
		<tag k="place" v="farm" />
		<tag k="ssr:stedsnr" v="5823" />
	</node>
	<node id="-38892" lat="60.0012583366" lon="12.1776166741">
		<tag k="name" v="Billerud" />
		<tag k="place" v="farm" />
		<tag k="ssr:stedsnr" v="5821" />
	</node>
	<node id="-38891" lat="60.0925611132" lon="12.2094305507">
		<tag k="alt_name" v="Sæteren" />
		<tag k="name" v="Bråtasætra" />
		<tag k="place" v="farm" />
		<tag k="ssr:stedsnr" v="5717" />
	</node>
	<node id="-38888" lat="60.0793833339" lon="12.1193555491">
		<tag k="name" v="Malmerenga" />
		<tag k="place" v="farm" />
		<tag k="ssr:stedsnr" v="5668" />
	</node>
	<node id="-38886" lat="60.0551527844" lon="12.1481050617">
		<tag k="fixme" v="consider place=hamlet" />
		<tag k="name" v="Grasmo" />
		<tag k="place" v="farm" />
		<tag k="ssr:stedsnr" v="5648" />
	</node>
	<node id="-38885" lat="60.0571818512" lon="12.1570923485">
		<tag k="fixme" v="consider place=hamlet" />
		<tag k="name" v="Skjørberg" />
		<tag k="place" v="farm" />
		<tag k="ssr:stedsnr" v="5647" />
	</node>
	<node id="-38883" lat="60.0635277776" lon="12.0798500021">
		<tag k="name" v="Våla" />
		<tag k="place" v="farm" />
		<tag k="ssr:stedsnr" v="5635" />
	</node>
	<node id="-38882" lat="60.1220472266" lon="12.1165277805">
		<tag k="name" v="Duelia" />
		<tag k="place" v="farm" />
		<tag k="ssr:stedsnr" v="5485" />
	</node>
	<node id="-38880" lat="59.9779083293" lon="12.1580694425">
		<tag k="name" v="Rognhaug" />
		<tag k="place" v="farm" />
		<tag k="ssr:stedsnr" v="5449" />
	</node>
	<node id="-38879" lat="59.973288803" lon="12.06575932">
		<tag k="fixme" v="consider place=hamlet" />
		<tag k="name" v="Tollefsbøl" />
		<tag k="place" v="farm" />
		<tag k="ssr:stedsnr" v="5446" />
	</node>
	<node id="-38878" lat="59.9730722262" lon="12.0656666639">
		<tag k="name" v="Øststuen" />
		<tag k="place" v="farm" />
		<tag k="ssr:stedsnr" v="5443" />
	</node>
	<node id="-38876" lat="59.9689888847" lon="12.0579333364">
		<tag k="name" v="Østjordet" />
		<tag k="place" v="farm" />
		<tag k="ssr:stedsnr" v="5429" />
	</node>
	<node id="-38875" lat="59.9636907105" lon="12.0516174116">
		<tag k="fixme" v="consider place=hamlet" />
		<tag k="name" v="Stangnes" />
		<tag k="place" v="farm" />
		<tag k="ssr:stedsnr" v="5428" />
	</node>
	<node id="-38874" lat="59.9663972246" lon="12.0637472224">
		<tag k="alt_name" v="Tollefsbølstranda" />
		<tag k="name" v="Stranda" />
		<tag k="place" v="farm" />
		<tag k="ssr:stedsnr" v="5427" />
	</node>
	<node id="-38873" lat="59.9988027754" lon="12.0929638958">
		<tag k="name" v="Vestgarden" />
		<tag k="place" v="isolated_dwelling" />
		<tag k="ssr:stedsnr" v="5389" />
	</node>
	<node id="-38871" lat="59.9915583316" lon="11.8673222166">
		<tag k="alt_name" v="Nordre Kjensmo" />
		<tag k="loc_name" v="Tjennsmo" />
		<tag k="name" v="Tjernsmo" />
		<tag k="place" v="farm" />
		<tag k="ssr:stedsnr" v="5381" />
	</node>
	<node id="-38868" lat="59.9384722219" lon="12.148063894">
		<tag k="name" v="Gjellaren" />
		<tag k="place" v="farm" />
		<tag k="ssr:stedsnr" v="5355" />
	</node>
	<node id="-38867" lat="59.9327777799" lon="12.1892277698">
		<tag k="name" v="Gaustadsætra" />
		<tag k="place" v="farm" />
		<tag k="ssr:stedsnr" v="5333" />
	</node>
	<node id="-38866" lat="59.9336888914" lon="12.1910222233">
		<tag k="name" v="Østheim" />
		<tag k="place" v="farm" />
		<tag k="ssr:stedsnr" v="5332" />
	</node>
	<node id="-38865" lat="59.9182888874" lon="12.1697972215">
		<tag k="alt_name" v="Øst-Linkjølen" />
		<tag k="name" v="Østlinkjølen" />
		<tag k="place" v="farm" />
		<tag k="ssr:stedsnr" v="5308" />
	</node>
	<node id="-38864" lat="59.9155388905" lon="12.090244439">
		<tag k="name" v="Gransbråtan" />
		<tag k="place" v="farm" />
		<tag k="ssr:stedsnr" v="5305" />
	</node>
	<node id="-38862" lat="59.9573861116" lon="11.9421277851">
		<tag k="name" v="Harstadsætra" />
		<tag k="place" v="farm" />
		<tag k="ssr:stedsnr" v="5298" />
	</node>
	<node id="-38861" lat="59.9570500024" lon="12.033502784">
		<tag k="name" v="Høgåsen" />
		<tag k="place" v="farm" />
		<tag k="ssr:stedsnr" v="5294" />
	</node>
	<node id="-38860" lat="59.9581888896" lon="12.1427694527">
		<tag k="name" v="Myrvoll" />
		<tag k="place" v="farm" />
		<tag k="ssr:stedsnr" v="5286" />
	</node>
	<node id="-38859" lat="59.9508999996" lon="12.0687527757">
		<tag k="name" v="Steinli" />
		<tag k="place" v="isolated_dwelling" />
		<tag k="ssr:stedsnr" v="5275" />
	</node>
	<node id="-38853" lat="59.8979166637" lon="12.092183327">
		<tag k="name" v="Nord-Melby" />
		<tag k="place" v="farm" />
		<tag k="ssr:stedsnr" v="5184" />
	</node>
	<node id="-38852" lat="59.8947027791" lon="12.0921750088">
		<tag k="name" v="Mellagarden" />
		<tag k="place" v="farm" />
		<tag k="ssr:stedsnr" v="5183" />
	</node>
	<node id="-38851" lat="59.9046668196" lon="11.9892346471">
		<tag k="fixme" v="consider place=hamlet" />
		<tag k="name" v="Kulblik" />
		<tag k="place" v="farm" />
		<tag k="ssr:stedsnr" v="5172" />
	</node>
	<node id="-38847" lat="59.8894358769" lon="12.1691340171">
		<tag k="fixme" v="consider place=hamlet" />
		<tag k="name" v="Leirsjøen" />
		<tag k="place" v="farm" />
		<tag k="ssr:stedsnr" v="5129" />
	</node>
	<node id="-38846" lat="59.9466749988" lon="11.8401527693">
		<tag k="name" v="Ljønerholtet" />
		<tag k="place" v="farm" />
		<tag k="ssr:stedsnr" v="5117" />
	</node>
	<node id="-38843" lat="60.0006083342" lon="12.2266333296">
		<tag k="name" v="Enga" />
		<tag k="place" v="farm" />
		<tag k="ssr:stedsnr" v="5043" />
	</node>
	<node id="-38842" lat="60.0092250022" lon="12.2266833298">
		<tag k="name" v="Åbakken" />
		<tag k="place" v="farm" />
		<tag k="ssr:stedsnr" v="5039" />
	</node>
	<node id="-38834" lat="59.9391444468" lon="12.0764833348">
		<tag k="name" v="Åstebølhagen" />
		<tag k="place" v="farm" />
		<tag k="ssr:stedsnr" v="958615" />
	</node>
	<node id="-38833" lat="60.0714694437" lon="12.2391250006">
		<tag k="name" v="Enderud" />
		<tag k="place" v="farm" />
		<tag k="ssr:stedsnr" v="958606" />
	</node>
	<node id="-38829" lat="60.1046941725" lon="12.1400530468">
		<tag k="alt_name" v="Pramhus, nordre;Pramhus" />
		<tag k="fixme" v="consider place=hamlet" />
		<tag k="name" v="Nordre Pramhus" />
		<tag k="place" v="farm" />
		<tag k="ssr:stedsnr" v="916755" />
	</node>
	<node id="-38828" lat="60.1037305576" lon="12.2112138804">
		<tag k="alt_name" v="Pramhussæter" />
		<tag k="name" v="Pramhussætra" />
		<tag k="place" v="farm" />
		<tag k="ssr:stedsnr" v="916753" />
	</node>
	<node id="-38826" lat="59.9832388873" lon="11.9657250082">
		<tag k="name" v="Mobekk" />
		<tag k="place" v="hamlet" />
		<tag k="ssr:stedsnr" v="916516" />
	</node>
	<node id="-38824" lat="59.9120999979" lon="11.9777583295">
		<tag k="name" v="Svarthaugen" />
		<tag k="place" v="farm" />
		<tag k="ssr:stedsnr" v="916354" />
	</node>
	<node id="-38822" lat="59.9357611095" lon="11.9901416648">
		<tag k="name" v="Buåa" />
		<tag k="place" v="isolated_dwelling" />
		<tag k="ssr:stedsnr" v="916267" />
	</node>
	<node id="-38821" lat="59.9393000029" lon="12.0619499972">
		<tag k="name" v="Skogli" />
		<tag k="place" v="farm" />
		<tag k="ssr:stedsnr" v="916264" />
	</node>
	<node id="-38818" lat="59.9610861096" lon="12.2569222147">
		<tag k="name" v="Avsi" />
		<tag k="place" v="farm" />
		<tag k="ssr:stedsnr" v="916226" />
	</node>
	<node id="-38817" lat="59.9746305547" lon="12.3353500077">
		<tag k="name" v="Åsheim" />
		<tag k="place" v="farm" />
		<tag k="ssr:stedsnr" v="916218" />
	</node>
	<node id="-38816" lat="60.006747226" lon="12.223925002">
		<tag k="name" v="Nordby" />
		<tag k="place" v="farm" />
		<tag k="ssr:stedsnr" v="916055" />
	</node>
	<node id="-38814" lat="60.0322138865" lon="12.2700694531">
		<tag k="name" v="Røsskjølen" />
		<tag k="place" v="farm" />
		<tag k="ssr:stedsnr" v="916025" />
	</node>
	<node id="-38809" lat="60.0944471728" lon="12.1481136439">
		<tag k="alt_name" v="Pramhus, s" />
		<tag k="fixme" v="consider place=hamlet" />
		<tag k="name" v="Søndre Pramhus" />
		<tag k="place" v="farm" />
		<tag k="ssr:stedsnr" v="915723" />
	</node>
	<node id="-38806" lat="60.0253527747" lon="12.1085499988">
		<tag k="name" v="Skulstad" />
		<tag k="place" v="farm" />
		<tag k="ssr:stedsnr" v="915618" />
	</node>
	<node id="-38805" lat="60.0336055551" lon="12.0909277819">
		<tag k="name" v="Moa" />
		<tag k="place" v="farm" />
		<tag k="ssr:stedsnr" v="915611" />
	</node>
	<node id="-38804" lat="60.0266944416" lon="12.0258750083">
		<tag k="name" v="Bråtan" />
		<tag k="place" v="locality" />
		<tag k="ssr:stedsnr" v="915609" />
	</node>
	<node id="-38802" lat="59.9457694434" lon="12.1632111176">
		<tag k="alt_name" v="Helåsen" />
		<tag k="name" v="Hellåsen" />
		<tag k="place" v="farm" />
		<tag k="ssr:stedsnr" v="915354" />
	</node>
	<node id="-38801" lat="59.9307361104" lon="12.2112277774">
		<tag k="name" v="Enger" />
		<tag k="place" v="farm" />
		<tag k="ssr:stedsnr" v="915328" />
	</node>
	<node id="-38799" lat="59.9198083367" lon="12.1647499922">
		<tag k="alt_name" v="Vest-Linkjølen" />
		<tag k="name" v="Vestlinkjølen" />
		<tag k="place" v="farm" />
		<tag k="ssr:stedsnr" v="915305" />
	</node>
	<node id="-38797" lat="59.985841666" lon="12.2453111105">
		<tag k="name" v="Klanderud" />
		<tag k="place" v="farm" />
		<tag k="ssr:stedsnr" v="915224" />
	</node>
	<node id="-38795" lat="60.0584138848" lon="12.1208722201">
		<tag k="name" v="Brenna" />
		<tag k="place" v="farm" />
		<tag k="ssr:stedsnr" v="898570" />
	</node>
	<node id="-38792" lat="60.1088027793" lon="12.2192416742">
		<tag k="name" v="Løvlibråten" />
		<tag k="place" v="isolated_dwelling" />
		<tag k="ssr:stedsnr" v="898318" />
	</node>
	<node id="-38791" lat="59.9389194483" lon="12.0016611113">
		<tag k="name" v="Nordre Brustadhaugen" />
		<tag k="place" v="farm" />
		<tag k="ssr:stedsnr" v="898309" />
	</node>
	<node id="-38790" lat="59.9186611096" lon="11.857783325">
		<tag k="name" v="Lien" />
		<tag k="place" v="farm" />
		<tag k="ssr:stedsnr" v="898303" />
	</node>
	<node id="-38789" lat="59.9700305542" lon="12.1727388927">
		<tag k="name" v="Nybakk" />
		<tag k="place" v="farm" />
		<tag k="ssr:stedsnr" v="898155" />
	</node>
	<node id="-38772" lat="60.115883336" lon="12.2199777729">
		<tag k="name" v="Åsen" />
		<tag k="place" v="farm" />
		<tag k="ssr:stedsnr" v="897159" />
	</node>
	<node id="-38768" lat="60.0025000006" lon="12.1016527845">
		<tag k="name" v="Sørpebøl" />
		<tag k="place" v="farm" />
		<tag k="ssr:stedsnr" v="897105" />
	</node>
	<node id="-39958" lat="60.0280222188" lon="12.090088896">
		<tag k="name" v="Nordre Nordkisen" />
		<tag k="place" v="farm" />
		<tag k="ssr:stedsnr" v="594311" />
	</node>
	<node id="-38765" lat="60.1337194461" lon="12.2324861196">
		<tag k="name" v="Snekkerbakken" />
		<tag k="place" v="farm" />
		<tag k="ssr:stedsnr" v="855965" />
	</node>
	<node id="-38764" lat="60.0182361124" lon="12.0875750031">
		<tag k="name" v="Kisamoen" />
		<tag k="place" v="farm" />
		<tag k="ssr:stedsnr" v="855670" />
	</node>
	<node id="-38760" lat="60.0828027733" lon="12.0674222252">
		<tag k="name" v="Mila" />
		<tag k="old_name" v="Søndre Mila" />
		<tag k="place" v="farm" />
		<tag k="ssr:stedsnr" v="855768" />
	</node>
	<node id="-38758" lat="59.9849171615" lon="12.0446300874">
		<tag k="fixme" v="consider place=hamlet" />
		<tag k="name" v="Snesbøl" />
		<tag k="place" v="farm" />
		<tag k="ssr:stedsnr" v="855478" />
	</node>
	<node id="-38757" lat="59.9814972233" lon="12.0070416741">
		<tag k="name" v="Grunntjernlia" />
		<tag k="place" v="farm" />
		<tag k="ssr:stedsnr" v="855473" />
	</node>
	<node id="-38756" lat="59.9791854189" lon="11.9701594848">
		<tag k="name" v="Mellom" />
		<tag k="place" v="farm" />
		<tag k="ssr:stedsnr" v="855469" />
	</node>
	<node id="-38753" lat="59.9722722249" lon="12.0006777691">
		<tag k="name" v="Teigberget" />
		<tag k="place" v="farm" />
		<tag k="ssr:stedsnr" v="855463" />
	</node>
	<node id="-38752" lat="59.9666416649" lon="11.9579777732">
		<tag k="name" v="Grusjølia" />
		<tag k="place" v="farm" />
		<tag k="ssr:stedsnr" v="855425" />
	</node>
	<node id="-38749" lat="59.9350833375" lon="12.005258333">
		<tag k="name" v="Åsen" />
		<tag k="place" v="farm" />
		<tag k="ssr:stedsnr" v="855264" />
	</node>
	<node id="-38748" lat="60.1083499968" lon="12.1097499936">
		<tag k="name" v="Haugen" />
		<tag k="place" v="farm" />
		<tag k="ssr:stedsnr" v="855524" />
	</node>
	<node id="-38745" lat="59.9964777821" lon="12.0917749991">
		<tag k="alt_name" v="Grenmoen" />
		<tag k="name" v="Stormoen" />
		<tag k="place" v="isolated_dwelling" />
		<tag k="ssr:stedsnr" v="855369" />
	</node>
	<node id="-38742" lat="59.9259777743" lon="11.9796833407">
		<tag k="name" v="Jegeråsen" />
		<tag k="place" v="farm" />
		<tag k="ssr:stedsnr" v="855353" />
	</node>
	<node id="-38740" lat="59.9040416624" lon="11.867299998">
		<tag k="name" v="Uglevika" />
		<tag k="place" v="farm" />
		<tag k="ssr:stedsnr" v="855159" />
	</node>
	<node id="-38738" lat="59.9718083297" lon="12.2466638823">
		<tag k="name" v="Berget" />
		<tag k="place" v="farm" />
		<tag k="ssr:stedsnr" v="855207" />
	</node>
	<node id="-37706" lat="59.9257138879" lon="12.1315805644">
		<tag k="alt_name" v="Nedre Nysætra" />
		<tag k="historic" v="shieling" />
		<tag k="name" v="Nysætra" />
		<tag k="place" v="locality" />
		<tag k="ssr:stedsnr" v="66331" />
	</node>
	<node id="-38718" lat="59.9846194417" lon="12.2333388956">
		<tag k="name" v="Sæteråsen" />
		<tag k="place" v="farm" />
		<tag k="ssr:stedsnr" v="837566" />
	</node>
	<node id="-38717" lat="59.9160611103" lon="11.9972861028">
		<tag k="name" v="Klanderudlia" />
		<tag k="place" v="farm" />
		<tag k="ssr:stedsnr" v="837558" />
	</node>
	<node id="-38715" lat="59.964022222" lon="12.1464749987">
		<tag k="name" v="Gaustad" />
		<tag k="place" v="hamlet" />
		<tag k="ssr:stedsnr" v="837519" />
	</node>
	<node id="-38714" lat="59.9548416628" lon="12.1191416749">
		<tag k="name" v="Kremmerud" />
		<tag k="place" v="farm" />
		<tag k="ssr:stedsnr" v="837518" />
	</node>
	<node id="-38712" lat="59.9805527767" lon="12.0943583246">
		<tag k="name" v="Plasserbakka" />
		<tag k="place" v="quarter" />
		<tag k="ssr:stedsnr" v="837510" />
	</node>
	<node id="-39561" lat="59.9810472197" lon="12.3378999974">
		<tag k="name" v="Finnsrudmoen" />
		<tag k="place" v="farm" />
		<tag k="ssr:stedsnr" v="369183" />
	</node>
	<node id="-38706" lat="59.9482944413" lon="12.1783722273">
		<tag k="leisure" v="pitch" />
		<tag k="name" v="Magnor stadion" />
		<tag k="ssr:stedsnr" v="837418" />
	</node>
	<node id="-38702" lat="59.9935555524" lon="12.050938896">
		<tag k="name" v="Nordre Åserud" />
		<tag k="place" v="farm" />
		<tag k="ssr:stedsnr" v="837314" />
	</node>
	<node id="-38698" lat="59.9720333319" lon="12.0521722181">
		<tag k="name" v="Arstuen" />
		<tag k="place" v="farm" />
		<tag k="ssr:stedsnr" v="837118" />
	</node>
	<node id="-38697" lat="60.0297166711" lon="12.075319436">
		<tag k="name" v="Lindkjølteigen" />
		<tag k="place" v="farm" />
		<tag k="ssr:stedsnr" v="837111" />
	</node>
	<node id="-38696" lat="59.8957944469" lon="12.1741222214">
		<tag k="name" v="Holtet" />
		<tag k="place" v="farm" />
		<tag k="ssr:stedsnr" v="837217" />
	</node>
	<node id="-38695" lat="59.9836361092" lon="12.0005194409">
		<tag k="name" v="Teigen" />
		<tag k="place" v="farm" />
		<tag k="ssr:stedsnr" v="837211" />
	</node>
	<node id="-38694" lat="59.9825666681" lon="12.106105557">
		<tag k="name" v="Tankerud" />
		<tag k="place" v="farm" />
		<tag k="ssr:stedsnr" v="837074" />
	</node>
	<node id="-38689" lat="59.8908222187" lon="12.161863889">
		<tag k="name" v="Bryngel" />
		<tag k="place" v="farm" />
		<tag k="ssr:stedsnr" v="837058" />
	</node>
	<node id="-38681" lat="59.9482305565" lon="12.1920861152">
		<tag k="amenity" v="school" />
		<tag k="name" v="Barnehage" />
		<tag k="ssr:stedsnr" v="836178" />
	</node>
	<node id="-38679" lat="59.9967084706" lon="12.2249819311">
		<tag k="fixme" v="consider place=hamlet" />
		<tag k="name" v="Forkerud" />
		<tag k="place" v="farm" />
		<tag k="ssr:stedsnr" v="931253" />
	</node>
	<node id="-38677" lat="59.8997305539" lon="12.0962083303">
		<tag k="alt_name" v="Enga søndre" />
		<tag k="name" v="Enga" />
		<tag k="place" v="farm" />
		<tag k="ssr:stedsnr" v="795203" />
	</node>
	<node id="-38665" lat="60.0113972222" lon="12.2709027819">
		<tag k="name" v="Vålvatnet" />
		<tag k="old_name" v="Austtun" />
		<tag k="place" v="farm" />
		<tag k="ssr:stedsnr" v="794047" />
	</node>
	<node id="-38664" lat="59.9996249999" lon="12.2259750004">
		<tag k="name" v="Sandbakken" />
		<tag k="place" v="farm" />
		<tag k="ssr:stedsnr" v="794045" />
	</node>
	<node id="-38663" lat="60.0022499965" lon="12.2234555464">
		<tag k="name" v="Engene" />
		<tag k="place" v="farm" />
		<tag k="ssr:stedsnr" v="794044" />
	</node>
	<node id="-38640" lat="59.9711027819" lon="12.1716499927">
		<tag k="name" v="Ringstad" />
		<tag k="place" v="farm" />
		<tag k="ssr:stedsnr" v="776133" />
	</node>
	<node id="-38637" lat="59.9506861138" lon="12.0117138898">
		<tag k="name" v="Nordre Rastad" />
		<tag k="place" v="farm" />
		<tag k="ssr:stedsnr" v="776124" />
	</node>
	<node id="-38635" lat="59.9375333298" lon="12.0033083274">
		<tag k="name" v="Søndre Brustadhaugen" />
		<tag k="place" v="farm" />
		<tag k="ssr:stedsnr" v="776104" />
	</node>
	<node id="-39493" lat="60.0722305566" lon="12.1177277817">
		<tag k="name" v="Malmer" />
		<tag k="place" v="hamlet" />
		<tag k="ssr:stedsnr" v="351159" />
	</node>
	<node id="-38183" lat="59.8935305515" lon="11.9457166694">
		<tag k="name" v="Råkaldbakken" />
		<tag k="place" v="isolated_dwelling" />
		<tag k="ssr:stedsnr" v="431208" />
	</node>
	<node id="-38627" lat="60.0346611136" lon="11.9101694387">
		<tag k="alt_name" v="Steineien" />
		<tag k="name" v="Steineia" />
		<tag k="place" v="farm" />
		<tag k="ssr:stedsnr" v="916715" />
	</node>
	<node id="-38625" lat="59.9137250014" lon="12.091200005">
		<tag k="name" v="Reppshussætra" />
		<tag k="place" v="farm" />
		<tag k="ssr:stedsnr" v="916344" />
	</node>
	<node id="-38621" lat="59.9614388869" lon="12.1218555512">
		<tag k="name" v="Åsli" />
		<tag k="place" v="farm" />
		<tag k="ssr:stedsnr" v="916310" />
	</node>
	<node id="-38620" lat="60.0237000025" lon="12.2791500015">
		<tag k="name" v="Storneset" />
		<tag k="place" v="farm" />
		<tag k="ssr:stedsnr" v="916045" />
	</node>
	<node id="-38615" lat="60.1144833297" lon="12.2200000036">
		<tag k="name" v="Olsrud" />
		<tag k="place" v="farm" />
		<tag k="ssr:stedsnr" v="915947" />
	</node>
	<node id="-38613" lat="60.0667777776" lon="12.0137444443">
		<tag k="alt_name" v="Åkroken, nordre" />
		<tag k="name" v="Nordre Åkroken" />
		<tag k="place" v="farm" />
		<tag k="ssr:stedsnr" v="915695" />
	</node>
	<node id="-38611" lat="60.0730861105" lon="12.0246972157">
		<tag k="name" v="Sagåsen" />
		<tag k="place" v="farm" />
		<tag k="ssr:stedsnr" v="915677" />
	</node>
	<node id="-38610" lat="60.085030557" lon="12.0669611115">
		<tag k="name" v="Dalsberget" />
		<tag k="place" v="farm" />
		<tag k="ssr:stedsnr" v="915743" />
	</node>
	<node id="-38608" lat="60.0855777764" lon="12.1630777836">
		<tag k="name" v="Gusterudmoen" />
		<tag k="place" v="farm" />
		<tag k="ssr:stedsnr" v="915673" />
	</node>
	<node id="-38606" lat="59.9723583358" lon="12.0365555555">
		<tag k="name" v="Knepperud" />
		<tag k="place" v="farm" />
		<tag k="ssr:stedsnr" v="915439" />
	</node>
	<node id="-38603" lat="59.9655083367" lon="12.1469638965">
		<tag k="name" v="Nordstuen Gaustad" />
		<tag k="place" v="farm" />
		<tag k="ssr:stedsnr" v="915295" />
	</node>
	<node id="-38602" lat="59.9725722238" lon="12.1869861131">
		<tag k="name" v="Deldalen" />
		<tag k="place" v="farm" />
		<tag k="ssr:stedsnr" v="915292" />
	</node>
	<node id="-38601" lat="59.9539638848" lon="11.9730722272">
		<tag k="name" v="Finland" />
		<tag k="place" v="farm" />
		<tag k="ssr:stedsnr" v="915290" />
	</node>
	<node id="-38600" lat="59.9591222215" lon="12.0636083332">
		<tag k="name" v="Tangen" />
		<tag k="place" v="farm" />
		<tag k="ssr:stedsnr" v="915285" />
	</node>
	<node id="-38599" lat="59.9483994465" lon="12.067701293">
		<tag k="name" v="Åstebøl" />
		<tag k="place" v="hamlet" />
		<tag k="ssr:stedsnr" v="915279" />
	</node>
	<node id="-38598" lat="59.9817250005" lon="12.3337611076">
		<tag k="name" v="Fagerli" />
		<tag k="place" v="farm" />
		<tag k="ssr:stedsnr" v="915183" />
	</node>
	<node id="-38597" lat="59.9368583354" lon="12.169444453">
		<tag k="alt_name" v="Østmoen" />
		<tag k="name" v="Østmo" />
		<tag k="place" v="farm" />
		<tag k="ssr:stedsnr" v="915350" />
	</node>
	<node id="-38596" lat="59.9399833304" lon="12.194274991">
		<tag k="name" v="Åbo" />
		<tag k="place" v="isolated_dwelling" />
		<tag k="ssr:stedsnr" v="915349" />
	</node>
	<node id="-38595" lat="59.9418972219" lon="12.1527555573">
		<tag k="alt_name" v="Øst-Stubberud" />
		<tag k="name" v="Stubberud" />
		<tag k="place" v="farm" />
		<tag k="ssr:stedsnr" v="915345" />
	</node>
	<node id="-38594" lat="59.9435333318" lon="12.2050027857">
		<tag k="name" v="Maridal" />
		<tag k="place" v="farm" />
		<tag k="ssr:stedsnr" v="915339" />
	</node>
	<node id="-38593" lat="60.0683055547" lon="12.2304749935">
		<tag k="name" v="Baksjødammen" />
		<tag k="place" v="farm" />
		<tag k="ssr:stedsnr" v="915084" />
	</node>
	<node id="-38592" lat="59.8951222203" lon="11.8157444413">
		<tag k="alt_name" v="Vangen" />
		<tag k="name" v="Nord-Vangen" />
		<tag k="place" v="farm" />
		<tag k="ssr:stedsnr" v="914268" />
	</node>
	<node id="-38589" lat="60.0982250009" lon="12.1487194472">
		<tag k="alt_name" v="Mellemgården" />
		<tag k="name" v="Mellomgarden" />
		<tag k="place" v="farm" />
		<tag k="ssr:stedsnr" v="734734" />
	</node>
	<node id="-38587" lat="60.0468722222" lon="12.2114472195">
		<tag k="historic" v="shieling" />
		<tag k="name" v="Skjørbergsætra" />
		<tag k="place" v="locality" />
		<tag k="ssr:stedsnr" v="734704" />
	</node>
	<node id="-38585" lat="60.1168249962" lon="12.2662999959">
		<tag k="name" v="Steffenstorpet" />
		<tag k="place" v="isolated_dwelling" />
		<tag k="ssr:stedsnr" v="733916" />
	</node>
	<node id="-38584" lat="59.9951500031" lon="12.3190027748">
		<tag k="name" v="Haugen" />
		<tag k="place" v="farm" />
		<tag k="ssr:stedsnr" v="733233" />
	</node>
	<node id="-38583" lat="59.9972750009" lon="12.3076500003">
		<tag k="name" v="Granli" />
		<tag k="place" v="farm" />
		<tag k="ssr:stedsnr" v="733232" />
	</node>
	<node id="-38581" lat="59.9575500039" lon="12.2521722156">
		<tag k="alt_name" v="Kulbern" />
		<tag k="name" v="Kullbern" />
		<tag k="place" v="isolated_dwelling" />
		<tag k="ssr:stedsnr" v="733206" />
	</node>
	<node id="-38580" lat="59.9715805572" lon="12.2421000053">
		<tag k="name" v="Lia" />
		<tag k="place" v="farm" />
		<tag k="ssr:stedsnr" v="733205" />
	</node>
	<node id="-38579" lat="60.0485250045" lon="12.2457583265">
		<tag k="name" v="Neversekken" />
		<tag k="place" v="locality" />
		<tag k="ssr:stedsnr" v="733137" />
	</node>
	<node id="-38577" lat="60.0505249959" lon="12.2922833323">
		<tag k="name" v="Vaslettbrakka" />
		<tag k="place" v="isolated_dwelling" />
		<tag k="ssr:stedsnr" v="733129" />
	</node>
	<node id="-38572" lat="59.9881944491" lon="12.1546472165">
		<tag k="name" v="Haget" />
		<tag k="place" v="farm" />
		<tag k="ssr:stedsnr" v="898552" />
	</node>
	<node id="-38570" lat="59.9595055587" lon="12.1345305556">
		<tag k="name" v="Kroksenga" />
		<tag k="place" v="farm" />
		<tag k="ssr:stedsnr" v="898595" />
	</node>
	<node id="-38568" lat="59.9270888894" lon="12.2068444526">
		<tag k="name" v="Østli" />
		<tag k="place" v="farm" />
		<tag k="ssr:stedsnr" v="898234" />
	</node>
	<node id="-38567" lat="59.9810000003" lon="11.968230561">
		<tag k="name" v="Mobekk" />
		<tag k="place" v="farm" />
		<tag k="ssr:stedsnr" v="898197" />
	</node>
	<node id="-38566" lat="59.9703861099" lon="12.1321527714">
		<tag k="name" v="Høgmo" />
		<tag k="place" v="farm" />
		<tag k="ssr:stedsnr" v="898186" />
	</node>
	<node id="-38565" lat="59.9596194486" lon="11.9722777727">
		<tag k="loc_name" v="Sør-Moen" />
		<tag k="name" v="Syd-Moen" />
		<tag k="place" v="farm" />
		<tag k="ssr:stedsnr" v="898052" />
	</node>
	<node id="-38564" lat="60.0321250034" lon="12.2833277866">
		<tag k="name" v="Jegerheimet" />
		<tag k="place" v="farm" />
		<tag k="ssr:stedsnr" v="898022" />
	</node>
	<node id="-38563" lat="59.932838887" lon="11.9793583409">
		<tag k="name" v="Solbakken" />
		<tag k="place" v="farm" />
		<tag k="ssr:stedsnr" v="898111" />
	</node>
	<node id="-38562" lat="59.9557111136" lon="12.198150008">
		<tag k="name" v="Søstuen" />
		<tag k="place" v="farm" />
		<tag k="ssr:stedsnr" v="898108" />
	</node>
	<node id="-38171" lat="59.9877500002" lon="12.1643722247">
		<tag k="alt_name" v="Nybakken" />
		<tag k="name" v="Nytomta" />
		<tag k="place" v="farm" />
		<tag k="ssr:stedsnr" v="430446" />
	</node>
	<node id="-38170" lat="59.9737336196" lon="12.1148119853">
		<tag k="fixme" v="consider place=hamlet" />
		<tag k="name" v="Trandem" />
		<tag k="place" v="farm" />
		<tag k="ssr:stedsnr" v="430443" />
	</node>
	<node id="-38169" lat="59.9805900385" lon="12.1020353243">
		<tag k="fixme" v="consider place=hamlet" />
		<tag k="name" v="Tuhus" />
		<tag k="place" v="farm" />
		<tag k="ssr:stedsnr" v="430440" />
	</node>
	<node id="-40359" lat="60.0026736041" lon="11.9129662869">
		<tag k="fixme" v="consider place=hamlet" />
		<tag k="name" v="Fjellskogen" />
		<tag k="old_name" v="Fjeldskogen" />
		<tag k="place" v="farm" />
		<tag k="ssr:stedsnr" v="855871" />
	</node>
	<node id="-38164" lat="59.9460499976" lon="12.2501249939">
		<tag k="name" v="Veksåsen" />
		<tag k="place" v="farm" />
		<tag k="ssr:stedsnr" v="430041" />
	</node>
	<node id="-38514" lat="59.936358333" lon="12.1542638919">
		<tag k="name" v="Nordhagen" />
		<tag k="place" v="farm" />
		<tag k="ssr:stedsnr" v="897030" />
	</node>
	<node id="-38509" lat="59.8847916643" lon="11.8431250058">
		<tag k="name" v="Søndre Sandbakken" />
		<tag k="place" v="farm" />
		<tag k="ssr:stedsnr" v="896168" />
	</node>
	<node id="-38507" lat="59.9971777811" lon="12.1701916665">
		<tag k="name" v="Vesthølet" />
		<tag k="place" v="farm" />
		<tag k="ssr:stedsnr" v="715971" />
	</node>
	<node id="-38505" lat="59.9341611095" lon="12.167825006">
		<tag k="name" v="Norborg" />
		<tag k="place" v="farm" />
		<tag k="ssr:stedsnr" v="715792" />
	</node>
	<node id="-38499" lat="59.918869442" lon="11.9847611175">
		<tag k="name" v="Søndre Rambølsødegarden" />
		<tag k="place" v="farm" />
		<tag k="ssr:stedsnr" v="715568" />
	</node>
	<node id="-38498" lat="59.9302944415" lon="12.230758332">
		<tag k="name" v="Steinby" />
		<tag k="place" v="farm" />
		<tag k="ssr:stedsnr" v="715564" />
	</node>
	<node id="-37818" lat="60.0001787544" lon="12.1037470225">
		<tag k="fixme" v="consider place=hamlet" />
		<tag k="name" v="Sørpebøl" />
		<tag k="place" v="farm" />
		<tag k="ssr:stedsnr" v="187836" />
	</node>
	<node id="-38490" lat="59.8923694405" lon="11.8334666644">
		<tag k="name" v="Furumo" />
		<tag k="place" v="farm" />
		<tag k="ssr:stedsnr" v="715384" />
	</node>
	<node id="-38489" lat="59.9949805588" lon="11.895772221">
		<tag k="name" v="Ingerheimet" />
		<tag k="place" v="farm" />
		<tag k="ssr:stedsnr" v="715367" />
	</node>
	<node id="-38480" lat="60.036450001" lon="12.135736118">
		<tag k="name" v="Nordre Kjærstad" />
		<tag k="old_name" v="Nordre Kjerstad" />
		<tag k="place" v="farm" />
		<tag k="ssr:stedsnr" v="892747" />
	</node>
	<node id="-38479" lat="60.1289111124" lon="12.2319333316">
		<tag k="alt_name" v="Holsætra, nordre" />
		<tag k="loc_name" v="Nordre Holsætra" />
		<tag k="name" v="Holsæter" />
		<tag k="place" v="farm" />
		<tag k="ssr:stedsnr" v="673961" />
	</node>
	<node id="-38478" lat="59.9358805587" lon="11.9915222238">
		<tag k="fixme" v="consider place=hamlet" />
		<tag k="name" v="Vestmarka" />
		<tag k="place" v="village" />
		<tag k="ssr:stedsnr" v="880157" />
	</node>
	<node id="-38157" lat="59.9547833364" lon="12.0500861052">
		<tag k="name" v="Viknes" />
		<tag k="place" v="farm" />
		<tag k="ssr:stedsnr" v="506027" />
	</node>
	<node id="-37766" lat="60.0543972215" lon="11.8605027863">
		<tag k="name" v="Børli" />
		<tag k="place" v="farm" />
		<tag k="ssr:stedsnr" v="248728" />
	</node>
	<node id="-38175" lat="60.0373166636" lon="12.1178888877">
		<tag k="alt_name" v="Bakken" />
		<tag k="name" v="Kjellebekk" />
		<tag k="place" v="farm" />
		<tag k="ssr:stedsnr" v="430630" />
	</node>
	<node id="-38461" lat="59.9351472234" lon="12.0151527824">
		<tag k="name" v="Søndre Stangnesbråten" />
		<tag k="place" v="farm" />
		<tag k="ssr:stedsnr" v="654420" />
	</node>
	<node id="-38456" lat="59.8964083294" lon="12.0177861041">
		<tag k="name" v="Nybakk" />
		<tag k="place" v="farm" />
		<tag k="ssr:stedsnr" v="654222" />
	</node>
	<node id="-38451" lat="59.9670444406" lon="12.235591674">
		<tag k="name" v="Teppa" />
		<tag k="place" v="farm" />
		<tag k="ssr:stedsnr" v="654066" />
	</node>
	<node id="-37811" lat="59.9505583357" lon="11.9447944366">
		<tag k="name" v="Søndre Hornlia" />
		<tag k="place" v="farm" />
		<tag k="ssr:stedsnr" v="169035" />
	</node>
	<node id="-38448" lat="60.133308334" lon="12.2363555524">
		<tag k="name" v="Teppa" />
		<tag k="place" v="farm" />
		<tag k="ssr:stedsnr" v="734966" />
	</node>
	<node id="-38445" lat="60.131080557" lon="12.1715249988">
		<tag k="alt_name" v="Øvre Langrekken" />
		<tag k="name" v="Langrekken" />
		<tag k="place" v="farm" />
		<tag k="ssr:stedsnr" v="734596" />
	</node>
	<node id="-38443" lat="59.9849222194" lon="12.1047888952">
		<tag k="alt_name" v="Nedre Tuhus" />
		<tag k="name" v="Nertuhus" />
		<tag k="place" v="farm" />
		<tag k="ssr:stedsnr" v="734551" />
	</node>
	<node id="-38442" lat="59.9841111086" lon="11.9420166752">
		<tag k="name" v="Kalvhaugen" />
		<tag k="place" v="farm" />
		<tag k="ssr:stedsnr" v="734537" />
	</node>
	<node id="-38441" lat="59.9724166701" lon="11.9240472283">
		<tag k="name" v="Askerud" />
		<tag k="place" v="farm" />
		<tag k="ssr:stedsnr" v="734526" />
	</node>
	<node id="-38439" lat="59.9713500035" lon="12.0064750075">
		<tag k="name" v="Jonsrud" />
		<tag k="place" v="locality" />
		<tag k="ssr:stedsnr" v="734490" />
	</node>
	<node id="-38438" lat="59.9948805533" lon="12.1812250044">
		<tag k="name" v="Sørli" />
		<tag k="place" v="farm" />
		<tag k="ssr:stedsnr" v="734430" />
	</node>
	<node id="-38437" lat="59.9560027781" lon="12.1578499915">
		<tag k="name" v="Veiby" />
		<tag k="place" v="farm" />
		<tag k="ssr:stedsnr" v="734331" />
	</node>
	<node id="-38150" lat="59.9742666678" lon="12.1441861025">
		<tag k="name" v="Valmann" />
		<tag k="place" v="farm" />
		<tag k="ssr:stedsnr" v="369410" />
	</node>
	<node id="-38434" lat="59.9367416637" lon="11.9907611054">
		<tag k="name" v="Harstad" />
		<tag k="place" v="isolated_dwelling" />
		<tag k="ssr:stedsnr" v="734301" />
	</node>
	<node id="-38433" lat="59.9363413633" lon="12.0746445268">
		<tag k="fixme" v="consider place=hamlet" />
		<tag k="name" v="Ingelsrud" />
		<tag k="place" v="farm" />
		<tag k="ssr:stedsnr" v="734283" />
	</node>
	<node id="-38432" lat="59.901719447" lon="12.1133083376">
		<tag k="name" v="Vangen" />
		<tag k="old_name" v="Trandumsvangen" />
		<tag k="place" v="isolated_dwelling" />
		<tag k="ssr:stedsnr" v="734199" />
	</node>
	<node id="-38430" lat="59.9013138872" lon="11.9824277764">
		<tag k="name" v="Rudsenga" />
		<tag k="place" v="farm" />
		<tag k="ssr:stedsnr" v="734191" />
	</node>
	<node id="-38427" lat="59.9267583335" lon="12.2209888873">
		<tag k="name" v="Vilsberg" />
		<tag k="place" v="farm" />
		<tag k="ssr:stedsnr" v="734044" />
	</node>
	<node id="-40474" lat="59.9116452696" lon="12.0568561329">
		<tag k="fixme" v="consider tourism=alpine_hut or tourism=chalet" />
		<tag k="name" v="Slettmoen" />
		<tag k="ssr:stedsnr" v="1075955" />
		<tag k="tourism" v="wilderness_hut" />
	</node>
	<node id="-40473" lat="59.9622513953" lon="11.9700051323">
		<tag k="name" v="Nord-Moen" />
		<tag k="place" v="farm" />
		<tag k="ssr:stedsnr" v="1074727" />
	</node>
	<node id="-38424" lat="60.002722223" lon="11.9583500018">
		<tag k="alt_name" v="Busjøjordet" />
		<tag k="name" v="Busjøen" />
		<tag k="place" v="isolated_dwelling" />
		<tag k="ssr:stedsnr" v="733854" />
	</node>
	<node id="-38423" lat="60.0015378482" lon="12.2077150077">
		<tag k="fixme" v="consider place=hamlet" />
		<tag k="name" v="Tukun" />
		<tag k="place" v="farm" />
		<tag k="ssr:stedsnr" v="733847" />
	</node>
	<node id="-38422" lat="60.0067888928" lon="12.2177666655">
		<tag k="name" v="Vestby" />
		<tag k="place" v="farm" />
		<tag k="ssr:stedsnr" v="733845" />
	</node>
	<node id="-38420" lat="60.095300004" lon="12.1295527719">
		<tag k="name" v="Fiskerud" />
		<tag k="place" v="farm" />
		<tag k="ssr:stedsnr" v="733707" />
	</node>
	<node id="-38418" lat="60.0824611101" lon="12.1384500017">
		<tag k="name" v="Kolstad" />
		<tag k="place" v="farm" />
		<tag k="ssr:stedsnr" v="733669" />
	</node>
	<node id="-38417" lat="60.0508277765" lon="12.0367250076">
		<tag k="name" v="Sandmoen" />
		<tag k="place" v="farm" />
		<tag k="ssr:stedsnr" v="733652" />
	</node>
	<node id="-38415" lat="60.0250562645" lon="12.0417418578">
		<tag k="fixme" v="consider place=hamlet" />
		<tag k="name" v="Vestfjell" />
		<tag k="place" v="farm" />
		<tag k="ssr:stedsnr" v="733616" />
	</node>
	<node id="-38411" lat="59.9278888892" lon="12.027533336">
		<tag k="name" v="Rosenlund" />
		<tag k="place" v="locality" />
		<tag k="ssr:stedsnr" v="733329" />
	</node>
	<node id="-38410" lat="59.9298972231" lon="12.171322217">
		<tag k="name" v="Grorud" />
		<tag k="place" v="farm" />
		<tag k="ssr:stedsnr" v="733325" />
	</node>
	<node id="-38409" lat="59.9216194426" lon="11.9656694378">
		<tag k="alt_name" v="Langpassbråtan" />
		<tag k="name" v="Langvassbråtan" />
		<tag k="place" v="farm" />
		<tag k="ssr:stedsnr" v="733320" />
	</node>
	<node id="-38408" lat="59.9247153698" lon="11.9834607707">
		<tag k="fixme" v="consider place=hamlet" />
		<tag k="name" v="Rambøl" />
		<tag k="place" v="farm" />
		<tag k="ssr:stedsnr" v="733319" />
	</node>
	<node id="-38407" lat="59.9281083337" lon="11.850477786">
		<tag k="name" v="Bolfoss" />
		<tag k="place" v="farm" />
		<tag k="ssr:stedsnr" v="733315" />
	</node>
	<node id="-38406" lat="59.9587388844" lon="11.9965583405">
		<tag k="name" v="Oppset" />
		<tag k="place" v="farm" />
		<tag k="ssr:stedsnr" v="733290" />
	</node>
	<node id="-38405" lat="59.956794443" lon="12.0658999941">
		<tag k="alt_name" v="Nordgard" />
		<tag k="name" v="Nordgarden" />
		<tag k="place" v="farm" />
		<tag k="ssr:stedsnr" v="733280" />
	</node>
	<node id="-38404" lat="59.9553805571" lon="12.1413444418">
		<tag k="alt_name" v="Bråten" />
		<tag k="name" v="Bråtan" />
		<tag k="place" v="farm" />
		<tag k="ssr:stedsnr" v="733273" />
	</node>
	<node id="-38403" lat="59.9673638882" lon="12.2404000075">
		<tag k="name" v="Teppa" />
		<tag k="place" v="farm" />
		<tag k="ssr:stedsnr" v="733201" />
	</node>
	<node id="-38402" lat="59.9680249982" lon="12.2403527723">
		<tag k="name" v="Elvås" />
		<tag k="place" v="farm" />
		<tag k="ssr:stedsnr" v="733199" />
	</node>
	<node id="-38400" lat="59.978383331" lon="12.3421416713">
		<tag k="alt_name" v="Kletten" />
		<tag k="name" v="Kletta" />
		<tag k="place" v="farm" />
		<tag k="ssr:stedsnr" v="733196" />
	</node>
	<node id="-40447" lat="59.9719527809" lon="12.0599305642">
		<tag k="amenity" v="school" />
		<tag k="name" v="Tollefsbøl skole" />
		<tag k="ssr:stedsnr" v="958728" />
	</node>
	<node id="-38397" lat="60.0296750008" lon="12.253024992">
		<tag k="name" v="Gravlia" />
		<tag k="place" v="farm" />
		<tag k="ssr:stedsnr" v="733040" />
	</node>
	<node id="-38395" lat="60.0411300186" lon="12.2779528175">
		<tag k="fixme" v="consider place=hamlet" />
		<tag k="name" v="Klemmetsbråtan" />
		<tag k="place" v="farm" />
		<tag k="ssr:stedsnr" v="733005" />
	</node>
	<node id="-38394" lat="59.8944500011" lon="11.8339111064">
		<tag k="alt_name" v="Krogstad" />
		<tag k="name" v="Krokstad" />
		<tag k="place" v="farm" />
		<tag k="ssr:stedsnr" v="732264" />
	</node>
	<node id="-38393" lat="60.1343444485" lon="12.2353861157">
		<tag k="name" v="Snekkerberget" />
		<tag k="place" v="farm" />
		<tag k="ssr:stedsnr" v="612959" />
	</node>
	<node id="-40439" lat="59.9847888852" lon="12.1747472241">
		<tag k="name" v="Nedgarden" />
		<tag k="place" v="farm" />
		<tag k="ssr:stedsnr" v="958598" />
	</node>
	<node id="-40438" lat="59.9607499986" lon="12.2122500008">
		<tag k="name" v="Haugen" />
		<tag k="place" v="farm" />
		<tag k="ssr:stedsnr" v="958578" />
	</node>
	<node id="-40437" lat="59.9371194449" lon="12.2198694372">
		<tag k="name" v="Vangsvik" />
		<tag k="place" v="farm" />
		<tag k="ssr:stedsnr" v="958576" />
	</node>
	<node id="-38388" lat="59.8953777782" lon="11.8668916746">
		<tag k="name" v="Velta" />
		<tag k="place" v="farm" />
		<tag k="ssr:stedsnr" v="612190" />
	</node>
	<node id="-38142" lat="60.0554555553" lon="11.8258555558">
		<tag k="name" v="Mattisbråten" />
		<tag k="place" v="isolated_dwelling" />
		<tag k="ssr:stedsnr" v="491568" />
	</node>
	<node id="-40434" lat="59.9684833304" lon="12.1419472269">
		<tag k="name" v="Solås" />
		<tag k="place" v="farm" />
		<tag k="ssr:stedsnr" v="958543" />
	</node>
	<node id="-38385" lat="59.8633833338" lon="11.8824583411">
		<tag k="historic" v="shieling" />
		<tag k="name" v="Hanesætra" />
		<tag k="place" v="locality" />
		<tag k="ssr:stedsnr" v="612155" />
	</node>
	<node id="-40432" lat="60.0141207856" lon="12.1307547168">
		<tag k="name" v="Grønnerud" />
		<tag k="place" v="farm" />
		<tag k="ssr:stedsnr" v="958527" />
	</node>
	<node id="-37800" lat="59.9048138924" lon="11.9813638974">
		<tag k="name" v="Bakka" />
		<tag k="place" v="isolated_dwelling" />
		<tag k="ssr:stedsnr" v="168068" />
	</node>
	<node id="-38380" lat="59.9421861092" lon="12.1745500019">
		<tag k="name" v="Boger" />
		<tag k="place" v="farm" />
		<tag k="ssr:stedsnr" v="611388" />
	</node>
	<node id="-38172" lat="59.9833555567" lon="12.1500000053">
		<tag k="name" v="Elgåsen" />
		<tag k="place" v="farm" />
		<tag k="ssr:stedsnr" v="430447" />
	</node>
	<node id="-40425" lat="60.1322388923" lon="12.2310166608">
		<tag k="name" v="Østli" />
		<tag k="place" v="farm" />
		<tag k="ssr:stedsnr" v="958483" />
	</node>
	<node id="-38375" lat="59.929061107" lon="12.0070111064">
		<tag k="alt_name" v="Klanderudtangen" />
		<tag k="name" v="Tangen" />
		<tag k="place" v="farm" />
		<tag k="ssr:stedsnr" v="611362" />
	</node>
	<node id="-38374" lat="59.9317944446" lon="12.0193861102">
		<tag k="name" v="Sørli" />
		<tag k="place" v="farm" />
		<tag k="ssr:stedsnr" v="611357" />
	</node>
	<node id="-38373" lat="59.9295083366" lon="12.0200472219">
		<tag k="name" v="Øverby" />
		<tag k="place" v="farm" />
		<tag k="ssr:stedsnr" v="611356" />
	</node>
	<node id="-40420" lat="59.9780444425" lon="12.0515916598">
		<tag k="name" v="Tollefstad" />
		<tag k="place" v="farm" />
		<tag k="ssr:stedsnr" v="958425" />
	</node>
	<node id="-40418" lat="59.9896972251" lon="12.3316749937">
		<tag k="name" v="Brobakken" />
		<tag k="place" v="farm" />
		<tag k="ssr:stedsnr" v="958414" />
	</node>
	<node id="-40417" lat="59.9861305543" lon="12.3362055525">
		<tag k="name" v="Søndre Bekkenga" />
		<tag k="place" v="farm" />
		<tag k="ssr:stedsnr" v="958413" />
	</node>
	<node id="-40416" lat="59.9349083308" lon="12.0066638944">
		<tag k="name" v="Granlund" />
		<tag k="place" v="farm" />
		<tag k="ssr:stedsnr" v="958412" />
	</node>
	<node id="-40414" lat="59.9490861093" lon="11.9399083324">
		<tag k="name" v="Øvre Rambølsmyra" />
		<tag k="place" v="farm" />
		<tag k="ssr:stedsnr" v="958349" />
	</node>
	<node id="-40413" lat="60.0574972246" lon="11.8665361182">
		<tag k="name" v="Børli" />
		<tag k="place" v="isolated_dwelling" />
		<tag k="ssr:stedsnr" v="958345" />
	</node>
	<node id="-38362" lat="59.9843444442" lon="12.1321833244">
		<tag k="name" v="Skotterud hageby" />
		<tag k="place" v="quarter" />
		<tag k="ssr:stedsnr" v="715717" />
	</node>
	<node id="-40409" lat="60.1021138871" lon="12.1079055564">
		<tag k="name" v="Kroken" />
		<tag k="place" v="farm" />
		<tag k="ssr:stedsnr" v="958325" />
	</node>
	<node id="-39844" lat="59.9892790714" lon="12.1276747549">
		<tag k="fixme" v="consider place=hamlet" />
		<tag k="name" v="Skotterud" />
		<tag k="place" v="farm" />
		<tag k="ssr:stedsnr" v="551485" />
	</node>
	<node id="-40405" lat="59.9432277751" lon="12.14296945">
		<tag k="name" v="Bjørneby" />
		<tag k="place" v="farm" />
		<tag k="ssr:stedsnr" v="958266" />
	</node>
	<node id="-40401" lat="59.970261114" lon="12.1284861075">
		<tag k="name" v="Repset" />
		<tag k="place" v="farm" />
		<tag k="ssr:stedsnr" v="958245" />
	</node>
	<node id="-40400" lat="59.9899583308" lon="12.2553388816">
		<tag k="name" v="Støvelholet" />
		<tag k="place" v="farm" />
		<tag k="ssr:stedsnr" v="958236" />
	</node>
	<node id="-40399" lat="60.0030861079" lon="12.2041972291">
		<tag k="name" v="Tukun" />
		<tag k="place" v="farm" />
		<tag k="ssr:stedsnr" v="958205" />
	</node>
	<node id="-40398" lat="60.1150083361" lon="12.2669972259">
		<tag k="name" v="Steffenstorpet" />
		<tag k="place" v="farm" />
		<tag k="ssr:stedsnr" v="958204" />
	</node>
	<node id="-40397" lat="59.9810861149" lon="12.1749916582">
		<tag k="name" v="Søndre Ilag" />
		<tag k="place" v="farm" />
		<tag k="ssr:stedsnr" v="958198" />
	</node>
	<node id="-40395" lat="60.0206472221" lon="12.3025555485">
		<tag k="name" v="Revlemoen" />
		<tag k="place" v="farm" />
		<tag k="ssr:stedsnr" v="958155" />
	</node>
	<node id="-40393" lat="59.923419445" lon="11.9748916636">
		<tag k="name" v="Vestgarden Rambøl" />
		<tag k="place" v="farm" />
		<tag k="ssr:stedsnr" v="958113" />
	</node>
	<node id="-40392" lat="59.9255333291" lon="12.2234472272">
		<tag k="name" v="Søndre Vilsberg" />
		<tag k="place" v="farm" />
		<tag k="ssr:stedsnr" v="958110" />
	</node>
	<node id="-38343" lat="59.9351305579" lon="11.990091665">
		<tag k="name" v="Søndre Harstadhagen" />
		<tag k="place" v="farm" />
		<tag k="ssr:stedsnr" v="715612" />
	</node>
	<node id="-40390" lat="60.1054861094" lon="12.1335027745">
		<tag k="name" v="Lomtjennbakken" />
		<tag k="place" v="farm" />
		<tag k="ssr:stedsnr" v="958086" />
	</node>
	<node id="-40384" lat="60.0951861142" lon="12.2110249964">
		<tag k="name" v="Sæteren" />
		<tag k="place" v="farm" />
		<tag k="ssr:stedsnr" v="958024" />
	</node>
	<node id="-40381" lat="59.9091638905" lon="11.9849361122">
		<tag k="name" v="Klanderud" />
		<tag k="place" v="farm" />
		<tag k="ssr:stedsnr" v="958006" />
	</node>
	<node id="-40380" lat="60.0680166668" lon="12.06020555">
		<tag k="historic" v="shieling" />
		<tag k="name" v="Grasmosætra" />
		<tag k="place" v="locality" />
		<tag k="ssr:stedsnr" v="958002" />
	</node>
	<node id="-37695" lat="60.0072972265" lon="12.2197444409">
		<tag k="alt_name" v="Nordheim" />
		<tag k="name" v="Nordby" />
		<tag k="place" v="farm" />
		<tag k="ssr:stedsnr" v="66050" />
	</node>
	<node id="-38329" lat="59.9112083312" lon="12.1107361078">
		<tag k="name" v="Vika" />
		<tag k="place" v="farm" />
		<tag k="ssr:stedsnr" v="715236" />
	</node>
	<node id="-40373" lat="59.95112222" lon="12.1774666695">
		<tag k="leisure" v="pitch" />
		<tag k="name" v="Magnor Travbane" />
		<tag k="ssr:stedsnr" v="957531" />
	</node>
	<node id="-40370" lat="59.9245460248" lon="11.9855458697">
		<tag k="name" v="Nestun" />
		<tag k="place" v="farm" />
		<tag k="ssr:stedsnr" v="957160" />
	</node>
	<node id="-38319" lat="59.9158500002" lon="12.1662416677">
		<tag k="name" v="Lindbo" />
		<tag k="place" v="farm" />
		<tag k="ssr:stedsnr" v="715128" />
	</node>
	<node id="-38318" lat="60.0030416705" lon="12.095697219">
		<tag k="name" v="Vestre Berger" />
		<tag k="place" v="farm" />
		<tag k="ssr:stedsnr" v="715122" />
	</node>
	<node id="-40365" lat="60.030341817" lon="12.0445734825">
		<tag k="fixme" v="consider place=hamlet" />
		<tag k="name" v="Nordfjell" />
		<tag k="place" v="farm" />
		<tag k="ssr:stedsnr" v="855647" />
	</node>
	<node id="-40364" lat="60.0371750008" lon="12.0357305591">
		<tag k="name" v="Larsmoen" />
		<tag k="place" v="farm" />
		<tag k="ssr:stedsnr" v="855639" />
	</node>
	<node id="-40363" lat="60.0386999969" lon="12.1580749949">
		<tag k="name" v="Hytta" />
		<tag k="place" v="isolated_dwelling" />
		<tag k="ssr:stedsnr" v="855635" />
	</node>
	<node id="-38314" lat="59.9508388869" lon="12.1232694431">
		<tag k="name" v="Søndre Korsåsen" />
		<tag k="place" v="farm" />
		<tag k="ssr:stedsnr" v="715102" />
	</node>
	<node id="-40360" lat="60.0133703055" lon="12.0446593661">
		<tag k="fixme" v="consider place=hamlet" />
		<tag k="name" v="Rinda" />
		<tag k="place" v="farm" />
		<tag k="ssr:stedsnr" v="855876" />
	</node>
	<node id="-38311" lat="60.0045666624" lon="12.1225555596">
		<tag k="name" v="Hesbølbakken" />
		<tag k="place" v="farm" />
		<tag k="ssr:stedsnr" v="715189" />
	</node>
	<node id="-40357" lat="60.0019999974" lon="11.8977944473">
		<tag k="name" v="Sørli" />
		<tag k="place" v="farm" />
		<tag k="ssr:stedsnr" v="855867" />
	</node>
	<node id="-40356" lat="60.0110194444" lon="12.1368611149">
		<tag k="name" v="Delerud" />
		<tag k="place" v="farm" />
		<tag k="ssr:stedsnr" v="855865" />
	</node>
	<node id="-40355" lat="60.0947305518" lon="12.1177749913">
		<tag k="name" v="Eidsbrua" />
		<tag k="place" v="farm" />
		<tag k="ssr:stedsnr" v="855752" />
	</node>
	<node id="-40354" lat="60.0940527737" lon="12.0730500073">
		<tag k="name" v="Malmermoen" />
		<tag k="place" v="farm" />
		<tag k="ssr:stedsnr" v="855751" />
	</node>
	<node id="-40353" lat="60.0896916688" lon="12.0280861122">
		<tag k="name" v="Raudhella" />
		<tag k="place" v="isolated_dwelling" />
		<tag k="ssr:stedsnr" v="855746" />
	</node>
	<node id="-38304" lat="59.920047224" lon="11.857491668">
		<tag k="alt_name" v="S. Godnes" />
		<tag k="name" v="Søndre Godnes" />
		<tag k="place" v="farm" />
		<tag k="ssr:stedsnr" v="715071" />
	</node>
	<node id="-38302" lat="59.9314083342" lon="11.9684361029">
		<tag k="name" v="Holtet" />
		<tag k="place" v="farm" />
		<tag k="ssr:stedsnr" v="715056" />
	</node>
	<node id="-40349" lat="60.0653583359" lon="12.0202250089">
		<tag k="alt_name" v="Gotlund" />
		<tag k="name" v="Godtlund" />
		<tag k="place" v="farm" />
		<tag k="ssr:stedsnr" v="855732" />
	</node>
	<node id="-40347" lat="60.0697861146" lon="12.0314749967">
		<tag k="name" v="Lindåsen" />
		<tag k="place" v="farm" />
		<tag k="ssr:stedsnr" v="855725" />
	</node>
	<node id="-40345" lat="60.0572166704" lon="12.1212111182">
		<tag k="alt_name" v="Nordre Skrådal" />
		<tag k="name" v="Skrådal" />
		<tag k="place" v="farm" />
		<tag k="ssr:stedsnr" v="855691" />
	</node>
	<node id="-40344" lat="60.0553138913" lon="12.0875833333">
		<tag k="name" v="Sætra" />
		<tag k="place" v="farm" />
		<tag k="ssr:stedsnr" v="855683" />
	</node>
	<node id="-38101" lat="59.939419443" lon="12.1665666669">
		<tag k="name" v="Nymoen" />
		<tag k="place" v="farm" />
		<tag k="ssr:stedsnr" v="490361" />
	</node>
	<node id="-40342" lat="59.9764555541" lon="12.0656861052">
		<tag k="name" v="Børrudhagen" />
		<tag k="place" v="farm" />
		<tag k="ssr:stedsnr" v="855440" />
	</node>
	<node id="-37785" lat="59.9294888868" lon="12.1726472179">
		<tag k="name" v="Solås" />
		<tag k="place" v="isolated_dwelling" />
		<tag k="ssr:stedsnr" v="109136" />
	</node>
	<node id="-38292" lat="59.9515305522" lon="12.1998166613">
		<tag k="building" v="industrial" />
		<tag k="industrial" v="factory" />
		<tag k="name" v="Magnor Glassverk" />
		<tag k="ssr:stedsnr" v="694234" />
	</node>
	<node id="-40337" lat="59.9917250038" lon="12.1708861139">
		<tag k="name" v="Solås" />
		<tag k="place" v="farm" />
		<tag k="ssr:stedsnr" v="855382" />
	</node>
	<node id="-40336" lat="59.9974583365" lon="12.3033972197">
		<tag k="name" v="Bråtan" />
		<tag k="place" v="farm" />
		<tag k="ssr:stedsnr" v="855246" />
	</node>
	<node id="-37784" lat="60.0070480457" lon="12.0933089715">
		<tag k="fixme" v="multiple name tags, choose one and add the other to alt_name; consider place=hamlet" />
		<tag k="name" v="Berger;Øgarden" />
		<tag k="old_name" v="Ødegaarden" />
		<tag k="place" v="farm" />
		<tag k="ssr:stedsnr" v="109102" />
	</node>
	<node id="-40334" lat="59.9273249984" lon="12.0848861023">
		<tag k="name" v="Høgbakken" />
		<tag k="place" v="farm" />
		<tag k="ssr:stedsnr" v="855346" />
	</node>
	<node id="-40333" lat="59.929183333" lon="12.0725250034">
		<tag k="alt_name" v="Engebråten" />
		<tag k="name" v="Engebråtan" />
		<tag k="place" v="farm" />
		<tag k="ssr:stedsnr" v="855344" />
	</node>
	<node id="-40332" lat="59.9345055592" lon="12.163824998">
		<tag k="name" v="Brattli" />
		<tag k="place" v="farm" />
		<tag k="ssr:stedsnr" v="855332" />
	</node>
	<node id="-40331" lat="59.9340527797" lon="12.1574249955">
		<tag k="name" v="Haget" />
		<tag k="place" v="farm" />
		<tag k="ssr:stedsnr" v="855331" />
	</node>
	<node id="-40330" lat="59.9284777747" lon="12.1540916673">
		<tag k="name" v="Gjøslia" />
		<tag k="place" v="farm" />
		<tag k="ssr:stedsnr" v="855328" />
	</node>
	<node id="-40327" lat="59.9255861141" lon="12.2022166647">
		<tag k="alt_name" v="Fagerlia" />
		<tag k="name" v="Fagerli" />
		<tag k="place" v="farm" />
		<tag k="ssr:stedsnr" v="855314" />
	</node>
	<node id="-40325" lat="59.9520083311" lon="12.1531722156">
		<tag k="alt_name" v="Haget" />
		<tag k="name" v="Nordhaget" />
		<tag k="place" v="farm" />
		<tag k="ssr:stedsnr" v="855277" />
	</node>
	<node id="-40323" lat="59.8885749989" lon="11.9242666722">
		<tag k="name" v="Verpet" />
		<tag k="place" v="farm" />
		<tag k="ssr:stedsnr" v="855129" />
	</node>
	<node id="-38274" lat="59.9061694454" lon="12.1263638889">
		<tag k="name" v="Søli" />
		<tag k="place" v="locality" />
		<tag k="ssr:stedsnr" v="533226" />
	</node>
	<node id="-40321" lat="59.9792000027" lon="12.3383666684">
		<tag k="name" v="Nystuen" />
		<tag k="place" v="farm" />
		<tag k="ssr:stedsnr" v="855196" />
	</node>
	<node id="-40320" lat="59.9753380279" lon="12.232376676">
		<tag k="fixme" v="consider place=hamlet" />
		<tag k="name" v="Holtet" />
		<tag k="place" v="farm" />
		<tag k="ssr:stedsnr" v="855195" />
	</node>
	<node id="-40319" lat="60.0103111087" lon="12.2747805601">
		<tag k="name" v="Vålvatnet" />
		<tag k="old_name" v="Ørreberget" />
		<tag k="place" v="farm" />
		<tag k="ssr:stedsnr" v="855193" />
	</node>
	<node id="-40318" lat="59.9805067038" lon="12.2297543259">
		<tag k="name" v="Gransætra" />
		<tag k="place" v="farm" />
		<tag k="ssr:stedsnr" v="855191" />
	</node>
	<node id="-40316" lat="59.9924638908" lon="12.3307416645">
		<tag k="alt_name" v="Rokstad" />
		<tag k="name" v="Rogstad" />
		<tag k="place" v="farm" />
		<tag k="ssr:stedsnr" v="855185" />
	</node>
	<node id="-40315" lat="59.9816527763" lon="12.2256750024">
		<tag k="name" v="Tangen" />
		<tag k="place" v="farm" />
		<tag k="ssr:stedsnr" v="855184" />
	</node>
	<node id="-40314" lat="59.886108334" lon="11.8447777867">
		<tag k="alt_name" v="Sandbakken" />
		<tag k="name" v="Nordre Sandbakken" />
		<tag k="place" v="farm" />
		<tag k="ssr:stedsnr" v="855183" />
	</node>
	<node id="-38265" lat="59.9545083379" lon="12.0475388847">
		<tag k="name" v="Sørgarden" />
		<tag k="place" v="farm" />
		<tag k="ssr:stedsnr" v="688020" />
	</node>
	<node id="-38264" lat="59.9553083304" lon="12.0479416734">
		<tag k="name" v="Nord-Stranda" />
		<tag k="place" v="farm" />
		<tag k="ssr:stedsnr" v="688018" />
	</node>
	<node id="-38258" lat="60.0702409783" lon="12.1161982822">
		<tag k="fixme" v="consider place=hamlet" />
		<tag k="name" v="Malmer" />
		<tag k="place" v="farm" />
		<tag k="ssr:stedsnr" v="673711" />
	</node>
	<node id="-38257" lat="60.0523305529" lon="12.1199805577">
		<tag k="name" v="Langbrumoen" />
		<tag k="place" v="farm" />
		<tag k="ssr:stedsnr" v="673681" />
	</node>
	<node id="-38256" lat="60.0497888866" lon="11.8507055615">
		<tag k="name" v="Fjellbubråtan" />
		<tag k="place" v="isolated_dwelling" />
		<tag k="ssr:stedsnr" v="673673" />
	</node>
	<node id="-38252" lat="60.1149444445" lon="12.1696361183">
		<tag k="name" v="Raudfjellet" />
		<tag k="place" v="farm" />
		<tag k="ssr:stedsnr" v="673540" />
	</node>
	<node id="-38251" lat="59.9870833368" lon="12.0444333317">
		<tag k="name" v="Nordgard" />
		<tag k="place" v="farm" />
		<tag k="ssr:stedsnr" v="673509" />
	</node>
	<node id="-38250" lat="59.9866666694" lon="12.0609277813">
		<tag k="name" v="Elvely" />
		<tag k="place" v="farm" />
		<tag k="ssr:stedsnr" v="673507" />
	</node>
	<node id="-38248" lat="59.9715888916" lon="11.9516611079">
		<tag k="name" v="Hedum" />
		<tag k="place" v="farm" />
		<tag k="ssr:stedsnr" v="673492" />
	</node>
	<node id="-40295" lat="59.9603055562" lon="12.1431472304">
		<tag k="name" v="Oppgarden" />
		<tag k="place" v="farm" />
		<tag k="ssr:stedsnr" v="837593" />
	</node>
	<node id="-40294" lat="59.9931000042" lon="12.050644438">
		<tag k="name" v="Søndre Åserud" />
		<tag k="place" v="farm" />
		<tag k="ssr:stedsnr" v="837579" />
	</node>
	<node id="-38245" lat="59.9845305548" lon="12.1777999979">
		<tag k="name" v="Rønningen" />
		<tag k="place" v="farm" />
		<tag k="ssr:stedsnr" v="673482" />
	</node>
	<node id="-38244" lat="59.9706055598" lon="12.1072000026">
		<tag k="name" v="Vestgarden" />
		<tag k="place" v="farm" />
		<tag k="ssr:stedsnr" v="673459" />
	</node>
	<node id="-38243" lat="59.9705333347" lon="12.0645083315">
		<tag k="name" v="Austvang" />
		<tag k="place" v="farm" />
		<tag k="ssr:stedsnr" v="673456" />
	</node>
	<node id="-38242" lat="59.9939353633" lon="11.8698272974">
		<tag k="alt_name" v="Kjensmobråten" />
		<tag k="loc_name" v="Tjennsmobråtan" />
		<tag k="name" v="Tjernsmobråtan" />
		<tag k="place" v="farm" />
		<tag k="ssr:stedsnr" v="673414" />
	</node>
	<node id="-38241" lat="59.9988333356" lon="12.1742250079">
		<tag k="name" v="Ilerud" />
		<tag k="place" v="farm" />
		<tag k="ssr:stedsnr" v="673395" />
	</node>
	<node id="-38240" lat="59.9885861104" lon="11.988336108">
		<tag k="alt_name" v="Torkildsbråten" />
		<tag k="name" v="Torkildsbråtan" />
		<tag k="place" v="farm" />
		<tag k="ssr:stedsnr" v="673388" />
	</node>
	<node id="-38238" lat="59.9356500038" lon="12.1800666709">
		<tag k="name" v="Linnerud" />
		<tag k="place" v="farm" />
		<tag k="ssr:stedsnr" v="673366" />
	</node>
	<node id="-38237" lat="59.9137916663" lon="12.1682972289">
		<tag k="alt_name" v="Sør-Linkjølen" />
		<tag k="name" v="Linkjølen" />
		<tag k="place" v="farm" />
		<tag k="ssr:stedsnr" v="673345" />
	</node>
	<node id="-38235" lat="59.9644440423" lon="12.1432222465">
		<tag k="fixme" v="consider place=hamlet" />
		<tag k="name" v="Gaustad" />
		<tag k="place" v="farm" />
		<tag k="ssr:stedsnr" v="673338" />
	</node>
	<node id="-40282" lat="60.000330552" lon="11.9057111147">
		<tag k="name" v="Haraposten" />
		<tag k="place" v="isolated_dwelling" />
		<tag k="ssr:stedsnr" v="837349" />
	</node>
	<node id="-38233" lat="59.9608999971" lon="12.0405249952">
		<tag k="name" v="Stangnes" />
		<tag k="place" v="farm" />
		<tag k="ssr:stedsnr" v="673323" />
	</node>
	<node id="-38232" lat="59.9621250022" lon="12.1299777823">
		<tag k="alt_name" v="Jerpelia" />
		<tag k="name" v="Lia" />
		<tag k="place" v="farm" />
		<tag k="ssr:stedsnr" v="673315" />
	</node>
	<node id="-38230" lat="59.9519750004" lon="11.9464777701">
		<tag k="name" v="Hornlia" />
		<tag k="place" v="farm" />
		<tag k="ssr:stedsnr" v="673304" />
	</node>
	<node id="-38229" lat="59.9519805512" lon="11.974877779">
		<tag k="alt_name" v="Nygård" />
		<tag k="name" v="Nygard" />
		<tag k="place" v="farm" />
		<tag k="ssr:stedsnr" v="673301" />
	</node>
	<node id="-38228" lat="59.937877776" lon="11.9940805579">
		<tag k="alt_name" v="Brustad" />
		<tag k="name" v="Søndre Brustad" />
		<tag k="place" v="farm" />
		<tag k="ssr:stedsnr" v="673277" />
	</node>
	<node id="-38227" lat="59.9380972191" lon="12.0860583282">
		<tag k="alt_name" v="Åstebøllien" />
		<tag k="loc_name" v="Åstebøllia" />
		<tag k="name" v="Lia" />
		<tag k="place" v="farm" />
		<tag k="ssr:stedsnr" v="673276" />
	</node>
	<node id="-38225" lat="59.9664250013" lon="12.2409666734">
		<tag k="name" v="Myrvoll" />
		<tag k="place" v="farm" />
		<tag k="ssr:stedsnr" v="673227" />
	</node>
	<node id="-40272" lat="59.9955111124" lon="12.3073361175">
		<tag k="name" v="Skogtun" />
		<tag k="place" v="farm" />
		<tag k="ssr:stedsnr" v="837140" />
	</node>
	<node id="-38223" lat="59.9669833313" lon="12.2265749956">
		<tag k="name" v="Framgarden" />
		<tag k="place" v="farm" />
		<tag k="ssr:stedsnr" v="673217" />
	</node>
	<node id="-40270" lat="60.0219805579" lon="12.2998166708">
		<tag k="name" v="Sandby" />
		<tag k="place" v="farm" />
		<tag k="ssr:stedsnr" v="837129" />
	</node>
	<node id="-40267" lat="59.9894805536" lon="12.2325416612">
		<tag k="name" v="Inntaket" />
		<tag k="place" v="farm" />
		<tag k="ssr:stedsnr" v="837119" />
	</node>
	<node id="-38218" lat="60.0230277764" lon="12.2951083292">
		<tag k="name" v="Sandby" />
		<tag k="place" v="farm" />
		<tag k="ssr:stedsnr" v="673053" />
	</node>
	<node id="-38216" lat="59.9397361126" lon="12.255555562">
		<tag k="name" v="Linåsen" />
		<tag k="place" v="farm" />
		<tag k="ssr:stedsnr" v="673049" />
	</node>
	<node id="-40262" lat="59.9231833294" lon="12.0846055602">
		<tag k="alt_name" v="Sjøenden nordre" />
		<tag k="name" v="Nordre Sjøenden" />
		<tag k="place" v="farm" />
		<tag k="ssr:stedsnr" v="837364" />
	</node>
	<node id="-40261" lat="59.9257194484" lon="12.1272222277">
		<tag k="historic" v="shieling" />
		<tag k="name" v="Øvre Nysætra" />
		<tag k="place" v="locality" />
		<tag k="ssr:stedsnr" v="837363" />
	</node>
	<node id="-40259" lat="59.9682083352" lon="11.9542888875">
		<tag k="name" v="Østre Hea" />
		<tag k="place" v="farm" />
		<tag k="ssr:stedsnr" v="837358" />
	</node>
	<node id="-40258" lat="59.9891361108" lon="11.8482833344">
		<tag k="name" v="Hundeengene" />
		<tag k="place" v="isolated_dwelling" />
		<tag k="ssr:stedsnr" v="837356" />
	</node>
	<node id="-38209" lat="60.0110166684" lon="11.9446500051">
		<tag k="name" v="Busjøstua" />
		<tag k="place" v="locality" />
		<tag k="ssr:stedsnr" v="672873" />
	</node>
	<node id="-38208" lat="60.024564139" lon="12.1364617511">
		<tag k="fixme" v="consider place=hamlet" />
		<tag k="name" v="Lunderby" />
		<tag k="place" v="farm" />
		<tag k="ssr:stedsnr" v="672868" />
	</node>
	<node id="-38206" lat="60.0873083298" lon="12.0732055527">
		<tag k="name" v="Dalsholet" />
		<tag k="place" v="farm" />
		<tag k="ssr:stedsnr" v="672744" />
	</node>
	<node id="-38204" lat="60.0878294061" lon="12.1583880243">
		<tag k="fixme" v="consider place=hamlet" />
		<tag k="name" v="Bråta" />
		<tag k="place" v="farm" />
		<tag k="ssr:stedsnr" v="672673" />
	</node>
	<node id="-38201" lat="59.9720212886" lon="12.0554606745">
		<tag k="name" v="Tobøl" />
		<tag k="place" v="hamlet" />
		<tag k="ssr:stedsnr" v="672429" />
	</node>
	<node id="-38200" lat="59.9388583318" lon="12.138974999">
		<tag k="name" v="Glader" />
		<tag k="place" v="farm" />
		<tag k="ssr:stedsnr" v="672334" />
	</node>
	<node id="-38199" lat="59.9286250005" lon="12.0949805642">
		<tag k="name" v="Østom" />
		<tag k="place" v="farm" />
		<tag k="ssr:stedsnr" v="672314" />
	</node>
	<node id="-40245" lat="59.9413638909" lon="12.1558333246">
		<tag k="name" v="Nyvoll" />
		<tag k="place" v="farm" />
		<tag k="ssr:stedsnr" v="837087" />
	</node>
	<node id="-38196" lat="59.9864960607" lon="12.3356771149">
		<tag k="name" v="Bekkenga" />
		<tag k="place" v="locality" />
		<tag k="ssr:stedsnr" v="672180" />
	</node>
	<node id="-38195" lat="59.9003722254" lon="12.1143222144">
		<tag k="name" v="Braserudhaget" />
		<tag k="place" v="farm" />
		<tag k="ssr:stedsnr" v="672171" />
	</node>
	<node id="-40242" lat="60.0123611124" lon="12.1312777846">
		<tag k="name" v="Midtskog" />
		<tag k="place" v="farm" />
		<tag k="ssr:stedsnr" v="837083" />
	</node>
	<node id="-38189" lat="59.9237361125" lon="11.9960944478">
		<tag k="alt_name" v="Rambøl;Rambøl av Klanderud" />
		<tag k="fixme" v="multiple name tags, choose one and add the other to alt_name" />
		<tag k="name" v="Søndre Eidet;Søndre Rambølsbruket" />
		<tag k="place" v="farm" />
		<tag k="ssr:stedsnr" v="666125" />
	</node>
	<node id="-38188" lat="60.0828027733" lon="12.0674222252">
		<tag k="name" v="Nordre Mila" />
		<tag k="place" v="farm" />
		<tag k="ssr:stedsnr" v="664184" />
	</node>
	<node id="-37767" lat="60.089758329" lon="12.1175499978">
		<tag k="name" v="Snaret" />
		<tag k="place" v="farm" />
		<tag k="ssr:stedsnr" v="248748" />
	</node>
	<node id="-40231" lat="59.9799083293" lon="12.169111107">
		<tag k="name" v="Nystuen" />
		<tag k="place" v="farm" />
		<tag k="ssr:stedsnr" v="836146" />
	</node>
	<node id="-40228" lat="60.0568027799" lon="11.8648250033">
		<tag k="name" v="Børli" />
		<tag k="place" v="isolated_dwelling" />
		<tag k="ssr:stedsnr" v="836050" />
	</node>
	<node id="-40227" lat="59.9721472266" lon="11.9700527701">
		<tag k="name" v="Brakka" />
		<tag k="place" v="isolated_dwelling" />
		<tag k="ssr:stedsnr" v="836042" />
	</node>
	<node id="-40226" lat="60.0448499965" lon="11.8972888947">
		<tag k="name" v="Bekken" />
		<tag k="place" v="isolated_dwelling" />
		<tag k="ssr:stedsnr" v="836036" />
	</node>
	<node id="-38177" lat="60.0605277768" lon="12.1204833355">
		<tag k="name" v="Dal" />
		<tag k="place" v="farm" />
		<tag k="ssr:stedsnr" v="430652" />
	</node>
	<node id="-40223" lat="59.9469166707" lon="12.161950004">
		<tag k="name" v="Hagerud" />
		<tag k="place" v="farm" />
		<tag k="ssr:stedsnr" v="830859" />
	</node>
	<node id="-38173" lat="59.9840342632" lon="12.2072573647">
		<tag k="name" v="Furuset" />
		<tag k="place" v="isolated_dwelling" />
		<tag k="ssr:stedsnr" v="430450" />
	</node>
	<node id="-40220" lat="59.9707000034" lon="12.0500777696">
		<tag k="name" v="Sørstuen" />
		<tag k="place" v="farm" />
		<tag k="ssr:stedsnr" v="810035" />
	</node>
	<node id="-40219" lat="59.9511527823" lon="12.0461749991">
		<tag k="name" v="Sør-Delvika" />
		<tag k="place" v="farm" />
		<tag k="ssr:stedsnr" v="810033" />
	</node>
	<node id="-40218" lat="59.9339194458" lon="11.977936113">
		<tag k="name" v="Glingeråsen" />
		<tag k="place" v="quarter" />
		<tag k="ssr:stedsnr" v="810032" />
	</node>
	<node id="-40217" lat="59.903333334" lon="12.0647416727">
		<tag k="historic" v="shieling" />
		<tag k="name" v="Ingelsrudsætra" />
		<tag k="place" v="locality" />
		<tag k="ssr:stedsnr" v="795201" />
	</node>
	<node id="-38165" lat="59.9390583321" lon="12.226469444">
		<tag k="name" v="Vangli" />
		<tag k="place" v="isolated_dwelling" />
		<tag k="ssr:stedsnr" v="430045" />
	</node>
	<node id="-40212" lat="60.0466333289" lon="11.9382388931">
		<tag k="name" v="Skjølungen" />
		<tag k="place" v="locality" />
		<tag k="ssr:stedsnr" v="794675" />
	</node>
	<node id="-40210" lat="60.0544249973" lon="12.0899027753">
		<tag k="name" v="Sætermoen" />
		<tag k="place" v="farm" />
		<tag k="ssr:stedsnr" v="794668" />
	</node>
	<node id="-38161" lat="60.1130416631" lon="12.10479444">
		<tag k="name" v="Åbogen" />
		<tag k="place" v="farm" />
		<tag k="ssr:stedsnr" v="412304" />
	</node>
	<node id="-39665" lat="59.9402722231" lon="12.1342527825">
		<tag k="name" v="Køya" />
		<tag k="place" v="farm" />
		<tag k="ssr:stedsnr" v="412219" />
	</node>
	<node id="-38159" lat="60.0280500009" lon="12.0895805555">
		<tag k="alt_name" v="Nordre Nordkisen;Kisen" />
		<tag k="name" v="Nordre Nordkisa" />
		<tag k="place" v="farm" />
		<tag k="ssr:stedsnr" v="406719" />
	</node>
	<node id="-38158" lat="60.0051305597" lon="12.0805333382">
		<tag k="name" v="Nystuen" />
		<tag k="place" v="farm" />
		<tag k="ssr:stedsnr" v="404573" />
	</node>
	<node id="-40205" lat="60.0257277813" lon="11.9134888906">
		<tag k="alt_name" v="Løvlien" />
		<tag k="name" v="Løvlia" />
		<tag k="place" v="farm" />
		<tag k="ssr:stedsnr" v="794644" />
	</node>
	<node id="-38153" lat="60.0488499984" lon="12.1470999935">
		<tag k="name" v="Kapstadenga" />
		<tag k="place" v="farm" />
		<tag k="ssr:stedsnr" v="369626" />
	</node>
	<node id="-40200" lat="60.0033944466" lon="12.0453472193">
		<tag k="alt_name" v="Melomlia" />
		<tag k="name" v="Lia" />
		<tag k="place" v="farm" />
		<tag k="ssr:stedsnr" v="794848" />
	</node>
	<node id="-38151" lat="60.0176333355" lon="12.0461861198">
		<tag k="name" v="Rinda" />
		<tag k="place" v="farm" />
		<tag k="ssr:stedsnr" v="369602" />
	</node>
	<node id="-40198" lat="59.983408335" lon="11.9794750054">
		<tag k="name" v="Nordby" />
		<tag k="place" v="farm" />
		<tag k="ssr:stedsnr" v="794468" />
	</node>
	<node id="-38149" lat="59.9689138871" lon="12.1097111148">
		<tag k="name" v="Sørgarden" />
		<tag k="place" v="farm" />
		<tag k="ssr:stedsnr" v="369405" />
	</node>
	<node id="-38148" lat="60.0023083328" lon="11.9123694468">
		<tag k="alt_name" v="Fjellskogen, s;Søndre Fjellskogen" />
		<tag k="name" v="Fjellskogen" />
		<tag k="old_name" v="Fjeldskoven;Fjeldskogen" />
		<tag k="place" v="farm" />
		<tag k="ssr:stedsnr" v="359370" />
	</node>
	<node id="-38147" lat="60.1266138902" lon="12.2354194509">
		<tag k="alt_name" v="Holsætra, s" />
		<tag k="loc_name" v="Søndre Holsætra" />
		<tag k="name" v="Søndre Holsæter" />
		<tag k="place" v="farm" />
		<tag k="ssr:stedsnr" v="491958" />
	</node>
	<node id="-38145" lat="60.052376401" lon="12.1568737953">
		<tag k="fixme" v="consider place=hamlet" />
		<tag k="name" v="Kapstad" />
		<tag k="place" v="farm" />
		<tag k="ssr:stedsnr" v="491676" />
	</node>
	<node id="-38143" lat="60.0579000007" lon="12.0881555527">
		<tag k="name" v="Drognes" />
		<tag k="place" v="farm" />
		<tag k="ssr:stedsnr" v="491663" />
	</node>
	<node id="-40190" lat="59.9244888856" lon="12.212050005">
		<tag k="name" v="Bergerud" />
		<tag k="place" v="farm" />
		<tag k="ssr:stedsnr" v="794297" />
	</node>
	<node id="-38141" lat="59.9820111099" lon="11.9641388921">
		<tag k="name" v="Sagmoen" />
		<tag k="place" v="farm" />
		<tag k="ssr:stedsnr" v="491521" />
	</node>
	<node id="-40188" lat="59.9720524185" lon="12.1346654908">
		<tag k="alt_name" v="Repset;Refset" />
		<tag k="name" v="Refsette" />
		<tag k="place" v="locality" />
		<tag k="ssr:stedsnr" v="794283" />
	</node>
	<node id="-38138" lat="59.9760138847" lon="12.0312333315">
		<tag k="name" v="Aurbakken" />
		<tag k="place" v="farm" />
		<tag k="ssr:stedsnr" v="491470" />
	</node>
	<node id="-38137" lat="59.9966500041" lon="12.1747972165">
		<tag k="alt_name" v="Nordhølet" />
		<tag k="name" v="Haugen" />
		<tag k="place" v="farm" />
		<tag k="ssr:stedsnr" v="491412" />
	</node>
	<node id="-40184" lat="59.9527805545" lon="12.2157333246">
		<tag k="name" v="Skalby" />
		<tag k="place" v="farm" />
		<tag k="ssr:stedsnr" v="794251" />
	</node>
	<node id="-40183" lat="59.941599997" lon="11.8969638835">
		<tag k="alt_name" v="Nygård" />
		<tag k="name" v="Nygard" />
		<tag k="place" v="farm" />
		<tag k="ssr:stedsnr" v="794241" />
	</node>
	<node id="-38133" lat="59.9506500033" lon="12.0260027728">
		<tag k="name" v="Rønningen" />
		<tag k="place" v="farm" />
		<tag k="ssr:stedsnr" v="491296" />
	</node>
	<node id="-38132" lat="59.9480870867" lon="12.0676787665">
		<tag k="name" v="Nedgarden" />
		<tag k="place" v="farm" />
		<tag k="ssr:stedsnr" v="491285" />
	</node>
	<node id="-38131" lat="59.9519222212" lon="12.0640222307">
		<tag k="alt_name" v="Neset" />
		<tag k="name" v="Nordjordet" />
		<tag k="place" v="farm" />
		<tag k="ssr:stedsnr" v="491282" />
	</node>
	<node id="-38130" lat="59.9500944448" lon="12.120841673">
		<tag k="name" v="Østli" />
		<tag k="place" v="farm" />
		<tag k="ssr:stedsnr" v="491279" />
	</node>
	<node id="-40177" lat="59.9781527755" lon="12.2491111102">
		<tag k="name" v="Steinsrud" />
		<tag k="place" v="farm" />
		<tag k="ssr:stedsnr" v="794184" />
	</node>
	<node id="-38128" lat="59.9383194427" lon="11.9932250076">
		<tag k="alt_name" v="Brustad" />
		<tag k="name" v="Nordre Brustad" />
		<tag k="place" v="farm" />
		<tag k="ssr:stedsnr" v="491255" />
	</node>
	<node id="-40174" lat="59.8957305572" lon="12.1175166596">
		<tag k="name" v="Braserud" />
		<tag k="place" v="farm" />
		<tag k="ssr:stedsnr" v="794167" />
	</node>
	<node id="-38125" lat="59.9014749973" lon="11.9875388866">
		<tag k="name" v="Hauga" />
		<tag k="place" v="farm" />
		<tag k="ssr:stedsnr" v="491180" />
	</node>
	<node id="-40171" lat="59.988705555" lon="11.8140083402">
		<tag k="alt_name" v="Østre Dammen" />
		<tag k="name" v="Dammen" />
		<tag k="place" v="farm" />
		<tag k="ssr:stedsnr" v="793958" />
	</node>
	<node id="-38122" lat="59.8911333368" lon="11.8576333353">
		<tag k="name" v="Tangen" />
		<tag k="place" v="farm" />
		<tag k="ssr:stedsnr" v="491137" />
	</node>
	<node id="-38119" lat="60.0198722198" lon="12.1851861027">
		<tag k="historic" v="shieling" />
		<tag k="name" v="Midtskogsætra" />
		<tag k="place" v="locality" />
		<tag k="ssr:stedsnr" v="490869" />
	</node>
	<node id="-38118" lat="60.0086385653" lon="12.0812965547">
		<tag k="fixme" v="consider place=hamlet" />
		<tag k="name" v="Rødberg" />
		<tag k="place" v="farm" />
		<tag k="ssr:stedsnr" v="490861" />
	</node>
	<node id="-38117" lat="60.0038000034" lon="11.8790750078">
		<tag k="name" v="Gravlia" />
		<tag k="place" v="farm" />
		<tag k="ssr:stedsnr" v="490854" />
	</node>
	<node id="-38116" lat="60.003105551" lon="12.201500007">
		<tag k="name" v="Lauvåsen" />
		<tag k="place" v="farm" />
		<tag k="ssr:stedsnr" v="490844" />
	</node>
	<node id="-38115" lat="60.0059305539" lon="12.101924994">
		<tag k="name" v="Haug" />
		<tag k="place" v="farm" />
		<tag k="ssr:stedsnr" v="490842" />
	</node>
	<node id="-38112" lat="60.0670805548" lon="12.1494972294">
		<tag k="name" v="Snekkermoen" />
		<tag k="place" v="isolated_dwelling" />
		<tag k="ssr:stedsnr" v="490719" />
	</node>
	<node id="-38111" lat="60.0655944403" lon="12.1146166699">
		<tag k="name" v="Forkerud" />
		<tag k="place" v="farm" />
		<tag k="ssr:stedsnr" v="490717" />
	</node>
	<node id="-38110" lat="60.0618611095" lon="12.0134222203">
		<tag k="alt_name" v="Åkroken, s;Åkroken" />
		<tag k="name" v="Søndre Åkroken" />
		<tag k="place" v="farm" />
		<tag k="ssr:stedsnr" v="490715" />
	</node>
	<node id="-40157" lat="59.9854805562" lon="12.0978249996">
		<tag k="name" v="Reppshus" />
		<tag k="place" v="farm" />
		<tag k="ssr:stedsnr" v="776595" />
	</node>
	<node id="-40156" lat="59.9396305568" lon="11.9879194496">
		<tag k="name" v="Nordre Harstadhagen" />
		<tag k="place" v="farm" />
		<tag k="ssr:stedsnr" v="776580" />
	</node>
	<node id="-38106" lat="59.9801531876" lon="12.2154482775">
		<tag k="fixme" v="consider place=hamlet" />
		<tag k="name" v="Lauvneset" />
		<tag k="place" v="farm" />
		<tag k="ssr:stedsnr" v="490449" />
	</node>
	<node id="-38105" lat="59.9745027758" lon="12.199991671">
		<tag k="alt_name" v="Punderud" />
		<tag k="name" v="Punnerud" />
		<tag k="place" v="farm" />
		<tag k="ssr:stedsnr" v="490448" />
	</node>
	<node id="-38104" lat="59.969752774" lon="12.1173527818">
		<tag k="name" v="Trandemåsen" />
		<tag k="place" v="farm" />
		<tag k="ssr:stedsnr" v="490432" />
	</node>
	<node id="-40149" lat="59.8929388861" lon="11.8351111101">
		<tag k="name" v="Sandåsen" />
		<tag k="place" v="farm" />
		<tag k="ssr:stedsnr" v="776354" />
	</node>
	<node id="-38100" lat="59.923794448" lon="11.9739750072">
		<tag k="name" v="Hellene" />
		<tag k="place" v="farm" />
		<tag k="ssr:stedsnr" v="490325" />
	</node>
	<node id="-38098" lat="59.9636194456" lon="12.1186166745">
		<tag k="alt_name" v="Nygård" />
		<tag k="name" v="Myra" />
		<tag k="place" v="farm" />
		<tag k="ssr:stedsnr" v="490298" />
	</node>
	<node id="-38097" lat="59.9671170616" lon="12.2099327216">
		<tag k="fixme" v="consider place=hamlet" />
		<tag k="name" v="Jøvika" />
		<tag k="place" v="farm" />
		<tag k="ssr:stedsnr" v="490293" />
	</node>
	<node id="-40143" lat="59.9361111115" lon="12.1829416686">
		<tag k="name" v="Bjørkeli" />
		<tag k="place" v="farm" />
		<tag k="ssr:stedsnr" v="776547" />
	</node>
	<node id="-38093" lat="59.9951444483" lon="12.2313444445">
		<tag k="alt_name" v="Bakken" />
		<tag k="name" v="Vestby" />
		<tag k="place" v="farm" />
		<tag k="ssr:stedsnr" v="490228" />
	</node>
	<node id="-38092" lat="59.9682416704" lon="12.2201972227">
		<tag k="name" v="Nordre Nevjen" />
		<tag k="place" v="farm" />
		<tag k="ssr:stedsnr" v="490197" />
	</node>
	<node id="-40138" lat="60.0108888909" lon="12.0931249961">
		<tag k="name" v="Berger" />
		<tag k="place" v="quarter" />
		<tag k="ssr:stedsnr" v="776489" />
	</node>
	<node id="-40136" lat="59.9599499985" lon="12.1327666611">
		<tag k="name" v="Sørlia" />
		<tag k="place" v="farm" />
		<tag k="ssr:stedsnr" v="776228" />
	</node>
	<node id="-40135" lat="59.9572666687" lon="12.1207666665">
		<tag k="name" v="Tangen" />
		<tag k="place" v="farm" />
		<tag k="ssr:stedsnr" v="776227" />
	</node>
	<node id="-40133" lat="59.967375" lon="12.2075305517">
		<tag k="name" v="Nordre Jøvika" />
		<tag k="place" v="farm" />
		<tag k="ssr:stedsnr" v="776215" />
	</node>
	<node id="-40130" lat="59.9472083364" lon="12.2328138893">
		<tag k="name" v="Lundhaug" />
		<tag k="place" v="farm" />
		<tag k="ssr:stedsnr" v="776153" />
	</node>
	<node id="-40128" lat="59.9681249967" lon="12.1712138951">
		<tag k="name" v="Viker" />
		<tag k="place" v="farm" />
		<tag k="ssr:stedsnr" v="776148" />
	</node>
	<node id="-40122" lat="59.9676194428" lon="11.973408339">
		<tag k="name" v="Solvang" />
		<tag k="place" v="farm" />
		<tag k="ssr:stedsnr" v="776017" />
	</node>
	<node id="-40121" lat="59.8915027794" lon="12.1748833296">
		<tag k="alt_name" v="Aurbakke" />
		<tag k="name" v="Aurbakken" />
		<tag k="place" v="farm" />
		<tag k="ssr:stedsnr" v="776013" />
	</node>
	<node id="-38071" lat="59.965133332" lon="12.0459333263">
		<tag k="name" v="Tempelåsen" />
		<tag k="place" v="farm" />
		<tag k="ssr:stedsnr" v="473158" />
	</node>
	<node id="-40117" lat="60.0883027788" lon="12.1318083384">
		<tag k="name" v="Øvre Korskjølen" />
		<tag k="place" v="farm" />
		<tag k="ssr:stedsnr" v="776083" />
	</node>
	<node id="-38061" lat="59.9527388894" lon="12.2050027721">
		<tag k="name" v="Parken" />
		<tag k="place" v="quarter" />
		<tag k="ssr:stedsnr" v="472878" />
	</node>
	<node id="-40108" lat="59.9244361109" lon="11.982994437">
		<tag k="name" v="Nystuen Rambøl" />
		<tag k="place" v="farm" />
		<tag k="ssr:stedsnr" v="775146" />
	</node>
	<node id="-40107" lat="59.9731750028" lon="12.1144222175">
		<tag k="name" v="Auststuen" />
		<tag k="place" v="farm" />
		<tag k="ssr:stedsnr" v="775042" />
	</node>
	<node id="-40105" lat="60.0081333305" lon="12.2611222206">
		<tag k="name" v="Vålvatnet" />
		<tag k="old_name" v="Bråtan;Bråten" />
		<tag k="place" v="farm" />
		<tag k="ssr:stedsnr" v="764166" />
	</node>
	<node id="-40103" lat="60.0358008367" lon="12.135160485">
		<tag k="fixme" v="consider place=hamlet" />
		<tag k="name" v="Kjærstad" />
		<tag k="place" v="farm" />
		<tag k="ssr:stedsnr" v="764004" />
	</node>
	<node id="-40207" lat="60.0276138933" lon="12.1006527718">
		<tag k="alt_name" v="Tomten" />
		<tag k="name" v="Kisatomta" />
		<tag k="place" v="farm" />
		<tag k="ssr:stedsnr" v="794654" />
	</node>
	<node id="-38047" lat="60.0443194481" lon="12.1297277789">
		<tag k="name" v="Jerntjennbråten" />
		<tag k="place" v="farm" />
		<tag k="ssr:stedsnr" v="472699" />
	</node>
	<node id="-38043" lat="60.0267444433" lon="12.0260166726">
		<tag k="name" v="Bråtan" />
		<tag k="place" v="farm" />
		<tag k="ssr:stedsnr" v="472570" />
	</node>
	<node id="-38042" lat="60.0384861083" lon="12.0942611185">
		<tag k="name" v="Børresberget" />
		<tag k="place" v="farm" />
		<tag k="ssr:stedsnr" v="472558" />
	</node>
	<node id="-38041" lat="60.1087305542" lon="12.1246444355">
		<tag k="name" v="Solbakken" />
		<tag k="place" v="farm" />
		<tag k="ssr:stedsnr" v="472541" />
	</node>
	<node id="-38425" lat="60.0169499987" lon="12.1330972268">
		<tag k="name" v="Teppa" />
		<tag k="place" v="farm" />
		<tag k="ssr:stedsnr" v="733862" />
	</node>
	<node id="-40084" lat="59.9699083331" lon="12.0526499994">
		<tag k="name" v="Øststuen" />
		<tag k="place" v="farm" />
		<tag k="ssr:stedsnr" v="654603" />
	</node>
	<node id="-38035" lat="60.087213885" lon="11.9909777692">
		<tag k="name" v="Tråstadkjølen" />
		<tag k="place" v="farm" />
		<tag k="ssr:stedsnr" v="309727" />
	</node>
	<node id="-40081" lat="59.9431472251" lon="12.009966668">
		<tag k="name" v="Søndre Bakken" />
		<tag k="place" v="farm" />
		<tag k="ssr:stedsnr" v="654585" />
	</node>
	<node id="-40080" lat="60.0556361129" lon="12.1200194386">
		<tag k="name" v="Søndre Skrådal" />
		<tag k="place" v="farm" />
		<tag k="ssr:stedsnr" v="654579" />
	</node>
	<node id="-38026" lat="59.9698833347" lon="12.108713888">
		<tag k="name" v="Trandem" />
		<tag k="place" v="hamlet" />
		<tag k="ssr:stedsnr" v="472385" />
	</node>
	<node id="-40073" lat="59.9254000013" lon="11.9864111183">
		<tag k="name" v="Oppgarden Rambøl" />
		<tag k="place" v="farm" />
		<tag k="ssr:stedsnr" v="654360" />
	</node>
	<node id="-38023" lat="59.9799722207" lon="12.1098972296">
		<tag k="leisure" v="pitch" />
		<tag k="name" v="Skotterud stadion" />
		<tag k="ssr:stedsnr" v="472363" />
	</node>
	<node id="-38012" lat="59.9327749963" lon="12.0164555617">
		<tag k="alt_name" v="Stangnessæter" />
		<tag k="historic" v="shieling" />
		<tag k="name" v="Stangnessætra" />
		<tag k="place" v="locality" />
		<tag k="ssr:stedsnr" v="472232" />
	</node>
	<node id="-38007" lat="60.0014777739" lon="12.1016388873">
		<tag k="name" v="Høyvang" />
		<tag k="old_name" v="Høivang" />
		<tag k="place" v="farm" />
		<tag k="ssr:stedsnr" v="472183" />
	</node>
	<node id="-40053" lat="60.027597226" lon="11.844477778">
		<tag k="name" v="Stor-Fløyta" />
		<tag k="place" v="isolated_dwelling" />
		<tag k="ssr:stedsnr" v="654314" />
	</node>
	<node id="-38004" lat="60.1157416678" lon="12.1097805638">
		<tag k="name" v="Ulriksfoss" />
		<tag k="place" v="farm" />
		<tag k="ssr:stedsnr" v="472107" />
	</node>
	<node id="-38002" lat="60.002897224" lon="12.3111916599">
		<tag k="name" v="Nedre Strand" />
		<tag k="place" v="farm" />
		<tag k="ssr:stedsnr" v="472105" />
	</node>
	<node id="-38001" lat="59.9685611135" lon="12.134244449">
		<tag k="name" v="Høgvang" />
		<tag k="place" v="farm" />
		<tag k="ssr:stedsnr" v="472094" />
	</node>
	<node id="-40048" lat="59.9151277761" lon="11.9922611096">
		<tag k="name" v="Oppistuen Klanderud" />
		<tag k="place" v="farm" />
		<tag k="ssr:stedsnr" v="654046" />
	</node>
	<node id="-37997" lat="59.9983694459" lon="12.0768722235">
		<tag k="name" v="Bjørnstad" />
		<tag k="place" v="farm" />
		<tag k="ssr:stedsnr" v="472077" />
	</node>
	<node id="-40043" lat="60.0550444406" lon="12.2132750014">
		<tag k="historic" v="shieling" />
		<tag k="name" v="Langfossæter" />
		<tag k="place" v="locality" />
		<tag k="ssr:stedsnr" v="654014" />
	</node>
	<node id="-40042" lat="59.9209555578" lon="11.9827388889">
		<tag k="name" v="Nordre Rambølsødegarden" />
		<tag k="place" v="farm" />
		<tag k="ssr:stedsnr" v="654009" />
	</node>
	<node id="-37993" lat="60.0106944476" lon="12.083150008">
		<tag k="name" v="Nordstuen" />
		<tag k="place" v="farm" />
		<tag k="ssr:stedsnr" v="308857" />
	</node>
	<node id="-40040" lat="59.9781611142" lon="12.1405638922">
		<tag k="name" v="Halbekken" />
		<tag k="place" v="quarter" />
		<tag k="ssr:stedsnr" v="653883" />
	</node>
	<node id="-40038" lat="60.0007388867" lon="12.0951611157">
		<tag k="name" v="Sørpebøl" />
		<tag k="place" v="farm" />
		<tag k="ssr:stedsnr" v="654110" />
	</node>
	<node id="-40037" lat="59.9282027753" lon="12.189269451">
		<tag k="name" v="Skogtun" />
		<tag k="place" v="farm" />
		<tag k="ssr:stedsnr" v="654106" />
	</node>
	<node id="-37987" lat="60.0811305546" lon="12.0653166749">
		<tag k="name" v="Linna" />
		<tag k="place" v="isolated_dwelling" />
		<tag k="ssr:stedsnr" v="308734" />
	</node>
	<node id="-40034" lat="60.0214694415" lon="12.0522333355">
		<tag k="name" v="Linnebakken" />
		<tag k="place" v="farm" />
		<tag k="ssr:stedsnr" v="653155" />
	</node>
	<node id="-37985" lat="59.8915277764" lon="12.0987972262">
		<tag k="loc_name" v="Vangen" />
		<tag k="name" v="Repshusvangen" />
		<tag k="place" v="farm" />
		<tag k="ssr:stedsnr" v="472014" />
	</node>
	<node id="-40032" lat="59.9449777745" lon="11.9836666698">
		<tag k="name" v="Elveli" />
		<tag k="place" v="isolated_dwelling" />
		<tag k="ssr:stedsnr" v="653151" />
	</node>
	<node id="-37983" lat="59.9274361156" lon="11.9861722149">
		<tag k="name" v="Nordgarden" />
		<tag k="place" v="farm" />
		<tag k="ssr:stedsnr" v="471162" />
	</node>
	<node id="-37982" lat="59.9986027805" lon="12.0442777736">
		<tag k="name" v="Snesbøllia" />
		<tag k="place" v="farm" />
		<tag k="ssr:stedsnr" v="471148" />
	</node>
	<node id="-37981" lat="60.0254805595" lon="12.0883305521">
		<tag k="alt_name" v="Mellomkisen;Kisen" />
		<tag k="name" v="Mellomkisa" />
		<tag k="place" v="farm" />
		<tag k="ssr:stedsnr" v="467539" />
	</node>
	<node id="-40027" lat="59.9526916684" lon="12.0473888916">
		<tag k="name" v="Nord-Delvika" />
		<tag k="place" v="farm" />
		<tag k="ssr:stedsnr" v="627024" />
	</node>
	<node id="-37978" lat="59.9025694433" lon="12.0953166603">
		<tag k="name" v="Nordre Enga" />
		<tag k="place" v="farm" />
		<tag k="ssr:stedsnr" v="291221" />
	</node>
	<node id="-37977" lat="59.9186138926" lon="11.992727771">
		<tag k="name" v="Klanderudbråtan" />
		<tag k="place" v="farm" />
		<tag k="ssr:stedsnr" v="291109" />
	</node>
	<node id="-40024" lat="60.0086333368" lon="12.0801111132">
		<tag k="name" v="Holen" />
		<tag k="place" v="farm" />
		<tag k="ssr:stedsnr" v="612859" />
	</node>
	<node id="-40022" lat="59.9997500019" lon="12.164450006">
		<tag k="name" v="Dalen" />
		<tag k="place" v="farm" />
		<tag k="ssr:stedsnr" v="612842" />
	</node>
	<node id="-37972" lat="60.0235527809" lon="12.0502916649">
		<tag k="name" v="Østfjell" />
		<tag k="place" v="farm" />
		<tag k="ssr:stedsnr" v="290467" />
	</node>
	<node id="-40019" lat="60.0879500022" lon="12.1774833272">
		<tag k="name" v="Grønbekken" />
		<tag k="place" v="farm" />
		<tag k="ssr:stedsnr" v="612693" />
	</node>
	<node id="-40018" lat="60.0497444413" lon="12.0839388809">
		<tag k="alt_name" v="Tjernsli" />
		<tag k="name" v="Tjennsli" />
		<tag k="place" v="farm" />
		<tag k="ssr:stedsnr" v="612680" />
	</node>
	<node id="-40013" lat="59.9845027759" lon="12.0907777722">
		<tag k="name" v="Sofiendal" />
		<tag k="place" v="farm" />
		<tag k="ssr:stedsnr" v="612529" />
	</node>
	<node id="-40012" lat="59.9728805535" lon="11.9224388827">
		<tag k="name" v="Raserud" />
		<tag k="place" v="farm" />
		<tag k="ssr:stedsnr" v="612505" />
	</node>
	<node id="-40011" lat="59.9843888927" lon="12.1745444517">
		<tag k="name" v="Ilag" />
		<tag k="place" v="hamlet" />
		<tag k="ssr:stedsnr" v="612502" />
	</node>
	<node id="-40010" lat="59.9842555514" lon="12.1521833308">
		<tag k="name" v="Vestli" />
		<tag k="place" v="farm" />
		<tag k="ssr:stedsnr" v="612494" />
	</node>
	<node id="-40009" lat="59.9638888887" lon="12.1142249926">
		<tag k="name" v="Nyjordet" />
		<tag k="place" v="farm" />
		<tag k="ssr:stedsnr" v="612477" />
	</node>
	<node id="-40006" lat="59.9133166714" lon="12.1125805476">
		<tag k="name" v="Trandemsætra" />
		<tag k="place" v="farm" />
		<tag k="ssr:stedsnr" v="612339" />
	</node>
	<node id="-40005" lat="59.9116805545" lon="12.0568027829">
		<tag k="name" v="Slettmoen" />
		<tag k="place" v="isolated_dwelling" />
		<tag k="ssr:stedsnr" v="612337" />
	</node>
	<node id="-40004" lat="59.9560408334" lon="11.8682521891">
		<tag k="alt_name" v="Steinby" />
		<tag k="name" v="Fallet" />
		<tag k="place" v="farm" />
		<tag k="ssr:stedsnr" v="612327" />
	</node>
	<node id="-40003" lat="59.958330553" lon="12.0431555498">
		<tag k="name" v="Nordli" />
		<tag k="place" v="farm" />
		<tag k="ssr:stedsnr" v="612319" />
	</node>
	<node id="-40001" lat="59.9473333338" lon="11.9383416655">
		<tag k="name" v="Rambølsmyra" />
		<tag k="place" v="farm" />
		<tag k="ssr:stedsnr" v="612301" />
	</node>
	<node id="-40000" lat="59.9443361091" lon="11.902313881">
		<tag k="name" v="Karterud" />
		<tag k="place" v="farm" />
		<tag k="ssr:stedsnr" v="612299" />
	</node>
	<node id="-39999" lat="59.9490250036" lon="12.0469111037">
		<tag k="name" v="Delvika" />
		<tag k="place" v="locality" />
		<tag k="ssr:stedsnr" v="612292" />
	</node>
	<node id="-39998" lat="59.945863892" lon="12.0718833362">
		<tag k="name" v="Sørstuen" />
		<tag k="place" v="farm" />
		<tag k="ssr:stedsnr" v="612289" />
	</node>
	<node id="-39995" lat="59.9495722269" lon="12.2261944397">
		<tag k="alt_name" v="Svensrudbråten" />
		<tag k="name" v="Vestli" />
		<tag k="place" v="isolated_dwelling" />
		<tag k="ssr:stedsnr" v="612240" />
	</node>
	<node id="-39994" lat="59.9490972267" lon="12.2316305543">
		<tag k="name" v="Sæterberget" />
		<tag k="place" v="farm" />
		<tag k="ssr:stedsnr" v="612237" />
	</node>
	<node id="-39993" lat="60.0082305537" lon="12.3021277845">
		<tag k="name" v="Storstua" />
		<tag k="place" v="farm" />
		<tag k="ssr:stedsnr" v="612209" />
	</node>
	<node id="-39992" lat="59.8954055545" lon="12.0216527786">
		<tag k="name" v="Nybakk" />
		<tag k="place" v="isolated_dwelling" />
		<tag k="ssr:stedsnr" v="612202" />
	</node>
	<node id="-39991" lat="59.8838888923" lon="11.8822444409">
		<tag k="alt_name" v="Hovelbråten" />
		<tag k="name" v="Hovelbråtan" />
		<tag k="place" v="locality" />
		<tag k="ssr:stedsnr" v="612150" />
	</node>
	<node id="-39988" lat="59.9985416699" lon="12.1216111109">
		<tag k="name" v="Sjøli" />
		<tag k="place" v="isolated_dwelling" />
		<tag k="ssr:stedsnr" v="612397" />
	</node>
	<node id="-39987" lat="59.9244777744" lon="11.9258277815">
		<tag k="name" v="Bergerud" />
		<tag k="place" v="farm" />
		<tag k="ssr:stedsnr" v="612371" />
	</node>
	<node id="-39986" lat="60.1086583323" lon="12.2204944478">
		<tag k="name" v="Skogset" />
		<tag k="place" v="isolated_dwelling" />
		<tag k="ssr:stedsnr" v="611948" />
	</node>
	<node id="-39985" lat="60.0185083294" lon="12.1210749945">
		<tag k="name" v="Hauger" />
		<tag k="place" v="farm" />
		<tag k="ssr:stedsnr" v="611884" />
	</node>
	<node id="-37934" lat="59.9546888888" lon="12.0080194449">
		<tag k="name" v="Søndre Vestli" />
		<tag k="place" v="farm" />
		<tag k="ssr:stedsnr" v="230357" />
	</node>
	<node id="-39980" lat="59.9795777789" lon="12.173361104">
		<tag k="name" v="Haugen" />
		<tag k="place" v="farm" />
		<tag k="ssr:stedsnr" v="611467" />
	</node>
	<node id="-37931" lat="59.946858331" lon="12.0121777734">
		<tag k="name" v="Nordre Bakken" />
		<tag k="place" v="farm" />
		<tag k="ssr:stedsnr" v="230116" />
	</node>
	<node id="-39978" lat="60.081249999" lon="12.1103833336">
		<tag k="alt_name" v="Malmerlien" />
		<tag k="name" v="Malmerlia" />
		<tag k="place" v="farm" />
		<tag k="ssr:stedsnr" v="611689" />
	</node>
	<node id="-37929" lat="59.9271750041" lon="12.1862138875">
		<tag k="name" v="Skuggerud" />
		<tag k="place" v="farm" />
		<tag k="ssr:stedsnr" v="230106" />
	</node>
	<node id="-39976" lat="59.9913388854" lon="12.3304833307">
		<tag k="name" v="Elvevoll" />
		<tag k="place" v="farm" />
		<tag k="ssr:stedsnr" v="611250" />
	</node>
	<node id="-39975" lat="59.9620166641" lon="12.0430638926">
		<tag k="name" v="Solbakken" />
		<tag k="place" v="farm" />
		<tag k="ssr:stedsnr" v="611450" />
	</node>
	<node id="-37926" lat="59.940330558" lon="12.1955388873">
		<tag k="name" v="Vilsbergvegen" />
		<tag k="place" v="quarter" />
		<tag k="ssr:stedsnr" v="229922" />
	</node>
	<node id="-39966" lat="59.9179833369" lon="12.166136117">
		<tag k="name" v="Stenset" />
		<tag k="place" v="farm" />
		<tag k="ssr:stedsnr" v="594573" />
	</node>
	<node id="-39965" lat="59.9732555567" lon="12.1302750085">
		<tag k="alt_name" v="Nedre Repset" />
		<tag k="name" v="Nedre Refsette" />
		<tag k="place" v="farm" />
		<tag k="ssr:stedsnr" v="594567" />
	</node>
	<node id="-39964" lat="60.0159500033" lon="12.0573805551">
		<tag k="fixme" v="multiple name tags, choose one and add the other to alt_name" />
		<tag k="name" v="Fjell;Østfjell" />
		<tag k="old_name" v="Fjeld;Øst-Fjeld" />
		<tag k="place" v="farm" />
		<tag k="ssr:stedsnr" v="594558" />
	</node>
	<node id="-39963" lat="60.101402776" lon="12.1045833311">
		<tag k="name" v="Haget" />
		<tag k="place" v="farm" />
		<tag k="ssr:stedsnr" v="594535" />
	</node>
	<node id="-39960" lat="60.0239722223" lon="12.0885527695">
		<tag k="name" v="Sørkisen" />
		<tag k="place" v="farm" />
		<tag k="ssr:stedsnr" v="594340" />
	</node>
	<node id="-39959" lat="59.9771805556" lon="12.1378416692">
		<tag k="name" v="Halbekken" />
		<tag k="place" v="farm" />
		<tag k="ssr:stedsnr" v="594315" />
	</node>
	<node id="-37910" lat="59.9041888905" lon="11.8716388833">
		<tag k="name" v="Skjærvangstua" />
		<tag k="place" v="farm" />
		<tag k="ssr:stedsnr" v="229065" />
	</node>
	<node id="-39957" lat="59.9728055577" lon="11.8036555479">
		<tag k="loc_name" v="Haveråa" />
		<tag k="name" v="Haveråen" />
		<tag k="place" v="farm" />
		<tag k="ssr:stedsnr" v="594291" />
	</node>
	<node id="-39956" lat="59.9562444428" lon="11.9904666588">
		<tag k="name" v="Nystuen Ødegård" />
		<tag k="place" v="farm" />
		<tag k="ssr:stedsnr" v="594201" />
	</node>
	<node id="-39955" lat="60.131863887" lon="12.1987861141">
		<tag k="name" v="Vangen" />
		<tag k="place" v="farm" />
		<tag k="ssr:stedsnr" v="594188" />
	</node>
	<node id="-39954" lat="59.9767527774" lon="12.1596138935">
		<tag k="name" v="Lysmoen" />
		<tag k="place" v="farm" />
		<tag k="ssr:stedsnr" v="594152" />
	</node>
	<node id="-39953" lat="59.9497944446" lon="12.2381388911">
		<tag k="name" v="Ner-Svensrud" />
		<tag k="place" v="farm" />
		<tag k="ssr:stedsnr" v="594148" />
	</node>
	<node id="-39952" lat="60.0260388895" lon="12.038738884">
		<tag k="name" v="Vestfjellbakken" />
		<tag k="place" v="farm" />
		<tag k="ssr:stedsnr" v="594121" />
	</node>
	<node id="-39951" lat="60.0055666655" lon="12.137530559">
		<tag k="alt_name" v="Bråten" />
		<tag k="loc_name" v="Eriksbråtan" />
		<tag k="name" v="Eriksbråten" />
		<tag k="place" v="farm" />
		<tag k="ssr:stedsnr" v="594109" />
	</node>
	<node id="-39950" lat="60.0491194419" lon="12.2402888829">
		<tag k="name" v="Neversekken" />
		<tag k="place" v="isolated_dwelling" />
		<tag k="ssr:stedsnr" v="594048" />
	</node>
	<node id="-39949" lat="60.0516527756" lon="12.1879611034">
		<tag k="name" v="Larsstein" />
		<tag k="place" v="isolated_dwelling" />
		<tag k="ssr:stedsnr" v="594046" />
	</node>
	<node id="-39948" lat="60.0287833309" lon="12.1271611123">
		<tag k="name" v="Adelsby" />
		<tag k="place" v="quarter" />
		<tag k="ssr:stedsnr" v="593965" />
	</node>
	<node id="-38224" lat="59.9749527765" lon="12.3433166635">
		<tag k="alt_name" v="Kletten" />
		<tag k="name" v="Kletta" />
		<tag k="place" v="farm" />
		<tag k="ssr:stedsnr" v="673220" />
	</node>
	<node id="-37892" lat="59.8980527762" lon="11.8926194418">
		<tag k="name" v="Nordre Karlsenga" />
		<tag k="place" v="farm" />
		<tag k="ssr:stedsnr" v="291382" />
	</node>
	<node id="-37891" lat="59.8918611115" lon="11.8862749923">
		<tag k="name" v="Søndre Karlsenga" />
		<tag k="place" v="farm" />
		<tag k="ssr:stedsnr" v="291380" />
	</node>
	<node id="-37890" lat="60.1296666628" lon="12.2161055505">
		<tag k="name" v="Bringberget" />
		<tag k="place" v="farm" />
		<tag k="ssr:stedsnr" v="291358" />
	</node>
	<node id="-37889" lat="60.0567333335" lon="12.0833888913">
		<tag k="name" v="Holtet" />
		<tag k="place" v="farm" />
		<tag k="ssr:stedsnr" v="291349" />
	</node>
	<node id="-37888" lat="59.9726333346" lon="12.1533249949">
		<tag k="name" v="Valmann" />
		<tag k="place" v="farm" />
		<tag k="ssr:stedsnr" v="291338" />
	</node>
	<node id="-37887" lat="60.0371888918" lon="12.0892333326">
		<tag k="alt_name" v="Skindpungrud;Skinpungerud" />
		<tag k="name" v="Skinnpungrud" />
		<tag k="place" v="farm" />
		<tag k="ssr:stedsnr" v="291334" />
	</node>
	<node id="-37884" lat="59.9333472224" lon="12.2193416695">
		<tag k="name" v="Moheim" />
		<tag k="place" v="isolated_dwelling" />
		<tag k="ssr:stedsnr" v="291250" />
	</node>
	<node id="-37883" lat="59.9645249993" lon="12.1177250044">
		<tag k="name" v="Sjursbråten" />
		<tag k="place" v="farm" />
		<tag k="ssr:stedsnr" v="291248" />
	</node>
	<node id="-37882" lat="59.9660277788" lon="12.2088694465">
		<tag k="name" v="Jøvika" />
		<tag k="place" v="farm" />
		<tag k="ssr:stedsnr" v="291242" />
	</node>
	<node id="-37881" lat="59.9686499988" lon="12.0989555622">
		<tag k="name" v="Brenna" />
		<tag k="place" v="farm" />
		<tag k="ssr:stedsnr" v="291241" />
	</node>
	<node id="-37880" lat="59.9898138896" lon="12.1361444484">
		<tag k="name" v="Moseby" />
		<tag k="place" v="farm" />
		<tag k="ssr:stedsnr" v="291191" />
	</node>
	<node id="-37879" lat="59.9816750006" lon="12.0727916708">
		<tag k="name" v="Øveråsen" />
		<tag k="place" v="farm" />
		<tag k="ssr:stedsnr" v="291123" />
	</node>
	<node id="-37878" lat="59.9318361144" lon="12.1721249937">
		<tag k="name" v="Nordal" />
		<tag k="place" v="farm" />
		<tag k="ssr:stedsnr" v="291093" />
	</node>
	<node id="-37877" lat="59.9799666635" lon="12.228927777">
		<tag k="name" v="Gransæter" />
		<tag k="place" v="farm" />
		<tag k="ssr:stedsnr" v="291062" />
	</node>
	<node id="-37876" lat="59.9585583349" lon="11.9738749968">
		<tag k="name" v="Sollia" />
		<tag k="place" v="farm" />
		<tag k="ssr:stedsnr" v="291052" />
	</node>
	<node id="-38087" lat="60.0372472199" lon="12.2794361121">
		<tag k="alt_name" v="Rønningen" />
		<tag k="name" v="Rønninga" />
		<tag k="place" v="farm" />
		<tag k="ssr:stedsnr" v="490040" />
	</node>
	<node id="-37874" lat="60.0391500008" lon="12.1551861138">
		<tag k="name" v="Hytta" />
		<tag k="place" v="isolated_dwelling" />
		<tag k="ssr:stedsnr" v="291017" />
	</node>
	<node id="-39918" lat="59.9259972223" lon="11.857658338">
		<tag k="name" v="Sunby" />
		<tag k="place" v="locality" />
		<tag k="ssr:stedsnr" v="593638" />
	</node>
	<node id="-37869" lat="60.0038083297" lon="12.1276194395">
		<tag k="name" v="Hesbøl" />
		<tag k="place" v="hamlet" />
		<tag k="ssr:stedsnr" v="290979" />
	</node>
	<node id="-37937" lat="59.9454694412" lon="12.1715944449">
		<tag k="amenity" v="school" />
		<tag k="name" v="Magnor skole" />
		<tag k="ssr:stedsnr" v="230521" />
	</node>
	<node id="-37860" lat="59.9780638924" lon="12.0499638883">
		<tag k="name" v="Tollefstad" />
		<tag k="place" v="farm" />
		<tag k="ssr:stedsnr" v="290781" />
	</node>
	<node id="-39902" lat="59.9162388884" lon="11.8054638879">
		<tag k="building" v="industrial" />
		<tag k="industrial" v="factory" />
		<tag k="name" v="Dalfossaga" />
		<tag k="ssr:stedsnr" v="593428" />
	</node>
	<node id="-37852" lat="59.9811083368" lon="12.1045944454">
		<tag k="name" v="Tuhusporta" />
		<tag k="place" v="quarter" />
		<tag k="ssr:stedsnr" v="290442" />
	</node>
	<node id="-37711" lat="60.0893833303" lon="12.0363416655">
		<tag k="name" v="Hauger" />
		<tag k="place" v="locality" />
		<tag k="ssr:stedsnr" v="66719" />
	</node>
	<node id="-39896" lat="59.9725888889" lon="12.1710916667">
		<tag k="name" v="Bergheim" />
		<tag k="place" v="farm" />
		<tag k="ssr:stedsnr" v="593398" />
	</node>
	<node id="-39894" lat="59.9851388858" lon="12.1353750018">
		<tag k="leisure" v="pitch" />
		<tag k="name" v="Eidskoghallen" />
		<tag k="ssr:stedsnr" v="593358" />
	</node>
	<node id="-37710" lat="60.1009138885" lon="12.1262361068">
		<tag k="name" v="Åklangenga" />
		<tag k="place" v="farm" />
		<tag k="ssr:stedsnr" v="66711" />
	</node>
	<node id="-39882" lat="59.8921583359" lon="11.8331916718">
		<tag k="name" v="Furumoen" />
		<tag k="place" v="farm" />
		<tag k="ssr:stedsnr" v="593147" />
	</node>
	<node id="-39881" lat="59.9549361118" lon="11.996924999">
		<tag k="name" v="Oppset" />
		<tag k="place" v="farm" />
		<tag k="ssr:stedsnr" v="593145" />
	</node>
	<node id="-39877" lat="60.0729833323" lon="12.2375694517">
		<tag k="name" v="Nordre Enderud" />
		<tag k="place" v="farm" />
		<tag k="ssr:stedsnr" v="593117" />
	</node>
	<node id="-39874" lat="60.1169972223" lon="12.0985583393">
		<tag k="name" v="Nord-Drøserud" />
		<tag k="place" v="farm" />
		<tag k="ssr:stedsnr" v="593067" />
	</node>
	<node id="-39867" lat="59.9662194444" lon="12.2209861029">
		<tag k="name" v="Nevjen" />
		<tag k="place" v="farm" />
		<tag k="ssr:stedsnr" v="582047" />
	</node>
	<node id="-39866" lat="59.8729055514" lon="11.9131333376">
		<tag k="name" v="Nabben" />
		<tag k="place" v="farm" />
		<tag k="ssr:stedsnr" v="567148" />
	</node>
	<node id="-37817" lat="59.959644448" lon="12.1526277697">
		<tag k="name" v="Nygård" />
		<tag k="place" v="farm" />
		<tag k="ssr:stedsnr" v="289176" />
	</node>
	<node id="-37816" lat="60.0239805568" lon="12.0880166584">
		<tag k="alt_name" v="Sørkisen;Kisen" />
		<tag k="name" v="Sørkisa" />
		<tag k="place" v="farm" />
		<tag k="ssr:stedsnr" v="285706" />
	</node>
	<node id="-37815" lat="60.0027750011" lon="12.0806194407">
		<tag k="name" v="Arstuen" />
		<tag k="old_name" v="Nystuen" />
		<tag k="place" v="farm" />
		<tag k="ssr:stedsnr" v="283084" />
	</node>
	<node id="-39862" lat="60.0022805586" lon="12.048463883">
		<tag k="name" v="Liåsen" />
		<tag k="place" v="farm" />
		<tag k="ssr:stedsnr" v="551858" />
	</node>
	<node id="-39859" lat="60.0996972265" lon="12.1162305594">
		<tag k="name" v="Kongetorp" />
		<tag k="place" v="farm" />
		<tag k="ssr:stedsnr" v="551727" />
	</node>
	<node id="-39858" lat="60.0683366253" lon="12.1572511744">
		<tag k="name" v="Langfoss" />
		<tag k="place" v="hamlet" />
		<tag k="ssr:stedsnr" v="551723" />
	</node>
	<node id="-39857" lat="60.0748611146" lon="12.1561333303">
		<tag k="name" v="Persmoen" />
		<tag k="place" v="farm" />
		<tag k="ssr:stedsnr" v="551714" />
	</node>
	<node id="-37803" lat="59.9469527797" lon="12.0707277808">
		<tag k="name" v="Oppgarden" />
		<tag k="place" v="farm" />
		<tag k="ssr:stedsnr" v="169303" />
	</node>
	<node id="-39848" lat="60.0367933233" lon="12.0896791815">
		<tag k="alt_name" v="Skinpungerud" />
		<tag k="fixme" v="consider place=hamlet" />
		<tag k="name" v="Skinnpungrud" />
		<tag k="place" v="farm" />
		<tag k="ssr:stedsnr" v="551626" />
	</node>
	<node id="-37799" lat="60.0384583355" lon="11.9448277859">
		<tag k="name" v="Pisenga" />
		<tag k="place" v="isolated_dwelling" />
		<tag k="ssr:stedsnr" v="127714" />
	</node>
	<node id="-37798" lat="59.9757527818" lon="11.9720305479">
		<tag k="name" v="Fløytmoen" />
		<tag k="place" v="farm" />
		<tag k="ssr:stedsnr" v="127527" />
	</node>
	<node id="-39845" lat="60.1098222237" lon="12.1092131067">
		<tag k="name" v="Åklangberget" />
		<tag k="place" v="hamlet" />
		<tag k="ssr:stedsnr" v="551516" />
	</node>
	<node id="-37796" lat="59.9916305591" lon="12.1900166587">
		<tag k="name" v="Kaldbakk" />
		<tag k="place" v="farm" />
		<tag k="ssr:stedsnr" v="127521" />
	</node>
	<node id="-37795" lat="60.0025666702" lon="12.3140888875">
		<tag k="alt_name" v="Strand Øvre" />
		<tag k="name" v="Strand" />
		<tag k="place" v="farm" />
		<tag k="ssr:stedsnr" v="127207" />
	</node>
	<node id="-39842" lat="59.9778750039" lon="11.9960777798">
		<tag k="name" v="Teigbråten" />
		<tag k="place" v="farm" />
		<tag k="ssr:stedsnr" v="551472" />
	</node>
	<node id="-39841" lat="59.9875361109" lon="12.1951805592">
		<tag k="name" v="Jansrud" />
		<tag k="place" v="farm" />
		<tag k="ssr:stedsnr" v="551462" />
	</node>
	<node id="-39840" lat="59.987277779" lon="12.2002138846">
		<tag k="name" v="Vinterstad" />
		<tag k="place" v="farm" />
		<tag k="ssr:stedsnr" v="551458" />
	</node>
	<node id="-39839" lat="59.9880666639" lon="12.1457111177">
		<tag k="name" v="Einarsbøl" />
		<tag k="place" v="farm" />
		<tag k="ssr:stedsnr" v="551455" />
	</node>
	<node id="-39838" lat="59.9726055534" lon="12.1041305523">
		<tag k="name" v="Hagerud" />
		<tag k="place" v="locality" />
		<tag k="ssr:stedsnr" v="551442" />
	</node>
	<node id="-39837" lat="59.9788388908" lon="12.0925750023">
		<tag k="name" v="Plassen" />
		<tag k="place" v="farm" />
		<tag k="ssr:stedsnr" v="551441" />
	</node>
	<node id="-39836" lat="59.97292222" lon="12.0520833342">
		<tag k="name" v="Nordstuen" />
		<tag k="place" v="farm" />
		<tag k="ssr:stedsnr" v="551438" />
	</node>
	<node id="-37787" lat="60.034555556" lon="12.1201555531">
		<tag k="name" v="Skubbersengbakken" />
		<tag k="place" v="farm" />
		<tag k="ssr:stedsnr" v="109525" />
	</node>
	<node id="-39834" lat="59.9644305579" lon="12.0630527764">
		<tag k="name" v="Ringdal" />
		<tag k="place" v="farm" />
		<tag k="ssr:stedsnr" v="551433" />
	</node>
	<node id="-39833" lat="59.9611499284" lon="11.971297066">
		<tag k="name" v="Moen" />
		<tag k="place" v="locality" />
		<tag k="ssr:stedsnr" v="551425" />
	</node>
	<node id="-39832" lat="59.9965000003" lon="11.8983166713">
		<tag k="name" v="Bjørnlia" />
		<tag k="place" v="farm" />
		<tag k="ssr:stedsnr" v="551384" />
	</node>
	<node id="-39831" lat="59.9920777741" lon="12.1402249978">
		<tag k="name" v="Sørheim" />
		<tag k="place" v="farm" />
		<tag k="ssr:stedsnr" v="551379" />
	</node>
	<node id="-39828" lat="59.9162055523" lon="12.0344583408">
		<tag k="name" v="Kulbliksætra" />
		<tag k="place" v="farm" />
		<tag k="ssr:stedsnr" v="551324" />
	</node>
	<node id="-37779" lat="60.0155111141" lon="12.1299694358">
		<tag k="name" v="Pellerud" />
		<tag k="place" v="farm" />
		<tag k="ssr:stedsnr" v="107150" />
	</node>
	<node id="-37778" lat="60.0074416645" lon="12.0452999937">
		<tag k="name" v="Nordlia" />
		<tag k="place" v="farm" />
		<tag k="ssr:stedsnr" v="107140" />
	</node>
	<node id="-37777" lat="59.9963999973" lon="12.0441861132">
		<tag k="name" v="Vestheim" />
		<tag k="place" v="farm" />
		<tag k="ssr:stedsnr" v="107122" />
	</node>
	<node id="-37776" lat="59.8922888931" lon="12.0437333421">
		<tag k="name" v="Ingelsrudøya" />
		<tag k="old_name" v="Øya indre" />
		<tag k="place" v="farm" />
		<tag k="ssr:stedsnr" v="82019" />
	</node>
	<node id="-37775" lat="60.1254250032" lon="12.2277583252">
		<tag k="name" v="Melby" />
		<tag k="place" v="farm" />
		<tag k="ssr:stedsnr" v="248955" />
	</node>
	<node id="-39819" lat="59.9501999965" lon="12.1559333243">
		<tag k="name" v="Steinbakken" />
		<tag k="place" v="farm" />
		<tag k="ssr:stedsnr" v="551275" />
	</node>
	<node id="-37770" lat="60.0003572423" lon="11.8442585691">
		<tag k="fixme" v="consider place=hamlet" />
		<tag k="name" v="Havsjømoen" />
		<tag k="place" v="farm" />
		<tag k="ssr:stedsnr" v="248868" />
	</node>
	<node id="-39817" lat="59.9359861118" lon="12.0632749919">
		<tag k="name" v="Granheim" />
		<tag k="place" v="farm" />
		<tag k="ssr:stedsnr" v="551259" />
	</node>
	<node id="-39816" lat="59.9505333296" lon="12.2333250023">
		<tag k="name" v="Svensrud" />
		<tag k="place" v="farm" />
		<tag k="ssr:stedsnr" v="551235" />
	</node>
	<node id="-39815" lat="59.9709083349" lon="12.335005554">
		<tag k="name" v="Snipen" />
		<tag k="place" v="farm" />
		<tag k="ssr:stedsnr" v="551226" />
	</node>
	<node id="-39814" lat="60.0078499986" lon="12.3033000052">
		<tag k="name" v="Erikstua" />
		<tag k="place" v="farm" />
		<tag k="ssr:stedsnr" v="551206" />
	</node>
	<node id="-37763" lat="60.0759888855" lon="12.0904361074">
		<tag k="name" v="Tjernsli" />
		<tag k="place" v="farm" />
		<tag k="ssr:stedsnr" v="248714" />
	</node>
	<node id="-39809" lat="59.8690722214" lon="11.8798861188">
		<tag k="name" v="Fisketjernmoen" />
		<tag k="place" v="farm" />
		<tag k="ssr:stedsnr" v="551143" />
	</node>
	<node id="-37760" lat="60.047663885" lon="11.98822778">
		<tag k="name" v="Sandtjernlia" />
		<tag k="place" v="isolated_dwelling" />
		<tag k="ssr:stedsnr" v="248687" />
	</node>
	<node id="-39806" lat="59.943077781" lon="11.8110666642">
		<tag k="alt_name" v="Øiseth" />
		<tag k="name" v="Øyset" />
		<tag k="place" v="farm" />
		<tag k="ssr:stedsnr" v="551079" />
	</node>
	<node id="-39805" lat="60.0083416699" lon="12.2293388965">
		<tag k="name" v="Hansbråtan" />
		<tag k="place" v="farm" />
		<tag k="ssr:stedsnr" v="551048" />
	</node>
	<node id="-39804" lat="60.0275972201" lon="12.2681416626">
		<tag k="name" v="Røsskjølvangen" />
		<tag k="place" v="locality" />
		<tag k="ssr:stedsnr" v="551038" />
	</node>
	<node id="-37755" lat="60.1366111079" lon="12.1909527765">
		<tag k="name" v="Framgardsvangen" />
		<tag k="place" v="farm" />
		<tag k="ssr:stedsnr" v="248540" />
	</node>
	<node id="-37753" lat="60.109025003" lon="12.1292249933">
		<tag k="name" v="Øverby" />
		<tag k="place" v="farm" />
		<tag k="ssr:stedsnr" v="248529" />
	</node>
	<node id="-37752" lat="60.1199138905" lon="12.1458138917">
		<tag k="name" v="Høgåsen" />
		<tag k="place" v="farm" />
		<tag k="ssr:stedsnr" v="248502" />
	</node>
	<node id="-37751" lat="59.9844645635" lon="12.0974395739">
		<tag k="fixme" v="consider place=hamlet" />
		<tag k="name" v="Reppshus" />
		<tag k="place" v="farm" />
		<tag k="ssr:stedsnr" v="248493" />
	</node>
	<node id="-37750" lat="59.982797222" lon="12.1280888875">
		<tag k="name" v="Skotterud" />
		<tag k="place" v="village" />
		<tag k="ssr:stedsnr" v="248491" />
	</node>
	<node id="-38377" lat="59.9291871397" lon="11.9913959676">
		<tag k="fixme" v="consider place=hamlet" />
		<tag k="name" v="Harstad" />
		<tag k="place" v="farm" />
		<tag k="ssr:stedsnr" v="611372" />
	</node>
	<node id="-37748" lat="59.987599996" lon="12.0555916666">
		<tag k="name" v="Åsen" />
		<tag k="place" v="farm" />
		<tag k="ssr:stedsnr" v="248487" />
	</node>
	<node id="-39794" lat="59.9709055537" lon="12.0704499984">
		<tag k="name" v="Bekkeli" />
		<tag k="place" v="farm" />
		<tag k="ssr:stedsnr" v="533629" />
	</node>
	<node id="-37745" lat="59.9775472181" lon="12.0564250015">
		<tag k="name" v="Hagan" />
		<tag k="place" v="farm" />
		<tag k="ssr:stedsnr" v="248444" />
	</node>
	<node id="-37744" lat="59.9682777766" lon="11.9699222173">
		<tag k="name" v="Tobølsætra" />
		<tag k="place" v="farm" />
		<tag k="ssr:stedsnr" v="248436" />
	</node>
	<node id="-37741" lat="59.9959194471" lon="12.2180277833">
		<tag k="name" v="Nesteppa" />
		<tag k="place" v="farm" />
		<tag k="ssr:stedsnr" v="248366" />
	</node>
	<node id="-37740" lat="59.9956459403" lon="12.2084441809">
		<tag k="fixme" v="consider place=hamlet" />
		<tag k="name" v="Nes" />
		<tag k="place" v="farm" />
		<tag k="ssr:stedsnr" v="248365" />
	</node>
	<node id="-37739" lat="59.9875249987" lon="12.0667000002">
		<tag k="name" v="Smedtorpet" />
		<tag k="place" v="farm" />
		<tag k="ssr:stedsnr" v="248362" />
	</node>
	<node id="-39782" lat="59.9972805578" lon="12.3176861121">
		<tag k="name" v="Midtre Finnsrud" />
		<tag k="place" v="farm" />
		<tag k="ssr:stedsnr" v="533345" />
	</node>
	<node id="-38033" lat="60.1037611133" lon="12.1088777864">
		<tag k="name" v="Øgarden" />
		<tag k="place" v="farm" />
		<tag k="ssr:stedsnr" v="309720" />
	</node>
	<node id="-39780" lat="60.0065611073" lon="12.0715027816">
		<tag k="name" v="Vestgarden" />
		<tag k="place" v="farm" />
		<tag k="ssr:stedsnr" v="533333" />
	</node>
	<node id="-39779" lat="60.0394194483" lon="12.1446249949">
		<tag k="name" v="Nordre Torp" />
		<tag k="place" v="farm" />
		<tag k="ssr:stedsnr" v="533317" />
	</node>
	<node id="-37730" lat="59.9707222241" lon="12.1666416731">
		<tag k="name" v="Nilsrud" />
		<tag k="place" v="farm" />
		<tag k="ssr:stedsnr" v="248296" />
	</node>
	<node id="-37729" lat="59.9563583337" lon="12.1229388884">
		<tag k="name" v="Åsberg" />
		<tag k="place" v="farm" />
		<tag k="ssr:stedsnr" v="248285" />
	</node>
	<node id="-37728" lat="59.956991671" lon="12.1938749959">
		<tag k="name" v="Vestgarden" />
		<tag k="place" v="farm" />
		<tag k="ssr:stedsnr" v="248275" />
	</node>
	<node id="-37727" lat="59.9882277742" lon="12.3321388922">
		<tag k="name" v="Fossheim" />
		<tag k="place" v="farm" />
		<tag k="ssr:stedsnr" v="248247" />
	</node>
	<node id="-39774" lat="59.9339361089" lon="11.8233722265">
		<tag k="name" v="Steinsbu" />
		<tag k="place" v="isolated_dwelling" />
		<tag k="ssr:stedsnr" v="533282" />
	</node>
	<node id="-37725" lat="59.948949996" lon="12.2224749978">
		<tag k="name" v="Lund" />
		<tag k="place" v="farm" />
		<tag k="ssr:stedsnr" v="248218" />
	</node>
	<node id="-37724" lat="59.9493249969" lon="12.2523305474">
		<tag k="name" v="Toppen" />
		<tag k="place" v="isolated_dwelling" />
		<tag k="ssr:stedsnr" v="248217" />
	</node>
	<node id="-39770" lat="59.9858083321" lon="12.1610166662">
		<tag k="name" v="Bakketun" />
		<tag k="place" v="farm" />
		<tag k="ssr:stedsnr" v="533188" />
	</node>
	<node id="-37721" lat="59.9733027807" lon="12.2854250034">
		<tag k="historic" v="shieling" />
		<tag k="name" v="Plassersætra" />
		<tag k="place" v="locality" />
		<tag k="ssr:stedsnr" v="248201" />
	</node>
	<node id="-37720" lat="59.9724277745" lon="12.2290638963">
		<tag k="name" v="Åsen" />
		<tag k="place" v="farm" />
		<tag k="ssr:stedsnr" v="248199" />
	</node>
	<node id="-37746" lat="59.990763886" lon="12.2147027706">
		<tag k="name" v="Tangen" />
		<tag k="place" v="farm" />
		<tag k="ssr:stedsnr" v="248465" />
	</node>
	<node id="-37809" lat="60.0975055514" lon="12.2100194379">
		<tag k="name" v="Karlsro" />
		<tag k="place" v="isolated_dwelling" />
		<tag k="ssr:stedsnr" v="169019" />
	</node>
	<node id="-37714" lat="59.8868638851" lon="11.9168944372">
		<tag k="alt_name" v="Finnbråten" />
		<tag k="name" v="Finnbråtan" />
		<tag k="place" v="farm" />
		<tag k="ssr:stedsnr" v="248127" />
	</node>
	<node id="-37713" lat="60.0904250005" lon="12.1310000065">
		<tag k="name" v="Korskjølen" />
		<tag k="place" v="farm" />
		<tag k="ssr:stedsnr" v="66726" />
	</node>
	<node id="-39760" lat="59.9887138863" lon="12.1003055551">
		<tag k="name" v="Reppshus" />
		<tag k="place" v="farm" />
		<tag k="ssr:stedsnr" v="533116" />
	</node>
	<node id="-39759" lat="59.9821722254" lon="12.0990111126">
		<tag k="name" v="Tuhus" />
		<tag k="place" v="farm" />
		<tag k="ssr:stedsnr" v="533115" />
	</node>
	<node id="-39758" lat="60.0057444439" lon="12.0904250032">
		<tag k="name" v="Berger" />
		<tag k="place" v="farm" />
		<tag k="ssr:stedsnr" v="533112" />
	</node>
	<node id="-37708" lat="60.0071999974" lon="11.914236116">
		<tag k="alt_name" v="Fjellskogen, nordre" />
		<tag k="name" v="Nordre Fjellskogen" />
		<tag k="place" v="isolated_dwelling" />
		<tag k="ssr:stedsnr" v="66843" />
	</node>
	<node id="-39754" lat="59.9325555524" lon="11.9894611028">
		<tag k="name" v="Berget" />
		<tag k="place" v="farm" />
		<tag k="ssr:stedsnr" v="533060" />
	</node>
	<node id="-37705" lat="59.9205631792" lon="11.9819942632">
		<tag k="name" v="Rambølsødegarden" />
		<tag k="place" v="locality" />
		<tag k="ssr:stedsnr" v="66326" />
	</node>
	<node id="-37703" lat="59.9139888881" lon="12.1302000054">
		<tag k="name" v="Strutmyra" />
		<tag k="place" v="farm" />
		<tag k="ssr:stedsnr" v="66316" />
	</node>
	<node id="-37702" lat="59.955722218" lon="12.0068972147">
		<tag k="alt_name" v="Vestli nordre" />
		<tag k="name" v="Vestli" />
		<tag k="place" v="farm" />
		<tag k="ssr:stedsnr" v="66305" />
	</node>
	<node id="-37699" lat="59.956156009" lon="11.8680027821">
		<tag k="alt_name" v="Hedumholtet" />
		<tag k="name" v="Hedumsholtet" />
		<tag k="place" v="farm" />
		<tag k="ssr:stedsnr" v="66446" />
	</node>
	<node id="-37698" lat="59.9785161715" lon="12.0657779762">
		<tag k="fixme" v="consider place=hamlet" />
		<tag k="name" v="Børrud" />
		<tag k="place" v="farm" />
		<tag k="ssr:stedsnr" v="66424" />
	</node>
	<node id="-37697" lat="59.9693333315" lon="11.9975027713">
		<tag k="alt_name" v="Høiby" />
		<tag k="name" v="Høyby" />
		<tag k="place" v="farm" />
		<tag k="ssr:stedsnr" v="66413" />
	</node>
	<node id="-39743" lat="60.0073999977" lon="12.1322555588">
		<tag k="name" v="Skoglund" />
		<tag k="place" v="farm" />
		<tag k="ssr:stedsnr" v="430842" />
	</node>
	<node id="-39741" lat="59.982608334" lon="12.0940000007">
		<tag k="name" v="Bakken" />
		<tag k="place" v="farm" />
		<tag k="ssr:stedsnr" v="430478" />
	</node>
	<node id="-37691" lat="59.9171527763" lon="11.8241388803">
		<tag k="alt_name" v="Løvhøgda" />
		<tag k="name" v="Lauvhøgda" />
		<tag k="place" v="farm" />
		<tag k="ssr:stedsnr" v="66019" />
	</node>
	<node id="-39737" lat="59.993428843" lon="12.0510536626">
		<tag k="name" v="Åserud" />
		<tag k="place" v="farm" />
		<tag k="ssr:stedsnr" v="430371" />
	</node>
	<node id="-39736" lat="59.9439583307" lon="12.168594445">
		<tag k="name" v="Murissa" />
		<tag k="place" v="farm" />
		<tag k="ssr:stedsnr" v="430363" />
	</node>
	<node id="-39735" lat="59.9257111101" lon="12.0178611065">
		<tag k="name" v="Myrenga" />
		<tag k="place" v="farm" />
		<tag k="ssr:stedsnr" v="430344" />
	</node>
	<node id="-39734" lat="59.928180557" lon="12.1935361113">
		<tag k="name" v="Skogtun" />
		<tag k="place" v="isolated_dwelling" />
		<tag k="ssr:stedsnr" v="430340" />
	</node>
	<node id="-39733" lat="59.9309861069" lon="12.2083444492">
		<tag k="alt_name" v="Bråten" />
		<tag k="name" v="Bråtan" />
		<tag k="place" v="farm" />
		<tag k="ssr:stedsnr" v="430339" />
	</node>
	<node id="-39731" lat="59.9244027823" lon="11.8704527702">
		<tag k="name" v="Bunes" />
		<tag k="place" v="isolated_dwelling" />
		<tag k="ssr:stedsnr" v="430334" />
	</node>
	<node id="-39729" lat="59.9626749968" lon="12.1514472236">
		<tag k="name" v="Sørgarden" />
		<tag k="place" v="farm" />
		<tag k="ssr:stedsnr" v="430282" />
	</node>
	<node id="-39728" lat="59.9591527786" lon="12.2041638867">
		<tag k="name" v="Magnoråsen" />
		<tag k="place" v="farm" />
		<tag k="ssr:stedsnr" v="430281" />
	</node>
	<node id="-39727" lat="59.9497416646" lon="11.979088883">
		<tag k="alt_name" v="Nordre Jerpsethaget" />
		<tag k="loc_name" v="Haget" />
		<tag k="name" v="Jerpsethaget" />
		<tag k="place" v="farm" />
		<tag k="ssr:stedsnr" v="430274" />
	</node>
	<node id="-39726" lat="59.9497361101" lon="12.2139944523">
		<tag k="name" v="Sørli" />
		<tag k="place" v="farm" />
		<tag k="ssr:stedsnr" v="430268" />
	</node>
	<node id="-39725" lat="59.9480750016" lon="12.1374750013">
		<tag k="name" v="Mastad" />
		<tag k="place" v="farm" />
		<tag k="ssr:stedsnr" v="430267" />
	</node>
	<node id="-39724" lat="59.940622225" lon="11.8469416755">
		<tag k="name" v="Holtebråtan" />
		<tag k="place" v="farm" />
		<tag k="ssr:stedsnr" v="430263" />
	</node>
	<node id="-39723" lat="59.9396805593" lon="11.9753277782">
		<tag k="name" v="Libergsenga" />
		<tag k="place" v="farm" />
		<tag k="ssr:stedsnr" v="430259" />
	</node>
	<node id="-39722" lat="59.9360559493" lon="11.9026311799">
		<tag k="fixme" v="consider place=hamlet" />
		<tag k="name" v="Ljøner" />
		<tag k="place" v="farm" />
		<tag k="ssr:stedsnr" v="430253" />
	</node>
	<node id="-39721" lat="59.9921277791" lon="12.3213972227">
		<tag k="name" v="Enga" />
		<tag k="place" v="farm" />
		<tag k="ssr:stedsnr" v="430241" />
	</node>
	<node id="-39719" lat="60.0723666633" lon="12.0926861189">
		<tag k="name" v="Lemlia" />
		<tag k="place" v="farm" />
		<tag k="ssr:stedsnr" v="430695" />
	</node>
	<node id="-39717" lat="60.0695499976" lon="11.9502111186">
		<tag k="historic" v="shieling" />
		<tag k="name" v="Nysætra" />
		<tag k="place" v="locality" />
		<tag k="ssr:stedsnr" v="430687" />
	</node>
	<node id="-39716" lat="60.0354333308" lon="11.8677499928">
		<tag k="name" v="Løvneset" />
		<tag k="place" v="farm" />
		<tag k="ssr:stedsnr" v="430674" />
	</node>
	<node id="-37667" lat="59.9975333308" lon="12.3201833396">
		<tag k="name" v="Kvernheim" />
		<tag k="place" v="farm" />
		<tag k="ssr:stedsnr" v="230535" />
	</node>
	<node id="-39714" lat="60.053711109" lon="12.1659138889">
		<tag k="name" v="Steinerud" />
		<tag k="place" v="isolated_dwelling" />
		<tag k="ssr:stedsnr" v="430662" />
	</node>
	<node id="-39712" lat="59.8912694453" lon="12.0924277839">
		<tag k="name" v="Sør-Melby" />
		<tag k="place" v="farm" />
		<tag k="ssr:stedsnr" v="430171" />
	</node>
	<node id="-39711" lat="60.0715805593" lon="12.2304027737">
		<tag k="name" v="Paradis" />
		<tag k="place" v="farm" />
		<tag k="ssr:stedsnr" v="430087" />
	</node>
	<node id="-37662" lat="60.0924055547" lon="12.1183916676">
		<tag k="name" v="Eidsbrua" />
		<tag k="place" v="farm" />
		<tag k="ssr:stedsnr" v="230330" />
	</node>
	<node id="-39709" lat="60.0113000015" lon="12.2630000077">
		<tag k="name" v="Trettåsen" />
		<tag k="place" v="farm" />
		<tag k="ssr:stedsnr" v="430056" />
	</node>
	<node id="-37660" lat="59.9607833302" lon="12.1352277714">
		<tag k="name" v="Kroken" />
		<tag k="place" v="farm" />
		<tag k="ssr:stedsnr" v="230239" />
	</node>
	<node id="-39706" lat="59.9300795646" lon="12.0008300936">
		<tag k="loc_name" v="Klanderudeidet" />
		<tag k="name" v="Eidet" />
		<tag k="old_name" v="Eje;Eie" />
		<tag k="place" v="farm" />
		<tag k="ssr:stedsnr" v="423271" />
	</node>
	<node id="-37657" lat="59.9542527774" lon="12.0477472197">
		<tag k="name" v="Stangnes" />
		<tag k="place" v="farm" />
		<tag k="ssr:stedsnr" v="230131" />
	</node>
	<node id="-37656" lat="60.0648555592" lon="12.2586944395">
		<tag k="name" v="Åsbu" />
		<tag k="place" v="isolated_dwelling" />
		<tag k="ssr:stedsnr" v="230040" />
	</node>
	<node id="-37655" lat="60.0656861133" lon="12.2557972208">
		<tag k="name" v="Storhaug" />
		<tag k="place" v="isolated_dwelling" />
		<tag k="ssr:stedsnr" v="230038" />
	</node>
	<node id="-37654" lat="60.0237944483" lon="12.2832250082">
		<tag k="name" v="Storneset" />
		<tag k="place" v="farm" />
		<tag k="ssr:stedsnr" v="230030" />
	</node>
	<node id="-37653" lat="60.0579361073" lon="12.2030777775">
		<tag k="name" v="Myrstua" />
		<tag k="place" v="isolated_dwelling" />
		<tag k="ssr:stedsnr" v="230028" />
	</node>
	<node id="-37875" lat="60.0714361133" lon="12.1596472168">
		<tag k="name" v="Lisbetten" />
		<tag k="place" v="farm" />
		<tag k="ssr:stedsnr" v="291036" />
	</node>
	<node id="-37678" lat="60.002383337" lon="11.9149611048">
		<tag k="amenity" v="school" />
		<tag k="name" v="Fjellskogen" />
		<tag k="ssr:stedsnr" v="230818" />
	</node>
	<node id="-37644" lat="59.9332638887" lon="12.2282027774">
		<tag k="name" v="Monte Bello" />
		<tag k="place" v="farm" />
		<tag k="ssr:stedsnr" v="229479" />
	</node>
	<node id="-37641" lat="59.9817111104" lon="12.0698666594">
		<tag k="name" v="Børrud" />
		<tag k="place" v="quarter" />
		<tag k="ssr:stedsnr" v="229394" />
	</node>
	<node id="-37640" lat="60.1311861086" lon="12.2349805506">
		<tag k="name" v="Løvås" />
		<tag k="place" v="isolated_dwelling" />
		<tag k="ssr:stedsnr" v="229379" />
	</node>
	<node id="-39687" lat="59.9853805531" lon="12.1341138882">
		<tag k="amenity" v="school" />
		<tag k="name" v="Skotterud skole" />
		<tag k="ssr:stedsnr" v="412652" />
	</node>
	<node id="-39683" lat="59.9744555575" lon="12.0572083266">
		<tag k="name" v="Tobøl" />
		<tag k="place" v="farm" />
		<tag k="ssr:stedsnr" v="412578" />
	</node>
	<node id="-39681" lat="59.9589499967" lon="12.1538416707">
		<tag k="name" v="Korsvoll" />
		<tag k="place" v="farm" />
		<tag k="ssr:stedsnr" v="412553" />
	</node>
	<node id="-39680" lat="59.9642694477" lon="12.1284388825">
		<tag k="name" v="Holtet" />
		<tag k="place" v="farm" />
		<tag k="ssr:stedsnr" v="412551" />
	</node>
	<node id="-39679" lat="59.9400861086" lon="12.1462194406">
		<tag k="name" v="Nordre Stubberud" />
		<tag k="place" v="isolated_dwelling" />
		<tag k="ssr:stedsnr" v="412528" />
	</node>
	<node id="-37622" lat="59.9433222258" lon="12.1720305509">
		<tag k="name" v="Løvås" />
		<tag k="place" v="farm" />
		<tag k="ssr:stedsnr" v="229039" />
	</node>
	<node id="-39669" lat="59.9894722189" lon="12.344802786">
		<tag k="leisure" v="pitch" />
		<tag k="name" v="Finnsrud idrettsplass" />
		<tag k="ssr:stedsnr" v="412374" />
	</node>
	<node id="-37617" lat="60.0349472255" lon="12.1342999926">
		<tag k="name" v="Søndre Kjærstad" />
		<tag k="place" v="farm" />
		<tag k="ssr:stedsnr" v="224770" />
	</node>
	<node id="-37616" lat="60.022792811" lon="12.0519463048">
		<tag k="fixme" v="consider place=hamlet" />
		<tag k="name" v="Østfjell" />
		<tag k="place" v="farm" />
		<tag k="ssr:stedsnr" v="5629" />
	</node>
	<node id="-39663" lat="59.9870583329" lon="12.337691667">
		<tag k="name" v="Østre Bekkenga" />
		<tag k="place" v="farm" />
		<tag k="ssr:stedsnr" v="412214" />
	</node>
	<node id="-39662" lat="59.9287888879" lon="12.2099305513">
		<tag k="name" v="Vålervangen" />
		<tag k="place" v="farm" />
		<tag k="ssr:stedsnr" v="412206" />
	</node>
	<node id="-39660" lat="59.9701805552" lon="12.1338111079">
		<tag k="name" v="Østgården" />
		<tag k="place" v="farm" />
		<tag k="ssr:stedsnr" v="412180" />
	</node>
	<node id="-39658" lat="60.0091972215" lon="12.1784138837">
		<tag k="name" v="Hesbølsætra" />
		<tag k="place" v="farm" />
		<tag k="ssr:stedsnr" v="412173" />
	</node>
	<node id="-39656" lat="59.9595555589" lon="12.1902833291">
		<tag k="name" v="Nordgården" />
		<tag k="place" v="farm" />
		<tag k="ssr:stedsnr" v="412166" />
	</node>
	<node id="-39442" lat="59.9094138898" lon="11.9602750055">
		<tag k="name" v="Langsrud" />
		<tag k="place" v="farm" />
		<tag k="ssr:stedsnr" v="309374" />
	</node>
	<node id="-37758" lat="60.0292111155" lon="12.1243805522">
		<tag k="fixme" v="consider place=suburb, village or hamlet" />
		<tag k="name" v="Matrand" />
		<tag k="place" v="quarter" />
		<tag k="ssr:stedsnr" v="248659" />
	</node>
	<node id="-39652" lat="60.0048555593" lon="12.0736166595">
		<tag k="name" v="Veststuen" />
		<tag k="place" v="farm" />
		<tag k="ssr:stedsnr" v="412114" />
	</node>
	<node id="-39648" lat="60.0013857595" lon="12.0738125455">
		<tag k="fixme" v="consider place=hamlet" />
		<tag k="name" v="Bjørnstad" />
		<tag k="place" v="farm" />
		<tag k="ssr:stedsnr" v="412086" />
	</node>
	<node id="-39643" lat="60.0448055566" lon="12.2790388812">
		<tag k="name" v="Nordby" />
		<tag k="place" v="farm" />
		<tag k="ssr:stedsnr" v="412032" />
	</node>
	<node id="-37668" lat="60.0060499996" lon="12.1372555602">
		<tag k="name" v="Bonsak" />
		<tag k="place" v="farm" />
		<tag k="ssr:stedsnr" v="230548" />
	</node>
	<node id="-39626" lat="59.9832277808" lon="11.9434722151">
		<tag k="name" v="Søndre Haugen" />
		<tag k="place" v="farm" />
		<tag k="ssr:stedsnr" v="412332" />
	</node>
	<node id="-39624" lat="59.9681027737" lon="11.9492888876">
		<tag k="name" v="Søndre Hea" />
		<tag k="place" v="farm" />
		<tag k="ssr:stedsnr" v="412329" />
	</node>
	<node id="-39623" lat="59.9978916631" lon="12.3146527794">
		<tag k="name" v="Nordre Finnsrud" />
		<tag k="place" v="farm" />
		<tag k="ssr:stedsnr" v="412324" />
	</node>
	<node id="-39622" lat="59.98982222" lon="11.8697527726">
		<tag k="loc_name" v="Tjennsmo" />
		<tag k="name" v="Søndre Kjensmo" />
		<tag k="place" v="isolated_dwelling" />
		<tag k="ssr:stedsnr" v="412315" />
	</node>
	<node id="-39615" lat="59.9185083359" lon="11.8547388944">
		<tag k="name" v="Åsen" />
		<tag k="place" v="farm" />
		<tag k="ssr:stedsnr" v="411081" />
	</node>
	<node id="-39614" lat="59.8934194443" lon="11.817349999">
		<tag k="alt_name" v="S. Vangen" />
		<tag k="name" v="Sør-Vangen" />
		<tag k="place" v="farm" />
		<tag k="ssr:stedsnr" v="411080" />
	</node>
	<node id="-39613" lat="60.1337166684" lon="12.2279722206">
		<tag k="loc_name" v="Nordre Holsætra" />
		<tag k="name" v="Nordre Holsæter" />
		<tag k="place" v="farm" />
		<tag k="ssr:stedsnr" v="411079" />
	</node>
	<node id="-39612" lat="59.8795500002" lon="11.8347694414">
		<tag k="name" v="Karlsbråtan" />
		<tag k="place" v="farm" />
		<tag k="ssr:stedsnr" v="411075" />
	</node>
	<node id="-39611" lat="59.9935361084" lon="12.2294749911">
		<tag k="name" v="Nytomta" />
		<tag k="place" v="farm" />
		<tag k="ssr:stedsnr" v="411068" />
	</node>
	<node id="-37663" lat="60.1013222252" lon="12.1445194536">
		<tag k="name" v="Langrekken" />
		<tag k="place" v="farm" />
		<tag k="ssr:stedsnr" v="230333" />
	</node>
	<node id="-39606" lat="59.9706305539" lon="12.0568611036">
		<tag k="name" v="Tobølhagan" />
		<tag k="place" v="farm" />
		<tag k="ssr:stedsnr" v="385032" />
	</node>
	<node id="-39601" lat="60.0206000035" lon="12.1190333319">
		<tag k="name" v="Midtskog" />
		<tag k="place" v="farm" />
		<tag k="ssr:stedsnr" v="369864" />
	</node>
	<node id="-39600" lat="60.0157361101" lon="12.1378999944">
		<tag k="name" v="Snippen" />
		<tag k="place" v="farm" />
		<tag k="ssr:stedsnr" v="369860" />
	</node>
	<node id="-39598" lat="60.0806944413" lon="12.0756111082">
		<tag k="name" v="Godtjernlia" />
		<tag k="place" v="farm" />
		<tag k="ssr:stedsnr" v="369726" />
	</node>
	<node id="-39781" lat="59.9572416698" lon="12.2919999953">
		<tag k="name" v="Breitjennvillaen" />
		<tag k="place" v="isolated_dwelling" />
		<tag k="ssr:stedsnr" v="533343" />
	</node>
	<node id="-39592" lat="60.0754932031" lon="12.1649404894">
		<tag k="fixme" v="consider place=hamlet" />
		<tag k="name" v="Gusterud" />
		<tag k="place" v="farm" />
		<tag k="ssr:stedsnr" v="369661" />
	</node>
	<node id="-39588" lat="60.0312361099" lon="12.0310555543">
		<tag k="name" v="Moen" />
		<tag k="place" v="farm" />
		<tag k="ssr:stedsnr" v="369585" />
	</node>
	<node id="-39587" lat="60.0428388862" lon="12.083805563">
		<tag k="name" v="Øverby" />
		<tag k="place" v="farm" />
		<tag k="ssr:stedsnr" v="369581" />
	</node>
	<node id="-39586" lat="60.0393185087" lon="12.1465148008">
		<tag k="alt_name" v="Søndre Torp" />
		<tag k="fixme" v="consider place=hamlet" />
		<tag k="name" v="Torp" />
		<tag k="place" v="farm" />
		<tag k="ssr:stedsnr" v="369574" />
	</node>
	<node id="-39585" lat="60.1114527818" lon="12.1160666612">
		<tag k="fixme" v="consider place=hamlet" />
		<tag k="name" v="Åbogen" />
		<tag k="place" v="village" />
		<tag k="ssr:stedsnr" v="369459" />
	</node>
	<node id="-39583" lat="59.9691250001" lon="11.9738638854">
		<tag k="name" v="Vangen" />
		<tag k="place" v="farm" />
		<tag k="ssr:stedsnr" v="369391" />
	</node>
	<node id="-39582" lat="59.9826499987" lon="11.8626249951">
		<tag k="name" v="Smedrud" />
		<tag k="place" v="farm" />
		<tag k="ssr:stedsnr" v="369350" />
	</node>
	<node id="-39580" lat="59.9926250045" lon="12.1038361066">
		<tag k="name" v="Godtland" />
		<tag k="place" v="farm" />
		<tag k="ssr:stedsnr" v="369347" />
	</node>
	<node id="-39579" lat="59.9402833354" lon="12.1407138811">
		<tag k="name" v="Flatby" />
		<tag k="place" v="farm" />
		<tag k="ssr:stedsnr" v="369339" />
	</node>
	<node id="-39578" lat="59.9425388873" lon="12.1613305574">
		<tag k="name" v="Åsen" />
		<tag k="place" v="farm" />
		<tag k="ssr:stedsnr" v="369338" />
	</node>
	<node id="-39575" lat="59.9215416665" lon="11.8566750086">
		<tag k="alt_name" v="Godnes" />
		<tag k="name" v="Nordre Godnes" />
		<tag k="place" v="farm" />
		<tag k="ssr:stedsnr" v="369312" />
	</node>
	<node id="-37939" lat="59.96023889" lon="12.183380559">
		<tag k="name" v="Olberg" />
		<tag k="place" v="farm" />
		<tag k="ssr:stedsnr" v="230566" />
	</node>
	<node id="-39573" lat="59.9069527794" lon="12.0330277828">
		<tag k="name" v="Djupsundet" />
		<tag k="place" v="isolated_dwelling" />
		<tag k="ssr:stedsnr" v="369299" />
	</node>
	<node id="-39572" lat="59.9136683348" lon="11.9900615333">
		<tag k="fixme" v="consider place=hamlet" />
		<tag k="name" v="Klanderud" />
		<tag k="place" v="farm" />
		<tag k="ssr:stedsnr" v="369297" />
	</node>
	<node id="-39571" lat="59.9582666673" lon="11.940227774">
		<tag k="name" v="Tjernsli" />
		<tag k="place" v="farm" />
		<tag k="ssr:stedsnr" v="369292" />
	</node>
	<node id="-39569" lat="59.9544472254" lon="11.9920666731">
		<tag k="alt_name" v="Jerpsetødegård" />
		<tag k="loc_name" v="Jerpsetødegarden" />
		<tag k="name" v="Øgarden" />
		<tag k="place" v="farm" />
		<tag k="ssr:stedsnr" v="369287" />
	</node>
	<node id="-39566" lat="59.9347694463" lon="12.0086277829">
		<tag k="alt_name" v="Jerpsetlia" />
		<tag k="name" v="Lia" />
		<tag k="place" v="farm" />
		<tag k="ssr:stedsnr" v="369242" />
	</node>
	<node id="-39565" lat="59.9880333331" lon="12.2392250075">
		<tag k="name" v="Solbakken" />
		<tag k="place" v="farm" />
		<tag k="ssr:stedsnr" v="369229" />
	</node>
	<node id="-39564" lat="59.9971395795" lon="12.3146208355">
		<tag k="fixme" v="consider place=hamlet" />
		<tag k="name" v="Finnsrud" />
		<tag k="place" v="farm" />
		<tag k="ssr:stedsnr" v="369228" />
	</node>
	<node id="-39562" lat="59.966249996" lon="12.2299861171">
		<tag k="name" v="Nevjen" />
		<tag k="place" v="farm" />
		<tag k="ssr:stedsnr" v="369190" />
	</node>
	<node id="-37771" lat="60.0151497205" lon="12.1221886433">
		<tag k="fixme" v="consider place=hamlet" />
		<tag k="name" v="Midtskog" />
		<tag k="place" v="farm" />
		<tag k="ssr:stedsnr" v="248877" />
	</node>
	<node id="-39559" lat="59.9902638893" lon="12.3336722282">
		<tag k="alt_name" v="Engestad" />
		<tag k="name" v="Engstad" />
		<tag k="place" v="farm" />
		<tag k="ssr:stedsnr" v="369177" />
	</node>
	<node id="-39552" lat="60.0235166671" lon="12.2304805495">
		<tag k="name" v="Kjærstadsætra" />
		<tag k="place" v="farm" />
		<tag k="ssr:stedsnr" v="369029" />
	</node>
	<node id="-39551" lat="59.9466694463" lon="12.2343666746">
		<tag k="name" v="Hansgarden" />
		<tag k="place" v="farm" />
		<tag k="ssr:stedsnr" v="369028" />
	</node>
	<node id="-39550" lat="59.9307250011" lon="12.2217611166">
		<tag k="name" v="Furumo" />
		<tag k="place" v="farm" />
		<tag k="ssr:stedsnr" v="369027" />
	</node>
	<node id="-37994" lat="60.0139666682" lon="12.1307277833">
		<tag k="name" v="Grønnerud" />
		<tag k="place" v="farm" />
		<tag k="ssr:stedsnr" v="308860" />
	</node>
	<node id="-39546" lat="60.0419305568" lon="12.221074999">
		<tag k="historic" v="shieling" />
		<tag k="name" v="Torpsætra" />
		<tag k="place" v="locality" />
		<tag k="ssr:stedsnr" v="369006" />
	</node>
	<node id="-39544" lat="59.9854499961" lon="12.2345499923">
		<tag k="name" v="Stranda" />
		<tag k="old_name" v="Sæteren;Seteren" />
		<tag k="place" v="farm" />
		<tag k="ssr:stedsnr" v="362887" />
	</node>
	<node id="-39543" lat="59.9739249987" lon="12.1648999943">
		<tag k="alt_name" v="Ilagsmoen" />
		<tag k="name" v="Moa" />
		<tag k="place" v="farm" />
		<tag k="ssr:stedsnr" v="362486" />
	</node>
	<node id="-38180" lat="60.0844861115" lon="12.0457777854">
		<tag k="name" v="Nordre Hornkjølen" />
		<tag k="place" v="farm" />
		<tag k="ssr:stedsnr" v="430732" />
	</node>
	<node id="-38333" lat="59.968263892" lon="12.337258335">
		<tag k="name" v="Billa" />
		<tag k="place" v="farm" />
		<tag k="ssr:stedsnr" v="715263" />
	</node>
	<node id="-37733" lat="59.9073476595" lon="11.9816541629">
		<tag k="fixme" v="consider place=hamlet" />
		<tag k="name" v="Rud" />
		<tag k="place" v="farm" />
		<tag k="ssr:stedsnr" v="248311" />
	</node>
	<node id="-39524" lat="59.9770555521" lon="12.1460888919">
		<tag k="name" v="Valmannsmoen" />
		<tag k="place" v="isolated_dwelling" />
		<tag k="ssr:stedsnr" v="351576" />
	</node>
	<node id="-39523" lat="59.9709916668" lon="12.1302694402">
		<tag k="name" v="Jerpeliholtet" />
		<tag k="place" v="farm" />
		<tag k="ssr:stedsnr" v="351573" />
	</node>
	<node id="-39522" lat="59.9464444458" lon="11.9885361127">
		<tag k="name" v="Jerpsetåsen" />
		<tag k="place" v="farm" />
		<tag k="ssr:stedsnr" v="351569" />
	</node>
	<node id="-39521" lat="59.9373472229" lon="12.1501805566">
		<tag k="name" v="Sør-Gjellaren" />
		<tag k="place" v="farm" />
		<tag k="ssr:stedsnr" v="351567" />
	</node>
	<node id="-39520" lat="59.942744444" lon="12.1728861081">
		<tag k="name" v="Nesheim" />
		<tag k="place" v="farm" />
		<tag k="ssr:stedsnr" v="351551" />
	</node>
	<node id="-39519" lat="60.0008694461" lon="12.3154611031">
		<tag k="name" v="Strandli" />
		<tag k="place" v="farm" />
		<tag k="ssr:stedsnr" v="351541" />
	</node>
	<node id="-39514" lat="60.0460333295" lon="11.9004194421">
		<tag k="name" v="Hustuft" />
		<tag k="place" v="isolated_dwelling" />
		<tag k="ssr:stedsnr" v="351344" />
	</node>
	<node id="-39512" lat="60.1328972254" lon="12.1719722289">
		<tag k="name" v="Nedre Langrekken" />
		<tag k="place" v="farm" />
		<tag k="ssr:stedsnr" v="351330" />
	</node>
	<node id="-37664" lat="60.1181055577" lon="12.1122250062">
		<tag k="name" v="Åbogsmoen" />
		<tag k="place" v="quarter" />
		<tag k="ssr:stedsnr" v="230487" />
	</node>
	<node id="-40035" lat="60.0105333292" lon="12.1361944417">
		<tag k="name" v="Jegerud" />
		<tag k="place" v="farm" />
		<tag k="ssr:stedsnr" v="653168" />
	</node>
	<node id="-37757" lat="60.0282673199" lon="12.0908834016">
		<tag k="alt_name" v="Kisen" />
		<tag k="fixme" v="consider place=hamlet" />
		<tag k="name" v="Kisa" />
		<tag k="place" v="farm" />
		<tag k="ssr:stedsnr" v="248658" />
	</node>
	<node id="-39503" lat="59.9641638864" lon="12.1486777799">
		<tag k="name" v="Sørstua" />
		<tag k="place" v="farm" />
		<tag k="ssr:stedsnr" v="351243" />
	</node>
	<node id="-39499" lat="59.9408333331" lon="12.1662444456">
		<tag k="name" v="Røysdalsmoen" />
		<tag k="place" v="farm" />
		<tag k="ssr:stedsnr" v="351213" />
	</node>
	<node id="-39497" lat="60.0085861146" lon="12.1203916672">
		<tag k="name" v="Stansberg" />
		<tag k="place" v="farm" />
		<tag k="ssr:stedsnr" v="351194" />
	</node>
	<node id="-40033" lat="59.9220499989" lon="11.9685638849">
		<tag k="name" v="Langvassbråtan" />
		<tag k="place" v="farm" />
		<tag k="ssr:stedsnr" v="653154" />
	</node>
	<node id="-39491" lat="59.9585888912" lon="11.9424222198">
		<tag k="name" v="Nordsætra" />
		<tag k="place" v="farm" />
		<tag k="ssr:stedsnr" v="351137" />
	</node>
	<node id="-39486" lat="59.9602583306" lon="12.1247249943">
		<tag k="name" v="Søstuen" />
		<tag k="place" v="farm" />
		<tag k="ssr:stedsnr" v="351089" />
	</node>
	<node id="-39485" lat="60.081863885" lon="12.047791664">
		<tag k="name" v="Søndre Hornkjølen" />
		<tag k="place" v="farm" />
		<tag k="ssr:stedsnr" v="351063" />
	</node>
	<node id="-39480" lat="60.0768999976" lon="12.2187333325">
		<tag k="name" v="Gusterudlia" />
		<tag k="place" v="farm" />
		<tag k="ssr:stedsnr" v="351031" />
	</node>
	<node id="-39479" lat="59.922422219" lon="12.0216722225">
		<tag k="name" v="Svenbybråten" />
		<tag k="place" v="farm" />
		<tag k="ssr:stedsnr" v="351019" />
	</node>
	<node id="-39477" lat="59.9777388873" lon="12.3366277747">
		<tag k="name" v="Åsen" />
		<tag k="place" v="farm" />
		<tag k="ssr:stedsnr" v="351004" />
	</node>
	<node id="-39471" lat="59.9519444437" lon="12.2082416709">
		<tag k="name" v="Brennåsen" />
		<tag k="place" v="quarter" />
		<tag k="ssr:stedsnr" v="351443" />
	</node>
	<node id="-38322" lat="59.9875305579" lon="12.1197694483">
		<tag k="amenity" v="nursing_home" />
		<tag k="name" v="Eidskog sykehjem" />
		<tag k="ssr:stedsnr" v="715207" />
	</node>
	<node id="-39461" lat="59.9154944407" lon="11.9862111061">
		<tag k="name" v="Almenninga" />
		<tag k="place" v="farm" />
		<tag k="ssr:stedsnr" v="350148" />
	</node>
	<node id="-39460" lat="59.9734083345" lon="12.335469447">
		<tag k="name" v="Skogli" />
		<tag k="place" v="farm" />
		<tag k="ssr:stedsnr" v="350142" />
	</node>
	<node id="-39459" lat="60.0281500022" lon="12.143983325">
		<tag k="name" v="Nordre Berger" />
		<tag k="place" v="locality" />
		<tag k="ssr:stedsnr" v="339255" />
	</node>
	<node id="-39457" lat="60.1283472255" lon="12.2318055581">
		<tag k="name" v="Holsætra" />
		<tag k="place" v="farm" />
		<tag k="ssr:stedsnr" v="325985" />
	</node>
	<node id="-39344" lat="59.9527694443" lon="12.1203861094">
		<tag k="alt_name" v="Sørnby" />
		<tag k="name" v="Sørby" />
		<tag k="place" v="farm" />
		<tag k="ssr:stedsnr" v="187259" />
	</node>
	<node id="-39453" lat="60.035000003" lon="12.0888999961">
		<tag k="name" v="Velantun" />
		<tag k="place" v="farm" />
		<tag k="ssr:stedsnr" v="309653" />
	</node>
	<node id="-39451" lat="60.1289833362" lon="12.2006583386">
		<tag k="name" v="Grasdalen" />
		<tag k="place" v="farm" />
		<tag k="ssr:stedsnr" v="309590" />
	</node>
	<node id="-39448" lat="59.9743277792" lon="11.9430000007">
		<tag k="name" v="Høyby" />
		<tag k="place" v="farm" />
		<tag k="ssr:stedsnr" v="309509" />
	</node>
	<node id="-39447" lat="59.9771944405" lon="12.0123138912">
		<tag k="alt_name" v="Kjernsli" />
		<tag k="loc_name" v="Tjennsli" />
		<tag k="name" v="Tjernsli" />
		<tag k="place" v="farm" />
		<tag k="ssr:stedsnr" v="309492" />
	</node>
	<node id="-39446" lat="59.9904250001" lon="12.1595138803">
		<tag k="name" v="Ilagsbakken" />
		<tag k="place" v="farm" />
		<tag k="ssr:stedsnr" v="309424" />
	</node>
	<node id="-39445" lat="59.9983277776" lon="12.2051388878">
		<tag k="name" v="Ånerud" />
		<tag k="place" v="farm" />
		<tag k="ssr:stedsnr" v="309420" />
	</node>
	<node id="-39505" lat="59.9868555555" lon="12.3343444382">
		<tag k="name" v="Nordre Bekkenga" />
		<tag k="place" v="farm" />
		<tag k="ssr:stedsnr" v="351252" />
	</node>
	<node id="-39440" lat="59.9578249996" lon="12.1484027807">
		<tag k="name" v="Lund" />
		<tag k="place" v="farm" />
		<tag k="ssr:stedsnr" v="309329" />
	</node>
	<node id="-39439" lat="59.9541694411" lon="11.8497805522">
		<tag k="name" v="Lunderby" />
		<tag k="place" v="farm" />
		<tag k="ssr:stedsnr" v="309325" />
	</node>
	<node id="-39438" lat="59.9447530934" lon="11.9950209905">
		<tag k="fixme" v="consider place=hamlet" />
		<tag k="name" v="Jerpset" />
		<tag k="place" v="farm" />
		<tag k="ssr:stedsnr" v="309316" />
	</node>
	<node id="-39437" lat="59.9485888906" lon="12.0599305477">
		<tag k="alt_name" v="Nordhaga" />
		<tag k="loc_name" v="Hagan" />
		<tag k="name" v="Haget" />
		<tag k="place" v="farm" />
		<tag k="ssr:stedsnr" v="309308" />
	</node>
	<node id="-39433" lat="60.0086555513" lon="12.3041583278">
		<tag k="fixme" v="consider place=hamlet" />
		<tag k="name" v="Billingsø" />
		<tag k="place" v="farm" />
		<tag k="ssr:stedsnr" v="309218" />
	</node>
	<node id="-39428" lat="59.8887415632" lon="11.8572173055">
		<tag k="alt_name" v="Sjelåen" />
		<tag k="fixme" v="consider place=hamlet" />
		<tag k="name" v="Skjølåa" />
		<tag k="place" v="farm" />
		<tag k="ssr:stedsnr" v="309145" />
	</node>
	<node id="-39427" lat="59.9404416638" lon="12.2597222139">
		<tag k="name" v="Lindalen" />
		<tag k="place" v="farm" />
		<tag k="ssr:stedsnr" v="309042" />
	</node>
	<node id="-39423" lat="59.9678333305" lon="11.8021250076">
		<tag k="name" v="Sandvika" />
		<tag k="place" v="isolated_dwelling" />
		<tag k="ssr:stedsnr" v="308982" />
	</node>
	<node id="-39419" lat="60.0683418694" lon="12.1071418999">
		<tag k="alt_name" v="Nord-Dal" />
		<tag k="fixme" v="consider place=hamlet" />
		<tag k="name" v="Dal" />
		<tag k="place" v="farm" />
		<tag k="ssr:stedsnr" v="308678" />
	</node>
	<node id="-39416" lat="60.1157638911" lon="12.1016277782">
		<tag k="name" v="Drøserud" />
		<tag k="place" v="farm" />
		<tag k="ssr:stedsnr" v="308474" />
	</node>
	<node id="-39415" lat="59.9796952155" lon="12.1614348786">
		<tag k="fixme" v="multiple name tags, choose one and add the other to alt_name" />
		<tag k="name" v="Lysmoen;Søndre Ilag" />
		<tag k="place" v="farm" />
		<tag k="ssr:stedsnr" v="308420" />
	</node>
	<node id="-39414" lat="59.965849998" lon="12.0038499959">
		<tag k="alt_name" v="Svendsrud" />
		<tag k="name" v="Svensrud" />
		<tag k="place" v="farm" />
		<tag k="ssr:stedsnr" v="308400" />
	</node>
	<node id="-39413" lat="59.9615583307" lon="11.9461111161">
		<tag k="name" v="Halvorsrud" />
		<tag k="place" v="farm" />
		<tag k="ssr:stedsnr" v="308394" />
	</node>
	<node id="-39411" lat="59.9308194432" lon="11.9857777834">
		<tag k="alt_name" v="Harstadåsen" />
		<tag k="name" v="Åsen" />
		<tag k="place" v="farm" />
		<tag k="ssr:stedsnr" v="308337" />
	</node>
	<node id="-39410" lat="59.9418555589" lon="12.1988083356">
		<tag k="name" v="Elvely" />
		<tag k="place" v="farm" />
		<tag k="ssr:stedsnr" v="308332" />
	</node>
	<node id="-40225" lat="59.9687388907" lon="11.9494388831">
		<tag k="name" v="Nordre Hea" />
		<tag k="place" v="farm" />
		<tag k="ssr:stedsnr" v="836031" />
	</node>
	<node id="-39407" lat="59.9199027779" lon="12.0952166672">
		<tag k="alt_name" v="Sjøenden østre" />
		<tag k="name" v="Sjøenden" />
		<tag k="place" v="farm" />
		<tag k="ssr:stedsnr" v="308298" />
	</node>
	<node id="-39406" lat="59.9177444443" lon="12.029405554">
		<tag k="name" v="Svenby" />
		<tag k="place" v="farm" />
		<tag k="ssr:stedsnr" v="308291" />
	</node>
	<node id="-39404" lat="59.9866777742" lon="12.2361583288">
		<tag k="name" v="Stranda" />
		<tag k="place" v="farm" />
		<tag k="ssr:stedsnr" v="308226" />
	</node>
	<node id="-39403" lat="60.0613083359" lon="12.2593750023">
		<tag k="name" v="Kampen" />
		<tag k="place" v="farm" />
		<tag k="ssr:stedsnr" v="308087" />
	</node>
	<node id="-39401" lat="60.0717972232" lon="12.2394805528">
		<tag k="name" v="Enderud" />
		<tag k="place" v="farm" />
		<tag k="ssr:stedsnr" v="308060" />
	</node>
	<node id="-39399" lat="59.9450138892" lon="12.0161277858">
		<tag k="name" v="Sør-Rasta" />
		<tag k="place" v="farm" />
		<tag k="ssr:stedsnr" v="203036" />
	</node>
	<node id="-39396" lat="59.9876583378" lon="12.0707472144">
		<tag k="name" v="Bjørnstadmoen" />
		<tag k="place" v="farm" />
		<tag k="ssr:stedsnr" v="188556" />
	</node>
	<node id="-39394" lat="59.976002776" lon="11.9853472266">
		<tag k="name" v="Sørli" />
		<tag k="place" v="farm" />
		<tag k="ssr:stedsnr" v="188538" />
	</node>
	<node id="-39390" lat="59.9834833325" lon="12.1615777804">
		<tag k="name" v="Åsmoen" />
		<tag k="place" v="farm" />
		<tag k="ssr:stedsnr" v="188519" />
	</node>
	<node id="-39389" lat="59.9516250005" lon="12.1368611065">
		<tag k="name" v="Solli" />
		<tag k="place" v="farm" />
		<tag k="ssr:stedsnr" v="188296" />
	</node>
	<node id="-39384" lat="59.9062583334" lon="12.0914111063">
		<tag k="name" v="Perkerud" />
		<tag k="place" v="farm" />
		<tag k="ssr:stedsnr" v="188203" />
	</node>
	<node id="-39379" lat="60.089211114" lon="12.1505083409">
		<tag k="name" v="Haga" />
		<tag k="place" v="farm" />
		<tag k="ssr:stedsnr" v="187710" />
	</node>
	<node id="-38307" lat="59.9263805526" lon="12.202752777">
		<tag k="name" v="Vålerheim" />
		<tag k="place" v="farm" />
		<tag k="ssr:stedsnr" v="715085" />
	</node>
	<node id="-39376" lat="60.0638472235" lon="12.1472027783">
		<tag k="name" v="Svenby" />
		<tag k="place" v="farm" />
		<tag k="ssr:stedsnr" v="187684" />
	</node>
	<node id="-39373" lat="60.0768361112" lon="12.0115361058">
		<tag k="name" v="Dalssætra" />
		<tag k="place" v="farm" />
		<tag k="ssr:stedsnr" v="187666" />
	</node>
	<node id="-39372" lat="60.0877777773" lon="12.1218583329">
		<tag k="name" v="Eidsbrua" />
		<tag k="place" v="farm" />
		<tag k="ssr:stedsnr" v="187652" />
	</node>
	<node id="-39371" lat="60.0428361129" lon="11.8529277858">
		<tag k="name" v="Fjellbu" />
		<tag k="place" v="locality" />
		<tag k="ssr:stedsnr" v="187647" />
	</node>
	<node id="-39370" lat="60.0454500024" lon="12.1562250057">
		<tag k="name" v="Kapstadmyra" />
		<tag k="place" v="farm" />
		<tag k="ssr:stedsnr" v="187636" />
	</node>
	<node id="-39369" lat="60.0587833349" lon="12.1320250054">
		<tag k="name" v="Sandnes" />
		<tag k="place" v="farm" />
		<tag k="ssr:stedsnr" v="187635" />
	</node>
	<node id="-39364" lat="60.041455554" lon="12.2164444439">
		<tag k="alt_name" v="Torpsæter" />
		<tag k="historic" v="shieling" />
		<tag k="name" v="Torpsætra" />
		<tag k="place" v="locality" />
		<tag k="ssr:stedsnr" v="187590" />
	</node>
	<node id="-39362" lat="60.0288083309" lon="12.0470638818">
		<tag k="name" v="Teppa" />
		<tag k="place" v="farm" />
		<tag k="ssr:stedsnr" v="187585" />
	</node>
	<node id="-39361" lat="60.1308000031" lon="12.1423833268">
		<tag k="name" v="Skauby" />
		<tag k="place" v="farm" />
		<tag k="ssr:stedsnr" v="187519" />
	</node>
	<node id="-39360" lat="60.1237472265" lon="12.2172750027">
		<tag k="fixme" v="multiple name tags, choose one and add the other to alt_name" />
		<tag k="name" v="Søgårdsvangen;Vangen" />
		<tag k="place" v="farm" />
		<tag k="ssr:stedsnr" v="187476" />
	</node>
	<node id="-39359" lat="59.9775499956" lon="12.0329416706">
		<tag k="name" v="Kvernkroken" />
		<tag k="place" v="farm" />
		<tag k="ssr:stedsnr" v="187460" />
	</node>
	<node id="-39358" lat="59.9726916704" lon="12.1261277782">
		<tag k="name" v="Melgard" />
		<tag k="place" v="farm" />
		<tag k="ssr:stedsnr" v="187433" />
	</node>
	<node id="-39357" lat="59.9773000008" lon="12.1050000007">
		<tag k="name" v="Vestby" />
		<tag k="place" v="farm" />
		<tag k="ssr:stedsnr" v="187432" />
	</node>
	<node id="-39356" lat="59.9978638924" lon="12.0518111098">
		<tag k="alt_name" v="Snesbølnygård" />
		<tag k="loc_name" v="Nygard" />
		<tag k="name" v="Nygård" />
		<tag k="place" v="farm" />
		<tag k="ssr:stedsnr" v="187375" />
	</node>
	<node id="-39355" lat="59.9399583298" lon="12.1699833326">
		<tag k="name" v="Moen" />
		<tag k="place" v="farm" />
		<tag k="ssr:stedsnr" v="187350" />
	</node>
	<node id="-39354" lat="59.9323500028" lon="12.0847999949">
		<tag k="name" v="Sollia" />
		<tag k="place" v="isolated_dwelling" />
		<tag k="ssr:stedsnr" v="187333" />
	</node>
	<node id="-39353" lat="59.9334249955" lon="12.2046166693">
		<tag k="name" v="Kustås" />
		<tag k="place" v="farm" />
		<tag k="ssr:stedsnr" v="187325" />
	</node>
	<node id="-39352" lat="59.9326638899" lon="12.1703000007">
		<tag k="name" v="Gaustadsætra" />
		<tag k="place" v="farm" />
		<tag k="ssr:stedsnr" v="187321" />
	</node>
	<node id="-39351" lat="59.9252027793" lon="12.0686749934">
		<tag k="alt_name" v="Myrvoll" />
		<tag k="name" v="Myrvang" />
		<tag k="place" v="farm" />
		<tag k="ssr:stedsnr" v="187318" />
	</node>
	<node id="-39350" lat="59.9740444486" lon="12.1584944449">
		<tag k="name" v="Gulli" />
		<tag k="place" v="farm" />
		<tag k="ssr:stedsnr" v="187304" />
	</node>
	<node id="-39348" lat="59.9610753746" lon="12.1533426607">
		<tag k="alt_name" v="Søndre Sørgarden" />
		<tag k="name" v="Nedgarden" />
		<tag k="place" v="farm" />
		<tag k="ssr:stedsnr" v="187288" />
	</node>
	<node id="-39346" lat="59.9490999981" lon="12.0727055535">
		<tag k="name" v="Østgarden" />
		<tag k="place" v="farm" />
		<tag k="ssr:stedsnr" v="187267" />
	</node>
	<node id="-40020" lat="60.070544444" lon="11.9287388834">
		<tag k="historic" v="shieling" />
		<tag k="name" v="Gammelsætra" />
		<tag k="place" v="locality" />
		<tag k="ssr:stedsnr" v="612700" />
	</node>
	<node id="-39342" lat="59.906124997" lon="11.8599055496">
		<tag k="name" v="Enga" />
		<tag k="place" v="farm" />
		<tag k="ssr:stedsnr" v="187172" />
	</node>
	<node id="-39341" lat="59.9014888852" lon="11.9747277737">
		<tag k="alt_name" v="Høgvall" />
		<tag k="name" v="Høgvoll" />
		<tag k="place" v="farm" />
		<tag k="ssr:stedsnr" v="187168" />
	</node>
	<node id="-39977" lat="60.0302027741" lon="12.0914499969">
		<tag k="name" v="Nordjordet" />
		<tag k="place" v="farm" />
		<tag k="ssr:stedsnr" v="611666" />
	</node>
	<node id="-39337" lat="59.864252777" lon="11.8463555562">
		<tag k="alt_name" v="Sjelåsæterhytta" />
		<tag k="historic" v="shieling" />
		<tag k="name" v="Skjølåsætra" />
		<tag k="place" v="locality" />
		<tag k="ssr:stedsnr" v="187138" />
	</node>
	<node id="-39334" lat="59.8986749988" lon="12.168033342">
		<tag k="name" v="Morastsætra" />
		<tag k="place" v="farm" />
		<tag k="ssr:stedsnr" v="187133" />
	</node>
	<node id="-39333" lat="59.8917638911" lon="11.871622214">
		<tag k="name" v="Skjølåbråtan" />
		<tag k="place" v="farm" />
		<tag k="ssr:stedsnr" v="187132" />
	</node>
	<node id="-39331" lat="59.8880416637" lon="11.9137194461">
		<tag k="alt_name" v="Almenningsæter" />
		<tag k="historic" v="shieling" />
		<tag k="loc_name" v="Almenningssætra" />
		<tag k="name" v="Almenningsætra" />
		<tag k="place" v="locality" />
		<tag k="ssr:stedsnr" v="187128" />
	</node>
	<node id="-37794" lat="59.8904888914" lon="11.9383499982">
		<tag k="name" v="Rudsvika" />
		<tag k="place" v="farm" />
		<tag k="ssr:stedsnr" v="127202" />
	</node>
	<node id="-37614" lat="60.0262305532" lon="12.1460805633">
		<tag k="name" v="Søndre Berger" />
		<tag k="place" v="locality" />
		<tag k="ssr:stedsnr" v="218251" />
	</node>
	<node id="-39314" lat="59.9670888868" lon="12.0634333266">
		<tag k="name" v="Solbakken" />
		<tag k="place" v="farm" />
		<tag k="ssr:stedsnr" v="169756" />
	</node>
	<node id="-39313" lat="59.9841444414" lon="12.126158327">
		<tag k="amenity" v="school" />
		<tag k="name" v="Eidskog ungdomsskole" />
		<tag k="ssr:stedsnr" v="169737" />
	</node>
	<node id="-38271" lat="59.9302222178" lon="12.0000944507">
		<tag k="name" v="Plassen" />
		<tag k="place" v="farm" />
		<tag k="ssr:stedsnr" v="532962" />
	</node>
	<node id="-39301" lat="59.9937055521" lon="12.1718166699">
		<tag k="name" v="Nordre Ilag" />
		<tag k="place" v="hamlet" />
		<tag k="ssr:stedsnr" v="169978" />
	</node>
	<node id="-39297" lat="59.9262999958" lon="12.2281805509">
		<tag k="name" v="Humlegårdsnesset" />
		<tag k="place" v="farm" />
		<tag k="ssr:stedsnr" v="169493" />
	</node>
	<node id="-37952" lat="60.0552583327" lon="11.951163891">
		<tag k="name" v="Aurkyttjennhytta" />
		<tag k="place" v="isolated_dwelling" />
		<tag k="ssr:stedsnr" v="461144" />
	</node>
	<node id="-38342" lat="59.9404611109" lon="12.1578194382">
		<tag k="name" v="Gillås" />
		<tag k="place" v="farm" />
		<tag k="ssr:stedsnr" v="715581" />
	</node>
	<node id="-39275" lat="59.9616499961" lon="12.1425666655">
		<tag k="name" v="Søndre Rønningen" />
		<tag k="place" v="farm" />
		<tag k="ssr:stedsnr" v="169583" />
	</node>
	<node id="-39274" lat="59.9683055569" lon="12.174769441">
		<tag k="name" v="Vikerbråten" />
		<tag k="place" v="farm" />
		<tag k="ssr:stedsnr" v="169581" />
	</node>
	<node id="-39273" lat="59.9499861147" lon="11.9754694432">
		<tag k="name" v="Bjørklund" />
		<tag k="place" v="farm" />
		<tag k="ssr:stedsnr" v="169580" />
	</node>
	<node id="-39272" lat="59.9410527793" lon="12.2247166638">
		<tag k="loc_name" v="Bjørkely" />
		<tag k="name" v="Bjerkely" />
		<tag k="place" v="farm" />
		<tag k="ssr:stedsnr" v="169555" />
	</node>
	<node id="-38301" lat="60.0855333295" lon="12.150172214">
		<tag k="name" v="Sand" />
		<tag k="place" v="farm" />
		<tag k="ssr:stedsnr" v="594008" />
	</node>
	<node id="-39269" lat="59.9790083325" lon="12.0336222307">
		<tag k="name" v="Åsheim" />
		<tag k="place" v="isolated_dwelling" />
		<tag k="ssr:stedsnr" v="169536" />
	</node>
	<node id="-39267" lat="59.9196777768" lon="12.089086105">
		<tag k="name" v="Søndre Sjøenden" />
		<tag k="place" v="farm" />
		<tag k="ssr:stedsnr" v="169199" />
	</node>
	<node id="-39264" lat="60.0541083323" lon="12.0528333246">
		<tag k="name" v="Eriksteppa" />
		<tag k="place" v="isolated_dwelling" />
		<tag k="ssr:stedsnr" v="169192" />
	</node>
	<node id="-37769" lat="60.0817972181" lon="12.0261250022">
		<tag k="name" v="Buholtet" />
		<tag k="place" v="farm" />
		<tag k="ssr:stedsnr" v="248757" />
	</node>
	<node id="-39257" lat="59.9709861155" lon="12.164647222">
		<tag k="name" v="Østby" />
		<tag k="place" v="farm" />
		<tag k="ssr:stedsnr" v="169129" />
	</node>
	<node id="-39252" lat="59.9632166634" lon="12.1458472265">
		<tag k="name" v="Torestua" />
		<tag k="place" v="farm" />
		<tag k="ssr:stedsnr" v="169227" />
	</node>
	<node id="-38286" lat="60.0056027738" lon="12.0746194419">
		<tag k="name" v="Sørstuen" />
		<tag k="old_name" v="Bråten" />
		<tag k="place" v="farm" />
		<tag k="ssr:stedsnr" v="533590" />
	</node>
	<node id="-39250" lat="59.974594443" lon="12.1146861039">
		<tag k="name" v="Nordstuen" />
		<tag k="place" v="farm" />
		<tag k="ssr:stedsnr" v="169215" />
	</node>
	<node id="-39245" lat="59.9375222192" lon="12.1693666701">
		<tag k="name" v="Nymoen" />
		<tag k="place" v="farm" />
		<tag k="ssr:stedsnr" v="169081" />
	</node>
	<node id="-39242" lat="59.9395472244" lon="12.2021277868">
		<tag k="name" v="Åbo" />
		<tag k="place" v="farm" />
		<tag k="ssr:stedsnr" v="169074" />
	</node>
	<node id="-39240" lat="60.0970861074" lon="12.2449388826">
		<tag k="name" v="Lomvik koja" />
		<tag k="place" v="isolated_dwelling" />
		<tag k="ssr:stedsnr" v="169053" />
	</node>
	<node id="-39238" lat="59.9392055584" lon="12.1473388973">
		<tag k="name" v="Nord-Gjellaren" />
		<tag k="place" v="farm" />
		<tag k="ssr:stedsnr" v="168883" />
	</node>
	<node id="-39230" lat="60.026802777" lon="12.0895194532">
		<tag k="alt_name" v="Søndre Nordkisen;Kisen" />
		<tag k="name" v="Søndre Nordkisa" />
		<tag k="place" v="farm" />
		<tag k="ssr:stedsnr" v="163723" />
	</node>
	<node id="-39229" lat="60.0054999973" lon="12.3092527798">
		<tag k="name" v="Billingsøberget" />
		<tag k="place" v="farm" />
		<tag k="ssr:stedsnr" v="157960" />
	</node>
	<node id="-37688" lat="59.8867444433" lon="11.8574444429">
		<tag k="name" v="Skjønneborg" />
		<tag k="place" v="farm" />
		<tag k="ssr:stedsnr" v="66125" />
	</node>
	<node id="-39224" lat="60.0417277801" lon="12.0390249915">
		<tag k="name" v="Enga" />
		<tag k="place" v="farm" />
		<tag k="ssr:stedsnr" v="127673" />
	</node>
	<node id="-37940" lat="59.9749055577" lon="12.1052416669">
		<tag k="name" v="Vestheim" />
		<tag k="place" v="farm" />
		<tag k="ssr:stedsnr" v="230571" />
	</node>
	<node id="-39221" lat="60.0433250029" lon="12.1180999963">
		<tag k="name" v="Tukun" />
		<tag k="place" v="farm" />
		<tag k="ssr:stedsnr" v="127665" />
	</node>
	<node id="-39220" lat="59.9466138908" lon="12.1203749997">
		<tag k="name" v="Strømstad" />
		<tag k="place" v="farm" />
		<tag k="ssr:stedsnr" v="127299" />
	</node>
	<node id="-39219" lat="59.9827937709" lon="12.0415396864">
		<tag k="fixme" v="consider place=hamlet" />
		<tag k="name" v="Snesbølmoen" />
		<tag k="place" v="farm" />
		<tag k="ssr:stedsnr" v="127540" />
	</node>
	<node id="-39217" lat="59.9053138893" lon="12.1269999982">
		<tag k="name" v="Lassefallet" />
		<tag k="place" v="isolated_dwelling" />
		<tag k="ssr:stedsnr" v="127189" />
	</node>
	<node id="-39216" lat="59.9393472248" lon="12.0208972289">
		<tag k="name" v="Franserud" />
		<tag k="place" v="farm" />
		<tag k="ssr:stedsnr" v="127288" />
	</node>
	<node id="-39215" lat="59.9418222215" lon="11.9935500078">
		<tag k="alt_name" v="Søheim" />
		<tag k="name" v="Sørheim" />
		<tag k="place" v="farm" />
		<tag k="ssr:stedsnr" v="127284" />
	</node>
	<node id="-39214" lat="59.9402555574" lon="12.0851277759">
		<tag k="alt_name" v="Åstebølbråten" />
		<tag k="name" v="Bråtan" />
		<tag k="place" v="farm" />
		<tag k="ssr:stedsnr" v="127283" />
	</node>
	<node id="-39212" lat="60.1232277817" lon="12.2205638911">
		<tag k="alt_name" v="Korsgård" />
		<tag k="name" v="Korsgarden" />
		<tag k="place" v="farm" />
		<tag k="ssr:stedsnr" v="126933" />
	</node>
	<node id="-39211" lat="60.0190527805" lon="12.1741027709">
		<tag k="historic" v="shieling" />
		<tag k="name" v="Sæterlia" />
		<tag k="place" v="locality" />
		<tag k="ssr:stedsnr" v="126865" />
	</node>
	<node id="-39210" lat="60.000874998" lon="11.9009833335">
		<tag k="name" v="Vangen" />
		<tag k="place" v="farm" />
		<tag k="ssr:stedsnr" v="126853" />
	</node>
	<node id="-39209" lat="60.0032328009" lon="12.1303451057">
		<tag k="fixme" v="consider place=hamlet" />
		<tag k="name" v="Hesbøl" />
		<tag k="place" v="farm" />
		<tag k="ssr:stedsnr" v="126844" />
	</node>
	<node id="-39206" lat="60.0161166661" lon="12.0179361146">
		<tag k="name" v="Granerud" />
		<tag k="place" v="isolated_dwelling" />
		<tag k="ssr:stedsnr" v="126634" />
	</node>
	<node id="-39205" lat="60.131713893" lon="12.2060166698">
		<tag k="name" v="Rælingen" />
		<tag k="place" v="farm" />
		<tag k="ssr:stedsnr" v="126551" />
	</node>
	<node id="-39202" lat="59.9775444441" lon="12.1096861166">
		<tag k="alt_name" v="Trandembråten" />
		<tag k="loc_name" v="Trandemsbråtan" />
		<tag k="name" v="Bråtan" />
		<tag k="place" v="farm" />
		<tag k="ssr:stedsnr" v="126462" />
	</node>
	<node id="-37722" lat="59.9728499984" lon="12.3467500052">
		<tag k="name" v="Klettås" />
		<tag k="place" v="farm" />
		<tag k="ssr:stedsnr" v="248208" />
	</node>
	<node id="-39199" lat="59.9919527758" lon="12.1789083344">
		<tag k="name" v="Høgåsen" />
		<tag k="place" v="farm" />
		<tag k="ssr:stedsnr" v="126383" />
	</node>
	<node id="-39195" lat="59.9268055582" lon="11.9952277738">
		<tag k="alt_name" v="Nordre Rambølsbruket" />
		<tag k="fixme" v="multiple name tags, choose one and add the other to alt_name" />
		<tag k="loc_name" v="Nordre Bruket" />
		<tag k="name" v="Nordre Eidet;Rambølsbruket" />
		<tag k="place" v="farm" />
		<tag k="ssr:stedsnr" v="126354" />
	</node>
	<node id="-39194" lat="59.9326194467" lon="12.1780111151">
		<tag k="name" v="Solheim" />
		<tag k="place" v="farm" />
		<tag k="ssr:stedsnr" v="126346" />
	</node>
	<node id="-39192" lat="59.915236107" lon="11.8746888811">
		<tag k="name" v="Buvika" />
		<tag k="place" v="farm" />
		<tag k="ssr:stedsnr" v="126317" />
	</node>
	<node id="-39190" lat="59.925894443" lon="12.2091500064">
		<tag k="name" v="Våler" />
		<tag k="place" v="farm" />
		<tag k="ssr:stedsnr" v="126313" />
	</node>
	<node id="-39188" lat="59.9573194408" lon="11.9695666675">
		<tag k="alt_name" v="Knutsbrua" />
		<tag k="name" v="Knutbrua" />
		<tag k="place" v="farm" />
		<tag k="ssr:stedsnr" v="126289" />
	</node>
	<node id="-39186" lat="59.9509222183" lon="12.2015138937">
		<tag k="name" v="Magnor" />
		<tag k="place" v="village" />
		<tag k="ssr:stedsnr" v="126268" />
	</node>
	<node id="-39185" lat="59.9598416638" lon="12.2017777783">
		<tag k="name" v="Solås" />
		<tag k="place" v="farm" />
		<tag k="ssr:stedsnr" v="126266" />
	</node>
	<node id="-39184" lat="59.9469249966" lon="12.0197805496">
		<tag k="name" v="Rasta" />
		<tag k="place" v="farm" />
		<tag k="ssr:stedsnr" v="126257" />
	</node>
	<node id="-39183" lat="59.9664138908" lon="12.3391833353">
		<tag k="name" v="Billa" />
		<tag k="place" v="farm" />
		<tag k="ssr:stedsnr" v="126203" />
	</node>
	<node id="-39182" lat="59.9646999978" lon="12.230350003">
		<tag k="name" v="Olsrud" />
		<tag k="place" v="farm" />
		<tag k="ssr:stedsnr" v="126200" />
	</node>
	<node id="-39181" lat="59.9734138865" lon="12.2445444433">
		<tag k="name" v="Bentenga" />
		<tag k="place" v="farm" />
		<tag k="ssr:stedsnr" v="126198" />
	</node>
	<node id="-39180" lat="59.9723055517" lon="12.2238555623">
		<tag k="name" v="Østby" />
		<tag k="place" v="farm" />
		<tag k="ssr:stedsnr" v="126195" />
	</node>
	<node id="-39179" lat="59.9760611149" lon="12.3358333277">
		<tag k="name" v="Bjørndalen" />
		<tag k="place" v="farm" />
		<tag k="ssr:stedsnr" v="126189" />
	</node>
	<node id="-39178" lat="59.8914833346" lon="11.8255861102">
		<tag k="name" v="Krokstadneset" />
		<tag k="place" v="farm" />
		<tag k="ssr:stedsnr" v="126175" />
	</node>
	<node id="-39169" lat="60.0448222232" lon="12.2790444522">
		<tag k="name" v="Nordset" />
		<tag k="old_name" v="Nordby" />
		<tag k="place" v="farm" />
		<tag k="ssr:stedsnr" v="126002" />
	</node>
	<node id="-37789" lat="60.0173666696" lon="12.0552027804">
		<tag k="name" v="Liset" />
		<tag k="place" v="farm" />
		<tag k="ssr:stedsnr" v="109532" />
	</node>
	<node id="-37930" lat="59.9296361141" lon="12.1754972149">
		<tag k="name" v="Tomta" />
		<tag k="place" v="farm" />
		<tag k="ssr:stedsnr" v="230107" />
	</node>
	<node id="-39161" lat="59.9432916672" lon="11.9959638859">
		<tag k="name" v="Nyborg" />
		<tag k="place" v="farm" />
		<tag k="ssr:stedsnr" v="109558" />
	</node>
	<node id="-39157" lat="60.0525055518" lon="11.9221722274">
		<tag k="historic" v="shieling" />
		<tag k="name" v="Bjørnstadsæter" />
		<tag k="place" v="locality" />
		<tag k="ssr:stedsnr" v="109350" />
	</node>
	<node id="-39156" lat="59.9266416626" lon="12.2214527801">
		<tag k="name" v="Nordre Vilsberg" />
		<tag k="place" v="farm" />
		<tag k="ssr:stedsnr" v="109341" />
	</node>
	<node id="-39155" lat="59.9602833362" lon="11.9731305511">
		<tag k="name" v="Øst-Moen" />
		<tag k="place" v="farm" />
		<tag k="ssr:stedsnr" v="109200" />
	</node>
	<node id="-39154" lat="60.0060805529" lon="12.0753222133">
		<tag k="name" v="Sørstuen" />
		<tag k="old_name" v="Rambøl" />
		<tag k="place" v="farm" />
		<tag k="ssr:stedsnr" v="109272" />
	</node>
	<node id="-39152" lat="60.060494445" lon="12.2203083405">
		<tag k="name" v="Baksjøberget" />
		<tag k="place" v="farm" />
		<tag k="ssr:stedsnr" v="109046" />
	</node>
	<node id="-37928" lat="60.0270833296" lon="12.0900083397">
		<tag k="name" v="Søndre Nordkisen" />
		<tag k="place" v="farm" />
		<tag k="ssr:stedsnr" v="230019" />
	</node>
	<node id="-37927" lat="59.9482638913" lon="11.9821388822">
		<tag k="name" v="Søndre Jerpsethaget" />
		<tag k="place" v="farm" />
		<tag k="ssr:stedsnr" v="230018" />
	</node>
	<node id="-38268" lat="59.8936861122" lon="12.1651111173">
		<tag k="name" v="Leirsjøbråten" />
		<tag k="place" v="locality" />
		<tag k="ssr:stedsnr" v="533006" />
	</node>
	<node id="-39974" lat="59.9684863747" lon="11.9503718977">
		<tag k="name" v="Hea" />
		<tag k="place" v="locality" />
		<tag k="ssr:stedsnr" v="611445" />
	</node>
	<node id="-39136" lat="59.9636472238" lon="12.1393027775">
		<tag k="name" v="Tomta" />
		<tag k="place" v="farm" />
		<tag k="ssr:stedsnr" v="108537" />
	</node>
	<node id="-37788" lat="60.0550888909" lon="12.0848305603">
		<tag k="name" v="Sæterlia" />
		<tag k="place" v="farm" />
		<tag k="ssr:stedsnr" v="109529" />
	</node>
	<node id="-38000" lat="59.9298333294" lon="12.2100777777">
		<tag k="name" v="Vangen" />
		<tag k="place" v="farm" />
		<tag k="ssr:stedsnr" v="472090" />
	</node>
	<node id="-38197" lat="59.9840416667" lon="12.3391416646">
		<tag k="name" v="Plassen" />
		<tag k="place" v="farm" />
		<tag k="ssr:stedsnr" v="672186" />
	</node>
	<node id="-39129" lat="59.9471083335" lon="12.1908388907">
		<tag k="name" v="Høgsætermoen" />
		<tag k="place" v="quarter" />
		<tag k="ssr:stedsnr" v="108448" />
	</node>
	<node id="-39094" lat="60.063086113" lon="12.2599694474">
		<tag k="amenity" v="school" />
		<tag k="name" v="Enderud skole" />
		<tag k="ssr:stedsnr" v="108174" />
	</node>
	<node id="-37718" lat="60.0110277817" lon="12.300238889">
		<tag k="alt_name" v="Billingsø" />
		<tag k="name" v="Nordgarden" />
		<tag k="place" v="farm" />
		<tag k="ssr:stedsnr" v="248185" />
	</node>
	<node id="-37986" lat="59.9336749991" lon="11.9022638937">
		<tag k="name" v="Ljøner" />
		<tag k="place" v="farm" />
		<tag k="ssr:stedsnr" v="472016" />
	</node>
	<node id="-39076" lat="59.9326361088" lon="12.1828805539">
		<tag k="name" v="Vangen" />
		<tag k="place" v="farm" />
		<tag k="ssr:stedsnr" v="107820" />
	</node>
	<node id="-37786" lat="60.102986107" lon="12.110519453">
		<tag k="name" v="Nystuen" />
		<tag k="place" v="farm" />
		<tag k="ssr:stedsnr" v="109512" />
	</node>
	<node id="-37915" lat="59.9883250031" lon="12.0741083286">
		<tag k="name" v="Bjørnstadmoen" />
		<tag k="place" v="quarter" />
		<tag k="ssr:stedsnr" v="229421" />
	</node>
	<node id="-38136" lat="59.9947277778" lon="12.1715027864">
		<tag k="alt_name" v="Sydhølet" />
		<tag k="loc_name" v="Ilagshølet" />
		<tag k="name" v="Ilagshullet" />
		<tag k="place" v="farm" />
		<tag k="ssr:stedsnr" v="491408" />
	</node>
	<node id="-39063" lat="60.0448750028" lon="11.897025002">
		<tag k="name" v="Bekken" />
		<tag k="place" v="isolated_dwelling" />
		<tag k="ssr:stedsnr" v="66651" />
	</node>
	<node id="-39061" lat="60.0205305567" lon="11.9515388908">
		<tag k="historic" v="shieling" />
		<tag k="name" v="Vestfjellsætra" />
		<tag k="place" v="locality" />
		<tag k="ssr:stedsnr" v="66638" />
	</node>
	<node id="-38095" lat="59.9564333342" lon="12.1189055583">
		<tag k="alt_name" v="Tangebråten" />
		<tag k="name" v="Tangebråtan" />
		<tag k="place" v="farm" />
		<tag k="ssr:stedsnr" v="490278" />
	</node>
	<node id="-39057" lat="59.9843138854" lon="11.9958416647">
		<tag k="name" v="Filbakk" />
		<tag k="place" v="farm" />
		<tag k="ssr:stedsnr" v="66457" />
	</node>
	<node id="-39056" lat="59.962041666" lon="12.141941673">
		<tag k="name" v="Rønningen" />
		<tag k="place" v="farm" />
		<tag k="ssr:stedsnr" v="66289" />
	</node>
	<node id="-39055" lat="59.9438055534" lon="11.9849638891">
		<tag k="name" v="Harstadfoss" />
		<tag k="place" v="farm" />
		<tag k="ssr:stedsnr" v="66279" />
	</node>
	<node id="-39050" lat="59.9891499992" lon="11.8485111188">
		<tag k="alt_name" v="Hundeengene" />
		<tag k="name" v="Hundengene" />
		<tag k="place" v="isolated_dwelling" />
		<tag k="ssr:stedsnr" v="66367" />
	</node>
	<node id="-39049" lat="59.9927194439" lon="12.2007472262">
		<tag k="alt_name" v="Bråten" />
		<tag k="name" v="Bråtan" />
		<tag k="place" v="farm" />
		<tag k="ssr:stedsnr" v="66366" />
	</node>
	<node id="-39048" lat="59.9941888862" lon="12.1393666587">
		<tag k="alt_name" v="Åsly" />
		<tag k="name" v="Åsli" />
		<tag k="place" v="isolated_dwelling" />
		<tag k="ssr:stedsnr" v="66361" />
	</node>
	<node id="-39409" lat="59.9286444437" lon="12.1784388807">
		<tag k="name" v="Åsheim" />
		<tag k="place" v="locality" />
		<tag k="ssr:stedsnr" v="308320" />
	</node>
	<node id="-39044" lat="59.9583638885" lon="12.2533388921">
		<tag k="alt_name" v="Nessæter" />
		<tag k="name" v="Nessætra" />
		<tag k="place" v="farm" />
		<tag k="ssr:stedsnr" v="66199" />
	</node>
	<node id="-39043" lat="60.0014000023" lon="12.3039750045">
		<tag k="name" v="Vestheim" />
		<tag k="place" v="farm" />
		<tag k="ssr:stedsnr" v="66186" />
	</node>
	<node id="-39041" lat="59.893283333" lon="12.0982999971">
		<tag k="alt_name" v="Repshusvangen nordre" />
		<tag k="loc_name" v="Vangen" />
		<tag k="name" v="Reppshusvangen" />
		<tag k="place" v="farm" />
		<tag k="ssr:stedsnr" v="66178" />
	</node>
	<node id="-39040" lat="59.8968861083" lon="12.0978416671">
		<tag k="alt_name" v="Repshusplassen" />
		<tag k="name" v="Plassen" />
		<tag k="place" v="farm" />
		<tag k="ssr:stedsnr" v="66174" />
	</node>
	<node id="-39039" lat="59.90232778" lon="11.9940027808">
		<tag k="name" v="Tønnes" />
		<tag k="place" v="farm" />
		<tag k="ssr:stedsnr" v="66159" />
	</node>
	<node id="-39038" lat="59.9381611106" lon="11.9004000024">
		<tag k="name" v="Nordstuen" />
		<tag k="place" v="farm" />
		<tag k="ssr:stedsnr" v="66255" />
	</node>
	<node id="-39036" lat="59.9385583355" lon="12.0136388806">
		<tag k="name" v="Rognlia" />
		<tag k="place" v="farm" />
		<tag k="ssr:stedsnr" v="66242" />
	</node>
	<node id="-39034" lat="59.901733337" lon="12.0902138969">
		<tag k="alt_name" v="Perkerud søndre" />
		<tag k="name" v="Varderud" />
		<tag k="place" v="farm" />
		<tag k="ssr:stedsnr" v="66155" />
	</node>
	<node id="-39032" lat="59.9579250032" lon="11.803061114">
		<tag k="name" v="Grønvika" />
		<tag k="place" v="isolated_dwelling" />
		<tag k="ssr:stedsnr" v="65089" />
	</node>
	<node id="-39025" lat="59.9520250006" lon="11.946530562">
		<tag k="name" v="Nordre Hornlia" />
		<tag k="place" v="farm" />
		<tag k="ssr:stedsnr" v="48839" />
	</node>
	<node id="-38247" lat="59.9854083345" lon="12.1485500048">
		<tag k="name" v="Granerud" />
		<tag k="place" v="farm" />
		<tag k="ssr:stedsnr" v="673487" />
	</node>
	<node id="-39015" lat="59.9802333349" lon="12.0385222283">
		<tag k="name" v="Snesbølmoen" />
		<tag k="place" v="farm" />
		<tag k="ssr:stedsnr" v="48736" />
	</node>
	<node id="-38246" lat="59.9857040736" lon="12.1730440071">
		<tag k="fixme" v="multiple name tags, choose one and add the other to alt_name" />
		<tag k="name" v="Ilag;Nordgarden;Nordre Ilag" />
		<tag k="place" v="farm" />
		<tag k="ssr:stedsnr" v="673483" />
	</node>
	<node id="-39010" lat="59.9406750003" lon="11.9998555555">
		<tag k="alt_name" v="Brustadholtet" />
		<tag k="name" v="Østre Brustad" />
		<tag k="place" v="farm" />
		<tag k="ssr:stedsnr" v="48700" />
	</node>
	<node id="-39005" lat="59.9944361123" lon="12.2241611151">
		<tag k="name" v="Forkerud" />
		<tag k="place" v="farm" />
		<tag k="ssr:stedsnr" v="48519" />
	</node>
	<node id="-39004" lat="59.9290222261" lon="12.2151083286">
		<tag k="name" v="Enger" />
		<tag k="place" v="farm" />
		<tag k="ssr:stedsnr" v="48507" />
	</node>
	<node id="-39003" lat="59.8691222225" lon="11.8657388964">
		<tag k="name" v="Olarud" />
		<tag k="place" v="locality" />
		<tag k="ssr:stedsnr" v="48503" />
	</node>
	<node id="-38997" lat="59.9265500035" lon="11.9891722291">
		<tag k="alt_name" v="Nordgarden Arstun" />
		<tag k="name" v="Nordgarden Arstuen" />
		<tag k="place" v="farm" />
		<tag k="ssr:stedsnr" v="48341" />
	</node>
	<node id="-38996" lat="60.0429861076" lon="11.8535416601">
		<tag k="name" v="Fjellbu" />
		<tag k="place" v="locality" />
		<tag k="ssr:stedsnr" v="48327" />
	</node>
	<node id="-38994" lat="59.9630111086" lon="12.1390722299">
		<tag k="name" v="Nordre Rønningen" />
		<tag k="place" v="farm" />
		<tag k="ssr:stedsnr" v="48289" />
	</node>
	<node id="-38990" lat="59.9386305582" lon="12.1666944374">
		<tag k="name" v="Røysdalsmoen" />
		<tag k="place" v="farm" />
		<tag k="ssr:stedsnr" v="48212" />
	</node>
	<node id="-38989" lat="59.9664638906" lon="12.1446527712">
		<tag k="name" v="Hagan" />
		<tag k="place" v="farm" />
		<tag k="ssr:stedsnr" v="48210" />
	</node>
	<node id="-38987" lat="60.0275916632" lon="12.2681388865">
		<tag k="name" v="Røskjølvangen" />
		<tag k="place" v="farm" />
		<tag k="ssr:stedsnr" v="48190" />
	</node>
	<node id="-38986" lat="59.9382055565" lon="12.188505552">
		<tag k="name" v="Austom" />
		<tag k="place" v="farm" />
		<tag k="ssr:stedsnr" v="48174" />
	</node>
	<node id="-38985" lat="60.1320972201" lon="12.2345722214">
		<tag k="name" v="Holsæterbakken" />
		<tag k="place" v="farm" />
		<tag k="ssr:stedsnr" v="48168" />
	</node>
	<node id="-38983" lat="59.9746555528" lon="12.1648611085">
		<tag k="name" v="Moen" />
		<tag k="place" v="farm" />
		<tag k="ssr:stedsnr" v="48128" />
	</node>
	<node id="-38982" lat="59.9798583313" lon="12.0501805557">
		<tag k="name" v="Hagan" />
		<tag k="place" v="farm" />
		<tag k="ssr:stedsnr" v="48120" />
	</node>
	<node id="-38979" lat="59.9817138864" lon="12.1758500072">
		<tag k="name" v="Sørgarden" />
		<tag k="place" v="farm" />
		<tag k="ssr:stedsnr" v="48078" />
	</node>
	<node id="-38978" lat="60.0304916709" lon="12.1170944435">
		<tag k="name" v="Prestegården" />
		<tag k="place" v="farm" />
		<tag k="ssr:stedsnr" v="48075" />
	</node>
	<node id="-38977" lat="60.0239777758" lon="12.0996388832">
		<tag k="name" v="Skogheim" />
		<tag k="place" v="farm" />
		<tag k="ssr:stedsnr" v="48074" />
	</node>
	<node id="-38972" lat="60.0731138877" lon="11.9763388889">
		<tag k="name" v="Helledammen" />
		<tag k="place" v="isolated_dwelling" />
		<tag k="ssr:stedsnr" v="48055" />
	</node>
	<node id="-38971" lat="60.0675138878" lon="12.2261000053">
		<tag k="alt_name" v="Baksjøbråten" />
		<tag k="name" v="Baksjøbråtan" />
		<tag k="place" v="farm" />
		<tag k="ssr:stedsnr" v="48044" />
	</node>
	<node id="-38970" lat="60.066227774" lon="12.1111472266">
		<tag k="name" v="Sør-Dal" />
		<tag k="place" v="farm" />
		<tag k="ssr:stedsnr" v="48039" />
	</node>
	<node id="-38969" lat="59.944747219" lon="12.0606472141">
		<tag k="name" v="Sydhaga" />
		<tag k="place" v="farm" />
		<tag k="ssr:stedsnr" v="48021" />
	</node>
	<node id="-38968" lat="60.0554833308" lon="12.0875277719">
		<tag k="name" v="Sætra" />
		<tag k="place" v="farm" />
		<tag k="ssr:stedsnr" v="48017" />
	</node>
	<node id="-38108" lat="60.0725999958" lon="12.1619333323">
		<tag k="alt_name" v="Langfossrydningen" />
		<tag k="loc_name" v="Langfossrønningen" />
		<tag k="name" v="Rønningen" />
		<tag k="place" v="farm" />
		<tag k="ssr:stedsnr" v="490703" />
	</node>
	<node id="-38961" lat="59.8452111121" lon="11.8490194412">
		<tag k="name" v="Borkerud" />
		<tag k="place" v="locality" />
		<tag k="ssr:stedsnr" v="47692" />
	</node>
	<node id="-38123" lat="59.8737408452" lon="11.8945479268">
		<tag k="fixme" v="consider place=hamlet" />
		<tag k="name" v="Kråkfoss" />
		<tag k="place" v="farm" />
		<tag k="ssr:stedsnr" v="491148" />
	</node>
	<node id="-38234" lat="59.9562833367" lon="11.9972416619">
		<tag k="name" v="Nyheim" />
		<tag k="place" v="isolated_dwelling" />
		<tag k="ssr:stedsnr" v="673324" />
	</node>
	<node id="-38938" lat="59.9691805526" lon="12.1392694367">
		<tag k="name" v="Gaustadåsen" />
		<tag k="place" v="farm" />
		<tag k="ssr:stedsnr" v="47224" />
	</node>
	<node id="-39827" lat="59.9164505431" lon="11.9834340564">
		<tag k="fixme" v="consider place=hamlet" />
		<tag k="name" v="Almenninga" />
		<tag k="place" v="farm" />
		<tag k="ssr:stedsnr" v="551322" />
	</node>
	<node id="-38920" lat="60.1336722203" lon="12.197408331">
		<tag k="name" v="Holsætervangen" />
		<tag k="place" v="farm" />
		<tag k="ssr:stedsnr" v="47069" />
	</node>
	<node id="-38285" lat="60.0035583366" lon="12.3130777783">
		<tag k="name" v="Finnsrud" />
		<tag k="place" v="farm" />
		<tag k="ssr:stedsnr" v="533575" />
	</node>
	<node id="-38917" lat="60.057211107" lon="11.8685361109">
		<tag k="name" v="Børli" />
		<tag k="place" v="isolated_dwelling" />
		<tag k="ssr:stedsnr" v="47050" />
	</node>
</osm>
