<?xml version="1.0" encoding="UTF-8"?>
<<<<<<< HEAD
<osm version="0.6" generator="osmapis">
	<node lat="59.91163888446764" lon="12.096797223183335" id="-14765">
		<tag k="name" v="Tilbruvika" />
		<tag k="natural" v="bay" />
		<tag k="ssr:stedsnr" v="229914" />
	</node>
	<node lat="59.915241667590614" lon="11.83131666489886" id="-14779">
		<tag k="name" v="Lauvhøgdtjennet" />
		<tag k="natural" v="water" />
		<tag k="ssr:stedsnr" v="5014" />
	</node>
	<node lat="60.03177500416279" lon="12.229274994844403" id="-14780">
		<tag k="name" v="Svartbekken" />
		<tag k="ssr:stedsnr" v="5019" />
		<tag k="waterway" v="stream" />
	</node>
	<node lat="59.95549849272869" lon="12.265384525608242" id="-14782">
		<tag k="alt_name" v="Melltjenn" />
		<tag k="name" v="Meittjennet" />
		<tag k="natural" v="water" />
		<tag k="ssr:stedsnr" v="5224" />
	</node>
	<node lat="59.90360833040365" lon="11.872749998455797" id="-14786">
		<tag k="name" v="Uglevika" />
		<tag k="natural" v="bay" />
		<tag k="ssr:stedsnr" v="5166" />
	</node>
	<node lat="59.98327778059494" lon="11.870958336893816" id="-14795">
		<tag k="name" v="Smedrudtjenn" />
		<tag k="natural" v="water" />
		<tag k="ssr:stedsnr" v="5465" />
	</node>
	<node lat="60.04083333306278" lon="12.189516667463202" id="-14797">
		<tag k="name" v="Kroksjøen" />
		<tag k="natural" v="water" />
		<tag k="ssr:stedsnr" v="5609" />
	</node>
	<node lat="59.93953611521976" lon="12.182661117117863" id="-14799">
		<tag k="name" v="Leirbekken" />
		<tag k="ssr:stedsnr" v="5358" />
		<tag k="waterway" v="stream" />
	</node>
	<node lat="60.03870000193325" lon="11.848780549548998" id="-14801">
		<tag k="alt_name" v="Børen, vesle" />
		<tag k="name" v="Vesle Børen" />
		<tag k="natural" v="water" />
		<tag k="ssr:stedsnr" v="5662" />
	</node>
	<node lat="60.00677499872834" lon="11.84726943971118" id="-14805">
		<tag k="name" v="Lomtjennet" />
		<tag k="natural" v="water" />
		<tag k="ssr:stedsnr" v="5827" />
	</node>
	<node lat="59.97401667108996" lon="11.808977776489163" id="-14806">
		<tag k="name" v="Asketjennet" />
		<tag k="natural" v="water" />
		<tag k="ssr:stedsnr" v="230700" />
	</node>
	<node lat="59.97094166523828" lon="12.001755549692659" id="-14817">
		<tag k="name" v="Teigbergtjennet" />
		<tag k="natural" v="water" />
		<tag k="ssr:stedsnr" v="6491" />
	</node>
	<node lat="59.929874995707195" lon="11.884349995508611" id="-14824">
		<tag k="name" v="Kisvika" />
		<tag k="natural" v="bay" />
		<tag k="ssr:stedsnr" v="47004" />
	</node>
	<node lat="59.92564444563053" lon="11.880555562640621" id="-14829">
		<tag k="name" v="Vintervika" />
		<tag k="natural" v="bay" />
		<tag k="ssr:stedsnr" v="47275" />
	</node>
	<node lat="59.965408333213226" lon="11.797972213468569" id="-14835">
		<tag k="name" v="Brennabben" />
		<tag k="natural" v="cape" />
		<tag k="ssr:stedsnr" v="47473" />
	</node>
	<node lat="60.0984611117716" lon="12.160016662639393" id="-14837">
		<tag k="name" v="Vesle Baksjøen" />
		<tag k="natural" v="water" />
		<tag k="ssr:stedsnr" v="47482" />
	</node>
	<node lat="60.09847222165158" lon="12.172555556929604" id="-14838">
		<tag k="name" v="Klopptjennet" />
		<tag k="natural" v="water" />
		<tag k="ssr:stedsnr" v="47483" />
	</node>
	<node lat="59.938305558293564" lon="11.834144443704636" id="-14851">
		<tag k="name" v="Arnenabben" />
		<tag k="natural" v="cape" />
		<tag k="ssr:stedsnr" v="48704" />
	</node>
	<node lat="59.88072222539898" lon="11.831988892342913" id="-14862">
		<tag k="loc_name" v="Mortskjølungen" />
		<tag k="name" v="Mortsjølungen" />
		<tag k="natural" v="water" />
		<tag k="ssr:stedsnr" v="65207" />
		<tag k="water" v="lake" />
	</node>
	<node lat="60.045774996252995" lon="12.255741657410224" id="-14863">
		<tag k="name" v="Gartanstjennet" />
		<tag k="natural" v="water" />
		<tag k="ssr:stedsnr" v="66003" />
	</node>
	<node lat="59.90864166482956" lon="11.92120832705463" id="-14872">
		<tag k="name" v="Store Emtjenn" />
		<tag k="natural" v="water" />
		<tag k="ssr:stedsnr" v="66321" />
	</node>
	<node lat="59.9309999957785" lon="12.078558328940035" id="-14873">
		<tag k="name" v="Ingelsrudsjøen" />
		<tag k="natural" v="water" />
		<tag k="ssr:stedsnr" v="66349" />
		<tag k="water" v="lake" />
	</node>
	<node lat="59.92584722606243" lon="12.05858611207793" id="-14874">
		<tag k="name" v="Lomtjenn" />
		<tag k="natural" v="water" />
		<tag k="ssr:stedsnr" v="66350" />
	</node>
	<node lat="59.942713887786155" lon="11.875030549984595" id="-14879">
		<tag k="name" v="Vintertjenn" />
		<tag k="natural" v="water" />
		<tag k="ssr:stedsnr" v="66250" />
	</node>
	<node lat="60.03572342886071" lon="11.886339591883889" id="-14887">
		<tag k="name" v="Sundtjenna" />
		<tag k="natural" v="water" />
		<tag k="ssr:stedsnr" v="66619" />
		<tag k="water" v="lake" />
	</node>
	<node lat="60.03476388754943" lon="12.185186111218329" id="-14888">
		<tag k="name" v="Langtjennet" />
		<tag k="natural" v="water" />
		<tag k="ssr:stedsnr" v="66624" />
	</node>
	<node lat="59.99409444690161" lon="12.346602769233803" id="-14900">
		<tag k="name" v="Sætertjennet" />
		<tag k="natural" v="water" />
		<tag k="ssr:stedsnr" v="248243" />
	</node>
	<node lat="60.064052776662024" lon="11.83264444077248" id="-14914">
		<tag k="name" v="Svarttjenn" />
		<tag k="natural" v="water" />
		<tag k="ssr:stedsnr" v="248535" />
	</node>
	<node lat="60.046274997880815" lon="11.982799999784472" id="-14916">
		<tag k="name" v="Sandbekken" />
		<tag k="ssr:stedsnr" v="248632" />
		<tag k="waterway" v="stream" />
	</node>
	<node lat="60.0384555534433" lon="12.174066661317749" id="-14917">
		<tag k="name" v="Humletjenn" />
		<tag k="natural" v="water" />
		<tag k="ssr:stedsnr" v="248644" />
	</node>
	<node lat="60.03379788569786" lon="11.963571814118625" id="-14920">
		<tag k="fixme" v="multiple name tags, choose one and add the other to alt_name" />
		<tag k="name" v="Syltedalstjennet;Store Gjeddetjenn" />
		<tag k="natural" v="water" />
		<tag k="ssr:stedsnr" v="248689" />
	</node>
	<node lat="60.041069441302504" lon="11.960530550737701" id="-14921">
		<tag k="name" v="Holmtjennet" />
		<tag k="natural" v="water" />
		<tag k="ssr:stedsnr" v="248692" />
	</node>
	<node lat="60.080733330542415" lon="11.931338894147027" id="-14922">
		<tag k="name" v="Eggetjennet" />
		<tag k="natural" v="water" />
		<tag k="ssr:stedsnr" v="248750" />
	</node>
	<node lat="60.102436109853464" lon="12.226183332860892" id="-14926">
		<tag k="name" v="Kafalltjennet" />
		<tag k="natural" v="water" />
		<tag k="ssr:stedsnr" v="248927" />
	</node>
	<node lat="59.91116666509377" lon="11.893636118469086" id="-14933">
		<tag k="name" v="Måken" />
		<tag k="place" v="islet" />
		<tag k="ssr:stedsnr" v="108006" />
	</node>
	<node lat="59.95050833205248" lon="12.285227782783139" id="-14935">
		<tag k="name" v="Breitjennbekken" />
		<tag k="ssr:stedsnr" v="108019" />
		<tag k="waterway" v="stream" />
	</node>
	<node lat="60.09445555952001" lon="12.082666668654833" id="-14947">
		<tag k="name" v="Mellemtjennet" />
		<tag k="natural" v="water" />
		<tag k="ssr:stedsnr" v="108511" />
	</node>
	<node lat="59.91116389293781" lon="11.88471665923875" id="-14948">
		<tag k="name" v="Sundsodden" />
		<tag k="natural" v="cape" />
		<tag k="ssr:stedsnr" v="108276" />
	</node>
	<node lat="59.98612499909778" lon="12.143322216202264" id="-14953">
		<tag k="name" v="Granerudbekken" />
		<tag k="ssr:stedsnr" v="108426" />
		<tag k="waterway" v="stream" />
	</node>
	<node lat="59.89163889330443" lon="11.83088610683015" id="-14954">
		<tag k="name" v="Kunabben" />
		<tag k="natural" v="cape" />
		<tag k="ssr:stedsnr" v="108476" />
	</node>
	<node lat="59.90817222408804" lon="11.835047222372967" id="-14966">
		<tag k="name" v="Smalongen" />
		<tag k="ssr:stedsnr" v="109571" />
		<tag k="waterway" v="stream" />
	</node>
	<node lat="60.018826892620176" lon="12.22931715429267" id="-14970">
		<tag k="name" v="Veksaren" />
		<tag k="natural" v="water" />
		<tag k="ssr:stedsnr" v="126051" />
		<tag k="water" v="lake" />
	</node>
	<node lat="59.91864381884962" lon="11.832690474652486" id="-14973">
		<tag k="name" v="Bertetjennet" />
=======
<osm generator="osmapis" version="0.6">
	<node id="-319488" lat="60.1404305526" lon="12.1411027858">
		<tag k="name" v="Oksaugetjennet" />
>>>>>>> e1d4bc35ff8a6074a6f2e91616a996b547c36f15
		<tag k="natural" v="water" />
		<tag k="ssr:stedsnr" v="126057" />
	</node>
<<<<<<< HEAD
	<node lat="59.93603888463332" lon="12.106938888551515" id="-14982">
		<tag k="name" v="Kroktjenn" />
		<tag k="natural" v="water" />
		<tag k="ssr:stedsnr" v="126358" />
	</node>
	<node lat="59.902186111282006" lon="12.168399997085412" id="-15004">
		<tag k="name" v="Morastsæterbekken" />
		<tag k="ssr:stedsnr" v="169078" />
		<tag k="waterway" v="stream" />
	</node>
	<node lat="59.94835555678955" lon="12.247136115066763" id="-15009">
		<tag k="name" v="Lomtjennet" />
=======
	<node id="-319486" lat="59.9414694403" lon="11.9218277744">
		<tag k="alt_name" v="Stor-Åbbortjennet;Vesle Åbbortjennet" />
		<tag k="name" v="Åbbortjenna" />
		<tag k="natural" v="water" />
		<tag k="ssr:stedsnr" v="933193" />
		<tag k="water" v="lake" />
	</node>
	<node id="-319484" lat="59.8945583356" lon="11.875311103">
		<tag k="name" v="Øya" />
		<tag k="place" v="islet" />
		<tag k="ssr:stedsnr" v="795212" />
	</node>
	<node id="-319480" lat="59.9987833303" lon="12.0295777806">
		<tag k="name" v="Sandbekken" />
		<tag k="ssr:stedsnr" v="794378" />
		<tag k="waterway" v="stream" />
	</node>
	<node id="-319479" lat="59.9979888852" lon="11.9709888828">
		<tag k="name" v="Sætertjennet" />
>>>>>>> e1d4bc35ff8a6074a6f2e91616a996b547c36f15
		<tag k="natural" v="water" />
		<tag k="ssr:stedsnr" v="169115" />
	</node>
<<<<<<< HEAD
	<node lat="59.99631110842142" lon="11.907538893288839" id="-15014">
		<tag k="name" v="Delbekken" />
		<tag k="ssr:stedsnr" v="169306" />
		<tag k="waterway" v="stream" />
	</node>
	<node lat="60.0613666627638" lon="11.935063888912108" id="-15015">
		<tag k="name" v="Gammelsæterbekken" />
		<tag k="ssr:stedsnr" v="169311" />
		<tag k="waterway" v="stream" />
	</node>
	<node lat="60.03628055664453" lon="11.883511104875998" id="-15016">
		<tag k="name" v="Vestre Sundtjennet" />
		<tag k="natural" v="water" />
		<tag k="ssr:stedsnr" v="169315" />
	</node>
	<node lat="59.9681555563467" lon="12.088330554125456" id="-15024">
		<tag k="name" v="Tollefsbølvika" />
=======
	<node id="-319478" lat="59.9914249972" lon="12.0103750028">
		<tag k="name" v="Djupdalsbekken" />
		<tag k="ssr:stedsnr" v="794357" />
		<tag k="waterway" v="stream" />
	</node>
	<node id="-319468" lat="59.877397226" lon="11.836538881">
		<tag k="name" v="Høgåstjenn" />
		<tag k="natural" v="water" />
		<tag k="ssr:stedsnr" v="793220" />
	</node>
	<node id="-319466" lat="59.9608277792" lon="11.85312222">
		<tag k="name" v="Akrilbekken" />
		<tag k="ssr:stedsnr" v="776707" />
		<tag k="waterway" v="stream" />
	</node>
	<node id="-319460" lat="59.9661861111" lon="11.7974972198">
		<tag k="name" v="Vesle Sandvika" />
>>>>>>> e1d4bc35ff8a6074a6f2e91616a996b547c36f15
		<tag k="natural" v="bay" />
		<tag k="ssr:stedsnr" v="169613" />
	</node>
<<<<<<< HEAD
	<node lat="60.035361112216734" lon="11.853927782101364" id="-15031">
		<tag k="name" v="Delebekken" />
		<tag k="ssr:stedsnr" v="169707" />
		<tag k="waterway" v="stream" />
	</node>
	<node lat="59.969413889636634" lon="12.042455550678401" id="-15033">
		<tag k="name" v="Søndre Tobøltjennet" />
		<tag k="natural" v="water" />
		<tag k="ssr:stedsnr" v="169717" />
	</node>
	<node lat="59.937952775832215" lon="12.22339445236529" id="-15044">
		<tag k="name" v="Vanga" />
		<tag k="natural" v="water" />
		<tag k="ssr:stedsnr" v="187029" />
	</node>
	<node lat="59.93866666340491" lon="12.247275002923008" id="-15045">
		<tag k="name" v="Linåsdolpene" />
=======
	<node id="-319459" lat="59.9448166702" lon="11.8285833355">
		<tag k="name" v="Leirbekken" />
		<tag k="ssr:stedsnr" v="776460" />
		<tag k="waterway" v="stream" />
	</node>
	<node id="-319453" lat="59.9006277763" lon="12.0527638821">
		<tag k="name" v="Fantevika" />
		<tag k="natural" v="bay" />
		<tag k="ssr:stedsnr" v="776317" />
	</node>
	<node id="-319440" lat="60.0211916633" lon="12.2166583292">
		<tag k="name" v="Raufjelldølpa" />
		<tag k="natural" v="water" />
		<tag k="ssr:stedsnr" v="775881" />
		<tag k="water" v="pond" />
	</node>
	<node id="-319438" lat="59.8775111099" lon="11.8817194364">
		<tag k="name" v="Svartvika" />
		<tag k="natural" v="bay" />
		<tag k="ssr:stedsnr" v="775516" />
	</node>
	<node id="-319436" lat="60.0569249996" lon="11.8954055615">
		<tag k="name" v="Svarttjennet" />
>>>>>>> e1d4bc35ff8a6074a6f2e91616a996b547c36f15
		<tag k="natural" v="water" />
		<tag k="ssr:stedsnr" v="187032" />
	</node>
<<<<<<< HEAD
	<node lat="59.952880555355925" lon="12.290652774951813" id="-15046">
		<tag k="name" v="Breitjennet" />
		<tag k="natural" v="water" />
		<tag k="ssr:stedsnr" v="187034" />
	</node>
	<node lat="59.938784320637076" lon="11.82476486597472" id="-15047">
		<tag k="name" v="Øysjøen" />
=======
	<node id="-319435" lat="60.0571658729" lon="12.0457415946">
		<tag k="fixme" v="multiple name tags, choose one and add the other to alt_name" />
		<tag k="name" v="Sandmotjennet;Hauketjennet" />
		<tag k="natural" v="water" />
		<tag k="ssr:stedsnr" v="916686" />
	</node>
	<node id="-319430" lat="59.9125249992" lon="12.0395833271">
		<tag k="name" v="Kulblikneset" />
		<tag k="natural" v="cape" />
		<tag k="ssr:stedsnr" v="916342" />
	</node>
	<node id="-319429" lat="59.945955556" lon="11.8581444413">
		<tag k="name" v="Åbbortjenn" />
>>>>>>> e1d4bc35ff8a6074a6f2e91616a996b547c36f15
		<tag k="natural" v="water" />
		<tag k="ssr:stedsnr" v="187077" />
		<tag k="water" v="lake" />
	</node>
<<<<<<< HEAD
	<node lat="60.09526944338248" lon="12.13507778278726" id="-15062">
		<tag k="name" v="Fiskerudtjennet" />
=======
	<node id="-319423" lat="60.0151138915" lon="12.2789499969">
		<tag k="name" v="Bjørntjenn" />
>>>>>>> e1d4bc35ff8a6074a6f2e91616a996b547c36f15
		<tag k="natural" v="water" />
		<tag k="ssr:stedsnr" v="187706" />
	</node>
<<<<<<< HEAD
	<node lat="60.08478888595537" lon="12.081683324349974" id="-15064">
		<tag k="alt_name" v="Søndre Halsjøen" />
		<tag k="name" v="Halvsjøen" />
=======
	<node id="-319422" lat="59.9779305555" lon="11.8283972169">
		<tag k="name" v="Nordre Hundetjennet" />
>>>>>>> e1d4bc35ff8a6074a6f2e91616a996b547c36f15
		<tag k="natural" v="water" />
		<tag k="ssr:stedsnr" v="187722" />
	</node>
<<<<<<< HEAD
	<node lat="59.904611107329956" lon="12.018719451707524" id="-15067">
		<tag k="name" v="Østre Morttjenn" />
=======
	<node id="-319415" lat="60.0827277744" lon="11.992250007">
		<tag k="name" v="Blandtjennet" />
>>>>>>> e1d4bc35ff8a6074a6f2e91616a996b547c36f15
		<tag k="natural" v="water" />
		<tag k="ssr:stedsnr" v="188207" />
	</node>
<<<<<<< HEAD
	<node lat="59.8959611138157" lon="11.883413894788537" id="-15068">
		<tag k="alt_name" v="Østerøya;Øya, østre" />
		<tag k="name" v="Østre Øya" />
		<tag k="place" v="islet" />
		<tag k="ssr:stedsnr" v="188209" />
	</node>
	<node lat="59.89615555657448" lon="12.034049997569813" id="-15069">
		<tag k="alt_name" v="Løvøya" />
		<tag k="name" v="Lauvøya" />
		<tag k="place" v="islet" />
		<tag k="ssr:stedsnr" v="188217" />
	</node>
	<node lat="59.91771389076085" lon="11.889091669986415" id="-15076">
		<tag k="name" v="Kjelviknabben" />
		<tag k="natural" v="cape" />
		<tag k="ssr:stedsnr" v="229015" />
	</node>
	<node lat="60.05566792448128" lon="11.948949578526701" id="-15089">
		<tag k="name" v="Søndre Aurkyttjennet" />
=======
	<node id="-319411" lat="59.9619861133" lon="11.957208341">
		<tag k="name" v="Grusjøen" />
		<tag k="natural" v="water" />
		<tag k="ssr:stedsnr" v="915421" />
	</node>
	<node id="-319397" lat="60.0462944444" lon="12.2780027695">
		<tag k="name" v="Klemmetsbråtadammen" />
		<tag k="ssr:stedsnr" v="764948" />
		<tag k="waterway" v="dam" />
	</node>
	<node id="-319394" lat="60.1052472244" lon="12.1296444402">
		<tag k="name" v="Lomtjennet" />
		<tag k="natural" v="water" />
		<tag k="ssr:stedsnr" v="734728" />
	</node>
	<node id="-319388" lat="59.9629888865" lon="12.2912388927">
		<tag k="name" v="Svarttjennet" />
>>>>>>> e1d4bc35ff8a6074a6f2e91616a996b547c36f15
		<tag k="natural" v="water" />
		<tag k="ssr:stedsnr" v="229597" />
	</node>
<<<<<<< HEAD
	<node lat="59.99075555515197" lon="11.864730548149705" id="-15090">
		<tag k="loc_name" v="Tjennsmotjennet" />
		<tag k="name" v="Kjensmotjennet" />
=======
	<node id="-319382" lat="60.0615361103" lon="12.2689472166">
		<tag k="name" v="Nordre Billingen" />
>>>>>>> e1d4bc35ff8a6074a6f2e91616a996b547c36f15
		<tag k="natural" v="water" />
		<tag k="ssr:stedsnr" v="229704" />
	</node>
<<<<<<< HEAD
	<node lat="60.012477777149805" lon="11.836416667905262" id="-15091">
		<tag k="name" v="Skålåa" />
		<tag k="ssr:stedsnr" v="229709" />
		<tag k="waterway" v="river" />
	</node>
	<node lat="60.04120555481372" lon="12.099366661562314" id="-15093">
		<tag k="name" v="Frosktjennet" />
=======
	<node id="-319381" lat="59.9721138906" lon="11.82963611">
		<tag k="name" v="Midtre Hundetjenn" />
		<tag k="natural" v="water" />
		<tag k="ssr:stedsnr" v="733106" />
	</node>
	<node id="-319380" lat="59.967369448" lon="11.8354750017">
		<tag k="name" v="Putten" />
>>>>>>> e1d4bc35ff8a6074a6f2e91616a996b547c36f15
		<tag k="natural" v="water" />
		<tag k="ssr:stedsnr" v="229494" />
	</node>
<<<<<<< HEAD
	<node lat="60.017716667355636" lon="12.022438891593742" id="-15107">
		<tag k="name" v="Dulpen" />
=======
	<node id="-319379" lat="59.9460833291" lon="11.8684555641">
		<tag k="name" v="Korpetjennet" />
>>>>>>> e1d4bc35ff8a6074a6f2e91616a996b547c36f15
		<tag k="natural" v="water" />
		<tag k="ssr:stedsnr" v="230509" />
	</node>
<<<<<<< HEAD
	<node lat="59.8729250017129" lon="11.90189444635169" id="-15108">
		<tag k="name" v="Karterudneset" />
		<tag k="natural" v="cape" />
		<tag k="ssr:stedsnr" v="230517" />
	</node>
	<node lat="59.912000003233956" lon="11.868336117528095" id="-15116">
		<tag k="name" v="Buvika" />
=======
	<node id="-319377" lat="59.9036611147" lon="11.8314666597">
		<tag k="name" v="Vesle-Åbbortjennet" />
		<tag k="natural" v="water" />
		<tag k="ssr:stedsnr" v="898480" />
	</node>
	<node id="-319366" lat="59.9243805544" lon="12.0774277716">
		<tag k="name" v="Gørrvika" />
>>>>>>> e1d4bc35ff8a6074a6f2e91616a996b547c36f15
		<tag k="natural" v="bay" />
		<tag k="ssr:stedsnr" v="230706" />
	</node>
<<<<<<< HEAD
	<node lat="59.86475000429309" lon="11.843880550262933" id="-15118">
		<tag k="loc_name" v="Skjølåsætertjennet" />
		<tag k="name" v="Sjelåsætertjennet" />
		<tag k="natural" v="water" />
		<tag k="ssr:stedsnr" v="230781" />
	</node>
	<node lat="59.92146389055732" lon="11.992538893831277" id="-15127">
		<tag k="name" v="Klanderudtjennet" />
=======
	<node id="-319359" lat="59.957688885" lon="11.9569777742">
		<tag k="name" v="Veslesjøen" />
		<tag k="natural" v="water" />
		<tag k="ssr:stedsnr" v="897735" />
	</node>
	<node id="-319354" lat="59.9961666677" lon="11.8500972296">
		<tag k="name" v="Vintervika" />
		<tag k="natural" v="bay" />
		<tag k="ssr:stedsnr" v="897686" />
	</node>
	<node id="-319352" lat="59.9632416627" lon="12.3117027806">
		<tag k="name" v="Svartdalsdulpa" />
>>>>>>> e1d4bc35ff8a6074a6f2e91616a996b547c36f15
		<tag k="natural" v="water" />
		<tag k="ssr:stedsnr" v="248312" />
	</node>
<<<<<<< HEAD
	<node lat="59.92155555599577" lon="12.08399999763713" id="-15128">
		<tag k="name" v="Fløyta" />
		<tag k="ssr:stedsnr" v="248313" />
		<tag k="waterway" v="stream" />
	</node>
	<node lat="59.92112500274308" lon="11.881749994605338" id="-15129">
		<tag k="name" v="Buåsvika" />
		<tag k="natural" v="bay" />
		<tag k="ssr:stedsnr" v="248321" />
	</node>
	<node lat="59.92165277351205" lon="11.92044999650246" id="-15130">
		<tag k="name" v="Akkevika" />
		<tag k="natural" v="bay" />
		<tag k="ssr:stedsnr" v="248322" />
	</node>
	<node lat="59.994471540406266" lon="12.115001561572182" id="-15131">
		<tag k="name" v="Hesbølsjøen" />
		<tag k="natural" v="water" />
		<tag k="ssr:stedsnr" v="248356" />
		<tag k="water" v="lake" />
	</node>
	<node lat="60.10214224588705" lon="12.27267097133964" id="-15146">
		<tag k="name" v="Vestre Holvatnet" />
=======
	<node id="-319351" lat="60.0311444487" lon="12.0937083266">
		<tag k="name" v="Kisabekken" />
		<tag k="ssr:stedsnr" v="897825" />
		<tag k="waterway" v="stream" />
	</node>
	<node id="-319350" lat="60.0507916674" lon="11.9602194457">
		<tag k="name" v="Jonstruphullet" />
		<tag k="natural" v="water" />
		<tag k="ssr:stedsnr" v="897650" />
		<tag k="water" v="pond" />
	</node>
	<node id="-319334" lat="60.0041333372" lon="11.9589777741">
		<tag k="name" v="Sætertjennbekken" />
		<tag k="ssr:stedsnr" v="897300" />
		<tag k="waterway" v="stream" />
	</node>
	<node id="-319333" lat="60.0151388872" lon="11.9667388845">
		<tag k="name" v="Blokktjennet" />
		<tag k="natural" v="water" />
		<tag k="ssr:stedsnr" v="897299" />
	</node>
	<node id="-319330" lat="59.8782388923" lon="11.9118861087">
		<tag k="name" v="Måsavika" />
		<tag k="natural" v="bay" />
		<tag k="ssr:stedsnr" v="897248" />
	</node>
	<node id="-319318" lat="60.0417638922" lon="12.249930557">
		<tag k="name" v="Hundedølpa" />
>>>>>>> e1d4bc35ff8a6074a6f2e91616a996b547c36f15
		<tag k="natural" v="water" />
		<tag k="ssr:stedsnr" v="248926" />
		<tag k="water" v="lake" />
	</node>
<<<<<<< HEAD
	<node lat="59.92446111529593" lon="11.898788896853647" id="-15153">
		<tag k="name" v="Haukøya" />
		<tag k="place" v="island" />
		<tag k="ssr:stedsnr" v="290003" />
	</node>
	<node lat="60.058041670705975" lon="12.132247217716943" id="-15171">
		<tag k="name" v="Sandnesbekken" />
		<tag k="ssr:stedsnr" v="290386" />
		<tag k="waterway" v="stream" />
	</node>
	<node lat="59.874311109234725" lon="11.884338887481679" id="-15180">
		<tag k="name" v="Krokfossdammen" />
		<tag k="ssr:stedsnr" v="290491" />
		<tag k="waterway" v="dam" />
	</node>
	<node lat="59.92233333649411" lon="11.862022221926633" id="-15182">
		<tag k="name" v="Stornesnabben" />
		<tag k="natural" v="cape" />
		<tag k="ssr:stedsnr" v="290631" />
	</node>
	<node lat="59.932166665764456" lon="11.86658055190669" id="-15183">
		<tag k="name" v="Søndre Kisviktjennet" />
=======
	<node id="-319298" lat="59.915863889" lon="11.8050027739">
		<tag k="name" v="Dalfoss" />
		<tag k="ssr:stedsnr" v="715412" />
		<tag k="waterway" v="rapids" />
	</node>
	<node id="-319290" lat="59.9286027816" lon="11.9093805536">
		<tag k="name" v="Båtvika" />
		<tag k="natural" v="bay" />
		<tag k="ssr:stedsnr" v="715014" />
	</node>
	<node id="-319289" lat="59.8916583365" lon="12.143027786">
		<tag k="name" v="Dammen" />
		<tag k="ssr:stedsnr" v="715006" />
		<tag k="waterway" v="dam" />
	</node>
	<node id="-319288" lat="59.9278583365" lon="11.8902527796">
		<tag k="name" v="Kisviknabba" />
		<tag k="natural" v="cape" />
		<tag k="ssr:stedsnr" v="715005" />
	</node>
	<node id="-319276" lat="59.9499222209" lon="12.1099694394">
		<tag k="name" v="Okseauget" />
>>>>>>> e1d4bc35ff8a6074a6f2e91616a996b547c36f15
		<tag k="natural" v="water" />
		<tag k="ssr:stedsnr" v="290682" />
	</node>
<<<<<<< HEAD
	<node lat="59.91814722382694" lon="11.863397218410377" id="-15185">
		<tag k="name" v="Steinbekken" />
		<tag k="ssr:stedsnr" v="290691" />
		<tag k="waterway" v="stream" />
	</node>
	<node lat="59.934841664743935" lon="11.974522220032926" id="-15188">
		<tag k="name" v="Delbekk" />
		<tag k="ssr:stedsnr" v="290992" />
		<tag k="waterway" v="stream" />
	</node>
	<node lat="59.84893611357882" lon="11.85729999785417" id="-15189">
		<tag k="name" v="Svarttjennet" />
=======
	<node id="-319268" lat="59.9914888879" lon="12.0845055578">
		<tag k="name" v="Bjørnstadbekken" />
		<tag k="ssr:stedsnr" v="654427" />
		<tag k="waterway" v="stream" />
	</node>
	<node id="-319263" lat="60.0305666654" lon="11.8424972246">
		<tag k="name" v="Rudbergstjennet" />
>>>>>>> e1d4bc35ff8a6074a6f2e91616a996b547c36f15
		<tag k="natural" v="water" />
		<tag k="ssr:stedsnr" v="290994" />
	</node>
<<<<<<< HEAD
	<node lat="59.87489444044696" lon="11.855505550263604" id="-15190">
		<tag k="name" v="Domsjørka" />
		<tag k="ssr:stedsnr" v="290998" />
		<tag k="waterway" v="stream" />
	</node>
	<node lat="59.89931666776143" lon="11.883550008005761" id="-15197">
		<tag k="name" v="Persøya" />
		<tag k="place" v="island" />
		<tag k="ssr:stedsnr" v="291677" />
	</node>
	<node lat="59.953866669833026" lon="11.889736119890454" id="-15198">
		<tag k="name" v="Mærrabekken" />
		<tag k="ssr:stedsnr" v="291680" />
		<tag k="waterway" v="stream" />
	</node>
	<node lat="59.937988884496576" lon="12.097233341552995" id="-15213">
		<tag k="name" v="Igletjenn" />
=======
	<node id="-320474" lat="60.113086113" lon="12.1176777697">
		<tag k="name" v="Tangetjennet" />
		<tag k="natural" v="water" />
		<tag k="ssr:stedsnr" v="412366" />
	</node>
	<node id="-319256" lat="59.9029916645" lon="12.1737888954">
		<tag k="name" v="Abbortjennbekken" />
		<tag k="ssr:stedsnr" v="654065" />
		<tag k="waterway" v="stream" />
	</node>
	<node id="-319253" lat="60.0364388883" lon="11.8757472259">
		<tag k="name" v="Fisketjennet" />
>>>>>>> e1d4bc35ff8a6074a6f2e91616a996b547c36f15
		<tag k="natural" v="water" />
		<tag k="ssr:stedsnr" v="309400" />
	</node>
<<<<<<< HEAD
	<node lat="59.90186666819115" lon="12.040802771430814" id="-15228">
		<tag k="name" v="Orreholmene" />
		<tag k="place" v="islet" />
		<tag k="ssr:stedsnr" v="472027" />
	</node>
	<node lat="59.92479722149408" lon="11.907222220734049" id="-15230">
		<tag k="name" v="Erterudneset" />
		<tag k="natural" v="cape" />
		<tag k="ssr:stedsnr" v="472040" />
	</node>
	<node lat="59.88186666779581" lon="11.88153055510265" id="-15235">
		<tag k="name" v="Bråtavika" />
		<tag k="natural" v="bay" />
		<tag k="ssr:stedsnr" v="472253" />
	</node>
	<node lat="59.94424444210551" lon="11.878608333354938" id="-15236">
		<tag k="name" v="Mortensontjennet" />
		<tag k="natural" v="water" />
		<tag k="ssr:stedsnr" v="472280" />
	</node>
	<node lat="59.99635278009138" lon="11.891661115210843" id="-15239">
		<tag k="name" v="Blometjennet" />
=======
	<node id="-319252" lat="60.0287802179" lon="11.9269074004">
		<tag k="name" v="Spjuttjenna" />
		<tag k="natural" v="water" />
		<tag k="ssr:stedsnr" v="734672" />
		<tag k="water" v="lake" />
	</node>
	<node id="-319246" lat="59.9862964611" lon="12.2159750005">
		<tag k="name" v="Nessjøen" />
		<tag k="natural" v="water" />
		<tag k="ssr:stedsnr" v="734517" />
		<tag k="water" v="lake" />
	</node>
	<node id="-321154" lat="60.0630111133" lon="11.8528472231">
		<tag k="alt_name" v="Possetjennet" />
		<tag k="name" v="Lomtjennet" />
		<tag k="natural" v="water" />
		<tag k="ssr:stedsnr" v="855729" />
	</node>
	<node id="-321289" lat="59.8915286906" lon="11.8183805134">
		<tag k="name" v="Kverntjennet" />
		<tag k="natural" v="bay" />
		<tag k="ssr:stedsnr" v="180487" />
	</node>
	<node id="-321288" lat="59.8673374953" lon="11.8316295371">
		<tag k="alt_name" v="Skjertjenna" />
		<tag k="name" v="Skjærtjenna" />
		<tag k="natural" v="water" />
		<tag k="ssr:stedsnr" v="550188" />
		<tag k="water" v="lake" />
	</node>
	<node id="-321287" lat="59.8683083317" lon="11.8293416599">
		<tag k="name" v="Vesle Skjærtjennet" />
		<tag k="natural" v="water" />
		<tag k="ssr:stedsnr" v="59164" />
	</node>
	<node id="-321286" lat="59.9105777786" lon="11.8035638846">
		<tag k="loc_name" v="Langskjølungen" />
		<tag k="name" v="Langsjølungen" />
		<tag k="natural" v="water" />
		<tag k="ssr:stedsnr" v="854229" />
		<tag k="water" v="lake" />
	</node>
	<node id="-321285" lat="59.8658861074" lon="11.8333888916">
		<tag k="name" v="Store Skjærtjennet" />
		<tag k="natural" v="water" />
		<tag k="ssr:stedsnr" v="786170" />
	</node>
	<node id="-321284" lat="59.8421715859" lon="11.8348453296">
		<tag k="alt_name" v="Lembruvann" />
		<tag k="name" v="Lembruvanna" />
		<tag k="natural" v="water" />
		<tag k="ssr:stedsnr" v="672315" />
		<tag k="water" v="lake" />
	</node>
	<node id="-319235" lat="59.8982999962" lon="11.9429388942">
		<tag k="name" v="Store Åbbortjenn" />
>>>>>>> e1d4bc35ff8a6074a6f2e91616a996b547c36f15
		<tag k="natural" v="water" />
		<tag k="ssr:stedsnr" v="472291" />
	</node>
<<<<<<< HEAD
	<node lat="59.99075555635751" lon="12.339716661220656" id="-15244">
		<tag k="name" v="Sæterdulpa" />
=======
	<node id="-319234" lat="59.8701361123" lon="11.859772227">
		<tag k="alt_name" v="Knøltjennet" />
		<tag k="name" v="Knolltjenn" />
>>>>>>> e1d4bc35ff8a6074a6f2e91616a996b547c36f15
		<tag k="natural" v="water" />
		<tag k="ssr:stedsnr" v="472382" />
		<tag k="water" v="pond" />
	</node>
<<<<<<< HEAD
	<node lat="59.925950001058354" lon="11.815258334230407" id="-15249">
		<tag k="name" v="Stutøyet" />
		<tag k="natural" v="water" />
		<tag k="ssr:stedsnr" v="472445" />
	</node>
	<node lat="59.96819999586065" lon="11.801394447644855" id="-15252">
		<tag k="name" v="Sandvika" />
		<tag k="natural" v="bay" />
		<tag k="ssr:stedsnr" v="472588" />
	</node>
	<node lat="59.94413055437949" lon="11.843786111675941" id="-15254">
		<tag k="name" v="Holtebekken" />
		<tag k="ssr:stedsnr" v="472723" />
		<tag k="waterway" v="stream" />
	</node>
	<node lat="59.95336666503559" lon="11.80635278213527" id="-15255">
		<tag k="name" v="Langvika" />
		<tag k="natural" v="bay" />
		<tag k="ssr:stedsnr" v="472737" />
	</node>
	<node lat="59.96302222310273" lon="12.087680555249683" id="-15258">
		<tag k="name" v="Dulpen" />
=======
	<node id="-321281" lat="59.8408458034" lon="11.8376475176">
		<tag k="name" v="Lembruvatnet" />
		<tag k="natural" v="water" />
		<tag k="ssr:stedsnr" v="855145" />
		<tag k="water" v="lake" />
	</node>
	<node id="-319225" lat="60.0669861071" lon="11.9555722303">
		<tag k="name" v="Nysætertjenna" />
		<tag k="natural" v="water" />
		<tag k="ssr:stedsnr" v="733678" />
		<tag k="water" v="lake" />
	</node>
	<node id="-321271" lat="59.8825305546" lon="11.8197916664">
		<tag k="alt_name" v="Aaserdammen" />
		<tag k="name" v="Åserdammen" />
		<tag k="ssr:stedsnr" v="968530" />
		<tag k="waterway" v="dam" />
	</node>
	<node id="-319220" lat="60.0250670164" lon="11.8447663571">
		<tag k="fixme" v="multiple name tags, choose one and add the other to alt_name" />
		<tag k="name" v="Breidfløyta;Stor-Fløyta" />
		<tag k="natural" v="water" />
		<tag k="ssr:stedsnr" v="733607" />
	</node>
	<node id="-319218" lat="60.0582222247" lon="11.8255361036">
		<tag k="name" v="Langtjenn" />
		<tag k="natural" v="water" />
		<tag k="ssr:stedsnr" v="733487" />
	</node>
	<node id="-321265" lat="60.0641027813" lon="11.9669500074">
		<tag k="name" v="Slåttedalstjennet" />
>>>>>>> e1d4bc35ff8a6074a6f2e91616a996b547c36f15
		<tag k="natural" v="water" />
		<tag k="ssr:stedsnr" v="472750" />
	</node>
<<<<<<< HEAD
	<node lat="59.90965278174287" lon="11.952513889734572" id="-15259">
		<tag k="name" v="Stutauget" />
		<tag k="natural" v="water" />
		<tag k="ssr:stedsnr" v="472757" />
	</node>
	<node lat="59.920891669071416" lon="11.91733056134599" id="-15269">
		<tag k="name" v="Akkevika" />
		<tag k="natural" v="bay" />
		<tag k="ssr:stedsnr" v="350237" />
	</node>
	<node lat="59.92885278161784" lon="11.900608337025266" id="-15270">
		<tag k="name" v="Heseholmen" />
		<tag k="place" v="islet" />
		<tag k="ssr:stedsnr" v="350239" />
	</node>
	<node lat="60.054711110764465" lon="11.873261117780052" id="-15283">
		<tag k="name" v="Grevlingtjennbekken" />
		<tag k="ssr:stedsnr" v="351319" />
		<tag k="waterway" v="stream" />
	</node>
	<node lat="59.922644445207084" lon="11.907216666711824" id="-15285">
		<tag k="name" v="Vestre Gørrvika" />
		<tag k="natural" v="bay" />
		<tag k="ssr:stedsnr" v="351057" />
	</node>
	<node lat="60.037397225507426" lon="11.888322217705868" id="-15291">
		<tag k="name" v="Østre Sundtjennet" />
		<tag k="natural" v="water" />
		<tag k="ssr:stedsnr" v="351659" />
	</node>
	<node lat="59.97163889288145" lon="11.914016673795318" id="-15298">
		<tag k="name" v="Raseruddulpa" />
		<tag k="natural" v="water" />
		<tag k="ssr:stedsnr" v="351862" />
	</node>
	<node lat="60.02836944252933" lon="12.244350000741099" id="-15313">
		<tag k="name" v="Gravlitjennet" />
=======
	<node id="-321264" lat="59.942969448" lon="12.0310611162">
		<tag k="name" v="Djupbekken" />
		<tag k="ssr:stedsnr" v="958967" />
		<tag k="waterway" v="stream" />
	</node>
	<node id="-321259" lat="60.0915944421" lon="12.2475111022">
		<tag k="name" v="Gunnarsengbekken" />
		<tag k="ssr:stedsnr" v="958786" />
		<tag k="waterway" v="stream" />
	</node>
	<node id="-321258" lat="59.986152774" lon="11.8454388883">
		<tag k="name" v="Marimyrbekken" />
		<tag k="ssr:stedsnr" v="958777" />
		<tag k="waterway" v="stream" />
	</node>
	<node id="-321257" lat="59.9426805592" lon="11.8208722173">
		<tag k="name" v="Gørrvika" />
		<tag k="natural" v="bay" />
		<tag k="ssr:stedsnr" v="958753" />
	</node>
	<node id="-321256" lat="59.9404527744" lon="11.8370777808">
		<tag k="name" v="Fiskeodden" />
		<tag k="natural" v="cape" />
		<tag k="ssr:stedsnr" v="958749" />
	</node>
	<node id="-321255" lat="59.9404583357" lon="11.8595833393">
		<tag k="name" v="Martetjennet" />
		<tag k="natural" v="water" />
		<tag k="ssr:stedsnr" v="958741" />
	</node>
	<node id="-319205" lat="59.9218277812" lon="11.8092583389">
		<tag k="name" v="Slengtjenn" />
		<tag k="natural" v="water" />
		<tag k="ssr:stedsnr" v="733066" />
	</node>
	<node id="-321251" lat="60.0446888859" lon="11.8527749967">
		<tag k="name" v="Dam" />
		<tag k="ssr:stedsnr" v="958702" />
		<tag k="waterway" v="dam" />
	</node>
	<node id="-319202" lat="60.0340746105" lon="12.3183153089">
		<tag k="fixme" v="multiple name tags, choose one and add the other to alt_name" />
		<tag k="name" v="Østre Åstjenn;Åstjenn" />
		<tag k="natural" v="water" />
		<tag k="ssr:stedsnr" v="733026" />
	</node>
	<node id="-321248" lat="60.0243888929" lon="11.9332416717">
		<tag k="name" v="Spjuttjennbekken" />
		<tag k="ssr:stedsnr" v="958667" />
		<tag k="waterway" v="stream" />
	</node>
	<node id="-319198" lat="60.067625728" lon="11.9310660774">
		<tag k="alt_name" v="Skjølungen, vesle" />
		<tag k="fixme" v="multiple name tags, choose one and add the other to alt_name" />
		<tag k="name" v="Gammelsætertjennet;Vesle Skjølungen" />
>>>>>>> e1d4bc35ff8a6074a6f2e91616a996b547c36f15
		<tag k="natural" v="water" />
		<tag k="ssr:stedsnr" v="369030" />
	</node>
<<<<<<< HEAD
	<node lat="60.00884167064981" lon="12.270630548461142" id="-15315">
		<tag k="name" v="Vålvatnet" />
=======
	<node id="-319197" lat="60.0731000014" lon="12.1347416656">
		<tag k="alt_name" v="Åklangen, s" />
		<tag k="name" v="Søndre Åklangen" />
>>>>>>> e1d4bc35ff8a6074a6f2e91616a996b547c36f15
		<tag k="natural" v="water" />
		<tag k="ssr:stedsnr" v="369179" />
		<tag k="water" v="lake" />
	</node>
<<<<<<< HEAD
	<node lat="59.92107499900739" lon="11.886699998405273" id="-15320">
		<tag k="name" v="Skålneset" />
		<tag k="natural" v="cape" />
		<tag k="ssr:stedsnr" v="369314" />
	</node>
	<node lat="59.955483333180226" lon="11.961477786340867" id="-15326">
		<tag k="name" v="Svarttjenna" />
=======
	<node id="-319196" lat="60.0688777734" lon="11.997161111">
		<tag k="name" v="Grimstjennet" />
		<tag k="natural" v="water" />
		<tag k="ssr:stedsnr" v="612706" />
	</node>
	<node id="-319193" lat="59.905091668" lon="11.8443666641">
		<tag k="name" v="Åbbortjenn" />
>>>>>>> e1d4bc35ff8a6074a6f2e91616a996b547c36f15
		<tag k="natural" v="water" />
		<tag k="ssr:stedsnr" v="369291" />
		<tag k="water" v="lake" />
	</node>
<<<<<<< HEAD
	<node lat="60.04918055913582" lon="11.976836110380884" id="-15333">
		<tag k="name" v="Sandtjennet" />
		<tag k="natural" v="water" />
		<tag k="ssr:stedsnr" v="369616" />
	</node>
	<node lat="60.103002777882025" lon="12.076266669966927" id="-15336">
		<tag k="name" v="Grimtjennet" />
		<tag k="natural" v="water" />
		<tag k="ssr:stedsnr" v="369679" />
	</node>
	<node lat="59.958488887451175" lon="11.832527778092254" id="-15339">
		<tag k="name" v="Høglihøla" />
		<tag k="ssr:stedsnr" v="411448" />
		<tag k="waterway" v="stream" />
	</node>
	<node lat="59.91855555647408" lon="11.888316673639553" id="-15344">
		<tag k="name" v="Østre Kjelvika" />
		<tag k="natural" v="bay" />
		<tag k="ssr:stedsnr" v="412049" />
	</node>
	<node lat="60.08097221924158" lon="11.939738897592267" id="-15363">
		<tag k="name" v="Østre Pulltjennet" />
=======
	<node id="-319192" lat="59.8514166676" lon="11.8431999957">
		<tag k="name" v="Kutjenn" />
		<tag k="natural" v="water" />
		<tag k="ssr:stedsnr" v="612164" />
	</node>
	<node id="-319190" lat="59.8925333358" lon="12.1398527847">
		<tag k="name" v="Fløyta" />
		<tag k="ssr:stedsnr" v="612042" />
		<tag k="waterway" v="stream" />
	</node>
	<node id="-319187" lat="60.0836500017" lon="11.9745833288">
		<tag k="name" v="Åbbortjennet" />
		<tag k="natural" v="water" />
		<tag k="ssr:stedsnr" v="611757" />
	</node>
	<node id="-319185" lat="59.925336113" lon="11.9025333407">
		<tag k="name" v="Killingøya" />
		<tag k="place" v="islet" />
		<tag k="ssr:stedsnr" v="611382" />
	</node>
	<node id="-319182" lat="59.9299027747" lon="11.885300004">
		<tag k="name" v="Kisvika" />
		<tag k="natural" v="bay" />
		<tag k="ssr:stedsnr" v="611365" />
	</node>
	<node id="-321225" lat="59.9816472185" lon="12.0490083346">
		<tag k="name" v="Snesbølbekken" />
		<tag k="ssr:stedsnr" v="958422" />
		<tag k="waterway" v="stream" />
	</node>
	<node id="-321218" lat="59.9141166657" lon="12.0344861086">
		<tag k="name" v="Kulbliknesvika" />
		<tag k="natural" v="bay" />
		<tag k="ssr:stedsnr" v="958339" />
	</node>
	<node id="-319169" lat="59.9416083325" lon="11.8394611116">
		<tag k="name" v="Perodden" />
		<tag k="natural" v="cape" />
		<tag k="ssr:stedsnr" v="715737" />
	</node>
	<node id="-321216" lat="60.0353638846" lon="11.8683000078">
		<tag k="name" v="Deletjennet" />
>>>>>>> e1d4bc35ff8a6074a6f2e91616a996b547c36f15
		<tag k="natural" v="water" />
		<tag k="ssr:stedsnr" v="412455" />
	</node>
	<node lat="59.90168332971387" lon="11.875824998885015" id="-15364">
		<tag k="name" v="Store Langvika" />
		<tag k="natural" v="bay" />
		<tag k="ssr:stedsnr" v="412804" />
	</node>
<<<<<<< HEAD
	<node lat="59.98843889294254" lon="12.297341660980418" id="-15365">
		<tag k="name" v="Vintertjennholmen" />
=======
	<node id="-321214" lat="59.9169888922" lon="11.9012249931">
		<tag k="name" v="Orreholmen" />
>>>>>>> e1d4bc35ff8a6074a6f2e91616a996b547c36f15
		<tag k="place" v="islet" />
		<tag k="ssr:stedsnr" v="412815" />
	</node>
<<<<<<< HEAD
	<node lat="60.04361944019239" lon="12.233880547594236" id="-15373">
		<tag k="name" v="Svarttjenn" />
		<tag k="natural" v="water" />
		<tag k="ssr:stedsnr" v="490005" />
	</node>
	<node lat="59.95632222482683" lon="12.05798889441914" id="-15375">
		<tag k="name" v="Stangnessjøen" />
=======
	<node id="-319164" lat="60.0560583302" lon="11.9594833273">
		<tag k="name" v="Ulvetjennet" />
		<tag k="natural" v="water" />
		<tag k="ssr:stedsnr" v="715663" />
	</node>
	<node id="-319154" lat="59.9572694473" lon="11.8010388816">
		<tag k="name" v="Grønnvika" />
		<tag k="natural" v="bay" />
		<tag k="ssr:stedsnr" v="715520" />
	</node>
	<node id="-321200" lat="60.0813277799" lon="12.1640527809">
		<tag k="name" v="Bråtaåa" />
		<tag k="ssr:stedsnr" v="958148" />
		<tag k="waterway" v="river" />
	</node>
	<node id="-319151" lat="59.9009888896" lon="11.8459055547">
		<tag k="name" v="Fløyttjennet" />
>>>>>>> e1d4bc35ff8a6074a6f2e91616a996b547c36f15
		<tag k="natural" v="water" />
		<tag k="ssr:stedsnr" v="490281" />
		<tag k="water" v="lake" />
	</node>
<<<<<<< HEAD
	<node lat="60.06506389201352" lon="11.873836111654262" id="-15385">
		<tag k="name" v="Putten" />
=======
	<node id="-319150" lat="60.0853611084" lon="11.9964250085">
		<tag k="name" v="Okseøyet" />
>>>>>>> e1d4bc35ff8a6074a6f2e91616a996b547c36f15
		<tag k="natural" v="water" />
		<tag k="ssr:stedsnr" v="490709" />
		<tag k="water" v="pond" />
	</node>
<<<<<<< HEAD
	<node lat="60.07148055356107" lon="12.212900005659808" id="-15390">
		<tag k="name" v="Morttjenna" />
=======
	<node id="-321195" lat="59.9047444469" lon="12.1821500044">
		<tag k="name" v="Lystjennbekken" />
		<tag k="ssr:stedsnr" v="958081" />
		<tag k="waterway" v="stream" />
	</node>
	<node id="-321191" lat="59.9650472263" lon="12.1476472185">
		<tag k="name" v="Korsåsbekken" />
		<tag k="ssr:stedsnr" v="958035" />
		<tag k="waterway" v="stream" />
	</node>
	<node id="-321189" lat="59.8977083316" lon="12.0465249959">
		<tag k="name" v="Bjellneset" />
		<tag k="natural" v="cape" />
		<tag k="ssr:stedsnr" v="958023" />
	</node>
	<node id="-321188" lat="59.9207888883" lon="11.9087777836">
		<tag k="name" v="Langneset" />
		<tag k="natural" v="cape" />
		<tag k="ssr:stedsnr" v="958015" />
	</node>
	<node id="-319137" lat="60.0573444452" lon="12.2753055498">
		<tag k="name" v="Brannesodden" />
		<tag k="natural" v="cape" />
		<tag k="ssr:stedsnr" v="715246" />
	</node>
	<node id="-319132" lat="59.9772305541" lon="12.2467722308">
		<tag k="name" v="Steinsrudbekken" />
		<tag k="ssr:stedsnr" v="715232" />
		<tag k="waterway" v="stream" />
	</node>
	<node id="-319131" lat="60.0859944486" lon="12.1738583396">
		<tag k="name" v="Grønnebekkenåa" />
		<tag k="ssr:stedsnr" v="715227" />
		<tag k="waterway" v="river" />
	</node>
	<node id="-319130" lat="60.0032166705" lon="12.1605694441">
		<tag k="name" v="Dammen" />
		<tag k="ssr:stedsnr" v="715222" />
		<tag k="waterway" v="dam" />
	</node>
	<node id="-319129" lat="60.0582222247" lon="11.8255361036">
		<tag k="name" v="Langtjennet" />
		<tag k="natural" v="water" />
		<tag k="ssr:stedsnr" v="715214" />
	</node>
	<node id="-321173" lat="60.085177774" lon="12.2366250015">
		<tag k="name" v="Fjølungen" />
		<tag k="natural" v="water" />
		<tag k="ssr:stedsnr" v="855902" />
	</node>
	<node id="-321172" lat="60.0146805534" lon="11.8559361147">
		<tag k="name" v="Aurtjennet" />
>>>>>>> e1d4bc35ff8a6074a6f2e91616a996b547c36f15
		<tag k="natural" v="water" />
		<tag k="ssr:stedsnr" v="490723" />
		<tag k="water" v="lake" />
	</node>
<<<<<<< HEAD
	<node lat="59.98564444855108" lon="11.870233338212687" id="-15410">
		<tag k="name" v="Kjelketjennet" />
=======
	<node id="-321168" lat="60.0433500025" lon="12.1331222272">
		<tag k="name" v="Jerntjennet" />
>>>>>>> e1d4bc35ff8a6074a6f2e91616a996b547c36f15
		<tag k="natural" v="water" />
		<tag k="ssr:stedsnr" v="430463" />
	</node>
<<<<<<< HEAD
	<node lat="60.00730277672021" lon="12.052138894674025" id="-15416">
		<tag k="name" v="Ålsjøen" />
		<tag k="natural" v="water" />
		<tag k="ssr:stedsnr" v="430855" />
	</node>
	<node lat="60.06035000057436" lon="12.230824999512118" id="-15424">
		<tag k="alt_name" v="Store Baksjøen" />
		<tag k="name" v="Baksjøen" />
=======
	<node id="-321164" lat="60.0068305558" lon="11.9008888808">
		<tag k="name" v="Vestre Kverntjennet" />
		<tag k="natural" v="water" />
		<tag k="ssr:stedsnr" v="855869" />
	</node>
	<node id="-319114" lat="60.0659555575" lon="11.995036106">
		<tag k="name" v="Grimtjenndammen" />
		<tag k="ssr:stedsnr" v="714931" />
		<tag k="waterway" v="dam" />
	</node>
	<node id="-321158" lat="60.0542805585" lon="11.9392555594">
		<tag k="alt_name" v="Skjølungen, store;Store Skjølungen" />
		<tag k="name" v="Skjølungen" />
>>>>>>> e1d4bc35ff8a6074a6f2e91616a996b547c36f15
		<tag k="natural" v="water" />
		<tag k="ssr:stedsnr" v="431605" />
		<tag k="water" v="lake" />
	</node>
<<<<<<< HEAD
	<node lat="59.912905552807274" lon="11.895041664797143" id="-15427">
		<tag k="alt_name" v="Skjærvangen" />
		<tag k="name" v="Skjervangen" />
=======
	<node id="-321157" lat="60.0523083333" lon="11.9136499977">
		<tag k="name" v="Blekktjennet" />
>>>>>>> e1d4bc35ff8a6074a6f2e91616a996b547c36f15
		<tag k="natural" v="water" />
		<tag k="ssr:stedsnr" v="491348" />
		<tag k="water" v="lake" />
	</node>
<<<<<<< HEAD
	<node lat="60.0562388872177" lon="11.946869438405399" id="-15431">
		<tag k="name" v="Aurkyttjenna" />
=======
	<node id="-321156" lat="60.0633010262" lon="12.0611258467">
		<tag k="name" v="Hornsjøen" />
>>>>>>> e1d4bc35ff8a6074a6f2e91616a996b547c36f15
		<tag k="natural" v="water" />
		<tag k="ssr:stedsnr" v="491665" />
		<tag k="water" v="lake" />
	</node>
<<<<<<< HEAD
	<node lat="60.038447224808564" lon="12.291030548640496" id="-15439">
		<tag k="name" v="Svintjenn" />
		<tag k="natural" v="water" />
		<tag k="ssr:stedsnr" v="673019" />
	</node>
	<node lat="60.09051389082344" lon="12.272872224909582" id="-15443">
		<tag k="name" v="Rauddolpa" />
=======
	<node id="-320790" lat="60.0173305566" lon="12.3115333423">
		<tag k="name" v="Butjennet" />
		<tag k="natural" v="water" />
		<tag k="ssr:stedsnr" v="612069" />
	</node>
	<node id="-319106" lat="59.9188388879" lon="11.8787805465">
		<tag k="name" v="Buåsvika" />
		<tag k="natural" v="bay" />
		<tag k="ssr:stedsnr" v="593243" />
	</node>
	<node id="-319105" lat="59.8913972225" lon="11.874736113">
		<tag k="name" v="Potetholmen" />
		<tag k="place" v="islet" />
		<tag k="ssr:stedsnr" v="593240" />
	</node>
	<node id="-321149" lat="60.1170694418" lon="12.1152999916">
		<tag k="name" v="Ringtjennet" />
>>>>>>> e1d4bc35ff8a6074a6f2e91616a996b547c36f15
		<tag k="natural" v="water" />
		<tag k="ssr:stedsnr" v="672883" />
	</node>
<<<<<<< HEAD
	<node lat="60.109988888473595" lon="12.23751388125667" id="-15445">
		<tag k="alt_name" v="Geittjennet" />
		<tag k="name" v="Geittjenna" />
		<tag k="natural" v="water" />
		<tag k="ssr:stedsnr" v="672928" />
		<tag k="water" v="lake" />
	</node>
	<node lat="60.026422225665605" lon="12.281399993340218" id="-15448">
		<tag k="name" v="Søndre Billingen" />
=======
	<node id="-321147" lat="59.9708095028" lon="12.0454339979">
		<tag k="name" v="Tobøltjenna" />
		<tag k="natural" v="water" />
		<tag k="ssr:stedsnr" v="855439" />
		<tag k="water" v="lake" />
	</node>
	<node id="-321146" lat="59.9698027759" lon="12.0911749969">
		<tag k="name" v="Kroksjøen" />
>>>>>>> e1d4bc35ff8a6074a6f2e91616a996b547c36f15
		<tag k="natural" v="water" />
		<tag k="ssr:stedsnr" v="673051" />
		<tag k="water" v="lake" />
	</node>
<<<<<<< HEAD
	<node lat="60.05344166436348" lon="12.244852785568858" id="-15451">
		<tag k="alt_name" v="Baksjøen, vesle" />
		<tag k="name" v="Vesle Baksjøen" />
=======
	<node id="-321145" lat="59.9983555558" lon="11.9276833278">
		<tag k="name" v="Kverntjenn" />
>>>>>>> e1d4bc35ff8a6074a6f2e91616a996b547c36f15
		<tag k="natural" v="water" />
		<tag k="ssr:stedsnr" v="673134" />
	</node>
<<<<<<< HEAD
	<node lat="59.90557777910027" lon="12.168511102990573" id="-15452">
		<tag k="name" v="Gauptjennet" />
=======
	<node id="-321144" lat="59.9982916702" lon="11.9013250013">
		<tag k="name" v="Blekktjennet" />
>>>>>>> e1d4bc35ff8a6074a6f2e91616a996b547c36f15
		<tag k="natural" v="water" />
		<tag k="ssr:stedsnr" v="673194" />
	</node>
<<<<<<< HEAD
	<node lat="59.910161112339296" lon="12.071358330888858" id="-15459">
		<tag k="name" v="Furuvatnet" />
=======
	<node id="-319089" lat="59.9803527793" lon="12.1954805475">
		<tag k="name" v="Furufjelltjennet" />
>>>>>>> e1d4bc35ff8a6074a6f2e91616a996b547c36f15
		<tag k="natural" v="water" />
		<tag k="ssr:stedsnr" v="673341" />
	</node>
<<<<<<< HEAD
	<node lat="60.04660277716747" lon="11.823766666030728" id="-15469">
		<tag k="name" v="Sevtjennet" />
=======
	<node id="-321134" lat="59.9199222212" lon="12.1089666729">
		<tag k="alt_name" v="Holmsjøen, vesle" />
		<tag k="name" v="Vesle Holmsjøen" />
>>>>>>> e1d4bc35ff8a6074a6f2e91616a996b547c36f15
		<tag k="natural" v="water" />
		<tag k="ssr:stedsnr" v="673546" />
	</node>
<<<<<<< HEAD
	<node lat="59.89836388947718" lon="12.10526945039476" id="-15476">
		<tag k="name" v="Jensvika" />
		<tag k="natural" v="bay" />
		<tag k="ssr:stedsnr" v="472059" />
	</node>
	<node lat="60.072622220686895" lon="12.05427777472877" id="-15481">
		<tag k="name" v="Kvernbekken" />
		<tag k="ssr:stedsnr" v="472219" />
		<tag k="waterway" v="stream" />
	</node>
	<node lat="59.92725555606333" lon="11.91646666734014" id="-15483">
		<tag k="name" v="Jussitjennet" />
=======
	<node id="-321132" lat="59.9586444482" lon="12.0835194513">
		<tag k="name" v="Langtjenn" />
		<tag k="natural" v="water" />
		<tag k="ssr:stedsnr" v="855297" />
	</node>
	<node id="-321128" lat="60.0610472219" lon="12.2429722192">
		<tag k="name" v="Gorrtjenn" />
>>>>>>> e1d4bc35ff8a6074a6f2e91616a996b547c36f15
		<tag k="natural" v="water" />
		<tag k="ssr:stedsnr" v="472260" />
	</node>
<<<<<<< HEAD
	<node lat="60.02857221898789" lon="11.931041659271651" id="-15497">
		<tag k="name" v="Østre Spjuttjennet" />
=======
	<node id="-319073" lat="59.961605553" lon="11.9267444432">
		<tag k="name" v="Huldertjennet" />
>>>>>>> e1d4bc35ff8a6074a6f2e91616a996b547c36f15
		<tag k="natural" v="water" />
		<tag k="ssr:stedsnr" v="472573" />
	</node>
	<node lat="60.004686112106434" lon="12.17876111849799" id="-15502">
		<tag k="name" v="Langbrumyrbekken" />
		<tag k="ssr:stedsnr" v="472875" />
		<tag k="waterway" v="stream" />
	</node>
	<node lat="59.99346388576967" lon="11.851494435456114" id="-15510">
		<tag k="name" v="Gudmundsvika" />
		<tag k="natural" v="bay" />
		<tag k="ssr:stedsnr" v="473268" />
	</node>
<<<<<<< HEAD
	<node lat="59.986847225562705" lon="12.2945916738426" id="-15516">
		<tag k="name" v="Vintertjennet" />
		<tag k="natural" v="water" />
		<tag k="ssr:stedsnr" v="490233" />
	</node>
	<node lat="60.05062222276962" lon="12.311752774222787" id="-15518">
=======
	<node id="-321118" lat="59.8923055534" lon="11.8436861037">
		<tag k="name" v="Langtjenna" />
		<tag k="natural" v="water" />
		<tag k="ssr:stedsnr" v="854230" />
		<tag k="water" v="lake" />
	</node>
	<node id="-319068" lat="60.0506222228" lon="12.3117527742">
>>>>>>> e1d4bc35ff8a6074a6f2e91616a996b547c36f15
		<tag k="name" v="Hanatjennbekken" />
		<tag k="ssr:stedsnr" v="490115" />
		<tag k="waterway" v="stream" />
	</node>
<<<<<<< HEAD
	<node lat="59.896455559061955" lon="12.06821665916938" id="-15519">
		<tag k="name" v="Possevatnet" />
=======
	<node id="-319066" lat="60.0436194402" lon="12.2338805476">
		<tag k="name" v="Svarttjenn" />
>>>>>>> e1d4bc35ff8a6074a6f2e91616a996b547c36f15
		<tag k="natural" v="water" />
		<tag k="ssr:stedsnr" v="490181" />
	</node>
<<<<<<< HEAD
	<node lat="59.977272219208494" lon="12.300405548166426" id="-15520">
		<tag k="name" v="Stråtjenna" />
=======
	<node id="-319065" lat="60.1037436702" lon="12.1582001123">
		<tag k="name" v="Baksjøen" />
>>>>>>> e1d4bc35ff8a6074a6f2e91616a996b547c36f15
		<tag k="natural" v="water" />
		<tag k="ssr:stedsnr" v="490191" />
		<tag k="water" v="lake" />
	</node>
<<<<<<< HEAD
	<node lat="59.91707500037597" lon="11.96308611329728" id="-15522">
		<tag k="name" v="Langvatnet" />
=======
	<node id="-321111" lat="59.902849998" lon="11.894199996">
		<tag k="name" v="Sandvika" />
		<tag k="natural" v="bay" />
		<tag k="ssr:stedsnr" v="837683" />
	</node>
	<node id="-319061" lat="60.037899998" lon="12.2166527837">
		<tag k="name" v="Aursjøen" />
>>>>>>> e1d4bc35ff8a6074a6f2e91616a996b547c36f15
		<tag k="natural" v="water" />
		<tag k="ssr:stedsnr" v="490315" />
		<tag k="water" v="lake" />
	</node>
<<<<<<< HEAD
	<node lat="60.02407777578814" lon="11.903911103177602" id="-15524">
		<tag k="name" v="Åbbortjennet" />
		<tag k="natural" v="water" />
		<tag k="ssr:stedsnr" v="490640" />
	</node>
	<node lat="59.898908331302295" lon="12.038755558023174" id="-15530">
		<tag k="alt_name" v="Helgesjø" />
		<tag k="name" v="Helgesjøen" />
=======
	<node id="-319059" lat="60.0466027772" lon="11.823766666">
		<tag k="name" v="Sevtjennet" />
		<tag k="natural" v="water" />
		<tag k="ssr:stedsnr" v="673546" />
	</node>
	<node id="-319055" lat="59.987977782" lon="11.9470472201">
		<tag k="name" v="Buåa" />
		<tag k="ssr:stedsnr" v="673505" />
		<tag k="waterway" v="river" />
	</node>
	<node id="-321099" lat="60.0122888929" lon="12.2015277795">
		<tag k="name" v="Delebekken" />
		<tag k="ssr:stedsnr" v="837438" />
		<tag k="waterway" v="stream" />
	</node>
	<node id="-319141" lat="60.0582444419" lon="11.8453583338">
		<tag k="name" v="Nesleråa" />
		<tag k="ssr:stedsnr" v="715276" />
		<tag k="waterway" v="river" />
	</node>
	<node id="-319042" lat="59.9101611123" lon="12.0713583309">
		<tag k="name" v="Furuvatnet" />
>>>>>>> e1d4bc35ff8a6074a6f2e91616a996b547c36f15
		<tag k="natural" v="water" />
		<tag k="ssr:stedsnr" v="491181" />
		<tag k="water" v="lake" />
	</node>
<<<<<<< HEAD
	<node lat="59.895819442086484" lon="11.956236112809687" id="-15531">
		<tag k="name" v="Hekttjennet" />
=======
	<node id="-319037" lat="59.951366671" lon="11.8799472218">
		<tag k="name" v="Gravlitjenn" />
>>>>>>> e1d4bc35ff8a6074a6f2e91616a996b547c36f15
		<tag k="natural" v="water" />
		<tag k="ssr:stedsnr" v="491185" />
	</node>
<<<<<<< HEAD
	<node lat="59.95283888464407" lon="12.095219442561218" id="-15532">
		<tag k="name" v="Svarttjenn" />
		<tag k="natural" v="water" />
		<tag k="ssr:stedsnr" v="491275" />
	</node>
	<node lat="60.045200000781556" lon="12.059150002447813" id="-15543">
		<tag k="alt_name" v="Hornåa" />
		<tag k="name" v="Hornkjølåa" />
		<tag k="ssr:stedsnr" v="491681" />
		<tag k="waterway" v="stream" />
	</node>
	<node lat="59.87605555861363" lon="11.912341659176441" id="-15544">
		<tag k="name" v="Nabben" />
		<tag k="natural" v="cape" />
		<tag k="ssr:stedsnr" v="506023" />
	</node>
	<node lat="59.96160555296498" lon="11.926744443225939" id="-15546">
		<tag k="name" v="Huldertjennet" />
=======
	<node id="-321081" lat="59.9080416644" lon="11.901944446">
		<tag k="name" v="Søndre Bekken" />
		<tag k="ssr:stedsnr" v="837278" />
		<tag k="waterway" v="stream" />
	</node>
	<node id="-319032" lat="59.9582166639" lon="12.2834250004">
		<tag k="name" v="Kroktjennet" />
		<tag k="natural" v="water" />
		<tag k="ssr:stedsnr" v="673234" />
	</node>
	<node id="-321079" lat="60.1001861148" lon="12.1878777859">
		<tag k="name" v="Øya" />
		<tag k="place" v="island" />
		<tag k="ssr:stedsnr" v="837148" />
	</node>
	<node id="-319028" lat="59.9055777791" lon="12.168511103">
		<tag k="name" v="Gauptjennet" />
>>>>>>> e1d4bc35ff8a6074a6f2e91616a996b547c36f15
		<tag k="natural" v="water" />
		<tag k="ssr:stedsnr" v="532823" />
	</node>
<<<<<<< HEAD
	<node lat="59.941555553120246" lon="11.826719443028722" id="-15565">
		<tag k="name" v="Langodden" />
		<tag k="natural" v="cape" />
		<tag k="ssr:stedsnr" v="533485" />
	</node>
	<node lat="60.033636110048036" lon="12.043669445536933" id="-15569">
		<tag k="name" v="Sluffedammen" />
		<tag k="ssr:stedsnr" v="533534" />
		<tag k="waterway" v="dam" />
	</node>
	<node lat="59.89334645099595" lon="11.826678852528595" id="-15581">
		<tag k="loc_name" v="Krokskjølungen" />
		<tag k="name" v="Kroksjølungen" />
=======
	<node id="-319026" lat="59.9087805531" lon="12.1819555588">
		<tag k="name" v="Lystjennet" />
		<tag k="natural" v="water" />
		<tag k="ssr:stedsnr" v="673181" />
	</node>
	<node id="-319025" lat="60.0534416644" lon="12.2448527856">
		<tag k="alt_name" v="Baksjøen, vesle" />
		<tag k="name" v="Vesle Baksjøen" />
		<tag k="natural" v="water" />
		<tag k="ssr:stedsnr" v="673134" />
	</node>
	<node id="-319023" lat="60.0264222257" lon="12.2813999933">
		<tag k="name" v="Søndre Billingen" />
>>>>>>> e1d4bc35ff8a6074a6f2e91616a996b547c36f15
		<tag k="natural" v="water" />
		<tag k="ssr:stedsnr" v="551204" />
		<tag k="water" v="lake" />
	</node>
<<<<<<< HEAD
	<node lat="59.95557499668265" lon="12.04976388107938" id="-15583">
		<tag k="name" v="Stangnesstranda" />
		<tag k="natural" v="beach" />
		<tag k="ssr:stedsnr" v="551303" />
	</node>
	<node lat="59.95002500062791" lon="11.89283888427123" id="-15588">
		<tag k="name" v="Damtjenn" />
=======
	<node id="-319020" lat="60.0384472248" lon="12.2910305486">
		<tag k="name" v="Svintjenn" />
>>>>>>> e1d4bc35ff8a6074a6f2e91616a996b547c36f15
		<tag k="natural" v="water" />
		<tag k="ssr:stedsnr" v="551299" />
	</node>
<<<<<<< HEAD
	<node lat="60.09159999795015" lon="12.121513894347139" id="-15594">
		<tag k="alt_name" v="Aklangen, nordre" />
		<tag k="name" v="Nordre Åklangen" />
		<tag k="natural" v="water" />
		<tag k="ssr:stedsnr" v="551740" />
		<tag k="water" v="lake" />
	</node>
	<node lat="60.08158332940962" lon="11.937880548385381" id="-15595">
		<tag k="name" v="Fløytene" />
=======
	<node id="-319018" lat="60.1099888885" lon="12.2375138813">
		<tag k="alt_name" v="Geittjennet" />
		<tag k="name" v="Geittjenna" />
		<tag k="natural" v="water" />
		<tag k="ssr:stedsnr" v="672928" />
		<tag k="water" v="lake" />
	</node>
	<node id="-319017" lat="60.0905138908" lon="12.2728722249">
		<tag k="name" v="Rauddolpa" />
>>>>>>> e1d4bc35ff8a6074a6f2e91616a996b547c36f15
		<tag k="natural" v="water" />
		<tag k="ssr:stedsnr" v="551747" />
	</node>
<<<<<<< HEAD
	<node lat="60.01727777630428" lon="11.950913889643973" id="-15596">
		<tag k="name" v="Sætertjennet" />
=======
	<node id="-319013" lat="60.0082188463" lon="11.9515262224">
		<tag k="name" v="Busjøen" />
>>>>>>> e1d4bc35ff8a6074a6f2e91616a996b547c36f15
		<tag k="natural" v="water" />
		<tag k="ssr:stedsnr" v="551651" />
	</node>
<<<<<<< HEAD
	<node lat="59.92166666893873" lon="11.922883327852286" id="-15607">
		<tag k="name" v="Akkevika" />
		<tag k="natural" v="bay" />
		<tag k="ssr:stedsnr" v="593052" />
	</node>
	<node lat="59.888175001777384" lon="11.934786114084952" id="-15620">
		<tag k="name" v="Rudsvika" />
		<tag k="natural" v="bay" />
		<tag k="ssr:stedsnr" v="593632" />
	</node>
	<node lat="59.97511944210036" lon="12.314547213313974" id="-15624">
		<tag k="name" v="Stråtjennbekken" />
		<tag k="ssr:stedsnr" v="593802" />
		<tag k="waterway" v="stream" />
	</node>
	<node lat="59.95057222329411" lon="12.295850001679144" id="-15625">
		<tag k="name" v="Svenskevika" />
		<tag k="natural" v="bay" />
		<tag k="ssr:stedsnr" v="593816" />
	</node>
	<node lat="59.92533611303239" lon="11.902533340701456" id="-15641">
		<tag k="name" v="Killingøya" />
		<tag k="place" v="islet" />
		<tag k="ssr:stedsnr" v="611382" />
	</node>
	<node lat="60.08152777535541" lon="12.142469450550573" id="-15644">
		<tag k="name" v="Kolstadtjennet" />
=======
	<node id="-321057" lat="59.9214750008" lon="11.9132555548">
		<tag k="name" v="Knappertneset" />
		<tag k="natural" v="cape" />
		<tag k="ssr:stedsnr" v="837051" />
	</node>
	<node id="-321056" lat="59.9069000022" lon="12.0353861152">
		<tag k="name" v="Djupsundøyene" />
		<tag k="place" v="island" />
		<tag k="ssr:stedsnr" v="837029" />
	</node>
	<node id="-321055" lat="59.8981972183" lon="12.0509194503">
		<tag k="alt_name" v="Hestnes" />
		<tag k="name" v="Hesteneset" />
		<tag k="natural" v="cape" />
		<tag k="ssr:stedsnr" v="837025" />
	</node>
	<node id="-319004" lat="59.9323944477" lon="12.0004972179">
		<tag k="name" v="Harstadsjøen" />
		<tag k="natural" v="water" />
		<tag k="ssr:stedsnr" v="672313" />
		<tag k="water" v="lake" />
	</node>
	<node id="-318999" lat="60.079011109" lon="12.2239305492">
		<tag k="alt_name" v="Kommern" />
		<tag k="name" v="Kommeren" />
		<tag k="natural" v="water" />
		<tag k="ssr:stedsnr" v="672075" />
	</node>
	<node id="-321041" lat="60.0565854935" lon="11.9454189467">
		<tag k="name" v="Nordre Aurkyttjennet" />
>>>>>>> e1d4bc35ff8a6074a6f2e91616a996b547c36f15
		<tag k="natural" v="water" />
		<tag k="ssr:stedsnr" v="611690" />
	</node>
<<<<<<< HEAD
	<node lat="60.08365000171462" lon="11.9745833288277" id="-15645">
		<tag k="name" v="Åbbortjennet" />
=======
	<node id="-321039" lat="60.0866472255" lon="12.0197527709">
		<tag k="name" v="Ottjennet" />
>>>>>>> e1d4bc35ff8a6074a6f2e91616a996b547c36f15
		<tag k="natural" v="water" />
		<tag k="ssr:stedsnr" v="611757" />
	</node>
<<<<<<< HEAD
	<node lat="60.01733055662255" lon="12.311533342320253" id="-15650">
		<tag k="name" v="Butjennet" />
=======
	<node id="-321038" lat="60.1094361145" lon="12.0828166592">
		<tag k="name" v="Eitjennet" />
>>>>>>> e1d4bc35ff8a6074a6f2e91616a996b547c36f15
		<tag k="natural" v="water" />
		<tag k="ssr:stedsnr" v="612069" />
	</node>
<<<<<<< HEAD
	<node lat="60.05634722391395" lon="11.999119437993935" id="-15661">
		<tag k="name" v="Besseputten" />
		<tag k="natural" v="water" />
		<tag k="ssr:stedsnr" v="612664" />
	</node>
	<node lat="60.07310000137884" lon="12.134741665593241" id="-15665">
		<tag k="alt_name" v="Åklangen, s" />
		<tag k="name" v="Søndre Åklangen" />
=======
	<node id="-321036" lat="59.9217499958" lon="11.9116027785">
		<tag k="name" v="Østre Gørrvika" />
		<tag k="natural" v="bay" />
		<tag k="ssr:stedsnr" v="836219" />
	</node>
	<node id="-321035" lat="59.8901916689" lon="11.8944138856">
		<tag k="name" v="Svervestoltjennet" />
>>>>>>> e1d4bc35ff8a6074a6f2e91616a996b547c36f15
		<tag k="natural" v="water" />
		<tag k="ssr:stedsnr" v="612712" />
		<tag k="water" v="lake" />
	</node>
<<<<<<< HEAD
	<node lat="60.06762572799098" lon="11.931066077357956" id="-15666">
		<tag k="alt_name" v="Skjølungen, vesle" />
=======
	<node id="-318980" lat="60.038882251" lon="12.1981172219">
>>>>>>> e1d4bc35ff8a6074a6f2e91616a996b547c36f15
		<tag k="fixme" v="multiple name tags, choose one and add the other to alt_name" />
		<tag k="name" v="Gammelsætertjennet;Vesle Skjølungen" />
		<tag k="natural" v="water" />
		<tag k="ssr:stedsnr" v="612718" />
	</node>
<<<<<<< HEAD
	<node lat="59.93084444538586" lon="11.90960277508121" id="-15677">
		<tag k="name" v="Jussienga" />
		<tag k="natural" v="cape" />
		<tag k="ssr:stedsnr" v="654005" />
	</node>
	<node lat="59.905472226650204" lon="11.9501777728133" id="-15686">
		<tag k="name" v="Vesle Abbortjennet" />
		<tag k="natural" v="water" />
		<tag k="ssr:stedsnr" v="654291" />
	</node>
	<node lat="59.93559444470771" lon="11.996783336178735" id="-15694">
		<tag k="name" v="Brustadvika" />
		<tag k="natural" v="bay" />
		<tag k="ssr:stedsnr" v="654542" />
	</node>
	<node lat="60.07901110895854" lon="12.223930549247227" id="-15709">
		<tag k="alt_name" v="Kommern" />
		<tag k="name" v="Kommeren" />
=======
	<node id="-321014" lat="60.0192777767" lon="11.9871805624">
		<tag k="name" v="Tryggbekken" />
		<tag k="ssr:stedsnr" v="794660" />
		<tag k="waterway" v="stream" />
	</node>
	<node id="-318962" lat="59.8760555586" lon="11.9123416592">
		<tag k="name" v="Nabben" />
		<tag k="natural" v="cape" />
		<tag k="ssr:stedsnr" v="506023" />
	</node>
	<node id="-321008" lat="60.1280416659" lon="12.2391083404">
		<tag k="name" v="Holsætertjennet" />
>>>>>>> e1d4bc35ff8a6074a6f2e91616a996b547c36f15
		<tag k="natural" v="water" />
		<tag k="ssr:stedsnr" v="672075" />
	</node>
<<<<<<< HEAD
	<node lat="59.93239444774446" lon="12.00049721793327" id="-15713">
		<tag k="name" v="Harstadsjøen" />
=======
	<node id="-318958" lat="60.0491805591" lon="11.9768361104">
		<tag k="name" v="Sandtjennet" />
>>>>>>> e1d4bc35ff8a6074a6f2e91616a996b547c36f15
		<tag k="natural" v="water" />
		<tag k="ssr:stedsnr" v="672313" />
		<tag k="water" v="lake" />
	</node>
<<<<<<< HEAD
	<node lat="59.8426948304787" lon="11.827685478444602" id="-15715">
		<tag k="alt_name" v="Lembruvann" />
		<tag k="name" v="Lembruvanna" />
=======
	<node id="-321003" lat="59.9309333326" lon="11.8471333265">
		<tag k="name" v="Korstjenn" />
>>>>>>> e1d4bc35ff8a6074a6f2e91616a996b547c36f15
		<tag k="natural" v="water" />
		<tag k="ssr:stedsnr" v="672315" />
		<tag k="water" v="lake" />
	</node>
<<<<<<< HEAD
	<node lat="60.008218846298014" lon="11.951526222438549" id="-15716">
		<tag k="name" v="Busjøen" />
=======
	<node id="-321001" lat="59.9298805581" lon="12.1044111038">
		<tag k="name" v="Purketjenn" />
>>>>>>> e1d4bc35ff8a6074a6f2e91616a996b547c36f15
		<tag k="natural" v="water" />
		<tag k="ssr:stedsnr" v="672864" />
		<tag k="water" v="lake" />
	</node>
<<<<<<< HEAD
	<node lat="59.95821666393272" lon="12.283425000437576" id="-15721">
		<tag k="name" v="Kroktjennet" />
		<tag k="natural" v="water" />
		<tag k="ssr:stedsnr" v="673234" />
	</node>
	<node lat="59.90878055305079" lon="12.181955558758705" id="-15722">
		<tag k="name" v="Lystjennet" />
=======
	<node id="-318952" lat="60.0452000008" lon="12.0591500024">
		<tag k="alt_name" v="Hornåa" />
		<tag k="name" v="Hornkjølåa" />
		<tag k="ssr:stedsnr" v="491681" />
		<tag k="waterway" v="stream" />
	</node>
	<node id="-320999" lat="59.9236944466" lon="11.8603694374">
		<tag k="name" v="Godtjenn" />
>>>>>>> e1d4bc35ff8a6074a6f2e91616a996b547c36f15
		<tag k="natural" v="water" />
		<tag k="ssr:stedsnr" v="673181" />
	</node>
<<<<<<< HEAD
	<node lat="59.951366671003164" lon="11.879947221811186" id="-15723">
		<tag k="name" v="Gravlitjenn" />
		<tag k="natural" v="water" />
		<tag k="ssr:stedsnr" v="673308" />
	</node>
	<node lat="60.03789999801695" lon="12.216652783694196" id="-15730">
		<tag k="name" v="Aursjøen" />
		<tag k="natural" v="water" />
		<tag k="ssr:stedsnr" v="673642" />
	</node>
	<node lat="59.98797778198415" lon="11.947047220126608" id="-15731">
		<tag k="name" v="Buåa" />
		<tag k="ssr:stedsnr" v="673505" />
		<tag k="waterway" v="river" />
	</node>
	<node lat="60.103743670172506" lon="12.158200112275095" id="-15735">
		<tag k="name" v="Baksjøen" />
=======
	<node id="-318950" lat="60.0562388872" lon="11.9468694384">
		<tag k="name" v="Aurkyttjenna" />
		<tag k="natural" v="water" />
		<tag k="ssr:stedsnr" v="491665" />
		<tag k="water" v="lake" />
	</node>
	<node id="-320997" lat="59.9155611093" lon="11.8820138921">
		<tag k="alt_name" v="Buvikneset" />
		<tag k="name" v="Buviknesa" />
		<tag k="natural" v="cape" />
		<tag k="ssr:stedsnr" v="794299" />
	</node>
	<node id="-320993" lat="59.9620805559" lon="12.1710305562">
		<tag k="name" v="Vrangselva" />
		<tag k="ssr:stedsnr" v="794271" />
		<tag k="waterway" v="stream" />
	</node>
	<node id="-318941" lat="59.9129055528" lon="11.8950416648">
		<tag k="alt_name" v="Skjærvangen" />
		<tag k="name" v="Skjervangen" />
>>>>>>> e1d4bc35ff8a6074a6f2e91616a996b547c36f15
		<tag k="natural" v="water" />
		<tag k="ssr:stedsnr" v="673725" />
		<tag k="water" v="lake" />
	</node>
<<<<<<< HEAD
	<node lat="60.01513888724895" lon="11.96673888453129" id="-15754">
		<tag k="name" v="Blokktjennet" />
=======
	<node id="-320986" lat="59.9871333308" lon="12.2669916668">
		<tag k="name" v="Opptjennet" />
>>>>>>> e1d4bc35ff8a6074a6f2e91616a996b547c36f15
		<tag k="natural" v="water" />
		<tag k="ssr:stedsnr" v="897299" />
	</node>
<<<<<<< HEAD
	<node lat="60.004133337218285" lon="11.958977774092814" id="-15755">
		<tag k="name" v="Sætertjennbekken" />
		<tag k="ssr:stedsnr" v="897300" />
		<tag k="waterway" v="stream" />
	</node>
	<node lat="59.87823889232693" lon="11.911886108673375" id="-15756">
		<tag k="name" v="Måsavika" />
		<tag k="natural" v="bay" />
		<tag k="ssr:stedsnr" v="897248" />
	</node>
	<node lat="60.0507916673719" lon="11.96021944568567" id="-15772">
		<tag k="name" v="Jonstruphullet" />
=======
	<node id="-320984" lat="60.0037916635" lon="12.2861555573">
		<tag k="name" v="Damtjenn" />
		<tag k="natural" v="water" />
		<tag k="ssr:stedsnr" v="794186" />
	</node>
	<node id="-318935" lat="59.9528388846" lon="12.0952194426">
		<tag k="name" v="Svarttjenn" />
>>>>>>> e1d4bc35ff8a6074a6f2e91616a996b547c36f15
		<tag k="natural" v="water" />
		<tag k="ssr:stedsnr" v="897650" />
		<tag k="water" v="pond" />
	</node>
<<<<<<< HEAD
	<node lat="59.9961666676921" lon="11.850097229635377" id="-15774">
		<tag k="name" v="Vintervika" />
		<tag k="natural" v="bay" />
		<tag k="ssr:stedsnr" v="897686" />
	</node>
	<node lat="59.957688884985565" lon="11.956977774218867" id="-15782">
		<tag k="name" v="Veslesjøen" />
=======
	<node id="-320982" lat="60.0002583366" lon="12.306369436">
		<tag k="name" v="Finnsrudtjennet" />
>>>>>>> e1d4bc35ff8a6074a6f2e91616a996b547c36f15
		<tag k="natural" v="water" />
		<tag k="ssr:stedsnr" v="897735" />
	</node>
<<<<<<< HEAD
	<node lat="60.03114444866796" lon="12.093708326589727" id="-15784">
		<tag k="name" v="Kisabekken" />
		<tag k="ssr:stedsnr" v="897825" />
		<tag k="waterway" v="stream" />
	</node>
	<node lat="59.96324166271457" lon="12.311702780649982" id="-15785">
		<tag k="name" v="Svartdalsdulpa" />
=======
	<node id="-318933" lat="59.8958194421" lon="11.9562361128">
		<tag k="name" v="Hekttjennet" />
>>>>>>> e1d4bc35ff8a6074a6f2e91616a996b547c36f15
		<tag k="natural" v="water" />
		<tag k="ssr:stedsnr" v="897827" />
		<tag k="water" v="pond" />
	</node>
<<<<<<< HEAD
	<node lat="59.92438055438832" lon="12.07742777157695" id="-15792">
		<tag k="name" v="Gørrvika" />
		<tag k="natural" v="bay" />
		<tag k="ssr:stedsnr" v="897898" />
	</node>
	<node lat="59.90366111473174" lon="11.831466659694877" id="-15799">
		<tag k="name" v="Vesle-Åbbortjennet" />
=======
	<node id="-318932" lat="59.8989083313" lon="12.038755558">
		<tag k="alt_name" v="Helgesjø" />
		<tag k="name" v="Helgesjøen" />
>>>>>>> e1d4bc35ff8a6074a6f2e91616a996b547c36f15
		<tag k="natural" v="water" />
		<tag k="ssr:stedsnr" v="898480" />
	</node>
<<<<<<< HEAD
	<node lat="59.94608332911854" lon="11.868455564137587" id="-15804">
		<tag k="name" v="Korpetjennet" />
=======
	<node id="-320979" lat="59.9737916662" lon="11.8090166583">
		<tag k="name" v="Asketjennet" />
>>>>>>> e1d4bc35ff8a6074a6f2e91616a996b547c36f15
		<tag k="natural" v="water" />
		<tag k="ssr:stedsnr" v="898674" />
	</node>
<<<<<<< HEAD
	<node lat="59.92785833649363" lon="11.890252779638844" id="-15805">
		<tag k="name" v="Kisviknabba" />
		<tag k="natural" v="cape" />
		<tag k="ssr:stedsnr" v="715005" />
	</node>
	<node lat="59.89165833650015" lon="12.143027786032278" id="-15806">
		<tag k="name" v="Dammen" />
		<tag k="ssr:stedsnr" v="715006" />
		<tag k="waterway" v="dam" />
	</node>
	<node lat="59.92860278164096" lon="11.909380553605823" id="-15807">
		<tag k="name" v="Båtvika" />
=======
	<node id="-320978" lat="59.9767222185" lon="11.8052666607">
		<tag k="name" v="Haveråa" />
		<tag k="ssr:stedsnr" v="793993" />
		<tag k="waterway" v="river" />
	</node>
	<node id="-320974" lat="59.992494442" lon="12.1670777864">
		<tag k="name" v="Nordlibekken" />
		<tag k="ssr:stedsnr" v="776983" />
		<tag k="waterway" v="stream" />
	</node>
	<node id="-320971" lat="59.9908250005" lon="12.3454805633">
		<tag k="name" v="Sandvika" />
>>>>>>> e1d4bc35ff8a6074a6f2e91616a996b547c36f15
		<tag k="natural" v="bay" />
		<tag k="ssr:stedsnr" v="715014" />
	</node>
<<<<<<< HEAD
	<node lat="60.06595555749628" lon="11.995036106035634" id="-15808">
		<tag k="name" v="Grimtjenndammen" />
		<tag k="ssr:stedsnr" v="714931" />
		<tag k="waterway" v="dam" />
	</node>
	<node lat="60.05824444186699" lon="11.84535833381299" id="-15813">
		<tag k="name" v="Nesleråa" />
		<tag k="ssr:stedsnr" v="715276" />
		<tag k="waterway" v="river" />
	</node>
	<node lat="59.915863888980695" lon="11.805002773875277" id="-15814">
		<tag k="name" v="Dalfoss" />
		<tag k="ssr:stedsnr" v="715412" />
		<tag k="waterway" v="rapids" />
	</node>
	<node lat="59.962988886496674" lon="12.29123889266403" id="-15833">
		<tag k="name" v="Svarttjennet" />
=======
	<node id="-318919" lat="60.0714805536" lon="12.2129000057">
		<tag k="name" v="Morttjenna" />
		<tag k="natural" v="water" />
		<tag k="ssr:stedsnr" v="490723" />
		<tag k="water" v="lake" />
	</node>
	<node id="-320966" lat="59.8491833297" lon="11.8668555484">
		<tag k="name" v="Vestbekken" />
		<tag k="ssr:stedsnr" v="776609" />
		<tag k="waterway" v="stream" />
	</node>
	<node id="-320964" lat="59.9542083308" lon="11.8034277723">
		<tag k="name" v="Langvika" />
		<tag k="natural" v="bay" />
		<tag k="ssr:stedsnr" v="776598" />
	</node>
	<node id="-318915" lat="60.065063892" lon="11.8738361117">
		<tag k="name" v="Putten" />
>>>>>>> e1d4bc35ff8a6074a6f2e91616a996b547c36f15
		<tag k="natural" v="water" />
		<tag k="ssr:stedsnr" v="733208" />
	</node>
<<<<<<< HEAD
	<node lat="59.9673694479502" lon="11.835475001687541" id="-15834">
		<tag k="name" v="Putten" />
=======
	<node id="-318913" lat="60.0240777758" lon="11.9039111032">
		<tag k="name" v="Åbbortjennet" />
>>>>>>> e1d4bc35ff8a6074a6f2e91616a996b547c36f15
		<tag k="natural" v="water" />
		<tag k="ssr:stedsnr" v="733104" />
	</node>
<<<<<<< HEAD
	<node lat="59.972113890644486" lon="11.829636110011284" id="-15835">
		<tag k="name" v="Midtre Hundetjenn" />
=======
	<node id="-320959" lat="60.0405111095" lon="11.8363916603">
		<tag k="name" v="Morttjennet" />
>>>>>>> e1d4bc35ff8a6074a6f2e91616a996b547c36f15
		<tag k="natural" v="water" />
		<tag k="ssr:stedsnr" v="733106" />
	</node>
<<<<<<< HEAD
	<node lat="60.06153611031679" lon="12.26894721660437" id="-15836">
		<tag k="name" v="Nordre Billingen" />
=======
	<node id="-318905" lat="59.9170750004" lon="11.9630861133">
		<tag k="name" v="Langvatnet" />
>>>>>>> e1d4bc35ff8a6074a6f2e91616a996b547c36f15
		<tag k="natural" v="water" />
		<tag k="ssr:stedsnr" v="733114" />
		<tag k="water" v="lake" />
	</node>
<<<<<<< HEAD
	<node lat="60.05821744574155" lon="11.825534382882932" id="-15843">
		<tag k="name" v="Langtjenn" />
=======
	<node id="-318902" lat="59.9563222248" lon="12.0579888944">
		<tag k="name" v="Stangnessjøen" />
>>>>>>> e1d4bc35ff8a6074a6f2e91616a996b547c36f15
		<tag k="natural" v="water" />
		<tag k="ssr:stedsnr" v="733487" />
	</node>
<<<<<<< HEAD
	<node lat="59.87013611227181" lon="11.859772227033565" id="-15849">
		<tag k="alt_name" v="Knøltjennet" />
		<tag k="name" v="Knolltjenn" />
=======
	<node id="-318900" lat="59.9868472256" lon="12.2945916738">
		<tag k="name" v="Vintertjennet" />
>>>>>>> e1d4bc35ff8a6074a6f2e91616a996b547c36f15
		<tag k="natural" v="water" />
		<tag k="ssr:stedsnr" v="734146" />
	</node>
<<<<<<< HEAD
	<node lat="59.90330865821816" lon="12.106627841291584" id="-15851">
		<tag k="name" v="Holmsjøen" />
		<tag k="natural" v="water" />
		<tag k="ssr:stedsnr" v="734198" />
		<tag k="water" v="lake" />
	</node>
	<node lat="60.10524722437575" lon="12.129644440219485" id="-15860">
		<tag k="name" v="Lomtjennet" />
=======
	<node id="-318897" lat="59.9772722192" lon="12.3004055482">
		<tag k="name" v="Stråtjenna" />
		<tag k="natural" v="water" />
		<tag k="ssr:stedsnr" v="490191" />
		<tag k="water" v="lake" />
	</node>
	<node id="-318896" lat="59.8964555591" lon="12.0682166592">
		<tag k="name" v="Possevatnet" />
>>>>>>> e1d4bc35ff8a6074a6f2e91616a996b547c36f15
		<tag k="natural" v="water" />
		<tag k="ssr:stedsnr" v="734728" />
	</node>
<<<<<<< HEAD
	<node lat="60.04629444442993" lon="12.278002769474753" id="-15865">
		<tag k="name" v="Klemmetsbråtadammen" />
		<tag k="ssr:stedsnr" v="764948" />
		<tag k="waterway" v="dam" />
	</node>
	<node lat="59.94481667024943" lon="11.828583335474903" id="-15886">
		<tag k="name" v="Leirbekken" />
		<tag k="ssr:stedsnr" v="776460" />
		<tag k="waterway" v="stream" />
	</node>
	<node lat="59.966186111118354" lon="11.797497219817084" id="-15887">
		<tag k="name" v="Vesle Sandvika" />
=======
	<node id="-320943" lat="60.0112222221" lon="12.1546749969">
		<tag k="name" v="Okseøyet" />
		<tag k="natural" v="water" />
		<tag k="ssr:stedsnr" v="776487" />
		<tag k="water" v="pond" />
	</node>
	<node id="-320935" lat="60.0701861118" lon="12.1110249931">
		<tag k="name" v="Malmerbekken" />
		<tag k="ssr:stedsnr" v="776150" />
		<tag k="waterway" v="stream" />
	</node>
	<node id="-320931" lat="59.9047305576" lon="12.0478833334">
		<tag k="name" v="Aurneset" />
		<tag k="natural" v="cape" />
		<tag k="ssr:stedsnr" v="776043" />
	</node>
	<node id="-318704" lat="59.8993166678" lon="11.883550008">
		<tag k="name" v="Persøya" />
		<tag k="place" v="island" />
		<tag k="ssr:stedsnr" v="291677" />
	</node>
	<node id="-318878" lat="59.9934638858" lon="11.8514944355">
		<tag k="name" v="Gudmundsvika" />
>>>>>>> e1d4bc35ff8a6074a6f2e91616a996b547c36f15
		<tag k="natural" v="bay" />
		<tag k="ssr:stedsnr" v="776464" />
	</node>
<<<<<<< HEAD
	<node lat="59.84918332969978" lon="11.866855548387596" id="-15890">
		<tag k="name" v="Vestbekken" />
		<tag k="ssr:stedsnr" v="776609" />
		<tag k="waterway" v="stream" />
	</node>
	<node lat="59.986901740644655" lon="12.266615951323194" id="-15897">
		<tag k="name" v="Opptjennet" />
=======
	<node id="-318703" lat="59.9470805559" lon="11.8937388868">
		<tag k="name" v="Damtjennbekken" />
		<tag k="ssr:stedsnr" v="291672" />
		<tag k="waterway" v="stream" />
	</node>
	<node id="-318866" lat="60.0046861121" lon="12.1787611185">
		<tag k="name" v="Langbrumyrbekken" />
		<tag k="ssr:stedsnr" v="472875" />
		<tag k="waterway" v="stream" />
	</node>
	<node id="-320912" lat="60.0064194478" lon="12.0031500061">
		<tag k="name" v="Søndre Hissitjenn" />
>>>>>>> e1d4bc35ff8a6074a6f2e91616a996b547c36f15
		<tag k="natural" v="water" />
		<tag k="ssr:stedsnr" v="794225" />
	</node>
<<<<<<< HEAD
	<node lat="60.00025409525958" lon="12.306361171029295" id="-15906">
		<tag k="name" v="Finnsrudtjennet" />
=======
	<node id="-318858" lat="59.9096527817" lon="11.9525138897">
		<tag k="name" v="Stutauget" />
>>>>>>> e1d4bc35ff8a6074a6f2e91616a996b547c36f15
		<tag k="natural" v="water" />
		<tag k="ssr:stedsnr" v="794174" />
	</node>
<<<<<<< HEAD
	<node lat="60.00379166350166" lon="12.286155557341477" id="-15908">
		<tag k="name" v="Damtjenn" />
		<tag k="natural" v="water" />
		<tag k="ssr:stedsnr" v="794186" />
	</node>
	<node lat="59.92513055536106" lon="12.045002775845168" id="-15909">
		<tag k="alt_name" v="Vesle Steringstjennet;Stæringen, vesle" />
		<tag k="loc_name" v="Veslestæringen" />
		<tag k="name" v="Vesle Stæringen" />
		<tag k="natural" v="water" />
		<tag k="ssr:stedsnr" v="794305" />
	</node>
	<node lat="59.92369444662508" lon="11.860369437377614" id="-15910">
		<tag k="name" v="Godtjenn" />
		<tag k="natural" v="water" />
		<tag k="ssr:stedsnr" v="794313" />
	</node>
	<node lat="59.997988885152466" lon="11.970988882836338" id="-15914">
		<tag k="name" v="Sætertjennet" />
=======
	<node id="-318857" lat="59.9630222231" lon="12.0876805552">
		<tag k="name" v="Dulpen" />
		<tag k="natural" v="water" />
		<tag k="ssr:stedsnr" v="472750" />
	</node>
	<node id="-318856" lat="59.953366665" lon="11.8063527821">
		<tag k="name" v="Langvika" />
		<tag k="natural" v="bay" />
		<tag k="ssr:stedsnr" v="472737" />
	</node>
	<node id="-318855" lat="59.9441305544" lon="11.8437861117">
		<tag k="name" v="Holtebekken" />
		<tag k="ssr:stedsnr" v="472723" />
		<tag k="waterway" v="stream" />
	</node>
	<node id="-318851" lat="59.9681999959" lon="11.8013944476">
		<tag k="name" v="Sandvika" />
		<tag k="natural" v="bay" />
		<tag k="ssr:stedsnr" v="472588" />
	</node>
	<node id="-318850" lat="60.028572219" lon="11.9310416593">
		<tag k="name" v="Østre Spjuttjennet" />
>>>>>>> e1d4bc35ff8a6074a6f2e91616a996b547c36f15
		<tag k="natural" v="water" />
		<tag k="ssr:stedsnr" v="794377" />
	</node>
<<<<<<< HEAD
	<node lat="59.99878333026387" lon="12.029577780618569" id="-15915">
		<tag k="name" v="Sandbekken" />
		<tag k="ssr:stedsnr" v="794378" />
		<tag k="waterway" v="stream" />
	</node>
	<node lat="59.92019999619564" lon="11.940399994276502" id="-15923">
		<tag k="name" v="Trysjøen" />
=======
	<node id="-320892" lat="59.952672226" lon="11.8011583369">
		<tag k="name" v="Øysjøfossnabben" />
		<tag k="natural" v="cape" />
		<tag k="ssr:stedsnr" v="654618" />
	</node>
	<node id="-320891" lat="59.9199861126" lon="11.8361777794">
		<tag k="name" v="Ljønertjennet" />
>>>>>>> e1d4bc35ff8a6074a6f2e91616a996b547c36f15
		<tag k="natural" v="water" />
		<tag k="ssr:stedsnr" v="915322" />
	</node>
<<<<<<< HEAD
	<node lat="59.96198611326238" lon="11.957208340954674" id="-15931">
		<tag k="name" v="Grusjøen" />
=======
	<node id="-318840" lat="60.099597226" lon="12.1938388883">
		<tag k="alt_name" v="Øyungen;Øyungen, s" />
		<tag k="name" v="Søndre Øyungen" />
>>>>>>> e1d4bc35ff8a6074a6f2e91616a996b547c36f15
		<tag k="natural" v="water" />
		<tag k="ssr:stedsnr" v="915421" />
	</node>
<<<<<<< HEAD
	<node lat="60.08272777440727" lon="11.992250006954272" id="-15939">
		<tag k="name" v="Blandtjennet" />
=======
	<node id="-318838" lat="59.9259500011" lon="11.8152583342">
		<tag k="name" v="Stutøyet" />
>>>>>>> e1d4bc35ff8a6074a6f2e91616a996b547c36f15
		<tag k="natural" v="water" />
		<tag k="ssr:stedsnr" v="915733" />
	</node>
<<<<<<< HEAD
	<node lat="60.013616664178244" lon="12.004772220789025" id="-15945">
		<tag k="name" v="Nordre Hissitjenn" />
=======
	<node id="-318831" lat="59.9907555564" lon="12.3397166612">
		<tag k="name" v="Sæterdulpa" />
>>>>>>> e1d4bc35ff8a6074a6f2e91616a996b547c36f15
		<tag k="natural" v="water" />
		<tag k="ssr:stedsnr" v="915858" />
	</node>
<<<<<<< HEAD
	<node lat="59.97793055549524" lon="11.828397216852128" id="-15948">
		<tag k="name" v="Nordre Hundetjennet" />
		<tag k="natural" v="water" />
		<tag k="ssr:stedsnr" v="915998" />
	</node>
	<node lat="60.05692499961819" lon="11.895405561512167" id="-15949">
		<tag k="name" v="Svarttjennet" />
=======
	<node id="-320876" lat="59.8889361123" lon="12.0533527819">
		<tag k="name" v="Bjuråbekken" />
		<tag k="ssr:stedsnr" v="654552" />
		<tag k="waterway" v="stream" />
	</node>
	<node id="-318825" lat="59.9963527801" lon="11.8916611152">
		<tag k="name" v="Blometjennet" />
>>>>>>> e1d4bc35ff8a6074a6f2e91616a996b547c36f15
		<tag k="natural" v="water" />
		<tag k="ssr:stedsnr" v="916745" />
	</node>
<<<<<<< HEAD
	<node lat="60.01511389149919" lon="12.278949996872766" id="-15952">
		<tag k="name" v="Bjørntjenn" />
		<tag k="natural" v="water" />
		<tag k="ssr:stedsnr" v="916060" />
	</node>
	<node lat="59.941294414521046" lon="12.051624410856629" id="-15956">
		<tag k="fixme" v="multiple name tags, choose one and add the other to alt_name" />
		<tag k="name" v="Aspuntjennet;Asbjørntjenn" />
=======
	<node id="-320870" lat="59.9340972195" lon="11.8466305547">
		<tag k="name" v="Bråtaelva" />
		<tag k="ssr:stedsnr" v="654498" />
		<tag k="waterway" v="river" />
	</node>
	<node id="-320869" lat="60.1042666639" lon="12.0827055594">
		<tag k="name" v="Dulpa" />
>>>>>>> e1d4bc35ff8a6074a6f2e91616a996b547c36f15
		<tag k="natural" v="water" />
		<tag k="ssr:stedsnr" v="916261" />
	</node>
<<<<<<< HEAD
	<node lat="59.91252499915948" lon="12.039583327104319" id="-15957">
		<tag k="name" v="Kulblikneset" />
		<tag k="natural" v="cape" />
		<tag k="ssr:stedsnr" v="916342" />
	</node>
	<node lat="59.945955555991105" lon="11.858144441309022" id="-15961">
		<tag k="name" v="Åbbortjenn" />
		<tag k="natural" v="water" />
		<tag k="ssr:stedsnr" v="916300" />
	</node>
	<node lat="59.89019166894596" lon="11.894413885631653" id="-15970">
		<tag k="name" v="Svervestoltjennet" />
		<tag k="natural" v="water" />
		<tag k="ssr:stedsnr" v="836212" />
	</node>
	<node lat="60.14043055263768" lon="12.141102785834951" id="-15971">
		<tag k="name" v="Oksaugetjennet" />
=======
	<node id="-318820" lat="59.8818666678" lon="11.8815305551">
		<tag k="name" v="Bråtavika" />
		<tag k="natural" v="bay" />
		<tag k="ssr:stedsnr" v="472253" />
	</node>
	<node id="-318816" lat="60.0726222207" lon="12.0542777747">
		<tag k="name" v="Kvernbekken" />
		<tag k="ssr:stedsnr" v="472219" />
		<tag k="waterway" v="stream" />
	</node>
	<node id="-320857" lat="59.9054722267" lon="11.9501777728">
		<tag k="name" v="Vesle Abbortjennet" />
>>>>>>> e1d4bc35ff8a6074a6f2e91616a996b547c36f15
		<tag k="natural" v="water" />
		<tag k="ssr:stedsnr" v="836411" />
	</node>
<<<<<<< HEAD
	<node lat="60.10943611446631" lon="12.08281665921671" id="-15972">
		<tag k="name" v="Eitjennet" />
=======
	<node id="-320497" lat="59.9543666666" lon="11.9657305532">
		<tag k="name" v="Svarttjennbekken" />
		<tag k="ssr:stedsnr" v="412728" />
		<tag k="waterway" v="stream" />
	</node>
	<node id="-320855" lat="59.9098277783" lon="11.9079944499">
		<tag k="name" v="Putten" />
>>>>>>> e1d4bc35ff8a6074a6f2e91616a996b547c36f15
		<tag k="natural" v="water" />
		<tag k="ssr:stedsnr" v="836476" />
	</node>
<<<<<<< HEAD
	<node lat="60.086647225521546" lon="12.019752770909264" id="-15973">
		<tag k="name" v="Ottjennet" />
		<tag k="natural" v="water" />
		<tag k="ssr:stedsnr" v="836477" />
	</node>
	<node lat="59.92777500153357" lon="11.897652785212756" id="-15980">
		<tag k="name" v="Smedøya" />
		<tag k="place" v="island" />
		<tag k="ssr:stedsnr" v="837005" />
	</node>
	<node lat="59.89819721831129" lon="12.050919450341196" id="-15982">
		<tag k="alt_name" v="Hestnes" />
		<tag k="name" v="Hesteneset" />
		<tag k="natural" v="cape" />
		<tag k="ssr:stedsnr" v="837025" />
	</node>
	<node lat="59.90690000219293" lon="12.03538611521741" id="-15983">
		<tag k="name" v="Djupsundøyene" />
		<tag k="place" v="island" />
		<tag k="ssr:stedsnr" v="837029" />
	</node>
	<node lat="59.942041670893076" lon="12.040536109694354" id="-16004">
		<tag k="name" v="Stæringsbekken" />
		<tag k="ssr:stedsnr" v="837411" />
		<tag k="waterway" v="stream" />
	</node>
	<node lat="60.01228889288494" lon="12.201527779461205" id="-16007">
		<tag k="name" v="Delebekken" />
		<tag k="ssr:stedsnr" v="837438" />
		<tag k="waterway" v="stream" />
	</node>
	<node lat="59.9028499979771" lon="11.89419999598973" id="-16017">
		<tag k="name" v="Sandvika" />
		<tag k="natural" v="bay" />
		<tag k="ssr:stedsnr" v="837683" />
	</node>
	<node lat="59.8920277791878" lon="11.8149527832891" id="-16021">
		<tag k="name" v="Vangelva" />
		<tag k="ssr:stedsnr" v="837811" />
		<tag k="waterway" v="river" />
	</node>
	<node lat="59.97268888909502" lon="12.04673610518316" id="-16022">
		<tag k="name" v="Nordre Tobøltjennet" />
=======
	<node id="-318801" lat="59.8983638895" lon="12.1052694504">
		<tag k="name" v="Jensvika" />
		<tag k="natural" v="bay" />
		<tag k="ssr:stedsnr" v="472059" />
	</node>
	<node id="-320847" lat="59.9308444454" lon="11.9096027751">
		<tag k="name" v="Jussienga" />
		<tag k="natural" v="cape" />
		<tag k="ssr:stedsnr" v="654005" />
	</node>
	<node id="-318796" lat="59.9247972215" lon="11.9072222207">
		<tag k="name" v="Erterudneset" />
		<tag k="natural" v="cape" />
		<tag k="ssr:stedsnr" v="472040" />
	</node>
	<node id="-318794" lat="59.9018666682" lon="12.0408027714">
		<tag k="name" v="Orreholmene" />
		<tag k="place" v="islet" />
		<tag k="ssr:stedsnr" v="472027" />
	</node>
	<node id="-320836" lat="60.0478777742" lon="12.089975002">
		<tag k="name" v="Fardintjennet" />
		<tag k="natural" v="water" />
		<tag k="ssr:stedsnr" v="642664" />
	</node>
	<node id="-320835" lat="60.0665833375" lon="11.957119451">
		<tag k="name" v="Søndre Nysætertjennet" />
		<tag k="natural" v="water" />
		<tag k="ssr:stedsnr" v="642160" />
	</node>
	<node id="-318786" lat="59.9048111077" lon="11.809702777">
		<tag k="name" v="Høgåsbekken" />
		<tag k="ssr:stedsnr" v="291520" />
		<tag k="waterway" v="stream" />
	</node>
	<node id="-320831" lat="60.0100138933" lon="11.9386333354">
		<tag k="name" v="Svarttjennet" />
		<tag k="natural" v="water" />
		<tag k="ssr:stedsnr" v="612870" />
	</node>
	<node id="-318780" lat="59.9381777744" lon="12.2035083298">
		<tag k="name" v="Gamleelva" />
		<tag k="ssr:stedsnr" v="290862" />
		<tag k="waterway" v="river" />
	</node>
	<node id="-320822" lat="60.0563472239" lon="11.999119438">
		<tag k="name" v="Besseputten" />
>>>>>>> e1d4bc35ff8a6074a6f2e91616a996b547c36f15
		<tag k="natural" v="water" />
		<tag k="ssr:stedsnr" v="837812" />
	</node>
<<<<<<< HEAD
	<node lat="60.061047221949394" lon="12.242972219174572" id="-16027">
		<tag k="name" v="Gorrtjenn" />
=======
	<node id="-320820" lat="60.0265499986" lon="11.9493027822">
		<tag k="name" v="Knattjennet" />
>>>>>>> e1d4bc35ff8a6074a6f2e91616a996b547c36f15
		<tag k="natural" v="water" />
		<tag k="ssr:stedsnr" v="855102" />
	</node>
<<<<<<< HEAD
	<node lat="59.99829167019624" lon="11.90132500125411" id="-16032">
		<tag k="name" v="Blekktjennet" />
		<tag k="natural" v="water" />
		<tag k="ssr:stedsnr" v="855390" />
	</node>
	<node lat="59.998355555750855" lon="11.927683327811588" id="-16033">
		<tag k="name" v="Kverntjenn" />
		<tag k="natural" v="water" />
		<tag k="ssr:stedsnr" v="855391" />
	</node>
	<node lat="59.95864444820569" lon="12.083519451253744" id="-16035">
		<tag k="name" v="Langtjenn" />
		<tag k="natural" v="water" />
		<tag k="ssr:stedsnr" v="855297" />
	</node>
	<node lat="60.11706944175609" lon="12.115299991572757" id="-16039">
		<tag k="name" v="Ringtjennet" />
		<tag k="natural" v="water" />
		<tag k="ssr:stedsnr" v="855488" />
	</node>
	<node lat="60.063301026168396" lon="12.061125846685833" id="-16041">
		<tag k="name" v="Hornsjøen" />
		<tag k="natural" v="water" />
		<tag k="ssr:stedsnr" v="855735" />
		<tag k="water" v="lake" />
	</node>
	<node lat="60.05230833329228" lon="11.913649997693675" id="-16042">
		<tag k="name" v="Blekktjennet" />
=======
	<node id="-318762" lat="59.9244611153" lon="11.8987888969">
		<tag k="name" v="Haukøya" />
		<tag k="place" v="island" />
		<tag k="ssr:stedsnr" v="290003" />
	</node>
	<node id="-318761" lat="60.0090499969" lon="12.3009305469">
		<tag k="name" v="Billingsøelva" />
		<tag k="ssr:stedsnr" v="461944" />
		<tag k="waterway" v="river" />
	</node>
	<node id="-318756" lat="60.0462749979" lon="11.9827999998">
		<tag k="name" v="Sandbekken" />
		<tag k="ssr:stedsnr" v="248632" />
		<tag k="waterway" v="stream" />
	</node>
	<node id="-318747" lat="59.9120000032" lon="11.8683361175">
		<tag k="name" v="Buvika" />
		<tag k="natural" v="bay" />
		<tag k="ssr:stedsnr" v="230706" />
	</node>
	<node id="-318742" lat="59.8729250017" lon="11.9018944464">
		<tag k="name" v="Karterudneset" />
		<tag k="natural" v="cape" />
		<tag k="ssr:stedsnr" v="230517" />
	</node>
	<node id="-318741" lat="60.0177166674" lon="12.0224388916">
		<tag k="name" v="Dulpen" />
>>>>>>> e1d4bc35ff8a6074a6f2e91616a996b547c36f15
		<tag k="natural" v="water" />
		<tag k="ssr:stedsnr" v="855738" />
	</node>
<<<<<<< HEAD
	<node lat="60.0542805585217" lon="11.939255559352471" id="-16043">
		<tag k="alt_name" v="Skjølungen, store;Store Skjølungen" />
		<tag k="name" v="Skjølungen" />
=======
	<node id="-320788" lat="60.0134555517" lon="12.2425111081">
		<tag k="name" v="Igletjennet" />
>>>>>>> e1d4bc35ff8a6074a6f2e91616a996b547c36f15
		<tag k="natural" v="water" />
		<tag k="ssr:stedsnr" v="855739" />
	</node>
<<<<<<< HEAD
	<node lat="60.01468055340606" lon="11.855936114731186" id="-16047">
		<tag k="name" v="Aurtjennet" />
=======
	<node id="-320785" lat="60.0815277754" lon="12.1424694506">
		<tag k="name" v="Kolstadtjennet" />
>>>>>>> e1d4bc35ff8a6074a6f2e91616a996b547c36f15
		<tag k="natural" v="water" />
		<tag k="ssr:stedsnr" v="855884" />
	</node>
<<<<<<< HEAD
	<node lat="60.08517777404134" lon="12.236625001507132" id="-16048">
		<tag k="name" v="Fjølungen" />
		<tag k="natural" v="water" />
		<tag k="ssr:stedsnr" v="855902" />
	</node>
	<node lat="59.90011388600131" lon="11.909886108898474" id="-16050">
		<tag k="name" v="Bekketjennet" />
		<tag k="natural" v="water" />
		<tag k="ssr:stedsnr" v="886661" />
	</node>
	<node lat="60.04176389217104" lon="12.249930556997592" id="-16055">
		<tag k="name" v="Hundedølpa" />
=======
	<node id="-318731" lat="59.9116388845" lon="12.0967972232">
		<tag k="name" v="Tilbruvika" />
		<tag k="natural" v="bay" />
		<tag k="ssr:stedsnr" v="229914" />
	</node>
	<node id="-318726" lat="60.0124777771" lon="11.8364166679">
		<tag k="name" v="Skålåa" />
		<tag k="ssr:stedsnr" v="229709" />
		<tag k="waterway" v="river" />
	</node>
	<node id="-318725" lat="59.9907555552" lon="11.8647305481">
		<tag k="loc_name" v="Tjennsmotjennet" />
		<tag k="name" v="Kjensmotjennet" />
>>>>>>> e1d4bc35ff8a6074a6f2e91616a996b547c36f15
		<tag k="natural" v="water" />
		<tag k="ssr:stedsnr" v="897108" />
		<tag k="water" v="pond" />
	</node>
<<<<<<< HEAD
	<node lat="59.9294555561941" lon="11.902327786531881" id="-16060">
		<tag k="name" v="Ljønervika" />
=======
	<node id="-320768" lat="59.9346083294" lon="11.8352194523">
		<tag k="name" v="Vintervika" />
>>>>>>> e1d4bc35ff8a6074a6f2e91616a996b547c36f15
		<tag k="natural" v="bay" />
		<tag k="ssr:stedsnr" v="897260" />
	</node>
<<<<<<< HEAD
	<node lat="59.88385555906341" lon="11.915052778066652" id="-16062">
		<tag k="name" v="Juliavika" />
		<tag k="natural" v="bay" />
		<tag k="ssr:stedsnr" v="897504" />
	</node>
	<node lat="59.88199444822851" lon="11.915397226306943" id="-16063">
		<tag k="name" v="Isakvika" />
		<tag k="natural" v="bay" />
		<tag k="ssr:stedsnr" v="897505" />
	</node>
	<node lat="59.84775555150665" lon="11.853583332112155" id="-16070">
		<tag k="name" v="Vesle Hynnetjennet" />
		<tag k="natural" v="water" />
		<tag k="ssr:stedsnr" v="897665" />
	</node>
	<node lat="59.89126110924142" lon="11.84790000268296" id="-16071">
		<tag k="name" v="Storelangtjennet" />
		<tag k="natural" v="water" />
		<tag k="ssr:stedsnr" v="897666" />
	</node>
	<node lat="59.896152773675105" lon="12.158275001400764" id="-16082">
		<tag k="name" v="Åtjennet" />
=======
	<node id="-318677" lat="59.9348416647" lon="11.97452222">
		<tag k="name" v="Delbekk" />
		<tag k="ssr:stedsnr" v="290992" />
		<tag k="waterway" v="stream" />
	</node>
	<node id="-318714" lat="59.9294055556" lon="12.013980553">
		<tag k="name" v="Øverbyvika" />
		<tag k="natural" v="bay" />
		<tag k="ssr:stedsnr" v="229055" />
	</node>
	<node id="-318712" lat="59.9177138908" lon="11.88909167">
		<tag k="name" v="Kjelviknabben" />
		<tag k="natural" v="cape" />
		<tag k="ssr:stedsnr" v="229015" />
	</node>
	<node id="-318705" lat="59.9538666698" lon="11.8897361199">
		<tag k="name" v="Mærrabekken" />
		<tag k="ssr:stedsnr" v="291680" />
		<tag k="waterway" v="stream" />
	</node>
	<node id="-320752" lat="59.8919027748" lon="11.8439916665">
		<tag k="name" v="Veslelangtjennet" />
		<tag k="natural" v="water" />
		<tag k="ssr:stedsnr" v="593934" />
	</node>
	<node id="-320751" lat="59.9475749978" lon="11.9814222169">
		<tag k="name" v="Atthaldsdammen" />
		<tag k="ssr:stedsnr" v="593929" />
		<tag k="waterway" v="dam" />
	</node>
	<node id="-320747" lat="60.0561805561" lon="11.9721638948">
		<tag k="name" v="Høgputten" />
		<tag k="natural" v="water" />
		<tag k="ssr:stedsnr" v="593888" />
		<tag k="water" v="pond" />
	</node>
	<node id="-318692" lat="59.9941944453" lon="11.8285444525">
		<tag k="name" v="Jutulbrua" />
		<tag k="place" v="island" />
		<tag k="ssr:stedsnr" v="291269" />
	</node>
	<node id="-320739" lat="59.9474083331" lon="11.9102500004">
		<tag k="name" v="Frautjennet" />
		<tag k="natural" v="water" />
		<tag k="ssr:stedsnr" v="593833" />
	</node>
	<node id="-320737" lat="59.9505722233" lon="12.2958500017">
		<tag k="name" v="Svenskevika" />
		<tag k="natural" v="bay" />
		<tag k="ssr:stedsnr" v="593816" />
	</node>
	<node id="-320736" lat="59.9751194421" lon="12.3145472133">
		<tag k="name" v="Stråtjennbekken" />
		<tag k="ssr:stedsnr" v="593802" />
		<tag k="waterway" v="stream" />
	</node>
	<node id="-320729" lat="59.9764833359" lon="11.8318583418">
		<tag k="name" v="Igleputten" />
>>>>>>> e1d4bc35ff8a6074a6f2e91616a996b547c36f15
		<tag k="natural" v="water" />
		<tag k="ssr:stedsnr" v="915126" />
	</node>
<<<<<<< HEAD
	<node lat="60.09120555484274" lon="12.181494435482719" id="-16093">
		<tag k="name" v="Merstjennet" />
=======
	<node id="-320728" lat="59.9625444413" lon="11.8242500064">
		<tag k="name" v="Høglitjennet" />
>>>>>>> e1d4bc35ff8a6074a6f2e91616a996b547c36f15
		<tag k="natural" v="water" />
		<tag k="ssr:stedsnr" v="915720" />
	</node>
<<<<<<< HEAD
	<node lat="60.03260000137573" lon="12.223683327313504" id="-16100">
		<tag k="name" v="Aursjøbekken" />
		<tag k="ssr:stedsnr" v="916021" />
		<tag k="waterway" v="stream" />
	</node>
	<node lat="60.05716587289881" lon="12.045741594580877" id="-16112">
		<tag k="fixme" v="multiple name tags, choose one and add the other to alt_name" />
		<tag k="name" v="Sandmotjennet;Hauketjennet" />
=======
	<node id="-318679" lat="59.8748944404" lon="11.8555055503">
		<tag k="name" v="Domsjørka" />
		<tag k="ssr:stedsnr" v="290998" />
		<tag k="waterway" v="stream" />
	</node>
	<node id="-318678" lat="59.8489361136" lon="11.8572999979">
		<tag k="name" v="Svarttjennet" />
>>>>>>> e1d4bc35ff8a6074a6f2e91616a996b547c36f15
		<tag k="natural" v="water" />
		<tag k="ssr:stedsnr" v="916686" />
	</node>
<<<<<<< HEAD
	<node lat="59.9414694403343" lon="11.921827774428552" id="-16113">
		<tag k="alt_name" v="Stor-Åbbortjennet;Vesle Åbbortjennet" />
		<tag k="name" v="Åbbortjenna" />
=======
	<node id="-320725" lat="59.8922111096" lon="11.8416611046">
		<tag k="name" v="Mellemlangtjennet" />
>>>>>>> e1d4bc35ff8a6074a6f2e91616a996b547c36f15
		<tag k="natural" v="water" />
		<tag k="ssr:stedsnr" v="933193" />
		<tag k="water" v="lake" />
	</node>
<<<<<<< HEAD
	<node lat="60.081327779874755" lon="12.164052780949852" id="-16126">
		<tag k="name" v="Bråtaåa" />
		<tag k="ssr:stedsnr" v="958148" />
		<tag k="waterway" v="river" />
	</node>
	<node lat="59.92078888831141" lon="11.90877778364265" id="-16128">
		<tag k="name" v="Langneset" />
=======
	<node id="-320723" lat="59.8881750018" lon="11.9347861141">
		<tag k="name" v="Rudsvika" />
		<tag k="natural" v="bay" />
		<tag k="ssr:stedsnr" v="593632" />
	</node>
	<node id="-318669" lat="59.9223333365" lon="11.8620222219">
		<tag k="name" v="Stornesnabben" />
>>>>>>> e1d4bc35ff8a6074a6f2e91616a996b547c36f15
		<tag k="natural" v="cape" />
		<tag k="ssr:stedsnr" v="958015" />
	</node>
<<<<<<< HEAD
	<node lat="59.89770833163192" lon="12.046524995910147" id="-16129">
		<tag k="name" v="Bjellneset" />
		<tag k="natural" v="cape" />
		<tag k="ssr:stedsnr" v="958023" />
	</node>
	<node lat="59.96504722632539" lon="12.147647218531219" id="-16131">
		<tag k="name" v="Korsåsbekken" />
		<tag k="ssr:stedsnr" v="958035" />
		<tag k="waterway" v="stream" />
	</node>
	<node lat="59.91411666574024" lon="12.034486108588792" id="-16138">
		<tag k="name" v="Kulbliknesvika" />
		<tag k="natural" v="bay" />
		<tag k="ssr:stedsnr" v="958339" />
	</node>
	<node lat="59.94045833565052" lon="11.859583339344766" id="-16156">
		<tag k="name" v="Martetjennet" />
		<tag k="natural" v="water" />
		<tag k="ssr:stedsnr" v="958741" />
	</node>
	<node lat="60.09159444208327" lon="12.247511102239361" id="-16157">
		<tag k="name" v="Gunnarsengbekken" />
		<tag k="ssr:stedsnr" v="958786" />
		<tag k="waterway" v="stream" />
	</node>
	<node lat="60.04468888593211" lon="11.852774996728552" id="-16159">
		<tag k="name" v="Dam" />
		<tag k="ssr:stedsnr" v="958702" />
		<tag k="waterway" v="dam" />
	</node>
	<node lat="59.90972499703649" lon="11.972922228986084" id="-16168">
		<tag k="name" v="Damtjennet" />
		<tag k="natural" v="water" />
		<tag k="ssr:stedsnr" v="229025" />
	</node>
	<node lat="59.94991944683237" lon="12.12219445107849" id="-16170">
		<tag k="name" v="Sagdalsbekken" />
		<tag k="ssr:stedsnr" v="229047" />
		<tag k="waterway" v="stream" />
	</node>
	<node lat="59.92940555561684" lon="12.013980552997454" id="-16172">
		<tag k="name" v="Øverbyvika" />
		<tag k="natural" v="bay" />
		<tag k="ssr:stedsnr" v="229055" />
	</node>
	<node lat="59.90463297227486" lon="11.844004550524895" id="-16175">
		<tag k="name" v="Stor-Åbbortjennet" />
=======
	<node id="-318668" lat="60.0267690528" lon="11.9270401233">
		<tag k="name" v="Vestre Spjuttjennet" />
		<tag k="natural" v="water" />
		<tag k="ssr:stedsnr" v="290522" />
	</node>
	<node id="-318664" lat="59.9181472238" lon="11.8633972184">
		<tag k="name" v="Steinbekken" />
		<tag k="ssr:stedsnr" v="290691" />
		<tag k="waterway" v="stream" />
	</node>
	<node id="-318662" lat="59.9321666658" lon="11.8665805519">
		<tag k="name" v="Søndre Kisviktjennet" />
		<tag k="natural" v="water" />
		<tag k="ssr:stedsnr" v="290682" />
	</node>
	<node id="-318660" lat="59.8743111092" lon="11.8843388875">
		<tag k="name" v="Krokfossdammen" />
		<tag k="ssr:stedsnr" v="290491" />
		<tag k="waterway" v="dam" />
	</node>
	<node id="-318653" lat="59.8996138855" lon="12.1077805509">
		<tag k="name" v="Langodden" />
		<tag k="natural" v="cape" />
		<tag k="ssr:stedsnr" v="290340" />
	</node>
	<node id="-318649" lat="59.8721333335" lon="11.8829416641">
		<tag k="name" v="Hesteøya" />
		<tag k="place" v="island" />
		<tag k="ssr:stedsnr" v="290250" />
	</node>
	<node id="-320695" lat="59.9057750037" lon="12.0471333395">
		<tag k="name" v="Movika" />
		<tag k="natural" v="bay" />
		<tag k="ssr:stedsnr" v="593297" />
	</node>
	<node id="-318644" lat="60.0580416707" lon="12.1322472177">
		<tag k="name" v="Sandnesbekken" />
		<tag k="ssr:stedsnr" v="290386" />
		<tag k="waterway" v="stream" />
	</node>
	<node id="-320691" lat="59.9841583337" lon="12.2644916639">
		<tag k="name" v="Opptjennkjeften" />
		<tag k="natural" v="bay" />
		<tag k="ssr:stedsnr" v="593177" />
	</node>
	<node id="-318637" lat="59.9135000003" lon="12.0437666599">
		<tag k="name" v="Svartvika" />
		<tag k="natural" v="bay" />
		<tag k="ssr:stedsnr" v="290050" />
	</node>
	<node id="-320678" lat="59.9216666689" lon="11.9228833279">
		<tag k="name" v="Akkevika" />
		<tag k="natural" v="bay" />
		<tag k="ssr:stedsnr" v="593052" />
	</node>
	<node id="-318627" lat="59.8932055579" lon="12.1122666717">
		<tag k="name" v="Jensøya" />
		<tag k="place" v="island" />
		<tag k="ssr:stedsnr" v="290068" />
	</node>
	<node id="-320667" lat="60.0815833294" lon="11.9378805484">
		<tag k="name" v="Fløytene" />
>>>>>>> e1d4bc35ff8a6074a6f2e91616a996b547c36f15
		<tag k="natural" v="water" />
		<tag k="ssr:stedsnr" v="4220" />
	</node>
<<<<<<< HEAD
	<node lat="59.8839722179755" lon="11.920022220113394" id="-16186">
		<tag k="name" v="Tannsjøen" />
		<tag k="natural" v="water" />
		<tag k="ssr:stedsnr" v="5139" />
		<tag k="water" v="lake" />
	</node>
	<node lat="59.90377777750757" lon="11.911941674371247" id="-16187">
		<tag k="name" v="Søndre Emtjenn" />
=======
	<node id="-318618" lat="60.0353611122" lon="11.8539277821">
		<tag k="name" v="Delebekken" />
		<tag k="ssr:stedsnr" v="169707" />
		<tag k="waterway" v="stream" />
	</node>
	<node id="-320661" lat="60.0391826493" lon="11.8951453365">
		<tag k="alt_name" v="Steinøysjøen" />
		<tag k="name" v="Steineia" />
>>>>>>> e1d4bc35ff8a6074a6f2e91616a996b547c36f15
		<tag k="natural" v="water" />
		<tag k="ssr:stedsnr" v="5157" />
	</node>
<<<<<<< HEAD
	<node lat="59.95426666973996" lon="12.243433328681833" id="-16188">
		<tag k="name" v="Veksa" />
		<tag k="ssr:stedsnr" v="5226" />
		<tag k="waterway" v="river" />
	</node>
	<node lat="59.99518055904337" lon="12.271652776433308" id="-16189">
		<tag k="name" v="Tremannsdolpa" />
=======
	<node id="-318612" lat="60.0362805566" lon="11.8835111049">
		<tag k="name" v="Vestre Sundtjennet" />
		<tag k="natural" v="water" />
		<tag k="ssr:stedsnr" v="169315" />
	</node>
	<node id="-320659" lat="60.0398499974" lon="11.9969027735">
		<tag k="name" v="Mikkelstjennet" />
>>>>>>> e1d4bc35ff8a6074a6f2e91616a996b547c36f15
		<tag k="natural" v="water" />
		<tag k="ssr:stedsnr" v="5241" />
	</node>
<<<<<<< HEAD
	<node lat="59.958052776675494" lon="11.914477780843248" id="-16194">
		<tag k="name" v="Østre Mortkjøltjennet" />
=======
	<node id="-320658" lat="60.0469833305" lon="11.8915138937">
		<tag k="name" v="Struttjennet" />
>>>>>>> e1d4bc35ff8a6074a6f2e91616a996b547c36f15
		<tag k="natural" v="water" />
		<tag k="ssr:stedsnr" v="5300" />
	</node>
<<<<<<< HEAD
	<node lat="60.07493332950903" lon="11.974830550506427" id="-16210">
		<tag k="name" v="Helledammen" />
		<tag k="natural" v="water" />
		<tag k="ssr:stedsnr" v="5677" />
	</node>
	<node lat="60.10193611374777" lon="12.090905551102354" id="-16211">
		<tag k="name" v="Damtjennet" />
		<tag k="natural" v="water" />
		<tag k="ssr:stedsnr" v="5694" />
	</node>
	<node lat="59.994913891681094" lon="11.835147226775078" id="-16215">
		<tag k="name" v="Havsjøen" />
=======
	<node id="-320656" lat="60.0172777763" lon="11.9509138896">
		<tag k="name" v="Sætertjennet" />
		<tag k="natural" v="water" />
		<tag k="ssr:stedsnr" v="551651" />
	</node>
	<node id="-320653" lat="60.0351638908" lon="11.9880527867">
		<tag k="name" v="Nauttjennsbekken" />
		<tag k="ssr:stedsnr" v="551623" />
		<tag k="waterway" v="stream" />
	</node>
	<node id="-320649" lat="59.9790333352" lon="12.0142833346">
		<tag k="name" v="Grunntjennet" />
		<tag k="natural" v="water" />
		<tag k="ssr:stedsnr" v="551480" />
	</node>
	<node id="-318598" lat="59.899461112" lon="11.8824666654">
		<tag k="alt_name" v="Dypsundet" />
		<tag k="name" v="Djupsundet" />
		<tag k="natural" v="strait" />
		<tag k="ssr:stedsnr" v="109638" />
	</node>
	<node id="-320363" lat="59.9002249978" lon="12.0936194371">
		<tag k="name" v="Perkerudtjennet" />
		<tag k="natural" v="water" />
		<tag k="ssr:stedsnr" v="369154" />
	</node>
	<node id="-318589" lat="60.049119446" lon="11.9273638914">
		<tag k="name" v="Pengtjennet" />
>>>>>>> e1d4bc35ff8a6074a6f2e91616a996b547c36f15
		<tag k="natural" v="water" />
		<tag k="ssr:stedsnr" v="5953" />
		<tag k="water" v="lake" />
	</node>
<<<<<<< HEAD
	<node lat="59.90236266635736" lon="12.181306055401498" id="-16218">
=======
	<node id="-320631" lat="59.9550388851" lon="11.9334083359">
>>>>>>> e1d4bc35ff8a6074a6f2e91616a996b547c36f15
		<tag k="fixme" v="multiple name tags, choose one and add the other to alt_name" />
		<tag k="name" v="Østre Åbbortjennet;Åbbortjenn" />
		<tag k="natural" v="water" />
<<<<<<< HEAD
		<tag k="ssr:stedsnr" v="6196" />
	</node>
	<node lat="60.04903585632097" lon="11.826435495952905" id="-16221">
		<tag k="alt_name" v="Possetjennet" />
		<tag k="name" v="Frosketjennet" />
=======
		<tag k="ssr:stedsnr" v="551309" />
	</node>
	<node id="-320629" lat="59.9555749967" lon="12.0497638811">
		<tag k="name" v="Stangnesstranda" />
		<tag k="natural" v="beach" />
		<tag k="ssr:stedsnr" v="551303" />
	</node>
	<node id="-320628" lat="59.9500250006" lon="11.8928388843">
		<tag k="name" v="Damtjenn" />
>>>>>>> e1d4bc35ff8a6074a6f2e91616a996b547c36f15
		<tag k="natural" v="water" />
		<tag k="ssr:stedsnr" v="6566" />
	</node>
<<<<<<< HEAD
	<node lat="60.006747218060035" lon="12.29206111222508" id="-16230">
		<tag k="name" v="Kvernbekken" />
		<tag k="ssr:stedsnr" v="47131" />
		<tag k="waterway" v="stream" />
	</node>
	<node lat="59.98685278058462" lon="12.26402777963712" id="-16235">
		<tag k="name" v="Kauservåka" />
		<tag k="natural" v="cape" />
		<tag k="ssr:stedsnr" v="47196" />
	</node>
	<node lat="59.934147225089355" lon="11.86398332737321" id="-16236">
		<tag k="name" v="Nordre Kisviktjennet" />
=======
	<node id="-318579" lat="60.1021422459" lon="12.2726709713">
		<tag k="name" v="Vestre Holvatnet" />
		<tag k="natural" v="water" />
		<tag k="ssr:stedsnr" v="248926" />
		<tag k="water" v="lake" />
	</node>
	<node id="-320624" lat="59.9343777814" lon="12.0340666659">
		<tag k="alt_name" v="Steringstjennet;Stæringen, store" />
		<tag k="name" v="Store Stæringen" />
		<tag k="natural" v="water" />
		<tag k="ssr:stedsnr" v="551261" />
	</node>
	<node id="-318574" lat="60.0807333305" lon="11.9313388941">
		<tag k="name" v="Eggetjennet" />
>>>>>>> e1d4bc35ff8a6074a6f2e91616a996b547c36f15
		<tag k="natural" v="water" />
		<tag k="ssr:stedsnr" v="47281" />
	</node>
<<<<<<< HEAD
	<node lat="59.97239722604053" lon="12.326063888677478" id="-16250">
		<tag k="name" v="Nottjennbekken" />
		<tag k="ssr:stedsnr" v="47163" />
		<tag k="waterway" v="stream" />
	</node>
	<node lat="60.04316389236564" lon="12.037372225548893" id="-16254">
		<tag k="name" v="Fjellåa" />
		<tag k="old_name" v="Fjeldåa" />
		<tag k="ssr:stedsnr" v="47351" />
		<tag k="waterway" v="river" />
	</node>
	<node lat="59.87686666916571" lon="11.823861115852964" id="-16255">
		<tag k="name" v="Skjærtjennvika" />
		<tag k="natural" v="bay" />
		<tag k="ssr:stedsnr" v="47456" />
	</node>
	<node lat="59.89395555505256" lon="12.124497219617126" id="-16266">
		<tag k="name" v="Linnatjennet" />
		<tag k="natural" v="water" />
		<tag k="ssr:stedsnr" v="48059" />
	</node>
	<node lat="59.97373888659342" lon="11.882950008558629" id="-16286">
		<tag k="name" v="Vestre Støtjennet" />
=======
	<node id="-320619" lat="59.893346451" lon="11.8266788525">
		<tag k="loc_name" v="Krokskjølungen" />
		<tag k="name" v="Kroksjølungen" />
		<tag k="natural" v="water" />
		<tag k="ssr:stedsnr" v="551204" />
		<tag k="water" v="lake" />
	</node>
	<node id="-320618" lat="60.0113416625" lon="12.3188833286">
		<tag k="name" v="Butjenndolpa" />
		<tag k="natural" v="water" />
		<tag k="ssr:stedsnr" v="551201" />
	</node>
	<node id="-320617" lat="59.9059138855" lon="11.9059944387">
		<tag k="name" v="Vestre Emtjenn" />
		<tag k="natural" v="water" />
		<tag k="ssr:stedsnr" v="551172" />
	</node>
	<node id="-320616" lat="59.9012861087" lon="11.8826416651">
		<tag k="name" v="Djupsundnabben" />
		<tag k="natural" v="cape" />
		<tag k="ssr:stedsnr" v="551169" />
	</node>
	<node id="-318567" lat="60.0337978857" lon="11.9635718141">
		<tag k="fixme" v="multiple name tags, choose one and add the other to alt_name" />
		<tag k="name" v="Syltedalstjennet;Store Gjeddetjenn" />
>>>>>>> e1d4bc35ff8a6074a6f2e91616a996b547c36f15
		<tag k="natural" v="water" />
		<tag k="ssr:stedsnr" v="48258" />
	</node>
<<<<<<< HEAD
	<node lat="60.01088055354943" lon="12.051941670971175" id="-16288">
		<tag k="name" v="Rødbergstjennet" />
=======
	<node id="-320614" lat="59.8848222245" lon="11.8574333408">
		<tag k="name" v="Steintjenn" />
>>>>>>> e1d4bc35ff8a6074a6f2e91616a996b547c36f15
		<tag k="natural" v="water" />
		<tag k="ssr:stedsnr" v="48491" />
	</node>
<<<<<<< HEAD
	<node lat="59.9419027736799" lon="12.029155561298397" id="-16290">
		<tag k="name" v="Krabbetjennet" />
=======
	<node id="-318562" lat="60.0384555534" lon="12.1740666613">
		<tag k="name" v="Humletjenn" />
>>>>>>> e1d4bc35ff8a6074a6f2e91616a996b547c36f15
		<tag k="natural" v="water" />
		<tag k="ssr:stedsnr" v="48495" />
	</node>
<<<<<<< HEAD
	<node lat="60.03371944778455" lon="11.886936118404465" id="-16291">
		<tag k="name" v="Søndre Sundtjennet" />
=======
	<node id="-318560" lat="60.0640527767" lon="11.8326444408">
		<tag k="name" v="Svarttjenn" />
>>>>>>> e1d4bc35ff8a6074a6f2e91616a996b547c36f15
		<tag k="natural" v="water" />
		<tag k="ssr:stedsnr" v="48639" />
	</node>
<<<<<<< HEAD
	<node lat="59.95383332905153" lon="11.964155563013499" id="-16303">
		<tag k="name" v="Søndre Svarttjennet" />
		<tag k="natural" v="water" />
		<tag k="ssr:stedsnr" v="48753" />
	</node>
	<node lat="59.86830833170256" lon="11.829341659888081" id="-16314">
		<tag k="name" v="Vesle Skjærtjennet" />
		<tag k="natural" v="water" />
		<tag k="ssr:stedsnr" v="59164" />
	</node>
	<node lat="59.893549997339306" lon="12.039188884150116" id="-16317">
		<tag k="alt_name" v="Hansøya" />
		<tag k="name" v="Ingelsrudøya" />
		<tag k="place" v="islet" />
		<tag k="ssr:stedsnr" v="66183" />
	</node>
	<node lat="59.993030555108284" lon="11.917061118897415" id="-16322">
		<tag k="name" v="Kampetjenn" />
=======
	<node id="-320604" lat="59.9181861082" lon="11.8823694515">
		<tag k="name" v="Vestre Kjelvika" />
		<tag k="natural" v="bay" />
		<tag k="ssr:stedsnr" v="533747" />
	</node>
	<node id="-320598" lat="60.03363611" lon="12.0436694455">
		<tag k="name" v="Sluffedammen" />
		<tag k="ssr:stedsnr" v="533534" />
		<tag k="waterway" v="dam" />
	</node>
	<node id="-318990" lat="60.0603500006" lon="12.2308249995">
		<tag k="alt_name" v="Store Baksjøen" />
		<tag k="name" v="Baksjøen" />
		<tag k="natural" v="water" />
		<tag k="ssr:stedsnr" v="431605" />
		<tag k="water" v="lake" />
	</node>
	<node id="-320593" lat="59.9415555531" lon="11.826719443">
		<tag k="name" v="Langodden" />
		<tag k="natural" v="cape" />
		<tag k="ssr:stedsnr" v="533485" />
	</node>
	<node id="-320592" lat="60.0505361153" lon="11.8815333395">
		<tag k="name" v="Slirtjennet" />
>>>>>>> e1d4bc35ff8a6074a6f2e91616a996b547c36f15
		<tag k="natural" v="water" />
		<tag k="ssr:stedsnr" v="66380" />
	</node>
<<<<<<< HEAD
	<node lat="59.99748055941435" lon="11.993777779657165" id="-16323">
		<tag k="name" v="Knattbekken" />
		<tag k="ssr:stedsnr" v="66382" />
		<tag k="waterway" v="stream" />
	</node>
	<node lat="60.02370278124337" lon="12.221669444598158" id="-16328">
		<tag k="name" v="Eiketjennbekken" />
		<tag k="ssr:stedsnr" v="66033" />
		<tag k="waterway" v="stream" />
	</node>
	<node lat="60.01840278243884" lon="12.251002771104094" id="-16334">
		<tag k="name" v="Ristjennet" />
=======
	<node id="-318543" lat="59.9216527735" lon="11.9204499965">
		<tag k="name" v="Akkevika" />
		<tag k="natural" v="bay" />
		<tag k="ssr:stedsnr" v="248322" />
	</node>
	<node id="-318542" lat="59.9211250027" lon="11.8817499946">
		<tag k="name" v="Buåsvika" />
		<tag k="natural" v="bay" />
		<tag k="ssr:stedsnr" v="248321" />
	</node>
	<node id="-320589" lat="60.0356972265" lon="12.3114833351">
		<tag k="name" v="Vestre Åstjenn" />
>>>>>>> e1d4bc35ff8a6074a6f2e91616a996b547c36f15
		<tag k="natural" v="water" />
		<tag k="ssr:stedsnr" v="66054" />
	</node>
<<<<<<< HEAD
	<node lat="60.05388439176937" lon="11.97283448676462" id="-16338">
		<tag k="fixme" v="multiple name tags, choose one and add the other to alt_name" />
		<tag k="name" v="Høgmyrtjennet;Nauttjennet" />
=======
	<node id="-318540" lat="59.9214638906" lon="11.9925388938">
		<tag k="name" v="Klanderudtjennet" />
>>>>>>> e1d4bc35ff8a6074a6f2e91616a996b547c36f15
		<tag k="natural" v="water" />
		<tag k="ssr:stedsnr" v="66650" />
	</node>
<<<<<<< HEAD
	<node lat="60.0463361096738" lon="12.138688885153968" id="-16340">
		<tag k="name" v="Motjennet" />
		<tag k="natural" v="water" />
		<tag k="ssr:stedsnr" v="66661" />
	</node>
	<node lat="59.95344910656185" lon="11.924698169811004" id="-16359">
		<tag k="name" v="Vestre Holmtjennet" />
=======
	<node id="-318532" lat="59.9940944469" lon="12.3466027692">
		<tag k="name" v="Sætertjennet" />
		<tag k="natural" v="water" />
		<tag k="ssr:stedsnr" v="248243" />
	</node>
	<node id="-320573" lat="59.9327833337" lon="11.8259444372">
		<tag k="name" v="Sandvika" />
		<tag k="natural" v="bay" />
		<tag k="ssr:stedsnr" v="533466" />
	</node>
	<node id="-318510" lat="59.9086416648" lon="11.9212083271">
		<tag k="name" v="Store Emtjenn" />
>>>>>>> e1d4bc35ff8a6074a6f2e91616a996b547c36f15
		<tag k="natural" v="water" />
		<tag k="ssr:stedsnr" v="100598" />
	</node>
<<<<<<< HEAD
	<node lat="59.997755556870835" lon="12.111147230342969" id="-16366">
		<tag k="name" v="Okseøyet" />
=======
	<node id="-320550" lat="60.0073027767" lon="12.0521388947">
		<tag k="name" v="Ålsjøen" />
>>>>>>> e1d4bc35ff8a6074a6f2e91616a996b547c36f15
		<tag k="natural" v="water" />
		<tag k="ssr:stedsnr" v="108526" />
		<tag k="water" v="pond" />
	</node>
<<<<<<< HEAD
	<node lat="59.894877778447295" lon="12.109244441473157" id="-16372">
		<tag k="name" v="Ropartangen" />
		<tag k="natural" v="cape" />
		<tag k="ssr:stedsnr" v="108063" />
	</node>
	<node lat="60.072391668129825" lon="12.144472228633191" id="-16381">
		<tag k="name" v="Trunnebekken" />
		<tag k="ssr:stedsnr" v="108218" />
		<tag k="waterway" v="river" />
	</node>
	<node lat="59.92180277687294" lon="12.042686111768004" id="-16387">
		<tag k="name" v="Svartvikbekken" />
		<tag k="ssr:stedsnr" v="108328" />
		<tag k="waterway" v="stream" />
	</node>
	<node lat="59.89876944702992" lon="12.020702779365664" id="-16389">
		<tag k="name" v="Kutjennet" />
=======
	<node id="-318500" lat="60.0237027812" lon="12.2216694446">
		<tag k="name" v="Eiketjennbekken" />
		<tag k="ssr:stedsnr" v="66033" />
		<tag k="waterway" v="stream" />
	</node>
	<node id="-320546" lat="59.9856444486" lon="11.8702333382">
		<tag k="name" v="Kjelketjennet" />
>>>>>>> e1d4bc35ff8a6074a6f2e91616a996b547c36f15
		<tag k="natural" v="water" />
		<tag k="ssr:stedsnr" v="108340" />
	</node>
<<<<<<< HEAD
	<node lat="60.03938333589817" lon="11.970144450194756" id="-16391">
		<tag k="name" v="Holmtjennet" />
=======
	<node id="-318496" lat="60.0457749963" lon="12.2557416574">
		<tag k="name" v="Gartanstjennet" />
>>>>>>> e1d4bc35ff8a6074a6f2e91616a996b547c36f15
		<tag k="natural" v="water" />
		<tag k="ssr:stedsnr" v="108350" />
	</node>
<<<<<<< HEAD
	<node lat="59.934097223582754" lon="12.078713880743152" id="-16395">
		<tag k="name" v="Tutaren" />
		<tag k="natural" v="cape" />
		<tag k="ssr:stedsnr" v="108363" />
	</node>
	<node lat="60.06756666492289" lon="12.247913894043215" id="-16398">
		<tag k="name" v="Fugletangen" />
		<tag k="natural" v="cape" />
		<tag k="ssr:stedsnr" v="108461" />
	</node>
	<node lat="60.049119446004575" lon="11.927363891394913" id="-16405">
		<tag k="name" v="Pengtjennet" />
=======
	<node id="-318493" lat="59.8807222254" lon="11.8319888923">
		<tag k="loc_name" v="Mortskjølungen" />
		<tag k="name" v="Mortsjølungen" />
		<tag k="natural" v="water" />
		<tag k="ssr:stedsnr" v="65207" />
		<tag k="water" v="lake" />
	</node>
	<node id="-320538" lat="59.9198750026" lon="11.8658333375">
		<tag k="name" v="Buvikelva" />
		<tag k="ssr:stedsnr" v="430335" />
		<tag k="waterway" v="stream" />
	</node>
	<node id="-318480" lat="59.8647500043" lon="11.8438805503">
		<tag k="loc_name" v="Skjølåsætertjennet" />
		<tag k="name" v="Sjelåsætertjennet" />
>>>>>>> e1d4bc35ff8a6074a6f2e91616a996b547c36f15
		<tag k="natural" v="water" />
		<tag k="ssr:stedsnr" v="108821" />
	</node>
<<<<<<< HEAD
	<node lat="60.001033333061905" lon="12.16093611541856" id="-16408">
		<tag k="name" v="Kvernbekken" />
		<tag k="ssr:stedsnr" v="108857" />
		<tag k="waterway" v="stream" />
	</node>
	<node lat="59.89946111200759" lon="11.88246666544936" id="-16424">
		<tag k="alt_name" v="Dypsundet" />
		<tag k="name" v="Djupsundet" />
		<tag k="natural" v="strait" />
		<tag k="ssr:stedsnr" v="109638" />
	</node>
	<node lat="59.906377774977756" lon="11.882975008037711" id="-16425">
		<tag k="name" v="Anehellene" />
		<tag k="place" v="islet" />
		<tag k="ssr:stedsnr" v="109693" />
	</node>
	<node lat="59.951405552016595" lon="11.995652770946968" id="-16433">
		<tag k="name" v="Jerpsettjenn" />
=======
	<node id="-318478" lat="59.9740166711" lon="11.8089777765">
		<tag k="name" v="Asketjennet" />
		<tag k="natural" v="water" />
		<tag k="ssr:stedsnr" v="230700" />
	</node>
	<node id="-320524" lat="60.0140027748" lon="12.050577771">
		<tag k="name" v="Børjåa" />
		<tag k="ssr:stedsnr" v="430689" />
		<tag k="waterway" v="river" />
	</node>
	<node id="-320521" lat="60.0515305545" lon="12.1023499966">
		<tag k="name" v="Svarttjenn" />
>>>>>>> e1d4bc35ff8a6074a6f2e91616a996b547c36f15
		<tag k="natural" v="water" />
		<tag k="ssr:stedsnr" v="126284" />
	</node>
<<<<<<< HEAD
	<node lat="59.92970000026725" lon="11.942452776912582" id="-16435">
		<tag k="name" v="Merasttjenn" />
=======
	<node id="-320516" lat="59.9466972232" lon="11.8101972239">
		<tag k="name" v="Mangkalven" />
>>>>>>> e1d4bc35ff8a6074a6f2e91616a996b547c36f15
		<tag k="natural" v="water" />
		<tag k="ssr:stedsnr" v="126367" />
	</node>
<<<<<<< HEAD
	<node lat="59.973274999737484" lon="12.140441664553396" id="-16438">
		<tag k="alt_name" v="Gaustadsjøen, store;Store Gaustadsjøen" />
		<tag k="name" v="Gaustadsjøen" />
		<tag k="natural" v="water" />
		<tag k="ssr:stedsnr" v="126467" />
	</node>
	<node lat="59.981831218257014" lon="11.905612210489334" id="-16439">
		<tag k="name" v="Orretjenn" />
		<tag k="natural" v="water" />
		<tag k="ssr:stedsnr" v="126490" />
	</node>
	<node lat="59.92188333602049" lon="11.903430558235533" id="-16450">
		<tag k="name" v="Bjørnøya" />
		<tag k="place" v="islet" />
		<tag k="ssr:stedsnr" v="126337" />
	</node>
	<node lat="60.07820833448866" lon="12.07224721587089" id="-16454">
		<tag k="name" v="Godtjennet" />
=======
	<node id="-320503" lat="59.9884388929" lon="12.297341661">
		<tag k="name" v="Vintertjennholmen" />
		<tag k="place" v="islet" />
		<tag k="ssr:stedsnr" v="412815" />
	</node>
	<node id="-320502" lat="59.9016833297" lon="11.8758249989">
		<tag k="name" v="Store Langvika" />
		<tag k="natural" v="bay" />
		<tag k="ssr:stedsnr" v="412804" />
	</node>
	<node id="-320501" lat="59.98095" lon="12.0607333309">
		<tag k="name" v="Tollefsbølelva" />
		<tag k="ssr:stedsnr" v="412783" />
		<tag k="waterway" v="river" />
	</node>
	<node id="-318452" lat="60.0556679245" lon="11.9489495785">
		<tag k="name" v="Søndre Aurkyttjennet" />
>>>>>>> e1d4bc35ff8a6074a6f2e91616a996b547c36f15
		<tag k="natural" v="water" />
		<tag k="ssr:stedsnr" v="126680" />
	</node>
<<<<<<< HEAD
	<node lat="59.993986109500234" lon="11.835258332156172" id="-16457">
		<tag k="alt_name" v="Geitungøya" />
		<tag k="name" v="Kjellingøya" />
		<tag k="place" v="islet" />
		<tag k="ssr:stedsnr" v="126961" />
	</node>
	<node lat="59.94320555747265" lon="11.98817778566776" id="-16469">
=======
	<node id="-318451" lat="60.0412055548" lon="12.0993666616">
		<tag k="name" v="Frosktjennet" />
		<tag k="natural" v="water" />
		<tag k="ssr:stedsnr" v="229494" />
	</node>
	<node id="-318449" lat="59.9432055575" lon="11.9881777857">
>>>>>>> e1d4bc35ff8a6074a6f2e91616a996b547c36f15
		<tag k="name" v="Polfossen" />
		<tag k="ssr:stedsnr" v="229399" />
		<tag k="waterway" v="stream" />
	</node>
<<<<<<< HEAD
	<node lat="59.89969722280191" lon="11.883038888639462" id="-16472">
		<tag k="name" v="Djupsundet" />
		<tag k="natural" v="cape" />
		<tag k="ssr:stedsnr" v="157758" />
	</node>
	<node lat="60.010438889743824" lon="12.301391659743384" id="-16473">
		<tag k="name" v="Billingsødammen" />
		<tag k="place" v="locality" />
		<tag k="ssr:stedsnr" v="157935" />
	</node>
	<node lat="59.976669445783436" lon="12.017522218409914" id="-16484">
		<tag k="name" v="Påssevika" />
		<tag k="natural" v="bay" />
		<tag k="ssr:stedsnr" v="168945" />
	</node>
	<node lat="59.911080556398545" lon="11.8758277820276" id="-16505">
		<tag k="name" v="Gørrvika" />
		<tag k="natural" v="bay" />
		<tag k="ssr:stedsnr" v="169256" />
	</node>
	<node lat="59.96535555691307" lon="11.936619442767043" id="-16508">
		<tag k="name" v="Delebekken" />
		<tag k="ssr:stedsnr" v="169273" />
		<tag k="waterway" v="stream" />
	</node>
	<node lat="59.94606944597767" lon="11.922405550562647" id="-16510">
		<tag k="name" v="Pattjennet" />
=======
	<node id="-320494" lat="59.9034638921" lon="11.8713111165">
		<tag k="name" v="Uglevika" />
		<tag k="natural" v="bay" />
		<tag k="ssr:stedsnr" v="412698" />
	</node>
	<node id="-320479" lat="60.0809722192" lon="11.9397388976">
		<tag k="name" v="Østre Pulltjennet" />
		<tag k="natural" v="water" />
		<tag k="ssr:stedsnr" v="412455" />
	</node>
	<node id="-318430" lat="59.9499194468" lon="12.1221944511">
		<tag k="name" v="Sagdalsbekken" />
		<tag k="ssr:stedsnr" v="229047" />
		<tag k="waterway" v="stream" />
	</node>
	<node id="-318426" lat="59.909724997" lon="11.972922229">
		<tag k="name" v="Damtjennet" />
		<tag k="natural" v="water" />
		<tag k="ssr:stedsnr" v="229025" />
	</node>
	<node id="-318421" lat="60.0408333331" lon="12.1895166675">
		<tag k="name" v="Kroksjøen" />
>>>>>>> e1d4bc35ff8a6074a6f2e91616a996b547c36f15
		<tag k="natural" v="water" />
		<tag k="ssr:stedsnr" v="169286" />
	</node>
<<<<<<< HEAD
	<node lat="60.01194999948013" lon="11.919375001839953" id="-16512">
		<tag k="name" v="Bukkebråtebekken" />
		<tag k="ssr:stedsnr" v="169298" />
		<tag k="waterway" v="stream" />
	</node>
	<node lat="59.92879444099513" lon="11.851869446975803" id="-16514">
		<tag k="name" v="Bolfosselva" />
		<tag k="ssr:stedsnr" v="169392" />
		<tag k="waterway" v="river" />
	</node>
	<node lat="59.94115277812611" lon="11.835044452983992" id="-16519">
		<tag k="alt_name" v="Holteøya" />
		<tag k="name" v="Holterøya" />
		<tag k="place" v="island" />
		<tag k="ssr:stedsnr" v="169482" />
	</node>
	<node lat="59.93338055778589" lon="11.848716664727503" id="-16522">
		<tag k="name" v="Kullfoss" />
		<tag k="ssr:stedsnr" v="169499" />
		<tag k="waterway" v="rapids" />
	</node>
	<node lat="59.89828333270777" lon="11.883586105942955" id="-16525">
		<tag k="name" v="Salsundet" />
		<tag k="natural" v="strait" />
		<tag k="ssr:stedsnr" v="169671" />
	</node>
	<node lat="59.95680833167599" lon="11.957124996142353" id="-16538">
		<tag k="name" v="Vestre Svarttjennet" />
		<tag k="natural" v="water" />
		<tag k="ssr:stedsnr" v="169776" />
	</node>
	<node lat="59.89152869059187" lon="11.818380513376631" id="-16544">
		<tag k="name" v="Kverntjennet" />
		<tag k="natural" v="bay" />
		<tag k="ssr:stedsnr" v="180487" />
	</node>
	<node lat="59.890326603533765" lon="12.171480020227083" id="-16551">
		<tag k="name" v="Leirsjøen" />
		<tag k="natural" v="water" />
		<tag k="ssr:stedsnr" v="187134" />
		<tag k="water" v="lake" />
	</node>
	<node lat="59.86699999919438" lon="11.88134999511433" id="-16554">
		<tag k="name" v="Fisketjennet" />
		<tag k="natural" v="water" />
		<tag k="ssr:stedsnr" v="187139" />
	</node>
	<node lat="59.886774999185725" lon="12.053588893754073" id="-16555">
		<tag k="name" v="Blekeren" />
=======
	<node id="-320457" lat="60.0546416672" lon="12.23960555">
		<tag k="name" v="Vesle Baksjøbekken" />
		<tag k="ssr:stedsnr" v="412105" />
		<tag k="waterway" v="stream" />
	</node>
	<node id="-320451" lat="59.9185555565" lon="11.8883166736">
		<tag k="name" v="Østre Kjelvika" />
		<tag k="natural" v="bay" />
		<tag k="ssr:stedsnr" v="412049" />
	</node>
	<node id="-320450" lat="59.9074722202" lon="12.0332916582">
		<tag k="name" v="Djupsundet" />
		<tag k="natural" v="strait" />
		<tag k="ssr:stedsnr" v="412033" />
	</node>
	<node id="-320448" lat="59.903727781" lon="12.0460777802">
		<tag k="name" v="Mortholmen" />
		<tag k="place" v="islet" />
		<tag k="ssr:stedsnr" v="412026" />
	</node>
	<node id="-320440" lat="60.0965750023" lon="12.1780000078">
		<tag k="name" v="Øyungselva" />
		<tag k="ssr:stedsnr" v="411501" />
		<tag k="waterway" v="river" />
	</node>
	<node id="-321010" lat="60.030044447" lon="11.9733694404">
		<tag k="name" v="Hulderpytten" />
		<tag k="natural" v="water" />
		<tag k="ssr:stedsnr" v="794639" />
		<tag k="water" v="pond" />
	</node>
	<node id="-320425" lat="60.0973611079" lon="12.1789777826">
		<tag k="name" v="Øyungdammen" />
		<tag k="ssr:stedsnr" v="411224" />
		<tag k="waterway" v="dam" />
	</node>
	<node id="-320415" lat="59.9584888875" lon="11.8325277781">
		<tag k="name" v="Høglihøla" />
		<tag k="ssr:stedsnr" v="411448" />
		<tag k="waterway" v="stream" />
	</node>
	<node id="-320414" lat="60.064127781" lon="11.9557083314">
		<tag k="name" v="Hundetjennet" />
>>>>>>> e1d4bc35ff8a6074a6f2e91616a996b547c36f15
		<tag k="natural" v="water" />
		<tag k="ssr:stedsnr" v="187142" />
	</node>
<<<<<<< HEAD
	<node lat="59.965150001640026" lon="12.163097220751448" id="-16558">
		<tag k="alt_name" v="Gaustadsjøen, l" />
		<tag k="name" v="Lille Gaustadsjøen" />
=======
	<node id="-320411" lat="59.9031533232" lon="12.143624589">
		<tag k="fixme" v="multiple name tags, choose one and add the other to alt_name" />
		<tag k="name" v="Vestre Åbbortjennet;Åbbortjenn" />
>>>>>>> e1d4bc35ff8a6074a6f2e91616a996b547c36f15
		<tag k="natural" v="water" />
		<tag k="ssr:stedsnr" v="187300" />
	</node>
<<<<<<< HEAD
	<node lat="59.89904999711102" lon="12.057191665805423" id="-16562">
		<tag k="alt_name" v="Veslesjøen;Helgesjøen, vesle" />
		<tag k="name" v="Vesle Helgesjøen" />
		<tag k="natural" v="water" />
		<tag k="ssr:stedsnr" v="188200" />
	</node>
	<node lat="59.93712500053047" lon="11.84785832691209" id="-16581">
		<tag k="alt_name" v="Fløita" />
		<tag k="name" v="Fløyta" />
=======
	<node id="-320408" lat="60.09631389" lon="12.2339916599">
		<tag k="name" v="Geittjennbekken" />
		<tag k="ssr:stedsnr" v="369893" />
		<tag k="waterway" v="stream" />
	</node>
	<node id="-320401" lat="60.0898305589" lon="11.959330561">
		<tag k="name" v="Slabørja" />
>>>>>>> e1d4bc35ff8a6074a6f2e91616a996b547c36f15
		<tag k="natural" v="water" />
		<tag k="ssr:stedsnr" v="188292" />
	</node>
<<<<<<< HEAD
	<node lat="59.97285277625347" lon="11.88649999885636" id="-16584">
		<tag k="name" v="Støtjenna" />
=======
	<node id="-320400" lat="60.1030027779" lon="12.07626667">
		<tag k="name" v="Grimtjennet" />
>>>>>>> e1d4bc35ff8a6074a6f2e91616a996b547c36f15
		<tag k="natural" v="water" />
		<tag k="ssr:stedsnr" v="188532" />
		<tag k="water" v="lake" />
	</node>
	<node lat="59.97581666504545" lon="11.969858327878928" id="-16586">
		<tag k="alt_name" v="Breidfløyta" />
		<tag k="name" v="Breifløyta" />
		<tag k="natural" v="water" />
		<tag k="ssr:stedsnr" v="188539" />
	</node>
	<node lat="59.91350000026808" lon="12.043766659941316" id="-16599">
		<tag k="name" v="Svartvika" />
		<tag k="natural" v="bay" />
		<tag k="ssr:stedsnr" v="290050" />
	</node>
	<node lat="59.89320555789004" lon="12.112266671672897" id="-16602">
		<tag k="name" v="Jensøya" />
		<tag k="place" v="island" />
		<tag k="ssr:stedsnr" v="290068" />
	</node>
	<node lat="59.87213333347032" lon="11.882941664143381" id="-16606">
		<tag k="name" v="Hesteøya" />
		<tag k="place" v="island" />
		<tag k="ssr:stedsnr" v="290250" />
	</node>
	<node lat="59.89961388550792" lon="12.1077805508942" id="-16612">
		<tag k="name" v="Langodden" />
		<tag k="natural" v="cape" />
		<tag k="ssr:stedsnr" v="290340" />
	</node>
	<node lat="60.02676905283196" lon="11.927040123317237" id="-16622">
		<tag k="name" v="Vestre Spjuttjennet" />
		<tag k="natural" v="water" />
		<tag k="ssr:stedsnr" v="290522" />
	</node>
	<node lat="59.938177774426066" lon="12.203508329765016" id="-16629">
		<tag k="name" v="Gamleelva" />
		<tag k="ssr:stedsnr" v="290862" />
		<tag k="waterway" v="river" />
	</node>
	<node lat="59.992405557705574" lon="11.825744444620215" id="-16640">
		<tag k="name" v="Ferjevika" />
		<tag k="natural" v="bay" />
		<tag k="ssr:stedsnr" v="291264" />
	</node>
	<node lat="59.99419444531492" lon="11.828544452489801" id="-16641">
		<tag k="name" v="Jutulbrua" />
		<tag k="place" v="island" />
		<tag k="ssr:stedsnr" v="291269" />
	</node>
<<<<<<< HEAD
	<node lat="59.904811107687784" lon="11.809702776959325" id="-16647">
		<tag k="name" v="Høgåsbekken" />
		<tag k="ssr:stedsnr" v="291520" />
		<tag k="waterway" v="stream" />
	</node>
	<node lat="59.94708055586534" lon="11.893738886823668" id="-16652">
		<tag k="name" v="Damtjennbekken" />
		<tag k="ssr:stedsnr" v="291672" />
		<tag k="waterway" v="stream" />
	</node>
	<node lat="59.968872224700604" lon="11.826358334380618" id="-16657">
		<tag k="name" v="Søndre Hundetjenn" />
=======
	<node id="-320397" lat="60.0712249986" lon="11.9377249915">
		<tag k="name" v="Krulltopptjennet" />
		<tag k="natural" v="water" />
		<tag k="ssr:stedsnr" v="369648" />
	</node>
	<node id="-320395" lat="60.0867361117" lon="12.1696416578">
		<tag k="name" v="Plassetjennet" />
>>>>>>> e1d4bc35ff8a6074a6f2e91616a996b547c36f15
		<tag k="natural" v="water" />
		<tag k="ssr:stedsnr" v="308078" />
	</node>
<<<<<<< HEAD
	<node lat="59.91926110937199" lon="12.024905548346023" id="-16663">
		<tag k="name" v="Svenbytjennet" />
		<tag k="natural" v="water" />
		<tag k="ssr:stedsnr" v="308289" />
	</node>
	<node lat="60.059399996009674" lon="12.03288610292874" id="-16667">
		<tag k="name" v="Haukåa" />
		<tag k="ssr:stedsnr" v="308676" />
		<tag k="waterway" v="river" />
	</node>
	<node lat="59.9676805548241" lon="11.796883327496614" id="-16671">
		<tag k="alt_name" v="Mangensjøen" />
		<tag k="name" v="Mangen" />
		<tag k="natural" v="water" />
		<tag k="ssr:stedsnr" v="308983" />
		<tag k="water" v="lake" />
	</node>
	<node lat="59.872105551590906" lon="11.90261111005097" id="-16677">
		<tag k="name" v="Veslesjøen" />
=======
	<node id="-320382" lat="59.921074999" lon="11.8866999984">
		<tag k="name" v="Skålneset" />
		<tag k="natural" v="cape" />
		<tag k="ssr:stedsnr" v="369314" />
	</node>
	<node id="-320376" lat="59.9554833332" lon="11.9614777863">
		<tag k="name" v="Svarttjenna" />
		<tag k="natural" v="water" />
		<tag k="ssr:stedsnr" v="369291" />
		<tag k="water" v="lake" />
	</node>
	<node id="-318611" lat="60.0613666628" lon="11.9350638889">
		<tag k="name" v="Gammelsæterbekken" />
		<tag k="ssr:stedsnr" v="169311" />
		<tag k="waterway" v="stream" />
	</node>
	<node id="-320366" lat="60.0088416706" lon="12.2706305485">
		<tag k="name" v="Vålvatnet" />
>>>>>>> e1d4bc35ff8a6074a6f2e91616a996b547c36f15
		<tag k="natural" v="water" />
		<tag k="ssr:stedsnr" v="309156" />
	</node>
<<<<<<< HEAD
	<node lat="60.00319800663061" lon="12.334070645962674" id="-16679">
		<tag k="fixme" v="multiple name tags, choose one and add the other to alt_name" />
		<tag k="name" v="Stranddølpa;Dolpetjenn" />
=======
	<node id="-320364" lat="59.8995333297" lon="12.0046388954">
		<tag k="name" v="Svarttjenn" />
>>>>>>> e1d4bc35ff8a6074a6f2e91616a996b547c36f15
		<tag k="natural" v="water" />
		<tag k="ssr:stedsnr" v="309213" />
	</node>
<<<<<<< HEAD
	<node lat="59.993941662250805" lon="11.978291671310078" id="-16681">
		<tag k="name" v="Trautjennet" />
		<tag k="natural" v="water" />
		<tag k="ssr:stedsnr" v="309414" />
	</node>
	<node lat="59.977000001664685" lon="12.322872228050846" id="-16684">
		<tag k="name" v="Nottjennet" />
=======
	<node id="-318610" lat="59.9963111084" lon="11.9075388933">
		<tag k="name" v="Delbekken" />
		<tag k="ssr:stedsnr" v="169306" />
		<tag k="waterway" v="stream" />
	</node>
	<node id="-320360" lat="60.0185944474" lon="12.3222944384">
		<tag k="name" v="Flatjennet" />
>>>>>>> e1d4bc35ff8a6074a6f2e91616a996b547c36f15
		<tag k="natural" v="water" />
		<tag k="ssr:stedsnr" v="309241" />
	</node>
<<<<<<< HEAD
	<node lat="60.09959722598416" lon="12.193838888269827" id="-16694">
		<tag k="alt_name" v="Øyungen;Øyungen, s" />
		<tag k="name" v="Søndre Øyungen" />
=======
	<node id="-320359" lat="60.0283694425" lon="12.2443500007">
		<tag k="name" v="Gravlitjennet" />
>>>>>>> e1d4bc35ff8a6074a6f2e91616a996b547c36f15
		<tag k="natural" v="water" />
		<tag k="ssr:stedsnr" v="309725" />
		<tag k="water" v="lake" />
	</node>
<<<<<<< HEAD
	<node lat="60.05210277756964" lon="11.86656388135104" id="-16698">
		<tag k="alt_name" v="Børen, store" />
		<tag k="name" v="Store Børen" />
=======
	<node id="-320998" lat="59.9251305554" lon="12.0450027758">
		<tag k="alt_name" v="Vesle Steringstjennet;Stæringen, vesle" />
		<tag k="loc_name" v="Veslestæringen" />
		<tag k="name" v="Vesle Stæringen" />
		<tag k="natural" v="water" />
		<tag k="ssr:stedsnr" v="794305" />
	</node>
	<node id="-320354" lat="59.9113638875" lon="11.8302944413">
		<tag k="name" v="Kalvåstjennet" />
>>>>>>> e1d4bc35ff8a6074a6f2e91616a996b547c36f15
		<tag k="natural" v="water" />
		<tag k="ssr:stedsnr" v="309678" />
		<tag k="water" v="lake" />
	</node>
<<<<<<< HEAD
	<node lat="60.067500002628336" lon="11.95389444414077" id="-16701">
		<tag k="name" v="Nordre Nysætertjennet" />
		<tag k="natural" v="water" />
		<tag k="ssr:stedsnr" v="339178" />
	</node>
	<node lat="60.04996944802961" lon="12.152233327875518" id="-16704">
		<tag k="name" v="Vesleåa" />
		<tag k="ssr:stedsnr" v="350479" />
		<tag k="waterway" v="stream" />
	</node>
	<node lat="60.04467222009114" lon="12.177974995760573" id="-16705">
		<tag k="name" v="Dammen" />
		<tag k="ssr:stedsnr" v="350483" />
		<tag k="waterway" v="dam" />
	</node>
	<node lat="59.98526388757369" lon="12.332841657591299" id="-16706">
		<tag k="name" v="Billaelva" />
		<tag k="ssr:stedsnr" v="351362" />
		<tag k="waterway" v="river" />
	</node>
	<node lat="60.08633888958003" lon="12.106016657902883" id="-16714">
		<tag k="alt_name" v="Raggetjennet" />
		<tag k="name" v="Kontetjennet" />
=======
	<node id="-320353" lat="60.0304444402" lon="12.3242027765">
		<tag k="name" v="Deilebekken" />
		<tag k="ssr:stedsnr" v="369010" />
		<tag k="waterway" v="stream" />
	</node>
	<node id="-320345" lat="60.0762555583" lon="11.9849694474">
		<tag k="name" v="Åbortjennbekken" />
		<tag k="ssr:stedsnr" v="351945" />
		<tag k="waterway" v="stream" />
	</node>
	<node id="-320342" lat="59.9716388929" lon="11.9140166738">
		<tag k="name" v="Raseruddulpa" />
>>>>>>> e1d4bc35ff8a6074a6f2e91616a996b547c36f15
		<tag k="natural" v="water" />
		<tag k="ssr:stedsnr" v="351097" />
	</node>
<<<<<<< HEAD
	<node lat="59.902575000961605" lon="12.050891658708558" id="-16720">
		<tag k="name" v="Aurnesvika" />
		<tag k="natural" v="bay" />
		<tag k="ssr:stedsnr" v="351034" />
	</node>
	<node lat="59.98411944344844" lon="12.216400002782576" id="-16721">
		<tag k="name" v="Lauvnestangen" />
		<tag k="natural" v="cape" />
		<tag k="ssr:stedsnr" v="351043" />
	</node>
	<node lat="59.91592221903435" lon="12.103194441731926" id="-16723">
		<tag k="name" v="Børresbekken" />
		<tag k="ssr:stedsnr" v="351119" />
		<tag k="waterway" v="stream" />
	</node>
	<node lat="59.97651944689419" lon="12.339508335413704" id="-16728">
		<tag k="name" v="Finnsrudelva" />
		<tag k="ssr:stedsnr" v="351230" />
		<tag k="waterway" v="river" />
	</node>
	<node lat="60.02675555427122" lon="11.882780550986595" id="-16732">
=======
	<node id="-320340" lat="59.9593166706" lon="11.9566611188">
		<tag k="name" v="Kontraskjæret" />
		<tag k="natural" v="cape" />
		<tag k="ssr:stedsnr" v="351777" />
	</node>
	<node id="-320336" lat="59.9100333316" lon="11.8786888952">
		<tag k="name" v="Store Gørrviknabben" />
		<tag k="natural" v="cape" />
		<tag k="ssr:stedsnr" v="351725" />
	</node>
	<node id="-320333" lat="60.0373972255" lon="11.8883222177">
		<tag k="name" v="Østre Sundtjennet" />
		<tag k="natural" v="water" />
		<tag k="ssr:stedsnr" v="351659" />
	</node>
	<node id="-320321" lat="59.9852638876" lon="12.3328416576">
		<tag k="name" v="Billaelva" />
		<tag k="ssr:stedsnr" v="351362" />
		<tag k="waterway" v="river" />
	</node>
	<node id="-320317" lat="60.0267555543" lon="11.882780551">
>>>>>>> e1d4bc35ff8a6074a6f2e91616a996b547c36f15
		<tag k="name" v="Langelandsbekken" />
		<tag k="ssr:stedsnr" v="351327" />
		<tag k="waterway" v="stream" />
	</node>
<<<<<<< HEAD
	<node lat="59.94075555138602" lon="11.81619166692164" id="-16736">
		<tag k="name" v="Vesleodden" />
		<tag k="natural" v="cape" />
		<tag k="ssr:stedsnr" v="351480" />
	</node>
	<node lat="59.95669444860121" lon="11.960680561535154" id="-16739">
=======
	<node id="-320315" lat="60.0547111108" lon="11.8732611178">
		<tag k="name" v="Grevlingtjennbekken" />
		<tag k="ssr:stedsnr" v="351319" />
		<tag k="waterway" v="stream" />
	</node>
	<node id="-320314" lat="59.9566944486" lon="11.9606805615">
>>>>>>> e1d4bc35ff8a6074a6f2e91616a996b547c36f15
		<tag k="name" v="Midtre Svarttjennet" />
		<tag k="natural" v="water" />
		<tag k="ssr:stedsnr" v="351297" />
	</node>
<<<<<<< HEAD
	<node lat="59.91003333159471" lon="11.87868889520786" id="-16751">
		<tag k="name" v="Store Gørrviknabben" />
		<tag k="natural" v="cape" />
		<tag k="ssr:stedsnr" v="351725" />
	</node>
	<node lat="59.959316670630685" lon="11.95666111876897" id="-16756">
		<tag k="name" v="Kontraskjæret" />
=======
	<node id="-320307" lat="59.9765194469" lon="12.3395083354">
		<tag k="name" v="Finnsrudelva" />
		<tag k="ssr:stedsnr" v="351230" />
		<tag k="waterway" v="river" />
	</node>
	<node id="-320295" lat="59.915922219" lon="12.1031944417">
		<tag k="name" v="Børresbekken" />
		<tag k="ssr:stedsnr" v="351119" />
		<tag k="waterway" v="stream" />
	</node>
	<node id="-320293" lat="60.0863388896" lon="12.1060166579">
		<tag k="alt_name" v="Raggetjennet" />
		<tag k="name" v="Kontetjennet" />
		<tag k="natural" v="water" />
		<tag k="ssr:stedsnr" v="351097" />
	</node>
	<node id="-320290" lat="59.9226444452" lon="11.9072166667">
		<tag k="name" v="Vestre Gørrvika" />
		<tag k="natural" v="bay" />
		<tag k="ssr:stedsnr" v="351057" />
	</node>
	<node id="-320288" lat="59.9841194434" lon="12.2164000028">
		<tag k="name" v="Lauvnestangen" />
		<tag k="natural" v="cape" />
		<tag k="ssr:stedsnr" v="351043" />
	</node>
	<node id="-320287" lat="59.902575001" lon="12.0508916587">
		<tag k="name" v="Aurnesvika" />
		<tag k="natural" v="bay" />
		<tag k="ssr:stedsnr" v="351034" />
	</node>
	<node id="-320280" lat="59.9407555514" lon="11.8161916669">
		<tag k="name" v="Vesleodden" />
>>>>>>> e1d4bc35ff8a6074a6f2e91616a996b547c36f15
		<tag k="natural" v="cape" />
		<tag k="ssr:stedsnr" v="351777" />
	</node>
<<<<<<< HEAD
	<node lat="60.076255558263064" lon="11.984969447432485" id="-16757">
		<tag k="name" v="Åbortjennbekken" />
		<tag k="ssr:stedsnr" v="351945" />
		<tag k="waterway" v="stream" />
	</node>
	<node lat="60.03044444015626" lon="12.324202776544048" id="-16769">
		<tag k="name" v="Deilebekken" />
		<tag k="ssr:stedsnr" v="369010" />
		<tag k="waterway" v="stream" />
	</node>
	<node lat="59.91136388745315" lon="11.830294441341996" id="-16770">
		<tag k="name" v="Kalvåstjennet" />
		<tag k="natural" v="water" />
		<tag k="ssr:stedsnr" v="369011" />
	</node>
	<node lat="60.01859444735843" lon="12.322294438382578" id="-16771">
		<tag k="name" v="Flatjennet" />
		<tag k="natural" v="water" />
		<tag k="ssr:stedsnr" v="369041" />
	</node>
	<node lat="59.90022499782889" lon="12.093619437091112" id="-16780">
		<tag k="name" v="Perkerudtjennet" />
=======
	<node id="-320271" lat="60.0446722201" lon="12.1779749958">
		<tag k="name" v="Dammen" />
		<tag k="ssr:stedsnr" v="350483" />
		<tag k="waterway" v="dam" />
	</node>
	<node id="-320270" lat="60.049969448" lon="12.1522333279">
		<tag k="name" v="Vesleåa" />
		<tag k="ssr:stedsnr" v="350479" />
		<tag k="waterway" v="stream" />
	</node>
	<node id="-320269" lat="59.9288527816" lon="11.900608337">
		<tag k="name" v="Heseholmen" />
		<tag k="place" v="islet" />
		<tag k="ssr:stedsnr" v="350239" />
	</node>
	<node id="-320268" lat="59.9208916691" lon="11.9173305613">
		<tag k="name" v="Akkevika" />
		<tag k="natural" v="bay" />
		<tag k="ssr:stedsnr" v="350237" />
	</node>
	<node id="-320264" lat="60.0675000026" lon="11.9538944441">
		<tag k="name" v="Nordre Nysætertjennet" />
>>>>>>> e1d4bc35ff8a6074a6f2e91616a996b547c36f15
		<tag k="natural" v="water" />
		<tag k="ssr:stedsnr" v="369154" />
	</node>
<<<<<<< HEAD
	<node lat="59.8995333296666" lon="12.004638895405453" id="-16781">
		<tag k="name" v="Svarttjenn" />
=======
	<node id="-320261" lat="60.0521027776" lon="11.8665638814">
		<tag k="alt_name" v="Børen, store" />
		<tag k="name" v="Store Børen" />
>>>>>>> e1d4bc35ff8a6074a6f2e91616a996b547c36f15
		<tag k="natural" v="water" />
		<tag k="ssr:stedsnr" v="369156" />
	</node>
<<<<<<< HEAD
	<node lat="60.08673611170388" lon="12.169641657800167" id="-16792">
		<tag k="name" v="Plassetjennet" />
=======
	<node id="-320250" lat="59.9939416623" lon="11.9782916713">
		<tag k="name" v="Trautjennet" />
>>>>>>> e1d4bc35ff8a6074a6f2e91616a996b547c36f15
		<tag k="natural" v="water" />
		<tag k="ssr:stedsnr" v="369642" />
	</node>
<<<<<<< HEAD
	<node lat="60.07122499861911" lon="11.93772499153256" id="-16794">
		<tag k="name" v="Krulltopptjennet" />
=======
	<node id="-320249" lat="59.9379888845" lon="12.0972333416">
		<tag k="name" v="Igletjenn" />
>>>>>>> e1d4bc35ff8a6074a6f2e91616a996b547c36f15
		<tag k="natural" v="water" />
		<tag k="ssr:stedsnr" v="369648" />
	</node>
<<<<<<< HEAD
	<node lat="60.089830558937024" lon="11.959330560973552" id="-16799">
		<tag k="name" v="Slabørja" />
=======
	<node id="-320241" lat="59.9770000017" lon="12.3228722281">
		<tag k="name" v="Nottjennet" />
>>>>>>> e1d4bc35ff8a6074a6f2e91616a996b547c36f15
		<tag k="natural" v="water" />
		<tag k="ssr:stedsnr" v="369693" />
	</node>
<<<<<<< HEAD
	<node lat="59.903153323155856" lon="12.143624589022183" id="-16800">
=======
	<node id="-320238" lat="60.0031980066" lon="12.334070646">
>>>>>>> e1d4bc35ff8a6074a6f2e91616a996b547c36f15
		<tag k="fixme" v="multiple name tags, choose one and add the other to alt_name" />
		<tag k="name" v="Vestre Åbbortjennet;Åbbortjenn" />
		<tag k="natural" v="water" />
		<tag k="ssr:stedsnr" v="370211" />
	</node>
<<<<<<< HEAD
	<node lat="60.09631389001919" lon="12.233991659866541" id="-16801">
		<tag k="name" v="Geittjennbekken" />
		<tag k="ssr:stedsnr" v="369893" />
		<tag k="waterway" v="stream" />
	</node>
	<node lat="60.09736110787883" lon="12.178977782578183" id="-16817">
		<tag k="name" v="Øyungdammen" />
		<tag k="ssr:stedsnr" v="411224" />
		<tag k="waterway" v="dam" />
	</node>
	<node lat="60.06412778104389" lon="11.955708331414266" id="-16818">
		<tag k="name" v="Hundetjennet" />
=======
	<node id="-320235" lat="59.8721055516" lon="11.9026111101">
		<tag k="name" v="Veslesjøen" />
		<tag k="natural" v="water" />
		<tag k="ssr:stedsnr" v="309156" />
	</node>
	<node id="-320230" lat="59.9676805548" lon="11.7968833275">
		<tag k="alt_name" v="Mangensjøen" />
		<tag k="name" v="Mangen" />
>>>>>>> e1d4bc35ff8a6074a6f2e91616a996b547c36f15
		<tag k="natural" v="water" />
		<tag k="ssr:stedsnr" v="411437" />
	</node>
<<<<<<< HEAD
	<node lat="60.09657500230741" lon="12.17800000780365" id="-16819">
		<tag k="name" v="Øyungselva" />
		<tag k="ssr:stedsnr" v="411501" />
		<tag k="waterway" v="river" />
	</node>
	<node lat="59.903727780962" lon="12.046077780209103" id="-16830">
		<tag k="name" v="Mortholmen" />
		<tag k="place" v="islet" />
		<tag k="ssr:stedsnr" v="412026" />
	</node>
	<node lat="59.90747222020699" lon="12.03329165819042" id="-16832">
		<tag k="name" v="Djupsundet" />
		<tag k="natural" v="strait" />
		<tag k="ssr:stedsnr" v="412033" />
	</node>
	<node lat="60.05464166715048" lon="12.239605549983" id="-16835">
		<tag k="name" v="Vesle Baksjøbekken" />
		<tag k="ssr:stedsnr" v="412105" />
		<tag k="waterway" v="stream" />
	</node>
	<node lat="60.11308611296034" lon="12.117677769700531" id="-16855">
		<tag k="name" v="Tangetjennet" />
		<tag k="natural" v="water" />
		<tag k="ssr:stedsnr" v="412366" />
	</node>
	<node lat="59.90346389211275" lon="11.871311116475088" id="-16862">
		<tag k="name" v="Uglevika" />
		<tag k="natural" v="bay" />
		<tag k="ssr:stedsnr" v="412698" />
	</node>
	<node lat="59.95436666658014" lon="11.965730553169832" id="-16865">
		<tag k="name" v="Svarttjennbekken" />
		<tag k="ssr:stedsnr" v="412728" />
		<tag k="waterway" v="stream" />
	</node>
	<node lat="59.98094999996372" lon="12.060733330948484" id="-16871">
		<tag k="name" v="Tollefsbølelva" />
		<tag k="ssr:stedsnr" v="412783" />
		<tag k="waterway" v="river" />
	</node>
	<node lat="60.038882250989" lon="12.19811722194252" id="-16873">
		<tag k="fixme" v="multiple name tags, choose one and add the other to alt_name" />
		<tag k="name" v="Holmetjennet;Igletjennet" />
=======
	<node id="-320224" lat="60.059399996" lon="12.0328861029">
		<tag k="name" v="Haukåa" />
		<tag k="ssr:stedsnr" v="308676" />
		<tag k="waterway" v="river" />
	</node>
	<node id="-320211" lat="59.9192611094" lon="12.0249055483">
		<tag k="name" v="Svenbytjennet" />
		<tag k="natural" v="water" />
		<tag k="ssr:stedsnr" v="308289" />
	</node>
	<node id="-320208" lat="59.9688722247" lon="11.8263583344">
		<tag k="name" v="Søndre Hundetjenn" />
		<tag k="natural" v="water" />
		<tag k="ssr:stedsnr" v="308078" />
	</node>
	<node id="-320201" lat="59.975816665" lon="11.9698583279">
		<tag k="alt_name" v="Breidfløyta" />
		<tag k="name" v="Breifløyta" />
		<tag k="natural" v="water" />
		<tag k="ssr:stedsnr" v="188539" />
	</node>
	<node id="-320199" lat="59.9728527763" lon="11.8864999989">
		<tag k="name" v="Støtjenna" />
		<tag k="natural" v="water" />
		<tag k="ssr:stedsnr" v="188532" />
		<tag k="water" v="lake" />
	</node>
	<node id="-320194" lat="59.9371250005" lon="11.8478583269">
		<tag k="alt_name" v="Fløita" />
		<tag k="name" v="Fløyta" />
		<tag k="natural" v="water" />
		<tag k="ssr:stedsnr" v="188292" />
	</node>
	<node id="-320193" lat="59.8961555566" lon="12.0340499976">
		<tag k="alt_name" v="Løvøya" />
		<tag k="name" v="Lauvøya" />
		<tag k="place" v="islet" />
		<tag k="ssr:stedsnr" v="188217" />
	</node>
	<node id="-320192" lat="59.8959611138" lon="11.8834138948">
		<tag k="alt_name" v="Østerøya;Øya, østre" />
		<tag k="name" v="Østre Øya" />
		<tag k="place" v="islet" />
		<tag k="ssr:stedsnr" v="188209" />
	</node>
	<node id="-320191" lat="59.9046111073" lon="12.0187194517">
		<tag k="name" v="Østre Morttjenn" />
>>>>>>> e1d4bc35ff8a6074a6f2e91616a996b547c36f15
		<tag k="natural" v="water" />
		<tag k="ssr:stedsnr" v="430629" />
	</node>
<<<<<<< HEAD
	<node lat="59.94669722316644" lon="11.810197223909443" id="-16875">
		<tag k="name" v="Mangkalven" />
=======
	<node id="-320189" lat="59.8990499971" lon="12.0571916658">
		<tag k="alt_name" v="Veslesjøen;Helgesjøen, vesle" />
		<tag k="name" v="Vesle Helgesjøen" />
>>>>>>> e1d4bc35ff8a6074a6f2e91616a996b547c36f15
		<tag k="natural" v="water" />
		<tag k="ssr:stedsnr" v="430072" />
	</node>
<<<<<<< HEAD
	<node lat="59.919875002584206" lon="11.865833337511912" id="-16890">
		<tag k="name" v="Buvikelva" />
		<tag k="ssr:stedsnr" v="430335" />
		<tag k="waterway" v="stream" />
	</node>
	<node lat="60.0515305544623" lon="12.102349996562285" id="-16904">
		<tag k="name" v="Svarttjenn" />
=======
	<node id="-320186" lat="60.084788886" lon="12.0816833243">
		<tag k="alt_name" v="Søndre Halsjøen" />
		<tag k="name" v="Halvsjøen" />
		<tag k="natural" v="water" />
		<tag k="ssr:stedsnr" v="187722" />
	</node>
	<node id="-320184" lat="60.0952694434" lon="12.1350777828">
		<tag k="name" v="Fiskerudtjennet" />
>>>>>>> e1d4bc35ff8a6074a6f2e91616a996b547c36f15
		<tag k="natural" v="water" />
		<tag k="ssr:stedsnr" v="430664" />
	</node>
<<<<<<< HEAD
	<node lat="60.01400277479487" lon="12.050577771016941" id="-16907">
		<tag k="name" v="Børjåa" />
		<tag k="ssr:stedsnr" v="430689" />
		<tag k="waterway" v="river" />
	</node>
	<node lat="59.9803527792803" lon="12.195480547478343" id="-16939">
		<tag k="name" v="Furufjelltjennet" />
=======
	<node id="-318580" lat="60.1024361099" lon="12.2261833329">
		<tag k="name" v="Kafalltjennet" />
		<tag k="natural" v="water" />
		<tag k="ssr:stedsnr" v="248927" />
	</node>
	<node id="-320155" lat="59.9651500016" lon="12.1630972208">
		<tag k="alt_name" v="Gaustadsjøen, l" />
		<tag k="name" v="Lille Gaustadsjøen" />
>>>>>>> e1d4bc35ff8a6074a6f2e91616a996b547c36f15
		<tag k="natural" v="water" />
		<tag k="ssr:stedsnr" v="533376" />
	</node>
<<<<<<< HEAD
	<node lat="59.93278333365203" lon="11.825944437246356" id="-16947">
		<tag k="name" v="Sandvika" />
		<tag k="natural" v="bay" />
		<tag k="ssr:stedsnr" v="533466" />
	</node>
	<node lat="60.03569722652076" lon="12.31148333514803" id="-16950">
		<tag k="name" v="Vestre Åstjenn" />
=======
	<node id="-320145" lat="59.8867749992" lon="12.0535888938">
		<tag k="name" v="Blekeren" />
>>>>>>> e1d4bc35ff8a6074a6f2e91616a996b547c36f15
		<tag k="natural" v="water" />
		<tag k="ssr:stedsnr" v="533796" />
	</node>
<<<<<<< HEAD
	<node lat="59.918186108180976" lon="11.882369451511828" id="-16956">
		<tag k="name" v="Vestre Kjelvika" />
		<tag k="natural" v="bay" />
		<tag k="ssr:stedsnr" v="533747" />
	</node>
	<node lat="60.05053611529922" lon="11.881533339499335" id="-16959">
		<tag k="name" v="Slirtjennet" />
=======
	<node id="-320144" lat="59.8669999992" lon="11.8813499951">
		<tag k="name" v="Fisketjennet" />
>>>>>>> e1d4bc35ff8a6074a6f2e91616a996b547c36f15
		<tag k="natural" v="water" />
		<tag k="ssr:stedsnr" v="533856" />
	</node>
<<<<<<< HEAD
	<node lat="59.86733749526491" lon="11.8316295371436" id="-16960">
		<tag k="alt_name" v="Skjertjenna" />
		<tag k="name" v="Skjærtjenna" />
=======
	<node id="-320141" lat="59.8903266035" lon="12.1714800202">
		<tag k="name" v="Leirsjøen" />
>>>>>>> e1d4bc35ff8a6074a6f2e91616a996b547c36f15
		<tag k="natural" v="water" />
		<tag k="ssr:stedsnr" v="550188" />
		<tag k="water" v="lake" />
	</node>
<<<<<<< HEAD
	<node lat="59.90128610866912" lon="11.882641665061964" id="-16961">
		<tag k="name" v="Djupsundnabben" />
		<tag k="natural" v="cape" />
		<tag k="ssr:stedsnr" v="551169" />
	</node>
	<node lat="59.90591388552065" lon="11.90599443872558" id="-16962">
		<tag k="name" v="Vestre Emtjenn" />
		<tag k="natural" v="water" />
		<tag k="ssr:stedsnr" v="551172" />
	</node>
	<node lat="59.934377781355956" lon="12.034066665905891" id="-16964">
		<tag k="alt_name" v="Steringstjennet;Stæringen, store" />
		<tag k="name" v="Store Stæringen" />
=======
	<node id="-320135" lat="59.9387843206" lon="11.824764866">
		<tag k="name" v="Øysjøen" />
>>>>>>> e1d4bc35ff8a6074a6f2e91616a996b547c36f15
		<tag k="natural" v="water" />
		<tag k="ssr:stedsnr" v="551261" />
	</node>
<<<<<<< HEAD
	<node lat="59.884822224495736" lon="11.857433340775554" id="-16969">
		<tag k="name" v="Steintjenn" />
=======
	<node id="-320134" lat="59.9528805554" lon="12.290652775">
		<tag k="name" v="Breitjennet" />
>>>>>>> e1d4bc35ff8a6074a6f2e91616a996b547c36f15
		<tag k="natural" v="water" />
		<tag k="ssr:stedsnr" v="551138" />
	</node>
<<<<<<< HEAD
	<node lat="60.01134166251069" lon="12.318883328649951" id="-16970">
		<tag k="name" v="Butjenndolpa" />
=======
	<node id="-320133" lat="59.9386666634" lon="12.2472750029">
		<tag k="name" v="Linåsdolpene" />
>>>>>>> e1d4bc35ff8a6074a6f2e91616a996b547c36f15
		<tag k="natural" v="water" />
		<tag k="ssr:stedsnr" v="551201" />
	</node>
<<<<<<< HEAD
	<node lat="59.955038885081066" lon="11.933408335885945" id="-16973">
		<tag k="fixme" v="multiple name tags, choose one and add the other to alt_name" />
		<tag k="name" v="Holmtjennet;Høgdertjenna" />
=======
	<node id="-320132" lat="59.9379527758" lon="12.2233944524">
		<tag k="name" v="Vanga" />
>>>>>>> e1d4bc35ff8a6074a6f2e91616a996b547c36f15
		<tag k="natural" v="water" />
		<tag k="ssr:stedsnr" v="551309" />
	</node>
<<<<<<< HEAD
	<node lat="59.97903333515192" lon="12.01428333463559" id="-16984">
		<tag k="name" v="Grunntjennet" />
=======
	<node id="-320124" lat="59.9568083317" lon="11.9571249961">
		<tag k="name" v="Vestre Svarttjennet" />
>>>>>>> e1d4bc35ff8a6074a6f2e91616a996b547c36f15
		<tag k="natural" v="water" />
		<tag k="ssr:stedsnr" v="551480" />
	</node>
<<<<<<< HEAD
	<node lat="60.03516389079682" lon="11.988052786720663" id="-16993">
		<tag k="name" v="Nauttjennsbekken" />
		<tag k="ssr:stedsnr" v="551623" />
		<tag k="waterway" v="stream" />
	</node>
	<node lat="60.04698333050538" lon="11.891513893661614" id="-16997">
		<tag k="name" v="Struttjennet" />
=======
	<node id="-320118" lat="59.9694138896" lon="12.0424555507">
		<tag k="name" v="Søndre Tobøltjennet" />
>>>>>>> e1d4bc35ff8a6074a6f2e91616a996b547c36f15
		<tag k="natural" v="water" />
		<tag k="ssr:stedsnr" v="551661" />
	</node>
<<<<<<< HEAD
	<node lat="60.03984999741641" lon="11.99690277351165" id="-16998">
		<tag k="name" v="Mikkelstjennet" />
		<tag k="natural" v="water" />
		<tag k="ssr:stedsnr" v="551676" />
	</node>
	<node lat="60.03918264929508" lon="11.895145336499139" id="-17000">
		<tag k="alt_name" v="Steinøysjøen" />
		<tag k="name" v="Steineia" />
		<tag k="natural" v="water" />
		<tag k="ssr:stedsnr" v="551682" />
		<tag k="water" v="lake" />
	</node>
	<node lat="59.984158333674245" lon="12.264491663872764" id="-17008">
		<tag k="name" v="Opptjennkjeften" />
=======
	<node id="-320116" lat="59.8982833327" lon="11.8835861059">
		<tag k="name" v="Salsundet" />
		<tag k="natural" v="strait" />
		<tag k="ssr:stedsnr" v="169671" />
	</node>
	<node id="-318568" lat="60.0410694413" lon="11.9605305507">
		<tag k="name" v="Holmtjennet" />
		<tag k="natural" v="water" />
		<tag k="ssr:stedsnr" v="248692" />
	</node>
	<node id="-320110" lat="59.9681555563" lon="12.0883305541">
		<tag k="name" v="Tollefsbølvika" />
>>>>>>> e1d4bc35ff8a6074a6f2e91616a996b547c36f15
		<tag k="natural" v="bay" />
		<tag k="ssr:stedsnr" v="593177" />
	</node>
<<<<<<< HEAD
	<node lat="59.90577500366453" lon="12.04713333954376" id="-17019">
		<tag k="name" v="Movika" />
		<tag k="natural" v="bay" />
		<tag k="ssr:stedsnr" v="593297" />
	</node>
	<node lat="59.8913972224581" lon="11.874736113032169" id="-17030">
		<tag k="name" v="Potetholmen" />
		<tag k="place" v="islet" />
		<tag k="ssr:stedsnr" v="593240" />
	</node>
	<node lat="59.91883888791395" lon="11.878780546543405" id="-17031">
		<tag k="name" v="Buåsvika" />
		<tag k="natural" v="bay" />
		<tag k="ssr:stedsnr" v="593243" />
	</node>
	<node lat="59.892211109609235" lon="11.841661104613465" id="-17038">
		<tag k="name" v="Mellemlangtjennet" />
		<tag k="natural" v="water" />
		<tag k="ssr:stedsnr" v="593644" />
	</node>
	<node lat="60.056180556149144" lon="11.972163894768123" id="-17042">
		<tag k="name" v="Høgputten" />
=======
	<node id="-320104" lat="59.9333805578" lon="11.8487166647">
		<tag k="name" v="Kullfoss" />
		<tag k="ssr:stedsnr" v="169499" />
		<tag k="waterway" v="rapids" />
	</node>
	<node id="-320101" lat="59.9411527781" lon="11.835044453">
		<tag k="alt_name" v="Holteøya" />
		<tag k="name" v="Holterøya" />
		<tag k="place" v="island" />
		<tag k="ssr:stedsnr" v="169482" />
	</node>
	<node id="-320093" lat="59.928794441" lon="11.851869447">
		<tag k="name" v="Bolfosselva" />
		<tag k="ssr:stedsnr" v="169392" />
		<tag k="waterway" v="river" />
	</node>
	<node id="-320091" lat="60.0119499995" lon="11.9193750018">
		<tag k="name" v="Bukkebråtebekken" />
		<tag k="ssr:stedsnr" v="169298" />
		<tag k="waterway" v="stream" />
	</node>
	<node id="-320089" lat="59.946069446" lon="11.9224055506">
		<tag k="name" v="Pattjennet" />
>>>>>>> e1d4bc35ff8a6074a6f2e91616a996b547c36f15
		<tag k="natural" v="water" />
		<tag k="ssr:stedsnr" v="593888" />
		<tag k="water" v="pond" />
	</node>
<<<<<<< HEAD
	<node lat="59.96254444129805" lon="11.824250006387995" id="-17047">
		<tag k="alt_name" v="Hyttetjennet" />
		<tag k="name" v="Høglitjennet" />
		<tag k="natural" v="water" />
		<tag k="ssr:stedsnr" v="593686" />
	</node>
	<node lat="59.97648333587867" lon="11.831858341836204" id="-17048">
		<tag k="name" v="Igleputten" />
		<tag k="natural" v="water" />
		<tag k="ssr:stedsnr" v="593687" />
		<tag k="water" v="pond" />
	</node>
	<node lat="59.947408333079906" lon="11.910250000439394" id="-17055">
		<tag k="name" v="Frautjennet" />
=======
	<node id="-320087" lat="59.9653555569" lon="11.9366194428">
		<tag k="name" v="Delebekken" />
		<tag k="ssr:stedsnr" v="169273" />
		<tag k="waterway" v="stream" />
	</node>
	<node id="-320084" lat="59.9110805564" lon="11.875827782">
		<tag k="name" v="Gørrvika" />
		<tag k="natural" v="bay" />
		<tag k="ssr:stedsnr" v="169256" />
	</node>
	<node id="-319587" lat="59.8477555515" lon="11.8535833321">
		<tag k="name" v="Vesle Hynnetjennet" />
		<tag k="natural" v="water" />
		<tag k="ssr:stedsnr" v="897665" />
	</node>
	<node id="-320060" lat="59.9483555568" lon="12.2471361151">
		<tag k="name" v="Lomtjennet" />
>>>>>>> e1d4bc35ff8a6074a6f2e91616a996b547c36f15
		<tag k="natural" v="water" />
		<tag k="ssr:stedsnr" v="593833" />
	</node>
<<<<<<< HEAD
	<node lat="59.947574997820446" lon="11.98142221688903" id="-17060">
		<tag k="name" v="Atthaldsdammen" />
		<tag k="ssr:stedsnr" v="593929" />
		<tag k="waterway" v="dam" />
	</node>
	<node lat="59.89190277478221" lon="11.843991666484687" id="-17061">
		<tag k="name" v="Veslelangtjennet" />
		<tag k="natural" v="water" />
		<tag k="ssr:stedsnr" v="593934" />
	</node>
	<node lat="59.93460832937836" lon="11.83521945234088" id="-17073">
		<tag k="name" v="Vintervika" />
		<tag k="natural" v="bay" />
		<tag k="ssr:stedsnr" v="594493" />
	</node>
	<node lat="59.929902774745365" lon="11.88530000396281" id="-17084">
		<tag k="name" v="Kisvika" />
		<tag k="natural" v="bay" />
		<tag k="ssr:stedsnr" v="611365" />
	</node>
	<node lat="59.89253333576152" lon="12.139852784736862" id="-17088">
		<tag k="name" v="Fløyta" />
		<tag k="ssr:stedsnr" v="612042" />
		<tag k="waterway" v="stream" />
	</node>
	<node lat="60.01345555172127" lon="12.242511108130355" id="-17089">
		<tag k="name" v="Igletjennet" />
=======
	<node id="-320054" lat="59.9766694458" lon="12.0175222184">
		<tag k="name" v="Påssevika" />
		<tag k="natural" v="bay" />
		<tag k="ssr:stedsnr" v="168945" />
	</node>
	<node id="-320050" lat="59.9021861113" lon="12.1683999971">
		<tag k="name" v="Morastsæterbekken" />
		<tag k="ssr:stedsnr" v="169078" />
		<tag k="waterway" v="stream" />
	</node>
	<node id="-319581" lat="59.8838555591" lon="11.9150527781">
		<tag k="name" v="Juliavika" />
		<tag k="natural" v="bay" />
		<tag k="ssr:stedsnr" v="897504" />
	</node>
	<node id="-320034" lat="60.0104388897" lon="12.3013916597">
		<tag k="name" v="Billingsødammen" />
		<tag k="place" v="locality" />
		<tag k="ssr:stedsnr" v="157935" />
	</node>
	<node id="-320033" lat="59.8996972228" lon="11.8830388886">
		<tag k="name" v="Djupsundet" />
		<tag k="natural" v="cape" />
		<tag k="ssr:stedsnr" v="157758" />
	</node>
	<node id="-319237" lat="59.9033086582" lon="12.1066278413">
		<tag k="name" v="Holmsjøen" />
		<tag k="natural" v="water" />
		<tag k="ssr:stedsnr" v="734198" />
		<tag k="water" v="lake" />
	</node>
	<node id="-320019" lat="59.9939861095" lon="11.8352583322">
		<tag k="alt_name" v="Geitungøya" />
		<tag k="name" v="Kjellingøya" />
		<tag k="place" v="islet" />
		<tag k="ssr:stedsnr" v="126961" />
	</node>
	<node id="-320014" lat="60.0782083345" lon="12.0722472159">
		<tag k="name" v="Godtjennet" />
>>>>>>> e1d4bc35ff8a6074a6f2e91616a996b547c36f15
		<tag k="natural" v="water" />
		<tag k="ssr:stedsnr" v="612063" />
	</node>
<<<<<<< HEAD
	<node lat="59.85141666764796" lon="11.84319999566981" id="-17093">
		<tag k="name" v="Kutjenn" />
=======
	<node id="-320010" lat="59.9841583337" lon="12.2644916639">
		<tag k="name" v="Orretjenn" />
>>>>>>> e1d4bc35ff8a6074a6f2e91616a996b547c36f15
		<tag k="natural" v="water" />
		<tag k="ssr:stedsnr" v="612164" />
	</node>
<<<<<<< HEAD
	<node lat="59.90509166796818" lon="11.844366664095213" id="-17094">
		<tag k="name" v="Åbbortjenn" />
		<tag k="natural" v="water" />
		<tag k="ssr:stedsnr" v="612182" />
	</node>
	<node lat="60.0265499985629" lon="11.949302782247887" id="-17114">
		<tag k="name" v="Knattjennet" />
=======
	<node id="-320009" lat="59.9732749997" lon="12.1404416646">
		<tag k="alt_name" v="Gaustadsjøen, store;Store Gaustadsjøen" />
		<tag k="name" v="Gaustadsjøen" />
		<tag k="natural" v="water" />
		<tag k="ssr:stedsnr" v="126467" />
	</node>
	<node id="-320004" lat="59.9297000003" lon="11.9424527769">
		<tag k="name" v="Merasttjenn" />
>>>>>>> e1d4bc35ff8a6074a6f2e91616a996b547c36f15
		<tag k="natural" v="water" />
		<tag k="ssr:stedsnr" v="612641" />
	</node>
<<<<<<< HEAD
	<node lat="60.06887777338135" lon="11.997161110990298" id="-17118">
		<tag k="name" v="Grimstjennet" />
		<tag k="natural" v="water" />
		<tag k="ssr:stedsnr" v="612706" />
	</node>
	<node lat="60.01001389331188" lon="11.938633335395558" id="-17121">
		<tag k="name" v="Svarttjennet" />
=======
	<node id="-320002" lat="59.9360388846" lon="12.1069388886">
		<tag k="name" v="Kroktjenn" />
		<tag k="natural" v="water" />
		<tag k="ssr:stedsnr" v="126358" />
	</node>
	<node id="-319999" lat="59.921883336" lon="11.9034305582">
		<tag k="name" v="Bjørnøya" />
		<tag k="place" v="islet" />
		<tag k="ssr:stedsnr" v="126337" />
	</node>
	<node id="-319993" lat="59.951405552" lon="11.9956527709">
		<tag k="name" v="Jerpsettjenn" />
>>>>>>> e1d4bc35ff8a6074a6f2e91616a996b547c36f15
		<tag k="natural" v="water" />
		<tag k="ssr:stedsnr" v="612870" />
	</node>
<<<<<<< HEAD
	<node lat="60.06658333745239" lon="11.95711945100337" id="-17125">
		<tag k="name" v="Søndre Nysætertjennet" />
=======
	<node id="-319982" lat="59.9186438188" lon="11.8326904747">
		<tag k="name" v="Bertetjennet" />
>>>>>>> e1d4bc35ff8a6074a6f2e91616a996b547c36f15
		<tag k="natural" v="water" />
		<tag k="ssr:stedsnr" v="642160" />
	</node>
<<<<<<< HEAD
	<node lat="60.0478777741612" lon="12.089975001967812" id="-17126">
		<tag k="name" v="Fardintjennet" />
		<tag k="natural" v="water" />
		<tag k="ssr:stedsnr" v="642664" />
	</node>
	<node lat="59.902991664486414" lon="12.173788895386291" id="-17132">
		<tag k="name" v="Abbortjennbekken" />
		<tag k="ssr:stedsnr" v="654065" />
		<tag k="waterway" v="stream" />
	</node>
	<node lat="60.030566665428694" lon="11.842497224612059" id="-17146">
		<tag k="name" v="Rudbergstjennet" />
=======
	<node id="-319979" lat="60.0188268926" lon="12.2293171543">
		<tag k="name" v="Veksaren" />
		<tag k="natural" v="water" />
		<tag k="ssr:stedsnr" v="126051" />
		<tag k="water" v="lake" />
	</node>
	<node id="-319969" lat="59.906377775" lon="11.882975008">
		<tag k="name" v="Anehellene" />
		<tag k="place" v="islet" />
		<tag k="ssr:stedsnr" v="109693" />
	</node>
	<node id="-319968" lat="59.9081722241" lon="11.8350472224">
		<tag k="name" v="Smalongen" />
		<tag k="ssr:stedsnr" v="109571" />
		<tag k="waterway" v="stream" />
	</node>
	<node id="-318544" lat="59.9944715404" lon="12.1150015616">
		<tag k="name" v="Hesbølsjøen" />
		<tag k="natural" v="water" />
		<tag k="ssr:stedsnr" v="248356" />
		<tag k="water" v="lake" />
	</node>
	<node id="-319955" lat="60.0010333331" lon="12.1609361154">
		<tag k="name" v="Kvernbekken" />
		<tag k="ssr:stedsnr" v="108857" />
		<tag k="waterway" v="stream" />
	</node>
	<node id="-318541" lat="59.921555556" lon="12.0839999976">
		<tag k="name" v="Fløyta" />
		<tag k="ssr:stedsnr" v="248313" />
		<tag k="waterway" v="stream" />
	</node>
	<node id="-319941" lat="59.9977555569" lon="12.1111472303">
		<tag k="name" v="Okseøyet" />
>>>>>>> e1d4bc35ff8a6074a6f2e91616a996b547c36f15
		<tag k="natural" v="water" />
		<tag k="ssr:stedsnr" v="654259" />
	</node>
<<<<<<< HEAD
	<node lat="59.90982777833789" lon="11.907994449936126" id="-17149">
		<tag k="name" v="Putten" />
		<tag k="natural" v="water" />
		<tag k="ssr:stedsnr" v="654279" />
		<tag k="water" v="pond" />
	</node>
	<node lat="59.991488887901966" lon="12.084505557801332" id="-17156">
		<tag k="name" v="Bjørnstadbekken" />
		<tag k="ssr:stedsnr" v="654427" />
		<tag k="waterway" v="stream" />
	</node>
	<node lat="60.10426666387653" lon="12.082705559382637" id="-17157">
		<tag k="name" v="Dulpa" />
		<tag k="natural" v="water" />
		<tag k="ssr:stedsnr" v="654496" />
	</node>
	<node lat="59.93409721947351" lon="11.846630554743529" id="-17158">
		<tag k="name" v="Bråtaelva" />
		<tag k="ssr:stedsnr" v="654498" />
		<tag k="waterway" v="river" />
	</node>
	<node lat="59.949922220851164" lon="12.109969439350172" id="-17162">
		<tag k="name" v="Okseauget" />
=======
	<node id="-319939" lat="60.0944555595" lon="12.0826666687">
		<tag k="name" v="Mellemtjennet" />
		<tag k="natural" v="water" />
		<tag k="ssr:stedsnr" v="108511" />
	</node>
	<node id="-319937" lat="59.8916388933" lon="11.8308861068">
		<tag k="name" v="Kunabben" />
		<tag k="natural" v="cape" />
		<tag k="ssr:stedsnr" v="108476" />
	</node>
	<node id="-319936" lat="60.0675666649" lon="12.247913894">
		<tag k="name" v="Fugletangen" />
		<tag k="natural" v="cape" />
		<tag k="ssr:stedsnr" v="108461" />
	</node>
	<node id="-319933" lat="59.9861249991" lon="12.1433222162">
		<tag k="name" v="Granerudbekken" />
		<tag k="ssr:stedsnr" v="108426" />
		<tag k="waterway" v="stream" />
	</node>
	<node id="-319927" lat="59.9340972236" lon="12.0787138807">
		<tag k="name" v="Tutaren" />
		<tag k="natural" v="cape" />
		<tag k="ssr:stedsnr" v="108363" />
	</node>
	<node id="-319923" lat="60.0393833359" lon="11.9701444502">
		<tag k="name" v="Holmtjennet" />
>>>>>>> e1d4bc35ff8a6074a6f2e91616a996b547c36f15
		<tag k="natural" v="water" />
		<tag k="ssr:stedsnr" v="654526" />
		<tag k="water" v="pond" />
	</node>
<<<<<<< HEAD
	<node lat="59.91998611263648" lon="11.836177779376861" id="-17165">
		<tag k="name" v="Ljønertjennet" />
=======
	<node id="-319921" lat="59.898769447" lon="12.0207027794">
		<tag k="name" v="Kutjennet" />
>>>>>>> e1d4bc35ff8a6074a6f2e91616a996b547c36f15
		<tag k="natural" v="water" />
		<tag k="ssr:stedsnr" v="654614" />
	</node>
<<<<<<< HEAD
	<node lat="59.95267222602442" lon="11.801158336885086" id="-17166">
		<tag k="name" v="Øysjøfossnabben" />
		<tag k="natural" v="cape" />
		<tag k="ssr:stedsnr" v="654618" />
	</node>
	<node lat="59.88893611233358" lon="12.053352781851824" id="-17174">
		<tag k="name" v="Bjuråbekken" />
		<tag k="ssr:stedsnr" v="654552" />
		<tag k="waterway" v="stream" />
	</node>
	<node lat="60.00321667050772" lon="12.160569444140299" id="-17222">
		<tag k="name" v="Dammen" />
		<tag k="ssr:stedsnr" v="715222" />
		<tag k="waterway" v="dam" />
	</node>
	<node lat="60.08599444859172" lon="12.173858339632837" id="-17223">
		<tag k="name" v="Grønnebekkenåa" />
		<tag k="ssr:stedsnr" v="715227" />
		<tag k="waterway" v="river" />
	</node>
	<node lat="59.977230554134984" lon="12.246772230753733" id="-17231">
		<tag k="name" v="Steinsrudbekken" />
		<tag k="ssr:stedsnr" v="715232" />
		<tag k="waterway" v="stream" />
	</node>
	<node lat="60.057344445159416" lon="12.275305549847296" id="-17236">
		<tag k="name" v="Brannesodden" />
		<tag k="natural" v="cape" />
		<tag k="ssr:stedsnr" v="715246" />
	</node>
	<node lat="60.08536110838241" lon="11.996425008491807" id="-17240">
		<tag k="name" v="Okseøyet" />
		<tag k="natural" v="water" />
		<tag k="ssr:stedsnr" v="715475" />
		<tag k="water" v="pond" />
	</node>
	<node lat="59.900988889631044" lon="11.845905554678957" id="-17241">
		<tag k="name" v="Fløyttjennet" />
=======
	<node id="-319919" lat="59.9218027769" lon="12.0426861118">
		<tag k="name" v="Svartvikbekken" />
		<tag k="ssr:stedsnr" v="108328" />
		<tag k="waterway" v="stream" />
	</node>
	<node id="-319913" lat="59.9111638929" lon="11.8847166592">
		<tag k="name" v="Sundsodden" />
		<tag k="natural" v="cape" />
		<tag k="ssr:stedsnr" v="108276" />
	</node>
	<node id="-319905" lat="60.0723916681" lon="12.1444722286">
		<tag k="name" v="Trunnebekken" />
		<tag k="ssr:stedsnr" v="108218" />
		<tag k="waterway" v="river" />
	</node>
	<node id="-319887" lat="59.8948777784" lon="12.1092444415">
		<tag k="name" v="Ropartangen" />
		<tag k="natural" v="cape" />
		<tag k="ssr:stedsnr" v="108063" />
	</node>
	<node id="-319885" lat="59.9505083321" lon="12.2852277828">
		<tag k="name" v="Breitjennbekken" />
		<tag k="ssr:stedsnr" v="108019" />
		<tag k="waterway" v="stream" />
	</node>
	<node id="-319883" lat="59.9111666651" lon="11.8936361185">
		<tag k="name" v="Måken" />
		<tag k="place" v="islet" />
		<tag k="ssr:stedsnr" v="108006" />
	</node>
	<node id="-319876" lat="59.9534491066" lon="11.9246981698">
		<tag k="name" v="Vestre Holmtjennet" />
>>>>>>> e1d4bc35ff8a6074a6f2e91616a996b547c36f15
		<tag k="natural" v="water" />
		<tag k="ssr:stedsnr" v="715501" />
	</node>
<<<<<<< HEAD
	<node lat="59.9572694472834" lon="11.801038881589317" id="-17244">
		<tag k="name" v="Grønnvika" />
		<tag k="natural" v="bay" />
		<tag k="ssr:stedsnr" v="715520" />
	</node>
	<node lat="59.941608332470985" lon="11.839461111562938" id="-17246">
		<tag k="name" v="Perodden" />
		<tag k="natural" v="cape" />
		<tag k="ssr:stedsnr" v="715737" />
	</node>
	<node lat="60.05605833023686" lon="11.959483327267437" id="-17252">
		<tag k="name" v="Ulvetjennet" />
=======
	<node id="-319870" lat="60.0463361097" lon="12.1386888852">
		<tag k="name" v="Motjennet" />
>>>>>>> e1d4bc35ff8a6074a6f2e91616a996b547c36f15
		<tag k="natural" v="water" />
		<tag k="ssr:stedsnr" v="715663" />
	</node>
<<<<<<< HEAD
	<node lat="60.034074610486044" lon="12.31831530890467" id="-17268">
		<tag k="fixme" v="multiple name tags, choose one and add the other to alt_name" />
		<tag k="name" v="Østre Åstjenn;Åstjenn" />
		<tag k="natural" v="water" />
		<tag k="ssr:stedsnr" v="733026" />
	</node>
	<node lat="59.9218277811742" lon="11.809258338893422" id="-17272">
		<tag k="name" v="Slengtjenn" />
=======
	<node id="-318691" lat="59.9924055577" lon="11.8257444446">
		<tag k="name" v="Ferjevika" />
		<tag k="natural" v="bay" />
		<tag k="ssr:stedsnr" v="291264" />
	</node>
	<node id="-319865" lat="60.0347638875" lon="12.1851861112">
		<tag k="name" v="Langtjennet" />
>>>>>>> e1d4bc35ff8a6074a6f2e91616a996b547c36f15
		<tag k="natural" v="water" />
		<tag k="ssr:stedsnr" v="733066" />
	</node>
<<<<<<< HEAD
	<node lat="60.06698610706656" lon="11.955572230301112" id="-17283">
		<tag k="name" v="Nysætertjenna" />
=======
	<node id="-319864" lat="60.0357234289" lon="11.8863395919">
		<tag k="name" v="Sundtjenna" />
>>>>>>> e1d4bc35ff8a6074a6f2e91616a996b547c36f15
		<tag k="natural" v="water" />
		<tag k="ssr:stedsnr" v="733678" />
		<tag k="water" v="lake" />
	</node>
<<<<<<< HEAD
	<node lat="60.025067016410254" lon="11.844766357068268" id="-17286">
		<tag k="fixme" v="multiple name tags, choose one and add the other to alt_name" />
		<tag k="name" v="Breidfløyta;Stor-Fløyta" />
		<tag k="natural" v="water" />
		<tag k="ssr:stedsnr" v="733607" />
	</node>
	<node lat="59.85422777395072" lon="11.880113880529874" id="-17294">
		<tag k="name" v="Langebekken" />
		<tag k="ssr:stedsnr" v="734161" />
		<tag k="waterway" v="stream" />
	</node>
	<node lat="59.89829999624562" lon="11.942938894167213" id="-17295">
		<tag k="name" v="Store Åbbortjenn" />
=======
	<node id="-319859" lat="59.9974805594" lon="11.9937777797">
		<tag k="name" v="Knattbekken" />
		<tag k="ssr:stedsnr" v="66382" />
		<tag k="waterway" v="stream" />
	</node>
	<node id="-319858" lat="59.9930305551" lon="11.9170611189">
		<tag k="name" v="Kampetjenn" />
>>>>>>> e1d4bc35ff8a6074a6f2e91616a996b547c36f15
		<tag k="natural" v="water" />
		<tag k="ssr:stedsnr" v="734172" />
	</node>
<<<<<<< HEAD
	<node lat="59.986296461066175" lon="12.215975000490571" id="-17299">
		<tag k="name" v="Nessjøen" />
=======
	<node id="-319853" lat="59.9258472261" lon="12.0585861121">
		<tag k="name" v="Lomtjenn" />
>>>>>>> e1d4bc35ff8a6074a6f2e91616a996b547c36f15
		<tag k="natural" v="water" />
		<tag k="ssr:stedsnr" v="734517" />
		<tag k="water" v="lake" />
	</node>
<<<<<<< HEAD
	<node lat="60.02878021786226" lon="11.926907400383774" id="-17301">
		<tag k="name" v="Spjuttjenna" />
=======
	<node id="-319852" lat="59.9309999958" lon="12.0785583289">
		<tag k="name" v="Ingelsrudsjøen" />
>>>>>>> e1d4bc35ff8a6074a6f2e91616a996b547c36f15
		<tag k="natural" v="water" />
		<tag k="ssr:stedsnr" v="734672" />
		<tag k="water" v="lake" />
	</node>
<<<<<<< HEAD
	<node lat="60.03643888831291" lon="11.875747225866887" id="-17303">
		<tag k="name" v="Fisketjennet" />
=======
	<node id="-319848" lat="59.8935499973" lon="12.0391888842">
		<tag k="alt_name" v="Hansøya" />
		<tag k="name" v="Ingelsrudøya" />
		<tag k="place" v="islet" />
		<tag k="ssr:stedsnr" v="66183" />
	</node>
	<node id="-319843" lat="59.9427138878" lon="11.87503055">
		<tag k="name" v="Vintertjenn" />
>>>>>>> e1d4bc35ff8a6074a6f2e91616a996b547c36f15
		<tag k="natural" v="water" />
		<tag k="ssr:stedsnr" v="734701" />
	</node>
<<<<<<< HEAD
	<node lat="60.00641944780395" lon="12.003150006086996" id="-17305">
		<tag k="name" v="Søndre Hissitjenn" />
=======
	<node id="-319841" lat="60.0184027824" lon="12.2510027711">
		<tag k="name" v="Ristjennet" />
>>>>>>> e1d4bc35ff8a6074a6f2e91616a996b547c36f15
		<tag k="natural" v="water" />
		<tag k="ssr:stedsnr" v="764333" />
	</node>
<<<<<<< HEAD
	<node lat="59.877511109917876" lon="11.881719436431753" id="-17314">
		<tag k="name" v="Svartvika" />
		<tag k="natural" v="bay" />
		<tag k="ssr:stedsnr" v="775516" />
	</node>
	<node lat="60.02119166325234" lon="12.216658329248629" id="-17319">
		<tag k="name" v="Raufjelldølpa" />
=======
	<node id="-319823" lat="59.9538333291" lon="11.964155563">
		<tag k="name" v="Søndre Svarttjennet" />
>>>>>>> e1d4bc35ff8a6074a6f2e91616a996b547c36f15
		<tag k="natural" v="water" />
		<tag k="ssr:stedsnr" v="775881" />
		<tag k="water" v="pond" />
	</node>
<<<<<<< HEAD
	<node lat="59.90473055756405" lon="12.047883333372692" id="-17327">
		<tag k="name" v="Aurneset" />
=======
	<node id="-319817" lat="59.9383055583" lon="11.8341444437">
		<tag k="name" v="Arnenabben" />
>>>>>>> e1d4bc35ff8a6074a6f2e91616a996b547c36f15
		<tag k="natural" v="cape" />
		<tag k="ssr:stedsnr" v="776043" />
	</node>
<<<<<<< HEAD
	<node lat="60.070186111759575" lon="12.111024993077029" id="-17334">
		<tag k="name" v="Malmerbekken" />
		<tag k="ssr:stedsnr" v="776150" />
		<tag k="waterway" v="stream" />
	</node>
	<node lat="59.90062777627791" lon="12.05276388210992" id="-17344">
		<tag k="name" v="Fantevika" />
		<tag k="natural" v="bay" />
		<tag k="ssr:stedsnr" v="776317" />
	</node>
	<node lat="60.01122222205451" lon="12.154674996895448" id="-17352">
		<tag k="name" v="Okseøyet" />
=======
	<node id="-319814" lat="60.0337194478" lon="11.8869361184">
		<tag k="name" v="Søndre Sundtjennet" />
		<tag k="natural" v="water" />
		<tag k="ssr:stedsnr" v="48639" />
	</node>
	<node id="-319808" lat="59.9419027737" lon="12.0291555613">
		<tag k="name" v="Krabbetjennet" />
		<tag k="natural" v="water" />
		<tag k="ssr:stedsnr" v="48495" />
	</node>
	<node id="-319806" lat="60.0108805535" lon="12.051941671">
		<tag k="name" v="Rødbergstjennet" />
>>>>>>> e1d4bc35ff8a6074a6f2e91616a996b547c36f15
		<tag k="natural" v="water" />
		<tag k="ssr:stedsnr" v="776487" />
		<tag k="water" v="pond" />
	</node>
<<<<<<< HEAD
	<node lat="59.9608277792167" lon="11.853122220030583" id="-17360">
		<tag k="name" v="Akrilbekken" />
		<tag k="ssr:stedsnr" v="776707" />
		<tag k="waterway" v="stream" />
	</node>
	<node lat="59.95420833075575" lon="11.803427772348783" id="-17364">
		<tag k="name" v="Langvika" />
		<tag k="natural" v="bay" />
		<tag k="ssr:stedsnr" v="776598" />
	</node>
	<node lat="60.04051110946631" lon="11.83639166033189" id="-17366">
		<tag k="name" v="Morttjennet" />
=======
	<node id="-319798" lat="59.9737388866" lon="11.8829500086">
		<tag k="name" v="Vestre Støtjennet" />
		<tag k="natural" v="water" />
		<tag k="ssr:stedsnr" v="48258" />
	</node>
	<node id="-320666" lat="60.091599998" lon="12.1215138943">
		<tag k="alt_name" v="Aklangen, nordre" />
		<tag k="name" v="Nordre Åklangen" />
		<tag k="natural" v="water" />
		<tag k="ssr:stedsnr" v="551740" />
		<tag k="water" v="lake" />
	</node>
	<node id="-319779" lat="59.8939555551" lon="12.1244972196">
		<tag k="name" v="Linnatjennet" />
>>>>>>> e1d4bc35ff8a6074a6f2e91616a996b547c36f15
		<tag k="natural" v="water" />
		<tag k="ssr:stedsnr" v="776689" />
	</node>
<<<<<<< HEAD
	<node lat="59.99082500045815" lon="12.345480563334101" id="-17368">
		<tag k="name" v="Sandvika" />
		<tag k="natural" v="bay" />
		<tag k="ssr:stedsnr" v="776960" />
	</node>
	<node lat="59.992494442016834" lon="12.167077786356435" id="-17369">
		<tag k="name" v="Nordlibekken" />
		<tag k="ssr:stedsnr" v="776983" />
		<tag k="waterway" v="stream" />
	</node>
	<node lat="59.86588610735328" lon="11.833388891580773" id="-17371">
		<tag k="name" v="Store Skjærtjennet" />
=======
	<node id="-319763" lat="60.0984722217" lon="12.1725555569">
		<tag k="name" v="Klopptjennet" />
>>>>>>> e1d4bc35ff8a6074a6f2e91616a996b547c36f15
		<tag k="natural" v="water" />
		<tag k="ssr:stedsnr" v="786170" />
	</node>
<<<<<<< HEAD
	<node lat="59.877397226017074" lon="11.836538881049147" id="-17372">
		<tag k="name" v="Høgåstjenn" />
		<tag k="natural" v="water" />
		<tag k="ssr:stedsnr" v="793220" />
	</node>
	<node lat="59.97672221850208" lon="11.805266660713066" id="-17382">
		<tag k="name" v="Haveråa" />
		<tag k="ssr:stedsnr" v="793993" />
		<tag k="waterway" v="river" />
	</node>
	<node lat="59.97379166619256" lon="11.809016658337358" id="-17383">
		<tag k="name" v="Asketjennet" />
=======
	<node id="-319762" lat="60.0984611118" lon="12.1600166626">
		<tag k="name" v="Vesle Baksjøen" />
		<tag k="natural" v="water" />
		<tag k="ssr:stedsnr" v="47482" />
	</node>
	<node id="-319760" lat="59.9654083332" lon="11.7979722135">
		<tag k="name" v="Brennabben" />
		<tag k="natural" v="cape" />
		<tag k="ssr:stedsnr" v="47473" />
	</node>
	<node id="-319758" lat="59.8768666692" lon="11.8238611159">
		<tag k="name" v="Skjærtjennvika" />
		<tag k="natural" v="bay" />
		<tag k="ssr:stedsnr" v="47456" />
	</node>
	<node id="-319754" lat="60.0431638924" lon="12.0373722255">
		<tag k="name" v="Fjellåa" />
		<tag k="old_name" v="Fjeldåa" />
		<tag k="ssr:stedsnr" v="47351" />
		<tag k="waterway" v="river" />
	</node>
	<node id="-319748" lat="59.9341472251" lon="11.8639833274">
		<tag k="name" v="Nordre Kisviktjennet" />
>>>>>>> e1d4bc35ff8a6074a6f2e91616a996b547c36f15
		<tag k="natural" v="water" />
		<tag k="ssr:stedsnr" v="793995" />
	</node>
<<<<<<< HEAD
	<node lat="59.96208055592997" lon="12.17103055616128" id="-17384">
		<tag k="name" v="Vrangselva" />
		<tag k="ssr:stedsnr" v="794271" />
		<tag k="waterway" v="stream" />
	</node>
	<node lat="59.91556110927089" lon="11.882013892092791" id="-17388">
		<tag k="alt_name" v="Buvikneset" />
		<tag k="name" v="Buviknesa" />
=======
	<node id="-319747" lat="59.9256444456" lon="11.8805555626">
		<tag k="name" v="Vintervika" />
		<tag k="natural" v="bay" />
		<tag k="ssr:stedsnr" v="47275" />
	</node>
	<node id="-319743" lat="59.9868527806" lon="12.2640277796">
		<tag k="name" v="Kauservåka" />
>>>>>>> e1d4bc35ff8a6074a6f2e91616a996b547c36f15
		<tag k="natural" v="cape" />
		<tag k="ssr:stedsnr" v="794299" />
	</node>
<<<<<<< HEAD
	<node lat="59.92988055808736" lon="12.10441110383713" id="-17389">
		<tag k="name" v="Purketjenn" />
		<tag k="natural" v="water" />
		<tag k="ssr:stedsnr" v="794333" />
	</node>
	<node lat="59.93093333263858" lon="11.84713332647408" id="-17391">
		<tag k="name" v="Korstjenn" />
		<tag k="natural" v="water" />
		<tag k="ssr:stedsnr" v="794340" />
	</node>
	<node lat="59.99142499724442" lon="12.010375002783332" id="-17392">
		<tag k="name" v="Djupdalsbekken" />
		<tag k="ssr:stedsnr" v="794357" />
		<tag k="waterway" v="stream" />
	</node>
	<node lat="60.0300444469789" lon="11.973369440431311" id="-17397">
		<tag k="name" v="Hulderpytten" />
		<tag k="natural" v="water" />
		<tag k="ssr:stedsnr" v="794639" />
		<tag k="water" v="pond" />
	</node>
	<node lat="60.019277776687204" lon="11.987180562363571" id="-17401">
		<tag k="name" v="Tryggbekken" />
		<tag k="ssr:stedsnr" v="794660" />
		<tag k="waterway" v="stream" />
	</node>
	<node lat="60.12804166589218" lon="12.239108340379888" id="-17410">
		<tag k="name" v="Holsætertjennet" />
		<tag k="natural" v="water" />
		<tag k="ssr:stedsnr" v="794948" />
	</node>
	<node lat="59.894558335608885" lon="11.87531110302043" id="-17411">
		<tag k="name" v="Øya" />
		<tag k="place" v="islet" />
		<tag k="ssr:stedsnr" v="795212" />
	</node>
	<node lat="59.92174999583875" lon="11.911602778516365" id="-17417">
		<tag k="name" v="Østre Gørrvika" />
=======
	<node id="-319740" lat="59.972397226" lon="12.3260638887">
		<tag k="name" v="Nottjennbekken" />
		<tag k="ssr:stedsnr" v="47163" />
		<tag k="waterway" v="stream" />
	</node>
	<node id="-319731" lat="60.0067472181" lon="12.2920611122">
		<tag k="name" v="Kvernbekken" />
		<tag k="ssr:stedsnr" v="47131" />
		<tag k="waterway" v="stream" />
	</node>
	<node id="-319720" lat="59.9298749957" lon="11.8843499955">
		<tag k="name" v="Kisvika" />
>>>>>>> e1d4bc35ff8a6074a6f2e91616a996b547c36f15
		<tag k="natural" v="bay" />
		<tag k="ssr:stedsnr" v="836219" />
	</node>
	<node lat="59.90804166443448" lon="11.901944446037898" id="-17420">
		<tag k="name" v="Søndre Bekken" />
		<tag k="ssr:stedsnr" v="837278" />
		<tag k="waterway" v="stream" />
	</node>
	<node lat="59.92095000435173" lon="11.860830555336268" id="-17425">
		<tag k="name" v="Gørrvika" />
		<tag k="natural" v="bay" />
		<tag k="ssr:stedsnr" v="836424" />
	</node>
	<node lat="60.05658549351311" lon="11.945418946686214" id="-17427">
		<tag k="name" v="Nordre Aurkyttjennet" />
		<tag k="natural" v="water" />
		<tag k="ssr:stedsnr" v="836547" />
	</node>
	<node id="-319868" lat="60.0538843918" lon="11.9728344868">
		<tag k="fixme" v="multiple name tags, choose one and add the other to alt_name" />
		<tag k="name" v="Høgmyrtjennet;Nauttjennet" />
		<tag k="natural" v="water" />
		<tag k="ssr:stedsnr" v="66650" />
	</node>
	<node id="-319715" lat="60.0490358563" lon="11.826435496">
		<tag k="alt_name" v="Possetjennet" />
		<tag k="name" v="Frosketjennet" />
		<tag k="natural" v="water" />
		<tag k="ssr:stedsnr" v="6566" />
	</node>
	<node id="-319714" lat="59.9709416652" lon="12.0017555497">
		<tag k="name" v="Teigbergtjennet" />
		<tag k="natural" v="water" />
		<tag k="ssr:stedsnr" v="6491" />
	</node>
	<node id="-319708" lat="59.9023626664" lon="12.1813060554">
		<tag k="fixme" v="multiple name tags, choose one and add the other to alt_name" />
		<tag k="name" v="Østre Åbbortjennet;Åbbortjenn" />
		<tag k="natural" v="water" />
		<tag k="ssr:stedsnr" v="6196" />
	</node>
	<node id="-319705" lat="59.9949138917" lon="11.8351472268">
		<tag k="name" v="Havsjøen" />
		<tag k="natural" v="water" />
		<tag k="ssr:stedsnr" v="5953" />
		<tag k="water" v="lake" />
	</node>
	<node id="-319700" lat="60.0067749987" lon="11.8472694397">
		<tag k="name" v="Lomtjennet" />
		<tag k="natural" v="water" />
		<tag k="ssr:stedsnr" v="5827" />
	</node>
	<node id="-319696" lat="60.1019361137" lon="12.0909055511">
		<tag k="name" v="Damtjennet" />
		<tag k="natural" v="water" />
		<tag k="ssr:stedsnr" v="5694" />
	</node>
	<node id="-319695" lat="60.0749333295" lon="11.9748305505">
		<tag k="name" v="Helledammen" />
		<tag k="natural" v="water" />
		<tag k="ssr:stedsnr" v="5677" />
	</node>
	<node id="-319693" lat="60.0387000019" lon="11.8487805495">
		<tag k="alt_name" v="Børen, vesle" />
		<tag k="name" v="Vesle Børen" />
		<tag k="natural" v="water" />
		<tag k="ssr:stedsnr" v="5662" />
	</node>
	<node id="-319687" lat="59.9832777806" lon="11.8709583369">
		<tag k="name" v="Smedrudtjenn" />
		<tag k="natural" v="water" />
		<tag k="ssr:stedsnr" v="5465" />
	</node>
	<node id="-319675" lat="59.9395361152" lon="12.1826611171">
		<tag k="name" v="Leirbekken" />
		<tag k="ssr:stedsnr" v="5358" />
		<tag k="waterway" v="stream" />
	</node>
	<node id="-319669" lat="59.9580527767" lon="11.9144777808">
		<tag k="name" v="Østre Mortkjøltjennet" />
		<tag k="natural" v="water" />
		<tag k="ssr:stedsnr" v="5300" />
	</node>
	<node id="-319663" lat="59.995180559" lon="12.2716527764">
		<tag k="name" v="Tremannsdolpa" />
		<tag k="natural" v="water" />
		<tag k="ssr:stedsnr" v="5241" />
	</node>
	<node id="-319662" lat="59.9542666697" lon="12.2434333287">
		<tag k="name" v="Veksa" />
		<tag k="ssr:stedsnr" v="5226" />
		<tag k="waterway" v="river" />
	</node>
	<node id="-319661" lat="59.9554984927" lon="12.2653845256">
		<tag k="alt_name" v="Melltjenn" />
		<tag k="name" v="Meittjennet" />
		<tag k="natural" v="water" />
		<tag k="ssr:stedsnr" v="5224" />
	</node>
	<node id="-319656" lat="59.9036083304" lon="11.8727499985">
		<tag k="name" v="Uglevika" />
		<tag k="natural" v="bay" />
		<tag k="ssr:stedsnr" v="5166" />
	</node>
	<node id="-319655" lat="59.9037777775" lon="11.9119416744">
		<tag k="name" v="Søndre Emtjenn" />
		<tag k="natural" v="water" />
		<tag k="ssr:stedsnr" v="5157" />
	</node>
	<node id="-319654" lat="59.883972218" lon="11.9200222201">
		<tag k="name" v="Tannsjøen" />
		<tag k="natural" v="water" />
		<tag k="ssr:stedsnr" v="5139" />
		<tag k="water" v="lake" />
	</node>
	<node id="-319646" lat="60.0317750042" lon="12.2292749948">
		<tag k="name" v="Svartbekken" />
		<tag k="ssr:stedsnr" v="5019" />
		<tag k="waterway" v="stream" />
	</node>
	<node id="-319645" lat="59.9152416676" lon="11.8313166649">
		<tag k="name" v="Lauvhøgdtjennet" />
		<tag k="natural" v="water" />
		<tag k="ssr:stedsnr" v="5014" />
	</node>
	<node id="-319643" lat="59.9048764437" lon="11.8437819471">
		<tag k="name" v="Stor-Åbbortjennet" />
		<tag k="natural" v="water" />
		<tag k="ssr:stedsnr" v="4220" />
	</node>
	<node id="-319638" lat="59.8893138908" lon="12.0334222221">
		<tag k="name" v="Linneholmene" />
		<tag k="place" v="islet" />
		<tag k="ssr:stedsnr" v="958563" />
	</node>
	<node id="-319637" lat="59.9349583342" lon="12.0125527843">
		<tag k="name" v="Gørrvika" />
		<tag k="natural" v="bay" />
		<tag k="ssr:stedsnr" v="958556" />
	</node>
	<node id="-319636" lat="59.9030611123" lon="11.8766944361">
		<tag k="name" v="Langviknabben" />
		<tag k="natural" v="cape" />
		<tag k="ssr:stedsnr" v="946755" />
	</node>
	<node id="-319626" lat="59.9412944145" lon="12.0516244109">
		<tag k="fixme" v="multiple name tags, choose one and add the other to alt_name" />
		<tag k="name" v="Aspuntjennet;Asbjørntjenn" />
		<tag k="natural" v="water" />
		<tag k="ssr:stedsnr" v="916261" />
	</node>
	<node id="-319619" lat="60.0326000014" lon="12.2236833273">
		<tag k="name" v="Aursjøbekken" />
		<tag k="ssr:stedsnr" v="916021" />
		<tag k="waterway" v="stream" />
	</node>
	<node id="-319616" lat="60.0136166642" lon="12.0047722208">
		<tag k="name" v="Nordre Hissitjenn" />
		<tag k="natural" v="water" />
		<tag k="ssr:stedsnr" v="915858" />
	</node>
	<node id="-319614" lat="60.0912055548" lon="12.1814944355">
		<tag k="name" v="Merstjennet" />
		<tag k="natural" v="water" />
		<tag k="ssr:stedsnr" v="915720" />
	</node>
	<node id="-319606" lat="59.9201999962" lon="11.9403999943">
		<tag k="name" v="Trysjøen" />
		<tag k="natural" v="water" />
		<tag k="ssr:stedsnr" v="915322" />
	</node>
	<node id="-320873" lat="59.9355944447" lon="11.9967833362">
		<tag k="name" v="Brustadvika" />
		<tag k="natural" v="bay" />
		<tag k="ssr:stedsnr" v="654542" />
	</node>
	<node id="-319602" lat="59.8961527737" lon="12.1582750014">
		<tag k="name" v="Åtjennet" />
		<tag k="natural" v="water" />
		<tag k="ssr:stedsnr" v="915126" />
	</node>
	<node id="-319588" lat="59.8912611092" lon="11.8479000027">
		<tag k="name" v="Storelangtjennet" />
		<tag k="natural" v="water" />
		<tag k="ssr:stedsnr" v="897666" />
	</node>
	<node id="-318822" lat="59.9442444421" lon="11.8786083334">
		<tag k="name" v="Mortensontjennet" />
		<tag k="natural" v="water" />
		<tag k="ssr:stedsnr" v="472280" />
	</node>
	<node id="-319582" lat="59.8819944482" lon="11.9153972263">
		<tag k="name" v="Isakvika" />
		<tag k="natural" v="bay" />
		<tag k="ssr:stedsnr" v="897505" />
	</node>
	<node id="-318821" lat="59.9272555561" lon="11.9164666673">
		<tag k="name" v="Jussitjennet" />
		<tag k="natural" v="water" />
		<tag k="ssr:stedsnr" v="472260" />
	</node>
	<node id="-319577" lat="59.9294555562" lon="11.9023277865">
		<tag k="name" v="Ljønervika" />
		<tag k="natural" v="bay" />
		<tag k="ssr:stedsnr" v="897260" />
	</node>
	<node id="-319573" lat="59.900113886" lon="11.9098861089">
		<tag k="name" v="Bekketjennet" />
		<tag k="natural" v="water" />
		<tag k="ssr:stedsnr" v="886661" />
	</node>
	<node id="-319569" lat="60.0208472256" lon="12.0241555508">
		<tag k="name" v="Åbbortjennet" />
		<tag k="natural" v="water" />
		<tag k="ssr:stedsnr" v="855668" />
	</node>
	<node id="-319568" lat="60.0302611109" lon="12.2012277832">
		<tag k="name" v="Eiketjennet" />
		<tag k="natural" v="water" />
		<tag k="ssr:stedsnr" v="855660" />
	</node>
	<node id="-319567" lat="60.026450004" lon="11.9159722141">
		<tag k="name" v="Løvlitjennet" />
		<tag k="natural" v="water" />
		<tag k="ssr:stedsnr" v="855655" />
	</node>
	<node id="-319565" lat="60.0847361137" lon="12.2078166626">
		<tag k="name" v="Gørtjennet" />
		<tag k="natural" v="water" />
		<tag k="ssr:stedsnr" v="855712" />
	</node>
	<node id="-319556" lat="59.964716666" lon="11.906069442">
		<tag k="name" v="Vestre Mortkjøltjennet" />
		<tag k="natural" v="water" />
		<tag k="ssr:stedsnr" v="855419" />
	</node>
	<node id="-319550" lat="59.9305027794" lon="11.9049888802">
		<tag k="name" v="Ljønervika" />
		<tag k="natural" v="bay" />
		<tag k="ssr:stedsnr" v="855359" />
	</node>
	<node id="-319549" lat="59.9246611108" lon="11.9574305542">
		<tag k="name" v="Lomtjenn" />
		<tag k="natural" v="water" />
		<tag k="ssr:stedsnr" v="855356" />
	</node>
	<node id="-319547" lat="59.9013111125" lon="12.0108888922">
		<tag k="name" v="Vestre Morttjenn" />
		<tag k="natural" v="water" />
		<tag k="ssr:stedsnr" v="855165" />
	</node>
	<node id="-319542" lat="59.9042555545" lon="11.8174944524">
		<tag k="name" v="Høgåstjenn" />
		<tag k="natural" v="water" />
		<tag k="ssr:stedsnr" v="854214" />
	</node>
	<node id="-319533" lat="59.9719777799" lon="11.8910722235">
		<tag k="name" v="Østre Støtjennet" />
		<tag k="natural" v="water" />
		<tag k="ssr:stedsnr" v="837854" />
	</node>
	<node id="-319531" lat="59.9726888891" lon="12.0467361052">
		<tag k="name" v="Nordre Tobøltjennet" />
		<tag k="natural" v="water" />
		<tag k="ssr:stedsnr" v="837812" />
	</node>
	<node id="-319530" lat="59.8920277792" lon="11.8149527833">
		<tag k="name" v="Vangelva" />
		<tag k="ssr:stedsnr" v="837811" />
		<tag k="waterway" v="river" />
	</node>
	<node id="-319526" lat="59.8782722226" lon="11.8778166647">
		<tag k="name" v="Langvika" />
		<tag k="natural" v="bay" />
		<tag k="ssr:stedsnr" v="837719" />
	</node>
	<node id="-319513" lat="59.8833916634" lon="11.8176999924">
		<tag k="name" v="Gamleelva" />
		<tag k="ssr:stedsnr" v="837465" />
		<tag k="waterway" v="river" />
	</node>
	<node id="-319511" lat="59.9420416709" lon="12.0405361097">
		<tag k="name" v="Stæringsbekken" />
		<tag k="ssr:stedsnr" v="837411" />
		<tag k="waterway" v="stream" />
	</node>
	<node id="-319505" lat="60.025886109" lon="12.2881694529">
		<tag k="name" v="Skjeret" />
		<tag k="natural" v="cape" />
		<tag k="ssr:stedsnr" v="837154" />
	</node>
	<node id="-321202" lat="60.1017972215" lon="12.1999444434">
		<tag k="name" v="Bufjelltangen" />
		<tag k="natural" v="cape" />
		<tag k="ssr:stedsnr" v="958176" />
	</node>
	<node id="-319499" lat="59.895108334" lon="12.0173666618">
		<tag k="name" v="Nybakktjennet" />
		<tag k="natural" v="water" />
		<tag k="ssr:stedsnr" v="837070" />
	</node>
	<node id="-319493" lat="59.9277750015" lon="11.8976527852">
		<tag k="name" v="Smedøya" />
		<tag k="place" v="island" />
		<tag k="ssr:stedsnr" v="837005" />
	</node>
	<node id="-319491" lat="59.9209500044" lon="11.8608305553">
		<tag k="name" v="Gørrvika" />
		<tag k="natural" v="bay" />
		<tag k="ssr:stedsnr" v="836424" />
	</node>
	<node id="-319490" lat="59.9625527793" lon="11.8242499998">
		<tag k="name" v="Hyttetjennet" />
		<tag k="natural" v="water" />
		<tag k="ssr:stedsnr" v="836421" />
	</node>
</osm>
